<?xml version="1.0" encoding="UTF-8"?>
<osm version="0.6" generator="osmapis">
	<node id="1042033513" lat="58.5184628" lon="8.7078372" version="11" timestamp="2019-05-23T10:53:36Z" changeset="70547166" uid="103253" user="gormur">
		<tag k="aeroway" v="arp" />
		<tag k="icao" v="ENGK" />
		<tag k="name" v="Arendal lufthavn, Gullknapp" />
		<tag k="ssr:stedsnr" v="303231" />
		<tag k="ssr:type" v="flyplass" />
		<tag k="wikidata" v="Q2276604" />
		<tag k="wikipedia" v="no:Arendal lufthavn, Gullknapp" />
	</node>
	<node id="2185289671" lat="58.5078945" lon="8.62955" version="7" timestamp="2021-10-29T06:11:26Z" changeset="113107708" uid="3497659" user="NKA">
		<tag k="name" v="Osedalen" />
		<tag k="place" v="village" />
		<tag k="population" v="3271" />
		<tag k="population:date" v="2021-01-01" />
		<tag k="ref:ssb_tettsted" v="3551" />
		<tag k="source:population" v="SSB - befolkning i tettstedet" />
		<tag k="ssr:stedsnr" v="607508" />
		<tag k="ssr:type" v="tettbebyggelse" />
	</node>
	<node id="2600751723" lat="58.5387153" lon="8.4899547" version="5" timestamp="2018-04-10T18:40:08Z" changeset="57982147" uid="3497659" user="NKA">
		<tag k="name" v="Mjåvatn" />
		<tag k="place" v="village" />
		<tag k="ssr:stedsnr" v="61673" />
		<tag k="ssr:type" v="bygdelagBygd" />
	</node>
	<node id="3239104542" lat="58.5056778" lon="8.5917375" version="4" timestamp="2018-04-10T18:40:09Z" changeset="57982147" uid="3497659" user="NKA">
		<tag k="name" v="Tollmoen" />
		<tag k="place" v="farm" />
		<tag k="ssr:stedsnr" v="155049" />
		<tag k="ssr:type" v="bruk" />
	</node>
	<node id="3239104679" lat="58.5053836" lon="8.5847849" version="4" timestamp="2018-04-10T18:40:09Z" changeset="57982147" uid="3497659" user="NKA">
		<tag k="name" v="Einerkjerr" />
		<tag k="place" v="farm" />
		<tag k="ssr:stedsnr" v="337050" />
		<tag k="ssr:type" v="bruk" />
	</node>
	<node id="3239104693" lat="58.4992288" lon="8.5987544" version="4" timestamp="2018-04-10T18:40:09Z" changeset="57982147" uid="3497659" user="NKA">
		<tag k="name" v="Eikely" />
		<tag k="place" v="farm" />
		<tag k="ssr:stedsnr" v="823048" />
		<tag k="ssr:type" v="bruk" />
	</node>
	<node id="3239104803" lat="58.5005632" lon="8.5812202" version="6" timestamp="2018-04-10T18:40:10Z" changeset="57982147" uid="3497659" user="NKA">
		<tag k="alt_name" v="Froland Verk" />
		<tag k="name" v="Frolands verk" />
		<tag k="place" v="village" />
		<tag k="ssr:stedsnr" v="729522" />
		<tag k="ssr:type" v="bygdelagBygd" />
	</node>
	<node id="3782078480" lat="58.6487496" lon="8.5222423" version="3" timestamp="2018-04-10T18:40:11Z" changeset="57982147" uid="3497659" user="NKA">
		<tag k="name" v="Oland" />
		<tag k="place" v="hamlet" />
		<tag k="ssr:stedsnr" v="62982" />
		<tag k="ssr:type" v="bruk" />
	</node>
	<node id="3951893290" lat="58.558344" lon="8.6128162" version="5" timestamp="2018-04-10T18:40:14Z" changeset="57982147" uid="3497659" user="NKA">
		<tag k="name" v="Løvjomås" />
		<tag k="place" v="village" />
		<tag k="ssr:stedsnr" v="813134" />
		<tag k="ssr:type" v="bygdelagBygd" />
	</node>
	<node id="3951893291" lat="58.602388" lon="8.4165467" version="6" timestamp="2018-04-10T18:40:14Z" changeset="57982147" uid="3497659" user="NKA">
		<tag k="name" v="Hynnekleiv" />
		<tag k="place" v="village" />
		<tag k="ssr:stedsnr" v="911162" />
		<tag k="ssr:type" v="grend" />
	</node>
	<node id="3951893292" lat="58.6282328" lon="8.5236129" version="5" timestamp="2018-04-10T18:40:14Z" changeset="57982147" uid="3497659" user="NKA">
		<tag k="name" v="Heldalsmo" />
		<tag k="place" v="village" />
		<tag k="ssr:stedsnr" v="147119" />
		<tag k="ssr:type" v="grend" />
	</node>
	<node id="3951893294" lat="58.5780435" lon="8.7131423" version="3" timestamp="2018-04-10T18:40:14Z" changeset="57982147" uid="3497659" user="NKA">
		<tag k="name" v="Bøylestad" />
		<tag k="place" v="hamlet" />
		<tag k="ssr:stedsnr" v="486880" />
		<tag k="ssr:type" v="bruk" />
	</node>
	<node id="3951893299" lat="58.5054753" lon="8.6435018" version="4" timestamp="2018-04-10T18:40:14Z" changeset="57982147" uid="3497659" user="NKA">
		<tag k="name" v="Blakstad" />
		<tag k="place" v="neighbourhood" />
		<tag k="ssr:stedsnr" v="630183" />
		<tag k="ssr:type" v="tettbebyggelse" />
	</node>
	<node id="4261589480" lat="58.4552435" lon="8.6081492" version="2" timestamp="2018-04-10T18:43:17Z" changeset="57982147" uid="3497659" user="NKA">
		<tag k="name" v="Reinum" />
		<tag k="place" v="farm" />
		<tag k="source" v="Kartverket SSR" />
		<tag k="ssr:stedsnr" v="485591" />
		<tag k="ssr:type" v="bruk" />
	</node>
	<node id="4385834861" lat="58.6322686" lon="8.2880535" version="4" timestamp="2018-04-10T18:44:14Z" changeset="57982147" uid="3497659" user="NKA">
		<tag k="name" v="Mykland" />
		<tag k="place" v="village" />
		<tag k="ssr:stedsnr" v="365381" />
		<tag k="ssr:type" v="bygdelagBygd" />
	</node>
	<node id="4462185633" lat="58.5781822" lon="8.6364673" version="2" timestamp="2018-04-10T18:46:43Z" changeset="57982147" uid="3497659" user="NKA">
		<tag k="name" v="Alvestad" />
		<tag k="place" v="farm" />
		<tag k="ssr:stedsnr" v="850867" />
		<tag k="ssr:type" v="bruk" />
	</node>
	<node id="4462185634" lat="58.6051914" lon="8.4661268" version="2" timestamp="2018-04-10T18:46:43Z" changeset="57982147" uid="3497659" user="NKA">
		<tag k="name" v="Askland" />
		<tag k="place" v="farm" />
		<tag k="ssr:stedsnr" v="729340" />
		<tag k="ssr:type" v="bruk" />
	</node>
	<node id="4462185635" lat="58.6828049" lon="8.2768602" version="2" timestamp="2018-04-10T18:46:43Z" changeset="57982147" uid="3497659" user="NKA">
		<tag k="alt_name" v="Austad" />
		<tag k="name" v="Auestad" />
		<tag k="place" v="farm" />
		<tag k="ssr:stedsnr" v="61442" />
		<tag k="ssr:type" v="bruk" />
	</node>
	<node id="4462185636" lat="58.6853566" lon="8.2738728" version="2" timestamp="2018-04-10T18:46:43Z" changeset="57982147" uid="3497659" user="NKA">
		<tag k="name" v="Auestad" />
		<tag k="place" v="farm" />
		<tag k="ssr:stedsnr" v="113509" />
		<tag k="ssr:type" v="bruk" />
	</node>
	<node id="4462185637" lat="58.4787207" lon="8.5697017" version="2" timestamp="2018-04-10T18:46:44Z" changeset="57982147" uid="3497659" user="NKA">
		<tag k="name" v="Augland" />
		<tag k="place" v="farm" />
		<tag k="ssr:stedsnr" v="676" />
		<tag k="ssr:type" v="bruk" />
	</node>
	<node id="4462185638" lat="58.694871" lon="8.0612629" version="2" timestamp="2018-04-10T18:46:44Z" changeset="57982147" uid="3497659" user="NKA">
		<tag k="historic" v="ruins" />
		<tag k="name" v="Befjellbua" />
		<tag k="place" v="locality" />
		<tag k="ssr:stedsnr" v="901915" />
		<tag k="ssr:type" v="gammelBosettingsplass" />
	</node>
	<node id="4462185639" lat="58.6383713" lon="8.3286047" version="2" timestamp="2018-04-10T18:46:44Z" changeset="57982147" uid="3497659" user="NKA">
		<tag k="name" v="Belland" />
		<tag k="place" v="farm" />
		<tag k="ssr:stedsnr" v="62247" />
		<tag k="ssr:type" v="bruk" />
	</node>
	<node id="4462185640" lat="58.4882819" lon="8.6309542" version="2" timestamp="2018-04-10T18:46:44Z" changeset="57982147" uid="3497659" user="NKA">
		<tag k="name" v="Bendiksplass" />
		<tag k="place" v="farm" />
		<tag k="ssr:stedsnr" v="580187" />
		<tag k="ssr:type" v="bruk" />
	</node>
	<node id="4462185641" lat="58.624246" lon="8.185223" version="3" timestamp="2021-03-15T10:46:17Z" changeset="101044343" uid="3497659" user="NKA">
		<tag k="name" v="Beresundhytta" />
		<tag k="place" v="isolated_dwelling" />
		<tag k="ssr:stedsnr" v="52518" />
		<tag k="ssr:type" v="fritidsbolig" />
	</node>
	<node id="4462185642" lat="58.5644362" lon="8.6391728" version="2" timestamp="2018-04-10T18:46:44Z" changeset="57982147" uid="3497659" user="NKA">
		<tag k="name" v="Berget" />
		<tag k="place" v="farm" />
		<tag k="ssr:stedsnr" v="183618" />
		<tag k="ssr:type" v="eneboligMindreBoligbygg" />
	</node>
	<node id="4462185643" lat="58.6125412" lon="8.5901856" version="2" timestamp="2018-04-10T18:46:44Z" changeset="57982147" uid="3497659" user="NKA">
		<tag k="name" v="Bilitt" />
		<tag k="place" v="farm" />
		<tag k="ssr:stedsnr" v="183824" />
		<tag k="ssr:type" v="bruk" />
	</node>
	<node id="4462185644" lat="58.5212943" lon="8.7083429" version="2" timestamp="2018-04-10T18:46:44Z" changeset="57982147" uid="3497659" user="NKA">
		<tag k="name" v="Bjellåsen" />
		<tag k="place" v="farm" />
		<tag k="ssr:stedsnr" v="668755" />
		<tag k="ssr:type" v="eneboligMindreBoligbygg" />
	</node>
	<node id="4462185645" lat="58.5154681" lon="8.44988" version="2" timestamp="2018-04-10T18:46:44Z" changeset="57982147" uid="3497659" user="NKA">
		<tag k="name" v="Bjorvatn" />
		<tag k="place" v="farm" />
		<tag k="ssr:stedsnr" v="729057" />
		<tag k="ssr:type" v="bruk" />
	</node>
	<node id="4462185646" lat="58.5522982" lon="8.7106389" version="2" timestamp="2018-04-10T18:46:44Z" changeset="57982147" uid="3497659" user="NKA">
		<tag k="name" v="Bjønnum" />
		<tag k="place" v="farm" />
		<tag k="ssr:stedsnr" v="243662" />
		<tag k="ssr:type" v="eneboligMindreBoligbygg" />
	</node>
	<node id="4462185647" lat="58.5074445" lon="8.6660534" version="2" timestamp="2018-04-10T18:46:45Z" changeset="57982147" uid="3497659" user="NKA">
		<tag k="name" v="Bjørkli" />
		<tag k="place" v="farm" />
		<tag k="ssr:stedsnr" v="884044" />
		<tag k="ssr:type" v="eneboligMindreBoligbygg" />
	</node>
	<node id="4462185648" lat="58.6164565" lon="8.2306664" version="3" timestamp="2021-03-15T10:46:17Z" changeset="101044343" uid="3497659" user="NKA">
		<tag k="alt_name" v="Bjørnestølen" />
		<tag k="name" v="Bjørnestøylen" />
		<tag k="place" v="isolated_dwelling" />
		<tag k="ssr:stedsnr" v="547395" />
		<tag k="ssr:type" v="fritidsbolig" />
	</node>
	<node id="4462185649" lat="58.46458" lon="8.5425065" version="3" timestamp="2022-06-08T17:42:58Z" changeset="122128766" uid="3497659" user="NKA">
		<tag k="name" v="Bjørnsplass" />
		<tag k="place" v="farm" />
		<tag k="ssr:stedsnr" v="870043" />
		<tag k="ssr:type" v="bruk" />
	</node>
	<node id="4462185650" lat="58.4930184" lon="8.5875157" version="2" timestamp="2018-04-10T18:46:45Z" changeset="57982147" uid="3497659" user="NKA">
		<tag k="alt_name" v="Blankenberg" />
		<tag k="name" v="Blakenberg" />
		<tag k="place" v="farm" />
		<tag k="ssr:stedsnr" v="61677" />
		<tag k="ssr:type" v="bruk" />
	</node>
	<node id="4462185651" lat="58.4988293" lon="8.6421818" version="2" timestamp="2018-04-10T18:46:45Z" changeset="57982147" uid="3497659" user="NKA">
		<tag k="name" v="Blakstad" />
		<tag k="place" v="farm" />
		<tag k="ssr:stedsnr" v="668534" />
		<tag k="ssr:type" v="bruk" />
	</node>
	<node id="4462185652" lat="58.7046039" lon="8.2112633" version="2" timestamp="2018-04-10T18:46:45Z" changeset="57982147" uid="3497659" user="NKA">
		<tag k="historic" v="ruins" />
		<tag k="name" v="Bleiksbu" />
		<tag k="place" v="locality" />
		<tag k="ssr:stedsnr" v="658697" />
		<tag k="ssr:type" v="gammelBosettingsplass" />
	</node>
	<node id="4462185653" lat="58.527486" lon="8.6377853" version="2" timestamp="2018-04-10T18:46:45Z" changeset="57982147" uid="3497659" user="NKA">
		<tag k="name" v="Bomsholmen" />
		<tag k="place" v="farm" />
		<tag k="ssr:stedsnr" v="62705" />
		<tag k="ssr:type" v="bruk" />
	</node>
	<node id="4462185654" lat="58.5572129" lon="8.604093" version="2" timestamp="2018-04-10T18:46:45Z" changeset="57982147" uid="3497659" user="NKA">
		<tag k="name" v="Bones" />
		<tag k="place" v="farm" />
		<tag k="ssr:stedsnr" v="296680" />
		<tag k="ssr:type" v="bruk" />
	</node>
	<node id="4462185655" lat="58.50341" lon="8.6009459" version="2" timestamp="2018-04-10T18:46:45Z" changeset="57982147" uid="3497659" user="NKA">
		<tag k="name" v="Borås" />
		<tag k="place" v="farm" />
		<tag k="ssr:stedsnr" v="701053" />
		<tag k="ssr:type" v="bruk" />
	</node>
	<node id="4462185656" lat="58.5521908" lon="8.5367699" version="2" timestamp="2018-04-10T18:46:46Z" changeset="57982147" uid="3497659" user="NKA">
		<tag k="name" v="Bratteland" />
		<tag k="place" v="farm" />
		<tag k="ssr:stedsnr" v="364661" />
		<tag k="ssr:type" v="bruk" />
	</node>
	<node id="4462185658" lat="58.5450491" lon="8.5348336" version="2" timestamp="2018-04-10T18:46:46Z" changeset="57982147" uid="3497659" user="NKA">
		<tag k="name" v="Brattelandseidet" />
		<tag k="place" v="farm" />
		<tag k="ssr:stedsnr" v="546624" />
		<tag k="ssr:type" v="bruk" />
	</node>
	<node id="4462185659" lat="58.5558866" lon="8.6224584" version="2" timestamp="2018-04-10T18:46:46Z" changeset="57982147" uid="3497659" user="NKA">
		<tag k="name" v="Breimyr" />
		<tag k="place" v="farm" />
		<tag k="ssr:stedsnr" v="668670" />
		<tag k="ssr:type" v="bruk" />
	</node>
	<node id="4462185660" lat="58.663671" lon="8.0131442" version="3" timestamp="2021-03-15T10:46:17Z" changeset="101044343" uid="3497659" user="NKA">
		<tag k="name" v="Brenne" />
		<tag k="place" v="isolated_dwelling" />
		<tag k="ssr:stedsnr" v="426516" />
		<tag k="ssr:type" v="fritidsbolig" />
	</node>
	<node id="4462185661" lat="58.5333023" lon="8.6422732" version="2" timestamp="2018-04-10T18:46:46Z" changeset="57982147" uid="3497659" user="NKA">
		<tag k="name" v="Brubakken" />
		<tag k="place" v="farm" />
		<tag k="ssr:stedsnr" v="216178" />
		<tag k="ssr:type" v="eneboligMindreBoligbygg" />
	</node>
	<node id="4462185662" lat="58.642529" lon="8.3373484" version="2" timestamp="2018-04-10T18:46:46Z" changeset="57982147" uid="3497659" user="NKA">
		<tag k="name" v="Brubakken" />
		<tag k="place" v="farm" />
		<tag k="ssr:stedsnr" v="537340" />
		<tag k="ssr:type" v="bruk" />
	</node>
	<node id="4462185663" lat="58.5212151" lon="8.6411805" version="2" timestamp="2018-04-10T18:46:46Z" changeset="57982147" uid="3497659" user="NKA">
		<tag k="name" v="Bruselia" />
		<tag k="place" v="farm" />
		<tag k="ssr:stedsnr" v="459198" />
		<tag k="ssr:type" v="eneboligMindreBoligbygg" />
	</node>
	<node id="4462185664" lat="58.5506483" lon="8.6145818" version="2" timestamp="2018-04-10T18:46:46Z" changeset="57982147" uid="3497659" user="NKA">
		<tag k="name" v="Bujordet" />
		<tag k="place" v="farm" />
		<tag k="ssr:stedsnr" v="121649" />
		<tag k="ssr:type" v="bruk" />
	</node>
	<node id="4462185665" lat="58.5424836" lon="8.7013448" version="2" timestamp="2018-04-10T18:46:46Z" changeset="57982147" uid="3497659" user="NKA">
		<tag k="name" v="Bukkemyra" />
		<tag k="place" v="farm" />
		<tag k="ssr:stedsnr" v="425670" />
		<tag k="ssr:type" v="bruk" />
	</node>
	<node id="4462185666" lat="58.546622" lon="8.7188438" version="2" timestamp="2018-04-10T18:46:47Z" changeset="57982147" uid="3497659" user="NKA">
		<tag k="name" v="Buåsen" />
		<tag k="place" v="farm" />
		<tag k="ssr:stedsnr" v="425663" />
		<tag k="ssr:type" v="bruk" />
	</node>
	<node id="4462185667" lat="58.5612296" lon="8.606788" version="2" timestamp="2018-04-10T18:46:47Z" changeset="57982147" uid="3497659" user="NKA">
		<tag k="name" v="Byttingsmyra" />
		<tag k="place" v="farm" />
		<tag k="ssr:stedsnr" v="304640" />
		<tag k="ssr:type" v="bruk" />
	</node>
	<node id="4462185668" lat="58.5746579" lon="8.5323121" version="3" timestamp="2018-04-10T18:46:47Z" changeset="57982147" uid="3497659" user="NKA">
		<tag k="name" v="Båseland" />
		<tag k="place" v="hamlet" />
		<tag k="ssr:stedsnr" v="486868" />
		<tag k="ssr:type" v="bruk" />
	</node>
	<node id="4462185669" lat="58.5434526" lon="8.6377405" version="2" timestamp="2018-04-10T18:46:47Z" changeset="57982147" uid="3497659" user="NKA">
		<tag k="alt_name" v="Bøygehagen" />
		<tag k="name" v="Bøygehaven" />
		<tag k="place" v="farm" />
		<tag k="ssr:stedsnr" v="243671" />
		<tag k="ssr:type" v="bruk" />
	</node>
	<node id="4462185670" lat="58.5981412" lon="8.7104086" version="2" timestamp="2018-04-10T18:46:47Z" changeset="57982147" uid="3497659" user="NKA">
		<tag k="abandoned:railway" v="station" />
		<tag k="name" v="Bøylefoss bru" />
		<tag k="place" v="locality" />
		<tag k="ssr:stedsnr" v="61829" />
		<tag k="ssr:type" v="stasjon" />
		<tag k="train" v="yes" />
	</node>
	<node id="4462185671" lat="58.5045205" lon="8.6208256" version="2" timestamp="2018-04-10T18:46:47Z" changeset="57982147" uid="3497659" user="NKA">
		<tag k="name" v="Dalen" />
		<tag k="place" v="farm" />
		<tag k="ssr:stedsnr" v="762215" />
		<tag k="ssr:type" v="bruk" />
	</node>
	<node id="4462185672" lat="58.5110583" lon="8.4325949" version="2" timestamp="2018-04-10T18:46:47Z" changeset="57982147" uid="3497659" user="NKA">
		<tag k="name" v="Dalen" />
		<tag k="place" v="farm" />
		<tag k="ssr:stedsnr" v="547003" />
		<tag k="ssr:type" v="eneboligMindreBoligbygg" />
	</node>
	<node id="4462185673" lat="58.5416441" lon="8.7152247" version="2" timestamp="2018-04-10T18:46:47Z" changeset="57982147" uid="3497659" user="NKA">
		<tag k="name" v="Dalene" />
		<tag k="place" v="farm" />
		<tag k="ssr:stedsnr" v="729690" />
		<tag k="ssr:type" v="bruk" />
	</node>
	<node id="4462185674" lat="58.5505364" lon="8.6363825" version="2" timestamp="2018-04-10T18:46:47Z" changeset="57982147" uid="3497659" user="NKA">
		<tag k="name" v="Dalskleiva" />
		<tag k="place" v="farm" />
		<tag k="ssr:stedsnr" v="182640" />
		<tag k="ssr:type" v="eneboligMindreBoligbygg" />
	</node>
	<node id="4462185675" lat="58.5524976" lon="8.6341644" version="2" timestamp="2018-04-10T18:46:48Z" changeset="57982147" uid="3497659" user="NKA">
		<tag k="alt_name" v="Dalsmo" />
		<tag k="name" v="Dalsmonen" />
		<tag k="place" v="farm" />
		<tag k="ssr:stedsnr" v="121644" />
		<tag k="ssr:type" v="eneboligMindreBoligbygg" />
	</node>
	<node id="4462185676" lat="58.6036391" lon="8.5764616" version="2" timestamp="2018-04-10T18:46:48Z" changeset="57982147" uid="3497659" user="NKA">
		<tag k="name" v="Dyngedal" />
		<tag k="place" v="farm" />
		<tag k="ssr:stedsnr" v="1790" />
		<tag k="ssr:type" v="bruk" />
	</node>
	<node id="4462185677" lat="58.5813273" lon="8.7378838" version="2" timestamp="2018-04-10T18:46:48Z" changeset="57982147" uid="3497659" user="NKA">
		<tag k="historic" v="ruins" />
		<tag k="name" v="Eikeland" />
		<tag k="place" v="locality" />
		<tag k="ssr:stedsnr" v="640335" />
		<tag k="ssr:type" v="gammelBosettingsplass" />
	</node>
	<node id="4462185678" lat="58.5206972" lon="8.7280926" version="2" timestamp="2018-04-10T18:46:48Z" changeset="57982147" uid="3497659" user="NKA">
		<tag k="historic" v="ruins" />
		<tag k="name" v="Eikelia" />
		<tag k="place" v="locality" />
		<tag k="ssr:stedsnr" v="243739" />
		<tag k="ssr:type" v="gammelBosettingsplass" />
	</node>
	<node id="4462185679" lat="58.582042" lon="8.6794263" version="2" timestamp="2018-04-10T18:46:48Z" changeset="57982147" uid="3497659" user="NKA">
		<tag k="name" v="Eivindrud" />
		<tag k="place" v="farm" />
		<tag k="ssr:stedsnr" v="668870" />
		<tag k="ssr:type" v="bruk" />
	</node>
	<node id="4462185680" lat="58.5573005" lon="8.6824959" version="2" timestamp="2018-04-10T18:46:48Z" changeset="57982147" uid="3497659" user="NKA">
		<tag k="name" v="Eivindstad" />
		<tag k="place" v="farm" />
		<tag k="ssr:stedsnr" v="304668" />
		<tag k="ssr:type" v="bruk" />
	</node>
	<node id="4462185681" lat="58.513369" lon="8.6977361" version="2" timestamp="2018-04-10T18:46:48Z" changeset="57982147" uid="3497659" user="NKA">
		<tag k="name" v="Engekjerra" />
		<tag k="place" v="farm" />
		<tag k="ssr:stedsnr" v="62741" />
		<tag k="ssr:type" v="bruk" />
	</node>
	<node id="4462185682" lat="58.5118908" lon="8.6925978" version="2" timestamp="2018-04-10T18:46:48Z" changeset="57982147" uid="3497659" user="NKA">
		<tag k="name" v="Engemyr" />
		<tag k="place" v="farm" />
		<tag k="ssr:stedsnr" v="729505" />
		<tag k="ssr:type" v="bruk" />
	</node>
	<node id="4462185683" lat="58.5329779" lon="8.6646003" version="2" timestamp="2018-04-10T18:46:48Z" changeset="57982147" uid="3497659" user="NKA">
		<tag k="name" v="Espeland" />
		<tag k="place" v="farm" />
		<tag k="ssr:stedsnr" v="426693" />
		<tag k="ssr:type" v="bruk" />
	</node>
	<node id="4462185684" lat="58.6149829" lon="8.3046075" version="2" timestamp="2018-04-10T18:46:48Z" changeset="57982147" uid="3497659" user="NKA">
		<tag k="historic" v="ruins" />
		<tag k="name" v="Espeland" />
		<tag k="place" v="locality" />
		<tag k="ssr:stedsnr" v="53471" />
		<tag k="ssr:type" v="gammelBosettingsplass" />
	</node>
	<node id="4462185685" lat="58.5068799" lon="8.3938642" version="2" timestamp="2018-04-10T18:46:49Z" changeset="57982147" uid="3497659" user="NKA">
		<tag k="name" v="Espestøl" />
		<tag k="place" v="farm" />
		<tag k="ssr:stedsnr" v="911002" />
		<tag k="ssr:type" v="bruk" />
	</node>
	<node id="4462185686" lat="58.4879552" lon="8.5984531" version="2" timestamp="2018-04-10T18:46:49Z" changeset="57982147" uid="3497659" user="NKA">
		<tag k="name" v="Evjevollen" />
		<tag k="place" v="farm" />
		<tag k="ssr:stedsnr" v="519013" />
		<tag k="ssr:type" v="bruk" />
	</node>
	<node id="4462185687" lat="58.4995879" lon="8.6676288" version="2" timestamp="2018-04-10T18:46:49Z" changeset="57982147" uid="3497659" user="NKA">
		<tag k="name" v="Fagerlia" />
		<tag k="place" v="farm" />
		<tag k="ssr:stedsnr" v="277029" />
		<tag k="ssr:type" v="bruk" />
	</node>
	<node id="4462185688" lat="58.489263" lon="8.6271465" version="2" timestamp="2018-04-10T18:46:49Z" changeset="57982147" uid="3497659" user="NKA">
		<tag k="name" v="Ferjestaden" />
		<tag k="place" v="farm" />
		<tag k="ssr:stedsnr" v="277191" />
		<tag k="ssr:type" v="bruk" />
	</node>
	<node id="4462185789" lat="58.5172116" lon="8.650515" version="2" timestamp="2018-04-10T18:46:49Z" changeset="57982147" uid="3497659" user="NKA">
		<tag k="name" v="Fidje" />
		<tag k="place" v="farm" />
		<tag k="ssr:stedsnr" v="155232" />
		<tag k="ssr:type" v="bruk" />
	</node>
	<node id="4462185790" lat="58.517946" lon="8.6507949" version="2" timestamp="2018-04-10T18:46:49Z" changeset="57982147" uid="3497659" user="NKA">
		<tag k="name" v="Fidje" />
		<tag k="place" v="farm" />
		<tag k="ssr:stedsnr" v="365750" />
		<tag k="ssr:type" v="bruk" />
	</node>
	<node id="4462185791" lat="58.6048002" lon="8.6862155" version="2" timestamp="2018-04-10T18:46:49Z" changeset="57982147" uid="3497659" user="NKA">
		<tag k="name" v="Fjelldalen" />
		<tag k="place" v="farm" />
		<tag k="ssr:stedsnr" v="796" />
		<tag k="ssr:type" v="bruk" />
	</node>
	<node id="4462185792" lat="58.5001835" lon="8.5857165" version="3" timestamp="2021-03-15T10:46:17Z" changeset="101044343" uid="3497659" user="NKA">
		<tag k="name" v="Fjellmoen" />
		<tag k="place" v="isolated_dwelling" />
		<tag k="ssr:stedsnr" v="459080" />
		<tag k="ssr:type" v="fritidsbolig" />
	</node>
	<node id="4462185793" lat="58.6431932" lon="8.4059139" version="2" timestamp="2018-04-10T18:46:49Z" changeset="57982147" uid="3497659" user="NKA">
		<tag k="name" v="Flateland" />
		<tag k="place" v="farm" />
		<tag k="ssr:stedsnr" v="426251" />
		<tag k="ssr:type" v="bruk" />
	</node>
	<node id="4462185794" lat="58.5123739" lon="8.5878612" version="2" timestamp="2018-04-10T18:46:49Z" changeset="57982147" uid="3497659" user="NKA">
		<tag k="name" v="Flaten" />
		<tag k="place" v="farm" />
		<tag k="ssr:stedsnr" v="122721" />
		<tag k="ssr:type" v="eneboligMindreBoligbygg" />
	</node>
	<node id="4462185795" lat="58.5775372" lon="8.7517368" version="2" timestamp="2018-04-10T18:46:50Z" changeset="57982147" uid="3497659" user="NKA">
		<tag k="alt_name" v="Flottjerndalen" />
		<tag k="historic" v="ruins" />
		<tag k="name" v="Flottjenndalen" />
		<tag k="place" v="locality" />
		<tag k="ssr:stedsnr" v="729867" />
		<tag k="ssr:type" v="gammelBosettingsplass" />
	</node>
	<node id="4462185796" lat="58.6262068" lon="8.5618376" version="2" timestamp="2018-04-10T18:46:50Z" changeset="57982147" uid="3497659" user="NKA">
		<tag k="name" v="Fredheim" />
		<tag k="place" v="farm" />
		<tag k="ssr:stedsnr" v="962017" />
		<tag k="ssr:type" v="bruk" />
	</node>
	<node id="4462185797" lat="58.6571414" lon="8.1179358" version="2" timestamp="2018-04-10T18:46:50Z" changeset="57982147" uid="3497659" user="NKA">
		<tag k="alt_name" v="Frikstad" />
		<tag k="name" v="Frigstad" />
		<tag k="place" v="farm" />
		<tag k="ssr:stedsnr" v="243273" />
		<tag k="ssr:type" v="bruk" />
	</node>
	<node id="4462185798" lat="58.6015294" lon="8.6200267" version="2" timestamp="2018-04-10T18:46:50Z" changeset="57982147" uid="3497659" user="NKA">
		<tag k="name" v="Frivoll" />
		<tag k="place" v="farm" />
		<tag k="ssr:stedsnr" v="850841" />
		<tag k="ssr:type" v="bruk" />
	</node>
	<node id="4462185799" lat="58.635024" lon="8.5659434" version="2" timestamp="2018-04-10T18:46:50Z" changeset="57982147" uid="3497659" user="NKA">
		<tag k="name" v="Frivoll" />
		<tag k="place" v="farm" />
		<tag k="ssr:stedsnr" v="62783" />
		<tag k="ssr:type" v="bruk" />
	</node>
	<node id="4462185802" lat="58.5306022" lon="8.6546463" version="2" timestamp="2018-04-10T18:46:50Z" changeset="57982147" uid="3497659" user="NKA">
		<tag k="name" v="Froland" />
		<tag k="place" v="farm" />
		<tag k="ssr:stedsnr" v="183677" />
		<tag k="ssr:type" v="bruk" />
	</node>
	<node id="4462185803" lat="58.6326189" lon="8.1031352" version="2" timestamp="2018-04-10T18:46:50Z" changeset="57982147" uid="3497659" user="NKA">
		<tag k="alt_name" v="Førevann" />
		<tag k="name" v="Førevatn" />
		<tag k="place" v="neighbourhood" />
		<tag k="ssr:stedsnr" v="829219" />
		<tag k="ssr:type" v="hyttefelt" />
	</node>
	<node id="4462185804" lat="58.5343632" lon="8.6158323" version="2" timestamp="2018-04-10T18:46:50Z" changeset="57982147" uid="3497659" user="NKA">
		<tag k="alt_name" v="Gamlebulia" />
		<tag k="name" v="Gamlebuli" />
		<tag k="place" v="farm" />
		<tag k="ssr:stedsnr" v="789685" />
		<tag k="ssr:type" v="bruk" />
	</node>
	<node id="4462185805" lat="58.5985991" lon="8.6719789" version="2" timestamp="2018-04-10T18:46:50Z" changeset="57982147" uid="3497659" user="NKA">
		<tag k="name" v="Gauperå" />
		<tag k="place" v="farm" />
		<tag k="ssr:stedsnr" v="546828" />
		<tag k="ssr:type" v="bruk" />
	</node>
	<node id="4462185806" lat="58.5973415" lon="8.6737143" version="2" timestamp="2018-04-10T18:46:50Z" changeset="57982147" uid="3497659" user="NKA">
		<tag k="name" v="Gauperåmyra" />
		<tag k="place" v="farm" />
		<tag k="ssr:stedsnr" v="304864" />
		<tag k="ssr:type" v="bruk" />
	</node>
	<node id="4462185807" lat="58.5420619" lon="8.5098187" version="2" timestamp="2018-04-10T18:46:51Z" changeset="57982147" uid="3497659" user="NKA">
		<tag k="name" v="Gjuvatsli" />
		<tag k="place" v="farm" />
		<tag k="ssr:stedsnr" v="295619" />
		<tag k="ssr:type" v="bruk" />
	</node>
	<node id="4462185808" lat="58.5971395" lon="8.5510852" version="2" timestamp="2018-04-10T18:46:51Z" changeset="57982147" uid="3497659" user="NKA">
		<tag k="historic" v="ruins" />
		<tag k="name" v="Gjødselmyrplassen" />
		<tag k="place" v="locality" />
		<tag k="ssr:stedsnr" v="417450" />
		<tag k="ssr:type" v="gammelBosettingsplass" />
	</node>
	<node id="4462185809" lat="58.6591249" lon="8.1541181" version="2" timestamp="2018-04-10T18:46:51Z" changeset="57982147" uid="3497659" user="NKA">
		<tag k="name" v="Gjømle" />
		<tag k="place" v="farm" />
		<tag k="ssr:stedsnr" v="416554" />
		<tag k="ssr:type" v="bruk" />
	</node>
	<node id="4462185810" lat="58.5173536" lon="8.7249219" version="2" timestamp="2018-04-10T18:46:51Z" changeset="57982147" uid="3497659" user="NKA">
		<tag k="name" v="Grandalen" />
		<tag k="place" v="farm" />
		<tag k="ssr:stedsnr" v="486752" />
		<tag k="ssr:type" v="bruk" />
	</node>
	<node id="4462185811" lat="58.5571657" lon="8.5767153" version="2" timestamp="2018-04-10T18:46:51Z" changeset="57982147" uid="3497659" user="NKA">
		<tag k="name" v="Grandalen" />
		<tag k="place" v="farm" />
		<tag k="ssr:stedsnr" v="729643" />
		<tag k="ssr:type" v="bruk" />
	</node>
	<node id="4462185812" lat="58.6276991" lon="8.4764846" version="2" timestamp="2018-04-10T18:46:51Z" changeset="57982147" uid="3497659" user="NKA">
		<tag k="name" v="Grashei" />
		<tag k="place" v="farm" />
		<tag k="ssr:stedsnr" v="851759" />
		<tag k="ssr:type" v="bruk" />
	</node>
	<node id="4462185813" lat="58.637455" lon="8.5641297" version="2" timestamp="2018-04-10T18:46:51Z" changeset="57982147" uid="3497659" user="NKA">
		<tag k="historic" v="ruins" />
		<tag k="name" v="Grimstadplass" />
		<tag k="place" v="locality" />
		<tag k="ssr:stedsnr" v="659071" />
		<tag k="ssr:type" v="gammelBosettingsplass" />
	</node>
	<node id="4462185814" lat="58.607849" lon="8.6058742" version="2" timestamp="2018-04-10T18:46:51Z" changeset="57982147" uid="3497659" user="NKA">
		<tag k="alt_name" v="Grønkleiv" />
		<tag k="name" v="Grønnkleiv" />
		<tag k="place" v="farm" />
		<tag k="ssr:stedsnr" v="425807" />
		<tag k="ssr:type" v="bruk" />
	</node>
	<node id="4462185815" lat="58.5097264" lon="8.6856046" version="2" timestamp="2018-04-10T18:46:51Z" changeset="57982147" uid="3497659" user="NKA">
		<tag k="alt_name" v="Gullknapp vestre;Vestre Gullknapp" />
		<tag k="name" v="Gullknapp" />
		<tag k="place" v="farm" />
		<tag k="ssr:stedsnr" v="519046" />
		<tag k="ssr:type" v="bruk" />
	</node>
	<node id="4462185816" lat="58.5127498" lon="8.687555" version="2" timestamp="2018-04-10T18:46:52Z" changeset="57982147" uid="3497659" user="NKA">
		<tag k="name" v="Gullknapp" />
		<tag k="place" v="farm" />
		<tag k="ssr:stedsnr" v="668761" />
		<tag k="ssr:type" v="bruk" />
	</node>
	<node id="4462185817" lat="58.5043836" lon="8.6347033" version="2" timestamp="2018-04-10T18:46:52Z" changeset="57982147" uid="3497659" user="NKA">
		<tag k="name" v="Hagestad" />
		<tag k="place" v="farm" />
		<tag k="ssr:stedsnr" v="883277" />
		<tag k="ssr:type" v="eneboligMindreBoligbygg" />
	</node>
	<node id="4462185818" lat="58.6618311" lon="8.5085126" version="3" timestamp="2021-03-15T10:46:17Z" changeset="101044343" uid="3497659" user="NKA">
		<tag k="name" v="Hammen" />
		<tag k="place" v="isolated_dwelling" />
		<tag k="ssr:stedsnr" v="729966" />
		<tag k="ssr:type" v="fritidsbolig" />
	</node>
	<node id="4462185819" lat="58.4872709" lon="8.6161051" version="2" timestamp="2018-04-10T18:46:52Z" changeset="57982147" uid="3497659" user="NKA">
		<tag k="name" v="Haugen" />
		<tag k="place" v="farm" />
		<tag k="ssr:stedsnr" v="398218" />
		<tag k="ssr:type" v="eneboligMindreBoligbygg" />
	</node>
	<node id="4462185820" lat="58.6679364" lon="8.2516123" version="2" timestamp="2018-04-10T18:46:52Z" changeset="57982147" uid="3497659" user="NKA">
		<tag k="name" v="Haugen" />
		<tag k="place" v="farm" />
		<tag k="ssr:stedsnr" v="416675" />
		<tag k="ssr:type" v="bruk" />
	</node>
	<node id="4462185821" lat="58.5289416" lon="8.7404934" version="2" timestamp="2018-04-10T18:46:52Z" changeset="57982147" uid="3497659" user="NKA">
		<tag k="name" v="Haugland" />
		<tag k="place" v="farm" />
		<tag k="ssr:stedsnr" v="701432" />
		<tag k="ssr:type" v="bruk" />
	</node>
	<node id="4462185822" lat="58.6091327" lon="8.3940123" version="2" timestamp="2018-04-10T18:46:52Z" changeset="57982147" uid="3497659" user="NKA">
		<tag k="name" v="Haugland" />
		<tag k="place" v="farm" />
		<tag k="ssr:stedsnr" v="304313" />
		<tag k="ssr:type" v="bruk" />
	</node>
	<node id="4462185823" lat="58.614076" lon="8.7074574" version="2" timestamp="2018-04-10T18:46:52Z" changeset="57982147" uid="3497659" user="NKA">
		<tag k="abandoned:railway" v="halt" />
		<tag k="name" v="Haugsjå" />
		<tag k="place" v="locality" />
		<tag k="ssr:stedsnr" v="304822" />
		<tag k="ssr:type" v="holdeplass" />
		<tag k="train" v="yes" />
	</node>
	<node id="4462185824" lat="58.6183965" lon="8.7328502" version="2" timestamp="2018-04-10T18:46:52Z" changeset="57982147" uid="3497659" user="NKA">
		<tag k="name" v="Haugsjå" />
		<tag k="place" v="farm" />
		<tag k="ssr:stedsnr" v="1799" />
		<tag k="ssr:type" v="bruk" />
	</node>
	<node id="4462185825" lat="58.5028122" lon="8.541772" version="2" timestamp="2018-04-10T18:46:52Z" changeset="57982147" uid="3497659" user="NKA">
		<tag k="name" v="Haugås" />
		<tag k="place" v="farm" />
		<tag k="ssr:stedsnr" v="524" />
		<tag k="ssr:type" v="bruk" />
	</node>
	<node id="4462185826" lat="58.5133958" lon="8.6623778" version="2" timestamp="2018-04-10T18:46:52Z" changeset="57982147" uid="3497659" user="NKA">
		<tag k="name" v="Heiberg" />
		<tag k="place" v="farm" />
		<tag k="ssr:stedsnr" v="580028" />
		<tag k="ssr:type" v="eneboligMindreBoligbygg" />
	</node>
	<node id="4462185827" lat="58.4857279" lon="8.6375412" version="2" timestamp="2018-04-10T18:46:53Z" changeset="57982147" uid="3497659" user="NKA">
		<tag k="name" v="Heidalen" />
		<tag k="place" v="farm" />
		<tag k="ssr:stedsnr" v="182674" />
		<tag k="ssr:type" v="bruk" />
	</node>
	<node id="4462185828" lat="58.5364212" lon="8.6632016" version="2" timestamp="2018-04-10T18:46:53Z" changeset="57982147" uid="3497659" user="NKA">
		<tag k="name" v="Heimdal" />
		<tag k="place" v="farm" />
		<tag k="ssr:stedsnr" v="486714" />
		<tag k="ssr:type" v="bruk" />
	</node>
	<node id="4462185829" lat="58.5727375" lon="8.7478714" version="2" timestamp="2018-04-10T18:46:53Z" changeset="57982147" uid="3497659" user="NKA">
		<tag k="historic" v="ruins" />
		<tag k="name" v="Heiplassen" />
		<tag k="place" v="locality" />
		<tag k="ssr:stedsnr" v="579372" />
		<tag k="ssr:type" v="gammelBosettingsplass" />
	</node>
	<node id="4462185830" lat="58.6252703" lon="8.5243113" version="2" timestamp="2018-04-10T18:46:53Z" changeset="57982147" uid="3497659" user="NKA">
		<tag k="name" v="Heldal" />
		<tag k="place" v="farm" />
		<tag k="ssr:stedsnr" v="850757" />
		<tag k="ssr:type" v="bruk" />
	</node>
	<node id="4462185831" lat="58.6279776" lon="8.5228065" version="2" timestamp="2018-04-10T18:46:53Z" changeset="57982147" uid="3497659" user="NKA">
		<tag k="name" v="Helldalsmo" />
		<tag k="place" v="farm" />
		<tag k="ssr:stedsnr" v="364780" />
		<tag k="ssr:type" v="eneboligMindreBoligbygg" />
	</node>
	<node id="4462185832" lat="58.4876477" lon="8.6095864" version="2" timestamp="2018-04-10T18:46:53Z" changeset="57982147" uid="3497659" user="NKA">
		<tag k="name" v="Helleren" />
		<tag k="place" v="farm" />
		<tag k="ssr:stedsnr" v="883267" />
		<tag k="ssr:type" v="bruk" />
	</node>
	<node id="4462185833" lat="58.5635902" lon="8.726205" version="2" timestamp="2018-04-10T18:46:53Z" changeset="57982147" uid="3497659" user="NKA">
		<tag k="alt_name" v="Herset" />
		<tag k="name" v="Hersel" />
		<tag k="place" v="farm" />
		<tag k="ssr:stedsnr" v="851636" />
		<tag k="ssr:type" v="bruk" />
	</node>
	<node id="4462185834" lat="58.5749972" lon="8.7482256" version="2" timestamp="2018-04-10T18:46:53Z" changeset="57982147" uid="3497659" user="NKA">
		<tag k="historic" v="ruins" />
		<tag k="name" v="Herselkleiva" />
		<tag k="place" v="locality" />
		<tag k="ssr:stedsnr" v="276394" />
		<tag k="ssr:type" v="gammelBosettingsplass" />
	</node>
	<node id="4462185835" lat="58.5554765" lon="8.7023814" version="2" timestamp="2018-04-10T18:46:53Z" changeset="57982147" uid="3497659" user="NKA">
		<tag k="historic" v="yes" />
		<tag k="name" v="Herselstoet" />
		<tag k="place" v="locality" />
		<tag k="ssr:stedsnr" v="823171" />
		<tag k="ssr:type" v="stø" />
	</node>
	<node id="4462185836" lat="58.5585997" lon="8.6058902" version="2" timestamp="2018-04-10T18:46:53Z" changeset="57982147" uid="3497659" user="NKA">
		<tag k="name" v="Hessmyr" />
		<tag k="place" v="farm" />
		<tag k="ssr:stedsnr" v="729641" />
		<tag k="ssr:type" v="bruk" />
	</node>
	<node id="4462185837" lat="58.5012309" lon="8.6038391" version="2" timestamp="2018-04-10T18:46:54Z" changeset="57982147" uid="3497659" user="NKA">
		<tag k="name" v="Heståsen" />
		<tag k="place" v="farm" />
		<tag k="ssr:stedsnr" v="762054" />
		<tag k="ssr:type" v="bruk" />
	</node>
	<node id="4462185838" lat="58.511568" lon="8.656377" version="2" timestamp="2018-04-10T18:46:54Z" changeset="57982147" uid="3497659" user="NKA">
		<tag k="historic" v="ruins" />
		<tag k="name" v="Hillebu" />
		<tag k="place" v="farm" />
		<tag k="ssr:stedsnr" v="911513" />
		<tag k="ssr:type" v="bruk" />
	</node>
	<node id="4462185839" lat="58.5715249" lon="8.4805484" version="2" timestamp="2018-04-10T18:46:54Z" changeset="57982147" uid="3497659" user="NKA">
		<tag k="name" v="Hinnebu" />
		<tag k="place" v="farm" />
		<tag k="ssr:stedsnr" v="486862" />
		<tag k="ssr:type" v="bruk" />
	</node>
	<node id="4462185840" lat="58.5006155" lon="8.5827524" version="2" timestamp="2018-04-10T18:46:54Z" changeset="57982147" uid="3497659" user="NKA">
		<tag k="name" v="Hislihaven" />
		<tag k="place" v="farm" />
		<tag k="ssr:stedsnr" v="546706" />
		<tag k="ssr:type" v="bruk" />
	</node>
	<node id="4462185841" lat="58.5671987" lon="8.5849561" version="2" timestamp="2018-04-10T18:46:54Z" changeset="57982147" uid="3497659" user="NKA">
		<tag k="name" v="Holmen" />
		<tag k="place" v="farm" />
		<tag k="ssr:stedsnr" v="175081" />
		<tag k="ssr:type" v="bruk" />
	</node>
	<node id="4462185842" lat="58.4965951" lon="8.3911984" version="2" timestamp="2018-04-10T18:46:54Z" changeset="57982147" uid="3497659" user="NKA">
		<tag k="name" v="Holtebu" />
		<tag k="place" v="farm" />
		<tag k="ssr:stedsnr" v="606431" />
		<tag k="ssr:type" v="bruk" />
	</node>
	<node id="4462185843" lat="58.6038599" lon="8.6263137" version="2" timestamp="2018-04-10T18:46:54Z" changeset="57982147" uid="3497659" user="NKA">
		<tag k="name" v="Homstøl" />
		<tag k="place" v="farm" />
		<tag k="ssr:stedsnr" v="799" />
		<tag k="ssr:type" v="bruk" />
	</node>
	<node id="4462185844" lat="58.6861999" lon="8.0063447" version="3" timestamp="2018-04-28T08:07:03Z" changeset="58497758" uid="3497659" user="NKA">
		<tag k="historic" v="shieling" />
		<tag k="name" v="Homstøl" />
		<tag k="place" v="locality" />
		<tag k="ssr:stedsnr" v="668639" />
		<tag k="ssr:type" v="seterStøl" />
	</node>
	<node id="4462185845" lat="58.5097762" lon="8.6571297" version="2" timestamp="2018-04-10T18:46:54Z" changeset="57982147" uid="3497659" user="NKA">
		<tag k="name" v="Hoskuldsplass" />
		<tag k="place" v="farm" />
		<tag k="ssr:stedsnr" v="486525" />
		<tag k="ssr:type" v="bruk" />
	</node>
	<node id="4462185846" lat="58.5588096" lon="8.4946079" version="2" timestamp="2018-04-10T18:46:55Z" changeset="57982147" uid="3497659" user="NKA">
		<tag k="name" v="Hovatn" />
		<tag k="place" v="farm" />
		<tag k="ssr:stedsnr" v="790872" />
		<tag k="ssr:type" v="bruk" />
	</node>
	<node id="4462185847" lat="58.513179" lon="8.6534666" version="2" timestamp="2018-04-10T18:46:55Z" changeset="57982147" uid="3497659" user="NKA">
		<tag k="name" v="Hurv" />
		<tag k="place" v="farm" />
		<tag k="ssr:stedsnr" v="547767" />
		<tag k="ssr:type" v="bruk" />
	</node>
	<node id="4462185848" lat="58.5209284" lon="8.6628044" version="2" timestamp="2018-04-10T18:46:55Z" changeset="57982147" uid="3497659" user="NKA">
		<tag k="name" v="Hurv" />
		<tag k="place" v="farm" />
		<tag k="ssr:stedsnr" v="640037" />
		<tag k="ssr:type" v="bruk" />
	</node>
	<node id="4462185849" lat="58.5219967" lon="8.6678031" version="2" timestamp="2018-04-10T18:46:55Z" changeset="57982147" uid="3497659" user="NKA">
		<tag k="alt_name" v="Horvedal" />
		<tag k="name" v="Hurvedal" />
		<tag k="place" v="farm" />
		<tag k="ssr:stedsnr" v="365747" />
		<tag k="ssr:type" v="bruk" />
	</node>
	<node id="4462185850" lat="58.5236254" lon="8.6751461" version="2" timestamp="2018-04-10T18:46:55Z" changeset="57982147" uid="3497659" user="NKA">
		<tag k="alt_name" v="Horvedal" />
		<tag k="name" v="Hurvedal" />
		<tag k="place" v="farm" />
		<tag k="ssr:stedsnr" v="183718" />
		<tag k="ssr:type" v="bruk" />
	</node>
	<node id="4462185851" lat="58.5136415" lon="8.6390275" version="2" timestamp="2018-04-10T18:46:55Z" changeset="57982147" uid="3497659" user="NKA">
		<tag k="alt_name" v="Horvenes" />
		<tag k="name" v="Hurvenes" />
		<tag k="place" v="farm" />
		<tag k="ssr:stedsnr" v="486745" />
		<tag k="ssr:type" v="bruk" />
	</node>
	<node id="4462185852" lat="58.5078157" lon="8.5492393" version="2" timestamp="2018-04-10T18:46:55Z" changeset="57982147" uid="3497659" user="NKA">
		<tag k="historic" v="ruins" />
		<tag k="name" v="Huset" />
		<tag k="place" v="farm" />
		<tag k="ssr:stedsnr" v="729770" />
		<tag k="ssr:type" v="eneboligMindreBoligbygg" />
	</node>
	<node id="4462185853" lat="58.6847396" lon="8.2193313" version="2" timestamp="2018-04-10T18:46:55Z" changeset="57982147" uid="3497659" user="NKA">
		<tag k="name" v="Hushovd" />
		<tag k="place" v="farm" />
		<tag k="ssr:stedsnr" v="668458" />
		<tag k="ssr:type" v="eneboligMindreBoligbygg" />
	</node>
	<node id="4462185854" lat="58.5047464" lon="8.4591662" version="2" timestamp="2018-04-10T18:46:55Z" changeset="57982147" uid="3497659" user="NKA">
		<tag k="name" v="Håland" />
		<tag k="place" v="farm" />
		<tag k="ssr:stedsnr" v="304004" />
		<tag k="ssr:type" v="bruk" />
	</node>
	<node id="4462185855" lat="58.6722378" lon="8.3256944" version="3" timestamp="2021-03-15T10:46:17Z" changeset="101044343" uid="3497659" user="NKA">
		<tag k="name" v="Høgda" />
		<tag k="place" v="isolated_dwelling" />
		<tag k="ssr:stedsnr" v="112632" />
		<tag k="ssr:type" v="fritidsbolig" />
	</node>
	<node id="4462185856" lat="58.607219" lon="8.1986742" version="2" timestamp="2018-04-10T18:46:56Z" changeset="57982147" uid="3497659" user="NKA">
		<tag k="name" v="Høgevoll" />
		<tag k="place" v="farm" />
		<tag k="ssr:stedsnr" v="781500" />
		<tag k="ssr:type" v="bruk" />
	</node>
	<node id="4462185857" lat="58.5076442" lon="8.5602434" version="2" timestamp="2018-04-10T18:46:56Z" changeset="57982147" uid="3497659" user="NKA">
		<tag k="name" v="Høllen" />
		<tag k="place" v="farm" />
		<tag k="ssr:stedsnr" v="364756" />
		<tag k="ssr:type" v="bruk" />
	</node>
	<node id="4462185858" lat="58.5816491" lon="8.5259705" version="2" timestamp="2018-04-10T18:46:56Z" changeset="57982147" uid="3497659" user="NKA">
		<tag k="name" v="Hørsdal" />
		<tag k="place" v="farm" />
		<tag k="ssr:stedsnr" v="61805" />
		<tag k="ssr:type" v="bruk" />
	</node>
	<node id="4462185859" lat="58.4861891" lon="8.5959205" version="2" timestamp="2018-04-10T18:46:56Z" changeset="57982147" uid="3497659" user="NKA">
		<tag k="name" v="Indre Neset" />
		<tag k="place" v="farm" />
		<tag k="ssr:stedsnr" v="640007" />
		<tag k="ssr:type" v="bruk" />
	</node>
	<node id="4462185860" lat="58.5752373" lon="8.5402652" version="2" timestamp="2018-04-10T18:46:56Z" changeset="57982147" uid="3497659" user="NKA">
		<tag k="historic" v="ruins" />
		<tag k="name" v="Jenses plass" />
		<tag k="place" v="locality" />
		<tag k="ssr:stedsnr" v="174067" />
		<tag k="ssr:type" v="gammelBosettingsplass" />
	</node>
	<node id="4462185861" lat="58.6103204" lon="8.6137065" version="2" timestamp="2018-04-10T18:46:56Z" changeset="57982147" uid="3497659" user="NKA">
		<tag k="historic" v="ruins" />
		<tag k="name" v="Joensplass" />
		<tag k="place" v="locality" />
		<tag k="ssr:stedsnr" v="235242" />
		<tag k="ssr:type" v="gammelBosettingsplass" />
	</node>
	<node id="4462185862" lat="58.5996631" lon="8.6259587" version="2" timestamp="2018-04-10T18:46:56Z" changeset="57982147" uid="3497659" user="NKA">
		<tag k="name" v="Jomås" />
		<tag k="place" v="farm" />
		<tag k="ssr:stedsnr" v="729839" />
		<tag k="ssr:type" v="bruk" />
	</node>
	<node id="4462185863" lat="58.5319143" lon="8.6997178" version="2" timestamp="2018-04-10T18:46:56Z" changeset="57982147" uid="3497659" user="NKA">
		<tag k="name" v="Jordet" />
		<tag k="place" v="farm" />
		<tag k="ssr:stedsnr" v="426689" />
		<tag k="ssr:type" v="eneboligMindreBoligbygg" />
	</node>
	<node id="4462185864" lat="58.5410166" lon="8.628244" version="2" timestamp="2018-04-10T18:46:56Z" changeset="57982147" uid="3497659" user="NKA">
		<tag k="alt_name" v="Jøsbulia;Jøsbulien" />
		<tag k="name" v="Jusbulia" />
		<tag k="place" v="farm" />
		<tag k="ssr:stedsnr" v="304677" />
		<tag k="ssr:type" v="bruk" />
	</node>
	<node id="4462185865" lat="58.6494349" lon="8.1618821" version="3" timestamp="2021-03-15T10:46:17Z" changeset="101044343" uid="3497659" user="NKA">
		<tag k="name" v="Kile" />
		<tag k="place" v="isolated_dwelling" />
		<tag k="ssr:stedsnr" v="962503" />
		<tag k="ssr:type" v="fritidsbolig" />
	</node>
	<node id="4462185866" lat="58.5211711" lon="8.442338" version="2" timestamp="2018-04-10T18:46:57Z" changeset="57982147" uid="3497659" user="NKA">
		<tag k="name" v="Kjennheia" />
		<tag k="place" v="farm" />
		<tag k="ssr:stedsnr" v="656010" />
		<tag k="ssr:type" v="bruk" />
	</node>
	<node id="4462185867" lat="58.4974747" lon="8.5964556" version="2" timestamp="2018-04-10T18:46:57Z" changeset="57982147" uid="3497659" user="NKA">
		<tag k="alt_name" v="Kjerringvika" />
		<tag k="name" v="Kjerringvik" />
		<tag k="place" v="farm" />
		<tag k="ssr:stedsnr" v="364715" />
		<tag k="ssr:type" v="bruk" />
	</node>
	<node id="4462185868" lat="58.5884712" lon="8.5319163" version="2" timestamp="2018-04-10T18:46:57Z" changeset="57982147" uid="3497659" user="NKA">
		<tag k="name" v="Kjørdalen" />
		<tag k="place" v="farm" />
		<tag k="ssr:stedsnr" v="850821" />
		<tag k="ssr:type" v="bruk" />
	</node>
	<node id="4462185869" lat="58.601627" lon="8.4677557" version="3" timestamp="2021-03-15T10:46:17Z" changeset="101044343" uid="3497659" user="NKA">
		<tag k="name" v="Kleiva" />
		<tag k="place" v="isolated_dwelling" />
		<tag k="ssr:stedsnr" v="598988" />
		<tag k="ssr:type" v="fritidsbolig" />
	</node>
	<node id="4462185870" lat="58.4670959" lon="8.6056643" version="2" timestamp="2018-04-10T18:46:57Z" changeset="57982147" uid="3497659" user="NKA">
		<tag k="name" v="Kleivene" />
		<tag k="place" v="farm" />
		<tag k="ssr:stedsnr" v="292861" />
		<tag k="ssr:type" v="bruk" />
	</node>
	<node id="4462185871" lat="58.4934005" lon="8.5811321" version="2" timestamp="2018-04-10T18:46:57Z" changeset="57982147" uid="3497659" user="NKA">
		<tag k="name" v="Kleivene" />
		<tag k="place" v="farm" />
		<tag k="ssr:stedsnr" v="276013" />
		<tag k="ssr:type" v="bruk" />
	</node>
	<node id="4462185872" lat="58.5008144" lon="8.6094753" version="2" timestamp="2018-04-10T18:46:57Z" changeset="57982147" uid="3497659" user="NKA">
		<tag k="name" v="Kleivene" />
		<tag k="place" v="farm" />
		<tag k="ssr:stedsnr" v="364534" />
		<tag k="ssr:type" v="eneboligMindreBoligbygg" />
	</node>
	<node id="4462185873" lat="58.6235886" lon="8.6198751" version="2" timestamp="2018-04-10T18:46:57Z" changeset="57982147" uid="3497659" user="NKA">
		<tag k="name" v="Knuten" />
		<tag k="place" v="farm" />
		<tag k="ssr:stedsnr" v="304771" />
		<tag k="ssr:type" v="eneboligMindreBoligbygg" />
	</node>
	<node id="4462185874" lat="58.590021" lon="8.5540739" version="2" timestamp="2018-04-10T18:46:57Z" changeset="57982147" uid="3497659" user="NKA">
		<tag k="name" v="Kokkehaugen" />
		<tag k="place" v="farm" />
		<tag k="ssr:stedsnr" v="61813" />
		<tag k="ssr:type" v="bruk" />
	</node>
	<node id="4462185875" lat="58.4977281" lon="8.4223354" version="2" timestamp="2018-04-10T18:46:58Z" changeset="57982147" uid="3497659" user="NKA">
		<tag k="name" v="Koveland" />
		<tag k="place" v="farm" />
		<tag k="ssr:stedsnr" v="244005" />
		<tag k="ssr:type" v="bruk" />
	</node>
	<node id="4462185876" lat="58.4788629" lon="8.6637893" version="2" timestamp="2018-04-10T18:46:58Z" changeset="57982147" uid="3497659" user="NKA">
		<tag k="name" v="Kringlemyr" />
		<tag k="place" v="farm" />
		<tag k="ssr:stedsnr" v="216043" />
		<tag k="ssr:type" v="eneboligMindreBoligbygg" />
	</node>
	<node id="4462185877" lat="58.5442948" lon="8.679812" version="2" timestamp="2018-04-10T18:46:58Z" changeset="57982147" uid="3497659" user="NKA">
		<tag k="historic" v="ruins" />
		<tag k="name" v="Kringlemyr" />
		<tag k="place" v="locality" />
		<tag k="ssr:stedsnr" v="94212" />
		<tag k="ssr:type" v="gammelBosettingsplass" />
	</node>
	<node id="4462185878" lat="58.6095311" lon="8.7051239" version="3" timestamp="2021-03-15T10:46:17Z" changeset="101044343" uid="3497659" user="NKA">
		<tag k="name" v="Kringsjå" />
		<tag k="place" v="isolated_dwelling" />
		<tag k="ssr:stedsnr" v="823310" />
		<tag k="ssr:type" v="fritidsbolig" />
	</node>
	<node id="4462185879" lat="58.5165294" lon="8.4424674" version="2" timestamp="2018-04-10T18:46:58Z" changeset="57982147" uid="3497659" user="NKA">
		<tag k="name" v="Kroken" />
		<tag k="place" v="farm" />
		<tag k="ssr:stedsnr" v="899128" />
		<tag k="ssr:type" v="bruk" />
	</node>
	<node id="4462185880" lat="58.6169034" lon="8.5213073" version="2" timestamp="2018-04-10T18:46:58Z" changeset="57982147" uid="3497659" user="NKA">
		<tag k="historic" v="ruins" />
		<tag k="name" v="Kroktveit" />
		<tag k="place" v="locality" />
		<tag k="ssr:stedsnr" v="113128" />
		<tag k="ssr:type" v="gammelBosettingsplass" />
	</node>
	<node id="4462185881" lat="58.5536462" lon="8.6311808" version="2" timestamp="2018-04-10T18:46:58Z" changeset="57982147" uid="3497659" user="NKA">
		<tag k="name" v="Kvernås" />
		<tag k="place" v="farm" />
		<tag k="ssr:stedsnr" v="356824" />
		<tag k="ssr:type" v="bruk" />
	</node>
	<node id="4462185882" lat="58.5404113" lon="8.4314248" version="2" timestamp="2018-04-10T18:46:58Z" changeset="57982147" uid="3497659" user="NKA">
		<tag k="name" v="Kvivollen" />
		<tag k="place" v="farm" />
		<tag k="ssr:stedsnr" v="659465" />
		<tag k="ssr:type" v="bruk" />
	</node>
	<node id="4462185883" lat="58.56619" lon="8.6935211" version="2" timestamp="2018-04-10T18:46:58Z" changeset="57982147" uid="3497659" user="NKA">
		<tag k="name" v="Langeid" />
		<tag k="place" v="farm" />
		<tag k="ssr:stedsnr" v="547677" />
		<tag k="ssr:type" v="bruk" />
	</node>
	<node id="4462185884" lat="58.5700407" lon="8.6824821" version="2" timestamp="2018-04-10T18:46:59Z" changeset="57982147" uid="3497659" user="NKA">
		<tag k="historic" v="yes" />
		<tag k="name" v="Langeidstoet" />
		<tag k="place" v="locality" />
		<tag k="ssr:stedsnr" v="944142" />
		<tag k="ssr:type" v="stø" />
	</node>
	<node id="4462185885" lat="58.4941475" lon="8.6627115" version="2" timestamp="2018-04-10T18:46:59Z" changeset="57982147" uid="3497659" user="NKA">
		<tag k="name" v="Langemyr" />
		<tag k="place" v="farm" />
		<tag k="ssr:stedsnr" v="34041" />
		<tag k="ssr:type" v="bruk" />
	</node>
	<node id="4462185886" lat="58.5174299" lon="8.4357904" version="2" timestamp="2018-04-10T18:46:59Z" changeset="57982147" uid="3497659" user="NKA">
		<tag k="name" v="Langemyr" />
		<tag k="place" v="farm" />
		<tag k="ssr:stedsnr" v="353103" />
		<tag k="ssr:type" v="eneboligMindreBoligbygg" />
	</node>
	<node id="4462185887" lat="58.5370119" lon="8.6388086" version="2" timestamp="2018-04-10T18:46:59Z" changeset="57982147" uid="3497659" user="NKA">
		<tag k="name" v="Langemyr" />
		<tag k="place" v="farm" />
		<tag k="ssr:stedsnr" v="729706" />
		<tag k="ssr:type" v="bruk" />
	</node>
	<node id="4462185888" lat="58.5813983" lon="8.6859633" version="2" timestamp="2018-04-10T18:46:59Z" changeset="57982147" uid="3497659" user="NKA">
		<tag k="name" v="Langevoll" />
		<tag k="place" v="farm" />
		<tag k="ssr:stedsnr" v="580128" />
		<tag k="ssr:type" v="bruk" />
	</node>
	<node id="4462185889" lat="58.6100021" lon="8.481867" version="2" timestamp="2018-04-10T18:46:59Z" changeset="57982147" uid="3497659" user="NKA">
		<tag k="name" v="Lauvland" />
		<tag k="place" v="farm" />
		<tag k="ssr:stedsnr" v="183761" />
		<tag k="ssr:type" v="bruk" />
	</node>
	<node id="4462185890" lat="58.5402681" lon="8.4319686" version="2" timestamp="2018-04-10T18:46:59Z" changeset="57982147" uid="3497659" user="NKA">
		<tag k="name" v="Lauvrak" />
		<tag k="place" v="farm" />
		<tag k="ssr:stedsnr" v="1199" />
		<tag k="ssr:type" v="bruk" />
	</node>
	<node id="4462185891" lat="58.663699" lon="8.2476268" version="2" timestamp="2018-04-10T18:46:59Z" changeset="57982147" uid="3497659" user="NKA">
		<tag k="name" v="Lauvrak" />
		<tag k="place" v="hamlet" />
		<tag k="ssr:stedsnr" v="570136" />
		<tag k="ssr:type" v="grend" />
	</node>
	<node id="4462185892" lat="58.649595" lon="8.2523511" version="2" timestamp="2018-04-10T18:47:00Z" changeset="57982147" uid="3497659" user="NKA">
		<tag k="historic" v="ruins" />
		<tag k="name" v="Lauvraksaga" />
		<tag k="place" v="locality" />
		<tag k="ssr:stedsnr" v="841639" />
		<tag k="ssr:type" v="gammelBosettingsplass" />
	</node>
	<node id="4462185893" lat="58.5174634" lon="8.699495" version="2" timestamp="2018-04-10T18:47:00Z" changeset="57982147" uid="3497659" user="NKA">
		<tag k="name" v="Leikmyr" />
		<tag k="place" v="farm" />
		<tag k="ssr:stedsnr" v="944040" />
		<tag k="ssr:type" v="bruk" />
	</node>
	<node id="4462185894" lat="58.5991173" lon="8.6164472" version="2" timestamp="2018-04-10T18:47:00Z" changeset="57982147" uid="3497659" user="NKA">
		<tag k="name" v="Leikvangen" />
		<tag k="place" v="farm" />
		<tag k="ssr:stedsnr" v="122826" />
		<tag k="ssr:type" v="bruk" />
	</node>
	<node id="4462185895" lat="58.4813321" lon="8.6756384" version="2" timestamp="2018-04-10T18:47:00Z" changeset="57982147" uid="3497659" user="NKA">
		<tag k="name" v="Lia" />
		<tag k="place" v="farm" />
		<tag k="ssr:stedsnr" v="425664" />
		<tag k="ssr:type" v="bruk" />
	</node>
	<node id="4462185896" lat="58.5187191" lon="8.6378982" version="2" timestamp="2018-04-10T18:47:00Z" changeset="57982147" uid="3497659" user="NKA">
		<tag k="name" v="Lia" />
		<tag k="place" v="farm" />
		<tag k="ssr:stedsnr" v="62735" />
		<tag k="ssr:type" v="bruk" />
	</node>
	<node id="4462185897" lat="58.5132208" lon="8.7179595" version="3" timestamp="2021-03-15T10:46:17Z" changeset="101044343" uid="3497659" user="NKA">
		<tag k="name" v="Liane" />
		<tag k="place" v="isolated_dwelling" />
		<tag k="ssr:stedsnr" v="61729" />
		<tag k="ssr:type" v="fritidsbolig" />
	</node>
	<node id="4462185898" lat="58.5879807" lon="8.6650527" version="2" timestamp="2018-04-10T18:47:00Z" changeset="57982147" uid="3497659" user="NKA">
		<tag k="name" v="Liane" />
		<tag k="place" v="farm" />
		<tag k="ssr:stedsnr" v="122816" />
		<tag k="ssr:type" v="eneboligMindreBoligbygg" />
	</node>
	<node id="4462185899" lat="58.5889746" lon="8.2327124" version="2" timestamp="2018-04-10T18:47:00Z" changeset="57982147" uid="3497659" user="NKA">
		<tag k="name" v="Liane" />
		<tag k="place" v="farm" />
		<tag k="ssr:stedsnr" v="1188" />
		<tag k="ssr:type" v="bruk" />
	</node>
	<node id="4462185900" lat="58.6437958" lon="8.0546625" version="2" timestamp="2018-04-10T18:47:00Z" changeset="57982147" uid="3497659" user="NKA">
		<tag k="name" v="Liane" />
		<tag k="place" v="farm" />
		<tag k="ssr:stedsnr" v="122544" />
		<tag k="ssr:type" v="bruk" />
	</node>
	<node id="4462185901" lat="58.614226" lon="8.353022" version="3" timestamp="2021-03-15T10:46:17Z" changeset="101044343" uid="3497659" user="NKA">
		<tag k="name" v="Liansplassen" />
		<tag k="place" v="isolated_dwelling" />
		<tag k="ssr:stedsnr" v="122351" />
		<tag k="ssr:type" v="fritidsbolig" />
	</node>
	<node id="4462185902" lat="58.4810118" lon="8.5722739" version="2" timestamp="2018-04-10T18:47:01Z" changeset="57982147" uid="3497659" user="NKA">
		<tag k="name" v="Lille Augland" />
		<tag k="place" v="farm" />
		<tag k="ssr:stedsnr" v="580075" />
		<tag k="ssr:type" v="bruk" />
	</node>
	<node id="4462185903" lat="58.5566236" lon="8.6101468" version="2" timestamp="2018-04-10T18:47:01Z" changeset="57982147" uid="3497659" user="NKA">
		<tag k="alt_name" v="Løvjomås lille;Løvjåmmås lille" />
		<tag k="name" v="Lille Løvjomås" />
		<tag k="place" v="farm" />
		<tag k="ssr:stedsnr" v="668668" />
		<tag k="ssr:type" v="bruk" />
	</node>
	<node id="4462185904" lat="58.5484811" lon="8.2686794" version="2" timestamp="2018-04-10T18:47:01Z" changeset="57982147" uid="3497659" user="NKA">
		<tag k="name" v="Lille Uldal" />
		<tag k="place" v="farm" />
		<tag k="ssr:stedsnr" v="963190" />
		<tag k="ssr:type" v="bruk" />
	</node>
	<node id="4462185905" lat="58.5812358" lon="8.7104511" version="2" timestamp="2018-04-10T18:47:01Z" changeset="57982147" uid="3497659" user="NKA">
		<tag k="name" v="Lille Valle" />
		<tag k="place" v="farm" />
		<tag k="ssr:stedsnr" v="640157" />
		<tag k="ssr:type" v="eneboligMindreBoligbygg" />
	</node>
	<node id="4462185906" lat="58.6277685" lon="8.2757373" version="2" timestamp="2018-04-10T18:47:01Z" changeset="57982147" uid="3497659" user="NKA">
		<tag k="name" v="Lillemykland" />
		<tag k="place" v="farm" />
		<tag k="ssr:stedsnr" v="173317" />
		<tag k="ssr:type" v="bruk" />
	</node>
	<node id="4462185907" lat="58.4698775" lon="8.6068935" version="2" timestamp="2018-04-10T18:47:01Z" changeset="57982147" uid="3497659" user="NKA">
		<tag k="name" v="Lillestø" />
		<tag k="place" v="farm" />
		<tag k="ssr:stedsnr" v="595853" />
		<tag k="ssr:type" v="bruk" />
	</node>
	<node id="4462185908" lat="58.5484677" lon="8.5290492" version="2" timestamp="2018-04-10T18:47:01Z" changeset="57982147" uid="3497659" user="NKA">
		<tag k="name" v="Lindstølen" />
		<tag k="place" v="farm" />
		<tag k="ssr:stedsnr" v="850652" />
		<tag k="ssr:type" v="bruk" />
	</node>
	<node id="4462185909" lat="58.653977" lon="8.313427" version="2" timestamp="2018-04-10T18:47:01Z" changeset="57982147" uid="3497659" user="NKA">
		<tag k="name" v="Lindvang" />
		<tag k="place" v="farm" />
		<tag k="ssr:stedsnr" v="607278" />
		<tag k="ssr:type" v="eneboligMindreBoligbygg" />
	</node>
	<node id="4462185910" lat="58.6844259" lon="8.2961165" version="2" timestamp="2018-04-10T18:47:01Z" changeset="57982147" uid="3497659" user="NKA">
		<tag k="historic" v="ruins" />
		<tag k="name" v="Lisle Auestad" />
		<tag k="place" v="locality" />
		<tag k="ssr:stedsnr" v="52853" />
		<tag k="ssr:type" v="gammelBosettingsplass" />
	</node>
	<node id="4462185911" lat="58.5065483" lon="8.6639611" version="2" timestamp="2018-04-10T18:47:02Z" changeset="57982147" uid="3497659" user="NKA">
		<tag k="name" v="Ljosland" />
		<tag k="place" v="farm" />
		<tag k="ssr:stedsnr" v="580035" />
		<tag k="ssr:type" v="bruk" />
	</node>
	<node id="4462185912" lat="58.5109257" lon="8.6599678" version="2" timestamp="2018-04-10T18:47:02Z" changeset="57982147" uid="3497659" user="NKA">
		<tag k="name" v="Ljåstadbakken" />
		<tag k="place" v="farm" />
		<tag k="ssr:stedsnr" v="640036" />
		<tag k="ssr:type" v="bruk" />
	</node>
	<node id="4462185913" lat="58.5300195" lon="8.4731976" version="2" timestamp="2018-04-10T18:47:02Z" changeset="57982147" uid="3497659" user="NKA">
		<tag k="name" v="Lomåsen" />
		<tag k="place" v="farm" />
		<tag k="ssr:stedsnr" v="729721" />
		<tag k="ssr:type" v="eneboligMindreBoligbygg" />
	</node>
	<node id="4462185914" lat="58.6262358" lon="8.7319082" version="2" timestamp="2018-04-10T18:47:02Z" changeset="57982147" uid="3497659" user="NKA">
		<tag k="name" v="Lunde" />
		<tag k="place" v="farm" />
		<tag k="ssr:stedsnr" v="337298" />
		<tag k="ssr:type" v="eneboligMindreBoligbygg" />
	</node>
	<node id="4462185915" lat="58.4815542" lon="8.5433674" version="2" timestamp="2018-04-10T18:47:02Z" changeset="57982147" uid="3497659" user="NKA">
		<tag k="name" v="Lunden" />
		<tag k="place" v="farm" />
		<tag k="ssr:stedsnr" v="728647" />
		<tag k="ssr:type" v="bruk" />
	</node>
	<node id="4462185916" lat="58.6056198" lon="8.6341726" version="2" timestamp="2018-04-10T18:47:02Z" changeset="57982147" uid="3497659" user="NKA">
		<tag k="name" v="Lundevoll" />
		<tag k="place" v="farm" />
		<tag k="ssr:stedsnr" v="546764" />
		<tag k="ssr:type" v="bruk" />
	</node>
	<node id="4462185917" lat="58.534816" lon="8.6975168" version="2" timestamp="2018-04-10T18:47:02Z" changeset="57982147" uid="3497659" user="NKA">
		<tag k="name" v="Lyngroth" />
		<tag k="place" v="farm" />
		<tag k="ssr:stedsnr" v="365696" />
		<tag k="ssr:type" v="bruk" />
	</node>
	<node id="4462185918" lat="58.5525802" lon="8.7360379" version="2" timestamp="2018-04-10T18:47:02Z" changeset="57982147" uid="3497659" user="NKA">
		<tag k="historic" v="ruins" />
		<tag k="name" v="Martenstjennplassen" />
		<tag k="place" v="locality" />
		<tag k="ssr:stedsnr" v="944332" />
		<tag k="ssr:type" v="gammelBosettingsplass" />
	</node>
	<node id="4462185919" lat="58.4842316" lon="8.6244629" version="2" timestamp="2018-04-10T18:47:02Z" changeset="57982147" uid="3497659" user="NKA">
		<tag k="name" v="Messel" />
		<tag k="place" v="hamlet" />
		<tag k="ssr:stedsnr" v="667638" />
		<tag k="ssr:type" v="bruk" />
	</node>
	<node id="4462185920" lat="58.6332687" lon="8.2138041" version="2" timestamp="2018-04-10T18:47:03Z" changeset="57982147" uid="3497659" user="NKA">
		<tag k="name" v="Mjåland" />
		<tag k="place" v="hamlet" />
		<tag k="ssr:stedsnr" v="183343" />
		<tag k="ssr:type" v="bruk" />
	</node>
	<node id="4462185921" lat="58.6620993" lon="8.1608827" version="2" timestamp="2018-04-10T18:47:03Z" changeset="57982147" uid="3497659" user="NKA">
		<tag k="name" v="Mjåvatn" />
		<tag k="place" v="farm" />
		<tag k="ssr:stedsnr" v="26658" />
		<tag k="ssr:type" v="bruk" />
	</node>
	<node id="4462185923" lat="58.4996301" lon="8.6416235" version="2" timestamp="2018-04-10T18:47:03Z" changeset="57982147" uid="3497659" user="NKA">
		<tag k="name" v="Mjølhus" />
		<tag k="place" v="farm" />
		<tag k="ssr:stedsnr" v="1724" />
		<tag k="ssr:type" v="bruk" />
	</node>
	<node id="4462185924" lat="58.5144283" lon="8.6298778" version="3" timestamp="2018-04-10T18:47:03Z" changeset="57982147" uid="3497659" user="NKA">
		<tag k="name" v="Mjølhus" />
		<tag k="place" v="neighbourhood" />
		<tag k="ssr:stedsnr" v="92978" />
		<tag k="ssr:type" v="bygdelagBygd" />
	</node>
	<node id="4462185925" lat="58.5190821" lon="8.6375912" version="2" timestamp="2018-04-10T18:47:03Z" changeset="57982147" uid="3497659" user="NKA">
		<tag k="name" v="Mjølhusmyra" />
		<tag k="place" v="farm" />
		<tag k="ssr:stedsnr" v="519216" />
		<tag k="ssr:type" v="bruk" />
	</node>
	<node id="4462185926" lat="58.6833478" lon="8.3655309" version="2" timestamp="2018-04-10T18:47:03Z" changeset="57982147" uid="3497659" user="NKA">
		<tag k="name" v="Mo" />
		<tag k="place" v="farm" />
		<tag k="ssr:stedsnr" v="607321" />
		<tag k="ssr:type" v="bruk" />
	</node>
	<node id="4462185927" lat="58.643439" lon="8.5749632" version="2" timestamp="2018-04-10T18:47:03Z" changeset="57982147" uid="3497659" user="NKA">
		<tag k="name" v="Moripen" />
		<tag k="place" v="farm" />
		<tag k="ssr:stedsnr" v="365976" />
		<tag k="ssr:type" v="bruk" />
	</node>
	<node id="4462185928" lat="58.575486" lon="8.6456492" version="2" timestamp="2018-04-10T18:47:03Z" changeset="57982147" uid="3497659" user="NKA">
		<tag k="name" v="Muserå" />
		<tag k="place" v="farm" />
		<tag k="ssr:stedsnr" v="122851" />
		<tag k="ssr:type" v="bruk" />
	</node>
	<node id="4462185929" lat="58.5862091" lon="8.6357805" version="2" timestamp="2018-04-10T18:47:03Z" changeset="57982147" uid="3497659" user="NKA">
		<tag k="name" v="Myglestue" />
		<tag k="place" v="farm" />
		<tag k="ssr:stedsnr" v="425842" />
		<tag k="ssr:type" v="bruk" />
	</node>
	<node id="4462185930" lat="58.5726368" lon="8.6301842" version="2" timestamp="2018-04-10T18:47:03Z" changeset="57982147" uid="3497659" user="NKA">
		<tag k="alt_name" v="Myglerød" />
		<tag k="name" v="Møglerød" />
		<tag k="place" v="farm" />
		<tag k="ssr:stedsnr" v="183858" />
		<tag k="ssr:type" v="bruk" />
	</node>
	<node id="4462185931" lat="58.4687039" lon="8.561997" version="2" timestamp="2018-04-10T18:47:04Z" changeset="57982147" uid="3497659" user="NKA">
		<tag k="name" v="Mørløs" />
		<tag k="place" v="farm" />
		<tag k="ssr:stedsnr" v="61643" />
		<tag k="ssr:type" v="bruk" />
	</node>
	<node id="4462185932" lat="58.4701483" lon="8.5520364" version="3" timestamp="2022-06-08T17:42:58Z" changeset="122128766" uid="3497659" user="NKA">
		<tag k="alt_name" v="Liane" />
		<tag k="name" v="Mørløsliene" />
		<tag k="place" v="farm" />
		<tag k="ssr:stedsnr" v="789664" />
		<tag k="ssr:type" v="bruk" />
	</node>
	<node id="4462185933" lat="58.4938601" lon="8.6326412" version="2" timestamp="2018-04-10T18:47:04Z" changeset="57982147" uid="3497659" user="NKA">
		<tag k="name" v="Nedre Blakstad" />
		<tag k="place" v="farm" />
		<tag k="ssr:stedsnr" v="182673" />
		<tag k="ssr:type" v="bruk" />
	</node>
	<node id="4462185934" lat="58.4745805" lon="8.6216997" version="2" timestamp="2018-04-10T18:47:04Z" changeset="57982147" uid="3497659" user="NKA">
		<tag k="alt_name" v="Høgvoll nedre;Høyvoll" />
		<tag k="name" v="Nedre Høgvoll" />
		<tag k="place" v="farm" />
		<tag k="ssr:stedsnr" v="182663" />
		<tag k="ssr:type" v="eneboligMindreBoligbygg" />
	</node>
	<node id="4462185935" lat="58.4789535" lon="8.6208979" version="2" timestamp="2018-04-10T18:47:04Z" changeset="57982147" uid="3497659" user="NKA">
		<tag k="name" v="Nedre Messel" />
		<tag k="place" v="farm" />
		<tag k="ssr:stedsnr" v="931037" />
		<tag k="ssr:type" v="bruk" />
	</node>
	<node id="4462185936" lat="58.4819469" lon="8.670592" version="2" timestamp="2018-04-10T18:47:04Z" changeset="57982147" uid="3497659" user="NKA">
		<tag k="alt_name" v="Skinnaren nedre" />
		<tag k="name" v="Nedre Skinnaren" />
		<tag k="place" v="farm" />
		<tag k="ssr:stedsnr" v="155022" />
		<tag k="ssr:type" v="bruk" />
	</node>
	<node id="4462185937" lat="58.4792461" lon="8.6731603" version="2" timestamp="2018-04-10T18:47:04Z" changeset="57982147" uid="3497659" user="NKA">
		<tag k="alt_name" v="Skuggestøl nedre" />
		<tag k="name" v="Nedre Skuggestøl" />
		<tag k="place" v="farm" />
		<tag k="ssr:stedsnr" v="216019" />
		<tag k="ssr:type" v="bruk" />
	</node>
	<node id="4462185938" lat="58.4702617" lon="8.5587711" version="2" timestamp="2018-04-10T18:47:04Z" changeset="57982147" uid="3497659" user="NKA">
		<tag k="name" v="Neset" />
		<tag k="place" v="farm" />
		<tag k="ssr:stedsnr" v="717896" />
		<tag k="ssr:type" v="bruk" />
	</node>
	<node id="4462185939" lat="58.4891553" lon="8.5938255" version="2" timestamp="2018-04-10T18:47:04Z" changeset="57982147" uid="3497659" user="NKA">
		<tag k="name" v="Neset" />
		<tag k="place" v="farm" />
		<tag k="ssr:stedsnr" v="910676" />
		<tag k="ssr:type" v="bruk" />
	</node>
	<node id="4462185940" lat="58.631377" lon="8.6719546" version="2" timestamp="2018-04-10T18:47:05Z" changeset="57982147" uid="3497659" user="NKA">
		<tag k="name" v="Neset" />
		<tag k="place" v="isolated_dwelling" />
		<tag k="ssr:stedsnr" v="823124" />
		<tag k="ssr:type" v="gammelBosettingsplass" />
	</node>
	<node id="4462185941" lat="58.5697175" lon="8.5294235" version="2" timestamp="2018-04-10T18:47:05Z" changeset="57982147" uid="3497659" user="NKA">
		<tag k="name" v="Nesland" />
		<tag k="place" v="farm" />
		<tag k="ssr:stedsnr" v="547886" />
		<tag k="ssr:type" v="bruk" />
	</node>
	<node id="4462185942" lat="58.4913208" lon="8.5971329" version="2" timestamp="2018-04-10T18:47:05Z" changeset="57982147" uid="3497659" user="NKA">
		<tag k="name" v="Nesodden" />
		<tag k="place" v="farm" />
		<tag k="ssr:stedsnr" v="701016" />
		<tag k="ssr:type" v="bruk" />
	</node>
	<node id="4462185943" lat="58.4877534" lon="8.6639079" version="2" timestamp="2018-04-10T18:47:05Z" changeset="57982147" uid="3497659" user="NKA">
		<tag k="name" v="Nikkelverket" />
		<tag k="place" v="locality" />
		<tag k="ssr:stedsnr" v="34044" />
		<tag k="ssr:type" v="industriområde" />
	</node>
	<node id="4462185944" lat="58.5379241" lon="8.6386772" version="2" timestamp="2018-04-10T18:47:05Z" changeset="57982147" uid="3497659" user="NKA">
		<tag k="name" v="Nordbø" />
		<tag k="place" v="farm" />
		<tag k="ssr:stedsnr" v="61667" />
		<tag k="ssr:type" v="eneboligMindreBoligbygg" />
	</node>
	<node id="4462185945" lat="58.5043633" lon="8.5861786" version="2" timestamp="2018-04-10T18:47:05Z" changeset="57982147" uid="3497659" user="NKA">
		<tag k="name" v="Nordeng" />
		<tag k="place" v="farm" />
		<tag k="ssr:stedsnr" v="519055" />
		<tag k="ssr:type" v="bruk" />
	</node>
	<node id="4462185946" lat="58.5308178" lon="8.4644884" version="2" timestamp="2018-04-10T18:47:05Z" changeset="57982147" uid="3497659" user="NKA">
		<tag k="name" v="Nordheim" />
		<tag k="place" v="farm" />
		<tag k="ssr:stedsnr" v="414004" />
		<tag k="ssr:type" v="bruk" />
	</node>
	<node id="4462185947" lat="58.5086501" lon="8.5516075" version="2" timestamp="2018-04-10T18:47:05Z" changeset="57982147" uid="3497659" user="NKA">
		<tag k="name" v="Nordli" />
		<tag k="place" v="farm" />
		<tag k="ssr:stedsnr" v="94087" />
		<tag k="ssr:type" v="bruk" />
	</node>
	<node id="4462185948" lat="58.5691765" lon="8.5832654" version="2" timestamp="2018-04-10T18:47:06Z" changeset="57982147" uid="3497659" user="NKA">
		<tag k="name" v="Nordli" />
		<tag k="place" v="farm" />
		<tag k="ssr:stedsnr" v="842106" />
		<tag k="ssr:type" v="bruk" />
	</node>
	<node id="4462185949" lat="58.4978276" lon="8.5776368" version="2" timestamp="2018-04-10T18:47:06Z" changeset="57982147" uid="3497659" user="NKA">
		<tag k="name" v="Nordvoll" />
		<tag k="place" v="farm" />
		<tag k="ssr:stedsnr" v="762073" />
		<tag k="ssr:type" v="bruk" />
	</node>
	<node id="4462185950" lat="58.4822759" lon="8.6418675" version="2" timestamp="2018-04-10T18:47:06Z" changeset="57982147" uid="3497659" user="NKA">
		<tag k="name" v="Nybu" />
		<tag k="place" v="locality" />
		<tag k="ssr:stedsnr" v="34206" />
		<tag k="ssr:type" v="fritidsbolig" />
	</node>
	<node id="4462185951" lat="58.502037" lon="8.6552618" version="2" timestamp="2018-04-10T18:47:06Z" changeset="57982147" uid="3497659" user="NKA">
		<tag k="name" v="Nybu" />
		<tag k="place" v="farm" />
		<tag k="ssr:stedsnr" v="398221" />
		<tag k="ssr:type" v="bruk" />
	</node>
	<node id="4462185952" lat="58.5038783" lon="8.6602823" version="2" timestamp="2018-04-10T18:47:06Z" changeset="57982147" uid="3497659" user="NKA">
		<tag k="name" v="Nybu" />
		<tag k="place" v="farm" />
		<tag k="ssr:stedsnr" v="425492" />
		<tag k="ssr:type" v="bruk" />
	</node>
	<node id="4462185953" lat="58.5296492" lon="8.6832497" version="2" timestamp="2018-04-10T18:47:06Z" changeset="57982147" uid="3497659" user="NKA">
		<tag k="alt_name" v="Nygard" />
		<tag k="name" v="Nygård" />
		<tag k="place" v="farm" />
		<tag k="ssr:stedsnr" v="183719" />
		<tag k="ssr:type" v="bruk" />
	</node>
	<node id="4462185954" lat="58.6281444" lon="8.2858226" version="2" timestamp="2018-04-10T18:47:06Z" changeset="57982147" uid="3497659" user="NKA">
		<tag k="name" v="Nygård" />
		<tag k="place" v="farm" />
		<tag k="ssr:stedsnr" v="598326" />
		<tag k="ssr:type" v="bruk" />
	</node>
	<node id="4462185955" lat="58.6396083" lon="8.1639186" version="2" timestamp="2018-04-10T18:47:07Z" changeset="57982147" uid="3497659" user="NKA">
		<tag k="name" v="Nystøl" />
		<tag k="place" v="farm" />
		<tag k="ssr:stedsnr" v="426258" />
		<tag k="ssr:type" v="bruk" />
	</node>
	<node id="4462185956" lat="58.6183176" lon="8.6187506" version="2" timestamp="2018-04-10T18:47:07Z" changeset="57982147" uid="3497659" user="NKA">
		<tag k="name" v="Olashage" />
		<tag k="place" v="farm" />
		<tag k="ssr:stedsnr" v="546780" />
		<tag k="ssr:type" v="eneboligMindreBoligbygg" />
	</node>
	<node id="4462185957" lat="58.6278241" lon="8.6651223" version="2" timestamp="2018-04-10T18:47:07Z" changeset="57982147" uid="3497659" user="NKA">
		<tag k="name" v="Olsbu" />
		<tag k="place" v="farm" />
		<tag k="ssr:stedsnr" v="546724" />
		<tag k="ssr:type" v="bruk" />
	</node>
	<node id="4462185958" lat="58.6285295" lon="8.5984883" version="2" timestamp="2018-04-10T18:47:07Z" changeset="57982147" uid="3497659" user="NKA">
		<tag k="name" v="Omdal" />
		<tag k="place" v="farm" />
		<tag k="ssr:stedsnr" v="789763" />
		<tag k="ssr:type" v="bruk" />
	</node>
	<node id="4462185959" lat="58.6217181" lon="8.5914969" version="2" timestamp="2018-04-10T18:47:07Z" changeset="57982147" uid="3497659" user="NKA">
		<tag k="name" v="Omdalsmoen" />
		<tag k="place" v="farm" />
		<tag k="ssr:stedsnr" v="769" />
		<tag k="ssr:type" v="bruk" />
	</node>
	<node id="4462185960" lat="58.5450866" lon="8.5368254" version="2" timestamp="2018-04-10T18:47:07Z" changeset="57982147" uid="3497659" user="NKA">
		<tag k="name" v="Osevollen" />
		<tag k="place" v="farm" />
		<tag k="ssr:stedsnr" v="53657" />
		<tag k="ssr:type" v="bruk" />
	</node>
	<node id="4462185961" lat="58.4910681" lon="8.6223458" version="2" timestamp="2018-04-10T18:47:07Z" changeset="57982147" uid="3497659" user="NKA">
		<tag k="name" v="Oveland" />
		<tag k="place" v="hamlet" />
		<tag k="ssr:stedsnr" v="61663" />
		<tag k="ssr:type" v="gard" />
	</node>
	<node id="4462185962" lat="58.5042227" lon="8.6240634" version="2" timestamp="2018-04-10T18:47:07Z" changeset="57982147" uid="3497659" user="NKA">
		<tag k="name" v="Ovelandsdalen" />
		<tag k="place" v="farm" />
		<tag k="ssr:stedsnr" v="668524" />
		<tag k="ssr:type" v="bruk" />
	</node>
	<node id="4462185963" lat="58.4857235" lon="8.6170406" version="2" timestamp="2018-04-10T18:47:07Z" changeset="57982147" uid="3497659" user="NKA">
		<tag k="name" v="Ovelandsneset" />
		<tag k="place" v="farm" />
		<tag k="ssr:stedsnr" v="398209" />
		<tag k="ssr:type" v="bruk" />
	</node>
	<node id="4462185964" lat="58.5023256" lon="8.4335621" version="2" timestamp="2018-04-10T18:47:07Z" changeset="57982147" uid="3497659" user="NKA">
		<tag k="historic" v="ruins" />
		<tag k="name" v="Plassen" />
		<tag k="place" v="locality" />
		<tag k="ssr:stedsnr" v="353093" />
		<tag k="ssr:type" v="gammelBosettingsplass" />
	</node>
	<node id="4462185965" lat="58.5124846" lon="8.3917331" version="2" timestamp="2018-04-10T18:47:08Z" changeset="57982147" uid="3497659" user="NKA">
		<tag k="historic" v="ruins" />
		<tag k="name" v="Plassen" />
		<tag k="place" v="locality" />
		<tag k="ssr:stedsnr" v="171074" />
		<tag k="ssr:type" v="gammelBosettingsplass" />
	</node>
	<node id="4462185966" lat="58.5139926" lon="8.6682425" version="2" timestamp="2018-04-10T18:47:08Z" changeset="57982147" uid="3497659" user="NKA">
		<tag k="name" v="Plassen" />
		<tag k="place" v="farm" />
		<tag k="ssr:stedsnr" v="62739" />
		<tag k="ssr:type" v="bruk" />
	</node>
	<node id="4462185967" lat="58.5861186" lon="8.4750974" version="2" timestamp="2018-04-10T18:47:08Z" changeset="57982147" uid="3497659" user="NKA">
		<tag k="historic" v="ruins" />
		<tag k="name" v="Plassen" />
		<tag k="place" v="locality" />
		<tag k="ssr:stedsnr" v="902412" />
		<tag k="ssr:type" v="gammelBosettingsplass" />
	</node>
	<node id="4462185968" lat="58.6816495" lon="8.2167849" version="2" timestamp="2018-04-10T18:47:08Z" changeset="57982147" uid="3497659" user="NKA">
		<tag k="historic" v="ruins" />
		<tag k="name" v="Plassen" />
		<tag k="place" v="locality" />
		<tag k="ssr:stedsnr" v="598605" />
		<tag k="ssr:type" v="gammelBosettingsplass" />
	</node>
	<node id="4462185969" lat="58.6839915" lon="8.2683945" version="2" timestamp="2018-04-10T18:47:08Z" changeset="57982147" uid="3497659" user="NKA">
		<tag k="name" v="Plassen" />
		<tag k="place" v="isolated_dwelling" />
		<tag k="ssr:stedsnr" v="234541" />
		<tag k="ssr:type" v="gammelBosettingsplass" />
	</node>
	<node id="4462185970" lat="58.5254749" lon="8.6475178" version="2" timestamp="2018-04-10T18:47:08Z" changeset="57982147" uid="3497659" user="NKA">
		<tag k="name" v="Prestegården" />
		<tag k="place" v="farm" />
		<tag k="ssr:stedsnr" v="944214" />
		<tag k="ssr:type" v="bruk" />
	</node>
	<node id="4462185971" lat="58.5415204" lon="8.532385" version="2" timestamp="2018-04-10T18:47:08Z" changeset="57982147" uid="3497659" user="NKA">
		<tag k="name" v="Ravnåsen" />
		<tag k="place" v="farm" />
		<tag k="ssr:stedsnr" v="425658" />
		<tag k="ssr:type" v="bruk" />
	</node>
	<node id="4462185972" lat="58.4647498" lon="8.6097189" version="2" timestamp="2018-04-10T18:47:08Z" changeset="57982147" uid="3497659" user="NKA">
		<tag k="name" v="Reiersøl" />
		<tag k="place" v="farm" />
		<tag k="ssr:stedsnr" v="485620" />
		<tag k="ssr:type" v="bruk" />
	</node>
	<node id="4462185973" lat="58.4615673" lon="8.6074971" version="2" timestamp="2018-04-10T18:47:09Z" changeset="57982147" uid="3497659" user="NKA">
		<tag k="name" v="Reiersølmoen" />
		<tag k="place" v="farm" />
		<tag k="ssr:stedsnr" v="607642" />
		<tag k="ssr:type" v="bruk" />
	</node>
	<node id="4462185974" lat="58.4551149" lon="8.607968" version="2" timestamp="2018-04-10T18:47:09Z" changeset="57982147" uid="3497659" user="NKA">
		<tag k="name" v="Reinum" />
		<tag k="place" v="farm" />
		<tag k="ssr:stedsnr" v="49854" />
		<tag k="ssr:type" v="bruk" />
	</node>
	<node id="4462185975" lat="58.5016396" lon="8.577742" version="2" timestamp="2018-04-10T18:47:09Z" changeset="57982147" uid="3497659" user="NKA">
		<tag k="name" v="Riberås" />
		<tag k="place" v="locality" />
		<tag k="ssr:stedsnr" v="459075" />
		<tag k="ssr:type" v="boligfelt" />
	</node>
	<node id="4462185976" lat="58.6687222" lon="8.1248466" version="2" timestamp="2018-04-10T18:47:09Z" changeset="57982147" uid="3497659" user="NKA">
		<tag k="name" v="Risdal" />
		<tag k="place" v="hamlet" />
		<tag k="ssr:stedsnr" v="364293" />
		<tag k="ssr:type" v="bruk" />
	</node>
	<node id="4462185977" lat="58.5287365" lon="8.6034441" version="3" timestamp="2018-04-10T18:47:09Z" changeset="57982147" uid="3497659" user="NKA">
		<tag k="name" v="Risland" />
		<tag k="place" v="hamlet" />
		<tag k="ssr:stedsnr" v="62709" />
		<tag k="ssr:type" v="bruk" />
	</node>
	<node id="4462185978" lat="58.4639961" lon="8.5810303" version="2" timestamp="2018-04-10T18:47:09Z" changeset="57982147" uid="3497659" user="NKA">
		<tag k="name" v="Rugdelia" />
		<tag k="place" v="farm" />
		<tag k="ssr:stedsnr" v="627040" />
		<tag k="ssr:type" v="bruk" />
	</node>
	<node id="4462185979" lat="58.5034649" lon="8.5878403" version="2" timestamp="2018-04-10T18:47:09Z" changeset="57982147" uid="3497659" user="NKA">
		<tag k="name" v="Rughagen" />
		<tag k="place" v="farm" />
		<tag k="ssr:stedsnr" v="155073" />
		<tag k="ssr:type" v="bruk" />
	</node>
	<node id="4462185980" lat="58.496135" lon="8.5794439" version="2" timestamp="2018-04-10T18:47:09Z" changeset="57982147" uid="3497659" user="NKA">
		<tag k="name" v="Rustenberg" />
		<tag k="place" v="farm" />
		<tag k="ssr:stedsnr" v="701102" />
		<tag k="ssr:type" v="bruk" />
	</node>
	<node id="4462185981" lat="58.4966604" lon="8.5820144" version="2" timestamp="2018-04-10T18:47:09Z" changeset="57982147" uid="3497659" user="NKA">
		<tag k="name" v="Rustenberg" />
		<tag k="place" v="farm" />
		<tag k="ssr:stedsnr" v="34066" />
		<tag k="ssr:type" v="bruk" />
	</node>
	<node id="4462185982" lat="58.533554" lon="8.6097281" version="2" timestamp="2018-04-10T18:47:09Z" changeset="57982147" uid="3497659" user="NKA">
		<tag k="name" v="Rydland" />
		<tag k="place" v="farm" />
		<tag k="ssr:stedsnr" v="580179" />
		<tag k="ssr:type" v="bruk" />
	</node>
	<node id="4462185983" lat="58.5209484" lon="8.6280412" version="2" timestamp="2018-04-10T18:47:10Z" changeset="57982147" uid="3497659" user="NKA">
		<tag k="alt_name" v="Runnemyr" />
		<tag k="name" v="Rynnemyr" />
		<tag k="place" v="farm" />
		<tag k="ssr:stedsnr" v="183734" />
		<tag k="ssr:type" v="bruk" />
	</node>
	<node id="4462185984" lat="58.5167055" lon="8.6902041" version="2" timestamp="2018-04-10T18:47:10Z" changeset="57982147" uid="3497659" user="NKA">
		<tag k="name" v="Råmarkåsen" />
		<tag k="place" v="isolated_dwelling" />
		<tag k="ssr:stedsnr" v="486751" />
		<tag k="ssr:type" v="eneboligMindreBoligbygg" />
	</node>
	<node id="4462185985" lat="58.5523232" lon="8.6997962" version="2" timestamp="2018-04-10T18:47:10Z" changeset="57982147" uid="3497659" user="NKA">
		<tag k="name" v="Råna" />
		<tag k="place" v="farm" />
		<tag k="ssr:stedsnr" v="304670" />
		<tag k="ssr:type" v="eneboligMindreBoligbygg" />
	</node>
	<node id="4462185986" lat="58.4979081" lon="8.6339873" version="2" timestamp="2018-04-10T18:47:10Z" changeset="57982147" uid="3497659" user="NKA">
		<tag k="name" v="Rødlende" />
		<tag k="place" v="farm" />
		<tag k="ssr:stedsnr" v="823194" />
		<tag k="ssr:type" v="bruk" />
	</node>
	<node id="4462185987" lat="58.5075473" lon="8.6505119" version="2" timestamp="2018-04-10T18:47:10Z" changeset="57982147" uid="3497659" user="NKA">
		<tag k="name" v="Røed" />
		<tag k="place" v="hamlet" />
		<tag k="ssr:stedsnr" v="944083" />
		<tag k="ssr:type" v="grend" />
	</node>
	<node id="4462185988" lat="58.4801144" lon="8.6162668" version="2" timestamp="2018-04-10T18:47:10Z" changeset="57982147" uid="3497659" user="NKA">
		<tag k="name" v="Rønningen" />
		<tag k="place" v="farm" />
		<tag k="ssr:stedsnr" v="277195" />
		<tag k="ssr:type" v="eneboligMindreBoligbygg" />
	</node>
	<node id="4462186189" lat="58.5021193" lon="8.4374387" version="2" timestamp="2018-04-10T18:47:10Z" changeset="57982147" uid="3497659" user="NKA">
		<tag k="name" v="Rønningen" />
		<tag k="place" v="farm" />
		<tag k="ssr:stedsnr" v="668003" />
		<tag k="ssr:type" v="bruk" />
	</node>
	<node id="4462186190" lat="58.5289879" lon="8.7405196" version="2" timestamp="2018-04-10T18:47:10Z" changeset="57982147" uid="3497659" user="NKA">
		<tag k="name" v="Rønningen" />
		<tag k="place" v="farm" />
		<tag k="ssr:stedsnr" v="304733" />
		<tag k="ssr:type" v="bruk" />
	</node>
	<node id="4462186191" lat="58.5803884" lon="8.7159621" version="2" timestamp="2018-04-10T18:47:10Z" changeset="57982147" uid="3497659" user="NKA">
		<tag k="name" v="Rønningen" />
		<tag k="place" v="farm" />
		<tag k="ssr:stedsnr" v="276376" />
		<tag k="ssr:type" v="eneboligMindreBoligbygg" />
	</node>
	<node id="4462186192" lat="58.6356892" lon="8.2944935" version="2" timestamp="2018-04-10T18:47:10Z" changeset="57982147" uid="3497659" user="NKA">
		<tag k="name" v="Rønningen" />
		<tag k="place" v="farm" />
		<tag k="ssr:stedsnr" v="113118" />
		<tag k="ssr:type" v="eneboligMindreBoligbygg" />
	</node>
	<node id="4462186193" lat="58.6422932" lon="8.497596" version="2" timestamp="2018-04-10T18:47:11Z" changeset="57982147" uid="3497659" user="NKA">
		<tag k="name" v="Røyli" />
		<tag k="place" v="farm" />
		<tag k="ssr:stedsnr" v="244998" />
		<tag k="ssr:type" v="bruk" />
	</node>
	<node id="4462186194" lat="58.6514992" lon="8.3058303" version="2" timestamp="2018-04-10T18:47:11Z" changeset="57982147" uid="3497659" user="NKA">
		<tag k="name" v="Røyseland" />
		<tag k="place" v="farm" />
		<tag k="ssr:stedsnr" v="183248" />
		<tag k="ssr:type" v="bruk" />
	</node>
	<node id="4462186195" lat="58.6085263" lon="8.5952731" version="2" timestamp="2018-04-10T18:47:11Z" changeset="57982147" uid="3497659" user="NKA">
		<tag k="name" v="Røysland" />
		<tag k="place" v="farm" />
		<tag k="ssr:stedsnr" v="417193" />
		<tag k="ssr:type" v="bruk" />
	</node>
	<node id="4462186196" lat="58.661245" lon="8.5437406" version="2" timestamp="2018-04-10T18:47:11Z" changeset="57982147" uid="3497659" user="NKA">
		<tag k="alt_name" v="Røyseland" />
		<tag k="name" v="Røysland" />
		<tag k="place" v="locality" />
		<tag k="ssr:stedsnr" v="668961" />
		<tag k="ssr:type" v="bruk" />
	</node>
	<node id="4462186197" lat="58.5323701" lon="8.6913002" version="2" timestamp="2018-04-10T18:47:11Z" changeset="57982147" uid="3497659" user="NKA">
		<tag k="name" v="Sagebakken" />
		<tag k="place" v="farm" />
		<tag k="ssr:stedsnr" v="94064" />
		<tag k="ssr:type" v="bruk" />
	</node>
	<node id="4462186198" lat="58.6003843" lon="8.6417367" version="2" timestamp="2018-04-10T18:47:11Z" changeset="57982147" uid="3497659" user="NKA">
		<tag k="name" v="Sagmyra" />
		<tag k="place" v="farm" />
		<tag k="ssr:stedsnr" v="789842" />
		<tag k="ssr:type" v="eneboligMindreBoligbygg" />
	</node>
	<node id="4462186199" lat="58.5105646" lon="8.6325814" version="2" timestamp="2018-04-10T18:47:11Z" changeset="57982147" uid="3497659" user="NKA">
		<tag k="name" v="Sagstuen" />
		<tag k="place" v="farm" />
		<tag k="ssr:stedsnr" v="337234" />
		<tag k="ssr:type" v="eneboligMindreBoligbygg" />
	</node>
	<node id="4462186200" lat="58.5418556" lon="8.6440259" version="2" timestamp="2018-04-10T18:47:11Z" changeset="57982147" uid="3497659" user="NKA">
		<tag k="name" v="Sanden" />
		<tag k="place" v="farm" />
		<tag k="ssr:stedsnr" v="729693" />
		<tag k="ssr:type" v="eneboligMindreBoligbygg" />
	</node>
	<node id="4462186201" lat="58.5786334" lon="8.5326004" version="2" timestamp="2018-04-10T18:47:11Z" changeset="57982147" uid="3497659" user="NKA">
		<tag k="name" v="Sandnes" />
		<tag k="place" v="farm" />
		<tag k="ssr:stedsnr" v="659023" />
		<tag k="ssr:type" v="bruk" />
	</node>
	<node id="4462186202" lat="58.4983579" lon="8.578977" version="2" timestamp="2018-04-10T18:47:12Z" changeset="57982147" uid="3497659" user="NKA">
		<tag k="name" v="Seden" />
		<tag k="place" v="farm" />
		<tag k="ssr:stedsnr" v="850685" />
		<tag k="ssr:type" v="bruk" />
	</node>
	<node id="4462186203" lat="58.5421944" lon="8.7279072" version="2" timestamp="2018-04-10T18:47:12Z" changeset="57982147" uid="3497659" user="NKA">
		<tag k="name" v="Seljestøl" />
		<tag k="place" v="farm" />
		<tag k="ssr:stedsnr" v="243677" />
		<tag k="ssr:type" v="bruk" />
	</node>
	<node id="4462186204" lat="58.5227814" lon="8.6928219" version="2" timestamp="2018-04-10T18:47:12Z" changeset="57982147" uid="3497659" user="NKA">
		<tag k="name" v="Seljåsen" />
		<tag k="place" v="farm" />
		<tag k="ssr:stedsnr" v="183724" />
		<tag k="ssr:type" v="bruk" />
	</node>
	<node id="4462186205" lat="58.5380888" lon="8.4819936" version="2" timestamp="2018-04-10T18:47:12Z" changeset="57982147" uid="3497659" user="NKA">
		<tag k="alt_name" v="Skåtet" />
		<tag k="name" v="Skotet" />
		<tag k="place" v="farm" />
		<tag k="ssr:stedsnr" v="426686" />
		<tag k="ssr:type" v="eneboligMindreBoligbygg" />
	</node>
	<node id="4462186206" lat="58.5411063" lon="8.483757" version="2" timestamp="2018-04-10T18:47:12Z" changeset="57982147" uid="3497659" user="NKA">
		<tag k="name" v="Skotet" />
		<tag k="place" v="farm" />
		<tag k="ssr:stedsnr" v="174496" />
		<tag k="ssr:type" v="bruk" />
	</node>
	<node id="4462186207" lat="58.6016529" lon="8.7292156" version="2" timestamp="2018-04-10T18:47:12Z" changeset="57982147" uid="3497659" user="NKA">
		<tag k="alt_name" v="Skotkjerra" />
		<tag k="name" v="Skottkjerra" />
		<tag k="place" v="isolated_dwelling" />
		<tag k="ssr:stedsnr" v="425844" />
		<tag k="ssr:type" v="gammelBosettingsplass" />
	</node>
	<node id="4462186208" lat="58.5192165" lon="8.6450039" version="2" timestamp="2018-04-10T18:47:12Z" changeset="57982147" uid="3497659" user="NKA">
		<tag k="name" v="Skreddarhagen" />
		<tag k="place" v="farm" />
		<tag k="ssr:stedsnr" v="304747" />
		<tag k="ssr:type" v="bruk" />
	</node>
	<node id="4462186209" lat="58.5748803" lon="8.2635554" version="2" timestamp="2018-04-10T18:47:12Z" changeset="57982147" uid="3497659" user="NKA">
		<tag k="name" v="Skripeland" />
		<tag k="place" v="farm" />
		<tag k="ssr:stedsnr" v="122114" />
		<tag k="ssr:type" v="bruk" />
	</node>
	<node id="4462186210" lat="58.5545698" lon="8.6929293" version="2" timestamp="2018-04-10T18:47:12Z" changeset="57982147" uid="3497659" user="NKA">
		<tag k="name" v="Skyttemyr" />
		<tag k="place" v="farm" />
		<tag k="ssr:stedsnr" v="519202" />
		<tag k="ssr:type" v="eneboligMindreBoligbygg" />
	</node>
	<node id="4462186211" lat="58.5579614" lon="8.6948904" version="2" timestamp="2018-04-10T18:47:13Z" changeset="57982147" uid="3497659" user="NKA">
		<tag k="name" v="Skyttemyr" />
		<tag k="place" v="farm" />
		<tag k="ssr:stedsnr" v="911638" />
		<tag k="ssr:type" v="bruk" />
	</node>
	<node id="4462186212" lat="58.5772558" lon="8.641568" version="2" timestamp="2018-04-10T18:47:13Z" changeset="57982147" uid="3497659" user="NKA">
		<tag k="name" v="Sleikbekk" />
		<tag k="place" v="farm" />
		<tag k="ssr:stedsnr" v="911854" />
		<tag k="ssr:type" v="bruk" />
	</node>
	<node id="4462186213" lat="58.4976064" lon="8.541982" version="2" timestamp="2018-04-10T18:47:13Z" changeset="57982147" uid="3497659" user="NKA">
		<tag k="historic" v="ruins" />
		<tag k="name" v="Småmyrene" />
		<tag k="place" v="farm" />
		<tag k="ssr:stedsnr" v="61690" />
		<tag k="ssr:type" v="bruk" />
	</node>
	<node id="4462186214" lat="58.4844595" lon="8.4642603" version="2" timestamp="2018-04-10T18:47:13Z" changeset="57982147" uid="3497659" user="NKA">
		<tag k="name" v="Snøløs" />
		<tag k="place" v="farm" />
		<tag k="ssr:stedsnr" v="606427" />
		<tag k="ssr:type" v="bruk" />
	</node>
	<node id="4462186215" lat="58.5117553" lon="8.6583546" version="2" timestamp="2018-04-10T18:47:13Z" changeset="57982147" uid="3497659" user="NKA">
		<tag k="name" v="Solbakken" />
		<tag k="place" v="farm" />
		<tag k="ssr:stedsnr" v="337092" />
		<tag k="ssr:type" v="bruk" />
	</node>
	<node id="4462186216" lat="58.5096377" lon="8.4289034" version="3" timestamp="2021-03-15T10:46:17Z" changeset="101044343" uid="3497659" user="NKA">
		<tag k="name" v="Solhaug" />
		<tag k="place" v="isolated_dwelling" />
		<tag k="ssr:stedsnr" v="353086" />
		<tag k="ssr:type" v="fritidsbolig" />
	</node>
	<node id="4462186217" lat="58.6289948" lon="8.5331358" version="2" timestamp="2018-04-10T18:47:13Z" changeset="57982147" uid="3497659" user="NKA">
		<tag k="name" v="Solhaug" />
		<tag k="place" v="farm" />
		<tag k="ssr:stedsnr" v="304978" />
		<tag k="ssr:type" v="bruk" />
	</node>
	<node id="4462186218" lat="58.5396068" lon="8.6842764" version="2" timestamp="2018-04-10T18:47:13Z" changeset="57982147" uid="3497659" user="NKA">
		<tag k="name" v="Solheim" />
		<tag k="place" v="farm" />
		<tag k="ssr:stedsnr" v="365700" />
		<tag k="ssr:type" v="bruk" />
	</node>
	<node id="4462186219" lat="58.519291" lon="8.4418638" version="2" timestamp="2018-04-10T18:47:13Z" changeset="57982147" uid="3497659" user="NKA">
		<tag k="name" v="Solhøgda" />
		<tag k="place" v="farm" />
		<tag k="ssr:stedsnr" v="231023" />
		<tag k="ssr:type" v="eneboligMindreBoligbygg" />
	</node>
	<node id="4462186220" lat="58.5088269" lon="8.6643233" version="2" timestamp="2018-04-10T18:47:14Z" changeset="57982147" uid="3497659" user="NKA">
		<tag k="name" v="Solås" />
		<tag k="place" v="farm" />
		<tag k="ssr:stedsnr" v="580029" />
		<tag k="ssr:type" v="bruk" />
	</node>
	<node id="4462186221" lat="58.5082511" lon="8.6235067" version="2" timestamp="2018-04-10T18:47:14Z" changeset="57982147" uid="3497659" user="NKA">
		<tag k="name" v="Songe" />
		<tag k="place" v="farm" />
		<tag k="ssr:stedsnr" v="122493" />
		<tag k="ssr:type" v="bruk" />
	</node>
	<node id="4462186222" lat="58.581987" lon="8.6622823" version="2" timestamp="2018-04-10T18:47:14Z" changeset="57982147" uid="3497659" user="NKA">
		<tag k="name" v="Songelia" />
		<tag k="place" v="farm" />
		<tag k="ssr:stedsnr" v="61856" />
		<tag k="ssr:type" v="eneboligMindreBoligbygg" />
	</node>
	<node id="4462186223" lat="58.6259655" lon="8.5418321" version="2" timestamp="2018-04-10T18:47:14Z" changeset="57982147" uid="3497659" user="NKA">
		<tag k="name" v="Sparsås" />
		<tag k="place" v="farm" />
		<tag k="ssr:stedsnr" v="182742" />
		<tag k="ssr:type" v="bruk" />
	</node>
	<node id="4462186224" lat="58.6314638" lon="8.7526585" version="2" timestamp="2018-04-10T18:47:14Z" changeset="57982147" uid="3497659" user="NKA">
		<tag k="historic" v="ruins" />
		<tag k="name" v="Steinsmyr" />
		<tag k="place" v="locality" />
		<tag k="ssr:stedsnr" v="519316" />
		<tag k="ssr:type" v="gammelBosettingsplass" />
	</node>
	<node id="4462186225" lat="58.6508404" lon="8.6189093" version="2" timestamp="2018-04-10T18:47:14Z" changeset="57982147" uid="3497659" user="NKA">
		<tag k="historic" v="ruins" />
		<tag k="name" v="Steløa" />
		<tag k="place" v="locality" />
		<tag k="ssr:stedsnr" v="113866" />
		<tag k="ssr:type" v="gammelBosettingsplass" />
	</node>
	<node id="4462186226" lat="58.5035577" lon="8.6398264" version="2" timestamp="2018-04-10T18:47:14Z" changeset="57982147" uid="3497659" user="NKA">
		<tag k="name" v="Stien" />
		<tag k="place" v="farm" />
		<tag k="ssr:stedsnr" v="911529" />
		<tag k="ssr:type" v="bruk" />
	</node>
	<node id="4462186227" lat="58.5169331" lon="8.618213" version="2" timestamp="2018-04-10T18:47:14Z" changeset="57982147" uid="3497659" user="NKA">
		<tag k="name" v="Stien" />
		<tag k="place" v="farm" />
		<tag k="ssr:stedsnr" v="851715" />
		<tag k="ssr:type" v="bruk" />
	</node>
	<node id="4462186228" lat="58.5410336" lon="8.6708981" version="2" timestamp="2018-04-10T18:47:14Z" changeset="57982147" uid="3497659" user="NKA">
		<tag k="name" v="Stoet" />
		<tag k="place" v="farm" />
		<tag k="ssr:stedsnr" v="672" />
		<tag k="ssr:type" v="eneboligMindreBoligbygg" />
	</node>
	<node id="4462186229" lat="58.5609296" lon="8.6125057" version="2" timestamp="2018-04-10T18:47:14Z" changeset="57982147" uid="3497659" user="NKA">
		<tag k="alt_name" v="Løvjomås store" />
		<tag k="name" v="Store Løvjomås" />
		<tag k="place" v="farm" />
		<tag k="ssr:stedsnr" v="607628" />
		<tag k="ssr:type" v="bruk" />
	</node>
	<node id="4462186230" lat="58.5545177" lon="8.4807223" version="2" timestamp="2018-04-10T18:47:15Z" changeset="57982147" uid="3497659" user="NKA">
		<tag k="name" v="Stølemarka" />
		<tag k="place" v="farm" />
		<tag k="ssr:stedsnr" v="790677" />
		<tag k="ssr:type" v="bruk" />
	</node>
	<node id="4462186231" lat="58.4861214" lon="8.6129262" version="2" timestamp="2018-04-10T18:47:15Z" changeset="57982147" uid="3497659" user="NKA">
		<tag k="name" v="Sundheim" />
		<tag k="place" v="farm" />
		<tag k="ssr:stedsnr" v="277193" />
		<tag k="ssr:type" v="eneboligMindreBoligbygg" />
	</node>
	<node id="4462186232" lat="58.6169851" lon="8.3966092" version="2" timestamp="2018-04-10T18:47:15Z" changeset="57982147" uid="3497659" user="NKA">
		<tag k="name" v="Svenes" />
		<tag k="place" v="hamlet" />
		<tag k="ssr:stedsnr" v="243330" />
		<tag k="ssr:type" v="bruk" />
	</node>
	<node id="4462186234" lat="58.6177233" lon="8.3914146" version="2" timestamp="2018-04-10T18:47:15Z" changeset="57982147" uid="3497659" user="NKA">
		<tag k="name" v="Sveneshaugen" />
		<tag k="place" v="locality" />
		<tag k="ssr:stedsnr" v="538019" />
		<tag k="ssr:type" v="boligfelt" />
	</node>
	<node id="4462186235" lat="58.4948216" lon="8.6026522" version="2" timestamp="2018-04-10T18:47:15Z" changeset="57982147" uid="3497659" user="NKA">
		<tag k="name" v="Svinevika" />
		<tag k="place" v="farm" />
		<tag k="ssr:stedsnr" v="81040" />
		<tag k="ssr:type" v="bruk" />
	</node>
	<node id="4462186236" lat="58.509112" lon="8.6849478" version="2" timestamp="2018-04-10T18:47:15Z" changeset="57982147" uid="3497659" user="NKA">
		<tag k="name" v="Svorttjernsmyra" />
		<tag k="place" v="farm" />
		<tag k="ssr:stedsnr" v="61485" />
		<tag k="ssr:type" v="eneboligMindreBoligbygg" />
	</node>
	<node id="4462186237" lat="58.6574367" lon="8.1086778" version="2" timestamp="2018-04-10T18:47:15Z" changeset="57982147" uid="3497659" user="NKA">
		<tag k="name" v="Sørli" />
		<tag k="place" v="farm" />
		<tag k="ssr:stedsnr" v="173963" />
		<tag k="ssr:type" v="bruk" />
	</node>
	<node id="4462186238" lat="58.5837428" lon="8.5503172" version="2" timestamp="2018-04-10T18:47:15Z" changeset="57982147" uid="3497659" user="NKA">
		<tag k="name" v="Søysdal" />
		<tag k="place" v="farm" />
		<tag k="ssr:stedsnr" v="1825" />
		<tag k="ssr:type" v="bruk" />
	</node>
	<node id="4462186239" lat="58.6467867" lon="8.3365855" version="2" timestamp="2018-04-10T18:47:15Z" changeset="57982147" uid="3497659" user="NKA">
		<tag k="historic" v="ruins" />
		<tag k="name" v="Terkelssag" />
		<tag k="place" v="locality" />
		<tag k="ssr:stedsnr" v="295359" />
		<tag k="ssr:type" v="gammelBosettingsplass" />
	</node>
	<node id="4462186240" lat="58.5029443" lon="8.6653873" version="2" timestamp="2018-04-10T18:47:15Z" changeset="57982147" uid="3497659" user="NKA">
		<tag k="name" v="Tersmyr" />
		<tag k="place" v="farm" />
		<tag k="ssr:stedsnr" v="34051" />
		<tag k="ssr:type" v="eneboligMindreBoligbygg" />
	</node>
	<node id="4462186241" lat="58.5286074" lon="8.6822151" version="2" timestamp="2018-04-10T18:47:16Z" changeset="57982147" uid="3497659" user="NKA">
		<tag k="name" v="Tjennbonnen" />
		<tag k="place" v="farm" />
		<tag k="ssr:stedsnr" v="790743" />
		<tag k="ssr:type" v="bruk" />
	</node>
	<node id="4462186242" lat="58.613156" lon="8.6659225" version="2" timestamp="2018-04-10T18:47:16Z" changeset="57982147" uid="3497659" user="NKA">
		<tag k="historic" v="ruins" />
		<tag k="name" v="Tjennsnes" />
		<tag k="place" v="locality" />
		<tag k="ssr:stedsnr" v="823302" />
		<tag k="ssr:type" v="gammelBosettingsplass" />
	</node>
	<node id="4462186243" lat="58.6909062" lon="7.9860952" version="2" timestamp="2018-04-10T18:47:16Z" changeset="57982147" uid="3497659" user="NKA">
		<tag k="historic" v="ruins" />
		<tag k="name" v="Torsbu" />
		<tag k="place" v="locality" />
		<tag k="ssr:stedsnr" v="779984" />
		<tag k="ssr:type" v="gammelBosettingsplass" />
	</node>
	<node id="4462186244" lat="58.618693" lon="8.5900043" version="2" timestamp="2018-04-10T18:47:16Z" changeset="57982147" uid="3497659" user="NKA">
		<tag k="historic" v="ruins" />
		<tag k="name" v="Torsland" />
		<tag k="place" v="locality" />
		<tag k="ssr:stedsnr" v="962168" />
		<tag k="ssr:type" v="gammelBosettingsplass" />
	</node>
	<node id="4462186245" lat="58.608616" lon="8.5908792" version="2" timestamp="2018-04-10T18:47:16Z" changeset="57982147" uid="3497659" user="NKA">
		<tag k="alt_name" v="Tosemyr" />
		<tag k="name" v="Torsmyr" />
		<tag k="place" v="farm" />
		<tag k="ssr:stedsnr" v="850791" />
		<tag k="ssr:type" v="bruk" />
	</node>
	<node id="4462186246" lat="58.4987188" lon="8.5918554" version="2" timestamp="2018-04-10T18:47:16Z" changeset="57982147" uid="3497659" user="NKA">
		<tag k="alt_name" v="Træ" />
		<tag k="name" v="Tre" />
		<tag k="place" v="farm" />
		<tag k="ssr:stedsnr" v="850530" />
		<tag k="ssr:type" v="eneboligMindreBoligbygg" />
	</node>
	<node id="4462186247" lat="58.4827415" lon="8.6130605" version="2" timestamp="2018-04-10T18:47:16Z" changeset="57982147" uid="3497659" user="NKA">
		<tag k="name" v="Tresnes" />
		<tag k="place" v="hamlet" />
		<tag k="ssr:stedsnr" v="606667" />
		<tag k="ssr:type" v="bruk" />
	</node>
	<node id="4462186248" lat="58.5456221" lon="8.6368117" version="2" timestamp="2018-04-10T18:47:16Z" changeset="57982147" uid="3497659" user="NKA">
		<tag k="alt_name" v="Trollemoen" />
		<tag k="name" v="Trollmoen" />
		<tag k="place" v="farm" />
		<tag k="ssr:stedsnr" v="364673" />
		<tag k="ssr:type" v="eneboligMindreBoligbygg" />
	</node>
	<node id="4462186249" lat="58.5419753" lon="8.2490117" version="2" timestamp="2018-04-10T18:47:16Z" changeset="57982147" uid="3497659" user="NKA">
		<tag k="alt_name" v="Treldalen" />
		<tag k="name" v="Trældalen" />
		<tag k="place" v="farm" />
		<tag k="ssr:stedsnr" v="62236" />
		<tag k="ssr:type" v="bruk" />
	</node>
	<node id="4462186250" lat="58.6046804" lon="8.2178262" version="3" timestamp="2018-04-28T08:07:03Z" changeset="58497758" uid="3497659" user="NKA">
		<tag k="historic" v="shieling" />
		<tag k="name" v="Tveit" />
		<tag k="place" v="farm" />
		<tag k="ssr:stedsnr" v="243322" />
		<tag k="ssr:type" v="bruk" />
	</node>
	<node id="4462186251" lat="58.5238755" lon="8.6000797" version="2" timestamp="2018-04-10T18:47:17Z" changeset="57982147" uid="3497659" user="NKA">
		<tag k="name" v="Tveitdalen" />
		<tag k="place" v="farm" />
		<tag k="ssr:stedsnr" v="668726" />
		<tag k="ssr:type" v="bruk" />
	</node>
	<node id="4462186252" lat="58.4998742" lon="8.4556026" version="3" timestamp="2021-03-15T10:46:17Z" changeset="101044343" uid="3497659" user="NKA">
		<tag k="name" v="Tveiten" />
		<tag k="place" v="isolated_dwelling" />
		<tag k="ssr:stedsnr" v="426011" />
		<tag k="ssr:type" v="fritidsbolig" />
	</node>
	<node id="4462186253" lat="58.5118242" lon="8.5932461" version="2" timestamp="2018-04-10T18:47:17Z" changeset="57982147" uid="3497659" user="NKA">
		<tag k="name" v="Tveiten" />
		<tag k="place" v="farm" />
		<tag k="ssr:stedsnr" v="182727" />
		<tag k="ssr:type" v="bruk" />
	</node>
	<node id="4462186254" lat="58.4976305" lon="8.4533711" version="2" timestamp="2018-04-10T18:47:17Z" changeset="57982147" uid="3497659" user="NKA">
		<tag k="name" v="Tveiter" />
		<tag k="place" v="farm" />
		<tag k="ssr:stedsnr" v="485380" />
		<tag k="ssr:type" v="bruk" />
	</node>
	<node id="4462186255" lat="58.4985279" lon="8.4443411" version="2" timestamp="2018-04-10T18:47:17Z" changeset="57982147" uid="3497659" user="NKA">
		<tag k="historic" v="ruins" />
		<tag k="name" v="Tveiteøygard" />
		<tag k="place" v="locality" />
		<tag k="ssr:stedsnr" v="535391" />
		<tag k="ssr:type" v="gammelBosettingsplass" />
	</node>
	<node id="4462186256" lat="58.5081026" lon="8.592225" version="2" timestamp="2018-04-10T18:47:17Z" changeset="57982147" uid="3497659" user="NKA">
		<tag k="name" v="Tveitmoen" />
		<tag k="place" v="farm" />
		<tag k="ssr:stedsnr" v="668774" />
		<tag k="ssr:type" v="bruk" />
	</node>
	<node id="4462186257" lat="58.5100439" lon="8.6057232" version="2" timestamp="2018-04-10T18:47:17Z" changeset="57982147" uid="3497659" user="NKA">
		<tag k="name" v="Tveitstrand" />
		<tag k="place" v="farm" />
		<tag k="ssr:stedsnr" v="155237" />
		<tag k="ssr:type" v="bruk" />
	</node>
	<node id="4462186258" lat="58.5216456" lon="8.7200724" version="2" timestamp="2018-04-10T18:47:17Z" changeset="57982147" uid="3497659" user="NKA">
		<tag k="historic" v="ruins" />
		<tag k="name" v="Tverrmyr" />
		<tag k="place" v="locality" />
		<tag k="ssr:stedsnr" v="276439" />
		<tag k="ssr:type" v="gammelBosettingsplass" />
	</node>
	<node id="4462186259" lat="58.6745338" lon="8.1595269" version="2" timestamp="2018-04-10T18:47:17Z" changeset="57982147" uid="3497659" user="NKA">
		<tag k="name" v="Tønnebrekk" />
		<tag k="place" v="farm" />
		<tag k="ssr:stedsnr" v="356591" />
		<tag k="ssr:type" v="bruk" />
	</node>
	<node id="4462186260" lat="58.5539986" lon="8.2653237" version="2" timestamp="2018-04-10T18:47:18Z" changeset="57982147" uid="3497659" user="NKA">
		<tag k="name" v="Uldal" />
		<tag k="place" v="farm" />
		<tag k="ssr:stedsnr" v="182229" />
		<tag k="ssr:type" v="bruk" />
	</node>
	<node id="4462186261" lat="58.5239965" lon="8.650937" version="2" timestamp="2018-04-10T18:47:18Z" changeset="57982147" uid="3497659" user="NKA">
		<tag k="name" v="Ustad" />
		<tag k="place" v="farm" />
		<tag k="ssr:stedsnr" v="122703" />
		<tag k="ssr:type" v="bruk" />
	</node>
	<node id="4462186262" lat="58.5762164" lon="8.7043671" version="2" timestamp="2018-04-10T18:47:18Z" changeset="57982147" uid="3497659" user="NKA">
		<tag k="name" v="Valle" />
		<tag k="place" v="farm" />
		<tag k="ssr:stedsnr" v="850870" />
		<tag k="ssr:type" v="bruk" />
	</node>
	<node id="4462186263" lat="58.6388523" lon="8.2948521" version="2" timestamp="2018-04-10T18:47:18Z" changeset="57982147" uid="3497659" user="NKA">
		<tag k="name" v="Valle" />
		<tag k="place" v="farm" />
		<tag k="ssr:stedsnr" v="486271" />
		<tag k="ssr:type" v="eneboligMindreBoligbygg" />
	</node>
	<node id="4462186264" lat="58.5787616" lon="8.6955104" version="2" timestamp="2018-04-10T18:47:18Z" changeset="57982147" uid="3497659" user="NKA">
		<tag k="historic" v="ruins" />
		<tag k="name" v="Vallemonen" />
		<tag k="place" v="locality" />
		<tag k="ssr:stedsnr" v="94171" />
		<tag k="ssr:type" v="gammelBosettingsplass" />
	</node>
	<node id="4462186265" lat="58.640557" lon="8.2969628" version="3" timestamp="2021-03-15T10:46:17Z" changeset="101044343" uid="3497659" user="NKA">
		<tag k="name" v="Vallheim" />
		<tag k="place" v="isolated_dwelling" />
		<tag k="ssr:stedsnr" v="234151" />
		<tag k="ssr:type" v="fritidsbolig" />
	</node>
	<node id="4462186266" lat="58.6555129" lon="8.096039" version="3" timestamp="2021-03-15T10:46:17Z" changeset="101044343" uid="3497659" user="NKA">
		<tag k="name" v="Vang" />
		<tag k="place" v="isolated_dwelling" />
		<tag k="ssr:stedsnr" v="902983" />
		<tag k="ssr:type" v="fritidsbolig" />
	</node>
	<node id="4462186267" lat="58.660715" lon="8.247082" version="2" timestamp="2018-04-10T18:47:18Z" changeset="57982147" uid="3497659" user="NKA">
		<tag k="name" v="Vangen" />
		<tag k="place" v="farm" />
		<tag k="ssr:stedsnr" v="962694" />
		<tag k="ssr:type" v="bruk" />
	</node>
	<node id="4462186268" lat="58.5212568" lon="8.5333409" version="2" timestamp="2018-04-10T18:47:18Z" changeset="57982147" uid="3497659" user="NKA">
		<tag k="name" v="Vassenden" />
		<tag k="place" v="hamlet" />
		<tag k="ssr:stedsnr" v="790736" />
		<tag k="ssr:type" v="eneboligMindreBoligbygg" />
	</node>
	<node id="4462186269" lat="58.5453187" lon="8.6719854" version="2" timestamp="2018-04-10T18:47:19Z" changeset="57982147" uid="3497659" user="NKA">
		<tag k="name" v="Vassmoen" />
		<tag k="place" v="farm" />
		<tag k="ssr:stedsnr" v="183663" />
		<tag k="ssr:type" v="eneboligMindreBoligbygg" />
	</node>
	<node id="4462186270" lat="58.5286429" lon="8.6934176" version="2" timestamp="2018-04-10T18:47:19Z" changeset="57982147" uid="3497659" user="NKA">
		<tag k="name" v="Vassåsen" />
		<tag k="place" v="farm" />
		<tag k="ssr:stedsnr" v="547743" />
		<tag k="ssr:type" v="eneboligMindreBoligbygg" />
	</node>
	<node id="4462186271" lat="58.6605099" lon="8.0608898" version="2" timestamp="2018-04-10T18:47:19Z" changeset="57982147" uid="3497659" user="NKA">
		<tag k="name" v="Vatne" />
		<tag k="place" v="farm" />
		<tag k="ssr:stedsnr" v="183483" />
		<tag k="ssr:type" v="bruk" />
	</node>
	<node id="4462186272" lat="58.6610607" lon="8.0736978" version="3" timestamp="2021-03-15T10:46:17Z" changeset="101044343" uid="3497659" user="NKA">
		<tag k="name" v="Vatneplassen" />
		<tag k="place" v="isolated_dwelling" />
		<tag k="ssr:stedsnr" v="547550" />
		<tag k="ssr:type" v="fritidsbolig" />
	</node>
	<node id="4462186273" lat="58.5450265" lon="8.6911706" version="2" timestamp="2018-04-10T18:47:19Z" changeset="57982147" uid="3497659" user="NKA">
		<tag k="name" v="Venemyr" />
		<tag k="place" v="farm" />
		<tag k="ssr:stedsnr" v="304688" />
		<tag k="ssr:type" v="bruk" />
	</node>
	<node id="4462186274" lat="58.6655137" lon="8.1623906" version="2" timestamp="2018-04-10T18:47:19Z" changeset="57982147" uid="3497659" user="NKA">
		<tag k="name" v="Venemyr" />
		<tag k="place" v="farm" />
		<tag k="ssr:stedsnr" v="52544" />
		<tag k="ssr:type" v="eneboligMindreBoligbygg" />
	</node>
	<node id="4462186275" lat="58.6963706" lon="8.1464333" version="2" timestamp="2018-04-10T18:47:19Z" changeset="57982147" uid="3497659" user="NKA">
		<tag k="historic" v="ruins" />
		<tag k="name" v="Verdalsbua" />
		<tag k="place" v="locality" />
		<tag k="ssr:stedsnr" v="233888" />
		<tag k="ssr:type" v="gammelBosettingsplass" />
	</node>
	<node id="4462186276" lat="58.5755598" lon="8.5434227" version="2" timestamp="2018-04-10T18:47:19Z" changeset="57982147" uid="3497659" user="NKA">
		<tag k="name" v="Veråsdalen" />
		<tag k="place" v="farm" />
		<tag k="ssr:stedsnr" v="1824" />
		<tag k="ssr:type" v="bruk" />
	</node>
	<node id="4462186277" lat="58.5803027" lon="8.5367583" version="2" timestamp="2018-04-10T18:47:19Z" changeset="57982147" uid="3497659" user="NKA">
		<tag k="name" v="Vestli" />
		<tag k="place" v="farm" />
		<tag k="ssr:stedsnr" v="659061" />
		<tag k="ssr:type" v="bruk" />
	</node>
	<node id="4462186278" lat="58.5415485" lon="8.6129014" version="3" timestamp="2018-04-10T18:47:20Z" changeset="57982147" uid="3497659" user="NKA">
		<tag k="alt_name" v="Dale vestre" />
		<tag k="name" v="Vestre Dale" />
		<tag k="place" v="hamlet" />
		<tag k="ssr:stedsnr" v="850644" />
		<tag k="ssr:type" v="bruk" />
	</node>
	<node id="4462186279" lat="58.5555594" lon="8.6077735" version="2" timestamp="2018-04-10T18:47:20Z" changeset="57982147" uid="3497659" user="NKA">
		<tag k="name" v="Vestre Løvjomås" />
		<tag k="place" v="farm" />
		<tag k="ssr:stedsnr" v="388259" />
		<tag k="ssr:type" v="bruk" />
	</node>
	<node id="4462186280" lat="58.5829876" lon="8.7210303" version="2" timestamp="2018-04-10T18:47:20Z" changeset="57982147" uid="3497659" user="NKA">
		<tag k="name" v="Vålandsmyr" />
		<tag k="place" v="farm" />
		<tag k="ssr:stedsnr" v="944295" />
		<tag k="ssr:type" v="eneboligMindreBoligbygg" />
	</node>
	<node id="4462186281" lat="58.6310193" lon="8.3031251" version="2" timestamp="2018-04-10T18:47:20Z" changeset="57982147" uid="3497659" user="NKA">
		<tag k="historic" v="bridge" />
		<tag k="name" v="Vøilebruna" />
		<tag k="place" v="locality" />
		<tag k="ssr:stedsnr" v="736136" />
		<tag k="ssr:type" v="bru" />
	</node>
	<node id="4462186282" lat="58.6309856" lon="8.2889568" version="2" timestamp="2018-04-10T18:47:20Z" changeset="57982147" uid="3497659" user="NKA">
		<tag k="name" v="Vøilemonen" />
		<tag k="place" v="locality" />
		<tag k="ssr:stedsnr" v="537331" />
		<tag k="ssr:type" v="boligfelt" />
	</node>
	<node id="4462186283" lat="58.5854018" lon="8.3337369" version="2" timestamp="2018-04-10T18:47:20Z" changeset="57982147" uid="3497659" user="NKA">
		<tag k="alt_name" v="Lauvrak ytre" />
		<tag k="name" v="Ytre Lauvrak" />
		<tag k="place" v="farm" />
		<tag k="ssr:stedsnr" v="486158" />
		<tag k="ssr:type" v="bruk" />
	</node>
	<node id="4462186284" lat="58.5086001" lon="8.6650183" version="2" timestamp="2018-04-10T18:47:20Z" changeset="57982147" uid="3497659" user="NKA">
		<tag k="name" v="Yttertjenn" />
		<tag k="place" v="farm" />
		<tag k="ssr:stedsnr" v="486522" />
		<tag k="ssr:type" v="eneboligMindreBoligbygg" />
	</node>
	<node id="4462186404" lat="58.5048166" lon="8.6473932" version="2" timestamp="2018-04-10T18:47:20Z" changeset="57982147" uid="3497659" user="NKA">
		<tag k="name" v="Åleborg" />
		<tag k="place" v="locality" />
		<tag k="ssr:stedsnr" v="640261" />
		<tag k="ssr:type" v="tettsted" />
	</node>
	<node id="4462186405" lat="58.4762065" lon="8.6174664" version="2" timestamp="2018-04-10T18:47:20Z" changeset="57982147" uid="3497659" user="NKA">
		<tag k="name" v="Ålia" />
		<tag k="place" v="farm" />
		<tag k="ssr:stedsnr" v="61661" />
		<tag k="ssr:type" v="bruk" />
	</node>
	<node id="4462186406" lat="58.6854878" lon="8.0410484" version="3" timestamp="2021-03-15T10:46:17Z" changeset="101044343" uid="3497659" user="NKA">
		<tag k="name" v="Ånnebua" />
		<tag k="place" v="isolated_dwelling" />
		<tag k="ssr:stedsnr" v="911624" />
		<tag k="ssr:type" v="fritidsbolig" />
	</node>
	<node id="4462186407" lat="58.622876" lon="8.3679978" version="2" timestamp="2018-04-10T18:47:20Z" changeset="57982147" uid="3497659" user="NKA">
		<tag k="name" v="Ås" />
		<tag k="place" v="farm" />
		<tag k="ssr:stedsnr" v="62347" />
		<tag k="ssr:type" v="bruk" />
	</node>
	<node id="4462186408" lat="58.5582796" lon="8.5403321" version="2" timestamp="2018-04-10T18:47:21Z" changeset="57982147" uid="3497659" user="NKA">
		<tag k="name" v="Åsen" />
		<tag k="place" v="farm" />
		<tag k="ssr:stedsnr" v="729644" />
		<tag k="ssr:type" v="bruk" />
	</node>
	<node id="4462186409" lat="58.6697005" lon="8.0445646" version="2" timestamp="2018-04-10T18:47:21Z" changeset="57982147" uid="3497659" user="NKA">
		<tag k="historic" v="ruins" />
		<tag k="name" v="Åshams øygard" />
		<tag k="place" v="locality" />
		<tag k="ssr:stedsnr" v="901056" />
		<tag k="ssr:type" v="gammelBosettingsplass" />
	</node>
	<node id="4462186410" lat="58.6703579" lon="8.3277127" version="2" timestamp="2018-04-10T18:47:21Z" changeset="57982147" uid="3497659" user="NKA">
		<tag k="name" v="Åstveit" />
		<tag k="place" v="farm" />
		<tag k="ssr:stedsnr" v="668318" />
		<tag k="ssr:type" v="bruk" />
	</node>
	<node id="4462186411" lat="58.6249378" lon="8.4781586" version="2" timestamp="2018-04-10T18:47:21Z" changeset="57982147" uid="3497659" user="NKA">
		<tag k="name" v="Åsvang" />
		<tag k="place" v="farm" />
		<tag k="ssr:stedsnr" v="902039" />
		<tag k="ssr:type" v="bruk" />
	</node>
	<node id="4462186412" lat="58.491674" lon="8.4299842" version="2" timestamp="2018-04-10T18:47:21Z" changeset="57982147" uid="3497659" user="NKA">
		<tag k="name" v="Ørteland" />
		<tag k="place" v="farm" />
		<tag k="ssr:stedsnr" v="121425" />
		<tag k="ssr:type" v="bruk" />
	</node>
	<node id="4462186413" lat="58.5548928" lon="8.6336076" version="2" timestamp="2018-04-10T18:47:21Z" changeset="57982147" uid="3497659" user="NKA">
		<tag k="alt_name" v="Dale østre" />
		<tag k="name" v="Østre Dale" />
		<tag k="place" v="farm" />
		<tag k="ssr:stedsnr" v="61620" />
		<tag k="ssr:type" v="bruk" />
	</node>
	<node id="4462186414" lat="58.5598945" lon="8.6137527" version="2" timestamp="2018-04-10T18:47:21Z" changeset="57982147" uid="3497659" user="NKA">
		<tag k="name" v="Østre Løvjomås" />
		<tag k="place" v="farm" />
		<tag k="ssr:stedsnr" v="327283" />
		<tag k="ssr:type" v="bruk" />
	</node>
	<node id="4462186415" lat="58.5002086" lon="8.6449253" version="2" timestamp="2018-04-10T18:47:21Z" changeset="57982147" uid="3497659" user="NKA">
		<tag k="name" v="Øvre Blakstad" />
		<tag k="place" v="farm" />
		<tag k="ssr:stedsnr" v="203047" />
		<tag k="ssr:type" v="bruk" />
	</node>
	<node id="4462186416" lat="58.4857123" lon="8.626743" version="2" timestamp="2018-04-10T18:47:21Z" changeset="57982147" uid="3497659" user="NKA">
		<tag k="alt_name" v="Høgvoll øvre" />
		<tag k="name" v="Øvre Høgvoll" />
		<tag k="place" v="farm" />
		<tag k="ssr:stedsnr" v="850667" />
		<tag k="ssr:type" v="bruk" />
	</node>
	<node id="4462186417" lat="58.6694544" lon="8.249813" version="2" timestamp="2018-04-10T18:47:22Z" changeset="57982147" uid="3497659" user="NKA">
		<tag k="alt_name" v="Lauvrak øvre;Lauvrak" />
		<tag k="name" v="Øvre Lauvrak" />
		<tag k="place" v="farm" />
		<tag k="ssr:stedsnr" v="183267" />
		<tag k="ssr:type" v="bruk" />
	</node>
	<node id="4462186418" lat="58.4838773" lon="8.6219171" version="2" timestamp="2018-04-10T18:47:22Z" changeset="57982147" uid="3497659" user="NKA">
		<tag k="name" v="Øvre Messel" />
		<tag k="place" v="farm" />
		<tag k="ssr:stedsnr" v="640241" />
		<tag k="ssr:type" v="bruk" />
	</node>
	<node id="4462186419" lat="58.4842722" lon="8.6264029" version="2" timestamp="2018-04-10T18:47:22Z" changeset="57982147" uid="3497659" user="NKA">
		<tag k="name" v="Øvre Messel" />
		<tag k="place" v="farm" />
		<tag k="ssr:stedsnr" v="263045" />
		<tag k="ssr:type" v="bruk" />
	</node>
	<node id="4462186420" lat="58.4869946" lon="8.6248242" version="2" timestamp="2018-04-10T18:47:22Z" changeset="57982147" uid="3497659" user="NKA">
		<tag k="name" v="Øvre Messel" />
		<tag k="place" v="farm" />
		<tag k="ssr:stedsnr" v="400252" />
		<tag k="ssr:type" v="bruk" />
	</node>
	<node id="4462186421" lat="58.4852606" lon="8.6710437" version="2" timestamp="2018-04-10T18:47:22Z" changeset="57982147" uid="3497659" user="NKA">
		<tag k="alt_name" v="Skinnaren;Skinnaren øvre" />
		<tag k="name" v="Øvre Skinnaren" />
		<tag k="place" v="farm" />
		<tag k="ssr:stedsnr" v="546651" />
		<tag k="ssr:type" v="bruk" />
	</node>
	<node id="4462186422" lat="58.4801258" lon="8.668737" version="2" timestamp="2018-04-10T18:47:22Z" changeset="57982147" uid="3497659" user="NKA">
		<tag k="alt_name" v="Skuggestøl øvre" />
		<tag k="name" v="Øvre Skuggestøl" />
		<tag k="place" v="farm" />
		<tag k="ssr:stedsnr" v="337021" />
		<tag k="ssr:type" v="bruk" />
	</node>
	<node id="4462186423" lat="58.537201" lon="8.464243" version="2" timestamp="2018-04-10T18:47:22Z" changeset="57982147" uid="3497659" user="NKA">
		<tag k="name" v="Øygarden" />
		<tag k="place" v="farm" />
		<tag k="ssr:stedsnr" v="231009" />
		<tag k="ssr:type" v="gammelBosettingsplass" />
	</node>
	<node id="4462186424" lat="58.5528142" lon="8.5327081" version="2" timestamp="2018-04-10T18:47:22Z" changeset="57982147" uid="3497659" user="NKA">
		<tag k="name" v="Øygarden" />
		<tag k="place" v="farm" />
		<tag k="ssr:stedsnr" v="607647" />
		<tag k="ssr:type" v="bruk" />
	</node>
	<node id="4462186425" lat="58.5969676" lon="8.4661665" version="3" timestamp="2021-03-15T10:46:17Z" changeset="101044343" uid="3497659" user="NKA">
		<tag k="name" v="Øygarden" />
		<tag k="place" v="isolated_dwelling" />
		<tag k="ssr:stedsnr" v="598986" />
		<tag k="ssr:type" v="fritidsbolig" />
	</node>
	<node id="4462186426" lat="58.6019852" lon="8.672972" version="2" timestamp="2018-04-10T18:47:23Z" changeset="57982147" uid="3497659" user="NKA">
		<tag k="historic" v="ruins" />
		<tag k="name" v="Øygarden" />
		<tag k="place" v="locality" />
		<tag k="ssr:stedsnr" v="459170" />
		<tag k="ssr:type" v="gammelBosettingsplass" />
	</node>
	<node id="4462186427" lat="58.6456821" lon="8.3305923" version="2" timestamp="2018-04-10T18:47:23Z" changeset="57982147" uid="3497659" user="NKA">
		<tag k="name" v="Øygarden" />
		<tag k="place" v="farm" />
		<tag k="ssr:stedsnr" v="962145" />
		<tag k="ssr:type" v="bruk" />
	</node>
	<node id="4462186428" lat="58.6957962" lon="8.1135165" version="2" timestamp="2018-04-10T18:47:23Z" changeset="57982147" uid="3497659" user="NKA">
		<tag k="historic" v="ruins" />
		<tag k="name" v="Øygardsbua" />
		<tag k="place" v="locality" />
		<tag k="ssr:stedsnr" v="719875" />
		<tag k="ssr:type" v="gammelBosettingsplass" />
	</node>
	<node id="4462186429" lat="58.6503072" lon="8.054802" version="3" timestamp="2021-03-15T10:46:17Z" changeset="101044343" uid="3497659" user="NKA">
		<tag k="name" v="Øygardshytta" />
		<tag k="place" v="isolated_dwelling" />
		<tag k="ssr:stedsnr" v="486512" />
		<tag k="ssr:type" v="fritidsbolig" />
	</node>
	<node id="4462186430" lat="58.5209951" lon="8.4173509" version="2" timestamp="2018-04-10T18:47:23Z" changeset="57982147" uid="3497659" user="NKA">
		<tag k="alt_name" v="Fiskevassøyna" />
		<tag k="name" v="Øyna" />
		<tag k="place" v="farm" />
		<tag k="ssr:stedsnr" v="668032" />
		<tag k="ssr:type" v="bruk" />
	</node>
	<node id="4462186431" lat="58.6463764" lon="8.6202455" version="2" timestamp="2018-04-10T18:47:23Z" changeset="57982147" uid="3497659" user="NKA">
		<tag k="name" v="Øyrås" />
		<tag k="place" v="farm" />
		<tag k="ssr:stedsnr" v="911969" />
		<tag k="ssr:type" v="bruk" />
	</node>
	<node id="5526331874" lat="58.5074795" lon="8.6487176" version="3" timestamp="2019-06-01T05:43:53Z" changeset="70828229" uid="3497659" user="NKA">
		<tag k="alt_name" v="Blakstad stasjon" />
		<tag k="name" v="Blakstad" />
		<tag k="official_name" v="Blakstad holdeplass" />
		<tag k="railway" v="halt" />
		<tag k="railway:traffic_mode" v="passenger" />
		<tag k="ssr:stedsnr" v="61493" />
		<tag k="start_date" v="1989-08-25" />
		<tag k="wheelchair" v="no" />
	</node>
	<node id="5526331876" lat="58.5765989" lon="8.705686" version="4" timestamp="2019-06-01T05:43:53Z" changeset="70828229" uid="3497659" user="NKA">
		<tag k="alt_name" v="Bøylestad stasjon" />
		<tag k="name" v="Bøylestad" />
		<tag k="official_name" v="Bøylestad holdeplass" />
		<tag k="railway" v="halt" />
		<tag k="railway:traffic_mode" v="passenger" />
		<tag k="ssr:stedsnr" v="729870" />
		<tag k="ssr:type" v="holdeplass" />
		<tag k="start_date" v="1910-12-18" />
	</node>
	<node id="5526332050" lat="58.5294503" lon="8.654452" version="3" timestamp="2019-06-01T05:43:53Z" changeset="70828229" uid="3497659" user="NKA">
		<tag k="alt_name" v="Froland stasjon" />
		<tag k="name" v="Froland" />
		<tag k="official_name" v="Froland holdeplass" />
		<tag k="railway" v="halt" />
		<tag k="railway:traffic_mode" v="passenger" />
		<tag k="ssr:stedsnr" v="426707" />
		<tag k="ssr:type" v="holdeplass" />
		<tag k="start_date" v="1908-11-23" />
	</node>
	<node id="4462186376" lat="58.6860097" lon="8.1460238" version="1" timestamp="2016-10-24T17:21:08Z" changeset="43131409" uid="3842253" user="NKA_import" />
	<node id="4462186378" lat="58.6863219" lon="8.1444144" version="1" timestamp="2016-10-24T17:21:08Z" changeset="43131409" uid="3842253" user="NKA_import" />
	<node id="4462186379" lat="58.6878051" lon="8.1432343" version="1" timestamp="2016-10-24T17:21:08Z" changeset="43131409" uid="3842253" user="NKA_import" />
	<node id="4462186382" lat="58.6892102" lon="8.1421614" version="1" timestamp="2016-10-24T17:21:08Z" changeset="43131409" uid="3842253" user="NKA_import" />
	<node id="4462186377" lat="58.6860543" lon="8.1478048" version="1" timestamp="2016-10-24T17:21:08Z" changeset="43131409" uid="3842253" user="NKA_import" />
	<node id="4462186381" lat="58.6890652" lon="8.1474829" version="1" timestamp="2016-10-24T17:21:08Z" changeset="43131409" uid="3842253" user="NKA_import" />
	<node id="4462186384" lat="58.6902361" lon="8.1522036" version="1" timestamp="2016-10-24T17:21:08Z" changeset="43131409" uid="3842253" user="NKA_import" />
	<node id="4462186385" lat="58.6903253" lon="8.1499076" version="1" timestamp="2016-10-24T17:21:08Z" changeset="43131409" uid="3842253" user="NKA_import" />
	<node id="4462186386" lat="58.6908605" lon="8.1414318" version="1" timestamp="2016-10-24T17:21:08Z" changeset="43131409" uid="3842253" user="NKA_import" />
	<node id="4462186387" lat="58.6913288" lon="8.1459379" version="1" timestamp="2016-10-24T17:21:08Z" changeset="43131409" uid="3842253" user="NKA_import" />
	<node id="4462186388" lat="58.6915853" lon="8.1421828" version="1" timestamp="2016-10-24T17:21:08Z" changeset="43131409" uid="3842253" user="NKA_import" />
	<node id="4462186380" lat="58.6882066" lon="8.1529975" version="1" timestamp="2016-10-24T17:21:08Z" changeset="43131409" uid="3842253" user="NKA_import" />
	<node id="4462186383" lat="58.6893774" lon="8.1532121" version="1" timestamp="2016-10-24T17:21:08Z" changeset="43131409" uid="3842253" user="NKA_import" />
	<node id="4462186310" lat="58.5762115" lon="8.2282469" version="1" timestamp="2016-10-24T17:21:07Z" changeset="43131409" uid="3842253" user="NKA_import" />
	<node id="4462186311" lat="58.5762171" lon="8.2276353" version="1" timestamp="2016-10-24T17:21:07Z" changeset="43131409" uid="3842253" user="NKA_import" />
	<node id="4462186312" lat="58.5785384" lon="8.2286439" version="1" timestamp="2016-10-24T17:21:07Z" changeset="43131409" uid="3842253" user="NKA_import" />
	<node id="4462186313" lat="58.5791704" lon="8.2267234" version="1" timestamp="2016-10-24T17:21:07Z" changeset="43131409" uid="3842253" user="NKA_import" />
	<node id="4462186351" lat="58.6048336" lon="8.196975" version="1" timestamp="2016-10-24T17:21:08Z" changeset="43131409" uid="3842253" user="NKA_import" />
	<node id="4462186355" lat="58.6053646" lon="8.1947327" version="1" timestamp="2016-10-24T17:21:08Z" changeset="43131409" uid="3842253" user="NKA_import" />
	<node id="4462186356" lat="58.6053813" lon="8.1985414" version="1" timestamp="2016-10-24T17:21:08Z" changeset="43131409" uid="3842253" user="NKA_import" />
	<node id="4462186320" lat="58.582817" lon="8.223376" version="1" timestamp="2016-10-24T17:21:07Z" changeset="43131409" uid="3842253" user="NKA_import" />
	<node id="4462186322" lat="58.5842095" lon="8.2246527" version="1" timestamp="2016-10-24T17:21:07Z" changeset="43131409" uid="3842253" user="NKA_import" />
	<node id="4462186314" lat="58.5801772" lon="8.2279572" version="1" timestamp="2016-10-24T17:21:07Z" changeset="43131409" uid="3842253" user="NKA_import" />
	<node id="4462186315" lat="58.5809994" lon="8.2281932" version="1" timestamp="2016-10-24T17:21:07Z" changeset="43131409" uid="3842253" user="NKA_import" />
	<node id="4462186316" lat="58.5813797" lon="8.2258973" version="1" timestamp="2016-10-24T17:21:07Z" changeset="43131409" uid="3842253" user="NKA_import" />
	<node id="4462186317" lat="58.5814915" lon="8.2268414" version="1" timestamp="2016-10-24T17:21:07Z" changeset="43131409" uid="3842253" user="NKA_import" />
	<node id="4462186318" lat="58.5816705" lon="8.2273886" version="1" timestamp="2016-10-24T17:21:07Z" changeset="43131409" uid="3842253" user="NKA_import" />
	<node id="4462186319" lat="58.5825933" lon="8.2276461" version="1" timestamp="2016-10-24T17:21:07Z" changeset="43131409" uid="3842253" user="NKA_import" />
	<node id="4462186321" lat="58.5838069" lon="8.2262835" version="1" timestamp="2016-10-24T17:21:07Z" changeset="43131409" uid="3842253" user="NKA_import" />
	<node id="4462186362" lat="58.6071865" lon="8.1919861" version="1" timestamp="2016-10-24T17:21:08Z" changeset="43131409" uid="3842253" user="NKA_import" />
	<node id="4462186365" lat="58.6082484" lon="8.1919003" version="1" timestamp="2016-10-24T17:21:08Z" changeset="43131409" uid="3842253" user="NKA_import" />
	<node id="4462186361" lat="58.6068736" lon="8.1977904" version="1" timestamp="2016-10-24T17:21:08Z" changeset="43131409" uid="3842253" user="NKA_import" />
	<node id="4462186363" lat="58.6073207" lon="8.1941426" version="1" timestamp="2016-10-24T17:21:08Z" changeset="43131409" uid="3842253" user="NKA_import" />
	<node id="4462186366" lat="58.6099137" lon="8.1929463" version="1" timestamp="2016-10-24T17:21:08Z" changeset="43131409" uid="3842253" user="NKA_import" />
	<node id="4462186367" lat="58.6100702" lon="8.1950653" version="1" timestamp="2016-10-24T17:21:08Z" changeset="43131409" uid="3842253" user="NKA_import" />
	<node id="4462186368" lat="58.6103272" lon="8.1942284" version="1" timestamp="2016-10-24T17:21:08Z" changeset="43131409" uid="3842253" user="NKA_import" />
	<node id="4462186369" lat="58.6293442" lon="8.2509411" version="1" timestamp="2016-10-24T17:21:08Z" changeset="43131409" uid="3842253" user="NKA_import" />
	<node id="4462186372" lat="58.630316" lon="8.2460916" version="1" timestamp="2016-10-24T17:21:08Z" changeset="43131409" uid="3842253" user="NKA_import" />
	<node id="4462186373" lat="58.6312989" lon="8.2450187" version="1" timestamp="2016-10-24T17:21:08Z" changeset="43131409" uid="3842253" user="NKA_import" />
	<node id="4462186370" lat="58.6295006" lon="8.2583869" version="1" timestamp="2016-10-24T17:21:08Z" changeset="43131409" uid="3842253" user="NKA_import" />
	<node id="4462186371" lat="58.6302602" lon="8.2583654" version="1" timestamp="2016-10-24T17:21:08Z" changeset="43131409" uid="3842253" user="NKA_import" />
	<node id="8520528983" lat="58.6464593" lon="8.1928181" version="1" timestamp="2021-03-15T10:46:13Z" changeset="101044338" uid="3497659" user="NKA" />
	<node id="8520528984" lat="58.646443" lon="8.1927885" version="1" timestamp="2021-03-15T10:46:13Z" changeset="101044338" uid="3497659" user="NKA" />
	<node id="8520528985" lat="58.6464485" lon="8.1927774" version="1" timestamp="2021-03-15T10:46:13Z" changeset="101044338" uid="3497659" user="NKA" />
	<node id="8520528986" lat="58.6464195" lon="8.1927245" version="1" timestamp="2021-03-15T10:46:13Z" changeset="101044338" uid="3497659" user="NKA" />
	<node id="8520528987" lat="58.6464554" lon="8.1926517" version="1" timestamp="2021-03-15T10:46:13Z" changeset="101044338" uid="3497659" user="NKA" />
	<node id="8520528988" lat="58.6465215" lon="8.1927721" version="1" timestamp="2021-03-15T10:46:13Z" changeset="101044338" uid="3497659" user="NKA" />
	<node id="8520528989" lat="58.6464858" lon="8.1928443" version="1" timestamp="2021-03-15T10:46:13Z" changeset="101044338" uid="3497659" user="NKA" />
	<node id="8520528990" lat="58.646465" lon="8.1928064" version="1" timestamp="2021-03-15T10:46:13Z" changeset="101044338" uid="3497659" user="NKA" />
	<node id="4462186374" lat="58.6328627" lon="8.2450402" version="1" timestamp="2016-10-24T17:21:08Z" changeset="43131409" uid="3842253" user="NKA_import" />
	<node id="4462186375" lat="58.633019" lon="8.2525289" version="1" timestamp="2016-10-24T17:21:08Z" changeset="43131409" uid="3842253" user="NKA_import" />
	<node id="4462186301" lat="58.5102005" lon="8.5030714" version="1" timestamp="2016-10-24T17:21:07Z" changeset="43131409" uid="3842253" user="NKA_import" />
	<node id="4462186302" lat="58.5112317" lon="8.5003409" version="1" timestamp="2016-10-24T17:21:07Z" changeset="43131409" uid="3842253" user="NKA_import" />
	<node id="4462186303" lat="58.5130529" lon="8.5006091" version="1" timestamp="2016-10-24T17:21:07Z" changeset="43131409" uid="3842253" user="NKA_import" />
	<node id="4462186305" lat="58.5139831" lon="8.501049" version="1" timestamp="2016-10-24T17:21:07Z" changeset="43131409" uid="3842253" user="NKA_import" />
	<node id="4462186306" lat="58.5155577" lon="8.5020897" version="1" timestamp="2016-10-24T17:21:07Z" changeset="43131409" uid="3842253" user="NKA_import" />
	<node id="4462186307" lat="58.5165887" lon="8.5034523" version="1" timestamp="2016-10-24T17:21:07Z" changeset="43131409" uid="3842253" user="NKA_import" />
	<node id="4462186304" lat="58.5138879" lon="8.5094658" version="1" timestamp="2016-10-24T17:21:07Z" changeset="43131409" uid="3842253" user="NKA_import" />
	<node id="2185338629" lat="58.4997054" lon="8.6174058" version="2" timestamp="2014-04-12T20:14:11Z" changeset="21653001" uid="123364" user="Tronikon" />
	<node id="2786361861" lat="58.497588" lon="8.61705" version="1" timestamp="2014-04-12T20:13:51Z" changeset="21653001" uid="123364" user="Tronikon" />
	<node id="2786361865" lat="58.4979761" lon="8.6161963" version="1" timestamp="2014-04-12T20:13:51Z" changeset="21653001" uid="123364" user="Tronikon" />
	<node id="2985353059" lat="58.5003205" lon="8.6179019" version="1" timestamp="2014-07-29T00:21:25Z" changeset="24413143" uid="372492" user="Jarl Arntzen" />
	<node id="2985353073" lat="58.5000444" lon="8.6178681" version="1" timestamp="2014-07-29T00:21:25Z" changeset="24413143" uid="372492" user="Jarl Arntzen" />
	<node id="2185338636" lat="58.4967199" lon="8.6228496" version="2" timestamp="2014-04-12T20:14:11Z" changeset="21653001" uid="123364" user="Tronikon" />
	<node id="2786361859" lat="58.497569" lon="8.6238734" version="1" timestamp="2014-04-12T20:13:51Z" changeset="21653001" uid="123364" user="Tronikon" />
	<node id="2786361863" lat="58.4976452" lon="8.6206259" version="1" timestamp="2014-04-12T20:13:51Z" changeset="21653001" uid="123364" user="Tronikon" />
	<node id="2786361870" lat="58.4981123" lon="8.6185278" version="1" timestamp="2014-04-12T20:13:51Z" changeset="21653001" uid="123364" user="Tronikon" />
	<node id="2786361873" lat="58.4981314" lon="8.6198414" version="1" timestamp="2014-04-12T20:13:51Z" changeset="21653001" uid="123364" user="Tronikon" />
	<node id="2786361880" lat="58.4984079" lon="8.6237822" version="1" timestamp="2014-04-12T20:13:51Z" changeset="21653001" uid="123364" user="Tronikon" />
	<node id="2786361885" lat="58.4985318" lon="8.6239829" version="1" timestamp="2014-04-12T20:13:51Z" changeset="21653001" uid="123364" user="Tronikon" />
	<node id="2786361897" lat="58.4988273" lon="8.6217936" version="1" timestamp="2014-04-12T20:13:51Z" changeset="21653001" uid="123364" user="Tronikon" />
	<node id="2786361913" lat="58.4993522" lon="8.6222084" version="1" timestamp="2014-04-12T20:13:51Z" changeset="21653001" uid="123364" user="Tronikon" />
	<node id="2786361930" lat="58.5004712" lon="8.623034" version="1" timestamp="2014-04-12T20:13:51Z" changeset="21653001" uid="123364" user="Tronikon" />
	<node id="2985338241" lat="58.4996624" lon="8.6244486" version="1" timestamp="2014-07-29T00:06:11Z" changeset="24412831" uid="372492" user="Jarl Arntzen" />
	<node id="2985338242" lat="58.4967593" lon="8.6223919" version="1" timestamp="2014-07-29T00:06:11Z" changeset="24412831" uid="372492" user="Jarl Arntzen" />
	<node id="2985338255" lat="58.4971455" lon="8.6238392" version="1" timestamp="2014-07-29T00:06:11Z" changeset="24412831" uid="372492" user="Jarl Arntzen" />
	<node id="2985338277" lat="58.4992167" lon="8.6243644" version="1" timestamp="2014-07-29T00:06:12Z" changeset="24412831" uid="372492" user="Jarl Arntzen" />
	<node id="2985349845" lat="58.4982087" lon="8.6208738" version="1" timestamp="2014-07-29T00:16:35Z" changeset="24412831" uid="372492" user="Jarl Arntzen" />
	<node id="2985349854" lat="58.4974065" lon="8.6209553" version="1" timestamp="2014-07-29T00:16:35Z" changeset="24412831" uid="372492" user="Jarl Arntzen" />
	<node id="2985353051" lat="58.5005458" lon="8.6179952" version="1" timestamp="2014-07-29T00:21:25Z" changeset="24413143" uid="372492" user="Jarl Arntzen" />
	<node id="2985353062" lat="58.5006243" lon="8.6182431" version="1" timestamp="2014-07-29T00:21:25Z" changeset="24413143" uid="372492" user="Jarl Arntzen" />
	<node id="1842010593" lat="58.5002311" lon="8.627384" version="3" timestamp="2014-07-29T00:06:12Z" changeset="24412831" uid="372492" user="Jarl Arntzen" />
	<node id="2786361867" lat="58.4980075" lon="8.6249498" version="1" timestamp="2014-04-12T20:13:51Z" changeset="21653001" uid="123364" user="Tronikon" />
	<node id="2786361917" lat="58.4991287" lon="8.6254657" version="2" timestamp="2014-07-29T00:06:12Z" changeset="24412831" uid="372492" user="Jarl Arntzen" />
	<node id="2786361928" lat="58.5000279" lon="8.6272816" version="2" timestamp="2014-07-29T00:06:12Z" changeset="24412831" uid="372492" user="Jarl Arntzen" />
	<node id="2985338245" lat="58.5005032" lon="8.6290545" version="1" timestamp="2014-07-29T00:06:11Z" changeset="24412831" uid="372492" user="Jarl Arntzen" />
	<node id="2985338247" lat="58.4993812" lon="8.6261395" version="1" timestamp="2014-07-29T00:06:11Z" changeset="24412831" uid="372492" user="Jarl Arntzen" />
	<node id="2985338257" lat="58.5001375" lon="8.628318" version="1" timestamp="2014-07-29T00:06:11Z" changeset="24412831" uid="372492" user="Jarl Arntzen" />
	<node id="2985338258" lat="58.4997756" lon="8.6308741" version="1" timestamp="2014-07-29T00:06:11Z" changeset="24412831" uid="372492" user="Jarl Arntzen" />
	<node id="2985338260" lat="58.4982768" lon="8.625359" version="1" timestamp="2014-07-29T00:06:11Z" changeset="24412831" uid="372492" user="Jarl Arntzen" />
	<node id="2985338262" lat="58.500177" lon="8.6294762" version="1" timestamp="2014-07-29T00:06:11Z" changeset="24412831" uid="372492" user="Jarl Arntzen" />
	<node id="2985338265" lat="58.4995497" lon="8.6248654" version="1" timestamp="2014-07-29T00:06:12Z" changeset="24412831" uid="372492" user="Jarl Arntzen" />
	<node id="2985338267" lat="58.4980916" lon="8.6245446" version="1" timestamp="2014-07-29T00:06:12Z" changeset="24412831" uid="372492" user="Jarl Arntzen" />
	<node id="2985338271" lat="58.4980644" lon="8.6252973" version="1" timestamp="2014-07-29T00:06:12Z" changeset="24412831" uid="372492" user="Jarl Arntzen" />
	<node id="2985338276" lat="58.5000828" lon="8.6248027" version="1" timestamp="2014-07-29T00:06:12Z" changeset="24412831" uid="372492" user="Jarl Arntzen" />
	<node id="1842011629" lat="58.4984823" lon="8.6475451" version="2" timestamp="2014-08-30T12:59:23Z" changeset="25117414" uid="715936" user="Gazer75" />
	<node id="1842011630" lat="58.4992438" lon="8.6457935" version="1" timestamp="2012-07-28T22:18:11Z" changeset="12528978" uid="372492" user="Jarl Arntzen" />
	<node id="1842011631" lat="58.4986333" lon="8.6494426" version="2" timestamp="2014-08-30T12:59:23Z" changeset="25117414" uid="715936" user="Gazer75" />
	<node id="1842011641" lat="58.4990254" lon="8.6503955" version="2" timestamp="2014-08-30T12:59:23Z" changeset="25117414" uid="715936" user="Gazer75" />
	<node id="2185338634" lat="58.5041417" lon="8.6223085" version="5" timestamp="2020-06-08T21:06:27Z" changeset="86371962" uid="103253" user="gormur" />
	<node id="2185338643" lat="58.503412" lon="8.6214411" version="1" timestamp="2013-03-04T10:34:30Z" changeset="15244070" uid="372492" user="Jarl Arntzen" />
	<node id="2786361956" lat="58.5016299" lon="8.6221037" version="1" timestamp="2014-04-12T20:13:52Z" changeset="21653001" uid="123364" user="Tronikon" />
	<node id="2786361958" lat="58.5018015" lon="8.6213192" version="1" timestamp="2014-04-12T20:13:52Z" changeset="21653001" uid="123364" user="Tronikon" />
	<node id="2786361962" lat="58.5022609" lon="8.6237797" version="2" timestamp="2014-07-29T00:21:26Z" changeset="24413143" uid="372492" user="Jarl Arntzen" />
	<node id="2786361973" lat="58.5032586" lon="8.6226617" version="2" timestamp="2014-07-29T00:21:26Z" changeset="24413143" uid="372492" user="Jarl Arntzen" />
	<node id="2786361978" lat="58.5036095" lon="8.6230678" version="3" timestamp="2014-07-29T00:21:26Z" changeset="24413143" uid="372492" user="Jarl Arntzen" />
	<node id="2786361982" lat="58.5039803" lon="8.6229927" version="3" timestamp="2014-07-29T00:21:26Z" changeset="24413143" uid="372492" user="Jarl Arntzen" />
	<node id="2985352916" lat="58.5025456" lon="8.6220202" version="1" timestamp="2014-07-29T00:21:24Z" changeset="24413143" uid="372492" user="Jarl Arntzen" />
	<node id="2985352918" lat="58.5022457" lon="8.621481" version="1" timestamp="2014-07-29T00:21:24Z" changeset="24413143" uid="372492" user="Jarl Arntzen" />
	<node id="2985352920" lat="58.5031249" lon="8.6225212" version="1" timestamp="2014-07-29T00:21:24Z" changeset="24413143" uid="372492" user="Jarl Arntzen" />
	<node id="2985353057" lat="58.5016462" lon="8.6189431" version="1" timestamp="2014-07-29T00:21:25Z" changeset="24413143" uid="372492" user="Jarl Arntzen" />
	<node id="2985353070" lat="58.501052" lon="8.6184314" version="1" timestamp="2014-07-29T00:21:25Z" changeset="24413143" uid="372492" user="Jarl Arntzen" />
	<node id="2985353078" lat="58.5022298" lon="8.6193583" version="1" timestamp="2014-07-29T00:21:25Z" changeset="24413143" uid="372492" user="Jarl Arntzen" />
	<node id="1842010550" lat="58.5037939" lon="8.6287107" version="3" timestamp="2014-07-29T00:06:12Z" changeset="24412831" uid="372492" user="Jarl Arntzen" />
	<node id="1842010591" lat="58.5014736" lon="8.6252059" version="2" timestamp="2013-03-04T09:55:24Z" changeset="15244070" uid="372492" user="Jarl Arntzen" />
	<node id="2185242000" lat="58.5007898" lon="8.6252879" version="1" timestamp="2013-03-04T09:55:23Z" changeset="15244070" uid="372492" user="Jarl Arntzen" />
	<node id="2185338638" lat="58.5034795" lon="8.6269163" version="3" timestamp="2014-07-28T23:40:32Z" changeset="24412831" uid="372492" user="Jarl Arntzen" />
	<node id="2185338640" lat="58.5039568" lon="8.6265403" version="2" timestamp="2014-04-12T20:14:11Z" changeset="21653001" uid="123364" user="Tronikon" />
	<node id="2786361940" lat="58.5007947" lon="8.6252013" version="1" timestamp="2014-04-12T20:13:52Z" changeset="21653001" uid="123364" user="Tronikon" />
	<node id="2786361954" lat="58.5014822" lon="8.6251497" version="1" timestamp="2014-04-12T20:13:52Z" changeset="21653001" uid="123364" user="Tronikon" />
	<node id="2786361966" lat="58.5023015" lon="8.6250253" version="2" timestamp="2014-07-28T23:40:32Z" changeset="24412831" uid="372492" user="Jarl Arntzen" />
	<node id="2786361974" lat="58.5032757" lon="8.6247431" version="2" timestamp="2014-07-28T23:40:32Z" changeset="24412831" uid="372492" user="Jarl Arntzen" />
	<node id="2985304248" lat="58.5028161" lon="8.6266255" version="1" timestamp="2014-07-28T23:40:31Z" changeset="24412831" uid="372492" user="Jarl Arntzen" />
	<node id="2985304252" lat="58.5018334" lon="8.6260327" version="1" timestamp="2014-07-28T23:40:31Z" changeset="24412831" uid="372492" user="Jarl Arntzen" />
	<node id="2985304257" lat="58.5030302" lon="8.626279" version="1" timestamp="2014-07-28T23:40:31Z" changeset="24412831" uid="372492" user="Jarl Arntzen" />
	<node id="2985304258" lat="58.5037432" lon="8.6255757" version="1" timestamp="2014-07-28T23:40:31Z" changeset="24412831" uid="372492" user="Jarl Arntzen" />
	<node id="2985304260" lat="58.5023511" lon="8.6258654" version="1" timestamp="2014-07-28T23:40:31Z" changeset="24412831" uid="372492" user="Jarl Arntzen" />
	<node id="2985304262" lat="58.5026064" lon="8.6252651" version="1" timestamp="2014-07-28T23:40:31Z" changeset="24412831" uid="372492" user="Jarl Arntzen" />
	<node id="2985338237" lat="58.5010139" lon="8.629548" version="1" timestamp="2014-07-29T00:06:11Z" changeset="24412831" uid="372492" user="Jarl Arntzen" />
	<node id="2985338238" lat="58.5013774" lon="8.629209" version="1" timestamp="2014-07-29T00:06:11Z" changeset="24412831" uid="372492" user="Jarl Arntzen" />
	<node id="2985338251" lat="58.5015125" lon="8.629761" version="1" timestamp="2014-07-29T00:06:11Z" changeset="24412831" uid="372492" user="Jarl Arntzen" />
	<node id="2985338252" lat="58.5009951" lon="8.6302497" version="1" timestamp="2014-07-29T00:06:11Z" changeset="24412831" uid="372492" user="Jarl Arntzen" />
	<node id="2985338263" lat="58.5035521" lon="8.6291409" version="1" timestamp="2014-07-29T00:06:12Z" changeset="24412831" uid="372492" user="Jarl Arntzen" />
	<node id="2985338270" lat="58.5031218" lon="8.6283765" version="1" timestamp="2014-07-29T00:06:12Z" changeset="24412831" uid="372492" user="Jarl Arntzen" />
	<node id="2985338272" lat="58.5034763" lon="8.6307705" version="1" timestamp="2014-07-29T00:06:12Z" changeset="24412831" uid="372492" user="Jarl Arntzen" />
	<node id="2985338273" lat="58.5028794" lon="8.6291967" version="1" timestamp="2014-07-29T00:06:12Z" changeset="24412831" uid="372492" user="Jarl Arntzen" />
	<node id="2985338274" lat="58.5028292" lon="8.6283561" version="1" timestamp="2014-07-29T00:06:12Z" changeset="24412831" uid="372492" user="Jarl Arntzen" />
	<node id="2985338279" lat="58.5017311" lon="8.6308452" version="1" timestamp="2014-07-29T00:06:12Z" changeset="24412831" uid="372492" user="Jarl Arntzen" />
	<node id="1842010552" lat="58.5033609" lon="8.6341325" version="2" timestamp="2014-07-29T00:06:12Z" changeset="24412831" uid="372492" user="Jarl Arntzen" />
	<node id="1842010588" lat="58.5036759" lon="8.6355878" version="2" timestamp="2014-07-29T00:06:12Z" changeset="24412831" uid="372492" user="Jarl Arntzen" />
	<node id="1842010592" lat="58.5069297" lon="8.6370489" version="2" timestamp="2013-03-04T10:00:43Z" changeset="15244070" uid="372492" user="Jarl Arntzen" />
	<node id="1842010615" lat="58.5049075" lon="8.6325069" version="1" timestamp="2012-07-28T22:16:42Z" changeset="12528978" uid="372492" user="Jarl Arntzen" />
	<node id="2985338239" lat="58.5042034" lon="8.6326878" version="1" timestamp="2014-07-29T00:06:11Z" changeset="24412831" uid="372492" user="Jarl Arntzen" />
	<node id="2985338240" lat="58.505643" lon="8.6346566" version="1" timestamp="2014-07-29T00:06:11Z" changeset="24412831" uid="372492" user="Jarl Arntzen" />
	<node id="2985338243" lat="58.5050649" lon="8.6348615" version="1" timestamp="2014-07-29T00:06:11Z" changeset="24412831" uid="372492" user="Jarl Arntzen" />
	<node id="2985338244" lat="58.5053731" lon="8.6351726" version="1" timestamp="2014-07-29T00:06:11Z" changeset="24412831" uid="372492" user="Jarl Arntzen" />
	<node id="2985338246" lat="58.5055703" lon="8.633174" version="1" timestamp="2014-07-29T00:06:11Z" changeset="24412831" uid="372492" user="Jarl Arntzen" />
	<node id="2985338248" lat="58.5050265" lon="8.6342628" version="1" timestamp="2014-07-29T00:06:11Z" changeset="24412831" uid="372492" user="Jarl Arntzen" />
	<node id="2985338249" lat="58.5052672" lon="8.6339281" version="1" timestamp="2014-07-29T00:06:11Z" changeset="24412831" uid="372492" user="Jarl Arntzen" />
	<node id="2985338250" lat="58.5057263" lon="8.6342719" version="1" timestamp="2014-07-29T00:06:11Z" changeset="24412831" uid="372492" user="Jarl Arntzen" />
	<node id="2985338256" lat="58.5065572" lon="8.6343664" version="1" timestamp="2014-07-29T00:06:11Z" changeset="24412831" uid="372492" user="Jarl Arntzen" />
	<node id="2985338259" lat="58.5009234" lon="8.6323805" version="1" timestamp="2014-07-29T00:06:11Z" changeset="24412831" uid="372492" user="Jarl Arntzen" />
	<node id="2985338261" lat="58.5070294" lon="8.6338326" version="1" timestamp="2014-07-29T00:06:11Z" changeset="24412831" uid="372492" user="Jarl Arntzen" />
	<node id="2985338264" lat="58.5059726" lon="8.6338412" version="1" timestamp="2014-07-29T00:06:12Z" changeset="24412831" uid="372492" user="Jarl Arntzen" />
	<node id="2985338266" lat="58.5063994" lon="8.6350734" version="1" timestamp="2014-07-29T00:06:12Z" changeset="24412831" uid="372492" user="Jarl Arntzen" />
	<node id="2985338269" lat="58.5068195" lon="8.6352365" version="1" timestamp="2014-07-29T00:06:12Z" changeset="24412831" uid="372492" user="Jarl Arntzen" />
	<node id="2985338275" lat="58.504584" lon="8.6344382" version="1" timestamp="2014-07-29T00:06:12Z" changeset="24412831" uid="372492" user="Jarl Arntzen" />
	<node id="2985338278" lat="58.5043135" lon="8.6357531" version="1" timestamp="2014-07-29T00:06:12Z" changeset="24412831" uid="372492" user="Jarl Arntzen" />
	<node id="2985338280" lat="58.5032993" lon="8.6311182" version="1" timestamp="2014-07-29T00:06:12Z" changeset="24412831" uid="372492" user="Jarl Arntzen" />
	<node id="3213766723" lat="58.5052519" lon="8.6361727" version="1" timestamp="2014-12-01T09:14:47Z" changeset="27148831" uid="633013" user="Honning" />
	<node id="3213766772" lat="58.5058662" lon="8.6353605" version="1" timestamp="2014-12-01T09:14:48Z" changeset="27148831" uid="633013" user="Honning" />
	<node id="1842010576" lat="58.5075492" lon="8.6341824" version="3" timestamp="2014-07-29T00:06:12Z" changeset="24412831" uid="372492" user="Jarl Arntzen" />
	<node id="2985338268" lat="58.5073188" lon="8.634817" version="1" timestamp="2014-07-29T00:06:12Z" changeset="24412831" uid="372492" user="Jarl Arntzen" />
	<node id="26600022" lat="58.5053266" lon="8.6439602" version="3" timestamp="2013-06-25T21:36:58Z" changeset="16705857" uid="372492" user="Jarl Arntzen" />
	<node id="1842010556" lat="58.5042337" lon="8.6415559" version="3" timestamp="2014-08-30T12:59:23Z" changeset="25117414" uid="715936" user="Gazer75" />
	<node id="1842010595" lat="58.5055353" lon="8.6380001" version="1" timestamp="2012-07-28T22:16:42Z" changeset="12528978" uid="372492" user="Jarl Arntzen" />
	<node id="2185251770" lat="58.5060483" lon="8.64399" version="3" timestamp="2018-04-06T13:34:09Z" changeset="57865601" uid="103253" user="gormur" />
	<node id="2185251772" lat="58.5049925" lon="8.6390718" version="2" timestamp="2014-11-27T15:15:58Z" changeset="27069849" uid="633013" user="Honning" />
	<node id="3213766946" lat="58.504507" lon="8.6380046" version="1" timestamp="2014-12-01T09:14:51Z" changeset="27148831" uid="633013" user="Honning" />
	<node id="4363669198" lat="58.5054834" lon="8.6429939" version="2" timestamp="2018-04-06T13:34:11Z" changeset="57865601" uid="103253" user="gormur" />
	<node id="611729031" lat="58.5052355" lon="8.6448748" version="5" timestamp="2022-06-01T20:02:09Z" changeset="121826169" uid="3497659" user="NKA" />
	<node id="611729032" lat="58.5051725" lon="8.6452658" version="5" timestamp="2022-06-01T20:02:09Z" changeset="121826169" uid="3497659" user="NKA" />
	<node id="611729033" lat="58.505008" lon="8.6460702" version="3" timestamp="2016-08-23T22:09:15Z" changeset="41649330" uid="3842253" user="NKA_import" />
	<node id="1112263369" lat="58.5032243" lon="8.6493084" version="2" timestamp="2014-08-30T12:59:21Z" changeset="25117414" uid="715936" user="Gazer75" />
	<node id="1842010572" lat="58.5057274" lon="8.6449879" version="4" timestamp="2018-04-06T13:34:09Z" changeset="57865601" uid="103253" user="gormur" />
	<node id="1842010574" lat="58.5072306" lon="8.646367" version="3" timestamp="2015-04-26T14:51:22Z" changeset="30505320" uid="372492" user="Jarl Arntzen" />
	<node id="1842011635" lat="58.5067162" lon="8.6501421" version="2" timestamp="2014-08-30T12:59:23Z" changeset="25117414" uid="715936" user="Gazer75" />
	<node id="1842011636" lat="58.5034615" lon="8.6458853" version="2" timestamp="2014-08-30T12:59:23Z" changeset="25117414" uid="715936" user="Gazer75" />
	<node id="1842011637" lat="58.5043268" lon="8.649851" version="2" timestamp="2014-08-30T12:59:23Z" changeset="25117414" uid="715936" user="Gazer75" />
	<node id="1842011639" lat="58.501253" lon="8.6444458" version="2" timestamp="2014-08-30T12:59:23Z" changeset="25117414" uid="715936" user="Gazer75" />
	<node id="3050355995" lat="58.5049819" lon="8.6494308" version="1" timestamp="2014-08-30T12:58:15Z" changeset="25117414" uid="715936" user="Gazer75" />
	<node id="4157948958" lat="58.5052856" lon="8.6444792" version="1" timestamp="2016-04-30T17:39:27Z" changeset="39003437" uid="3842253" user="NKA_import" />
	<node id="9789059864" lat="58.5051018" lon="8.6456394" version="1" timestamp="2022-06-01T20:02:09Z" changeset="121826169" uid="3497659" user="NKA" />
	<node id="1842010555" lat="58.5077331" lon="8.6385756" version="3" timestamp="2013-03-04T10:00:43Z" changeset="15244070" uid="372492" user="Jarl Arntzen" />
	<node id="1842010584" lat="58.5104222" lon="8.6417158" version="4" timestamp="2015-05-05T20:57:34Z" changeset="30823257" uid="372492" user="Jarl Arntzen" />
	<node id="1842010585" lat="58.5104434" lon="8.6411787" version="5" timestamp="2015-05-15T21:42:42Z" changeset="31188551" uid="161619" user="FvGordon" />
	<node id="1842010586" lat="58.5078668" lon="8.6413646" version="2" timestamp="2013-03-04T09:45:59Z" changeset="15244070" uid="372492" user="Jarl Arntzen" />
	<node id="1842010589" lat="58.5091866" lon="8.6417765" version="3" timestamp="2013-03-04T09:51:14Z" changeset="15244070" uid="372492" user="Jarl Arntzen" />
	<node id="2185214418" lat="58.50843" lon="8.6439513" version="1" timestamp="2013-03-04T09:45:58Z" changeset="15244070" uid="372492" user="Jarl Arntzen" />
	<node id="2185214420" lat="58.5080035" lon="8.643923" version="2" timestamp="2015-04-26T14:51:22Z" changeset="30505320" uid="372492" user="Jarl Arntzen" />
	<node id="2185225287" lat="58.5119856" lon="8.6437959" version="2" timestamp="2015-04-26T15:09:00Z" changeset="30505320" uid="372492" user="Jarl Arntzen" />
	<node id="2185225288" lat="58.5116365" lon="8.642952" version="2" timestamp="2015-04-26T15:09:00Z" changeset="30505320" uid="372492" user="Jarl Arntzen" />
	<node id="3499952407" lat="58.508922" lon="8.6437923" version="1" timestamp="2015-05-05T20:44:36Z" changeset="30822884" uid="372492" user="Jarl Arntzen" />
	<node id="3499952414" lat="58.5091832" lon="8.6440632" version="1" timestamp="2015-05-05T20:44:36Z" changeset="30822884" uid="372492" user="Jarl Arntzen" />
	<node id="3499952705" lat="58.5104666" lon="8.6410326" version="1" timestamp="2015-05-05T20:44:37Z" changeset="30822884" uid="372492" user="Jarl Arntzen" />
	<node id="3499952731" lat="58.5106859" lon="8.6415408" version="1" timestamp="2015-05-05T20:44:38Z" changeset="30822884" uid="372492" user="Jarl Arntzen" />
	<node id="3499952754" lat="58.5109552" lon="8.6418281" version="1" timestamp="2015-05-05T20:44:38Z" changeset="30822884" uid="372492" user="Jarl Arntzen" />
	<node id="3499985446" lat="58.5099721" lon="8.6416348" version="1" timestamp="2015-05-05T20:57:29Z" changeset="30823257" uid="372492" user="Jarl Arntzen" />
	<node id="1842010551" lat="58.5122095" lon="8.6468074" version="4" timestamp="2015-05-05T20:44:45Z" changeset="30822884" uid="372492" user="Jarl Arntzen" />
	<node id="1842010553" lat="58.512226" lon="8.6449021" version="3" timestamp="2015-05-05T20:44:45Z" changeset="30822884" uid="372492" user="Jarl Arntzen" />
	<node id="1842010582" lat="58.5122403" lon="8.6462255" version="3" timestamp="2015-05-05T20:44:45Z" changeset="30822884" uid="372492" user="Jarl Arntzen" />
	<node id="1842010590" lat="58.5076524" lon="8.6455098" version="3" timestamp="2015-04-26T14:51:22Z" changeset="30505320" uid="372492" user="Jarl Arntzen" />
	<node id="1842010597" lat="58.5116747" lon="8.6473819" version="4" timestamp="2015-05-05T20:44:45Z" changeset="30822884" uid="372492" user="Jarl Arntzen" />
	<node id="2185214354" lat="58.5106667" lon="8.646034" version="3" timestamp="2015-05-05T20:44:45Z" changeset="30822884" uid="372492" user="Jarl Arntzen" />
	<node id="2185214380" lat="58.5099617" lon="8.6457097" version="2" timestamp="2013-03-04T09:49:52Z" changeset="15244070" uid="372492" user="Jarl Arntzen" />
	<node id="2185214430" lat="58.5074568" lon="8.6463225" version="2" timestamp="2015-04-26T14:51:23Z" changeset="30505320" uid="372492" user="Jarl Arntzen" />
	<node id="2185214434" lat="58.5106069" lon="8.6472328" version="4" timestamp="2015-05-05T20:47:24Z" changeset="30822969" uid="372492" user="Jarl Arntzen" />
	<node id="2185214436" lat="58.5077533" lon="8.6451252" version="2" timestamp="2015-04-26T14:51:23Z" changeset="30505320" uid="372492" user="Jarl Arntzen" />
	<node id="3499952404" lat="58.508737" lon="8.6442194" version="1" timestamp="2015-05-05T20:44:35Z" changeset="30822884" uid="372492" user="Jarl Arntzen" />
	<node id="3499952425" lat="58.5095968" lon="8.6446882" version="1" timestamp="2015-05-05T20:44:36Z" changeset="30822884" uid="372492" user="Jarl Arntzen" />
	<node id="3499952430" lat="58.5096729" lon="8.645209" version="1" timestamp="2015-05-05T20:44:36Z" changeset="30822884" uid="372492" user="Jarl Arntzen" />
	<node id="3499952440" lat="58.5097951" lon="8.6467762" version="1" timestamp="2015-05-05T20:44:36Z" changeset="30822884" uid="372492" user="Jarl Arntzen" />
	<node id="3499952486" lat="58.5102837" lon="8.6472844" version="1" timestamp="2015-05-05T20:44:37Z" changeset="30822884" uid="372492" user="Jarl Arntzen" />
	<node id="3499952734" lat="58.5107993" lon="8.6472623" version="2" timestamp="2015-05-05T20:47:24Z" changeset="30822969" uid="372492" user="Jarl Arntzen" />
	<node id="3499952738" lat="58.5108993" lon="8.6469677" version="2" timestamp="2015-05-05T20:47:24Z" changeset="30822969" uid="372492" user="Jarl Arntzen" />
	<node id="3499952756" lat="58.5110053" lon="8.6450691" version="1" timestamp="2015-05-05T20:44:38Z" changeset="30822884" uid="372492" user="Jarl Arntzen" />
	<node id="3499952765" lat="58.5113631" lon="8.6459014" version="1" timestamp="2015-05-05T20:44:39Z" changeset="30822884" uid="372492" user="Jarl Arntzen" />
	<node id="3499952779" lat="58.5115708" lon="8.6467558" version="1" timestamp="2015-05-05T20:44:39Z" changeset="30822884" uid="372492" user="Jarl Arntzen" />
	<node id="3499953007" lat="58.5119633" lon="8.6472641" version="1" timestamp="2015-05-05T20:44:39Z" changeset="30822884" uid="372492" user="Jarl Arntzen" />
	<node id="3499953012" lat="58.5120017" lon="8.6453858" version="1" timestamp="2015-05-05T20:44:39Z" changeset="30822884" uid="372492" user="Jarl Arntzen" />
	<node id="3499953025" lat="58.5122864" lon="8.645128" version="1" timestamp="2015-05-05T20:44:39Z" changeset="30822884" uid="372492" user="Jarl Arntzen" />
	<node id="1112262809" lat="58.4999453" lon="8.6515035" version="2" timestamp="2014-08-30T12:59:21Z" changeset="25117414" uid="715936" user="Gazer75" />
	<node id="1112260618" lat="58.5033206" lon="8.6514085" version="1" timestamp="2011-01-20T21:56:27Z" changeset="7035359" uid="11992" user="vibrog" />
	<node id="1112264464" lat="58.503103" lon="8.6539845" version="1" timestamp="2011-01-20T21:57:53Z" changeset="7035359" uid="11992" user="vibrog" />
	<node id="1112266447" lat="58.5007465" lon="8.6512397" version="2" timestamp="2014-08-30T12:59:21Z" changeset="25117414" uid="715936" user="Gazer75" />
	<node id="1112268594" lat="58.5018312" lon="8.6547934" version="2" timestamp="2014-08-30T12:59:21Z" changeset="25117414" uid="715936" user="Gazer75" />
	<node id="1842011628" lat="58.5067272" lon="8.6507846" version="2" timestamp="2014-08-30T12:59:23Z" changeset="25117414" uid="715936" user="Gazer75" />
	<node id="1842011632" lat="58.5014265" lon="8.6525944" version="2" timestamp="2014-08-30T12:59:23Z" changeset="25117414" uid="715936" user="Gazer75" />
	<node id="8520532742" lat="58.526077" lon="8.651609" version="1" timestamp="2021-03-15T10:46:13Z" changeset="101044338" uid="3497659" user="NKA" />
	<node id="8520532743" lat="58.526036" lon="8.651859" version="1" timestamp="2021-03-15T10:46:13Z" changeset="101044338" uid="3497659" user="NKA" />
	<node id="8520532744" lat="58.526044" lon="8.651864" version="1" timestamp="2021-03-15T10:46:13Z" changeset="101044338" uid="3497659" user="NKA" />
	<node id="8520532745" lat="58.526032" lon="8.651937" version="1" timestamp="2021-03-15T10:46:13Z" changeset="101044338" uid="3497659" user="NKA" />
	<node id="8520532746" lat="58.526018" lon="8.651953" version="1" timestamp="2021-03-15T10:46:13Z" changeset="101044338" uid="3497659" user="NKA" />
	<node id="8520532747" lat="58.526003" lon="8.651944" version="1" timestamp="2021-03-15T10:46:13Z" changeset="101044338" uid="3497659" user="NKA" />
	<node id="8520532748" lat="58.525997" lon="8.651978" version="1" timestamp="2021-03-15T10:46:13Z" changeset="101044338" uid="3497659" user="NKA" />
	<node id="8520532749" lat="58.525972" lon="8.652002" version="1" timestamp="2021-03-15T10:46:13Z" changeset="101044338" uid="3497659" user="NKA" />
	<node id="8520532750" lat="58.525945" lon="8.651987" version="1" timestamp="2021-03-15T10:46:13Z" changeset="101044338" uid="3497659" user="NKA" />
	<node id="8520532751" lat="58.525931" lon="8.651938" version="1" timestamp="2021-03-15T10:46:13Z" changeset="101044338" uid="3497659" user="NKA" />
	<node id="8520532752" lat="58.525936" lon="8.651907" version="1" timestamp="2021-03-15T10:46:13Z" changeset="101044338" uid="3497659" user="NKA" />
	<node id="8520532753" lat="58.525923" lon="8.651898" version="1" timestamp="2021-03-15T10:46:13Z" changeset="101044338" uid="3497659" user="NKA" />
	<node id="8520532754" lat="58.525914" lon="8.651869" version="1" timestamp="2021-03-15T10:46:13Z" changeset="101044338" uid="3497659" user="NKA" />
	<node id="8520532755" lat="58.525926" lon="8.651793" version="1" timestamp="2021-03-15T10:46:13Z" changeset="101044338" uid="3497659" user="NKA" />
	<node id="8520532756" lat="58.525936" lon="8.651799" version="1" timestamp="2021-03-15T10:46:13Z" changeset="101044338" uid="3497659" user="NKA" />
	<node id="8520532757" lat="58.525977" lon="8.651549" version="1" timestamp="2021-03-15T10:46:13Z" changeset="101044338" uid="3497659" user="NKA" />
	<node id="8520532758" lat="58.526001" lon="8.651563" version="1" timestamp="2021-03-15T10:46:13Z" changeset="101044338" uid="3497659" user="NKA" />
	<node id="8520532759" lat="58.526012" lon="8.651481" version="1" timestamp="2021-03-15T10:46:13Z" changeset="101044338" uid="3497659" user="NKA" />
	<node id="8520532760" lat="58.526066" lon="8.651508" version="1" timestamp="2021-03-15T10:46:13Z" changeset="101044338" uid="3497659" user="NKA" />
	<node id="8520532761" lat="58.526054" lon="8.651595" version="1" timestamp="2021-03-15T10:46:13Z" changeset="101044338" uid="3497659" user="NKA" />
	<node id="5820536589" lat="58.5134467" lon="8.6953327" version="1" timestamp="2018-08-09T13:49:17Z" changeset="61502437" uid="3497659" user="NKA" />
	<node id="5820536590" lat="58.5132477" lon="8.6956331" version="1" timestamp="2018-08-09T13:49:17Z" changeset="61502437" uid="3497659" user="NKA" />
	<node id="5820536591" lat="58.5132141" lon="8.6957028" version="1" timestamp="2018-08-09T13:49:17Z" changeset="61502437" uid="3497659" user="NKA" />
	<node id="5820536592" lat="58.5132071" lon="8.695786" version="1" timestamp="2018-08-09T13:49:17Z" changeset="61502437" uid="3497659" user="NKA" />
	<node id="5820536593" lat="58.5132239" lon="8.6960703" version="1" timestamp="2018-08-09T13:49:17Z" changeset="61502437" uid="3497659" user="NKA" />
	<node id="5820536594" lat="58.5132673" lon="8.6962983" version="1" timestamp="2018-08-09T13:49:17Z" changeset="61502437" uid="3497659" user="NKA" />
	<node id="5820536595" lat="58.513329" lon="8.6964941" version="1" timestamp="2018-08-09T13:49:17Z" changeset="61502437" uid="3497659" user="NKA" />
	<node id="5820536596" lat="58.5134369" lon="8.6967999" version="1" timestamp="2018-08-09T13:49:17Z" changeset="61502437" uid="3497659" user="NKA" />
	<node id="5820536588" lat="58.5155087" lon="8.6956854" version="1" timestamp="2018-08-09T13:49:17Z" changeset="61502437" uid="3497659" user="NKA" />
	<node id="5820536584" lat="58.5140883" lon="8.6984012" version="3" timestamp="2019-03-27T00:23:03Z" changeset="68568053" uid="103253" user="gormur">
		<tag k="barrier" v="gate" />
		<tag k="name" v="Utrykningsvei sørvest" />
	</node>
	<node id="5820536597" lat="58.5155542" lon="8.7023776" version="2" timestamp="2018-10-07T08:05:10Z" changeset="63272514" uid="103253" user="gormur" />
	<node id="5820536598" lat="58.5157812" lon="8.7027477" version="2" timestamp="2018-10-07T08:05:10Z" changeset="63272514" uid="103253" user="gormur" />
	<node id="5820536599" lat="58.5156488" lon="8.7028831" version="3" timestamp="2019-02-23T14:19:53Z" changeset="67494822" uid="103253" user="gormur">
		<tag k="barrier" v="gate" />
		<tag k="name" v="Gullknapp, hovedport" />
	</node>
	<node id="5820536600" lat="58.5156236" lon="8.7029127" version="2" timestamp="2019-02-23T14:19:53Z" changeset="67494822" uid="103253" user="gormur" />
	<node id="5820536601" lat="58.5155816" lon="8.7028228" version="2" timestamp="2019-02-23T14:19:53Z" changeset="67494822" uid="103253" user="gormur" />
	<node id="5820536602" lat="58.5155452" lon="8.7028067" version="2" timestamp="2019-02-23T14:19:53Z" changeset="67494822" uid="103253" user="gormur" />
	<node id="5963558594" lat="58.5156208" lon="8.702293" version="1" timestamp="2018-10-07T08:05:10Z" changeset="63272514" uid="103253" user="gormur" />
	<node id="5963558595" lat="58.5157476" lon="8.7027946" version="2" timestamp="2019-02-23T14:19:53Z" changeset="67494822" uid="103253" user="gormur" />
	<node id="5963558596" lat="58.5156719" lon="8.7028415" version="2" timestamp="2019-02-23T14:19:53Z" changeset="67494822" uid="103253" user="gormur" />
	<node id="6297522715" lat="58.5141058" lon="8.6983515" version="1" timestamp="2019-02-23T14:19:51Z" changeset="67494822" uid="103253" user="gormur" />
	<node id="6297522716" lat="58.5140687" lon="8.6984709" version="1" timestamp="2019-02-23T14:19:51Z" changeset="67494822" uid="103253" user="gormur" />
	<node id="6297522717" lat="58.5139454" lon="8.6981343" version="1" timestamp="2019-02-23T14:19:51Z" changeset="67494822" uid="103253" user="gormur" />
	<node id="4921065365" lat="58.5150151" lon="8.7043943" version="3" timestamp="2021-03-15T10:46:17Z" changeset="101044343" uid="3497659" user="NKA" />
	<node id="4921065366" lat="58.5149987" lon="8.7037939" version="4" timestamp="2021-03-15T10:46:17Z" changeset="101044343" uid="3497659" user="NKA" />
	<node id="5820536582" lat="58.5153953" lon="8.7058952" version="3" timestamp="2019-03-27T00:23:03Z" changeset="68568053" uid="103253" user="gormur" />
	<node id="5820536583" lat="58.5156972" lon="8.7065779" version="4" timestamp="2019-03-27T00:23:03Z" changeset="68568053" uid="103253" user="gormur" />
	<node id="5820536605" lat="58.5149379" lon="8.7036623" version="2" timestamp="2019-02-23T14:19:53Z" changeset="67494822" uid="103253" user="gormur" />
	<node id="5820536606" lat="58.5148602" lon="8.7039866" version="4" timestamp="2021-03-15T10:46:17Z" changeset="101044343" uid="3497659" user="NKA" />
	<node id="5820536643" lat="58.5165957" lon="8.7065471" version="3" timestamp="2019-09-08T15:02:18Z" changeset="74228865" uid="103253" user="gormur">
		<tag k="barrier" v="gate" />
		<tag k="width" v="1 m" />
	</node>
	<node id="5963558589" lat="58.5150815" lon="8.704986" version="1" timestamp="2018-10-07T08:05:10Z" changeset="63272514" uid="103253" user="gormur" />
	<node id="5963558590" lat="58.5149428" lon="8.7046453" version="1" timestamp="2018-10-07T08:05:10Z" changeset="63272514" uid="103253" user="gormur" />
	<node id="5963558591" lat="58.5150563" lon="8.704479" version="2" timestamp="2019-02-23T14:19:53Z" changeset="67494822" uid="103253" user="gormur" />
	<node id="6363755966" lat="58.5176981" lon="8.707939" version="2" timestamp="2019-03-28T09:36:03Z" changeset="68618122" uid="103253" user="gormur" />
	<node id="6363755970" lat="58.5170258" lon="8.7059496" version="3" timestamp="2020-03-12T00:57:31Z" changeset="82083276" uid="103253" user="gormur" />
	<node id="6363755971" lat="58.5157385" lon="8.7087625" version="1" timestamp="2019-03-27T00:23:00Z" changeset="68568053" uid="103253" user="gormur" />
	<node id="6363755972" lat="58.5157063" lon="8.7066865" version="1" timestamp="2019-03-27T00:23:00Z" changeset="68568053" uid="103253" user="gormur" />
	<node id="6363755984" lat="58.5151894" lon="8.7095538" version="1" timestamp="2019-03-27T00:23:01Z" changeset="68568053" uid="103253" user="gormur" />
	<node id="6363756385" lat="58.5154891" lon="8.7091246" version="1" timestamp="2019-03-27T00:23:01Z" changeset="68568053" uid="103253" user="gormur" />
	<node id="6363756455" lat="58.5162988" lon="8.7069493" version="2" timestamp="2019-03-28T09:36:03Z" changeset="68618122" uid="103253" user="gormur" />
	<node id="6363756457" lat="58.5162063" lon="8.7087008" version="1" timestamp="2019-03-27T00:23:02Z" changeset="68568053" uid="103253" user="gormur" />
	<node id="6363756458" lat="58.5161839" lon="8.7090281" version="1" timestamp="2019-03-27T00:23:02Z" changeset="68568053" uid="103253" user="gormur" />
	<node id="6363756459" lat="58.5160719" lon="8.7093794" version="1" timestamp="2019-03-27T00:23:02Z" changeset="68568053" uid="103253" user="gormur" />
	<node id="6363756460" lat="58.5159192" lon="8.7096798" version="1" timestamp="2019-03-27T00:23:02Z" changeset="68568053" uid="103253" user="gormur" />
	<node id="6367179109" lat="58.5171295" lon="8.7060347" version="1" timestamp="2019-03-28T09:36:02Z" changeset="68618122" uid="103253" user="gormur" />
	<node id="6367179110" lat="58.5172878" lon="8.7067737" version="1" timestamp="2019-03-28T09:36:02Z" changeset="68618122" uid="103253" user="gormur" />
	<node id="6367179111" lat="58.5175392" lon="8.7073758" version="1" timestamp="2019-03-28T09:36:02Z" changeset="68618122" uid="103253" user="gormur" />
	<node id="6367179112" lat="58.5175049" lon="8.7095591" version="1" timestamp="2019-03-28T09:36:02Z" changeset="68618122" uid="103253" user="gormur" />
	<node id="6367179113" lat="58.5176428" lon="8.7082797" version="1" timestamp="2019-03-28T09:36:02Z" changeset="68618122" uid="103253" user="gormur" />
	<node id="6367179114" lat="58.5176274" lon="8.7086016" version="1" timestamp="2019-03-28T09:36:02Z" changeset="68618122" uid="103253" user="gormur" />
	<node id="6780963718" lat="58.5161762" lon="8.707121" version="2" timestamp="2020-03-12T00:57:31Z" changeset="82083276" uid="103253" user="gormur" />
	<node id="7286673134" lat="58.5171127" lon="8.7059952" version="1" timestamp="2020-03-12T00:57:31Z" changeset="82083276" uid="103253" user="gormur" />
	<node id="7286673135" lat="58.5170717" lon="8.7059469" version="1" timestamp="2020-03-12T00:57:31Z" changeset="82083276" uid="103253" user="gormur" />
	<node id="5820536609" lat="58.5181352" lon="8.7113616" version="1" timestamp="2018-08-09T13:49:17Z" changeset="61502437" uid="3497659" user="NKA" />
	<node id="5820536612" lat="58.5199855" lon="8.7162298" version="1" timestamp="2018-08-09T13:49:17Z" changeset="61502437" uid="3497659" user="NKA" />
	<node id="5963558378" lat="58.5152006" lon="8.7106803" version="2" timestamp="2019-03-27T00:23:04Z" changeset="68568053" uid="103253" user="gormur" />
	<node id="5963558379" lat="58.5149106" lon="8.7099856" version="2" timestamp="2019-03-27T00:23:04Z" changeset="68568053" uid="103253" user="gormur" />
	<node id="6363756386" lat="58.5157814" lon="8.7098491" version="1" timestamp="2019-03-27T00:23:01Z" changeset="68568053" uid="103253" user="gormur" />
	<node id="6363756456" lat="58.5179342" lon="8.7109016" version="1" timestamp="2019-03-27T00:23:02Z" changeset="68568053" uid="103253" user="gormur" />
	<node id="6363756461" lat="58.5154737" lon="8.710227" version="1" timestamp="2019-03-27T00:23:02Z" changeset="68568053" uid="103253" user="gormur" />
	<node id="6367179115" lat="58.5178235" lon="8.7106843" version="1" timestamp="2019-03-28T09:36:02Z" changeset="68618122" uid="103253" user="gormur" />
	<node id="6367179116" lat="58.5176421" lon="8.7105247" version="1" timestamp="2019-03-28T09:36:02Z" changeset="68618122" uid="103253" user="gormur" />
	<node id="6367179117" lat="58.517563" lon="8.7103209" version="1" timestamp="2019-03-28T09:36:02Z" changeset="68618122" uid="103253" user="gormur" />
	<node id="6367179118" lat="58.5175854" lon="8.7099601" version="1" timestamp="2019-03-28T09:36:02Z" changeset="68618122" uid="103253" user="gormur" />
	<node id="5820536587" lat="58.521926" lon="8.7125731" version="2" timestamp="2019-03-27T00:23:03Z" changeset="68568053" uid="103253" user="gormur" />
	<node id="5820536616" lat="58.5228941" lon="8.7151247" version="2" timestamp="2019-03-27T00:23:04Z" changeset="68568053" uid="103253" user="gormur" />
	<node id="5820536617" lat="58.5230026" lon="8.7154105" version="2" timestamp="2019-03-27T00:23:04Z" changeset="68568053" uid="103253" user="gormur" />
	<node id="5819296678" lat="58.5207083" lon="8.7172973" version="3" timestamp="2019-03-27T00:23:03Z" changeset="68568053" uid="103253" user="gormur" />
	<node id="5820536585" lat="58.5208889" lon="8.7181422" version="2" timestamp="2019-03-27T00:23:03Z" changeset="68568053" uid="103253" user="gormur" />
	<node id="5820536586" lat="58.5239057" lon="8.7177908" version="1" timestamp="2018-08-09T13:49:17Z" changeset="61502437" uid="3497659" user="NKA" />
	<node id="5820536610" lat="58.5208904" lon="8.7175709" version="2" timestamp="2019-03-27T00:23:03Z" changeset="68568053" uid="103253" user="gormur" />
	<node id="5820536611" lat="58.5208231" lon="8.7174691" version="2" timestamp="2019-03-27T00:23:03Z" changeset="68568053" uid="103253" user="gormur" />
	<node id="6363756440" lat="58.5213875" lon="8.7196268" version="1" timestamp="2019-03-27T00:23:01Z" changeset="68568053" uid="103253" user="gormur" />
	<node id="6363756441" lat="58.5216992" lon="8.7204127" version="1" timestamp="2019-03-27T00:23:01Z" changeset="68568053" uid="103253" user="gormur" />
	<node id="6363756442" lat="58.5220878" lon="8.7210403" version="1" timestamp="2019-03-27T00:23:01Z" changeset="68568053" uid="103253" user="gormur" />
	<node id="6363756443" lat="58.5225822" lon="8.7222165" version="1" timestamp="2019-03-27T00:23:01Z" changeset="68568053" uid="103253" user="gormur" />
	<node id="6363756444" lat="58.5236382" lon="8.7207654" version="1" timestamp="2019-03-27T00:23:01Z" changeset="68568053" uid="103253" user="gormur" />
	<node id="6363756445" lat="58.5234506" lon="8.7195262" version="1" timestamp="2019-03-27T00:23:01Z" changeset="68568053" uid="103253" user="gormur" />
	<node id="6363756446" lat="58.5231585" lon="8.7188369" version="1" timestamp="2019-03-27T00:23:01Z" changeset="68568053" uid="103253" user="gormur" />
	<node id="4462186343" lat="58.6034084" lon="8.4332133" version="1" timestamp="2016-10-24T17:21:08Z" changeset="43131409" uid="3842253" user="NKA_import" />
	<node id="4462186344" lat="58.6037493" lon="8.4312821" version="1" timestamp="2016-10-24T17:21:08Z" changeset="43131409" uid="3842253" user="NKA_import" />
	<node id="4462186346" lat="58.6038946" lon="8.4326983" version="1" timestamp="2016-10-24T17:21:08Z" changeset="43131409" uid="3842253" user="NKA_import" />
	<node id="4462186347" lat="58.6042691" lon="8.4299088" version="1" timestamp="2016-10-24T17:21:08Z" changeset="43131409" uid="3842253" user="NKA_import" />
	<node id="4462186349" lat="58.6045542" lon="8.4326554" version="1" timestamp="2016-10-24T17:21:08Z" changeset="43131409" uid="3842253" user="NKA_import" />
	<node id="4462186350" lat="58.604761" lon="8.4305954" version="1" timestamp="2016-10-24T17:21:08Z" changeset="43131409" uid="3842253" user="NKA_import" />
	<node id="4462186353" lat="58.6052304" lon="8.433578" version="1" timestamp="2016-10-24T17:21:08Z" changeset="43131409" uid="3842253" user="NKA_import" />
	<node id="4462186342" lat="58.6028494" lon="8.4354556" version="1" timestamp="2016-10-24T17:21:08Z" changeset="43131409" uid="3842253" user="NKA_import" />
	<node id="4462186345" lat="58.6038052" lon="8.4359491" version="1" timestamp="2016-10-24T17:21:08Z" changeset="43131409" uid="3842253" user="NKA_import" />
	<node id="4462186348" lat="58.6045039" lon="8.4347689" version="1" timestamp="2016-10-24T17:21:08Z" changeset="43131409" uid="3842253" user="NKA_import" />
	<node id="4462186352" lat="58.6049789" lon="8.4360349" version="1" timestamp="2016-10-24T17:21:08Z" changeset="43131409" uid="3842253" user="NKA_import" />
	<node id="4462186354" lat="58.6053254" lon="8.4360778" version="1" timestamp="2016-10-24T17:21:08Z" changeset="43131409" uid="3842253" user="NKA_import" />
	<node id="4462186357" lat="58.605834" lon="8.4326446" version="1" timestamp="2016-10-24T17:21:08Z" changeset="43131409" uid="3842253" user="NKA_import" />
	<node id="4462186359" lat="58.6065159" lon="8.4326983" version="1" timestamp="2016-10-24T17:21:08Z" changeset="43131409" uid="3842253" user="NKA_import" />
	<node id="4462186364" lat="58.6073262" lon="8.4341037" version="1" timestamp="2016-10-24T17:21:08Z" changeset="43131409" uid="3842253" user="NKA_import" />
	<node id="250911094" lat="58.6107357" lon="8.4408516" version="5" timestamp="2019-06-06T11:19:32Z" changeset="70986145" uid="715936" user="Gazer75" />
	<node id="4462186358" lat="58.6061023" lon="8.4354448" version="1" timestamp="2016-10-24T17:21:08Z" changeset="43131409" uid="3842253" user="NKA_import" />
	<node id="4462186360" lat="58.6067562" lon="8.4358418" version="1" timestamp="2016-10-24T17:21:08Z" changeset="43131409" uid="3842253" user="NKA_import" />
	<node id="3206827712" lat="58.6108106" lon="8.4419139" version="3" timestamp="2019-06-06T11:19:32Z" changeset="70986145" uid="715936" user="Gazer75" />
	<node id="250911093" lat="58.6126942" lon="8.4489649" version="4" timestamp="2019-06-06T11:19:32Z" changeset="70986145" uid="715936" user="Gazer75" />
	<node id="409236140" lat="58.612334" lon="8.4476493" version="3" timestamp="2019-06-06T11:19:32Z" changeset="70986145" uid="715936" user="Gazer75" />
	<node id="409236144" lat="58.6160206" lon="8.4605161" version="4" timestamp="2019-06-06T11:19:32Z" changeset="70986145" uid="715936" user="Gazer75" />
	<node id="409236146" lat="58.6158801" lon="8.4561393" version="3" timestamp="2019-06-06T11:19:32Z" changeset="70986145" uid="715936" user="Gazer75" />
	<node id="3206827713" lat="58.6155131" lon="8.4542299" version="3" timestamp="2019-06-06T11:19:32Z" changeset="70986145" uid="715936" user="Gazer75" />
	<node id="6168025552" lat="58.6157251" lon="8.4550601" version="2" timestamp="2019-06-06T11:19:32Z" changeset="70986145" uid="715936" user="Gazer75" />
	<node id="6168025553" lat="58.6159192" lon="8.4576648" version="2" timestamp="2019-06-06T11:19:32Z" changeset="70986145" uid="715936" user="Gazer75" />
	<node id="6528213299" lat="58.6159136" lon="8.4568816" version="1" timestamp="2019-06-06T11:19:32Z" changeset="70986145" uid="715936" user="Gazer75" />
	<node id="6528213300" lat="58.6159164" lon="8.4588611" version="1" timestamp="2019-06-06T11:19:32Z" changeset="70986145" uid="715936" user="Gazer75" />
	<node id="6528213301" lat="58.615922" lon="8.459419" version="1" timestamp="2019-06-06T11:19:32Z" changeset="70986145" uid="715936" user="Gazer75" />
	<node id="6528213302" lat="58.6159555" lon="8.4599715" version="1" timestamp="2019-06-06T11:19:32Z" changeset="70986145" uid="715936" user="Gazer75" />
	<node id="6528213324" lat="58.6156315" lon="8.4546661" version="1" timestamp="2019-06-06T11:19:32Z" changeset="70986145" uid="715936" user="Gazer75" />
	<node id="6528213325" lat="58.6158214" lon="8.4555808" version="1" timestamp="2019-06-06T11:19:32Z" changeset="70986145" uid="715936" user="Gazer75" />
	<node id="4462186308" lat="58.5327359" lon="8.6422751" version="1" timestamp="2016-10-24T17:21:07Z" changeset="43131409" uid="3842253" user="NKA_import" />
	<node id="4462186309" lat="58.5327545" lon="8.642083" version="1" timestamp="2016-10-24T17:21:07Z" changeset="43131409" uid="3842253" user="NKA_import" />
	<way id="173373333" version="9" timestamp="2018-04-10T19:47:51Z" changeset="57983805" uid="3497659" user="NKA">
		<tag k="landuse" v="residential" />
		<tag k="name" v="Neset" />
		<tag k="ssr:stedsnr" v="631472" />
		<tag k="ssr:type" v="boligfelt" />
		<nd ref="1842010585" />
		<nd ref="3499952705" />
		<nd ref="3499952731" />
		<nd ref="3499952754" />
		<nd ref="2185225288" />
		<nd ref="2185225287" />
		<nd ref="1842010553" />
		<nd ref="3499953025" />
		<nd ref="3499953012" />
		<nd ref="1842010582" />
		<nd ref="1842010551" />
		<nd ref="3499953007" />
		<nd ref="1842010597" />
		<nd ref="3499952779" />
		<nd ref="3499952765" />
		<nd ref="3499952756" />
		<nd ref="2185214354" />
		<nd ref="3499952738" />
		<nd ref="3499952734" />
		<nd ref="2185214434" />
		<nd ref="3499952486" />
		<nd ref="3499952440" />
		<nd ref="2185214380" />
		<nd ref="3499952430" />
		<nd ref="3499952425" />
		<nd ref="3499952414" />
		<nd ref="3499952407" />
		<nd ref="3499952404" />
		<nd ref="2185214418" />
		<nd ref="2185214420" />
		<nd ref="2185214436" />
		<nd ref="1842010590" />
		<nd ref="2185214430" />
		<nd ref="1842010574" />
		<nd ref="1842010572" />
		<nd ref="2185251770" />
		<nd ref="4363669198" />
		<nd ref="1842010556" />
		<nd ref="2185251772" />
		<nd ref="1842010592" />
		<nd ref="1842010555" />
		<nd ref="1842010586" />
		<nd ref="1842010589" />
		<nd ref="3499985446" />
		<nd ref="1842010584" />
		<nd ref="1842010585" />
	</way>
	<way id="173373335" version="7" timestamp="2018-04-10T19:47:52Z" changeset="57983805" uid="3497659" user="NKA">
		<tag k="landuse" v="residential" />
		<tag k="name" v="Langedal" />
		<tag k="ssr:stedsnr" v="813240" />
		<tag k="ssr:type" v="boligfelt" />
		<nd ref="1842010576" />
		<nd ref="2985338261" />
		<nd ref="2985338256" />
		<nd ref="2985338264" />
		<nd ref="2985338250" />
		<nd ref="2985338249" />
		<nd ref="2985338246" />
		<nd ref="1842010615" />
		<nd ref="2985338239" />
		<nd ref="2985338280" />
		<nd ref="2985338272" />
		<nd ref="2985338273" />
		<nd ref="2985338274" />
		<nd ref="2985338270" />
		<nd ref="2985338263" />
		<nd ref="1842010550" />
		<nd ref="2985304248" />
		<nd ref="2985304260" />
		<nd ref="2985304252" />
		<nd ref="1842010591" />
		<nd ref="2185242000" />
		<nd ref="1842010593" />
		<nd ref="2985338257" />
		<nd ref="2985338245" />
		<nd ref="2985338237" />
		<nd ref="2985338238" />
		<nd ref="2985338251" />
		<nd ref="2985338252" />
		<nd ref="2985338262" />
		<nd ref="2985338258" />
		<nd ref="2985338259" />
		<nd ref="2985338279" />
		<nd ref="1842010552" />
		<nd ref="1842010588" />
		<nd ref="2985338278" />
		<nd ref="2985338275" />
		<nd ref="2985338248" />
		<nd ref="2985338243" />
		<nd ref="2985338244" />
		<nd ref="2985338240" />
		<nd ref="3213766772" />
		<nd ref="3213766723" />
		<nd ref="3213766946" />
		<nd ref="1842010595" />
		<nd ref="2985338266" />
		<nd ref="2985338269" />
		<nd ref="2985338268" />
		<nd ref="1842010576" />
	</way>
	<way id="173373538" version="4" timestamp="2018-04-10T19:47:52Z" changeset="57983805" uid="3497659" user="NKA">
		<tag k="landuse" v="residential" />
		<tag k="name" v="Blakstadheia" />
		<tag k="ssr:stedsnr" v="395978" />
		<tag k="ssr:type" v="boligfelt" />
		<nd ref="1842011629" />
		<nd ref="1842011630" />
		<nd ref="1842011639" />
		<nd ref="1842011636" />
		<nd ref="1842011635" />
		<nd ref="1842011628" />
		<nd ref="3050355995" />
		<nd ref="1842011637" />
		<nd ref="1112263369" />
		<nd ref="1112260618" />
		<nd ref="1112264464" />
		<nd ref="1112268594" />
		<nd ref="1842011632" />
		<nd ref="1112266447" />
		<nd ref="1112262809" />
		<nd ref="1842011641" />
		<nd ref="1842011631" />
		<nd ref="1842011629" />
	</way>
	<way id="208196027" version="9" timestamp="2022-06-01T20:02:09Z" changeset="121826169" uid="3497659" user="NKA">
		<tag k="bridge" v="yes" />
		<tag k="ele" v="1" />
		<tag k="highway" v="primary" />
		<tag k="layer" v="1" />
		<tag k="maxspeed" v="40" />
		<tag k="name" v="Blakstad bru" />
		<tag k="ref" v="42" />
		<tag k="ssr:stedsnr" v="519238" />
		<tag k="ssr:type" v="bru" />
		<nd ref="26600022" />
		<nd ref="4157948958" />
		<nd ref="611729031" />
		<nd ref="611729032" />
		<nd ref="9789059864" />
		<nd ref="611729033" />
	</way>
	<way id="208199989" version="8" timestamp="2018-04-10T19:47:52Z" changeset="57983805" uid="3497659" user="NKA">
		<tag k="landuse" v="residential" />
		<tag k="name" v="Ovelandsheia" />
		<tag k="ssr:stedsnr" v="39571" />
		<tag k="ssr:type" v="boligfelt" />
		<nd ref="2185338634" />
		<nd ref="2786361982" />
		<nd ref="2786361978" />
		<nd ref="2786361973" />
		<nd ref="2985352920" />
		<nd ref="2985352916" />
		<nd ref="2985352918" />
		<nd ref="2786361958" />
		<nd ref="2786361956" />
		<nd ref="2786361962" />
		<nd ref="2786361974" />
		<nd ref="2985304258" />
		<nd ref="2185338640" />
		<nd ref="2185338638" />
		<nd ref="2985304257" />
		<nd ref="2985304262" />
		<nd ref="2786361966" />
		<nd ref="2786361930" />
		<nd ref="2786361913" />
		<nd ref="2786361954" />
		<nd ref="2786361940" />
		<nd ref="2786361928" />
		<nd ref="2985338247" />
		<nd ref="2786361917" />
		<nd ref="2985338265" />
		<nd ref="2985338276" />
		<nd ref="2985338241" />
		<nd ref="2985338277" />
		<nd ref="2985338260" />
		<nd ref="2985338271" />
		<nd ref="2786361867" />
		<nd ref="2985338267" />
		<nd ref="2786361885" />
		<nd ref="2786361880" />
		<nd ref="2786361859" />
		<nd ref="2985338255" />
		<nd ref="2185338636" />
		<nd ref="2985338242" />
		<nd ref="2985349854" />
		<nd ref="2786361863" />
		<nd ref="2985349845" />
		<nd ref="2786361897" />
		<nd ref="2786361873" />
		<nd ref="2786361870" />
		<nd ref="2786361861" />
		<nd ref="2786361865" />
		<nd ref="2185338629" />
		<nd ref="2985353073" />
		<nd ref="2985353059" />
		<nd ref="2985353051" />
		<nd ref="2985353062" />
		<nd ref="2985353070" />
		<nd ref="2985353057" />
		<nd ref="2985353078" />
		<nd ref="2185338643" />
		<nd ref="2185338634" />
	</way>
	<way id="314638835" version="7" timestamp="2019-06-06T11:19:32Z" changeset="70986145" uid="715936" user="Gazer75">
		<tag k="electrified" v="contact_line" />
		<tag k="frequency" v="16.67" />
		<tag k="gauge" v="1435" />
		<tag k="layer" v="-1" />
		<tag k="maxspeed" v="85" />
		<tag k="maxspeed:hgv" v="80" />
		<tag k="maxspeed:plus" v="85" />
		<tag k="maxspeed:tilting" v="100" />
		<tag k="name" v="Sørlandsbanen" />
		<tag k="passenger_lines" v="1" />
		<tag k="railway" v="rail" />
		<tag k="ssr:stedsnr" v="296092" />
		<tag k="ssr:type" v="tunnel" />
		<tag k="tunnel" v="yes" />
		<tag k="tunnel:name" v="Hoggfjell tunell" />
		<tag k="usage" v="main" />
		<tag k="voltage" v="15000" />
		<nd ref="3206827712" />
		<nd ref="250911094" />
	</way>
	<way id="314638836" version="7" timestamp="2019-06-06T11:19:32Z" changeset="70986145" uid="715936" user="Gazer75">
		<tag k="electrified" v="contact_line" />
		<tag k="frequency" v="16.67" />
		<tag k="gauge" v="1435" />
		<tag k="layer" v="-1" />
		<tag k="maxspeed" v="85" />
		<tag k="maxspeed:hgv" v="80" />
		<tag k="maxspeed:plus" v="85" />
		<tag k="maxspeed:tilting" v="100" />
		<tag k="name" v="Sørlandsbanen" />
		<tag k="passenger_lines" v="1" />
		<tag k="railway" v="rail" />
		<tag k="ssr:stedsnr" v="720142" />
		<tag k="ssr:type" v="tunnel" />
		<tag k="tunnel" v="yes" />
		<tag k="tunnel:name" v="Orremyrtunellen" />
		<tag k="usage" v="main" />
		<tag k="voltage" v="15000" />
		<nd ref="250911093" />
		<nd ref="409236140" />
	</way>
	<way id="314638839" version="7" timestamp="2019-06-06T11:19:32Z" changeset="70986145" uid="715936" user="Gazer75">
		<tag k="electrified" v="contact_line" />
		<tag k="frequency" v="16.67" />
		<tag k="gauge" v="1435" />
		<tag k="layer" v="-1" />
		<tag k="maxspeed" v="85" />
		<tag k="maxspeed:hgv" v="80" />
		<tag k="maxspeed:plus" v="85" />
		<tag k="maxspeed:tilting" v="100" />
		<tag k="name" v="Sørlandsbanen" />
		<tag k="passenger_lines" v="1" />
		<tag k="railway" v="rail" />
		<tag k="ssr:stedsnr" v="53137" />
		<tag k="ssr:type" v="tunnel" />
		<tag k="tunnel" v="yes" />
		<tag k="tunnel:name" v="Fivedalstunellen" />
		<tag k="usage" v="main" />
		<tag k="voltage" v="15000" />
		<nd ref="6168025553" />
		<nd ref="6528213299" />
		<nd ref="409236146" />
		<nd ref="6528213325" />
		<nd ref="6168025552" />
		<nd ref="6528213324" />
		<nd ref="3206827713" />
	</way>
	<way id="449247357" version="2" timestamp="2018-04-10T19:47:56Z" changeset="57983805" uid="3497659" user="NKA">
		<tag k="landuse" v="residential" />
		<tag k="name" v="Bovann" />
		<tag k="ssr:stedsnr" v="646223" />
		<tag k="ssr:type" v="hyttefelt" />
		<nd ref="4462186301" />
		<nd ref="4462186304" />
		<nd ref="4462186307" />
		<nd ref="4462186306" />
		<nd ref="4462186305" />
		<nd ref="4462186303" />
		<nd ref="4462186302" />
		<nd ref="4462186301" />
	</way>
	<way id="449247358" version="2" timestamp="2018-04-10T19:47:56Z" changeset="57983805" uid="3497659" user="NKA">
		<tag k="landuse" v="residential" />
		<tag k="name" v="Kilane" />
		<tag k="ssr:stedsnr" v="525252" />
		<tag k="ssr:type" v="hyttefelt" />
		<nd ref="4462186318" />
		<nd ref="4462186319" />
		<nd ref="4462186321" />
		<nd ref="4462186322" />
		<nd ref="4462186320" />
		<nd ref="4462186316" />
		<nd ref="4462186317" />
		<nd ref="4462186313" />
		<nd ref="4462186311" />
		<nd ref="4462186310" />
		<nd ref="4462186312" />
		<nd ref="4462186314" />
		<nd ref="4462186315" />
		<nd ref="4462186318" />
	</way>
	<way id="449247359" version="4" timestamp="2019-10-20T09:55:14Z" changeset="75948885" uid="3497659" user="NKA">
		<tag k="alt_name" v="Vestre Daleveien" />
		<tag k="bridge" v="yes" />
		<tag k="highway" v="secondary" />
		<tag k="layer" v="1" />
		<tag k="maxspeed" v="80" />
		<tag k="name" v="Skarsbrua" />
		<tag k="old_ref" v="158" />
		<tag k="ref" v="3732" />
		<tag k="ssr:stedsnr" v="277083" />
		<tag k="ssr:type" v="bru" />
		<nd ref="4462186308" />
		<nd ref="4462186309" />
	</way>
	<way id="449247361" version="2" timestamp="2018-04-10T19:47:57Z" changeset="57983805" uid="3497659" user="NKA">
		<tag k="landuse" v="residential" />
		<tag k="name" v="Skjersæ" />
		<tag k="ssr:stedsnr" v="891270" />
		<tag k="ssr:type" v="hyttefelt" />
		<nd ref="4462186360" />
		<nd ref="4462186364" />
		<nd ref="4462186359" />
		<nd ref="4462186357" />
		<nd ref="4462186353" />
		<nd ref="4462186349" />
		<nd ref="4462186350" />
		<nd ref="4462186347" />
		<nd ref="4462186344" />
		<nd ref="4462186346" />
		<nd ref="4462186343" />
		<nd ref="4462186342" />
		<nd ref="4462186345" />
		<nd ref="4462186348" />
		<nd ref="4462186352" />
		<nd ref="4462186354" />
		<nd ref="4462186358" />
		<nd ref="4462186360" />
	</way>
	<way id="449247362" version="2" timestamp="2018-04-10T19:47:57Z" changeset="57983805" uid="3497659" user="NKA">
		<tag k="landuse" v="residential" />
		<tag k="name" v="Steane" />
		<tag k="ssr:stedsnr" v="62369" />
		<tag k="ssr:type" v="fritidsbolig" />
		<nd ref="4462186375" />
		<nd ref="4462186374" />
		<nd ref="4462186373" />
		<nd ref="4462186372" />
		<nd ref="4462186369" />
		<nd ref="4462186370" />
		<nd ref="4462186371" />
		<nd ref="4462186375" />
	</way>
	<way id="449247363" version="2" timestamp="2018-04-10T19:47:57Z" changeset="57983805" uid="3497659" user="NKA">
		<tag k="landuse" v="residential" />
		<tag k="name" v="Svolbergheia" />
		<tag k="ssr:stedsnr" v="646221" />
		<tag k="ssr:type" v="hyttefelt" />
		<nd ref="4462186388" />
		<nd ref="4462186386" />
		<nd ref="4462186382" />
		<nd ref="4462186379" />
		<nd ref="4462186378" />
		<nd ref="4462186376" />
		<nd ref="4462186377" />
		<nd ref="4462186380" />
		<nd ref="4462186383" />
		<nd ref="4462186384" />
		<nd ref="4462186385" />
		<nd ref="4462186381" />
		<nd ref="4462186387" />
		<nd ref="4462186388" />
	</way>
	<way id="449247366" version="2" timestamp="2018-04-10T19:47:57Z" changeset="57983805" uid="3497659" user="NKA">
		<tag k="landuse" v="residential" />
		<tag k="name" v="Vågsdalsfjorden" />
		<tag k="ssr:stedsnr" v="586228" />
		<tag k="ssr:type" v="hyttefelt" />
		<nd ref="4462186366" />
		<nd ref="4462186365" />
		<nd ref="4462186362" />
		<nd ref="4462186363" />
		<nd ref="4462186355" />
		<nd ref="4462186351" />
		<nd ref="4462186356" />
		<nd ref="4462186361" />
		<nd ref="4462186367" />
		<nd ref="4462186368" />
		<nd ref="4462186366" />
	</way>
	<way id="558305522" version="4" timestamp="2021-05-04T13:12:34Z" changeset="104126764" uid="7223593" user="hros">
		<tag k="amenity" v="place_of_worship" />
		<tag k="architect" v="N.Swensen/H.P.Thorne(1959)" />
		<tag k="building" v="church" />
		<tag k="capacity" v="295" />
		<tag k="deanery" v="Arendal" />
		<tag k="denomination" v="lutheran" />
		<tag k="diocese" v="Agder og Telemark" />
		<tag k="heritage" v="yes" />
		<tag k="image" v="https://www.kirkebyggdatabasen.no/KBDBweb/getPublicImage.aspx?vedleggId=1EDCA6D9-5C8D-4A89-9FF6-50DB787FDDA7" />
		<tag k="name" v="Froland kirke" />
		<tag k="note" v="Soknekirke" />
		<tag k="operator" v="Froland kirkelige fellesråd" />
		<tag k="parish" v="Froland" />
		<tag k="ref:bygningsnr" v="167616178" />
		<tag k="religion" v="christian" />
		<tag k="ssr:stedsnr" v="122705" />
		<tag k="ssr:type" v="kirke" />
		<tag k="start_date" v="1718" />
		<tag k="wikidata" v="Q15632338" />
		<nd ref="8520532761" />
		<nd ref="8520532760" />
		<nd ref="8520532759" />
		<nd ref="8520532758" />
		<nd ref="8520532757" />
		<nd ref="8520532756" />
		<nd ref="8520532755" />
		<nd ref="8520532754" />
		<nd ref="8520532753" />
		<nd ref="8520532752" />
		<nd ref="8520532751" />
		<nd ref="8520532750" />
		<nd ref="8520532749" />
		<nd ref="8520532748" />
		<nd ref="8520532747" />
		<nd ref="8520532746" />
		<nd ref="8520532745" />
		<nd ref="8520532744" />
		<nd ref="8520532743" />
		<nd ref="8520532742" />
		<nd ref="8520532761" />
	</way>
	<way id="658714835" version="2" timestamp="2019-06-06T11:19:32Z" changeset="70986145" uid="715936" user="Gazer75">
		<tag k="electrified" v="contact_line" />
		<tag k="frequency" v="16.67" />
		<tag k="gauge" v="1435" />
		<tag k="layer" v="-1" />
		<tag k="maxspeed" v="100" />
		<tag k="maxspeed:hgv" v="90" />
		<tag k="maxspeed:plus" v="100" />
		<tag k="maxspeed:tilting" v="115" />
		<tag k="name" v="Sørlandsbanen" />
		<tag k="passenger_lines" v="1" />
		<tag k="railway" v="rail" />
		<tag k="ssr:stedsnr" v="53137" />
		<tag k="ssr:type" v="tunnel" />
		<tag k="tunnel" v="yes" />
		<tag k="tunnel:name" v="Fivedalstunellen" />
		<tag k="usage" v="main" />
		<tag k="voltage" v="15000" />
		<nd ref="409236144" />
		<nd ref="6528213302" />
		<nd ref="6528213301" />
		<nd ref="6528213300" />
		<nd ref="6168025553" />
	</way>
	<way id="816900903" version="2" timestamp="2021-03-15T10:46:17Z" changeset="101044343" uid="3497659" user="NKA">
		<tag k="building" v="house" />
		<tag k="name" v="Bratteland" />
		<tag k="place" v="isolated_dwelling" />
		<tag k="ref:bygningsnr" v="167583857" />
		<tag k="ssr:stedsnr" v="233007" />
		<tag k="ssr:type" v="fritidsbolig" />
		<nd ref="8520528990" />
		<nd ref="8520528989" />
		<nd ref="8520528988" />
		<nd ref="8520528987" />
		<nd ref="8520528986" />
		<nd ref="8520528985" />
		<nd ref="8520528984" />
		<nd ref="8520528983" />
		<nd ref="8520528990" />
	</way>
	<way id="615542718" version="4" timestamp="2019-03-27T00:23:05Z" changeset="68568053" uid="103253" user="gormur">
		<tag k="barrier" v="fence" />
		<nd ref="5963558595" />
		<nd ref="5820536598" />
		<nd ref="5963558594" />
		<nd ref="5820536597" />
		<nd ref="6297522716" />
		<nd ref="5820536584" />
		<nd ref="6297522715" />
		<nd ref="6297522717" />
		<nd ref="5820536596" />
		<nd ref="5820536595" />
		<nd ref="5820536594" />
		<nd ref="5820536593" />
		<nd ref="5820536592" />
		<nd ref="5820536591" />
		<nd ref="5820536590" />
		<nd ref="5820536589" />
		<nd ref="5820536588" />
		<nd ref="5820536587" />
		<nd ref="5820536616" />
		<nd ref="5820536617" />
		<nd ref="5820536586" />
		<nd ref="6363756446" />
		<nd ref="6363756445" />
		<nd ref="6363756444" />
		<nd ref="6363756443" />
		<nd ref="6363756442" />
		<nd ref="6363756441" />
		<nd ref="6363756440" />
		<nd ref="5820536585" />
	</way>
	<way id="672494017" version="1" timestamp="2019-02-23T14:19:52Z" changeset="67494822" uid="103253" user="gormur">
		<nd ref="5963558596" />
		<nd ref="5963558595" />
	</way>
	<way id="672494018" version="2" timestamp="2020-03-12T00:57:31Z" changeset="82083276" uid="103253" user="gormur">
		<tag k="barrier" v="fence" />
		<nd ref="4921065366" />
		<nd ref="5820536605" />
		<nd ref="5820536602" />
		<nd ref="5820536601" />
		<nd ref="5820536600" />
		<nd ref="5820536599" />
		<nd ref="5963558596" />
	</way>
	<way id="615542717" version="4" timestamp="2019-03-27T00:23:05Z" changeset="68568053" uid="103253" user="gormur">
		<tag k="barrier" v="fence" />
		<nd ref="4921065365" />
		<nd ref="5963558591" />
		<nd ref="5963558590" />
		<nd ref="5963558589" />
		<nd ref="5820536582" />
		<nd ref="5820536583" />
		<nd ref="6363755972" />
		<nd ref="6363755971" />
		<nd ref="6363756385" />
		<nd ref="6363755984" />
	</way>
	<way id="672494016" version="2" timestamp="2020-03-12T00:57:31Z" changeset="82083276" uid="103253" user="gormur">
		<nd ref="4921065366" />
		<nd ref="5820536606" />
		<nd ref="4921065365" />
	</way>
	<way id="615542719" version="5" timestamp="2020-03-12T00:57:31Z" changeset="82083276" uid="103253" user="gormur">
		<tag k="barrier" v="fence" />
		<nd ref="6363756455" />
		<nd ref="5820536643" />
		<nd ref="6363755970" />
		<nd ref="7286673135" />
		<nd ref="7286673134" />
		<nd ref="6367179109" />
		<nd ref="6367179110" />
		<nd ref="6367179111" />
		<nd ref="6363755966" />
		<nd ref="6367179113" />
		<nd ref="6367179114" />
		<nd ref="6367179112" />
		<nd ref="6367179118" />
		<nd ref="6367179117" />
		<nd ref="6367179116" />
		<nd ref="6367179115" />
		<nd ref="6363756456" />
		<nd ref="5820536609" />
		<nd ref="5820536612" />
		<nd ref="5819296678" />
		<nd ref="5820536611" />
		<nd ref="5820536610" />
		<nd ref="5820536585" />
	</way>
	<way id="679617751" version="2" timestamp="2020-03-12T00:57:31Z" changeset="82083276" uid="103253" user="gormur">
		<nd ref="6363756461" />
		<nd ref="5963558378" />
		<nd ref="5963558379" />
		<nd ref="6363755984" />
	</way>
	<way id="679617764" version="2" timestamp="2019-09-08T15:02:18Z" changeset="74228865" uid="103253" user="gormur">
		<tag k="barrier" v="fence" />
		<nd ref="6363756461" />
		<nd ref="6363756386" />
		<nd ref="6363756460" />
		<nd ref="6363756459" />
		<nd ref="6363756458" />
		<nd ref="6363756457" />
		<nd ref="6780963718" />
		<nd ref="6363756455" />
	</way>
	<relation id="9349785" version="6" timestamp="2019-09-08T15:02:18Z" changeset="74228865" uid="103253" user="gormur">
		<tag k="aeroway" v="aerodrome" />
		<tag k="icao" v="ENGK" />
		<tag k="name" v="Arendal lufthavn, Gullknapp" />
		<tag k="ssr:stedsnr" v="303231" />
		<tag k="ssr:type" v="flyplass" />
		<tag k="type" v="multipolygon" />
		<tag k="wikidata" v="Q2276604" />
		<tag k="wikipedia" v="no:Arendal lufthavn, Gullknapp" />
		<member type="way" ref="615542717" role="outer" />
		<member type="way" ref="672494016" role="outer" />
		<member type="way" ref="672494018" role="outer" />
		<member type="way" ref="672494017" role="outer" />
		<member type="way" ref="615542718" role="outer" />
		<member type="way" ref="615542719" role="outer" />
		<member type="way" ref="679617764" role="outer" />
		<member type="way" ref="679617751" role="outer" />
		<member type="node" ref="1042033513" role="arp" />
	</relation>
</osm>
