<?xml version="1.0" encoding="UTF-8"?>
<osm version="0.6" generator="osmapis">
	<node lat="69.60836388899087" lon="19.917363888463505" id="-63235">
		<tag k="name" v="Bjørnnes" />
		<tag k="natural" v="cape" />
		<tag k="ssr:stedsnr" v="19991" />
	</node>
	<node lat="69.92714167166041" lon="20.182711096293104" id="-63237">
		<tag k="fixme" v="consider seamark:type=rock or natural=shoal" />
		<tag k="name" v="Nesseskjæret" />
		<tag k="place" v="islet" />
		<tag k="ssr:stedsnr" v="25473" />
	</node>
	<node lat="69.78685833711867" lon="19.904952758906788" id="-63238">
		<tag k="name" v="Sandbukta" />
		<tag k="natural" v="bay" />
		<tag k="ssr:stedsnr" v="25704" />
	</node>
	<node lat="69.78006944884514" lon="19.87765555199571" id="-63239">
		<tag k="alt_name" v="Løpvikneset" />
		<tag k="name" v="Laupvikneset" />
		<tag k="natural" v="cape" />
		<tag k="ssr:stedsnr" v="27025" />
	</node>
	<node lat="69.41884444046089" lon="20.15533887847728" id="-63241">
		<tag k="alt_name" v="Ytre Kabelvik;Kabelbukta, ytre" />
		<tag k="name" v="Ytre Kabelbukt" />
		<tag k="natural" v="bay" />
		<tag k="ssr:stedsnr" v="28823" />
	</node>
	<node lat="69.65796111228016" lon="20.273674990144965" id="-63257">
		<tag k="name" v="Elveneset" />
		<tag k="natural" v="cape" />
		<tag k="ssr:stedsnr" v="238898" />
	</node>
	<node lat="69.59036667020648" lon="19.99669166457559" id="-63260">
		<tag k="name" v="Skjellneset" />
		<tag k="natural" v="cape" />
		<tag k="ssr:stedsnr" v="239117" />
	</node>
	<node lat="69.58648611136984" lon="20.046897211656592" id="-63261">
		<tag k="name" v="Vedneset" />
		<tag k="natural" v="cape" />
		<tag k="ssr:stedsnr" v="239120" />
	</node>
	<node lat="69.71256944864032" lon="19.796502771442004" id="-63270">
		<tag k="name" v="Bakkebyneset" />
		<tag k="natural" v="cape" />
		<tag k="ssr:stedsnr" v="239218" />
	</node>
	<node lat="69.66338055478073" lon="20.37188053893235" id="-63274">
		<tag k="name" v="Indre Moltebærneset" />
		<tag k="natural" v="cape" />
		<tag k="ssr:stedsnr" v="239923" />
	</node>
	<node lat="69.66290277845737" lon="20.33982220322057" id="-63275">
		<tag k="name" v="Storbuktneset" />
		<tag k="natural" v="cape" />
		<tag k="ssr:stedsnr" v="239924" />
	</node>
	<node lat="69.71660555790147" lon="20.28332499819041" id="-63297">
		<tag k="loc_name:se" v="Davvenjárga" />
		<tag k="name" v="Ytterneset" />
		<tag k="name:no" v="Ytterneset" />
		<tag k="natural" v="cape" />
		<tag k="ssr:stedsnr" v="58003" />
	</node>
	<node lat="69.63666111402837" lon="20.351244425867904" id="-63305">
		<tag k="name" v="Trollnesbukta" />
		<tag k="natural" v="bay" />
		<tag k="ssr:stedsnr" v="58101" />
	</node>
	<node lat="69.67866666320297" lon="20.339563864612604" id="-63309">
		<tag k="name" v="Sandneset" />
		<tag k="natural" v="cape" />
		<tag k="ssr:stedsnr" v="58126" />
	</node>
	<node lat="69.89205277816006" lon="20.133797201985196" id="-63313">
		<tag k="name" v="Innereidet" />
		<tag k="place" v="island" />
		<tag k="ssr:stedsnr" v="240851" />
	</node>
	<node lat="69.93357777744758" lon="20.19544165164512" id="-63325">
		<tag k="name" v="Blåbergbukta" />
		<tag k="natural" v="bay" />
		<tag k="ssr:stedsnr" v="86479" />
	</node>
	<node lat="69.55549999768223" lon="20.293319420092686" id="-63326">
		<tag k="fixme" v="consider seamark:type=rock or natural=shoal" />
		<tag k="name" v="Nortasskjæret" />
		<tag k="place" v="islet" />
		<tag k="ssr:stedsnr" v="87202" />
	</node>
	<node lat="69.54853055711492" lon="20.29562776903378" id="-63327">
		<tag k="name" v="Fjellosorra" />
		<tag k="natural" v="shoal" />
		<tag k="place" v="locality" />
		<tag k="ssr:stedsnr" v="87204" />
	</node>
	<node lat="69.83465833397122" lon="19.99209722053524" id="-63329">
		<tag k="name" v="Kvalnesbukta" />
		<tag k="natural" v="bay" />
		<tag k="ssr:stedsnr" v="88126" />
	</node>
	<node lat="69.44369166456141" lon="20.1564305509544" id="-63353">
		<tag k="name" v="Ráššegárgu" />
		<tag k="name:se" v="Ráššegárgu" />
		<tag k="natural" v="beach" />
		<tag k="ssr:stedsnr" v="119082" />
	</node>
	<node lat="69.70797500315958" lon="20.284391665321216" id="-63354">
		<tag k="loc_name:se" v="Sisnjárga" />
		<tag k="name" v="Innerneset" />
		<tag k="name:no" v="Innerneset" />
		<tag k="natural" v="cape" />
		<tag k="ssr:stedsnr" v="119100" />
	</node>
	<node lat="69.68169999766864" lon="20.256708313163784" id="-63355">
		<tag k="name" v="Koppangen" />
		<tag k="natural" v="bay" />
		<tag k="ssr:stedsnr" v="119104" />
	</node>
	<node lat="69.56421666724773" lon="20.229974975707997" id="-63363">
		<tag k="alt_name:no" v="Marjaholmen" />
		<tag k="name" v="Marieholmen - Rávgasuolu" />
		<tag k="name:no" v="Marieholmen" />
		<tag k="name:se" v="Rávgasuolu" />
		<tag k="place" v="islet" />
		<tag k="ssr:stedsnr" v="139905" />
	</node>
	<node lat="69.86189444603605" lon="20.18709720852954" id="-63367">
		<tag k="name" v="Grasbergneset" />
		<tag k="natural" v="cape" />
		<tag k="ssr:stedsnr" v="140688" />
	</node>
	<node lat="69.86433055329358" lon="20.182994440681256" id="-63368">
		<tag k="name" v="Høgneset" />
		<tag k="natural" v="cape" />
		<tag k="ssr:stedsnr" v="140690" />
	</node>
	<node lat="69.85094166593248" lon="20.363838882667064" id="-63370">
		<tag k="alt_name" v="Loppeholet" />
		<tag k="name" v="Loppehollet" />
		<tag k="natural" v="bay" />
		<tag k="ssr:stedsnr" v="140694" />
	</node>
	<node lat="69.42800833451074" lon="20.15678888193863" id="-63375">
		<tag k="name" v="Ruovddášluokta" />
		<tag k="name:se" v="Ruovddášluokta" />
		<tag k="natural" v="bay" />
		<tag k="ssr:stedsnr" v="146187" />
	</node>
	<node lat="69.8037222250379" lon="20.010755548828936" id="-63376">
		<tag k="name" v="Veidalsneset" />
		<tag k="natural" v="cape" />
		<tag k="ssr:stedsnr" v="146416" />
	</node>
	<node lat="69.70297777482222" lon="20.284147218050165" id="-63383">
		<tag k="name" v="Givggis" />
		<tag k="name:se" v="Givggis" />
		<tag k="natural" v="cape" />
		<tag k="ssr:stedsnr" v="261036" />
	</node>
	<node lat="69.60438055664504" lon="19.94377498982889" id="-63398">
		<tag k="name" v="Dausteinbukta" />
		<tag k="natural" v="bay" />
		<tag k="ssr:stedsnr" v="178103" />
	</node>
	<node lat="69.53515833255548" lon="20.273694422454547" id="-63400">
		<tag k="name" v="Lilleholmen" />
		<tag k="place" v="islet" />
		<tag k="ssr:stedsnr" v="178814" />
	</node>
	<node lat="69.4947277742737" lon="20.251913875378698" id="-63405">
		<tag k="name" v="Ørneset" />
		<tag k="natural" v="cape" />
		<tag k="ssr:stedsnr" v="179826" />
	</node>
	<node lat="69.56752222488721" lon="20.226672207566118" id="-63409">
		<tag k="name" v="Parakneset - Bárat" />
		<tag k="name:no" v="Parakneset" />
		<tag k="name:se" v="Bárat" />
		<tag k="natural" v="cape" />
		<tag k="ssr:stedsnr" v="261952" />
	</node>
	<node lat="69.90120000064796" lon="20.108622196596222" id="-63418">
		<tag k="name" v="Koppmolneset" />
		<tag k="natural" v="cape" />
		<tag k="ssr:stedsnr" v="262768" />
	</node>
	<node lat="69.67790000266375" lon="20.27010554446495" id="-63421">
		<tag k="alt_name:no" v="Rastenes" />
		<tag k="loc_name:se" v="Rástenjárga" />
		<tag k="name" v="Rasteneset" />
		<tag k="name:no" v="Rasteneset" />
		<tag k="natural" v="cape" />
		<tag k="ssr:stedsnr" v="200010" />
	</node>
	<node lat="69.58614986882188" lon="20.133359813151387" id="-63423">
		<tag k="name" v="Kobbenes" />
		<tag k="natural" v="cape" />
		<tag k="ssr:stedsnr" v="200947" />
	</node>
	<node lat="69.75230555992833" lon="19.837127774282987" id="-63427">
		<tag k="alt_name:no" v="Selnes" />
		<tag k="name" v="Selneset - Sálljanjárga" />
		<tag k="name:no" v="Selneset" />
		<tag k="name:se" v="Sálljanjárga" />
		<tag k="natural" v="cape" />
		<tag k="ssr:stedsnr" v="201613" />
	</node>
	<node lat="69.43787500285245" lon="20.196586090363034" id="-63430">
		<tag k="name" v="Tjorrogieti" />
		<tag k="natural" v="shoal" />
		<tag k="place" v="locality" />
		<tag k="ssr:stedsnr" v="267942" />
	</node>
	<node lat="69.44047222065416" lon="20.2195583279023" id="-63431">
		<tag k="name" v="Yttergrunnen" />
		<tag k="natural" v="shoal" />
		<tag k="place" v="locality" />
		<tag k="ssr:stedsnr" v="267959" />
	</node>
	<node lat="69.79368888639365" lon="19.911144427389072" id="-63433">
		<tag k="name" v="Mikkelvikneset" />
		<tag k="natural" v="cape" />
		<tag k="ssr:stedsnr" v="268158" />
	</node>
	<node lat="69.46110000369114" lon="20.191024995964334" id="-63434">
		<tag k="name" v="Haugholmen" />
		<tag k="place" v="islet" />
		<tag k="ssr:stedsnr" v="206608" />
	</node>
	<node lat="69.49417777451187" lon="20.247761091667623" id="-63435">
		<tag k="name" v="Kvalvikneset - Sieiddinjárga" />
		<tag k="name:no" v="Kvalvikneset" />
		<tag k="name:se" v="Sieiddinjárga" />
		<tag k="natural" v="cape" />
		<tag k="ssr:stedsnr" v="206614" />
	</node>
	<node lat="69.78315555841836" lon="19.959705535192366" id="-63436">
		<tag k="name" v="Storbukta" />
		<tag k="natural" v="bay" />
		<tag k="ssr:stedsnr" v="207148" />
	</node>
	<node lat="69.93470000178799" lon="20.19610277767526" id="-63437">
		<tag k="fixme" v="multiple name tags, choose one and add the other to alt_name" />
		<tag k="name" v="Blåbergan;Blåbergneset" />
		<tag k="natural" v="cape" />
		<tag k="ssr:stedsnr" v="207709" />
	</node>
	<node lat="69.58209166388232" lon="20.318819428675862" id="-63438">
		<tag k="name" v="Kvitbergbakken" />
		<tag k="natural" v="shoal" />
		<tag k="place" v="locality" />
		<tag k="ssr:stedsnr" v="208197" />
	</node>
	<node lat="69.57171110808369" lon="20.294633304202264" id="-63439">
		<tag k="name" v="Inderbakken" />
		<tag k="natural" v="shoal" />
		<tag k="place" v="locality" />
		<tag k="ssr:stedsnr" v="208198" />
	</node>
	<node lat="69.58083333005905" lon="20.30876664759307" id="-63441">
		<tag k="name" v="Kvitberggrunnen" />
		<tag k="natural" v="shoal" />
		<tag k="place" v="locality" />
		<tag k="ssr:stedsnr" v="269223" />
	</node>
	<node lat="69.58022500008298" lon="20.26974721101766" id="-63443">
		<tag k="fixme" v="consider seamark:type=rock or natural=shoal" />
		<tag k="name" v="Nesseskjæret" />
		<tag k="place" v="islet" />
		<tag k="ssr:stedsnr" v="269215" />
	</node>
	<node lat="69.57888055379246" lon="20.280630537411128" id="-63444">
		<tag k="name" v="Solpegrunnen - Soalpemađđi" />
		<tag k="name:no" v="Solpegrunnen" />
		<tag k="name:se" v="Soalpemađđi" />
		<tag k="natural" v="shoal" />
		<tag k="place" v="locality" />
		<tag k="ssr:stedsnr" v="269216" />
	</node>
	<node lat="69.56814166402125" lon="20.23714997169846" id="-63445">
		<tag k="name" v="Figenschougrunnen" />
		<tag k="natural" v="shoal" />
		<tag k="place" v="locality" />
		<tag k="ssr:stedsnr" v="269217" />
	</node>
	<node lat="69.56737778198149" lon="20.326499989569566" id="-63446">
		<tag k="name" v="Nortasbakken" />
		<tag k="natural" v="shoal" />
		<tag k="place" v="locality" />
		<tag k="ssr:stedsnr" v="269219" />
	</node>
	<node lat="69.5825666709938" lon="20.30041387008026" id="-63447">
		<tag k="fixme" v="consider seamark:type=rock or natural=shoal" />
		<tag k="name" v="Tareskjæret" />
		<tag k="place" v="islet" />
		<tag k="ssr:stedsnr" v="269233" />
	</node>
	<node lat="69.66860555870566" lon="20.29984999410032" id="-63448">
		<tag k="name" v="Sommarsætgrunnen" />
		<tag k="natural" v="shoal" />
		<tag k="place" v="locality" />
		<tag k="ssr:stedsnr" v="269235" />
	</node>
	<node lat="69.5303861149085" lon="20.25827775405126" id="-63449">
		<tag k="name" v="Båen" />
		<tag k="natural" v="shoal" />
		<tag k="place" v="locality" />
		<tag k="ssr:stedsnr" v="269264" />
	</node>
	<node lat="69.58315278148862" lon="20.086777754750422" id="-63458">
		<tag k="name" v="Hellarvikneset" />
		<tag k="natural" v="cape" />
		<tag k="ssr:stedsnr" v="238711" />
	</node>
	<node lat="69.52058055254972" lon="20.267991644510214" id="-63475">
		<tag k="name" v="Linasokka" />
		<tag k="name:se" v="Linasokka" />
		<tag k="natural" v="shoal" />
		<tag k="place" v="locality" />
		<tag k="ssr:stedsnr" v="451267" />
	</node>
	<node lat="69.52242777934077" lon="20.242774974175713" id="-63476">
		<tag k="name" v="Guttormbåen" />
		<tag k="natural" v="shoal" />
		<tag k="place" v="locality" />
		<tag k="ssr:stedsnr" v="451269" />
	</node>
	<node lat="69.9759447374481" lon="20.262158901908442" id="-63487">
		<tag k="name" v="Sørklubben" />
		<tag k="natural" v="cape" />
		<tag k="ssr:stedsnr" v="262650" />
	</node>
	<node lat="69.77636666978502" lon="19.863597224744137" id="-63491">
		<tag k="name" v="Skavikneset" />
		<tag k="natural" v="cape" />
		<tag k="ssr:stedsnr" v="267204" />
	</node>
	<node lat="69.45275833145607" lon="20.190597193744235" id="-63492">
		<tag k="name" v="Nessegrunnen" />
		<tag k="natural" v="shoal" />
		<tag k="place" v="locality" />
		<tag k="ssr:stedsnr" v="267609" />
	</node>
	<node lat="69.47971111349865" lon="20.18855275224502" id="-63493">
		<tag k="name" v="Notholmen" />
		<tag k="place" v="islet" />
		<tag k="ssr:stedsnr" v="267611" />
	</node>
	<node lat="69.89020277977208" lon="20.176697204935515" id="-63495">
		<tag k="name" v="Straumsneset" />
		<tag k="natural" v="cape" />
		<tag k="ssr:stedsnr" v="268481" />
	</node>
	<node lat="69.87094722691248" lon="20.197916656575025" id="-63496">
		<tag k="name" v="Stranda" />
		<tag k="natural" v="beach" />
		<tag k="ssr:stedsnr" v="268485" />
	</node>
	<node lat="69.55549722174831" lon="20.23531666200624" id="-63497">
		<tag k="name" v="Karnesbukta" />
		<tag k="natural" v="bay" />
		<tag k="ssr:stedsnr" v="269210" />
	</node>
	<node lat="69.7244083345714" lon="19.818919430302625" id="-63501">
		<tag k="name" v="Storsteinneset" />
		<tag k="natural" v="cape" />
		<tag k="ssr:stedsnr" v="299209" />
	</node>
	<node lat="69.46293055770235" lon="20.19238055308375" id="-63503">
		<tag k="name" v="Kiholmen - Čohkkasuolu" />
		<tag k="name:no" v="Kiholmen" />
		<tag k="name:se" v="Čohkkasuolu" />
		<tag k="place" v="islet" />
		<tag k="ssr:stedsnr" v="299572" />
	</node>
	<node lat="69.66741389153282" lon="20.373774983439283" id="-63512">
		<tag k="name" v="Ytre Moltebærnesbukta" />
		<tag k="natural" v="bay" />
		<tag k="ssr:stedsnr" v="299880" />
	</node>
	<node lat="69.93963888688704" lon="20.138152755013316" id="-63516">
		<tag k="name" v="Sørneset" />
		<tag k="natural" v="cape" />
		<tag k="ssr:stedsnr" v="301823" />
	</node>
	<node lat="69.89016944204049" lon="20.16976387333616" id="-63522">
		<tag k="name" v="Straumen - Rávdnji" />
		<tag k="name:no" v="Straumen" />
		<tag k="name:se" v="Rávdnji" />
		<tag k="natural" v="strait" />
		<tag k="ssr:stedsnr" v="322679" />
	</node>
	<node lat="69.4543416678728" lon="20.180172220056583" id="-63525">
		<tag k="name" v="Pollgrunnen" />
		<tag k="natural" v="shoal" />
		<tag k="place" v="locality" />
		<tag k="ssr:stedsnr" v="327602" />
	</node>
	<node lat="69.5131361149362" lon="20.230377760756866" id="-63526">
		<tag k="fixme" v="multiple name tags, choose one and add the other to alt_name" />
		<tag k="name" v="Ol-Hansabukta;Kjeldnesbukta;Olehansabukta - Gielnjárluokta" />
		<tag k="name:no" v="Ol-Hansabukta;Kjeldnesbukta;Olehansabukta" />
		<tag k="name:se" v="Gielnjárluokta" />
		<tag k="natural" v="bay" />
		<tag k="ssr:stedsnr" v="330173" />
	</node>
	<node lat="69.6383138895945" lon="20.34702220399533" id="-63535">
		<tag k="name" v="Instevika" />
		<tag k="natural" v="bay" />
		<tag k="ssr:stedsnr" v="360058" />
	</node>
	<node lat="69.50429722407907" lon="20.21718331810625" id="-63543">
		<tag k="name" v="Holmen" />
		<tag k="place" v="islet" />
		<tag k="ssr:stedsnr" v="481534" />
	</node>
	<node lat="69.58815277450087" lon="20.022452756988823" id="-63550">
		<tag k="name" v="Kobbeneset" />
		<tag k="natural" v="cape" />
		<tag k="ssr:stedsnr" v="481123" />
	</node>
	<node lat="69.58751666804766" lon="20.02712220229169" id="-63552">
		<tag k="name" v="Korkorbukta" />
		<tag k="natural" v="bay" />
		<tag k="ssr:stedsnr" v="481125" />
	</node>
	<node lat="69.58854722696825" lon="20.108438875478456" id="-63556">
		<tag k="name" v="Urbukta" />
		<tag k="natural" v="bay" />
		<tag k="ssr:stedsnr" v="481692" />
	</node>
	<node lat="69.44110277495344" lon="20.16222220672372" id="-63558">
		<tag k="name" v="Lyngsdalsøra" />
		<tag k="natural" v="cape" />
		<tag k="ssr:stedsnr" v="481598" />
	</node>
	<node lat="69.57799444438676" lon="20.22798886219932" id="-63561">
		<tag k="name" v="Kalveparken" />
		<tag k="natural" v="beach" />
		<tag k="ssr:stedsnr" v="481788" />
	</node>
	<node lat="69.65584722379863" lon="20.34486109454577" id="-63563">
		<tag k="loc_name:se" v="Sullonuorri" />
		<tag k="name" v="Bonkesundet" />
		<tag k="name:no" v="Bonkesundet" />
		<tag k="natural" v="strait" />
		<tag k="ssr:stedsnr" v="481885" />
	</node>
	<node lat="69.65901944239783" lon="20.366647210819224" id="-63564">
		<tag k="name" v="Korshollan" />
		<tag k="natural" v="bay" />
		<tag k="ssr:stedsnr" v="481892" />
	</node>
	<node lat="69.62497222549082" lon="20.34786943261433" id="-63569">
		<tag k="name" v="Elvebukta" />
		<tag k="natural" v="bay" />
		<tag k="ssr:stedsnr" v="481998" />
	</node>
	<node lat="69.6582666700608" lon="20.36061108946829" id="-63573">
		<tag k="name" v="Moltebærneset" />
		<tag k="natural" v="cape" />
		<tag k="ssr:stedsnr" v="382060" />
	</node>
	<node lat="69.79009444748394" lon="20.32064442912147" id="-63577">
		<tag k="name" v="Vákkášnjárga" />
		<tag k="name:se" v="Vákkášnjárga" />
		<tag k="natural" v="cape" />
		<tag k="ssr:stedsnr" v="383649" />
	</node>
	<node lat="69.95941666818462" lon="20.32780555320722" id="-63580">
		<tag k="name" v="Røykeneset" />
		<tag k="natural" v="cape" />
		<tag k="ssr:stedsnr" v="383660" />
	</node>
	<node lat="69.67238611671677" lon="20.37806386331357" id="-63581">
		<tag k="name" v="Kvennesbukta" />
		<tag k="natural" v="bay" />
		<tag k="ssr:stedsnr" v="483012" />
	</node>
	<node lat="69.74236667111172" lon="20.295752771112916" id="-63584">
		<tag k="loc_name:se" v="Čeavránjárga" />
		<tag k="name" v="Oterneset" />
		<tag k="name:no" v="Oterneset" />
		<tag k="natural" v="cape" />
		<tag k="ssr:stedsnr" v="483003" />
	</node>
	<node lat="69.90250277529877" lon="20.153024989997572" id="-63602">
		<tag k="name" v="Langørneset" />
		<tag k="natural" v="cape" />
		<tag k="ssr:stedsnr" v="389508" />
	</node>
	<node lat="69.95242222228079" lon="20.33495554941457" id="-63603">
		<tag k="fixme" v="multiple name tags, choose one and add the other to alt_name" />
		<tag k="name" v="Indre Porskevikneset;Indre Purkevikneset" />
		<tag k="natural" v="cape" />
		<tag k="ssr:stedsnr" v="389609" />
	</node>
	<node lat="69.56569721953244" lon="20.233952763695992" id="-63605">
		<tag k="fixme" v="consider seamark:type=rock or natural=shoal" />
		<tag k="name" v="Skjæret" />
		<tag k="place" v="islet" />
		<tag k="ssr:stedsnr" v="390215" />
	</node>
	<node lat="69.61245555951201" lon="19.87402498921969" id="-63610">
		<tag k="name" v="Fyhnbukta" />
		<tag k="natural" v="bay" />
		<tag k="ssr:stedsnr" v="484852" />
	</node>
	<node lat="69.47053611393865" lon="20.171499994224554" id="-63617">
		<tag k="name" v="Steinneset" />
		<tag k="natural" v="cape" />
		<tag k="ssr:stedsnr" v="420589" />
	</node>
	<node lat="69.46343888760507" lon="20.170930542017793" id="-63618">
		<tag k="name" v="Ytterlaneset" />
		<tag k="natural" v="cape" />
		<tag k="ssr:stedsnr" v="420591" />
	</node>
	<node lat="69.46328888632762" lon="20.200388868557226" id="-63619">
		<tag k="name" v="Skøytebukta" />
		<tag k="natural" v="bay" />
		<tag k="ssr:stedsnr" v="420594" />
	</node>
	<node lat="69.5461194433817" lon="20.239908317594516" id="-63633">
		<tag k="name" v="Steinholmen" />
		<tag k="place" v="islet" />
		<tag k="ssr:stedsnr" v="421796" />
	</node>
	<node lat="69.8040972181256" lon="19.974063885874223" id="-63637">
		<tag k="name" v="Storbukta" />
		<tag k="natural" v="bay" />
		<tag k="ssr:stedsnr" v="422021" />
	</node>
	<node lat="69.68095277958986" lon="20.262283315142653" id="-63643">
		<tag k="name" v="Neset" />
		<tag k="natural" v="cape" />
		<tag k="ssr:stedsnr" v="423092" />
	</node>
	<node lat="69.56063055414644" lon="20.302327751206576" id="-63653">
		<tag k="alt_name:no" v="Innernortas" />
		<tag k="name" v="Indre Nortasholmen - Stuorra Nuorttaš" />
		<tag k="name:no" v="Indre Nortasholmen" />
		<tag k="name:se" v="Stuorra Nuorttaš" />
		<tag k="place" v="islet" />
		<tag k="ssr:stedsnr" v="443909" />
	</node>
	<node lat="70.01864444077569" lon="20.251516654708393" id="-63656">
		<tag k="name" v="Seibåen" />
		<tag k="natural" v="shoal" />
		<tag k="place" v="locality" />
		<tag k="ssr:stedsnr" v="444108" />
	</node>
	<node lat="69.9750972246731" lon="20.289958324472927" id="-63658">
		<tag k="loc_name:se" v="Stáinnirluokta" />
		<tag k="name" v="Steinbitbukta" />
		<tag k="name:no" v="Steinbitbukta" />
		<tag k="natural" v="bay" />
		<tag k="ssr:stedsnr" v="444632" />
	</node>
	<node lat="69.85557222612101" lon="20.367419442794848" id="-63659">
		<tag k="alt_name:no" v="Gammvika, in;Indre Gammvika" />
		<tag k="loc_name:se" v="Siskkit Skárraviika" />
		<tag k="name" v="Indre Gamvik" />
		<tag k="name:no" v="Indre Gamvik" />
		<tag k="natural" v="bay" />
		<tag k="ssr:stedsnr" v="444682" />
	</node>
	<node lat="69.47878611272823" lon="20.186747213977515" id="-63661">
		<tag k="alt_name" v="Linskjæret" />
		<tag k="name" v="Linholmen" />
		<tag k="place" v="islet" />
		<tag k="ssr:stedsnr" v="449622" />
	</node>
	<node lat="69.76786944367149" lon="19.967297198286854" id="-63662">
		<tag k="name" v="Botn" />
		<tag k="natural" v="bay" />
		<tag k="ssr:stedsnr" v="450244" />
	</node>
	<node lat="69.94219722506806" lon="20.159105531586487" id="-63664">
		<tag k="name" v="Oterhulan" />
		<tag k="natural" v="bay" />
		<tag k="ssr:stedsnr" v="450480" />
	</node>
	<node lat="69.6931305589699" lon="20.396486084930263" id="-63665">
		<tag k="name" v="Huet" />
		<tag k="natural" v="shoal" />
		<tag k="place" v="locality" />
		<tag k="ssr:stedsnr" v="451574" />
	</node>
	<node lat="69.755205552216" lon="19.839869421083797" id="-63669">
		<tag k="name" v="Selnessanden" />
		<tag k="natural" v="beach" />
		<tag k="ssr:stedsnr" v="481109" />
	</node>
	<node lat="69.65342500055108" lon="19.816744435132097" id="-63677">
		<tag k="name" v="Bergevika" />
		<tag k="natural" v="bay" />
		<tag k="ssr:stedsnr" v="481319" />
	</node>
	<node lat="69.45586388916313" lon="20.19624719470139" id="-63678">
		<tag k="name" v="Kabelbukta" />
		<tag k="natural" v="bay" />
		<tag k="ssr:stedsnr" v="481568" />
	</node>
	<node lat="69.94978611532422" lon="20.337680550483974" id="-63698">
		<tag k="alt_name" v="Purkevika, in" />
		<tag k="fixme" v="multiple name tags, choose one and add the other to alt_name" />
		<tag k="name" v="Indre Porskevika;Indre Purkevika" />
		<tag k="natural" v="bay" />
		<tag k="ssr:stedsnr" v="505665" />
	</node>
	<node lat="69.95426666653827" lon="20.33170832334211" id="-63699">
		<tag k="fixme" v="multiple name tags, choose one and add the other to alt_name" />
		<tag k="name" v="Purkevika;Porskevika" />
		<tag k="natural" v="bay" />
		<tag k="ssr:stedsnr" v="505667" />
	</node>
	<node lat="69.45568055770799" lon="20.213827766872534" id="-63700">
		<tag k="fixme" v="consider seamark:type=rock or natural=shoal" />
		<tag k="name" v="Sandvikskjæret" />
		<tag k="place" v="islet" />
		<tag k="ssr:stedsnr" v="509604" />
	</node>
	<node lat="69.43530555942642" lon="20.20545832049087" id="-63701">
		<tag k="name" v="Ridemaddi" />
		<tag k="natural" v="shoal" />
		<tag k="place" v="locality" />
		<tag k="ssr:stedsnr" v="509927" />
	</node>
	<node lat="69.57488055673888" lon="20.26304719757619" id="-63703">
		<tag k="name" v="Gurinagrunnen" />
		<tag k="natural" v="shoal" />
		<tag k="place" v="locality" />
		<tag k="ssr:stedsnr" v="511201" />
	</node>
	<node lat="69.77019722428052" lon="20.30721386323668" id="-63704">
		<tag k="loc_name:se" v="Rássemohkki" />
		<tag k="name" v="Grasgropa" />
		<tag k="name:no" v="Grasgropa" />
		<tag k="natural" v="beach" />
		<tag k="ssr:stedsnr" v="511308" />
	</node>
	<node lat="69.58208333327184" lon="20.046186107751826" id="-63723">
		<tag k="name" v="Hundklubben" />
		<tag k="natural" v="cape" />
		<tag k="ssr:stedsnr" v="539205" />
	</node>
	<node lat="69.50597499894047" lon="20.219280547138265" id="-63725">
		<tag k="name" v="Elvenes" />
		<tag k="natural" v="cape" />
		<tag k="ssr:stedsnr" v="686867" />
	</node>
	<node lat="69.54869444386104" lon="20.276569415685856" id="-63731">
		<tag k="name" v="Karnesodden - Gárnjárgeahči" />
		<tag k="name:no" v="Karnesodden" />
		<tag k="name:se" v="Gárnjárgeahči" />
		<tag k="natural" v="cape" />
		<tag k="ssr:stedsnr" v="686930" />
	</node>
	<node lat="69.5875694472063" lon="20.10141388504863" id="-63735">
		<tag k="name" v="Urneset" />
		<tag k="natural" v="cape" />
		<tag k="ssr:stedsnr" v="541724" />
	</node>
	<node lat="69.47492500335385" lon="20.241127757450286" id="-63755">
		<tag k="name" v="Josapneset" />
		<tag k="natural" v="cape" />
		<tag k="ssr:stedsnr" v="543787" />
	</node>
	<node lat="69.84262222686301" lon="20.043802756269578" id="-63762">
		<tag k="alt_name" v="Lankenes" />
		<tag k="name" v="Lankeneset" />
		<tag k="natural" v="cape" />
		<tag k="ssr:stedsnr" v="687727" />
	</node>
	<node lat="69.96360833515332" lon="20.250569424681597" id="-63763">
		<tag k="alt_name" v="Skjeivågen" />
		<tag k="name" v="Skeivågen" />
		<tag k="natural" v="bay" />
		<tag k="ssr:stedsnr" v="687663" />
	</node>
	<node lat="69.70329444214697" lon="19.75568055390045" id="-63768">
		<tag k="name" v="Nisegrunnen" />
		<tag k="natural" v="shoal" />
		<tag k="place" v="locality" />
		<tag k="ssr:stedsnr" v="692220" />
	</node>
	<node lat="69.49165833606727" lon="20.283352766025395" id="-63774">
		<tag k="name" v="Borri" />
		<tag k="name:se" v="Borri" />
		<tag k="natural" v="shoal" />
		<tag k="place" v="locality" />
		<tag k="ssr:stedsnr" v="692530" />
	</node>
	<node lat="69.87801388466607" lon="20.079780549776682" id="-63777">
		<tag k="name" v="Båtnes" />
		<tag k="natural" v="cape" />
		<tag k="ssr:stedsnr" v="565701" />
	</node>
	<node lat="69.41525555674468" lon="20.15504721266716" id="-63778">
		<tag k="name" v="Kabelgrunnen" />
		<tag k="natural" v="shoal" />
		<tag k="place" v="locality" />
		<tag k="ssr:stedsnr" v="692933" />
	</node>
	<node lat="69.78850277371579" lon="19.873083323351672" id="-63779">
		<tag k="name" v="Lattervikgrunnen" />
		<tag k="natural" v="shoal" />
		<tag k="place" v="locality" />
		<tag k="ssr:stedsnr" v="570208" />
	</node>
	<node lat="69.88683611124779" lon="20.431883321852002" id="-63780">
		<tag k="name" v="Jevvasgrunnen" />
		<tag k="natural" v="shoal" />
		<tag k="ssr:stedsnr" v="693735" />
	</node>
	<node lat="69.89428888900173" lon="20.160869429969946" id="-63781">
		<tag k="fixme" v="multiple name tags, choose one and add the other to alt_name" />
		<tag k="name" v="Holmen;Innerholmen" />
		<tag k="place" v="islet" />
		<tag k="ssr:stedsnr" v="693749" />
	</node>
	<node lat="69.94571110672787" lon="20.21138610522685" id="-63782">
		<tag k="name" v="Russelvneset" />
		<tag k="natural" v="cape" />
		<tag k="ssr:stedsnr" v="571694" />
	</node>
	<node lat="69.58655555620912" lon="20.127866650156236" id="-63794">
		<tag k="name" v="Skottgambukta" />
		<tag k="natural" v="bay" />
		<tag k="ssr:stedsnr" v="602713" />
	</node>
	<node lat="69.823744449938" lon="20.029202756282043" id="-63798">
		<tag k="name" v="Heiarbukta" />
		<tag k="natural" v="bay" />
		<tag k="ssr:stedsnr" v="604003" />
	</node>
	<node lat="69.89671666581157" lon="20.152819434211676" id="-63803">
		<tag k="name" v="Reinneset" />
		<tag k="natural" v="cape" />
		<tag k="ssr:stedsnr" v="604860" />
	</node>
	<node lat="69.67979166240109" lon="20.272491657872607" id="-63812">
		<tag k="loc_name:se" v="Gohppemađđï" />
		<tag k="name" v="Koppanggrunnen" />
		<tag k="name:no" v="Koppanggrunnen" />
		<tag k="natural" v="shoal" />
		<tag k="place" v="locality" />
		<tag k="ssr:stedsnr" v="632235" />
	</node>
	<node lat="69.78470278082513" lon="19.90174444114211" id="-63813">
		<tag k="name" v="Lattervika - Láhttárluokta" />
		<tag k="name:no" v="Lattervika" />
		<tag k="name:se" v="Láhttárluokta" />
		<tag k="natural" v="bay" />
		<tag k="ssr:stedsnr" v="632696" />
	</node>
	<node lat="69.61326666995106" lon="19.862966651209195" id="-63814">
		<tag k="name" v="Storsteinneset - Biehtarnjárga" />
		<tag k="name:no" v="Storsteinneset" />
		<tag k="name:se" v="Biehtarnjárga" />
		<tag k="natural" v="cape" />
		<tag k="ssr:stedsnr" v="646306" />
	</node>
	<node lat="69.58251666826332" lon="20.078430538209695" id="-63821">
		<tag k="name" v="Hellarvika" />
		<tag k="natural" v="bay" />
		<tag k="ssr:stedsnr" v="663503" />
	</node>
	<node lat="69.43355277892915" lon="20.153308330338636" id="-63823">
		<tag k="name" v="Vollneset" />
		<tag k="natural" v="cape" />
		<tag k="ssr:stedsnr" v="663616" />
	</node>
	<node lat="69.94327499847668" lon="20.184458310476888" id="-63839">
		<tag k="bay" v="fjord" />
		<tag k="name" v="Vågkjeften" />
		<tag k="natural" v="bay" />
		<tag k="ssr:stedsnr" v="665843" />
	</node>
	<node lat="69.58488055497152" lon="20.29160276275596" id="-63843">
		<tag k="alt_name" v="Einarbukta" />
		<tag k="name" v="Einarvika" />
		<tag k="natural" v="bay" />
		<tag k="ssr:stedsnr" v="685946" />
	</node>
	<node lat="69.67292222027076" lon="20.359552768682875" id="-63847">
		<tag k="alt_name:no" v="Årøyholmen;Årøy" />
		<tag k="name" v="Årøya - Vuorri" />
		<tag k="name:no" v="Årøya" />
		<tag k="name:se" v="Vuorri" />
		<tag k="place" v="island" />
		<tag k="ssr:stedsnr" v="686049" />
	</node>
	<node lat="69.67972778077917" lon="19.770569443691127" id="-63849">
		<tag k="name" v="Ullsneset - Ulsnjárga" />
		<tag k="name:no" v="Ullsneset" />
		<tag k="name:se" v="Ulsnjárga" />
		<tag k="natural" v="cape" />
		<tag k="ssr:stedsnr" v="686240" />
	</node>
	<node lat="69.70469722489574" lon="19.72061387351002" id="-63850">
		<tag k="bay" v="fjord" />
		<tag k="fixme" v="multiple name tags, choose one and add the other to alt_name" />
		<tag k="name" v="Ullsfjorden - Olggosvuotna;Moskavuotna" />
		<tag k="name:no" v="Ullsfjorden" />
		<tag k="name:se" v="Olggosvuotna;Moskavuotna" />
		<tag k="natural" v="bay" />
		<tag k="ssr:stedsnr" v="686192" />
	</node>
	<node lat="69.94096388711954" lon="20.143036095816647" id="-63858">
		<tag k="alt_name" v="Kontesundskjeret" />
		<tag k="fixme" v="consider seamark:type=rock or natural=shoal" />
		<tag k="name" v="Kontesundskjæret" />
		<tag k="place" v="islet" />
		<tag k="ssr:stedsnr" v="687734" />
	</node>
	<node lat="69.51343611567769" lon="20.286386100624608" id="-63860">
		<tag k="name" v="Innersorra" />
		<tag k="name:se" v="Innersorra" />
		<tag k="natural" v="shoal" />
		<tag k="place" v="locality" />
		<tag k="ssr:stedsnr" v="693270" />
	</node>
	<node lat="69.58487777864276" lon="20.140574974858048" id="-63869">
		<tag k="name" v="Kjoskråa" />
		<tag k="natural" v="bay" />
		<tag k="ssr:stedsnr" v="724675" />
	</node>
	<node lat="69.54790278174178" lon="20.227613882314955" id="-63872">
		<tag k="name" v="Olderneset" />
		<tag k="natural" v="cape" />
		<tag k="ssr:stedsnr" v="724805" />
	</node>
	<node lat="69.67364166567383" lon="20.37998888435919" id="-63875">
		<tag k="name" v="Kvenneset" />
		<tag k="natural" v="cape" />
		<tag k="ssr:stedsnr" v="726004" />
	</node>
	<node lat="69.63376944823456" lon="20.350536092347895" id="-63877">
		<tag k="name" v="Langvollbukta" />
		<tag k="natural" v="bay" />
		<tag k="ssr:stedsnr" v="726087" />
	</node>
	<node lat="69.69935555424705" lon="20.28228053606181" id="-63879">
		<tag k="loc_name:se" v="Stuoraklubbu" />
		<tag k="name" v="Storklubben" />
		<tag k="name:no" v="Storklubben" />
		<tag k="natural" v="cape" />
		<tag k="ssr:stedsnr" v="746007" />
	</node>
	<node lat="69.96636666959694" lon="20.313744424061483" id="-63887">
		<tag k="name" v="Kvalvikneset" />
		<tag k="natural" v="cape" />
		<tag k="ssr:stedsnr" v="753556" />
	</node>
	<node lat="70.02270555962153" lon="20.19651110877379" id="-63888">
		<tag k="name" v="Skarsdjupta" />
		<tag k="natural" v="shoal" />
		<tag k="ssr:stedsnr" v="753857" />
	</node>
	<node lat="69.68190833443325" lon="20.3170111040091" id="-63889">
		<tag k="name" v="Seigrunnen" />
		<tag k="natural" v="shoal" />
		<tag k="place" v="locality" />
		<tag k="ssr:stedsnr" v="754255" />
	</node>
	<node lat="69.52698611581052" lon="20.22462775480729" id="-63906">
		<tag k="name" v="Oksvikleira" />
		<tag k="natural" v="bay" />
		<tag k="ssr:stedsnr" v="906593" />
	</node>
	<node lat="69.58428888543037" lon="20.10702497681847" id="-63910">
		<tag k="fixme" v="consider seamark:type=rock or natural=shoal" />
		<tag k="name" v="Skjæret" />
		<tag k="place" v="islet" />
		<tag k="ssr:stedsnr" v="906728" />
	</node>
	<node lat="69.54661667048104" lon="20.236813877270396" id="-63913">
		<tag k="name" v="Olderholmen" />
		<tag k="natural" v="cape" />
		<tag k="ssr:stedsnr" v="906827" />
	</node>
	<node lat="69.6608666633554" lon="20.368811084670376" id="-63915">
		<tag k="name" v="Tjuvbukta" />
		<tag k="natural" v="bay" />
		<tag k="ssr:stedsnr" v="906888" />
	</node>
	<node lat="69.67238333625517" lon="20.269802766183172" id="-63923">
		<tag k="loc_name:se" v="Skihpageađgi" />
		<tag k="name" v="Skipssteinen" />
		<tag k="name:no" v="Skipssteinen" />
		<tag k="natural" v="cape" />
		<tag k="ssr:stedsnr" v="908129" />
	</node>
	<node lat="69.58211388708256" lon="20.073466648999737" id="-63928">
		<tag k="name" v="Johamna" />
		<tag k="natural" v="bay" />
		<tag k="ssr:stedsnr" v="784551" />
	</node>
	<node lat="69.67950277698893" lon="20.26749442262329" id="-63948">
		<tag k="name" v="Henrikneset" />
		<tag k="natural" v="cape" />
		<tag k="ssr:stedsnr" v="786103" />
	</node>
	<node lat="69.65637500488546" lon="20.3497416490737" id="-63951">
		<tag k="name" v="Holmenden" />
		<tag k="natural" v="cape" />
		<tag k="ssr:stedsnr" v="785900" />
	</node>
	<node lat="69.47096667067395" lon="20.23873887322138" id="-63956">
		<tag k="name" v="Lillefjæra" />
		<tag k="natural" v="bay" />
		<tag k="ssr:stedsnr" v="786801" />
	</node>
	<node lat="69.90648333088619" lon="20.1567666428549" id="-63957">
		<tag k="name" v="Hamnebukta" />
		<tag k="natural" v="bay" />
		<tag k="ssr:stedsnr" v="786864" />
	</node>
	<node lat="69.86433611286412" lon="20.066141658897823" id="-63961">
		<tag k="name" v="Slettvollneset" />
		<tag k="natural" v="cape" />
		<tag k="ssr:stedsnr" v="808692" />
	</node>
	<node lat="69.91540832896622" lon="20.173852773536368" id="-63963">
		<tag k="alt_name:no" v="Nordlenangen" />
		<tag k="bay" v="fjord" />
		<tag k="name" v="Nord-Lenangen - Davit Ittarvuotna" />
		<tag k="name:no" v="Nord-Lenangen" />
		<tag k="name:se" v="Davit Ittarvuotna" />
		<tag k="natural" v="bay" />
		<tag k="ssr:stedsnr" v="808740" />
	</node>
	<node lat="69.42740277580474" lon="20.16528053709026" id="-63966">
		<tag k="fixme" v="consider seamark:type=rock or natural=shoal" />
		<tag k="name" v="Kvitebergskjæret - Vilgesorritlássá" />
		<tag k="name:no" v="Kvitebergskjæret" />
		<tag k="name:se" v="Vilgesorritlássá" />
		<tag k="place" v="islet" />
		<tag k="ssr:stedsnr" v="813931" />
	</node>
	<node lat="69.45130833447193" lon="20.160624989752446" id="-63967">
		<tag k="name" v="Steinneset" />
		<tag k="natural" v="cape" />
		<tag k="ssr:stedsnr" v="813944" />
	</node>
	<node lat="69.9017805584371" lon="20.382141648619484" id="-63969">
		<tag k="name" v="Gammvikgrunnen" />
		<tag k="natural" v="shoal" />
		<tag k="ssr:stedsnr" v="814727" />
	</node>
	<node lat="69.53735555266636" lon="20.27551664905616" id="-63970">
		<tag k="name" v="Karnesholman - Gárnjárggasullot" />
		<tag k="name:no" v="Karnesholman" />
		<tag k="name:se" v="Gárnjárggasullot" />
		<tag k="place" v="islet" />
		<tag k="ssr:stedsnr" v="815235" />
	</node>
	<node lat="69.62128055444683" lon="19.83716942384518" id="-63971">
		<tag k="name" v="Dáktenjárga" />
		<tag k="name:se" v="Dáktenjárga" />
		<tag k="natural" v="cape" />
		<tag k="ssr:stedsnr" v="829003" />
	</node>
	<node lat="69.64788055536997" lon="19.814683316785246" id="-63980">
		<tag k="name" v="Kvalvika" />
		<tag k="natural" v="bay" />
		<tag k="ssr:stedsnr" v="846280" />
	</node>
	<node lat="69.85611944550189" lon="20.19543888710275" id="-63981">
		<tag k="name" v="Nordlenangsbotn" />
		<tag k="natural" v="bay" />
		<tag k="ssr:stedsnr" v="846625" />
	</node>
	<node lat="69.67770832929772" lon="20.349011101596286" id="-63985">
		<tag k="name" v="Stranda" />
		<tag k="natural" v="beach" />
		<tag k="ssr:stedsnr" v="847003" />
	</node>
	<node lat="69.49149999696392" lon="20.193658319069808" id="-63995">
		<tag k="name" v="Polleidet - Vuoivuončorru - Taipale" />
		<tag k="name:fkv" v="Taipale" />
		<tag k="name:no" v="Polleidet" />
		<tag k="name:se" v="Vuoivuončorru" />
		<tag k="place" v="locality" />
		<tag k="ssr:stedsnr" v="929257" />
	</node>
	<node lat="69.85848333207404" lon="20.05820275160002" id="-63999">
		<tag k="name" v="Bærneset" />
		<tag k="natural" v="cape" />
		<tag k="ssr:stedsnr" v="929682" />
	</node>
	<node lat="69.6004722202632" lon="19.952374998449788" id="-64005">
		<tag k="alt_name" v="Ol-Pålsabukta" />
		<tag k="name" v="Ola Pålsabukta" />
		<tag k="natural" v="bay" />
		<tag k="ssr:stedsnr" v="929974" />
	</node>
	<node lat="69.53438610961292" lon="20.26905554797297" id="-64006">
		<tag k="name" v="Larsholmen" />
		<tag k="place" v="islet" />
		<tag k="ssr:stedsnr" v="929941" />
	</node>
	<node lat="69.94196111187665" lon="20.154622202227255" id="-64027">
		<tag k="name" v="Nordlenangsneset" />
		<tag k="natural" v="cape" />
		<tag k="ssr:stedsnr" v="869675" />
	</node>
	<node lat="69.96830277809639" lon="20.306644417431645" id="-64028">
		<tag k="name" v="Makkhellarvika" />
		<tag k="natural" v="bay" />
		<tag k="ssr:stedsnr" v="869678" />
	</node>
	<node lat="69.89379722043661" lon="20.389258303801792" id="-64030">
		<tag k="name" v="Tromma" />
		<tag k="natural" v="cape" />
		<tag k="ssr:stedsnr" v="869721" />
	</node>
	<node lat="69.41142500284563" lon="20.154813872353184" id="-64038">
		<tag k="name" v="Bergodden - Orritgeahči" />
		<tag k="name:no" v="Bergodden" />
		<tag k="name:se" v="Orritgeahči" />
		<tag k="natural" v="cape" />
		<tag k="ssr:stedsnr" v="876034" />
	</node>
	<node lat="69.49913888903795" lon="20.215922213493503" id="-64040">
		<tag k="fixme" v="consider seamark:type=rock or natural=shoal" />
		<tag k="name" v="Kristoskjæret - Kristanlaassa" />
		<tag k="name:fkv" v="Kristanlaassa" />
		<tag k="name:no" v="Kristoskjæret" />
		<tag k="place" v="islet" />
		<tag k="ssr:stedsnr" v="935010" />
	</node>
	<node lat="69.45954166733083" lon="20.21020554899079" id="-64042">
		<tag k="name" v="Sandvika - Hietalahti" />
		<tag k="name:fkv" v="Hietalahti" />
		<tag k="name:no" v="Sandvika" />
		<tag k="natural" v="bay" />
		<tag k="ssr:stedsnr" v="935126" />
	</node>
	<node lat="69.771308332238" lon="19.851588879886688" id="-64043">
		<tag k="name" v="Flaskeforodden" />
		<tag k="natural" v="cape" />
		<tag k="ssr:stedsnr" v="935222" />
	</node>
	<node lat="69.7193777757812" lon="19.811577753386945" id="-64044">
		<tag k="name" v="Langstranda" />
		<tag k="natural" v="beach" />
		<tag k="ssr:stedsnr" v="906122" />
	</node>
	<node lat="69.58718889174942" lon="20.033744441431207" id="-64047">
		<tag k="name" v="Korkorneset" />
		<tag k="natural" v="cape" />
		<tag k="ssr:stedsnr" v="906100" />
	</node>
	<node lat="69.69011944194244" lon="19.771666653896183" id="-64051">
		<tag k="fixme" v="consider seamark:type=rock or natural=shoal" />
		<tag k="name" v="Skjellsteinen" />
		<tag k="place" v="islet" />
		<tag k="ssr:stedsnr" v="906304" />
	</node>
	<node lat="69.91937777911228" lon="20.11737499967688" id="-64056">
		<tag k="name" v="Bomsteinlandet" />
		<tag k="natural" v="beach" />
		<tag k="ssr:stedsnr" v="906669" />
	</node>
	<node lat="69.9434388936354" lon="20.158088870855728" id="-64068">
		<tag k="name" v="Nesekvalen" />
		<tag k="natural" v="bay" />
		<tag k="ssr:stedsnr" v="908857" />
	</node>
	<node lat="69.65395555373264" lon="20.299199970885326" id="-64081">
		<tag k="loc_name:se" v="Hearraboađđu" />
		<tag k="name" v="Herrebåen" />
		<tag k="name:no" v="Herrebåen" />
		<tag k="natural" v="shoal" />
		<tag k="place" v="locality" />
		<tag k="ssr:stedsnr" v="936185" />
	</node>
	<node lat="69.68625278173477" lon="20.36844166129056" id="-64082">
		<tag k="loc_name:se" v="Gutnar" />
		<tag k="name" v="Gunnargrunnen" />
		<tag k="name:no" v="Gunnargrunnen" />
		<tag k="natural" v="shoal" />
		<tag k="place" v="locality" />
		<tag k="ssr:stedsnr" v="936188" />
	</node>
	<node lat="69.7086416638837" lon="20.411211092453197" id="-64083">
		<tag k="name" v="Litlegrunnen" />
		<tag k="natural" v="shoal" />
		<tag k="place" v="locality" />
		<tag k="ssr:stedsnr" v="936189" />
	</node>
	<node lat="69.86295833718036" lon="19.98975277592438" id="-64084">
		<tag k="name" v="Seiskallen" />
		<tag k="natural" v="shoal" />
		<tag k="ssr:stedsnr" v="936514" />
	</node>
	<node lat="69.86105833383807" lon="20.059883313392813" id="-64090">
		<tag k="name" v="Langbukta" />
		<tag k="natural" v="bay" />
		<tag k="ssr:stedsnr" v="966707" />
	</node>
	<node lat="69.65261110836505" lon="20.285533327526085" id="-64092">
		<tag k="fixme" v="consider seamark:type=rock or natural=shoal" />
		<tag k="name" v="Herreskjæret" />
		<tag k="place" v="islet" />
		<tag k="ssr:stedsnr" v="966897" />
	</node>
	<node lat="69.82524444151453" lon="19.946841640844582" id="-64094">
		<tag k="name" v="Ravikneset" />
		<tag k="natural" v="cape" />
		<tag k="ssr:stedsnr" v="966902" />
	</node>
	<node lat="69.60572221894553" lon="20.328222216331127" id="-64104">
		<tag k="name" v="Rommenarko" />
		<tag k="name:se" v="Rommenarko" />
		<tag k="natural" v="bay" />
		<tag k="ssr:stedsnr" v="967991" />
	</node>
	<node lat="69.67879444119087" lon="20.349236104522575" id="-64111">
		<tag k="name" v="Vågen" />
		<tag k="natural" v="bay" />
		<tag k="ssr:stedsnr" v="968007" />
	</node>
	<node lat="69.46989444459582" lon="20.237599990140065" id="-64115">
		<tag k="name" v="Innerneset" />
		<tag k="natural" v="cape" />
		<tag k="ssr:stedsnr" v="968817" />
	</node>
	<node lat="69.85116991502743" lon="20.051187732453446" id="-64120">
		<tag k="name" v="Hesjebukta - Heaskebuktu" />
		<tag k="name:no" v="Hesjebukta" />
		<tag k="name:se" v="Heaskebuktu" />
		<tag k="natural" v="bay" />
		<tag k="ssr:stedsnr" v="990654" />
	</node>
	<node lat="69.68100000260769" lon="20.34950275361222" id="-64123">
		<tag k="name" v="Bertholmen" />
		<tag k="place" v="islet" />
		<tag k="ssr:stedsnr" v="18018" />
	</node>
	<node lat="69.63716111302458" lon="20.348397198649383" id="-64136">
		<tag k="name" v="Årøybuktneset - Oađámašnjárga" />
		<tag k="name:no" v="Årøybuktneset" />
		<tag k="name:se" v="Oađámašnjárga" />
		<tag k="natural" v="cape" />
		<tag k="ssr:stedsnr" v="19034" />
	</node>
	<node lat="69.46495833388967" lon="20.202980530717777" id="-64138">
		<tag k="alt_name" v="Forhamna, indre;Indre Forrahamn" />
		<tag k="fixme" v="multiple name tags, choose one and add the other to alt_name" />
		<tag k="name" v="Lilleforhamna;Indre Forhamna" />
		<tag k="natural" v="bay" />
		<tag k="ssr:stedsnr" v="19278" />
	</node>
	<node lat="69.46032500212156" lon="20.219091648148936" id="-64140">
		<tag k="alt_name:no" v="Masternes" />
		<tag k="name" v="Masterneset - Sivlonjárga" />
		<tag k="name:no" v="Masterneset" />
		<tag k="name:se" v="Sivlonjárga" />
		<tag k="natural" v="cape" />
		<tag k="ssr:stedsnr" v="19281" />
	</node>
	<node lat="69.46775000167281" lon="20.23435554850453" id="-64141">
		<tag k="name" v="Båtneset - Vanasbávttinjárga" />
		<tag k="name:no" v="Båtneset" />
		<tag k="name:se" v="Vanasbávttinjárga" />
		<tag k="natural" v="cape" />
		<tag k="ssr:stedsnr" v="19282" />
	</node>
	<node lat="69.88065833157584" lon="20.17251110311753" id="-64142">
		<tag k="name" v="Kobbeneset" />
		<tag k="natural" v="cape" />
		<tag k="ssr:stedsnr" v="19453" />
	</node>
	<node lat="69.81125555510478" lon="19.996744421862115" id="-64145">
		<tag k="bay" v="fjord" />
		<tag k="name" v="Sør-Lenangen - Siskkit Ittarvuotna" />
		<tag k="name:no" v="Sør-Lenangen" />
		<tag k="name:se" v="Siskkit Ittarvuotna" />
		<tag k="natural" v="bay" />
		<tag k="ssr:stedsnr" v="19664" />
	</node>
	<node lat="69.93836388703376" lon="20.202852760136164" id="-64152">
		<tag k="name" v="Seglneset" />
		<tag k="natural" v="cape" />
		<tag k="ssr:stedsnr" v="20753" />
	</node>
	<node lat="69.7239749978955" lon="19.818313877768325" id="-64154">
		<tag k="name" v="Storsteinen" />
		<tag k="natural" v="cape" />
		<tag k="ssr:stedsnr" v="25257" />
	</node>
	<node lat="69.94789722554586" lon="20.20926386646168" id="-64158">
		<tag k="fixme" v="consider seamark:type=rock or natural=shoal" />
		<tag k="name" v="Russelvskjæret" />
		<tag k="place" v="islet" />
		<tag k="ssr:stedsnr" v="25465" />
	</node>
	<node lat="69.87263889032974" lon="20.386524980160633" id="-64159">
		<tag k="name" v="Nordavindshamna" />
		<tag k="natural" v="bay" />
		<tag k="ssr:stedsnr" v="25470" />
	</node>
	<node lat="69.58657499717786" lon="20.27603054021277" id="-64160">
		<tag k="name" v="Rottenvika - Guohcavuohppi" />
		<tag k="name:no" v="Rottenvika" />
		<tag k="name:se" v="Guohcavuohppi" />
		<tag k="natural" v="bay" />
		<tag k="ssr:stedsnr" v="26233" />
	</node>
	<node lat="69.50413611590182" lon="20.256138871548647" id="-64161">
		<tag k="name" v="Kvalvikøra" />
		<tag k="natural" v="shoal" />
		<tag k="place" v="locality" />
		<tag k="ssr:stedsnr" v="26263" />
	</node>
	<node lat="69.53824722552936" lon="20.25920831828348" id="-64162">
		<tag k="name" v="Tjønna" />
		<tag k="natural" v="shoal" />
		<tag k="place" v="locality" />
		<tag k="ssr:stedsnr" v="26265" />
	</node>
	<node lat="69.43083333550435" lon="20.15509720051848" id="-64170">
		<tag k="name" v="Jananjunni" />
		<tag k="name:se" v="Jananjunni" />
		<tag k="natural" v="cape" />
		<tag k="ssr:stedsnr" v="56588" />
	</node>
	<node lat="69.49647778191024" lon="20.211174998814947" id="-64171">
		<tag k="name" v="Vuohppi" />
		<tag k="name:se" v="Vuohppi" />
		<tag k="natural" v="bay" />
		<tag k="ssr:stedsnr" v="56602" />
	</node>
	<node lat="69.6500083298522" lon="20.296597203677827" id="-64173">
		<tag k="fixme" v="consider seamark:type=rock or natural=shoal" />
		<tag k="name" v="Joskjæret" />
		<tag k="place" v="islet" />
		<tag k="ssr:stedsnr" v="56897" />
	</node>
	<node lat="69.6593500009212" lon="20.273705545435153" id="-64179">
		<tag k="name" v="Fastdalsbukta" />
		<tag k="natural" v="bay" />
		<tag k="ssr:stedsnr" v="56925" />
	</node>
	<node lat="69.83053055285863" lon="19.962122220165018" id="-64181">
		<tag k="name" v="Breistrandneset" />
		<tag k="natural" v="cape" />
		<tag k="ssr:stedsnr" v="56908" />
	</node>
	<node lat="69.76354722019668" lon="19.97412777325536" id="-64182">
		<tag k="name" v="Rundneset" />
		<tag k="natural" v="cape" />
		<tag k="ssr:stedsnr" v="56915" />
	</node>
	<node lat="69.63927222034533" lon="20.34189442462446" id="-64184">
		<tag k="name" v="Mellavika" />
		<tag k="natural" v="bay" />
		<tag k="ssr:stedsnr" v="57065" />
	</node>
	<node lat="69.66920833051019" lon="20.3378472110446" id="-64192">
		<tag k="fixme" v="consider seamark:type=rock or natural=shoal" />
		<tag k="name" v="Sandskjæret" />
		<tag k="place" v="islet" />
		<tag k="ssr:stedsnr" v="57898" />
	</node>
	<node lat="69.58629722266676" lon="20.304555551581437" id="-64198">
		<tag k="name" v="Leirbukta" />
		<tag k="natural" v="bay" />
		<tag k="ssr:stedsnr" v="57952" />
	</node>
	<node lat="69.88106666434234" lon="20.39319721205465" id="-64205">
		<tag k="name" v="Skappirvi" />
		<tag k="natural" v="bay" />
		<tag k="ssr:stedsnr" v="58233" />
	</node>
	<node lat="69.89126388797398" lon="20.175586097142542" id="-64208">
		<tag k="name" v="Straumsnesbukta" />
		<tag k="natural" v="bay" />
		<tag k="ssr:stedsnr" v="58854" />
	</node>
	<node lat="69.90354166985097" lon="20.154866642011473" id="-64209">
		<tag k="name" v="Åsbukta" />
		<tag k="natural" v="bay" />
		<tag k="ssr:stedsnr" v="58858" />
	</node>
	<node lat="69.7194055538696" lon="20.28576386698247" id="-64212">
		<tag k="name" v="Hellarberget" />
		<tag k="natural" v="cape" />
		<tag k="ssr:stedsnr" v="79020" />
	</node>
	<node lat="69.55323610769469" lon="20.226855540216086" id="-64221">
		<tag k="alt_name" v="Geitnes" />
		<tag k="name" v="Geitneset" />
		<tag k="natural" v="cape" />
		<tag k="ssr:stedsnr" v="79906" />
	</node>
	<node lat="69.6163749987474" lon="19.861686109830575" id="-64229">
		<tag k="name" v="Neset" />
		<tag k="natural" v="cape" />
		<tag k="ssr:stedsnr" v="79985" />
	</node>
	<node lat="69.61038611001051" lon="20.339622215738665" id="-64231">
		<tag k="name" v="Storsteinneset" />
		<tag k="natural" v="cape" />
		<tag k="ssr:stedsnr" v="80000" />
	</node>
	<node lat="69.52523333359447" lon="20.232119435943233" id="-64232">
		<tag k="alt_name:no" v="Naustnes" />
		<tag k="name" v="Naustneset - Návstenjárga - Naustiniemi" />
		<tag k="name:fkv" v="Naustiniemi" />
		<tag k="name:no" v="Naustneset" />
		<tag k="name:se" v="Návstenjárga" />
		<tag k="natural" v="cape" />
		<tag k="ssr:stedsnr" v="79915" />
	</node>
	<node lat="69.4678722270987" lon="20.19038053027317" id="-64243">
		<tag k="alt_name" v="Skarveskjæret" />
		<tag k="fixme" v="consider seamark:type=rock or natural=shoal" />
		<tag k="name" v="Skarvskjæret" />
		<tag k="place" v="islet" />
		<tag k="ssr:stedsnr" v="85568" />
	</node>
	<node lat="69.88996666771736" lon="20.1648999982983" id="-64249">
		<tag k="name" v="Settneset" />
		<tag k="natural" v="cape" />
		<tag k="ssr:stedsnr" v="86489" />
	</node>
	<node lat="69.92298889283033" lon="20.165122199975976" id="-64250">
		<tag k="alt_name" v="Gammelheimøra" />
		<tag k="name" v="Gammelhjemsøra" />
		<tag k="natural" v="beach" />
		<tag k="ssr:stedsnr" v="86495" />
	</node>
	<node lat="69.65315833487776" lon="20.335819427656684" id="-64251">
		<tag k="alt_name:no" v="Skarveskjæret" />
		<tag k="fixme" v="consider seamark:type=rock or natural=shoal" />
		<tag k="loc_name:se" v="Skárfelássá" />
		<tag k="name" v="Skarvskjæret" />
		<tag k="name:no" v="Skarvskjæret" />
		<tag k="place" v="islet" />
		<tag k="ssr:stedsnr" v="87212" />
	</node>
	<node lat="69.83549166345325" lon="19.96825554801795" id="-64254">
		<tag k="alt_name" v="Breidsetneset" />
		<tag k="name" v="Breisetneset" />
		<tag k="natural" v="cape" />
		<tag k="ssr:stedsnr" v="113696" />
	</node>
	<node lat="69.78869444177892" lon="19.96220832142393" id="-64261">
		<tag k="name" v="Kuræsbukta" />
		<tag k="natural" v="bay" />
		<tag k="ssr:stedsnr" v="117093" />
	</node>
	<node lat="69.77331944175958" lon="19.854708322574563" id="-64262">
		<tag k="name" v="Flaskeforet" />
		<tag k="natural" v="cape" />
		<tag k="ssr:stedsnr" v="117160" />
	</node>
	<node lat="69.83651667159046" lon="20.03908886710993" id="-64287">
		<tag k="name" v="Karl-Jordneset" />
		<tag k="natural" v="cape" />
		<tag k="ssr:stedsnr" v="119056" />
	</node>
	<node lat="69.92854722458445" lon="20.35367775727007" id="-64289">
		<tag k="name" v="Sanden" />
		<tag k="natural" v="beach" />
		<tag k="ssr:stedsnr" v="119192" />
	</node>
	<node lat="69.53120833578953" lon="20.232724979794607" id="-64290">
		<tag k="name" v="Oksvikbukta" />
		<tag k="natural" v="bay" />
		<tag k="ssr:stedsnr" v="119837" />
	</node>
	<node lat="69.890069447224" lon="20.099608310198157" id="-64291">
		<tag k="name" v="Gårdsneset" />
		<tag k="natural" v="cape" />
		<tag k="ssr:stedsnr" v="119864" />
	</node>
	<node lat="69.53534166915853" lon="20.27860831149449" id="-64308">
		<tag k="name" v="Mosesholmen" />
		<tag k="place" v="islet" />
		<tag k="ssr:stedsnr" v="139914" />
	</node>
	<node lat="69.46382500193604" lon="20.226061092122677" id="-64313">
		<tag k="name" v="Klubbneset - Guolpput" />
		<tag k="name:no" v="Klubbneset" />
		<tag k="name:se" v="Guolpput" />
		<tag k="natural" v="cape" />
		<tag k="ssr:stedsnr" v="140261" />
	</node>
	<node lat="69.76787222406737" lon="20.306641643161385" id="-64318">
		<tag k="name" v="Láttu" />
		<tag k="name:se" v="Láttu" />
		<tag k="natural" v="bay" />
		<tag k="ssr:stedsnr" v="140633" />
	</node>
	<node lat="69.93793333483798" lon="20.163194431532165" id="-64319">
		<tag k="fixme" v="consider seamark:type=rock or natural=shoal" />
		<tag k="name" v="Kvitsteinen" />
		<tag k="place" v="islet" />
		<tag k="ssr:stedsnr" v="140718" />
	</node>
	<node lat="69.8856222191964" lon="20.092555547055472" id="-64321">
		<tag k="name" v="Hesjeneset" />
		<tag k="natural" v="cape" />
		<tag k="ssr:stedsnr" v="140682" />
	</node>
	<node lat="69.5974694423196" lon="19.963497204036607" id="-64323">
		<tag k="name" v="Tytebærvika" />
		<tag k="natural" v="bay" />
		<tag k="ssr:stedsnr" v="140980" />
	</node>
	<node lat="69.93512500332857" lon="20.163752760477248" id="-64324">
		<tag k="name" v="Småseibergan" />
		<tag k="natural" v="cape" />
		<tag k="ssr:stedsnr" v="145498" />
	</node>
	<node lat="69.4575944485183" lon="20.248405541196195" id="-64325">
		<tag k="name" v="Båtberggrunnen" />
		<tag k="natural" v="shoal" />
		<tag k="place" v="locality" />
		<tag k="ssr:stedsnr" v="145955" />
	</node>
	<node lat="69.90027222176023" lon="20.15893886362823" id="-64327">
		<tag k="name" v="Mellaholmen" />
		<tag k="place" v="islet" />
		<tag k="ssr:stedsnr" v="146437" />
	</node>
	<node lat="69.8637111139571" lon="20.194627777261687" id="-64328">
		<tag k="name" v="Botn" />
		<tag k="natural" v="bay" />
		<tag k="ssr:stedsnr" v="146647" />
	</node>
	<node lat="69.78233610932533" lon="20.315863875731807" id="-64329">
		<tag k="name" v="Nordavindshamna" />
		<tag k="natural" v="bay" />
		<tag k="ssr:stedsnr" v="146680" />
	</node>
	<node lat="69.52612777708204" lon="20.23549444118306" id="-64330">
		<tag k="fixme" v="consider seamark:type=rock or natural=shoal" />
		<tag k="name" v="Naustnesskjæret" />
		<tag k="place" v="islet" />
		<tag k="ssr:stedsnr" v="147243" />
	</node>
	<node lat="69.88558611017307" lon="20.273833314628867" id="-64331">
		<tag k="name" v="Lyngenhalvøya - Ittunjárga" />
		<tag k="name:no" v="Lyngenhalvøya" />
		<tag k="name:se" v="Ittunjárga" />
		<tag k="natural" v="cape" />
		<tag k="ssr:stedsnr" v="152638" />
	</node>
	<node lat="69.78746944434747" lon="19.905119439158277" id="-64341">
		<tag k="fixme" v="consider seamark:type=rock or natural=shoal" />
		<tag k="name" v="Tangskjæret" />
		<tag k="place" v="islet" />
		<tag k="ssr:stedsnr" v="177077" />
	</node>
	<node lat="69.4668611091258" lon="20.170108315400096" id="-64345">
		<tag k="name" v="Josva" />
		<tag k="natural" v="cape" />
		<tag k="ssr:stedsnr" v="177581" />
	</node>
	<node lat="69.58644721915242" lon="20.310844433132655" id="-64368">
		<tag k="name" v="Nordavindshamna" />
		<tag k="natural" v="bay" />
		<tag k="ssr:stedsnr" v="178938" />
	</node>
	<node lat="69.60274722466806" lon="20.32139998928324" id="-64380">
		<tag k="fixme" v="consider seamark:type=rock or natural=shoal" />
		<tag k="name" v="Monseskjæret" />
		<tag k="place" v="islet" />
		<tag k="ssr:stedsnr" v="178948" />
	</node>
	<node lat="69.67695277413317" lon="20.33406943614529" id="-64382">
		<tag k="fixme" v="consider seamark:type=rock or natural=shoal" />
		<tag k="name" v="Skjæran" />
		<tag k="place" v="islet" />
		<tag k="ssr:stedsnr" v="180121" />
	</node>
	<node lat="69.63549999606239" lon="20.350327769687862" id="-64383">
		<tag k="name" v="Trollneset" />
		<tag k="natural" v="cape" />
		<tag k="ssr:stedsnr" v="180092" />
	</node>
	<node lat="69.41479444824499" lon="20.154427758129987" id="-64390">
		<tag k="alt_name:no" v="Kabelbukta, indre;Indre Kabelvik" />
		<tag k="name" v="Indre Kabelbukt - Gáhpoluokta" />
		<tag k="name:no" v="Indre Kabelbukt" />
		<tag k="name:se" v="Gáhpoluokta" />
		<tag k="natural" v="bay" />
		<tag k="ssr:stedsnr" v="200273" />
	</node>
	<node lat="69.77967777947062" lon="20.382683316093747" id="-64391">
		<tag k="alt_name:no" v="Lyngenfjorden" />
		<tag k="bay" v="fjord" />
		<tag k="name" v="Lyngen - Ivguvuotna - Yykeänvuono" />
		<tag k="name:fkv" v="Yykeänvuono" />
		<tag k="name:no" v="Lyngen" />
		<tag k="name:se" v="Ivguvuotna" />
		<tag k="natural" v="bay" />
		<tag k="ssr:stedsnr" v="200243" />
	</node>
	<node lat="69.77882500318665" lon="19.869961088241446" id="-64398">
		<tag k="alt_name" v="Skavika" />
		<tag k="name" v="Skavvika" />
		<tag k="natural" v="bay" />
		<tag k="ssr:stedsnr" v="201599" />
	</node>
	<node lat="69.93952222654227" lon="20.348219419791803" id="-64415">
		<tag k="name" v="Hellarvikneset" />
		<tag k="natural" v="cape" />
		<tag k="ssr:stedsnr" v="202736" />
	</node>
	<node lat="69.58383055302899" lon="20.30500831265148" id="-64416">
		<tag k="fixme" v="consider seamark:type=rock or natural=shoal" />
		<tag k="name" v="Kvitbergskjæret" />
		<tag k="place" v="islet" />
		<tag k="ssr:stedsnr" v="208211" />
	</node>
	<node lat="69.95399722541082" lon="20.22767221597542" id="-64417">
		<tag k="name" v="Langørbukta" />
		<tag k="natural" v="bay" />
		<tag k="ssr:stedsnr" v="207437" />
	</node>
	<node lat="69.92195833483036" lon="20.1863138703639" id="-64418">
		<tag k="name" v="Kjerringbukta" />
		<tag k="natural" v="bay" />
		<tag k="ssr:stedsnr" v="207451" />
	</node>
	<node lat="69.53242499777315" lon="20.252466650291577" id="-64421">
		<tag k="name" v="Flua" />
		<tag k="natural" v="shoal" />
		<tag k="place" v="locality" />
		<tag k="ssr:stedsnr" v="208240" />
	</node>
	<node lat="69.78353611135763" lon="19.90141944396474" id="-64425">
		<tag k="fixme" v="consider seamark:type=rock or natural=shoal" />
		<tag k="name" v="Marenskjæret" />
		<tag k="place" v="islet" />
		<tag k="ssr:stedsnr" v="299072" />
	</node>
	<node lat="69.59634444254583" lon="19.96363610407509" id="-64426">
		<tag k="fixme" v="consider seamark:type=rock or natural=shoal" />
		<tag k="name" v="Skjæret" />
		<tag k="place" v="islet" />
		<tag k="ssr:stedsnr" v="299089" />
	</node>
	<node lat="69.78081110846642" lon="19.878116649328906" id="-64434">
		<tag k="name" v="Laupvika" />
		<tag k="natural" v="bay" />
		<tag k="ssr:stedsnr" v="299131" />
	</node>
	<node lat="69.46024722459595" lon="20.169111106950535" id="-64446">
		<tag k="name" v="Innerlaneset" />
		<tag k="natural" v="cape" />
		<tag k="ssr:stedsnr" v="299567" />
	</node>
	<node lat="69.55964166398712" lon="20.223263873079336" id="-64452">
		<tag k="name" v="Karnesbukta" />
		<tag k="natural" v="bay" />
		<tag k="ssr:stedsnr" v="299768" />
	</node>
	<node lat="69.59336111125005" lon="20.31976941552569" id="-64453">
		<tag k="fixme" v="consider seamark:type=rock or natural=shoal" />
		<tag k="name" v="Strandskjæret" />
		<tag k="place" v="islet" />
		<tag k="ssr:stedsnr" v="299949" />
	</node>
	<node lat="69.65742222050113" lon="20.275472202375592" id="-64460">
		<tag k="name" v="Fastdalsøra" />
		<tag k="natural" v="cape" />
		<tag k="ssr:stedsnr" v="299896" />
	</node>
	<node lat="69.96956667025025" lon="20.253363885292284" id="-64463">
		<tag k="name" v="Gamneset" />
		<tag k="natural" v="cape" />
		<tag k="ssr:stedsnr" v="301046" />
	</node>
	<node lat="69.67786110941144" lon="20.376561081852422" id="-64464">
		<tag k="fixme" v="consider seamark:type=rock or natural=shoal" />
		<tag k="name" v="Karlskjæran" />
		<tag k="place" v="islet" />
		<tag k="ssr:stedsnr" v="301007" />
	</node>
	<node lat="69.68239166534812" lon="20.347086083547413" id="-64466">
		<tag k="name" v="Bertholmsnaget" />
		<tag k="natural" v="cape" />
		<tag k="ssr:stedsnr" v="301111" />
	</node>
	<node lat="69.84461944804696" lon="19.99136109927509" id="-64470">
		<tag k="name" v="Oterhollet" />
		<tag k="natural" v="bay" />
		<tag k="ssr:stedsnr" v="301117" />
	</node>
	<node lat="69.8433305515386" lon="19.99051110314539" id="-64471">
		<tag k="name" v="Hesteklipa" />
		<tag k="natural" v="bay" />
		<tag k="ssr:stedsnr" v="301118" />
	</node>
	<node lat="69.58413611472447" lon="20.29342497590189" id="-64479">
		<tag k="name" v="Solpen" />
		<tag k="natural" v="cape" />
		<tag k="ssr:stedsnr" v="321949" />
	</node>
	<node lat="69.6654277759674" lon="20.373286085220133" id="-64482">
		<tag k="fixme" v="multiple name tags, choose one and add the other to alt_name" />
		<tag k="name" v="Lomnes;Ytre Moltebærneset" />
		<tag k="natural" v="cape" />
		<tag k="ssr:stedsnr" v="322057" />
	</node>
	<node lat="69.79169999693" lon="19.908599978111965" id="-64486">
		<tag k="alt_name" v="Mikkelvik" />
		<tag k="name" v="Mikkelvika" />
		<tag k="natural" v="bay" />
		<tag k="ssr:stedsnr" v="322672" />
	</node>
	<node lat="69.95753611405235" lon="20.237713884450205" id="-64496">
		<tag k="alt_name" v="Gråsteinan" />
		<tag k="fixme" v="consider seamark:type=rock or natural=shoal" />
		<tag k="name" v="Gråsteinen" />
		<tag k="place" v="islet" />
		<tag k="ssr:stedsnr" v="323668" />
	</node>
	<node lat="69.8142583332939" lon="20.02119998390687" id="-64497">
		<tag k="alt_name" v="Naustnes" />
		<tag k="name" v="Naustneset" />
		<tag k="natural" v="cape" />
		<tag k="ssr:stedsnr" v="323685" />
	</node>
	<node lat="69.94288333221843" lon="20.343463884521164" id="-64499">
		<tag k="loc_name" v="Álleluokta" />
		<tag k="name" v="Hellarvika" />
		<tag k="natural" v="bay" />
		<tag k="ssr:stedsnr" v="323717" />
	</node>
	<node lat="69.65084722409581" lon="20.306361107656464" id="-64501">
		<tag k="name" v="Drabenggrunnen" />
		<tag k="natural" v="shoal" />
		<tag k="place" v="locality" />
		<tag k="ssr:stedsnr" v="329217" />
	</node>
	<node lat="69.5174416656409" lon="20.290044429692166" id="-64502">
		<tag k="name" v="Sorra" />
		<tag k="name:se" v="Sorra" />
		<tag k="natural" v="shoal" />
		<tag k="place" v="locality" />
		<tag k="ssr:stedsnr" v="329242" />
	</node>
	<node lat="69.7885805544786" lon="19.906574994959477" id="-64513">
		<tag k="fixme" v="consider seamark:type=rock or natural=shoal" />
		<tag k="name" v="Storskjæret" />
		<tag k="place" v="islet" />
		<tag k="ssr:stedsnr" v="359077" />
	</node>
	<node lat="69.4586166644419" lon="20.16754164926875" id="-64515">
		<tag k="name" v="Innerlanesbukta" />
		<tag k="natural" v="bay" />
		<tag k="ssr:stedsnr" v="359579" />
	</node>
	<node lat="69.44899444724932" lon="20.15887498503939" id="-64519">
		<tag k="name" v="Gurpput" />
		<tag k="name:se" v="Gurpput" />
		<tag k="natural" v="cape" />
		<tag k="ssr:stedsnr" v="359622" />
	</node>
	<node lat="69.58349722181393" lon="20.098041647289453" id="-64522">
		<tag k="name" v="Brattstigneset" />
		<tag k="natural" v="cape" />
		<tag k="ssr:stedsnr" v="359744" />
	</node>
	<node lat="69.61468889302654" lon="20.34676943040839" id="-64553">
		<tag k="name" v="Indre Kristnesbukta" />
		<tag k="natural" v="bay" />
		<tag k="ssr:stedsnr" v="360982" />
	</node>
	<node lat="69.69573611419764" lon="20.278166645779358" id="-64573">
		<tag k="loc_name:se" v="Ruollanjárga" />
		<tag k="name" v="Trollneset" />
		<tag k="name:no" v="Trollneset" />
		<tag k="natural" v="cape" />
		<tag k="ssr:stedsnr" v="382001" />
	</node>
	<node lat="69.42943055700256" lon="20.15624999111572" id="-64580">
		<tag k="name" v="Klubbeneset" />
		<tag k="natural" v="cape" />
		<tag k="ssr:stedsnr" v="382262" />
	</node>
	<node lat="69.55761388897078" lon="20.25376664554716" id="-64584">
		<tag k="alt_name:no" v="Store Skogholmen;Store Skogsholmen" />
		<tag k="name" v="Storskogholmen - Finnasuolu - Nimismiehensaari" />
		<tag k="name:fkv" v="Nimismiehensaari" />
		<tag k="name:no" v="Storskogholmen" />
		<tag k="name:se" v="Finnasuolu" />
		<tag k="place" v="islet" />
		<tag k="ssr:stedsnr" v="382927" />
	</node>
	<node lat="69.59759444059681" lon="19.932591656766018" id="-64587">
		<tag k="alt_name:no" v="Kjosenfjorden" />
		<tag k="bay" v="fjord" />
		<tag k="name" v="Kjosen - Muotkevuotna - Muotkalahti" />
		<tag k="name:fkv" v="Muotkalahti" />
		<tag k="name:no" v="Kjosen" />
		<tag k="name:se" v="Muotkevuotna" />
		<tag k="natural" v="bay" />
		<tag k="ssr:stedsnr" v="382987" />
	</node>
	<node lat="69.84802778188316" lon="19.988466659389633" id="-64593">
		<tag k="alt_name" v="Lenangsskjeret" />
		<tag k="fixme" v="consider seamark:type=rock or natural=shoal" />
		<tag k="name" v="Lenangsskjæret" />
		<tag k="place" v="islet" />
		<tag k="ssr:stedsnr" v="383709" />
	</node>
	<node lat="69.78607777800943" lon="19.906016643126954" id="-64596">
		<tag k="fixme" v="consider seamark:type=rock or natural=shoal" />
		<tag k="name" v="Lattervikskjæret" />
		<tag k="place" v="islet" />
		<tag k="ssr:stedsnr" v="389155" />
	</node>
	<node lat="69.61338333698289" lon="19.863811097138846" id="-64599">
		<tag k="name" v="Storsteinneset" />
		<tag k="natural" v="cape" />
		<tag k="ssr:stedsnr" v="389379" />
	</node>
	<node lat="69.84772499728636" lon="19.989669429121307" id="-64600">
		<tag k="fixme" v="consider seamark:type=rock or natural=shoal" />
		<tag k="name" v="Nesseskjæran" />
		<tag k="place" v="islet" />
		<tag k="ssr:stedsnr" v="389476" />
	</node>
	<node lat="69.90652777826973" lon="20.165727776295178" id="-64601">
		<tag k="fixme" v="multiple name tags, choose one and add the other to alt_name; consider seamark:type=rock or natural=shoal" />
		<tag k="name" v="Hamneskjæret;Lykteskjæret" />
		<tag k="place" v="islet" />
		<tag k="ssr:stedsnr" v="389501" />
	</node>
	<node lat="69.60264166771775" lon="20.34407499387632" id="-64603">
		<tag k="name" v="Seljevikgrunnen" />
		<tag k="natural" v="shoal" />
		<tag k="place" v="locality" />
		<tag k="ssr:stedsnr" v="390226" />
	</node>
	<node lat="69.81498610861995" lon="19.98675275418797" id="-64605">
		<tag k="name" v="Ørbukta" />
		<tag k="natural" v="bay" />
		<tag k="ssr:stedsnr" v="391170" />
	</node>
	<node lat="69.89100555758013" lon="20.393536083458095" id="-64607">
		<tag k="name" v="Čakka" />
		<tag k="name:se" v="Čakka" />
		<tag k="natural" v="bay" />
		<tag k="ssr:stedsnr" v="412170" />
	</node>
	<node lat="69.5834138874651" lon="20.1366527534571" id="-64617">
		<tag k="name" v="Hysebukta" />
		<tag k="natural" v="bay" />
		<tag k="ssr:stedsnr" v="420720" />
	</node>
	<node lat="69.58743611484017" lon="20.098541665491567" id="-64618">
		<tag k="name" v="Leirhollet" />
		<tag k="natural" v="bay" />
		<tag k="ssr:stedsnr" v="420759" />
	</node>
	<node lat="69.58202499603503" lon="20.06162776276127" id="-64619">
		<tag k="name" v="Storurneset" />
		<tag k="natural" v="cape" />
		<tag k="ssr:stedsnr" v="420571" />
	</node>
	<node lat="69.64080833121486" lon="20.333605541302724" id="-64623">
		<tag k="name" v="Årøybukta - Luoktabahta" />
		<tag k="name:no" v="Årøybukta" />
		<tag k="name:se" v="Luoktabahta" />
		<tag k="natural" v="bay" />
		<tag k="ssr:stedsnr" v="421062" />
	</node>
	<node lat="69.63977500256256" lon="20.335286097110814" id="-64625">
		<tag k="name" v="Salteriet" />
		<tag k="natural" v="bay" />
		<tag k="ssr:stedsnr" v="421073" />
	</node>
	<node lat="69.58563889162356" lon="20.30822497517608" id="-64638">
		<tag k="fixme" v="consider seamark:type=rock or natural=shoal" />
		<tag k="name" v="Persoskjæret" />
		<tag k="place" v="islet" />
		<tag k="ssr:stedsnr" v="421952" />
	</node>
	<node lat="69.5923861118295" lon="20.31581943653358" id="-64639">
		<tag k="name" v="Storhollet" />
		<tag k="natural" v="bay" />
		<tag k="ssr:stedsnr" v="421955" />
	</node>
	<node lat="69.54669167123586" lon="20.265430536425374" id="-64668">
		<tag k="alt_name:no" v="Karnes" />
		<tag k="name" v="Karneset - Gárnjárga - Kariniemi" />
		<tag k="name:fkv" v="Kariniemi" />
		<tag k="name:no" v="Karneset" />
		<tag k="name:se" v="Gárnjárga" />
		<tag k="natural" v="cape" />
		<tag k="ssr:stedsnr" v="444384" />
	</node>
	<node lat="69.47228888825245" lon="20.187913865784303" id="-64696">
		<tag k="name" v="Skogholmen" />
		<tag k="place" v="islet" />
		<tag k="ssr:stedsnr" v="504282" />
	</node>
	<node lat="69.47541944142618" lon="20.237480544637933" id="-64698">
		<tag k="alt_name" v="Forhamna, ytre;Ytre Forrahamn" />
		<tag k="fixme" v="multiple name tags, choose one and add the other to alt_name" />
		<tag k="name" v="Forhamna;Ytre Forhamna" />
		<tag k="natural" v="bay" />
		<tag k="ssr:stedsnr" v="504263" />
	</node>
	<node lat="69.79099444698241" lon="19.99950554028839" id="-64699">
		<tag k="name" v="Rørneset" />
		<tag k="natural" v="cape" />
		<tag k="ssr:stedsnr" v="504631" />
	</node>
	<node lat="69.92163610713422" lon="20.11918610625257" id="-64705">
		<tag k="alt_name" v="Bonsteinneset" />
		<tag k="name" v="Bomsteinneset" />
		<tag k="natural" v="cape" />
		<tag k="ssr:stedsnr" v="504733" />
	</node>
	<node lat="69.53900833028821" lon="20.276511098229868" id="-64712">
		<tag k="fixme" v="multiple name tags, choose one and add the other to alt_name" />
		<tag k="name" v="Joramoholmen;Karnesholmen" />
		<tag k="old_name" v="Jordamoholmen" />
		<tag k="place" v="islet" />
		<tag k="ssr:stedsnr" v="504934" />
	</node>
	<node lat="69.90416666791276" lon="20.15407776671393" id="-64719">
		<tag k="name" v="Trollneset" />
		<tag k="natural" v="cape" />
		<tag k="ssr:stedsnr" v="510471" />
	</node>
	<node lat="69.44711944701214" lon="20.202061085750277" id="-64720">
		<tag k="name" v="Doaresčorru" />
		<tag k="name:se" v="Doaresčorru" />
		<tag k="natural" v="shoal" />
		<tag k="old_name:se" v="Doarestjorro" />
		<tag k="place" v="locality" />
		<tag k="ssr:stedsnr" v="509942" />
	</node>
	<node lat="69.48766111317354" lon="20.185949995808954" id="-64721">
		<tag k="name" v="Yykeänmuotka" />
		<tag k="name:fkv" v="Yykeänmuotka" />
		<tag k="place" v="locality" />
		<tag k="ssr:stedsnr" v="510210" />
	</node>
	<node lat="69.51266388460489" lon="20.23743610322179" id="-64722">
		<tag k="name" v="Kjeldnesbåen" />
		<tag k="natural" v="shoal" />
		<tag k="place" v="locality" />
		<tag k="ssr:stedsnr" v="511239" />
	</node>
	<node lat="69.54107222187649" lon="20.28269721633668" id="-64728">
		<tag k="name" v="Steinholmen" />
		<tag k="place" v="islet" />
		<tag k="ssr:stedsnr" v="542790" />
	</node>
	<node lat="69.69548611314826" lon="19.786211109428248" id="-64736">
		<tag k="name" v="Ullsnesvika" />
		<tag k="natural" v="bay" />
		<tag k="ssr:stedsnr" v="542289" />
	</node>
	<node lat="69.61642222746042" lon="20.347102756715024" id="-64748">
		<tag k="name" v="Kristneset" />
		<tag k="natural" v="cape" />
		<tag k="ssr:stedsnr" v="542986" />
	</node>
	<node lat="69.62591667105454" lon="20.348997204287564" id="-64751">
		<tag k="name" v="Elveneset" />
		<tag k="natural" v="cape" />
		<tag k="ssr:stedsnr" v="542997" />
	</node>
	<node lat="69.63264721912188" lon="20.34979719953438" id="-64757">
		<tag k="name" v="Langvollneset" />
		<tag k="natural" v="cape" />
		<tag k="ssr:stedsnr" v="544084" />
	</node>
	<node lat="69.73202778069157" lon="20.291286090395197" id="-64770">
		<tag k="alt_name" v="Skredhollet" />
		<tag k="name" v="Skredholet" />
		<tag k="natural" v="bay" />
		<tag k="ssr:stedsnr" v="564017" />
	</node>
	<node lat="69.55288611491304" lon="20.249724978377884" id="-64785">
		<tag k="alt_name" v="Skogholmen, litle;Lille Skogsholmen" />
		<tag k="name" v="Lilleskogholmen" />
		<tag k="place" v="islet" />
		<tag k="ssr:stedsnr" v="564897" />
	</node>
	<node lat="69.97649166624039" lon="20.284205540447765" id="-64794">
		<tag k="name" v="Nordklubben - Iddogeahči" />
		<tag k="name:no" v="Nordklubben" />
		<tag k="name:se" v="Iddogeahči" />
		<tag k="natural" v="cape" />
		<tag k="ssr:stedsnr" v="565649" />
	</node>
	<node lat="69.89448889336249" lon="20.17485832725063" id="-64798">
		<tag k="name" v="Ånderneset" />
		<tag k="natural" v="cape" />
		<tag k="ssr:stedsnr" v="565759" />
	</node>
	<node lat="69.47777222019808" lon="20.18842219683055" id="-64799">
		<tag k="fixme" v="multiple name tags, choose one and add the other to alt_name" />
		<tag k="name" v="Čohkkaholmen;Kjiholmen" />
		<tag k="place" v="islet" />
		<tag k="ssr:stedsnr" v="570587" />
	</node>
	<node lat="69.78689166580696" lon="20.316002769680487" id="-64800">
		<tag k="name" v="Vaggas" />
		<tag k="natural" v="beach" />
		<tag k="ssr:stedsnr" v="571290" />
	</node>
	<node lat="69.95868889123031" lon="20.329841647516076" id="-64801">
		<tag k="name" v="Røykenesholet" />
		<tag k="natural" v="bay" />
		<tag k="ssr:stedsnr" v="571585" />
	</node>
	<node lat="69.45886388900219" lon="20.193527773339735" id="-64815">
		<tag k="fixme" v="consider seamark:type=rock or natural=shoal" />
		<tag k="name" v="Småskjæran" />
		<tag k="place" v="islet" />
		<tag k="ssr:stedsnr" v="602575" />
	</node>
	<node lat="69.58494444501311" lon="20.11963609836254" id="-64818">
		<tag k="name" v="Rørnesodden" />
		<tag k="natural" v="cape" />
		<tag k="ssr:stedsnr" v="602720" />
	</node>
	<node lat="69.64838888724917" lon="20.315355527236225" id="-64820">
		<tag k="fixme" v="consider seamark:type=rock or natural=shoal" />
		<tag k="name" v="Marvollskjæret" />
		<tag k="place" v="islet" />
		<tag k="ssr:stedsnr" v="602885" />
	</node>
	<node lat="69.61816666928092" lon="20.34874719970027" id="-64826">
		<tag k="name" v="Kristnesbukta" />
		<tag k="natural" v="bay" />
		<tag k="ssr:stedsnr" v="602989" />
	</node>
	<node lat="69.68115833332581" lon="20.35367774929342" id="-64830">
		<tag k="name" v="Kvalhollet" />
		<tag k="natural" v="bay" />
		<tag k="ssr:stedsnr" v="604128" />
	</node>
	<node lat="69.66530000301609" lon="20.340494441277357" id="-64855">
		<tag k="name" v="Storbukta" />
		<tag k="natural" v="bay" />
		<tag k="ssr:stedsnr" v="625043" />
	</node>
	<node lat="69.45490242704984" lon="20.20045247594881" id="-64861">
		<tag k="name" v="Pollneset - Vuoivuonnjárga - Voivuononniemi" />
		<tag k="name:fkv" v="Voivuononniemi" />
		<tag k="name:no" v="Pollneset" />
		<tag k="name:se" v="Vuoivuonnjárga" />
		<tag k="natural" v="cape" />
		<tag k="ssr:stedsnr" v="625298" />
	</node>
	<node lat="69.51150731318283" lon="20.225840652248614" id="-64868">
		<tag k="fixme" v="multiple name tags, choose one and add the other to alt_name" />
		<tag k="name" v="Kjeldnes;Tjeldneset - Gielnjárga" />
		<tag k="name:no" v="Kjeldnes;Tjeldneset" />
		<tag k="name:se" v="Gielnjárga" />
		<tag k="natural" v="cape" />
		<tag k="ssr:stedsnr" v="625882" />
	</node>
	<node lat="69.5074361101879" lon="20.22930276281876" id="-64869">
		<tag k="alt_name:no" v="Erikholmen" />
		<tag k="name" v="Eriksholmen - Erikboadnji" />
		<tag k="name:no" v="Eriksholmen" />
		<tag k="name:se" v="Erikboadnji" />
		<tag k="place" v="islet" />
		<tag k="ssr:stedsnr" v="625885" />
	</node>
	<node lat="69.55753055770573" lon="20.22077498077183" id="-64872">
		<tag k="name" v="Karnes" />
		<tag k="natural" v="cape" />
		<tag k="ssr:stedsnr" v="625918" />
	</node>
	<node lat="69.59569444407745" lon="19.96798053414472" id="-64875">
		<tag k="name" v="Tytebærneset" />
		<tag k="natural" v="cape" />
		<tag k="ssr:stedsnr" v="625985" />
	</node>
	<node lat="69.82656944589415" lon="19.951544423992647" id="-64878">
		<tag k="name" v="Ravika - Ráluokta" />
		<tag k="name:no" v="Ravika" />
		<tag k="name:se" v="Ráluokta" />
		<tag k="natural" v="bay" />
		<tag k="ssr:stedsnr" v="626732" />
	</node>
	<node lat="69.96176111430427" lon="20.32160831878648" id="-64881">
		<tag k="loc_name:se" v="Bossoluokta;Ráiskeluokta" />
		<tag k="name" v="Kvalvika" />
		<tag k="name:no" v="Kvalvika" />
		<tag k="natural" v="bay" />
		<tag k="ssr:stedsnr" v="626672" />
	</node>
	<node lat="69.46832777683775" lon="20.238249984277918" id="-64883">
		<tag k="name" v="Forrahamngrunnen" />
		<tag k="natural" v="shoal" />
		<tag k="place" v="locality" />
		<tag k="ssr:stedsnr" v="630586" />
	</node>
	<node lat="69.48904166619299" lon="20.290216638286154" id="-64884">
		<tag k="name" v="Godesmaddi" />
		<tag k="name:se" v="Godesmaddi" />
		<tag k="natural" v="shoal" />
		<tag k="place" v="locality" />
		<tag k="ssr:stedsnr" v="631555" />
	</node>
	<node lat="69.57430277679123" lon="20.236980552509266" id="-64885">
		<tag k="name" v="Eidbukta - Muotkeluokta" />
		<tag k="name:no" v="Eidbukta" />
		<tag k="name:se" v="Muotkeluokta" />
		<tag k="natural" v="bay" />
		<tag k="ssr:stedsnr" v="632216" />
	</node>
	<node lat="69.5730055567385" lon="20.330224977410918" id="-64886">
		<tag k="name" v="Ojvadak" />
		<tag k="name:se" v="Ojvadak" />
		<tag k="natural" v="shoal" />
		<tag k="place" v="locality" />
		<tag k="ssr:stedsnr" v="632221" />
	</node>
	<node lat="69.92596111290847" lon="20.187605542992262" id="-64888">
		<tag k="name" v="Sandbukta" />
		<tag k="natural" v="bay" />
		<tag k="ssr:stedsnr" v="632499" />
	</node>
	<node lat="69.85149167019883" lon="19.97485000229613" id="-64889">
		<tag k="name" v="Nessebreget" />
		<tag k="natural" v="shoal" />
		<tag k="ssr:stedsnr" v="632527" />
	</node>
	<node lat="69.53443611247994" lon="20.234224984165103" id="-64891">
		<tag k="name" v="Siganeset - Sigárnjárga" />
		<tag k="name:no" v="Siganeset" />
		<tag k="name:se" v="Sigárnjárga" />
		<tag k="natural" v="cape" />
		<tag k="ssr:stedsnr" v="648785" />
	</node>
	<node lat="69.66394166387107" lon="20.373386098261864" id="-64918">
		<tag k="name" v="Indre Moltebærnesbukta" />
		<tag k="natural" v="bay" />
		<tag k="ssr:stedsnr" v="663893" />
	</node>
	<node lat="69.66884722136535" lon="20.339327764182215" id="-64919">
		<tag k="name" v="Einebukta" />
		<tag k="natural" v="bay" />
		<tag k="ssr:stedsnr" v="663898" />
	</node>
	<node lat="69.5878194407871" lon="20.281844426099333" id="-64926">
		<tag k="name" v="Jonsabukta" />
		<tag k="natural" v="bay" />
		<tag k="ssr:stedsnr" v="663958" />
	</node>
	<node lat="69.5842611108448" lon="20.26929997553703" id="-64927">
		<tag k="name" v="Leirkjosen" />
		<tag k="natural" v="bay" />
		<tag k="ssr:stedsnr" v="663959" />
	</node>
	<node lat="69.67236944807702" lon="20.334058317134655" id="-64932">
		<tag k="name" v="Sommarsetneset" />
		<tag k="natural" v="cape" />
		<tag k="ssr:stedsnr" v="665120" />
	</node>
	<node lat="69.65900555812442" lon="20.319705535038874" id="-64949">
		<tag k="name" v="Holmsundet" />
		<tag k="natural" v="strait" />
		<tag k="ssr:stedsnr" v="723858" />
	</node>
	<node lat="69.7776972225714" lon="19.868088864685134" id="-64956">
		<tag k="name" v="Ostesjåen" />
		<tag k="natural" v="cape" />
		<tag k="ssr:stedsnr" v="724126" />
	</node>
	<node lat="69.56952222650445" lon="20.249627764415624" id="-64970">
		<tag k="fixme" v="consider seamark:type=rock or natural=shoal" />
		<tag k="name" v="Støtta" />
		<tag k="place" v="islet" />
		<tag k="ssr:stedsnr" v="724793" />
	</node>
	<node lat="69.90393888743914" lon="20.134663880613306" id="-64980">
		<tag k="name" v="Yttereidet" />
		<tag k="place" v="island" />
		<tag k="ssr:stedsnr" v="725802" />
	</node>
	<node lat="69.71405555874328" lon="20.27343332597588" id="-64987">
		<tag k="name" v="Strupen - Oaggovuotna" />
		<tag k="name:no" v="Strupen" />
		<tag k="name:se" v="Oaggovuotna" />
		<tag k="natural" v="bay" />
		<tag k="ssr:stedsnr" v="746027" />
	</node>
	<node lat="69.7742111110949" lon="20.31143609686765" id="-65006">
		<tag k="alt_name:no" v="Landvikshamna" />
		<tag k="loc_name:se" v="Beavžahávna" />
		<tag k="name" v="Landvindshamna" />
		<tag k="name:no" v="Landvindshamna" />
		<tag k="natural" v="bay" />
		<tag k="ssr:stedsnr" v="747639" />
	</node>
	<node lat="69.90167777621508" lon="20.174238886782803" id="-65009">
		<tag k="name" v="Sandneset" />
		<tag k="natural" v="cape" />
		<tag k="ssr:stedsnr" v="747754" />
	</node>
	<node lat="69.44516666375864" lon="20.15547777038204" id="-65012">
		<tag k="name" v="Lyngdalsbukta - Vuošluokta" />
		<tag k="name:no" v="Lyngdalsbukta" />
		<tag k="name:se" v="Vuošluokta" />
		<tag k="natural" v="bay" />
		<tag k="ssr:stedsnr" v="753150" />
	</node>
	<node lat="69.57189722564367" lon="20.305538886199344" id="-65016">
		<tag k="name" v="Halstema" />
		<tag k="name:se" v="Halstema" />
		<tag k="natural" v="shoal" />
		<tag k="place" v="locality" />
		<tag k="ssr:stedsnr" v="754236" />
	</node>
	<node lat="69.53206388801594" lon="20.27789997097175" id="-65017">
		<tag k="name" v="Holmegrunnen" />
		<tag k="natural" v="shoal" />
		<tag k="place" v="locality" />
		<tag k="ssr:stedsnr" v="754287" />
	</node>
	<node lat="69.49378888641567" lon="20.271566641012107" id="-65019">
		<tag k="name" v="Saljatjorro" />
		<tag k="name:se" v="Saljatjorro" />
		<tag k="natural" v="shoal" />
		<tag k="place" v="locality" />
		<tag k="ssr:stedsnr" v="935571" />
	</node>
	<node lat="69.58238333746618" lon="20.04381110781025" id="-65022">
		<tag k="name" v="Rødbergbukta" />
		<tag k="natural" v="bay" />
		<tag k="ssr:stedsnr" v="782225" />
	</node>
	<node lat="69.58345000135205" lon="20.090644443141354" id="-65023">
		<tag k="name" v="Kuvika" />
		<tag k="natural" v="bay" />
		<tag k="ssr:stedsnr" v="784762" />
	</node>
	<node lat="69.76046110725432" lon="19.954680541817336" id="-65029">
		<tag k="name" v="Hjellneset" />
		<tag k="natural" v="cape" />
		<tag k="ssr:stedsnr" v="784034" />
	</node>
	<node lat="69.59410833506243" lon="19.97115276784755" id="-65040">
		<tag k="name" v="Lillevika" />
		<tag k="natural" v="bay" />
		<tag k="ssr:stedsnr" v="785093" />
	</node>
	<node lat="69.65422499989756" lon="20.34371943696797" id="-65074">
		<tag k="fixme" v="multiple name tags, choose one and add the other to alt_name" />
		<tag k="loc_name:se" v="Buŋkesuolu" />
		<tag k="name" v="Bunkholmen;Bonken" />
		<tag k="name:no" v="Bunkholmen;Bonken" />
		<tag k="place" v="islet" />
		<tag k="ssr:stedsnr" v="807060" />
	</node>
	<node lat="69.5645129416949" lon="20.30474425957888" id="-65080">
		<tag k="fixme" v="multiple name tags, choose one and add the other to alt_name" />
		<tag k="name" v="Nortas;Ytre Nortasholmen - Uhca Nuorttaš" />
		<tag k="name:no" v="Nortas;Ytre Nortasholmen" />
		<tag k="name:se" v="Uhca Nuorttaš" />
		<tag k="place" v="islet" />
		<tag k="ssr:stedsnr" v="807913" />
	</node>
	<node lat="69.56525278191944" lon="20.253833311562452" id="-65081">
		<tag k="alt_name" v="Roankaholmen" />
		<tag k="name" v="Ronka" />
		<tag k="place" v="islet" />
		<tag k="ssr:stedsnr" v="807914" />
	</node>
	<node lat="69.5869277770327" lon="20.06042499201335" id="-65087">
		<tag k="alt_name" v="Kvitberg" />
		<tag k="name" v="Kviteberg" />
		<tag k="natural" v="cape" />
		<tag k="ssr:stedsnr" v="807948" />
	</node>
	<node lat="69.58410833412358" lon="20.11804997426968" id="-65088">
		<tag k="name" v="Rørnes" />
		<tag k="natural" v="cape" />
		<tag k="ssr:stedsnr" v="807950" />
	</node>
	<node lat="69.74389721971195" lon="19.8440222083409" id="-65090">
		<tag k="alt_name" v="Finngammbukta" />
		<tag k="name" v="Finngambukta" />
		<tag k="natural" v="bay" />
		<tag k="ssr:stedsnr" v="808081" />
	</node>
	<node lat="69.83345556059008" lon="19.98979442190132" id="-65092">
		<tag k="name" v="Kvalneset" />
		<tag k="natural" v="cape" />
		<tag k="ssr:stedsnr" v="808653" />
	</node>
	<node lat="69.87670555841748" lon="20.175036091181003" id="-65096">
		<tag k="name" v="Sommarneset" />
		<tag k="natural" v="cape" />
		<tag k="ssr:stedsnr" v="808682" />
	</node>
	<node lat="69.77679444850712" lon="19.95945553231928" id="-65101">
		<tag k="alt_name" v="Engeneset" />
		<tag k="name" v="Engneset" />
		<tag k="natural" v="cape" />
		<tag k="ssr:stedsnr" v="808633" />
	</node>
	<node lat="69.90900000199525" lon="20.161583330386797" id="-65104">
		<tag k="name" v="Hamneneset" />
		<tag k="natural" v="cape" />
		<tag k="ssr:stedsnr" v="808749" />
	</node>
	<node lat="69.9046750032803" lon="20.371130532195014" id="-65107">
		<tag k="alt_name:no" v="Gammvika, yt;Ytre Gammvika" />
		<tag k="loc_name:se" v="Olggut Skárraviika" />
		<tag k="name" v="Ytre Gamvik" />
		<tag k="name:no" v="Ytre Gamvik" />
		<tag k="natural" v="bay" />
		<tag k="ssr:stedsnr" v="808756" />
	</node>
	<node lat="69.76678611531014" lon="19.846111106393757" id="-65109">
		<tag k="name" v="Finnvika" />
		<tag k="natural" v="bay" />
		<tag k="ssr:stedsnr" v="814300" />
	</node>
	<node lat="69.50024166538758" lon="20.2256805510534" id="-65111">
		<tag k="name" v="Kvalvika - Goalsevuohppi - Kolsevuopio" />
		<tag k="name:fkv" v="Kolsevuopio" />
		<tag k="name:no" v="Kvalvika" />
		<tag k="name:se" v="Goalsevuohppi" />
		<tag k="natural" v="bay" />
		<tag k="ssr:stedsnr" v="814150" />
	</node>
	<node lat="69.68714444187263" lon="20.39231943662565" id="-65112">
		<tag k="loc_name:se" v="Uhcabuođoš" />
		<tag k="name" v="Litlegrunnen" />
		<tag k="name:no" v="Litlegrunnen" />
		<tag k="natural" v="shoal" />
		<tag k="place" v="locality" />
		<tag k="ssr:stedsnr" v="814250" />
	</node>
	<node lat="69.94347499690394" lon="20.204572193303633" id="-65114">
		<tag k="name" v="Mannbukta" />
		<tag k="natural" v="bay" />
		<tag k="ssr:stedsnr" v="814492" />
	</node>
	<node lat="69.8955555573284" lon="20.38673053278681" id="-65115">
		<tag k="name" v="Gamvikbukta" />
		<tag k="natural" v="bay" />
		<tag k="ssr:stedsnr" v="814498" />
	</node>
	<node lat="69.90266110877491" lon="20.156574982052575" id="-65116">
		<tag k="name" v="Ytterholmen" />
		<tag k="place" v="islet" />
		<tag k="ssr:stedsnr" v="814500" />
	</node>
	<node lat="69.88260277939041" lon="20.185383330536848" id="-65117">
		<tag k="name" v="Risneset" />
		<tag k="natural" v="cape" />
		<tag k="ssr:stedsnr" v="814502" />
	</node>
	<node lat="69.92489999850567" lon="20.18674165108813" id="-65118">
		<tag k="name" v="Knutneset" />
		<tag k="natural" v="cape" />
		<tag k="ssr:stedsnr" v="814519" />
	</node>
	<node lat="69.77118333706372" lon="19.95878610414157" id="-65123">
		<tag k="loc_name" v="Ittarvuotna" />
		<tag k="name" v="Lenangsbotn" />
		<tag k="natural" v="bay" />
		<tag k="ssr:stedsnr" v="845050" />
	</node>
	<node lat="69.44686666400115" lon="20.156074980543917" id="-65129">
		<tag k="fixme" v="consider seamark:type=rock or natural=shoal" />
		<tag k="name" v="Riifulássa" />
		<tag k="name:se" v="Riifulássa" />
		<tag k="place" v="islet" />
		<tag k="ssr:stedsnr" v="845646" />
	</node>
	<node lat="69.63972222221523" lon="20.33809443862238" id="-65140">
		<tag k="name" v="Geitvika" />
		<tag k="natural" v="bay" />
		<tag k="ssr:stedsnr" v="846058" />
	</node>
	<node lat="69.68817499645795" lon="19.772058314659038" id="-65144">
		<tag k="name" v="Klipa" />
		<tag k="natural" v="bay" />
		<tag k="ssr:stedsnr" v="846241" />
	</node>
	<node lat="69.66002778068436" lon="20.338158315391176" id="-65146">
		<tag k="fixme" v="consider seamark:type=rock or natural=shoal" />
		<tag k="name" v="Makkeskjæret" />
		<tag k="place" v="islet" />
		<tag k="ssr:stedsnr" v="846898" />
	</node>
	<node lat="69.59890000047805" lon="20.319491661360978" id="-65152">
		<tag k="name" v="Seljevika - Sovttaluokta" />
		<tag k="name:no" v="Seljevika" />
		<tag k="name:se" v="Sovttaluokta" />
		<tag k="natural" v="bay" />
		<tag k="ssr:stedsnr" v="846945" />
	</node>
	<node lat="69.58614167131647" lon="20.306127765869142" id="-65153">
		<tag k="name" v="Styrmannsneset" />
		<tag k="natural" v="cape" />
		<tag k="ssr:stedsnr" v="846949" />
	</node>
	<node lat="69.46185833721697" lon="20.168286101892733" id="-65159">
		<tag k="name" v="Lanes" />
		<tag k="natural" v="cape" />
		<tag k="ssr:stedsnr" v="868287" />
	</node>
	<node lat="69.46869991592804" lon="20.180384614513567" id="-65160">
		<tag k="name" v="Pollen - Vuoivuotna - Voivuono" />
		<tag k="name:fkv" v="Voivuono" />
		<tag k="name:no" v="Pollen" />
		<tag k="name:se" v="Vuoivuotna" />
		<tag k="natural" v="bay" />
		<tag k="ssr:stedsnr" v="868299" />
	</node>
	<node lat="69.55046389215718" lon="20.270480552980803" id="-65173">
		<tag k="name" v="Isakholmen" />
		<tag k="place" v="islet" />
		<tag k="ssr:stedsnr" v="868888" />
	</node>
	<node lat="69.845605554401" lon="19.989780532443763" id="-65178">
		<tag k="name" v="Nesodden" />
		<tag k="natural" v="cape" />
		<tag k="ssr:stedsnr" v="869732" />
	</node>
	<node lat="69.9082249988529" lon="20.36820554860566" id="-65179">
		<tag k="name" v="Skipperneset" />
		<tag k="natural" v="cape" />
		<tag k="ssr:stedsnr" v="869759" />
	</node>
	<node lat="69.82589444372816" lon="20.354541645281422" id="-65181">
		<tag k="name" v="Grasneset" />
		<tag k="natural" v="cape" />
		<tag k="ssr:stedsnr" v="869699" />
	</node>
	<node lat="69.70489722403835" lon="20.40162775465713" id="-65185">
		<tag k="loc_name:se" v="Jáhkin" />
		<tag k="name" v="Jakin" />
		<tag k="name:no" v="Jakin" />
		<tag k="natural" v="shoal" />
		<tag k="place" v="locality" />
		<tag k="ssr:stedsnr" v="875213" />
	</node>
	<node lat="69.5370305528307" lon="20.233183327521" id="-65186">
		<tag k="fixme" v="multiple name tags, choose one and add the other to alt_name" />
		<tag k="name" v="Kobbeleira;Oksevika" />
		<tag k="natural" v="bay" />
		<tag k="ssr:stedsnr" v="875239" />
	</node>
	<node lat="69.85916944132245" lon="20.372802752607978" id="-65187">
		<tag k="name" v="Skaia" />
		<tag k="natural" v="bay" />
		<tag k="ssr:stedsnr" v="875685" />
	</node>
	<node lat="70.00763888989931" lon="20.22314443139502" id="-65188">
		<tag k="name" v="Karlsøygrunnen" />
		<tag k="natural" v="shoal" />
		<tag k="ssr:stedsnr" v="875859" />
	</node>
	<node lat="69.5659749988355" lon="20.30904164594443" id="-65192">
		<tag k="name" v="Nortasgrunnen" />
		<tag k="natural" v="shoal" />
		<tag k="place" v="locality" />
		<tag k="ssr:stedsnr" v="936174" />
	</node>
	<node lat="69.86925277877845" lon="20.07030833006302" id="-65193">
		<tag k="name" v="Storskabergneset" />
		<tag k="natural" v="cape" />
		<tag k="ssr:stedsnr" v="936465" />
	</node>
	<node lat="69.46531389025027" lon="20.17078053531969" id="-65203">
		<tag k="name" v="Ytre Lanesbukt" />
		<tag k="natural" v="bay" />
		<tag k="ssr:stedsnr" v="966583" />
	</node>
	<node lat="69.59091944909983" lon="20.31517220805841" id="-65217">
		<tag k="name" v="Ajelsnauset" />
		<tag k="natural" v="bay" />
		<tag k="ssr:stedsnr" v="967939" />
	</node>
	<node lat="69.9458444479574" lon="20.338902775578763" id="-65234">
		<tag k="name" v="Nova" />
		<tag k="natural" v="cape" />
		<tag k="ssr:stedsnr" v="968230" />
	</node>
	<node lat="69.57906507768503" lon="20.21822442664113" id="-65264">
		<tag k="loc_name:no" v="Lyngseidet" />
		<tag k="name" v="Ivgomuotki" />
		<tag k="name:se" v="Ivgomuotki" />
		<tag k="place" v="locality" />
		<tag k="ssr:stedsnr" v="1075813" />
	</node>
</osm>
