<?xml version="1.0" encoding="UTF-8"?>
<osm version="0.6" generator="osmapis">
	<node lat="69.64055278211063" lon="20.271591662019517" id="-95086">
		<tag k="name" v="Kvigemyra" />
		<tag k="natural" v="wetland" />
		<tag k="ssr:stedsnr" v="238065" />
	</node>
	<node lat="69.46263610941786" lon="20.21821664495534" id="-95092">
		<tag k="name" v="Návddijeaggi" />
		<tag k="name:se" v="Návddijeaggi" />
		<tag k="natural" v="wetland" />
		<tag k="ssr:stedsnr" v="238590" />
	</node>
	<node lat="69.71212222412096" lon="19.818372206710258" id="-95106">
		<tag k="name" v="Botnmyra" />
		<tag k="natural" v="wetland" />
		<tag k="ssr:stedsnr" v="239140" />
	</node>
	<node lat="69.73971666540035" lon="19.86288608844925" id="-95108">
		<tag k="name" v="Tjønnmyrkroken" />
		<tag k="natural" v="wetland" />
		<tag k="ssr:stedsnr" v="239209" />
	</node>
	<node lat="69.60849166896715" lon="20.254583319317533" id="-95121">
		<tag k="name" v="Fossemyra" />
		<tag k="natural" v="wetland" />
		<tag k="ssr:stedsnr" v="56781" />
	</node>
	<node lat="69.67215833719565" lon="20.26524722182095" id="-95132">
		<tag k="name" v="Vassmyra" />
		<tag k="natural" v="wetland" />
		<tag k="ssr:stedsnr" v="240125" />
	</node>
	<node lat="69.8778222211805" lon="20.278047199843837" id="-95162">
		<tag k="alt_name" v="Gammvikblåisen" />
		<tag k="name" v="Gamvikblåisen" />
		<tag k="natural" v="glacier" />
		<tag k="ssr:stedsnr" v="80689" />
	</node>
	<node lat="69.75744722726019" lon="19.977911092467146" id="-95171">
		<tag k="name" v="Sennamyra" />
		<tag k="natural" v="wetland" />
		<tag k="ssr:stedsnr" v="117010" />
	</node>
	<node lat="69.58695278158828" lon="20.125049990524104" id="-95178">
		<tag k="name" v="Jensøra" />
		<tag k="place" v="locality" />
		<tag k="ssr:stedsnr" v="117703" />
	</node>
	<node lat="69.80215555308877" lon="19.928113868941253" id="-95191">
		<tag k="name" v="Nermyran" />
		<tag k="natural" v="wetland" />
		<tag k="ssr:stedsnr" v="119009" />
	</node>
	<node lat="69.44186944771118" lon="20.130522213657397" id="-95192">
		<tag k="landuse" v="meadow" />
		<tag k="name" v="Geassegieddi" />
		<tag k="name:se" v="Geassegieddi" />
		<tag k="ssr:stedsnr" v="119076" />
	</node>
	<node lat="69.60942221985997" lon="20.14764720500583" id="-95212">
		<tag k="name" v="Rottenvikbreen - Guohcavuohjiehkki" />
		<tag k="name:no" v="Rottenvikbreen" />
		<tag k="name:se" v="Guohcavuohjiehkki" />
		<tag k="natural" v="glacier" />
		<tag k="ssr:stedsnr" v="140995" />
	</node>
	<node lat="69.70792499582197" lon="20.157799987694204" id="-95222">
		<tag k="name" v="Strupbreen" />
		<tag k="natural" v="glacier" />
		<tag k="ssr:stedsnr" v="261033" />
	</node>
	<node lat="69.55306111032769" lon="20.21965553091078" id="-95237">
		<tag k="name" v="Bakkelaskogen" />
		<tag k="place" v="locality" />
		<tag k="ssr:stedsnr" v="177777" />
	</node>
	<node lat="69.60678889046582" lon="20.265466658124915" id="-95308">
		<tag k="name" v="Innerkorsmyra" />
		<tag k="natural" v="wetland" />
		<tag k="ssr:stedsnr" v="239794" />
	</node>
	<node lat="69.66663333121699" lon="20.354122207069764" id="-95311">
		<tag k="name" v="Strimmelmyra" />
		<tag k="natural" v="wetland" />
		<tag k="ssr:stedsnr" v="239911" />
	</node>
	<node lat="69.73460555866882" lon="20.240416665402513" id="-95318">
		<tag k="name" v="Støvelbreen" />
		<tag k="natural" v="glacier" />
		<tag k="ssr:stedsnr" v="261106" />
	</node>
	<node lat="69.43844444946585" lon="20.107749981719543" id="-95334">
		<tag k="name" v="Stuorajuovva" />
		<tag k="name:se" v="Stuorajuovva" />
		<tag k="natural" v="scree" />
		<tag k="ssr:stedsnr" v="268196" />
	</node>
	<node lat="69.6687305581565" lon="19.820972209648247" id="-95342">
		<tag k="name" v="Langnesmyran" />
		<tag k="natural" v="wetland" />
		<tag k="ssr:stedsnr" v="299281" />
	</node>
	<node lat="69.5913888887361" lon="20.17808888513908" id="-95347">
		<tag k="name" v="Blåuran" />
		<tag k="natural" v="scree" />
		<tag k="ssr:stedsnr" v="299725" />
	</node>
	<node lat="69.62357499857428" lon="20.26874997676568" id="-95351">
		<tag k="name" v="Rokkasoinjimyra - Rohkasuoinnijeaggi" />
		<tag k="name:no" v="Rokkasoinjimyra" />
		<tag k="name:se" v="Rohkasuoinnijeaggi" />
		<tag k="natural" v="wetland" />
		<tag k="ssr:stedsnr" v="299772" />
	</node>
	<node lat="69.74354722084915" lon="19.93093333037966" id="-95367">
		<tag k="name" v="Stormyrflåtan" />
		<tag k="natural" v="wetland" />
		<tag k="ssr:stedsnr" v="359057" />
	</node>
	<node lat="69.69159166797967" lon="19.793561103789813" id="-95377">
		<tag k="name" v="Kolbotnmyra" />
		<tag k="natural" v="wetland" />
		<tag k="ssr:stedsnr" v="360252" />
	</node>
	<node lat="69.79095277930861" lon="19.934647203544742" id="-95388">
		<tag k="name" v="Heimyran" />
		<tag k="natural" v="wetland" />
		<tag k="ssr:stedsnr" v="481094" />
	</node>
	<node lat="69.74238611520398" lon="19.858674980637566" id="-95394">
		<tag k="name" v="Tjønnmyra" />
		<tag k="natural" v="wetland" />
		<tag k="ssr:stedsnr" v="481280" />
	</node>
	<node lat="69.74666111160971" lon="19.93259165864121" id="-95412">
		<tag k="name" v="Stormyra" />
		<tag k="natural" v="wetland" />
		<tag k="ssr:stedsnr" v="382111" />
	</node>
	<node lat="69.44215833660573" lon="20.106216647253643" id="-95436">
		<tag k="name" v="Nerura" />
		<tag k="natural" v="scree" />
		<tag k="ssr:stedsnr" v="483073" />
	</node>
	<node lat="69.43835555415141" lon="20.12181109894958" id="-95440">
		<tag k="landuse" v="meadow" />
		<tag k="name" v="Gárdegieddi" />
		<tag k="name:se" v="Gárdegieddi" />
		<tag k="ssr:stedsnr" v="483086" />
	</node>
	<node lat="69.78588055385701" lon="20.237483321131553" id="-95446">
		<tag k="name" v="Austre Vaggasblåisen - Vákkášjiehkki" />
		<tag k="name:no" v="Austre Vaggasblåisen" />
		<tag k="name:se" v="Vákkášjiehkki" />
		<tag k="natural" v="glacier" />
		<tag k="old_name:no" v="Vákkášblåisen, austre" />
		<tag k="ssr:stedsnr" v="392100" />
	</node>
	<node lat="69.91541705743329" lon="20.163659940556908" id="-95448">
		<tag k="name" v="Tangen" />
		<tag k="place" v="locality" />
		<tag k="ssr:stedsnr" v="483890" />
	</node>
	<node lat="69.59730000063976" lon="20.28486665211199" id="-95451">
		<tag k="name" v="Saumyra" />
		<tag k="natural" v="wetland" />
		<tag k="ssr:stedsnr" v="400978" />
	</node>
	<node lat="69.53421666545461" lon="20.159294438182744" id="-95453">
		<tag k="name" v="Sennemyra - Suoidnejeaggi" />
		<tag k="name:no" v="Sennemyra" />
		<tag k="name:se" v="Suoidnejeaggi" />
		<tag k="natural" v="wetland" />
		<tag k="ssr:stedsnr" v="406564" />
	</node>
	<node lat="69.52113889289934" lon="20.199099983032728" id="-95454">
		<tag k="name" v="Mellomjordmyra" />
		<tag k="natural" v="wetland" />
		<tag k="ssr:stedsnr" v="420603" />
	</node>
	<node lat="69.45428888462898" lon="20.159052768457613" id="-95460">
		<tag k="name" v="Vađđasskogen" />
		<tag k="place" v="locality" />
		<tag k="ssr:stedsnr" v="420595" />
	</node>
	<node lat="69.7403416652584" lon="19.918013881282675" id="-95511">
		<tag k="name" v="Kobbenesmyran" />
		<tag k="natural" v="wetland" />
		<tag k="ssr:stedsnr" v="481063" />
	</node>
	<node lat="69.58353333412283" lon="20.24183886528967" id="-95595">
		<tag k="name" v="Jonjeaggi" />
		<tag k="name:se" v="Jonjeaggi" />
		<tag k="natural" v="wetland" />
		<tag k="ssr:stedsnr" v="542969" />
	</node>
	<node lat="69.65277778043114" lon="19.832124979778314" id="-95633">
		<tag k="name" v="Toftemyra" />
		<tag k="natural" v="wetland" />
		<tag k="ssr:stedsnr" v="602313" />
	</node>
	<node lat="69.56784722089546" lon="20.18977498491491" id="-95663">
		<tag k="name" v="Rødsteinmyra" />
		<tag k="natural" v="wetland" />
		<tag k="ssr:stedsnr" v="663504" />
	</node>
	<node lat="69.60957500315978" lon="19.949497209505537" id="-95693">
		<tag k="name" v="Tømmerurda" />
		<tag k="natural" v="scree" />
		<tag k="ssr:stedsnr" v="686997" />
	</node>
	<node lat="69.76219999934948" lon="19.96262220563771" id="-95694">
		<tag k="alt_name" v="Langøyra" />
		<tag k="name" v="Langøra" />
		<tag k="place" v="locality" />
		<tag k="ssr:stedsnr" v="687638" />
	</node>
	<node lat="69.63657222325064" lon="20.332244437718845" id="-95703">
		<tag k="name" v="Haugenmyra" />
		<tag k="natural" v="wetland" />
		<tag k="ssr:stedsnr" v="723078" />
	</node>
	<node lat="69.6307916686735" lon="20.338241639707835" id="-95704">
		<tag k="name" v="Røykvollmyra" />
		<tag k="natural" v="wetland" />
		<tag k="ssr:stedsnr" v="723081" />
	</node>
	<node lat="69.48456944893758" lon="20.223783307751976" id="-95711">
		<tag k="name" v="Gáhkkormyra" />
		<tag k="natural" v="wetland" />
		<tag k="ssr:stedsnr" v="724569" />
	</node>
	<node lat="69.63037777526219" lon="20.333494426781172" id="-95731">
		<tag k="name" v="Lommyra" />
		<tag k="natural" v="wetland" />
		<tag k="ssr:stedsnr" v="906071" />
	</node>
	<node lat="69.78123889387732" lon="19.99029997950487" id="-95734">
		<tag k="name" v="Gjota" />
		<tag k="place" v="locality" />
		<tag k="ssr:stedsnr" v="906034" />
	</node>
	<node lat="69.76385555675854" lon="20.162122202469423" id="-95802">
		<tag k="name" v="Reindalsblåisen" />
		<tag k="natural" v="glacier" />
		<tag k="ssr:stedsnr" v="808646" />
	</node>
	<node lat="69.91285555869709" lon="20.1786249944523" id="-95831">
		<tag k="name" v="Hæsaleira" />
		<tag k="place" v="locality" />
		<tag k="ssr:stedsnr" v="847873" />
	</node>
	<node lat="69.59614166747623" lon="20.09456665497751" id="-95850">
		<tag k="name" v="Storurda" />
		<tag k="natural" v="scree" />
		<tag k="ssr:stedsnr" v="929990" />
	</node>
	<node lat="69.69383610993651" lon="20.006549992056023" id="-95851">
		<tag k="alt_name" v="Forholtbreen" />
		<tag k="name" v="Forrholtbreen" />
		<tag k="natural" v="glacier" />
		<tag k="ssr:stedsnr" v="868005" />
	</node>
	<node lat="69.70211111016705" lon="20.018441659147626" id="-95854">
		<tag k="name" v="Trollbreen" />
		<tag k="natural" v="glacier" />
		<tag k="ssr:stedsnr" v="868023" />
	</node>
	<node lat="69.8410611092302" lon="19.9731222179425" id="-95873">
		<tag k="name" v="Vengsteinen" />
		<tag k="natural" v="stone" />
		<tag k="ssr:stedsnr" v="869727" />
	</node>
	<node lat="69.51729166527346" lon="20.23181108463926" id="-95881">
		<tag k="name" v="Geitestein" />
		<tag k="place" v="locality" />
		<tag k="ssr:stedsnr" v="876052" />
	</node>
	<node lat="69.64600277586709" lon="20.266586097123593" id="-95887">
		<tag k="name" v="Herrevassmyra" />
		<tag k="natural" v="wetland" />
		<tag k="ssr:stedsnr" v="906055" />
	</node>
	<node lat="69.73738888945667" lon="19.88162775560808" id="-95890">
		<tag k="name" v="Snekollmyra" />
		<tag k="natural" v="wetland" />
		<tag k="ssr:stedsnr" v="906216" />
	</node>
	<node lat="69.74832222153115" lon="19.86930832735389" id="-95891">
		<tag k="name" v="Åsmyra" />
		<tag k="natural" v="wetland" />
		<tag k="ssr:stedsnr" v="906265" />
	</node>
	<node lat="69.44035833452132" lon="20.145816656555112" id="-95909">
		<tag k="landuse" v="meadow" />
		<tag k="name" v="Beaivvagieddi" />
		<tag k="name:se" v="Beaivvagieddi" />
		<tag k="ssr:stedsnr" v="908101" />
	</node>
	<node lat="69.79129721912835" lon="19.966905534311046" id="-95928">
		<tag k="name" v="Makkeleira" />
		<tag k="natural" v="beach" />
		<tag k="ssr:stedsnr" v="966089" />
		<tag k="surface" v="sand" />
	</node>
	<node lat="69.49650277488021" lon="20.195286104045735" id="-95931">
		<tag k="name" v="Heiskelskogen" />
		<tag k="place" v="locality" />
		<tag k="ssr:stedsnr" v="966601" />
	</node>
	<node lat="69.66386389208164" lon="20.347347196217616" id="-95935">
		<tag k="name" v="Storbuktmyra" />
		<tag k="natural" v="wetland" />
		<tag k="ssr:stedsnr" v="966900" />
	</node>
	<node lat="69.62526944433401" lon="20.34330552606313" id="-95947">
		<tag k="name" v="Melen" />
		<tag k="place" v="locality" />
		<tag k="ssr:stedsnr" v="967993" />
	</node>
	<node lat="69.44080278191576" lon="20.14301942608051" id="-95956">
		<tag k="landuse" v="meadow" />
		<tag k="name" v="Málugieddi" />
		<tag k="name:se" v="Málugieddi" />
		<tag k="ssr:stedsnr" v="968090" />
	</node>
	<node lat="69.79336666582167" lon="19.918458308511813" id="-95989">
		<tag k="name" v="Mikkelvikmyran" />
		<tag k="natural" v="wetland" />
		<tag k="ssr:stedsnr" v="19671" />
	</node>
	<node lat="69.92634722515112" lon="20.163997217945987" id="-96000">
		<tag k="name" v="Svineryggsteinen" />
		<tag k="natural" v="stone" />
		<tag k="ssr:stedsnr" v="25463" />
	</node>
	<node lat="69.7808305525867" lon="19.922680541336092" id="-96010">
		<tag k="name" v="Brynnmyra" />
		<tag k="natural" v="wetland" />
		<tag k="ssr:stedsnr" v="56077" />
	</node>
	<node lat="69.65187778125606" lon="20.271127767013255" id="-96015">
		<tag k="name" v="Samuelmyra" />
		<tag k="natural" v="wetland" />
		<tag k="ssr:stedsnr" v="56894" />
	</node>
	<node lat="69.51447222649914" lon="20.20423888523736" id="-96018">
		<tag k="name" v="Elvebakkmyran" />
		<tag k="natural" v="wetland" />
		<tag k="ssr:stedsnr" v="56539" />
	</node>
	<node lat="69.67465555254628" lon="19.794697200316644" id="-96031">
		<tag k="name" v="Kumyra" />
		<tag k="natural" v="wetland" />
		<tag k="ssr:stedsnr" v="57232" />
	</node>
	<node lat="69.6518388892637" lon="19.855011087316758" id="-96034">
		<tag k="name" v="Hesjemyra" />
		<tag k="natural" v="wetland" />
		<tag k="ssr:stedsnr" v="57261" />
	</node>
	<node lat="69.61139444687332" lon="20.26880832884516" id="-96036">
		<tag k="name" v="Ytterkorsmyra" />
		<tag k="natural" v="wetland" />
		<tag k="ssr:stedsnr" v="57994" />
	</node>
	<node lat="69.59603055529045" lon="20.291952761866558" id="-96043">
		<tag k="name" v="Landrosmyra" />
		<tag k="natural" v="wetland" />
		<tag k="ssr:stedsnr" v="57961" />
	</node>
	<node lat="69.44129999844061" lon="20.102858323272002" id="-96044">
		<tag k="name" v="Storura" />
		<tag k="name:se" v="Storura" />
		<tag k="natural" v="scree" />
		<tag k="ssr:stedsnr" v="58064" />
	</node>
	<node lat="69.6424833363973" lon="19.987302753639863" id="-96056">
		<tag k="name" v="Isskardbreen" />
		<tag k="natural" v="glacier" />
		<tag k="ssr:stedsnr" v="79026" />
	</node>
	<node lat="69.56665555698258" lon="20.201294418046242" id="-96069">
		<tag k="name" v="Kaijanjänkkä" />
		<tag k="name:fkv" v="Kaijanjänkkä" />
		<tag k="natural" v="wetland" />
		<tag k="old_name:fkv" v="Kaijanjánkká;Gaijajenka" />
		<tag k="ssr:stedsnr" v="79953" />
	</node>
	<node lat="69.8943083305311" lon="20.12056663850659" id="-96081">
		<tag k="alt_name" v="Stakkemyra" />
		<tag k="name" v="Stakkemyran" />
		<tag k="natural" v="wetland" />
		<tag k="ssr:stedsnr" v="80756" />
	</node>
	<node lat="69.54395278143286" lon="20.232630533343684" id="-96087">
		<tag k="name" v="Karnesmyra - Kariniemenjänkkä" />
		<tag k="name:fkv" v="Kariniemenjänkkä" />
		<tag k="name:no" v="Karnesmyra" />
		<tag k="natural" v="wetland" />
		<tag k="ssr:stedsnr" v="86016" />
	</node>
	<node lat="69.63427777895663" lon="20.33741386300102" id="-96099">
		<tag k="name" v="Skjellelvmyra" />
		<tag k="natural" v="wetland" />
		<tag k="ssr:stedsnr" v="117078" />
	</node>
	<node lat="69.66097778192987" lon="19.83337498005118" id="-96109">
		<tag k="name" v="Bergemyran" />
		<tag k="natural" v="wetland" />
		<tag k="ssr:stedsnr" v="117353" />
	</node>
	<node lat="69.61643888456443" lon="19.88146666213811" id="-96110">
		<tag k="name" v="Langmyra" />
		<tag k="natural" v="wetland" />
		<tag k="ssr:stedsnr" v="117361" />
	</node>
	<node lat="69.47487222230036" lon="20.222983318559983" id="-96113">
		<tag k="name" v="Stáhkkajeaggi" />
		<tag k="name:se" v="Stáhkkajeaggi" />
		<tag k="natural" v="wetland" />
		<tag k="ssr:stedsnr" v="117564" />
	</node>
	<node lat="69.66134166768623" lon="20.351341638276516" id="-96123">
		<tag k="name" v="Utsiktmyra" />
		<tag k="natural" v="wetland" />
		<tag k="ssr:stedsnr" v="117880" />
	</node>
	<node lat="69.71223611083173" lon="20.045552753881996" id="-96138">
		<tag k="name" v="Lenangsbreen" />
		<tag k="natural" v="glacier" />
		<tag k="ssr:stedsnr" v="139022" />
	</node>
	<node lat="69.63562500456317" lon="19.911311091872033" id="-96139">
		<tag k="name" v="Dalbotnurda" />
		<tag k="natural" v="scree" />
		<tag k="ssr:stedsnr" v="139031" />
	</node>
	<node lat="69.79015000258002" lon="20.19099720313577" id="-96159">
		<tag k="name" v="Vestre Vaggasblåisen - Vákkášjiehkki" />
		<tag k="name:no" v="Vestre Vaggasblåisen" />
		<tag k="name:se" v="Vákkášjiehkki" />
		<tag k="natural" v="glacier" />
		<tag k="old_name:no" v="Vákkášblåisen, vestre" />
		<tag k="ssr:stedsnr" v="140612" />
	</node>
	<node lat="69.78162777818208" lon="19.935944432777717" id="-96179">
		<tag k="name" v="Stakkemyran" />
		<tag k="natural" v="wetland" />
		<tag k="ssr:stedsnr" v="177036" />
	</node>
	<node lat="69.7483916669792" lon="19.90984444193106" id="-96180">
		<tag k="name" v="Kjørmyran" />
		<tag k="natural" v="wetland" />
		<tag k="ssr:stedsnr" v="177052" />
	</node>
	<node lat="69.63306388886998" lon="20.327255530953963" id="-96194">
		<tag k="name" v="Stormyra" />
		<tag k="natural" v="wetland" />
		<tag k="ssr:stedsnr" v="178086" />
	</node>
	<node lat="69.64505000396767" lon="20.261391653751318" id="-96205">
		<tag k="name" v="Stakmyra" />
		<tag k="natural" v="wetland" />
		<tag k="ssr:stedsnr" v="178867" />
	</node>
	<node lat="69.59227222438038" lon="20.305697213008884" id="-96213">
		<tag k="name" v="Persomyra" />
		<tag k="natural" v="wetland" />
		<tag k="ssr:stedsnr" v="178961" />
	</node>
	<node lat="69.60441944391476" lon="20.260408306147514" id="-96218">
		<tag k="name" v="Laelvmyra" />
		<tag k="natural" v="wetland" />
		<tag k="ssr:stedsnr" v="178980" />
	</node>
	<node lat="69.67311388905495" lon="20.264594432512432" id="-96227">
		<tag k="name" v="Jensijeaggi" />
		<tag k="name:se" v="Jensijeaggi" />
		<tag k="natural" v="wetland" />
		<tag k="ssr:stedsnr" v="180098" />
	</node>
	<node lat="69.45420833512613" lon="19.912163872692773" id="-96236">
		<tag k="name" v="Sydbreen - Oarjjabealjiehkki" />
		<tag k="name:no" v="Sydbreen" />
		<tag k="name:se" v="Oarjjabealjiehkki" />
		<tag k="natural" v="glacier" />
		<tag k="ssr:stedsnr" v="201232" />
	</node>
	<node lat="69.86939722693593" lon="20.210499983828683" id="-96240">
		<tag k="alt_name" v="Storurda" />
		<tag k="name" v="Storura" />
		<tag k="natural" v="scree" />
		<tag k="ssr:stedsnr" v="201674" />
	</node>
	<node lat="69.77624722207393" lon="19.930636093552934" id="-96242">
		<tag k="name" v="Lattervikmyra" />
		<tag k="natural" v="wetland" />
		<tag k="ssr:stedsnr" v="201600" />
	</node>
	<node lat="69.63496666553579" lon="19.899952764663038" id="-96272">
		<tag k="name" v="Ura" />
		<tag k="natural" v="scree" />
		<tag k="ssr:stedsnr" v="299099" />
	</node>
	<node lat="69.6568027795722" lon="19.912363882898966" id="-96273">
		<tag k="name" v="Trollvassura" />
		<tag k="natural" v="scree" />
		<tag k="ssr:stedsnr" v="299105" />
	</node>
	<node lat="69.68412777473182" lon="19.794563876794932" id="-96279">
		<tag k="name" v="Stormyra" />
		<tag k="natural" v="wetland" />
		<tag k="ssr:stedsnr" v="299308" />
	</node>
	<node lat="69.57701944534733" lon="20.175766649518117" id="-96283">
		<tag k="name" v="Isakmyra" />
		<tag k="natural" v="wetland" />
		<tag k="ssr:stedsnr" v="299542" />
	</node>
	<node lat="69.46911666745027" lon="20.21969164595706" id="-96290">
		<tag k="name" v="Forhamnsmyra" />
		<tag k="natural" v="wetland" />
		<tag k="ssr:stedsnr" v="299569" />
	</node>
	<node lat="69.600905555674" lon="20.29775553666404" id="-96298">
		<tag k="name" v="Kuvassmyra" />
		<tag k="natural" v="wetland" />
		<tag k="ssr:stedsnr" v="299970" />
	</node>
	<node lat="69.60652777557348" lon="20.28651108379104" id="-96304">
		<tag k="name" v="Gopperosmyra" />
		<tag k="natural" v="wetland" />
		<tag k="ssr:stedsnr" v="299998" />
	</node>
	<node lat="69.68215000029777" lon="19.91666386835628" id="-96316">
		<tag k="name" v="Deplan" />
		<tag k="natural" v="wetland" />
		<tag k="ssr:stedsnr" v="312069" />
	</node>
	<node lat="69.5806499977154" lon="20.054419441206857" id="-96352">
		<tag k="name" v="Storura" />
		<tag k="natural" v="scree" />
		<tag k="ssr:stedsnr" v="357242" />
	</node>
	<node lat="69.65079999722394" lon="19.832736101918268" id="-96375">
		<tag k="name" v="Klammermyra" />
		<tag k="natural" v="wetland" />
		<tag k="ssr:stedsnr" v="360277" />
	</node>
	<node lat="69.53744167037694" lon="20.198513874231576" id="-96379">
		<tag k="name" v="Momyra" />
		<tag k="natural" v="wetland" />
		<tag k="ssr:stedsnr" v="360539" />
	</node>
	<node lat="69.85091667030343" lon="20.06715277611767" id="-96381">
		<tag k="name" v="Gråsteinen" />
		<tag k="natural" v="stone" />
		<tag k="ssr:stedsnr" v="360652" />
	</node>
	<node lat="69.62511944202605" lon="20.316002767458215" id="-96398">
		<tag k="name" v="Skavgropmyra" />
		<tag k="natural" v="wetland" />
		<tag k="ssr:stedsnr" v="360998" />
	</node>
	<node lat="69.80337777422633" lon="20.333297206994192" id="-96434">
		<tag k="alt_name:no" v="Kobbøyra" />
		<tag k="loc_name:se" v="Njuorjogárgu" />
		<tag k="name" v="Kobbøra" />
		<tag k="name:no" v="Kobbøra" />
		<tag k="place" v="locality" />
		<tag k="ssr:stedsnr" v="383683" />
	</node>
	<node lat="69.46739166336081" lon="19.93138887266591" id="-96470">
		<tag k="name" v="Midtbreen - Gaskajiehkki" />
		<tag k="name:no" v="Midtbreen" />
		<tag k="name:se" v="Gaskajiehkki" />
		<tag k="natural" v="glacier" />
		<tag k="ssr:stedsnr" v="421077" />
	</node>
	<node lat="69.63079166467597" lon="20.319552772526087" id="-96471">
		<tag k="name" v="Oddasiltimyra" />
		<tag k="natural" v="wetland" />
		<tag k="ssr:stedsnr" v="421079" />
	</node>
	<node lat="69.65979999746698" lon="20.26131664035099" id="-96477">
		<tag k="name" v="Skávžamelen" />
		<tag k="place" v="locality" />
		<tag k="ssr:stedsnr" v="421918" />
	</node>
	<node lat="69.59127222043942" lon="20.26877774955598" id="-96483">
		<tag k="name" v="Sørslåtta" />
		<tag k="place" v="locality" />
		<tag k="ssr:stedsnr" v="421962" />
	</node>
	<node lat="69.59411111411036" lon="20.270480545689377" id="-96486">
		<tag k="name" v="Klokkarmyra" />
		<tag k="natural" v="wetland" />
		<tag k="ssr:stedsnr" v="421968" />
	</node>
	<node lat="69.68635000010342" lon="20.177088876038418" id="-96495">
		<tag k="name" v="Koppangsbreen" />
		<tag k="natural" v="glacier" />
		<tag k="ssr:stedsnr" v="443008" />
	</node>
	<node lat="69.95332777947424" lon="20.22884721990673" id="-96516">
		<tag k="alt_name" v="Langøyra" />
		<tag k="name" v="Langøra" />
		<tag k="place" v="locality" />
		<tag k="ssr:stedsnr" v="444640" />
	</node>
	<node lat="69.80729722120019" lon="19.93571942434647" id="-96523">
		<tag k="alt_name" v="Ravikmyra" />
		<tag k="name" v="Ravikmyran" />
		<tag k="natural" v="wetland" />
		<tag k="ssr:stedsnr" v="444662" />
	</node>
	<node lat="69.79548332972506" lon="19.947430552266525" id="-96544">
		<tag k="name" v="Lenangsmyran" />
		<tag k="natural" v="wetland" />
		<tag k="ssr:stedsnr" v="504685" />
	</node>
	<node lat="69.79346944861977" lon="19.934299979744896" id="-96545">
		<tag k="name" v="Rømyra" />
		<tag k="natural" v="wetland" />
		<tag k="ssr:stedsnr" v="504686" />
	</node>
	<node lat="69.58727222075838" lon="20.089299979058676" id="-96588">
		<tag k="name" v="Hansetoftøra" />
		<tag k="place" v="locality" />
		<tag k="ssr:stedsnr" v="542758" />
	</node>
	<node lat="69.45332778205308" lon="19.909136090383758" id="-96623">
		<tag k="name" v="Bálggesváhjiehkki" />
		<tag k="name:se" v="Bálggesváhjiehkki" />
		<tag k="natural" v="glacier" />
		<tag k="ssr:stedsnr" v="564240" />
	</node>
	<node lat="69.80013333241348" lon="20.154961093490048" id="-96636">
		<tag k="name" v="Stefjellblåisen" />
		<tag k="natural" v="glacier" />
		<tag k="ssr:stedsnr" v="565631" />
	</node>
	<node lat="69.79048333041251" lon="19.938933323612815" id="-96649">
		<tag k="name" v="Trollskogen" />
		<tag k="place" v="locality" />
		<tag k="ssr:stedsnr" v="602088" />
	</node>
	<node lat="69.6165694447487" lon="20.266622200458233" id="-96658">
		<tag k="name" v="Rødmyra" />
		<tag k="natural" v="wetland" />
		<tag k="ssr:stedsnr" v="602791" />
	</node>
	<node lat="69.4843416707686" lon="20.231180530956575" id="-96676">
		<tag k="name" v="Sieidimyra" />
		<tag k="natural" v="wetland" />
		<tag k="ssr:stedsnr" v="604848" />
	</node>
	<node lat="69.77939444611808" lon="19.929286107561055" id="-96738">
		<tag k="name" v="Kvænmyra" />
		<tag k="natural" v="wetland" />
		<tag k="ssr:stedsnr" v="663040" />
	</node>
	<node lat="69.74111389314123" lon="19.875094422159503" id="-96746">
		<tag k="name" v="Kjørmyran" />
		<tag k="natural" v="wetland" />
		<tag k="ssr:stedsnr" v="663219" />
	</node>
	<node lat="69.59034721987358" lon="20.071719420584078" id="-96755">
		<tag k="name" v="Fyenura" />
		<tag k="natural" v="scree" />
		<tag k="ssr:stedsnr" v="663753" />
	</node>
	<node lat="69.58407500198328" lon="20.27413610751665" id="-96768">
		<tag k="name" v="Lekket" />
		<tag k="place" v="locality" />
		<tag k="ssr:stedsnr" v="663954" />
	</node>
	<node lat="69.44204722011845" lon="20.12125275558058" id="-96774">
		<tag k="landuse" v="meadow" />
		<tag k="name" v="Njunnegieddi" />
		<tag k="name:se" v="Njunnegieddi" />
		<tag k="ssr:stedsnr" v="664073" />
	</node>
	<node lat="69.73567222493392" lon="19.858558328724257" id="-96784">
		<tag k="name" v="Finnmyra" />
		<tag k="natural" v="wetland" />
		<tag k="ssr:stedsnr" v="724188" />
	</node>
	<node lat="69.64721389399804" lon="19.82711387051407" id="-96787">
		<tag k="name" v="Kvalvikmyra" />
		<tag k="natural" v="wetland" />
		<tag k="ssr:stedsnr" v="724286" />
	</node>
	<node lat="69.68994999767656" lon="19.80292220389034" id="-96803">
		<tag k="name" v="Stakemyra" />
		<tag k="natural" v="wetland" />
		<tag k="ssr:stedsnr" v="724257" />
	</node>
	<node lat="69.49903333568477" lon="20.24354997939468" id="-96813">
		<tag k="name" v="Øra - Gárgu" />
		<tag k="name:no" v="Øra" />
		<tag k="name:se" v="Gárgu" />
		<tag k="place" v="locality" />
		<tag k="ssr:stedsnr" v="724833" />
	</node>
	<node lat="69.59625555593608" lon="20.27490276319267" id="-96818">
		<tag k="name" v="Stormyra" />
		<tag k="natural" v="wetland" />
		<tag k="ssr:stedsnr" v="724976" />
	</node>
	<node lat="69.49013610878039" lon="19.960961092568688" id="-96834">
		<tag k="name" v="Vestbreen - Nuorttabealjiehkki" />
		<tag k="name:no" v="Vestbreen" />
		<tag k="name:se" v="Nuorttabealjiehkki" />
		<tag k="natural" v="glacier" />
		<tag k="ssr:stedsnr" v="746274" />
	</node>
	<node lat="69.87546944646961" lon="20.20644442713718" id="-96847">
		<tag k="alt_name" v="Lassurda" />
		<tag k="name" v="Lasseura" />
		<tag k="natural" v="scree" />
		<tag k="ssr:stedsnr" v="747683" />
	</node>
	<node lat="69.49576388665534" lon="20.18570832986494" id="-96855">
		<tag k="name" v="Essamyra - Essanjänkkä" />
		<tag k="name:fkv" v="Essanjänkkä" />
		<tag k="name:no" v="Essamyra" />
		<tag k="natural" v="wetland" />
		<tag k="ssr:stedsnr" v="753099" />
	</node>
	<node lat="69.46068333111067" lon="20.071066642201025" id="-96857">
		<tag k="name" v="Várášgállu" />
		<tag k="name:se" v="Várášgállu" />
		<tag k="natural" v="stone" />
		<tag k="ssr:stedsnr" v="753238" />
	</node>
	<node lat="69.54221666666915" lon="20.20743610403701" id="-96870">
		<tag k="name" v="Lillemyra" />
		<tag k="natural" v="wetland" />
		<tag k="ssr:stedsnr" v="784765" />
	</node>
	<node lat="69.60351389132461" lon="20.2887722117906" id="-96895">
		<tag k="name" v="Olderskogen" />
		<tag k="place" v="locality" />
		<tag k="ssr:stedsnr" v="785978" />
	</node>
	<node lat="69.43694722305072" lon="20.125416641421285" id="-96902">
		<tag k="name" v="Suomarohtu" />
		<tag k="name:se" v="Suomarohtu" />
		<tag k="place" v="locality" />
		<tag k="ssr:stedsnr" v="786077" />
	</node>
	<node lat="69.66605000125223" lon="20.252072198978365" id="-96903">
		<tag k="name" v="Torvemyran" />
		<tag k="natural" v="wetland" />
		<tag k="ssr:stedsnr" v="785921" />
	</node>
	<node lat="69.78202221955571" lon="19.989886098347966" id="-96943">
		<tag k="alt_name:no" v="Blokkøyra;Blokkør" />
		<tag k="name" v="Blokkøra - Ploahkka" />
		<tag k="name:no" v="Blokkøra" />
		<tag k="name:se" v="Ploahkka" />
		<tag k="place" v="locality" />
		<tag k="ssr:stedsnr" v="808626" />
	</node>
	<node lat="69.61421388933371" lon="20.254124995844254" id="-96979">
		<tag k="name" v="Fjellmyra" />
		<tag k="natural" v="wetland" />
		<tag k="ssr:stedsnr" v="846766" />
	</node>
	<node lat="69.44378611328744" lon="20.133661088503697" id="-96991">
		<tag k="name" v="Stahkkarohtu" />
		<tag k="name:se" v="Stahkkarohtu" />
		<tag k="place" v="locality" />
		<tag k="ssr:stedsnr" v="847074" />
	</node>
	<node lat="69.60408611270162" lon="20.14688054151596" id="-97006">
		<tag k="name" v="Kjosbreen" />
		<tag k="natural" v="glacier" />
		<tag k="ssr:stedsnr" v="868992" />
	</node>
	<node lat="69.7369861087765" lon="19.926027754918106" id="-97007">
		<tag k="alt_name" v="Fransenmyra" />
		<tag k="name" v="Fransemyra" />
		<tag k="natural" v="wetland" />
		<tag k="ssr:stedsnr" v="868086" />
	</node>
	<node lat="69.58120000335973" lon="20.04843611158411" id="-97038">
		<tag k="name" v="Ørnsteinen" />
		<tag k="natural" v="stone" />
		<tag k="ssr:stedsnr" v="964278" />
	</node>
	<node lat="69.58865277425977" lon="20.09759166272095" id="-97041">
		<tag k="name" v="Storsteinen" />
		<tag k="natural" v="stone" />
		<tag k="ssr:stedsnr" v="966763" />
	</node>
	<node lat="69.62761388482652" lon="20.250722213875324" id="-97042">
		<tag k="name" v="Ristenrohtu" />
		<tag k="name:se" v="Ristenrohtu" />
		<tag k="place" v="locality" />
		<tag k="ssr:stedsnr" v="966053" />
	</node>
	<node lat="69.7212388897592" lon="19.92606666566245" id="-97043">
		<tag k="name" v="Latomten" />
		<tag k="place" v="locality" />
		<tag k="ssr:stedsnr" v="966062" />
	</node>
	<node lat="69.72871944202637" lon="19.9273694294238" id="-97044">
		<tag k="name" v="Butomten" />
		<tag k="place" v="locality" />
		<tag k="ssr:stedsnr" v="966063" />
	</node>
	<node lat="69.61513055695129" lon="20.259033327452993" id="-97053">
		<tag k="name" v="Framkjørarmyra" />
		<tag k="natural" v="wetland" />
		<tag k="ssr:stedsnr" v="966784" />
	</node>
	<node lat="69.6347472220704" lon="20.266074991421537" id="-97055">
		<tag k="name" v="Fjellmyra" />
		<tag k="natural" v="wetland" />
		<tag k="ssr:stedsnr" v="967056" />
	</node>
	<node lat="69.72201667079891" lon="19.826486089111953" id="-97056">
		<tag k="name" v="Storsteinnesmyra" />
		<tag k="natural" v="wetland" />
		<tag k="ssr:stedsnr" v="967159" />
	</node>
	<node lat="69.51768295217717" lon="20.238745467154832" id="-97066">
		<tag k="name" v="Olmmošgoddi" />
		<tag k="name:se" v="Olmmošgoddi" />
		<tag k="natural" v="stone" />
		<tag k="ssr:stedsnr" v="967788" />
	</node>
	<node lat="69.54803055656784" lon="20.24227775369184" id="-97070">
		<tag k="name" v="Karnesleira" />
		<tag k="place" v="locality" />
		<tag k="ssr:stedsnr" v="967772" />
	</node>
</osm>
