<?xml version="1.0" encoding="UTF-8"?>
<osm version="0.6" generator="osmapis">
	<node lat="69.70822778206079" lon="19.892902759413136" id="-102020">
		<tag k="name" v="Ytre Sandnes" />
		<tag k="natural" v="cape" />
		<tag k="ssr:stedsnr" v="5107" />
	</node>
	<node lat="69.69132500086413" lon="20.25921109306956" id="-102021">
		<tag k="name" v="Storelva" />
		<tag k="ssr:stedsnr" v="18015" />
		<tag k="waterway" v="stream" />
	</node>
	<node lat="69.797355551997" lon="20.324302767857834" id="-102023">
		<tag k="alt_name" v="Rensa, store" />
		<tag k="name" v="Store Rensa" />
		<tag k="ssr:stedsnr" v="19593" />
		<tag k="waterway" v="stream" />
	</node>
	<node lat="69.76778055862076" lon="20.00312499972354" id="-102033">
		<tag k="name" v="Henrik-Monsenelva" />
		<tag k="ssr:stedsnr" v="238021" />
		<tag k="waterway" v="stream" />
	</node>
	<node lat="69.68318055621863" lon="19.928391644230427" id="-102038">
		<tag k="name" v="Stabburselva" />
		<tag k="ssr:stedsnr" v="238072" />
		<tag k="waterway" v="stream" />
	</node>
	<node lat="69.51702500381826" lon="20.1615833186597" id="-102040">
		<tag k="name" v="Stålfossen" />
		<tag k="natural" v="waterfall" />
		<tag k="ssr:stedsnr" v="238548" />
	</node>
	<node lat="69.5790833361706" lon="20.14941387993175" id="-102041">
		<tag k="name" v="Fjellelva" />
		<tag k="ssr:stedsnr" v="238563" />
		<tag k="waterway" v="stream" />
	</node>
	<node lat="69.54081110923066" lon="20.210027752651705" id="-102047">
		<tag k="name" v="Danielelva" />
		<tag k="ssr:stedsnr" v="238769" />
		<tag k="waterway" v="stream" />
	</node>
	<node lat="69.6555166659536" lon="19.882136106084918" id="-102062">
		<tag k="name" v="Fiskevasselva" />
		<tag k="ssr:stedsnr" v="239300" />
		<tag k="waterway" v="stream" />
	</node>
	<node lat="69.8395055521423" lon="20.056452766177355" id="-102069">
		<tag k="name" v="Blåbærelva" />
		<tag k="ssr:stedsnr" v="240057" />
		<tag k="waterway" v="stream" />
	</node>
	<node lat="69.61358611202263" lon="20.33677221413419" id="-102074">
		<tag k="name" v="Skinnelva" />
		<tag k="name:no" v="Skinnelva" />
		<tag k="name:se" v="Náhkkejohka" />
		<tag k="ssr:stedsnr" v="56991" />
		<tag k="waterway" v="stream" />
	</node>
	<node lat="69.59104721941956" lon="20.01280275752239" id="-102075">
		<tag k="name" v="Tjønnbergelva" />
		<tag k="ssr:stedsnr" v="57103" />
		<tag k="waterway" v="stream" />
	</node>
	<node lat="69.59107500164775" lon="20.0962805541252" id="-102076">
		<tag k="name" v="Urelva" />
		<tag k="ssr:stedsnr" v="57105" />
		<tag k="waterway" v="stream" />
	</node>
	<node lat="69.71609167085124" lon="19.875283328714524" id="-102077">
		<tag k="name" v="Storbakkelva" />
		<tag k="ssr:stedsnr" v="57120" />
		<tag k="waterway" v="stream" />
	</node>
	<node lat="69.73407222097623" lon="19.86304164163734" id="-102079">
		<tag k="name" v="Grindvollelva" />
		<tag k="ssr:stedsnr" v="57176" />
		<tag k="waterway" v="stream" />
	</node>
	<node lat="69.6780833330561" lon="20.253869438167936" id="-102082">
		<tag k="name" v="Skjellelva" />
		<tag k="ssr:stedsnr" v="240111" />
		<tag k="waterway" v="stream" />
	</node>
	<node lat="69.61870000268259" lon="20.267527758199876" id="-102086">
		<tag k="name" v="Rødmyrvatnet" />
		<tag k="natural" v="water" />
		<tag k="ssr:stedsnr" v="57787" />
	</node>
	<node lat="69.81590555404584" lon="20.027122195866152" id="-102093">
		<tag k="name" v="Hansenelva" />
		<tag k="ssr:stedsnr" v="240019" />
		<tag k="waterway" v="stream" />
	</node>
	<node lat="69.67618055660739" lon="20.238713869223286" id="-102099">
		<tag k="name" v="Koppangselva" />
		<tag k="ssr:stedsnr" v="58114" />
		<tag k="waterway" v="river" />
	</node>
	<node lat="69.63420000078808" lon="20.10279442584521" id="-102106">
		<tag k="name" v="Jávrrážat" />
		<tag k="name:se" v="Jávrrážat" />
		<tag k="ssr:stedsnr" v="79042" />
		<tag k="waterway" v="river" />
	</node>
	<node lat="69.76392499892458" lon="19.986116663305328" id="-102123">
		<tag k="name" v="Tømmerelva" />
		<tag k="name:no" v="Tømmerelva" />
		<tag k="name:se" v="Dimbbarjohka" />
		<tag k="ssr:stedsnr" v="117012" />
		<tag k="waterway" v="stream" />
	</node>
	<node lat="69.76016944048388" lon="19.989166652608137" id="-102124">
		<tag k="name" v="Finnvatnan" />
		<tag k="natural" v="water" />
		<tag k="ssr:stedsnr" v="117013" />
		<tag k="water" v="lake" />
	</node>
	<node lat="69.69560555183793" lon="19.89539721107422" id="-102126">
		<tag k="name" v="Langvasselva" />
		<tag k="ssr:stedsnr" v="117314" />
		<tag k="waterway" v="stream" />
	</node>
	<node lat="69.65330277978161" lon="19.88253053946262" id="-102150">
		<tag k="name" v="Fiskevatnet" />
		<tag k="natural" v="water" />
		<tag k="ssr:stedsnr" v="139044" />
	</node>
	<node lat="69.49327500217271" lon="20.09942776670733" id="-102157">
		<tag k="name" v="Myrvatnet" />
		<tag k="natural" v="water" />
		<tag k="ssr:stedsnr" v="140292" />
	</node>
	<node lat="69.61110833571638" lon="20.281199993818692" id="-102164">
		<tag k="fixme" v="multiple name tags, choose one and add the other to alt_name" />
		<tag k="name" v="Trollvatnet;Trollhaugvatnet" />
		<tag k="natural" v="water" />
		<tag k="ssr:stedsnr" v="140999" />
	</node>
	<node lat="69.49918888951984" lon="20.177222215411575" id="-102180">
		<tag k="name" v="Mølnelva" />
		<tag k="name:no" v="Mølnelva" />
		<tag k="name:se" v="Millojohka" />
		<tag k="ssr:stedsnr" v="176458" />
		<tag k="waterway" v="stream" />
	</node>
	<node lat="69.49661389076665" lon="20.16944166103446" id="-102181">
		<tag k="name" v="Stuelva" />
		<tag k="ssr:stedsnr" v="177605" />
		<tag k="waterway" v="stream" />
	</node>
	<node lat="69.41940833004867" lon="20.12243053082536" id="-102182">
		<tag k="name" v="Atoelva" />
		<tag k="ssr:stedsnr" v="177661" />
		<tag k="waterway" v="stream" />
	</node>
	<node lat="69.61843610679946" lon="19.920038885470873" id="-102202">
		<tag k="name" v="Løbergelva" />
		<tag k="ssr:stedsnr" v="261986" />
		<tag k="waterway" v="stream" />
	</node>
	<node lat="69.79379722130149" lon="19.9139805442066" id="-102244">
		<tag k="name" v="Mikkelvikelva" />
		<tag k="ssr:stedsnr" v="238086" />
		<tag k="waterway" v="stream" />
	</node>
	<node lat="69.77776389395473" lon="19.908447207239625" id="-102245">
		<tag k="name" v="Lillåselva" />
		<tag k="ssr:stedsnr" v="238087" />
		<tag k="waterway" v="stream" />
	</node>
	<node lat="69.42374722595798" lon="20.122049984378" id="-102246">
		<tag k="name" v="Rohtaselva" />
		<tag k="name:no" v="Rohtaselva" />
		<tag k="name:se" v="Ruovddášjohka" />
		<tag k="ssr:stedsnr" v="238637" />
		<tag k="waterway" v="stream" />
	</node>
	<node lat="69.48446111199098" lon="20.027799998739816" id="-102272">
		<tag k="name" v="Bredalsvatnet" />
		<tag k="natural" v="water" />
		<tag k="ssr:stedsnr" v="261311" />
	</node>
	<node lat="69.56499444825039" lon="20.158749995564108" id="-102274">
		<tag k="name" v="Gjerdelva" />
		<tag k="name:no" v="Gjerdelva" />
		<tag k="name:se" v="Unnavákkášjohka" />
		<tag k="ssr:stedsnr" v="261895" />
		<tag k="waterway" v="river" />
	</node>
	<node lat="69.84044722494265" lon="20.128224997019046" id="-102280">
		<tag k="name" v="Vassdalsvatnan" />
		<tag k="natural" v="water" />
		<tag k="ssr:stedsnr" v="262744" />
		<tag k="water" v="lake" />
	</node>
	<node lat="69.6920111121286" lon="20.268947207981473" id="-102305">
		<tag k="name" v="Tørrelva" />
		<tag k="ssr:stedsnr" v="301090" />
		<tag k="waterway" v="stream" />
	</node>
	<node lat="69.7215444421567" lon="19.901688874372024" id="-102310">
		<tag k="alt_name:no" v="Jegervatn" />
		<tag k="fixme" v="multiple name:se tags, choose one and add the other to alt_name:se" />
		<tag k="name" v="Jægervatnet" />
		<tag k="name:no" v="Jægervatnet" />
		<tag k="name:se" v="Itnojávri;Jávremohkijávri" />
		<tag k="natural" v="water" />
		<tag k="ssr:stedsnr" v="321088" />
		<tag k="water" v="lake" />
	</node>
	<node lat="69.72305277781858" lon="19.883033313180494" id="-102324">
		<tag k="name" v="Storbakkneset" />
		<tag k="natural" v="cape" />
		<tag k="ssr:stedsnr" v="360118" />
	</node>
	<node lat="69.76710833715273" lon="19.85463054481116" id="-102325">
		<tag k="name" v="Finnvikelva" />
		<tag k="ssr:stedsnr" v="360122" />
		<tag k="waterway" v="stream" />
	</node>
	<node lat="69.69948610900182" lon="19.860297202386008" id="-102327">
		<tag k="name" v="Heinelva" />
		<tag k="ssr:stedsnr" v="360251" />
		<tag k="waterway" v="stream" />
	</node>
	<node lat="69.58718333529667" lon="20.053555552779564" id="-102342">
		<tag k="name" v="Mølnelva" />
		<tag k="ssr:stedsnr" v="481124" />
		<tag k="waterway" v="stream" />
	</node>
	<node lat="69.64882778176498" lon="20.262263882420765" id="-102356">
		<tag k="name" v="Skjellelva" />
		<tag k="ssr:stedsnr" v="481897" />
		<tag k="waterway" v="stream" />
	</node>
	<node lat="69.59808333758306" lon="20.259366645549104" id="-102359">
		<tag k="name" v="Tverrelva" />
		<tag k="ssr:stedsnr" v="481984" />
		<tag k="waterway" v="stream" />
	</node>
	<node lat="69.74943055368311" lon="19.96037219583719" id="-102361">
		<tag k="alt_name:no" v="Aspvatnet" />
		<tag k="fixme" v="multiple name:se tags, choose one and add the other to alt_name:se" />
		<tag k="name" v="Aspevatnet" />
		<tag k="name:no" v="Aspevatnet" />
		<tag k="name:se" v="Beahcevákkijávri;Beahcevákkijávri;Suhpejávri" />
		<tag k="natural" v="water" />
		<tag k="ssr:stedsnr" v="382107" />
	</node>
	<node lat="69.76705555788058" lon="20.039558328064178" id="-102369">
		<tag k="name" v="Olderelvvatnet" />
		<tag k="natural" v="water" />
		<tag k="ssr:stedsnr" v="383656" />
	</node>
	<node lat="69.79936944064893" lon="19.922702775856706" id="-102374">
		<tag k="name" v="Sveelva" />
		<tag k="ssr:stedsnr" v="483017" />
		<tag k="waterway" v="stream" />
	</node>
	<node lat="69.91036111426317" lon="20.339758328837934" id="-102376">
		<tag k="name" v="Skáidielva" />
		<tag k="ssr:stedsnr" v="483059" />
		<tag k="waterway" v="stream" />
	</node>
	<node lat="69.77098610776568" lon="20.298169429400826" id="-102379">
		<tag k="name" v="Siklet" />
		<tag k="ssr:stedsnr" v="483047" />
		<tag k="waterway" v="stream" />
	</node>
	<node lat="69.91917777474802" lon="20.149955548762737" id="-102398">
		<tag k="name" v="Berretelva" />
		<tag k="ssr:stedsnr" v="483888" />
		<tag k="waterway" v="stream" />
	</node>
	<node lat="69.53678611396396" lon="20.17746942591062" id="-102403">
		<tag k="name" v="Danielvatnet" />
		<tag k="name:no" v="Danielvatnet" />
		<tag k="name:se" v="Dáneljávri" />
		<tag k="natural" v="water" />
		<tag k="ssr:stedsnr" v="406562" />
	</node>
	<node lat="69.56236111011476" lon="20.20576665972996" id="-102412">
		<tag k="name" v="Lysdammen" />
		<tag k="natural" v="water" />
		<tag k="ssr:stedsnr" v="420750" />
	</node>
	<node lat="69.64504444094239" lon="19.89780832110543" id="-102414">
		<tag k="name" v="Isskarelva" />
		<tag k="ssr:stedsnr" v="421104" />
		<tag k="waterway" v="stream" />
	</node>
	<node lat="69.61781666917275" lon="20.292747202801774" id="-102426">
		<tag k="name" v="Nedre Langvatnet" />
		<tag k="name:se" v="Nedre Langvatnet" />
		<tag k="natural" v="water" />
		<tag k="ssr:stedsnr" v="421799" />
	</node>
	<node lat="69.69924721991995" lon="19.920141655113337" id="-102437">
		<tag k="name" v="Stortindsanden" />
		<tag k="natural" v="beach" />
		<tag k="ssr:stedsnr" v="430108" />
	</node>
	<node lat="69.63135277543415" lon="20.01947775046928" id="-102442">
		<tag k="name" v="Brevatnet" />
		<tag k="natural" v="water" />
		<tag k="ssr:stedsnr" v="443039" />
		<tag k="water" v="lake" />
	</node>
	<node lat="69.7370472227513" lon="19.898799982619256" id="-102443">
		<tag k="name" v="Kobbeneset" />
		<tag k="natural" v="cape" />
		<tag k="ssr:stedsnr" v="443095" />
	</node>
	<node lat="69.92010555518205" lon="20.228486101229233" id="-102452">
		<tag k="alt_name" v="Tverrelva, nedre" />
		<tag k="name" v="Nedre Tverrelva" />
		<tag k="ssr:stedsnr" v="444726" />
		<tag k="waterway" v="stream" />
	</node>
	<node lat="69.461016670863" lon="20.073991653726264" id="-102455">
		<tag k="name" v="Uŋgaelva" />
		<tag k="name:no" v="Uŋgaelva" />
		<tag k="name:se" v="Uŋggajohka" />
		<tag k="ssr:stedsnr" v="450270" />
		<tag k="waterway" v="river" />
	</node>
	<node lat="69.63496667018579" lon="20.275799976143684" id="-102464">
		<tag k="name" v="Tverrelva" />
		<tag k="name:no" v="Tverrelva" />
		<tag k="name:se" v="Doaresjohka" />
		<tag k="ssr:stedsnr" v="481072" />
		<tag k="waterway" v="stream" />
	</node>
	<node lat="69.67335833328077" lon="19.846180548445425" id="-102466">
		<tag k="name" v="Storåsvatnet" />
		<tag k="natural" v="water" />
		<tag k="ssr:stedsnr" v="481268" />
	</node>
	<node lat="69.6154333360501" lon="20.295655529031357" id="-102473">
		<tag k="name" v="Reinbeinvatnet" />
		<tag k="natural" v="water" />
		<tag k="ssr:stedsnr" v="481763" />
	</node>
	<node lat="69.65874166508799" lon="20.225649983464407" id="-102476">
		<tag k="loc_name:se" v="Doaresjohka" />
		<tag k="name" v="Tverrelva" />
		<tag k="name:no" v="Tverrelva" />
		<tag k="ssr:stedsnr" v="481906" />
		<tag k="waterway" v="stream" />
	</node>
	<node lat="69.70914722567787" lon="19.922783334766706" id="-102480">
		<tag k="name" v="Indre Forrholtbukt" />
		<tag k="natural" v="bay" />
		<tag k="ssr:stedsnr" v="490114" />
	</node>
	<node lat="69.65789999800941" lon="19.90876942124408" id="-102502">
		<tag k="name" v="Trollvatnet - Gielasjávri" />
		<tag k="name:no" v="Trollvatnet" />
		<tag k="name:se" v="Gielasjávri" />
		<tag k="natural" v="water" />
		<tag k="ssr:stedsnr" v="686053" />
	</node>
	<node lat="69.59582777922807" lon="20.20914721651839" id="-102504">
		<tag k="name" v="Langvatnet" />
		<tag k="natural" v="water" />
		<tag k="ssr:stedsnr" v="685990" />
	</node>
	<node lat="69.60091111106716" lon="20.28801109303269" id="-102506">
		<tag k="name" v="Kuvatnet" />
		<tag k="natural" v="water" />
		<tag k="ssr:stedsnr" v="685987" />
	</node>
	<node lat="69.47521667063269" lon="20.05822498258019" id="-102512">
		<tag k="name" v="Fossgropelva - Goržejohka" />
		<tag k="name:no" v="Fossgropelva" />
		<tag k="name:se" v="Goržejohka" />
		<tag k="ssr:stedsnr" v="686281" />
		<tag k="waterway" v="stream" />
	</node>
	<node lat="69.66369444160456" lon="19.82000830967841" id="-102535">
		<tag k="name" v="Langneselva" />
		<tag k="ssr:stedsnr" v="542313" />
		<tag k="waterway" v="stream" />
	</node>
	<node lat="69.51549444159572" lon="20.17695554757659" id="-102537">
		<tag k="name" v="Stelfossen" />
		<tag k="natural" v="waterfall" />
		<tag k="ssr:stedsnr" v="542509" />
	</node>
	<node lat="69.55353333242844" lon="20.201194437978344" id="-102541">
		<tag k="name" v="Lensmannselva" />
		<tag k="ssr:stedsnr" v="542768" />
		<tag k="waterway" v="stream" />
	</node>
	<node lat="69.83771388965553" lon="20.184988881053705" id="-102553">
		<tag k="name" v="Tverrelva" />
		<tag k="ssr:stedsnr" v="687723" />
		<tag k="waterway" v="stream" />
	</node>
	<node lat="69.82448889341002" lon="20.221274980523134" id="-102559">
		<tag k="name" v="Øvrevatnet" />
		<tag k="natural" v="water" />
		<tag k="ssr:stedsnr" v="687673" />
	</node>
	<node lat="69.51862777761575" lon="19.960288877965283" id="-102565">
		<tag k="name" v="Fugldalsvatnan" />
		<tag k="natural" v="water" />
		<tag k="ssr:stedsnr" v="564865" />
		<tag k="water" v="lake" />
	</node>
	<node lat="69.76038610939403" lon="19.950063873081408" id="-102577">
		<tag k="alt_name" v="Lakseholet" />
		<tag k="name" v="Laksholla" />
		<tag k="natural" v="bay" />
		<tag k="ssr:stedsnr" v="573155" />
	</node>
	<node lat="69.74420277813802" lon="19.898152766501653" id="-102580">
		<tag k="name" v="Kobbeneselva" />
		<tag k="ssr:stedsnr" v="602067" />
		<tag k="waterway" v="stream" />
	</node>
	<node lat="69.75603055973745" lon="20.255522197406496" id="-102591">
		<tag k="name" v="Reindalselva" />
		<tag k="ssr:stedsnr" v="604004" />
		<tag k="waterway" v="stream" />
	</node>
	<node lat="69.80445555532742" lon="20.231619428811" id="-102593">
		<tag k="name" v="Lille Vaggasvatn" />
		<tag k="natural" v="water" />
		<tag k="ssr:stedsnr" v="604041" />
	</node>
	<node lat="69.6833747480904" lon="19.917134382145086" id="-102596">
		<tag k="name" v="Driplan" />
		<tag k="natural" v="water" />
		<tag k="ssr:stedsnr" v="624009" />
		<tag k="water" v="lake" />
	</node>
	<node lat="69.86985833187815" lon="20.37560832849779" id="-102601">
		<tag k="name" v="Vinterelva" />
		<tag k="ssr:stedsnr" v="625713" />
		<tag k="waterway" v="stream" />
	</node>
	<node lat="69.54347777709997" lon="20.04263888019601" id="-102602">
		<tag k="loc_name" v="Rødbergdalsvatnet" />
		<tag k="name" v="Kvalvikvatnet" />
		<tag k="natural" v="water" />
		<tag k="ssr:stedsnr" v="625908" />
	</node>
	<node lat="69.7649777761902" lon="19.987588884851018" id="-102608">
		<tag k="name" v="Akerelva" />
		<tag k="ssr:stedsnr" v="663020" />
		<tag k="waterway" v="stream" />
	</node>
	<node lat="69.61980277511972" lon="20.309277756536357" id="-102626">
		<tag k="name" v="Tjærevatnet" />
		<tag k="natural" v="water" />
		<tag k="ssr:stedsnr" v="664000" />
	</node>
	<node lat="69.70083611318296" lon="20.27349999574203" id="-102629">
		<tag k="name" v="Klubbelva" />
		<tag k="ssr:stedsnr" v="665096" />
		<tag k="waterway" v="stream" />
	</node>
	<node lat="69.68007777408232" lon="20.24223886939222" id="-102636">
		<tag k="alt_name" v="Kidelva" />
		<tag k="name" v="Kielva" />
		<tag k="ssr:stedsnr" v="686005" />
		<tag k="waterway" v="stream" />
	</node>
	<node lat="69.77904167109524" lon="19.890366660300735" id="-102656">
		<tag k="name" v="Mellaelva" />
		<tag k="ssr:stedsnr" v="724081" />
		<tag k="waterway" v="stream" />
	</node>
	<node lat="69.67818333113013" lon="19.870311085631823" id="-102672">
		<tag k="name" v="Heinelva" />
		<tag k="ssr:stedsnr" v="746013" />
		<tag k="waterway" v="stream" />
	</node>
	<node lat="69.5460000017806" lon="20.08788610381889" id="-102673">
		<tag k="name" v="Gjerdelvvatnan" />
		<tag k="natural" v="water" />
		<tag k="ssr:stedsnr" v="746880" />
	</node>
	<node lat="69.79670278120304" lon="20.02992777577743" id="-102686">
		<tag k="name" v="Storfossen" />
		<tag k="natural" v="waterfall" />
		<tag k="ssr:stedsnr" v="906035" />
	</node>
	<node lat="69.49956388902963" lon="20.16359721046131" id="-102695">
		<tag k="name" v="Skáidi" />
		<tag k="name:se" v="Skáidi" />
		<tag k="natural" v="cape" />
		<tag k="ssr:stedsnr" v="906535" />
	</node>
	<node lat="69.4224194442564" lon="20.12177221682332" id="-102697">
		<tag k="name" v="Askeelva" />
		<tag k="name:no" v="Askeelva" />
		<tag k="name:se" v="Askejohka" />
		<tag k="ssr:stedsnr" v="906649" />
		<tag k="waterway" v="stream" />
	</node>
	<node lat="69.61616110729474" lon="20.291669427012536" id="-102703">
		<tag k="name" v="Eselvatnet" />
		<tag k="natural" v="water" />
		<tag k="ssr:stedsnr" v="906790" />
	</node>
	<node lat="69.59333333012503" lon="20.281505545464803" id="-102708">
		<tag k="name" v="Lågen" />
		<tag k="natural" v="water" />
		<tag k="ssr:stedsnr" v="906970" />
		<tag k="water" v="lake" />
	</node>
	<node lat="69.88050000240759" lon="20.106791644532272" id="-102739">
		<tag k="name" v="Hesjeneselva" />
		<tag k="ssr:stedsnr" v="785666" />
		<tag k="waterway" v="stream" />
	</node>
	<node lat="69.82625833312498" lon="20.04101388067526" id="-102745">
		<tag k="name" v="Finaelva" />
		<tag k="ssr:stedsnr" v="786008" />
		<tag k="waterway" v="stream" />
	</node>
	<node lat="69.80491944375481" lon="20.07633888562936" id="-102751">
		<tag k="fixme" v="multiple name:no tags, choose one and add the other to alt_name:no" />
		<tag k="name" v="Sarvvesjohka" />
		<tag k="name:no" v="Reinelva, vestre;Reinelva;Vestre Reinelva" />
		<tag k="name:se" v="Sarvvesjohka" />
		<tag k="ssr:stedsnr" v="808444" />
		<tag k="waterway" v="river" />
	</node>
	<node lat="69.84518889315683" lon="20.159186094865856" id="-102755">
		<tag k="name" v="Mellaelva" />
		<tag k="ssr:stedsnr" v="808699" />
		<tag k="waterway" v="stream" />
	</node>
	<node lat="69.63306389321373" lon="20.253824979677457" id="-102765">
		<tag k="name" v="Niselva" />
		<tag k="ssr:stedsnr" v="845074" />
		<tag k="waterway" v="stream" />
	</node>
	<node lat="69.72797777928152" lon="20.13107775612117" id="-102783">
		<tag k="name" v="Strupskardvatnan" />
		<tag k="natural" v="water" />
		<tag k="ssr:stedsnr" v="928022" />
		<tag k="water" v="lake" />
	</node>
	<node lat="69.48734999789446" lon="20.16472776906206" id="-102789">
		<tag k="name" v="Pollelva" />
		<tag k="name:fkv" v="Voivuononjoki" />
		<tag k="name:no" v="Pollelva" />
		<tag k="ssr:stedsnr" v="929258" />
		<tag k="waterway" v="stream" />
	</node>
	<node lat="69.86166111402757" lon="20.352741653662235" id="-102791">
		<tag k="alt_name" v="Gammvikelva, yt;Ytre Gammvikelva" />
		<tag k="name" v="Ytre Gamvikelva" />
		<tag k="ssr:stedsnr" v="929678" />
		<tag k="waterway" v="stream" />
	</node>
	<node lat="69.64289444235582" lon="20.267030531530164" id="-102807">
		<tag k="name" v="Herrevatnet" />
		<tag k="natural" v="water" />
		<tag k="ssr:stedsnr" v="868032" />
	</node>
	<node lat="69.63683055351237" lon="20.308955528442244" id="-102808">
		<tag k="alt_name:no" v="Lillevatnet" />
		<tag k="name" v="Litlevatnet" />
		<tag k="name:no" v="Litlevatnet" />
		<tag k="name:se" v="Sovrajávri" />
		<tag k="natural" v="water" />
		<tag k="ssr:stedsnr" v="868036" />
	</node>
	<node lat="69.75453055209206" lon="19.960013867470366" id="-102815">
		<tag k="alt_name" v="Vuotnabahjohka" />
		<tag k="name" v="Botnelva" />
		<tag k="ssr:stedsnr" v="869503" />
		<tag k="waterway" v="stream" />
	</node>
	<node lat="69.83806944092318" lon="20.213805539526106" id="-102816">
		<tag k="name" v="Botnelva - Vákkašjohka" />
		<tag k="name:no" v="Botnelva" />
		<tag k="name:se" v="Vákkašjohka" />
		<tag k="ssr:stedsnr" v="869507" />
		<tag k="waterway" v="river" />
	</node>
	<node lat="69.78869444655192" lon="20.286063869817283" id="-102817">
		<tag k="name" v="Vaggaselva - Vákkášjohka" />
		<tag k="name:no" v="Vaggaselva" />
		<tag k="name:se" v="Vákkášjohka" />
		<tag k="ssr:stedsnr" v="869667" />
		<tag k="waterway" v="stream" />
	</node>
	<node lat="69.7590833347332" lon="19.876622208319873" id="-102826">
		<tag k="name" v="Finngammvatnan" />
		<tag k="natural" v="water" />
		<tag k="ssr:stedsnr" v="930662" />
	</node>
	<node lat="69.9424277800922" lon="20.219686109246627" id="-102830">
		<tag k="name" v="Russelva - Ruoššajohka" />
		<tag k="name:no" v="Russelva" />
		<tag k="name:se" v="Ruoššajohka" />
		<tag k="ssr:stedsnr" v="930757" />
		<tag k="waterway" v="river" />
	</node>
	<node lat="69.82995833347745" lon="20.048563875593445" id="-102857">
		<tag k="name" v="Lomvatnet" />
		<tag k="natural" v="water" />
		<tag k="ssr:stedsnr" v="908006" />
	</node>
	<node lat="69.79819722200216" lon="20.253047212262185" id="-102866">
		<tag k="name" v="Vaggasvatnet - Vákkášjávri" />
		<tag k="name:no" v="Vaggasvatnet" />
		<tag k="name:se" v="Vákkášjávri" />
		<tag k="natural" v="water" />
		<tag k="old_name:no" v="Vákkášvatnet" />
		<tag k="ssr:stedsnr" v="929604" />
		<tag k="water" v="lake" />
	</node>
	<node lat="69.92359167178347" lon="20.266647200597507" id="-102871">
		<tag k="alt_name" v="Tverrelva, øvre" />
		<tag k="name" v="Øvre Tverrelva" />
		<tag k="ssr:stedsnr" v="929720" />
		<tag k="waterway" v="stream" />
	</node>
	<node lat="69.47607777690156" lon="20.1696499900063" id="-102880">
		<tag k="name" v="Sandelva" />
		<tag k="ssr:stedsnr" v="966597" />
		<tag k="waterway" v="stream" />
	</node>
	<node lat="69.62148333540242" lon="20.319438862784725" id="-102899">
		<tag k="name" v="Kuskarvatnet" />
		<tag k="natural" v="water" />
		<tag k="ssr:stedsnr" v="967999" />
	</node>
	<node lat="69.71882500467436" lon="20.25791387525184" id="-102900">
		<tag k="name" v="Strupelva" />
		<tag k="ssr:stedsnr" v="968001" />
		<tag k="waterway" v="stream" />
	</node>
	<node lat="69.69465833844899" lon="20.271774975294814" id="-102901">
		<tag k="loc_name" v="Guohkkejohka" />
		<tag k="name" v="Gravelva" />
		<tag k="ssr:stedsnr" v="968106" />
		<tag k="waterway" v="stream" />
	</node>
	<node lat="69.76484166501476" lon="20.300238861824948" id="-102906">
		<tag k="name" v="Grenelva" />
		<tag k="ssr:stedsnr" v="968039" />
		<tag k="waterway" v="stream" />
	</node>
	<node lat="69.64789166961769" lon="19.86857499292924" id="-102919">
		<tag k="alt_name" v="Saksevatnet" />
		<tag k="name" v="Saksvatnet" />
		<tag k="natural" v="water" />
		<tag k="ssr:stedsnr" v="18063" />
	</node>
	<node lat="69.41533888594213" lon="20.102877748885632" id="-102922">
		<tag k="name" v="Kabelbuktelva" />
		<tag k="name:no" v="Kabelbuktelva" />
		<tag k="name:se" v="Gáhpoluohjohka" />
		<tag k="ssr:stedsnr" v="18242" />
		<tag k="waterway" v="stream" />
	</node>
	<node lat="69.52905000215881" lon="20.154758330862297" id="-102927">
		<tag k="name" v="Lomvatnet" />
		<tag k="name:fkv" v="Kakkurijärvi" />
		<tag k="name:no" v="Lomvatnet" />
		<tag k="name:se" v="Gáhkkorjávri" />
		<tag k="natural" v="water" />
		<tag k="ssr:stedsnr" v="18908" />
	</node>
	<node lat="69.45722499873541" lon="20.097036084205712" id="-102933">
		<tag k="name" v="Hoaŋggajohka" />
		<tag k="name:se" v="Hoaŋggajohka" />
		<tag k="ssr:stedsnr" v="19279" />
		<tag k="waterway" v="stream" />
	</node>
	<node lat="69.79557222245025" lon="20.320261094321694" id="-102937">
		<tag k="alt_name" v="Rensa, l" />
		<tag k="name" v="Lille Rensa" />
		<tag k="ssr:stedsnr" v="19600" />
		<tag k="waterway" v="stream" />
	</node>
	<node lat="69.5639194443277" lon="20.201397209555108" id="-102971">
		<tag k="name" v="Finnelva" />
		<tag k="ssr:stedsnr" v="56761" />
		<tag k="waterway" v="stream" />
	</node>
	<node lat="69.6391166674102" lon="20.317922194078402" id="-102979">
		<tag k="name" v="Skarvatnet" />
		<tag k="natural" v="water" />
		<tag k="ssr:stedsnr" v="57066" />
	</node>
	<node lat="69.78048611640352" lon="20.307963867230804" id="-102989">
		<tag k="name" v="Gakkaraelva" />
		<tag k="ssr:stedsnr" v="58011" />
		<tag k="waterway" v="stream" />
	</node>
	<node lat="69.58712777567872" lon="20.266349977343697" id="-102993">
		<tag k="name" v="Bergelva" />
		<tag k="ssr:stedsnr" v="57956" />
		<tag k="waterway" v="stream" />
	</node>
	<node lat="69.68108888746019" lon="19.93720833019229" id="-103005">
		<tag k="name" v="Stortindelva - Gárjeljohka" />
		<tag k="name:no" v="Stortindelva" />
		<tag k="name:se" v="Gárjeljohka" />
		<tag k="ssr:stedsnr" v="79006" />
		<tag k="waterway" v="river" />
	</node>
	<node lat="69.73910277416735" lon="20.007063880279834" id="-103009">
		<tag k="alt_name:no" v="Strupskarelva" />
		<tag k="name" v="Strupskardelva" />
		<tag k="name:no" v="Strupskardelva" />
		<tag k="name:se" v="Beahcevákkijohka" />
		<tag k="ssr:stedsnr" v="79121" />
		<tag k="waterway" v="river" />
	</node>
	<node lat="69.740122225512" lon="19.97406665266763" id="-103010">
		<tag k="name" v="Tverrelva" />
		<tag k="ssr:stedsnr" v="79122" />
		<tag k="waterway" v="stream" />
	</node>
	<node lat="69.43749999714376" lon="20.074599978149447" id="-103013">
		<tag k="name" v="Storlielva - Stuorrariidejohka" />
		<tag k="name:no" v="Storlielva" />
		<tag k="name:se" v="Stuorrariidejohka" />
		<tag k="ssr:stedsnr" v="79237" />
		<tag k="waterway" v="stream" />
	</node>
	<node lat="69.50653333693343" lon="20.171766656512954" id="-103017">
		<tag k="name" v="Iselva - Iisajohka" />
		<tag k="name:fkv" v="Jääjoki" />
		<tag k="name:no" v="Iselva" />
		<tag k="name:se" v="Iisajohka" />
		<tag k="ssr:stedsnr" v="79865" />
		<tag k="waterway" v="stream" />
	</node>
	<node lat="69.52902460625651" lon="20.200100050177422" id="-103046">
		<tag k="name" v="Henrikelva" />
		<tag k="name:no" v="Henrikelva" />
		<tag k="name:se" v="Heaikkajohka" />
		<tag k="ssr:stedsnr" v="87140" />
		<tag k="waterway" v="river" />
	</node>
	<node lat="69.62966111138027" lon="20.31709164171421" id="-103051">
		<tag k="name" v="Lillefossen" />
		<tag k="natural" v="waterfall" />
		<tag k="ssr:stedsnr" v="117079" />
	</node>
	<node lat="69.61958611200012" lon="20.28918886742637" id="-103070">
		<tag k="name" v="Øvre Langvatnet" />
		<tag k="name:se" v="Øvre Langvatnet" />
		<tag k="natural" v="water" />
		<tag k="ssr:stedsnr" v="117783" />
	</node>
	<node lat="69.62686666523055" lon="20.247633312859" id="-103071">
		<tag k="name" v="Reinveielva" />
		<tag k="ssr:stedsnr" v="117790" />
		<tag k="waterway" v="stream" />
	</node>
	<node lat="69.65355277978914" lon="20.272899993855813" id="-103075">
		<tag k="name" v="Lilleelva" />
		<tag k="ssr:stedsnr" v="117885" />
		<tag k="waterway" v="stream" />
	</node>
	<node lat="69.60853611516539" lon="20.266666651771043" id="-103079">
		<tag k="name" v="Korselva" />
		<tag k="ssr:stedsnr" v="117995" />
		<tag k="waterway" v="stream" />
	</node>
	<node lat="69.72499444369689" lon="19.86292220991021" id="-103088">
		<tag k="name" v="Heimelva" />
		<tag k="ssr:stedsnr" v="139014" />
		<tag k="waterway" v="stream" />
	</node>
	<node lat="69.81416111406962" lon="20.140686091387224" id="-103099">
		<tag k="alt_name" v="Rundtindvatnet, øvre" />
		<tag k="fixme" v="multiple name tags, choose one and add the other to alt_name" />
		<tag k="name" v="Øvre Rødtindvatnet;Øvre Rundtindvatnet" />
		<tag k="natural" v="water" />
		<tag k="ssr:stedsnr" v="140660" />
	</node>
	<node lat="69.5014527783769" lon="20.042652758873125" id="-103103">
		<tag k="name" v="Rypdalsvatnan" />
		<tag k="natural" v="water" />
		<tag k="ssr:stedsnr" v="139873" />
		<tag k="water" v="lake" />
	</node>
	<node lat="69.5212361139842" lon="20.119977761854294" id="-103104">
		<tag k="name" v="Dalfossen" />
		<tag k="name:fkv" v="Vyölinenkoski" />
		<tag k="name:no" v="Dalfossen" />
		<tag k="natural" v="waterfall" />
		<tag k="ssr:stedsnr" v="139875" />
	</node>
	<node lat="69.44592500399087" lon="19.982224987714016" id="-103108">
		<tag k="name" v="Førstevatnet" />
		<tag k="natural" v="water" />
		<tag k="ssr:stedsnr" v="140271" />
	</node>
	<node lat="69.76963055588953" lon="19.906397206723096" id="-103109">
		<tag k="name" v="Tverrelva" />
		<tag k="name:no" v="Tverrelva" />
		<tag k="name:se" v="Huitojohka" />
		<tag k="ssr:stedsnr" v="140459" />
		<tag k="waterway" v="stream" />
	</node>
	<node lat="69.84731944587573" lon="20.056724995785068" id="-103154">
		<tag k="name" v="Storelva" />
		<tag k="ssr:stedsnr" v="178655" />
		<tag k="waterway" v="stream" />
	</node>
	<node lat="69.59039999756274" lon="20.303855537279716" id="-103163">
		<tag k="name" v="Gårdselva" />
		<tag k="ssr:stedsnr" v="178960" />
		<tag k="waterway" v="stream" />
	</node>
	<node lat="69.59173333274808" lon="20.259408315862157" id="-103165">
		<tag k="name" v="Hammarelva" />
		<tag k="ssr:stedsnr" v="178963" />
		<tag k="waterway" v="stream" />
	</node>
	<node lat="69.60989722448431" lon="20.285833328987025" id="-103170">
		<tag k="name" v="Hestevatnet" />
		<tag k="natural" v="water" />
		<tag k="ssr:stedsnr" v="178996" />
	</node>
	<node lat="69.82070833269862" lon="20.042902770247558" id="-103171">
		<tag k="name" v="Bjørnelva" />
		<tag k="name:no" v="Bjørnelva" />
		<tag k="name:se" v="Biertnajohka" />
		<tag k="ssr:stedsnr" v="179001" />
		<tag k="waterway" v="stream" />
	</node>
	<node lat="69.71523610953602" lon="19.93713332375092" id="-103179">
		<tag k="alt_name:no" v="Forholtelva" />
		<tag k="name" v="Forrholtelva" />
		<tag k="name:no" v="Forrholtelva" />
		<tag k="name:se" v="Guršojohka" />
		<tag k="ssr:stedsnr" v="200023" />
		<tag k="waterway" v="stream" />
	</node>
	<node lat="69.64179722661011" lon="19.899772209767306" id="-103181">
		<tag k="alt_name" v="Isskardvatnet" />
		<tag k="name" v="Isskarvatnet" />
		<tag k="natural" v="water" />
		<tag k="ssr:stedsnr" v="200030" />
	</node>
	<node lat="69.65393333335444" lon="19.862183324233744" id="-103183">
		<tag k="alt_name" v="Bjørnvatnet" />
		<tag k="name" v="Bjørnevatnet" />
		<tag k="natural" v="water" />
		<tag k="ssr:stedsnr" v="200046" />
	</node>
	<node lat="69.47414166311694" lon="20.12586943684125" id="-103188">
		<tag k="name" v="Pollvatnet" />
		<tag k="natural" v="water" />
		<tag k="ssr:stedsnr" v="201292" />
	</node>
	<node lat="69.85438888622409" lon="20.211244421515328" id="-103190">
		<tag k="name" v="Bruelvan" />
		<tag k="ssr:stedsnr" v="201670" />
		<tag k="waterway" v="stream" />
	</node>
	<node lat="69.8439944450602" lon="20.225130545019894" id="-103199">
		<tag k="name" v="Tverrbakkelva" />
		<tag k="ssr:stedsnr" v="201677" />
		<tag k="waterway" v="stream" />
	</node>
	<node lat="69.71645277963974" lon="19.823816665651076" id="-103226">
		<tag k="name" v="Tverrelva" />
		<tag k="ssr:stedsnr" v="299119" />
		<tag k="waterway" v="stream" />
	</node>
	<node lat="69.84861389075736" lon="20.059163880498456" id="-103236">
		<tag k="name" v="Lilleelva" />
		<tag k="ssr:stedsnr" v="299699" />
		<tag k="waterway" v="stream" />
	</node>
	<node lat="69.61442500084036" lon="20.28604166230226" id="-103239">
		<tag k="name" v="Liljevatnet" />
		<tag k="natural" v="water" />
		<tag k="ssr:stedsnr" v="299779" />
	</node>
	<node lat="69.61762499601299" lon="20.302916661299637" id="-103251">
		<tag k="name" v="Vinkelvatnet" />
		<tag k="natural" v="water" />
		<tag k="ssr:stedsnr" v="299791" />
	</node>
	<node lat="69.44393055661394" lon="20.09813053228032" id="-103261">
		<tag k="name" v="Johkamohkki" />
		<tag k="name:se" v="Johkamohkki" />
		<tag k="natural" v="bay" />
		<tag k="ssr:stedsnr" v="301057" />
	</node>
	<node lat="69.44051944320756" lon="20.132899982124147" id="-103262">
		<tag k="name" v="Hankenesullo" />
		<tag k="name:se" v="Hankenesullo" />
		<tag k="place" v="islet" />
		<tag k="ssr:stedsnr" v="301062" />
	</node>
	<node lat="69.69933611153728" lon="19.85368332862013" id="-103269">
		<tag k="name" v="Barheivatnet" />
		<tag k="natural" v="water" />
		<tag k="ssr:stedsnr" v="321016" />
	</node>
	<node lat="69.4147361151257" lon="19.912316666127555" id="-103270">
		<tag k="name" v="Veidalsvatnet" />
		<tag k="name:no" v="Veidalsvatnet" />
		<tag k="name:se" v="Bálggesváhjávri" />
		<tag k="natural" v="water" />
		<tag k="ssr:stedsnr" v="321247" />
	</node>
	<node lat="69.63568333184679" lon="19.84907220614977" id="-103275">
		<tag k="alt_name" v="Tennvatnet" />
		<tag k="name" v="Ternvatnet" />
		<tag k="natural" v="water" />
		<tag k="ssr:stedsnr" v="322047" />
	</node>
	<node lat="69.48192777784945" lon="20.12390553720054" id="-103279">
		<tag k="name" v="Onkavatnan - Uŋggajávrrit" />
		<tag k="name:fkv" v="Unkkajärvi" />
		<tag k="name:no" v="Onkavatnan" />
		<tag k="name:se" v="Uŋggajávrrit" />
		<tag k="natural" v="water" />
		<tag k="ssr:stedsnr" v="322259" />
	</node>
	<node lat="69.8490333344064" lon="20.1490694441285" id="-103282">
		<tag k="name" v="Vassdalselva" />
		<tag k="ssr:stedsnr" v="322700" />
		<tag k="waterway" v="stream" />
	</node>
	<node lat="69.51994444657089" lon="20.143413878184752" id="-103285">
		<tag k="name" v="Kvalvikelva - Goalsejohka" />
		<tag k="name:fkv" v="Kolsevuopionjoki" />
		<tag k="name:no" v="Kvalvikelva" />
		<tag k="name:se" v="Goalsejohka" />
		<tag k="ssr:stedsnr" v="322886" />
		<tag k="waterway" v="river" />
	</node>
	<node lat="69.50790277401137" lon="20.137416652572167" id="-103310">
		<tag k="name" v="Rundvatnet" />
		<tag k="natural" v="water" />
		<tag k="ssr:stedsnr" v="359587" />
	</node>
	<node lat="69.5758194457" lon="20.159147207872973" id="-103312">
		<tag k="name" v="Kuelva" />
		<tag k="ssr:stedsnr" v="359547" />
		<tag k="waterway" v="stream" />
	</node>
	<node lat="69.6095833305511" lon="20.247497193263214" id="-103336">
		<tag k="name" v="Fossegropelva" />
		<tag k="ssr:stedsnr" v="360754" />
		<tag k="waterway" v="stream" />
	</node>
	<node lat="69.6125166697011" lon="20.29739721992879" id="-103337">
		<tag k="name" v="Linjevatnet" />
		<tag k="natural" v="water" />
		<tag k="ssr:stedsnr" v="360758" />
	</node>
	<node lat="69.67021388778392" lon="20.349783310963723" id="-103342">
		<tag k="name" v="Sommarsetvatnet" />
		<tag k="natural" v="water" />
		<tag k="ssr:stedsnr" v="361007" />
	</node>
	<node lat="69.83229444295549" lon="20.042766655853594" id="-103351">
		<tag k="name" v="Gammelgårdselva" />
		<tag k="ssr:stedsnr" v="361062" />
		<tag k="waterway" v="stream" />
	</node>
	<node lat="69.67201944592733" lon="20.24342777293453" id="-103356">
		<tag k="name" v="Fjellelva" />
		<tag k="ssr:stedsnr" v="361103" />
		<tag k="waterway" v="stream" />
	</node>
	<node lat="69.90319166871328" lon="20.19908332185498" id="-103363">
		<tag k="name" v="Galtelva" />
		<tag k="ssr:stedsnr" v="361860" />
		<tag k="waterway" v="stream" />
	</node>
	<node lat="69.44218611232344" lon="20.02155831163544" id="-103365">
		<tag k="name" v="Moskkoriehpijohka" />
		<tag k="name:se" v="Moskkoriehpijohka" />
		<tag k="ssr:stedsnr" v="382242" />
		<tag k="waterway" v="stream" />
	</node>
	<node lat="69.40870555634456" lon="20.00186109132244" id="-103366">
		<tag k="name" v="Grønvatnet" />
		<tag k="name:no" v="Grønvatnet" />
		<tag k="name:se" v="Ruonájávri" />
		<tag k="natural" v="water" />
		<tag k="ssr:stedsnr" v="382253" />
	</node>
	<node lat="69.64219722481316" lon="19.878399987938874" id="-103372">
		<tag k="alt_name" v="Brennåsvatnet" />
		<tag k="name" v="Brannåsvatnet" />
		<tag k="natural" v="water" />
		<tag k="ssr:stedsnr" v="382039" />
	</node>
	<node lat="69.63166389382964" lon="19.86560275775043" id="-103373">
		<tag k="name" v="Rundvatnet" />
		<tag k="natural" v="water" />
		<tag k="ssr:stedsnr" v="382045" />
	</node>
	<node lat="69.80464444408322" lon="20.29658331977483" id="-103384">
		<tag k="name" v="Storskorvatnet" />
		<tag k="natural" v="water" />
		<tag k="ssr:stedsnr" v="383681" />
	</node>
	<node lat="69.92019166530288" lon="20.309436102863323" id="-103389">
		<tag k="name" v="Lomvatnan" />
		<tag k="natural" v="water" />
		<tag k="ssr:stedsnr" v="383746" />
	</node>
	<node lat="69.47059166938033" lon="20.16600276905399" id="-103391">
		<tag k="name" v="Steinneselva" />
		<tag k="ssr:stedsnr" v="388617" />
		<tag k="waterway" v="stream" />
	</node>
	<node lat="69.53997500315207" lon="20.223286098415443" id="-103398">
		<tag k="name" v="Danielelva" />
		<tag k="name:no" v="Danielelva" />
		<tag k="name:se" v="Dáneljohka" />
		<tag k="ssr:stedsnr" v="390247" />
		<tag k="waterway" v="river" />
	</node>
	<node lat="69.7199055558096" lon="19.92165832714151" id="-103405">
		<tag k="name" v="Ytre Forrholtbukt" />
		<tag k="natural" v="bay" />
		<tag k="ssr:stedsnr" v="420047" />
	</node>
	<node lat="69.46720000338519" lon="20.167872218939017" id="-103409">
		<tag k="name" v="Josvaelva" />
		<tag k="ssr:stedsnr" v="420618" />
		<tag k="waterway" v="stream" />
	</node>
	<node lat="69.7092916635302" lon="19.968058317304397" id="-103445">
		<tag k="name" v="Forrholtvatnet" />
		<tag k="natural" v="water" />
		<tag k="ssr:stedsnr" v="430070" />
	</node>
	<node lat="69.68178333762903" lon="20.20109719914925" id="-103447">
		<tag k="name" v="Koppangsvatnet" />
		<tag k="natural" v="water" />
		<tag k="ssr:stedsnr" v="443014" />
	</node>
	<node lat="69.73977777785434" lon="19.930363878388437" id="-103449">
		<tag k="name" v="Botnelva" />
		<tag k="ssr:stedsnr" v="443096" />
		<tag k="waterway" v="stream" />
	</node>
	<node lat="69.61407222267636" lon="20.037122203563687" id="-103461">
		<tag k="name" v="Tytebærdalselva" />
		<tag k="name:no" v="Tytebærdalselva" />
		<tag k="name:se" v="Fastováhjohka" />
		<tag k="ssr:stedsnr" v="444382" />
		<tag k="waterway" v="river" />
	</node>
	<node lat="69.82175833217218" lon="20.24093887594368" id="-103469">
		<tag k="name" v="Krokelva" />
		<tag k="ssr:stedsnr" v="444651" />
		<tag k="waterway" v="stream" />
	</node>
	<node lat="69.82967778248285" lon="20.218380533586966" id="-103470">
		<tag k="name" v="Nedrevatnet" />
		<tag k="natural" v="water" />
		<tag k="ssr:stedsnr" v="444652" />
	</node>
	<node lat="69.72035277850321" lon="19.940611110812398" id="-103480">
		<tag k="name" v="Revelva" />
		<tag k="ssr:stedsnr" v="503012" />
		<tag k="waterway" v="stream" />
	</node>
	<node lat="69.72276111561467" lon="20.20716664316218" id="-103481">
		<tag k="name" v="Strupvatnet" />
		<tag k="natural" v="water" />
		<tag k="ssr:stedsnr" v="503018" />
		<tag k="water" v="lake" />
	</node>
	<node lat="69.6415583352518" lon="20.055080543784207" id="-103487">
		<tag k="name" v="Holmevatnet" />
		<tag k="natural" v="water" />
		<tag k="ssr:stedsnr" v="504023" />
		<tag k="water" v="lake" />
	</node>
	<node lat="69.78942221942646" lon="20.04745276950911" id="-103498">
		<tag k="name" v="Bálggesjohka" />
		<tag k="name:no" v="Veidalselva" />
		<tag k="name:se" v="Bálggesjohka" />
		<tag k="ssr:stedsnr" v="504633" />
		<tag k="waterway" v="river" />
	</node>
	<node lat="69.76193888797157" lon="20.22339165944662" id="-103511">
		<tag k="alt_name:no" v="Reinelva, austre" />
		<tag k="name" v="Austre Reinelva - Sarvvesjohka" />
		<tag k="name:no" v="Austre Reinelva" />
		<tag k="name:se" v="Sarvvesjohka" />
		<tag k="ssr:stedsnr" v="505660" />
		<tag k="waterway" v="stream" />
	</node>
	<node lat="69.68367777611799" lon="19.91859719610303" id="-103520">
		<tag k="name" v="Kvitbergvatnet" />
		<tag k="natural" v="water" />
		<tag k="ssr:stedsnr" v="541064" />
	</node>
	<node lat="69.65476944640076" lon="19.823147198848783" id="-103533">
		<tag k="name" v="Bergelva" />
		<tag k="ssr:stedsnr" v="542299" />
		<tag k="waterway" v="stream" />
	</node>
	<node lat="69.53308333307035" lon="20.1792777712298" id="-103537">
		<tag k="name" v="Såelvvatnet" />
		<tag k="natural" v="water" />
		<tag k="ssr:stedsnr" v="542548" />
	</node>
	<node lat="69.59626944900427" lon="20.26757776097398" id="-103541">
		<tag k="name" v="Lilleelva" />
		<tag k="ssr:stedsnr" v="542972" />
		<tag k="waterway" v="stream" />
	</node>
	<node lat="69.58173889171962" lon="20.23124443629735" id="-103549">
		<tag k="name" v="Hestgjerdelva" />
		<tag k="ssr:stedsnr" v="542802" />
		<tag k="waterway" v="stream" />
	</node>
	<node lat="69.89398888818882" lon="20.14863053061242" id="-103553">
		<tag k="name" v="Indre Reinelv" />
		<tag k="ssr:stedsnr" v="543828" />
		<tag k="waterway" v="stream" />
	</node>
	<node lat="69.68198888762497" lon="20.250944440722954" id="-103554">
		<tag k="name" v="Kråa" />
		<tag k="natural" v="bay" />
		<tag k="ssr:stedsnr" v="544092" />
	</node>
	<node lat="69.63775000207262" lon="19.858477758109576" id="-103560">
		<tag k="name" v="Elvevatnet" />
		<tag k="natural" v="water" />
		<tag k="ssr:stedsnr" v="564029" />
	</node>
	<node lat="69.82859444210891" lon="20.152649987603187" id="-103586">
		<tag k="alt_name" v="Rundtindvatnet, nedre" />
		<tag k="name" v="Nedre Rødtindvatnet" />
		<tag k="natural" v="water" />
		<tag k="ssr:stedsnr" v="565665" />
	</node>
	<node lat="69.78686666735511" lon="20.03082776161436" id="-103588">
		<tag k="name" v="Olderelva" />
		<tag k="ssr:stedsnr" v="565639" />
		<tag k="waterway" v="stream" />
	</node>
	<node lat="69.85358610787188" lon="20.061180529397433" id="-103607">
		<tag k="name" v="Skjellelva" />
		<tag k="ssr:stedsnr" v="602686" />
		<tag k="waterway" v="stream" />
	</node>
	<node lat="69.59981111123632" lon="20.250180547900975" id="-103620">
		<tag k="name" v="Laelva" />
		<tag k="ssr:stedsnr" v="602980" />
		<tag k="waterway" v="stream" />
	</node>
	<node lat="69.69611388611268" lon="19.91868888785038" id="-103633">
		<tag k="name" v="Stortindneset" />
		<tag k="natural" v="cape" />
		<tag k="ssr:stedsnr" v="612086" />
	</node>
	<node lat="69.6516611145944" lon="20.055274988635706" id="-103652">
		<tag k="name" v="Storvatnet" />
		<tag k="natural" v="water" />
		<tag k="ssr:stedsnr" v="625050" />
		<tag k="water" v="lake" />
	</node>
	<node lat="69.45174444380605" lon="20.08413610336816" id="-103654">
		<tag k="alt_name:no" v="Lyngdalselva;Lyngsdalelva" />
		<tag k="name" v="Lyngsdalselva" />
		<tag k="name:no" v="Lyngsdalselva" />
		<tag k="name:se" v="Vuošváhjohka" />
		<tag k="ssr:stedsnr" v="625258" />
		<tag k="waterway" v="river" />
	</node>
	<node lat="69.9230500040851" lon="20.243063883763835" id="-103659">
		<tag k="alt_name" v="Tverrelva, midtre" />
		<tag k="name" v="Midtre Tverrelva" />
		<tag k="ssr:stedsnr" v="625741" />
		<tag k="waterway" v="stream" />
	</node>
	<node lat="69.90828055848996" lon="20.327436089112535" id="-103662">
		<tag k="name" v="Skáidi" />
		<tag k="name:se" v="Skáidi" />
		<tag k="natural" v="cape" />
		<tag k="ssr:stedsnr" v="625766" />
	</node>
	<node lat="69.52055000389001" lon="20.04903053193008" id="-103666">
		<tag k="name" v="Dalvatnet" />
		<tag k="natural" v="water" />
		<tag k="ssr:stedsnr" v="625889" />
	</node>
	<node lat="69.61856944882403" lon="20.288447200098624" id="-103669">
		<tag k="name" v="Langvatnan" />
		<tag k="natural" v="water" />
		<tag k="ssr:stedsnr" v="625973" />
		<tag k="water" v="lake" />
	</node>
	<node lat="69.72521666670063" lon="19.856569443214312" id="-103696">
		<tag k="name" v="Stengelva" />
		<tag k="ssr:stedsnr" v="663142" />
		<tag k="waterway" v="stream" />
	</node>
	<node lat="69.58003611077187" lon="20.16506664042705" id="-103700">
		<tag k="name" v="Lakselva" />
		<tag k="ssr:stedsnr" v="663511" />
		<tag k="waterway" v="stream" />
	</node>
	<node lat="69.57591944386935" lon="20.21561110118103" id="-103704">
		<tag k="name" v="Prestelva" />
		<tag k="ssr:stedsnr" v="663529" />
		<tag k="waterway" v="stream" />
	</node>
	<node lat="69.62111944297229" lon="20.293563882775352" id="-103711">
		<tag k="name" v="Lomvatnet" />
		<tag k="natural" v="water" />
		<tag k="ssr:stedsnr" v="663786" />
	</node>
	<node lat="69.6249666705738" lon="20.30246943379552" id="-103712">
		<tag k="name" v="Kjernevatnet" />
		<tag k="natural" v="water" />
		<tag k="ssr:stedsnr" v="663788" />
	</node>
	<node lat="69.77171944277066" lon="19.893008314356262" id="-103730">
		<tag k="name" v="Lattervikelva" />
		<tag k="ssr:stedsnr" v="723084" />
		<tag k="waterway" v="stream" />
	</node>
	<node lat="69.6444972257344" lon="20.282069421882685" id="-103732">
		<tag k="name" v="Sohppejávri" />
		<tag k="name:se" v="Sohppejávri" />
		<tag k="natural" v="water" />
		<tag k="ssr:stedsnr" v="723063" />
	</node>
	<node lat="69.73970556031323" lon="19.87946387932112" id="-103736">
		<tag k="name" v="Storengslåttelva" />
		<tag k="ssr:stedsnr" v="724192" />
		<tag k="waterway" v="stream" />
	</node>
	<node lat="69.76710555654937" lon="19.991230546098656" id="-103746">
		<tag k="name" v="Gårdselva" />
		<tag k="ssr:stedsnr" v="724023" />
		<tag k="waterway" v="stream" />
	</node>
	<node lat="69.75980833627062" lon="19.96673332665685" id="-103747">
		<tag k="name" v="Lakselva" />
		<tag k="ssr:stedsnr" v="724032" />
		<tag k="waterway" v="stream" />
	</node>
	<node lat="69.67619444797704" lon="19.873913882908457" id="-103753">
		<tag k="name" v="Lilleheinelva" />
		<tag k="ssr:stedsnr" v="724246" />
		<tag k="waterway" v="stream" />
	</node>
	<node lat="69.92710833022001" lon="20.141383319359107" id="-103774">
		<tag k="name" v="Lomåsvatnet" />
		<tag k="natural" v="water" />
		<tag k="ssr:stedsnr" v="725853" />
	</node>
	<node lat="69.70508610937539" lon="19.89492221970558" id="-103779">
		<tag k="name" v="Indre Sandnes" />
		<tag k="natural" v="cape" />
		<tag k="ssr:stedsnr" v="733130" />
	</node>
	<node lat="69.66900277680988" lon="19.893541645060715" id="-103797">
		<tag k="name" v="Trollvasselva" />
		<tag k="name:no" v="Trollvasselva" />
		<tag k="name:se" v="Gielasjohka" />
		<tag k="ssr:stedsnr" v="747393" />
		<tag k="waterway" v="river" />
	</node>
	<node lat="69.87723888939051" lon="20.374972195041096" id="-103800">
		<tag k="name" v="Storelva" />
		<tag k="ssr:stedsnr" v="747685" />
		<tag k="waterway" v="stream" />
	</node>
	<node lat="69.78305833084409" lon="19.9089277673563" id="-103815">
		<tag k="name" v="Olderelva" />
		<tag k="name:no" v="Olderelva" />
		<tag k="name:se" v="Leaibejohka" />
		<tag k="ssr:stedsnr" v="768085" />
		<tag k="waterway" v="stream" />
	</node>
	<node lat="69.68367500328466" lon="19.922555541906124" id="-103826">
		<tag k="name" v="Deppelvatnet" />
		<tag k="natural" v="water" />
		<tag k="ssr:stedsnr" v="784067" />
	</node>
	<node lat="69.74881388631334" lon="19.863919422834844" id="-103837">
		<tag k="name" v="Finngamelva" />
		<tag k="ssr:stedsnr" v="785232" />
		<tag k="waterway" v="stream" />
	</node>
	<node lat="69.43904999646396" lon="20.101599985777966" id="-103849">
		<tag k="name" v="Imogorsajohka" />
		<tag k="name:se" v="Imogorsajohka" />
		<tag k="ssr:stedsnr" v="786065" />
		<tag k="waterway" v="stream" />
	</node>
	<node lat="69.89827222394736" lon="20.145977763173352" id="-103855">
		<tag k="name" v="Ytre Reinelv" />
		<tag k="ssr:stedsnr" v="786840" />
		<tag k="waterway" v="stream" />
	</node>
	<node lat="69.67800277367782" lon="19.82892499366968" id="-103861">
		<tag k="alt_name" v="Gammelva" />
		<tag k="name" v="Gamelva" />
		<tag k="ssr:stedsnr" v="807009" />
		<tag k="waterway" v="stream" />
	</node>
	<node lat="69.71518055976996" lon="19.880258319705597" id="-103863">
		<tag k="name" v="Svartbergelva" />
		<tag k="ssr:stedsnr" v="807021" />
		<tag k="waterway" v="stream" />
	</node>
	<node lat="69.69673888534807" lon="19.86784721668824" id="-103864">
		<tag k="name" v="Langvatnet" />
		<tag k="natural" v="water" />
		<tag k="ssr:stedsnr" v="807032" />
	</node>
	<node lat="69.63683333554239" lon="19.917141649852912" id="-103865">
		<tag k="name" v="Storelva" />
		<tag k="name:no" v="Storelva" />
		<tag k="name:se" v="Láirejohka" />
		<tag k="ssr:stedsnr" v="807034" />
		<tag k="waterway" v="stream" />
	</node>
	<node lat="69.62908055264192" lon="20.320069439557543" id="-103866">
		<tag k="name" v="Elvejordselva" />
		<tag k="name:no" v="Elvejordselva" />
		<tag k="name:se" v="Vátnejohka" />
		<tag k="ssr:stedsnr" v="807045" />
		<tag k="waterway" v="river" />
	</node>
	<node lat="69.65962499761625" lon="20.191386086088684" id="-103868">
		<tag k="name" v="Fastdalselva" />
		<tag k="name:no" v="Fastdalselva" />
		<tag k="name:se" v="Fastováhjohka" />
		<tag k="ssr:stedsnr" v="807055" />
		<tag k="waterway" v="river" />
	</node>
	<node lat="69.71403055127108" lon="19.809505552146938" id="-103873">
		<tag k="name" v="Bakkebyelva" />
		<tag k="ssr:stedsnr" v="807189" />
		<tag k="waterway" v="stream" />
	</node>
	<node lat="69.52225277886225" lon="20.142577751596782" id="-103878">
		<tag k="name" v="Tverrelva" />
		<tag k="ssr:stedsnr" v="807927" />
		<tag k="waterway" v="stream" />
	</node>
	<node lat="69.85488889024161" lon="20.352194426897942" id="-103892">
		<tag k="alt_name" v="Gammvikelva, in;Indre Gammvikelva" />
		<tag k="name" v="Indre Gamvikelva" />
		<tag k="ssr:stedsnr" v="808685" />
		<tag k="waterway" v="stream" />
	</node>
	<node lat="69.94458332957923" lon="20.27092499370664" id="-103897">
		<tag k="name" v="Russelvfjellvatnet" />
		<tag k="natural" v="water" />
		<tag k="ssr:stedsnr" v="808725" />
	</node>
	<node lat="69.9391138899359" lon="20.314297212155708" id="-103898">
		<tag k="name" v="Hellarvikvatnet" />
		<tag k="natural" v="water" />
		<tag k="ssr:stedsnr" v="808728" />
	</node>
	<node lat="69.8969583327779" lon="20.264227751239446" id="-103900">
		<tag k="name" v="Kalddalsvatnet" />
		<tag k="natural" v="water" />
		<tag k="ssr:stedsnr" v="808753" />
	</node>
	<node lat="69.49772222107093" lon="20.18718054886169" id="-103922">
		<tag k="name" v="Myrelva" />
		<tag k="ssr:stedsnr" v="845558" />
		<tag k="waterway" v="stream" />
	</node>
	<node lat="69.76077222080562" lon="19.97380276333889" id="-103931">
		<tag k="name" v="Rundvatnet" />
		<tag k="natural" v="water" />
		<tag k="ssr:stedsnr" v="846015" />
	</node>
	<node lat="69.63092222173496" lon="20.3137055468732" id="-103937">
		<tag k="name" v="Mellafossen" />
		<tag k="natural" v="waterfall" />
		<tag k="ssr:stedsnr" v="846068" />
	</node>
	<node lat="69.86573888545985" lon="20.073497204733037" id="-103944">
		<tag k="name" v="Ruskelva" />
		<tag k="ssr:stedsnr" v="846665" />
		<tag k="waterway" v="stream" />
	</node>
	<node lat="69.76809999638705" lon="20.302980547106227" id="-103950">
		<tag k="name" v="Laddoelva" />
		<tag k="ssr:stedsnr" v="847050" />
		<tag k="waterway" v="stream" />
	</node>
	<node lat="69.5046000019992" lon="20.136858314714097" id="-103966">
		<tag k="alt_name:no" v="Isvatnet" />
		<tag k="name" v="Iselvvatnet" />
		<tag k="name:fkv" v="Jääjovenjärvi" />
		<tag k="name:no" v="Iselvvatnet" />
		<tag k="natural" v="water" />
		<tag k="ssr:stedsnr" v="868841" />
	</node>
	<node lat="69.82350000254577" lon="20.2534666660255" id="-103975">
		<tag k="name" v="Sleelva" />
		<tag k="ssr:stedsnr" v="869695" />
		<tag k="waterway" v="stream" />
	</node>
	<node lat="69.72520277671667" lon="19.87748888902066" id="-104003">
		<tag k="name" v="Blautmyrneset" />
		<tag k="natural" v="cape" />
		<tag k="ssr:stedsnr" v="967123" />
	</node>
	<node lat="69.68285833225214" lon="19.780483332770864" id="-104010">
		<tag k="name" v="Mølnelva" />
		<tag k="ssr:stedsnr" v="967233" />
		<tag k="waterway" v="stream" />
	</node>
	<node lat="69.62229444207114" lon="20.2566222145913" id="-104019">
		<tag k="name" v="Rokkasundelva" />
		<tag k="name:no" v="Rokkasundelva" />
		<tag k="name:se" v="Rohkasuoinjohka" />
		<tag k="ssr:stedsnr" v="967757" />
		<tag k="waterway" v="stream" />
	</node>
	<node lat="69.57936110930481" lon="20.247355529806104" id="-104020">
		<tag k="name" v="Stigelva" />
		<tag k="ssr:stedsnr" v="967763" />
		<tag k="waterway" v="stream" />
	</node>
	<node lat="69.66820833554618" lon="20.36552219744844" id="-104022">
		<tag k="name" v="Kvennesvatnet" />
		<tag k="natural" v="water" />
		<tag k="ssr:stedsnr" v="967857" />
	</node>
</osm>
