<?xml version="1.0" encoding="UTF-8"?>
<osm version="0.6" generator="osmapis">
	<node lat="69.56105000109896" lon="20.21920831421984" id="-38110">
		<tag k="fixme" v="consider place=suburb, village or hamlet" />
		<tag k="loc_name:fkv" v="Ala-Kariniemi" />
		<tag k="name" v="Karnes - Finnavuolli" />
		<tag k="name:no" v="Karnes" />
		<tag k="name:se" v="Finnavuolli" />
		<tag k="place" v="quarter" />
		<tag k="ssr:stedsnr" v="27774" />
	</node>
	<node lat="69.54772500138779" lon="20.21951665166373" id="-38125">
		<tag k="name" v="Bergås" />
		<tag k="place" v="farm" />
		<tag k="ssr:stedsnr" v="238762" />
	</node>
	<node lat="69.64183888998406" lon="20.328627760265" id="-38135">
		<tag k="name" v="Nygård" />
		<tag k="place" v="farm" />
		<tag k="ssr:stedsnr" v="239074" />
	</node>
	<node lat="69.5600083346594" lon="20.217322210147284" id="-38150">
		<tag k="amenity" v="school" />
		<tag k="name" v="Solhov folkehøgskole" />
		<tag k="ssr:stedsnr" v="56771" />
	</node>
	<node lat="69.54078333606576" lon="20.23194721639724" id="-38164">
		<tag k="name" v="Sommarsetet" />
		<tag k="place" v="locality" />
		<tag k="ssr:stedsnr" v="57771" />
	</node>
	<node lat="69.58735000291483" lon="20.264255536421157" id="-38189">
		<tag k="name" v="Berge" />
		<tag k="place" v="farm" />
		<tag k="ssr:stedsnr" v="79942" />
	</node>
	<node lat="69.59098685583" lon="20.284872262951136" id="-38198">
		<tag k="fixme" v="consider place=hamlet" />
		<tag k="name" v="Kalfaret" />
		<tag k="place" v="farm" />
		<tag k="ssr:stedsnr" v="87208" />
	</node>
	<node lat="69.81390277800135" lon="19.93041388060085" id="-38200">
		<tag k="name" v="Ytterdalen" />
		<tag k="place" v="locality" />
		<tag k="ssr:stedsnr" v="88130" />
	</node>
	<node lat="69.7999999974049" lon="19.968008306636506" id="-38219">
		<tag k="name" v="Sørstad" />
		<tag k="place" v="farm" />
		<tag k="ssr:stedsnr" v="119004" />
	</node>
	<node lat="69.58931111523316" lon="20.29620277053708" id="-38234">
		<tag k="name" v="Nyberg" />
		<tag k="place" v="farm" />
		<tag k="ssr:stedsnr" v="139939" />
	</node>
	<node lat="69.82425130671915" lon="19.947804918567442" id="-38241">
		<tag k="name" v="Ravik" />
		<tag k="place" v="farm" />
		<tag k="ssr:stedsnr" v="140703" />
	</node>
	<node lat="69.59125010566038" lon="20.302799959474374" id="-38247">
		<tag k="alt_name" v="Kviteberget" />
		<tag k="name" v="Kviteberg" />
		<tag k="place" v="farm" />
		<tag k="ssr:stedsnr" v="147222" />
	</node>
	<node lat="69.65323333574644" lon="19.822747223840057" id="-38254">
		<tag k="name" v="Toften" />
		<tag k="place" v="farm" />
		<tag k="ssr:stedsnr" v="261057" />
	</node>
	<node lat="69.71400599386378" lon="19.801707467865498" id="-38255">
		<tag k="alt_name" v="Bakkeby, yt;Ytre Bakkeby" />
		<tag k="fixme" v="consider place=hamlet" />
		<tag k="name" v="Bakkeby" />
		<tag k="place" v="farm" />
		<tag k="ssr:stedsnr" v="261189" />
	</node>
	<node lat="69.46000812430977" lon="20.204343859594367" id="-38258">
		<tag k="fixme" v="multiple name tags, choose one and add the other to alt_name; consider place=hamlet" />
		<tag k="loc_name:no" v="Hietalahti" />
		<tag k="name" v="Sandvika;Sandvik - Čuđeluokta" />
		<tag k="name:no" v="Sandvika;Sandvik" />
		<tag k="name:se" v="Čuđeluokta" />
		<tag k="place" v="farm" />
		<tag k="ssr:stedsnr" v="261245" />
	</node>
	<node lat="69.57559722223448" lon="20.19749166128716" id="-38263">
		<tag k="amenity" v="school" />
		<tag k="name" v="Eidebakken skole" />
		<tag k="ssr:stedsnr" v="177562" />
	</node>
	<node lat="69.83194444264235" lon="19.989758316756443" id="-38272">
		<tag k="name" v="Kvalnes" />
		<tag k="place" v="farm" />
		<tag k="ssr:stedsnr" v="179060" />
	</node>
	<node lat="69.91738888945746" lon="20.16234164515382" id="-38274">
		<tag k="name" v="Teigen" />
		<tag k="place" v="farm" />
		<tag k="ssr:stedsnr" v="261704" />
	</node>
	<node lat="69.56745833823646" lon="20.222672197283252" id="-38278">
		<tag k="alt_name" v="Jensvollen" />
		<tag k="name" v="Jensvoll" />
		<tag k="place" v="farm" />
		<tag k="ssr:stedsnr" v="261949" />
	</node>
	<node lat="69.83422778119002" lon="20.037577771596006" id="-38282">
		<tag k="name" v="Nymo" />
		<tag k="place" v="farm" />
		<tag k="ssr:stedsnr" v="262661" />
	</node>
	<node lat="69.82665277500256" lon="19.98907499377721" id="-38283">
		<tag k="name" v="Solvang" />
		<tag k="place" v="farm" />
		<tag k="ssr:stedsnr" v="262662" />
	</node>
	<node lat="69.89091389084517" lon="20.161649979471633" id="-38289">
		<tag k="name" v="Straumen" />
		<tag k="place" v="farm" />
		<tag k="ssr:stedsnr" v="262778" />
	</node>
	<node lat="69.84171110968103" lon="19.9771972019451" id="-38294">
		<tag k="name" v="Vengsteingård" />
		<tag k="place" v="farm" />
		<tag k="ssr:stedsnr" v="268702" />
	</node>
	<node lat="69.76671944645283" lon="19.986513880721436" id="-38295">
		<tag k="loc_name:se" v="Vuotnabahsiida" />
		<tag k="name" v="Botn" />
		<tag k="name:no" v="Botn" />
		<tag k="place" v="farm" />
		<tag k="ssr:stedsnr" v="201605" />
	</node>
	<node lat="69.75972499769799" lon="19.846355541666725" id="-38296">
		<tag k="name" v="Kviteberg" />
		<tag k="place" v="farm" />
		<tag k="ssr:stedsnr" v="201609" />
	</node>
	<node lat="69.9321222199692" lon="20.197694441398436" id="-38298">
		<tag k="name" v="Berglund" />
		<tag k="place" v="farm" />
		<tag k="ssr:stedsnr" v="201703" />
	</node>
	<node lat="69.80683889327501" lon="19.92412776234351" id="-38302">
		<tag k="name" v="Innerdalen" />
		<tag k="place" v="locality" />
		<tag k="ssr:stedsnr" v="268156" />
	</node>
	<node lat="69.51937778241447" lon="20.23643331559046" id="-38310">
		<tag k="name" v="Nerberg" />
		<tag k="place" v="farm" />
		<tag k="ssr:stedsnr" v="269042" />
	</node>
	<node lat="69.66329444691992" lon="19.815936088541616" id="-38334">
		<tag k="name" v="Stakkeng" />
		<tag k="place" v="farm" />
		<tag k="ssr:stedsnr" v="239306" />
	</node>
	<node lat="69.78523888654736" lon="19.909408320765984" id="-38343">
		<tag k="name" v="Teigstad" />
		<tag k="place" v="farm" />
		<tag k="ssr:stedsnr" v="451042" />
	</node>
	<node lat="69.54293611108089" lon="20.24473331712528" id="-38344">
		<tag k="name" v="Bukta" />
		<tag k="place" v="farm" />
		<tag k="ssr:stedsnr" v="451051" />
	</node>
	<node lat="69.73231111448362" lon="19.849330556030818" id="-38349">
		<tag k="alt_name" v="Jegervatnet" />
		<tag k="name" v="Jægervatnet" />
		<tag k="place" v="farm" />
		<tag k="ssr:stedsnr" v="261108" />
	</node>
	<node lat="69.73780277723847" lon="19.849936112311145" id="-38350">
		<tag k="name" v="Solvoll" />
		<tag k="place" v="farm" />
		<tag k="ssr:stedsnr" v="261098" />
	</node>
	<node lat="69.92822500181006" lon="20.193913884340002" id="-38352">
		<tag k="name" v="Seljestad" />
		<tag k="place" v="farm" />
		<tag k="ssr:stedsnr" v="261690" />
	</node>
	<node lat="69.52685555504945" lon="20.220749972857977" id="-38354">
		<tag k="name" v="Hansnes" />
		<tag k="place" v="farm" />
		<tag k="ssr:stedsnr" v="261897" />
	</node>
	<node lat="69.52331388910027" lon="20.214627755191803" id="-38355">
		<tag k="name" v="Bakkehaug" />
		<tag k="place" v="farm" />
		<tag k="ssr:stedsnr" v="261901" />
	</node>
	<node lat="69.83882222422015" lon="19.987972202898398" id="-38360">
		<tag k="name" v="Styrmannstøa" />
		<tag k="place" v="farm" />
		<tag k="ssr:stedsnr" v="262747" />
	</node>
	<node lat="69.54331111476107" lon="20.243649981223093" id="-38369">
		<tag k="name" v="Karnes - Gárnjárga" />
		<tag k="name:no" v="Karnes" />
		<tag k="name:se" v="Gárnjárga" />
		<tag k="place" v="hamlet" />
		<tag k="ssr:stedsnr" v="271522" />
	</node>
	<node lat="69.65418333500217" lon="19.88704722021745" id="-38370">
		<tag k="fixme" v="consider tourism=alpine_hut or tourism=chalet" />
		<tag k="name" v="Trollhytta" />
		<tag k="ssr:stedsnr" v="282010" />
		<tag k="tourism" v="wilderness_hut" />
	</node>
	<node lat="69.43843333521242" lon="20.137347203168343" id="-38383">
		<tag k="name" v="Øvergård" />
		<tag k="place" v="farm" />
		<tag k="ssr:stedsnr" v="301071" />
	</node>
	<node lat="69.4866738179145" lon="20.184541435341714" id="-38390">
		<tag k="alt_name:no" v="Pollen" />
		<tag k="fixme" v="consider place=hamlet" />
		<tag k="loc_name:fkv" v="Voivuono" />
		<tag k="name" v="Lyngspollen - Vuoivuotna" />
		<tag k="name:no" v="Lyngspollen" />
		<tag k="name:se" v="Vuoivuotna" />
		<tag k="place" v="village" />
		<tag k="ssr:stedsnr" v="322280" />
	</node>
	<node lat="69.62616388676975" lon="20.3418999884415" id="-38393">
		<tag k="alt_name:no" v="Elvejord" />
		<tag k="name" v="Elvejorda - Vátnejohka" />
		<tag k="name:no" v="Elvejorda" />
		<tag k="name:se" v="Vátnejohka" />
		<tag k="place" v="hamlet" />
		<tag k="ssr:stedsnr" v="322975" />
	</node>
	<node lat="69.51241389373543" lon="20.214199974611986" id="-38394">
		<tag k="name" v="Heimly" />
		<tag k="place" v="farm" />
		<tag k="ssr:stedsnr" v="322876" />
	</node>
	<node lat="69.6543977269267" lon="20.277343907474776" id="-38402">
		<tag k="name" v="Lunde" />
		<tag k="place" v="farm" />
		<tag k="ssr:stedsnr" v="359902" />
	</node>
	<node lat="69.64896179603066" lon="20.29457986051777" id="-38444">
		<tag k="fixme" v="consider place=hamlet" />
		<tag k="name" v="Drabeng" />
		<tag k="place" v="farm" />
		<tag k="ssr:stedsnr" v="382062" />
	</node>
	<node lat="69.57818610821347" lon="20.251663858814307" id="-38446">
		<tag k="name" v="Heimstad" />
		<tag k="place" v="farm" />
		<tag k="ssr:stedsnr" v="382966" />
	</node>
	<node lat="69.64904166616569" lon="19.822466662213806" id="-38479">
		<tag k="name" v="Tindevangen" />
		<tag k="place" v="quarter" />
		<tag k="ssr:stedsnr" v="484846" />
	</node>
	<node lat="69.9047000031498" lon="20.151063872835337" id="-38512">
		<tag k="name" v="Høgnes" />
		<tag k="place" v="farm" />
		<tag k="ssr:stedsnr" v="422853" />
	</node>
	<node lat="69.63901388722454" lon="19.820222196926498" id="-38518">
		<tag k="name" v="Sandnes" />
		<tag k="place" v="farm" />
		<tag k="ssr:stedsnr" v="443035" />
	</node>
	<node lat="69.5423888921222" lon="20.242041665008202" id="-38525">
		<tag k="name" v="Vindset" />
		<tag k="place" v="farm" />
		<tag k="ssr:stedsnr" v="443935" />
	</node>
	<node lat="69.58738888844486" lon="20.03590275760343" id="-38562">
		<tag k="name" v="Heimkjær" />
		<tag k="place" v="farm" />
		<tag k="ssr:stedsnr" v="503917" />
	</node>
	<node lat="69.7364000010556" lon="19.847427770050732" id="-38563">
		<tag k="name" v="Solli" />
		<tag k="place" v="farm" />
		<tag k="ssr:stedsnr" v="504072" />
	</node>
	<node lat="69.50222499732715" lon="20.201533319957143" id="-38565">
		<tag k="name" v="Skogmo" />
		<tag k="place" v="farm" />
		<tag k="ssr:stedsnr" v="504878" />
	</node>
	<node lat="69.50388611096616" lon="20.21477499566395" id="-38566">
		<tag k="fixme" v="consider place=hamlet" />
		<tag k="loc_name:fkv" v="Kolsevuopio" />
		<tag k="loc_name:se" v="Hoammaluokta" />
		<tag k="name" v="Kvalvik" />
		<tag k="name:no" v="Kvalvik" />
		<tag k="place" v="village" />
		<tag k="ssr:stedsnr" v="504880" />
	</node>
	<node lat="69.61791111336602" lon="19.868016651018397" id="-38567">
		<tag k="name" v="Heimtun" />
		<tag k="place" v="farm" />
		<tag k="ssr:stedsnr" v="504979" />
	</node>
	<node lat="69.7523972199976" lon="19.84008331587489" id="-38576">
		<tag k="name" v="Selnes" />
		<tag k="place" v="farm" />
		<tag k="ssr:stedsnr" v="512882" />
	</node>
	<node lat="69.43207500261501" lon="20.152211106376782" id="-38579">
		<tag k="name" v="Vollnes" />
		<tag k="place" v="farm" />
		<tag k="ssr:stedsnr" v="685279" />
	</node>
	<node lat="69.59558333219528" lon="20.27929719347504" id="-38585">
		<tag k="name" v="Fjellstad" />
		<tag k="place" v="farm" />
		<tag k="ssr:stedsnr" v="685988" />
	</node>
	<node lat="69.70305277691911" lon="19.795613869207095" id="-38587">
		<tag k="alt_name" v="Bakkeby, in" />
		<tag k="fixme" v="multiple name tags, choose one and add the other to alt_name" />
		<tag k="name" v="Bakkeby;Indre Bakkeby" />
		<tag k="place" v="farm" />
		<tag k="ssr:stedsnr" v="686184" />
	</node>
	<node lat="69.65565556055067" lon="20.273497197969963" id="-38606">
		<tag k="amenity" v="school" />
		<tag k="name" v="Fastdalen skole" />
		<tag k="ssr:stedsnr" v="541914" />
	</node>
	<node lat="69.61637499866744" lon="20.34450275390593" id="-38611">
		<tag k="name" v="Skogset" />
		<tag k="place" v="farm" />
		<tag k="ssr:stedsnr" v="686980" />
	</node>
	<node lat="69.68100833217498" lon="19.773133323710635" id="-38618">
		<tag k="name" v="Sletten" />
		<tag k="place" v="farm" />
		<tag k="ssr:stedsnr" v="542275" />
	</node>
	<node lat="69.76168611001347" lon="19.84711387575324" id="-38628">
		<tag k="name" v="Lyngmo" />
		<tag k="place" v="farm" />
		<tag k="ssr:stedsnr" v="687645" />
	</node>
	<node lat="69.8190611134328" lon="19.98483053790553" id="-38636">
		<tag k="name" v="Haugjord" />
		<tag k="place" v="farm" />
		<tag k="ssr:stedsnr" v="687670" />
	</node>
	<node lat="69.5810844594749" lon="20.267158286076988" id="-38641">
		<tag k="fixme" v="consider place=hamlet" />
		<tag k="name" v="Mortensnes" />
		<tag k="place" v="farm" />
		<tag k="ssr:stedsnr" v="564966" />
	</node>
	<node lat="69.58506666981268" lon="20.266705528862115" id="-38642">
		<tag k="name" v="Sjåberg" />
		<tag k="place" v="farm" />
		<tag k="ssr:stedsnr" v="564967" />
	</node>
	<node lat="69.8848694414526" lon="20.183772196306304" id="-38645">
		<tag k="name" v="Nyheim" />
		<tag k="place" v="farm" />
		<tag k="ssr:stedsnr" v="565704" />
	</node>
	<node lat="69.54443333874924" lon="20.26047775289419" id="-38653">
		<tag k="name" v="Nedre Storberget" />
		<tag k="place" v="farm" />
		<tag k="ssr:stedsnr" v="694039" />
	</node>
	<node lat="69.52701256698506" lon="20.208111817353974" id="-38654">
		<tag k="fixme" v="consider place=hamlet" />
		<tag k="name" v="Rastejord" />
		<tag k="place" v="farm" />
		<tag k="ssr:stedsnr" v="694129" />
	</node>
	<node lat="69.71505277784269" lon="20.264863882088754" id="-38656">
		<tag k="name" v="Strupen" />
		<tag k="place" v="locality" />
		<tag k="ssr:stedsnr" v="574498" />
	</node>
	<node lat="69.59014660603003" lon="20.01323472858484" id="-38660">
		<tag k="fixme" v="consider place=hamlet" />
		<tag k="name" v="Tytebærvik" />
		<tag k="place" v="farm" />
		<tag k="ssr:stedsnr" v="602099" />
	</node>
	<node lat="69.8141166673381" lon="19.97721387328711" id="-38670">
		<tag k="name" v="Lenangen Søndre" />
		<tag k="place" v="farm" />
		<tag k="ssr:stedsnr" v="604012" />
	</node>
	<node lat="69.43362500458635" lon="20.152149977363504" id="-38675">
		<tag k="name" v="Indre Hamnvik" />
		<tag k="place" v="farm" />
		<tag k="ssr:stedsnr" v="624261" />
	</node>
	<node lat="69.44318333505583" lon="20.112224995621293" id="-38676">
		<tag k="name" v="Trangen" />
		<tag k="place" v="locality" />
		<tag k="ssr:stedsnr" v="624268" />
	</node>
	<node lat="69.78431111626786" lon="19.908330540177428" id="-38681">
		<tag k="alt_name:no" v="Lattervik" />
		<tag k="fixme" v="consider place=hamlet" />
		<tag k="name" v="Lattervika - Láhttárluokta" />
		<tag k="name:no" v="Lattervika" />
		<tag k="name:se" v="Láhttárluokta" />
		<tag k="place" v="village" />
		<tag k="ssr:stedsnr" v="626651" />
	</node>
	<node lat="69.75897221885752" lon="19.99055555313268" id="-38685">
		<tag k="name" v="Finnheimen" />
		<tag k="place" v="locality" />
		<tag k="ssr:stedsnr" v="663015" />
	</node>
	<node lat="69.65673889065502" lon="19.82150275565067" id="-38690">
		<tag k="name" v="Svensby" />
		<tag k="place" v="farm" />
		<tag k="ssr:stedsnr" v="663283" />
	</node>
	<node lat="69.59369921521119" lon="20.29954235678856" id="-38712">
		<tag k="name" v="Skog" />
		<tag k="place" v="farm" />
		<tag k="ssr:stedsnr" v="685945" />
	</node>
	<node lat="69.65571388787296" lon="19.822608313187352" id="-38715">
		<tag k="alt_name" v="Berg, yt" />
		<tag k="name" v="Ytre Berg" />
		<tag k="place" v="farm" />
		<tag k="ssr:stedsnr" v="686046" />
	</node>
	<node lat="69.76372499818892" lon="19.847563868284908" id="-38724">
		<tag k="name" v="Nordheim" />
		<tag k="place" v="farm" />
		<tag k="ssr:stedsnr" v="687643" />
	</node>
	<node lat="69.79756110865888" lon="19.965155542734102" id="-38726">
		<tag k="name" v="Skoglund" />
		<tag k="place" v="farm" />
		<tag k="ssr:stedsnr" v="687697" />
	</node>
	<node lat="69.62033333161402" lon="19.846472205627272" id="-38735">
		<tag k="name" v="Engen" />
		<tag k="place" v="farm" />
		<tag k="ssr:stedsnr" v="724315" />
	</node>
	<node lat="69.83838611279846" lon="20.04403333268366" id="-38754">
		<tag k="name" v="Nordset" />
		<tag k="place" v="farm" />
		<tag k="ssr:stedsnr" v="747710" />
	</node>
	<node lat="69.61157222298044" lon="20.335958324545647" id="-38789">
		<tag k="name" v="Sommarsetet" />
		<tag k="place" v="locality" />
		<tag k="ssr:stedsnr" v="906993" />
	</node>
	<node lat="69.82489999719543" lon="19.954172198828363" id="-38811">
		<tag k="name" v="Slettli" />
		<tag k="place" v="farm" />
		<tag k="ssr:stedsnr" v="784906" />
	</node>
	<node lat="69.82722222017688" lon="19.958616643832787" id="-38813">
		<tag k="name" v="Gråstein" />
		<tag k="place" v="farm" />
		<tag k="ssr:stedsnr" v="784913" />
	</node>
	<node lat="69.80426944286678" lon="19.971252767826662" id="-38823">
		<tag k="name" v="Grindvoll" />
		<tag k="place" v="farm" />
		<tag k="ssr:stedsnr" v="786021" />
	</node>
	<node lat="69.81294167005956" lon="20.025077765084294" id="-38824">
		<tag k="amenity" v="school" />
		<tag k="name" v="Lenangen skole" />
		<tag k="ssr:stedsnr" v="786022" />
	</node>
	<node lat="69.78699444120282" lon="19.909013865887786" id="-38845">
		<tag k="name" v="Berglund" />
		<tag k="place" v="farm" />
		<tag k="ssr:stedsnr" v="845094" />
	</node>
	<node lat="69.77939166650233" lon="19.883872216233073" id="-38849">
		<tag k="name" v="Sandberg" />
		<tag k="place" v="farm" />
		<tag k="ssr:stedsnr" v="846128" />
	</node>
	<node lat="69.62277500469375" lon="19.837791649478174" id="-38862">
		<tag k="alt_name" v="Beinsnes;Bentsnes" />
		<tag k="name" v="Bensnes" />
		<tag k="place" v="farm" />
		<tag k="ssr:stedsnr" v="929034" />
	</node>
	<node lat="69.50135020429684" lon="20.21054929002453" id="-38864">
		<tag k="fixme" v="consider place=hamlet" />
		<tag k="name" v="Kvalvik - Hoammaluokta" />
		<tag k="name:no" v="Kvalvik" />
		<tag k="name:se" v="Hoammaluokta" />
		<tag k="place" v="farm" />
		<tag k="ssr:stedsnr" v="929252" />
	</node>
	<node lat="69.47379999991902" lon="20.232713863145595" id="-38867">
		<tag k="alt_name" v="Forrahamn" />
		<tag k="name" v="Forhamna" />
		<tag k="place" v="farm" />
		<tag k="ssr:stedsnr" v="929262" />
	</node>
	<node lat="69.90684444595493" lon="20.153877767828753" id="-38872">
		<tag k="name" v="Fagervoll" />
		<tag k="place" v="farm" />
		<tag k="ssr:stedsnr" v="929731" />
	</node>
	<node lat="69.89353610845161" lon="20.178199994386183" id="-38873">
		<tag k="name" v="Andersnes" />
		<tag k="place" v="farm" />
		<tag k="ssr:stedsnr" v="929734" />
	</node>
	<node lat="69.54728611195064" lon="20.261074996333654" id="-38877">
		<tag k="name" v="Kuberget" />
		<tag k="place" v="farm" />
		<tag k="ssr:stedsnr" v="929942" />
	</node>
	<node lat="69.64637499666274" lon="20.322822204447075" id="-38883">
		<tag k="name" v="Bergstad" />
		<tag k="place" v="farm" />
		<tag k="ssr:stedsnr" v="868030" />
	</node>
	<node lat="69.6631666633922" lon="20.272005536343464" id="-38887">
		<tag k="name" v="Brattås" />
		<tag k="place" v="farm" />
		<tag k="ssr:stedsnr" v="868045" />
	</node>
	<node lat="69.92342222424044" lon="20.189886096040645" id="-38888">
		<tag k="name" v="Myrvoll" />
		<tag k="place" v="farm" />
		<tag k="ssr:stedsnr" v="868678" />
	</node>
	<node lat="69.58095131124395" lon="20.150043474754252" id="-38889">
		<tag k="alt_name" v="Sollien" />
		<tag k="fixme" v="consider place=hamlet" />
		<tag k="name" v="Sollia" />
		<tag k="place" v="farm" />
		<tag k="ssr:stedsnr" v="868924" />
	</node>
	<node lat="69.62182499830811" lon="19.85526388717259" id="-38890">
		<tag k="name" v="Bjørkheim" />
		<tag k="place" v="farm" />
		<tag k="ssr:stedsnr" v="868971" />
	</node>
	<node lat="69.62382499613635" lon="20.26491109596179" id="-38891">
		<tag k="name" v="Várduhytta" />
		<tag k="place" v="isolated_dwelling" />
		<tag k="ssr:stedsnr" v="868976" />
	</node>
	<node lat="69.62992222018052" lon="20.33618609936282" id="-38931">
		<tag k="name" v="Solheim" />
		<tag k="place" v="farm" />
		<tag k="ssr:stedsnr" v="908107" />
	</node>
	<node lat="69.82555277436121" lon="19.988558324585398" id="-38935">
		<tag k="name" v="Haugli" />
		<tag k="place" v="farm" />
		<tag k="ssr:stedsnr" v="908057" />
	</node>
	<node lat="69.61777222275346" lon="19.870988873363604" id="-38940">
		<tag k="name" v="Forsvegen" />
		<tag k="place" v="farm" />
		<tag k="ssr:stedsnr" v="909870" />
	</node>
	<node lat="69.67912499607935" lon="20.26409443615213" id="-38942">
		<tag k="fixme" v="consider place=hamlet" />
		<tag k="name" v="Koppangen - Gohppi" />
		<tag k="name:no" v="Koppangen" />
		<tag k="name:se" v="Gohppi" />
		<tag k="place" v="village" />
		<tag k="ssr:stedsnr" v="928016" />
	</node>
	<node lat="69.7886722184215" lon="19.955508329603965" id="-38944">
		<tag k="name" v="Svingen" />
		<tag k="place" v="farm" />
		<tag k="ssr:stedsnr" v="929606" />
	</node>
	<node lat="69.93148333602082" lon="20.133416653372237" id="-38947">
		<tag k="name" v="Arneng" />
		<tag k="place" v="farm" />
		<tag k="ssr:stedsnr" v="929712" />
	</node>
	<node lat="69.84515000183598" lon="20.3570722161568" id="-38949">
		<tag k="name" v="Rappgammen" />
		<tag k="place" v="locality" />
		<tag k="ssr:stedsnr" v="929700" />
	</node>
	<node lat="69.87790277524095" lon="20.080697211022606" id="-38955">
		<tag k="name" v="Båtnes" />
		<tag k="place" v="farm" />
		<tag k="ssr:stedsnr" v="939597" />
	</node>
	<node lat="69.59437778215248" lon="20.314288869814266" id="-38972">
		<tag k="name" v="Sommarsetet" />
		<tag k="place" v="locality" />
		<tag k="ssr:stedsnr" v="967940" />
	</node>
	<node lat="69.51183602943564" lon="20.225004078390754" id="-38989">
		<tag k="name" v="Kjeldnes" />
		<tag k="place" v="farm" />
		<tag k="ssr:stedsnr" v="976763" />
	</node>
	<node lat="69.78213888615599" lon="19.90390175476139" id="-38991">
		<tag k="fixme" v="consider place=hamlet" />
		<tag k="name" v="Lattervika - Láhttárluokta" />
		<tag k="name:no" v="Lattervika" />
		<tag k="name:se" v="Láhttárluokta" />
		<tag k="place" v="farm" />
		<tag k="ssr:stedsnr" v="990659" />
	</node>
	<node lat="69.75219927666433" lon="19.83879423434269" id="-38992">
		<tag k="fixme" v="consider place=hamlet" />
		<tag k="name" v="Selnes - Sálljanjárga" />
		<tag k="name:no" v="Selnes" />
		<tag k="name:se" v="Sálljanjárga" />
		<tag k="place" v="farm" />
		<tag k="ssr:stedsnr" v="990660" />
	</node>
	<node lat="69.58780447236046" lon="20.075869196033906" id="-38999">
		<tag k="alt_name" v="Urda" />
		<tag k="fixme" v="consider place=hamlet" />
		<tag k="name" v="Ura" />
		<tag k="place" v="farm" />
		<tag k="ssr:stedsnr" v="18945" />
	</node>
	<node lat="69.58847961381157" lon="20.02305295743409" id="-39004">
		<tag k="name" v="Tjørnberg" />
		<tag k="place" v="farm" />
		<tag k="ssr:stedsnr" v="18937" />
	</node>
	<node lat="69.8836972260859" lon="20.186636097316843" id="-39017">
		<tag k="name" v="Fjelldal" />
		<tag k="place" v="farm" />
		<tag k="ssr:stedsnr" v="19682" />
	</node>
	<node lat="69.88559166826349" lon="20.164522198801166" id="-39018">
		<tag k="name" v="Molund" />
		<tag k="place" v="farm" />
		<tag k="ssr:stedsnr" v="19686" />
	</node>
	<node lat="69.9360277759646" lon="20.200308320930073" id="-39023">
		<tag k="name" v="Lund" />
		<tag k="place" v="farm" />
		<tag k="ssr:stedsnr" v="20756" />
	</node>
	<node lat="69.65109444540782" lon="20.286202756072004" id="-39025">
		<tag k="name" v="Drabeng" />
		<tag k="place" v="farm" />
		<tag k="ssr:stedsnr" v="25434" />
	</node>
	<node lat="69.87499722083648" lon="20.079272216371507" id="-39026">
		<tag k="name" v="Skogvang" />
		<tag k="place" v="farm" />
		<tag k="ssr:stedsnr" v="25444" />
	</node>
	<node lat="69.58380402383314" lon="20.11507104095843" id="-39033">
		<tag k="fixme" v="consider place=hamlet" />
		<tag k="name" v="Rørnes" />
		<tag k="place" v="farm" />
		<tag k="ssr:stedsnr" v="27855" />
	</node>
	<node lat="69.72782777735716" lon="19.87137776436878" id="-39057">
		<tag k="name" v="Augustheimen" />
		<tag k="place" v="locality" />
		<tag k="ssr:stedsnr" v="57124" />
	</node>
	<node lat="69.63516111169659" lon="19.823702759058268" id="-39060">
		<tag k="name" v="Kvitstein" />
		<tag k="place" v="farm" />
		<tag k="ssr:stedsnr" v="57259" />
	</node>
	<node lat="69.92921111562367" lon="20.197802762221578" id="-39076">
		<tag k="alt_name" v="Nordre Lenangen" />
		<tag k="fixme" v="consider place=hamlet" />
		<tag k="name" v="Nord-Lenangen" />
		<tag k="place" v="farm" />
		<tag k="ssr:stedsnr" v="58830" />
	</node>
	<node lat="69.93114166289332" lon="20.194097215169194" id="-39077">
		<tag k="name" v="Rismo" />
		<tag k="place" v="farm" />
		<tag k="ssr:stedsnr" v="58833" />
	</node>
	<node lat="69.92082778053347" lon="20.188255531241076" id="-39080">
		<tag k="name" v="Steinvollen" />
		<tag k="place" v="locality" />
		<tag k="ssr:stedsnr" v="58868" />
	</node>
	<node lat="69.67099663241761" lon="19.800211638177636" id="-39087">
		<tag k="fixme" v="consider place=hamlet" />
		<tag k="name" v="Svensby - Bávttit" />
		<tag k="name:no" v="Svensby" />
		<tag k="name:se" v="Bávttit" />
		<tag k="place" v="farm" />
		<tag k="ssr:stedsnr" v="79220" />
	</node>
	<node lat="69.69769166223497" lon="19.791499994165346" id="-39088">
		<tag k="name" v="Nyrud" />
		<tag k="place" v="farm" />
		<tag k="ssr:stedsnr" v="79230" />
	</node>
	<node lat="69.50831388929079" lon="20.193230546716357" id="-39092">
		<tag k="name" v="Øvergård" />
		<tag k="place" v="farm" />
		<tag k="ssr:stedsnr" v="79861" />
	</node>
	<node lat="69.61782499781562" lon="19.859511110357378" id="-39098">
		<tag k="fixme" v="multiple name tags, choose one and add the other to alt_name" />
		<tag k="name" v="Gramberg;Nesbukt" />
		<tag k="place" v="farm" />
		<tag k="ssr:stedsnr" v="79984" />
	</node>
	<node lat="69.59489999792268" lon="20.304936096382416" id="-39100">
		<tag k="name" v="Nyhus" />
		<tag k="place" v="farm" />
		<tag k="ssr:stedsnr" v="79993" />
	</node>
	<node lat="69.53719999813198" lon="20.21692775359629" id="-39103">
		<tag k="name" v="Oksvik" />
		<tag k="old_name" v="Oksevik" />
		<tag k="place" v="farm" />
		<tag k="ssr:stedsnr" v="79919" />
	</node>
	<node lat="69.81761389148392" lon="20.02673053450386" id="-39104">
		<tag k="name" v="Reindal" />
		<tag k="place" v="farm" />
		<tag k="ssr:stedsnr" v="80666" />
	</node>
	<node lat="69.80803333568576" lon="19.97527499665923" id="-39106">
		<tag k="name" v="Solheim" />
		<tag k="place" v="farm" />
		<tag k="ssr:stedsnr" v="80683" />
	</node>
	<node lat="69.91410277878352" lon="20.188438878068794" id="-39107">
		<tag k="name" v="Hæsa" />
		<tag k="place" v="farm" />
		<tag k="ssr:stedsnr" v="80749" />
	</node>
	<node lat="69.7205083339452" lon="19.924691664156317" id="-39112">
		<tag k="fixme" v="consider tourism=alpine_hut or tourism=chalet" />
		<tag k="name" v="Jægervasshytta" />
		<tag k="ssr:stedsnr" v="82468" />
		<tag k="tourism" v="wilderness_hut" />
	</node>
	<node lat="69.78395325345116" lon="19.91041817903864" id="-39115">
		<tag k="fixme" v="consider place=hamlet" />
		<tag k="name" v="Lattervikskjæret" />
		<tag k="place" v="farm" />
		<tag k="ssr:stedsnr" v="86267" />
	</node>
	<node lat="69.65051568734982" lon="20.285697274207767" id="-39117">
		<tag k="fixme" v="consider place=hamlet" />
		<tag k="name" v="Drabeng" />
		<tag k="place" v="farm" />
		<tag k="ssr:stedsnr" v="86443" />
	</node>
	<node lat="69.6485972243961" lon="20.295544422958507" id="-39118">
		<tag k="name" v="Drabeng" />
		<tag k="place" v="farm" />
		<tag k="ssr:stedsnr" v="86446" />
	</node>
	<node lat="69.54848610971207" lon="20.219797213898918" id="-39123">
		<tag k="name" v="Kilakken" />
		<tag k="place" v="farm" />
		<tag k="ssr:stedsnr" v="87240" />
	</node>
	<node lat="69.8278388850153" lon="19.989877765923552" id="-39156">
		<tag k="name" v="Nylund" />
		<tag k="place" v="farm" />
		<tag k="ssr:stedsnr" v="119055" />
	</node>
	<node lat="69.92984722005774" lon="20.12568055220289" id="-39162">
		<tag k="name" v="Arnenga" />
		<tag k="place" v="locality" />
		<tag k="ssr:stedsnr" v="119893" />
	</node>
	<node lat="69.64713333554154" lon="20.310863871327996" id="-39169">
		<tag k="name" v="Marvoll" />
		<tag k="place" v="farm" />
		<tag k="ssr:stedsnr" v="139059" />
	</node>
	<node lat="69.73493611250846" lon="19.872847201006568" id="-39170">
		<tag k="name" v="Skogen" />
		<tag k="place" v="farm" />
		<tag k="ssr:stedsnr" v="139113" />
	</node>
	<node lat="69.4414262138987" lon="20.15402822910414" id="-39171">
		<tag k="alt_name:no" v="Furuflata" />
		<tag k="fixme" v="consider place=hamlet" />
		<tag k="name" v="Furuflaten - Vuošvággi - Vuosvankka" />
		<tag k="name:fkv" v="Vuosvankka" />
		<tag k="name:no" v="Furuflaten" />
		<tag k="name:se" v="Vuošvággi" />
		<tag k="place" v="village" />
		<tag k="ssr:stedsnr" v="139249" />
	</node>
	<node lat="69.43803055410241" lon="20.15355553566389" id="-39173">
		<tag k="name" v="Enebakken" />
		<tag k="place" v="farm" />
		<tag k="ssr:stedsnr" v="139253" />
	</node>
	<node lat="69.83256094018117" lon="20.0394953806654" id="-39174">
		<tag k="alt_name" v="Gammelgard;Gammelgård" />
		<tag k="fixme" v="consider place=hamlet" />
		<tag k="name" v="Gammelgården" />
		<tag k="place" v="farm" />
		<tag k="ssr:stedsnr" v="140650" />
	</node>
</osm>
