<?xml version="1.0" encoding="UTF-8"?>
<<<<<<< HEAD
<osm version="0.6" generator="osmapis">
	<node lat="69.42125555365371" lon="20.134974975605132" id="-39400">
		<tag k="highway" v="path" />
		<tag k="name" v="Guhkesruoddaš" />
		<tag k="name:se" v="Guhkesruoddaš" />
		<tag k="ssr:stedsnr" v="117626" />
	</node>
	<node lat="69.80335000182096" lon="19.927974976913106" id="-39410">
		<tag k="highway" v="path" />
		<tag k="name" v="Lattervikveien" />
		<tag k="ssr:stedsnr" v="119005" />
	</node>
	<node lat="69.75671944898873" lon="19.92562499189622" id="-39511">
		<tag k="junction" v="yes" />
		<tag k="name" v="Botnkrysset" />
		<tag k="place" v="locality" />
		<tag k="ssr:stedsnr" v="238030" />
	</node>
	<node lat="69.60824444711287" lon="20.296511097773607" id="-39529">
		<tag k="highway" v="path" />
		<tag k="name" v="Breiveien" />
		<tag k="ssr:stedsnr" v="239795" />
	</node>
	<node lat="69.6632972182224" lon="19.808949996531883" id="-39558">
		<tag k="amenity" v="ferry_terminal" />
		<tag k="name" v="Svensby fergekai" />
		<tag k="ssr:stedsnr" v="269811" />
	</node>
	<node lat="69.62263333385788" lon="19.88374164406863" id="-39600">
=======
<osm generator="osmapis" version="0.6">
	<node id="-883328" lat="69.6226333339" lon="19.8837416441">
>>>>>>> e1d4bc35ff8a6074a6f2e91616a996b547c36f15
		<tag k="ford" v="yes" />
		<tag k="name" v="Kubrua" />
		<tag k="place" v="locality" />
		<tag k="ssr:stedsnr" v="360306" />
	</node>
<<<<<<< HEAD
	<node lat="69.6816444473046" lon="19.776822201448574" id="-39961">
		<tag k="highway" v="path" />
		<tag k="name" v="Sandveien" />
		<tag k="ssr:stedsnr" v="906292" />
	</node>
	<node lat="69.48944166863888" lon="20.20634443559603" id="-39992">
=======
	<node id="-883999" lat="69.812713887" lon="20.0440972028">
		<tag k="highway" v="path" />
		<tag k="name" v="Dalaveien" />
		<tag k="ssr:stedsnr" v="58010" />
	</node>
	<node id="-882974" lat="69.756719449" lon="19.9256249919">
		<tag k="junction" v="yes" />
		<tag k="name" v="Botnkrysset" />
		<tag k="place" v="locality" />
		<tag k="ssr:stedsnr" v="238030" />
	</node>
	<node id="-884314" lat="69.6782222233" lon="19.7816111055">
		<tag k="highway" v="path" />
		<tag k="name" v="Feveien" />
		<tag k="ssr:stedsnr" v="360235" />
	</node>
	<node id="-883871" lat="69.5830972253" lon="20.1020138641">
		<tag k="highway" v="path" />
		<tag k="name" v="Brattstigen" />
		<tag k="ssr:stedsnr" v="966760" />
	</node>
	<node id="-884695" lat="69.4894416686" lon="20.2063444356">
>>>>>>> e1d4bc35ff8a6074a6f2e91616a996b547c36f15
		<tag k="highway" v="path" />
		<tag k="name" v="Gielovogga" />
		<tag k="name:se" v="Gielovogga" />
		<tag k="ssr:stedsnr" v="784607" />
	</node>
<<<<<<< HEAD
	<node lat="69.81271388703892" lon="20.04409720281474" id="-40254">
=======
	<node id="-883065" lat="69.6157111124" lon="20.2459166602">
		<tag k="highway" v="path" />
		<tag k="name" v="Loktusveien" />
		<tag k="ssr:stedsnr" v="299776" />
	</node>
	<node id="-883025" lat="69.6082444471" lon="20.2965110978">
		<tag k="highway" v="path" />
		<tag k="name" v="Breiveien" />
		<tag k="ssr:stedsnr" v="239795" />
	</node>
	<node id="-883472" lat="69.5845055556" lon="20.2984472082">
		<tag k="fixme" v="verify maritime location" />
		<tag k="mooring" v="yes" />
		<tag k="name" v="Kåfjordstøa" />
		<tag k="place" v="locality" />
		<tag k="ssr:stedsnr" v="663951" />
	</node>
	<node id="-883693" lat="69.7284444458" lon="19.8503610999">
		<tag k="highway" v="path" />
		<tag k="name" v="Åsveien" />
		<tag k="ssr:stedsnr" v="663137" />
	</node>
	<node id="-883331" lat="69.5211277761" lon="20.2304999915">
		<tag k="highway" v="path" />
		<tag k="name" v="Liebeckveien" />
		<tag k="ssr:stedsnr" v="360806" />
	</node>
	<node id="-884105" lat="69.8033500018" lon="19.9279749769">
		<tag k="highway" v="path" />
		<tag k="name" v="Lattervikveien" />
		<tag k="ssr:stedsnr" v="119005" />
	</node>
	<node id="-883144" lat="69.8124694487" lon="19.9890027623">
		<tag k="landuse" v="harbour" />
		<tag k="name" v="Hamna" />
		<tag k="seamark:type" v="harbour" />
		<tag k="ssr:stedsnr" v="179013" />
	</node>
	<node id="-884080" lat="69.4212555537" lon="20.1349749756">
		<tag k="highway" v="path" />
		<tag k="name" v="Guhkesruoddaš" />
		<tag k="name:se" v="Guhkesruoddaš" />
		<tag k="ssr:stedsnr" v="117626" />
	</node>
	<node id="-883236" lat="69.6632972182" lon="19.8089499965">
		<tag k="amenity" v="ferry_terminal" />
		<tag k="name" v="Svensby fergekai" />
		<tag k="ssr:stedsnr" v="269811" />
	</node>
	<node id="-884483" lat="69.6277333341" lon="20.3478610936">
		<tag k="fixme" v="verify maritime location" />
		<tag k="mooring" v="yes" />
		<tag k="name" v="Gammelstøa" />
		<tag k="place" v="locality" />
		<tag k="ssr:stedsnr" v="544078" />
	</node>
	<node id="-883757" lat="69.6816444473" lon="19.7768222014">
>>>>>>> e1d4bc35ff8a6074a6f2e91616a996b547c36f15
		<tag k="highway" v="path" />
		<tag k="name" v="Dalaveien" />
		<tag k="ssr:stedsnr" v="58010" />
	</node>
	<node id="-884385" lat="69.7875750017" lon="19.9538027648">
		<tag k="junction" v="yes" />
		<tag k="name" v="Wilhelmsenkrysset" />
		<tag k="place" v="locality" />
		<tag k="ssr:stedsnr" v="420073" />
	</node>
</osm>
