<?xml version="1.0" encoding="UTF-8"?>
<osm version="0.6" generator="osmapis">
	<node lat="69.87273333284622" lon="20.229613878638183" id="-39452">
		<tag k="name" v="Storurddalen" />
		<tag k="natural" v="valley" />
		<tag k="place" v="locality" />
		<tag k="ssr:stedsnr" v="19694" />
	</node>
	<node lat="69.83553333766956" lon="20.097805546191655" id="-39454">
		<tag k="fixme" v="consider natural=peak for the most distinct mountains in the district" />
		<tag k="name" v="Rundfjellet - Miehtevárri" />
		<tag k="name:no" v="Rundfjellet" />
		<tag k="name:se" v="Miehtevárri" />
		<tag k="natural" v="hill" />
		<tag k="place" v="locality" />
		<tag k="ssr:stedsnr" v="19703" />
	</node>
	<node lat="69.7926833332207" lon="20.320249977630567" id="-39457">
		<tag k="name" v="Blåberget" />
		<tag k="natural" v="hill" />
		<tag k="place" v="locality" />
		<tag k="ssr:stedsnr" v="25308" />
	</node>
	<node lat="69.52835278250686" lon="20.126949981517914" id="-39464">
		<tag k="name" v="Sákkápmir" />
		<tag k="name:se" v="Sákkápmir" />
		<tag k="natural" v="ridge" />
		<tag k="old_name:se" v="Ságápmir" />
		<tag k="place" v="locality" />
		<tag k="ssr:stedsnr" v="237965" />
	</node>
	<node lat="69.76911944864298" lon="19.889883324769187" id="-39466">
		<tag k="name" v="Attervollen" />
		<tag k="place" v="locality" />
		<tag k="ssr:stedsnr" v="238040" />
	</node>
	<node lat="69.61034166555108" lon="19.88880833147268" id="-39469">
		<tag k="name" v="Blåsteinen" />
		<tag k="natural" v="hill" />
		<tag k="place" v="locality" />
		<tag k="ssr:stedsnr" v="238318" />
	</node>
	<node lat="69.57631666923497" lon="20.16182220136592" id="-39472">
		<tag k="name" v="Vedskjulbakkan" />
		<tag k="natural" v="slope" />
		<tag k="place" v="locality" />
		<tag k="ssr:stedsnr" v="238573" />
	</node>
	<node lat="69.52543333185467" lon="20.175419422349798" id="-39474">
		<tag k="name" v="Sáttogurra" />
		<tag k="name:se" v="Sáttogurra" />
		<tag k="natural" v="valley" />
		<tag k="place" v="locality" />
		<tag k="ssr:stedsnr" v="238598" />
	</node>
	<node lat="69.56543889243905" lon="20.181038875153195" id="-39475">
		<tag k="name" v="Hyttehaugen" />
		<tag k="natural" v="hill" />
		<tag k="place" v="locality" />
		<tag k="ssr:stedsnr" v="238749" />
	</node>
	<node lat="69.63909999831472" lon="20.275452773351116" id="-39479">
		<tag k="name" v="Marianadievva" />
		<tag k="name:se" v="Marianadievva" />
		<tag k="natural" v="hill" />
		<tag k="place" v="locality" />
		<tag k="ssr:stedsnr" v="238872" />
	</node>
	<node lat="69.64630833808972" lon="20.29249442947015" id="-39480">
		<tag k="name" v="Beassilotdievva" />
		<tag k="name:se" v="Beassilotdievva" />
		<tag k="natural" v="hill" />
		<tag k="place" v="locality" />
		<tag k="ssr:stedsnr" v="238874" />
	</node>
	<node lat="69.58780277662771" lon="20.288886091893414" id="-39483">
		<tag k="name" v="Storbakken" />
		<tag k="natural" v="slope" />
		<tag k="place" v="locality" />
		<tag k="ssr:stedsnr" v="238959" />
	</node>
	<node lat="69.64804444735738" lon="20.321294422866472" id="-39484">
		<tag k="name" v="Løkteberget" />
		<tag k="natural" v="hill" />
		<tag k="place" v="locality" />
		<tag k="ssr:stedsnr" v="239068" />
	</node>
	<node lat="69.6462444458944" lon="20.319702757356634" id="-39485">
		<tag k="name" v="Kuneshaugen" />
		<tag k="natural" v="hill" />
		<tag k="place" v="locality" />
		<tag k="ssr:stedsnr" v="239070" />
	</node>
	<node lat="69.70638611379051" lon="19.882813867300463" id="-39488">
		<tag k="name" v="Svartbergan" />
		<tag k="natural" v="hill" />
		<tag k="place" v="locality" />
		<tag k="ssr:stedsnr" v="239273" />
	</node>
	<node lat="69.73962777610797" lon="19.847558329969228" id="-39490">
		<tag k="name" v="Lasletta" />
		<tag k="place" v="locality" />
		<tag k="ssr:stedsnr" v="239217" />
	</node>
	<node lat="69.5314805594111" lon="20.209319431832494" id="-39493">
		<tag k="name" v="Storhaugen" />
		<tag k="natural" v="hill" />
		<tag k="place" v="locality" />
		<tag k="ssr:stedsnr" v="239558" />
	</node>
	<node lat="69.60789166356527" lon="20.25643054921189" id="-39494">
		<tag k="name" v="Langdalen" />
		<tag k="natural" v="valley" />
		<tag k="place" v="locality" />
		<tag k="ssr:stedsnr" v="239800" />
	</node>
	<node lat="69.64158055409396" lon="20.281344415346133" id="-39497">
		<tag k="name" v="Storbakken" />
		<tag k="natural" v="slope" />
		<tag k="place" v="locality" />
		<tag k="ssr:stedsnr" v="56878" />
	</node>
	<node lat="69.6452638868816" lon="20.28758330486334" id="-39498">
		<tag k="name" v="Øvre Beassilotdievva" />
		<tag k="name:se" v="Øvre Beassilotdievva" />
		<tag k="natural" v="hill" />
		<tag k="place" v="locality" />
		<tag k="ssr:stedsnr" v="56883" />
	</node>
	<node lat="69.85584999748153" lon="20.06904165767509" id="-39500">
		<tag k="fixme" v="consider natural=peak for the most distinct mountains in the district" />
		<tag k="name" v="Åsen" />
		<tag k="natural" v="hill" />
		<tag k="place" v="locality" />
		<tag k="ssr:stedsnr" v="56716" />
	</node>
	<node lat="69.83010555334563" lon="20.044424981356975" id="-39503">
		<tag k="name" v="Lomvassbakken" />
		<tag k="natural" v="slope" />
		<tag k="place" v="locality" />
		<tag k="ssr:stedsnr" v="240059" />
	</node>
	<node lat="69.71417777858463" lon="19.81979999908028" id="-39508">
		<tag k="name" v="Esebakken" />
		<tag k="natural" v="slope" />
		<tag k="place" v="locality" />
		<tag k="ssr:stedsnr" v="57122" />
	</node>
	<node lat="69.44910277627758" lon="20.13518331658011" id="-39510">
		<tag k="name" v="Várrenalli" />
		<tag k="name:se" v="Várrenalli" />
		<tag k="natural" v="slope" />
		<tag k="place" v="locality" />
		<tag k="ssr:stedsnr" v="240073" />
	</node>
	<node lat="69.62767777470734" lon="20.344799972936976" id="-39511">
		<tag k="name" v="Alladievva" />
		<tag k="name:se" v="Alladievva" />
		<tag k="natural" v="hill" />
		<tag k="place" v="locality" />
		<tag k="ssr:stedsnr" v="240096" />
	</node>
	<node lat="69.61265833340936" lon="20.265986083587254" id="-39514">
		<tag k="name" v="Ytterkorset" />
		<tag k="natural" v="valley" />
		<tag k="place" v="locality" />
		<tag k="ssr:stedsnr" v="57768" />
	</node>
	<node lat="69.48544721946918" lon="20.24356942754119" id="-39517">
		<tag k="name" v="Storgropa" />
		<tag k="natural" v="valley" />
		<tag k="place" v="locality" />
		<tag k="ssr:stedsnr" v="240833" />
	</node>
	<node lat="69.8017666670887" lon="20.02167499879874" id="-39519">
		<tag k="name" v="Olaibakkan" />
		<tag k="natural" v="slope" />
		<tag k="place" v="locality" />
		<tag k="ssr:stedsnr" v="58018" />
	</node>
	<node lat="69.43685833779037" lon="20.139961088695024" id="-39520">
		<tag k="name" v="Luohkká" />
		<tag k="name:se" v="Luohkká" />
		<tag k="natural" v="slope" />
		<tag k="place" v="locality" />
		<tag k="ssr:stedsnr" v="58070" />
	</node>
	<node lat="69.4368305562705" lon="20.130855533279803" id="-39521">
		<tag k="name" v="Áidegeahči" />
		<tag k="name:se" v="Áidegeahči" />
		<tag k="natural" v="slope" />
		<tag k="place" v="locality" />
		<tag k="ssr:stedsnr" v="58071" />
	</node>
	<node lat="69.44066111188057" lon="20.121691657880795" id="-39522">
		<tag k="name" v="Gaskalatnja" />
		<tag k="name:se" v="Gaskalatnja" />
		<tag k="place" v="locality" />
		<tag k="ssr:stedsnr" v="58079" />
	</node>
	<node lat="69.60341388874164" lon="20.254116645159836" id="-39524">
		<tag k="name" v="Stuoraluohkká" />
		<tag k="name:se" v="Stuoraluohkká" />
		<tag k="natural" v="slope" />
		<tag k="place" v="locality" />
		<tag k="ssr:stedsnr" v="57973" />
	</node>
	<node lat="69.60125833122723" lon="20.26339721342019" id="-39525">
		<tag k="name" v="Skjulbakken" />
		<tag k="natural" v="slope" />
		<tag k="place" v="locality" />
		<tag k="ssr:stedsnr" v="57975" />
	</node>
	<node lat="69.70647222055592" lon="20.28565553959991" id="-39527">
		<tag k="loc_name:se" v="Skárfelužat" />
		<tag k="name" v="Skarveskiten" />
		<tag k="name:no" v="Skarveskiten" />
		<tag k="natural" v="hill" />
		<tag k="place" v="locality" />
		<tag k="ssr:stedsnr" v="58107" />
	</node>
	<node lat="69.68363610993164" lon="20.25444721893255" id="-39528">
		<tag k="name" v="Skarvesteinen" />
		<tag k="natural" v="hill" />
		<tag k="place" v="locality" />
		<tag k="ssr:stedsnr" v="58108" />
	</node>
	<node lat="69.91264166532541" lon="20.137149992269208" id="-39531">
		<tag k="fixme" v="consider natural=peak for the most distinct mountains in the district" />
		<tag k="name" v="Lilleåsen" />
		<tag k="natural" v="hill" />
		<tag k="place" v="locality" />
		<tag k="ssr:stedsnr" v="58874" />
	</node>
	<node lat="69.90160555270974" lon="20.119844439853054" id="-39535">
		<tag k="fixme" v="consider natural=peak for the most distinct mountains in the district" />
		<tag k="name" v="Slåkåsen" />
		<tag k="natural" v="hill" />
		<tag k="place" v="locality" />
		<tag k="ssr:stedsnr" v="240866" />
	</node>
	<node lat="69.6697166670751" lon="20.19970276450803" id="-39537">
		<tag k="fixme" v="consider natural=peak for the most distinct mountains in the district" />
		<tag k="name" v="Goalborri" />
		<tag k="name:se" v="Goalborri" />
		<tag k="natural" v="hill" />
		<tag k="old_name:se" v="Goalbårri" />
		<tag k="place" v="locality" />
		<tag k="ssr:stedsnr" v="79045" />
	</node>
	<node lat="69.66326666898438" lon="20.362808307413555" id="-39538">
		<tag k="name" v="Storhaugen" />
		<tag k="natural" v="hill" />
		<tag k="place" v="locality" />
		<tag k="ssr:stedsnr" v="79049" />
	</node>
	<node lat="69.41332777567915" lon="20.02056110835989" id="-39539">
		<tag k="fixme" v="consider natural=peak for the most distinct mountains in the district" />
		<tag k="name" v="Sukkertoppen" />
		<tag k="natural" v="hill" />
		<tag k="place" v="locality" />
		<tag k="ssr:stedsnr" v="79247" />
	</node>
	<node lat="69.7736972223351" lon="20.02130276878688" id="-39541">
		<tag k="fixme" v="consider natural=peak for the most distinct mountains in the district" />
		<tag k="name" v="Stortuva" />
		<tag k="natural" v="hill" />
		<tag k="place" v="locality" />
		<tag k="ssr:stedsnr" v="80641" />
	</node>
	<node lat="69.97370833541216" lon="20.259938886448015" id="-39542">
		<tag k="name" v="Lyngstuva - Iddu" />
		<tag k="name:no" v="Lyngstuva" />
		<tag k="name:se" v="Iddu" />
		<tag k="natural" v="hill" />
		<tag k="place" v="locality" />
		<tag k="ssr:stedsnr" v="80644" />
	</node>
	<node lat="69.75737777905398" lon="19.859558325163604" id="-39555">
		<tag k="name" v="Resmålskaret" />
		<tag k="natural" v="valley" />
		<tag k="place" v="locality" />
		<tag k="ssr:stedsnr" v="117112" />
	</node>
	<node lat="69.52444999774056" lon="20.178455542827738" id="-39557">
		<tag k="name" v="Stuorragurra" />
		<tag k="name:se" v="Stuorragurra" />
		<tag k="natural" v="valley" />
		<tag k="place" v="locality" />
		<tag k="ssr:stedsnr" v="117570" />
	</node>
	<node lat="69.52540278110291" lon="20.186566663292414" id="-39558">
		<tag k="name" v="Storsteinbakken" />
		<tag k="natural" v="slope" />
		<tag k="place" v="locality" />
		<tag k="ssr:stedsnr" v="117579" />
	</node>
	<node lat="69.58777500429514" lon="20.135011107195098" id="-39560">
		<tag k="name" v="St.Hansberget" />
		<tag k="natural" v="hill" />
		<tag k="place" v="locality" />
		<tag k="ssr:stedsnr" v="117708" />
	</node>
	<node lat="69.84629166397556" lon="20.08129721794287" id="-39562">
		<tag k="name" v="Rundhaugen" />
		<tag k="natural" v="hill" />
		<tag k="place" v="locality" />
		<tag k="ssr:stedsnr" v="117639" />
	</node>
	<node lat="69.81413611477076" lon="20.078933319086097" id="-39563">
		<tag k="name" v="Steinhaugen" />
		<tag k="natural" v="hill" />
		<tag k="place" v="locality" />
		<tag k="ssr:stedsnr" v="117669" />
	</node>
	<node lat="69.87235277701414" lon="20.082813878111455" id="-39564">
		<tag k="name" v="Antisletta" />
		<tag k="place" v="locality" />
		<tag k="ssr:stedsnr" v="117688" />
	</node>
	<node lat="69.87365555429797" lon="20.0848944180227" id="-39565">
		<tag k="name" v="Blåsteinen" />
		<tag k="natural" v="hill" />
		<tag k="place" v="locality" />
		<tag k="ssr:stedsnr" v="117694" />
	</node>
	<node lat="69.66260833078101" lon="20.271891646918366" id="-39566">
		<tag k="name" v="Håbakkan" />
		<tag k="natural" v="slope" />
		<tag k="place" v="locality" />
		<tag k="ssr:stedsnr" v="117911" />
	</node>
	<node lat="69.6016138926097" lon="20.250452756601796" id="-39567">
		<tag k="name" v="Jalgesriidi" />
		<tag k="name:se" v="Jalgesriidi" />
		<tag k="natural" v="slope" />
		<tag k="place" v="locality" />
		<tag k="ssr:stedsnr" v="117980" />
	</node>
	<node lat="69.60706944729674" lon="20.31447220596702" id="-39568">
		<tag k="fixme" v="consider natural=peak for the most distinct mountains in the district" />
		<tag k="name" v="Høgbuollán" />
		<tag k="name:se" v="Høgbuollán" />
		<tag k="natural" v="hill" />
		<tag k="place" v="locality" />
		<tag k="ssr:stedsnr" v="117984" />
	</node>
	<node lat="69.60774444181838" lon="20.331141637763842" id="-39569">
		<tag k="name" v="Storsteinen" />
		<tag k="natural" v="hill" />
		<tag k="place" v="locality" />
		<tag k="ssr:stedsnr" v="117988" />
	</node>
	<node lat="69.67378611149923" lon="20.268724973262785" id="-39577">
		<tag k="loc_name:se" v="Uhcaskoroš" />
		<tag k="name" v="Lilleskåret" />
		<tag k="name:no" v="Lilleskåret" />
		<tag k="natural" v="valley" />
		<tag k="place" v="locality" />
		<tag k="ssr:stedsnr" v="119114" />
	</node>
	<node lat="69.6740722262022" lon="20.33883055287383" id="-39578">
		<tag k="name" v="Sommarsethaugen" />
		<tag k="natural" v="hill" />
		<tag k="place" v="locality" />
		<tag k="ssr:stedsnr" v="119129" />
	</node>
	<node lat="69.69577389027751" lon="20.1977822317689" id="-39579">
		<tag k="alt_name" v="Koppangstinden, store" />
		<tag k="fixme" v="consider natural=peak for the most distinct mountains in the district" />
		<tag k="name" v="Store Koppangstinden" />
		<tag k="natural" v="hill" />
		<tag k="place" v="locality" />
		<tag k="ssr:stedsnr" v="139003" />
	</node>
	<node lat="69.64571666644572" lon="19.94189443476283" id="-39581">
		<tag k="fixme" v="consider natural=peak for the most distinct mountains in the district" />
		<tag k="name" v="Isskardtindane" />
		<tag k="natural" v="hill" />
		<tag k="place" v="locality" />
		<tag k="ssr:stedsnr" v="139045" />
	</node>
	<node lat="69.46009166762158" lon="20.066061101386563" id="-39582">
		<tag k="fixme" v="consider natural=peak for the most distinct mountains in the district" />
		<tag k="name" v="Váráš" />
		<tag k="name:se" v="Váráš" />
		<tag k="natural" v="hill" />
		<tag k="place" v="locality" />
		<tag k="ssr:stedsnr" v="139092" />
	</node>
	<node lat="69.48506944038981" lon="20.01771943218483" id="-39583">
		<tag k="name" v="Bredalen" />
		<tag k="natural" v="valley" />
		<tag k="place" v="locality" />
		<tag k="ssr:stedsnr" v="139289" />
	</node>
	<node lat="69.56880000122332" lon="20.079197202686714" id="-39586">
		<tag k="fixme" v="consider natural=peak for the most distinct mountains in the district" />
		<tag k="name" v="Rørnesfjellet - Ruksesváhgáisi" />
		<tag k="name:no" v="Rørnesfjellet" />
		<tag k="name:se" v="Ruksesváhgáisi" />
		<tag k="natural" v="hill" />
		<tag k="place" v="locality" />
		<tag k="ssr:stedsnr" v="139945" />
	</node>
	<node lat="69.85479444709982" lon="20.294566665023016" id="-39590">
		<tag k="fixme" v="consider natural=peak for the most distinct mountains in the district" />
		<tag k="name" v="Gamviktindan" />
		<tag k="natural" v="hill" />
		<tag k="place" v="locality" />
		<tag k="ssr:stedsnr" v="140693" />
	</node>
	<node lat="69.49831388857599" lon="20.212794421785247" id="-39595">
		<tag k="name" v="Guhkesruovddáš" />
		<tag k="name:se" v="Guhkesruovddáš" />
		<tag k="natural" v="slope" />
		<tag k="place" v="locality" />
		<tag k="ssr:stedsnr" v="146185" />
	</node>
	<node lat="69.66741944889007" lon="19.91311665634941" id="-39599">
		<tag k="name" v="Aslaklia - Fávrresborri" />
		<tag k="name:no" v="Aslaklia" />
		<tag k="name:se" v="Fávrresborri" />
		<tag k="natural" v="slope" />
		<tag k="place" v="locality" />
		<tag k="ssr:stedsnr" v="261015" />
	</node>
	<node lat="69.72031666606776" lon="20.07793332728431" id="-39600">
		<tag k="fixme" v="consider natural=peak for the most distinct mountains in the district" />
		<tag k="name" v="Lenangstindane" />
		<tag k="natural" v="hill" />
		<tag k="place" v="locality" />
		<tag k="ssr:stedsnr" v="261020" />
	</node>
	<node lat="69.71472778228606" lon="20.125002758155958" id="-39601">
		<tag k="alt_name" v="Struptinden, store" />
		<tag k="fixme" v="consider natural=peak for the most distinct mountains in the district" />
		<tag k="name" v="Store Struptinden" />
		<tag k="natural" v="hill" />
		<tag k="place" v="locality" />
		<tag k="ssr:stedsnr" v="261027" />
	</node>
	<node lat="69.71976666667534" lon="20.22770554770563" id="-39602">
		<tag k="name" v="Strupen" />
		<tag k="natural" v="valley" />
		<tag k="place" v="locality" />
		<tag k="ssr:stedsnr" v="261029" />
	</node>
	<node lat="69.42627499822879" lon="20.0910472115753" id="-39607">
		<tag k="fixme" v="consider natural=peak for the most distinct mountains in the district" />
		<tag k="name" v="Nedretinden" />
		<tag k="natural" v="hill" />
		<tag k="place" v="locality" />
		<tag k="ssr:stedsnr" v="261268" />
	</node>
	<node lat="69.68140000373572" lon="19.785130548780682" id="-39608">
		<tag k="fixme" v="multiple name tags, choose one and add the other to alt_name" />
		<tag k="name" v="Indrehaugen;Ullsneshaugen indre" />
		<tag k="natural" v="hill" />
		<tag k="place" v="locality" />
		<tag k="ssr:stedsnr" v="261225" />
	</node>
	<node lat="69.58136389175507" lon="20.155538871983175" id="-39613">
		<tag k="name" v="Gustavvollen" />
		<tag k="place" v="locality" />
		<tag k="ssr:stedsnr" v="177555" />
	</node>
	<node lat="69.5775277768497" lon="20.186838880575703" id="-39615">
		<tag k="name" v="Fjellfinnbakken" />
		<tag k="natural" v="slope" />
		<tag k="place" v="locality" />
		<tag k="ssr:stedsnr" v="177563" />
	</node>
	<node lat="69.57957221913492" lon="20.213933315359814" id="-39616">
		<tag k="loc_name" v="Giæverlia" />
		<tag k="name" v="Gjæverlia" />
		<tag k="natural" v="slope" />
		<tag k="place" v="locality" />
		<tag k="ssr:stedsnr" v="177566" />
	</node>
	<node lat="69.58790000142778" lon="20.168766651283203" id="-39617">
		<tag k="fixme" v="consider natural=peak for the most distinct mountains in the district" />
		<tag k="name" v="Øveråsen" />
		<tag k="natural" v="hill" />
		<tag k="place" v="locality" />
		<tag k="ssr:stedsnr" v="177713" />
	</node>
	<node lat="69.61316388999339" lon="19.932791648121114" id="-39620">
		<tag k="name" v="Kattugleberget" />
		<tag k="natural" v="hill" />
		<tag k="place" v="locality" />
		<tag k="ssr:stedsnr" v="178104" />
	</node>
	<node lat="69.5782416663447" lon="20.24588053471492" id="-39622">
		<tag k="name" v="Stigbergan" />
		<tag k="natural" v="hill" />
		<tag k="place" v="locality" />
		<tag k="ssr:stedsnr" v="178787" />
	</node>
	<node lat="69.84314999872727" lon="19.988805533069957" id="-39624">
		<tag k="alt_name" v="Flåget" />
		<tag k="name" v="Floget" />
		<tag k="natural" v="hill" />
		<tag k="place" v="locality" />
		<tag k="ssr:stedsnr" v="179111" />
	</node>
	<node lat="69.79153611252063" lon="20.264099976666333" id="-39627">
		<tag k="fixme" v="consider natural=peak for the most distinct mountains in the district" />
		<tag k="name" v="Vaggåsen" />
		<tag k="natural" v="hill" />
		<tag k="place" v="locality" />
		<tag k="ssr:stedsnr" v="180006" />
	</node>
	<node lat="69.67125277869577" lon="20.244099989435377" id="-39628">
		<tag k="name" v="Fjellbakken" />
		<tag k="natural" v="slope" />
		<tag k="place" v="locality" />
		<tag k="ssr:stedsnr" v="180102" />
	</node>
	<node lat="69.61468353578408" lon="20.110770961937895" id="-39631">
		<tag k="fixme" v="consider natural=peak for the most distinct mountains in the district" />
		<tag k="name" v="Istinden" />
		<tag k="natural" v="hill" />
		<tag k="place" v="locality" />
		<tag k="ssr:stedsnr" v="261978" />
	</node>
	<node lat="69.83717500134699" lon="20.322947211626534" id="-39635">
		<tag k="fixme" v="consider natural=peak for the most distinct mountains in the district" />
		<tag k="name" v="Rappgamtinden" />
		<tag k="natural" v="hill" />
		<tag k="place" v="locality" />
		<tag k="ssr:stedsnr" v="262671" />
	</node>
	<node lat="69.8304027780642" lon="20.353291642570383" id="-39636">
		<tag k="name" v="Goddeskoarru" />
		<tag k="name:se" v="Goddeskoarru" />
		<tag k="natural" v="valley" />
		<tag k="place" v="locality" />
		<tag k="ssr:stedsnr" v="262675" />
	</node>
	<node lat="69.86850833511183" lon="20.260091659785285" id="-39637">
		<tag k="fixme" v="consider natural=peak for the most distinct mountains in the district" />
		<tag k="name" v="Storurdtinden" />
		<tag k="natural" v="hill" />
		<tag k="place" v="locality" />
		<tag k="ssr:stedsnr" v="262723" />
	</node>
	<node lat="69.83789166652008" lon="20.356436103200632" id="-39638">
		<tag k="alt_name:se" v="Heallobákti" />
		<tag k="name" v="Hellobákti" />
		<tag k="name:se" v="Hellobákti" />
		<tag k="natural" v="hill" />
		<tag k="place" v="locality" />
		<tag k="ssr:stedsnr" v="262740" />
	</node>
	<node lat="69.69772791680671" lon="20.218517289998175" id="-39641">
		<tag k="alt_name" v="Koppangstinden, litle" />
		<tag k="fixme" v="consider natural=peak for the most distinct mountains in the district" />
		<tag k="name" v="Litle Koppangstinden" />
		<tag k="natural" v="hill" />
		<tag k="place" v="locality" />
		<tag k="ssr:stedsnr" v="200002" />
	</node>
	<node lat="69.41878055350946" lon="20.086933323155495" id="-39643">
		<tag k="name" v="Kabelbuktreppi - Gáhpoluohriehppi" />
		<tag k="name:no" v="Kabelbuktreppi" />
		<tag k="name:se" v="Gáhpoluohriehppi" />
		<tag k="natural" v="valley" />
		<tag k="place" v="locality" />
		<tag k="ssr:stedsnr" v="200258" />
	</node>
	<node lat="69.84234722020142" lon="20.35585553606823" id="-39650">
		<tag k="name" v="Gejabákti" />
		<tag k="name:se" v="Gejabákti" />
		<tag k="natural" v="hill" />
		<tag k="old_name:se" v="Geiabakte" />
		<tag k="place" v="locality" />
		<tag k="ssr:stedsnr" v="201694" />
	</node>
	<node lat="69.68710277443085" lon="19.990974996597203" id="-39663">
		<tag k="fixme" v="consider natural=peak for the most distinct mountains in the district" />
		<tag k="name" v="Stortinden - Gárjelgáisi" />
		<tag k="name:no" v="Stortinden" />
		<tag k="name:se" v="Gárjelgáisi" />
		<tag k="natural" v="hill" />
		<tag k="place" v="locality" />
		<tag k="ssr:stedsnr" v="210005" />
	</node>
	<node lat="69.5052166661421" lon="20.204069440840335" id="-39671">
		<tag k="name" v="Pitkäpahta" />
		<tag k="name:fkv" v="Pitkäpahta" />
		<tag k="natural" v="hill" />
		<tag k="place" v="locality" />
		<tag k="ssr:stedsnr" v="450064" />
	</node>
	<node lat="69.78196666644308" lon="19.91228608973051" id="-39673">
		<tag k="name" v="Tornebakken" />
		<tag k="natural" v="slope" />
		<tag k="place" v="locality" />
		<tag k="ssr:stedsnr" v="238083" />
	</node>
	<node lat="69.58591388569612" lon="20.160238874638765" id="-39677">
		<tag k="name" v="Kokoberghaugan" />
		<tag k="natural" v="hill" />
		<tag k="place" v="locality" />
		<tag k="ssr:stedsnr" v="238680" />
	</node>
	<node lat="69.58611389211207" lon="20.164494441161093" id="-39678">
		<tag k="fixme" v="consider natural=peak for the most distinct mountains in the district" />
		<tag k="name" v="Neråsen" />
		<tag k="natural" v="hill" />
		<tag k="place" v="locality" />
		<tag k="ssr:stedsnr" v="238681" />
	</node>
	<node lat="69.6535166656293" lon="20.240866654557543" id="-39680">
		<tag k="loc_name:se" v="Sáŧmenjunni" />
		<tag k="name" v="Mosenasen" />
		<tag k="name:no" v="Mosenasen" />
		<tag k="natural" v="hill" />
		<tag k="place" v="locality" />
		<tag k="ssr:stedsnr" v="238902" />
	</node>
	<node lat="69.65680833047934" lon="20.27724721063304" id="-39681">
		<tag k="name" v="Lillemelen" />
		<tag k="natural" v="slope" />
		<tag k="place" v="locality" />
		<tag k="ssr:stedsnr" v="238904" />
	</node>
	<node lat="69.58886388973792" lon="20.01120553203977" id="-39682">
		<tag k="name" v="Smiberget" />
		<tag k="natural" v="hill" />
		<tag k="place" v="locality" />
		<tag k="ssr:stedsnr" v="239103" />
	</node>
	<node lat="69.61213055217257" lon="19.92122775693083" id="-39683">
		<tag k="name" v="Storberget" />
		<tag k="natural" v="hill" />
		<tag k="place" v="locality" />
		<tag k="ssr:stedsnr" v="239109" />
	</node>
	<node lat="69.72700833232633" lon="19.846063887598856" id="-39684">
		<tag k="name" v="Middagskaret" />
		<tag k="natural" v="valley" />
		<tag k="place" v="locality" />
		<tag k="ssr:stedsnr" v="239190" />
	</node>
	<node lat="69.70908055293681" lon="19.815891662883764" id="-39686">
		<tag k="name" v="Storhakket" />
		<tag k="natural" v="hill" />
		<tag k="place" v="locality" />
		<tag k="ssr:stedsnr" v="239280" />
	</node>
	<node lat="69.67689722062853" lon="20.345449984973165" id="-39687">
		<tag k="name" v="Strandhalsen" />
		<tag k="natural" v="valley" />
		<tag k="place" v="locality" />
		<tag k="ssr:stedsnr" v="240002" />
	</node>
	<node lat="69.81672500106995" lon="20.033030541196982" id="-39688">
		<tag k="name" v="Storbakken" />
		<tag k="natural" v="slope" />
		<tag k="place" v="locality" />
		<tag k="ssr:stedsnr" v="240012" />
	</node>
	<node lat="69.61252499880082" lon="20.30362221534736" id="-39691">
		<tag k="name" v="Sandbakken" />
		<tag k="natural" v="slope" />
		<tag k="place" v="locality" />
		<tag k="ssr:stedsnr" v="239798" />
	</node>
	<node lat="69.92817777637306" lon="20.21533609552275" id="-39693">
		<tag k="name" v="Skarhollet" />
		<tag k="natural" v="valley" />
		<tag k="place" v="locality" />
		<tag k="ssr:stedsnr" v="240229" />
	</node>
	<node lat="69.6934666639055" lon="20.08995553843019" id="-39698">
		<tag k="fixme" v="consider natural=peak for the most distinct mountains in the district" />
		<tag k="name" v="Tafeltinden" />
		<tag k="natural" v="hill" />
		<tag k="place" v="locality" />
		<tag k="ssr:stedsnr" v="261002" />
	</node>
	<node lat="69.61142222129217" lon="20.31044998994074" id="-39707">
		<tag k="fixme" v="consider natural=peak for the most distinct mountains in the district" />
		<tag k="name" v="Bjørkåsen" />
		<tag k="natural" v="hill" />
		<tag k="place" v="locality" />
		<tag k="ssr:stedsnr" v="262000" />
	</node>
	<node lat="69.80259166931104" lon="20.12410554454255" id="-39709">
		<tag k="fixme" v="consider natural=peak for the most distinct mountains in the district" />
		<tag k="name" v="Stefjellet" />
		<tag k="natural" v="hill" />
		<tag k="place" v="locality" />
		<tag k="ssr:stedsnr" v="262704" />
	</node>
	<node lat="69.5382583336424" lon="20.152958320291003" id="-39725">
		<tag k="name" v="Åsbergan" />
		<tag k="natural" v="hill" />
		<tag k="place" v="locality" />
		<tag k="ssr:stedsnr" v="299575" />
	</node>
	<node lat="69.87742500086446" lon="20.08897499263468" id="-39726">
		<tag k="name" v="Trollhaugen" />
		<tag k="natural" v="hill" />
		<tag k="place" v="locality" />
		<tag k="ssr:stedsnr" v="299705" />
	</node>
	<node lat="69.88264166878884" lon="20.08692499320911" id="-39727">
		<tag k="name" v="Strupbergan" />
		<tag k="natural" v="hill" />
		<tag k="place" v="locality" />
		<tag k="ssr:stedsnr" v="299706" />
	</node>
	<node lat="69.42959444713341" lon="20.129208320992394" id="-39729">
		<tag k="name" v="Skáidigorsa" />
		<tag k="name:se" v="Skáidigorsa" />
		<tag k="natural" v="valley" />
		<tag k="place" v="locality" />
		<tag k="ssr:stedsnr" v="299627" />
	</node>
	<node lat="69.42727777507912" lon="20.102422218344948" id="-39730">
		<tag k="fixme" v="consider natural=peak for the most distinct mountains in the district" />
		<tag k="name" v="Lillečohkka" />
		<tag k="name:se" v="Lillečohkka" />
		<tag k="natural" v="hill" />
		<tag k="place" v="locality" />
		<tag k="ssr:stedsnr" v="299628" />
	</node>
	<node lat="69.58403333635758" lon="20.173644443839216" id="-39731">
		<tag k="name" v="Vassmobergan" />
		<tag k="natural" v="hill" />
		<tag k="place" v="locality" />
		<tag k="ssr:stedsnr" v="299687" />
	</node>
	<node lat="69.93564444852734" lon="20.214741647865154" id="-39736">
		<tag k="name" v="Blåbærskaret" />
		<tag k="natural" v="valley" />
		<tag k="place" v="locality" />
		<tag k="ssr:stedsnr" v="301190" />
	</node>
	<node lat="69.51734999794911" lon="20.16134999212175" id="-39739">
		<tag k="name" v="Stállenjunni" />
		<tag k="name:se" v="Stállenjunni" />
		<tag k="place" v="locality" />
		<tag k="ssr:stedsnr" v="466957" />
	</node>
	<node lat="69.7782805538185" lon="20.068297209012066" id="-39742">
		<tag k="name" v="Veidalen - Bálggesvággi" />
		<tag k="name:no" v="Veidalen" />
		<tag k="name:se" v="Bálggesvággi" />
		<tag k="natural" v="valley" />
		<tag k="place" v="locality" />
		<tag k="ssr:stedsnr" v="322633" />
	</node>
	<node lat="69.63426111350338" lon="20.246727767873978" id="-39749">
		<tag k="name" v="Lemman" />
		<tag k="place" v="locality" />
		<tag k="ssr:stedsnr" v="359058" />
	</node>
	<node lat="69.45637499907258" lon="20.080624985417977" id="-39750">
		<tag k="name" v="Muorječorut" />
		<tag k="name:se" v="Muorječorut" />
		<tag k="natural" v="hill" />
		<tag k="place" v="locality" />
		<tag k="ssr:stedsnr" v="359613" />
	</node>
	<node lat="69.5776583356174" lon="20.14407776266401" id="-39751">
		<tag k="name" v="Dalberget" />
		<tag k="natural" v="hill" />
		<tag k="place" v="locality" />
		<tag k="ssr:stedsnr" v="359551" />
	</node>
	<node lat="69.57793888719134" lon="20.16173331773394" id="-39752">
		<tag k="name" v="Grindvollen" />
		<tag k="place" v="locality" />
		<tag k="ssr:stedsnr" v="359555" />
	</node>
	<node lat="69.68917778136165" lon="19.78320554278305" id="-39759">
		<tag k="name" v="Saudalen" />
		<tag k="natural" v="valley" />
		<tag k="place" v="locality" />
		<tag k="ssr:stedsnr" v="360259" />
	</node>
	<node lat="69.64349166946157" lon="19.823555551075714" id="-39760">
		<tag k="fixme" v="consider natural=peak for the most distinct mountains in the district" />
		<tag k="name" v="Lilleåsen" />
		<tag k="natural" v="hill" />
		<tag k="place" v="locality" />
		<tag k="ssr:stedsnr" v="360265" />
	</node>
	<node lat="69.61559444656059" lon="19.875933321582153" id="-39762">
		<tag k="name" v="Varghaugen" />
		<tag k="natural" v="hill" />
		<tag k="place" v="locality" />
		<tag k="ssr:stedsnr" v="360308" />
	</node>
	<node lat="69.50878333726322" lon="20.165258322777603" id="-39763">
		<tag k="name" v="Aksla" />
		<tag k="place" v="locality" />
		<tag k="ssr:stedsnr" v="481529" />
	</node>
	<node lat="69.58049166746792" lon="20.161094436663944" id="-39765">
		<tag k="name" v="Flåtevollen" />
		<tag k="place" v="locality" />
		<tag k="ssr:stedsnr" v="481544" />
	</node>
	<node lat="69.64148333378604" lon="20.32456943918603" id="-39766">
		<tag k="name" v="Elvedalen" />
		<tag k="natural" v="valley" />
		<tag k="place" v="locality" />
		<tag k="ssr:stedsnr" v="481079" />
	</node>
	<node lat="69.6350666702743" lon="20.342024975738042" id="-39767">
		<tag k="name" v="Langvollhaugen" />
		<tag k="natural" v="hill" />
		<tag k="place" v="locality" />
		<tag k="ssr:stedsnr" v="481086" />
	</node>
	<node lat="69.77802777683542" lon="19.952052763356402" id="-39768">
		<tag k="name" v="Pepparkallen" />
		<tag k="natural" v="hill" />
		<tag k="place" v="locality" />
		<tag k="ssr:stedsnr" v="481090" />
	</node>
	<node lat="69.77898055354872" lon="20.005830549115878" id="-39770">
		<tag k="name" v="Oppgårdsberget" />
		<tag k="natural" v="hill" />
		<tag k="place" v="locality" />
		<tag k="ssr:stedsnr" v="481035" />
	</node>
	<node lat="69.71344722463442" lon="19.872108311104125" id="-39774">
		<tag k="name" v="Storbakkdalen" />
		<tag k="natural" v="valley" />
		<tag k="place" v="locality" />
		<tag k="ssr:stedsnr" v="481154" />
	</node>
	<node lat="69.69448611414298" lon="19.85373611092985" id="-39776">
		<tag k="fixme" v="consider natural=peak for the most distinct mountains in the district" />
		<tag k="name" v="Storvassåsen" />
		<tag k="natural" v="hill" />
		<tag k="place" v="locality" />
		<tag k="ssr:stedsnr" v="481299" />
	</node>
	<node lat="69.5836861161039" lon="20.10532775478236" id="-39778">
		<tag k="name" v="Bjørnberget" />
		<tag k="natural" v="hill" />
		<tag k="place" v="locality" />
		<tag k="ssr:stedsnr" v="481694" />
	</node>
	<node lat="69.58417500199909" lon="20.125677770556532" id="-39780">
		<tag k="name" v="Svartberget" />
		<tag k="natural" v="hill" />
		<tag k="place" v="locality" />
		<tag k="ssr:stedsnr" v="481696" />
	</node>
	<node lat="69.5471749982271" lon="20.27323331721034" id="-39781">
		<tag k="alt_name" v="Karneshompen" />
		<tag k="name" v="Karneshumpen" />
		<tag k="natural" v="hill" />
		<tag k="place" v="locality" />
		<tag k="ssr:stedsnr" v="481779" />
	</node>
	<node lat="69.56817500155601" lon="20.14558608794748" id="-39783">
		<tag k="fixme" v="consider natural=peak for the most distinct mountains in the district" />
		<tag k="name" v="Durmålsaksla" />
		<tag k="natural" v="hill" />
		<tag k="place" v="locality" />
		<tag k="ssr:stedsnr" v="481735" />
	</node>
	<node lat="69.59794722687163" lon="20.265722211848228" id="-39787">
		<tag k="name" v="Bunnbakken" />
		<tag k="natural" v="slope" />
		<tag k="place" v="locality" />
		<tag k="ssr:stedsnr" v="481980" />
	</node>
	<node lat="69.59594444853101" lon="20.28015833060006" id="-39788">
		<tag k="name" v="Stalloberget" />
		<tag k="natural" v="hill" />
		<tag k="place" v="locality" />
		<tag k="ssr:stedsnr" v="481981" />
	</node>
	<node lat="69.7384055511962" lon="20.120149991104316" id="-39792">
		<tag k="alt_name" v="Veidalstindan" />
		<tag k="fixme" v="consider natural=peak for the most distinct mountains in the district" />
		<tag k="name" v="Veldalstindan" />
		<tag k="natural" v="hill" />
		<tag k="place" v="locality" />
		<tag k="ssr:stedsnr" v="382108" />
	</node>
	<node lat="69.4705749985704" lon="20.001736100893794" id="-39796">
		<tag k="name" v="Jiehkkeskohppi" />
		<tag k="name:se" v="Jiehkkeskohppi" />
		<tag k="natural" v="valley" />
		<tag k="place" v="locality" />
		<tag k="ssr:stedsnr" v="382307" />
	</node>
	<node lat="69.76548055803845" lon="20.017880538696893" id="-39800">
		<tag k="fixme" v="consider natural=peak for the most distinct mountains in the district" />
		<tag k="name" v="Botnfjellet" />
		<tag k="natural" v="hill" />
		<tag k="place" v="locality" />
		<tag k="ssr:stedsnr" v="383657" />
	</node>
	<node lat="69.67689721827793" lon="20.35551110145365" id="-39803">
		<tag k="name" v="Brennevinshaugen" />
		<tag k="natural" v="hill" />
		<tag k="place" v="locality" />
		<tag k="ssr:stedsnr" v="483014" />
	</node>
	<node lat="69.81123055743441" lon="20.049902763744342" id="-39807">
		<tag k="name" v="Skittdikhaugen" />
		<tag k="natural" v="hill" />
		<tag k="place" v="locality" />
		<tag k="ssr:stedsnr" v="483024" />
	</node>
	<node lat="69.80607500227222" lon="20.050316663508195" id="-39808">
		<tag k="alt_name" v="Hompen" />
		<tag k="name" v="Humpen" />
		<tag k="natural" v="hill" />
		<tag k="place" v="locality" />
		<tag k="ssr:stedsnr" v="483031" />
	</node>
	<node lat="69.84065833195919" lon="20.24181665034134" id="-39810">
		<tag k="name" v="Tverrbakken" />
		<tag k="natural" v="slope" />
		<tag k="place" v="locality" />
		<tag k="ssr:stedsnr" v="483049" />
	</node>
	<node lat="69.8234416648304" lon="20.244358327297277" id="-39811">
		<tag k="name" v="Synbakken" />
		<tag k="natural" v="slope" />
		<tag k="place" v="locality" />
		<tag k="ssr:stedsnr" v="483050" />
	</node>
	<node lat="69.68918888565518" lon="20.267497206897772" id="-39812">
		<tag k="name" v="Nižžegeahči" />
		<tag k="name:se" v="Nižžegeahči" />
		<tag k="natural" v="hill" />
		<tag k="place" v="locality" />
		<tag k="ssr:stedsnr" v="483118" />
	</node>
	<node lat="69.6756194487331" lon="20.26306109933052" id="-39813">
		<tag k="name" v="Hestebakkan" />
		<tag k="natural" v="slope" />
		<tag k="place" v="locality" />
		<tag k="ssr:stedsnr" v="483122" />
	</node>
	<node lat="69.45264166957217" lon="20.083516652490434" id="-39814">
		<tag k="name" v="Hoaŋka" />
		<tag k="name:se" v="Hoaŋka" />
		<tag k="natural" v="hill" />
		<tag k="place" v="locality" />
		<tag k="ssr:stedsnr" v="483134" />
	</node>
	<node lat="69.84441666446422" lon="19.981047220430398" id="-39815">
		<tag k="name" v="Skarvesteinhaugan" />
		<tag k="natural" v="hill" />
		<tag k="place" v="locality" />
		<tag k="ssr:stedsnr" v="483141" />
	</node>
	<node lat="69.45182778158171" lon="20.154655555159238" id="-39816">
		<tag k="name" v="Geitlia" />
		<tag k="natural" v="slope" />
		<tag k="place" v="locality" />
		<tag k="ssr:stedsnr" v="388949" />
	</node>
	<node lat="69.44368888648958" lon="20.1249110865014" id="-39818">
		<tag k="name" v="Nihkoriidi" />
		<tag k="name:se" v="Nihkoriidi" />
		<tag k="natural" v="slope" />
		<tag k="place" v="locality" />
		<tag k="ssr:stedsnr" v="483075" />
	</node>
	<node lat="69.43310833143816" lon="20.136080537444794" id="-39819">
		<tag k="name" v="Geitberget" />
		<tag k="natural" v="hill" />
		<tag k="place" v="locality" />
		<tag k="ssr:stedsnr" v="483078" />
	</node>
	<node lat="69.43721389027151" lon="20.1444638805804" id="-39820">
		<tag k="name" v="Einebakken" />
		<tag k="natural" v="slope" />
		<tag k="place" v="locality" />
		<tag k="ssr:stedsnr" v="483083" />
	</node>
	<node lat="69.62965277978884" lon="20.34033887564987" id="-39822">
		<tag k="name" v="Hebbeshargi" />
		<tag k="place" v="locality" />
		<tag k="ssr:stedsnr" v="483105" />
	</node>
	<node lat="69.76533055629511" lon="19.94977221689109" id="-39825">
		<tag k="name" v="Storgjota" />
		<tag k="place" v="locality" />
		<tag k="ssr:stedsnr" v="389699" />
	</node>
	<node lat="69.4964250004862" lon="20.17451386862042" id="-39836">
		<tag k="name" v="Essavárvuolli" />
		<tag k="name:se" v="Essavárvuolli" />
		<tag k="natural" v="slope" />
		<tag k="place" v="locality" />
		<tag k="ssr:stedsnr" v="420616" />
	</node>
	<node lat="69.44544444222299" lon="20.14811666319909" id="-39837">
		<tag k="name" v="Báktegeahči" />
		<tag k="name:se" v="Báktegeahči" />
		<tag k="natural" v="hill" />
		<tag k="place" v="locality" />
		<tag k="ssr:stedsnr" v="420638" />
	</node>
	<node lat="69.57078889002574" lon="20.15341387760481" id="-39843">
		<tag k="name" v="Kvannholbergan" />
		<tag k="natural" v="hill" />
		<tag k="place" v="locality" />
		<tag k="ssr:stedsnr" v="420755" />
	</node>
	<node lat="69.63118889045772" lon="19.89908054277542" id="-39845">
		<tag k="fixme" v="consider natural=peak for the most distinct mountains in the district" />
		<tag k="name" v="Dalbotnbergan" />
		<tag k="natural" v="hill" />
		<tag k="place" v="locality" />
		<tag k="ssr:stedsnr" v="421105" />
	</node>
	<node lat="69.66536944815198" lon="19.913183310762097" id="-39846">
		<tag k="name" v="Preikstolen" />
		<tag k="natural" v="hill" />
		<tag k="place" v="locality" />
		<tag k="ssr:stedsnr" v="421110" />
	</node>
	<node lat="69.59584722544707" lon="19.96975553821996" id="-39847">
		<tag k="name" v="Halsen" />
		<tag k="natural" v="valley" />
		<tag k="place" v="locality" />
		<tag k="ssr:stedsnr" v="421093" />
	</node>
	<node lat="69.67770277634891" lon="19.819338870904016" id="-39848">
		<tag k="fixme" v="consider natural=peak for the most distinct mountains in the district" />
		<tag k="name" v="Gamåstuva" />
		<tag k="natural" v="hill" />
		<tag k="place" v="locality" />
		<tag k="ssr:stedsnr" v="421239" />
	</node>
	<node lat="69.64775555388822" lon="19.83457220384014" id="-39849">
		<tag k="name" v="Klamra" />
		<tag k="natural" v="slope" />
		<tag k="place" v="locality" />
		<tag k="ssr:stedsnr" v="421293" />
	</node>
	<node lat="69.73900000313141" lon="19.8575083150939" id="-39850">
		<tag k="name" v="Krøkebærhaugen" />
		<tag k="natural" v="hill" />
		<tag k="place" v="locality" />
		<tag k="ssr:stedsnr" v="421196" />
	</node>
	<node lat="69.66581944861908" lon="19.885208323263754" id="-39851">
		<tag k="name" v="Vassbotn" />
		<tag k="natural" v="valley" />
		<tag k="place" v="locality" />
		<tag k="ssr:stedsnr" v="421304" />
	</node>
	<node lat="69.43599722101172" lon="20.152905541881946" id="-39852">
		<tag k="name" v="Hamnvikbergan" />
		<tag k="natural" v="hill" />
		<tag k="place" v="locality" />
		<tag k="ssr:stedsnr" v="421602" />
	</node>
	<node lat="69.5431138882941" lon="20.262605540847268" id="-39853">
		<tag k="name" v="Storbakken" />
		<tag k="natural" v="hill" />
		<tag k="place" v="locality" />
		<tag k="ssr:stedsnr" v="421792" />
	</node>
	<node lat="69.61534166359135" lon="20.245724977234133" id="-39855">
		<tag k="fixme" v="consider natural=peak for the most distinct mountains in the district" />
		<tag k="name" v="Mellaloktus" />
		<tag k="natural" v="hill" />
		<tag k="place" v="locality" />
		<tag k="ssr:stedsnr" v="421798" />
	</node>
	<node lat="69.8003166703899" lon="20.030461087324174" id="-39857">
		<tag k="name" v="Bergan" />
		<tag k="natural" v="hill" />
		<tag k="place" v="locality" />
		<tag k="ssr:stedsnr" v="422016" />
	</node>
	<node lat="69.43909444893617" lon="20.144261096721138" id="-39859">
		<tag k="name" v="Nilsaroggi" />
		<tag k="name:se" v="Nilsaroggi" />
		<tag k="natural" v="valley" />
		<tag k="place" v="locality" />
		<tag k="ssr:stedsnr" v="422088" />
	</node>
	<node lat="69.60930555226514" lon="20.322038881539445" id="-39860">
		<tag k="name" v="Buollanvollen" />
		<tag k="place" v="locality" />
		<tag k="ssr:stedsnr" v="421990" />
	</node>
	<node lat="69.61461388719715" lon="20.328841648366616" id="-39861">
		<tag k="name" v="Gorgia" />
		<tag k="name:se" v="Gorgia" />
		<tag k="natural" v="slope" />
		<tag k="place" v="locality" />
		<tag k="ssr:stedsnr" v="421991" />
	</node>
	<node lat="69.44769999605565" lon="20.08827220976064" id="-39862">
		<tag k="name" v="Speannjaš" />
		<tag k="name:se" v="Speannjaš" />
		<tag k="natural" v="hill" />
		<tag k="place" v="locality" />
		<tag k="ssr:stedsnr" v="422111" />
	</node>
	<node lat="69.67101111190104" lon="20.246147210882675" id="-39865">
		<tag k="name" v="Langbakken" />
		<tag k="natural" v="slope" />
		<tag k="place" v="locality" />
		<tag k="ssr:stedsnr" v="423093" />
	</node>
	<node lat="69.68884721778524" lon="19.917052775220846" id="-39867">
		<tag k="name" v="Jægervassbotn" />
		<tag k="natural" v="valley" />
		<tag k="place" v="locality" />
		<tag k="ssr:stedsnr" v="493093" />
	</node>
	<node lat="69.68720277567294" lon="19.908938883171686" id="-39868">
		<tag k="name" v="Vassbotn" />
		<tag k="natural" v="valley" />
		<tag k="place" v="locality" />
		<tag k="ssr:stedsnr" v="443006" />
	</node>
	<node lat="69.64732416335706" lon="20.298620093382986" id="-39870">
		<tag k="name" v="Oladalen" />
		<tag k="natural" v="valley" />
		<tag k="place" v="locality" />
		<tag k="ssr:stedsnr" v="443037" />
	</node>
	<node lat="69.68633332934569" lon="19.788611103210666" id="-39873">
		<tag k="fixme" v="multiple name tags, choose one and add the other to alt_name" />
		<tag k="name" v="Ytrehaugen;Ullsneshaugen ytre" />
		<tag k="natural" v="hill" />
		<tag k="place" v="locality" />
		<tag k="ssr:stedsnr" v="443236" />
	</node>
	<node lat="69.5285833348444" lon="20.176349991080052" id="-39875">
		<tag k="name" v="Oksen" />
		<tag k="natural" v="hill" />
		<tag k="place" v="locality" />
		<tag k="ssr:stedsnr" v="443918" />
	</node>
	<node lat="69.83701111516615" lon="20.230888879018647" id="-39878">
		<tag k="name" v="Tverrbakken" />
		<tag k="natural" v="slope" />
		<tag k="place" v="locality" />
		<tag k="ssr:stedsnr" v="444705" />
	</node>
	<node lat="69.70767222561781" lon="19.951508320179595" id="-39887">
		<tag k="name" v="Bjørnehiet" />
		<tag k="natural" v="slope" />
		<tag k="place" v="locality" />
		<tag k="ssr:stedsnr" v="673128" />
	</node>
	<node lat="69.59737500304922" lon="19.97485554041464" id="-39888">
		<tag k="name" v="Tytebæraksla" />
		<tag k="place" v="locality" />
		<tag k="ssr:stedsnr" v="481102" />
	</node>
	<node lat="69.75464166713306" lon="19.844958315525844" id="-39889">
		<tag k="name" v="Åsvollen" />
		<tag k="place" v="locality" />
		<tag k="ssr:stedsnr" v="481105" />
	</node>
	<node lat="69.63490278150881" lon="20.284480545646524" id="-39892">
		<tag k="name" v="Jávregurra" />
		<tag k="name:se" v="Jávregurra" />
		<tag k="natural" v="valley" />
		<tag k="place" v="locality" />
		<tag k="ssr:stedsnr" v="481071" />
	</node>
	<node lat="69.63963055534306" lon="20.32084164636069" id="-39894">
		<tag k="name" v="Skjellstein" />
		<tag k="natural" v="hill" />
		<tag k="place" v="locality" />
		<tag k="ssr:stedsnr" v="481075" />
	</node>
	<node lat="69.62524722688279" lon="19.85987775747725" id="-39896">
		<tag k="name" v="Prestbergan" />
		<tag k="natural" v="hill" />
		<tag k="place" v="locality" />
		<tag k="ssr:stedsnr" v="481310" />
	</node>
	<node lat="69.64304166981546" lon="19.870305540205248" id="-39897">
		<tag k="fixme" v="consider natural=peak for the most distinct mountains in the district" />
		<tag k="name" v="Brannåsen" />
		<tag k="natural" v="hill" />
		<tag k="place" v="locality" />
		<tag k="ssr:stedsnr" v="481314" />
	</node>
	<node lat="69.59053611128395" lon="20.170336105291387" id="-39900">
		<tag k="name" v="Saufjøsen" />
		<tag k="natural" v="slope" />
		<tag k="place" v="locality" />
		<tag k="ssr:stedsnr" v="481706" />
	</node>
	<node lat="69.60613055548178" lon="20.25137219882584" id="-39901">
		<tag k="name" v="Geitskaret" />
		<tag k="natural" v="valley" />
		<tag k="place" v="locality" />
		<tag k="ssr:stedsnr" v="481761" />
	</node>
	<node lat="69.843927774977" lon="20.077058309626388" id="-39903">
		<tag k="name" v="Finnbakken" />
		<tag k="natural" v="slope" />
		<tag k="place" v="locality" />
		<tag k="ssr:stedsnr" v="481673" />
	</node>
	<node lat="69.66098888984078" lon="20.262486095016314" id="-39904">
		<tag k="name" v="Lillemelen" />
		<tag k="natural" v="slope" />
		<tag k="place" v="locality" />
		<tag k="ssr:stedsnr" v="481903" />
	</node>
	<node lat="69.66599166921853" lon="20.266102775336194" id="-39906">
		<tag k="name" v="Grindbakkan" />
		<tag k="natural" v="slope" />
		<tag k="place" v="locality" />
		<tag k="ssr:stedsnr" v="481908" />
	</node>
	<node lat="69.60094722211129" lon="20.317830549293628" id="-39907">
		<tag k="name" v="Raddo" />
		<tag k="name:se" v="Raddo" />
		<tag k="natural" v="slope" />
		<tag k="place" v="locality" />
		<tag k="ssr:stedsnr" v="481958" />
	</node>
	<node lat="69.6026972192272" lon="20.31345554223789" id="-39908">
		<tag k="name" v="Buollán" />
		<tag k="name:se" v="Buollán" />
		<tag k="place" v="locality" />
		<tag k="ssr:stedsnr" v="481959" />
	</node>
	<node lat="69.68407500239003" lon="19.894180539690424" id="-39910">
		<tag k="name" v="Vassbotnlia" />
		<tag k="natural" v="slope" />
		<tag k="place" v="locality" />
		<tag k="ssr:stedsnr" v="493091" />
	</node>
	<node lat="69.66991944721455" lon="20.127325000318244" id="-39911">
		<tag k="name" v="Russedalen - Ruoššavággi" />
		<tag k="name:no" v="Russedalen" />
		<tag k="name:se" v="Ruoššavággi" />
		<tag k="natural" v="valley" />
		<tag k="place" v="locality" />
		<tag k="ssr:stedsnr" v="503009" />
	</node>
	<node lat="69.70919722402014" lon="20.09110554498577" id="-39912">
		<tag k="alt_name" v="Lenangstinden, store" />
		<tag k="fixme" v="consider natural=peak for the most distinct mountains in the district" />
		<tag k="name" v="Store Lenangstinden" />
		<tag k="natural" v="hill" />
		<tag k="place" v="locality" />
		<tag k="ssr:stedsnr" v="503021" />
	</node>
	<node lat="69.74192500077356" lon="20.237047203898232" id="-39915">
		<tag k="alt_name" v="Reindalstinden, store" />
		<tag k="fixme" v="consider natural=peak for the most distinct mountains in the district" />
		<tag k="name" v="Store Reindalstinden" />
		<tag k="natural" v="hill" />
		<tag k="place" v="locality" />
		<tag k="ssr:stedsnr" v="504074" />
	</node>
	<node lat="69.48217500235924" lon="20.210627764807974" id="-39923">
		<tag k="fixme" v="consider natural=peak for the most distinct mountains in the district" />
		<tag k="name" v="Darfečohkka" />
		<tag k="name:se" v="Darfečohkka" />
		<tag k="natural" v="hill" />
		<tag k="place" v="locality" />
		<tag k="ssr:stedsnr" v="511218" />
	</node>
	<node lat="69.42797778154862" lon="20.051227775030885" id="-39928">
		<tag k="fixme" v="consider natural=peak for the most distinct mountains in the district" />
		<tag k="name" v="Daltinden" />
		<tag k="natural" v="hill" />
		<tag k="place" v="locality" />
		<tag k="ssr:stedsnr" v="685272" />
	</node>
	<node lat="69.43063611185167" lon="19.99842497725503" id="-39929">
		<tag k="fixme" v="consider natural=peak for the most distinct mountains in the district" />
		<tag k="name" v="Moskkoriehpičohkka" />
		<tag k="name:se" v="Moskkoriehpičohkka" />
		<tag k="natural" v="hill" />
		<tag k="place" v="locality" />
		<tag k="ssr:stedsnr" v="685276" />
	</node>
	<node lat="69.56699167026133" lon="20.224408319072115" id="-39932">
		<tag k="name" v="Paraken - Bárahadearbmi" />
		<tag k="name:no" v="Paraken" />
		<tag k="name:se" v="Bárahadearbmi" />
		<tag k="place" v="locality" />
		<tag k="ssr:stedsnr" v="527730" />
	</node>
	<node lat="69.69886875432134" lon="20.21982306514417" id="-39934">
		<tag k="fixme" v="consider natural=peak for the most distinct mountains in the district" />
		<tag k="name" v="Koppangsfjellet - Gohppevárri" />
		<tag k="name:no" v="Koppangsfjellet" />
		<tag k="name:se" v="Gohppevárri" />
		<tag k="natural" v="hill" />
		<tag k="place" v="locality" />
		<tag k="ssr:stedsnr" v="686001" />
	</node>
	<node lat="69.64190833744561" lon="19.84047222035161" id="-39937">
		<tag k="fixme" v="consider natural=peak for the most distinct mountains in the district" />
		<tag k="name" v="Innerbergåsen" />
		<tag k="natural" v="hill" />
		<tag k="place" v="locality" />
		<tag k="ssr:stedsnr" v="686033" />
	</node>
	<node lat="69.61952499986828" lon="20.028049980890188" id="-39939">
		<tag k="name" v="Tytebærdalen - Fastovággi" />
		<tag k="name:no" v="Tytebærdalen" />
		<tag k="name:se" v="Fastovággi" />
		<tag k="natural" v="valley" />
		<tag k="place" v="locality" />
		<tag k="ssr:stedsnr" v="686408" />
	</node>
	<node lat="69.46265278118753" lon="20.00959999252776" id="-39940">
		<tag k="name" v="Dalbotn - Vággebahta" />
		<tag k="name:no" v="Dalbotn" />
		<tag k="name:se" v="Vággebahta" />
		<tag k="natural" v="valley" />
		<tag k="place" v="locality" />
		<tag k="ssr:stedsnr" v="686277" />
	</node>
	<node lat="69.86511944048658" lon="20.244991661078128" id="-39942">
		<tag k="fixme" v="consider natural=peak for the most distinct mountains in the district" />
		<tag k="name" v="Svartfjellet" />
		<tag k="natural" v="hill" />
		<tag k="place" v="locality" />
		<tag k="ssr:stedsnr" v="686697" />
	</node>
	<node lat="69.92365555817344" lon="20.295377771453424" id="-39943">
		<tag k="fixme" v="consider natural=peak for the most distinct mountains in the district" />
		<tag k="name" v="Dalbruna" />
		<tag k="natural" v="hill" />
		<tag k="place" v="locality" />
		<tag k="ssr:stedsnr" v="686724" />
	</node>
	<node lat="69.58166389015362" lon="20.041555530620524" id="-39945">
		<tag k="name" v="Rødbergsletta" />
		<tag k="place" v="locality" />
		<tag k="ssr:stedsnr" v="539207" />
	</node>
	<node lat="69.77824444462743" lon="20.004513879896077" id="-39947">
		<tag k="name" v="Slettberget" />
		<tag k="natural" v="hill" />
		<tag k="place" v="locality" />
		<tag k="ssr:stedsnr" v="541041" />
	</node>
	<node lat="69.796991666522" lon="20.010063886090695" id="-39948">
		<tag k="name" v="Høgmælen" />
		<tag k="natural" v="slope" />
		<tag k="place" v="locality" />
		<tag k="ssr:stedsnr" v="541042" />
	</node>
	<node lat="69.63414166931489" lon="20.32552220251224" id="-39949">
		<tag k="name" v="Vedhøgga" />
		<tag k="natural" v="slope" />
		<tag k="place" v="locality" />
		<tag k="ssr:stedsnr" v="541074" />
	</node>
	<node lat="69.57072777664085" lon="20.16427776456558" id="-39950">
		<tag k="name" v="Huldberget" />
		<tag k="natural" v="hill" />
		<tag k="place" v="locality" />
		<tag k="ssr:stedsnr" v="686948" />
	</node>
	<node lat="69.52774999767195" lon="20.094322219650735" id="-39951">
		<tag k="name" v="Kvalvikdalen - Goalsevággi - Kolsevuopionvankka" />
		<tag k="name:fkv" v="Kolsevuopionvankka" />
		<tag k="name:no" v="Kvalvikdalen" />
		<tag k="name:se" v="Goalsevággi" />
		<tag k="natural" v="valley" />
		<tag k="place" v="locality" />
		<tag k="ssr:stedsnr" v="686921" />
	</node>
	<node lat="69.83711388778458" lon="20.072052756377165" id="-39953">
		<tag k="name" v="Skarslia" />
		<tag k="natural" v="slope" />
		<tag k="place" v="locality" />
		<tag k="ssr:stedsnr" v="541682" />
	</node>
	<node lat="69.58850833005064" lon="20.118716652898865" id="-39954">
		<tag k="name" v="Mellaberget" />
		<tag k="natural" v="hill" />
		<tag k="place" v="locality" />
		<tag k="ssr:stedsnr" v="541716" />
	</node>
	<node lat="69.59291666700507" lon="20.091627776417713" id="-39955">
		<tag k="fixme" v="consider natural=peak for the most distinct mountains in the district" />
		<tag k="name" v="Åsen" />
		<tag k="natural" v="hill" />
		<tag k="place" v="locality" />
		<tag k="ssr:stedsnr" v="541723" />
	</node>
	<node lat="69.65326944381364" lon="20.27770276738469" id="-39958">
		<tag k="name" v="Maurberget" />
		<tag k="natural" v="hill" />
		<tag k="place" v="locality" />
		<tag k="ssr:stedsnr" v="541915" />
	</node>
	<node lat="69.61197777997644" lon="20.290883311715863" id="-39959">
		<tag k="name" v="Trollhaugen - Stálo-oaivi" />
		<tag k="name:no" v="Trollhaugen" />
		<tag k="name:se" v="Stálo-oaivi" />
		<tag k="natural" v="hill" />
		<tag k="place" v="locality" />
		<tag k="ssr:stedsnr" v="686969" />
	</node>
	<node lat="69.64046666946103" lon="20.316641653753376" id="-39960">
		<tag k="name" v="Kammershaugen" />
		<tag k="natural" v="hill" />
		<tag k="place" v="locality" />
		<tag k="ssr:stedsnr" v="542072" />
	</node>
	<node lat="69.73286388973754" lon="19.8635666614607" id="-39961">
		<tag k="name" v="Martahaugen" />
		<tag k="natural" v="hill" />
		<tag k="place" v="locality" />
		<tag k="ssr:stedsnr" v="542202" />
	</node>
	<node lat="69.6186722222608" lon="20.278605530959787" id="-39963">
		<tag k="name" v="Vardo - Várdu" />
		<tag k="name:no" v="Vardo" />
		<tag k="name:se" v="Várdu" />
		<tag k="natural" v="hill" />
		<tag k="place" v="locality" />
		<tag k="ssr:stedsnr" v="686985" />
	</node>
	<node lat="69.61176111061707" lon="19.88343608873733" id="-39965">
		<tag k="name" v="Pålbakken" />
		<tag k="natural" v="slope" />
		<tag k="place" v="locality" />
		<tag k="ssr:stedsnr" v="542315" />
	</node>
	<node lat="69.58009999771572" lon="20.155691652026384" id="-39967">
		<tag k="name" v="Åkerbakken" />
		<tag k="natural" v="slope" />
		<tag k="place" v="locality" />
		<tag k="ssr:stedsnr" v="542523" />
	</node>
	<node lat="69.67848888539272" lon="19.77616110056986" id="-39968">
		<tag k="name" v="Grindgånga" />
		<tag k="natural" v="slope" />
		<tag k="place" v="locality" />
		<tag k="ssr:stedsnr" v="542271" />
	</node>
	<node lat="69.54432499636415" lon="20.2502305401268" id="-39971">
		<tag k="name" v="Oladalen" />
		<tag k="natural" v="valley" />
		<tag k="place" v="locality" />
		<tag k="ssr:stedsnr" v="542781" />
	</node>
	<node lat="69.64872222059472" lon="20.30650831355034" id="-39972">
		<tag k="name" v="Goikeluokorrit" />
		<tag k="name:se" v="Goikeluokorrit" />
		<tag k="natural" v="hill" />
		<tag k="place" v="locality" />
		<tag k="ssr:stedsnr" v="542892" />
	</node>
	<node lat="69.44453888912315" lon="20.122555553794452" id="-39973">
		<tag k="name" v="Dardi" />
		<tag k="name:se" v="Dardi" />
		<tag k="natural" v="slope" />
		<tag k="place" v="locality" />
		<tag k="ssr:stedsnr" v="543078" />
	</node>
	<node lat="69.43918333732567" lon="20.115272217860834" id="-39974">
		<tag k="name" v="Gáiskeroggi" />
		<tag k="name:se" v="Gáiskeroggi" />
		<tag k="natural" v="valley" />
		<tag k="place" v="locality" />
		<tag k="ssr:stedsnr" v="543083" />
	</node>
	<node lat="69.75479999594931" lon="20.029366660889156" id="-39978">
		<tag k="fixme" v="consider natural=peak for the most distinct mountains in the district" />
		<tag k="name" v="Steinfjellet" />
		<tag k="natural" v="hill" />
		<tag k="place" v="locality" />
		<tag k="ssr:stedsnr" v="687466" />
	</node>
	<node lat="69.75914722029256" lon="19.946794418450498" id="-39980">
		<tag k="name" v="Sør-Lenangsbotn - Ittarvuotna" />
		<tag k="name:no" v="Sør-Lenangsbotn" />
		<tag k="name:se" v="Ittarvuotna" />
		<tag k="natural" v="valley" />
		<tag k="old_name:no" v="Sør-Lenangbotn" />
		<tag k="place" v="locality" />
		<tag k="ssr:stedsnr" v="687653" />
	</node>
	<node lat="69.84192500087505" lon="20.120572216401904" id="-39981">
		<tag k="name" v="Vassdalen" />
		<tag k="natural" v="valley" />
		<tag k="place" v="locality" />
		<tag k="ssr:stedsnr" v="687715" />
	</node>
	<node lat="69.83308333496306" lon="20.286016644311804" id="-39985">
		<tag k="fixme" v="consider natural=peak for the most distinct mountains in the district" />
		<tag k="name" v="Hattetinden" />
		<tag k="natural" v="hill" />
		<tag k="place" v="locality" />
		<tag k="ssr:stedsnr" v="687668" />
	</node>
	<node lat="69.83140277442209" lon="20.235299975381345" id="-39986">
		<tag k="name" v="Synbakken" />
		<tag k="natural" v="slope" />
		<tag k="place" v="locality" />
		<tag k="ssr:stedsnr" v="687669" />
	</node>
	<node lat="69.46520457443978" lon="20.1342643309626" id="-39990">
		<tag k="fixme" v="consider natural=peak for the most distinct mountains in the district" />
		<tag k="name" v="Pollfjellet - Vuošvárri - Voivuononvaara" />
		<tag k="name:fkv" v="Voivuononvaara" />
		<tag k="name:no" v="Pollfjellet" />
		<tag k="name:se" v="Vuošvárri" />
		<tag k="natural" v="hill" />
		<tag k="place" v="locality" />
		<tag k="ssr:stedsnr" v="692255" />
	</node>
	<node lat="69.79064999840438" lon="20.315749987971405" id="-39991">
		<tag k="name" v="Vaggasnakken" />
		<tag k="natural" v="ridge" />
		<tag k="place" v="locality" />
		<tag k="ssr:stedsnr" v="692260" />
	</node>
	<node lat="69.81084444873018" lon="20.288249982358163" id="-39997">
		<tag k="fixme" v="consider natural=peak for the most distinct mountains in the district" />
		<tag k="name" v="Nordausttinden" />
		<tag k="natural" v="hill" />
		<tag k="place" v="locality" />
		<tag k="ssr:stedsnr" v="565690" />
	</node>
	<node lat="69.62791944115105" lon="20.225999980908508" id="-40008">
		<tag k="fixme" v="consider natural=peak for the most distinct mountains in the district" />
		<tag k="name" v="Lillefjellet" />
		<tag k="natural" v="hill" />
		<tag k="place" v="locality" />
		<tag k="ssr:stedsnr" v="602064" />
	</node>
	<node lat="69.59166667065816" lon="19.988958311714818" id="-40010">
		<tag k="name" v="Larsberget" />
		<tag k="natural" v="hill" />
		<tag k="place" v="locality" />
		<tag k="ssr:stedsnr" v="602098" />
	</node>
	<node lat="69.7027583354493" lon="19.80510276882195" id="-40012">
		<tag k="fixme" v="consider natural=peak for the most distinct mountains in the district" />
		<tag k="name" v="Bustiåsen" />
		<tag k="natural" v="hill" />
		<tag k="place" v="locality" />
		<tag k="ssr:stedsnr" v="602304" />
	</node>
	<node lat="69.58827222015884" lon="20.312249986312626" id="-40016">
		<tag k="name" v="Stempelen" />
		<tag k="natural" v="hill" />
		<tag k="place" v="locality" />
		<tag k="ssr:stedsnr" v="602950" />
	</node>
	<node lat="69.59131389319298" lon="20.26368888092741" id="-40017">
		<tag k="name" v="Urberget" />
		<tag k="natural" v="hill" />
		<tag k="place" v="locality" />
		<tag k="ssr:stedsnr" v="602964" />
	</node>
	<node lat="69.65239166710502" lon="20.280102753481707" id="-40018">
		<tag k="name" v="Maurvollen" />
		<tag k="place" v="locality" />
		<tag k="ssr:stedsnr" v="602898" />
	</node>
	<node lat="69.89640277436449" lon="20.148844429003407" id="-40023">
		<tag k="name" v="Reinbakken" />
		<tag k="natural" v="slope" />
		<tag k="place" v="locality" />
		<tag k="ssr:stedsnr" v="604859" />
	</node>
	<node lat="69.48997500170518" lon="20.123849998822553" id="-40028">
		<tag k="fixme" v="consider natural=peak for the most distinct mountains in the district" />
		<tag k="name" v="Istinden" />
		<tag k="natural" v="hill" />
		<tag k="place" v="locality" />
		<tag k="ssr:stedsnr" v="625286" />
	</node>
	<node lat="69.85742222322756" lon="20.134352772795793" id="-40029">
		<tag k="fixme" v="consider natural=peak for the most distinct mountains in the district" />
		<tag k="name" v="Rundfjellnasen" />
		<tag k="natural" v="hill" />
		<tag k="place" v="locality" />
		<tag k="ssr:stedsnr" v="625708" />
	</node>
	<node lat="69.63156389285601" lon="20.34578886251267" id="-40039">
		<tag k="name" v="Sommarbakken" />
		<tag k="natural" v="slope" />
		<tag k="place" v="locality" />
		<tag k="ssr:stedsnr" v="663082" />
	</node>
	<node lat="69.63608888781452" lon="20.340216645372553" id="-40040">
		<tag k="name" v="Langvollen" />
		<tag k="place" v="locality" />
		<tag k="ssr:stedsnr" v="663084" />
	</node>
	<node lat="69.42962221852" lon="20.142188871911735" id="-40045">
		<tag k="name" v="Ribakken" />
		<tag k="natural" v="slope" />
		<tag k="place" v="locality" />
		<tag k="ssr:stedsnr" v="663630" />
	</node>
	<node lat="69.86700833546313" lon="20.07948053846555" id="-40046">
		<tag k="name" v="Revnasen" />
		<tag k="natural" v="hill" />
		<tag k="place" v="locality" />
		<tag k="ssr:stedsnr" v="663686" />
	</node>
	<node lat="69.63783610873892" lon="20.277916660193654" id="-40047">
		<tag k="name" v="Tjeldehaldi" />
		<tag k="natural" v="hill" />
		<tag k="place" v="locality" />
		<tag k="ssr:stedsnr" v="663884" />
	</node>
	<node lat="69.6380111128945" lon="20.238791643065902" id="-40048">
		<tag k="name" v="Suorgi" />
		<tag k="natural" v="valley" />
		<tag k="place" v="locality" />
		<tag k="ssr:stedsnr" v="663885" />
	</node>
	<node lat="69.64571388652753" lon="20.303077761977374" id="-40049">
		<tag k="name" v="Fielbmabakken" />
		<tag k="natural" v="slope" />
		<tag k="place" v="locality" />
		<tag k="ssr:stedsnr" v="663887" />
	</node>
	<node lat="69.80087222347647" lon="20.04009164266851" id="-40050">
		<tag k="name" v="Tyttebærsletta" />
		<tag k="place" v="locality" />
		<tag k="ssr:stedsnr" v="664014" />
	</node>
	<node lat="69.65015833519357" lon="20.248019419718595" id="-40051">
		<tag k="name" v="Aslakgárdi" />
		<tag k="name:se" v="Aslakgárdi" />
		<tag k="natural" v="slope" />
		<tag k="place" v="locality" />
		<tag k="ssr:stedsnr" v="663903" />
	</node>
	<node lat="69.65815277860082" lon="20.268127755774124" id="-40052">
		<tag k="name" v="Arnemelen" />
		<tag k="natural" v="slope" />
		<tag k="place" v="locality" />
		<tag k="ssr:stedsnr" v="663907" />
	</node>
	<node lat="69.59774722266002" lon="20.24963609870953" id="-40053">
		<tag k="name" v="Ruoddas" />
		<tag k="name:se" v="Ruoddas" />
		<tag k="natural" v="cliff" />
		<tag k="ssr:stedsnr" v="663982" />
	</node>
	<node lat="69.58794722335428" lon="20.314033328690954" id="-40054">
		<tag k="name" v="Kattungberget" />
		<tag k="natural" v="hill" />
		<tag k="place" v="locality" />
		<tag k="ssr:stedsnr" v="663988" />
	</node>
	<node lat="69.7991138899126" lon="19.917291651678088" id="-40056">
		<tag k="name" v="Sveelvskaret" />
		<tag k="natural" v="valley" />
		<tag k="place" v="locality" />
		<tag k="ssr:stedsnr" v="665008" />
	</node>
	<node lat="69.7759333298434" lon="20.304199982122032" id="-40057">
		<tag k="name" v="Neidabergan" />
		<tag k="natural" v="hill" />
		<tag k="place" v="locality" />
		<tag k="ssr:stedsnr" v="665041" />
	</node>
	<node lat="69.67690000134881" lon="20.24392497850093" id="-40059">
		<tag k="name" v="Halobakken" />
		<tag k="natural" v="slope" />
		<tag k="place" v="locality" />
		<tag k="ssr:stedsnr" v="665105" />
	</node>
	<node lat="69.51715278241853" lon="20.215866656283833" id="-40062">
		<tag k="fixme" v="consider natural=peak for the most distinct mountains in the district" />
		<tag k="name" v="Ammaren - Ápmir" />
		<tag k="name:no" v="Ammaren" />
		<tag k="name:se" v="Ápmir" />
		<tag k="natural" v="hill" />
		<tag k="place" v="locality" />
		<tag k="ssr:stedsnr" v="891531" />
	</node>
	<node lat="69.65857499951798" lon="19.826430552189258" id="-40067">
		<tag k="name" v="Ossletta" />
		<tag k="place" v="locality" />
		<tag k="ssr:stedsnr" v="686047" />
	</node>
	<node lat="69.73836110777324" lon="20.057677753905203" id="-40069">
		<tag k="name" v="Strupskardet" />
		<tag k="natural" v="valley" />
		<tag k="place" v="locality" />
		<tag k="ssr:stedsnr" v="686095" />
	</node>
	<node lat="69.59471666859044" lon="20.152088887230416" id="-40072">
		<tag k="fixme" v="consider natural=peak for the most distinct mountains in the district" />
		<tag k="name" v="Rundtinden" />
		<tag k="natural" v="hill" />
		<tag k="place" v="locality" />
		<tag k="ssr:stedsnr" v="686994" />
	</node>
	<node lat="69.81353333362058" lon="20.326899982797528" id="-40076">
		<tag k="name" v="Mittaleahki" />
		<tag k="name:se" v="Mittaleahki" />
		<tag k="natural" v="valley" />
		<tag k="place" v="locality" />
		<tag k="ssr:stedsnr" v="687685" />
	</node>
	<node lat="69.86137499649902" lon="20.37523609230828" id="-40078">
		<tag k="name" v="Nilkoberget" />
		<tag k="natural" v="hill" />
		<tag k="place" v="locality" />
		<tag k="ssr:stedsnr" v="687706" />
	</node>
	<node lat="69.53714332371365" lon="20.07773353627319" id="-40080">
		<tag k="fixme" v="consider natural=peak for the most distinct mountains in the district" />
		<tag k="name" v="Kvalvikfjellet - Goalsevárri - Kolsevaara" />
		<tag k="name:fkv" v="Kolsevaara" />
		<tag k="name:no" v="Kvalvikfjellet" />
		<tag k="name:se" v="Goalsevárri" />
		<tag k="natural" v="hill" />
		<tag k="place" v="locality" />
		<tag k="ssr:stedsnr" v="692917" />
	</node>
	<node lat="69.4356916699834" lon="20.154191656152072" id="-40087">
		<tag k="name" v="Orrit" />
		<tag k="name:se" v="Orrit" />
		<tag k="natural" v="hill" />
		<tag k="place" v="locality" />
		<tag k="ssr:stedsnr" v="724603" />
	</node>
	<node lat="69.43164444258373" lon="20.11762220607809" id="-40088">
		<tag k="name" v="Čohkkavuolli" />
		<tag k="name:se" v="Čohkkavuolli" />
		<tag k="natural" v="slope" />
		<tag k="place" v="locality" />
		<tag k="ssr:stedsnr" v="724610" />
	</node>
	<node lat="69.42533610921812" lon="20.140319417872604" id="-40089">
		<tag k="name" v="Guhttora-Áidi" />
		<tag k="name:se" v="Guhttora-Áidi" />
		<tag k="place" v="locality" />
		<tag k="ssr:stedsnr" v="724618" />
	</node>
	<node lat="69.44684999922919" lon="20.153038865860314" id="-40092">
		<tag k="name" v="Bávttevuolli" />
		<tag k="natural" v="slope" />
		<tag k="place" v="locality" />
		<tag k="ssr:stedsnr" v="724590" />
	</node>
	<node lat="69.7148444484749" lon="19.954661107171063" id="-40094">
		<tag k="name" v="Guršovággi" />
		<tag k="name:se" v="Guršovággi" />
		<tag k="natural" v="valley" />
		<tag k="place" v="locality" />
		<tag k="ssr:stedsnr" v="725013" />
	</node>
	<node lat="69.62318055482433" lon="20.34846388285089" id="-40095">
		<tag k="name" v="Rundberget" />
		<tag k="natural" v="hill" />
		<tag k="place" v="locality" />
		<tag k="ssr:stedsnr" v="724999" />
	</node>
	<node lat="69.81590833386625" lon="19.93756943571575" id="-40097">
		<tag k="name" v="Trollberget" />
		<tag k="natural" v="hill" />
		<tag k="place" v="locality" />
		<tag k="ssr:stedsnr" v="726007" />
	</node>
	<node lat="69.53733056028123" lon="20.24234998212296" id="-40099">
		<tag k="name" v="Danielbergan" />
		<tag k="natural" v="hill" />
		<tag k="place" v="locality" />
		<tag k="ssr:stedsnr" v="726828" />
	</node>
	<node lat="69.80748611220994" lon="20.30279442187527" id="-40103">
		<tag k="fixme" v="consider natural=peak for the most distinct mountains in the district" />
		<tag k="name" v="Storskortinden - Stuorraskoaruborri" />
		<tag k="name:no" v="Storskortinden" />
		<tag k="name:se" v="Stuorraskoaruborri" />
		<tag k="natural" v="hill" />
		<tag k="place" v="locality" />
		<tag k="ssr:stedsnr" v="747676" />
	</node>
	<node lat="69.8086888895882" lon="20.237902776152374" id="-40104">
		<tag k="fixme" v="consider natural=peak for the most distinct mountains in the district" />
		<tag k="name" v="Vaggasaksla - Vákkášoalgi" />
		<tag k="name:no" v="Vaggasaksla" />
		<tag k="name:se" v="Vákkášoalgi" />
		<tag k="natural" v="hill" />
		<tag k="old_name:no" v="Vákkášaksla" />
		<tag k="place" v="locality" />
		<tag k="ssr:stedsnr" v="747678" />
	</node>
	<node lat="69.92910000157876" lon="20.141641655730506" id="-40106">
		<tag k="alt_name" v="Juraåsen" />
		<tag k="fixme" v="consider natural=peak for the most distinct mountains in the district" />
		<tag k="name" v="Juråsen" />
		<tag k="natural" v="hill" />
		<tag k="place" v="locality" />
		<tag k="ssr:stedsnr" v="747715" />
	</node>
	<node lat="69.96932777532746" lon="20.25351387262956" id="-40107">
		<tag k="name" v="Gambergan" />
		<tag k="natural" v="hill" />
		<tag k="place" v="locality" />
		<tag k="ssr:stedsnr" v="753411" />
	</node>
	<node lat="69.77035555706138" lon="19.99603886708262" id="-40112">
		<tag k="name" v="Sletta" />
		<tag k="place" v="locality" />
		<tag k="ssr:stedsnr" v="906015" />
	</node>
	<node lat="69.78210000317661" lon="19.999838879448724" id="-40113">
		<tag k="name" v="Øverbakken" />
		<tag k="natural" v="slope" />
		<tag k="place" v="locality" />
		<tag k="ssr:stedsnr" v="906033" />
	</node>
	<node lat="69.79685000141808" lon="20.033605541346514" id="-40116">
		<tag k="name" v="Fjellfinnhaugen" />
		<tag k="natural" v="hill" />
		<tag k="place" v="locality" />
		<tag k="ssr:stedsnr" v="906036" />
	</node>
	<node lat="69.59309722139646" lon="19.97633053079537" id="-40117">
		<tag k="name" v="Kobbesteinen" />
		<tag k="natural" v="valley" />
		<tag k="place" v="locality" />
		<tag k="ssr:stedsnr" v="906084" />
	</node>
	<node lat="69.59177222473636" lon="20.011374978474915" id="-40118">
		<tag k="name" v="Katteberget" />
		<tag k="natural" v="hill" />
		<tag k="place" v="locality" />
		<tag k="ssr:stedsnr" v="906099" />
	</node>
	<node lat="69.69970833713273" lon="19.79959443915547" id="-40119">
		<tag k="fixme" v="consider natural=peak for the most distinct mountains in the district" />
		<tag k="name" v="Gamåsen" />
		<tag k="natural" v="hill" />
		<tag k="place" v="locality" />
		<tag k="ssr:stedsnr" v="906302" />
	</node>
	<node lat="69.67264722376386" lon="19.798508328426845" id="-40120">
		<tag k="name" v="Bjørnbakken" />
		<tag k="natural" v="slope" />
		<tag k="place" v="locality" />
		<tag k="ssr:stedsnr" v="906283" />
	</node>
	<node lat="69.68492500414726" lon="19.770911091685416" id="-40121">
		<tag k="name" v="Sildgarnberget" />
		<tag k="natural" v="hill" />
		<tag k="place" v="locality" />
		<tag k="ssr:stedsnr" v="906286" />
	</node>
	<node lat="69.69628611101554" lon="19.795505537580944" id="-40123">
		<tag k="name" v="Resseberget" />
		<tag k="natural" v="hill" />
		<tag k="place" v="locality" />
		<tag k="ssr:stedsnr" v="906309" />
	</node>
	<node lat="69.4484666634138" lon="20.155094438715654" id="-40125">
		<tag k="name" v="Gambakken" />
		<tag k="natural" v="slope" />
		<tag k="place" v="locality" />
		<tag k="ssr:stedsnr" v="906627" />
	</node>
	<node lat="69.82500833678743" lon="20.070483323461755" id="-40128">
		<tag k="name" v="Rundhaugen" />
		<tag k="natural" v="hill" />
		<tag k="place" v="locality" />
		<tag k="ssr:stedsnr" v="906685" />
	</node>
	<node lat="69.83964444214475" lon="20.072227758731835" id="-40129">
		<tag k="name" v="Lille-Perhaugen" />
		<tag k="natural" v="hill" />
		<tag k="place" v="locality" />
		<tag k="ssr:stedsnr" v="906698" />
	</node>
	<node lat="69.5407305526927" lon="20.194033324275185" id="-40130">
		<tag k="name" v="Vassbrettet" />
		<tag k="natural" v="valley" />
		<tag k="place" v="locality" />
		<tag k="ssr:stedsnr" v="906772" />
	</node>
	<node lat="69.54637499730532" lon="20.245286094896755" id="-40133">
		<tag k="name" v="Fiskebergan" />
		<tag k="natural" v="hill" />
		<tag k="place" v="locality" />
		<tag k="ssr:stedsnr" v="906797" />
	</node>
	<node lat="69.6421250003887" lon="20.291680536982497" id="-40135">
		<tag k="name" v="Bestefarsbakken" />
		<tag k="natural" v="hill" />
		<tag k="place" v="locality" />
		<tag k="ssr:stedsnr" v="906880" />
	</node>
	<node lat="69.59844722128362" lon="20.27323610240754" id="-40138">
		<tag k="name" v="Tytebærhaugen" />
		<tag k="natural" v="hill" />
		<tag k="place" v="locality" />
		<tag k="ssr:stedsnr" v="906974" />
	</node>
	<node lat="69.617036112987" lon="20.32688610308886" id="-40139">
		<tag k="name" v="Bukkakamos" />
		<tag k="name:se" v="Bukkakamos" />
		<tag k="natural" v="hill" />
		<tag k="place" v="locality" />
		<tag k="ssr:stedsnr" v="906986" />
	</node>
	<node lat="69.67673333390111" lon="20.2591027571132" id="-40141">
		<tag k="name" v="Vaulåkka" />
		<tag k="natural" v="slope" />
		<tag k="place" v="locality" />
		<tag k="ssr:stedsnr" v="908121" />
	</node>
	<node lat="69.67321389334393" lon="20.24769442824592" id="-40142">
		<tag k="name" v="Rundbakken" />
		<tag k="natural" v="hill" />
		<tag k="place" v="locality" />
		<tag k="ssr:stedsnr" v="908123" />
	</node>
	<node lat="69.67853333351493" lon="20.26701110011528" id="-40143">
		<tag k="name" v="Betteraigi" />
		<tag k="name:se" v="Betteraigi" />
		<tag k="place" v="locality" />
		<tag k="ssr:stedsnr" v="908128" />
	</node>
	<node lat="69.84506944743977" lon="19.99167776867837" id="-40145">
		<tag k="name" v="Neskallen" />
		<tag k="natural" v="hill" />
		<tag k="place" v="locality" />
		<tag k="ssr:stedsnr" v="908135" />
	</node>
	<node lat="69.77267500413255" lon="19.99901944477808" id="-40147">
		<tag k="name" v="Svarthaugen" />
		<tag k="natural" v="hill" />
		<tag k="place" v="locality" />
		<tag k="ssr:stedsnr" v="784019" />
	</node>
	<node lat="69.4865055534238" lon="20.165102770529618" id="-40148">
		<tag k="name" v="Johkanjunni" />
		<tag k="name:se" v="Johkanjunni" />
		<tag k="place" v="locality" />
		<tag k="ssr:stedsnr" v="784596" />
	</node>
	<node lat="69.58054444382465" lon="20.151280538717927" id="-40150">
		<tag k="name" v="Rundvollen" />
		<tag k="place" v="locality" />
		<tag k="ssr:stedsnr" v="784561" />
	</node>
	<node lat="69.86390833225855" lon="20.138758322756416" id="-40151">
		<tag k="fixme" v="consider natural=peak for the most distinct mountains in the district" />
		<tag k="name" v="Rundfjellnasen" />
		<tag k="natural" v="hill" />
		<tag k="place" v="locality" />
		<tag k="ssr:stedsnr" v="784703" />
	</node>
	<node lat="69.58653055904091" lon="20.13552499340592" id="-40152">
		<tag k="name" v="Notvollen" />
		<tag k="place" v="locality" />
		<tag k="ssr:stedsnr" v="784718" />
	</node>
	<node lat="69.45411944386547" lon="20.067522210605674" id="-40154">
		<tag k="name" v="Suotnjuoalgi" />
		<tag k="name:se" v="Suotnjuoalgi" />
		<tag k="natural" v="hill" />
		<tag k="place" v="locality" />
		<tag k="ssr:stedsnr" v="784610" />
	</node>
	<node lat="69.44914166766124" lon="20.14996109081888" id="-40155">
		<tag k="name" v="Čoalfi" />
		<tag k="name:se" v="Čoalfi" />
		<tag k="natural" v="hill" />
		<tag k="place" v="locality" />
		<tag k="ssr:stedsnr" v="784630" />
	</node>
	<node lat="69.43416388593597" lon="20.148052771764895" id="-40156">
		<tag k="name" v="Hundryggen" />
		<tag k="natural" v="ridge" />
		<tag k="place" v="locality" />
		<tag k="ssr:stedsnr" v="784637" />
	</node>
	<node lat="69.42652500209579" lon="20.135963886971968" id="-40157">
		<tag k="fixme" v="consider natural=peak for the most distinct mountains in the district" />
		<tag k="name" v="Váđđas" />
		<tag k="name:se" v="Váđđas" />
		<tag k="natural" v="hill" />
		<tag k="place" v="locality" />
		<tag k="ssr:stedsnr" v="784644" />
	</node>
	<node lat="69.4188166684257" lon="20.11034722115937" id="-40158">
		<tag k="fixme" v="consider natural=peak for the most distinct mountains in the district" />
		<tag k="name" v="Salmedievva" />
		<tag k="name:se" v="Salmedievva" />
		<tag k="natural" v="hill" />
		<tag k="place" v="locality" />
		<tag k="ssr:stedsnr" v="784648" />
	</node>
	<node lat="69.90637222335869" lon="20.118677751844345" id="-40159">
		<tag k="name" v="Kudalen" />
		<tag k="natural" v="valley" />
		<tag k="place" v="locality" />
		<tag k="ssr:stedsnr" v="784659" />
	</node>
	<node lat="69.63770833720118" lon="20.30395831417933" id="-40160">
		<tag k="name" v="Hellaren" />
		<tag k="natural" v="hill" />
		<tag k="place" v="locality" />
		<tag k="ssr:stedsnr" v="785067" />
	</node>
	<node lat="69.56846389257036" lon="20.220991663076" id="-40161">
		<tag k="name" v="Solbakkvollen" />
		<tag k="place" v="locality" />
		<tag k="ssr:stedsnr" v="784753" />
	</node>
	<node lat="69.65953611092134" lon="20.251580547016463" id="-40163">
		<tag k="name" v="Svinryggen" />
		<tag k="natural" v="ridge" />
		<tag k="place" v="locality" />
		<tag k="ssr:stedsnr" v="784911" />
	</node>
	<node lat="69.61881944970938" lon="19.91526942655846" id="-40165">
		<tag k="name" v="Sankthanshaugen" />
		<tag k="natural" v="hill" />
		<tag k="place" v="locality" />
		<tag k="ssr:stedsnr" v="785103" />
	</node>
	<node lat="69.62028611320927" lon="20.271769440188343" id="-40166">
		<tag k="name" v="Hundreva" />
		<tag k="natural" v="valley" />
		<tag k="place" v="locality" />
		<tag k="ssr:stedsnr" v="785762" />
	</node>
	<node lat="69.61678333279144" lon="20.310608311933034" id="-40168">
		<tag k="fixme" v="consider natural=peak for the most distinct mountains in the district" />
		<tag k="name" v="Várrenjunni" />
		<tag k="name:se" v="Várrenjunni" />
		<tag k="natural" v="hill" />
		<tag k="place" v="locality" />
		<tag k="ssr:stedsnr" v="786000" />
	</node>
	<node lat="69.44735000313013" lon="20.093849982840332" id="-40170">
		<tag k="name" v="Geassegussadji" />
		<tag k="name:se" v="Geassegussadji" />
		<tag k="place" v="locality" />
		<tag k="ssr:stedsnr" v="786112" />
	</node>
	<node lat="69.44376944435776" lon="20.1054860984001" id="-40171">
		<tag k="name" v="Basskádas" />
		<tag k="name:se" v="Basskádas" />
		<tag k="natural" v="slope" />
		<tag k="place" v="locality" />
		<tag k="ssr:stedsnr" v="786115" />
	</node>
	<node lat="69.67078611172553" lon="20.227686103406242" id="-40176">
		<tag k="name" v="Notsekken" />
		<tag k="natural" v="valley" />
		<tag k="place" v="locality" />
		<tag k="ssr:stedsnr" v="786099" />
	</node>
	<node lat="69.75977500287652" lon="19.873641653381085" id="-40180">
		<tag k="fixme" v="consider natural=peak for the most distinct mountains in the district" />
		<tag k="name" v="Selnesåsen - Sálljavárdu" />
		<tag k="name:no" v="Selnesåsen" />
		<tag k="name:se" v="Sálljavárdu" />
		<tag k="natural" v="hill" />
		<tag k="old_name:no" v="Setnesåsen" />
		<tag k="place" v="locality" />
		<tag k="ssr:stedsnr" v="808640" />
	</node>
	<node lat="69.91408611177384" lon="20.21719721746121" id="-40185">
		<tag k="fixme" v="consider natural=peak for the most distinct mountains in the district" />
		<tag k="name" v="Hæsafjellet" />
		<tag k="natural" v="hill" />
		<tag k="place" v="locality" />
		<tag k="ssr:stedsnr" v="808742" />
	</node>
	<node lat="69.49030730342302" lon="20.079699334188664" id="-40186">
		<tag k="fixme" v="consider natural=peak for the most distinct mountains in the district" />
		<tag k="name" v="Rundfjellet - Jorbaoaivi - Liikavaara" />
		<tag k="name:fkv" v="Liikavaara" />
		<tag k="name:no" v="Rundfjellet" />
		<tag k="name:se" v="Jorbaoaivi" />
		<tag k="natural" v="hill" />
		<tag k="place" v="locality" />
		<tag k="ssr:stedsnr" v="813229" />
	</node>
	<node lat="69.50507222466715" lon="20.17336386293779" id="-40189">
		<tag k="name" v="Mustapahta" />
		<tag k="name:fkv" v="Mustapahta" />
		<tag k="natural" v="hill" />
		<tag k="place" v="locality" />
		<tag k="ssr:stedsnr" v="814075" />
	</node>
	<node lat="69.7771305541224" lon="19.899955543976873" id="-40194">
		<tag k="name" v="Finnkjerka" />
		<tag k="natural" v="hill" />
		<tag k="place" v="locality" />
		<tag k="ssr:stedsnr" v="845089" />
	</node>
	<node lat="69.637130555864" lon="20.31716109840945" id="-40195">
		<tag k="fixme" v="consider natural=peak for the most distinct mountains in the district" />
		<tag k="name" v="Skarhøgden" />
		<tag k="natural" v="hill" />
		<tag k="place" v="locality" />
		<tag k="ssr:stedsnr" v="845092" />
	</node>
	<node lat="69.58289999758729" lon="20.165855533030076" id="-40197">
		<tag k="name" v="Vassmodalen" />
		<tag k="natural" v="valley" />
		<tag k="place" v="locality" />
		<tag k="ssr:stedsnr" v="845578" />
	</node>
	<node lat="69.55818055470243" lon="20.18801108324327" id="-40198">
		<tag k="fixme" v="consider natural=peak for the most distinct mountains in the district" />
		<tag k="name" v="Åsen" />
		<tag k="natural" v="hill" />
		<tag k="place" v="locality" />
		<tag k="ssr:stedsnr" v="845793" />
	</node>
	<node lat="69.64916944507557" lon="20.281886095479763" id="-40199">
		<tag k="name" v="Herreluohkká" />
		<tag k="name:se" v="Herreluohkká" />
		<tag k="natural" v="slope" />
		<tag k="place" v="locality" />
		<tag k="ssr:stedsnr" v="845908" />
	</node>
	<node lat="69.66325555671511" lon="20.255497215902878" id="-40203">
		<tag k="loc_name" v="Skáhpegurat" />
		<tag k="name" v="Vedhøgga" />
		<tag k="natural" v="slope" />
		<tag k="place" v="locality" />
		<tag k="ssr:stedsnr" v="846911" />
	</node>
	<node lat="69.62470000189316" lon="20.328241650570913" id="-40204">
		<tag k="name" v="Fjellgropa" />
		<tag k="natural" v="valley" />
		<tag k="place" v="locality" />
		<tag k="ssr:stedsnr" v="846991" />
	</node>
	<node lat="69.82158611269897" lon="20.035977772826033" id="-40205">
		<tag k="name" v="Heiarbakken" />
		<tag k="natural" v="slope" />
		<tag k="place" v="locality" />
		<tag k="ssr:stedsnr" v="847001" />
	</node>
	<node lat="69.81523055556686" lon="19.932358321050856" id="-40207">
		<tag k="name" v="Heimerdalen" />
		<tag k="natural" v="valley" />
		<tag k="place" v="locality" />
		<tag k="ssr:stedsnr" v="847011" />
	</node>
	<node lat="69.8084527777252" lon="19.931194441916272" id="-40208">
		<tag k="fixme" v="consider natural=peak for the most distinct mountains in the district" />
		<tag k="name" v="Ravikåsen" />
		<tag k="natural" v="hill" />
		<tag k="place" v="locality" />
		<tag k="ssr:stedsnr" v="847012" />
	</node>
	<node lat="69.93392222212155" lon="20.156041661948304" id="-40209">
		<tag k="fixme" v="consider natural=peak for the most distinct mountains in the district" />
		<tag k="name" v="Kråkåsen" />
		<tag k="natural" v="hill" />
		<tag k="place" v="locality" />
		<tag k="ssr:stedsnr" v="847824" />
	</node>
	<node lat="69.70278333079443" lon="20.042713874660194" id="-40212">
		<tag k="alt_name" v="Jægervasstindane, store" />
		<tag k="fixme" v="consider natural=peak for the most distinct mountains in the district" />
		<tag k="name" v="Store Jægervasstindane" />
		<tag k="natural" v="hill" />
		<tag k="old_name" v="Jægervasstindane" />
		<tag k="place" v="locality" />
		<tag k="ssr:stedsnr" v="928030" />
	</node>
	<node lat="69.65246666632984" lon="19.863191660298842" id="-40214">
		<tag k="name" v="Sakshaugen" />
		<tag k="natural" v="hill" />
		<tag k="place" v="locality" />
		<tag k="ssr:stedsnr" v="929045" />
	</node>
	<node lat="69.90974444774157" lon="20.270074975283393" id="-40221">
		<tag k="fixme" v="consider natural=peak for the most distinct mountains in the district" />
		<tag k="name" v="Daltinden" />
		<tag k="natural" v="hill" />
		<tag k="place" v="locality" />
		<tag k="ssr:stedsnr" v="929728" />
	</node>
	<node lat="69.91014166898043" lon="20.290202758186382" id="-40222">
		<tag k="name" v="Kalddalen" />
		<tag k="natural" v="valley" />
		<tag k="place" v="locality" />
		<tag k="ssr:stedsnr" v="929729" />
	</node>
	<node lat="69.9019222256571" lon="20.341666653422127" id="-40225">
		<tag k="alt_name" v="Gammvikdalen, yt;Ytre Gammvikdalen" />
		<tag k="name" v="Ytre Gamvikdalen" />
		<tag k="natural" v="valley" />
		<tag k="place" v="locality" />
		<tag k="ssr:stedsnr" v="929742" />
	</node>
	<node lat="69.67998333686042" lon="19.84430832085108" id="-40231">
		<tag k="alt_name" v="Gammelvskardet" />
		<tag k="name" v="Gamelvskaret" />
		<tag k="natural" v="valley" />
		<tag k="place" v="locality" />
		<tag k="ssr:stedsnr" v="868012" />
	</node>
	<node lat="69.6731666623578" lon="19.852449996625047" id="-40232">
		<tag k="fixme" v="consider natural=peak for the most distinct mountains in the district" />
		<tag k="name" v="Storåsen" />
		<tag k="natural" v="hill" />
		<tag k="place" v="locality" />
		<tag k="ssr:stedsnr" v="868014" />
	</node>
	<node lat="69.65899444687662" lon="19.85796943751277" id="-40237">
		<tag k="fixme" v="consider natural=peak for the most distinct mountains in the district" />
		<tag k="name" v="Lomsåsen" />
		<tag k="natural" v="hill" />
		<tag k="place" v="locality" />
		<tag k="ssr:stedsnr" v="868040" />
	</node>
	<node lat="69.77002777646278" lon="19.885286099826736" id="-40246">
		<tag k="fixme" v="consider natural=peak for the most distinct mountains in the district" />
		<tag k="name" v="Latterviktinden" />
		<tag k="natural" v="hill" />
		<tag k="place" v="locality" />
		<tag k="ssr:stedsnr" v="869669" />
	</node>
	<node lat="69.96220277311777" lon="20.288172216777486" id="-40250">
		<tag k="name" v="Kvalvikdalen" />
		<tag k="natural" v="valley" />
		<tag k="place" v="locality" />
		<tag k="ssr:stedsnr" v="869679" />
	</node>
	<node lat="69.89294166550297" lon="20.29281388113187" id="-40253">
		<tag k="fixme" v="consider natural=peak for the most distinct mountains in the district" />
		<tag k="name" v="Kalddalstinden" />
		<tag k="natural" v="hill" />
		<tag k="place" v="locality" />
		<tag k="ssr:stedsnr" v="869769" />
	</node>
	<node lat="69.82080277524103" lon="20.079369436775686" id="-40255">
		<tag k="fixme" v="multiple name tags, choose one and add the other to alt_name" />
		<tag k="name" v="Bjørndalen - Čázanvággi;Biertnavággi" />
		<tag k="name:no" v="Bjørndalen" />
		<tag k="name:se" v="Čázanvággi;Biertnavággi" />
		<tag k="natural" v="valley" />
		<tag k="place" v="locality" />
		<tag k="ssr:stedsnr" v="930679" />
	</node>
	<node lat="69.8192805537399" lon="20.184038872516812" id="-40256">
		<tag k="fixme" v="consider natural=peak for the most distinct mountains in the district" />
		<tag k="name" v="Kvasstinden" />
		<tag k="natural" v="hill" />
		<tag k="place" v="locality" />
		<tag k="ssr:stedsnr" v="930680" />
	</node>
	<node lat="69.80065000327463" lon="19.92206666795042" id="-40257">
		<tag k="name" v="Svehaugen" />
		<tag k="natural" v="hill" />
		<tag k="place" v="locality" />
		<tag k="ssr:stedsnr" v="930683" />
	</node>
	<node lat="69.49737777635886" lon="20.178980546017126" id="-40262">
		<tag k="name" v="Sakinriiti" />
		<tag k="name:fkv" v="Sakinriiti" />
		<tag k="natural" v="slope" />
		<tag k="place" v="locality" />
		<tag k="ssr:stedsnr" v="935125" />
	</node>
	<node lat="69.71660555540356" lon="19.9306361108916" id="-40267">
		<tag k="fixme" v="consider natural=peak for the most distinct mountains in the district" />
		<tag k="name" v="Forrholtan - Beahceoalgi" />
		<tag k="name:no" v="Forrholtan" />
		<tag k="name:se" v="Beahceoalgi" />
		<tag k="natural" v="hill" />
		<tag k="place" v="locality" />
		<tag k="ssr:stedsnr" v="906058" />
	</node>
	<node lat="69.74361389020964" lon="19.86689999588184" id="-40271">
		<tag k="name" v="Knutsenbakken" />
		<tag k="natural" v="slope" />
		<tag k="place" v="locality" />
		<tag k="ssr:stedsnr" v="906267" />
	</node>
	<node lat="69.47075833128932" lon="20.19382220122932" id="-40273">
		<tag k="name" v="Vassvollen" />
		<tag k="place" v="locality" />
		<tag k="ssr:stedsnr" v="906566" />
	</node>
	<node lat="69.69978333210878" lon="19.820172215787437" id="-40274">
		<tag k="name" v="Barheiaksla" />
		<tag k="place" v="locality" />
		<tag k="ssr:stedsnr" v="906300" />
	</node>
	<node lat="69.49381944853756" lon="20.162261090742064" id="-40275">
		<tag k="fixme" v="consider natural=peak for the most distinct mountains in the district" />
		<tag k="name" v="Grønnsnippen" />
		<tag k="natural" v="hill" />
		<tag k="place" v="locality" />
		<tag k="ssr:stedsnr" v="906610" />
	</node>
	<node lat="69.84276944862562" lon="20.085327770149316" id="-40276">
		<tag k="fixme" v="consider natural=peak for the most distinct mountains in the district" />
		<tag k="name" v="Stortuva" />
		<tag k="natural" v="hill" />
		<tag k="place" v="locality" />
		<tag k="ssr:stedsnr" v="906664" />
	</node>
	<node lat="69.82286111496433" lon="19.955116643535018" id="-40278">
		<tag k="name" v="Storbakken" />
		<tag k="natural" v="slope" />
		<tag k="place" v="locality" />
		<tag k="ssr:stedsnr" v="906906" />
	</node>
	<node lat="69.65137777822783" lon="20.282455526991836" id="-40279">
		<tag k="name" v="Seterbakken" />
		<tag k="natural" v="slope" />
		<tag k="place" v="locality" />
		<tag k="ssr:stedsnr" v="906911" />
	</node>
	<node lat="69.83538888646191" lon="20.064513870846188" id="-40280">
		<tag k="name" v="Seljehaugen" />
		<tag k="natural" v="hill" />
		<tag k="place" v="locality" />
		<tag k="ssr:stedsnr" v="906701" />
	</node>
	<node lat="69.74632777479111" lon="19.987752751887378" id="-40281">
		<tag k="name" v="Beahcevággi" />
		<tag k="name:se" v="Beahcevággi" />
		<tag k="natural" v="valley" />
		<tag k="place" v="locality" />
		<tag k="ssr:stedsnr" v="907002" />
	</node>
	<node lat="69.62787777927981" lon="20.33588887913772" id="-40283">
		<tag k="name" v="Grindbakken" />
		<tag k="natural" v="slope" />
		<tag k="place" v="locality" />
		<tag k="ssr:stedsnr" v="908111" />
	</node>
	<node lat="69.67360555312239" lon="20.369824984491014" id="-40284">
		<tag k="name" v="Hamnahalsen" />
		<tag k="natural" v="valley" />
		<tag k="place" v="locality" />
		<tag k="ssr:stedsnr" v="908004" />
	</node>
	<node lat="69.44456944798601" lon="20.13054165849031" id="-40287">
		<tag k="name" v="Taskeberget" />
		<tag k="natural" v="hill" />
		<tag k="place" v="locality" />
		<tag k="ssr:stedsnr" v="908068" />
	</node>
	<node lat="69.68063611144653" lon="19.91536110600773" id="-40292">
		<tag k="alt_name" v="Kvitbergan" />
		<tag k="name" v="Kvitberget" />
		<tag k="natural" v="hill" />
		<tag k="place" v="locality" />
		<tag k="ssr:stedsnr" v="928014" />
	</node>
	<node lat="69.83997222002587" lon="20.268647201395257" id="-40296">
		<tag k="fixme" v="consider natural=peak for the most distinct mountains in the district" />
		<tag k="name" v="Synbakktinden" />
		<tag k="natural" v="hill" />
		<tag k="place" v="locality" />
		<tag k="ssr:stedsnr" v="929703" />
	</node>
	<node lat="69.8370499963828" lon="19.97768332965823" id="-40297">
		<tag k="fixme" v="consider natural=peak for the most distinct mountains in the district" />
		<tag k="name" v="Skavåsen" />
		<tag k="natural" v="hill" />
		<tag k="place" v="locality" />
		<tag k="ssr:stedsnr" v="929710" />
	</node>
	<node lat="69.84395555242243" lon="20.318541641232496" id="-40301">
		<tag k="name" v="Rappdalen - Ráhpesvággi" />
		<tag k="name:no" v="Rappdalen" />
		<tag k="name:se" v="Ráhpesvággi" />
		<tag k="natural" v="valley" />
		<tag k="place" v="locality" />
		<tag k="ssr:stedsnr" v="929701" />
	</node>
	<node lat="69.48381944633108" lon="20.21222776744678" id="-40309">
		<tag k="name" v="Rismergurra" />
		<tag k="name:se" v="Rismergurra" />
		<tag k="natural" v="valley" />
		<tag k="place" v="locality" />
		<tag k="ssr:stedsnr" v="966599" />
	</node>
	<node lat="69.83330277899125" lon="20.067022200526193" id="-40312">
		<tag k="name" v="Mellakovven" />
		<tag k="natural" v="hill" />
		<tag k="place" v="locality" />
		<tag k="ssr:stedsnr" v="966688" />
	</node>
	<node lat="69.65066944403593" lon="20.279902770844984" id="-40316">
		<tag k="name" v="Langvollen" />
		<tag k="place" v="locality" />
		<tag k="ssr:stedsnr" v="966907" />
	</node>
	<node lat="69.61991666500312" lon="19.90788608539861" id="-40317">
		<tag k="name" v="Vassberget" />
		<tag k="natural" v="hill" />
		<tag k="place" v="locality" />
		<tag k="ssr:stedsnr" v="967086" />
	</node>
	<node lat="69.62264444445044" lon="19.917083325869907" id="-40318">
		<tag k="alt_name" v="Svartflåget" />
		<tag k="name" v="Svartfloget" />
		<tag k="natural" v="hill" />
		<tag k="place" v="locality" />
		<tag k="ssr:stedsnr" v="967087" />
	</node>
	<node lat="69.72849999669961" lon="19.840130535137064" id="-40319">
		<tag k="name" v="Storbryggeberget" />
		<tag k="natural" v="hill" />
		<tag k="place" v="locality" />
		<tag k="ssr:stedsnr" v="967296" />
	</node>
	<node lat="69.62561666879955" lon="20.299074990154914" id="-40320">
		<tag k="name" v="Kjernebakken" />
		<tag k="natural" v="slope" />
		<tag k="place" v="locality" />
		<tag k="ssr:stedsnr" v="967730" />
	</node>
	<node lat="69.6127833376673" lon="20.277119423158762" id="-40321">
		<tag k="name" v="Innerkorset" />
		<tag k="natural" v="valley" />
		<tag k="place" v="locality" />
		<tag k="ssr:stedsnr" v="967739" />
	</node>
	<node lat="69.61558055490971" lon="20.276458305870364" id="-40322">
		<tag k="fixme" v="consider natural=peak for the most distinct mountains in the district" />
		<tag k="name" v="Rokkåsen" />
		<tag k="natural" v="hill" />
		<tag k="place" v="locality" />
		<tag k="ssr:stedsnr" v="967741" />
	</node>
	<node lat="69.602511113555" lon="20.318449979560647" id="-40324">
		<tag k="name" v="Marahandabergan" />
		<tag k="natural" v="hill" />
		<tag k="place" v="locality" />
		<tag k="ssr:stedsnr" v="967943" />
	</node>
	<node lat="69.67519722661301" lon="20.239883322017047" id="-40330">
		<tag k="fixme" v="consider natural=peak for the most distinct mountains in the district" />
		<tag k="name" v="Hallo" />
		<tag k="natural" v="hill" />
		<tag k="place" v="locality" />
		<tag k="ssr:stedsnr" v="968114" />
	</node>
	<node lat="69.6623027805705" lon="20.25081386474793" id="-40331">
		<tag k="name" v="Sjurberget" />
		<tag k="natural" v="hill" />
		<tag k="place" v="locality" />
		<tag k="ssr:stedsnr" v="967895" />
	</node>
	<node lat="69.67564166847168" lon="20.37022775172541" id="-40333">
		<tag k="name" v="Ørnhaugen" />
		<tag k="natural" v="hill" />
		<tag k="place" v="locality" />
		<tag k="ssr:stedsnr" v="968009" />
	</node>
	<node lat="69.72538610856007" lon="20.07264441866602" id="-40345">
		<tag k="alt_name" v="Lenangstinden, litle" />
		<tag k="fixme" v="consider natural=peak for the most distinct mountains in the district" />
		<tag k="name" v="Litle Lenangstinden" />
		<tag k="natural" v="hill" />
		<tag k="place" v="locality" />
		<tag k="ssr:stedsnr" v="18027" />
	</node>
	<node lat="69.58707222006629" lon="20.228636096790492" id="-40351">
		<tag k="fixme" v="consider natural=peak for the most distinct mountains in the district" />
		<tag k="name" v="Eidnasen - Muoŧkenjunni" />
		<tag k="name:no" v="Eidnasen" />
		<tag k="name:se" v="Muoŧkenjunni" />
		<tag k="natural" v="hill" />
		<tag k="place" v="locality" />
		<tag k="ssr:stedsnr" v="18950" />
	</node>
	<node lat="69.57315277694742" lon="20.11290832486885" id="-40352">
		<tag k="fixme" v="consider natural=peak for the most distinct mountains in the district" />
		<tag k="name" v="Rørnestinden" />
		<tag k="natural" v="hill" />
		<tag k="place" v="locality" />
		<tag k="ssr:stedsnr" v="18953" />
	</node>
	<node lat="69.52593610836898" lon="20.02321387275588" id="-40353">
		<tag k="fixme" v="consider natural=peak for the most distinct mountains in the district" />
		<tag k="name" v="Kvalvikdalstinden" />
		<tag k="natural" v="hill" />
		<tag k="place" v="locality" />
		<tag k="ssr:stedsnr" v="18907" />
	</node>
	<node lat="69.6273416701554" lon="19.956241662771856" id="-40356">
		<tag k="fixme" v="consider natural=peak for the most distinct mountains in the district" />
		<tag k="name" v="Sofiatinden" />
		<tag k="natural" v="hill" />
		<tag k="place" v="locality" />
		<tag k="ssr:stedsnr" v="19030" />
	</node>
	<node lat="69.81887222219046" lon="20.346799974178825" id="-40365">
		<tag k="name" v="Mittaleagiskoarru" />
		<tag k="name:se" v="Mittaleagiskoarru" />
		<tag k="natural" v="valley" />
		<tag k="place" v="locality" />
		<tag k="ssr:stedsnr" v="19654" />
	</node>
	<node lat="69.61723055506117" lon="20.2269138815529" id="-40370">
		<tag k="fixme" v="consider natural=peak for the most distinct mountains in the district" />
		<tag k="name" v="Loktushaugen - Loktosvárri" />
		<tag k="name:no" v="Loktushaugen" />
		<tag k="name:se" v="Loktosvárri" />
		<tag k="natural" v="hill" />
		<tag k="place" v="locality" />
		<tag k="ssr:stedsnr" v="19961" />
	</node>
	<node lat="69.62237777613755" lon="20.159997197144392" id="-40372">
		<tag k="name" v="Riehppi" />
		<tag k="name:se" v="Riehppi" />
		<tag k="natural" v="valley" />
		<tag k="place" v="locality" />
		<tag k="ssr:stedsnr" v="19976" />
	</node>
	<node lat="69.52063055599487" lon="20.16999442050838" id="-40385">
		<tag k="name" v="Váddás" />
		<tag k="name:se" v="Váddás" />
		<tag k="natural" v="ridge" />
		<tag k="place" v="locality" />
		<tag k="ssr:stedsnr" v="41951" />
	</node>
	<node lat="69.51549444159572" lon="20.17695554757659" id="-40386">
		<tag k="name" v="Sitnodievvá" />
		<tag k="name:se" v="Sitnodievvá" />
		<tag k="natural" v="slope" />
		<tag k="place" v="locality" />
		<tag k="ssr:stedsnr" v="41955" />
	</node>
	<node lat="69.77098611415997" lon="19.89584998338032" id="-40387">
		<tag k="name" v="Finngjerdhaugen" />
		<tag k="natural" v="hill" />
		<tag k="place" v="locality" />
		<tag k="ssr:stedsnr" v="56067" />
	</node>
	<node lat="69.66047777580394" lon="19.863166654117563" id="-40389">
		<tag k="name" v="Osphaugan" />
		<tag k="natural" v="hill" />
		<tag k="place" v="locality" />
		<tag k="ssr:stedsnr" v="57278" />
	</node>
	<node lat="69.52681389303169" lon="20.17944165309285" id="-40390">
		<tag k="name" v="Seaibegurra" />
		<tag k="name:se" v="Seaibegurra" />
		<tag k="natural" v="valley" />
		<tag k="place" v="locality" />
		<tag k="ssr:stedsnr" v="56586" />
	</node>
	<node lat="69.82373055485206" lon="19.942597200677653" id="-40395">
		<tag k="name" v="Råvedberget" />
		<tag k="natural" v="hill" />
		<tag k="place" v="locality" />
		<tag k="ssr:stedsnr" v="56899" />
	</node>
	<node lat="69.5880777790121" lon="20.124027764761024" id="-40397">
		<tag k="name" v="Eilertberget" />
		<tag k="natural" v="hill" />
		<tag k="place" v="locality" />
		<tag k="ssr:stedsnr" v="56735" />
	</node>
	<node lat="69.56761944303145" lon="20.194405546119683" id="-40399">
		<tag k="name" v="Rødsteinen - Ruksesgeargi" />
		<tag k="name:no" v="Rødsteinen" />
		<tag k="name:se" v="Ruksesgeargi" />
		<tag k="natural" v="hill" />
		<tag k="place" v="locality" />
		<tag k="ssr:stedsnr" v="56763" />
	</node>
	<node lat="69.82129722287308" lon="19.95276944449373" id="-40401">
		<tag k="name" v="Kvannbakken" />
		<tag k="natural" v="slope" />
		<tag k="place" v="locality" />
		<tag k="ssr:stedsnr" v="56907" />
	</node>
	<node lat="69.76223889383617" lon="19.983188872032702" id="-40404">
		<tag k="name" v="Tømmerbakken" />
		<tag k="natural" v="slope" />
		<tag k="place" v="locality" />
		<tag k="ssr:stedsnr" v="56916" />
	</node>
	<node lat="69.63328055528481" lon="20.304616651750848" id="-40407">
		<tag k="name" v="Brennbakken" />
		<tag k="natural" v="slope" />
		<tag k="place" v="locality" />
		<tag k="ssr:stedsnr" v="57067" />
	</node>
	<node lat="69.68626388622839" lon="19.7742388655959" id="-40410">
		<tag k="name" v="Storhollet" />
		<tag k="natural" v="valley" />
		<tag k="place" v="locality" />
		<tag k="ssr:stedsnr" v="57236" />
	</node>
	<node lat="69.61963611469214" lon="20.30128053338207" id="-40417">
		<tag k="name" v="Hoaŋgadalva" />
		<tag k="name:se" v="Hoaŋgadalva" />
		<tag k="natural" v="slope" />
		<tag k="place" v="locality" />
		<tag k="ssr:stedsnr" v="57761" />
	</node>
	<node lat="69.59235000460617" lon="20.282438870655916" id="-40418">
		<tag k="name" v="Bakkehalsen" />
		<tag k="natural" v="slope" />
		<tag k="place" v="locality" />
		<tag k="ssr:stedsnr" v="57949" />
	</node>
	<node lat="69.44958333516911" lon="20.079869431938985" id="-40423">
		<tag k="name" v="Lássegorsa" />
		<tag k="name:se" v="Lássegorsa" />
		<tag k="natural" v="valley" />
		<tag k="place" v="locality" />
		<tag k="ssr:stedsnr" v="58128" />
	</node>
	<node lat="69.67746666427594" lon="20.344633318026926" id="-40424">
		<tag k="name" v="Strandhaugen" />
		<tag k="natural" v="hill" />
		<tag k="place" v="locality" />
		<tag k="ssr:stedsnr" v="58131" />
	</node>
	<node lat="69.67195833670327" lon="20.348852758406874" id="-40425">
		<tag k="name" v="Vatnhaugen" />
		<tag k="natural" v="hill" />
		<tag k="place" v="locality" />
		<tag k="ssr:stedsnr" v="58133" />
	</node>
	<node lat="69.63784166853345" lon="19.94813610598518" id="-40435">
		<tag k="alt_name" v="Isskardet" />
		<tag k="name" v="Isskaret" />
		<tag k="natural" v="valley" />
		<tag k="place" v="locality" />
		<tag k="ssr:stedsnr" v="79038" />
	</node>
	<node lat="69.4661277796161" lon="20.051744427167538" id="-40441">
		<tag k="name" v="Lyngsdalen - Vuošvággi - Vuosvankka" />
		<tag k="name:fkv" v="Vuosvankka" />
		<tag k="name:no" v="Lyngsdalen" />
		<tag k="name:se" v="Vuošvággi" />
		<tag k="natural" v="valley" />
		<tag k="place" v="locality" />
		<tag k="ssr:stedsnr" v="79289" />
	</node>
	<node lat="69.5029499992717" lon="20.005955549427195" id="-40445">
		<tag k="fixme" v="consider natural=peak for the most distinct mountains in the district" />
		<tag k="name" v="Bredalsfjellet" />
		<tag k="natural" v="hill" />
		<tag k="place" v="locality" />
		<tag k="ssr:stedsnr" v="79869" />
	</node>
	<node lat="69.57010277487905" lon="20.053841640670704" id="-40446">
		<tag k="fixme" v="consider natural=peak for the most distinct mountains in the district" />
		<tag k="name" v="Kammen" />
		<tag k="natural" v="hill" />
		<tag k="place" v="locality" />
		<tag k="ssr:stedsnr" v="79950" />
	</node>
	<node lat="69.62213055500732" lon="20.00846109351249" id="-40448">
		<tag k="fixme" v="consider natural=peak for the most distinct mountains in the district" />
		<tag k="name" v="Tverrelvdalstindane" />
		<tag k="natural" v="hill" />
		<tag k="place" v="locality" />
		<tag k="ssr:stedsnr" v="79980" />
	</node>
	<node lat="69.80719444103323" lon="20.21254443968326" id="-40456">
		<tag k="name" v="Kvasstinddalen" />
		<tag k="natural" v="valley" />
		<tag k="place" v="locality" />
		<tag k="ssr:stedsnr" v="80670" />
	</node>
	<node lat="69.83761389136741" lon="20.15202775865112" id="-40460">
		<tag k="alt_name" v="Raudtinden" />
		<tag k="fixme" v="consider natural=peak for the most distinct mountains in the district" />
		<tag k="name" v="Rødtinden" />
		<tag k="natural" v="hill" />
		<tag k="place" v="locality" />
		<tag k="ssr:stedsnr" v="80721" />
	</node>
	<node lat="69.93477499990816" lon="20.335438861304798" id="-40461">
		<tag k="fixme" v="consider natural=peak for the most distinct mountains in the district" />
		<tag k="name" v="Ørntuva" />
		<tag k="natural" v="hill" />
		<tag k="place" v="locality" />
		<tag k="ssr:stedsnr" v="80727" />
	</node>
	<node lat="69.93507777616925" lon="20.142466654706297" id="-40462">
		<tag k="fixme" v="consider natural=peak for the most distinct mountains in the district" />
		<tag k="name" v="Strupåsen" />
		<tag k="natural" v="hill" />
		<tag k="place" v="locality" />
		<tag k="ssr:stedsnr" v="80733" />
	</node>
	<node lat="69.46346944604481" lon="20.065830531401517" id="-40467">
		<tag k="name" v="Ruohtonjunni" />
		<tag k="name:se" v="Ruohtonjunni" />
		<tag k="place" v="locality" />
		<tag k="ssr:stedsnr" v="86303" />
	</node>
	<node lat="69.63821666788412" lon="20.31923886702385" id="-40476">
		<tag k="name" v="Skaret" />
		<tag k="natural" v="valley" />
		<tag k="place" v="locality" />
		<tag k="ssr:stedsnr" v="117071" />
	</node>
	<node lat="69.77624722306344" lon="19.905808315469994" id="-40479">
		<tag k="name" v="Lillåsdalen" />
		<tag k="natural" v="valley" />
		<tag k="place" v="locality" />
		<tag k="ssr:stedsnr" v="117080" />
	</node>
	<node lat="69.63201944522507" lon="20.34016109152522" id="-40480">
		<tag k="name" v="Grushaugen" />
		<tag k="natural" v="hill" />
		<tag k="place" v="locality" />
		<tag k="ssr:stedsnr" v="117087" />
	</node>
	<node lat="69.63626944858858" lon="20.316852752311384" id="-40481">
		<tag k="name" v="Halsen" />
		<tag k="natural" v="valley" />
		<tag k="place" v="locality" />
		<tag k="ssr:stedsnr" v="117092" />
	</node>
	<node lat="69.68916944585314" lon="19.791019423069397" id="-40484">
		<tag k="name" v="Ullsneshaugen" />
		<tag k="natural" v="hill" />
		<tag k="place" v="locality" />
		<tag k="ssr:stedsnr" v="117325" />
	</node>
	<node lat="69.61314722110245" lon="19.910655547111467" id="-40485">
		<tag k="name" v="Skjellelvdalen" />
		<tag k="natural" v="valley" />
		<tag k="place" v="locality" />
		<tag k="ssr:stedsnr" v="117099" />
	</node>
	<node lat="69.62681111087605" lon="19.854813888800813" id="-40486">
		<tag k="name" v="Rundvassdalen" />
		<tag k="natural" v="valley" />
		<tag k="place" v="locality" />
		<tag k="ssr:stedsnr" v="117328" />
	</node>
	<node lat="69.57731389290045" lon="20.150922203858308" id="-40489">
		<tag k="name" v="Hulderberget" />
		<tag k="natural" v="hill" />
		<tag k="place" v="locality" />
		<tag k="ssr:stedsnr" v="117551" />
	</node>
	<node lat="69.57795278181322" lon="20.16661388640094" id="-40490">
		<tag k="name" v="Stakbakkan" />
		<tag k="natural" v="slope" />
		<tag k="place" v="locality" />
		<tag k="ssr:stedsnr" v="117552" />
	</node>
	<node lat="69.84674444948622" lon="20.08744164746733" id="-40492">
		<tag k="name" v="Gjerdbakken" />
		<tag k="natural" v="slope" />
		<tag k="place" v="locality" />
		<tag k="ssr:stedsnr" v="117640" />
	</node>
	<node lat="69.82261111577517" lon="20.063338871988933" id="-40493">
		<tag k="name" v="Yttersletta" />
		<tag k="place" v="locality" />
		<tag k="ssr:stedsnr" v="117661" />
	</node>
	<node lat="69.56784166705799" lon="20.21416110155352" id="-40494">
		<tag k="name" v="Bjørnadalen" />
		<tag k="natural" v="valley" />
		<tag k="place" v="locality" />
		<tag k="ssr:stedsnr" v="117740" />
	</node>
	<node lat="69.56516944306803" lon="20.184513876183555" id="-40495">
		<tag k="name" v="Hyttebakken" />
		<tag k="natural" v="slope" />
		<tag k="place" v="locality" />
		<tag k="ssr:stedsnr" v="117749" />
	</node>
	<node lat="69.60639444517967" lon="20.240024997820644" id="-40496">
		<tag k="name" v="Attangorrhaugen" />
		<tag k="natural" v="hill" />
		<tag k="place" v="locality" />
		<tag k="ssr:stedsnr" v="117769" />
	</node>
	<node lat="69.61618333245814" lon="20.249141662597815" id="-40499">
		<tag k="name" v="Loktusbakken" />
		<tag k="natural" v="slope" />
		<tag k="place" v="locality" />
		<tag k="ssr:stedsnr" v="117791" />
	</node>
	<node lat="69.64018611112974" lon="20.262744419452925" id="-40500">
		<tag k="name" v="Sattaren - Sáhtár" />
		<tag k="name:no" v="Sattaren" />
		<tag k="name:se" v="Sáhtár" />
		<tag k="place" v="locality" />
		<tag k="ssr:stedsnr" v="117875" />
	</node>
	<node lat="69.58942777926599" lon="20.27189720035546" id="-40503">
		<tag k="name" v="Buberget" />
		<tag k="natural" v="hill" />
		<tag k="place" v="locality" />
		<tag k="ssr:stedsnr" v="117955" />
	</node>
	<node lat="69.58518055808307" lon="20.296652774680624" id="-40504">
		<tag k="name" v="Solpeleike" />
		<tag k="natural" v="hill" />
		<tag k="place" v="locality" />
		<tag k="ssr:stedsnr" v="117956" />
	</node>
	<node lat="69.58369999785954" lon="20.266338879762163" id="-40505">
		<tag k="name" v="Bikkavollen" />
		<tag k="place" v="locality" />
		<tag k="ssr:stedsnr" v="117966" />
	</node>
	<node lat="69.43774722646342" lon="20.129183311516545" id="-40509">
		<tag k="name" v="Jovnnaváhroggi" />
		<tag k="name:se" v="Jovnnaváhroggi" />
		<tag k="natural" v="valley" />
		<tag k="place" v="locality" />
		<tag k="ssr:stedsnr" v="119062" />
	</node>
	<node lat="69.63590000114267" lon="19.8710416667231" id="-40518">
		<tag k="name" v="Stortuva" />
		<tag k="natural" v="hill" />
		<tag k="place" v="locality" />
		<tag k="ssr:stedsnr" v="139032" />
	</node>
	<node lat="69.6450083363216" lon="20.15795832195294" id="-40519">
		<tag k="name" v="Fastdalen - Fastovággi" />
		<tag k="name:no" v="Fastdalen" />
		<tag k="name:se" v="Fastovággi" />
		<tag k="natural" v="valley" />
		<tag k="place" v="locality" />
		<tag k="ssr:stedsnr" v="139056" />
	</node>
</osm>
