<?xml version="1.0" encoding="UTF-8"?>
<osm generator="osmapis" version="0.6">
	<node id="-561152" lat="62.1146916672" lon="5.94134166929">
		<tag k="name" v="Garden" />
		<tag k="place" v="farm" />
		<tag k="ssr:stedsnr" v="374869" />
	</node>
	<node id="-561150" lat="62.0961444404" lon="6.08401389141">
		<tag k="name" v="Litlemek" />
		<tag k="place" v="farm" />
		<tag k="ssr:stedsnr" v="374850" />
	</node>
	<node id="-561149" lat="62.0915888895" lon="6.07084443789">
		<tag k="name" v="Meksætra" />
		<tag k="place" v="isolated_dwelling" />
		<tag k="ssr:stedsnr" v="374849" />
	</node>
	<node id="-563196" lat="62.0168416685" lon="6.06491943845">
		<tag k="fixme" v="consider place=hamlet" />
		<tag k="name" v="Nørdre Bjørkedalen" />
		<tag k="place" v="village" />
		<tag k="ssr:stedsnr" v="949902" />
	</node>
	<node id="-561147" lat="62.1519222215" lon="6.13185277018">
		<tag k="name" v="Dalen" />
		<tag k="place" v="farm" />
		<tag k="ssr:stedsnr" v="374811" />
	</node>
	<node id="-561145" lat="62.1207285048" lon="5.93987457867">
		<tag k="alt_name" v="Drabløsvik" />
		<tag k="fixme" v="multiple name tags, choose one and add the other to alt_name; consider place=hamlet" />
		<tag k="name" v="Vika;Dravlausvik" />
		<tag k="place" v="farm" />
		<tag k="ssr:stedsnr" v="374794" />
	</node>
	<node id="-561142" lat="62.1291666682" lon="6.19045278345">
		<tag k="historic" v="shieling" />
		<tag k="name" v="Rotevassætra" />
		<tag k="place" v="locality" />
		<tag k="ssr:stedsnr" v="374771" />
	</node>
	<node id="-561139" lat="62.0640871746" lon="6.28478837836">
		<tag k="fixme" v="consider place=hamlet" />
		<tag k="name" v="Botnen" />
		<tag k="place" v="farm" />
		<tag k="ssr:stedsnr" v="374753" />
	</node>
	<node id="-561138" lat="62.0503415535" lon="6.39066793343">
		<tag k="alt_name" v="Hjellebø" />
		<tag k="fixme" v="consider place=hamlet" />
		<tag k="name" v="Hjellane" />
		<tag k="place" v="farm" />
		<tag k="ssr:stedsnr" v="374710" />
	</node>
	<node id="-561137" lat="62.0320527758" lon="6.31711110823">
		<tag k="historic" v="shieling" />
		<tag k="name" v="Sunndalssætra" />
		<tag k="place" v="locality" />
		<tag k="ssr:stedsnr" v="374702" />
	</node>
	<node id="-561133" lat="62.0896441333" lon="6.2217487667">
		<tag k="fixme" v="consider place=hamlet" />
		<tag k="name" v="Hunneset" />
		<tag k="place" v="farm" />
		<tag k="ssr:stedsnr" v="374651" />
	</node>
	<node id="-563178" lat="62.1242666665" lon="5.97372500132">
		<tag k="name" v="Gråneset" />
		<tag k="place" v="farm" />
		<tag k="ssr:stedsnr" v="938215" />
	</node>
	<node id="-561148" lat="62.1381996262" lon="5.97256834211">
		<tag k="fixme" v="consider place=hamlet" />
		<tag k="name" v="Kornberg" />
		<tag k="place" v="farm" />
		<tag k="ssr:stedsnr" v="374831" />
	</node>
	<node id="-561125" lat="62.1870421226" lon="5.88189188301">
		<tag k="fixme" v="consider place=hamlet" />
		<tag k="name" v="Høystøylen" />
		<tag k="place" v="farm" />
		<tag k="ssr:stedsnr" v="374126" />
	</node>
	<node id="-561123" lat="61.9877361079" lon="5.82461943941">
		<tag k="historic" v="shieling" />
		<tag k="name" v="Støylen" />
		<tag k="place" v="locality" />
		<tag k="ssr:stedsnr" v="373010" />
	</node>
	<node id="-561122" lat="62.0106805573" lon="5.84307222861">
		<tag k="alt_name" v="Peragarden" />
		<tag k="name" v="Ytre Åmelfot" />
		<tag k="place" v="farm" />
		<tag k="ssr:stedsnr" v="359137" />
	</node>
	<node id="-561121" lat="62.0058333362" lon="6.07954999851">
		<tag k="name" v="Nørdre Bjørkedalen" />
		<tag k="place" v="farm" />
		<tag k="ssr:stedsnr" v="359130" />
	</node>
	<node id="-563167" lat="62.0935641718" lon="6.08718099301">
		<tag k="name" v="Mek" />
		<tag k="place" v="hamlet" />
		<tag k="ssr:stedsnr" v="930146" />
	</node>
	<node id="-563162" lat="62.034589288" lon="5.88815348987">
		<tag k="alt_name" v="Eidset" />
		<tag k="fixme" v="consider place=hamlet" />
		<tag k="name" v="Eisset" />
		<tag k="place" v="farm" />
		<tag k="ssr:stedsnr" v="921972" />
	</node>
	<node id="-563158" lat="62.1170305549" lon="5.94066389342">
		<tag k="name" v="Holen" />
		<tag k="place" v="farm" />
		<tag k="ssr:stedsnr" v="921791" />
	</node>
	<node id="-563157" lat="62.1216167943" lon="6.02714205698">
		<tag k="fixme" v="consider place=hamlet" />
		<tag k="name" v="Reitane" />
		<tag k="place" v="farm" />
		<tag k="ssr:stedsnr" v="921785" />
	</node>
	<node id="-563155" lat="62.1281916673" lon="6.01431388722">
		<tag k="name" v="Bøen" />
		<tag k="place" v="farm" />
		<tag k="ssr:stedsnr" v="921773" />
	</node>
	<node id="-563154" lat="62.1317289475" lon="5.93962026641">
		<tag k="fixme" v="consider place=hamlet" />
		<tag k="name" v="Nesheim" />
		<tag k="place" v="farm" />
		<tag k="ssr:stedsnr" v="921764" />
	</node>
	<node id="-563151" lat="62.0571745336" lon="6.35111426508">
		<tag k="fixme" v="consider place=hamlet" />
		<tag k="name" v="Gjersdalen" />
		<tag k="place" v="farm" />
		<tag k="ssr:stedsnr" v="921739" />
	</node>
	<node id="-563150" lat="62.0561638844" lon="6.27274443776">
		<tag k="name" v="Slåttelidsætra" />
		<tag k="place" v="isolated_dwelling" />
		<tag k="ssr:stedsnr" v="921740" />
	</node>
	<node id="-563148" lat="62.0591317434" lon="6.29992094815">
		<tag k="fixme" v="consider place=hamlet" />
		<tag k="name" v="Juvika" />
		<tag k="place" v="farm" />
		<tag k="ssr:stedsnr" v="921736" />
	</node>
	<node id="-563141" lat="62.1794446913" lon="6.01893116775">
		<tag k="name" v="Håskjold" />
		<tag k="place" v="hamlet" />
		<tag k="ssr:stedsnr" v="921017" />
	</node>
	<node id="-563140" lat="61.9813527773" lon="6.32008056484">
		<tag k="historic" v="shieling" />
		<tag k="name" v="Osdalssætra" />
		<tag k="place" v="locality" />
		<tag k="ssr:stedsnr" v="920878" />
	</node>
	<node id="-563137" lat="61.9856416642" lon="6.28806388225">
		<tag k="historic" v="shieling" />
		<tag k="loc_name" v="Grøndalsstøylen" />
		<tag k="name" v="Grøndalsstølen" />
		<tag k="place" v="locality" />
		<tag k="ssr:stedsnr" v="920835" />
	</node>
	<node id="-561088" lat="62.2128361156" lon="5.95475277513">
		<tag k="name" v="Leite" />
		<tag k="place" v="farm" />
		<tag k="ssr:stedsnr" v="346664" />
	</node>
	<node id="-563130" lat="62.0160305514" lon="6.08891110812">
		<tag k="name" v="Slettestøylen" />
		<tag k="place" v="locality" />
		<tag k="ssr:stedsnr" v="921955" />
	</node>
	<node id="-561080" lat="61.9985444449" lon="6.08564166054">
		<tag k="name" v="Sanden" />
		<tag k="place" v="farm" />
		<tag k="ssr:stedsnr" v="346572" />
	</node>
	<node id="-561078" lat="62.1188416628" lon="6.0154972186">
		<tag k="name" v="Bjørnenakk" />
		<tag k="place" v="farm" />
		<tag k="ssr:stedsnr" v="346564" />
	</node>
	<node id="-563124" lat="62.0729027803" lon="6.20689722623">
		<tag k="name" v="Bøen" />
		<tag k="place" v="farm" />
		<tag k="ssr:stedsnr" v="921906" />
	</node>
	<node id="-561075" lat="62.1054472221" lon="6.21662222963">
		<tag k="historic" v="shieling" />
		<tag k="name" v="Aldalsstøylen" />
		<tag k="place" v="locality" />
		<tag k="ssr:stedsnr" v="346544" />
	</node>
	<node id="-563121" lat="62.1159938449" lon="6.02614592835">
		<tag k="fixme" v="consider place=hamlet" />
		<tag k="name" v="Holen" />
		<tag k="place" v="farm" />
		<tag k="ssr:stedsnr" v="921858" />
	</node>
	<node id="-561072" lat="62.1055055514" lon="5.93448889495">
		<tag k="name" v="Løvik" />
		<tag k="place" v="hamlet" />
		<tag k="ssr:stedsnr" v="346522" />
	</node>
	<node id="-563111" lat="62.004905558" lon="6.04964999255">
		<tag k="name" v="Sørdalsbøen" />
		<tag k="place" v="farm" />
		<tag k="ssr:stedsnr" v="870336" />
	</node>
	<node id="-563110" lat="62.0571277793" lon="6.05929722001">
		<tag k="name" v="Stonganeset" />
		<tag k="place" v="farm" />
		<tag k="ssr:stedsnr" v="870309" />
	</node>
	<node id="-563108" lat="62.0354138906" lon="6.05213054648">
		<tag k="name" v="Stakkset" />
		<tag k="place" v="farm" />
		<tag k="ssr:stedsnr" v="870290" />
	</node>
	<node id="-563106" lat="62.0242611093" lon="5.82673888831">
		<tag k="historic" v="shieling" />
		<tag k="name" v="Muren" />
		<tag k="place" v="locality" />
		<tag k="ssr:stedsnr" v="861995" />
	</node>
	<node id="-563104" lat="62.0612598944" lon="6.384716299">
		<tag k="fixme" v="consider place=hamlet" />
		<tag k="name" v="Langvatn" />
		<tag k="place" v="farm" />
		<tag k="ssr:stedsnr" v="861712" />
	</node>
	<node id="-563102" lat="62.1626305601" lon="5.92675833533">
		<tag k="name" v="Gjerdet" />
		<tag k="place" v="farm" />
		<tag k="ssr:stedsnr" v="861030" />
	</node>
	<node id="-563090" lat="62.0624980921" lon="6.36686413055">
		<tag k="fixme" v="consider place=hamlet" />
		<tag k="name" v="Hjellbakkane" />
		<tag k="place" v="farm" />
		<tag k="ssr:stedsnr" v="860759" />
	</node>
	<node id="-561041" lat="62.1439305515" lon="6.16769167396">
		<tag k="historic" v="shieling" />
		<tag k="name" v="Timannsætra" />
		<tag k="place" v="locality" />
		<tag k="ssr:stedsnr" v="338960" />
	</node>
	<node id="-561040" lat="62.0611625155" lon="6.32859947578">
		<tag k="alt_name" v="Førdesreite" />
		<tag k="fixme" v="consider place=hamlet" />
		<tag k="name" v="Fyrdsreitane" />
		<tag k="place" v="farm" />
		<tag k="ssr:stedsnr" v="338957" />
	</node>
	<node id="-561039" lat="62.1580638921" lon="6.10121111817">
		<tag k="historic" v="shieling" />
		<tag k="name" v="Ullastøylen" />
		<tag k="place" v="locality" />
		<tag k="ssr:stedsnr" v="338944" />
	</node>
	<node id="-561038" lat="62.1699889477" lon="6.05315796904">
		<tag k="fixme" v="consider place=hamlet" />
		<tag k="name" v="Liaskaret" />
		<tag k="place" v="farm" />
		<tag k="ssr:stedsnr" v="338945" />
	</node>
	<node id="-561037" lat="62.0458567784" lon="6.39780884796">
		<tag k="fixme" v="consider place=hamlet" />
		<tag k="name" v="Måna" />
		<tag k="place" v="farm" />
		<tag k="ssr:stedsnr" v="338939" />
	</node>
	<node id="-563083" lat="62.2129472256" lon="5.95441111297">
		<tag k="name" v="Bøen" />
		<tag k="place" v="farm" />
		<tag k="ssr:stedsnr" v="860103" />
	</node>
	<node id="-563068" lat="62.1477999988" lon="5.88171111431">
		<tag k="historic" v="shieling" />
		<tag k="name" v="Lauvstadsetra" />
		<tag k="place" v="locality" />
		<tag k="ssr:stedsnr" v="832859" />
	</node>
	<node id="-561017" lat="62.0335166689" lon="6.4101194501">
		<tag k="fixme" v="consider place=hamlet" />
		<tag k="name" v="Kalvatn" />
		<tag k="place" v="village" />
		<tag k="ssr:stedsnr" v="324171" />
	</node>
	<node id="-563060" lat="62.095891666" lon="6.08393332906">
		<tag k="alt_name" v="Mek Lille" />
		<tag k="name" v="Litle Mek" />
		<tag k="place" v="farm" />
		<tag k="ssr:stedsnr" v="832709" />
	</node>
	<node id="-561010" lat="62.0026777752" lon="5.85398334011">
		<tag k="name" v="Steinsvika" />
		<tag k="place" v="village" />
		<tag k="ssr:stedsnr" v="314953" />
	</node>
	<node id="-561005" lat="62.0708738878" lon="6.20194145445">
		<tag k="alt_name" v="Røsten" />
		<tag k="fixme" v="consider place=hamlet" />
		<tag k="name" v="Rysta" />
		<tag k="place" v="farm" />
		<tag k="ssr:stedsnr" v="314893" />
	</node>
	<node id="-561003" lat="62.0544280803" lon="6.06069940001">
		<tag k="fixme" v="consider place=hamlet" />
		<tag k="name" v="Søvika" />
		<tag k="place" v="farm" />
		<tag k="ssr:stedsnr" v="314877" />
	</node>
	<node id="-561002" lat="62.0586512244" lon="5.92826520505">
		<tag k="fixme" v="consider place=hamlet" />
		<tag k="name" v="Brunene" />
		<tag k="place" v="farm" />
		<tag k="ssr:stedsnr" v="314869" />
	</node>
	<node id="-563049" lat="62.1196214883" lon="6.02151600004">
		<tag k="fixme" v="consider place=hamlet" />
		<tag k="name" v="Brenne" />
		<tag k="place" v="farm" />
		<tag k="ssr:stedsnr" v="832590" />
	</node>
	<node id="-563048" lat="62.1250555574" lon="6.00703888947">
		<tag k="name" v="Sollid" />
		<tag k="place" v="farm" />
		<tag k="ssr:stedsnr" v="832584" />
	</node>
	<node id="-560995" lat="62.097784959" lon="6.18627086951">
		<tag k="fixme" v="consider place=hamlet" />
		<tag k="name" v="Hjartå" />
		<tag k="place" v="farm" />
		<tag k="ssr:stedsnr" v="314821" />
	</node>
	<node id="-560994" lat="62.1383287215" lon="6.08022114274">
		<tag k="fixme" v="consider place=hamlet" />
		<tag k="name" v="Rotset" />
		<tag k="place" v="farm" />
		<tag k="ssr:stedsnr" v="314805" />
	</node>
	<node id="-560993" lat="62.1459972236" lon="6.07107777482">
		<tag k="name" v="Volda" />
		<tag k="place" v="village" />
		<tag k="ssr:stedsnr" v="314796" />
	</node>
	<node id="-563040" lat="62.1109388861" lon="6.03295833114">
		<tag k="name" v="Flote indre" />
		<tag k="place" v="farm" />
		<tag k="ssr:stedsnr" v="832409" />
	</node>
	<node id="-560988" lat="62.0695944477" lon="6.4077333351">
		<tag k="historic" v="shieling" />
		<tag k="name" v="Langvassætra" />
		<tag k="place" v="locality" />
		<tag k="ssr:stedsnr" v="314741" />
	</node>
	<node id="-563034" lat="62.0691861141" lon="6.19242499955">
		<tag k="historic" v="shieling" />
		<tag k="name" v="Rangseter" />
		<tag k="place" v="locality" />
		<tag k="ssr:stedsnr" v="832353" />
	</node>
	<node id="-560985" lat="62.0468974619" lon="6.42695489773">
		<tag k="fixme" v="consider place=hamlet" />
		<tag k="name" v="Bueide" />
		<tag k="place" v="farm" />
		<tag k="ssr:stedsnr" v="314711" />
	</node>
	<node id="-560982" lat="62.0745392708" lon="6.31802092555">
		<tag k="fixme" v="consider place=hamlet" />
		<tag k="name" v="Geitvika" />
		<tag k="place" v="farm" />
		<tag k="ssr:stedsnr" v="314647" />
	</node>
	<node id="-560980" lat="62.1938756571" lon="5.87585808669">
		<tag k="fixme" v="consider place=hamlet" />
		<tag k="name" v="Koppen" />
		<tag k="place" v="farm" />
		<tag k="ssr:stedsnr" v="314113" />
	</node>
	<node id="-560979" lat="62.2116641368" lon="5.95602311316">
		<tag k="alt_name" v="Lid ytre;Lid" />
		<tag k="name" v="Ytre Lid" />
		<tag k="place" v="farm" />
		<tag k="ssr:stedsnr" v="314088" />
	</node>
	<node id="-560978" lat="62.2088560311" lon="5.98536869457">
		<tag k="alt_name" v="Eidheim" />
		<tag k="fixme" v="consider place=hamlet" />
		<tag k="name" v="Eideim" />
		<tag k="place" v="farm" />
		<tag k="ssr:stedsnr" v="314086" />
	</node>
	<node id="-560976" lat="62.1525356566" lon="5.94525451673">
		<tag k="fixme" v="consider place=hamlet" />
		<tag k="name" v="Sætre" />
		<tag k="place" v="farm" />
		<tag k="ssr:stedsnr" v="314058" />
	</node>
	<node id="-560975" lat="62.1769944426" lon="5.90338888392">
		<tag k="historic" v="shieling" />
		<tag k="name" v="Tilsetsætra" />
		<tag k="place" v="locality" />
		<tag k="ssr:stedsnr" v="314017" />
	</node>
	<node id="-560974" lat="62.1705111101" lon="5.92807222566">
		<tag k="name" v="Krekane" />
		<tag k="place" v="farm" />
		<tag k="ssr:stedsnr" v="314014" />
	</node>
	<node id="-563020" lat="62.1403861086" lon="6.17481666579">
		<tag k="historic" v="shieling" />
		<tag k="name" v="Storesætra" />
		<tag k="place" v="locality" />
		<tag k="ssr:stedsnr" v="833232" />
	</node>
	<node id="-560967" lat="62.1025138913" lon="6.15161111873">
		<tag k="alt_name" v="Vasstein" />
		<tag k="name" v="Vassteinen" />
		<tag k="place" v="farm" />
		<tag k="ssr:stedsnr" v="299445" />
	</node>
	<node id="-563014" lat="62.1192057359" lon="6.09748409189">
		<tag k="fixme" v="consider place=hamlet" />
		<tag k="name" v="Greivsnes" />
		<tag k="place" v="farm" />
		<tag k="ssr:stedsnr" v="830469" />
	</node>
	<node id="-563011" lat="62.1478555538" lon="6.12119721955">
		<tag k="name" v="Slettebakk" />
		<tag k="place" v="farm" />
		<tag k="ssr:stedsnr" v="824974" />
	</node>
	<node id="-563010" lat="62.1451555534" lon="6.08644722012">
		<tag k="name" v="Nordtun" />
		<tag k="place" v="farm" />
		<tag k="ssr:stedsnr" v="824966" />
	</node>
	<node id="-563009" lat="62.1491916687" lon="6.13756665795">
		<tag k="name" v="Bakkane" />
		<tag k="place" v="farm" />
		<tag k="ssr:stedsnr" v="824965" />
	</node>
	<node id="-562990" lat="62.0986123947" lon="5.92838799496">
		<tag k="fixme" v="consider place=hamlet" />
		<tag k="name" v="Lyngneset" />
		<tag k="place" v="farm" />
		<tag k="ssr:stedsnr" v="813853" />
	</node>
	<node id="-560937" lat="62.1309999959" lon="5.97120555127">
		<tag k="name" v="Indre Nautvika" />
		<tag k="place" v="farm" />
		<tag k="ssr:stedsnr" v="286529" />
	</node>
	<node id="-562978" lat="62.0598064475" lon="6.07051346129">
		<tag k="fixme" v="consider place=hamlet" />
		<tag k="name" v="Fylsvika" />
		<tag k="place" v="farm" />
		<tag k="ssr:stedsnr" v="800873" />
	</node>
	<node id="-562977" lat="62.0636122706" lon="6.32677968921">
		<tag k="fixme" v="consider place=hamlet" />
		<tag k="name" v="Fyrde" />
		<tag k="place" v="farm" />
		<tag k="ssr:stedsnr" v="800711" />
	</node>
	<node id="-560928" lat="62.0773540458" lon="5.91256639087">
		<tag k="fixme" v="consider place=hamlet" />
		<tag k="name" v="Aksnes" />
		<tag k="place" v="farm" />
		<tag k="ssr:stedsnr" v="286283" />
	</node>
	<node id="-562975" lat="62.0566741688" lon="6.3794391696">
		<tag k="name" v="Langeneset" />
		<tag k="place" v="farm" />
		<tag k="ssr:stedsnr" v="800706" />
	</node>
	<node id="-562974" lat="62.0498147025" lon="6.32849352561">
		<tag k="fixme" v="consider place=hamlet" />
		<tag k="name" v="Sunndalen" />
		<tag k="place" v="farm" />
		<tag k="ssr:stedsnr" v="800689" />
	</node>
	<node id="-562969" lat="62.0768722211" lon="6.33469999319">
		<tag k="fixme" v="multiple name tags, choose one and add the other to alt_name" />
		<tag k="historic" v="shieling" />
		<tag k="name" v="Litledalsstølen;Litledalssætra" />
		<tag k="place" v="locality" />
		<tag k="ssr:stedsnr" v="800631" />
	</node>
	<node id="-562968" lat="62.0012250031" lon="6.16170833937">
		<tag k="historic" v="shieling" />
		<tag k="name" v="Helsetsætra" />
		<tag k="place" v="locality" />
		<tag k="ssr:stedsnr" v="800553" />
	</node>
	<node id="-562967" lat="62.1607833351" lon="5.93662777001">
		<tag k="alt_name" v="Skaret" />
		<tag k="name" v="Skarde" />
		<tag k="place" v="farm" />
		<tag k="ssr:stedsnr" v="800060" />
	</node>
	<node id="-562966" lat="62.1557038" lon="6.05467718532">
		<tag k="alt_name" v="Nordalen" />
		<tag k="fixme" v="consider place=hamlet" />
		<tag k="name" v="Norddalen" />
		<tag k="place" v="farm" />
		<tag k="ssr:stedsnr" v="800058" />
	</node>
	<node id="-562965" lat="62.1524743335" lon="5.93239905022">
		<tag k="alt_name" v="Åsen" />
		<tag k="fixme" v="consider place=hamlet" />
		<tag k="name" v="Sætreåsen" />
		<tag k="place" v="farm" />
		<tag k="ssr:stedsnr" v="800056" />
	</node>
	<node id="-562957" lat="62.0989722263" lon="5.90669443689">
		<tag k="historic" v="shieling" />
		<tag k="name" v="Fossastøylen" />
		<tag k="place" v="locality" />
		<tag k="ssr:stedsnr" v="799895" />
	</node>
	<node id="-562955" lat="62.1114579791" lon="6.03138178695">
		<tag k="name" v="Flotane" />
		<tag k="place" v="hamlet" />
		<tag k="ssr:stedsnr" v="799884" />
	</node>
	<node id="-560905" lat="62.0746083315" lon="6.23123055622">
		<tag k="historic" v="shieling" />
		<tag k="name" v="Vikesæter" />
		<tag k="place" v="locality" />
		<tag k="ssr:stedsnr" v="285498" />
	</node>
	<node id="-562951" lat="62.1425083344" lon="6.09185554805">
		<tag k="name" v="Leitet" />
		<tag k="place" v="farm" />
		<tag k="ssr:stedsnr" v="799829" />
	</node>
	<node id="-562950" lat="62.1497919266" lon="6.06688752564">
		<tag k="fixme" v="consider place=hamlet" />
		<tag k="name" v="Engeset" />
		<tag k="place" v="farm" />
		<tag k="ssr:stedsnr" v="799814" />
	</node>
	<node id="-562948" lat="62.1305256962" lon="6.0189371336">
		<tag k="fixme" v="consider place=hamlet" />
		<tag k="name" v="Rønstad" />
		<tag k="place" v="farm" />
		<tag k="ssr:stedsnr" v="799786" />
	</node>
	<node id="-562947" lat="62.1345250018" lon="6.1328638824">
		<tag k="name" v="Nymarka" />
		<tag k="place" v="farm" />
		<tag k="ssr:stedsnr" v="799779" />
	</node>
	<node id="-560896" lat="62.0571055572" lon="5.92753056393">
		<tag k="name" v="Bøen" />
		<tag k="place" v="farm" />
		<tag k="ssr:stedsnr" v="285292" />
	</node>
	<node id="-562938" lat="62.1023807694" lon="6.15022999875">
		<tag k="alt_name" v="Vasstein" />
		<tag k="name" v="Vassteinen" />
		<tag k="place" v="farm" />
		<tag k="ssr:stedsnr" v="785380" />
	</node>
	<node id="-562937" lat="62.1588166708" lon="6.04279166383">
		<tag k="fixme" v="multiple name tags, choose one and add the other to alt_name" />
		<tag k="name" v="Ekset;Jogarden" />
		<tag k="place" v="farm" />
		<tag k="ssr:stedsnr" v="784186" />
	</node>
	<node id="-562936" lat="62.0595388858" lon="6.07128888417">
		<tag k="alt_name" v="Fylsvik" />
		<tag k="name" v="Fylsvika" />
		<tag k="place" v="farm" />
		<tag k="ssr:stedsnr" v="784151" />
	</node>
	<node id="-562935" lat="62.1493972244" lon="6.1055361142">
		<tag k="name" v="Kolbeingarden" />
		<tag k="place" v="farm" />
		<tag k="ssr:stedsnr" v="780490" />
	</node>
	<node id="-562930" lat="62.0809036372" lon="6.30117232878">
		<tag k="alt_name" v="Stornes" />
		<tag k="fixme" v="consider place=hamlet" />
		<tag k="name" v="Storenes" />
		<tag k="place" v="farm" />
		<tag k="ssr:stedsnr" v="771934" />
	</node>
	<node id="-562927" lat="62.0900722238" lon="6.00646387982">
		<tag k="historic" v="shieling" />
		<tag k="name" v="Innaforsetra" />
		<tag k="place" v="locality" />
		<tag k="ssr:stedsnr" v="771888" />
	</node>
	<node id="-562924" lat="62.1492555525" lon="5.91576665889">
		<tag k="historic" v="shieling" />
		<tag k="name" v="Åsesetra" />
		<tag k="place" v="locality" />
		<tag k="ssr:stedsnr" v="771840" />
	</node>
	<node id="-560873" lat="62.0351444451" lon="6.39209444902">
		<tag k="name" v="Bruabakken" />
		<tag k="place" v="farm" />
		<tag k="ssr:stedsnr" v="278913" />
	</node>
	<node id="-562919" lat="62.1307027785" lon="6.16416112008">
		<tag k="historic" v="shieling" />
		<tag k="name" v="Botnasætra" />
		<tag k="place" v="locality" />
		<tag k="ssr:stedsnr" v="771672" />
	</node>
	<node id="-562917" lat="62.2090833297" lon="5.96308610306">
		<tag k="amenity" v="school" />
		<tag k="name" v="Lid skule" />
		<tag k="ssr:stedsnr" v="771664" />
	</node>
	<node id="-560864" lat="62.0597112361" lon="6.31665938824">
		<tag k="alt_name" v="Holsvik" />
		<tag k="fixme" v="consider place=hamlet" />
		<tag k="name" v="Hollsvik" />
		<tag k="place" v="farm" />
		<tag k="ssr:stedsnr" v="270910" />
	</node>
	<node id="-562910" lat="62.1115833316" lon="5.93740833631">
		<tag k="name" v="Haugane" />
		<tag k="place" v="farm" />
		<tag k="ssr:stedsnr" v="771525" />
	</node>
	<node id="-562908" lat="62.1128500032" lon="6.03165555415">
		<tag k="name" v="Flote ytre" />
		<tag k="place" v="farm" />
		<tag k="ssr:stedsnr" v="771400" />
	</node>
	<node id="-562907" lat="62.1077388886" lon="6.05067778564">
		<tag k="alt_name" v="Krumsvik store" />
		<tag k="name" v="Store Krumsvik" />
		<tag k="place" v="farm" />
		<tag k="ssr:stedsnr" v="771395" />
	</node>
	<node id="-562901" lat="62.0695666645" lon="6.19814721466">
		<tag k="alt_name" v="Øygarden" />
		<tag k="name" v="Ødegård" />
		<tag k="place" v="farm" />
		<tag k="ssr:stedsnr" v="771340" />
	</node>
	<node id="-562897" lat="62.0773111083" lon="5.91294166025">
		<tag k="name" v="Aksnes" />
		<tag k="place" v="hamlet" />
		<tag k="ssr:stedsnr" v="771310" />
	</node>
	<node id="-562894" lat="62.0621250017" lon="6.29221943504">
		<tag k="name" v="Høgset" />
		<tag k="place" v="farm" />
		<tag k="ssr:stedsnr" v="771296" />
	</node>
	<node id="-562879" lat="62.0732694453" lon="6.21702778081">
		<tag k="alt_name" v="Høydal indre" />
		<tag k="name" v="Indre Høydal" />
		<tag k="place" v="farm" />
		<tag k="ssr:stedsnr" v="770481" />
	</node>
	<node id="-562875" lat="62.1435083318" lon="6.12932778224">
		<tag k="name" v="Nybø" />
		<tag k="place" v="farm" />
		<tag k="ssr:stedsnr" v="769196" />
	</node>
	<node id="-562870" lat="62.0650289367" lon="6.32041595136">
		<tag k="alt_name" v="Leite" />
		<tag k="fixme" v="consider place=hamlet" />
		<tag k="name" v="Leitet" />
		<tag k="place" v="farm" />
		<tag k="ssr:stedsnr" v="763935" />
	</node>
	<node id="-562867" lat="62.1473890011" lon="6.07056535604">
		<tag k="fixme" v="consider place=hamlet" />
		<tag k="name" v="Hallkjellsvik" />
		<tag k="place" v="farm" />
		<tag k="ssr:stedsnr" v="763900" />
	</node>
	<node id="-562860" lat="62.1595472187" lon="5.94667777443">
		<tag k="name" v="Bakkeland" />
		<tag k="place" v="farm" />
		<tag k="ssr:stedsnr" v="763029" />
	</node>
	<node id="-562842" lat="62.0829067987" lon="6.18553093593">
		<tag k="fixme" v="consider place=hamlet" />
		<tag k="name" v="Høydalsneset" />
		<tag k="place" v="farm" />
		<tag k="ssr:stedsnr" v="753066" />
	</node>
	<node id="-562838" lat="62.0295250004" lon="5.96357499933">
		<tag k="historic" v="shieling" />
		<tag k="name" v="Sanden" />
		<tag k="place" v="locality" />
		<tag k="ssr:stedsnr" v="739997" />
	</node>
	<node id="-562836" lat="62.0447075104" lon="6.04401517091">
		<tag k="fixme" v="consider place=hamlet" />
		<tag k="name" v="Kile" />
		<tag k="place" v="farm" />
		<tag k="ssr:stedsnr" v="739981" />
	</node>
	<node id="-562834" lat="62.035497635" lon="5.86123114775">
		<tag k="alt_name" v="Stranda" />
		<tag k="fixme" v="consider place=hamlet" />
		<tag k="name" v="Jostranda" />
		<tag k="place" v="farm" />
		<tag k="ssr:stedsnr" v="739970" />
	</node>
	<node id="-562833" lat="62.0055972238" lon="5.99861945263">
		<tag k="historic" v="shieling" />
		<tag k="name" v="Laurdalssætra" />
		<tag k="place" v="locality" />
		<tag k="ssr:stedsnr" v="739938" />
	</node>
	<node id="-562831" lat="62.0631888902" lon="5.92551943835">
		<tag k="fixme" v="consider place=hamlet" />
		<tag k="name" v="Dalsbygda" />
		<tag k="place" v="village" />
		<tag k="ssr:stedsnr" v="739926" />
	</node>
	<node id="-562830" lat="62.0784349357" lon="5.93816988355">
		<tag k="fixme" v="consider place=hamlet" />
		<tag k="name" v="Dalberget" />
		<tag k="place" v="farm" />
		<tag k="ssr:stedsnr" v="739898" />
	</node>
	<node id="-562828" lat="62.0566055512" lon="5.93851388006">
		<tag k="name" v="Vonheim" />
		<tag k="place" v="farm" />
		<tag k="ssr:stedsnr" v="739870" />
	</node>
	<node id="-562826" lat="62.0634153856" lon="6.2939359707">
		<tag k="fixme" v="consider place=hamlet" />
		<tag k="name" v="Skinvika" />
		<tag k="place" v="farm" />
		<tag k="ssr:stedsnr" v="739736" />
	</node>
	<node id="-562816" lat="62.07273056" lon="6.3626194449">
		<tag k="historic" v="shieling" />
		<tag k="name" v="Høgestøylen" />
		<tag k="place" v="locality" />
		<tag k="ssr:stedsnr" v="739633" />
	</node>
	<node id="-562815" lat="62.0730499979" lon="6.29105000717">
		<tag k="name" v="Leirvika" />
		<tag k="place" v="farm" />
		<tag k="ssr:stedsnr" v="739631" />
	</node>
	<node id="-562814" lat="62.0112833326" lon="6.21504165828">
		<tag k="historic" v="shieling" />
		<tag k="name" v="Rinddalssætra" />
		<tag k="place" v="locality" />
		<tag k="ssr:stedsnr" v="739557" />
	</node>
	<node id="-562533" lat="61.9999916669" lon="5.76360833013">
		<tag k="historic" v="shieling" />
		<tag k="name" v="Storlisætra" />
		<tag k="place" v="locality" />
		<tag k="ssr:stedsnr" v="617965" />
	</node>
	<node id="-562811" lat="62.1651249959" lon="6.12401111391">
		<tag k="name" v="Turnhytta" />
		<tag k="place" v="isolated_dwelling" />
		<tag k="ssr:stedsnr" v="739047" />
	</node>
	<node id="-562805" lat="62.0214387566" lon="5.84754112633">
		<tag k="alt_name" v="Mårstøl" />
		<tag k="fixme" v="consider place=hamlet" />
		<tag k="name" v="Morstøylen" />
		<tag k="place" v="farm" />
		<tag k="ssr:stedsnr" v="738993" />
	</node>
	<node id="-562804" lat="62.100458331" lon="6.16876666478">
		<tag k="fixme" v="consider place=hamlet" />
		<tag k="name" v="Hjartåbygda" />
		<tag k="place" v="village" />
		<tag k="ssr:stedsnr" v="738900" />
	</node>
	<node id="-562796" lat="62.1234427948" lon="6.0181964288">
		<tag k="alt_name" v="Folkestadåsen" />
		<tag k="fixme" v="consider place=hamlet" />
		<tag k="name" v="Åsen" />
		<tag k="place" v="farm" />
		<tag k="ssr:stedsnr" v="738794" />
	</node>
	<node id="-562795" lat="62.1269777762" lon="6.02302778606">
		<tag k="name" v="Hagen" />
		<tag k="place" v="farm" />
		<tag k="ssr:stedsnr" v="738771" />
	</node>
	<node id="-562793" lat="62.1373422396" lon="6.13438788907">
		<tag k="fixme" v="consider place=hamlet" />
		<tag k="name" v="Vassbotnen" />
		<tag k="place" v="farm" />
		<tag k="ssr:stedsnr" v="738764" />
	</node>
	<node id="-562791" lat="62.0968611133" lon="6.2904777762">
		<tag k="historic" v="shieling" />
		<tag k="name" v="Austadsætra" />
		<tag k="place" v="locality" />
		<tag k="ssr:stedsnr" v="738670" />
	</node>
	<node id="-562789" lat="62.0886916671" lon="6.35330278569">
		<tag k="historic" v="shieling" />
		<tag k="name" v="Norddalssætra" />
		<tag k="place" v="locality" />
		<tag k="ssr:stedsnr" v="738644" />
	</node>
	<node id="-562782" lat="62.1457277788" lon="6.06640000193">
		<tag k="name" v="Sivert Aarflot-plassen" />
		<tag k="place" v="square" />
		<tag k="ssr:stedsnr" v="724991" />
	</node>
	<node id="-562769" lat="62.0040361147" lon="6.04102221798">
		<tag k="name" v="Storegjære" />
		<tag k="place" v="farm" />
		<tag k="ssr:stedsnr" v="711589" />
	</node>
	<node id="-562766" lat="61.9862444481" lon="6.04745833147">
		<tag k="historic" v="shieling" />
		<tag k="name" v="Løsetsetra" />
		<tag k="place" v="locality" />
		<tag k="ssr:stedsnr" v="711578" />
	</node>
	<node id="-562765" lat="62.1219305512" lon="6.02614721651">
		<tag k="alt_name" v="Folkestad-Reiten" />
		<tag k="name" v="Folkestadreite" />
		<tag k="place" v="farm" />
		<tag k="ssr:stedsnr" v="711542" />
	</node>
	<node id="-562714" lat="62.1200805539" lon="5.97674721363">
		<tag k="name" v="Nordre Rossetvik" />
		<tag k="place" v="locality" />
		<tag k="ssr:stedsnr" v="708134" />
	</node>
	<node id="-562710" lat="62.0560661632" lon="6.30787667747">
		<tag k="fixme" v="consider place=hamlet" />
		<tag k="name" v="Åselid" />
		<tag k="place" v="farm" />
		<tag k="ssr:stedsnr" v="703951" />
	</node>
	<node id="-562697" lat="62.0478921357" lon="6.3333003166">
		<tag k="fixme" v="consider place=hamlet" />
		<tag k="name" v="Høybakk" />
		<tag k="place" v="farm" />
		<tag k="ssr:stedsnr" v="695894" />
	</node>
	<node id="-562687" lat="62.032149996" lon="6.39809166312">
		<tag k="name" v="Sørekalvatn" />
		<tag k="place" v="hamlet" />
		<tag k="ssr:stedsnr" v="688180" />
	</node>
	<node id="-562681" lat="62.0058611141" lon="6.08000278052">
		<tag k="name" v="Austheim" />
		<tag k="place" v="farm" />
		<tag k="ssr:stedsnr" v="678943" />
	</node>
	<node id="-562680" lat="62.0058455058" lon="6.04651506338">
		<tag k="fixme" v="consider place=hamlet" />
		<tag k="name" v="Søre Bjørkedalen" />
		<tag k="place" v="farm" />
		<tag k="ssr:stedsnr" v="678942" />
	</node>
	<node id="-562676" lat="62.0546750037" lon="6.11553055111">
		<tag k="historic" v="shieling" />
		<tag k="name" v="Innstøylen" />
		<tag k="place" v="locality" />
		<tag k="ssr:stedsnr" v="678882" />
	</node>
	<node id="-562673" lat="62.1044500013" lon="6.21233333069">
		<tag k="historic" v="shieling" />
		<tag k="name" v="Hjartåsætra" />
		<tag k="place" v="locality" />
		<tag k="ssr:stedsnr" v="678855" />
	</node>
	<node id="-562672" lat="62.1060882725" lon="5.9345056884">
		<tag k="fixme" v="consider place=hamlet" />
		<tag k="name" v="Løvika" />
		<tag k="place" v="farm" />
		<tag k="ssr:stedsnr" v="678837" />
	</node>
	<node id="-562671" lat="62.1137991881" lon="5.93480989578">
		<tag k="fixme" v="consider place=hamlet" />
		<tag k="name" v="Reitane" />
		<tag k="place" v="farm" />
		<tag k="ssr:stedsnr" v="678835" />
	</node>
	<node id="-562668" lat="62.1515210027" lon="6.15494362753">
		<tag k="fixme" v="consider place=hamlet" />
		<tag k="name" v="Fremmerlida" />
		<tag k="place" v="farm" />
		<tag k="ssr:stedsnr" v="678793" />
	</node>
	<node id="-562664" lat="62.1332875288" lon="6.00946439431">
		<tag k="fixme" v="consider place=hamlet" />
		<tag k="name" v="Løndalen" />
		<tag k="place" v="farm" />
		<tag k="ssr:stedsnr" v="678756" />
	</node>
	<node id="-562661" lat="62.0565500015" lon="6.39171944221">
		<tag k="alt_name" v="Vindåsen" />
		<tag k="name" v="Vindsåsen" />
		<tag k="place" v="farm" />
		<tag k="ssr:stedsnr" v="678719" />
	</node>
	<node id="-562656" lat="62.0897953336" lon="6.23908609645">
		<tag k="fixme" v="consider place=hamlet" />
		<tag k="name" v="Selvika" />
		<tag k="place" v="farm" />
		<tag k="ssr:stedsnr" v="678654" />
	</node>
	<node id="-562652" lat="62.1566027791" lon="5.94828610379">
		<tag k="name" v="Molvikgarden" />
		<tag k="place" v="farm" />
		<tag k="ssr:stedsnr" v="678064" />
	</node>
	<node id="-562649" lat="62.1820083312" lon="6.02593610669">
		<tag k="name" v="Kleiva" />
		<tag k="place" v="farm" />
		<tag k="ssr:stedsnr" v="678004" />
	</node>
	<node id="-562644" lat="62.0719444407" lon="6.09306389125">
		<tag k="fixme" v="multiple name tags, choose one and add the other to alt_name" />
		<tag k="name" v="Bjørneset;Gotene" />
		<tag k="place" v="farm" />
		<tag k="ssr:stedsnr" v="662145" />
	</node>
	<node id="-562612" lat="62.1407694439" lon="5.92562222182">
		<tag k="historic" v="shieling" />
		<tag k="name" v="Sessetra" />
		<tag k="place" v="locality" />
		<tag k="ssr:stedsnr" v="649833" />
	</node>
	<node id="-562579" lat="62.0046694452" lon="5.82017499293">
		<tag k="name" v="Dal" />
		<tag k="place" v="farm" />
		<tag k="ssr:stedsnr" v="649137" />
	</node>
	<node id="-562562" lat="62.1471527735" lon="6.07392499874">
		<tag k="name" v="Skjerva" />
		<tag k="place" v="farm" />
		<tag k="ssr:stedsnr" v="642922" />
	</node>
	<node id="-562558" lat="62.1712205861" lon="6.03156023108">
		<tag k="fixme" v="consider place=hamlet" />
		<tag k="name" v="Store-Mork" />
		<tag k="place" v="farm" />
		<tag k="ssr:stedsnr" v="642886" />
	</node>
	<node id="-562547" lat="62.0825583365" lon="5.94465278145">
		<tag k="name" v="Dalbergstranda" />
		<tag k="place" v="farm" />
		<tag k="ssr:stedsnr" v="634108" />
	</node>
	<node id="-562542" lat="62.0162165243" lon="6.06416179392">
		<tag k="name" v="Nørdre Bjørkedalen" />
		<tag k="place" v="farm" />
		<tag k="ssr:stedsnr" v="630840" />
	</node>
	<node id="-562539" lat="61.9721444424" lon="5.80819167269">
		<tag k="historic" v="shieling" />
		<tag k="name" v="Broten" />
		<tag k="place" v="locality" />
		<tag k="ssr:stedsnr" v="626537" />
	</node>
	<node id="-562534" lat="62.004436114" lon="5.81930555358">
		<tag k="alt_name" v="Dal" />
		<tag k="fixme" v="consider place=hamlet" />
		<tag k="name" v="Dalen" />
		<tag k="place" v="farm" />
		<tag k="ssr:stedsnr" v="617968" />
	</node>
	<node id="-563089" lat="62.0745833319" lon="6.28817222018">
		<tag k="fixme" v="consider place=hamlet" />
		<tag k="name" v="Hamre" />
		<tag k="place" v="farm" />
		<tag k="ssr:stedsnr" v="860681" />
	</node>
	<node id="-562528" lat="62.0733749991" lon="6.10209444526">
		<tag k="name" v="Medgarden" />
		<tag k="place" v="farm" />
		<tag k="ssr:stedsnr" v="617920" />
	</node>
	<node id="-562527" lat="62.0598141047" lon="5.93497691375">
		<tag k="fixme" v="consider place=hamlet" />
		<tag k="name" v="Litlebøen" />
		<tag k="place" v="farm" />
		<tag k="ssr:stedsnr" v="617886" />
	</node>
	<node id="-562525" lat="62.0567499998" lon="6.04784166005">
		<tag k="name" v="Mjeltevika" />
		<tag k="place" v="farm" />
		<tag k="ssr:stedsnr" v="617879" />
	</node>
	<node id="-562521" lat="62.1162305583" lon="6.02043888354">
		<tag k="name" v="Nybø" />
		<tag k="place" v="farm" />
		<tag k="ssr:stedsnr" v="617859" />
	</node>
	<node id="-562518" lat="62.150906607" lon="6.1396523887">
		<tag k="alt_name" v="Driveklepp" />
		<tag k="fixme" v="consider place=hamlet" />
		<tag k="name" v="Drivklepp" />
		<tag k="place" v="farm" />
		<tag k="ssr:stedsnr" v="617820" />
	</node>
	<node id="-562517" lat="62.163152774" lon="6.17037500034">
		<tag k="name" v="Kleppesætra" />
		<tag k="place" v="isolated_dwelling" />
		<tag k="ssr:stedsnr" v="617803" />
	</node>
	<node id="-562516" lat="62.0631000032" lon="6.32518889244">
		<tag k="fixme" v="consider place=hamlet" />
		<tag k="name" v="Fyrde" />
		<tag k="place" v="village" />
		<tag k="ssr:stedsnr" v="617753" />
	</node>
	<node id="-562515" lat="62.0536785632" lon="6.31161650926">
		<tag k="fixme" v="consider place=hamlet" />
		<tag k="name" v="Skaret" />
		<tag k="place" v="farm" />
		<tag k="ssr:stedsnr" v="617745" />
	</node>
	<node id="-562509" lat="62.0833078345" lon="6.29122733702">
		<tag k="fixme" v="consider place=hamlet" />
		<tag k="name" v="Aurstad" />
		<tag k="place" v="farm" />
		<tag k="ssr:stedsnr" v="617649" />
	</node>
	<node id="-562508" lat="62.0721925812" lon="6.23728862237">
		<tag k="alt_name" v="Stranda" />
		<tag k="fixme" v="consider place=hamlet" />
		<tag k="name" v="Vikestranda" />
		<tag k="place" v="farm" />
		<tag k="ssr:stedsnr" v="617640" />
	</node>
	<node id="-562502" lat="62.1971600275" lon="5.86543377897">
		<tag k="fixme" v="consider place=hamlet" />
		<tag k="name" v="Velsvika" />
		<tag k="place" v="farm" />
		<tag k="ssr:stedsnr" v="617128" />
	</node>
	<node id="-562500" lat="62.1598370975" lon="5.93300792289">
		<tag k="fixme" v="consider place=hamlet" />
		<tag k="name" v="Nakken" />
		<tag k="place" v="farm" />
		<tag k="ssr:stedsnr" v="617079" />
	</node>
	<node id="-562498" lat="62.1627686717" lon="6.02984583329">
		<tag k="alt_name" v="Nedre Ekset" />
		<tag k="fixme" v="consider place=hamlet" />
		<tag k="name" v="Ekset" />
		<tag k="place" v="farm" />
		<tag k="ssr:stedsnr" v="617056" />
	</node>
	<node id="-562497" lat="62.1699049479" lon="6.02580972801">
		<tag k="name" v="Mork" />
		<tag k="place" v="hamlet" />
		<tag k="ssr:stedsnr" v="617054" />
	</node>
	<node id="-562459" lat="62.1104694434" lon="5.93931389247">
		<tag k="name" v="Osen" />
		<tag k="place" v="farm" />
		<tag k="ssr:stedsnr" v="589480" />
	</node>
	<node id="-562411" lat="62.0064138884" lon="6.04817221793">
		<tag k="fixme" v="consider place=hamlet" />
		<tag k="name" v="Søre Bjørkedalen" />
		<tag k="place" v="village" />
		<tag k="ssr:stedsnr" v="585903" />
	</node>
	<node id="-562410" lat="62.1690319808" lon="6.02108071361">
		<tag k="fixme" v="consider place=hamlet" />
		<tag k="name" v="Litle-Mork" />
		<tag k="place" v="farm" />
		<tag k="ssr:stedsnr" v="581977" />
	</node>
	<node id="-562409" lat="62.0572861151" lon="6.33262221486">
		<tag k="name" v="Holebø" />
		<tag k="place" v="farm" />
		<tag k="ssr:stedsnr" v="581967" />
	</node>
	<node id="-562387" lat="61.9994555515" lon="6.05583888941">
		<tag k="name" v="Søre Bjørkedalen" />
		<tag k="place" v="farm" />
		<tag k="ssr:stedsnr" v="570857" />
	</node>
	<node id="-562385" lat="61.9916222224" lon="6.08342499443">
		<tag k="name" v="Løbakk" />
		<tag k="place" v="farm" />
		<tag k="ssr:stedsnr" v="566327" />
	</node>
	<node id="-562383" lat="62.0627611069" lon="6.18102222479">
		<tag k="historic" v="shieling" />
		<tag k="name" v="Heiddalsstøylen" />
		<tag k="place" v="locality" />
		<tag k="ssr:stedsnr" v="565121" />
	</node>
	<node id="-562379" lat="62.1601277748" lon="6.09116388737">
		<tag k="name" v="Ullastøylen" />
		<tag k="place" v="isolated_dwelling" />
		<tag k="ssr:stedsnr" v="557767" />
	</node>
	<node id="-562375" lat="62.1542021942" lon="6.06244364081">
		<tag k="fixme" v="consider place=hamlet" />
		<tag k="name" v="Klepp" />
		<tag k="place" v="farm" />
		<tag k="ssr:stedsnr" v="557056" />
	</node>
	<node id="-562370" lat="62.1738437698" lon="6.00474061867">
		<tag k="alt_name" v="Eikreim" />
		<tag k="fixme" v="consider place=hamlet" />
		<tag k="name" v="Eikrem" />
		<tag k="place" v="farm" />
		<tag k="ssr:stedsnr" v="557010" />
	</node>
	<node id="-562366" lat="62.0665972189" lon="5.94470555003">
		<tag k="historic" v="shieling" />
		<tag k="name" v="Raudegotene" />
		<tag k="place" v="locality" />
		<tag k="ssr:stedsnr" v="556936" />
	</node>
	<node id="-562365" lat="62.0755198414" lon="6.06722118665">
		<tag k="fixme" v="consider place=hamlet" />
		<tag k="name" v="Årvika" />
		<tag k="place" v="farm" />
		<tag k="ssr:stedsnr" v="556909" />
	</node>
	<node id="-562361" lat="62.0568472253" lon="5.86918889773">
		<tag k="historic" v="shieling" />
		<tag k="name" v="Keipedalen" />
		<tag k="place" v="locality" />
		<tag k="ssr:stedsnr" v="556886" />
	</node>
	<node id="-562360" lat="62.0540519397" lon="5.94447136802">
		<tag k="fixme" v="consider place=hamlet" />
		<tag k="name" v="Rangsætra" />
		<tag k="place" v="farm" />
		<tag k="ssr:stedsnr" v="556885" />
	</node>
	<node id="-562359" lat="62.0656694433" lon="6.18203888218">
		<tag k="historic" v="shieling" />
		<tag k="name" v="Lauvhaugsætra" />
		<tag k="place" v="locality" />
		<tag k="ssr:stedsnr" v="556877" />
	</node>
	<node id="-562354" lat="62.09898906" lon="6.165046943">
		<tag k="fixme" v="consider place=hamlet" />
		<tag k="name" v="Ervika" />
		<tag k="place" v="farm" />
		<tag k="ssr:stedsnr" v="556834" />
	</node>
	<node id="-562353" lat="62.0960027753" lon="5.99928888277">
		<tag k="historic" v="shieling" />
		<tag k="name" v="Folkestadsætra" />
		<tag k="place" v="locality" />
		<tag k="ssr:stedsnr" v="556832" />
	</node>
	<node id="-562350" lat="61.9944791367" lon="6.35862430183">
		<tag k="fixme" v="consider place=hamlet" />
		<tag k="name" v="Osdalen" />
		<tag k="place" v="farm" />
		<tag k="ssr:stedsnr" v="556824" />
	</node>
	<node id="-562348" lat="62.1195944415" lon="5.88007499255">
		<tag k="historic" v="shieling" />
		<tag k="name" v="Dravlausstøylen" />
		<tag k="place" v="locality" />
		<tag k="ssr:stedsnr" v="556772" />
	</node>
	<node id="-562337" lat="62.1984083317" lon="5.85174721554">
		<tag k="name" v="Plassen" />
		<tag k="place" v="isolated_dwelling" />
		<tag k="ssr:stedsnr" v="556110" />
	</node>
	<node id="-562331" lat="62.0845138919" lon="6.3401611183">
		<tag k="historic" v="shieling" />
		<tag k="name" v="Fjellstøylen" />
		<tag k="place" v="locality" />
		<tag k="ssr:stedsnr" v="529960" />
	</node>
	<node id="-562317" lat="61.986133336" lon="6.28682500173">
		<tag k="historic" v="shieling" />
		<tag k="name" v="Grøndalsstølen" />
		<tag k="place" v="locality" />
		<tag k="ssr:stedsnr" v="529093" />
	</node>
	<node id="-562305" lat="62.1336444442" lon="6.12648333513">
		<tag k="historic" v="shieling" />
		<tag k="name" v="Litlesætra" />
		<tag k="place" v="locality" />
		<tag k="ssr:stedsnr" v="528675" />
	</node>
	<node id="-562294" lat="62.0956222262" lon="6.00053889026">
		<tag k="name" v="Hamna" />
		<tag k="place" v="isolated_dwelling" />
		<tag k="ssr:stedsnr" v="528431" />
	</node>
	<node id="-561001" lat="62.0553026858" lon="5.93374559919">
		<tag k="fixme" v="consider place=hamlet" />
		<tag k="name" v="Hjellane" />
		<tag k="place" v="farm" />
		<tag k="ssr:stedsnr" v="314866" />
	</node>
	<node id="-562292" lat="62.0190861115" lon="5.81370278342">
		<tag k="name" v="Dansamarka" />
		<tag k="place" v="locality" />
		<tag k="ssr:stedsnr" v="528414" />
	</node>
	<node id="-562284" lat="62.0742777819" lon="6.06296665757">
		<tag k="historic" v="shieling" />
		<tag k="name" v="Aarøyane" />
		<tag k="place" v="locality" />
		<tag k="ssr:stedsnr" v="528214" />
	</node>
	<node id="-562280" lat="62.0725283788" lon="6.20711122783">
		<tag k="alt_name" v="Høydal ytre" />
		<tag k="name" v="Ytre Høydal" />
		<tag k="place" v="farm" />
		<tag k="ssr:stedsnr" v="527497" />
	</node>
	<node id="-562268" lat="62.139088885" lon="6.13506666122">
		<tag k="name" v="Bøen" />
		<tag k="place" v="farm" />
		<tag k="ssr:stedsnr" v="521966" />
	</node>
	<node id="-562263" lat="62.0583777739" lon="6.32970556212">
		<tag k="name" v="Sunndalskleiva" />
		<tag k="place" v="farm" />
		<tag k="ssr:stedsnr" v="521893" />
	</node>
	<node id="-562242" lat="61.9957527775" lon="6.06358332545">
		<tag k="name" v="Stranda" />
		<tag k="place" v="farm" />
		<tag k="ssr:stedsnr" v="506325" />
	</node>
	<node id="-560992" lat="62.1472361142" lon="6.12029722958">
		<tag k="fixme" v="consider place=hamlet" />
		<tag k="name" v="Vikebygda" />
		<tag k="place" v="village" />
		<tag k="ssr:stedsnr" v="314787" />
	</node>
	<node id="-562233" lat="62.0132000023" lon="6.03954166668">
		<tag k="name" v="Sandvika" />
		<tag k="place" v="farm" />
		<tag k="ssr:stedsnr" v="496942" />
	</node>
	<node id="-562229" lat="62.0586806933" lon="6.08572389653">
		<tag k="fixme" v="consider place=hamlet" />
		<tag k="name" v="Litlebotnen" />
		<tag k="place" v="farm" />
		<tag k="ssr:stedsnr" v="496874" />
	</node>
	<node id="-562228" lat="62.0564388917" lon="6.07723611131">
		<tag k="name" v="Leirosen" />
		<tag k="place" v="farm" />
		<tag k="ssr:stedsnr" v="496872" />
	</node>
	<node id="-562226" lat="62.1125250041" lon="6.16460833911">
		<tag k="alt_name" v="Vadsteinsætra" />
		<tag k="historic" v="shieling" />
		<tag k="name" v="Vassteinsætra" />
		<tag k="place" v="locality" />
		<tag k="ssr:stedsnr" v="496847" />
	</node>
	<node id="-562225" lat="62.1172972231" lon="5.87058611782">
		<tag k="historic" v="shieling" />
		<tag k="name" v="Nystøylen" />
		<tag k="place" v="locality" />
		<tag k="ssr:stedsnr" v="496776" />
	</node>
	<node id="-562224" lat="62.1417944489" lon="6.1347111106">
		<tag k="name" v="Dalheim" />
		<tag k="place" v="farm" />
		<tag k="ssr:stedsnr" v="496756" />
	</node>
	<node id="-562217" lat="62.0908194426" lon="6.26200554666">
		<tag k="fixme" v="multiple name tags, choose one and add the other to alt_name" />
		<tag k="historic" v="shieling" />
		<tag k="name" v="Litlesætra;Støylane" />
		<tag k="place" v="locality" />
		<tag k="ssr:stedsnr" v="496661" />
	</node>
	<node id="-562214" lat="62.1961833298" lon="5.86345833102">
		<tag k="name" v="Sjurgarden" />
		<tag k="place" v="farm" />
		<tag k="ssr:stedsnr" v="496092" />
	</node>
	<node id="-562213" lat="62.1530916675" lon="5.89671110223">
		<tag k="name" v="Gamlesætra" />
		<tag k="place" v="locality" />
		<tag k="ssr:stedsnr" v="496060" />
	</node>
	<node id="-562211" lat="62.1763531434" lon="5.92951201675">
		<tag k="fixme" v="consider place=hamlet" />
		<tag k="name" v="Stigen" />
		<tag k="place" v="farm" />
		<tag k="ssr:stedsnr" v="496012" />
	</node>
	<node id="-562205" lat="61.9986115723" lon="6.05658465875">
		<tag k="fixme" v="multiple name tags, choose one and add the other to alt_name; consider place=hamlet" />
		<tag k="name" v="Eidseflot;Øygarden" />
		<tag k="place" v="farm" />
		<tag k="ssr:stedsnr" v="495305" />
	</node>
	<node id="-560986" lat="62.0597361135" lon="6.32674722192">
		<tag k="name" v="Fossheim" />
		<tag k="place" v="farm" />
		<tag k="ssr:stedsnr" v="314725" />
	</node>
	<node id="-562196" lat="62.0598527793" lon="5.95993332919">
		<tag k="historic" v="shieling" />
		<tag k="name" v="Heida" />
		<tag k="place" v="locality" />
		<tag k="ssr:stedsnr" v="468891" />
	</node>
	<node id="-562188" lat="62.1956138902" lon="5.87340832725">
		<tag k="amenity" v="school" />
		<tag k="name" v="Velsvik skole" />
		<tag k="ssr:stedsnr" v="468777" />
	</node>
	<node id="-562181" lat="62.2198638924" lon="5.93889444229">
		<tag k="name" v="Birkenes" />
		<tag k="place" v="hamlet" />
		<tag k="ssr:stedsnr" v="468605" />
	</node>
	<node id="-562178" lat="62.0050944469" lon="6.03850000301">
		<tag k="name" v="Koppen" />
		<tag k="place" v="farm" />
		<tag k="ssr:stedsnr" v="468555" />
	</node>
	<node id="-562163" lat="62.0547222254" lon="6.11458332353">
		<tag k="historic" v="shieling" />
		<tag k="name" v="Brundalstølen" />
		<tag k="place" v="locality" />
		<tag k="ssr:stedsnr" v="468087" />
	</node>
	<node id="-562157" lat="62.114911189" lon="5.9349068765">
		<tag k="name" v="Reite" />
		<tag k="place" v="farm" />
		<tag k="ssr:stedsnr" v="467517" />
	</node>
	<node id="-562154" lat="62.0713522197" lon="5.90188947034">
		<tag k="fixme" v="consider place=hamlet" />
		<tag k="name" v="Aksnesseter" />
		<tag k="place" v="farm" />
		<tag k="ssr:stedsnr" v="467331" />
	</node>
	<node id="-562134" lat="62.1561361117" lon="6.08950278326">
		<tag k="historic" v="shieling" />
		<tag k="name" v="Prestesætra" />
		<tag k="place" v="locality" />
		<tag k="ssr:stedsnr" v="460978" />
	</node>
	<node id="-562133" lat="62.1508305592" lon="6.10544444398">
		<tag k="name" v="Gjerdet" />
		<tag k="place" v="farm" />
		<tag k="ssr:stedsnr" v="460971" />
	</node>
	<node id="-562131" lat="62.1653055562" lon="6.03343332679">
		<tag k="name" v="Reset" />
		<tag k="place" v="quarter" />
		<tag k="ssr:stedsnr" v="460954" />
	</node>
	<node id="-562128" lat="62.1804305526" lon="6.03767500627">
		<tag k="name" v="Ytrestøylen" />
		<tag k="place" v="farm" />
		<tag k="ssr:stedsnr" v="460935" />
	</node>
	<node id="-562114" lat="62.0101468165" lon="5.84299027204">
		<tag k="name" v="Åmelfoten" />
		<tag k="place" v="hamlet" />
		<tag k="ssr:stedsnr" v="449846" />
	</node>
	<node id="-562112" lat="62.1786833323" lon="6.02163334102">
		<tag k="name" v="Håskjold" />
		<tag k="place" v="hamlet" />
		<tag k="ssr:stedsnr" v="445505" />
	</node>
	<node id="-562100" lat="62.1571250033" lon="5.90784166029">
		<tag k="name" v="Sætre" />
		<tag k="place" v="locality" />
		<tag k="ssr:stedsnr" v="436060" />
	</node>
	<node id="-562099" lat="62.1543331493" lon="5.93893044406">
		<tag k="fixme" v="consider place=hamlet" />
		<tag k="name" v="Grøtholen" />
		<tag k="place" v="farm" />
		<tag k="ssr:stedsnr" v="436055" />
	</node>
	<node id="-562089" lat="62.114466667" lon="6.1315194398">
		<tag k="historic" v="shieling" />
		<tag k="name" v="Homborsetsætra" />
		<tag k="place" v="locality" />
		<tag k="ssr:stedsnr" v="435880" />
	</node>
	<node id="-562085" lat="62.0938527771" lon="5.97450832942">
		<tag k="name" v="Vikestøylen" />
		<tag k="place" v="isolated_dwelling" />
		<tag k="ssr:stedsnr" v="435849" />
	</node>
	<node id="-562081" lat="62.1339694405" lon="5.97822223046">
		<tag k="name" v="Gamlegjerdet" />
		<tag k="place" v="farm" />
		<tag k="ssr:stedsnr" v="435836" />
	</node>
	<node id="-562079" lat="62.144663405" lon="6.12134222834">
		<tag k="fixme" v="consider place=hamlet" />
		<tag k="name" v="Rotevatn" />
		<tag k="place" v="farm" />
		<tag k="ssr:stedsnr" v="435832" />
	</node>
	<node id="-562078" lat="62.1464414803" lon="6.13115199887">
		<tag k="alt_name" v="Hoggen" />
		<tag k="fixme" v="consider place=hamlet" />
		<tag k="name" v="Hogga" />
		<tag k="place" v="farm" />
		<tag k="ssr:stedsnr" v="435829" />
	</node>
	<node id="-562077" lat="62.1488055532" lon="6.15753055255">
		<tag k="name" v="Tømmerbakken" />
		<tag k="place" v="farm" />
		<tag k="ssr:stedsnr" v="435825" />
	</node>
	<node id="-562076" lat="62.1484055588" lon="5.88204165691">
		<tag k="historic" v="shieling" />
		<tag k="name" v="Ulvestadsætra" />
		<tag k="place" v="locality" />
		<tag k="ssr:stedsnr" v="435811" />
	</node>
	<node id="-562075" lat="62.1489493084" lon="6.10362318321">
		<tag k="alt_name" v="Heltne" />
		<tag k="fixme" v="consider place=hamlet" />
		<tag k="name" v="Heltnane" />
		<tag k="place" v="farm" />
		<tag k="ssr:stedsnr" v="435808" />
	</node>
	<node id="-562073" lat="62.1203522068" lon="6.01683429543">
		<tag k="fixme" v="consider place=hamlet" />
		<tag k="name" v="Åsebøen" />
		<tag k="place" v="farm" />
		<tag k="ssr:stedsnr" v="435794" />
	</node>
	<node id="-562071" lat="62.1187972241" lon="6.03317222018">
		<tag k="name" v="Folkestad" />
		<tag k="place" v="village" />
		<tag k="ssr:stedsnr" v="435791" />
	</node>
	<node id="-562070" lat="62.1179291656" lon="5.92926485954">
		<tag k="fixme" v="consider place=hamlet" />
		<tag k="name" v="Dravlauslida" />
		<tag k="place" v="farm" />
		<tag k="ssr:stedsnr" v="435785" />
	</node>
	<node id="-562069" lat="62.1305972195" lon="6.16410832724">
		<tag k="name" v="Botnasætra" />
		<tag k="place" v="isolated_dwelling" />
		<tag k="ssr:stedsnr" v="435776" />
	</node>
	<node id="-562067" lat="62.0657256755" lon="6.26415149047">
		<tag k="fixme" v="consider place=hamlet" />
		<tag k="name" v="Håvika" />
		<tag k="place" v="farm" />
		<tag k="ssr:stedsnr" v="435758" />
	</node>
	<node id="-562066" lat="62.0353805552" lon="6.44897499379">
		<tag k="historic" v="shieling" />
		<tag k="name" v="Kvivsdalssætra" />
		<tag k="place" v="locality" />
		<tag k="ssr:stedsnr" v="435726" />
	</node>
	<node id="-562063" lat="62.0746868537" lon="6.2218606476">
		<tag k="fixme" v="consider place=hamlet" />
		<tag k="name" v="Høydalsvika" />
		<tag k="place" v="farm" />
		<tag k="ssr:stedsnr" v="435664" />
	</node>
	<node id="-562062" lat="61.999805553" lon="6.05673888323">
		<tag k="name" v="Skogly" />
		<tag k="place" v="farm" />
		<tag k="ssr:stedsnr" v="435582" />
	</node>
	<node id="-562061" lat="61.9856250015" lon="6.04689443842">
		<tag k="historic" v="shieling" />
		<tag k="name" v="Langedalssætra" />
		<tag k="place" v="locality" />
		<tag k="ssr:stedsnr" v="435349" />
	</node>
	<node id="-562057" lat="62.2057105702" lon="5.969539802">
		<tag k="fixme" v="consider place=hamlet" />
		<tag k="name" v="Berkvika" />
		<tag k="place" v="farm" />
		<tag k="ssr:stedsnr" v="435127" />
	</node>
	<node id="-562053" lat="62.1493972244" lon="6.1055361142">
		<tag k="fixme" v="multiple name tags, choose one and add the other to alt_name" />
		<tag k="name" v="Litlebø;Ura" />
		<tag k="place" v="farm" />
		<tag k="ssr:stedsnr" v="421413" />
	</node>
	<node id="-562052" lat="62.1485122825" lon="6.15599298471">
		<tag k="fixme" v="consider place=hamlet" />
		<tag k="name" v="Tømmerbakken" />
		<tag k="place" v="farm" />
		<tag k="ssr:stedsnr" v="420528" />
	</node>
	<node id="-562051" lat="62.0594555514" lon="5.93661667391">
		<tag k="name" v="Myra" />
		<tag k="place" v="farm" />
		<tag k="ssr:stedsnr" v="419042" />
	</node>
	<node id="-562045" lat="62.0611378225" lon="6.37630051283">
		<tag k="fixme" v="consider place=hamlet" />
		<tag k="name" v="Nes" />
		<tag k="place" v="farm" />
		<tag k="ssr:stedsnr" v="254680" />
	</node>
	<node id="-562041" lat="62.161863888" lon="5.92259167396">
		<tag k="loc_name" v="Lisjemyra" />
		<tag k="name" v="Nybakk" />
		<tag k="place" v="farm" />
		<tag k="ssr:stedsnr" v="254034" />
	</node>
	<node id="-562040" lat="62.1676109572" lon="5.93297322518">
		<tag k="fixme" v="consider place=hamlet" />
		<tag k="name" v="Ulvestad" />
		<tag k="place" v="farm" />
		<tag k="ssr:stedsnr" v="254022" />
	</node>
	<node id="-562036" lat="62.0168210338" lon="6.06810085732">
		<tag k="fixme" v="consider place=hamlet" />
		<tag k="name" v="Nørdre Bjørkedalen" />
		<tag k="place" v="farm" />
		<tag k="ssr:stedsnr" v="253975" />
	</node>
	<node id="-562035" lat="62.0123972258" lon="6.06800556317">
		<tag k="name" v="Torgarden" />
		<tag k="place" v="farm" />
		<tag k="ssr:stedsnr" v="253976" />
	</node>
	<node id="-562029" lat="62.0671305512" lon="5.89612776954">
		<tag k="name" v="Skoglund" />
		<tag k="place" v="isolated_dwelling" />
		<tag k="ssr:stedsnr" v="253937" />
	</node>
	<node id="-562028" lat="62.0635160518" lon="5.89645272244">
		<tag k="fixme" v="consider place=hamlet" />
		<tag k="name" v="Innselset" />
		<tag k="place" v="farm" />
		<tag k="ssr:stedsnr" v="253936" />
	</node>
	<node id="-562027" lat="62.0759166659" lon="6.1046666598">
		<tag k="name" v="Lineberget" />
		<tag k="place" v="farm" />
		<tag k="ssr:stedsnr" v="253919" />
	</node>
	<node id="-562026" lat="62.0756500017" lon="6.0495861018">
		<tag k="historic" v="shieling" />
		<tag k="name" v="Straumssætra" />
		<tag k="place" v="locality" />
		<tag k="ssr:stedsnr" v="253913" />
	</node>
	<node id="-562025" lat="62.0733120303" lon="6.21154864193">
		<tag k="name" v="Høydalen" />
		<tag k="place" v="hamlet" />
		<tag k="ssr:stedsnr" v="253907" />
	</node>
	<node id="-562023" lat="62.0899611128" lon="6.08640833914">
		<tag k="name" v="Storemek" />
		<tag k="place" v="farm" />
		<tag k="ssr:stedsnr" v="253860" />
	</node>
	<node id="-562022" lat="62.0934304005" lon="6.14792944076">
		<tag k="fixme" v="consider place=hamlet" />
		<tag k="name" v="Furnes" />
		<tag k="place" v="farm" />
		<tag k="ssr:stedsnr" v="253857" />
	</node>
	<node id="-562018" lat="62.1408944472" lon="5.92629721267">
		<tag k="historic" v="shieling" />
		<tag k="name" v="Sæsshaugen" />
		<tag k="place" v="locality" />
		<tag k="ssr:stedsnr" v="253828" />
	</node>
	<node id="-562016" lat="62.15265206" lon="6.12545205778">
		<tag k="fixme" v="consider place=hamlet" />
		<tag k="name" v="Bratteberget" />
		<tag k="place" v="farm" />
		<tag k="ssr:stedsnr" v="253811" />
	</node>
	<node id="-562015" lat="62.1427472186" lon="6.13078055351">
		<tag k="name" v="Nybø" />
		<tag k="place" v="farm" />
		<tag k="ssr:stedsnr" v="253777" />
	</node>
	<node id="-562011" lat="62.0604444423" lon="6.35759722851">
		<tag k="name" v="Bjørkly" />
		<tag k="place" v="farm" />
		<tag k="ssr:stedsnr" v="253747" />
	</node>
	<node id="-562010" lat="62.0382694474" lon="6.38404444453">
		<tag k="historic" v="shieling" />
		<tag k="name" v="Eidssætra" />
		<tag k="place" v="locality" />
		<tag k="ssr:stedsnr" v="253715" />
	</node>
	<node id="-562009" lat="62.0872527781" lon="6.23031110449">
		<tag k="name" v="Skjeret" />
		<tag k="place" v="farm" />
		<tag k="ssr:stedsnr" v="253673" />
	</node>
	<node id="-562008" lat="62.0820664603" lon="6.26030534902">
		<tag k="fixme" v="consider place=hamlet" />
		<tag k="name" v="Årset" />
		<tag k="place" v="farm" />
		<tag k="ssr:stedsnr" v="253667" />
	</node>
	<node id="-562005" lat="61.9973215956" lon="6.07948657622">
		<tag k="fixme" v="consider place=hamlet" />
		<tag k="name" v="Helset" />
		<tag k="place" v="farm" />
		<tag k="ssr:stedsnr" v="253356" />
	</node>
	<node id="-561997" lat="61.9940750019" lon="5.78616666608">
		<tag k="historic" v="shieling" />
		<tag k="name" v="Tryfta" />
		<tag k="place" v="locality" />
		<tag k="ssr:stedsnr" v="252039" />
	</node>
	<node id="-561995" lat="62.0720027755" lon="6.09992778129">
		<tag k="fixme" v="multiple name tags, choose one and add the other to alt_name" />
		<tag k="name" v="Bjørneset;Larsgarden" />
		<tag k="place" v="farm" />
		<tag k="ssr:stedsnr" v="237486" />
	</node>
	<node id="-561979" lat="62.0556666699" lon="5.93235555845">
		<tag k="name" v="Hjelle" />
		<tag k="place" v="farm" />
		<tag k="ssr:stedsnr" v="225908" />
	</node>
	<node id="-561965" lat="62.1468531993" lon="5.93929888992">
		<tag k="fixme" v="consider place=hamlet" />
		<tag k="name" v="Kvangardsnes" />
		<tag k="place" v="farm" />
		<tag k="ssr:stedsnr" v="225692" />
	</node>
	<node id="-561938" lat="62.0276499993" lon="5.90416110198">
		<tag k="historic" v="shieling" />
		<tag k="name" v="Stølen" />
		<tag k="place" v="locality" />
		<tag k="ssr:stedsnr" v="225277" />
	</node>
	<node id="-561909" lat="62.05574386" lon="6.37927806126">
		<tag k="fixme" v="consider place=hamlet" />
		<tag k="name" v="Langenes" />
		<tag k="place" v="farm" />
		<tag k="ssr:stedsnr" v="217963" />
	</node>
	<node id="-561908" lat="62.0593194428" lon="6.31594722055">
		<tag k="name" v="Hollsvik" />
		<tag k="place" v="farm" />
		<tag k="ssr:stedsnr" v="217958" />
	</node>
	<node id="-561907" lat="62.0605389985" lon="6.35765941535">
		<tag k="fixme" v="consider place=hamlet" />
		<tag k="name" v="Aursnes" />
		<tag k="place" v="farm" />
		<tag k="ssr:stedsnr" v="217955" />
	</node>
	<node id="-561892" lat="62.1430254686" lon="6.07541224736">
		<tag k="fixme" v="consider place=hamlet" />
		<tag k="loc_name" v="Øyra" />
		<tag k="name" v="Prestegarden" />
		<tag k="place" v="farm" />
		<tag k="ssr:stedsnr" v="217016" />
	</node>
	<node id="-561887" lat="62.186394447" lon="5.86415000384">
		<tag k="historic" v="shieling" />
		<tag k="name" v="Litlesetra" />
		<tag k="place" v="locality" />
		<tag k="ssr:stedsnr" v="212820" />
	</node>
	<node id="-561880" lat="62.0930166636" lon="5.95978888481">
		<tag k="name" v="Rossetvika" />
		<tag k="old_name" v="Rossetvikane" />
		<tag k="place" v="farm" />
		<tag k="ssr:stedsnr" v="207965" />
	</node>
	<node id="-561878" lat="62.0380222248" lon="5.89330000732">
		<tag k="name" v="Fjøsneset" />
		<tag k="place" v="farm" />
		<tag k="ssr:stedsnr" v="193973" />
	</node>
	<node id="-561873" lat="62.0007449287" lon="5.84739867291">
		<tag k="fixme" v="consider place=hamlet" />
		<tag k="name" v="Vassbakkane" />
		<tag k="place" v="farm" />
		<tag k="ssr:stedsnr" v="193957" />
	</node>
	<node id="-561206" lat="62.1455416695" lon="6.08347222626">
		<tag k="name" v="Kvernabakken" />
		<tag k="place" v="farm" />
		<tag k="ssr:stedsnr" v="399895" />
	</node>
	<node id="-561871" lat="62.0085138847" lon="6.07759445411">
		<tag k="name" v="Holmevik" />
		<tag k="place" v="farm" />
		<tag k="ssr:stedsnr" v="193953" />
	</node>
	<node id="-561870" lat="62.0043500017" lon="6.15432778636">
		<tag k="historic" v="shieling" />
		<tag k="name" v="Nysætra" />
		<tag k="place" v="locality" />
		<tag k="ssr:stedsnr" v="193952" />
	</node>
	<node id="-561869" lat="62.0034388912" lon="6.04224722174">
		<tag k="name" v="Kjellstad" />
		<tag k="place" v="farm" />
		<tag k="ssr:stedsnr" v="193948" />
	</node>
	<node id="-561867" lat="62.0677777761" lon="6.06499444875">
		<tag k="name" v="Straumshamn" />
		<tag k="place" v="farm" />
		<tag k="ssr:stedsnr" v="193923" />
	</node>
	<node id="-561864" lat="62.04691472" lon="5.94998904624">
		<tag k="fixme" v="consider place=hamlet" />
		<tag k="name" v="Hesteflotene" />
		<tag k="place" v="farm" />
		<tag k="ssr:stedsnr" v="193892" />
	</node>
	<node id="-561862" lat="62.0606833294" lon="5.9604250082">
		<tag k="historic" v="shieling" />
		<tag k="name" v="Litlebøsætra" />
		<tag k="place" v="locality" />
		<tag k="ssr:stedsnr" v="193880" />
	</node>
	<node id="-561861" lat="62.059119443" lon="6.11576110948">
		<tag k="alt_name" v="Bjørnasetsætra" />
		<tag k="historic" v="shieling" />
		<tag k="name" v="Bjørnesetsætra" />
		<tag k="place" v="locality" />
		<tag k="ssr:stedsnr" v="193879" />
	</node>
	<node id="-561857" lat="62.0487462272" lon="6.39661694013">
		<tag k="fixme" v="consider place=hamlet" />
		<tag k="name" v="Eide" />
		<tag k="place" v="farm" />
		<tag k="ssr:stedsnr" v="193689" />
	</node>
	<node id="-561856" lat="62.0323724529" lon="6.41002732196">
		<tag k="name" v="Kalvatn" />
		<tag k="place" v="hamlet" />
		<tag k="ssr:stedsnr" v="193684" />
	</node>
	<node id="-561855" lat="62.1110277807" lon="6.23744167565">
		<tag k="historic" v="shieling" />
		<tag k="name" v="Ullalandssætra" />
		<tag k="place" v="locality" />
		<tag k="ssr:stedsnr" v="193655" />
	</node>
	<node id="-561854" lat="62.1554298873" lon="5.92500068322">
		<tag k="fixme" v="consider place=hamlet" />
		<tag k="name" v="Løndalen" />
		<tag k="place" v="farm" />
		<tag k="ssr:stedsnr" v="193064" />
	</node>
	<node id="-561851" lat="62.1674808839" lon="5.91476837829">
		<tag k="fixme" v="consider place=hamlet" />
		<tag k="name" v="Espenakken" />
		<tag k="place" v="farm" />
		<tag k="ssr:stedsnr" v="193027" />
	</node>
	<node id="-561849" lat="62.007447772" lon="5.82583772522">
		<tag k="alt_name" v="Åmelfotseter" />
		<tag k="fixme" v="consider place=hamlet" />
		<tag k="name" v="Åmelfotsætra" />
		<tag k="place" v="farm" />
		<tag k="ssr:stedsnr" v="192947" />
	</node>
	<node id="-561843" lat="62.1441638927" lon="6.0885666659">
		<tag k="alt_name" v="Nymarka" />
		<tag k="name" v="Nymark" />
		<tag k="place" v="farm" />
		<tag k="ssr:stedsnr" v="192836" />
	</node>
	<node id="-561841" lat="62.1252964472" lon="6.00611301616">
		<tag k="fixme" v="consider place=hamlet" />
		<tag k="name" v="Sollida" />
		<tag k="place" v="farm" />
		<tag k="ssr:stedsnr" v="192807" />
	</node>
	<node id="-561839" lat="62.1180527791" lon="5.88257221559">
		<tag k="historic" v="shieling" />
		<tag k="name" v="Gamlestøylen" />
		<tag k="place" v="locality" />
		<tag k="ssr:stedsnr" v="192788" />
	</node>
	<node id="-561838" lat="62.1416638856" lon="6.18921666083">
		<tag k="name" v="Kroken" />
		<tag k="place" v="isolated_dwelling" />
		<tag k="ssr:stedsnr" v="192778" />
	</node>
	<node id="-561836" lat="61.9945383134" lon="6.07494461707">
		<tag k="fixme" v="consider place=hamlet" />
		<tag k="name" v="Løset" />
		<tag k="place" v="farm" />
		<tag k="ssr:stedsnr" v="192329" />
	</node>
	<node id="-561831" lat="62.1643111074" lon="6.03420832617">
		<tag k="name" v="Rot" />
		<tag k="place" v="farm" />
		<tag k="ssr:stedsnr" v="173300" />
	</node>
	<node id="-561822" lat="62.0739777761" lon="6.17195832547">
		<tag k="historic" v="shieling" />
		<tag k="name" v="Nykkedalsstølen" />
		<tag k="place" v="locality" />
		<tag k="ssr:stedsnr" v="165162" />
	</node>
	<node id="-561809" lat="62.2091250003" lon="5.96039722397">
		<tag k="name" v="Indre Lid" />
		<tag k="old_name" v="Lid-indre" />
		<tag k="place" v="farm" />
		<tag k="ssr:stedsnr" v="164705" />
	</node>
	<node id="-561794" lat="62.0622897076" lon="5.92436087475">
		<tag k="fixme" v="consider place=hamlet" />
		<tag k="name" v="Indre Dale" />
		<tag k="old_name" v="Dale-indre" />
		<tag k="place" v="farm" />
		<tag k="ssr:stedsnr" v="164339" />
	</node>
	<node id="-561784" lat="62.0731916694" lon="6.07285833377">
		<tag k="name" v="Årviknes" />
		<tag k="old_name" v="Aarviknes" />
		<tag k="place" v="farm" />
		<tag k="ssr:stedsnr" v="164228" />
	</node>
	<node id="-561763" lat="62.0519472266" lon="6.3277555633">
		<tag k="name" v="Sunndalen" />
		<tag k="place" v="farm" />
		<tag k="ssr:stedsnr" v="156956" />
	</node>
	<node id="-561740" lat="62.2191615987" lon="5.93709922156">
		<tag k="fixme" v="consider place=hamlet" />
		<tag k="name" v="Berkneset" />
		<tag k="place" v="farm" />
		<tag k="ssr:stedsnr" v="146581" />
	</node>
	<node id="-561739" lat="61.9752749999" lon="6.11105554849">
		<tag k="historic" v="shieling" />
		<tag k="name" v="Stigedalssætra" />
		<tag k="place" v="locality" />
		<tag k="ssr:stedsnr" v="142301" />
	</node>
	<node id="-561737" lat="62.0433111126" lon="6.04668054906">
		<tag k="name" v="Øvre - Kile" />
		<tag k="place" v="farm" />
		<tag k="ssr:stedsnr" v="142280" />
	</node>
	<node id="-561735" lat="62.1717777741" lon="6.04187222731">
		<tag k="name" v="Furene" />
		<tag k="place" v="quarter" />
		<tag k="ssr:stedsnr" v="140133" />
	</node>
	<node id="-561731" lat="62.0672444434" lon="6.06522500351">
		<tag k="fixme" v="consider place=hamlet" />
		<tag k="name" v="Straume" />
		<tag k="place" v="farm" />
		<tag k="ssr:stedsnr" v="132930" />
	</node>
	<node id="-561730" lat="62.0697601002" lon="6.19704636219">
		<tag k="alt_name" v="Øysteberget" />
		<tag k="fixme" v="consider place=hamlet" />
		<tag k="name" v="Øvsteberget" />
		<tag k="place" v="farm" />
		<tag k="ssr:stedsnr" v="132926" />
	</node>
	<node id="-561729" lat="62.0737999978" lon="6.17159444059">
		<tag k="historic" v="shieling" />
		<tag k="name" v="Nesasætra" />
		<tag k="place" v="locality" />
		<tag k="ssr:stedsnr" v="132924" />
	</node>
	<node id="-561727" lat="62.0632961582" lon="6.21226434547">
		<tag k="fixme" v="consider place=hamlet" />
		<tag k="name" v="Høydalsdalen" />
		<tag k="place" v="farm" />
		<tag k="ssr:stedsnr" v="132899" />
	</node>
	<node id="-561726" lat="62.0468249255" lon="5.9434384776">
		<tag k="name" v="Byrkjestøylen" />
		<tag k="place" v="locality" />
		<tag k="ssr:stedsnr" v="132894" />
	</node>
	<node id="-561725" lat="62.1021388273" lon="6.15096463941">
		<tag k="alt_name" v="Vadstein" />
		<tag k="fixme" v="consider place=hamlet" />
		<tag k="name" v="Vassteinen" />
		<tag k="place" v="farm" />
		<tag k="ssr:stedsnr" v="132864" />
	</node>
	<node id="-561724" lat="62.1078362805" lon="6.05285627738">
		<tag k="name" v="Krumsvika" />
		<tag k="place" v="hamlet" />
		<tag k="ssr:stedsnr" v="132846" />
	</node>
	<node id="-561722" lat="62.0983441285" lon="6.17394190756">
		<tag k="fixme" v="consider place=hamlet" />
		<tag k="name" v="Reitane" />
		<tag k="place" v="farm" />
		<tag k="ssr:stedsnr" v="132822" />
	</node>
	<node id="-561718" lat="62.0673260878" lon="6.29170470154">
		<tag k="fixme" v="consider place=hamlet" />
		<tag k="name" v="Løfolla" />
		<tag k="place" v="farm" />
		<tag k="ssr:stedsnr" v="132641" />
	</node>
	<node id="-561715" lat="62.1653588533" lon="5.93712649082">
		<tag k="fixme" v="consider place=hamlet" />
		<tag k="name" v="Lauvstad" />
		<tag k="place" v="village" />
		<tag k="ssr:stedsnr" v="132028" />
	</node>
	<node id="-561714" lat="62.1614111132" lon="5.94317221341">
		<tag k="name" v="Bjørkvoll" />
		<tag k="place" v="farm" />
		<tag k="ssr:stedsnr" v="132027" />
	</node>
	<node id="-561712" lat="62.1721555543" lon="6.01470277372">
		<tag k="name" v="Haugen" />
		<tag k="place" v="farm" />
		<tag k="ssr:stedsnr" v="132012" />
	</node>
	<node id="-561710" lat="62.1103343132" lon="5.93750837738">
		<tag k="fixme" v="consider place=hamlet" />
		<tag k="name" v="Litlebøen" />
		<tag k="place" v="farm" />
		<tag k="ssr:stedsnr" v="131900" />
	</node>
	<node id="-561707" lat="62.1476414944" lon="6.1487083774">
		<tag k="fixme" v="consider place=hamlet" />
		<tag k="name" v="Nedrelida" />
		<tag k="place" v="farm" />
		<tag k="ssr:stedsnr" v="131841" />
	</node>
	<node id="-561704" lat="62.1168027753" lon="5.93765555107">
		<tag k="name" v="Myra" />
		<tag k="place" v="farm" />
		<tag k="ssr:stedsnr" v="131805" />
	</node>
	<node id="-561703" lat="62.1322254349" lon="5.96865366131">
		<tag k="name" v="Nautvika" />
		<tag k="place" v="hamlet" />
		<tag k="ssr:stedsnr" v="131780" />
	</node>
	<node id="-561701" lat="62.0918454592" lon="6.23256439507">
		<tag k="fixme" v="consider place=hamlet" />
		<tag k="name" v="Ullaland" />
		<tag k="place" v="farm" />
		<tag k="ssr:stedsnr" v="131656" />
	</node>
	<node id="-561695" lat="62.1235694467" lon="5.93964166891">
		<tag k="name" v="Dravlaus" />
		<tag k="place" v="hamlet" />
		<tag k="ssr:stedsnr" v="115160" />
	</node>
	<node id="-561680" lat="62.1502750028" lon="5.94142223112">
		<tag k="alt_name" v="Setre" />
		<tag k="name" v="Sætre" />
		<tag k="place" v="farm" />
		<tag k="ssr:stedsnr" v="104692" />
	</node>
	<node id="-561678" lat="62.1327861148" lon="6.1168416644">
		<tag k="historic" v="shieling" />
		<tag k="name" v="Gamlesætra" />
		<tag k="place" v="locality" />
		<tag k="ssr:stedsnr" v="104670" />
	</node>
	<node id="-561664" lat="62.1226242129" lon="6.021861803">
		<tag k="fixme" v="consider place=hamlet" />
		<tag k="name" v="Kongsvoll" />
		<tag k="place" v="farm" />
		<tag k="ssr:stedsnr" v="104545" />
	</node>
	<node id="-561656" lat="62.0568444414" lon="6.26169999571">
		<tag k="historic" v="shieling" />
		<tag k="name" v="Håvikseter" />
		<tag k="place" v="locality" />
		<tag k="ssr:stedsnr" v="104273" />
	</node>
	<node id="-560890" lat="62.0065472187" lon="6.04678332517">
		<tag k="name" v="Søre Bjørkedalen" />
		<tag k="place" v="farm" />
		<tag k="ssr:stedsnr" v="282915" />
	</node>
	<node id="-561615" lat="62.1514527793" lon="6.12963888046">
		<tag k="name" v="Fransplassen" />
		<tag k="place" v="farm" />
		<tag k="ssr:stedsnr" v="96898" />
	</node>
	<node id="-561614" lat="62.0562035314" lon="6.31772525694">
		<tag k="fixme" v="consider place=hamlet" />
		<tag k="name" v="Sunndalsåsen" />
		<tag k="place" v="farm" />
		<tag k="ssr:stedsnr" v="96890" />
	</node>
	<node id="-561613" lat="62.0543783971" lon="6.32435525338">
		<tag k="fixme" v="consider place=hamlet" />
		<tag k="name" v="Sunndalsfolla" />
		<tag k="place" v="farm" />
		<tag k="ssr:stedsnr" v="96886" />
	</node>
	<node id="-561610" lat="62.1495638876" lon="6.1172111038">
		<tag k="name" v="Kriken" />
		<tag k="place" v="farm" />
		<tag k="ssr:stedsnr" v="96966" />
	</node>
	<node id="-561609" lat="62.1507944435" lon="6.12324721862">
		<tag k="name" v="Hagen" />
		<tag k="place" v="farm" />
		<tag k="ssr:stedsnr" v="96965" />
	</node>
	<node id="-561593" lat="62.0025777671" lon="5.85275203098">
		<tag k="fixme" v="consider place=hamlet" />
		<tag k="name" v="Steinsvika" />
		<tag k="place" v="farm" />
		<tag k="ssr:stedsnr" v="85854" />
	</node>
	<node id="-561588" lat="62.0478444408" lon="6.07984166764">
		<tag k="historic" v="shieling" />
		<tag k="name" v="Heida" />
		<tag k="place" v="locality" />
		<tag k="ssr:stedsnr" v="72887" />
	</node>
	<node id="-561587" lat="62.0512916664" lon="6.28171389375">
		<tag k="historic" v="shieling" />
		<tag k="name" v="Skinnviksætra" />
		<tag k="place" v="locality" />
		<tag k="ssr:stedsnr" v="72710" />
	</node>
	<node id="-561586" lat="62.0520210922" lon="6.3354624814">
		<tag k="fixme" v="consider place=hamlet" />
		<tag k="name" v="Engjaberget" />
		<tag k="place" v="farm" />
		<tag k="ssr:stedsnr" v="72711" />
	</node>
	<node id="-561585" lat="62.0455416643" lon="6.22475278346">
		<tag k="historic" v="shieling" />
		<tag k="name" v="Langedalssætra" />
		<tag k="place" v="locality" />
		<tag k="ssr:stedsnr" v="72703" />
	</node>
	<node id="-561582" lat="62.1646861074" lon="6.0228749959">
		<tag k="alt_name" v="Ryde" />
		<tag k="name" v="Rydet" />
		<tag k="place" v="farm" />
		<tag k="ssr:stedsnr" v="72048" />
	</node>
	<node id="-561580" lat="62.1797416669" lon="6.03505833273">
		<tag k="name" v="Gjøsstøylen" />
		<tag k="place" v="farm" />
		<tag k="ssr:stedsnr" v="72031" />
	</node>
	<node id="-561579" lat="62.1712719645" lon="5.9351789564">
		<tag k="fixme" v="consider place=hamlet" />
		<tag k="name" v="Torvika" />
		<tag k="place" v="farm" />
		<tag k="ssr:stedsnr" v="72022" />
	</node>
	<node id="-561577" lat="62.0052249959" lon="6.03926667173">
		<tag k="name" v="Vonheim" />
		<tag k="place" v="farm" />
		<tag k="ssr:stedsnr" v="71974" />
	</node>
	<node id="-561573" lat="62.0699694429" lon="5.89849999874">
		<tag k="name" v="Nyheim" />
		<tag k="place" v="isolated_dwelling" />
		<tag k="ssr:stedsnr" v="71934" />
	</node>
	<node id="-561560" lat="62.0655141645" lon="6.28029736935">
		<tag k="fixme" v="consider place=hamlet" />
		<tag k="name" v="Slåttelida" />
		<tag k="place" v="farm" />
		<tag k="ssr:stedsnr" v="71767" />
	</node>
	<node id="-561559" lat="62.051577782" lon="6.34946943831">
		<tag k="historic" v="shieling" />
		<tag k="name" v="Gjersdalssætra" />
		<tag k="place" v="locality" />
		<tag k="ssr:stedsnr" v="71740" />
	</node>
	<node id="-561558" lat="62.0368972187" lon="6.34363332746">
		<tag k="historic" v="shieling" />
		<tag k="name" v="Haralddalssætra" />
		<tag k="place" v="locality" />
		<tag k="ssr:stedsnr" v="71737" />
	</node>
	<node id="-561556" lat="62.210877776" lon="5.95962222063">
		<tag k="name" v="Lystad" />
		<tag k="place" v="farm" />
		<tag k="ssr:stedsnr" v="71085" />
	</node>
	<node id="-561555" lat="62.1820861118" lon="5.86140277584">
		<tag k="historic" v="shieling" />
		<tag k="name" v="Velsviksætra" />
		<tag k="place" v="locality" />
		<tag k="ssr:stedsnr" v="71007" />
	</node>
	<node id="-561554" lat="62.1843174645" lon="5.91789116682">
		<tag k="fixme" v="consider place=hamlet" />
		<tag k="name" v="Tilset" />
		<tag k="place" v="farm" />
		<tag k="ssr:stedsnr" v="71006" />
	</node>
	<node id="-561553" lat="62.1182694402" lon="5.93812222526">
		<tag k="alt_name" v="Myren" />
		<tag k="name" v="Lisjemyra" />
		<tag k="place" v="farm" />
		<tag k="ssr:stedsnr" v="55449" />
	</node>
	<node id="-561523" lat="62.1357222221" lon="5.96653332552">
		<tag k="name" v="Ytre Nautvika" />
		<tag k="place" v="farm" />
		<tag k="ssr:stedsnr" v="43507" />
	</node>
	<node id="-561516" lat="62.0932741249" lon="5.96287395183">
		<tag k="alt_name" v="Rossetvik" />
		<tag k="fixme" v="consider place=hamlet" />
		<tag k="name" v="Rossetvikane" />
		<tag k="place" v="farm" />
		<tag k="ssr:stedsnr" v="43460" />
	</node>
	<node id="-561506" lat="62.0561805531" lon="6.27299721317">
		<tag k="historic" v="shieling" />
		<tag k="name" v="Botnastølen" />
		<tag k="place" v="locality" />
		<tag k="ssr:stedsnr" v="43347" />
	</node>
	<node id="-561493" lat="62.1760333369" lon="5.91750277827">
		<tag k="historic" v="shieling" />
		<tag k="name" v="Torviksetra" />
		<tag k="place" v="locality" />
		<tag k="ssr:stedsnr" v="43037" />
	</node>
	<node id="-561484" lat="62.2014388932" lon="5.97871111899">
		<tag k="name" v="Einebakken" />
		<tag k="place" v="farm" />
		<tag k="ssr:stedsnr" v="42682" />
	</node>
	<node id="-561475" lat="62.1831027786" lon="6.0106666638">
		<tag k="historic" v="shieling" />
		<tag k="name" v="Nagestøylen" />
		<tag k="place" v="locality" />
		<tag k="ssr:stedsnr" v="35975" />
	</node>
	<node id="-561474" lat="62.0301749973" lon="6.39903055167">
		<tag k="name" v="Bøen" />
		<tag k="place" v="farm" />
		<tag k="ssr:stedsnr" v="35967" />
	</node>
	<node id="-561473" lat="62.040815768" lon="6.40891361789">
		<tag k="fixme" v="consider place=hamlet" />
		<tag k="name" v="Kalvassvik" />
		<tag k="place" v="farm" />
		<tag k="ssr:stedsnr" v="35966" />
	</node>
	<node id="-561462" lat="62.1493583329" lon="6.14669443916">
		<tag k="name" v="Lidabakkane" />
		<tag k="place" v="farm" />
		<tag k="ssr:stedsnr" v="35889" />
	</node>
	<node id="-561461" lat="62.0344194418" lon="6.41231943573">
		<tag k="name" v="Nørekalvatn" />
		<tag k="place" v="farm" />
		<tag k="ssr:stedsnr" v="35663" />
	</node>
	<node id="-561454" lat="62.1372023394" lon="6.13703228973">
		<tag k="name" v="Holen" />
		<tag k="place" v="farm" />
		<tag k="ssr:stedsnr" v="28918" />
	</node>
	<node id="-561446" lat="62.0062527791" lon="6.0494222176">
		<tag k="name" v="Jogarden" />
		<tag k="place" v="farm" />
		<tag k="ssr:stedsnr" v="21328" />
	</node>
	<node id="-561442" lat="62.0044138932" lon="6.1227750027">
		<tag k="fixme" v="multiple name tags, choose one and add the other to alt_name" />
		<tag k="historic" v="shieling" />
		<tag k="name" v="Fladalssetra;Flatdalssætra" />
		<tag k="place" v="locality" />
		<tag k="ssr:stedsnr" v="11963" />
	</node>
	<node id="-561441" lat="62.0771694454" lon="5.88906666578">
		<tag k="historic" v="shieling" />
		<tag k="name" v="Hovlida" />
		<tag k="place" v="locality" />
		<tag k="ssr:stedsnr" v="11913" />
	</node>
	<node id="-561440" lat="62.0728755756" lon="6.10048959953">
		<tag k="fixme" v="consider place=hamlet" />
		<tag k="name" v="Bjørneset" />
		<tag k="place" v="farm" />
		<tag k="ssr:stedsnr" v="11910" />
	</node>
	<node id="-561438" lat="62.055689628" lon="6.08619312944">
		<tag k="alt_name" v="Store botn" />
		<tag k="fixme" v="multiple name tags, choose one and add the other to alt_name; consider place=hamlet" />
		<tag k="name" v="Botnen;Storebotnen" />
		<tag k="place" v="farm" />
		<tag k="ssr:stedsnr" v="11889" />
	</node>
	<node id="-561432" lat="62.032149996" lon="6.39809166312">
		<tag k="name" v="Sørekalvatn" />
		<tag k="place" v="farm" />
		<tag k="ssr:stedsnr" v="11699" />
	</node>
	<node id="-561428" lat="62.1631706752" lon="5.91839667789">
		<tag k="fixme" v="consider place=hamlet" />
		<tag k="name" v="Haugen" />
		<tag k="place" v="farm" />
		<tag k="ssr:stedsnr" v="11026" />
	</node>
	<node id="-561427" lat="62.1807361075" lon="5.88115000666">
		<tag k="historic" v="shieling" />
		<tag k="name" v="Koppesætra" />
		<tag k="place" v="locality" />
		<tag k="ssr:stedsnr" v="11006" />
	</node>
	<node id="-561426" lat="62.0156972203" lon="5.81768888605">
		<tag k="historic" v="shieling" />
		<tag k="name" v="Dansen" />
		<tag k="place" v="locality" />
		<tag k="ssr:stedsnr" v="10988" />
	</node>
	<node id="-561421" lat="62.0110427462" lon="5.84403905788">
		<tag k="alt_name" v="Ytre Åmelfot;Åmelfoten" />
		<tag k="fixme" v="consider place=hamlet" />
		<tag k="name" v="Ytre Åmelfoten" />
		<tag k="place" v="farm" />
		<tag k="ssr:stedsnr" v="10943" />
	</node>
	<node id="-561419" lat="62.1033357042" lon="6.14158142352">
		<tag k="fixme" v="consider place=hamlet" />
		<tag k="name" v="Homborset" />
		<tag k="place" v="farm" />
		<tag k="ssr:stedsnr" v="10880" />
	</node>
	<node id="-561418" lat="62.0996444457" lon="6.05089722114">
		<tag k="historic" v="shieling" />
		<tag k="name" v="Krumsviksætra" />
		<tag k="place" v="locality" />
		<tag k="ssr:stedsnr" v="10875" />
	</node>
	<node id="-561416" lat="62.1241601265" lon="5.94130559911">
		<tag k="alt_name" v="Dravlaus ytre;Dravlaus" />
		<tag k="fixme" v="consider place=hamlet" />
		<tag k="name" v="Ytre Dravlaus" />
		<tag k="place" v="farm" />
		<tag k="ssr:stedsnr" v="10797" />
	</node>
	<node id="-561415" lat="62.1183707621" lon="6.01450816814">
		<tag k="fixme" v="consider place=hamlet" />
		<tag k="name" v="Bjørnanakken" />
		<tag k="place" v="farm" />
		<tag k="ssr:stedsnr" v="10792" />
	</node>
	<node id="-561410" lat="62.1512027807" lon="5.94295276982">
		<tag k="fixme" v="multiple name tags, choose one and add the other to alt_name" />
		<tag k="name" v="Sætre;Nilsgarden" />
		<tag k="place" v="farm" />
		<tag k="ssr:stedsnr" v="10811" />
	</node>
	<node id="-561409" lat="62.0954999978" lon="6.27108888938">
		<tag k="historic" v="shieling" />
		<tag k="name" v="Årsetsætra" />
		<tag k="place" v="locality" />
		<tag k="ssr:stedsnr" v="10680" />
	</node>
	<node id="-561403" lat="61.9751388904" lon="6.11088889004">
		<tag k="name" v="Løsetsætra" />
		<tag k="place" v="isolated_dwelling" />
		<tag k="ssr:stedsnr" v="10249" />
	</node>
	<node id="-561401" lat="62.1804195005" lon="5.92135351716">
		<tag k="name" v="Gjøsdal" />
		<tag k="place" v="locality" />
		<tag k="ssr:stedsnr" v="983099" />
	</node>
	<node id="-561400" lat="62.1657233341" lon="5.94056614755">
		<tag k="fixme" v="consider place=hamlet" />
		<tag k="name" v="Lauvstad" />
		<tag k="place" v="farm" />
		<tag k="ssr:stedsnr" v="983093" />
	</node>
	<node id="-561399" lat="62.1216783552" lon="5.93939565844">
		<tag k="name" v="Dravlaus" />
		<tag k="place" v="hamlet" />
		<tag k="ssr:stedsnr" v="983079" />
	</node>
	<node id="-561398" lat="62.1181024676" lon="6.0264761963">
		<tag k="name" v="Folkestad" />
		<tag k="place" v="hamlet" />
		<tag k="ssr:stedsnr" v="983034" />
	</node>
	<node id="-561396" lat="62.2118704007" lon="5.96062714948">
		<tag k="name" v="Lid" />
		<tag k="place" v="hamlet" />
		<tag k="ssr:stedsnr" v="982921" />
	</node>
	<node id="-561385" lat="62.1695805514" lon="5.93108888182">
		<tag k="name" v="Ulvestad" />
		<tag k="place" v="hamlet" />
		<tag k="ssr:stedsnr" v="893932" />
	</node>
	<node id="-561356" lat="62.03780833" lon="5.8952638825">
		<tag k="historic" v="shieling" />
		<tag k="name" v="Dalsgjerde" />
		<tag k="place" v="locality" />
		<tag k="ssr:stedsnr" v="893325" />
	</node>
	<node id="-561337" lat="62.0983927229" lon="6.16824475113">
		<tag k="fixme" v="consider place=hamlet" />
		<tag k="name" v="Åsen" />
		<tag k="place" v="farm" />
		<tag k="ssr:stedsnr" v="893077" />
	</node>
	<node id="-561336" lat="62.2077527753" lon="5.9762333275">
		<tag k="name" v="Gjerdet" />
		<tag k="place" v="farm" />
		<tag k="ssr:stedsnr" v="892711" />
	</node>
	<node id="-561324" lat="62.0687055511" lon="6.20182499104">
		<tag k="name" v="Berg" />
		<tag k="place" v="farm" />
		<tag k="ssr:stedsnr" v="890712" />
	</node>
	<node id="-561323" lat="62.1084444467" lon="6.12735555142">
		<tag k="name" v="Løvik" />
		<tag k="place" v="isolated_dwelling" />
		<tag k="ssr:stedsnr" v="890484" />
	</node>
	<node id="-561320" lat="62.147866663" lon="6.10690554725">
		<tag k="name" v="Heltnesundet" />
		<tag k="place" v="farm" />
		<tag k="ssr:stedsnr" v="885970" />
	</node>
	<node id="-561319" lat="62.1502527762" lon="6.10989444122">
		<tag k="name" v="Plassen" />
		<tag k="place" v="farm" />
		<tag k="ssr:stedsnr" v="885963" />
	</node>
	<node id="-561318" lat="62.1577555592" lon="6.13000278042">
		<tag k="alt_name" v="Bergs-sætra" />
		<tag k="historic" v="shieling" />
		<tag k="name" v="Bergssætra" />
		<tag k="place" v="locality" />
		<tag k="ssr:stedsnr" v="885961" />
	</node>
	<node id="-561299" lat="61.9694777742" lon="6.01949444397">
		<tag k="historic" v="shieling" />
		<tag k="name" v="Ossetra" />
		<tag k="place" v="locality" />
		<tag k="ssr:stedsnr" v="408936" />
	</node>
	<node id="-561298" lat="62.0591638884" lon="5.92953055341">
		<tag k="name" v="Brune" />
		<tag k="place" v="farm" />
		<tag k="ssr:stedsnr" v="408935" />
	</node>
	<node id="-561280" lat="62.0502472187" lon="6.06921389522">
		<tag k="historic" v="shieling" />
		<tag k="name" v="Liasetra" />
		<tag k="place" v="locality" />
		<tag k="ssr:stedsnr" v="407721" />
	</node>
	<node id="-561263" lat="62.1163944408" lon="6.02379721514">
		<tag k="name" v="Holte" />
		<tag k="place" v="farm" />
		<tag k="ssr:stedsnr" v="407601" />
	</node>
	<node id="-561262" lat="62.1236055579" lon="6.01786666002">
		<tag k="alt_name" v="Folkestadås" />
		<tag k="name" v="Folkestadåsen" />
		<tag k="place" v="farm" />
		<tag k="ssr:stedsnr" v="407596" />
	</node>
	<node id="-561248" lat="62.0095972182" lon="5.84373333708">
		<tag k="alt_name" v="Indre Åmelfot;Åmelfot;Åmelfoten" />
		<tag k="fixme" v="consider place=hamlet" />
		<tag k="name" v="Indre Åmelfoten" />
		<tag k="place" v="farm" />
		<tag k="ssr:stedsnr" v="407383" />
	</node>
	<node id="-561245" lat="62.070124998" lon="5.89979722211">
		<tag k="amenity" v="school" />
		<tag k="name" v="Innselset skole" />
		<tag k="ssr:stedsnr" v="407347" />
	</node>
	<node id="-561238" lat="62.0698194405" lon="6.21256945234">
		<tag k="historic" v="shieling" />
		<tag k="name" v="Midtgardseter" />
		<tag k="place" v="locality" />
		<tag k="ssr:stedsnr" v="407291" />
	</node>
	<node id="-561230" lat="62.0987092404" lon="6.17289318027">
		<tag k="name" v="Reite" />
		<tag k="place" v="farm" />
		<tag k="ssr:stedsnr" v="407083" />
	</node>
	<node id="-561217" lat="62.146513887" lon="6.1392972298">
		<tag k="name" v="Kleppen" />
		<tag k="place" v="farm" />
		<tag k="ssr:stedsnr" v="399976" />
	</node>
	<node id="-561216" lat="62.1370222258" lon="6.14975278525">
		<tag k="historic" v="shieling" />
		<tag k="name" v="Skinstøylen" />
		<tag k="place" v="locality" />
		<tag k="ssr:stedsnr" v="399966" />
	</node>
	<node id="-561211" lat="62.1483666649" lon="6.10258054815">
		<tag k="name" v="Hammaren" />
		<tag k="place" v="farm" />
		<tag k="ssr:stedsnr" v="399926" />
	</node>
	<node id="-563257" lat="61.9980516038" lon="6.39353047705">
		<tag k="fixme" v="consider tourism=alpine_hut or tourism=chalet" />
		<tag k="name" v="Glimmerdalshytta" />
		<tag k="ssr:stedsnr" v="975481" />
		<tag k="tourism" v="wilderness_hut" />
	</node>
	<node id="-563254" lat="62.0605472246" lon="6.08818332388">
		<tag k="name" v="Lisjebakken" />
		<tag k="place" v="farm" />
		<tag k="ssr:stedsnr" v="966147" />
	</node>
	<node id="-563253" lat="62.1163933247" lon="5.9398100209">
		<tag k="alt_name" v="Dravlaus indre" />
		<tag k="fixme" v="consider place=hamlet" />
		<tag k="name" v="Indre Dravlaus" />
		<tag k="place" v="farm" />
		<tag k="ssr:stedsnr" v="965131" />
	</node>
	<node id="-563250" lat="62.0390444481" lon="5.94761666836">
		<tag k="historic" v="shieling" />
		<tag k="name" v="Brunesetra" />
		<tag k="place" v="locality" />
		<tag k="ssr:stedsnr" v="954925" />
	</node>
	<node id="-561199" lat="62.1440777766" lon="6.0807972217">
		<tag k="name" v="Sagebakken" />
		<tag k="place" v="farm" />
		<tag k="ssr:stedsnr" v="399010" />
	</node>
	<node id="-561182" lat="62.038080555" lon="6.41357500601">
		<tag k="name" v="Nørekalvatn" />
		<tag k="place" v="hamlet" />
		<tag k="ssr:stedsnr" v="384176" />
	</node>
	<node id="-563226" lat="62.1145913428" lon="6.03126420549">
		<tag k="alt_name" v="Folkestad indre" />
		<tag k="fixme" v="consider place=hamlet" />
		<tag k="name" v="Indre Folkestad" />
		<tag k="place" v="farm" />
		<tag k="ssr:stedsnr" v="953404" />
	</node>
	<node id="-561177" lat="62.0406805598" lon="5.89961110162">
		<tag k="name" v="Litleneset" />
		<tag k="place" v="farm" />
		<tag k="ssr:stedsnr" v="375976" />
	</node>
	<node id="-561174" lat="62.0627055547" lon="6.06859167224">
		<tag k="name" v="Brauta" />
		<tag k="place" v="farm" />
		<tag k="ssr:stedsnr" v="375870" />
	</node>
	<node id="-563217" lat="62.0647680986" lon="5.92623209315">
		<tag k="fixme" v="consider place=hamlet" />
		<tag k="name" v="Ytre Dale" />
		<tag k="old_name" v="Dale-ytre" />
		<tag k="place" v="farm" />
		<tag k="ssr:stedsnr" v="953311" />
	</node>
	<node id="-561166" lat="62.0098361142" lon="6.0414750015">
		<tag k="name" v="Trondebakken" />
		<tag k="place" v="farm" />
		<tag k="ssr:stedsnr" v="374974" />
	</node>
	<node id="-561164" lat="62.0194416631" lon="6.05958333797">
		<tag k="name" v="Byrkjely" />
		<tag k="place" v="farm" />
		<tag k="ssr:stedsnr" v="374962" />
	</node>
	<node id="-561161" lat="62.0717527796" lon="5.90105556455">
		<tag k="name" v="Hatlen" />
		<tag k="place" v="farm" />
		<tag k="ssr:stedsnr" v="374922" />
	</node>
	<node id="-561159" lat="62.0569805544" lon="5.92790833623">
		<tag k="name" v="Haukåsen" />
		<tag k="place" v="farm" />
		<tag k="ssr:stedsnr" v="374901" />
	</node>
</osm>
