<?xml version="1.0" encoding="UTF-8"?>
<osm generator="osmapis" version="0.6">
	<node id="-562168" lat="62.0833694465" lon="6.26350278596">
		<tag k="fixme" v="verify maritime location" />
		<tag k="mooring" v="yes" />
		<tag k="name" v="Trongstøa" />
		<tag k="place" v="locality" />
		<tag k="ssr:stedsnr" v="891630" />
	</node>
	<node id="-563695" lat="62.0760111129" lon="6.31670833687">
		<tag k="bridge" v="yes" />
		<tag k="layer" v="1" />
		<tag k="name" v="Geitvikbrua" />
		<tag k="ssr:stedsnr" v="755774" />
	</node>
	<node id="-563694" lat="62.0619027795" lon="6.32756388625">
		<tag k="bridge" v="yes" />
		<tag k="layer" v="1" />
		<tag k="name" v="Fyrdsbrua" />
		<tag k="ssr:stedsnr" v="755770" />
	</node>
	<node id="-563693" lat="62.0743305546" lon="6.21133610317">
		<tag k="bridge" v="yes" />
		<tag k="layer" v="1" />
		<tag k="name" v="Høydalsbrua" />
		<tag k="ssr:stedsnr" v="755764" />
	</node>
	<node id="-563692" lat="62.1457777789" lon="6.08778610625">
		<tag k="bridge" v="yes" />
		<tag k="layer" v="1" />
		<tag k="name" v="Mylnebrua" />
		<tag k="ssr:stedsnr" v="755758" />
	</node>
	<node id="-563691" lat="62.0358222198" lon="5.88622223019">
		<tag k="bridge" v="yes" />
		<tag k="layer" v="1" />
		<tag k="name" v="Eidsetbrua" />
		<tag k="ssr:stedsnr" v="755727" />
	</node>
	<node id="-563690" lat="61.9795999966" lon="6.31088333259">
		<tag k="bridge" v="yes" />
		<tag k="layer" v="1" />
		<tag k="name" v="Grøndalsbrua" />
		<tag k="ssr:stedsnr" v="755721" />
	</node>
	<node id="-563689" lat="62.1469027814" lon="6.12380277541">
		<tag k="bridge" v="yes" />
		<tag k="layer" v="1" />
		<tag k="name" v="Rotevassgangbrua" />
		<tag k="ssr:stedsnr" v="755717" />
	</node>
	<node id="-563688" lat="62.1322083337" lon="5.93786111867">
		<tag k="bridge" v="yes" />
		<tag k="layer" v="1" />
		<tag k="name" v="Dalsbygdbrua" />
		<tag k="ssr:stedsnr" v="755718" />
	</node>
	<node id="-563687" lat="62.0034805564" lon="6.05058612015">
		<tag k="bridge" v="yes" />
		<tag k="layer" v="1" />
		<tag k="name" v="Elviksbrua" />
		<tag k="ssr:stedsnr" v="755652" />
	</node>
	<node id="-563686" lat="61.9995138863" lon="6.05816388645">
		<tag k="bridge" v="yes" />
		<tag k="layer" v="1" />
		<tag k="name" v="Aurstadbrua" />
		<tag k="ssr:stedsnr" v="755642" />
	</node>
	<node id="-563681" lat="62.1195777798" lon="6.09745278495">
		<tag k="layer" v="-1" />
		<tag k="name" v="Rotsethorntunnelen" />
		<tag k="ssr:stedsnr" v="748475" />
		<tag k="tunnel" v="yes" />
	</node>
	<node id="-562142" lat="62.1400749984" lon="6.07502222023">
		<tag k="man_made" v="quay" />
		<tag k="name" v="Garvarbryggja" />
		<tag k="place" v="locality" />
		<tag k="ssr:stedsnr" v="885011" />
	</node>
	<node id="-562640" lat="62.1068999997" lon="6.01723888672">
		<tag k="ford" v="yes" />
		<tag k="name" v="Tvervadet" />
		<tag k="place" v="locality" />
		<tag k="ssr:stedsnr" v="164439" />
	</node>
	<node id="-562122" lat="62.045849999" lon="6.07437221421">
		<tag k="highway" v="path" />
		<tag k="name" v="Trollstiga" />
		<tag k="ssr:stedsnr" v="407722" />
	</node>
	<node id="-562608" lat="62.1715194479" lon="6.04449167572">
		<tag k="layer" v="-1" />
		<tag k="name" v="Furetunnelen" />
		<tag k="ssr:stedsnr" v="160401" />
		<tag k="tunnel" v="yes" />
	</node>
	<node id="-562593" lat="62.1916166641" lon="5.86425000488">
		<tag k="ford" v="yes" />
		<tag k="name" v="Dyrevadet" />
		<tag k="place" v="locality" />
		<tag k="ssr:stedsnr" v="151821" />
	</node>
	<node id="-563101" lat="62.1440388896" lon="6.15553889232">
		<tag k="bridge" v="yes" />
		<tag k="layer" v="1" />
		<tag k="name" v="Storebrua" />
		<tag k="ssr:stedsnr" v="520912" />
	</node>
	<node id="-563100" lat="62.1442666685" lon="6.06472499745">
		<tag k="amenity" v="ferry_terminal" />
		<tag k="name" v="Volda ferjekai" />
		<tag k="ssr:stedsnr" v="520317" />
	</node>
	<node id="-562587" lat="62.0760583375" lon="6.23162500369">
		<tag k="layer" v="-1" />
		<tag k="name" v="Høydalstunnelen" />
		<tag k="ssr:stedsnr" v="148777" />
		<tag k="tunnel" v="yes" />
	</node>
	<node id="-562586" lat="62.0929527798" lon="5.91902221431">
		<tag k="bridge" v="yes" />
		<tag k="layer" v="1" />
		<tag k="name" v="Fosselvbrua" />
		<tag k="ssr:stedsnr" v="148749" />
	</node>
	<node id="-562585" lat="61.9951472238" lon="6.36081388065">
		<tag k="bridge" v="yes" />
		<tag k="layer" v="1" />
		<tag k="name" v="Osdalsbrua" />
		<tag k="ssr:stedsnr" v="148731" />
	</node>
	<node id="-562584" lat="62.1186722241" lon="6.03278332779">
		<tag k="bridge" v="yes" />
		<tag k="layer" v="1" />
		<tag k="name" v="Folkestadbrua" />
		<tag k="ssr:stedsnr" v="148683" />
	</node>
	<node id="-562583" lat="62.0877138846" lon="6.25768611179">
		<tag k="layer" v="-1" />
		<tag k="name" v="Årsettunnelen" />
		<tag k="ssr:stedsnr" v="148673" />
		<tag k="tunnel" v="yes" />
	</node>
	<node id="-563090" lat="62.1956305538" lon="5.86792221973">
		<tag k="bridge" v="yes" />
		<tag k="layer" v="1" />
		<tag k="name" v="Velsvikbrua" />
		<tag k="ssr:stedsnr" v="512781" />
	</node>
	<node id="-563089" lat="62.085769446" lon="5.91413611663">
		<tag k="layer" v="-1" />
		<tag k="name" v="Ljoselvoverbygget" />
		<tag k="ssr:stedsnr" v="512752" />
		<tag k="tunnel" v="yes" />
	</node>
	<node id="-563088" lat="62.041244448" lon="6.42214721819">
		<tag k="bridge" v="yes" />
		<tag k="layer" v="1" />
		<tag k="name" v="Stigebrua" />
		<tag k="ssr:stedsnr" v="512741" />
	</node>
	<node id="-563087" lat="62.1469833346" lon="6.12389722474">
		<tag k="bridge" v="yes" />
		<tag k="layer" v="1" />
		<tag k="name" v="Gamle Rotevassbrua" />
		<tag k="ssr:stedsnr" v="512734" />
	</node>
	<node id="-563592" lat="62.1494777797" lon="5.88793610962">
		<tag k="ford" v="yes" />
		<tag k="name" v="Krokvadet" />
		<tag k="place" v="locality" />
		<tag k="ssr:stedsnr" v="710846" />
	</node>
	<node id="-563591" lat="62.1990361118" lon="5.86289721806">
		<tag k="man_made" v="quay" />
		<tag k="name" v="Velsvik kai" />
		<tag k="place" v="locality" />
		<tag k="ssr:stedsnr" v="710844" />
	</node>
	<node id="-564097" lat="62.0613749987" lon="6.35122222535">
		<tag k="layer" v="-1" />
		<tag k="name" v="Damfosstunnelen" />
		<tag k="ssr:stedsnr" v="966922" />
		<tag k="tunnel" v="yes" />
	</node>
	<node id="-562037" lat="62.1751777746" lon="6.04885832735">
		<tag k="layer" v="-1" />
		<tag k="name" v="Morkaåstunnelen" />
		<tag k="ssr:stedsnr" v="395731" />
		<tag k="tunnel" v="yes" />
	</node>
	<node id="-562024" lat="62.0447027779" lon="5.90660554951">
		<tag k="layer" v="-1" />
		<tag k="name" v="Djupegjøloverbygget" />
		<tag k="ssr:stedsnr" v="391739" />
		<tag k="tunnel" v="yes" />
	</node>
	<node id="-563559" lat="62.1025277806" lon="6.18422500186">
		<tag k="layer" v="-1" />
		<tag k="name" v="Hjartåbergtunnelen" />
		<tag k="ssr:stedsnr" v="709513" />
		<tag k="tunnel" v="yes" />
	</node>
	<node id="-563034" lat="62.1433888852" lon="5.87149722033">
		<tag k="highway" v="path" />
		<tag k="name" v="Hornvegråsa" />
		<tag k="ssr:stedsnr" v="468865" />
	</node>
	<node id="-563544" lat="62.1177694413" lon="5.86360834159">
		<tag k="ford" v="yes" />
		<tag k="name" v="Vadet" />
		<tag k="place" v="locality" />
		<tag k="ssr:stedsnr" v="697324" />
	</node>
	<node id="-563536" lat="62.0956944455" lon="6.20893056237">
		<tag k="bridge" v="yes" />
		<tag k="layer" v="1" />
		<tag k="name" v="Hjartåbrua" />
		<tag k="ssr:stedsnr" v="694743" />
	</node>
	<node id="-563535" lat="62.0102000016" lon="5.8439444418">
		<tag k="bridge" v="yes" />
		<tag k="layer" v="1" />
		<tag k="name" v="Åmelfotbrua" />
		<tag k="ssr:stedsnr" v="694704" />
	</node>
	<node id="-563534" lat="62.1863138892" lon="5.98970832585">
		<tag k="layer" v="-1" />
		<tag k="name" v="Fossagjøloverbygget" />
		<tag k="ssr:stedsnr" v="694699" />
		<tag k="tunnel" v="yes" />
	</node>
	<node id="-563012" lat="62.0634083332" lon="6.24654165718">
		<tag k="highway" v="path" />
		<tag k="name" v="Daudenokvegen" />
		<tag k="ssr:stedsnr" v="468249" />
	</node>
	<node id="-564017" lat="62.0827000041" lon="5.91309721665">
		<tag k="layer" v="-1" />
		<tag k="name" v="Breidskjervfonnoverbygget" />
		<tag k="ssr:stedsnr" v="937758" />
		<tag k="tunnel" v="yes" />
	</node>
	<node id="-564016" lat="62.0044277739" lon="5.84871665979">
		<tag k="bridge" v="yes" />
		<tag k="layer" v="1" />
		<tag k="name" v="Steinsvikbrua" />
		<tag k="ssr:stedsnr" v="937751" />
	</node>
	<node id="-564015" lat="62.0170999969" lon="6.03865000734">
		<tag k="layer" v="-1" />
		<tag k="name" v="Breidefonnoverbygget" />
		<tag k="ssr:stedsnr" v="937697" />
		<tag k="tunnel" v="yes" />
	</node>
	<node id="-564014" lat="62.1018722245" lon="6.17371666517">
		<tag k="layer" v="-1" />
		<tag k="name" v="Reiteskredoverbygget" />
		<tag k="ssr:stedsnr" v="937678" />
		<tag k="tunnel" v="yes" />
	</node>
	<node id="-564013" lat="62.1014166644" lon="6.18133611932">
		<tag k="layer" v="-1" />
		<tag k="name" v="Hjelledekkoverbygget" />
		<tag k="ssr:stedsnr" v="937676" />
		<tag k="tunnel" v="yes" />
	</node>
	<node id="-562981" lat="62.1096527769" lon="5.92654166398">
		<tag k="highway" v="path" />
		<tag k="name" v="Stigen" />
		<tag k="ssr:stedsnr" v="467121" />
	</node>
	<node id="-561953" lat="61.9846555513" lon="6.04286110479">
		<tag k="bridge" v="yes" />
		<tag k="layer" v="1" />
		<tag k="name" v="Langedalsbrua" />
		<tag k="ssr:stedsnr" v="347569" />
	</node>
	<node id="-562463" lat="62.1678416708" lon="6.03344166679">
		<tag k="junction" v="yes" />
		<tag k="name" v="Korsen" />
		<tag k="place" v="locality" />
		<tag k="ssr:stedsnr" v="96927" />
	</node>
	<node id="-562957" lat="62.1322083337" lon="5.93786111867">
		<tag k="bridge" v="yes" />
		<tag k="layer" v="1" />
		<tag k="name" v="Skrubbenesbrua" />
		<tag k="ssr:stedsnr" v="452732" />
	</node>
	<node id="-562439" lat="62.0604000036" lon="6.32601945314">
		<tag k="bridge" v="yes" />
		<tag k="layer" v="1" />
		<tag k="name" v="Reitebrua" />
		<tag k="ssr:stedsnr" v="88731" />
	</node>
	<node id="-562438" lat="62.0606222239" lon="6.29272776849">
		<tag k="bridge" v="yes" />
		<tag k="layer" v="1" />
		<tag k="name" v="Skinvikbrua" />
		<tag k="ssr:stedsnr" v="88729" />
	</node>
	<node id="-562437" lat="62.0660305593" lon="5.89631665767">
		<tag k="layer" v="-1" />
		<tag k="name" v="Vindgjøloverbygget" />
		<tag k="ssr:stedsnr" v="88686" />
		<tag k="tunnel" v="yes" />
	</node>
	<node id="-563971" lat="62.0267361134" lon="6.04186110247">
		<tag k="bridge" v="yes" />
		<tag k="layer" v="1" />
		<tag k="name" v="Vassendbrua" />
		<tag k="ssr:stedsnr" v="921943" />
	</node>
	<node id="-561917" lat="62.1345250008" lon="5.97178888635">
		<tag k="highway" v="path" />
		<tag k="name" v="Raudevegen" />
		<tag k="ssr:stedsnr" v="346549" />
	</node>
	<node id="-563956" lat="62.1452972194" lon="6.06184167213">
		<tag k="bridge" v="yes" />
		<tag k="layer" v="1" />
		<tag k="name" v="Voldsbrua" />
		<tag k="ssr:stedsnr" v="876771" />
	</node>
	<node id="-563955" lat="61.9995138863" lon="6.05816388645">
		<tag k="bridge" v="yes" />
		<tag k="layer" v="1" />
		<tag k="name" v="Øygardsbrua" />
		<tag k="ssr:stedsnr" v="876669" />
	</node>
	<node id="-563954" lat="62.1437333301" lon="6.07305833335">
		<tag k="bridge" v="yes" />
		<tag k="layer" v="1" />
		<tag k="name" v="Prestegardsbrua" />
		<tag k="ssr:stedsnr" v="876652" />
	</node>
	<node id="-561905" lat="62.0689388923" lon="6.17970277233">
		<tag k="highway" v="path" />
		<tag k="name" v="Stigen" />
		<tag k="ssr:stedsnr" v="346328" />
	</node>
	<node id="-561871" lat="62.1796888883" lon="6.0134388898">
		<tag k="ford" v="yes" />
		<tag k="name" v="Ellingsbruvadet" />
		<tag k="place" v="locality" />
		<tag k="ssr:stedsnr" v="338022" />
	</node>
	<node id="-561860" lat="62.0813000019" lon="5.91320000409">
		<tag k="bridge" v="yes" />
		<tag k="layer" v="1" />
		<tag k="name" v="Kroknesbrua" />
		<tag k="ssr:stedsnr" v="330765" />
	</node>
	<node id="-561859" lat="62.0957361114" lon="6.20888056341">
		<tag k="bridge" v="yes" />
		<tag k="layer" v="1" />
		<tag k="name" v="Ullalandsbrua" />
		<tag k="ssr:stedsnr" v="330745" />
	</node>
	<node id="-563394" lat="62.1201638901" lon="6.03296945312">
		<tag k="amenity" v="ferry_terminal" />
		<tag k="name" v="Folkestad ferjekai" />
		<tag k="ssr:stedsnr" v="641378" />
	</node>
	<node id="-563393" lat="62.2199583299" lon="5.94008056255">
		<tag k="layer" v="-1" />
		<tag k="name" v="Berknestunnelen" />
		<tag k="ssr:stedsnr" v="637708" />
		<tag k="tunnel" v="yes" />
	</node>
	<node id="-561855" lat="62.0953416676" lon="6.08386111505">
		<tag k="bridge" v="yes" />
		<tag k="layer" v="1" />
		<tag k="name" v="Mekbrua" />
		<tag k="ssr:stedsnr" v="88607" />
	</node>
	<node id="-563388" lat="62.0746666648" lon="6.20881389242">
		<tag k="bridge" v="yes" />
		<tag k="layer" v="1" />
		<tag k="name" v="Naustvegbrua" />
		<tag k="ssr:stedsnr" v="633786" />
	</node>
	<node id="-563387" lat="62.0578444402" lon="6.08597222456">
		<tag k="bridge" v="yes" />
		<tag k="layer" v="1" />
		<tag k="name" v="Botnabrua" />
		<tag k="ssr:stedsnr" v="633785" />
	</node>
	<node id="-563386" lat="62.0361527795" lon="6.41287778589">
		<tag k="bridge" v="yes" />
		<tag k="layer" v="1" />
		<tag k="name" v="Kalvassbrua" />
		<tag k="ssr:stedsnr" v="633741" />
	</node>
	<node id="-563385" lat="62.0311750027" lon="5.86030555386">
		<tag k="layer" v="-1" />
		<tag k="name" v="Skiftingsfonnoverbygget" />
		<tag k="ssr:stedsnr" v="633742" />
		<tag k="tunnel" v="yes" />
	</node>
	<node id="-562341" lat="62.091827776" lon="6.08040832547">
		<tag k="highway" v="path" />
		<tag k="name" v="Stigen" />
		<tag k="ssr:stedsnr" v="43169" />
	</node>
	<node id="-562838" lat="62.0695861145" lon="6.32263611599">
		<tag k="layer" v="-1" />
		<tag k="name" v="Fyrdsbergtunnelen" />
		<tag k="ssr:stedsnr" v="238914" />
		<tag k="tunnel" v="yes" />
	</node>
	<node id="-561858" lat="62.1993861123" lon="5.88336944853">
		<tag k="layer" v="-1" />
		<tag k="name" v="Voldshammartunnelen" />
		<tag k="ssr:stedsnr" v="324204" />
		<tag k="tunnel" v="yes" />
	</node>
	<node id="-561802" lat="61.9669388918" lon="6.01987778175">
		<tag k="ford" v="yes" />
		<tag k="name" v="Steinvadet" />
		<tag k="place" v="locality" />
		<tag k="ssr:stedsnr" v="286934" />
	</node>
	<node id="-563333" lat="62.052216664" lon="6.40430833232">
		<tag k="layer" v="-1" />
		<tag k="name" v="Eidsnakktunnelen" />
		<tag k="ssr:stedsnr" v="602913" />
		<tag k="tunnel" v="yes" />
	</node>
	<node id="-563839" lat="62.15570556" lon="6.08121389078">
		<tag k="highway" v="path" />
		<tag k="name" v="Snøydevegen" />
		<tag k="ssr:stedsnr" v="824016" />
	</node>
	<node id="-562302" lat="62.1554277808" lon="6.08573611415">
		<tag k="highway" v="path" />
		<tag k="name" v="Sætrevegen" />
		<tag k="ssr:stedsnr" v="35012" />
	</node>
	<node id="-563836" lat="62.1460444419" lon="6.0902805506">
		<tag k="bridge" v="yes" />
		<tag k="layer" v="1" />
		<tag k="name" v="Torvsælda" />
		<tag k="ssr:stedsnr" v="816779" />
	</node>
	<node id="-563835" lat="62.0127777751" lon="6.04033055091">
		<tag k="bridge" v="yes" />
		<tag k="layer" v="1" />
		<tag k="name" v="Sandviksbrua" />
		<tag k="ssr:stedsnr" v="816708" />
	</node>
	<node id="-563834" lat="62.0664611157" lon="6.06819167574">
		<tag k="bridge" v="yes" />
		<tag k="layer" v="1" />
		<tag k="name" v="Straumshamnbrua" />
		<tag k="ssr:stedsnr" v="816697" />
	</node>
	<node id="-562295" lat="62.0362249987" lon="6.41897499201">
		<tag k="layer" v="-1" />
		<tag k="name" v="Kvivstunnelen" />
		<tag k="ssr:stedsnr" v="28292" />
		<tag k="tunnel" v="yes" />
	</node>
	<node id="-562291" lat="62.0198999995" lon="6.03977500249">
		<tag k="layer" v="-1" />
		<tag k="name" v="Nedstefonnoverbygget" />
		<tag k="ssr:stedsnr" v="27683" />
		<tag k="tunnel" v="yes" />
	</node>
	<node id="-562290" lat="62.1083555584" lon="6.05233334208">
		<tag k="bridge" v="yes" />
		<tag k="layer" v="1" />
		<tag k="name" v="Krumsvikbrua" />
		<tag k="ssr:stedsnr" v="27677" />
	</node>
	<node id="-562289" lat="62.098155558" lon="6.19485832626">
		<tag k="bridge" v="yes" />
		<tag k="layer" v="1" />
		<tag k="name" v="Espenakkbrua" />
		<tag k="ssr:stedsnr" v="27668" />
	</node>
	<node id="-562794" lat="61.9957444426" lon="5.86903888418">
		<tag k="highway" v="path" />
		<tag k="name" v="Flogstigen" />
		<tag k="ssr:stedsnr" v="225387" />
	</node>
	<node id="-562770" lat="62.1613472187" lon="5.91916388096">
		<tag k="fixme" v="consider highway=path" />
		<tag k="highway" v="track" />
		<tag k="name" v="Dalevegen" />
		<tag k="ssr:stedsnr" v="225053" />
	</node>
	<node id="-563278" lat="62.1150416644" lon="6.12849166238">
		<tag k="highway" v="path" />
		<tag k="name" v="Gjølstigen" />
		<tag k="ssr:stedsnr" v="589097" />
	</node>
	<node id="-562223" lat="62.0637611081" lon="5.93224721545">
		<tag k="bridge" v="yes" />
		<tag k="layer" v="1" />
		<tag k="name" v="Kyrkjebrua" />
		<tag k="ssr:stedsnr" v="893898" />
	</node>
	<node id="-561709" lat="62.1648583376" lon="5.94244166714">
		<tag k="amenity" v="ferry_terminal" />
		<tag k="name" v="Lauvstad ferjekai" />
		<tag k="ssr:stedsnr" v="277302" />
	</node>
	<node id="-561703" lat="62.1800138921" lon="5.92473611495">
		<tag k="bridge" v="yes" />
		<tag k="layer" v="1" />
		<tag k="name" v="Gjøsdalsbrua" />
		<tag k="ssr:stedsnr" v="270745" />
	</node>
	<node id="-561702" lat="62.0668611109" lon="6.06704445013">
		<tag k="bridge" v="yes" />
		<tag k="layer" v="1" />
		<tag k="name" v="Straumselvbrua" />
		<tag k="ssr:stedsnr" v="270666" />
	</node>
	<node id="-562723" lat="62.1420083298" lon="6.08893333438">
		<tag k="bridge" v="yes" />
		<tag k="layer" v="1" />
		<tag k="name" v="Rotevassporten" />
		<tag k="ssr:stedsnr" v="209764" />
	</node>
	<node id="-563233" lat="62.1838722246" lon="5.91680833247">
		<tag k="bridge" v="yes" />
		<tag k="layer" v="1" />
		<tag k="name" v="Tilsetbrua" />
		<tag k="ssr:stedsnr" v="573748" />
	</node>
	<node id="-563232" lat="62.1693250005" lon="5.93098056448">
		<tag k="bridge" v="yes" />
		<tag k="layer" v="1" />
		<tag k="name" v="Ulvestadbrua" />
		<tag k="ssr:stedsnr" v="573745" />
	</node>
	<node id="-563231" lat="62.094069441" lon="5.92082222768">
		<tag k="bridge" v="yes" />
		<tag k="layer" v="1" />
		<tag k="name" v="Transelvbrua" />
		<tag k="ssr:stedsnr" v="573719" />
	</node>
	<node id="-563719" lat="62.124533331" lon="5.89631389547">
		<tag k="highway" v="path" />
		<tag k="name" v="Stigen" />
		<tag k="ssr:stedsnr" v="770192" />
	</node>
</osm>
