<?xml version="1.0" encoding="UTF-8"?>
<osm generator="osmapis" version="0.6">
	<node id="-562174" lat="62.0071999964" lon="6.12113612096">
		<tag k="name" v="Løken" />
		<tag k="natural" v="wetland" />
		<tag k="ssr:stedsnr" v="468475" />
	</node>
	<node id="-562168" lat="62.0839944444" lon="6.07492777982">
		<tag k="name" v="Mekurdene" />
		<tag k="natural" v="scree" />
		<tag k="ssr:stedsnr" v="468178" />
	</node>
	<node id="-563182" lat="62.0080833358" lon="5.77421666512">
		<tag k="name" v="Tåteurdene" />
		<tag k="natural" v="scree" />
		<tag k="ssr:stedsnr" v="941678" />
	</node>
	<node id="-561643" lat="62.1608333319" lon="5.91904999844">
		<tag k="name" v="Nymarka" />
		<tag k="place" v="locality" />
		<tag k="ssr:stedsnr" v="104039" />
	</node>
	<node id="-561638" lat="62.084983332" lon="6.00563055215">
		<tag k="name" v="Gossesteinane" />
		<tag k="natural" v="stone" />
		<tag k="ssr:stedsnr" v="103876" />
	</node>
	<node id="-561120" lat="62.0842333374" lon="6.30345276861">
		<tag k="name" v="Langesvadet" />
		<tag k="place" v="locality" />
		<tag k="ssr:stedsnr" v="347960" />
	</node>
	<node id="-561119" lat="62.090913887" lon="6.35593611897">
		<tag k="name" v="Nordalsmyrane" />
		<tag k="natural" v="wetland" />
		<tag k="ssr:stedsnr" v="347956" />
	</node>
	<node id="-561118" lat="62.0382555528" lon="5.96221667325">
		<tag k="name" v="Gråura" />
		<tag k="natural" v="scree" />
		<tag k="ssr:stedsnr" v="347946" />
	</node>
	<node id="-561109" lat="61.989694446" lon="6.28164443934">
		<tag k="name" v="Risbakkmyrane" />
		<tag k="natural" v="wetland" />
		<tag k="ssr:stedsnr" v="347113" />
	</node>
	<node id="-562643" lat="62.0101388899" lon="6.03484999481">
		<tag k="name" v="Breidemyra" />
		<tag k="natural" v="wetland" />
		<tag k="ssr:stedsnr" v="650984" />
	</node>
	<node id="-561617" lat="62.1478194439" lon="6.08877777129">
		<tag k="name" v="Røysmyrane" />
		<tag k="natural" v="wetland" />
		<tag k="ssr:stedsnr" v="96907" />
	</node>
	<node id="-562126" lat="62.0454555594" lon="6.38423610206">
		<tag k="name" v="Selsteinen" />
		<tag k="natural" v="stone" />
		<tag k="ssr:stedsnr" v="460914" />
	</node>
	<node id="-562125" lat="62.1739500003" lon="6.03038333205">
		<tag k="name" v="Langemyra" />
		<tag k="natural" v="wetland" />
		<tag k="ssr:stedsnr" v="460038" />
	</node>
	<node id="-561099" lat="62.1569055599" lon="5.90297222997">
		<tag k="name" v="Setregarden" />
		<tag k="place" v="locality" />
		<tag k="ssr:stedsnr" v="346823" />
	</node>
	<node id="-561097" lat="62.2097166669" lon="5.97355833873">
		<tag k="name" v="Lidamyrane" />
		<tag k="natural" v="wetland" />
		<tag k="ssr:stedsnr" v="346749" />
	</node>
	<node id="-562618" lat="62.038652781" lon="6.20944999241">
		<tag k="name" v="Gråurda" />
		<tag k="natural" v="scree" />
		<tag k="ssr:stedsnr" v="650010" />
	</node>
	<node id="-561591" lat="62.0208666627" lon="6.03484722201">
		<tag k="name" v="Nedstefonna" />
		<tag k="place" v="locality" />
		<tag k="ssr:stedsnr" v="81310" />
	</node>
	<node id="-562601" lat="62.1042611087" lon="6.22494721575">
		<tag k="name" v="Skinøyra" />
		<tag k="place" v="locality" />
		<tag k="ssr:stedsnr" v="649556" />
	</node>
	<node id="-561053" lat="62.1082361142" lon="6.15052222165">
		<tag k="name" v="Haukarsteinen" />
		<tag k="natural" v="stone" />
		<tag k="ssr:stedsnr" v="346094" />
	</node>
	<node id="-560878" lat="62.1708111132" lon="6.03859166737">
		<tag k="name" v="Morkafurene" />
		<tag k="place" v="locality" />
		<tag k="ssr:stedsnr" v="278933" />
	</node>
	<node id="-561042" lat="62.0698249989" lon="6.27496665825">
		<tag k="name" v="Storura" />
		<tag k="natural" v="scree" />
		<tag k="ssr:stedsnr" v="344721" />
	</node>
	<node id="-561549" lat="62.0807666696" lon="6.30463054995">
		<tag k="name" v="Instebøen" />
		<tag k="place" v="locality" />
		<tag k="ssr:stedsnr" v="43952" />
	</node>
	<node id="-561036" lat="62.1386805535" lon="6.09528333444">
		<tag k="name" v="Nygarden" />
		<tag k="place" v="locality" />
		<tag k="ssr:stedsnr" v="338930" />
	</node>
	<node id="-561035" lat="62.1457888887" lon="6.10264444815">
		<tag k="name" v="Gråten" />
		<tag k="place" v="locality" />
		<tag k="ssr:stedsnr" v="338927" />
	</node>
	<node id="-562568" lat="62.0694583353" lon="6.24516667206">
		<tag k="name" v="Lyngura" />
		<tag k="natural" v="scree" />
		<tag k="ssr:stedsnr" v="647714" />
	</node>
	<node id="-563078" lat="62.0530555579" lon="6.03988610512">
		<tag k="name" v="Groftamyrane" />
		<tag k="natural" v="wetland" />
		<tag k="ssr:stedsnr" v="833905" />
	</node>
	<node id="-562561" lat="62.1528388875" lon="6.08111945258">
		<tag k="name" v="Håmyra" />
		<tag k="natural" v="wetland" />
		<tag k="ssr:stedsnr" v="642919" />
	</node>
	<node id="-561023" lat="62.0225444426" lon="6.17898610368">
		<tag k="historic" v="shieling" />
		<tag k="name" v="Gamlestølen" />
		<tag k="place" v="locality" />
		<tag k="ssr:stedsnr" v="331387" />
	</node>
	<node id="-563054" lat="62.0265861143" lon="6.07711111299">
		<tag k="name" v="Skarsmyrane" />
		<tag k="natural" v="wetland" />
		<tag k="ssr:stedsnr" v="832686" />
	</node>
	<node id="-563052" lat="62.1584805535" lon="6.1543027707">
		<tag k="name" v="Revura" />
		<tag k="natural" v="scree" />
		<tag k="ssr:stedsnr" v="832598" />
	</node>
	<node id="-561468" lat="62.1659000013" lon="6.04362777223">
		<tag k="name" v="Kråvegane" />
		<tag k="place" v="locality" />
		<tag k="ssr:stedsnr" v="35915" />
	</node>
	<node id="-563044" lat="62.1270138888" lon="5.97472222453">
		<tag k="name" v="Gråura" />
		<tag k="natural" v="scree" />
		<tag k="ssr:stedsnr" v="832563" />
	</node>
	<node id="-563042" lat="62.097936115" lon="5.96557222715">
		<tag k="name" v="Sandgyløyra" />
		<tag k="place" v="locality" />
		<tag k="ssr:stedsnr" v="832544" />
	</node>
	<node id="-561466" lat="62.0422805521" lon="6.39041389091">
		<tag k="name" v="Rystekvia" />
		<tag k="place" v="locality" />
		<tag k="ssr:stedsnr" v="35901" />
	</node>
	<node id="-563027" lat="61.9954972235" lon="5.80860555109">
		<tag k="name" v="Kopnamyra" />
		<tag k="natural" v="wetland" />
		<tag k="ssr:stedsnr" v="832137" />
	</node>
	<node id="-561488" lat="62.0460944476" lon="6.04185833647">
		<tag k="name" v="Øyra" />
		<tag k="place" v="locality" />
		<tag k="ssr:stedsnr" v="42963" />
	</node>
	<node id="-561994" lat="62.118874998" lon="6.17776111164">
		<tag k="name" v="Skinøyra" />
		<tag k="place" v="locality" />
		<tag k="ssr:stedsnr" v="226798" />
	</node>
	<node id="-560963" lat="62.0529583293" lon="5.93494721563">
		<tag k="name" v="Holen" />
		<tag k="place" v="locality" />
		<tag k="ssr:stedsnr" v="286939" />
	</node>
	<node id="-561986" lat="62.0421138854" lon="5.9507972154">
		<tag k="name" v="Stormyra" />
		<tag k="natural" v="wetland" />
		<tag k="ssr:stedsnr" v="225971" />
	</node>
	<node id="-561985" lat="62.0103722191" lon="6.37175555033">
		<tag k="name" v="Telefonna" />
		<tag k="place" v="locality" />
		<tag k="ssr:stedsnr" v="225968" />
	</node>
	<node id="-561472" lat="62.1707500034" lon="6.01665000855">
		<tag k="name" v="Skitøya" />
		<tag k="natural" v="wetland" />
		<tag k="ssr:stedsnr" v="35953" />
	</node>
	<node id="-561471" lat="62.1964722244" lon="5.98138888262">
		<tag k="name" v="Sæmyrane" />
		<tag k="natural" v="wetland" />
		<tag k="ssr:stedsnr" v="35936" />
	</node>
	<node id="-563004" lat="62.1796361135" lon="6.00756110765">
		<tag k="name" v="Gråmyra" />
		<tag k="natural" v="wetland" />
		<tag k="ssr:stedsnr" v="824931" />
	</node>
	<node id="-561467" lat="62.0447527813" lon="6.43430554907">
		<tag k="name" v="Leitemarka" />
		<tag k="place" v="locality" />
		<tag k="ssr:stedsnr" v="35907" />
	</node>
	<node id="-563002" lat="62.056175001" lon="6.40698889297">
		<tag k="name" v="Fonnagjølet" />
		<tag k="place" v="locality" />
		<tag k="ssr:stedsnr" v="824913" />
	</node>
	<node id="-563001" lat="62.1510944464" lon="6.14985278439">
		<tag k="name" v="Kapalsteinen" />
		<tag k="natural" v="stone" />
		<tag k="ssr:stedsnr" v="824895" />
	</node>
	<node id="-560950" lat="62.1200694482" lon="6.1387166656">
		<tag k="name" v="Fonnane" />
		<tag k="place" v="locality" />
		<tag k="ssr:stedsnr" v="286689" />
	</node>
	<node id="-561455" lat="62.0125555516" lon="5.80399999405">
		<tag k="name" v="Dansamyrane" />
		<tag k="natural" v="wetland" />
		<tag k="ssr:stedsnr" v="30683" />
	</node>
	<node id="-562471" lat="62.16440833" lon="6.17051666136">
		<tag k="name" v="Damane" />
		<tag k="natural" v="wetland" />
		<tag k="ssr:stedsnr" v="589545" />
	</node>
	<node id="-561950" lat="62.0266750038" lon="5.85635555007">
		<tag k="name" v="Espenesgjerdet" />
		<tag k="place" v="locality" />
		<tag k="ssr:stedsnr" v="225351" />
	</node>
	<node id="-560924" lat="62.1476611103" lon="6.1764166619">
		<tag k="name" v="Langemyra" />
		<tag k="natural" v="wetland" />
		<tag k="ssr:stedsnr" v="286235" />
	</node>
	<node id="-561947" lat="62.0677138881" lon="6.18484444643">
		<tag k="name" v="Setermyra" />
		<tag k="natural" v="wetland" />
		<tag k="ssr:stedsnr" v="225335" />
	</node>
	<node id="-560912" lat="62.0965722227" lon="6.16291110609">
		<tag k="name" v="Åsemyra" />
		<tag k="natural" v="wetland" />
		<tag k="ssr:stedsnr" v="286073" />
	</node>
	<node id="-562440" lat="62.0574777796" lon="6.13059444033">
		<tag k="name" v="Fonna" />
		<tag k="place" v="locality" />
		<tag k="ssr:stedsnr" v="589118" />
	</node>
	<node id="-562438" lat="62.0747361147" lon="6.15644443667">
		<tag k="name" v="Storefonna" />
		<tag k="place" v="locality" />
		<tag k="ssr:stedsnr" v="589103" />
	</node>
	<node id="-561925" lat="62.0436972226" lon="6.23026944263">
		<tag k="name" v="Langedalsfonna" />
		<tag k="place" v="locality" />
		<tag k="ssr:stedsnr" v="225015" />
	</node>
	<node id="-561924" lat="61.9738083293" lon="6.09976666533">
		<tag k="name" v="Smålødemyra" />
		<tag k="natural" v="wetland" />
		<tag k="ssr:stedsnr" v="225644" />
	</node>
	<node id="-562435" lat="62.0512555515" lon="6.10461667255">
		<tag k="name" v="Nysetmyrane" />
		<tag k="natural" v="wetland" />
		<tag k="ssr:stedsnr" v="589091" />
	</node>
	<node id="-562433" lat="62.1630166689" lon="5.91063611721">
		<tag k="name" v="Haugebøen" />
		<tag k="place" v="locality" />
		<tag k="ssr:stedsnr" v="589049" />
	</node>
	<node id="-560888" lat="62.1936305551" lon="6.00416388778">
		<tag k="name" v="Skridene" />
		<tag k="place" v="locality" />
		<tag k="ssr:stedsnr" v="278974" />
	</node>
	<node id="-561392" lat="62.041813887" lon="5.95679721481">
		<tag k="name" v="Legene" />
		<tag k="place" v="locality" />
		<tag k="ssr:stedsnr" v="893973" />
	</node>
	<node id="-561902" lat="62.1593694403" lon="6.09004722065">
		<tag k="name" v="Osskarmyra" />
		<tag k="natural" v="wetland" />
		<tag k="ssr:stedsnr" v="217925" />
	</node>
	<node id="-561898" lat="62.143391665" lon="6.17160833873">
		<tag k="name" v="Storesteinen" />
		<tag k="natural" v="stone" />
		<tag k="ssr:stedsnr" v="217870" />
	</node>
	<node id="-561896" lat="62.1537916685" lon="6.16949444099">
		<tag k="name" v="Dyrdeigjerdet" />
		<tag k="place" v="locality" />
		<tag k="ssr:stedsnr" v="217862" />
	</node>
	<node id="-562407" lat="62.1732333339" lon="6.00702777391">
		<tag k="name" v="Trøda" />
		<tag k="place" v="locality" />
		<tag k="ssr:stedsnr" v="581935" />
	</node>
	<node id="-561893" lat="62.1546388869" lon="6.09655555906">
		<tag k="name" v="Raudemyra" />
		<tag k="natural" v="wetland" />
		<tag k="ssr:stedsnr" v="217018" />
	</node>
	<node id="-560867" lat="62.1165111106" lon="5.8211055545">
		<tag k="name" v="Storåvassleitet" />
		<tag k="natural" v="wetland" />
		<tag k="ssr:stedsnr" v="273291" />
	</node>
	<node id="-561888" lat="62.1882805539" lon="5.85224999886">
		<tag k="name" v="Storemyra" />
		<tag k="natural" v="wetland" />
		<tag k="ssr:stedsnr" v="212819" />
	</node>
	<node id="-562396" lat="62.0353722236" lon="5.84546387942">
		<tag k="name" v="Gråura" />
		<tag k="natural" v="scree" />
		<tag k="ssr:stedsnr" v="576167" />
	</node>
	<node id="-561358" lat="62.0846444407" lon="6.25498055919">
		<tag k="name" v="Myrane" />
		<tag k="natural" v="wetland" />
		<tag k="ssr:stedsnr" v="893342" />
	</node>
	<node id="-562890" lat="62.0925194485" lon="6.06915277337">
		<tag k="name" v="Langemyra" />
		<tag k="natural" v="wetland" />
		<tag k="ssr:stedsnr" v="771203" />
	</node>
	<node id="-562888" lat="62.1020333292" lon="5.90866943652">
		<tag k="name" v="Myrane" />
		<tag k="natural" v="wetland" />
		<tag k="ssr:stedsnr" v="771145" />
	</node>
	<node id="-561611" lat="62.0317388906" lon="6.39056666293">
		<tag k="name" v="Langemyra" />
		<tag k="natural" v="wetland" />
		<tag k="ssr:stedsnr" v="96880" />
	</node>
	<node id="-561342" lat="61.9976388894" lon="5.83975278298">
		<tag k="name" v="Geiteura" />
		<tag k="natural" v="scree" />
		<tag k="ssr:stedsnr" v="893182" />
	</node>
	<node id="-562861" lat="62.1574722266" lon="6.12146389677">
		<tag k="name" v="Kortemyra" />
		<tag k="natural" v="wetland" />
		<tag k="ssr:stedsnr" v="763872" />
	</node>
	<node id="-563080" lat="62.0200277773" lon="6.36349167041">
		<tag k="name" v="Fonnene" />
		<tag k="place" v="locality" />
		<tag k="ssr:stedsnr" v="833976" />
	</node>
	<node id="-561316" lat="62.0447888894" lon="6.39235278387">
		<tag k="name" v="Kviå" />
		<tag k="place" v="locality" />
		<tag k="ssr:stedsnr" v="885934" />
	</node>
	<node id="-561314" lat="62.1426805545" lon="6.12215277497">
		<tag k="name" v="Vollane" />
		<tag k="place" v="locality" />
		<tag k="ssr:stedsnr" v="885916" />
	</node>
	<node id="-561313" lat="62.1592833356" lon="6.10455555458">
		<tag k="name" v="Ullastøylmyrane" />
		<tag k="natural" v="wetland" />
		<tag k="ssr:stedsnr" v="885900" />
	</node>
	<node id="-561312" lat="62.1662805533" lon="6.05703610363">
		<tag k="historic" v="shieling" />
		<tag k="name" v="Liaskarsætra" />
		<tag k="place" v="locality" />
		<tag k="ssr:stedsnr" v="885890" />
	</node>
	<node id="-562332" lat="62.0720527752" lon="6.32093334237">
		<tag k="name" v="Hagen" />
		<tag k="place" v="locality" />
		<tag k="ssr:stedsnr" v="529967" />
	</node>
	<node id="-562840" lat="62.0179972257" lon="6.03628054867">
		<tag k="name" v="Breidefonna" />
		<tag k="place" v="locality" />
		<tag k="ssr:stedsnr" v="749299" />
	</node>
	<node id="-561814" lat="62.1023805558" lon="6.07264167419">
		<tag k="name" v="Støylen" />
		<tag k="place" v="locality" />
		<tag k="ssr:stedsnr" v="164733" />
	</node>
	<node id="-561300" lat="62.0800527775" lon="6.31266111471">
		<tag k="name" v="Urane" />
		<tag k="natural" v="scree" />
		<tag k="ssr:stedsnr" v="408961" />
	</node>
	<node id="-561296" lat="62.0544666644" lon="6.04306111898">
		<tag k="name" v="Tulleplassen" />
		<tag k="place" v="locality" />
		<tag k="ssr:stedsnr" v="408893" />
	</node>
	<node id="-561802" lat="62.000916667" lon="6.12158055376">
		<tag k="name" v="Setremyrane" />
		<tag k="natural" v="wetland" />
		<tag k="ssr:stedsnr" v="164588" />
	</node>
	<node id="-561288" lat="62.0456666707" lon="5.93698333512">
		<tag k="name" v="Høgemyra" />
		<tag k="natural" v="wetland" />
		<tag k="ssr:stedsnr" v="407961" />
	</node>
	<node id="-561799" lat="62.097527778" lon="6.00664444285">
		<tag k="name" v="Raudesanden" />
		<tag k="place" v="locality" />
		<tag k="ssr:stedsnr" v="164446" />
	</node>
	<node id="-562198" lat="62.0727249995" lon="6.32059444791">
		<tag k="name" v="Nymarka" />
		<tag k="place" v="locality" />
		<tag k="ssr:stedsnr" v="468938" />
	</node>
	<node id="-561793" lat="62.068666666" lon="6.23835000386">
		<tag k="name" v="Store urda" />
		<tag k="natural" v="scree" />
		<tag k="ssr:stedsnr" v="164324" />
	</node>
	<node id="-561792" lat="62.0559555527" lon="6.20506110626">
		<tag k="name" v="Øggardsfonna" />
		<tag k="place" v="locality" />
		<tag k="ssr:stedsnr" v="164315" />
	</node>
	<node id="-561790" lat="62.0267944449" lon="5.89963889472">
		<tag k="name" v="Høgemyra" />
		<tag k="natural" v="wetland" />
		<tag k="ssr:stedsnr" v="164306" />
	</node>
	<node id="-561266" lat="62.1660750029" lon="6.11690832881">
		<tag k="name" v="Daurmålssteinen" />
		<tag k="natural" v="stone" />
		<tag k="ssr:stedsnr" v="407632" />
	</node>
	<node id="-562286" lat="62.0655305567" lon="6.20633334009">
		<tag k="name" v="Bømyrane" />
		<tag k="natural" v="wetland" />
		<tag k="ssr:stedsnr" v="528297" />
	</node>
	<node id="-561032" lat="62.1753055539" lon="6.04953888935">
		<tag k="name" v="Bjørnarysta" />
		<tag k="place" v="locality" />
		<tag k="ssr:stedsnr" v="338027" />
	</node>
	<node id="-561249" lat="62.0520249983" lon="6.2745333332">
		<tag k="name" v="Seterskogen" />
		<tag k="place" v="locality" />
		<tag k="ssr:stedsnr" v="407395" />
	</node>
	<node id="-561759" lat="62.1594861079" lon="6.07826665777">
		<tag k="historic" v="shieling" />
		<tag k="name" v="Kleppesætra" />
		<tag k="place" v="locality" />
		<tag k="ssr:stedsnr" v="156916" />
	</node>
	<node id="-561082" lat="62.1584333306" lon="6.16011389588">
		<tag k="name" v="Nygarden" />
		<tag k="place" v="locality" />
		<tag k="ssr:stedsnr" v="346594" />
	</node>
	<node id="-561242" lat="62.047538891" lon="5.8767833379">
		<tag k="name" v="Sjølvskaturda" />
		<tag k="natural" v="scree" />
		<tag k="ssr:stedsnr" v="407325" />
	</node>
	<node id="-562773" lat="62.009819448" lon="6.09674444467">
		<tag k="name" v="Langmyra" />
		<tag k="natural" v="wetland" />
		<tag k="ssr:stedsnr" v="711646" />
	</node>
	<node id="-561234" lat="61.9943472251" lon="5.83468055147">
		<tag k="name" v="Storeura" />
		<tag k="natural" v="scree" />
		<tag k="ssr:stedsnr" v="407219" />
	</node>
	<node id="-562257" lat="62.1433055542" lon="5.86798888101">
		<tag k="name" v="Vassholmyrane" />
		<tag k="natural" v="wetland" />
		<tag k="ssr:stedsnr" v="515437" />
	</node>
	<node id="-562255" lat="62.0419138915" lon="5.8583361057">
		<tag k="name" v="Styggefonna" />
		<tag k="natural" v="scree" />
		<tag k="ssr:stedsnr" v="515190" />
	</node>
	<node id="-561225" lat="62.2048916706" lon="5.97889443663">
		<tag k="name" v="Dekkjene" />
		<tag k="place" v="locality" />
		<tag k="ssr:stedsnr" v="406721" />
	</node>
	<node id="-561736" lat="61.9743750006" lon="6.12058888878">
		<tag k="name" v="Alflotteigane" />
		<tag k="place" v="locality" />
		<tag k="ssr:stedsnr" v="142302" />
	</node>
	<node id="-562757" lat="62.0477611086" lon="6.02750278351">
		<tag k="name" v="Sandfonna" />
		<tag k="place" v="locality" />
		<tag k="ssr:stedsnr" v="710974" />
	</node>
	<node id="-562240" lat="62.1499666664" lon="6.15985833985">
		<tag k="name" v="Nyland" />
		<tag k="place" v="locality" />
		<tag k="ssr:stedsnr" v="505157" />
	</node>
	<node id="-561247" lat="62.0254138854" lon="5.85275277443">
		<tag k="name" v="Legene" />
		<tag k="place" v="locality" />
		<tag k="ssr:stedsnr" v="407361" />
	</node>
	<node id="-561204" lat="62.0435499973" lon="6.4380555531">
		<tag k="name" v="Bueidmarka" />
		<tag k="place" v="locality" />
		<tag k="ssr:stedsnr" v="399888" />
	</node>
	<node id="-562727" lat="62.0743583344" lon="5.93499721839">
		<tag k="name" v="Øyra" />
		<tag k="place" v="locality" />
		<tag k="ssr:stedsnr" v="710263" />
	</node>
	<node id="-562724" lat="62.0799472239" lon="6.07861944987">
		<tag k="name" v="Skarvesteinen" />
		<tag k="natural" v="stone" />
		<tag k="ssr:stedsnr" v="710206" />
	</node>
	<node id="-561686" lat="62.0583583332" lon="6.03944445028">
		<tag k="name" v="Urdene" />
		<tag k="natural" v="scree" />
		<tag k="ssr:stedsnr" v="104899" />
	</node>
	<node id="-561677" lat="62.1252472198" lon="6.13698610951">
		<tag k="name" v="Høgedalsstøylen" />
		<tag k="place" v="locality" />
		<tag k="ssr:stedsnr" v="104665" />
	</node>
	<node id="-563209" lat="62.1045111109" lon="6.13651111584">
		<tag k="name" v="Storerøysa" />
		<tag k="natural" v="scree" />
		<tag k="ssr:stedsnr" v="953088" />
	</node>
	<node id="-562183" lat="62.2190555577" lon="5.95738610396">
		<tag k="name" v="Tuemyra" />
		<tag k="natural" v="wetland" />
		<tag k="ssr:stedsnr" v="468631" />
	</node>
	<node id="-561665" lat="62.1166472196" lon="6.00393055201">
		<tag k="name" v="Årskogane" />
		<tag k="place" v="locality" />
		<tag k="ssr:stedsnr" v="104550" />
	</node>
</osm>
