<?xml version="1.0" encoding="UTF-8"?>
<osm generator="osmapis" version="0.6">
	<node id="-173056" lat="60.9115420885" lon="8.34319564072">
		<tag k="name" v="Raudbergtjerne" />
		<tag k="natural" v="water" />
		<tag k="ssr:stedsnr" v="445127" />
	</node>
	<node id="-173567" lat="60.9719416683" lon="8.51649167412">
		<tag k="name" v="Lysebotnåne" />
		<tag k="ssr:stedsnr" v="821145" />
		<tag k="waterway" v="river" />
	</node>
	<node id="-173566" lat="60.9758499973" lon="8.57290834048">
		<tag k="name" v="Fingen" />
		<tag k="natural" v="cape" />
		<tag k="ssr:stedsnr" v="821123" />
	</node>
	<node id="-172541" lat="60.9831777801" lon="8.34749721498">
		<tag k="name" v="Kringleøyne" />
		<tag k="place" v="island" />
		<tag k="ssr:stedsnr" v="396213" />
	</node>
	<node id="-173052" lat="60.8772805538" lon="8.53945832892">
		<tag k="name" v="Haugsbekken" />
		<tag k="ssr:stedsnr" v="434779" />
		<tag k="waterway" v="stream" />
	</node>
	<node id="-172628" lat="60.8425630468" lon="8.45047704789">
		<tag k="name" v="Holleskardtjernane" />
		<tag k="natural" v="water" />
		<tag k="ssr:stedsnr" v="981249" />
		<tag k="water" v="lake" />
	</node>
	<node id="-173556" lat="60.8794333345" lon="8.75111666364">
		<tag k="name" v="Hynda" />
		<tag k="ssr:stedsnr" v="798796" />
		<tag k="waterway" v="river" />
	</node>
	<node id="-173054" lat="60.8917500019" lon="8.47267499891">
		<tag k="name" v="Kvitingtjerne" />
		<tag k="natural" v="water" />
		<tag k="ssr:stedsnr" v="434793" />
	</node>
	<node id="-172624" lat="60.8294666696" lon="8.76294167153">
		<tag k="name" v="Toriodden" />
		<tag k="natural" v="cape" />
		<tag k="ssr:stedsnr" v="883570" />
	</node>
	<node id="-172529" lat="60.8904361115" lon="8.49209165833">
		<tag k="name" v="Leinebekken" />
		<tag k="ssr:stedsnr" v="372855" />
		<tag k="waterway" v="stream" />
	</node>
	<node id="-173039" lat="60.9173749978" lon="8.61965556406">
		<tag k="name" v="Nordre Grunntjerne" />
		<tag k="natural" v="water" />
		<tag k="ssr:stedsnr" v="433849" />
	</node>
	<node id="-173038" lat="60.9100805599" lon="8.58245000523">
		<tag k="name" v="Guteskardåne" />
		<tag k="ssr:stedsnr" v="433843" />
		<tag k="waterway" v="stream" />
	</node>
	<node id="-173548" lat="60.8937777797" lon="8.24121389238">
		<tag k="name" v="Rupebekken" />
		<tag k="ssr:stedsnr" v="797623" />
		<tag k="waterway" v="stream" />
	</node>
	<node id="-172626" lat="60.9473884919" lon="8.0942015721">
		<tag k="alt_name" v="Øljusjøen" />
		<tag k="name" v="Øljusjøane" />
		<tag k="natural" v="water" />
		<tag k="old_name" v="Ørjusjøen" />
		<tag k="ssr:stedsnr" v="129685" />
		<tag k="water" v="lake" />
	</node>
	<node id="-173544" lat="60.9944000019" lon="8.26134722969">
		<tag k="name" v="Øvre Søtelitjernane" />
		<tag k="natural" v="water" />
		<tag k="ssr:stedsnr" v="797574" />
	</node>
	<node id="-173031" lat="60.8965416629" lon="8.33382777834">
		<tag k="name" v="Storeskardbekken" />
		<tag k="ssr:stedsnr" v="433594" />
		<tag k="waterway" v="stream" />
	</node>
	<node id="-173027" lat="60.883258336" lon="8.26035832881">
		<tag k="name" v="Svartebekken" />
		<tag k="ssr:stedsnr" v="433547" />
		<tag k="waterway" v="stream" />
	</node>
	<node id="-173538" lat="60.8245333329" lon="8.70867499882">
		<tag k="name" v="Dyssetjerne" />
		<tag k="natural" v="water" />
		<tag k="ssr:stedsnr" v="797213" />
	</node>
	<node id="-173537" lat="60.8274222255" lon="8.57885555337">
		<tag k="name" v="Skyrvedøla" />
		<tag k="ssr:stedsnr" v="797206" />
		<tag k="waterway" v="stream" />
	</node>
	<node id="-173024" lat="60.9586222178" lon="8.28259166296">
		<tag k="name" v="Bubottåne" />
		<tag k="ssr:stedsnr" v="433496" />
		<tag k="waterway" v="stream" />
	</node>
	<node id="-173023" lat="60.9536138846" lon="8.1704027853">
		<tag k="name" v="Heimretjerne" />
		<tag k="natural" v="water" />
		<tag k="ssr:stedsnr" v="433495" />
	</node>
	<node id="-172509" lat="60.8171750036" lon="8.49570832633">
		<tag k="name" v="Svartevatnet" />
		<tag k="natural" v="water" />
		<tag k="ssr:stedsnr" v="372221" />
	</node>
	<node id="-173020" lat="60.807855554" lon="8.72214445107">
		<tag k="name" v="Djupedalsbekken" />
		<tag k="ssr:stedsnr" v="433222" />
		<tag k="waterway" v="stream" />
	</node>
	<node id="-173019" lat="60.812375" lon="8.60987499367">
		<tag k="name" v="Horntjerne" />
		<tag k="natural" v="water" />
		<tag k="ssr:stedsnr" v="433217" />
	</node>
	<node id="-173530" lat="60.8711166667" lon="8.83989444008">
		<tag k="name" v="Nøra" />
		<tag k="ssr:stedsnr" v="797143" />
		<tag k="waterway" v="river" />
	</node>
	<node id="-173017" lat="60.8302416636" lon="8.78668610612">
		<tag k="name" v="Venebakkbekken" />
		<tag k="ssr:stedsnr" v="433205" />
		<tag k="waterway" v="stream" />
	</node>
	<node id="-173528" lat="60.8638000037" lon="8.74478610658">
		<tag k="alt_name" v="Elvik" />
		<tag k="name" v="Elvikvatnet" />
		<tag k="natural" v="water" />
		<tag k="ssr:stedsnr" v="797140" />
	</node>
	<node id="-173527" lat="60.8631972236" lon="8.76850832818">
		<tag k="alt_name" v="Storevatn" />
		<tag k="name" v="Storevatnet" />
		<tag k="natural" v="water" />
		<tag k="ssr:stedsnr" v="797139" />
		<tag k="water" v="lake" />
	</node>
	<node id="-172501" lat="60.8731638908" lon="8.77413889582">
		<tag k="name" v="Notodden" />
		<tag k="natural" v="cape" />
		<tag k="ssr:stedsnr" v="372145" />
	</node>
	<node id="-172499" lat="61.012975002" lon="8.29885277036">
		<tag k="name" v="Jukletjerne" />
		<tag k="natural" v="water" />
		<tag k="ssr:stedsnr" v="371743" />
	</node>
	<node id="-173522" lat="60.8313083319" lon="8.74588332598">
		<tag k="name" v="Halvfarøyne" />
		<tag k="place" v="islet" />
		<tag k="ssr:stedsnr" v="761539" />
	</node>
	<node id="-173008" lat="60.8621861142" lon="8.7280999933">
		<tag k="name" v="Attjerne" />
		<tag k="natural" v="water" />
		<tag k="ssr:stedsnr" v="433150" />
	</node>
	<node id="-173519" lat="60.8332312107" lon="8.58410237587">
		<tag k="name" v="Gamledøla" />
		<tag k="ssr:stedsnr" v="760971" />
		<tag k="waterway" v="stream" />
	</node>
	<node id="-172490" lat="60.8565444424" lon="8.6872527847">
		<tag k="name" v="Odden" />
		<tag k="natural" v="cape" />
		<tag k="ssr:stedsnr" v="336715" />
	</node>
	<node id="-173001" lat="60.8682361108" lon="8.4618888927">
		<tag k="name" v="Skriubekken" />
		<tag k="ssr:stedsnr" v="251945" />
		<tag k="waterway" v="stream" />
	</node>
	<node id="-172999" lat="60.9254749964" lon="8.68880555275">
		<tag k="name" v="Trolltjerne" />
		<tag k="natural" v="water" />
		<tag k="ssr:stedsnr" v="251891" />
	</node>
	<node id="-172465" lat="60.9283388892" lon="8.39320833001">
		<tag k="name" v="Surrebekken" />
		<tag k="ssr:stedsnr" v="335603" />
		<tag k="waterway" v="river" />
	</node>
	<node id="-172485" lat="60.8302499971" lon="8.74232499434">
		<tag k="name" v="Sundodden" />
		<tag k="natural" v="cape" />
		<tag k="ssr:stedsnr" v="336473" />
	</node>
	<node id="-173507" lat="60.8649416692" lon="8.73000833895">
		<tag k="name" v="Bukonebekken" />
		<tag k="ssr:stedsnr" v="760663" />
		<tag k="waterway" v="stream" />
	</node>
	<node id="-173506" lat="60.8974583365" lon="8.43706666081">
		<tag k="name" v="Tangen" />
		<tag k="natural" v="strait" />
		<tag k="ssr:stedsnr" v="760658" />
	</node>
	<node id="-173505" lat="60.8964499997" lon="8.41588056008">
		<tag k="name" v="Hølubekken" />
		<tag k="ssr:stedsnr" v="760645" />
		<tag k="waterway" v="stream" />
	</node>
	<node id="-172480" lat="60.8497138903" lon="8.74335000318">
		<tag k="name" v="Ødnerskilen" />
		<tag k="ssr:stedsnr" v="336100" />
		<tag k="waterway" v="river" />
	</node>
	<node id="-173502" lat="60.876686115" lon="8.83224166775">
		<tag k="name" v="Kælkenden" />
		<tag k="natural" v="bay" />
		<tag k="ssr:stedsnr" v="760600" />
	</node>
	<node id="-172989" lat="60.9262194469" lon="8.44789721499">
		<tag k="name" v="Holsteinåne" />
		<tag k="ssr:stedsnr" v="251619" />
		<tag k="waterway" v="stream" />
	</node>
	<node id="-172475" lat="60.881663888" lon="8.48824999273">
		<tag k="alt_name" v="Brandvollsbekken" />
		<tag k="name" v="Brandvolsbekken" />
		<tag k="ssr:stedsnr" v="335838" />
		<tag k="waterway" v="stream" />
	</node>
	<node id="-172984" lat="60.8905611083" lon="8.4549944527">
		<tag k="name" v="Bekkefoss" />
		<tag k="natural" v="waterfall" />
		<tag k="ssr:stedsnr" v="251595" />
	</node>
	<node id="-172982" lat="60.8885722182" lon="8.41323888923">
		<tag k="name" v="Veikinnbekken" />
		<tag k="ssr:stedsnr" v="251589" />
		<tag k="waterway" v="stream" />
	</node>
	<node id="-172958" lat="61.0270416637" lon="8.33673055724">
		<tag k="name" v="Slurpa" />
		<tag k="ssr:stedsnr" v="249639" />
		<tag k="waterway" v="stream" />
	</node>
	<node id="-173490" lat="60.9773111083" lon="8.36918610707">
		<tag k="name" v="Sandslettbekken" />
		<tag k="ssr:stedsnr" v="760262" />
		<tag k="waterway" v="stream" />
	</node>
	<node id="-172977" lat="60.9672027759" lon="8.43041667193">
		<tag k="name" v="Tangane" />
		<tag k="natural" v="cape" />
		<tag k="ssr:stedsnr" v="251531" />
	</node>
	<node id="-173640" lat="60.906794443" lon="8.2829861041">
		<tag k="name" v="Tverråne" />
		<tag k="ssr:stedsnr" v="858608" />
		<tag k="waterway" v="stream" />
	</node>
	<node id="-172974" lat="60.8118777742" lon="8.62328055204">
		<tag k="name" v="Hydnefossen" />
		<tag k="natural" v="waterfall" />
		<tag k="ssr:stedsnr" v="251257" />
	</node>
	<node id="-172461" lat="60.8152611119" lon="8.65331388254">
		<tag k="name" v="Øynane" />
		<tag k="place" v="island" />
		<tag k="ssr:stedsnr" v="335596" />
	</node>
	<node id="-172460" lat="60.8319555623" lon="8.73067266568">
		<tag k="name" v="Vannestølodden" />
		<tag k="natural" v="cape" />
		<tag k="ssr:stedsnr" v="335594" />
	</node>
	<node id="-172459" lat="60.8402814735" lon="8.73494918863">
		<tag k="name" v="Fiskeodden" />
		<tag k="natural" v="cape" />
		<tag k="ssr:stedsnr" v="335592" />
	</node>
	<node id="-172970" lat="60.8207888877" lon="8.64841388554">
		<tag k="name" v="Gravsetbekken" />
		<tag k="ssr:stedsnr" v="251234" />
		<tag k="waterway" v="stream" />
	</node>
	<node id="-172969" lat="60.8464139243" lon="8.73807545569">
		<tag k="name" v="Myrjostjerne" />
		<tag k="natural" v="water" />
		<tag k="ssr:stedsnr" v="251213" />
	</node>
	<node id="-173480" lat="60.9073721361" lon="8.72780068847">
		<tag k="name" v="Hundsennvatnet" />
		<tag k="natural" v="water" />
		<tag k="ssr:stedsnr" v="737847" />
		<tag k="water" v="lake" />
	</node>
	<node id="-173479" lat="60.9076277821" lon="8.69220555991">
		<tag k="name" v="Vesle Sandåne" />
		<tag k="ssr:stedsnr" v="737845" />
		<tag k="waterway" v="stream" />
	</node>
	<node id="-172454" lat="60.8939083322" lon="8.26258055031">
		<tag k="name" v="Svartebekken" />
		<tag k="ssr:stedsnr" v="335270" />
		<tag k="waterway" v="stream" />
	</node>
	<node id="-173476" lat="60.9755896207" lon="8.58143613303">
		<tag k="alt_name" v="Hydalsvatnet, s;Hydalsvatnet" />
		<tag k="name" v="Sør-Hydalsvatnet" />
		<tag k="natural" v="water" />
		<tag k="ssr:stedsnr" v="737764" />
		<tag k="water" v="lake" />
	</node>
	<node id="-173475" lat="60.9535000044" lon="8.62287778039">
		<tag k="name" v="Søre Kaldåne" />
		<tag k="ssr:stedsnr" v="737742" />
		<tag k="waterway" v="stream" />
	</node>
	<node id="-173471" lat="60.8877888864" lon="8.89577223139">
		<tag k="name" v="Flya" />
		<tag k="ssr:stedsnr" v="737410" />
		<tag k="waterway" v="river" />
	</node>
	<node id="-173470" lat="60.8067833291" lon="8.58720833288">
		<tag k="name" v="Mellomtjerne" />
		<tag k="natural" v="water" />
		<tag k="ssr:stedsnr" v="737220" />
	</node>
	<node id="-173468" lat="60.868810247" lon="8.61961071946">
		<tag k="name" v="Såtetjerne" />
		<tag k="natural" v="water" />
		<tag k="ssr:stedsnr" v="737120" />
	</node>
	<node id="-172442" lat="60.8831888885" lon="8.50803332996">
		<tag k="name" v="Rustobekken" />
		<tag k="ssr:stedsnr" v="312811" />
		<tag k="waterway" v="stream" />
	</node>
	<node id="-172953" lat="60.8293527798" lon="8.74181944325">
		<tag k="name" v="Langevika" />
		<tag k="natural" v="bay" />
		<tag k="ssr:stedsnr" v="215552" />
	</node>
	<node id="-172951" lat="60.8464899302" lon="8.76434896668">
		<tag k="name" v="Myrebekken" />
		<tag k="ssr:stedsnr" v="215151" />
		<tag k="waterway" v="stream" />
	</node>
	<node id="-173462" lat="60.9918500044" lon="8.2983388841">
		<tag k="name" v="Søtelitjerne" />
		<tag k="natural" v="water" />
		<tag k="ssr:stedsnr" v="736544" />
	</node>
	<node id="-173461" lat="60.9873999984" lon="8.24744443759">
		<tag k="name" v="Råskardtjernane" />
		<tag k="natural" v="water" />
		<tag k="ssr:stedsnr" v="736540" />
	</node>
	<node id="-172436" lat="60.8759083337" lon="8.57441111906">
		<tag k="name" v="Synebekken" />
		<tag k="ssr:stedsnr" v="312786" />
		<tag k="waterway" v="stream" />
	</node>
	<node id="-172526" lat="60.9003888865" lon="8.22874722453">
		<tag k="name" v="Råskardåne" />
		<tag k="ssr:stedsnr" v="372628" />
		<tag k="waterway" v="stream" />
	</node>
	<node id="-172946" lat="60.8578000003" lon="8.6799583338">
		<tag k="name" v="Helsingåne" />
		<tag k="ssr:stedsnr" v="214752" />
		<tag k="waterway" v="river" />
	</node>
	<node id="-173123" lat="60.865216669" lon="8.58832222169">
		<tag k="name" v="Skørrsbekken" />
		<tag k="ssr:stedsnr" v="494121" />
		<tag k="waterway" v="stream" />
	</node>
	<node id="-173456" lat="60.830593558" lon="8.73144667895">
		<tag k="alt_name" v="Naustvika" />
		<tag k="name" v="Naustviki" />
		<tag k="natural" v="bay" />
		<tag k="ssr:stedsnr" v="736226" />
	</node>
	<node id="-173208" lat="60.9457416691" lon="8.37676944689">
		<tag k="name" v="Feten" />
		<tag k="place" v="island" />
		<tag k="ssr:stedsnr" v="554560" />
	</node>
	<node id="-173453" lat="60.8390093118" lon="8.69576795357">
		<tag k="name" v="Gørrtjerne" />
		<tag k="natural" v="water" />
		<tag k="ssr:stedsnr" v="736194" />
	</node>
	<node id="-173451" lat="60.8530611084" lon="8.70780555371">
		<tag k="name" v="Langodden" />
		<tag k="natural" v="cape" />
		<tag k="ssr:stedsnr" v="736176" />
	</node>
	<node id="-173450" lat="60.8587527781" lon="8.66624167024">
		<tag k="name" v="Lintjerne" />
		<tag k="natural" v="water" />
		<tag k="ssr:stedsnr" v="736153" />
	</node>
	<node id="-172937" lat="60.8118333352" lon="8.65760277176">
		<tag k="name" v="Krokhølen" />
		<tag k="place" v="locality" />
		<tag k="ssr:stedsnr" v="214595" />
	</node>
	<node id="-173444" lat="60.8783611113" lon="8.48196944563">
		<tag k="name" v="Evju" />
		<tag k="place" v="locality" />
		<tag k="ssr:stedsnr" v="725455" />
	</node>
	<node id="-172414" lat="60.9714388901" lon="8.42663610561">
		<tag k="name" v="Storebottåne" />
		<tag k="ssr:stedsnr" v="311587" />
		<tag k="waterway" v="stream" />
	</node>
	<node id="-172973" lat="60.8162027816" lon="8.68700555929">
		<tag k="alt_name" v="Sagabekken" />
		<tag k="name" v="Sagbekken" />
		<tag k="ssr:stedsnr" v="251255" />
		<tag k="waterway" v="stream" />
	</node>
	<node id="-172410" lat="60.8543583359" lon="8.80676389279">
		<tag k="name" v="Dugurdstjerne" />
		<tag k="natural" v="water" />
		<tag k="ssr:stedsnr" v="311219" />
	</node>
	<node id="-172409" lat="60.8525462847" lon="8.72353930598">
		<tag k="name" v="Storodden" />
		<tag k="natural" v="cape" />
		<tag k="ssr:stedsnr" v="311214" />
	</node>
	<node id="-172408" lat="60.861325" lon="8.75394999932">
		<tag k="name" v="Digreneset" />
		<tag k="natural" v="cape" />
		<tag k="ssr:stedsnr" v="311201" />
	</node>
	<node id="-173431" lat="60.8020833349" lon="8.75071945291">
		<tag k="name" v="Eikrebekken" />
		<tag k="ssr:stedsnr" v="700504" />
		<tag k="waterway" v="stream" />
	</node>
	<node id="-172918" lat="60.913850003" lon="8.63114999215">
		<tag k="name" v="Søre Grunntjerne" />
		<tag k="natural" v="water" />
		<tag k="ssr:stedsnr" v="191812" />
	</node>
	<node id="-173429" lat="60.8912944433" lon="8.89451665894">
		<tag k="name" v="Store Stilla" />
		<tag k="natural" v="water" />
		<tag k="ssr:stedsnr" v="700415" />
		<tag k="water" v="lake" />
	</node>
	<node id="-172914" lat="60.9719249968" lon="8.59297776994">
		<tag k="name" v="Mjåsundet" />
		<tag k="natural" v="strait" />
		<tag k="ssr:stedsnr" v="191720" />
	</node>
	<node id="-172913" lat="60.9607249966" lon="8.62677776958">
		<tag k="name" v="Kaldåne" />
		<tag k="ssr:stedsnr" v="191699" />
		<tag k="waterway" v="stream" />
	</node>
	<node id="-172434" lat="60.9726319056" lon="8.53409404648">
		<tag k="alt_name" v="Hydalsvatnet, nordre" />
		<tag k="name" v="Nord-Hydalsvatnet" />
		<tag k="natural" v="water" />
		<tag k="ssr:stedsnr" v="312739" />
	</node>
	<node id="-173418" lat="60.8953694469" lon="8.43676944413">
		<tag k="name" v="Sukkebøøyne" />
		<tag k="place" v="island" />
		<tag k="ssr:stedsnr" v="699620" />
	</node>
	<node id="-172905" lat="60.8461250028" lon="8.44148888675">
		<tag k="name" v="Holleskardtjerne" />
		<tag k="natural" v="water" />
		<tag k="ssr:stedsnr" v="190926" />
	</node>
	<node id="-172902" lat="60.9012861067" lon="8.39483333345">
		<tag k="name" v="Steintjerne" />
		<tag k="natural" v="water" />
		<tag k="ssr:stedsnr" v="190608" />
	</node>
	<node id="-172899" lat="60.8186111075" lon="8.70516666944">
		<tag k="alt_name" v="Kvednahusbekken" />
		<tag k="name" v="Kvernhusbekken" />
		<tag k="ssr:stedsnr" v="190240" />
		<tag k="waterway" v="stream" />
	</node>
	<node id="-173410" lat="60.9419333315" lon="8.59066388916">
		<tag k="name" v="Tortjerne" />
		<tag k="natural" v="water" />
		<tag k="ssr:stedsnr" v="676859" />
	</node>
	<node id="-172939" lat="60.8793027737" lon="8.82539165939">
		<tag k="name" v="Kælkbekken" />
		<tag k="ssr:stedsnr" v="214623" />
		<tag k="waterway" v="stream" />
	</node>
	<node id="-173408" lat="60.9100000037" lon="8.57228610352">
		<tag k="name" v="Vardenosåne" />
		<tag k="ssr:stedsnr" v="676834" />
		<tag k="waterway" v="stream" />
	</node>
	<node id="-172895" lat="60.8388444427" lon="8.72973055411">
		<tag k="alt_name" v="Vannin" />
		<tag k="name" v="Vannen" />
		<tag k="natural" v="water" />
		<tag k="ssr:stedsnr" v="190204" />
		<tag k="water" v="lake" />
	</node>
	<node id="-172894" lat="60.8402059214" lon="8.70115032223">
		<tag k="name" v="Gravsettjerne" />
		<tag k="natural" v="water" />
		<tag k="ssr:stedsnr" v="190198" />
	</node>
	<node id="-172890" lat="60.85151667" lon="8.48819443958">
		<tag k="name" v="Skrukkebekken" />
		<tag k="ssr:stedsnr" v="190148" />
		<tag k="waterway" v="stream" />
	</node>
	<node id="-173401" lat="60.9220083317" lon="8.10516944898">
		<tag k="name" v="Hemsedalstjernane" />
		<tag k="natural" v="water" />
		<tag k="ssr:stedsnr" v="676607" />
	</node>
	<node id="-172888" lat="60.7726361107" lon="8.68428611004">
		<tag k="name" v="Krossbekken" />
		<tag k="ssr:stedsnr" v="190031" />
		<tag k="waterway" v="stream" />
	</node>
	<node id="-172887" lat="61.0114000006" lon="8.32257500566">
		<tag k="name" v="Strondabekken" />
		<tag k="ssr:stedsnr" v="189704" />
		<tag k="waterway" v="stream" />
	</node>
	<node id="-173390" lat="60.8220361125" lon="8.6953833316">
		<tag k="name" v="Søre Damtjerne" />
		<tag k="natural" v="water" />
		<tag k="ssr:stedsnr" v="676214" />
	</node>
	<node id="-173389" lat="60.8313277749" lon="8.74814721851">
		<tag k="name" v="Gammen" />
		<tag k="natural" v="water" />
		<tag k="ssr:stedsnr" v="676204" />
	</node>
	<node id="-173388" lat="60.8332249965" lon="8.61496111394">
		<tag k="alt_name" v="Dyrja" />
		<tag k="name" v="Dyrgja" />
		<tag k="ssr:stedsnr" v="676187" />
		<tag k="waterway" v="river" />
	</node>
	<node id="-173026" lat="60.9436916654" lon="8.33110833253">
		<tag k="name" v="Kvannebekken" />
		<tag k="ssr:stedsnr" v="433512" />
		<tag k="waterway" v="stream" />
	</node>
	<node id="-173381" lat="60.8962916704" lon="8.32012221909">
		<tag k="alt_name" v="Storeskarvatn" />
		<tag k="name" v="Storeskardvatnet" />
		<tag k="natural" v="water" />
		<tag k="ssr:stedsnr" v="675584" />
		<tag k="water" v="lake" />
	</node>
	<node id="-172866" lat="60.8772916688" lon="8.77640832652">
		<tag k="name" v="Hølubekken" />
		<tag k="ssr:stedsnr" v="153835" />
		<tag k="waterway" v="stream" />
	</node>
	<node id="-172865" lat="60.8448861146" lon="8.43489167435">
		<tag k="name" v="Svarteløken" />
		<tag k="ssr:stedsnr" v="153743" />
		<tag k="waterway" v="river" />
	</node>
	<node id="-172512" lat="60.7964777772" lon="8.59116388689">
		<tag k="name" v="Grytingtjerne" />
		<tag k="natural" v="water" />
		<tag k="ssr:stedsnr" v="372255" />
	</node>
	<node id="-172855" lat="60.8932027757" lon="8.26490556281">
		<tag k="name" v="Vierbekken" />
		<tag k="ssr:stedsnr" v="153264" />
		<tag k="waterway" v="stream" />
	</node>
	<node id="-173365" lat="60.8764138906" lon="8.74668334042">
		<tag k="name" v="Bukonebekken" />
		<tag k="ssr:stedsnr" v="639813" />
		<tag k="waterway" v="stream" />
	</node>
	<node id="-172851" lat="60.9677138856" lon="8.6184083266">
		<tag k="name" v="Hydalsåne" />
		<tag k="ssr:stedsnr" v="153155" />
		<tag k="waterway" v="river" />
	</node>
	<node id="-173360" lat="60.832286751" lon="8.75356203128">
		<tag k="name" v="Skjærodden" />
		<tag k="natural" v="cape" />
		<tag k="ssr:stedsnr" v="639508" />
	</node>
	<node id="-173358" lat="60.8405472264" lon="8.76408333917">
		<tag k="name" v="Dokkbekken" />
		<tag k="ssr:stedsnr" v="639497" />
		<tag k="waterway" v="stream" />
	</node>
	<node id="-173356" lat="60.8749527818" lon="8.86706667221">
		<tag k="name" v="Tømmervika" />
		<tag k="natural" v="bay" />
		<tag k="ssr:stedsnr" v="639399" />
	</node>
	<node id="-172843" lat="60.8321448924" lon="8.35881933137">
		<tag k="name" v="Flævatn" />
		<tag k="natural" v="water" />
		<tag k="ssr:stedsnr" v="130908" />
	</node>
	<node id="-172841" lat="60.9886333291" lon="8.55507778324">
		<tag k="name" v="Trongebyttåne" />
		<tag k="ssr:stedsnr" v="130732" />
		<tag k="waterway" v="stream" />
	</node>
	<node id="-172839" lat="60.8157583291" lon="8.63242500573">
		<tag k="name" v="Hydna" />
		<tag k="ssr:stedsnr" v="130192" />
		<tag k="waterway" v="stream" />
	</node>
	<node id="-172836" lat="60.8691249992" lon="8.62451111482">
		<tag k="name" v="Fetjaåne" />
		<tag k="ssr:stedsnr" v="130107" />
		<tag k="waterway" v="stream" />
	</node>
	<node id="-172835" lat="60.7983055511" lon="8.73273333596">
		<tag k="name" v="Nøstjerne" />
		<tag k="natural" v="water" />
		<tag k="ssr:stedsnr" v="130011" />
	</node>
	<node id="-172834" lat="60.7983027739" lon="8.74746388158">
		<tag k="name" v="Eikrebekken" />
		<tag k="ssr:stedsnr" v="130010" />
		<tag k="waterway" v="stream" />
	</node>
	<node id="-172830" lat="60.8429305514" lon="8.44629167318">
		<tag k="name" v="Haugatjerne" />
		<tag k="natural" v="water" />
		<tag k="ssr:stedsnr" v="129918" />
	</node>
	<node id="-173341" lat="60.8865638879" lon="8.46040277119">
		<tag k="name" v="Kroken" />
		<tag k="natural" v="cape" />
		<tag k="ssr:stedsnr" v="638792" />
	</node>
	<node id="-172828" lat="60.9133833336" lon="8.08121944794">
		<tag k="name" v="Raudbergsholtjerne" />
		<tag k="natural" v="water" />
		<tag k="ssr:stedsnr" v="129616" />
	</node>
	<node id="-172506" lat="60.8468638885" lon="8.76794722958">
		<tag k="name" v="Huldretjerne" />
		<tag k="natural" v="water" />
		<tag k="ssr:stedsnr" v="372175" />
	</node>
	<node id="-173707" lat="60.9279388868" lon="8.67792499887">
		<tag k="name" v="Nordretjerne" />
		<tag k="natural" v="water" />
		<tag k="ssr:stedsnr" v="919856" />
	</node>
	<node id="-173333" lat="60.8946055561" lon="8.43833332568">
		<tag k="name" v="Oset" />
		<tag k="natural" v="bay" />
		<tag k="ssr:stedsnr" v="638635" />
	</node>
	<node id="-172818" lat="60.8366805538" lon="8.75670278514">
		<tag k="name" v="Kilen" />
		<tag k="ssr:stedsnr" v="129229" />
		<tag k="waterway" v="stream" />
	</node>
	<node id="-172816" lat="60.8552611126" lon="8.70304444836">
		<tag k="alt_name" v="Helsingvatn" />
		<tag k="name" v="Helsingvatnet" />
		<tag k="natural" v="water" />
		<tag k="ssr:stedsnr" v="129186" />
		<tag k="water" v="lake" />
	</node>
	<node id="-172504" lat="60.8520361135" lon="8.53749721765">
		<tag k="name" v="Sollaustbekken" />
		<tag k="ssr:stedsnr" v="372161" />
		<tag k="waterway" v="stream" />
	</node>
	<node id="-172814" lat="60.8356651102" lon="8.70950867013">
		<tag k="name" v="Ytretjerne" />
		<tag k="natural" v="water" />
		<tag k="ssr:stedsnr" v="129216" />
	</node>
	<node id="-172544" lat="60.7975527812" lon="8.69535277882">
		<tag k="name" v="Flåmyrkanalen" />
		<tag k="ssr:stedsnr" v="396262" />
		<tag k="waterway" v="stream" />
	</node>
	<node id="-172809" lat="60.8428999997" lon="8.750758332">
		<tag k="name" v="Skarprisa" />
		<tag k="natural" v="cape" />
		<tag k="ssr:stedsnr" v="94550" />
	</node>
	<node id="-173316" lat="60.9811416659" lon="8.35060277376">
		<tag k="name" v="Gulliktangen" />
		<tag k="place" v="island" />
		<tag k="ssr:stedsnr" v="638233" />
	</node>
	<node id="-173310" lat="60.8706000002" lon="8.90840556298">
		<tag k="name" v="Flyberg" />
		<tag k="place" v="island" />
		<tag k="ssr:stedsnr" v="616394" />
	</node>
	<node id="-173309" lat="60.8616055514" lon="8.38556111959">
		<tag k="name" v="Storskriubekken" />
		<tag k="ssr:stedsnr" v="615933" />
		<tag k="waterway" v="stream" />
	</node>
	<node id="-173308" lat="60.9359805534" lon="8.5148277785">
		<tag k="name" v="Kringletjerne" />
		<tag k="natural" v="water" />
		<tag k="ssr:stedsnr" v="615842" />
	</node>
	<node id="-173306" lat="60.9081000021" lon="8.67531389088">
		<tag k="name" v="Store Sandåne" />
		<tag k="ssr:stedsnr" v="615815" />
		<tag k="waterway" v="stream" />
	</node>
	<node id="-172791" lat="60.9108833312" lon="8.44209999132">
		<tag k="name" v="Fossen" />
		<tag k="ssr:stedsnr" v="93466" />
		<tag k="waterway" v="river" />
	</node>
	<node id="-173302" lat="60.9140527776" lon="8.37471389278">
		<tag k="name" v="Krokeleintjerne" />
		<tag k="natural" v="water" />
		<tag k="ssr:stedsnr" v="615600" />
	</node>
	<node id="-173300" lat="60.9162638913" lon="8.21421389665">
		<tag k="alt_name" v="Myrkedøla" />
		<tag k="name" v="Mørkedøla" />
		<tag k="ssr:stedsnr" v="615583" />
		<tag k="waterway" v="river" />
	</node>
	<node id="-172670" lat="60.8639970983" lon="8.65319867136">
		<tag k="name" v="Hølutjerne" />
		<tag k="natural" v="water" />
		<tag k="ssr:stedsnr" v="9107" />
	</node>
	<node id="-173296" lat="60.9583888926" lon="8.43415278403">
		<tag k="name" v="Vavatn" />
		<tag k="natural" v="water" />
		<tag k="ssr:stedsnr" v="615483" />
		<tag k="water" v="lake" />
	</node>
	<node id="-173238" lat="60.8370241407" lon="8.73189442383">
		<tag k="name" v="Killingøya" />
		<tag k="place" v="island" />
		<tag k="ssr:stedsnr" v="578558" />
	</node>
	<node id="-172498" lat="61.0744166697" lon="8.28906110227">
		<tag k="name" v="Grøndalsbottvatnet" />
		<tag k="natural" v="water" />
		<tag k="ssr:stedsnr" v="370651" />
		<tag k="water" v="lake" />
	</node>
	<node id="-173290" lat="60.874022225" lon="8.51228888249">
		<tag k="name" v="Hagatjerne" />
		<tag k="natural" v="water" />
		<tag k="ssr:stedsnr" v="615119" />
	</node>
	<node id="-172771" lat="60.8409861071" lon="8.42313333647">
		<tag k="alt_name" v="Kvislefossen" />
		<tag k="name" v="Kvislefoss" />
		<tag k="natural" v="waterfall" />
		<tag k="ssr:stedsnr" v="69927" />
	</node>
	<node id="-173131" lat="60.9568750023" lon="8.2653555486">
		<tag k="name" v="Buliåne" />
		<tag k="ssr:stedsnr" v="494481" />
		<tag k="waterway" v="stream" />
	</node>
	<node id="-172804" lat="60.8577537531" lon="8.58906514627">
		<tag k="name" v="Joleimskanalen" />
		<tag k="ssr:stedsnr" v="93871" />
		<tag k="waterway" v="drain" />
	</node>
	<node id="-172767" lat="60.8794166637" lon="8.50341666468">
		<tag k="alt_name" v="Hulebakbekken" />
		<tag k="name" v="Hulbakbekken" />
		<tag k="ssr:stedsnr" v="69863" />
		<tag k="waterway" v="stream" />
	</node>
	<node id="-173277" lat="60.8586750005" lon="8.63835834223">
		<tag k="name" v="Olatjerne" />
		<tag k="natural" v="water" />
		<tag k="ssr:stedsnr" v="614147" />
	</node>
	<node id="-173276" lat="60.8570694417" lon="8.68469999202">
		<tag k="name" v="Løkjevadtjerne" />
		<tag k="natural" v="water" />
		<tag k="ssr:stedsnr" v="614145" />
	</node>
	<node id="-172685" lat="60.9382777816" lon="8.56982499516">
		<tag k="name" v="Isbretjerne" />
		<tag k="natural" v="water" />
		<tag k="ssr:stedsnr" v="9855" />
	</node>
	<node id="-173122" lat="60.8750166628" lon="8.83933054649">
		<tag k="name" v="Tisleifjorden" />
		<tag k="natural" v="water" />
		<tag k="old_name" v="Tisleifjord;Tesleien" />
		<tag k="ssr:stedsnr" v="494116" />
		<tag k="water" v="lake" />
	</node>
	<node id="-173271" lat="61.0420416687" lon="8.34997500073">
		<tag k="name" v="Nevreskardtjerne" />
		<tag k="natural" v="water" />
		<tag k="ssr:stedsnr" v="613641" />
	</node>
	<node id="-172755" lat="60.8930527774" lon="8.44947777594">
		<tag k="alt_name" v="Flatsjøen" />
		<tag k="name" v="Flatsjø" />
		<tag k="natural" v="water" />
		<tag k="ssr:stedsnr" v="69621" />
	</node>
	<node id="-173264" lat="60.885591671" lon="8.89324722153">
		<tag k="name" v="Greineløken" />
		<tag k="ssr:stedsnr" v="579425" />
		<tag k="waterway" v="stream" />
	</node>
	<node id="-172751" lat="60.966927778" lon="8.1602277793">
		<tag k="name" v="Slettevatnet" />
		<tag k="natural" v="water" />
		<tag k="ssr:stedsnr" v="69590" />
	</node>
	<node id="-173261" lat="60.8600666655" lon="8.74973889352">
		<tag k="name" v="Garnodden" />
		<tag k="natural" v="cape" />
		<tag k="ssr:stedsnr" v="579098" />
	</node>
	<node id="-172747" lat="60.8223444484" lon="8.75556389091">
		<tag k="name" v="Nausttjerne" />
		<tag k="natural" v="water" />
		<tag k="ssr:stedsnr" v="69218" />
	</node>
	<node id="-172745" lat="60.8415387859" lon="8.75305557148">
		<tag k="name" v="Grytevatnet" />
		<tag k="natural" v="water" />
		<tag k="ssr:stedsnr" v="69201" />
		<tag k="water" v="lake" />
	</node>
	<node id="-172406" lat="60.8584777733" lon="8.76483611336">
		<tag k="name" v="Sølevikodden" />
		<tag k="natural" v="cape" />
		<tag k="ssr:stedsnr" v="311196" />
	</node>
	<node id="-172738" lat="60.8603250021" lon="8.68284999496">
		<tag k="name" v="Hamartjerne" />
		<tag k="natural" v="water" />
		<tag k="ssr:stedsnr" v="69157" />
	</node>
	<node id="-173760" lat="60.8761750039" lon="8.85095833336">
		<tag k="name" v="Nedre Lomtjerne" />
		<tag k="natural" v="water" />
		<tag k="ssr:stedsnr" v="943747" />
	</node>
	<node id="-173755" lat="60.8732444459" lon="8.77569722995">
		<tag k="name" v="Nordre Ranavik" />
		<tag k="natural" v="bay" />
		<tag k="ssr:stedsnr" v="943331" />
	</node>
	<node id="-173224" lat="60.8399999964" lon="8.41257777221">
		<tag k="name" v="Stilla" />
		<tag k="natural" v="water" />
		<tag k="ssr:stedsnr" v="554936" />
		<tag k="water" v="lake" />
	</node>
	<node id="-172726" lat="60.8364342313" lon="8.74615322926">
		<tag k="name" v="Vetreviki" />
		<tag k="natural" v="bay" />
		<tag k="ssr:stedsnr" v="33549" />
	</node>
	<node id="-172723" lat="60.8464749996" lon="8.75569167163">
		<tag k="name" v="Hundodden" />
		<tag k="natural" v="cape" />
		<tag k="ssr:stedsnr" v="33118" />
	</node>
	<node id="-172719" lat="60.857215166" lon="8.56744580762">
		<tag k="name" v="Storøyne" />
		<tag k="natural" v="cape" />
		<tag k="ssr:stedsnr" v="32920" />
	</node>
	<node id="-172829" lat="60.9035638848" lon="8.37421945087">
		<tag k="name" v="Veikinntjernane" />
		<tag k="natural" v="water" />
		<tag k="ssr:stedsnr" v="129601" />
	</node>
	<node id="-173736" lat="60.858470666" lon="8.56689685563">
		<tag k="name" v="Langøyne" />
		<tag k="natural" v="cape" />
		<tag k="ssr:stedsnr" v="942925" />
	</node>
	<node id="-173222" lat="60.8505249982" lon="8.38112778415">
		<tag k="name" v="Botnabekken" />
		<tag k="ssr:stedsnr" v="554929" />
		<tag k="waterway" v="stream" />
	</node>
	<node id="-173018" lat="60.8273249977" lon="8.70434999705">
		<tag k="name" v="Ormetjerne" />
		<tag k="natural" v="water" />
		<tag k="ssr:stedsnr" v="433212" />
	</node>
	<node id="-172827" lat="60.9732138894" lon="8.34427777081">
		<tag k="name" v="Fossebekken" />
		<tag k="ssr:stedsnr" v="129540" />
		<tag k="waterway" v="stream" />
	</node>
	<node id="-173728" lat="60.8479055579" lon="8.42010554744">
		<tag k="name" v="Botnabekken" />
		<tag k="ssr:stedsnr" v="942739" />
		<tag k="waterway" v="river" />
	</node>
	<node id="-173086" lat="60.8560472253" lon="8.74792778019">
		<tag k="name" v="Sundet" />
		<tag k="natural" v="strait" />
		<tag k="ssr:stedsnr" v="458109" />
	</node>
	<node id="-173212" lat="60.9883916636" lon="8.32807223046">
		<tag k="name" v="Søteliåne" />
		<tag k="ssr:stedsnr" v="554596" />
		<tag k="waterway" v="stream" />
	</node>
	<node id="-173210" lat="60.9858555561" lon="8.46746666463">
		<tag k="name" v="Lysebottåne" />
		<tag k="ssr:stedsnr" v="554590" />
		<tag k="waterway" v="stream" />
	</node>
	<node id="-173721" lat="60.8391857692" lon="8.73698393044">
		<tag k="name" v="Steinarodden" />
		<tag k="natural" v="cape" />
		<tag k="ssr:stedsnr" v="942577" />
	</node>
	<node id="-173720" lat="60.8360436541" lon="8.729047603">
		<tag k="name" v="Trytevika" />
		<tag k="natural" v="bay" />
		<tag k="ssr:stedsnr" v="942573" />
	</node>
	<node id="-172693" lat="60.8759999961" lon="8.33806111384">
		<tag k="name" v="Kvannolbekken" />
		<tag k="ssr:stedsnr" v="32172" />
		<tag k="waterway" v="stream" />
	</node>
	<node id="-172540" lat="60.9551722233" lon="8.27679166792">
		<tag k="name" v="Buliåne" />
		<tag k="ssr:stedsnr" v="396202" />
		<tag k="waterway" v="river" />
	</node>
	<node id="-173201" lat="60.8254206373" lon="8.74530505891">
		<tag k="name" v="Vestretjerne" />
		<tag k="natural" v="water" />
		<tag k="ssr:stedsnr" v="554223" />
	</node>
	<node id="-172687" lat="60.8705722189" lon="8.56495556418">
		<tag k="name" v="Kvenabekken" />
		<tag k="ssr:stedsnr" v="32061" />
		<tag k="waterway" v="stream" />
	</node>
	<node id="-173710" lat="60.8737277778" lon="8.89007777353">
		<tag k="name" v="Inngangshaugane" />
		<tag k="place" v="island" />
		<tag k="ssr:stedsnr" v="920366" />
	</node>
	<node id="-173197" lat="60.839257799" lon="8.72286051618">
		<tag k="name" v="Purkeodden" />
		<tag k="natural" v="cape" />
		<tag k="ssr:stedsnr" v="554196" />
	</node>
	<node id="-173196" lat="60.836647225" lon="8.47525833146">
		<tag k="name" v="Hollebekken" />
		<tag k="ssr:stedsnr" v="554183" />
		<tag k="waterway" v="stream" />
	</node>
	<node id="-173195" lat="60.8443222259" lon="8.46998056441">
		<tag k="name" v="Kjeltjerne" />
		<tag k="natural" v="water" />
		<tag k="ssr:stedsnr" v="554180" />
	</node>
	<node id="-173705" lat="60.9152305513" lon="8.55298332924">
		<tag k="name" v="Vestrebotntjerne" />
		<tag k="natural" v="water" />
		<tag k="ssr:stedsnr" v="919841" />
	</node>
	<node id="-173704" lat="60.8929555539" lon="8.73931666794">
		<tag k="name" v="Skarvanåne" />
		<tag k="ssr:stedsnr" v="919838" />
		<tag k="waterway" v="stream" />
	</node>
	<node id="-173191" lat="60.7989499972" lon="8.76523333791">
		<tag k="name" v="Fuglehaugtjerne" />
		<tag k="natural" v="water" />
		<tag k="ssr:stedsnr" v="554011" />
	</node>
	<node id="-173700" lat="60.8717944431" lon="8.66953889486">
		<tag k="name" v="Bjørnstølåne" />
		<tag k="ssr:stedsnr" v="919787" />
		<tag k="waterway" v="stream" />
	</node>
	<node id="-172674" lat="60.9285750009" lon="8.3472361115">
		<tag k="name" v="Vardetjerne" />
		<tag k="natural" v="water" />
		<tag k="ssr:stedsnr" v="9598" />
	</node>
	<node id="-172673" lat="60.9284861122" lon="8.2525805471">
		<tag k="name" v="Ershovdtjernane" />
		<tag k="natural" v="water" />
		<tag k="ssr:stedsnr" v="9518" />
	</node>
	<node id="-172672" lat="60.8785972208" lon="8.85445278539">
		<tag k="name" v="Lomstjernane" />
		<tag k="natural" v="water" />
		<tag k="ssr:stedsnr" v="9427" />
	</node>
	<node id="-173695" lat="60.9467638904" lon="8.34061944347">
		<tag k="name" v="Buliåne" />
		<tag k="ssr:stedsnr" v="919537" />
		<tag k="waterway" v="river" />
	</node>
	<node id="-173182" lat="60.8565138918" lon="8.71970832753">
		<tag k="name" v="Killingøyne" />
		<tag k="place" v="island" />
		<tag k="ssr:stedsnr" v="518676" />
	</node>
	<node id="-173181" lat="60.8322014978" lon="8.74376388597">
		<tag k="name" v="Brendeodden" />
		<tag k="natural" v="cape" />
		<tag k="ssr:stedsnr" v="518476" />
	</node>
	<node id="-173162" lat="60.90218889" lon="8.43650277109">
		<tag k="name" v="Løgnåne" />
		<tag k="ssr:stedsnr" v="517653" />
		<tag k="waterway" v="river" />
	</node>
	<node id="-173687" lat="60.824758334" lon="8.69176111494">
		<tag k="name" v="Nordre Damtjerne" />
		<tag k="natural" v="water" />
		<tag k="ssr:stedsnr" v="919199" />
	</node>
	<node id="-172662" lat="60.9874638927" lon="8.3980361045">
		<tag k="name" v="Såtatjerne" />
		<tag k="natural" v="water" />
		<tag k="ssr:stedsnr" v="8571" />
	</node>
	<node id="-172393" lat="60.8525583328" lon="8.74323333233">
		<tag k="name" v="Hestanåne" />
		<tag k="ssr:stedsnr" v="276116" />
		<tag k="waterway" v="river" />
	</node>
	<node id="-172660" lat="60.9423111072" lon="8.2238694366">
		<tag k="name" v="Svartortjerne" />
		<tag k="natural" v="water" />
		<tag k="ssr:stedsnr" v="8550" />
	</node>
	<node id="-172990" lat="60.9238805549" lon="8.37712776872">
		<tag k="name" v="Surrebekken" />
		<tag k="ssr:stedsnr" v="251620" />
		<tag k="waterway" v="stream" />
	</node>
	<node id="-173682" lat="60.8830749991" lon="8.46914167446">
		<tag k="name" v="Grøndøla" />
		<tag k="ssr:stedsnr" v="918612" />
		<tag k="waterway" v="river" />
	</node>
	<node id="-172657" lat="60.9574166684" lon="8.33369999702">
		<tag k="name" v="Halsatjerne" />
		<tag k="natural" v="water" />
		<tag k="ssr:stedsnr" v="8530" />
	</node>
	<node id="-173167" lat="60.8866138913" lon="8.47817499521">
		<tag k="name" v="Bergabekken" />
		<tag k="ssr:stedsnr" v="517836" />
		<tag k="waterway" v="stream" />
	</node>
	<node id="-172654" lat="60.8184027753" lon="8.74250000505">
		<tag k="name" v="Brennetjerne" />
		<tag k="natural" v="water" />
		<tag k="ssr:stedsnr" v="8232" />
	</node>
	<node id="-172653" lat="60.8471638852" lon="8.73160000809">
		<tag k="name" v="Helgetjerne" />
		<tag k="natural" v="water" />
		<tag k="ssr:stedsnr" v="8208" />
	</node>
	<node id="-173163" lat="60.832811112" lon="8.41371110818">
		<tag k="name" v="Fagerdøla" />
		<tag k="ssr:stedsnr" v="517677" />
		<tag k="waterway" v="river" />
	</node>
	<node id="-173674" lat="60.8433277744" lon="8.74134722516">
		<tag k="name" v="Lomtjerne" />
		<tag k="natural" v="water" />
		<tag k="ssr:stedsnr" v="918217" />
	</node>
	<node id="-173668" lat="60.8571972194" lon="8.76630277822">
		<tag k="alt_name" v="Sølevik" />
		<tag k="name" v="Søleviki" />
		<tag k="natural" v="bay" />
		<tag k="ssr:stedsnr" v="918171" />
	</node>
	<node id="-173663" lat="60.7835833303" lon="8.74471111562">
		<tag k="name" v="Eikredammen" />
		<tag k="ssr:stedsnr" v="918023" />
		<tag k="waterway" v="dam" />
	</node>
	<node id="-173656" lat="60.857641665" lon="8.42164999741">
		<tag k="name" v="Lauvdøla" />
		<tag k="ssr:stedsnr" v="858933" />
		<tag k="waterway" v="river" />
	</node>
	<node id="-173143" lat="60.8648666658" lon="8.55601665978">
		<tag k="name" v="Trøymsåne" />
		<tag k="ssr:stedsnr" v="494815" />
		<tag k="waterway" v="river" />
	</node>
	<node id="-173140" lat="60.9526333355" lon="8.53706111646">
		<tag k="name" v="Langetjerne" />
		<tag k="natural" v="water" />
		<tag k="ssr:stedsnr" v="494727" />
		<tag k="water" v="lake" />
	</node>
	<node id="-173651" lat="60.8965055557" lon="8.47450000159">
		<tag k="alt_name" v="Brandvollsleintjerne" />
		<tag k="name" v="Brandvolsleintjerne" />
		<tag k="natural" v="water" />
		<tag k="ssr:stedsnr" v="858848" />
	</node>
	<node id="-173138" lat="60.8994083315" lon="8.18664722851">
		<tag k="name" v="Råskardtjerne" />
		<tag k="natural" v="water" />
		<tag k="ssr:stedsnr" v="494593" />
	</node>
	<node id="-173648" lat="60.8775166691" lon="8.52704999938">
		<tag k="name" v="Finndøla" />
		<tag k="ssr:stedsnr" v="858837" />
		<tag k="waterway" v="stream" />
	</node>
	<node id="-173646" lat="60.9241583296" lon="8.43830555168">
		<tag k="name" v="Gjuva" />
		<tag k="ssr:stedsnr" v="858809" />
		<tag k="waterway" v="river" />
	</node>
	<node id="-172557" lat="60.8106777766" lon="8.66473889257">
		<tag k="name" v="Skarsstronde" />
		<tag k="natural" v="beach" />
		<tag k="ssr:stedsnr" v="396570" />
	</node>
	<node id="-172898" lat="60.8262527814" lon="8.72673332749">
		<tag k="name" v="Rishaugtjerne" />
		<tag k="natural" v="water" />
		<tag k="ssr:stedsnr" v="190217" />
	</node>
	<node id="-173641" lat="60.9302750041" lon="8.32277499899">
		<tag k="name" v="Kvannebekktjerne" />
		<tag k="natural" v="water" />
		<tag k="ssr:stedsnr" v="858614" />
	</node>
	<node id="-172616" lat="60.8719055535" lon="8.66346388458">
		<tag k="name" v="Nordrestølbekken" />
		<tag k="ssr:stedsnr" v="882815" />
		<tag k="waterway" v="stream" />
	</node>
	<node id="-173126" lat="60.8274888873" lon="8.75268889448">
		<tag k="name" v="Bjørnatjerne" />
		<tag k="natural" v="water" />
		<tag k="ssr:stedsnr" v="494186" />
	</node>
	<node id="-173635" lat="60.8881527741" lon="8.15634722791">
		<tag k="name" v="Langebottjernane" />
		<tag k="natural" v="water" />
		<tag k="ssr:stedsnr" v="858587" />
	</node>
	<node id="-173634" lat="60.8953694429" lon="8.43103888576">
		<tag k="alt_name" v="Fagersetvatn" />
		<tag k="name" v="Fagersetvatnet" />
		<tag k="natural" v="water" />
		<tag k="ssr:stedsnr" v="858585" />
		<tag k="water" v="lake" />
	</node>
	<node id="-173633" lat="60.9832694461" lon="8.36205277684">
		<tag k="name" v="Storebekken" />
		<tag k="ssr:stedsnr" v="858571" />
		<tag k="waterway" v="stream" />
	</node>
	<node id="-173120" lat="60.7973194486" lon="8.6828944418">
		<tag k="name" v="Gjuva" />
		<tag k="ssr:stedsnr" v="494011" />
		<tag k="waterway" v="river" />
	</node>
	<node id="-172896" lat="60.8300944486" lon="8.72248610833">
		<tag k="name" v="Gampetjerne" />
		<tag k="natural" v="water" />
		<tag k="ssr:stedsnr" v="190205" />
	</node>
	<node id="-173117" lat="60.8752972201" lon="8.46431666713">
		<tag k="alt_name" v="Rjukanfossen" />
		<tag k="name" v="Rjukandefoss" />
		<tag k="natural" v="waterfall" />
		<tag k="ssr:stedsnr" v="493932" />
	</node>
	<node id="-173627" lat="60.8287000023" lon="8.76531389565">
		<tag k="name" v="Tryteholone" />
		<tag k="natural" v="bay" />
		<tag k="ssr:stedsnr" v="858217" />
	</node>
	<node id="-173151" lat="60.974736108" lon="8.54483056039">
		<tag k="name" v="Geitevatnet" />
		<tag k="natural" v="water" />
		<tag k="ssr:stedsnr" v="517123" />
	</node>
	<node id="-173111" lat="60.8385027739" lon="8.50988610267">
		<tag k="name" v="Tottetjerne" />
		<tag k="natural" v="water" />
		<tag k="ssr:stedsnr" v="493185" />
	</node>
	<node id="-173109" lat="60.8515416684" lon="8.79826389772">
		<tag k="name" v="Kroktjerne" />
		<tag k="natural" v="water" />
		<tag k="ssr:stedsnr" v="493182" />
	</node>
	<node id="-172594" lat="60.8417190311" lon="8.73265467804">
		<tag k="name" v="Oset" />
		<tag k="natural" v="bay" />
		<tag k="ssr:stedsnr" v="882513" />
	</node>
	<node id="-173105" lat="60.7782666623" lon="8.65372500127">
		<tag k="alt_name" v="Gjuva, vesle" />
		<tag k="name" v="Vesle Gjuva" />
		<tag k="ssr:stedsnr" v="493010" />
		<tag k="waterway" v="stream" />
	</node>
	<node id="-173103" lat="61.0591111114" lon="8.29320000179">
		<tag k="name" v="Tverråne" />
		<tag k="ssr:stedsnr" v="492598" />
		<tag k="waterway" v="river" />
	</node>
	<node id="-173101" lat="60.8743083341" lon="8.32151110645">
		<tag k="alt_name" v="Kvannalbekken" />
		<tag k="name" v="Kvannolbekken" />
		<tag k="ssr:stedsnr" v="493587" />
		<tag k="waterway" v="stream" />
	</node>
	<node id="-173612" lat="61.0606750034" lon="8.3249">
		<tag k="name" v="Bjørnatjerne" />
		<tag k="natural" v="water" />
		<tag k="ssr:stedsnr" v="856663" />
	</node>
	<node id="-172432" lat="60.9095583352" lon="8.36206111762">
		<tag k="name" v="Jørundfettjerne" />
		<tag k="natural" v="water" />
		<tag k="ssr:stedsnr" v="312607" />
	</node>
	<node id="-173098" lat="61.0010555553" lon="8.40188055688">
		<tag k="name" v="Storebottjerne" />
		<tag k="natural" v="water" />
		<tag k="ssr:stedsnr" v="493557" />
	</node>
	<node id="-173607" lat="60.8428361093" lon="8.75743334123">
		<tag k="name" v="Nystølodden" />
		<tag k="natural" v="cape" />
		<tag k="ssr:stedsnr" v="822524" />
	</node>
	<node id="-173093" lat="60.8386722214" lon="8.75762500228">
		<tag k="name" v="Trytesteinen" />
		<tag k="natural" v="cape" />
		<tag k="ssr:stedsnr" v="458547" />
	</node>
	<node id="-173604" lat="60.8461555574" lon="8.7580055544">
		<tag k="name" v="Myrevika" />
		<tag k="natural" v="bay" />
		<tag k="ssr:stedsnr" v="822105" />
	</node>
	<node id="-173091" lat="60.8935500037" lon="8.89600832708">
		<tag k="name" v="Høgefoss" />
		<tag k="natural" v="waterfall" />
		<tag k="ssr:stedsnr" v="458449" />
	</node>
	<node id="-173087" lat="60.8646666671" lon="8.74969999634">
		<tag k="name" v="Elviksundet" />
		<tag k="natural" v="strait" />
		<tag k="ssr:stedsnr" v="458110" />
	</node>
	<node id="-173598" lat="60.8722501993" lon="8.74059720963">
		<tag k="name" v="Kjerringbekken" />
		<tag k="ssr:stedsnr" v="821807" />
		<tag k="waterway" v="stream" />
	</node>
	<node id="-173084" lat="60.8825722208" lon="8.47179166094">
		<tag k="name" v="Stronde" />
		<tag k="natural" v="beach" />
		<tag k="ssr:stedsnr" v="457782" />
	</node>
	<node id="-172463" lat="60.9277999978" lon="8.40335000626">
		<tag k="name" v="Øyne" />
		<tag k="natural" v="cape" />
		<tag k="ssr:stedsnr" v="335599" />
	</node>
	<node id="-173592" lat="60.8424166678" lon="8.45973334064">
		<tag k="name" v="Fløgatjerne" />
		<tag k="natural" v="water" />
		<tag k="ssr:stedsnr" v="821689" />
	</node>
	<node id="-173128" lat="60.8134500041" lon="8.48800833681">
		<tag k="name" v="Venebottvatnet" />
		<tag k="natural" v="water" />
		<tag k="ssr:stedsnr" v="494202" />
	</node>
	<node id="-173075" lat="60.8140861152" lon="8.65242221643">
		<tag k="name" v="Nilsehaugstronde" />
		<tag k="natural" v="beach" />
		<tag k="ssr:stedsnr" v="457564" />
	</node>
	<node id="-173074" lat="60.8306221326" lon="8.73533333037">
		<tag k="name" v="Dritarodden" />
		<tag k="natural" v="cape" />
		<tag k="ssr:stedsnr" v="457562" />
	</node>
	<node id="-173585" lat="60.8037583336" lon="8.6647000065">
		<tag k="name" v="Langebekk" />
		<tag k="ssr:stedsnr" v="821588" />
		<tag k="waterway" v="stream" />
	</node>
	<node id="-173584" lat="60.8007722231" lon="8.67659444184">
		<tag k="name" v="Gjuvestølmyrkanalen" />
		<tag k="ssr:stedsnr" v="821586" />
		<tag k="waterway" v="stream" />
	</node>
	<node id="-173069" lat="60.8740749998" lon="8.78664166803">
		<tag k="name" v="Søre Ranavik" />
		<tag k="natural" v="bay" />
		<tag k="ssr:stedsnr" v="457292" />
	</node>
	<node id="-172554" lat="60.838149881" lon="8.72445820713">
		<tag k="name" v="Herbrandvika" />
		<tag k="natural" v="bay" />
		<tag k="ssr:stedsnr" v="396556" />
	</node>
	<node id="-173576" lat="60.7934611101" lon="8.7034861105">
		<tag k="name" v="Bagøyne" />
		<tag k="place" v="island" />
		<tag k="ssr:stedsnr" v="821294" />
	</node>
	<node id="-173115" lat="60.8426999984" lon="8.73422778598">
		<tag k="name" v="Ostjerne" />
		<tag k="natural" v="water" />
		<tag k="ssr:stedsnr" v="493203" />
	</node>
	<node id="-173572" lat="60.7782388861" lon="8.62485277632">
		<tag k="name" v="Fløbekken" />
		<tag k="ssr:stedsnr" v="821259" />
		<tag k="waterway" v="stream" />
	</node>
	<node id="-173571" lat="60.7831861081" lon="8.62336389412">
		<tag k="name" v="Rundhaugtjerne" />
		<tag k="natural" v="water" />
		<tag k="ssr:stedsnr" v="821237" />
	</node>
</osm>
