<?xml version="1.0" encoding="UTF-8"?>
<osm generator="osmapis" version="0.6">
	<node id="-88064" lat="70.6625444083" lon="23.6829430217">
		<tag k="name" v="Hammerfest kommune - Hámmerfeastta suohkan" />
		<tag k="name:no" v="Hammerfest kommune" />
		<tag k="name:se" v="Hámmerfeastta suohkan" />
		<tag k="ssr:date" v="2020-01-02" />
		<tag k="ssr:gruppe" v="administrativeIndelinger" />
		<tag k="ssr:hovedgruppe" v="offentligAdministrasjon" />
		<tag k="ssr:stedsnr" v="1073623" />
		<tag k="ssr:type" v="kommune" />
	</node>
	<node id="-88061" lat="70.7213748821" lon="23.7987408021">
		<tag k="name" v="Forsølringen" />
		<tag k="ssr:date" v="2019-12-27" />
		<tag k="ssr:gruppe" v="veg" />
		<tag k="ssr:hovedgruppe" v="infrastruktur" />
		<tag k="ssr:stedsnr" v="1071967" />
		<tag k="ssr:type" v="adressenavn" />
	</node>
	<node id="-88060" lat="70.8463562095" lon="23.3595258681">
		<tag k="name" v="Kjøttvikvarden" />
		<tag k="ssr:date" v="2019-12-27" />
		<tag k="ssr:gruppe" v="veg" />
		<tag k="ssr:hovedgruppe" v="infrastruktur" />
		<tag k="ssr:stedsnr" v="1056492" />
		<tag k="ssr:type" v="adressenavn" />
	</node>
	<node id="-88059" lat="70.8691857374" lon="23.3146117134">
		<tag k="name" v="Tarhalsen" />
		<tag k="ssr:date" v="2019-12-27" />
		<tag k="ssr:gruppe" v="veg" />
		<tag k="ssr:hovedgruppe" v="infrastruktur" />
		<tag k="ssr:stedsnr" v="1056491" />
		<tag k="ssr:type" v="adressenavn" />
	</node>
	<node id="-88058" lat="70.8388040062" lon="23.3713519719">
		<tag k="name" v="Kjøttvika" />
		<tag k="ssr:date" v="2019-12-27" />
		<tag k="ssr:gruppe" v="veg" />
		<tag k="ssr:hovedgruppe" v="infrastruktur" />
		<tag k="ssr:stedsnr" v="1056490" />
		<tag k="ssr:type" v="adressenavn" />
	</node>
	<node id="-88057" lat="70.8117897749" lon="23.4077795237">
		<tag k="name" v="Mefjord" />
		<tag k="ssr:date" v="2019-12-27" />
		<tag k="ssr:gruppe" v="veg" />
		<tag k="ssr:hovedgruppe" v="infrastruktur" />
		<tag k="ssr:stedsnr" v="1056489" />
		<tag k="ssr:type" v="adressenavn" />
	</node>
	<node id="-88056" lat="70.6718369746" lon="23.1469617223">
		<tag k="name" v="Jakobbuktvannet" />
		<tag k="ssr:date" v="2019-12-27" />
		<tag k="ssr:gruppe" v="veg" />
		<tag k="ssr:hovedgruppe" v="infrastruktur" />
		<tag k="ssr:stedsnr" v="1056482" />
		<tag k="ssr:type" v="adressenavn" />
	</node>
	<node id="-88055" lat="70.6988706376" lon="22.9117886948">
		<tag k="name" v="Salomonneset" />
		<tag k="ssr:date" v="2019-12-27" />
		<tag k="ssr:gruppe" v="veg" />
		<tag k="ssr:hovedgruppe" v="infrastruktur" />
		<tag k="ssr:stedsnr" v="1056480" />
		<tag k="ssr:type" v="adressenavn" />
	</node>
	<node id="-88054" lat="70.6552486311" lon="22.8747528016">
		<tag k="name" v="Steinvannet" />
		<tag k="ssr:date" v="2019-12-27" />
		<tag k="ssr:gruppe" v="veg" />
		<tag k="ssr:hovedgruppe" v="infrastruktur" />
		<tag k="ssr:stedsnr" v="1056479" />
		<tag k="ssr:type" v="adressenavn" />
	</node>
	<node id="-88053" lat="70.6765953935" lon="22.9449429381">
		<tag k="name" v="Avløysinga" />
		<tag k="ssr:date" v="2019-12-27" />
		<tag k="ssr:gruppe" v="veg" />
		<tag k="ssr:hovedgruppe" v="infrastruktur" />
		<tag k="ssr:stedsnr" v="1056478" />
		<tag k="ssr:type" v="adressenavn" />
	</node>
	<node id="-88052" lat="70.6854820744" lon="22.9147668903">
		<tag k="name" v="Koppardalen" />
		<tag k="ssr:date" v="2019-12-27" />
		<tag k="ssr:gruppe" v="veg" />
		<tag k="ssr:hovedgruppe" v="infrastruktur" />
		<tag k="ssr:stedsnr" v="1056477" />
		<tag k="ssr:type" v="adressenavn" />
	</node>
	<node id="-88051" lat="70.7509363596" lon="22.9515882467">
		<tag k="name" v="Sandøya" />
		<tag k="ssr:date" v="2019-12-27" />
		<tag k="ssr:gruppe" v="veg" />
		<tag k="ssr:hovedgruppe" v="infrastruktur" />
		<tag k="ssr:stedsnr" v="1056475" />
		<tag k="ssr:type" v="adressenavn" />
	</node>
	<node id="-88050" lat="70.6828769606" lon="23.955924011">
		<tag k="name" v="Storvikvannet" />
		<tag k="ssr:date" v="2019-12-27" />
		<tag k="ssr:gruppe" v="veg" />
		<tag k="ssr:hovedgruppe" v="infrastruktur" />
		<tag k="ssr:stedsnr" v="1056473" />
		<tag k="ssr:type" v="adressenavn" />
	</node>
	<node id="-88049" lat="70.6903645715" lon="23.9964830778">
		<tag k="name" v="Storvika" />
		<tag k="ssr:date" v="2019-12-27" />
		<tag k="ssr:gruppe" v="veg" />
		<tag k="ssr:hovedgruppe" v="infrastruktur" />
		<tag k="ssr:stedsnr" v="1056472" />
		<tag k="ssr:type" v="adressenavn" />
	</node>
	<node id="-88048" lat="70.6684187729" lon="23.7446790698">
		<tag k="name" v="Langvannet" />
		<tag k="ssr:date" v="2019-12-27" />
		<tag k="ssr:gruppe" v="veg" />
		<tag k="ssr:hovedgruppe" v="infrastruktur" />
		<tag k="ssr:stedsnr" v="1056471" />
		<tag k="ssr:type" v="adressenavn" />
	</node>
	<node id="-88047" lat="70.7303346531" lon="23.357945624">
		<tag k="name" v="Skippernes" />
		<tag k="ssr:date" v="2019-12-27" />
		<tag k="ssr:gruppe" v="veg" />
		<tag k="ssr:hovedgruppe" v="infrastruktur" />
		<tag k="ssr:stedsnr" v="1056468" />
		<tag k="ssr:type" v="adressenavn" />
	</node>
	<node id="-88046" lat="70.7004010695" lon="23.2406221346">
		<tag k="name" v="Lunnhamna" />
		<tag k="ssr:date" v="2019-12-27" />
		<tag k="ssr:gruppe" v="veg" />
		<tag k="ssr:hovedgruppe" v="infrastruktur" />
		<tag k="ssr:stedsnr" v="1056466" />
		<tag k="ssr:type" v="adressenavn" />
	</node>
	<node id="-88045" lat="70.6844964435" lon="23.2172207917">
		<tag k="name" v="Svartbotn" />
		<tag k="ssr:date" v="2019-12-27" />
		<tag k="ssr:gruppe" v="veg" />
		<tag k="ssr:hovedgruppe" v="infrastruktur" />
		<tag k="ssr:stedsnr" v="1056465" />
		<tag k="ssr:type" v="adressenavn" />
	</node>
	<node id="-88044" lat="70.4873708192" lon="23.9644362512">
		<tag k="name" v="Korsfossen" />
		<tag k="ssr:date" v="2019-12-27" />
		<tag k="ssr:gruppe" v="veg" />
		<tag k="ssr:hovedgruppe" v="infrastruktur" />
		<tag k="ssr:stedsnr" v="1056460" />
		<tag k="ssr:type" v="adressenavn" />
	</node>
	<node id="-88043" lat="70.5258775585" lon="23.1507323482">
		<tag k="name" v="Jonsbukta" />
		<tag k="ssr:date" v="2019-12-27" />
		<tag k="ssr:gruppe" v="veg" />
		<tag k="ssr:hovedgruppe" v="infrastruktur" />
		<tag k="ssr:stedsnr" v="1056267" />
		<tag k="ssr:type" v="adressenavn" />
	</node>
	<node id="-88042" lat="70.523396015" lon="23.1595842884">
		<tag k="name" v="Rastaby" />
		<tag k="ssr:date" v="2019-12-27" />
		<tag k="ssr:gruppe" v="veg" />
		<tag k="ssr:hovedgruppe" v="infrastruktur" />
		<tag k="ssr:stedsnr" v="1056266" />
		<tag k="ssr:type" v="adressenavn" />
	</node>
	<node id="-88041" lat="70.4968670443" lon="23.1466715188">
		<tag k="name" v="Kalvebukta" />
		<tag k="ssr:date" v="2019-12-27" />
		<tag k="ssr:gruppe" v="veg" />
		<tag k="ssr:hovedgruppe" v="infrastruktur" />
		<tag k="ssr:stedsnr" v="1056265" />
		<tag k="ssr:type" v="adressenavn" />
	</node>
	<node id="-88040" lat="70.4551836768" lon="23.206804113">
		<tag k="name" v="Straumvannene" />
		<tag k="ssr:date" v="2019-12-27" />
		<tag k="ssr:gruppe" v="veg" />
		<tag k="ssr:hovedgruppe" v="infrastruktur" />
		<tag k="ssr:stedsnr" v="1056264" />
		<tag k="ssr:type" v="adressenavn" />
	</node>
	<node id="-88039" lat="70.5129352097" lon="23.0844307905">
		<tag k="name" v="Seines" />
		<tag k="ssr:date" v="2019-12-27" />
		<tag k="ssr:gruppe" v="veg" />
		<tag k="ssr:hovedgruppe" v="infrastruktur" />
		<tag k="ssr:stedsnr" v="1056263" />
		<tag k="ssr:type" v="adressenavn" />
	</node>
	<node id="-88038" lat="70.5157183432" lon="23.2287746161">
		<tag k="name" v="Skreifjordeidet" />
		<tag k="ssr:date" v="2019-12-27" />
		<tag k="ssr:gruppe" v="veg" />
		<tag k="ssr:hovedgruppe" v="infrastruktur" />
		<tag k="ssr:stedsnr" v="1056262" />
		<tag k="ssr:type" v="adressenavn" />
	</node>
	<node id="-88037" lat="70.5146152255" lon="23.1700344202">
		<tag k="name" v="Gåsenga" />
		<tag k="ssr:date" v="2019-12-27" />
		<tag k="ssr:gruppe" v="veg" />
		<tag k="ssr:hovedgruppe" v="infrastruktur" />
		<tag k="ssr:stedsnr" v="1056261" />
		<tag k="ssr:type" v="adressenavn" />
	</node>
	<node id="-88036" lat="70.5021443318" lon="23.1585522629">
		<tag k="name" v="Hamnebukta" />
		<tag k="ssr:date" v="2019-12-27" />
		<tag k="ssr:gruppe" v="veg" />
		<tag k="ssr:hovedgruppe" v="infrastruktur" />
		<tag k="ssr:stedsnr" v="1056260" />
		<tag k="ssr:type" v="adressenavn" />
	</node>
	<node id="-88035" lat="70.5346687999" lon="23.3434845799">
		<tag k="name" v="Veggvika" />
		<tag k="ssr:date" v="2019-12-27" />
		<tag k="ssr:gruppe" v="veg" />
		<tag k="ssr:hovedgruppe" v="infrastruktur" />
		<tag k="ssr:stedsnr" v="1056259" />
		<tag k="ssr:type" v="adressenavn" />
	</node>
	<node id="-88034" lat="70.5190429911" lon="23.3434880241">
		<tag k="name" v="Tverrfjordvannet" />
		<tag k="ssr:date" v="2019-12-27" />
		<tag k="ssr:gruppe" v="veg" />
		<tag k="ssr:hovedgruppe" v="infrastruktur" />
		<tag k="ssr:stedsnr" v="1056258" />
		<tag k="ssr:type" v="adressenavn" />
	</node>
	<node id="-88033" lat="70.5253155367" lon="23.3241182714">
		<tag k="name" v="Tverrfjorden" />
		<tag k="ssr:date" v="2019-12-27" />
		<tag k="ssr:gruppe" v="veg" />
		<tag k="ssr:hovedgruppe" v="infrastruktur" />
		<tag k="ssr:stedsnr" v="1056257" />
		<tag k="ssr:type" v="adressenavn" />
	</node>
	<node id="-88032" lat="70.5147975346" lon="23.2063603108">
		<tag k="name" v="Sandan" />
		<tag k="ssr:date" v="2019-12-27" />
		<tag k="ssr:gruppe" v="veg" />
		<tag k="ssr:hovedgruppe" v="infrastruktur" />
		<tag k="ssr:stedsnr" v="1056256" />
		<tag k="ssr:type" v="adressenavn" />
	</node>
	<node id="-88031" lat="70.5094303409" lon="23.3875787349">
		<tag k="name" v="Storvannet" />
		<tag k="ssr:date" v="2019-12-27" />
		<tag k="ssr:gruppe" v="veg" />
		<tag k="ssr:hovedgruppe" v="infrastruktur" />
		<tag k="ssr:stedsnr" v="1056255" />
		<tag k="ssr:type" v="adressenavn" />
	</node>
	<node id="-88030" lat="70.6108770868" lon="23.4606604072">
		<tag k="name" v="Fagervika" />
		<tag k="ssr:date" v="2019-12-27" />
		<tag k="ssr:gruppe" v="veg" />
		<tag k="ssr:hovedgruppe" v="infrastruktur" />
		<tag k="ssr:stedsnr" v="1056253" />
		<tag k="ssr:type" v="adressenavn" />
	</node>
	<node id="-88029" lat="70.5544328527" lon="22.7235922326">
		<tag k="name" v="Ramnes" />
		<tag k="ssr:date" v="2019-12-27" />
		<tag k="ssr:gruppe" v="veg" />
		<tag k="ssr:hovedgruppe" v="infrastruktur" />
		<tag k="ssr:stedsnr" v="1056250" />
		<tag k="ssr:type" v="adressenavn" />
	</node>
	<node id="-88028" lat="70.5197490125" lon="22.8371263911">
		<tag k="name" v="Gåshopen" />
		<tag k="ssr:date" v="2019-12-27" />
		<tag k="ssr:gruppe" v="veg" />
		<tag k="ssr:hovedgruppe" v="infrastruktur" />
		<tag k="ssr:stedsnr" v="1056249" />
		<tag k="ssr:type" v="adressenavn" />
	</node>
	<node id="-88027" lat="70.5581267796" lon="22.8934548392">
		<tag k="name" v="Husfjorden" />
		<tag k="ssr:date" v="2019-12-27" />
		<tag k="ssr:gruppe" v="veg" />
		<tag k="ssr:hovedgruppe" v="infrastruktur" />
		<tag k="ssr:stedsnr" v="1056248" />
		<tag k="ssr:type" v="adressenavn" />
	</node>
	<node id="-88026" lat="70.5298805885" lon="22.9121456642">
		<tag k="name" v="Vatnan" />
		<tag k="ssr:date" v="2019-12-27" />
		<tag k="ssr:gruppe" v="veg" />
		<tag k="ssr:hovedgruppe" v="infrastruktur" />
		<tag k="ssr:stedsnr" v="1056247" />
		<tag k="ssr:type" v="adressenavn" />
	</node>
	<node id="-88025" lat="70.5336018195" lon="22.9305720007">
		<tag k="name" v="Vatnhamna" />
		<tag k="ssr:date" v="2019-12-27" />
		<tag k="ssr:gruppe" v="veg" />
		<tag k="ssr:hovedgruppe" v="infrastruktur" />
		<tag k="ssr:stedsnr" v="1056246" />
		<tag k="ssr:type" v="adressenavn" />
	</node>
	<node id="-88024" lat="70.4012379295" lon="22.9394345456">
		<tag k="name" v="Bårdfjorden" />
		<tag k="ssr:date" v="2019-12-27" />
		<tag k="ssr:gruppe" v="veg" />
		<tag k="ssr:hovedgruppe" v="infrastruktur" />
		<tag k="ssr:stedsnr" v="1056244" />
		<tag k="ssr:type" v="adressenavn" />
	</node>
	<node id="-88023" lat="70.6589906179" lon="23.1621277227">
		<tag k="name" v="Storbukta" />
		<tag k="ssr:date" v="2019-12-27" />
		<tag k="ssr:gruppe" v="veg" />
		<tag k="ssr:hovedgruppe" v="infrastruktur" />
		<tag k="ssr:stedsnr" v="1056242" />
		<tag k="ssr:type" v="adressenavn" />
	</node>
	<node id="-88022" lat="70.5712815907" lon="23.0569786212">
		<tag k="name" v="Fella" />
		<tag k="ssr:date" v="2019-12-27" />
		<tag k="ssr:gruppe" v="veg" />
		<tag k="ssr:hovedgruppe" v="infrastruktur" />
		<tag k="ssr:stedsnr" v="1056241" />
		<tag k="ssr:type" v="adressenavn" />
	</node>
	<node id="-88021" lat="70.5776909742" lon="23.0713756633">
		<tag k="name" v="Laukvika" />
		<tag k="ssr:date" v="2019-12-27" />
		<tag k="ssr:gruppe" v="veg" />
		<tag k="ssr:hovedgruppe" v="infrastruktur" />
		<tag k="ssr:stedsnr" v="1056240" />
		<tag k="ssr:type" v="adressenavn" />
	</node>
	<node id="-88020" lat="70.5830427714" lon="23.0712445321">
		<tag k="name" v="Oksevika" />
		<tag k="ssr:date" v="2019-12-27" />
		<tag k="ssr:gruppe" v="veg" />
		<tag k="ssr:hovedgruppe" v="infrastruktur" />
		<tag k="ssr:stedsnr" v="1056239" />
		<tag k="ssr:type" v="adressenavn" />
	</node>
	<node id="-88019" lat="70.5854077576" lon="23.0095777182">
		<tag k="name" v="Hamnefjorden" />
		<tag k="ssr:date" v="2019-12-27" />
		<tag k="ssr:gruppe" v="veg" />
		<tag k="ssr:hovedgruppe" v="infrastruktur" />
		<tag k="ssr:stedsnr" v="1056238" />
		<tag k="ssr:type" v="adressenavn" />
	</node>
	<node id="-88018" lat="70.6594546388" lon="23.1848667282">
		<tag k="name" v="Odden" />
		<tag k="ssr:date" v="2019-12-27" />
		<tag k="ssr:gruppe" v="veg" />
		<tag k="ssr:hovedgruppe" v="infrastruktur" />
		<tag k="ssr:stedsnr" v="1056237" />
		<tag k="ssr:type" v="adressenavn" />
	</node>
	<node id="-88017" lat="70.5859178916" lon="23.0754334992">
		<tag k="name" v="Nordbukta" />
		<tag k="ssr:date" v="2019-12-27" />
		<tag k="ssr:gruppe" v="veg" />
		<tag k="ssr:hovedgruppe" v="infrastruktur" />
		<tag k="ssr:stedsnr" v="1056236" />
		<tag k="ssr:type" v="adressenavn" />
	</node>
	<node id="-88016" lat="70.5917783008" lon="23.0904651214">
		<tag k="name" v="Urelva" />
		<tag k="ssr:date" v="2019-12-27" />
		<tag k="ssr:gruppe" v="veg" />
		<tag k="ssr:hovedgruppe" v="infrastruktur" />
		<tag k="ssr:stedsnr" v="1056235" />
		<tag k="ssr:type" v="adressenavn" />
	</node>
	<node id="-88015" lat="70.5971170732" lon="23.0945540441">
		<tag k="name" v="Nordbø" />
		<tag k="ssr:date" v="2019-12-27" />
		<tag k="ssr:gruppe" v="veg" />
		<tag k="ssr:hovedgruppe" v="infrastruktur" />
		<tag k="ssr:stedsnr" v="1056234" />
		<tag k="ssr:type" v="adressenavn" />
	</node>
	<node id="-88014" lat="70.6076560868" lon="23.0943580971">
		<tag k="name" v="Gjeltindneset" />
		<tag k="ssr:date" v="2019-12-27" />
		<tag k="ssr:gruppe" v="veg" />
		<tag k="ssr:hovedgruppe" v="infrastruktur" />
		<tag k="ssr:stedsnr" v="1056233" />
		<tag k="ssr:type" v="adressenavn" />
	</node>
	<node id="-88013" lat="70.6287241889" lon="23.0881137921">
		<tag k="name" v="Slettnesfjorden" />
		<tag k="ssr:date" v="2019-12-27" />
		<tag k="ssr:gruppe" v="veg" />
		<tag k="ssr:hovedgruppe" v="infrastruktur" />
		<tag k="ssr:stedsnr" v="1056232" />
		<tag k="ssr:type" v="adressenavn" />
	</node>
	<node id="-88012" lat="70.6642557468" lon="23.6983560722">
		<tag k="name" v="Belsen" />
		<tag k="ssr:date" v="2019-12-27" />
		<tag k="ssr:gruppe" v="veg" />
		<tag k="ssr:hovedgruppe" v="infrastruktur" />
		<tag k="ssr:stedsnr" v="1056219" />
		<tag k="ssr:type" v="adressenavn" />
	</node>
	<node id="-88011" lat="70.626074268" lon="23.4001445251">
		<tag k="name" v="Grunnvågen" />
		<tag k="ssr:date" v="2019-12-27" />
		<tag k="ssr:gruppe" v="veg" />
		<tag k="ssr:hovedgruppe" v="infrastruktur" />
		<tag k="ssr:stedsnr" v="1056178" />
		<tag k="ssr:type" v="adressenavn" />
	</node>
	<node id="-88010" lat="70.6071031688" lon="23.5444444222">
		<tag k="name" v="Rásláttat" />
		<tag k="ssr:date" v="2019-12-27" />
		<tag k="ssr:gruppe" v="veg" />
		<tag k="ssr:hovedgruppe" v="infrastruktur" />
		<tag k="ssr:stedsnr" v="1056174" />
		<tag k="ssr:type" v="adressenavn" />
	</node>
	<node id="-88009" lat="70.6203162708" lon="23.4770308113">
		<tag k="name" v="Ersvika" />
		<tag k="ssr:date" v="2019-12-27" />
		<tag k="ssr:gruppe" v="veg" />
		<tag k="ssr:hovedgruppe" v="infrastruktur" />
		<tag k="ssr:stedsnr" v="1056173" />
		<tag k="ssr:type" v="adressenavn" />
	</node>
	<node id="-88008" lat="70.6211332678" lon="23.8311928561">
		<tag k="name" v="Montenegrovannet" />
		<tag k="ssr:date" v="2019-12-27" />
		<tag k="ssr:gruppe" v="veg" />
		<tag k="ssr:hovedgruppe" v="infrastruktur" />
		<tag k="ssr:stedsnr" v="1056084" />
		<tag k="ssr:type" v="adressenavn" />
	</node>
	<node id="-88007" lat="70.6293856349" lon="23.6973092366">
		<tag k="name" v="Dolomittveien" />
		<tag k="ssr:date" v="2019-12-27" />
		<tag k="ssr:gruppe" v="veg" />
		<tag k="ssr:hovedgruppe" v="infrastruktur" />
		<tag k="ssr:stedsnr" v="1055676" />
		<tag k="ssr:type" v="adressenavn" />
	</node>
	<node id="-88006" lat="70.6672459282" lon="23.700506168">
		<tag k="name" v="Fjellplatået" />
		<tag k="ssr:date" v="2019-12-27" />
		<tag k="ssr:gruppe" v="veg" />
		<tag k="ssr:hovedgruppe" v="infrastruktur" />
		<tag k="ssr:stedsnr" v="1055373" />
		<tag k="ssr:type" v="adressenavn" />
	</node>
	<node id="-87541" lat="70.6671232412" lon="23.6548241065">
		<tag k="name" v="Fuglenes" />
		<tag k="ssr:date" v="2020-09-17" />
		<tag k="ssr:gruppe" v="navigasjon" />
		<tag k="ssr:hovedgruppe" v="infrastruktur" />
		<tag k="ssr:stedsnr" v="627008" />
		<tag k="ssr:type" v="fyrlykt" />
	</node>
	<node id="-87476" lat="70.5209366399" lon="22.9319347894">
		<tag k="name" v="Vatnholmen" />
		<tag k="ssr:date" v="2020-09-17" />
		<tag k="ssr:gruppe" v="navigasjon" />
		<tag k="ssr:hovedgruppe" v="infrastruktur" />
		<tag k="ssr:stedsnr" v="626097" />
		<tag k="ssr:type" v="fyrlykt" />
	</node>
	<node id="-86963" lat="70.654975001" lon="23.4631360273">
		<tag k="name" v="Håja" />
		<tag k="ssr:date" v="2019-12-27" />
		<tag k="ssr:gruppe" v="navigasjon" />
		<tag k="ssr:hovedgruppe" v="infrastruktur" />
		<tag k="ssr:stedsnr" v="300650" />
		<tag k="ssr:type" v="fyrlykt" />
	</node>
	<node id="-87978" lat="70.555802784" lon="23.541086023">
		<tag k="name" v="Kristinehamn, Nordre" />
		<tag k="ssr:date" v="2019-12-27" />
		<tag k="ssr:gruppe" v="navigasjon" />
		<tag k="ssr:hovedgruppe" v="infrastruktur" />
		<tag k="ssr:stedsnr" v="968728" />
		<tag k="ssr:type" v="lanterne" />
	</node>
	<node id="-85407" lat="70.4838616243" lon="23.6535616966">
		<tag k="name" v="Komagskjeret varde" />
		<tag k="old_name" v="Komagskjeret" />
		<tag k="ssr:date" v="2020-09-01" />
		<tag k="ssr:gruppe" v="navigasjon" />
		<tag k="ssr:hovedgruppe" v="infrastruktur" />
		<tag k="ssr:stedsnr" v="276225" />
		<tag k="ssr:type" v="lanterne" />
	</node>
	<node id="-87452" lat="70.6808172813" lon="23.0013870586">
		<tag k="name" v="Fiskenes" />
		<tag k="ssr:date" v="2019-12-27" />
		<tag k="ssr:gruppe" v="veg" />
		<tag k="ssr:hovedgruppe" v="infrastruktur" />
		<tag k="ssr:stedsnr" v="606494" />
		<tag k="ssr:type" v="adressetilleggsnavn" />
	</node>
	<node id="-85485" lat="70.5061083382" lon="23.8920137947">
		<tag k="name" v="Kvalsund" />
		<tag k="ssr:date" v="2019-12-27" />
		<tag k="ssr:gruppe" v="navigasjon" />
		<tag k="ssr:hovedgruppe" v="infrastruktur" />
		<tag k="ssr:stedsnr" v="445165" />
		<tag k="ssr:type" v="fyrlykt" />
	</node>
	<node id="-86007" lat="70.7876777788" lon="23.505033258">
		<tag k="name" v="Litlenæringen" />
		<tag k="ssr:date" v="2019-12-27" />
		<tag k="ssr:gruppe" v="navigasjon" />
		<tag k="ssr:hovedgruppe" v="infrastruktur" />
		<tag k="ssr:stedsnr" v="906767" />
		<tag k="ssr:type" v="fyrlykt" />
	</node>
	<node id="-85333" lat="70.6292222221" lon="23.1494971434">
		<tag k="name" v="Slettnesfjorden" />
		<tag k="ssr:date" v="2019-12-27" />
		<tag k="ssr:gruppe" v="navigasjon" />
		<tag k="ssr:hovedgruppe" v="infrastruktur" />
		<tag k="ssr:stedsnr" v="263438" />
		<tag k="ssr:type" v="fyrlykt" />
	</node>
	<node id="-87875" lat="70.6797666736" lon="23.005680483">
		<tag k="name" v="Gammelheim" />
		<tag k="ssr:date" v="2019-12-27" />
		<tag k="ssr:gruppe" v="veg" />
		<tag k="ssr:hovedgruppe" v="infrastruktur" />
		<tag k="ssr:stedsnr" v="849302" />
		<tag k="ssr:type" v="adressetilleggsnavn" />
	</node>
	<node id="-87360" lat="70.6959607982" lon="24.3656759109">
		<tag k="name" v="Revsneset" />
		<tag k="ssr:date" v="2020-09-17" />
		<tag k="ssr:gruppe" v="navigasjon" />
		<tag k="ssr:hovedgruppe" v="infrastruktur" />
		<tag k="ssr:stedsnr" v="566181" />
		<tag k="ssr:type" v="fyrlykt" />
	</node>
	<node id="-86311" lat="70.9175249993" lon="23.6775332543">
		<tag k="name" v="Skipsholmen" />
		<tag k="ssr:date" v="2019-12-27" />
		<tag k="ssr:gruppe" v="navigasjon" />
		<tag k="ssr:hovedgruppe" v="infrastruktur" />
		<tag k="ssr:stedsnr" v="968406" />
		<tag k="ssr:type" v="fyrlykt" />
	</node>
	<node id="-86818" lat="70.5552777762" lon="23.5405332463">
		<tag k="name" v="Kristinehamn, Søre" />
		<tag k="ssr:date" v="2019-12-27" />
		<tag k="ssr:gruppe" v="navigasjon" />
		<tag k="ssr:hovedgruppe" v="infrastruktur" />
		<tag k="ssr:stedsnr" v="179678" />
		<tag k="ssr:type" v="lanterne" />
	</node>
	<node id="-87313" lat="70.67435658" lon="22.9704917035">
		<tag k="name" v="Skarvskjæret" />
		<tag k="old_name" v="Skarvskjeret" />
		<tag k="ssr:date" v="2020-09-17" />
		<tag k="ssr:gruppe" v="navigasjon" />
		<tag k="ssr:hovedgruppe" v="infrastruktur" />
		<tag k="ssr:stedsnr" v="565433" />
		<tag k="ssr:type" v="fyrlykt" />
	</node>
	<node id="-87293" lat="70.8692390744" lon="23.3147340299">
		<tag k="name" v="Tarhalsen" />
		<tag k="ssr:date" v="2020-09-17" />
		<tag k="ssr:gruppe" v="navigasjon" />
		<tag k="ssr:hovedgruppe" v="infrastruktur" />
		<tag k="ssr:stedsnr" v="565102" />
		<tag k="ssr:type" v="fyrlykt" />
	</node>
	<node id="-87289" lat="70.5486508696" lon="23.1632929814">
		<tag k="name" v="Kårhamn" />
		<tag k="ssr:date" v="2020-09-17" />
		<tag k="ssr:gruppe" v="navigasjon" />
		<tag k="ssr:hovedgruppe" v="infrastruktur" />
		<tag k="ssr:stedsnr" v="565091" />
		<tag k="ssr:type" v="fyrlykt" />
	</node>
	<node id="-85750" lat="70.5404638965" lon="23.6841304546">
		<tag k="name" v="Skjåholmskjæret" />
		<tag k="old_name" v="Skjåholmskjeret" />
		<tag k="ssr:date" v="2019-12-27" />
		<tag k="ssr:gruppe" v="navigasjon" />
		<tag k="ssr:hovedgruppe" v="infrastruktur" />
		<tag k="ssr:stedsnr" v="445218" />
		<tag k="ssr:type" v="lanterne" />
	</node>
	<node id="-86261" lat="70.5718527782" lon="23.3459276909">
		<tag k="name" v="Vinna" />
		<tag k="ssr:date" v="2019-12-27" />
		<tag k="ssr:gruppe" v="navigasjon" />
		<tag k="ssr:hovedgruppe" v="infrastruktur" />
		<tag k="ssr:stedsnr" v="943767" />
		<tag k="ssr:type" v="fyrlykt" />
	</node>
	<node id="-87278" lat="70.614669451" lon="24.6334637372">
		<tag k="name" v="Kokelv molo, Nordre" />
		<tag k="ssr:date" v="2019-12-27" />
		<tag k="ssr:gruppe" v="navigasjon" />
		<tag k="ssr:hovedgruppe" v="infrastruktur" />
		<tag k="ssr:stedsnr" v="543874" />
		<tag k="ssr:type" v="lanterne" />
	</node>
	<node id="-86994" lat="70.7609944479" lon="23.0882610374">
		<tag k="name" v="Skarvfjord" />
		<tag k="ssr:date" v="2019-12-27" />
		<tag k="ssr:gruppe" v="navigasjon" />
		<tag k="ssr:hovedgruppe" v="infrastruktur" />
		<tag k="ssr:stedsnr" v="323183" />
		<tag k="ssr:type" v="fyrlykt" />
	</node>
	<node id="-85732" lat="70.6196111141" lon="23.6093749231">
		<tag k="name" v="Nordmannsbåen" />
		<tag k="ssr:date" v="2019-12-27" />
		<tag k="ssr:gruppe" v="navigasjon" />
		<tag k="ssr:hovedgruppe" v="infrastruktur" />
		<tag k="ssr:stedsnr" v="517321" />
		<tag k="ssr:type" v="lanterne" />
	</node>
	<node id="-87503" lat="70.6023699304" lon="23.5956943092">
		<tag k="name" v="Strømmen" />
		<tag k="ssr:date" v="2020-09-17" />
		<tag k="ssr:gruppe" v="navigasjon" />
		<tag k="ssr:hovedgruppe" v="infrastruktur" />
		<tag k="ssr:stedsnr" v="626238" />
		<tag k="ssr:type" v="fyrlykt" />
	</node>
	<node id="-87738" lat="70.6649250032" lon="23.6775610286">
		<tag k="name" v="Batterimoloen" />
		<tag k="ssr:date" v="2019-12-27" />
		<tag k="ssr:gruppe" v="navigasjon" />
		<tag k="ssr:hovedgruppe" v="infrastruktur" />
		<tag k="ssr:stedsnr" v="786662" />
		<tag k="ssr:type" v="lanterne" />
	</node>
	<node id="-87734" lat="70.4850361157" lon="24.2503220986">
		<tag k="name" v="Fægfjordholmen" />
		<tag k="ssr:date" v="2019-12-27" />
		<tag k="ssr:gruppe" v="navigasjon" />
		<tag k="ssr:hovedgruppe" v="infrastruktur" />
		<tag k="ssr:stedsnr" v="776828" />
		<tag k="ssr:type" v="fyrlykt" />
	</node>
	<node id="-87726" lat="70.4529833389" lon="23.7721137881">
		<tag k="name" v="Neverfjorden" />
		<tag k="ssr:date" v="2019-12-27" />
		<tag k="ssr:gruppe" v="navigasjon" />
		<tag k="ssr:hovedgruppe" v="infrastruktur" />
		<tag k="ssr:stedsnr" v="761837" />
		<tag k="ssr:type" v="fyrlykt" />
	</node>
	<node id="-85665" lat="70.6236262844" lon="23.3686893749">
		<tag k="name" v="Grunnvågnes" />
		<tag k="ssr:date" v="2020-09-17" />
		<tag k="ssr:gruppe" v="navigasjon" />
		<tag k="ssr:hovedgruppe" v="infrastruktur" />
		<tag k="ssr:stedsnr" v="505433" />
		<tag k="ssr:type" v="fyrlykt" />
	</node>
	<node id="-85622" lat="70.7466756471" lon="23.6737625435">
		<tag k="name" v="Mylingen" />
		<tag k="ssr:date" v="2020-09-01" />
		<tag k="ssr:gruppe" v="navigasjon" />
		<tag k="ssr:hovedgruppe" v="infrastruktur" />
		<tag k="ssr:stedsnr" v="505086" />
		<tag k="ssr:type" v="lanterne" />
	</node>
	<node id="-86641" lat="70.6136916716" lon="24.6343831882">
		<tag k="name" v="Kokelv molo, Søre" />
		<tag k="ssr:date" v="2019-12-27" />
		<tag k="ssr:gruppe" v="navigasjon" />
		<tag k="ssr:hovedgruppe" v="infrastruktur" />
		<tag k="ssr:stedsnr" v="118892" />
		<tag k="ssr:type" v="lanterne" />
	</node>
	<node id="-85588" lat="70.6662881512" lon="23.6616713535">
		<tag k="name" v="Fuglenes molo" />
		<tag k="ssr:date" v="2020-09-01" />
		<tag k="ssr:gruppe" v="navigasjon" />
		<tag k="ssr:hovedgruppe" v="infrastruktur" />
		<tag k="ssr:stedsnr" v="361663" />
		<tag k="ssr:type" v="lanterne" />
	</node>
	<node id="-86076" lat="70.8327323828" lon="23.0684110264">
		<tag k="name" v="Store Kammøy" />
		<tag k="old_name" v="Kamøy" />
		<tag k="ssr:date" v="2020-09-17" />
		<tag k="ssr:gruppe" v="navigasjon" />
		<tag k="ssr:hovedgruppe" v="infrastruktur" />
		<tag k="ssr:stedsnr" v="748072" />
		<tag k="ssr:type" v="fyrlykt" />
	</node>
	<node id="-86035" lat="70.4384833352" lon="23.6342971309">
		<tag k="name" v="Rastabyneset" />
		<tag k="ssr:date" v="2019-12-27" />
		<tag k="ssr:gruppe" v="navigasjon" />
		<tag k="ssr:hovedgruppe" v="infrastruktur" />
		<tag k="ssr:stedsnr" v="882762" />
		<tag k="ssr:type" v="lanterne" />
	</node>
	<node id="-88076" lat="70.4482125373" lon="24.3614648596">
		<tag k="name" v="Kendel-holmen" />
		<tag k="ssr:date" v="2020-04-02" />
		<tag k="ssr:gruppe" v="veg" />
		<tag k="ssr:hovedgruppe" v="infrastruktur" />
		<tag k="ssr:stedsnr" v="1076358" />
		<tag k="ssr:type" v="adressenavn" />
	</node>
	<node id="-88074" lat="70.6316253844" lon="24.0940692796">
		<tag k="name" v="Mellafjorden" />
		<tag k="ssr:date" v="2019-12-27" />
		<tag k="ssr:gruppe" v="veg" />
		<tag k="ssr:hovedgruppe" v="infrastruktur" />
		<tag k="ssr:stedsnr" v="1074405" />
		<tag k="ssr:type" v="adressenavn" />
	</node>
	<node id="-88073" lat="70.4662698084" lon="24.0046133271">
		<tag k="name" v="Nussirjávri" />
		<tag k="name:se" v="Nussirjávri" />
		<tag k="ssr:date" v="2019-12-27" />
		<tag k="ssr:gruppe" v="veg" />
		<tag k="ssr:hovedgruppe" v="infrastruktur" />
		<tag k="ssr:stedsnr" v="1074404" />
		<tag k="ssr:type" v="adressenavn" />
	</node>
	<node id="-88072" lat="70.4957449374" lon="23.4795826344">
		<tag k="name" v="Tindstua" />
		<tag k="ssr:date" v="2019-12-27" />
		<tag k="ssr:gruppe" v="veg" />
		<tag k="ssr:hovedgruppe" v="infrastruktur" />
		<tag k="ssr:stedsnr" v="1073809" />
		<tag k="ssr:type" v="adressenavn" />
	</node>
	<node id="-88071" lat="70.6209844152" lon="23.6648943909">
		<tag k="name" v="Lillevassdalen" />
		<tag k="ssr:date" v="2019-12-27" />
		<tag k="ssr:gruppe" v="veg" />
		<tag k="ssr:hovedgruppe" v="infrastruktur" />
		<tag k="ssr:stedsnr" v="1073808" />
		<tag k="ssr:type" v="adressenavn" />
	</node>
	<node id="-88070" lat="70.6207463578" lon="23.6596775732">
		<tag k="name" v="Saragamvannet" />
		<tag k="ssr:date" v="2019-12-27" />
		<tag k="ssr:gruppe" v="veg" />
		<tag k="ssr:hovedgruppe" v="infrastruktur" />
		<tag k="ssr:stedsnr" v="1073807" />
		<tag k="ssr:type" v="adressenavn" />
	</node>
	<node id="-88069" lat="70.7111084576" lon="23.6895510177">
		<tag k="name" v="Doaresjávri" />
		<tag k="name:se" v="Doaresjávri" />
		<tag k="ssr:date" v="2019-12-27" />
		<tag k="ssr:gruppe" v="veg" />
		<tag k="ssr:hovedgruppe" v="infrastruktur" />
		<tag k="ssr:stedsnr" v="1073806" />
		<tag k="ssr:type" v="adressenavn" />
	</node>
	<node id="-88068" lat="70.4652810379" lon="23.2399054834">
		<tag k="name" v="Straumen" />
		<tag k="ssr:date" v="2019-12-27" />
		<tag k="ssr:gruppe" v="veg" />
		<tag k="ssr:hovedgruppe" v="infrastruktur" />
		<tag k="ssr:stedsnr" v="1073805" />
		<tag k="ssr:type" v="adressenavn" />
	</node>
	<node id="-88067" lat="70.5392667645" lon="22.9256893703">
		<tag k="name" v="Slåtten" />
		<tag k="ssr:date" v="2019-12-27" />
		<tag k="ssr:gruppe" v="veg" />
		<tag k="ssr:hovedgruppe" v="infrastruktur" />
		<tag k="ssr:stedsnr" v="1073804" />
		<tag k="ssr:type" v="adressenavn" />
	</node>
	<node id="-88065" lat="70.082254032" lon="29.7302846866">
		<tag k="fixme" v="multiple name tags, choose one and add the other to alt_name" />
		<tag k="name" v="Troms og Finnmark;Troms og Finnmark fylke - Romssa ja Finnmárkku fylka - Tromssan ja Finmarkun fylkki" />
		<tag k="name:fkv" v="Tromssan ja Finmarkun fylkki" />
		<tag k="name:no" v="Troms og Finnmark;Troms og Finnmark fylke" />
		<tag k="name:se" v="Romssa ja Finnmárkku fylka" />
		<tag k="ssr:date" v="2020-01-13" />
		<tag k="ssr:gruppe" v="administrativeIndelinger" />
		<tag k="ssr:hovedgruppe" v="offentligAdministrasjon" />
		<tag k="ssr:stedsnr" v="1073694" />
		<tag k="ssr:type" v="fylke" />
	</node>
</osm>
