<?xml version="1.0" encoding="UTF-8"?>
<osm generator="osmapis" version="0.6">
	<node id="-516096" lat="60.8667055517" lon="7.11918055876">
		<tag k="fixme" v="verify maritime location" />
		<tag k="mooring" v="yes" />
		<tag k="name" v="Slusastøi" />
		<tag k="place" v="locality" />
		<tag k="ssr:stedsnr" v="297705" />
	</node>
	<node id="-516416" lat="60.8806277778" lon="7.12779444763">
		<tag k="highway" v="path" />
		<tag k="name" v="Sverresgong" />
		<tag k="ssr:stedsnr" v="392686" />
	</node>
	<node id="-516092" lat="60.8443888846" lon="6.72243611239">
		<tag k="bridge" v="yes" />
		<tag k="layer" v="1" />
		<tag k="name" v="Jordøla" />
		<tag k="ssr:stedsnr" v="289464" />
	</node>
	<node id="-516091" lat="60.9008333322" lon="7.18382499948">
		<tag k="layer" v="-1" />
		<tag k="name" v="Onstad" />
		<tag k="ssr:stedsnr" v="287384" />
		<tag k="tunnel" v="yes" />
	</node>
	<node id="-518266" lat="60.757094443" lon="7.1033750011">
		<tag k="name" v="Kårdal" />
		<tag k="railway" v="station" />
		<tag k="ssr:stedsnr" v="797438" />
		<tag k="train" v="yes" />
	</node>
	<node id="-516473" lat="60.743943641" lon="7.13128502347">
		<tag k="name" v="Vatnahalsen haldeplass" />
		<tag k="railway" v="halt" />
		<tag k="ssr:stedsnr" v="989647" />
		<tag k="train" v="yes" />
	</node>
	<node id="-517880" lat="60.9369166628" lon="7.21570556484">
		<tag k="highway" v="path" />
		<tag k="name" v="Voldestigane" />
		<tag k="ssr:stedsnr" v="675168" />
	</node>
	<node id="-517367" lat="60.8176194435" lon="7.54750276881">
		<tag k="bridge" v="yes" />
		<tag k="layer" v="1" />
		<tag k="name" v="Vestaforgrovi" />
		<tag k="ssr:stedsnr" v="470278" />
	</node>
	<node id="-517366" lat="60.8587916706" lon="7.30817777122">
		<tag k="layer" v="-1" />
		<tag k="name" v="Lange 2" />
		<tag k="ssr:stedsnr" v="469285" />
		<tag k="tunnel" v="yes" />
	</node>
	<node id="-516467" lat="60.8636305515" lon="7.11206389745">
		<tag k="bridge" v="yes" />
		<tag k="layer" v="1" />
		<tag k="name" v="Brekke" />
		<tag k="ssr:stedsnr" v="896468" />
	</node>
	<node id="-517618" lat="60.8255527754" lon="7.45888055844">
		<tag k="layer" v="-1" />
		<tag k="name" v="Nesbøtunnelen" />
		<tag k="ssr:stedsnr" v="567355" />
		<tag k="tunnel" v="yes" />
	</node>
	<node id="-518381" lat="60.86322222" lon="7.30566389172">
		<tag k="layer" v="-1" />
		<tag k="name" v="Haga" />
		<tag k="ssr:stedsnr" v="833486" />
		<tag k="tunnel" v="yes" />
	</node>
	<node id="-517868" lat="60.7707638852" lon="7.57638332459">
		<tag k="bridge" v="yes" />
		<tag k="layer" v="1" />
		<tag k="name" v="Stemberdalen" />
		<tag k="ssr:stedsnr" v="652427" />
	</node>
	<node id="-517867" lat="60.8968055597" lon="7.21830278066">
		<tag k="bridge" v="yes" />
		<tag k="layer" v="1" />
		<tag k="name" v="Tverrelva" />
		<tag k="ssr:stedsnr" v="652273" />
	</node>
	<node id="-517866" lat="60.8629944443" lon="7.12728332428">
		<tag k="layer" v="-1" />
		<tag k="name" v="Fretheim" />
		<tag k="ssr:stedsnr" v="650402" />
		<tag k="tunnel" v="yes" />
	</node>
	<node id="-517865" lat="60.866358334" lon="7.11349721972">
		<tag k="layer" v="-1" />
		<tag k="name" v="Flenja" />
		<tag k="ssr:stedsnr" v="650388" />
		<tag k="tunnel" v="yes" />
	</node>
	<node id="-518119" lat="60.771719882" lon="7.10178121424">
		<tag k="name" v="Blomheller haldeplass" />
		<tag k="railway" v="halt" />
		<tag k="ssr:stedsnr" v="737433" />
		<tag k="train" v="yes" />
	</node>
	<node id="-518501" lat="60.7470305577" lon="7.13321665824">
		<tag k="landuse" v="industrial" />
		<tag k="name" v="Kjosfoss kraftstasjon" />
		<tag k="power" v="plant" />
		<tag k="ssr:stedsnr" v="878559" />
	</node>
	<node id="-516795" lat="60.9319638928" lon="7.1514861142">
		<tag k="fixme" v="verify maritime location" />
		<tag k="mooring" v="yes" />
		<tag k="name" v="Kambastøi" />
		<tag k="place" v="locality" />
		<tag k="ssr:stedsnr" v="115739" />
	</node>
	<node id="-518624" lat="60.7995916655" lon="7.56741388552">
		<tag k="layer" v="-1" />
		<tag k="name" v="Vetlebotntunnelen" />
		<tag k="ssr:stedsnr" v="931395" />
		<tag k="tunnel" v="yes" />
	</node>
	<node id="-518623" lat="60.8556222189" lon="7.31397499543">
		<tag k="layer" v="-1" />
		<tag k="name" v="Låvisberget" />
		<tag k="ssr:stedsnr" v="931394" />
		<tag k="tunnel" v="yes" />
	</node>
	<node id="-516701" lat="60.8226916641" lon="7.53472499886">
		<tag k="layer" v="-1" />
		<tag k="name" v="Botnatunnelen" />
		<tag k="old_name" v="Botnatunnellen" />
		<tag k="ssr:stedsnr" v="82360" />
		<tag k="tunnel" v="yes" />
	</node>
	<node id="-517721" lat="60.855174999" lon="7.4085388968">
		<tag k="bridge" v="yes" />
		<tag k="layer" v="1" />
		<tag k="name" v="Bridlebrui" />
		<tag k="ssr:stedsnr" v="614322" />
	</node>
	<node id="-516952" lat="60.7525861124" lon="7.57234999376">
		<tag k="bridge" v="yes" />
		<tag k="layer" v="1" />
		<tag k="name" v="Brubotn" />
		<tag k="ssr:stedsnr" v="167481" />
	</node>
	<node id="-516951" lat="60.8609111106" lon="7.30594443723">
		<tag k="layer" v="-1" />
		<tag k="name" v="Låvisberget 4" />
		<tag k="ssr:stedsnr" v="165330" />
		<tag k="tunnel" v="yes" />
	</node>
	<node id="-516950" lat="60.8598749985" lon="7.30580834207">
		<tag k="layer" v="-1" />
		<tag k="name" v="Krok 3" />
		<tag k="ssr:stedsnr" v="165287" />
		<tag k="tunnel" v="yes" />
	</node>
	<node id="-516565" lat="60.8072944457" lon="7.11916666086">
		<tag k="bridge" v="yes" />
		<tag k="layer" v="1" />
		<tag k="name" v="Høgabru" />
		<tag k="ssr:stedsnr" v="28043" />
	</node>
	<node id="-517716" lat="60.8603722183" lon="7.30421667426">
		<tag k="landuse" v="industrial" />
		<tag k="name" v="Aurland I" />
		<tag k="power" v="plant" />
		<tag k="ssr:stedsnr" v="614122" />
	</node>
	<node id="-516472" lat="60.7470520347" lon="7.13577064446">
		<tag k="name" v="Kjosfossen haldeplass" />
		<tag k="railway" v="halt" />
		<tag k="ssr:stedsnr" v="989634" />
		<tag k="train" v="yes" />
	</node>
	<node id="-517580" lat="60.8341638858" lon="7.43137777991">
		<tag k="highway" v="path" />
		<tag k="name" v="Bjørnstigen" />
		<tag k="ssr:stedsnr" v="554363" />
	</node>
	<node id="-517706" lat="60.7329861123" lon="7.57896388981">
		<tag k="bridge" v="yes" />
		<tag k="layer" v="1" />
		<tag k="name" v="Rossdøla" />
		<tag k="ssr:stedsnr" v="592489" />
	</node>
	<node id="-517705" lat="60.7969222242" lon="7.56773055231">
		<tag k="layer" v="-1" />
		<tag k="name" v="Vetlebotn" />
		<tag k="ssr:stedsnr" v="590648" />
		<tag k="tunnel" v="yes" />
	</node>
	<node id="-517448" lat="60.8211388909" lon="7.35275556442">
		<tag k="fixme" v="multiple name tags, choose one and add the other to alt_name" />
		<tag k="layer" v="-1" />
		<tag k="name" v="Berdalstunnelen;Berdal" />
		<tag k="ssr:stedsnr" v="506397" />
		<tag k="tunnel" v="yes" />
	</node>
	<node id="-518215" lat="60.9242777809" lon="7.27169166777">
		<tag k="bridge" v="yes" />
		<tag k="layer" v="1" />
		<tag k="name" v="Hornselv" />
		<tag k="ssr:stedsnr" v="774495" />
	</node>
	<node id="-518214" lat="60.9363500039" lon="7.08879722904">
		<tag k="bridge" v="yes" />
		<tag k="layer" v="1" />
		<tag k="name" v="Helgåna" />
		<tag k="ssr:stedsnr" v="774490" />
	</node>
	<node id="-516165" lat="60.7882788121" lon="7.09575108496">
		<tag k="name" v="Berekvam stasjon" />
		<tag k="railway" v="station" />
		<tag k="ssr:stedsnr" v="312455" />
		<tag k="train" v="yes" />
	</node>
	<node id="-518722" lat="60.8627408187" lon="7.11419934514">
		<tag k="amenity" v="ferry_terminal" />
		<tag k="name" v="Flåm ferjekai" />
		<tag k="ssr:stedsnr" v="978657" />
	</node>
	<node id="-518721" lat="60.8814173715" lon="6.84142231486">
		<tag k="amenity" v="ferry_terminal" />
		<tag k="name" v="Gudvangen ferjekai" />
		<tag k="name:no" v="Gudvangen ferjekai" />
		<tag k="ssr:stedsnr" v="978658" />
	</node>
	<node id="-516544" lat="60.8796944463" lon="6.84691666595">
		<tag k="layer" v="-1" />
		<tag k="name" v="Gudvangatunnelen" />
		<tag k="ssr:stedsnr" v="21401" />
		<tag k="tunnel" v="yes" />
	</node>
	<node id="-516543" lat="60.9004388905" lon="7.0598750069">
		<tag k="layer" v="-1" />
		<tag k="name" v="Flenjatunnelen" />
		<tag k="ssr:stedsnr" v="21398" />
		<tag k="tunnel" v="yes" />
	</node>
	<node id="-516542" lat="60.8592277772" lon="7.10863333399">
		<tag k="layer" v="-1" />
		<tag k="name" v="Fretheimtunnelen" />
		<tag k="ssr:stedsnr" v="21395" />
		<tag k="tunnel" v="yes" />
	</node>
	<node id="-516156" lat="60.8895166689" lon="7.56900556463">
		<tag k="bridge" v="yes" />
		<tag k="layer" v="1" />
		<tag k="name" v="Hellenutbykset" />
		<tag k="ssr:stedsnr" v="312407" />
	</node>
	<node id="-518715" lat="60.8122888844" lon="7.55587777197">
		<tag k="bridge" v="yes" />
		<tag k="layer" v="1" />
		<tag k="name" v="Øyestølen" />
		<tag k="ssr:stedsnr" v="956339" />
	</node>
	<node id="-518716" lat="60.9018166666" lon="7.05853889237">
		<tag k="bridge" v="yes" />
		<tag k="layer" v="1" />
		<tag k="name" v="Haskåna" />
		<tag k="ssr:stedsnr" v="956474" />
	</node>
	<node id="-516024" lat="60.9807861155" lon="7.11384166671">
		<tag k="highway" v="path" />
		<tag k="name" v="Køyrslevegen" />
		<tag k="ssr:stedsnr" v="271140" />
	</node>
	<node id="-517431" lat="60.8912694472" lon="7.50856944788">
		<tag k="ford" v="yes" />
		<tag k="name" v="Brestavad" />
		<tag k="place" v="locality" />
		<tag k="ssr:stedsnr" v="494388" />
	</node>
	<node id="-516790" lat="60.9357333375" lon="7.35494445181">
		<tag k="bridge" v="yes" />
		<tag k="layer" v="1" />
		<tag k="name" v="Kvanunadalen" />
		<tag k="ssr:stedsnr" v="107465" />
	</node>
	<node id="-516789" lat="60.8982472182" lon="7.21207778443">
		<tag k="bridge" v="yes" />
		<tag k="layer" v="1" />
		<tag k="name" v="Nyheim Undergang" />
		<tag k="ssr:stedsnr" v="107462" />
	</node>
	<node id="-516788" lat="60.8694305519" lon="7.29709167337">
		<tag k="layer" v="-1" />
		<tag k="name" v="Vassbygd" />
		<tag k="ssr:stedsnr" v="105658" />
		<tag k="tunnel" v="yes" />
	</node>
	<node id="-518450" lat="60.869555559" lon="7.27779445001">
		<tag k="layer" v="-1" />
		<tag k="name" v="Vassbygdtunnelen" />
		<tag k="ssr:stedsnr" v="870393" />
		<tag k="tunnel" v="yes" />
	</node>
	<node id="-518719" lat="60.9231089733" lon="6.74602994409">
		<tag k="ford" v="yes" />
		<tag k="name" v="Kåsteinsvadet" />
		<tag k="place" v="locality" />
		<tag k="ssr:stedsnr" v="977773" />
	</node>
	<node id="-518571" lat="60.8507723572" lon="7.11384310178">
		<tag k="name" v="Lunden haldeplass" />
		<tag k="railway" v="halt" />
		<tag k="ssr:stedsnr" v="919002" />
		<tag k="train" v="yes" />
	</node>
	<node id="-517032" lat="60.8998222247" lon="7.17206389411">
		<tag k="layer" v="-1" />
		<tag k="name" v="Onstadtunnelen" />
		<tag k="ssr:stedsnr" v="203399" />
		<tag k="tunnel" v="yes" />
	</node>
	<node id="-518053" lat="60.7311916649" lon="7.081116673">
		<tag k="layer" v="-1" />
		<tag k="loc_name" v="Gravahalstunnelen" />
		<tag k="name" v="Gravhalstunnelen" />
		<tag k="ssr:stedsnr" v="735108" />
		<tag k="tunnel" v="yes" />
	</node>
	<node id="-516100" lat="60.7353277741" lon="7.12302221925">
		<tag k="name" v="Myrdal stasjon" />
		<tag k="railway" v="station" />
		<tag k="ssr:stedsnr" v="310113" />
		<tag k="train" v="yes" />
	</node>
	<node id="-516226" lat="60.8575972188" lon="7.35733610281">
		<tag k="fixme" v="consider highway=path" />
		<tag k="highway" v="track" />
		<tag k="name" v="Smalevegen" />
		<tag k="ssr:stedsnr" v="332377" />
	</node>
	<node id="-516254" lat="60.8651055535" lon="7.13150277449">
		<tag k="man_made" v="quay" />
		<tag k="name" v="Kolakaien" />
		<tag k="place" v="locality" />
		<tag k="ssr:stedsnr" v="332621" />
	</node>
	<node id="-516891" lat="60.7439111141" lon="7.13908610903">
		<tag k="alt_name" v="Reinunga  NSB st" />
		<tag k="name" v="Reinunga haldeplass" />
		<tag k="railway" v="halt" />
		<tag k="ssr:stedsnr" v="149495" />
		<tag k="train" v="yes" />
	</node>
	<node id="-517785" lat="60.9255694407" lon="7.23027499155">
		<tag k="highway" v="path" />
		<tag k="name" v="Røyrgrindkleivi" />
		<tag k="ssr:stedsnr" v="627418" />
	</node>
	<node id="-516632" lat="60.8212638926" lon="7.3524888832">
		<tag k="bridge" v="yes" />
		<tag k="layer" v="1" />
		<tag k="name" v="Stonndalen" />
		<tag k="ssr:stedsnr" v="46315" />
	</node>
	<node id="-516631" lat="60.8289527811" lon="7.47727500398">
		<tag k="layer" v="-1" />
		<tag k="name" v="Nesbø" />
		<tag k="ssr:stedsnr" v="44336" />
		<tag k="tunnel" v="yes" />
	</node>
	<node id="-516374" lat="60.8987694487" lon="7.21424443824">
		<tag k="layer" v="-1" />
		<tag k="name" v="Lærdalstunnelen" />
		<tag k="ssr:stedsnr" v="384477" />
		<tag k="tunnel" v="yes" />
	</node>
	<node id="-517529" lat="60.8660444433" lon="7.13986943862">
		<tag k="bridge" v="yes" />
		<tag k="layer" v="1" />
		<tag k="name" v="Stampa" />
		<tag k="ssr:stedsnr" v="531480" />
	</node>
	<node id="-516739" lat="60.7658305568" lon="7.10296943756">
		<tag k="layer" v="-1" />
		<tag k="loc_name" v="Blomhellertunnelen" />
		<tag k="name" v="Blomheller tunnel" />
		<tag k="ssr:stedsnr" v="89588" />
		<tag k="tunnel" v="yes" />
	</node>
	<node id="-517391" lat="60.8413500045" lon="7.44978333808">
		<tag k="highway" v="path" />
		<tag k="name" v="Grønestølskleivane" />
		<tag k="ssr:stedsnr" v="493361" />
	</node>
	<node id="-517229" lat="60.8397387103" lon="7.12272228096">
		<tag k="name" v="Håreina haldeplass" />
		<tag k="railway" v="halt" />
		<tag k="ssr:stedsnr" v="433015" />
		<tag k="train" v="yes" />
	</node>
	<node id="-517132" lat="60.8774055564" lon="7.14813889708">
		<tag k="fixme" v="verify maritime location" />
		<tag k="mooring" v="yes" />
		<tag k="name" v="Hellestøi" />
		<tag k="place" v="locality" />
		<tag k="ssr:stedsnr" v="236650" />
	</node>
	<node id="-517528" lat="60.8984138885" lon="6.85777777054">
		<tag k="layer" v="-1" />
		<tag k="name" v="Bakkatunnelen" />
		<tag k="ssr:stedsnr" v="515265" />
		<tag k="tunnel" v="yes" />
	</node>
	<node id="-517130" lat="60.8738305529" lon="7.31930555874">
		<tag k="bridge" v="yes" />
		<tag k="layer" v="1" />
		<tag k="name" v="Steine" />
		<tag k="ssr:stedsnr" v="228491" />
	</node>
	<node id="-516284" lat="60.8586138863" lon="7.31025555028">
		<tag k="layer" v="-1" />
		<tag k="name" v="Låvisberget 1" />
		<tag k="ssr:stedsnr" v="347326" />
		<tag k="tunnel" v="yes" />
	</node>
	<node id="-518404" lat="60.8625861121" lon="7.11310556288">
		<tag k="name" v="Flåm stasjon" />
		<tag k="railway" v="station" />
		<tag k="ssr:stedsnr" v="858111" />
		<tag k="train" v="yes" />
	</node>
	<node id="-518553" lat="60.8123095264" lon="7.1240141149">
		<tag k="name" v="Dalsbotn haldeplass" />
		<tag k="railway" v="halt" />
		<tag k="ssr:stedsnr" v="918044" />
		<tag k="train" v="yes" />
	</node>
	<node id="-516866" lat="60.7256054895" lon="7.01245075714">
		<tag k="alt_name" v="Uppsete" />
		<tag k="name" v="Upsete stasjon" />
		<tag k="railway" v="station" />
		<tag k="ssr:stedsnr" v="145023" />
		<tag k="train" v="yes" />
	</node>
</osm>
