<?xml version="1.0" encoding="UTF-8"?>
<osm generator="osmapis" version="0.6">
	<node id="-516096" lat="60.912477775" lon="7.12948611496">
		<tag k="name" v="Flenjane" />
		<tag k="place" v="locality" />
		<tag k="ssr:stedsnr" v="129199" />
	</node>
	<node id="-515581" lat="60.874767605" lon="7.32370490126">
		<tag k="fixme" v="consider place=hamlet" />
		<tag k="name" v="Øyo" />
		<tag k="place" v="farm" />
		<tag k="ssr:stedsnr" v="372115" />
	</node>
	<node id="-515580" lat="60.8765397155" lon="7.33701250068">
		<tag k="fixme" v="consider place=hamlet" />
		<tag k="name" v="Veim" />
		<tag k="place" v="farm" />
		<tag k="ssr:stedsnr" v="372116" />
	</node>
	<node id="-515578" lat="60.8845638881" lon="7.27092499746">
		<tag k="alt_name" v="Stausete" />
		<tag k="historic" v="shieling" />
		<tag k="name" v="Stuasete" />
		<tag k="place" v="locality" />
		<tag k="ssr:stedsnr" v="372106" />
	</node>
	<node id="-515576" lat="60.897302774" lon="7.23605833998">
		<tag k="alt_name" v="Furuberg" />
		<tag k="historic" v="shieling" />
		<tag k="name" v="Furberg" />
		<tag k="place" v="locality" />
		<tag k="ssr:stedsnr" v="372095" />
	</node>
	<node id="-515575" lat="60.8909944444" lon="7.25299444511">
		<tag k="historic" v="shieling" />
		<tag k="name" v="Totland" />
		<tag k="place" v="locality" />
		<tag k="ssr:stedsnr" v="372093" />
	</node>
	<node id="-516086" lat="60.8536416655" lon="7.07318610666">
		<tag k="name" v="Øyestølen" />
		<tag k="place" v="locality" />
		<tag k="ssr:stedsnr" v="129139" />
	</node>
	<node id="-515568" lat="60.8291555575" lon="7.15944722659">
		<tag k="historic" v="shieling" />
		<tag k="name" v="Gudmedalen" />
		<tag k="place" v="locality" />
		<tag k="ssr:stedsnr" v="372035" />
	</node>
	<node id="-516079" lat="60.8124694413" lon="7.10511667192">
		<tag k="historic" v="shieling" />
		<tag k="name" v="Vetlestølen" />
		<tag k="place" v="locality" />
		<tag k="ssr:stedsnr" v="129055" />
	</node>
	<node id="-516078" lat="60.8221416655" lon="7.08495832934">
		<tag k="historic" v="shieling" />
		<tag k="name" v="Øyane" />
		<tag k="place" v="locality" />
		<tag k="ssr:stedsnr" v="129052" />
	</node>
	<node id="-515565" lat="60.8397166625" lon="7.29357222276">
		<tag k="historic" v="shieling" />
		<tag k="name" v="Ådnastølen" />
		<tag k="place" v="locality" />
		<tag k="ssr:stedsnr" v="372019" />
	</node>
	<node id="-515564" lat="60.8437083309" lon="7.33530000523">
		<tag k="historic" v="shieling" />
		<tag k="name" v="Botolvsstølen" />
		<tag k="place" v="locality" />
		<tag k="ssr:stedsnr" v="372017" />
	</node>
	<node id="-516075" lat="60.8493027755" lon="7.31155833185">
		<tag k="historic" v="shieling" />
		<tag k="name" v="Grimsete" />
		<tag k="place" v="locality" />
		<tag k="ssr:stedsnr" v="129004" />
	</node>
	<node id="-517098" lat="60.8945027802" lon="7.34098889423">
		<tag k="name" v="Hansateigen" />
		<tag k="place" v="locality" />
		<tag k="ssr:stedsnr" v="635299" />
	</node>
	<node id="-517188" lat="60.9684833355" lon="7.05940556042">
		<tag k="historic" v="shieling" />
		<tag k="name" v="Fristølen" />
		<tag k="place" v="locality" />
		<tag k="ssr:stedsnr" v="676218" />
	</node>
	<node id="-516479" lat="60.9774583338" lon="6.89242499107">
		<tag k="historic" v="shieling" />
		<tag k="name" v="Løhaug" />
		<tag k="place" v="locality" />
		<tag k="ssr:stedsnr" v="251943" />
	</node>
	<node id="-515921" lat="60.8726761101" lon="7.31207546067">
		<tag k="fixme" v="consider place=hamlet" />
		<tag k="name" v="Steine" />
		<tag k="place" v="farm" />
		<tag k="ssr:stedsnr" v="69104" />
	</node>
	<node id="-516579" lat="60.9742138935" lon="7.11641389591">
		<tag k="name" v="Storeteigen" />
		<tag k="place" v="locality" />
		<tag k="ssr:stedsnr" v="453143" />
	</node>
	<node id="-516550" lat="60.9252499976" lon="6.8388222284">
		<tag k="name" v="Rimstigen" />
		<tag k="place" v="locality" />
		<tag k="ssr:stedsnr" v="433876" />
	</node>
	<node id="-517082" lat="60.8434416662" lon="7.11781388373">
		<tag k="amenity" v="school" />
		<tag k="name" v="Flåm skule" />
		<tag k="ssr:stedsnr" v="635068" />
	</node>
	<node id="-516683" lat="60.8929441877" lon="7.22664987384">
		<tag k="fixme" v="consider place=hamlet" />
		<tag k="name" v="Tokvam" />
		<tag k="place" v="farm" />
		<tag k="ssr:stedsnr" v="494084" />
	</node>
	<node id="-515542" lat="60.9312027747" lon="7.15029999567">
		<tag k="historic" v="shieling" />
		<tag k="name" v="Frangrovstølen" />
		<tag k="place" v="locality" />
		<tag k="ssr:stedsnr" v="332847" />
	</node>
	<node id="-517881" lat="61.0081138873" lon="7.13684721361">
		<tag k="historic" v="shieling" />
		<tag k="name" v="Kolaren" />
		<tag k="place" v="locality" />
		<tag k="ssr:stedsnr" v="919389" />
	</node>
	<node id="-516052" lat="60.8919527749" lon="7.34578610885">
		<tag k="name" v="Brauti" />
		<tag k="place" v="locality" />
		<tag k="ssr:stedsnr" v="90272" />
	</node>
	<node id="-517966" lat="60.8986250017" lon="7.1706111052">
		<tag k="alt_name" v="Høgheim" />
		<tag k="name" v="Underbalen" />
		<tag k="place" v="farm" />
		<tag k="ssr:stedsnr" v="939784" />
	</node>
	<node id="-516560" lat="61.0150833305" lon="7.33188056275">
		<tag k="historic" v="shieling" />
		<tag k="name" v="Skålane" />
		<tag k="place" v="locality" />
		<tag k="ssr:stedsnr" v="434361" />
	</node>
	<node id="-516856" lat="60.8329444431" lon="7.49579444377">
		<tag k="name" v="Jono" />
		<tag k="place" v="locality" />
		<tag k="ssr:stedsnr" v="554367" />
	</node>
	<node id="-516558" lat="60.8788638914" lon="7.4303694438">
		<tag k="name" v="Smørkoven" />
		<tag k="place" v="locality" />
		<tag k="ssr:stedsnr" v="434290" />
	</node>
	<node id="-516042" lat="60.7797611091" lon="7.11339165881">
		<tag k="name" v="Hovdaliselbøen" />
		<tag k="place" v="locality" />
		<tag k="ssr:stedsnr" v="89973" />
	</node>
	<node id="-517623" lat="60.8803833333" lon="7.26948611436">
		<tag k="name" v="Sagi" />
		<tag k="place" v="isolated_dwelling" />
		<tag k="ssr:stedsnr" v="818019" />
	</node>
	<node id="-516039" lat="60.9720583305" lon="7.21152221357">
		<tag k="historic" v="shieling" />
		<tag k="name" v="Myrasete" />
		<tag k="place" v="locality" />
		<tag k="ssr:stedsnr" v="89956" />
	</node>
	<node id="-517062" lat="60.8106388873" lon="7.06200832617">
		<tag k="name" v="Bjørndalen" />
		<tag k="place" v="locality" />
		<tag k="ssr:stedsnr" v="631080" />
	</node>
	<node id="-516037" lat="60.9703000026" lon="7.20516111956">
		<tag k="name" v="Reinungasletti" />
		<tag k="place" v="locality" />
		<tag k="ssr:stedsnr" v="89954" />
	</node>
	<node id="-515524" lat="60.9685888881" lon="7.11028056036">
		<tag k="name" v="Bortomteigane" />
		<tag k="place" v="locality" />
		<tag k="ssr:stedsnr" v="332559" />
	</node>
	<node id="-517057" lat="60.7594027763" lon="7.11106945316">
		<tag k="historic" v="shieling" />
		<tag k="name" v="Kvanntjørn" />
		<tag k="place" v="locality" />
		<tag k="ssr:stedsnr" v="627412" />
	</node>
	<node id="-516544" lat="60.7726322723" lon="7.09957336532">
		<tag k="fixme" v="consider place=hamlet" />
		<tag k="name" v="Melhus" />
		<tag k="place" v="farm" />
		<tag k="ssr:stedsnr" v="433452" />
	</node>
	<node id="-517564" lat="61.0344083346" lon="7.07981666534">
		<tag k="historic" v="shieling" />
		<tag k="name" v="Nordheimsdalen" />
		<tag k="place" v="locality" />
		<tag k="ssr:stedsnr" v="798375" />
	</node>
	<node id="-517450" lat="60.8500611076" lon="7.11157499357">
		<tag k="name" v="Haugen" />
		<tag k="place" v="farm" />
		<tag k="ssr:stedsnr" v="757106" />
	</node>
	<node id="-516538" lat="60.9091833293" lon="7.38445554786">
		<tag k="name" v="Breidagrø" />
		<tag k="place" v="locality" />
		<tag k="ssr:stedsnr" v="433410" />
	</node>
	<node id="-516537" lat="60.9042000007" lon="7.40985833749">
		<tag k="historic" v="shieling" />
		<tag k="name" v="Fornastølen" />
		<tag k="place" v="locality" />
		<tag k="ssr:stedsnr" v="433408" />
	</node>
	<node id="-515512" lat="60.8321361073" lon="7.4987500088">
		<tag k="historic" v="shieling" />
		<tag k="name" v="Vetlestølen" />
		<tag k="place" v="locality" />
		<tag k="ssr:stedsnr" v="332502" />
	</node>
	<node id="-515511" lat="60.8300326839" lon="7.50020662084">
		<tag k="fixme" v="consider place=hamlet" />
		<tag k="name" v="Urvik" />
		<tag k="place" v="farm" />
		<tag k="ssr:stedsnr" v="332500" />
	</node>
	<node id="-516531" lat="60.8227583353" lon="7.43205278073">
		<tag k="name" v="Berdalen" />
		<tag k="place" v="isolated_dwelling" />
		<tag k="ssr:stedsnr" v="433341" />
	</node>
	<node id="-517553" lat="60.890674634" lon="7.24115965449">
		<tag k="fixme" v="consider place=hamlet" />
		<tag k="name" v="Skaim" />
		<tag k="place" v="farm" />
		<tag k="ssr:stedsnr" v="798076" />
	</node>
	<node id="-516016" lat="60.8013361114" lon="7.10530277376">
		<tag k="historic" v="shieling" />
		<tag k="name" v="Geithus" />
		<tag k="place" v="locality" />
		<tag k="ssr:stedsnr" v="89625" />
	</node>
	<node id="-516527" lat="60.8236555528" lon="7.470025003">
		<tag k="historic" v="shieling" />
		<tag k="name" v="Kringla" />
		<tag k="place" v="locality" />
		<tag k="ssr:stedsnr" v="433261" />
	</node>
	<node id="-517038" lat="60.8983166698" lon="7.37378056195">
		<tag k="alt_name" v="Svoldalen" />
		<tag k="historic" v="shieling" />
		<tag k="name" v="Svoledalen" />
		<tag k="place" v="locality" />
		<tag k="ssr:stedsnr" v="615408" />
	</node>
	<node id="-517037" lat="61.0316305348" lon="7.04455211845">
		<tag k="fixme" v="consider place=hamlet" />
		<tag k="name" v="Breisnes" />
		<tag k="place" v="farm" />
		<tag k="ssr:stedsnr" v="615397" />
	</node>
	<node id="-517483" lat="60.9326472225" lon="7.20086944723">
		<tag k="name" v="Tyhagane" />
		<tag k="place" v="locality" />
		<tag k="ssr:stedsnr" v="757936" />
	</node>
	<node id="-517874" lat="60.8752555535" lon="7.37666667344">
		<tag k="historic" v="shieling" />
		<tag k="name" v="Eisingane" />
		<tag k="place" v="locality" />
		<tag k="ssr:stedsnr" v="919323" />
	</node>
	<node id="-517546" lat="60.7532512279" lon="7.10632546461">
		<tag k="fixme" v="consider place=hamlet" />
		<tag k="name" v="Kårdal" />
		<tag k="place" v="farm" />
		<tag k="ssr:stedsnr" v="797499" />
	</node>
	<node id="-517447" lat="60.8402638869" lon="7.12338889724">
		<tag k="name" v="Klørne" />
		<tag k="place" v="farm" />
		<tag k="ssr:stedsnr" v="757075" />
	</node>
	<node id="-517020" lat="60.7947944475" lon="7.38428611297">
		<tag k="historic" v="shieling" />
		<tag k="name" v="Rausmesdalen" />
		<tag k="place" v="locality" />
		<tag k="ssr:stedsnr" v="615238" />
	</node>
	<node id="-516518" lat="60.9423250025" lon="7.13500833712">
		<tag k="name" v="Rudningen" />
		<tag k="place" v="locality" />
		<tag k="ssr:stedsnr" v="433136" />
	</node>
	<node id="-516424" lat="60.945850426" lon="7.0997227573">
		<tag k="alt_name" v="Heimre Hjøllo;Fremre Hjøllo" />
		<tag k="fixme" v="consider place=hamlet" />
		<tag k="name" v="Hjøllo" />
		<tag k="place" v="farm" />
		<tag k="ssr:stedsnr" v="251142" />
	</node>
	<node id="-517958" lat="60.9514222211" lon="7.10291944344">
		<tag k="name" v="Garden" />
		<tag k="place" v="farm" />
		<tag k="ssr:stedsnr" v="939586" />
	</node>
	<node id="-516513" lat="60.9029111071" lon="7.22548056263">
		<tag k="historic" v="shieling" />
		<tag k="name" v="Berg" />
		<tag k="place" v="locality" />
		<tag k="ssr:stedsnr" v="433075" />
	</node>
	<node id="-517535" lat="60.8374333358" lon="7.47199444015">
		<tag k="historic" v="shieling" />
		<tag k="name" v="Tindi" />
		<tag k="place" v="locality" />
		<tag k="ssr:stedsnr" v="797338" />
	</node>
	<node id="-516510" lat="60.8136138907" lon="7.1395055608">
		<tag k="historic" v="shieling" />
		<tag k="name" v="Kleistdalen" />
		<tag k="place" v="locality" />
		<tag k="ssr:stedsnr" v="433058" />
	</node>
	<node id="-517533" lat="60.835149996" lon="7.491330562">
		<tag k="historic" v="shieling" />
		<tag k="name" v="Myrane" />
		<tag k="place" v="locality" />
		<tag k="ssr:stedsnr" v="797335" />
	</node>
	<node id="-515484" lat="60.8373750022" lon="7.11781388053">
		<tag k="name" v="Flåmshagen" />
		<tag k="place" v="locality" />
		<tag k="ssr:stedsnr" v="332219" />
	</node>
	<node id="-517530" lat="60.9153027812" lon="7.14486944632">
		<tag k="name" v="Kvitaberg" />
		<tag k="place" v="locality" />
		<tag k="ssr:stedsnr" v="797184" />
	</node>
	<node id="-517017" lat="60.9639666643" lon="7.20501111415">
		<tag k="alt_name" v="Vassbrusletti" />
		<tag k="historic" v="shieling" />
		<tag k="name" v="Vassbrusletta" />
		<tag k="place" v="locality" />
		<tag k="ssr:stedsnr" v="615219" />
	</node>
	<node id="-517016" lat="60.9733888858" lon="7.17253055988">
		<tag k="alt_name" v="Brekkasete" />
		<tag k="name" v="Brekasete" />
		<tag k="place" v="locality" />
		<tag k="ssr:stedsnr" v="615205" />
	</node>
	<node id="-517527" lat="60.9243250008" lon="7.14916111">
		<tag k="alt_name" v="Skreda" />
		<tag k="name" v="Gjerlåskrida" />
		<tag k="place" v="locality" />
		<tag k="ssr:stedsnr" v="797170" />
	</node>
	<node id="-516502" lat="60.8427172013" lon="7.13519491747">
		<tag k="fixme" v="consider place=hamlet" />
		<tag k="name" v="Indreli" />
		<tag k="place" v="farm" />
		<tag k="ssr:stedsnr" v="433014" />
	</node>
	<node id="-516501" lat="60.8370611089" lon="7.12193610993">
		<tag k="fixme" v="consider place=hamlet" />
		<tag k="name" v="Flåm" />
		<tag k="place" v="village" />
		<tag k="ssr:stedsnr" v="433011" />
	</node>
	<node id="-517524" lat="60.934213885" lon="7.08563056332">
		<tag k="historic" v="shieling" />
		<tag k="name" v="Melhus" />
		<tag k="place" v="locality" />
		<tag k="ssr:stedsnr" v="797154" />
	</node>
	<node id="-517011" lat="60.9218138926" lon="7.20317500776">
		<tag k="name" v="Nordby" />
		<tag k="place" v="farm" />
		<tag k="ssr:stedsnr" v="615137" />
	</node>
	<node id="-517009" lat="60.8706277746" lon="7.06787222808">
		<tag k="name" v="Lintu" />
		<tag k="place" v="locality" />
		<tag k="ssr:stedsnr" v="615090" />
	</node>
	<node id="-516496" lat="60.7158749968" lon="7.2417499974">
		<tag k="historic" v="shieling" />
		<tag k="name" v="Vindedalen" />
		<tag k="place" v="locality" />
		<tag k="ssr:stedsnr" v="432105" />
	</node>
	<node id="-516248" lat="60.8743777748" lon="7.33685277388">
		<tag k="fixme" v="consider place=hamlet" />
		<tag k="name" v="Vassbygdi" />
		<tag k="place" v="village" />
		<tag k="ssr:stedsnr" v="190121" />
	</node>
	<node id="-517005" lat="60.8451222214" lon="7.32775277122">
		<tag k="historic" v="shieling" />
		<tag k="name" v="Grind" />
		<tag k="place" v="locality" />
		<tag k="ssr:stedsnr" v="615021" />
	</node>
	<node id="-516492" lat="60.8990638923" lon="7.14393332409">
		<tag k="name" v="Myri" />
		<tag k="place" v="locality" />
		<tag k="ssr:stedsnr" v="479693" />
	</node>
	<node id="-517515" lat="60.8015722182" lon="7.02336389412">
		<tag k="name" v="Vassete" />
		<tag k="place" v="isolated_dwelling" />
		<tag k="ssr:stedsnr" v="797053" />
	</node>
	<node id="-515978" lat="60.7434472185" lon="7.13151944458">
		<tag k="name" v="Vatnahalsen" />
		<tag k="ssr:stedsnr" v="86226" />
		<tag k="tourism" v="hotel" />
	</node>
	<node id="-515479" lat="60.8389000043" lon="7.12457776841">
		<tag k="name" v="Ingridteigen" />
		<tag k="place" v="locality" />
		<tag k="ssr:stedsnr" v="332181" />
	</node>
	<node id="-516487" lat="60.7525444419" lon="7.45725000806">
		<tag k="name" v="Mellomvasshytta" />
		<tag k="place" v="isolated_dwelling" />
		<tag k="ssr:stedsnr" v="267158" />
	</node>
	<node id="-515974" lat="60.970308336" lon="7.11896111312">
		<tag k="historic" v="shieling" />
		<tag k="name" v="Kappadalsstølen" />
		<tag k="place" v="locality" />
		<tag k="ssr:stedsnr" v="81451" />
	</node>
	<node id="-515970" lat="61.0236305552" lon="7.08931389187">
		<tag k="historic" v="shieling" />
		<tag k="name" v="Øygarden" />
		<tag k="place" v="locality" />
		<tag k="ssr:stedsnr" v="70371" />
	</node>
	<node id="-515457" lat="60.949869443" lon="7.1040861154">
		<tag k="name" v="Nigarden" />
		<tag k="place" v="farm" />
		<tag k="ssr:stedsnr" v="325346" />
	</node>
	<node id="-515968" lat="60.9337944416" lon="6.75331945095">
		<tag k="historic" v="shieling" />
		<tag k="name" v="Breidalen" />
		<tag k="place" v="locality" />
		<tag k="ssr:stedsnr" v="69892" />
	</node>
	<node id="-515967" lat="60.9256388883" lon="6.87900555361">
		<tag k="historic" v="shieling" />
		<tag k="name" v="Holmo" />
		<tag k="place" v="locality" />
		<tag k="ssr:stedsnr" v="69885" />
	</node>
	<node id="-515966" lat="60.9106416673" lon="6.75345277657">
		<tag k="historic" v="shieling" />
		<tag k="name" v="Røyrdotten" />
		<tag k="place" v="locality" />
		<tag k="ssr:stedsnr" v="69881" />
	</node>
	<node id="-516989" lat="60.8616833331" lon="7.16806944865">
		<tag k="historic" v="shieling" />
		<tag k="name" v="Joasete" />
		<tag k="place" v="locality" />
		<tag k="ssr:stedsnr" v="614118" />
	</node>
	<node id="-515452" lat="60.8933686635" lon="7.16226576516">
		<tag k="fixme" v="consider place=hamlet" />
		<tag k="name" v="Kvitt" />
		<tag k="place" v="farm" />
		<tag k="ssr:stedsnr" v="323424" />
	</node>
	<node id="-517499" lat="60.7416527773" lon="7.09353610894">
		<tag k="alt_name" v="Uvgjesdalen" />
		<tag k="historic" v="shieling" />
		<tag k="name" v="Ugjerdsdalen" />
		<tag k="place" v="locality" />
		<tag k="ssr:stedsnr" v="795010" />
	</node>
	<node id="-515962" lat="60.8738444478" lon="7.34093333609">
		<tag k="name" v="Belle" />
		<tag k="place" v="hamlet" />
		<tag k="ssr:stedsnr" v="69816" />
	</node>
	<node id="-515449" lat="60.9696416664" lon="6.92361666482">
		<tag k="name" v="Svili" />
		<tag k="place" v="isolated_dwelling" />
		<tag k="ssr:stedsnr" v="312896" />
	</node>
	<node id="-516984" lat="60.7247750013" lon="7.02015277714">
		<tag k="alt_name" v="Uppsete, vetle" />
		<tag k="historic" v="shieling" />
		<tag k="name" v="Vetle Uppsete" />
		<tag k="place" v="locality" />
		<tag k="ssr:stedsnr" v="603096" />
	</node>
	<node id="-516470" lat="60.9318083348" lon="7.08522221722">
		<tag k="historic" v="shieling" />
		<tag k="name" v="Melhus" />
		<tag k="place" v="locality" />
		<tag k="ssr:stedsnr" v="251819" />
	</node>
	<node id="-517493" lat="60.8836506244" lon="7.11733476741">
		<tag k="name" v="Frondal" />
		<tag k="place" v="locality" />
		<tag k="ssr:stedsnr" v="782654" />
	</node>
	<node id="-517182" lat="60.9112528268" lon="7.22548863635">
		<tag k="alt_name" v="Øvre Bjørgo;Nedre Bjørgo" />
		<tag k="fixme" v="consider place=hamlet" />
		<tag k="name" v="Bjørgo" />
		<tag k="place" v="farm" />
		<tag k="ssr:stedsnr" v="676178" />
	</node>
	<node id="-515954" lat="60.8339561738" lon="7.34578246151">
		<tag k="fixme" v="consider place=hamlet" />
		<tag k="name" v="Stondalen" />
		<tag k="place" v="farm" />
		<tag k="ssr:stedsnr" v="69382" />
	</node>
	<node id="-517362" lat="60.7806305521" lon="6.91071389086">
		<tag k="name" v="Stordalen" />
		<tag k="place" v="locality" />
		<tag k="ssr:stedsnr" v="736792" />
	</node>
	<node id="-517998" lat="60.9504191185" lon="7.10265101238">
		<tag k="fixme" v="consider place=hamlet" />
		<tag k="name" v="Undredal" />
		<tag k="place" v="farm" />
		<tag k="ssr:stedsnr" v="979452" />
	</node>
	<node id="-515949" lat="60.8609055533" lon="7.3878888931">
		<tag k="name" v="Frivoll" />
		<tag k="place" v="locality" />
		<tag k="ssr:stedsnr" v="69336" />
	</node>
	<node id="-515947" lat="60.8179555534" lon="7.35537499853">
		<tag k="historic" v="shieling" />
		<tag k="name" v="Vetledalen" />
		<tag k="place" v="locality" />
		<tag k="ssr:stedsnr" v="69299" />
	</node>
	<node id="-516457" lat="60.8699749999" lon="7.40598055858">
		<tag k="historic" v="shieling" />
		<tag k="name" v="Grov" />
		<tag k="place" v="locality" />
		<tag k="ssr:stedsnr" v="251369" />
	</node>
	<node id="-515944" lat="60.8026694437" lon="7.5651583302">
		<tag k="historic" v="shieling" />
		<tag k="name" v="Øyestølen" />
		<tag k="place" v="locality" />
		<tag k="ssr:stedsnr" v="69277" />
	</node>
	<node id="-516935" lat="60.9045472231" lon="7.19763055179">
		<tag k="amenity" v="nursing_home" />
		<tag k="name" v="Gamleheimen" />
		<tag k="ssr:stedsnr" v="574420" />
	</node>
	<node id="-516453" lat="60.7728500023" lon="7.57396388628">
		<tag k="name" v="Fitjane" />
		<tag k="place" v="locality" />
		<tag k="ssr:stedsnr" v="251340" />
	</node>
	<node id="-515940" lat="60.8125777809" lon="7.55146110647">
		<tag k="name" v="Vestaforstølen" />
		<tag k="place" v="locality" />
		<tag k="ssr:stedsnr" v="69264" />
	</node>
	<node id="-517987" lat="60.8518666625" lon="7.09879167417">
		<tag k="name" v="Fossen" />
		<tag k="place" v="locality" />
		<tag k="ssr:stedsnr" v="939979" />
	</node>
	<node id="-516450" lat="60.7573499958" lon="7.36412778464">
		<tag k="historic" v="shieling" />
		<tag k="name" v="Flatnosi" />
		<tag k="place" v="locality" />
		<tag k="ssr:stedsnr" v="251317" />
	</node>
	<node id="-517473" lat="60.9751611112" lon="6.92069443581">
		<tag k="name" v="Bordteigen" />
		<tag k="place" v="locality" />
		<tag k="ssr:stedsnr" v="757740" />
	</node>
	<node id="-515935" lat="60.9721750002" lon="7.20508333241">
		<tag k="name" v="Fjellstølen" />
		<tag k="place" v="locality" />
		<tag k="ssr:stedsnr" v="69226" />
	</node>
	<node id="-515934" lat="60.9763749979" lon="7.10462777488">
		<tag k="historic" v="shieling" />
		<tag k="name" v="Heimastølen" />
		<tag k="place" v="locality" />
		<tag k="ssr:stedsnr" v="69223" />
	</node>
	<node id="-515420" lat="60.7874111126" lon="7.56850555617">
		<tag k="name" v="Nipa" />
		<tag k="place" v="locality" />
		<tag k="ssr:stedsnr" v="312291" />
	</node>
	<node id="-516442" lat="60.966202778" lon="7.05873055409">
		<tag k="name" v="Fjellstølen" />
		<tag k="place" v="locality" />
		<tag k="ssr:stedsnr" v="251266" />
	</node>
	<node id="-515929" lat="60.9157277793" lon="7.19128888979">
		<tag k="name" v="Tero" />
		<tag k="place" v="farm" />
		<tag k="ssr:stedsnr" v="69170" />
	</node>
	<node id="-515928" lat="60.9239264107" lon="7.21276632657">
		<tag k="fixme" v="consider place=hamlet" />
		<tag k="name" v="Ås" />
		<tag k="place" v="farm" />
		<tag k="ssr:stedsnr" v="69165" />
	</node>
	<node id="-516409" lat="60.8979611099" lon="7.16833333442">
		<tag k="name" v="Nordli" />
		<tag k="place" v="isolated_dwelling" />
		<tag k="ssr:stedsnr" v="236704" />
	</node>
	<node id="-515924" lat="60.951999078" lon="7.08359206852">
		<tag k="historic" v="shieling" />
		<tag k="name" v="Hovdungo" />
		<tag k="place" v="locality" />
		<tag k="ssr:stedsnr" v="69148" />
	</node>
	<node id="-515923" lat="60.9553999978" lon="7.20383055968">
		<tag k="historic" v="shieling" />
		<tag k="name" v="Leim" />
		<tag k="place" v="locality" />
		<tag k="ssr:stedsnr" v="69142" />
	</node>
	<node id="-515410" lat="60.9722777745" lon="7.11839721912">
		<tag k="historic" v="shieling" />
		<tag k="name" v="Selbøane" />
		<tag k="place" v="locality" />
		<tag k="ssr:stedsnr" v="312216" />
	</node>
	<node id="-515409" lat="60.905705558" lon="7.0604000084">
		<tag k="historic" v="shieling" />
		<tag k="name" v="Langhuso" />
		<tag k="place" v="locality" />
		<tag k="ssr:stedsnr" v="312175" />
	</node>
	<node id="-515920" lat="60.8960555513" lon="7.24120000603">
		<tag k="historic" v="shieling" />
		<tag k="name" v="Håli" />
		<tag k="place" v="locality" />
		<tag k="ssr:stedsnr" v="69090" />
	</node>
	<node id="-516431" lat="60.9159638921" lon="7.20486944728">
		<tag k="name" v="Kvamshagane" />
		<tag k="place" v="locality" />
		<tag k="ssr:stedsnr" v="251182" />
	</node>
	<node id="-515918" lat="60.7950472232" lon="7.10337221394">
		<tag k="historic" v="shieling" />
		<tag k="name" v="Styvissete" />
		<tag k="place" v="locality" />
		<tag k="ssr:stedsnr" v="69058" />
	</node>
	<node id="-515405" lat="60.9143416713" lon="7.23757222894">
		<tag k="historic" v="shieling" />
		<tag k="name" v="Glomsete" />
		<tag k="place" v="locality" />
		<tag k="ssr:stedsnr" v="312164" />
	</node>
	<node id="-517964" lat="60.9200916638" lon="7.15238889755">
		<tag k="historic" v="shieling" />
		<tag k="name" v="Stølsnes" />
		<tag k="place" v="locality" />
		<tag k="ssr:stedsnr" v="939773" />
	</node>
	<node id="-516834" lat="60.9599194432" lon="7.20390832897">
		<tag k="name" v="Sel" />
		<tag k="place" v="locality" />
		<tag k="ssr:stedsnr" v="554139" />
	</node>
	<node id="-515402" lat="60.9216864772" lon="7.1995079372">
		<tag k="fixme" v="consider place=hamlet" />
		<tag k="name" v="Ty" />
		<tag k="place" v="farm" />
		<tag k="ssr:stedsnr" v="312144" />
	</node>
	<node id="-515401" lat="60.9554361089" lon="7.15856388571">
		<tag k="historic" v="shieling" />
		<tag k="name" v="Fritilja" />
		<tag k="place" v="locality" />
		<tag k="ssr:stedsnr" v="312114" />
	</node>
	<node id="-515400" lat="60.8796690307" lon="7.16962586034">
		<tag k="fixme" v="consider place=hamlet" />
		<tag k="name" v="Vikesland" />
		<tag k="place" v="farm" />
		<tag k="ssr:stedsnr" v="312089" />
	</node>
	<node id="-516423" lat="60.9497639584" lon="7.19104950602">
		<tag k="fixme" v="consider place=hamlet" />
		<tag k="name" v="Skjerdal" />
		<tag k="place" v="farm" />
		<tag k="ssr:stedsnr" v="251138" />
	</node>
	<node id="-516422" lat="60.8833333291" lon="7.30850833498">
		<tag k="historic" v="shieling" />
		<tag k="name" v="Hola" />
		<tag k="place" v="locality" />
		<tag k="ssr:stedsnr" v="251104" />
	</node>
	<node id="-515396" lat="60.9034027745" lon="7.18629167195">
		<tag k="name" v="Sandbakken" />
		<tag k="place" v="farm" />
		<tag k="ssr:stedsnr" v="312066" />
	</node>
	<node id="-515395" lat="60.8999750009" lon="7.20869999664">
		<tag k="name" v="Lunde" />
		<tag k="place" v="farm" />
		<tag k="ssr:stedsnr" v="312065" />
	</node>
	<node id="-516418" lat="60.8059181418" lon="7.12991090237">
		<tag k="fixme" v="consider place=hamlet" />
		<tag k="name" v="Geisme" />
		<tag k="place" v="farm" />
		<tag k="ssr:stedsnr" v="251064" />
	</node>
	<node id="-515393" lat="60.7946807818" lon="7.11024687634">
		<tag k="fixme" v="consider place=hamlet" />
		<tag k="name" v="Tunshelle" />
		<tag k="place" v="farm" />
		<tag k="ssr:stedsnr" v="312057" />
	</node>
	<node id="-516416" lat="60.7995194482" lon="7.12563888883">
		<tag k="name" v="Kolåsen" />
		<tag k="place" v="locality" />
		<tag k="ssr:stedsnr" v="251056" />
	</node>
	<node id="-516712" lat="60.9081916624" lon="7.46055555507">
		<tag k="name" v="Rustavadet" />
		<tag k="place" v="locality" />
		<tag k="ssr:stedsnr" v="494400" />
	</node>
	<node id="-516412" lat="60.7355750015" lon="7.19902500565">
		<tag k="historic" v="shieling" />
		<tag k="name" v="Seltuft" />
		<tag k="place" v="locality" />
		<tag k="ssr:stedsnr" v="249121" />
	</node>
	<node id="-515387" lat="60.9510444461" lon="7.36254165765">
		<tag k="name" v="Hornshytta" />
		<tag k="place" v="locality" />
		<tag k="ssr:stedsnr" v="311448" />
	</node>
	<node id="-517002" lat="60.9769309053" lon="6.8996742171">
		<tag k="fixme" v="consider place=hamlet" />
		<tag k="name" v="Drægo" />
		<tag k="place" v="farm" />
		<tag k="ssr:stedsnr" v="614919" />
	</node>
	<node id="-515385" lat="60.8447888887" lon="7.36072777807">
		<tag k="historic" v="shieling" />
		<tag k="name" v="Mjelkeberg" />
		<tag k="place" v="locality" />
		<tag k="ssr:stedsnr" v="311422" />
	</node>
	<node id="-515895" lat="60.9614611091" lon="7.16646111337">
		<tag k="name" v="Dalarsteigen" />
		<tag k="place" v="locality" />
		<tag k="ssr:stedsnr" v="29870" />
	</node>
	<node id="-515382" lat="60.8534527739" lon="7.36980555998">
		<tag k="historic" v="shieling" />
		<tag k="name" v="Hovdungo" />
		<tag k="place" v="locality" />
		<tag k="ssr:stedsnr" v="311392" />
	</node>
	<node id="-515893" lat="60.9783444411" lon="6.91858332921">
		<tag k="name" v="Håbruteigen" />
		<tag k="place" v="locality" />
		<tag k="ssr:stedsnr" v="29778" />
	</node>
	<node id="-517172" lat="60.8892888888" lon="7.28100833652">
		<tag k="historic" v="shieling" />
		<tag k="name" v="Fleningo" />
		<tag k="place" v="locality" />
		<tag k="ssr:stedsnr" v="676092" />
	</node>
	<node id="-516911" lat="60.8175638892" lon="7.12463610999">
		<tag k="name" v="Nedrebø" />
		<tag k="place" v="farm" />
		<tag k="ssr:stedsnr" v="574030" />
	</node>
	<node id="-517930" lat="60.93251389" lon="7.06635000504">
		<tag k="historic" v="shieling" />
		<tag k="name" v="Tvenningo" />
		<tag k="place" v="locality" />
		<tag k="ssr:stedsnr" v="939289" />
	</node>
	<node id="-515881" lat="60.8242666688" lon="7.50093332873">
		<tag k="historic" v="shieling" />
		<tag k="name" v="Venasete" />
		<tag k="place" v="locality" />
		<tag k="ssr:stedsnr" v="29523" />
	</node>
	<node id="-517001" lat="60.9075555543" lon="6.90159721805">
		<tag k="name" v="Nisedalen" />
		<tag k="place" v="isolated_dwelling" />
		<tag k="ssr:stedsnr" v="614859" />
	</node>
	<node id="-515362" lat="60.90303056" lon="7.20078333179">
		<tag k="amenity" v="school" />
		<tag k="name" v="Sogn jord- og hagebruksskule" />
		<tag k="old_name" v="Sogn jord- og hagebruksskole" />
		<tag k="ssr:stedsnr" v="282071" />
	</node>
	<node id="-517339" lat="60.9335361132" lon="7.08604166885">
		<tag k="historic" v="shieling" />
		<tag k="name" v="Hjølla" />
		<tag k="place" v="locality" />
		<tag k="ssr:stedsnr" v="736157" />
	</node>
	<node id="-515871" lat="60.8836472224" lon="7.24288888884">
		<tag k="amenity" v="school" />
		<tag k="name" v="Dalen" />
		<tag k="ssr:stedsnr" v="29139" />
	</node>
	<node id="-516893" lat="60.8494444426" lon="7.10943611872">
		<tag k="name" v="Lunden" />
		<tag k="place" v="farm" />
		<tag k="ssr:stedsnr" v="570130" />
	</node>
	<node id="-517916" lat="60.8413611119" lon="7.12195555676">
		<tag k="name" v="Moldstein" />
		<tag k="place" v="farm" />
		<tag k="ssr:stedsnr" v="939083" />
	</node>
	<node id="-517399" lat="60.8279868076" lon="7.50272681367">
		<tag k="fixme" v="consider place=hamlet" />
		<tag k="name" v="Aurdalen" />
		<tag k="place" v="farm" />
		<tag k="ssr:stedsnr" v="751286" />
	</node>
	<node id="-517337" lat="60.927038887" lon="7.12591944535">
		<tag k="name" v="Dimma" />
		<tag k="place" v="locality" />
		<tag k="ssr:stedsnr" v="736148" />
	</node>
	<node id="-517395" lat="60.7503138863" lon="7.1218694433">
		<tag k="historic" v="shieling" />
		<tag k="name" v="Nåli" />
		<tag k="place" v="locality" />
		<tag k="ssr:stedsnr" v="737479" />
	</node>
	<node id="-515342" lat="60.9720527808" lon="7.06312500287">
		<tag k="name" v="Neste Stigen" />
		<tag k="place" v="farm" />
		<tag k="ssr:stedsnr" v="272135" />
	</node>
	<node id="-516249" lat="60.8571694409" lon="7.03963055858">
		<tag k="name" v="Øyestølen" />
		<tag k="place" v="locality" />
		<tag k="ssr:stedsnr" v="190123" />
	</node>
	<node id="-516363" lat="60.8586277811" lon="7.35380832902">
		<tag k="name" v="Bjønnhiet" />
		<tag k="place" v="locality" />
		<tag k="ssr:stedsnr" v="211387" />
	</node>
	<node id="-516823" lat="60.8834555545" lon="7.21500833737">
		<tag k="historic" v="shieling" />
		<tag k="name" v="Hovden" />
		<tag k="place" v="locality" />
		<tag k="ssr:stedsnr" v="554085" />
	</node>
	<node id="-517514" lat="60.8107812609" lon="7.12240707682">
		<tag k="fixme" v="consider place=hamlet" />
		<tag k="name" v="Dalsbotn" />
		<tag k="place" v="farm" />
		<tag k="ssr:stedsnr" v="797042" />
	</node>
	<node id="-516870" lat="60.7953222207" lon="7.13249999402">
		<tag k="name" v="Raudasete" />
		<tag k="place" v="locality" />
		<tag k="ssr:stedsnr" v="554481" />
	</node>
	<node id="-517590" lat="60.8976916661" lon="7.17721110881">
		<tag k="name" v="Oppheim" />
		<tag k="place" v="locality" />
		<tag k="ssr:stedsnr" v="817460" />
	</node>
	<node id="-516815" lat="60.8186847667" lon="7.13166743959">
		<tag k="fixme" v="consider place=hamlet" />
		<tag k="name" v="Holo" />
		<tag k="place" v="farm" />
		<tag k="ssr:stedsnr" v="554026" />
	</node>
	<node id="-517887" lat="60.787590646" lon="7.09817646569">
		<tag k="fixme" v="consider place=hamlet" />
		<tag k="name" v="Berekvam" />
		<tag k="place" v="farm" />
		<tag k="ssr:stedsnr" v="919456" />
	</node>
	<node id="-517371" lat="60.9538944429" lon="7.1738499975">
		<tag k="historic" v="shieling" />
		<tag k="name" v="Luen" />
		<tag k="place" v="locality" />
		<tag k="ssr:stedsnr" v="737122" />
	</node>
	<node id="-515833" lat="60.9736194469" lon="7.11190555683">
		<tag k="name" v="Gamle Kappadalen" />
		<tag k="place" v="locality" />
		<tag k="ssr:stedsnr" v="28128" />
	</node>
	<node id="-517880" lat="60.9236027814" lon="7.41514443629">
		<tag k="historic" v="shieling" />
		<tag k="name" v="Norddalen" />
		<tag k="place" v="locality" />
		<tag k="ssr:stedsnr" v="919381" />
	</node>
	<node id="-516342" lat="60.8094222227" lon="7.12605556421">
		<tag k="name" v="Løengi" />
		<tag k="place" v="locality" />
		<tag k="ssr:stedsnr" v="211027" />
	</node>
	<node id="-516853" lat="60.8605206091" lon="7.40317833883">
		<tag k="fixme" v="consider place=hamlet" />
		<tag k="name" v="Teigen" />
		<tag k="place" v="farm" />
		<tag k="ssr:stedsnr" v="554341" />
	</node>
	<node id="-517876" lat="60.8327917315" lon="7.47669473653">
		<tag k="fixme" v="consider place=hamlet" />
		<tag k="name" v="Nesbø" />
		<tag k="place" v="farm" />
		<tag k="ssr:stedsnr" v="919340" />
	</node>
	<node id="-517363" lat="60.9755750006" lon="6.9147305602">
		<tag k="name" v="Drægali" />
		<tag k="place" v="farm" />
		<tag k="ssr:stedsnr" v="736898" />
	</node>
	<node id="-516850" lat="60.7928500014" lon="7.49093334014">
		<tag k="historic" v="shieling" />
		<tag k="name" v="Håbergsholene" />
		<tag k="place" v="locality" />
		<tag k="ssr:stedsnr" v="554320" />
	</node>
	<node id="-515825" lat="60.8618944468" lon="7.1123388969">
		<tag k="alt_name" v="Fretheim" />
		<tag k="name" v="Fretheim turisthotell" />
		<tag k="old_name" v="Freteim" />
		<tag k="ssr:stedsnr" v="25044" />
		<tag k="tourism" v="hotel" />
	</node>
	<node id="-516336" lat="60.9240833367" lon="6.85892222189">
		<tag k="name" v="Seltuft" />
		<tag k="place" v="locality" />
		<tag k="ssr:stedsnr" v="210990" />
	</node>
	<node id="-515823" lat="60.9162277804" lon="7.50000832841">
		<tag k="name" v="Melahytta" />
		<tag k="place" v="isolated_dwelling" />
		<tag k="ssr:stedsnr" v="22314" />
	</node>
	<node id="-515821" lat="60.8264972265" lon="7.14231389016">
		<tag k="historic" v="shieling" />
		<tag k="name" v="Tjørnsete" />
		<tag k="place" v="locality" />
		<tag k="ssr:stedsnr" v="21448" />
	</node>
	<node id="-516844" lat="60.9705499972" lon="7.13509166619">
		<tag k="historic" v="shieling" />
		<tag k="name" v="Vassetstølen" />
		<tag k="place" v="locality" />
		<tag k="ssr:stedsnr" v="554246" />
	</node>
	<node id="-516842" lat="60.993511111" lon="7.08133611814">
		<tag k="name" v="Hortastølen" />
		<tag k="place" v="locality" />
		<tag k="ssr:stedsnr" v="554235" />
	</node>
	<node id="-517864" lat="60.9675155341" lon="7.0764444574">
		<tag k="alt_name" v="Stokko øydegard" />
		<tag k="fixme" v="consider place=hamlet" />
		<tag k="name" v="Stokko" />
		<tag k="place" v="farm" />
		<tag k="ssr:stedsnr" v="919240" />
	</node>
	<node id="-515964" lat="60.8818898372" lon="6.84981049427">
		<tag k="fixme" v="consider place=hamlet" />
		<tag k="name" v="Ramsøy" />
		<tag k="place" v="farm" />
		<tag k="ssr:stedsnr" v="69849" />
	</node>
	<node id="-517861" lat="60.9770277751" lon="7.05398611536">
		<tag k="historic" v="shieling" />
		<tag k="name" v="Åsen" />
		<tag k="place" v="locality" />
		<tag k="ssr:stedsnr" v="919221" />
	</node>
	<node id="-517348" lat="60.8258944446" lon="7.58252778636">
		<tag k="historic" v="shieling" />
		<tag k="name" v="Sauavad" />
		<tag k="place" v="locality" />
		<tag k="ssr:stedsnr" v="736280" />
	</node>
	<node id="-517859" lat="60.9753402608" lon="7.09432826892">
		<tag k="fixme" v="consider place=hamlet" />
		<tag k="name" v="Nedbergo" />
		<tag k="place" v="farm" />
		<tag k="ssr:stedsnr" v="919204" />
	</node>
	<node id="-515810" lat="60.7777527783" lon="7.11247499669">
		<tag k="name" v="Hovden" />
		<tag k="place" v="locality" />
		<tag k="ssr:stedsnr" v="9452" />
	</node>
	<node id="-516833" lat="60.8585543438" lon="7.11708781915">
		<tag k="fixme" v="consider place=hamlet" />
		<tag k="name" v="Fretheim" />
		<tag k="place" v="farm" />
		<tag k="ssr:stedsnr" v="554124" />
	</node>
	<node id="-517853" lat="60.916866346" lon="7.19614454376">
		<tag k="fixme" v="consider place=hamlet" />
		<tag k="name" v="Gjerlå" />
		<tag k="place" v="farm" />
		<tag k="ssr:stedsnr" v="919159" />
	</node>
	<node id="-517340" lat="60.9262749989" lon="7.2022416743">
		<tag k="name" v="Bell" />
		<tag k="place" v="farm" />
		<tag k="ssr:stedsnr" v="736179" />
	</node>
	<node id="-515450" lat="60.9633972202" lon="6.86213333381">
		<tag k="historic" v="shieling" />
		<tag k="name" v="Vassete" />
		<tag k="place" v="locality" />
		<tag k="ssr:stedsnr" v="312901" />
	</node>
	<node id="-515290" lat="60.8453055564" lon="7.12023055671">
		<tag k="name" v="Heimdal" />
		<tag k="place" v="farm" />
		<tag k="ssr:stedsnr" v="271092" />
	</node>
	<node id="-516825" lat="60.8830484639" lon="7.25195551802">
		<tag k="fixme" v="consider place=hamlet" />
		<tag k="name" v="Tero" />
		<tag k="place" v="farm" />
		<tag k="ssr:stedsnr" v="554094" />
	</node>
	<node id="-517848" lat="60.8986805514" lon="7.14355000563">
		<tag k="name" v="Høydøla" />
		<tag k="place" v="locality" />
		<tag k="ssr:stedsnr" v="919064" />
	</node>
	<node id="-517335" lat="60.9495583314" lon="7.18399721409">
		<tag k="name" v="Bygningen" />
		<tag k="place" v="isolated_dwelling" />
		<tag k="ssr:stedsnr" v="736134" />
	</node>
	<node id="-516131" lat="60.8998666652" lon="7.39228333908">
		<tag k="name" v="Kleåvellene" />
		<tag k="place" v="locality" />
		<tag k="ssr:stedsnr" v="130372" />
	</node>
	<node id="-517840" lat="60.8437249972" lon="7.42225554865">
		<tag k="alt_name" v="Vetlehelvete" />
		<tag k="name" v="Vetlahelvete" />
		<tag k="place" v="locality" />
		<tag k="ssr:stedsnr" v="918420" />
	</node>
	<node id="-516472" lat="60.8654781941" lon="6.79150649203">
		<tag k="name" v="Solbjørgo" />
		<tag k="place" v="locality" />
		<tag k="ssr:stedsnr" v="251846" />
	</node>
	<node id="-516814" lat="60.8387388888" lon="7.29425000636">
		<tag k="name" v="Låvistølen" />
		<tag k="place" v="isolated_dwelling" />
		<tag k="ssr:stedsnr" v="554015" />
	</node>
	<node id="-516657" lat="60.9246319629" lon="7.19891326785">
		<tag k="fixme" v="consider place=hamlet" />
		<tag k="name" v="Høydalen" />
		<tag k="place" v="farm" />
		<tag k="ssr:stedsnr" v="493178" />
	</node>
	<node id="-517321" lat="60.7240888926" lon="7.00968055016">
		<tag k="historic" v="shieling" />
		<tag k="name" v="Uppsete" />
		<tag k="place" v="locality" />
		<tag k="ssr:stedsnr" v="735002" />
	</node>
	<node id="-516296" lat="60.868095062" lon="7.39468156647">
		<tag k="fixme" v="consider place=hamlet" />
		<tag k="name" v="Almen" />
		<tag k="place" v="farm" />
		<tag k="ssr:stedsnr" v="191305" />
	</node>
	<node id="-517830" lat="60.8773917047" lon="7.25460829525">
		<tag k="fixme" v="consider place=hamlet" />
		<tag k="name" v="Låvi" />
		<tag k="place" v="farm" />
		<tag k="ssr:stedsnr" v="918106" />
	</node>
	<node id="-517316" lat="60.8287863335" lon="7.50594716742">
		<tag k="fixme" v="consider tourism=alpine_hut or tourism=chalet" />
		<tag k="name" v="Østerbø Fjellstove" />
		<tag k="ssr:stedsnr" v="718789" />
		<tag k="tourism" v="wilderness_hut" />
	</node>
	<node id="-517458" lat="60.8286194423" lon="7.48761666048">
		<tag k="historic" v="shieling" />
		<tag k="name" v="Vetlestølen" />
		<tag k="place" v="locality" />
		<tag k="ssr:stedsnr" v="757287" />
	</node>
	<node id="-516288" lat="60.8753361112" lon="7.17741944617">
		<tag k="historic" v="shieling" />
		<tag k="name" v="Høgsete" />
		<tag k="place" v="locality" />
		<tag k="ssr:stedsnr" v="191080" />
	</node>
	<node id="-515773" lat="60.8303500043" lon="7.43966388139">
		<tag k="name" v="Heimrebø" />
		<tag k="place" v="locality" />
		<tag k="ssr:stedsnr" v="8364" />
	</node>
	<node id="-515772" lat="60.8537888848" lon="7.41851110811">
		<tag k="alt_name" v="Skåri" />
		<tag k="name" v="Skori" />
		<tag k="place" v="farm" />
		<tag k="ssr:stedsnr" v="8351" />
	</node>
	<node id="-516795" lat="60.9662916696" lon="7.20673333095">
		<tag k="historic" v="shieling" />
		<tag k="name" v="Fremste nystølen" />
		<tag k="place" v="locality" />
		<tag k="ssr:stedsnr" v="514927" />
	</node>
	<node id="-517202" lat="60.9122944463" lon="7.35001389089">
		<tag k="alt_name" v="Furedalen, vetle" />
		<tag k="name" v="Vetle Furedalen" />
		<tag k="place" v="locality" />
		<tag k="ssr:stedsnr" v="676374" />
	</node>
	<node id="-517304" lat="60.9642638874" lon="7.17471944214">
		<tag k="historic" v="shieling" />
		<tag k="name" v="Mørkeli" />
		<tag k="place" v="locality" />
		<tag k="ssr:stedsnr" v="696907" />
	</node>
	<node id="-517815" lat="60.916166663" lon="7.19239167183">
		<tag k="name" v="Fjellborg" />
		<tag k="place" v="farm" />
		<tag k="ssr:stedsnr" v="903919" />
	</node>
	<node id="-515766" lat="60.9286805572" lon="7.1967749961">
		<tag k="name" v="Nordheim" />
		<tag k="place" v="isolated_dwelling" />
		<tag k="ssr:stedsnr" v="8182" />
	</node>
	<node id="-517577" lat="60.7495861114" lon="7.10975555844">
		<tag k="name" v="Kårdalshagen" />
		<tag k="place" v="locality" />
		<tag k="ssr:stedsnr" v="817013" />
	</node>
	<node id="-516126" lat="60.7601583318" lon="7.21188054842">
		<tag k="historic" v="shieling" />
		<tag k="name" v="Fretheimsdalen" />
		<tag k="place" v="locality" />
		<tag k="ssr:stedsnr" v="130458" />
	</node>
	<node id="-516782" lat="60.9740916689" lon="6.92524443534">
		<tag k="name" v="Svillateigene" />
		<tag k="place" v="locality" />
		<tag k="ssr:stedsnr" v="514773" />
	</node>
	<node id="-515757" lat="60.9044222189" lon="7.0597583319">
		<tag k="historic" v="shieling" />
		<tag k="name" v="Haskåhalsen" />
		<tag k="place" v="locality" />
		<tag k="ssr:stedsnr" v="8068" />
	</node>
	<node id="-516656" lat="60.9233416673" lon="7.15202221507">
		<tag k="historic" v="shieling" />
		<tag k="name" v="Rognaldsstølen" />
		<tag k="place" v="locality" />
		<tag k="ssr:stedsnr" v="493173" />
	</node>
	<node id="-516267" lat="60.8430944474" lon="7.50665277919">
		<tag k="name" v="Herdølestølen" />
		<tag k="place" v="locality" />
		<tag k="ssr:stedsnr" v="190382" />
	</node>
	<node id="-515754" lat="60.81043056" lon="7.14055555506">
		<tag k="historic" v="shieling" />
		<tag k="name" v="Rond" />
		<tag k="place" v="locality" />
		<tag k="ssr:stedsnr" v="8049" />
	</node>
	<node id="-516551" lat="60.8944972206" lon="7.18321943533">
		<tag k="historic" v="shieling" />
		<tag k="name" v="Sele" />
		<tag k="place" v="locality" />
		<tag k="ssr:stedsnr" v="434064" />
	</node>
	<node id="-517800" lat="60.9664388885" lon="7.16785277105">
		<tag k="historic" v="shieling" />
		<tag k="name" v="Skori" />
		<tag k="place" v="locality" />
		<tag k="ssr:stedsnr" v="878909" />
	</node>
	<node id="-517404" lat="60.927180558" lon="6.86324165922">
		<tag k="name" v="Flåtane" />
		<tag k="place" v="locality" />
		<tag k="ssr:stedsnr" v="755986" />
	</node>
	<node id="-517798" lat="60.9983861092" lon="6.97152500285">
		<tag k="historic" v="shieling" />
		<tag k="name" v="Legdo" />
		<tag k="place" v="locality" />
		<tag k="ssr:stedsnr" v="878873" />
	</node>
	<node id="-516261" lat="60.8306111113" lon="7.49673612004">
		<tag k="name" v="Viki" />
		<tag k="place" v="isolated_dwelling" />
		<tag k="ssr:stedsnr" v="190278" />
	</node>
	<node id="-516259" lat="60.820505556" lon="7.56123332431">
		<tag k="name" v="Nosi" />
		<tag k="place" v="locality" />
		<tag k="ssr:stedsnr" v="190253" />
	</node>
	<node id="-516258" lat="60.9750222194" lon="7.22894443955">
		<tag k="historic" v="shieling" />
		<tag k="name" v="Øyestølen" />
		<tag k="place" v="locality" />
		<tag k="ssr:stedsnr" v="190244" />
	</node>
	<node id="-516434" lat="60.9057572511" lon="7.1869770743">
		<tag k="name" v="Aurlandsvangen" />
		<tag k="place" v="village" />
		<tag k="ssr:stedsnr" v="251194" />
	</node>
	<node id="-515744" lat="60.7268524105" lon="7.01915064561">
		<tag k="fixme" v="consider tourism=alpine_hut or tourism=chalet" />
		<tag k="name" v="Upsete fjellstove" />
		<tag k="ssr:stedsnr" v="987818" />
		<tag k="tourism" v="wilderness_hut" />
	</node>
	<node id="-516255" lat="60.9209722216" lon="7.1979833288">
		<tag k="name" v="Voni" />
		<tag k="place" v="farm" />
		<tag k="ssr:stedsnr" v="190171" />
	</node>
	<node id="-516254" lat="60.9178888927" lon="7.19579721918">
		<tag k="name" v="Klokkargarden" />
		<tag k="place" v="farm" />
		<tag k="ssr:stedsnr" v="190170" />
	</node>
	<node id="-517275" lat="60.8987333349" lon="7.21190555514">
		<tag k="name" v="Nyheim" />
		<tag k="place" v="farm" />
		<tag k="ssr:stedsnr" v="696466" />
	</node>
	<node id="-516250" lat="60.8568117161" lon="7.10629195609">
		<tag k="alt_name" v="Nedre Brekke;Øvre Brekke" />
		<tag k="fixme" v="consider place=hamlet" />
		<tag k="name" v="Brekke" />
		<tag k="place" v="farm" />
		<tag k="ssr:stedsnr" v="190128" />
	</node>
	<node id="-517273" lat="60.8537888907" lon="7.30873611812">
		<tag k="name" v="Kolbakk" />
		<tag k="place" v="locality" />
		<tag k="ssr:stedsnr" v="696447" />
	</node>
	<node id="-515736" lat="60.9151583345" lon="7.18953332849">
		<tag k="name" v="Araldsnes" />
		<tag k="place" v="farm" />
		<tag k="ssr:stedsnr" v="478911" />
	</node>
	<node id="-516759" lat="60.9117527742" lon="7.18915278179">
		<tag k="amenity" v="nursing_home" />
		<tag k="name" v="Sjukestova" />
		<tag k="ssr:stedsnr" v="514388" />
	</node>
	<node id="-515624" lat="60.8777277739" lon="6.83794721479">
		<tag k="fixme" v="consider place=suburb, village or hamlet" />
		<tag k="name" v="Gudvangen" />
		<tag k="place" v="quarter" />
		<tag k="ssr:stedsnr" v="372857" />
	</node>
	<node id="-516245" lat="60.9033933234" lon="7.18877931538">
		<tag k="fixme" v="consider place=hamlet" />
		<tag k="name" v="Onstad" />
		<tag k="place" v="farm" />
		<tag k="ssr:stedsnr" v="190077" />
	</node>
	<node id="-516678" lat="60.8056492373" lon="7.10421256022">
		<tag k="fixme" v="consider place=hamlet" />
		<tag k="name" v="Vidme" />
		<tag k="place" v="farm" />
		<tag k="ssr:stedsnr" v="494054" />
	</node>
	<node id="-517486" lat="60.9760916665" lon="7.21536110492">
		<tag k="historic" v="shieling" />
		<tag k="name" v="Skulesete" />
		<tag k="place" v="locality" />
		<tag k="ssr:stedsnr" v="757968" />
	</node>
	<node id="-516240" lat="60.8199777753" lon="7.12514166244">
		<tag k="name" v="Botn" />
		<tag k="place" v="farm" />
		<tag k="ssr:stedsnr" v="190039" />
	</node>
	<node id="-516239" lat="60.8188321047" lon="7.02666006552">
		<tag k="historic" v="shieling" />
		<tag k="name" v="Svarven" />
		<tag k="place" v="locality" />
		<tag k="ssr:stedsnr" v="190024" />
	</node>
	<node id="-517997" lat="60.8398222941" lon="7.11998230688">
		<tag k="fixme" v="consider place=hamlet" />
		<tag k="name" v="Flåm" />
		<tag k="place" v="farm" />
		<tag k="ssr:stedsnr" v="979449" />
	</node>
	<node id="-516748" lat="60.9007666655" lon="7.22898610421">
		<tag k="historic" v="shieling" />
		<tag k="name" v="Fossheimsberg" />
		<tag k="place" v="locality" />
		<tag k="ssr:stedsnr" v="514179" />
	</node>
	<node id="-516742" lat="60.8463500021" lon="7.11538888188">
		<tag k="name" v="Brekkehagen" />
		<tag k="place" v="locality" />
		<tag k="ssr:stedsnr" v="514092" />
	</node>
	<node id="-517763" lat="60.8900083361" lon="7.33789721555">
		<tag k="name" v="Geitheim" />
		<tag k="place" v="locality" />
		<tag k="ssr:stedsnr" v="878337" />
	</node>
	<node id="-517761" lat="60.887122221" lon="7.33842500513">
		<tag k="name" v="Kvålene" />
		<tag k="place" v="locality" />
		<tag k="ssr:stedsnr" v="878324" />
	</node>
	<node id="-517166" lat="60.835500882" lon="7.13939350627">
		<tag k="fixme" v="consider place=hamlet" />
		<tag k="name" v="Ryo" />
		<tag k="place" v="farm" />
		<tag k="ssr:stedsnr" v="676024" />
	</node>
	<node id="-517312" lat="60.9731250028" lon="7.21355556331">
		<tag k="historic" v="shieling" />
		<tag k="name" v="Myri" />
		<tag k="place" v="locality" />
		<tag k="ssr:stedsnr" v="696955" />
	</node>
	<node id="-516629" lat="60.8560583294" lon="7.35591388998">
		<tag k="name" v="Allmenningane" />
		<tag k="place" v="locality" />
		<tag k="ssr:stedsnr" v="454391" />
	</node>
	<node id="-516732" lat="60.7507472251" lon="7.108272231">
		<tag k="historic" v="shieling" />
		<tag k="name" v="Fellesstøl" />
		<tag k="place" v="locality" />
		<tag k="ssr:stedsnr" v="514010" />
	</node>
	<node id="-517209" lat="60.8950527761" lon="7.57726666739">
		<tag k="name" v="Hellenuthytta" />
		<tag k="place" v="isolated_dwelling" />
		<tag k="ssr:stedsnr" v="676419" />
	</node>
	<node id="-516883" lat="60.9244187735" lon="6.867129373">
		<tag k="fixme" v="consider place=hamlet" />
		<tag k="name" v="Tufto" />
		<tag k="place" v="farm" />
		<tag k="ssr:stedsnr" v="554891" />
	</node>
	<node id="-516116" lat="60.9500888926" lon="7.10185278255">
		<tag k="fixme" v="consider place=hamlet" />
		<tag k="name" v="Undredal" />
		<tag k="place" v="village" />
		<tag k="ssr:stedsnr" v="130108" />
	</node>
	<node id="-516214" lat="60.7827111113" lon="7.09411945049">
		<tag k="name" v="Vetlestølen" />
		<tag k="place" v="locality" />
		<tag k="ssr:stedsnr" v="150882" />
	</node>
	<node id="-516725" lat="60.7638111086" lon="7.3726333311">
		<tag k="name" v="Lordahytta" />
		<tag k="place" v="isolated_dwelling" />
		<tag k="ssr:stedsnr" v="509781" />
	</node>
	<node id="-515859" lat="60.8950277759" lon="7.16724443807">
		<tag k="name" v="Hatleteigen" />
		<tag k="place" v="farm" />
		<tag k="ssr:stedsnr" v="28809" />
	</node>
	<node id="-516719" lat="60.8591316808" lon="6.80240034803">
		<tag k="fixme" v="consider place=hamlet" />
		<tag k="name" v="Skjerpi" />
		<tag k="place" v="farm" />
		<tag k="ssr:stedsnr" v="494802" />
	</node>
	<node id="-517229" lat="60.9417314249" lon="6.9360579385">
		<tag k="fixme" v="consider place=hamlet" />
		<tag k="name" v="Styvi" />
		<tag k="place" v="farm" />
		<tag k="ssr:stedsnr" v="676865" />
	</node>
	<node id="-517227" lat="60.8588181428" lon="6.76173818897">
		<tag k="fixme" v="consider place=hamlet" />
		<tag k="name" v="Hylland" />
		<tag k="place" v="farm" />
		<tag k="ssr:stedsnr" v="676815" />
	</node>
	<node id="-516714" lat="60.9157555592" lon="7.58113888199">
		<tag k="name" v="Kvalrygghytta" />
		<tag k="place" v="isolated_dwelling" />
		<tag k="ssr:stedsnr" v="494413" />
	</node>
	<node id="-516713" lat="60.9114166665" lon="7.45454721597">
		<tag k="name" v="Rusti" />
		<tag k="place" v="locality" />
		<tag k="ssr:stedsnr" v="494402" />
	</node>
	<node id="-517224" lat="60.873686796" lon="6.82943236246">
		<tag k="fixme" v="consider place=hamlet" />
		<tag k="name" v="Gudvangen" />
		<tag k="place" v="farm" />
		<tag k="ssr:stedsnr" v="676803" />
	</node>
	<node id="-516284" lat="60.9590876217" lon="6.93302034209">
		<tag k="fixme" v="consider place=hamlet" />
		<tag k="name" v="Dyrdal" />
		<tag k="place" v="farm" />
		<tag k="ssr:stedsnr" v="190893" />
	</node>
	<node id="-515685" lat="60.7690999996" lon="7.10393611925">
		<tag k="historic" v="shieling" />
		<tag k="name" v="Storaberget" />
		<tag k="place" v="locality" />
		<tag k="ssr:stedsnr" v="392596" />
	</node>
	<node id="-516449" lat="60.8217750025" lon="7.5473861061">
		<tag k="name" v="Grønestøl" />
		<tag k="place" v="locality" />
		<tag k="ssr:stedsnr" v="251297" />
	</node>
	<node id="-516125" lat="60.7514722207" lon="7.15083332754">
		<tag k="historic" v="shieling" />
		<tag k="name" v="Reinunga" />
		<tag k="place" v="locality" />
		<tag k="ssr:stedsnr" v="130454" />
	</node>
	<node id="-517003" lat="60.8358944487" lon="7.10097221982">
		<tag k="historic" v="shieling" />
		<tag k="name" v="Ljoren" />
		<tag k="place" v="locality" />
		<tag k="ssr:stedsnr" v="615014" />
	</node>
	<node id="-515679" lat="60.9011388863" lon="7.2046777757">
		<tag k="name" v="Furuly" />
		<tag k="place" v="farm" />
		<tag k="ssr:stedsnr" v="392518" />
	</node>
	<node id="-516709" lat="60.9122083312" lon="7.58786389506">
		<tag k="name" v="Fredlaushytta" />
		<tag k="place" v="locality" />
		<tag k="ssr:stedsnr" v="494396" />
	</node>
	<node id="-517210" lat="60.8924888899" lon="7.55141388083">
		<tag k="name" v="Botolv Olavsbu" />
		<tag k="place" v="isolated_dwelling" />
		<tag k="ssr:stedsnr" v="676418" />
	</node>
	<node id="-517721" lat="60.9917277813" lon="6.9051277773">
		<tag k="name" v="Snauasete" />
		<tag k="place" v="isolated_dwelling" />
		<tag k="ssr:stedsnr" v="858917" />
	</node>
	<node id="-517720" lat="60.9582777757" lon="6.82717778422">
		<tag k="name" v="Kolsete" />
		<tag k="place" v="locality" />
		<tag k="ssr:stedsnr" v="858909" />
	</node>
	<node id="-517204" lat="60.924863889" lon="7.46565278021">
		<tag k="name" v="Spelefjellhytta" />
		<tag k="place" v="locality" />
		<tag k="ssr:stedsnr" v="676379" />
	</node>
	<node id="-516878" lat="60.8590794666" lon="6.78866203658">
		<tag k="fixme" v="consider place=hamlet" />
		<tag k="name" v="Hemri" />
		<tag k="place" v="farm" />
		<tag k="ssr:stedsnr" v="554854" />
	</node>
	<node id="-517714" lat="60.8197277746" lon="6.95399444034">
		<tag k="historic" v="shieling" />
		<tag k="name" v="Soleifletene" />
		<tag k="place" v="locality" />
		<tag k="ssr:stedsnr" v="858803" />
	</node>
	<node id="-517713" lat="60.7926638896" lon="6.96323612012">
		<tag k="historic" v="shieling" />
		<tag k="name" v="Tørva" />
		<tag k="place" v="locality" />
		<tag k="ssr:stedsnr" v="858793" />
	</node>
	<node id="-517369" lat="60.8871305596" lon="7.23219722531">
		<tag k="name" v="Mjå" />
		<tag k="place" v="locality" />
		<tag k="ssr:stedsnr" v="737085" />
	</node>
	<node id="-517199" lat="60.864570217" lon="7.40678091298">
		<tag k="alt_name" v="Sinjareim" />
		<tag k="fixme" v="consider place=hamlet" />
		<tag k="name" v="Sinjarheim" />
		<tag k="place" v="farm" />
		<tag k="ssr:stedsnr" v="676343" />
	</node>
	<node id="-516685" lat="60.8981333305" lon="7.21468332865">
		<tag k="name" v="Fossheim" />
		<tag k="place" v="farm" />
		<tag k="ssr:stedsnr" v="494088" />
	</node>
	<node id="-516684" lat="60.8921361121" lon="7.19382500088">
		<tag k="historic" v="shieling" />
		<tag k="name" v="Hovdungo" />
		<tag k="place" v="locality" />
		<tag k="ssr:stedsnr" v="494085" />
	</node>
	<node id="-517707" lat="60.9049333367" lon="7.41350833959">
		<tag k="historic" v="shieling" />
		<tag k="name" v="Kleå" />
		<tag k="place" v="locality" />
		<tag k="ssr:stedsnr" v="858446" />
	</node>
	<node id="-516535" lat="60.896118009" lon="7.34955068768">
		<tag k="fixme" v="consider place=hamlet" />
		<tag k="name" v="Midje" />
		<tag k="place" v="farm" />
		<tag k="ssr:stedsnr" v="433396" />
	</node>
	<node id="-517703" lat="60.8367347136" lon="7.42303219773">
		<tag k="alt_name" v="Vetleberekvam" />
		<tag k="name" v="Berekvam" />
		<tag k="place" v="locality" />
		<tag k="ssr:stedsnr" v="858355" />
	</node>
	<node id="-517702" lat="60.8304138858" lon="7.45172777523">
		<tag k="name" v="Ljøtebotn" />
		<tag k="place" v="locality" />
		<tag k="ssr:stedsnr" v="858350" />
	</node>
	<node id="-516961" lat="60.7913138879" lon="7.11199166894">
		<tag k="name" v="Hellerengi" />
		<tag k="place" v="locality" />
		<tag k="ssr:stedsnr" v="574976" />
	</node>
	<node id="-517700" lat="60.8690583369" lon="7.40834443995">
		<tag k="name" v="Orrasete" />
		<tag k="place" v="locality" />
		<tag k="ssr:stedsnr" v="858345" />
	</node>
	<node id="-517814" lat="60.8952027747" lon="7.22447221554">
		<tag k="name" v="Nygard" />
		<tag k="place" v="isolated_dwelling" />
		<tag k="ssr:stedsnr" v="903917" />
	</node>
	<node id="-516673" lat="60.9802972207" lon="6.87613888937">
		<tag k="name" v="Hjølmo" />
		<tag k="place" v="isolated_dwelling" />
		<tag k="ssr:stedsnr" v="493930" />
	</node>
	<node id="-517851" lat="60.8800777761" lon="7.09381388313">
		<tag k="historic" v="shieling" />
		<tag k="name" v="Håvasete" />
		<tag k="place" v="locality" />
		<tag k="ssr:stedsnr" v="919084" />
	</node>
	<node id="-517183" lat="60.9077021834" lon="7.22721179349">
		<tag k="fixme" v="consider place=hamlet" />
		<tag k="name" v="Turli" />
		<tag k="place" v="farm" />
		<tag k="ssr:stedsnr" v="676179" />
	</node>
	<node id="-517352" lat="60.8512555517" lon="7.52355555056">
		<tag k="historic" v="shieling" />
		<tag k="name" v="Langedalen" />
		<tag k="place" v="locality" />
		<tag k="ssr:stedsnr" v="736343" />
	</node>
	<node id="-517301" lat="60.8559416643" lon="7.0882916642">
		<tag k="name" v="Nylendmarki" />
		<tag k="place" v="locality" />
		<tag k="ssr:stedsnr" v="696894" />
	</node>
	<node id="-517180" lat="60.9016888877" lon="7.01161945136">
		<tag k="name" v="Jonadalen" />
		<tag k="place" v="locality" />
		<tag k="ssr:stedsnr" v="676172" />
	</node>
	<node id="-516666" lat="60.8343805561" lon="7.4176666677">
		<tag k="name" v="Flatane" />
		<tag k="place" v="locality" />
		<tag k="ssr:stedsnr" v="493362" />
	</node>
	<node id="-517215" lat="60.9059999972" lon="7.3497138927">
		<tag k="name" v="Øyestølen" />
		<tag k="place" v="locality" />
		<tag k="ssr:stedsnr" v="676435" />
	</node>
	<node id="-517175" lat="60.875172412" lon="7.1496684989">
		<tag k="fixme" v="consider place=hamlet" />
		<tag k="name" v="Otternes" />
		<tag k="old_name" v="Åtrenes;Åtnes;Aatrenes" />
		<tag k="place" v="farm" />
		<tag k="ssr:stedsnr" v="676103" />
	</node>
	<node id="-517686" lat="60.9676444468" lon="7.17326665896">
		<tag k="name" v="Nisedalen" />
		<tag k="place" v="locality" />
		<tag k="ssr:stedsnr" v="858235" />
	</node>
	<node id="-517173" lat="60.8859833334" lon="7.31140833436">
		<tag k="historic" v="shieling" />
		<tag k="name" v="Kvitingane" />
		<tag k="place" v="locality" />
		<tag k="ssr:stedsnr" v="676097" />
	</node>
	<node id="-517351" lat="60.8374444422" lon="7.44165555174">
		<tag k="historic" v="shieling" />
		<tag k="name" v="Holmen" />
		<tag k="place" v="locality" />
		<tag k="ssr:stedsnr" v="736331" />
	</node>
	<node id="-517171" lat="60.8914499969" lon="7.11446111518">
		<tag k="alt_name" v="Toristølen" />
		<tag k="name" v="Torisstølen" />
		<tag k="place" v="locality" />
		<tag k="ssr:stedsnr" v="676073" />
	</node>
	<node id="-516669" lat="60.96326389" lon="7.44934166298">
		<tag k="name" v="Norddalshelleren" />
		<tag k="place" v="isolated_dwelling" />
		<tag k="ssr:stedsnr" v="493473" />
	</node>
	<node id="-515633" lat="60.777302782" lon="7.70143054956">
		<tag k="fixme" v="consider tourism=alpine_hut or tourism=chalet" />
		<tag k="name" v="Kongshelleren" />
		<tag k="ssr:stedsnr" v="373274" />
		<tag k="tourism" v="wilderness_hut" />
	</node>
	<node id="-515632" lat="60.9836750008" lon="6.88582222336">
		<tag k="historic" v="shieling" />
		<tag k="name" v="Torisstølen" />
		<tag k="place" v="locality" />
		<tag k="ssr:stedsnr" v="372937" />
	</node>
	<node id="-516655" lat="60.9195617388" lon="7.20246118388">
		<tag k="fixme" v="consider place=hamlet" />
		<tag k="name" v="Kvam" />
		<tag k="place" v="farm" />
		<tag k="ssr:stedsnr" v="493168" />
	</node>
	<node id="-515630" lat="60.9602904181" lon="6.94005330979">
		<tag k="fixme" v="consider place=hamlet" />
		<tag k="name" v="Arnehus" />
		<tag k="place" v="farm" />
		<tag k="ssr:stedsnr" v="372920" />
	</node>
	<node id="-516141" lat="60.776386109" lon="7.57693333602">
		<tag k="fixme" v="consider tourism=alpine_hut or tourism=chalet" />
		<tag k="name" v="Steinbergdalshytta" />
		<tag k="ssr:stedsnr" v="145115" />
		<tag k="tourism" v="wilderness_hut" />
	</node>
	<node id="-516652" lat="60.8522499959" lon="7.08205278475">
		<tag k="name" v="Ljosdalen" />
		<tag k="place" v="locality" />
		<tag k="ssr:stedsnr" v="493127" />
	</node>
	<node id="-517675" lat="60.8847527748" lon="7.11393332751">
		<tag k="historic" v="shieling" />
		<tag k="name" v="Vetlestølen" />
		<tag k="place" v="locality" />
		<tag k="ssr:stedsnr" v="858085" />
	</node>
	<node id="-517674" lat="60.8942677455" lon="7.17231858317">
		<tag k="fixme" v="consider place=hamlet" />
		<tag k="name" v="Li" />
		<tag k="place" v="farm" />
		<tag k="ssr:stedsnr" v="858081" />
	</node>
	<node id="-517673" lat="60.9009138853" lon="7.23108888535">
		<tag k="historic" v="shieling" />
		<tag k="name" v="Galden" />
		<tag k="place" v="locality" />
		<tag k="ssr:stedsnr" v="858069" />
	</node>
	<node id="-517160" lat="60.9164671662" lon="6.86851002935">
		<tag k="fixme" v="consider place=hamlet" />
		<tag k="name" v="Bakka" />
		<tag k="place" v="farm" />
		<tag k="ssr:stedsnr" v="675859" />
	</node>
	<node id="-517670" lat="60.8016277807" lon="6.99738889743">
		<tag k="name" v="Skubbesete" />
		<tag k="place" v="locality" />
		<tag k="ssr:stedsnr" v="858053" />
	</node>
	<node id="-516649" lat="60.8747312437" lon="7.34096370075">
		<tag k="fixme" v="consider place=hamlet" />
		<tag k="name" v="Belle" />
		<tag k="place" v="farm" />
		<tag k="ssr:stedsnr" v="493116" />
	</node>
	<node id="-517155" lat="60.938380554" lon="7.14482778535">
		<tag k="name" v="Holten" />
		<tag k="place" v="locality" />
		<tag k="ssr:stedsnr" v="675172" />
	</node>
	<node id="-517666" lat="60.823888887" lon="7.08082500887">
		<tag k="name" v="Kringle" />
		<tag k="place" v="locality" />
		<tag k="ssr:stedsnr" v="858019" />
	</node>
	<node id="-516129" lat="60.8644944488" lon="7.41728333076">
		<tag k="historic" v="shieling" />
		<tag k="name" v="Veiverdalen" />
		<tag k="place" v="locality" />
		<tag k="ssr:stedsnr" v="130288" />
	</node>
	<node id="-516638" lat="60.9198277765" lon="7.23863055779">
		<tag k="historic" v="shieling" />
		<tag k="name" v="Bjørgaseli" />
		<tag k="place" v="locality" />
		<tag k="ssr:stedsnr" v="454806" />
	</node>
	<node id="-516566" lat="60.8284782867" lon="7.50470821539">
		<tag k="fixme" v="consider tourism=alpine_hut or tourism=chalet" />
		<tag k="name" v="Aurlandsdalen turisthytte" />
		<tag k="old_name" v="Østerbø;Østerbø Turisthytte" />
		<tag k="ssr:stedsnr" v="449008" />
		<tag k="tourism" v="wilderness_hut" />
	</node>
	<node id="-515612" lat="60.8979638873" lon="7.37967777278">
		<tag k="historic" v="shieling" />
		<tag k="name" v="Stuasete" />
		<tag k="place" v="locality" />
		<tag k="ssr:stedsnr" v="372435" />
	</node>
	<node id="-515608" lat="60.8415555521" lon="7.34828889643">
		<tag k="alt_name" v="Vetlesladden" />
		<tag k="name" v="Sladden" />
		<tag k="place" v="locality" />
		<tag k="ssr:stedsnr" v="372385" />
	</node>
	<node id="-515607" lat="60.8504916661" lon="7.43222499365">
		<tag k="name" v="Øyestølen" />
		<tag k="place" v="locality" />
		<tag k="ssr:stedsnr" v="372383" />
	</node>
	<node id="-515673" lat="60.9195768148" lon="7.19633672669">
		<tag k="fixme" v="consider place=hamlet" />
		<tag k="name" v="Kannikksteigen" />
		<tag k="place" v="farm" />
		<tag k="ssr:stedsnr" v="392410" />
	</node>
	<node id="-516668" lat="60.9587416701" lon="7.48223054931">
		<tag k="name" v="Gjetarhyttene" />
		<tag k="place" v="locality" />
		<tag k="ssr:stedsnr" v="493468" />
	</node>
	<node id="-516115" lat="60.9036916698" lon="7.19700556447">
		<tag k="amenity" v="sports_centre" />
		<tag k="name" v="Hopen" />
		<tag k="ssr:stedsnr" v="130053" />
	</node>
	<node id="-516440" lat="60.9723645917" lon="7.06148295722">
		<tag k="fixme" v="consider place=hamlet" />
		<tag k="name" v="Stigen" />
		<tag k="place" v="farm" />
		<tag k="ssr:stedsnr" v="251258" />
	</node>
	<node id="-515596" lat="60.9633499975" lon="7.20728056161">
		<tag k="historic" v="shieling" />
		<tag k="name" v="Nystølen" />
		<tag k="place" v="locality" />
		<tag k="ssr:stedsnr" v="372244" />
	</node>
	<node id="-515595" lat="60.9660111114" lon="7.20698332751">
		<tag k="alt_name" v="Øyestølen, heimste;Heimste øystølen" />
		<tag k="historic" v="shieling" />
		<tag k="name" v="Heimste Øyestølen" />
		<tag k="place" v="locality" />
		<tag k="ssr:stedsnr" v="372241" />
	</node>
	<node id="-517629" lat="60.9731638897" lon="7.05982221764">
		<tag k="name" v="Øvste Stigen" />
		<tag k="place" v="farm" />
		<tag k="ssr:stedsnr" v="818115" />
	</node>
	<node id="-517127" lat="60.8855611088" lon="7.31261667201">
		<tag k="historic" v="shieling" />
		<tag k="name" v="Øyaselet" />
		<tag k="place" v="locality" />
		<tag k="ssr:stedsnr" v="635757" />
	</node>
	<node id="-516456" lat="60.865141667" lon="7.360386102">
		<tag k="name" v="Øygarden" />
		<tag k="place" v="locality" />
		<tag k="ssr:stedsnr" v="251367" />
	</node>
	<node id="-516612" lat="60.9614444437" lon="7.20351110448">
		<tag k="historic" v="shieling" />
		<tag k="name" v="Bjørkehaug" />
		<tag k="place" v="locality" />
		<tag k="ssr:stedsnr" v="453935" />
	</node>
	<node id="-515587" lat="60.9124372252" lon="7.19348313065">
		<tag k="fixme" v="consider place=hamlet" />
		<tag k="name" v="Vinjane" />
		<tag k="place" v="farm" />
		<tag k="ssr:stedsnr" v="372184" />
	</node>
	<node id="-515586" lat="60.9370777769" lon="7.14517222831">
		<tag k="name" v="Kamben" />
		<tag k="place" v="locality" />
		<tag k="ssr:stedsnr" v="372156" />
	</node>
	<node id="-515585" lat="60.9273000025" lon="7.14926388725">
		<tag k="alt_name" v="Kvamsteigane" />
		<tag k="name" v="Kvamsteigen" />
		<tag k="place" v="locality" />
		<tag k="ssr:stedsnr" v="372148" />
	</node>
</osm>
