<?xml version="1.0" encoding="UTF-8"?>
<osm generator="osmapis" version="0.6">
	<node id="-516092" lat="60.9476555591" lon="7.08303332662">
		<tag k="name" v="Tverrelvi" />
		<tag k="ssr:stedsnr" v="129154" />
		<tag k="waterway" v="stream" />
	</node>
	<node id="-516091" lat="60.9456722509" lon="7.11746061641">
		<tag k="alt_name" v="Hjøllagrovi" />
		<tag k="name" v="Hjøllateiggrovi" />
		<tag k="ssr:stedsnr" v="129153" />
		<tag k="waterway" v="stream" />
	</node>
	<node id="-516085" lat="60.8644850613" lon="7.27794193933">
		<tag k="name" v="Vassbygdevatnet" />
		<tag k="natural" v="water" />
		<tag k="ssr:stedsnr" v="129137" />
		<tag k="water" v="lake" />
	</node>
	<node id="-516081" lat="60.8268499959" lon="7.26975833489">
		<tag k="name" v="Låvidammen" />
		<tag k="ssr:stedsnr" v="129034" />
		<tag k="waterway" v="dam" />
	</node>
	<node id="-516080" lat="60.8398944454" lon="6.98938332413">
		<tag k="name" v="Hestbakkvotni" />
		<tag k="natural" v="water" />
		<tag k="ssr:stedsnr" v="129023" />
	</node>
	<node id="-516066" lat="60.9030722228" lon="6.87967499144">
		<tag k="name" v="Systrane" />
		<tag k="ssr:stedsnr" v="115114" />
		<tag k="waterway" v="stream" />
	</node>
	<node id="-516061" lat="60.8748305575" lon="7.01853611006">
		<tag k="name" v="Fjellmannsskorfossen" />
		<tag k="natural" v="waterfall" />
		<tag k="ssr:stedsnr" v="90832" />
	</node>
	<node id="-516060" lat="60.8760277788" lon="7.33197777597">
		<tag k="name" v="Øyregrovi" />
		<tag k="ssr:stedsnr" v="90485" />
		<tag k="waterway" v="stream" />
	</node>
	<node id="-516057" lat="60.8315833342" lon="7.27453056377">
		<tag k="name" v="Svartahølen" />
		<tag k="place" v="locality" />
		<tag k="ssr:stedsnr" v="90428" />
	</node>
	<node id="-516055" lat="60.8605138881" lon="7.27427221445">
		<tag k="name" v="Råkagrovi" />
		<tag k="ssr:stedsnr" v="90378" />
		<tag k="waterway" v="stream" />
	</node>
	<node id="-516053" lat="60.8214444489" lon="7.3489916747">
		<tag k="name" v="Reppaelvi" />
		<tag k="ssr:stedsnr" v="90328" />
		<tag k="waterway" v="stream" />
	</node>
	<node id="-516050" lat="60.8900083306" lon="7.33132221547">
		<tag k="name" v="Bjønnskorgrovi" />
		<tag k="ssr:stedsnr" v="90267" />
		<tag k="waterway" v="stream" />
	</node>
	<node id="-516047" lat="60.8651444414" lon="7.41026945139">
		<tag k="name" v="Strøkjagrovi" />
		<tag k="ssr:stedsnr" v="90171" />
		<tag k="waterway" v="stream" />
	</node>
	<node id="-516103" lat="60.8291027801" lon="7.41693610319">
		<tag k="name" v="Sangligrovi" />
		<tag k="ssr:stedsnr" v="129354" />
		<tag k="waterway" v="stream" />
	</node>
	<node id="-516031" lat="60.8545944451" lon="6.7723222133">
		<tag k="name" v="Sæbelhaggrovi" />
		<tag k="ssr:stedsnr" v="89920" />
		<tag k="waterway" v="stream" />
	</node>
	<node id="-516023" lat="60.9116111156" lon="7.14465278472">
		<tag k="name" v="Vetlaflugande" />
		<tag k="ssr:stedsnr" v="89818" />
		<tag k="waterway" v="stream" />
	</node>
	<node id="-516019" lat="60.9571888904" lon="6.82422500652">
		<tag k="name" v="Kolsetelvi" />
		<tag k="ssr:stedsnr" v="89654" />
		<tag k="waterway" v="river" />
	</node>
	<node id="-516017" lat="60.822983329" lon="7.07412221992">
		<tag k="name" v="Vidalselvi" />
		<tag k="ssr:stedsnr" v="89626" />
		<tag k="waterway" v="stream" />
	</node>
	<node id="-516007" lat="60.7483777777" lon="7.1485388886">
		<tag k="name" v="Grovadøla" />
		<tag k="ssr:stedsnr" v="89516" />
		<tag k="waterway" v="stream" />
	</node>
	<node id="-516005" lat="60.8875694413" lon="6.83836945238">
		<tag k="name" v="Vetlaskreda" />
		<tag k="ssr:stedsnr" v="89473" />
		<tag k="waterway" v="stream" />
	</node>
	<node id="-516002" lat="60.8454388888" lon="7.34786666303">
		<tag k="name" v="Sladdøyane" />
		<tag k="natural" v="cape" />
		<tag k="ssr:stedsnr" v="89398" />
	</node>
	<node id="-515739" lat="61.0325777802" lon="7.0503305572">
		<tag k="name" v="Breisnesskreda" />
		<tag k="ssr:stedsnr" v="269154" />
		<tag k="waterway" v="stream" />
	</node>
	<node id="-515738" lat="61.0158111068" lon="7.02360000252">
		<tag k="name" v="Inste Aksnesgrovi" />
		<tag k="ssr:stedsnr" v="269146" />
		<tag k="waterway" v="stream" />
	</node>
	<node id="-515982" lat="60.8904166667" lon="6.86811388217">
		<tag k="name" v="Løskredgrovi" />
		<tag k="ssr:stedsnr" v="88487" />
		<tag k="waterway" v="stream" />
	</node>
	<node id="-515977" lat="60.9526944426" lon="7.50743054979">
		<tag k="name" v="Bukkaholmvatnet" />
		<tag k="natural" v="water" />
		<tag k="ssr:stedsnr" v="85312" />
		<tag k="water" v="lake" />
	</node>
	<node id="-515734" lat="60.9178444408" lon="7.24276110922">
		<tag k="name" v="Kvammadalselvi" />
		<tag k="ssr:stedsnr" v="393765" />
		<tag k="waterway" v="river" />
	</node>
	<node id="-515969" lat="60.9796500003" lon="6.86120833824">
		<tag k="name" v="Styvisdalselvi" />
		<tag k="ssr:stedsnr" v="69930" />
		<tag k="waterway" v="stream" />
	</node>
	<node id="-515961" lat="60.7649027754" lon="6.989527785">
		<tag k="name" v="Hestabotnvatnet" />
		<tag k="natural" v="water" />
		<tag k="ssr:stedsnr" v="69489" />
	</node>
	<node id="-515959" lat="60.9017138914" lon="7.34905000289">
		<tag k="alt_name" v="Furudøla" />
		<tag k="name" v="Furedøla" />
		<tag k="ssr:stedsnr" v="69466" />
		<tag k="waterway" v="river" />
	</node>
	<node id="-515957" lat="60.9423083304" lon="7.52646110727">
		<tag k="name" v="Ljosegrunnseggvatnet" />
		<tag k="natural" v="water" />
		<tag k="ssr:stedsnr" v="69412" />
	</node>
	<node id="-515952" lat="60.8750749975" lon="7.39364167107">
		<tag k="name" v="Ilaget" />
		<tag k="ssr:stedsnr" v="69350" />
		<tag k="waterway" v="stream" />
	</node>
	<node id="-515946" lat="60.8179861147" lon="7.47976667497">
		<tag k="name" v="Bjørnsgrovi" />
		<tag k="ssr:stedsnr" v="69296" />
		<tag k="waterway" v="stream" />
	</node>
	<node id="-517985" lat="60.857519441" lon="7.10699999537">
		<tag k="name" v="Bruahølen" />
		<tag k="place" v="locality" />
		<tag k="ssr:stedsnr" v="939961" />
	</node>
	<node id="-517981" lat="60.955252781" lon="7.20452499977">
		<tag k="name" v="Leimsdøla" />
		<tag k="ssr:stedsnr" v="939939" />
		<tag k="waterway" v="river" />
	</node>
	<node id="-517980" lat="60.8625305563" lon="6.75998611519">
		<tag k="name" v="Husanovgrovi" />
		<tag k="ssr:stedsnr" v="939934" />
		<tag k="waterway" v="stream" />
	</node>
	<node id="-517978" lat="60.8577333376" lon="6.76933610251">
		<tag k="name" v="Fanten" />
		<tag k="natural" v="cape" />
		<tag k="ssr:stedsnr" v="939919" />
	</node>
	<node id="-517977" lat="60.9560388859" lon="7.1792833379">
		<tag k="name" v="Seljeskredene" />
		<tag k="ssr:stedsnr" v="939904" />
		<tag k="waterway" v="stream" />
	</node>
	<node id="-517975" lat="60.8574777766" lon="7.09137778157">
		<tag k="name" v="Fremste Kjeppagrovi" />
		<tag k="ssr:stedsnr" v="939880" />
		<tag k="waterway" v="stream" />
	</node>
	<node id="-517974" lat="60.9708749993" lon="6.9796694379">
		<tag k="name" v="Svamsgyldre" />
		<tag k="ssr:stedsnr" v="939871" />
		<tag k="waterway" v="stream" />
	</node>
	<node id="-515915" lat="60.9538361099" lon="7.40053055794">
		<tag k="name" v="Grønebergvatnet" />
		<tag k="natural" v="water" />
		<tag k="ssr:stedsnr" v="69511" />
	</node>
	<node id="-515911" lat="60.7341666882" lon="7.49641090845">
		<tag k="name" v="Svartavatnet" />
		<tag k="natural" v="water" />
		<tag k="ssr:stedsnr" v="68885" />
		<tag k="water" v="lake" />
	</node>
	<node id="-515907" lat="60.7068250009" lon="7.49394999363">
		<tag k="name" v="Stora Vargevatnet" />
		<tag k="natural" v="water" />
		<tag k="ssr:stedsnr" v="67235" />
		<tag k="water" v="lake" />
	</node>
	<node id="-517953" lat="60.8768611088" lon="7.15959721446">
		<tag k="name" v="Sevåtsgrovi" />
		<tag k="ssr:stedsnr" v="939550" />
		<tag k="waterway" v="stream" />
	</node>
	<node id="-515903" lat="60.894705553" lon="7.13525000152">
		<tag k="name" v="Kongsteigsgrovi" />
		<tag k="ssr:stedsnr" v="29982" />
		<tag k="waterway" v="stream" />
	</node>
	<node id="-515898" lat="60.950191663" lon="7.19694167609">
		<tag k="name" v="Lauvåna" />
		<tag k="ssr:stedsnr" v="29906" />
		<tag k="waterway" v="stream" />
	</node>
	<node id="-517939" lat="60.8540194456" lon="7.36090833013">
		<tag k="name" v="Allmenningane" />
		<tag k="ssr:stedsnr" v="939402" />
		<tag k="waterway" v="stream" />
	</node>
	<node id="-517938" lat="60.868186112" lon="6.84074721856">
		<tag k="name" v="Fremste Kvitabergsgrovi" />
		<tag k="ssr:stedsnr" v="939371" />
		<tag k="waterway" v="stream" />
	</node>
	<node id="-517936" lat="60.8761055518" lon="6.8370583292">
		<tag k="name" v="Nepegjerdsøy" />
		<tag k="place" v="island" />
		<tag k="ssr:stedsnr" v="939369" />
	</node>
	<node id="-517931" lat="60.8988777733" lon="7.37031388259">
		<tag k="name" v="Leitegrovi" />
		<tag k="ssr:stedsnr" v="939291" />
		<tag k="waterway" v="stream" />
	</node>
	<node id="-515882" lat="60.766877778" lon="7.09868888022">
		<tag k="name" v="Kvennhusøyna" />
		<tag k="place" v="island" />
		<tag k="ssr:stedsnr" v="29533" />
	</node>
	<node id="-517929" lat="60.8954277807" lon="7.36503332687">
		<tag k="name" v="Stronkefossen" />
		<tag k="natural" v="waterfall" />
		<tag k="ssr:stedsnr" v="939287" />
	</node>
	<node id="-515880" lat="60.8239499986" lon="7.50198332632">
		<tag k="name" v="Venasetgrovi" />
		<tag k="ssr:stedsnr" v="29522" />
		<tag k="waterway" v="stream" />
	</node>
	<node id="-517926" lat="60.8639777736" lon="7.41021944699">
		<tag k="name" v="Halsagrovi" />
		<tag k="ssr:stedsnr" v="939227" />
		<tag k="waterway" v="stream" />
	</node>
	<node id="-515877" lat="60.8445388891" lon="7.30919999115">
		<tag k="name" v="Breiasetgrøvene" />
		<tag k="ssr:stedsnr" v="29425" />
		<tag k="waterway" v="stream" />
	</node>
	<node id="-517922" lat="60.8280111098" lon="7.42526111744">
		<tag k="name" v="Snøjuvsgrovi" />
		<tag k="ssr:stedsnr" v="939178" />
		<tag k="waterway" v="stream" />
	</node>
	<node id="-517918" lat="60.8475305523" lon="7.11471111828">
		<tag k="name" v="Øyna" />
		<tag k="place" v="island" />
		<tag k="ssr:stedsnr" v="939087" />
	</node>
	<node id="-515867" lat="60.8795249966" lon="7.2542805573">
		<tag k="name" v="Saurehølen" />
		<tag k="place" v="locality" />
		<tag k="ssr:stedsnr" v="29075" />
	</node>
	<node id="-517911" lat="60.747386107" lon="7.099505557">
		<tag k="name" v="Uvgjesdøla" />
		<tag k="ssr:stedsnr" v="939004" />
		<tag k="waterway" v="river" />
	</node>
	<node id="-515862" lat="60.8577638873" lon="6.78241945195">
		<tag k="name" v="Svartehølen" />
		<tag k="place" v="locality" />
		<tag k="ssr:stedsnr" v="28982" />
	</node>
	<node id="-515860" lat="60.9663527805" lon="6.94626666636">
		<tag k="name" v="Geitsteggrovi" />
		<tag k="ssr:stedsnr" v="28865" />
		<tag k="waterway" v="stream" />
	</node>
	<node id="-515856" lat="60.9661861084" lon="6.91945278021">
		<tag k="name" v="Sjonarhauggrovi" />
		<tag k="ssr:stedsnr" v="28712" />
		<tag k="waterway" v="stream" />
	</node>
	<node id="-517899" lat="60.8020333291" lon="7.12682222322">
		<tag k="name" v="Tungeelvi" />
		<tag k="ssr:stedsnr" v="931414" />
		<tag k="waterway" v="river" />
	</node>
	<node id="-515848" lat="60.8750305579" lon="6.84161666846">
		<tag k="name" v="Kjelfossgrovi" />
		<tag k="ssr:stedsnr" v="28353" />
		<tag k="waterway" v="stream" />
	</node>
	<node id="-517420" lat="60.7384916695" lon="7.16329166926">
		<tag k="name" v="Kaldaklovfossen" />
		<tag k="natural" v="waterfall" />
		<tag k="ssr:stedsnr" v="756501" />
	</node>
	<node id="-515619" lat="60.9573166707" lon="7.43319166109">
		<tag k="name" v="Norddalsvatnet" />
		<tag k="natural" v="water" />
		<tag k="ssr:stedsnr" v="372502" />
		<tag k="water" v="lake" />
	</node>
	<node id="-515845" lat="60.9248277766" lon="7.21580277765">
		<tag k="name" v="Husaskreddøla" />
		<tag k="ssr:stedsnr" v="28313" />
		<tag k="waterway" v="stream" />
	</node>
	<node id="-515843" lat="60.8606166633" lon="6.80396111714">
		<tag k="name" v="Steinshølen" />
		<tag k="place" v="locality" />
		<tag k="ssr:stedsnr" v="28093" />
	</node>
	<node id="-515842" lat="60.8473666682" lon="7.11748333127">
		<tag k="name" v="Steinshølen" />
		<tag k="place" v="locality" />
		<tag k="ssr:stedsnr" v="28089" />
	</node>
	<node id="-517889" lat="60.9816861108" lon="7.40922499961">
		<tag k="name" v="Tissedalsvatnet" />
		<tag k="natural" v="water" />
		<tag k="ssr:stedsnr" v="919480" />
		<tag k="water" v="lake" />
	</node>
	<node id="-517886" lat="60.7653500004" lon="7.11550000765">
		<tag k="name" v="Kvanntjørnelvi" />
		<tag k="ssr:stedsnr" v="919454" />
		<tag k="waterway" v="stream" />
	</node>
	<node id="-515835" lat="60.8675555598" lon="6.82420278184">
		<tag k="name" v="Hellehølen" />
		<tag k="place" v="locality" />
		<tag k="ssr:stedsnr" v="28238" />
	</node>
	<node id="-515711" lat="60.8521361101" lon="7.10901388621">
		<tag k="name" v="Grindahølen" />
		<tag k="place" v="locality" />
		<tag k="ssr:stedsnr" v="392971" />
	</node>
	<node id="-515831" lat="60.9349055584" lon="6.87400556347">
		<tag k="name" v="Kastagrovi" />
		<tag k="ssr:stedsnr" v="27995" />
		<tag k="waterway" v="stream" />
	</node>
	<node id="-517873" lat="60.8579361106" lon="7.42427777396">
		<tag k="name" v="Aurshovdtjørni" />
		<tag k="natural" v="water" />
		<tag k="ssr:stedsnr" v="919310" />
	</node>
	<node id="-517871" lat="60.785994442" lon="7.43828610897">
		<tag k="name" v="Berdalsvotni" />
		<tag k="natural" v="water" />
		<tag k="ssr:stedsnr" v="919294" />
		<tag k="water" v="lake" />
	</node>
	<node id="-515822" lat="60.943213887" lon="6.93669999252">
		<tag k="name" v="Styviselvi" />
		<tag k="ssr:stedsnr" v="21470" />
		<tag k="waterway" v="stream" />
	</node>
	<node id="-517869" lat="60.7764999955" lon="7.59183610283">
		<tag k="name" v="Tverrelvi" />
		<tag k="ssr:stedsnr" v="919277" />
		<tag k="waterway" v="stream" />
	</node>
	<node id="-515818" lat="60.752711114" lon="7.10639165908">
		<tag k="name" v="Kårdalsfossen" />
		<tag k="natural" v="waterfall" />
		<tag k="ssr:stedsnr" v="21414" />
	</node>
	<node id="-517865" lat="60.8143694475" lon="7.61377222623">
		<tag k="name" v="Finndalselvi" />
		<tag k="ssr:stedsnr" v="919250" />
		<tag k="waterway" v="stream" />
	</node>
	<node id="-517863" lat="60.9601222197" lon="7.00817499187">
		<tag k="name" v="Kappadalsgrovi" />
		<tag k="ssr:stedsnr" v="919235" />
		<tag k="waterway" v="stream" />
	</node>
	<node id="-515811" lat="60.9818194447" lon="7.3468388831">
		<tag k="name" v="Andisa" />
		<tag k="ssr:stedsnr" v="9487" />
		<tag k="waterway" v="stream" />
	</node>
	<node id="-517857" lat="60.9888277773" lon="7.02048333439">
		<tag k="name" v="Skomakargrovi" />
		<tag k="ssr:stedsnr" v="919192" />
		<tag k="waterway" v="stream" />
	</node>
	<node id="-517856" lat="60.9839277742" lon="7.00073333838">
		<tag k="name" v="Sagelvi" />
		<tag k="ssr:stedsnr" v="919185" />
		<tag k="waterway" v="stream" />
	</node>
	<node id="-515807" lat="60.9092833355" lon="7.4208166668">
		<tag k="name" v="Kjel" />
		<tag k="ssr:stedsnr" v="9416" />
		<tag k="waterway" v="stream" />
	</node>
	<node id="-517854" lat="60.9262194428" lon="7.32470277659">
		<tag k="name" v="Storagrovvatnet" />
		<tag k="natural" v="water" />
		<tag k="ssr:stedsnr" v="919168" />
	</node>
	<node id="-515802" lat="60.874827774" lon="7.41785833262">
		<tag k="name" v="Grovselvi" />
		<tag k="ssr:stedsnr" v="9310" />
		<tag k="waterway" v="stream" />
	</node>
	<node id="-515795" lat="60.769408332" lon="7.57918889795">
		<tag k="name" v="Stemmerdøla" />
		<tag k="ssr:stedsnr" v="9255" />
		<tag k="waterway" v="river" />
	</node>
	<node id="-517842" lat="60.9345615267" lon="7.47846327236">
		<tag k="name" v="Vetlemelavatnet" />
		<tag k="natural" v="water" />
		<tag k="ssr:stedsnr" v="918445" />
		<tag k="water" v="lake" />
	</node>
	<node id="-515792" lat="60.8163750016" lon="7.49572500766">
		<tag k="name" v="Nonsgrovi" />
		<tag k="ssr:stedsnr" v="9243" />
		<tag k="waterway" v="stream" />
	</node>
	<node id="-517836" lat="60.9401388885" lon="7.21508333745">
		<tag k="name" v="Volda" />
		<tag k="ssr:stedsnr" v="918160" />
		<tag k="waterway" v="stream" />
	</node>
	<node id="-515779" lat="60.8529388868" lon="6.80427222124">
		<tag k="name" v="Hallinggrovi" />
		<tag k="ssr:stedsnr" v="8814" />
		<tag k="waterway" v="stream" />
	</node>
	<node id="-517824" lat="60.8248555553" lon="7.10724999553">
		<tag k="name" v="Rjoandefossen" />
		<tag k="natural" v="waterfall" />
		<tag k="ssr:stedsnr" v="918039" />
	</node>
	<node id="-517822" lat="60.8506972265" lon="7.08034165901">
		<tag k="name" v="Ljosdøla" />
		<tag k="ssr:stedsnr" v="918006" />
		<tag k="waterway" v="stream" />
	</node>
	<node id="-517820" lat="60.7381000029" lon="7.68054999577">
		<tag k="name" v="Jutulvatnet" />
		<tag k="natural" v="water" />
		<tag k="ssr:stedsnr" v="917184" />
		<tag k="water" v="lake" />
	</node>
	<node id="-517819" lat="60.7453499966" lon="7.42627499752">
		<tag k="alt_name" v="Mellomvatnet, øvre" />
		<tag k="name" v="Øvre Mellomvatnet" />
		<tag k="natural" v="water" />
		<tag k="ssr:stedsnr" v="917180" />
		<tag k="water" v="lake" />
	</node>
	<node id="-515770" lat="60.8625749989" lon="7.63163055738">
		<tag k="alt_name" v="Liavatnet, store" />
		<tag k="name" v="Store Liavatnet" />
		<tag k="natural" v="water" />
		<tag k="ssr:stedsnr" v="8346" />
		<tag k="water" v="lake" />
	</node>
	<node id="-517817" lat="60.7023900448" lon="7.15286051932">
		<tag k="name" v="Paulvatni" />
		<tag k="natural" v="water" />
		<tag k="ssr:stedsnr" v="917099" />
		<tag k="water" v="lake" />
	</node>
	<node id="-515765" lat="60.9276777769" lon="7.26613610512">
		<tag k="name" v="Koldsa" />
		<tag k="ssr:stedsnr" v="8178" />
		<tag k="waterway" v="stream" />
	</node>
	<node id="-515760" lat="60.8657055581" lon="7.18172500692">
		<tag k="name" v="Vardaskreda" />
		<tag k="ssr:stedsnr" v="8122" />
		<tag k="waterway" v="stream" />
	</node>
	<node id="-515758" lat="60.8934833341" lon="7.12246944855">
		<tag k="name" v="Kongsteiggrovi" />
		<tag k="ssr:stedsnr" v="8081" />
		<tag k="waterway" v="stream" />
	</node>
	<node id="-517805" lat="60.8556500012" lon="6.81092778399">
		<tag k="name" v="Vetlefossen" />
		<tag k="natural" v="waterfall" />
		<tag k="ssr:stedsnr" v="878933" />
	</node>
	<node id="-515756" lat="60.7898666673" lon="7.12703055666">
		<tag k="name" v="Tunnshelloelvi" />
		<tag k="ssr:stedsnr" v="8066" />
		<tag k="waterway" v="stream" />
	</node>
	<node id="-515753" lat="60.7310121985" lon="7.56853750446">
		<tag k="name" v="Vestredalsvatnet" />
		<tag k="natural" v="water" />
		<tag k="ssr:stedsnr" v="7242" />
		<tag k="water" v="lake" />
	</node>
	<node id="-515752" lat="60.7308999976" lon="7.37792500428">
		<tag k="name" v="Hednedalsvatnet" />
		<tag k="natural" v="water" />
		<tag k="ssr:stedsnr" v="7236" />
		<tag k="water" v="lake" />
	</node>
	<node id="-515748" lat="60.7474388862" lon="7.2437250003">
		<tag k="name" v="Eitra" />
		<tag k="ssr:stedsnr" v="6013" />
		<tag k="waterway" v="stream" />
	</node>
	<node id="-517795" lat="60.9400694447" lon="7.13713889532">
		<tag k="name" v="Søstragrovi" />
		<tag k="ssr:stedsnr" v="878842" />
		<tag k="waterway" v="stream" />
	</node>
	<node id="-517794" lat="60.903152825" lon="7.30485725957">
		<tag k="name" v="Hestavatnet" />
		<tag k="natural" v="water" />
		<tag k="ssr:stedsnr" v="878801" />
		<tag k="water" v="lake" />
	</node>
	<node id="-517744" lat="60.8613388919" lon="6.78850000347">
		<tag k="name" v="Storagrovi" />
		<tag k="ssr:stedsnr" v="878137" />
		<tag k="waterway" v="stream" />
	</node>
	<node id="-517402" lat="61.0442944415" lon="7.04133055766">
		<tag k="name" v="Lekjagjelsgrovi" />
		<tag k="ssr:stedsnr" v="754184" />
		<tag k="waterway" v="stream" />
	</node>
	<node id="-517786" lat="60.8675888888" lon="7.10491945205">
		<tag k="name" v="Harajuva" />
		<tag k="ssr:stedsnr" v="878634" />
		<tag k="waterway" v="stream" />
	</node>
	<node id="-517782" lat="60.9671305571" lon="7.06990556084">
		<tag k="name" v="Koldegrypjo" />
		<tag k="ssr:stedsnr" v="878614" />
		<tag k="waterway" v="stream" />
	</node>
	<node id="-515733" lat="60.9712666641" lon="6.93593334182">
		<tag k="name" v="Stokkagrovi" />
		<tag k="ssr:stedsnr" v="393761" />
		<tag k="waterway" v="stream" />
	</node>
	<node id="-517779" lat="60.9370083314" lon="7.09722500037">
		<tag k="name" v="Nyskreda" />
		<tag k="ssr:stedsnr" v="878592" />
		<tag k="waterway" v="stream" />
	</node>
	<node id="-515730" lat="60.8671916645" lon="7.38053332466">
		<tag k="name" v="Ospedelsgrovi" />
		<tag k="ssr:stedsnr" v="393472" />
		<tag k="waterway" v="stream" />
	</node>
	<node id="-517776" lat="60.7418222222" lon="7.14228333014">
		<tag k="name" v="Løken" />
		<tag k="natural" v="bay" />
		<tag k="ssr:stedsnr" v="878564" />
	</node>
	<node id="-515726" lat="60.859130553" lon="7.27940834025">
		<tag k="name" v="Fossen" />
		<tag k="natural" v="waterfall" />
		<tag k="ssr:stedsnr" v="393391" />
	</node>
	<node id="-515722" lat="60.8653249982" lon="7.40311666196">
		<tag k="name" v="Rennerstrøki" />
		<tag k="ssr:stedsnr" v="393210" />
		<tag k="waterway" v="rapids" />
	</node>
	<node id="-517769" lat="60.8527666686" lon="7.34269722386">
		<tag k="name" v="Alkjosgrovi" />
		<tag k="ssr:stedsnr" v="878442" />
		<tag k="waterway" v="stream" />
	</node>
	<node id="-515719" lat="60.9003583325" lon="7.22021944081">
		<tag k="name" v="Fossadrevet" />
		<tag k="natural" v="waterfall" />
		<tag k="ssr:stedsnr" v="393177" />
	</node>
	<node id="-515717" lat="60.8803444476" lon="7.22529167121">
		<tag k="name" v="Holtagrovi" />
		<tag k="ssr:stedsnr" v="393130" />
		<tag k="waterway" v="stream" />
	</node>
	<node id="-515714" lat="60.8692999981" lon="7.31326389295">
		<tag k="name" v="Selhagalandet" />
		<tag k="natural" v="cape" />
		<tag k="ssr:stedsnr" v="393016" />
	</node>
	<node id="-517760" lat="60.825063891" lon="7.4910416606">
		<tag k="name" v="Vikavestsida" />
		<tag k="natural" v="beach" />
		<tag k="ssr:stedsnr" v="878320" />
	</node>
	<node id="-517759" lat="60.9337972195" lon="7.07096666107">
		<tag k="name" v="Tvenningagrovi" />
		<tag k="ssr:stedsnr" v="878312" />
		<tag k="waterway" v="stream" />
	</node>
	<node id="-515710" lat="60.8585138849" lon="6.78444166065">
		<tag k="name" v="Øy-hølen" />
		<tag k="place" v="locality" />
		<tag k="ssr:stedsnr" v="392970" />
	</node>
	<node id="-515709" lat="60.8589777785" lon="6.79194166902">
		<tag k="name" v="Bruhølen" />
		<tag k="place" v="locality" />
		<tag k="ssr:stedsnr" v="392967" />
	</node>
	<node id="-515697" lat="60.9680305595" lon="6.95584166117">
		<tag k="name" v="Djupahabngrovi" />
		<tag k="ssr:stedsnr" v="392857" />
		<tag k="waterway" v="stream" />
	</node>
	<node id="-515696" lat="60.9738527806" lon="6.88895000671">
		<tag k="name" v="Robbagrøvene" />
		<tag k="ssr:stedsnr" v="392760" />
		<tag k="waterway" v="stream" />
	</node>
	<node id="-515692" lat="60.960436114" lon="6.85965554619">
		<tag k="name" v="Middagsgrovi" />
		<tag k="ssr:stedsnr" v="392699" />
		<tag k="waterway" v="stream" />
	</node>
	<node id="-517736" lat="60.9441972179" lon="6.91232500281">
		<tag k="name" v="Stavvikgrovi" />
		<tag k="ssr:stedsnr" v="877504" />
		<tag k="waterway" v="stream" />
	</node>
	<node id="-517734" lat="61.0238722181" lon="7.06735278211">
		<tag k="name" v="Norheimsdøla" />
		<tag k="ssr:stedsnr" v="877322" />
		<tag k="waterway" v="river" />
	</node>
	<node id="-517732" lat="60.9601413389" lon="7.46191648612">
		<tag k="name" v="Toddivatnet" />
		<tag k="natural" v="water" />
		<tag k="ssr:stedsnr" v="875611" />
		<tag k="water" v="lake" />
	</node>
	<node id="-515683" lat="60.767880559" lon="7.10149444568">
		<tag k="name" v="Øygarden" />
		<tag k="natural" v="cape" />
		<tag k="ssr:stedsnr" v="392592" />
	</node>
	<node id="-515682" lat="60.938813885" lon="7.09824444907">
		<tag k="name" v="Nautabrønnsgrovi" />
		<tag k="ssr:stedsnr" v="392588" />
		<tag k="waterway" v="stream" />
	</node>
	<node id="-515680" lat="60.7346833299" lon="7.15590000648">
		<tag k="name" v="Setregrovi" />
		<tag k="ssr:stedsnr" v="392535" />
		<tag k="waterway" v="stream" />
	</node>
	<node id="-515678" lat="60.8946361104" lon="7.1923944381">
		<tag k="name" v="Fremre vasstaket" />
		<tag k="place" v="locality" />
		<tag k="ssr:stedsnr" v="392505" />
	</node>
	<node id="-517722" lat="61.0173805571" lon="7.12444166427">
		<tag k="name" v="Leitesgrovi" />
		<tag k="ssr:stedsnr" v="859362" />
		<tag k="waterway" v="stream" />
	</node>
	<node id="-515672" lat="60.8691055598" lon="6.85251387996">
		<tag k="name" v="Middagsgrovi" />
		<tag k="ssr:stedsnr" v="392369" />
		<tag k="waterway" v="stream" />
	</node>
	<node id="-515670" lat="60.9182111151" lon="7.06571389216">
		<tag k="name" v="Bjønnaskreda" />
		<tag k="ssr:stedsnr" v="392300" />
		<tag k="waterway" v="stream" />
	</node>
	<node id="-515669" lat="60.9238222196" lon="7.07171666857">
		<tag k="name" v="Fløytagrovi" />
		<tag k="ssr:stedsnr" v="392301" />
		<tag k="waterway" v="river" />
	</node>
	<node id="-517716" lat="60.8741446193" lon="6.85704456559">
		<tag k="name" v="Kjelfossen" />
		<tag k="natural" v="waterfall" />
		<tag k="ssr:stedsnr" v="858838" />
	</node>
	<node id="-517712" lat="60.9737499959" lon="7.35254166182">
		<tag k="name" v="Flyvotni" />
		<tag k="natural" v="water" />
		<tag k="ssr:stedsnr" v="858507" />
	</node>
	<node id="-515663" lat="60.9813444467" lon="7.1169472163">
		<tag k="name" v="Trollaholtgrovi" />
		<tag k="ssr:stedsnr" v="392078" />
		<tag k="waterway" v="stream" />
	</node>
	<node id="-517710" lat="60.7852638901" lon="7.08778611615">
		<tag k="name" v="Vetlareppa" />
		<tag k="ssr:stedsnr" v="858484" />
		<tag k="waterway" v="river" />
	</node>
	<node id="-515659" lat="60.9319944408" lon="6.86568610941">
		<tag k="name" v="Kjødnesgrovi" />
		<tag k="ssr:stedsnr" v="392000" />
		<tag k="waterway" v="stream" />
	</node>
	<node id="-517706" lat="60.935113892" lon="7.44502499864">
		<tag k="name" v="Kvanngrøvatnet" />
		<tag k="natural" v="water" />
		<tag k="ssr:stedsnr" v="858406" />
	</node>
	<node id="-515657" lat="60.8949888895" lon="6.87351666267">
		<tag k="name" v="Nobbagrovi" />
		<tag k="ssr:stedsnr" v="391679" />
		<tag k="waterway" v="stream" />
	</node>
	<node id="-517704" lat="60.8534305583" lon="7.49902776848">
		<tag k="name" v="Tverrelvi" />
		<tag k="ssr:stedsnr" v="858367" />
		<tag k="waterway" v="stream" />
	</node>
	<node id="-517701" lat="60.8714527777" lon="7.53446388125">
		<tag k="name" v="Austevad" />
		<tag k="place" v="locality" />
		<tag k="ssr:stedsnr" v="858349" />
	</node>
	<node id="-517698" lat="60.7833388928" lon="7.49503333955">
		<tag k="name" v="Storavatnet" />
		<tag k="natural" v="water" />
		<tag k="ssr:stedsnr" v="858320" />
	</node>
	<node id="-517695" lat="60.7649994192" lon="7.70073253397">
		<tag k="name" v="Langavatnet" />
		<tag k="natural" v="water" />
		<tag k="ssr:stedsnr" v="858307" />
		<tag k="water" v="lake" />
	</node>
	<node id="-517691" lat="60.8129333295" lon="7.5235888926">
		<tag k="alt_name" v="Botnagrovi" />
		<tag k="name" v="Botnaelvi" />
		<tag k="ssr:stedsnr" v="858286" />
		<tag k="waterway" v="stream" />
	</node>
	<node id="-517690" lat="60.8086305599" lon="7.67223611484">
		<tag k="name" v="Nyhellervatnet" />
		<tag k="natural" v="water" />
		<tag k="ssr:stedsnr" v="858267" />
		<tag k="water" v="lake" />
	</node>
	<node id="-517689" lat="60.7997750023" lon="7.52416666128">
		<tag k="name" v="Langavotni" />
		<tag k="natural" v="water" />
		<tag k="ssr:stedsnr" v="858262" />
		<tag k="water" v="lake" />
	</node>
	<node id="-515638" lat="60.8737250012" lon="7.45471665966">
		<tag k="name" v="Veiverdalsvotni" />
		<tag k="natural" v="water" />
		<tag k="ssr:stedsnr" v="373324" />
		<tag k="water" v="lake" />
	</node>
	<node id="-515635" lat="60.8588888896" lon="7.44245277371">
		<tag k="name" v="Sprenetjørnane" />
		<tag k="natural" v="water" />
		<tag k="ssr:stedsnr" v="373300" />
	</node>
	<node id="-517726" lat="60.9794749992" lon="6.917694439">
		<tag k="name" v="Håbruelvi" />
		<tag k="ssr:stedsnr" v="870451" />
		<tag k="waterway" v="stream" />
	</node>
	<node id="-515631" lat="60.9971416701" lon="6.86160555378">
		<tag k="name" v="Handadalselvi" />
		<tag k="ssr:stedsnr" v="372935" />
		<tag k="waterway" v="stream" />
	</node>
	<node id="-515629" lat="60.9714527765" lon="6.93039166284">
		<tag k="name" v="Halvfjerdingsgrovi" />
		<tag k="ssr:stedsnr" v="372917" />
		<tag k="waterway" v="stream" />
	</node>
	<node id="-517676" lat="60.8765527803" lon="7.00013889578">
		<tag k="name" v="Undredalsmovotni" />
		<tag k="natural" v="water" />
		<tag k="ssr:stedsnr" v="858096" />
		<tag k="water" v="lake" />
	</node>
	<node id="-517383" lat="61.0262444466" lon="7.00560278144">
		<tag k="alt_name" v="Favnagrovi" />
		<tag k="name" v="Famnagrovi" />
		<tag k="ssr:stedsnr" v="737379" />
		<tag k="waterway" v="stream" />
	</node>
	<node id="-515621" lat="60.8357666696" lon="6.94629166866">
		<tag k="name" v="Raudeggvatnet" />
		<tag k="natural" v="water" />
		<tag k="ssr:stedsnr" v="372806" />
	</node>
	<node id="-515334" lat="60.976497223" lon="7.10795556397">
		<tag k="name" v="Storekatlagrovi" />
		<tag k="ssr:stedsnr" v="271855" />
		<tag k="waterway" v="stream" />
	</node>
	<node id="-515617" lat="60.7890416622" lon="7.19944721814">
		<tag k="name" v="Kaldavatnet" />
		<tag k="natural" v="water" />
		<tag k="ssr:stedsnr" v="372479" />
	</node>
	<node id="-515616" lat="60.7677666661" lon="7.08713888728">
		<tag k="name" v="Trolla" />
		<tag k="ssr:stedsnr" v="372473" />
		<tag k="waterway" v="stream" />
	</node>
	<node id="-517662" lat="60.7348555582" lon="7.17710555771">
		<tag k="name" v="Seltuftvatnet" />
		<tag k="natural" v="water" />
		<tag k="old_name" v="Saltuftvatnet" />
		<tag k="ssr:stedsnr" v="856115" />
		<tag k="water" v="lake" />
	</node>
	<node id="-517661" lat="60.726732702" lon="7.06658965967">
		<tag k="name" v="Geitavatnet" />
		<tag k="natural" v="water" />
		<tag k="ssr:stedsnr" v="856005" />
	</node>
	<node id="-517660" lat="60.7325599667" lon="7.03736339147">
		<tag k="name" v="Jernhusvatnet" />
		<tag k="natural" v="water" />
		<tag k="ssr:stedsnr" v="856002" />
	</node>
	<node id="-515611" lat="60.9187250009" lon="7.49918889172">
		<tag k="name" v="Melavotni" />
		<tag k="natural" v="water" />
		<tag k="ssr:stedsnr" v="372397" />
		<tag k="water" v="lake" />
	</node>
	<node id="-515609" lat="60.8506111094" lon="7.56851389297">
		<tag k="name" v="Sleipåvotni" />
		<tag k="natural" v="water" />
		<tag k="ssr:stedsnr" v="372384" />
		<tag k="water" v="lake" />
	</node>
	<node id="-515605" lat="60.8300749986" lon="7.52559721524">
		<tag k="name" v="Skaimsdalsgrovi" />
		<tag k="ssr:stedsnr" v="372374" />
		<tag k="waterway" v="stream" />
	</node>
	<node id="-517652" lat="60.8861638864" lon="7.1291222313">
		<tag k="alt_name" v="Frondalselvi" />
		<tag k="name" v="Frondøla" />
		<tag k="ssr:stedsnr" v="818978" />
		<tag k="waterway" v="river" />
	</node>
	<node id="-515602" lat="60.802588891" lon="7.58039999138">
		<tag k="name" v="Øyestølgrovi" />
		<tag k="ssr:stedsnr" v="372280" />
		<tag k="waterway" v="stream" />
	</node>
	<node id="-517648" lat="60.8011999998" lon="7.10792499445">
		<tag k="name" v="Geithusgrovi" />
		<tag k="ssr:stedsnr" v="818626" />
		<tag k="waterway" v="stream" />
	</node>
	<node id="-515599" lat="60.9634999993" lon="7.01241667439">
		<tag k="name" v="Hovsgrøvene" />
		<tag k="ssr:stedsnr" v="372254" />
		<tag k="waterway" v="stream" />
	</node>
	<node id="-515598" lat="60.9730083377" lon="7.33068610294">
		<tag k="name" v="Andisvatnet" />
		<tag k="natural" v="water" />
		<tag k="ssr:stedsnr" v="372251" />
	</node>
	<node id="-515591" lat="60.9946638882" lon="7.08521111083">
		<tag k="name" v="Kotningen" />
		<tag k="ssr:stedsnr" v="372217" />
		<tag k="waterway" v="stream" />
	</node>
	<node id="-517637" lat="60.8341888862" lon="7.47786110917">
		<tag k="name" v="Gravadalsgrovi" />
		<tag k="ssr:stedsnr" v="818303" />
		<tag k="waterway" v="stream" />
	</node>
	<node id="-517636" lat="60.8272583376" lon="7.48045832619">
		<tag k="name" v="Merkesgrovi" />
		<tag k="ssr:stedsnr" v="818301" />
		<tag k="waterway" v="stream" />
	</node>
	<node id="-517718" lat="60.8868527793" lon="6.88375555904">
		<tag k="alt_name" v="Telnesgrovi" />
		<tag k="name" v="Telsnesgrovi" />
		<tag k="ssr:stedsnr" v="858853" />
		<tag k="waterway" v="stream" />
	</node>
	<node id="-515579" lat="60.8709055595" lon="7.07356388773">
		<tag k="alt_name" v="Lintuvatn" />
		<tag k="name" v="Lintuvatnet" />
		<tag k="natural" v="water" />
		<tag k="ssr:stedsnr" v="372110" />
	</node>
	<node id="-517624" lat="60.8619138889" lon="7.27408611546">
		<tag k="name" v="Vetleråken" />
		<tag k="natural" v="cape" />
		<tag k="ssr:stedsnr" v="818026" />
	</node>
	<node id="-515668" lat="60.861827777" lon="6.81346666391">
		<tag k="name" v="Kolmehølen" />
		<tag k="place" v="locality" />
		<tag k="ssr:stedsnr" v="392280" />
	</node>
	<node id="-515571" lat="60.7967778718" lon="7.02536790741">
		<tag k="name" v="Vassetvatnet" />
		<tag k="natural" v="water" />
		<tag k="ssr:stedsnr" v="372058" />
		<tag k="water" v="lake" />
	</node>
	<node id="-517616" lat="60.8586499996" lon="6.77592499096">
		<tag k="name" v="Hyllandsvatnet" />
		<tag k="natural" v="water" />
		<tag k="ssr:stedsnr" v="817940" />
		<tag k="water" v="lake" />
	</node>
	<node id="-517615" lat="60.8518083345" lon="7.0841111043">
		<tag k="name" v="Brekkeelvi" />
		<tag k="ssr:stedsnr" v="817920" />
		<tag k="waterway" v="stream" />
	</node>
	<node id="-517613" lat="60.9720916633" lon="6.97388889422">
		<tag k="name" v="Svamsgrovi" />
		<tag k="ssr:stedsnr" v="817901" />
		<tag k="waterway" v="stream" />
	</node>
	<node id="-517612" lat="60.9720777776" lon="6.96000000355">
		<tag k="name" v="Tidvesja" />
		<tag k="ssr:stedsnr" v="817900" />
		<tag k="waterway" v="stream" />
	</node>
	<node id="-517611" lat="60.9277222261" lon="7.1401500071">
		<tag k="name" v="Klokkargrovi" />
		<tag k="ssr:stedsnr" v="817886" />
		<tag k="waterway" v="stream" />
	</node>
	<node id="-515551" lat="60.856213732" lon="6.77901193795">
		<tag k="name" v="Vetlevotni" />
		<tag k="natural" v="water" />
		<tag k="ssr:stedsnr" v="332957" />
		<tag k="water" v="lake" />
	</node>
	<node id="-515550" lat="60.8593361108" lon="7.1064888945">
		<tag k="name" v="Orøyane" />
		<tag k="natural" v="cape" />
		<tag k="ssr:stedsnr" v="332946" />
	</node>
	<node id="-515548" lat="60.9509583299" lon="7.21136388158">
		<tag k="name" v="Skjersdøla" />
		<tag k="ssr:stedsnr" v="332902" />
		<tag k="waterway" v="stream" />
	</node>
	<node id="-517595" lat="60.9438222186" lon="7.105069452">
		<tag k="name" v="Skreda" />
		<tag k="ssr:stedsnr" v="817539" />
		<tag k="waterway" v="stream" />
	</node>
	<node id="-517592" lat="60.7423444421" lon="7.12312222231">
		<tag k="name" v="Myrdøla" />
		<tag k="ssr:stedsnr" v="817487" />
		<tag k="waterway" v="river" />
	</node>
	<node id="-515543" lat="60.9721111111" lon="6.96572500682">
		<tag k="name" v="Hatleskorgrovi" />
		<tag k="ssr:stedsnr" v="332849" />
		<tag k="waterway" v="stream" />
	</node>
	<node id="-515540" lat="60.98" lon="7.08289444925">
		<tag k="name" v="Høyskredgrovi" />
		<tag k="ssr:stedsnr" v="332818" />
		<tag k="waterway" v="stream" />
	</node>
	<node id="-515538" lat="60.9351888913" lon="7.1443694513">
		<tag k="name" v="Kambagrovi" />
		<tag k="ssr:stedsnr" v="332816" />
		<tag k="waterway" v="stream" />
	</node>
	<node id="-517575" lat="60.9417138917" lon="6.89628333603">
		<tag k="name" v="Håberggrovi" />
		<tag k="ssr:stedsnr" v="816503" />
		<tag k="waterway" v="stream" />
	</node>
	<node id="-517572" lat="61.055825003" lon="7.05264999643">
		<tag k="alt_name" v="Vrangebekken" />
		<tag k="name" v="Rangebekkgrovi" />
		<tag k="ssr:stedsnr" v="815163" />
		<tag k="waterway" v="stream" />
	</node>
	<node id="-517570" lat="61.0275722246" lon="7.05490833704">
		<tag k="name" v="Djupehavngrovi" />
		<tag k="ssr:stedsnr" v="815151" />
		<tag k="waterway" v="stream" />
	</node>
	<node id="-515521" lat="60.9597694463" lon="7.07022500842">
		<tag k="name" v="Holegrovi" />
		<tag k="ssr:stedsnr" v="332541" />
		<tag k="waterway" v="stream" />
	</node>
	<node id="-517563" lat="61.0209638918" lon="7.10133888728">
		<tag k="name" v="Kolarselvi" />
		<tag k="ssr:stedsnr" v="798373" />
		<tag k="waterway" v="river" />
	</node>
	<node id="-515514" lat="60.9343916653" lon="7.08955832436">
		<tag k="name" v="Kjedjajuvgrovi" />
		<tag k="ssr:stedsnr" v="332516" />
		<tag k="waterway" v="stream" />
	</node>
	<node id="-517560" lat="61.0064472224" lon="7.21883333148">
		<tag k="name" v="Erterhaugvatnet" />
		<tag k="natural" v="water" />
		<tag k="ssr:stedsnr" v="798365" />
	</node>
	<node id="-517559" lat="60.7692861101" lon="7.381922217">
		<tag k="name" v="Snøjuvvotni" />
		<tag k="natural" v="water" />
		<tag k="ssr:stedsnr" v="798270" />
		<tag k="water" v="lake" />
	</node>
	<node id="-515504" lat="60.9033166674" lon="7.19240833022">
		<tag k="name" v="Paradis" />
		<tag k="place" v="island" />
		<tag k="ssr:stedsnr" v="332420" />
	</node>
	<node id="-517551" lat="60.94378889" lon="6.94978334115">
		<tag k="name" v="Ytstaskredgrovi" />
		<tag k="ssr:stedsnr" v="797872" />
		<tag k="waterway" v="stream" />
	</node>
	<node id="-517544" lat="60.9574833363" lon="7.35663332626">
		<tag k="name" v="Hornsvatnet" />
		<tag k="natural" v="water" />
		<tag k="ssr:stedsnr" v="797470" />
		<tag k="water" v="lake" />
	</node>
	<node id="-517543" lat="60.7985416709" lon="7.34071388693">
		<tag k="name" v="Reppavatnet" />
		<tag k="natural" v="water" />
		<tag k="ssr:stedsnr" v="797466" />
	</node>
	<node id="-517542" lat="60.7953972255" lon="7.14833610881">
		<tag k="name" v="Geismeelvi" />
		<tag k="ssr:stedsnr" v="797459" />
		<tag k="waterway" v="stream" />
	</node>
	<node id="-515313" lat="60.9228749966" lon="7.20070278409">
		<tag k="name" v="Kvennagrovi" />
		<tag k="ssr:stedsnr" v="271445" />
		<tag k="waterway" v="stream" />
	</node>
	<node id="-517538" lat="60.8948361145" lon="7.36202777624">
		<tag k="name" v="Kleåelvi" />
		<tag k="ssr:stedsnr" v="797403" />
		<tag k="waterway" v="river" />
	</node>
	<node id="-515653" lat="61.0223222256" lon="7.02028611217">
		<tag k="name" v="Trollsgjelsgrovi" />
		<tag k="ssr:stedsnr" v="390147" />
		<tag k="waterway" v="stream" />
	</node>
	<node id="-517531" lat="60.9792527818" lon="7.21477499809">
		<tag k="name" v="Kongshelleelvi" />
		<tag k="ssr:stedsnr" v="797225" />
		<tag k="waterway" v="stream" />
	</node>
	<node id="-515481" lat="60.831352775" lon="7.12105277814">
		<tag k="name" v="Tverrelvi" />
		<tag k="ssr:stedsnr" v="332192" />
		<tag k="waterway" v="river" />
	</node>
	<node id="-515480" lat="60.8349238985" lon="7.12473197741">
		<tag k="alt_name" v="Gjeilagrovi" />
		<tag k="name" v="Geilagrovi" />
		<tag k="ssr:stedsnr" v="332189" />
		<tag k="waterway" v="stream" />
	</node>
	<node id="-517523" lat="60.9457249966" lon="7.33274165874">
		<tag k="name" v="Hornsvotni" />
		<tag k="natural" v="water" />
		<tag k="ssr:stedsnr" v="797155" />
	</node>
	<node id="-515472" lat="60.8047666634" lon="7.11440000185">
		<tag k="name" v="Vetleøyna" />
		<tag k="place" v="islet" />
		<tag k="ssr:stedsnr" v="332042" />
	</node>
	<node id="-517517" lat="60.8631861129" lon="6.9981750017">
		<tag k="name" v="Grindafletelvi" />
		<tag k="ssr:stedsnr" v="797111" />
		<tag k="waterway" v="river" />
	</node>
	<node id="-517512" lat="60.8287500031" lon="7.08849999125">
		<tag k="name" v="Netjørn" />
		<tag k="natural" v="water" />
		<tag k="ssr:stedsnr" v="797036" />
	</node>
	<node id="-517507" lat="60.722374997" lon="7.4334250011">
		<tag k="name" v="Øvste Grovgjuvvatnet" />
		<tag k="natural" v="water" />
		<tag k="ssr:stedsnr" v="796229" />
	</node>
	<node id="-517505" lat="60.7516076603" lon="7.40777641243">
		<tag k="name" v="Adamsvatnet" />
		<tag k="natural" v="water" />
		<tag k="ssr:stedsnr" v="796223" />
		<tag k="water" v="lake" />
	</node>
	<node id="-517504" lat="60.7410960125" lon="7.53102401531">
		<tag k="name" v="Vargabottsvatnet" />
		<tag k="natural" v="water" />
		<tag k="ssr:stedsnr" v="796224" />
	</node>
	<node id="-515453" lat="60.9107222247" lon="7.06493333088">
		<tag k="name" v="Djupsåna" />
		<tag k="ssr:stedsnr" v="323426" />
		<tag k="waterway" v="stream" />
	</node>
	<node id="-515442" lat="60.8822305559" lon="6.83552221962">
		<tag k="alt_name" v="Nautagrovi" />
		<tag k="name" v="Nauta" />
		<tag k="ssr:stedsnr" v="312817" />
		<tag k="waterway" v="stream" />
	</node>
	<node id="-515441" lat="60.836336115" lon="6.7513083255">
		<tag k="name" v="Kyrajukelen" />
		<tag k="natural" v="water" />
		<tag k="ssr:stedsnr" v="312781" />
	</node>
	<node id="-515440" lat="60.7821666667" lon="7.03692222838">
		<tag k="name" v="Fossdalsvatnet" />
		<tag k="natural" v="water" />
		<tag k="ssr:stedsnr" v="312458" />
		<tag k="water" v="lake" />
	</node>
	<node id="-515437" lat="60.7715722212" lon="6.9952805519">
		<tag k="name" v="Uksabotnvatnet" />
		<tag k="natural" v="water" />
		<tag k="ssr:stedsnr" v="312448" />
	</node>
	<node id="-515435" lat="60.7834138858" lon="7.30363888693">
		<tag k="name" v="Kreklevotni" />
		<tag k="natural" v="water" />
		<tag k="ssr:stedsnr" v="312446" />
		<tag k="water" v="lake" />
	</node>
	<node id="-515434" lat="60.9135638877" lon="7.41885555506">
		<tag k="name" v="Eitrefossen" />
		<tag k="natural" v="waterfall" />
		<tag k="ssr:stedsnr" v="312434" />
	</node>
	<node id="-515431" lat="61.0358504338" lon="7.11735481448">
		<tag k="alt_name" v="Storebotnvatnet, nedsta" />
		<tag k="name" v="Nedsta Storebotnvatnet" />
		<tag k="natural" v="water" />
		<tag k="ssr:stedsnr" v="312412" />
		<tag k="water" v="lake" />
	</node>
	<node id="-517478" lat="60.9527166624" lon="7.1763611203">
		<tag k="name" v="Nisåna" />
		<tag k="ssr:stedsnr" v="757875" />
		<tag k="waterway" v="river" />
	</node>
	<node id="-517477" lat="60.9043250027" lon="7.04196111847">
		<tag k="name" v="Skratla" />
		<tag k="ssr:stedsnr" v="757873" />
		<tag k="waterway" v="stream" />
	</node>
	<node id="-515428" lat="60.9267916681" lon="7.35432500518">
		<tag k="name" v="Breiavad" />
		<tag k="natural" v="water" />
		<tag k="ssr:stedsnr" v="312360" />
	</node>
	<node id="-517475" lat="60.8977222255" lon="7.01032777688">
		<tag k="name" v="Middagsskreda" />
		<tag k="ssr:stedsnr" v="757853" />
		<tag k="waterway" v="stream" />
	</node>
	<node id="-515425" lat="60.8357361132" lon="7.45458055665">
		<tag k="name" v="Lomatjørn" />
		<tag k="natural" v="water" />
		<tag k="ssr:stedsnr" v="312334" />
	</node>
	<node id="-515423" lat="60.7867182099" lon="7.68925303006">
		<tag k="name" v="Kongshellervatnet" />
		<tag k="natural" v="water" />
		<tag k="ssr:stedsnr" v="312299" />
		<tag k="water" v="lake" />
	</node>
	<node id="-517470" lat="60.8782833347" lon="7.35228610297">
		<tag k="name" v="Hålandsgrovi" />
		<tag k="ssr:stedsnr" v="757454" />
		<tag k="waterway" v="stream" />
	</node>
	<node id="-517469" lat="60.8408222222" lon="7.29285278506">
		<tag k="name" v="Skuregrovi" />
		<tag k="ssr:stedsnr" v="757411" />
		<tag k="waterway" v="stream" />
	</node>
	<node id="-517467" lat="60.8530000034" lon="7.34938611626">
		<tag k="name" v="Alkjosøyna" />
		<tag k="place" v="island" />
		<tag k="ssr:stedsnr" v="757379" />
	</node>
	<node id="-515417" lat="60.7973305588" lon="7.45321666271">
		<tag k="name" v="Øykjabakkvatnet" />
		<tag k="natural" v="water" />
		<tag k="ssr:stedsnr" v="312244" />
		<tag k="water" v="lake" />
	</node>
	<node id="-515416" lat="60.7972694489" lon="7.46925556065">
		<tag k="name" v="Katlavatnet" />
		<tag k="natural" v="water" />
		<tag k="ssr:stedsnr" v="312241" />
	</node>
	<node id="-515415" lat="60.8062250017" lon="7.35320556306">
		<tag k="alt_name" v="Reppagrovi" />
		<tag k="name" v="Reppa" />
		<tag k="ssr:stedsnr" v="312240" />
		<tag k="waterway" v="stream" />
	</node>
	<node id="-515641" lat="61.0115388905" lon="7.14428611809">
		<tag k="name" v="Sjogargrovi" />
		<tag k="ssr:stedsnr" v="373393" />
		<tag k="waterway" v="stream" />
	</node>
	<node id="-515411" lat="60.981819449" lon="7.24939722403">
		<tag k="name" v="Fagerdalselvi" />
		<tag k="ssr:stedsnr" v="312219" />
		<tag k="waterway" v="stream" />
	</node>
	<node id="-515408" lat="60.9075444402" lon="7.02812777147">
		<tag k="name" v="Sørfallgrovi" />
		<tag k="ssr:stedsnr" v="312173" />
		<tag k="waterway" v="stream" />
	</node>
	<node id="-517454" lat="60.8357083322" lon="7.12068333399">
		<tag k="name" v="Framigarden" />
		<tag k="natural" v="cape" />
		<tag k="ssr:stedsnr" v="757182" />
	</node>
	<node id="-515297" lat="60.8778749996" lon="7.23173610971">
		<tag k="name" v="Geithellergrovi" />
		<tag k="ssr:stedsnr" v="271137" />
		<tag k="waterway" v="stream" />
	</node>
	<node id="-517444" lat="60.8719027813" lon="7.27247778113">
		<tag k="name" v="Terastrondi" />
		<tag k="natural" v="beach" />
		<tag k="ssr:stedsnr" v="757018" />
	</node>
	<node id="-515390" lat="60.8368083353" lon="7.03775000454">
		<tag k="name" v="Fessene" />
		<tag k="ssr:stedsnr" v="312018" />
		<tag k="waterway" v="stream" />
	</node>
	<node id="-517434" lat="60.9064083351" lon="7.14731111939">
		<tag k="name" v="Flugandefossen" />
		<tag k="natural" v="waterfall" />
		<tag k="ssr:stedsnr" v="756832" />
	</node>
	<node id="-515384" lat="60.8545305579" lon="7.54315556107">
		<tag k="name" v="Sleipå" />
		<tag k="ssr:stedsnr" v="311419" />
		<tag k="waterway" v="stream" />
	</node>
	<node id="-515383" lat="60.8497499965" lon="7.4264777724">
		<tag k="alt_name" v="Bakkagrovi" />
		<tag k="name" v="Bakkegrovi" />
		<tag k="ssr:stedsnr" v="311394" />
		<tag k="waterway" v="stream" />
	</node>
	<node id="-517430" lat="60.9519333327" lon="6.91831110526">
		<tag k="name" v="Inste Skogagrovi" />
		<tag k="ssr:stedsnr" v="756735" />
		<tag k="waterway" v="stream" />
	</node>
	<node id="-517429" lat="60.8713083296" lon="7.11918054969">
		<tag k="name" v="Vetlesandhaugrovi" />
		<tag k="ssr:stedsnr" v="756709" />
		<tag k="waterway" v="stream" />
	</node>
	<node id="-517427" lat="60.8938472222" lon="6.87238055241">
		<tag k="name" v="Kåraligrovi" />
		<tag k="ssr:stedsnr" v="756686" />
		<tag k="waterway" v="stream" />
	</node>
	<node id="-515372" lat="60.7458749992" lon="7.13887500376">
		<tag k="name" v="Kjosfossen" />
		<tag k="natural" v="waterfall" />
		<tag k="ssr:stedsnr" v="310008" />
	</node>
	<node id="-517416" lat="60.8941138924" lon="7.20543889544">
		<tag k="name" v="Kleppagrovi" />
		<tag k="ssr:stedsnr" v="756455" />
		<tag k="waterway" v="stream" />
	</node>
	<node id="-517415" lat="60.8985111124" lon="7.19815276954">
		<tag k="name" v="Hagafossen" />
		<tag k="natural" v="waterfall" />
		<tag k="ssr:stedsnr" v="756430" />
	</node>
	<node id="-517414" lat="60.8960583376" lon="7.21635833526">
		<tag k="name" v="Prestøyna" />
		<tag k="place" v="island" />
		<tag k="ssr:stedsnr" v="756391" />
	</node>
	<node id="-515364" lat="61.0121694421" lon="7.02567221722">
		<tag k="name" v="Aksnesgrøvene" />
		<tag k="ssr:stedsnr" v="28229" />
		<tag k="waterway" v="stream" />
	</node>
	<node id="-517408" lat="60.8734027766" lon="6.82500555372">
		<tag k="name" v="Giljagrovi" />
		<tag k="ssr:stedsnr" v="756203" />
		<tag k="waterway" v="stream" />
	</node>
	<node id="-517406" lat="60.9800444442" lon="7.12571389813">
		<tag k="name" v="Kvitargrov" />
		<tag k="ssr:stedsnr" v="756064" />
		<tag k="waterway" v="stream" />
	</node>
	<node id="-517405" lat="60.8622027759" lon="6.80097778394">
		<tag k="name" v="Trågrovi" />
		<tag k="ssr:stedsnr" v="756038" />
		<tag k="waterway" v="stream" />
	</node>
	<node id="-515356" lat="60.8259527766" lon="7.50341666867">
		<tag k="name" v="Stokkøynaden" />
		<tag k="place" v="island" />
		<tag k="ssr:stedsnr" v="272456" />
	</node>
	<node id="-517403" lat="60.9251777771" lon="6.85545277625">
		<tag k="name" v="Tufteelvi" />
		<tag k="ssr:stedsnr" v="755985" />
		<tag k="waterway" v="river" />
	</node>
	<node id="-515354" lat="60.8245527787" lon="7.52504722853">
		<tag k="name" v="Liagrovi" />
		<tag k="ssr:stedsnr" v="272407" />
		<tag k="waterway" v="stream" />
	</node>
	<node id="-515353" lat="60.844591666" lon="7.31209166993">
		<tag k="name" v="Kvamsgrovi" />
		<tag k="ssr:stedsnr" v="272401" />
		<tag k="waterway" v="stream" />
	</node>
	<node id="-515351" lat="60.8615611106" lon="7.35050554846">
		<tag k="name" v="Vetleteiggrovi" />
		<tag k="ssr:stedsnr" v="272373" />
		<tag k="waterway" v="stream" />
	</node>
	<node id="-515349" lat="60.9019777738" lon="7.34952778063">
		<tag k="name" v="Blomdalsøyna" />
		<tag k="place" v="island" />
		<tag k="ssr:stedsnr" v="272304" />
	</node>
	<node id="-515345" lat="60.8689805572" lon="7.39747222295">
		<tag k="name" v="Kråka" />
		<tag k="ssr:stedsnr" v="272217" />
		<tag k="waterway" v="stream" />
	</node>
	<node id="-517391" lat="61.0590611119" lon="7.16129721987">
		<tag k="alt_name" v="Storebotnvatnet, øvsta" />
		<tag k="name" v="Øvsta Storebotnvatnet" />
		<tag k="natural" v="water" />
		<tag k="ssr:stedsnr" v="737402" />
		<tag k="water" v="lake" />
	</node>
	<node id="-517390" lat="60.907361114" lon="7.50486388925">
		<tag k="alt_name" v="Kjeldhusnosvatnet, heimste" />
		<tag k="name" v="Heimste Kjeldhusnosvatnet" />
		<tag k="natural" v="water" />
		<tag k="ssr:stedsnr" v="737399" />
		<tag k="water" v="lake" />
	</node>
	<node id="-517388" lat="61.0358861102" lon="7.20624166201">
		<tag k="name" v="Svartavatnet" />
		<tag k="natural" v="water" />
		<tag k="ssr:stedsnr" v="737389" />
	</node>
	<node id="-517387" lat="60.884316671" lon="7.37799722529">
		<tag k="name" v="Vatningatjørni" />
		<tag k="natural" v="water" />
		<tag k="ssr:stedsnr" v="737387" />
	</node>
	<node id="-515336" lat="60.927025004" lon="7.14525276935">
		<tag k="name" v="Klokkarfossen" />
		<tag k="natural" v="waterfall" />
		<tag k="ssr:stedsnr" v="271899" />
	</node>
	<node id="-515335" lat="60.9603055539" lon="6.98110277265">
		<tag k="name" v="Kobbaskjergrovi" />
		<tag k="ssr:stedsnr" v="271874" />
		<tag k="waterway" v="stream" />
	</node>
	<node id="-517382" lat="61.0306722192" lon="7.29722499261">
		<tag k="alt_name" v="Vardahaugselvi" />
		<tag k="name" v="Modlaugselvi" />
		<tag k="ssr:stedsnr" v="737376" />
		<tag k="waterway" v="river" />
	</node>
	<node id="-517377" lat="60.961441666" lon="7.07669999804">
		<tag k="name" v="Beinsnesgrovi" />
		<tag k="ssr:stedsnr" v="737228" />
		<tag k="waterway" v="river" />
	</node>
	<node id="-517376" lat="60.969402776" lon="7.06441388573">
		<tag k="name" v="Kolda" />
		<tag k="ssr:stedsnr" v="737226" />
		<tag k="waterway" v="stream" />
	</node>
	<node id="-517373" lat="60.9676111136" lon="7.14339165793">
		<tag k="name" v="Klovnesteinvatnet" />
		<tag k="natural" v="water" />
		<tag k="ssr:stedsnr" v="737213" />
	</node>
	<node id="-517368" lat="60.8845870872" lon="6.98387708589">
		<tag k="name" v="Skammadalsvatnet" />
		<tag k="natural" v="water" />
		<tag k="ssr:stedsnr" v="737082" />
		<tag k="water" v="lake" />
	</node>
	<node id="-517366" lat="60.9015694407" lon="7.11815832644">
		<tag k="name" v="Høydøla" />
		<tag k="ssr:stedsnr" v="737057" />
		<tag k="waterway" v="stream" />
	</node>
	<node id="-517365" lat="60.9676888918" lon="6.86596667278">
		<tag k="name" v="Vassetvatnet" />
		<tag k="natural" v="water" />
		<tag k="ssr:stedsnr" v="736906" />
	</node>
	<node id="-515314" lat="60.8892000025" lon="7.21515276996">
		<tag k="name" v="Sjurshellergrovi" />
		<tag k="ssr:stedsnr" v="271448" />
		<tag k="waterway" v="stream" />
	</node>
	<node id="-517361" lat="60.7768722203" lon="6.95309166291">
		<tag k="name" v="Vassetelvi" />
		<tag k="ssr:stedsnr" v="736789" />
		<tag k="waterway" v="river" />
	</node>
	<node id="-515312" lat="60.9199749985" lon="7.19890277832">
		<tag k="name" v="Linddøla" />
		<tag k="ssr:stedsnr" v="271441" />
		<tag k="waterway" v="stream" />
	</node>
	<node id="-515282" lat="60.912483336" lon="6.86281388804">
		<tag k="name" v="Tåna" />
		<tag k="ssr:stedsnr" v="270943" />
		<tag k="waterway" v="stream" />
	</node>
	<node id="-515306" lat="60.9721500039" lon="7.02688888899">
		<tag k="name" v="Mjåbergsgrovi" />
		<tag k="ssr:stedsnr" v="271290" />
		<tag k="waterway" v="stream" />
	</node>
	<node id="-517353" lat="60.9232500014" lon="7.3912166661">
		<tag k="alt_name" v="Leitevatnet, nedre" />
		<tag k="name" v="Nedre Leitevatnet" />
		<tag k="natural" v="water" />
		<tag k="ssr:stedsnr" v="736378" />
	</node>
	<node id="-515302" lat="60.8690027777" lon="6.8270361126">
		<tag k="name" v="Tennøyna" />
		<tag k="place" v="island" />
		<tag k="ssr:stedsnr" v="271244" />
	</node>
	<node id="-515301" lat="60.8720416656" lon="6.83226389524">
		<tag k="name" v="Botahølen" />
		<tag k="place" v="locality" />
		<tag k="ssr:stedsnr" v="271243" />
	</node>
	<node id="-517347" lat="60.9690305553" lon="7.03804999825">
		<tag k="name" v="Kråkedøla" />
		<tag k="ssr:stedsnr" v="736243" />
		<tag k="waterway" v="stream" />
	</node>
	<node id="-517345" lat="60.9932277768" lon="7.29749165784">
		<tag k="name" v="Soleibakkvotni" />
		<tag k="natural" v="water" />
		<tag k="ssr:stedsnr" v="736230" />
		<tag k="water" v="lake" />
	</node>
	<node id="-515295" lat="60.8782027813" lon="7.24935277107">
		<tag k="name" v="Tverrelvi" />
		<tag k="ssr:stedsnr" v="271114" />
		<tag k="waterway" v="river" />
	</node>
	<node id="-517341" lat="60.9004416702" lon="7.02635276883">
		<tag k="name" v="Haskåna" />
		<tag k="ssr:stedsnr" v="736183" />
		<tag k="waterway" v="stream" />
	</node>
	<node id="-517338" lat="60.9367972241" lon="7.07658056007">
		<tag k="name" v="Helgåna" />
		<tag k="ssr:stedsnr" v="736156" />
		<tag k="waterway" v="stream" />
	</node>
	<node id="-517334" lat="60.85494167" lon="7.24007221924">
		<tag k="name" v="Vetlefjellsvatnet" />
		<tag k="natural" v="water" />
		<tag k="ssr:stedsnr" v="736127" />
	</node>
	<node id="-515284" lat="60.9341083354" lon="6.86924443658">
		<tag k="name" v="Lindagrovi" />
		<tag k="ssr:stedsnr" v="270994" />
		<tag k="waterway" v="stream" />
	</node>
	<node id="-517330" lat="60.8059222227" lon="6.9813472153">
		<tag k="name" v="Vassdalsvatnet" />
		<tag k="natural" v="water" />
		<tag k="ssr:stedsnr" v="736052" />
	</node>
	<node id="-517329" lat="60.8293999979" lon="7.17280554681">
		<tag k="alt_name" v="Lysegroi" />
		<tag k="name" v="Lysegrovi" />
		<tag k="ssr:stedsnr" v="736036" />
		<tag k="waterway" v="stream" />
	</node>
	<node id="-517328" lat="60.7251000009" lon="7.10830000896">
		<tag k="name" v="Storagrovi" />
		<tag k="ssr:stedsnr" v="735113" />
		<tag k="waterway" v="stream" />
	</node>
	<node id="-515279" lat="60.9414222246" lon="6.95001665921">
		<tag k="name" v="Nyskredgrovi" />
		<tag k="ssr:stedsnr" v="269188" />
		<tag k="waterway" v="stream" />
	</node>
	<node id="-517326" lat="60.7251249993" lon="7.2058999913">
		<tag k="fixme" v="multiple name tags, choose one and add the other to alt_name" />
		<tag k="name" v="Moldåna;Moldåni" />
		<tag k="ssr:stedsnr" v="735104" />
		<tag k="waterway" v="river" />
	</node>
	<node id="-517324" lat="60.7489527761" lon="7.05891667195">
		<tag k="name" v="Kreklevatnet" />
		<tag k="natural" v="water" />
		<tag k="ssr:stedsnr" v="735012" />
	</node>
	<node id="-517322" lat="60.7410676163" lon="7.1504869702">
		<tag k="alt_name" v="Reinungavatn" />
		<tag k="name" v="Reinungavatnet" />
		<tag k="natural" v="water" />
		<tag k="ssr:stedsnr" v="735005" />
		<tag k="water" v="lake" />
	</node>
	<node id="-517318" lat="60.9550583343" lon="7.15709167136">
		<tag k="name" v="Reipakråi" />
		<tag k="ssr:stedsnr" v="721601" />
		<tag k="waterway" v="stream" />
	</node>
	<node id="-517308" lat="60.9526166704" lon="7.19693611152">
		<tag k="alt_name" v="Skjerdalselvi" />
		<tag k="name" v="Ståelvi" />
		<tag k="ssr:stedsnr" v="696919" />
		<tag k="waterway" v="river" />
	</node>
	<node id="-517302" lat="60.9502166654" lon="7.18121944775">
		<tag k="name" v="Ståi" />
		<tag k="natural" v="beach" />
		<tag k="ssr:stedsnr" v="696906" />
	</node>
	<node id="-517300" lat="60.9893361139" lon="6.97571665867">
		<tag k="name" v="Legdeelvi" />
		<tag k="ssr:stedsnr" v="696875" />
		<tag k="waterway" v="river" />
	</node>
	<node id="-515614" lat="60.7547027785" lon="7.09834999514">
		<tag k="name" v="Erlegrovi" />
		<tag k="ssr:stedsnr" v="372460" />
		<tag k="waterway" v="stream" />
	</node>
	<node id="-517296" lat="60.999922223" lon="7.07379722483">
		<tag k="alt_name" v="Geitåna" />
		<tag k="name" v="Inste Geitanesgrovi" />
		<tag k="ssr:stedsnr" v="696830" />
		<tag k="waterway" v="stream" />
	</node>
	<node id="-517288" lat="60.9811305547" lon="6.81338888023">
		<tag k="name" v="Huldabotngyldre" />
		<tag k="ssr:stedsnr" v="696665" />
		<tag k="waterway" v="stream" />
	</node>
	<node id="-517281" lat="60.8632138932" lon="7.09474723032">
		<tag k="name" v="Norpa" />
		<tag k="ssr:stedsnr" v="696542" />
		<tag k="waterway" v="stream" />
	</node>
	<node id="-517269" lat="60.8442944439" lon="7.34071944421">
		<tag k="name" v="Brandsgrovi" />
		<tag k="ssr:stedsnr" v="696376" />
		<tag k="waterway" v="stream" />
	</node>
	<node id="-517260" lat="60.8633472247" lon="6.79042499355">
		<tag k="name" v="Solbjørgagrovi" />
		<tag k="ssr:stedsnr" v="696133" />
		<tag k="waterway" v="stream" />
	</node>
	<node id="-517252" lat="60.8117611095" lon="7.1298805623">
		<tag k="name" v="Dalsbotnelvi" />
		<tag k="ssr:stedsnr" v="696028" />
		<tag k="waterway" v="stream" />
	</node>
	<node id="-516630" lat="60.8329611154" lon="7.277966668">
		<tag k="name" v="Storøyna" />
		<tag k="place" v="island" />
		<tag k="ssr:stedsnr" v="454451" />
	</node>
	<node id="-517245" lat="60.9101472267" lon="6.86168611046">
		<tag k="name" v="Tangaskredgrovi" />
		<tag k="ssr:stedsnr" v="695880" />
		<tag k="waterway" v="stream" />
	</node>
	<node id="-517994" lat="60.9203446245" lon="6.74652323747">
		<tag k="name" v="Kåsteinselvi" />
		<tag k="ssr:stedsnr" v="977772" />
		<tag k="waterway" v="river" />
	</node>
	<node id="-515604" lat="60.8522361101" lon="7.4033499933">
		<tag k="name" v="Bridlegrovi" />
		<tag k="ssr:stedsnr" v="372345" />
		<tag k="waterway" v="stream" />
	</node>
	<node id="-517233" lat="60.9674749964" lon="6.9286916758">
		<tag k="name" v="Dyrdalselvi" />
		<tag k="ssr:stedsnr" v="676907" />
		<tag k="waterway" v="stream" />
	</node>
	<node id="-517231" lat="60.9639472235" lon="6.92415555396">
		<tag k="name" v="Nyskredgrovi" />
		<tag k="ssr:stedsnr" v="676890" />
		<tag k="waterway" v="stream" />
	</node>
	<node id="-517230" lat="60.9382277796" lon="6.77419721655">
		<tag k="name" v="Breidalselvi" />
		<tag k="ssr:stedsnr" v="676875" />
		<tag k="waterway" v="stream" />
	</node>
	<node id="-517222" lat="60.82599722" lon="6.96411666661">
		<tag k="name" v="Soleifletvatnet" />
		<tag k="natural" v="water" />
		<tag k="ssr:stedsnr" v="676782" />
		<tag k="water" v="lake" />
	</node>
	<node id="-517221" lat="60.8238222192" lon="6.90741667579">
		<tag k="name" v="Jøtebotnvatnet" />
		<tag k="natural" v="water" />
		<tag k="ssr:stedsnr" v="676779" />
	</node>
	<node id="-517214" lat="60.9062444446" lon="7.45187222655">
		<tag k="name" v="Rustatjørni" />
		<tag k="natural" v="water" />
		<tag k="ssr:stedsnr" v="676431" />
	</node>
	<node id="-517207" lat="61.0290055552" lon="7.07692222371">
		<tag k="alt_name" v="Tverrelvi" />
		<tag k="name" v="Fjellsgrovi" />
		<tag k="ssr:stedsnr" v="676412" />
		<tag k="waterway" v="stream" />
	</node>
	<node id="-517205" lat="61.0048527754" lon="7.32801667324">
		<tag k="name" v="Flotvatnet" />
		<tag k="natural" v="water" />
		<tag k="ssr:stedsnr" v="676396" />
	</node>
	<node id="-517459" lat="60.923422224" lon="7.21532777873">
		<tag k="name" v="Dalsskreddøla" />
		<tag k="ssr:stedsnr" v="757295" />
		<tag k="waterway" v="stream" />
	</node>
	<node id="-517198" lat="60.8821499999" lon="7.52778332633">
		<tag k="name" v="Rynjulsvotni" />
		<tag k="natural" v="water" />
		<tag k="ssr:stedsnr" v="676336" />
	</node>
	<node id="-517196" lat="60.8732333366" lon="7.57801666962">
		<tag k="name" v="Svarthovdvatnet" />
		<tag k="natural" v="water" />
		<tag k="ssr:stedsnr" v="676315" />
		<tag k="water" v="lake" />
	</node>
	<node id="-517193" lat="60.8262109192" lon="7.49750664343">
		<tag k="name" v="Aurdalsvatnet" />
		<tag k="natural" v="water" />
		<tag k="ssr:stedsnr" v="676259" />
		<tag k="water" v="lake" />
	</node>
	<node id="-517191" lat="60.9538611106" lon="6.96766110589">
		<tag k="name" v="Geitåna" />
		<tag k="ssr:stedsnr" v="676234" />
		<tag k="waterway" v="stream" />
	</node>
	<node id="-517189" lat="60.9797861076" lon="7.2279416721">
		<tag k="name" v="Øyestølselvi" />
		<tag k="ssr:stedsnr" v="676222" />
		<tag k="waterway" v="stream" />
	</node>
	<node id="-517169" lat="60.9040416628" lon="7.24265556221">
		<tag k="name" v="Budeiegrovi" />
		<tag k="ssr:stedsnr" v="676069" />
		<tag k="waterway" v="stream" />
	</node>
	<node id="-517167" lat="60.8006305512" lon="7.05904166377">
		<tag k="name" v="Vetlavatnet" />
		<tag k="natural" v="water" />
		<tag k="ssr:stedsnr" v="676054" />
	</node>
	<node id="-517162" lat="60.8460666622" lon="7.13278055574">
		<tag k="name" v="Tivesja" />
		<tag k="ssr:stedsnr" v="676004" />
		<tag k="waterway" v="stream" />
	</node>
	<node id="-517156" lat="60.8498749957" lon="7.37211944583">
		<tag k="name" v="Hovdungagrovi" />
		<tag k="ssr:stedsnr" v="675352" />
		<tag k="waterway" v="stream" />
	</node>
	<node id="-516955" lat="60.8598277735" lon="7.0929805569">
		<tag k="name" v="Yste Kjeppagrovi" />
		<tag k="ssr:stedsnr" v="574921" />
		<tag k="waterway" v="stream" />
	</node>
	<node id="-517150" lat="60.8192722203" lon="7.02876389659">
		<tag k="name" v="Svarvavatnet" />
		<tag k="natural" v="water" />
		<tag k="ssr:stedsnr" v="675045" />
	</node>
	<node id="-517149" lat="60.7516616804" lon="7.44301511729">
		<tag k="alt_name" v="Mellomvatnet, midtre" />
		<tag k="name" v="Midtre Mellomvatnet" />
		<tag k="natural" v="water" />
		<tag k="ssr:stedsnr" v="674216" />
		<tag k="water" v="lake" />
	</node>
	<node id="-517148" lat="60.7457083353" lon="7.4680138915">
		<tag k="alt_name" v="Mellomvatnet, nedre" />
		<tag k="name" v="Nedre Mellomvatnet" />
		<tag k="natural" v="water" />
		<tag k="old_name" v="Mellomvatnet" />
		<tag k="ssr:stedsnr" v="674215" />
		<tag k="water" v="lake" />
	</node>
	<node id="-515930" lat="60.9239777762" lon="7.14558888321">
		<tag k="name" v="Dimmegrovi" />
		<tag k="ssr:stedsnr" v="69176" />
		<tag k="waterway" v="stream" />
	</node>
	<node id="-517143" lat="60.9575555561" lon="7.13302777641">
		<tag k="name" v="Bessagrovi" />
		<tag k="ssr:stedsnr" v="660625" />
		<tag k="waterway" v="stream" />
	</node>
	<node id="-517635" lat="60.8958166676" lon="7.36479167305">
		<tag k="name" v="Svoldøla" />
		<tag k="ssr:stedsnr" v="818293" />
		<tag k="waterway" v="river" />
	</node>
	<node id="-517129" lat="61.0006194435" lon="7.07417221803">
		<tag k="name" v="Yste Geitanesgrovi" />
		<tag k="ssr:stedsnr" v="635801" />
		<tag k="waterway" v="stream" />
	</node>
	<node id="-517125" lat="60.8664717602" lon="7.11209715985">
		<tag k="name" v="Ennegrovi" />
		<tag k="ssr:stedsnr" v="635671" />
		<tag k="waterway" v="stream" />
	</node>
	<node id="-517124" lat="60.9797805513" lon="6.80305000681">
		<tag k="name" v="Huldabotngrovi" />
		<tag k="ssr:stedsnr" v="635633" />
		<tag k="waterway" v="stream" />
	</node>
	<node id="-517118" lat="60.9655222183" lon="7.05831388914">
		<tag k="name" v="Svagrovi" />
		<tag k="ssr:stedsnr" v="635548" />
		<tag k="waterway" v="stream" />
	</node>
	<node id="-517114" lat="60.8745222236" lon="7.33908056188">
		<tag k="name" v="Veimsgrovi" />
		<tag k="ssr:stedsnr" v="635501" />
		<tag k="waterway" v="stream" />
	</node>
	<node id="-517113" lat="60.7368555585" lon="7.16048332515">
		<tag k="name" v="Tunshelleøyna" />
		<tag k="place" v="island" />
		<tag k="ssr:stedsnr" v="635487" />
	</node>
	<node id="-517110" lat="60.8269833293" lon="7.51353888697">
		<tag k="name" v="Friligrovi" />
		<tag k="ssr:stedsnr" v="635467" />
		<tag k="waterway" v="stream" />
	</node>
	<node id="-517095" lat="60.8298277766" lon="7.47676666588">
		<tag k="name" v="Nesbøvestsida" />
		<tag k="natural" v="beach" />
		<tag k="ssr:stedsnr" v="635284" />
	</node>
	<node id="-517094" lat="60.8360999971" lon="7.45992221749">
		<tag k="name" v="Likkista" />
		<tag k="place" v="islet" />
		<tag k="ssr:stedsnr" v="635280" />
	</node>
	<node id="-517093" lat="60.8347388863" lon="7.44840832811">
		<tag k="name" v="Søndagsvatnet" />
		<tag k="ssr:stedsnr" v="635279" />
		<tag k="waterway" v="river" />
	</node>
	<node id="-517086" lat="60.8263944435" lon="7.43243610787">
		<tag k="name" v="Berdalselvi" />
		<tag k="ssr:stedsnr" v="635158" />
		<tag k="waterway" v="stream" />
	</node>
	<node id="-517084" lat="60.8935666703" lon="7.24369999738">
		<tag k="name" v="Håligrovi" />
		<tag k="ssr:stedsnr" v="635123" />
		<tag k="waterway" v="stream" />
	</node>
	<node id="-517083" lat="60.8761805514" lon="7.23555833608">
		<tag k="name" v="Vetlateiga" />
		<tag k="ssr:stedsnr" v="635107" />
		<tag k="waterway" v="stream" />
	</node>
	<node id="-517077" lat="60.9257583303" lon="6.8671138952">
		<tag k="name" v="Flåtagrovi" />
		<tag k="ssr:stedsnr" v="634989" />
		<tag k="waterway" v="stream" />
	</node>
	<node id="-517075" lat="60.9304888876" lon="6.90884165954">
		<tag k="name" v="Odneselvi" />
		<tag k="ssr:stedsnr" v="634521" />
		<tag k="waterway" v="river" />
	</node>
	<node id="-517070" lat="60.9349666644" lon="6.93013610359">
		<tag k="name" v="Nonsgrovi" />
		<tag k="ssr:stedsnr" v="634313" />
		<tag k="waterway" v="stream" />
	</node>
	<node id="-517069" lat="60.857200004" lon="6.81438610625">
		<tag k="name" v="Snya" />
		<tag k="ssr:stedsnr" v="634277" />
		<tag k="waterway" v="stream" />
	</node>
	<node id="-517064" lat="60.7322888886" lon="7.54745555769">
		<tag k="name" v="Heimste Varga" />
		<tag k="ssr:stedsnr" v="631871" />
		<tag k="waterway" v="river" />
	</node>
	<node id="-517063" lat="60.9190055581" lon="7.45894722476">
		<tag k="name" v="Eitrevotni" />
		<tag k="natural" v="water" />
		<tag k="ssr:stedsnr" v="631397" />
	</node>
	<node id="-517061" lat="60.7573583252" lon="7.39201786913">
		<tag k="name" v="Øvre Snøjuvvatnet" />
		<tag k="natural" v="water" />
		<tag k="ssr:stedsnr" v="630779" />
	</node>
	<node id="-517055" lat="60.9295055526" lon="6.82472778327">
		<tag k="name" v="Skarsvotni" />
		<tag k="natural" v="water" />
		<tag k="ssr:stedsnr" v="615865" />
	</node>
	<node id="-517050" lat="60.8264666653" lon="7.05962777993">
		<tag k="name" v="Fessene" />
		<tag k="ssr:stedsnr" v="615769" />
		<tag k="waterway" v="stream" />
	</node>
	<node id="-517045" lat="60.9187499957" lon="7.43525278317">
		<tag k="name" v="Eitra" />
		<tag k="ssr:stedsnr" v="615424" />
		<tag k="waterway" v="stream" />
	</node>
	<node id="-517043" lat="60.9021861125" lon="7.42120277205">
		<tag k="name" v="Kjelsgrovi" />
		<tag k="ssr:stedsnr" v="615419" />
		<tag k="waterway" v="stream" />
	</node>
	<node id="-517028" lat="60.7731888864" lon="7.50920833876">
		<tag k="name" v="Langavatnet" />
		<tag k="natural" v="water" />
		<tag k="ssr:stedsnr" v="615284" />
	</node>
	<node id="-517026" lat="60.7562333342" lon="7.52128055008">
		<tag k="name" v="Dyranosvotni" />
		<tag k="natural" v="water" />
		<tag k="ssr:stedsnr" v="615271" />
	</node>
	<node id="-517025" lat="60.7668722245" lon="7.41964722215">
		<tag k="name" v="Langavatnet" />
		<tag k="natural" v="water" />
		<tag k="ssr:stedsnr" v="615256" />
		<tag k="water" v="lake" />
	</node>
	<node id="-517021" lat="60.8234722211" lon="7.55595832585">
		<tag k="name" v="Grøndalagrovi" />
		<tag k="ssr:stedsnr" v="615241" />
		<tag k="waterway" v="stream" />
	</node>
	<node id="-517014" lat="60.9978972225" lon="7.33048889673">
		<tag k="name" v="Flotevatnet" />
		<tag k="natural" v="water" />
		<tag k="ssr:stedsnr" v="615183" />
	</node>
	<node id="-517013" lat="60.9320500005" lon="7.250838886">
		<tag k="name" v="Vetlabotna" />
		<tag k="ssr:stedsnr" v="615153" />
		<tag k="waterway" v="stream" />
	</node>
	<node id="-516997" lat="60.8451055532" lon="7.65718333631">
		<tag k="name" v="Holmavatnet" />
		<tag k="natural" v="water" />
		<tag k="ssr:stedsnr" v="614371" />
		<tag k="water" v="lake" />
	</node>
	<node id="-516988" lat="60.8083555523" lon="6.99989167247">
		<tag k="name" v="Brekkedalselvi" />
		<tag k="ssr:stedsnr" v="614057" />
		<tag k="waterway" v="stream" />
	</node>
	<node id="-516986" lat="60.736650001" lon="7.41940000658">
		<tag k="name" v="Alvsvatnet" />
		<tag k="natural" v="water" />
		<tag k="old_name" v="Alsvatnet" />
		<tag k="ssr:stedsnr" v="613227" />
		<tag k="water" v="lake" />
	</node>
	<node id="-516985" lat="60.7495877173" lon="7.63818233468">
		<tag k="name" v="Bolhovdvatnet" />
		<tag k="natural" v="water" />
		<tag k="ssr:stedsnr" v="613225" />
	</node>
	<node id="-516983" lat="60.9370527741" lon="6.88335832841">
		<tag k="name" v="Skratlo" />
		<tag k="ssr:stedsnr" v="600205" />
		<tag k="waterway" v="stream" />
	</node>
	<node id="-516978" lat="60.9766888911" lon="6.92605555916">
		<tag k="name" v="Svillagrovi" />
		<tag k="ssr:stedsnr" v="575743" />
		<tag k="waterway" v="stream" />
	</node>
	<node id="-516976" lat="60.8319972196" lon="7.49661110224">
		<tag k="name" v="Vikagrovi" />
		<tag k="ssr:stedsnr" v="575471" />
		<tag k="waterway" v="stream" />
	</node>
	<node id="-516969" lat="60.8851568763" lon="7.33812994706">
		<tag k="name" v="Brønnsgrovi" />
		<tag k="ssr:stedsnr" v="575272" />
		<tag k="waterway" v="stream" />
	</node>
	<node id="-516958" lat="60.9043861069" lon="7.04953889552">
		<tag k="name" v="Bergjuvgrovi" />
		<tag k="ssr:stedsnr" v="574936" />
		<tag k="waterway" v="stream" />
	</node>
	<node id="-517946" lat="60.8649527779" lon="7.3505694476">
		<tag k="name" v="Kambagrovi" />
		<tag k="ssr:stedsnr" v="939483" />
		<tag k="waterway" v="stream" />
	</node>
	<node id="-516943" lat="60.7466416665" lon="7.12115555492">
		<tag k="name" v="Øyane" />
		<tag k="place" v="island" />
		<tag k="ssr:stedsnr" v="574533" />
	</node>
	<node id="-516941" lat="60.7364555553" lon="7.14782222838">
		<tag k="name" v="Styvedalsgrovi" />
		<tag k="ssr:stedsnr" v="574521" />
		<tag k="waterway" v="stream" />
	</node>
	<node id="-516936" lat="60.8968777821" lon="7.21171111352">
		<tag k="name" v="Nedre Tokvam" />
		<tag k="natural" v="cape" />
		<tag k="ssr:stedsnr" v="574442" />
	</node>
	<node id="-516934" lat="60.8471833346" lon="7.34832221551">
		<tag k="name" v="Gjeljeøyna" />
		<tag k="natural" v="cape" />
		<tag k="ssr:stedsnr" v="574407" />
	</node>
	<node id="-516931" lat="60.8733333362" lon="6.83408055921">
		<tag k="name" v="Langøynehølen" />
		<tag k="place" v="locality" />
		<tag k="ssr:stedsnr" v="574389" />
	</node>
	<node id="-516929" lat="60.9200388914" lon="7.08168055279">
		<tag k="name" v="Flenjajuva" />
		<tag k="ssr:stedsnr" v="574309" />
		<tag k="waterway" v="river" />
	</node>
	<node id="-516928" lat="60.9139722201" lon="7.07674999508">
		<tag k="name" v="Djupeskreda" />
		<tag k="ssr:stedsnr" v="574307" />
		<tag k="waterway" v="stream" />
	</node>
	<node id="-516927" lat="60.8599527777" lon="7.26081666694">
		<tag k="name" v="Vitjagrovi" />
		<tag k="ssr:stedsnr" v="574271" />
		<tag k="waterway" v="stream" />
	</node>
	<node id="-516919" lat="60.8744388885" lon="7.24061388618">
		<tag k="name" v="Fossen" />
		<tag k="natural" v="waterfall" />
		<tag k="ssr:stedsnr" v="574126" />
	</node>
	<node id="-516914" lat="60.8031416668" lon="7.11335278077">
		<tag k="name" v="Storøyna" />
		<tag k="place" v="islet" />
		<tag k="ssr:stedsnr" v="574044" />
	</node>
	<node id="-516907" lat="60.8860166694" lon="6.86111388163">
		<tag k="name" v="Sjøskreda" />
		<tag k="ssr:stedsnr" v="573514" />
		<tag k="waterway" v="stream" />
	</node>
	<node id="-516906" lat="60.9022722247" lon="6.85161111833">
		<tag k="name" v="Storskredgrovi" />
		<tag k="ssr:stedsnr" v="573512" />
		<tag k="waterway" v="stream" />
	</node>
	<node id="-516609" lat="60.9752861155" lon="7.05830832843">
		<tag k="alt_name" v="Stigeelvi" />
		<tag k="name" v="Stegeelvi" />
		<tag k="ssr:stedsnr" v="453854" />
		<tag k="waterway" v="stream" />
	</node>
	<node id="-516894" lat="60.7503027758" lon="7.44432777125">
		<tag k="name" v="Mellomvotni" />
		<tag k="natural" v="water" />
		<tag k="ssr:stedsnr" v="570420" />
		<tag k="water" v="lake" />
	</node>
	<node id="-516891" lat="60.9837351603" lon="6.79970082904">
		<tag k="name" v="Huldabotnvatnet" />
		<tag k="natural" v="water" />
		<tag k="ssr:stedsnr" v="566444" />
		<tag k="water" v="lake" />
	</node>
	<node id="-516881" lat="60.9370250016" lon="6.94024999314">
		<tag k="name" v="Kleppsgrovi" />
		<tag k="ssr:stedsnr" v="554882" />
		<tag k="waterway" v="stream" />
	</node>
	<node id="-516876" lat="60.8093833292" lon="7.55976944548">
		<tag k="name" v="Storagrovi" />
		<tag k="ssr:stedsnr" v="554821" />
		<tag k="waterway" v="stream" />
	</node>
	<node id="-516872" lat="60.7673888929" lon="7.22064166554">
		<tag k="name" v="Fretheimsdalsvatnet" />
		<tag k="natural" v="water" />
		<tag k="ssr:stedsnr" v="554488" />
		<tag k="water" v="lake" />
	</node>
	<node id="-516867" lat="60.7664305531" lon="7.23609444628">
		<tag k="name" v="Prestå" />
		<tag k="ssr:stedsnr" v="554458" />
		<tag k="waterway" v="stream" />
	</node>
	<node id="-516866" lat="60.9107777757" lon="7.56124166328">
		<tag k="name" v="Grånosvatnet" />
		<tag k="natural" v="water" />
		<tag k="ssr:stedsnr" v="554440" />
	</node>
	<node id="-516865" lat="61.0468888933" lon="7.18950555533">
		<tag k="name" v="Fossvatnet" />
		<tag k="natural" v="water" />
		<tag k="ssr:stedsnr" v="554437" />
	</node>
	<node id="-516864" lat="61.0505944478" lon="7.13709444615">
		<tag k="alt_name" v="Storebotnvatnet, midtra" />
		<tag k="name" v="Midtra Storebotnvatnet" />
		<tag k="natural" v="water" />
		<tag k="ssr:stedsnr" v="554436" />
	</node>
	<node id="-516861" lat="60.9260277761" lon="7.42064999343">
		<tag k="name" v="Kvanngrøfossen" />
		<tag k="natural" v="waterfall" />
		<tag k="ssr:stedsnr" v="554404" />
	</node>
	<node id="-516860" lat="60.8321194413" lon="7.40793888309">
		<tag k="name" v="Moldedalsgrovi" />
		<tag k="ssr:stedsnr" v="554386" />
		<tag k="waterway" v="stream" />
	</node>
	<node id="-516858" lat="60.8322277806" lon="7.55914444284">
		<tag k="name" v="Storavatnet" />
		<tag k="natural" v="water" />
		<tag k="ssr:stedsnr" v="554370" />
	</node>
	<node id="-517588" lat="60.8724777787" lon="6.83923334077">
		<tag k="name" v="Kvitabergsgrovi" />
		<tag k="ssr:stedsnr" v="817368" />
		<tag k="waterway" v="stream" />
	</node>
	<node id="-516847" lat="60.8104231644" lon="7.62894508194">
		<tag k="name" v="Finndalsvatnet" />
		<tag k="natural" v="water" />
		<tag k="ssr:stedsnr" v="554283" />
		<tag k="water" v="lake" />
	</node>
	<node id="-516845" lat="60.8044249995" lon="7.55980555">
		<tag k="name" v="Øyestølsvatnet" />
		<tag k="natural" v="water" />
		<tag k="ssr:stedsnr" v="554265" />
	</node>
	<node id="-516843" lat="60.9751611134" lon="7.11532499812">
		<tag k="name" v="Stoelvi" />
		<tag k="ssr:stedsnr" v="554241" />
		<tag k="waterway" v="stream" />
	</node>
	<node id="-516841" lat="60.7747187688" lon="6.9219668251">
		<tag k="name" v="Elvamotet" />
		<tag k="place" v="locality" />
		<tag k="ssr:stedsnr" v="554214" />
	</node>
	<node id="-516839" lat="60.9213666674" lon="7.07208056448">
		<tag k="alt_name" v="Breiskreda" />
		<tag k="name" v="Breskrida" />
		<tag k="ssr:stedsnr" v="554175" />
		<tag k="waterway" v="stream" />
	</node>
	<node id="-516826" lat="60.8879361113" lon="7.29326388101">
		<tag k="name" v="Lomatjernet" />
		<tag k="natural" v="water" />
		<tag k="ssr:stedsnr" v="554096" />
	</node>
	<node id="-516821" lat="60.8997027776" lon="7.20440278366">
		<tag k="name" v="Aurlandselvi" />
		<tag k="ssr:stedsnr" v="554073" />
		<tag k="waterway" v="river" />
	</node>
	<node id="-516818" lat="60.9064055535" lon="7.2915388863">
		<tag k="name" v="Storhovdvatnet" />
		<tag k="natural" v="water" />
		<tag k="ssr:stedsnr" v="554066" />
	</node>
	<node id="-516797" lat="60.8497972258" lon="7.09596666139">
		<tag k="name" v="Hestlia" />
		<tag k="ssr:stedsnr" v="514979" />
		<tag k="waterway" v="stream" />
	</node>
	<node id="-516793" lat="60.8626027741" lon="6.77341944081">
		<tag k="name" v="Storskorgrovi" />
		<tag k="ssr:stedsnr" v="514900" />
		<tag k="waterway" v="stream" />
	</node>
	<node id="-516785" lat="61.0097555553" lon="7.07322500721">
		<tag k="name" v="Kalsnesgrovi" />
		<tag k="ssr:stedsnr" v="514798" />
		<tag k="waterway" v="stream" />
	</node>
	<node id="-516784" lat="60.9665111126" lon="6.93456666985">
		<tag k="name" v="Øykjabekkgrovi" />
		<tag k="ssr:stedsnr" v="514796" />
		<tag k="waterway" v="stream" />
	</node>
	<node id="-516781" lat="60.9169805556" lon="7.23695832689">
		<tag k="name" v="Øyna" />
		<tag k="place" v="island" />
		<tag k="ssr:stedsnr" v="514769" />
	</node>
	<node id="-516780" lat="60.975833333" lon="6.92095278501">
		<tag k="name" v="Ilaggrovi" />
		<tag k="ssr:stedsnr" v="514765" />
		<tag k="waterway" v="stream" />
	</node>
	<node id="-516774" lat="60.866013892" lon="7.14031944233">
		<tag k="name" v="Stampa" />
		<tag k="ssr:stedsnr" v="514654" />
		<tag k="waterway" v="stream" />
	</node>
	<node id="-516767" lat="60.7420479771" lon="7.15504194909">
		<tag k="loc_name" v="Kjærleiksholmen" />
		<tag k="name" v="Kjærlighetsholmen" />
		<tag k="place" v="islet" />
		<tag k="ssr:stedsnr" v="514512" />
	</node>
	<node id="-516764" lat="60.8906694433" lon="6.84369443768">
		<tag k="name" v="Hestanesgrovi" />
		<tag k="ssr:stedsnr" v="514465" />
		<tag k="waterway" v="stream" />
	</node>
	<node id="-516761" lat="60.8891388914" lon="7.21310555249">
		<tag k="name" v="Kjellargrovi" />
		<tag k="ssr:stedsnr" v="514419" />
		<tag k="waterway" v="stream" />
	</node>
	<node id="-516756" lat="60.8727916637" lon="6.84375000212">
		<tag k="name" v="Løkabakkgrovi" />
		<tag k="ssr:stedsnr" v="514376" />
		<tag k="waterway" v="stream" />
	</node>
	<node id="-515863" lat="60.8502416692" lon="7.09541111424">
		<tag k="name" v="Vetlahamra" />
		<tag k="ssr:stedsnr" v="28992" />
		<tag k="waterway" v="stream" />
	</node>
	<node id="-516737" lat="60.8753888878" lon="7.26397778005">
		<tag k="name" v="Osen" />
		<tag k="natural" v="bay" />
		<tag k="ssr:stedsnr" v="514060" />
	</node>
	<node id="-516735" lat="60.8665305596" lon="7.26706388162">
		<tag k="name" v="Hauganeset" />
		<tag k="natural" v="cape" />
		<tag k="ssr:stedsnr" v="514031" />
	</node>
	<node id="-516729" lat="61.0185166629" lon="7.02272221715">
		<tag k="name" v="Yste Aknesgrovi" />
		<tag k="ssr:stedsnr" v="511146" />
		<tag k="waterway" v="stream" />
	</node>
	<node id="-516727" lat="60.7781027812" lon="7.37141389335">
		<tag k="name" v="Snøjuvelvi" />
		<tag k="ssr:stedsnr" v="510658" />
		<tag k="waterway" v="river" />
	</node>
	<node id="-516726" lat="60.7646323943" lon="7.38975111781">
		<tag k="name" v="Mellomste Snøjuvvatnet" />
		<tag k="natural" v="water" />
		<tag k="ssr:stedsnr" v="509784" />
		<tag k="water" v="lake" />
	</node>
	<node id="-516724" lat="60.9324666675" lon="6.90378611621">
		<tag k="name" v="Odnesfossen" />
		<tag k="natural" v="waterfall" />
		<tag k="ssr:stedsnr" v="506435" />
	</node>
	<node id="-516721" lat="60.8638944461" lon="7.14899444777">
		<tag k="name" v="Markåna" />
		<tag k="ssr:stedsnr" v="506118" />
		<tag k="waterway" v="stream" />
	</node>
	<node id="-516717" lat="60.9740249987" lon="7.22341943552">
		<tag k="alt_name" v="Storeelvi" />
		<tag k="name" v="Storelvi" />
		<tag k="ssr:stedsnr" v="494769" />
		<tag k="waterway" v="river" />
	</node>
	<node id="-516711" lat="61.0657722241" lon="7.17462221946">
		<tag k="name" v="Merkesvatnet" />
		<tag k="natural" v="water" />
		<tag k="ssr:stedsnr" v="494399" />
	</node>
	<node id="-516708" lat="60.8940990077" lon="7.51776130131">
		<tag k="alt_name" v="Kjeldhusnosvatnet, fremste" />
		<tag k="name" v="Fremste Kjeldhusnosvatnet" />
		<tag k="natural" v="water" />
		<tag k="ssr:stedsnr" v="494393" />
		<tag k="water" v="lake" />
	</node>
	<node id="-516707" lat="60.8904207965" lon="7.46402660711">
		<tag k="name" v="Langavatnet" />
		<tag k="natural" v="water" />
		<tag k="ssr:stedsnr" v="494391" />
		<tag k="water" v="lake" />
	</node>
	<node id="-516703" lat="60.9206138881" lon="7.36718333884">
		<tag k="name" v="Leita" />
		<tag k="ssr:stedsnr" v="494359" />
		<tag k="waterway" v="stream" />
	</node>
	<node id="-516701" lat="60.8311555587" lon="7.47803333998">
		<tag k="name" v="Nesbøvatnet" />
		<tag k="natural" v="water" />
		<tag k="ssr:stedsnr" v="494323" />
	</node>
	<node id="-517562" lat="61.025380553" lon="7.09744722481">
		<tag k="alt_name" v="Fremste Tverrelvi" />
		<tag k="name" v="Tverrelvsgrovi" />
		<tag k="ssr:stedsnr" v="798371" />
		<tag k="waterway" v="stream" />
	</node>
	<node id="-516698" lat="60.8617138918" lon="7.40809166366">
		<tag k="name" v="Veiverdalselvi" />
		<tag k="ssr:stedsnr" v="494296" />
		<tag k="waterway" v="stream" />
	</node>
	<node id="-516689" lat="60.9830000014" lon="7.3254111023">
		<tag k="name" v="Reindalsvatnet" />
		<tag k="natural" v="water" />
		<tag k="ssr:stedsnr" v="494211" />
	</node>
	<node id="-516676" lat="60.851441667" lon="7.27144722963">
		<tag k="name" v="Tvinna" />
		<tag k="ssr:stedsnr" v="494006" />
		<tag k="waterway" v="stream" />
	</node>
	<node id="-516672" lat="60.9612444434" lon="6.85156389036">
		<tag k="name" v="Vassetelvi" />
		<tag k="ssr:stedsnr" v="493918" />
		<tag k="waterway" v="stream" />
	</node>
	<node id="-516670" lat="60.8819083336" lon="6.82395277866">
		<tag k="name" v="Langageiti" />
		<tag k="ssr:stedsnr" v="493863" />
		<tag k="waterway" v="stream" />
	</node>
	<node id="-516667" lat="60.9394583311" lon="7.35500000599">
		<tag k="name" v="Hornselvi" />
		<tag k="ssr:stedsnr" v="493389" />
		<tag k="waterway" v="stream" />
	</node>
	<node id="-516661" lat="60.9903222266" lon="6.97060000408">
		<tag k="name" v="Lægdavatnet" />
		<tag k="natural" v="water" />
		<tag k="ssr:stedsnr" v="493217" />
	</node>
	<node id="-517896" lat="60.9467141463" lon="6.81844401499">
		<tag k="name" v="Vassbotnvatnet" />
		<tag k="natural" v="water" />
		<tag k="ssr:stedsnr" v="919881" />
		<tag k="water" v="lake" />
	</node>
	<node id="-516653" lat="60.8545861144" lon="7.32759166352">
		<tag k="name" v="Storavatnet" />
		<tag k="natural" v="water" />
		<tag k="ssr:stedsnr" v="493136" />
	</node>
	<node id="-516651" lat="60.8534833338" lon="7.0387500042">
		<tag k="name" v="Husdalsvatnet" />
		<tag k="natural" v="water" />
		<tag k="ssr:stedsnr" v="493125" />
	</node>
	<node id="-517895" lat="60.8740194417" lon="6.78738612005">
		<tag k="name" v="Hemrisgrovi" />
		<tag k="ssr:stedsnr" v="919825" />
		<tag k="waterway" v="stream" />
	</node>
	<node id="-516647" lat="60.8267805555" lon="7.14484999253">
		<tag k="name" v="Gudmedøla" />
		<tag k="ssr:stedsnr" v="493040" />
		<tag k="waterway" v="river" />
	</node>
	<node id="-516645" lat="60.7099500014" lon="7.44327500903">
		<tag k="name" v="Vetla Vargavatnet" />
		<tag k="natural" v="water" />
		<tag k="ssr:stedsnr" v="492166" />
		<tag k="water" v="lake" />
	</node>
	<node id="-516643" lat="60.7035146231" lon="7.31050002027">
		<tag k="name" v="Svartavatnet" />
		<tag k="natural" v="water" />
		<tag k="ssr:stedsnr" v="492080" />
		<tag k="water" v="lake" />
	</node>
	<node id="-516642" lat="60.7491388926" lon="7.20722499337">
		<tag k="name" v="Ryggvellevatnet" />
		<tag k="natural" v="water" />
		<tag k="ssr:stedsnr" v="492008" />
	</node>
	<node id="-516639" lat="60.8730416646" lon="7.01505833549">
		<tag k="name" v="Underdalsmoelvi" />
		<tag k="ssr:stedsnr" v="454863" />
		<tag k="waterway" v="river" />
	</node>
	<node id="-516637" lat="60.8863555598" lon="7.31496666546">
		<tag k="name" v="Rangabekk" />
		<tag k="ssr:stedsnr" v="454795" />
		<tag k="waterway" v="stream" />
	</node>
	<node id="-517350" lat="60.7507861081" lon="7.56823332615">
		<tag k="fixme" v="multiple name tags, choose one and add the other to alt_name" />
		<tag k="name" v="Bruahallvotni;Brubotnvotni" />
		<tag k="natural" v="water" />
		<tag k="ssr:stedsnr" v="736303" />
	</node>
	<node id="-516628" lat="60.8364277787" lon="7.34663888389">
		<tag k="name" v="Storehølen" />
		<tag k="place" v="locality" />
		<tag k="ssr:stedsnr" v="454368" />
	</node>
	<node id="-516626" lat="60.8702583303" lon="7.31068888765">
		<tag k="name" v="Steinsøyna" />
		<tag k="place" v="island" />
		<tag k="ssr:stedsnr" v="454260" />
	</node>
	<node id="-516622" lat="60.8949305567" lon="7.22103610892">
		<tag k="name" v="Kjærbakken" />
		<tag k="natural" v="shoal" />
		<tag k="place" v="locality" />
		<tag k="ssr:stedsnr" v="454162" />
	</node>
	<node id="-516621" lat="60.8917111068" lon="7.23108610907">
		<tag k="name" v="Øyna" />
		<tag k="natural" v="cape" />
		<tag k="ssr:stedsnr" v="454160" />
	</node>
	<node id="-516618" lat="60.8631833306" lon="7.29449166346">
		<tag k="name" v="Kråka" />
		<tag k="natural" v="cape" />
		<tag k="ssr:stedsnr" v="454026" />
	</node>
	<node id="-516616" lat="60.9394305562" lon="7.21157500604">
		<tag k="name" v="Voldefossen" />
		<tag k="natural" v="waterfall" />
		<tag k="ssr:stedsnr" v="453952" />
	</node>
	<node id="-516615" lat="60.9381000002" lon="7.21005000449">
		<tag k="name" v="Midtfossen" />
		<tag k="natural" v="waterfall" />
		<tag k="ssr:stedsnr" v="453951" />
	</node>
	<node id="-517796" lat="61.0021388872" lon="7.07503333555">
		<tag k="name" v="Storefossen" />
		<tag k="natural" v="waterfall" />
		<tag k="ssr:stedsnr" v="878848" />
	</node>
	<node id="-516603" lat="60.9550861149" lon="6.926258338">
		<tag k="name" v="Hundagalsgrovi" />
		<tag k="ssr:stedsnr" v="453738" />
		<tag k="waterway" v="stream" />
	</node>
	<node id="-516602" lat="60.9681916677" lon="6.91476389571">
		<tag k="name" v="Jeiskaligrovi" />
		<tag k="ssr:stedsnr" v="453718" />
		<tag k="waterway" v="stream" />
	</node>
	<node id="-516596" lat="60.8834666653" lon="7.10361944159">
		<tag k="name" v="Haldora" />
		<tag k="ssr:stedsnr" v="453608" />
		<tag k="waterway" v="stream" />
	</node>
	<node id="-516589" lat="60.8924027766" lon="7.21232222155">
		<tag k="name" v="Raveltagrovi" />
		<tag k="ssr:stedsnr" v="453406" />
		<tag k="waterway" v="stream" />
	</node>
	<node id="-516582" lat="60.8381944455" lon="7.11609444201">
		<tag k="name" v="Stegagrovi" />
		<tag k="ssr:stedsnr" v="453256" />
		<tag k="waterway" v="stream" />
	</node>
	<node id="-516580" lat="60.9200944452" lon="6.91357778293">
		<tag k="name" v="Nissedalselvi" />
		<tag k="ssr:stedsnr" v="453234" />
		<tag k="waterway" v="river" />
	</node>
	<node id="-516562" lat="60.7953462412" lon="7.24120371205">
		<tag k="name" v="Liverdalsvatnet" />
		<tag k="natural" v="water" />
		<tag k="ssr:stedsnr" v="445395" />
		<tag k="water" v="lake" />
	</node>
	<node id="-516557" lat="60.8763666708" lon="7.35818888522">
		<tag k="name" v="Snødøla" />
		<tag k="ssr:stedsnr" v="434288" />
		<tag k="waterway" v="stream" />
	</node>
	<node id="-516556" lat="60.8620222222" lon="7.49163055317">
		<tag k="name" v="Vasselsvotni" />
		<tag k="natural" v="water" />
		<tag k="ssr:stedsnr" v="434273" />
		<tag k="water" v="lake" />
	</node>
	<node id="-516555" lat="60.7672861123" lon="7.36397500821">
		<tag k="name" v="Hunabotnvatnet" />
		<tag k="natural" v="water" />
		<tag k="ssr:stedsnr" v="434261" />
	</node>
	<node id="-517893" lat="60.8609499961" lon="6.80921111339">
		<tag k="name" v="Nærøydalselvi" />
		<tag k="ssr:stedsnr" v="919798" />
		<tag k="waterway" v="river" />
	</node>
	<node id="-516545" lat="60.8055027802" lon="6.92545277978">
		<tag k="name" v="Storhaugvatnet" />
		<tag k="natural" v="water" />
		<tag k="ssr:stedsnr" v="433788" />
	</node>
	<node id="-516543" lat="60.7786333366" lon="7.08889722463">
		<tag k="name" v="Storareppa" />
		<tag k="ssr:stedsnr" v="433449" />
		<tag k="waterway" v="stream" />
	</node>
	<node id="-516540" lat="60.7545555593" lon="7.09216388481">
		<tag k="name" v="Illagrovi" />
		<tag k="ssr:stedsnr" v="433429" />
		<tag k="waterway" v="stream" />
	</node>
	<node id="-516534" lat="60.8978689462" lon="7.60437126957">
		<tag k="name" v="Hellenutvatnet" />
		<tag k="natural" v="water" />
		<tag k="ssr:stedsnr" v="433389" />
		<tag k="water" v="lake" />
	</node>
	<node id="-516533" lat="60.9204777776" lon="7.41659165754">
		<tag k="name" v="Norddøla" />
		<tag k="ssr:stedsnr" v="433363" />
		<tag k="waterway" v="stream" />
	</node>
	<node id="-516528" lat="60.8243472232" lon="7.46591943575">
		<tag k="name" v="Katla" />
		<tag k="ssr:stedsnr" v="433260" />
		<tag k="waterway" v="stream" />
	</node>
	<node id="-516525" lat="60.8068166666" lon="7.4912861195">
		<tag k="name" v="Katlanosvotni" />
		<tag k="natural" v="water" />
		<tag k="ssr:stedsnr" v="433241" />
	</node>
	<node id="-516523" lat="60.970841664" lon="7.15419722486">
		<tag k="name" v="Storevatnet" />
		<tag k="natural" v="water" />
		<tag k="ssr:stedsnr" v="433219" />
	</node>
	<node id="-516519" lat="60.945483329" lon="7.12768888981">
		<tag k="alt_name" v="Koldnafossen, l" />
		<tag k="name" v="Kolnafossen" />
		<tag k="natural" v="waterfall" />
		<tag k="ssr:stedsnr" v="433148" />
	</node>
	<node id="-516515" lat="60.8941916652" lon="7.0602527809">
		<tag k="name" v="Storefossen" />
		<tag k="natural" v="waterfall" />
		<tag k="ssr:stedsnr" v="433088" />
	</node>
	<node id="-516512" lat="60.8057722217" lon="7.15819721527">
		<tag k="name" v="Dalsbotnelvi" />
		<tag k="ssr:stedsnr" v="433069" />
		<tag k="waterway" v="stream" />
	</node>
	<node id="-516505" lat="60.8260916641" lon="7.17704166995">
		<tag k="name" v="Kloppelvi" />
		<tag k="ssr:stedsnr" v="433029" />
		<tag k="waterway" v="stream" />
	</node>
	<node id="-516504" lat="60.8144749965" lon="7.00300277597">
		<tag k="name" v="Brekkedalsvatnet" />
		<tag k="natural" v="water" />
		<tag k="ssr:stedsnr" v="433028" />
	</node>
	<node id="-517529" lat="60.9153777763" lon="7.26695278336">
		<tag k="name" v="Helgåna" />
		<tag k="ssr:stedsnr" v="797180" />
		<tag k="waterway" v="stream" />
	</node>
	<node id="-516499" lat="60.7358250006" lon="7.59057500069">
		<tag k="name" v="Rossdøla" />
		<tag k="ssr:stedsnr" v="432205" />
		<tag k="waterway" v="stream" />
	</node>
	<node id="-516497" lat="60.7193583352" lon="7.02585833017">
		<tag k="name" v="Gangdøla" />
		<tag k="ssr:stedsnr" v="432111" />
		<tag k="waterway" v="stream" />
	</node>
	<node id="-516495" lat="60.7159000034" lon="7.04945000645">
		<tag k="name" v="Gangdalsvatnet" />
		<tag k="natural" v="water" />
		<tag k="ssr:stedsnr" v="432104" />
	</node>
	<node id="-516494" lat="60.708077777" lon="7.20645278362">
		<tag k="alt_name" v="Klevavatn" />
		<tag k="name" v="Klevavatnet" />
		<tag k="natural" v="water" />
		<tag k="ssr:stedsnr" v="432094" />
		<tag k="water" v="lake" />
	</node>
	<node id="-516490" lat="60.7731775467" lon="7.53294541608">
		<tag k="name" v="Høganosvotni" />
		<tag k="natural" v="water" />
		<tag k="ssr:stedsnr" v="267861" />
		<tag k="water" v="lake" />
	</node>
	<node id="-516489" lat="60.7730972186" lon="7.37778055687">
		<tag k="name" v="Nedre Snøjuvvatnet" />
		<tag k="natural" v="water" />
		<tag k="ssr:stedsnr" v="267818" />
		<tag k="water" v="lake" />
	</node>
	<node id="-516486" lat="60.8565777739" lon="7.30649999126">
		<tag k="name" v="Grimsetelvi" />
		<tag k="ssr:stedsnr" v="263571" />
		<tag k="waterway" v="river" />
	</node>
	<node id="-516485" lat="60.876549998" lon="7.323863896">
		<tag k="loc_name" v="Løelvi" />
		<tag k="name" v="Midjeelvi" />
		<tag k="ssr:stedsnr" v="263569" />
		<tag k="waterway" v="river" />
	</node>
	<node id="-516483" lat="60.9394166702" lon="6.94089166037">
		<tag k="name" v="Kyrjukelgrovi" />
		<tag k="ssr:stedsnr" v="263457" />
		<tag k="waterway" v="stream" />
	</node>
	<node id="-517866" lat="60.8313111112" lon="7.65601388181">
		<tag k="name" v="Grønebotnvatnet" />
		<tag k="natural" v="water" />
		<tag k="ssr:stedsnr" v="919267" />
	</node>
	<node id="-516471" lat="60.8542888917" lon="6.78748056173">
		<tag k="name" v="Fossagrovi" />
		<tag k="ssr:stedsnr" v="251835" />
		<tag k="waterway" v="stream" />
	</node>
	<node id="-516468" lat="60.9793223173" lon="7.34284443234">
		<tag k="alt_name" v="Andisvatnet, vle;Andisvatnet, vetle" />
		<tag k="name" v="Vetle Andisvatnet" />
		<tag k="natural" v="water" />
		<tag k="ssr:stedsnr" v="251500" />
	</node>
	<node id="-516463" lat="60.8638416693" lon="7.11295832929">
		<tag k="name" v="Flåmselvi" />
		<tag k="ssr:stedsnr" v="251457" />
		<tag k="waterway" v="river" />
	</node>
	<node id="-516459" lat="60.9277694422" lon="7.43195000838">
		<tag k="name" v="Kvanngrøelvi" />
		<tag k="ssr:stedsnr" v="251394" />
		<tag k="waterway" v="stream" />
	</node>
	<node id="-516455" lat="60.8489388929" lon="7.40949443568">
		<tag k="name" v="Botnagrovi" />
		<tag k="ssr:stedsnr" v="251355" />
		<tag k="waterway" v="stream" />
	</node>
	<node id="-516451" lat="60.7894638851" lon="7.3906000069">
		<tag k="name" v="Fossane" />
		<tag k="natural" v="waterfall" />
		<tag k="ssr:stedsnr" v="251333" />
	</node>
	<node id="-516448" lat="60.8276672216" lon="7.49208757158">
		<tag k="name" v="Vikjaneset" />
		<tag k="natural" v="cape" />
		<tag k="ssr:stedsnr" v="251294" />
	</node>
	<node id="-516447" lat="60.8238694445" lon="7.58640556199">
		<tag k="name" v="Grøna" />
		<tag k="ssr:stedsnr" v="251284" />
		<tag k="waterway" v="stream" />
	</node>
	<node id="-516444" lat="60.8109111068" lon="7.57596666662">
		<tag k="name" v="Nosavatnet" />
		<tag k="natural" v="water" />
		<tag k="ssr:stedsnr" v="251271" />
	</node>
	<node id="-516439" lat="60.985808336" lon="7.21538610384">
		<tag k="name" v="Åmotet" />
		<tag k="ssr:stedsnr" v="251250" />
		<tag k="waterway" v="stream" />
	</node>
	<node id="-516436" lat="60.9392527817" lon="7.08946666001">
		<tag k="alt_name" v="Underdalselvi" />
		<tag k="name" v="Undredalselvi" />
		<tag k="ssr:stedsnr" v="251204" />
		<tag k="waterway" v="river" />
	</node>
	<node id="-516433" lat="60.9076611119" lon="7.1444444522">
		<tag k="name" v="Flugandegrovi" />
		<tag k="ssr:stedsnr" v="251192" />
		<tag k="waterway" v="stream" />
	</node>
	<node id="-516428" lat="60.8952388867" lon="6.97165000923">
		<tag k="name" v="Jonadalsvatnet" />
		<tag k="natural" v="water" />
		<tag k="ssr:stedsnr" v="251176" />
	</node>
	<node id="-516410" lat="60.7285138856" lon="7.02899445055">
		<tag k="name" v="Jernhusåi" />
		<tag k="ssr:stedsnr" v="249001" />
		<tag k="waterway" v="stream" />
	</node>
	<node id="-516405" lat="60.9890527804" lon="7.08006111545">
		<tag k="name" v="Hortelvi" />
		<tag k="ssr:stedsnr" v="236649" />
		<tag k="waterway" v="stream" />
	</node>
	<node id="-516403" lat="60.8457861143" lon="7.09806111603">
		<tag k="name" v="Hilda" />
		<tag k="ssr:stedsnr" v="211981" />
		<tag k="waterway" v="stream" />
	</node>
	<node id="-516391" lat="60.9712277796" lon="7.10445832966">
		<tag k="name" v="Kappadalselvi" />
		<tag k="ssr:stedsnr" v="211802" />
		<tag k="waterway" v="stream" />
	</node>
	<node id="-516390" lat="60.9789666677" lon="7.10545276945">
		<tag k="name" v="Stølsgrovi" />
		<tag k="ssr:stedsnr" v="211803" />
		<tag k="waterway" v="stream" />
	</node>
	<node id="-516373" lat="60.740952777" lon="7.15767222766">
		<tag k="name" v="Neset" />
		<tag k="natural" v="cape" />
		<tag k="ssr:stedsnr" v="211485" />
	</node>
	<node id="-516366" lat="60.9008361131" lon="7.1959500041">
		<tag k="name" v="Kjærøyna" />
		<tag k="place" v="island" />
		<tag k="ssr:stedsnr" v="211431" />
	</node>
	<node id="-516362" lat="60.8447749983" lon="7.3487777836">
		<tag k="name" v="Klovhalsgrovi" />
		<tag k="ssr:stedsnr" v="211377" />
		<tag k="waterway" v="stream" />
	</node>
	<node id="-516357" lat="60.902244443" lon="7.35250556347">
		<tag k="name" v="Liagrovi" />
		<tag k="ssr:stedsnr" v="211331" />
		<tag k="waterway" v="stream" />
	</node>
	<node id="-516356" lat="60.9091111095" lon="7.06911111966">
		<tag k="name" v="Seljedottgrovi" />
		<tag k="ssr:stedsnr" v="211309" />
		<tag k="waterway" v="stream" />
	</node>
	<node id="-516350" lat="60.8321861154" lon="7.11105833348">
		<tag k="name" v="Stølsgrovi" />
		<tag k="ssr:stedsnr" v="211238" />
		<tag k="waterway" v="stream" />
	</node>
	<node id="-516349" lat="60.8282694438" lon="7.11146389674">
		<tag k="name" v="Bjønnøyane" />
		<tag k="place" v="island" />
		<tag k="ssr:stedsnr" v="211235" />
	</node>
	<node id="-516346" lat="60.8841111127" lon="7.2378416623">
		<tag k="name" v="Skjershølen" />
		<tag k="place" v="locality" />
		<tag k="ssr:stedsnr" v="211153" />
	</node>
	<node id="-516343" lat="60.8708388864" lon="7.26391389386">
		<tag k="name" v="Forvoi" />
		<tag k="natural" v="bay" />
		<tag k="ssr:stedsnr" v="211046" />
	</node>
	<node id="-516338" lat="60.8634444436" lon="7.30029723015">
		<tag k="name" v="Stodvad" />
		<tag k="natural" v="cape" />
		<tag k="ssr:stedsnr" v="211012" />
	</node>
	<node id="-516337" lat="60.9298194459" lon="6.86304999213">
		<tag k="name" v="Ytre Bakkagrovi" />
		<tag k="ssr:stedsnr" v="210999" />
		<tag k="waterway" v="stream" />
	</node>
	<node id="-516333" lat="60.8577416695" lon="6.77804166989">
		<tag k="name" v="Holmane" />
		<tag k="natural" v="cape" />
		<tag k="ssr:stedsnr" v="210970" />
	</node>
	<node id="-516328" lat="60.9876777814" lon="6.87695278423">
		<tag k="name" v="Handadalsfossen" />
		<tag k="natural" v="waterfall" />
		<tag k="ssr:stedsnr" v="210721" />
	</node>
	<node id="-516317" lat="60.8895638894" lon="6.8379222146">
		<tag k="name" v="Smellagrovi" />
		<tag k="ssr:stedsnr" v="210452" />
		<tag k="waterway" v="stream" />
	</node>
	<node id="-516313" lat="60.8653750004" lon="6.82238333757">
		<tag k="name" v="Nyehølen" />
		<tag k="place" v="locality" />
		<tag k="ssr:stedsnr" v="210244" />
	</node>
	<node id="-516311" lat="60.9004305591" lon="6.85523611233">
		<tag k="name" v="Høyskreda" />
		<tag k="ssr:stedsnr" v="210195" />
		<tag k="waterway" v="stream" />
	</node>
	<node id="-516309" lat="60.9761277781" lon="7.11147222233">
		<tag k="name" v="Vetlagrovi" />
		<tag k="ssr:stedsnr" v="210114" />
		<tag k="waterway" v="stream" />
	</node>
	<node id="-516307" lat="60.8976777774" lon="7.21886944462">
		<tag k="alt_name" v="Turlielvi" />
		<tag k="name" v="Tverrelvi" />
		<tag k="ssr:stedsnr" v="203560" />
		<tag k="waterway" v="river" />
	</node>
	<node id="-516304" lat="61.00565278" lon="6.91647500298">
		<tag k="alt_name" v="Snauasetvatnet, øvsta" />
		<tag k="name" v="Øvsta Snauasetvatnet" />
		<tag k="natural" v="water" />
		<tag k="ssr:stedsnr" v="192165" />
	</node>
	<node id="-516299" lat="61.0256138847" lon="7.25833055725">
		<tag k="name" v="Modlaugsvatnet" />
		<tag k="natural" v="water" />
		<tag k="ssr:stedsnr" v="191375" />
	</node>
	<node id="-516294" lat="60.8551333358" lon="7.35381388351">
		<tag k="name" v="Stondalselvi" />
		<tag k="ssr:stedsnr" v="191275" />
		<tag k="waterway" v="river" />
	</node>
	<node id="-516292" lat="60.7885333299" lon="7.56252500407">
		<tag k="name" v="Vetlebotnvatnet" />
		<tag k="natural" v="water" />
		<tag k="ssr:stedsnr" v="191256" />
		<tag k="water" v="lake" />
	</node>
	<node id="-516272" lat="60.8910388904" lon="7.50345278092">
		<tag k="name" v="Grodalstrupvatnet" />
		<tag k="natural" v="water" />
		<tag k="ssr:stedsnr" v="190425" />
	</node>
	<node id="-516271" lat="60.8850055514" lon="7.47167500563">
		<tag k="name" v="Joanosvotni" />
		<tag k="natural" v="water" />
		<tag k="ssr:stedsnr" v="190424" />
	</node>
	<node id="-516269" lat="60.925811111" lon="7.49095556335">
		<tag k="name" v="Melaelvi" />
		<tag k="ssr:stedsnr" v="190393" />
		<tag k="waterway" v="stream" />
	</node>
	<node id="-516268" lat="60.9134416642" lon="7.41510000296">
		<tag k="name" v="Norddalsfossen" />
		<tag k="natural" v="waterfall" />
		<tag k="ssr:stedsnr" v="190389" />
	</node>
	<node id="-516266" lat="60.8398027817" lon="7.46371667253">
		<tag k="alt_name" v="Teigsgrovi" />
		<tag k="name" v="Dalarteiggrovi" />
		<tag k="ssr:stedsnr" v="190376" />
		<tag k="waterway" v="stream" />
	</node>
	<node id="-516265" lat="60.8331750006" lon="7.50422777148">
		<tag k="name" v="Langedøla" />
		<tag k="ssr:stedsnr" v="190355" />
		<tag k="waterway" v="stream" />
	</node>
	<node id="-516257" lat="60.9895694444" lon="6.99840000419">
		<tag k="alt_name" v="Lomtjødni" />
		<tag k="name" v="Lomtjørni" />
		<tag k="natural" v="water" />
		<tag k="ssr:stedsnr" v="190218" />
	</node>
	<node id="-516243" lat="60.8104694432" lon="7.02989444583">
		<tag k="name" v="Kupatjørni" />
		<tag k="natural" v="water" />
		<tag k="ssr:stedsnr" v="190055" />
	</node>
	<node id="-516242" lat="60.8233055569" lon="7.04361667283">
		<tag k="name" v="Viddalsvatnet" />
		<tag k="natural" v="water" />
		<tag k="ssr:stedsnr" v="190044" />
	</node>
	<node id="-516236" lat="60.8360972224" lon="7.0264583254">
		<tag k="name" v="Skratlandevatnet" />
		<tag k="natural" v="water" />
		<tag k="ssr:stedsnr" v="190011" />
	</node>
	<node id="-516232" lat="60.8486777792" lon="7.32922499589">
		<tag k="name" v="Mosatjørni" />
		<tag k="natural" v="water" />
		<tag k="ssr:stedsnr" v="190003" />
	</node>
	<node id="-516231" lat="60.7214749997" lon="7.40625000153">
		<tag k="name" v="Nedste Grovgjuvvatnet" />
		<tag k="natural" v="water" />
		<tag k="ssr:stedsnr" v="189208" />
	</node>
	<node id="-516223" lat="60.7935500014" lon="7.10159723023">
		<tag k="name" v="Tudnea" />
		<tag k="natural" v="cape" />
		<tag k="ssr:stedsnr" v="150981" />
	</node>
	<node id="-516218" lat="60.7801083297" lon="7.09992777246">
		<tag k="alt_name" v="Stakstø" />
		<tag k="name" v="Stakkstø" />
		<tag k="natural" v="cape" />
		<tag k="ssr:stedsnr" v="150916" />
	</node>
	<node id="-516211" lat="60.9026611103" lon="7.2814833421">
		<tag k="name" v="Fjølatjørni" />
		<tag k="natural" v="water" />
		<tag k="ssr:stedsnr" v="150742" />
	</node>
	<node id="-516202" lat="60.826758336" lon="7.34898611828">
		<tag k="name" v="Øyane" />
		<tag k="place" v="island" />
		<tag k="ssr:stedsnr" v="150351" />
	</node>
	<node id="-516199" lat="60.8869416651" lon="7.33480832564">
		<tag k="name" v="Kvålafossen" />
		<tag k="natural" v="waterfall" />
		<tag k="ssr:stedsnr" v="150307" />
	</node>
	<node id="-516198" lat="60.8793583296" lon="7.31750834243">
		<tag k="name" v="Kvitra" />
		<tag k="ssr:stedsnr" v="150243" />
		<tag k="waterway" v="stream" />
	</node>
	<node id="-516195" lat="60.8910055534" lon="7.23155833803">
		<tag k="name" v="Leirhola" />
		<tag k="place" v="locality" />
		<tag k="ssr:stedsnr" v="150155" />
	</node>
	<node id="-516188" lat="60.8739750043" lon="7.26239444154">
		<tag k="name" v="Ståi" />
		<tag k="natural" v="bay" />
		<tag k="ssr:stedsnr" v="150048" />
	</node>
	<node id="-516181" lat="60.8582472245" lon="6.77249445303">
		<tag k="name" v="Grynna" />
		<tag k="natural" v="cape" />
		<tag k="ssr:stedsnr" v="149929" />
	</node>
	<node id="-516180" lat="60.9716083316" lon="6.95472499254">
		<tag k="name" v="Basthamargrovi" />
		<tag k="ssr:stedsnr" v="149897" />
		<tag k="waterway" v="stream" />
	</node>
	<node id="-516179" lat="60.9319194406" lon="7.1436111165">
		<tag k="name" v="Kvamsgrovi" />
		<tag k="ssr:stedsnr" v="149888" />
		<tag k="waterway" v="stream" />
	</node>
	<node id="-515427" lat="60.8378777748" lon="7.58851667413">
		<tag k="name" v="Tempelvotni" />
		<tag k="natural" v="water" />
		<tag k="ssr:stedsnr" v="312345" />
		<tag k="water" v="lake" />
	</node>
	<node id="-516176" lat="60.9844805544" lon="6.88468333521">
		<tag k="name" v="Bringebærgrovi" />
		<tag k="ssr:stedsnr" v="149775" />
		<tag k="waterway" v="stream" />
	</node>
	<node id="-516173" lat="60.9533361089" lon="6.92187223099">
		<tag k="name" v="Heimste Skogagrovi" />
		<tag k="ssr:stedsnr" v="149715" />
		<tag k="waterway" v="stream" />
	</node>
	<node id="-516170" lat="60.889013886" lon="6.86704444005">
		<tag k="loc_name" v="Løhaugtjørni" />
		<tag k="name" v="Løhaugtjødnet" />
		<tag k="natural" v="water" />
		<tag k="ssr:stedsnr" v="149561" />
	</node>
	<node id="-516169" lat="60.8912194481" lon="7.05424999359">
		<tag k="name" v="Storefossgrovi" />
		<tag k="ssr:stedsnr" v="149553" />
		<tag k="waterway" v="stream" />
	</node>
	<node id="-516161" lat="60.9049055519" lon="7.19243054828">
		<tag k="name" v="Neset" />
		<tag k="natural" v="cape" />
		<tag k="ssr:stedsnr" v="149364" />
	</node>
	<node id="-516159" lat="60.8780305574" lon="6.85041667071">
		<tag k="name" v="Sandskredgrovi" />
		<tag k="ssr:stedsnr" v="149337" />
		<tag k="waterway" v="stream" />
	</node>
	<node id="-516154" lat="60.9296527806" lon="6.85937500728">
		<tag k="name" v="Sauaskredgrovi" />
		<tag k="ssr:stedsnr" v="149000" />
		<tag k="waterway" v="stream" />
	</node>
	<node id="-516150" lat="60.9191638882" lon="6.86187499325">
		<tag k="name" v="Blombakkagrovi" />
		<tag k="ssr:stedsnr" v="148984" />
		<tag k="waterway" v="stream" />
	</node>
	<node id="-516148" lat="60.9355916628" lon="6.87922499568">
		<tag k="name" v="Breiskredgrovi" />
		<tag k="ssr:stedsnr" v="148972" />
		<tag k="waterway" v="river" />
	</node>
	<node id="-516147" lat="60.9035027799" lon="6.85890000343">
		<tag k="name" v="Vetlaskredgrovi" />
		<tag k="ssr:stedsnr" v="148565" />
		<tag k="waterway" v="stream" />
	</node>
	<node id="-516142" lat="60.9449611153" lon="7.42053055185">
		<tag k="name" v="Tjørnane" />
		<tag k="natural" v="water" />
		<tag k="ssr:stedsnr" v="146609" />
	</node>
	<node id="-516139" lat="60.8181250043" lon="7.25460276858">
		<tag k="name" v="Viddalsvatnet" />
		<tag k="natural" v="water" />
		<tag k="ssr:stedsnr" v="141393" />
		<tag k="water" v="lake" />
	</node>
	<node id="-516138" lat="60.791147992" lon="7.23774989984">
		<tag k="name" v="Viddalsdammen" />
		<tag k="natural" v="water" />
		<tag k="ssr:stedsnr" v="141391" />
		<tag k="water" v="lake" />
	</node>
	<node id="-516137" lat="60.9825833358" lon="7.00455556191">
		<tag k="name" v="Lægdafossen" />
		<tag k="natural" v="waterfall" />
		<tag k="ssr:stedsnr" v="141431" />
	</node>
	<node id="-516135" lat="60.8527666652" lon="6.76381666447">
		<tag k="name" v="Hagagrovi" />
		<tag k="ssr:stedsnr" v="130758" />
		<tag k="waterway" v="stream" />
	</node>
	<node id="-516134" lat="60.8662666679" lon="6.88029167538">
		<tag k="name" v="Kjelfossvotni" />
		<tag k="natural" v="water" />
		<tag k="ssr:stedsnr" v="130753" />
		<tag k="water" v="lake" />
	</node>
	<node id="-516128" lat="60.856761115" lon="7.38379165948">
		<tag k="alt_name" v="Frivollsgrovi" />
		<tag k="name" v="Frivollgrovi" />
		<tag k="ssr:stedsnr" v="130285" />
		<tag k="waterway" v="stream" />
	</node>
	<node id="-516110" lat="60.9378194477" lon="7.39700000388">
		<tag k="alt_name" v="Leitevatnet, øvre" />
		<tag k="name" v="Øvre Leitevatnet" />
		<tag k="natural" v="water" />
		<tag k="ssr:stedsnr" v="129396" />
	</node>
	<node id="-517804" lat="60.8727805568" lon="6.81298888411">
		<tag k="name" v="Kjerringfossen" />
		<tag k="natural" v="waterfall" />
		<tag k="ssr:stedsnr" v="878931" />
	</node>
	<node id="-516102" lat="60.8309027754" lon="7.44280278589">
		<tag k="alt_name" v="Vetlevatnet" />
		<tag k="name" v="Vetlavatnet" />
		<tag k="natural" v="water" />
		<tag k="ssr:stedsnr" v="129349" />
	</node>
	<node id="-516098" lat="60.82435" lon="7.65047777846">
		<tag k="alt_name" v="Grøna, vetle" />
		<tag k="name" v="Vetle Grøna" />
		<tag k="ssr:stedsnr" v="129286" />
		<tag k="waterway" v="stream" />
	</node>
	<node id="-516097" lat="60.8266305597" lon="7.5960888969">
		<tag k="name" v="Storagrovi" />
		<tag k="ssr:stedsnr" v="129280" />
		<tag k="waterway" v="stream" />
	</node>
</osm>
