<?xml version="1.0" encoding="UTF-8"?>
<osm generator="osmapis" version="0.6">
	<node id="-283424" lat="58.8558099192" lon="8.85124493272">
		<tag k="name" v="Trettebekklia" />
		<tag k="ssr:date" v="2019-05-31" />
		<tag k="ssr:gruppe" v="veg" />
		<tag k="ssr:hovedgruppe" v="infrastruktur" />
		<tag k="ssr:stedsnr" v="983800" />
		<tag k="ssr:type" v="adressenavn" />
	</node>
	<node id="-283423" lat="58.8089591701" lon="8.81590957102">
		<tag k="name" v="Skumbekkodden" />
		<tag k="ssr:date" v="2019-05-31" />
		<tag k="ssr:gruppe" v="veg" />
		<tag k="ssr:hovedgruppe" v="infrastruktur" />
		<tag k="ssr:stedsnr" v="983799" />
		<tag k="ssr:type" v="adressenavn" />
	</node>
	<node id="-283422" lat="58.8151470099" lon="8.81660788015">
		<tag k="name" v="Ålekjerrneset" />
		<tag k="ssr:date" v="2019-05-31" />
		<tag k="ssr:gruppe" v="veg" />
		<tag k="ssr:hovedgruppe" v="infrastruktur" />
		<tag k="ssr:stedsnr" v="983798" />
		<tag k="ssr:type" v="adressenavn" />
	</node>
	<node id="-283421" lat="58.8229963173" lon="8.79957394323">
		<tag k="name" v="Roskifteodden" />
		<tag k="ssr:date" v="2019-05-31" />
		<tag k="ssr:gruppe" v="veg" />
		<tag k="ssr:hovedgruppe" v="infrastruktur" />
		<tag k="ssr:stedsnr" v="983797" />
		<tag k="ssr:type" v="adressenavn" />
	</node>
	<node id="-283225" lat="58.7372513898" lon="8.82259259168">
		<tag k="name" v="Ettevann" />
		<tag k="ssr:date" v="2019-05-31" />
		<tag k="ssr:gruppe" v="veg" />
		<tag k="ssr:hovedgruppe" v="infrastruktur" />
		<tag k="ssr:stedsnr" v="1054088" />
		<tag k="ssr:type" v="adressenavn" />
	</node>
	<node id="-283224" lat="58.7399999476" lon="8.83645100024">
		<tag k="name" v="Slettåsen" />
		<tag k="ssr:date" v="2019-05-31" />
		<tag k="ssr:gruppe" v="veg" />
		<tag k="ssr:hovedgruppe" v="infrastruktur" />
		<tag k="ssr:stedsnr" v="1054087" />
		<tag k="ssr:type" v="adressenavn" />
	</node>
	<node id="-283223" lat="58.7484323633" lon="8.89640717976">
		<tag k="name" v="Ljøstadvann" />
		<tag k="ssr:date" v="2019-05-31" />
		<tag k="ssr:gruppe" v="veg" />
		<tag k="ssr:hovedgruppe" v="infrastruktur" />
		<tag k="ssr:stedsnr" v="1054086" />
		<tag k="ssr:type" v="adressenavn" />
	</node>
	<node id="-283222" lat="58.7532035683" lon="8.92579008256">
		<tag k="name" v="Bakkekilen" />
		<tag k="ssr:date" v="2019-05-31" />
		<tag k="ssr:gruppe" v="veg" />
		<tag k="ssr:hovedgruppe" v="infrastruktur" />
		<tag k="ssr:stedsnr" v="1054084" />
		<tag k="ssr:type" v="adressenavn" />
	</node>
	<node id="-286485" lat="58.7486837928" lon="8.86699585942">
		<tag k="name" v="Sagaveien" />
		<tag k="ssr:date" v="2019-05-31" />
		<tag k="ssr:gruppe" v="veg" />
		<tag k="ssr:hovedgruppe" v="infrastruktur" />
		<tag k="ssr:stedsnr" v="979028" />
		<tag k="ssr:type" v="adressenavn" />
	</node>
	<node id="-286277" lat="58.7503222185" lon="8.86363610331">
		<tag k="name" v="Vegårshei kommune" />
		<tag k="ssr:date" v="2016-05-11" />
		<tag k="ssr:gruppe" v="administrativeIndelinger" />
		<tag k="ssr:hovedgruppe" v="offentligAdministrasjon" />
		<tag k="ssr:stedsnr" v="935263" />
		<tag k="ssr:type" v="kommune" />
	</node>
	<node id="-283221" lat="58.8161297589" lon="8.80293726421">
		<tag k="name" v="Blekfjell" />
		<tag k="ssr:date" v="2019-05-31" />
		<tag k="ssr:gruppe" v="veg" />
		<tag k="ssr:hovedgruppe" v="infrastruktur" />
		<tag k="ssr:stedsnr" v="1054083" />
		<tag k="ssr:type" v="adressenavn" />
	</node>
	<node id="-283425" lat="58.7924675929" lon="8.84259960068">
		<tag k="name" v="Nesstranda" />
		<tag k="ssr:date" v="2019-05-31" />
		<tag k="ssr:gruppe" v="veg" />
		<tag k="ssr:hovedgruppe" v="infrastruktur" />
		<tag k="ssr:stedsnr" v="983801" />
		<tag k="ssr:type" v="adressenavn" />
	</node>
</osm>
