<?xml version="1.0" encoding="UTF-8"?>
<osm version="0.6" generator="osmapis">
	<node lat="59.35518888607217" lon="7.351352776265683" id="-42513">
		<tag k="name" v="Jarevegen" />
		<tag k="ssr:date" v="2021-06-08" />
		<tag k="ssr:gruppe" v="veg" />
		<tag k="ssr:hovedgruppe" v="infrastruktur" />
		<tag k="ssr:stedsnr" v="659641" />
		<tag k="ssr:type" v="vegstrekning" />
	</node>
	<node lat="59.35691388693176" lon="7.35807777912547" id="-47200">
		<tag k="name" v="Bykle kommune" />
		<tag k="ssr:date" v="2019-12-27" />
		<tag k="ssr:gruppe" v="administrativeIndelinger" />
		<tag k="ssr:hovedgruppe" v="offentligAdministrasjon" />
		<tag k="ssr:stedsnr" v="874183" />
		<tag k="ssr:type" v="kommune" />
	</node>
	<node lat="59.49426435090806" lon="7.341139158479882" id="-47511">
		<tag k="name" v="Enden" />
		<tag k="ssr:date" v="2019-12-27" />
		<tag k="ssr:gruppe" v="veg" />
		<tag k="ssr:hovedgruppe" v="infrastruktur" />
		<tag k="ssr:stedsnr" v="1054760" />
		<tag k="ssr:type" v="adressenavn" />
	</node>
	<node lat="59.40911335171206" lon="7.451410552988613" id="-47512">
		<tag k="name" v="Glidbjørgsheii" />
		<tag k="ssr:date" v="2019-12-27" />
		<tag k="ssr:gruppe" v="veg" />
		<tag k="ssr:hovedgruppe" v="infrastruktur" />
		<tag k="ssr:stedsnr" v="1054764" />
		<tag k="ssr:type" v="adressenavn" />
	</node>
	<node lat="58.151103984505276" lon="7.994091394755376" id="-47513">
		<tag k="name" v="Agder fylke" />
		<tag k="ssr:date" v="2021-06-08" />
		<tag k="ssr:gruppe" v="administrativeIndelinger" />
		<tag k="ssr:hovedgruppe" v="offentligAdministrasjon" />
		<tag k="ssr:stedsnr" v="1073974" />
		<tag k="ssr:type" v="fylke" />
	</node>
	<node lat="59.56142058191808" lon="7.3421465942048485" id="-47514">
		<tag k="name" v="Skarsvegen" />
		<tag k="ssr:date" v="2019-12-27" />
		<tag k="ssr:gruppe" v="veg" />
		<tag k="ssr:hovedgruppe" v="infrastruktur" />
		<tag k="ssr:stedsnr" v="1074386" />
		<tag k="ssr:type" v="adressenavn" />
	</node>
	<node lat="59.556762024636726" lon="7.343406386361904" id="-47515">
		<tag k="name" v="Kvennhushaugen" />
		<tag k="ssr:date" v="2019-12-27" />
		<tag k="ssr:gruppe" v="veg" />
		<tag k="ssr:hovedgruppe" v="infrastruktur" />
		<tag k="ssr:stedsnr" v="1074385" />
		<tag k="ssr:type" v="adressenavn" />
	</node>
	<node lat="59.55681410259396" lon="7.343223454543933" id="-47516">
		<tag k="name" v="Plassenuten" />
		<tag k="ssr:date" v="2019-12-27" />
		<tag k="ssr:gruppe" v="veg" />
		<tag k="ssr:hovedgruppe" v="infrastruktur" />
		<tag k="ssr:stedsnr" v="1074387" />
		<tag k="ssr:type" v="adressenavn" />
	</node>
	<node lat="59.562642485824995" lon="7.340832029622191" id="-47517">
		<tag k="name" v="Tjønnvegen" />
		<tag k="ssr:date" v="2019-12-27" />
		<tag k="ssr:gruppe" v="veg" />
		<tag k="ssr:hovedgruppe" v="infrastruktur" />
		<tag k="ssr:stedsnr" v="1074388" />
		<tag k="ssr:type" v="adressenavn" />
	</node>
	<node lat="59.569195217656436" lon="7.3368792063209884" id="-47518">
		<tag k="name" v="Hovdenuttunet" />
		<tag k="ssr:date" v="2020-05-25" />
		<tag k="ssr:gruppe" v="veg" />
		<tag k="ssr:hovedgruppe" v="infrastruktur" />
		<tag k="ssr:stedsnr" v="1077026" />
		<tag k="ssr:type" v="adressenavn" />
	</node>
	<node lat="59.567350319927776" lon="7.361521973388358" id="-47519">
		<tag k="name" v="Flatastøyltoppen" />
		<tag k="ssr:date" v="2020-06-08" />
		<tag k="ssr:gruppe" v="veg" />
		<tag k="ssr:hovedgruppe" v="infrastruktur" />
		<tag k="ssr:stedsnr" v="1077264" />
		<tag k="ssr:type" v="adressenavn" />
	</node>
</osm>
