<?xml version="1.0" encoding="UTF-8"?>
<<<<<<< HEAD
<osm version="0.6" generator="osmapis">
	<node lat="70.07413060195482" lon="29.74862354370606" id="-32126">
		<tag k="name" v="Vadsø kommune" />
		<tag k="ssr:date" v="2019-12-27" />
		<tag k="ssr:gruppe" v="administrativeIndelinger" />
		<tag k="ssr:hovedgruppe" v="offentligAdministrasjon" />
		<tag k="ssr:stedsnr" v="24682" />
		<tag k="ssr:type" v="kommune" />
	</node>
	<node lat="70.08567226993435" lon="29.723218015645553" id="-32329">
		<tag k="name" v="Tråkket" />
		<tag k="ssr:date" v="2019-12-27" />
		<tag k="ssr:gruppe" v="veg" />
		<tag k="ssr:hovedgruppe" v="infrastruktur" />
		<tag k="ssr:stedsnr" v="516211" />
		<tag k="ssr:type" v="adressenavn" />
	</node>
	<node lat="70.07340559686104" lon="29.731495777974352" id="-32409">
		<tag k="name" v="Vadsø, indre havn, NV.re" />
		<tag k="ssr:date" v="2019-12-27" />
		<tag k="ssr:gruppe" v="navigasjon" />
		<tag k="ssr:hovedgruppe" v="infrastruktur" />
		<tag k="ssr:stedsnr" v="647225" />
		<tag k="ssr:type" v="lanterne" />
	</node>
	<node lat="70.08448339468504" lon="30.262403782891038" id="-32410">
		<tag k="name" v="Lille Ekkerøy" />
		<tag k="ssr:date" v="2019-12-27" />
		<tag k="ssr:gruppe" v="navigasjon" />
		<tag k="ssr:hovedgruppe" v="infrastruktur" />
		<tag k="ssr:stedsnr" v="708246" />
		<tag k="ssr:type" v="fyrlykt" />
	</node>
	<node lat="70.07470282691344" lon="29.715343005783854" id="-32491">
		<tag k="name" v="Vadsø havn" />
		<tag k="ssr:date" v="2019-12-27" />
		<tag k="ssr:gruppe" v="navigasjon" />
		<tag k="ssr:hovedgruppe" v="infrastruktur" />
		<tag k="ssr:stedsnr" v="890210" />
		<tag k="ssr:type" v="fyrlykt" />
	</node>
	<node lat="70.10429788579987" lon="29.310033021853503" id="-32507">
		<tag k="name" v="Pikku-Skitsi" />
		<tag k="name:fkv" v="Pikku-Skitsi" />
		<tag k="ssr:date" v="2019-12-27" />
		<tag k="ssr:gruppe" v="farvann" />
		<tag k="ssr:hovedgruppe" v="sjø" />
		<tag k="ssr:stedsnr" v="979438" />
		<tag k="ssr:type" v="fiskeplassISjø" />
	</node>
	<node lat="70.0709111644517" lon="30.09382610101425" id="-32646">
		<tag k="name" v="Store Ekkerøy" />
		<tag k="ssr:date" v="2019-12-27" />
		<tag k="ssr:gruppe" v="navigasjon" />
		<tag k="ssr:hovedgruppe" v="infrastruktur" />
		<tag k="ssr:stedsnr" v="283159" />
		<tag k="ssr:type" v="lanterne" />
	</node>
	<node lat="70.1069972586186" lon="29.32583209549112" id="-32647">
		<tag k="name" v="Jakobselv" />
		<tag k="ssr:date" v="2019-12-27" />
		<tag k="ssr:gruppe" v="navigasjon" />
		<tag k="ssr:hovedgruppe" v="infrastruktur" />
		<tag k="ssr:stedsnr" v="291974" />
		<tag k="ssr:type" v="fyrlykt" />
	</node>
	<node lat="70.07250560695007" lon="29.73820132049515" id="-32726">
		<tag k="name" v="Vadsø, indre havn, NØ.re" />
		<tag k="ssr:date" v="2019-12-27" />
		<tag k="ssr:gruppe" v="navigasjon" />
		<tag k="ssr:hovedgruppe" v="infrastruktur" />
		<tag k="ssr:stedsnr" v="405201" />
		<tag k="ssr:type" v="lanterne" />
	</node>
	<node lat="70.067350047067" lon="29.732890203229726" id="-32836">
		<tag k="name" v="Store Vadsøya" />
		<tag k="ssr:date" v="2019-12-27" />
		<tag k="ssr:gruppe" v="navigasjon" />
		<tag k="ssr:hovedgruppe" v="infrastruktur" />
		<tag k="ssr:stedsnr" v="716870" />
		<tag k="ssr:type" v="fyrlykt" />
	</node>
	<node lat="70.07265837981032" lon="29.733826331833196" id="-32852">
		<tag k="name" v="Innseilingsrenne" />
		<tag k="ssr:date" v="2019-12-27" />
		<tag k="ssr:gruppe" v="sjøbunn" />
		<tag k="ssr:hovedgruppe" v="sjø" />
		<tag k="ssr:stedsnr" v="758367" />
		<tag k="ssr:type" v="renneKløftISjø" />
	</node>
	<node lat="70.13501115619039" lon="29.77172078216173" id="-32898">
		<tag k="name" v="Várjjat" />
		<tag k="name:se" v="Várjjat" />
		<tag k="ssr:date" v="2021-06-08" />
		<tag k="ssr:gruppe" v="terrengområder" />
		<tag k="ssr:hovedgruppe" v="terreng" />
		<tag k="ssr:stedsnr" v="822489" />
		<tag k="ssr:type" v="landskapsområde" />
	</node>
	<node lat="70.10207744610314" lon="29.327407189164624" id="-32969">
		<tag k="name" v="Lauriniemenpakki" />
		<tag k="name:fkv" v="Lauriniemenpakki" />
		<tag k="ssr:date" v="2019-12-27" />
		<tag k="ssr:gruppe" v="farvann" />
		<tag k="ssr:hovedgruppe" v="sjø" />
		<tag k="ssr:stedsnr" v="979483" />
		<tag k="ssr:type" v="fiskeplassISjø" />
	</node>
	<node lat="70.0822777182972" lon="29.74863770161439" id="-32977">
		<tag k="name" v="Nyjordet" />
		<tag k="ssr:date" v="2019-12-27" />
		<tag k="ssr:gruppe" v="veg" />
		<tag k="ssr:hovedgruppe" v="infrastruktur" />
		<tag k="ssr:stedsnr" v="1056794" />
		<tag k="ssr:type" v="adressenavn" />
	</node>
	<node lat="70.08526408506626" lon="29.752549200580468" id="-32978">
		<tag k="name" v="Glassbergveien" />
		<tag k="ssr:date" v="2019-12-27" />
		<tag k="ssr:gruppe" v="veg" />
		<tag k="ssr:hovedgruppe" v="infrastruktur" />
		<tag k="ssr:stedsnr" v="1056795" />
		<tag k="ssr:type" v="adressenavn" />
	</node>
	<node lat="70.07212651694722" lon="29.75569002523232" id="-32979">
		<tag k="name" v="Øyaveien" />
=======
<osm generator="osmapis" version="0.6">
	<node id="-847102" lat="70.072505607" lon="29.7382013205">
		<tag k="name" v="Vadsø, indre havn, NØ.re" />
>>>>>>> e1d4bc35ff8a6074a6f2e91616a996b547c36f15
		<tag k="ssr:date" v="2019-12-27" />
		<tag k="ssr:gruppe" v="veg" />
		<tag k="ssr:hovedgruppe" v="infrastruktur" />
		<tag k="ssr:stedsnr" v="1056796" />
		<tag k="ssr:type" v="adressenavn" />
	</node>
<<<<<<< HEAD
	<node lat="70.07618939774761" lon="30.103071949389864" id="-32980">
		<tag k="name" v="Østre Været" />
=======
	<node id="-846710" lat="70.0673500471" lon="29.7328902032">
		<tag k="name" v="Store Vadsøya" />
>>>>>>> e1d4bc35ff8a6074a6f2e91616a996b547c36f15
		<tag k="ssr:date" v="2019-12-27" />
		<tag k="ssr:gruppe" v="veg" />
		<tag k="ssr:hovedgruppe" v="infrastruktur" />
		<tag k="ssr:stedsnr" v="1056797" />
		<tag k="ssr:type" v="adressenavn" />
	</node>
<<<<<<< HEAD
	<node lat="70.07661993508187" lon="30.10205745371633" id="-32981">
		<tag k="name" v="Vestre Været" />
=======
	<node id="-846708" lat="70.0844833947" lon="30.2624037829">
		<tag k="name" v="Lille Ekkerøy" />
>>>>>>> e1d4bc35ff8a6074a6f2e91616a996b547c36f15
		<tag k="ssr:date" v="2019-12-27" />
		<tag k="ssr:gruppe" v="veg" />
		<tag k="ssr:hovedgruppe" v="infrastruktur" />
<<<<<<< HEAD
		<tag k="ssr:stedsnr" v="1056798" />
		<tag k="ssr:type" v="adressenavn" />
	</node>
	<node lat="70.08038330578181" lon="30.088095852099336" id="-32982">
		<tag k="name" v="Østre Valen" />
=======
		<tag k="ssr:stedsnr" v="708246" />
		<tag k="ssr:type" v="fyrlykt" />
	</node>
	<node id="-847341" lat="69.6388889725" lon="30.5666644427">
		<tag k="fixme" v="multiple name tags, choose one and add the other to alt_name" />
		<tag k="loc_name:se" v="Norgga gonagasriika" />
		<tag k="loc_name:sma" v="Nöörjen gånkarïjhke" />
		<tag k="loc_name:smj" v="Vuona gånågisrijkka" />
		<tag k="name" v="Noreg;Norge" />
		<tag k="name:en" v="Norway" />
		<tag k="name:no" v="Noreg;Norge" />
		<tag k="ssr:date" v="2020-06-04" />
		<tag k="ssr:gruppe" v="administrativeIndelinger" />
		<tag k="ssr:hovedgruppe" v="offentligAdministrasjon" />
		<tag k="ssr:stedsnr" v="26330" />
		<tag k="ssr:type" v="nasjon" />
	</node>
	<node id="-847338" lat="70.082254032" lon="29.7302846866">
		<tag k="fixme" v="multiple name tags, choose one and add the other to alt_name" />
		<tag k="name" v="Troms og Finnmark;Troms og Finnmark fylke - Romssa ja Finnmárkku fylka - Tromssan ja Finmarkun fylkki" />
		<tag k="name:fkv" v="Tromssan ja Finmarkun fylkki" />
		<tag k="name:no" v="Troms og Finnmark;Troms og Finnmark fylke" />
		<tag k="name:se" v="Romssa ja Finnmárkku fylka" />
		<tag k="ssr:date" v="2020-01-13" />
		<tag k="ssr:gruppe" v="administrativeIndelinger" />
		<tag k="ssr:hovedgruppe" v="offentligAdministrasjon" />
		<tag k="ssr:stedsnr" v="1073694" />
		<tag k="ssr:type" v="fylke" />
	</node>
	<node id="-847334" lat="70.1186100044" lon="29.255819057">
		<tag k="name" v="Nordvarangerveien" />
>>>>>>> e1d4bc35ff8a6074a6f2e91616a996b547c36f15
		<tag k="ssr:date" v="2019-12-27" />
		<tag k="ssr:gruppe" v="veg" />
		<tag k="ssr:hovedgruppe" v="infrastruktur" />
		<tag k="ssr:stedsnr" v="1056800" />
		<tag k="ssr:type" v="adressenavn" />
	</node>
<<<<<<< HEAD
	<node lat="70.07963030738433" lon="30.082477620620953" id="-32983">
		<tag k="name" v="Vestre Valen" />
=======
	<node id="-847333" lat="70.1138461444" lon="29.3183115242">
		<tag k="name" v="Kuja" />
		<tag k="name:fkv" v="Kuja" />
>>>>>>> e1d4bc35ff8a6074a6f2e91616a996b547c36f15
		<tag k="ssr:date" v="2019-12-27" />
		<tag k="ssr:gruppe" v="veg" />
		<tag k="ssr:hovedgruppe" v="infrastruktur" />
		<tag k="ssr:stedsnr" v="1056802" />
		<tag k="ssr:type" v="adressenavn" />
	</node>
<<<<<<< HEAD
	<node lat="70.07290190627705" lon="30.027596029042083" id="-32984">
		<tag k="name" v="Sisäpääntie" />
		<tag k="name:fkv" v="Sisäpääntie" />
=======
	<node id="-847332" lat="70.1123402615" lon="29.326985664">
		<tag k="name" v="Pikkuskitsiveien" />
>>>>>>> e1d4bc35ff8a6074a6f2e91616a996b547c36f15
		<tag k="ssr:date" v="2019-12-27" />
		<tag k="ssr:gruppe" v="veg" />
		<tag k="ssr:hovedgruppe" v="infrastruktur" />
		<tag k="ssr:stedsnr" v="1056803" />
		<tag k="ssr:type" v="adressenavn" />
	</node>
<<<<<<< HEAD
	<node lat="70.0740267233726" lon="30.034124620058012" id="-32985">
		<tag k="name" v="Talvitie" />
		<tag k="name:fkv" v="Talvitie" />
=======
	<node id="-847331" lat="70.1114932753" lon="29.3344565809">
		<tag k="name" v="Bygdeveien" />
>>>>>>> e1d4bc35ff8a6074a6f2e91616a996b547c36f15
		<tag k="ssr:date" v="2019-12-27" />
		<tag k="ssr:gruppe" v="veg" />
		<tag k="ssr:hovedgruppe" v="infrastruktur" />
		<tag k="ssr:stedsnr" v="1056804" />
		<tag k="ssr:type" v="adressenavn" />
	</node>
<<<<<<< HEAD
	<node lat="70.10373875478521" lon="29.38177325370885" id="-32986">
		<tag k="name" v="Myrveien" />
=======
	<node id="-847330" lat="70.1142293841" lon="29.3373171054">
		<tag k="name" v="Mettäperä" />
		<tag k="name:fkv" v="Mettäperä" />
>>>>>>> e1d4bc35ff8a6074a6f2e91616a996b547c36f15
		<tag k="ssr:date" v="2019-12-27" />
		<tag k="ssr:gruppe" v="veg" />
		<tag k="ssr:hovedgruppe" v="infrastruktur" />
		<tag k="ssr:stedsnr" v="1056805" />
		<tag k="ssr:type" v="adressenavn" />
	</node>
<<<<<<< HEAD
	<node lat="70.10660851012159" lon="29.358849911080394" id="-32987">
		<tag k="name" v="Øvreveien" />
=======
	<node id="-847329" lat="70.1847473541" lon="30.3419702083">
		<tag k="name" v="Beritie" />
		<tag k="name:fkv" v="Beritie" />
>>>>>>> e1d4bc35ff8a6074a6f2e91616a996b547c36f15
		<tag k="ssr:date" v="2019-12-27" />
		<tag k="ssr:gruppe" v="veg" />
		<tag k="ssr:hovedgruppe" v="infrastruktur" />
		<tag k="ssr:stedsnr" v="1056806" />
		<tag k="ssr:type" v="adressenavn" />
	</node>
<<<<<<< HEAD
	<node lat="70.10692319755191" lon="29.342776770244594" id="-32988">
		<tag k="name" v="Lauriniemi" />
		<tag k="name:fkv" v="Lauriniemi" />
=======
	<node id="-847328" lat="70.1857469605" lon="30.3422642487">
		<tag k="name" v="Niemi" />
		<tag k="name:fkv" v="Niemi" />
>>>>>>> e1d4bc35ff8a6074a6f2e91616a996b547c36f15
		<tag k="ssr:date" v="2019-12-27" />
		<tag k="ssr:gruppe" v="veg" />
		<tag k="ssr:hovedgruppe" v="infrastruktur" />
		<tag k="ssr:stedsnr" v="1056807" />
		<tag k="ssr:type" v="adressenavn" />
	</node>
<<<<<<< HEAD
	<node lat="70.10850986631363" lon="29.33809063488385" id="-32989">
		<tag k="name" v="Finnesveien" />
=======
	<node id="-847327" lat="70.1868087661" lon="30.3294332126">
		<tag k="name" v="Kylä" />
		<tag k="name:fkv" v="Kylä" />
>>>>>>> e1d4bc35ff8a6074a6f2e91616a996b547c36f15
		<tag k="ssr:date" v="2019-12-27" />
		<tag k="ssr:gruppe" v="veg" />
		<tag k="ssr:hovedgruppe" v="infrastruktur" />
		<tag k="ssr:stedsnr" v="1056808" />
		<tag k="ssr:type" v="adressenavn" />
	</node>
<<<<<<< HEAD
	<node lat="70.11013773884086" lon="29.333406733385296" id="-32990">
		<tag k="name" v="Sudinesveien" />
=======
	<node id="-847326" lat="70.1047921504" lon="30.1869748578">
		<tag k="name" v="Nesseveien" />
>>>>>>> e1d4bc35ff8a6074a6f2e91616a996b547c36f15
		<tag k="ssr:date" v="2019-12-27" />
		<tag k="ssr:gruppe" v="veg" />
		<tag k="ssr:hovedgruppe" v="infrastruktur" />
		<tag k="ssr:stedsnr" v="1056809" />
		<tag k="ssr:type" v="adressenavn" />
	</node>
<<<<<<< HEAD
	<node lat="70.07893917136013" lon="29.775921517000445" id="-32991">
		<tag k="name" v="Poikilaveien" />
=======
	<node id="-847325" lat="70.0760247137" lon="30.102922113">
		<tag k="name" v="Søndre Været" />
>>>>>>> e1d4bc35ff8a6074a6f2e91616a996b547c36f15
		<tag k="ssr:date" v="2019-12-27" />
		<tag k="ssr:gruppe" v="veg" />
		<tag k="ssr:hovedgruppe" v="infrastruktur" />
		<tag k="ssr:stedsnr" v="1056811" />
		<tag k="ssr:type" v="adressenavn" />
	</node>
<<<<<<< HEAD
	<node lat="70.1873596976012" lon="30.329763005901686" id="-32992">
		<tag k="name" v="Ylipää" />
		<tag k="name:fkv" v="Ylipää" />
=======
	<node id="-847324" lat="70.071703056" lon="30.1029542698">
		<tag k="name" v="Vestre Nesset" />
>>>>>>> e1d4bc35ff8a6074a6f2e91616a996b547c36f15
		<tag k="ssr:date" v="2019-12-27" />
		<tag k="ssr:gruppe" v="veg" />
		<tag k="ssr:hovedgruppe" v="infrastruktur" />
		<tag k="ssr:stedsnr" v="1056816" />
		<tag k="ssr:type" v="adressenavn" />
	</node>
<<<<<<< HEAD
	<node lat="70.1046105202908" lon="30.193321760531216" id="-32993">
		<tag k="name" v="Badstuveien" />
=======
	<node id="-847323" lat="70.0706042814" lon="30.1004722868">
		<tag k="name" v="Østre Nesset" />
>>>>>>> e1d4bc35ff8a6074a6f2e91616a996b547c36f15
		<tag k="ssr:date" v="2019-12-27" />
		<tag k="ssr:gruppe" v="veg" />
		<tag k="ssr:hovedgruppe" v="infrastruktur" />
		<tag k="ssr:stedsnr" v="1056817" />
		<tag k="ssr:type" v="adressenavn" />
	</node>
<<<<<<< HEAD
	<node lat="70.10544531251078" lon="30.18982664251864" id="-32994">
=======
	<node id="-847322" lat="70.1054453125" lon="30.1898266425">
>>>>>>> e1d4bc35ff8a6074a6f2e91616a996b547c36f15
		<tag k="name" v="Storskogveien" />
		<tag k="ssr:date" v="2019-12-27" />
		<tag k="ssr:gruppe" v="veg" />
		<tag k="ssr:hovedgruppe" v="infrastruktur" />
		<tag k="ssr:stedsnr" v="1056818" />
		<tag k="ssr:type" v="adressenavn" />
	</node>
<<<<<<< HEAD
	<node lat="70.07060428144399" lon="30.10047228677412" id="-32995">
		<tag k="name" v="Østre Nesset" />
=======
	<node id="-847321" lat="70.1046105203" lon="30.1933217605">
		<tag k="name" v="Badstuveien" />
>>>>>>> e1d4bc35ff8a6074a6f2e91616a996b547c36f15
		<tag k="ssr:date" v="2019-12-27" />
		<tag k="ssr:gruppe" v="veg" />
		<tag k="ssr:hovedgruppe" v="infrastruktur" />
		<tag k="ssr:stedsnr" v="1056819" />
		<tag k="ssr:type" v="adressenavn" />
	</node>
<<<<<<< HEAD
	<node lat="70.07170305603292" lon="30.102954269775125" id="-32996">
		<tag k="name" v="Vestre Nesset" />
=======
	<node id="-847320" lat="70.1873596976" lon="30.3297630059">
		<tag k="name" v="Ylipää" />
		<tag k="name:fkv" v="Ylipää" />
>>>>>>> e1d4bc35ff8a6074a6f2e91616a996b547c36f15
		<tag k="ssr:date" v="2019-12-27" />
		<tag k="ssr:gruppe" v="veg" />
		<tag k="ssr:hovedgruppe" v="infrastruktur" />
		<tag k="ssr:stedsnr" v="1056820" />
		<tag k="ssr:type" v="adressenavn" />
	</node>
<<<<<<< HEAD
	<node lat="70.07602471368217" lon="30.102922112984587" id="-32997">
		<tag k="name" v="Søndre Været" />
=======
	<node id="-847319" lat="70.0789391714" lon="29.775921517">
		<tag k="name" v="Poikilaveien" />
>>>>>>> e1d4bc35ff8a6074a6f2e91616a996b547c36f15
		<tag k="ssr:date" v="2019-12-27" />
		<tag k="ssr:gruppe" v="veg" />
		<tag k="ssr:hovedgruppe" v="infrastruktur" />
		<tag k="ssr:stedsnr" v="1056821" />
		<tag k="ssr:type" v="adressenavn" />
	</node>
<<<<<<< HEAD
	<node lat="70.10479215039508" lon="30.18697485783749" id="-32998">
		<tag k="name" v="Nesseveien" />
=======
	<node id="-847318" lat="70.1101377388" lon="29.3334067334">
		<tag k="name" v="Sudinesveien" />
>>>>>>> e1d4bc35ff8a6074a6f2e91616a996b547c36f15
		<tag k="ssr:date" v="2019-12-27" />
		<tag k="ssr:gruppe" v="veg" />
		<tag k="ssr:hovedgruppe" v="infrastruktur" />
		<tag k="ssr:stedsnr" v="1056822" />
		<tag k="ssr:type" v="adressenavn" />
	</node>
<<<<<<< HEAD
	<node lat="70.18680876614621" lon="30.329433212612567" id="-32999">
		<tag k="name" v="Kylä" />
		<tag k="name:fkv" v="Kylä" />
=======
	<node id="-847317" lat="70.1085098663" lon="29.3380906349">
		<tag k="name" v="Finnesveien" />
>>>>>>> e1d4bc35ff8a6074a6f2e91616a996b547c36f15
		<tag k="ssr:date" v="2019-12-27" />
		<tag k="ssr:gruppe" v="veg" />
		<tag k="ssr:hovedgruppe" v="infrastruktur" />
		<tag k="ssr:stedsnr" v="1056823" />
		<tag k="ssr:type" v="adressenavn" />
	</node>
<<<<<<< HEAD
	<node lat="70.18574696049392" lon="30.34226424865376" id="-33000">
		<tag k="name" v="Niemi" />
		<tag k="name:fkv" v="Niemi" />
=======
	<node id="-847316" lat="70.1069231976" lon="29.3427767702">
		<tag k="name" v="Lauriniemi" />
		<tag k="name:fkv" v="Lauriniemi" />
>>>>>>> e1d4bc35ff8a6074a6f2e91616a996b547c36f15
		<tag k="ssr:date" v="2019-12-27" />
		<tag k="ssr:gruppe" v="veg" />
		<tag k="ssr:hovedgruppe" v="infrastruktur" />
		<tag k="ssr:stedsnr" v="1056824" />
		<tag k="ssr:type" v="adressenavn" />
	</node>
<<<<<<< HEAD
	<node lat="70.18474735407165" lon="30.341970208267416" id="-33001">
		<tag k="name" v="Beritie" />
		<tag k="name:fkv" v="Beritie" />
=======
	<node id="-847315" lat="70.1066085101" lon="29.3588499111">
		<tag k="name" v="Øvreveien" />
>>>>>>> e1d4bc35ff8a6074a6f2e91616a996b547c36f15
		<tag k="ssr:date" v="2019-12-27" />
		<tag k="ssr:gruppe" v="veg" />
		<tag k="ssr:hovedgruppe" v="infrastruktur" />
		<tag k="ssr:stedsnr" v="1056825" />
		<tag k="ssr:type" v="adressenavn" />
	</node>
<<<<<<< HEAD
	<node lat="70.11422938411212" lon="29.337317105389303" id="-33002">
		<tag k="name" v="Mettäperä" />
		<tag k="name:fkv" v="Mettäperä" />
=======
	<node id="-847314" lat="70.1037387548" lon="29.3817732537">
		<tag k="name" v="Myrveien" />
>>>>>>> e1d4bc35ff8a6074a6f2e91616a996b547c36f15
		<tag k="ssr:date" v="2019-12-27" />
		<tag k="ssr:gruppe" v="veg" />
		<tag k="ssr:hovedgruppe" v="infrastruktur" />
		<tag k="ssr:stedsnr" v="1056865" />
		<tag k="ssr:type" v="adressenavn" />
	</node>
<<<<<<< HEAD
	<node lat="70.11149327531623" lon="29.334456580924375" id="-33003">
		<tag k="name" v="Bygdeveien" />
=======
	<node id="-847313" lat="70.0740267234" lon="30.0341246201">
		<tag k="name" v="Talvitie" />
		<tag k="name:fkv" v="Talvitie" />
>>>>>>> e1d4bc35ff8a6074a6f2e91616a996b547c36f15
		<tag k="ssr:date" v="2019-12-27" />
		<tag k="ssr:gruppe" v="veg" />
		<tag k="ssr:hovedgruppe" v="infrastruktur" />
		<tag k="ssr:stedsnr" v="1056866" />
		<tag k="ssr:type" v="adressenavn" />
	</node>
<<<<<<< HEAD
	<node lat="70.11234026152658" lon="29.326985663995224" id="-33004">
		<tag k="name" v="Pikkuskitsiveien" />
=======
	<node id="-847312" lat="70.0729019063" lon="30.027596029">
		<tag k="name" v="Sisäpääntie" />
		<tag k="name:fkv" v="Sisäpääntie" />
>>>>>>> e1d4bc35ff8a6074a6f2e91616a996b547c36f15
		<tag k="ssr:date" v="2019-12-27" />
		<tag k="ssr:gruppe" v="veg" />
		<tag k="ssr:hovedgruppe" v="infrastruktur" />
		<tag k="ssr:stedsnr" v="1056868" />
		<tag k="ssr:type" v="adressenavn" />
	</node>
<<<<<<< HEAD
	<node lat="70.11384614439692" lon="29.318311524220235" id="-33005">
		<tag k="name" v="Kuja" />
		<tag k="name:fkv" v="Kuja" />
=======
	<node id="-847311" lat="70.0796303074" lon="30.0824776206">
		<tag k="name" v="Vestre Valen" />
>>>>>>> e1d4bc35ff8a6074a6f2e91616a996b547c36f15
		<tag k="ssr:date" v="2019-12-27" />
		<tag k="ssr:gruppe" v="veg" />
		<tag k="ssr:hovedgruppe" v="infrastruktur" />
		<tag k="ssr:stedsnr" v="1056870" />
		<tag k="ssr:type" v="adressenavn" />
	</node>
<<<<<<< HEAD
	<node lat="70.11861000435032" lon="29.255819056994255" id="-33006">
		<tag k="name" v="Nordvarangerveien" />
=======
	<node id="-847310" lat="70.0803833058" lon="30.0880958521">
		<tag k="name" v="Østre Valen" />
>>>>>>> e1d4bc35ff8a6074a6f2e91616a996b547c36f15
		<tag k="ssr:date" v="2019-12-27" />
		<tag k="ssr:gruppe" v="veg" />
		<tag k="ssr:hovedgruppe" v="infrastruktur" />
		<tag k="ssr:stedsnr" v="1056871" />
		<tag k="ssr:type" v="adressenavn" />
	</node>
	<node lat="70.08225403199775" lon="29.73028468656217" id="-33010">
		<tag k="fixme" v="multiple name tags, choose one and add the other to alt_name" />
		<tag k="name" v="Troms og Finnmark;Troms og Finnmark fylke - Romssa ja Finnmárkku fylka - Tromssan ja Finmarkun fylkki" />
		<tag k="name:fkv" v="Tromssan ja Finmarkun fylkki" />
		<tag k="name:no" v="Troms og Finnmark;Troms og Finnmark fylke" />
		<tag k="name:se" v="Romssa ja Finnmárkku fylka" />
		<tag k="ssr:date" v="2021-06-08" />
		<tag k="ssr:gruppe" v="administrativeIndelinger" />
		<tag k="ssr:hovedgruppe" v="offentligAdministrasjon" />
		<tag k="ssr:stedsnr" v="1073694" />
		<tag k="ssr:type" v="fylke" />
	</node>
	<node lat="70.08745448775346" lon="30.094157961303466" id="-33012">
		<tag k="name" v="Krokskjæret" />
		<tag k="ssr:date" v="2020-12-18" />
		<tag k="ssr:gruppe" v="veg" />
		<tag k="ssr:hovedgruppe" v="infrastruktur" />
		<tag k="ssr:stedsnr" v="1079416" />
		<tag k="ssr:type" v="adressenavn" />
	</node>
	<node lat="70.09125938630744" lon="30.100758362138947" id="-33013">
		<tag k="name" v="Lilleelva" />
		<tag k="ssr:date" v="2021-09-07" />
		<tag k="ssr:gruppe" v="veg" />
		<tag k="ssr:hovedgruppe" v="infrastruktur" />
		<tag k="ssr:stedsnr" v="1082118" />
		<tag k="ssr:type" v="adressenavn" />
	</node>
	<node lat="70.12103457898273" lon="29.339457891260526" id="-33014">
		<tag k="name" v="Brentefjellveien" />
		<tag k="ssr:date" v="2021-09-20" />
		<tag k="ssr:gruppe" v="veg" />
		<tag k="ssr:hovedgruppe" v="infrastruktur" />
		<tag k="ssr:stedsnr" v="1082390" />
		<tag k="ssr:type" v="adressenavn" />
	</node>
	<node id="-847309" lat="70.0766199351" lon="30.1020574537">
		<tag k="name" v="Vestre Været" />
		<tag k="ssr:date" v="2019-12-27" />
		<tag k="ssr:gruppe" v="veg" />
		<tag k="ssr:hovedgruppe" v="infrastruktur" />
		<tag k="ssr:stedsnr" v="1056798" />
		<tag k="ssr:type" v="adressenavn" />
	</node>
	<node id="-847308" lat="70.0761893977" lon="30.1030719494">
		<tag k="name" v="Østre Været" />
		<tag k="ssr:date" v="2019-12-27" />
		<tag k="ssr:gruppe" v="veg" />
		<tag k="ssr:hovedgruppe" v="infrastruktur" />
		<tag k="ssr:stedsnr" v="1056797" />
		<tag k="ssr:type" v="adressenavn" />
	</node>
	<node id="-847307" lat="70.0721265169" lon="29.7556900252">
		<tag k="name" v="Øyaveien" />
		<tag k="ssr:date" v="2019-12-27" />
		<tag k="ssr:gruppe" v="veg" />
		<tag k="ssr:hovedgruppe" v="infrastruktur" />
		<tag k="ssr:stedsnr" v="1056796" />
		<tag k="ssr:type" v="adressenavn" />
	</node>
	<node id="-847306" lat="70.0852640851" lon="29.7525492006">
		<tag k="name" v="Glassbergveien" />
		<tag k="ssr:date" v="2019-12-27" />
		<tag k="ssr:gruppe" v="veg" />
		<tag k="ssr:hovedgruppe" v="infrastruktur" />
		<tag k="ssr:stedsnr" v="1056795" />
		<tag k="ssr:type" v="adressenavn" />
	</node>
	<node id="-847305" lat="70.0822777183" lon="29.7486377016">
		<tag k="name" v="Nyjordet" />
		<tag k="ssr:date" v="2019-12-27" />
		<tag k="ssr:gruppe" v="veg" />
		<tag k="ssr:hovedgruppe" v="infrastruktur" />
		<tag k="ssr:stedsnr" v="1056794" />
		<tag k="ssr:type" v="adressenavn" />
	</node>
	<node id="-847184" lat="70.0734055969" lon="29.731495778">
		<tag k="name" v="Vadsø, indre havn, NV.re" />
		<tag k="ssr:date" v="2019-12-27" />
		<tag k="ssr:gruppe" v="navigasjon" />
		<tag k="ssr:hovedgruppe" v="infrastruktur" />
		<tag k="ssr:stedsnr" v="647225" />
		<tag k="ssr:type" v="lanterne" />
	</node>
	<node id="-846763" lat="70.0747028269" lon="29.7153430058">
		<tag k="name" v="Vadsø havn" />
		<tag k="ssr:date" v="2019-12-27" />
		<tag k="ssr:gruppe" v="navigasjon" />
		<tag k="ssr:hovedgruppe" v="infrastruktur" />
		<tag k="ssr:stedsnr" v="890210" />
		<tag k="ssr:type" v="fyrlykt" />
	</node>
	<node id="-846506" lat="70.1069972586" lon="29.3258320955">
		<tag k="name" v="Jakobselv" />
		<tag k="ssr:date" v="2019-12-27" />
		<tag k="ssr:gruppe" v="navigasjon" />
		<tag k="ssr:hovedgruppe" v="infrastruktur" />
		<tag k="ssr:stedsnr" v="291974" />
		<tag k="ssr:type" v="fyrlykt" />
	</node>
	<node id="-846505" lat="70.0709111645" lon="30.093826101">
		<tag k="name" v="Store Ekkerøy" />
		<tag k="ssr:date" v="2019-12-27" />
		<tag k="ssr:gruppe" v="navigasjon" />
		<tag k="ssr:hovedgruppe" v="infrastruktur" />
		<tag k="ssr:stedsnr" v="283159" />
		<tag k="ssr:type" v="lanterne" />
	</node>
	<node id="-847269" lat="70.1350111562" lon="29.7717207822">
		<tag k="name" v="Várjjat" />
		<tag k="name:se" v="Várjjat" />
		<tag k="ssr:date" v="2019-12-27" />
		<tag k="ssr:gruppe" v="terrengområder" />
		<tag k="ssr:hovedgruppe" v="terreng" />
		<tag k="ssr:stedsnr" v="822489" />
		<tag k="ssr:type" v="landskapsområde" />
	</node>
	<node id="-846613" lat="70.0856722699" lon="29.7232180156">
		<tag k="name" v="Tråkket" />
		<tag k="ssr:date" v="2019-12-27" />
		<tag k="ssr:gruppe" v="veg" />
		<tag k="ssr:hovedgruppe" v="infrastruktur" />
		<tag k="ssr:stedsnr" v="516211" />
		<tag k="ssr:type" v="adressenavn" />
	</node>
	<node id="-846849" lat="70.074130602" lon="29.7486235437">
		<tag k="name" v="Vadsø kommune" />
		<tag k="ssr:date" v="2019-12-27" />
		<tag k="ssr:gruppe" v="administrativeIndelinger" />
		<tag k="ssr:hovedgruppe" v="offentligAdministrasjon" />
		<tag k="ssr:stedsnr" v="24682" />
		<tag k="ssr:type" v="kommune" />
	</node>
</osm>
