<?xml version="1.0" encoding="UTF-8"?>
<osm generator="osmapis" version="0.6">
	<node id="-162558" lat="60.1202972264" lon="10.2330944451">
		<tag k="name" v="Gamle Holeveien" />
		<tag k="ssr:date" v="2019-05-31" />
		<tag k="ssr:gruppe" v="veg" />
		<tag k="ssr:hovedgruppe" v="infrastruktur" />
		<tag k="ssr:stedsnr" v="391288" />
		<tag k="ssr:type" v="adressenavn" />
	</node>
	<node id="-164091" lat="60.635363892" lon="9.99928333362">
		<tag k="name" v="Gråhattveien" />
		<tag k="ssr:date" v="2019-05-31" />
		<tag k="ssr:gruppe" v="veg" />
		<tag k="ssr:hovedgruppe" v="infrastruktur" />
		<tag k="ssr:stedsnr" v="239289" />
		<tag k="ssr:type" v="adressenavn" />
	</node>
	<node id="-166394" lat="60.169716665" lon="10.2168305544">
		<tag k="name" v="Bergensbanen" />
		<tag k="ssr:date" v="2016-05-11" />
		<tag k="ssr:gruppe" v="bane" />
		<tag k="ssr:hovedgruppe" v="infrastruktur" />
		<tag k="ssr:stedsnr" v="815010" />
		<tag k="ssr:type" v="banestrekning" />
	</node>
	<node id="-161904" lat="60.0801027797" lon="10.4513333271">
		<tag k="name" v="Noreledningen" />
		<tag k="ssr:date" v="2016-05-10" />
		<tag k="ssr:gruppe" v="energi" />
		<tag k="ssr:hovedgruppe" v="infrastruktur" />
		<tag k="ssr:stedsnr" v="270898" />
		<tag k="ssr:type" v="kraftledning" />
	</node>
	<node id="-165344" lat="60.291674998" lon="10.048794446">
		<tag k="name" v="Ringerike" />
		<tag k="ssr:date" v="2016-05-10" />
		<tag k="ssr:gruppe" v="terrengområder" />
		<tag k="ssr:hovedgruppe" v="terreng" />
		<tag k="ssr:stedsnr" v="630844" />
		<tag k="ssr:type" v="landskapsområde" />
	</node>
	<node id="-165844" lat="60.2096611147" lon="9.87863888878">
		<tag k="name" v="Skalpliveien" />
		<tag k="ssr:date" v="2016-05-11" />
		<tag k="ssr:gruppe" v="veg" />
		<tag k="ssr:hovedgruppe" v="infrastruktur" />
		<tag k="ssr:stedsnr" v="697165" />
		<tag k="ssr:type" v="vegstrekning" />
	</node>
	<node id="-164750" lat="60.2320222229" lon="10.2469666645">
		<tag k="name" v="Randsfjordbanen" />
		<tag k="ssr:date" v="2016-05-10" />
		<tag k="ssr:gruppe" v="bane" />
		<tag k="ssr:hovedgruppe" v="infrastruktur" />
		<tag k="ssr:stedsnr" v="511795" />
		<tag k="ssr:type" v="banestrekning" />
	</node>
	<node id="-162254" lat="60.2535474599" lon="9.9349321391">
		<tag k="name" v="Tyttebærstien" />
		<tag k="ssr:date" v="2019-05-31" />
		<tag k="ssr:gruppe" v="veg" />
		<tag k="ssr:hovedgruppe" v="infrastruktur" />
		<tag k="ssr:stedsnr" v="1046109" />
		<tag k="ssr:type" v="adressenavn" />
	</node>
	<node id="-162253" lat="60.253260546" lon="9.93398933017">
		<tag k="name" v="Tyttebærsvingen" />
		<tag k="ssr:date" v="2019-05-31" />
		<tag k="ssr:gruppe" v="veg" />
		<tag k="ssr:hovedgruppe" v="infrastruktur" />
		<tag k="ssr:stedsnr" v="1046108" />
		<tag k="ssr:type" v="adressenavn" />
	</node>
	<node id="-165701" lat="60.1682194469" lon="10.2714694508">
		<tag k="name" v="Dr. Bryhns vei" />
		<tag k="ssr:date" v="2019-05-30" />
		<tag k="ssr:gruppe" v="veg" />
		<tag k="ssr:hovedgruppe" v="infrastruktur" />
		<tag k="ssr:stedsnr" v="692697" />
		<tag k="ssr:type" v="adressenavn" />
	</node>
	<node id="-166090" lat="60.2175944402" lon="10.37244444">
		<tag k="name" v="Kistefossveien" />
		<tag k="ssr:date" v="2019-05-30" />
		<tag k="ssr:gruppe" v="veg" />
		<tag k="ssr:hovedgruppe" v="infrastruktur" />
		<tag k="ssr:stedsnr" v="755795" />
		<tag k="ssr:type" v="adressenavn" />
	</node>
	<node id="-161989" lat="60.1673232476" lon="10.2556582277">
		<tag k="name" v="Brutorget" />
		<tag k="ssr:date" v="2019-05-30" />
		<tag k="ssr:gruppe" v="veg" />
		<tag k="ssr:hovedgruppe" v="infrastruktur" />
		<tag k="ssr:stedsnr" v="1036445" />
		<tag k="ssr:type" v="adressenavn" />
	</node>
	<node id="-167220" lat="60.4297603479" lon="9.99033141456">
		<tag k="name" v="Halvorselvlia" />
		<tag k="ssr:date" v="2019-05-31" />
		<tag k="ssr:gruppe" v="veg" />
		<tag k="ssr:hovedgruppe" v="infrastruktur" />
		<tag k="ssr:stedsnr" v="975277" />
		<tag k="ssr:type" v="adressenavn" />
	</node>
	<node id="-167091" lat="60.2222472211" lon="10.3145861059">
		<tag k="name" v="Viulpensen" />
		<tag k="ssr:date" v="2016-05-11" />
		<tag k="ssr:gruppe" v="bane" />
		<tag k="ssr:hovedgruppe" v="infrastruktur" />
		<tag k="ssr:stedsnr" v="937985" />
		<tag k="ssr:type" v="banestrekning" />
	</node>
	<node id="-167218" lat="60.3747936445" lon="9.99325101941">
		<tag k="name" v="Høgfjell" />
		<tag k="ssr:date" v="2019-05-31" />
		<tag k="ssr:gruppe" v="veg" />
		<tag k="ssr:hovedgruppe" v="infrastruktur" />
		<tag k="ssr:stedsnr" v="975269" />
		<tag k="ssr:type" v="adressenavn" />
	</node>
	<node id="-167219" lat="60.4369911727" lon="9.97661514644">
		<tag k="name" v="Strandeelvlia" />
		<tag k="ssr:date" v="2019-05-31" />
		<tag k="ssr:gruppe" v="veg" />
		<tag k="ssr:hovedgruppe" v="infrastruktur" />
		<tag k="ssr:stedsnr" v="975276" />
		<tag k="ssr:type" v="adressenavn" />
	</node>
	<node id="-167217" lat="60.5908609473" lon="9.63819281559">
		<tag k="fixme" v="multiple name tags, choose one and add the other to alt_name" />
		<tag k="name" v="Austlandet;Østlandet" />
		<tag k="ssr:date" v="2018-01-09" />
		<tag k="ssr:gruppe" v="administrativeIndelinger" />
		<tag k="ssr:hovedgruppe" v="offentligAdministrasjon" />
		<tag k="ssr:stedsnr" v="974775" />
		<tag k="ssr:type" v="annenAdministrativInndeling" />
	</node>
	<node id="-165026" lat="60.1599916684" lon="10.34089444">
		<tag k="name" v="Holsledningen" />
		<tag k="ssr:date" v="2016-05-10" />
		<tag k="ssr:gruppe" v="energi" />
		<tag k="ssr:hovedgruppe" v="infrastruktur" />
		<tag k="ssr:stedsnr" v="570854" />
		<tag k="ssr:type" v="kraftledning" />
	</node>
	<node id="-165025" lat="60.1601777767" lon="10.2565972172">
		<tag k="name" v="Ringerike kommune" />
		<tag k="ssr:date" v="2016-05-10" />
		<tag k="ssr:gruppe" v="administrativeIndelinger" />
		<tag k="ssr:hovedgruppe" v="offentligAdministrasjon" />
		<tag k="ssr:stedsnr" v="570713" />
		<tag k="ssr:type" v="kommune" />
	</node>
	<node id="-162717" lat="60.4435288124" lon="9.98019161062">
		<tag k="name" v="Fisketjern" />
		<tag k="ssr:date" v="2019-05-31" />
		<tag k="ssr:gruppe" v="veg" />
		<tag k="ssr:hovedgruppe" v="infrastruktur" />
		<tag k="ssr:stedsnr" v="983702" />
		<tag k="ssr:type" v="adressenavn" />
	</node>
	<node id="-162716" lat="60.4474936776" lon="9.95726432655">
		<tag k="name" v="Vikersetra" />
		<tag k="ssr:date" v="2019-05-31" />
		<tag k="ssr:gruppe" v="veg" />
		<tag k="ssr:hovedgruppe" v="infrastruktur" />
		<tag k="ssr:stedsnr" v="983701" />
		<tag k="ssr:type" v="adressenavn" />
	</node>
	<node id="-162715" lat="60.1587767657" lon="10.2494601453">
		<tag k="name" v="Benterudbredden" />
		<tag k="ssr:date" v="2019-05-31" />
		<tag k="ssr:gruppe" v="veg" />
		<tag k="ssr:hovedgruppe" v="infrastruktur" />
		<tag k="ssr:stedsnr" v="983697" />
		<tag k="ssr:type" v="adressenavn" />
	</node>
	<node id="-162713" lat="60.3509461394" lon="10.022626433">
		<tag k="name" v="Bjønnefaret" />
		<tag k="ssr:date" v="2019-05-31" />
		<tag k="ssr:gruppe" v="veg" />
		<tag k="ssr:hovedgruppe" v="infrastruktur" />
		<tag k="ssr:stedsnr" v="983423" />
		<tag k="ssr:type" v="adressenavn" />
	</node>
	<node id="-162198" lat="60.165163887" lon="10.2415944481">
		<tag k="name" v="Johnsebakken" />
		<tag k="ssr:date" v="2019-05-30" />
		<tag k="ssr:gruppe" v="veg" />
		<tag k="ssr:hovedgruppe" v="infrastruktur" />
		<tag k="ssr:stedsnr" v="329326" />
		<tag k="ssr:type" v="adressenavn" />
	</node>
	<node id="-164249" lat="60.0601388852" lon="9.96644721495">
		<tag k="name" v="Gravermoveien" />
		<tag k="ssr:date" v="2019-05-31" />
		<tag k="ssr:gruppe" v="veg" />
		<tag k="ssr:hovedgruppe" v="infrastruktur" />
		<tag k="ssr:stedsnr" v="424927" />
		<tag k="ssr:type" v="adressenavn" />
	</node>
	<node id="-163731" lat="60.3734888909" lon="9.81952221811">
		<tag k="name" v="Aureveien" />
		<tag k="ssr:date" v="2019-05-30" />
		<tag k="ssr:gruppe" v="veg" />
		<tag k="ssr:hovedgruppe" v="infrastruktur" />
		<tag k="ssr:stedsnr" v="150986" />
		<tag k="ssr:type" v="adressenavn" />
	</node>
	<node id="-162702" lat="60.087175814" lon="10.0999987381">
		<tag k="name" v="Sagtomta" />
		<tag k="ssr:date" v="2019-12-09" />
		<tag k="ssr:gruppe" v="veg" />
		<tag k="ssr:hovedgruppe" v="infrastruktur" />
		<tag k="ssr:stedsnr" v="1073894" />
		<tag k="ssr:type" v="adressenavn" />
	</node>
	<node id="-162701" lat="60.2744474605" lon="10.1849283624">
		<tag k="name" v="Ole Nilsedalens vei" />
		<tag k="ssr:date" v="2019-12-02" />
		<tag k="ssr:gruppe" v="veg" />
		<tag k="ssr:hovedgruppe" v="infrastruktur" />
		<tag k="ssr:stedsnr" v="1073617" />
		<tag k="ssr:type" v="adressenavn" />
	</node>
	<node id="-162699" lat="60.2193088776" lon="9.88825486354">
		<tag k="name" v="Skalpelivegen" />
		<tag k="ssr:date" v="2019-11-14" />
		<tag k="ssr:gruppe" v="veg" />
		<tag k="ssr:hovedgruppe" v="infrastruktur" />
		<tag k="ssr:stedsnr" v="1073257" />
		<tag k="ssr:type" v="vegstrekning" />
	</node>
	<node id="-166154" lat="60.2105325058" lon="9.93453902272">
		<tag k="name" v="Kittelsbymasta" />
		<tag k="ssr:date" v="2019-06-13" />
		<tag k="ssr:gruppe" v="energi" />
		<tag k="ssr:hovedgruppe" v="infrastruktur" />
		<tag k="ssr:stedsnr" v="757649" />
		<tag k="ssr:type" v="kraftledning" />
	</node>
</osm>
