<?xml version="1.0" encoding="UTF-8"?>
<osm generator="osmapis" version="0.6">
	<node id="-105059" lat="61.1163055518" lon="10.4622472129">
		<tag k="name" v="Oppland fylke" />
		<tag k="ssr:date" v="2016-05-10" />
		<tag k="ssr:gruppe" v="administrativeIndelinger" />
		<tag k="ssr:hovedgruppe" v="offentligAdministrasjon" />
		<tag k="ssr:stedsnr" v="24539" />
		<tag k="ssr:type" v="fylke" />
	</node>
	<node id="-104890" lat="61.1146333325" lon="10.4674222164">
		<tag k="name" v="Lillehammer kommune" />
		<tag k="ssr:date" v="2016-05-10" />
		<tag k="ssr:gruppe" v="administrativeIndelinger" />
		<tag k="ssr:hovedgruppe" v="offentligAdministrasjon" />
		<tag k="ssr:stedsnr" v="390094" />
		<tag k="ssr:type" v="kommune" />
	</node>
	<node id="-106182" lat="60.5908609473" lon="9.63819281559">
		<tag k="fixme" v="multiple name tags, choose one and add the other to alt_name" />
		<tag k="name" v="Austlandet;Østlandet" />
		<tag k="ssr:date" v="2018-01-09" />
		<tag k="ssr:gruppe" v="administrativeIndelinger" />
		<tag k="ssr:hovedgruppe" v="offentligAdministrasjon" />
		<tag k="ssr:stedsnr" v="974775" />
		<tag k="ssr:type" v="annenAdministrativInndeling" />
	</node>
	<node id="-105021" lat="61.1029519165" lon="10.4648165106">
		<tag k="name" v="Dampsaglia" />
		<tag k="ssr:date" v="2019-05-30" />
		<tag k="ssr:gruppe" v="veg" />
		<tag k="ssr:hovedgruppe" v="infrastruktur" />
		<tag k="ssr:stedsnr" v="1018892" />
		<tag k="ssr:type" v="adressenavn" />
	</node>
	<node id="-105020" lat="61.1311945454" lon="10.4782551883">
		<tag k="name" v="Ersgårdsvingen" />
		<tag k="ssr:date" v="2019-05-30" />
		<tag k="ssr:gruppe" v="veg" />
		<tag k="ssr:hovedgruppe" v="infrastruktur" />
		<tag k="ssr:stedsnr" v="1018890" />
		<tag k="ssr:type" v="adressenavn" />
	</node>
	<node id="-105019" lat="61.0869830097" lon="10.4828680263">
		<tag k="name" v="Flugsrudvegen" />
		<tag k="ssr:date" v="2019-05-30" />
		<tag k="ssr:gruppe" v="veg" />
		<tag k="ssr:hovedgruppe" v="infrastruktur" />
		<tag k="ssr:stedsnr" v="1018886" />
		<tag k="ssr:type" v="adressenavn" />
	</node>
	<node id="-105018" lat="61.083962339" lon="10.4925820041">
		<tag k="name" v="Galterudskogen" />
		<tag k="ssr:date" v="2019-05-30" />
		<tag k="ssr:gruppe" v="veg" />
		<tag k="ssr:hovedgruppe" v="infrastruktur" />
		<tag k="ssr:stedsnr" v="1018884" />
		<tag k="ssr:type" v="adressenavn" />
	</node>
	<node id="-105017" lat="61.0820763047" lon="10.4742026397">
		<tag k="name" v="Ånnerudgutua" />
		<tag k="ssr:date" v="2019-05-30" />
		<tag k="ssr:gruppe" v="veg" />
		<tag k="ssr:hovedgruppe" v="infrastruktur" />
		<tag k="ssr:stedsnr" v="1018882" />
		<tag k="ssr:type" v="adressenavn" />
	</node>
	<node id="-105016" lat="61.0822368625" lon="10.4752633843">
		<tag k="name" v="Halvorstuvegen" />
		<tag k="ssr:date" v="2019-05-30" />
		<tag k="ssr:gruppe" v="veg" />
		<tag k="ssr:hovedgruppe" v="infrastruktur" />
		<tag k="ssr:stedsnr" v="1018880" />
		<tag k="ssr:type" v="adressenavn" />
	</node>
	<node id="-105015" lat="61.0831902387" lon="10.4900887785">
		<tag k="name" v="Galterudkvea" />
		<tag k="ssr:date" v="2019-05-30" />
		<tag k="ssr:gruppe" v="veg" />
		<tag k="ssr:hovedgruppe" v="infrastruktur" />
		<tag k="ssr:stedsnr" v="1018878" />
		<tag k="ssr:type" v="adressenavn" />
	</node>
	<node id="-105014" lat="61.082931933" lon="10.4889373013">
		<tag k="name" v="Galterudringen" />
		<tag k="ssr:date" v="2019-05-30" />
		<tag k="ssr:gruppe" v="veg" />
		<tag k="ssr:hovedgruppe" v="infrastruktur" />
		<tag k="ssr:stedsnr" v="1018874" />
		<tag k="ssr:type" v="adressenavn" />
	</node>
	<node id="-105013" lat="61.1749880225" lon="10.6156220237">
		<tag k="name" v="Krøtterråket" />
		<tag k="ssr:date" v="2019-05-30" />
		<tag k="ssr:gruppe" v="veg" />
		<tag k="ssr:hovedgruppe" v="infrastruktur" />
		<tag k="ssr:stedsnr" v="1018861" />
		<tag k="ssr:type" v="adressenavn" />
	</node>
	<node id="-105012" lat="61.1822851196" lon="10.6128856562">
		<tag k="name" v="Grøtåssetervegen" />
		<tag k="ssr:date" v="2019-05-30" />
		<tag k="ssr:gruppe" v="veg" />
		<tag k="ssr:hovedgruppe" v="infrastruktur" />
		<tag k="ssr:stedsnr" v="1018857" />
		<tag k="ssr:type" v="adressenavn" />
	</node>
	<node id="-105011" lat="61.1708259215" lon="10.6163796263">
		<tag k="name" v="Vintervegen" />
		<tag k="ssr:date" v="2019-05-30" />
		<tag k="ssr:gruppe" v="veg" />
		<tag k="ssr:hovedgruppe" v="infrastruktur" />
		<tag k="ssr:stedsnr" v="1018854" />
		<tag k="ssr:type" v="adressenavn" />
	</node>
	<node id="-105010" lat="61.1669930528" lon="10.6198895246">
		<tag k="name" v="Seterskogen" />
		<tag k="ssr:date" v="2019-05-30" />
		<tag k="ssr:gruppe" v="veg" />
		<tag k="ssr:hovedgruppe" v="infrastruktur" />
		<tag k="ssr:stedsnr" v="1018845" />
		<tag k="ssr:type" v="adressenavn" />
	</node>
	<node id="-105009" lat="61.0862373934" lon="10.4848685708">
		<tag k="name" v="Flugsrudkroken" />
		<tag k="ssr:date" v="2019-05-30" />
		<tag k="ssr:gruppe" v="veg" />
		<tag k="ssr:hovedgruppe" v="infrastruktur" />
		<tag k="ssr:stedsnr" v="1018839" />
		<tag k="ssr:type" v="adressenavn" />
	</node>
	<node id="-105008" lat="61.1356400893" lon="10.4811803886">
		<tag k="name" v="Sagbakken" />
		<tag k="ssr:date" v="2019-05-30" />
		<tag k="ssr:gruppe" v="veg" />
		<tag k="ssr:hovedgruppe" v="infrastruktur" />
		<tag k="ssr:stedsnr" v="1018837" />
		<tag k="ssr:type" v="adressenavn" />
	</node>
	<node id="-105007" lat="61.1385208445" lon="10.4642362234">
		<tag k="name" v="Malmvegen" />
		<tag k="ssr:date" v="2019-05-30" />
		<tag k="ssr:gruppe" v="veg" />
		<tag k="ssr:hovedgruppe" v="infrastruktur" />
		<tag k="ssr:stedsnr" v="1018835" />
		<tag k="ssr:type" v="adressenavn" />
	</node>
	<node id="-105006" lat="61.1115864148" lon="10.6070403737">
		<tag k="name" v="Mesnasagvegen" />
		<tag k="ssr:date" v="2019-05-30" />
		<tag k="ssr:gruppe" v="veg" />
		<tag k="ssr:hovedgruppe" v="infrastruktur" />
		<tag k="ssr:stedsnr" v="1018787" />
		<tag k="ssr:type" v="adressenavn" />
	</node>
	<node id="-105005" lat="61.1242373465" lon="10.5712388841">
		<tag k="name" v="Mesnaelva" />
		<tag k="ssr:date" v="2019-05-30" />
		<tag k="ssr:gruppe" v="veg" />
		<tag k="ssr:hovedgruppe" v="infrastruktur" />
		<tag k="ssr:stedsnr" v="1018785" />
		<tag k="ssr:type" v="adressenavn" />
	</node>
	<node id="-105004" lat="61.0464788409" lon="10.4232608099">
		<tag k="name" v="Haugerenga" />
		<tag k="ssr:date" v="2019-05-30" />
		<tag k="ssr:gruppe" v="veg" />
		<tag k="ssr:hovedgruppe" v="infrastruktur" />
		<tag k="ssr:stedsnr" v="1018774" />
		<tag k="ssr:type" v="adressenavn" />
	</node>
	<node id="-105003" lat="61.0468553719" lon="10.4235988202">
		<tag k="name" v="Haugertunet" />
		<tag k="ssr:date" v="2019-05-30" />
		<tag k="ssr:gruppe" v="veg" />
		<tag k="ssr:hovedgruppe" v="infrastruktur" />
		<tag k="ssr:stedsnr" v="1018771" />
		<tag k="ssr:type" v="adressenavn" />
	</node>
	<node id="-105002" lat="61.1117813391" lon="10.3118306302">
		<tag k="name" v="Midttunvegen" />
		<tag k="ssr:date" v="2019-05-30" />
		<tag k="ssr:gruppe" v="veg" />
		<tag k="ssr:hovedgruppe" v="infrastruktur" />
		<tag k="ssr:stedsnr" v="1018769" />
		<tag k="ssr:type" v="adressenavn" />
	</node>
	<node id="-105001" lat="61.1753014275" lon="10.6172000947">
		<tag k="name" v="Fjellkirkevegen" />
		<tag k="ssr:date" v="2019-05-30" />
		<tag k="ssr:gruppe" v="veg" />
		<tag k="ssr:hovedgruppe" v="infrastruktur" />
		<tag k="ssr:stedsnr" v="1018767" />
		<tag k="ssr:type" v="adressenavn" />
	</node>
	<node id="-105000" lat="61.0883178909" lon="10.4617346461">
		<tag k="name" v="Mjøsstranda" />
		<tag k="ssr:date" v="2019-05-30" />
		<tag k="ssr:gruppe" v="veg" />
		<tag k="ssr:hovedgruppe" v="infrastruktur" />
		<tag k="ssr:stedsnr" v="1018764" />
		<tag k="ssr:type" v="adressenavn" />
	</node>
	<node id="-104999" lat="61.1002227477" lon="10.4651967217">
		<tag k="name" v="Mailundvegen" />
		<tag k="ssr:date" v="2019-05-30" />
		<tag k="ssr:gruppe" v="veg" />
		<tag k="ssr:hovedgruppe" v="infrastruktur" />
		<tag k="ssr:stedsnr" v="1018762" />
		<tag k="ssr:type" v="adressenavn" />
	</node>
	<node id="-104998" lat="61.0972119576" lon="10.4753521934">
		<tag k="name" v="Solheimsvegen" />
		<tag k="ssr:date" v="2019-05-30" />
		<tag k="ssr:gruppe" v="veg" />
		<tag k="ssr:hovedgruppe" v="infrastruktur" />
		<tag k="ssr:stedsnr" v="1018663" />
		<tag k="ssr:type" v="adressenavn" />
	</node>
	<node id="-104997" lat="61.1275487432" lon="10.4411219912">
		<tag k="name" v="Svarstadjordet" />
		<tag k="ssr:date" v="2019-05-30" />
		<tag k="ssr:gruppe" v="veg" />
		<tag k="ssr:hovedgruppe" v="infrastruktur" />
		<tag k="ssr:stedsnr" v="1018655" />
		<tag k="ssr:type" v="adressenavn" />
	</node>
	<node id="-104996" lat="61.1250906056" lon="10.4413516081">
		<tag k="name" v="Sandheimsbakken" />
		<tag k="ssr:date" v="2019-05-30" />
		<tag k="ssr:gruppe" v="veg" />
		<tag k="ssr:hovedgruppe" v="infrastruktur" />
		<tag k="ssr:stedsnr" v="1018653" />
		<tag k="ssr:type" v="adressenavn" />
	</node>
	<node id="-104995" lat="61.1276591477" lon="10.4430544413">
		<tag k="name" v="Moengvegen" />
		<tag k="ssr:date" v="2019-05-30" />
		<tag k="ssr:gruppe" v="veg" />
		<tag k="ssr:hovedgruppe" v="infrastruktur" />
		<tag k="ssr:stedsnr" v="1018651" />
		<tag k="ssr:type" v="adressenavn" />
	</node>
	<node id="-104994" lat="61.136242534" lon="10.4772858239">
		<tag k="name" v="Skårsetrønningen" />
		<tag k="ssr:date" v="2019-05-30" />
		<tag k="ssr:gruppe" v="veg" />
		<tag k="ssr:hovedgruppe" v="infrastruktur" />
		<tag k="ssr:stedsnr" v="1018647" />
		<tag k="ssr:type" v="adressenavn" />
	</node>
	<node id="-104993" lat="61.1368951344" lon="10.4644445486">
		<tag k="name" v="Jernvinna" />
		<tag k="ssr:date" v="2019-05-30" />
		<tag k="ssr:gruppe" v="veg" />
		<tag k="ssr:hovedgruppe" v="infrastruktur" />
		<tag k="ssr:stedsnr" v="1018644" />
		<tag k="ssr:type" v="adressenavn" />
	</node>
	<node id="-104992" lat="61.1701554233" lon="10.4583634313">
		<tag k="name" v="Gropmarka" />
		<tag k="ssr:date" v="2019-05-30" />
		<tag k="ssr:gruppe" v="veg" />
		<tag k="ssr:hovedgruppe" v="infrastruktur" />
		<tag k="ssr:stedsnr" v="1018451" />
		<tag k="ssr:type" v="adressenavn" />
	</node>
	<node id="-104991" lat="61.2326205984" lon="10.3970074167">
		<tag k="name" v="Hokna" />
		<tag k="ssr:date" v="2019-05-30" />
		<tag k="ssr:gruppe" v="veg" />
		<tag k="ssr:hovedgruppe" v="infrastruktur" />
		<tag k="ssr:stedsnr" v="1018449" />
		<tag k="ssr:type" v="adressenavn" />
	</node>
	<node id="-104990" lat="61.1516429203" lon="10.6385456843">
		<tag k="name" v="Storkvanndalsvegen" />
		<tag k="ssr:date" v="2019-05-30" />
		<tag k="ssr:gruppe" v="veg" />
		<tag k="ssr:hovedgruppe" v="infrastruktur" />
		<tag k="ssr:stedsnr" v="1018447" />
		<tag k="ssr:type" v="adressenavn" />
	</node>
	<node id="-104989" lat="61.2121336195" lon="10.3803100548">
		<tag k="name" v="Baksetra" />
		<tag k="ssr:date" v="2019-05-30" />
		<tag k="ssr:gruppe" v="veg" />
		<tag k="ssr:hovedgruppe" v="infrastruktur" />
		<tag k="ssr:stedsnr" v="1018445" />
		<tag k="ssr:type" v="adressenavn" />
	</node>
	<node id="-104988" lat="61.1629193317" lon="10.2044458554">
		<tag k="name" v="Rindåsen" />
		<tag k="ssr:date" v="2019-05-30" />
		<tag k="ssr:gruppe" v="veg" />
		<tag k="ssr:hovedgruppe" v="infrastruktur" />
		<tag k="ssr:stedsnr" v="1018443" />
		<tag k="ssr:type" v="adressenavn" />
	</node>
	<node id="-104987" lat="61.1318910877" lon="10.3397805842">
		<tag k="name" v="Ruka" />
		<tag k="ssr:date" v="2019-05-30" />
		<tag k="ssr:gruppe" v="veg" />
		<tag k="ssr:hovedgruppe" v="infrastruktur" />
		<tag k="ssr:stedsnr" v="1018441" />
		<tag k="ssr:type" v="adressenavn" />
	</node>
	<node id="-104986" lat="61.1628614013" lon="10.2814964532">
		<tag k="name" v="Kinna" />
		<tag k="ssr:date" v="2019-05-30" />
		<tag k="ssr:gruppe" v="veg" />
		<tag k="ssr:hovedgruppe" v="infrastruktur" />
		<tag k="ssr:stedsnr" v="1018439" />
		<tag k="ssr:type" v="adressenavn" />
	</node>
	<node id="-104985" lat="61.1376098685" lon="10.2419996712">
		<tag k="name" v="Lille-Ulland" />
		<tag k="ssr:date" v="2019-05-30" />
		<tag k="ssr:gruppe" v="veg" />
		<tag k="ssr:hovedgruppe" v="infrastruktur" />
		<tag k="ssr:stedsnr" v="1018438" />
		<tag k="ssr:type" v="adressenavn" />
	</node>
	<node id="-104984" lat="61.0324764273" lon="10.4152557159">
		<tag k="name" v="Søre Vingromslia" />
		<tag k="ssr:date" v="2019-05-30" />
		<tag k="ssr:gruppe" v="veg" />
		<tag k="ssr:hovedgruppe" v="infrastruktur" />
		<tag k="ssr:stedsnr" v="1018436" />
		<tag k="ssr:type" v="adressenavn" />
	</node>
	<node id="-104983" lat="61.1602692862" lon="10.6551098207">
		<tag k="name" v="Øvre Heståsen" />
		<tag k="ssr:date" v="2019-05-30" />
		<tag k="ssr:gruppe" v="veg" />
		<tag k="ssr:hovedgruppe" v="infrastruktur" />
		<tag k="ssr:stedsnr" v="1018434" />
		<tag k="ssr:type" v="adressenavn" />
	</node>
	<node id="-104982" lat="61.211654171" lon="10.3868150929">
		<tag k="name" v="Storsvesetra" />
		<tag k="ssr:date" v="2019-05-30" />
		<tag k="ssr:gruppe" v="veg" />
		<tag k="ssr:hovedgruppe" v="infrastruktur" />
		<tag k="ssr:stedsnr" v="1018432" />
		<tag k="ssr:type" v="adressenavn" />
	</node>
	<node id="-104981" lat="61.1868659059" lon="10.2392501944">
		<tag k="name" v="Støla" />
		<tag k="ssr:date" v="2019-05-30" />
		<tag k="ssr:gruppe" v="veg" />
		<tag k="ssr:hovedgruppe" v="infrastruktur" />
		<tag k="ssr:stedsnr" v="1018430" />
		<tag k="ssr:type" v="adressenavn" />
	</node>
	<node id="-104980" lat="61.147626831" lon="10.4174999318">
		<tag k="name" v="Blåswixvegen" />
		<tag k="ssr:date" v="2019-05-30" />
		<tag k="ssr:gruppe" v="veg" />
		<tag k="ssr:hovedgruppe" v="infrastruktur" />
		<tag k="ssr:stedsnr" v="1018428" />
		<tag k="ssr:type" v="adressenavn" />
	</node>
	<node id="-104979" lat="61.1390514183" lon="10.4654233139">
		<tag k="name" v="Aurfaret" />
		<tag k="ssr:date" v="2019-05-30" />
		<tag k="ssr:gruppe" v="veg" />
		<tag k="ssr:hovedgruppe" v="infrastruktur" />
		<tag k="ssr:stedsnr" v="1018426" />
		<tag k="ssr:type" v="adressenavn" />
	</node>
	<node id="-104978" lat="61.1441347927" lon="10.4181460422">
		<tag k="name" v="Hovejordet" />
		<tag k="ssr:date" v="2019-05-30" />
		<tag k="ssr:gruppe" v="veg" />
		<tag k="ssr:hovedgruppe" v="infrastruktur" />
		<tag k="ssr:stedsnr" v="1018423" />
		<tag k="ssr:type" v="adressenavn" />
	</node>
	<node id="-104977" lat="61.1175548156" lon="10.4649718098">
		<tag k="name" v="Mesnakvartalet" />
		<tag k="ssr:date" v="2019-05-30" />
		<tag k="ssr:gruppe" v="veg" />
		<tag k="ssr:hovedgruppe" v="infrastruktur" />
		<tag k="ssr:stedsnr" v="1018422" />
		<tag k="ssr:type" v="adressenavn" />
	</node>
	<node id="-104976" lat="61.1745745412" lon="10.6128102845">
		<tag k="name" v="Leirvegen" />
		<tag k="ssr:date" v="2019-05-30" />
		<tag k="ssr:gruppe" v="veg" />
		<tag k="ssr:hovedgruppe" v="infrastruktur" />
		<tag k="ssr:stedsnr" v="1018418" />
		<tag k="ssr:type" v="adressenavn" />
	</node>
	<node id="-104975" lat="61.1715815786" lon="10.6130196138">
		<tag k="name" v="Sandhellinga" />
		<tag k="ssr:date" v="2019-05-30" />
		<tag k="ssr:gruppe" v="veg" />
		<tag k="ssr:hovedgruppe" v="infrastruktur" />
		<tag k="ssr:stedsnr" v="1018415" />
		<tag k="ssr:type" v="adressenavn" />
	</node>
</osm>
