<?xml version="1.0" encoding="UTF-8"?>
<osm version="0.6" generator="osmapis">
	<node lat="61.081752775231905" lon="4.771455552228353" id="-77974">
		<tag k="fixme" v="consider natural=peak for the most distinct mountains in the district" />
		<tag k="name" v="Vardefjellet" />
		<tag k="natural" v="hill" />
		<tag k="place" v="locality" />
		<tag k="ssr:stedsnr" v="9321" />
	</node>
	<node lat="61.1192250001764" lon="5.064341673637548" id="-77975">
		<tag k="name" v="Losnelia" />
		<tag k="natural" v="slope" />
		<tag k="place" v="locality" />
		<tag k="ssr:stedsnr" v="9334" />
	</node>
	<node lat="61.092558332542175" lon="4.938247222438138" id="-77976">
		<tag k="name" v="Lødalen" />
		<tag k="natural" v="valley" />
		<tag k="place" v="locality" />
		<tag k="ssr:stedsnr" v="9290" />
	</node>
	<node lat="61.13712499654955" lon="4.801691666329922" id="-77993">
		<tag k="fixme" v="consider natural=peak for the most distinct mountains in the district" />
		<tag k="name" v="Ramneskortinden" />
		<tag k="natural" v="hill" />
		<tag k="place" v="locality" />
		<tag k="ssr:stedsnr" v="43196" />
	</node>
	<node lat="61.19025832982585" lon="4.958961116198869" id="-77999">
		<tag k="name" v="Furedalen" />
		<tag k="natural" v="valley" />
		<tag k="place" v="locality" />
		<tag k="ssr:stedsnr" v="44388" />
	</node>
	<node lat="61.08739166619161" lon="4.877447231337184" id="-78007">
		<tag k="name" v="Dyttinga" />
		<tag k="natural" v="hill" />
		<tag k="place" v="locality" />
		<tag k="ssr:stedsnr" v="44829" />
	</node>
	<node lat="61.172163891803415" lon="4.8663888965221345" id="-78008">
		<tag k="name" v="Heiane" />
		<tag k="natural" v="hill" />
		<tag k="place" v="locality" />
		<tag k="ssr:stedsnr" v="44889" />
	</node>
	<node lat="61.18169166973965" lon="4.904308337088513" id="-78010">
		<tag k="name" v="Heiane" />
		<tag k="natural" v="hill" />
		<tag k="place" v="locality" />
		<tag k="ssr:stedsnr" v="44910" />
	</node>
	<node lat="61.09225277698076" lon="4.773511103522522" id="-78011">
		<tag k="name" v="Dyttingehaugane" />
		<tag k="natural" v="hill" />
		<tag k="place" v="locality" />
		<tag k="ssr:stedsnr" v="44972" />
	</node>
	<node lat="61.19050555686149" lon="4.998077774914895" id="-78012">
		<tag k="name" v="Ytre Blomlia" />
		<tag k="natural" v="slope" />
		<tag k="place" v="locality" />
		<tag k="ssr:stedsnr" v="45510" />
	</node>
	<node lat="61.1384611154463" lon="5.010900006016427" id="-78013">
		<tag k="name" v="Brendehaugen" />
		<tag k="natural" v="hill" />
		<tag k="place" v="locality" />
		<tag k="ssr:stedsnr" v="45476" />
	</node>
	<node lat="61.11379444628938" lon="4.942949999863118" id="-78014">
		<tag k="name" v="Smette" />
		<tag k="natural" v="valley" />
		<tag k="place" v="locality" />
		<tag k="ssr:stedsnr" v="45876" />
	</node>
	<node lat="61.06750277823747" lon="4.772875006871879" id="-78016">
		<tag k="alt_name" v="Store Nipa" />
		<tag k="fixme" v="consider natural=peak for the most distinct mountains in the district" />
		<tag k="name" v="Storenipa" />
		<tag k="natural" v="hill" />
		<tag k="place" v="locality" />
		<tag k="ssr:stedsnr" v="52272" />
	</node>
	<node lat="61.140830556523866" lon="4.871430564253642" id="-78018">
		<tag k="fixme" v="consider natural=peak for the most distinct mountains in the district" />
		<tag k="name" v="Storefjellet" />
		<tag k="natural" v="hill" />
		<tag k="place" v="locality" />
		<tag k="ssr:stedsnr" v="68543" />
	</node>
	<node lat="61.12767499843122" lon="4.9979722253273415" id="-78025">
		<tag k="fixme" v="consider natural=peak for the most distinct mountains in the district" />
		<tag k="name" v="Bergeheia" />
		<tag k="natural" v="hill" />
		<tag k="place" v="locality" />
		<tag k="ssr:stedsnr" v="70133" />
	</node>
	<node lat="61.13217222500893" lon="5.050255561834563" id="-78026">
		<tag k="name" v="Losnedalen" />
		<tag k="natural" v="valley" />
		<tag k="place" v="locality" />
		<tag k="ssr:stedsnr" v="70135" />
	</node>
	<node lat="61.14381388557169" lon="5.004408326250813" id="-78027">
		<tag k="fixme" v="consider natural=peak for the most distinct mountains in the district" />
		<tag k="name" v="Hamnafjellet" />
		<tag k="natural" v="hill" />
		<tag k="place" v="locality" />
		<tag k="ssr:stedsnr" v="70181" />
	</node>
	<node lat="61.1503055568609" lon="5.063275007804592" id="-78029">
		<tag k="alt_name" v="Kaldegjelet" />
		<tag k="name" v="Kaldegilet" />
		<tag k="natural" v="valley" />
		<tag k="place" v="locality" />
		<tag k="ssr:stedsnr" v="70193" />
	</node>
	<node lat="61.146722224902696" lon="4.8464916621046505" id="-78037">
		<tag k="fixme" v="consider natural=peak for the most distinct mountains in the district" />
		<tag k="name" v="Litlefjellet" />
		<tag k="natural" v="hill" />
		<tag k="place" v="locality" />
		<tag k="ssr:stedsnr" v="70210" />
	</node>
	<node lat="61.16262222029357" lon="5.039633331616226" id="-78039">
		<tag k="alt_name" v="Mainova" />
		<tag k="fixme" v="consider natural=peak for the most distinct mountains in the district" />
		<tag k="name" v="Meinova" />
		<tag k="natural" v="hill" />
		<tag k="place" v="locality" />
		<tag k="ssr:stedsnr" v="70225" />
	</node>
	<node lat="61.02557222605465" lon="4.734769448336313" id="-78044">
		<tag k="name" v="Askedalen" />
		<tag k="natural" v="valley" />
		<tag k="place" v="locality" />
		<tag k="ssr:stedsnr" v="70429" />
	</node>
	<node lat="61.051219446106856" lon="4.6970250081632505" id="-78050">
		<tag k="fixme" v="consider natural=peak for the most distinct mountains in the district" />
		<tag k="name" v="Ørnefjellet" />
		<tag k="natural" v="hill" />
		<tag k="place" v="locality" />
		<tag k="ssr:stedsnr" v="70777" />
	</node>
	<node lat="61.05224166761722" lon="4.679750003642341" id="-78061">
		<tag k="fixme" v="consider natural=peak for the most distinct mountains in the district" />
		<tag k="name" v="Marafjellet" />
		<tag k="natural" v="hill" />
		<tag k="place" v="locality" />
		<tag k="ssr:stedsnr" v="88617" />
	</node>
	<node lat="61.20413889291239" lon="4.9067250086847825" id="-78066">
		<tag k="fixme" v="consider natural=peak for the most distinct mountains in the district" />
		<tag k="name" v="Såtenipa" />
		<tag k="natural" v="hill" />
		<tag k="place" v="locality" />
		<tag k="ssr:stedsnr" v="104375" />
	</node>
	<node lat="61.19418610895816" lon="4.90342222859323" id="-78068">
		<tag k="name" v="Skjenebakkheia" />
		<tag k="natural" v="hill" />
		<tag k="place" v="locality" />
		<tag k="ssr:stedsnr" v="104392" />
	</node>
	<node lat="61.168938890720625" lon="5.008441669745886" id="-78072">
		<tag k="name" v="Slåttedalen" />
		<tag k="natural" v="valley" />
		<tag k="place" v="locality" />
		<tag k="ssr:stedsnr" v="105224" />
	</node>
	<node lat="61.15295000175242" lon="4.836427768549938" id="-78074">
		<tag k="fixme" v="consider natural=peak for the most distinct mountains in the district" />
		<tag k="name" v="Kvamsfjellet" />
		<tag k="natural" v="hill" />
		<tag k="place" v="locality" />
		<tag k="ssr:stedsnr" v="105178" />
	</node>
	<node lat="61.153038891995266" lon="4.858341672747964" id="-78075">
		<tag k="name" v="Håmundehaugen" />
		<tag k="natural" v="hill" />
		<tag k="place" v="locality" />
		<tag k="ssr:stedsnr" v="105188" />
	</node>
	<node lat="61.20305833742611" lon="4.973919439134534" id="-78077">
		<tag k="fixme" v="consider natural=peak for the most distinct mountains in the district" />
		<tag k="name" v="Dyreskorfjellet" />
		<tag k="natural" v="hill" />
		<tag k="place" v="locality" />
		<tag k="ssr:stedsnr" v="105341" />
	</node>
	<node lat="61.06357221963079" lon="4.789211115148723" id="-78079">
		<tag k="name" v="Klubbane" />
		<tag k="natural" v="hill" />
		<tag k="place" v="locality" />
		<tag k="ssr:stedsnr" v="105580" />
	</node>
	<node lat="61.05697499978485" lon="4.844044437048326" id="-78083">
		<tag k="name" v="Verehaugane" />
		<tag k="natural" v="hill" />
		<tag k="place" v="locality" />
		<tag k="ssr:stedsnr" v="105695" />
	</node>
	<node lat="61.096927779930816" lon="4.854622223525679" id="-78084">
		<tag k="name" v="Rustene" />
		<tag k="natural" v="hill" />
		<tag k="place" v="locality" />
		<tag k="ssr:stedsnr" v="105875" />
	</node>
	<node lat="61.12444166459989" lon="4.894199999574845" id="-78086">
		<tag k="fixme" v="consider natural=peak for the most distinct mountains in the district" />
		<tag k="name" v="Nova" />
		<tag k="natural" v="hill" />
		<tag k="place" v="locality" />
		<tag k="ssr:stedsnr" v="105880" />
	</node>
	<node lat="61.1715750001992" lon="4.900922228046877" id="-78087">
		<tag k="name" v="Randasete" />
		<tag k="natural" v="hill" />
		<tag k="place" v="locality" />
		<tag k="ssr:stedsnr" v="105912" />
	</node>
	<node lat="61.16684999581645" lon="4.972038885122845" id="-78089">
		<tag k="name" v="Heienden" />
		<tag k="natural" v="hill" />
		<tag k="place" v="locality" />
		<tag k="ssr:stedsnr" v="105996" />
	</node>
	<node lat="61.19074444628011" lon="4.999927769564588" id="-78090">
		<tag k="name" v="Indre Blomlia" />
		<tag k="natural" v="slope" />
		<tag k="place" v="locality" />
		<tag k="ssr:stedsnr" v="106508" />
	</node>
	<node lat="61.10840833202825" lon="4.904005550584304" id="-78091">
		<tag k="name" v="Hola" />
		<tag k="natural" v="gorge" />
		<tag k="ssr:stedsnr" v="106979" />
	</node>
	<node lat="61.14901944915698" lon="5.006855562805048" id="-78097">
		<tag k="name" v="Furedalen" />
		<tag k="natural" v="valley" />
		<tag k="place" v="locality" />
		<tag k="ssr:stedsnr" v="250518" />
	</node>
	<node lat="61.15951944598358" lon="4.832380553367087" id="-78118">
		<tag k="name" v="Vetrahaugen" />
		<tag k="natural" v="hill" />
		<tag k="place" v="locality" />
		<tag k="ssr:stedsnr" v="252013" />
	</node>
	<node lat="61.179872218106574" lon="4.993599991373624" id="-78125">
		<tag k="fixme" v="consider natural=peak for the most distinct mountains in the district" />
		<tag k="name" v="Skopefjellet" />
		<tag k="natural" v="hill" />
		<tag k="place" v="locality" />
		<tag k="ssr:stedsnr" v="252042" />
	</node>
	<node lat="61.1975055559526" lon="4.996722213521979" id="-78130">
		<tag k="alt_name" v="Kraksnova" />
		<tag k="fixme" v="consider natural=peak for the most distinct mountains in the district" />
		<tag k="name" v="Krakksnova" />
		<tag k="natural" v="hill" />
		<tag k="place" v="locality" />
		<tag k="ssr:stedsnr" v="252078" />
	</node>
	<node lat="61.12327500123463" lon="4.99143056403467" id="-78132">
		<tag k="fixme" v="consider natural=peak for the most distinct mountains in the district" />
		<tag k="name" v="Medfjellet" />
		<tag k="natural" v="hill" />
		<tag k="place" v="locality" />
		<tag k="ssr:stedsnr" v="252115" />
	</node>
	<node lat="61.13411944736992" lon="5.008588882855071" id="-78134">
		<tag k="fixme" v="consider natural=peak for the most distinct mountains in the district" />
		<tag k="name" v="Husefjellet" />
		<tag k="natural" v="hill" />
		<tag k="place" v="locality" />
		<tag k="ssr:stedsnr" v="252126" />
	</node>
	<node lat="61.13456111347248" lon="4.806261119362548" id="-78137">
		<tag k="fixme" v="consider natural=peak for the most distinct mountains in the district" />
		<tag k="name" v="Hågøytinden" />
		<tag k="natural" v="hill" />
		<tag k="place" v="locality" />
		<tag k="ssr:stedsnr" v="252187" />
	</node>
	<node lat="61.15181389152728" lon="4.909750003449817" id="-78138">
		<tag k="fixme" v="consider natural=peak for the most distinct mountains in the district" />
		<tag k="name" v="Djupevikfjellet" />
		<tag k="natural" v="hill" />
		<tag k="place" v="locality" />
		<tag k="ssr:stedsnr" v="252188" />
	</node>
	<node lat="61.139588891243854" lon="4.96566944715713" id="-78140">
		<tag k="fixme" v="consider natural=peak for the most distinct mountains in the district" />
		<tag k="name" v="Gaddefjellet" />
		<tag k="natural" v="hill" />
		<tag k="place" v="locality" />
		<tag k="ssr:stedsnr" v="252154" />
	</node>
	<node lat="61.09626944167228" lon="4.778225009381683" id="-78155">
		<tag k="alt_name" v="Stokkevågnipa" />
		<tag k="fixme" v="consider natural=peak for the most distinct mountains in the district" />
		<tag k="name" v="Stokkevågnova" />
		<tag k="natural" v="hill" />
		<tag k="place" v="locality" />
		<tag k="ssr:stedsnr" v="252333" />
	</node>
	<node lat="61.11101389029842" lon="4.993894448620353" id="-78159">
		<tag k="fixme" v="consider natural=peak for the most distinct mountains in the district" />
		<tag k="name" v="Alteret" />
		<tag k="natural" v="hill" />
		<tag k="place" v="locality" />
		<tag k="ssr:stedsnr" v="252342" />
	</node>
	<node lat="61.078461114250345" lon="4.819597220555704" id="-78163">
		<tag k="fixme" v="consider natural=peak for the most distinct mountains in the district" />
		<tag k="name" v="Trolleklubben" />
		<tag k="natural" v="hill" />
		<tag k="place" v="locality" />
		<tag k="ssr:stedsnr" v="252314" />
	</node>
	<node lat="61.105941669843105" lon="4.838369443863176" id="-78165">
		<tag k="alt_name" v="Ramnfjellet" />
		<tag k="fixme" v="consider natural=peak for the most distinct mountains in the district" />
		<tag k="name" v="Ramnefjellet" />
		<tag k="natural" v="hill" />
		<tag k="place" v="locality" />
		<tag k="ssr:stedsnr" v="252317" />
	</node>
	<node lat="61.103475002575934" lon="4.989780551277303" id="-78168">
		<tag k="name" v="Dyreråsdalen" />
		<tag k="natural" v="valley" />
		<tag k="place" v="locality" />
		<tag k="ssr:stedsnr" v="252343" />
	</node>
	<node lat="61.10565555824036" lon="4.953208327969154" id="-78169">
		<tag k="name" v="Kråkåsdalen" />
		<tag k="natural" v="valley" />
		<tag k="place" v="locality" />
		<tag k="ssr:stedsnr" v="252344" />
	</node>
	<node lat="61.051950000681934" lon="4.900205550929456" id="-78171">
		<tag k="fixme" v="consider natural=peak for the most distinct mountains in the district" />
		<tag k="name" v="Høgeleitet" />
		<tag k="natural" v="hill" />
		<tag k="place" v="locality" />
		<tag k="ssr:stedsnr" v="252433" />
	</node>
	<node lat="61.02098333436582" lon="4.729844448725404" id="-78173">
		<tag k="fixme" v="consider natural=peak for the most distinct mountains in the district" />
		<tag k="name" v="Stordalsfjellet" />
		<tag k="natural" v="hill" />
		<tag k="place" v="locality" />
		<tag k="ssr:stedsnr" v="252428" />
	</node>
	<node lat="61.003769447143" lon="4.725613896974264" id="-78174">
		<tag k="alt_name" v="Solskaret" />
		<tag k="fixme" v="consider natural=peak for the most distinct mountains in the district" />
		<tag k="name" v="Solskardet" />
		<tag k="natural" v="hill" />
		<tag k="place" v="locality" />
		<tag k="ssr:stedsnr" v="252429" />
	</node>
	<node lat="61.11834444597228" lon="4.9952888814716845" id="-78179">
		<tag k="fixme" v="consider natural=peak for the most distinct mountains in the district" />
		<tag k="name" v="Vetefjellet" />
		<tag k="natural" v="hill" />
		<tag k="place" v="locality" />
		<tag k="ssr:stedsnr" v="130109" />
	</node>
	<node lat="61.12389166613504" lon="4.977988881314449" id="-78180">
		<tag k="alt_name" v="Klostreheia" />
		<tag k="fixme" v="consider natural=peak for the most distinct mountains in the district" />
		<tag k="name" v="Kløstreheia" />
		<tag k="natural" v="hill" />
		<tag k="place" v="locality" />
		<tag k="ssr:stedsnr" v="130117" />
	</node>
	<node lat="61.16988333789491" lon="4.904111117616004" id="-78183">
		<tag k="alt_name" v="Husfjellet" />
		<tag k="fixme" v="consider natural=peak for the most distinct mountains in the district" />
		<tag k="name" v="Husefjellet" />
		<tag k="natural" v="hill" />
		<tag k="place" v="locality" />
		<tag k="ssr:stedsnr" v="130028" />
	</node>
	<node lat="61.122755555965405" lon="5.078508338175775" id="-78186">
		<tag k="name" v="Kaldehaugane" />
		<tag k="natural" v="hill" />
		<tag k="place" v="locality" />
		<tag k="ssr:stedsnr" v="130321" />
	</node>
	<node lat="61.06052777734329" lon="4.644961114920088" id="-78193">
		<tag k="alt_name" v="Storenova" />
		<tag k="name" v="Stornova" />
		<tag k="natural" v="hill" />
		<tag k="place" v="locality" />
		<tag k="ssr:stedsnr" v="130728" />
	</node>
	<node lat="61.09242275453956" lon="4.75663574154117" id="-78231">
		<tag k="name" v="Kupa" />
		<tag k="natural" v="valley" />
		<tag k="place" v="locality" />
		<tag k="ssr:stedsnr" v="146909" />
	</node>
	<node lat="61.19419166557327" lon="4.887261110753524" id="-78236">
		<tag k="fixme" v="consider natural=peak for the most distinct mountains in the district" />
		<tag k="name" v="Sjøneskolten" />
		<tag k="natural" v="hill" />
		<tag k="place" v="locality" />
		<tag k="ssr:stedsnr" v="164462" />
	</node>
	<node lat="61.146483335044124" lon="4.9076333239581205" id="-78237">
		<tag k="name" v="Storekleiva" />
		<tag k="natural" v="hill" />
		<tag k="place" v="locality" />
		<tag k="ssr:stedsnr" v="164858" />
	</node>
	<node lat="61.06971388719263" lon="4.871749997978961" id="-78240">
		<tag k="name" v="Svartedalen" />
		<tag k="natural" v="valley" />
		<tag k="place" v="locality" />
		<tag k="ssr:stedsnr" v="165210" />
	</node>
	<node lat="61.18928611472721" lon="4.977830560578549" id="-78246">
		<tag k="name" v="Rodalen" />
		<tag k="natural" v="valley" />
		<tag k="place" v="locality" />
		<tag k="ssr:stedsnr" v="165303" />
	</node>
	<node lat="61.19418888625662" lon="4.96659721734187" id="-78251">
		<tag k="name" v="Søre Heia" />
		<tag k="natural" v="hill" />
		<tag k="place" v="locality" />
		<tag k="ssr:stedsnr" v="165365" />
	</node>
	<node lat="61.05972778179" lon="4.759622214727154" id="-78252">
		<tag k="name" v="Timrevikdalen" />
		<tag k="natural" v="valley" />
		<tag k="place" v="locality" />
		<tag k="ssr:stedsnr" v="165526" />
	</node>
	<node lat="61.07481389332947" lon="4.774533341637139" id="-78254">
		<tag k="name" v="Laskereset" />
		<tag k="natural" v="hill" />
		<tag k="place" v="locality" />
		<tag k="ssr:stedsnr" v="165582" />
	</node>
	<node lat="61.08219166428869" lon="4.793413897375744" id="-78256">
		<tag k="name" v="Merkingsglåmen" />
		<tag k="natural" v="hill" />
		<tag k="place" v="locality" />
		<tag k="ssr:stedsnr" v="165812" />
	</node>
	<node lat="61.09485555645625" lon="4.881305548755713" id="-78259">
		<tag k="name" v="Lauvsteinbruna" />
		<tag k="natural" v="hill" />
		<tag k="place" v="locality" />
		<tag k="ssr:stedsnr" v="165863" />
	</node>
	<node lat="61.123916664292025" lon="5.01703889273204" id="-78263">
		<tag k="name" v="Geitekleiva" />
		<tag k="natural" v="gorge" />
		<tag k="ssr:stedsnr" v="166459" />
	</node>
	<node lat="61.19349166995256" lon="5.001008329256935" id="-78265">
		<tag k="name" v="Storeslettene" />
		<tag k="place" v="locality" />
		<tag k="ssr:stedsnr" v="166518" />
	</node>
	<node lat="61.16094722470746" lon="5.027638891835919" id="-78266">
		<tag k="name" v="Selleskorberga" />
		<tag k="natural" v="hill" />
		<tag k="place" v="locality" />
		<tag k="ssr:stedsnr" v="166723" />
	</node>
	<node lat="61.127569441295314" lon="5.069902778881677" id="-78267">
		<tag k="name" v="Dalane" />
		<tag k="natural" v="valley" />
		<tag k="place" v="locality" />
		<tag k="ssr:stedsnr" v="167021" />
	</node>
	<node lat="61.164149995887655" lon="5.004141665539232" id="-78270">
		<tag k="name" v="Heia" />
		<tag k="natural" v="hill" />
		<tag k="place" v="locality" />
		<tag k="ssr:stedsnr" v="166979" />
	</node>
	<node lat="61.2095277791068" lon="4.752752776698264" id="-78297">
		<tag k="fixme" v="consider natural=peak for the most distinct mountains in the district" />
		<tag k="name" v="Ospefjellet" />
		<tag k="natural" v="hill" />
		<tag k="place" v="locality" />
		<tag k="ssr:stedsnr" v="191898" />
	</node>
	<node lat="61.160424997076966" lon="4.858322228839205" id="-78317">
		<tag k="name" v="Skarpedalen" />
		<tag k="natural" v="valley" />
		<tag k="place" v="locality" />
		<tag k="ssr:stedsnr" v="226183" />
	</node>
	<node lat="61.036822218676946" lon="4.763202782478569" id="-78323">
		<tag k="name" v="Lyngbakken" />
		<tag k="natural" v="slope" />
		<tag k="place" v="locality" />
		<tag k="ssr:stedsnr" v="226811" />
	</node>
	<node lat="61.17295277909592" lon="4.968780556337158" id="-78325">
		<tag k="name" v="Klovedalsheia" />
		<tag k="natural" v="hill" />
		<tag k="place" v="locality" />
		<tag k="ssr:stedsnr" v="226994" />
	</node>
	<node lat="61.08366667049662" lon="4.784350005058034" id="-78326">
		<tag k="fixme" v="consider natural=peak for the most distinct mountains in the district" />
		<tag k="name" v="Kjerringerabbane" />
		<tag k="natural" v="hill" />
		<tag k="place" v="locality" />
		<tag k="ssr:stedsnr" v="226999" />
	</node>
	<node lat="61.10531666343868" lon="4.891041671490234" id="-78330">
		<tag k="name" v="Nesseskaret" />
		<tag k="natural" v="valley" />
		<tag k="place" v="locality" />
		<tag k="ssr:stedsnr" v="227991" />
	</node>
	<node lat="61.137844443595476" lon="5.053988893431037" id="-78331">
		<tag k="name" v="Knutskaret" />
		<tag k="natural" v="valley" />
		<tag k="place" v="locality" />
		<tag k="ssr:stedsnr" v="228032" />
	</node>
	<node lat="61.168933337321924" lon="5.037202786448253" id="-78337">
		<tag k="name" v="Ytre Grøfta" />
		<tag k="natural" v="gorge" />
		<tag k="ssr:stedsnr" v="234278" />
	</node>
	<node lat="61.01647222468049" lon="4.682083332689052" id="-78353">
		<tag k="name" v="Vindnova" />
		<tag k="natural" v="hill" />
		<tag k="place" v="locality" />
		<tag k="ssr:stedsnr" v="286006" />
	</node>
	<node lat="60.99354722510582" lon="4.687991662598403" id="-78354">
		<tag k="name" v="Rongsnesklubben" />
		<tag k="natural" v="hill" />
		<tag k="place" v="locality" />
		<tag k="ssr:stedsnr" v="286102" />
	</node>
	<node lat="61.01722500060828" lon="4.701488892122125" id="-78360">
		<tag k="name" v="Heiane" />
		<tag k="natural" v="hill" />
		<tag k="place" v="locality" />
		<tag k="ssr:stedsnr" v="286882" />
	</node>
	<node lat="61.09818333442238" lon="4.773125004580191" id="-78363">
		<tag k="fixme" v="consider natural=peak for the most distinct mountains in the district" />
		<tag k="name" v="Litlefjellet" />
		<tag k="natural" v="hill" />
		<tag k="place" v="locality" />
		<tag k="ssr:stedsnr" v="287116" />
	</node>
	<node lat="61.06986110677743" lon="4.743683331059651" id="-78364">
		<tag k="fixme" v="consider natural=peak for the most distinct mountains in the district" />
		<tag k="name" v="Seljeskolten" />
		<tag k="natural" v="hill" />
		<tag k="place" v="locality" />
		<tag k="ssr:stedsnr" v="287178" />
	</node>
	<node lat="61.00733888636917" lon="4.693127774668415" id="-78365">
		<tag k="fixme" v="consider natural=peak for the most distinct mountains in the district" />
		<tag k="name" v="Sandeholtane" />
		<tag k="natural" v="hill" />
		<tag k="place" v="locality" />
		<tag k="ssr:stedsnr" v="287199" />
	</node>
	<node lat="61.06431388890579" lon="4.750099991092275" id="-78371">
		<tag k="fixme" v="consider natural=peak for the most distinct mountains in the district" />
		<tag k="name" v="Åsen" />
		<tag k="natural" v="hill" />
		<tag k="place" v="locality" />
		<tag k="ssr:stedsnr" v="287578" />
	</node>
	<node lat="61.064416663178015" lon="4.753244448033877" id="-78372">
		<tag k="name" v="Ravnøyhaugen" />
		<tag k="natural" v="hill" />
		<tag k="place" v="locality" />
		<tag k="ssr:stedsnr" v="287586" />
	</node>
	<node lat="61.1352472192373" lon="4.983163887405493" id="-78384">
		<tag k="name" v="Styggehaugen" />
		<tag k="natural" v="hill" />
		<tag k="place" v="locality" />
		<tag k="ssr:stedsnr" v="288435" />
	</node>
	<node lat="61.0837499977623" lon="4.9611083264635365" id="-78386">
		<tag k="name" v="Kråkevåghaugen" />
		<tag k="natural" v="hill" />
		<tag k="place" v="locality" />
		<tag k="ssr:stedsnr" v="288933" />
	</node>
	<node lat="61.15827778192919" lon="4.930288881650061" id="-78393">
		<tag k="fixme" v="consider natural=peak for the most distinct mountains in the district" />
		<tag k="name" v="Annefjellet" />
		<tag k="natural" v="hill" />
		<tag k="place" v="locality" />
		<tag k="ssr:stedsnr" v="312005" />
	</node>
	<node lat="61.18791110883552" lon="4.8982472204380025" id="-78406">
		<tag k="name" v="Furedalen" />
		<tag k="natural" v="valley" />
		<tag k="place" v="locality" />
		<tag k="ssr:stedsnr" v="313075" />
	</node>
	<node lat="61.15104444240509" lon="4.873777786452443" id="-78409">
		<tag k="alt_name" v="Mefjellet" />
		<tag k="fixme" v="consider natural=peak for the most distinct mountains in the district" />
		<tag k="name" v="Medfjellet" />
		<tag k="natural" v="hill" />
		<tag k="place" v="locality" />
		<tag k="ssr:stedsnr" v="313214" />
	</node>
	<node lat="61.14289444575952" lon="4.8941333376185385" id="-78427">
		<tag k="name" v="Vauleheia" />
		<tag k="natural" v="hill" />
		<tag k="place" v="locality" />
		<tag k="ssr:stedsnr" v="468836" />
	</node>
	<node lat="61.161802777830616" lon="4.887455559352836" id="-78428">
		<tag k="name" v="Skarveberget" />
		<tag k="natural" v="hill" />
		<tag k="place" v="locality" />
		<tag k="ssr:stedsnr" v="468850" />
	</node>
	<node lat="61.08984444621987" lon="4.76170833935363" id="-78433">
		<tag k="name" v="Måsehaugen" />
		<tag k="natural" v="hill" />
		<tag k="place" v="locality" />
		<tag k="ssr:stedsnr" v="468955" />
	</node>
	<node lat="61.09344444637769" lon="4.7845138960991695" id="-78434">
		<tag k="name" v="Hamrane" />
		<tag k="natural" v="hill" />
		<tag k="place" v="locality" />
		<tag k="ssr:stedsnr" v="468995" />
	</node>
	<node lat="61.17608610945045" lon="4.9260166759230435" id="-78436">
		<tag k="name" v="Skogadalen" />
		<tag k="natural" v="valley" />
		<tag k="place" v="locality" />
		<tag k="ssr:stedsnr" v="469254" />
	</node>
	<node lat="61.15082777672669" lon="5.007316662581087" id="-78442">
		<tag k="name" v="Furedalstrupen" />
		<tag k="natural" v="gorge" />
		<tag k="ssr:stedsnr" v="469651" />
	</node>
	<node lat="61.153513892946606" lon="5.015638883674588" id="-78443">
		<tag k="name" v="Gygra" />
		<tag k="natural" v="hill" />
		<tag k="place" v="locality" />
		<tag k="ssr:stedsnr" v="469659" />
	</node>
	<node lat="61.0221499969693" lon="4.720222223565706" id="-78445">
		<tag k="name" v="Trovågsveene" />
		<tag k="natural" v="valley" />
		<tag k="place" v="locality" />
		<tag k="ssr:stedsnr" v="469786" />
	</node>
	<node lat="61.145475001250695" lon="5.026766660802052" id="-78446">
		<tag k="name" v="Svoene" />
		<tag k="natural" v="hill" />
		<tag k="place" v="locality" />
		<tag k="ssr:stedsnr" v="469753" />
	</node>
	<node lat="61.16915555552889" lon="4.999366659592731" id="-78448">
		<tag k="name" v="Vassenden" />
		<tag k="place" v="locality" />
		<tag k="ssr:stedsnr" v="469840" />
	</node>
	<node lat="61.08636667072261" lon="4.9594611091605465" id="-78450">
		<tag k="name" v="Kleven" />
		<tag k="natural" v="hill" />
		<tag k="place" v="locality" />
		<tag k="ssr:stedsnr" v="469934" />
	</node>
	<node lat="61.20804444016066" lon="4.846894442536726" id="-78454">
		<tag k="fixme" v="consider natural=peak for the most distinct mountains in the district" />
		<tag k="name" v="Vågefjellet" />
		<tag k="natural" v="hill" />
		<tag k="place" v="locality" />
		<tag k="ssr:stedsnr" v="470351" />
	</node>
	<node lat="61.11287222612699" lon="4.889966660903769" id="-78457">
		<tag k="name" v="Kleivane" />
		<tag k="natural" v="slope" />
		<tag k="place" v="locality" />
		<tag k="ssr:stedsnr" v="470892" />
	</node>
	<node lat="61.017230552986284" lon="4.6868222136823405" id="-78460">
		<tag k="fixme" v="consider natural=peak for the most distinct mountains in the district" />
		<tag k="name" v="Aurefjellet" />
		<tag k="natural" v="hill" />
		<tag k="place" v="locality" />
		<tag k="ssr:stedsnr" v="346005" />
	</node>
	<node lat="61.020777775556326" lon="4.675555564061935" id="-78461">
		<tag k="name" v="Grasdalane" />
		<tag k="natural" v="valley" />
		<tag k="place" v="locality" />
		<tag k="ssr:stedsnr" v="346007" />
	</node>
	<node lat="61.09459444679109" lon="4.836544450102629" id="-78465">
		<tag k="name" v="Kleberget" />
		<tag k="natural" v="hill" />
		<tag k="place" v="locality" />
		<tag k="ssr:stedsnr" v="346815" />
	</node>
	<node lat="61.01736389244722" lon="4.693050007688914" id="-78466">
		<tag k="name" v="Novene" />
		<tag k="natural" v="hill" />
		<tag k="place" v="locality" />
		<tag k="ssr:stedsnr" v="346856" />
	</node>
	<node lat="61.1499111148143" lon="4.869063885791853" id="-78468">
		<tag k="fixme" v="consider natural=peak for the most distinct mountains in the district" />
		<tag k="name" v="Skjerklubben" />
		<tag k="natural" v="hill" />
		<tag k="place" v="locality" />
		<tag k="ssr:stedsnr" v="346916" />
	</node>
	<node lat="61.12780833346908" lon="4.839125004318941" id="-78469">
		<tag k="name" v="Tjuvhola" />
		<tag k="natural" v="gorge" />
		<tag k="ssr:stedsnr" v="347054" />
	</node>
	<node lat="61.08169444834685" lon="4.701238879940169" id="-78473">
		<tag k="name" v="Kalvedalen" />
		<tag k="natural" v="valley" />
		<tag k="place" v="locality" />
		<tag k="ssr:stedsnr" v="347220" />
	</node>
	<node lat="61.17926666401318" lon="4.926647231036715" id="-78476">
		<tag k="name" v="Middagstua" />
		<tag k="natural" v="hill" />
		<tag k="place" v="locality" />
		<tag k="ssr:stedsnr" v="347258" />
	</node>
	<node lat="61.11736944353979" lon="4.9788138905117005" id="-78479">
		<tag k="fixme" v="consider natural=peak for the most distinct mountains in the district" />
		<tag k="name" v="Øvre Benken" />
		<tag k="natural" v="hill" />
		<tag k="place" v="locality" />
		<tag k="ssr:stedsnr" v="347167" />
	</node>
	<node lat="61.20379166297478" lon="4.958808336390463" id="-78486">
		<tag k="name" v="Storebrekka" />
		<tag k="natural" v="slope" />
		<tag k="place" v="locality" />
		<tag k="ssr:stedsnr" v="347365" />
	</node>
	<node lat="61.05940833415956" lon="4.784505563674299" id="-78487">
		<tag k="fixme" v="consider natural=peak for the most distinct mountains in the district" />
		<tag k="name" v="Søre Hesjevikfjellet" />
		<tag k="natural" v="hill" />
		<tag k="place" v="locality" />
		<tag k="ssr:stedsnr" v="347556" />
	</node>
	<node lat="61.06978611513631" lon="4.777977771284182" id="-78490">
		<tag k="name" v="Gunnarsbotnen" />
		<tag k="natural" v="valley" />
		<tag k="place" v="locality" />
		<tag k="ssr:stedsnr" v="347574" />
	</node>
	<node lat="61.07830277598189" lon="4.843322230944422" id="-78492">
		<tag k="alt_name" v="Halland  -  Skora" />
		<tag k="name" v="Hallandskora" />
		<tag k="natural" v="hill" />
		<tag k="place" v="locality" />
		<tag k="ssr:stedsnr" v="347862" />
	</node>
	<node lat="61.08682777451096" lon="4.812469439061435" id="-78493">
		<tag k="fixme" v="consider natural=peak for the most distinct mountains in the district" />
		<tag k="name" v="Heia" />
		<tag k="natural" v="hill" />
		<tag k="place" v="locality" />
		<tag k="ssr:stedsnr" v="347864" />
	</node>
	<node lat="61.09206388903158" lon="4.981416658671127" id="-78497">
		<tag k="name" v="Rustene" />
		<tag k="natural" v="hill" />
		<tag k="place" v="locality" />
		<tag k="ssr:stedsnr" v="348854" />
	</node>
	<node lat="61.1129527807508" lon="4.884602778015473" id="-78499">
		<tag k="name" v="Gytten" />
		<tag k="natural" v="hill" />
		<tag k="place" v="locality" />
		<tag k="ssr:stedsnr" v="348859" />
	</node>
	<node lat="61.142091665701976" lon="5.079977783283177" id="-78500">
		<tag k="name" v="Skreda" />
		<tag k="natural" v="valley" />
		<tag k="place" v="locality" />
		<tag k="ssr:stedsnr" v="349020" />
	</node>
	<node lat="61.163066667796144" lon="4.934063896104659" id="-78510">
		<tag k="fixme" v="consider natural=peak for the most distinct mountains in the district" />
		<tag k="name" v="Gildrefjellet" />
		<tag k="natural" v="hill" />
		<tag k="place" v="locality" />
		<tag k="ssr:stedsnr" v="373005" />
	</node>
	<node lat="61.20772499679714" lon="4.908991666341219" id="-78515">
		<tag k="alt_name" v="Storehaugen" />
		<tag k="name" v="Storhaugen" />
		<tag k="natural" v="hill" />
		<tag k="place" v="locality" />
		<tag k="ssr:stedsnr" v="373104" />
	</node>
	<node lat="61.10889166790026" lon="4.87377499306272" id="-78517">
		<tag k="fixme" v="consider natural=peak for the most distinct mountains in the district" />
		<tag k="name" v="Sandvikfjellet" />
		<tag k="natural" v="hill" />
		<tag k="place" v="locality" />
		<tag k="ssr:stedsnr" v="373116" />
	</node>
	<node lat="61.141433329135474" lon="4.937558339663287" id="-78521">
		<tag k="fixme" v="consider natural=peak for the most distinct mountains in the district" />
		<tag k="name" v="Øykefjellet" />
		<tag k="natural" v="hill" />
		<tag k="place" v="locality" />
		<tag k="ssr:stedsnr" v="373170" />
	</node>
	<node lat="61.097513890458956" lon="4.874577779099527" id="-78523">
		<tag k="name" v="Brunene" />
		<tag k="natural" v="slope" />
		<tag k="place" v="locality" />
		<tag k="ssr:stedsnr" v="373302" />
	</node>
	<node lat="61.08135278017783" lon="4.735363888534074" id="-78525">
		<tag k="fixme" v="consider natural=peak for the most distinct mountains in the district" />
		<tag k="name" v="Hammarstakken" />
		<tag k="natural" v="hill" />
		<tag k="place" v="locality" />
		<tag k="ssr:stedsnr" v="373322" />
	</node>
	<node lat="61.07989721903365" lon="4.782283335298466" id="-78526">
		<tag k="fixme" v="consider natural=peak for the most distinct mountains in the district" />
		<tag k="name" v="Brekkefjellet" />
		<tag k="natural" v="hill" />
		<tag k="place" v="locality" />
		<tag k="ssr:stedsnr" v="373325" />
	</node>
	<node lat="61.07945555780158" lon="4.806713891304365" id="-78527">
		<tag k="fixme" v="consider natural=peak for the most distinct mountains in the district" />
		<tag k="name" v="Lindebufjellet" />
		<tag k="natural" v="hill" />
		<tag k="place" v="locality" />
		<tag k="ssr:stedsnr" v="373328" />
	</node>
	<node lat="61.08991944044212" lon="4.838447218414246" id="-78550">
		<tag k="name" v="Koren" />
		<tag k="natural" v="hill" />
		<tag k="place" v="locality" />
		<tag k="ssr:stedsnr" v="407843" />
	</node>
	<node lat="61.121844446504284" lon="4.835680561053333" id="-78552">
		<tag k="name" v="Kvelvane" />
		<tag k="natural" v="hill" />
		<tag k="place" v="locality" />
		<tag k="ssr:stedsnr" v="408060" />
	</node>
	<node lat="61.05101666274777" lon="4.897163883459231" id="-78555">
		<tag k="name" v="Ripledalen" />
		<tag k="natural" v="valley" />
		<tag k="place" v="locality" />
		<tag k="ssr:stedsnr" v="408252" />
	</node>
	<node lat="61.128391665401566" lon="4.916472218547741" id="-78568">
		<tag k="name" v="Elvagjelet" />
		<tag k="natural" v="valley" />
		<tag k="place" v="locality" />
		<tag k="ssr:stedsnr" v="408857" />
	</node>
	<node lat="61.08834721885805" lon="4.78573610495254" id="-78571">
		<tag k="name" v="Aksla" />
		<tag k="natural" v="hill" />
		<tag k="place" v="locality" />
		<tag k="ssr:stedsnr" v="408995" />
	</node>
	<node lat="61.20041111124157" lon="4.992983326422175" id="-78573">
		<tag k="fixme" v="consider natural=peak for the most distinct mountains in the district" />
		<tag k="name" v="Blånova" />
		<tag k="natural" v="hill" />
		<tag k="place" v="locality" />
		<tag k="ssr:stedsnr" v="409613" />
	</node>
	<node lat="61.21544166446483" lon="4.823999994309815" id="-78575">
		<tag k="name" v="Langeranet" />
		<tag k="natural" v="hill" />
		<tag k="place" v="locality" />
		<tag k="ssr:stedsnr" v="409400" />
	</node>
	<node lat="61.194155559194705" lon="4.994291674523314" id="-78577">
		<tag k="name" v="Grønene" />
		<tag k="natural" v="slope" />
		<tag k="place" v="locality" />
		<tag k="ssr:stedsnr" v="409510" />
	</node>
	<node lat="61.115236109383495" lon="4.921936111352312" id="-78578">
		<tag k="name" v="Eikelauvet" />
		<tag k="natural" v="hill" />
		<tag k="place" v="locality" />
		<tag k="ssr:stedsnr" v="409852" />
	</node>
	<node lat="61.14857222239472" lon="4.936341666548596" id="-78580">
		<tag k="fixme" v="consider natural=peak for the most distinct mountains in the district" />
		<tag k="name" v="Asalden" />
		<tag k="natural" v="hill" />
		<tag k="place" v="locality" />
		<tag k="ssr:stedsnr" v="409995" />
	</node>
	<node lat="61.10243888697808" lon="4.871938889736161" id="-78581">
		<tag k="name" v="Klinkhammaren" />
		<tag k="natural" v="hill" />
		<tag k="place" v="locality" />
		<tag k="ssr:stedsnr" v="409997" />
	</node>
	<node lat="61.14838055889948" lon="4.841480548537014" id="-78591">
		<tag k="name" v="Karihaugen" />
		<tag k="natural" v="hill" />
		<tag k="place" v="locality" />
		<tag k="ssr:stedsnr" v="434202" />
	</node>
	<node lat="61.16472222354289" lon="4.980152777458961" id="-78592">
		<tag k="alt_name" v="Refjellet" />
		<tag k="fixme" v="consider natural=peak for the most distinct mountains in the district" />
		<tag k="name" v="Dyrefjellet" />
		<tag k="natural" v="hill" />
		<tag k="place" v="locality" />
		<tag k="ssr:stedsnr" v="434213" />
	</node>
	<node lat="61.139952776761454" lon="4.972819445881069" id="-78597">
		<tag k="alt_name" v="Svedalsfjellet" />
		<tag k="fixme" v="consider natural=peak for the most distinct mountains in the district" />
		<tag k="name" v="Sviddalsfjellet" />
		<tag k="natural" v="hill" />
		<tag k="place" v="locality" />
		<tag k="ssr:stedsnr" v="434172" />
	</node>
	<node lat="61.105513891164" lon="4.925194442530836" id="-78601">
		<tag k="fixme" v="consider natural=peak for the most distinct mountains in the district" />
		<tag k="name" v="Salane" />
		<tag k="natural" v="hill" />
		<tag k="place" v="locality" />
		<tag k="ssr:stedsnr" v="434330" />
	</node>
	<node lat="61.160244447052555" lon="4.863566672540871" id="-78616">
		<tag k="alt_name" v="Håmandefjellet;Håmundefjellet;Håmannfjellet" />
		<tag k="fixme" v="consider natural=peak for the most distinct mountains in the district" />
		<tag k="name" v="Hommandefjellet" />
		<tag k="natural" v="hill" />
		<tag k="place" v="locality" />
		<tag k="ssr:stedsnr" v="494005" />
	</node>
	<node lat="61.19193055441126" lon="4.923297231372809" id="-78618">
		<tag k="fixme" v="consider natural=peak for the most distinct mountains in the district" />
		<tag k="name" v="Hesten" />
		<tag k="natural" v="hill" />
		<tag k="place" v="locality" />
		<tag k="ssr:stedsnr" v="494093" />
	</node>
	<node lat="61.120569445453135" lon="4.947786112759077" id="-78621">
		<tag k="name" v="Klovene" />
		<tag k="natural" v="valley" />
		<tag k="place" v="locality" />
		<tag k="ssr:stedsnr" v="494131" />
	</node>
	<node lat="61.09493333106795" lon="4.764288884070123" id="-78628">
		<tag k="fixme" v="consider natural=peak for the most distinct mountains in the district" />
		<tag k="name" v="Hegrenesfjellet" />
		<tag k="natural" v="hill" />
		<tag k="place" v="locality" />
		<tag k="ssr:stedsnr" v="494334" />
	</node>
	<node lat="61.09198888620331" lon="4.919044440506005" id="-78631">
		<tag k="name" v="Blomskora" />
		<tag k="natural" v="valley" />
		<tag k="place" v="locality" />
		<tag k="ssr:stedsnr" v="494295" />
	</node>
	<node lat="61.02581666564789" lon="4.692669453352027" id="-78654">
		<tag k="name" v="Måsedalen" />
		<tag k="natural" v="valley" />
		<tag k="place" v="locality" />
		<tag k="ssr:stedsnr" v="468866" />
	</node>
	<node lat="61.129472222571174" lon="4.938202778655946" id="-78655">
		<tag k="name" v="Botnakleiva" />
		<tag k="natural" v="slope" />
		<tag k="place" v="locality" />
		<tag k="ssr:stedsnr" v="468762" />
	</node>
	<node lat="61.01389444573632" lon="4.694105554979492" id="-78656">
		<tag k="name" v="Ranen" />
		<tag k="natural" v="hill" />
		<tag k="place" v="locality" />
		<tag k="ssr:stedsnr" v="468781" />
	</node>
	<node lat="61.151769446074816" lon="4.876330562581637" id="-78657">
		<tag k="fixme" v="consider natural=peak for the most distinct mountains in the district" />
		<tag k="name" v="Kalvedalsfjellet" />
		<tag k="natural" v="hill" />
		<tag k="place" v="locality" />
		<tag k="ssr:stedsnr" v="468916" />
	</node>
	<node lat="60.99571111539738" lon="4.711480550931728" id="-78663">
		<tag k="fixme" v="consider natural=peak for the most distinct mountains in the district" />
		<tag k="name" v="Kverhellnipa" />
		<tag k="natural" v="hill" />
		<tag k="place" v="locality" />
		<tag k="ssr:stedsnr" v="469183" />
	</node>
	<node lat="61.202822222632996" lon="4.976922225374599" id="-78665">
		<tag k="name" v="Ytre Bukkebakkane" />
		<tag k="natural" v="slope" />
		<tag k="place" v="locality" />
		<tag k="ssr:stedsnr" v="469314" />
	</node>
	<node lat="61.05225555294375" lon="4.750502776441382" id="-78667">
		<tag k="fixme" v="consider natural=peak for the most distinct mountains in the district" />
		<tag k="name" v="Synningefjellet" />
		<tag k="natural" v="hill" />
		<tag k="place" v="locality" />
		<tag k="ssr:stedsnr" v="469769" />
	</node>
	<node lat="61.12527777763054" lon="4.889158333954916" id="-78668">
		<tag k="name" v="Vollehaugane" />
		<tag k="natural" v="hill" />
		<tag k="place" v="locality" />
		<tag k="ssr:stedsnr" v="469867" />
	</node>
	<node lat="61.06160277589268" lon="4.829644451667423" id="-78669">
		<tag k="fixme" v="consider natural=peak for the most distinct mountains in the district" />
		<tag k="name" v="Skygghammaren" />
		<tag k="natural" v="hill" />
		<tag k="place" v="locality" />
		<tag k="ssr:stedsnr" v="469869" />
	</node>
	<node lat="61.18083888480595" lon="4.94962222203874" id="-78673">
		<tag k="name" v="Årebrotknolten" />
		<tag k="natural" v="hill" />
		<tag k="place" v="locality" />
		<tag k="ssr:stedsnr" v="469966" />
	</node>
	<node lat="61.21221666530217" lon="4.835663894636089" id="-78677">
		<tag k="name" v="Espehola" />
		<tag k="place" v="locality" />
		<tag k="ssr:stedsnr" v="470366" />
	</node>
	<node lat="61.189733337506134" lon="4.910638885466502" id="-78683">
		<tag k="fixme" v="consider natural=peak for the most distinct mountains in the district" />
		<tag k="name" v="Skinebakkheia" />
		<tag k="natural" v="hill" />
		<tag k="place" v="locality" />
		<tag k="ssr:stedsnr" v="676087" />
	</node>
	<node lat="61.09716111046901" lon="4.856944436223838" id="-78685">
		<tag k="fixme" v="multiple name tags, choose one and add the other to alt_name; consider natural=peak for the most distinct mountains in the district" />
		<tag k="name" v="Storefjellet;Pollatinden" />
		<tag k="natural" v="hill" />
		<tag k="place" v="locality" />
		<tag k="ssr:stedsnr" v="676324" />
	</node>
	<node lat="61.11654166319905" lon="4.872097226881298" id="-78687">
		<tag k="name" v="Langedalen" />
		<tag k="natural" v="valley" />
		<tag k="place" v="locality" />
		<tag k="ssr:stedsnr" v="676182" />
	</node>
	<node lat="61.06430000319854" lon="4.761652774506798" id="-78704">
		<tag k="fixme" v="consider natural=peak for the most distinct mountains in the district" />
		<tag k="name" v="Gygra" />
		<tag k="natural" v="hill" />
		<tag k="place" v="locality" />
		<tag k="ssr:stedsnr" v="677284" />
	</node>
	<node lat="61.16523889255314" lon="5.0482749904140265" id="-78708">
		<tag k="name" v="Indre Grøfta" />
		<tag k="natural" v="gorge" />
		<tag k="ssr:stedsnr" v="477281" />
	</node>
	<node lat="61.15674444159477" lon="4.89833611417563" id="-78722">
		<tag k="fixme" v="consider natural=peak for the most distinct mountains in the district" />
		<tag k="name" v="Orreknoltane" />
		<tag k="natural" v="hill" />
		<tag k="place" v="locality" />
		<tag k="ssr:stedsnr" v="494002" />
	</node>
	<node lat="61.11894166605218" lon="4.989358342433428" id="-78727">
		<tag k="alt_name" v="Menipa" />
		<tag k="fixme" v="consider natural=peak for the most distinct mountains in the district" />
		<tag k="name" v="Mednipa" />
		<tag k="natural" v="hill" />
		<tag k="place" v="locality" />
		<tag k="ssr:stedsnr" v="494122" />
	</node>
	<node lat="61.12177222128732" lon="4.893305549844161" id="-78728">
		<tag k="fixme" v="consider natural=peak for the most distinct mountains in the district" />
		<tag k="name" v="Kvernhusfjellet" />
		<tag k="natural" v="hill" />
		<tag k="place" v="locality" />
		<tag k="ssr:stedsnr" v="494126" />
	</node>
	<node lat="61.130508336340874" lon="4.940133341458176" id="-78729">
		<tag k="fixme" v="consider natural=peak for the most distinct mountains in the district" />
		<tag k="name" v="Botnafjellet" />
		<tag k="natural" v="hill" />
		<tag k="place" v="locality" />
		<tag k="ssr:stedsnr" v="494163" />
	</node>
	<node lat="61.089963886795054" lon="4.9791638904840125" id="-78740">
		<tag k="name" v="Mjåta" />
		<tag k="place" v="locality" />
		<tag k="ssr:stedsnr" v="494264" />
	</node>
	<node lat="61.17620277841224" lon="4.919580548959782" id="-78747">
		<tag k="name" v="Johaugen" />
		<tag k="natural" v="hill" />
		<tag k="place" v="locality" />
		<tag k="ssr:stedsnr" v="495060" />
	</node>
	<node lat="61.17885555563999" lon="4.913633331160782" id="-78748">
		<tag k="alt_name" v="Skoganipa;Nipa" />
		<tag k="name" v="Skognipa" />
		<tag k="natural" v="hill" />
		<tag k="place" v="locality" />
		<tag k="ssr:stedsnr" v="495063" />
	</node>
	<node lat="61.160933329311085" lon="4.827816673864197" id="-78761">
		<tag k="name" v="Hestevikhaugen" />
		<tag k="natural" v="hill" />
		<tag k="place" v="locality" />
		<tag k="ssr:stedsnr" v="529179" />
	</node>
	<node lat="61.20633610754014" lon="4.889416661086373" id="-78762">
		<tag k="fixme" v="consider natural=peak for the most distinct mountains in the district" />
		<tag k="name" v="Blomskitehaugen" />
		<tag k="natural" v="hill" />
		<tag k="place" v="locality" />
		<tag k="ssr:stedsnr" v="529483" />
	</node>
	<node lat="61.19494444356608" lon="4.892461106418508" id="-78763">
		<tag k="name" v="Sletthelleheia" />
		<tag k="natural" v="hill" />
		<tag k="place" v="locality" />
		<tag k="ssr:stedsnr" v="529390" />
	</node>
	<node lat="61.18300833310103" lon="4.912494447364186" id="-78768">
		<tag k="name" v="Småsveene" />
		<tag k="natural" v="hill" />
		<tag k="place" v="locality" />
		<tag k="ssr:stedsnr" v="529951" />
	</node>
	<node lat="61.20590555901167" lon="4.84247499471867" id="-78774">
		<tag k="fixme" v="consider natural=peak for the most distinct mountains in the district" />
		<tag k="name" v="Gudalsfjellet" />
		<tag k="natural" v="hill" />
		<tag k="place" v="locality" />
		<tag k="ssr:stedsnr" v="530408" />
	</node>
	<node lat="61.142172223268794" lon="4.959163889782319" id="-78781">
		<tag k="name" v="Timredalsbakken" />
		<tag k="natural" v="slope" />
		<tag k="place" v="locality" />
		<tag k="ssr:stedsnr" v="530934" />
	</node>
	<node lat="61.14942777651553" lon="4.965169452503303" id="-78782">
		<tag k="name" v="Lendingheia" />
		<tag k="natural" v="hill" />
		<tag k="place" v="locality" />
		<tag k="ssr:stedsnr" v="530938" />
	</node>
	<node lat="61.14643333258963" lon="4.977974996146258" id="-78783">
		<tag k="name" v="Sanddalane" />
		<tag k="natural" v="valley" />
		<tag k="place" v="locality" />
		<tag k="ssr:stedsnr" v="530894" />
	</node>
	<node lat="61.12601388775543" lon="4.939297218537049" id="-78802">
		<tag k="fixme" v="consider natural=peak for the most distinct mountains in the district" />
		<tag k="name" v="Skredfjellet" />
		<tag k="natural" v="hill" />
		<tag k="place" v="locality" />
		<tag k="ssr:stedsnr" v="555105" />
	</node>
	<node lat="61.13345278093149" lon="4.960130557376036" id="-78803">
		<tag k="fixme" v="consider natural=peak for the most distinct mountains in the district" />
		<tag k="name" v="Kufjellet" />
		<tag k="natural" v="hill" />
		<tag k="place" v="locality" />
		<tag k="ssr:stedsnr" v="555115" />
	</node>
	<node lat="61.0874388885335" lon="4.760150005163978" id="-78808">
		<tag k="fixme" v="consider natural=peak for the most distinct mountains in the district" />
		<tag k="name" v="Hellelinipa" />
		<tag k="natural" v="hill" />
		<tag k="place" v="locality" />
		<tag k="ssr:stedsnr" v="555307" />
	</node>
	<node lat="61.029986109170764" lon="4.731358325978844" id="-78809">
		<tag k="fixme" v="consider natural=peak for the most distinct mountains in the district" />
		<tag k="name" v="Håfjellet" />
		<tag k="natural" v="hill" />
		<tag k="place" v="locality" />
		<tag k="ssr:stedsnr" v="555381" />
	</node>
	<node lat="61.03195278210742" lon="4.701566663952234" id="-78821">
		<tag k="name" v="Botnen" />
		<tag k="natural" v="valley" />
		<tag k="place" v="locality" />
		<tag k="ssr:stedsnr" v="570110" />
	</node>
	<node lat="61.14684444763902" lon="4.962027773791524" id="-78827">
		<tag k="name" v="Kranseheia" />
		<tag k="natural" v="hill" />
		<tag k="place" v="locality" />
		<tag k="ssr:stedsnr" v="773947" />
	</node>
	<node lat="61.08097222380208" lon="4.857897221762729" id="-78836">
		<tag k="name" v="Litlefjellet" />
		<tag k="natural" v="hill" />
		<tag k="place" v="locality" />
		<tag k="ssr:stedsnr" v="589866" />
	</node>
	<node lat="61.07928055695027" lon="4.8541249991157285" id="-78837">
		<tag k="fixme" v="consider natural=peak for the most distinct mountains in the district" />
		<tag k="name" v="Tussenipa" />
		<tag k="natural" v="hill" />
		<tag k="place" v="locality" />
		<tag k="ssr:stedsnr" v="589871" />
	</node>
	<node lat="61.07918333458133" lon="4.700697216466443" id="-78839">
		<tag k="fixme" v="consider natural=peak for the most distinct mountains in the district" />
		<tag k="name" v="Nobba" />
		<tag k="natural" v="hill" />
		<tag k="place" v="locality" />
		<tag k="ssr:stedsnr" v="590220" />
	</node>
	<node lat="61.05033889133816" lon="4.892430552166863" id="-78841">
		<tag k="fixme" v="consider natural=peak for the most distinct mountains in the district" />
		<tag k="name" v="Slettebakkefjellet" />
		<tag k="natural" v="hill" />
		<tag k="place" v="locality" />
		<tag k="ssr:stedsnr" v="590243" />
	</node>
	<node lat="61.06474721912613" lon="4.855008341518686" id="-78846">
		<tag k="name" v="Vendalen" />
		<tag k="natural" v="valley" />
		<tag k="place" v="locality" />
		<tag k="ssr:stedsnr" v="590677" />
	</node>
	<node lat="61.141883333384705" lon="5.0180833383721115" id="-78853">
		<tag k="name" v="Indregjelet" />
		<tag k="natural" v="valley" />
		<tag k="place" v="locality" />
		<tag k="ssr:stedsnr" v="591453" />
	</node>
	<node lat="61.08656944003427" lon="4.967794437908702" id="-78855">
		<tag k="name" v="Ospegjelet" />
		<tag k="natural" v="valley" />
		<tag k="place" v="locality" />
		<tag k="ssr:stedsnr" v="591924" />
	</node>
	<node lat="61.142258332598885" lon="4.955574991863747" id="-78856">
		<tag k="name" v="Kalvedalen" />
		<tag k="natural" v="valley" />
		<tag k="place" v="locality" />
		<tag k="ssr:stedsnr" v="591958" />
	</node>
	<node lat="61.157711113152935" lon="5.002013887851829" id="-78863">
		<tag k="fixme" v="consider natural=peak for the most distinct mountains in the district" />
		<tag k="name" v="Sveiva" />
		<tag k="natural" v="hill" />
		<tag k="place" v="locality" />
		<tag k="ssr:stedsnr" v="615216" />
	</node>
	<node lat="61.12180833268981" lon="5.063797230405368" id="-78877">
		<tag k="fixme" v="consider natural=peak for the most distinct mountains in the district" />
		<tag k="name" v="Bondefjellet" />
		<tag k="natural" v="hill" />
		<tag k="place" v="locality" />
		<tag k="ssr:stedsnr" v="616145" />
	</node>
	<node lat="61.05738333077315" lon="4.899616671612296" id="-78896">
		<tag k="name" v="Vardehaugen" />
		<tag k="natural" v="hill" />
		<tag k="place" v="locality" />
		<tag k="ssr:stedsnr" v="650194" />
	</node>
	<node lat="61.057499998204456" lon="4.772341666771177" id="-78901">
		<tag k="name" v="Trollhaugen" />
		<tag k="natural" v="hill" />
		<tag k="place" v="locality" />
		<tag k="ssr:stedsnr" v="650534" />
	</node>
	<node lat="61.019927018924456" lon="4.7391811655811935" id="-78909">
		<tag k="name" v="Nøstfjellnova" />
		<tag k="natural" v="hill" />
		<tag k="place" v="locality" />
		<tag k="ssr:stedsnr" v="650788" />
	</node>
	<node lat="61.10348333652269" lon="4.885694439157048" id="-78917">
		<tag k="name" v="Smådalane" />
		<tag k="natural" v="valley" />
		<tag k="place" v="locality" />
		<tag k="ssr:stedsnr" v="651991" />
	</node>
	<node lat="61.098952778696294" lon="4.883638880353088" id="-78919">
		<tag k="name" v="Regnhamnbrunene" />
		<tag k="natural" v="slope" />
		<tag k="place" v="locality" />
		<tag k="ssr:stedsnr" v="651999" />
	</node>
	<node lat="61.127580557835145" lon="5.091297217239997" id="-78920">
		<tag k="name" v="Høgehaugane" />
		<tag k="natural" v="hill" />
		<tag k="place" v="locality" />
		<tag k="ssr:stedsnr" v="652486" />
	</node>
	<node lat="61.12058170764447" lon="4.720438905220313" id="-78921">
		<tag k="alt_name" v="Søndre Nipa;Nipa, s" />
		<tag k="fixme" v="consider natural=peak for the most distinct mountains in the district" />
		<tag k="name" v="Synste Nipa" />
		<tag k="natural" v="hill" />
		<tag k="place" v="locality" />
		<tag k="ssr:stedsnr" v="658208" />
	</node>
	<node lat="61.20118611182538" lon="4.981461117715285" id="-78930">
		<tag k="fixme" v="consider natural=peak for the most distinct mountains in the district" />
		<tag k="name" v="Krakksfjellet" />
		<tag k="natural" v="hill" />
		<tag k="place" v="locality" />
		<tag k="ssr:stedsnr" v="676107" />
	</node>
	<node lat="61.068033333004585" lon="4.888383336652927" id="-78946">
		<tag k="fixme" v="consider natural=peak for the most distinct mountains in the district" />
		<tag k="name" v="Veten" />
		<tag k="natural" v="hill" />
		<tag k="place" v="locality" />
		<tag k="ssr:stedsnr" v="677239" />
	</node>
	<node lat="61.10623055350139" lon="4.816874996483993" id="-78949">
		<tag k="fixme" v="consider natural=peak for the most distinct mountains in the district" />
		<tag k="name" v="Hogneskjelfjellet" />
		<tag k="natural" v="hill" />
		<tag k="place" v="locality" />
		<tag k="ssr:stedsnr" v="677133" />
	</node>
	<node lat="61.112583329771866" lon="4.885247220041999" id="-78950">
		<tag k="fixme" v="consider natural=peak for the most distinct mountains in the district" />
		<tag k="name" v="Ormedalsheia" />
		<tag k="natural" v="hill" />
		<tag k="place" v="locality" />
		<tag k="ssr:stedsnr" v="677137" />
	</node>
	<node lat="61.00401111199314" lon="4.706461111289615" id="-78959">
		<tag k="fixme" v="consider natural=peak for the most distinct mountains in the district" />
		<tag k="name" v="Kverhellefjellet" />
		<tag k="natural" v="hill" />
		<tag k="place" v="locality" />
		<tag k="ssr:stedsnr" v="677987" />
	</node>
	<node lat="61.09333610827051" lon="4.690524998401002" id="-78960">
		<tag k="name" v="Vinklehaugen" />
		<tag k="natural" v="hill" />
		<tag k="place" v="locality" />
		<tag k="ssr:stedsnr" v="893231" />
	</node>
	<node lat="61.06597222488157" lon="4.702427769676555" id="-78965">
		<tag k="name" v="Hatlane" />
		<tag k="natural" v="hill" />
		<tag k="place" v="locality" />
		<tag k="ssr:stedsnr" v="893143" />
	</node>
	<node lat="61.15732221953265" lon="4.822588883147099" id="-78966">
		<tag k="name" v="Slåttevikhaugen" />
		<tag k="natural" v="hill" />
		<tag k="place" v="locality" />
		<tag k="ssr:stedsnr" v="893187" />
	</node>
	<node lat="61.04038333404373" lon="4.694375002821198" id="-78984">
		<tag k="name" v="Svenene" />
		<tag k="natural" v="slope" />
		<tag k="place" v="locality" />
		<tag k="ssr:stedsnr" v="894150" />
	</node>
	<node lat="61.075436110188384" lon="4.702838897828063" id="-78985">
		<tag k="fixme" v="consider natural=peak for the most distinct mountains in the district" />
		<tag k="name" v="Austingfjellet" />
		<tag k="natural" v="hill" />
		<tag k="place" v="locality" />
		<tag k="ssr:stedsnr" v="894235" />
	</node>
	<node lat="61.19954999671876" lon="4.97718332608108" id="-78988">
		<tag k="name" v="Rotveltene" />
		<tag k="natural" v="hill" />
		<tag k="place" v="locality" />
		<tag k="ssr:stedsnr" v="894341" />
	</node>
	<node lat="61.199980555586244" lon="4.973727770551561" id="-78989">
		<tag k="name" v="Ytregrøypa" />
		<tag k="natural" v="valley" />
		<tag k="place" v="locality" />
		<tag k="ssr:stedsnr" v="894342" />
	</node>
	<node lat="61.125169443746366" lon="5.014363886882676" id="-78990">
		<tag k="name" v="Hatlebakken" />
		<tag k="natural" v="slope" />
		<tag k="place" v="locality" />
		<tag k="ssr:stedsnr" v="894502" />
	</node>
	<node lat="61.208236109989414" lon="4.915674997423525" id="-78992">
		<tag k="name" v="Svartehaugen" />
		<tag k="natural" v="hill" />
		<tag k="place" v="locality" />
		<tag k="ssr:stedsnr" v="894514" />
	</node>
	<node lat="61.136316668381966" lon="5.012083332787496" id="-78997">
		<tag k="name" v="Vågehellerane" />
		<tag k="natural" v="ridge" />
		<tag k="place" v="locality" />
		<tag k="ssr:stedsnr" v="895431" />
	</node>
	<node lat="61.09331944726737" lon="4.8808444391455525" id="-78998">
		<tag k="name" v="Olabakken" />
		<tag k="natural" v="slope" />
		<tag k="place" v="locality" />
		<tag k="ssr:stedsnr" v="894851" />
	</node>
	<node lat="61.09546666885661" lon="4.875091672925286" id="-78999">
		<tag k="name" v="Fureskorane" />
		<tag k="natural" v="hill" />
		<tag k="place" v="locality" />
		<tag k="ssr:stedsnr" v="894852" />
	</node>
	<node lat="61.09282777560612" lon="4.8608388814768295" id="-79001">
		<tag k="name" v="Veddalsbrekka" />
		<tag k="natural" v="valley" />
		<tag k="place" v="locality" />
		<tag k="ssr:stedsnr" v="894856" />
	</node>
	<node lat="61.02911944561211" lon="4.724274993966532" id="-79003">
		<tag k="fixme" v="consider natural=peak for the most distinct mountains in the district" />
		<tag k="name" v="Nipa" />
		<tag k="natural" v="hill" />
		<tag k="place" v="locality" />
		<tag k="ssr:stedsnr" v="894786" />
	</node>
	<node lat="61.13938055319037" lon="4.884108327411258" id="-79010">
		<tag k="fixme" v="consider natural=peak for the most distinct mountains in the district" />
		<tag k="name" v="Einhammaren" />
		<tag k="natural" v="hill" />
		<tag k="place" v="locality" />
		<tag k="ssr:stedsnr" v="894880" />
	</node>
	<node lat="61.16748611110978" lon="4.979950008493297" id="-79012">
		<tag k="fixme" v="consider natural=peak for the most distinct mountains in the district" />
		<tag k="name" v="Nordre Dyrefjellet" />
		<tag k="natural" v="hill" />
		<tag k="place" v="locality" />
		<tag k="ssr:stedsnr" v="894894" />
	</node>
	<node lat="61.12672777387736" lon="4.999002774993467" id="-79016">
		<tag k="name" v="Mjelteskaret" />
		<tag k="natural" v="valley" />
		<tag k="place" v="locality" />
		<tag k="ssr:stedsnr" v="895448" />
	</node>
	<node lat="61.139927778520644" lon="5.002013897177418" id="-79017">
		<tag k="name" v="Ormebakken" />
		<tag k="natural" v="slope" />
		<tag k="place" v="locality" />
		<tag k="ssr:stedsnr" v="895453" />
	</node>
	<node lat="61.201541665972194" lon="4.983755557447411" id="-79018">
		<tag k="name" v="Blomskårane" />
		<tag k="place" v="locality" />
		<tag k="ssr:stedsnr" v="895581" />
	</node>
	<node lat="61.146013886896604" lon="4.940477773006976" id="-79019">
		<tag k="fixme" v="consider natural=peak for the most distinct mountains in the district" />
		<tag k="name" v="Geiteskorknolten" />
		<tag k="natural" v="hill" />
		<tag k="place" v="locality" />
		<tag k="ssr:stedsnr" v="895998" />
	</node>
	<node lat="61.13079444297767" lon="4.9796944459690655" id="-79020">
		<tag k="name" v="Dingedalen" />
		<tag k="natural" v="valley" />
		<tag k="place" v="locality" />
		<tag k="ssr:stedsnr" v="895889" />
	</node>
	<node lat="61.14845277521794" lon="4.950011111603509" id="-79021">
		<tag k="fixme" v="consider natural=peak for the most distinct mountains in the district" />
		<tag k="name" v="Furerusta" />
		<tag k="natural" v="hill" />
		<tag k="place" v="locality" />
		<tag k="ssr:stedsnr" v="895949" />
	</node>
	<node lat="61.09108888572396" lon="4.703822218399575" id="-79024">
		<tag k="name" v="Høgehaugen" />
		<tag k="natural" v="hill" />
		<tag k="place" v="locality" />
		<tag k="ssr:stedsnr" v="710231" />
	</node>
	<node lat="61.10224166470804" lon="4.69624166220561" id="-79025">
		<tag k="fixme" v="consider natural=peak for the most distinct mountains in the district" />
		<tag k="name" v="Nordretinden" />
		<tag k="natural" v="hill" />
		<tag k="place" v="locality" />
		<tag k="ssr:stedsnr" v="710254" />
	</node>
	<node lat="61.115788890990935" lon="4.8408111054642315" id="-79026">
		<tag k="name" v="Slettebakkane" />
		<tag k="natural" v="slope" />
		<tag k="place" v="locality" />
		<tag k="ssr:stedsnr" v="711016" />
	</node>
	<node lat="61.080522224100285" lon="4.6970999920392575" id="-79029">
		<tag k="fixme" v="consider natural=peak for the most distinct mountains in the district" />
		<tag k="name" v="Svefjellet" />
		<tag k="natural" v="hill" />
		<tag k="place" v="locality" />
		<tag k="ssr:stedsnr" v="711229" />
	</node>
	<node lat="61.1921972244153" lon="4.930683332179312" id="-79030">
		<tag k="name" v="Blombakken" />
		<tag k="natural" v="slope" />
		<tag k="place" v="locality" />
		<tag k="ssr:stedsnr" v="711414" />
	</node>
	<node lat="61.19536666799944" lon="4.964808341842259" id="-79034">
		<tag k="name" v="Frukostdalen" />
		<tag k="natural" v="valley" />
		<tag k="place" v="locality" />
		<tag k="ssr:stedsnr" v="711390" />
	</node>
	<node lat="61.01093333609003" lon="4.728438881468846" id="-79038">
		<tag k="name" v="Dyttingane" />
		<tag k="natural" v="slope" />
		<tag k="place" v="locality" />
		<tag k="ssr:stedsnr" v="711809" />
	</node>
	<node lat="61.028138886488385" lon="4.770291658757785" id="-79040">
		<tag k="name" v="Gudmundhaka" />
		<tag k="natural" v="hill" />
		<tag k="place" v="locality" />
		<tag k="ssr:stedsnr" v="711717" />
	</node>
	<node lat="61.07356944343222" lon="4.8601388937978856" id="-79042">
		<tag k="name" v="Ormeskaret" />
		<tag k="natural" v="valley" />
		<tag k="place" v="locality" />
		<tag k="ssr:stedsnr" v="711729" />
	</node>
	<node lat="61.19579722356622" lon="4.753291669507876" id="-79045">
		<tag k="name" v="Storehaugen" />
		<tag k="natural" v="hill" />
		<tag k="place" v="locality" />
		<tag k="ssr:stedsnr" v="712076" />
	</node>
	<node lat="61.08407500227764" lon="4.782794442301381" id="-79046">
		<tag k="name" v="Trollholene" />
		<tag k="natural" v="gorge" />
		<tag k="ssr:stedsnr" v="711999" />
	</node>
	<node lat="61.17730000133831" lon="4.988297222044947" id="-79047">
		<tag k="fixme" v="consider natural=peak for the most distinct mountains in the district" />
		<tag k="name" v="Såta" />
		<tag k="natural" v="hill" />
		<tag k="place" v="locality" />
		<tag k="ssr:stedsnr" v="712175" />
	</node>
	<node lat="61.14747777887264" lon="4.994427768417498" id="-79051">
		<tag k="name" v="Staveheia" />
		<tag k="natural" v="hill" />
		<tag k="place" v="locality" />
		<tag k="ssr:stedsnr" v="712628" />
	</node>
	<node lat="61.03143333360248" lon="4.774930547729957" id="-79052">
		<tag k="name" v="Skarpehaugane" />
		<tag k="natural" v="hill" />
		<tag k="place" v="locality" />
		<tag k="ssr:stedsnr" v="712675" />
	</node>
	<node lat="61.0572888918788" lon="4.834763883115427" id="-79058">
		<tag k="alt_name" v="Klubbane, s" />
		<tag k="name" v="Søre Klubbane" />
		<tag k="natural" v="hill" />
		<tag k="place" v="locality" />
		<tag k="ssr:stedsnr" v="719274" />
	</node>
	<node lat="61.12157500265133" lon="4.854413879432587" id="-79063">
		<tag k="alt_name" v="Sauedalen, in" />
		<tag k="name" v="Indre Sauedalen" />
		<tag k="natural" v="valley" />
		<tag k="place" v="locality" />
		<tag k="ssr:stedsnr" v="902152" />
	</node>
	<node lat="61.12041944269177" lon="4.8496027709015435" id="-79066">
		<tag k="alt_name" v="Sauedalen, yt" />
		<tag k="name" v="Ytre Sauedalen" />
		<tag k="natural" v="valley" />
		<tag k="place" v="locality" />
		<tag k="ssr:stedsnr" v="902148" />
	</node>
	<node lat="61.20312500152642" lon="4.8992666710692365" id="-79074">
		<tag k="alt_name" v="Storelauvnipa" />
		<tag k="fixme" v="consider natural=peak for the most distinct mountains in the district" />
		<tag k="name" v="Lauvnipa" />
		<tag k="natural" v="hill" />
		<tag k="place" v="locality" />
		<tag k="ssr:stedsnr" v="737104" />
	</node>
	<node lat="61.09461944348035" lon="4.863722224406446" id="-79081">
		<tag k="fixme" v="consider natural=peak for the most distinct mountains in the district" />
		<tag k="name" v="Nipa" />
		<tag k="natural" v="hill" />
		<tag k="place" v="locality" />
		<tag k="ssr:stedsnr" v="737306" />
	</node>
	<node lat="61.088705555500745" lon="4.8506055593110675" id="-79083">
		<tag k="alt_name" v="Mebotnen" />
		<tag k="name" v="Medbotnen" />
		<tag k="natural" v="valley" />
		<tag k="place" v="locality" />
		<tag k="ssr:stedsnr" v="737319" />
	</node>
	<node lat="61.06127499931498" lon="4.649183325485158" id="-79099">
		<tag k="name" v="Hellevikhammaren" />
		<tag k="natural" v="hill" />
		<tag k="place" v="locality" />
		<tag k="ssr:stedsnr" v="737765" />
	</node>
	<node lat="61.14753333144638" lon="4.957197220084123" id="-79106">
		<tag k="name" v="Engevikdalen" />
		<tag k="natural" v="valley" />
		<tag k="place" v="locality" />
		<tag k="ssr:stedsnr" v="902470" />
	</node>
	<node lat="61.08620833605098" lon="4.830252774949023" id="-79111">
		<tag k="name" v="Trollevikklubben" />
		<tag k="natural" v="hill" />
		<tag k="place" v="locality" />
		<tag k="ssr:stedsnr" v="752861" />
	</node>
	<node lat="61.1054305511019" lon="4.857824995494052" id="-79116">
		<tag k="name" v="Gynneforgytten" />
		<tag k="natural" v="hill" />
		<tag k="place" v="locality" />
		<tag k="ssr:stedsnr" v="772116" />
	</node>
	<node lat="61.072663890074516" lon="4.740141659279151" id="-79117">
		<tag k="fixme" v="consider natural=peak for the most distinct mountains in the district" />
		<tag k="name" v="Skoltane" />
		<tag k="natural" v="hill" />
		<tag k="place" v="locality" />
		<tag k="ssr:stedsnr" v="772120" />
	</node>
	<node lat="61.21061111120899" lon="4.767102784903284" id="-79118">
		<tag k="fixme" v="consider natural=peak for the most distinct mountains in the district" />
		<tag k="name" v="Resevåghammaren" />
		<tag k="natural" v="hill" />
		<tag k="place" v="locality" />
		<tag k="ssr:stedsnr" v="772014" />
	</node>
	<node lat="61.131694448818145" lon="4.841980554200688" id="-79119">
		<tag k="name" v="Kaldhammaren" />
		<tag k="natural" v="hill" />
		<tag k="place" v="locality" />
		<tag k="ssr:stedsnr" v="772063" />
	</node>
	<node lat="61.144363890519955" lon="4.839749999801684" id="-79121">
		<tag k="name" v="Søre Stegedalen" />
		<tag k="natural" v="valley" />
		<tag k="place" v="locality" />
		<tag k="ssr:stedsnr" v="772209" />
	</node>
	<node lat="61.14664444878586" lon="4.784138897315244" id="-79122">
		<tag k="name" v="Hommandehaugen" />
		<tag k="natural" v="hill" />
		<tag k="place" v="locality" />
		<tag k="ssr:stedsnr" v="772157" />
	</node>
	<node lat="61.05440000041912" lon="4.8921527784761825" id="-79124">
		<tag k="name" v="Vaddalen" />
		<tag k="natural" v="valley" />
		<tag k="place" v="locality" />
		<tag k="ssr:stedsnr" v="772262" />
	</node>
	<node lat="61.172397225582266" lon="4.929252786098563" id="-79125">
		<tag k="name" v="Erdalen" />
		<tag k="natural" v="valley" />
		<tag k="place" v="locality" />
		<tag k="ssr:stedsnr" v="772275" />
	</node>
	<node lat="61.19518888490932" lon="4.957208337941386" id="-79127">
		<tag k="name" v="Nonskaret" />
		<tag k="natural" v="valley" />
		<tag k="place" v="locality" />
		<tag k="ssr:stedsnr" v="772415" />
	</node>
	<node lat="61.061763892030584" lon="4.781947228840611" id="-79129">
		<tag k="fixme" v="consider natural=peak for the most distinct mountains in the district" />
		<tag k="name" v="Nordre Hesjevikfjellet" />
		<tag k="natural" v="hill" />
		<tag k="place" v="locality" />
		<tag k="ssr:stedsnr" v="772564" />
	</node>
	<node lat="61.127750002420804" lon="4.943888880137245" id="-79130">
		<tag k="name" v="Enjabakken" />
		<tag k="natural" v="slope" />
		<tag k="place" v="locality" />
		<tag k="ssr:stedsnr" v="772764" />
	</node>
	<node lat="61.17526666402269" lon="4.901400003540155" id="-79131">
		<tag k="name" v="Røven" />
		<tag k="natural" v="hill" />
		<tag k="place" v="locality" />
		<tag k="ssr:stedsnr" v="772904" />
	</node>
	<node lat="61.0802333296823" lon="4.781038888434117" id="-79132">
		<tag k="name" v="Mefjellsdalen" />
		<tag k="natural" v="valley" />
		<tag k="place" v="locality" />
		<tag k="ssr:stedsnr" v="772988" />
	</node>
	<node lat="61.111047219818616" lon="4.8698166587453855" id="-79133">
		<tag k="name" v="Langehaugsdalen" />
		<tag k="natural" v="valley" />
		<tag k="place" v="locality" />
		<tag k="ssr:stedsnr" v="773864" />
	</node>
	<node lat="61.09700555903926" lon="5.003719442234743" id="-79134">
		<tag k="name" v="Skarvebotnen" />
		<tag k="natural" v="valley" />
		<tag k="place" v="locality" />
		<tag k="ssr:stedsnr" v="774111" />
	</node>
	<node lat="61.17814722370687" lon="4.976897222801823" id="-79139">
		<tag k="alt_name" v="Sjøburdfjellet" />
		<tag k="fixme" v="consider natural=peak for the most distinct mountains in the district" />
		<tag k="name" v="Sjøbufjellet" />
		<tag k="natural" v="hill" />
		<tag k="place" v="locality" />
		<tag k="ssr:stedsnr" v="798047" />
	</node>
	<node lat="61.15330000228008" lon="4.877630550809619" id="-79145">
		<tag k="fixme" v="consider natural=peak for the most distinct mountains in the district" />
		<tag k="name" v="Bøfjellet" />
		<tag k="natural" v="hill" />
		<tag k="place" v="locality" />
		<tag k="ssr:stedsnr" v="798002" />
	</node>
	<node lat="61.20399444024601" lon="4.910147226177861" id="-79146">
		<tag k="alt_name" v="Uranipa" />
		<tag k="fixme" v="consider natural=peak for the most distinct mountains in the district" />
		<tag k="name" v="Urdanipa" />
		<tag k="natural" v="hill" />
		<tag k="place" v="locality" />
		<tag k="ssr:stedsnr" v="798104" />
	</node>
	<node lat="61.13522499873261" lon="4.994913880363283" id="-79151">
		<tag k="alt_name" v="Dyraheia" />
		<tag k="fixme" v="consider natural=peak for the most distinct mountains in the district" />
		<tag k="name" v="Dyreheia" />
		<tag k="natural" v="hill" />
		<tag k="place" v="locality" />
		<tag k="ssr:stedsnr" v="798148" />
	</node>
	<node lat="61.12234166515235" lon="4.787733330177509" id="-79154">
		<tag k="fixme" v="consider natural=peak for the most distinct mountains in the district" />
		<tag k="name" v="Færøytinden" />
		<tag k="natural" v="hill" />
		<tag k="place" v="locality" />
		<tag k="ssr:stedsnr" v="798164" />
	</node>
	<node lat="61.11837777809624" lon="5.069241659183729" id="-79157">
		<tag k="name" v="Skjenen" />
		<tag k="natural" v="hill" />
		<tag k="place" v="locality" />
		<tag k="ssr:stedsnr" v="798322" />
	</node>
	<node lat="61.0796694402691" lon="4.795716667395999" id="-79158">
		<tag k="name" v="Storeglåmen" />
		<tag k="natural" v="hill" />
		<tag k="place" v="locality" />
		<tag k="ssr:stedsnr" v="798300" />
	</node>
	<node lat="61.03732500215259" lon="4.708791663209141" id="-79171">
		<tag k="alt_name" v="Hestfjellet;Benkefjellet" />
		<tag k="fixme" v="consider natural=peak for the most distinct mountains in the district" />
		<tag k="name" v="Benken" />
		<tag k="natural" v="hill" />
		<tag k="place" v="locality" />
		<tag k="ssr:stedsnr" v="798750" />
	</node>
	<node lat="61.18376388739101" lon="4.87481943990387" id="-79181">
		<tag k="alt_name" v="Helleren" />
		<tag k="name" v="Hellaren" />
		<tag k="natural" v="hill" />
		<tag k="place" v="locality" />
		<tag k="ssr:stedsnr" v="919078" />
	</node>
	<node lat="61.126441664761" lon="4.842230564266206" id="-79184">
		<tag k="alt_name" v="Fagredalen" />
		<tag k="name" v="Fagerdalen" />
		<tag k="natural" v="valley" />
		<tag k="place" v="locality" />
		<tag k="ssr:stedsnr" v="919163" />
	</node>
	<node lat="61.04809722046838" lon="4.87904723112043" id="-79190">
		<tag k="name" v="Humledalen" />
		<tag k="natural" v="valley" />
		<tag k="place" v="locality" />
		<tag k="ssr:stedsnr" v="920457" />
	</node>
	<node lat="61.115602779249414" lon="4.881100007507523" id="-79201">
		<tag k="name" v="Ormedalen" />
		<tag k="natural" v="valley" />
		<tag k="place" v="locality" />
		<tag k="ssr:stedsnr" v="919133" />
	</node>
	<node lat="61.14627778140543" lon="5.035900000530045" id="-79203">
		<tag k="fixme" v="consider natural=peak for the most distinct mountains in the district" />
		<tag k="name" v="Høgeheia" />
		<tag k="natural" v="hill" />
		<tag k="place" v="locality" />
		<tag k="ssr:stedsnr" v="919182" />
	</node>
	<node lat="61.06062499633279" lon="4.775519441822554" id="-79208">
		<tag k="name" v="Ørnereirhaugane" />
		<tag k="natural" v="hill" />
		<tag k="place" v="locality" />
		<tag k="ssr:stedsnr" v="919292" />
	</node>
	<node lat="61.07780555793789" lon="4.832761115537795" id="-79227">
		<tag k="name" v="Bratteberget" />
		<tag k="natural" v="hill" />
		<tag k="place" v="locality" />
		<tag k="ssr:stedsnr" v="832833" />
	</node>
	<node lat="61.103088884951696" lon="4.808269447763369" id="-79228">
		<tag k="name" v="Kobbehovudet" />
		<tag k="natural" v="hill" />
		<tag k="place" v="locality" />
		<tag k="ssr:stedsnr" v="833035" />
	</node>
	<node lat="61.12599166551848" lon="4.776375006029935" id="-79231">
		<tag k="name" v="Klubben" />
		<tag k="natural" v="hill" />
		<tag k="place" v="locality" />
		<tag k="ssr:stedsnr" v="833241" />
	</node>
	<node lat="61.142608335525026" lon="4.837905548578799" id="-79237">
		<tag k="fixme" v="consider natural=peak for the most distinct mountains in the district" />
		<tag k="name" v="Tua" />
		<tag k="natural" v="hill" />
		<tag k="place" v="locality" />
		<tag k="ssr:stedsnr" v="833200" />
	</node>
	<node lat="61.1219361124178" lon="4.9495472296499194" id="-79241">
		<tag k="name" v="Svarthammaren" />
		<tag k="natural" v="hill" />
		<tag k="place" v="locality" />
		<tag k="ssr:stedsnr" v="833590" />
	</node>
	<node lat="61.12078610784594" lon="4.961722225420929" id="-79242">
		<tag k="fixme" v="consider natural=peak for the most distinct mountains in the district" />
		<tag k="name" v="Hogsnova" />
		<tag k="natural" v="hill" />
		<tag k="place" v="locality" />
		<tag k="ssr:stedsnr" v="833599" />
	</node>
	<node lat="61.144536114509435" lon="4.921461101506704" id="-79257">
		<tag k="fixme" v="consider natural=peak for the most distinct mountains in the district" />
		<tag k="name" v="Furevikfjellet" />
		<tag k="natural" v="hill" />
		<tag k="place" v="locality" />
		<tag k="ssr:stedsnr" v="859167" />
	</node>
	<node lat="61.06443888889866" lon="4.82985278266471" id="-79270">
		<tag k="name" v="Nordre Klubbane" />
		<tag k="natural" v="hill" />
		<tag k="place" v="locality" />
		<tag k="ssr:stedsnr" v="859268" />
	</node>
	<node lat="61.027594441142384" lon="4.676377774854553" id="-79277">
		<tag k="fixme" v="consider natural=peak for the most distinct mountains in the district" />
		<tag k="name" v="Vardefjellet" />
		<tag k="natural" v="hill" />
		<tag k="place" v="locality" />
		<tag k="ssr:stedsnr" v="859928" />
	</node>
	<node lat="61.113883334208055" lon="4.716038893486568" id="-79286">
		<tag k="fixme" v="consider natural=peak for the most distinct mountains in the district" />
		<tag k="name" v="Oldretinden" />
		<tag k="natural" v="hill" />
		<tag k="place" v="locality" />
		<tag k="ssr:stedsnr" v="893258" />
	</node>
	<node lat="61.0749388912894" lon="4.758408324978078" id="-79290">
		<tag k="fixme" v="consider natural=peak for the most distinct mountains in the district" />
		<tag k="name" v="Såta" />
		<tag k="natural" v="hill" />
		<tag k="place" v="locality" />
		<tag k="ssr:stedsnr" v="893540" />
	</node>
	<node lat="61.06377222169531" lon="4.771441659331366" id="-79293">
		<tag k="name" v="Vassbotnen" />
		<tag k="natural" v="valley" />
		<tag k="place" v="locality" />
		<tag k="ssr:stedsnr" v="893571" />
	</node>
	<node lat="61.066733329909475" lon="4.7683750072077915" id="-79294">
		<tag k="fixme" v="consider natural=peak for the most distinct mountains in the district" />
		<tag k="name" v="Nipene" />
		<tag k="natural" v="hill" />
		<tag k="place" v="locality" />
		<tag k="ssr:stedsnr" v="893578" />
	</node>
	<node lat="61.06223888717161" lon="4.766891669253658" id="-79295">
		<tag k="name" v="Finnsbotnen" />
		<tag k="natural" v="valley" />
		<tag k="place" v="locality" />
		<tag k="ssr:stedsnr" v="893579" />
	</node>
	<node lat="61.08517499847646" lon="4.758916674572451" id="-79297">
		<tag k="name" v="Litle-Hellelia" />
		<tag k="natural" v="slope" />
		<tag k="place" v="locality" />
		<tag k="ssr:stedsnr" v="893964" />
	</node>
	<node lat="61.08098888933005" lon="4.778341672169935" id="-79298">
		<tag k="fixme" v="consider natural=peak for the most distinct mountains in the district" />
		<tag k="name" v="Mefjellet" />
		<tag k="natural" v="hill" />
		<tag k="place" v="locality" />
		<tag k="ssr:stedsnr" v="893982" />
	</node>
	<node lat="61.15589999701267" lon="4.899322223261052" id="-79299">
		<tag k="name" v="Langedalen" />
		<tag k="natural" v="valley" />
		<tag k="place" v="locality" />
		<tag k="ssr:stedsnr" v="893860" />
	</node>
	<node lat="61.118441665947906" lon="4.842322221347768" id="-79302">
		<tag k="name" v="Mjølkestigen" />
		<tag k="natural" v="slope" />
		<tag k="place" v="locality" />
		<tag k="ssr:stedsnr" v="894015" />
	</node>
	<node lat="61.07314166547721" lon="4.854133326567957" id="-79312">
		<tag k="name" v="Raudkolleskorane" />
		<tag k="place" v="locality" />
		<tag k="ssr:stedsnr" v="894728" />
	</node>
	<node lat="61.18211666886797" lon="4.9511750064094535" id="-79314">
		<tag k="fixme" v="consider natural=peak for the most distinct mountains in the district" />
		<tag k="name" v="Tippknolten" />
		<tag k="natural" v="hill" />
		<tag k="place" v="locality" />
		<tag k="ssr:stedsnr" v="894959" />
	</node>
	<node lat="61.16481667100293" lon="4.959230556409728" id="-79315">
		<tag k="name" v="Klubbane" />
		<tag k="natural" v="hill" />
		<tag k="place" v="locality" />
		<tag k="ssr:stedsnr" v="894981" />
	</node>
	<node lat="61.11678889271657" lon="5.080755556520305" id="-79316">
		<tag k="name" v="Einehaugane" />
		<tag k="natural" v="hill" />
		<tag k="place" v="locality" />
		<tag k="ssr:stedsnr" v="895068" />
	</node>
	<node lat="61.122266662550714" lon="4.986199992374096" id="-79320">
		<tag k="name" v="Tomeskorbakken" />
		<tag k="natural" v="slope" />
		<tag k="place" v="locality" />
		<tag k="ssr:stedsnr" v="895463" />
	</node>
	<node lat="61.12785000202759" lon="4.8719333326474485" id="-79322">
		<tag k="name" v="Langedalsheia" />
		<tag k="natural" v="hill" />
		<tag k="place" v="locality" />
		<tag k="ssr:stedsnr" v="895861" />
	</node>
	<node lat="61.09102777546893" lon="4.75727221493939" id="-79343">
		<tag k="fixme" v="consider natural=peak for the most distinct mountains in the district" />
		<tag k="name" v="Kupefjellet" />
		<tag k="natural" v="hill" />
		<tag k="old_name" v="Kupa" />
		<tag k="place" v="locality" />
		<tag k="ssr:stedsnr" v="919355" />
	</node>
	<node lat="61.14676666682615" lon="4.9893777726322615" id="-79353">
		<tag k="name" v="Blomdalen" />
		<tag k="natural" v="valley" />
		<tag k="place" v="locality" />
		<tag k="ssr:stedsnr" v="920218" />
	</node>
	<node lat="61.13738889103817" lon="4.841902770755909" id="-79355">
		<tag k="fixme" v="consider natural=peak for the most distinct mountains in the district" />
		<tag k="name" v="Storenova" />
		<tag k="natural" v="hill" />
		<tag k="place" v="locality" />
		<tag k="ssr:stedsnr" v="920201" />
	</node>
	<node lat="61.19442777469384" lon="4.890786104346488" id="-79360">
		<tag k="name" v="Ureskaret" />
		<tag k="natural" v="valley" />
		<tag k="place" v="locality" />
		<tag k="ssr:stedsnr" v="953424" />
	</node>
	<node lat="61.115194443685986" lon="4.846638886466662" id="-79365">
		<tag k="name" v="Koren" />
		<tag k="natural" v="hill" />
		<tag k="place" v="locality" />
		<tag k="ssr:stedsnr" v="954116" />
	</node>
	<node lat="61.00461944355806" lon="4.67608889534765" id="-79368">
		<tag k="name" v="Lødalen" />
		<tag k="natural" v="valley" />
		<tag k="place" v="locality" />
		<tag k="ssr:stedsnr" v="954088" />
	</node>
	<node lat="61.12270555143063" lon="4.970338880599644" id="-79377">
		<tag k="name" v="Billekleiva" />
		<tag k="natural" v="slope" />
		<tag k="place" v="locality" />
		<tag k="ssr:stedsnr" v="954699" />
	</node>
	<node lat="61.02605278061087" lon="4.770911102686113" id="-79378">
		<tag k="name" v="Oddenova" />
		<tag k="natural" v="hill" />
		<tag k="place" v="locality" />
		<tag k="ssr:stedsnr" v="954700" />
	</node>
	<node lat="61.1465083313638" lon="4.863752778450568" id="-79382">
		<tag k="fixme" v="consider natural=peak for the most distinct mountains in the district" />
		<tag k="name" v="Litlefjellet" />
		<tag k="natural" v="hill" />
		<tag k="place" v="locality" />
		<tag k="ssr:stedsnr" v="954852" />
	</node>
	<node lat="61.08628611466219" lon="4.852652786490791" id="-79384">
		<tag k="fixme" v="consider natural=peak for the most distinct mountains in the district" />
		<tag k="name" v="Gyttefjellet" />
		<tag k="natural" v="hill" />
		<tag k="place" v="locality" />
		<tag k="ssr:stedsnr" v="954856" />
	</node>
	<node lat="61.17145833411598" lon="5.0091583318572965" id="-79387">
		<tag k="fixme" v="consider natural=peak for the most distinct mountains in the district" />
		<tag k="name" v="Holmen" />
		<tag k="natural" v="hill" />
		<tag k="place" v="locality" />
		<tag k="ssr:stedsnr" v="955231" />
	</node>
	<node lat="61.148675003937846" lon="4.829461104136689" id="-79420">
		<tag k="name" v="Storehaugen" />
		<tag k="natural" v="hill" />
		<tag k="place" v="locality" />
		<tag k="ssr:stedsnr" v="8555" />
	</node>
	<node lat="61.127902780829814" lon="4.835997226420135" id="-79427">
		<tag k="fixme" v="consider natural=peak for the most distinct mountains in the district" />
		<tag k="name" v="Botnafjellet" />
		<tag k="natural" v="hill" />
		<tag k="place" v="locality" />
		<tag k="ssr:stedsnr" v="9146" />
	</node>
	<node lat="61.15423889196706" lon="4.934122218685949" id="-79432">
		<tag k="fixme" v="consider natural=peak for the most distinct mountains in the district" />
		<tag k="name" v="Lauvskorheia" />
		<tag k="natural" v="hill" />
		<tag k="place" v="locality" />
		<tag k="ssr:stedsnr" v="9003" />
	</node>
	<node lat="61.11837222638036" lon="4.949163886504913" id="-79440">
		<tag k="name" v="Klovedalen" />
		<tag k="natural" v="valley" />
		<tag k="place" v="locality" />
		<tag k="ssr:stedsnr" v="9116" />
	</node>
	<node lat="61.123269440548036" lon="4.933219445211742" id="-79441">
		<tag k="name" v="Tjørndalen" />
		<tag k="natural" v="valley" />
		<tag k="place" v="locality" />
		<tag k="ssr:stedsnr" v="9120" />
	</node>
	<node lat="61.07523610799214" lon="4.846155553346456" id="-79447">
		<tag k="fixme" v="multiple name tags, choose one and add the other to alt_name; consider natural=peak for the most distinct mountains in the district" />
		<tag k="name" v="Hardbakkefjellet;Ramnnipa" />
		<tag k="natural" v="hill" />
		<tag k="place" v="locality" />
		<tag k="ssr:stedsnr" v="9249" />
	</node>
	<node lat="61.06202777736786" lon="4.79996944484306" id="-79449">
		<tag k="fixme" v="consider natural=peak for the most distinct mountains in the district" />
		<tag k="name" v="Lifjellet" />
		<tag k="natural" v="hill" />
		<tag k="place" v="locality" />
		<tag k="ssr:stedsnr" v="9260" />
	</node>
	<node lat="61.08209166698485" lon="4.938772218461911" id="-79450">
		<tag k="fixme" v="consider natural=peak for the most distinct mountains in the district" />
		<tag k="name" v="Nonsvarden" />
		<tag k="natural" v="hill" />
		<tag k="place" v="locality" />
		<tag k="ssr:stedsnr" v="9269" />
	</node>
	<node lat="61.103185423944865" lon="4.937871774136331" id="-79452">
		<tag k="alt_name" v="Breiddalen" />
		<tag k="name" v="Breidalen" />
		<tag k="natural" v="valley" />
		<tag k="place" v="locality" />
		<tag k="ssr:stedsnr" v="9279" />
	</node>
	<node lat="61.11575555439765" lon="5.015869447875636" id="-79454">
		<tag k="alt_name" v="Langehamrane" />
		<tag k="name" v="Langhamrane" />
		<tag k="natural" v="slope" />
		<tag k="place" v="locality" />
		<tag k="ssr:stedsnr" v="9340" />
	</node>
	<node lat="61.10357499807796" lon="4.910400008551462" id="-79457">
		<tag k="fixme" v="consider natural=peak for the most distinct mountains in the district" />
		<tag k="name" v="Høgefjellet" />
		<tag k="natural" v="hill" />
		<tag k="place" v="locality" />
		<tag k="ssr:stedsnr" v="9355" />
	</node>
	<node lat="61.00893889198175" lon="4.681141675153112" id="-79479">
		<tag k="name" v="Holtane" />
		<tag k="natural" v="hill" />
		<tag k="place" v="locality" />
		<tag k="ssr:stedsnr" v="9969" />
	</node>
	<node lat="61.11624722168004" lon="4.967519451429948" id="-79484">
		<tag k="fixme" v="consider natural=peak for the most distinct mountains in the district" />
		<tag k="name" v="Øvre Jo- haugen" />
		<tag k="natural" v="hill" />
		<tag k="place" v="locality" />
		<tag k="ssr:stedsnr" v="43154" />
	</node>
	<node lat="61.11946110907803" lon="4.969800003801969" id="-79485">
		<tag k="fixme" v="consider natural=peak for the most distinct mountains in the district" />
		<tag k="name" v="Raudeskogsheia" />
		<tag k="natural" v="hill" />
		<tag k="place" v="locality" />
		<tag k="ssr:stedsnr" v="43155" />
	</node>
	<node lat="61.11059167003281" lon="4.969436101679461" id="-79486">
		<tag k="fixme" v="consider natural=peak for the most distinct mountains in the district" />
		<tag k="name" v="Kjerringane" />
		<tag k="natural" v="hill" />
		<tag k="place" v="locality" />
		<tag k="ssr:stedsnr" v="43159" />
	</node>
	<node lat="61.04349443991142" lon="4.777647215689672" id="-79491">
		<tag k="name" v="Trollebotnen" />
		<tag k="natural" v="valley" />
		<tag k="place" v="locality" />
		<tag k="ssr:stedsnr" v="43734" />
	</node>
	<node lat="61.10553055108045" lon="4.843022216818466" id="-79493">
		<tag k="name" v="Kupa" />
		<tag k="natural" v="valley" />
		<tag k="place" v="locality" />
		<tag k="ssr:stedsnr" v="44116" />
	</node>
	<node lat="61.20981388909823" lon="4.7473166623872265" id="-79494">
		<tag k="fixme" v="consider natural=peak for the most distinct mountains in the district" />
		<tag k="name" v="Litlefjellet" />
		<tag k="natural" v="hill" />
		<tag k="place" v="locality" />
		<tag k="ssr:stedsnr" v="44126" />
	</node>
	<node lat="61.1902416646192" lon="4.92526666977557" id="-79495">
		<tag k="name" v="Venedalen" />
		<tag k="natural" v="valley" />
		<tag k="place" v="locality" />
		<tag k="ssr:stedsnr" v="43399" />
	</node>
	<node lat="61.096472217755895" lon="4.835580548331332" id="-79502">
		<tag k="fixme" v="consider natural=peak for the most distinct mountains in the district" />
		<tag k="name" v="Skarpenesfjellet" />
		<tag k="natural" v="hill" />
		<tag k="place" v="locality" />
		<tag k="ssr:stedsnr" v="43823" />
	</node>
	<node lat="61.13896388537347" lon="4.84593611973907" id="-79504">
		<tag k="name" v="Storenovbakkane" />
		<tag k="natural" v="slope" />
		<tag k="place" v="locality" />
		<tag k="ssr:stedsnr" v="44052" />
	</node>
	<node lat="61.07938888544543" lon="4.743288887528521" id="-79505">
		<tag k="fixme" v="consider natural=peak for the most distinct mountains in the district" />
		<tag k="name" v="Bekkefjellet" />
		<tag k="natural" v="hill" />
		<tag k="place" v="locality" />
		<tag k="ssr:stedsnr" v="44225" />
	</node>
	<node lat="61.06430277335176" lon="4.694461110485779" id="-79508">
		<tag k="name" v="Indre Heia" />
		<tag k="natural" v="hill" />
		<tag k="place" v="locality" />
		<tag k="ssr:stedsnr" v="44149" />
	</node>
	<node lat="61.15467499966575" lon="4.848416658470061" id="-79509">
		<tag k="name" v="Teineberget" />
		<tag k="natural" v="hill" />
		<tag k="place" v="locality" />
		<tag k="ssr:stedsnr" v="44177" />
	</node>
	<node lat="61.21051389103768" lon="4.910102777027989" id="-79519">
		<tag k="name" v="Byrget" />
		<tag k="natural" v="hill" />
		<tag k="place" v="locality" />
		<tag k="ssr:stedsnr" v="44463" />
	</node>
	<node lat="61.063127779600784" lon="4.837475001577177" id="-79521">
		<tag k="name" v="Langhaugen" />
		<tag k="natural" v="hill" />
		<tag k="place" v="locality" />
		<tag k="ssr:stedsnr" v="44666" />
	</node>
	<node lat="61.06385000003524" lon="4.827888881236797" id="-79522">
		<tag k="name" v="Vinkelhaugen" />
		<tag k="natural" v="hill" />
		<tag k="place" v="locality" />
		<tag k="ssr:stedsnr" v="44667" />
	</node>
	<node lat="61.18104444840006" lon="4.864938879802529" id="-79523">
		<tag k="name" v="Småhaugane" />
		<tag k="natural" v="hill" />
		<tag k="place" v="locality" />
		<tag k="ssr:stedsnr" v="44869" />
	</node>
	<node lat="61.1393999964859" lon="4.951702777873538" id="-79531">
		<tag k="fixme" v="consider natural=peak for the most distinct mountains in the district" />
		<tag k="name" v="Sveisbergnova" />
		<tag k="natural" v="hill" />
		<tag k="place" v="locality" />
		<tag k="ssr:stedsnr" v="44934" />
	</node>
	<node lat="61.10438889114719" lon="4.870975002354178" id="-79533">
		<tag k="name" v="Moane" />
		<tag k="place" v="locality" />
		<tag k="ssr:stedsnr" v="45997" />
	</node>
	<node lat="61.208625003883014" lon="4.823561114673901" id="-79534">
		<tag k="fixme" v="consider natural=peak for the most distinct mountains in the district" />
		<tag k="name" v="Smiefjellet" />
		<tag k="natural" v="hill" />
		<tag k="place" v="locality" />
		<tag k="ssr:stedsnr" v="45482" />
	</node>
	<node lat="61.11231388713769" lon="4.881344446720274" id="-79535">
		<tag k="fixme" v="consider natural=peak for the most distinct mountains in the district" />
		<tag k="name" v="Hennjesteinnova" />
		<tag k="natural" v="hill" />
		<tag k="place" v="locality" />
		<tag k="ssr:stedsnr" v="45866" />
	</node>
	<node lat="61.1536861084062" lon="4.957927786948697" id="-79536">
		<tag k="name" v="Tverrdalen" />
		<tag k="natural" v="valley" />
		<tag k="place" v="locality" />
		<tag k="ssr:stedsnr" v="45934" />
	</node>
	<node lat="61.114402774237035" lon="4.9051583247670365" id="-79537">
		<tag k="name" v="Bårdhelleren" />
		<tag k="natural" v="hill" />
		<tag k="place" v="locality" />
		<tag k="ssr:stedsnr" v="45959" />
	</node>
	<node lat="61.137613890511055" lon="5.085255563084589" id="-79540">
		<tag k="name" v="Klettane" />
		<tag k="natural" v="hill" />
		<tag k="place" v="locality" />
		<tag k="ssr:stedsnr" v="46527" />
	</node>
	<node lat="61.1594027797543" lon="4.880461103837163" id="-79560">
		<tag k="fixme" v="consider natural=peak for the most distinct mountains in the district" />
		<tag k="name" v="Storefjellet" />
		<tag k="natural" v="hill" />
		<tag k="place" v="locality" />
		<tag k="ssr:stedsnr" v="70002" />
	</node>
	<node lat="61.129833333493934" lon="5.0037583408830715" id="-79571">
		<tag k="alt_name" v="Skoreheia" />
		<tag k="fixme" v="consider natural=peak for the most distinct mountains in the district" />
		<tag k="name" v="Storeheia" />
		<tag k="natural" v="hill" />
		<tag k="place" v="locality" />
		<tag k="ssr:stedsnr" v="70138" />
	</node>
	<node lat="61.135447221937895" lon="5.0753333271386625" id="-79572">
		<tag k="name" v="Lomtjørnhaugen" />
		<tag k="natural" v="hill" />
		<tag k="place" v="locality" />
		<tag k="ssr:stedsnr" v="70142" />
	</node>
	<node lat="61.14475000345065" lon="4.9582583387608175" id="-79576">
		<tag k="alt_name" v="Timredalsheia" />
		<tag k="fixme" v="consider natural=peak for the most distinct mountains in the district" />
		<tag k="name" v="Timmerdalsheia" />
		<tag k="natural" v="hill" />
		<tag k="place" v="locality" />
		<tag k="ssr:stedsnr" v="70169" />
	</node>
	<node lat="61.094822220795315" lon="4.83990556467178" id="-79595">
		<tag k="fixme" v="consider natural=peak for the most distinct mountains in the district" />
		<tag k="name" v="Liafjellet" />
		<tag k="natural" v="hill" />
		<tag k="place" v="locality" />
		<tag k="ssr:stedsnr" v="130289" />
	</node>
	<node lat="61.08578332922679" lon="4.91909722409149" id="-79596">
		<tag k="name" v="Ørneberget" />
		<tag k="natural" v="hill" />
		<tag k="place" v="locality" />
		<tag k="ssr:stedsnr" v="130293" />
	</node>
	<node lat="61.08488611340357" lon="4.863825003279233" id="-79598">
		<tag k="fixme" v="consider natural=peak for the most distinct mountains in the district" />
		<tag k="name" v="Hopsnipa" />
		<tag k="natural" v="hill" />
		<tag k="place" v="locality" />
		<tag k="ssr:stedsnr" v="130300" />
	</node>
	<node lat="61.02234999643294" lon="4.6669027773589145" id="-79605">
		<tag k="name" v="Pollefjellet" />
		<tag k="natural" v="hill" />
		<tag k="place" v="locality" />
		<tag k="ssr:stedsnr" v="104059" />
	</node>
	<node lat="61.058191669294025" lon="4.745480549865163" id="-79609">
		<tag k="name" v="Heiane" />
		<tag k="natural" v="hill" />
		<tag k="place" v="locality" />
		<tag k="ssr:stedsnr" v="104168" />
	</node>
	<node lat="61.09992500229298" lon="4.9679666624302365" id="-79610">
		<tag k="name" v="Aksla" />
		<tag k="natural" v="ridge" />
		<tag k="place" v="locality" />
		<tag k="ssr:stedsnr" v="104170" />
	</node>
	<node lat="61.14743610913034" lon="5.071863891963877" id="-79612">
		<tag k="name" v="Skadskorane" />
		<tag k="place" v="locality" />
		<tag k="ssr:stedsnr" v="105329" />
	</node>
	<node lat="61.160419441518" lon="5.054369442562343" id="-79614">
		<tag k="fixme" v="consider natural=peak for the most distinct mountains in the district" />
		<tag k="name" v="Øykjeklanten" />
		<tag k="natural" v="hill" />
		<tag k="place" v="locality" />
		<tag k="ssr:stedsnr" v="105046" />
	</node>
	<node lat="61.077811108012085" lon="4.737055555828043" id="-79623">
		<tag k="name" v="Storehaugen" />
		<tag k="natural" v="hill" />
		<tag k="place" v="locality" />
		<tag k="ssr:stedsnr" v="105234" />
	</node>
	<node lat="61.13511666321845" lon="4.993897213413466" id="-79631">
		<tag k="name" v="Klype" />
		<tag k="natural" v="gorge" />
		<tag k="ssr:stedsnr" v="106459" />
	</node>
	<node lat="61.14621944838587" lon="5.00919444804246" id="-79632">
		<tag k="name" v="Storehaugen" />
		<tag k="natural" v="hill" />
		<tag k="place" v="locality" />
		<tag k="ssr:stedsnr" v="105652" />
	</node>
	<node lat="61.14394166528372" lon="5.001211118408026" id="-79633">
		<tag k="name" v="Vardeheia" />
		<tag k="natural" v="hill" />
		<tag k="place" v="locality" />
		<tag k="ssr:stedsnr" v="105656" />
	</node>
	<node lat="61.16626944381112" lon="4.994169450964688" id="-79634">
		<tag k="fixme" v="consider natural=peak for the most distinct mountains in the district" />
		<tag k="name" v="Litle Dyrenova" />
		<tag k="natural" v="hill" />
		<tag k="place" v="locality" />
		<tag k="ssr:stedsnr" v="105855" />
	</node>
	<node lat="61.079727775070864" lon="4.803574998502165" id="-79636">
		<tag k="name" v="Grettehaugen" />
		<tag k="natural" v="hill" />
		<tag k="place" v="locality" />
		<tag k="ssr:stedsnr" v="105768" />
	</node>
	<node lat="61.07920833062452" lon="4.761752775643184" id="-79638">
		<tag k="name" v="Storebrekka" />
		<tag k="natural" v="slope" />
		<tag k="place" v="locality" />
		<tag k="ssr:stedsnr" v="105968" />
	</node>
	<node lat="61.099605557166626" lon="4.906569438070681" id="-79639">
		<tag k="name" v="Vikahaugen" />
		<tag k="natural" v="hill" />
		<tag k="place" v="locality" />
		<tag k="ssr:stedsnr" v="106765" />
	</node>
	<node lat="61.1613666626816" lon="4.9314666633426585" id="-79640">
		<tag k="name" v="Einstabbhola" />
		<tag k="natural" v="gorge" />
		<tag k="ssr:stedsnr" v="106943" />
	</node>
	<node lat="61.15922778009987" lon="4.937672217651691" id="-79641">
		<tag k="name" v="Oksedalen" />
		<tag k="natural" v="valley" />
		<tag k="place" v="locality" />
		<tag k="ssr:stedsnr" v="106945" />
	</node>
	<node lat="61.13954444130856" lon="5.0330638880828" id="-79649">
		<tag k="name" v="Standalen" />
		<tag k="natural" v="valley" />
		<tag k="place" v="locality" />
		<tag k="ssr:stedsnr" v="114541" />
	</node>
	<node lat="61.06424722170089" lon="4.930411119946127" id="-79656">
		<tag k="fixme" v="consider natural=peak for the most distinct mountains in the district" />
		<tag k="name" v="Tuva" />
		<tag k="natural" v="hill" />
		<tag k="place" v="locality" />
		<tag k="ssr:stedsnr" v="130244" />
	</node>
	<node lat="61.075974997221195" lon="4.802108329485334" id="-79658">
		<tag k="name" v="Litleglåmen" />
		<tag k="natural" v="hill" />
		<tag k="place" v="locality" />
		<tag k="ssr:stedsnr" v="130266" />
	</node>
	<node lat="61.0677166650725" lon="4.846602770408891" id="-79659">
		<tag k="name" v="Storehaugen" />
		<tag k="natural" v="hill" />
		<tag k="place" v="locality" />
		<tag k="ssr:stedsnr" v="130270" />
	</node>
	<node lat="61.09903888687684" lon="4.8624555513022045" id="-79664">
		<tag k="name" v="Tjørndalen" />
		<tag k="natural" v="valley" />
		<tag k="place" v="locality" />
		<tag k="ssr:stedsnr" v="129534" />
	</node>
	<node lat="61.158438886605055" lon="4.9548305577482985" id="-79667">
		<tag k="fixme" v="consider natural=peak for the most distinct mountains in the district" />
		<tag k="name" v="Bertelfjellet" />
		<tag k="natural" v="hill" />
		<tag k="place" v="locality" />
		<tag k="ssr:stedsnr" v="130218" />
	</node>
	<node lat="61.138022218705885" lon="5.031208331579823" id="-79674">
		<tag k="fixme" v="consider natural=peak for the most distinct mountains in the district" />
		<tag k="name" v="Kobbeviknova" />
		<tag k="natural" v="hill" />
		<tag k="place" v="locality" />
		<tag k="ssr:stedsnr" v="130136" />
	</node>
	<node lat="61.13898888973605" lon="5.070116668577018" id="-79675">
		<tag k="fixme" v="consider natural=peak for the most distinct mountains in the district" />
		<tag k="name" v="Fagerlifjellet" />
		<tag k="natural" v="hill" />
		<tag k="place" v="locality" />
		<tag k="ssr:stedsnr" v="130140" />
	</node>
	<node lat="61.13107222108592" lon="4.860994445681621" id="-79679">
		<tag k="name" v="Sandskardet" />
		<tag k="natural" v="valley" />
		<tag k="place" v="locality" />
		<tag k="ssr:stedsnr" v="130158" />
	</node>
	<node lat="61.131758329405294" lon="4.920452781012687" id="-79680">
		<tag k="fixme" v="consider natural=peak for the most distinct mountains in the district" />
		<tag k="name" v="Austrefjellet" />
		<tag k="natural" v="hill" />
		<tag k="place" v="locality" />
		<tag k="ssr:stedsnr" v="130162" />
	</node>
	<node lat="61.073441662209106" lon="4.691794441486963" id="-79685">
		<tag k="fixme" v="consider natural=peak for the most distinct mountains in the district" />
		<tag k="name" v="Pistefjellet" />
		<tag k="natural" v="hill" />
		<tag k="place" v="locality" />
		<tag k="ssr:stedsnr" v="130740" />
	</node>
	<node lat="61.20124166533179" lon="4.928166667734599" id="-79696">
		<tag k="name" v="Bjørnholteheia" />
		<tag k="natural" v="hill" />
		<tag k="place" v="locality" />
		<tag k="ssr:stedsnr" v="164454" />
	</node>
	<node lat="61.04006666681156" lon="4.771233331962472" id="-79698">
		<tag k="name" v="Synsdalen" />
		<tag k="natural" v="valley" />
		<tag k="place" v="locality" />
		<tag k="ssr:stedsnr" v="165792" />
	</node>
	<node lat="61.12091944784453" lon="4.8374583351703455" id="-79701">
		<tag k="name" v="Råkeskora" />
		<tag k="place" v="locality" />
		<tag k="ssr:stedsnr" v="165055" />
	</node>
	<node lat="61.144411107130686" lon="4.835013893818239" id="-79702">
		<tag k="name" v="Storeskora" />
		<tag k="place" v="locality" />
		<tag k="ssr:stedsnr" v="165187" />
	</node>
	<node lat="61.0558361130959" lon="4.871269440492454" id="-79704">
		<tag k="fixme" v="consider natural=peak for the most distinct mountains in the district" />
		<tag k="name" v="Vågsfjellet" />
		<tag k="natural" v="hill" />
		<tag k="place" v="locality" />
		<tag k="ssr:stedsnr" v="165206" />
	</node>
	<node lat="61.08201110909274" lon="4.864619443492276" id="-79706">
		<tag k="name" v="Nipa" />
		<tag k="natural" v="hill" />
		<tag k="place" v="locality" />
		<tag k="ssr:stedsnr" v="164849" />
	</node>
	<node lat="61.05010000370516" lon="4.880572222732185" id="-79707">
		<tag k="name" v="Blomdalen" />
		<tag k="natural" v="valley" />
		<tag k="place" v="locality" />
		<tag k="ssr:stedsnr" v="165233" />
	</node>
	<node lat="61.05442500290765" lon="4.894891663172824" id="-79709">
		<tag k="fixme" v="consider natural=peak for the most distinct mountains in the district" />
		<tag k="name" v="Nipa" />
		<tag k="natural" v="hill" />
		<tag k="place" v="locality" />
		<tag k="ssr:stedsnr" v="165237" />
	</node>
	<node lat="61.16073055456743" lon="4.8992888972337685" id="-79718">
		<tag k="name" v="Kvernhusdalen" />
		<tag k="natural" v="valley" />
		<tag k="place" v="locality" />
		<tag k="ssr:stedsnr" v="165930" />
	</node>
	<node lat="61.1337444467755" lon="4.883313888395641" id="-79721">
		<tag k="name" v="Kjoedalsheia" />
		<tag k="natural" v="hill" />
		<tag k="place" v="locality" />
		<tag k="ssr:stedsnr" v="165888" />
	</node>
	<node lat="61.183836114398865" lon="4.9516916622638085" id="-79722">
		<tag k="fixme" v="consider natural=peak for the most distinct mountains in the district" />
		<tag k="name" v="Flateknolten" />
		<tag k="natural" v="hill" />
		<tag k="place" v="locality" />
		<tag k="ssr:stedsnr" v="165968" />
	</node>
	<node lat="61.09269444161711" lon="4.767116667978797" id="-79723">
		<tag k="name" v="Rendene" />
		<tag k="natural" v="slope" />
		<tag k="place" v="locality" />
		<tag k="ssr:stedsnr" v="165970" />
	</node>
	<node lat="61.09330555481121" lon="4.770947218384673" id="-79724">
		<tag k="name" v="Kvernhusdalen" />
		<tag k="natural" v="valley" />
		<tag k="place" v="locality" />
		<tag k="ssr:stedsnr" v="165971" />
	</node>
	<node lat="61.12526666846449" lon="4.99571110891241" id="-79726">
		<tag k="name" v="Snebakkane" />
		<tag k="natural" v="slope" />
		<tag k="place" v="locality" />
		<tag k="ssr:stedsnr" v="166471" />
	</node>
	<node lat="61.15480833124759" lon="4.938255562267013" id="-79732">
		<tag k="name" v="Geitesteinen" />
		<tag k="natural" v="hill" />
		<tag k="place" v="locality" />
		<tag k="ssr:stedsnr" v="166932" />
	</node>
	<node lat="61.14460000337638" lon="4.96652500481384" id="-79734">
		<tag k="name" v="Trollurheia" />
		<tag k="natural" v="hill" />
		<tag k="place" v="locality" />
		<tag k="ssr:stedsnr" v="166956" />
	</node>
	<node lat="61.10655278214638" lon="4.987547218278877" id="-79736">
		<tag k="fixme" v="consider natural=peak for the most distinct mountains in the district" />
		<tag k="name" v="Svartevassfjellet" />
		<tag k="natural" v="hill" />
		<tag k="place" v="locality" />
		<tag k="ssr:stedsnr" v="167050" />
	</node>
	<node lat="61.14685277828863" lon="4.868391665768933" id="-79744">
		<tag k="name" v="Stølsdalen" />
		<tag k="natural" v="valley" />
		<tag k="place" v="locality" />
		<tag k="ssr:stedsnr" v="190537" />
	</node>
	<node lat="61.10590833050988" lon="4.941211109637176" id="-79748">
		<tag k="fixme" v="consider natural=peak for the most distinct mountains in the district" />
		<tag k="name" v="Smettefjellet" />
		<tag k="natural" v="hill" />
		<tag k="place" v="locality" />
		<tag k="ssr:stedsnr" v="191339" />
	</node>
	<node lat="61.136097222193" lon="4.878055549126689" id="-79754">
		<tag k="fixme" v="consider natural=peak for the most distinct mountains in the district" />
		<tag k="name" v="Såta" />
		<tag k="natural" v="hill" />
		<tag k="place" v="locality" />
		<tag k="ssr:stedsnr" v="191181" />
	</node>
	<node lat="61.14945833571707" lon="4.903786107438881" id="-79755">
		<tag k="alt_name" v="Tua" />
		<tag k="fixme" v="consider natural=peak for the most distinct mountains in the district" />
		<tag k="name" v="Tuva" />
		<tag k="natural" v="hill" />
		<tag k="place" v="locality" />
		<tag k="ssr:stedsnr" v="191185" />
	</node>
	<node lat="61.07190000088152" lon="4.935905557591476" id="-79768">
		<tag k="alt_name" v="Storevikfjellet" />
		<tag k="fixme" v="consider natural=peak for the most distinct mountains in the district" />
		<tag k="name" v="Storvikfjellet" />
		<tag k="natural" v="hill" />
		<tag k="place" v="locality" />
		<tag k="ssr:stedsnr" v="191232" />
	</node>
	<node lat="61.08183611248356" lon="4.938605547163134" id="-79775">
		<tag k="fixme" v="consider natural=peak for the most distinct mountains in the district" />
		<tag k="name" v="Kyrkjesteinfjellet" />
		<tag k="natural" v="hill" />
		<tag k="place" v="locality" />
		<tag k="ssr:stedsnr" v="191296" />
	</node>
	<node lat="61.04099721965713" lon="4.763691673727189" id="-79776">
		<tag k="name" v="Seiskjerhaugen" />
		<tag k="natural" v="hill" />
		<tag k="place" v="locality" />
		<tag k="ssr:stedsnr" v="191432" />
	</node>
	<node lat="61.06861111287521" lon="4.7361166617377455" id="-79798">
		<tag k="name" v="Barlindeskorane" />
		<tag k="natural" v="cliff" />
		<tag k="ssr:stedsnr" v="206158" />
	</node>
	<node lat="61.08958333514059" lon="4.7431833400266985" id="-79804">
		<tag k="name" v="Nipa" />
		<tag k="natural" v="hill" />
		<tag k="place" v="locality" />
		<tag k="ssr:stedsnr" v="226204" />
	</node>
	<node lat="61.15944722362984" lon="4.82135276913371" id="-79808">
		<tag k="name" v="Slåttevikbenken" />
		<tag k="natural" v="hill" />
		<tag k="place" v="locality" />
		<tag k="ssr:stedsnr" v="226212" />
	</node>
	<node lat="61.17498888936946" lon="4.98551111200161" id="-79811">
		<tag k="fixme" v="consider natural=peak for the most distinct mountains in the district" />
		<tag k="name" v="Austrefjordnipa" />
		<tag k="natural" v="hill" />
		<tag k="place" v="locality" />
		<tag k="ssr:stedsnr" v="226219" />
	</node>
	<node lat="61.1398111113007" lon="4.856502785427795" id="-79820">
		<tag k="name" v="Vedhogget" />
		<tag k="natural" v="valley" />
		<tag k="place" v="locality" />
		<tag k="ssr:stedsnr" v="226041" />
	</node>
	<node lat="61.20643055454511" lon="4.756908325367557" id="-79825">
		<tag k="fixme" v="consider natural=peak for the most distinct mountains in the district" />
		<tag k="name" v="Selklettane" />
		<tag k="natural" v="hill" />
		<tag k="place" v="locality" />
		<tag k="ssr:stedsnr" v="226146" />
	</node>
	<node lat="61.066602780645994" lon="4.735352779676876" id="-79827">
		<tag k="name" v="Slåtteskorane" />
		<tag k="natural" v="cliff" />
		<tag k="ssr:stedsnr" v="226174" />
	</node>
	<node lat="61.052947219076984" lon="4.876597226672902" id="-79831">
		<tag k="name" v="Trædalen" />
		<tag k="natural" v="valley" />
		<tag k="place" v="locality" />
		<tag k="ssr:stedsnr" v="226268" />
	</node>
	<node lat="61.0478916678624" lon="4.87723055257731" id="-79835">
		<tag k="name" v="Florshaugen" />
		<tag k="natural" v="hill" />
		<tag k="place" v="locality" />
		<tag k="ssr:stedsnr" v="226275" />
	</node>
	<node lat="61.046227779074435" lon="4.884213890616835" id="-79836">
		<tag k="name" v="Orrehaugen" />
		<tag k="natural" v="hill" />
		<tag k="place" v="locality" />
		<tag k="ssr:stedsnr" v="226278" />
	</node>
	<node lat="61.09284444819608" lon="4.875836108855236" id="-79842">
		<tag k="name" v="Øvre Botnen" />
		<tag k="natural" v="valley" />
		<tag k="place" v="locality" />
		<tag k="ssr:stedsnr" v="226869" />
	</node>
	<node lat="61.12182499723231" lon="4.905224991744268" id="-79845">
		<tag k="name" v="Espehaugane" />
		<tag k="natural" v="hill" />
		<tag k="place" v="locality" />
		<tag k="ssr:stedsnr" v="226880" />
	</node>
	<node lat="61.179497219988264" lon="4.906005553172183" id="-79846">
		<tag k="name" v="Groadalen" />
		<tag k="natural" v="valley" />
		<tag k="place" v="locality" />
		<tag k="ssr:stedsnr" v="226936" />
	</node>
	<node lat="61.15488888704691" lon="4.9758277845707575" id="-79847">
		<tag k="name" v="Sanden" />
		<tag k="place" v="locality" />
		<tag k="ssr:stedsnr" v="226942" />
	</node>
	<node lat="61.02567222304641" lon="4.728600002761933" id="-79850">
		<tag k="fixme" v="consider natural=peak for the most distinct mountains in the district" />
		<tag k="name" v="Litle Håfjellet" />
		<tag k="natural" v="hill" />
		<tag k="place" v="locality" />
		<tag k="ssr:stedsnr" v="226824" />
	</node>
	<node lat="61.1600166665772" lon="5.060586112709529" id="-79854">
		<tag k="name" v="Kjerringstøa" />
		<tag k="natural" v="hill" />
		<tag k="place" v="locality" />
		<tag k="ssr:stedsnr" v="227040" />
	</node>
	<node lat="61.12121944106813" lon="5.016533334970395" id="-79858">
		<tag k="name" v="Pallane" />
		<tag k="natural" v="hill" />
		<tag k="place" v="locality" />
		<tag k="ssr:stedsnr" v="227459" />
	</node>
	<node lat="61.12755555424462" lon="5.006155557249928" id="-79860">
		<tag k="name" v="Flatene" />
		<tag k="place" v="locality" />
		<tag k="ssr:stedsnr" v="227470" />
	</node>
	<node lat="61.12461944304356" lon="5.000205554896318" id="-79861">
		<tag k="name" v="Fjellgota" />
		<tag k="natural" v="hill" />
		<tag k="place" v="locality" />
		<tag k="ssr:stedsnr" v="227472" />
	</node>
	<node lat="61.11118333733999" lon="4.87730555261036" id="-79864">
		<tag k="fixme" v="consider natural=peak for the most distinct mountains in the district" />
		<tag k="name" v="Svabotneberga" />
		<tag k="natural" v="hill" />
		<tag k="place" v="locality" />
		<tag k="ssr:stedsnr" v="227877" />
	</node>
	<node lat="61.10660832920906" lon="4.904663896053769" id="-79865">
		<tag k="name" v="Kråkehaugen" />
		<tag k="natural" v="hill" />
		<tag k="place" v="locality" />
		<tag k="ssr:stedsnr" v="227962" />
	</node>
	<node lat="61.1974333294574" lon="4.925791671404265" id="-79869">
		<tag k="name" v="Geiteheia" />
		<tag k="natural" v="hill" />
		<tag k="place" v="locality" />
		<tag k="ssr:stedsnr" v="286394" />
	</node>
	<node lat="61.18872222174165" lon="4.893322230584682" id="-79871">
		<tag k="name" v="Nordre Stølen" />
		<tag k="natural" v="hill" />
		<tag k="place" v="locality" />
		<tag k="ssr:stedsnr" v="286405" />
	</node>
	<node lat="61.04459722426734" lon="4.878313885775361" id="-79891">
		<tag k="name" v="Stongehaugen" />
		<tag k="natural" v="hill" />
		<tag k="place" v="locality" />
		<tag k="ssr:stedsnr" v="287271" />
	</node>
	<node lat="61.22001666738698" lon="4.837649991411752" id="-79892">
		<tag k="name" v="Humretanghaugen" />
		<tag k="natural" v="hill" />
		<tag k="place" v="locality" />
		<tag k="ssr:stedsnr" v="288372" />
	</node>
	<node lat="61.094127778884584" lon="4.850391662237981" id="-79898">
		<tag k="name" v="Råkebotnen" />
		<tag k="natural" v="valley" />
		<tag k="place" v="locality" />
		<tag k="ssr:stedsnr" v="287847" />
	</node>
	<node lat="61.16901388611014" lon="4.993797217330655" id="-79899">
		<tag k="fixme" v="consider natural=peak for the most distinct mountains in the district" />
		<tag k="name" v="Vassfjellet" />
		<tag k="natural" v="hill" />
		<tag k="place" v="locality" />
		<tag k="ssr:stedsnr" v="287850" />
	</node>
	<node lat="61.08485000293066" lon="4.8588055604698095" id="-79900">
		<tag k="name" v="Illeskorane" />
		<tag k="place" v="locality" />
		<tag k="ssr:stedsnr" v="287851" />
	</node>
	<node lat="61.08237777996488" lon="4.757249990751266" id="-79902">
		<tag k="name" v="Dyrholten" />
		<tag k="natural" v="hill" />
		<tag k="place" v="locality" />
		<tag k="ssr:stedsnr" v="287948" />
	</node>
	<node lat="61.090627776255175" lon="4.773466675277938" id="-79904">
		<tag k="name" v="Storehaugen" />
		<tag k="natural" v="hill" />
		<tag k="place" v="locality" />
		<tag k="ssr:stedsnr" v="287971" />
	</node>
	<node lat="61.076094440946385" lon="4.7818000028926955" id="-79905">
		<tag k="name" v="Brunene" />
		<tag k="natural" v="hill" />
		<tag k="place" v="locality" />
		<tag k="ssr:stedsnr" v="287974" />
	</node>
	<node lat="61.146813888916604" lon="5.002563896474133" id="-79907">
		<tag k="name" v="Langhamrane" />
		<tag k="natural" v="hill" />
		<tag k="place" v="locality" />
		<tag k="ssr:stedsnr" v="288599" />
	</node>
	<node lat="61.110666662577785" lon="5.02131389679365" id="-79910">
		<tag k="name" v="Kyrehammaren" />
		<tag k="natural" v="hill" />
		<tag k="place" v="locality" />
		<tag k="ssr:stedsnr" v="289044" />
	</node>
	<node lat="61.12929166941138" lon="5.0856166672426015" id="-79926">
		<tag k="name" v="Bjørndalen" />
		<tag k="natural" v="valley" />
		<tag k="place" v="locality" />
		<tag k="ssr:stedsnr" v="312135" />
	</node>
	<node lat="61.154547221786466" lon="4.992555553403623" id="-79939">
		<tag k="fixme" v="consider natural=peak for the most distinct mountains in the district" />
		<tag k="name" v="Espefjellet" />
		<tag k="natural" v="hill" />
		<tag k="place" v="locality" />
		<tag k="ssr:stedsnr" v="313225" />
	</node>
	<node lat="61.16205555414907" lon="5.039963898178393" id="-79941">
		<tag k="alt_name" v="Maifjellet" />
		<tag k="fixme" v="consider natural=peak for the most distinct mountains in the district" />
		<tag k="name" v="Meifjellet" />
		<tag k="natural" v="hill" />
		<tag k="place" v="locality" />
		<tag k="ssr:stedsnr" v="313241" />
	</node>
	<node lat="61.183500002184836" lon="4.990961118834169" id="-79949">
		<tag k="fixme" v="consider natural=peak for the most distinct mountains in the district" />
		<tag k="name" v="Kufjellet" />
		<tag k="natural" v="hill" />
		<tag k="place" v="locality" />
		<tag k="ssr:stedsnr" v="313043" />
	</node>
	<node lat="61.115897222271165" lon="4.8504555516719705" id="-79952">
		<tag k="fixme" v="consider natural=peak for the most distinct mountains in the district" />
		<tag k="name" v="Råkefjellet" />
		<tag k="natural" v="hill" />
		<tag k="place" v="locality" />
		<tag k="ssr:stedsnr" v="313153" />
	</node>
	<node lat="61.110155553310314" lon="4.9581861075086024" id="-79953">
		<tag k="alt_name" v="Slettheiane" />
		<tag k="fixme" v="consider natural=peak for the most distinct mountains in the district" />
		<tag k="name" v="Slettheia" />
		<tag k="natural" v="hill" />
		<tag k="place" v="locality" />
		<tag k="ssr:stedsnr" v="313156" />
	</node>
	<node lat="61.11088332887973" lon="4.966230555117808" id="-79954">
		<tag k="name" v="Svortedalen" />
		<tag k="natural" v="valley" />
		<tag k="place" v="locality" />
		<tag k="ssr:stedsnr" v="313159" />
	</node>
	<node lat="61.062858336532464" lon="4.888516660736095" id="-79955">
		<tag k="fixme" v="consider natural=peak for the most distinct mountains in the district" />
		<tag k="name" v="Såta" />
		<tag k="natural" v="hill" />
		<tag k="place" v="locality" />
		<tag k="ssr:stedsnr" v="313258" />
	</node>
	<node lat="61.02373888525207" lon="4.729938886424718" id="-79957">
		<tag k="fixme" v="consider natural=peak for the most distinct mountains in the district" />
		<tag k="name" v="Litle Håfjellet" />
		<tag k="natural" v="hill" />
		<tag k="place" v="locality" />
		<tag k="ssr:stedsnr" v="313437" />
	</node>
	<node lat="61.04727499903016" lon="4.778672213364883" id="-79959">
		<tag k="alt_name" v="Hosnappen" />
		<tag k="name" v="Horsnappen" />
		<tag k="natural" v="hill" />
		<tag k="place" v="locality" />
		<tag k="ssr:stedsnr" v="313453" />
	</node>
	<node lat="61.159036111941" lon="4.916947229048639" id="-79982">
		<tag k="name" v="Krakshaugen" />
		<tag k="natural" v="hill" />
		<tag k="place" v="locality" />
		<tag k="ssr:stedsnr" v="346851" />
	</node>
	<node lat="61.00298055507268" lon="4.677344437063931" id="-79983">
		<tag k="name" v="Nesvatnet" />
		<tag k="natural" v="valley" />
		<tag k="place" v="locality" />
		<tag k="ssr:stedsnr" v="347082" />
	</node>
	<node lat="61.18677222179453" lon="4.871155551339175" id="-79987">
		<tag k="name" v="Ramsgrødet" />
		<tag k="natural" v="hill" />
		<tag k="place" v="locality" />
		<tag k="ssr:stedsnr" v="347433" />
	</node>
	<node lat="61.086927775242266" lon="4.73413610540656" id="-79993">
		<tag k="name" v="Trebærskora" />
		<tag k="place" v="locality" />
		<tag k="ssr:stedsnr" v="347184" />
	</node>
	<node lat="61.14908611544811" lon="4.84978333231176" id="-79995">
		<tag k="name" v="Øvrebotnen" />
		<tag k="natural" v="valley" />
		<tag k="place" v="locality" />
		<tag k="ssr:stedsnr" v="347195" />
	</node>
	<node lat="61.02720000070956" lon="4.775361105277538" id="-80003">
		<tag k="name" v="Svedalen" />
		<tag k="natural" v="valley" />
		<tag k="place" v="locality" />
		<tag k="ssr:stedsnr" v="347695" />
	</node>
	<node lat="61.14983333120835" lon="4.975369437156569" id="-80008">
		<tag k="name" v="Slåttedalen" />
		<tag k="natural" v="valley" />
		<tag k="place" v="locality" />
		<tag k="ssr:stedsnr" v="348892" />
	</node>
	<node lat="61.16102221766061" lon="4.971699994202658" id="-80011">
		<tag k="name" v="Koparhellarane" />
		<tag k="natural" v="hill" />
		<tag k="place" v="locality" />
		<tag k="ssr:stedsnr" v="348901" />
	</node>
	<node lat="61.129899999531226" lon="4.985608330403479" id="-80013">
		<tag k="name" v="Dingedalskråna" />
		<tag k="natural" v="valley" />
		<tag k="place" v="locality" />
		<tag k="ssr:stedsnr" v="348445" />
	</node>
	<node lat="61.10395555285406" lon="4.92219167482062" id="-80014">
		<tag k="name" v="Stallebrekka" />
		<tag k="natural" v="slope" />
		<tag k="place" v="locality" />
		<tag k="ssr:stedsnr" v="348746" />
	</node>
	<node lat="61.10689722672646" lon="4.895325006354947" id="-80015">
		<tag k="name" v="Benkane" />
		<tag k="natural" v="hill" />
		<tag k="place" v="locality" />
		<tag k="ssr:stedsnr" v="348991" />
	</node>
	<node lat="61.148649999244405" lon="4.9283333388609085" id="-80016">
		<tag k="name" v="Trongane" />
		<tag k="natural" v="valley" />
		<tag k="place" v="locality" />
		<tag k="ssr:stedsnr" v="348996" />
	</node>
	<node lat="61.11841944581606" lon="5.06319166404318" id="-80017">
		<tag k="name" v="Kalshamrane" />
		<tag k="natural" v="hill" />
		<tag k="place" v="locality" />
		<tag k="ssr:stedsnr" v="349086" />
	</node>
	<node lat="61.15262777601858" lon="4.93190555424147" id="-80019">
		<tag k="name" v="Djupebotnen" />
		<tag k="natural" v="valley" />
		<tag k="place" v="locality" />
		<tag k="ssr:stedsnr" v="348925" />
	</node>
	<node lat="61.14400278104392" lon="4.963480558997997" id="-80021">
		<tag k="name" v="Isakedalen" />
		<tag k="natural" v="valley" />
		<tag k="place" v="locality" />
		<tag k="ssr:stedsnr" v="348948" />
	</node>
	<node lat="61.17749166700752" lon="4.879030548459383" id="-80034">
		<tag k="alt_name" v="Knolten" />
		<tag k="name" v="Storeknolten" />
		<tag k="natural" v="hill" />
		<tag k="place" v="locality" />
		<tag k="ssr:stedsnr" v="373037" />
	</node>
	<node lat="61.06099722444923" lon="4.810752782348044" id="-80053">
		<tag k="name" v="Nonshaugane" />
		<tag k="natural" v="hill" />
		<tag k="place" v="locality" />
		<tag k="ssr:stedsnr" v="373278" />
	</node>
	<node lat="61.06444999989603" lon="4.742186107569386" id="-80054">
		<tag k="alt_name" v="Raunekletten" />
		<tag k="fixme" v="consider natural=peak for the most distinct mountains in the district" />
		<tag k="name" v="Rånekletten" />
		<tag k="natural" v="hill" />
		<tag k="place" v="locality" />
		<tag k="ssr:stedsnr" v="373286" />
	</node>
	<node lat="61.04566666372952" lon="4.766405550276436" id="-80059">
		<tag k="name" v="Stølshaugen" />
		<tag k="natural" v="hill" />
		<tag k="place" v="locality" />
		<tag k="ssr:stedsnr" v="373474" />
	</node>
	<node lat="61.20802777604092" lon="4.765947218778015" id="-80072">
		<tag k="alt_name" v="Resevågkletten" />
		<tag k="fixme" v="consider natural=peak for the most distinct mountains in the district" />
		<tag k="name" v="Ræsefjellet" />
		<tag k="natural" v="hill" />
		<tag k="place" v="locality" />
		<tag k="ssr:stedsnr" v="373931" />
	</node>
	<node lat="61.001627773338555" lon="4.713541659970513" id="-80085">
		<tag k="fixme" v="consider natural=peak for the most distinct mountains in the district" />
		<tag k="name" v="Dynga" />
		<tag k="natural" v="hill" />
		<tag k="place" v="locality" />
		<tag k="ssr:stedsnr" v="494983" />
	</node>
	<node lat="61.02812777963967" lon="4.681997219553953" id="-80086">
		<tag k="alt_name" v="Langedalstuva" />
		<tag k="fixme" v="consider natural=peak for the most distinct mountains in the district" />
		<tag k="name" v="Langevasstua" />
		<tag k="natural" v="hill" />
		<tag k="place" v="locality" />
		<tag k="ssr:stedsnr" v="391773" />
	</node>
	<node lat="61.04498055707681" lon="4.762277778474658" id="-80095">
		<tag k="name" v="Eikelihaugen" />
		<tag k="natural" v="hill" />
		<tag k="place" v="locality" />
		<tag k="ssr:stedsnr" v="407761" />
	</node>
	<node lat="61.15344721896487" lon="4.86491943733427" id="-80097">
		<tag k="fixme" v="consider natural=peak for the most distinct mountains in the district" />
		<tag k="name" v="Ørnefjellet" />
		<tag k="natural" v="hill" />
		<tag k="place" v="locality" />
		<tag k="ssr:stedsnr" v="407934" />
	</node>
	<node lat="61.149224996492514" lon="4.9209222209350845" id="-80101">
		<tag k="name" v="Gildra" />
		<tag k="natural" v="slope" />
		<tag k="place" v="locality" />
		<tag k="ssr:stedsnr" v="407866" />
	</node>
	<node lat="61.0227805527695" lon="4.69792222699476" id="-80102">
		<tag k="name" v="Buskedalen" />
		<tag k="natural" v="valley" />
		<tag k="place" v="locality" />
		<tag k="ssr:stedsnr" v="407870" />
	</node>
	<node lat="61.129913887325166" lon="4.830652781866007" id="-80103">
		<tag k="fixme" v="consider natural=peak for the most distinct mountains in the district" />
		<tag k="name" v="Trøyenova" />
		<tag k="natural" v="hill" />
		<tag k="place" v="locality" />
		<tag k="ssr:stedsnr" v="408066" />
	</node>
	<node lat="61.07322222634833" lon="4.787397220334343" id="-80109">
		<tag k="name" v="Litlebotnen" />
		<tag k="natural" v="valley" />
		<tag k="place" v="locality" />
		<tag k="ssr:stedsnr" v="408620" />
	</node>
	<node lat="61.173438887539334" lon="4.929511109125907" id="-80116">
		<tag k="fixme" v="consider natural=peak for the most distinct mountains in the district" />
		<tag k="name" v="Ørneknolten" />
		<tag k="natural" v="hill" />
		<tag k="place" v="locality" />
		<tag k="ssr:stedsnr" v="408277" />
	</node>
	<node lat="61.13878611541557" lon="4.838052770836932" id="-80121">
		<tag k="fixme" v="consider natural=peak for the most distinct mountains in the district" />
		<tag k="name" v="Randefjellet" />
		<tag k="natural" v="hill" />
		<tag k="place" v="locality" />
		<tag k="ssr:stedsnr" v="408218" />
	</node>
	<node lat="61.12281944159118" lon="4.974511117889766" id="-80132">
		<tag k="fixme" v="consider natural=peak for the most distinct mountains in the district" />
		<tag k="name" v="Klostreknulten" />
		<tag k="natural" v="hill" />
		<tag k="place" v="locality" />
		<tag k="ssr:stedsnr" v="408709" />
	</node>
	<node lat="61.13357500179933" lon="4.992963891553716" id="-80135">
		<tag k="name" v="Medalskråna" />
		<tag k="natural" v="valley" />
		<tag k="place" v="locality" />
		<tag k="ssr:stedsnr" v="409466" />
	</node>
	<node lat="61.15854722295896" lon="5.010850005080539" id="-80139">
		<tag k="name" v="Sperrevikskjeret" />
		<tag k="natural" v="hill" />
		<tag k="place" v="locality" />
		<tag k="ssr:stedsnr" v="409645" />
	</node>
	<node lat="61.1400250002706" lon="5.057502774858422" id="-80140">
		<tag k="name" v="Veneheia" />
		<tag k="natural" v="hill" />
		<tag k="place" v="locality" />
		<tag k="ssr:stedsnr" v="410027" />
	</node>
	<node lat="61.08748055161203" lon="4.966502785223896" id="-80163">
		<tag k="alt_name" v="Drevhjollen" />
		<tag k="fixme" v="consider natural=peak for the most distinct mountains in the district" />
		<tag k="name" v="Drivjålen" />
		<tag k="natural" v="hill" />
		<tag k="place" v="locality" />
		<tag k="ssr:stedsnr" v="434285" />
	</node>
	<node lat="61.154397220705526" lon="4.839438883159749" id="-80166">
		<tag k="fixme" v="consider natural=peak for the most distinct mountains in the district" />
		<tag k="name" v="Strandanova" />
		<tag k="natural" v="hill" />
		<tag k="place" v="locality" />
		<tag k="ssr:stedsnr" v="434005" />
	</node>
	<node lat="61.168652781336675" lon="4.958211117377582" id="-80168">
		<tag k="alt_name" v="Endrebottheia" />
		<tag k="name" v="Endrebrotheia" />
		<tag k="natural" v="hill" />
		<tag k="place" v="locality" />
		<tag k="ssr:stedsnr" v="434010" />
	</node>
	<node lat="61.18966389002335" lon="4.964027775449168" id="-80170">
		<tag k="fixme" v="consider natural=peak for the most distinct mountains in the district" />
		<tag k="name" v="Tverrfjella" />
		<tag k="natural" v="hill" />
		<tag k="place" v="locality" />
		<tag k="ssr:stedsnr" v="434050" />
	</node>
	<node lat="61.125975004693714" lon="4.853686119505357" id="-80172">
		<tag k="alt_name" v="Funneheia;Fonneheia" />
		<tag k="fixme" v="consider natural=peak for the most distinct mountains in the district" />
		<tag k="name" v="Fonnaheia" />
		<tag k="natural" v="hill" />
		<tag k="place" v="locality" />
		<tag k="ssr:stedsnr" v="434168" />
	</node>
	<node lat="61.05272777479041" lon="4.83228611432319" id="-80175">
		<tag k="name" v="Ørneklubben" />
		<tag k="natural" v="ridge" />
		<tag k="place" v="locality" />
		<tag k="ssr:stedsnr" v="434243" />
	</node>
	<node lat="61.06946944711129" lon="4.806794434945517" id="-80177">
		<tag k="fixme" v="consider natural=peak for the most distinct mountains in the district" />
		<tag k="name" v="Husefjellet" />
		<tag k="natural" v="hill" />
		<tag k="place" v="locality" />
		<tag k="ssr:stedsnr" v="434253" />
	</node>
	<node lat="61.073658332371885" lon="4.777158339484294" id="-80178">
		<tag k="name" v="Storebotnen" />
		<tag k="natural" v="valley" />
		<tag k="place" v="locality" />
		<tag k="ssr:stedsnr" v="434255" />
	</node>
	<node lat="61.02158333111937" lon="4.7198694469519955" id="-80179">
		<tag k="name" v="Stordalen" />
		<tag k="natural" v="valley" />
		<tag k="place" v="locality" />
		<tag k="ssr:stedsnr" v="434397" />
	</node>
	<node lat="61.11174722006584" lon="4.975372223275361" id="-80186">
		<tag k="alt_name" v="Steinskaret" />
		<tag k="name" v="Steinskardet" />
		<tag k="natural" v="valley" />
		<tag k="place" v="locality" />
		<tag k="ssr:stedsnr" v="434312" />
	</node>
	<node lat="61.08503888488297" lon="4.739233341675619" id="-80187">
		<tag k="fixme" v="multiple name tags, choose one and add the other to alt_name" />
		<tag k="name" v="Tangenesfjellet;Flordalsfjella" />
		<tag k="natural" v="hill" />
		<tag k="place" v="locality" />
		<tag k="ssr:stedsnr" v="434318" />
	</node>
	<node lat="61.11909166940658" lon="5.053302785470653" id="-80197">
		<tag k="name" v="Halsane" />
		<tag k="natural" v="slope" />
		<tag k="place" v="locality" />
		<tag k="ssr:stedsnr" v="495355" />
	</node>
	<node lat="61.028902778155214" lon="4.698847222629211" id="-80218">
		<tag k="fixme" v="consider natural=peak for the most distinct mountains in the district" />
		<tag k="name" v="Botnefjellet" />
		<tag k="natural" v="hill" />
		<tag k="place" v="locality" />
		<tag k="ssr:stedsnr" v="528856" />
	</node>
	<node lat="61.0602416632297" lon="4.689449999586282" id="-80222">
		<tag k="name" v="Ytre Heia" />
		<tag k="natural" v="hill" />
		<tag k="place" v="locality" />
		<tag k="ssr:stedsnr" v="529146" />
	</node>
	<node lat="61.06136110831396" lon="4.739961112742552" id="-80227">
		<tag k="name" v="Glyrehellerane" />
		<tag k="natural" v="hill" />
		<tag k="place" v="locality" />
		<tag k="ssr:stedsnr" v="529164" />
	</node>
	<node lat="61.204191671158654" lon="4.969416671483776" id="-80228">
		<tag k="name" v="Dyreskora" />
		<tag k="place" v="locality" />
		<tag k="ssr:stedsnr" v="529288" />
	</node>
	<node lat="61.20398333111065" lon="4.922058332901585" id="-80229">
		<tag k="name" v="Pikhaugen" />
		<tag k="natural" v="hill" />
		<tag k="place" v="locality" />
		<tag k="ssr:stedsnr" v="529386" />
	</node>
	<node lat="61.06180000063199" lon="4.803097219464021" id="-80232">
		<tag k="name" v="Langevasseidet" />
		<tag k="place" v="locality" />
		<tag k="ssr:stedsnr" v="529597" />
	</node>
	<node lat="61.12189444667932" lon="4.944669439336568" id="-80239">
		<tag k="name" v="Kloveskora" />
		<tag k="place" v="locality" />
		<tag k="ssr:stedsnr" v="529781" />
	</node>
	<node lat="61.13541388801947" lon="4.926391672007435" id="-80240">
		<tag k="name" v="Storekleiva" />
		<tag k="natural" v="slope" />
		<tag k="place" v="locality" />
		<tag k="ssr:stedsnr" v="529782" />
	</node>
	<node lat="61.08906944234739" lon="4.8672277779214586" id="-80247">
		<tag k="fixme" v="consider natural=peak for the most distinct mountains in the district" />
		<tag k="name" v="Lauksholten" />
		<tag k="natural" v="hill" />
		<tag k="place" v="locality" />
		<tag k="ssr:stedsnr" v="529858" />
	</node>
	<node lat="61.14418610952192" lon="4.874311109804045" id="-80249">
		<tag k="name" v="Djupedalen" />
		<tag k="natural" v="valley" />
		<tag k="place" v="locality" />
		<tag k="ssr:stedsnr" v="529866" />
	</node>
	<node lat="61.10289999732151" lon="4.918186120679455" id="-80251">
		<tag k="fixme" v="consider natural=peak for the most distinct mountains in the district" />
		<tag k="name" v="Askatehaugen" />
		<tag k="natural" v="hill" />
		<tag k="place" v="locality" />
		<tag k="ssr:stedsnr" v="530749" />
	</node>
	<node lat="61.12477777471844" lon="5.0860944415208875" id="-80253">
		<tag k="name" v="Selberget" />
		<tag k="natural" v="hill" />
		<tag k="place" v="locality" />
		<tag k="ssr:stedsnr" v="531534" />
	</node>
	<node lat="61.13674167020883" lon="4.988399998899739" id="-80264">
		<tag k="fixme" v="consider natural=peak for the most distinct mountains in the district" />
		<tag k="name" v="Storedalsheia" />
		<tag k="natural" v="hill" />
		<tag k="place" v="locality" />
		<tag k="ssr:stedsnr" v="554212" />
	</node>
	<node lat="61.14128333053981" lon="4.912025006865093" id="-80267">
		<tag k="alt_name" v="Furevikknolten" />
		<tag k="fixme" v="consider natural=peak for the most distinct mountains in the district" />
		<tag k="name" v="Knolten" />
		<tag k="natural" v="hill" />
		<tag k="place" v="locality" />
		<tag k="ssr:stedsnr" v="555148" />
	</node>
	<node lat="61.16023888620349" lon="4.8461305630849525" id="-80271">
		<tag k="name" v="Ørnehaugen" />
		<tag k="natural" v="hill" />
		<tag k="place" v="locality" />
		<tag k="ssr:stedsnr" v="555013" />
	</node>
	<node lat="61.15345555513153" lon="4.835508330233361" id="-80272">
		<tag k="name" v="Strandaskora" />
		<tag k="natural" v="slope" />
		<tag k="place" v="locality" />
		<tag k="ssr:stedsnr" v="555015" />
	</node>
	<node lat="61.1554888888789" lon="4.82766666484844" id="-80273">
		<tag k="name" v="Storehaugen" />
		<tag k="natural" v="hill" />
		<tag k="place" v="locality" />
		<tag k="ssr:stedsnr" v="555016" />
	</node>
	<node lat="61.127983332679904" lon="5.077097226087563" id="-80275">
		<tag k="alt_name" v="Stifjellet" />
		<tag k="fixme" v="consider natural=peak for the most distinct mountains in the district" />
		<tag k="name" v="Stigfjellet" />
		<tag k="natural" v="hill" />
		<tag k="place" v="locality" />
		<tag k="ssr:stedsnr" v="555097" />
	</node>
	<node lat="61.11156666446052" lon="4.905649991388811" id="-80276">
		<tag k="fixme" v="consider natural=peak for the most distinct mountains in the district" />
		<tag k="name" v="Husefjellet" />
		<tag k="natural" v="hill" />
		<tag k="place" v="locality" />
		<tag k="ssr:stedsnr" v="555100" />
	</node>
	<node lat="61.206249996046495" lon="4.757127775128687" id="-80298">
		<tag k="fixme" v="consider natural=peak for the most distinct mountains in the district" />
		<tag k="name" v="Ospekyrkja" />
		<tag k="natural" v="hill" />
		<tag k="place" v="locality" />
		<tag k="ssr:stedsnr" v="555901" />
	</node>
	<node lat="61.022819446138364" lon="4.678586104208514" id="-80302">
		<tag k="fixme" v="consider natural=peak for the most distinct mountains in the district" />
		<tag k="name" v="Ørnefjellet" />
		<tag k="natural" v="hill" />
		<tag k="place" v="locality" />
		<tag k="ssr:stedsnr" v="555970" />
	</node>
	<node lat="61.005563886076615" lon="4.683444450579119" id="-80312">
		<tag k="name" v="Kvernhusdalen" />
		<tag k="natural" v="valley" />
		<tag k="place" v="locality" />
		<tag k="ssr:stedsnr" v="589117" />
	</node>
	<node lat="61.13786666710927" lon="4.799547219756394" id="-80314">
		<tag k="name" v="Svineskora" />
		<tag k="place" v="locality" />
		<tag k="ssr:stedsnr" v="589236" />
	</node>
	<node lat="61.05056666652507" lon="4.742927786091295" id="-80317">
		<tag k="name" v="Storehaugen" />
		<tag k="natural" v="hill" />
		<tag k="place" v="locality" />
		<tag k="ssr:stedsnr" v="589048" />
	</node>
	<node lat="61.080475003092914" lon="4.848241661086994" id="-80323">
		<tag k="fixme" v="consider natural=peak for the most distinct mountains in the district" />
		<tag k="name" v="Trettesfjellet" />
		<tag k="natural" v="hill" />
		<tag k="place" v="locality" />
		<tag k="ssr:stedsnr" v="589841" />
	</node>
	<node lat="61.081069447174485" lon="4.836358339214742" id="-80324">
		<tag k="name" v="Govershaugen" />
		<tag k="natural" v="hill" />
		<tag k="place" v="locality" />
		<tag k="ssr:stedsnr" v="589851" />
	</node>
	<node lat="61.12600833343012" lon="4.838449999287961" id="-80326">
		<tag k="fixme" v="consider natural=peak for the most distinct mountains in the district" />
		<tag k="name" v="Kuskarnova" />
		<tag k="natural" v="hill" />
		<tag k="place" v="locality" />
		<tag k="ssr:stedsnr" v="590061" />
	</node>
	<node lat="60.99068611096708" lon="4.718697215038386" id="-80328">
		<tag k="name" v="Skåpnova" />
		<tag k="natural" v="hill" />
		<tag k="place" v="locality" />
		<tag k="ssr:stedsnr" v="590192" />
	</node>
	<node lat="61.144350002558795" lon="4.825136114652375" id="-80329">
		<tag k="name" v="Båthelleren" />
		<tag k="place" v="locality" />
		<tag k="ssr:stedsnr" v="590195" />
	</node>
	<node lat="61.15093610920005" lon="4.848038897876844" id="-80330">
		<tag k="name" v="Mebotnen" />
		<tag k="natural" v="valley" />
		<tag k="place" v="locality" />
		<tag k="ssr:stedsnr" v="590202" />
	</node>
	<node lat="61.09756944300707" lon="4.770108333204721" id="-80331">
		<tag k="fixme" v="consider natural=peak for the most distinct mountains in the district" />
		<tag k="name" v="Jutefjellet" />
		<tag k="natural" v="hill" />
		<tag k="place" v="locality" />
		<tag k="ssr:stedsnr" v="590111" />
	</node>
	<node lat="61.20540833010884" lon="4.752152778147426" id="-80332">
		<tag k="name" v="Storefjell-sanden" />
		<tag k="place" v="locality" />
		<tag k="ssr:stedsnr" v="590132" />
	</node>
	<node lat="61.05846944804397" lon="4.832394441887456" id="-80335">
		<tag k="name" v="Storedalen" />
		<tag k="natural" v="valley" />
		<tag k="place" v="locality" />
		<tag k="ssr:stedsnr" v="590693" />
	</node>
	<node lat="61.152538888566454" lon="5.002375002194803" id="-80338">
		<tag k="name" v="Helleheia" />
		<tag k="natural" v="hill" />
		<tag k="place" v="locality" />
		<tag k="ssr:stedsnr" v="590640" />
	</node>
	<node lat="61.12619999600043" lon="4.902319443745014" id="-80340">
		<tag k="name" v="Gyltehaugen" />
		<tag k="natural" v="hill" />
		<tag k="place" v="locality" />
		<tag k="ssr:stedsnr" v="590849" />
	</node>
	<node lat="61.174969445749575" lon="4.8783638879719" id="-80342">
		<tag k="fixme" v="consider natural=peak for the most distinct mountains in the district" />
		<tag k="name" v="Småknolten" />
		<tag k="natural" v="hill" />
		<tag k="place" v="locality" />
		<tag k="ssr:stedsnr" v="590896" />
	</node>
	<node lat="61.07766388846527" lon="4.764447215706683" id="-80344">
		<tag k="name" v="Laksehaugen" />
		<tag k="natural" v="hill" />
		<tag k="place" v="locality" />
		<tag k="ssr:stedsnr" v="590968" />
	</node>
	<node lat="61.13873332946533" lon="4.996391658771009" id="-80348">
		<tag k="name" v="Dyrebotnen" />
		<tag k="natural" v="valley" />
		<tag k="place" v="locality" />
		<tag k="ssr:stedsnr" v="591451" />
	</node>
	<node lat="61.15826111293635" lon="4.939174994592248" id="-80351">
		<tag k="name" v="Håbrannskora" />
		<tag k="place" v="locality" />
		<tag k="ssr:stedsnr" v="591945" />
	</node>
	<node lat="61.140055553935014" lon="5.063052769763103" id="-80352">
		<tag k="name" v="Vestre Nova" />
		<tag k="natural" v="hill" />
		<tag k="place" v="locality" />
		<tag k="ssr:stedsnr" v="592029" />
	</node>
	<node lat="61.12230555154404" lon="4.723888894462529" id="-80355">
		<tag k="alt_name" v="Nipa, nordre" />
		<tag k="fixme" v="consider natural=peak for the most distinct mountains in the district" />
		<tag k="name" v="Nordre Nipa" />
		<tag k="natural" v="hill" />
		<tag k="place" v="locality" />
		<tag k="ssr:stedsnr" v="598197" />
	</node>
	<node lat="61.1599805542022" lon="4.873799992253432" id="-80358">
		<tag k="name" v="Skrapedalen" />
		<tag k="natural" v="valley" />
		<tag k="place" v="locality" />
		<tag k="ssr:stedsnr" v="598388" />
	</node>
	<node lat="61.111522217909894" lon="4.949205557759219" id="-80365">
		<tag k="name" v="Svenskesteinen" />
		<tag k="natural" v="hill" />
		<tag k="place" v="locality" />
		<tag k="ssr:stedsnr" v="711167" />
	</node>
	<node lat="61.065938886174386" lon="4.740938893553291" id="-80366">
		<tag k="name" v="Ørnereirhaugen" />
		<tag k="natural" v="hill" />
		<tag k="place" v="locality" />
		<tag k="ssr:stedsnr" v="711168" />
	</node>
	<node lat="61.147052780337546" lon="5.062733328876033" id="-80378">
		<tag k="alt_name" v="Kaldegjelsdalen" />
		<tag k="name" v="Kaldegildalen" />
		<tag k="natural" v="valley" />
		<tag k="place" v="locality" />
		<tag k="ssr:stedsnr" v="615177" />
	</node>
	<node lat="61.11963055923532" lon="4.940452776104732" id="-80379">
		<tag k="fixme" v="consider natural=peak for the most distinct mountains in the district" />
		<tag k="name" v="Dumbetinden" />
		<tag k="natural" v="hill" />
		<tag k="place" v="locality" />
		<tag k="ssr:stedsnr" v="615130" />
	</node>
	<node lat="61.13269999838409" lon="4.778244436143246" id="-80394">
		<tag k="name" v="Vardehaugen" />
		<tag k="natural" v="hill" />
		<tag k="place" v="locality" />
		<tag k="ssr:stedsnr" v="616182" />
	</node>
	<node lat="61.11697222157083" lon="4.913405551712144" id="-80396">
		<tag k="name" v="Novene" />
		<tag k="natural" v="slope" />
		<tag k="place" v="locality" />
		<tag k="ssr:stedsnr" v="616129" />
	</node>
	<node lat="61.13245277944581" lon="4.782088882380775" id="-80398">
		<tag k="name" v="Rundehaugen" />
		<tag k="natural" v="hill" />
		<tag k="place" v="locality" />
		<tag k="ssr:stedsnr" v="616193" />
	</node>
	<node lat="61.06447777762972" lon="4.69151110416977" id="-80411">
		<tag k="fixme" v="consider natural=peak for the most distinct mountains in the district" />
		<tag k="name" v="Sperrefjellet" />
		<tag k="natural" v="hill" />
		<tag k="place" v="locality" />
		<tag k="ssr:stedsnr" v="616777" />
	</node>
	<node lat="61.13288611449169" lon="4.852813884431833" id="-80422">
		<tag k="name" v="Tipphaugen" />
		<tag k="natural" v="hill" />
		<tag k="place" v="locality" />
		<tag k="ssr:stedsnr" v="650047" />
	</node>
	<node lat="61.13645000179195" lon="4.783286118382087" id="-80427">
		<tag k="name" v="Grottvikreset" />
		<tag k="natural" v="hill" />
		<tag k="place" v="locality" />
		<tag k="ssr:stedsnr" v="650134" />
	</node>
	<node lat="61.14497777493991" lon="4.846113886730323" id="-80430">
		<tag k="name" v="Jogardane" />
		<tag k="natural" v="valley" />
		<tag k="place" v="locality" />
		<tag k="ssr:stedsnr" v="650175" />
	</node>
	<node lat="61.19863888470924" lon="4.959750003693919" id="-80432">
		<tag k="name" v="Tipphaugen" />
		<tag k="natural" v="hill" />
		<tag k="place" v="locality" />
		<tag k="ssr:stedsnr" v="650344" />
	</node>
	<node lat="61.19547222124744" lon="4.903786104555853" id="-80437">
		<tag k="fixme" v="consider natural=peak for the most distinct mountains in the district" />
		<tag k="name" v="Bjørkeskogfjellet" />
		<tag k="natural" v="hill" />
		<tag k="place" v="locality" />
		<tag k="ssr:stedsnr" v="650368" />
	</node>
	<node lat="61.08489166429562" lon="4.765691661442125" id="-80447">
		<tag k="name" v="Stokkevågdalen" />
		<tag k="natural" v="valley" />
		<tag k="place" v="locality" />
		<tag k="ssr:stedsnr" v="650962" />
	</node>
	<node lat="61.13441111036733" lon="5.000100003501602" id="-80457">
		<tag k="name" v="Haugane" />
		<tag k="natural" v="hill" />
		<tag k="place" v="locality" />
		<tag k="ssr:stedsnr" v="651479" />
	</node>
	<node lat="61.14011388488749" lon="5.015783326819673" id="-80458">
		<tag k="name" v="Ytregjelet" />
		<tag k="natural" v="valley" />
		<tag k="place" v="locality" />
		<tag k="ssr:stedsnr" v="651480" />
	</node>
	<node lat="61.209272219046426" lon="4.918277772840297" id="-80459">
		<tag k="name" v="Hårkallnova" />
		<tag k="natural" v="hill" />
		<tag k="place" v="locality" />
		<tag k="ssr:stedsnr" v="651481" />
	</node>
	<node lat="61.084069445096965" lon="4.9538166607707685" id="-80460">
		<tag k="name" v="Johanshola" />
		<tag k="place" v="locality" />
		<tag k="ssr:stedsnr" v="651921" />
	</node>
	<node lat="61.19751111459764" lon="4.985063880955364" id="-80462">
		<tag k="name" v="Storegrøypa" />
		<tag k="natural" v="valley" />
		<tag k="place" v="locality" />
		<tag k="ssr:stedsnr" v="651625" />
	</node>
	<node lat="61.0901166652435" lon="4.872897227028537" id="-80463">
		<tag k="name" v="Kvitehellaren" />
		<tag k="natural" v="hill" />
		<tag k="place" v="locality" />
		<tag k="ssr:stedsnr" v="651834" />
	</node>
	<node lat="61.119794441644444" lon="4.9006222183249335" id="-80464">
		<tag k="fixme" v="consider natural=peak for the most distinct mountains in the district" />
		<tag k="name" v="Graksla" />
		<tag k="natural" v="hill" />
		<tag k="place" v="locality" />
		<tag k="ssr:stedsnr" v="651855" />
	</node>
	<node lat="61.11560555296369" lon="4.91789722648397" id="-80466">
		<tag k="name" v="Hageskora" />
		<tag k="place" v="locality" />
		<tag k="ssr:stedsnr" v="651877" />
	</node>
	<node lat="61.11311111576975" lon="4.919063894406327" id="-80467">
		<tag k="name" v="Steindalen" />
		<tag k="natural" v="valley" />
		<tag k="place" v="locality" />
		<tag k="ssr:stedsnr" v="651881" />
	</node>
	<node lat="61.134236107113544" lon="5.087180559004289" id="-80469">
		<tag k="name" v="Byrkelistallen" />
		<tag k="natural" v="slope" />
		<tag k="place" v="locality" />
		<tag k="ssr:stedsnr" v="652481" />
	</node>
	<node lat="61.20173889121983" lon="4.835194448777049" id="-80477">
		<tag k="name" v="Kyrkjefjellet" />
		<tag k="natural" v="hill" />
		<tag k="place" v="locality" />
		<tag k="ssr:stedsnr" v="711358" />
	</node>
	<node lat="61.06907222089194" lon="4.767002771712891" id="-80481">
		<tag k="name" v="Kvitebleket" />
		<tag k="natural" v="hill" />
		<tag k="place" v="locality" />
		<tag k="ssr:stedsnr" v="711596" />
	</node>
	<node lat="61.05523333108808" lon="4.814224997683159" id="-80483">
		<tag k="name" v="Drophelleren" />
		<tag k="natural" v="hill" />
		<tag k="place" v="locality" />
		<tag k="ssr:stedsnr" v="711895" />
	</node>
	<node lat="61.167561110481515" lon="4.8789555582634145" id="-80484">
		<tag k="name" v="Høgehaugen" />
		<tag k="natural" v="hill" />
		<tag k="place" v="locality" />
		<tag k="ssr:stedsnr" v="711930" />
	</node>
	<node lat="61.15690555766785" lon="4.878647213501554" id="-80486">
		<tag k="fixme" v="consider natural=peak for the most distinct mountains in the district" />
		<tag k="name" v="Bjørkefjellet" />
		<tag k="natural" v="hill" />
		<tag k="place" v="locality" />
		<tag k="ssr:stedsnr" v="711935" />
	</node>
	<node lat="61.08931666392387" lon="4.763805555400366" id="-80489">
		<tag k="fixme" v="consider natural=peak for the most distinct mountains in the district" />
		<tag k="name" v="Benkefjellet" />
		<tag k="natural" v="hill" />
		<tag k="place" v="locality" />
		<tag k="ssr:stedsnr" v="711965" />
	</node>
	<node lat="61.120883331026924" lon="4.956041672860319" id="-80494">
		<tag k="name" v="Geiteskaret" />
		<tag k="natural" v="valley" />
		<tag k="place" v="locality" />
		<tag k="ssr:stedsnr" v="712568" />
	</node>
	<node lat="61.14967777964702" lon="5.016508332302933" id="-80495">
		<tag k="name" v="Griseskora" />
		<tag k="place" v="locality" />
		<tag k="ssr:stedsnr" v="712621" />
	</node>
	<node lat="61.09944722200076" lon="4.917494452555303" id="-80496">
		<tag k="name" v="Kviahaugen" />
		<tag k="natural" v="hill" />
		<tag k="place" v="locality" />
		<tag k="ssr:stedsnr" v="712752" />
	</node>
	<node lat="61.1056777764876" lon="4.92090554855372" id="-80497">
		<tag k="fixme" v="consider natural=peak for the most distinct mountains in the district" />
		<tag k="name" v="Jamnefjellet" />
		<tag k="natural" v="hill" />
		<tag k="place" v="locality" />
		<tag k="ssr:stedsnr" v="712753" />
	</node>
	<node lat="61.112255554226934" lon="4.876708328494857" id="-80498">
		<tag k="fixme" v="consider natural=peak for the most distinct mountains in the district" />
		<tag k="name" v="Kvithellersnova" />
		<tag k="natural" v="hill" />
		<tag k="place" v="locality" />
		<tag k="ssr:stedsnr" v="712890" />
	</node>
	<node lat="61.09270827302478" lon="4.946611416930262" id="-80499">
		<tag k="name" v="Sedalen" />
		<tag k="natural" v="valley" />
		<tag k="place" v="locality" />
		<tag k="ssr:stedsnr" v="712908" />
	</node>
	<node lat="61.127730558354614" lon="4.8821999932936" id="-80500">
		<tag k="name" v="Tverangsheia" />
		<tag k="natural" v="hill" />
		<tag k="place" v="locality" />
		<tag k="ssr:stedsnr" v="712865" />
	</node>
	<node lat="61.10815000054546" lon="4.923469441888865" id="-80501">
		<tag k="fixme" v="consider natural=peak for the most distinct mountains in the district" />
		<tag k="name" v="Gygra" />
		<tag k="natural" v="hill" />
		<tag k="place" v="locality" />
		<tag k="ssr:stedsnr" v="712873" />
	</node>
	<node lat="61.093630559950235" lon="4.995602783914607" id="-80505">
		<tag k="name" v="Kjestekkene" />
		<tag k="natural" v="hill" />
		<tag k="place" v="locality" />
		<tag k="ssr:stedsnr" v="713114" />
	</node>
	<node lat="61.199230553710926" lon="4.954119451282347" id="-80515">
		<tag k="name" v="Neshaugen" />
		<tag k="natural" v="hill" />
		<tag k="place" v="locality" />
		<tag k="ssr:stedsnr" v="737097" />
	</node>
	<node lat="61.12178332977408" lon="5.000613880368772" id="-80516">
		<tag k="fixme" v="consider natural=peak for the most distinct mountains in the district" />
		<tag k="name" v="Krakhellenipa" />
		<tag k="natural" v="hill" />
		<tag k="place" v="locality" />
		<tag k="ssr:stedsnr" v="737140" />
	</node>
	<node lat="61.136738889926875" lon="5.048716660194587" id="-80526">
		<tag k="alt_name" v="Knuten" />
		<tag k="fixme" v="consider natural=peak for the most distinct mountains in the district" />
		<tag k="name" v="Dalsknuten" />
		<tag k="natural" v="hill" />
		<tag k="place" v="locality" />
		<tag k="ssr:stedsnr" v="737152" />
	</node>
	<node lat="61.058966669494076" lon="4.879952780359488" id="-80528">
		<tag k="alt_name" v="Lindefjell" />
		<tag k="fixme" v="consider natural=peak for the most distinct mountains in the district" />
		<tag k="name" v="Lindefjellet" />
		<tag k="natural" v="hill" />
		<tag k="place" v="locality" />
		<tag k="ssr:stedsnr" v="737261" />
	</node>
	<node lat="61.09041389056489" lon="4.807211118669509" id="-80550">
		<tag k="fixme" v="consider natural=peak for the most distinct mountains in the district" />
		<tag k="name" v="Lauvvikklubben" />
		<tag k="natural" v="hill" />
		<tag k="place" v="locality" />
		<tag k="ssr:stedsnr" v="771844" />
	</node>
	<node lat="61.11058333155956" lon="4.844905558920315" id="-80552">
		<tag k="name" v="Gygra" />
		<tag k="natural" v="valley" />
		<tag k="place" v="locality" />
		<tag k="ssr:stedsnr" v="772136" />
	</node>
	<node lat="61.08311111496386" lon="4.700249993553793" id="-80555">
		<tag k="name" v="Lunnane" />
		<tag k="natural" v="slope" />
		<tag k="place" v="locality" />
		<tag k="ssr:stedsnr" v="772225" />
	</node>
	<node lat="61.08075000006785" lon="4.740286113380696" id="-80558">
		<tag k="name" v="Grasdalen" />
		<tag k="natural" v="valley" />
		<tag k="place" v="locality" />
		<tag k="ssr:stedsnr" v="772191" />
	</node>
	<node lat="61.054733336453396" lon="4.74964166034393" id="-80564">
		<tag k="name" v="Seljestighaugen" />
		<tag k="natural" v="hill" />
		<tag k="place" v="locality" />
		<tag k="ssr:stedsnr" v="772546" />
	</node>
	<node lat="61.085325004270075" lon="4.8050972202616435" id="-80566">
		<tag k="fixme" v="consider natural=peak for the most distinct mountains in the district" />
		<tag k="name" v="Geitekoren" />
		<tag k="natural" v="hill" />
		<tag k="place" v="locality" />
		<tag k="ssr:stedsnr" v="772784" />
	</node>
	<node lat="61.031263887918925" lon="4.718691674542046" id="-80567">
		<tag k="fixme" v="consider natural=peak for the most distinct mountains in the district" />
		<tag k="name" v="Skogafjellet" />
		<tag k="natural" v="hill" />
		<tag k="place" v="locality" />
		<tag k="ssr:stedsnr" v="772788" />
	</node>
	<node lat="61.09620555836726" lon="4.785311102358858" id="-80570">
		<tag k="name" v="Porten" />
		<tag k="natural" v="hill" />
		<tag k="place" v="locality" />
		<tag k="ssr:stedsnr" v="772996" />
	</node>
	<node lat="61.143377778113255" lon="4.878316671981642" id="-80572">
		<tag k="fixme" v="consider natural=peak for the most distinct mountains in the district" />
		<tag k="name" v="Snørlenova" />
		<tag k="natural" v="hill" />
		<tag k="place" v="locality" />
		<tag k="ssr:stedsnr" v="772844" />
	</node>
	<node lat="61.17714721879396" lon="4.902038885331217" id="-80574">
		<tag k="name" v="Kleiva" />
		<tag k="natural" v="slope" />
		<tag k="place" v="locality" />
		<tag k="ssr:stedsnr" v="772913" />
	</node>
	<node lat="61.15582222626876" lon="4.953469448565825" id="-80579">
		<tag k="name" v="Vardeskora" />
		<tag k="place" v="locality" />
		<tag k="ssr:stedsnr" v="773933" />
	</node>
	<node lat="61.151313892448634" lon="4.933625007683263" id="-80581">
		<tag k="fixme" v="consider natural=peak for the most distinct mountains in the district" />
		<tag k="name" v="Styggeskorheia" />
		<tag k="natural" v="hill" />
		<tag k="place" v="locality" />
		<tag k="ssr:stedsnr" v="773996" />
	</node>
	<node lat="61.128094444837046" lon="5.054705553379981" id="-80582">
		<tag k="fixme" v="consider natural=peak for the most distinct mountains in the district" />
		<tag k="name" v="Sylvstuvnova" />
		<tag k="natural" v="hill" />
		<tag k="place" v="locality" />
		<tag k="ssr:stedsnr" v="774025" />
	</node>
	<node lat="61.11431389041093" lon="4.928111114116419" id="-80598">
		<tag k="fixme" v="consider natural=peak for the most distinct mountains in the district" />
		<tag k="name" v="Ulvegreina" />
		<tag k="natural" v="hill" />
		<tag k="place" v="locality" />
		<tag k="ssr:stedsnr" v="798126" />
	</node>
	<node lat="61.15226111537009" lon="4.979527772983956" id="-80602">
		<tag k="alt_name" v="Hestestinova" />
		<tag k="fixme" v="consider natural=peak for the most distinct mountains in the district" />
		<tag k="name" v="Hestestignova" />
		<tag k="natural" v="hill" />
		<tag k="place" v="locality" />
		<tag k="ssr:stedsnr" v="798214" />
	</node>
	<node lat="61.19330000362949" lon="4.993494451873644" id="-80604">
		<tag k="fixme" v="consider natural=peak for the most distinct mountains in the district" />
		<tag k="name" v="Hornet" />
		<tag k="natural" v="hill" />
		<tag k="place" v="locality" />
		<tag k="ssr:stedsnr" v="798078" />
	</node>
	<node lat="61.13058888598229" lon="4.933597227098755" id="-80607">
		<tag k="name" v="Dumbebotnen" />
		<tag k="natural" v="valley" />
		<tag k="place" v="locality" />
		<tag k="ssr:stedsnr" v="798173" />
	</node>
	<node lat="61.136266667363685" lon="4.892461111162005" id="-80609">
		<tag k="fixme" v="consider natural=peak for the most distinct mountains in the district" />
		<tag k="name" v="Vaulefjellet" />
		<tag k="natural" v="hill" />
		<tag k="place" v="locality" />
		<tag k="ssr:stedsnr" v="798184" />
	</node>
	<node lat="61.14576944342824" lon="5.050377787078069" id="-80610">
		<tag k="fixme" v="consider natural=peak for the most distinct mountains in the district" />
		<tag k="name" v="Dukane" />
		<tag k="natural" v="hill" />
		<tag k="place" v="locality" />
		<tag k="ssr:stedsnr" v="798190" />
	</node>
	<node lat="61.08750277961305" lon="4.859472226240215" id="-80617">
		<tag k="name" v="Veddalsbotnen" />
		<tag k="natural" v="valley" />
		<tag k="place" v="locality" />
		<tag k="ssr:stedsnr" v="798290" />
	</node>
	<node lat="61.104125000773614" lon="4.8637805572207675" id="-80620">
		<tag k="fixme" v="consider natural=peak for the most distinct mountains in the district" />
		<tag k="name" v="Pollatinden" />
		<tag k="natural" v="hill" />
		<tag k="place" v="locality" />
		<tag k="ssr:stedsnr" v="798337" />
	</node>
	<node lat="61.04456666889253" lon="4.706641675335263" id="-80626">
		<tag k="alt_name" v="Juvågnova" />
		<tag k="name" v="Djupvågnova" />
		<tag k="natural" v="hill" />
		<tag k="place" v="locality" />
		<tag k="ssr:stedsnr" v="798760" />
	</node>
	<node lat="61.00721937216903" lon="4.68906321212799" id="-80639">
		<tag k="alt_name" v="Breiddalen" />
		<tag k="name" v="Breidalen" />
		<tag k="natural" v="valley" />
		<tag k="place" v="locality" />
		<tag k="ssr:stedsnr" v="798967" />
	</node>
	<node lat="61.13197222286632" lon="4.862294442070571" id="-80651">
		<tag k="name" v="Indre Sandskaret" />
		<tag k="natural" v="valley" />
		<tag k="place" v="locality" />
		<tag k="ssr:stedsnr" v="833045" />
	</node>
	<node lat="61.045802779155146" lon="4.89094999291041" id="-80652">
		<tag k="name" v="Kvernhusdalen" />
		<tag k="natural" v="valley" />
		<tag k="place" v="locality" />
		<tag k="ssr:stedsnr" v="833144" />
	</node>
	<node lat="61.060994445232765" lon="4.746736115167331" id="-80654">
		<tag k="name" v="Mjelkevollen" />
		<tag k="natural" v="hill" />
		<tag k="place" v="locality" />
		<tag k="ssr:stedsnr" v="833168" />
	</node>
	<node lat="61.11942222154722" lon="4.967316662961805" id="-80655">
		<tag k="name" v="Stølssmauget" />
		<tag k="natural" v="valley" />
		<tag k="place" v="locality" />
		<tag k="ssr:stedsnr" v="833172" />
	</node>
	<node lat="61.15763610974879" lon="4.836563896249661" id="-80656">
		<tag k="name" v="Brendenothaugen" />
		<tag k="natural" v="hill" />
		<tag k="place" v="locality" />
		<tag k="ssr:stedsnr" v="833174" />
	</node>
	<node lat="61.17308333413564" lon="4.935211114603385" id="-80657">
		<tag k="fixme" v="consider natural=peak for the most distinct mountains in the district" />
		<tag k="name" v="Uvindelknolten" />
		<tag k="natural" v="hill" />
		<tag k="place" v="locality" />
		<tag k="ssr:stedsnr" v="833255" />
	</node>
	<node lat="61.1377611129353" lon="4.841822231237047" id="-80660">
		<tag k="name" v="Jytten" />
		<tag k="natural" v="hill" />
		<tag k="place" v="locality" />
		<tag k="ssr:stedsnr" v="833211" />
	</node>
	<node lat="61.06321944274701" lon="4.879236116345803" id="-80661">
		<tag k="name" v="Eikedalen" />
		<tag k="natural" v="valley" />
		<tag k="place" v="locality" />
		<tag k="ssr:stedsnr" v="833218" />
	</node>
	<node lat="61.20877777346918" lon="4.897941667051504" id="-80664">
		<tag k="name" v="Dyttingedalshaugen" />
		<tag k="natural" v="hill" />
		<tag k="place" v="locality" />
		<tag k="ssr:stedsnr" v="833502" />
	</node>
	<node lat="61.20984444117383" lon="4.8895277690788514" id="-80665">
		<tag k="name" v="Helleren" />
		<tag k="natural" v="hill" />
		<tag k="place" v="locality" />
		<tag k="ssr:stedsnr" v="833504" />
	</node>
	<node lat="61.195255552290355" lon="4.961111105360254" id="-80666">
		<tag k="fixme" v="consider natural=peak for the most distinct mountains in the district" />
		<tag k="name" v="Middagsnova" />
		<tag k="natural" v="hill" />
		<tag k="place" v="locality" />
		<tag k="ssr:stedsnr" v="833364" />
	</node>
	<node lat="61.17905555150566" lon="4.698997228295696" id="-80667">
		<tag k="name" v="Humrevåghaugen" />
		<tag k="natural" v="hill" />
		<tag k="place" v="locality" />
		<tag k="ssr:stedsnr" v="833372" />
	</node>
	<node lat="61.07233055825519" lon="4.760608337516973" id="-80673">
		<tag k="name" v="Skippershellene" />
		<tag k="place" v="locality" />
		<tag k="ssr:stedsnr" v="833566" />
	</node>
	<node lat="61.06558888545006" lon="4.826802784061014" id="-80677">
		<tag k="fixme" v="consider natural=peak for the most distinct mountains in the district" />
		<tag k="name" v="Kaldhammaren" />
		<tag k="natural" v="hill" />
		<tag k="place" v="locality" />
		<tag k="ssr:stedsnr" v="833681" />
	</node>
	<node lat="61.0861305584433" lon="4.869599990587369" id="-80680">
		<tag k="name" v="Sikene" />
		<tag k="natural" v="hill" />
		<tag k="place" v="locality" />
		<tag k="ssr:stedsnr" v="833860" />
	</node>
	<node lat="61.085197220919774" lon="4.8637416758878915" id="-80681">
		<tag k="name" v="Nordre Nipa" />
		<tag k="natural" v="hill" />
		<tag k="place" v="locality" />
		<tag k="ssr:stedsnr" v="833871" />
	</node>
	<node lat="61.175455556859276" lon="4.868105557278846" id="-80683">
		<tag k="name" v="Sviskolten" />
		<tag k="natural" v="hill" />
		<tag k="place" v="locality" />
		<tag k="ssr:stedsnr" v="833921" />
	</node>
	<node lat="61.1686777792599" lon="4.892738892202312" id="-80685">
		<tag k="name" v="Sandingsplasset" />
		<tag k="place" v="locality" />
		<tag k="ssr:stedsnr" v="833942" />
	</node>
	<node lat="61.17740000146995" lon="4.91145277915943" id="-80686">
		<tag k="name" v="Såtefjellsdalen" />
		<tag k="natural" v="valley" />
		<tag k="place" v="locality" />
		<tag k="ssr:stedsnr" v="833952" />
	</node>
	<node lat="61.20888611052829" lon="4.7753222187908095" id="-80687">
		<tag k="name" v="Buvikhaugen" />
		<tag k="natural" v="hill" />
		<tag k="place" v="locality" />
		<tag k="ssr:stedsnr" v="834041" />
	</node>
	<node lat="61.17028610920463" lon="4.958780563136559" id="-80688">
		<tag k="name" v="Småkleivane" />
		<tag k="natural" v="slope" />
		<tag k="place" v="locality" />
		<tag k="ssr:stedsnr" v="833983" />
	</node>
	<node lat="61.09116944901665" lon="4.778413893057945" id="-80689">
		<tag k="fixme" v="consider natural=peak for the most distinct mountains in the district" />
		<tag k="name" v="Storefjellet" />
		<tag k="natural" v="hill" />
		<tag k="place" v="locality" />
		<tag k="ssr:stedsnr" v="833984" />
	</node>
	<node lat="61.172230557164504" lon="4.963861119968859" id="-80691">
		<tag k="name" v="Høgehaugen" />
		<tag k="natural" v="hill" />
		<tag k="place" v="locality" />
		<tag k="ssr:stedsnr" v="833996" />
	</node>
	<node lat="61.20675833134912" lon="4.834611105597419" id="-80692">
		<tag k="fixme" v="consider natural=peak for the most distinct mountains in the district" />
		<tag k="name" v="Ullafjellet" />
		<tag k="natural" v="hill" />
		<tag k="place" v="locality" />
		<tag k="ssr:stedsnr" v="834399" />
	</node>
	<node lat="61.137144440311516" lon="5.010183334009243" id="-80693">
		<tag k="name" v="Dyttinga" />
		<tag k="place" v="locality" />
		<tag k="ssr:stedsnr" v="834434" />
	</node>
	<node lat="61.12713333437496" lon="4.984327786043997" id="-80698">
		<tag k="name" v="Heggegjelet" />
		<tag k="natural" v="valley" />
		<tag k="place" v="locality" />
		<tag k="ssr:stedsnr" v="834456" />
	</node>
	<node lat="61.14655277343705" lon="5.0128611092995605" id="-80699">
		<tag k="fixme" v="consider natural=peak for the most distinct mountains in the district" />
		<tag k="name" v="Trollebotnheia" />
		<tag k="natural" v="hill" />
		<tag k="place" v="locality" />
		<tag k="ssr:stedsnr" v="834658" />
	</node>
	<node lat="61.14227777452091" lon="4.963502775710157" id="-80702">
		<tag k="name" v="Kolmila" />
		<tag k="place" v="locality" />
		<tag k="ssr:stedsnr" v="834950" />
	</node>
	<node lat="61.0987194463745" lon="5.011783340400285" id="-80703">
		<tag k="name" v="Skorane" />
		<tag k="natural" v="hill" />
		<tag k="place" v="locality" />
		<tag k="ssr:stedsnr" v="835085" />
	</node>
	<node lat="61.094524997857306" lon="4.999836114399693" id="-80704">
		<tag k="name" v="Skarveberget" />
		<tag k="natural" v="hill" />
		<tag k="place" v="locality" />
		<tag k="ssr:stedsnr" v="835104" />
	</node>
	<node lat="61.11470833497697" lon="5.020550006788296" id="-80705">
		<tag k="name" v="Riset" />
		<tag k="natural" v="hill" />
		<tag k="place" v="locality" />
		<tag k="ssr:stedsnr" v="835046" />
	</node>
	<node lat="61.12708610780133" lon="5.086155551236204" id="-80708">
		<tag k="name" v="Skoltane" />
		<tag k="natural" v="hill" />
		<tag k="place" v="locality" />
		<tag k="ssr:stedsnr" v="835535" />
	</node>
	<node lat="61.14390555889963" lon="4.911630549998711" id="-80710">
		<tag k="name" v="Solheim" />
		<tag k="place" v="locality" />
		<tag k="ssr:stedsnr" v="841417" />
	</node>
	<node lat="61.18935555376226" lon="4.9195333292819" id="-80724">
		<tag k="alt_name" v="Støldalen" />
		<tag k="name" v="Stølsdalen" />
		<tag k="natural" v="valley" />
		<tag k="place" v="locality" />
		<tag k="ssr:stedsnr" v="859061" />
	</node>
	<node lat="61.14521944283857" lon="4.877402771388686" id="-80731">
		<tag k="fixme" v="consider natural=peak for the most distinct mountains in the district" />
		<tag k="name" v="Vaulenova" />
		<tag k="natural" v="hill" />
		<tag k="place" v="locality" />
		<tag k="ssr:stedsnr" v="859201" />
	</node>
	<node lat="61.0946444430669" lon="4.972200002482026" id="-80734">
		<tag k="name" v="Mjåtehaugen" />
		<tag k="natural" v="hill" />
		<tag k="place" v="locality" />
		<tag k="ssr:stedsnr" v="859274" />
	</node>
	<node lat="61.053186108748925" lon="4.766550000916618" id="-80738">
		<tag k="name" v="Dyrholten" />
		<tag k="natural" v="hill" />
		<tag k="place" v="locality" />
		<tag k="ssr:stedsnr" v="859234" />
	</node>
	<node lat="61.02917221840596" lon="4.706522226321305" id="-80768">
		<tag k="alt_name" v="Trettevikfjellet" />
		<tag k="name" v="Trettevikklubben" />
		<tag k="natural" v="hill" />
		<tag k="place" v="locality" />
		<tag k="ssr:stedsnr" v="874128" />
	</node>
	<node lat="61.12899722187761" lon="4.779150004982731" id="-80784">
		<tag k="name" v="Vikahaugane" />
		<tag k="natural" v="hill" />
		<tag k="place" v="locality" />
		<tag k="ssr:stedsnr" v="954140" />
	</node>
	<node lat="61.117105556545766" lon="4.969250002653181" id="-80787">
		<tag k="name" v="Stølen" />
		<tag k="place" v="locality" />
		<tag k="ssr:stedsnr" v="954159" />
	</node>
	<node lat="61.1510194446624" lon="4.86150277852326" id="-80788">
		<tag k="name" v="Klungrehaugen" />
		<tag k="natural" v="hill" />
		<tag k="place" v="locality" />
		<tag k="ssr:stedsnr" v="954168" />
	</node>
	<node lat="61.15881388623293" lon="4.82461111512837" id="-80789">
		<tag k="fixme" v="consider natural=peak for the most distinct mountains in the district" />
		<tag k="name" v="Søre Heia" />
		<tag k="natural" v="hill" />
		<tag k="place" v="locality" />
		<tag k="ssr:stedsnr" v="954178" />
	</node>
	<node lat="61.08420555425429" lon="4.845874997939191" id="-80794">
		<tag k="name" v="Lonhaugen" />
		<tag k="natural" v="hill" />
		<tag k="place" v="locality" />
		<tag k="ssr:stedsnr" v="953834" />
	</node>
	<node lat="61.131941669479005" lon="4.856819435772953" id="-80796">
		<tag k="name" v="Ytre Sandskaret" />
		<tag k="natural" v="valley" />
		<tag k="place" v="locality" />
		<tag k="ssr:stedsnr" v="954045" />
	</node>
	<node lat="61.13166389169184" lon="4.8990555590728935" id="-80798">
		<tag k="name" v="Ospeberget" />
		<tag k="natural" v="hill" />
		<tag k="place" v="locality" />
		<tag k="ssr:stedsnr" v="954871" />
	</node>
	<node lat="61.13850555298173" lon="4.879647229524025" id="-80800">
		<tag k="name" v="Gråthelleren" />
		<tag k="natural" v="hill" />
		<tag k="place" v="locality" />
		<tag k="ssr:stedsnr" v="954874" />
	</node>
	<node lat="61.126405552541605" lon="4.960488882818226" id="-80810">
		<tag k="fixme" v="consider natural=peak for the most distinct mountains in the district" />
		<tag k="name" v="Træheia" />
		<tag k="natural" v="hill" />
		<tag k="place" v="locality" />
		<tag k="ssr:stedsnr" v="954567" />
	</node>
	<node lat="61.074347220239794" lon="4.766880548958817" id="-80811">
		<tag k="fixme" v="consider natural=peak for the most distinct mountains in the district" />
		<tag k="name" v="Lasken" />
		<tag k="natural" v="hill" />
		<tag k="place" v="locality" />
		<tag k="ssr:stedsnr" v="954573" />
	</node>
	<node lat="61.15471110901364" lon="5.062999996444983" id="-80821">
		<tag k="name" v="Kjeeskora" />
		<tag k="place" v="locality" />
		<tag k="ssr:stedsnr" v="955036" />
	</node>
	<node lat="61.15069444497041" lon="4.923730553356881" id="-80822">
		<tag k="name" v="Novene" />
		<tag k="natural" v="hill" />
		<tag k="place" v="locality" />
		<tag k="ssr:stedsnr" v="955996" />
	</node>
	<node lat="61.12054999767507" lon="4.9858861174108275" id="-80823">
		<tag k="name" v="Skjenstøet" />
		<tag k="place" v="locality" />
		<tag k="ssr:stedsnr" v="955469" />
	</node>
	<node lat="61.14549166348274" lon="4.990688888937755" id="-80826">
		<tag k="name" v="Steingjelet" />
		<tag k="natural" v="valley" />
		<tag k="place" v="locality" />
		<tag k="ssr:stedsnr" v="955655" />
	</node>
	<node lat="61.10653055245642" lon="4.917833327753077" id="-80827">
		<tag k="name" v="Furegjelet" />
		<tag k="natural" v="valley" />
		<tag k="place" v="locality" />
		<tag k="ssr:stedsnr" v="955757" />
	</node>
	<node lat="61.109638889815216" lon="4.9200972251135076" id="-80828">
		<tag k="name" v="Bugota" />
		<tag k="natural" v="valley" />
		<tag k="place" v="locality" />
		<tag k="ssr:stedsnr" v="955874" />
	</node>
	<node lat="61.115127780150594" lon="4.899716670331013" id="-80831">
		<tag k="fixme" v="consider natural=peak for the most distinct mountains in the district" />
		<tag k="name" v="Vindnova" />
		<tag k="natural" v="hill" />
		<tag k="place" v="locality" />
		<tag k="ssr:stedsnr" v="955986" />
	</node>
	<node lat="61.1202444419974" lon="5.0785527770698025" id="-80832">
		<tag k="name" v="Vindskaret" />
		<tag k="natural" v="valley" />
		<tag k="place" v="locality" />
		<tag k="ssr:stedsnr" v="956083" />
	</node>
	<node lat="61.11796389313277" lon="5.084597225137448" id="-80833">
		<tag k="name" v="Flotane" />
		<tag k="place" v="locality" />
		<tag k="ssr:stedsnr" v="956084" />
	</node>
	<node lat="61.02886569282577" lon="4.6773062212986005" id="-80920">
		<tag k="name" v="Langedalen" />
		<tag k="natural" v="valley" />
		<tag k="place" v="locality" />
		<tag k="ssr:stedsnr" v="1080089" />
	</node>
</osm>
