<?xml version="1.0" encoding="UTF-8"?>
<osm version="0.6" generator="osmapis">
	<node lat="61.07998332984764" lon="4.812750003206185" id="-26900">
		<tag k="name" v="Storevika" />
		<tag k="natural" v="bay" />
		<tag k="ssr:stedsnr" v="8564" />
	</node>
	<node lat="61.12773888882308" lon="4.911230563683776" id="-26901">
		<tag k="name" v="Ospeneset" />
		<tag k="natural" v="cape" />
		<tag k="ssr:stedsnr" v="8565" />
	</node>
	<node lat="61.143441666574056" lon="4.779283336692091" id="-26903">
		<tag k="name" v="Klubbevika" />
		<tag k="natural" v="bay" />
		<tag k="ssr:stedsnr" v="9206" />
	</node>
	<node lat="61.12166944632911" lon="4.815797230420771" id="-26905">
		<tag k="name" v="Klubben" />
		<tag k="place" v="islet" />
		<tag k="ssr:stedsnr" v="9138" />
	</node>
	<node lat="61.13131944857382" lon="4.830711116291073" id="-26906">
		<tag k="alt_name" v="Botnevika" />
		<tag k="name" v="Botnavika" />
		<tag k="natural" v="bay" />
		<tag k="ssr:stedsnr" v="9144" />
	</node>
	<node lat="61.09926111357843" lon="4.913741669770839" id="-26910">
		<tag k="name" v="Eidsvika" />
		<tag k="natural" v="bay" />
		<tag k="ssr:stedsnr" v="9293" />
	</node>
	<node lat="61.02600833058119" lon="4.774813889129786" id="-26911">
		<tag k="name" v="Tungodden" />
		<tag k="natural" v="cape" />
		<tag k="ssr:stedsnr" v="9450" />
	</node>
	<node lat="61.17511944619813" lon="4.686155552738467" id="-26912">
		<tag k="name" v="Tjørnholmen" />
		<tag k="place" v="islet" />
		<tag k="ssr:stedsnr" v="9821" />
	</node>
	<node lat="61.1568638868686" lon="4.681150008903433" id="-26913">
		<tag k="name" v="Tverken" />
		<tag k="natural" v="shoal" />
		<tag k="place" v="locality" />
		<tag k="ssr:stedsnr" v="9846" />
	</node>
	<node lat="61.20273611350526" lon="4.7403555578511805" id="-26915">
		<tag k="alt_name" v="Feldeholmane" />
		<tag k="name" v="Felleholmane" />
		<tag k="place" v="islet" />
		<tag k="ssr:stedsnr" v="9916" />
	</node>
	<node lat="61.11266944687956" lon="4.819394451962903" id="-26917">
		<tag k="name" v="Eiavika" />
		<tag k="natural" v="bay" />
		<tag k="ssr:stedsnr" v="287021" />
	</node>
	<node lat="61.143473034822236" lon="4.7666660694741205" id="-26919">
		<tag k="alt_name" v="Avløypeskjeret, l" />
		<tag k="fixme" v="consider seamark:type=rock or natural=shoal" />
		<tag k="name" v="Litle Avløypeskjeret" />
		<tag k="place" v="islet" />
		<tag k="ssr:stedsnr" v="234246" />
	</node>
	<node lat="61.063700003067204" lon="4.819338896211277" id="-26920">
		<tag k="alt_name" v="Samsonholmen" />
		<tag k="name" v="Samsundholmen" />
		<tag k="place" v="islet" />
		<tag k="ssr:stedsnr" v="26000" />
	</node>
	<node lat="61.11385277373307" lon="4.6716249956987665" id="-26921">
		<tag k="name" v="Tverrflua" />
		<tag k="natural" v="shoal" />
		<tag k="place" v="locality" />
		<tag k="ssr:stedsnr" v="235870" />
	</node>
	<node lat="61.12192777606229" lon="4.814058329261224" id="-26923">
		<tag k="name" v="Hagøyvågen" />
		<tag k="natural" v="strait" />
		<tag k="ssr:stedsnr" v="43210" />
	</node>
	<node lat="61.08667500391017" lon="4.690497217790677" id="-26924">
		<tag k="name" v="Mariholmen" />
		<tag k="place" v="islet" />
		<tag k="ssr:stedsnr" v="43212" />
	</node>
	<node lat="61.078600001880986" lon="4.678374998931897" id="-26925">
		<tag k="name" v="Oldresundet" />
		<tag k="natural" v="strait" />
		<tag k="ssr:stedsnr" v="43189" />
	</node>
	<node lat="60.98830555844" lon="4.603013879831786" id="-26927">
		<tag k="fixme" v="consider seamark:type=rock or natural=shoal" />
		<tag k="name" v="Stensøyskjeret" />
		<tag k="place" v="islet" />
		<tag k="ssr:stedsnr" v="43601" />
	</node>
	<node lat="61.2141055551364" lon="4.766344447230325" id="-26928">
		<tag k="name" v="Reseneset" />
		<tag k="natural" v="cape" />
		<tag k="ssr:stedsnr" v="44004" />
	</node>
	<node lat="61.21713888632586" lon="4.76268332610105" id="-26929">
		<tag k="name" v="Gulholmen" />
		<tag k="place" v="islet" />
		<tag k="ssr:stedsnr" v="44005" />
	</node>
	<node lat="61.16423611329201" lon="4.857805563505911" id="-26931">
		<tag k="name" v="Gytten" />
		<tag k="natural" v="bay" />
		<tag k="ssr:stedsnr" v="44342" />
	</node>
	<node lat="61.037947223134196" lon="4.50589444157892" id="-26933">
		<tag k="name" v="Skansholmen" />
		<tag k="place" v="islet" />
		<tag k="ssr:stedsnr" v="44581" />
	</node>
	<node lat="61.045319446927344" lon="4.809652770371794" id="-26942">
		<tag k="name" v="Ytre Steinsneset" />
		<tag k="natural" v="cape" />
		<tag k="ssr:stedsnr" v="44723" />
	</node>
	<node lat="61.17471389307514" lon="4.857238884832713" id="-26948">
		<tag k="alt_name" v="Kråkøyflea" />
		<tag k="fixme" v="consider seamark:type=rock or natural=shoal" />
		<tag k="name" v="Flæene" />
		<tag k="place" v="islet" />
		<tag k="ssr:stedsnr" v="52370" />
	</node>
	<node lat="61.005536112106846" lon="4.736925001967298" id="-26950">
		<tag k="alt_name" v="Mortevågen, l" />
		<tag k="name" v="Litle Mortevågen" />
		<tag k="natural" v="bay" />
		<tag k="ssr:stedsnr" v="52415" />
	</node>
	<node lat="61.07294722610941" lon="4.731949994950894" id="-26952">
		<tag k="fixme" v="multiple name tags, choose one and add the other to alt_name" />
		<tag k="name" v="Elvaneset;Saueneset" />
		<tag k="natural" v="cape" />
		<tag k="ssr:stedsnr" v="69583" />
	</node>
	<node lat="61.20114166875249" lon="4.818936102109544" id="-26954">
		<tag k="alt_name" v="Lauvholmen;Kråkeholmen" />
		<tag k="fixme" v="multiple name tags, choose one and add the other to alt_name" />
		<tag k="name" v="Lauvholmane;Kråkeholmane" />
		<tag k="place" v="islet" />
		<tag k="ssr:stedsnr" v="70102" />
	</node>
	<node lat="61.195180559315766" lon="4.739058325766853" id="-26955">
		<tag k="alt_name" v="Værtåna" />
		<tag k="name" v="Værøytåna" />
		<tag k="place" v="islet" />
		<tag k="ssr:stedsnr" v="70106" />
	</node>
	<node lat="61.1072166651536" lon="4.779550005037348" id="-26956">
		<tag k="name" v="Kattholmen" />
		<tag k="place" v="islet" />
		<tag k="ssr:stedsnr" v="70112" />
	</node>
	<node lat="61.13460277962749" lon="4.797180552759547" id="-26961">
		<tag k="name" v="Jaktholmen" />
		<tag k="place" v="islet" />
		<tag k="ssr:stedsnr" v="70191" />
	</node>
	<node lat="61.13450000245509" lon="4.722536105502026" id="-26963">
		<tag k="alt_name" v="Gulholmen" />
		<tag k="name" v="Guleholmen" />
		<tag k="place" v="islet" />
		<tag k="ssr:stedsnr" v="70194" />
	</node>
	<node lat="61.08756388550848" lon="4.955466670074852" id="-26964">
		<tag k="name" v="Kråkevågen" />
		<tag k="natural" v="bay" />
		<tag k="ssr:stedsnr" v="70301" />
	</node>
	<node lat="61.08301388710795" lon="4.881091662267497" id="-26965">
		<tag k="alt_name" v="Kattholmane" />
		<tag k="name" v="Kattholmen" />
		<tag k="place" v="islet" />
		<tag k="ssr:stedsnr" v="70306" />
	</node>
	<node lat="61.08529166963739" lon="4.749650007285005" id="-26966">
		<tag k="name" v="Dalesundet" />
		<tag k="natural" v="strait" />
		<tag k="ssr:stedsnr" v="70315" />
	</node>
	<node lat="61.09620555974146" lon="4.725374998378295" id="-26967">
		<tag k="name" v="Storeneset" />
		<tag k="natural" v="cape" />
		<tag k="ssr:stedsnr" v="70324" />
	</node>
	<node lat="61.15220555692173" lon="4.904283334283593" id="-26969">
		<tag k="name" v="Djupevika" />
		<tag k="natural" v="bay" />
		<tag k="ssr:stedsnr" v="70207" />
	</node>
	<node lat="61.16268889150813" lon="5.059758329585974" id="-26971">
		<tag k="name" v="Fureneset" />
		<tag k="natural" v="cape" />
		<tag k="ssr:stedsnr" v="70224" />
	</node>
	<node lat="61.069577773435874" lon="4.861888892439683" id="-26974">
		<tag k="alt_name" v="Sandvikneset" />
		<tag k="name" v="Sandviksneset" />
		<tag k="natural" v="cape" />
		<tag k="ssr:stedsnr" v="70275" />
	</node>
	<node lat="61.08174444824785" lon="4.92071944194979" id="-26975">
		<tag k="name" v="Knaget" />
		<tag k="natural" v="cape" />
		<tag k="ssr:stedsnr" v="70280" />
	</node>
	<node lat="61.07798888814467" lon="4.7389194537935815" id="-26976">
		<tag k="fixme" v="multiple name tags, choose one and add the other to alt_name" />
		<tag k="name" v="Daløyna;Rånøyna" />
		<tag k="place" v="island" />
		<tag k="ssr:stedsnr" v="70282" />
	</node>
	<node lat="61.03949604881593" lon="4.7418270908146445" id="-26978">
		<tag k="fixme" v="consider seamark:type=rock or natural=shoal" />
		<tag k="loc_name" v="Fængskjær" />
		<tag k="name" v="Fengskjeret" />
		<tag k="place" v="islet" />
		<tag k="ssr:stedsnr" v="70474" />
	</node>
	<node lat="61.1986361084178" lon="4.648794453440725" id="-26979">
		<tag k="alt_name" v="Barsteingrunnen" />
		<tag k="name" v="Bardsteingrunnen" />
		<tag k="natural" v="shoal" />
		<tag k="place" v="locality" />
		<tag k="ssr:stedsnr" v="70820" />
	</node>
	<node lat="61.19678889158196" lon="4.68488332887508" id="-26980">
		<tag k="fixme" v="consider seamark:type=rock or natural=shoal" />
		<tag k="name" v="Stokken" />
		<tag k="place" v="islet" />
		<tag k="ssr:stedsnr" v="70822" />
	</node>
	<node lat="61.218074998034254" lon="4.728947223318511" id="-26981">
		<tag k="name" v="Kvaløyna" />
		<tag k="place" v="islet" />
		<tag k="ssr:stedsnr" v="70883" />
	</node>
	<node lat="61.21751666764423" lon="4.798883329474351" id="-26982">
		<tag k="alt_name" v="Nordre Drivøyskjera" />
		<tag k="fixme" v="consider seamark:type=rock or natural=shoal" />
		<tag k="name" v="Drivøyskjera" />
		<tag k="place" v="islet" />
		<tag k="ssr:stedsnr" v="70896" />
	</node>
	<node lat="61.21934444223969" lon="4.764144445255143" id="-26985">
		<tag k="name" v="Nordfallholmen" />
		<tag k="place" v="islet" />
		<tag k="ssr:stedsnr" v="70905" />
	</node>
	<node lat="61.20306111518217" lon="4.794419448425925" id="-26986">
		<tag k="name" v="Kjeringholmen" />
		<tag k="place" v="islet" />
		<tag k="ssr:stedsnr" v="70925" />
	</node>
	<node lat="61.20725833759103" lon="4.733155557254758" id="-26987">
		<tag k="fixme" v="consider seamark:type=rock or natural=shoal" />
		<tag k="name" v="Bolteskjeret" />
		<tag k="place" v="islet" />
		<tag k="ssr:stedsnr" v="70927" />
	</node>
	<node lat="61.003236111213546" lon="4.611877777960965" id="-26988">
		<tag k="fixme" v="consider seamark:type=rock or natural=shoal" />
		<tag k="name" v="Slåttøyskjeret" />
		<tag k="place" v="islet" />
		<tag k="ssr:stedsnr" v="70970" />
	</node>
	<node lat="61.048566663088614" lon="4.75105556479196" id="-26989">
		<tag k="alt_name" v="Synningeholmen" />
		<tag k="name" v="Syningholmen" />
		<tag k="place" v="islet" />
		<tag k="ssr:stedsnr" v="85104" />
	</node>
	<node lat="61.04337579092903" lon="4.662353979121752" id="-26990">
		<tag k="name" v="Nordrevågen" />
		<tag k="natural" v="bay" />
		<tag k="ssr:stedsnr" v="86185" />
	</node>
	<node lat="61.00458888999269" lon="4.619675005015054" id="-26991">
		<tag k="name" v="Færøyflua" />
		<tag k="natural" v="shoal" />
		<tag k="place" v="locality" />
		<tag k="ssr:stedsnr" v="86194" />
	</node>
	<node lat="61.10198055186014" lon="4.673249994912407" id="-26992">
		<tag k="name" v="Mågøytåa" />
		<tag k="natural" v="shoal" />
		<tag k="place" v="locality" />
		<tag k="ssr:stedsnr" v="88611" />
	</node>
	<node lat="61.09527777931931" lon="4.754902773940985" id="-26993">
		<tag k="alt_name" v="Høyelsholmen" />
		<tag k="name" v="Fløyelsholmen" />
		<tag k="place" v="islet" />
		<tag k="ssr:stedsnr" v="88614" />
	</node>
	<node lat="61.00271990052177" lon="4.66271563091003" id="-26996">
		<tag k="name" v="Husøyvågen" />
		<tag k="natural" v="bay" />
		<tag k="ssr:stedsnr" v="104199" />
	</node>
	<node lat="61.08081944370823" lon="4.685838896608493" id="-26997">
		<tag k="name" v="Ørnehaug" />
		<tag k="natural" v="cape" />
		<tag k="ssr:stedsnr" v="104210" />
	</node>
	<node lat="61.08740277901552" lon="4.69695276983467" id="-26998">
		<tag k="name" v="Notaholmen" />
		<tag k="place" v="islet" />
		<tag k="ssr:stedsnr" v="104224" />
	</node>
	<node lat="61.1906499993433" lon="4.888788894660279" id="-27000">
		<tag k="name" v="Nordre Hamnen" />
		<tag k="natural" v="bay" />
		<tag k="ssr:stedsnr" v="104382" />
	</node>
	<node lat="61.090041665988956" lon="4.891141662119298" id="-27006">
		<tag k="name" v="Pollevika" />
		<tag k="natural" v="bay" />
		<tag k="ssr:stedsnr" v="105225" />
	</node>
	<node lat="60.9984083360919" lon="4.7001111041117944" id="-27009">
		<tag k="name" v="Storevika" />
		<tag k="natural" v="bay" />
		<tag k="ssr:stedsnr" v="105189" />
	</node>
	<node lat="61.12926110838153" lon="4.794802784599842" id="-27011">
		<tag k="fixme" v="consider seamark:type=rock or natural=shoal" />
		<tag k="name" v="Åmeskjeret" />
		<tag k="place" v="islet" />
		<tag k="ssr:stedsnr" v="105281" />
	</node>
	<node lat="61.018494443143055" lon="4.5959194421010805" id="-27013">
		<tag k="fixme" v="consider seamark:type=rock or natural=shoal" />
		<tag k="name" v="Kasseskjeret" />
		<tag k="place" v="islet" />
		<tag k="ssr:stedsnr" v="105734" />
	</node>
	<node lat="60.993380558566955" lon="4.596666671954138" id="-27014">
		<tag k="name" v="Krækjebærholmen" />
		<tag k="place" v="islet" />
		<tag k="ssr:stedsnr" v="105689" />
	</node>
	<node lat="60.99805555239637" lon="4.596580548910367" id="-27015">
		<tag k="fixme" v="consider seamark:type=rock or natural=shoal" />
		<tag k="name" v="Nordre Slåttøy-skjeret" />
		<tag k="place" v="islet" />
		<tag k="ssr:stedsnr" v="105694" />
	</node>
	<node lat="61.140241662676445" lon="4.895586111837336" id="-27018">
		<tag k="name" v="Åttringsvika" />
		<tag k="natural" v="bay" />
		<tag k="ssr:stedsnr" v="105877" />
	</node>
	<node lat="61.1798944403847" lon="4.959413895668994" id="-27021">
		<tag k="name" v="Hamnen" />
		<tag k="natural" v="bay" />
		<tag k="ssr:stedsnr" v="105993" />
	</node>
	<node lat="60.99856111187936" lon="4.6050611082089885" id="-27027">
		<tag k="fixme" v="consider seamark:type=rock or natural=shoal" />
		<tag k="name" v="Vesøyskjeret" />
		<tag k="place" v="islet" />
		<tag k="ssr:stedsnr" v="249649" />
	</node>
	<node lat="60.98790000378498" lon="4.683500001914399" id="-27029">
		<tag k="alt_name" v="Osletta, store;Osletta" />
		<tag k="name" v="Store Osletta" />
		<tag k="place" v="islet" />
		<tag k="ssr:stedsnr" v="249660" />
	</node>
	<node lat="61.11457499838765" lon="4.953477771524503" id="-27031">
		<tag k="name" v="Sula" />
		<tag k="place" v="island" />
		<tag k="ssr:stedsnr" v="250530" />
	</node>
	<node lat="60.970730553124895" lon="4.572402785297819" id="-27033">
		<tag k="alt_name" v="Små - engelskjeret" />
		<tag k="fixme" v="consider seamark:type=rock or natural=shoal" />
		<tag k="name" v="Småengelsskjeret" />
		<tag k="place" v="islet" />
		<tag k="ssr:stedsnr" v="250663" />
	</node>
	<node lat="60.941955557184414" lon="4.593763897281896" id="-27034">
		<tag k="name" v="Breiflua" />
		<tag k="natural" v="shoal" />
		<tag k="place" v="locality" />
		<tag k="ssr:stedsnr" v="250666" />
	</node>
	<node lat="61.03317259273681" lon="4.688647855473144" id="-27035">
		<tag k="alt_name" v="Sula, yt;Sula, ytre" />
		<tag k="name" v="Ytre Sula" />
		<tag k="place" v="island" />
		<tag k="ssr:stedsnr" v="250679" />
	</node>
	<node lat="61.16577222197299" lon="4.865002776692168" id="-27036">
		<tag k="alt_name" v="Indre Hola" />
		<tag k="name" v="Indre Holene" />
		<tag k="natural" v="bay" />
		<tag k="ssr:stedsnr" v="251040" />
	</node>
	<node lat="61.15226389312485" lon="4.778566674150073" id="-27039">
		<tag k="name" v="Lågøyholmane" />
		<tag k="place" v="islet" />
		<tag k="ssr:stedsnr" v="251020" />
	</node>
	<node lat="61.16248888678463" lon="4.832155562652482" id="-27040">
		<tag k="name" v="Hestvika" />
		<tag k="natural" v="bay" />
		<tag k="ssr:stedsnr" v="251034" />
	</node>
	<node lat="61.19822777326879" lon="4.817683330265806" id="-27041">
		<tag k="name" v="Brattholmen" />
		<tag k="place" v="islet" />
		<tag k="ssr:stedsnr" v="251129" />
	</node>
	<node lat="61.12564722133398" lon="4.772941664227165" id="-27042">
		<tag k="name" v="Brendeholmen" />
		<tag k="place" v="islet" />
		<tag k="ssr:stedsnr" v="251177" />
	</node>
	<node lat="61.148016664042395" lon="5.02440833453649" id="-27043">
		<tag k="alt_name" v="Laskeneset" />
		<tag k="name" v="Gåseneset" />
		<tag k="natural" v="cape" />
		<tag k="ssr:stedsnr" v="251219" />
	</node>
	<node lat="61.02683333456602" lon="4.5920999957971835" id="-27044">
		<tag k="alt_name" v="Sandskjeret;Søre Sandskjeret" />
		<tag k="fixme" v="consider seamark:type=rock or natural=shoal" />
		<tag k="name" v="Sandskjera" />
		<tag k="place" v="islet" />
		<tag k="ssr:stedsnr" v="251834" />
	</node>
	<node lat="61.04666944198627" lon="4.7093805506457365" id="-27046">
		<tag k="alt_name" v="Juvågen" />
		<tag k="name" v="Djupvågen" />
		<tag k="natural" v="bay" />
		<tag k="ssr:stedsnr" v="251845" />
	</node>
	<node lat="61.21935555853288" lon="4.717400000158333" id="-27047">
		<tag k="alt_name" v="Søre Sædingskjeret;Nordre Sædingskjeret;Sæingsskjera" />
		<tag k="fixme" v="consider seamark:type=rock or natural=shoal" />
		<tag k="name" v="Sædingsskjera" />
		<tag k="place" v="islet" />
		<tag k="ssr:stedsnr" v="251875" />
	</node>
	<node lat="61.21531388861533" lon="4.7285749961216155" id="-27048">
		<tag k="fixme" v="multiple name tags, choose one and add the other to alt_name" />
		<tag k="name" v="Kvalholmen;Nordre Svarteskjeret" />
		<tag k="place" v="islet" />
		<tag k="ssr:stedsnr" v="251923" />
	</node>
	<node lat="60.975124997455005" lon="4.5889444378526" id="-27049">
		<tag k="name" v="Breidflua" />
		<tag k="natural" v="shoal" />
		<tag k="place" v="locality" />
		<tag k="ssr:stedsnr" v="251987" />
	</node>
	<node lat="61.1924833334802" lon="4.8284861099067395" id="-27052">
		<tag k="fixme" v="consider seamark:type=rock or natural=shoal" />
		<tag k="name" v="Ragnhildskjera" />
		<tag k="place" v="islet" />
		<tag k="ssr:stedsnr" v="252090" />
	</node>
	<node lat="61.19556944681012" lon="4.767211103923313" id="-27053">
		<tag k="name" v="Steinsøyna" />
		<tag k="place" v="islet" />
		<tag k="ssr:stedsnr" v="252091" />
	</node>
	<node lat="61.194463892578476" lon="4.780736117241318" id="-27054">
		<tag k="fixme" v="consider seamark:type=rock or natural=shoal" />
		<tag k="name" v="Kvernhusskjera" />
		<tag k="place" v="islet" />
		<tag k="ssr:stedsnr" v="252092" />
	</node>
	<node lat="61.207380556449294" lon="4.928863883172912" id="-27055">
		<tag k="name" v="Bjørnholmen" />
		<tag k="place" v="islet" />
		<tag k="ssr:stedsnr" v="252095" />
	</node>
	<node lat="61.17577500472424" lon="4.996038895765666" id="-27057">
		<tag k="name" v="Mjeltevika" />
		<tag k="natural" v="bay" />
		<tag k="ssr:stedsnr" v="252040" />
	</node>
	<node lat="61.178350002478695" lon="4.945777783401904" id="-27059">
		<tag k="name" v="Ruskeneset" />
		<tag k="natural" v="cape" />
		<tag k="ssr:stedsnr" v="252052" />
	</node>
	<node lat="61.179941666986714" lon="4.85446667335815" id="-27061">
		<tag k="name" v="Kråkøyklubben" />
		<tag k="natural" v="cape" />
		<tag k="ssr:stedsnr" v="252072" />
	</node>
	<node lat="61.17160833613309" lon="4.776091660388805" id="-27062">
		<tag k="bay" v="fjord" />
		<tag k="name" v="Lågøyfjorden" />
		<tag k="natural" v="bay" />
		<tag k="ssr:stedsnr" v="252076" />
	</node>
	<node lat="61.133893802178946" lon="4.782682378994991" id="-27069">
		<tag k="name" v="Lågøyna" />
		<tag k="place" v="island" />
		<tag k="ssr:stedsnr" v="252186" />
	</node>
	<node lat="61.14746111448507" lon="4.895730557769947" id="-27072">
		<tag k="name" v="Vauleholmen" />
		<tag k="place" v="islet" />
		<tag k="ssr:stedsnr" v="252191" />
	</node>
	<node lat="61.14046665039788" lon="4.784459077655675" id="-27074">
		<tag k="alt_name" v="Lågøyvågen" />
		<tag k="name" v="Lågøyhamn" />
		<tag k="natural" v="bay" />
		<tag k="ssr:stedsnr" v="252175" />
	</node>
	<node lat="61.13374722415377" lon="4.761127773394552" id="-27075">
		<tag k="name" v="Ekholmen" />
		<tag k="place" v="islet" />
		<tag k="ssr:stedsnr" v="252177" />
	</node>
	<node lat="61.1365916645221" lon="4.770750003762557" id="-27076">
		<tag k="name" v="Sandholmen" />
		<tag k="place" v="islet" />
		<tag k="ssr:stedsnr" v="252178" />
	</node>
	<node lat="61.14293055877839" lon="4.798694440903773" id="-27078">
		<tag k="name" v="Hågøyneset" />
		<tag k="natural" v="cape" />
		<tag k="ssr:stedsnr" v="252228" />
	</node>
	<node lat="61.141974996612554" lon="4.778083342260017" id="-27079">
		<tag k="alt_name" v="Stolane" />
		<tag k="name" v="Lågøystolane" />
		<tag k="natural" v="cape" />
		<tag k="ssr:stedsnr" v="252229" />
	</node>
	<node lat="61.06631666687184" lon="4.7204666672482185" id="-27080">
		<tag k="name" v="Brattholmen" />
		<tag k="place" v="islet" />
		<tag k="ssr:stedsnr" v="252285" />
	</node>
	<node lat="61.059044446354356" lon="4.938852772604272" id="-27081">
		<tag k="name" v="Martevika" />
		<tag k="natural" v="bay" />
		<tag k="ssr:stedsnr" v="252244" />
	</node>
	<node lat="61.05665555252379" lon="4.936505556478901" id="-27082">
		<tag k="name" v="Buskeneset" />
		<tag k="natural" v="cape" />
		<tag k="ssr:stedsnr" v="252248" />
	</node>
	<node lat="61.0627277756455" lon="4.882763889475574" id="-27083">
		<tag k="name" v="Nesøyna" />
		<tag k="place" v="island" />
		<tag k="ssr:stedsnr" v="252257" />
	</node>
	<node lat="61.074586108475216" lon="4.7545583340078545" id="-27084">
		<tag k="name" v="Langholmen" />
		<tag k="place" v="islet" />
		<tag k="ssr:stedsnr" v="252268" />
	</node>
	<node lat="61.07501389355932" lon="4.94610278362456" id="-27085">
		<tag k="alt_name" v="Hittevika" />
		<tag k="name" v="Kyravika" />
		<tag k="natural" v="bay" />
		<tag k="ssr:stedsnr" v="252274" />
	</node>
	<node lat="61.09363055758609" lon="4.797352778715384" id="-27087">
		<tag k="alt_name" v="Børøyna" />
		<tag k="name" v="Bårdøyna" />
		<tag k="place" v="islet" />
		<tag k="ssr:stedsnr" v="252332" />
	</node>
	<node lat="61.08759722663347" lon="4.752311108006523" id="-27089">
		<tag k="name" v="Hellelivika" />
		<tag k="natural" v="bay" />
		<tag k="ssr:stedsnr" v="252335" />
	</node>
	<node lat="61.10841667014436" lon="5.021605549217762" id="-27090">
		<tag k="name" v="Djupvikneset" />
		<tag k="natural" v="cape" />
		<tag k="ssr:stedsnr" v="252338" />
	</node>
	<node lat="61.09431388835719" lon="4.731238888318337" id="-27091">
		<tag k="name" v="Tangenesosen" />
		<tag k="natural" v="strait" />
		<tag k="ssr:stedsnr" v="252339" />
	</node>
	<node lat="61.10033611086749" lon="5.014563886658943" id="-27093">
		<tag k="name" v="Båtevika" />
		<tag k="natural" v="bay" />
		<tag k="ssr:stedsnr" v="252291" />
	</node>
	<node lat="61.086772221754686" lon="4.907986118446054" id="-27095">
		<tag k="alt_name" v="Helleholmen, nordre" />
		<tag k="name" v="Nordre Helleholmen" />
		<tag k="place" v="islet" />
		<tag k="ssr:stedsnr" v="252309" />
	</node>
	<node lat="61.07807222683672" lon="4.73112778517771" id="-27097">
		<tag k="name" v="Marikollvika" />
		<tag k="natural" v="bay" />
		<tag k="ssr:stedsnr" v="252315" />
	</node>
	<node lat="61.11608611194908" lon="5.059622225537072" id="-27099">
		<tag k="name" v="Trondneset" />
		<tag k="natural" v="cape" />
		<tag k="ssr:stedsnr" v="252325" />
	</node>
	<node lat="61.116091666976075" lon="5.078405561394926" id="-27100">
		<tag k="name" v="Einehaugvika" />
		<tag k="natural" v="bay" />
		<tag k="ssr:stedsnr" v="252328" />
	</node>
	<node lat="60.90961389125615" lon="4.567602774566946" id="-27103">
		<tag k="name" v="Hamarskallen" />
		<tag k="natural" v="shoal" />
		<tag k="place" v="locality" />
		<tag k="ssr:stedsnr" v="128660" />
	</node>
	<node lat="61.015016666661104" lon="4.744747217028764" id="-27105">
		<tag k="name" v="Nårøyna" />
		<tag k="place" v="island" />
		<tag k="ssr:stedsnr" v="252421" />
	</node>
	<node lat="61.03850000084348" lon="4.8797944395348" id="-27108">
		<tag k="fixme" v="multiple name tags, choose one and add the other to alt_name" />
		<tag k="name" v="Ytre Humlevågneset;Anderssvar" />
		<tag k="natural" v="cape" />
		<tag k="ssr:stedsnr" v="252443" />
	</node>
	<node lat="61.03440555153768" lon="4.76371945124214" id="-27109">
		<tag k="name" v="Feiarneset" />
		<tag k="natural" v="cape" />
		<tag k="ssr:stedsnr" v="252448" />
	</node>
	<node lat="61.13505000383742" lon="5.131380556477414" id="-27110">
		<tag k="bay" v="fjord" />
		<tag k="name" v="Losnosen" />
		<tag k="natural" v="bay" />
		<tag k="ssr:stedsnr" v="252464" />
	</node>
	<node lat="61.12585555600004" lon="5.098922213777906" id="-27111">
		<tag k="name" v="Tjøreneset" />
		<tag k="natural" v="cape" />
		<tag k="ssr:stedsnr" v="252465" />
	</node>
	<node lat="61.15400555233946" lon="4.9394916655853685" id="-27117">
		<tag k="alt_name" v="Geitesteinvika" />
		<tag k="name" v="Geitevika" />
		<tag k="natural" v="bay" />
		<tag k="ssr:stedsnr" v="130208" />
	</node>
	<node lat="61.05398610935292" lon="4.736544452982078" id="-27118">
		<tag k="name" v="Gjerdneset" />
		<tag k="natural" v="cape" />
		<tag k="ssr:stedsnr" v="130231" />
	</node>
	<node lat="61.01775277616983" lon="4.781711103782189" id="-27121">
		<tag k="name" v="Tausholmen" />
		<tag k="place" v="islet" />
		<tag k="ssr:stedsnr" v="130403" />
	</node>
	<node lat="61.04278888676914" lon="4.72703888190136" id="-27123">
		<tag k="name" v="Silen" />
		<tag k="place" v="islet" />
		<tag k="ssr:stedsnr" v="130429" />
	</node>
	<node lat="61.06265278139522" lon="4.655691658741557" id="-27125">
		<tag k="alt_name" v="Storevika" />
		<tag k="name" v="Storvika" />
		<tag k="natural" v="bay" />
		<tag k="ssr:stedsnr" v="130726" />
	</node>
	<node lat="61.17427221926845" lon="4.683905555186113" id="-27127">
		<tag k="fixme" v="consider seamark:type=rock or natural=shoal" />
		<tag k="name" v="Antonskjeret" />
		<tag k="place" v="islet" />
		<tag k="ssr:stedsnr" v="130791" />
	</node>
	<node lat="61.18223966761588" lon="4.694357263617087" id="-27128">
		<tag k="alt_name" v="Leiaskjeret" />
		<tag k="fixme" v="consider seamark:type=rock or natural=shoal" />
		<tag k="name" v="Leiaskjera" />
		<tag k="place" v="islet" />
		<tag k="ssr:stedsnr" v="130793" />
	</node>
	<node lat="61.17341667114075" lon="4.651958332832667" id="-27129">
		<tag k="alt_name" v="Indreskjeringelasset;Skjerdingslasset" />
		<tag k="fixme" v="consider seamark:type=rock or natural=shoal" />
		<tag k="name" v="Skjerdingelasset" />
		<tag k="place" v="islet" />
		<tag k="ssr:stedsnr" v="130795" />
	</node>
	<node lat="61.21179166630093" lon="4.764694445244099" id="-27130">
		<tag k="alt_name" v="Ræsevågen, nordre" />
		<tag k="name" v="Nordre Resevågen" />
		<tag k="natural" v="bay" />
		<tag k="ssr:stedsnr" v="130920" />
	</node>
	<node lat="61.21450555323699" lon="4.9060777746887885" id="-27131">
		<tag k="name" v="Luten" />
		<tag k="place" v="islet" />
		<tag k="ssr:stedsnr" v="130925" />
	</node>
	<node lat="61.18836388729098" lon="4.694788894594856" id="-27133">
		<tag k="name" v="Litleværklubben" />
		<tag k="place" v="islet" />
		<tag k="ssr:stedsnr" v="130805" />
	</node>
	<node lat="61.126427781022585" lon="4.594808337236159" id="-27134">
		<tag k="alt_name" v="Nordre Gardbåflua" />
		<tag k="name" v="Nordeflua" />
		<tag k="natural" v="shoal" />
		<tag k="place" v="locality" />
		<tag k="ssr:stedsnr" v="130811" />
	</node>
	<node lat="61.13250000399595" lon="4.570694448237093" id="-27135">
		<tag k="fixme" v="consider seamark:type=rock or natural=shoal" />
		<tag k="name" v="Tårnskjeret" />
		<tag k="place" v="islet" />
		<tag k="ssr:stedsnr" v="130812" />
	</node>
	<node lat="61.13445833767349" lon="4.714136115784894" id="-27136">
		<tag k="name" v="Svartholmane" />
		<tag k="place" v="islet" />
		<tag k="ssr:stedsnr" v="130815" />
	</node>
	<node lat="61.12902499847336" lon="4.681072223219118" id="-27137">
		<tag k="alt_name" v="Litleleieskjeret;Litle Leiskjeret" />
		<tag k="fixme" v="consider seamark:type=rock or natural=shoal" />
		<tag k="name" v="Litle Leiaskjeret" />
		<tag k="place" v="islet" />
		<tag k="ssr:stedsnr" v="130818" />
	</node>
	<node lat="61.118361107425216" lon="4.703291661194626" id="-27138">
		<tag k="name" v="Tjørnholmen" />
		<tag k="place" v="islet" />
		<tag k="ssr:stedsnr" v="130832" />
	</node>
	<node lat="61.21596944376513" lon="4.740288888165039" id="-27139">
		<tag k="name" v="Styrsvågen" />
		<tag k="natural" v="bay" />
		<tag k="ssr:stedsnr" v="130871" />
	</node>
	<node lat="61.21888055407067" lon="4.824130560480174" id="-27140">
		<tag k="name" v="Søre Selvika" />
		<tag k="natural" v="bay" />
		<tag k="ssr:stedsnr" v="130881" />
	</node>
	<node lat="61.221116667027616" lon="4.827544444116581" id="-27141">
		<tag k="name" v="Nordre Selvika" />
		<tag k="natural" v="bay" />
		<tag k="ssr:stedsnr" v="130884" />
	</node>
	<node lat="61.00158888757394" lon="4.662522231149999" id="-27142">
		<tag k="name" v="Husøyna" />
		<tag k="place" v="island" />
		<tag k="ssr:stedsnr" v="130977" />
	</node>
	<node lat="61.0969166705649" lon="4.690063879752828" id="-27144">
		<tag k="name" v="Stokkevika" />
		<tag k="natural" v="bay" />
		<tag k="ssr:stedsnr" v="252741" />
	</node>
	<node lat="61.03874722298386" lon="4.507152779294088" id="-27145">
		<tag k="name" v="Tussen" />
		<tag k="place" v="islet" />
		<tag k="ssr:stedsnr" v="252771" />
	</node>
	<node lat="61.13081944377759" lon="4.682947215182759" id="-27146">
		<tag k="fixme" v="consider seamark:type=rock or natural=shoal" />
		<tag k="name" v="Kvalen" />
		<tag k="place" v="islet" />
		<tag k="ssr:stedsnr" v="252826" />
	</node>
	<node lat="61.15147500454858" lon="4.66140277958978" id="-27147">
		<tag k="fixme" v="consider seamark:type=rock or natural=shoal" />
		<tag k="name" v="Steineskjera" />
		<tag k="place" v="islet" />
		<tag k="ssr:stedsnr" v="252835" />
	</node>
	<node lat="61.134422222644915" lon="4.68511388143898" id="-27148">
		<tag k="alt_name" v="Ytre og Nordre Sengskjeret;Nordre Sæingskjeret" />
		<tag k="fixme" v="consider seamark:type=rock or natural=shoal" />
		<tag k="name" v="Sædingsskjeret" />
		<tag k="place" v="islet" />
		<tag k="ssr:stedsnr" v="252821" />
	</node>
	<node lat="61.13389722429333" lon="4.668411115766295" id="-27149">
		<tag k="name" v="Grunneflua" />
		<tag k="natural" v="shoal" />
		<tag k="place" v="locality" />
		<tag k="ssr:stedsnr" v="252823" />
	</node>
	<node lat="61.22521111027672" lon="4.864594445118909" id="-27150">
		<tag k="name" v="Gavletaren" />
		<tag k="natural" v="shoal" />
		<tag k="place" v="locality" />
		<tag k="ssr:stedsnr" v="252856" />
	</node>
	<node lat="61.00195833341647" lon="4.566274996790835" id="-27151">
		<tag k="fixme" v="consider seamark:type=rock or natural=shoal" />
		<tag k="name" v="Ringebåskjeret" />
		<tag k="place" v="islet" />
		<tag k="ssr:stedsnr" v="252942" />
	</node>
	<node lat="61.216663893146425" lon="4.876736113795274" id="-27152">
		<tag k="name" v="Årsholmen" />
		<tag k="place" v="islet" />
		<tag k="ssr:stedsnr" v="252898" />
	</node>
	<node lat="61.233186112245974" lon="4.752561112544917" id="-27153">
		<tag k="alt_name" v="Svartoksen, store;Svartoksen" />
		<tag k="fixme" v="consider seamark:type=rock or natural=shoal" />
		<tag k="name" v="Store Svartoksen" />
		<tag k="place" v="islet" />
		<tag k="ssr:stedsnr" v="252984" />
	</node>
	<node lat="61.003608336536196" lon="4.591897225659477" id="-27154">
		<tag k="alt_name" v="Indre Hå  skjeret" />
		<tag k="fixme" v="consider seamark:type=rock or natural=shoal" />
		<tag k="name" v="Indre Håskjeret" />
		<tag k="place" v="islet" />
		<tag k="ssr:stedsnr" v="252949" />
	</node>
	<node lat="61.00678333627113" lon="4.602886101602705" id="-27155">
		<tag k="alt_name" v="Tongerøyna" />
		<tag k="name" v="Tangerøyna" />
		<tag k="place" v="islet" />
		<tag k="ssr:stedsnr" v="252952" />
	</node>
	<node lat="61.009405553216645" lon="4.656777782374478" id="-27156">
		<tag k="alt_name" v="Varøyna" />
		<tag k="name" v="Vardøyna" />
		<tag k="place" v="islet" />
		<tag k="ssr:stedsnr" v="252957" />
	</node>
	<node lat="61.00179166896855" lon="4.69359445095782" id="-27157">
		<tag k="alt_name" v="Breiddalsneset" />
		<tag k="name" v="Breidalsneset" />
		<tag k="natural" v="cape" />
		<tag k="ssr:stedsnr" v="252966" />
	</node>
	<node lat="61.00152777713736" lon="4.671261116222157" id="-27159">
		<tag k="name" v="Langeneset" />
		<tag k="natural" v="cape" />
		<tag k="ssr:stedsnr" v="252974" />
	</node>
	<node lat="61.056973932086414" lon="4.731363434797639" id="-27160">
		<tag k="name" v="Djupedalsflua" />
		<tag k="natural" v="shoal" />
		<tag k="place" v="locality" />
		<tag k="ssr:stedsnr" v="145135" />
	</node>
	<node lat="60.998694448882304" lon="4.599377777395147" id="-27161">
		<tag k="name" v="Slåttøyna" />
		<tag k="place" v="islet" />
		<tag k="ssr:stedsnr" v="146092" />
	</node>
	<node lat="61.03686944603538" lon="4.664694439280685" id="-27162">
		<tag k="name" v="Sørevågen" />
		<tag k="natural" v="bay" />
		<tag k="ssr:stedsnr" v="146165" />
	</node>
	<node lat="61.010133333972135" lon="4.5371250038985265" id="-27163">
		<tag k="name" v="Gurinakken" />
		<tag k="natural" v="shoal" />
		<tag k="place" v="locality" />
		<tag k="ssr:stedsnr" v="146176" />
	</node>
	<node lat="61.15506944507067" lon="4.656505550651988" id="-27165">
		<tag k="name" v="Kråkesteinen" />
		<tag k="place" v="island" />
		<tag k="ssr:stedsnr" v="146877" />
	</node>
	<node lat="61.13790278172469" lon="4.791766659447721" id="-27168">
		<tag k="name" v="Kyrkjeberget" />
		<tag k="natural" v="cape" />
		<tag k="ssr:stedsnr" v="164284" />
	</node>
	<node lat="61.004233334764514" lon="4.689547213883715" id="-27171">
		<tag k="name" v="Breidalsvika" />
		<tag k="natural" v="bay" />
		<tag k="ssr:stedsnr" v="165096" />
	</node>
	<node lat="61.05549721915809" lon="4.923072229559932" id="-27174">
		<tag k="name" v="Kalvevika" />
		<tag k="natural" v="bay" />
		<tag k="ssr:stedsnr" v="165212" />
	</node>
	<node lat="60.98339444584132" lon="4.682663892207859" id="-27175">
		<tag k="name" v="Kjelsøyna" />
		<tag k="place" v="islet" />
		<tag k="ssr:stedsnr" v="165106" />
	</node>
	<node lat="61.06308055769189" lon="4.713219437395026" id="-27176">
		<tag k="name" v="Avløypeneset" />
		<tag k="natural" v="cape" />
		<tag k="ssr:stedsnr" v="165128" />
	</node>
	<node lat="61.06241110949033" lon="4.65168610790882" id="-27177">
		<tag k="name" v="Hellevika" />
		<tag k="natural" v="bay" />
		<tag k="ssr:stedsnr" v="165129" />
	</node>
	<node lat="61.00665555681494" lon="4.6612277745376085" id="-27178">
		<tag k="name" v="Klubbholmen" />
		<tag k="place" v="islet" />
		<tag k="ssr:stedsnr" v="165176" />
	</node>
	<node lat="61.18165833364044" lon="4.94226945062558" id="-27180">
		<tag k="name" v="Midholmen" />
		<tag k="place" v="islet" />
		<tag k="ssr:stedsnr" v="165272" />
	</node>
	<node lat="61.19903611448775" lon="4.866547215781044" id="-27181">
		<tag k="name" v="Vassøyvågen" />
		<tag k="natural" v="bay" />
		<tag k="ssr:stedsnr" v="165463" />
	</node>
	<node lat="61.20505093959409" lon="4.862054225421984" id="-27182">
		<tag k="name" v="Buskneset" />
		<tag k="natural" v="cape" />
		<tag k="ssr:stedsnr" v="165467" />
	</node>
	<node lat="61.199730557862544" lon="4.875097214666644" id="-27183">
		<tag k="name" v="Søre Steinevika" />
		<tag k="natural" v="bay" />
		<tag k="ssr:stedsnr" v="165472" />
	</node>
	<node lat="61.07332222370894" lon="4.795194440763419" id="-27188">
		<tag k="name" v="Indre Selvika" />
		<tag k="natural" v="bay" />
		<tag k="ssr:stedsnr" v="165597" />
	</node>
	<node lat="61.08831944490986" lon="4.794227778991648" id="-27190">
		<tag k="name" v="Tobbevikholmen" />
		<tag k="place" v="islet" />
		<tag k="ssr:stedsnr" v="165817" />
	</node>
	<node lat="61.080336107328684" lon="4.87009443771272" id="-27191">
		<tag k="name" v="Ingebervika" />
		<tag k="natural" v="bay" />
		<tag k="ssr:stedsnr" v="165858" />
	</node>
	<node lat="61.13264999941975" lon="4.944866672285314" id="-27193">
		<tag k="alt_name" v="Eivika" />
		<tag k="loc_name" v="Eidvik" />
		<tag k="name" v="Eidvika" />
		<tag k="natural" v="bay" />
		<tag k="ssr:stedsnr" v="165784" />
	</node>
	<node lat="61.19340833148574" lon="4.757761104758741" id="-27194">
		<tag k="fixme" v="consider seamark:type=rock or natural=shoal" />
		<tag k="name" v="Skarvenakken" />
		<tag k="place" v="islet" />
		<tag k="ssr:stedsnr" v="166072" />
	</node>
	<node lat="61.19428055712508" lon="4.750452783601858" id="-27195">
		<tag k="name" v="Manneskjerholmen" />
		<tag k="place" v="islet" />
		<tag k="ssr:stedsnr" v="166073" />
	</node>
	<node lat="61.080472220810215" lon="4.951958324638593" id="-27202">
		<tag k="name" v="Årevika" />
		<tag k="natural" v="bay" />
		<tag k="ssr:stedsnr" v="166910" />
	</node>
	<node lat="61.108724995869935" lon="5.076441676043736" id="-27204">
		<tag k="name" v="Indre Torsholmen" />
		<tag k="place" v="islet" />
		<tag k="ssr:stedsnr" v="167060" />
	</node>
	<node lat="61.20143054688128" lon="4.788790102414743" id="-27205">
		<tag k="name" v="Skomakaren" />
		<tag k="place" v="islet" />
		<tag k="ssr:stedsnr" v="173103" />
	</node>
	<node lat="60.98352222574093" lon="4.607877770335201" id="-27206">
		<tag k="name" v="Ole Monsflua" />
		<tag k="natural" v="shoal" />
		<tag k="place" v="locality" />
		<tag k="ssr:stedsnr" v="189617" />
	</node>
	<node lat="61.140563887995484" lon="4.95566944406388" id="-27208">
		<tag k="name" v="Saksevika" />
		<tag k="natural" v="bay" />
		<tag k="ssr:stedsnr" v="191157" />
	</node>
	<node lat="61.15513611101181" lon="5.026805563541699" id="-27209">
		<tag k="alt_name" v="Selleskorvikane" />
		<tag k="name" v="Seljeskorvikane" />
		<tag k="natural" v="bay" />
		<tag k="ssr:stedsnr" v="191176" />
	</node>
	<node lat="61.14924721856605" lon="5.024941663067075" id="-27210">
		<tag k="name" v="Gåsevika" />
		<tag k="natural" v="bay" />
		<tag k="ssr:stedsnr" v="191177" />
	</node>
	<node lat="61.18172777595857" lon="4.940000000843265" id="-27213">
		<tag k="name" v="Ruskeholmen" />
		<tag k="place" v="islet" />
		<tag k="ssr:stedsnr" v="191054" />
	</node>
	<node lat="61.18426666433629" lon="4.966300001943715" id="-27214">
		<tag k="alt_name" v="Langeholmen" />
		<tag k="name" v="Langholmen" />
		<tag k="place" v="islet" />
		<tag k="ssr:stedsnr" v="191055" />
	</node>
	<node lat="61.18568611213449" lon="4.894308336541856" id="-27216">
		<tag k="name" v="Arneset" />
		<tag k="natural" v="cape" />
		<tag k="ssr:stedsnr" v="191061" />
	</node>
	<node lat="61.16017221976421" lon="5.010411112485814" id="-27217">
		<tag k="alt_name" v="Melundevika" />
		<tag k="name" v="Medlundevika" />
		<tag k="natural" v="bay" />
		<tag k="ssr:stedsnr" v="191204" />
	</node>
	<node lat="61.16447222566533" lon="5.023397226336184" id="-27218">
		<tag k="name" v="Seljeskorneset" />
		<tag k="natural" v="cape" />
		<tag k="ssr:stedsnr" v="191207" />
	</node>
	<node lat="61.0703500004894" lon="4.792333326280416" id="-27220">
		<tag k="bay" v="fjord" />
		<tag k="name" v="Bjørnefjorden" />
		<tag k="natural" v="bay" />
		<tag k="ssr:stedsnr" v="191252" />
	</node>
	<node lat="61.0388138920818" lon="4.7557333420028955" id="-27221">
		<tag k="fixme" v="consider seamark:type=rock or natural=shoal" />
		<tag k="name" v="Seiskjeret" />
		<tag k="place" v="islet" />
		<tag k="ssr:stedsnr" v="191472" />
	</node>
	<node lat="61.09344444583646" lon="4.709425002851248" id="-27222">
		<tag k="fixme" v="consider seamark:type=rock or natural=shoal" />
		<tag k="name" v="Grøneskjeret" />
		<tag k="place" v="islet" />
		<tag k="ssr:stedsnr" v="191710" />
	</node>
	<node lat="61.085877776560835" lon="4.70025833110232" id="-27223">
		<tag k="name" v="Lundøyna" />
		<tag k="place" v="island" />
		<tag k="ssr:stedsnr" v="191713" />
	</node>
	<node lat="61.049233329612996" lon="4.53419443754695" id="-27224">
		<tag k="alt_name" v="Kvannskjeret, s;Søre Kvanskjeret" />
		<tag k="fixme" v="consider seamark:type=rock or natural=shoal" />
		<tag k="name" v="Søre Kvannskjeret" />
		<tag k="place" v="islet" />
		<tag k="ssr:stedsnr" v="191723" />
	</node>
	<node lat="61.03796110717148" lon="4.5108250016012" id="-27225">
		<tag k="name" v="Utvær" />
		<tag k="place" v="island" />
		<tag k="ssr:stedsnr" v="191748" />
	</node>
	<node lat="61.05224444721786" lon="4.658566661018623" id="-27226">
		<tag k="name" v="Dammen" />
		<tag k="natural" v="bay" />
		<tag k="ssr:stedsnr" v="191753" />
	</node>
	<node lat="61.213758331434086" lon="4.801322223754364" id="-27228">
		<tag k="name" v="Oksebåsholmen" />
		<tag k="place" v="islet" />
		<tag k="ssr:stedsnr" v="191871" />
	</node>
	<node lat="61.21765833562879" lon="4.77087776933799" id="-27229">
		<tag k="alt_name" v="Tjørnholmen, nordre" />
		<tag k="name" v="Nordre Tjørnholmen" />
		<tag k="place" v="islet" />
		<tag k="ssr:stedsnr" v="191872" />
	</node>
	<node lat="61.2097472180785" lon="4.80763611062515" id="-27231">
		<tag k="alt_name" v="Drevøyna" />
		<tag k="name" v="Drivøyna" />
		<tag k="place" v="island" />
		<tag k="ssr:stedsnr" v="191900" />
	</node>
	<node lat="61.01854166537073" lon="4.5717388798424246" id="-27232">
		<tag k="alt_name" v="Nordre Damfluskjeret" />
		<tag k="fixme" v="consider seamark:type=rock or natural=shoal" />
		<tag k="name" v="Nordre Damfliskjeret" />
		<tag k="place" v="islet" />
		<tag k="ssr:stedsnr" v="191915" />
	</node>
	<node lat="61.02327222329599" lon="4.5247472161333375" id="-27233">
		<tag k="name" v="Dyroksen" />
		<tag k="place" v="islet" />
		<tag k="ssr:stedsnr" v="191916" />
	</node>
	<node lat="61.02731944271525" lon="4.648558326169898" id="-27235">
		<tag k="name" v="Stranda" />
		<tag k="natural" v="beach" />
		<tag k="ssr:stedsnr" v="191921" />
	</node>
	<node lat="61.02130278105757" lon="4.742997216952902" id="-27236">
		<tag k="name" v="Tverrlaupet" />
		<tag k="natural" v="strait" />
		<tag k="ssr:stedsnr" v="207144" />
	</node>
	<node lat="61.05835277696652" lon="4.532538897795508" id="-27237">
		<tag k="name" v="Flæene" />
		<tag k="natural" v="shoal" />
		<tag k="place" v="locality" />
		<tag k="ssr:stedsnr" v="207185" />
	</node>
	<node lat="61.0528722215831" lon="4.760158336961051" id="-27238">
		<tag k="name" v="Rånøyvågen" />
		<tag k="natural" v="bay" />
		<tag k="ssr:stedsnr" v="268932" />
	</node>
	<node lat="61.09739444352246" lon="4.670663880355794" id="-27239">
		<tag k="alt_name" v="Kuleflu" />
		<tag k="name" v="Kuleflua" />
		<tag k="natural" v="shoal" />
		<tag k="place" v="locality" />
		<tag k="ssr:stedsnr" v="209674" />
	</node>
	<node lat="61.110666668565614" lon="4.747336108174278" id="-27240">
		<tag k="fixme" v="consider seamark:type=rock or natural=shoal" />
		<tag k="name" v="Kariskjeret" />
		<tag k="place" v="islet" />
		<tag k="ssr:stedsnr" v="209679" />
	</node>
	<node lat="61.11223888452008" lon="4.787524995736885" id="-27243">
		<tag k="name" v="Storevika" />
		<tag k="natural" v="bay" />
		<tag k="ssr:stedsnr" v="225092" />
	</node>
	<node lat="61.08406111292992" lon="4.6939083390961525" id="-27244">
		<tag k="name" v="Husøyholmane" />
		<tag k="place" v="islet" />
		<tag k="ssr:stedsnr" v="225240" />
	</node>
	<node lat="61.05204167082313" lon="4.790447220328582" id="-27245">
		<tag k="name" v="Fureholmkulen" />
		<tag k="place" v="islet" />
		<tag k="ssr:stedsnr" v="225738" />
	</node>
	<node lat="61.06117222106787" lon="4.871830548176456" id="-27248">
		<tag k="name" v="Barlindneset" />
		<tag k="natural" v="cape" />
		<tag k="ssr:stedsnr" v="226237" />
	</node>
	<node lat="61.129869444822" lon="4.733569448909208" id="-27249">
		<tag k="fixme" v="consider seamark:type=rock or natural=shoal" />
		<tag k="name" v="Saueholmskjeret" />
		<tag k="place" v="islet" />
		<tag k="ssr:stedsnr" v="226297" />
	</node>
	<node lat="61.16104166644277" lon="4.8497527842246475" id="-27251">
		<tag k="name" v="Steinevika" />
		<tag k="natural" v="bay" />
		<tag k="ssr:stedsnr" v="226201" />
	</node>
	<node lat="61.07140278175004" lon="4.8304500064994595" id="-27253">
		<tag k="name" v="Kattholmen" />
		<tag k="place" v="islet" />
		<tag k="ssr:stedsnr" v="226695" />
	</node>
	<node lat="61.068936115144716" lon="4.860702783853833" id="-27254">
		<tag k="name" v="Sandvika" />
		<tag k="natural" v="bay" />
		<tag k="ssr:stedsnr" v="226700" />
	</node>
	<node lat="61.020292252621424" lon="4.740966212813993" id="-27255">
		<tag k="name" v="Nordre Nåresundet" />
		<tag k="natural" v="strait" />
		<tag k="ssr:stedsnr" v="226835" />
	</node>
	<node lat="61.02252499742728" lon="4.783022223719088" id="-27257">
		<tag k="name" v="Oddegytten" />
		<tag k="natural" v="bay" />
		<tag k="ssr:stedsnr" v="226732" />
	</node>
	<node lat="61.12339999560699" lon="4.9098972206857" id="-27260">
		<tag k="name" v="Hageholmen" />
		<tag k="old_name" v="Høgeholmen" />
		<tag k="place" v="islet" />
		<tag k="ssr:stedsnr" v="226881" />
	</node>
	<node lat="61.13772221818825" lon="4.897944438631438" id="-27261">
		<tag k="name" v="Slåttevikneset" />
		<tag k="natural" v="cape" />
		<tag k="ssr:stedsnr" v="226896" />
	</node>
	<node lat="61.09579166736202" lon="4.832202783718301" id="-27265">
		<tag k="alt_name" v="Skarveneset" />
		<tag k="name" v="Skarpeneset" />
		<tag k="natural" v="cape" />
		<tag k="ssr:stedsnr" v="449863" />
	</node>
	<node lat="61.09962221945883" lon="4.753297213375813" id="-27266">
		<tag k="name" v="Hegreneset" />
		<tag k="natural" v="cape" />
		<tag k="ssr:stedsnr" v="495348" />
	</node>
	<node lat="61.197275004236765" lon="4.687947223581741" id="-27268">
		<tag k="name" v="Stokkefluene" />
		<tag k="natural" v="shoal" />
		<tag k="place" v="locality" />
		<tag k="ssr:stedsnr" v="234102" />
	</node>
	<node lat="61.128211107458796" lon="4.817161117949712" id="-27269">
		<tag k="alt_name" v="Leirvika, nordre" />
		<tag k="name" v="Nordre Leirvika" />
		<tag k="natural" v="bay" />
		<tag k="ssr:stedsnr" v="234180" />
	</node>
	<node lat="61.144283332899235" lon="4.8911416711747515" id="-27271">
		<tag k="name" v="Vaulevågen" />
		<tag k="natural" v="bay" />
		<tag k="ssr:stedsnr" v="234402" />
	</node>
	<node lat="60.99078611456133" lon="4.59867778305172" id="-27272">
		<tag k="name" v="Lyngøyna" />
		<tag k="place" v="islet" />
		<tag k="ssr:stedsnr" v="450095" />
	</node>
	<node lat="60.98869444656129" lon="4.579013879617583" id="-27273">
		<tag k="fixme" v="consider seamark:type=rock or natural=shoal" />
		<tag k="name" v="Håskjeret" />
		<tag k="place" v="islet" />
		<tag k="ssr:stedsnr" v="450097" />
	</node>
	<node lat="61.03727777591466" lon="4.646155563228294" id="-27274">
		<tag k="name" v="Sørosen" />
		<tag k="natural" v="strait" />
		<tag k="ssr:stedsnr" v="450153" />
	</node>
	<node lat="61.0467602232288" lon="4.638925820332076" id="-27275">
		<tag k="name" v="Krukka" />
		<tag k="natural" v="shoal" />
		<tag k="place" v="locality" />
		<tag k="ssr:stedsnr" v="450159" />
	</node>
	<node lat="61.17711388935148" lon="4.682288882318778" id="-27276">
		<tag k="fixme" v="consider seamark:type=rock or natural=shoal" />
		<tag k="name" v="Kvalen" />
		<tag k="place" v="islet" />
		<tag k="ssr:stedsnr" v="235882" />
	</node>
	<node lat="61.03228889323729" lon="4.585463887919232" id="-27277">
		<tag k="alt_name" v="Sengskjera" />
		<tag k="fixme" v="consider seamark:type=rock or natural=shoal" />
		<tag k="name" v="Sædingsskjera" />
		<tag k="place" v="islet" />
		<tag k="ssr:stedsnr" v="494778" />
	</node>
	<node lat="61.06414999862547" lon="4.756905549140102" id="-27278">
		<tag k="name" v="Rånestrømmen" />
		<tag k="natural" v="strait" />
		<tag k="ssr:stedsnr" v="450932" />
	</node>
	<node lat="61.02481389040425" lon="4.535427771525762" id="-27279">
		<tag k="alt_name" v="Sylvskjera;Solvikskjera" />
		<tag k="fixme" v="consider seamark:type=rock or natural=shoal" />
		<tag k="name" v="Solveskjera" />
		<tag k="place" v="islet" />
		<tag k="ssr:stedsnr" v="252918" />
	</node>
	<node lat="61.02024166494112" lon="4.593738881464917" id="-27280">
		<tag k="alt_name" v="Gårsøyna" />
		<tag k="name" v="Gåsøyna" />
		<tag k="place" v="islet" />
		<tag k="ssr:stedsnr" v="252921" />
	</node>
	<node lat="61.01981111509388" lon="4.6677861077973475" id="-27281">
		<tag k="name" v="Straumspollen" />
		<tag k="natural" v="bay" />
		<tag k="ssr:stedsnr" v="252925" />
	</node>
	<node lat="60.9901222205625" lon="4.689886109194622" id="-27282">
		<tag k="alt_name" v="Ingebrigt - holmen" />
		<tag k="name" v="Ingebergholmen" />
		<tag k="place" v="islet" />
		<tag k="ssr:stedsnr" v="268107" />
	</node>
	<node lat="61.07578610751755" lon="4.824963889881971" id="-27283">
		<tag k="fixme" v="consider seamark:type=rock or natural=shoal" />
		<tag k="name" v="Skarveskjeret" />
		<tag k="old_name" v="Skarveskjert" />
		<tag k="place" v="islet" />
		<tag k="ssr:stedsnr" v="268866" />
	</node>
	<node lat="60.98886944380365" lon="4.68072777180656" id="-27288">
		<tag k="name" v="Plittholmen" />
		<tag k="place" v="islet" />
		<tag k="ssr:stedsnr" v="286105" />
	</node>
	<node lat="61.087994443450185" lon="4.684416669119867" id="-27289">
		<tag k="name" v="Øyasundvika" />
		<tag k="natural" v="bay" />
		<tag k="ssr:stedsnr" v="286230" />
	</node>
	<node lat="61.18720277656851" lon="4.692622218522694" id="-27290">
		<tag k="fixme" v="consider seamark:type=rock or natural=shoal" />
		<tag k="name" v="Rundeskjeret" />
		<tag k="place" v="islet" />
		<tag k="ssr:stedsnr" v="286430" />
	</node>
</osm>
