<?xml version="1.0" encoding="UTF-8"?>
<osm generator="osmapis" version="0.6">
	<node id="-648512" lat="61.1344555597" lon="4.93786111942">
		<tag k="layer" v="-1" />
		<tag k="name" v="Eilund I" />
		<tag k="ssr:stedsnr" v="590402" />
		<tag k="tunnel" v="yes" />
	</node>
	<node id="-649279" lat="61.0825416631" lon="4.69912777086">
		<tag k="bridge" v="yes" />
		<tag k="layer" v="1" />
		<tag k="name" v="Lundestraumen" />
		<tag k="ssr:stedsnr" v="107422" />
	</node>
	<node id="-649278" lat="61.0169222181" lon="4.74206666639">
		<tag k="amenity" v="ferry_terminal" />
		<tag k="name" v="Nåra ferjekai" />
		<tag k="ssr:stedsnr" v="107421" />
	</node>
	<node id="-647933" lat="61.0181194476" lon="4.70941665773">
		<tag k="bridge" v="yes" />
		<tag k="layer" v="1" />
		<tag k="name" v="Rørdalsfjord" />
		<tag k="ssr:stedsnr" v="289393" />
	</node>
	<node id="-648536" lat="61.0087916658" lon="4.67306666078">
		<tag k="bridge" v="yes" />
		<tag k="layer" v="1" />
		<tag k="name" v="Straumen" />
		<tag k="ssr:stedsnr" v="592425" />
	</node>
	<node id="-648798" lat="61.1291194476" lon="5.01898055269">
		<tag k="amenity" v="ferry_terminal" />
		<tag k="name" v="Krakhella ferjekai" />
		<tag k="ssr:stedsnr" v="774454" />
	</node>
	<node id="-649139" lat="61.0157277752" lon="4.74022221737">
		<tag k="bridge" v="yes" />
		<tag k="layer" v="1" />
		<tag k="name" v="Nårastraumen" />
		<tag k="ssr:stedsnr" v="46443" />
	</node>
	<node id="-648880" lat="61.1333888927" lon="4.93655555782">
		<tag k="layer" v="-1" />
		<tag k="name" v="Eilund II" />
		<tag k="ssr:stedsnr" v="833407" />
		<tag k="tunnel" v="yes" />
	</node>
	<node id="-648903" lat="61.1184361132" lon="5.09280833307">
		<tag k="amenity" v="ferry_terminal" />
		<tag k="name" v="Losna ferjekai" />
		<tag k="ssr:stedsnr" v="835453" />
	</node>
	<node id="-648038" lat="61.0635444482" lon="4.75748333562">
		<tag k="bridge" v="yes" />
		<tag k="layer" v="1" />
		<tag k="name" v="Dalesund" />
		<tag k="ssr:stedsnr" v="289416" />
	</node>
</osm>
