<?xml version="1.0" encoding="UTF-8"?>
<osm generator="osmapis" version="0.6">
	<node id="-645575" lat="61.0767944419" lon="4.85538611071">
		<tag k="alt_name" v="Ormemyrane" />
		<tag k="name" v="Ormemyra" />
		<tag k="natural" v="wetland" />
		<tag k="ssr:stedsnr" v="650708" />
	</node>
	<node id="-645883" lat="61.0334055568" lon="4.77287221564">
		<tag k="name" v="Langemyra" />
		<tag k="natural" v="wetland" />
		<tag k="ssr:stedsnr" v="833769" />
	</node>
	<node id="-645881" lat="61.13130278" lon="4.91261944347">
		<tag k="name" v="Villeskogen" />
		<tag k="place" v="locality" />
		<tag k="ssr:stedsnr" v="833873" />
	</node>
	<node id="-646100" lat="61.0715694472" lon="4.78240832717">
		<tag k="name" v="Krokeløkjene" />
		<tag k="natural" v="wetland" />
		<tag k="ssr:stedsnr" v="44624" />
	</node>
	<node id="-644592" lat="61.0659777793" lon="4.74593888632">
		<tag k="name" v="Kyrkjeurane" />
		<tag k="natural" v="scree" />
		<tag k="ssr:stedsnr" v="226175" />
	</node>
	<node id="-644847" lat="61.0597361144" lon="4.8841611046">
		<tag k="name" v="Rotemyrvatnet" />
		<tag k="natural" v="wetland" />
		<tag k="ssr:stedsnr" v="165208" />
	</node>
	<node id="-644583" lat="61.1436083316" lon="4.91469999698">
		<tag k="name" v="Grønemyra" />
		<tag k="natural" v="wetland" />
		<tag k="ssr:stedsnr" v="225842" />
	</node>
	<node id="-645862" lat="61.0916805569" lon="4.8928416627">
		<tag k="name" v="Flænene" />
		<tag k="place" v="locality" />
		<tag k="ssr:stedsnr" v="833209" />
	</node>
	<node id="-644581" lat="61.0485277754" lon="4.77198333103">
		<tag k="name" v="Høljemyra" />
		<tag k="natural" v="wetland" />
		<tag k="ssr:stedsnr" v="225739" />
	</node>
	<node id="-646116" lat="61.170186111" lon="4.97058611304">
		<tag k="name" v="Dikemyra" />
		<tag k="natural" v="wetland" />
		<tag k="ssr:stedsnr" v="44997" />
	</node>
	<node id="-645345" lat="61.1886444463" lon="4.89273332556">
		<tag k="historic" v="shieling" />
		<tag k="name" v="Stølen" />
		<tag k="place" v="locality" />
		<tag k="ssr:stedsnr" v="659096" />
	</node>
	<node id="-644571" lat="61.011930556" lon="4.67935834055">
		<tag k="name" v="Lona" />
		<tag k="natural" v="wetland" />
		<tag k="ssr:stedsnr" v="225002" />
	</node>
	<node id="-645079" lat="61.0743305545" lon="4.81603333972">
		<tag k="name" v="Storemyra" />
		<tag k="natural" v="wetland" />
		<tag k="ssr:stedsnr" v="469873" />
	</node>
	<node id="-646101" lat="61.1217888847" lon="4.96469166466">
		<tag k="name" v="Blautemyrane" />
		<tag k="natural" v="wetland" />
		<tag k="ssr:stedsnr" v="44629" />
	</node>
	<node id="-646356" lat="61.0592361068" lon="4.84891944332">
		<tag k="name" v="Røyrvassmyra" />
		<tag k="natural" v="wetland" />
		<tag k="ssr:stedsnr" v="165692" />
	</node>
	<node id="-644943" lat="61.0915083317" lon="4.78990833815">
		<tag k="name" v="Langemyra" />
		<tag k="natural" v="wetland" />
		<tag k="ssr:stedsnr" v="191325" />
	</node>
	<node id="-646221" lat="61.1292388925" lon="4.77438887969">
		<tag k="name" v="Lambhollona" />
		<tag k="place" v="locality" />
		<tag k="ssr:stedsnr" v="105157" />
	</node>
	<node id="-646219" lat="61.1368333314" lon="4.85061943916">
		<tag k="name" v="Krabbemyrane" />
		<tag k="natural" v="wetland" />
		<tag k="ssr:stedsnr" v="105053" />
	</node>
	<node id="-646217" lat="61.1574138898" lon="5.05810555402">
		<tag k="name" v="Furenesmyrane" />
		<tag k="natural" v="wetland" />
		<tag k="ssr:stedsnr" v="105027" />
	</node>
	<node id="-646216" lat="61.1084972197" lon="4.83454166393">
		<tag k="name" v="Rotemyra" />
		<tag k="natural" v="wetland" />
		<tag k="ssr:stedsnr" v="105007" />
	</node>
	<node id="-645703" lat="61.0654500006" lon="4.78948611293">
		<tag k="name" v="Klubbemyra" />
		<tag k="natural" v="wetland" />
		<tag k="ssr:stedsnr" v="711624" />
	</node>
	<node id="-646085" lat="61.0753166681" lon="4.87800833215">
		<tag k="name" v="Altersmyra" />
		<tag k="natural" v="wetland" />
		<tag k="ssr:stedsnr" v="44229" />
	</node>
	<node id="-645060" lat="61.1465055538" lon="4.82934167521">
		<tag k="name" v="Skitnemyra" />
		<tag k="natural" v="wetland" />
		<tag k="ssr:stedsnr" v="469185" />
	</node>
	<node id="-646080" lat="61.0573666634" lon="4.73899721781">
		<tag k="name" v="Skadmyra" />
		<tag k="natural" v="wetland" />
		<tag k="ssr:stedsnr" v="44169" />
	</node>
	<node id="-645050" lat="61.1175833309" lon="4.7871416682">
		<tag k="name" v="Færøyura" />
		<tag k="natural" v="scree" />
		<tag k="ssr:stedsnr" v="468927" />
	</node>
	<node id="-646201" lat="61.0574888848" lon="4.70516110737">
		<tag k="name" v="Kloppemyrane" />
		<tag k="natural" v="wetland" />
		<tag k="ssr:stedsnr" v="104147" />
	</node>
	<node id="-646200" lat="61.0236277821" lon="4.65672777829">
		<tag k="name" v="Sveene" />
		<tag k="natural" v="wetland" />
		<tag k="ssr:stedsnr" v="104060" />
	</node>
	<node id="-644681" lat="61.1655166709" lon="4.91042777871">
		<tag k="name" v="Storemyra" />
		<tag k="natural" v="wetland" />
		<tag k="ssr:stedsnr" v="70024" />
	</node>
	<node id="-644914" lat="61.125383335" lon="4.9888777794">
		<tag k="name" v="Hyljemyrane" />
		<tag k="natural" v="wetland" />
		<tag k="ssr:stedsnr" v="288423" />
	</node>
	<node id="-644913" lat="61.1279666705" lon="5.04012222915">
		<tag k="name" v="Klevemyra" />
		<tag k="natural" v="wetland" />
		<tag k="ssr:stedsnr" v="288414" />
	</node>
	<node id="-644898" lat="61.067522224" lon="4.79972222852">
		<tag k="name" v="Hylkjemyrane" />
		<tag k="natural" v="wetland" />
		<tag k="ssr:stedsnr" v="287648" />
	</node>
	<node id="-644652" lat="61.1849416699" lon="4.92476944973">
		<tag k="name" v="Blautemyra" />
		<tag k="natural" v="wetland" />
		<tag k="ssr:stedsnr" v="43402" />
	</node>
	<node id="-646315" lat="61.0247305558" lon="4.66475833303">
		<tag k="name" v="Grindemyra" />
		<tag k="natural" v="wetland" />
		<tag k="ssr:stedsnr" v="130942" />
	</node>
	<node id="-644905" lat="61.0669472264" lon="4.84508888993">
		<tag k="name" v="Moldmyrane" />
		<tag k="natural" v="wetland" />
		<tag k="ssr:stedsnr" v="287744" />
	</node>
	<node id="-645666" lat="61.1109805598" lon="4.83522499696">
		<tag k="name" v="Stykke" />
		<tag k="place" v="locality" />
		<tag k="ssr:stedsnr" v="894009" />
	</node>
	<node id="-646213" lat="61.057525001" lon="4.74965832742">
		<tag k="name" v="Torkjellmyra" />
		<tag k="natural" v="wetland" />
		<tag k="ssr:stedsnr" v="104544" />
	</node>
	<node id="-644636" lat="61.0719083317" lon="4.81607221941">
		<tag k="name" v="Mjølkemyra" />
		<tag k="natural" v="wetland" />
		<tag k="ssr:stedsnr" v="226900" />
	</node>
	<node id="-644635" lat="61.0717638889" lon="4.82078333056">
		<tag k="name" v="Kongssteinen" />
		<tag k="natural" v="stone" />
		<tag k="ssr:stedsnr" v="226899" />
	</node>
	<node id="-645528" lat="61.1568055592" lon="4.93121944548">
		<tag k="name" v="Tuemyra" />
		<tag k="natural" v="wetland" />
		<tag k="ssr:stedsnr" v="712941" />
	</node>
	<node id="-644804" lat="61.0089972193" lon="4.68473611694">
		<tag k="name" v="Bleikemyra" />
		<tag k="natural" v="wetland" />
		<tag k="ssr:stedsnr" v="104105" />
	</node>
	<node id="-645782" lat="61.0256638904" lon="4.77529444939">
		<tag k="name" v="Andreasmyra" />
		<tag k="natural" v="wetland" />
		<tag k="ssr:stedsnr" v="772698" />
	</node>
	<node id="-645140" lat="61.0271083323" lon="4.69986666215">
		<tag k="name" v="Skinnstømyrane" />
		<tag k="natural" v="wetland" />
		<tag k="ssr:stedsnr" v="346860" />
	</node>
	<node id="-645651" lat="61.1929611094" lon="4.93283332669">
		<tag k="name" v="Vidjemyrane" />
		<tag k="natural" v="wetland" />
		<tag k="ssr:stedsnr" v="893383" />
	</node>
	<node id="-645136" lat="61.1993666696" lon="4.90803332396">
		<tag k="name" v="Oksehaugmyra" />
		<tag k="natural" v="wetland" />
		<tag k="ssr:stedsnr" v="346413" />
	</node>
	<node id="-645133" lat="61.0217611105" lon="4.68677500643">
		<tag k="name" v="Klovsteinen" />
		<tag k="natural" v="stone" />
		<tag k="ssr:stedsnr" v="346009" />
	</node>
	<node id="-645506" lat="61.1537555557" lon="4.86821388517">
		<tag k="name" v="Bergemyra" />
		<tag k="natural" v="wetland" />
		<tag k="ssr:stedsnr" v="711938" />
	</node>
	<node id="-645001" lat="61.1344277794" lon="4.84072500321">
		<tag k="name" v="Grønene" />
		<tag k="place" v="locality" />
		<tag k="ssr:stedsnr" v="287069" />
	</node>
	<node id="-645639" lat="61.0706388906" lon="4.70524999806">
		<tag k="name" v="Ramsvikmyrane" />
		<tag k="natural" v="wetland" />
		<tag k="ssr:stedsnr" v="893154" />
	</node>
	<node id="-645638" lat="61.0744583369" lon="4.69484166944">
		<tag k="name" v="Steingardsmyra" />
		<tag k="natural" v="wetland" />
		<tag k="ssr:stedsnr" v="893148" />
	</node>
	<node id="-645509" lat="61.1779583317" lon="4.90667499798">
		<tag k="name" v="Sandgotemyra" />
		<tag k="natural" v="wetland" />
		<tag k="ssr:stedsnr" v="590911" />
	</node>
	<node id="-645634" lat="61.0165888926" lon="4.67244443917">
		<tag k="name" v="Rotemyra" />
		<tag k="natural" v="wetland" />
		<tag k="ssr:stedsnr" v="893062" />
	</node>
</osm>
