<?xml version="1.0" encoding="UTF-8"?>
<osm version="0.6" generator="osmapis">
	<node lat="61.05901111232582" lon="4.825263894976861" id="-31807">
		<tag k="alt_name" v="Leirvåg" />
		<tag k="name" v="Leirvågen" />
		<tag k="place" v="farm" />
		<tag k="ssr:stedsnr" v="9240" />
	</node>
	<node lat="61.06290782847418" lon="4.754817635887146" id="-31876">
		<tag k="alt_name" v="Ravnøy" />
		<tag k="fixme" v="consider place=hamlet" />
		<tag k="name" v="Rånøyna" />
		<tag k="place" v="farm" />
		<tag k="ssr:stedsnr" v="70273" />
	</node>
	<node lat="60.99533655297666" lon="4.706510423986609" id="-31931">
		<tag k="fixme" v="consider place=hamlet" />
		<tag k="name" v="Kverhella" />
		<tag k="place" v="farm" />
		<tag k="ssr:stedsnr" v="249651" />
	</node>
	<node lat="61.088502330448726" lon="4.88142255051459" id="-31935">
		<tag k="fixme" v="consider place=hamlet" />
		<tag k="name" v="Pollen" />
		<tag k="place" v="farm" />
		<tag k="ssr:stedsnr" v="250532" />
	</node>
	<node lat="61.17125833309142" lon="5.001433325464042" id="-31941">
		<tag k="alt_name" v="Storvik" />
		<tag k="name" v="Storevika" />
		<tag k="place" v="farm" />
		<tag k="ssr:stedsnr" v="251018" />
	</node>
	<node lat="61.175377776218824" lon="4.978161104857919" id="-31959">
		<tag k="alt_name" v="Elvheim" />
		<tag k="name" v="Elva" />
		<tag k="place" v="farm" />
		<tag k="ssr:stedsnr" v="252036" />
	</node>
	<node lat="61.188122218640885" lon="4.946755548959604" id="-31963">
		<tag k="name" v="Nordheim" />
		<tag k="place" v="farm" />
		<tag k="ssr:stedsnr" v="252065" />
	</node>
	<node lat="61.12178950785465" lon="4.912742182031396" id="-31967">
		<tag k="name" v="Hagen" />
		<tag k="place" v="farm" />
		<tag k="ssr:stedsnr" v="252107" />
	</node>
	<node lat="61.13697777957052" lon="4.914719444844496" id="-31971">
		<tag k="name" v="Hagelva" />
		<tag k="place" v="farm" />
		<tag k="ssr:stedsnr" v="252184" />
	</node>
	<node lat="61.09040277759121" lon="4.83683055577606" id="-31997">
		<tag k="alt_name" v="Lia, nordre" />
		<tag k="name" v="Nordre Lia" />
		<tag k="place" v="farm" />
		<tag k="ssr:stedsnr" v="252294" />
	</node>
	<node lat="61.15355047634354" lon="4.8142771859696065" id="-32017">
		<tag k="fixme" v="consider place=hamlet" />
		<tag k="name" v="Avløypet" />
		<tag k="place" v="farm" />
		<tag k="ssr:stedsnr" v="130013" />
	</node>
	<node lat="61.09859924189272" lon="4.70130646886395" id="-32027">
		<tag k="name" v="Storøyna" />
		<tag k="place" v="farm" />
		<tag k="ssr:stedsnr" v="130713" />
	</node>
	<node lat="61.17277500173131" lon="4.953827774513314" id="-32069">
		<tag k="alt_name" v="Elvanes" />
		<tag k="name" v="Elvang" />
		<tag k="place" v="farm" />
		<tag k="ssr:stedsnr" v="313036" />
	</node>
	<node lat="61.09783029540844" lon="4.78564938250397" id="-32114">
		<tag k="fixme" v="consider place=hamlet" />
		<tag k="name" v="Stokkevåg" />
		<tag k="place" v="farm" />
		<tag k="ssr:stedsnr" v="191314" />
	</node>
	<node lat="61.1387927387872" lon="4.78798104746" id="-32122">
		<tag k="fixme" v="consider place=hamlet" />
		<tag k="name" v="Lågøyna" />
		<tag k="place" v="farm" />
		<tag k="ssr:stedsnr" v="191211" />
	</node>
	<node lat="61.21464722222421" lon="4.901280551939176" id="-32155">
		<tag k="name" v="Austbø" />
		<tag k="place" v="farm" />
		<tag k="ssr:stedsnr" v="226487" />
	</node>
	<node lat="61.070174997669845" lon="4.841458325020888" id="-32187">
		<tag k="name" v="Storehaugen" />
		<tag k="place" v="quarter" />
		<tag k="ssr:stedsnr" v="282693" />
	</node>
	<node lat="61.21445555527875" lon="4.846111106316532" id="-32202">
		<tag k="name" v="Nesheim" />
		<tag k="place" v="farm" />
		<tag k="ssr:stedsnr" v="287486" />
	</node>
	<node lat="61.16515277385144" lon="4.88477499141261" id="-32224">
		<tag k="name" v="Midvik" />
		<tag k="place" v="isolated_dwelling" />
		<tag k="ssr:stedsnr" v="295391" />
	</node>
	<node lat="61.122863887020095" lon="4.732141675828135" id="-32225">
		<tag k="name" v="Støa" />
		<tag k="place" v="locality" />
		<tag k="ssr:stedsnr" v="296831" />
	</node>
	<node lat="61.06762222325971" lon="4.833091670896394" id="-32228">
		<tag k="name" v="Sildevika" />
		<tag k="place" v="quarter" />
		<tag k="ssr:stedsnr" v="464719" />
	</node>
	<node lat="61.07979722097746" lon="4.86114721914148" id="-32231">
		<tag k="alt_name" v="Hop, nordre" />
		<tag k="name" v="Nordre Hop" />
		<tag k="place" v="farm" />
		<tag k="ssr:stedsnr" v="312270" />
	</node>
	<node lat="61.132405557677295" lon="4.951824991145451" id="-32235">
		<tag k="name" v="Heimdal" />
		<tag k="place" v="farm" />
		<tag k="ssr:stedsnr" v="312176" />
	</node>
	<node lat="61.04438335956356" lon="4.659299104309238" id="-32239">
		<tag k="fixme" v="multiple name tags, choose one and add the other to alt_name; consider place=hamlet" />
		<tag k="name" v="Nordre Hjønnevåg;Nordrevågen" />
		<tag k="place" v="farm" />
		<tag k="ssr:stedsnr" v="312752" />
	</node>
	<node lat="61.19565555643618" lon="4.9549416709694425" id="-32276">
		<tag k="name" v="Enstad" />
		<tag k="place" v="farm" />
		<tag k="ssr:stedsnr" v="469427" />
	</node>
	<node lat="61.14486984351864" lon="4.910792067240608" id="-32358">
		<tag k="alt_name" v="Furrevik" />
		<tag k="fixme" v="consider place=hamlet" />
		<tag k="name" v="Furevika" />
		<tag k="place" v="farm" />
		<tag k="ssr:stedsnr" v="373196" />
	</node>
	<node lat="61.21444722041471" lon="4.846127771632194" id="-32410">
		<tag k="name" v="Nesheim" />
		<tag k="place" v="farm" />
		<tag k="ssr:stedsnr" v="409391" />
	</node>
	<node lat="61.18056667005063" lon="4.925644441136937" id="-32425">
		<tag k="name" v="Skogen" />
		<tag k="place" v="farm" />
		<tag k="ssr:stedsnr" v="434035" />
	</node>
	<node lat="61.142394943582566" lon="4.89226462629537" id="-32436">
		<tag k="alt_name" v="Fløypollen" />
		<tag k="fixme" v="consider place=hamlet" />
		<tag k="name" v="Vaulen" />
		<tag k="place" v="farm" />
		<tag k="ssr:stedsnr" v="434195" />
	</node>
	<node lat="61.17202499611618" lon="4.973861113742759" id="-32456">
		<tag k="alt_name" v="Sandvik" />
		<tag k="name" v="Sandvika" />
		<tag k="place" v="farm" />
		<tag k="ssr:stedsnr" v="494039" />
	</node>
	<node lat="61.11234033189265" lon="4.837969897020735" id="-32536">
		<tag k="fixme" v="consider place=hamlet" />
		<tag k="name" v="Råke" />
		<tag k="place" v="farm" />
		<tag k="ssr:stedsnr" v="677130" />
	</node>
	<node lat="61.126063886204534" lon="5.047002776654723" id="-32541">
		<tag k="alt_name" v="Losnedalen, øvre" />
		<tag k="name" v="Øvre Losnedalen" />
		<tag k="place" v="farm" />
		<tag k="ssr:stedsnr" v="477167" />
	</node>
	<node lat="61.10996878925545" lon="4.89555579224151" id="-32562">
		<tag k="fixme" v="consider place=hamlet" />
		<tag k="name" v="Nessa" />
		<tag k="place" v="farm" />
		<tag k="ssr:stedsnr" v="494119" />
	</node>
	<node lat="61.19608333449813" lon="4.958404079437266" id="-32572">
		<tag k="fixme" v="consider place=hamlet" />
		<tag k="name" v="Krakken" />
		<tag k="place" v="farm" />
		<tag k="ssr:stedsnr" v="494089" />
	</node>
	<node lat="61.03892947599187" lon="4.656159154892937" id="-32589">
		<tag k="fixme" v="consider place=hamlet" />
		<tag k="name" v="Øyjorda" />
		<tag k="old_name" v="Ørejord" />
		<tag k="place" v="farm" />
		<tag k="ssr:stedsnr" v="510164" />
	</node>
	<node lat="61.177305551440085" lon="4.869188893886196" id="-32602">
		<tag k="name" v="Nyheim" />
		<tag k="place" v="farm" />
		<tag k="ssr:stedsnr" v="529922" />
	</node>
	<node lat="61.1246361143478" lon="4.95056666603785" id="-32616">
		<tag k="name" v="Ytre Dumba" />
		<tag k="place" v="farm" />
		<tag k="ssr:stedsnr" v="530606" />
	</node>
	<node lat="61.04568888941169" lon="4.666066673915054" id="-32626">
		<tag k="alt_name" v="Gjønnevåg" />
		<tag k="fixme" v="consider place=hamlet" />
		<tag k="loc_name" v="Gjønnøyvåg" />
		<tag k="name" v="Hjønnevåg" />
		<tag k="place" v="village" />
		<tag k="ssr:stedsnr" v="753822" />
	</node>
	<node lat="61.169750000191335" lon="4.948280559996751" id="-32632">
		<tag k="alt_name" v="Urtegård" />
		<tag k="name" v="Urtegarden" />
		<tag k="place" v="farm" />
		<tag k="ssr:stedsnr" v="555026" />
	</node>
	<node lat="61.124531203269854" lon="4.954273533654452" id="-32637">
		<tag k="fixme" v="consider place=hamlet" />
		<tag k="name" v="Dumba" />
		<tag k="place" v="farm" />
		<tag k="ssr:stedsnr" v="555104" />
	</node>
	<node lat="61.07960833010572" lon="4.693147217744727" id="-32659">
		<tag k="alt_name" v="Ytrøygrend" />
		<tag k="name" v="Ytrøy" />
		<tag k="old_name" v="Ytrøyna" />
		<tag k="place" v="hamlet" />
		<tag k="ssr:stedsnr" v="693827" />
	</node>
	<node lat="61.06599166597719" lon="4.813211109560145" id="-32660">
		<tag k="name" v="Steinsund" />
		<tag k="place" v="hamlet" />
		<tag k="ssr:stedsnr" v="693830" />
	</node>
	<node lat="61.14746388877526" lon="4.954877774565046" id="-32714">
		<tag k="name" v="Engdal" />
		<tag k="place" v="farm" />
		<tag k="ssr:stedsnr" v="616208" />
	</node>
	<node lat="61.07016388621334" lon="4.8373027779948865" id="-32726">
		<tag k="name" v="Håneset" />
		<tag k="place" v="quarter" />
		<tag k="ssr:stedsnr" v="646707" />
	</node>
	<node lat="61.21188837227626" lon="4.899837867376449" id="-32777">
		<tag k="alt_name" v="Leknesund" />
		<tag k="fixme" v="consider place=hamlet" />
		<tag k="name" v="Leknessundet" />
		<tag k="place" v="farm" />
		<tag k="ssr:stedsnr" v="676931" />
	</node>
	<node lat="61.17281944198568" lon="4.896563890790134" id="-32779">
		<tag k="fixme" v="consider place=hamlet" />
		<tag k="name" v="Hersvikbygda" />
		<tag k="place" v="village" />
		<tag k="ssr:stedsnr" v="677045" />
	</node>
	<node lat="61.01890394236622" lon="4.738420266102972" id="-32787">
		<tag k="fixme" v="consider place=hamlet" />
		<tag k="name" v="Nåra" />
		<tag k="place" v="farm" />
		<tag k="ssr:stedsnr" v="677439" />
	</node>
	<node lat="61.00916944813951" lon="4.69626111802702" id="-32794">
		<tag k="name" v="Sanden" />
		<tag k="place" v="farm" />
		<tag k="ssr:stedsnr" v="677985" />
	</node>
	<node lat="61.1058959353905" lon="4.728352229572937" id="-32806">
		<tag k="fixme" v="consider place=hamlet" />
		<tag k="name" v="Indrøyna" />
		<tag k="place" v="farm" />
		<tag k="ssr:stedsnr" v="893250" />
	</node>
	<node lat="61.10921389344197" lon="4.8403027807341905" id="-32819">
		<tag k="name" v="Bakkane" />
		<tag k="place" v="farm" />
		<tag k="ssr:stedsnr" v="894144" />
	</node>
	<node lat="61.20634444084774" lon="4.863630553003862" id="-32829">
		<tag k="name" v="Busknes" />
		<tag k="place" v="farm" />
		<tag k="ssr:stedsnr" v="894525" />
	</node>
	<node lat="61.01088055896824" lon="4.6980055533323615" id="-32841">
		<tag k="name" v="Teinenes" />
		<tag k="place" v="farm" />
		<tag k="ssr:stedsnr" v="894789" />
	</node>
	<node lat="61.209077774429495" lon="4.860141669152987" id="-32871">
		<tag k="name" v="Sørheim" />
		<tag k="place" v="farm" />
		<tag k="ssr:stedsnr" v="711392" />
	</node>
	<node lat="61.121872223237574" lon="5.0476027820951685" id="-32893">
		<tag k="alt_name" v="Losnedalen, nedre" />
		<tag k="name" v="Nedre Losnedalen" />
		<tag k="place" v="farm" />
		<tag k="ssr:stedsnr" v="719143" />
	</node>
	<node lat="61.00073055447804" lon="4.720552786320406" id="-32895">
		<tag k="alt_name" v="Trovåg" />
		<tag k="fixme" v="consider place=hamlet" />
		<tag k="name" v="Trovågen" />
		<tag k="place" v="village" />
		<tag k="ssr:stedsnr" v="719910" />
	</node>
	<node lat="61.0717527774997" lon="4.748777786040832" id="-32980">
		<tag k="name" v="Lia" />
		<tag k="place" v="farm" />
		<tag k="ssr:stedsnr" v="798260" />
	</node>
	<node lat="61.16356666420866" lon="4.8426972139107045" id="-33032">
		<tag k="alt_name" v="Drengenes" />
		<tag k="name" v="Drengeneset" />
		<tag k="place" v="farm" />
		<tag k="ssr:stedsnr" v="919042" />
	</node>
	<node lat="61.15065832934447" lon="4.855019450759311" id="-33034">
		<tag k="fixme" v="multiple name tags, choose one and add the other to alt_name" />
		<tag k="name" v="Sluppen;Nordheim" />
		<tag k="place" v="farm" />
		<tag k="ssr:stedsnr" v="919212" />
	</node>
	<node lat="61.070177777982266" lon="4.747894437479537" id="-33042">
		<tag k="alt_name" v="Steindalsgjerdet" />
		<tag k="name" v="Gjerdet" />
		<tag k="place" v="farm" />
		<tag k="ssr:stedsnr" v="919279" />
	</node>
	<node lat="61.090654436700724" lon="4.9536420861391735" id="-33043">
		<tag k="fixme" v="consider place=hamlet" />
		<tag k="name" v="Kråkevåg" />
		<tag k="place" v="farm" />
		<tag k="ssr:stedsnr" v="919284" />
	</node>
	<node lat="61.1388999960161" lon="4.945413895859637" id="-33053">
		<tag k="name" v="Strandheim" />
		<tag k="place" v="farm" />
		<tag k="ssr:stedsnr" v="920177" />
	</node>
	<node lat="61.08840000386123" lon="4.83545832400892" id="-33085">
		<tag k="alt_name" v="Lia, s;Lia" />
		<tag k="name" v="Søre Lia" />
		<tag k="place" v="farm" />
		<tag k="ssr:stedsnr" v="841327" />
	</node>
	<node lat="61.12502159640123" lon="4.904355595877736" id="-33092">
		<tag k="fixme" v="consider place=hamlet" />
		<tag k="name" v="Gylta" />
		<tag k="place" v="farm" />
		<tag k="ssr:stedsnr" v="859118" />
	</node>
	<node lat="61.14660890263114" lon="4.859686513226154" id="-33100">
		<tag k="fixme" v="consider place=hamlet" />
		<tag k="name" v="Tverranger" />
		<tag k="place" v="farm" />
		<tag k="ssr:stedsnr" v="859207" />
	</node>
	<node lat="61.12333954716361" lon="5.093061395892128" id="-33107">
		<tag k="fixme" v="consider place=hamlet" />
		<tag k="name" v="Losnegard" />
		<tag k="place" v="farm" />
		<tag k="ssr:stedsnr" v="859473" />
	</node>
	<node lat="61.184630555156325" lon="4.981263892827614" id="-33165">
		<tag k="name" v="Vågen" />
		<tag k="place" v="farm" />
		<tag k="ssr:stedsnr" v="919067" />
	</node>
	<node lat="61.09513256856984" lon="4.9565016874961065" id="-33174">
		<tag k="alt_name" v="Kråkås" />
		<tag k="fixme" v="consider place=hamlet" />
		<tag k="name" v="Kråkåsen" />
		<tag k="place" v="farm" />
		<tag k="ssr:stedsnr" v="919302" />
	</node>
	<node lat="61.18021389152069" lon="4.879922220712512" id="-33187">
		<tag k="name" v="Mattevika" />
		<tag k="place" v="farm" />
		<tag k="ssr:stedsnr" v="920051" />
	</node>
	<node lat="61.00821187632814" lon="4.608420234928955" id="-33240">
		<tag k="fixme" v="consider place=hamlet" />
		<tag k="name" v="Indrevær" />
		<tag k="place" v="farm" />
		<tag k="ssr:stedsnr" v="974680" />
	</node>
	<node lat="60.989669690014125" lon="4.59195467914363" id="-33241">
		<tag k="fixme" v="consider place=hamlet" />
		<tag k="name" v="Nautøyna" />
		<tag k="place" v="farm" />
		<tag k="ssr:stedsnr" v="974683" />
	</node>
	<node lat="60.99363748465917" lon="4.610721370977651" id="-33242">
		<tag k="fixme" v="consider place=hamlet" />
		<tag k="name" v="Husøyna" />
		<tag k="place" v="farm" />
		<tag k="ssr:stedsnr" v="974684" />
	</node>
	<node lat="61.122371634290694" lon="4.729527192065505" id="-33243">
		<tag k="fixme" v="consider place=hamlet" />
		<tag k="name" v="Oddekalven" />
		<tag k="place" v="farm" />
		<tag k="ssr:stedsnr" v="974692" />
	</node>
	<node lat="61.17698545902476" lon="4.696165870079724" id="-33244">
		<tag k="fixme" v="consider place=hamlet" />
		<tag k="name" v="Gåsvær" />
		<tag k="place" v="farm" />
		<tag k="ssr:stedsnr" v="974697" />
	</node>
	<node lat="61.06764614243186" lon="4.824745017222772" id="-33245">
		<tag k="fixme" v="consider place=hamlet" />
		<tag k="name" v="Steinsundholmen" />
		<tag k="place" v="farm" />
		<tag k="ssr:stedsnr" v="974698" />
	</node>
	<node lat="61.07610918592915" lon="4.837083855160199" id="-33246">
		<tag k="fixme" v="consider place=hamlet" />
		<tag k="name" v="Hardbakke" />
		<tag k="place" v="farm" />
		<tag k="ssr:stedsnr" v="974699" />
	</node>
	<node lat="61.089879188579616" lon="4.8349687893206" id="-33247">
		<tag k="fixme" v="consider place=hamlet" />
		<tag k="name" v="Lia" />
		<tag k="place" v="farm" />
		<tag k="ssr:stedsnr" v="974702" />
	</node>
	<node lat="61.14846079539927" lon="4.883963296437591" id="-33267">
		<tag k="fixme" v="consider place=hamlet" />
		<tag k="name" v="Lendinga" />
		<tag k="place" v="farm" />
		<tag k="ssr:stedsnr" v="9184" />
	</node>
	<node lat="61.12927777555176" lon="5.035577771275159" id="-33278">
		<tag k="alt_name" v="Juvik" />
		<tag k="name" v="Djupvika" />
		<tag k="place" v="farm" />
		<tag k="ssr:stedsnr" v="9121" />
	</node>
	<node lat="61.13431944761789" lon="5.017508324585984" id="-33279">
		<tag k="name" v="Hamnen" />
		<tag k="place" v="farm" />
		<tag k="ssr:stedsnr" v="9131" />
	</node>
	<node lat="61.090313892909194" lon="4.889330551924297" id="-33289">
		<tag k="name" v="Pollen" />
		<tag k="place" v="farm" />
		<tag k="ssr:stedsnr" v="9283" />
	</node>
	<node lat="61.090917796725634" lon="4.742975757222814" id="-33291">
		<tag k="alt_name" v="Tangenes" />
		<tag k="fixme" v="consider place=hamlet" />
		<tag k="name" v="Tangeneset" />
		<tag k="place" v="farm" />
		<tag k="ssr:stedsnr" v="9344" />
	</node>
	<node lat="61.00291372449389" lon="4.722704368524758" id="-33394">
		<tag k="fixme" v="consider place=hamlet" />
		<tag k="name" v="Trovågen" />
		<tag k="place" v="farm" />
		<tag k="ssr:stedsnr" v="70387" />
	</node>
	<node lat="61.07503888556552" lon="4.859599996022225" id="-33403">
		<tag k="alt_name" v="Hop, s;Hop" />
		<tag k="name" v="Søre Hop" />
		<tag k="place" v="farm" />
		<tag k="ssr:stedsnr" v="70256" />
	</node>
	<node lat="61.07563055857567" lon="4.841130550224136" id="-33404">
		<tag k="name" v="Hardbakke" />
		<tag k="place" v="village" />
		<tag k="ssr:stedsnr" v="70258" />
	</node>
	<node lat="61.206450137667424" lon="4.828489366489706" id="-33424">
		<tag k="fixme" v="multiple name tags, choose one and add the other to alt_name; consider place=hamlet" />
		<tag k="name" v="Færøyvika;Vika" />
		<tag k="place" v="farm" />
		<tag k="ssr:stedsnr" v="70937" />
	</node>
	<node lat="61.118084335783585" lon="5.089541570350299" id="-33436">
		<tag k="fixme" v="consider place=hamlet" />
		<tag k="name" v="Netteland" />
		<tag k="place" v="farm" />
		<tag k="ssr:stedsnr" v="130319" />
	</node>
	<node lat="61.113983329388766" lon="4.830005554272529" id="-33489">
		<tag k="fixme" v="consider tourism=alpine_hut or tourism=chalet" />
		<tag k="name" v="Råkeneset" />
		<tag k="ssr:stedsnr" v="120900" />
		<tag k="tourism" v="wilderness_hut" />
	</node>
	<node lat="61.12923888566736" lon="5.018558336416829" id="-33527">
		<tag k="fixme" v="consider place=hamlet" />
		<tag k="name" v="Krakhella" />
		<tag k="place" v="village" />
		<tag k="ssr:stedsnr" v="146003" />
	</node>
	<node lat="61.06838888881614" lon="4.828658340099746" id="-33546">
		<tag k="name" v="Holmevika" />
		<tag k="place" v="locality" />
		<tag k="ssr:stedsnr" v="165685" />
	</node>
	<node lat="61.127500004364705" lon="4.9562194514591145" id="-33556">
		<tag k="name" v="Sørebø" />
		<tag k="place" v="farm" />
		<tag k="ssr:stedsnr" v="165942" />
	</node>
	<node lat="61.100960696038065" lon="4.91231476227191" id="-33583">
		<tag k="fixme" v="consider place=hamlet" />
		<tag k="name" v="Eidet" />
		<tag k="place" v="farm" />
		<tag k="ssr:stedsnr" v="191336" />
	</node>
	<node lat="61.150075310044684" lon="4.86361098822077" id="-33592">
		<tag k="fixme" v="consider place=hamlet" />
		<tag k="name" v="Stølen" />
		<tag k="place" v="farm" />
		<tag k="ssr:stedsnr" v="191193" />
	</node>
	<node lat="61.16682511026586" lon="5.005032787473833" id="-33596">
		<tag k="alt_name" v="Grønevik" />
		<tag k="fixme" v="consider place=hamlet" />
		<tag k="name" v="Grønevika" />
		<tag k="place" v="farm" />
		<tag k="ssr:stedsnr" v="191017" />
	</node>
	<node lat="61.17538216668381" lon="4.96314598465231" id="-33598">
		<tag k="fixme" v="consider place=hamlet" />
		<tag k="name" v="Skarnagel" />
		<tag k="place" v="farm" />
		<tag k="ssr:stedsnr" v="191035" />
	</node>
	<node lat="61.17604166810521" lon="4.86278055916124" id="-33600">
		<tag k="name" v="Nilsvika" />
		<tag k="place" v="farm" />
		<tag k="ssr:stedsnr" v="191043" />
	</node>
	<node lat="61.01375863657052" lon="4.702194413160648" id="-33625">
		<tag k="alt_name" v="Rørdal" />
		<tag k="fixme" v="consider place=hamlet" />
		<tag k="name" v="Rørdalen" />
		<tag k="place" v="farm" />
		<tag k="ssr:stedsnr" v="191950" />
	</node>
	<node lat="61.01257632974182" lon="4.6737466831468275" id="-33632">
		<tag k="alt_name" v="Strømmen" />
		<tag k="fixme" v="consider place=hamlet" />
		<tag k="name" v="Straumen" />
		<tag k="place" v="farm" />
		<tag k="ssr:stedsnr" v="191938" />
	</node>
	<node lat="61.119302775752445" lon="5.0911472259302055" id="-33638">
		<tag k="name" v="Fretheim" />
		<tag k="place" v="farm" />
		<tag k="ssr:stedsnr" v="223749" />
	</node>
	<node lat="61.012113889565654" lon="4.698452778823623" id="-33687">
		<tag k="name" v="Soldal" />
		<tag k="place" v="farm" />
		<tag k="ssr:stedsnr" v="226825" />
	</node>
	<node lat="61.186397225711346" lon="4.9811083274239305" id="-33699">
		<tag k="name" v="Bøvågen" />
		<tag k="place" v="farm" />
		<tag k="ssr:stedsnr" v="227516" />
	</node>
	<node lat="61.12851111399542" lon="4.954716667148764" id="-33739">
		<tag k="name" v="Nordbø" />
		<tag k="place" v="farm" />
		<tag k="ssr:stedsnr" v="287917" />
	</node>
	<node lat="61.13067161645657" lon="5.015690441092105" id="-33761">
		<tag k="fixme" v="consider place=hamlet" />
		<tag k="name" v="Krakhella" />
		<tag k="place" v="farm" />
		<tag k="ssr:stedsnr" v="312131" />
	</node>
	<node lat="61.03576275028377" lon="4.665196486395523" id="-33769">
		<tag k="fixme" v="multiple name tags, choose one and add the other to alt_name; consider place=hamlet" />
		<tag k="name" v="Søre Hjønnevåg;Sørevågen" />
		<tag k="place" v="farm" />
		<tag k="ssr:stedsnr" v="312771" />
	</node>
	<node lat="61.14611666858193" lon="4.832438896252775" id="-33774">
		<tag k="alt_name" v="Strand" />
		<tag k="name" v="Stranda" />
		<tag k="place" v="farm" />
		<tag k="ssr:stedsnr" v="313217" />
	</node>
	<node lat="61.212366348459334" lon="4.86151045675433" id="-33780">
		<tag k="fixme" v="consider place=hamlet" />
		<tag k="name" v="Buskøy" />
		<tag k="old_name" v="Refsøen" />
		<tag k="place" v="farm" />
		<tag k="ssr:stedsnr" v="312934" />
	</node>
	<node lat="61.089205560066524" lon="4.832363893135424" id="-33801">
		<tag k="name" v="Gangstø" />
		<tag k="place" v="locality" />
		<tag k="ssr:stedsnr" v="327823" />
	</node>
	<node lat="61.10014444174185" lon="4.911383331916266" id="-33806">
		<tag k="name" v="Eide" />
		<tag k="place" v="quarter" />
		<tag k="ssr:stedsnr" v="342656" />
	</node>
	<node lat="61.057894445028374" lon="4.7527722161198955" id="-33825">
		<tag k="name" v="Hatlevika" />
		<tag k="place" v="farm" />
		<tag k="ssr:stedsnr" v="347533" />
	</node>
	<node lat="61.122216666777625" lon="5.032636112141541" id="-33883">
		<tag k="alt_name" v="Klauva" />
		<tag k="fixme" v="multiple name tags, choose one and add the other to alt_name" />
		<tag k="name" v="Hamre;Klaua" />
		<tag k="place" v="farm" />
		<tag k="ssr:stedsnr" v="373127" />
	</node>
	<node lat="61.02420091944626" lon="4.779912209405539" id="-33893">
		<tag k="alt_name" v="Tungodden" />
		<tag k="fixme" v="consider place=hamlet" />
		<tag k="name" v="Odden" />
		<tag k="place" v="farm" />
		<tag k="ssr:stedsnr" v="373457" />
	</node>
	<node lat="61.21393889254248" lon="4.895947217957127" id="-33954">
		<tag k="name" v="Midtbø" />
		<tag k="place" v="farm" />
		<tag k="ssr:stedsnr" v="408481" />
	</node>
	<node lat="61.130591669543996" lon="4.952138892806347" id="-33961">
		<tag k="name" v="Vika" />
		<tag k="place" v="farm" />
		<tag k="ssr:stedsnr" v="408948" />
	</node>
	<node lat="61.036424618607086" lon="4.513343516833707" id="-33993">
		<tag k="fixme" v="consider place=hamlet" />
		<tag k="name" v="Utvær" />
		<tag k="place" v="farm" />
		<tag k="ssr:stedsnr" v="434751" />
	</node>
	<node lat="61.119975003662084" lon="5.0932749980919825" id="-33996">
		<tag k="name" v="Netteland" />
		<tag k="place" v="farm" />
		<tag k="ssr:stedsnr" v="433520" />
	</node>
	<node lat="61.08361666328374" lon="4.736694443181357" id="-34001">
		<tag k="alt_name" v="Lervika" />
		<tag k="name" v="Leirvika" />
		<tag k="place" v="farm" />
		<tag k="ssr:stedsnr" v="434299" />
	</node>
	<node lat="61.12822221890662" lon="4.947269437231467" id="-34102">
		<tag k="name" v="Solstrand" />
		<tag k="place" v="farm" />
		<tag k="ssr:stedsnr" v="555140" />
	</node>
	<node lat="61.151410107786404" lon="4.954746101244738" id="-34113">
		<tag k="alt_name" v="Engevik" />
		<tag k="fixme" v="consider place=hamlet" />
		<tag k="name" v="Engevika" />
		<tag k="place" v="farm" />
		<tag k="ssr:stedsnr" v="555193" />
	</node>
	<node lat="61.06521863174539" lon="4.751912499357077" id="-34120">
		<tag k="fixme" v="consider place=hamlet" />
		<tag k="name" v="Steindalen" />
		<tag k="place" v="farm" />
		<tag k="ssr:stedsnr" v="555256" />
	</node>
	<node lat="61.00696848327276" lon="4.670469769779884" id="-34136">
		<tag k="fixme" v="consider place=hamlet" />
		<tag k="name" v="Kolgrov" />
		<tag k="place" v="farm" />
		<tag k="ssr:stedsnr" v="555964" />
	</node>
	<node lat="61.124332282336475" lon="5.047021426712157" id="-34141">
		<tag k="fixme" v="consider place=hamlet" />
		<tag k="name" v="Losnedalen" />
		<tag k="place" v="farm" />
		<tag k="ssr:stedsnr" v="571092" />
	</node>
	<node lat="61.17561666370809" lon="4.873172230008811" id="-34179">
		<tag k="name" v="Solberg" />
		<tag k="place" v="farm" />
		<tag k="ssr:stedsnr" v="590898" />
	</node>
	<node lat="61.17997222456886" lon="4.8687055514850535" id="-34224">
		<tag k="name" v="Stølsvika" />
		<tag k="place" v="farm" />
		<tag k="ssr:stedsnr" v="616038" />
	</node>
	<node lat="61.21132500043729" lon="4.895652784394165" id="-34291">
		<tag k="name" v="Sanden" />
		<tag k="place" v="farm" />
		<tag k="ssr:stedsnr" v="651463" />
	</node>
	<node lat="61.17029500528273" lon="4.876588263969553" id="-34353">
		<tag k="alt_name" v="Kråkenes" />
		<tag k="fixme" v="consider place=hamlet" />
		<tag k="name" v="Kråkeneset" />
		<tag k="place" v="farm" />
		<tag k="ssr:stedsnr" v="737020" />
	</node>
	<node lat="61.05951746815305" lon="4.9288087410231975" id="-34361">
		<tag k="alt_name" v="Kråkenes" />
		<tag k="fixme" v="consider place=hamlet" />
		<tag k="name" v="Kråkeneset" />
		<tag k="place" v="farm" />
		<tag k="ssr:stedsnr" v="737250" />
	</node>
	<node lat="61.180161107265235" lon="4.9474805630814505" id="-34433">
		<tag k="alt_name" v="Ruska" />
		<tag k="name" v="Solvang" />
		<tag k="place" v="farm" />
		<tag k="ssr:stedsnr" v="798042" />
	</node>
	<node lat="61.139068818257286" lon="4.832249019441516" id="-34437">
		<tag k="alt_name" v="Mårstig;Maursti" />
		<tag k="fixme" v="consider place=hamlet" />
		<tag k="name" v="Maurstigen" />
		<tag k="place" v="farm" />
		<tag k="ssr:stedsnr" v="798206" />
	</node>
	<node lat="61.13447633426138" lon="4.940978532881601" id="-34444">
		<tag k="name" v="Eilund" />
		<tag k="place" v="farm" />
		<tag k="ssr:stedsnr" v="798175" />
	</node>
	<node lat="61.0685525115473" lon="4.811938954097748" id="-34448">
		<tag k="fixme" v="consider place=hamlet" />
		<tag k="name" v="Steinsund" />
		<tag k="place" v="farm" />
		<tag k="ssr:stedsnr" v="798266" />
	</node>
	<node lat="61.06581173047599" lon="4.8986465990377335" id="-34455">
		<tag k="alt_name" v="Nesøy" />
		<tag k="fixme" v="consider place=hamlet" />
		<tag k="name" v="Nesøyna" />
		<tag k="place" v="farm" />
		<tag k="ssr:stedsnr" v="798241" />
	</node>
	<node lat="61.12071110887166" lon="5.091325007667089" id="-34561">
		<tag k="fixme" v="consider place=hamlet" />
		<tag k="name" v="Losnegard" />
		<tag k="place" v="village" />
		<tag k="ssr:stedsnr" v="859134" />
	</node>
	<node lat="61.203359361325525" lon="4.834541512352569" id="-34563">
		<tag k="fixme" v="consider place=hamlet" />
		<tag k="name" v="Færøyna" />
		<tag k="place" v="farm" />
		<tag k="ssr:stedsnr" v="859096" />
	</node>
	<node lat="61.13626111318617" lon="4.830338886750788" id="-34566">
		<tag k="alt_name" v="Tvårevik" />
		<tag k="name" v="Tvorevika" />
		<tag k="place" v="farm" />
		<tag k="ssr:stedsnr" v="859197" />
	</node>
	<node lat="61.056858333407334" lon="4.759808334666145" id="-34573">
		<tag k="alt_name" v="Solsneset" />
		<tag k="name" v="Solnes" />
		<tag k="place" v="farm" />
		<tag k="ssr:stedsnr" v="859232" />
	</node>
	<node lat="61.07931086204142" lon="4.6917290326904695" id="-34587">
		<tag k="alt_name" v="Ytrøy" />
		<tag k="fixme" v="consider place=hamlet" />
		<tag k="name" v="Ytrøyna" />
		<tag k="place" v="farm" />
		<tag k="ssr:stedsnr" v="859733" />
	</node>
	<node lat="61.04058609846848" lon="4.66374633690535" id="-34677">
		<tag k="fixme" v="multiple name tags, choose one and add the other to alt_name" />
		<tag k="name" v="Vågane;Hjønnevåg" />
		<tag k="place" v="hamlet" />
		<tag k="ssr:stedsnr" v="971876" />
	</node>
	<node lat="61.172343360245925" lon="4.895336483775048" id="-34678">
		<tag k="fixme" v="consider place=hamlet" />
		<tag k="name" v="Hersvik" />
		<tag k="place" v="farm" />
		<tag k="ssr:stedsnr" v="971810" />
	</node>
	<node lat="61.161837138541465" lon="4.8352115369970825" id="-34701">
		<tag k="fixme" v="consider place=hamlet" />
		<tag k="name" v="Strand" />
		<tag k="place" v="farm" />
		<tag k="ssr:stedsnr" v="974705" />
	</node>
	<node lat="61.07791073808714" lon="4.85894903303972" id="-34702">
		<tag k="fixme" v="consider place=hamlet" />
		<tag k="name" v="Hop" />
		<tag k="place" v="farm" />
		<tag k="ssr:stedsnr" v="974707" />
	</node>
	<node lat="61.046010478247915" lon="4.880920048832163" id="-34703">
		<tag k="fixme" v="consider place=hamlet" />
		<tag k="name" v="Humlevåg" />
		<tag k="place" v="farm" />
		<tag k="ssr:stedsnr" v="974708" />
	</node>
	<node lat="61.193735683038135" lon="4.874077763761267" id="-34704">
		<tag k="fixme" v="consider place=hamlet" />
		<tag k="name" v="Vassøyna" />
		<tag k="place" v="farm" />
		<tag k="ssr:stedsnr" v="974709" />
	</node>
	<node lat="61.2099789550284" lon="4.856566226914532" id="-34705">
		<tag k="fixme" v="consider place=hamlet" />
		<tag k="name" v="Steinsøyna" />
		<tag k="place" v="farm" />
		<tag k="ssr:stedsnr" v="974710" />
	</node>
	<node lat="61.12685448463803" lon="5.038019786966652" id="-34706">
		<tag k="fixme" v="consider place=hamlet" />
		<tag k="name" v="Strengklauv" />
		<tag k="name:no" v="Strengklauv" />
		<tag k="place" v="farm" />
		<tag k="ssr:stedsnr" v="974715" />
	</node>
</osm>
