<?xml version="1.0" encoding="UTF-8"?>
<osm version="0.6" generator="osmapis">
	<node lat="61.02549166806306" lon="4.673588897541181" id="-75591">
		<tag k="name" v="Krokvatnet" />
		<tag k="natural" v="water" />
		<tag k="ssr:stedsnr" v="9943" />
	</node>
	<node lat="61.012369449049956" lon="4.682872229815712" id="-75597">
		<tag k="name" v="Steindalstjørna" />
		<tag k="natural" v="water" />
		<tag k="ssr:stedsnr" v="43001" />
	</node>
	<node lat="61.07306944007084" lon="4.769341669455769" id="-75609">
		<tag k="name" v="Lasketjørna" />
		<tag k="natural" v="water" />
		<tag k="ssr:stedsnr" v="44592" />
	</node>
	<node lat="61.05968888714378" lon="4.7628638905533744" id="-75610">
		<tag k="name" v="Stolane" />
		<tag k="place" v="islet" />
		<tag k="ssr:stedsnr" v="44596" />
	</node>
	<node lat="61.06611944147056" lon="4.784088880194398" id="-75613">
		<tag k="name" v="Indre Krokevassneset" />
		<tag k="natural" v="cape" />
		<tag k="ssr:stedsnr" v="44631" />
	</node>
	<node lat="61.06011110767735" lon="4.854313892233648" id="-75614">
		<tag k="name" v="Verpingsvikvatnet" />
		<tag k="natural" v="water" />
		<tag k="ssr:stedsnr" v="44677" />
		<tag k="water" v="lake" />
	</node>
	<node lat="61.04530277444623" lon="4.699255548269039" id="-75628">
		<tag k="name" v="Pinevatnet" />
		<tag k="natural" v="water" />
		<tag k="ssr:stedsnr" v="69836" />
	</node>
	<node lat="61.12752499983115" lon="4.974738892122057" id="-75632">
		<tag k="alt_name" v="Klostrevatnet" />
		<tag k="name" v="Kløstrevatnet" />
		<tag k="natural" v="water" />
		<tag k="ssr:stedsnr" v="70127" />
	</node>
	<node lat="61.20351389177361" lon="4.963258341236095" id="-75643">
		<tag k="name" v="Kvernhusvatnet" />
		<tag k="natural" v="water" />
		<tag k="ssr:stedsnr" v="70091" />
	</node>
	<node lat="61.046701419939744" lon="4.653087924665439" id="-75659">
		<tag k="name" v="Benvivatnet" />
		<tag k="natural" v="water" />
		<tag k="ssr:stedsnr" v="70780" />
	</node>
	<node lat="61.06152499948216" lon="4.769197231104476" id="-75677">
		<tag k="name" v="Indre Vassneset" />
		<tag k="natural" v="cape" />
		<tag k="ssr:stedsnr" v="104588" />
	</node>
	<node lat="61.17133611032857" lon="4.990700009088741" id="-75712">
		<tag k="name" v="Grønevikvatnet" />
		<tag k="natural" v="water" />
		<tag k="ssr:stedsnr" v="251016" />
	</node>
	<node lat="61.0324305537" lon="4.705247220505289" id="-75720">
		<tag k="fixme" v="multiple name tags, choose one and add the other to alt_name" />
		<tag k="name" v="Djupvikvatnet;Grastjørna" />
		<tag k="natural" v="water" />
		<tag k="ssr:stedsnr" v="251827" />
	</node>
	<node lat="61.156811114631715" lon="4.918386107796768" id="-75725">
		<tag k="name" v="Krakneset" />
		<tag k="natural" v="cape" />
		<tag k="ssr:stedsnr" v="252006" />
	</node>
	<node lat="61.12974722320103" lon="4.969361108228828" id="-75741">
		<tag k="alt_name" v="Hellersvatnet" />
		<tag k="name" v="Hellevatnet" />
		<tag k="natural" v="water" />
		<tag k="ssr:stedsnr" v="252124" />
	</node>
	<node lat="61.157002780059024" lon="4.967536112349307" id="-75752">
		<tag k="alt_name" v="Nordre Engevikvatnet" />
		<tag k="name" v="Engevikvatnet" />
		<tag k="natural" v="water" />
		<tag k="ssr:stedsnr" v="252211" />
	</node>
	<node lat="61.075805557735436" lon="4.92291388829607" id="-75761">
		<tag k="name" v="Losnetjørna" />
		<tag k="natural" v="water" />
		<tag k="ssr:stedsnr" v="252278" />
	</node>
	<node lat="61.16462500250674" lon="4.867552780986761" id="-75790">
		<tag k="name" v="Holevatnet" />
		<tag k="natural" v="water" />
		<tag k="ssr:stedsnr" v="130023" />
	</node>
	<node lat="61.02982221880711" lon="4.721613882172467" id="-75795">
		<tag k="alt_name" v="Plommedalsvatnet" />
		<tag k="name" v="Plommedalstjørna" />
		<tag k="natural" v="water" />
		<tag k="ssr:stedsnr" v="130395" />
	</node>
	<node lat="61.0139888912208" lon="4.723322223813945" id="-75797">
		<tag k="alt_name" v="Litåsvatnet" />
		<tag k="name" v="Litlåsvatnet" />
		<tag k="natural" v="water" />
		<tag k="ssr:stedsnr" v="130409" />
	</node>
	<node lat="61.20940555876743" lon="4.841080559650187" id="-75807">
		<tag k="name" v="Langevatnet" />
		<tag k="natural" v="water" />
		<tag k="ssr:stedsnr" v="130927" />
	</node>
	<node lat="61.1414111104366" lon="4.969266657953608" id="-75818">
		<tag k="name" v="Rotevikvatnet" />
		<tag k="natural" v="water" />
		<tag k="ssr:stedsnr" v="131182" />
	</node>
	<node lat="61.006750002200306" lon="4.712572224977333" id="-75833">
		<tag k="name" v="Kvernhusvatnet" />
		<tag k="natural" v="water" />
		<tag k="ssr:stedsnr" v="252968" />
	</node>
	<node lat="61.01879722370174" lon="4.680338882216678" id="-75842">
		<tag k="name" v="Grasdaltjørna" />
		<tag k="natural" v="water" />
		<tag k="ssr:stedsnr" v="164009" />
	</node>
	<node lat="61.0667499987679" lon="4.763705546632987" id="-75861">
		<tag k="name" v="Hundeviktjørnane" />
		<tag k="natural" v="water" />
		<tag k="ssr:stedsnr" v="165579" />
		<tag k="water" v="lake" />
	</node>
	<node lat="61.152286114139145" lon="4.983661102800658" id="-75872">
		<tag k="name" v="Midtlona" />
		<tag k="natural" v="water" />
		<tag k="ssr:stedsnr" v="166620" />
	</node>
	<node lat="61.093074995826925" lon="4.956597216743038" id="-75876">
		<tag k="name" v="Storelva" />
		<tag k="ssr:stedsnr" v="166908" />
		<tag k="waterway" v="stream" />
	</node>
	<node lat="61.16012499704239" lon="4.9042416672306635" id="-75882">
		<tag k="name" v="Kvernhusvatnet" />
		<tag k="natural" v="water" />
		<tag k="ssr:stedsnr" v="191006" />
	</node>
	<node lat="61.186716670150695" lon="4.917938883222615" id="-75890">
		<tag k="name" v="Løketjørna" />
		<tag k="natural" v="water" />
		<tag k="ssr:stedsnr" v="191060" />
	</node>
	<node lat="61.05272221999624" lon="4.688622229341825" id="-75902">
		<tag k="alt_name" v="Sperre  -  Vatnet" />
		<tag k="name" v="Sperrevatnet" />
		<tag k="natural" v="water" />
		<tag k="ssr:stedsnr" v="191755" />
	</node>
	<node lat="61.028319447247895" lon="4.660322214069107" id="-75909">
		<tag k="name" v="Kleivetjørna" />
		<tag k="natural" v="water" />
		<tag k="ssr:stedsnr" v="191919" />
	</node>
	<node lat="61.20754722480628" lon="4.842505551951775" id="-75937">
		<tag k="name" v="Andersvatnet" />
		<tag k="natural" v="water" />
		<tag k="ssr:stedsnr" v="227388" />
		<tag k="water" v="lake" />
	</node>
	<node lat="61.156108331807644" lon="4.8723888938561375" id="-75942">
		<tag k="alt_name" v="Vadvatnet, yt" />
		<tag k="name" v="Ytre Vadvatnet" />
		<tag k="natural" v="water" />
		<tag k="ssr:stedsnr" v="234005" />
	</node>
	<node lat="61.078952776510526" lon="4.862716663775971" id="-75967">
		<tag k="name" v="Hopsvatnet" />
		<tag k="natural" v="water" />
		<tag k="ssr:stedsnr" v="286837" />
		<tag k="water" v="lake" />
	</node>
	<node lat="61.081116662496605" lon="4.805205562353638" id="-75988">
		<tag k="name" v="Lindebutjørna" />
		<tag k="natural" v="water" />
		<tag k="ssr:stedsnr" v="287795" />
	</node>
	<node lat="61.15641944495629" lon="4.96983056279909" id="-75989">
		<tag k="name" v="Gøymsleneset" />
		<tag k="natural" v="cape" />
		<tag k="ssr:stedsnr" v="287904" />
	</node>
	<node lat="61.14886389040947" lon="4.986952771878471" id="-75993">
		<tag k="name" v="Steingjeltjørna" />
		<tag k="natural" v="water" />
		<tag k="ssr:stedsnr" v="288607" />
	</node>
	<node lat="61.12580000384662" lon="4.879975000648496" id="-76006">
		<tag k="name" v="Grunnevatnet" />
		<tag k="natural" v="water" />
		<tag k="ssr:stedsnr" v="312169" />
	</node>
	<node lat="61.09624444076833" lon="4.892480563613369" id="-76008">
		<tag k="name" v="Tverrelva" />
		<tag k="ssr:stedsnr" v="312311" />
		<tag k="waterway" v="stream" />
	</node>
	<node lat="61.05055555735572" lon="4.875388896045787" id="-76020">
		<tag k="name" v="Bussevatnet" />
		<tag k="natural" v="water" />
		<tag k="ssr:stedsnr" v="313462" />
	</node>
	<node lat="61.169027779868095" lon="4.911886107450337" id="-76059">
		<tag k="name" v="Barmannsvika" />
		<tag k="natural" v="bay" />
		<tag k="ssr:stedsnr" v="469942" />
	</node>
	<node lat="61.16648055140386" lon="4.969708328971835" id="-76060">
		<tag k="name" v="Storefossen" />
		<tag k="natural" v="waterfall" />
		<tag k="ssr:stedsnr" v="469998" />
	</node>
	<node lat="61.13857500388486" lon="4.980858334652861" id="-76066">
		<tag k="name" v="Lona" />
		<tag k="natural" v="water" />
		<tag k="ssr:stedsnr" v="470900" />
		<tag k="water" v="lake" />
	</node>
	<node lat="61.10503333080673" lon="4.9147527758357965" id="-76067">
		<tag k="name" v="Eidet" />
		<tag k="place" v="locality" />
		<tag k="ssr:stedsnr" v="470988" />
	</node>
	<node lat="61.12230988844348" lon="4.828038060082238" id="-76080">
		<tag k="name" v="Lauvvikevatnet" />
		<tag k="natural" v="water" />
		<tag k="ssr:stedsnr" v="347205" />
		<tag k="water" v="lake" />
	</node>
	<node lat="61.05636944273091" lon="4.776222231191497" id="-76097">
		<tag k="name" v="Litlesulvatnet" />
		<tag k="natural" v="water" />
		<tag k="ssr:stedsnr" v="347565" />
		<tag k="water" v="lake" />
	</node>
	<node lat="61.088033330877025" lon="4.778038883889816" id="-76103">
		<tag k="name" v="Dyrenestjørna" />
		<tag k="natural" v="water" />
		<tag k="ssr:stedsnr" v="347978" />
	</node>
	<node lat="61.11340000278517" lon="4.893788890946559" id="-76106">
		<tag k="name" v="Kvernhusvatnet" />
		<tag k="natural" v="water" />
		<tag k="ssr:stedsnr" v="348858" />
		<tag k="water" v="lake" />
	</node>
	<node lat="61.16966110753092" lon="4.962733341264994" id="-76119">
		<tag k="name" v="Litlevatnet" />
		<tag k="natural" v="water" />
		<tag k="ssr:stedsnr" v="373012" />
	</node>
	<node lat="61.16896111120839" lon="4.875266661311694" id="-76120">
		<tag k="alt_name" v="Stovevatnet" />
		<tag k="name" v="Storevatnet" />
		<tag k="natural" v="water" />
		<tag k="ssr:stedsnr" v="373016" />
	</node>
	<node lat="61.18420000362174" lon="4.903980548305355" id="-76122">
		<tag k="name" v="Holmtjørna" />
		<tag k="natural" v="water" />
		<tag k="ssr:stedsnr" v="373061" />
	</node>
	<node lat="61.11817222638729" lon="4.948202769937262" id="-76126">
		<tag k="name" v="Klovetjørna" />
		<tag k="natural" v="water" />
		<tag k="ssr:stedsnr" v="373117" />
	</node>
	<node lat="61.145683332650925" lon="4.960891673213162" id="-76128">
		<tag k="name" v="Stokkevatnet" />
		<tag k="natural" v="water" />
		<tag k="ssr:stedsnr" v="373167" />
	</node>
	<node lat="61.1962361131428" lon="4.929572220585334" id="-76154">
		<tag k="name" v="Resstigvatnet" />
		<tag k="natural" v="water" />
		<tag k="ssr:stedsnr" v="407421" />
		<tag k="water" v="lake" />
	</node>
	<node lat="61.197327777927505" lon="4.961988897675919" id="-76168">
		<tag k="name" v="Tjørna" />
		<tag k="natural" v="water" />
		<tag k="ssr:stedsnr" v="408393" />
	</node>
	<node lat="61.06034166278138" lon="4.765577786894111" id="-76170">
		<tag k="name" v="Ytre Vassneset" />
		<tag k="natural" v="cape" />
		<tag k="ssr:stedsnr" v="408607" />
	</node>
	<node lat="61.13727777781439" lon="4.916541670094978" id="-76173">
		<tag k="name" v="Hagelva" />
		<tag k="ssr:stedsnr" v="408847" />
		<tag k="waterway" v="river" />
	</node>
	<node lat="61.17556110759283" lon="4.916738884763973" id="-76195">
		<tag k="name" v="Lona" />
		<tag k="natural" v="water" />
		<tag k="ssr:stedsnr" v="434034" />
	</node>
	<node lat="61.15676666940128" lon="4.953983333124045" id="-76201">
		<tag k="name" v="Berteltjørna" />
		<tag k="natural" v="water" />
		<tag k="ssr:stedsnr" v="434217" />
	</node>
	<node lat="61.05891666707194" lon="4.804294449404462" id="-76203">
		<tag k="name" v="Langevatnet" />
		<tag k="natural" v="water" />
		<tag k="ssr:stedsnr" v="434230" />
	</node>
	<node lat="61.13968888464589" lon="4.887330549561762" id="-76206">
		<tag k="fixme" v="multiple name tags, choose one and add the other to alt_name" />
		<tag k="name" v="Vaulevatnet;Kvernhusvatnet" />
		<tag k="natural" v="water" />
		<tag k="ssr:stedsnr" v="434177" />
	</node>
	<node lat="61.15641389151827" lon="4.865633331105757" id="-76225">
		<tag k="name" v="Skrapedalsvatnet" />
		<tag k="natural" v="water" />
		<tag k="ssr:stedsnr" v="494007" />
	</node>
	<node lat="61.13681388856904" lon="4.955888879682234" id="-76230">
		<tag k="name" v="Saksevikvatnet" />
		<tag k="natural" v="water" />
		<tag k="ssr:stedsnr" v="494137" />
	</node>
	<node lat="61.12274166374207" lon="4.886119446049913" id="-76231">
		<tag k="name" v="Skogavatnet" />
		<tag k="natural" v="water" />
		<tag k="ssr:stedsnr" v="494147" />
	</node>
	<node lat="61.051955557624034" lon="4.743438895037752" id="-76232">
		<tag k="name" v="Ekrevatnet" />
		<tag k="natural" v="water" />
		<tag k="ssr:stedsnr" v="494229" />
	</node>
	<node lat="61.024275004374154" lon="4.677050000234472" id="-76254">
		<tag k="name" v="Lomtjørna" />
		<tag k="natural" v="water" />
		<tag k="ssr:stedsnr" v="468013" />
	</node>
	<node lat="61.151436110737414" lon="4.9672916634552555" id="-76280">
		<tag k="name" v="Langeneset" />
		<tag k="natural" v="cape" />
		<tag k="ssr:stedsnr" v="469912" />
	</node>
	<node lat="61.21545000025875" lon="4.840116670501847" id="-76282">
		<tag k="name" v="Ekrehaugsvatnet" />
		<tag k="natural" v="water" />
		<tag k="ssr:stedsnr" v="470353" />
		<tag k="water" v="lake" />
	</node>
	<node lat="61.20954722382865" lon="4.832455547085407" id="-76284">
		<tag k="name" v="Olatjørna" />
		<tag k="natural" v="water" />
		<tag k="ssr:stedsnr" v="470364" />
	</node>
	<node lat="61.19479999637214" lon="4.973727774383847" id="-76288">
		<tag k="alt_name" v="Fjellsvatnet" />
		<tag k="name" v="Fjellvatnet" />
		<tag k="natural" v="water" />
		<tag k="ssr:stedsnr" v="676079" />
	</node>
	<node lat="61.19986111143737" lon="4.969261109268668" id="-76289">
		<tag k="name" v="Grunnevatnet" />
		<tag k="natural" v="water" />
		<tag k="ssr:stedsnr" v="676082" />
	</node>
	<node lat="61.138305554976974" lon="5.036824994168845" id="-76292">
		<tag k="name" v="Standalsvatnet" />
		<tag k="natural" v="water" />
		<tag k="ssr:stedsnr" v="676160" />
	</node>
	<node lat="61.191338889732165" lon="4.988527776100237" id="-76302">
		<tag k="name" v="Kalvedalsvatnet" />
		<tag k="natural" v="water" />
		<tag k="ssr:stedsnr" v="677064" />
	</node>
	<node lat="61.187058333483655" lon="4.98246388313843" id="-76303">
		<tag k="alt_name" v="Rodalsvatnet" />
		<tag k="name" v="Rodalstjørna" />
		<tag k="natural" v="water" />
		<tag k="ssr:stedsnr" v="677065" />
	</node>
	<node lat="61.18512222203448" lon="4.948575008281089" id="-76306">
		<tag k="name" v="Djupetjørna" />
		<tag k="natural" v="water" />
		<tag k="ssr:stedsnr" v="677068" />
	</node>
	<node lat="61.151597226461135" lon="4.956916674366937" id="-76310">
		<tag k="name" v="Svartetjørna" />
		<tag k="natural" v="water" />
		<tag k="ssr:stedsnr" v="677218" />
	</node>
	<node lat="61.06404444804607" lon="4.841519442418106" id="-76311">
		<tag k="name" v="Valsvatnet" />
		<tag k="natural" v="water" />
		<tag k="ssr:stedsnr" v="677278" />
	</node>
	<node lat="61.03244444694232" lon="4.769358334835737" id="-76319">
		<tag k="name" v="Kvernhusvatnet" />
		<tag k="natural" v="water" />
		<tag k="ssr:stedsnr" v="677488" />
	</node>
	<node lat="61.203094843566014" lon="4.7752829978102564" id="-76332">
		<tag k="name" v="Kvernhusvatna" />
		<tag k="natural" v="water" />
		<tag k="ssr:stedsnr" v="494107" />
		<tag k="water" v="lake" />
	</node>
	<node lat="61.08349166375388" lon="4.9476333302902145" id="-76338">
		<tag k="name" v="Lødalselva" />
		<tag k="ssr:stedsnr" v="494304" />
		<tag k="waterway" v="stream" />
	</node>
	<node lat="61.1807805544293" lon="4.87251110682766" id="-76343">
		<tag k="name" v="Stølsvikvatnet" />
		<tag k="natural" v="water" />
		<tag k="ssr:stedsnr" v="494082" />
	</node>
	<node lat="61.158297224838634" lon="4.992338881991843" id="-76345">
		<tag k="name" v="Lonevatnet" />
		<tag k="natural" v="water" />
		<tag k="ssr:stedsnr" v="494219" />
	</node>
	<node lat="61.075461114143536" lon="4.740983328834573" id="-76347">
		<tag k="alt_name" v="Setrevatnet" />
		<tag k="name" v="Sætrevatnet" />
		<tag k="natural" v="water" />
		<tag k="ssr:stedsnr" v="494262" />
	</node>
	<node lat="61.06496666870442" lon="4.803419449248999" id="-76350">
		<tag k="alt_name" v="Smiursvatnet" />
		<tag k="name" v="Smiurdvatnet" />
		<tag k="natural" v="water" />
		<tag k="ssr:stedsnr" v="494282" />
	</node>
	<node lat="61.05469166634883" lon="4.8748111193089185" id="-76366">
		<tag k="name" v="Søre Pøyla" />
		<tag k="natural" v="water" />
		<tag k="ssr:stedsnr" v="529223" />
		<tag k="water" v="lake" />
	</node>
	<node lat="61.08248055896777" lon="4.727297214453969" id="-76367">
		<tag k="name" v="Siglingeflæa" />
		<tag k="place" v="locality" />
		<tag k="ssr:stedsnr" v="529172" />
	</node>
	<node lat="61.06203332919455" lon="4.749138895760086" id="-76372">
		<tag k="name" v="Vadet" />
		<tag k="natural" v="water" />
		<tag k="ssr:stedsnr" v="529527" />
		<tag k="water" v="lake" />
	</node>
	<node lat="61.149647222705546" lon="5.057702778548106" id="-76392">
		<tag k="alt_name" v="Furenesvatnet, nordre" />
		<tag k="name" v="Nordre Furenesvatnet" />
		<tag k="natural" v="water" />
		<tag k="ssr:stedsnr" v="537188" />
	</node>
	<node lat="61.11805833372654" lon="4.854688879603991" id="-76412">
		<tag k="name" v="Sauedalsvatnet" />
		<tag k="natural" v="water" />
		<tag k="ssr:stedsnr" v="555127" />
	</node>
	<node lat="61.13402221770154" lon="4.872524992212312" id="-76413">
		<tag k="name" v="Maurstigvatnet" />
		<tag k="natural" v="water" />
		<tag k="ssr:stedsnr" v="555169" />
	</node>
	<node lat="61.15515277619091" lon="4.98074165887772" id="-76415">
		<tag k="alt_name" v="Hestestilona" />
		<tag k="name" v="Hestestiglona" />
		<tag k="natural" v="water" />
		<tag k="ssr:stedsnr" v="555185" />
		<tag k="water" v="lake" />
	</node>
	<node lat="61.05340555243275" lon="4.887444449160025" id="-76421">
		<tag k="name" v="Rotevatnet" />
		<tag k="natural" v="water" />
		<tag k="ssr:stedsnr" v="555426" />
	</node>
	<node lat="61.20091389034483" lon="4.778808328627037" id="-76452">
		<tag k="name" v="Søre Kvernhusvatnet" />
		<tag k="natural" v="water" />
		<tag k="ssr:stedsnr" v="590463" />
		<tag k="water" v="lake" />
	</node>
	<node lat="61.162711113662525" lon="4.967591670653013" id="-76462">
		<tag k="name" v="Høyhellerneset" />
		<tag k="natural" v="cape" />
		<tag k="ssr:stedsnr" v="591923" />
	</node>
	<node lat="61.14692499934608" lon="5.056777769201516" id="-76466">
		<tag k="alt_name" v="Furenesvatnet, s" />
		<tag k="name" v="Søre Furenesvatnet" />
		<tag k="natural" v="water" />
		<tag k="ssr:stedsnr" v="598199" />
	</node>
	<node lat="61.157361108834536" lon="4.968700007413232" id="-76470">
		<tag k="name" v="Koparlona" />
		<tag k="natural" v="water" />
		<tag k="ssr:stedsnr" v="615213" />
		<tag k="water" v="lake" />
	</node>
	<node lat="61.19119444787212" lon="4.975824999691911" id="-76482">
		<tag k="name" v="Frukosttjørna" />
		<tag k="natural" v="water" />
		<tag k="ssr:stedsnr" v="616057" />
	</node>
	<node lat="61.18985833059215" lon="4.9723083406476904" id="-76483">
		<tag k="name" v="Kroktjørna" />
		<tag k="natural" v="water" />
		<tag k="ssr:stedsnr" v="616058" />
	</node>
	<node lat="61.02440000424476" lon="4.683316672110255" id="-76494">
		<tag k="name" v="Langevatnet" />
		<tag k="natural" v="water" />
		<tag k="ssr:stedsnr" v="616986" />
	</node>
	<node lat="61.10943333307459" lon="4.853980555799701" id="-76530">
		<tag k="alt_name" v="Kvernhusvatnet, s" />
		<tag k="name" v="Søre Kvernhusvatnet" />
		<tag k="natural" v="water" />
		<tag k="ssr:stedsnr" v="658141" />
	</node>
	<node lat="61.14519444293038" lon="5.066236105136997" id="-76539">
		<tag k="name" v="Fagerlivatnet" />
		<tag k="natural" v="water" />
		<tag k="ssr:stedsnr" v="676197" />
	</node>
	<node lat="61.03370278100421" lon="4.661308335364952" id="-76545">
		<tag k="name" v="Kvernhusvatnet" />
		<tag k="natural" v="water" />
		<tag k="ssr:stedsnr" v="676793" />
	</node>
	<node lat="61.16926944788086" lon="4.91698611983075" id="-76617">
		<tag k="name" v="Tvillingholmen" />
		<tag k="place" v="islet" />
		<tag k="ssr:stedsnr" v="894940" />
	</node>
	<node lat="61.122988884936845" lon="4.875602779671322" id="-76619">
		<tag k="name" v="Skolderumpa" />
		<tag k="ssr:stedsnr" v="894885" />
		<tag k="waterway" v="stream" />
	</node>
	<node lat="61.1511444466938" lon="4.929311105721459" id="-76680">
		<tag k="name" v="Styggetjørna" />
		<tag k="natural" v="water" />
		<tag k="ssr:stedsnr" v="737211" />
	</node>
	<node lat="61.20223888593971" lon="4.9217222234433144" id="-76681">
		<tag k="alt_name" v="Storeteigvatnet" />
		<tag k="name" v="Storteigvatnet" />
		<tag k="natural" v="water" />
		<tag k="ssr:stedsnr" v="737103" />
	</node>
	<node lat="61.04682222426087" lon="4.894416664234233" id="-76698">
		<tag k="name" v="Lomtjørna" />
		<tag k="natural" v="water" />
		<tag k="ssr:stedsnr" v="737454" />
	</node>
	<node lat="61.022880556364036" lon="4.660047231128355" id="-76711">
		<tag k="name" v="Langevatnet" />
		<tag k="natural" v="water" />
		<tag k="ssr:stedsnr" v="737956" />
	</node>
	<node lat="61.01339999787508" lon="4.687986107388533" id="-76721">
		<tag k="name" v="Breidalsvatnet" />
		<tag k="natural" v="water" />
		<tag k="ssr:stedsnr" v="771007" />
		<tag k="water" v="lake" />
	</node>
	<node lat="61.12727500131584" lon="4.886394444379306" id="-76736">
		<tag k="name" v="Grannelva" />
		<tag k="ssr:stedsnr" v="772871" />
		<tag k="waterway" v="stream" />
	</node>
	<node lat="61.20011666571629" lon="4.898799994924312" id="-76757">
		<tag k="name" v="Bjørkeskogvatnet" />
		<tag k="natural" v="water" />
		<tag k="ssr:stedsnr" v="798111" />
	</node>
	<node lat="61.0477644117293" lon="4.684098504702542" id="-76778">
		<tag k="alt_name" v="Vågsvatnet;Durstivatnet" />
		<tag k="name" v="Dyrstigvatnet" />
		<tag k="natural" v="water" />
		<tag k="ssr:stedsnr" v="798747" />
	</node>
	<node lat="61.146250003963814" lon="4.9324555635578795" id="-76796">
		<tag k="name" v="Storevika" />
		<tag k="natural" v="bay" />
		<tag k="ssr:stedsnr" v="918589" />
	</node>
	<node lat="61.040611112475695" lon="4.712869444440427" id="-76819">
		<tag k="alt_name" v="Lervikevatnet" />
		<tag k="name" v="Leirvikvatnet" />
		<tag k="natural" v="water" />
		<tag k="ssr:stedsnr" v="919784" />
	</node>
	<node lat="61.11244722546823" lon="4.857041658148395" id="-76856">
		<tag k="alt_name" v="Kvernhusvatnet, nordre" />
		<tag k="name" v="Nordre Kvernhusvatnet" />
		<tag k="natural" v="water" />
		<tag k="ssr:stedsnr" v="841140" />
	</node>
	<node lat="61.04096224749075" lon="4.6787744055980856" id="-76861">
		<tag k="alt_name" v="Revsvatnet" />
		<tag k="name" v="Røssvatnet" />
		<tag k="natural" v="water" />
		<tag k="ssr:stedsnr" v="858828" />
		<tag k="water" v="lake" />
	</node>
	<node lat="61.16354166988621" lon="4.919766665521859" id="-76866">
		<tag k="name" v="Hagevatnet" />
		<tag k="natural" v="water" />
		<tag k="ssr:stedsnr" v="859004" />
		<tag k="water" v="lake" />
	</node>
	<node lat="61.19456666794191" lon="4.921577780403212" id="-76869">
		<tag k="name" v="Larsskogvatnet" />
		<tag k="natural" v="water" />
		<tag k="ssr:stedsnr" v="859081" />
	</node>
	<node lat="61.20351666320197" lon="4.916636110301844" id="-76870">
		<tag k="name" v="Urdavatnet" />
		<tag k="natural" v="water" />
		<tag k="ssr:stedsnr" v="859091" />
	</node>
	<node lat="61.16327777837817" lon="4.972708324771178" id="-76874">
		<tag k="name" v="Fossevatnet" />
		<tag k="natural" v="water" />
		<tag k="ssr:stedsnr" v="859222" />
	</node>
	<node lat="61.04638744977212" lon="4.67000109698665" id="-76880">
		<tag k="alt_name" v="Storsund - Vatnet" />
		<tag k="name" v="Storsundvatnet" />
		<tag k="natural" v="water" />
		<tag k="ssr:stedsnr" v="859777" />
	</node>
	<node lat="61.03064722007246" lon="4.69646111483145" id="-76881">
		<tag k="alt_name" v="Storvatnet" />
		<tag k="name" v="Storevatnet" />
		<tag k="natural" v="water" />
		<tag k="ssr:stedsnr" v="859779" />
	</node>
	<node lat="61.053000002029485" lon="4.8416694349694795" id="-76945">
		<tag k="name" v="Hommandeholvatnet" />
		<tag k="natural" v="water" />
		<tag k="ssr:stedsnr" v="919265" />
	</node>
	<node lat="61.11788055598016" lon="4.865563885923793" id="-76948">
		<tag k="name" v="Øvre Langedalsvatnet" />
		<tag k="natural" v="water" />
		<tag k="ssr:stedsnr" v="919151" />
	</node>
	<node lat="61.101013888038345" lon="4.9638500077023515" id="-76964">
		<tag k="name" v="Kråkåsvatnet" />
		<tag k="natural" v="water" />
		<tag k="ssr:stedsnr" v="920341" />
	</node>
	<node lat="61.1066083334134" lon="4.907813881046381" id="-76965">
		<tag k="name" v="Måsevatnet" />
		<tag k="natural" v="water" />
		<tag k="ssr:stedsnr" v="920345" />
	</node>
	<node lat="61.046600000932905" lon="4.7583638836563695" id="-76966">
		<tag k="name" v="Eikelivatnet" />
		<tag k="natural" v="water" />
		<tag k="ssr:stedsnr" v="920451" />
	</node>
	<node lat="61.087844446829045" lon="4.924102768985109" id="-76980">
		<tag k="name" v="Lomtjørna" />
		<tag k="natural" v="water" />
		<tag k="ssr:stedsnr" v="954205" />
	</node>
	<node lat="61.138827774826346" lon="5.076883340708677" id="-76997">
		<tag k="name" v="Tjørnane" />
		<tag k="natural" v="water" />
		<tag k="ssr:stedsnr" v="956024" />
		<tag k="water" v="lake" />
	</node>
	<node lat="61.19838333592832" lon="4.904466668486736" id="-77032">
		<tag k="name" v="Slettevatnet" />
		<tag k="natural" v="water" />
		<tag k="ssr:stedsnr" v="9061" />
	</node>
	<node lat="61.131258329594914" lon="4.848586118276395" id="-77036">
		<tag k="name" v="Svartevatnet" />
		<tag k="natural" v="water" />
		<tag k="ssr:stedsnr" v="9154" />
	</node>
	<node lat="61.108180559809995" lon="4.969027780153328" id="-77064">
		<tag k="alt_name" v="Dingemortjørna" />
		<tag k="name" v="Dingemyrtjørna" />
		<tag k="natural" v="water" />
		<tag k="ssr:stedsnr" v="9353" />
	</node>
	<node lat="61.10470555934976" lon="4.880177780330393" id="-77066">
		<tag k="name" v="Hestegardsvatnet" />
		<tag k="natural" v="water" />
		<tag k="ssr:stedsnr" v="9357" />
	</node>
	<node lat="61.20881388471399" lon="4.901599997880975" id="-77073">
		<tag k="name" v="Kvernhusvatnet" />
		<tag k="natural" v="water" />
		<tag k="ssr:stedsnr" v="9924" />
	</node>
	<node lat="61.01897222454542" lon="4.69604444862885" id="-77083">
		<tag k="name" v="Ospevatnet" />
		<tag k="natural" v="water" />
		<tag k="ssr:stedsnr" v="9961" />
	</node>
	<node lat="61.04652500025898" lon="4.77543333415769" id="-77098">
		<tag k="name" v="Nipevatnet" />
		<tag k="natural" v="water" />
		<tag k="ssr:stedsnr" v="43733" />
		<tag k="water" v="lake" />
	</node>
	<node lat="61.1349055596893" lon="4.936730554997128" id="-77100">
		<tag k="name" v="Lendet" />
		<tag k="natural" v="bay" />
		<tag k="ssr:stedsnr" v="43746" />
	</node>
	<node lat="61.06961389221835" lon="4.798916673816985" id="-77120">
		<tag k="name" v="Floholmsvatnet" />
		<tag k="natural" v="water" />
		<tag k="ssr:stedsnr" v="44607" />
		<tag k="water" v="lake" />
	</node>
	<node lat="61.19841110883349" lon="4.966155557732868" id="-77125">
		<tag k="name" v="Lomtjørna" />
		<tag k="natural" v="water" />
		<tag k="ssr:stedsnr" v="44356" />
	</node>
	<node lat="61.061386111446446" lon="4.82743056373037" id="-77128">
		<tag k="name" v="Geitetjørna" />
		<tag k="natural" v="water" />
		<tag k="ssr:stedsnr" v="44650" />
		<tag k="water" v="lake" />
	</node>
	<node lat="61.17151388495307" lon="4.913766660335648" id="-77138">
		<tag k="name" v="Storevika" />
		<tag k="natural" v="bay" />
		<tag k="ssr:stedsnr" v="44933" />
	</node>
	<node lat="61.119211115194794" lon="4.871225001007731" id="-77152">
		<tag k="alt_name" v="Langedalsvatnet, nedre" />
		<tag k="name" v="Nedre Langedalsvatnet" />
		<tag k="natural" v="water" />
		<tag k="ssr:stedsnr" v="52162" />
	</node>
	<node lat="61.173622218439945" lon="4.92192499248224" id="-77161">
		<tag k="name" v="Skogadalsvika" />
		<tag k="natural" v="bay" />
		<tag k="ssr:stedsnr" v="70045" />
	</node>
	<node lat="61.11978055779676" lon="4.934061105771569" id="-77172">
		<tag k="name" v="Tjørndalstjørna" />
		<tag k="natural" v="water" />
		<tag k="ssr:stedsnr" v="70124" />
	</node>
	<node lat="61.06888055608097" lon="4.770447231170568" id="-77177">
		<tag k="alt_name" v="Skippersvatnet" />
		<tag k="name" v="Skipersvatnet" />
		<tag k="natural" v="water" />
		<tag k="ssr:stedsnr" v="70266" />
	</node>
	<node lat="61.12914166964724" lon="4.895211113745822" id="-77183">
		<tag k="name" v="Storevatnet" />
		<tag k="natural" v="water" />
		<tag k="ssr:stedsnr" v="70162" />
	</node>
	<node lat="61.14186944237909" lon="4.932963892889526" id="-77185">
		<tag k="name" v="Mjåsundet" />
		<tag k="natural" v="strait" />
		<tag k="ssr:stedsnr" v="70171" />
	</node>
	<node lat="61.05849166402964" lon="4.896577774606315" id="-77265">
		<tag k="alt_name" v="Mjølkevatnet" />
		<tag k="name" v="Mjelkediket" />
		<tag k="natural" v="water" />
		<tag k="ssr:stedsnr" v="130255" />
	</node>
	<node lat="61.16399722683011" lon="4.98813611773961" id="-77276">
		<tag k="name" v="Krokvatnet" />
		<tag k="natural" v="water" />
		<tag k="ssr:stedsnr" v="130219" />
	</node>
	<node lat="61.132499996600714" lon="4.845763892155016" id="-77286">
		<tag k="alt_name" v="Lambtjørna" />
		<tag k="name" v="Lomtjørna" />
		<tag k="natural" v="water" />
		<tag k="ssr:stedsnr" v="130156" />
	</node>
	<node lat="61.0699138910804" lon="4.698194435693453" id="-77291">
		<tag k="name" v="Lyngbakkevatnet" />
		<tag k="natural" v="water" />
		<tag k="ssr:stedsnr" v="130734" />
	</node>
	<node lat="61.05218889071229" lon="4.7466194527893295" id="-77302">
		<tag k="name" v="Holevatnet" />
		<tag k="natural" v="water" />
		<tag k="ssr:stedsnr" v="164036" />
		<tag k="water" v="lake" />
	</node>
	<node lat="61.08261110969756" lon="4.765672214501318" id="-77333">
		<tag k="name" v="Stokkevågtjørna" />
		<tag k="natural" v="water" />
		<tag k="ssr:stedsnr" v="165975" />
	</node>
	<node lat="61.20152778104832" lon="4.773500007799152" id="-77337">
		<tag k="name" v="Flovatnet" />
		<tag k="natural" v="water" />
		<tag k="ssr:stedsnr" v="166455" />
		<tag k="water" v="lake" />
	</node>
	<node lat="61.09869444484664" lon="4.8444861111845" id="-77357">
		<tag k="name" v="Råkevatnet" />
		<tag k="natural" v="water" />
		<tag k="ssr:stedsnr" v="191341" />
	</node>
	<node lat="61.01513611338933" lon="4.7238138959451295" id="-77360">
		<tag k="alt_name" v="Svedalsvatnet" />
		<tag k="name" v="Sviddalsvatnet" />
		<tag k="natural" v="water" />
		<tag k="ssr:stedsnr" v="191419" />
	</node>
	<node lat="61.14953888439345" lon="4.971074993043786" id="-77365">
		<tag k="name" v="Hansneset" />
		<tag k="natural" v="cape" />
		<tag k="ssr:stedsnr" v="191197" />
	</node>
	<node lat="61.15677778094987" lon="4.986561104344942" id="-77366">
		<tag k="name" v="Espevatnet" />
		<tag k="natural" v="water" />
		<tag k="ssr:stedsnr" v="191201" />
	</node>
	<node lat="61.16255833183586" lon="4.877836112265345" id="-77369">
		<tag k="fixme" v="multiple name tags, choose one and add the other to alt_name" />
		<tag k="name" v="Hamnavatnet;Kvernhusvatnet" />
		<tag k="natural" v="water" />
		<tag k="ssr:stedsnr" v="191024" />
	</node>
	<node lat="61.17298611570353" lon="4.992055558193191" id="-77371">
		<tag k="name" v="Storevikvatnet" />
		<tag k="natural" v="water" />
		<tag k="ssr:stedsnr" v="191037" />
	</node>
	<node lat="61.07294722620182" lon="4.704444436711866" id="-77390">
		<tag k="alt_name" v="Austingstjørnane" />
		<tag k="name" v="Austingstjørna" />
		<tag k="natural" v="water" />
		<tag k="ssr:stedsnr" v="191739" />
	</node>
	<node lat="61.03588055462929" lon="4.674858336527103" id="-77393">
		<tag k="name" v="Svidalsvatnet" />
		<tag k="natural" v="water" />
		<tag k="ssr:stedsnr" v="191761" />
	</node>
	<node lat="61.03949444321124" lon="4.702619447311926" id="-77395">
		<tag k="alt_name" v="Hestdalvatnet" />
		<tag k="name" v="Hestdalsvatnet" />
		<tag k="natural" v="water" />
		<tag k="ssr:stedsnr" v="191766" />
	</node>
	<node lat="61.03008610687768" lon="4.714402783652493" id="-77401">
		<tag k="name" v="Skogavatnet" />
		<tag k="natural" v="water" />
		<tag k="ssr:stedsnr" v="191925" />
	</node>
	<node lat="61.08273055561747" lon="4.732588894649392" id="-77413">
		<tag k="name" v="Sauenesvatnet" />
		<tag k="natural" v="water" />
		<tag k="ssr:stedsnr" v="226205" />
		<tag k="water" v="lake" />
	</node>
	<node lat="61.0695194461328" lon="4.787880555536967" id="-77432">
		<tag k="name" v="Styggetjørn" />
		<tag k="natural" v="water" />
		<tag k="ssr:stedsnr" v="226652" />
	</node>
	<node lat="61.05065000308569" lon="4.877758324046198" id="-77440">
		<tag k="name" v="Lona" />
		<tag k="natural" v="water" />
		<tag k="ssr:stedsnr" v="226270" />
		<tag k="water" v="lake" />
	</node>
	<node lat="61.053222226297954" lon="4.881513887404749" id="-77441">
		<tag k="name" v="Graslonene" />
		<tag k="natural" v="water" />
		<tag k="ssr:stedsnr" v="226272" />
		<tag k="water" v="lake" />
	</node>
	<node lat="61.172347219778445" lon="4.915816658638711" id="-77456">
		<tag k="name" v="Nesjane" />
		<tag k="natural" v="beach" />
		<tag k="ssr:stedsnr" v="226951" />
	</node>
	<node lat="61.20448113035612" lon="4.775753233312737" id="-77465">
		<tag k="name" v="Nordre Kvernhusvatnet" />
		<tag k="natural" v="water" />
		<tag k="ssr:stedsnr" v="227456" />
		<tag k="water" v="lake" />
	</node>
	<node lat="61.0221805544954" lon="4.672199994673169" id="-77475">
		<tag k="name" v="Kvernhusvatnet" />
		<tag k="natural" v="water" />
		<tag k="ssr:stedsnr" v="286057" />
		<tag k="water" v="lake" />
	</node>
	<node lat="61.194730558672276" lon="4.928788883805635" id="-77478">
		<tag k="name" v="Storeskogvatnet" />
		<tag k="natural" v="water" />
		<tag k="ssr:stedsnr" v="286400" />
		<tag k="water" v="lake" />
	</node>
	<node lat="61.13326388610911" lon="4.83505277378707" id="-77490">
		<tag k="name" v="Barbraelva" />
		<tag k="ssr:stedsnr" v="287068" />
		<tag k="waterway" v="stream" />
	</node>
	<node lat="61.21516110943109" lon="4.760347215734468" id="-77493">
		<tag k="name" v="Isbjørna" />
		<tag k="natural" v="water" />
		<tag k="ssr:stedsnr" v="287151" />
	</node>
	<node lat="61.11932222630861" lon="4.905166666459963" id="-77516">
		<tag k="name" v="Hølen" />
		<tag k="natural" v="water" />
		<tag k="ssr:stedsnr" v="288989" />
	</node>
	<node lat="61.17243610893188" lon="4.871555553255945" id="-77558">
		<tag k="name" v="Kloppevatnet" />
		<tag k="natural" v="water" />
		<tag k="ssr:stedsnr" v="313045" />
	</node>
	<node lat="61.142063885504506" lon="4.8616361133531605" id="-77600">
		<tag k="name" v="Moane" />
		<tag k="natural" v="cape" />
		<tag k="ssr:stedsnr" v="347183" />
	</node>
	<node lat="61.15576388655991" lon="4.968683324997064" id="-77615">
		<tag k="name" v="Mjåsundet" />
		<tag k="natural" v="strait" />
		<tag k="ssr:stedsnr" v="348885" />
	</node>
	<node lat="61.194455554506625" lon="4.980905562644634" id="-77644">
		<tag k="fixme" v="multiple name tags, choose one and add the other to alt_name" />
		<tag k="name" v="Sandbotnvatnet;Storevatnet" />
		<tag k="natural" v="water" />
		<tag k="ssr:stedsnr" v="373071" />
	</node>
	<node lat="61.16054444081873" lon="4.9944166748311485" id="-77650">
		<tag k="name" v="Herpefruvatnet" />
		<tag k="natural" v="water" />
		<tag k="ssr:stedsnr" v="373228" />
	</node>
	<node lat="61.05055278085218" lon="4.768869439947764" id="-77652">
		<tag k="name" v="Merkingsvatnet" />
		<tag k="natural" v="water" />
		<tag k="ssr:stedsnr" v="373244" />
	</node>
	<node lat="61.13004166430532" lon="5.0669166705715725" id="-77656">
		<tag k="name" v="Vadvatnet" />
		<tag k="natural" v="water" />
		<tag k="ssr:stedsnr" v="373136" />
	</node>
	<node lat="61.13585277410908" lon="4.978213895958947" id="-77657">
		<tag k="name" v="Dingedalslona" />
		<tag k="natural" v="water" />
		<tag k="ssr:stedsnr" v="373140" />
	</node>
	<node lat="61.10885833275871" lon="4.9794361033163295" id="-77663">
		<tag k="alt_name" v="Steinskartjørna" />
		<tag k="name" v="Steinskardtjørna" />
		<tag k="natural" v="water" />
		<tag k="ssr:stedsnr" v="373355" />
	</node>
	<node lat="61.10681110758304" lon="4.993405560679102" id="-77664">
		<tag k="name" v="Dyreråstjørna" />
		<tag k="natural" v="water" />
		<tag k="ssr:stedsnr" v="373356" />
	</node>
	<node lat="61.05834444130288" lon="4.6999527845755456" id="-77671">
		<tag k="name" v="Otretjørna" />
		<tag k="natural" v="water" />
		<tag k="ssr:stedsnr" v="373771" />
	</node>
	<node lat="61.035116669265825" lon="4.689958335900947" id="-77675">
		<tag k="name" v="Storskortjørna" />
		<tag k="natural" v="water" />
		<tag k="ssr:stedsnr" v="373791" />
	</node>
	<node lat="61.01500555437119" lon="4.676630562922965" id="-77683">
		<tag k="name" v="Måsevatnet" />
		<tag k="natural" v="water" />
		<tag k="ssr:stedsnr" v="373969" />
	</node>
	<node lat="61.07523333313691" lon="4.735141672009564" id="-77730">
		<tag k="name" v="Gåsetjørna" />
		<tag k="natural" v="water" />
		<tag k="ssr:stedsnr" v="408219" />
	</node>
	<node lat="61.128297223320395" lon="4.899866673482305" id="-77732">
		<tag k="name" v="Litleidet" />
		<tag k="place" v="locality" />
		<tag k="ssr:stedsnr" v="408873" />
	</node>
	<node lat="61.042491665017174" lon="4.773299999792303" id="-77741">
		<tag k="name" v="Indre Hola" />
		<tag k="natural" v="beach" />
		<tag k="ssr:stedsnr" v="408776" />
	</node>
	<node lat="61.12963889084865" lon="5.087950007719222" id="-77751">
		<tag k="name" v="Totlandselva" />
		<tag k="ssr:stedsnr" v="410516" />
		<tag k="waterway" v="stream" />
	</node>
	<node lat="61.14344166278367" lon="4.975516664479297" id="-77753">
		<tag k="alt_name" v="Engevikvatnet, s" />
		<tag k="name" v="Søre Engevikvatnet" />
		<tag k="natural" v="water" />
		<tag k="ssr:stedsnr" v="416177" />
	</node>
	<node lat="61.03089722360469" lon="4.6873638858281295" id="-77766">
		<tag k="alt_name" v="Strandevatnet" />
		<tag k="name" v="Strandavatnet" />
		<tag k="natural" v="water" />
		<tag k="ssr:stedsnr" v="434757" />
	</node>
	<node lat="61.086122218340094" lon="4.84173610743948" id="-77772">
		<tag k="fixme" v="multiple name tags, choose one and add the other to alt_name" />
		<tag k="name" v="Kvernhusvatnet;Småvatnet" />
		<tag k="natural" v="water" />
		<tag k="ssr:stedsnr" v="434298" />
	</node>
	<node lat="61.05683889043498" lon="4.894213885643295" id="-77784">
		<tag k="alt_name" v="Mevatnet" />
		<tag k="name" v="Medvatnet" />
		<tag k="natural" v="water" />
		<tag k="ssr:stedsnr" v="434246" />
	</node>
	<node lat="61.03107499604593" lon="4.725150007828486" id="-77788">
		<tag k="alt_name" v="Håsvatnet" />
		<tag k="name" v="Horsvatnet" />
		<tag k="natural" v="water" />
		<tag k="ssr:stedsnr" v="434447" />
	</node>
	<node lat="61.03852499958508" lon="4.775219437965104" id="-77790">
		<tag k="name" v="Nipevatnet" />
		<tag k="natural" v="water" />
		<tag k="ssr:stedsnr" v="434457" />
	</node>
	<node lat="61.02318333129644" lon="4.66615555401596" id="-77800">
		<tag k="name" v="Grindevatnet" />
		<tag k="natural" v="water" />
		<tag k="ssr:stedsnr" v="434944" />
	</node>
	<node lat="61.02165277587676" lon="4.6921027808464695" id="-77801">
		<tag k="alt_name" v="Skåpvatnet" />
		<tag k="name" v="Skåptjørna" />
		<tag k="natural" v="water" />
		<tag k="ssr:stedsnr" v="434946" />
	</node>
	<node lat="61.14327778029906" lon="4.977413881306951" id="-77808">
		<tag k="name" v="Bukkeholmen" />
		<tag k="place" v="islet" />
		<tag k="ssr:stedsnr" v="508968" />
	</node>
	<node lat="61.02015278205799" lon="4.680169438371274" id="-77817">
		<tag k="name" v="Grasdalvatnet" />
		<tag k="natural" v="water" />
		<tag k="ssr:stedsnr" v="528017" />
	</node>
	<node lat="61.06494444108561" lon="4.781450005136795" id="-77821">
		<tag k="name" v="Ytre Krokevassneset" />
		<tag k="natural" v="cape" />
		<tag k="ssr:stedsnr" v="529556" />
	</node>
	<node lat="61.02040277557711" lon="4.696916676147894" id="-77825">
		<tag k="name" v="Småtjørna" />
		<tag k="natural" v="water" />
		<tag k="ssr:stedsnr" v="528850" />
	</node>
	<node lat="61.15206812840059" lon="4.86501997299941" id="-77829">
		<tag k="name" v="Kvernhusvatnet" />
		<tag k="natural" v="water" />
		<tag k="ssr:stedsnr" v="528918" />
		<tag k="water" v="lake" />
	</node>
	<node lat="61.05499444802733" lon="4.744427777971149" id="-77834">
		<tag k="name" v="Holevatnet" />
		<tag k="natural" v="water" />
		<tag k="ssr:stedsnr" v="529163" />
		<tag k="water" v="lake" />
	</node>
	<node lat="61.199986113325636" lon="4.9217000001423745" id="-77838">
		<tag k="name" v="Storeteigen" />
		<tag k="natural" v="water" />
		<tag k="ssr:stedsnr" v="529387" />
		<tag k="water" v="lake" />
	</node>
	<node lat="61.06533888857878" lon="4.799605553098842" id="-77839">
		<tag k="name" v="Lifjellsvatnet" />
		<tag k="natural" v="water" />
		<tag k="ssr:stedsnr" v="529593" />
		<tag k="water" v="lake" />
	</node>
	<node lat="61.20133333451447" lon="4.8714083388474725" id="-77845">
		<tag k="name" v="Buskøyvatnet" />
		<tag k="natural" v="water" />
		<tag k="ssr:stedsnr" v="529463" />
		<tag k="water" v="lake" />
	</node>
	<node lat="61.03536944277029" lon="4.769111109167773" id="-77846">
		<tag k="name" v="Fugletjørna" />
		<tag k="natural" v="water" />
		<tag k="ssr:stedsnr" v="529763" />
	</node>
	<node lat="61.143211108633665" lon="4.98023611033424" id="-77854">
		<tag k="name" v="Storedalsneset" />
		<tag k="natural" v="cape" />
		<tag k="ssr:stedsnr" v="530947" />
	</node>
	<node lat="61.11850278116804" lon="4.890186102762993" id="-77860">
		<tag k="name" v="Kloppetjørna" />
		<tag k="natural" v="water" />
		<tag k="ssr:stedsnr" v="530868" />
	</node>
	<node lat="61.141852773626844" lon="5.055477773950343" id="-77870">
		<tag k="alt_name" v="Knutsvatnet" />
		<tag k="name" v="Knutevatnet" />
		<tag k="natural" v="water" />
		<tag k="ssr:stedsnr" v="554207" />
	</node>
	<node lat="61.08312247047445" lon="4.855126268498511" id="-77887">
		<tag k="name" v="Storevatnet" />
		<tag k="natural" v="water" />
		<tag k="ssr:stedsnr" v="555280" />
		<tag k="water" v="lake" />
	</node>
	<node lat="61.06429167082796" lon="4.782302770196655" id="-77891">
		<tag k="name" v="Krokevatnet" />
		<tag k="natural" v="water" />
		<tag k="ssr:stedsnr" v="555241" />
	</node>
	<node lat="61.07590457617405" lon="4.690788855203997" id="-77898">
		<tag k="name" v="Janvatnet" />
		<tag k="natural" v="water" />
		<tag k="ssr:stedsnr" v="555726" />
	</node>
	<node lat="61.051477776506864" lon="4.6741749981745535" id="-77901">
		<tag k="name" v="Svartevatnet" />
		<tag k="natural" v="water" />
		<tag k="ssr:stedsnr" v="555775" />
	</node>
	<node lat="61.14797777872435" lon="4.916733342064964" id="-77930">
		<tag k="name" v="Indre Kvernhusvatnet" />
		<tag k="natural" v="water" />
		<tag k="ssr:stedsnr" v="589883" />
		<tag k="water" v="lake" />
	</node>
	<node lat="61.21148611077046" lon="4.760794445540452" id="-77941">
		<tag k="name" v="Otervatnet" />
		<tag k="natural" v="water" />
		<tag k="ssr:stedsnr" v="590148" />
	</node>
	<node lat="61.16755833650552" lon="4.913277768608071" id="-77949">
		<tag k="name" v="Søre Vassenden" />
		<tag k="natural" v="bay" />
		<tag k="ssr:stedsnr" v="590931" />
	</node>
	<node lat="61.16581111014102" lon="4.9162527797163165" id="-77980">
		<tag k="name" v="Måseneset" />
		<tag k="natural" v="cape" />
		<tag k="ssr:stedsnr" v="615027" />
	</node>
	<node lat="61.13133888821906" lon="4.8859444409546136" id="-77985">
		<tag k="name" v="Lonene" />
		<tag k="natural" v="water" />
		<tag k="ssr:stedsnr" v="615163" />
	</node>
	<node lat="61.09906110778857" lon="4.983727782841018" id="-77988">
		<tag k="name" v="Svartevatnet" />
		<tag k="natural" v="water" />
		<tag k="ssr:stedsnr" v="615291" />
	</node>
	<node lat="61.14130278126617" lon="4.995836110744103" id="-78001">
		<tag k="name" v="Hamnavatnet" />
		<tag k="natural" v="water" />
		<tag k="ssr:stedsnr" v="616181" />
	</node>
	<node lat="61.15185833394178" lon="4.996525003369782" id="-78007">
		<tag k="name" v="Skorsvatnet" />
		<tag k="natural" v="water" />
		<tag k="ssr:stedsnr" v="616201" />
	</node>
	<node lat="61.05947777853663" lon="4.765580563678771" id="-78009">
		<tag k="name" v="Storevatnet" />
		<tag k="natural" v="water" />
		<tag k="ssr:stedsnr" v="616234" />
	</node>
	<node lat="61.061413319523304" lon="4.786243209314676" id="-78014">
		<tag k="name" v="Klubbevatnet" />
		<tag k="natural" v="water" />
		<tag k="ssr:stedsnr" v="616284" />
	</node>
	<node lat="61.20617777470397" lon="4.7726583252687815" id="-78029">
		<tag k="name" v="Kvernhusvatnet" />
		<tag k="natural" v="water" />
		<tag k="ssr:stedsnr" v="651019" />
	</node>
	<node lat="61.153544445427734" lon="4.884213891609958" id="-78096">
		<tag k="name" v="Kattetjørna" />
		<tag k="natural" v="water" />
		<tag k="ssr:stedsnr" v="711870" />
	</node>
	<node lat="61.19578333006415" lon="4.871022217860142" id="-78099">
		<tag k="name" v="Vassøyvatnet" />
		<tag k="natural" v="water" />
		<tag k="ssr:stedsnr" v="712405" />
		<tag k="water" v="lake" />
	</node>
	<node lat="61.16069722027991" lon="4.998677777586019" id="-78129">
		<tag k="name" v="Dammen" />
		<tag k="natural" v="water" />
		<tag k="ssr:stedsnr" v="737219" />
	</node>
	<node lat="61.06833610986383" lon="4.934544435500204" id="-78132">
		<tag k="name" v="Kvernhusvatnet" />
		<tag k="natural" v="water" />
		<tag k="ssr:stedsnr" v="737242" />
	</node>
	<node lat="61.072733333707305" lon="4.812038896155304" id="-78137">
		<tag k="name" v="Steinsundvatnet" />
		<tag k="natural" v="water" />
		<tag k="ssr:stedsnr" v="737263" />
	</node>
	<node lat="61.07169444306109" lon="4.778736119948927" id="-78140">
		<tag k="alt_name" v="Vedtjørnane" />
		<tag k="name" v="Vedtjørna" />
		<tag k="natural" v="water" />
		<tag k="ssr:stedsnr" v="737273" />
	</node>
	<node lat="61.085713888675436" lon="4.775083334444027" id="-78145">
		<tag k="name" v="Kvernhusvatnet" />
		<tag k="natural" v="water" />
		<tag k="ssr:stedsnr" v="737344" />
	</node>
	<node lat="61.017709035415265" lon="4.704286288382612" id="-78177">
		<tag k="name" v="Krokevatnet" />
		<tag k="natural" v="water" />
		<tag k="ssr:stedsnr" v="772794" />
		<tag k="water" v="lake" />
	</node>
	<node lat="61.164955557875956" lon="4.9663611184473915" id="-78179">
		<tag k="name" v="Vassenden" />
		<tag k="natural" v="bay" />
		<tag k="ssr:stedsnr" v="772998" />
	</node>
	<node lat="61.140844446106" lon="4.959413882632732" id="-78184">
		<tag k="name" v="Timredalstjørna" />
		<tag k="natural" v="water" />
		<tag k="ssr:stedsnr" v="772942" />
	</node>
	<node lat="61.169741666095256" lon="4.912188895874115" id="-78204">
		<tag k="name" v="Vassenden" />
		<tag k="natural" v="bay" />
		<tag k="ssr:stedsnr" v="798036" />
	</node>
	<node lat="61.1215305578764" lon="4.89919166674466" id="-78207">
		<tag k="name" v="Kvernhusvatnet" />
		<tag k="natural" v="water" />
		<tag k="ssr:stedsnr" v="798135" />
	</node>
	<node lat="61.12527274338258" lon="4.963252234036469" id="-78208">
		<tag k="fixme" v="multiple name tags, choose one and add the other to alt_name" />
		<tag k="name" v="Kvernhusvatnet;Kjøvatnet" />
		<tag k="natural" v="water" />
		<tag k="ssr:stedsnr" v="798136" />
		<tag k="water" v="lake" />
	</node>
	<node lat="61.14842499671505" lon="4.959999995785233" id="-78211">
		<tag k="name" v="Kvernhusvatnet" />
		<tag k="natural" v="water" />
		<tag k="ssr:stedsnr" v="798218" />
	</node>
	<node lat="61.077244268240015" lon="4.695549757796636" id="-78231">
		<tag k="name" v="Olavatnet" />
		<tag k="natural" v="water" />
		<tag k="ssr:stedsnr" v="798717" />
	</node>
	<node lat="61.07041486533654" lon="4.690656011066404" id="-78233">
		<tag k="alt_name" v="Kroktjørnane" />
		<tag k="name" v="Kroktjørna" />
		<tag k="natural" v="water" />
		<tag k="ssr:stedsnr" v="798735" />
		<tag k="water" v="lake" />
	</node>
	<node lat="61.214969444830416" lon="4.8314722221243125" id="-78246">
		<tag k="name" v="Vikavatnet" />
		<tag k="natural" v="water" />
		<tag k="ssr:stedsnr" v="798886" />
	</node>
	<node lat="61.083880554579416" lon="4.838844448394658" id="-78253">
		<tag k="name" v="Hardbakketjørna" />
		<tag k="natural" v="water" />
		<tag k="ssr:stedsnr" v="832827" />
	</node>
	<node lat="61.01744722440788" lon="4.731941667290085" id="-78287">
		<tag k="name" v="Rekedalstjørna" />
		<tag k="natural" v="water" />
		<tag k="ssr:stedsnr" v="833806" />
	</node>
	<node lat="61.166183335284046" lon="4.957325004145162" id="-78298">
		<tag k="name" v="Urtegardslona" />
		<tag k="natural" v="bay" />
		<tag k="ssr:stedsnr" v="833987" />
	</node>
	<node lat="61.160666670034644" lon="4.960008331669375" id="-78308">
		<tag k="name" v="Grønelineset" />
		<tag k="natural" v="cape" />
		<tag k="ssr:stedsnr" v="834937" />
	</node>
	<node lat="61.14302777735326" lon="4.861266666937106" id="-78337">
		<tag k="name" v="Dalevatnet" />
		<tag k="natural" v="water" />
		<tag k="ssr:stedsnr" v="859191" />
	</node>
	<node lat="61.056647219191824" lon="4.849241665455377" id="-78350">
		<tag k="alt_name" v="Hatlevikvatnet" />
		<tag k="name" v="Haslevikvatnet" />
		<tag k="natural" v="water" />
		<tag k="ssr:stedsnr" v="859252" />
	</node>
	<node lat="61.029100004390756" lon="4.694983336522232" id="-78368">
		<tag k="name" v="Gardavatnet" />
		<tag k="natural" v="water" />
		<tag k="ssr:stedsnr" v="859933" />
	</node>
	<node lat="61.01568333347277" lon="4.691894436514532" id="-78370">
		<tag k="alt_name" v="Aure - Tjørna" />
		<tag k="name" v="Auretjørna" />
		<tag k="natural" v="water" />
		<tag k="ssr:stedsnr" v="859944" />
	</node>
	<node lat="61.08726666257905" lon="4.837955560855932" id="-78403">
		<tag k="name" v="Kvernhuselva" />
		<tag k="ssr:stedsnr" v="953836" />
		<tag k="waterway" v="stream" />
	</node>
	<node lat="61.13366944529673" lon="4.894119437302531" id="-78410">
		<tag k="name" v="Bargarvika" />
		<tag k="natural" v="bay" />
		<tag k="ssr:stedsnr" v="954876" />
	</node>
	<node lat="61.072538887864425" lon="4.923647228198131" id="-78413">
		<tag k="name" v="Synningetjørna" />
		<tag k="natural" v="water" />
		<tag k="ssr:stedsnr" v="954212" />
	</node>
	<node lat="61.06000833264724" lon="4.9011694399287045" id="-78414">
		<tag k="name" v="Leirgrova" />
		<tag k="ssr:stedsnr" v="954218" />
		<tag k="waterway" v="stream" />
	</node>
	<node lat="61.18678888887107" lon="4.972913886534331" id="-78415">
		<tag k="name" v="Mørketjørna" />
		<tag k="natural" v="water" />
		<tag k="ssr:stedsnr" v="954308" />
	</node>
	<node lat="61.08616111388241" lon="4.790069446395522" id="-78424">
		<tag k="name" v="Trollholeelva" />
		<tag k="ssr:stedsnr" v="954788" />
		<tag k="waterway" v="stream" />
	</node>
	<node lat="61.16621111297823" lon="4.960725006141427" id="-78425">
		<tag k="name" v="Endrebottlona" />
		<tag k="natural" v="bay" />
		<tag k="ssr:stedsnr" v="954980" />
	</node>
	<node lat="61.1458833345008" lon="4.969933335453542" id="-78437">
		<tag k="name" v="Lona" />
		<tag k="natural" v="water" />
		<tag k="ssr:stedsnr" v="955906" />
		<tag k="water" v="lake" />
	</node>
	<node lat="61.09283055369275" lon="4.972919442724926" id="-78438">
		<tag k="name" v="Litle Mjåtjørna" />
		<tag k="natural" v="water" />
		<tag k="ssr:stedsnr" v="955920" />
	</node>
	<node lat="61.15791944434082" lon="4.874869438588429" id="-78442">
		<tag k="alt_name" v="Vadvatnet, in" />
		<tag k="name" v="Indre Vadvatnet" />
		<tag k="natural" v="water" />
		<tag k="ssr:stedsnr" v="962001" />
	</node>
	<node lat="61.062083488130106" lon="4.836784874625392" id="-78514">
		<tag k="name" v="Klubbevatnet" />
		<tag k="natural" v="water" />
		<tag k="ssr:stedsnr" v="1072774" />
	</node>
</osm>
