<?xml version="1.0" encoding="UTF-8"?>
<osm version="0.6" generator="osmapis">
	<node id="2351110212" lat="65.266075" lon="12.114744" version="3" timestamp="2022-07-18T16:20:13Z" changeset="123771104" uid="3497659" user="NKA">
		<tag k="name" v="Buvika" />
		<tag k="place" v="farm" />
		<tag k="ssr:stedsnr" v="682378" />
	</node>
	<node id="2609756290" lat="65.3675665" lon="12.1980343" version="5" timestamp="2022-07-18T16:20:13Z" changeset="123771104" uid="3497659" user="NKA">
		<tag k="name" v="Berg" />
		<tag k="place" v="village" />
		<tag k="population" v="608" />
		<tag k="population:date" v="2021-01-01" />
		<tag k="ref:ssb_tettsted" v="7532" />
		<tag k="source:population" v="SSB - befolkning i tettstedet" />
		<tag k="ssr:stedsnr" v="500252" />
	</node>
	<node id="2609837134" lat="65.3308717" lon="12.3570708" version="3" timestamp="2022-07-18T16:20:13Z" changeset="123771104" uid="3497659" user="NKA">
		<tag k="name" v="Homborneset" />
		<tag k="place" v="hamlet" />
		<tag k="ssr:stedsnr" v="439329" />
	</node>
	<node id="2610037084" lat="65.3117843" lon="12.1677243" version="7" timestamp="2022-07-18T16:20:13Z" changeset="123771104" uid="3497659" user="NKA">
		<tag k="alt_name" v="Sømna" />
		<tag k="name" v="Vik" />
		<tag k="name:sma" v="Sïebne" />
		<tag k="place" v="village" />
		<tag k="population" v="357" />
		<tag k="population:date" v="2021-01-01" />
		<tag k="ref:ssb_tettsted" v="7531" />
		<tag k="source:population" v="SSB - befolkning i tettstedet" />
		<tag k="ssr:stedsnr" v="864164" />
	</node>
	<node id="2611616309" lat="65.2729134" lon="12.2504004" version="2" timestamp="2022-07-18T16:20:13Z" changeset="123771104" uid="3497659" user="NKA">
		<tag k="name" v="Olsvika" />
		<tag k="place" v="hamlet" />
		<tag k="ssr:stedsnr" v="560209" />
	</node>
	<node id="2635100280" lat="65.2167228" lon="12.0448481" version="2" timestamp="2022-07-18T16:20:13Z" changeset="123771104" uid="3497659" user="NKA">
		<tag k="name" v="Vennesund" />
		<tag k="place" v="hamlet" />
		<tag k="ssr:stedsnr" v="317759" />
	</node>
	<node id="5846849948" lat="65.2387585" lon="12.1151133" version="3" timestamp="2022-07-18T16:20:13Z" changeset="123771104" uid="3497659" user="NKA">
		<tag k="name" v="Sund" />
		<tag k="place" v="hamlet" />
		<tag k="ssr:stedsnr" v="14799" />
	</node>
	<node id="9895551615" lat="65.2311222" lon="12.0869704" version="1" timestamp="2022-07-18T16:20:13Z" changeset="123771104" uid="3497659" user="NKA">
		<tag k="name" v="Solhaug" />
		<tag k="place" v="isolated_dwelling" />
		<tag k="ssr:stedsnr" v="602850" />
	</node>
	<node id="9895551616" lat="65.2909515" lon="12.1541639" version="1" timestamp="2022-07-18T16:20:13Z" changeset="123771104" uid="3497659" user="NKA">
		<tag k="name" v="Steinsdalen" />
		<tag k="place" v="farm" />
		<tag k="ssr:stedsnr" v="877090" />
	</node>
	<node id="9895589917" lat="65.3463621" lon="12.2286385" version="1" timestamp="2022-07-18T16:20:13Z" changeset="123771104" uid="3497659" user="NKA">
		<tag k="alt_name" v="Bøenget" />
		<tag k="name" v="Bøengan" />
		<tag k="place" v="farm" />
		<tag k="ssr:stedsnr" v="560326" />
	</node>
	<node id="9895589918" lat="65.2786961" lon="12.1508901" version="1" timestamp="2022-07-18T16:20:13Z" changeset="123771104" uid="3497659" user="NKA">
		<tag k="name" v="Sørgård" />
		<tag k="place" v="farm" />
		<tag k="ssr:stedsnr" v="75376" />
	</node>
	<node id="9895589919" lat="65.2438526" lon="12.1207508" version="1" timestamp="2022-07-18T16:20:13Z" changeset="123771104" uid="3497659" user="NKA">
		<tag k="name" v="Solberg" />
		<tag k="place" v="farm" />
		<tag k="ssr:stedsnr" v="117873" />
	</node>
	<node id="9895589920" lat="65.3484805" lon="12.4296999" version="1" timestamp="2022-07-18T16:20:13Z" changeset="123771104" uid="3497659" user="NKA">
		<tag k="name" v="Klubben" />
		<tag k="place" v="farm" />
		<tag k="ssr:stedsnr" v="36850" />
	</node>
	<node id="9895589921" lat="65.2444825" lon="12.0993098" version="1" timestamp="2022-07-18T16:20:13Z" changeset="123771104" uid="3497659" user="NKA">
		<tag k="name" v="Tausvika" />
		<tag k="place" v="isolated_dwelling" />
		<tag k="ssr:stedsnr" v="634109" />
	</node>
	<node id="9895589922" lat="65.2344302" lon="12.0168628" version="1" timestamp="2022-07-18T16:20:13Z" changeset="123771104" uid="3497659" user="NKA">
		<tag k="alt_name" v="Langstranden" />
		<tag k="name" v="Langstranda" />
		<tag k="place" v="farm" />
		<tag k="ssr:stedsnr" v="14817" />
	</node>
	<node id="9895589923" lat="65.3955049" lon="12.2763749" version="1" timestamp="2022-07-18T16:20:13Z" changeset="123771104" uid="3497659" user="NKA">
		<tag k="name" v="Seljeskaret" />
		<tag k="place" v="farm" />
		<tag k="ssr:stedsnr" v="176588" />
	</node>
	<node id="9895589924" lat="65.3939784" lon="12.3059432" version="1" timestamp="2022-07-18T16:20:13Z" changeset="123771104" uid="3497659" user="NKA">
		<tag k="name" v="Dalheim" />
		<tag k="place" v="farm" />
		<tag k="ssr:stedsnr" v="197486" />
	</node>
	<node id="9895589925" lat="65.3975714" lon="12.2901317" version="1" timestamp="2022-07-18T16:20:13Z" changeset="123771104" uid="3497659" user="NKA">
		<tag k="name" v="Staulan" />
		<tag k="place" v="farm" />
		<tag k="ssr:stedsnr" v="904589" />
	</node>
	<node id="9895589926" lat="65.3246738" lon="12.3338277" version="1" timestamp="2022-07-18T16:20:13Z" changeset="123771104" uid="3497659" user="NKA">
		<tag k="name" v="Strand" />
		<tag k="place" v="farm" />
		<tag k="ssr:stedsnr" v="906176" />
	</node>
	<node id="9895589927" lat="65.3069059" lon="12.0910938" version="1" timestamp="2022-07-18T16:20:13Z" changeset="123771104" uid="3497659" user="NKA">
		<tag k="name" v="Skålvika" />
		<tag k="place" v="farm" />
		<tag k="ssr:stedsnr" v="742168" />
	</node>
	<node id="9895589928" lat="65.3111892" lon="11.6297461" version="1" timestamp="2022-07-18T16:20:13Z" changeset="123771104" uid="3497659" user="NKA">
		<tag k="name" v="Sørhorsvær" />
		<tag k="place" v="isolated_dwelling" />
		<tag k="ssr:stedsnr" v="989362" />
	</node>
	<node id="9895589929" lat="65.2896508" lon="12.1522831" version="1" timestamp="2022-07-18T16:20:13Z" changeset="123771104" uid="3497659" user="NKA">
		<tag k="name" v="Bakketun" />
		<tag k="place" v="farm" />
		<tag k="ssr:stedsnr" v="724596" />
	</node>
	<node id="9895589930" lat="65.3034951" lon="12.2288225" version="1" timestamp="2022-07-18T16:20:13Z" changeset="123771104" uid="3497659" user="NKA">
		<tag k="name" v="Amundsgjerdet" />
		<tag k="place" v="farm" />
		<tag k="ssr:stedsnr" v="682340" />
	</node>
	<node id="9895589931" lat="65.3599" lon="12.3808277" version="1" timestamp="2022-07-18T16:20:13Z" changeset="123771104" uid="3497659" user="NKA">
		<tag k="alt_name" v="Teigsdalen" />
		<tag k="name" v="Teistdalen" />
		<tag k="place" v="locality" />
		<tag k="ssr:stedsnr" v="15459" />
	</node>
	<node id="9895589932" lat="65.3432994" lon="12.4374076" version="1" timestamp="2022-07-18T16:20:13Z" changeset="123771104" uid="3497659" user="NKA">
		<tag k="name" v="Tømmeråsvika" />
		<tag k="place" v="farm" />
		<tag k="ssr:stedsnr" v="197408" />
	</node>
	<node id="9895589933" lat="65.3585759" lon="12.2597617" version="1" timestamp="2022-07-18T16:20:13Z" changeset="123771104" uid="3497659" user="NKA">
		<tag k="alt_name" v="Granlien" />
		<tag k="name" v="Granli" />
		<tag k="place" v="farm" />
		<tag k="ssr:stedsnr" v="257461" />
	</node>
	<node id="9895589934" lat="65.3554278" lon="12.2616138" version="1" timestamp="2022-07-18T16:20:13Z" changeset="123771104" uid="3497659" user="NKA">
		<tag k="name" v="Ljøshaugen" />
		<tag k="place" v="farm" />
		<tag k="ssr:stedsnr" v="117057" />
	</node>
	<node id="9895589935" lat="65.3478797" lon="12.2341755" version="1" timestamp="2022-07-18T16:20:13Z" changeset="123771104" uid="3497659" user="NKA">
		<tag k="name" v="Nordenget" />
		<tag k="place" v="farm" />
		<tag k="ssr:stedsnr" v="58424" />
	</node>
	<node id="9895589936" lat="65.2194181" lon="12.0324772" version="1" timestamp="2022-07-18T16:20:13Z" changeset="123771104" uid="3497659" user="NKA">
		<tag k="alt_name" v="Holmstranda" />
		<tag k="name" v="Holmstrand" />
		<tag k="place" v="farm" />
		<tag k="ssr:stedsnr" v="75862" />
	</node>
	<node id="9895589937" lat="65.32415" lon="12.1753694" version="1" timestamp="2022-07-18T16:20:13Z" changeset="123771104" uid="3497659" user="NKA">
		<tag k="name" v="Vang" />
		<tag k="place" v="farm" />
		<tag k="ssr:stedsnr" v="75158" />
	</node>
	<node id="9895589938" lat="65.299669" lon="12.2351554" version="1" timestamp="2022-07-18T16:20:13Z" changeset="123771104" uid="3497659" user="NKA">
		<tag k="name" v="Ånnvika" />
		<tag k="old_name" v="Ånvik" />
		<tag k="place" v="hamlet" />
		<tag k="ssr:stedsnr" v="803305" />
	</node>
	<node id="9895589939" lat="65.2589299" lon="12.1211033" version="1" timestamp="2022-07-18T16:20:13Z" changeset="123771104" uid="3497659" user="NKA">
		<tag k="name" v="Strømmen" />
		<tag k="place" v="farm" />
		<tag k="ssr:stedsnr" v="210101" />
	</node>
	<node id="9895589940" lat="65.3392322" lon="12.1924832" version="1" timestamp="2022-07-18T16:20:13Z" changeset="123771104" uid="3497659" user="NKA">
		<tag k="name" v="Ytterbaustad" />
		<tag k="place" v="farm" />
		<tag k="ssr:stedsnr" v="257155" />
	</node>
	<node id="9895589941" lat="65.3232861" lon="12.2510806" version="1" timestamp="2022-07-18T16:20:13Z" changeset="123771104" uid="3497659" user="NKA">
		<tag k="alt_name" v="Bakkely" />
		<tag k="name" v="Brekkmarka" />
		<tag k="place" v="farm" />
		<tag k="ssr:stedsnr" v="136313" />
	</node>
	<node id="9895589942" lat="65.22315" lon="12.0246678" version="1" timestamp="2022-07-18T16:20:13Z" changeset="123771104" uid="3497659" user="NKA">
		<tag k="alt_name" v="Kvaløya, indre;Sør-Kvaløy;Kvaløy" />
		<tag k="name" v="Indre Kvaløya" />
		<tag k="place" v="farm" />
		<tag k="ssr:stedsnr" v="75861" />
	</node>
	<node id="9895589943" lat="65.334925" lon="12.352164" version="1" timestamp="2022-07-18T16:20:13Z" changeset="123771104" uid="3497659" user="NKA">
		<tag k="alt_name" v="Trøen" />
		<tag k="name" v="Trøa" />
		<tag k="place" v="farm" />
		<tag k="ssr:stedsnr" v="75351" />
	</node>
	<node id="9895589944" lat="65.2190781" lon="12.0265017" version="1" timestamp="2022-07-18T16:20:13Z" changeset="123771104" uid="3497659" user="NKA">
		<tag k="name" v="Dalen" />
		<tag k="place" v="farm" />
		<tag k="ssr:stedsnr" v="906858" />
	</node>
	<node id="9895589945" lat="65.3626232" lon="12.1682215" version="1" timestamp="2022-07-18T16:20:13Z" changeset="123771104" uid="3497659" user="NKA">
		<tag k="name" v="Sømnes" />
		<tag k="place" v="hamlet" />
		<tag k="ssr:stedsnr" v="136274" />
	</node>
	<node id="9895589946" lat="65.2431278" lon="12.1311278" version="1" timestamp="2022-07-18T16:20:13Z" changeset="123771104" uid="3497659" user="NKA">
		<tag k="name" v="Brattbakken" />
		<tag k="place" v="farm" />
		<tag k="ssr:stedsnr" v="742814" />
	</node>
	<node id="9895589947" lat="65.2418619" lon="12.0937675" version="1" timestamp="2022-07-18T16:20:13Z" changeset="123771104" uid="3497659" user="NKA">
		<tag k="alt_name" v="Mellemvik" />
		<tag k="name" v="Mellomvika" />
		<tag k="place" v="farm" />
		<tag k="ssr:stedsnr" v="75875" />
	</node>
	<node id="9895589948" lat="65.3514382" lon="12.1910869" version="1" timestamp="2022-07-18T16:20:13Z" changeset="123771104" uid="3497659" user="NKA">
		<tag k="alt_name" v="Småenget" />
		<tag k="name" v="Småengan" />
		<tag k="place" v="farm" />
		<tag k="ssr:stedsnr" v="925168" />
	</node>
	<node id="9895589949" lat="65.2278355" lon="12.0719217" version="1" timestamp="2022-07-18T16:20:13Z" changeset="123771104" uid="3497659" user="NKA">
		<tag k="alt_name" v="Båtvik" />
		<tag k="name" v="Båtsvika" />
		<tag k="place" v="farm" />
		<tag k="ssr:stedsnr" v="75870" />
	</node>
	<node id="9895589950" lat="65.2363778" lon="12.1158917" version="1" timestamp="2022-07-18T16:20:13Z" changeset="123771104" uid="3497659" user="NKA">
		<tag k="name" v="Flåten" />
		<tag k="place" v="farm" />
		<tag k="ssr:stedsnr" v="966838" />
	</node>
	<node id="9895589951" lat="65.2765568" lon="12.2654148" version="1" timestamp="2022-07-18T16:20:13Z" changeset="123771104" uid="3497659" user="NKA">
		<tag k="name" v="Tornvika" />
		<tag k="place" v="farm" />
		<tag k="ssr:stedsnr" v="864206" />
	</node>
	<node id="9895589952" lat="65.3071945" lon="12.1186195" version="1" timestamp="2022-07-18T16:20:13Z" changeset="123771104" uid="3497659" user="NKA">
		<tag k="name" v="Aspenvika" />
		<tag k="place" v="farm" />
		<tag k="ssr:stedsnr" v="682199" />
	</node>
	<node id="9895589953" lat="65.2970632" lon="12.1885156" version="1" timestamp="2022-07-18T16:20:13Z" changeset="123771104" uid="3497659" user="NKA">
		<tag k="name" v="Trangen" />
		<tag k="place" v="isolated_dwelling" />
		<tag k="ssr:stedsnr" v="602604" />
	</node>
	<node id="9895589954" lat="65.2555444" lon="12.1253695" version="1" timestamp="2022-07-18T16:20:13Z" changeset="123771104" uid="3497659" user="NKA">
		<tag k="name" v="Skjønberg" />
		<tag k="place" v="farm" />
		<tag k="ssr:stedsnr" v="681252" />
	</node>
	<node id="9895589955" lat="65.3161159" lon="12.1630187" version="1" timestamp="2022-07-18T16:20:13Z" changeset="123771104" uid="3497659" user="NKA">
		<tag k="name" v="Kleiva" />
		<tag k="place" v="farm" />
		<tag k="ssr:stedsnr" v="360498" />
	</node>
	<node id="9895589956" lat="65.2815334" lon="12.2646464" version="1" timestamp="2022-07-18T16:20:13Z" changeset="123771104" uid="3497659" user="NKA">
		<tag k="name" v="Nygård" />
		<tag k="place" v="farm" />
		<tag k="ssr:stedsnr" v="846172" />
	</node>
	<node id="9895589957" lat="65.2621834" lon="12.1102333" version="1" timestamp="2022-07-18T16:20:13Z" changeset="123771104" uid="3497659" user="NKA">
		<tag k="name" v="Sørvika" />
		<tag k="place" v="farm" />
		<tag k="ssr:stedsnr" v="500415" />
	</node>
	<node id="9895589958" lat="65.2897325" lon="12.1230431" version="1" timestamp="2022-07-18T16:20:13Z" changeset="123771104" uid="3497659" user="NKA">
		<tag k="name" v="Risholmen" />
		<tag k="place" v="farm" />
		<tag k="ssr:stedsnr" v="500412" />
	</node>
	<node id="9895589959" lat="65.323586" lon="12.1352149" version="1" timestamp="2022-07-18T16:20:13Z" changeset="123771104" uid="3497659" user="NKA">
		<tag k="name" v="Fagerheim" />
		<tag k="place" v="farm" />
		<tag k="ssr:stedsnr" v="621162" />
	</node>
	<node id="9895589960" lat="65.3246338" lon="12.3368947" version="1" timestamp="2022-07-18T16:20:13Z" changeset="123771104" uid="3497659" user="NKA">
		<tag k="name" v="Granheim" />
		<tag k="place" v="farm" />
		<tag k="ssr:stedsnr" v="360153" />
	</node>
	<node id="9895589961" lat="65.2885268" lon="12.1550735" version="1" timestamp="2022-07-18T16:20:13Z" changeset="123771104" uid="3497659" user="NKA">
		<tag k="name" v="Myrvang" />
		<tag k="place" v="isolated_dwelling" />
		<tag k="ssr:stedsnr" v="239599" />
	</node>
	<node id="9895589962" lat="65.2268152" lon="12.0248389" version="1" timestamp="2022-07-18T16:20:13Z" changeset="123771104" uid="3497659" user="NKA">
		<tag k="name" v="Porsvika" />
		<tag k="place" v="farm" />
		<tag k="ssr:stedsnr" v="378850" />
	</node>
	<node id="9895589963" lat="65.3406918" lon="12.199751" version="1" timestamp="2022-07-18T16:20:13Z" changeset="123771104" uid="3497659" user="NKA">
		<tag k="name" v="Hammaren" />
		<tag k="place" v="farm" />
		<tag k="ssr:stedsnr" v="178429" />
	</node>
	<node id="9895589964" lat="65.3242121" lon="11.6324201" version="1" timestamp="2022-07-18T16:20:13Z" changeset="123771104" uid="3497659" user="NKA">
		<tag k="name" v="Nordhorsvær" />
		<tag k="place" v="hamlet" />
		<tag k="ssr:stedsnr" v="989363" />
	</node>
	<node id="9895589965" lat="65.3348142" lon="12.4248631" version="1" timestamp="2022-07-18T16:20:13Z" changeset="123771104" uid="3497659" user="NKA">
		<tag k="name" v="Sellimarka" />
		<tag k="place" v="farm" />
		<tag k="ssr:stedsnr" v="925387" />
	</node>
	<node id="9895589966" lat="65.3096694" lon="12.2303362" version="1" timestamp="2022-07-18T16:20:13Z" changeset="123771104" uid="3497659" user="NKA">
		<tag k="name" v="Mattisplassen" />
		<tag k="place" v="locality" />
		<tag k="ssr:stedsnr" v="178474" />
	</node>
	<node id="9895589967" lat="65.2326694" lon="12.0175194" version="1" timestamp="2022-07-18T16:20:13Z" changeset="123771104" uid="3497659" user="NKA">
		<tag k="name" v="Kjempestrand" />
		<tag k="place" v="farm" />
		<tag k="ssr:stedsnr" v="239859" />
	</node>
	<node id="9895589968" lat="65.2828168" lon="12.2611154" version="1" timestamp="2022-07-18T16:20:13Z" changeset="123771104" uid="3497659" user="NKA">
		<tag k="name" v="Kjøssvika" />
		<tag k="place" v="hamlet" />
		<tag k="ssr:stedsnr" v="485192" />
	</node>
	<node id="9895589969" lat="65.2824529" lon="12.1376783" version="1" timestamp="2022-07-18T16:20:13Z" changeset="123771104" uid="3497659" user="NKA">
		<tag k="name" v="Tungen" />
		<tag k="place" v="farm" />
		<tag k="ssr:stedsnr" v="238610" />
	</node>
	<node id="9895589970" lat="65.2941784" lon="12.1571572" version="1" timestamp="2022-07-18T16:20:13Z" changeset="123771104" uid="3497659" user="NKA">
		<tag k="name" v="Steine" />
		<tag k="place" v="hamlet" />
		<tag k="ssr:stedsnr" v="803339" />
	</node>
	<node id="9895589971" lat="65.2287684" lon="12.0187013" version="1" timestamp="2022-07-18T16:20:13Z" changeset="123771104" uid="3497659" user="NKA">
		<tag k="name" v="Moen" />
		<tag k="place" v="farm" />
		<tag k="ssr:stedsnr" v="723949" />
	</node>
	<node id="9895589972" lat="65.3488195" lon="12.2628195" version="1" timestamp="2022-07-18T16:20:13Z" changeset="123771104" uid="3497659" user="NKA">
		<tag k="name" v="Lysingen" />
		<tag k="place" v="farm" />
		<tag k="ssr:stedsnr" v="682357" />
	</node>
	<node id="9895589973" lat="65.2410319" lon="12.166687" version="1" timestamp="2022-07-18T16:20:13Z" changeset="123771104" uid="3497659" user="NKA">
		<tag k="name" v="Furrulund" />
		<tag k="place" v="farm" />
		<tag k="ssr:stedsnr" v="663727" />
	</node>
	<node id="9895589974" lat="65.2508951" lon="12.1205281" version="1" timestamp="2022-07-18T16:20:13Z" changeset="123771104" uid="3497659" user="NKA">
		<tag k="alt_name" v="Strømvoll" />
		<tag k="name" v="Straumvollen" />
		<tag k="place" v="farm" />
		<tag k="ssr:stedsnr" v="681253" />
	</node>
	<node id="9895589975" lat="65.281455" lon="12.1632756" version="1" timestamp="2022-07-18T16:20:13Z" changeset="123771104" uid="3497659" user="NKA">
		<tag k="name" v="Berglund" />
		<tag k="place" v="farm" />
		<tag k="ssr:stedsnr" v="925365" />
	</node>
	<node id="9895589976" lat="65.2307416" lon="12.0842223" version="1" timestamp="2022-07-18T16:20:13Z" changeset="123771104" uid="3497659" user="NKA">
		<tag k="name" v="Mariavik" />
		<tag k="place" v="locality" />
		<tag k="ssr:stedsnr" v="602851" />
	</node>
	<node id="9895589977" lat="65.3009511" lon="12.1621708" version="1" timestamp="2022-07-18T16:20:13Z" changeset="123771104" uid="3497659" user="NKA">
		<tag k="name" v="Grønåsen" />
		<tag k="place" v="farm" />
		<tag k="ssr:stedsnr" v="877088" />
	</node>
	<node id="9895589978" lat="65.2680806" lon="12.1592806" version="1" timestamp="2022-07-18T16:20:13Z" changeset="123771104" uid="3497659" user="NKA">
		<tag k="name" v="Elvestad" />
		<tag k="place" v="farm" />
		<tag k="ssr:stedsnr" v="864374" />
	</node>
	<node id="9895589979" lat="65.2518817" lon="12.1144609" version="1" timestamp="2022-07-18T16:20:13Z" changeset="123771104" uid="3497659" user="NKA">
		<tag k="name" v="Risvika" />
		<tag k="place" v="farm" />
		<tag k="ssr:stedsnr" v="317248" />
	</node>
	<node id="9895589980" lat="65.2782511" lon="12.1372578" version="1" timestamp="2022-07-18T16:20:13Z" changeset="123771104" uid="3497659" user="NKA">
		<tag k="name" v="Hussanda" />
		<tag k="place" v="farm" />
		<tag k="ssr:stedsnr" v="864389" />
	</node>
	<node id="9895589981" lat="65.3380166" lon="12.23105" version="1" timestamp="2022-07-18T16:20:13Z" changeset="123771104" uid="3497659" user="NKA">
		<tag k="name" v="Bøvollen" />
		<tag k="place" v="farm" />
		<tag k="ssr:stedsnr" v="257411" />
	</node>
	<node id="9895589982" lat="65.2431739" lon="12.1108432" version="1" timestamp="2022-07-18T16:20:13Z" changeset="123771104" uid="3497659" user="NKA">
		<tag k="name" v="Bausbakk" />
		<tag k="place" v="farm" />
		<tag k="ssr:stedsnr" v="299866" />
	</node>
	<node id="9895589983" lat="65.2171742" lon="12.0459782" version="1" timestamp="2022-07-18T16:20:13Z" changeset="123771104" uid="3497659" user="NKA">
		<tag k="name" v="Skårstad" />
		<tag k="place" v="farm" />
		<tag k="ssr:stedsnr" v="846842" />
	</node>
	<node id="9895589984" lat="65.2391677" lon="12.0991606" version="1" timestamp="2022-07-18T16:20:13Z" changeset="123771104" uid="3497659" user="NKA">
		<tag k="name" v="Sandekren" />
		<tag k="place" v="isolated_dwelling" />
		<tag k="ssr:stedsnr" v="634107" />
	</node>
	<node id="9895589985" lat="65.3138639" lon="12.1400806" version="1" timestamp="2022-07-18T16:20:13Z" changeset="123771104" uid="3497659" user="NKA">
		<tag k="name" v="Kjella" />
		<tag k="place" v="isolated_dwelling" />
		<tag k="ssr:stedsnr" v="846530" />
	</node>
	<node id="9895589986" lat="65.2914579" lon="12.1344216" version="1" timestamp="2022-07-18T16:20:13Z" changeset="123771104" uid="3497659" user="NKA">
		<tag k="name" v="Steinssjøen" />
		<tag k="place" v="farm" />
		<tag k="ssr:stedsnr" v="257376" />
	</node>
	<node id="9895589987" lat="65.2402922" lon="12.1082519" version="1" timestamp="2022-07-18T16:20:13Z" changeset="123771104" uid="3497659" user="NKA">
		<tag k="name" v="Sjøgjerdet" />
		<tag k="place" v="hamlet" />
		<tag k="ssr:stedsnr" v="560840" />
	</node>
	<node id="9895589988" lat="65.2880199" lon="12.1298733" version="1" timestamp="2022-07-18T16:20:13Z" changeset="123771104" uid="3497659" user="NKA">
		<tag k="name" v="Skogstrand" />
		<tag k="place" v="farm" />
		<tag k="ssr:stedsnr" v="602611" />
	</node>
	<node id="9895589989" lat="65.3116583" lon="12.1611139" version="1" timestamp="2022-07-18T16:20:13Z" changeset="123771104" uid="3497659" user="NKA">
		<tag k="name" v="Jarmunnan" />
		<tag k="place" v="farm" />
		<tag k="ssr:stedsnr" v="560165" />
	</node>
	<node id="9895589990" lat="65.2714502" lon="12.1344408" version="1" timestamp="2022-07-18T16:20:13Z" changeset="123771104" uid="3497659" user="NKA">
		<tag k="alt_name" v="Åssletta;Åssletten" />
		<tag k="name" v="Åsletta" />
		<tag k="place" v="farm" />
		<tag k="ssr:stedsnr" v="560352" />
	</node>
	<node id="9895589991" lat="65.3280519" lon="12.2272107" version="1" timestamp="2022-07-18T16:20:13Z" changeset="123771104" uid="3497659" user="NKA">
		<tag k="name" v="Brekkneset" />
		<tag k="place" v="farm" />
		<tag k="ssr:stedsnr" v="197392" />
	</node>
	<node id="9895589992" lat="65.2850411" lon="12.1183869" version="1" timestamp="2022-07-18T16:20:13Z" changeset="123771104" uid="3497659" user="NKA">
		<tag k="name" v="Steinvik" />
		<tag k="place" v="farm" />
		<tag k="ssr:stedsnr" v="542701" />
	</node>
	<node id="9895589993" lat="65.3532104" lon="12.2163858" version="1" timestamp="2022-07-18T16:20:13Z" changeset="123771104" uid="3497659" user="NKA">
		<tag k="name" v="Skarsve" />
		<tag k="place" v="farm" />
		<tag k="ssr:stedsnr" v="847415" />
	</node>
	<node id="9895589994" lat="65.2809278" lon="12.1401667" version="1" timestamp="2022-07-18T16:20:13Z" changeset="123771104" uid="3497659" user="NKA">
		<tag k="name" v="Sjøstrand" />
		<tag k="place" v="farm" />
		<tag k="ssr:stedsnr" v="542572" />
	</node>
	<node id="9895589995" lat="65.2445834" lon="12.1025417" version="1" timestamp="2022-07-18T16:20:13Z" changeset="123771104" uid="3497659" user="NKA">
		<tag k="name" v="Heståsen" />
		<tag k="place" v="farm" />
		<tag k="ssr:stedsnr" v="621865" />
	</node>
	<node id="9895589996" lat="65.2652166" lon="12.1445138" version="1" timestamp="2022-07-18T16:20:13Z" changeset="123771104" uid="3497659" user="NKA">
		<tag k="name" v="Asphaug" />
		<tag k="place" v="farm" />
		<tag k="ssr:stedsnr" v="846758" />
	</node>
	<node id="9895589997" lat="65.2373297" lon="12.166313" version="1" timestamp="2022-07-18T16:20:13Z" changeset="123771104" uid="3497659" user="NKA">
		<tag k="name" v="Nygård" />
		<tag k="place" v="farm" />
		<tag k="ssr:stedsnr" v="360701" />
	</node>
	<node id="9895589998" lat="65.2239609" lon="11.9715756" version="1" timestamp="2022-07-18T16:20:13Z" changeset="123771104" uid="3497659" user="NKA">
		<tag k="name" v="Einvika" />
		<tag k="place" v="farm" />
		<tag k="ssr:stedsnr" v="360901" />
	</node>
	<node id="9895589999" lat="65.3400515" lon="12.2220945" version="1" timestamp="2022-07-18T16:20:13Z" changeset="123771104" uid="3497659" user="NKA">
		<tag k="name" v="Hauan" />
		<tag k="place" v="isolated_dwelling" />
		<tag k="ssr:stedsnr" v="542435" />
	</node>
	<node id="9895590000" lat="65.2969151" lon="12.1742688" version="1" timestamp="2022-07-18T16:20:13Z" changeset="123771104" uid="3497659" user="NKA">
		<tag k="name" v="Halsen" />
		<tag k="place" v="farm" />
		<tag k="ssr:stedsnr" v="542588" />
	</node>
	<node id="9895590001" lat="65.2298361" lon="12.0750667" version="1" timestamp="2022-07-18T16:20:13Z" changeset="123771104" uid="3497659" user="NKA">
		<tag k="name" v="Jægtvik" />
		<tag k="place" v="locality" />
		<tag k="ssr:stedsnr" v="421931" />
	</node>
	<node id="9895590002" lat="65.2398292" lon="12.1666034" version="1" timestamp="2022-07-18T16:20:13Z" changeset="123771104" uid="3497659" user="NKA">
		<tag k="name" v="Almestad" />
		<tag k="place" v="farm" />
		<tag k="ssr:stedsnr" v="360698" />
	</node>
	<node id="9895590003" lat="65.2821007" lon="12.141679" version="1" timestamp="2022-07-18T16:20:13Z" changeset="123771104" uid="3497659" user="NKA">
		<tag k="name" v="Fløttum" />
		<tag k="place" v="farm" />
		<tag k="ssr:stedsnr" v="178568" />
	</node>
	<node id="9895590004" lat="65.2720456" lon="12.1275206" version="1" timestamp="2022-07-18T16:20:13Z" changeset="123771104" uid="3497659" user="NKA">
		<tag k="name" v="Osbakken" />
		<tag k="place" v="farm" />
		<tag k="ssr:stedsnr" v="420633" />
	</node>
	<node id="9895590005" lat="65.2209521" lon="12.0664733" version="1" timestamp="2022-07-18T16:20:13Z" changeset="123771104" uid="3497659" user="NKA">
		<tag k="alt_name" v="Skår" />
		<tag k="name" v="Skåren" />
		<tag k="place" v="farm" />
		<tag k="ssr:stedsnr" v="135799" />
	</node>
	<node id="9895590006" lat="65.260057" lon="12.1397576" version="1" timestamp="2022-07-18T16:20:13Z" changeset="123771104" uid="3497659" user="NKA">
		<tag k="alt_name" v="Båtneslia" />
		<tag k="name" v="Li" />
		<tag k="place" v="farm" />
		<tag k="ssr:stedsnr" v="88071" />
	</node>
	<node id="9895590007" lat="65.3300134" lon="12.1322757" version="1" timestamp="2022-07-18T16:20:13Z" changeset="123771104" uid="3497659" user="NKA">
		<tag k="name" v="Mardal" />
		<tag k="place" v="hamlet" />
		<tag k="ssr:stedsnr" v="317156" />
	</node>
	<node id="9895590008" lat="65.2364938" lon="12.1583727" version="1" timestamp="2022-07-18T16:20:13Z" changeset="123771104" uid="3497659" user="NKA">
		<tag k="name" v="Nymo" />
		<tag k="place" v="farm" />
		<tag k="ssr:stedsnr" v="117721" />
	</node>
	<node id="9895590009" lat="65.2376666" lon="12.1680084" version="1" timestamp="2022-07-18T16:20:13Z" changeset="123771104" uid="3497659" user="NKA">
		<tag k="name" v="Moen" />
		<tag k="place" v="farm" />
		<tag k="ssr:stedsnr" v="421723" />
	</node>
	<node id="9895590010" lat="65.3678306" lon="12.2239954" version="1" timestamp="2022-07-18T16:20:13Z" changeset="123771104" uid="3497659" user="NKA">
		<tag k="name" v="Øyan" />
		<tag k="place" v="farm" />
		<tag k="ssr:stedsnr" v="804683" />
	</node>
	<node id="9895590011" lat="65.3466816" lon="11.9880214" version="1" timestamp="2022-07-18T16:20:13Z" changeset="123771104" uid="3497659" user="NKA">
		<tag k="name" v="Sandværet" />
		<tag k="place" v="isolated_dwelling" />
		<tag k="ssr:stedsnr" v="989369" />
	</node>
	<node id="9895590012" lat="65.3677302" lon="12.1663108" version="1" timestamp="2022-07-18T16:20:13Z" changeset="123771104" uid="3497659" user="NKA">
		<tag k="name" v="Engstad" />
		<tag k="place" v="farm" />
		<tag k="ssr:stedsnr" v="178329" />
	</node>
	<node id="9895590013" lat="65.3527693" lon="12.221362" version="1" timestamp="2022-07-18T16:20:13Z" changeset="123771104" uid="3497659" user="NKA">
		<tag k="alt_name" v="Skarsmo" />
		<tag k="name" v="Skardsmoen" />
		<tag k="place" v="farm" />
		<tag k="ssr:stedsnr" v="743371" />
	</node>
	<node id="9895590014" lat="65.320075" lon="12.1800361" version="1" timestamp="2022-07-18T16:20:13Z" changeset="123771104" uid="3497659" user="NKA">
		<tag k="name" v="Haglund" />
		<tag k="place" v="farm" />
		<tag k="ssr:stedsnr" v="483393" />
	</node>
	<node id="9895590015" lat="65.299444" lon="12.150854" version="1" timestamp="2022-07-18T16:20:13Z" changeset="123771104" uid="3497659" user="NKA">
		<tag k="name" v="Haraldsvika" />
		<tag k="place" v="farm" />
		<tag k="ssr:stedsnr" v="439316" />
	</node>
	<node id="9895590016" lat="65.3184474" lon="12.1510027" version="1" timestamp="2022-07-18T16:20:13Z" changeset="123771104" uid="3497659" user="NKA">
		<tag k="name" v="Sømhovd" />
		<tag k="place" v="hamlet" />
		<tag k="ssr:stedsnr" v="378148" />
	</node>
	<node id="9895590017" lat="65.2985833" lon="12.2214132" version="1" timestamp="2022-07-18T16:20:13Z" changeset="123771104" uid="3497659" user="NKA">
		<tag k="name" v="Fjellheim" />
		<tag k="place" v="farm" />
		<tag k="ssr:stedsnr" v="360430" />
	</node>
	<node id="9895590018" lat="65.3998296" lon="12.2999182" version="1" timestamp="2022-07-18T16:20:13Z" changeset="123771104" uid="3497659" user="NKA">
		<tag k="name" v="Leitet" />
		<tag k="place" v="farm" />
		<tag k="ssr:stedsnr" v="439434" />
	</node>
	<node id="9895590019" lat="65.2946556" lon="12.1380833" version="1" timestamp="2022-07-18T16:20:13Z" changeset="123771104" uid="3497659" user="NKA">
		<tag k="name" v="Steinsvika" />
		<tag k="place" v="farm" />
		<tag k="ssr:stedsnr" v="257372" />
	</node>
	<node id="9895590020" lat="65.3085224" lon="12.1854971" version="1" timestamp="2022-07-18T16:20:13Z" changeset="123771104" uid="3497659" user="NKA">
		<tag k="name" v="Yttereng" />
		<tag k="place" v="farm" />
		<tag k="ssr:stedsnr" v="299552" />
	</node>
	<node id="9895590021" lat="65.3421086" lon="12.2090471" version="1" timestamp="2022-07-18T16:20:13Z" changeset="123771104" uid="3497659" user="NKA">
		<tag k="name" v="Baustad indre" />
		<tag k="place" v="farm" />
		<tag k="ssr:stedsnr" v="119426" />
	</node>
	<node id="9895590022" lat="65.3160732" lon="12.1701557" version="1" timestamp="2022-07-18T16:20:13Z" changeset="123771104" uid="3497659" user="NKA">
		<tag k="name" v="Sjøvollen" />
		<tag k="place" v="farm" />
		<tag k="ssr:stedsnr" v="239524" />
	</node>
	<node id="9895590023" lat="65.321021" lon="12.2272892" version="1" timestamp="2022-07-18T16:20:13Z" changeset="123771104" uid="3497659" user="NKA">
		<tag k="alt_name" v="Malm nedre" />
		<tag k="name" v="Nedremalm" />
		<tag k="place" v="farm" />
		<tag k="ssr:stedsnr" v="75273" />
	</node>
	<node id="9895590024" lat="65.3364389" lon="12.1986473" version="1" timestamp="2022-07-18T16:20:13Z" changeset="123771104" uid="3497659" user="NKA">
		<tag k="name" v="Blesan" />
		<tag k="place" v="farm" />
		<tag k="ssr:stedsnr" v="117459" />
	</node>
	<node id="9895590025" lat="65.3221632" lon="12.2220139" version="1" timestamp="2022-07-18T16:20:13Z" changeset="123771104" uid="3497659" user="NKA">
		<tag k="alt_name" v="Malm øvre" />
		<tag k="loc_name" v="Malm" />
		<tag k="name" v="Øvremalm" />
		<tag k="place" v="hamlet" />
		<tag k="ssr:stedsnr" v="864273" />
	</node>
	<node id="9895590026" lat="65.3292246" lon="12.2103361" version="1" timestamp="2022-07-18T16:20:13Z" changeset="123771104" uid="3497659" user="NKA">
		<tag k="name" v="Nytun" />
		<tag k="place" v="farm" />
		<tag k="ssr:stedsnr" v="906488" />
	</node>
	<node id="9895590027" lat="65.3309945" lon="12.1994138" version="1" timestamp="2022-07-18T16:20:13Z" changeset="123771104" uid="3497659" user="NKA">
		<tag k="name" v="Veråsen" />
		<tag k="place" v="farm" />
		<tag k="ssr:stedsnr" v="317155" />
	</node>
	<node id="9895590028" lat="65.3938861" lon="12.2775583" version="1" timestamp="2022-07-18T16:20:13Z" changeset="123771104" uid="3497659" user="NKA">
		<tag k="alt_name" v="Solbakken" />
		<tag k="name" v="Arnes" />
		<tag k="place" v="farm" />
		<tag k="ssr:stedsnr" v="804465" />
	</node>
	<node id="9895590029" lat="65.3827062" lon="12.2897279" version="1" timestamp="2022-07-18T16:20:13Z" changeset="123771104" uid="3497659" user="NKA">
		<tag k="name" v="Dalmoen" />
		<tag k="place" v="farm" />
		<tag k="ssr:stedsnr" v="743493" />
	</node>
	<node id="9895590030" lat="65.355034" lon="12.2141452" version="1" timestamp="2022-07-18T16:20:13Z" changeset="123771104" uid="3497659" user="NKA">
		<tag k="name" v="Søreng" />
		<tag k="place" v="farm" />
		<tag k="ssr:stedsnr" v="179374" />
	</node>
	<node id="9895590031" lat="65.373931" lon="12.2521002" version="1" timestamp="2022-07-18T16:20:13Z" changeset="123771104" uid="3497659" user="NKA">
		<tag k="alt_name" v="Stavaldsgjerdet" />
		<tag k="name" v="Stavelsgjerdet" />
		<tag k="place" v="farm" />
		<tag k="ssr:stedsnr" v="742373" />
	</node>
	<node id="9895590032" lat="65.3724666" lon="12.3111612" version="1" timestamp="2022-07-18T16:20:13Z" changeset="123771104" uid="3497659" user="NKA">
		<tag k="name" v="Jønnmoen" />
		<tag k="place" v="farm" />
		<tag k="ssr:stedsnr" v="682485" />
	</node>
	<node id="9895590033" lat="65.3655364" lon="12.1939888" version="1" timestamp="2022-07-18T16:20:13Z" changeset="123771104" uid="3497659" user="NKA">
		<tag k="name" v="Buskhammaren" />
		<tag k="place" v="farm" />
		<tag k="ssr:stedsnr" v="724322" />
	</node>
	<node id="9895590034" lat="65.385015" lon="12.2666343" version="1" timestamp="2022-07-18T16:20:13Z" changeset="123771104" uid="3497659" user="NKA">
		<tag k="name" v="Arnes" />
		<tag k="place" v="farm" />
		<tag k="ssr:stedsnr" v="682498" />
	</node>
	<node id="9895590035" lat="65.3126913" lon="12.1994382" version="1" timestamp="2022-07-18T16:20:13Z" changeset="123771104" uid="3497659" user="NKA">
		<tag k="name" v="Bjøru" />
		<tag k="place" v="hamlet" />
		<tag k="ssr:stedsnr" v="682197" />
	</node>
	<node id="9895590036" lat="65.351976" lon="12.249095" version="1" timestamp="2022-07-18T16:20:13Z" changeset="123771104" uid="3497659" user="NKA">
		<tag k="name" v="Grøttem" />
		<tag k="place" v="hamlet" />
		<tag k="ssr:stedsnr" v="257370" />
	</node>
	<node id="9895590037" lat="65.3214124" lon="12.2862727" version="1" timestamp="2022-07-18T16:20:13Z" changeset="123771104" uid="3497659" user="NKA">
		<tag k="alt_name" v="Moberg" />
		<tag k="name" v="Moberget" />
		<tag k="place" v="farm" />
		<tag k="ssr:stedsnr" v="682299" />
	</node>
	<node id="9895590038" lat="65.350441" lon="12.2291652" version="1" timestamp="2022-07-18T16:20:13Z" changeset="123771104" uid="3497659" user="NKA">
		<tag k="name" v="Ås" />
		<tag k="old_name" v="Åsen" />
		<tag k="place" v="farm" />
		<tag k="ssr:stedsnr" v="257366" />
	</node>
	<node id="9895590039" lat="65.3805671" lon="12.3282083" version="1" timestamp="2022-07-18T16:20:13Z" changeset="123771104" uid="3497659" user="NKA">
		<tag k="name" v="Aunet" />
		<tag k="place" v="farm" />
		<tag k="ssr:stedsnr" v="499339" />
	</node>
	<node id="9895590040" lat="65.3631354" lon="12.213269" version="1" timestamp="2022-07-18T16:20:13Z" changeset="123771104" uid="3497659" user="NKA">
		<tag k="name" v="Sollid" />
		<tag k="place" v="farm" />
		<tag k="ssr:stedsnr" v="481349" />
	</node>
	<node id="9895590041" lat="65.2514628" lon="12.1250206" version="1" timestamp="2022-07-18T16:20:13Z" changeset="123771104" uid="3497659" user="NKA">
		<tag k="alt_name" v="Strauman" />
		<tag k="name" v="Strømstad" />
		<tag k="place" v="farm" />
		<tag k="ssr:stedsnr" v="756082" />
	</node>
	<node id="9895590042" lat="65.3397361" lon="12.2123251" version="1" timestamp="2022-07-18T16:20:13Z" changeset="123771104" uid="3497659" user="NKA">
		<tag k="name" v="Brekkeidet" />
		<tag k="place" v="farm" />
		<tag k="ssr:stedsnr" v="379146" />
	</node>
	<node id="9895590043" lat="65.3610946" lon="12.2161385" version="1" timestamp="2022-07-18T16:20:13Z" changeset="123771104" uid="3497659" user="NKA">
		<tag k="name" v="Øyan" />
		<tag k="place" v="farm" />
		<tag k="ssr:stedsnr" v="439109" />
	</node>
	<node id="9895590044" lat="65.3608755" lon="12.2120989" version="1" timestamp="2022-07-18T16:20:13Z" changeset="123771104" uid="3497659" user="NKA">
		<tag k="name" v="Strand" />
		<tag k="place" v="farm" />
		<tag k="ssr:stedsnr" v="361408" />
	</node>
	<node id="9895590045" lat="65.3622318" lon="12.417466" version="1" timestamp="2022-07-18T16:20:13Z" changeset="123771104" uid="3497659" user="NKA">
		<tag k="name" v="Skånvika" />
		<tag k="place" v="farm" />
		<tag k="ssr:stedsnr" v="379397" />
	</node>
	<node id="9895590046" lat="65.3600833" lon="12.2173916" version="1" timestamp="2022-07-18T16:20:13Z" changeset="123771104" uid="3497659" user="NKA">
		<tag k="name" v="Brekka" />
		<tag k="place" v="locality" />
		<tag k="ssr:stedsnr" v="301359" />
	</node>
	<node id="9895590047" lat="65.2999495" lon="12.3538854" version="1" timestamp="2022-07-18T16:20:13Z" changeset="123771104" uid="3497659" user="NKA">
		<tag k="name" v="Olderbakkan" />
		<tag k="place" v="farm" />
		<tag k="ssr:stedsnr" v="864308" />
	</node>
	<node id="9895590048" lat="65.2480828" lon="12.1009854" version="1" timestamp="2022-07-18T16:20:13Z" changeset="123771104" uid="3497659" user="NKA">
		<tag k="alt_name" v="Fjellvik" />
		<tag k="name" v="Åsvika" />
		<tag k="place" v="farm" />
		<tag k="ssr:stedsnr" v="864860" />
	</node>
	<node id="9895590049" lat="65.3440263" lon="12.3737441" version="1" timestamp="2022-07-18T16:20:13Z" changeset="123771104" uid="3497659" user="NKA">
		<tag k="alt_name" v="Indremarka" />
		<tag k="name" v="Innermarkja" />
		<tag k="place" v="farm" />
		<tag k="ssr:stedsnr" v="803364" />
	</node>
	<node id="9895590050" lat="65.3592739" lon="12.2678497" version="1" timestamp="2022-07-18T16:20:13Z" changeset="123771104" uid="3497659" user="NKA">
		<tag k="name" v="Granhaug" />
		<tag k="place" v="farm" />
		<tag k="ssr:stedsnr" v="299055" />
	</node>
	<node id="9895590051" lat="65.2681309" lon="12.1463336" version="1" timestamp="2022-07-18T16:20:13Z" changeset="123771104" uid="3497659" user="NKA">
		<tag k="name" v="Våg" />
		<tag k="place" v="hamlet" />
		<tag k="ssr:stedsnr" v="318352" />
	</node>
	<node id="9895590052" lat="65.3884553" lon="12.2968196" version="1" timestamp="2022-07-18T16:20:13Z" changeset="123771104" uid="3497659" user="NKA">
		<tag k="name" v="Vollan" />
		<tag k="place" v="farm" />
		<tag k="ssr:stedsnr" v="904584" />
	</node>
	<node id="9895590053" lat="65.2686336" lon="12.1283013" version="1" timestamp="2022-07-18T16:20:13Z" changeset="123771104" uid="3497659" user="NKA">
		<tag k="alt_name" v="Einskar" />
		<tag k="name" v="Einskaret" />
		<tag k="place" v="farm" />
		<tag k="ssr:stedsnr" v="573086" />
	</node>
	<node id="9895590054" lat="65.3929778" lon="12.2922055" version="1" timestamp="2022-07-18T16:20:13Z" changeset="123771104" uid="3497659" user="NKA">
		<tag k="name" v="Trælnesvadet" />
		<tag k="place" v="farm" />
		<tag k="ssr:stedsnr" v="682496" />
	</node>
	<node id="9895590055" lat="65.3258954" lon="12.2151921" version="1" timestamp="2022-07-18T16:20:13Z" changeset="123771104" uid="3497659" user="NKA">
		<tag k="name" v="Malmsåsen" />
		<tag k="place" v="farm" />
		<tag k="ssr:stedsnr" v="257170" />
	</node>
	<node id="9895590056" lat="65.2390668" lon="12.1572692" version="1" timestamp="2022-07-18T16:20:13Z" changeset="123771104" uid="3497659" user="NKA">
		<tag k="name" v="Hjelmset" />
		<tag k="place" v="hamlet" />
		<tag k="ssr:stedsnr" v="14806" />
	</node>
	<node id="9895590057" lat="65.3671361" lon="12.1923472" version="1" timestamp="2022-07-18T16:20:13Z" changeset="123771104" uid="3497659" user="NKA">
		<tag k="name" v="Sømnesåsen" />
		<tag k="place" v="neighbourhood" />
		<tag k="ssr:stedsnr" v="238354" />
	</node>
	<node id="9895590058" lat="65.384381" lon="12.2823557" version="1" timestamp="2022-07-18T16:20:13Z" changeset="123771104" uid="3497659" user="NKA">
		<tag k="name" v="Dalbotnan" />
		<tag k="place" v="hamlet" />
		<tag k="ssr:stedsnr" v="499338" />
	</node>
	<node id="9895590059" lat="65.2946534" lon="12.1825679" version="1" timestamp="2022-07-18T16:20:13Z" changeset="123771104" uid="3497659" user="NKA">
		<tag k="name" v="Luren" />
		<tag k="place" v="farm" />
		<tag k="ssr:stedsnr" v="117951" />
	</node>
	<node id="9895590060" lat="65.3831889" lon="12.3290583" version="1" timestamp="2022-07-18T16:20:13Z" changeset="123771104" uid="3497659" user="NKA">
		<tag k="alt_name" v="Nermo" />
		<tag k="name" v="Nedremoen" />
		<tag k="place" v="farm" />
		<tag k="ssr:stedsnr" v="135393" />
	</node>
	<node id="9895590061" lat="65.3352257" lon="12.2314097" version="1" timestamp="2022-07-18T16:20:13Z" changeset="123771104" uid="3497659" user="NKA">
		<tag k="name" v="Brekklia" />
		<tag k="place" v="farm" />
		<tag k="ssr:stedsnr" v="75357" />
	</node>
	<node id="9895590062" lat="65.2520167" lon="12.1054805" version="1" timestamp="2022-07-18T16:20:13Z" changeset="123771104" uid="3497659" user="NKA">
		<tag k="name" v="Vestvika" />
		<tag k="place" v="farm" />
		<tag k="ssr:stedsnr" v="14213" />
	</node>
	<node id="9895590063" lat="65.4025615" lon="12.3063895" version="1" timestamp="2022-07-18T16:20:13Z" changeset="123771104" uid="3497659" user="NKA">
		<tag k="name" v="Bakken" />
		<tag k="place" v="farm" />
		<tag k="ssr:stedsnr" v="115391" />
	</node>
	<node id="9895590064" lat="65.324575" lon="12.3308361" version="1" timestamp="2022-07-18T16:20:13Z" changeset="123771104" uid="3497659" user="NKA">
		<tag k="name" v="Frillstadstranda" />
		<tag k="place" v="farm" />
		<tag k="ssr:stedsnr" v="15296" />
	</node>
	<node id="9895590065" lat="65.3557422" lon="12.3924008" version="1" timestamp="2022-07-18T16:20:13Z" changeset="123771104" uid="3497659" user="NKA">
		<tag k="name" v="Halsen" />
		<tag k="place" v="farm" />
		<tag k="ssr:stedsnr" v="14244" />
	</node>
	<node id="9895590066" lat="65.3982792" lon="12.3042616" version="1" timestamp="2022-07-18T16:20:13Z" changeset="123771104" uid="3497659" user="NKA">
		<tag k="name" v="Myrmo" />
		<tag k="place" v="farm" />
		<tag k="ssr:stedsnr" v="15485" />
	</node>
	<node id="9895590067" lat="65.3228191" lon="12.1852554" version="1" timestamp="2022-07-18T16:20:13Z" changeset="123771104" uid="3497659" user="NKA">
		<tag k="name" v="Knyk" />
		<tag k="place" v="farm" />
		<tag k="ssr:stedsnr" v="14138" />
	</node>
	<node id="9895590068" lat="65.3185801" lon="12.2721254" version="1" timestamp="2022-07-18T16:20:13Z" changeset="123771104" uid="3497659" user="NKA">
		<tag k="alt_name" v="Frilstadodden" />
		<tag k="name" v="Odden" />
		<tag k="place" v="farm" />
		<tag k="ssr:stedsnr" v="15288" />
	</node>
	<node id="9895590069" lat="65.3156472" lon="12.1947555" version="1" timestamp="2022-07-18T16:20:13Z" changeset="123771104" uid="3497659" user="NKA">
		<tag k="name" v="Leitåkeren" />
		<tag k="place" v="farm" />
		<tag k="ssr:stedsnr" v="14154" />
	</node>
	<node id="9895590070" lat="65.3874129" lon="12.2737438" version="1" timestamp="2022-07-18T16:20:13Z" changeset="123771104" uid="3497659" user="NKA">
		<tag k="name" v="Arneshaugen" />
		<tag k="place" v="farm" />
		<tag k="ssr:stedsnr" v="804506" />
	</node>
	<node id="9895590071" lat="65.3864528" lon="12.322186" version="1" timestamp="2022-07-18T16:20:13Z" changeset="123771104" uid="3497659" user="NKA">
		<tag k="name" v="Dala" />
		<tag k="place" v="farm" />
		<tag k="ssr:stedsnr" v="864530" />
	</node>
	<node id="9895590072" lat="65.3327351" lon="12.2284457" version="1" timestamp="2022-07-18T16:20:13Z" changeset="123771104" uid="3497659" user="NKA">
		<tag k="name" v="Brekk" />
		<tag k="place" v="hamlet" />
		<tag k="ssr:stedsnr" v="803346" />
	</node>
	<node id="9895590073" lat="65.3546962" lon="12.2470352" version="1" timestamp="2022-07-18T16:20:13Z" changeset="123771104" uid="3497659" user="NKA">
		<tag k="name" v="Grøtheim" />
		<tag k="place" v="farm" />
		<tag k="ssr:stedsnr" v="1071912" />
	</node>
	<node id="9895590074" lat="65.3528941" lon="12.240941" version="1" timestamp="2022-07-18T16:20:13Z" changeset="123771104" uid="3497659" user="NKA">
		<tag k="name" v="Gjersbuvollen" />
		<tag k="place" v="farm" />
		<tag k="ssr:stedsnr" v="786395" />
	</node>
	<node id="9895590075" lat="65.3511404" lon="12.1804589" version="1" timestamp="2022-07-18T16:20:13Z" changeset="123771104" uid="3497659" user="NKA">
		<tag k="name" v="Myrvoll" />
		<tag k="place" v="farm" />
		<tag k="ssr:stedsnr" v="804155" />
	</node>
	<node id="9895590076" lat="65.365557" lon="12.2018202" version="1" timestamp="2022-07-18T16:20:13Z" changeset="123771104" uid="3497659" user="NKA">
		<tag k="name" v="Øysjøhola" />
		<tag k="place" v="farm" />
		<tag k="ssr:stedsnr" v="784379" />
	</node>
	<node id="9895590077" lat="65.3634507" lon="12.2345502" version="1" timestamp="2022-07-18T16:20:13Z" changeset="123771104" uid="3497659" user="NKA">
		<tag k="name" v="Dyngeset" />
		<tag k="place" v="farm" />
		<tag k="ssr:stedsnr" v="560418" />
	</node>
	<node id="9895590078" lat="65.2169945" lon="11.9819001" version="1" timestamp="2022-07-18T16:20:13Z" changeset="123771104" uid="3497659" user="NKA">
		<tag k="alt_name" v="Kvaløya, yt" />
		<tag k="name" v="Ytre Kvaløya" />
		<tag k="place" v="farm" />
		<tag k="ssr:stedsnr" v="742800" />
	</node>
	<node id="9895590079" lat="65.3729287" lon="12.2320857" version="1" timestamp="2022-07-18T16:20:13Z" changeset="123771104" uid="3497659" user="NKA">
		<tag k="name" v="Øystrand" />
		<tag k="place" v="farm" />
		<tag k="ssr:stedsnr" v="560391" />
	</node>
	<node id="9895590080" lat="65.3071972" lon="12.1144555" version="1" timestamp="2022-07-18T16:20:13Z" changeset="123771104" uid="3497659" user="NKA">
		<tag k="alt_name" v="Storviken" />
		<tag k="name" v="Storvika" />
		<tag k="place" v="farm" />
		<tag k="ssr:stedsnr" v="681172" />
	</node>
	<node id="9895590081" lat="65.342675" lon="12.216814" version="1" timestamp="2022-07-18T16:20:13Z" changeset="123771104" uid="3497659" user="NKA">
		<tag k="name" v="Trøan" />
		<tag k="place" v="farm" />
		<tag k="ssr:stedsnr" v="500164" />
	</node>
	<node id="9895590082" lat="65.3189741" lon="12.4483981" version="1" timestamp="2022-07-18T16:20:13Z" changeset="123771104" uid="3497659" user="NKA">
		<tag k="name" v="Smedvika" />
		<tag k="place" v="farm" />
		<tag k="ssr:stedsnr" v="560256" />
	</node>
	<node id="9895590083" lat="65.2267589" lon="12.0183649" version="1" timestamp="2022-07-18T16:20:13Z" changeset="123771104" uid="3497659" user="NKA">
		<tag k="name" v="Gjerdet" />
		<tag k="place" v="farm" />
		<tag k="ssr:stedsnr" v="602837" />
	</node>
	<node id="9895590084" lat="65.2442385" lon="12.1143379" version="1" timestamp="2022-07-18T16:20:13Z" changeset="123771104" uid="3497659" user="NKA">
		<tag k="name" v="Løkås" />
		<tag k="place" v="farm" />
		<tag k="ssr:stedsnr" v="602864" />
	</node>
	<node id="9895590085" lat="65.2721696" lon="12.0294143" version="1" timestamp="2022-07-18T16:20:13Z" changeset="123771104" uid="3497659" user="NKA">
		<tag k="name" v="Lyngværet" />
		<tag k="place" v="farm" />
		<tag k="ssr:stedsnr" v="500421" />
	</node>
	<node id="9895590086" lat="65.2332411" lon="12.0174949" version="1" timestamp="2022-07-18T16:20:13Z" changeset="123771104" uid="3497659" user="NKA">
		<tag k="name" v="Nordstranden" />
		<tag k="place" v="farm" />
		<tag k="ssr:stedsnr" v="360825" />
	</node>
	<node id="9895590087" lat="65.3765751" lon="12.2746166" version="1" timestamp="2022-07-18T16:20:13Z" changeset="123771104" uid="3497659" user="NKA">
		<tag k="name" v="Reinfjord store" />
		<tag k="place" v="farm" />
		<tag k="ssr:stedsnr" v="481010" />
	</node>
	<node id="9895590088" lat="65.3865" lon="12.3337444" version="1" timestamp="2022-07-18T16:20:13Z" changeset="123771104" uid="3497659" user="NKA">
		<tag k="name" v="Duehaugen" />
		<tag k="place" v="farm" />
		<tag k="ssr:stedsnr" v="360881" />
	</node>
	<node id="9895590089" lat="65.3851022" lon="12.2748216" version="1" timestamp="2022-07-18T16:20:13Z" changeset="123771104" uid="3497659" user="NKA">
		<tag k="name" v="Kvitle" />
		<tag k="place" v="hamlet" />
		<tag k="ssr:stedsnr" v="621538" />
	</node>
	<node id="9895590090" lat="65.2989079" lon="12.1769886" version="1" timestamp="2022-07-18T16:20:13Z" changeset="123771104" uid="3497659" user="NKA">
		<tag k="name" v="Nyhaug" />
		<tag k="place" v="farm" />
		<tag k="ssr:stedsnr" v="299548" />
	</node>
	<node id="9895590091" lat="65.3781857" lon="12.2658942" version="1" timestamp="2022-07-18T16:20:13Z" changeset="123771104" uid="3497659" user="NKA">
		<tag k="name" v="Reinfjord" />
		<tag k="place" v="farm" />
		<tag k="ssr:stedsnr" v="621429" />
	</node>
	<node id="9895590092" lat="65.3928998" lon="12.2924713" version="1" timestamp="2022-07-18T16:20:13Z" changeset="123771104" uid="3497659" user="NKA">
		<tag k="name" v="Heimdal" />
		<tag k="place" v="farm" />
		<tag k="ssr:stedsnr" v="358643" />
	</node>
	<node id="9895590093" lat="65.3008204" lon="12.1773453" version="1" timestamp="2022-07-18T16:20:13Z" changeset="123771104" uid="3497659" user="NKA">
		<tag k="name" v="Åsvang" />
		<tag k="place" v="farm" />
		<tag k="ssr:stedsnr" v="299550" />
	</node>
	<node id="9895590094" lat="65.344393" lon="12.1965464" version="1" timestamp="2022-07-18T16:20:13Z" changeset="123771104" uid="3497659" user="NKA">
		<tag k="name" v="Solbakken" />
		<tag k="place" v="farm" />
		<tag k="ssr:stedsnr" v="422374" />
	</node>
	<node id="9895590095" lat="65.3849881" lon="12.3010779" version="1" timestamp="2022-07-18T16:20:13Z" changeset="123771104" uid="3497659" user="NKA">
		<tag k="name" v="Myrset" />
		<tag k="place" v="farm" />
		<tag k="ssr:stedsnr" v="360005" />
	</node>
	<node id="9895590096" lat="65.3470255" lon="12.2278727" version="1" timestamp="2022-07-18T16:20:13Z" changeset="123771104" uid="3497659" user="NKA">
		<tag k="name" v="Elvebakk" />
		<tag k="place" v="farm" />
		<tag k="ssr:stedsnr" v="240428" />
	</node>
	<node id="9895590097" lat="65.3423063" lon="12.3779798" version="1" timestamp="2022-07-18T16:20:13Z" changeset="123771104" uid="3497659" user="NKA">
		<tag k="name" v="Åsen" />
		<tag k="place" v="farm" />
		<tag k="ssr:stedsnr" v="989328" />
	</node>
	<node id="9895590098" lat="65.2872205" lon="12.149169" version="1" timestamp="2022-07-18T16:20:13Z" changeset="123771104" uid="3497659" user="NKA">
		<tag k="name" v="Nyrud" />
		<tag k="place" v="farm" />
		<tag k="ssr:stedsnr" v="136362" />
	</node>
	<node id="9895590099" lat="65.3498472" lon="12.2612166" version="1" timestamp="2022-07-18T16:20:13Z" changeset="123771104" uid="3497659" user="NKA">
		<tag k="name" v="Fjelltun" />
		<tag k="place" v="farm" />
		<tag k="ssr:stedsnr" v="239061" />
	</node>
	<node id="9895590100" lat="65.2392695" lon="12.1039846" version="1" timestamp="2022-07-18T16:20:13Z" changeset="123771104" uid="3497659" user="NKA">
		<tag k="name" v="Skaret" />
		<tag k="place" v="farm" />
		<tag k="ssr:stedsnr" v="966846" />
	</node>
	<node id="9895590101" lat="65.345811" lon="12.2447164" version="1" timestamp="2022-07-18T16:20:13Z" changeset="123771104" uid="3497659" user="NKA">
		<tag k="name" v="Holand" />
		<tag k="place" v="hamlet" />
		<tag k="ssr:stedsnr" v="135341" />
	</node>
	<node id="9895590102" lat="65.33225" lon="12.1774279" version="1" timestamp="2022-07-18T16:20:13Z" changeset="123771104" uid="3497659" user="NKA">
		<tag k="name" v="Bråten" />
		<tag k="place" v="farm" />
		<tag k="ssr:stedsnr" v="135163" />
	</node>
	<node id="9895590103" lat="65.3025581" lon="12.1785676" version="1" timestamp="2022-07-18T16:20:13Z" changeset="123771104" uid="3497659" user="NKA">
		<tag k="name" v="Tverråsen" />
		<tag k="place" v="farm" />
		<tag k="ssr:stedsnr" v="75344" />
	</node>
	<node id="9895590104" lat="65.3734514" lon="12.2130502" version="1" timestamp="2022-07-18T16:20:13Z" changeset="123771104" uid="3497659" user="NKA">
		<tag k="name" v="Vestaberget" />
		<tag k="place" v="farm" />
		<tag k="ssr:stedsnr" v="56337" />
	</node>
	<node id="9895590105" lat="65.3362361" lon="12.198311" version="1" timestamp="2022-07-18T16:20:13Z" changeset="123771104" uid="3497659" user="NKA">
		<tag k="name" v="Blessa" />
		<tag k="place" v="farm" />
		<tag k="ssr:stedsnr" v="14145" />
	</node>
	<node id="9895590106" lat="65.3249271" lon="12.1274754" version="1" timestamp="2022-07-18T16:20:13Z" changeset="123771104" uid="3497659" user="NKA">
		<tag k="name" v="Haugvika" />
		<tag k="place" v="farm" />
		<tag k="ssr:stedsnr" v="14140" />
	</node>
	<node id="9895590107" lat="65.3096769" lon="12.130787" version="1" timestamp="2022-07-18T16:20:13Z" changeset="123771104" uid="3497659" user="NKA">
		<tag k="name" v="Kvalvika" />
		<tag k="place" v="farm" />
		<tag k="ssr:stedsnr" v="742163" />
	</node>
	<node id="9895590108" lat="65.2845834" lon="12.2475417" version="1" timestamp="2022-07-18T16:20:13Z" changeset="123771104" uid="3497659" user="NKA">
		<tag k="name" v="Elvegården" />
		<tag k="place" v="farm" />
		<tag k="ssr:stedsnr" v="197219" />
	</node>
	<node id="9895590109" lat="65.3442534" lon="12.2241011" version="1" timestamp="2022-07-18T16:20:13Z" changeset="123771104" uid="3497659" user="NKA">
		<tag k="name" v="Bø" />
		<tag k="place" v="hamlet" />
		<tag k="ssr:stedsnr" v="196284" />
	</node>
	<node id="9895590110" lat="65.3412222" lon="12.2139334" version="1" timestamp="2022-07-18T16:20:13Z" changeset="123771104" uid="3497659" user="NKA">
		<tag k="name" v="Bø" />
		<tag k="place" v="farm" />
		<tag k="ssr:stedsnr" v="145862" />
	</node>
	<node id="9895590111" lat="65.2813712" lon="12.1482154" version="1" timestamp="2022-07-18T16:20:13Z" changeset="123771104" uid="3497659" user="NKA">
		<tag k="name" v="Sande" />
		<tag k="place" v="hamlet" />
		<tag k="ssr:stedsnr" v="864334" />
	</node>
	<node id="9895590112" lat="65.3415368" lon="12.1990915" version="1" timestamp="2022-07-18T16:20:13Z" changeset="123771104" uid="3497659" user="NKA">
		<tag k="name" v="Baustad" />
		<tag k="place" v="hamlet" />
		<tag k="ssr:stedsnr" v="112364" />
	</node>
	<node id="9895590113" lat="65.2796833" lon="12.1668889" version="1" timestamp="2022-07-18T16:20:13Z" changeset="123771104" uid="3497659" user="NKA">
		<tag k="name" v="Fjellrud" />
		<tag k="place" v="farm" />
		<tag k="ssr:stedsnr" v="682394" />
	</node>
	<node id="9895590114" lat="65.2388905" lon="12.0024895" version="1" timestamp="2022-07-18T16:20:13Z" changeset="123771104" uid="3497659" user="NKA">
		<tag k="name" v="Lillevik" />
		<tag k="place" v="isolated_dwelling" />
		<tag k="ssr:stedsnr" v="906847" />
	</node>
	<node id="9895590115" lat="65.2456844" lon="12.1209855" version="1" timestamp="2022-07-18T16:20:13Z" changeset="123771104" uid="3497659" user="NKA">
		<tag k="name" v="Nordset" />
		<tag k="place" v="farm" />
		<tag k="ssr:stedsnr" v="481878" />
	</node>
	<node id="9895590116" lat="65.3711257" lon="12.3061042" version="1" timestamp="2022-07-18T16:20:13Z" changeset="123771104" uid="3497659" user="NKA">
		<tag k="name" v="Daleng" />
		<tag k="place" v="farm" />
		<tag k="ssr:stedsnr" v="621473" />
	</node>
	<node id="9895590117" lat="65.2315221" lon="12.016759" version="1" timestamp="2022-07-18T16:20:13Z" changeset="123771104" uid="3497659" user="NKA">
		<tag k="name" v="Sjømyra" />
		<tag k="place" v="farm" />
		<tag k="ssr:stedsnr" v="817136" />
	</node>
	<node id="9895590118" lat="65.3780861" lon="12.3335112" version="1" timestamp="2022-07-18T16:20:13Z" changeset="123771104" uid="3497659" user="NKA">
		<tag k="name" v="Vangen" />
		<tag k="place" v="farm" />
		<tag k="ssr:stedsnr" v="724005" />
	</node>
	<node id="9895590119" lat="65.2433417" lon="12.1238611" version="1" timestamp="2022-07-18T16:20:13Z" changeset="123771104" uid="3497659" user="NKA">
		<tag k="name" v="Svennes" />
		<tag k="place" v="locality" />
		<tag k="ssr:stedsnr" v="784749" />
	</node>
	<node id="9895590120" lat="65.2303846" lon="12.081006" version="1" timestamp="2022-07-18T16:20:13Z" changeset="123771104" uid="3497659" user="NKA">
		<tag k="name" v="Skåren" />
		<tag k="place" v="farm" />
		<tag k="ssr:stedsnr" v="724861" />
	</node>
	<node id="9895590121" lat="65.2390252" lon="12.0948158" version="1" timestamp="2022-07-18T16:20:13Z" changeset="123771104" uid="3497659" user="NKA">
		<tag k="alt_name" v="Sjøstrand" />
		<tag k="name" v="Sjøstranden" />
		<tag k="place" v="farm" />
		<tag k="ssr:stedsnr" v="756117" />
	</node>
	<node id="9895590122" lat="65.2911528" lon="12.1588" version="1" timestamp="2022-07-18T16:20:13Z" changeset="123771104" uid="3497659" user="NKA">
		<tag k="name" v="Aunebakken" />
		<tag k="place" v="farm" />
		<tag k="ssr:stedsnr" v="846589" />
	</node>
	<node id="9895590123" lat="65.2874568" lon="12.1212764" version="1" timestamp="2022-07-18T16:20:13Z" changeset="123771104" uid="3497659" user="NKA">
		<tag k="name" v="Sandholmen" />
		<tag k="place" v="farm" />
		<tag k="ssr:stedsnr" v="378318" />
	</node>
	<node id="9895590124" lat="65.3011194" lon="12.2248389" version="1" timestamp="2022-07-18T16:20:13Z" changeset="123771104" uid="3497659" user="NKA">
		<tag k="name" v="Godgjerdet" />
		<tag k="place" v="farm" />
		<tag k="ssr:stedsnr" v="318302" />
	</node>
	<node id="9895590125" lat="65.2433361" lon="12.1194305" version="1" timestamp="2022-07-18T16:20:13Z" changeset="123771104" uid="3497659" user="NKA">
		<tag k="name" v="Bergli" />
		<tag k="place" v="farm" />
		<tag k="ssr:stedsnr" v="724880" />
	</node>
	<node id="9895590126" lat="65.2744869" lon="12.1317466" version="1" timestamp="2022-07-18T16:20:13Z" changeset="123771104" uid="3497659" user="NKA">
		<tag k="name" v="Enge" />
		<tag k="place" v="hamlet" />
		<tag k="ssr:stedsnr" v="500423" />
	</node>
	<node id="9895590127" lat="65.3331251" lon="12.2332008" version="1" timestamp="2022-07-18T16:20:13Z" changeset="123771104" uid="3497659" user="NKA">
		<tag k="name" v="Øverbøen" />
		<tag k="place" v="farm" />
		<tag k="ssr:stedsnr" v="360416" />
	</node>
	<node id="9895590128" lat="65.2877945" lon="12.2669473" version="1" timestamp="2022-07-18T16:20:13Z" changeset="123771104" uid="3497659" user="NKA">
		<tag k="alt_name" v="Arnesstranden" />
		<tag k="name" v="Stranda" />
		<tag k="place" v="farm" />
		<tag k="ssr:stedsnr" v="621196" />
	</node>
	<node id="9895590129" lat="65.3056611" lon="12.2349693" version="1" timestamp="2022-07-18T16:20:13Z" changeset="123771104" uid="3497659" user="NKA">
		<tag k="alt_name" v="Joten" />
		<tag k="name" v="Gjøta" />
		<tag k="place" v="farm" />
		<tag k="ssr:stedsnr" v="136341" />
	</node>
	<node id="9895590130" lat="65.28455" lon="12.1135862" version="1" timestamp="2022-07-18T16:20:13Z" changeset="123771104" uid="3497659" user="NKA">
		<tag k="name" v="Krokvika" />
		<tag k="place" v="farm" />
		<tag k="ssr:stedsnr" v="75322" />
	</node>
	<node id="9895590131" lat="65.3289333" lon="12.2070944" version="1" timestamp="2022-07-18T16:20:13Z" changeset="123771104" uid="3497659" user="NKA">
		<tag k="name" v="Sørheim" />
		<tag k="place" v="locality" />
		<tag k="ssr:stedsnr" v="421452" />
	</node>
	<node id="9895590132" lat="65.3286278" lon="12.2175612" version="1" timestamp="2022-07-18T16:20:13Z" changeset="123771104" uid="3497659" user="NKA">
		<tag k="name" v="Åsheim" />
		<tag k="place" v="locality" />
		<tag k="ssr:stedsnr" v="57431" />
	</node>
	<node id="9895590133" lat="65.3009976" lon="12.1834321" version="1" timestamp="2022-07-18T16:20:13Z" changeset="123771104" uid="3497659" user="NKA">
		<tag k="name" v="Ølsås" />
		<tag k="place" v="farm" />
		<tag k="ssr:stedsnr" v="421526" />
	</node>
	<node id="9895590134" lat="65.3058361" lon="12.1045" version="1" timestamp="2022-07-18T16:20:13Z" changeset="123771104" uid="3497659" user="NKA">
		<tag k="name" v="Bjørnvika" />
		<tag k="place" v="farm" />
		<tag k="ssr:stedsnr" v="135306" />
	</node>
	<node id="9895590135" lat="65.3027819" lon="12.1887044" version="1" timestamp="2022-07-18T16:20:13Z" changeset="123771104" uid="3497659" user="NKA">
		<tag k="name" v="Dalen" />
		<tag k="place" v="farm" />
		<tag k="ssr:stedsnr" v="178499" />
	</node>
	<node id="9895590136" lat="65.3846528" lon="12.3323223" version="1" timestamp="2022-07-18T16:20:13Z" changeset="123771104" uid="3497659" user="NKA">
		<tag k="name" v="Dalhaugen" />
		<tag k="place" v="locality" />
		<tag k="ssr:stedsnr" v="178001" />
	</node>
	<node id="9895590137" lat="65.2814784" lon="12.2559343" version="1" timestamp="2022-07-18T16:20:13Z" changeset="123771104" uid="3497659" user="NKA">
		<tag k="name" v="Haugen" />
		<tag k="place" v="farm" />
		<tag k="ssr:stedsnr" v="238617" />
	</node>
	<node id="9895590138" lat="65.2952859" lon="12.1774832" version="1" timestamp="2022-07-18T16:20:13Z" changeset="123771104" uid="3497659" user="NKA">
		<tag k="name" v="Steinsgjerdet" />
		<tag k="place" v="farm" />
		<tag k="ssr:stedsnr" v="75348" />
	</node>
	<node id="9895590139" lat="65.3621389" lon="12.2069527" version="1" timestamp="2022-07-18T16:20:13Z" changeset="123771104" uid="3497659" user="NKA">
		<tag k="name" v="Saltneset" />
		<tag k="place" v="hamlet" />
		<tag k="ssr:stedsnr" v="58402" />
	</node>
	<node id="9895590140" lat="65.275575" lon="12.1393556" version="1" timestamp="2022-07-18T16:20:13Z" changeset="123771104" uid="3497659" user="NKA">
		<tag k="name" v="Solheim" />
		<tag k="place" v="farm" />
		<tag k="ssr:stedsnr" v="136413" />
	</node>
	<node id="9895590141" lat="65.2215538" lon="12.1119545" version="1" timestamp="2022-07-18T16:20:13Z" changeset="123771104" uid="3497659" user="NKA">
		<tag k="alt_name" v="Gangstøa" />
		<tag k="name" v="Gongstøa" />
		<tag k="place" v="locality" />
		<tag k="ssr:stedsnr" v="14790" />
	</node>
	<node id="9895590142" lat="65.2983056" lon="12.1383277" version="1" timestamp="2022-07-18T16:20:13Z" changeset="123771104" uid="3497659" user="NKA">
		<tag k="name" v="Jutvika" />
		<tag k="place" v="isolated_dwelling" />
		<tag k="ssr:stedsnr" v="28106" />
	</node>
	<node id="9895590143" lat="65.273243" lon="12.1434425" version="1" timestamp="2022-07-18T16:20:13Z" changeset="123771104" uid="3497659" user="NKA">
		<tag k="name" v="Brunbergsvollen" />
		<tag k="place" v="farm" />
		<tag k="ssr:stedsnr" v="56619" />
	</node>
	<node id="9895590144" lat="65.3232518" lon="12.2950537" version="1" timestamp="2022-07-18T16:20:13Z" changeset="123771104" uid="3497659" user="NKA">
		<tag k="name" v="Frilstad" />
		<tag k="place" v="hamlet" />
		<tag k="ssr:stedsnr" v="15301" />
	</node>
	<node id="9895590145" lat="65.336425" lon="12.3540251" version="1" timestamp="2022-07-18T16:20:13Z" changeset="123771104" uid="3497659" user="NKA">
		<tag k="historic" v="shieling" />
		<tag k="name" v="Bekkevold" />
		<tag k="place" v="isolated_dwelling" />
		<tag k="ssr:stedsnr" v="785172" />
	</node>
	<node id="9895590146" lat="65.2495722" lon="12.1636472" version="1" timestamp="2022-07-18T16:20:13Z" changeset="123771104" uid="3497659" user="NKA">
		<tag k="name" v="Sjøbakken" />
		<tag k="place" v="farm" />
		<tag k="ssr:stedsnr" v="864851" />
	</node>
	<node id="9895590147" lat="65.2508889" lon="12.1221721" version="1" timestamp="2022-07-18T16:20:13Z" changeset="123771104" uid="3497659" user="NKA">
		<tag k="name" v="Sundshopen" />
		<tag k="place" v="hamlet" />
		<tag k="ssr:stedsnr" v="864276" />
	</node>
	<node id="9895590148" lat="65.2631651" lon="12.150714" version="1" timestamp="2022-07-18T16:20:13Z" changeset="123771104" uid="3497659" user="NKA">
		<tag k="name" v="Reitan" />
		<tag k="place" v="farm" />
		<tag k="ssr:stedsnr" v="742242" />
	</node>
	<node id="9895590149" lat="65.2379899" lon="12.0066813" version="1" timestamp="2022-07-18T16:20:13Z" changeset="123771104" uid="3497659" user="NKA">
		<tag k="alt_name" v="Rosvik" />
		<tag k="name" v="Rossvika" />
		<tag k="place" v="hamlet" />
		<tag k="ssr:stedsnr" v="560848" />
	</node>
	<node id="9895590150" lat="65.2861528" lon="12.2453639" version="1" timestamp="2022-07-18T16:20:13Z" changeset="123771104" uid="3497659" user="NKA">
		<tag k="name" v="Moen" />
		<tag k="place" v="farm" />
		<tag k="ssr:stedsnr" v="621192" />
	</node>
	<node id="9895590151" lat="65.390762" lon="12.3102748" version="1" timestamp="2022-07-18T16:20:13Z" changeset="123771104" uid="3497659" user="NKA">
		<tag k="alt_name" v="Dale nedre" />
		<tag k="name" v="Nedredala" />
		<tag k="place" v="farm" />
		<tag k="ssr:stedsnr" v="804502" />
	</node>
	<node id="9895590152" lat="65.3802444" lon="12.2976055" version="1" timestamp="2022-07-18T16:20:13Z" changeset="123771104" uid="3497659" user="NKA">
		<tag k="alt_name" v="Bjørklund" />
		<tag k="name" v="Langåsen" />
		<tag k="place" v="farm" />
		<tag k="ssr:stedsnr" v="378426" />
	</node>
	<node id="9895590153" lat="65.3027197" lon="12.3539277" version="1" timestamp="2022-07-18T16:20:13Z" changeset="123771104" uid="3497659" user="NKA">
		<tag k="name" v="Olderbakkplassen" />
		<tag k="place" v="isolated_dwelling" />
		<tag k="ssr:stedsnr" v="361979" />
	</node>
	<node id="9895590154" lat="65.3658988" lon="12.1998052" version="1" timestamp="2022-07-18T16:20:13Z" changeset="123771104" uid="3497659" user="NKA">
		<tag k="name" v="Lyngmo" />
		<tag k="place" v="farm" />
		<tag k="ssr:stedsnr" v="602353" />
	</node>
	<node id="9895590155" lat="65.3634761" lon="12.4291318" version="1" timestamp="2022-07-18T16:20:13Z" changeset="123771104" uid="3497659" user="NKA">
		<tag k="name" v="Skardet" />
		<tag k="place" v="farm" />
		<tag k="ssr:stedsnr" v="804438" />
	</node>
	<node id="9895590156" lat="65.3630161" lon="12.2720879" version="1" timestamp="2022-07-18T16:20:13Z" changeset="123771104" uid="3497659" user="NKA">
		<tag k="name" v="Østli" />
		<tag k="place" v="farm" />
		<tag k="ssr:stedsnr" v="481056" />
	</node>
	<node id="9895590157" lat="65.3902583" lon="12.2818188" version="1" timestamp="2022-07-18T16:20:13Z" changeset="123771104" uid="3497659" user="NKA">
		<tag k="name" v="Nygård" />
		<tag k="place" v="farm" />
		<tag k="ssr:stedsnr" v="297595" />
	</node>
	<node id="9895590158" lat="65.364298" lon="12.2766503" version="1" timestamp="2022-07-18T16:20:13Z" changeset="123771104" uid="3497659" user="NKA">
		<tag k="name" v="Løvset" />
		<tag k="place" v="farm" />
		<tag k="ssr:stedsnr" v="239054" />
	</node>
	<node id="9895590159" lat="65.4042785" lon="12.3103442" version="1" timestamp="2022-07-18T16:20:13Z" changeset="123771104" uid="3497659" user="NKA">
		<tag k="alt_name" v="Røyrmarken" />
		<tag k="name" v="Røyrmarka" />
		<tag k="place" v="hamlet" />
		<tag k="ssr:stedsnr" v="439398" />
	</node>
	<node id="9895590160" lat="65.3648931" lon="12.4433706" version="1" timestamp="2022-07-18T16:20:13Z" changeset="123771104" uid="3497659" user="NKA">
		<tag k="alt_name" v="Storviken" />
		<tag k="name" v="Storvika" />
		<tag k="place" v="farm" />
		<tag k="ssr:stedsnr" v="136379" />
	</node>
	<node id="9895590161" lat="65.3854585" lon="12.3029654" version="1" timestamp="2022-07-18T16:20:13Z" changeset="123771104" uid="3497659" user="NKA">
		<tag k="name" v="Flatås" />
		<tag k="place" v="farm" />
		<tag k="ssr:stedsnr" v="297569" />
	</node>
	<node id="9895590162" lat="65.3748527" lon="12.259949" version="1" timestamp="2022-07-18T16:20:13Z" changeset="123771104" uid="3497659" user="NKA">
		<tag k="name" v="Kleiven" />
		<tag k="place" v="farm" />
		<tag k="ssr:stedsnr" v="906006" />
	</node>
	<node id="9895590163" lat="65.3497417" lon="12.2546306" version="1" timestamp="2022-07-18T16:20:13Z" changeset="123771104" uid="3497659" user="NKA">
		<tag k="name" v="Åshaugen" />
		<tag k="place" v="farm" />
		<tag k="ssr:stedsnr" v="136385" />
	</node>
	<node id="9895590164" lat="65.3672386" lon="12.1662695" version="1" timestamp="2022-07-18T16:20:13Z" changeset="123771104" uid="3497659" user="NKA">
		<tag k="name" v="Opland" />
		<tag k="place" v="isolated_dwelling" />
		<tag k="ssr:stedsnr" v="421348" />
	</node>
	<node id="9895590165" lat="65.3796581" lon="12.291193" version="1" timestamp="2022-07-18T16:20:13Z" changeset="123771104" uid="3497659" user="NKA">
		<tag k="name" v="Engan" />
		<tag k="place" v="farm" />
		<tag k="ssr:stedsnr" v="803412" />
	</node>
	<node id="9895590166" lat="65.3876099" lon="12.3380372" version="1" timestamp="2022-07-18T16:20:13Z" changeset="123771104" uid="3497659" user="NKA">
		<tag k="alt_name" v="Dala øvre" />
		<tag k="loc_name" v="Dala" />
		<tag k="name" v="Øvredala" />
		<tag k="place" v="hamlet" />
		<tag k="ssr:stedsnr" v="560488" />
	</node>
	<node id="9895590167" lat="65.2166121" lon="12.0247336" version="1" timestamp="2022-07-18T16:20:13Z" changeset="123771104" uid="3497659" user="NKA">
		<tag k="name" v="Bjønnhågen" />
		<tag k="place" v="isolated_dwelling" />
		<tag k="ssr:stedsnr" v="239870" />
	</node>
	<node id="9895590168" lat="65.3849973" lon="12.3006166" version="1" timestamp="2022-07-18T16:20:13Z" changeset="123771104" uid="3497659" user="NKA">
		<tag k="name" v="Flatåsen" />
		<tag k="place" v="farm" />
		<tag k="ssr:stedsnr" v="925530" />
	</node>
	<node id="9895590169" lat="65.2873556" lon="12.1405861" version="1" timestamp="2022-07-18T16:20:13Z" changeset="123771104" uid="3497659" user="NKA">
		<tag k="name" v="Smågjerdsvollan" />
		<tag k="place" v="farm" />
		<tag k="ssr:stedsnr" v="925361" />
	</node>
	<node id="9895590170" lat="65.3396146" lon="12.2055477" version="1" timestamp="2022-07-18T16:20:13Z" changeset="123771104" uid="3497659" user="NKA">
		<tag k="name" v="Innerbaustad" />
		<tag k="place" v="farm" />
		<tag k="ssr:stedsnr" v="804181" />
	</node>
	<node id="9895590171" lat="65.3609889" lon="12.4154028" version="1" timestamp="2022-07-18T16:20:13Z" changeset="123771104" uid="3497659" user="NKA">
		<tag k="name" v="Floget" />
		<tag k="place" v="farm" />
		<tag k="ssr:stedsnr" v="925459" />
	</node>
	<node id="9895590172" lat="65.3543056" lon="12.2543501" version="1" timestamp="2022-07-18T16:20:13Z" changeset="123771104" uid="3497659" user="NKA">
		<tag k="name" v="Konggårdshaugen" />
		<tag k="place" v="farm" />
		<tag k="ssr:stedsnr" v="786397" />
	</node>
	<node id="9895590173" lat="65.3514763" lon="12.2335826" version="1" timestamp="2022-07-18T16:20:13Z" changeset="123771104" uid="3497659" user="NKA">
		<tag k="name" v="Nylandet" />
		<tag k="place" v="farm" />
		<tag k="ssr:stedsnr" v="804369" />
	</node>
	<node id="9895590174" lat="65.3749902" lon="12.2676206" version="1" timestamp="2022-07-18T16:20:13Z" changeset="123771104" uid="3497659" user="NKA">
		<tag k="name" v="Kleiva" />
		<tag k="place" v="farm" />
		<tag k="ssr:stedsnr" v="439390" />
	</node>
	<node id="9895590175" lat="65.3750417" lon="12.3100774" version="1" timestamp="2022-07-18T16:20:13Z" changeset="123771104" uid="3497659" user="NKA">
		<tag k="name" v="Grønmoen" />
		<tag k="place" v="farm" />
		<tag k="ssr:stedsnr" v="378423" />
	</node>
	<node id="9895590176" lat="65.3535111" lon="12.2548528" version="1" timestamp="2022-07-18T16:20:13Z" changeset="123771104" uid="3497659" user="NKA">
		<tag k="name" v="Haugen" />
		<tag k="place" v="farm" />
		<tag k="ssr:stedsnr" v="239060" />
	</node>
	<node id="9895590177" lat="65.3096174" lon="12.1461046" version="1" timestamp="2022-07-18T16:20:13Z" changeset="123771104" uid="3497659" user="NKA">
		<tag k="name" v="Moen" />
		<tag k="place" v="farm" />
		<tag k="ssr:stedsnr" v="299553" />
	</node>
</osm>
