<?xml version="1.0" encoding="UTF-8"?>
<osm generator="osmapis" version="0.6">
	<node id="-410282" lat="59.3258194424" lon="6.48856667119">
		<tag k="alt_name" v="Tarajuvbekken" />
		<tag k="name" v="Taragjuvbekken" />
		<tag k="ssr:stedsnr" v="305972" />
		<tag k="waterway" v="stream" />
	</node>
	<node id="-411615" lat="59.0646583294" lon="6.25605555933">
		<tag k="name" v="Skitlitjørna" />
		<tag k="natural" v="water" />
		<tag k="ssr:stedsnr" v="484133" />
	</node>
	<node id="-411611" lat="59.1737277814" lon="6.13030000207">
		<tag k="name" v="Vågjen" />
		<tag k="natural" v="bay" />
		<tag k="ssr:stedsnr" v="484056" />
	</node>
	<node id="-411600" lat="59.2466888917" lon="6.05990833139">
		<tag k="name" v="Rossåna" />
		<tag k="ssr:stedsnr" v="427968" />
		<tag k="waterway" v="stream" />
	</node>
	<node id="-411594" lat="59.2987083331" lon="6.42815833311">
		<tag k="name" v="Funningslandsvatnet" />
		<tag k="natural" v="water" />
		<tag k="old_name" v="Funninglandsvatnet" />
		<tag k="ssr:stedsnr" v="427933" />
		<tag k="water" v="lake" />
	</node>
	<node id="-411590" lat="59.339505552" lon="6.41556943649">
		<tag k="name" v="Husstølvatnet" />
		<tag k="natural" v="water" />
		<tag k="ssr:stedsnr" v="427887" />
	</node>
	<node id="-411588" lat="59.1885611111" lon="6.20378611649">
		<tag k="name" v="Svartatjørna" />
		<tag k="natural" v="water" />
		<tag k="ssr:stedsnr" v="427872" />
	</node>
	<node id="-411587" lat="59.3612666621" lon="6.42339999321">
		<tag k="name" v="Djupsåna" />
		<tag k="ssr:stedsnr" v="427805" />
		<tag k="waterway" v="stream" />
	</node>
	<node id="-411585" lat="59.1117055538" lon="6.21050833185">
		<tag k="alt_name" v="Saåna" />
		<tag k="name" v="Sagåna" />
		<tag k="ssr:stedsnr" v="427699" />
		<tag k="waterway" v="river" />
	</node>
	<node id="-411584" lat="59.2544250017" lon="6.21075000067">
		<tag k="name" v="Hagalivatnet" />
		<tag k="natural" v="water" />
		<tag k="ssr:stedsnr" v="427666" />
	</node>
	<node id="-411582" lat="59.2966750032" lon="6.20117500022">
		<tag k="alt_name" v="Skiftustølvatnet" />
		<tag k="name" v="Skiftunstølvatnet" />
		<tag k="natural" v="water" />
		<tag k="ssr:stedsnr" v="427615" />
		<tag k="water" v="lake" />
	</node>
	<node id="-411574" lat="59.1596416629" lon="6.42402499317">
		<tag k="name" v="Kyrkjesteinane" />
		<tag k="place" v="island" />
		<tag k="ssr:stedsnr" v="427401" />
	</node>
	<node id="-411572" lat="59.3280166642" lon="6.67448055903">
		<tag k="name" v="Litla Blåfjellvatnet" />
		<tag k="natural" v="water" />
		<tag k="ssr:stedsnr" v="427267" />
		<tag k="water" v="lake" />
	</node>
	<node id="-411570" lat="59.3374472245" lon="6.84896110808">
		<tag k="name" v="Beinleivasskilen" />
		<tag k="place" v="locality" />
		<tag k="ssr:stedsnr" v="427240" />
	</node>
	<node id="-411565" lat="59.1138999995" lon="6.47627500439">
		<tag k="name" v="Ruveneset" />
		<tag k="natural" v="cape" />
		<tag k="ssr:stedsnr" v="427119" />
	</node>
	<node id="-411560" lat="59.211694443" lon="6.1045416607">
		<tag k="name" v="Vigavatnet" />
		<tag k="natural" v="water" />
		<tag k="old_name" v="Vikavatnet" />
		<tag k="ssr:stedsnr" v="426967" />
		<tag k="water" v="lake" />
	</node>
	<node id="-411543" lat="59.2193138863" lon="6.45899445257">
		<tag k="name" v="Djupadalsvatnet" />
		<tag k="natural" v="water" />
		<tag k="ssr:stedsnr" v="426422" />
		<tag k="water" v="lake" />
	</node>
	<node id="-411541" lat="59.1487388875" lon="6.39848333945">
		<tag k="name" v="Hellestølåna" />
		<tag k="ssr:stedsnr" v="426400" />
		<tag k="waterway" v="stream" />
	</node>
	<node id="-411538" lat="59.1475861076" lon="6.47833889768">
		<tag k="name" v="Dorstjørna" />
		<tag k="natural" v="water" />
		<tag k="ssr:stedsnr" v="426384" />
	</node>
	<node id="-411532" lat="59.2283250021" lon="6.3010999945">
		<tag k="name" v="Breidstølstjørna" />
		<tag k="natural" v="water" />
		<tag k="ssr:stedsnr" v="426286" />
	</node>
	<node id="-411528" lat="59.159924999" lon="6.59987222324">
		<tag k="name" v="Tjørnastølstjørna" />
		<tag k="natural" v="water" />
		<tag k="ssr:stedsnr" v="426161" />
	</node>
	<node id="-411527" lat="59.1180638916" lon="6.44777778625">
		<tag k="name" v="Lyngsstranda" />
		<tag k="natural" v="beach" />
		<tag k="ssr:stedsnr" v="426101" />
	</node>
	<node id="-411526" lat="59.1185784699" lon="6.36518220453">
		<tag k="alt_name" v="Litlåtjørna" />
		<tag k="name" v="Litlatjørna" />
		<tag k="natural" v="water" />
		<tag k="ssr:stedsnr" v="426086" />
	</node>
	<node id="-411525" lat="59.1225499985" lon="6.37766111503">
		<tag k="name" v="Breidavadet" />
		<tag k="place" v="locality" />
		<tag k="ssr:stedsnr" v="426078" />
	</node>
	<node id="-411519" lat="59.2060583371" lon="6.53389999514">
		<tag k="name" v="Søråna" />
		<tag k="ssr:stedsnr" v="424794" />
		<tag k="waterway" v="stream" />
	</node>
	<node id="-411517" lat="59.1981527754" lon="6.5438749946">
		<tag k="name" v="Sandvassåna" />
		<tag k="ssr:stedsnr" v="424785" />
		<tag k="waterway" v="stream" />
	</node>
	<node id="-411515" lat="59.2684027775" lon="6.09683056167">
		<tag k="name" v="Haugstjørna" />
		<tag k="natural" v="water" />
		<tag k="ssr:stedsnr" v="424759" />
	</node>
	<node id="-411510" lat="59.146419443" lon="6.0512583386">
		<tag k="name" v="Øvrabøtjørna" />
		<tag k="natural" v="water" />
		<tag k="ssr:stedsnr" v="424686" />
	</node>
	<node id="-411508" lat="59.2788111096" lon="6.17406110299">
		<tag k="name" v="Storokstjørna" />
		<tag k="natural" v="water" />
		<tag k="ssr:stedsnr" v="424669" />
	</node>
	<node id="-411498" lat="59.1086972199" lon="6.35431389636">
		<tag k="name" v="Sandvassåna" />
		<tag k="ssr:stedsnr" v="424565" />
		<tag k="waterway" v="river" />
	</node>
	<node id="-411492" lat="59.1160999969" lon="6.47794165878">
		<tag k="name" v="Ruveneset" />
		<tag k="natural" v="cape" />
		<tag k="ssr:stedsnr" v="424515" />
	</node>
	<node id="-411491" lat="59.1108972262" lon="6.48796667402">
		<tag k="name" v="Vassbotntjørna" />
		<tag k="natural" v="water" />
		<tag k="ssr:stedsnr" v="424514" />
	</node>
	<node id="-411490" lat="59.1075972254" lon="6.40622777802">
		<tag k="name" v="Lyngsdammen" />
		<tag k="ssr:stedsnr" v="424495" />
		<tag k="waterway" v="dam" />
	</node>
	<node id="-411489" lat="59.2918499988" lon="6.41755834175">
		<tag k="name" v="Dyrsvikneset" />
		<tag k="natural" v="cape" />
		<tag k="ssr:stedsnr" v="424482" />
	</node>
	<node id="-410255" lat="59.1132333323" lon="6.26909444734">
		<tag k="name" v="Stemtjørna" />
		<tag k="natural" v="water" />
		<tag k="ssr:stedsnr" v="305451" />
	</node>
	<node id="-410464" lat="59.3197749994" lon="6.74005556119">
		<tag k="name" v="Øvre Sanddalsvatnet" />
		<tag k="natural" v="water" />
		<tag k="ssr:stedsnr" v="366219" />
	</node>
	<node id="-411468" lat="59.2438222198" lon="6.21947500542">
		<tag k="name" v="Strandtjørna" />
		<tag k="natural" v="water" />
		<tag k="ssr:stedsnr" v="424347" />
	</node>
	<node id="-411467" lat="59.1378500002" lon="6.21081945213">
		<tag k="name" v="Smalabekken" />
		<tag k="ssr:stedsnr" v="424343" />
		<tag k="waterway" v="stream" />
	</node>
	<node id="-411466" lat="59.2295666643" lon="6.25694721806">
		<tag k="name" v="Tjødnå" />
		<tag k="natural" v="water" />
		<tag k="ssr:stedsnr" v="424341" />
	</node>
	<node id="-411463" lat="59.2407805594" lon="6.35279999642">
		<tag k="name" v="Safossen" />
		<tag k="natural" v="waterfall" />
		<tag k="ssr:stedsnr" v="424328" />
	</node>
	<node id="-411455" lat="59.1493861129" lon="6.1886805548">
		<tag k="name" v="Søylå" />
		<tag k="place" v="locality" />
		<tag k="ssr:stedsnr" v="424280" />
	</node>
	<node id="-411426" lat="59.2829333297" lon="6.06040277841">
		<tag k="name" v="Trætjørnene" />
		<tag k="natural" v="water" />
		<tag k="ssr:stedsnr" v="424001" />
	</node>
	<node id="-411421" lat="59.3033583342" lon="6.29846110269">
		<tag k="name" v="Middagstjørna" />
		<tag k="natural" v="water" />
		<tag k="ssr:stedsnr" v="419305" />
	</node>
	<node id="-410927" lat="59.108149996" lon="6.32659444639">
		<tag k="name" v="Svartatjørna" />
		<tag k="natural" v="water" />
		<tag k="ssr:stedsnr" v="123082" />
	</node>
	<node id="-411416" lat="59.1247416679" lon="6.1578416733">
		<tag k="name" v="Djubavatnet" />
		<tag k="natural" v="water" />
		<tag k="ssr:stedsnr" v="418546" />
		<tag k="water" v="lake" />
	</node>
	<node id="-411405" lat="59.3022027781" lon="6.29477499619">
		<tag k="alt_name" v="Longetjørn" />
		<tag k="name" v="Langtjørna" />
		<tag k="natural" v="water" />
		<tag k="ssr:stedsnr" v="245992" />
	</node>
	<node id="-411404" lat="59.2918888922" lon="6.4248027698">
		<tag k="name" v="Storholmen" />
		<tag k="place" v="islet" />
		<tag k="ssr:stedsnr" v="245946" />
	</node>
	<node id="-411402" lat="59.3556611113" lon="6.40575554774">
		<tag k="name" v="Sevdalstjørna" />
		<tag k="natural" v="water" />
		<tag k="ssr:stedsnr" v="245905" />
	</node>
	<node id="-411401" lat="59.3362249985" lon="6.38121110801">
		<tag k="alt_name" v="Rauvatnet" />
		<tag k="name" v="Raudvatnet" />
		<tag k="natural" v="water" />
		<tag k="ssr:stedsnr" v="245898" />
		<tag k="water" v="lake" />
	</node>
	<node id="-411400" lat="59.3446388908" lon="6.50244444003">
		<tag k="name" v="Skjølsvatnet" />
		<tag k="natural" v="water" />
		<tag k="ssr:stedsnr" v="245886" />
	</node>
	<node id="-411392" lat="59.1800138872" lon="6.41776111762">
		<tag k="name" v="Bekken" />
		<tag k="ssr:stedsnr" v="245475" />
		<tag k="waterway" v="stream" />
	</node>
	<node id="-411389" lat="59.316494445" lon="6.80619166238">
		<tag k="name" v="Krymleåa" />
		<tag k="ssr:stedsnr" v="245213" />
		<tag k="waterway" v="stream" />
	</node>
	<node id="-411379" lat="59.2533388881" lon="6.44232499143">
		<tag k="name" v="Vassbotnvatnet" />
		<tag k="natural" v="water" />
		<tag k="ssr:stedsnr" v="245087" />
		<tag k="water" v="lake" />
	</node>
	<node id="-411377" lat="59.2808916634" lon="6.48210000682">
		<tag k="name" v="Vasstølvatnet" />
		<tag k="natural" v="water" />
		<tag k="ssr:stedsnr" v="245069" />
	</node>
	<node id="-410236" lat="59.2729000024" lon="6.46880555564">
		<tag k="name" v="Olaslåttjørna" />
		<tag k="natural" v="water" />
		<tag k="ssr:stedsnr" v="305056" />
	</node>
	<node id="-411365" lat="59.1087305564" lon="6.18953611564">
		<tag k="alt_name" v="Spjodåna" />
		<tag k="name" v="Spjotåna" />
		<tag k="ssr:stedsnr" v="244727" />
		<tag k="waterway" v="river" />
	</node>
	<node id="-411357" lat="59.1557333367" lon="6.11387778271">
		<tag k="name" v="Nessavatnet" />
		<tag k="natural" v="water" />
		<tag k="ssr:stedsnr" v="244627" />
	</node>
	<node id="-411352" lat="59.1844638927" lon="6.47604443941">
		<tag k="name" v="Mågåvatnet" />
		<tag k="natural" v="water" />
		<tag k="ssr:stedsnr" v="244517" />
		<tag k="water" v="lake" />
	</node>
	<node id="-411350" lat="59.1896055535" lon="6.57671665867">
		<tag k="name" v="Dyragravvatnet" />
		<tag k="natural" v="water" />
		<tag k="ssr:stedsnr" v="244511" />
	</node>
	<node id="-411349" lat="59.1906888871" lon="6.24155000641">
		<tag k="alt_name" v="Forevatnet" />
		<tag k="name" v="Furevatnet" />
		<tag k="natural" v="water" />
		<tag k="ssr:stedsnr" v="244478" />
	</node>
	<node id="-411345" lat="59.2046027792" lon="6.3187083247">
		<tag k="alt_name" v="Flisaskartjørna" />
		<tag k="name" v="Flisatjørna" />
		<tag k="natural" v="water" />
		<tag k="ssr:stedsnr" v="244460" />
	</node>
	<node id="-411344" lat="59.2119111099" lon="6.30404444529">
		<tag k="alt_name" v="Oppstølvatnet" />
		<tag k="name" v="Oppstølsvatnet" />
		<tag k="natural" v="water" />
		<tag k="ssr:stedsnr" v="244457" />
	</node>
	<node id="-411339" lat="59.1522388845" lon="6.37589999871">
		<tag k="name" v="Sendingfossen" />
		<tag k="natural" v="waterfall" />
		<tag k="ssr:stedsnr" v="244385" />
	</node>
	<node id="-411336" lat="59.2417749958" lon="6.39660832572">
		<tag k="name" v="Storlibekken" />
		<tag k="ssr:stedsnr" v="244278" />
		<tag k="waterway" v="stream" />
	</node>
	<node id="-411334" lat="59.2348999976" lon="6.60377500302">
		<tag k="name" v="Bjørndalsvatn" />
		<tag k="natural" v="water" />
		<tag k="ssr:stedsnr" v="244247" />
		<tag k="water" v="lake" />
	</node>
	<node id="-411330" lat="59.1888555526" lon="6.72722221904">
		<tag k="name" v="Vassrauvvatnet" />
		<tag k="natural" v="water" />
		<tag k="ssr:stedsnr" v="244233" />
	</node>
	<node id="-411329" lat="59.1857972194" lon="6.80855276987">
		<tag k="name" v="Tyskebotnsvatnet" />
		<tag k="natural" v="water" />
		<tag k="ssr:stedsnr" v="244224" />
		<tag k="water" v="lake" />
	</node>
	<node id="-411325" lat="59.0627833318" lon="6.28337777758">
		<tag k="name" v="Krøysatjørna" />
		<tag k="natural" v="water" />
		<tag k="ssr:stedsnr" v="244118" />
	</node>
	<node id="-411320" lat="59.1006055526" lon="6.26263889768">
		<tag k="alt_name" v="Tveidestølstjørna" />
		<tag k="name" v="Tveitestølstjørna" />
		<tag k="natural" v="water" />
		<tag k="ssr:stedsnr" v="244072" />
	</node>
	<node id="-411302" lat="59.1570583377" lon="6.09198332709">
		<tag k="name" v="Åstjørna" />
		<tag k="natural" v="water" />
		<tag k="ssr:stedsnr" v="242636" />
	</node>
	<node id="-411296" lat="59.1191583358" lon="6.37879166781">
		<tag k="name" v="Tjørnastølstjørna" />
		<tag k="natural" v="water" />
		<tag k="ssr:stedsnr" v="242551" />
	</node>
	<node id="-411293" lat="59.2622111096" lon="6.23454444911">
		<tag k="name" v="Paddetjørnene" />
		<tag k="natural" v="water" />
		<tag k="ssr:stedsnr" v="242529" />
	</node>
	<node id="-410223" lat="59.2124999976" lon="6.80380000334">
		<tag k="name" v="Knutåvatnet" />
		<tag k="natural" v="water" />
		<tag k="old_name" v="Knutavatnet" />
		<tag k="ssr:stedsnr" v="304214" />
		<tag k="water" v="lake" />
	</node>
	<node id="-411288" lat="59.2858750024" lon="6.42524445204">
		<tag k="name" v="Storvika" />
		<tag k="natural" v="bay" />
		<tag k="ssr:stedsnr" v="242474" />
	</node>
	<node id="-411279" lat="59.1395805593" lon="6.40824999582">
		<tag k="name" v="Rishaugtjørna" />
		<tag k="natural" v="water" />
		<tag k="ssr:stedsnr" v="242442" />
	</node>
	<node id="-411260" lat="59.1628111143" lon="6.32483334128">
		<tag k="name" v="Mulaneset" />
		<tag k="ssr:stedsnr" v="242306" />
		<tag k="waterway" v="stream" />
	</node>
	<node id="-411258" lat="59.2420305549" lon="6.28568888592">
		<tag k="name" v="Litla Vassvika" />
		<tag k="natural" v="bay" />
		<tag k="ssr:stedsnr" v="242298" />
	</node>
	<node id="-411257" lat="59.243661109" lon="6.28331388689">
		<tag k="name" v="Lendingå" />
		<tag k="natural" v="bay" />
		<tag k="ssr:stedsnr" v="242299" />
	</node>
	<node id="-411251" lat="59.1460416677" lon="6.2152944435">
		<tag k="name" v="Linjer" />
		<tag k="natural" v="beach" />
		<tag k="ssr:stedsnr" v="242263" />
	</node>
	<node id="-411243" lat="59.2044222181" lon="6.40512221379">
		<tag k="name" v="Helgalandsfossen" />
		<tag k="natural" v="waterfall" />
		<tag k="ssr:stedsnr" v="242204" />
	</node>
	<node id="-411242" lat="59.1827499969" lon="6.33848888524">
		<tag k="name" v="Mattjørna" />
		<tag k="natural" v="water" />
		<tag k="ssr:stedsnr" v="242194" />
	</node>
	<node id="-411240" lat="59.1921777821" lon="6.34955834119">
		<tag k="name" v="Meinstjørna" />
		<tag k="natural" v="water" />
		<tag k="ssr:stedsnr" v="242186" />
	</node>
	<node id="-410556" lat="59.0895888915" lon="6.21544722019">
		<tag k="name" v="Målandsvatnet" />
		<tag k="natural" v="water" />
		<tag k="ssr:stedsnr" v="1684" />
	</node>
	<node id="-411238" lat="59.0750666697" lon="6.24604167126">
		<tag k="name" v="Røsselibekken" />
		<tag k="ssr:stedsnr" v="242140" />
		<tag k="waterway" v="stream" />
	</node>
	<node id="-411231" lat="59.1701833301" lon="6.08860834174">
		<tag k="name" v="Sandnes" />
		<tag k="natural" v="cape" />
		<tag k="ssr:stedsnr" v="242063" />
	</node>
	<node id="-413277" lat="59.2856967343" lon="6.57830734811">
		<tag k="name" v="Brendeknutåna" />
		<tag k="ssr:stedsnr" v="979998" />
		<tag k="waterway" v="stream" />
	</node>
	<node id="-411224" lat="59.1368138884" lon="6.26089444447">
		<tag k="loc_name" v="Halshølen" />
		<tag k="name" v="Halshøl" />
		<tag k="place" v="locality" />
		<tag k="ssr:stedsnr" v="241342" />
	</node>
	<node id="-411222" lat="59.1299305583" lon="6.49994444866">
		<tag k="name" v="Kveldsåna" />
		<tag k="ssr:stedsnr" v="241453" />
		<tag k="waterway" v="stream" />
	</node>
	<node id="-411220" lat="59.2538472265" lon="6.49348333761">
		<tag k="name" v="Gjotastigbekken" />
		<tag k="ssr:stedsnr" v="241419" />
		<tag k="waterway" v="stream" />
	</node>
	<node id="-411210" lat="59.3279999967" lon="6.37560554715">
		<tag k="name" v="Kvernabekken" />
		<tag k="ssr:stedsnr" v="236289" />
		<tag k="waterway" v="stream" />
	</node>
	<node id="-411209" lat="59.2991666685" lon="6.20624444956">
		<tag k="name" v="Ytra Osavatnet" />
		<tag k="natural" v="water" />
		<tag k="ssr:stedsnr" v="236267" />
	</node>
	<node id="-413256" lat="59.1225833315" lon="6.31337777118">
		<tag k="name" v="Foretjørna" />
		<tag k="natural" v="water" />
		<tag k="ssr:stedsnr" v="970604" />
	</node>
	<node id="-413255" lat="59.2494916707" lon="6.07414167022">
		<tag k="name" v="Egrebekken" />
		<tag k="ssr:stedsnr" v="970603" />
		<tag k="waterway" v="stream" />
	</node>
	<node id="-411196" lat="59.2850388916" lon="6.25063333651">
		<tag k="alt_name" v="Kvednabekken" />
		<tag k="name" v="Kvernabekken" />
		<tag k="ssr:stedsnr" v="185957" />
		<tag k="waterway" v="stream" />
	</node>
	<node id="-413240" lat="59.3661083289" lon="6.45283611021">
		<tag k="name" v="Øvre Neset" />
		<tag k="natural" v="cape" />
		<tag k="ssr:stedsnr" v="970427" />
	</node>
	<node id="-413238" lat="59.3660944483" lon="6.49705277659">
		<tag k="name" v="Lauvåstjørna" />
		<tag k="natural" v="water" />
		<tag k="ssr:stedsnr" v="970419" />
	</node>
	<node id="-410889" lat="59.1170055526" lon="6.30100555051">
		<tag k="name" v="Ullestadåna" />
		<tag k="ssr:stedsnr" v="120892" />
		<tag k="waterway" v="river" />
	</node>
	<node id="-411185" lat="59.3272500006" lon="6.46780277806">
		<tag k="name" v="Iglatjørna" />
		<tag k="natural" v="water" />
		<tag k="ssr:stedsnr" v="184971" />
	</node>
	<node id="-411180" lat="59.3460361109" lon="6.54323888991">
		<tag k="alt_name" v="Flæheiåa" />
		<tag k="name" v="Flæheiåna" />
		<tag k="ssr:stedsnr" v="184869" />
		<tag k="waterway" v="stream" />
	</node>
	<node id="-411179" lat="59.3479027775" lon="6.55937499419">
		<tag k="alt_name" v="Svartavatnet, øvre" />
		<tag k="name" v="Øvra Svartavatnet" />
		<tag k="natural" v="water" />
		<tag k="ssr:stedsnr" v="184868" />
		<tag k="water" v="lake" />
	</node>
	<node id="-411177" lat="59.1929361091" lon="6.20877500564">
		<tag k="alt_name" v="Fiskeløys" />
		<tag k="name" v="Fiskeløysvatnet" />
		<tag k="natural" v="water" />
		<tag k="ssr:stedsnr" v="184855" />
	</node>
	<node id="-413222" lat="59.2043999963" lon="6.16527222193">
		<tag k="name" v="Byrkjaåna" />
		<tag k="ssr:stedsnr" v="970260" />
		<tag k="waterway" v="river" />
	</node>
	<node id="-411170" lat="59.1789861141" lon="6.30224444469">
		<tag k="name" v="Vasstølvatnet" />
		<tag k="natural" v="water" />
		<tag k="ssr:stedsnr" v="184488" />
		<tag k="water" v="lake" />
	</node>
	<node id="-411169" lat="59.1622333297" lon="6.31731666769">
		<tag k="name" v="Jekta" />
		<tag k="natural" v="cape" />
		<tag k="ssr:stedsnr" v="184486" />
	</node>
	<node id="-413216" lat="59.1072861092" lon="6.31275833324">
		<tag k="name" v="Grasdalstjørna" />
		<tag k="natural" v="water" />
		<tag k="ssr:stedsnr" v="970108" />
	</node>
	<node id="-411167" lat="59.1957750008" lon="6.43103611796">
		<tag k="name" v="Tusso" />
		<tag k="ssr:stedsnr" v="184470" />
		<tag k="waterway" v="river" />
	</node>
	<node id="-411164" lat="59.2875250021" lon="6.18695000487">
		<tag k="name" v="Fosstemmen" />
		<tag k="natural" v="water" />
		<tag k="ssr:stedsnr" v="184608" />
	</node>
	<node id="-413210" lat="59.0922333365" lon="6.35320833927">
		<tag k="name" v="Sandbekken" />
		<tag k="ssr:stedsnr" v="970011" />
		<tag k="waterway" v="stream" />
	</node>
	<node id="-411161" lat="59.167836112" lon="6.41628888019">
		<tag k="name" v="Lomatjørnane" />
		<tag k="natural" v="water" />
		<tag k="ssr:stedsnr" v="184390" />
	</node>
	<node id="-411158" lat="59.1639500003" lon="6.48717777797">
		<tag k="name" v="Grytetjørna" />
		<tag k="natural" v="water" />
		<tag k="ssr:stedsnr" v="184416" />
	</node>
	<node id="-411153" lat="59.2703555523" lon="6.78870000431">
		<tag k="name" v="Årdals-Krymlevatnet" />
		<tag k="natural" v="water" />
		<tag k="ssr:stedsnr" v="184141" />
		<tag k="water" v="lake" />
	</node>
	<node id="-413200" lat="59.2569583293" lon="6.25758611231">
		<tag k="name" v="Tvillingtjørnene" />
		<tag k="natural" v="water" />
		<tag k="ssr:stedsnr" v="969642" />
	</node>
	<node id="-411148" lat="59.0966305587" lon="6.35826111944">
		<tag k="name" v="Sandvassosen" />
		<tag k="natural" v="bay" />
		<tag k="ssr:stedsnr" v="184109" />
	</node>
	<node id="-413190" lat="59.1327361149" lon="6.25371944883">
		<tag k="alt_name" v="Tveidahølen" />
		<tag k="name" v="Tveitehølen" />
		<tag k="place" v="locality" />
		<tag k="ssr:stedsnr" v="969363" />
	</node>
	<node id="-413189" lat="59.1333999963" lon="6.26436665906">
		<tag k="name" v="Bjørg" />
		<tag k="ssr:stedsnr" v="969352" />
		<tag k="waterway" v="river" />
	</node>
	<node id="-413185" lat="59.2109722245" lon="6.50132500683">
		<tag k="name" v="Holmane" />
		<tag k="place" v="island" />
		<tag k="ssr:stedsnr" v="969007" />
	</node>
	<node id="-411134" lat="59.159377782" lon="6.0945194421">
		<tag k="alt_name" v="Skaratjørna" />
		<tag k="name" v="Skardatjørna" />
		<tag k="natural" v="water" />
		<tag k="ssr:stedsnr" v="183559" />
	</node>
	<node id="-411129" lat="59.1477666688" lon="6.58308611556">
		<tag k="name" v="Kråkeholsvatnet" />
		<tag k="natural" v="water" />
		<tag k="ssr:stedsnr" v="183391" />
	</node>
	<node id="-411128" lat="59.1401805527" lon="6.36973611554">
		<tag k="alt_name" v="Rykanfossen" />
		<tag k="name" v="Rykandfossen" />
		<tag k="natural" v="waterfall" />
		<tag k="ssr:stedsnr" v="183374" />
	</node>
	<node id="-411121" lat="59.2472361109" lon="6.59094165927">
		<tag k="name" v="Rundemannsvatnet" />
		<tag k="natural" v="water" />
		<tag k="ssr:stedsnr" v="183254" />
	</node>
	<node id="-411118" lat="59.2295500022" lon="6.61162500133">
		<tag k="name" v="Futevatnet" />
		<tag k="natural" v="water" />
		<tag k="ssr:stedsnr" v="183219" />
	</node>
	<node id="-411114" lat="59.1852972236" lon="6.7358500077">
		<tag k="name" v="Vassrauvtjørna" />
		<tag k="natural" v="water" />
		<tag k="ssr:stedsnr" v="183197" />
	</node>
	<node id="-413160" lat="59.2065194458" lon="6.11994443747">
		<tag k="name" v="Ånå" />
		<tag k="ssr:stedsnr" v="951034" />
		<tag k="waterway" v="stream" />
	</node>
	<node id="-411107" lat="59.293347224" lon="6.16242222788">
		<tag k="name" v="Asheimstemmen" />
		<tag k="natural" v="water" />
		<tag k="ssr:stedsnr" v="181872" />
	</node>
	<node id="-410875" lat="59.2569888858" lon="6.20745277945">
		<tag k="name" v="Hagaliåna" />
		<tag k="ssr:stedsnr" v="120561" />
		<tag k="waterway" v="stream" />
	</node>
	<node id="-413148" lat="59.2642972208" lon="6.34541111175">
		<tag k="alt_name" v="Vormo" />
		<tag k="name" v="Vorma" />
		<tag k="ssr:stedsnr" v="913118" />
		<tag k="waterway" v="river" />
	</node>
	<node id="-413147" lat="59.2659277743" lon="6.35426666833">
		<tag k="alt_name" v="Bruarbekken" />
		<tag k="name" v="Brubekken" />
		<tag k="ssr:stedsnr" v="913114" />
		<tag k="waterway" v="stream" />
	</node>
	<node id="-413144" lat="59.2547916646" lon="6.33781111088">
		<tag k="name" v="Eikelivatnet" />
		<tag k="natural" v="water" />
		<tag k="ssr:stedsnr" v="913104" />
	</node>
	<node id="-413140" lat="59.3315638902" lon="6.51298611641">
		<tag k="name" v="Vassdalsvatnet" />
		<tag k="natural" v="water" />
		<tag k="ssr:stedsnr" v="912974" />
	</node>
	<node id="-411091" lat="59.2838194463" lon="6.3599222209">
		<tag k="name" v="Reildaltjørna" />
		<tag k="natural" v="water" />
		<tag k="ssr:stedsnr" v="181608" />
	</node>
	<node id="-413137" lat="59.2874416694" lon="6.39951944477">
		<tag k="name" v="Litlevikvatnet" />
		<tag k="natural" v="water" />
		<tag k="ssr:stedsnr" v="912954" />
	</node>
	<node id="-413136" lat="59.2866027737" lon="6.44197500069">
		<tag k="alt_name" v="Tøssåa" />
		<tag k="name" v="Tøssåna" />
		<tag k="ssr:stedsnr" v="912955" />
		<tag k="waterway" v="stream" />
	</node>
	<node id="-413132" lat="59.183036108" lon="6.21131388704">
		<tag k="name" v="Måvatnet" />
		<tag k="natural" v="water" />
		<tag k="ssr:stedsnr" v="912899" />
	</node>
	<node id="-413130" lat="59.345552774" lon="6.43512777972">
		<tag k="alt_name" v="Kromshagetjørna" />
		<tag k="name" v="Kromshagtjørna" />
		<tag k="natural" v="water" />
		<tag k="ssr:stedsnr" v="912892" />
	</node>
	<node id="-413127" lat="59.0768055529" lon="6.13763610742">
		<tag k="alt_name" v="Reinaknudtjørnene" />
		<tag k="name" v="Reinaknuttjørnane" />
		<tag k="natural" v="water" />
		<tag k="ssr:stedsnr" v="912683" />
	</node>
	<node id="-413124" lat="59.2925500008" lon="6.19995000348">
		<tag k="alt_name" v="Krogastemmen" />
		<tag k="name" v="Krokastemmen" />
		<tag k="natural" v="water" />
		<tag k="ssr:stedsnr" v="912641" />
	</node>
	<node id="-411073" lat="59.1510361109" lon="6.43951389712">
		<tag k="name" v="Rausdalsåna" />
		<tag k="ssr:stedsnr" v="181482" />
		<tag k="waterway" v="stream" />
	</node>
	<node id="-413119" lat="59.1945249988" lon="6.35552500451">
		<tag k="name" v="Myklagardsvatnet" />
		<tag k="natural" v="water" />
		<tag k="ssr:stedsnr" v="912477" />
	</node>
	<node id="-413111" lat="59.1409499966" lon="6.25570000347">
		<tag k="alt_name" v="Bjønnsholmen" />
		<tag k="name" v="Bjørnsholmen" />
		<tag k="place" v="islet" />
		<tag k="ssr:stedsnr" v="912411" />
	</node>
	<node id="-413109" lat="59.1576000003" lon="6.40807499319">
		<tag k="name" v="Hiavatnet" />
		<tag k="natural" v="water" />
		<tag k="ssr:stedsnr" v="912394" />
	</node>
	<node id="-413107" lat="59.2249611157" lon="6.31820000292">
		<tag k="alt_name" v="Hedlestøtjørna" />
		<tag k="name" v="Hellestølstjørna" />
		<tag k="natural" v="water" />
		<tag k="ssr:stedsnr" v="912299" />
	</node>
	<node id="-411056" lat="59.2355472231" lon="6.25590554769">
		<tag k="name" v="Gjerdaneset" />
		<tag k="natural" v="cape" />
		<tag k="ssr:stedsnr" v="181388" />
	</node>
	<node id="-413103" lat="59.1950499956" lon="6.83082499496">
		<tag k="name" v="Skrumlevatnet" />
		<tag k="natural" v="water" />
		<tag k="ssr:stedsnr" v="912236" />
		<tag k="water" v="lake" />
	</node>
	<node id="-413100" lat="59.0741361126" lon="6.23683889011">
		<tag k="alt_name" v="Brogavatnet" />
		<tag k="name" v="Brokavatnet" />
		<tag k="natural" v="water" />
		<tag k="ssr:stedsnr" v="912111" />
	</node>
	<node id="-413099" lat="59.0935388882" lon="6.49316667455">
		<tag k="name" v="Lyngsneset" />
		<tag k="natural" v="cape" />
		<tag k="ssr:stedsnr" v="912101" />
	</node>
	<node id="-411050" lat="59.241611114" lon="6.21951666585">
		<tag k="name" v="Firkanta" />
		<tag k="natural" v="water" />
		<tag k="ssr:stedsnr" v="181357" />
	</node>
	<node id="-413095" lat="59.1048916695" lon="6.30293332888">
		<tag k="name" v="Lomstjørna" />
		<tag k="natural" v="water" />
		<tag k="ssr:stedsnr" v="912080" />
	</node>
	<node id="-413094" lat="59.2877851868" lon="6.57079056024">
		<tag k="loc_name" v="Rolighetstjørna" />
		<tag k="name" v="Svartavatnet" />
		<tag k="natural" v="water" />
		<tag k="ssr:stedsnr" v="912077" />
	</node>
	<node id="-413092" lat="59.2762499996" lon="6.43980000671">
		<tag k="name" v="Svortetjørna" />
		<tag k="natural" v="water" />
		<tag k="ssr:stedsnr" v="912068" />
	</node>
	<node id="-411041" lat="59.2447138871" lon="6.27872222216">
		<tag k="name" v="Sandåna" />
		<tag k="ssr:stedsnr" v="181326" />
		<tag k="waterway" v="river" />
	</node>
	<node id="-413088" lat="59.0514527781" lon="6.27558889333">
		<tag k="alt_name" v="Gamlestølstjørna, stora" />
		<tag k="name" v="Stora Gamlestølstjørna" />
		<tag k="natural" v="water" />
		<tag k="ssr:stedsnr" v="912011" />
		<tag k="water" v="lake" />
	</node>
	<node id="-411036" lat="59.2235666632" lon="6.28833056431">
		<tag k="name" v="Brokatjørna" />
		<tag k="natural" v="water" />
		<tag k="ssr:stedsnr" v="181298" />
	</node>
	<node id="-413083" lat="59.1644749993" lon="6.15255555191">
		<tag k="name" v="Åsatjørna" />
		<tag k="natural" v="water" />
		<tag k="ssr:stedsnr" v="911613" />
	</node>
	<node id="-413082" lat="59.132111108" lon="6.14368611933">
		<tag k="alt_name" v="Litla Dyregråvatn;Dyragravvatnet, litle" />
		<tag k="name" v="Litla Dyragravvatnet" />
		<tag k="natural" v="water" />
		<tag k="ssr:stedsnr" v="911522" />
		<tag k="water" v="lake" />
	</node>
	<node id="-413081" lat="59.1276055515" lon="6.16981388852">
		<tag k="name" v="Espevatnet" />
		<tag k="natural" v="water" />
		<tag k="ssr:stedsnr" v="911515" />
	</node>
	<node id="-411032" lat="59.3742250006" lon="6.45027499602">
		<tag k="name" v="Foreneset" />
		<tag k="natural" v="cape" />
		<tag k="ssr:stedsnr" v="181286" />
	</node>
	<node id="-413077" lat="59.1626333331" lon="6.29634166651">
		<tag k="name" v="Ragsåna" />
		<tag k="ssr:stedsnr" v="911407" />
		<tag k="waterway" v="stream" />
	</node>
	<node id="-413076" lat="59.2260249963" lon="6.22777499257">
		<tag k="alt_name" v="Fossadn" />
		<tag k="name" v="Fossane" />
		<tag k="ssr:stedsnr" v="911298" />
		<tag k="waterway" v="stream" />
	</node>
	<node id="-413074" lat="59.2474749956" lon="6.29551944312">
		<tag k="alt_name" v="Bukkaholmen" />
		<tag k="name" v="Bukkholmen" />
		<tag k="place" v="islet" />
		<tag k="ssr:stedsnr" v="911285" />
	</node>
	<node id="-411024" lat="59.1725666641" lon="6.38116111173">
		<tag k="name" v="Pålsvika" />
		<tag k="natural" v="bay" />
		<tag k="ssr:stedsnr" v="181224" />
	</node>
	<node id="-413071" lat="59.3534083304" lon="6.41020555495">
		<tag k="name" v="Delskartjørna" />
		<tag k="natural" v="water" />
		<tag k="ssr:stedsnr" v="910505" />
	</node>
	<node id="-411020" lat="59.2053000043" lon="6.21022499861">
		<tag k="name" v="Kjøssåna" />
		<tag k="ssr:stedsnr" v="181195" />
		<tag k="waterway" v="river" />
	</node>
	<node id="-411019" lat="59.245866664" lon="6.4669888978">
		<tag k="name" v="Heimra Storaheivatnet" />
		<tag k="natural" v="water" />
		<tag k="ssr:stedsnr" v="181186" />
		<tag k="water" v="lake" />
	</node>
	<node id="-411018" lat="59.2093111082" lon="6.49673334223">
		<tag k="name" v="Floen" />
		<tag k="natural" v="water" />
		<tag k="ssr:stedsnr" v="181183" />
		<tag k="water" v="lake" />
	</node>
	<node id="-413065" lat="59.2935583305" lon="6.43676666264">
		<tag k="name" v="Terneholmen" />
		<tag k="place" v="islet" />
		<tag k="ssr:stedsnr" v="910390" />
	</node>
	<node id="-413055" lat="59.3112750039" lon="6.52843888731">
		<tag k="name" v="Reinsrumpebekken" />
		<tag k="ssr:stedsnr" v="913956" />
		<tag k="waterway" v="stream" />
	</node>
	<node id="-413054" lat="59.2974194438" lon="6.28571666323">
		<tag k="alt_name" v="Tjødnå" />
		<tag k="name" v="Eidatjørna" />
		<tag k="natural" v="water" />
		<tag k="ssr:stedsnr" v="913944" />
	</node>
	<node id="-413053" lat="59.2973999992" lon="6.39062499419">
		<tag k="name" v="Tvidalstjørna" />
		<tag k="natural" v="water" />
		<tag k="ssr:stedsnr" v="913939" />
	</node>
	<node id="-413052" lat="59.3544805559" lon="6.3902749942">
		<tag k="name" v="Kringletjørna" />
		<tag k="natural" v="water" />
		<tag k="ssr:stedsnr" v="913910" />
	</node>
	<node id="-413051" lat="59.350502776" lon="6.38769166057">
		<tag k="name" v="Krokavatnet" />
		<tag k="natural" v="water" />
		<tag k="ssr:stedsnr" v="913911" />
		<tag k="water" v="lake" />
	</node>
	<node id="-413050" lat="59.3543138854" lon="6.42111388037">
		<tag k="name" v="Stordalstjørna" />
		<tag k="natural" v="water" />
		<tag k="ssr:stedsnr" v="913906" />
	</node>
	<node id="-413041" lat="59.1199237143" lon="6.36804808832">
		<tag k="name" v="Litlåna" />
		<tag k="ssr:stedsnr" v="909581" />
		<tag k="waterway" v="river" />
	</node>
	<node id="-413040" lat="59.1122805523" lon="6.55285555483">
		<tag k="name" v="Søra Hallatjørna" />
		<tag k="natural" v="water" />
		<tag k="ssr:stedsnr" v="909574" />
	</node>
	<node id="-410991" lat="59.2158000007" lon="6.12867778506">
		<tag k="name" v="Fossabekken" />
		<tag k="ssr:stedsnr" v="175728" />
		<tag k="waterway" v="stream" />
	</node>
	<node id="-413037" lat="59.2551000036" lon="6.43933887992">
		<tag k="name" v="Vassbotnstranda" />
		<tag k="natural" v="beach" />
		<tag k="ssr:stedsnr" v="909546" />
	</node>
	<node id="-410988" lat="59.3026277765" lon="6.21351665971">
		<tag k="name" v="Svartavatnet" />
		<tag k="natural" v="water" />
		<tag k="ssr:stedsnr" v="175258" />
		<tag k="water" v="lake" />
	</node>
	<node id="-413035" lat="59.1035638858" lon="6.40302221582">
		<tag k="name" v="Osartjørna" />
		<tag k="natural" v="water" />
		<tag k="ssr:stedsnr" v="909530" />
	</node>
	<node id="-413033" lat="59.2913361121" lon="6.41619167477">
		<tag k="name" v="Dyrsvika" />
		<tag k="natural" v="bay" />
		<tag k="ssr:stedsnr" v="909516" />
	</node>
	<node id="-413027" lat="59.1262388905" lon="6.51396666854">
		<tag k="name" v="Dorsfossen" />
		<tag k="natural" v="waterfall" />
		<tag k="ssr:stedsnr" v="909467" />
	</node>
	<node id="-413026" lat="59.251380555" lon="5.98409722616">
		<tag k="name" v="Svortetjørna" />
		<tag k="natural" v="water" />
		<tag k="ssr:stedsnr" v="909452" />
	</node>
	<node id="-413024" lat="59.1432055528" lon="6.36735277862">
		<tag k="name" v="Brondalsbekken" />
		<tag k="ssr:stedsnr" v="909445" />
		<tag k="waterway" v="stream" />
	</node>
	<node id="-410975" lat="59.3067833311" lon="6.50538055344">
		<tag k="name" v="Torsstølstjørnane" />
		<tag k="natural" v="water" />
		<tag k="ssr:stedsnr" v="124966" />
	</node>
	<node id="-413022" lat="59.2597500037" lon="6.45186945025">
		<tag k="name" v="Grønebakktjørna" />
		<tag k="natural" v="water" />
		<tag k="ssr:stedsnr" v="909444" />
	</node>
	<node id="-410972" lat="59.3521666661" lon="6.50046666712">
		<tag k="name" v="Vassdalsvatnet" />
		<tag k="natural" v="water" />
		<tag k="ssr:stedsnr" v="124928" />
	</node>
	<node id="-410970" lat="59.3555388877" lon="6.36578888829">
		<tag k="alt_name" v="Nesstølvatnet" />
		<tag k="name" v="Nesstølsvatnet" />
		<tag k="natural" v="water" />
		<tag k="ssr:stedsnr" v="124893" />
		<tag k="water" v="lake" />
	</node>
	<node id="-413017" lat="59.2320166647" lon="6.18985833694">
		<tag k="name" v="Sæbøhedlå" />
		<tag k="natural" v="cape" />
		<tag k="ssr:stedsnr" v="909424" />
	</node>
	<node id="-410968" lat="59.2595277817" lon="6.49963889442">
		<tag k="name" v="Kvanndalsvatnet" />
		<tag k="natural" v="water" />
		<tag k="ssr:stedsnr" v="124091" />
	</node>
	<node id="-413015" lat="59.2318361119" lon="6.1481444434">
		<tag k="name" v="Puntåna" />
		<tag k="ssr:stedsnr" v="909410" />
		<tag k="waterway" v="stream" />
	</node>
	<node id="-410962" lat="59.336363885" lon="6.40712499517">
		<tag k="name" v="Nøkksvatnet" />
		<tag k="natural" v="water" />
		<tag k="ssr:stedsnr" v="123914" />
	</node>
	<node id="-413009" lat="59.2349361137" lon="6.29708888274">
		<tag k="name" v="Saåna" />
		<tag k="ssr:stedsnr" v="909361" />
		<tag k="waterway" v="river" />
	</node>
	<node id="-410959" lat="59.34899444" lon="6.42888610439">
		<tag k="name" v="Levardsvatnet" />
		<tag k="natural" v="water" />
		<tag k="ssr:stedsnr" v="123894" />
		<tag k="water" v="lake" />
	</node>
	<node id="-410958" lat="59.3412777807" lon="6.42574166578">
		<tag k="name" v="Stemtjørna" />
		<tag k="natural" v="water" />
		<tag k="ssr:stedsnr" v="123891" />
	</node>
	<node id="-410952" lat="59.2738000001" lon="6.05445000535">
		<tag k="name" v="Gunnstølvatnet" />
		<tag k="natural" v="water" />
		<tag k="ssr:stedsnr" v="123639" />
		<tag k="water" v="lake" />
	</node>
	<node id="-410949" lat="59.1492083359" lon="6.05904999872">
		<tag k="alt_name" v="Skåratjørna" />
		<tag k="name" v="Skoratjørna" />
		<tag k="natural" v="water" />
		<tag k="ssr:stedsnr" v="123617" />
	</node>
	<node id="-410937" lat="59.350519441" lon="6.73767778483">
		<tag k="name" v="Stora Gilavatnet" />
		<tag k="natural" v="water" />
		<tag k="ssr:stedsnr" v="123273" />
		<tag k="water" v="lake" />
	</node>
	<node id="-410936" lat="59.3069638926" lon="6.74689722503">
		<tag k="name" v="Nedra Sanddalsvatnet" />
		<tag k="natural" v="water" />
		<tag k="ssr:stedsnr" v="123258" />
	</node>
	<node id="-410935" lat="59.3647333345" lon="6.59912500082">
		<tag k="name" v="Litla Holevatnet" />
		<tag k="natural" v="water" />
		<tag k="ssr:stedsnr" v="123223" />
	</node>
	<node id="-410929" lat="59.2842111072" lon="6.52641666738">
		<tag k="name" v="Hegnavatnet" />
		<tag k="natural" v="water" />
		<tag k="ssr:stedsnr" v="123096" />
		<tag k="water" v="lake" />
	</node>
	<node id="-412975" lat="59.3331083295" lon="6.36159999859">
		<tag k="name" v="Stutatjørna" />
		<tag k="natural" v="water" />
		<tag k="ssr:stedsnr" v="904324" />
	</node>
	<node id="-412970" lat="59.1070055526" lon="6.22347777068">
		<tag k="name" v="Kjervåna" />
		<tag k="ssr:stedsnr" v="909768" />
		<tag k="waterway" v="river" />
	</node>
	<node id="-410920" lat="59.1009250035" lon="6.15779443781">
		<tag k="alt_name" v="Øygjanes" />
		<tag k="name" v="Øykjaneset" />
		<tag k="natural" v="cape" />
		<tag k="ssr:stedsnr" v="122687" />
	</node>
	<node id="-410917" lat="59.129661109" lon="6.20044999523">
		<tag k="alt_name" v="Raunetjørn" />
		<tag k="name" v="Raunetjørna" />
		<tag k="natural" v="water" />
		<tag k="ssr:stedsnr" v="122495" />
	</node>
	<node id="-410915" lat="59.1660250005" lon="6.27312776985">
		<tag k="name" v="Lomslivatnet" />
		<tag k="natural" v="water" />
		<tag k="ssr:stedsnr" v="122467" />
	</node>
	<node id="-410914" lat="59.1595000021" lon="6.27455833458">
		<tag k="name" v="Svartavatnet" />
		<tag k="natural" v="water" />
		<tag k="ssr:stedsnr" v="122466" />
	</node>
	<node id="-410912" lat="59.125008331" lon="6.25571111839">
		<tag k="alt_name" v="Tveidebekken" />
		<tag k="name" v="Tveitebekken" />
		<tag k="ssr:stedsnr" v="122422" />
		<tag k="waterway" v="stream" />
	</node>
	<node id="-410911" lat="59.1509249986" lon="6.50996111351">
		<tag k="name" v="Musdalsvatnet" />
		<tag k="natural" v="water" />
		<tag k="ssr:stedsnr" v="122412" />
		<tag k="water" v="lake" />
	</node>
	<node id="-410910" lat="59.1476250034" lon="6.26449999308">
		<tag k="alt_name" v="Kjidjaneset" />
		<tag k="name" v="Kjeaneset" />
		<tag k="natural" v="cape" />
		<tag k="ssr:stedsnr" v="122400" />
	</node>
	<node id="-412956" lat="59.3546916683" lon="6.54583333216">
		<tag k="name" v="Flæheivatnet" />
		<tag k="natural" v="water" />
		<tag k="ssr:stedsnr" v="852925" />
	</node>
	<node id="-412955" lat="59.3588361067" lon="6.58788888331">
		<tag k="alt_name" v="Holevatnet, store;Stora Holevatnet" />
		<tag k="name" v="Store Holevatnet" />
		<tag k="natural" v="water" />
		<tag k="ssr:stedsnr" v="852921" />
	</node>
	<node id="-410906" lat="59.1556611131" lon="6.37543888488">
		<tag k="name" v="Bjørnabekken" />
		<tag k="ssr:stedsnr" v="122379" />
		<tag k="waterway" v="stream" />
	</node>
	<node id="-412953" lat="59.3368083369" lon="6.4291944356">
		<tag k="alt_name" v="Kvernåa" />
		<tag k="name" v="Kvernåna" />
		<tag k="ssr:stedsnr" v="852890" />
		<tag k="waterway" v="stream" />
	</node>
	<node id="-412952" lat="59.3377527772" lon="6.33793333137">
		<tag k="name" v="Lauvbakkatjørna" />
		<tag k="natural" v="water" />
		<tag k="ssr:stedsnr" v="852885" />
	</node>
	<node id="-412949" lat="59.0706555585" lon="6.192636103">
		<tag k="alt_name" v="Forenesvatnet" />
		<tag k="name" v="Furenesvatnet" />
		<tag k="natural" v="water" />
		<tag k="ssr:stedsnr" v="852627" />
		<tag k="water" v="lake" />
	</node>
	<node id="-412947" lat="59.2702000039" lon="6.06767499472">
		<tag k="name" v="Osmundslogen" />
		<tag k="natural" v="water" />
		<tag k="ssr:stedsnr" v="852578" />
	</node>
	<node id="-412945" lat="59.1835250003" lon="6.39019999753">
		<tag k="name" v="Mulaneset" />
		<tag k="natural" v="cape" />
		<tag k="ssr:stedsnr" v="852491" />
	</node>
	<node id="-412942" lat="59.1824111148" lon="6.2610888905">
		<tag k="alt_name" v="Vårefjellstjørna" />
		<tag k="name" v="Vardafjellstjørna" />
		<tag k="natural" v="water" />
		<tag k="ssr:stedsnr" v="852465" />
	</node>
	<node id="-410891" lat="59.2358305587" lon="6.38300833498">
		<tag k="name" v="Neså" />
		<tag k="ssr:stedsnr" v="121332" />
		<tag k="waterway" v="river" />
	</node>
	<node id="-412938" lat="59.3533250031" lon="6.80293610541">
		<tag k="name" v="Andrevatnet" />
		<tag k="natural" v="water" />
		<tag k="ssr:stedsnr" v="852258" />
	</node>
	<node id="-412937" lat="59.3249277741" lon="6.6375833301">
		<tag k="name" v="Lammatotjørna" />
		<tag k="natural" v="water" />
		<tag k="ssr:stedsnr" v="852236" />
	</node>
	<node id="-410887" lat="59.1795361118" lon="6.53092777408">
		<tag k="name" v="Stengjetjørna" />
		<tag k="natural" v="water" />
		<tag k="ssr:stedsnr" v="120783" />
	</node>
	<node id="-410885" lat="59.2663888924" lon="6.05231388901">
		<tag k="name" v="Kolhedletjørna" />
		<tag k="natural" v="water" />
		<tag k="ssr:stedsnr" v="120741" />
	</node>
	<node id="-412923" lat="59.2282638906" lon="6.19324999782">
		<tag k="name" v="Steinslandsvatnet" />
		<tag k="natural" v="water" />
		<tag k="ssr:stedsnr" v="851973" />
	</node>
	<node id="-410873" lat="59.1154472254" lon="6.49474444398">
		<tag k="name" v="Urdalsbekken" />
		<tag k="ssr:stedsnr" v="120515" />
		<tag k="waterway" v="stream" />
	</node>
	<node id="-410869" lat="59.1124333341" lon="6.40315554762">
		<tag k="name" v="Norddammen" />
		<tag k="ssr:stedsnr" v="120489" />
		<tag k="waterway" v="dam" />
	</node>
	<node id="-412913" lat="59.0937472218" lon="6.15120555413">
		<tag k="alt_name" v="Habnaberget" />
		<tag k="name" v="Hamnaberget" />
		<tag k="natural" v="cape" />
		<tag k="ssr:stedsnr" v="851687" />
	</node>
	<node id="-412912" lat="59.06645278" lon="6.21755278152">
		<tag k="alt_name" v="Varhustjørnene" />
		<tag k="name" v="Vardhustjørna" />
		<tag k="natural" v="water" />
		<tag k="ssr:stedsnr" v="851632" />
	</node>
	<node id="-410861" lat="59.151622219" lon="6.3606555619">
		<tag k="name" v="Svarthølen" />
		<tag k="place" v="locality" />
		<tag k="ssr:stedsnr" v="120438" />
	</node>
	<node id="-412907" lat="59.1637999991" lon="6.06813889287">
		<tag k="name" v="Litlavatnet" />
		<tag k="natural" v="water" />
		<tag k="ssr:stedsnr" v="851586" />
	</node>
	<node id="-412906" lat="59.1600499994" lon="6.18461388905">
		<tag k="name" v="Riskadalsvatnet" />
		<tag k="natural" v="water" />
		<tag k="ssr:stedsnr" v="851572" />
		<tag k="water" v="lake" />
	</node>
	<node id="-410857" lat="59.2798583311" lon="6.59257222182">
		<tag k="name" v="Austra Brendeknutvatnet" />
		<tag k="natural" v="water" />
		<tag k="ssr:stedsnr" v="120417" />
		<tag k="water" v="lake" />
	</node>
	<node id="-410854" lat="59.1283500007" lon="6.34479166067">
		<tag k="name" v="Busdalskartjørna" />
		<tag k="natural" v="water" />
		<tag k="ssr:stedsnr" v="120392" />
	</node>
	<node id="-411174" lat="59.3602194457" lon="6.38750832733">
		<tag k="alt_name" v="Bjønndalsvatnet" />
		<tag k="name" v="Bjørndalsvatnet" />
		<tag k="natural" v="water" />
		<tag k="ssr:stedsnr" v="184815" />
		<tag k="water" v="lake" />
	</node>
	<node id="-412897" lat="59.1536388865" lon="6.24818611731">
		<tag k="name" v="Vasslivatnet" />
		<tag k="natural" v="water" />
		<tag k="ssr:stedsnr" v="851465" />
	</node>
	<node id="-412895" lat="59.2098749958" lon="6.33305000198">
		<tag k="alt_name" v="Undestølvatnet" />
		<tag k="loc_name" v="Undestølsvatn" />
		<tag k="name" v="Undestølsvatnet" />
		<tag k="natural" v="water" />
		<tag k="ssr:stedsnr" v="851417" />
	</node>
	<node id="-412890" lat="59.1404999958" lon="6.39553888151">
		<tag k="alt_name" v="Dukolltjørnane" />
		<tag k="name" v="Dukollstjørna" />
		<tag k="natural" v="water" />
		<tag k="ssr:stedsnr" v="851393" />
	</node>
	<node id="-412887" lat="59.2283861114" lon="6.32523611972">
		<tag k="alt_name" v="Stora Stemtjørna" />
		<tag k="name" v="Stemtjørna" />
		<tag k="natural" v="water" />
		<tag k="ssr:stedsnr" v="851280" />
	</node>
	<node id="-412884" lat="59.244383336" lon="6.29297778414">
		<tag k="alt_name" v="Breidlandsvatn" />
		<tag k="name" v="Breilandsvatnet" />
		<tag k="natural" v="water" />
		<tag k="ssr:stedsnr" v="851266" />
		<tag k="water" v="lake" />
	</node>
	<node id="-410833" lat="59.1623555574" lon="6.12156110221">
		<tag k="name" v="Staurlandstjørna" />
		<tag k="natural" v="water" />
		<tag k="ssr:stedsnr" v="120317" />
	</node>
	<node id="-412880" lat="59.2130472218" lon="6.77189722667">
		<tag k="name" v="Knutåna" />
		<tag k="ssr:stedsnr" v="851219" />
		<tag k="waterway" v="river" />
	</node>
	<node id="-412879" lat="59.0920750002" lon="6.27183889504">
		<tag k="alt_name" v="Steinskartjørna" />
		<tag k="name" v="Steinskardtjørna" />
		<tag k="natural" v="water" />
		<tag k="ssr:stedsnr" v="851118" />
	</node>
	<node id="-412877" lat="59.0825250045" lon="6.25537500408">
		<tag k="alt_name" v="Hilravatnet" />
		<tag k="name" v="Hildravatnet" />
		<tag k="natural" v="water" />
		<tag k="ssr:stedsnr" v="851105" />
	</node>
	<node id="-412869" lat="59.0935194457" lon="6.18143610531">
		<tag k="name" v="Graudåna" />
		<tag k="ssr:stedsnr" v="849776" />
		<tag k="waterway" v="river" />
	</node>
	<node id="-410817" lat="59.1994250008" lon="6.40896944571">
		<tag k="name" v="Helgalandsåna" />
		<tag k="ssr:stedsnr" v="120230" />
		<tag k="waterway" v="river" />
	</node>
	<node id="-412854" lat="59.1122833328" lon="6.40061665817">
		<tag k="name" v="Flætjørna" />
		<tag k="natural" v="water" />
		<tag k="ssr:stedsnr" v="849541" />
	</node>
	<node id="-412849" lat="59.2996416655" lon="6.47771388882">
		<tag k="name" v="Kaldavassholmen" />
		<tag k="place" v="islet" />
		<tag k="ssr:stedsnr" v="849510" />
	</node>
	<node id="-412838" lat="59.1345055577" lon="6.27590278578">
		<tag k="name" v="Kvalahølen" />
		<tag k="place" v="locality" />
		<tag k="ssr:stedsnr" v="849435" />
	</node>
	<node id="-410788" lat="59.3045444438" lon="6.25689444402">
		<tag k="name" v="Brattåna" />
		<tag k="ssr:stedsnr" v="63995" />
		<tag k="waterway" v="stream" />
	</node>
	<node id="-410787" lat="59.3228583343" lon="6.56708332943">
		<tag k="name" v="Førreåa" />
		<tag k="ssr:stedsnr" v="63994" />
		<tag k="waterway" v="river" />
	</node>
	<node id="-410783" lat="59.2985611082" lon="6.47831666071">
		<tag k="name" v="Kaldavatnet" />
		<tag k="natural" v="water" />
		<tag k="ssr:stedsnr" v="63966" />
	</node>
	<node id="-410781" lat="59.2916027747" lon="6.40533056364">
		<tag k="name" v="Fiskelitjørna" />
		<tag k="natural" v="water" />
		<tag k="ssr:stedsnr" v="63954" />
	</node>
	<node id="-410780" lat="59.3008111105" lon="6.41478333554">
		<tag k="name" v="Stemtjørna" />
		<tag k="natural" v="water" />
		<tag k="ssr:stedsnr" v="63932" />
	</node>
	<node id="-410777" lat="59.3479305565" lon="6.35920278109">
		<tag k="name" v="Vassbotnen" />
		<tag k="natural" v="water" />
		<tag k="ssr:stedsnr" v="63908" />
		<tag k="water" v="lake" />
	</node>
	<node id="-410772" lat="59.3640361153" lon="6.48047777841">
		<tag k="name" v="Stemtjørna" />
		<tag k="natural" v="water" />
		<tag k="ssr:stedsnr" v="63825" />
	</node>
	<node id="-412819" lat="59.1030500021" lon="6.29436666148">
		<tag k="name" v="Litla Nystølstjørna" />
		<tag k="ssr:stedsnr" v="849605" />
		<tag k="waterway" v="stream" />
	</node>
	<node id="-410770" lat="59.2490984341" lon="6.02265977938">
		<tag k="alt_name" v="Bjødlandsvatnet" />
		<tag k="name" v="Bjøllandsvatnet" />
		<tag k="natural" v="water" />
		<tag k="ssr:stedsnr" v="63679" />
	</node>
	<node id="-412817" lat="59.2923222197" lon="6.43290556345">
		<tag k="name" v="Øykjaholmen" />
		<tag k="place" v="islet" />
		<tag k="ssr:stedsnr" v="849589" />
	</node>
	<node id="-412815" lat="59.2900416682" lon="6.47141666984">
		<tag k="name" v="Nystøltjørna" />
		<tag k="natural" v="water" />
		<tag k="ssr:stedsnr" v="849581" />
	</node>
	<node id="-410765" lat="59.1675249958" lon="6.48840277898">
		<tag k="name" v="Steggjatjørna" />
		<tag k="natural" v="water" />
		<tag k="ssr:stedsnr" v="63419" />
	</node>
	<node id="-410760" lat="59.2644277737" lon="6.53745000399">
		<tag k="name" v="Skitholtjørna" />
		<tag k="natural" v="water" />
		<tag k="ssr:stedsnr" v="63124" />
	</node>
	<node id="-410759" lat="59.2835527818" lon="6.48881943555">
		<tag k="name" v="Krokavatnet" />
		<tag k="natural" v="water" />
		<tag k="ssr:stedsnr" v="63094" />
	</node>
	<node id="-412806" lat="59.1453888868" lon="6.21498055582">
		<tag k="name" v="Linjerhølen" />
		<tag k="place" v="locality" />
		<tag k="ssr:stedsnr" v="849305" />
	</node>
	<node id="-412803" lat="59.2400249956" lon="6.49654999546">
		<tag k="name" v="Austra Storaheivatnet" />
		<tag k="natural" v="water" />
		<tag k="ssr:stedsnr" v="849167" />
		<tag k="water" v="lake" />
	</node>
	<node id="-412802" lat="59.1673833328" lon="6.11928333045">
		<tag k="name" v="Bårshaugvika" />
		<tag k="natural" v="bay" />
		<tag k="ssr:stedsnr" v="849097" />
	</node>
	<node id="-412798" lat="59.1777666704" lon="6.34164165791">
		<tag k="name" v="Dalavatnet" />
		<tag k="natural" v="water" />
		<tag k="ssr:stedsnr" v="849235" />
		<tag k="water" v="lake" />
	</node>
	<node id="-410741" lat="59.1598888909" lon="6.05016945217">
		<tag k="name" v="Sigmundstadtjørna" />
		<tag k="natural" v="water" />
		<tag k="ssr:stedsnr" v="62580" />
	</node>
	<node id="-412786" lat="59.2026972194" lon="6.00055277796">
		<tag k="name" v="Søylå" />
		<tag k="natural" v="water" />
		<tag k="ssr:stedsnr" v="848052" />
		<tag k="water" v="lake" />
	</node>
	<node id="-410737" lat="59.2115138914" lon="6.35212499265">
		<tag k="name" v="Storsteinvatnet" />
		<tag k="natural" v="water" />
		<tag k="ssr:stedsnr" v="62454" />
	</node>
	<node id="-410734" lat="59.1284305546" lon="6.26886111432">
		<tag k="name" v="Ullestadåna" />
		<tag k="ssr:stedsnr" v="62428" />
		<tag k="waterway" v="stream" />
	</node>
	<node id="-410731" lat="59.1494500031" lon="6.30325832561">
		<tag k="name" v="Dyrsvika" />
		<tag k="natural" v="bay" />
		<tag k="ssr:stedsnr" v="62397" />
	</node>
	<node id="-410726" lat="59.2126863181" lon="6.27037363055">
		<tag k="name" v="Jørmelandsvatnet" />
		<tag k="natural" v="water" />
		<tag k="ssr:stedsnr" v="62293" />
	</node>
	<node id="-410725" lat="59.2266055545" lon="6.53102500446">
		<tag k="name" v="Stutatjørna" />
		<tag k="natural" v="water" />
		<tag k="ssr:stedsnr" v="62287" />
	</node>
	<node id="-411152" lat="59.2769361133" lon="6.70896666572">
		<tag k="name" v="Vinkelvatnet" />
		<tag k="natural" v="water" />
		<tag k="ssr:stedsnr" v="184138" />
	</node>
	<node id="-410717" lat="59.0762000018" lon="6.25861388743">
		<tag k="alt_name" v="Straumadn" />
		<tag k="name" v="Straumane" />
		<tag k="natural" v="strait" />
		<tag k="ssr:stedsnr" v="62118" />
	</node>
	<node id="-410716" lat="59.1287499999" lon="6.50675000727">
		<tag k="name" v="Evardalstjørna" />
		<tag k="natural" v="water" />
		<tag k="ssr:stedsnr" v="62080" />
	</node>
	<node id="-410715" lat="59.1157083345" lon="6.35791110769">
		<tag k="alt_name" v="Uravatnet" />
		<tag k="name" v="Urdavatnet" />
		<tag k="natural" v="water" />
		<tag k="ssr:stedsnr" v="62079" />
	</node>
	<node id="-410714" lat="59.12145" lon="6.34388889011">
		<tag k="name" v="Beinskjervatnet" />
		<tag k="natural" v="water" />
		<tag k="ssr:stedsnr" v="62077" />
	</node>
	<node id="-410713" lat="59.131519445" lon="6.42729999575">
		<tag k="name" v="Klubbatjørnane" />
		<tag k="natural" v="water" />
		<tag k="ssr:stedsnr" v="62075" />
	</node>
	<node id="-412755" lat="59.3268472225" lon="6.59035278115">
		<tag k="name" v="Søråa" />
		<tag k="ssr:stedsnr" v="791977" />
		<tag k="waterway" v="stream" />
	</node>
	<node id="-410702" lat="59.2907845902" lon="6.22034143454">
		<tag k="name" v="Gunnlaknaggvatnet" />
		<tag k="natural" v="water" />
		<tag k="ssr:stedsnr" v="60666" />
		<tag k="water" v="lake" />
	</node>
	<node id="-412748" lat="59.3605833358" lon="6.46876944086">
		<tag k="name" v="Vassdalstjørna" />
		<tag k="natural" v="water" />
		<tag k="ssr:stedsnr" v="791840" />
	</node>
	<node id="-412746" lat="59.252925003" lon="6.02574999135">
		<tag k="name" v="Grunnavatnet" />
		<tag k="natural" v="water" />
		<tag k="ssr:stedsnr" v="791683" />
	</node>
	<node id="-410694" lat="59.2720888932" lon="6.3350277736">
		<tag k="name" v="Vormelandsbekken" />
		<tag k="ssr:stedsnr" v="60592" />
		<tag k="waterway" v="stream" />
	</node>
	<node id="-412738" lat="59.2960361079" lon="6.63168332723">
		<tag k="name" v="Glommedalsfossen" />
		<tag k="natural" v="waterfall" />
		<tag k="ssr:stedsnr" v="791222" />
	</node>
	<node id="-412736" lat="59.3726722244" lon="6.75482778">
		<tag k="name" v="Førrevatnet" />
		<tag k="natural" v="water" />
		<tag k="ssr:stedsnr" v="791193" />
	</node>
	<node id="-412735" lat="59.2568333363" lon="6.66773888711">
		<tag k="name" v="Holmavatnet" />
		<tag k="natural" v="water" />
		<tag k="ssr:stedsnr" v="791144" />
	</node>
	<node id="-412734" lat="59.2732055587" lon="6.52190000299">
		<tag k="name" v="Steinabekken" />
		<tag k="ssr:stedsnr" v="791121" />
		<tag k="waterway" v="stream" />
	</node>
	<node id="-412733" lat="59.259711108" lon="6.31570556394">
		<tag k="name" v="Iglatjørna" />
		<tag k="natural" v="water" />
		<tag k="ssr:stedsnr" v="791119" />
	</node>
	<node id="-412731" lat="59.2636888883" lon="6.56982500623">
		<tag k="name" v="Fjellsendsvatnet" />
		<tag k="natural" v="water" />
		<tag k="ssr:stedsnr" v="791113" />
	</node>
	<node id="-410681" lat="59.2918833358" lon="6.41885555211">
		<tag k="name" v="Sandviksundet" />
		<tag k="natural" v="strait" />
		<tag k="ssr:stedsnr" v="60477" />
	</node>
	<node id="-412724" lat="59.2584361147" lon="6.52217777831">
		<tag k="name" v="Tjoravatnet" />
		<tag k="natural" v="water" />
		<tag k="ssr:stedsnr" v="791020" />
	</node>
	<node id="-412717" lat="59.2005444451" lon="6.02663889111">
		<tag k="alt_name" v="Kådatjørna" />
		<tag k="name" v="Kotatjørna" />
		<tag k="natural" v="water" />
		<tag k="ssr:stedsnr" v="790924" />
	</node>
	<node id="-412716" lat="59.1862416689" lon="6.1811805633">
		<tag k="name" v="Valavatnet" />
		<tag k="natural" v="water" />
		<tag k="ssr:stedsnr" v="790908" />
	</node>
	<node id="-410667" lat="59.3054694472" lon="6.39991944704">
		<tag k="name" v="Følekamåa" />
		<tag k="ssr:stedsnr" v="60392" />
		<tag k="waterway" v="stream" />
	</node>
	<node id="-412713" lat="59.1923916686" lon="6.17925555123">
		<tag k="name" v="Skjerabakktjørna" />
		<tag k="natural" v="water" />
		<tag k="ssr:stedsnr" v="790901" />
	</node>
	<node id="-412712" lat="59.0901694469" lon="6.14088611351">
		<tag k="alt_name" v="Øvre Stien" />
		<tag k="name" v="Øvrestigen" />
		<tag k="natural" v="cape" />
		<tag k="ssr:stedsnr" v="790720" />
	</node>
	<node id="-411142" lat="59.2786916684" lon="6.38159444997">
		<tag k="name" v="Mjåvatnet" />
		<tag k="natural" v="water" />
		<tag k="ssr:stedsnr" v="184062" />
	</node>
	<node id="-412703" lat="59.1873861101" lon="6.55281944362">
		<tag k="name" v="Sandvatnet" />
		<tag k="natural" v="water" />
		<tag k="ssr:stedsnr" v="790506" />
	</node>
	<node id="-412702" lat="59.2065500013" lon="6.47684999513">
		<tag k="name" v="Tengesdalsvatnet" />
		<tag k="natural" v="water" />
		<tag k="ssr:stedsnr" v="790495" />
		<tag k="water" v="lake" />
	</node>
	<node id="-410647" lat="59.2119361114" lon="6.37746389558">
		<tag k="name" v="Brunstøltjørna" />
		<tag k="natural" v="water" />
		<tag k="ssr:stedsnr" v="60295" />
	</node>
	<node id="-412691" lat="59.1633888864" lon="6.32745000435">
		<tag k="name" v="Furenes" />
		<tag k="natural" v="cape" />
		<tag k="ssr:stedsnr" v="790378" />
	</node>
	<node id="-412686" lat="59.242749998" lon="6.48091110486">
		<tag k="alt_name" v="Søra Storaheivatnet" />
		<tag k="name" v="Storaheivatnet" />
		<tag k="natural" v="water" />
		<tag k="ssr:stedsnr" v="790279" />
	</node>
	<node id="-412682" lat="59.2142000022" lon="6.69149999455">
		<tag k="name" v="Verhillervatnet" />
		<tag k="natural" v="water" />
		<tag k="ssr:stedsnr" v="790201" />
		<tag k="water" v="lake" />
	</node>
	<node id="-410632" lat="59.1680666709" lon="6.07555832509">
		<tag k="name" v="Stemmen" />
		<tag k="natural" v="bay" />
		<tag k="ssr:stedsnr" v="60096" />
	</node>
	<node id="-412676" lat="59.096074997" lon="6.23355832763">
		<tag k="alt_name" v="Gamlestølsvatnet" />
		<tag k="name" v="Gamlestølstjørna" />
		<tag k="natural" v="water" />
		<tag k="ssr:stedsnr" v="790057" />
	</node>
	<node id="-410626" lat="59.1255638899" lon="6.49991388041">
		<tag k="name" v="Raunelitjørna" />
		<tag k="natural" v="water" />
		<tag k="ssr:stedsnr" v="59475" />
	</node>
	<node id="-410622" lat="59.1553777784" lon="6.28612222119">
		<tag k="name" v="Skiftesbekken" />
		<tag k="ssr:stedsnr" v="59340" />
		<tag k="waterway" v="stream" />
	</node>
	<node id="-410609" lat="59.3303333378" lon="6.37408889644">
		<tag k="name" v="Stemtjørna" />
		<tag k="natural" v="water" />
		<tag k="ssr:stedsnr" v="54298" />
	</node>
	<node id="-412655" lat="59.0864527781" lon="6.35751110572">
		<tag k="name" v="Skiftesneset" />
		<tag k="natural" v="cape" />
		<tag k="ssr:stedsnr" v="788502" />
	</node>
	<node id="-412653" lat="59.1575138912" lon="6.41777500478">
		<tag k="name" v="Britavika" />
		<tag k="natural" v="bay" />
		<tag k="ssr:stedsnr" v="788495" />
	</node>
	<node id="-412644" lat="59.1239749997" lon="6.48545278562">
		<tag k="name" v="Evardalsåna" />
		<tag k="ssr:stedsnr" v="788448" />
		<tag k="waterway" v="river" />
	</node>
	<node id="-412639" lat="59.1368861088" lon="6.29861944198">
		<tag k="name" v="Selshølen" />
		<tag k="place" v="locality" />
		<tag k="ssr:stedsnr" v="788387" />
	</node>
	<node id="-410590" lat="59.3574833319" lon="6.40255277154">
		<tag k="name" v="Hildratjørna" />
		<tag k="natural" v="water" />
		<tag k="ssr:stedsnr" v="2910" />
	</node>
	<node id="-410588" lat="59.1128388874" lon="6.1560388806">
		<tag k="name" v="Holmavatnet" />
		<tag k="natural" v="water" />
		<tag k="ssr:stedsnr" v="2732" />
	</node>
	<node id="-410582" lat="59.1802888912" lon="6.284074996">
		<tag k="name" v="Kaldavatnet" />
		<tag k="natural" v="water" />
		<tag k="ssr:stedsnr" v="2502" />
	</node>
	<node id="-412627" lat="59.1526861094" lon="6.17095278514">
		<tag k="name" v="Mælåna" />
		<tag k="ssr:stedsnr" v="788291" />
		<tag k="waterway" v="river" />
	</node>
	<node id="-410577" lat="59.3451805543" lon="6.70563611065">
		<tag k="name" v="Litla Gilavatnet" />
		<tag k="natural" v="water" />
		<tag k="ssr:stedsnr" v="2253" />
	</node>
	<node id="-410576" lat="59.3030138869" lon="6.62508610771">
		<tag k="name" v="Vassbottvatnet" />
		<tag k="natural" v="water" />
		<tag k="ssr:stedsnr" v="2239" />
	</node>
	<node id="-410574" lat="59.2960972225" lon="6.68196388311">
		<tag k="name" v="Skarvheivatnet" />
		<tag k="natural" v="water" />
		<tag k="ssr:stedsnr" v="2233" />
		<tag k="water" v="lake" />
	</node>
	<node id="-410573" lat="59.3315750007" lon="6.70906667153">
		<tag k="name" v="Stora Blåfjellvatnet" />
		<tag k="natural" v="water" />
		<tag k="ssr:stedsnr" v="2228" />
		<tag k="water" v="lake" />
	</node>
	<node id="-410570" lat="59.2643861126" lon="6.53040000468">
		<tag k="alt_name" v="Tjoråa" />
		<tag k="name" v="Tjoråna" />
		<tag k="ssr:stedsnr" v="2111" />
		<tag k="waterway" v="stream" />
	</node>
	<node id="-412617" lat="59.2453027756" lon="6.47581944268">
		<tag k="name" v="Midtra Storaheivatnet" />
		<tag k="natural" v="water" />
		<tag k="ssr:stedsnr" v="788179" />
		<tag k="water" v="lake" />
	</node>
	<node id="-410568" lat="59.252988892" lon="6.33054999197">
		<tag k="alt_name" v="Havråstjørna" />
		<tag k="name" v="Havreåstjørna" />
		<tag k="natural" v="water" />
		<tag k="ssr:stedsnr" v="2106" />
	</node>
	<node id="-410567" lat="59.2841333289" lon="6.38012499259">
		<tag k="name" v="Djupadalsvatnet" />
		<tag k="natural" v="water" />
		<tag k="ssr:stedsnr" v="2080" />
	</node>
	<node id="-410566" lat="59.2822750019" lon="6.36667500576">
		<tag k="fixme" v="multiple name tags, choose one and add the other to alt_name" />
		<tag k="name" v="Gamlatjørna;Gaudetjørna" />
		<tag k="natural" v="water" />
		<tag k="ssr:stedsnr" v="2079" />
	</node>
	<node id="-412612" lat="59.171480557" lon="6.10442777597">
		<tag k="name" v="Bjørkjeneset" />
		<tag k="natural" v="cape" />
		<tag k="ssr:stedsnr" v="788072" />
	</node>
	<node id="-410561" lat="59.2012638892" lon="6.17698056328">
		<tag k="name" v="Raunstølsvatnet" />
		<tag k="natural" v="water" />
		<tag k="ssr:stedsnr" v="1932" />
	</node>
	<node id="-412608" lat="59.2927999991" lon="6.1263166586">
		<tag k="name" v="Knutsvikbekken" />
		<tag k="ssr:stedsnr" v="787839" />
		<tag k="waterway" v="stream" />
	</node>
	<node id="-412607" lat="59.2915805533" lon="6.1940805641">
		<tag k="name" v="Steintjørna" />
		<tag k="natural" v="water" />
		<tag k="ssr:stedsnr" v="787696" />
	</node>
	<node id="-410558" lat="59.2011083333" lon="6.21163055063">
		<tag k="alt_name" v="Bukkaløgjene" />
		<tag k="name" v="Bukkaløkene" />
		<tag k="place" v="locality" />
		<tag k="ssr:stedsnr" v="1877" />
	</node>
	<node id="-412604" lat="59.1259166669" lon="6.50647500016">
		<tag k="name" v="Middagsbekken" />
		<tag k="ssr:stedsnr" v="787479" />
		<tag k="waterway" v="stream" />
	</node>
	<node id="-410550" lat="59.2183361112" lon="6.38053333831">
		<tag k="name" v="Svartavatnet" />
		<tag k="natural" v="water" />
		<tag k="ssr:stedsnr" v="1448" />
	</node>
	<node id="-410547" lat="59.1390999956" lon="6.47976943874">
		<tag k="alt_name" v="Ytre Meinstjørna" />
		<tag k="name" v="Meinstjørna" />
		<tag k="natural" v="water" />
		<tag k="ssr:stedsnr" v="1414" />
	</node>
	<node id="-410546" lat="59.1531083366" lon="6.4779861187">
		<tag k="name" v="Dorsbekken" />
		<tag k="ssr:stedsnr" v="1412" />
		<tag k="waterway" v="stream" />
	</node>
	<node id="-410542" lat="59.2360749966" lon="6.30448611602">
		<tag k="alt_name" v="Oddeåna" />
		<tag k="name" v="Oddåna" />
		<tag k="ssr:stedsnr" v="1296" />
		<tag k="waterway" v="stream" />
	</node>
	<node id="-410538" lat="59.2443777787" lon="6.77409722446">
		<tag k="name" v="Krymleåna" />
		<tag k="ssr:stedsnr" v="1254" />
		<tag k="waterway" v="stream" />
	</node>
	<node id="-410537" lat="59.2261805534" lon="6.67007499376">
		<tag k="alt_name" v="Sprongavatna, nedra" />
		<tag k="name" v="Nedra Sprongavatna" />
		<tag k="natural" v="water" />
		<tag k="ssr:stedsnr" v="1250" />
		<tag k="water" v="lake" />
	</node>
	<node id="-410536" lat="59.0417305599" lon="6.25773611036">
		<tag k="name" v="Skivatnet" />
		<tag k="natural" v="water" />
		<tag k="ssr:stedsnr" v="1011" />
		<tag k="water" v="lake" />
	</node>
	<node id="-410531" lat="59.1563161028" lon="6.39952698393">
		<tag k="name" v="Hiastranda" />
		<tag k="natural" v="beach" />
		<tag k="ssr:stedsnr" v="987972" />
	</node>
	<node id="-412572" lat="59.305647222" lon="6.56186666552">
		<tag k="name" v="Kvivatnet" />
		<tag k="natural" v="water" />
		<tag k="ssr:stedsnr" v="731974" />
		<tag k="water" v="lake" />
	</node>
	<node id="-410509" lat="59.3030611082" lon="6.1349388855">
		<tag k="name" v="Nokkatjørna" />
		<tag k="natural" v="water" />
		<tag k="ssr:stedsnr" v="479261" />
	</node>
	<node id="-412553" lat="59.1453355025" lon="6.17497894355">
		<tag k="name" v="Storåna" />
		<tag k="ssr:stedsnr" v="730601" />
		<tag k="waterway" v="river" />
	</node>
	<node id="-412545" lat="59.147641667" lon="6.24585278441">
		<tag k="name" v="Vassvika" />
		<tag k="natural" v="bay" />
		<tag k="ssr:stedsnr" v="730407" />
	</node>
	<node id="-412544" lat="59.1697944463" lon="6.34679166831">
		<tag k="name" v="Jekta" />
		<tag k="natural" v="cape" />
		<tag k="ssr:stedsnr" v="730364" />
	</node>
	<node id="-412541" lat="59.3353638916" lon="6.79159445285">
		<tag k="name" v="Tredjevatnet" />
		<tag k="natural" v="water" />
		<tag k="ssr:stedsnr" v="730226" />
	</node>
	<node id="-412540" lat="59.3167111137" lon="6.69400555572">
		<tag k="name" v="Trolltjørna" />
		<tag k="natural" v="water" />
		<tag k="ssr:stedsnr" v="730222" />
	</node>
	<node id="-412537" lat="59.0886361077" lon="6.26212499819">
		<tag k="alt_name" v="Svarafjelltjørna" />
		<tag k="name" v="Svarefjellstjørna" />
		<tag k="natural" v="water" />
		<tag k="ssr:stedsnr" v="730113" />
	</node>
	<node id="-410488" lat="59.23906522" lon="5.99841532013">
		<tag k="name" v="Kårdalsvatnet" />
		<tag k="natural" v="water" />
		<tag k="ssr:stedsnr" v="366990" />
	</node>
	<node id="-410486" lat="59.3087138863" lon="6.22328056033">
		<tag k="alt_name" v="Gunlabekken" />
		<tag k="name" v="Gunlanutbekken" />
		<tag k="ssr:stedsnr" v="366967" />
		<tag k="waterway" v="stream" />
	</node>
	<node id="-412532" lat="59.0704749957" lon="6.25778055551">
		<tag k="name" v="Venavatnet" />
		<tag k="natural" v="water" />
		<tag k="ssr:stedsnr" v="730097" />
	</node>
	<node id="-412529" lat="59.2902444423" lon="6.4896444504">
		<tag k="alt_name" v="Taklitjørnane" />
		<tag k="name" v="Taklitjørnene" />
		<tag k="natural" v="water" />
		<tag k="ssr:stedsnr" v="730082" />
	</node>
	<node id="-412528" lat="59.287250757" lon="6.40554616072">
		<tag k="alt_name" v="Sønninga" />
		<tag k="name" v="Søndinga" />
		<tag k="ssr:stedsnr" v="730078" />
		<tag k="waterway" v="stream" />
	</node>
	<node id="-412526" lat="59.1271027735" lon="6.41382499917">
		<tag k="name" v="Svartavatnet" />
		<tag k="natural" v="water" />
		<tag k="ssr:stedsnr" v="730069" />
	</node>
	<node id="-412525" lat="59.104888892" lon="6.28766111024">
		<tag k="alt_name" v="Stora Nystølstjørna" />
		<tag k="name" v="Nystøltjørna" />
		<tag k="natural" v="water" />
		<tag k="ssr:stedsnr" v="730063" />
	</node>
	<node id="-412524" lat="59.0963138848" lon="6.30959999413">
		<tag k="alt_name" v="Midttjørn" />
		<tag k="name" v="Midtjørna" />
		<tag k="natural" v="water" />
		<tag k="ssr:stedsnr" v="730060" />
	</node>
	<node id="-410475" lat="59.2629638101" lon="6.04923020061">
		<tag k="alt_name" v="Longetjørn" />
		<tag k="name" v="Langetjørn" />
		<tag k="natural" v="water" />
		<tag k="ssr:stedsnr" v="366587" />
	</node>
	<node id="-410473" lat="59.1845000012" lon="6.31536110496">
		<tag k="name" v="Fiskeløys" />
		<tag k="natural" v="water" />
		<tag k="ssr:stedsnr" v="366488" />
	</node>
	<node id="-410472" lat="59.1682749996" lon="6.31927499943">
		<tag k="name" v="Ragstjørna" />
		<tag k="natural" v="water" />
		<tag k="ssr:stedsnr" v="366486" />
	</node>
	<node id="-410469" lat="59.1679749985" lon="6.34280278354">
		<tag k="name" v="Midvegneset" />
		<tag k="natural" v="cape" />
		<tag k="ssr:stedsnr" v="366481" />
	</node>
	<node id="-412512" lat="59.1437805567" lon="6.36298611405">
		<tag k="alt_name" v="Søraåna" />
		<tag k="name" v="Lyngsåna" />
		<tag k="ssr:stedsnr" v="729418" />
		<tag k="waterway" v="stream" />
	</node>
	<node id="-412511" lat="59.1409916645" lon="6.33982499881">
		<tag k="name" v="Himlebekken" />
		<tag k="ssr:stedsnr" v="729414" />
		<tag k="waterway" v="stream" />
	</node>
	<node id="-410461" lat="59.2609888851" lon="6.48405832962">
		<tag k="alt_name" v="Kurvavatn" />
		<tag k="name" v="Kurvavatnet" />
		<tag k="natural" v="water" />
		<tag k="ssr:stedsnr" v="366099" />
	</node>
	<node id="-410459" lat="59.0595166706" lon="6.26809722013">
		<tag k="alt_name" v="Gamlestølstjørna, litla;Gamlestølsvatnet" />
		<tag k="name" v="Litla Gamlestølstjørna" />
		<tag k="natural" v="water" />
		<tag k="ssr:stedsnr" v="366090" />
		<tag k="water" v="lake" />
	</node>
	<node id="-410457" lat="59.0885555595" lon="6.43352500509">
		<tag k="name" v="Litleidet" />
		<tag k="natural" v="strait" />
		<tag k="ssr:stedsnr" v="366085" />
	</node>
	<node id="-412504" lat="59.2357861083" lon="6.25298611245">
		<tag k="name" v="Hetlandsvatnet" />
		<tag k="natural" v="water" />
		<tag k="ssr:stedsnr" v="729307" />
	</node>
	<node id="-412501" lat="59.0754361145" lon="6.28002499357">
		<tag k="name" v="Nordnes" />
		<tag k="natural" v="cape" />
		<tag k="ssr:stedsnr" v="729105" />
	</node>
	<node id="-410443" lat="59.2096666675" lon="6.14696945047">
		<tag k="name" v="Espelandstjørna" />
		<tag k="natural" v="water" />
		<tag k="ssr:stedsnr" v="365930" />
	</node>
	<node id="-412481" lat="59.2579388892" lon="6.25513889641">
		<tag k="name" v="Svartatjørn" />
		<tag k="natural" v="water" />
		<tag k="ssr:stedsnr" v="727625" />
	</node>
	<node id="-410427" lat="59.1400611077" lon="6.52932499634">
		<tag k="name" v="Tjørnakilane" />
		<tag k="natural" v="water" />
		<tag k="ssr:stedsnr" v="365447" />
	</node>
	<node id="-413225" lat="59.1766388877" lon="6.28154722959">
		<tag k="name" v="Faksavikane" />
		<tag k="natural" v="bay" />
		<tag k="ssr:stedsnr" v="970293" />
	</node>
	<node id="-410422" lat="59.1433805528" lon="6.28170000432">
		<tag k="name" v="Faksavika" />
		<tag k="natural" v="bay" />
		<tag k="ssr:stedsnr" v="365411" />
	</node>
	<node id="-412466" lat="59.2611250006" lon="6.37503333772">
		<tag k="name" v="Tøtlandsåna" />
		<tag k="ssr:stedsnr" v="727512" />
		<tag k="waterway" v="river" />
	</node>
	<node id="-412464" lat="59.1597944476" lon="6.44169444352">
		<tag k="name" v="Kvitlå" />
		<tag k="ssr:stedsnr" v="727507" />
		<tag k="waterway" v="stream" />
	</node>
	<node id="-412461" lat="59.2965472268" lon="6.45222778611">
		<tag k="name" v="Funningslandsåa" />
		<tag k="ssr:stedsnr" v="727492" />
		<tag k="waterway" v="river" />
	</node>
	<node id="-410412" lat="59.1189388876" lon="6.31397778133">
		<tag k="name" v="Gråhammartjørna" />
		<tag k="natural" v="water" />
		<tag k="ssr:stedsnr" v="363884" />
	</node>
	<node id="-412459" lat="59.1293388874" lon="6.42590833662">
		<tag k="name" v="Klubbatjørnene" />
		<tag k="natural" v="water" />
		<tag k="ssr:stedsnr" v="727488" />
	</node>
	<node id="-410406" lat="59.2084333291" lon="6.02970000561">
		<tag k="name" v="Randåstjørn" />
		<tag k="natural" v="water" />
		<tag k="ssr:stedsnr" v="363662" />
	</node>
	<node id="-410758" lat="59.2850777813" lon="6.46772499491">
		<tag k="alt_name" v="Krokåa" />
		<tag k="name" v="Krokåna" />
		<tag k="ssr:stedsnr" v="63092" />
		<tag k="waterway" v="stream" />
	</node>
	<node id="-412449" lat="59.2294166691" lon="6.18721388994">
		<tag k="name" v="Liarneset" />
		<tag k="natural" v="cape" />
		<tag k="ssr:stedsnr" v="727415" />
	</node>
	<node id="-410416" lat="59.2145722231" lon="6.61149999821">
		<tag k="name" v="Brokadalstjørna" />
		<tag k="natural" v="water" />
		<tag k="ssr:stedsnr" v="365251" />
	</node>
	<node id="-412446" lat="59.2940055537" lon="6.43478333146">
		<tag k="name" v="Måkaholmen" />
		<tag k="place" v="islet" />
		<tag k="ssr:stedsnr" v="727410" />
	</node>
	<node id="-410391" lat="59.2811222237" lon="6.49711388644">
		<tag k="name" v="Dyravadet" />
		<tag k="natural" v="strait" />
		<tag k="ssr:stedsnr" v="363508" />
	</node>
	<node id="-410388" lat="59.2856611151" lon="6.39830556321">
		<tag k="name" v="Litlevikneset" />
		<tag k="natural" v="cape" />
		<tag k="ssr:stedsnr" v="363469" />
	</node>
	<node id="-412434" lat="59.2440186627" lon="6.2888100309">
		<tag k="name" v="Tausaholmen" />
		<tag k="place" v="islet" />
		<tag k="ssr:stedsnr" v="727326" />
	</node>
	<node id="-412433" lat="59.2420055575" lon="6.29188333678">
		<tag k="name" v="Stora Vassvika" />
		<tag k="natural" v="bay" />
		<tag k="ssr:stedsnr" v="727327" />
	</node>
	<node id="-412428" lat="59.1619194402" lon="6.20688333302">
		<tag k="name" v="Hagabekken" />
		<tag k="ssr:stedsnr" v="727298" />
		<tag k="waterway" v="stream" />
	</node>
	<node id="-412427" lat="59.3653027739" lon="6.45798333647">
		<tag k="name" v="Nesåna" />
		<tag k="ssr:stedsnr" v="727293" />
		<tag k="waterway" v="stream" />
	</node>
	<node id="-410373" lat="59.15120278" lon="6.35724166197">
		<tag k="name" v="Djupingen" />
		<tag k="place" v="locality" />
		<tag k="ssr:stedsnr" v="363396" />
	</node>
	<node id="-410369" lat="59.123933335" lon="6.31570278417">
		<tag k="name" v="Livastøltjørna" />
		<tag k="natural" v="water" />
		<tag k="ssr:stedsnr" v="363369" />
	</node>
	<node id="-412412" lat="59.2812499965" lon="6.06699167432">
		<tag k="name" v="Holetjørna" />
		<tag k="natural" v="water" />
		<tag k="ssr:stedsnr" v="727006" />
	</node>
	<node id="-410362" lat="59.161016669" lon="6.28292777719">
		<tag k="name" v="Bustanna" />
		<tag k="ssr:stedsnr" v="363299" />
		<tag k="waterway" v="stream" />
	</node>
	<node id="-410904" lat="59.2260277797" lon="6.28091110807">
		<tag k="alt_name" v="Stora Pålstjørna" />
		<tag k="name" v="Påltjørna" />
		<tag k="natural" v="water" />
		<tag k="ssr:stedsnr" v="122304" />
	</node>
	<node id="-412397" lat="59.3253555579" lon="6.35995277891">
		<tag k="name" v="Skiftesbekken" />
		<tag k="ssr:stedsnr" v="722285" />
		<tag k="waterway" v="stream" />
	</node>
	<node id="-410346" lat="59.1905111075" lon="6.26984999816">
		<tag k="alt_name" v="Bjødnabufossen" />
		<tag k="name" v="Bjørnabufossen" />
		<tag k="natural" v="waterfall" />
		<tag k="ssr:stedsnr" v="363210" />
	</node>
	<node id="-411040" lat="59.2479499965" lon="6.28735833329">
		<tag k="name" v="Joarneset" />
		<tag k="natural" v="cape" />
		<tag k="ssr:stedsnr" v="181325" />
	</node>
	<node id="-412387" lat="59.3107861154" lon="6.45829167099">
		<tag k="name" v="Middagsbekken" />
		<tag k="ssr:stedsnr" v="670988" />
		<tag k="waterway" v="stream" />
	</node>
	<node id="-410338" lat="59.1977111092" lon="6.11254166304">
		<tag k="name" v="Hatlabekken" />
		<tag k="ssr:stedsnr" v="363099" />
		<tag k="waterway" v="stream" />
	</node>
	<node id="-410336" lat="59.1707055584" lon="6.09267778116">
		<tag k="name" v="Paddevigneset" />
		<tag k="natural" v="cape" />
		<tag k="ssr:stedsnr" v="363071" />
	</node>
	<node id="-412382" lat="59.3007805541" lon="6.3023527709">
		<tag k="alt_name" v="Holmatjørn" />
		<tag k="name" v="Holmatjørna" />
		<tag k="natural" v="water" />
		<tag k="ssr:stedsnr" v="670945" />
	</node>
	<node id="-410333" lat="59.2110611143" lon="6.50463054724">
		<tag k="name" v="Tengesdalsåna" />
		<tag k="ssr:stedsnr" v="363009" />
		<tag k="waterway" v="river" />
	</node>
	<node id="-412378" lat="59.3391305563" lon="6.53489166603">
		<tag k="alt_name" v="Svartavatnet, heimra" />
		<tag k="name" v="Heimra Svartavatnet" />
		<tag k="natural" v="water" />
		<tag k="ssr:stedsnr" v="670886" />
		<tag k="water" v="lake" />
	</node>
	<node id="-410329" lat="59.2258555584" lon="6.18296666397">
		<tag k="name" v="Tuntlandsbukta" />
		<tag k="natural" v="bay" />
		<tag k="ssr:stedsnr" v="363343" />
	</node>
	<node id="-412374" lat="59.2632361125" lon="6.63917221937">
		<tag k="name" v="Gamlestølsvatnet" />
		<tag k="natural" v="water" />
		<tag k="ssr:stedsnr" v="670145" />
	</node>
	<node id="-412373" lat="59.2602250026" lon="6.25846110429">
		<tag k="name" v="Svartavatnet" />
		<tag k="natural" v="water" />
		<tag k="ssr:stedsnr" v="670120" />
	</node>
	<node id="-412369" lat="59.2746194453" lon="6.37215000153">
		<tag k="name" v="Svortetjørna" />
		<tag k="natural" v="water" />
		<tag k="ssr:stedsnr" v="670081" />
	</node>
	<node id="-412367" lat="59.2478787481" lon="6.03435823197">
		<tag k="name" v="Holmavatnet" />
		<tag k="natural" v="water" />
		<tag k="ssr:stedsnr" v="669968" />
	</node>
	<node id="-412351" lat="59.1640999959" lon="6.2252111047">
		<tag k="name" v="Hålandsbekken" />
		<tag k="ssr:stedsnr" v="669496" />
		<tag k="waterway" v="stream" />
	</node>
	<node id="-412350" lat="59.2198777764" lon="6.53874999563">
		<tag k="name" v="Svarthøl" />
		<tag k="natural" v="water" />
		<tag k="ssr:stedsnr" v="669490" />
	</node>
	<node id="-412347" lat="59.2124000038" lon="6.40610000186">
		<tag k="name" v="Fossane" />
		<tag k="natural" v="waterfall" />
		<tag k="ssr:stedsnr" v="669460" />
	</node>
	<node id="-410293" lat="59.3676666661" lon="6.58937499458">
		<tag k="name" v="Kruneheivatnet" />
		<tag k="natural" v="water" />
		<tag k="ssr:stedsnr" v="306929" />
	</node>
	<node id="-412332" lat="59.1784027812" lon="6.60242500348">
		<tag k="name" v="Storhillervatnet" />
		<tag k="natural" v="water" />
		<tag k="ssr:stedsnr" v="669199" />
		<tag k="water" v="lake" />
	</node>
	<node id="-412331" lat="59.1800749983" lon="6.71259999463">
		<tag k="name" v="Sandvatnet" />
		<tag k="natural" v="water" />
		<tag k="ssr:stedsnr" v="669198" />
		<tag k="water" v="lake" />
	</node>
	<node id="-412330" lat="59.1098083288" lon="6.45286388348">
		<tag k="name" v="Lyngsvatnet" />
		<tag k="natural" v="water" />
		<tag k="ssr:stedsnr" v="669100" />
		<tag k="water" v="lake" />
	</node>
	<node id="-412328" lat="59.1318583298" lon="6.50114722239">
		<tag k="name" v="Kveldsåna" />
		<tag k="ssr:stedsnr" v="669073" />
		<tag k="waterway" v="stream" />
	</node>
	<node id="-410279" lat="59.3565555573" lon="6.5787083414">
		<tag k="name" v="Skoratjørna" />
		<tag k="natural" v="water" />
		<tag k="ssr:stedsnr" v="305941" />
	</node>
	<node id="-412325" lat="59.2826944401" lon="6.50438611423">
		<tag k="name" v="Holmavatnet" />
		<tag k="natural" v="water" />
		<tag k="ssr:stedsnr" v="669065" />
		<tag k="water" v="lake" />
	</node>
	<node id="-412313" lat="59.2468666658" lon="6.41042500425">
		<tag k="name" v="Hødnelitjørna" />
		<tag k="natural" v="water" />
		<tag k="ssr:stedsnr" v="668301" />
	</node>
	<node id="-412312" lat="59.0749388922" lon="6.27597500563">
		<tag k="alt_name" v="Krogavatnet" />
		<tag k="loc_name" v="Krokvatnet" />
		<tag k="name" v="Krokavatnet" />
		<tag k="natural" v="water" />
		<tag k="ssr:stedsnr" v="668089" />
		<tag k="water" v="lake" />
	</node>
	<node id="-410260" lat="59.183650003" lon="6.33044999361">
		<tag k="alt_name" v="Solheimstjørnane;Solheimstjørnene" />
		<tag k="name" v="Solheimstjørna" />
		<tag k="natural" v="water" />
		<tag k="ssr:stedsnr" v="305502" />
	</node>
	<node id="-412303" lat="59.345916664" lon="6.63577221807">
		<tag k="name" v="Jonsokvatnet" />
		<tag k="natural" v="water" />
		<tag k="ssr:stedsnr" v="669219" />
	</node>
	<node id="-410252" lat="59.2325388845" lon="6.58193332867">
		<tag k="name" v="Høyverstjørna" />
		<tag k="natural" v="water" />
		<tag k="ssr:stedsnr" v="305320" />
	</node>
	<node id="-410250" lat="59.2367361155" lon="6.46404999953">
		<tag k="name" v="Stropastølsvatnet" />
		<tag k="natural" v="water" />
		<tag k="ssr:stedsnr" v="305313" />
	</node>
	<node id="-410247" lat="59.2383901481" lon="6.2715003513">
		<tag k="fixme" v="multiple name tags, choose one and add the other to alt_name" />
		<tag k="name" v="Grunnavatnet;Stykkjevatnet" />
		<tag k="natural" v="water" />
		<tag k="ssr:stedsnr" v="305274" />
	</node>
	<node id="-410243" lat="59.1189999981" lon="6.50553611786">
		<tag k="name" v="Middagstjørna" />
		<tag k="natural" v="water" />
		<tag k="ssr:stedsnr" v="305085" />
	</node>
	<node id="-410240" lat="59.1344638894" lon="6.40274444662">
		<tag k="alt_name" v="Leidartjørna" />
		<tag k="name" v="Leidalstjørna" />
		<tag k="natural" v="water" />
		<tag k="ssr:stedsnr" v="305072" />
	</node>
	<node id="-412287" lat="59.2578805538" lon="6.05640277726">
		<tag k="name" v="Steinlebekken" />
		<tag k="ssr:stedsnr" v="666723" />
		<tag k="waterway" v="stream" />
	</node>
	<node id="-410237" lat="59.2689388875" lon="6.3600861039">
		<tag k="name" v="Åsatjørna" />
		<tag k="natural" v="water" />
		<tag k="ssr:stedsnr" v="305063" />
	</node>
	<node id="-412284" lat="59.2149472262" lon="6.04143610986">
		<tag k="name" v="Indre Bekkjen" />
		<tag k="ssr:stedsnr" v="666676" />
		<tag k="waterway" v="stream" />
	</node>
	<node id="-410231" lat="59.1250611107" lon="6.16143334008">
		<tag k="name" v="Hetlelivatnet" />
		<tag k="natural" v="water" />
		<tag k="ssr:stedsnr" v="304507" />
	</node>
	<node id="-410226" lat="59.2486499959" lon="6.65651666445">
		<tag k="name" v="Slettedalsvatnet" />
		<tag k="natural" v="water" />
		<tag k="ssr:stedsnr" v="304235" />
	</node>
	<node id="-412273" lat="59.2809472232" lon="6.3605138897">
		<tag k="name" v="Skadtjørna" />
		<tag k="natural" v="water" />
		<tag k="ssr:stedsnr" v="666595" />
	</node>
	<node id="-412271" lat="59.1126388896" lon="6.30349999232">
		<tag k="name" v="Mariabekken" />
		<tag k="ssr:stedsnr" v="666563" />
		<tag k="waterway" v="stream" />
	</node>
	<node id="-412269" lat="59.28283611" lon="6.49512777949">
		<tag k="name" v="Dyravatnet" />
		<tag k="natural" v="water" />
		<tag k="ssr:stedsnr" v="666538" />
		<tag k="water" v="lake" />
	</node>
	<node id="-410219" lat="59.2655638879" lon="6.37865832574">
		<tag k="name" v="Smalaneset" />
		<tag k="natural" v="cape" />
		<tag k="ssr:stedsnr" v="303521" />
	</node>
	<node id="-410217" lat="59.2848750044" lon="6.39260833092">
		<tag k="name" v="Lendingstranda" />
		<tag k="natural" v="beach" />
		<tag k="ssr:stedsnr" v="303510" />
	</node>
	<node id="-410208" lat="59.238391667" lon="6.21976111883">
		<tag k="name" v="Navaren" />
		<tag k="natural" v="water" />
		<tag k="ssr:stedsnr" v="303356" />
	</node>
	<node id="-410205" lat="59.2431305524" lon="6.28118332931">
		<tag k="name" v="Søråna" />
		<tag k="ssr:stedsnr" v="303312" />
		<tag k="waterway" v="river" />
	</node>
	<node id="-410204" lat="59.2294527802" lon="6.28314721503">
		<tag k="name" v="Litla Pålstjørnet" />
		<tag k="natural" v="water" />
		<tag k="ssr:stedsnr" v="303314" />
	</node>
	<node id="-412251" lat="59.1462277818" lon="6.34373888022">
		<tag k="name" v="Holshølen" />
		<tag k="place" v="locality" />
		<tag k="ssr:stedsnr" v="666454" />
	</node>
	<node id="-410201" lat="59.2733472205" lon="6.09119722315">
		<tag k="name" v="Tuftabekken" />
		<tag k="ssr:stedsnr" v="302940" />
		<tag k="waterway" v="stream" />
	</node>
	<node id="-410199" lat="59.1888833319" lon="6.55392499881">
		<tag k="name" v="Sandvassholm" />
		<tag k="place" v="islet" />
		<tag k="ssr:stedsnr" v="302783" />
	</node>
	<node id="-410197" lat="59.2532361151" lon="6.08917500007">
		<tag k="name" v="Skibavikbekken" />
		<tag k="ssr:stedsnr" v="302764" />
		<tag k="waterway" v="stream" />
	</node>
	<node id="-410195" lat="59.1184472235" lon="6.23455832669">
		<tag k="name" v="Døldaråsbekken" />
		<tag k="ssr:stedsnr" v="302758" />
		<tag k="waterway" v="stream" />
	</node>
	<node id="-410194" lat="59.0810527802" lon="6.2724444457">
		<tag k="name" v="Nordnes" />
		<tag k="natural" v="cape" />
		<tag k="ssr:stedsnr" v="302746" />
	</node>
	<node id="-412229" lat="59.2499361072" lon="6.29258611457">
		<tag k="name" v="Longaneset" />
		<tag k="natural" v="cape" />
		<tag k="ssr:stedsnr" v="666328" />
	</node>
	<node id="-410180" lat="59.1189777811" lon="6.35173889135">
		<tag k="name" v="Lomtjørna" />
		<tag k="natural" v="water" />
		<tag k="ssr:stedsnr" v="302588" />
	</node>
	<node id="-410174" lat="59.1321750023" lon="6.52560000141">
		<tag k="name" v="Heftebekken" />
		<tag k="ssr:stedsnr" v="302475" />
		<tag k="waterway" v="stream" />
	</node>
	<node id="-410172" lat="59.1489888847" lon="6.51688333268">
		<tag k="name" v="Musdalsstranda" />
		<tag k="natural" v="beach" />
		<tag k="ssr:stedsnr" v="302466" />
	</node>
	<node id="-412219" lat="59.2049694445" lon="6.28801943925">
		<tag k="name" v="Urdalsfossen" />
		<tag k="natural" v="waterfall" />
		<tag k="ssr:stedsnr" v="666266" />
	</node>
	<node id="-410168" lat="59.1450194475" lon="6.33959999953">
		<tag k="name" v="Øykholmen" />
		<tag k="place" v="islet" />
		<tag k="ssr:stedsnr" v="302456" />
	</node>
	<node id="-412214" lat="59.0584361153" lon="6.29431944107">
		<tag k="name" v="Høgavatnet" />
		<tag k="natural" v="water" />
		<tag k="ssr:stedsnr" v="666188" />
		<tag k="water" v="lake" />
	</node>
	<node id="-410162" lat="59.2378722188" lon="6.26385555771">
		<tag k="name" v="Djubavatnet" />
		<tag k="natural" v="water" />
		<tag k="ssr:stedsnr" v="302407" />
		<tag k="water" v="lake" />
	</node>
	<node id="-410161" lat="59.1267027816" lon="6.20933333222">
		<tag k="name" v="Størnafjelltjørna" />
		<tag k="natural" v="water" />
		<tag k="ssr:stedsnr" v="302401" />
	</node>
	<node id="-410160" lat="59.1300166635" lon="6.1747277797">
		<tag k="name" v="Hetleliåna" />
		<tag k="ssr:stedsnr" v="302393" />
		<tag k="waterway" v="river" />
	</node>
	<node id="-410158" lat="59.1347138847" lon="6.24445278027">
		<tag k="name" v="Kroghøl" />
		<tag k="place" v="locality" />
		<tag k="ssr:stedsnr" v="302381" />
	</node>
	<node id="-410156" lat="59.1391972262" lon="6.246611108">
		<tag k="name" v="Verven" />
		<tag k="natural" v="cape" />
		<tag k="ssr:stedsnr" v="302370" />
	</node>
	<node id="-410829" lat="59.1583944482" lon="6.17483610924">
		<tag k="name" v="Mælstranda" />
		<tag k="natural" v="beach" />
		<tag k="ssr:stedsnr" v="120293" />
	</node>
	<node id="-412198" lat="59.3308111114" lon="6.3670722267">
		<tag k="name" v="Lyhaugtjørna" />
		<tag k="natural" v="water" />
		<tag k="ssr:stedsnr" v="661302" />
	</node>
	<node id="-410132" lat="59.2665000037" lon="6.38368888807">
		<tag k="name" v="Giskelivatnet" />
		<tag k="natural" v="water" />
		<tag k="ssr:stedsnr" v="306108" />
	</node>
	<node id="-412174" lat="59.3634250021" lon="6.49236945225">
		<tag k="name" v="Svartavatnet" />
		<tag k="natural" v="water" />
		<tag k="ssr:stedsnr" v="609814" />
	</node>
	<node id="-412173" lat="59.367799999" lon="6.45033055103">
		<tag k="alt_name" v="Ulladalsåna" />
		<tag k="name" v="Ulla" />
		<tag k="ssr:stedsnr" v="609811" />
		<tag k="waterway" v="river" />
	</node>
	<node id="-412169" lat="59.3272611134" lon="6.62757777789">
		<tag k="name" v="Oddatjørna" />
		<tag k="natural" v="water" />
		<tag k="ssr:stedsnr" v="609228" />
	</node>
	<node id="-412168" lat="59.2915666684" lon="6.71793888726">
		<tag k="name" v="Skutevatnet" />
		<tag k="natural" v="water" />
		<tag k="ssr:stedsnr" v="609214" />
		<tag k="water" v="lake" />
	</node>
	<node id="-412167" lat="59.3161138902" lon="6.76115833921">
		<tag k="name" v="Reinsstølvatnet" />
		<tag k="natural" v="water" />
		<tag k="ssr:stedsnr" v="609203" />
	</node>
	<node id="-412156" lat="59.2471166646" lon="5.99514722922">
		<tag k="alt_name" v="Vestersjøvatnet;Norda Vestersjøvatnet" />
		<tag k="name" v="Vestresjøvatnet" />
		<tag k="natural" v="water" />
		<tag k="ssr:stedsnr" v="608976" />
	</node>
	<node id="-412139" lat="59.1571750035" lon="6.13970832811">
		<tag k="alt_name" v="Helgaknudtjørna" />
		<tag k="name" v="Helgaknuttjørna" />
		<tag k="natural" v="water" />
		<tag k="ssr:stedsnr" v="608628" />
	</node>
	<node id="-411046" lat="59.242374998" lon="6.30528888508">
		<tag k="name" v="Storløgjen" />
		<tag k="natural" v="water" />
		<tag k="ssr:stedsnr" v="181345" />
		<tag k="water" v="lake" />
	</node>
	<node id="-412126" lat="59.218105556" lon="6.2934083329">
		<tag k="alt_name" v="Grøstølsvatnet" />
		<tag k="name" v="Grøvstølsvatnet" />
		<tag k="natural" v="water" />
		<tag k="ssr:stedsnr" v="608471" />
	</node>
	<node id="-412122" lat="59.1538583289" lon="6.39658611171">
		<tag k="name" v="Granefossane" />
		<tag k="natural" v="waterfall" />
		<tag k="ssr:stedsnr" v="608393" />
	</node>
	<node id="-412121" lat="59.1574916662" lon="6.4333500076">
		<tag k="name" v="Viglesdalsvatnet" />
		<tag k="natural" v="water" />
		<tag k="ssr:stedsnr" v="608392" />
		<tag k="water" v="lake" />
	</node>
	<node id="-412118" lat="59.2185027768" lon="6.22745555452">
		<tag k="name" v="Husstølsåna" />
		<tag k="ssr:stedsnr" v="608314" />
		<tag k="waterway" v="stream" />
	</node>
	<node id="-412112" lat="59.2283111086" lon="6.38903889208">
		<tag k="name" v="Risåna" />
		<tag k="ssr:stedsnr" v="608300" />
		<tag k="waterway" v="stream" />
	</node>
	<node id="-412105" lat="59.2962111099" lon="6.52006666647">
		<tag k="name" v="Stakkråtjørnane" />
		<tag k="natural" v="water" />
		<tag k="ssr:stedsnr" v="608086" />
	</node>
	<node id="-412104" lat="59.1357416636" lon="6.52837499393">
		<tag k="name" v="Heftetjørna" />
		<tag k="natural" v="water" />
		<tag k="ssr:stedsnr" v="608085" />
	</node>
	<node id="-412103" lat="59.2851055527" lon="6.39034167213">
		<tag k="alt_name" v="Lendingåa" />
		<tag k="name" v="Lendingåna" />
		<tag k="ssr:stedsnr" v="608082" />
		<tag k="waterway" v="stream" />
	</node>
	<node id="-412095" lat="59.1769444414" lon="6.11205277136">
		<tag k="name" v="Hetlandsvatnet" />
		<tag k="natural" v="water" />
		<tag k="ssr:stedsnr" v="607608" />
		<tag k="water" v="lake" />
	</node>
	<node id="-412093" lat="59.1298583375" lon="6.15817499849">
		<tag k="alt_name" v="Fudetjørna" />
		<tag k="name" v="Furetjørna" />
		<tag k="natural" v="water" />
		<tag k="ssr:stedsnr" v="607512" />
	</node>
	<node id="-412091" lat="59.1452111101" lon="6.28972499301">
		<tag k="alt_name" v="Bårneskjer" />
		<tag k="name" v="Borneskjer" />
		<tag k="place" v="islet" />
		<tag k="ssr:stedsnr" v="607408" />
	</node>
	<node id="-412079" lat="59.293944442" lon="6.42765556029">
		<tag k="name" v="Eidet" />
		<tag k="natural" v="strait" />
		<tag k="ssr:stedsnr" v="606376" />
	</node>
	<node id="-412078" lat="59.2978222238" lon="6.42339444784">
		<tag k="name" v="Øykjavika" />
		<tag k="natural" v="bay" />
		<tag k="ssr:stedsnr" v="606375" />
	</node>
	<node id="-412076" lat="59.3152833335" lon="6.45600833453">
		<tag k="name" v="Middagsbekken" />
		<tag k="ssr:stedsnr" v="606354" />
		<tag k="waterway" v="stream" />
	</node>
	<node id="-412070" lat="59.2816833341" lon="6.07987778324">
		<tag k="name" v="Buerfossen" />
		<tag k="natural" v="waterfall" />
		<tag k="ssr:stedsnr" v="605946" />
	</node>
	<node id="-412068" lat="59.2030416683" lon="6.5520027811">
		<tag k="name" v="Oddaåna" />
		<tag k="ssr:stedsnr" v="605797" />
		<tag k="waterway" v="stream" />
	</node>
	<node id="-412059" lat="59.2751444414" lon="6.35387222438">
		<tag k="name" v="Karusstjørna" />
		<tag k="natural" v="water" />
		<tag k="ssr:stedsnr" v="605605" />
	</node>
	<node id="-412052" lat="59.1193305589" lon="6.55231665852">
		<tag k="name" v="Nordra Hallatjørna" />
		<tag k="natural" v="water" />
		<tag k="ssr:stedsnr" v="605560" />
	</node>
	<node id="-412041" lat="59.1298500011" lon="6.54270555528">
		<tag k="name" v="Hallabekken" />
		<tag k="ssr:stedsnr" v="605472" />
		<tag k="waterway" v="stream" />
	</node>
	<node id="-412027" lat="59.1487861085" lon="6.34579723106">
		<tag k="name" v="Neshølen" />
		<tag k="place" v="locality" />
		<tag k="ssr:stedsnr" v="605358" />
	</node>
	<node id="-412018" lat="59.2033722182" lon="6.39796667494">
		<tag k="name" v="Skiftesbekken" />
		<tag k="ssr:stedsnr" v="605252" />
		<tag k="waterway" v="stream" />
	</node>
	<node id="-411979" lat="59.3689388853" lon="6.74764721689">
		<tag k="name" v="Førrevassdammen" />
		<tag k="ssr:stedsnr" v="569720" />
		<tag k="waterway" v="dam" />
	</node>
	<node id="-411977" lat="59.2276527801" lon="6.14934445084">
		<tag k="name" v="Puntåna" />
		<tag k="ssr:stedsnr" v="548990" />
		<tag k="waterway" v="stream" />
	</node>
	<node id="-411972" lat="59.3571194434" lon="6.51994999964">
		<tag k="name" v="Kvelvavatna" />
		<tag k="natural" v="water" />
		<tag k="ssr:stedsnr" v="548924" />
	</node>
	<node id="-411971" lat="59.35491667" lon="6.57180555165">
		<tag k="alt_name" v="Løyningstjørna, nedre;Nedre Løyningstjørna" />
		<tag k="name" v="Nedra Løyningstjørna" />
		<tag k="natural" v="water" />
		<tag k="ssr:stedsnr" v="548923" />
	</node>
	<node id="-411970" lat="59.3550833363" lon="6.47139443913">
		<tag k="alt_name" v="Løkeskarbekken;Løkjeskarbekken" />
		<tag k="name" v="Løkjeskardbekken" />
		<tag k="ssr:stedsnr" v="548918" />
		<tag k="waterway" v="stream" />
	</node>
	<node id="-411969" lat="59.3587361083" lon="6.5647027728">
		<tag k="alt_name" v="Løyningsvatnet, nedre;Nedre Løyningsvatnet;Øvra Strandavatnet" />
		<tag k="name" v="Nedra Løyningsvatnet" />
		<tag k="natural" v="water" />
		<tag k="ssr:stedsnr" v="548901" />
		<tag k="water" v="lake" />
	</node>
	<node id="-411968" lat="59.3387250013" lon="6.50328333445">
		<tag k="name" v="Langavatnet" />
		<tag k="natural" v="water" />
		<tag k="ssr:stedsnr" v="548889" />
		<tag k="water" v="lake" />
	</node>
	<node id="-410480" lat="59.3331500001" lon="6.46896388219">
		<tag k="name" v="Haugabekken" />
		<tag k="ssr:stedsnr" v="366886" />
		<tag k="waterway" v="stream" />
	</node>
	<node id="-411954" lat="59.1939666632" lon="6.37922500107">
		<tag k="name" v="Skjenedalsvatnet" />
		<tag k="natural" v="water" />
		<tag k="ssr:stedsnr" v="548465" />
	</node>
	<node id="-411950" lat="59.3030111131" lon="6.79831388093">
		<tag k="name" v="Suldals-Krymlevatnet" />
		<tag k="natural" v="water" />
		<tag k="ssr:stedsnr" v="548235" />
		<tag k="water" v="lake" />
	</node>
	<node id="-411948" lat="59.0856055554" lon="6.28122499329">
		<tag k="name" v="Larsgardtjørna" />
		<tag k="natural" v="water" />
		<tag k="ssr:stedsnr" v="548121" />
	</node>
	<node id="-411946" lat="59.2598777747" lon="6.32613333379">
		<tag k="alt_name" v="Vigestølvatnet" />
		<tag k="name" v="Vikestølsvatnet" />
		<tag k="natural" v="water" />
		<tag k="ssr:stedsnr" v="548114" />
	</node>
	<node id="-411937" lat="59.2812333295" lon="6.45354166387">
		<tag k="name" v="Liarstølvatnet" />
		<tag k="natural" v="water" />
		<tag k="ssr:stedsnr" v="548072" />
	</node>
	<node id="-411936" lat="59.2872870645" lon="6.55858918372">
		<tag k="name" v="Rundavatnet" />
		<tag k="natural" v="water" />
		<tag k="ssr:stedsnr" v="548070" />
		<tag k="water" v="lake" />
	</node>
	<node id="-411928" lat="59.2016111155" lon="6.14770833689">
		<tag k="alt_name" v="Hauskjeåna;Byrkjeåna" />
		<tag k="name" v="Hauskeåna" />
		<tag k="ssr:stedsnr" v="547943" />
		<tag k="waterway" v="stream" />
	</node>
	<node id="-411927" lat="59.2156750014" lon="6.21173611944">
		<tag k="alt_name" v="Kjøssåna" />
		<tag k="name" v="Tjøssåna" />
		<tag k="ssr:stedsnr" v="547932" />
		<tag k="waterway" v="stream" />
	</node>
	<node id="-411923" lat="59.1800861076" lon="6.17291666441">
		<tag k="name" v="Riskadalsåna" />
		<tag k="ssr:stedsnr" v="547670" />
		<tag k="waterway" v="stream" />
	</node>
	<node id="-411921" lat="59.1695861094" lon="6.18132500504">
		<tag k="name" v="Auråna" />
		<tag k="ssr:stedsnr" v="547653" />
		<tag k="waterway" v="stream" />
	</node>
	<node id="-411916" lat="59.1811249988" lon="6.57322500313">
		<tag k="name" v="Stakkavatnet" />
		<tag k="natural" v="water" />
		<tag k="ssr:stedsnr" v="547531" />
	</node>
	<node id="-411914" lat="59.1870749979" lon="6.29092499524">
		<tag k="name" v="Svartatjørna" />
		<tag k="natural" v="water" />
		<tag k="ssr:stedsnr" v="547499" />
	</node>
	<node id="-410668" lat="59.2812944447" lon="6.58376110259">
		<tag k="name" v="Vestra Brendeknutvatnet" />
		<tag k="natural" v="water" />
		<tag k="ssr:stedsnr" v="60401" />
		<tag k="water" v="lake" />
	</node>
	<node id="-411908" lat="59.1203305573" lon="6.27730000429">
		<tag k="name" v="Tverråna" />
		<tag k="ssr:stedsnr" v="547454" />
		<tag k="waterway" v="river" />
	</node>
	<node id="-411905" lat="59.1726749994" lon="6.36078332577">
		<tag k="alt_name" v="Tysdalsvatnet, øvre;Øvra Tyssdalsvatnet;Tyssdalsvatnet" />
		<tag k="name" v="Øvre Tysdalsvatnet" />
		<tag k="natural" v="water" />
		<tag k="ssr:stedsnr" v="547415" />
		<tag k="water" v="lake" />
	</node>
	<node id="-411059" lat="59.1222166687" lon="6.38561945084">
		<tag k="name" v="Tjørnastølbekken" />
		<tag k="ssr:stedsnr" v="181407" />
		<tag k="waterway" v="stream" />
	</node>
	<node id="-411902" lat="59.083452775" lon="6.11528611795">
		<tag k="name" v="Skiftesneset" />
		<tag k="natural" v="cape" />
		<tag k="ssr:stedsnr" v="547383" />
	</node>
	<node id="-411901" lat="59.2051416649" lon="6.26564999528">
		<tag k="alt_name" v="Søre Tjødnedn" />
		<tag k="name" v="Søratjørna" />
		<tag k="natural" v="water" />
		<tag k="ssr:stedsnr" v="547347" />
	</node>
	<node id="-411897" lat="59.231150003" lon="6.42232778599">
		<tag k="name" v="Ritlandstjørnane" />
		<tag k="natural" v="water" />
		<tag k="ssr:stedsnr" v="547326" />
	</node>
	<node id="-411896" lat="59.2398176083" lon="6.39971823524">
		<tag k="name" v="Kleivalandsåna" />
		<tag k="ssr:stedsnr" v="547321" />
		<tag k="waterway" v="stream" />
	</node>
	<node id="-411889" lat="59.1028527777" lon="6.46377499516">
		<tag k="name" v="Lyngsholmen" />
		<tag k="place" v="islet" />
		<tag k="ssr:stedsnr" v="547129" />
	</node>
	<node id="-411887" lat="59.1271500043" lon="6.52275278254">
		<tag k="name" v="Dorsvatnet" />
		<tag k="natural" v="water" />
		<tag k="ssr:stedsnr" v="547107" />
		<tag k="water" v="lake" />
	</node>
	<node id="-411882" lat="59.2051444413" lon="6.47820555914">
		<tag k="name" v="Akslavika" />
		<tag k="natural" v="bay" />
		<tag k="ssr:stedsnr" v="545778" />
	</node>
	<node id="-411860" lat="59.2878694486" lon="6.43076666143">
		<tag k="name" v="Kvernabekken" />
		<tag k="ssr:stedsnr" v="545533" />
		<tag k="waterway" v="stream" />
	</node>
	<node id="-410659" lat="59.2615944482" lon="6.04976389072">
		<tag k="name" v="Brattekleivtjørna" />
		<tag k="natural" v="water" />
		<tag k="ssr:stedsnr" v="60370" />
	</node>
	<node id="-411852" lat="59.1623833376" lon="6.48130277254">
		<tag k="name" v="Øvre Fjellstølfossen" />
		<tag k="natural" v="waterfall" />
		<tag k="ssr:stedsnr" v="545442" />
	</node>
	<node id="-411844" lat="59.2595416675" lon="6.45865834171">
		<tag k="name" v="Grønebakkbekken" />
		<tag k="ssr:stedsnr" v="545401" />
		<tag k="waterway" v="stream" />
	</node>
	<node id="-411837" lat="59.2933249986" lon="6.43046110752">
		<tag k="name" v="Holmen" />
		<tag k="place" v="islet" />
		<tag k="ssr:stedsnr" v="545377" />
	</node>
	<node id="-411829" lat="59.2584416695" lon="6.04750832491">
		<tag k="name" v="Rabnefjellstjørna" />
		<tag k="natural" v="water" />
		<tag k="ssr:stedsnr" v="545343" />
	</node>
	<node id="-411828" lat="59.2233083321" lon="6.21406388902">
		<tag k="name" v="Grødåna" />
		<tag k="ssr:stedsnr" v="545330" />
		<tag k="waterway" v="river" />
	</node>
	<node id="-411821" lat="59.2466638933" lon="6.43201110893">
		<tag k="name" v="Ottestølsåna" />
		<tag k="ssr:stedsnr" v="545269" />
		<tag k="waterway" v="river" />
	</node>
	<node id="-411814" lat="59.2171166668" lon="6.40640276962">
		<tag k="name" v="Kløvatjørna" />
		<tag k="natural" v="water" />
		<tag k="ssr:stedsnr" v="545185" />
	</node>
	<node id="-411807" lat="59.1793166644" lon="6.07270555633">
		<tag k="name" v="Liarbekken" />
		<tag k="ssr:stedsnr" v="545066" />
		<tag k="waterway" v="stream" />
	</node>
	<node id="-410989" lat="59.3001916652" lon="6.20918333275">
		<tag k="name" v="Indra Osavatnet" />
		<tag k="natural" v="water" />
		<tag k="ssr:stedsnr" v="175259" />
	</node>
	<node id="-411783" lat="59.3170083299" lon="6.55524999786">
		<tag k="alt_name" v="Kviåa" />
		<tag k="name" v="Kviåna" />
		<tag k="ssr:stedsnr" v="488998" />
		<tag k="waterway" v="stream" />
	</node>
	<node id="-411771" lat="59.2586611093" lon="6.47315833864">
		<tag k="name" v="Liarstrandvatnet" />
		<tag k="natural" v="water" />
		<tag k="ssr:stedsnr" v="488088" />
		<tag k="water" v="lake" />
	</node>
	<node id="-411770" lat="59.2457694409" lon="6.0390861162">
		<tag k="name" v="Kyrdalsvatnet" />
		<tag k="natural" v="water" />
		<tag k="ssr:stedsnr" v="487972" />
	</node>
	<node id="-411769" lat="59.2422167435" lon="6.00344281288">
		<tag k="alt_name" v="Vestresjøvatnet, heimra;Heimra Vestersjøvatnet" />
		<tag k="name" v="Heimra Vestresjøvatnet" />
		<tag k="natural" v="water" />
		<tag k="ssr:stedsnr" v="487965" />
	</node>
	<node id="-410643" lat="59.3593138915" lon="6.51354722617">
		<tag k="name" v="Tverråna" />
		<tag k="ssr:stedsnr" v="60272" />
		<tag k="waterway" v="river" />
	</node>
	<node id="-411749" lat="59.1950277734" lon="6.30320000209">
		<tag k="alt_name" v="Brendeknudvatnet" />
		<tag k="name" v="Brendeknutvatnet" />
		<tag k="natural" v="water" />
		<tag k="ssr:stedsnr" v="487503" />
	</node>
	<node id="-411748" lat="59.202574999" lon="6.32739999972">
		<tag k="name" v="Skalkatjørna" />
		<tag k="natural" v="water" />
		<tag k="ssr:stedsnr" v="487501" />
	</node>
	<node id="-411747" lat="59.1972500037" lon="6.4676027689">
		<tag k="name" v="Mågåna" />
		<tag k="ssr:stedsnr" v="487487" />
		<tag k="waterway" v="stream" />
	</node>
	<node id="-411736" lat="59.3661083331" lon="6.8136888885">
		<tag k="name" v="Undeknutvatnet" />
		<tag k="natural" v="water" />
		<tag k="ssr:stedsnr" v="487240" />
	</node>
	<node id="-411734" lat="59.1743472257" lon="6.74005000044">
		<tag k="name" v="Skoråna" />
		<tag k="ssr:stedsnr" v="487150" />
		<tag k="waterway" v="stream" />
	</node>
	<node id="-411732" lat="59.2705083368" lon="6.73184443637">
		<tag k="name" v="Eidavatnet" />
		<tag k="natural" v="water" />
		<tag k="ssr:stedsnr" v="487143" />
		<tag k="water" v="lake" />
	</node>
	<node id="-411729" lat="59.2816499966" lon="6.23313611347">
		<tag k="name" v="Drengjabekken" />
		<tag k="ssr:stedsnr" v="487082" />
		<tag k="waterway" v="stream" />
	</node>
	<node id="-411711" lat="59.1654361122" lon="6.24060832907">
		<tag k="name" v="Bønaråna" />
		<tag k="ssr:stedsnr" v="486495" />
		<tag k="waterway" v="stream" />
	</node>
	<node id="-411710" lat="59.118805558" lon="6.24030556152">
		<tag k="name" v="Spjotåna" />
		<tag k="ssr:stedsnr" v="486450" />
		<tag k="waterway" v="stream" />
	</node>
	<node id="-411706" lat="59.2278250041" lon="6.23784999875">
		<tag k="alt_name" v="Gåsavatnet" />
		<tag k="name" v="Gåsvatnet" />
		<tag k="natural" v="water" />
		<tag k="ssr:stedsnr" v="486294" />
	</node>
	<node id="-411704" lat="59.2292500023" lon="6.6912500011">
		<tag k="alt_name" v="Sprongavatna, øvra" />
		<tag k="name" v="Øvra Sprongavatna" />
		<tag k="natural" v="water" />
		<tag k="ssr:stedsnr" v="486241" />
		<tag k="water" v="lake" />
	</node>
	<node id="-411699" lat="59.2965611076" lon="6.59409721567">
		<tag k="name" v="Hundaåa" />
		<tag k="ssr:stedsnr" v="485425" />
		<tag k="waterway" v="stream" />
	</node>
	<node id="-411694" lat="59.1043527812" lon="6.24278610349">
		<tag k="name" v="Tjødnadalstjørna" />
		<tag k="natural" v="water" />
		<tag k="ssr:stedsnr" v="484763" />
	</node>
	<node id="-411691" lat="59.2605194449" lon="6.05789444904">
		<tag k="name" v="Dalstjørna" />
		<tag k="natural" v="water" />
		<tag k="ssr:stedsnr" v="484733" />
	</node>
	<node id="-411688" lat="59.283319446" lon="6.17475832734">
		<tag k="name" v="Fossfossen" />
		<tag k="natural" v="waterfall" />
		<tag k="ssr:stedsnr" v="484670" />
	</node>
	<node id="-411685" lat="59.2576944436" lon="6.23422500213">
		<tag k="name" v="Hedlestøåna" />
		<tag k="ssr:stedsnr" v="484555" />
		<tag k="waterway" v="river" />
	</node>
	<node id="-411679" lat="59.1577333329" lon="6.42835833637">
		<tag k="name" v="Kyrkjeneset" />
		<tag k="natural" v="cape" />
		<tag k="ssr:stedsnr" v="484489" />
	</node>
	<node id="-411678" lat="59.1518388882" lon="6.39100278576">
		<tag k="name" v="Hiafossen" />
		<tag k="natural" v="waterfall" />
		<tag k="ssr:stedsnr" v="484485" />
	</node>
	<node id="-411675" lat="59.1554861081" lon="6.48002777557">
		<tag k="name" v="Nedre Fjellstølfossen" />
		<tag k="natural" v="waterfall" />
		<tag k="ssr:stedsnr" v="484455" />
	</node>
	<node id="-411672" lat="59.1364055576" lon="6.50062500716">
		<tag k="name" v="Austre Meinstjørna" />
		<tag k="natural" v="water" />
		<tag k="ssr:stedsnr" v="484447" />
	</node>
	<node id="-411669" lat="59.1499361139" lon="6.51235277108">
		<tag k="name" v="Raunevika" />
		<tag k="natural" v="bay" />
		<tag k="ssr:stedsnr" v="484441" />
	</node>
	<node id="-411666" lat="59.1441305542" lon="6.33652222402">
		<tag k="name" v="Himlehølen" />
		<tag k="place" v="locality" />
		<tag k="ssr:stedsnr" v="484419" />
	</node>
	<node id="-411662" lat="59.2609583327" lon="6.46778333">
		<tag k="name" v="Liarstranda" />
		<tag k="natural" v="beach" />
		<tag k="ssr:stedsnr" v="484405" />
	</node>
	<node id="-411659" lat="59.1415972229" lon="6.32437221706">
		<tag k="name" v="Stokkaflotbekken" />
		<tag k="ssr:stedsnr" v="484391" />
		<tag k="waterway" v="stream" />
	</node>
	<node id="-411652" lat="59.2249750043" lon="6.23236943979">
		<tag k="name" v="Lommatjørn" />
		<tag k="natural" v="water" />
		<tag k="ssr:stedsnr" v="484352" />
	</node>
	<node id="-410283" lat="59.325838886" lon="6.50544166293">
		<tag k="alt_name" v="Segadalsåa" />
		<tag k="name" v="Segadalsåna" />
		<tag k="ssr:stedsnr" v="305974" />
		<tag k="waterway" v="stream" />
	</node>
</osm>
