<?xml version="1.0" encoding="UTF-8"?>
<osm version="0.6" generator="osmapis">
	<node lat="59.26492500424137" lon="6.151375000784233" id="-3039">
		<tag k="alt_name" v="Hedlebergvika" />
		<tag k="name" v="Hellebergvika" />
		<tag k="natural" v="bay" />
		<tag k="ssr:stedsnr" v="2587" />
	</node>
	<node lat="59.31146389204074" lon="6.3445749978066495" id="-3045">
		<tag k="alt_name" v="Eianes" />
		<tag k="name" v="Eidaneset" />
		<tag k="natural" v="cape" />
		<tag k="ssr:stedsnr" v="2985" />
	</node>
	<node lat="59.295541670999846" lon="6.1166527734344545" id="-3052">
		<tag k="name" v="Saltkjervika" />
		<tag k="natural" v="bay" />
		<tag k="ssr:stedsnr" v="237269" />
	</node>
	<node lat="59.148808330124815" lon="6.106061115837029" id="-3113">
		<tag k="name" v="Leirvågen" />
		<tag k="natural" v="bay" />
		<tag k="ssr:stedsnr" v="62576" />
	</node>
	<node lat="59.18461388851225" lon="6.0138027759854555" id="-3121">
		<tag k="name" v="Hovdaneset" />
		<tag k="natural" v="cape" />
		<tag k="ssr:stedsnr" v="62909" />
	</node>
	<node lat="59.18540112379761" lon="6.021887306196825" id="-3122">
		<tag k="alt_name" v="Hovdavågen, søre" />
		<tag k="name" v="Søre Hovdavågen" />
		<tag k="natural" v="bay" />
		<tag k="ssr:stedsnr" v="62910" />
	</node>
	<node lat="59.199877781053196" lon="6.003430551806675" id="-3123">
		<tag k="alt_name" v="Furutangen" />
		<tag k="name" v="Furetangen" />
		<tag k="natural" v="cape" />
		<tag k="ssr:stedsnr" v="62912" />
	</node>
	<node lat="59.263675003873956" lon="6.214924999328351" id="-3127">
		<tag k="name" v="Bårebergholet" />
		<tag k="natural" v="bay" />
		<tag k="ssr:stedsnr" v="63675" />
	</node>
	<node lat="59.230001584404135" lon="6.071398348997424" id="-3161">
		<tag k="alt_name" v="Øyehabn" />
		<tag k="name" v="Øyehamn" />
		<tag k="natural" v="bay" />
		<tag k="ssr:stedsnr" v="242371" />
	</node>
	<node lat="59.31877222082728" lon="6.532327778712045" id="-3171">
		<tag k="name" v="Skogsbåten" />
		<tag k="natural" v="cape" />
		<tag k="ssr:stedsnr" v="242471" />
	</node>
	<node lat="59.217288885073884" lon="5.999674997222971" id="-3182">
		<tag k="name" v="Tapptongjen" />
		<tag k="natural" v="cape" />
		<tag k="ssr:stedsnr" v="242648" />
	</node>
	<node lat="59.18800277992084" lon="6.035050003012447" id="-3219">
		<tag k="name" v="Knarravågen" />
		<tag k="natural" v="bay" />
		<tag k="ssr:stedsnr" v="244910" />
	</node>
	<node lat="59.20244999915009" lon="6.081363892110625" id="-3226">
		<tag k="alt_name" v="Ospholmen" />
		<tag k="name" v="Espholmen" />
		<tag k="place" v="islet" />
		<tag k="ssr:stedsnr" v="244944" />
	</node>
	<node lat="59.211763888854904" lon="5.981969437666295" id="-3227">
		<tag k="name" v="Smalaholmane" />
		<tag k="place" v="islet" />
		<tag k="ssr:stedsnr" v="244960" />
	</node>
	<node lat="59.208902773662324" lon="6.036427785111975" id="-3228">
		<tag k="name" v="Randøy" />
		<tag k="place" v="island" />
		<tag k="ssr:stedsnr" v="244961" />
	</node>
	<node lat="59.29704999894239" lon="6.050250001168176" id="-3238">
		<tag k="name" v="Røykjanes" />
		<tag k="natural" v="cape" />
		<tag k="ssr:stedsnr" v="245497" />
	</node>
	<node lat="59.20580555622522" lon="6.071436113948628" id="-3245">
		<tag k="name" v="Kvaløysundet" />
		<tag k="natural" v="strait" />
		<tag k="ssr:stedsnr" v="98174" />
	</node>
	<node lat="59.198311107721466" lon="6.097075005355885" id="-3246">
		<tag k="name" v="Moldfallet" />
		<tag k="natural" v="bay" />
		<tag k="ssr:stedsnr" v="102673" />
	</node>
	<node lat="59.24185833331757" lon="6.206324999611715" id="-3266">
		<tag k="name" v="Smørkleiv" />
		<tag k="natural" v="bay" />
		<tag k="ssr:stedsnr" v="120368" />
	</node>
	<node lat="59.140219442516745" lon="6.080052785039863" id="-3303">
		<tag k="name" v="Storholmen" />
		<tag k="place" v="islet" />
		<tag k="ssr:stedsnr" v="123579" />
	</node>
	<node lat="59.15111944794905" lon="6.03043889474871" id="-3305">
		<tag k="name" v="Mosnesvågen" />
		<tag k="natural" v="bay" />
		<tag k="ssr:stedsnr" v="123619" />
	</node>
	<node lat="59.26419167067214" lon="6.190752777828041" id="-3307">
		<tag k="bay" v="fjord" />
		<tag k="name" v="Jøsenfjorden" />
		<tag k="natural" v="bay" />
		<tag k="ssr:stedsnr" v="123708" />
	</node>
	<node lat="59.2615500031524" lon="6.167425008039955" id="-3308">
		<tag k="alt_name" v="Straumneset" />
		<tag k="name" v="Straumsneset" />
		<tag k="natural" v="cape" />
		<tag k="ssr:stedsnr" v="123710" />
	</node>
	<node lat="59.1488555529027" lon="6.084755549901499" id="-3316">
		<tag k="name" v="Lindetåa" />
		<tag k="natural" v="cape" />
		<tag k="ssr:stedsnr" v="146027" />
	</node>
	<node lat="59.184750004076086" lon="6.035730555277189" id="-3318">
		<tag k="name" v="Søra Hovdaneset" />
		<tag k="natural" v="cape" />
		<tag k="ssr:stedsnr" v="158209" />
	</node>
	<node lat="59.13963889277706" lon="6.070552778983167" id="-3322">
		<tag k="name" v="Skjøljarsundet" />
		<tag k="natural" v="strait" />
		<tag k="ssr:stedsnr" v="175519" />
	</node>
	<node lat="59.13974166502795" lon="6.054455548303936" id="-3323">
		<tag k="name" v="Leirvika" />
		<tag k="natural" v="bay" />
		<tag k="ssr:stedsnr" v="175520" />
	</node>
	<node lat="59.141324999347056" lon="6.0101249936429975" id="-3326">
		<tag k="name" v="Lyrholmen" />
		<tag k="place" v="islet" />
		<tag k="ssr:stedsnr" v="176509" />
	</node>
	<node lat="59.320569443493376" lon="6.492263892936054" id="-3338">
		<tag k="name" v="Notaneset" />
		<tag k="natural" v="cape" />
		<tag k="ssr:stedsnr" v="181422" />
	</node>
	<node lat="59.18871110788837" lon="5.991552770864086" id="-3380">
		<tag k="alt_name" v="Laugholmen" />
		<tag k="name" v="Lauvholmen" />
		<tag k="place" v="islet" />
		<tag k="ssr:stedsnr" v="184905" />
	</node>
	<node lat="59.18550277963674" lon="6.0047249938776694" id="-3383">
		<tag k="name" v="Børøysundet" />
		<tag k="natural" v="strait" />
		<tag k="ssr:stedsnr" v="184884" />
	</node>
	<node lat="59.149922219997855" lon="6.161280556707941" id="-3389">
		<tag k="name" v="Melsosen" />
		<tag k="natural" v="bay" />
		<tag k="ssr:stedsnr" v="207045" />
	</node>
	<node lat="59.226141663358135" lon="6.059172222129304" id="-3392">
		<tag k="name" v="Klubben" />
		<tag k="natural" v="cape" />
		<tag k="ssr:stedsnr" v="223082" />
	</node>
	<node lat="59.20679444310049" lon="6.075119443087374" id="-3402">
		<tag k="name" v="Smalsund" />
		<tag k="natural" v="strait" />
		<tag k="ssr:stedsnr" v="242083" />
	</node>
	<node lat="59.14511388839581" lon="6.106236113021747" id="-3412">
		<tag k="name" v="Eigvika" />
		<tag k="natural" v="bay" />
		<tag k="ssr:stedsnr" v="242294" />
	</node>
	<node lat="59.16513889237541" lon="6.022674996918754" id="-3440">
		<tag k="bay" v="fjord" />
		<tag k="name" v="Fisterfjorden" />
		<tag k="natural" v="bay" />
		<tag k="ssr:stedsnr" v="244634" />
	</node>
	<node lat="59.13698332983889" lon="6.079927781548453" id="-3441">
		<tag k="fixme" v="consider seamark:type=rock or natural=shoal" />
		<tag k="name" v="Småskjera" />
		<tag k="place" v="islet" />
		<tag k="ssr:stedsnr" v="244576" />
	</node>
	<node lat="59.13821111180802" lon="6.071866667232952" id="-3442">
		<tag k="name" v="Langholmen" />
		<tag k="place" v="islet" />
		<tag k="ssr:stedsnr" v="244596" />
	</node>
	<node lat="59.247924995775975" lon="6.175513883660892" id="-3451">
		<tag k="name" v="Mula" />
		<tag k="natural" v="cape" />
		<tag k="ssr:stedsnr" v="244976" />
	</node>
	<node lat="59.22942777946551" lon="6.100988887586706" id="-3466">
		<tag k="name" v="Kobbasteinen" />
		<tag k="natural" v="cape" />
		<tag k="ssr:stedsnr" v="284107" />
	</node>
	<node lat="59.21955277876412" lon="6.127347226185286" id="-3467">
		<tag k="name" v="Askvika" />
		<tag k="natural" v="bay" />
		<tag k="ssr:stedsnr" v="284108" />
	</node>
	<node lat="59.14160833705677" lon="6.067866670646157" id="-3470">
		<tag k="name" v="Håsundet" />
		<tag k="natural" v="strait" />
		<tag k="ssr:stedsnr" v="297506" />
	</node>
	<node lat="59.13898055436082" lon="6.030458328436325" id="-3472">
		<tag k="name" v="Helgøysjøen" />
		<tag k="natural" v="cape" />
		<tag k="ssr:stedsnr" v="297534" />
	</node>
	<node lat="59.1369499988921" lon="6.030177779863882" id="-3474">
		<tag k="name" v="Geidaberget" />
		<tag k="natural" v="cape" />
		<tag k="ssr:stedsnr" v="297538" />
	</node>
	<node lat="59.18790833215118" lon="6.018594451764786" id="-3480">
		<tag k="name" v="Hovdeidet" />
		<tag k="place" v="locality" />
		<tag k="ssr:stedsnr" v="302009" />
	</node>
	<node lat="59.21849166667619" lon="6.033294448870956" id="-3496">
		<tag k="name" v="Slettavika" />
		<tag k="natural" v="bay" />
		<tag k="ssr:stedsnr" v="302702" />
	</node>
	<node lat="59.21505833659895" lon="6.001222220644724" id="-3501">
		<tag k="name" v="Gula Neset" />
		<tag k="natural" v="cape" />
		<tag k="ssr:stedsnr" v="302700" />
	</node>
	<node lat="59.13655833115196" lon="6.020405557583041" id="-3536">
		<tag k="name" v="Helgøy" />
		<tag k="place" v="island" />
		<tag k="ssr:stedsnr" v="305608" />
	</node>
	<node lat="59.28991667012276" lon="6.335313879921263" id="-3537">
		<tag k="alt_name" v="Fibbeholet, yt;Ytra Fibbeholet" />
		<tag k="name" v="Ytre Fibbeholet" />
		<tag k="natural" v="bay" />
		<tag k="ssr:stedsnr" v="305960" />
	</node>
	<node lat="59.27174715386553" lon="6.197414039571492" id="-3543">
		<tag k="alt_name" v="Bastliskjeret, in;Indra Bassliskjeret" />
		<tag k="fixme" v="consider seamark:type=rock or natural=shoal" />
		<tag k="name" v="Indre Bastliskjeret" />
		<tag k="place" v="islet" />
		<tag k="ssr:stedsnr" v="306537" />
	</node>
	<node lat="59.30708888847323" lon="6.12403889673675" id="-3554">
		<tag k="name" v="Løngnes" />
		<tag k="natural" v="cape" />
		<tag k="ssr:stedsnr" v="358247" />
	</node>
	<node lat="59.25727500163915" lon="6.191574992940436" id="-3603">
		<tag k="alt_name" v="Longhammarneset" />
		<tag k="name" v="Langhammarneset" />
		<tag k="natural" v="cape" />
		<tag k="ssr:stedsnr" v="366676" />
	</node>
	<node lat="59.23209444311406" lon="5.910802782762011" id="-3606">
		<tag k="bay" v="fjord" />
		<tag k="name" v="Ombofjorden" />
		<tag k="natural" v="bay" />
		<tag k="ssr:stedsnr" v="366987" />
	</node>
	<node lat="59.318225004294085" lon="6.509480551048829" id="-3607">
		<tag k="alt_name" v="Tåa" />
		<tag k="name" v="Tåna" />
		<tag k="natural" v="cape" />
		<tag k="ssr:stedsnr" v="366991" />
	</node>
	<node lat="59.2940138870463" lon="6.1166944401006935" id="-3609">
		<tag k="name" v="Grovastø" />
		<tag k="natural" v="bay" />
		<tag k="ssr:stedsnr" v="479267" />
	</node>
	<node lat="59.30139167061174" lon="6.271366671099683" id="-3613">
		<tag k="name" v="Sandvikneset" />
		<tag k="natural" v="cape" />
		<tag k="ssr:stedsnr" v="479281" />
	</node>
	<node lat="59.14221110691729" lon="6.067027781993243" id="-3616">
		<tag k="name" v="Halaneset" />
		<tag k="natural" v="cape" />
		<tag k="ssr:stedsnr" v="479517" />
	</node>
	<node lat="59.32038610718502" lon="6.4916250041936205" id="-3649">
		<tag k="name" v="Løvika" />
		<tag k="natural" v="bay" />
		<tag k="ssr:stedsnr" v="484394" />
	</node>
	<node lat="59.20066110930615" lon="5.999138880556111" id="-3673">
		<tag k="name" v="Kunes" />
		<tag k="natural" v="cape" />
		<tag k="ssr:stedsnr" v="401198" />
	</node>
	<node lat="59.28008333641214" lon="6.307605549753329" id="-3683">
		<tag k="alt_name" v="Vigeneset" />
		<tag k="name" v="Vikeneset" />
		<tag k="natural" v="cape" />
		<tag k="ssr:stedsnr" v="487076" />
	</node>
	<node lat="59.191211112037024" lon="6.011772227592663" id="-3694">
		<tag k="alt_name" v="Hovdavågen, nordre;Norde Hovdavågen" />
		<tag k="name" v="Nordre Hovdavågen" />
		<tag k="natural" v="bay" />
		<tag k="ssr:stedsnr" v="487927" />
	</node>
	<node lat="59.14066666538836" lon="6.173616665628345" id="-3707">
		<tag k="name" v="Svadbergviga" />
		<tag k="natural" v="bay" />
		<tag k="ssr:stedsnr" v="487583" />
	</node>
	<node lat="59.13784166719368" lon="6.0785222167353" id="-3708">
		<tag k="alt_name" v="Foreholmen" />
		<tag k="name" v="Fureholmen" />
		<tag k="place" v="islet" />
		<tag k="ssr:stedsnr" v="487584" />
	</node>
	<node lat="59.288600000751536" lon="6.118524998188146" id="-3711">
		<tag k="alt_name" v="Knutsvika, nordra" />
		<tag k="name" v="Nordra Knutsvika" />
		<tag k="natural" v="bay" />
		<tag k="ssr:stedsnr" v="487655" />
	</node>
	<node lat="59.309283330409" lon="6.189475007743274" id="-3718">
		<tag k="name" v="Husgavlvika" />
		<tag k="natural" v="bay" />
		<tag k="ssr:stedsnr" v="418242" />
	</node>
	<node lat="59.30767500132266" lon="6.144099997311331" id="-3719">
		<tag k="name" v="Seiaholet" />
		<tag k="natural" v="bay" />
		<tag k="ssr:stedsnr" v="488480" />
	</node>
	<node lat="59.30855000354249" lon="6.182647215869794" id="-3721">
		<tag k="name" v="Stampen" />
		<tag k="natural" v="cape" />
		<tag k="ssr:stedsnr" v="488485" />
	</node>
	<node lat="59.19132500061995" lon="6.0093972181530955" id="-3726">
		<tag k="name" v="Torskavika" />
		<tag k="natural" v="bay" />
		<tag k="ssr:stedsnr" v="424005" />
	</node>
	<node lat="59.17420000321893" lon="6.009494440182108" id="-3772">
		<tag k="name" v="Børøyholmane" />
		<tag k="place" v="islet" />
		<tag k="ssr:stedsnr" v="426615" />
	</node>
	<node lat="59.28225000122365" lon="6.127975004267071" id="-3791">
		<tag k="name" v="Håneset" />
		<tag k="natural" v="cape" />
		<tag k="ssr:stedsnr" v="428610" />
	</node>
	<node lat="59.30159166671732" lon="6.320977780810664" id="-3796">
		<tag k="alt_name" v="Vindsvik" />
		<tag k="name" v="Vindsvika" />
		<tag k="natural" v="bay" />
		<tag k="ssr:stedsnr" v="670948" />
	</node>
	<node lat="59.32482777844095" lon="6.4246722234438085" id="-3801">
		<tag k="name" v="Østerhusvika" />
		<tag k="natural" v="bay" />
		<tag k="ssr:stedsnr" v="466673" />
	</node>
	<node lat="59.20503333665124" lon="5.9909055570551555" id="-3804">
		<tag k="name" v="Skjøljavika" />
		<tag k="natural" v="bay" />
		<tag k="ssr:stedsnr" v="479371" />
	</node>
	<node lat="59.23241944766016" lon="6.084591665273614" id="-3847">
		<tag k="name" v="Øyevika" />
		<tag k="natural" v="bay" />
		<tag k="ssr:stedsnr" v="486955" />
	</node>
	<node lat="59.1404694412034" lon="6.058500007722112" id="-3855">
		<tag k="alt_name" v="Kuneset" />
		<tag k="name" v="Kunes" />
		<tag k="natural" v="cape" />
		<tag k="ssr:stedsnr" v="487404" />
	</node>
	<node lat="59.19121389180159" lon="6.067999998441995" id="-3864">
		<tag k="alt_name" v="Badnavika" />
		<tag k="name" v="Barnavika" />
		<tag k="natural" v="bay" />
		<tag k="ssr:stedsnr" v="487902" />
	</node>
	<node lat="59.21055898058618" lon="5.9916094061741125" id="-3874">
		<tag k="alt_name" v="Djubedalsskjeret" />
		<tag k="fixme" v="consider seamark:type=rock or natural=shoal" />
		<tag k="name" v="Djupedalsskjeret" />
		<tag k="place" v="islet" />
		<tag k="ssr:stedsnr" v="526206" />
	</node>
	<node lat="59.317230557271486" lon="6.350969441948064" id="-3878">
		<tag k="name" v="Larsavika" />
		<tag k="natural" v="bay" />
		<tag k="ssr:stedsnr" v="540326" />
	</node>
	<node lat="59.308141670567515" lon="6.137536105903439" id="-3879">
		<tag k="name" v="Stonghol" />
		<tag k="natural" v="bay" />
		<tag k="ssr:stedsnr" v="540263" />
	</node>
	<node lat="59.264083335410994" lon="6.1731777689092535" id="-3908">
		<tag k="name" v="Krogjen" />
		<tag k="natural" v="bay" />
		<tag k="ssr:stedsnr" v="545574" />
	</node>
	<node lat="59.21793333306168" lon="6.102980553277095" id="-3927">
		<tag k="name" v="Viganeset" />
		<tag k="natural" v="cape" />
		<tag k="old_name" v="Vikaneset" />
		<tag k="ssr:stedsnr" v="547962" />
	</node>
	<node lat="59.141230555295564" lon="6.031066669497104" id="-3942">
		<tag k="name" v="Helgøysundet" />
		<tag k="natural" v="strait" />
		<tag k="ssr:stedsnr" v="548561" />
	</node>
	<node lat="59.14048888605193" lon="6.037952771657638" id="-3943">
		<tag k="name" v="Trælsholmane" />
		<tag k="place" v="islet" />
		<tag k="ssr:stedsnr" v="548562" />
	</node>
	<node lat="59.32131944152563" lon="6.55080555788336" id="-3945">
		<tag k="alt_name" v="Uraneset" />
		<tag k="name" v="Urdaneset" />
		<tag k="natural" v="cape" />
		<tag k="ssr:stedsnr" v="549640" />
	</node>
	<node lat="59.16799722210303" lon="6.045144444656846" id="-3949">
		<tag k="name" v="Tønnegrunnen" />
		<tag k="natural" v="shoal" />
		<tag k="place" v="locality" />
		<tag k="ssr:stedsnr" v="571051" />
	</node>
	<node lat="59.30836944068688" lon="6.1348277775224656" id="-3950">
		<tag k="name" v="Stongnes" />
		<tag k="natural" v="cape" />
		<tag k="ssr:stedsnr" v="584919" />
	</node>
	<node lat="59.26748610900575" lon="6.1500583358683745" id="-3951">
		<tag k="name" v="Apalvigneset" />
		<tag k="natural" v="cape" />
		<tag k="ssr:stedsnr" v="584942" />
	</node>
	<node lat="59.224983332330076" lon="6.1007861190162" id="-3958">
		<tag k="name" v="Gullbergvika" />
		<tag k="natural" v="bay" />
		<tag k="ssr:stedsnr" v="600651" />
	</node>
	<node lat="59.23265555964161" lon="6.089841671645166" id="-3969">
		<tag k="name" v="Gravarvika" />
		<tag k="natural" v="bay" />
		<tag k="ssr:stedsnr" v="605418" />
	</node>
	<node lat="59.179844440452385" lon="6.065866666845864" id="-4003">
		<tag k="name" v="Fistervågen" />
		<tag k="natural" v="bay" />
		<tag k="ssr:stedsnr" v="608914" />
	</node>
	<node lat="59.18090555782424" lon="5.981591668268576" id="-4004">
		<tag k="name" v="Trettholmen" />
		<tag k="place" v="islet" />
		<tag k="ssr:stedsnr" v="608919" />
	</node>
	<node lat="59.29867500035729" lon="6.273341661069976" id="-4018">
		<tag k="alt_name" v="Eiavågen" />
		<tag k="name" v="Eidavågen" />
		<tag k="natural" v="bay" />
		<tag k="ssr:stedsnr" v="645274" />
	</node>
	<node lat="59.27818055688484" lon="6.321013891874475" id="-4043">
		<tag k="name" v="Tøtlandsvika" />
		<tag k="natural" v="bay" />
		<tag k="ssr:stedsnr" v="666606" />
	</node>
	<node lat="59.272141668048015" lon="6.323491670328563" id="-4044">
		<tag k="name" v="Geidastøa" />
		<tag k="natural" v="bay" />
		<tag k="ssr:stedsnr" v="666607" />
	</node>
	<node lat="59.141941668561145" lon="6.009616660323335" id="-4074">
		<tag k="name" v="Mosnesholmane" />
		<tag k="place" v="islet" />
		<tag k="ssr:stedsnr" v="669574" />
	</node>
	<node lat="59.30624999799509" lon="6.156074994900442" id="-4084">
		<tag k="name" v="Døvika" />
		<tag k="natural" v="bay" />
		<tag k="ssr:stedsnr" v="670470" />
	</node>
	<node lat="59.324116668608994" lon="6.4364499923731575" id="-4085">
		<tag k="alt_name" v="Neset" />
		<tag k="name" v="Hauganeset" />
		<tag k="natural" v="cape" />
		<tag k="ssr:stedsnr" v="670986" />
	</node>
	<node lat="59.29710555640741" lon="6.111847214845059" id="-4087">
		<tag k="name" v="Øygardsgrunnen" />
		<tag k="natural" v="shoal" />
		<tag k="place" v="locality" />
		<tag k="ssr:stedsnr" v="891988" />
	</node>
	<node lat="59.320144442404555" lon="6.490852775720083" id="-4107">
		<tag k="name" v="Vedaneset" />
		<tag k="natural" v="cape" />
		<tag k="ssr:stedsnr" v="727420" />
	</node>
	<node lat="59.13820277706367" lon="6.049219446104917" id="-4151">
		<tag k="name" v="Bøkkarvika" />
		<tag k="natural" v="bay" />
		<tag k="ssr:stedsnr" v="730603" />
	</node>
	<node lat="59.180819639258075" lon="5.997586921220719" id="-4158">
		<tag k="name" v="Børøy" />
		<tag k="place" v="island" />
		<tag k="ssr:stedsnr" v="730914" />
	</node>
	<node lat="59.19618610755487" lon="6.00349166426302" id="-4159">
		<tag k="name" v="Svansholmen" />
		<tag k="place" v="islet" />
		<tag k="ssr:stedsnr" v="730928" />
	</node>
	<node lat="59.29457499705113" lon="6.302102778960148" id="-4163">
		<tag k="name" v="Eidaneset" />
		<tag k="natural" v="cape" />
		<tag k="ssr:stedsnr" v="731615" />
	</node>
	<node lat="59.31519722644368" lon="6.494733338911228" id="-4166">
		<tag k="name" v="Bogavika" />
		<tag k="natural" v="bay" />
		<tag k="ssr:stedsnr" v="732000" />
	</node>
	<node lat="59.184102774600426" lon="5.991169444323722" id="-4167">
		<tag k="name" v="Askvik" />
		<tag k="natural" v="bay" />
		<tag k="ssr:stedsnr" v="903440" />
	</node>
	<node lat="59.203552778985355" lon="5.990141666015177" id="-4169">
		<tag k="name" v="Varaneset" />
		<tag k="natural" v="cape" />
		<tag k="ssr:stedsnr" v="904373" />
	</node>
	<node lat="59.14041111528617" lon="6.02312778569129" id="-4170">
		<tag k="name" v="Sallkjervika" />
		<tag k="natural" v="bay" />
		<tag k="ssr:stedsnr" v="904527" />
	</node>
	<node lat="59.139380558765154" lon="6.009544447749548" id="-4171">
		<tag k="name" v="Litleholmen" />
		<tag k="place" v="islet" />
		<tag k="ssr:stedsnr" v="904530" />
	</node>
	<node lat="59.20625555964888" lon="6.085502785606686" id="-4185">
		<tag k="name" v="Oksabåsen" />
		<tag k="natural" v="bay" />
		<tag k="ssr:stedsnr" v="909095" />
	</node>
	<node lat="59.18805555121239" lon="6.065338885413739" id="-4186">
		<tag k="name" v="Liarneset" />
		<tag k="natural" v="cape" />
		<tag k="ssr:stedsnr" v="909099" />
	</node>
	<node lat="59.18157777399777" lon="6.005522225047892" id="-4188">
		<tag k="name" v="Jiljavika" />
		<tag k="natural" v="bay" />
		<tag k="ssr:stedsnr" v="909030" />
	</node>
	<node lat="59.146766670438495" lon="6.124008328752359" id="-4192">
		<tag k="name" v="Longhammaren" />
		<tag k="natural" v="cape" />
		<tag k="ssr:stedsnr" v="909324" />
	</node>
	<node lat="59.21842222266983" lon="6.025588883772581" id="-4225">
		<tag k="name" v="Gravstøvika" />
		<tag k="natural" v="bay" />
		<tag k="ssr:stedsnr" v="909694" />
	</node>
	<node lat="59.208519441767926" lon="5.989283329361208" id="-4267">
		<tag k="fixme" v="consider seamark:type=rock or natural=shoal" />
		<tag k="name" v="Govikskjeret" />
		<tag k="place" v="islet" />
		<tag k="ssr:stedsnr" v="788661" />
	</node>
	<node lat="59.14755555141685" lon="6.125558325525563" id="-4283">
		<tag k="name" v="Steinsviga" />
		<tag k="natural" v="bay" />
		<tag k="ssr:stedsnr" v="790607" />
	</node>
	<node lat="59.127427779796925" lon="6.011091668368713" id="-4284">
		<tag k="bay" v="fjord" />
		<tag k="name" v="Årdalsfjorden" />
		<tag k="natural" v="bay" />
		<tag k="ssr:stedsnr" v="790562" />
	</node>
	<node lat="59.21188055939556" lon="6.003711116506368" id="-4289">
		<tag k="alt_name" v="Nordstø" />
		<tag k="name" v="Nordstød" />
		<tag k="natural" v="bay" />
		<tag k="ssr:stedsnr" v="790950" />
	</node>
	<node lat="59.17718584932831" lon="6.054664185676619" id="-4294">
		<tag k="name" v="Følsvika" />
		<tag k="natural" v="bay" />
		<tag k="ssr:stedsnr" v="911618" />
	</node>
	<node lat="59.27394999896448" lon="6.3184305599135495" id="-4297">
		<tag k="alt_name" v="Strandå" />
		<tag k="name" v="Stranda" />
		<tag k="natural" v="beach" />
		<tag k="ssr:stedsnr" v="791090" />
	</node>
	<node lat="59.28219166913361" lon="6.252444435889717" id="-4314">
		<tag k="alt_name" v="Varavika" />
		<tag k="name" v="Vardavika" />
		<tag k="natural" v="bay" />
		<tag k="ssr:stedsnr" v="912091" />
	</node>
	<node lat="59.19383055819512" lon="6.010091671655727" id="-4335">
		<tag k="name" v="Grimsneset" />
		<tag k="natural" v="cape" />
		<tag k="ssr:stedsnr" v="912920" />
	</node>
	<node lat="59.319244440165015" lon="6.543472228615222" id="-4339">
		<tag k="bay" v="fjord" />
		<tag k="name" v="Førrebotnen" />
		<tag k="natural" v="bay" />
		<tag k="ssr:stedsnr" v="913995" />
	</node>
	<node lat="59.24566943989299" lon="6.10974721801371" id="-4346">
		<tag k="bay" v="fjord" />
		<tag k="name" v="Hjelmelandsfjorden" />
		<tag k="natural" v="bay" />
		<tag k="ssr:stedsnr" v="821423" />
	</node>
	<node lat="59.26123333358756" lon="6.209722219763374" id="-4347">
		<tag k="name" v="Torestranda" />
		<tag k="natural" v="beach" />
		<tag k="ssr:stedsnr" v="830078" />
	</node>
	<node lat="59.20726110942498" lon="5.993880549229583" id="-4348">
		<tag k="alt_name" v="Govik;Godviga" />
		<tag k="name" v="Godvik" />
		<tag k="natural" v="bay" />
		<tag k="ssr:stedsnr" v="830392" />
	</node>
	<node lat="59.305966665626705" lon="6.165025007202266" id="-4351">
		<tag k="name" v="Blåmalihaugen" />
		<tag k="natural" v="cape" />
		<tag k="ssr:stedsnr" v="843292" />
	</node>
	<node lat="59.1877027775045" lon="5.997227776058257" id="-4358">
		<tag k="name" v="Kuneset" />
		<tag k="natural" v="cape" />
		<tag k="ssr:stedsnr" v="849009" />
	</node>
	<node lat="59.249041666791335" lon="6.176897225791995" id="-4371">
		<tag k="name" v="Forekamvika" />
		<tag k="natural" v="bay" />
		<tag k="ssr:stedsnr" v="849413" />
	</node>
	<node lat="59.26777221896437" lon="6.23488332809255" id="-4388">
		<tag k="name" v="Åmekroken" />
		<tag k="natural" v="bay" />
		<tag k="ssr:stedsnr" v="849615" />
	</node>
	<node lat="59.21611392214741" lon="6.115147605342648" id="-4415">
		<tag k="name" v="Vigavågen" />
		<tag k="natural" v="bay" />
		<tag k="old_name" v="Vikavågen" />
		<tag k="ssr:stedsnr" v="851970" />
	</node>
	<node lat="59.31512500211916" lon="6.347000000636626" id="-4432">
		<tag k="name" v="Barlindneset" />
		<tag k="natural" v="cape" />
		<tag k="ssr:stedsnr" v="852965" />
	</node>
	<node lat="59.32255277747122" lon="6.557983332717189" id="-4460">
		<tag k="name" v="Naustvika" />
		<tag k="natural" v="bay" />
		<tag k="ssr:stedsnr" v="910513" />
	</node>
	<node lat="59.194900002158214" lon="6.080361102324814" id="-4485">
		<tag k="alt_name" v="Akstervik" />
		<tag k="name" v="Akstervika" />
		<tag k="natural" v="bay" />
		<tag k="ssr:stedsnr" v="912895" />
	</node>
	<node lat="59.28713888725157" lon="6.1202972267158176" id="-4501">
		<tag k="name" v="Hammaren" />
		<tag k="natural" v="cape" />
		<tag k="ssr:stedsnr" v="949899" />
	</node>
	<node lat="59.22892500131223" lon="6.135508341068647" id="-4503">
		<tag k="name" v="Kleppholmen" />
		<tag k="place" v="islet" />
		<tag k="ssr:stedsnr" v="951093" />
	</node>
	<node lat="59.1411583376088" lon="6.068936105478062" id="-4510">
		<tag k="fixme" v="consider seamark:type=rock or natural=shoal" />
		<tag k="name" v="Langholmskjeret" />
		<tag k="place" v="islet" />
		<tag k="ssr:stedsnr" v="964511" />
	</node>
	<node lat="59.14168055204483" lon="6.036991674589619" id="-4511">
		<tag k="name" v="Holmavika" />
		<tag k="natural" v="bay" />
		<tag k="ssr:stedsnr" v="964536" />
	</node>
	<node lat="59.26605555588123" lon="6.217541662977145" id="-4524">
		<tag k="name" v="Bårebergneset" />
		<tag k="natural" v="cape" />
		<tag k="ssr:stedsnr" v="969596" />
	</node>
	<node lat="59.1845333331671" lon="6.043191658896779" id="-4526">
		<tag k="name" v="Grisen" />
		<tag k="natural" v="cape" />
		<tag k="ssr:stedsnr" v="970039" />
	</node>
	<node lat="59.32041666247644" lon="6.544213888559463" id="-4542">
		<tag k="name" v="Suggeholet" />
		<tag k="natural" v="bay" />
		<tag k="ssr:stedsnr" v="970755" />
	</node>
	<node lat="59.32238438221316" lon="6.400958972480737" id="-4546">
		<tag k="name" v="Knappertholet" />
		<tag k="natural" v="cape" />
		<tag k="ssr:stedsnr" v="970648" />
	</node>
	<node lat="59.230087821190686" lon="6.06207126188572" id="-4573">
		<tag k="alt_name" v="Habnaneset" />
		<tag k="name" v="Hamnaneset" />
		<tag k="natural" v="cape" />
		<tag k="ssr:stedsnr" v="1951" />
	</node>
	<node lat="59.144527782357976" lon="6.119088891635148" id="-4590">
		<tag k="fixme" v="consider seamark:type=rock or natural=shoal" />
		<tag k="name" v="Prestaskjeret" />
		<tag k="place" v="islet" />
		<tag k="ssr:stedsnr" v="25052" />
	</node>
	<node lat="59.220708329994665" lon="6.121902770662498" id="-4605">
		<tag k="name" v="Hunnsnes" />
		<tag k="natural" v="cape" />
		<tag k="ssr:stedsnr" v="54725" />
	</node>
	<node lat="59.30651944470291" lon="6.148830549762055" id="-4609">
		<tag k="name" v="Morkavika" />
		<tag k="natural" v="bay" />
		<tag k="ssr:stedsnr" v="55264" />
	</node>
	<node lat="59.26886111278867" lon="6.2463777735149" id="-4639">
		<tag k="name" v="Bådstøvika" />
		<tag k="natural" v="bay" />
		<tag k="ssr:stedsnr" v="60539" />
	</node>
	<node lat="59.268791666569996" lon="6.264652776604622" id="-4650">
		<tag k="name" v="Ullsvika" />
		<tag k="natural" v="bay" />
		<tag k="ssr:stedsnr" v="63089" />
	</node>
	<node lat="59.229191662321135" lon="6.031294443612295" id="-4669">
		<tag k="alt_name" v="Garsundfjorden" />
		<tag k="bay" v="fjord" />
		<tag k="loc_name" v="Garssundfjorden;Gardsundsfjorden" />
		<tag k="name" v="Gardssundfjorden" />
		<tag k="natural" v="bay" />
		<tag k="ssr:stedsnr" v="62947" />
	</node>
	<node lat="59.2080805538962" lon="5.991266666050738" id="-4670">
		<tag k="alt_name" v="Govikholmen" />
		<tag k="name" v="Godvikholmen" />
		<tag k="place" v="islet" />
		<tag k="ssr:stedsnr" v="62952" />
	</node>
	<node lat="59.212397223886505" lon="5.96554443894193" id="-4671">
		<tag k="name" v="Skogholmane" />
		<tag k="place" v="islet" />
		<tag k="ssr:stedsnr" v="62953" />
	</node>
	<node lat="59.3071638876676" lon="6.124963894963713" id="-4678">
		<tag k="name" v="Lyngnes" />
		<tag k="natural" v="cape" />
		<tag k="ssr:stedsnr" v="63532" />
	</node>
	<node lat="59.32367778146559" lon="6.4590861072513714" id="-4689">
		<tag k="name" v="Haugavika" />
		<tag k="natural" v="bay" />
		<tag k="ssr:stedsnr" v="63980" />
	</node>
	<node lat="59.301911113440376" lon="6.328072224501298" id="-4690">
		<tag k="name" v="Vindsvikneset" />
		<tag k="natural" v="cape" />
		<tag k="ssr:stedsnr" v="63988" />
	</node>
	<node lat="59.13538055468864" lon="6.013861112146653" id="-4697">
		<tag k="name" v="Helgøytåa" />
		<tag k="natural" v="cape" />
		<tag k="ssr:stedsnr" v="87058" />
	</node>
	<node lat="59.149238886217226" lon="6.10347499791392" id="-4734">
		<tag k="name" v="Slepplaust" />
		<tag k="natural" v="bay" />
		<tag k="ssr:stedsnr" v="120321" />
	</node>
	<node lat="59.20017499704553" lon="6.050549994623352" id="-4774">
		<tag k="alt_name" v="Sandangervågen" />
		<tag k="name" v="Sandangsvågen" />
		<tag k="natural" v="bay" />
		<tag k="ssr:stedsnr" v="122921" />
	</node>
	<node lat="59.23113611405718" lon="6.141644446052634" id="-4776">
		<tag k="name" v="Dyneneset" />
		<tag k="natural" v="cape" />
		<tag k="ssr:stedsnr" v="122924" />
	</node>
	<node lat="59.28446666818047" lon="6.324100006669246" id="-4781">
		<tag k="name" v="Vindklov" />
		<tag k="natural" v="cape" />
		<tag k="ssr:stedsnr" v="123966" />
	</node>
	<node lat="59.284413890621515" lon="6.1252999966997015" id="-4791">
		<tag k="alt_name" v="Knutsvika, søra" />
		<tag k="name" v="Søra Knutsvika" />
		<tag k="natural" v="bay" />
		<tag k="ssr:stedsnr" v="123656" />
	</node>
	<node lat="59.1985888922416" lon="6.055169450517346" id="-4794">
		<tag k="name" v="Hammersnes" />
		<tag k="natural" v="cape" />
		<tag k="ssr:stedsnr" v="123898" />
	</node>
	<node lat="59.20592235098837" lon="6.093767040045088" id="-4809">
		<tag k="alt_name" v="Djubavik" />
		<tag k="name" v="Djupevik" />
		<tag k="natural" v="bay" />
		<tag k="ssr:stedsnr" v="160146" />
	</node>
	<node lat="59.3013138916799" lon="6.11356389379035" id="-4816">
		<tag k="name" v="Steinnes" />
		<tag k="natural" v="cape" />
		<tag k="ssr:stedsnr" v="176249" />
	</node>
	<node lat="59.31584722408568" lon="6.531030563697834" id="-4873">
		<tag k="name" v="Slåttebakkodden" />
		<tag k="natural" v="cape" />
		<tag k="ssr:stedsnr" v="181500" />
	</node>
	<node lat="59.18893055711514" lon="6.068344449284083" id="-4910">
		<tag k="alt_name" v="Djubavik" />
		<tag k="name" v="Djupevik" />
		<tag k="natural" v="bay" />
		<tag k="ssr:stedsnr" v="183335" />
	</node>
	<node lat="59.19725555993685" lon="6.017147217150485" id="-4913">
		<tag k="alt_name" v="Kådavågen" />
		<tag k="name" v="Kotavågen" />
		<tag k="natural" v="bay" />
		<tag k="ssr:stedsnr" v="183908" />
	</node>
	<node lat="59.22088888943174" lon="6.047919438251832" id="-4916">
		<tag k="alt_name" v="Padl" />
		<tag k="name" v="Pall" />
		<tag k="natural" v="cape" />
		<tag k="ssr:stedsnr" v="183947" />
	</node>
	<node lat="59.26915416262278" lon="6.184568060836862" id="-4932">
		<tag k="alt_name" v="Bastliskjeret, yt;Ytra Bassliskjeret" />
		<tag k="fixme" v="consider seamark:type=rock or natural=shoal" />
		<tag k="name" v="Ytre Bastliskjeret" />
		<tag k="place" v="islet" />
		<tag k="ssr:stedsnr" v="184581" />
	</node>
	<node lat="59.22125000298575" lon="6.128588895049964" id="-4945">
		<tag k="loc_name" v="Askvikholmen" />
		<tag k="name" v="Askholmen" />
		<tag k="place" v="islet" />
		<tag k="ssr:stedsnr" v="223094" />
	</node>
	<node lat="59.17610278162868" lon="6.009030549015878" id="-4946">
		<tag k="name" v="Djupasund" />
		<tag k="natural" v="strait" />
		<tag k="ssr:stedsnr" v="223255" />
	</node>
	<node lat="59.30411111288899" lon="6.273836107530745" id="-4949">
		<tag k="name" v="Sandviga" />
		<tag k="natural" v="bay" />
		<tag k="ssr:stedsnr" v="282897" />
	</node>
	<node lat="59.211130558529355" lon="6.099805547017071" id="-4958">
		<tag k="name" v="Vassvik" />
		<tag k="natural" v="bay" />
		<tag k="ssr:stedsnr" v="297653" />
	</node>
	<node lat="59.20126666308451" lon="6.070194453386226" id="-4970">
		<tag k="name" v="Litla Kvaløyna" />
		<tag k="place" v="islet" />
		<tag k="ssr:stedsnr" v="302123" />
	</node>
	<node lat="59.30443888746949" lon="6.387911112585912" id="-4979">
		<tag k="name" v="Skyttaren" />
		<tag k="natural" v="cape" />
		<tag k="ssr:stedsnr" v="302459" />
	</node>
	<node lat="59.32132500193858" lon="6.391694448521371" id="-5001">
		<tag k="name" v="Vedaholet" />
		<tag k="natural" v="bay" />
		<tag k="ssr:stedsnr" v="303424" />
	</node>
	<node lat="59.31055555708949" lon="6.1753444402689315" id="-5042">
		<tag k="bay" v="fjord" />
		<tag k="name" v="Erfjorden" />
		<tag k="natural" v="bay" />
		<tag k="ssr:stedsnr" v="306479" />
	</node>
	<node lat="59.32107500058919" lon="6.449494437511626" id="-5045">
		<tag k="name" v="Lundaneset" />
		<tag k="natural" v="cape" />
		<tag k="ssr:stedsnr" v="306972" />
	</node>
	<node lat="59.27737222034068" lon="6.136133327113295" id="-5050">
		<tag k="name" v="Kjerhammar" />
		<tag k="natural" v="cape" />
		<tag k="ssr:stedsnr" v="342878" />
	</node>
	<node lat="59.285527777974934" lon="6.112847221420819" id="-5051">
		<tag k="name" v="Rossviggrunnen" />
		<tag k="natural" v="shoal" />
		<tag k="place" v="locality" />
		<tag k="ssr:stedsnr" v="342880" />
	</node>
	<node lat="59.2332166703742" lon="6.081219442614925" id="-5052">
		<tag k="fixme" v="consider seamark:type=rock or natural=shoal" />
		<tag k="name" v="Fluskjer" />
		<tag k="place" v="islet" />
		<tag k="ssr:stedsnr" v="344073" />
	</node>
	<node lat="59.22464722068056" lon="6.124866672404532" id="-5054">
		<tag k="fixme" v="consider seamark:type=rock or natural=shoal" />
		<tag k="name" v="Raunane" />
		<tag k="place" v="islet" />
		<tag k="ssr:stedsnr" v="344088" />
	</node>
	<node lat="59.319794441608465" lon="6.3634083364112595" id="-5058">
		<tag k="name" v="Kunes" />
		<tag k="natural" v="cape" />
		<tag k="ssr:stedsnr" v="357274" />
	</node>
	<node lat="59.205427778189716" lon="5.990466673850729" id="-5060">
		<tag k="name" v="Longaneset" />
		<tag k="natural" v="cape" />
		<tag k="ssr:stedsnr" v="357359" />
	</node>
	<node lat="59.20283889089254" lon="6.06270278194743" id="-5070">
		<tag k="name" v="Fuglavågen" />
		<tag k="natural" v="bay" />
		<tag k="ssr:stedsnr" v="363021" />
	</node>
	<node lat="59.184763887688575" lon="6.044188888682038" id="-5071">
		<tag k="name" v="Indra Grisevika" />
		<tag k="natural" v="bay" />
		<tag k="ssr:stedsnr" v="363028" />
	</node>
	<node lat="59.233502778159774" lon="6.161505550097497" id="-5094">
		<tag k="name" v="Sandebukta" />
		<tag k="natural" v="bay" />
		<tag k="ssr:stedsnr" v="363370" />
	</node>
	<node lat="59.26636667042544" lon="6.17865555056998" id="-5113">
		<tag k="name" v="Midneset" />
		<tag k="natural" v="cape" />
		<tag k="ssr:stedsnr" v="363539" />
	</node>
	<node lat="59.21638611024346" lon="5.999894450395311" id="-5114">
		<tag k="name" v="Hestavika" />
		<tag k="natural" v="bay" />
		<tag k="ssr:stedsnr" v="363651" />
	</node>
	<node lat="59.217397222409296" lon="6.009097220820077" id="-5116">
		<tag k="name" v="Spegjeneset" />
		<tag k="natural" v="cape" />
		<tag k="ssr:stedsnr" v="363654" />
	</node>
	<node lat="59.26915000388832" lon="6.267786108930197" id="-5124">
		<tag k="name" v="Ulsvika" />
		<tag k="natural" v="bay" />
		<tag k="ssr:stedsnr" v="363568" />
	</node>
	<node lat="59.29096389325984" lon="6.11651388381612" id="-5129">
		<tag k="fixme" v="consider seamark:type=rock or natural=shoal" />
		<tag k="name" v="Skarvaskjeret" />
		<tag k="place" v="islet" />
		<tag k="ssr:stedsnr" v="363820" />
	</node>
	<node lat="59.14847500247195" lon="6.1477500020679825" id="-5138">
		<tag k="name" v="Liarneset" />
		<tag k="natural" v="cape" />
		<tag k="ssr:stedsnr" v="365558" />
	</node>
	<node lat="59.147419445738294" lon="6.101222230629864" id="-5143">
		<tag k="name" v="Krågeneset" />
		<tag k="natural" v="cape" />
		<tag k="ssr:stedsnr" v="365583" />
	</node>
	<node lat="59.2324749970188" lon="6.097088890794232" id="-5145">
		<tag k="name" v="Øyeneset" />
		<tag k="natural" v="cape" />
		<tag k="ssr:stedsnr" v="365962" />
	</node>
	<node lat="59.23136944485707" lon="6.099199998907785" id="-5146">
		<tag k="alt_name" v="Hankadlavika" />
		<tag k="name" v="Hankallevika" />
		<tag k="natural" v="bay" />
		<tag k="ssr:stedsnr" v="365963" />
	</node>
	<node lat="59.22073055445825" lon="6.121322228851708" id="-5147">
		<tag k="name" v="Hundsnes" />
		<tag k="natural" v="cape" />
		<tag k="ssr:stedsnr" v="365970" />
	</node>
	<node lat="59.29134999930474" lon="6.283127772782128" id="-5169">
		<tag k="alt_name" v="Øspevika" />
		<tag k="name" v="Ospevika" />
		<tag k="natural" v="bay" />
		<tag k="ssr:stedsnr" v="366951" />
	</node>
	<node lat="59.1451250040083" lon="6.074752771013571" id="-5174">
		<tag k="name" v="Abalviga" />
		<tag k="natural" v="bay" />
		<tag k="ssr:stedsnr" v="389026" />
	</node>
	<node lat="59.26969167101642" lon="6.1485916644799525" id="-5175">
		<tag k="alt_name" v="Aplavik" />
		<tag k="name" v="Apalviga" />
		<tag k="natural" v="bay" />
		<tag k="ssr:stedsnr" v="403920" />
	</node>
	<node lat="59.126843167223434" lon="6.01803240724658" id="-5176">
		<tag k="bay" v="fjord" />
		<tag k="name" v="Ytre Årdalsfjorden" />
		<tag k="natural" v="bay" />
		<tag k="ssr:stedsnr" v="403455" />
	</node>
	<node lat="59.29061666552498" lon="6.114997228863864" id="-5180">
		<tag k="name" v="Skarvagrunnen" />
		<tag k="natural" v="shoal" />
		<tag k="place" v="locality" />
		<tag k="ssr:stedsnr" v="405986" />
	</node>
	<node lat="59.30732222224632" lon="6.126830561151999" id="-5189">
		<tag k="name" v="Vippå" />
		<tag k="natural" v="cape" />
		<tag k="ssr:stedsnr" v="419260" />
	</node>
	<node lat="59.22432777823802" lon="6.060400005344469" id="-5192">
		<tag k="name" v="Valvika" />
		<tag k="natural" v="bay" />
		<tag k="ssr:stedsnr" v="419628" />
	</node>
	<node lat="59.319619446231" lon="6.491452785444323" id="-5208">
		<tag k="name" v="Krabbavika" />
		<tag k="natural" v="bay" />
		<tag k="ssr:stedsnr" v="424365" />
	</node>
	<node lat="59.143813887078124" lon="6.023361112873808" id="-5265">
		<tag k="name" v="Kolhaugneset" />
		<tag k="natural" v="cape" />
		<tag k="ssr:stedsnr" v="426564" />
	</node>
	<node lat="59.154308329435885" lon="6.024949993565945" id="-5266">
		<tag k="name" v="Kue" />
		<tag k="place" v="islet" />
		<tag k="ssr:stedsnr" v="426571" />
	</node>
	<node lat="59.22286110783221" lon="6.056461117582403" id="-5270">
		<tag k="alt_name" v="Askevika" />
		<tag k="name" v="Askvika" />
		<tag k="natural" v="bay" />
		<tag k="ssr:stedsnr" v="426952" />
	</node>
	<node lat="59.306058330384325" lon="6.158919445335312" id="-5285">
		<tag k="name" v="Hundaneset" />
		<tag k="natural" v="cape" />
		<tag k="ssr:stedsnr" v="427525" />
	</node>
	<node lat="59.28579722624003" lon="6.2685583287803" id="-5295">
		<tag k="alt_name" v="Bassbergneset" />
		<tag k="name" v="Bastbergvikneset" />
		<tag k="natural" v="cape" />
		<tag k="ssr:stedsnr" v="427958" />
	</node>
	<node lat="59.29031944689913" lon="6.275288883548392" id="-5296">
		<tag k="alt_name" v="Bassbergvika" />
		<tag k="name" v="Bastbergvika" />
		<tag k="natural" v="bay" />
		<tag k="ssr:stedsnr" v="427959" />
	</node>
	<node lat="59.30056111413289" lon="6.096322226285834" id="-5300">
		<tag k="name" v="Litlegrunnen" />
		<tag k="natural" v="shoal" />
		<tag k="place" v="locality" />
		<tag k="ssr:stedsnr" v="526982" />
	</node>
	<node lat="59.1880250011961" lon="5.99247222897871" id="-5304">
		<tag k="name" v="Steinsund" />
		<tag k="natural" v="strait" />
		<tag k="ssr:stedsnr" v="539327" />
	</node>
	<node lat="59.181230556053116" lon="5.988988894522971" id="-5305">
		<tag k="name" v="Håganeset" />
		<tag k="natural" v="strait" />
		<tag k="ssr:stedsnr" v="539417" />
	</node>
	<node lat="59.20547222138049" lon="6.088600007083146" id="-5309">
		<tag k="name" v="Nilsavika" />
		<tag k="natural" v="bay" />
		<tag k="ssr:stedsnr" v="545095" />
	</node>
	<node lat="59.2770416632463" lon="6.290750001696487" id="-5332">
		<tag k="name" v="Høfsjaholet" />
		<tag k="natural" v="bay" />
		<tag k="ssr:stedsnr" v="545590" />
	</node>
	<node lat="59.28902221860848" lon="6.33092777151494" id="-5333">
		<tag k="name" v="Skibet" />
		<tag k="natural" v="cape" />
		<tag k="ssr:stedsnr" v="545598" />
	</node>
	<node lat="59.19776388605512" lon="6.078000004311205" id="-5383">
		<tag k="name" v="Prestholmen" />
		<tag k="place" v="islet" />
		<tag k="ssr:stedsnr" v="547900" />
	</node>
	<node lat="59.21939166399868" lon="6.020899992320084" id="-5389">
		<tag k="alt_name" v="Gravstødskjeret" />
		<tag k="fixme" v="consider seamark:type=rock or natural=shoal" />
		<tag k="name" v="Gravstøskjeret" />
		<tag k="place" v="islet" />
		<tag k="ssr:stedsnr" v="547949" />
	</node>
	<node lat="59.2302169449175" lon="6.136314339619303" id="-5391">
		<tag k="alt_name" v="Krågå" />
		<tag k="fixme" v="consider seamark:type=rock or natural=shoal" />
		<tag k="name" v="Kråka" />
		<tag k="place" v="islet" />
		<tag k="ssr:stedsnr" v="547958" />
	</node>
	<node lat="59.208844442664066" lon="5.994494436693065" id="-5392">
		<tag k="alt_name" v="Govikneset" />
		<tag k="name" v="Godvikneset" />
		<tag k="natural" v="cape" />
		<tag k="ssr:stedsnr" v="547959" />
	</node>
	<node lat="59.13811666799155" lon="6.142533341280112" id="-5399">
		<tag k="name" v="Skiftesneset" />
		<tag k="natural" v="cape" />
		<tag k="ssr:stedsnr" v="548540" />
	</node>
	<node lat="59.187144448008375" lon="6.03049999180541" id="-5403">
		<tag k="alt_name" v="Ostervik" />
		<tag k="name" v="Austrevik" />
		<tag k="natural" v="bay" />
		<tag k="ssr:stedsnr" v="548888" />
	</node>
	<node lat="59.31343055566027" lon="6.424633330651453" id="-5411">
		<tag k="alt_name" v="Gåsneset" />
		<tag k="name" v="Gåsnes" />
		<tag k="natural" v="cape" />
		<tag k="ssr:stedsnr" v="548985" />
	</node>
	<node lat="59.18193611507027" lon="6.016452777680193" id="-5416">
		<tag k="name" v="Tjøreberget" />
		<tag k="natural" v="cape" />
		<tag k="ssr:stedsnr" v="583176" />
	</node>
	<node lat="59.321291664053724" lon="6.387883325867792" id="-5420">
		<tag k="name" v="Dalsendneset" />
		<tag k="natural" v="cape" />
		<tag k="ssr:stedsnr" v="600284" />
	</node>
	<node lat="59.31186944616064" lon="6.235149999681851" id="-5421">
		<tag k="name" v="Bosen" />
		<tag k="natural" v="cape" />
		<tag k="ssr:stedsnr" v="600290" />
	</node>
	<node lat="59.152527775383206" lon="6.094222219262714" id="-5433">
		<tag k="name" v="Halavika" />
		<tag k="natural" v="bay" />
		<tag k="ssr:stedsnr" v="605345" />
	</node>
	<node lat="59.31512500295669" lon="6.493699997773932" id="-5471">
		<tag k="name" v="Bogavika" />
		<tag k="natural" v="bay" />
		<tag k="ssr:stedsnr" v="606348" />
	</node>
	<node lat="59.21652222262933" lon="6.001952782946152" id="-5478">
		<tag k="name" v="Tapp" />
		<tag k="natural" v="cape" />
		<tag k="ssr:stedsnr" v="607932" />
	</node>
	<node lat="59.26776111346943" lon="6.22906943762039" id="-5489">
		<tag k="alt_name" v="Donsaneset" />
		<tag k="name" v="Dunsane" />
		<tag k="natural" v="cape" />
		<tag k="ssr:stedsnr" v="608068" />
	</node>
	<node lat="59.14274999853928" lon="6.077724998561772" id="-5509">
		<tag k="name" v="Ågerholmen" />
		<tag k="place" v="islet" />
		<tag k="ssr:stedsnr" v="608579" />
	</node>
	<node lat="59.29009999965962" lon="6.166849994541959" id="-5515">
		<tag k="name" v="Jøsneset" />
		<tag k="natural" v="cape" />
		<tag k="ssr:stedsnr" v="608658" />
	</node>
	<node lat="59.159416670097265" lon="6.033374997996698" id="-5521">
		<tag k="name" v="Sigmundstadneset" />
		<tag k="natural" v="cape" />
		<tag k="ssr:stedsnr" v="608622" />
	</node>
	<node lat="59.29071111038006" lon="6.341524999144602" id="-5525">
		<tag k="alt_name" v="Fibbeholet, in;Indra Fibbeholet" />
		<tag k="name" v="Indre Fibbeholet" />
		<tag k="natural" v="bay" />
		<tag k="ssr:stedsnr" v="608968" />
	</node>
	<node lat="59.2350277808508" lon="6.1536749966397455" id="-5528">
		<tag k="alt_name" v="Pundsnes" />
		<tag k="name" v="Puntsnes" />
		<tag k="natural" v="cape" />
		<tag k="ssr:stedsnr" v="608982" />
	</node>
	<node lat="59.31354166446047" lon="6.344641669374857" id="-5536">
		<tag k="alt_name" v="Eiavika" />
		<tag k="name" v="Eidavika" />
		<tag k="natural" v="bay" />
		<tag k="ssr:stedsnr" v="609976" />
	</node>
	<node lat="59.315855559416384" lon="6.488949995949313" id="-5541">
		<tag k="alt_name" v="Uraneset" />
		<tag k="name" v="Urdaneset" />
		<tag k="natural" v="cape" />
		<tag k="ssr:stedsnr" v="610000" />
	</node>
	<node lat="59.290541667181614" lon="6.117691668389749" id="-5544">
		<tag k="name" v="Skarvaneset" />
		<tag k="natural" v="cape" />
		<tag k="ssr:stedsnr" v="647921" />
	</node>
	<node lat="59.18554444791409" lon="5.990166665597953" id="-5545">
		<tag k="name" v="Askvikneset" />
		<tag k="natural" v="cape" />
		<tag k="ssr:stedsnr" v="660465" />
	</node>
	<node lat="59.30701388482217" lon="6.175216661579445" id="-5551">
		<tag k="name" v="Indra Alkrona" />
		<tag k="natural" v="cape" />
		<tag k="ssr:stedsnr" v="661273" />
	</node>
	<node lat="59.1889249961767" lon="5.990991659477765" id="-5552">
		<tag k="name" v="Laugholmsundet" />
		<tag k="natural" v="strait" />
		<tag k="ssr:stedsnr" v="661348" />
	</node>
	<node lat="59.144925004638004" lon="6.077777784825087" id="-5609">
		<tag k="alt_name" v="Skåraneset" />
		<tag k="name" v="Skoraneset" />
		<tag k="natural" v="cape" />
		<tag k="ssr:stedsnr" v="666695" />
	</node>
	<node lat="59.28639444532359" lon="6.120324991156509" id="-5617">
		<tag k="name" v="Skarvaskjeret" />
		<tag k="natural" v="cape" />
		<tag k="ssr:stedsnr" v="666859" />
	</node>
	<node lat="59.314022224686994" lon="6.432097220942676" id="-5618">
		<tag k="name" v="Kuneset" />
		<tag k="natural" v="cape" />
		<tag k="ssr:stedsnr" v="667378" />
	</node>
	<node lat="59.16322499698691" lon="6.040430563145529" id="-5626">
		<tag k="alt_name" v="Engjavik" />
		<tag k="name" v="Engjavika" />
		<tag k="natural" v="bay" />
		<tag k="ssr:stedsnr" v="668613" />
	</node>
	<node lat="59.268875000121234" lon="6.249830555367476" id="-5632">
		<tag k="alt_name" v="Hue" />
		<tag k="name" v="Huve" />
		<tag k="natural" v="cape" />
		<tag k="ssr:stedsnr" v="669061" />
	</node>
	<node lat="59.20323055530974" lon="6.068874992657741" id="-5653">
		<tag k="fixme" v="multiple name tags, choose one and add the other to alt_name" />
		<tag k="name" v="Kvaløyna;Kvaløy" />
		<tag k="place" v="islet" />
		<tag k="ssr:stedsnr" v="669938" />
	</node>
	<node lat="59.21030000283808" lon="6.077936108565018" id="-5654">
		<tag k="name" v="Dalevika" />
		<tag k="natural" v="bay" />
		<tag k="ssr:stedsnr" v="669950" />
	</node>
	<node lat="59.288586109997304" lon="6.33041388035356" id="-5656">
		<tag k="name" v="Tåskor" />
		<tag k="natural" v="bay" />
		<tag k="ssr:stedsnr" v="669960" />
	</node>
	<node lat="59.30640000190602" lon="6.173002781984316" id="-5667">
		<tag k="name" v="Ytra Alkrona" />
		<tag k="natural" v="cape" />
		<tag k="ssr:stedsnr" v="722301" />
	</node>
	<node lat="59.31887499697826" lon="6.49263055353757" id="-5749">
		<tag k="name" v="Segadalsneset" />
		<tag k="natural" v="cape" />
		<tag k="ssr:stedsnr" v="730997" />
	</node>
	<node lat="59.31058333574205" lon="6.1990333389081735" id="-5754">
		<tag k="alt_name" v="Foreneset" />
		<tag k="name" v="Fureneset" />
		<tag k="natural" v="cape" />
		<tag k="ssr:stedsnr" v="731601" />
	</node>
	<node lat="59.14289722512043" lon="6.028088886709949" id="-5758">
		<tag k="name" v="Søra Kolhaugviga" />
		<tag k="natural" v="bay" />
		<tag k="ssr:stedsnr" v="754068" />
	</node>
	<node lat="59.28964444456963" lon="6.333583332269324" id="-5760">
		<tag k="alt_name" v="Tåskårneset" />
		<tag k="name" v="Tåskorneset" />
		<tag k="natural" v="cape" />
		<tag k="ssr:stedsnr" v="767069" />
	</node>
	<node lat="59.22490555145116" lon="6.132191674598795" id="-5761">
		<tag k="loc_name" v="Løkholmen" />
		<tag k="name" v="Laukholmen" />
		<tag k="place" v="islet" />
		<tag k="ssr:stedsnr" v="769092" />
	</node>
	<node lat="59.21628888440857" lon="6.109849997545497" id="-5769">
		<tag k="alt_name" v="Essvik" />
		<tag k="name" v="Eidsvig" />
		<tag k="natural" v="bay" />
		<tag k="ssr:stedsnr" v="782686" />
	</node>
	<node lat="59.318283329470546" lon="6.5421000089098404" id="-5781">
		<tag k="bay" v="fjord" />
		<tag k="name" v="Førrefjorden" />
		<tag k="natural" v="bay" />
		<tag k="ssr:stedsnr" v="788492" />
	</node>
	<node lat="59.14349999660718" lon="6.071569446320832" id="-5820">
		<tag k="name" v="Jiljaneset" />
		<tag k="natural" v="cape" />
		<tag k="ssr:stedsnr" v="788694" />
	</node>
	<node lat="59.26089999876676" lon="6.1563750086449325" id="-5870">
		<tag k="alt_name" v="Skodaneset" />
		<tag k="name" v="Skotanes" />
		<tag k="natural" v="cape" />
		<tag k="ssr:stedsnr" v="791671" />
	</node>
	<node lat="59.2617249984655" lon="6.160400004340547" id="-5871">
		<tag k="alt_name" v="Nesvik" />
		<tag k="name" v="Nesvika" />
		<tag k="natural" v="bay" />
		<tag k="ssr:stedsnr" v="791672" />
	</node>
	<node lat="59.145047223070094" lon="6.023513881221442" id="-5876">
		<tag k="name" v="Nordra Kolhaugviga" />
		<tag k="natural" v="bay" />
		<tag k="ssr:stedsnr" v="814058" />
	</node>
	<node lat="59.32081390882245" lon="6.490995922156143" id="-5881">
		<tag k="name" v="Segadalsvågen" />
		<tag k="natural" v="bay" />
		<tag k="ssr:stedsnr" v="830669" />
	</node>
	<node lat="59.316455551436306" lon="6.348619452688688" id="-5886">
		<tag k="name" v="Bergavika" />
		<tag k="natural" v="bay" />
		<tag k="ssr:stedsnr" v="843319" />
	</node>
	<node lat="59.1823749984951" lon="5.991130558527939" id="-5888">
		<tag k="name" v="Korgavågen" />
		<tag k="natural" v="bay" />
		<tag k="ssr:stedsnr" v="843464" />
	</node>
	<node lat="59.30463611289818" lon="6.118288880055734" id="-5892">
		<tag k="name" v="Ørevika" />
		<tag k="natural" v="bay" />
		<tag k="ssr:stedsnr" v="844252" />
	</node>
	<node lat="59.184413889649214" lon="6.041888889487209" id="-5901">
		<tag k="name" v="Ytra Grisevika" />
		<tag k="natural" v="bay" />
		<tag k="ssr:stedsnr" v="849039" />
	</node>
	<node lat="59.184052774341026" lon="6.0018916584895114" id="-5902">
		<tag k="name" v="Naustvika" />
		<tag k="natural" v="bay" />
		<tag k="ssr:stedsnr" v="849044" />
	</node>
	<node lat="59.30330277942746" lon="6.381988883241945" id="-5926">
		<tag k="name" v="Sloen" />
		<tag k="natural" v="bay" />
		<tag k="ssr:stedsnr" v="849453" />
	</node>
	<node lat="59.21814722176839" lon="6.030011104669464" id="-5937">
		<tag k="name" v="Bulegdene" />
		<tag k="natural" v="cape" />
		<tag k="ssr:stedsnr" v="849727" />
	</node>
	<node lat="59.14629722075044" lon="6.078955559076427" id="-5939">
		<tag k="name" v="Tømmervika" />
		<tag k="natural" v="bay" />
		<tag k="ssr:stedsnr" v="849749" />
	</node>
	<node lat="59.134150003420736" lon="6.008286110646848" id="-5943">
		<tag k="name" v="Helgøygrunnen" />
		<tag k="natural" v="shoal" />
		<tag k="place" v="locality" />
		<tag k="ssr:stedsnr" v="851537" />
	</node>
	<node lat="59.1433444446168" lon="6.007255555622423" id="-5944">
		<tag k="name" v="Storholmen" />
		<tag k="place" v="islet" />
		<tag k="ssr:stedsnr" v="851546" />
	</node>
	<node lat="59.151283332426694" lon="6.0996166665967175" id="-5947">
		<tag k="name" v="Nessaviga" />
		<tag k="natural" v="bay" />
		<tag k="ssr:stedsnr" v="851556" />
	</node>
	<node lat="59.145691667583534" lon="6.105547222114646" id="-5948">
		<tag k="name" v="Foreneset" />
		<tag k="natural" v="cape" />
		<tag k="ssr:stedsnr" v="851558" />
	</node>
	<node lat="59.21922673417162" lon="6.041228125266903" id="-5969">
		<tag k="alt_name" v="Breivika" />
		<tag k="fixme" v="multiple name tags, choose one and add the other to alt_name" />
		<tag k="name" v="Breidvik;Breidviga" />
		<tag k="natural" v="bay" />
		<tag k="ssr:stedsnr" v="851951" />
	</node>
	<node lat="59.21235000231904" lon="6.087961115383735" id="-5970">
		<tag k="alt_name" v="Ølesund" />
		<tag k="name" v="Ølesundet" />
		<tag k="natural" v="strait" />
		<tag k="ssr:stedsnr" v="851964" />
	</node>
	<node lat="59.315611113468094" lon="6.534891671503637" id="-5989">
		<tag k="name" v="Slåttebakkvika" />
		<tag k="natural" v="bay" />
		<tag k="ssr:stedsnr" v="852997" />
	</node>
	<node lat="59.17696705456936" lon="6.051308009616891" id="-5991">
		<tag k="name" v="Følsvikneset" />
		<tag k="natural" v="cape" />
		<tag k="ssr:stedsnr" v="889194" />
	</node>
	<node lat="59.322815114943104" lon="6.403630991366272" id="-5994">
		<tag k="name" v="Dalevika" />
		<tag k="natural" v="bay" />
		<tag k="ssr:stedsnr" v="949819" />
	</node>
	<node lat="59.27434721920359" lon="6.21408888281065" id="-6004">
		<tag k="name" v="Dynå" />
		<tag k="natural" v="bay" />
		<tag k="ssr:stedsnr" v="969691" />
	</node>
	<node lat="59.273205552492186" lon="6.144875008514948" id="-6013">
		<tag k="name" v="Kjeringtongjen" />
		<tag k="natural" v="cape" />
		<tag k="ssr:stedsnr" v="969861" />
	</node>
	<node lat="59.321758334345894" lon="6.453152779842355" id="-6043">
		<tag k="name" v="Skrapeliodden" />
		<tag k="natural" v="cape" />
		<tag k="ssr:stedsnr" v="970581" />
	</node>
	<node lat="59.142738725385925" lon="6.136110447248812" id="-6187">
		<tag k="bay" v="fjord" />
		<tag k="name" v="Indre Årdalsfjorden" />
		<tag k="natural" v="bay" />
		<tag k="ssr:stedsnr" v="1082290" />
	</node>
</osm>
