<?xml version="1.0" encoding="UTF-8"?>
<<<<<<< HEAD
<osm version="0.6" generator="osmapis">
	<node lat="59.297891667984416" lon="6.133125006686189" id="-35">
		<tag k="name" v="Longemyra" />
		<tag k="natural" v="wetland" />
		<tag k="ssr:stedsnr" v="237266" />
	</node>
	<node lat="59.25807778230851" lon="6.460100002445775" id="-55">
		<tag k="landuse" v="meadow" />
		<tag k="name" v="Mogaslåtta" />
		<tag k="ssr:stedsnr" v="60408" />
	</node>
	<node lat="59.1460222184288" lon="6.334136110068673" id="-58">
		<tag k="landuse" v="meadow" />
		<tag k="name" v="Folgeteigen" />
		<tag k="ssr:stedsnr" v="60416" />
	</node>
	<node lat="59.326061107797315" lon="6.437094446617851" id="-67">
		<tag k="landuse" v="meadow" />
		<tag k="name" v="Flodene" />
		<tag k="ssr:stedsnr" v="60382" />
	</node>
	<node lat="59.260794442102736" lon="6.404747217910422" id="-71">
		<tag k="name" v="Drabrekkmyrane" />
		<tag k="natural" v="wetland" />
		<tag k="ssr:stedsnr" v="60508" />
	</node>
	<node lat="59.26238333357552" lon="6.266855554855422" id="-73">
		<tag k="name" v="Veratosteinen" />
		<tag k="natural" v="stone" />
		<tag k="ssr:stedsnr" v="60603" />
	</node>
	<node lat="59.09413611044636" lon="6.234313889052335" id="-84">
		<tag k="historic" v="shieling" />
		<tag k="name" v="Austre Målandsstøl" />
		<tag k="place" v="locality" />
		<tag k="ssr:stedsnr" v="60773" />
	</node>
	<node lat="59.12893055283668" lon="6.23021666507301" id="-114">
		<tag k="name" v="Mollveimyrane" />
		<tag k="natural" v="wetland" />
		<tag k="ssr:stedsnr" v="241348" />
	</node>
	<node lat="59.18270000378827" lon="5.9981222284045" id="-120">
		<tag k="name" v="Myrå" />
		<tag k="natural" v="wetland" />
		<tag k="ssr:stedsnr" v="242030" />
	</node>
	<node lat="59.323130555923385" lon="6.5557444388891755" id="-154">
		<tag k="name" v="Svinasteinen" />
		<tag k="natural" v="stone" />
		<tag k="ssr:stedsnr" v="242470" />
	</node>
	<node lat="59.2595361125821" lon="6.236794445666067" id="-159">
		<tag k="historic" v="shieling" />
		<tag k="name" v="Hedlestøl" />
		<tag k="place" v="locality" />
		<tag k="ssr:stedsnr" v="242538" />
	</node>
	<node lat="59.27492221905171" lon="6.33733333582903" id="-164">
		<tag k="name" v="Medhavnen" />
		<tag k="place" v="locality" />
		<tag k="ssr:stedsnr" v="242570" />
	</node>
	<node lat="59.08360555988831" lon="6.183419450241802" id="-168">
		<tag k="historic" v="shieling" />
		<tag k="name" v="Tyssdalsstølen" />
		<tag k="place" v="locality" />
		<tag k="ssr:stedsnr" v="242720" />
	</node>
	<node lat="59.110180559789974" lon="6.266863886722863" id="-169">
		<tag k="name" v="Hyttemarka" />
		<tag k="place" v="locality" />
		<tag k="ssr:stedsnr" v="242721" />
	</node>
	<node lat="59.18186944764226" lon="6.554147222306094" id="-178">
		<tag k="name" v="Stakkasteinen" />
=======
<osm generator="osmapis" version="0.6">
	<node id="-28157" lat="59.2394250018" lon="6.41899999649">
		<tag k="name" v="Moarmyra" />
		<tag k="natural" v="wetland" />
		<tag k="ssr:stedsnr" v="120273" />
	</node>
	<node id="-26620" lat="59.1227750034" lon="6.47096667231">
		<tag k="name" v="Lyngssteinen" />
>>>>>>> e1d4bc35ff8a6074a6f2e91616a996b547c36f15
		<tag k="natural" v="stone" />
		<tag k="ssr:stedsnr" v="242766" />
	</node>
<<<<<<< HEAD
	<node lat="59.182724996082825" lon="6.549919452779252" id="-179">
		<tag k="name" v="Myra" />
=======
	<node id="-27131" lat="59.2981944468" lon="6.13919722607">
		<tag k="name" v="Verhusmyra" />
>>>>>>> e1d4bc35ff8a6074a6f2e91616a996b547c36f15
		<tag k="natural" v="wetland" />
		<tag k="ssr:stedsnr" v="242776" />
	</node>
<<<<<<< HEAD
	<node lat="59.25407499944425" lon="6.234913883899578" id="-216">
		<tag k="historic" v="shieling" />
		<tag k="name" v="Låtveit" />
		<tag k="place" v="locality" />
		<tag k="ssr:stedsnr" v="245099" />
	</node>
	<node lat="59.302302775571164" lon="6.113638880386303" id="-223">
		<tag k="name" v="Hårsteinen" />
		<tag k="natural" v="stone" />
		<tag k="ssr:stedsnr" v="245498" />
	</node>
	<node lat="59.23942500182842" lon="6.418999996493839" id="-243">
		<tag k="name" v="Moarmyra" />
=======
	<node id="-28153" lat="59.2093388928" lon="6.14178610954">
		<tag k="name" v="Eikenov" />
		<tag k="place" v="locality" />
		<tag k="ssr:stedsnr" v="115694" />
	</node>
	<node id="-27653" lat="59.1858277821" lon="6.3668222174">
		<tag k="historic" v="shieling" />
		<tag k="name" v="Eriksstølen" />
		<tag k="place" v="locality" />
		<tag k="ssr:stedsnr" v="909237" />
	</node>
	<node id="-29167" lat="59.2020111098" lon="6.20156944726">
		<tag k="alt_name" v="Longemyr" />
		<tag k="name" v="Langamyra" />
		<tag k="natural" v="wetland" />
		<tag k="ssr:stedsnr" v="608950" />
	</node>
	<node id="-28650" lat="59.1339250042" lon="6.37445000344">
		<tag k="name" v="Myrane" />
		<tag k="natural" v="wetland" />
		<tag k="ssr:stedsnr" v="365434" />
	</node>
	<node id="-26598" lat="59.1827000038" lon="5.9981222284">
		<tag k="name" v="Myrå" />
		<tag k="natural" v="wetland" />
		<tag k="ssr:stedsnr" v="242030" />
	</node>
	<node id="-29148" lat="59.2105499986" lon="6.24988333912">
		<tag k="alt_name" v="Sandarmyra" />
		<tag k="name" v="Sandamyra" />
>>>>>>> e1d4bc35ff8a6074a6f2e91616a996b547c36f15
		<tag k="natural" v="wetland" />
		<tag k="ssr:stedsnr" v="120273" />
	</node>
<<<<<<< HEAD
	<node lat="59.24666666984143" lon="6.313022215252727" id="-341">
		<tag k="alt_name" v="Breidlandsmyrane" />
		<tag k="name" v="Breilandsmyrane" />
		<tag k="natural" v="wetland" />
		<tag k="ssr:stedsnr" v="183249" />
	</node>
	<node lat="59.218066665925285" lon="6.055766662371894" id="-380">
=======
	<node id="-26586" lat="59.1289305528" lon="6.23021666507">
		<tag k="name" v="Mollveimyrane" />
		<tag k="natural" v="wetland" />
		<tag k="ssr:stedsnr" v="241348" />
	</node>
	<node id="-26959" lat="59.234147226" lon="6.27049999435">
		<tag k="name" v="Slåttå" />
		<tag k="natural" v="wetland" />
		<tag k="ssr:stedsnr" v="484362" />
	</node>
	<node id="-27606" lat="59.2741083367" lon="6.33529166991">
		<tag k="name" v="Ytre Havnen" />
		<tag k="place" v="locality" />
		<tag k="ssr:stedsnr" v="727613" />
	</node>
	<node id="-27605" lat="59.2757111068" lon="6.33639444222">
		<tag k="name" v="Øvre Havnen" />
		<tag k="place" v="locality" />
		<tag k="ssr:stedsnr" v="727609" />
	</node>
	<node id="-26579" lat="59.2180666659" lon="6.05576666237">
>>>>>>> e1d4bc35ff8a6074a6f2e91616a996b547c36f15
		<tag k="name" v="Svennateigen" />
		<tag k="place" v="locality" />
		<tag k="ssr:stedsnr" v="237704" />
	</node>
<<<<<<< HEAD
	<node lat="59.191083332844414" lon="6.367713888065466" id="-391">
		<tag k="historic" v="shieling" />
		<tag k="name" v="Nystøl" />
		<tag k="place" v="locality" />
		<tag k="ssr:stedsnr" v="242191" />
	</node>
	<node lat="59.12277500338133" lon="6.47096667230801" id="-401">
		<tag k="name" v="Lyngssteinen" />
		<tag k="natural" v="stone" />
		<tag k="ssr:stedsnr" v="242431" />
	</node>
	<node lat="59.24088611529849" lon="6.4328138925150204" id="-468">
		<tag k="name" v="Nedra Bjørnabumyra" />
		<tag k="natural" v="wetland" />
		<tag k="ssr:stedsnr" v="302309" />
	</node>
	<node lat="59.201886108823416" lon="6.179827782582225" id="-472">
=======
	<node id="-27601" lat="59.1162527802" lon="6.32355556223">
		<tag k="name" v="Hyttesteinen" />
		<tag k="natural" v="stone" />
		<tag k="ssr:stedsnr" v="727569" />
	</node>
	<node id="-26575" lat="59.3034694429" lon="6.11642222531">
		<tag k="name" v="Buhunden" />
		<tag k="natural" v="stone" />
		<tag k="ssr:stedsnr" v="55258" />
	</node>
	<node id="-26957" lat="59.203236115" lon="6.2802916622">
		<tag k="name" v="Halfarsteinen" />
		<tag k="natural" v="stone" />
		<tag k="ssr:stedsnr" v="484243" />
	</node>
	<node id="-27593" lat="59.3137111142" lon="6.42948334133">
		<tag k="name" v="Otersteinen" />
		<tag k="natural" v="stone" />
		<tag k="ssr:stedsnr" v="727405" />
	</node>
	<node id="-26566" lat="59.3162305554" lon="6.48634443719">
		<tag k="name" v="Venesteinen" />
		<tag k="natural" v="stone" />
		<tag k="ssr:stedsnr" v="41660" />
	</node>
	<node id="-27586" lat="59.2013055549" lon="6.03594167471">
		<tag k="name" v="Svartufsmyr" />
		<tag k="natural" v="wetland" />
		<tag k="ssr:stedsnr" v="727024" />
	</node>
	<node id="-26699" lat="59.3023027756" lon="6.11363888039">
		<tag k="name" v="Hårsteinen" />
		<tag k="natural" v="stone" />
		<tag k="ssr:stedsnr" v="245498" />
	</node>
	<node id="-29115" lat="59.2520361069" lon="6.40123888569">
		<tag k="name" v="Storura" />
		<tag k="natural" v="scree" />
		<tag k="ssr:stedsnr" v="606535" />
	</node>
	<node id="-28601" lat="59.2017916674" lon="6.24368888262">
>>>>>>> e1d4bc35ff8a6074a6f2e91616a996b547c36f15
		<tag k="historic" v="shieling" />
		<tag k="name" v="Tuntlandstølen" />
		<tag k="place" v="locality" />
		<tag k="ssr:stedsnr" v="302223" />
	</node>
<<<<<<< HEAD
	<node lat="59.12256389090883" lon="6.3051472176020615" id="-474">
		<tag k="name" v="Hagasteinen" />
		<tag k="natural" v="stone" />
		<tag k="ssr:stedsnr" v="302432" />
	</node>
	<node lat="59.208511108931425" lon="6.325355556040676" id="-492">
		<tag k="name" v="Pøyledn" />
		<tag k="natural" v="wetland" />
		<tag k="ssr:stedsnr" v="303287" />
	</node>
	<node lat="59.08864166593357" lon="6.320430548874822" id="-506">
		<tag k="historic" v="shieling" />
		<tag k="name" v="Krostøl" />
		<tag k="place" v="locality" />
		<tag k="ssr:stedsnr" v="305115" />
	</node>
	<node lat="59.21311944192228" lon="6.113202785750947" id="-535">
=======
	<node id="-29112" lat="59.2155222187" lon="6.19957500842">
		<tag k="name" v="Storemyr" />
		<tag k="natural" v="wetland" />
		<tag k="ssr:stedsnr" v="606343" />
	</node>
	<node id="-28599" lat="59.1443666639" lon="6.33533055449">
		<tag k="landuse" v="meadow" />
		<tag k="name" v="Himleflota" />
		<tag k="ssr:stedsnr" v="363397" />
	</node>
	<node id="-27806" lat="59.196388887" lon="6.39116110328">
		<tag k="historic" v="shieling" />
		<tag k="name" v="Annastølen" />
		<tag k="place" v="locality" />
		<tag k="ssr:stedsnr" v="788216" />
	</node>
	<node id="-27051" lat="59.2131194419" lon="6.11320278575">
>>>>>>> e1d4bc35ff8a6074a6f2e91616a996b547c36f15
		<tag k="landuse" v="meadow" />
		<tag k="name" v="Vågsmoen" />
		<tag k="ssr:stedsnr" v="357710" />
	</node>
<<<<<<< HEAD
	<node lat="59.32669999622668" lon="6.378361107242225" id="-592">
		<tag k="name" v="Legehaugen" />
=======
	<node id="-29096" lat="59.1578138854" lon="6.4792444388">
		<tag k="historic" v="shieling" />
		<tag k="name" v="Fjellstøl" />
>>>>>>> e1d4bc35ff8a6074a6f2e91616a996b547c36f15
		<tag k="place" v="locality" />
		<tag k="ssr:stedsnr" v="479270" />
	</node>
	<node lat="59.32374444305907" lon="6.360252785915127" id="-593">
		<tag k="name" v="Bjønnstørne" />
		<tag k="place" v="locality" />
		<tag k="ssr:stedsnr" v="479274" />
	</node>
<<<<<<< HEAD
	<node lat="59.16168611188068" lon="6.105622226235976" id="-605">
		<tag k="name" v="Kattamyra" />
=======
	<node id="-28895" lat="59.2382083326" lon="6.43190833123">
		<tag k="name" v="Øvra Bjørnabumyrane" />
>>>>>>> e1d4bc35ff8a6074a6f2e91616a996b547c36f15
		<tag k="natural" v="wetland" />
		<tag k="ssr:stedsnr" v="545248" />
	</node>
<<<<<<< HEAD
	<node lat="59.20323611503328" lon="6.280291662195958" id="-613">
		<tag k="name" v="Halfarsteinen" />
=======
	<node id="-28066" lat="59.2623833336" lon="6.26685555486">
		<tag k="name" v="Veratosteinen" />
>>>>>>> e1d4bc35ff8a6074a6f2e91616a996b547c36f15
		<tag k="natural" v="stone" />
		<tag k="ssr:stedsnr" v="484243" />
	</node>
<<<<<<< HEAD
	<node lat="59.193108329116704" lon="6.319099994632876" id="-614">
		<tag k="name" v="Hestleitet" />
		<tag k="place" v="locality" />
		<tag k="ssr:stedsnr" v="484248" />
	</node>
	<node lat="59.146927773640634" lon="6.32016110821341" id="-619">
		<tag k="name" v="Uredn" />
=======
	<node id="-28577" lat="59.3222194481" lon="6.36258610252">
		<tag k="name" v="Gråa Ura" />
>>>>>>> e1d4bc35ff8a6074a6f2e91616a996b547c36f15
		<tag k="natural" v="scree" />
		<tag k="ssr:stedsnr" v="484329" />
	</node>
<<<<<<< HEAD
	<node lat="59.138486111314975" lon="6.237205556985363" id="-621">
		<tag k="name" v="Øyrå" />
		<tag k="place" v="locality" />
		<tag k="ssr:stedsnr" v="484334" />
	</node>
	<node lat="59.23991666222801" lon="6.239927775834576" id="-625">
		<tag k="name" v="Longemyr" />
=======
	<node id="-27546" lat="59.2453499966" lon="6.51282221902">
		<tag k="name" v="Rekkjemyrane" />
>>>>>>> e1d4bc35ff8a6074a6f2e91616a996b547c36f15
		<tag k="natural" v="wetland" />
		<tag k="ssr:stedsnr" v="484344" />
	</node>
<<<<<<< HEAD
	<node lat="59.14687222489306" lon="6.029441659333224" id="-651">
		<tag k="name" v="Myrå" />
=======
	<node id="-28057" lat="59.2607944421" lon="6.40474721791">
		<tag k="name" v="Drabrekkmyrane" />
>>>>>>> e1d4bc35ff8a6074a6f2e91616a996b547c36f15
		<tag k="natural" v="wetland" />
		<tag k="ssr:stedsnr" v="484694" />
	</node>
<<<<<<< HEAD
	<node lat="59.17147499613494" lon="6.2572027842281726" id="-686">
		<tag k="name" v="Røglemyrane" />
		<tag k="natural" v="wetland" />
		<tag k="ssr:stedsnr" v="487522" />
	</node>
	<node lat="59.26328889329047" lon="6.1528305522495055" id="-745">
		<tag k="name" v="Porsmyr" />
		<tag k="natural" v="wetland" />
		<tag k="ssr:stedsnr" v="424758" />
	</node>
	<node lat="59.21673333555553" lon="6.24528888688757" id="-792">
=======
	<node id="-28910" lat="59.3034166649" lon="6.42101944052">
		<tag k="name" v="Durmålssteinen" />
		<tag k="natural" v="stone" />
		<tag k="ssr:stedsnr" v="545375" />
	</node>
	<node id="-28049" lat="59.2965388914" lon="6.44023056336">
		<tag k="name" v="Kalvhagen" />
		<tag k="place" v="locality" />
		<tag k="ssr:stedsnr" v="60460" />
	</node>
	<node id="-28047" lat="59.1584916712" lon="6.46281944732">
		<tag k="name" v="Øyna" />
		<tag k="place" v="locality" />
		<tag k="ssr:stedsnr" v="60455" />
	</node>
	<node id="-28044" lat="59.1460222184" lon="6.33413611007">
>>>>>>> e1d4bc35ff8a6074a6f2e91616a996b547c36f15
		<tag k="landuse" v="meadow" />
		<tag k="name" v="Myrahagen" />
		<tag k="ssr:stedsnr" v="484318" />
	</node>
<<<<<<< HEAD
	<node lat="59.23414722595837" lon="6.270499994352651" id="-794">
		<tag k="name" v="Slåttå" />
		<tag k="natural" v="wetland" />
		<tag k="ssr:stedsnr" v="484362" />
	</node>
	<node lat="59.144724997269535" lon="6.215891668369021" id="-798">
		<tag k="name" v="Øyrå" />
		<tag k="place" v="locality" />
		<tag k="ssr:stedsnr" v="484275" />
	</node>
	<node lat="59.118013886807844" lon="6.237441663303298" id="-810">
		<tag k="name" v="Udmyrane" />
=======
	<node id="-28553" lat="59.3080833304" lon="6.13073888704">
		<tag k="alt_name" v="Gottholura" />
		<tag k="name" v="Godtholurda" />
		<tag k="natural" v="scree" />
		<tag k="ssr:stedsnr" v="306472" />
	</node>
	<node id="-28035" lat="59.3260611078" lon="6.43709444662">
		<tag k="landuse" v="meadow" />
		<tag k="name" v="Flodene" />
		<tag k="ssr:stedsnr" v="60382" />
	</node>
	<node id="-29056" lat="59.3007055584" lon="6.18805833713">
		<tag k="name" v="Huehaugmyra" />
>>>>>>> e1d4bc35ff8a6074a6f2e91616a996b547c36f15
		<tag k="natural" v="wetland" />
		<tag k="ssr:stedsnr" v="484758" />
	</node>
<<<<<<< HEAD
	<node lat="59.19331110901024" lon="6.127238889083615" id="-862">
		<tag k="name" v="Leidesteinen" />
=======
	<node id="-28025" lat="59.2323888873" lon="6.36689722739">
		<tag k="name" v="Målsteinen" />
>>>>>>> e1d4bc35ff8a6074a6f2e91616a996b547c36f15
		<tag k="natural" v="stone" />
		<tag k="ssr:stedsnr" v="545110" />
	</node>
<<<<<<< HEAD
	<node lat="59.13448610716932" lon="6.201897221417929" id="-867">
		<tag k="name" v="Søylemyr" />
=======
	<node id="-29558" lat="59.156058329" lon="6.4629111073">
		<tag k="historic" v="shieling" />
		<tag k="name" v="Krostøl" />
		<tag k="place" v="locality" />
		<tag k="ssr:stedsnr" v="970691" />
	</node>
	<node id="-28041" lat="59.2580777823" lon="6.46010000245">
		<tag k="landuse" v="meadow" />
		<tag k="name" v="Mogaslåtta" />
		<tag k="ssr:stedsnr" v="60408" />
	</node>
	<node id="-29552" lat="59.1403194461" lon="6.37801389393">
		<tag k="name" v="Skoglimyrane" />
>>>>>>> e1d4bc35ff8a6074a6f2e91616a996b547c36f15
		<tag k="natural" v="wetland" />
		<tag k="ssr:stedsnr" v="545320" />
	</node>
<<<<<<< HEAD
	<node lat="59.303416664880466" lon="6.42101944052429" id="-872">
		<tag k="name" v="Durmålssteinen" />
		<tag k="natural" v="stone" />
		<tag k="ssr:stedsnr" v="545375" />
	</node>
	<node lat="59.255747221634124" lon="6.436097217462445" id="-876">
		<tag k="name" v="Urabenken" />
		<tag k="natural" v="scree" />
		<tag k="ssr:stedsnr" v="545504" />
	</node>
	<node lat="59.152091667474906" lon="6.363399994412629" id="-880">
		<tag k="name" v="Rusteinen" />
		<tag k="natural" v="stone" />
		<tag k="ssr:stedsnr" v="545403" />
	</node>
	<node lat="59.252880557017214" lon="6.378861113690574" id="-887">
		<tag k="landuse" v="meadow" />
		<tag k="name" v="Træå" />
		<tag k="ssr:stedsnr" v="545483" />
	</node>
	<node lat="59.3007055584457" lon="6.188058337131248" id="-937">
		<tag k="name" v="Huehaugmyra" />
=======
	<node id="-28013" lat="59.2355194431" lon="6.42099443666">
		<tag k="name" v="Ritlandsmyrane" />
		<tag k="natural" v="wetland" />
		<tag k="ssr:stedsnr" v="60257" />
	</node>
	<node id="-28519" lat="59.0886416659" lon="6.32043054887">
		<tag k="historic" v="shieling" />
		<tag k="name" v="Krostøl" />
		<tag k="place" v="locality" />
		<tag k="ssr:stedsnr" v="305115" />
	</node>
	<node id="-26982" lat="59.1468722249" lon="6.02944165933">
		<tag k="name" v="Myrå" />
>>>>>>> e1d4bc35ff8a6074a6f2e91616a996b547c36f15
		<tag k="natural" v="wetland" />
		<tag k="ssr:stedsnr" v="600265" />
	</node>
<<<<<<< HEAD
	<node lat="59.10266389304558" lon="6.286222224820541" id="-954">
		<tag k="historic" v="shieling" />
		<tag k="name" v="Nystøl" />
		<tag k="place" v="locality" />
		<tag k="ssr:stedsnr" v="605573" />
	</node>
	<node lat="59.20201110980454" lon="6.201569447256199" id="-986">
		<tag k="alt_name" v="Longemyr" />
		<tag k="name" v="Langamyra" />
		<tag k="natural" v="wetland" />
		<tag k="ssr:stedsnr" v="608950" />
	</node>
	<node lat="59.24534999659575" lon="6.5128222190184895" id="-1015">
		<tag k="name" v="Rekkjemyrane" />
=======
	<node id="-26977" lat="59.1180138868" lon="6.2374416633">
		<tag k="name" v="Udmyrane" />
>>>>>>> e1d4bc35ff8a6074a6f2e91616a996b547c36f15
		<tag k="natural" v="wetland" />
		<tag k="ssr:stedsnr" v="666038" />
	</node>
<<<<<<< HEAD
	<node lat="59.22129722484282" lon="6.188302782168447" id="-1081">
		<tag k="landuse" v="meadow" />
		<tag k="name" v="Vigadn" />
		<tag k="ssr:stedsnr" v="727384" />
	</node>
	<node lat="59.31371111415146" lon="6.429483341326474" id="-1082">
		<tag k="name" v="Otersteinen" />
		<tag k="natural" v="stone" />
		<tag k="ssr:stedsnr" v="727405" />
	</node>
	<node lat="59.15829444448588" lon="6.441805561713257" id="-1093">
		<tag k="name" v="Viglesdalsmyra" />
=======
	<node id="-29529" lat="59.2371055587" lon="6.42069999625">
		<tag k="name" v="Øyastølsmyra" />
>>>>>>> e1d4bc35ff8a6074a6f2e91616a996b547c36f15
		<tag k="natural" v="wetland" />
		<tag k="ssr:stedsnr" v="727506" />
	</node>
<<<<<<< HEAD
	<node lat="59.2455972239793" lon="6.417094442328465" id="-1171">
		<tag k="name" v="Langemyr" />
		<tag k="natural" v="wetland" />
		<tag k="ssr:stedsnr" v="909327" />
	</node>
	<node lat="59.24782500240304" lon="6.243391667746048" id="-1176">
		<tag k="name" v="Smiesteinen" />
		<tag k="natural" v="stone" />
		<tag k="ssr:stedsnr" v="909365" />
	</node>
	<node lat="59.23879722490274" lon="6.422605561195475" id="-1179">
=======
	<node id="-27478" lat="59.1596500007" lon="6.39018332786">
>>>>>>> e1d4bc35ff8a6074a6f2e91616a996b547c36f15
		<tag k="historic" v="shieling" />
		<tag k="name" v="Øyastølen" />
		<tag k="place" v="locality" />
<<<<<<< HEAD
		<tag k="ssr:stedsnr" v="909293" />
	</node>
	<node lat="59.251480553350184" lon="6.431122221146514" id="-1196">
		<tag k="name" v="Strandaholene" />
=======
		<tag k="ssr:stedsnr" v="729381" />
	</node>
	<node id="-28495" lat="59.2085111089" lon="6.32535555604">
		<tag k="name" v="Pøyledn" />
		<tag k="natural" v="wetland" />
		<tag k="ssr:stedsnr" v="303287" />
	</node>
	<node id="-26958" lat="59.1931083291" lon="6.31909999463">
		<tag k="name" v="Hestleitet" />
>>>>>>> e1d4bc35ff8a6074a6f2e91616a996b547c36f15
		<tag k="place" v="locality" />
		<tag k="ssr:stedsnr" v="909441" />
	</node>
<<<<<<< HEAD
	<node lat="59.22565555853984" lon="6.302277770295809" id="-1208">
		<tag k="historic" v="shieling" />
		<tag k="name" v="Breilandsstøl" />
=======
	<node id="-27981" lat="59.3109603685" lon="6.21719072609">
		<tag k="name" v="Langviklandet" />
>>>>>>> e1d4bc35ff8a6074a6f2e91616a996b547c36f15
		<tag k="place" v="locality" />
		<tag k="ssr:stedsnr" v="910290" />
	</node>
<<<<<<< HEAD
	<node lat="59.22700277435146" lon="6.256730549286591" id="-1225">
		<tag k="landuse" v="meadow" />
		<tag k="name" v="Ortastykkjet" />
		<tag k="ssr:stedsnr" v="788318" />
	</node>
	<node lat="59.19638888703614" lon="6.391161103283723" id="-1231">
		<tag k="historic" v="shieling" />
		<tag k="name" v="Annastølen" />
		<tag k="place" v="locality" />
		<tag k="ssr:stedsnr" v="788216" />
	</node>
	<node lat="59.21278610854735" lon="6.377086115162293" id="-1300">
		<tag k="historic" v="shieling" />
		<tag k="name" v="Brunstøl" />
=======
	<node id="-27467" lat="59.2807944466" lon="6.14306389615">
		<tag k="landuse" v="meadow" />
		<tag k="name" v="Gjerdedn" />
		<tag k="ssr:stedsnr" v="727864" />
	</node>
	<node id="-26950" lat="59.2399166622" lon="6.23992777583">
		<tag k="name" v="Longemyr" />
		<tag k="natural" v="wetland" />
		<tag k="ssr:stedsnr" v="484344" />
	</node>
	<node id="-28484" lat="59.1103916631" lon="6.30530000264">
		<tag k="name" v="Folahyttsteinen" />
		<tag k="natural" v="stone" />
		<tag k="ssr:stedsnr" v="302585" />
	</node>
	<node id="-26946" lat="59.1384861113" lon="6.23720555699">
		<tag k="name" v="Øyrå" />
>>>>>>> e1d4bc35ff8a6074a6f2e91616a996b547c36f15
		<tag k="place" v="locality" />
		<tag k="ssr:stedsnr" v="912463" />
	</node>
<<<<<<< HEAD
	<node lat="59.322091666320325" lon="6.388297226108936" id="-1328">
		<tag k="name" v="Dalsenden" />
=======
	<node id="-26944" lat="59.1469277736" lon="6.32016110821">
		<tag k="name" v="Uredn" />
>>>>>>> e1d4bc35ff8a6074a6f2e91616a996b547c36f15
		<tag k="natural" v="scree" />
		<tag k="ssr:stedsnr" v="843277" />
	</node>
<<<<<<< HEAD
	<node lat="59.12315833655521" lon="6.5229638805539745" id="-1333">
		<tag k="name" v="Arvura" />
		<tag k="natural" v="scree" />
		<tag k="ssr:stedsnr" v="848493" />
	</node>
	<node lat="59.199458331929456" lon="6.04395000127976" id="-1334">
		<tag k="name" v="Kringlemyr" />
=======
	<node id="-26943" lat="59.1616861119" lon="6.10562222624">
		<tag k="name" v="Kattamyra" />
		<tag k="natural" v="wetland" />
		<tag k="ssr:stedsnr" v="484298" />
	</node>
	<node id="-29502" lat="59.2178527774" lon="6.0697555539">
		<tag k="name" v="Hestamyra" />
>>>>>>> e1d4bc35ff8a6074a6f2e91616a996b547c36f15
		<tag k="natural" v="wetland" />
		<tag k="ssr:stedsnr" v="849006" />
	</node>
<<<<<<< HEAD
	<node lat="59.19831111154372" lon="6.027494445678014" id="-1335">
		<tag k="name" v="Skitnamyr" />
		<tag k="natural" v="wetland" />
		<tag k="ssr:stedsnr" v="849007" />
	</node>
	<node lat="59.19341388587724" lon="6.025961119388629" id="-1337">
		<tag k="landuse" v="meadow" />
		<tag k="name" v="Støladn" />
		<tag k="ssr:stedsnr" v="849013" />
	</node>
	<node lat="59.31260833364888" lon="6.425122228878489" id="-1347">
		<tag k="name" v="Gråa Ura" />
		<tag k="natural" v="scree" />
		<tag k="ssr:stedsnr" v="849407" />
	</node>
	<node lat="59.0935555513345" lon="6.350661120027428" id="-1357">
		<tag k="name" v="Sandvassmyrane" />
		<tag k="natural" v="wetland" />
		<tag k="ssr:stedsnr" v="849525" />
	</node>
	<node lat="59.27216666400063" lon="6.172261104466761" id="-1361">
		<tag k="name" v="Longemyr" />
		<tag k="natural" v="wetland" />
		<tag k="ssr:stedsnr" v="849709" />
	</node>
	<node lat="59.284608336810095" lon="6.204452774736222" id="-1362">
		<tag k="name" v="Valurane" />
		<tag k="natural" v="scree" />
		<tag k="ssr:stedsnr" v="849715" />
	</node>
	<node lat="59.17272222551136" lon="6.423522216188854" id="-1371">
		<tag k="historic" v="shieling" />
		<tag k="name" v="Austre Hiastølen" />
=======
	<node id="-27453" lat="59.1533361067" lon="6.40372777562">
		<tag k="historic" v="shieling" />
		<tag k="name" v="Myrstøl" />
		<tag k="place" v="locality" />
		<tag k="ssr:stedsnr" v="727500" />
	</node>
	<node id="-29500" lat="59.142622218" lon="6.03530277718">
		<tag k="landuse" v="meadow" />
		<tag k="name" v="Hestvika" />
		<tag k="ssr:stedsnr" v="964537" />
	</node>
	<node id="-29498" lat="59.3183972235" lon="6.34421666091">
		<tag k="name" v="Idasteinen" />
		<tag k="natural" v="stone" />
		<tag k="ssr:stedsnr" v="964342" />
	</node>
	<node id="-29407" lat="59.0935555513" lon="6.35066112003">
		<tag k="name" v="Sandvassmyrane" />
		<tag k="natural" v="wetland" />
		<tag k="ssr:stedsnr" v="849525" />
	</node>
	<node id="-27700" lat="59.2256555585" lon="6.3022777703">
		<tag k="historic" v="shieling" />
		<tag k="name" v="Breilandsstøl" />
		<tag k="place" v="locality" />
		<tag k="ssr:stedsnr" v="910290" />
	</node>
	<node id="-27445" lat="59.1375333353" lon="6.291783332">
		<tag k="name" v="Øynå" />
		<tag k="place" v="locality" />
		<tag k="ssr:stedsnr" v="727433" />
	</node>
	<node id="-27951" lat="59.1088055573" lon="6.34722499144">
		<tag k="alt_name" v="Bjørkajuvskogen" />
		<tag k="name" v="Bjørkegjuvskogen" />
		<tag k="place" v="locality" />
		<tag k="ssr:stedsnr" v="2070" />
	</node>
	<node id="-26926" lat="59.3266999962" lon="6.37836110724">
		<tag k="name" v="Legehaugen" />
>>>>>>> e1d4bc35ff8a6074a6f2e91616a996b547c36f15
		<tag k="place" v="locality" />
		<tag k="ssr:stedsnr" v="849828" />
	</node>
<<<<<<< HEAD
	<node lat="59.21006110724792" lon="6.354850008395296" id="-1379">
		<tag k="name" v="Storsteinen" />
		<tag k="natural" v="stone" />
		<tag k="ssr:stedsnr" v="851412" />
	</node>
	<node lat="59.17720000240541" lon="6.215608328346111" id="-1386">
		<tag k="name" v="Måmyrane" />
		<tag k="natural" v="wetland" />
		<tag k="ssr:stedsnr" v="851618" />
	</node>
	<node lat="59.25814999855276" lon="6.226111119318095" id="-1398">
		<tag k="name" v="Hagalimyrane" />
		<tag k="natural" v="wetland" />
		<tag k="ssr:stedsnr" v="852120" />
	</node>
	<node lat="59.27016111280665" lon="6.427286112283832" id="-1399">
		<tag k="alt_name" v="Øvre Saupstølmyra;Nedre Saupstølmyra" />
		<tag k="name" v="Saupstølmyrane" />
		<tag k="natural" v="wetland" />
		<tag k="ssr:stedsnr" v="852076" />
	</node>
	<node lat="59.27841944555511" lon="6.327541663025766" id="-1400">
=======
	<node id="-27429" lat="59.2212972248" lon="6.18830278217">
		<tag k="landuse" v="meadow" />
		<tag k="name" v="Vigadn" />
		<tag k="ssr:stedsnr" v="727384" />
	</node>
	<node id="-27421" lat="59.1977666688" lon="6.41142499997">
		<tag k="name" v="Dommedagsteinen" />
		<tag k="natural" v="stone" />
		<tag k="ssr:stedsnr" v="727235" />
	</node>
	<node id="-29468" lat="59.2784194456" lon="6.32754166303">
>>>>>>> e1d4bc35ff8a6074a6f2e91616a996b547c36f15
		<tag k="alt_name" v="Kjeura" />
		<tag k="name" v="Kjeurda" />
		<tag k="natural" v="scree" />
		<tag k="ssr:stedsnr" v="852085" />
	</node>
<<<<<<< HEAD
	<node lat="59.17531666977253" lon="6.329911109131049" id="-1418">
=======
	<node id="-28463" lat="59.1907444454" lon="6.34052777286">
		<tag k="name" v="Breie Myrane" />
		<tag k="natural" v="wetland" />
		<tag k="ssr:stedsnr" v="302238" />
	</node>
	<node id="-26904" lat="59.293347224" lon="6.16242222788">
>>>>>>> e1d4bc35ff8a6074a6f2e91616a996b547c36f15
		<tag k="historic" v="shieling" />
		<tag k="name" v="Ragstøl" />
		<tag k="place" v="locality" />
		<tag k="ssr:stedsnr" v="909223" />
	</node>
<<<<<<< HEAD
	<node lat="59.18582778214937" lon="6.3668222174029445" id="-1421">
		<tag k="historic" v="shieling" />
		<tag k="name" v="Eriksstølen" />
		<tag k="place" v="locality" />
		<tag k="ssr:stedsnr" v="909237" />
	</node>
	<node lat="59.16063055796451" lon="6.052308339621877" id="-1431">
		<tag k="name" v="Trettemyrane" />
		<tag k="place" v="locality" />
		<tag k="ssr:stedsnr" v="909705" />
	</node>
	<node lat="59.29863611322153" lon="6.254002785972474" id="-1482">
		<tag k="historic" v="shieling" />
		<tag k="name" v="Longstøl" />
		<tag k="place" v="locality" />
		<tag k="ssr:stedsnr" v="964310" />
	</node>
	<node lat="59.3183972235335" lon="6.344216660911867" id="-1485">
		<tag k="name" v="Idasteinen" />
=======
	<node id="-28433" lat="59.176808332" lon="6.22449999954">
		<tag k="name" v="Måmyra" />
		<tag k="natural" v="wetland" />
		<tag k="ssr:stedsnr" v="184490" />
	</node>
	<node id="-26896" lat="59.1594222203" lon="6.31424999192">
		<tag k="name" v="Jektå" />
>>>>>>> e1d4bc35ff8a6074a6f2e91616a996b547c36f15
		<tag k="natural" v="stone" />
		<tag k="ssr:stedsnr" v="964342" />
	</node>
<<<<<<< HEAD
	<node lat="59.14262221802876" lon="6.035302777177611" id="-1488">
		<tag k="landuse" v="meadow" />
		<tag k="name" v="Hestvika" />
		<tag k="ssr:stedsnr" v="964537" />
	</node>
	<node lat="59.2178527773627" lon="6.069755553904586" id="-1490">
		<tag k="name" v="Hestamyra" />
		<tag k="natural" v="wetland" />
		<tag k="ssr:stedsnr" v="965686" />
	</node>
	<node lat="59.237105558664375" lon="6.420699996253891" id="-1514">
		<tag k="name" v="Øyastølsmyra" />
=======
	<node id="-28943" lat="59.1598027734" lon="6.08688610615">
		<tag k="name" v="Trodlamyra" />
		<tag k="natural" v="wetland" />
		<tag k="ssr:stedsnr" v="545661" />
	</node>
	<node id="-27406" lat="59.3079277784" lon="6.24037222513">
		<tag k="landuse" v="meadow" />
		<tag k="name" v="Slåttødne" />
		<tag k="ssr:stedsnr" v="722292" />
	</node>
	<node id="-26893" lat="59.2661916639" lon="6.16603333144">
		<tag k="name" v="Kringlemyr" />
>>>>>>> e1d4bc35ff8a6074a6f2e91616a996b547c36f15
		<tag k="natural" v="wetland" />
		<tag k="ssr:stedsnr" v="970389" />
	</node>
<<<<<<< HEAD
	<node lat="59.108805557319826" lon="6.347224991435003" id="-1548">
		<tag k="alt_name" v="Bjørkajuvskogen" />
		<tag k="name" v="Bjørkegjuvskogen" />
		<tag k="place" v="locality" />
		<tag k="ssr:stedsnr" v="2070" />
	</node>
	<node lat="59.310960368481794" lon="6.2171907260915384" id="-1571">
		<tag k="name" v="Langviklandet" />
=======
	<node id="-29452" lat="59.2100611072" lon="6.3548500084">
		<tag k="name" v="Storsteinen" />
		<tag k="natural" v="stone" />
		<tag k="ssr:stedsnr" v="851412" />
	</node>
	<node id="-28938" lat="59.2747777795" lon="6.33383334029">
		<tag k="name" v="Nedre Havnen" />
>>>>>>> e1d4bc35ff8a6074a6f2e91616a996b547c36f15
		<tag k="place" v="locality" />
		<tag k="ssr:stedsnr" v="39887" />
	</node>
<<<<<<< HEAD
	<node lat="59.31623055535387" lon="6.486344437193905" id="-1572">
		<tag k="name" v="Venesteinen" />
		<tag k="natural" v="stone" />
		<tag k="ssr:stedsnr" v="41660" />
	</node>
	<node lat="59.30346944292208" lon="6.116422225306991" id="-1584">
		<tag k="name" v="Buhunden" />
		<tag k="natural" v="stone" />
		<tag k="ssr:stedsnr" v="55258" />
	</node>
	<node lat="59.23551944314598" lon="6.420994436661702" id="-1597">
		<tag k="name" v="Ritlandsmyrane" />
=======
	<node id="-27350" lat="59.1513500026" lon="6.33804166851">
		<tag k="name" v="Midtliura" />
		<tag k="natural" v="scree" />
		<tag k="ssr:stedsnr" v="605352" />
	</node>
	<node id="-28930" lat="59.252880557" lon="6.37886111369">
		<tag k="landuse" v="meadow" />
		<tag k="name" v="Træå" />
		<tag k="ssr:stedsnr" v="545483" />
	</node>
	<node id="-26879" lat="59.2408861153" lon="6.43281389252">
		<tag k="name" v="Nedra Bjørnabumyra" />
>>>>>>> e1d4bc35ff8a6074a6f2e91616a996b547c36f15
		<tag k="natural" v="wetland" />
		<tag k="ssr:stedsnr" v="60257" />
	</node>
<<<<<<< HEAD
	<node lat="59.23238888733031" lon="6.366897227391228" id="-1601">
		<tag k="name" v="Målsteinen" />
		<tag k="natural" v="stone" />
		<tag k="ssr:stedsnr" v="60330" />
	</node>
	<node lat="59.15849167120996" lon="6.462819447324519" id="-1610">
		<tag k="name" v="Øyna" />
=======
	<node id="-26875" lat="59.2018861088" lon="6.17982778258">
		<tag k="historic" v="shieling" />
		<tag k="name" v="Tuntlandstølen" />
>>>>>>> e1d4bc35ff8a6074a6f2e91616a996b547c36f15
		<tag k="place" v="locality" />
		<tag k="ssr:stedsnr" v="60455" />
	</node>
	<node lat="59.296538891397525" lon="6.440230563355121" id="-1612">
		<tag k="name" v="Kalvhagen" />
		<tag k="place" v="locality" />
		<tag k="ssr:stedsnr" v="60460" />
	</node>
<<<<<<< HEAD
	<node lat="59.20933889276167" lon="6.141786109542415" id="-1678">
		<tag k="name" v="Eikenov" />
		<tag k="place" v="locality" />
		<tag k="ssr:stedsnr" v="115694" />
	</node>
	<node lat="59.195186107118225" lon="6.223397226390459" id="-1706">
		<tag k="historic" v="shieling" />
		<tag k="name" v="Løgjestøl" />
		<tag k="place" v="locality" />
		<tag k="ssr:stedsnr" v="120232" />
	</node>
	<node lat="59.13299999949761" lon="6.197911110269867" id="-1722">
		<tag k="name" v="Longamyr" />
		<tag k="natural" v="wetland" />
		<tag k="ssr:stedsnr" v="120362" />
	</node>
	<node lat="59.109052780431114" lon="6.376263894640887" id="-1726">
=======
	<node id="-29433" lat="59.1727222255" lon="6.42352221619">
>>>>>>> e1d4bc35ff8a6074a6f2e91616a996b547c36f15
		<tag k="historic" v="shieling" />
		<tag k="name" v="Gamlestølen" />
		<tag k="place" v="locality" />
		<tag k="ssr:stedsnr" v="120577" />
	</node>
<<<<<<< HEAD
	<node lat="59.2175583329723" lon="6.080175008307134" id="-1793">
		<tag k="name" v="Søkkjemyr" />
		<tag k="natural" v="wetland" />
		<tag k="ssr:stedsnr" v="176664" />
	</node>
	<node lat="59.212622222542514" lon="6.055816658106495" id="-1796">
		<tag k="name" v="Kodlamyra" />
		<tag k="natural" v="wetland" />
		<tag k="ssr:stedsnr" v="176682" />
	</node>
	<node lat="59.20002777938612" lon="6.1786861161819555" id="-1817">
=======
	<node id="-28919" lat="59.1520916675" lon="6.36339999441">
		<tag k="name" v="Rusteinen" />
		<tag k="natural" v="stone" />
		<tag k="ssr:stedsnr" v="545403" />
	</node>
	<node id="-29503" lat="59.221791666" lon="6.05831943705">
		<tag k="landuse" v="meadow" />
		<tag k="name" v="Svinhagen" />
		<tag k="ssr:stedsnr" v="965646" />
	</node>
	<node id="-28914" lat="59.2521611075" lon="6.44741944796">
		<tag k="name" v="Kjeringura" />
		<tag k="natural" v="scree" />
		<tag k="ssr:stedsnr" v="545393" />
	</node>
	<node id="-27889" lat="59.2986361132" lon="6.25400278597">
>>>>>>> e1d4bc35ff8a6074a6f2e91616a996b547c36f15
		<tag k="historic" v="shieling" />
		<tag k="name" v="Raunstøl" />
		<tag k="place" v="locality" />
<<<<<<< HEAD
		<tag k="ssr:stedsnr" v="181203" />
	</node>
	<node lat="59.21823888629254" lon="6.322125007833821" id="-1853">
		<tag k="name" v="Holane" />
=======
		<tag k="ssr:stedsnr" v="964310" />
	</node>
	<node id="-29424" lat="59.2846083368" lon="6.20445277474">
		<tag k="name" v="Valurane" />
		<tag k="natural" v="scree" />
		<tag k="ssr:stedsnr" v="849715" />
	</node>
	<node id="-29423" lat="59.272166664" lon="6.17226110447">
		<tag k="name" v="Longemyr" />
>>>>>>> e1d4bc35ff8a6074a6f2e91616a996b547c36f15
		<tag k="natural" v="wetland" />
		<tag k="ssr:stedsnr" v="181303" />
	</node>
<<<<<<< HEAD
	<node lat="59.25043332969646" lon="6.257936105768175" id="-1870">
		<tag k="historic" v="shieling" />
		<tag k="name" v="Hegglandsstølen" />
		<tag k="place" v="locality" />
		<tag k="ssr:stedsnr" v="181629" />
	</node>
	<node lat="59.21406667043824" lon="6.282933340292381" id="-1879">
		<tag k="name" v="Kromyrane" />
=======
	<node id="-29422" lat="59.2771611107" lon="6.32906666623">
		<tag k="name" v="Litle Kjeura" />
		<tag k="natural" v="scree" />
		<tag k="ssr:stedsnr" v="849664" />
	</node>
	<node id="-28397" lat="59.2466666698" lon="6.31302221525">
		<tag k="alt_name" v="Breidlandsmyrane" />
		<tag k="name" v="Breilandsmyrane" />
>>>>>>> e1d4bc35ff8a6074a6f2e91616a996b547c36f15
		<tag k="natural" v="wetland" />
		<tag k="ssr:stedsnr" v="183401" />
	</node>
	<node lat="59.17680833195908" lon="6.2244999995356265" id="-1904">
		<tag k="name" v="Måmyra" />
		<tag k="natural" v="wetland" />
		<tag k="ssr:stedsnr" v="184490" />
	</node>
<<<<<<< HEAD
	<node lat="59.30538055999563" lon="6.240577782295364" id="-1929">
		<tag k="historic" v="shieling" />
		<tag k="name" v="Gunlastølen" />
		<tag k="place" v="locality" />
		<tag k="ssr:stedsnr" v="297294" />
	</node>
	<node lat="59.19074444535548" lon="6.340527772863116" id="-1935">
		<tag k="name" v="Breie Myrane" />
=======
	<node id="-26834" lat="59.1818694476" lon="6.55414722231">
		<tag k="name" v="Stakkasteinen" />
		<tag k="natural" v="stone" />
		<tag k="ssr:stedsnr" v="242766" />
	</node>
	<node id="-28902" lat="59.1344861072" lon="6.20189722142">
		<tag k="name" v="Søylemyr" />
>>>>>>> e1d4bc35ff8a6074a6f2e91616a996b547c36f15
		<tag k="natural" v="wetland" />
		<tag k="ssr:stedsnr" v="302238" />
	</node>
	<node lat="59.159422220252914" lon="6.31424999191735" id="-1942">
		<tag k="name" v="Jektå" />
		<tag k="natural" v="stone" />
		<tag k="ssr:stedsnr" v="302356" />
	</node>
<<<<<<< HEAD
	<node lat="59.1103916630965" lon="6.305300002642779" id="-1962">
		<tag k="name" v="Folahyttsteinen" />
		<tag k="natural" v="stone" />
		<tag k="ssr:stedsnr" v="302585" />
	</node>
	<node lat="59.2661916639439" lon="6.166033331438209" id="-1964">
		<tag k="name" v="Kringlemyr" />
		<tag k="natural" v="wetland" />
		<tag k="ssr:stedsnr" v="302619" />
	</node>
	<node lat="59.29334722402267" lon="6.162422227881466" id="-1967">
=======
	<node id="-27364" lat="59.102663893" lon="6.28622222482">
>>>>>>> e1d4bc35ff8a6074a6f2e91616a996b547c36f15
		<tag k="historic" v="shieling" />
		<tag k="name" v="Hedlestøl" />
		<tag k="place" v="locality" />
		<tag k="ssr:stedsnr" v="302857" />
	</node>
<<<<<<< HEAD
	<node lat="59.308083330395505" lon="6.130738887044175" id="-2015">
		<tag k="alt_name" v="Gottholura" />
		<tag k="name" v="Godtholurda" />
		<tag k="natural" v="scree" />
		<tag k="ssr:stedsnr" v="306472" />
	</node>
	<node lat="59.322219448145916" lon="6.362586102518692" id="-2033">
		<tag k="name" v="Gråa Ura" />
		<tag k="natural" v="scree" />
		<tag k="ssr:stedsnr" v="357276" />
	</node>
	<node lat="59.2017916674474" lon="6.243688882615003" id="-2048">
=======
	<node id="-27286" lat="59.2167333356" lon="6.24528888689">
		<tag k="landuse" v="meadow" />
		<tag k="name" v="Myrahagen" />
		<tag k="ssr:stedsnr" v="484318" />
	</node>
	<node id="-29410" lat="59.2646222239" lon="6.32232500345">
>>>>>>> e1d4bc35ff8a6074a6f2e91616a996b547c36f15
		<tag k="historic" v="shieling" />
		<tag k="name" v="Skitlistølen" />
		<tag k="place" v="locality" />
		<tag k="ssr:stedsnr" v="363140" />
	</node>
<<<<<<< HEAD
	<node lat="59.14436666394146" lon="6.335330554491777" id="-2072">
		<tag k="landuse" v="meadow" />
		<tag k="name" v="Himleflota" />
		<tag k="ssr:stedsnr" v="363397" />
	</node>
	<node lat="59.13392500415898" lon="6.374450003436022" id="-2111">
		<tag k="name" v="Myrane" />
=======
	<node id="-28385" lat="59.2140666704" lon="6.28293334029">
		<tag k="name" v="Kromyrane" />
>>>>>>> e1d4bc35ff8a6074a6f2e91616a996b547c36f15
		<tag k="natural" v="wetland" />
		<tag k="ssr:stedsnr" v="365434" />
	</node>
<<<<<<< HEAD
	<node lat="59.275719447611515" lon="6.367375000608125" id="-2124">
		<tag k="alt_name" v="Stordalspøylene" />
		<tag k="name" v="Stordalspøylane" />
=======
	<node id="-29408" lat="59.2569222267" lon="6.38628611081">
		<tag k="name" v="Geidamyra" />
>>>>>>> e1d4bc35ff8a6074a6f2e91616a996b547c36f15
		<tag k="natural" v="wetland" />
		<tag k="ssr:stedsnr" v="366061" />
	</node>
<<<<<<< HEAD
	<node lat="59.325325004455955" lon="6.386483331005333" id="-2159">
		<tag k="name" v="Sauatona" />
		<tag k="place" v="locality" />
		<tag k="ssr:stedsnr" v="418263" />
	</node>
	<node lat="59.32329999723693" lon="6.34896666881252" id="-2160">
		<tag k="landuse" v="meadow" />
		<tag k="name" v="Sjoaråkeren" />
		<tag k="ssr:stedsnr" v="418314" />
	</node>
	<node lat="59.301966662991205" lon="6.130955556766968" id="-2164">
		<tag k="name" v="Krossmyra" />
		<tag k="natural" v="wetland" />
		<tag k="ssr:stedsnr" v="419269" />
	</node>
	<node lat="59.1792194487275" lon="6.092863886170357" id="-2169">
		<tag k="landuse" v="meadow" />
		<tag k="name" v="Fladamark" />
		<tag k="ssr:stedsnr" v="424066" />
	</node>
	<node lat="59.06433332969509" lon="6.279861107885579" id="-2173">
		<tag k="historic" v="shieling" />
		<tag k="name" v="Krøysastølen" />
		<tag k="place" v="locality" />
		<tag k="ssr:stedsnr" v="424188" />
	</node>
	<node lat="59.32951944077186" lon="6.443444437067211" id="-2196">
		<tag k="landuse" v="meadow" />
		<tag k="name" v="Melandsflotene" />
		<tag k="ssr:stedsnr" v="424376" />
	</node>
	<node lat="59.28628333128964" lon="6.157022221249702" id="-2216">
		<tag k="landuse" v="meadow" />
		<tag k="name" v="Tveidå" />
		<tag k="ssr:stedsnr" v="424860" />
	</node>
	<node lat="59.278719447317386" lon="6.133702776253021" id="-2217">
		<tag k="name" v="Kalhagen" />
		<tag k="place" v="locality" />
		<tag k="ssr:stedsnr" v="424863" />
	</node>
	<node lat="59.298547223983014" lon="6.2016583385049895" id="-2279">
		<tag k="historic" v="shieling" />
		<tag k="name" v="Skiftustøl" />
		<tag k="place" v="locality" />
		<tag k="ssr:stedsnr" v="540251" />
	</node>
	<node lat="59.056761110999645" lon="6.235349994792001" id="-2288">
=======
	<node id="-27359" lat="59.2648944477" lon="6.2893805546">
		<tag k="name" v="Nordstølmyra" />
		<tag k="natural" v="wetland" />
		<tag k="ssr:stedsnr" v="605610" />
	</node>
	<node id="-28888" lat="59.056761111" lon="6.23534999479">
>>>>>>> e1d4bc35ff8a6074a6f2e91616a996b547c36f15
		<tag k="historic" v="shieling" />
		<tag k="name" v="Skitlistølen" />
		<tag k="place" v="locality" />
		<tag k="ssr:stedsnr" v="545151" />
	</node>
<<<<<<< HEAD
	<node lat="59.23820833260436" lon="6.431908331226383" id="-2292">
		<tag k="name" v="Øvra Bjørnabumyrane" />
=======
	<node id="-28886" lat="59.193311109" lon="6.12723888908">
		<tag k="name" v="Leidesteinen" />
		<tag k="natural" v="stone" />
		<tag k="ssr:stedsnr" v="545110" />
	</node>
	<node id="-26835" lat="59.1827249961" lon="6.54991945278">
		<tag k="name" v="Myra" />
>>>>>>> e1d4bc35ff8a6074a6f2e91616a996b547c36f15
		<tag k="natural" v="wetland" />
		<tag k="ssr:stedsnr" v="545248" />
	</node>
<<<<<<< HEAD
	<node lat="59.252161107497585" lon="6.447419447955838" id="-2299">
		<tag k="name" v="Kjeringura" />
		<tag k="natural" v="scree" />
		<tag k="ssr:stedsnr" v="545393" />
	</node>
	<node lat="59.27477777950394" lon="6.333833340290802" id="-2304">
		<tag k="name" v="Nedre Havnen" />
=======
	<node id="-28370" lat="59.2504333297" lon="6.25793610577">
		<tag k="historic" v="shieling" />
		<tag k="name" v="Hegglandsstølen" />
>>>>>>> e1d4bc35ff8a6074a6f2e91616a996b547c36f15
		<tag k="place" v="locality" />
		<tag k="ssr:stedsnr" v="545588" />
	</node>
<<<<<<< HEAD
	<node lat="59.15980277336957" lon="6.086886106148052" id="-2318">
		<tag k="name" v="Trodlamyra" />
=======
	<node id="-27857" lat="59.2581499986" lon="6.22611111932">
		<tag k="name" v="Hagalimyrane" />
>>>>>>> e1d4bc35ff8a6074a6f2e91616a996b547c36f15
		<tag k="natural" v="wetland" />
		<tag k="ssr:stedsnr" v="545661" />
	</node>
<<<<<<< HEAD
	<node lat="59.11757500369306" lon="6.425377768951171" id="-2335">
=======
	<node id="-27344" lat="59.1175750037" lon="6.42537776895">
>>>>>>> e1d4bc35ff8a6074a6f2e91616a996b547c36f15
		<tag k="alt_name" v="Båtura" />
		<tag k="name" v="Båturda" />
		<tag k="natural" v="scree" />
		<tag k="ssr:stedsnr" v="547108" />
	</node>
<<<<<<< HEAD
	<node lat="59.264894447729155" lon="6.289380554601976" id="-2395">
		<tag k="name" v="Nordstølmyra" />
=======
	<node id="-27342" lat="59.2557472216" lon="6.43609721746">
		<tag k="name" v="Urabenken" />
		<tag k="natural" v="scree" />
		<tag k="ssr:stedsnr" v="545504" />
	</node>
	<node id="-26573" lat="59.297891668" lon="6.13312500669">
		<tag k="name" v="Longemyra" />
		<tag k="natural" v="wetland" />
		<tag k="ssr:stedsnr" v="237266" />
	</node>
	<node id="-27852" lat="59.2701611128" lon="6.42728611228">
		<tag k="alt_name" v="Øvre Saupstølmyra;Nedre Saupstølmyra" />
		<tag k="name" v="Saupstølmyrane" />
>>>>>>> e1d4bc35ff8a6074a6f2e91616a996b547c36f15
		<tag k="natural" v="wetland" />
		<tag k="ssr:stedsnr" v="605610" />
	</node>
<<<<<<< HEAD
	<node lat="59.151350002641045" lon="6.3380416685104155" id="-2410">
		<tag k="name" v="Midtliura" />
		<tag k="natural" v="scree" />
		<tag k="ssr:stedsnr" v="605352" />
	</node>
	<node lat="59.15781388543126" lon="6.479244438799117" id="-2423">
=======
	<node id="-28874" lat="59.298547224" lon="6.2016583385">
>>>>>>> e1d4bc35ff8a6074a6f2e91616a996b547c36f15
		<tag k="historic" v="shieling" />
		<tag k="name" v="Fjellstøl" />
		<tag k="place" v="locality" />
<<<<<<< HEAD
		<tag k="ssr:stedsnr" v="605478" />
	</node>
	<node lat="59.21552221869856" lon="6.1995750084227925" id="-2436">
		<tag k="name" v="Storemyr" />
		<tag k="natural" v="wetland" />
		<tag k="ssr:stedsnr" v="606343" />
	</node>
	<node lat="59.25203610692777" lon="6.401238885685692" id="-2439">
		<tag k="name" v="Storura" />
		<tag k="natural" v="scree" />
		<tag k="ssr:stedsnr" v="606535" />
	</node>
	<node lat="59.21054999860884" lon="6.249883339122847" id="-2475">
		<tag k="alt_name" v="Sandarmyra" />
		<tag k="name" v="Sandamyra" />
=======
		<tag k="ssr:stedsnr" v="540251" />
	</node>
	<node id="-26823" lat="59.3231305559" lon="6.55574443889">
		<tag k="name" v="Svinasteinen" />
		<tag k="natural" v="stone" />
		<tag k="ssr:stedsnr" v="242470" />
	</node>
	<node id="-26927" lat="59.3237444431" lon="6.36025278592">
		<tag k="name" v="Bjønnstørne" />
		<tag k="place" v="locality" />
		<tag k="ssr:stedsnr" v="479274" />
	</node>
	<node id="-27330" lat="59.1714749961" lon="6.25720278423">
		<tag k="name" v="Røglemyrane" />
		<tag k="natural" v="wetland" />
		<tag k="ssr:stedsnr" v="487522" />
	</node>
	<node id="-29386" lat="59.3126083336" lon="6.42512222888">
		<tag k="name" v="Gråa Ura" />
		<tag k="natural" v="scree" />
		<tag k="ssr:stedsnr" v="849407" />
	</node>
	<node id="-29370" lat="59.213697021" lon="6.28765517233">
		<tag k="name" v="Grovmarka" />
		<tag k="place" v="locality" />
		<tag k="ssr:stedsnr" v="849320" />
	</node>
	<node id="-27455" lat="59.1582944445" lon="6.44180556171">
		<tag k="name" v="Viglesdalsmyra" />
		<tag k="natural" v="wetland" />
		<tag k="ssr:stedsnr" v="727506" />
	</node>
	<node id="-29357" lat="59.1934138859" lon="6.02596111939">
		<tag k="landuse" v="meadow" />
		<tag k="name" v="Støladn" />
		<tag k="ssr:stedsnr" v="849013" />
	</node>
	<node id="-29355" lat="59.1983111115" lon="6.02749444568">
		<tag k="name" v="Skitnamyr" />
>>>>>>> e1d4bc35ff8a6074a6f2e91616a996b547c36f15
		<tag k="natural" v="wetland" />
		<tag k="ssr:stedsnr" v="608316" />
	</node>
<<<<<<< HEAD
	<node lat="59.29819444682633" lon="6.139197226072888" id="-2516">
		<tag k="name" v="Verhusmyra" />
		<tag k="natural" v="wetland" />
		<tag k="ssr:stedsnr" v="661247" />
	</node>
	<node lat="59.21203611135414" lon="6.109349993573557" id="-2527">
		<tag k="name" v="Vigamyra" />
=======
	<node id="-29354" lat="59.1994583319" lon="6.04395000128">
		<tag k="name" v="Kringlemyr" />
		<tag k="natural" v="wetland" />
		<tag k="ssr:stedsnr" v="849006" />
	</node>
	<node id="-29351" lat="59.1231583366" lon="6.52296388055">
		<tag k="name" v="Arvura" />
		<tag k="natural" v="scree" />
		<tag k="ssr:stedsnr" v="848493" />
	</node>
	<node id="-26790" lat="59.30538056" lon="6.2405777823">
		<tag k="historic" v="shieling" />
		<tag k="name" v="Gunlastølen" />
		<tag k="place" v="locality" />
		<tag k="ssr:stedsnr" v="297294" />
	</node>
	<node id="-27298" lat="59.1447249973" lon="6.21589166837">
		<tag k="name" v="Øyrå" />
		<tag k="place" v="locality" />
		<tag k="ssr:stedsnr" v="484275" />
	</node>
	<node id="-29345" lat="59.1772000024" lon="6.21560832835">
		<tag k="name" v="Måmyrane" />
>>>>>>> e1d4bc35ff8a6074a6f2e91616a996b547c36f15
		<tag k="natural" v="wetland" />
		<tag k="ssr:stedsnr" v="661701" />
	</node>
<<<<<<< HEAD
	<node lat="59.248444441955726" lon="6.431208337684226" id="-2530">
		<tag k="name" v="Ottestølsmyrane" />
=======
	<node id="-28318" lat="59.2126222225" lon="6.05581665811">
		<tag k="name" v="Kodlamyra" />
>>>>>>> e1d4bc35ff8a6074a6f2e91616a996b547c36f15
		<tag k="natural" v="wetland" />
		<tag k="ssr:stedsnr" v="666294" />
	</node>
<<<<<<< HEAD
	<node lat="59.241044442216726" lon="6.417227770903156" id="-2541">
		<tag k="name" v="Lølimyra" />
=======
	<node id="-28315" lat="59.217558333" lon="6.08017500831">
		<tag k="name" v="Søkkjemyr" />
>>>>>>> e1d4bc35ff8a6074a6f2e91616a996b547c36f15
		<tag k="natural" v="wetland" />
		<tag k="ssr:stedsnr" v="666278" />
	</node>
<<<<<<< HEAD
	<node lat="59.147874998821116" lon="6.537633327944387" id="-2551">
		<tag k="name" v="Stora Ura" />
=======
	<node id="-29335" lat="59.3220916663" lon="6.38829722611">
		<tag k="name" v="Dalsenden" />
>>>>>>> e1d4bc35ff8a6074a6f2e91616a996b547c36f15
		<tag k="natural" v="scree" />
		<tag k="ssr:stedsnr" v="666471" />
	</node>
<<<<<<< HEAD
	<node lat="59.26783611414403" lon="6.352049992485081" id="-2566">
		<tag k="name" v="Hedleura" />
		<tag k="natural" v="scree" />
		<tag k="ssr:stedsnr" v="666523" />
	</node>
	<node lat="59.27204166741566" lon="6.3343999989787925" id="-2569">
		<tag k="name" v="Oppstig" />
		<tag k="place" v="locality" />
		<tag k="ssr:stedsnr" v="666596" />
	</node>
	<node lat="59.147002775630284" lon="6.335055551599505" id="-2592">
		<tag k="name" v="Fureskogen" />
=======
	<node id="-29334" lat="59.3103000565" lon="6.20730118561">
		<tag k="name" v="Smalhusura" />
		<tag k="natural" v="scree" />
		<tag k="ssr:stedsnr" v="843259" />
	</node>
	<node id="-28476" lat="59.1225638909" lon="6.3051472176">
		<tag k="name" v="Hagasteinen" />
		<tag k="natural" v="stone" />
		<tag k="ssr:stedsnr" v="302432" />
	</node>
	<node id="-26758" lat="59.2182388863" lon="6.32212500783">
		<tag k="name" v="Holane" />
		<tag k="natural" v="wetland" />
		<tag k="ssr:stedsnr" v="181303" />
	</node>
	<node id="-28803" lat="59.2787194473" lon="6.13370277625">
		<tag k="name" v="Kalhagen" />
		<tag k="place" v="locality" />
		<tag k="ssr:stedsnr" v="424863" />
	</node>
	<node id="-28802" lat="59.2862833313" lon="6.15702222125">
		<tag k="landuse" v="meadow" />
		<tag k="name" v="Tveidå" />
		<tag k="ssr:stedsnr" v="424860" />
	</node>
	<node id="-28796" lat="59.2632888933" lon="6.15283055225">
		<tag k="name" v="Porsmyr" />
		<tag k="natural" v="wetland" />
		<tag k="ssr:stedsnr" v="424758" />
	</node>
	<node id="-26744" lat="59.2000277794" lon="6.17868611618">
		<tag k="historic" v="shieling" />
		<tag k="name" v="Raunstøl" />
>>>>>>> e1d4bc35ff8a6074a6f2e91616a996b547c36f15
		<tag k="place" v="locality" />
		<tag k="ssr:stedsnr" v="668436" />
	</node>
<<<<<<< HEAD
	<node lat="59.113851229297396" lon="6.17433560120561" id="-2601">
=======
	<node id="-27250" lat="59.1138512293" lon="6.17433560121">
>>>>>>> e1d4bc35ff8a6074a6f2e91616a996b547c36f15
		<tag k="historic" v="shieling" />
		<tag k="name" v="Bjørkestølen" />
		<tag k="place" v="locality" />
		<tag k="ssr:stedsnr" v="669736" />
	</node>
<<<<<<< HEAD
	<node lat="59.30792777838985" lon="6.240372225125355" id="-2634">
		<tag k="landuse" v="meadow" />
		<tag k="name" v="Slåttødne" />
		<tag k="ssr:stedsnr" v="722292" />
	</node>
	<node lat="59.13753333527685" lon="6.291783331999987" id="-2645">
		<tag k="name" v="Øynå" />
		<tag k="place" v="locality" />
		<tag k="ssr:stedsnr" v="727433" />
	</node>
	<node lat="59.20130555488888" lon="6.035941674705959" id="-2650">
		<tag k="name" v="Svartufsmyr" />
=======
	<node id="-27755" lat="59.2127861085" lon="6.37708611516">
		<tag k="historic" v="shieling" />
		<tag k="name" v="Brunstøl" />
		<tag k="place" v="locality" />
		<tag k="ssr:stedsnr" v="912463" />
	</node>
	<node id="-28775" lat="59.3295194408" lon="6.44344443707">
		<tag k="landuse" v="meadow" />
		<tag k="name" v="Melandsflotene" />
		<tag k="ssr:stedsnr" v="424376" />
	</node>
	<node id="-26641" lat="59.0836055599" lon="6.18341945024">
		<tag k="historic" v="shieling" />
		<tag k="name" v="Tyssdalsstølen" />
		<tag k="place" v="locality" />
		<tag k="ssr:stedsnr" v="242720" />
	</node>
	<node id="-26723" lat="59.1329999995" lon="6.19791111027">
		<tag k="name" v="Longamyr" />
		<tag k="natural" v="wetland" />
		<tag k="ssr:stedsnr" v="120362" />
	</node>
	<node id="-27094" lat="59.3232999972" lon="6.34896666881">
		<tag k="landuse" v="meadow" />
		<tag k="name" v="Sjoaråkeren" />
		<tag k="ssr:stedsnr" v="418314" />
	</node>
	<node id="-29267" lat="59.1212888891" lon="6.31541388227">
		<tag k="name" v="Livastølmyrane" />
>>>>>>> e1d4bc35ff8a6074a6f2e91616a996b547c36f15
		<tag k="natural" v="wetland" />
		<tag k="ssr:stedsnr" v="727024" />
	</node>
	<node lat="59.19776666882473" lon="6.4114249999686646" id="-2661">
		<tag k="name" v="Dommedagsteinen" />
		<tag k="natural" v="stone" />
		<tag k="ssr:stedsnr" v="727235" />
	</node>
<<<<<<< HEAD
	<node lat="59.15333610668557" lon="6.40372777562409" id="-2672">
=======
	<node id="-28749" lat="59.0643333297" lon="6.27986110789">
>>>>>>> e1d4bc35ff8a6074a6f2e91616a996b547c36f15
		<tag k="historic" v="shieling" />
		<tag k="name" v="Myrstøl" />
		<tag k="place" v="locality" />
		<tag k="ssr:stedsnr" v="727500" />
	</node>
<<<<<<< HEAD
	<node lat="59.27571110677785" lon="6.336394442220794" id="-2680">
		<tag k="name" v="Øvre Havnen" />
		<tag k="place" v="locality" />
		<tag k="ssr:stedsnr" v="727609" />
	</node>
	<node lat="59.274108336734436" lon="6.335291669905239" id="-2681">
		<tag k="name" v="Ytre Havnen" />
=======
	<node id="-27211" lat="59.1470027756" lon="6.3350555516">
		<tag k="name" v="Fureskogen" />
		<tag k="place" v="locality" />
		<tag k="ssr:stedsnr" v="668436" />
	</node>
	<node id="-28746" lat="59.1792194487" lon="6.09286388617">
		<tag k="landuse" v="meadow" />
		<tag k="name" v="Fladamark" />
		<tag k="ssr:stedsnr" v="424066" />
	</node>
	<node id="-26695" lat="59.2540749994" lon="6.2349138839">
		<tag k="historic" v="shieling" />
		<tag k="name" v="Låtveit" />
>>>>>>> e1d4bc35ff8a6074a6f2e91616a996b547c36f15
		<tag k="place" v="locality" />
		<tag k="ssr:stedsnr" v="727613" />
	</node>
<<<<<<< HEAD
	<node lat="59.116252780186564" lon="6.323555562231407" id="-2688">
		<tag k="name" v="Hyttesteinen" />
		<tag k="natural" v="stone" />
		<tag k="ssr:stedsnr" v="727569" />
	</node>
	<node lat="59.280794446606144" lon="6.143063896149624" id="-2690">
		<tag k="landuse" v="meadow" />
		<tag k="name" v="Gjerdedn" />
		<tag k="ssr:stedsnr" v="727864" />
	</node>
	<node lat="59.30069248544848" lon="6.485681243727298" id="-2691">
		<tag k="name" v="Abrahamsstølen" />
		<tag k="natural" v="wetland" />
		<tag k="ssr:stedsnr" v="728450" />
	</node>
	<node lat="59.1596500007451" lon="6.390183327863898" id="-2698">
=======
	<node id="-26607" lat="59.1910833328" lon="6.36771388807">
>>>>>>> e1d4bc35ff8a6074a6f2e91616a996b547c36f15
		<tag k="historic" v="shieling" />
		<tag k="name" v="Hiastøl" />
		<tag k="place" v="locality" />
		<tag k="ssr:stedsnr" v="729381" />
	</node>
<<<<<<< HEAD
	<node lat="59.30287222475653" lon="6.198913896517088" id="-2731">
		<tag k="name" v="Longemyr" />
=======
	<node id="-28729" lat="59.301966663" lon="6.13095555677">
		<tag k="name" v="Krossmyra" />
>>>>>>> e1d4bc35ff8a6074a6f2e91616a996b547c36f15
		<tag k="natural" v="wetland" />
		<tag k="ssr:stedsnr" v="782238" />
	</node>
<<<<<<< HEAD
	<node lat="59.22647222226924" lon="6.093838889112242" id="-2738">
		<tag k="name" v="Stemmemyra" />
		<tag k="natural" v="wetland" />
		<tag k="ssr:stedsnr" v="783669" />
	</node>
	<node lat="59.16358333672427" lon="6.0525277687646595" id="-2752">
=======
	<node id="-28724" lat="59.3253250045" lon="6.38648333101">
		<tag k="name" v="Sauatona" />
		<tag k="place" v="locality" />
		<tag k="ssr:stedsnr" v="418263" />
	</node>
	<node id="-29235" lat="59.1635833367" lon="6.05252776876">
>>>>>>> e1d4bc35ff8a6074a6f2e91616a996b547c36f15
		<tag k="historic" v="shieling" />
		<tag k="name" v="Tønnevikstølen" />
		<tag k="place" v="locality" />
		<tag k="ssr:stedsnr" v="788672" />
	</node>
<<<<<<< HEAD
	<node lat="59.12128888909951" lon="6.315413882268892" id="-2792">
		<tag k="name" v="Livastølmyrane" />
		<tag k="natural" v="wetland" />
		<tag k="ssr:stedsnr" v="790074" />
	</node>
	<node lat="59.31030005649286" lon="6.207301185608577" id="-2853">
		<tag k="name" v="Smalhusura" />
		<tag k="natural" v="scree" />
		<tag k="ssr:stedsnr" v="843259" />
	</node>
	<node lat="59.213697021032814" lon="6.287655172327355" id="-2872">
		<tag k="name" v="Grovmarka" />
=======
	<node id="-27184" lat="59.2720416674" lon="6.33439999898">
		<tag k="name" v="Oppstig" />
>>>>>>> e1d4bc35ff8a6074a6f2e91616a996b547c36f15
		<tag k="place" v="locality" />
		<tag k="ssr:stedsnr" v="849320" />
	</node>
<<<<<<< HEAD
	<node lat="59.25692222670287" lon="6.386286110808502" id="-2895">
		<tag k="name" v="Geidamyra" />
		<tag k="natural" v="wetland" />
		<tag k="ssr:stedsnr" v="849535" />
	</node>
	<node lat="59.26462222392648" lon="6.322325003451416" id="-2897">
=======
	<node id="-27693" lat="59.160630558" lon="6.05230833962">
		<tag k="name" v="Trettemyrane" />
		<tag k="place" v="locality" />
		<tag k="ssr:stedsnr" v="909705" />
	</node>
	<node id="-28204" lat="59.1090527804" lon="6.37626389464">
>>>>>>> e1d4bc35ff8a6074a6f2e91616a996b547c36f15
		<tag k="historic" v="shieling" />
		<tag k="name" v="Vigestøl" />
		<tag k="place" v="locality" />
		<tag k="ssr:stedsnr" v="849549" />
	</node>
	<node lat="59.27716111073023" lon="6.329066666229889" id="-2902">
		<tag k="name" v="Litle Kjeura" />
		<tag k="natural" v="scree" />
		<tag k="ssr:stedsnr" v="849664" />
	</node>
<<<<<<< HEAD
	<node lat="59.22179166600778" lon="6.058319437046951" id="-2967">
=======
	<node id="-29226" lat="59.2270027744" lon="6.25673054929">
>>>>>>> e1d4bc35ff8a6074a6f2e91616a996b547c36f15
		<tag k="landuse" v="meadow" />
		<tag k="name" v="Svinhagen" />
		<tag k="ssr:stedsnr" v="965646" />
	</node>
<<<<<<< HEAD
	<node lat="59.14031944605095" lon="6.378013893930207" id="-3007">
		<tag k="name" v="Skoglimyrane" />
		<tag k="natural" v="wetland" />
		<tag k="ssr:stedsnr" v="970576" />
	</node>
	<node lat="59.15605832897843" lon="6.462911107299115" id="-3010">
		<tag k="historic" v="shieling" />
		<tag k="name" v="Krostøl" />
		<tag k="place" v="locality" />
		<tag k="ssr:stedsnr" v="970691" />
=======
	<node id="-27176" lat="59.2678361141" lon="6.35204999249">
		<tag k="name" v="Hedleura" />
		<tag k="natural" v="scree" />
		<tag k="ssr:stedsnr" v="666523" />
>>>>>>> e1d4bc35ff8a6074a6f2e91616a996b547c36f15
	</node>
	<node id="-27167" lat="59.1478749988" lon="6.53763332794">
		<tag k="name" v="Stora Ura" />
		<tag k="natural" v="scree" />
		<tag k="ssr:stedsnr" v="666471" />
	</node>
	<node id="-29189" lat="59.3028722248" lon="6.19891389652">
		<tag k="name" v="Longemyr" />
		<tag k="natural" v="wetland" />
		<tag k="ssr:stedsnr" v="782238" />
	</node>
	<node id="-27672" lat="59.2514805534" lon="6.43112222115">
		<tag k="name" v="Strandaholene" />
		<tag k="place" v="locality" />
		<tag k="ssr:stedsnr" v="909441" />
	</node>
	<node id="-28180" lat="59.1951861071" lon="6.22339722639">
		<tag k="historic" v="shieling" />
		<tag k="name" v="Løgjestøl" />
		<tag k="place" v="locality" />
		<tag k="ssr:stedsnr" v="120232" />
	</node>
	<node id="-26642" lat="59.1101805598" lon="6.26686388672">
		<tag k="name" v="Hyttemarka" />
		<tag k="place" v="locality" />
		<tag k="ssr:stedsnr" v="242721" />
	</node>
	<node id="-27153" lat="59.248444442" lon="6.43120833768">
		<tag k="name" v="Ottestølsmyrane" />
		<tag k="natural" v="wetland" />
		<tag k="ssr:stedsnr" v="666294" />
	</node>
	<node id="-27151" lat="59.2410444422" lon="6.4172277709">
		<tag k="name" v="Lølimyra" />
		<tag k="natural" v="wetland" />
		<tag k="ssr:stedsnr" v="666278" />
	</node>
	<node id="-27662" lat="59.2478250024" lon="6.24339166775">
		<tag k="name" v="Smiesteinen" />
		<tag k="natural" v="stone" />
		<tag k="ssr:stedsnr" v="909365" />
	</node>
	<node id="-29197" lat="59.2264722223" lon="6.09383888911">
		<tag k="name" v="Stemmemyra" />
		<tag k="natural" v="wetland" />
		<tag k="ssr:stedsnr" v="783669" />
	</node>
	<node id="-26636" lat="59.2595361126" lon="6.23679444567">
		<tag k="historic" v="shieling" />
		<tag k="name" v="Hedlestøl" />
		<tag k="place" v="locality" />
		<tag k="ssr:stedsnr" v="242538" />
	</node>
	<node id="-26582" lat="59.0941361104" lon="6.23431388905">
		<tag k="historic" v="shieling" />
		<tag k="name" v="Austre Målandsstøl" />
		<tag k="place" v="locality" />
		<tag k="ssr:stedsnr" v="60773" />
	</node>
	<node id="-27657" lat="59.245597224" lon="6.41709444233">
		<tag k="name" v="Langemyr" />
		<tag k="natural" v="wetland" />
		<tag k="ssr:stedsnr" v="909327" />
	</node>
	<node id="-26632" lat="59.2749222191" lon="6.33733333583">
		<tag k="name" v="Medhavnen" />
		<tag k="place" v="locality" />
		<tag k="ssr:stedsnr" v="242570" />
	</node>
	<node id="-27654" lat="59.2387972249" lon="6.4226055612">
		<tag k="historic" v="shieling" />
		<tag k="name" v="Øyastølen" />
		<tag k="place" v="locality" />
		<tag k="ssr:stedsnr" v="909293" />
	</node>
	<node id="-28677" lat="59.2757194476" lon="6.36737500061">
		<tag k="alt_name" v="Stordalspøylene" />
		<tag k="name" v="Stordalspøylane" />
		<tag k="natural" v="wetland" />
		<tag k="ssr:stedsnr" v="366061" />
	</node>
	<node id="-27139" lat="59.2120361114" lon="6.10934999357">
		<tag k="name" v="Vigamyra" />
		<tag k="natural" v="wetland" />
		<tag k="ssr:stedsnr" v="661701" />
	</node>
	<node id="-27650" lat="59.1753166698" lon="6.32991110913">
		<tag k="historic" v="shieling" />
		<tag k="name" v="Ragstøl" />
		<tag k="place" v="locality" />
		<tag k="ssr:stedsnr" v="909223" />
	</node>
</osm>
