<?xml version="1.0" encoding="UTF-8"?>
<<<<<<< HEAD
<osm version="0.6" generator="osmapis">
	<node lat="59.20366944122254" lon="6.048566668831723" id="-10">
		<tag k="alt_name" v="Sandanger" />
		<tag k="name" v="Sandang" />
		<tag k="place" v="farm" />
		<tag k="ssr:stedsnr" v="1939" />
	</node>
	<node lat="59.202606301758316" lon="6.0233324529323315" id="-14">
		<tag k="alt_name" v="Kåda" />
		<tag k="fixme" v="consider place=hamlet" />
		<tag k="name" v="Kota" />
		<tag k="place" v="farm" />
		<tag k="ssr:stedsnr" v="1900" />
	</node>
	<node lat="59.302047218744114" lon="6.742988886621138" id="-21">
		<tag k="name" v="Blåfjellhytta" />
		<tag k="ssr:stedsnr" v="2236" />
		<tag k="tourism" v="hotel" />
	</node>
	<node lat="59.30510000004214" lon="6.144200002158634" id="-22">
		<tag k="alt_name" v="Morkjå" />
		<tag k="name" v="Morka" />
		<tag k="place" v="farm" />
		<tag k="ssr:stedsnr" v="2539" />
	</node>
	<node lat="59.327609917317666" lon="6.58316006822064" id="-27">
		<tag k="fixme" v="consider place=hamlet" />
		<tag k="name" v="Førre" />
		<tag k="place" v="farm" />
		<tag k="ssr:stedsnr" v="2976" />
	</node>
	<node lat="59.326474966821664" lon="6.453078492334933" id="-28">
		<tag k="name" v="Hauga" />
		<tag k="place" v="hamlet" />
		<tag k="ssr:stedsnr" v="2982" />
	</node>
	<node lat="59.32558766880586" lon="6.434107801651294" id="-31">
		<tag k="fixme" v="consider place=hamlet" />
		<tag k="name" v="Vadla" />
		<tag k="place" v="farm" />
		<tag k="ssr:stedsnr" v="233824" />
	</node>
	<node lat="59.22385277580791" lon="6.072850002674985" id="-39">
		<tag k="name" v="Breiabø" />
		<tag k="place" v="farm" />
		<tag k="ssr:stedsnr" v="55601" />
	</node>
	<node lat="59.18155278135945" lon="6.29740556090037" id="-47">
		<tag k="name" v="Vassbu" />
		<tag k="place" v="locality" />
		<tag k="ssr:stedsnr" v="60201" />
	</node>
	<node lat="59.16265000332058" lon="6.1538111036731" id="-99">
		<tag k="name" v="Åsen" />
		<tag k="place" v="farm" />
		<tag k="ssr:stedsnr" v="62588" />
	</node>
	<node lat="59.134929953517926" lon="6.294725518936705" id="-100">
		<tag k="alt_name" v="Kaltveid" />
		<tag k="name" v="Kalltveit" />
		<tag k="place" v="farm" />
		<tag k="ssr:stedsnr" v="62419" />
	</node>
	<node lat="59.16814999654588" lon="6.049527773459043" id="-101">
		<tag k="alt_name" v="Tønnevik" />
		<tag k="name" v="Tønnevika" />
		<tag k="place" v="farm" />
		<tag k="ssr:stedsnr" v="62603" />
	</node>
	<node lat="59.18196857573636" lon="6.104441271272023" id="-104">
		<tag k="alt_name" v="Solbjør" />
		<tag k="fixme" v="consider place=hamlet" />
		<tag k="name" v="Solbjørg" />
		<tag k="place" v="farm" />
		<tag k="ssr:stedsnr" v="62902" />
	</node>
	<node lat="59.177248272971646" lon="6.072614609448898" id="-121">
		<tag k="fixme" v="consider place=hamlet" />
		<tag k="name" v="Midtre Fister" />
		<tag k="place" v="farm" />
		<tag k="ssr:stedsnr" v="242061" />
	</node>
	<node lat="59.29976666557849" lon="6.4331722259457464" id="-146">
		<tag k="name" v="Skorane" />
		<tag k="place" v="farm" />
		<tag k="ssr:stedsnr" v="242375" />
	</node>
	<node lat="59.21709367198566" lon="6.03043217921313" id="-167">
		<tag k="fixme" v="consider place=hamlet" />
		<tag k="name" v="Breivik" />
		<tag k="place" v="farm" />
		<tag k="ssr:stedsnr" v="242665" />
	</node>
	<node lat="59.12562777965028" lon="6.315913896517338" id="-183">
		<tag k="historic" v="shieling" />
		<tag k="name" v="Livastøl" />
		<tag k="place" v="isolated_dwelling" />
		<tag k="ssr:stedsnr" v="244094" />
	</node>
	<node lat="59.23968611374727" lon="6.273950002612422" id="-189">
		<tag k="name" v="Stykket" />
		<tag k="place" v="farm" />
		<tag k="ssr:stedsnr" v="244267" />
	</node>
	<node lat="59.148313195652136" lon="6.348524840014777" id="-191">
		<tag k="fixme" v="consider place=hamlet" />
		<tag k="name" v="Nes" />
		<tag k="place" v="farm" />
		<tag k="ssr:stedsnr" v="244425" />
	</node>
	<node lat="59.19266944438945" lon="6.265433331727817" id="-198">
		<tag k="alt_name" v="Bjødnabu" />
		<tag k="historic" v="shieling" />
		<tag k="name" v="Bjørnabu" />
		<tag k="place" v="isolated_dwelling" />
		<tag k="ssr:stedsnr" v="244475" />
	</node>
	<node lat="59.16706796649388" lon="6.168878353713532" id="-206">
		<tag k="fixme" v="consider place=hamlet" />
		<tag k="name" v="Riskadal" />
		<tag k="place" v="farm" />
		<tag k="ssr:stedsnr" v="244645" />
	</node>
	<node lat="59.17809617580203" lon="6.121081073589505" id="-207">
		<tag k="alt_name" v="Bjelland" />
		<tag k="fixme" v="consider place=hamlet" />
		<tag k="name" v="Bjølland" />
		<tag k="place" v="farm" />
		<tag k="ssr:stedsnr" v="244653" />
	</node>
	<node lat="59.25157500080061" lon="6.302750006239976" id="-209">
		<tag k="alt_name" v="Vigane" />
		<tag k="name" v="Vikane" />
		<tag k="place" v="farm" />
		<tag k="ssr:stedsnr" v="245097" />
	</node>
	<node lat="59.22409444491069" lon="6.099750006798615" id="-213">
		<tag k="alt_name" v="Ølesund" />
		<tag k="name" v="Ølesundet" />
		<tag k="place" v="hamlet" />
		<tag k="ssr:stedsnr" v="244964" />
	</node>
	<node lat="59.23891389296432" lon="6.257333332310894" id="-220">
		<tag k="name" v="Nesland" />
=======
<osm generator="osmapis" version="0.6">
	<node id="-28160" lat="59.1596777744" lon="6.21009166224">
		<tag k="name" v="Ristingsvoll" />
		<tag k="place" v="farm" />
		<tag k="ssr:stedsnr" v="120287" />
	</node>
	<node id="-29182" lat="59.2055138906" lon="6.05578055472">
		<tag k="name" v="Kro" />
>>>>>>> e1d4bc35ff8a6074a6f2e91616a996b547c36f15
		<tag k="place" v="farm" />
		<tag k="ssr:stedsnr" v="245251" />
	</node>
<<<<<<< HEAD
	<node lat="59.28974999891726" lon="6.12090000417407" id="-224">
		<tag k="alt_name" v="Knutsvika, nordra;Nora Knutsvika" />
		<tag k="name" v="Nordra Knutsvika" />
		<tag k="place" v="farm" />
		<tag k="ssr:stedsnr" v="245586" />
	</node>
	<node lat="59.36141389239457" lon="6.427613881419711" id="-225">
		<tag k="historic" v="shieling" />
		<tag k="name" v="Leitet" />
		<tag k="place" v="isolated_dwelling" />
		<tag k="ssr:stedsnr" v="245825" />
	</node>
	<node lat="59.35079166315608" lon="6.577077776125054" id="-226">
		<tag k="historic" v="shieling" />
		<tag k="name" v="Fagerdal" />
		<tag k="place" v="isolated_dwelling" />
		<tag k="ssr:stedsnr" v="245870" />
	</node>
	<node lat="59.31120000342331" lon="6.34113888472646" id="-233">
=======
	<node id="-29177" lat="59.319175002" lon="6.53296389338">
		<tag k="name" v="Skog" />
		<tag k="place" v="locality" />
		<tag k="ssr:stedsnr" v="609998" />
	</node>
	<node id="-28151" lat="59.3112000034" lon="6.34113888473">
>>>>>>> e1d4bc35ff8a6074a6f2e91616a996b547c36f15
		<tag k="name" v="Kårdalstræet" />
		<tag k="place" v="farm" />
		<tag k="ssr:stedsnr" v="115321" />
	</node>
<<<<<<< HEAD
	<node lat="59.20310837320268" lon="6.048705221178925" id="-235">
		<tag k="fixme" v="consider place=hamlet" />
		<tag k="name" v="Ytre Sandanger" />
		<tag k="place" v="farm" />
		<tag k="ssr:stedsnr" v="120025" />
	</node>
	<node lat="59.204247666624624" lon="6.053145837012396" id="-236">
=======
	<node id="-27125" lat="59.2867415539" lon="6.14076360798">
		<tag k="alt_name" v="Asseim;Asheim" />
>>>>>>> e1d4bc35ff8a6074a6f2e91616a996b547c36f15
		<tag k="fixme" v="consider place=hamlet" />
		<tag k="name" v="Indre Sandanger" />
		<tag k="place" v="farm" />
		<tag k="ssr:stedsnr" v="120028" />
	</node>
<<<<<<< HEAD
	<node lat="59.159677774375915" lon="6.210091662237703" id="-246">
		<tag k="name" v="Ristingsvoll" />
		<tag k="place" v="farm" />
		<tag k="ssr:stedsnr" v="120287" />
	</node>
	<node lat="59.15644722200383" lon="6.193980549692057" id="-247">
		<tag k="amenity" v="nursing_home" />
		<tag k="name" v="Årdal" />
		<tag k="ssr:stedsnr" v="120290" />
	</node>
	<node lat="59.23992980407311" lon="6.380903607747523" id="-268">
=======
	<node id="-29171" lat="59.261825003" lon="6.35175833301">
		<tag k="alt_name" v="Liå" />
		<tag k="historic" v="shieling" />
		<tag k="name" v="Lia" />
		<tag k="place" v="locality" />
		<tag k="ssr:stedsnr" v="609115" />
	</node>
	<node id="-28146" lat="59.3257843334" lon="6.42762364767">
>>>>>>> e1d4bc35ff8a6074a6f2e91616a996b547c36f15
		<tag k="fixme" v="consider place=hamlet" />
		<tag k="name" v="Kleivaland" />
		<tag k="place" v="farm" />
<<<<<<< HEAD
		<tag k="ssr:stedsnr" v="122308" />
	</node>
	<node lat="59.15809999686209" lon="6.21973055326617" id="-272">
		<tag k="name" v="Brekka" />
=======
		<tag k="ssr:stedsnr" v="102699" />
	</node>
	<node id="-29169" lat="59.2554861143" lon="6.3729500053">
		<tag k="alt_name" v="Flåtå" />
		<tag k="historic" v="shieling" />
		<tag k="name" v="Flota" />
		<tag k="place" v="locality" />
		<tag k="ssr:stedsnr" v="609101" />
	</node>
	<node id="-29168" lat="59.2549361117" lon="6.45283610779">
		<tag k="historic" v="shieling" />
		<tag k="name" v="Vassbotnen" />
		<tag k="place" v="locality" />
		<tag k="ssr:stedsnr" v="609098" />
	</node>
	<node id="-28143" lat="59.2796000038" lon="6.13621110978">
		<tag k="alt_name" v="Engjesdal" />
		<tag k="name" v="Engesdalen" />
>>>>>>> e1d4bc35ff8a6074a6f2e91616a996b547c36f15
		<tag k="place" v="farm" />
		<tag k="ssr:stedsnr" v="122469" />
	</node>
<<<<<<< HEAD
	<node lat="59.17060540139094" lon="6.130739591023999" id="-275">
		<tag k="fixme" v="consider place=hamlet" />
		<tag k="name" v="Staurland" />
		<tag k="place" v="farm" />
		<tag k="ssr:stedsnr" v="122603" />
	</node>
	<node lat="59.18209543774034" lon="6.15221372175463" id="-276">
=======
	<node id="-28651" lat="59.1287947695" lon="6.25648128979">
		<tag k="alt_name" v="Tveid" />
		<tag k="fixme" v="consider place=hamlet" />
		<tag k="name" v="Tveit" />
		<tag k="place" v="farm" />
		<tag k="ssr:stedsnr" v="365439" />
	</node>
	<node id="-28138" lat="59.3218552278" lon="6.49853878485">
>>>>>>> e1d4bc35ff8a6074a6f2e91616a996b547c36f15
		<tag k="fixme" v="consider place=hamlet" />
		<tag k="name" v="Ingvaldstad" />
		<tag k="place" v="farm" />
<<<<<<< HEAD
		<tag k="ssr:stedsnr" v="122615" />
	</node>
	<node lat="59.25291836077012" lon="6.282613642380941" id="-280">
		<tag k="alt_name" v="Bjelland" />
=======
		<tag k="ssr:stedsnr" v="63997" />
	</node>
	<node id="-28136" lat="59.3042888895" lon="6.40176388309">
		<tag k="name" v="Følekammane" />
		<tag k="place" v="locality" />
		<tag k="ssr:stedsnr" v="63989" />
	</node>
	<node id="-27623" lat="59.1424032458" lon="6.17928660529">
>>>>>>> e1d4bc35ff8a6074a6f2e91616a996b547c36f15
		<tag k="fixme" v="consider place=hamlet" />
		<tag k="name" v="Bjølland" />
		<tag k="place" v="farm" />
		<tag k="ssr:stedsnr" v="123116" />
	</node>
<<<<<<< HEAD
	<node lat="59.26327500283235" lon="6.1601499998323455" id="-290">
		<tag k="name" v="Sanden" />
		<tag k="place" v="farm" />
		<tag k="ssr:stedsnr" v="123620" />
	</node>
	<node lat="59.35653277684916" lon="6.454338774729506" id="-297">
=======
	<node id="-28644" lat="59.2465574638" lon="6.37116669243">
>>>>>>> e1d4bc35ff8a6074a6f2e91616a996b547c36f15
		<tag k="fixme" v="consider place=hamlet" />
		<tag k="name" v="Gil" />
		<tag k="place" v="farm" />
		<tag k="ssr:stedsnr" v="124922" />
	</node>
<<<<<<< HEAD
	<node lat="59.14076666389462" lon="6.321013897655732" id="-301">
		<tag k="name" v="Egland" />
		<tag k="place" v="farm" />
		<tag k="ssr:stedsnr" v="147326" />
	</node>
	<node lat="59.18903611298726" lon="6.008283331597386" id="-312">
		<tag k="name" v="Hovdaplasset" />
		<tag k="place" v="locality" />
		<tag k="ssr:stedsnr" v="181006" />
	</node>
	<node lat="59.20991388934233" lon="6.000674999577611" id="-334">
		<tag k="name" v="Dalen" />
		<tag k="place" v="farm" />
		<tag k="ssr:stedsnr" v="181702" />
	</node>
	<node lat="59.26073610868276" lon="6.377919440421707" id="-350">
		<tag k="name" v="Fossane" />
=======
	<node id="-27107" lat="59.1649555572" lon="6.17368332909">
		<tag k="name" v="Nedre Øyane" />
		<tag k="place" v="farm" />
		<tag k="ssr:stedsnr" v="424239" />
	</node>
	<node id="-29153" lat="59.1852638909" lon="6.30418334085">
		<tag k="historic" v="shieling" />
		<tag k="name" v="Vasstøl" />
		<tag k="place" v="locality" />
		<tag k="ssr:stedsnr" v="608483" />
	</node>
	<node id="-28126" lat="59.1160592659" lon="6.18303624837">
		<tag k="alt_name" v="Drifland" />
		<tag k="historic" v="shieling" />
		<tag k="name" v="Dritland" />
		<tag k="place" v="locality" />
		<tag k="ssr:stedsnr" v="63732" />
	</node>
	<node id="-27612" lat="59.2988388849" lon="6.48367500246">
		<tag k="historic" v="shieling" />
		<tag k="name" v="Abrahamsstølen" />
		<tag k="place" v="locality" />
		<tag k="ssr:stedsnr" v="728450" />
	</node>
	<node id="-29147" lat="59.2145485969" lon="6.23845047638">
		<tag k="fixme" v="consider place=hamlet" />
		<tag k="name" v="Husstøl" />
>>>>>>> e1d4bc35ff8a6074a6f2e91616a996b547c36f15
		<tag k="place" v="farm" />
		<tag k="ssr:stedsnr" v="184100" />
	</node>
<<<<<<< HEAD
	<node lat="59.31023888807237" lon="6.624791659569085" id="-351">
		<tag k="name" v="Øykjalia" />
		<tag k="place" v="isolated_dwelling" />
		<tag k="ssr:stedsnr" v="184218" />
	</node>
	<node lat="59.26315000322193" lon="6.3581666614525245" id="-353">
		<tag k="alt_name" v="Hagjen" />
		<tag k="historic" v="shieling" />
		<tag k="name" v="Hagen" />
		<tag k="place" v="isolated_dwelling" />
		<tag k="ssr:stedsnr" v="184104" />
	</node>
	<node lat="59.282199997272585" lon="6.140799992696955" id="-362">
		<tag k="name" v="Austad" />
=======
	<node id="-28633" lat="59.1598916679" lon="6.07359722359">
		<tag k="name" v="Svindalsplassen" />
		<tag k="place" v="locality" />
		<tag k="ssr:stedsnr" v="363636" />
	</node>
	<node id="-29142" lat="59.1243249973" lon="6.28425832627">
		<tag k="alt_name" v="Leide" />
		<tag k="name" v="Leitet" />
		<tag k="place" v="farm" />
		<tag k="ssr:stedsnr" v="608436" />
	</node>
	<node id="-29141" lat="59.1289568667" lon="6.27094223269">
		<tag k="fixme" v="consider place=hamlet" />
		<tag k="name" v="Ullestad" />
		<tag k="old_name" v="Ullstad" />
>>>>>>> e1d4bc35ff8a6074a6f2e91616a996b547c36f15
		<tag k="place" v="farm" />
		<tag k="ssr:stedsnr" v="184614" />
	</node>
<<<<<<< HEAD
	<node lat="59.231327032539156" lon="6.15684614251993" id="-374">
		<tag k="name" v="Puntsnes" />
		<tag k="place" v="farm" />
		<tag k="ssr:stedsnr" v="269885" />
	</node>
	<node lat="59.31712221855883" lon="6.347372219062796" id="-375">
		<tag k="name" v="Berget" />
=======
	<node id="-26578" lat="59.2238527758" lon="6.07285000267">
		<tag k="name" v="Breiabø" />
>>>>>>> e1d4bc35ff8a6074a6f2e91616a996b547c36f15
		<tag k="place" v="farm" />
		<tag k="ssr:stedsnr" v="221807" />
	</node>
<<<<<<< HEAD
	<node lat="59.17671905517799" lon="6.055351072604474" id="-385">
		<tag k="name" v="Følsvik" />
		<tag k="place" v="farm" />
		<tag k="ssr:stedsnr" v="242057" />
	</node>
	<node lat="59.20444722542372" lon="6.070536114453417" id="-387">
		<tag k="name" v="Kvaløy" />
		<tag k="place" v="farm" />
		<tag k="ssr:stedsnr" v="242085" />
	</node>
	<node lat="59.21469463913493" lon="6.14905065962233" id="-434">
		<tag k="fixme" v="consider place=hamlet" />
		<tag k="name" v="Espeland" />
		<tag k="place" v="farm" />
		<tag k="ssr:stedsnr" v="244925" />
	</node>
	<node lat="59.26298889154695" lon="6.291686102994936" id="-439">
=======
	<node id="-28113" lat="59.2236386914" lon="6.21664748347">
		<tag k="fixme" v="consider place=hamlet" />
		<tag k="name" v="Einervoll" />
		<tag k="place" v="farm" />
		<tag k="ssr:stedsnr" v="62961" />
	</node>
	<node id="-27086" lat="59.2614055556" lon="6.64420277464">
		<tag k="historic" v="shieling" />
		<tag k="name" v="Gamlestølen" />
		<tag k="place" v="locality" />
		<tag k="ssr:stedsnr" v="385111" />
	</node>
	<node id="-27085" lat="59.21834167" lon="6.4096611104">
		<tag k="name" v="Kløv" />
		<tag k="place" v="farm" />
		<tag k="ssr:stedsnr" v="365457" />
	</node>
	<node id="-26680" lat="59.1670679665" lon="6.16887835371">
		<tag k="fixme" v="consider place=hamlet" />
		<tag k="name" v="Riskadal" />
		<tag k="place" v="farm" />
		<tag k="ssr:stedsnr" v="244645" />
	</node>
	<node id="-26708" lat="59.1539722261" lon="6.10265278239">
		<tag k="name" v="Ytre Nessa" />
		<tag k="place" v="farm" />
		<tag k="ssr:stedsnr" v="120315" />
	</node>
	<node id="-29129" lat="59.2410916655" lon="6.44836111145">
>>>>>>> e1d4bc35ff8a6074a6f2e91616a996b547c36f15
		<tag k="historic" v="shieling" />
		<tag k="name" v="Nordstøl" />
		<tag k="place" v="isolated_dwelling" />
		<tag k="ssr:stedsnr" v="245115" />
	</node>
<<<<<<< HEAD
	<node lat="59.278909242624046" lon="6.1410563469709505" id="-441">
		<tag k="fixme" v="consider place=hamlet" />
		<tag k="name" v="Skiftun" />
		<tag k="place" v="farm" />
		<tag k="ssr:stedsnr" v="245569" />
	</node>
	<node lat="59.230836106809164" lon="6.069622228023223" id="-448">
		<tag k="name" v="Dreggen" />
		<tag k="place" v="isolated_dwelling" />
		<tag k="ssr:stedsnr" v="284086" />
	</node>
	<node lat="59.19222222438171" lon="6.079605554215232" id="-451">
		<tag k="alt_name" v="Liarmarka" />
		<tag k="name" v="Heimly" />
=======
	<node id="-26567" lat="59.3255876688" lon="6.43410780165">
		<tag k="fixme" v="consider place=hamlet" />
		<tag k="name" v="Vadla" />
>>>>>>> e1d4bc35ff8a6074a6f2e91616a996b547c36f15
		<tag k="place" v="farm" />
		<tag k="ssr:stedsnr" v="284629" />
	</node>
<<<<<<< HEAD
	<node lat="59.14110000192078" lon="6.043391671751913" id="-454">
		<tag k="name" v="Grønvik" />
		<tag k="place" v="hamlet" />
		<tag k="ssr:stedsnr" v="297531" />
	</node>
	<node lat="59.23470000094801" lon="6.620847227687929" id="-501">
		<tag k="name" v="Grasdalshytta" />
		<tag k="place" v="isolated_dwelling" />
		<tag k="ssr:stedsnr" v="304228" />
	</node>
	<node lat="59.126986112952174" lon="6.154911112688512" id="-504">
		<tag k="name" v="Hetleli" />
		<tag k="place" v="isolated_dwelling" />
		<tag k="ssr:stedsnr" v="304505" />
	</node>
	<node lat="59.276366667362936" lon="6.515066666317685" id="-508">
		<tag k="alt_name" v="Stakksstølen" />
=======
	<node id="-28614" lat="59.1268027808" lon="6.39526666247">
>>>>>>> e1d4bc35ff8a6074a6f2e91616a996b547c36f15
		<tag k="historic" v="shieling" />
		<tag k="name" v="Stakksstøl" />
		<tag k="place" v="isolated_dwelling" />
		<tag k="ssr:stedsnr" v="305123" />
	</node>
<<<<<<< HEAD
	<node lat="59.325745341053825" lon="6.368058557984648" id="-524">
		<tag k="alt_name" v="Ramnsfjell, in" />
		<tag k="fixme" v="consider place=hamlet" />
		<tag k="name" v="Indre Ramsfjell" />
=======
	<node id="-28101" lat="59.1626500033" lon="6.15381110367">
		<tag k="name" v="Åsen" />
>>>>>>> e1d4bc35ff8a6074a6f2e91616a996b547c36f15
		<tag k="place" v="farm" />
		<tag k="ssr:stedsnr" v="305979" />
	</node>
<<<<<<< HEAD
	<node lat="59.21568055209209" lon="6.084277770768097" id="-527">
		<tag k="name" v="Longka" />
		<tag k="place" v="locality" />
		<tag k="ssr:stedsnr" v="465093" />
	</node>
	<node lat="59.21653333388997" lon="6.041194447041495" id="-531">
		<tag k="name" v="Breidviga" />
=======
	<node id="-28611" lat="59.1458055571" lon="6.24251110787">
		<tag k="name" v="Vatnet" />
>>>>>>> e1d4bc35ff8a6074a6f2e91616a996b547c36f15
		<tag k="place" v="farm" />
		<tag k="ssr:stedsnr" v="344101" />
	</node>
<<<<<<< HEAD
	<node lat="59.16496944743733" lon="6.17102222770613" id="-541">
		<tag k="name" v="Øvre Øyane" />
		<tag k="place" v="farm" />
		<tag k="ssr:stedsnr" v="363221" />
	</node>
	<node lat="59.14580555706688" lon="6.242511107874257" id="-542">
		<tag k="name" v="Vatnet" />
		<tag k="place" v="farm" />
		<tag k="ssr:stedsnr" v="363238" />
	</node>
	<node lat="59.15989166789914" lon="6.073597223594772" id="-556">
		<tag k="name" v="Svindalsplassen" />
		<tag k="place" v="locality" />
		<tag k="ssr:stedsnr" v="363636" />
	</node>
	<node lat="59.128794769545166" lon="6.25648128978694" id="-564">
		<tag k="alt_name" v="Tveid" />
		<tag k="fixme" v="consider place=hamlet" />
		<tag k="name" v="Tveit" />
=======
	<node id="-26562" lat="59.3247388934" lon="6.4507305602">
		<tag k="name" v="Hetta" />
		<tag k="place" v="farm" />
		<tag k="ssr:stedsnr" v="223693" />
	</node>
	<node id="-27584" lat="59.2168055547" lon="6.03349443892">
		<tag k="name" v="Gravstø" />
		<tag k="place" v="farm" />
		<tag k="ssr:stedsnr" v="708133" />
	</node>
	<node id="-29118" lat="59.2320848427" lon="6.25511156739">
		<tag k="fixme" v="consider place=hamlet" />
		<tag k="name" v="Hetland" />
		<tag k="place" v="farm" />
		<tag k="ssr:stedsnr" v="607289" />
	</node>
	<node id="-27581" lat="59.2311222235" lon="6.14908888808">
		<tag k="name" v="Puntsnes" />
		<tag k="place" v="farm" />
		<tag k="ssr:stedsnr" v="694875" />
	</node>
	<node id="-28092" lat="59.1349299535" lon="6.29472551894">
		<tag k="alt_name" v="Kaltveid" />
		<tag k="name" v="Kalltveit" />
>>>>>>> e1d4bc35ff8a6074a6f2e91616a996b547c36f15
		<tag k="place" v="farm" />
		<tag k="ssr:stedsnr" v="365439" />
	</node>
<<<<<<< HEAD
	<node lat="59.21834166998071" lon="6.4096611104045085" id="-570">
		<tag k="name" v="Kløv" />
		<tag k="place" v="farm" />
		<tag k="ssr:stedsnr" v="365457" />
	</node>
	<node lat="59.1508329558245" lon="6.172453885718855" id="-572">
		<tag k="fixme" v="consider place=hamlet" />
		<tag k="name" v="Mele" />
=======
	<node id="-27978" lat="59.1544638847" lon="6.17698333698">
		<tag k="name" v="Øvre Mele" />
		<tag k="place" v="farm" />
		<tag k="ssr:stedsnr" v="26828" />
	</node>
	<node id="-26553" lat="59.3020472187" lon="6.74298888662">
		<tag k="name" v="Blåfjellhytta" />
		<tag k="ssr:stedsnr" v="2236" />
		<tag k="tourism" v="hotel" />
	</node>
	<node id="-26797" lat="59.2164333349" lon="6.10019721769">
		<tag k="name" v="Jannaplass" />
		<tag k="place" v="locality" />
		<tag k="ssr:stedsnr" v="297647" />
	</node>
	<node id="-27575" lat="59.1747861102" lon="6.0615611082">
		<tag k="name" v="Øvrehus" />
>>>>>>> e1d4bc35ff8a6074a6f2e91616a996b547c36f15
		<tag k="place" v="farm" />
		<tag k="ssr:stedsnr" v="365555" />
	</node>
<<<<<<< HEAD
	<node lat="59.157540080729795" lon="6.204984261277646" id="-575">
		<tag k="alt_name" v="Østerhus" />
		<tag k="fixme" v="consider place=hamlet" />
		<tag k="name" v="Østrehus" />
=======
	<node id="-26550" lat="59.1518055554" lon="6.18429444587">
		<tag k="name" v="Bøn" />
>>>>>>> e1d4bc35ff8a6074a6f2e91616a996b547c36f15
		<tag k="place" v="farm" />
		<tag k="ssr:stedsnr" v="365605" />
	</node>
<<<<<<< HEAD
	<node lat="59.13437796856198" lon="6.2678392079813365" id="-578">
		<tag k="fixme" v="consider place=hamlet" />
		<tag k="name" v="Bergaland" />
		<tag k="place" v="farm" />
		<tag k="ssr:stedsnr" v="366403" />
	</node>
	<node lat="59.15936356070188" lon="6.450297517850203" id="-579">
		<tag k="fixme" v="consider tourism=alpine_hut or tourism=chalet" />
		<tag k="name" v="Viglesdalen" />
		<tag k="old_name" v="Viglesdal turisthytte" />
		<tag k="ssr:stedsnr" v="366412" />
		<tag k="tourism" v="wilderness_hut" />
	</node>
	<node lat="59.17273055120466" lon="6.256319436263178" id="-582">
		<tag k="historic" v="shieling" />
		<tag k="name" v="Røgle" />
=======
	<node id="-26549" lat="59.1795333359" lon="6.12642499159">
		<tag k="alt_name" v="Tveidane" />
		<tag k="name" v="Tveitane" />
		<tag k="place" v="farm" />
		<tag k="ssr:stedsnr" v="1630" />
	</node>
	<node id="-28659" lat="59.1508329558" lon="6.17245388572">
		<tag k="fixme" v="consider place=hamlet" />
		<tag k="name" v="Mele" />
		<tag k="place" v="farm" />
		<tag k="ssr:stedsnr" v="365555" />
	</node>
	<node id="-28078" lat="59.1838722269" lon="6.60387222918">
		<tag k="name" v="Storhiller" />
>>>>>>> e1d4bc35ff8a6074a6f2e91616a996b547c36f15
		<tag k="place" v="isolated_dwelling" />
		<tag k="ssr:stedsnr" v="366484" />
	</node>
<<<<<<< HEAD
	<node lat="59.13985555952437" lon="6.050405555935522" id="-600">
		<tag k="name" v="Eikeli" />
		<tag k="place" v="farm" />
		<tag k="ssr:stedsnr" v="479546" />
	</node>
	<node lat="59.26140555557009" lon="6.6442027746424435" id="-601">
		<tag k="historic" v="shieling" />
		<tag k="name" v="Gamlestølen" />
		<tag k="place" v="isolated_dwelling" />
		<tag k="ssr:stedsnr" v="385111" />
	</node>
	<node lat="59.23443611495648" lon="6.187975004237068" id="-632">
		<tag k="name" v="Allmenningen" />
		<tag k="place" v="farm" />
		<tag k="ssr:stedsnr" v="484396" />
	</node>
	<node lat="59.235861110968216" lon="6.387833332583612" id="-659">
		<tag k="name" v="Øvrabø" />
=======
	<node id="-27634" lat="59.2194027768" lon="6.08867500014">
		<tag k="name" v="Dalen" />
		<tag k="place" v="farm" />
		<tag k="ssr:stedsnr" v="904651" />
	</node>
	<node id="-27048" lat="59.3213055599" lon="6.54576389451">
		<tag k="name" v="Midskog" />
		<tag k="place" v="locality" />
		<tag k="ssr:stedsnr" v="488997" />
	</node>
	<node id="-27122" lat="59.2068234434" lon="6.09783789647">
		<tag k="alt_name" v="Døvik" />
		<tag k="fixme" v="consider place=hamlet" />
		<tag k="name" v="Døvika" />
		<tag k="place" v="farm" />
		<tag k="ssr:stedsnr" v="426938" />
	</node>
	<node id="-28581" lat="59.2170583306" lon="6.08715833348">
		<tag k="name" v="Saltkjel" />
		<tag k="place" v="locality" />
		<tag k="ssr:stedsnr" v="358692" />
	</node>
	<node id="-28171" lat="59.2031083732" lon="6.04870522118">
		<tag k="fixme" v="consider place=hamlet" />
		<tag k="name" v="Ytre Sandanger" />
		<tag k="place" v="farm" />
		<tag k="ssr:stedsnr" v="120025" />
	</node>
	<node id="-27035" lat="59.2048111078" lon="6.05978611903">
		<tag k="name" v="Heimdal" />
		<tag k="place" v="farm" />
		<tag k="ssr:stedsnr" v="487937" />
	</node>
	<node id="-28144" lat="59.2885916701" lon="6.12658611042">
		<tag k="name" v="Grov" />
		<tag k="place" v="farm" />
		<tag k="ssr:stedsnr" v="100891" />
	</node>
	<node id="-29084" lat="59.151272225" lon="6.10604722696">
		<tag k="name" v="Store Nessa" />
>>>>>>> e1d4bc35ff8a6074a6f2e91616a996b547c36f15
		<tag k="place" v="farm" />
		<tag k="ssr:stedsnr" v="486308" />
	</node>
<<<<<<< HEAD
	<node lat="59.23793793438023" lon="6.302403006266793" id="-660">
		<tag k="alt_name" v="Breidland" />
		<tag k="fixme" v="consider place=hamlet" />
		<tag k="name" v="Breiland" />
=======
	<node id="-28571" lat="59.2165333339" lon="6.04119444704">
		<tag k="name" v="Breidviga" />
>>>>>>> e1d4bc35ff8a6074a6f2e91616a996b547c36f15
		<tag k="place" v="farm" />
		<tag k="ssr:stedsnr" v="486295" />
	</node>
<<<<<<< HEAD
	<node lat="59.14511666525857" lon="6.407869446504623" id="-666">
=======
	<node id="-27034" lat="59.3433861104" lon="6.4073944458">
>>>>>>> e1d4bc35ff8a6074a6f2e91616a996b547c36f15
		<tag k="historic" v="shieling" />
		<tag k="name" v="Hellestølen" />
		<tag k="place" v="isolated_dwelling" />
		<tag k="ssr:stedsnr" v="486435" />
	</node>
<<<<<<< HEAD
	<node lat="59.15467777631679" lon="6.033994446819484" id="-668">
		<tag k="name" v="Solvåg" />
=======
	<node id="-28569" lat="59.2140416665" lon="6.11505277405">
		<tag k="name" v="Vigavågen" />
>>>>>>> e1d4bc35ff8a6074a6f2e91616a996b547c36f15
		<tag k="place" v="farm" />
		<tag k="ssr:stedsnr" v="486594" />
	</node>
<<<<<<< HEAD
	<node lat="59.10686818194781" lon="6.174601483614633" id="-670">
		<tag k="alt_name" v="Søre Tyssdal" />
		<tag k="fixme" v="consider place=hamlet" />
		<tag k="name" v="Tysdal" />
		<tag k="place" v="farm" />
		<tag k="ssr:stedsnr" v="486728" />
	</node>
	<node lat="59.231160310332264" lon="6.163202542802836" id="-671">
=======
	<node id="-27633" lat="59.2148888898" lon="6.10099445312">
		<tag k="name" v="Bonshidleren" />
		<tag k="place" v="locality" />
		<tag k="ssr:stedsnr" v="904640" />
	</node>
	<node id="-27309" lat="59.1131027786" lon="6.4007444397">
		<tag k="name" v="Flæhytta" />
		<tag k="place" v="isolated_dwelling" />
		<tag k="ssr:stedsnr" v="484505" />
	</node>
	<node id="-27831" lat="59.3595138854" lon="6.37871111065">
		<tag k="historic" v="shieling" />
		<tag k="name" v="Skitli" />
		<tag k="place" v="locality" />
		<tag k="ssr:stedsnr" v="791841" />
	</node>
	<node id="-27028" lat="59.263851495" lon="6.15772975231">
>>>>>>> e1d4bc35ff8a6074a6f2e91616a996b547c36f15
		<tag k="fixme" v="consider place=hamlet" />
		<tag k="name" v="Sande" />
		<tag k="place" v="farm" />
		<tag k="ssr:stedsnr" v="486942" />
	</node>
<<<<<<< HEAD
	<node lat="59.227846797325874" lon="6.070595577404978" id="-672">
		<tag k="alt_name" v="Øyehabn" />
		<tag k="fixme" v="consider place=hamlet" />
		<tag k="name" v="Øyehamn" />
		<tag k="place" v="farm" />
		<tag k="ssr:stedsnr" v="486952" />
	</node>
	<node lat="59.3433861104025" lon="6.407394445795538" id="-695">
		<tag k="historic" v="shieling" />
		<tag k="name" v="Mjuk" />
		<tag k="place" v="isolated_dwelling" />
		<tag k="ssr:stedsnr" v="487894" />
	</node>
	<node lat="59.2048111078443" lon="6.059786119028204" id="-696">
		<tag k="name" v="Heimdal" />
=======
	<node id="-26862" lat="59.2629888915" lon="6.29168610299">
		<tag k="historic" v="shieling" />
		<tag k="name" v="Nordstøl" />
		<tag k="place" v="locality" />
		<tag k="ssr:stedsnr" v="245115" />
	</node>
	<node id="-27536" lat="59.1533583313" lon="6.09717777972">
		<tag k="name" v="Hala" />
>>>>>>> e1d4bc35ff8a6074a6f2e91616a996b547c36f15
		<tag k="place" v="farm" />
		<tag k="ssr:stedsnr" v="487937" />
	</node>
<<<<<<< HEAD
	<node lat="59.20140833073718" lon="6.00942777364965" id="-709">
		<tag k="name" v="Breiavik" />
=======
	<node id="-28559" lat="59.3010138885" lon="6.27174722939">
		<tag k="name" v="Sandvik" />
>>>>>>> e1d4bc35ff8a6074a6f2e91616a996b547c36f15
		<tag k="place" v="farm" />
		<tag k="ssr:stedsnr" v="424006" />
	</node>
<<<<<<< HEAD
	<node lat="59.172655553408546" lon="6.13424167468626" id="-711">
		<tag k="name" v="Bjørkjeland" />
=======
	<node id="-29070" lat="59.1761540621" lon="6.06333419221">
		<tag k="fixme" v="consider place=hamlet" />
		<tag k="name" v="Nedre Fister" />
>>>>>>> e1d4bc35ff8a6074a6f2e91616a996b547c36f15
		<tag k="place" v="farm" />
		<tag k="ssr:stedsnr" v="424102" />
	</node>
<<<<<<< HEAD
	<node lat="59.2352033933783" lon="6.1823406200196995" id="-733">
=======
	<node id="-27533" lat="59.3026249991" lon="6.50274999231">
		<tag k="historic" v="shieling" />
		<tag k="name" v="Torsstøl" />
		<tag k="place" v="locality" />
		<tag k="ssr:stedsnr" v="731973" />
	</node>
	<node id="-28556" lat="59.2555126124" lon="6.20788464749">
>>>>>>> e1d4bc35ff8a6074a6f2e91616a996b547c36f15
		<tag k="fixme" v="consider place=hamlet" />
		<tag k="name" v="Prestagarden" />
		<tag k="place" v="farm" />
		<tag k="ssr:stedsnr" v="424391" />
	</node>
	<node lat="59.194677405797826" lon="6.42533360601455" id="-763">
		<tag k="fixme" v="consider tourism=alpine_hut or tourism=chalet" />
		<tag k="name" v="Trodla-Tysdal" />
		<tag k="old_name" v="Trollatysdal" />
		<tag k="ssr:stedsnr" v="427471" />
		<tag k="tourism" v="wilderness_hut" />
	</node>
<<<<<<< HEAD
	<node lat="59.286741553880816" lon="6.140763607979773" id="-765">
		<tag k="alt_name" v="Asseim;Asheim" />
=======
	<node id="-29579" lat="59.2313005417" lon="6.6247111227">
>>>>>>> e1d4bc35ff8a6074a6f2e91616a996b547c36f15
		<tag k="fixme" v="consider place=hamlet" />
		<tag k="name" v="Assheim" />
		<tag k="place" v="farm" />
		<tag k="ssr:stedsnr" v="427607" />
	</node>
<<<<<<< HEAD
	<node lat="59.27299738547558" lon="6.148195951384761" id="-767">
		<tag k="alt_name" v="Fosså" />
		<tag k="fixme" v="consider place=hamlet" />
		<tag k="name" v="Fossåna" />
		<tag k="place" v="farm" />
		<tag k="ssr:stedsnr" v="427598" />
	</node>
	<node lat="59.18247344220167" lon="6.06941923470455" id="-770">
		<tag k="fixme" v="consider place=hamlet" />
		<tag k="name" v="Li" />
		<tag k="place" v="farm" />
		<tag k="ssr:stedsnr" v="427881" />
	</node>
	<node lat="59.25780555347365" lon="6.636977776292215" id="-774">
		<tag k="historic" v="shieling" />
		<tag k="name" v="Gamlestølosen" />
		<tag k="place" v="isolated_dwelling" />
		<tag k="ssr:stedsnr" v="446106" />
	</node>
	<node lat="59.35335277322601" lon="6.485563882464183" id="-775">
		<tag k="alt_name" v="Øvrafjellet" />
		<tag k="name" v="Øvrafjell" />
		<tag k="place" v="isolated_dwelling" />
		<tag k="ssr:stedsnr" v="670935" />
	</node>
	<node lat="59.35132777666622" lon="6.459394445784275" id="-776">
		<tag k="name" v="Moldbakken" />
=======
	<node id="-29578" lat="59.1383878501" lon="6.02739195688">
		<tag k="fixme" v="consider place=hamlet" />
		<tag k="name" v="Helgøy" />
		<tag k="place" v="farm" />
		<tag k="ssr:stedsnr" v="1071965" />
	</node>
	<node id="-28550" lat="59.3257453411" lon="6.36805855798">
		<tag k="alt_name" v="Ramnsfjell, in" />
		<tag k="fixme" v="consider place=hamlet" />
		<tag k="name" v="Indre Ramsfjell" />
>>>>>>> e1d4bc35ff8a6074a6f2e91616a996b547c36f15
		<tag k="place" v="farm" />
		<tag k="ssr:stedsnr" v="670936" />
	</node>
<<<<<<< HEAD
	<node lat="59.298177779217596" lon="6.275958328927749" id="-779">
		<tag k="name" v="Eidavågen" />
=======
	<node id="-29572" lat="59.1332000744" lon="6.25872590092">
		<tag k="name" v="Nesset" />
>>>>>>> e1d4bc35ff8a6074a6f2e91616a996b547c36f15
		<tag k="place" v="farm" />
		<tag k="ssr:stedsnr" v="670954" />
	</node>
<<<<<<< HEAD
	<node lat="59.15867969083204" lon="6.214362099554382" id="-800">
		<tag k="fixme" v="consider place=hamlet" />
		<tag k="name" v="Høyland" />
		<tag k="place" v="farm" />
		<tag k="ssr:stedsnr" v="484281" />
	</node>
	<node lat="59.11310277860663" lon="6.400744439703257" id="-807">
		<tag k="name" v="Flæhytta" />
		<tag k="place" v="isolated_dwelling" />
		<tag k="ssr:stedsnr" v="484505" />
	</node>
	<node lat="59.225717892892135" lon="6.201406773933821" id="-829">
=======
	<node id="-28310" lat="59.3124611139" lon="6.33908888094">
		<tag k="name" v="Nylund" />
		<tag k="place" v="farm" />
		<tag k="ssr:stedsnr" v="176282" />
	</node>
	<node id="-27010" lat="59.2257178929" lon="6.20140677393">
>>>>>>> e1d4bc35ff8a6074a6f2e91616a996b547c36f15
		<tag k="fixme" v="consider place=hamlet" />
		<tag k="name" v="Steinsland" />
		<tag k="place" v="farm" />
		<tag k="ssr:stedsnr" v="486971" />
	</node>
<<<<<<< HEAD
	<node lat="59.22637668835361" lon="6.415061312420102" id="-835">
		<tag k="fixme" v="consider place=hamlet" />
		<tag k="name" v="Ritland" />
=======
	<node id="-29163" lat="59.1974055552" lon="6.14557499492">
		<tag k="alt_name" v="Stykkjet" />
		<tag k="name" v="Stykket" />
		<tag k="place" v="farm" />
		<tag k="ssr:stedsnr" v="608905" />
	</node>
	<node id="-27520" lat="59.2618499984" lon="6.15622500114">
		<tag k="name" v="Porsberg" />
		<tag k="place" v="farm" />
		<tag k="ssr:stedsnr" v="730714" />
	</node>
	<node id="-28031" lat="59.2363194414" lon="6.2481972214">
		<tag k="name" v="Budalen" />
>>>>>>> e1d4bc35ff8a6074a6f2e91616a996b547c36f15
		<tag k="place" v="farm" />
		<tag k="ssr:stedsnr" v="487301" />
	</node>
<<<<<<< HEAD
	<node lat="59.26385149502403" lon="6.157729752310874" id="-844">
		<tag k="fixme" v="consider place=hamlet" />
		<tag k="name" v="Nesvik" />
		<tag k="place" v="farm" />
		<tag k="ssr:stedsnr" v="487616" />
	</node>
	<node lat="59.32130555989801" lon="6.545763894510759" id="-852">
		<tag k="name" v="Midskog" />
=======
	<node id="-28541" lat="59.2156444476" lon="6.18664167399">
		<tag k="name" v="Litlastøl" />
>>>>>>> e1d4bc35ff8a6074a6f2e91616a996b547c36f15
		<tag k="place" v="locality" />
		<tag k="ssr:stedsnr" v="488997" />
	</node>
<<<<<<< HEAD
	<node lat="59.21314903025467" lon="6.513982427525814" id="-901">
		<tag k="fixme" v="consider place=hamlet" />
		<tag k="name" v="Tengesdal" />
		<tag k="place" v="farm" />
		<tag k="ssr:stedsnr" v="547468" />
	</node>
	<node lat="59.14475498990779" lon="6.068909756314663" id="-904">
		<tag k="alt_name" v="Nordskår" />
		<tag k="fixme" v="consider place=hamlet" />
		<tag k="name" v="Nordskor" />
=======
	<node id="-26558" lat="59.3171222186" lon="6.34737221906">
		<tag k="name" v="Berget" />
		<tag k="place" v="farm" />
		<tag k="ssr:stedsnr" v="221807" />
	</node>
	<node id="-29050" lat="59.269141666" lon="6.15378333411">
		<tag k="name" v="Snik" />
>>>>>>> e1d4bc35ff8a6074a6f2e91616a996b547c36f15
		<tag k="place" v="farm" />
		<tag k="ssr:stedsnr" v="547619" />
	</node>
<<<<<<< HEAD
	<node lat="59.17534560418485" lon="6.056386477197673" id="-905">
		<tag k="alt_name" v="Nordre Fister" />
		<tag k="name" v="Fister" />
		<tag k="place" v="hamlet" />
		<tag k="ssr:stedsnr" v="547665" />
	</node>
	<node lat="59.21772014378471" lon="6.124049571649543" id="-909">
		<tag k="alt_name" v="Askvik" />
=======
	<node id="-27513" lat="59.2165075871" lon="6.26507440984">
>>>>>>> e1d4bc35ff8a6074a6f2e91616a996b547c36f15
		<tag k="fixme" v="consider place=hamlet" />
		<tag k="name" v="Askvika" />
		<tag k="place" v="farm" />
<<<<<<< HEAD
		<tag k="ssr:stedsnr" v="547968" />
	</node>
	<node lat="59.28068044844511" lon="6.246089173534305" id="-919">
		<tag k="alt_name" v="Varadn" />
=======
		<tag k="ssr:stedsnr" v="730309" />
	</node>
	<node id="-29048" lat="59.2005101552" lon="6.01262541245">
		<tag k="alt_name" v="Kådaberget" />
		<tag k="name" v="Kotaberg" />
		<tag k="place" v="locality" />
		<tag k="ssr:stedsnr" v="583180" />
	</node>
	<node id="-28535" lat="59.1577033806" lon="6.19641159682">
>>>>>>> e1d4bc35ff8a6074a6f2e91616a996b547c36f15
		<tag k="fixme" v="consider place=hamlet" />
		<tag k="name" v="Vardane" />
		<tag k="place" v="farm" />
		<tag k="ssr:stedsnr" v="548077" />
	</node>
<<<<<<< HEAD
	<node lat="59.1974055552491" lon="6.145574994919443" id="-982">
		<tag k="alt_name" v="Stykkjet" />
		<tag k="name" v="Stykket" />
=======
	<node id="-26998" lat="59.1546777763" lon="6.03399444682">
		<tag k="name" v="Solvåg" />
>>>>>>> e1d4bc35ff8a6074a6f2e91616a996b547c36f15
		<tag k="place" v="farm" />
		<tag k="ssr:stedsnr" v="608905" />
	</node>
<<<<<<< HEAD
	<node lat="59.201216315966" lon="6.121072774677092" id="-987">
=======
	<node id="-28532" lat="59.1418240924" lon="6.21464996583">
>>>>>>> e1d4bc35ff8a6074a6f2e91616a996b547c36f15
		<tag k="fixme" v="consider place=hamlet" />
		<tag k="name" v="Mjølhus" />
		<tag k="place" v="farm" />
		<tag k="ssr:stedsnr" v="608952" />
	</node>
<<<<<<< HEAD
	<node lat="59.25493611172117" lon="6.452836107794729" id="-989">
=======
	<node id="-26994" lat="59.1451166653" lon="6.4078694465">
>>>>>>> e1d4bc35ff8a6074a6f2e91616a996b547c36f15
		<tag k="historic" v="shieling" />
		<tag k="name" v="Vassbotnen" />
		<tag k="place" v="isolated_dwelling" />
		<tag k="ssr:stedsnr" v="609098" />
	</node>
<<<<<<< HEAD
	<node lat="59.205513890626605" lon="6.055780554720643" id="-997">
		<tag k="name" v="Kro" />
=======
	<node id="-29040" lat="59.2876410424" lon="6.42831244614">
		<tag k="alt_name" v="Raudlendet" />
		<tag k="fixme" v="consider place=hamlet" />
		<tag k="name" v="Raudlende" />
>>>>>>> e1d4bc35ff8a6074a6f2e91616a996b547c36f15
		<tag k="place" v="farm" />
		<tag k="ssr:stedsnr" v="643204" />
	</node>
<<<<<<< HEAD
	<node lat="59.21680555471064" lon="6.033494438915853" id="-1000">
		<tag k="name" v="Gravstø" />
		<tag k="place" v="farm" />
		<tag k="ssr:stedsnr" v="708133" />
	</node>
	<node lat="59.25956711625684" lon="6.370307048029296" id="-1060">
=======
	<node id="-26600" lat="59.2044472254" lon="6.07053611445">
		<tag k="name" v="Kvaløy" />
		<tag k="place" v="farm" />
		<tag k="ssr:stedsnr" v="242085" />
	</node>
	<node id="-26989" lat="59.2379379344" lon="6.30240300627">
		<tag k="alt_name" v="Breidland" />
>>>>>>> e1d4bc35ff8a6074a6f2e91616a996b547c36f15
		<tag k="fixme" v="consider place=hamlet" />
		<tag k="name" v="Tøtland" />
		<tag k="place" v="farm" />
		<tag k="ssr:stedsnr" v="670113" />
	</node>
<<<<<<< HEAD
	<node lat="59.23112222353435" lon="6.149088888079961" id="-1067">
		<tag k="name" v="Puntsnes" />
		<tag k="place" v="farm" />
		<tag k="ssr:stedsnr" v="694875" />
	</node>
	<node lat="59.156874004759665" lon="6.2272128159533295" id="-1109">
		<tag k="fixme" v="consider place=hamlet" />
		<tag k="name" v="Skogarbø" />
		<tag k="place" v="farm" />
		<tag k="ssr:stedsnr" v="729480" />
	</node>
	<node lat="59.29012500412981" lon="6.536858335387402" id="-1116">
		<tag k="historic" v="shieling" />
		<tag k="name" v="Øyestølen" />
		<tag k="place" v="isolated_dwelling" />
		<tag k="ssr:stedsnr" v="730083" />
	</node>
	<node lat="59.216507587129016" lon="6.26507440984032" id="-1126">
=======
	<node id="-28010" lat="59.1815527814" lon="6.2974055609">
		<tag k="name" v="Vassbu" />
		<tag k="place" v="locality" />
		<tag k="ssr:stedsnr" v="60201" />
	</node>
	<node id="-28521" lat="59.2763666674" lon="6.51506666632">
		<tag k="alt_name" v="Stakksstølen" />
		<tag k="historic" v="shieling" />
		<tag k="name" v="Stakksstøl" />
		<tag k="place" v="locality" />
		<tag k="ssr:stedsnr" v="305123" />
	</node>
	<node id="-29544" lat="59.2236027742" lon="6.20135000502">
		<tag k="name" v="Gartveit" />
		<tag k="place" v="farm" />
		<tag k="ssr:stedsnr" v="970550" />
	</node>
	<node id="-29031" lat="59.1113085577" lon="6.19561583669">
>>>>>>> e1d4bc35ff8a6074a6f2e91616a996b547c36f15
		<tag k="fixme" v="consider place=hamlet" />
		<tag k="name" v="Jørmeland" />
		<tag k="place" v="farm" />
		<tag k="ssr:stedsnr" v="730309" />
	</node>
<<<<<<< HEAD
	<node lat="59.1424032458491" lon="6.179286605288862" id="-1133">
		<tag k="fixme" v="consider place=hamlet" />
		<tag k="name" v="Svadberg" />
=======
	<node id="-27493" lat="59.2094190807" lon="6.00824400936">
		<tag k="fixme" v="consider place=hamlet" />
		<tag k="name" v="Randa" />
		<tag k="place" v="farm" />
		<tag k="ssr:stedsnr" v="729957" />
	</node>
	<node id="-29026" lat="59.2976500043" lon="6.11635000291">
		<tag k="name" v="Øygarden" />
>>>>>>> e1d4bc35ff8a6074a6f2e91616a996b547c36f15
		<tag k="place" v="farm" />
		<tag k="ssr:stedsnr" v="730576" />
	</node>
<<<<<<< HEAD
	<node lat="59.261849998354776" lon="6.156225001142587" id="-1134">
		<tag k="name" v="Porsberg" />
=======
	<node id="-27489" lat="59.1218559591" lon="6.22019078951">
		<tag k="fixme" v="consider place=hamlet" />
		<tag k="name" v="Erlia" />
>>>>>>> e1d4bc35ff8a6074a6f2e91616a996b547c36f15
		<tag k="place" v="farm" />
		<tag k="ssr:stedsnr" v="730714" />
	</node>
<<<<<<< HEAD
	<node lat="59.30262499911618" lon="6.50274999230909" id="-1143">
		<tag k="historic" v="shieling" />
		<tag k="name" v="Torsstøl" />
=======
	<node id="-27488" lat="59.1186361135" lon="6.21978334145">
		<tag k="name" v="Haugen" />
>>>>>>> e1d4bc35ff8a6074a6f2e91616a996b547c36f15
		<tag k="place" v="isolated_dwelling" />
		<tag k="ssr:stedsnr" v="731973" />
	</node>
<<<<<<< HEAD
	<node lat="59.21488888975746" lon="6.1009944531166695" id="-1153">
		<tag k="name" v="Bonshidleren" />
		<tag k="place" v="locality" />
		<tag k="ssr:stedsnr" v="904640" />
	</node>
	<node lat="59.20990000279832" lon="5.997697228252259" id="-1154">
		<tag k="alt_name" v="Djubedal" />
		<tag k="name" v="Djupedal" />
		<tag k="place" v="farm" />
		<tag k="ssr:stedsnr" v="769207" />
	</node>
	<node lat="59.14805679963518" lon="6.373240157409812" id="-1199">
		<tag k="fixme" v="consider place=hamlet" />
		<tag k="name" v="Selflot" />
		<tag k="place" v="farm" />
		<tag k="ssr:stedsnr" v="909446" />
	</node>
	<node lat="59.355444446868034" lon="6.372694450582397" id="-1210">
		<tag k="name" v="Nesstøl" />
		<tag k="place" v="farm" />
		<tag k="ssr:stedsnr" v="783823" />
	</node>
	<node lat="59.20408333663318" lon="6.065205557365271" id="-1229">
		<tag k="name" v="Skjervik" />
		<tag k="place" v="farm" />
		<tag k="ssr:stedsnr" v="788099" />
	</node>
	<node lat="59.18872846131881" lon="6.021677532357458" id="-1264">
		<tag k="fixme" v="consider place=hamlet" />
		<tag k="name" v="Hovda" />
		<tag k="place" v="farm" />
		<tag k="ssr:stedsnr" v="790903" />
	</node>
	<node lat="59.21278760890026" lon="6.07390442330193" id="-1268">
		<tag k="alt_name" v="Ytre Dale" />
		<tag k="fixme" v="consider place=hamlet" />
		<tag k="name" v="Dale" />
=======
	<node id="-28510" lat="59.2268983483" lon="6.21418680541">
		<tag k="name" v="Fevoll" />
		<tag k="place" v="hamlet" />
		<tag k="ssr:stedsnr" v="304957" />
	</node>
	<node id="-28509" lat="59.2187527806" lon="6.0914305626">
		<tag k="alt_name" v="Hetlevik" />
		<tag k="name" v="Hetlevika" />
		<tag k="place" v="farm" />
		<tag k="ssr:stedsnr" v="304941" />
	</node>
	<node id="-29532" lat="59.3618194475" lon="6.43242777852">
		<tag k="historic" v="shieling" />
		<tag k="name" v="Lågbakke" />
		<tag k="place" v="locality" />
		<tag k="ssr:stedsnr" v="970402" />
	</node>
	<node id="-27994" lat="59.2207055591" lon="6.09313889388">
		<tag k="name" v="Åsaplasset" />
		<tag k="place" v="locality" />
		<tag k="ssr:stedsnr" v="55645" />
	</node>
	<node id="-26767" lat="59.2496500033" lon="6.2134055529">
		<tag k="name" v="Tveidå" />
		<tag k="place" v="farm" />
		<tag k="ssr:stedsnr" v="181367" />
	</node>
	<node id="-26965" lat="59.234436115" lon="6.18797500424">
		<tag k="name" v="Allmenningen" />
		<tag k="place" v="farm" />
		<tag k="ssr:stedsnr" v="484396" />
	</node>
	<node id="-28415" lat="59.2607361087" lon="6.37791944042">
		<tag k="name" v="Fossane" />
		<tag k="place" v="farm" />
		<tag k="ssr:stedsnr" v="184100" />
	</node>
	<node id="-27472" lat="59.2334361132" lon="6.15347500323">
		<tag k="name" v="Puntsnes" />
>>>>>>> e1d4bc35ff8a6074a6f2e91616a996b547c36f15
		<tag k="place" v="farm" />
		<tag k="ssr:stedsnr" v="790951" />
	</node>
<<<<<<< HEAD
	<node lat="59.176020632816666" lon="6.173715673465959" id="-1274">
		<tag k="alt_name" v="Gjessfjell" />
=======
	<node id="-29007" lat="59.2806804484" lon="6.24608917353">
		<tag k="alt_name" v="Varadn" />
>>>>>>> e1d4bc35ff8a6074a6f2e91616a996b547c36f15
		<tag k="fixme" v="consider place=hamlet" />
		<tag k="name" v="Geisfjell" />
		<tag k="place" v="farm" />
		<tag k="ssr:stedsnr" v="911627" />
	</node>
<<<<<<< HEAD
	<node lat="59.35951388537825" lon="6.3787111106498635" id="-1279">
		<tag k="historic" v="shieling" />
		<tag k="name" v="Skitli" />
		<tag k="place" v="isolated_dwelling" />
		<tag k="ssr:stedsnr" v="791841" />
	</node>
	<node lat="59.35404317872403" lon="6.451289430870896" id="-1281">
		<tag k="alt_name" v="Krumshagen" />
		<tag k="fixme" v="consider place=hamlet" />
		<tag k="name" v="Kromshagen" />
		<tag k="place" v="farm" />
		<tag k="ssr:stedsnr" v="791923" />
	</node>
	<node lat="59.27635555508778" lon="6.487824995276064" id="-1283">
		<tag k="historic" v="shieling" />
		<tag k="name" v="Vasstølen" />
		<tag k="place" v="isolated_dwelling" />
		<tag k="ssr:stedsnr" v="912061" />
	</node>
	<node lat="59.21938611029374" lon="6.048155552336823" id="-1294">
		<tag k="name" v="Vikane" />
=======
	<node id="-27980" lat="59.1997333298" lon="6.03902222296">
		<tag k="name" v="Gjerdet" />
		<tag k="place" v="farm" />
		<tag k="ssr:stedsnr" v="37199" />
	</node>
	<node id="-27979" lat="59.2318706486" lon="6.15688994872">
		<tag k="name" v="Puntsnes" />
>>>>>>> e1d4bc35ff8a6074a6f2e91616a996b547c36f15
		<tag k="place" v="farm" />
		<tag k="ssr:stedsnr" v="911933" />
	</node>
<<<<<<< HEAD
	<node lat="59.24216388625113" lon="6.271769442604675" id="-1297">
		<tag k="name" v="Skogen" />
=======
	<node id="-29002" lat="59.2177201438" lon="6.12404957165">
		<tag k="alt_name" v="Askvik" />
		<tag k="fixme" v="consider place=hamlet" />
		<tag k="name" v="Askvika" />
>>>>>>> e1d4bc35ff8a6074a6f2e91616a996b547c36f15
		<tag k="place" v="farm" />
		<tag k="ssr:stedsnr" v="912279" />
	</node>
<<<<<<< HEAD
	<node lat="59.338602776675515" lon="6.44861388556112" id="-1306">
		<tag k="name" v="Moen" />
=======
	<node id="-28998" lat="59.2246833373" lon="6.06582499227">
		<tag k="name" v="Valvik" />
>>>>>>> e1d4bc35ff8a6074a6f2e91616a996b547c36f15
		<tag k="place" v="farm" />
		<tag k="ssr:stedsnr" v="912906" />
	</node>
<<<<<<< HEAD
	<node lat="59.2975666662375" lon="6.383994437752621" id="-1310">
		<tag k="historic" v="shieling" />
		<tag k="name" v="Oksabåsen" />
		<tag k="place" v="isolated_dwelling" />
		<tag k="ssr:stedsnr" v="912960" />
	</node>
	<node lat="59.21321666434216" lon="6.1171722268084325" id="-1312">
		<tag k="alt_name" v="Hauskjevågen" />
		<tag k="name" v="Hauskevågen" />
		<tag k="place" v="farm" />
		<tag k="ssr:stedsnr" v="912916" />
	</node>
	<node lat="59.15400833740438" lon="6.176144437600947" id="-1323">
		<tag k="name" v="Øvre Mele" />
		<tag k="place" v="farm" />
		<tag k="ssr:stedsnr" v="815886" />
	</node>
	<node lat="59.28666844067409" lon="6.12450496510461" id="-1332">
		<tag k="name" v="Knutsvika" />
		<tag k="place" v="hamlet" />
		<tag k="ssr:stedsnr" v="848330" />
	</node>
	<node lat="59.21049999676134" lon="6.32805833030458" id="-1380">
		<tag k="alt_name" v="Undestøl" />
=======
	<node id="-27973" lat="59.3264749668" lon="6.45307849233">
		<tag k="name" v="Hauga" />
		<tag k="place" v="hamlet" />
		<tag k="ssr:stedsnr" v="2982" />
	</node>
	<node id="-27972" lat="59.3276099173" lon="6.58316006822">
		<tag k="fixme" v="consider place=hamlet" />
		<tag k="name" v="Førre" />
		<tag k="place" v="farm" />
		<tag k="ssr:stedsnr" v="2976" />
	</node>
	<node id="-29238" lat="59.1468194456" lon="6.07613055699">
		<tag k="name" v="Flådå" />
		<tag k="place" v="farm" />
		<tag k="ssr:stedsnr" v="788696" />
	</node>
	<node id="-27970" lat="59.3073111148" lon="6.52749999384">
		<tag k="historic" v="shieling" />
		<tag k="name" v="Verkvelven" />
		<tag k="place" v="locality" />
		<tag k="ssr:stedsnr" v="2943" />
	</node>
	<node id="-28811" lat="59.2407694463" lon="6.42429722338">
		<tag k="historic" v="shieling" />
		<tag k="name" v="Øyastøl" />
		<tag k="place" v="locality" />
		<tag k="ssr:stedsnr" v="426269" />
	</node>
	<node id="-28479" lat="59.2602500028" lon="6.44485000155">
>>>>>>> e1d4bc35ff8a6074a6f2e91616a996b547c36f15
		<tag k="historic" v="shieling" />
		<tag k="name" v="Undestølen" />
		<tag k="place" v="isolated_dwelling" />
		<tag k="ssr:stedsnr" v="851415" />
	</node>
<<<<<<< HEAD
	<node lat="59.175494038504965" lon="6.134480603541815" id="-1383">
		<tag k="alt_name" v="Flat-Hetland" />
		<tag k="fixme" v="consider place=hamlet" />
		<tag k="name" v="Flathetland" />
=======
	<node id="-27966" lat="59.3051" lon="6.14420000216">
		<tag k="alt_name" v="Morkjå" />
		<tag k="name" v="Morka" />
>>>>>>> e1d4bc35ff8a6074a6f2e91616a996b547c36f15
		<tag k="place" v="farm" />
		<tag k="ssr:stedsnr" v="851614" />
	</node>
<<<<<<< HEAD
	<node lat="59.17366318832224" lon="6.150629251708143" id="-1385">
		<tag k="fixme" v="consider place=hamlet" />
		<tag k="name" v="Eggjabø" />
		<tag k="place" v="farm" />
		<tag k="ssr:stedsnr" v="851617" />
	</node>
	<node lat="59.19465342109726" lon="6.143298622504344" id="-1390">
		<tag k="alt_name" v="Byrkja" />
		<tag k="fixme" v="consider place=hamlet" />
		<tag k="name" v="Børkja" />
		<tag k="place" v="farm" />
		<tag k="ssr:stedsnr" v="851879" />
	</node>
	<node lat="59.195180559671996" lon="6.014861103291239" id="-1391">
		<tag k="name" v="Heggevik" />
		<tag k="place" v="farm" />
		<tag k="ssr:stedsnr" v="851881" />
	</node>
	<node lat="59.262286115584914" lon="6.503725007497779" id="-1395">
		<tag k="alt_name" v="Kvanndalen" />
		<tag k="historic" v="shieling" />
		<tag k="name" v="Kvanndal" />
		<tag k="place" v="isolated_dwelling" />
		<tag k="ssr:stedsnr" v="852109" />
	</node>
	<node lat="59.35603889259428" lon="6.575102769968536" id="-1405">
		<tag k="name" v="Botnen" />
		<tag k="place" v="locality" />
		<tag k="ssr:stedsnr" v="852919" />
	</node>
	<node lat="59.27039166572899" lon="6.737486107839917" id="-1410">
		<tag k="fixme" v="consider tourism=alpine_hut or tourism=chalet" />
		<tag k="name" v="Eidavatn" />
		<tag k="ssr:stedsnr" v="934714" />
		<tag k="tourism" v="wilderness_hut" />
	</node>
	<node lat="59.32856666954045" lon="6.445169437135655" id="-1411">
		<tag k="name" v="Ulla" />
		<tag k="place" v="farm" />
		<tag k="ssr:stedsnr" v="891674" />
	</node>
	<node lat="59.21940277676084" lon="6.088675000139291" id="-1413">
		<tag k="name" v="Dalen" />
=======
	<node id="-28989" lat="59.1753456042" lon="6.0563864772">
		<tag k="alt_name" v="Nordre Fister" />
		<tag k="name" v="Fister" />
		<tag k="place" v="hamlet" />
		<tag k="ssr:stedsnr" v="547665" />
	</node>
	<node id="-27018" lat="59.2263766884" lon="6.41506131242">
		<tag k="fixme" v="consider place=hamlet" />
		<tag k="name" v="Ritland" />
		<tag k="place" v="farm" />
		<tag k="ssr:stedsnr" v="487301" />
	</node>
	<node id="-28986" lat="59.1350006484" lon="6.18151125106">
		<tag k="fixme" v="consider place=hamlet" />
		<tag k="name" v="Stølen" />
		<tag k="place" v="farm" />
		<tag k="ssr:stedsnr" v="547555" />
	</node>
	<node id="-27960" lat="59.1472596396" lon="6.23590715209">
		<tag k="alt_name" v="Valeim, nedre;Valeim;Nedre Valheim" />
		<tag k="name" v="Valheim" />
		<tag k="place" v="hamlet" />
		<tag k="ssr:stedsnr" v="2410" />
	</node>
	<node id="-26934" lat="59.1398555595" lon="6.05040555594">
		<tag k="name" v="Eikeli" />
		<tag k="place" v="farm" />
		<tag k="ssr:stedsnr" v="479546" />
	</node>
	<node id="-27391" lat="59.201216316" lon="6.12107277468">
		<tag k="fixme" v="consider place=hamlet" />
		<tag k="name" v="Mjølhus" />
		<tag k="place" v="farm" />
		<tag k="ssr:stedsnr" v="608952" />
	</node>
	<node id="-26590" lat="59.3616916642" lon="6.38870000028">
		<tag k="alt_name" v="Bjønndalen" />
		<tag k="historic" v="shieling" />
		<tag k="name" v="Bjørndalen" />
		<tag k="place" v="locality" />
		<tag k="ssr:stedsnr" v="63833" />
	</node>
	<node id="-28977" lat="59.2131490303" lon="6.51398242753">
		<tag k="fixme" v="consider place=hamlet" />
		<tag k="name" v="Tengesdal" />
>>>>>>> e1d4bc35ff8a6074a6f2e91616a996b547c36f15
		<tag k="place" v="farm" />
		<tag k="ssr:stedsnr" v="904651" />
	</node>
<<<<<<< HEAD
	<node lat="59.1360833353391" lon="6.252150001436102" id="-1451">
		<tag k="name" v="Storemo" />
		<tag k="place" v="farm" />
		<tag k="ssr:stedsnr" v="912412" />
	</node>
	<node lat="59.28006505812393" lon="6.166220075372674" id="-1456">
		<tag k="fixme" v="consider place=hamlet" />
		<tag k="name" v="Foss" />
		<tag k="place" v="farm" />
		<tag k="ssr:stedsnr" v="912618" />
	</node>
	<node lat="59.2754749991192" lon="6.161525006913657" id="-1457">
		<tag k="alt_name" v="Løgjedn" />
		<tag k="name" v="Løkene" />
		<tag k="place" v="farm" />
		<tag k="ssr:stedsnr" v="912619" />
	</node>
	<node lat="59.15844249283071" lon="6.201204318875295" id="-1458">
		<tag k="alt_name" v="Kyrkhus" />
=======
	<node id="-26729" lat="59.1407666639" lon="6.32101389766">
		<tag k="name" v="Egland" />
		<tag k="place" v="farm" />
		<tag k="ssr:stedsnr" v="147326" />
	</node>
	<node id="-28973" lat="59.1453819157" lon="6.36731797319">
		<tag k="fixme" v="consider place=hamlet" />
		<tag k="name" v="Åse" />
		<tag k="place" v="farm" />
		<tag k="ssr:stedsnr" v="547446" />
	</node>
	<node id="-29484" lat="59.29513929" lon="6.44807739834">
		<tag k="fixme" v="consider place=hamlet" />
		<tag k="name" v="Funningsland" />
		<tag k="place" v="farm" />
		<tag k="ssr:stedsnr" v="852950" />
	</node>
	<node id="-27946" lat="59.2026063018" lon="6.02333245293">
		<tag k="alt_name" v="Kåda" />
>>>>>>> e1d4bc35ff8a6074a6f2e91616a996b547c36f15
		<tag k="fixme" v="consider place=hamlet" />
		<tag k="name" v="Kyrkjehus" />
		<tag k="place" v="farm" />
		<tag k="ssr:stedsnr" v="912620" />
	</node>
<<<<<<< HEAD
	<node lat="59.32384057594619" lon="6.348443100497833" id="-1463">
		<tag k="alt_name" v="Ramnsfjell, yt" />
		<tag k="fixme" v="consider place=hamlet" />
		<tag k="name" v="Ytre Ramsfjell" />
		<tag k="place" v="farm" />
		<tag k="ssr:stedsnr" v="912980" />
	</node>
	<node lat="59.23714499357732" lon="6.18413065217103" id="-1464">
		<tag k="fixme" v="consider place=hamlet" />
		<tag k="name" v="Sæbø" />
		<tag k="place" v="farm" />
		<tag k="ssr:stedsnr" v="912991" />
	</node>
	<node lat="59.236925003303526" lon="6.179066659162443" id="-1465">
		<tag k="alt_name" v="Hjelmelandsvågen" />
		<tag k="fixme" v="consider place=suburb, village or hamlet" />
		<tag k="name" v="Hjelmeland" />
		<tag k="place" v="quarter" />
		<tag k="ssr:stedsnr" v="912992" />
	</node>
	<node lat="59.25206111091573" lon="6.37847777388416" id="-1466">
		<tag k="name" v="Midbø" />
		<tag k="place" v="farm" />
		<tag k="ssr:stedsnr" v="913103" />
	</node>
	<node lat="59.25862500128032" lon="6.374869443681384" id="-1468">
		<tag k="name" v="Moen" />
		<tag k="place" v="farm" />
		<tag k="ssr:stedsnr" v="913110" />
	</node>
	<node lat="59.150624031581835" lon="6.1590035984304405" id="-1476">
		<tag k="name" v="Nedre Mele" />
		<tag k="place" v="farm" />
		<tag k="ssr:stedsnr" v="937905" />
	</node>
	<node lat="59.32018333763513" lon="6.3662611072751725" id="-1481">
		<tag k="name" v="Rabben" />
		<tag k="place" v="farm" />
		<tag k="ssr:stedsnr" v="964302" />
	</node>
	<node lat="59.223602774231004" lon="6.201350005016359" id="-1515">
		<tag k="name" v="Gartveit" />
=======
	<node id="-27271" lat="59.3533527732" lon="6.48556388246">
		<tag k="alt_name" v="Øvrafjellet" />
		<tag k="name" v="Øvrafjell" />
		<tag k="place" v="isolated_dwelling" />
		<tag k="ssr:stedsnr" v="670935" />
	</node>
	<node id="-28967" lat="59.2185583294" lon="6.21970833868">
		<tag k="name" v="Einarvoll" />
		<tag k="place" v="farm" />
		<tag k="ssr:stedsnr" v="547342" />
	</node>
	<node id="-26918" lat="59.126986113" lon="6.15491111269">
		<tag k="name" v="Hetleli" />
		<tag k="place" v="isolated_dwelling" />
		<tag k="ssr:stedsnr" v="304505" />
	</node>
	<node id="-28965" lat="59.2407638868" lon="6.52054999706">
		<tag k="fixme" v="consider tourism=alpine_hut or tourism=chalet" />
		<tag k="name" v="Melands-Grønahei" />
		<tag k="old_name" v="Grønaheia turisthytte" />
		<tag k="ssr:stedsnr" v="547335" />
		<tag k="tourism" v="wilderness_hut" />
	</node>
	<node id="-26915" lat="59.2347000009" lon="6.62084722769">
		<tag k="name" v="Grasdalshytta" />
		<tag k="place" v="isolated_dwelling" />
		<tag k="ssr:stedsnr" v="304228" />
	</node>
	<node id="-27495" lat="59.2901250041" lon="6.53685833539">
		<tag k="historic" v="shieling" />
		<tag k="name" v="Øyestølen" />
		<tag k="place" v="locality" />
		<tag k="ssr:stedsnr" v="730083" />
	</node>
	<node id="-27099" lat="59.1726555534" lon="6.13424167469">
		<tag k="name" v="Bjørkjeland" />
		<tag k="place" v="farm" />
		<tag k="ssr:stedsnr" v="424102" />
	</node>
	<node id="-27424" lat="59.1697277782" lon="6.16501110494">
		<tag k="name" v="Vodl" />
>>>>>>> e1d4bc35ff8a6074a6f2e91616a996b547c36f15
		<tag k="place" v="farm" />
		<tag k="ssr:stedsnr" v="970550" />
	</node>
<<<<<<< HEAD
	<node lat="59.179533335871355" lon="6.126424991587037" id="-1535">
		<tag k="alt_name" v="Tveidane" />
		<tag k="name" v="Tveitane" />
		<tag k="place" v="farm" />
		<tag k="ssr:stedsnr" v="1630" />
	</node>
	<node lat="59.2443611132236" lon="6.434594452367655" id="-1539">
=======
	<node id="-28958" lat="59.1896805577" lon="6.67472499904">
		<tag k="fixme" v="consider tourism=alpine_hut or tourism=chalet" />
		<tag k="name" v="Nilsebu" />
		<tag k="ssr:stedsnr" v="547250" />
		<tag k="tourism" v="wilderness_hut" />
	</node>
	<node id="-28957" lat="59.1149916694" lon="6.40353611919">
>>>>>>> e1d4bc35ff8a6074a6f2e91616a996b547c36f15
		<tag k="historic" v="shieling" />
		<tag k="name" v="Ottestøl" />
		<tag k="place" v="isolated_dwelling" />
		<tag k="ssr:stedsnr" v="1283" />
	</node>
<<<<<<< HEAD
	<node lat="59.154200445487966" lon="6.387975544419594" id="-1541">
		<tag k="fixme" v="consider place=hamlet" />
		<tag k="name" v="Hia" />
		<tag k="place" v="farm" />
		<tag k="ssr:stedsnr" v="1375" />
	</node>
	<node lat="59.151805555351814" lon="6.184294445868856" id="-1544">
		<tag k="name" v="Bøn" />
=======
	<node id="-28443" lat="59.1922949601" lon="6.07980478468">
		<tag k="name" v="Liarmarka" />
>>>>>>> e1d4bc35ff8a6074a6f2e91616a996b547c36f15
		<tag k="place" v="farm" />
		<tag k="ssr:stedsnr" v="1559" />
	</node>
<<<<<<< HEAD
	<node lat="59.147259639585485" lon="6.235907152091953" id="-1556">
		<tag k="alt_name" v="Valeim" />
		<tag k="name" v="Valheim" />
		<tag k="place" v="hamlet" />
		<tag k="ssr:stedsnr" v="2410" />
	</node>
	<node lat="59.30731111482234" lon="6.527499993841014" id="-1563">
		<tag k="historic" v="shieling" />
		<tag k="name" v="Verkvelven" />
		<tag k="place" v="isolated_dwelling" />
		<tag k="ssr:stedsnr" v="2943" />
	</node>
	<node lat="59.15446388467453" lon="6.176983336982959" id="-1567">
		<tag k="name" v="Øvre Mele" />
=======
	<node id="-29466" lat="59.1851138916" lon="6.03121944746">
		<tag k="name" v="Krossdal" />
>>>>>>> e1d4bc35ff8a6074a6f2e91616a996b547c36f15
		<tag k="place" v="farm" />
		<tag k="ssr:stedsnr" v="26828" />
	</node>
<<<<<<< HEAD
	<node lat="59.23187064863598" lon="6.156889948720183" id="-1568">
		<tag k="name" v="Puntsnes" />
		<tag k="place" v="farm" />
		<tag k="ssr:stedsnr" v="26836" />
	</node>
	<node lat="59.19973332982736" lon="6.03902222295669" id="-1569">
		<tag k="name" v="Gjerdet" />
		<tag k="place" v="farm" />
		<tag k="ssr:stedsnr" v="37199" />
	</node>
	<node lat="59.220705559113185" lon="6.0931388938830855" id="-1586">
		<tag k="name" v="Åsaplasset" />
=======
	<node id="-27417" lat="59.240380552" lon="6.1802611097">
		<tag k="name" v="Nordbygda" />
		<tag k="place" v="quarter" />
		<tag k="ssr:stedsnr" v="723219" />
	</node>
	<node id="-28440" lat="59.3433388861" lon="6.58645555557">
		<tag k="name" v="Nystøl" />
		<tag k="place" v="locality" />
		<tag k="ssr:stedsnr" v="184845" />
	</node>
	<node id="-27927" lat="59.2443611132" lon="6.43459445237">
		<tag k="historic" v="shieling" />
		<tag k="name" v="Ottestøl" />
>>>>>>> e1d4bc35ff8a6074a6f2e91616a996b547c36f15
		<tag k="place" v="locality" />
		<tag k="ssr:stedsnr" v="55645" />
	</node>
<<<<<<< HEAD
	<node lat="59.15523333142895" lon="6.214844452210316" id="-1600">
		<tag k="name" v="Dalane" />
=======
	<node id="-28438" lat="59.2821999973" lon="6.1407999927">
		<tag k="name" v="Austad" />
>>>>>>> e1d4bc35ff8a6074a6f2e91616a996b547c36f15
		<tag k="place" v="farm" />
		<tag k="ssr:stedsnr" v="60264" />
	</node>
<<<<<<< HEAD
	<node lat="59.236319441446796" lon="6.2481972214001935" id="-1607">
		<tag k="name" v="Budalen" />
		<tag k="place" v="farm" />
		<tag k="ssr:stedsnr" v="60367" />
	</node>
	<node lat="59.18387222686732" lon="6.603872229182228" id="-1629">
		<tag k="name" v="Storhiller" />
		<tag k="place" v="isolated_dwelling" />
		<tag k="ssr:stedsnr" v="62218" />
	</node>
	<node lat="59.20872832326271" lon="6.113640849068694" id="-1643">
		<tag k="alt_name" v="Vika" />
=======
	<node id="-27097" lat="59.2014083307" lon="6.00942777365">
		<tag k="name" v="Breiavik" />
		<tag k="place" v="farm" />
		<tag k="ssr:stedsnr" v="424006" />
	</node>
	<node id="-29460" lat="59.1951805597" lon="6.01486110329">
		<tag k="name" v="Heggevik" />
		<tag k="place" v="farm" />
		<tag k="ssr:stedsnr" v="851881" />
	</node>
	<node id="-29459" lat="59.1946534211" lon="6.1432986225">
		<tag k="alt_name" v="Byrkja" />
>>>>>>> e1d4bc35ff8a6074a6f2e91616a996b547c36f15
		<tag k="fixme" v="consider place=hamlet" />
		<tag k="name" v="Viga" />
		<tag k="place" v="farm" />
<<<<<<< HEAD
		<tag k="ssr:stedsnr" v="62928" />
	</node>
	<node lat="59.11605926585594" lon="6.183036248367535" id="-1644">
		<tag k="alt_name" v="Drifland" />
=======
		<tag k="ssr:stedsnr" v="851879" />
	</node>
	<node id="-27779" lat="59.2369250033" lon="6.17906665916">
		<tag k="alt_name" v="Hjelmelandsvågen" />
		<tag k="fixme" v="consider place=suburb, village or hamlet" />
		<tag k="name" v="Hjelmeland" />
		<tag k="place" v="quarter" />
		<tag k="ssr:stedsnr" v="912992" />
	</node>
	<node id="-29455" lat="59.189030559" lon="6.33174999459">
		<tag k="alt_name" v="Solheimstøl" />
>>>>>>> e1d4bc35ff8a6074a6f2e91616a996b547c36f15
		<tag k="historic" v="shieling" />
		<tag k="name" v="Dritland" />
		<tag k="place" v="isolated_dwelling" />
		<tag k="ssr:stedsnr" v="63732" />
	</node>
<<<<<<< HEAD
	<node lat="59.22363869143479" lon="6.216647483473441" id="-1648">
		<tag k="fixme" v="consider place=hamlet" />
		<tag k="name" v="Einervoll" />
		<tag k="place" v="farm" />
		<tag k="ssr:stedsnr" v="62961" />
	</node>
	<node lat="59.36169166415879" lon="6.388700000275465" id="-1653">
		<tag k="alt_name" v="Bjønndalen" />
=======
	<node id="-27134" lat="59.1362249964" lon="6.02083334168">
		<tag k="name" v="Utheim" />
		<tag k="place" v="farm" />
		<tag k="ssr:stedsnr" v="661525" />
	</node>
	<node id="-29453" lat="59.2104999968" lon="6.3280583303">
		<tag k="alt_name" v="Undestøl" />
>>>>>>> e1d4bc35ff8a6074a6f2e91616a996b547c36f15
		<tag k="historic" v="shieling" />
		<tag k="name" v="Bjørndalen" />
		<tag k="place" v="isolated_dwelling" />
		<tag k="ssr:stedsnr" v="63833" />
	</node>
	<node lat="59.3042888894822" lon="6.401763883091361" id="-1667">
		<tag k="name" v="Følekammane" />
		<tag k="place" v="locality" />
		<tag k="ssr:stedsnr" v="63989" />
	</node>
<<<<<<< HEAD
	<node lat="59.32185522782844" lon="6.498538784853824" id="-1669">
		<tag k="fixme" v="consider place=hamlet" />
		<tag k="name" v="Segadal" />
=======
	<node id="-27403" lat="59.3125960877" lon="6.34247044681">
		<tag k="alt_name" v="Eidane, in" />
		<tag k="fixme" v="consider place=hamlet" />
		<tag k="name" v="Indre Eidane" />
		<tag k="place" v="farm" />
		<tag k="ssr:stedsnr" v="609978" />
	</node>
	<node id="-28937" lat="59.2773249959" lon="6.34106110694">
		<tag k="name" v="Repp" />
>>>>>>> e1d4bc35ff8a6074a6f2e91616a996b547c36f15
		<tag k="place" v="farm" />
		<tag k="ssr:stedsnr" v="63997" />
	</node>
<<<<<<< HEAD
	<node lat="59.27960000381315" lon="6.136211109776182" id="-1673">
		<tag k="alt_name" v="Engjesdal" />
		<tag k="name" v="Engesdalen" />
		<tag k="place" v="farm" />
		<tag k="ssr:stedsnr" v="100888" />
	</node>
	<node lat="59.2885916700768" lon="6.126586110418207" id="-1674">
		<tag k="name" v="Grov" />
=======
	<node id="-29448" lat="59.1594251024" lon="6.29280706385">
		<tag k="alt_name" v="Ragje" />
		<tag k="fixme" v="consider place=hamlet" />
		<tag k="name" v="Rage" />
		<tag k="place" v="farm" />
		<tag k="ssr:stedsnr" v="851363" />
	</node>
	<node id="-28423" lat="59.3102388881" lon="6.62479165957">
		<tag k="name" v="Øykjalia" />
		<tag k="place" v="isolated_dwelling" />
		<tag k="ssr:stedsnr" v="184218" />
	</node>
	<node id="-27777" lat="59.3238405759" lon="6.3484431005">
		<tag k="alt_name" v="Ramnsfjell, yt" />
		<tag k="fixme" v="consider place=hamlet" />
		<tag k="name" v="Ytre Ramsfjell" />
		<tag k="place" v="farm" />
		<tag k="ssr:stedsnr" v="912980" />
	</node>
	<node id="-29444" lat="59.2326861072" lon="6.23812499729">
		<tag k="alt_name" v="Gåsdal" />
		<tag k="name" v="Gåsdalen" />
>>>>>>> e1d4bc35ff8a6074a6f2e91616a996b547c36f15
		<tag k="place" v="farm" />
		<tag k="ssr:stedsnr" v="100891" />
	</node>
<<<<<<< HEAD
	<node lat="59.32578433344446" lon="6.427623647665866" id="-1675">
=======
	<node id="-29442" lat="59.2471835822" lon="6.36315826425">
>>>>>>> e1d4bc35ff8a6074a6f2e91616a996b547c36f15
		<tag k="fixme" v="consider place=hamlet" />
		<tag k="name" v="Østerhus" />
		<tag k="place" v="farm" />
		<tag k="ssr:stedsnr" v="102699" />
	</node>
<<<<<<< HEAD
	<node lat="59.15397222606074" lon="6.102652782392521" id="-1683">
		<tag k="name" v="Ytre Nessa" />
		<tag k="place" v="farm" />
		<tag k="ssr:stedsnr" v="120315" />
	</node>
	<node lat="59.23312777700628" lon="6.175213888568338" id="-1686">
		<tag k="name" v="Hagebyen" />
		<tag k="place" v="quarter" />
		<tag k="ssr:stedsnr" v="120411" />
	</node>
	<node lat="59.155536114047315" lon="6.302219450350299" id="-1741">
		<tag k="name" v="Holmane" />
		<tag k="place" v="farm" />
		<tag k="ssr:stedsnr" v="122387" />
	</node>
	<node lat="59.23080277395239" lon="6.1499916737551645" id="-1750">
		<tag k="name" v="Sandbergvika" />
		<tag k="place" v="farm" />
		<tag k="ssr:stedsnr" v="122923" />
	</node>
	<node lat="59.21034444865693" lon="6.102086111701436" id="-1754">
		<tag k="name" v="Vassvika" />
		<tag k="place" v="farm" />
		<tag k="ssr:stedsnr" v="122963" />
	</node>
	<node lat="59.229977778471024" lon="6.488500001894459" id="-1758">
		<tag k="name" v="Raudkleiv" />
		<tag k="place" v="isolated_dwelling" />
		<tag k="ssr:stedsnr" v="123330" />
	</node>
	<node lat="59.212528086853496" lon="6.40134661193071" id="-1762">
=======
	<node id="-28416" lat="59.2631500032" lon="6.35816666145">
		<tag k="alt_name" v="Hagjen" />
		<tag k="historic" v="shieling" />
		<tag k="name" v="Hagen" />
		<tag k="place" v="locality" />
		<tag k="ssr:stedsnr" v="184104" />
	</node>
	<node id="-27008" lat="59.2278467973" lon="6.0705955774">
		<tag k="alt_name" v="Øyehabn" />
		<tag k="fixme" v="consider place=hamlet" />
		<tag k="name" v="Øyehamn" />
		<tag k="place" v="farm" />
		<tag k="ssr:stedsnr" v="486952" />
	</node>
	<node id="-27388" lat="59.1527777799" lon="6.16111110646">
		<tag k="name" v="Årdal" />
		<tag k="place" v="village" />
		<tag k="ssr:stedsnr" v="608593" />
	</node>
	<node id="-28411" lat="59.2774402103" lon="6.34499106511">
>>>>>>> e1d4bc35ff8a6074a6f2e91616a996b547c36f15
		<tag k="fixme" v="consider place=hamlet" />
		<tag k="name" v="Helgaland" />
		<tag k="place" v="farm" />
		<tag k="ssr:stedsnr" v="123492" />
	</node>
<<<<<<< HEAD
	<node lat="59.13508055306707" lon="6.26331389418544" id="-1764">
		<tag k="alt_name" v="Brunå" />
		<tag k="name" v="Bruna" />
		<tag k="place" v="farm" />
		<tag k="ssr:stedsnr" v="123438" />
	</node>
	<node lat="59.14363551610736" lon="6.239026387407905" id="-1765">
		<tag k="alt_name" v="Valeim, øvre" />
		<tag k="fixme" v="consider place=hamlet" />
		<tag k="name" v="Øvre Valheim" />
		<tag k="place" v="farm" />
		<tag k="ssr:stedsnr" v="123454" />
	</node>
	<node lat="59.32608599262767" lon="6.401506076319485" id="-1772">
=======
	<node id="-29434" lat="59.098847224" lon="6.26353333165">
		<tag k="alt_name" v="Tveidestølen" />
		<tag k="historic" v="shieling" />
		<tag k="name" v="Tveitestølen" />
		<tag k="place" v="locality" />
		<tag k="ssr:stedsnr" v="851065" />
	</node>
	<node id="-27519" lat="59.1569792147" lon="6.20811513213">
		<tag k="alt_name" v="Vadla" />
		<tag k="fixme" v="consider place=hamlet" />
		<tag k="name" v="Valla" />
		<tag k="place" v="farm" />
		<tag k="ssr:stedsnr" v="730648" />
	</node>
	<node id="-27384" lat="59.1587998924" lon="6.03591541712">
		<tag k="fixme" v="consider place=hamlet" />
		<tag k="name" v="Sigmundstad" />
		<tag k="place" v="farm" />
		<tag k="ssr:stedsnr" v="608625" />
	</node>
	<node id="-28407" lat="59.224959795" lon="6.17733933453">
>>>>>>> e1d4bc35ff8a6074a6f2e91616a996b547c36f15
		<tag k="fixme" v="consider place=hamlet" />
		<tag k="name" v="Dale" />
		<tag k="place" v="farm" />
		<tag k="ssr:stedsnr" v="123989" />
	</node>
<<<<<<< HEAD
	<node lat="59.2519027741234" lon="6.490850007717494" id="-1773">
=======
	<node id="-26869" lat="59.3507916632" lon="6.57707777613">
>>>>>>> e1d4bc35ff8a6074a6f2e91616a996b547c36f15
		<tag k="historic" v="shieling" />
		<tag k="name" v="Gjotastig" />
		<tag k="place" v="isolated_dwelling" />
		<tag k="ssr:stedsnr" v="124090" />
	</node>
<<<<<<< HEAD
	<node lat="59.23107683125069" lon="6.157558009474435" id="-1780">
		<tag k="fixme" v="consider place=hamlet" />
		<tag k="name" v="Puntsnes" />
		<tag k="place" v="farm" />
		<tag k="ssr:stedsnr" v="147854" />
	</node>
	<node lat="59.312461113948004" lon="6.339088880944199" id="-1791">
		<tag k="name" v="Nylund" />
		<tag k="place" v="farm" />
		<tag k="ssr:stedsnr" v="176282" />
	</node>
	<node lat="59.15593610953391" lon="6.193269449478946" id="-1809">
		<tag k="amenity" v="school" />
		<tag k="name" v="Årdal" />
		<tag k="ssr:stedsnr" v="181290" />
	</node>
	<node lat="59.17698199685646" lon="6.161899723220897" id="-1811">
		<tag k="fixme" v="consider place=hamlet" />
		<tag k="name" v="Erland" />
		<tag k="place" v="farm" />
		<tag k="ssr:stedsnr" v="181092" />
	</node>
	<node lat="59.24965000334099" lon="6.213405552903205" id="-1831">
		<tag k="name" v="Tveidå" />
		<tag k="place" v="farm" />
		<tag k="ssr:stedsnr" v="181367" />
	</node>
	<node lat="59.221947222450524" lon="6.1789083385452725" id="-1833">
		<tag k="name" v="Grovå" />
		<tag k="place" v="farm" />
		<tag k="ssr:stedsnr" v="181382" />
	</node>
	<node lat="59.12393332997306" lon="6.458900000370916" id="-1874">
=======
	<node id="-28401" lat="59.1607861094" lon="6.11737499694">
		<tag k="name" v="Soleng" />
		<tag k="place" v="farm" />
		<tag k="ssr:stedsnr" v="183568" />
	</node>
	<node id="-27887" lat="59.1506240316" lon="6.15900359843">
		<tag k="name" v="Nedre Mele" />
		<tag k="place" v="farm" />
		<tag k="ssr:stedsnr" v="937905" />
	</node>
	<node id="-27886" lat="59.2703916657" lon="6.73748610784">
		<tag k="fixme" v="consider tourism=alpine_hut or tourism=chalet" />
		<tag k="name" v="Eidavatn" />
		<tag k="ssr:stedsnr" v="934714" />
		<tag k="tourism" v="wilderness_hut" />
	</node>
	<node id="-26857" lat="59.2240944449" lon="6.0997500068">
		<tag k="fixme" v="multiple name tags, choose one and add the other to alt_name" />
		<tag k="name" v="Ølesund;Ølesundet" />
		<tag k="place" v="farm" />
		<tag k="ssr:stedsnr" v="244964" />
	</node>
	<node id="-26854" lat="59.1780961758" lon="6.12108107359">
		<tag k="alt_name" v="Bjelland" />
		<tag k="fixme" v="consider place=hamlet" />
		<tag k="name" v="Bjølland" />
		<tag k="place" v="farm" />
		<tag k="ssr:stedsnr" v="244653" />
	</node>
	<node id="-28388" lat="59.12393333" lon="6.45890000037">
>>>>>>> e1d4bc35ff8a6074a6f2e91616a996b547c36f15
		<tag k="name" v="Lyngstrand" />
		<tag k="place" v="isolated_dwelling" />
		<tag k="ssr:stedsnr" v="183086" />
	</node>
<<<<<<< HEAD
	<node lat="59.11958735007451" lon="6.224390657960609" id="-1878">
		<tag k="alt_name" v="Boremyr" />
		<tag k="fixme" v="consider place=hamlet" />
		<tag k="name" v="Boremyra" />
		<tag k="place" v="farm" />
		<tag k="ssr:stedsnr" v="183392" />
	</node>
	<node lat="59.24025000185148" lon="6.437002769202887" id="-1881">
		<tag k="historic" v="shieling" />
		<tag k="name" v="Bjørnabu" />
		<tag k="place" v="isolated_dwelling" />
		<tag k="ssr:stedsnr" v="183271" />
	</node>
	<node lat="59.16078610936937" lon="6.117374996936361" id="-1886">
		<tag k="name" v="Soleng" />
		<tag k="place" v="farm" />
		<tag k="ssr:stedsnr" v="183568" />
	</node>
	<node lat="59.23479316184809" lon="6.204548229518807" id="-1889">
		<tag k="alt_name" v="Kvamme" />
		<tag k="fixme" v="consider place=hamlet" />
		<tag k="name" v="Kvame" />
		<tag k="place" v="farm" />
		<tag k="ssr:stedsnr" v="183946" />
	</node>
	<node lat="59.224959795015366" lon="6.177339334529172" id="-1891">
		<tag k="fixme" v="consider place=hamlet" />
		<tag k="name" v="Tuntland" />
=======
	<node id="-28405" lat="59.2347931618" lon="6.20454822952">
		<tag k="alt_name" v="Kvamme" />
		<tag k="fixme" v="consider place=hamlet" />
		<tag k="name" v="Kvame" />
		<tag k="place" v="farm" />
		<tag k="ssr:stedsnr" v="183946" />
	</node>
	<node id="-26848" lat="59.1926694444" lon="6.26543333173">
		<tag k="alt_name" v="Bjødnabu" />
		<tag k="historic" v="shieling" />
		<tag k="name" v="Bjørnabu" />
		<tag k="place" v="locality" />
		<tag k="ssr:stedsnr" v="244475" />
	</node>
	<node id="-28453" lat="59.3518555574" lon="6.45238888002">
		<tag k="name" v="Holmen" />
		<tag k="place" v="farm" />
		<tag k="ssr:stedsnr" v="185926" />
	</node>
	<node id="-27514" lat="59.1531250008" lon="6.21371388486">
		<tag k="alt_name" v="Myrå" />
		<tag k="name" v="Myra" />
		<tag k="place" v="farm" />
		<tag k="ssr:stedsnr" v="730594" />
	</node>
	<node id="-26840" lat="59.2396861137" lon="6.27395000261">
		<tag k="name" v="Stykket" />
		<tag k="place" v="farm" />
		<tag k="ssr:stedsnr" v="244267" />
	</node>
	<node id="-27863" lat="59.3560388926" lon="6.57510276997">
		<tag k="name" v="Botnen" />
		<tag k="place" v="locality" />
		<tag k="ssr:stedsnr" v="852919" />
	</node>
	<node id="-26838" lat="59.217093672" lon="6.03043217921">
		<tag k="fixme" v="consider place=hamlet" />
		<tag k="name" v="Breivik" />
		<tag k="place" v="farm" />
		<tag k="ssr:stedsnr" v="242665" />
	</node>
	<node id="-28656" lat="59.2168055533" lon="6.29230000166">
		<tag k="alt_name" v="Grøstøl" />
		<tag k="historic" v="shieling" />
		<tag k="name" v="Grøvstøl" />
		<tag k="place" v="locality" />
		<tag k="ssr:stedsnr" v="365464" />
	</node>
	<node id="-28371" lat="59.2099138893" lon="6.00067499958">
		<tag k="name" v="Dalen" />
>>>>>>> e1d4bc35ff8a6074a6f2e91616a996b547c36f15
		<tag k="place" v="farm" />
		<tag k="ssr:stedsnr" v="183960" />
	</node>
<<<<<<< HEAD
	<node lat="59.27744021026741" lon="6.3449910651100225" id="-1894">
		<tag k="fixme" v="consider place=hamlet" />
		<tag k="name" v="Vormeland" />
		<tag k="place" v="farm" />
		<tag k="ssr:stedsnr" v="184069" />
	</node>
	<node lat="59.34333888612745" lon="6.586455555574746" id="-1907">
		<tag k="name" v="Nystøl" />
=======
	<node id="-27346" lat="59.1503666689" lon="6.17251389008">
		<tag k="name" v="Nedre Mele" />
		<tag k="place" v="farm" />
		<tag k="ssr:stedsnr" v="572881" />
	</node>
	<node id="-28536" lat="59.2835499977" lon="6.12904999226">
		<tag k="name" v="Hagen" />
		<tag k="place" v="farm" />
		<tag k="ssr:stedsnr" v="305650" />
	</node>
	<node id="-27854" lat="59.2622861156" lon="6.5037250075">
		<tag k="alt_name" v="Kvanndalen" />
		<tag k="historic" v="shieling" />
		<tag k="name" v="Kvanndal" />
>>>>>>> e1d4bc35ff8a6074a6f2e91616a996b547c36f15
		<tag k="place" v="locality" />
		<tag k="ssr:stedsnr" v="184845" />
	</node>
<<<<<<< HEAD
	<node lat="59.35185555743528" lon="6.452388880018098" id="-1916">
		<tag k="name" v="Holmen" />
		<tag k="place" v="farm" />
		<tag k="ssr:stedsnr" v="185926" />
	</node>
	<node lat="59.117466663502555" lon="6.306891663842346" id="-1918">
		<tag k="alt_name" v="Leike;Orraleiken" />
		<tag k="name" v="Leiken" />
		<tag k="place" v="farm" />
		<tag k="ssr:stedsnr" v="219083" />
	</node>
	<node lat="59.324738893389394" lon="6.450730560204001" id="-1921">
		<tag k="name" v="Hetta" />
=======
	<node id="-28109" lat="59.2087283233" lon="6.11364084907">
		<tag k="alt_name" v="Vika" />
		<tag k="fixme" v="consider place=hamlet" />
		<tag k="name" v="Viga" />
		<tag k="place" v="farm" />
		<tag k="ssr:stedsnr" v="62928" />
	</node>
	<node id="-29384" lat="59.3298166682" lon="6.45075555271">
		<tag k="amenity" v="school" />
		<tag k="name" v="Jøsenfjorden" />
		<tag k="ssr:stedsnr" v="849396" />
	</node>
	<node id="-27843" lat="59.1501681759" lon="6.03559373668">
		<tag k="fixme" v="consider place=hamlet" />
		<tag k="name" v="Mosnes" />
>>>>>>> e1d4bc35ff8a6074a6f2e91616a996b547c36f15
		<tag k="place" v="farm" />
		<tag k="ssr:stedsnr" v="223693" />
	</node>
<<<<<<< HEAD
	<node lat="59.21643333488713" lon="6.1001972176947845" id="-1931">
		<tag k="name" v="Jannaplass" />
=======
	<node id="-29378" lat="59.1359888854" lon="6.1961444507">
		<tag k="name" v="Steinskarplasset" />
>>>>>>> e1d4bc35ff8a6074a6f2e91616a996b547c36f15
		<tag k="place" v="locality" />
		<tag k="ssr:stedsnr" v="297647" />
	</node>
<<<<<<< HEAD
	<node lat="59.18448888670163" lon="6.110749991677592" id="-1934">
		<tag k="name" v="Bjustykket" />
=======
	<node id="-28353" lat="59.2219472225" lon="6.17890833855">
		<tag k="name" v="Grovå" />
>>>>>>> e1d4bc35ff8a6074a6f2e91616a996b547c36f15
		<tag k="place" v="farm" />
		<tag k="ssr:stedsnr" v="302085" />
	</node>
<<<<<<< HEAD
	<node lat="59.26025000280974" lon="6.444850001549712" id="-1951">
		<tag k="historic" v="shieling" />
		<tag k="name" v="Vikestøl" />
		<tag k="place" v="isolated_dwelling" />
		<tag k="ssr:stedsnr" v="302450" />
	</node>
	<node lat="59.14182409240659" lon="6.214649965834405" id="-1985">
=======
	<node id="-28862" lat="59.2944820294" lon="6.29183182964">
		<tag k="alt_name" v="Ytre Eiane" />
>>>>>>> e1d4bc35ff8a6074a6f2e91616a996b547c36f15
		<tag k="fixme" v="consider place=hamlet" />
		<tag k="name" v="Soppaland" />
		<tag k="place" v="farm" />
		<tag k="ssr:stedsnr" v="305601" />
	</node>
<<<<<<< HEAD
	<node lat="59.22821186970053" lon="6.169030590330724" id="-1987">
		<tag k="alt_name" v="Røgjelstad" />
		<tag k="fixme" v="consider place=hamlet" />
		<tag k="name" v="Røgelstad" />
		<tag k="place" v="farm" />
		<tag k="ssr:stedsnr" v="304928" />
	</node>
	<node lat="59.21875278057332" lon="6.091430562601174" id="-1988">
		<tag k="alt_name" v="Hetlevik" />
		<tag k="name" v="Hetlevika" />
		<tag k="place" v="farm" />
		<tag k="ssr:stedsnr" v="304941" />
	</node>
	<node lat="59.22689834825731" lon="6.2141868054105025" id="-1989">
		<tag k="name" v="Fevoll" />
		<tag k="place" v="hamlet" />
		<tag k="ssr:stedsnr" v="304957" />
	</node>
	<node lat="59.157703380637265" lon="6.196411596815708" id="-2003">
=======
	<node id="-28348" lat="59.1559361095" lon="6.19326944948">
		<tag k="amenity" v="school" />
		<tag k="name" v="Årdal" />
		<tag k="ssr:stedsnr" v="181290" />
	</node>
	<node id="-26811" lat="59.177248273" lon="6.07261460945">
		<tag k="fixme" v="consider place=hamlet" />
		<tag k="name" v="Midtre Fister" />
		<tag k="place" v="farm" />
		<tag k="ssr:stedsnr" v="242061" />
	</node>
	<node id="-28461" lat="59.1844888867" lon="6.11074999168">
		<tag k="name" v="Bjustykket" />
		<tag k="place" v="farm" />
		<tag k="ssr:stedsnr" v="302085" />
	</node>
	<node id="-27321" lat="59.1068681819" lon="6.17460148361">
		<tag k="alt_name" v="Søre Tyssdal" />
>>>>>>> e1d4bc35ff8a6074a6f2e91616a996b547c36f15
		<tag k="fixme" v="consider place=hamlet" />
		<tag k="name" v="Ytrevoll" />
		<tag k="place" v="farm" />
		<tag k="ssr:stedsnr" v="305645" />
	</node>
<<<<<<< HEAD
	<node lat="59.283549997699076" lon="6.12904999225722" id="-2004">
		<tag k="name" v="Hagen" />
		<tag k="place" v="farm" />
		<tag k="ssr:stedsnr" v="305650" />
	</node>
	<node lat="59.21564444759605" lon="6.186641673991205" id="-2009">
		<tag k="name" v="Litlastøl" />
		<tag k="place" v="locality" />
		<tag k="ssr:stedsnr" v="305917" />
	</node>
	<node lat="59.255512612351104" lon="6.2078846474865355" id="-2017">
=======
	<node id="-27319" lat="59.235861111" lon="6.38783333258">
		<tag k="name" v="Øvrabø" />
		<tag k="place" v="farm" />
		<tag k="ssr:stedsnr" v="486308" />
	</node>
	<node id="-28854" lat="59.1824734422" lon="6.0694192347">
>>>>>>> e1d4bc35ff8a6074a6f2e91616a996b547c36f15
		<tag k="fixme" v="consider place=hamlet" />
		<tag k="name" v="Hagalid" />
		<tag k="place" v="farm" />
		<tag k="ssr:stedsnr" v="306642" />
	</node>
<<<<<<< HEAD
	<node lat="59.301013888522085" lon="6.271747229386966" id="-2022">
		<tag k="name" v="Sandvik" />
=======
	<node id="-27829" lat="59.2731882733" lon="6.19478772732">
		<tag k="alt_name" v="Bastli" />
		<tag k="fixme" v="consider place=hamlet" />
		<tag k="name" v="Bastlia" />
>>>>>>> e1d4bc35ff8a6074a6f2e91616a996b547c36f15
		<tag k="place" v="farm" />
		<tag k="ssr:stedsnr" v="306948" />
	</node>
<<<<<<< HEAD
	<node lat="59.21404166653881" lon="6.115052774050211" id="-2027">
		<tag k="name" v="Vigavågen" />
=======
	<node id="-28852" lat="59.2729973855" lon="6.14819595138">
		<tag k="alt_name" v="Fosså" />
		<tag k="fixme" v="consider place=hamlet" />
		<tag k="name" v="Fossåna" />
>>>>>>> e1d4bc35ff8a6074a6f2e91616a996b547c36f15
		<tag k="place" v="farm" />
		<tag k="ssr:stedsnr" v="344084" />
	</node>
<<<<<<< HEAD
	<node lat="59.217058330629904" lon="6.087158333479856" id="-2035">
		<tag k="name" v="Saltkjel" />
		<tag k="place" v="locality" />
		<tag k="ssr:stedsnr" v="358692" />
	</node>
	<node lat="59.12680278079085" lon="6.39526666247022" id="-2081">
		<tag k="historic" v="shieling" />
		<tag k="name" v="Åsestølen" />
		<tag k="place" v="isolated_dwelling" />
		<tag k="ssr:stedsnr" v="363441" />
	</node>
	<node lat="59.24655746384842" lon="6.371166692428197" id="-2109">
=======
	<node id="-29470" lat="59.2585999988" lon="6.47942499314">
		<tag k="historic" v="shieling" />
		<tag k="name" v="Botnen" />
		<tag k="place" v="locality" />
		<tag k="ssr:stedsnr" v="852097" />
	</node>
	<node id="-27826" lat="59.2205860201" lon="6.14710206251">
>>>>>>> e1d4bc35ff8a6074a6f2e91616a996b547c36f15
		<tag k="fixme" v="consider place=hamlet" />
		<tag k="name" v="Meland" />
		<tag k="place" v="farm" />
<<<<<<< HEAD
		<tag k="ssr:stedsnr" v="365285" />
	</node>
	<node lat="59.21680555333497" lon="6.292300001660179" id="-2114">
		<tag k="alt_name" v="Grøstøl" />
		<tag k="historic" v="shieling" />
		<tag k="name" v="Grøvstøl" />
		<tag k="place" v="isolated_dwelling" />
		<tag k="ssr:stedsnr" v="365464" />
	</node>
	<node lat="59.221574525627354" lon="6.152271625274919" id="-2122">
		<tag k="fixme" v="consider place=hamlet" />
		<tag k="name" v="Kro" />
		<tag k="place" v="farm" />
		<tag k="ssr:stedsnr" v="365972" />
	</node>
	<node lat="59.27012694022352" lon="6.335673681343934" id="-2127">
		<tag k="alt_name" v="Tøtlandsvika" />
		<tag k="name" v="Tøtlandsvik" />
=======
		<tag k="ssr:stedsnr" v="790958" />
	</node>
	<node id="-26739" lat="59.1922222244" lon="6.07960555422">
		<tag k="name" v="Heimly" />
		<tag k="place" v="farm" />
		<tag k="ssr:stedsnr" v="284629" />
	</node>
	<node id="-27848" lat="59.1754940385" lon="6.13448060354">
		<tag k="alt_name" v="Flat-Hetland" />
		<tag k="fixme" v="consider place=hamlet" />
		<tag k="name" v="Flathetland" />
		<tag k="place" v="farm" />
		<tag k="ssr:stedsnr" v="851614" />
	</node>
	<node id="-27933" lat="59.1542004455" lon="6.38797554442">
		<tag k="fixme" v="consider place=hamlet" />
		<tag k="name" v="Hia" />
		<tag k="place" v="farm" />
		<tag k="ssr:stedsnr" v="1375" />
	</node>
	<node id="-28844" lat="59.1946774058" lon="6.42533360601">
		<tag k="fixme" v="consider tourism=alpine_hut or tourism=chalet" />
		<tag k="name" v="Trodla-Tysdal" />
		<tag k="old_name" v="Trollatysdal" />
		<tag k="ssr:stedsnr" v="427471" />
		<tag k="tourism" v="wilderness_hut" />
	</node>
	<node id="-26557" lat="59.1174666635" lon="6.30689166384">
		<tag k="alt_name" v="Leike;Orraleiken" />
		<tag k="name" v="Leiken" />
		<tag k="place" v="farm" />
		<tag k="ssr:stedsnr" v="219083" />
	</node>
	<node id="-26793" lat="59.1411000019" lon="6.04339167175">
		<tag k="name" v="Grønvik" />
>>>>>>> e1d4bc35ff8a6074a6f2e91616a996b547c36f15
		<tag k="place" v="hamlet" />
		<tag k="ssr:stedsnr" v="366070" />
	</node>
<<<<<<< HEAD
	<node lat="59.25741041640434" lon="6.372661329966649" id="-2130">
		<tag k="alt_name" v="Tveidå" />
		<tag k="fixme" v="consider place=hamlet" />
		<tag k="name" v="Tveita" />
		<tag k="place" v="farm" />
		<tag k="ssr:stedsnr" v="366087" />
	</node>
	<node lat="59.251838889611584" lon="6.291011103787017" id="-2132">
		<tag k="alt_name" v="Vigjå" />
		<tag k="name" v="Vika" />
		<tag k="place" v="farm" />
		<tag k="ssr:stedsnr" v="366092" />
	</node>
	<node lat="59.27999166587521" lon="6.773222225776185" id="-2136">
		<tag k="name" v="Jensahelleren" />
		<tag k="place" v="locality" />
		<tag k="ssr:stedsnr" v="366136" />
	</node>
	<node lat="59.13981388718617" lon="6.043433336809087" id="-2139">
		<tag k="name" v="Grønevika" />
=======
	<node id="-28665" lat="59.1575400807" lon="6.20498426128">
		<tag k="alt_name" v="Østerhus" />
		<tag k="fixme" v="consider place=hamlet" />
		<tag k="name" v="Østrehus" />
		<tag k="place" v="farm" />
		<tag k="ssr:stedsnr" v="365605" />
	</node>
	<node id="-29350" lat="59.2866684407" lon="6.1245049651">
		<tag k="name" v="Knutsvika" />
		<tag k="place" v="hamlet" />
		<tag k="ssr:stedsnr" v="848330" />
	</node>
	<node id="-28325" lat="59.1769819969" lon="6.16189972322">
		<tag k="fixme" v="consider place=hamlet" />
		<tag k="name" v="Erland" />
>>>>>>> e1d4bc35ff8a6074a6f2e91616a996b547c36f15
		<tag k="place" v="farm" />
		<tag k="ssr:stedsnr" v="366572" />
	</node>
<<<<<<< HEAD
	<node lat="59.3445888859857" lon="6.5064055583332845" id="-2141">
		<tag k="historic" v="shieling" />
		<tag k="name" v="Skjøla" />
		<tag k="place" v="isolated_dwelling" />
		<tag k="ssr:stedsnr" v="366866" />
	</node>
	<node lat="59.32893888658909" lon="6.445474995966372" id="-2146">
		<tag k="fixme" v="consider place=hamlet" />
		<tag k="name" v="Jøsenfjorden" />
		<tag k="place" v="village" />
		<tag k="ssr:stedsnr" v="384978" />
	</node>
	<node lat="59.13969444895749" lon="6.314261114026648" id="-2155">
		<tag k="name" v="Egland" />
		<tag k="place" v="farm" />
		<tag k="ssr:stedsnr" v="410909" />
	</node>
	<node lat="59.16495555724364" lon="6.173683329086465" id="-2186">
		<tag k="name" v="Nedre Øyane" />
=======
	<node id="-28835" lat="59.194133333" lon="6.05005555923">
		<tag k="alt_name" v="Grønnevik" />
		<tag k="name" v="Grønevika" />
>>>>>>> e1d4bc35ff8a6074a6f2e91616a996b547c36f15
		<tag k="place" v="farm" />
		<tag k="ssr:stedsnr" v="424239" />
	</node>
<<<<<<< HEAD
	<node lat="59.14174826966377" lon="6.3040496370196575" id="-2218">
		<tag k="fixme" v="consider place=hamlet" />
		<tag k="name" v="Riveland" />
		<tag k="place" v="farm" />
		<tag k="ssr:stedsnr" v="426390" />
	</node>
	<node lat="59.14126821633826" lon="6.320196211470515" id="-2219">
=======
	<node id="-27675" lat="59.1480567996" lon="6.37324015741">
		<tag k="fixme" v="consider place=hamlet" />
		<tag k="name" v="Selflot" />
		<tag k="place" v="farm" />
		<tag k="ssr:stedsnr" v="909446" />
	</node>
	<node id="-29344" lat="59.1736631883" lon="6.15062925171">
>>>>>>> e1d4bc35ff8a6074a6f2e91616a996b547c36f15
		<tag k="fixme" v="consider place=hamlet" />
		<tag k="name" v="Egland" />
		<tag k="place" v="farm" />
		<tag k="ssr:stedsnr" v="426391" />
	</node>
<<<<<<< HEAD
	<node lat="59.240769446295616" lon="6.424297223382763" id="-2228">
=======
	<node id="-28016" lat="59.1552333314" lon="6.21484445221">
		<tag k="name" v="Dalane" />
		<tag k="place" v="farm" />
		<tag k="ssr:stedsnr" v="60264" />
	</node>
	<node id="-27386" lat="59.2903549746" lon="6.14846660025">
		<tag k="fixme" v="consider place=hamlet" />
		<tag k="name" v="Åsland" />
		<tag k="place" v="farm" />
		<tag k="ssr:stedsnr" v="608652" />
	</node>
	<node id="-26781" lat="59.2402500019" lon="6.4370027692">
>>>>>>> e1d4bc35ff8a6074a6f2e91616a996b547c36f15
		<tag k="historic" v="shieling" />
		<tag k="name" v="Øyastøl" />
		<tag k="place" v="isolated_dwelling" />
		<tag k="ssr:stedsnr" v="426269" />
	</node>
<<<<<<< HEAD
	<node lat="59.29448202940633" lon="6.291831829640672" id="-2236">
		<tag k="alt_name" v="Ytre Eiane" />
=======
	<node id="-29340" lat="59.2257596659" lon="6.1397657497">
>>>>>>> e1d4bc35ff8a6074a6f2e91616a996b547c36f15
		<tag k="fixme" v="consider place=hamlet" />
		<tag k="name" v="Ytre Eidane" />
		<tag k="old_name" v="Eidane, yt" />
		<tag k="place" v="farm" />
		<tag k="ssr:stedsnr" v="427935" />
	</node>
<<<<<<< HEAD
	<node lat="59.206823443444016" lon="6.097837896471617" id="-2241">
		<tag k="alt_name" v="Døvik" />
=======
	<node id="-28823" lat="59.1412682163" lon="6.32019621147">
>>>>>>> e1d4bc35ff8a6074a6f2e91616a996b547c36f15
		<tag k="fixme" v="consider place=hamlet" />
		<tag k="name" v="Døvika" />
		<tag k="place" v="farm" />
		<tag k="ssr:stedsnr" v="426938" />
	</node>
<<<<<<< HEAD
	<node lat="59.194133333002334" lon="6.050055559232322" id="-2244">
		<tag k="alt_name" v="Grønnevik" />
		<tag k="name" v="Grønevika" />
=======
	<node id="-28822" lat="59.1417482697" lon="6.30404963702">
		<tag k="fixme" v="consider place=hamlet" />
		<tag k="name" v="Riveland" />
>>>>>>> e1d4bc35ff8a6074a6f2e91616a996b547c36f15
		<tag k="place" v="farm" />
		<tag k="ssr:stedsnr" v="426900" />
	</node>
<<<<<<< HEAD
	<node lat="59.14306666684183" lon="6.060027777314451" id="-2259">
		<tag k="name" v="Skjelsvika" />
		<tag k="place" v="farm" />
		<tag k="ssr:stedsnr" v="427562" />
	</node>
	<node lat="59.27732499589395" lon="6.341061106941165" id="-2303">
		<tag k="name" v="Repp" />
=======
	<node id="-29291" lat="59.1887284613" lon="6.02167753236">
		<tag k="fixme" v="consider place=hamlet" />
		<tag k="name" v="Hovda" />
		<tag k="place" v="farm" />
		<tag k="ssr:stedsnr" v="790903" />
	</node>
	<node id="-29280" lat="59.1651584166" lon="6.10841986731">
		<tag k="alt_name" v="Bratt-Hetland" />
		<tag k="fixme" v="consider place=hamlet" />
		<tag k="name" v="Bratthetland" />
		<tag k="place" v="farm" />
		<tag k="ssr:stedsnr" v="790640" />
	</node>
	<node id="-28384" lat="59.1195873501" lon="6.22439065796">
		<tag k="alt_name" v="Boremyr" />
		<tag k="fixme" v="consider place=hamlet" />
		<tag k="name" v="Boremyra" />
		<tag k="place" v="farm" />
		<tag k="ssr:stedsnr" v="183392" />
	</node>
	<node id="-29327" lat="59.1540083374" lon="6.1761444376">
		<tag k="name" v="Øvre Mele" />
>>>>>>> e1d4bc35ff8a6074a6f2e91616a996b547c36f15
		<tag k="place" v="farm" />
		<tag k="ssr:stedsnr" v="545585" />
	</node>
<<<<<<< HEAD
	<node lat="59.114991669413" lon="6.403536119186414" id="-2331">
		<tag k="historic" v="shieling" />
		<tag k="name" v="Flærne" />
		<tag k="place" v="isolated_dwelling" />
		<tag k="ssr:stedsnr" v="547132" />
	</node>
	<node lat="59.24076388676822" lon="6.520549997059893" id="-2337">
		<tag k="fixme" v="consider tourism=alpine_hut or tourism=chalet" />
		<tag k="name" v="Melands-Grønahei" />
		<tag k="old_name" v="Grønaheia turisthytte" />
		<tag k="ssr:stedsnr" v="547335" />
		<tag k="tourism" v="wilderness_hut" />
	</node>
	<node lat="59.21855832935037" lon="6.219708338681354" id="-2339">
		<tag k="name" v="Einarvoll" />
		<tag k="place" v="farm" />
		<tag k="ssr:stedsnr" v="547342" />
	</node>
	<node lat="59.18968055769355" lon="6.674724999044076" id="-2341">
		<tag k="fixme" v="consider tourism=alpine_hut or tourism=chalet" />
		<tag k="name" v="Nilsebu" />
		<tag k="ssr:stedsnr" v="547250" />
		<tag k="tourism" v="wilderness_hut" />
	</node>
	<node lat="59.14538191573162" lon="6.367317973192923" id="-2344">
		<tag k="fixme" v="consider place=hamlet" />
		<tag k="name" v="Åse" />
		<tag k="place" v="farm" />
		<tag k="ssr:stedsnr" v="547446" />
	</node>
	<node lat="59.13500064843168" lon="6.18151125106055" id="-2351">
=======
	<node id="-27757" lat="59.2800650581" lon="6.16622007537">
		<tag k="fixme" v="consider place=hamlet" />
		<tag k="name" v="Foss" />
		<tag k="place" v="farm" />
		<tag k="ssr:stedsnr" v="912618" />
	</node>
	<node id="-27948" lat="59.2036694412" lon="6.04856666883">
		<tag k="alt_name" v="Sandanger" />
		<tag k="name" v="Sandang" />
		<tag k="place" v="farm" />
		<tag k="ssr:stedsnr" v="1939" />
	</node>
	<node id="-27275" lat="59.2981777792" lon="6.27595832893">
		<tag k="name" v="Eidavågen" />
		<tag k="place" v="farm" />
		<tag k="ssr:stedsnr" v="670954" />
	</node>
	<node id="-27272" lat="59.3513277767" lon="6.45939444578">
		<tag k="name" v="Moldbakken" />
		<tag k="place" v="farm" />
		<tag k="ssr:stedsnr" v="670936" />
	</node>
	<node id="-29319" lat="59.3011638907" lon="6.47576944099">
		<tag k="alt_name" v="Jonsstølen" />
		<tag k="historic" v="shieling" />
		<tag k="name" v="Jonsstøl" />
		<tag k="place" v="locality" />
		<tag k="ssr:stedsnr" v="791932" />
	</node>
	<node id="-27782" lat="59.2586250013" lon="6.37486944368">
		<tag k="name" v="Moen" />
		<tag k="place" v="farm" />
		<tag k="ssr:stedsnr" v="913110" />
	</node>
	<node id="-29317" lat="59.3540431787" lon="6.45128943087">
		<tag k="alt_name" v="Krumshagen" />
>>>>>>> e1d4bc35ff8a6074a6f2e91616a996b547c36f15
		<tag k="fixme" v="consider place=hamlet" />
		<tag k="name" v="Stølen" />
		<tag k="place" v="farm" />
		<tag k="ssr:stedsnr" v="547555" />
	</node>
<<<<<<< HEAD
	<node lat="59.22468333729707" lon="6.065824992273892" id="-2362">
		<tag k="name" v="Valvik" />
=======
	<node id="-27780" lat="59.2520611109" lon="6.37847777388">
		<tag k="name" v="Midbø" />
>>>>>>> e1d4bc35ff8a6074a6f2e91616a996b547c36f15
		<tag k="place" v="farm" />
		<tag k="ssr:stedsnr" v="547954" />
	</node>
<<<<<<< HEAD
	<node lat="59.29765000433713" lon="6.116350002909373" id="-2369">
		<tag k="name" v="Øygarden" />
		<tag k="place" v="farm" />
		<tag k="ssr:stedsnr" v="548527" />
	</node>
	<node lat="59.11130855769784" lon="6.195615836693234" id="-2372">
		<tag k="fixme" v="consider place=hamlet" />
		<tag k="name" v="Måland" />
		<tag k="place" v="farm" />
		<tag k="ssr:stedsnr" v="548728" />
	</node>
	<node lat="59.2876410423742" lon="6.42831244614018" id="-2382">
		<tag k="alt_name" v="Raudlendet" />
=======
	<node id="-28291" lat="59.3565327768" lon="6.45433877473">
		<tag k="fixme" v="consider place=hamlet" />
		<tag k="name" v="Gil" />
		<tag k="place" v="farm" />
		<tag k="ssr:stedsnr" v="124922" />
	</node>
	<node id="-27778" lat="59.2371449936" lon="6.18413065217">
		<tag k="fixme" v="consider place=hamlet" />
		<tag k="name" v="Sæbø" />
		<tag k="place" v="farm" />
		<tag k="ssr:stedsnr" v="912991" />
	</node>
	<node id="-29313" lat="59.2446617521" lon="6.24421387158">
>>>>>>> e1d4bc35ff8a6074a6f2e91616a996b547c36f15
		<tag k="fixme" v="consider place=hamlet" />
		<tag k="name" v="Raudlende" />
		<tag k="place" v="farm" />
		<tag k="ssr:stedsnr" v="548946" />
	</node>
<<<<<<< HEAD
	<node lat="59.15036666891565" lon="6.172513890083351" id="-2386">
		<tag k="name" v="Nedre Mele" />
		<tag k="place" v="farm" />
		<tag k="ssr:stedsnr" v="572881" />
	</node>
	<node lat="59.2005101552089" lon="6.0126254124451135" id="-2389">
		<tag k="alt_name" v="Kådaberget" />
		<tag k="name" v="Kotaberg" />
=======
	<node id="-27775" lat="59.2975666662" lon="6.38399443775">
		<tag k="historic" v="shieling" />
		<tag k="name" v="Oksabåsen" />
>>>>>>> e1d4bc35ff8a6074a6f2e91616a996b547c36f15
		<tag k="place" v="locality" />
		<tag k="ssr:stedsnr" v="583180" />
	</node>
	<node lat="59.26914166595206" lon="6.153783334105372" id="-2390">
		<tag k="name" v="Snik" />
		<tag k="place" v="farm" />
		<tag k="ssr:stedsnr" v="584937" />
	</node>
<<<<<<< HEAD
	<node lat="59.176154062149074" lon="6.063334192210478" id="-2398">
=======
	<node id="-28286" lat="59.3260859926" lon="6.40150607632">
>>>>>>> e1d4bc35ff8a6074a6f2e91616a996b547c36f15
		<tag k="fixme" v="consider place=hamlet" />
		<tag k="name" v="Nedre Fister" />
		<tag k="place" v="farm" />
		<tag k="ssr:stedsnr" v="605076" />
	</node>
<<<<<<< HEAD
	<node lat="59.151272225016804" lon="6.10604722696303" id="-2403">
		<tag k="name" v="Store Nessa" />
=======
	<node id="-28102" lat="59.1681499965" lon="6.04952777346">
		<tag k="alt_name" v="Tønnevik" />
		<tag k="name" v="Tønnevika" />
		<tag k="place" v="farm" />
		<tag k="ssr:stedsnr" v="62603" />
	</node>
	<node id="-27771" lat="59.2132166643" lon="6.11717222681">
		<tag k="alt_name" v="Hauskjevågen" />
		<tag k="name" v="Hauskevågen" />
>>>>>>> e1d4bc35ff8a6074a6f2e91616a996b547c36f15
		<tag k="place" v="farm" />
		<tag k="ssr:stedsnr" v="605342" />
	</node>
<<<<<<< HEAD
	<node lat="59.24332777836564" lon="6.3769638957667025" id="-2444">
		<tag k="name" v="Haugen" />
=======
	<node id="-27770" lat="59.3386027767" lon="6.44861388556">
		<tag k="name" v="Moen" />
>>>>>>> e1d4bc35ff8a6074a6f2e91616a996b547c36f15
		<tag k="place" v="farm" />
		<tag k="ssr:stedsnr" v="606277" />
	</node>
<<<<<<< HEAD
	<node lat="59.2320848426549" lon="6.255111567387186" id="-2452">
		<tag k="fixme" v="consider place=hamlet" />
		<tag k="name" v="Hetland" />
		<tag k="place" v="farm" />
		<tag k="ssr:stedsnr" v="607289" />
	</node>
	<node lat="59.25548611425161" lon="6.372950005301696" id="-2465">
		<tag k="alt_name" v="Flåtå" />
		<tag k="historic" v="shieling" />
		<tag k="name" v="Flota" />
		<tag k="place" v="isolated_dwelling" />
		<tag k="ssr:stedsnr" v="609101" />
	</node>
	<node lat="59.261825002971264" lon="6.351758333013003" id="-2467">
		<tag k="alt_name" v="Liå" />
		<tag k="historic" v="shieling" />
		<tag k="name" v="Lia" />
		<tag k="place" v="isolated_dwelling" />
		<tag k="ssr:stedsnr" v="609115" />
	</node>
	<node lat="59.2410916654587" lon="6.448361111453538" id="-2469">
		<tag k="historic" v="shieling" />
		<tag k="name" v="Stropastøl" />
		<tag k="place" v="isolated_dwelling" />
		<tag k="ssr:stedsnr" v="608302" />
	</node>
	<node lat="59.21454859688228" lon="6.2384504763820186" id="-2474">
=======
	<node id="-26741" lat="59.189036113" lon="6.0082833316">
		<tag k="name" v="Hovdaplasset" />
		<tag k="place" v="locality" />
		<tag k="ssr:stedsnr" v="181006" />
	</node>
	<node id="-29299" lat="59.2127876089" lon="6.0739044233">
		<tag k="alt_name" v="Ytre Dale" />
>>>>>>> e1d4bc35ff8a6074a6f2e91616a996b547c36f15
		<tag k="fixme" v="consider place=hamlet" />
		<tag k="name" v="Husstøl" />
		<tag k="place" v="farm" />
		<tag k="ssr:stedsnr" v="608315" />
	</node>
<<<<<<< HEAD
	<node lat="59.128956866745774" lon="6.270942232691996" id="-2477">
=======
	<node id="-27381" lat="59.1509339381" lon="6.10668149927">
		<tag k="name" v="Nessa" />
		<tag k="place" v="hamlet" />
		<tag k="ssr:stedsnr" v="608612" />
	</node>
	<node id="-29297" lat="59.2048245816" lon="6.1274078827">
		<tag k="alt_name" v="Hauskje" />
>>>>>>> e1d4bc35ff8a6074a6f2e91616a996b547c36f15
		<tag k="fixme" v="consider place=hamlet" />
		<tag k="name" v="Ullestad" />
		<tag k="old_name" v="Ullstad" />
		<tag k="place" v="farm" />
		<tag k="ssr:stedsnr" v="608432" />
	</node>
<<<<<<< HEAD
	<node lat="59.124324997254305" lon="6.284258326269812" id="-2478">
		<tag k="alt_name" v="Leide" />
		<tag k="name" v="Leitet" />
=======
	<node id="-28272" lat="59.2632750028" lon="6.16014999983">
		<tag k="name" v="Sanden" />
>>>>>>> e1d4bc35ff8a6074a6f2e91616a996b547c36f15
		<tag k="place" v="farm" />
		<tag k="ssr:stedsnr" v="608436" />
	</node>
<<<<<<< HEAD
	<node lat="59.18526389091741" lon="6.3041833408534" id="-2482">
		<tag k="historic" v="shieling" />
		<tag k="name" v="Vasstøl" />
		<tag k="place" v="isolated_dwelling" />
		<tag k="ssr:stedsnr" v="608483" />
	</node>
	<node lat="59.15277777985737" lon="6.1611111064578274" id="-2483">
		<tag k="name" v="Årdal" />
		<tag k="place" v="village" />
		<tag k="ssr:stedsnr" v="608593" />
	</node>
	<node lat="59.29035497464512" lon="6.148466600250829" id="-2484">
		<tag k="fixme" v="consider place=hamlet" />
		<tag k="name" v="Åsland" />
		<tag k="place" v="farm" />
		<tag k="ssr:stedsnr" v="608652" />
	</node>
	<node lat="59.15093393810591" lon="6.1066814992724785" id="-2490">
		<tag k="name" v="Nessa" />
		<tag k="place" v="hamlet" />
		<tag k="ssr:stedsnr" v="608612" />
	</node>
	<node lat="59.15879989235746" lon="6.035915417119762" id="-2493">
		<tag k="fixme" v="consider place=hamlet" />
		<tag k="name" v="Sigmundstad" />
		<tag k="place" v="farm" />
		<tag k="ssr:stedsnr" v="608625" />
	</node>
	<node lat="59.31259608774818" lon="6.3424704468066695" id="-2507">
		<tag k="alt_name" v="Eidane, in;Indre Eiane" />
		<tag k="fixme" v="consider place=hamlet" />
		<tag k="name" v="Indre Eidane" />
		<tag k="place" v="farm" />
		<tag k="ssr:stedsnr" v="609978" />
	</node>
	<node lat="59.31917500202287" lon="6.53296389337717" id="-2510">
		<tag k="name" v="Skog" />
		<tag k="place" v="locality" />
		<tag k="ssr:stedsnr" v="609998" />
	</node>
	<node lat="59.2334361131909" lon="6.153475003233441" id="-2512">
		<tag k="name" v="Puntsnes" />
=======
	<node id="-27759" lat="59.1584424928" lon="6.20120431888">
		<tag k="alt_name" v="Kyrkhus" />
		<tag k="fixme" v="consider place=hamlet" />
		<tag k="name" v="Kyrkjehus" />
		<tag k="place" v="farm" />
		<tag k="ssr:stedsnr" v="912620" />
	</node>
	<node id="-27758" lat="59.2754749991" lon="6.16152500691">
		<tag k="alt_name" v="Løgjedn" />
		<tag k="name" v="Løkene" />
		<tag k="place" v="farm" />
		<tag k="ssr:stedsnr" v="912619" />
	</node>
	<node id="-27245" lat="59.2861999964" lon="6.12397777017">
		<tag k="alt_name" v="Knutsvika, søra;Søre Knutsvik" />
		<tag k="name" v="Søra Knutsvika" />
		<tag k="place" v="farm" />
		<tag k="ssr:stedsnr" v="669620" />
	</node>
	<node id="-28267" lat="59.2125280869" lon="6.40134661193">
		<tag k="fixme" v="consider place=hamlet" />
		<tag k="name" v="Helgaland" />
		<tag k="place" v="farm" />
		<tag k="ssr:stedsnr" v="123492" />
	</node>
	<node id="-26730" lat="59.2310768313" lon="6.15755800947">
		<tag k="fixme" v="consider place=hamlet" />
		<tag k="name" v="Puntsnes" />
		<tag k="place" v="farm" />
		<tag k="ssr:stedsnr" v="147854" />
	</node>
	<node id="-28265" lat="59.1436355161" lon="6.23902638741">
		<tag k="alt_name" v="Valeim, øvre" />
		<tag k="fixme" v="consider place=hamlet" />
		<tag k="name" v="Øvre Valheim" />
>>>>>>> e1d4bc35ff8a6074a6f2e91616a996b547c36f15
		<tag k="place" v="farm" />
		<tag k="ssr:stedsnr" v="633910" />
	</node>
<<<<<<< HEAD
	<node lat="59.153358331343476" lon="6.097177779720019" id="-2513">
		<tag k="name" v="Hala" />
=======
	<node id="-28264" lat="59.1350805531" lon="6.26331389419">
		<tag k="alt_name" v="Brunå" />
		<tag k="name" v="Bruna" />
>>>>>>> e1d4bc35ff8a6074a6f2e91616a996b547c36f15
		<tag k="place" v="farm" />
		<tag k="ssr:stedsnr" v="647470" />
	</node>
<<<<<<< HEAD
	<node lat="59.13622499643868" lon="6.020833341680175" id="-2519">
		<tag k="name" v="Utheim" />
		<tag k="place" v="farm" />
		<tag k="ssr:stedsnr" v="661525" />
	</node>
	<node lat="59.210458330894014" lon="6.074508326047784" id="-2523">
		<tag k="name" v="Slåttegraven" />
		<tag k="place" v="locality" />
		<tag k="ssr:stedsnr" v="661648" />
	</node>
	<node lat="59.14920003851895" lon="6.050593317779119" id="-2574">
		<tag k="fixme" v="consider place=hamlet" />
		<tag k="name" v="Øvrabø" />
=======
	<node id="-26727" lat="59.2313270325" lon="6.15684614252">
		<tag k="name" v="Puntsnes" />
		<tag k="place" v="farm" />
		<tag k="ssr:stedsnr" v="269885" />
	</node>
	<node id="-28778" lat="59.2352033934" lon="6.18234062002">
		<tag k="fixme" v="consider place=hamlet" />
		<tag k="name" v="Prestagarden" />
		<tag k="place" v="farm" />
		<tag k="ssr:stedsnr" v="424391" />
	</node>
	<node id="-27748" lat="59.1360833353" lon="6.25215000144">
		<tag k="name" v="Storemo" />
>>>>>>> e1d4bc35ff8a6074a6f2e91616a996b547c36f15
		<tag k="place" v="farm" />
		<tag k="ssr:stedsnr" v="666679" />
	</node>
<<<<<<< HEAD
	<node lat="59.1748856956156" lon="6.058391399405058" id="-2595">
		<tag k="alt_name" v="Øvre Fister" />
		<tag k="fixme" v="consider place=hamlet" />
		<tag k="name" v="Øvrehus" />
		<tag k="place" v="farm" />
		<tag k="ssr:stedsnr" v="668638" />
	</node>
	<node lat="59.228519243995684" lon="6.0876322337386455" id="-2599">
		<tag k="fixme" v="consider place=hamlet" />
		<tag k="name" v="Øye" />
		<tag k="place" v="farm" />
		<tag k="ssr:stedsnr" v="668940" />
	</node>
	<node lat="59.23102410582659" lon="6.621915202758216" id="-2609">
		<tag k="fixme" v="consider tourism=alpine_hut or tourism=chalet" />
		<tag k="name" v="Grasdalen" />
		<tag k="old_name" v="Grasdalen turisthytte" />
		<tag k="ssr:stedsnr" v="669225" />
		<tag k="tourism" v="wilderness_hut" />
	</node>
	<node lat="59.13853401898517" lon="6.229033710637775" id="-2613">
		<tag k="fixme" v="consider place=hamlet" />
		<tag k="name" v="Tjentland" />
		<tag k="place" v="farm" />
		<tag k="ssr:stedsnr" v="669392" />
	</node>
	<node lat="59.286199996377896" lon="6.1239777701743545" id="-2615">
		<tag k="alt_name" v="Knutsvika, søra;Søre Knutsvik" />
		<tag k="name" v="Søra Knutsvika" />
=======
	<node id="-27725" lat="59.2193861103" lon="6.04815555234">
		<tag k="name" v="Vikane" />
		<tag k="place" v="farm" />
		<tag k="ssr:stedsnr" v="911933" />
	</node>
	<node id="-29282" lat="59.1983666633" lon="6.27976389748">
		<tag k="historic" v="shieling" />
		<tag k="name" v="Saupstøl" />
		<tag k="place" v="locality" />
		<tag k="ssr:stedsnr" v="790469" />
	</node>
	<node id="-28256" lat="59.2529183608" lon="6.28261364238">
		<tag k="alt_name" v="Bjelland" />
		<tag k="fixme" v="consider place=hamlet" />
		<tag k="name" v="Bjølland" />
		<tag k="place" v="farm" />
		<tag k="ssr:stedsnr" v="123116" />
	</node>
	<node id="-27743" lat="59.2421638863" lon="6.2717694426">
		<tag k="name" v="Skogen" />
>>>>>>> e1d4bc35ff8a6074a6f2e91616a996b547c36f15
		<tag k="place" v="farm" />
		<tag k="ssr:stedsnr" v="669620" />
	</node>
<<<<<<< HEAD
	<node lat="59.240380551984046" lon="6.180261109698829" id="-2643">
		<tag k="name" v="Nordbygda" />
		<tag k="place" v="quarter" />
		<tag k="ssr:stedsnr" v="723219" />
	</node>
	<node lat="59.16972777816316" lon="6.165011104938608" id="-2664">
		<tag k="name" v="Vodl" />
=======
	<node id="-26736" lat="59.2308361068" lon="6.06962222802">
		<tag k="name" v="Dreggen" />
		<tag k="place" v="isolated_dwelling" />
		<tag k="ssr:stedsnr" v="284086" />
	</node>
	<node id="-29277" lat="59.1558333358" lon="6.20773888134">
		<tag k="name" v="Sie" />
>>>>>>> e1d4bc35ff8a6074a6f2e91616a996b547c36f15
		<tag k="place" v="farm" />
		<tag k="ssr:stedsnr" v="727253" />
	</node>
<<<<<<< HEAD
	<node lat="59.209419080662734" lon="6.008244009364056" id="-2694">
		<tag k="fixme" v="consider place=hamlet" />
		<tag k="name" v="Randa" />
=======
	<node id="-28252" lat="59.2103444487" lon="6.1020861117">
		<tag k="name" v="Vassvika" />
>>>>>>> e1d4bc35ff8a6074a6f2e91616a996b547c36f15
		<tag k="place" v="farm" />
		<tag k="ssr:stedsnr" v="729957" />
	</node>
<<<<<<< HEAD
	<node lat="59.118636113500116" lon="6.219783341452815" id="-2703">
		<tag k="name" v="Haugen" />
		<tag k="place" v="isolated_dwelling" />
		<tag k="ssr:stedsnr" v="729441" />
	</node>
	<node lat="59.121855959148625" lon="6.220190789511759" id="-2704">
		<tag k="fixme" v="consider place=hamlet" />
		<tag k="name" v="Erlia" />
=======
	<node id="-26810" lat="59.1767190552" lon="6.0553510726">
		<tag k="name" v="Følsvik" />
		<tag k="place" v="farm" />
		<tag k="ssr:stedsnr" v="242057" />
	</node>
	<node id="-27226" lat="59.2310241058" lon="6.62191520276">
		<tag k="fixme" v="consider tourism=alpine_hut or tourism=chalet" />
		<tag k="name" v="Grasdalen" />
		<tag k="old_name" v="Grasdalen turisthytte" />
		<tag k="ssr:stedsnr" v="669225" />
		<tag k="tourism" v="wilderness_hut" />
	</node>
	<node id="-28248" lat="59.230802774" lon="6.14999167376">
		<tag k="name" v="Sandbergvika" />
>>>>>>> e1d4bc35ff8a6074a6f2e91616a996b547c36f15
		<tag k="place" v="farm" />
		<tag k="ssr:stedsnr" v="729442" />
	</node>
<<<<<<< HEAD
	<node lat="59.1531250008208" lon="6.213713884860521" id="-2715">
		<tag k="alt_name" v="Myrå" />
		<tag k="name" v="Myra" />
=======
	<node id="-26724" lat="59.2299777785" lon="6.48850000189">
		<tag k="name" v="Raudkleiv" />
		<tag k="place" v="isolated_dwelling" />
		<tag k="ssr:stedsnr" v="123330" />
	</node>
	<node id="-28245" lat="59.1820954377" lon="6.15221372175">
		<tag k="fixme" v="consider place=hamlet" />
		<tag k="name" v="Ingvaldstad" />
>>>>>>> e1d4bc35ff8a6074a6f2e91616a996b547c36f15
		<tag k="place" v="farm" />
		<tag k="ssr:stedsnr" v="730594" />
	</node>
<<<<<<< HEAD
	<node lat="59.15697921473202" lon="6.208115132125081" id="-2718">
		<tag k="alt_name" v="Vadla" />
=======
	<node id="-28244" lat="59.1706054014" lon="6.13073959102">
>>>>>>> e1d4bc35ff8a6074a6f2e91616a996b547c36f15
		<tag k="fixme" v="consider place=hamlet" />
		<tag k="name" v="Valla" />
		<tag k="place" v="farm" />
		<tag k="ssr:stedsnr" v="730648" />
	</node>
<<<<<<< HEAD
	<node lat="59.15259592722067" lon="6.167577732388844" id="-2726">
		<tag k="name" v="Nedre Mele" />
=======
	<node id="-27213" lat="59.228519244" lon="6.08763223374">
		<tag k="fixme" v="consider place=hamlet" />
		<tag k="name" v="Øye" />
		<tag k="place" v="farm" />
		<tag k="ssr:stedsnr" v="668940" />
	</node>
	<node id="-28242" lat="59.1580999969" lon="6.21973055327">
		<tag k="name" v="Brekka" />
>>>>>>> e1d4bc35ff8a6074a6f2e91616a996b547c36f15
		<tag k="place" v="farm" />
		<tag k="ssr:stedsnr" v="754875" />
	</node>
	<node lat="59.14681944560864" lon="6.076130556989799" id="-2787">
		<tag k="name" v="Flådå" />
		<tag k="place" v="farm" />
		<tag k="ssr:stedsnr" v="788696" />
	</node>
<<<<<<< HEAD
	<node lat="59.123200002567415" lon="6.386852769790321" id="-2790">
=======
	<node id="-29265" lat="59.1232000026" lon="6.38685276979">
>>>>>>> e1d4bc35ff8a6074a6f2e91616a996b547c36f15
		<tag k="historic" v="shieling" />
		<tag k="name" v="Tjørnastøl" />
		<tag k="place" v="isolated_dwelling" />
		<tag k="ssr:stedsnr" v="790069" />
	</node>
<<<<<<< HEAD
	<node lat="59.12382777673877" lon="6.225127775435322" id="-2796">
		<tag k="name" v="Lakkåsen" />
		<tag k="place" v="farm" />
		<tag k="ssr:stedsnr" v="790441" />
	</node>
	<node lat="59.180899853935294" lon="6.565154895176319" id="-2799">
		<tag k="fixme" v="consider tourism=alpine_hut or tourism=chalet" />
		<tag k="name" v="Stakken" />
		<tag k="ssr:stedsnr" v="790513" />
		<tag k="tourism" v="wilderness_hut" />
	</node>
	<node lat="59.15445426171001" lon="6.17785581240426" id="-2804">
		<tag k="fixme" v="consider place=hamlet" />
		<tag k="name" v="Mele" />
		<tag k="place" v="farm" />
		<tag k="ssr:stedsnr" v="790367" />
	</node>
	<node lat="59.19836666331717" lon="6.279763897483585" id="-2807">
		<tag k="historic" v="shieling" />
		<tag k="name" v="Saupstøl" />
		<tag k="place" v="isolated_dwelling" />
		<tag k="ssr:stedsnr" v="790469" />
	</node>
	<node lat="59.22058602011509" lon="6.1471020625135395" id="-2809">
		<tag k="fixme" v="consider place=hamlet" />
		<tag k="name" v="Lerstøl" />
		<tag k="place" v="farm" />
		<tag k="ssr:stedsnr" v="790958" />
	</node>
	<node lat="59.15583333575918" lon="6.207738881335375" id="-2817">
		<tag k="name" v="Sie" />
=======
	<node id="-28287" lat="59.2519027741" lon="6.49085000772">
		<tag k="historic" v="shieling" />
		<tag k="name" v="Gjotastig" />
		<tag k="place" v="locality" />
		<tag k="ssr:stedsnr" v="124090" />
	</node>
	<node id="-27727" lat="59.2763555551" lon="6.48782499528">
		<tag k="historic" v="shieling" />
		<tag k="name" v="Vasstølen" />
		<tag k="place" v="locality" />
		<tag k="ssr:stedsnr" v="912061" />
	</node>
	<node id="-26702" lat="59.3614138924" lon="6.42761388142">
		<tag k="historic" v="shieling" />
		<tag k="name" v="Leitet" />
		<tag k="place" v="locality" />
		<tag k="ssr:stedsnr" v="245825" />
	</node>
	<node id="-29261" lat="59.1238277767" lon="6.22512777544">
		<tag k="name" v="Lakkåsen" />
>>>>>>> e1d4bc35ff8a6074a6f2e91616a996b547c36f15
		<tag k="place" v="farm" />
		<tag k="ssr:stedsnr" v="790574" />
	</node>
<<<<<<< HEAD
	<node lat="59.15318460757726" lon="6.203266792286631" id="-2818">
		<tag k="alt_name" v="Sedberg" />
		<tag k="name" v="Setberg" />
		<tag k="place" v="hamlet" />
		<tag k="ssr:stedsnr" v="790576" />
	</node>
	<node lat="59.16515841663158" lon="6.108419867310248" id="-2820">
		<tag k="alt_name" v="Bratt-Hetland" />
		<tag k="fixme" v="consider place=hamlet" />
		<tag k="name" v="Bratthetland" />
=======
	<node id="-26700" lat="59.2789092426" lon="6.14105634697">
		<tag k="fixme" v="consider place=hamlet" />
		<tag k="name" v="Skiftun" />
		<tag k="place" v="farm" />
		<tag k="ssr:stedsnr" v="245569" />
	</node>
	<node id="-27490" lat="59.1568740048" lon="6.22721281595">
		<tag k="fixme" v="consider place=hamlet" />
		<tag k="name" v="Skogarbø" />
		<tag k="place" v="farm" />
		<tag k="ssr:stedsnr" v="729480" />
	</node>
	<node id="-28233" lat="59.155536114" lon="6.30221945035">
		<tag k="name" v="Holmane" />
>>>>>>> e1d4bc35ff8a6074a6f2e91616a996b547c36f15
		<tag k="place" v="farm" />
		<tag k="ssr:stedsnr" v="790640" />
	</node>
<<<<<<< HEAD
	<node lat="59.20482458162082" lon="6.127407882696278" id="-2825">
		<tag k="alt_name" v="Hauskje" />
		<tag k="fixme" v="consider place=hamlet" />
		<tag k="name" v="Hauske" />
=======
	<node id="-26696" lat="59.238913893" lon="6.25733333231">
		<tag k="name" v="Nesland" />
>>>>>>> e1d4bc35ff8a6074a6f2e91616a996b547c36f15
		<tag k="place" v="farm" />
		<tag k="ssr:stedsnr" v="790938" />
	</node>
<<<<<<< HEAD
	<node lat="59.24466175208239" lon="6.244213871577944" id="-2833">
=======
	<node id="-28231" lat="59.2399298041" lon="6.38090360775">
>>>>>>> e1d4bc35ff8a6074a6f2e91616a996b547c36f15
		<tag k="fixme" v="consider place=hamlet" />
		<tag k="name" v="Heggland" />
		<tag k="place" v="farm" />
		<tag k="ssr:stedsnr" v="791264" />
	</node>
<<<<<<< HEAD
	<node lat="59.27318827334621" lon="6.194787727315388" id="-2835">
		<tag k="alt_name" v="Bastli" />
		<tag k="fixme" v="consider place=hamlet" />
		<tag k="name" v="Bastlia" />
=======
	<node id="-26694" lat="59.2515750008" lon="6.30275000624">
		<tag k="alt_name" v="Vigane" />
		<tag k="name" v="Vikane" />
>>>>>>> e1d4bc35ff8a6074a6f2e91616a996b547c36f15
		<tag k="place" v="farm" />
		<tag k="ssr:stedsnr" v="791558" />
	</node>
<<<<<<< HEAD
	<node lat="59.30116389072882" lon="6.475769440991649" id="-2840">
		<tag k="alt_name" v="Jonsstølen" />
		<tag k="historic" v="shieling" />
		<tag k="name" v="Jonsstøl" />
		<tag k="place" v="isolated_dwelling" />
		<tag k="ssr:stedsnr" v="791932" />
	</node>
	<node lat="59.22575966593806" lon="6.139765749696139" id="-2857">
		<tag k="fixme" v="consider place=hamlet" />
		<tag k="name" v="Kleppa" />
		<tag k="place" v="farm" />
		<tag k="ssr:stedsnr" v="843748" />
	</node>
	<node lat="59.3298166682082" lon="6.4507555527109535" id="-2874">
		<tag k="amenity" v="school" />
		<tag k="name" v="Jøsenfjorden" />
		<tag k="ssr:stedsnr" v="849396" />
	</node>
	<node lat="59.13598888542796" lon="6.196144450699286" id="-2883">
		<tag k="name" v="Steinskarplasset" />
		<tag k="place" v="locality" />
		<tag k="ssr:stedsnr" v="849358" />
	</node>
	<node lat="59.189030558972156" lon="6.331749994593251" id="-2906">
		<tag k="alt_name" v="Solheimstøl" />
		<tag k="historic" v="shieling" />
		<tag k="name" v="Solheimsstølen" />
		<tag k="place" v="isolated_dwelling" />
		<tag k="ssr:stedsnr" v="851425" />
	</node>
	<node lat="59.150168175864664" lon="6.035593736676271" id="-2911">
=======
	<node id="-27724" lat="59.1760206328" lon="6.17371567347">
		<tag k="alt_name" v="Gjessfjell" />
		<tag k="fixme" v="consider place=hamlet" />
		<tag k="name" v="Geisfjell" />
		<tag k="place" v="farm" />
		<tag k="ssr:stedsnr" v="911627" />
	</node>
	<node id="-26701" lat="59.2897499989" lon="6.12090000417">
		<tag k="alt_name" v="Knutsvika, nordra;Nora Knutsvika" />
		<tag k="name" v="Nordra Knutsvika" />
		<tag k="place" v="farm" />
		<tag k="ssr:stedsnr" v="245586" />
	</node>
	<node id="-28987" lat="59.1447549899" lon="6.06890975631">
		<tag k="alt_name" v="Nordskår" />
		<tag k="fixme" v="consider place=hamlet" />
		<tag k="name" v="Nordskor" />
		<tag k="place" v="farm" />
		<tag k="ssr:stedsnr" v="547619" />
	</node>
	<node id="-28683" lat="59.2574104164" lon="6.37266132997">
		<tag k="alt_name" v="Tveidå" />
		<tag k="fixme" v="consider place=hamlet" />
		<tag k="name" v="Tveita" />
		<tag k="place" v="farm" />
		<tag k="ssr:stedsnr" v="366087" />
	</node>
	<node id="-27232" lat="59.138534019" lon="6.22903371064">
		<tag k="fixme" v="consider place=hamlet" />
		<tag k="name" v="Tjentland" />
		<tag k="place" v="farm" />
		<tag k="ssr:stedsnr" v="669392" />
	</node>
	<node id="-26686" lat="59.2146946391" lon="6.14905065962">
		<tag k="fixme" v="consider place=hamlet" />
		<tag k="name" v="Espeland" />
		<tag k="place" v="farm" />
		<tag k="ssr:stedsnr" v="244925" />
	</node>
	<node id="-29109" lat="59.2433277784" lon="6.37696389577">
		<tag k="name" v="Haugen" />
		<tag k="place" v="farm" />
		<tag k="ssr:stedsnr" v="606277" />
	</node>
	<node id="-28184" lat="59.233127777" lon="6.17521388857">
		<tag k="name" v="Hagebyen" />
		<tag k="place" v="quarter" />
		<tag k="ssr:stedsnr" v="120411" />
	</node>
	<node id="-26626" lat="59.2997666656" lon="6.43317222595">
		<tag k="name" v="Skorane" />
		<tag k="place" v="farm" />
		<tag k="ssr:stedsnr" v="242375" />
	</node>
	<node id="-27192" lat="59.1492000385" lon="6.05059331778">
>>>>>>> e1d4bc35ff8a6074a6f2e91616a996b547c36f15
		<tag k="fixme" v="consider place=hamlet" />
		<tag k="name" v="Mosnes" />
		<tag k="place" v="farm" />
		<tag k="ssr:stedsnr" v="851552" />
	</node>
<<<<<<< HEAD
	<node lat="59.09884722401483" lon="6.263533331653867" id="-2917">
		<tag k="alt_name" v="Tveidestølen" />
		<tag k="historic" v="shieling" />
		<tag k="name" v="Tveitestølen" />
		<tag k="place" v="isolated_dwelling" />
		<tag k="ssr:stedsnr" v="851065" />
	</node>
	<node lat="59.247183582232175" lon="6.36315826425152" id="-2924">
		<tag k="fixme" v="consider place=hamlet" />
		<tag k="name" v="Laugaland" />
		<tag k="place" v="farm" />
		<tag k="ssr:stedsnr" v="851262" />
	</node>
	<node lat="59.23268610718982" lon="6.238124997292514" id="-2926">
		<tag k="alt_name" v="Gåsdal" />
		<tag k="name" v="Gåsdalen" />
		<tag k="place" v="farm" />
		<tag k="ssr:stedsnr" v="851269" />
	</node>
	<node lat="59.15942510243643" lon="6.292807063850407" id="-2928">
		<tag k="alt_name" v="Ragje" />
		<tag k="fixme" v="consider place=hamlet" />
		<tag k="name" v="Rage" />
		<tag k="place" v="farm" />
		<tag k="ssr:stedsnr" v="851363" />
	</node>
	<node lat="59.18511389157849" lon="6.0312194474566585" id="-2930">
		<tag k="name" v="Krossdal" />
=======
	<node id="-27137" lat="59.2104583309" lon="6.07450832605">
		<tag k="name" v="Slåttegraven" />
		<tag k="place" v="locality" />
		<tag k="ssr:stedsnr" v="661648" />
	</node>
	<node id="-28105" lat="59.1819685757" lon="6.10444127127">
		<tag k="alt_name" v="Solbjør" />
		<tag k="fixme" v="consider place=hamlet" />
		<tag k="name" v="Solbjørg" />
		<tag k="place" v="farm" />
		<tag k="ssr:stedsnr" v="62902" />
	</node>
	<node id="-28610" lat="59.1649694474" lon="6.17102222771">
		<tag k="name" v="Øvre Øyane" />
		<tag k="place" v="farm" />
		<tag k="ssr:stedsnr" v="363221" />
	</node>
	<node id="-26871" lat="59.2156805521" lon="6.08427777077">
		<tag k="name" v="Longka" />
		<tag k="place" v="locality" />
		<tag k="ssr:stedsnr" v="465093" />
	</node>
	<node id="-29278" lat="59.1531846076" lon="6.20326679229">
		<tag k="alt_name" v="Sedberg" />
		<tag k="name" v="Setberg" />
		<tag k="place" v="hamlet" />
		<tag k="ssr:stedsnr" v="790576" />
	</node>
	<node id="-28851" lat="59.1430666668" lon="6.06002777731">
		<tag k="name" v="Skjelsvika" />
		<tag k="place" v="farm" />
		<tag k="ssr:stedsnr" v="427562" />
	</node>
	<node id="-27263" lat="59.2595671163" lon="6.37030704803">
		<tag k="fixme" v="consider place=hamlet" />
		<tag k="name" v="Tøtland" />
		<tag k="place" v="farm" />
		<tag k="ssr:stedsnr" v="670113" />
	</node>
	<node id="-28719" lat="59.139694449" lon="6.31426111403">
		<tag k="name" v="Egland" />
>>>>>>> e1d4bc35ff8a6074a6f2e91616a996b547c36f15
		<tag k="place" v="farm" />
		<tag k="ssr:stedsnr" v="851895" />
	</node>
<<<<<<< HEAD
	<node lat="59.25859999877666" lon="6.479424993144535" id="-2932">
		<tag k="historic" v="shieling" />
		<tag k="name" v="Botnen" />
		<tag k="place" v="isolated_dwelling" />
		<tag k="ssr:stedsnr" v="852097" />
	</node>
	<node lat="59.295139289950285" lon="6.4480773983357125" id="-2953">
=======
	<node id="-26939" lat="59.1586796908" lon="6.21436209955">
		<tag k="fixme" v="consider place=hamlet" />
		<tag k="name" v="Høyland" />
		<tag k="place" v="farm" />
		<tag k="ssr:stedsnr" v="484281" />
	</node>
	<node id="-26667" lat="59.1483131957" lon="6.34852484001">
>>>>>>> e1d4bc35ff8a6074a6f2e91616a996b547c36f15
		<tag k="fixme" v="consider place=hamlet" />
		<tag k="name" v="Funningsland" />
		<tag k="place" v="farm" />
		<tag k="ssr:stedsnr" v="852950" />
	</node>
<<<<<<< HEAD
	<node lat="59.3618194474791" lon="6.432427778521135" id="-2993">
		<tag k="historic" v="shieling" />
		<tag k="name" v="Lågbakke" />
		<tag k="place" v="isolated_dwelling" />
		<tag k="ssr:stedsnr" v="970402" />
	</node>
	<node lat="59.133200074389755" lon="6.258725900917739" id="-3025">
		<tag k="name" v="Nesset" />
		<tag k="place" v="farm" />
		<tag k="ssr:stedsnr" v="987321" />
	</node>
	<node lat="59.138387850064895" lon="6.027391956884241" id="-3030">
		<tag k="fixme" v="consider place=hamlet" />
		<tag k="name" v="Helgøy" />
		<tag k="place" v="farm" />
		<tag k="ssr:stedsnr" v="1071965" />
	</node>
	<node lat="59.231300541673356" lon="6.624711122701283" id="-3031">
=======
	<node id="-27007" lat="59.2311603103" lon="6.1632025428">
		<tag k="fixme" v="consider place=hamlet" />
		<tag k="name" v="Sande" />
		<tag k="place" v="farm" />
		<tag k="ssr:stedsnr" v="486942" />
	</node>
	<node id="-28508" lat="59.2282118697" lon="6.16903059033">
		<tag k="alt_name" v="Røgjelstad" />
		<tag k="fixme" v="consider place=hamlet" />
		<tag k="name" v="Røgelstad" />
		<tag k="place" v="farm" />
		<tag k="ssr:stedsnr" v="304928" />
	</node>
	<node id="-27582" lat="59.3285666695" lon="6.44516943714">
		<tag k="name" v="Ulla" />
		<tag k="place" v="farm" />
		<tag k="ssr:stedsnr" v="891674" />
	</node>
	<node id="-29496" lat="59.3201833376" lon="6.36626110728">
		<tag k="name" v="Rabben" />
		<tag k="place" v="farm" />
		<tag k="ssr:stedsnr" v="964302" />
	</node>
	<node id="-26655" lat="59.1256277797" lon="6.31591389652">
		<tag k="historic" v="shieling" />
		<tag k="name" v="Livastøl" />
		<tag k="place" v="locality" />
		<tag k="ssr:stedsnr" v="244094" />
	</node>
	<node id="-28702" lat="59.344588886" lon="6.50640555833">
		<tag k="historic" v="shieling" />
		<tag k="name" v="Skjøla" />
		<tag k="place" v="locality" />
		<tag k="ssr:stedsnr" v="366866" />
	</node>
	<node id="-29213" lat="59.2040833366" lon="6.06520555737">
		<tag k="name" v="Skjervik" />
		<tag k="place" v="farm" />
		<tag k="ssr:stedsnr" v="788099" />
	</node>
	<node id="-26802" lat="59.2578055535" lon="6.63697777629">
		<tag k="historic" v="shieling" />
		<tag k="name" v="Gamlestølosen" />
		<tag k="place" v="locality" />
		<tag k="ssr:stedsnr" v="446106" />
	</node>
	<node id="-28699" lat="59.1398138872" lon="6.04343333681">
		<tag k="name" v="Grønevika" />
		<tag k="place" v="farm" />
		<tag k="ssr:stedsnr" v="366572" />
	</node>
	<node id="-27823" lat="59.1808998539" lon="6.56515489518">
		<tag k="fixme" v="consider tourism=alpine_hut or tourism=chalet" />
		<tag k="name" v="Stakken" />
		<tag k="ssr:stedsnr" v="790513" />
		<tag k="tourism" v="wilderness_hut" />
	</node>
	<node id="-28696" lat="59.1727305512" lon="6.25631943626">
		<tag k="historic" v="shieling" />
		<tag k="name" v="Røgle" />
		<tag k="place" v="locality" />
		<tag k="ssr:stedsnr" v="366484" />
	</node>
	<node id="-28693" lat="59.1593635607" lon="6.45029751785">
		<tag k="fixme" v="consider tourism=alpine_hut or tourism=chalet" />
		<tag k="name" v="Viglesdalen" />
		<tag k="old_name" v="Viglesdal turisthytte" />
		<tag k="ssr:stedsnr" v="366412" />
		<tag k="tourism" v="wilderness_hut" />
	</node>
	<node id="-28692" lat="59.1343779686" lon="6.26783920798">
		<tag k="fixme" v="consider place=hamlet" />
		<tag k="name" v="Bergaland" />
		<tag k="place" v="farm" />
		<tag k="ssr:stedsnr" v="366403" />
	</node>
	<node id="-28688" lat="59.2799916659" lon="6.77322222578">
		<tag k="name" v="Jensahelleren" />
		<tag k="place" v="locality" />
		<tag k="ssr:stedsnr" v="366136" />
	</node>
	<node id="-29199" lat="59.3554444469" lon="6.37269445058">
		<tag k="name" v="Nesstøl" />
		<tag k="place" v="farm" />
		<tag k="ssr:stedsnr" v="783823" />
	</node>
	<node id="-28711" lat="59.3289388866" lon="6.44547499597">
>>>>>>> e1d4bc35ff8a6074a6f2e91616a996b547c36f15
		<tag k="fixme" v="consider place=hamlet" />
		<tag k="name" v="Grasdalen" />
		<tag k="place" v="farm" />
		<tag k="ssr:stedsnr" v="1071966" />
	</node>
	<node lat="59.14906080967697" lon="6.2329135905952855" id="-3037">
		<tag k="alt_name" v="Valeim, nedre" />
		<tag k="fixme" v="consider place=hamlet" />
		<tag k="name" v="Nedre Valheim" />
		<tag k="place" v="farm" />
		<tag k="ssr:stedsnr" v="1077460" />
	</node>
	<node lat="59.32473872371147" lon="6.358852589897387" id="-3041">
		<tag k="name" v="Ramsfjell" />
		<tag k="place" v="hamlet" />
		<tag k="ssr:stedsnr" v="1081994" />
	</node>
	<node id="-28685" lat="59.2518388896" lon="6.29101110379">
		<tag k="alt_name" v="Vigjå" />
		<tag k="name" v="Vika" />
		<tag k="place" v="farm" />
		<tag k="ssr:stedsnr" v="366092" />
	</node>
	<node id="-28172" lat="59.2042476666" lon="6.05314583701">
		<tag k="fixme" v="consider place=hamlet" />
		<tag k="name" v="Indre Sandanger" />
		<tag k="place" v="farm" />
		<tag k="ssr:stedsnr" v="120028" />
	</node>
	<node id="-29195" lat="59.312319442" lon="6.34231667364">
		<tag k="name" v="Indre Eiane" />
		<tag k="place" v="farm" />
		<tag k="ssr:stedsnr" v="783280" />
	</node>
	<node id="-28680" lat="59.2701269402" lon="6.33567368134">
		<tag k="alt_name" v="Tøtlandsvika" />
		<tag k="name" v="Tøtlandsvik" />
		<tag k="place" v="hamlet" />
		<tag k="ssr:stedsnr" v="366070" />
	</node>
	<node id="-27820" lat="59.1544542617" lon="6.1778558124">
		<tag k="fixme" v="consider place=hamlet" />
		<tag k="name" v="Mele" />
		<tag k="place" v="farm" />
		<tag k="ssr:stedsnr" v="790367" />
	</node>
	<node id="-28161" lat="59.156447222" lon="6.19398054969">
		<tag k="amenity" v="nursing_home" />
		<tag k="name" v="Årdal" />
		<tag k="ssr:stedsnr" v="120290" />
	</node>
	<node id="-29187" lat="59.2099000028" lon="5.99769722825">
		<tag k="alt_name" v="Djubedal" />
		<tag k="name" v="Djupedal" />
		<tag k="place" v="farm" />
		<tag k="ssr:stedsnr" v="769207" />
	</node>
	<node id="-28674" lat="59.2215745256" lon="6.15227162527">
		<tag k="fixme" v="consider place=hamlet" />
		<tag k="name" v="Kro" />
		<tag k="place" v="farm" />
		<tag k="ssr:stedsnr" v="365972" />
	</node>
	<node id="-29185" lat="59.1525959272" lon="6.16757773239">
		<tag k="name" v="Nedre Mele" />
		<tag k="place" v="farm" />
		<tag k="ssr:stedsnr" v="754875" />
	</node>
</osm>
