<?xml version="1.0" encoding="UTF-8"?>
<osm generator="osmapis" version="0.6">
	<node id="-411049" lat="59.2399527742" lon="6.30729166312">
		<tag k="bridge" v="yes" />
		<tag k="layer" v="1" />
		<tag k="name" v="Breilandsmyr" />
		<tag k="ssr:stedsnr" v="411666" />
	</node>
	<node id="-413167" lat="59.2920444491" lon="6.13166945209">
		<tag k="highway" v="path" />
		<tag k="name" v="Krågestien" />
		<tag k="ssr:stedsnr" v="787838" />
	</node>
	<node id="-413144" lat="59.2198638855" lon="6.21541111054">
		<tag k="bridge" v="yes" />
		<tag k="layer" v="1" />
		<tag k="name" v="Kjønsåna" />
		<tag k="ssr:stedsnr" v="775666" />
	</node>
	<node id="-413143" lat="59.1506555566" lon="6.16387778059">
		<tag k="bridge" v="yes" />
		<tag k="layer" v="1" />
		<tag k="name" v="Melsosen" />
		<tag k="ssr:stedsnr" v="775659" />
	</node>
	<node id="-413142" lat="59.2642999995" lon="6.3781722273">
		<tag k="bridge" v="yes" />
		<tag k="layer" v="1" />
		<tag k="name" v="Tytland" />
		<tag k="ssr:stedsnr" v="775541" />
	</node>
	<node id="-413141" lat="59.2791972248" lon="6.23638611877">
		<tag k="layer" v="-1" />
		<tag k="name" v="Vardatunnelen" />
		<tag k="old_name" v="Vardane" />
		<tag k="ssr:stedsnr" v="772677" />
		<tag k="tunnel" v="yes" />
	</node>
	<node id="-413140" lat="59.2733361135" lon="6.19601389421">
		<tag k="layer" v="-1" />
		<tag k="name" v="Bastlitunnelen" />
		<tag k="old_name" v="Bastlid" />
		<tag k="ssr:stedsnr" v="772093" />
		<tag k="tunnel" v="yes" />
	</node>
	<node id="-411600" lat="59.1511416706" lon="6.34552777959">
		<tag k="highway" v="path" />
		<tag k="name" v="Lauvhusråsene" />
		<tag k="ssr:stedsnr" v="181328" />
	</node>
	<node id="-412621" lat="59.283247225" lon="6.17518611389">
		<tag k="highway" v="path" />
		<tag k="name" v="Stien" />
		<tag k="ssr:stedsnr" v="605674" />
	</node>
	<node id="-411065" lat="59.2362611136" lon="6.18077499488">
		<tag k="bridge" v="yes" />
		<tag k="layer" v="1" />
		<tag k="name" v="Hjelmeland" />
		<tag k="ssr:stedsnr" v="896734" />
	</node>
	<node id="-413620" lat="59.2495500009" lon="6.30945833674">
		<tag k="highway" v="path" />
		<tag k="name" v="Svestien" />
		<tag k="ssr:stedsnr" v="910338" />
	</node>
	<node id="-412079" lat="59.2762305537" lon="6.14109444536">
		<tag k="man_made" v="quay" />
		<tag k="name" v="Skiftun" />
		<tag k="place" v="locality" />
		<tag k="ssr:stedsnr" v="424856" />
	</node>
	<node id="-411050" lat="59.2389333364" lon="6.30020277011">
		<tag k="bridge" v="yes" />
		<tag k="layer" v="1" />
		<tag k="name" v="Breiland" />
		<tag k="ssr:stedsnr" v="411668" />
	</node>
	<node id="-411561" lat="59.2199833324" lon="6.0709750003">
		<tag k="highway" v="path" />
		<tag k="name" v="Rossåsstien" />
		<tag k="ssr:stedsnr" v="176678" />
	</node>
	<node id="-411047" lat="59.3023416657" lon="6.32272500246">
		<tag k="layer" v="-1" />
		<tag k="name" v="Vestre Vindsviktunnelen" />
		<tag k="old_name" v="Vindsvik I" />
		<tag k="ssr:stedsnr" v="408659" />
		<tag k="tunnel" v="yes" />
	</node>
	<node id="-411545" lat="59.1354666666" lon="6.263633339">
		<tag k="bridge" v="yes" />
		<tag k="layer" v="1" />
		<tag k="name" v="Bergeland" />
		<tag k="ssr:stedsnr" v="168683" />
	</node>
	<node id="-411544" lat="59.2659388848" lon="6.17627222788">
		<tag k="alt_name" v="Bastliskjæret" />
		<tag k="bridge" v="yes" />
		<tag k="layer" v="1" />
		<tag k="name" v="Bastliskjeret" />
		<tag k="ssr:stedsnr" v="168677" />
	</node>
	<node id="-411543" lat="59.1495888879" lon="6.10425277351">
		<tag k="bridge" v="yes" />
		<tag k="layer" v="1" />
		<tag k="name" v="Nessa" />
		<tag k="ssr:stedsnr" v="168669" />
	</node>
	<node id="-411542" lat="59.2263611124" lon="6.20683888136">
		<tag k="bridge" v="yes" />
		<tag k="layer" v="1" />
		<tag k="name" v="Steinsland Øvre" />
		<tag k="ssr:stedsnr" v="168555" />
	</node>
	<node id="-412552" lat="59.2748916674" lon="6.15387222302">
		<tag k="bridge" v="yes" />
		<tag k="layer" v="1" />
		<tag k="name" v="Foss" />
		<tag k="ssr:stedsnr" v="592725" />
	</node>
	<node id="-412551" lat="59.1354388928" lon="6.28630833014">
		<tag k="bridge" v="yes" />
		<tag k="layer" v="1" />
		<tag k="name" v="Kaltveit" />
		<tag k="ssr:stedsnr" v="592722" />
	</node>
	<node id="-412550" lat="59.2755972246" lon="6.21915832895">
		<tag k="layer" v="-1" />
		<tag k="name" v="Skottunnelen" />
		<tag k="old_name" v="Skottet" />
		<tag k="ssr:stedsnr" v="590736" />
		<tag k="tunnel" v="yes" />
	</node>
	<node id="-412549" lat="59.2737277779" lon="6.20903888154">
		<tag k="layer" v="-1" />
		<tag k="name" v="Bukkadalstunnelen" />
		<tag k="old_name" v="Bukka" />
		<tag k="ssr:stedsnr" v="590394" />
		<tag k="tunnel" v="yes" />
	</node>
	<node id="-413053" lat="59.2762861083" lon="6.09526388809">
		<tag k="man_made" v="quay" />
		<tag k="name" v="Tuftene" />
		<tag k="place" v="locality" />
		<tag k="ssr:stedsnr" v="727934" />
	</node>
	<node id="-413049" lat="59.2527166628" lon="6.08209444951">
		<tag k="highway" v="path" />
		<tag k="name" v="Dyrastien" />
		<tag k="ssr:stedsnr" v="727786" />
	</node>
	<node id="-413547" lat="59.1733000011" lon="6.15541943656">
		<tag k="highway" v="path" />
		<tag k="name" v="Prestaveien" />
		<tag k="ssr:stedsnr" v="909092" />
	</node>
	<node id="-413543" lat="59.1783194476" lon="6.08709444749">
		<tag k="highway" v="path" />
		<tag k="name" v="Stien" />
		<tag k="ssr:stedsnr" v="909065" />
	</node>
	<node id="-411471" lat="59.1437749997" lon="6.49684443828">
		<tag k="highway" v="path" />
		<tag k="name" v="Kolbeinsvegen" />
		<tag k="ssr:stedsnr" v="122426" />
	</node>
	<node id="-410957" lat="59.2766194456" lon="6.15141943954">
		<tag k="junction" v="yes" />
		<tag k="name" v="Fosskrossen" />
		<tag k="place" v="locality" />
		<tag k="ssr:stedsnr" v="363855" />
	</node>
	<node id="-412996" lat="59.2321166689" lon="6.38597777029">
		<tag k="highway" v="path" />
		<tag k="name" v="Stegadn" />
		<tag k="ssr:stedsnr" v="727342" />
	</node>
	<node id="-410946" lat="59.2814722249" lon="6.19284167037">
		<tag k="highway" v="path" />
		<tag k="name" v="Innunda Liadn" />
		<tag k="ssr:stedsnr" v="363644" />
	</node>
	<node id="-410928" lat="59.309844448" lon="6.45073888312">
		<tag k="highway" v="path" />
		<tag k="name" v="Stigen" />
		<tag k="ssr:stedsnr" v="363447" />
	</node>
	<node id="-412969" lat="59.2861638867" lon="6.06579444574">
		<tag k="highway" v="path" />
		<tag k="name" v="Brurastien" />
		<tag k="ssr:stedsnr" v="727005" />
	</node>
	<node id="-412952" lat="59.2428666675" lon="6.35337777953">
		<tag k="bridge" v="yes" />
		<tag k="layer" v="1" />
		<tag k="name" v="Laugaland" />
		<tag k="ssr:stedsnr" v="714663" />
	</node>
	<node id="-412951" lat="59.1779694418" lon="6.06857777352">
		<tag k="bridge" v="yes" />
		<tag k="layer" v="1" />
		<tag k="name" v="Li" />
		<tag k="ssr:stedsnr" v="714656" />
	</node>
	<node id="-412438" lat="59.2552750038" lon="6.08236666487">
		<tag k="highway" v="path" />
		<tag k="name" v="Nedre Auglandsveien" />
		<tag k="ssr:stedsnr" v="545752" />
	</node>
	<node id="-410900" lat="59.2234555542" lon="6.30451944536">
		<tag k="highway" v="path" />
		<tag k="name" v="Revestien" />
		<tag k="ssr:stedsnr" v="363272" />
	</node>
	<node id="-410883" lat="59.2043833315" lon="6.14775277347">
		<tag k="highway" v="path" />
		<tag k="name" v="Prestveien" />
		<tag k="ssr:stedsnr" v="363098" />
	</node>
	<node id="-413417" lat="59.2744166639" lon="6.33549444467">
		<tag k="man_made" v="quay" />
		<tag k="name" v="Skodabrygga" />
		<tag k="place" v="locality" />
		<tag k="ssr:stedsnr" v="849653" />
	</node>
	<node id="-410855" lat="59.2809611106" lon="6.38186665845">
		<tag k="bridge" v="yes" />
		<tag k="layer" v="1" />
		<tag k="name" v="Djupedal" />
		<tag k="ssr:stedsnr" v="350671" />
	</node>
	<node id="-410854" lat="59.2184500042" lon="6.22715555806">
		<tag k="bridge" v="yes" />
		<tag k="layer" v="1" />
		<tag k="name" v="Husstøl" />
		<tag k="ssr:stedsnr" v="350653" />
	</node>
	<node id="-410853" lat="59.2509472187" lon="6.36822222692">
		<tag k="bridge" v="yes" />
		<tag k="layer" v="1" />
		<tag k="name" v="Odda" />
		<tag k="ssr:stedsnr" v="350530" />
	</node>
	<node id="-411360" lat="59.1860194426" lon="6.06809722499">
		<tag k="bridge" v="yes" />
		<tag k="layer" v="1" />
		<tag k="name" v="Hegrefjellet" />
		<tag k="ssr:stedsnr" v="107710" />
	</node>
	<node id="-411359" lat="59.1716111137" lon="6.16428888444">
		<tag k="bridge" v="yes" />
		<tag k="layer" v="1" />
		<tag k="name" v="Riskedal" />
		<tag k="ssr:stedsnr" v="107591" />
	</node>
	<node id="-411350" lat="59.3218611093" lon="6.37045833618">
		<tag k="layer" v="-1" />
		<tag k="name" v="Sildafjelltunnelen" />
		<tag k="ssr:stedsnr" v="85656" />
		<tag k="tunnel" v="yes" />
	</node>
	<node id="-412350" lat="59.2376222203" lon="6.25991388702">
		<tag k="bridge" v="yes" />
		<tag k="layer" v="1" />
		<tag k="name" v="Straume" />
		<tag k="ssr:stedsnr" v="532552" />
	</node>
	<node id="-411831" lat="59.1406805555" lon="6.31302500847">
		<tag k="ford" v="yes" />
		<tag k="name" v="Øygva" />
		<tag k="place" v="locality" />
		<tag k="ssr:stedsnr" v="242383" />
	</node>
	<node id="-410653" lat="59.1662611073" lon="6.16768611163">
		<tag k="bridge" v="yes" />
		<tag k="layer" v="1" />
		<tag k="name" v="Riskedal Nedre" />
		<tag k="ssr:stedsnr" v="289621" />
	</node>
	<node id="-413724" lat="59.2617027809" lon="6.15911943827">
		<tag k="amenity" v="ferry_terminal" />
		<tag k="name" v="Nesvik ferjekai" />
		<tag k="ssr:stedsnr" v="957544" />
	</node>
	<node id="-412838" lat="59.2916444436" lon="6.18081389605">
		<tag k="highway" v="path" />
		<tag k="name" v="Herefjellsråsene" />
		<tag k="ssr:stedsnr" v="666657" />
	</node>
	<node id="-413327" lat="59.2027944401" lon="6.12359444372">
		<tag k="bridge" v="yes" />
		<tag k="layer" v="1" />
		<tag k="name" v="Hausken" />
		<tag k="ssr:stedsnr" v="836664" />
	</node>
	<node id="-413326" lat="59.1151833309" lon="6.30300833276">
		<tag k="bridge" v="yes" />
		<tag k="layer" v="1" />
		<tag k="name" v="Midtheia" />
		<tag k="ssr:stedsnr" v="836662" />
	</node>
	<node id="-413325" lat="59.2140333344" lon="6.11587777225">
		<tag k="bridge" v="yes" />
		<tag k="layer" v="1" />
		<tag k="name" v="Viga" />
		<tag k="ssr:stedsnr" v="836521" />
	</node>
	<node id="-413324" lat="59.2176249985" lon="6.09932778348">
		<tag k="bridge" v="yes" />
		<tag k="layer" v="1" />
		<tag k="name" v="Randøy" />
		<tag k="ssr:stedsnr" v="836513" />
	</node>
	<node id="-412796" lat="59.2477972225" lon="6.18745556343">
		<tag k="highway" v="path" />
		<tag k="name" v="Sæbøstien" />
		<tag k="ssr:stedsnr" v="666385" />
	</node>
	<node id="-411258" lat="59.2358222241" lon="6.02223055437">
		<tag k="man_made" v="quay" />
		<tag k="name" v="Vestersjø" />
		<tag k="place" v="locality" />
		<tag k="ssr:stedsnr" v="60656" />
	</node>
	<node id="-411256" lat="59.2415138905" lon="6.03609999186">
		<tag k="highway" v="path" />
		<tag k="name" v="Hestastien" />
		<tag k="ssr:stedsnr" v="60648" />
	</node>
	<node id="-411765" lat="59.1105416645" lon="6.19442777782">
		<tag k="bridge" v="yes" />
		<tag k="layer" v="1" />
		<tag k="name" v="Drifteland" />
		<tag k="ssr:stedsnr" v="229685" />
	</node>
	<node id="-411764" lat="59.1510111068" lon="6.16011111662">
		<tag k="bridge" v="yes" />
		<tag k="layer" v="1" />
		<tag k="name" v="Årdal" />
		<tag k="ssr:stedsnr" v="229566" />
	</node>
	<node id="-411763" lat="59.253041663" lon="6.09510277877">
		<tag k="amenity" v="ferry_terminal" />
		<tag k="name" v="Skipavik ferjekai" />
		<tag k="ssr:stedsnr" v="229563" />
	</node>
	<node id="-411762" lat="59.2534861142" lon="6.36782221655">
		<tag k="alt_name" v="Sveivhølen" />
		<tag k="bridge" v="yes" />
		<tag k="layer" v="1" />
		<tag k="name" v="Sveivhølbrua" />
		<tag k="ssr:stedsnr" v="229561" />
	</node>
	<node id="-413802" lat="59.152736108" lon="6.34912777394">
		<tag k="highway" v="path" />
		<tag k="name" v="Råsene" />
		<tag k="ssr:stedsnr" v="970479" />
	</node>
	<node id="-413800" lat="59.1568305539" lon="6.15335834058">
		<tag k="highway" v="path" />
		<tag k="name" v="Sjoarveien" />
		<tag k="ssr:stedsnr" v="970444" />
	</node>
	<node id="-412771" lat="59.1775111149" lon="6.08317222145">
		<tag k="highway" v="path" />
		<tag k="name" v="Hønsastien" />
		<tag k="ssr:stedsnr" v="666082" />
	</node>
	<node id="-412176" lat="59.1572222261" lon="6.34794166756">
		<tag k="highway" v="path" />
		<tag k="name" v="Tverrgjøvleråsa" />
		<tag k="ssr:stedsnr" v="484305" />
	</node>
	<node id="-412253" lat="59.172655555" lon="6.51175278053">
		<tag k="highway" v="path" />
		<tag k="name" v="Snarvegen" />
		<tag k="ssr:stedsnr" v="484779" />
	</node>
	<node id="-413625" lat="59.3076527804" lon="6.40079166446">
		<tag k="fixme" v="verify maritime location" />
		<tag k="mooring" v="yes" />
		<tag k="name" v="Følekamstøa" />
		<tag k="place" v="locality" />
		<tag k="ssr:stedsnr" v="910400" />
	</node>
	<node id="-412748" lat="59.2906833294" lon="6.44164167037">
		<tag k="bridge" v="yes" />
		<tag k="layer" v="1" />
		<tag k="name" v="Fundingsland" />
		<tag k="ssr:stedsnr" v="653705" />
	</node>
	<node id="-412747" lat="59.3024333326" lon="6.32636388465">
		<tag k="layer" v="-1" />
		<tag k="name" v="Austre Vindsviktunnelen" />
		<tag k="old_name" v="Vindsvik II" />
		<tag k="ssr:stedsnr" v="650617" />
		<tag k="tunnel" v="yes" />
	</node>
	<node id="-410684" lat="59.2029694478" lon="6.10083054662">
		<tag k="highway" v="path" />
		<tag k="name" v="Brattasteg" />
		<tag k="ssr:stedsnr" v="302151" />
	</node>
	<node id="-413744" lat="59.1825333333" lon="6.14127500415">
		<tag k="name" v="Krågåssvingen" />
		<tag k="place" v="locality" />
		<tag k="ssr:stedsnr" v="969081" />
	</node>
	<node id="-411690" lat="59.1744777749" lon="6.52491111256">
		<tag k="highway" v="path" />
		<tag k="name" v="Halvfarskleiva" />
		<tag k="ssr:stedsnr" v="183451" />
	</node>
	<node id="-410661" lat="59.2341166677" lon="6.1654333301">
		<tag k="amenity" v="ferry_terminal" />
		<tag k="name" v="Hjelmeland ferjekai" />
		<tag k="ssr:stedsnr" v="46729" />
	</node>
	<node id="-410660" lat="59.2371477384" lon="6.17871556772">
		<tag k="man_made" v="quay" />
		<tag k="name" v="Hjelmeland kai" />
		<tag k="place" v="locality" />
		<tag k="ssr:stedsnr" v="46728" />
	</node>
	<node id="-410658" lat="59.1785055567" lon="6.0637888889">
		<tag k="man_made" v="quay" />
		<tag k="name" v="Fister kai" />
		<tag k="place" v="locality" />
		<tag k="ssr:stedsnr" v="289745" />
	</node>
	<node id="-410657" lat="59.3314500037" lon="6.44971110867">
		<tag k="bridge" v="yes" />
		<tag k="layer" v="1" />
		<tag k="name" v="Moen" />
		<tag k="ssr:stedsnr" v="289738" />
	</node>
	<node id="-410656" lat="59.1222111141" lon="6.29341665875">
		<tag k="bridge" v="yes" />
		<tag k="layer" v="1" />
		<tag k="name" v="Leiken" />
		<tag k="ssr:stedsnr" v="289736" />
	</node>
	<node id="-410655" lat="59.2635944431" lon="6.15943611089">
		<tag k="bridge" v="yes" />
		<tag k="layer" v="1" />
		<tag k="name" v="Nesvik" />
		<tag k="ssr:stedsnr" v="289737" />
	</node>
	<node id="-410654" lat="59.0887500014" lon="6.41753333374">
		<tag k="bridge" v="yes" />
		<tag k="layer" v="1" />
		<tag k="name" v="Storaeidet" />
		<tag k="ssr:stedsnr" v="289629" />
	</node>
	<node id="-413725" lat="59.1279333356" lon="6.26936110779">
		<tag k="bridge" v="yes" />
		<tag k="layer" v="1" />
		<tag k="name" v="Ullestad" />
		<tag k="ssr:stedsnr" v="957552" />
	</node>
	<node id="-411164" lat="59.1284694408" lon="6.25449999961">
		<tag k="bridge" v="yes" />
		<tag k="layer" v="1" />
		<tag k="name" v="Tveit" />
		<tag k="ssr:stedsnr" v="46624" />
	</node>
	<node id="-413723" lat="59.2286861157" lon="6.14917222816">
		<tag k="bridge" v="yes" />
		<tag k="layer" v="1" />
		<tag k="name" v="Puntå" />
		<tag k="ssr:stedsnr" v="957543" />
	</node>
	<node id="-413722" lat="59.1982138909" lon="6.05793055141">
		<tag k="alt_name" v="Sandanger" />
		<tag k="man_made" v="quay" />
		<tag k="name" v="Sandanger kai" />
		<tag k="place" v="locality" />
		<tag k="ssr:stedsnr" v="957542" />
	</node>
	<node id="-413721" lat="59.3140694407" lon="6.34191666501">
		<tag k="bridge" v="yes" />
		<tag k="layer" v="1" />
		<tag k="name" v="Eiane (Indre)" />
		<tag k="ssr:stedsnr" v="957677" />
	</node>
	<node id="-413720" lat="59.2843722178" lon="6.40136388891">
		<tag k="bridge" v="yes" />
		<tag k="layer" v="1" />
		<tag k="name" v="Litleviksvatn" />
		<tag k="ssr:stedsnr" v="957669" />
	</node>
	<node id="-411664" lat="59.200305559" lon="6.4581916586">
		<tag k="highway" v="path" />
		<tag k="name" v="Tverrstien" />
		<tag k="ssr:stedsnr" v="181810" />
	</node>
	<node id="-412168" lat="59.1721888897" lon="6.07095833542">
		<tag k="bridge" v="yes" />
		<tag k="layer" v="1" />
		<tag k="name" v="Støla" />
		<tag k="ssr:stedsnr" v="471572" />
	</node>
	<node id="-412167" lat="59.2857500044" lon="6.26160832917">
		<tag k="layer" v="-1" />
		<tag k="name" v="Kjøladalstunnelen" />
		<tag k="old_name" v="Kjøladal" />
		<tag k="ssr:stedsnr" v="469262" />
		<tag k="tunnel" v="yes" />
	</node>
</osm>
