<?xml version="1.0" encoding="UTF-8"?>
<osm generator="osmapis" version="0.6">
	<node id="-136775" lat="60.506986109" lon="10.5162277781">
		<tag k="name" v="Gjøvikbanen" />
		<tag k="ssr:date" v="2016-05-10" />
		<tag k="ssr:gruppe" v="bane" />
		<tag k="ssr:hovedgruppe" v="infrastruktur" />
		<tag k="ssr:stedsnr" v="152685" />
		<tag k="ssr:type" v="banestrekning" />
	</node>
	<node id="-138622" lat="60.418549996" lon="10.5380777811">
		<tag k="name" v="Gjøvikbanen" />
		<tag k="ssr:date" v="2016-05-11" />
		<tag k="ssr:gruppe" v="bane" />
		<tag k="ssr:hovedgruppe" v="infrastruktur" />
		<tag k="ssr:stedsnr" v="939207" />
		<tag k="ssr:type" v="banestrekning" />
	</node>
	<node id="-136661" lat="60.5340194412" lon="10.152594448">
		<tag k="name" v="Huldrevegen" />
		<tag k="ssr:date" v="2019-05-30" />
		<tag k="ssr:gruppe" v="veg" />
		<tag k="ssr:hovedgruppe" v="infrastruktur" />
		<tag k="ssr:stedsnr" v="120573" />
		<tag k="ssr:type" v="adressenavn" />
	</node>
	<node id="-136955" lat="60.476727776" lon="10.5829166737">
		<tag k="name" v="Sniklebakken" />
		<tag k="ssr:date" v="2016-05-10" />
		<tag k="ssr:gruppe" v="veg" />
		<tag k="ssr:hovedgruppe" v="infrastruktur" />
		<tag k="ssr:stedsnr" v="213745" />
		<tag k="ssr:type" v="vegstrekning" />
	</node>
	<node id="-136617" lat="60.4530555549" lon="10.5102805596">
		<tag k="name" v="Eggebakken" />
		<tag k="ssr:date" v="2016-05-10" />
		<tag k="ssr:gruppe" v="bane" />
		<tag k="ssr:hovedgruppe" v="infrastruktur" />
		<tag k="ssr:stedsnr" v="92760" />
		<tag k="ssr:type" v="banestrekning" />
	</node>
	<node id="-136436" lat="60.4214805538" lon="10.6161694507">
		<tag k="name" v="Merrabakken" />
		<tag k="ssr:date" v="2016-05-10" />
		<tag k="ssr:gruppe" v="veg" />
		<tag k="ssr:hovedgruppe" v="infrastruktur" />
		<tag k="ssr:stedsnr" v="29957" />
		<tag k="ssr:type" v="vegstrekning" />
	</node>
	<node id="-138226" lat="60.4228944443" lon="10.3329777845">
		<tag k="name" v="Brasmedalsvegen" />
		<tag k="ssr:date" v="2019-05-30" />
		<tag k="ssr:gruppe" v="veg" />
		<tag k="ssr:hovedgruppe" v="infrastruktur" />
		<tag k="ssr:stedsnr" v="788655" />
		<tag k="ssr:type" v="adressenavn" />
	</node>
	<node id="-138225" lat="60.4995194446" lon="10.2560333254">
		<tag k="name" v="Gutudalsbråtan" />
		<tag k="ssr:date" v="2019-05-30" />
		<tag k="ssr:gruppe" v="veg" />
		<tag k="ssr:hovedgruppe" v="infrastruktur" />
		<tag k="ssr:stedsnr" v="788574" />
		<tag k="ssr:type" v="adressenavn" />
	</node>
	<node id="-138224" lat="60.4666605607" lon="10.21775257">
		<tag k="name" v="Åtedalsvegen" />
		<tag k="ssr:date" v="2019-05-30" />
		<tag k="ssr:gruppe" v="veg" />
		<tag k="ssr:hovedgruppe" v="infrastruktur" />
		<tag k="ssr:stedsnr" v="788302" />
		<tag k="ssr:type" v="adressenavn" />
	</node>
	<node id="-136361" lat="60.4166018424" lon="10.5712716236">
		<tag k="name" v="Lauvlibakken" />
		<tag k="ssr:date" v="2019-05-30" />
		<tag k="ssr:gruppe" v="veg" />
		<tag k="ssr:hovedgruppe" v="infrastruktur" />
		<tag k="ssr:stedsnr" v="1017878" />
		<tag k="ssr:type" v="adressenavn" />
	</node>
	<node id="-136362" lat="60.4397537103" lon="10.6474630537">
		<tag k="name" v="Knørravegen" />
		<tag k="ssr:date" v="2019-05-30" />
		<tag k="ssr:gruppe" v="veg" />
		<tag k="ssr:hovedgruppe" v="infrastruktur" />
		<tag k="ssr:stedsnr" v="1018136" />
		<tag k="ssr:type" v="adressenavn" />
	</node>
	<node id="-138474" lat="60.3929305557" lon="10.5604527799">
		<tag k="name" v="Gran kommune" />
		<tag k="ssr:date" v="2016-05-11" />
		<tag k="ssr:gruppe" v="administrativeIndelinger" />
		<tag k="ssr:hovedgruppe" v="offentligAdministrasjon" />
		<tag k="ssr:stedsnr" v="874984" />
		<tag k="ssr:type" v="kommune" />
	</node>
	<node id="-135910" lat="60.4440083343" lon="10.3741722182">
		<tag k="name" v="Vollengvegen" />
		<tag k="ssr:date" v="2019-05-30" />
		<tag k="ssr:gruppe" v="veg" />
		<tag k="ssr:hovedgruppe" v="infrastruktur" />
		<tag k="ssr:stedsnr" v="302710" />
		<tag k="ssr:type" v="adressenavn" />
	</node>
	<node id="-135909" lat="60.5293500021" lon="10.1753527793">
		<tag k="name" v="Puttenvegen" />
		<tag k="ssr:date" v="2019-05-30" />
		<tag k="ssr:gruppe" v="veg" />
		<tag k="ssr:hovedgruppe" v="infrastruktur" />
		<tag k="ssr:stedsnr" v="302605" />
		<tag k="ssr:type" v="adressenavn" />
	</node>
	<node id="-135908" lat="60.4474750011" lon="10.3235138954">
		<tag k="name" v="Velmundsdammen" />
		<tag k="ssr:date" v="2019-05-30" />
		<tag k="ssr:gruppe" v="veg" />
		<tag k="ssr:hovedgruppe" v="infrastruktur" />
		<tag k="ssr:stedsnr" v="302338" />
		<tag k="ssr:type" v="adressenavn" />
	</node>
	<node id="-136358" lat="60.3802141559" lon="10.6326636601">
		<tag k="name" v="Sagvollvegen" />
		<tag k="ssr:date" v="2019-05-30" />
		<tag k="ssr:gruppe" v="veg" />
		<tag k="ssr:hovedgruppe" v="infrastruktur" />
		<tag k="ssr:stedsnr" v="1016250" />
		<tag k="ssr:type" v="adressenavn" />
	</node>
	<node id="-136357" lat="60.3778221795" lon="10.712938014">
		<tag k="name" v="Bråastranda" />
		<tag k="ssr:date" v="2019-05-30" />
		<tag k="ssr:gruppe" v="veg" />
		<tag k="ssr:hovedgruppe" v="infrastruktur" />
		<tag k="ssr:stedsnr" v="1016214" />
		<tag k="ssr:type" v="adressenavn" />
	</node>
	<node id="-137304" lat="60.4997111131" lon="10.2547861071">
		<tag k="name" v="Gutudalsvegen" />
		<tag k="ssr:date" v="2019-05-30" />
		<tag k="ssr:gruppe" v="veg" />
		<tag k="ssr:hovedgruppe" v="infrastruktur" />
		<tag k="ssr:stedsnr" v="484575" />
		<tag k="ssr:type" v="adressenavn" />
	</node>
	<node id="-136663" lat="60.4475138873" lon="10.3234611105">
		<tag k="name" v="Klypenvegen" />
		<tag k="ssr:date" v="2019-05-30" />
		<tag k="ssr:gruppe" v="veg" />
		<tag k="ssr:hovedgruppe" v="infrastruktur" />
		<tag k="ssr:stedsnr" v="120691" />
		<tag k="ssr:type" v="adressenavn" />
	</node>
	<node id="-137302" lat="60.3877944475" lon="10.3611527745">
		<tag k="name" v="Hagaelva" />
		<tag k="ssr:date" v="2019-05-30" />
		<tag k="ssr:gruppe" v="veg" />
		<tag k="ssr:hovedgruppe" v="infrastruktur" />
		<tag k="ssr:stedsnr" v="484295" />
		<tag k="ssr:type" v="adressenavn" />
	</node>
	<node id="-137301" lat="60.4738583305" lon="10.1982305586">
		<tag k="name" v="Syttertjernvegen" />
		<tag k="ssr:date" v="2019-05-30" />
		<tag k="ssr:gruppe" v="veg" />
		<tag k="ssr:hovedgruppe" v="infrastruktur" />
		<tag k="ssr:stedsnr" v="484292" />
		<tag k="ssr:type" v="adressenavn" />
	</node>
	<node id="-136660" lat="60.4686055582" lon="10.2218638955">
		<tag k="name" v="Søthølkollen" />
		<tag k="ssr:date" v="2019-05-30" />
		<tag k="ssr:gruppe" v="veg" />
		<tag k="ssr:hovedgruppe" v="infrastruktur" />
		<tag k="ssr:stedsnr" v="120310" />
		<tag k="ssr:type" v="adressenavn" />
	</node>
	<node id="-136019" lat="60.4896166671" lon="10.5932472289">
		<tag k="name" v="Vatningsbakken" />
		<tag k="ssr:date" v="2016-05-10" />
		<tag k="ssr:gruppe" v="veg" />
		<tag k="ssr:hovedgruppe" v="infrastruktur" />
		<tag k="ssr:stedsnr" v="335346" />
		<tag k="ssr:type" v="vegstrekning" />
	</node>
	<node id="-135907" lat="60.4364499981" lon="10.3783944362">
		<tag k="name" v="Tørjevegen" />
		<tag k="ssr:date" v="2019-05-30" />
		<tag k="ssr:gruppe" v="veg" />
		<tag k="ssr:hovedgruppe" v="infrastruktur" />
		<tag k="ssr:stedsnr" v="302336" />
		<tag k="ssr:type" v="adressenavn" />
	</node>
	<node id="-138702" lat="60.4145474367" lon="10.4997320972">
		<tag k="name" v="Brandbutunet" />
		<tag k="ssr:date" v="2019-05-30" />
		<tag k="ssr:gruppe" v="veg" />
		<tag k="ssr:hovedgruppe" v="infrastruktur" />
		<tag k="ssr:stedsnr" v="979234" />
		<tag k="ssr:type" v="adressenavn" />
	</node>
	<node id="-137932" lat="60.431069442" lon="10.5006555548">
		<tag k="name" v="Eggelinna" />
		<tag k="ssr:date" v="2016-05-11" />
		<tag k="ssr:gruppe" v="veg" />
		<tag k="ssr:hovedgruppe" v="infrastruktur" />
		<tag k="ssr:stedsnr" v="696216" />
		<tag k="ssr:type" v="vegstrekning" />
	</node>
	<node id="-138699" lat="60.5908609473" lon="9.63819281559">
		<tag k="fixme" v="multiple name tags, choose one and add the other to alt_name" />
		<tag k="name" v="Austlandet;Østlandet" />
		<tag k="ssr:date" v="2018-01-09" />
		<tag k="ssr:gruppe" v="administrativeIndelinger" />
		<tag k="ssr:hovedgruppe" v="offentligAdministrasjon" />
		<tag k="ssr:stedsnr" v="974775" />
		<tag k="ssr:type" v="annenAdministrativInndeling" />
	</node>
	<node id="-138697" lat="60.4718555594" lon="10.198230556">
		<tag k="name" v="Grastjernvegen" />
		<tag k="ssr:date" v="2019-05-30" />
		<tag k="ssr:gruppe" v="veg" />
		<tag k="ssr:hovedgruppe" v="infrastruktur" />
		<tag k="ssr:stedsnr" v="970453" />
		<tag k="ssr:type" v="adressenavn" />
	</node>
	<node id="-138696" lat="60.4831333336" lon="10.283205552">
		<tag k="name" v="Ljosdalsvegen" />
		<tag k="ssr:date" v="2019-05-30" />
		<tag k="ssr:gruppe" v="veg" />
		<tag k="ssr:hovedgruppe" v="infrastruktur" />
		<tag k="ssr:stedsnr" v="970306" />
		<tag k="ssr:type" v="adressenavn" />
	</node>
	<node id="-138695" lat="60.5182361107" lon="10.1950055504">
		<tag k="name" v="Avtjernslia" />
		<tag k="ssr:date" v="2019-05-30" />
		<tag k="ssr:gruppe" v="veg" />
		<tag k="ssr:hovedgruppe" v="infrastruktur" />
		<tag k="ssr:stedsnr" v="970140" />
		<tag k="ssr:type" v="adressenavn" />
	</node>
	<node id="-137030" lat="60.5118694437" lon="10.1950638949">
		<tag k="name" v="Avtjernsvegen" />
		<tag k="ssr:date" v="2019-05-30" />
		<tag k="ssr:gruppe" v="veg" />
		<tag k="ssr:hovedgruppe" v="infrastruktur" />
		<tag k="ssr:stedsnr" v="242547" />
		<tag k="ssr:type" v="adressenavn" />
	</node>
	<node id="-137669" lat="60.4717583342" lon="10.198188882">
		<tag k="name" v="Venemyrvegen" />
		<tag k="ssr:date" v="2019-05-30" />
		<tag k="ssr:gruppe" v="veg" />
		<tag k="ssr:hovedgruppe" v="infrastruktur" />
		<tag k="ssr:stedsnr" v="605710" />
		<tag k="ssr:type" v="adressenavn" />
	</node>
	<node id="-137668" lat="60.4032499999" lon="10.2054166656">
		<tag k="name" v="Gussgardlivegen" />
		<tag k="ssr:date" v="2019-05-30" />
		<tag k="ssr:gruppe" v="veg" />
		<tag k="ssr:hovedgruppe" v="infrastruktur" />
		<tag k="ssr:stedsnr" v="605706" />
		<tag k="ssr:type" v="adressenavn" />
	</node>
	<node id="-138307" lat="60.3666361142" lon="10.5285722261">
		<tag k="name" v="Hadeland" />
		<tag k="ssr:date" v="2016-05-11" />
		<tag k="ssr:gruppe" v="terrengområder" />
		<tag k="ssr:hovedgruppe" v="terreng" />
		<tag k="ssr:stedsnr" v="813550" />
		<tag k="ssr:type" v="landskapsområde" />
	</node>
	<node id="-138561" lat="60.3930500014" lon="10.3502111041">
		<tag k="name" v="Fremmersætervegen" />
		<tag k="ssr:date" v="2019-05-30" />
		<tag k="ssr:gruppe" v="veg" />
		<tag k="ssr:hovedgruppe" v="infrastruktur" />
		<tag k="ssr:stedsnr" v="909684" />
		<tag k="ssr:type" v="adressenavn" />
	</node>
	<node id="-138560" lat="60.4272222225" lon="10.3604916639">
		<tag k="name" v="Kophaugvegen" />
		<tag k="ssr:date" v="2019-05-30" />
		<tag k="ssr:gruppe" v="veg" />
		<tag k="ssr:hovedgruppe" v="infrastruktur" />
		<tag k="ssr:stedsnr" v="909332" />
		<tag k="ssr:type" v="adressenavn" />
	</node>
	<node id="-137662" lat="60.3792305583" lon="10.5647666664">
		<tag k="name" v="Gjøvikbanen" />
		<tag k="ssr:date" v="2016-05-10" />
		<tag k="ssr:gruppe" v="bane" />
		<tag k="ssr:hovedgruppe" v="infrastruktur" />
		<tag k="ssr:stedsnr" v="598049" />
		<tag k="ssr:type" v="banestrekning" />
	</node>
	<node id="-136509" lat="60.4966722237" lon="10.3366583293">
		<tag k="name" v="Tokerudkampvegen" />
		<tag k="ssr:date" v="2019-05-30" />
		<tag k="ssr:gruppe" v="veg" />
		<tag k="ssr:hovedgruppe" v="infrastruktur" />
		<tag k="ssr:stedsnr" v="60709" />
		<tag k="ssr:type" v="adressenavn" />
	</node>
	<node id="-136508" lat="60.4414222192" lon="10.3760805511">
		<tag k="name" v="Sørrennevegen" />
		<tag k="ssr:date" v="2019-05-30" />
		<tag k="ssr:gruppe" v="veg" />
		<tag k="ssr:hovedgruppe" v="infrastruktur" />
		<tag k="ssr:stedsnr" v="60700" />
		<tag k="ssr:type" v="adressenavn" />
	</node>
	<node id="-138354" lat="60.4509555573" lon="10.5111666719">
		<tag k="name" v="Gjøvikbanen" />
		<tag k="ssr:date" v="2016-05-11" />
		<tag k="ssr:gruppe" v="bane" />
		<tag k="ssr:hovedgruppe" v="infrastruktur" />
		<tag k="ssr:stedsnr" v="820758" />
		<tag k="ssr:type" v="banestrekning" />
	</node>
	<node id="-138038" lat="60.5118055522" lon="10.1851527861">
		<tag k="name" v="Torvhyttevegen" />
		<tag k="ssr:date" v="2019-05-30" />
		<tag k="ssr:gruppe" v="veg" />
		<tag k="ssr:hovedgruppe" v="infrastruktur" />
		<tag k="ssr:stedsnr" v="727584" />
		<tag k="ssr:type" v="adressenavn" />
	</node>
	<node id="-137033" lat="60.3993222201" lon="10.2076694444">
		<tag k="name" v="Espetjernvegen" />
		<tag k="ssr:date" v="2019-05-30" />
		<tag k="ssr:gruppe" v="veg" />
		<tag k="ssr:hovedgruppe" v="infrastruktur" />
		<tag k="ssr:stedsnr" v="242684" />
		<tag k="ssr:type" v="adressenavn" />
	</node>
	<node id="-138545" lat="60.5181444465" lon="10.2946277832">
		<tag k="name" v="Dalsvegen" />
		<tag k="ssr:date" v="2019-05-30" />
		<tag k="ssr:gruppe" v="veg" />
		<tag k="ssr:hovedgruppe" v="infrastruktur" />
		<tag k="ssr:stedsnr" v="909707" />
		<tag k="ssr:type" v="adressenavn" />
	</node>
	<node id="-136368" lat="60.476383177" lon="10.2325443865">
		<tag k="name" v="Svarttjernvegen" />
		<tag k="ssr:date" v="2019-05-30" />
		<tag k="ssr:gruppe" v="veg" />
		<tag k="ssr:hovedgruppe" v="infrastruktur" />
		<tag k="ssr:stedsnr" v="1019208" />
		<tag k="ssr:type" v="adressenavn" />
	</node>
	<node id="-137032" lat="60.4325972187" lon="10.3826277742">
		<tag k="name" v="Gråbeinmyrvegen" />
		<tag k="ssr:date" v="2019-05-30" />
		<tag k="ssr:gruppe" v="veg" />
		<tag k="ssr:hovedgruppe" v="infrastruktur" />
		<tag k="ssr:stedsnr" v="242672" />
		<tag k="ssr:type" v="adressenavn" />
	</node>
	<node id="-136366" lat="60.4178816132" lon="10.4771096212">
		<tag k="name" v="Bråtålia" />
		<tag k="ssr:date" v="2019-05-30" />
		<tag k="ssr:gruppe" v="veg" />
		<tag k="ssr:hovedgruppe" v="infrastruktur" />
		<tag k="ssr:stedsnr" v="1019063" />
		<tag k="ssr:type" v="adressenavn" />
	</node>
	<node id="-136365" lat="60.4189278971" lon="10.4791007137">
		<tag k="name" v="Tomtelia" />
		<tag k="ssr:date" v="2019-05-30" />
		<tag k="ssr:gruppe" v="veg" />
		<tag k="ssr:hovedgruppe" v="infrastruktur" />
		<tag k="ssr:stedsnr" v="1019062" />
		<tag k="ssr:type" v="adressenavn" />
	</node>
	<node id="-136364" lat="60.3923788744" lon="10.5663966659">
		<tag k="name" v="Almsgjerdinga" />
		<tag k="ssr:date" v="2019-05-30" />
		<tag k="ssr:gruppe" v="veg" />
		<tag k="ssr:hovedgruppe" v="infrastruktur" />
		<tag k="ssr:stedsnr" v="1018289" />
		<tag k="ssr:type" v="adressenavn" />
	</node>
	<node id="-138411" lat="60.4938166664" lon="10.3339388947">
		<tag k="name" v="Jønnestjernvegen" />
		<tag k="ssr:date" v="2019-05-30" />
		<tag k="ssr:gruppe" v="veg" />
		<tag k="ssr:hovedgruppe" v="infrastruktur" />
		<tag k="ssr:stedsnr" v="849736" />
		<tag k="ssr:type" v="adressenavn" />
	</node>
	<node id="-138410" lat="60.4974138923" lon="10.1911277851">
		<tag k="name" v="Nysætervegen" />
		<tag k="ssr:date" v="2019-05-30" />
		<tag k="ssr:gruppe" v="veg" />
		<tag k="ssr:hovedgruppe" v="infrastruktur" />
		<tag k="ssr:stedsnr" v="849617" />
		<tag k="ssr:type" v="adressenavn" />
	</node>
	<node id="-138409" lat="60.4422999969" lon="10.364938881">
		<tag k="name" v="Kvilebakkvegen" />
		<tag k="ssr:date" v="2019-05-30" />
		<tag k="ssr:gruppe" v="veg" />
		<tag k="ssr:hovedgruppe" v="infrastruktur" />
		<tag k="ssr:stedsnr" v="849332" />
		<tag k="ssr:type" v="adressenavn" />
	</node>
	<node id="-136360" lat="60.367374079" lon="10.5596349969">
		<tag k="name" v="Jarhaugvegen" />
		<tag k="ssr:date" v="2019-05-30" />
		<tag k="ssr:gruppe" v="veg" />
		<tag k="ssr:hovedgruppe" v="infrastruktur" />
		<tag k="ssr:stedsnr" v="1016326" />
		<tag k="ssr:type" v="adressenavn" />
	</node>
	<node id="-136359" lat="60.3189624237" lon="10.6063371486">
		<tag k="name" v="Dynnamarka" />
		<tag k="ssr:date" v="2019-05-30" />
		<tag k="ssr:gruppe" v="veg" />
		<tag k="ssr:hovedgruppe" v="infrastruktur" />
		<tag k="ssr:stedsnr" v="1016285" />
		<tag k="ssr:type" v="adressenavn" />
	</node>
	<node id="-136495" lat="60.504283333" lon="10.3494694458">
		<tag k="name" v="Mobergvegen" />
		<tag k="ssr:date" v="2019-05-30" />
		<tag k="ssr:gruppe" v="veg" />
		<tag k="ssr:hovedgruppe" v="infrastruktur" />
		<tag k="ssr:stedsnr" v="51642" />
		<tag k="ssr:type" v="adressenavn" />
	</node>
	<node id="-136369" lat="60.4428914625" lon="10.2165274815">
		<tag k="name" v="Sætergråen" />
		<tag k="ssr:date" v="2019-05-30" />
		<tag k="ssr:gruppe" v="veg" />
		<tag k="ssr:hovedgruppe" v="infrastruktur" />
		<tag k="ssr:stedsnr" v="1019323" />
		<tag k="ssr:type" v="adressenavn" />
	</node>
	<node id="-136367" lat="60.3970507645" lon="10.3384914019">
		<tag k="name" v="Veltavegen" />
		<tag k="ssr:date" v="2019-05-30" />
		<tag k="ssr:gruppe" v="veg" />
		<tag k="ssr:hovedgruppe" v="infrastruktur" />
		<tag k="ssr:stedsnr" v="1019196" />
		<tag k="ssr:type" v="adressenavn" />
	</node>
	<node id="-137157" lat="60.4277138856" lon="10.3597861169">
		<tag k="name" v="Kvernvollsætervegen" />
		<tag k="ssr:date" v="2019-05-30" />
		<tag k="ssr:gruppe" v="veg" />
		<tag k="ssr:hovedgruppe" v="infrastruktur" />
		<tag k="ssr:stedsnr" v="424305" />
		<tag k="ssr:type" v="adressenavn" />
	</node>
	<node id="-137867" lat="60.3959416692" lon="10.3171027705">
		<tag k="name" v="Motjernsvegen" />
		<tag k="ssr:date" v="2019-05-30" />
		<tag k="ssr:gruppe" v="veg" />
		<tag k="ssr:hovedgruppe" v="infrastruktur" />
		<tag k="ssr:stedsnr" v="666659" />
		<tag k="ssr:type" v="adressenavn" />
	</node>
	<node id="-137667" lat="60.4974222183" lon="10.1911999975">
		<tag k="name" v="Trønvikvegen" />
		<tag k="ssr:date" v="2019-05-30" />
		<tag k="ssr:gruppe" v="veg" />
		<tag k="ssr:hovedgruppe" v="infrastruktur" />
		<tag k="ssr:stedsnr" v="605593" />
		<tag k="ssr:type" v="adressenavn" />
	</node>
	<node id="-137487" lat="60.4423555519" lon="10.3648138837">
		<tag k="name" v="Klæmavegen" />
		<tag k="ssr:date" v="2019-05-30" />
		<tag k="ssr:gruppe" v="veg" />
		<tag k="ssr:hovedgruppe" v="infrastruktur" />
		<tag k="ssr:stedsnr" v="545683" />
		<tag k="ssr:type" v="adressenavn" />
	</node>
	<node id="-137486" lat="60.5073499986" lon="10.2541333307">
		<tag k="name" v="Klengebekkvegen" />
		<tag k="ssr:date" v="2019-05-30" />
		<tag k="ssr:gruppe" v="veg" />
		<tag k="ssr:hovedgruppe" v="infrastruktur" />
		<tag k="ssr:stedsnr" v="545566" />
		<tag k="ssr:type" v="adressenavn" />
	</node>
	<node id="-137485" lat="60.5094305563" lon="10.2782527738">
		<tag k="name" v="Gutudalslinna" />
		<tag k="ssr:date" v="2019-05-30" />
		<tag k="ssr:gruppe" v="veg" />
		<tag k="ssr:hovedgruppe" v="infrastruktur" />
		<tag k="ssr:stedsnr" v="545564" />
		<tag k="ssr:type" v="adressenavn" />
	</node>
	<node id="-137868" lat="60.4545333365" lon="10.214116673">
		<tag k="name" v="Båhusvegen" />
		<tag k="ssr:date" v="2019-05-30" />
		<tag k="ssr:gruppe" v="veg" />
		<tag k="ssr:hovedgruppe" v="infrastruktur" />
		<tag k="ssr:stedsnr" v="666699" />
		<tag k="ssr:type" v="adressenavn" />
	</node>
	<node id="-138123" lat="60.398430553" lon="10.6357277691">
		<tag k="name" v="Geithusmyrbakka" />
		<tag k="ssr:date" v="2016-05-11" />
		<tag k="ssr:gruppe" v="veg" />
		<tag k="ssr:hovedgruppe" v="infrastruktur" />
		<tag k="ssr:stedsnr" v="757574" />
		<tag k="ssr:type" v="vegstrekning" />
	</node>
	<node id="-137866" lat="60.5149000034" lon="10.227230561">
		<tag k="name" v="Gravåavegen" />
		<tag k="ssr:date" v="2019-05-30" />
		<tag k="ssr:gruppe" v="veg" />
		<tag k="ssr:hovedgruppe" v="infrastruktur" />
		<tag k="ssr:stedsnr" v="666570" />
		<tag k="ssr:type" v="adressenavn" />
	</node>
	<node id="-137865" lat="60.3987499965" lon="10.3636416613">
		<tag k="name" v="Mørkgonga" />
		<tag k="ssr:date" v="2019-05-30" />
		<tag k="ssr:gruppe" v="veg" />
		<tag k="ssr:hovedgruppe" v="infrastruktur" />
		<tag k="ssr:stedsnr" v="666313" />
		<tag k="ssr:type" v="adressenavn" />
	</node>
	<node id="-137864" lat="60.4266055566" lon="10.3611749976">
		<tag k="name" v="Flåtåmyrvegen" />
		<tag k="ssr:date" v="2019-05-30" />
		<tag k="ssr:gruppe" v="veg" />
		<tag k="ssr:hovedgruppe" v="infrastruktur" />
		<tag k="ssr:stedsnr" v="666314" />
		<tag k="ssr:type" v="adressenavn" />
	</node>
	<node id="-137031" lat="60.396866668" lon="10.3350527737">
		<tag k="name" v="Sortungsvegen" />
		<tag k="ssr:date" v="2019-05-30" />
		<tag k="ssr:gruppe" v="veg" />
		<tag k="ssr:hovedgruppe" v="infrastruktur" />
		<tag k="ssr:stedsnr" v="242641" />
		<tag k="ssr:type" v="adressenavn" />
	</node>
	<node id="-136662" lat="60.4683500017" lon="10.2590138823">
		<tag k="name" v="Sevaldrudholmen" />
		<tag k="ssr:date" v="2019-05-30" />
		<tag k="ssr:gruppe" v="veg" />
		<tag k="ssr:hovedgruppe" v="infrastruktur" />
		<tag k="ssr:stedsnr" v="120690" />
		<tag k="ssr:type" v="adressenavn" />
	</node>
	<node id="-136363" lat="60.441295116" lon="10.6498311116">
		<tag k="name" v="Lokkerbakken" />
		<tag k="ssr:date" v="2019-05-30" />
		<tag k="ssr:gruppe" v="veg" />
		<tag k="ssr:hovedgruppe" v="infrastruktur" />
		<tag k="ssr:stedsnr" v="1018142" />
		<tag k="ssr:type" v="adressenavn" />
	</node>
</osm>
