<?xml version="1.0" encoding="UTF-8"?>
<osm version="0.6" generator="osmapis">
	<node lat="63.381947222241195" lon="10.363458331647694" id="-26982">
		<tag k="name" v="Selsbakk/Romulslia" />
		<tag k="ssr:date" v="2018-01-09" />
		<tag k="ssr:gruppe" v="administrativeIndelinger" />
		<tag k="ssr:hovedgruppe" v="offentligAdministrasjon" />
		<tag k="ssr:stedsnr" v="42980" />
		<tag k="ssr:type" v="administrativBydel" />
	</node>
	<node lat="63.45687222477498" lon="10.445016667948583" id="-26990">
		<tag k="loc_name" v="Østmarkneset" />
		<tag k="name" v="Østmarktangen" />
		<tag k="ssr:date" v="2018-01-09" />
		<tag k="ssr:gruppe" v="navigasjon" />
		<tag k="ssr:hovedgruppe" v="infrastruktur" />
		<tag k="ssr:stedsnr" v="44638" />
		<tag k="ssr:type" v="fyrlykt" />
	</node>
	<node lat="63.46369444134809" lon="10.393433335684165" id="-26991">
		<tag k="name" v="Tua" />
		<tag k="old_name" v="Tuva" />
		<tag k="ssr:date" v="2018-01-09" />
		<tag k="ssr:gruppe" v="navigasjon" />
		<tag k="ssr:hovedgruppe" v="infrastruktur" />
		<tag k="ssr:stedsnr" v="44672" />
		<tag k="ssr:type" v="lanterne" />
	</node>
	<node lat="63.439405552123326" lon="10.429541659771417" id="-26997">
		<tag k="name" v="Nordlandsbanen" />
		<tag k="ssr:date" v="2018-01-09" />
		<tag k="ssr:gruppe" v="bane" />
		<tag k="ssr:hovedgruppe" v="infrastruktur" />
		<tag k="ssr:stedsnr" v="238196" />
		<tag k="ssr:type" v="banestrekning" />
	</node>
	<node lat="63.33282499921169" lon="10.293563896297105" id="-27039">
		<tag k="name" v="Bynesvegen" />
		<tag k="ssr:date" v="2018-01-09" />
		<tag k="ssr:gruppe" v="veg" />
		<tag k="ssr:hovedgruppe" v="infrastruktur" />
		<tag k="ssr:stedsnr" v="57532" />
		<tag k="ssr:type" v="vegstrekning" />
	</node>
	<node lat="63.43025833407875" lon="10.220577782109038" id="-27134">
		<tag k="alt_name" v="Byvegen;Tømmerdalsvegen" />
		<tag k="name" v="Gamle Bynesveg" />
		<tag k="ssr:date" v="2021-06-08" />
		<tag k="ssr:gruppe" v="veg" />
		<tag k="ssr:hovedgruppe" v="infrastruktur" />
		<tag k="ssr:stedsnr" v="86683" />
		<tag k="ssr:type" v="vegstrekning" />
	</node>
	<node lat="63.41677221906258" lon="10.29245832813662" id="-27206">
		<tag k="name" v="Storsvingen" />
		<tag k="ssr:date" v="2018-01-09" />
		<tag k="ssr:gruppe" v="veg" />
		<tag k="ssr:hovedgruppe" v="infrastruktur" />
		<tag k="ssr:stedsnr" v="116677" />
		<tag k="ssr:type" v="vegstrekning" />
	</node>
	<node lat="63.44003055184246" lon="10.446836107167734" id="-27298">
		<tag k="name" v="Stavne-Leangenbanen" />
		<tag k="ssr:date" v="2018-01-09" />
		<tag k="ssr:gruppe" v="bane" />
		<tag k="ssr:hovedgruppe" v="infrastruktur" />
		<tag k="ssr:stedsnr" v="163467" />
		<tag k="ssr:type" v="banestrekning" />
	</node>
	<node lat="63.44458888466856" lon="10.20394444691214" id="-27420">
		<tag k="name" v="Rønningan" />
		<tag k="ssr:date" v="2021-06-08" />
		<tag k="ssr:gruppe" v="veg" />
		<tag k="ssr:hovedgruppe" v="infrastruktur" />
		<tag k="ssr:stedsnr" v="210326" />
		<tag k="ssr:type" v="vegstrekning" />
	</node>
	<node lat="63.437044445878655" lon="10.391455547643734" id="-27612">
		<tag k="name" v="Ytre havn, Nordre" />
		<tag k="ssr:date" v="2018-01-09" />
		<tag k="ssr:gruppe" v="navigasjon" />
		<tag k="ssr:hovedgruppe" v="infrastruktur" />
		<tag k="ssr:stedsnr" v="283685" />
		<tag k="ssr:type" v="fyrlykt" />
	</node>
	<node lat="63.4401111119087" lon="10.451288885414552" id="-27667">
		<tag k="name" v="Meråkerbanen" />
		<tag k="ssr:date" v="2018-01-09" />
		<tag k="ssr:gruppe" v="bane" />
		<tag k="ssr:hovedgruppe" v="infrastruktur" />
		<tag k="ssr:stedsnr" v="302174" />
		<tag k="ssr:type" v="banestrekning" />
	</node>
	<node lat="63.40986666621936" lon="10.439386107840587" id="-27728">
		<tag k="name" v="Moholt" />
		<tag k="ssr:date" v="2021-06-08" />
		<tag k="ssr:gruppe" v="administrativeIndelinger" />
		<tag k="ssr:hovedgruppe" v="offentligAdministrasjon" />
		<tag k="ssr:stedsnr" v="326568" />
		<tag k="ssr:type" v="poststed" />
	</node>
	<node lat="63.44645555447415" lon="10.416699990232344" id="-27770">
		<tag k="name" v="Lade molo, Nordre" />
		<tag k="ssr:date" v="2018-01-09" />
		<tag k="ssr:gruppe" v="navigasjon" />
		<tag k="ssr:hovedgruppe" v="infrastruktur" />
		<tag k="ssr:stedsnr" v="344710" />
		<tag k="ssr:type" v="fyrlykt" />
	</node>
	<node lat="63.42593611402449" lon="10.36961667141226" id="-27853">
		<tag k="name" v="Gråkallbanen" />
		<tag k="old_name" v="Graakalbanen" />
		<tag k="ssr:date" v="2018-01-09" />
		<tag k="ssr:gruppe" v="bane" />
		<tag k="ssr:hovedgruppe" v="infrastruktur" />
		<tag k="ssr:stedsnr" v="476745" />
		<tag k="ssr:type" v="banestrekning" />
	</node>
	<node lat="63.410841662756226" lon="10.400638893445285" id="-27910">
		<tag k="name" v="Tempe og Leira menighet" />
		<tag k="ssr:date" v="2018-01-09" />
		<tag k="ssr:gruppe" v="administrativeIndelinger" />
		<tag k="ssr:hovedgruppe" v="offentligAdministrasjon" />
		<tag k="ssr:stedsnr" v="483754" />
		<tag k="ssr:type" v="annenAdministrativInndeling" />
	</node>
	<node lat="63.43355833389031" lon="10.376113898401007" id="-28028">
		<tag k="name" v="Skansen løp, Østre" />
		<tag k="old_name" v="Skansenløpet, Østre;Skansen lykt" />
		<tag k="ssr:date" v="2018-01-09" />
		<tag k="ssr:gruppe" v="navigasjon" />
		<tag k="ssr:hovedgruppe" v="infrastruktur" />
		<tag k="ssr:stedsnr" v="465614" />
		<tag k="ssr:type" v="fyrlykt" />
	</node>
	<node lat="63.4333611138259" lon="10.375022230311435" id="-28029">
		<tag k="alt_name" v="Skansen løp, Vestre" />
		<tag k="name" v="Skansenløpet, Vestre" />
		<tag k="ssr:date" v="2018-01-09" />
		<tag k="ssr:gruppe" v="navigasjon" />
		<tag k="ssr:hovedgruppe" v="infrastruktur" />
		<tag k="ssr:stedsnr" v="465618" />
		<tag k="ssr:type" v="lanterne" />
	</node>
	<node lat="63.39911944045326" lon="10.437747222766047" id="-28083">
		<tag k="name" v="Risvollan/Othilienborg" />
		<tag k="ssr:date" v="2018-01-09" />
		<tag k="ssr:gruppe" v="administrativeIndelinger" />
		<tag k="ssr:hovedgruppe" v="offentligAdministrasjon" />
		<tag k="ssr:stedsnr" v="484811" />
		<tag k="ssr:type" v="administrativBydel" />
	</node>
	<node lat="63.43650555608772" lon="10.391611116045015" id="-28193">
		<tag k="name" v="Olavspiren" />
		<tag k="ssr:date" v="2018-01-09" />
		<tag k="ssr:gruppe" v="navigasjon" />
		<tag k="ssr:hovedgruppe" v="infrastruktur" />
		<tag k="ssr:stedsnr" v="526702" />
		<tag k="ssr:type" v="fyrlykt" />
	</node>
	<node lat="63.4281055593997" lon="10.396874994816324" id="-28338">
		<tag k="name" v="Trondheim kommune" />
		<tag k="ssr:date" v="2018-01-09" />
		<tag k="ssr:gruppe" v="administrativeIndelinger" />
		<tag k="ssr:hovedgruppe" v="offentligAdministrasjon" />
		<tag k="ssr:stedsnr" v="572507" />
		<tag k="ssr:type" v="kommune" />
	</node>
	<node lat="63.396627778332665" lon="10.291713893739505" id="-28340">
		<tag k="name" v="Stykkesvegen" />
		<tag k="ssr:date" v="2018-01-09" />
		<tag k="ssr:gruppe" v="veg" />
		<tag k="ssr:hovedgruppe" v="infrastruktur" />
		<tag k="ssr:stedsnr" v="693935" />
		<tag k="ssr:type" v="vegstrekning" />
	</node>
	<node lat="63.39428889091532" lon="10.409968521634065" id="-28388">
		<tag k="name" v="Nidarvoll/Leira" />
		<tag k="ssr:date" v="2020-06-16" />
		<tag k="ssr:gruppe" v="administrativeIndelinger" />
		<tag k="ssr:hovedgruppe" v="offentligAdministrasjon" />
		<tag k="ssr:stedsnr" v="587906" />
		<tag k="ssr:type" v="administrativBydel" />
	</node>
	<node lat="63.45112222494457" lon="10.382713888538644" id="-28539">
		<tag k="name" v="Munkholmen" />
		<tag k="ssr:date" v="2018-01-09" />
		<tag k="ssr:gruppe" v="navigasjon" />
		<tag k="ssr:hovedgruppe" v="infrastruktur" />
		<tag k="ssr:stedsnr" v="650626" />
		<tag k="ssr:type" v="fyrlykt" />
	</node>
	<node lat="63.3398037280851" lon="10.325800579464962" id="-28577">
		<tag k="alt_name" v="Ustbakken" />
		<tag k="name" v="Ustbakkan" />
		<tag k="ssr:date" v="2018-01-09" />
		<tag k="ssr:gruppe" v="veg" />
		<tag k="ssr:hovedgruppe" v="infrastruktur" />
		<tag k="ssr:stedsnr" v="664616" />
		<tag k="ssr:type" v="vegstrekning" />
	</node>
	<node lat="63.44398611520295" lon="10.410441670647659" id="-28773">
		<tag k="name" v="Lade molo, Vestre" />
		<tag k="ssr:date" v="2018-01-09" />
		<tag k="ssr:gruppe" v="navigasjon" />
		<tag k="ssr:hovedgruppe" v="infrastruktur" />
		<tag k="ssr:stedsnr" v="720869" />
		<tag k="ssr:type" v="lanterne" />
	</node>
	<node lat="63.42560833373162" lon="10.411561113092615" id="-29020">
		<tag k="name" v="Øya/Singsaker" />
		<tag k="ssr:date" v="2018-01-09" />
		<tag k="ssr:gruppe" v="administrativeIndelinger" />
		<tag k="ssr:hovedgruppe" v="offentligAdministrasjon" />
		<tag k="ssr:stedsnr" v="830338" />
		<tag k="ssr:type" v="administrativBydel" />
	</node>
	<node lat="63.36960832920473" lon="10.207605561370958" id="-29142">
		<tag k="name" v="Sætervegen" />
		<tag k="ssr:date" v="2021-06-08" />
		<tag k="ssr:gruppe" v="veg" />
		<tag k="ssr:hovedgruppe" v="infrastruktur" />
		<tag k="ssr:stedsnr" v="877120" />
		<tag k="ssr:type" v="vegstrekning" />
	</node>
	<node lat="63.42185000258921" lon="10.430250000633182" id="-29185">
		<tag k="name" v="Berg/Tyholt/Moholt" />
		<tag k="ssr:date" v="2018-01-09" />
		<tag k="ssr:gruppe" v="administrativeIndelinger" />
		<tag k="ssr:hovedgruppe" v="offentligAdministrasjon" />
		<tag k="ssr:stedsnr" v="892359" />
		<tag k="ssr:type" v="administrativBydel" />
	</node>
	<node lat="63.255494446467225" lon="10.576755557903544" id="-29260">
		<tag k="name" v="Korsvegen" />
		<tag k="ssr:date" v="2021-06-08" />
		<tag k="ssr:gruppe" v="veg" />
		<tag k="ssr:hovedgruppe" v="infrastruktur" />
		<tag k="ssr:stedsnr" v="948836" />
		<tag k="ssr:type" v="vegstrekning" />
	</node>
	<node lat="63.41146944665386" lon="10.513572232131054" id="-29307">
		<tag k="name" v="Bratsberg/Jonsvatnet" />
		<tag k="ssr:date" v="2018-01-09" />
		<tag k="ssr:gruppe" v="administrativeIndelinger" />
		<tag k="ssr:hovedgruppe" v="offentligAdministrasjon" />
		<tag k="ssr:stedsnr" v="967146" />
		<tag k="ssr:type" v="administrativBydel" />
	</node>
	<node lat="64.014446801577" lon="11.48188662926966" id="-29325">
		<tag k="name" v="Trøndelag fylke - Trööndelagen fylhke" />
		<tag k="name:no" v="Trøndelag fylke" />
		<tag k="name:sma" v="Trööndelagen fylhke" />
		<tag k="ssr:date" v="2021-06-08" />
		<tag k="ssr:gruppe" v="administrativeIndelinger" />
		<tag k="ssr:hovedgruppe" v="offentligAdministrasjon" />
		<tag k="ssr:stedsnr" v="980645" />
		<tag k="ssr:type" v="fylke" />
	</node>
	<node lat="63.3933149866851" lon="10.439419240513637" id="-29329">
		<tag k="name" v="Anna Haarsakers veg" />
		<tag k="ssr:date" v="2019-05-30" />
		<tag k="ssr:gruppe" v="veg" />
		<tag k="ssr:hovedgruppe" v="infrastruktur" />
		<tag k="ssr:stedsnr" v="990472" />
		<tag k="ssr:type" v="adressenavn" />
	</node>
	<node lat="63.41523883112293" lon="10.476248442314812" id="-29331">
		<tag k="name" v="Bonesvegen" />
		<tag k="ssr:date" v="2019-05-30" />
		<tag k="ssr:gruppe" v="veg" />
		<tag k="ssr:hovedgruppe" v="infrastruktur" />
		<tag k="ssr:stedsnr" v="990473" />
		<tag k="ssr:type" v="adressenavn" />
	</node>
	<node lat="63.33119166300588" lon="10.34036667073908" id="-29447">
		<tag k="name" v="Dovrebanen" />
		<tag k="ssr:date" v="2018-01-09" />
		<tag k="ssr:gruppe" v="bane" />
		<tag k="ssr:hovedgruppe" v="infrastruktur" />
		<tag k="ssr:stedsnr" v="41588" />
		<tag k="ssr:type" v="banestrekning" />
	</node>
	<node lat="63.433158331150196" lon="10.185308338145827" id="-29846">
		<tag k="name" v="Myrvegen" />
		<tag k="ssr:date" v="2021-06-08" />
		<tag k="ssr:gruppe" v="veg" />
		<tag k="ssr:hovedgruppe" v="infrastruktur" />
		<tag k="ssr:stedsnr" v="148479" />
		<tag k="ssr:type" v="vegstrekning" />
	</node>
	<node lat="63.38773333381371" lon="10.311363893974569" id="-29849">
		<tag k="name" v="Gammelvegen" />
		<tag k="ssr:date" v="2021-06-08" />
		<tag k="ssr:gruppe" v="veg" />
		<tag k="ssr:hovedgruppe" v="infrastruktur" />
		<tag k="ssr:stedsnr" v="149217" />
		<tag k="ssr:type" v="vegstrekning" />
	</node>
	<node lat="63.418108337015695" lon="10.341338883744765" id="-29943">
		<tag k="name" v="Ferista" />
		<tag k="ssr:date" v="2018-01-09" />
		<tag k="ssr:gruppe" v="veg" />
		<tag k="ssr:hovedgruppe" v="infrastruktur" />
		<tag k="ssr:stedsnr" v="176655" />
		<tag k="ssr:type" v="vegstrekning" />
	</node>
	<node lat="63.44501944749349" lon="10.420216673120139" id="-29944">
		<tag k="name" v="Ladehamaren" />
		<tag k="ssr:date" v="2018-01-09" />
		<tag k="ssr:gruppe" v="navigasjon" />
		<tag k="ssr:hovedgruppe" v="infrastruktur" />
		<tag k="ssr:stedsnr" v="177043" />
		<tag k="ssr:type" v="lanterne" />
	</node>
</osm>
