<?xml version="1.0" encoding="UTF-8"?>
<osm version="0.6" generator="osmapis">
	<node lat="63.4069055510078" lon="10.502719453986549" id="-26929">
		<tag k="old_name" v="Luna" />
		<tag k="place" v="isolated_dwelling" />
		<tag k="ssr:date" v="2018-01-09" />
		<tag k="ssr:gruppe" v="bolighus" />
		<tag k="ssr:hovedgruppe" v="bebyggelse" />
		<tag k="ssr:stedsnr" v="233564" />
		<tag k="ssr:type" v="eneboligMindreBoligbygg" />
	</node>
	<node lat="63.44658889163451" lon="10.441188896708665" id="-27017">
		<tag k="amenity" v="school" />
		<tag k="old_name" v="Sosialskolen" />
		<tag k="ssr:date" v="2018-01-09" />
		<tag k="ssr:gruppe" v="institusjoner" />
		<tag k="ssr:hovedgruppe" v="bebyggelse" />
		<tag k="ssr:stedsnr" v="239256" />
		<tag k="ssr:type" v="skole" />
	</node>
	<node lat="63.44049722277394" lon="10.445313892031788" id="-27019">
		<tag k="amenity" v="nursing_home" />
		<tag k="old_name" v="Barneverninstituttet" />
		<tag k="ssr:date" v="2018-01-09" />
		<tag k="ssr:gruppe" v="institusjoner" />
		<tag k="ssr:hovedgruppe" v="bebyggelse" />
		<tag k="ssr:stedsnr" v="239274" />
		<tag k="ssr:type" v="helseinstitusjon" />
	</node>
	<node lat="63.37076853255202" lon="10.436665080529004" id="-27035">
		<tag k="amenity" v="school" />
		<tag k="old_name" v="Lialøkken skole" />
		<tag k="ssr:date" v="2019-04-29" />
		<tag k="ssr:gruppe" v="institusjoner" />
		<tag k="ssr:hovedgruppe" v="bebyggelse" />
		<tag k="ssr:stedsnr" v="56583" />
		<tag k="ssr:type" v="skole" />
	</node>
	<node lat="63.42399782044586" lon="10.487963824006801" id="-27062">
		<tag k="old_name" v="Midtre Tunhøgda" />
		<tag k="place" v="neighbourhood" />
		<tag k="ssr:date" v="2021-11-16" />
		<tag k="ssr:gruppe" v="bolighus" />
		<tag k="ssr:hovedgruppe" v="bebyggelse" />
		<tag k="ssr:stedsnr" v="241238" />
		<tag k="ssr:type" v="borettslag" />
	</node>
	<node lat="63.425372220761034" lon="10.468058331198518" id="-27064">
		<tag k="building" v="industrial" />
		<tag k="industrial" v="factory" />
		<tag k="old_name" v="Landteknikk" />
		<tag k="ssr:date" v="2018-01-09" />
		<tag k="ssr:gruppe" v="næring" />
		<tag k="ssr:hovedgruppe" v="bebyggelse" />
		<tag k="ssr:stedsnr" v="241253" />
		<tag k="ssr:type" v="fabrikk" />
	</node>
	<node lat="63.41813611254331" lon="10.49394999965472" id="-27097">
		<tag k="old_name" v="Fredrikkefryd" />
		<tag k="place" v="farm" />
		<tag k="ssr:date" v="2018-01-09" />
		<tag k="ssr:gruppe" v="gardsbebyggelse" />
		<tag k="ssr:hovedgruppe" v="bebyggelse" />
		<tag k="ssr:stedsnr" v="74605" />
		<tag k="ssr:type" v="bruk" />
	</node>
	<node lat="63.424254415149086" lon="10.48921054987148" id="-27210">
		<tag k="old_name" v="Østre Tunhøgda" />
		<tag k="place" v="neighbourhood" />
		<tag k="ssr:date" v="2021-11-16" />
		<tag k="ssr:gruppe" v="bolighus" />
		<tag k="ssr:hovedgruppe" v="bebyggelse" />
		<tag k="ssr:stedsnr" v="119230" />
		<tag k="ssr:type" v="borettslag" />
	</node>
	<node lat="63.35161388989486" lon="10.250180556392674" id="-27217">
		<tag k="amenity" v="hospital" />
		<tag k="old_name" v="Ringvål sanatorium;Ringvål sykehus" />
		<tag k="ssr:date" v="2018-01-09" />
		<tag k="ssr:gruppe" v="institusjoner" />
		<tag k="ssr:hovedgruppe" v="bebyggelse" />
		<tag k="ssr:stedsnr" v="121918" />
		<tag k="ssr:type" v="sykehus" />
	</node>
	<node lat="63.36814167052973" lon="10.359725007991688" id="-27340">
		<tag k="old_name" v="Kolstad" />
		<tag k="place" v="farm" />
		<tag k="ssr:date" v="2018-01-09" />
		<tag k="ssr:gruppe" v="gardsbebyggelse" />
		<tag k="ssr:hovedgruppe" v="bebyggelse" />
		<tag k="ssr:stedsnr" v="179408" />
		<tag k="ssr:type" v="bruk" />
	</node>
	<node lat="63.43051944719749" lon="10.36626944266969" id="-27342">
		<tag k="loc_name" v="Martagjerdet" />
		<tag k="place" v="locality" />
		<tag k="ssr:date" v="2018-01-09" />
		<tag k="ssr:gruppe" v="gardsbebyggelse" />
		<tag k="ssr:hovedgruppe" v="bebyggelse" />
		<tag k="ssr:stedsnr" v="179972" />
		<tag k="ssr:type" v="eiendom" />
	</node>
	<node lat="63.33398055490357" lon="10.34910555540348" id="-27528">
		<tag k="old_name" v="Heggstadmoen" />
		<tag k="place" v="farm" />
		<tag k="ssr:date" v="2018-01-09" />
		<tag k="ssr:gruppe" v="gardsbebyggelse" />
		<tag k="ssr:hovedgruppe" v="bebyggelse" />
		<tag k="ssr:stedsnr" v="241690" />
		<tag k="ssr:type" v="bruk" />
	</node>
	<node lat="63.30495833160739" lon="10.464019448437767" id="-27601">
		<tag k="amenity" v="school" />
		<tag k="old_name" v="Sørborgen ungdomsskole" />
		<tag k="ssr:date" v="2019-12-27" />
		<tag k="ssr:gruppe" v="institusjoner" />
		<tag k="ssr:hovedgruppe" v="bebyggelse" />
		<tag k="ssr:stedsnr" v="281602" />
		<tag k="ssr:type" v="skole" />
	</node>
	<node lat="63.34430277825745" lon="10.179011115646354" id="-27609">
		<tag k="fixme" v="consider boundary=protected_area and relevant protect_class if not nature reserve" />
		<tag k="leisure" v="nature_reserve" />
		<tag k="loc_name" v="Gaulosen naturreservat" />
		<tag k="old_name" v="Gaulosen landskapsvernområde" />
		<tag k="ssr:date" v="2018-01-09" />
		<tag k="ssr:gruppe" v="verne-OgBruksområder" />
		<tag k="ssr:hovedgruppe" v="offentligAdministrasjon" />
		<tag k="ssr:stedsnr" v="283378" />
		<tag k="ssr:type" v="verneområde" />
	</node>
	<node lat="63.384572220416025" lon="10.369866669808578" id="-27636">
		<tag k="old_name" v="Nedre Selsbakk" />
		<tag k="place" v="farm" />
		<tag k="ssr:date" v="2018-01-09" />
		<tag k="ssr:gruppe" v="gardsbebyggelse" />
		<tag k="ssr:hovedgruppe" v="bebyggelse" />
		<tag k="ssr:stedsnr" v="292375" />
		<tag k="ssr:type" v="bruk" />
	</node>
	<node lat="63.2566805577425" lon="10.517263879521426" id="-27656">
		<tag k="building" v="commercial" />
		<tag k="old_name" v="Grenstad poståpneri;Grendstad poståpneri" />
		<tag k="ssr:date" v="2019-12-27" />
		<tag k="ssr:gruppe" v="næring" />
		<tag k="ssr:hovedgruppe" v="bebyggelse" />
		<tag k="ssr:stedsnr" v="463585" />
		<tag k="ssr:type" v="forretningsbygg" />
	</node>
	<node lat="63.43281944638123" lon="10.407647222972312" id="-27660">
		<tag k="building" v="industrial" />
		<tag k="industrial" v="factory" />
		<tag k="old_name" v="Nordre Verft" />
		<tag k="ssr:date" v="2018-01-09" />
		<tag k="ssr:gruppe" v="næring" />
		<tag k="ssr:hovedgruppe" v="bebyggelse" />
		<tag k="ssr:stedsnr" v="300294" />
		<tag k="ssr:type" v="fabrikk" />
	</node>
	<node lat="63.40695277512363" lon="10.503441668565562" id="-27679">
		<tag k="old_name" v="Randistua" />
		<tag k="place" v="isolated_dwelling" />
		<tag k="ssr:date" v="2018-01-09" />
		<tag k="ssr:gruppe" v="bolighus" />
		<tag k="ssr:hovedgruppe" v="bebyggelse" />
		<tag k="ssr:stedsnr" v="465635" />
		<tag k="ssr:type" v="eneboligMindreBoligbygg" />
	</node>
	<node lat="63.37609166810559" lon="10.358261106842637" id="-27855">
		<tag k="fixme" v="consider place=hamlet" />
		<tag k="old_name" v="Fogdenget" />
		<tag k="place" v="farm" />
		<tag k="ssr:date" v="2018-01-09" />
		<tag k="ssr:gruppe" v="gardsbebyggelse" />
		<tag k="ssr:hovedgruppe" v="bebyggelse" />
		<tag k="ssr:stedsnr" v="485890" />
		<tag k="ssr:type" v="gard" />
	</node>
	<node lat="63.43646110686117" lon="10.412516660340605" id="-27863">
		<tag k="man_made" v="quay" />
		<tag k="old_name" v="Rosenborgkaia" />
		<tag k="place" v="locality" />
		<tag k="ssr:date" v="2018-01-09" />
		<tag k="ssr:gruppe" v="sjøfart" />
		<tag k="ssr:hovedgruppe" v="infrastruktur" />
		<tag k="ssr:stedsnr" v="482249" />
		<tag k="ssr:type" v="kai" />
	</node>
	<node lat="63.448249997913926" lon="10.444561105127274" id="-27864">
		<tag k="building" v="industrial" />
		<tag k="industrial" v="factory" />
		<tag k="old_name" v="Nobø Fabrikker" />
		<tag k="ssr:date" v="2018-01-09" />
		<tag k="ssr:gruppe" v="næring" />
		<tag k="ssr:hovedgruppe" v="bebyggelse" />
		<tag k="ssr:stedsnr" v="482252" />
		<tag k="ssr:type" v="fabrikk" />
	</node>
	<node lat="63.421061112074845" lon="10.436522219328705" id="-27871">
		<tag k="building" v="commercial" />
		<tag k="old_name" v="Televerket" />
		<tag k="ssr:date" v="2018-01-09" />
		<tag k="ssr:gruppe" v="næring" />
		<tag k="ssr:hovedgruppe" v="bebyggelse" />
		<tag k="ssr:stedsnr" v="482639" />
		<tag k="ssr:type" v="forretningsbygg" />
	</node>
	<node lat="63.43392222559331" lon="10.414075003672242" id="-27918">
		<tag k="fixme" v="consider place=hamlet" />
		<tag k="old_name" v="Rosenborg" />
		<tag k="place" v="farm" />
		<tag k="ssr:date" v="2018-01-09" />
		<tag k="ssr:gruppe" v="gardsbebyggelse" />
		<tag k="ssr:hovedgruppe" v="bebyggelse" />
		<tag k="ssr:stedsnr" v="404013" />
		<tag k="ssr:type" v="gard" />
	</node>
	<node lat="63.42974722059988" lon="10.389499994218179" id="-27959">
		<tag k="highway" v="bus_stop" />
		<tag k="old_name" v="Rutebilstasjonen" />
		<tag k="ssr:date" v="2018-01-09" />
		<tag k="ssr:gruppe" v="veg" />
		<tag k="ssr:hovedgruppe" v="infrastruktur" />
		<tag k="ssr:stedsnr" v="420309" />
		<tag k="ssr:type" v="busstopp" />
	</node>
	<node lat="63.42384444321619" lon="10.485533330325666" id="-27966">
		<tag k="old_name" v="Vestre Tunhøgda" />
		<tag k="place" v="neighbourhood" />
		<tag k="ssr:date" v="2021-11-16" />
		<tag k="ssr:gruppe" v="bolighus" />
		<tag k="ssr:hovedgruppe" v="bebyggelse" />
		<tag k="ssr:stedsnr" v="423251" />
		<tag k="ssr:type" v="borettslag" />
	</node>
	<node lat="63.45431944266501" lon="10.440955559055404" id="-27970">
		<tag k="old_name" v="Østmarka;Østmarken" />
		<tag k="place" v="farm" />
		<tag k="ssr:date" v="2018-01-09" />
		<tag k="ssr:gruppe" v="gardsbebyggelse" />
		<tag k="ssr:hovedgruppe" v="bebyggelse" />
		<tag k="ssr:stedsnr" v="423710" />
		<tag k="ssr:type" v="bruk" />
	</node>
	<node lat="63.3494638888238" lon="10.339616672406576" id="-27975">
		<tag k="fixme" v="consider place=hamlet" />
		<tag k="loc_name" v="Ustmyra" />
		<tag k="place" v="farm" />
		<tag k="ssr:date" v="2018-01-09" />
		<tag k="ssr:gruppe" v="gardsbebyggelse" />
		<tag k="ssr:hovedgruppe" v="bebyggelse" />
		<tag k="ssr:stedsnr" v="424899" />
		<tag k="ssr:type" v="gard" />
	</node>
	<node lat="63.44992778176888" lon="10.444605554870204" id="-28031">
		<tag k="amenity" v="school" />
		<tag k="old_name" v="Ringve skole;Ringve videregående skole" />
		<tag k="ssr:date" v="2018-01-09" />
		<tag k="ssr:gruppe" v="institusjoner" />
		<tag k="ssr:hovedgruppe" v="bebyggelse" />
		<tag k="ssr:stedsnr" v="465806" />
		<tag k="ssr:type" v="skole" />
	</node>
	<node lat="63.39510000244893" lon="10.364224990780047" id="-28078">
		<tag k="landuse" v="military" />
		<tag k="old_name" v="Munkvoll leir" />
		<tag k="ssr:date" v="2018-01-09" />
		<tag k="ssr:gruppe" v="institusjoner" />
		<tag k="ssr:hovedgruppe" v="bebyggelse" />
		<tag k="ssr:stedsnr" v="482468" />
		<tag k="ssr:type" v="militærtByggAnlegg" />
	</node>
	<node lat="63.37934999730905" lon="10.26128610914068" id="-28085">
		<tag k="fixme" v="consider place=hamlet" />
		<tag k="old_name" v="Leiråsen" />
		<tag k="place" v="farm" />
		<tag k="ssr:date" v="2018-01-09" />
		<tag k="ssr:gruppe" v="gardsbebyggelse" />
		<tag k="ssr:hovedgruppe" v="bebyggelse" />
		<tag k="ssr:stedsnr" v="485905" />
		<tag k="ssr:type" v="gard" />
	</node>
	<node lat="63.41640277646208" lon="10.431099995647296" id="-28192">
		<tag k="old_name" v="Eberg" />
		<tag k="place" v="farm" />
		<tag k="ssr:date" v="2018-01-09" />
		<tag k="ssr:gruppe" v="gardsbebyggelse" />
		<tag k="ssr:hovedgruppe" v="bebyggelse" />
		<tag k="ssr:stedsnr" v="526686" />
		<tag k="ssr:type" v="bruk" />
	</node>
	<node lat="63.410147224387174" lon="10.478713883292263" id="-28244">
		<tag k="old_name" v="Stokkan Nedre II" />
		<tag k="place" v="farm" />
		<tag k="ssr:date" v="2018-01-09" />
		<tag k="ssr:gruppe" v="gardsbebyggelse" />
		<tag k="ssr:hovedgruppe" v="bebyggelse" />
		<tag k="ssr:stedsnr" v="542165" />
		<tag k="ssr:type" v="bruk" />
	</node>
	<node lat="63.445927779738604" lon="10.34109444821405" id="-28249">
		<tag k="building" v="industrial" />
		<tag k="industrial" v="factory" />
		<tag k="old_name" v="Mobil Oil" />
		<tag k="ssr:date" v="2018-01-09" />
		<tag k="ssr:gruppe" v="næring" />
		<tag k="ssr:hovedgruppe" v="bebyggelse" />
		<tag k="ssr:stedsnr" v="544067" />
		<tag k="ssr:type" v="fabrikk" />
	</node>
	<node lat="63.33585277461468" lon="10.349472216832018" id="-28251">
		<tag k="old_name" v="Heggstadmoen" />
		<tag k="place" v="farm" />
		<tag k="ssr:date" v="2018-01-09" />
		<tag k="ssr:gruppe" v="gardsbebyggelse" />
		<tag k="ssr:hovedgruppe" v="bebyggelse" />
		<tag k="ssr:stedsnr" v="544703" />
		<tag k="ssr:type" v="bruk" />
	</node>
	<node lat="63.40520555336637" lon="10.503130546611349" id="-28384">
		<tag k="old_name" v="Tuftheim" />
		<tag k="place" v="isolated_dwelling" />
		<tag k="ssr:date" v="2018-01-09" />
		<tag k="ssr:gruppe" v="bolighus" />
		<tag k="ssr:hovedgruppe" v="bebyggelse" />
		<tag k="ssr:stedsnr" v="586702" />
		<tag k="ssr:type" v="eneboligMindreBoligbygg" />
	</node>
	<node lat="63.435694445245375" lon="10.494905550894426" id="-28419">
		<tag k="old_name" v="Charlottenlund gård" />
		<tag k="place" v="farm" />
		<tag k="ssr:date" v="2018-01-09" />
		<tag k="ssr:gruppe" v="gardsbebyggelse" />
		<tag k="ssr:hovedgruppe" v="bebyggelse" />
		<tag k="ssr:stedsnr" v="597649" />
		<tag k="ssr:type" v="bruk" />
	</node>
	<node lat="63.443344447276" lon="10.44766389536864" id="-28430">
		<tag k="building" v="commercial" />
		<tag k="loc_name" v="City Lade" />
		<tag k="old_name" v="N.K.L." />
		<tag k="ssr:date" v="2018-03-06" />
		<tag k="ssr:gruppe" v="næring" />
		<tag k="ssr:hovedgruppe" v="bebyggelse" />
		<tag k="ssr:stedsnr" v="603266" />
		<tag k="ssr:type" v="forretningsbygg" />
	</node>
	<node lat="63.43723888924109" lon="10.414800001280387" id="-28509">
		<tag k="bridge" v="yes" />
		<tag k="layer" v="1" />
		<tag k="loc_name" v="Jernbanebrua over Skippergata" />
		<tag k="ssr:date" v="2018-01-09" />
		<tag k="ssr:gruppe" v="samferdselsanlegg" />
		<tag k="ssr:hovedgruppe" v="infrastruktur" />
		<tag k="ssr:stedsnr" v="646047" />
		<tag k="ssr:type" v="bru" />
	</node>
	<node lat="63.40711477067148" lon="10.503745070277336" id="-28543">
		<tag k="old_name" v="Teslihaugen" />
		<tag k="place" v="isolated_dwelling" />
		<tag k="ssr:date" v="2020-10-22" />
		<tag k="ssr:gruppe" v="bolighus" />
		<tag k="ssr:hovedgruppe" v="bebyggelse" />
		<tag k="ssr:stedsnr" v="656483" />
		<tag k="ssr:type" v="eneboligMindreBoligbygg" />
	</node>
	<node lat="63.42392500022368" lon="10.47000833991858" id="-28580">
		<tag k="building" v="industrial" />
		<tag k="industrial" v="factory" />
		<tag k="old_name" v="Trøndermeieriet" />
		<tag k="ssr:date" v="2018-01-09" />
		<tag k="ssr:gruppe" v="næring" />
		<tag k="ssr:hovedgruppe" v="bebyggelse" />
		<tag k="ssr:stedsnr" v="665298" />
		<tag k="ssr:type" v="fabrikk" />
	</node>
	<node lat="63.425324997654876" lon="10.465669452080478" id="-28581">
		<tag k="building" v="industrial" />
		<tag k="old_name" v="Gartnerihallen" />
		<tag k="ssr:date" v="2018-01-09" />
		<tag k="ssr:gruppe" v="næring" />
		<tag k="ssr:hovedgruppe" v="bebyggelse" />
		<tag k="ssr:stedsnr" v="665300" />
		<tag k="ssr:type" v="annenIndustri-OgLagerbygning" />
	</node>
	<node lat="63.4348698024862" lon="10.456848569873799" id="-28615">
		<tag k="layer" v="-1" />
		<tag k="old_name" v="Strindheimskolen gang- og sykkelvegkulvert" />
		<tag k="ssr:date" v="2020-01-28" />
		<tag k="ssr:gruppe" v="samferdselsanlegg" />
		<tag k="ssr:hovedgruppe" v="infrastruktur" />
		<tag k="ssr:stedsnr" v="890051" />
		<tag k="ssr:type" v="tunnel" />
		<tag k="tunnel" v="yes" />
	</node>
	<node lat="63.39690555894023" lon="10.442761120945178" id="-28641">
		<tag k="fixme" v="consider place=hamlet" />
		<tag k="old_name" v="Steinaunet" />
		<tag k="place" v="farm" />
		<tag k="ssr:date" v="2018-01-09" />
		<tag k="ssr:gruppe" v="gardsbebyggelse" />
		<tag k="ssr:hovedgruppe" v="bebyggelse" />
		<tag k="ssr:stedsnr" v="680631" />
		<tag k="ssr:type" v="gard" />
	</node>
	<node lat="63.32265776034126" lon="10.316702605115378" id="-28809">
		<tag k="bridge" v="yes" />
		<tag k="layer" v="1" />
		<tag k="loc_name" v="Klettrøkulverten" />
		<tag k="ssr:date" v="2018-01-09" />
		<tag k="ssr:gruppe" v="samferdselsanlegg" />
		<tag k="ssr:hovedgruppe" v="infrastruktur" />
		<tag k="ssr:stedsnr" v="728880" />
		<tag k="ssr:type" v="bru" />
	</node>
	<node lat="63.41970277540827" lon="10.40345834131585" id="-28852">
		<tag k="natural" v="hill" />
		<tag k="old_name" v="Gløshaugen østre;Østre Gløshaugen" />
		<tag k="place" v="locality" />
		<tag k="ssr:date" v="2018-01-09" />
		<tag k="ssr:gruppe" v="høyder" />
		<tag k="ssr:hovedgruppe" v="terreng" />
		<tag k="ssr:stedsnr" v="752718" />
		<tag k="ssr:type" v="høyde" />
	</node>
	<node lat="63.43100514503368" lon="10.483923527466674" id="-28880">
		<tag k="layer" v="-1" />
		<tag k="loc_name" v="Schmettowsalleen gang- og sykkelvegkulvert nord" />
		<tag k="ssr:date" v="2020-01-28" />
		<tag k="ssr:gruppe" v="samferdselsanlegg" />
		<tag k="ssr:hovedgruppe" v="infrastruktur" />
		<tag k="ssr:stedsnr" v="768048" />
		<tag k="ssr:type" v="tunnel" />
		<tag k="tunnel" v="yes" />
	</node>
	<node lat="63.44195277940288" lon="10.407394449896847" id="-28888">
		<tag k="landuse" v="harbour" />
		<tag k="old_name" v="Basseng IV" />
		<tag k="seamark:type" v="harbour" />
		<tag k="ssr:date" v="2018-01-09" />
		<tag k="ssr:gruppe" v="sjøfart" />
		<tag k="ssr:hovedgruppe" v="infrastruktur" />
		<tag k="ssr:stedsnr" v="907229" />
		<tag k="ssr:type" v="havn" />
	</node>
	<node lat="63.43074444546335" lon="10.44480278080049" id="-28889">
		<tag k="landuse" v="military" />
		<tag k="old_name" v="Persaunet leir" />
		<tag k="ssr:date" v="2018-01-09" />
		<tag k="ssr:gruppe" v="institusjoner" />
		<tag k="ssr:hovedgruppe" v="bebyggelse" />
		<tag k="ssr:stedsnr" v="907249" />
		<tag k="ssr:type" v="militærtByggAnlegg" />
	</node>
	<node lat="63.44197777918285" lon="10.347908328217242" id="-28918">
		<tag k="old_name" v="Norske Shell" />
		<tag k="place" v="quarter" />
		<tag k="ssr:date" v="2018-01-09" />
		<tag k="ssr:gruppe" v="bebyggelsesområder" />
		<tag k="ssr:hovedgruppe" v="bebyggelse" />
		<tag k="ssr:stedsnr" v="909067" />
		<tag k="ssr:type" v="industriområde" />
	</node>
	<node lat="63.43980555665146" lon="10.349649997531806" id="-28920">
		<tag k="building" v="industrial" />
		<tag k="industrial" v="factory" />
		<tag k="old_name" v="Norsk Olje" />
		<tag k="ssr:date" v="2018-01-09" />
		<tag k="ssr:gruppe" v="næring" />
		<tag k="ssr:hovedgruppe" v="bebyggelse" />
		<tag k="ssr:stedsnr" v="909086" />
		<tag k="ssr:type" v="fabrikk" />
	</node>
	<node lat="63.408158332623216" lon="10.35607221687304" id="-28931">
		<tag k="old_name" v="Havstad" />
		<tag k="place" v="farm" />
		<tag k="ssr:date" v="2018-01-09" />
		<tag k="ssr:gruppe" v="gardsbebyggelse" />
		<tag k="ssr:hovedgruppe" v="bebyggelse" />
		<tag k="ssr:stedsnr" v="909352" />
		<tag k="ssr:type" v="bruk" />
	</node>
	<node lat="63.36098333593914" lon="10.309463890607681" id="-28933">
		<tag k="loc_name" v="Skråppåmyran" />
		<tag k="natural" v="wetland" />
		<tag k="ssr:date" v="2018-01-09" />
		<tag k="ssr:gruppe" v="våtmark" />
		<tag k="ssr:hovedgruppe" v="markslag" />
		<tag k="ssr:stedsnr" v="779906" />
		<tag k="ssr:type" v="myr" />
	</node>
	<node lat="63.43938333201971" lon="10.427436120430658" id="-28944">
		<tag k="building" v="industrial" />
		<tag k="industrial" v="factory" />
		<tag k="old_name" v="Trøndelag melkesentral" />
		<tag k="ssr:date" v="2018-01-09" />
		<tag k="ssr:gruppe" v="næring" />
		<tag k="ssr:hovedgruppe" v="bebyggelse" />
		<tag k="ssr:stedsnr" v="785252" />
		<tag k="ssr:type" v="fabrikk" />
	</node>
	<node lat="63.323627778903884" lon="10.334102786959814" id="-28952">
		<tag k="fixme" v="consider place=hamlet" />
		<tag k="old_name" v="Bekkenget" />
		<tag k="place" v="farm" />
		<tag k="ssr:date" v="2018-01-09" />
		<tag k="ssr:gruppe" v="gardsbebyggelse" />
		<tag k="ssr:hovedgruppe" v="bebyggelse" />
		<tag k="ssr:stedsnr" v="910895" />
		<tag k="ssr:type" v="gard" />
	</node>
	<node lat="63.37855278146265" lon="10.215563897678408" id="-29016">
		<tag k="loc_name" v="Slåen" />
		<tag k="natural" v="stone" />
		<tag k="ssr:date" v="2018-01-09" />
		<tag k="ssr:gruppe" v="løsmasseavsetninger" />
		<tag k="ssr:hovedgruppe" v="markslag" />
		<tag k="ssr:stedsnr" v="829865" />
		<tag k="ssr:type" v="stein" />
	</node>
	<node lat="63.37477499566919" lon="10.333033325307126" id="-29110">
		<tag k="fixme" v="consider place=hamlet" />
		<tag k="old_name" v="Kolstadhaugen" />
		<tag k="place" v="farm" />
		<tag k="ssr:date" v="2018-01-09" />
		<tag k="ssr:gruppe" v="gardsbebyggelse" />
		<tag k="ssr:hovedgruppe" v="bebyggelse" />
		<tag k="ssr:stedsnr" v="849906" />
		<tag k="ssr:type" v="gard" />
	</node>
	<node lat="63.37431944559182" lon="10.334055557029993" id="-29112">
		<tag k="fixme" v="consider place=hamlet" />
		<tag k="old_name" v="Kolstadmyra" />
		<tag k="place" v="farm" />
		<tag k="ssr:date" v="2018-01-09" />
		<tag k="ssr:gruppe" v="gardsbebyggelse" />
		<tag k="ssr:hovedgruppe" v="bebyggelse" />
		<tag k="ssr:stedsnr" v="849894" />
		<tag k="ssr:type" v="gard" />
	</node>
	<node lat="63.41698611027997" lon="10.255211107721337" id="-29137">
		<tag k="leisure" v="pitch" />
		<tag k="old_name" v="Gråkallbakken" />
		<tag k="ssr:date" v="2018-01-09" />
		<tag k="ssr:gruppe" v="fritidsanlegg" />
		<tag k="ssr:hovedgruppe" v="bebyggelse" />
		<tag k="ssr:stedsnr" v="875815" />
		<tag k="ssr:type" v="idrettsanlegg" />
	</node>
	<node lat="63.41908055214787" lon="10.399019438882974" id="-29152">
		<tag k="natural" v="hill" />
		<tag k="old_name" v="Gløshaugen vestre;Vestre Gløshaugen" />
		<tag k="place" v="locality" />
		<tag k="ssr:date" v="2018-01-09" />
		<tag k="ssr:gruppe" v="høyder" />
		<tag k="ssr:hovedgruppe" v="terreng" />
		<tag k="ssr:stedsnr" v="934717" />
		<tag k="ssr:type" v="høyde" />
	</node>
	<node lat="63.360397217990375" lon="10.266894446476906" id="-29210">
		<tag k="loc_name" v="Vadet" />
		<tag k="place" v="locality" />
		<tag k="ssr:date" v="2018-01-09" />
		<tag k="ssr:gruppe" v="detaljerIFerskvann" />
		<tag k="ssr:hovedgruppe" v="ferskvann" />
		<tag k="ssr:stedsnr" v="901899" />
		<tag k="ssr:type" v="annenVanndetalj" />
	</node>
	<node lat="63.430097226022696" lon="10.364344445271117" id="-29216">
		<tag k="loc_name" v="Trampa" />
		<tag k="place" v="hamlet" />
		<tag k="ssr:date" v="2018-01-09" />
		<tag k="ssr:gruppe" v="bebyggelsesområder" />
		<tag k="ssr:hovedgruppe" v="bebyggelse" />
		<tag k="ssr:stedsnr" v="907960" />
		<tag k="ssr:type" v="grend" />
	</node>
	<node lat="63.428277781149106" lon="10.388425002655968" id="-29219">
		<tag k="amenity" v="university" />
		<tag k="old_name" v="Trondheim Ingeniørhøgskole" />
		<tag k="ssr:date" v="2018-01-09" />
		<tag k="ssr:gruppe" v="institusjoner" />
		<tag k="ssr:hovedgruppe" v="bebyggelse" />
		<tag k="ssr:stedsnr" v="908309" />
		<tag k="ssr:type" v="universitetHøgskole" />
	</node>
	<node lat="63.34310000315168" lon="10.356863881955682" id="-29265">
		<tag k="building" v="industrial" />
		<tag k="old_name" v="NSB Godsterminal" />
		<tag k="ssr:date" v="2018-01-09" />
		<tag k="ssr:gruppe" v="næring" />
		<tag k="ssr:hovedgruppe" v="bebyggelse" />
		<tag k="ssr:stedsnr" v="951496" />
		<tag k="ssr:type" v="annenIndustri-OgLagerbygning" />
	</node>
	<node lat="63.369188890289095" lon="10.3592361089237" id="-29316">
		<tag k="fixme" v="consider place=hamlet" />
		<tag k="old_name" v="Kolstad" />
		<tag k="place" v="farm" />
		<tag k="ssr:date" v="2018-01-09" />
		<tag k="ssr:gruppe" v="gardsbebyggelse" />
		<tag k="ssr:hovedgruppe" v="bebyggelse" />
		<tag k="ssr:stedsnr" v="970600" />
		<tag k="ssr:type" v="gard" />
	</node>
	<node lat="63.436322950258415" lon="10.45802623823321" id="-29437">
		<tag k="layer" v="-1" />
		<tag k="loc_name" v="Falkenborg gang- og sykkelvegkulvert" />
		<tag k="ssr:date" v="2020-01-28" />
		<tag k="ssr:gruppe" v="samferdselsanlegg" />
		<tag k="ssr:hovedgruppe" v="infrastruktur" />
		<tag k="ssr:stedsnr" v="40052" />
		<tag k="ssr:type" v="tunnel" />
		<tag k="tunnel" v="yes" />
	</node>
	<node lat="63.44553333366546" lon="10.421805561217662" id="-29499">
		<tag k="amenity" v="school" />
		<tag k="old_name" v="Ladejarlen videregående skole" />
		<tag k="ssr:date" v="2018-01-09" />
		<tag k="ssr:gruppe" v="institusjoner" />
		<tag k="ssr:hovedgruppe" v="bebyggelse" />
		<tag k="ssr:stedsnr" v="50756" />
		<tag k="ssr:type" v="skole" />
	</node>
	<node lat="63.441711114183356" lon="10.428936108910762" id="-29520">
		<tag k="fixme" v="consider place=suburb, village or hamlet" />
		<tag k="old_name" v="Colonien" />
		<tag k="place" v="quarter" />
		<tag k="ssr:date" v="2018-01-09" />
		<tag k="ssr:gruppe" v="bebyggelsesområder" />
		<tag k="ssr:hovedgruppe" v="bebyggelse" />
		<tag k="ssr:stedsnr" v="57060" />
		<tag k="ssr:type" v="tettbebyggelse" />
	</node>
	<node lat="63.41771944840128" lon="10.402319442796175" id="-29523">
		<tag k="amenity" v="university" />
		<tag k="old_name" v="Norges Tekniske Høgskole" />
		<tag k="ssr:date" v="2018-01-09" />
		<tag k="ssr:gruppe" v="institusjoner" />
		<tag k="ssr:hovedgruppe" v="bebyggelse" />
		<tag k="ssr:stedsnr" v="57615" />
		<tag k="ssr:type" v="universitetHøgskole" />
	</node>
	<node lat="63.414183334861264" lon="10.469308334151343" id="-29529">
		<tag k="building" v="industrial" />
		<tag k="old_name" v="Granåsen leir" />
		<tag k="ssr:date" v="2018-01-09" />
		<tag k="ssr:gruppe" v="næring" />
		<tag k="ssr:hovedgruppe" v="bebyggelse" />
		<tag k="ssr:stedsnr" v="59258" />
		<tag k="ssr:type" v="annenIndustri-OgLagerbygning" />
	</node>
	<node lat="63.425861113123645" lon="10.4667388903299" id="-29531">
		<tag k="building" v="industrial" />
		<tag k="old_name" v="Eggcentralen" />
		<tag k="ssr:date" v="2018-01-09" />
		<tag k="ssr:gruppe" v="næring" />
		<tag k="ssr:hovedgruppe" v="bebyggelse" />
		<tag k="ssr:stedsnr" v="59263" />
		<tag k="ssr:type" v="annenIndustri-OgLagerbygning" />
	</node>
	<node lat="63.3882138852728" lon="10.399416667828966" id="-29560">
		<tag k="old_name" v="Nordli" />
		<tag k="place" v="farm" />
		<tag k="ssr:date" v="2018-01-09" />
		<tag k="ssr:gruppe" v="gardsbebyggelse" />
		<tag k="ssr:hovedgruppe" v="bebyggelse" />
		<tag k="ssr:stedsnr" v="74534" />
		<tag k="ssr:type" v="bruk" />
	</node>
	<node lat="63.43734432181172" lon="10.417266505049524" id="-29642">
		<tag k="layer" v="-1" />
		<tag k="loc_name" v="Lademoen stasjon gang- og sykkelvegkulvert" />
		<tag k="ssr:date" v="2020-01-28" />
		<tag k="ssr:gruppe" v="samferdselsanlegg" />
		<tag k="ssr:hovedgruppe" v="infrastruktur" />
		<tag k="ssr:stedsnr" v="101042" />
		<tag k="ssr:type" v="tunnel" />
		<tag k="tunnel" v="yes" />
	</node>
	<node lat="63.43599444323182" lon="10.458058328355287" id="-29643">
		<tag k="layer" v="-1" />
		<tag k="loc_name" v="Sirkus veg- og gangkulvert" />
		<tag k="ssr:date" v="2018-01-09" />
		<tag k="ssr:gruppe" v="samferdselsanlegg" />
		<tag k="ssr:hovedgruppe" v="infrastruktur" />
		<tag k="ssr:stedsnr" v="101047" />
		<tag k="ssr:type" v="tunnel" />
		<tag k="tunnel" v="yes" />
	</node>
	<node lat="63.422119445382585" lon="10.43759723029298" id="-29718">
		<tag k="fixme" v="consider place=hamlet" />
		<tag k="old_name" v="Tyholt" />
		<tag k="place" v="farm" />
		<tag k="ssr:date" v="2018-01-09" />
		<tag k="ssr:gruppe" v="gardsbebyggelse" />
		<tag k="ssr:hovedgruppe" v="bebyggelse" />
		<tag k="ssr:stedsnr" v="116260" />
		<tag k="ssr:type" v="gard" />
	</node>
	<node lat="63.422511110633515" lon="10.467049993090091" id="-29728">
		<tag k="building" v="industrial" />
		<tag k="industrial" v="factory" />
		<tag k="old_name" v="A/L Iskrem" />
		<tag k="ssr:date" v="2018-01-09" />
		<tag k="ssr:gruppe" v="næring" />
		<tag k="ssr:hovedgruppe" v="bebyggelse" />
		<tag k="ssr:stedsnr" v="119258" />
		<tag k="ssr:type" v="fabrikk" />
	</node>
	<node lat="63.43555555785857" lon="10.349269452402414" id="-29739">
		<tag k="landuse" v="quarry" />
		<tag k="old_name" v="Killingdal Grubeselskap" />
		<tag k="ssr:date" v="2018-01-09" />
		<tag k="ssr:gruppe" v="uttakOgDeponi" />
		<tag k="ssr:hovedgruppe" v="markslag" />
		<tag k="ssr:stedsnr" v="120084" />
		<tag k="ssr:type" v="bergverk" />
	</node>
	<node lat="63.419374997623855" lon="10.40190000904216" id="-29776">
		<tag k="amenity" v="university" />
		<tag k="old_name" v="Norges tekniske høgskole" />
		<tag k="ssr:date" v="2018-01-09" />
		<tag k="ssr:gruppe" v="institusjoner" />
		<tag k="ssr:hovedgruppe" v="bebyggelse" />
		<tag k="ssr:stedsnr" v="134678" />
		<tag k="ssr:type" v="universitetHøgskole" />
	</node>
	<node lat="63.43632068548778" lon="10.417162957531026" id="-29871">
		<tag k="layer" v="-1" />
		<tag k="loc_name" v="Strandveiparken gang- og sykkelvegkulvert" />
		<tag k="ssr:date" v="2020-01-28" />
		<tag k="ssr:gruppe" v="samferdselsanlegg" />
		<tag k="ssr:hovedgruppe" v="infrastruktur" />
		<tag k="ssr:stedsnr" v="161044" />
		<tag k="ssr:type" v="tunnel" />
		<tag k="tunnel" v="yes" />
	</node>
	<node lat="63.44246666506508" lon="10.423438880462397" id="-29959">
		<tag k="landuse" v="harbour" />
		<tag k="old_name" v="Basseng VI" />
		<tag k="seamark:type" v="harbour" />
		<tag k="ssr:date" v="2018-01-09" />
		<tag k="ssr:gruppe" v="sjøfart" />
		<tag k="ssr:hovedgruppe" v="infrastruktur" />
		<tag k="ssr:stedsnr" v="179268" />
		<tag k="ssr:type" v="havn" />
	</node>
</osm>
