<?xml version="1.0" encoding="UTF-8"?>
<osm version="0.6" generator="osmapis">
	<node lat="63.393981329059606" lon="10.468216080888334" id="-33067">
		<tag k="name" v="Steinset" />
		<tag k="old_name" v="Steinseth" />
		<tag k="place" v="isolated_dwelling" />
		<tag k="ssr:date" v="2021-01-14" />
		<tag k="ssr:gruppe" v="bolighus" />
		<tag k="ssr:hovedgruppe" v="bebyggelse" />
		<tag k="ssr:stedsnr" v="232438" />
		<tag k="ssr:type" v="eneboligMindreBoligbygg" />
	</node>
	<node lat="63.39810916553173" lon="10.509909526659344" id="-33068">
		<tag k="name" v="Solvang" />
		<tag k="place" v="farm" />
		<tag k="ssr:date" v="2021-01-14" />
		<tag k="ssr:gruppe" v="gardsbebyggelse" />
		<tag k="ssr:hovedgruppe" v="bebyggelse" />
		<tag k="ssr:stedsnr" v="232439" />
		<tag k="ssr:type" v="bruk" />
	</node>
	<node lat="63.400610770231694" lon="10.520541197849848" id="-33069">
		<tag k="name" v="Solvold" />
		<tag k="place" v="farm" />
		<tag k="ssr:date" v="2021-01-14" />
		<tag k="ssr:gruppe" v="gardsbebyggelse" />
		<tag k="ssr:hovedgruppe" v="bebyggelse" />
		<tag k="ssr:stedsnr" v="232443" />
		<tag k="ssr:type" v="bruk" />
	</node>
	<node lat="63.3935694421884" lon="10.374219434850042" id="-33070">
		<tag k="alt_name" v="Halset søndre" />
		<tag k="name" v="Søndre Hallset" />
		<tag k="place" v="farm" />
		<tag k="ssr:date" v="2018-01-09" />
		<tag k="ssr:gruppe" v="gardsbebyggelse" />
		<tag k="ssr:hovedgruppe" v="bebyggelse" />
		<tag k="ssr:stedsnr" v="231549" />
		<tag k="ssr:type" v="bruk" />
	</node>
	<node lat="63.19874999965684" lon="10.664524990896092" id="-33071">
		<tag k="name" v="Reinsbekken" />
		<tag k="ssr:date" v="2019-12-27" />
		<tag k="ssr:gruppe" v="rennendeVann" />
		<tag k="ssr:hovedgruppe" v="ferskvann" />
		<tag k="ssr:stedsnr" v="12786" />
		<tag k="ssr:type" v="bekk" />
		<tag k="waterway" v="stream" />
	</node>
	<node lat="63.35307778013211" lon="10.545261114577901" id="-33072">
		<tag k="name" v="Langmyra" />
		<tag k="natural" v="wetland" />
		<tag k="ssr:date" v="2018-01-09" />
		<tag k="ssr:gruppe" v="våtmark" />
		<tag k="ssr:hovedgruppe" v="markslag" />
		<tag k="ssr:stedsnr" v="232221" />
		<tag k="ssr:type" v="myr" />
	</node>
	<node lat="63.25854722011141" lon="10.459636110142087" id="-33073">
		<tag k="name" v="Hyttsaga" />
		<tag k="place" v="farm" />
		<tag k="ssr:date" v="2019-12-27" />
		<tag k="ssr:gruppe" v="gardsbebyggelse" />
		<tag k="ssr:hovedgruppe" v="bebyggelse" />
		<tag k="ssr:stedsnr" v="13219" />
		<tag k="ssr:type" v="bruk" />
	</node>
	<node lat="63.43891667088642" lon="10.2091611098732" id="-33074">
		<tag k="fixme" v="consider natural=peak for the most distinct mountains in the district" />
		<tag k="name" v="Grøsetåsen" />
		<tag k="natural" v="hill" />
		<tag k="place" v="locality" />
		<tag k="ssr:date" v="2018-01-09" />
		<tag k="ssr:gruppe" v="høyder" />
		<tag k="ssr:hovedgruppe" v="terreng" />
		<tag k="ssr:stedsnr" v="13110" />
		<tag k="ssr:type" v="ås" />
	</node>
	<node lat="63.42849703789558" lon="10.181235838687709" id="-33075">
		<tag k="name" v="Onsøya" />
		<tag k="place" v="farm" />
		<tag k="ssr:date" v="2021-06-08" />
		<tag k="ssr:gruppe" v="gardsbebyggelse" />
		<tag k="ssr:hovedgruppe" v="bebyggelse" />
		<tag k="ssr:stedsnr" v="13124" />
		<tag k="ssr:type" v="bruk" />
	</node>
	<node lat="63.391180557916385" lon="10.121808335377251" id="-33076">
		<tag k="alt_name" v="Esp vestre;Vestre Esp" />
		<tag k="name" v="Esp" />
		<tag k="place" v="farm" />
		<tag k="ssr:date" v="2018-01-09" />
		<tag k="ssr:gruppe" v="gardsbebyggelse" />
		<tag k="ssr:hovedgruppe" v="bebyggelse" />
		<tag k="ssr:stedsnr" v="13469" />
		<tag k="ssr:type" v="bruk" />
	</node>
	<node lat="63.36504992864593" lon="10.12567020862869" id="-33077">
		<tag k="name" v="Ålberg" />
		<tag k="place" v="farm" />
		<tag k="ssr:date" v="2021-06-08" />
		<tag k="ssr:gruppe" v="gardsbebyggelse" />
		<tag k="ssr:hovedgruppe" v="bebyggelse" />
		<tag k="ssr:stedsnr" v="13473" />
		<tag k="ssr:type" v="bruk" />
	</node>
	<node lat="63.355908329281455" lon="10.199636111743995" id="-33078">
		<tag k="alt_name" v="Ner Håbjørg;Nedre Håbjørg" />
		<tag k="name" v="Håbjørg" />
		<tag k="place" v="farm" />
		<tag k="ssr:date" v="2018-01-09" />
		<tag k="ssr:gruppe" v="gardsbebyggelse" />
		<tag k="ssr:hovedgruppe" v="bebyggelse" />
		<tag k="ssr:stedsnr" v="13475" />
		<tag k="ssr:type" v="bruk" />
	</node>
	<node lat="63.390163892506195" lon="10.444444436844112" id="-33079">
		<tag k="fixme" v="consider place=hamlet" />
		<tag k="name" v="Tomset" />
		<tag k="place" v="farm" />
		<tag k="ssr:date" v="2018-01-09" />
		<tag k="ssr:gruppe" v="gardsbebyggelse" />
		<tag k="ssr:hovedgruppe" v="bebyggelse" />
		<tag k="ssr:stedsnr" v="13606" />
		<tag k="ssr:type" v="gard" />
	</node>
	<node lat="63.390758336866995" lon="10.402641665374478" id="-33080">
		<tag k="name" v="Haugen" />
		<tag k="place" v="farm" />
		<tag k="ssr:date" v="2018-01-09" />
		<tag k="ssr:gruppe" v="gardsbebyggelse" />
		<tag k="ssr:hovedgruppe" v="bebyggelse" />
		<tag k="ssr:stedsnr" v="13610" />
		<tag k="ssr:type" v="bruk" />
	</node>
	<node lat="63.326330553227066" lon="10.33121388464396" id="-33081">
		<tag k="name" v="Gravåsen" />
		<tag k="natural" v="hill" />
		<tag k="place" v="locality" />
		<tag k="ssr:date" v="2018-01-09" />
		<tag k="ssr:gruppe" v="høyder" />
		<tag k="ssr:hovedgruppe" v="terreng" />
		<tag k="ssr:stedsnr" v="232295" />
		<tag k="ssr:type" v="haug" />
	</node>
	<node lat="63.38438055658602" lon="10.594849994220105" id="-33082">
		<tag k="fixme" v="consider place=hamlet" />
		<tag k="name" v="Kuset" />
		<tag k="place" v="farm" />
		<tag k="ssr:date" v="2018-01-09" />
		<tag k="ssr:gruppe" v="gardsbebyggelse" />
		<tag k="ssr:hovedgruppe" v="bebyggelse" />
		<tag k="ssr:stedsnr" v="13569" />
		<tag k="ssr:type" v="gard" />
	</node>
	<node lat="63.381424669929466" lon="10.439828749960713" id="-33083">
		<tag k="name" v="Ner-Blekkan" />
		<tag k="place" v="farm" />
		<tag k="ssr:date" v="2021-06-08" />
		<tag k="ssr:gruppe" v="gardsbebyggelse" />
		<tag k="ssr:hovedgruppe" v="bebyggelse" />
		<tag k="ssr:stedsnr" v="13574" />
		<tag k="ssr:type" v="bruk" />
	</node>
	<node lat="63.404647226638126" lon="10.581355561403733" id="-33084">
		<tag k="name" v="Solemssveet" />
		<tag k="place" v="farm" />
		<tag k="ssr:date" v="2021-06-08" />
		<tag k="ssr:gruppe" v="gardsbebyggelse" />
		<tag k="ssr:hovedgruppe" v="bebyggelse" />
		<tag k="ssr:stedsnr" v="13577" />
		<tag k="ssr:type" v="bruk" />
	</node>
	<node lat="63.29741944274673" lon="10.535255547446992" id="-33085">
		<tag k="name" v="Torberga" />
		<tag k="natural" v="hill" />
		<tag k="place" v="locality" />
		<tag k="ssr:date" v="2019-12-27" />
		<tag k="ssr:gruppe" v="høyder" />
		<tag k="ssr:hovedgruppe" v="terreng" />
		<tag k="ssr:stedsnr" v="13814" />
		<tag k="ssr:type" v="berg" />
	</node>
	<node lat="63.29974995449332" lon="10.632032004915056" id="-33086">
		<tag k="name" v="Langåsvollen" />
		<tag k="place" v="locality" />
		<tag k="ssr:date" v="2020-03-10" />
		<tag k="ssr:gruppe" v="bolighus" />
		<tag k="ssr:hovedgruppe" v="bebyggelse" />
		<tag k="ssr:stedsnr" v="13826" />
		<tag k="ssr:type" v="gammelBosettingsplass" />
	</node>
	<node lat="63.331816670634936" lon="10.378363896991234" id="-33087">
		<tag k="name" v="Kvenildstrøa" />
		<tag k="place" v="farm" />
		<tag k="ssr:date" v="2021-06-08" />
		<tag k="ssr:gruppe" v="gardsbebyggelse" />
		<tag k="ssr:hovedgruppe" v="bebyggelse" />
		<tag k="ssr:stedsnr" v="13911" />
		<tag k="ssr:type" v="bruk" />
	</node>
	<node lat="63.33543610881378" lon="10.459377769483226" id="-33088">
		<tag k="name" v="Nordsetrønningen" />
		<tag k="place" v="farm" />
		<tag k="ssr:date" v="2019-12-27" />
		<tag k="ssr:gruppe" v="gardsbebyggelse" />
		<tag k="ssr:hovedgruppe" v="bebyggelse" />
		<tag k="ssr:stedsnr" v="13927" />
		<tag k="ssr:type" v="bruk" />
	</node>
	<node lat="63.345797218365384" lon="10.332352767926482" id="-33089">
		<tag k="name" v="Uståsen" />
		<tag k="place" v="farm" />
		<tag k="ssr:date" v="2018-01-09" />
		<tag k="ssr:gruppe" v="gardsbebyggelse" />
		<tag k="ssr:hovedgruppe" v="bebyggelse" />
		<tag k="ssr:stedsnr" v="13960" />
		<tag k="ssr:type" v="bruk" />
	</node>
	<node lat="63.36503610982841" lon="10.618691664128521" id="-33090">
		<tag k="name" v="Landøya" />
		<tag k="place" v="islet" />
		<tag k="ssr:date" v="2021-06-08" />
		<tag k="ssr:gruppe" v="ferskvannskontur" />
		<tag k="ssr:hovedgruppe" v="ferskvann" />
		<tag k="ssr:stedsnr" v="13990" />
		<tag k="ssr:type" v="holme" />
	</node>
	<node lat="63.361563886097244" lon="10.290877778351113" id="-33091">
		<tag k="alt_name" v="Rørmyran" />
		<tag k="name" v="Rørmyra" />
		<tag k="natural" v="wetland" />
		<tag k="ssr:date" v="2018-01-09" />
		<tag k="ssr:gruppe" v="våtmark" />
		<tag k="ssr:hovedgruppe" v="markslag" />
		<tag k="ssr:stedsnr" v="14000" />
		<tag k="ssr:type" v="myr" />
	</node>
	<node lat="63.37328055555304" lon="10.626277786241777" id="-33092">
		<tag k="name" v="Brattaberga" />
		<tag k="natural" v="hill" />
		<tag k="place" v="locality" />
		<tag k="ssr:date" v="2018-01-09" />
		<tag k="ssr:gruppe" v="høyder" />
		<tag k="ssr:hovedgruppe" v="terreng" />
		<tag k="ssr:stedsnr" v="232323" />
		<tag k="ssr:type" v="berg" />
	</node>
	<node lat="63.366277779325955" lon="10.470080555110982" id="-33093">
		<tag k="name" v="Ratåsdalen" />
		<tag k="natural" v="valley" />
		<tag k="place" v="locality" />
		<tag k="ssr:date" v="2018-01-09" />
		<tag k="ssr:gruppe" v="senkninger" />
		<tag k="ssr:hovedgruppe" v="terreng" />
		<tag k="ssr:stedsnr" v="232275" />
		<tag k="ssr:type" v="dal" />
	</node>
	<node lat="63.39196111136784" lon="10.299369446191387" id="-33094">
		<tag k="name" v="Nordre Våddan" />
		<tag k="place" v="farm" />
		<tag k="ssr:date" v="2021-06-08" />
		<tag k="ssr:gruppe" v="gardsbebyggelse" />
		<tag k="ssr:hovedgruppe" v="bebyggelse" />
		<tag k="ssr:stedsnr" v="232369" />
		<tag k="ssr:type" v="bruk" />
	</node>
	<node lat="63.406333329940544" lon="10.509416658870819" id="-33095">
		<tag k="name" v="Toppen 2" />
		<tag k="place" v="locality" />
		<tag k="ssr:date" v="2021-01-14" />
		<tag k="ssr:gruppe" v="kulturminner" />
		<tag k="ssr:hovedgruppe" v="kultur" />
		<tag k="ssr:stedsnr" v="232418" />
		<tag k="ssr:type" v="annenKulturdetalj" />
	</node>
	<node lat="63.36554939997644" lon="10.154167907420396" id="-33096">
		<tag k="fixme" v="consider place=hamlet" />
		<tag k="name" v="Fallan" />
		<tag k="place" v="farm" />
		<tag k="ssr:date" v="2019-07-16" />
		<tag k="ssr:gruppe" v="gardsbebyggelse" />
		<tag k="ssr:hovedgruppe" v="bebyggelse" />
		<tag k="ssr:stedsnr" v="232422" />
		<tag k="ssr:type" v="gard" />
	</node>
	<node lat="63.40677192398217" lon="10.502342188472946" id="-33097">
		<tag k="name" v="Skogly" />
		<tag k="place" v="isolated_dwelling" />
		<tag k="ssr:date" v="2021-01-14" />
		<tag k="ssr:gruppe" v="bolighus" />
		<tag k="ssr:hovedgruppe" v="bebyggelse" />
		<tag k="ssr:stedsnr" v="232461" />
		<tag k="ssr:type" v="eneboligMindreBoligbygg" />
	</node>
	<node lat="63.42819166291619" lon="10.416416663035758" id="-33098">
		<tag k="alt_name" v="Bakklandet aldershjem" />
		<tag k="amenity" v="nursing_home" />
		<tag k="name" v="Bakklandet alders- og sykehjem" />
		<tag k="ssr:date" v="2018-01-09" />
		<tag k="ssr:gruppe" v="institusjoner" />
		<tag k="ssr:hovedgruppe" v="bebyggelse" />
		<tag k="ssr:stedsnr" v="232649" />
		<tag k="ssr:type" v="helseinstitusjon" />
	</node>
	<node lat="63.42807499753733" lon="10.397313882878922" id="-33099">
		<tag k="name" v="Archidiakoni plass" />
		<tag k="place" v="square" />
		<tag k="ssr:date" v="2018-01-09" />
		<tag k="ssr:gruppe" v="bebyggelsesområder" />
		<tag k="ssr:hovedgruppe" v="bebyggelse" />
		<tag k="ssr:stedsnr" v="232691" />
		<tag k="ssr:type" v="torg" />
	</node>
	<node lat="63.41874166282972" lon="10.40054723188295" id="-33100">
		<tag k="name" v="O.S. Bragstads plass" />
		<tag k="place" v="square" />
		<tag k="ssr:date" v="2018-01-09" />
		<tag k="ssr:gruppe" v="bebyggelsesområder" />
		<tag k="ssr:hovedgruppe" v="bebyggelse" />
		<tag k="ssr:stedsnr" v="232695" />
		<tag k="ssr:type" v="torg" />
	</node>
	<node lat="63.4039527791357" lon="10.367947222034868" id="-33101">
		<tag k="cemetery" v="grave" />
		<tag k="name" v="Havstein kirkegård" />
		<tag k="place" v="locality" />
		<tag k="ssr:date" v="2018-01-09" />
		<tag k="ssr:gruppe" v="kulturinstitusjoner" />
		<tag k="ssr:hovedgruppe" v="kultur" />
		<tag k="ssr:stedsnr" v="232698" />
		<tag k="ssr:type" v="gravplass" />
	</node>
	<node lat="63.40012222043357" lon="10.45839722078909" id="-33102">
		<tag k="name" v="Fjordgløtt" />
		<tag k="place" v="farm" />
		<tag k="ssr:date" v="2021-01-14" />
		<tag k="ssr:gruppe" v="gardsbebyggelse" />
		<tag k="ssr:hovedgruppe" v="bebyggelse" />
		<tag k="ssr:stedsnr" v="232664" />
		<tag k="ssr:type" v="bruk" />
	</node>
	<node lat="63.43382499803879" lon="10.392202777964485" id="-33103">
		<tag k="man_made" v="quay" />
		<tag k="name" v="Ravnkloa" />
		<tag k="place" v="locality" />
		<tag k="ssr:date" v="2018-01-09" />
		<tag k="ssr:gruppe" v="sjøfart" />
		<tag k="ssr:hovedgruppe" v="infrastruktur" />
		<tag k="ssr:stedsnr" v="232666" />
		<tag k="ssr:type" v="brygge" />
	</node>
	<node lat="63.39963611417019" lon="10.404858335858286" id="-33104">
		<tag k="amenity" v="school" />
		<tag k="name" v="Nidarvoll skole" />
		<tag k="ssr:date" v="2018-01-09" />
		<tag k="ssr:gruppe" v="institusjoner" />
		<tag k="ssr:hovedgruppe" v="bebyggelse" />
		<tag k="ssr:stedsnr" v="232753" />
		<tag k="ssr:type" v="skole" />
	</node>
	<node lat="63.399011109123684" lon="10.3589833262574" id="-33105">
		<tag k="amenity" v="school" />
		<tag k="name" v="Byåsen skole" />
		<tag k="ssr:date" v="2018-01-09" />
		<tag k="ssr:gruppe" v="institusjoner" />
		<tag k="ssr:hovedgruppe" v="bebyggelse" />
		<tag k="ssr:stedsnr" v="232766" />
		<tag k="ssr:type" v="skole" />
	</node>
	<node lat="63.44050278105128" lon="10.434849993547488" id="-33106">
		<tag k="amenity" v="school" />
		<tag k="name" v="Lilleby skole" />
		<tag k="ssr:date" v="2018-01-09" />
		<tag k="ssr:gruppe" v="institusjoner" />
		<tag k="ssr:hovedgruppe" v="bebyggelse" />
		<tag k="ssr:stedsnr" v="232775" />
		<tag k="ssr:type" v="skole" />
	</node>
	<node lat="63.417830560137986" lon="10.48826665955389" id="-33107">
		<tag k="name" v="Brundalen" />
		<tag k="natural" v="valley" />
		<tag k="place" v="locality" />
		<tag k="ssr:date" v="2018-01-09" />
		<tag k="ssr:gruppe" v="senkninger" />
		<tag k="ssr:hovedgruppe" v="terreng" />
		<tag k="ssr:stedsnr" v="232866" />
		<tag k="ssr:type" v="dal" />
	</node>
	<node lat="63.37989999815623" lon="10.36930556224937" id="-33108">
		<tag k="name" v="Heimdalsbekken" />
		<tag k="ssr:date" v="2018-01-09" />
		<tag k="ssr:gruppe" v="rennendeVann" />
		<tag k="ssr:hovedgruppe" v="ferskvann" />
		<tag k="ssr:stedsnr" v="232876" />
		<tag k="ssr:type" v="elv" />
		<tag k="waterway" v="river" />
	</node>
	<node lat="63.330344447890305" lon="10.298805555460568" id="-33109">
		<tag k="alt_name" v="Nypan vestre;Nypan" />
		<tag k="name" v="Vestre Nypan" />
		<tag k="place" v="farm" />
		<tag k="ssr:date" v="2018-01-09" />
		<tag k="ssr:gruppe" v="gardsbebyggelse" />
		<tag k="ssr:hovedgruppe" v="bebyggelse" />
		<tag k="ssr:stedsnr" v="233201" />
		<tag k="ssr:type" v="bruk" />
	</node>
	<node lat="63.3669472265892" lon="10.52686944050267" id="-33110">
		<tag k="name" v="Greistadlykkja" />
		<tag k="place" v="farm" />
		<tag k="ssr:date" v="2018-01-09" />
		<tag k="ssr:gruppe" v="gardsbebyggelse" />
		<tag k="ssr:hovedgruppe" v="bebyggelse" />
		<tag k="ssr:stedsnr" v="233226" />
		<tag k="ssr:type" v="bruk" />
	</node>
	<node lat="63.44138055594692" lon="10.348241674909941" id="-33111">
		<tag k="building" v="industrial" />
		<tag k="industrial" v="factory" />
		<tag k="name" v="Heggdalen" />
		<tag k="ssr:date" v="2018-01-09" />
		<tag k="ssr:gruppe" v="næring" />
		<tag k="ssr:hovedgruppe" v="bebyggelse" />
		<tag k="ssr:stedsnr" v="20256" />
		<tag k="ssr:type" v="fabrikk" />
	</node>
	<node lat="63.40366670910411" lon="10.506208075936488" id="-33112">
		<tag k="name" v="Karlshaug" />
		<tag k="place" v="farm" />
		<tag k="ssr:date" v="2021-01-13" />
		<tag k="ssr:gruppe" v="gardsbebyggelse" />
		<tag k="ssr:hovedgruppe" v="bebyggelse" />
		<tag k="ssr:stedsnr" v="233539" />
		<tag k="ssr:type" v="bruk" />
	</node>
	<node lat="63.40712116693453" lon="10.507364210860644" id="-33113">
		<tag k="name" v="Midtbø" />
		<tag k="place" v="farm" />
		<tag k="ssr:date" v="2021-01-14" />
		<tag k="ssr:gruppe" v="gardsbebyggelse" />
		<tag k="ssr:hovedgruppe" v="bebyggelse" />
		<tag k="ssr:stedsnr" v="233581" />
		<tag k="ssr:type" v="bruk" />
	</node>
	<node lat="63.390769444820066" lon="10.468011101849632" id="-33114">
		<tag k="name" v="Tomsetmyra" />
		<tag k="place" v="farm" />
		<tag k="ssr:date" v="2021-06-08" />
		<tag k="ssr:gruppe" v="gardsbebyggelse" />
		<tag k="ssr:hovedgruppe" v="bebyggelse" />
		<tag k="ssr:stedsnr" v="21241" />
		<tag k="ssr:type" v="bruk" />
	</node>
	<node lat="63.36883613180106" lon="10.095635501079027" id="-33115">
		<tag k="name" v="Kongslia" />
		<tag k="place" v="isolated_dwelling" />
		<tag k="ssr:date" v="2021-01-13" />
		<tag k="ssr:gruppe" v="bolighus" />
		<tag k="ssr:hovedgruppe" v="bebyggelse" />
		<tag k="ssr:stedsnr" v="233552" />
		<tag k="ssr:type" v="eneboligMindreBoligbygg" />
	</node>
	<node lat="63.40272221846616" lon="10.486480553031708" id="-33116">
		<tag k="name" v="Kårstua" />
		<tag k="place" v="locality" />
		<tag k="ssr:date" v="2021-01-13" />
		<tag k="ssr:gruppe" v="kulturminner" />
		<tag k="ssr:hovedgruppe" v="kultur" />
		<tag k="ssr:stedsnr" v="233555" />
		<tag k="ssr:type" v="annenKulturdetalj" />
	</node>
	<node lat="63.408291668284114" lon="10.499024991009511" id="-33118">
		<tag k="name" v="Myrheim" />
		<tag k="place" v="isolated_dwelling" />
		<tag k="ssr:date" v="2018-01-09" />
		<tag k="ssr:gruppe" v="bolighus" />
		<tag k="ssr:hovedgruppe" v="bebyggelse" />
		<tag k="ssr:stedsnr" v="233570" />
		<tag k="ssr:type" v="eneboligMindreBoligbygg" />
	</node>
	<node lat="63.3864343748668" lon="10.514844384881759" id="-33119">
		<tag k="name" v="Myrvang" />
		<tag k="place" v="isolated_dwelling" />
		<tag k="ssr:date" v="2021-01-13" />
		<tag k="ssr:gruppe" v="bolighus" />
		<tag k="ssr:hovedgruppe" v="bebyggelse" />
		<tag k="ssr:stedsnr" v="233571" />
		<tag k="ssr:type" v="eneboligMindreBoligbygg" />
	</node>
	<node lat="63.35428333410478" lon="10.407922213010135" id="-33120">
		<tag k="alt_name" v="Ner-Brauta" />
		<tag k="name" v="Brauten og Lien" />
		<tag k="place" v="farm" />
		<tag k="ssr:date" v="2018-01-09" />
		<tag k="ssr:gruppe" v="gardsbebyggelse" />
		<tag k="ssr:hovedgruppe" v="bebyggelse" />
		<tag k="ssr:stedsnr" v="233672" />
		<tag k="ssr:type" v="bruk" />
	</node>
	<node lat="63.43148055419674" lon="10.395155553311502" id="-33121">
		<tag k="name" v="Stiftsgården" />
		<tag k="ssr:date" v="2018-01-09" />
		<tag k="ssr:gruppe" v="kulturinstitusjoner" />
		<tag k="ssr:hovedgruppe" v="kultur" />
		<tag k="ssr:stedsnr" v="233677" />
		<tag k="ssr:type" v="museumGalleriBibliotek" />
		<tag k="tourism" v="museum" />
	</node>
	<node lat="63.307166668560576" lon="10.575949991141629" id="-33122">
		<tag k="historic" v="shieling" />
		<tag k="name" v="Litjuglvollen" />
		<tag k="place" v="locality" />
		<tag k="ssr:date" v="2021-06-08" />
		<tag k="ssr:gruppe" v="dyrkamark" />
		<tag k="ssr:hovedgruppe" v="markslag" />
		<tag k="ssr:stedsnr" v="22208" />
		<tag k="ssr:type" v="setervoll" />
	</node>
	<node lat="63.33093611491822" lon="10.549686118465937" id="-33123">
		<tag k="historic" v="shieling" />
		<tag k="name" v="Stavlundsvollen" />
		<tag k="place" v="locality" />
		<tag k="ssr:date" v="2021-06-08" />
		<tag k="ssr:gruppe" v="dyrkamark" />
		<tag k="ssr:hovedgruppe" v="markslag" />
		<tag k="ssr:stedsnr" v="22216" />
		<tag k="ssr:type" v="setervoll" />
	</node>
	<node lat="63.39872222381092" lon="10.407336110436162" id="-33124">
		<tag k="name" v="Nidarvoll" />
		<tag k="place" v="farm" />
		<tag k="ssr:date" v="2018-01-09" />
		<tag k="ssr:gruppe" v="gardsbebyggelse" />
		<tag k="ssr:hovedgruppe" v="bebyggelse" />
		<tag k="ssr:stedsnr" v="233706" />
		<tag k="ssr:type" v="bruk" />
	</node>
	<node lat="63.40296388810603" lon="10.499588886888624" id="-33125">
		<tag k="name" v="Stokkåsen" />
		<tag k="place" v="farm" />
		<tag k="ssr:date" v="2018-01-09" />
		<tag k="ssr:gruppe" v="gardsbebyggelse" />
		<tag k="ssr:hovedgruppe" v="bebyggelse" />
		<tag k="ssr:stedsnr" v="233716" />
		<tag k="ssr:type" v="bruk" />
	</node>
	<node lat="63.39454444343603" lon="10.201188891154894" id="-33126">
		<tag k="name" v="Krogstadmyra" />
		<tag k="natural" v="wetland" />
		<tag k="ssr:date" v="2018-01-09" />
		<tag k="ssr:gruppe" v="våtmark" />
		<tag k="ssr:hovedgruppe" v="markslag" />
		<tag k="ssr:stedsnr" v="23906" />
		<tag k="ssr:type" v="myr" />
	</node>
	<node lat="63.423347223191" lon="10.132313886333437" id="-33127">
		<tag k="name" v="Bengtplassen" />
		<tag k="place" v="locality" />
		<tag k="ssr:date" v="2018-01-09" />
		<tag k="ssr:gruppe" v="dyrkamark" />
		<tag k="ssr:hovedgruppe" v="markslag" />
		<tag k="ssr:stedsnr" v="23907" />
		<tag k="ssr:type" v="jorde" />
	</node>
	<node lat="63.41200555268248" lon="10.14005555611008" id="-33128">
		<tag k="name" v="Kilen" />
		<tag k="place" v="locality" />
		<tag k="ssr:date" v="2018-01-09" />
		<tag k="ssr:gruppe" v="vegetasjon" />
		<tag k="ssr:hovedgruppe" v="markslag" />
		<tag k="ssr:stedsnr" v="23911" />
		<tag k="ssr:type" v="skog" />
	</node>
	<node lat="63.371569447406706" lon="10.071113887700784" id="-33129">
		<tag k="name" v="Penghaugen" />
		<tag k="natural" v="hill" />
		<tag k="place" v="locality" />
		<tag k="ssr:date" v="2018-01-09" />
		<tag k="ssr:gruppe" v="høyder" />
		<tag k="ssr:hovedgruppe" v="terreng" />
		<tag k="ssr:stedsnr" v="23936" />
		<tag k="ssr:type" v="haug" />
	</node>
	<node lat="63.41560277777855" lon="10.124611116281548" id="-33130">
		<tag k="name" v="Krokan" />
		<tag k="place" v="locality" />
		<tag k="ssr:date" v="2018-01-09" />
		<tag k="ssr:gruppe" v="dyrkamark" />
		<tag k="ssr:hovedgruppe" v="markslag" />
		<tag k="ssr:stedsnr" v="23941" />
		<tag k="ssr:type" v="jorde" />
	</node>
	<node lat="63.41350000032697" lon="10.11038889075323" id="-33131">
		<tag k="name" v="Hoemskneppen" />
		<tag k="natural" v="hill" />
		<tag k="place" v="locality" />
		<tag k="ssr:date" v="2018-01-09" />
		<tag k="ssr:gruppe" v="høyder" />
		<tag k="ssr:hovedgruppe" v="terreng" />
		<tag k="ssr:stedsnr" v="23880" />
		<tag k="ssr:type" v="haug" />
	</node>
	<node lat="63.38312499856169" lon="10.085319446364755" id="-33132">
		<tag k="fixme" v="consider natural=peak for the most distinct mountains in the district" />
		<tag k="name" v="Ondusåsen" />
		<tag k="natural" v="hill" />
		<tag k="place" v="locality" />
		<tag k="ssr:date" v="2018-01-09" />
		<tag k="ssr:gruppe" v="høyder" />
		<tag k="ssr:hovedgruppe" v="terreng" />
		<tag k="ssr:stedsnr" v="23889" />
		<tag k="ssr:type" v="ås" />
	</node>
	<node lat="63.38881666430171" lon="10.173272212892638" id="-33133">
		<tag k="fixme" v="consider natural=peak for the most distinct mountains in the district" />
		<tag k="name" v="Brannbergåsen" />
		<tag k="natural" v="hill" />
		<tag k="place" v="locality" />
		<tag k="ssr:date" v="2018-01-09" />
		<tag k="ssr:gruppe" v="høyder" />
		<tag k="ssr:hovedgruppe" v="terreng" />
		<tag k="ssr:stedsnr" v="23984" />
		<tag k="ssr:type" v="ås" />
	</node>
	<node lat="63.36808888588211" lon="10.189063891817081" id="-33134">
		<tag k="alt_name" v="Grostadaunet søndre" />
		<tag k="name" v="Søndre Grostadaunet" />
		<tag k="place" v="farm" />
		<tag k="ssr:date" v="2018-01-09" />
		<tag k="ssr:gruppe" v="gardsbebyggelse" />
		<tag k="ssr:hovedgruppe" v="bebyggelse" />
		<tag k="ssr:stedsnr" v="23989" />
		<tag k="ssr:type" v="bruk" />
	</node>
	<node lat="63.3618666630017" lon="10.260161114249593" id="-33135">
		<tag k="name" v="Rundbakken" />
		<tag k="natural" v="hill" />
		<tag k="place" v="locality" />
		<tag k="ssr:date" v="2018-01-09" />
		<tag k="ssr:gruppe" v="høyder" />
		<tag k="ssr:hovedgruppe" v="terreng" />
		<tag k="ssr:stedsnr" v="24235" />
		<tag k="ssr:type" v="haug" />
	</node>
	<node lat="63.438063887437295" lon="10.161636120866337" id="-33136">
		<tag k="fixme" v="consider seamark:type=rock or natural=shoal" />
		<tag k="name" v="Klefstadskjæret" />
		<tag k="place" v="islet" />
		<tag k="ssr:date" v="2021-06-08" />
		<tag k="ssr:gruppe" v="grunnerISjø" />
		<tag k="ssr:hovedgruppe" v="sjø" />
		<tag k="ssr:stedsnr" v="25024" />
		<tag k="ssr:type" v="skjærISjø" />
	</node>
	<node lat="63.37240000428944" lon="10.306724991898983" id="-33137">
		<tag k="fixme" v="consider natural=peak for the most distinct mountains in the district" />
		<tag k="name" v="Hallaåsen" />
		<tag k="natural" v="hill" />
		<tag k="place" v="locality" />
		<tag k="ssr:date" v="2021-06-08" />
		<tag k="ssr:gruppe" v="høyder" />
		<tag k="ssr:hovedgruppe" v="terreng" />
		<tag k="ssr:stedsnr" v="25123" />
		<tag k="ssr:type" v="ås" />
	</node>
	<node lat="63.38216388596312" lon="10.172299998218486" id="-33138">
		<tag k="name" v="Karibekken" />
		<tag k="ssr:date" v="2021-06-08" />
		<tag k="ssr:gruppe" v="rennendeVann" />
		<tag k="ssr:hovedgruppe" v="ferskvann" />
		<tag k="ssr:stedsnr" v="25901" />
		<tag k="ssr:type" v="bekk" />
		<tag k="waterway" v="stream" />
	</node>
	<node lat="63.415530554950465" lon="10.175186116095812" id="-33139">
		<tag k="name" v="Litlramberget" />
		<tag k="natural" v="hill" />
		<tag k="place" v="locality" />
		<tag k="ssr:date" v="2021-06-08" />
		<tag k="ssr:gruppe" v="høyder" />
		<tag k="ssr:hovedgruppe" v="terreng" />
		<tag k="ssr:stedsnr" v="26007" />
		<tag k="ssr:type" v="berg" />
	</node>
	<node lat="63.428763888331154" lon="10.199613890492786" id="-33140">
		<tag k="name" v="Fossbakken" />
		<tag k="natural" v="slope" />
		<tag k="place" v="locality" />
		<tag k="ssr:date" v="2021-06-08" />
		<tag k="ssr:gruppe" v="skråninger" />
		<tag k="ssr:hovedgruppe" v="terreng" />
		<tag k="ssr:stedsnr" v="26027" />
		<tag k="ssr:type" v="bakke" />
	</node>
	<node lat="63.360233335856734" lon="10.230363888840625" id="-33141">
		<tag k="loc_name" v="Kalvskinnmyra" />
		<tag k="name" v="Kalvkinnmyra" />
		<tag k="natural" v="wetland" />
		<tag k="ssr:date" v="2018-01-09" />
		<tag k="ssr:gruppe" v="våtmark" />
		<tag k="ssr:hovedgruppe" v="markslag" />
		<tag k="ssr:stedsnr" v="26326" />
		<tag k="ssr:type" v="myr" />
	</node>
	<node lat="63.3817111126742" lon="10.187066672857462" id="-33142">
		<tag k="fixme" v="consider natural=peak for the most distinct mountains in the district" />
		<tag k="name" v="Litlbjørnaråsen" />
		<tag k="natural" v="hill" />
		<tag k="place" v="locality" />
		<tag k="ssr:date" v="2021-06-08" />
		<tag k="ssr:gruppe" v="høyder" />
		<tag k="ssr:hovedgruppe" v="terreng" />
		<tag k="ssr:stedsnr" v="26909" />
		<tag k="ssr:type" v="ås" />
	</node>
	<node lat="63.443233336723246" lon="10.207277785098436" id="-33143">
		<tag k="name" v="Rønningan" />
		<tag k="natural" v="slope" />
		<tag k="place" v="locality" />
		<tag k="ssr:date" v="2021-06-08" />
		<tag k="ssr:gruppe" v="skråninger" />
		<tag k="ssr:hovedgruppe" v="terreng" />
		<tag k="ssr:stedsnr" v="27570" />
		<tag k="ssr:type" v="li" />
	</node>
	<node lat="63.42899166475946" lon="10.22583610942121" id="-33144">
		<tag k="historic" v="shieling" />
		<tag k="name" v="Byasætra" />
		<tag k="place" v="isolated_dwelling" />
		<tag k="ssr:date" v="2018-01-09" />
		<tag k="ssr:gruppe" v="gardsbebyggelse" />
		<tag k="ssr:hovedgruppe" v="bebyggelse" />
		<tag k="ssr:stedsnr" v="27768" />
		<tag k="ssr:type" v="seterStøl" />
	</node>
	<node lat="63.411597224027574" lon="10.215038880084807" id="-33145">
		<tag k="name" v="Kvistingshytta" />
		<tag k="place" v="isolated_dwelling" />
		<tag k="ssr:date" v="2021-06-08" />
		<tag k="ssr:gruppe" v="bolighus" />
		<tag k="ssr:hovedgruppe" v="bebyggelse" />
		<tag k="ssr:stedsnr" v="28072" />
		<tag k="ssr:type" v="fritidsbolig" />
	</node>
	<node lat="63.383727779579516" lon="10.217322222920261" id="-33146">
		<tag k="name" v="Høgmyrbakken" />
		<tag k="natural" v="slope" />
		<tag k="place" v="locality" />
		<tag k="ssr:date" v="2018-01-09" />
		<tag k="ssr:gruppe" v="skråninger" />
		<tag k="ssr:hovedgruppe" v="terreng" />
		<tag k="ssr:stedsnr" v="28586" />
		<tag k="ssr:type" v="bakke" />
	</node>
	<node lat="63.446747222949334" lon="10.300927777491665" id="-33147">
		<tag k="name" v="Lykkjadammen" />
		<tag k="ssr:date" v="2021-06-08" />
		<tag k="ssr:gruppe" v="stilleståendeVann" />
		<tag k="ssr:hovedgruppe" v="ferskvann" />
		<tag k="ssr:stedsnr" v="28814" />
		<tag k="ssr:type" v="dam" />
		<tag k="waterway" v="dam" />
	</node>
	<node lat="63.44720555342868" lon="10.29491388222036" id="-33148">
		<tag k="name" v="Ålbumyra" />
		<tag k="natural" v="wetland" />
		<tag k="ssr:date" v="2021-06-08" />
		<tag k="ssr:gruppe" v="våtmark" />
		<tag k="ssr:hovedgruppe" v="markslag" />
		<tag k="ssr:stedsnr" v="28819" />
		<tag k="ssr:type" v="myr" />
	</node>
	<node lat="63.45267180884895" lon="10.229712016848234" id="-33149">
		<tag k="name" v="Våttåhaugen" />
		<tag k="natural" v="hill" />
		<tag k="place" v="locality" />
		<tag k="ssr:date" v="2021-06-08" />
		<tag k="ssr:gruppe" v="høyder" />
		<tag k="ssr:hovedgruppe" v="terreng" />
		<tag k="ssr:stedsnr" v="28987" />
		<tag k="ssr:type" v="haug" />
	</node>
	<node lat="63.4478527761051" lon="10.22463610600381" id="-33150">
		<tag k="name" v="Hesttrøa" />
		<tag k="place" v="locality" />
		<tag k="ssr:date" v="2021-06-08" />
		<tag k="ssr:gruppe" v="dyrkamark" />
		<tag k="ssr:hovedgruppe" v="markslag" />
		<tag k="ssr:stedsnr" v="28989" />
		<tag k="ssr:type" v="utmark" />
	</node>
	<node lat="63.30981388485459" lon="10.438522228293056" id="-33151">
		<tag k="name" v="Daltunet" />
		<tag k="place" v="quarter" />
		<tag k="ssr:date" v="2019-12-27" />
		<tag k="ssr:gruppe" v="bebyggelsesområder" />
		<tag k="ssr:hovedgruppe" v="bebyggelse" />
		<tag k="ssr:stedsnr" v="38602" />
		<tag k="ssr:type" v="boligfelt" />
	</node>
	<node lat="63.30726605394757" lon="10.433313810101694" id="-33152">
		<tag k="leisure" v="pitch" />
		<tag k="name" v="Tanem kunstgressbane" />
		<tag k="ssr:date" v="2019-12-27" />
		<tag k="ssr:gruppe" v="fritidsanlegg" />
		<tag k="ssr:hovedgruppe" v="bebyggelse" />
		<tag k="ssr:stedsnr" v="38604" />
		<tag k="ssr:type" v="idrettsanlegg" />
	</node>
	<node lat="63.27971388671842" lon="10.457216658169067" id="-33153">
		<tag k="leisure" v="pitch" />
		<tag k="name" v="Leirduebanen" />
		<tag k="ssr:date" v="2019-12-27" />
		<tag k="ssr:gruppe" v="fritidsanlegg" />
		<tag k="ssr:hovedgruppe" v="bebyggelse" />
		<tag k="ssr:stedsnr" v="38614" />
		<tag k="ssr:type" v="idrettsanlegg" />
	</node>
	<node lat="63.32445833253442" lon="10.556297230439064" id="-33154">
		<tag k="fixme" v="consider natural=peak for the most distinct mountains in the district" />
		<tag k="name" v="Sagåsen" />
		<tag k="natural" v="hill" />
		<tag k="place" v="locality" />
		<tag k="ssr:date" v="2019-12-27" />
		<tag k="ssr:gruppe" v="høyder" />
		<tag k="ssr:hovedgruppe" v="terreng" />
		<tag k="ssr:stedsnr" v="38617" />
		<tag k="ssr:type" v="ås" />
	</node>
	<node lat="63.326774996537914" lon="10.522080551402407" id="-33155">
		<tag k="name" v="Bostadtjønna" />
		<tag k="natural" v="water" />
		<tag k="ssr:date" v="2019-12-27" />
		<tag k="ssr:gruppe" v="stilleståendeVann" />
		<tag k="ssr:hovedgruppe" v="ferskvann" />
		<tag k="ssr:stedsnr" v="38618" />
		<tag k="ssr:type" v="tjern" />
	</node>
	<node lat="63.33023889039376" lon="10.535366674714394" id="-33156">
		<tag k="name" v="Fiskbekkdalen" />
		<tag k="natural" v="valley" />
		<tag k="place" v="locality" />
		<tag k="ssr:date" v="2019-12-27" />
		<tag k="ssr:gruppe" v="senkninger" />
		<tag k="ssr:hovedgruppe" v="terreng" />
		<tag k="ssr:stedsnr" v="38620" />
		<tag k="ssr:type" v="dal" />
	</node>
	<node lat="63.32243333275956" lon="10.47401110271616" id="-33157">
		<tag k="name" v="Furuhaugmyra" />
		<tag k="natural" v="wetland" />
		<tag k="ssr:date" v="2019-12-27" />
		<tag k="ssr:gruppe" v="våtmark" />
		<tag k="ssr:hovedgruppe" v="markslag" />
		<tag k="ssr:stedsnr" v="38627" />
		<tag k="ssr:type" v="myr" />
	</node>
	<node lat="63.31512499734223" lon="10.55840277197784" id="-33158">
		<tag k="name" v="Bostadtjønna" />
		<tag k="natural" v="water" />
		<tag k="old_name" v="Bostadsetertjønna" />
		<tag k="ssr:date" v="2019-12-27" />
		<tag k="ssr:gruppe" v="stilleståendeVann" />
		<tag k="ssr:hovedgruppe" v="ferskvann" />
		<tag k="ssr:stedsnr" v="38629" />
		<tag k="ssr:type" v="tjern" />
	</node>
	<node lat="63.35404721810275" lon="10.605361116073398" id="-33159">
		<tag k="name" v="Kroksberga" />
		<tag k="natural" v="hill" />
		<tag k="place" v="locality" />
		<tag k="ssr:date" v="2018-01-09" />
		<tag k="ssr:gruppe" v="høyder" />
		<tag k="ssr:hovedgruppe" v="terreng" />
		<tag k="ssr:stedsnr" v="40015" />
		<tag k="ssr:type" v="berg" />
	</node>
	<node lat="63.34518763519072" lon="10.592725359138612" id="-33160">
		<tag k="name" v="Hammerberg" />
		<tag k="natural" v="hill" />
		<tag k="place" v="locality" />
		<tag k="ssr:date" v="2018-02-07" />
		<tag k="ssr:gruppe" v="høyder" />
		<tag k="ssr:hovedgruppe" v="terreng" />
		<tag k="ssr:stedsnr" v="40023" />
		<tag k="ssr:type" v="berg" />
	</node>
	<node lat="63.36081666983298" lon="10.37029444798851" id="-33161">
		<tag k="alt_name" v="Rosten" />
		<tag k="name" v="Rosta" />
		<tag k="place" v="locality" />
		<tag k="ssr:date" v="2020-06-16" />
		<tag k="ssr:gruppe" v="kulturminner" />
		<tag k="ssr:hovedgruppe" v="kultur" />
		<tag k="ssr:stedsnr" v="40503" />
		<tag k="ssr:type" v="annenKulturdetalj" />
	</node>
	<node lat="63.433474996551055" lon="10.375488891347059" id="-33162">
		<tag k="name" v="Skansenløpet" />
		<tag k="natural" v="strait" />
		<tag k="ssr:date" v="2018-01-09" />
		<tag k="ssr:gruppe" v="kystkontur" />
		<tag k="ssr:hovedgruppe" v="sjø" />
		<tag k="ssr:stedsnr" v="40578" />
		<tag k="ssr:type" v="sundISjø" />
	</node>
	<node lat="63.39478610915789" lon="10.513855553743438" id="-33163">
		<tag k="name" v="Kvila" />
		<tag k="place" v="farm" />
		<tag k="ssr:date" v="2020-12-29" />
		<tag k="ssr:gruppe" v="gardsbebyggelse" />
		<tag k="ssr:hovedgruppe" v="bebyggelse" />
		<tag k="ssr:stedsnr" v="40601" />
		<tag k="ssr:type" v="bruk" />
	</node>
	<node lat="63.38981110916486" lon="10.501263881905773" id="-33164">
		<tag k="name" v="Lundheim" />
		<tag k="place" v="farm" />
		<tag k="ssr:date" v="2020-12-29" />
		<tag k="ssr:gruppe" v="gardsbebyggelse" />
		<tag k="ssr:hovedgruppe" v="bebyggelse" />
		<tag k="ssr:stedsnr" v="40676" />
		<tag k="ssr:type" v="bruk" />
	</node>
	<node lat="63.36579722443891" lon="10.559283339148077" id="-33165">
		<tag k="fixme" v="consider natural=peak for the most distinct mountains in the district" />
		<tag k="name" v="Storåsen" />
		<tag k="natural" v="hill" />
		<tag k="place" v="locality" />
		<tag k="ssr:date" v="2018-01-09" />
		<tag k="ssr:gruppe" v="høyder" />
		<tag k="ssr:hovedgruppe" v="terreng" />
		<tag k="ssr:stedsnr" v="41484" />
		<tag k="ssr:type" v="ås" />
	</node>
	<node lat="63.39644068409644" lon="10.340977026324277" id="-33166">
		<tag k="name" v="Knausen" />
		<tag k="place" v="isolated_dwelling" />
		<tag k="ssr:date" v="2021-01-05" />
		<tag k="ssr:gruppe" v="bolighus" />
		<tag k="ssr:hovedgruppe" v="bebyggelse" />
		<tag k="ssr:stedsnr" v="42231" />
		<tag k="ssr:type" v="eneboligMindreBoligbygg" />
	</node>
	<node lat="63.401897226692455" lon="10.313233328238727" id="-33167">
		<tag k="name" v="Lian stasjon" />
		<tag k="railway" v="halt" />
		<tag k="ssr:date" v="2018-01-09" />
		<tag k="ssr:gruppe" v="bane" />
		<tag k="ssr:hovedgruppe" v="infrastruktur" />
		<tag k="ssr:stedsnr" v="42278" />
		<tag k="ssr:type" v="holdeplass" />
		<tag k="train" v="yes" />
	</node>
	<node lat="63.40390834952051" lon="10.589732496890448" id="-33168">
		<tag k="fixme" v="consider place=hamlet" />
		<tag k="name" v="Åsgjerdet" />
		<tag k="place" v="farm" />
		<tag k="ssr:date" v="2018-02-06" />
		<tag k="ssr:gruppe" v="gardsbebyggelse" />
		<tag k="ssr:hovedgruppe" v="bebyggelse" />
		<tag k="ssr:stedsnr" v="42423" />
		<tag k="ssr:type" v="gard" />
	</node>
	<node lat="63.41150278192331" lon="10.38354999623474" id="-33169">
		<tag k="name" v="Stavne" />
		<tag k="old_name" v="Stavne stasjon" />
		<tag k="railway" v="halt" />
		<tag k="ssr:date" v="2021-06-08" />
		<tag k="ssr:gruppe" v="bane" />
		<tag k="ssr:hovedgruppe" v="infrastruktur" />
		<tag k="ssr:stedsnr" v="237468" />
		<tag k="ssr:type" v="holdeplass" />
		<tag k="train" v="yes" />
	</node>
	<node lat="63.38412221999249" lon="10.359680564204877" id="-33171">
		<tag k="name" v="Buenget" />
		<tag k="place" v="farm" />
		<tag k="ssr:date" v="2018-01-09" />
		<tag k="ssr:gruppe" v="gardsbebyggelse" />
		<tag k="ssr:hovedgruppe" v="bebyggelse" />
		<tag k="ssr:stedsnr" v="42988" />
		<tag k="ssr:type" v="bruk" />
	</node>
	<node lat="63.299572225072495" lon="10.485672225196573" id="-33172">
		<tag k="amenity" v="school" />
		<tag k="name" v="Sletten skole" />
		<tag k="ssr:date" v="2021-06-08" />
		<tag k="ssr:gruppe" v="institusjoner" />
		<tag k="ssr:hovedgruppe" v="bebyggelse" />
		<tag k="ssr:stedsnr" v="43206" />
		<tag k="ssr:type" v="skole" />
	</node>
	<node lat="63.26433889177906" lon="10.467080558073516" id="-33173">
		<tag k="fixme" v="consider natural=peak for the most distinct mountains in the district" />
		<tag k="name" v="Stabbåsen" />
		<tag k="natural" v="hill" />
		<tag k="place" v="locality" />
		<tag k="ssr:date" v="2019-12-27" />
		<tag k="ssr:gruppe" v="høyder" />
		<tag k="ssr:hovedgruppe" v="terreng" />
		<tag k="ssr:stedsnr" v="43277" />
		<tag k="ssr:type" v="ås" />
	</node>
	<node lat="63.27760277525877" lon="10.61004722605697" id="-33174">
		<tag k="name" v="Litjskurrubekken" />
		<tag k="ssr:date" v="2019-12-27" />
		<tag k="ssr:gruppe" v="rennendeVann" />
		<tag k="ssr:hovedgruppe" v="ferskvann" />
		<tag k="ssr:stedsnr" v="43309" />
		<tag k="ssr:type" v="bekk" />
		<tag k="waterway" v="stream" />
	</node>
	<node lat="63.29509722443387" lon="10.42645833095973" id="-33175">
		<tag k="name" v="Forsetmoan" />
		<tag k="place" v="locality" />
		<tag k="ssr:date" v="2019-12-27" />
		<tag k="ssr:gruppe" v="flater" />
		<tag k="ssr:hovedgruppe" v="terreng" />
		<tag k="ssr:stedsnr" v="43473" />
		<tag k="ssr:type" v="mo" />
	</node>
	<node lat="63.29933888898695" lon="10.45052777451732" id="-33176">
		<tag k="name" v="Nonsberget" />
		<tag k="natural" v="hill" />
		<tag k="place" v="locality" />
		<tag k="ssr:date" v="2019-12-27" />
		<tag k="ssr:gruppe" v="høyder" />
		<tag k="ssr:hovedgruppe" v="terreng" />
		<tag k="ssr:stedsnr" v="43480" />
		<tag k="ssr:type" v="berg" />
	</node>
	<node lat="63.27863333744938" lon="10.461058341510705" id="-33177">
		<tag k="name" v="Bringbærloken" />
		<tag k="natural" v="water" />
		<tag k="ssr:date" v="2019-12-27" />
		<tag k="ssr:gruppe" v="rennendeVann" />
		<tag k="ssr:hovedgruppe" v="ferskvann" />
		<tag k="ssr:stedsnr" v="43485" />
		<tag k="ssr:type" v="lon" />
		<tag k="water" v="lake" />
	</node>
	<node lat="63.4424666702968" lon="10.423277778466856" id="-33180">
		<tag k="landuse" v="harbour" />
		<tag k="name" v="Nyhavna" />
		<tag k="seamark:type" v="harbour" />
		<tag k="ssr:date" v="2018-01-09" />
		<tag k="ssr:gruppe" v="sjøfart" />
		<tag k="ssr:hovedgruppe" v="infrastruktur" />
		<tag k="ssr:stedsnr" v="238054" />
		<tag k="ssr:type" v="havn" />
	</node>
	<node lat="63.3767750012265" lon="10.541222212559434" id="-33181">
		<tag k="name" v="Engelsås" />
		<tag k="place" v="farm" />
		<tag k="ssr:date" v="2018-01-09" />
		<tag k="ssr:gruppe" v="gardsbebyggelse" />
		<tag k="ssr:hovedgruppe" v="bebyggelse" />
		<tag k="ssr:stedsnr" v="238118" />
		<tag k="ssr:type" v="bruk" />
	</node>
	<node lat="63.41768888579178" lon="10.555411118159522" id="-33182">
		<tag k="name" v="Nyheim" />
		<tag k="place" v="farm" />
		<tag k="ssr:date" v="2021-01-11" />
		<tag k="ssr:gruppe" v="gardsbebyggelse" />
		<tag k="ssr:hovedgruppe" v="bebyggelse" />
		<tag k="ssr:stedsnr" v="238185" />
		<tag k="ssr:type" v="bruk" />
	</node>
	<node lat="63.41954722261322" lon="10.561099997522696" id="-33183">
		<tag k="name" v="Fyken" />
		<tag k="place" v="farm" />
		<tag k="ssr:date" v="2018-01-09" />
		<tag k="ssr:gruppe" v="gardsbebyggelse" />
		<tag k="ssr:hovedgruppe" v="bebyggelse" />
		<tag k="ssr:stedsnr" v="238192" />
		<tag k="ssr:type" v="bruk" />
	</node>
	<node lat="63.4173638914845" lon="10.56300554592369" id="-33184">
		<tag k="name" v="Myrset" />
		<tag k="old_name" v="Myrseth" />
		<tag k="place" v="farm" />
		<tag k="ssr:date" v="2018-01-09" />
		<tag k="ssr:gruppe" v="gardsbebyggelse" />
		<tag k="ssr:hovedgruppe" v="bebyggelse" />
		<tag k="ssr:stedsnr" v="238257" />
		<tag k="ssr:type" v="bruk" />
	</node>
	<node lat="63.41850277532891" lon="10.54754167003665" id="-33186">
		<tag k="name" v="Reppe" />
		<tag k="place" v="locality" />
		<tag k="ssr:date" v="2020-06-16" />
		<tag k="ssr:gruppe" v="kulturminner" />
		<tag k="ssr:hovedgruppe" v="kultur" />
		<tag k="ssr:stedsnr" v="238366" />
		<tag k="ssr:type" v="annenKulturdetalj" />
	</node>
	<node lat="63.42004722029798" lon="10.536686120454991" id="-33187">
		<tag k="name" v="Fossen" />
		<tag k="place" v="locality" />
		<tag k="ssr:date" v="2021-01-13" />
		<tag k="ssr:gruppe" v="kulturminner" />
		<tag k="ssr:hovedgruppe" v="kultur" />
		<tag k="ssr:stedsnr" v="238372" />
		<tag k="ssr:type" v="annenKulturdetalj" />
	</node>
	<node lat="63.36582500310741" lon="10.445841663529057" id="-33188">
		<tag k="name" v="Liabekken" />
		<tag k="ssr:date" v="2018-01-09" />
		<tag k="ssr:gruppe" v="rennendeVann" />
		<tag k="ssr:hovedgruppe" v="ferskvann" />
		<tag k="ssr:stedsnr" v="238593" />
		<tag k="ssr:type" v="bekk" />
		<tag k="waterway" v="stream" />
	</node>
	<node lat="63.43838889283833" lon="10.399019448457107" id="-33189">
		<tag k="man_made" v="quay" />
		<tag k="name" v="Kai 16" />
		<tag k="place" v="locality" />
		<tag k="ssr:date" v="2018-01-09" />
		<tag k="ssr:gruppe" v="sjøfart" />
		<tag k="ssr:hovedgruppe" v="infrastruktur" />
		<tag k="ssr:stedsnr" v="239049" />
		<tag k="ssr:type" v="kai" />
	</node>
	<node lat="63.43037156585256" lon="10.427487012489072" id="-33190">
		<tag k="name" v="Kuhaugen" />
		<tag k="natural" v="hill" />
		<tag k="place" v="locality" />
		<tag k="ssr:date" v="2020-06-16" />
		<tag k="ssr:gruppe" v="høyder" />
		<tag k="ssr:hovedgruppe" v="terreng" />
		<tag k="ssr:stedsnr" v="239076" />
		<tag k="ssr:type" v="høyde" />
	</node>
	<node lat="63.33623055949278" lon="10.40152778126038" id="-33191">
		<tag k="name" v="Bjørnmyra" />
		<tag k="natural" v="wetland" />
		<tag k="ssr:date" v="2018-01-09" />
		<tag k="ssr:gruppe" v="våtmark" />
		<tag k="ssr:hovedgruppe" v="markslag" />
		<tag k="ssr:stedsnr" v="50209" />
		<tag k="ssr:type" v="myr" />
	</node>
	<node lat="63.353747219804134" lon="10.268780557451423" id="-33192">
		<tag k="name" v="Buskleinmyra" />
		<tag k="natural" v="wetland" />
		<tag k="ssr:date" v="2018-01-09" />
		<tag k="ssr:gruppe" v="våtmark" />
		<tag k="ssr:hovedgruppe" v="markslag" />
		<tag k="ssr:stedsnr" v="50211" />
		<tag k="ssr:type" v="myr" />
	</node>
	<node lat="63.34684721900972" lon="10.23992222555842" id="-33193">
		<tag k="name" v="Sveet" />
		<tag k="natural" v="slope" />
		<tag k="place" v="locality" />
		<tag k="ssr:date" v="2018-01-09" />
		<tag k="ssr:gruppe" v="skråninger" />
		<tag k="ssr:hovedgruppe" v="terreng" />
		<tag k="ssr:stedsnr" v="50303" />
		<tag k="ssr:type" v="bakke" />
	</node>
	<node lat="63.32992222113373" lon="10.6520305513013" id="-33194">
		<tag k="name" v="Middagshaugen" />
		<tag k="natural" v="hill" />
		<tag k="place" v="locality" />
		<tag k="ssr:date" v="2018-01-09" />
		<tag k="ssr:gruppe" v="høyder" />
		<tag k="ssr:hovedgruppe" v="terreng" />
		<tag k="ssr:stedsnr" v="50323" />
		<tag k="ssr:type" v="berg" />
	</node>
	<node lat="63.406115331991174" lon="10.502732109201878" id="-33195">
		<tag k="name" v="Rein" />
		<tag k="place" v="isolated_dwelling" />
		<tag k="ssr:date" v="2020-12-29" />
		<tag k="ssr:gruppe" v="bolighus" />
		<tag k="ssr:hovedgruppe" v="bebyggelse" />
		<tag k="ssr:stedsnr" v="50521" />
		<tag k="ssr:type" v="eneboligMindreBoligbygg" />
	</node>
	<node lat="63.39199304223505" lon="10.467841259527903" id="-33196">
		<tag k="name" v="Pynten" />
		<tag k="place" v="isolated_dwelling" />
		<tag k="ssr:date" v="2020-12-29" />
		<tag k="ssr:gruppe" v="bolighus" />
		<tag k="ssr:hovedgruppe" v="bebyggelse" />
		<tag k="ssr:stedsnr" v="50524" />
		<tag k="ssr:type" v="eneboligMindreBoligbygg" />
	</node>
	<node lat="63.38988379612628" lon="10.507327577079469" id="-33197">
		<tag k="name" v="Snabben" />
		<tag k="place" v="isolated_dwelling" />
		<tag k="ssr:date" v="2020-12-29" />
		<tag k="ssr:gruppe" v="bolighus" />
		<tag k="ssr:hovedgruppe" v="bebyggelse" />
		<tag k="ssr:stedsnr" v="50468" />
		<tag k="ssr:type" v="eneboligMindreBoligbygg" />
	</node>
	<node lat="63.43463551387528" lon="10.405867945271023" id="-33198">
		<tag k="name" v="Krigsseilermonumentet" />
		<tag k="place" v="locality" />
		<tag k="ssr:date" v="2020-06-16" />
		<tag k="ssr:gruppe" v="kulturminner" />
		<tag k="ssr:hovedgruppe" v="kultur" />
		<tag k="ssr:stedsnr" v="239243" />
		<tag k="ssr:type" v="annenKulturdetalj" />
	</node>
	<node lat="63.33022222520167" lon="10.362947220659091" id="-33199">
		<tag k="fixme" v="consider place=hamlet" />
		<tag k="name" v="Kvenild" />
		<tag k="place" v="farm" />
		<tag k="ssr:date" v="2021-06-08" />
		<tag k="ssr:gruppe" v="gardsbebyggelse" />
		<tag k="ssr:hovedgruppe" v="bebyggelse" />
		<tag k="ssr:stedsnr" v="50568" />
		<tag k="ssr:type" v="gard" />
	</node>
	<node lat="63.38184999983035" lon="10.395027769895362" id="-33200">
		<tag k="landuse" v="industrial" />
		<tag k="name" v="Nedre Leirfoss kraftstasjon" />
		<tag k="power" v="plant" />
		<tag k="ssr:date" v="2018-01-09" />
		<tag k="ssr:gruppe" v="energi" />
		<tag k="ssr:hovedgruppe" v="infrastruktur" />
		<tag k="ssr:stedsnr" v="50702" />
		<tag k="ssr:type" v="kraftstasjon" />
	</node>
	<node lat="63.41415000256785" lon="10.417547225296369" id="-33201">
		<tag k="name" v="Studentbyen på Berg" />
		<tag k="place" v="neighbourhood" />
		<tag k="ssr:date" v="2018-01-09" />
		<tag k="ssr:gruppe" v="bolighus" />
		<tag k="ssr:hovedgruppe" v="bebyggelse" />
		<tag k="ssr:stedsnr" v="50704" />
		<tag k="ssr:type" v="borettslag" />
	</node>
	<node lat="63.354864129587504" lon="10.16323972551823" id="-33202">
		<tag k="amenity" v="school" />
		<tag k="name" v="Spongdal skole" />
		<tag k="ssr:date" v="2018-01-09" />
		<tag k="ssr:gruppe" v="institusjoner" />
		<tag k="ssr:hovedgruppe" v="bebyggelse" />
		<tag k="ssr:stedsnr" v="50721" />
		<tag k="ssr:type" v="skole" />
	</node>
	<node lat="63.45125833713887" lon="10.383541668448721" id="-33203">
		<tag k="name" v="Falkenskioldmuseet" />
		<tag k="ssr:date" v="2018-01-09" />
		<tag k="ssr:gruppe" v="kulturinstitusjoner" />
		<tag k="ssr:hovedgruppe" v="kultur" />
		<tag k="ssr:stedsnr" v="50784" />
		<tag k="ssr:type" v="museumGalleriBibliotek" />
		<tag k="tourism" v="museum" />
	</node>
	<node lat="63.41744722487376" lon="10.44421388523657" id="-33204">
		<tag k="alt_name" v="Reitgjerdet Lille" />
		<tag k="name" v="Lille Reitgjerdet" />
		<tag k="place" v="farm" />
		<tag k="ssr:date" v="2018-01-09" />
		<tag k="ssr:gruppe" v="gardsbebyggelse" />
		<tag k="ssr:hovedgruppe" v="bebyggelse" />
		<tag k="ssr:stedsnr" v="50673" />
		<tag k="ssr:type" v="bruk" />
	</node>
	<node lat="63.44981944534534" lon="10.434833327568061" id="-33206">
		<tag k="name" v="Korsvikberget" />
		<tag k="natural" v="hill" />
		<tag k="place" v="locality" />
		<tag k="ssr:date" v="2018-01-09" />
		<tag k="ssr:gruppe" v="høyder" />
		<tag k="ssr:hovedgruppe" v="terreng" />
		<tag k="ssr:stedsnr" v="239261" />
		<tag k="ssr:type" v="berg" />
	</node>
	<node lat="63.400999791579125" lon="10.51944846955534" id="-33208">
		<tag k="name" v="Kvilheim" />
		<tag k="place" v="farm" />
		<tag k="ssr:date" v="2020-12-10" />
		<tag k="ssr:gruppe" v="gardsbebyggelse" />
		<tag k="ssr:hovedgruppe" v="bebyggelse" />
		<tag k="ssr:stedsnr" v="51571" />
		<tag k="ssr:type" v="bruk" />
	</node>
	<node lat="63.39431786304444" lon="10.513199427004073" id="-33209">
		<tag k="name" v="Kvilhaug" />
		<tag k="place" v="farm" />
		<tag k="ssr:date" v="2020-08-03" />
		<tag k="ssr:gruppe" v="gardsbebyggelse" />
		<tag k="ssr:hovedgruppe" v="bebyggelse" />
		<tag k="ssr:stedsnr" v="51576" />
		<tag k="ssr:type" v="bruk" />
	</node>
	<node lat="63.40786944630777" lon="10.439605545717988" id="-33210">
		<tag k="alt_name" v="Moholt østre" />
		<tag k="name" v="Østre Moholt" />
		<tag k="place" v="farm" />
		<tag k="ssr:date" v="2018-01-09" />
		<tag k="ssr:gruppe" v="gardsbebyggelse" />
		<tag k="ssr:hovedgruppe" v="bebyggelse" />
		<tag k="ssr:stedsnr" v="51706" />
		<tag k="ssr:type" v="bruk" />
	</node>
	<node lat="63.40145833164964" lon="10.361222229394832" id="-33211">
		<tag k="name" v="Munkvoll" />
		<tag k="old_name" v="Munkvold hovedgård;Munkvold gård" />
		<tag k="place" v="farm" />
		<tag k="ssr:date" v="2018-01-09" />
		<tag k="ssr:gruppe" v="gardsbebyggelse" />
		<tag k="ssr:hovedgruppe" v="bebyggelse" />
		<tag k="ssr:stedsnr" v="51708" />
		<tag k="ssr:type" v="bruk" />
	</node>
	<node lat="63.407423370258705" lon="10.480831690869438" id="-33212">
		<tag k="alt_name" v="Stokkan øvre" />
		<tag k="name" v="Øvre Stokkan" />
		<tag k="place" v="farm" />
		<tag k="ssr:date" v="2019-03-28" />
		<tag k="ssr:gruppe" v="gardsbebyggelse" />
		<tag k="ssr:hovedgruppe" v="bebyggelse" />
		<tag k="ssr:stedsnr" v="51718" />
		<tag k="ssr:type" v="bruk" />
	</node>
	<node lat="63.43087499947724" lon="10.455872215953852" id="-33213">
		<tag k="name" v="Strindheim hageby" />
		<tag k="place" v="quarter" />
		<tag k="ssr:date" v="2018-01-09" />
		<tag k="ssr:gruppe" v="bebyggelsesområder" />
		<tag k="ssr:hovedgruppe" v="bebyggelse" />
		<tag k="ssr:stedsnr" v="239647" />
		<tag k="ssr:type" v="boligfelt" />
	</node>
	<node lat="63.4365777799753" lon="10.394219450568027" id="-33214">
		<tag k="man_made" v="quay" />
		<tag k="name" v="Kai 18" />
		<tag k="place" v="locality" />
		<tag k="ssr:date" v="2018-01-09" />
		<tag k="ssr:gruppe" v="sjøfart" />
		<tag k="ssr:hovedgruppe" v="infrastruktur" />
		<tag k="ssr:stedsnr" v="55228" />
		<tag k="ssr:type" v="kai" />
	</node>
	<node lat="63.429652780258635" lon="10.393644436089495" id="-33215">
		<tag k="name" v="Tinghusplassen" />
		<tag k="place" v="square" />
		<tag k="ssr:date" v="2018-01-09" />
		<tag k="ssr:gruppe" v="bebyggelsesområder" />
		<tag k="ssr:hovedgruppe" v="bebyggelse" />
		<tag k="ssr:stedsnr" v="55473" />
		<tag k="ssr:type" v="torg" />
	</node>
	<node lat="63.37003611317803" lon="10.515833336254262" id="-33216">
		<tag k="name" v="Greistad" />
		<tag k="place" v="farm" />
		<tag k="ssr:date" v="2018-01-09" />
		<tag k="ssr:gruppe" v="gardsbebyggelse" />
		<tag k="ssr:hovedgruppe" v="bebyggelse" />
		<tag k="ssr:stedsnr" v="56111" />
		<tag k="ssr:type" v="bruk" />
	</node>
	<node lat="63.41715277433826" lon="10.55600277058085" id="-33217">
		<tag k="name" v="Furubotten" />
		<tag k="place" v="isolated_dwelling" />
		<tag k="ssr:date" v="2018-01-09" />
		<tag k="ssr:gruppe" v="bolighus" />
		<tag k="ssr:hovedgruppe" v="bebyggelse" />
		<tag k="ssr:stedsnr" v="56180" />
		<tag k="ssr:type" v="eneboligMindreBoligbygg" />
	</node>
	<node lat="63.428008334163565" lon="10.555830547012556" id="-33218">
		<tag k="name" v="Survika" />
		<tag k="place" v="isolated_dwelling" />
		<tag k="ssr:date" v="2018-01-09" />
		<tag k="ssr:gruppe" v="bolighus" />
		<tag k="ssr:hovedgruppe" v="bebyggelse" />
		<tag k="ssr:stedsnr" v="56268" />
		<tag k="ssr:type" v="eneboligMindreBoligbygg" />
	</node>
	<node lat="63.416997219441846" lon="10.557897231909694" id="-33219">
		<tag k="name" v="Solsletten" />
		<tag k="place" v="isolated_dwelling" />
		<tag k="ssr:date" v="2018-01-09" />
		<tag k="ssr:gruppe" v="bolighus" />
		<tag k="ssr:hovedgruppe" v="bebyggelse" />
		<tag k="ssr:stedsnr" v="56283" />
		<tag k="ssr:type" v="eneboligMindreBoligbygg" />
	</node>
	<node lat="63.40266111094625" lon="10.392675000088731" id="-33220">
		<tag k="building" v="commercial" />
		<tag k="name" v="Trondheim Renholdsverk" />
		<tag k="ssr:date" v="2018-01-09" />
		<tag k="ssr:gruppe" v="næring" />
		<tag k="ssr:hovedgruppe" v="bebyggelse" />
		<tag k="ssr:stedsnr" v="56489" />
		<tag k="ssr:type" v="forretningsbygg" />
	</node>
	<node lat="63.43426111269989" lon="10.422530562412605" id="-33221">
		<tag k="name" v="Rosenborg" />
		<tag k="place" v="locality" />
		<tag k="ssr:date" v="2018-01-09" />
		<tag k="ssr:gruppe" v="gardsbebyggelse" />
		<tag k="ssr:hovedgruppe" v="bebyggelse" />
		<tag k="ssr:stedsnr" v="240033" />
		<tag k="ssr:type" v="eiendom" />
	</node>
	<node lat="63.367486109067926" lon="10.453644452914654" id="-33222">
		<tag k="name" v="Storbranden" />
		<tag k="natural" v="hill" />
		<tag k="place" v="locality" />
		<tag k="ssr:date" v="2018-01-09" />
		<tag k="ssr:gruppe" v="høyder" />
		<tag k="ssr:hovedgruppe" v="terreng" />
		<tag k="ssr:stedsnr" v="56575" />
		<tag k="ssr:type" v="berg" />
	</node>
	<node lat="63.34837777687278" lon="10.480497221569662" id="-33224">
		<tag k="alt_name" v="Kvål øvre" />
		<tag k="name" v="Øvre Kvål" />
		<tag k="place" v="farm" />
		<tag k="ssr:date" v="2018-01-09" />
		<tag k="ssr:gruppe" v="gardsbebyggelse" />
		<tag k="ssr:hovedgruppe" v="bebyggelse" />
		<tag k="ssr:stedsnr" v="240094" />
		<tag k="ssr:type" v="bruk" />
	</node>
	<node lat="63.42910832965725" lon="10.433316659697176" id="-33225">
		<tag k="man_made" v="pipeline" />
		<tag k="name" v="Kuhaugen trykkbasseng" />
		<tag k="ssr:date" v="2018-01-09" />
		<tag k="ssr:gruppe" v="energi" />
		<tag k="ssr:hovedgruppe" v="infrastruktur" />
		<tag k="ssr:stedsnr" v="57206" />
		<tag k="ssr:type" v="rørledning" />
	</node>
	<node lat="63.45092222075211" lon="10.443172230182036" id="-33226">
		<tag k="amenity" v="nursing_home" />
		<tag k="name" v="Sjømenns aldershjem" />
		<tag k="ssr:date" v="2018-01-09" />
		<tag k="ssr:gruppe" v="institusjoner" />
		<tag k="ssr:hovedgruppe" v="bebyggelse" />
		<tag k="ssr:stedsnr" v="57489" />
		<tag k="ssr:type" v="helseinstitusjon" />
	</node>
	<node lat="63.4118916709733" lon="10.471475009406078" id="-33228">
		<tag k="name" v="Solheim" />
		<tag k="place" v="isolated_dwelling" />
		<tag k="ssr:date" v="2018-01-09" />
		<tag k="ssr:gruppe" v="bolighus" />
		<tag k="ssr:hovedgruppe" v="bebyggelse" />
		<tag k="ssr:stedsnr" v="57802" />
		<tag k="ssr:type" v="eneboligMindreBoligbygg" />
	</node>
	<node lat="63.39022918465275" lon="10.344906372705243" id="-33229">
		<tag k="name" v="Kystad" />
		<tag k="place" v="farm" />
		<tag k="ssr:date" v="2019-01-28" />
		<tag k="ssr:gruppe" v="gardsbebyggelse" />
		<tag k="ssr:hovedgruppe" v="bebyggelse" />
		<tag k="ssr:stedsnr" v="58089" />
		<tag k="ssr:type" v="bruk" />
	</node>
	<node lat="63.42574444323742" lon="10.540997230602272" id="-33230">
		<tag k="name" v="Furuhaugen" />
		<tag k="place" v="isolated_dwelling" />
		<tag k="ssr:date" v="2018-01-09" />
		<tag k="ssr:gruppe" v="bolighus" />
		<tag k="ssr:hovedgruppe" v="bebyggelse" />
		<tag k="ssr:stedsnr" v="240408" />
		<tag k="ssr:type" v="eneboligMindreBoligbygg" />
	</node>
	<node lat="63.42604999951895" lon="10.54353888640515" id="-33231">
		<tag k="name" v="Humlehaug" />
		<tag k="place" v="isolated_dwelling" />
		<tag k="ssr:date" v="2018-01-09" />
		<tag k="ssr:gruppe" v="bolighus" />
		<tag k="ssr:hovedgruppe" v="bebyggelse" />
		<tag k="ssr:stedsnr" v="240410" />
		<tag k="ssr:type" v="eneboligMindreBoligbygg" />
	</node>
	<node lat="63.391180554025816" lon="10.121811117014001" id="-33232">
		<tag k="fixme" v="consider place=hamlet" />
		<tag k="name" v="Esp" />
		<tag k="place" v="farm" />
		<tag k="ssr:date" v="2018-01-09" />
		<tag k="ssr:gruppe" v="gardsbebyggelse" />
		<tag k="ssr:hovedgruppe" v="bebyggelse" />
		<tag k="ssr:stedsnr" v="58891" />
		<tag k="ssr:type" v="gard" />
	</node>
	<node lat="63.41261111222384" lon="10.472191665152863" id="-33233">
		<tag k="name" v="Flata" />
		<tag k="place" v="isolated_dwelling" />
		<tag k="ssr:date" v="2018-01-09" />
		<tag k="ssr:gruppe" v="bolighus" />
		<tag k="ssr:hovedgruppe" v="bebyggelse" />
		<tag k="ssr:stedsnr" v="59177" />
		<tag k="ssr:type" v="eneboligMindreBoligbygg" />
	</node>
	<node lat="63.42557499987342" lon="10.351847223130367" id="-33234">
		<tag k="name" v="Horgheim" />
		<tag k="place" v="isolated_dwelling" />
		<tag k="ssr:date" v="2018-01-09" />
		<tag k="ssr:gruppe" v="bolighus" />
		<tag k="ssr:hovedgruppe" v="bebyggelse" />
		<tag k="ssr:stedsnr" v="59381" />
		<tag k="ssr:type" v="eneboligMindreBoligbygg" />
	</node>
	<node lat="63.441283335690784" lon="10.338472220781146" id="-33235">
		<tag k="name" v="Garnisonsbekken" />
		<tag k="ssr:date" v="2018-01-09" />
		<tag k="ssr:gruppe" v="rennendeVann" />
		<tag k="ssr:hovedgruppe" v="ferskvann" />
		<tag k="ssr:stedsnr" v="59072" />
		<tag k="ssr:type" v="bekk" />
		<tag k="waterway" v="stream" />
	</node>
	<node lat="63.42430134348031" lon="10.380301720687779" id="-33236">
		<tag k="name" v="Klosterenget" />
		<tag k="place" v="farm" />
		<tag k="ssr:date" v="2020-12-10" />
		<tag k="ssr:gruppe" v="gardsbebyggelse" />
		<tag k="ssr:hovedgruppe" v="bebyggelse" />
		<tag k="ssr:stedsnr" v="59281" />
		<tag k="ssr:type" v="bruk" />
	</node>
	<node lat="63.42001944192219" lon="10.375344442303456" id="-33237">
		<tag k="name" v="Bygrensa" />
		<tag k="railway" v="halt" />
		<tag k="ssr:date" v="2021-06-08" />
		<tag k="ssr:gruppe" v="bane" />
		<tag k="ssr:hovedgruppe" v="infrastruktur" />
		<tag k="ssr:stedsnr" v="59286" />
		<tag k="ssr:type" v="holdeplass" />
		<tag k="train" v="yes" />
	</node>
	<node lat="63.33932777689057" lon="10.65237222179456" id="-33238">
		<tag k="name" v="Kaldbudalsbekken" />
		<tag k="ssr:date" v="2018-01-09" />
		<tag k="ssr:gruppe" v="rennendeVann" />
		<tag k="ssr:hovedgruppe" v="ferskvann" />
		<tag k="ssr:stedsnr" v="240539" />
		<tag k="ssr:type" v="bekk" />
		<tag k="waterway" v="stream" />
	</node>
	<node lat="63.352872220180764" lon="10.48684444595997" id="-33239">
		<tag k="name" v="Røstadbakken" />
		<tag k="natural" v="slope" />
		<tag k="place" v="locality" />
		<tag k="ssr:date" v="2018-01-09" />
		<tag k="ssr:gruppe" v="skråninger" />
		<tag k="ssr:hovedgruppe" v="terreng" />
		<tag k="ssr:stedsnr" v="59470" />
		<tag k="ssr:type" v="bakke" />
	</node>
	<node lat="63.35104722253647" lon="10.470722223970045" id="-33240">
		<tag k="alt_name" v="Seterplassen" />
		<tag k="historic" v="shieling" />
		<tag k="name" v="Sæterplassen" />
		<tag k="place" v="locality" />
		<tag k="ssr:date" v="2018-01-09" />
		<tag k="ssr:gruppe" v="dyrkamark" />
		<tag k="ssr:hovedgruppe" v="markslag" />
		<tag k="ssr:stedsnr" v="59485" />
		<tag k="ssr:type" v="setervoll" />
	</node>
	<node lat="63.400483343192974" lon="10.460340689796407" id="-33241">
		<tag k="name" v="Bjørnheim" />
		<tag k="place" v="isolated_dwelling" />
		<tag k="ssr:date" v="2020-12-10" />
		<tag k="ssr:gruppe" v="bolighus" />
		<tag k="ssr:hovedgruppe" v="bebyggelse" />
		<tag k="ssr:stedsnr" v="59808" />
		<tag k="ssr:type" v="eneboligMindreBoligbygg" />
	</node>
	<node lat="63.409336998458166" lon="10.15391245346771" id="-33242">
		<tag k="name" v="Golosmyra" />
		<tag k="place" v="locality" />
		<tag k="ssr:date" v="2021-04-25" />
		<tag k="ssr:gruppe" v="gardsbebyggelse" />
		<tag k="ssr:hovedgruppe" v="bebyggelse" />
		<tag k="ssr:stedsnr" v="60473" />
		<tag k="ssr:type" v="eiendom" />
	</node>
	<node lat="63.41495000439544" lon="10.549772219001007" id="-33243">
		<tag k="alt_name" v="Reppe søndre" />
		<tag k="name" v="Søndre Reppe" />
		<tag k="place" v="farm" />
		<tag k="ssr:date" v="2018-01-09" />
		<tag k="ssr:gruppe" v="gardsbebyggelse" />
		<tag k="ssr:hovedgruppe" v="bebyggelse" />
		<tag k="ssr:stedsnr" v="240714" />
		<tag k="ssr:type" v="bruk" />
	</node>
	<node lat="63.32164722348154" lon="10.675777775500329" id="-33244">
		<tag k="name" v="Mårdalan" />
		<tag k="natural" v="valley" />
		<tag k="place" v="locality" />
		<tag k="ssr:date" v="2018-01-09" />
		<tag k="ssr:gruppe" v="senkninger" />
		<tag k="ssr:hovedgruppe" v="terreng" />
		<tag k="ssr:stedsnr" v="241057" />
		<tag k="ssr:type" v="dal" />
	</node>
	<node lat="63.435147223193724" lon="10.576061101406149" id="-33245">
		<tag k="name" v="Bergstua" />
		<tag k="place" v="isolated_dwelling" />
		<tag k="ssr:date" v="2018-01-09" />
		<tag k="ssr:gruppe" v="bolighus" />
		<tag k="ssr:hovedgruppe" v="bebyggelse" />
		<tag k="ssr:stedsnr" v="241144" />
		<tag k="ssr:type" v="eneboligMindreBoligbygg" />
	</node>
	<node lat="63.35241110883096" lon="10.400994451603617" id="-33246">
		<tag k="name" v="Hårstad" />
		<tag k="place" v="locality" />
		<tag k="ssr:date" v="2020-06-16" />
		<tag k="ssr:gruppe" v="kulturminner" />
		<tag k="ssr:hovedgruppe" v="kultur" />
		<tag k="ssr:stedsnr" v="241104" />
		<tag k="ssr:type" v="annenKulturdetalj" />
	</node>
	<node lat="63.3438555582266" lon="10.424836106708687" id="-33247">
		<tag k="name" v="Tillerflata" />
		<tag k="place" v="locality" />
		<tag k="ssr:date" v="2020-06-16" />
		<tag k="ssr:gruppe" v="kulturminner" />
		<tag k="ssr:hovedgruppe" v="kultur" />
		<tag k="ssr:stedsnr" v="241111" />
		<tag k="ssr:type" v="annenKulturdetalj" />
	</node>
	<node lat="63.446713887280325" lon="10.462252767987213" id="-33248">
		<tag k="highway" v="path" />
		<tag k="name" v="Finnestien" />
		<tag k="ssr:date" v="2018-01-09" />
		<tag k="ssr:gruppe" v="veg" />
		<tag k="ssr:hovedgruppe" v="infrastruktur" />
		<tag k="ssr:stedsnr" v="241189" />
		<tag k="ssr:type" v="sti" />
	</node>
	<node lat="63.42985000454648" lon="10.55574999482676" id="-33249">
		<tag k="name" v="Grytbakk" />
		<tag k="place" v="isolated_dwelling" />
		<tag k="ssr:date" v="2018-01-09" />
		<tag k="ssr:gruppe" v="bolighus" />
		<tag k="ssr:hovedgruppe" v="bebyggelse" />
		<tag k="ssr:stedsnr" v="241118" />
		<tag k="ssr:type" v="fritidsbolig" />
	</node>
	<node lat="63.42368888920863" lon="10.48672500892667" id="-33250">
		<tag k="name" v="Midtre Tunhøgda" />
		<tag k="place" v="neighbourhood" />
		<tag k="ssr:date" v="2018-01-09" />
		<tag k="ssr:gruppe" v="bolighus" />
		<tag k="ssr:hovedgruppe" v="bebyggelse" />
		<tag k="ssr:stedsnr" v="241238" />
		<tag k="ssr:type" v="borettslag" />
	</node>
	<node lat="63.42927500023786" lon="10.536597226030738" id="-33251">
		<tag k="alt_name" v="Ranheim Nedre" />
		<tag k="fixme" v="consider place=hamlet" />
		<tag k="name" v="Nedre Ranheim" />
		<tag k="place" v="farm" />
		<tag k="ssr:date" v="2018-01-09" />
		<tag k="ssr:gruppe" v="gardsbebyggelse" />
		<tag k="ssr:hovedgruppe" v="bebyggelse" />
		<tag k="ssr:stedsnr" v="241252" />
		<tag k="ssr:type" v="gard" />
	</node>
	<node lat="63.42253888560334" lon="10.39512221290911" id="-33253">
		<tag k="amenity" v="community_centre" />
		<tag k="name" v="Studentersamfundet" />
		<tag k="ssr:date" v="2018-01-09" />
		<tag k="ssr:gruppe" v="kulturinstitusjoner" />
		<tag k="ssr:hovedgruppe" v="kultur" />
		<tag k="ssr:stedsnr" v="241275" />
		<tag k="ssr:type" v="forsamlingshusKulturhus" />
	</node>
	<node lat="63.41840555300033" lon="10.357419441205234" id="-33254">
		<tag k="name" v="Meldalsgården" />
		<tag k="place" v="isolated_dwelling" />
		<tag k="ssr:date" v="2018-01-09" />
		<tag k="ssr:gruppe" v="bolighus" />
		<tag k="ssr:hovedgruppe" v="bebyggelse" />
		<tag k="ssr:stedsnr" v="241352" />
		<tag k="ssr:type" v="eneboligMindreBoligbygg" />
	</node>
	<node lat="63.41892778094589" lon="10.376794452852629" id="-33255">
		<tag k="name" v="Blida 1" />
		<tag k="place" v="isolated_dwelling" />
		<tag k="ssr:date" v="2018-01-09" />
		<tag k="ssr:gruppe" v="bolighus" />
		<tag k="ssr:hovedgruppe" v="bebyggelse" />
		<tag k="ssr:stedsnr" v="241313" />
		<tag k="ssr:type" v="eneboligMindreBoligbygg" />
	</node>
	<node lat="63.32944166664527" lon="10.632230553614741" id="-33256">
		<tag k="name" v="Raudkjølen" />
		<tag k="natural" v="wetland" />
		<tag k="ssr:date" v="2018-01-09" />
		<tag k="ssr:gruppe" v="våtmark" />
		<tag k="ssr:hovedgruppe" v="markslag" />
		<tag k="ssr:stedsnr" v="241450" />
		<tag k="ssr:type" v="myr" />
	</node>
	<node lat="63.35146389040203" lon="10.481636108085432" id="-33257">
		<tag k="name" v="Røstadmyra" />
		<tag k="natural" v="slope" />
		<tag k="place" v="locality" />
		<tag k="ssr:date" v="2018-01-09" />
		<tag k="ssr:gruppe" v="skråninger" />
		<tag k="ssr:hovedgruppe" v="terreng" />
		<tag k="ssr:stedsnr" v="241466" />
		<tag k="ssr:type" v="li" />
	</node>
	<node lat="63.39387777421827" lon="10.223797216130619" id="-33258">
		<tag k="name" v="Markamyran" />
		<tag k="place" v="locality" />
		<tag k="ssr:date" v="2018-01-09" />
		<tag k="ssr:gruppe" v="dyrkamark" />
		<tag k="ssr:hovedgruppe" v="markslag" />
		<tag k="ssr:stedsnr" v="241551" />
		<tag k="ssr:type" v="utmark" />
	</node>
	<node lat="63.38699270657676" lon="10.22671874287818" id="-33259">
		<tag k="name" v="Gunnarslættbakkan" />
		<tag k="natural" v="slope" />
		<tag k="place" v="locality" />
		<tag k="ssr:date" v="2018-08-28" />
		<tag k="ssr:gruppe" v="skråninger" />
		<tag k="ssr:hovedgruppe" v="terreng" />
		<tag k="ssr:stedsnr" v="241554" />
		<tag k="ssr:type" v="bakke" />
	</node>
	<node lat="63.32927222479737" lon="10.307324995718627" id="-33260">
		<tag k="name" v="Nypan" />
		<tag k="place" v="farm" />
		<tag k="ssr:date" v="2018-01-09" />
		<tag k="ssr:gruppe" v="gardsbebyggelse" />
		<tag k="ssr:hovedgruppe" v="bebyggelse" />
		<tag k="ssr:stedsnr" v="241640" />
		<tag k="ssr:type" v="bruk" />
	</node>
	<node lat="63.38603333562477" lon="10.390427781149356" id="-33261">
		<tag k="name" v="Rosenheim" />
		<tag k="place" v="isolated_dwelling" />
		<tag k="ssr:date" v="2018-01-09" />
		<tag k="ssr:gruppe" v="bolighus" />
		<tag k="ssr:hovedgruppe" v="bebyggelse" />
		<tag k="ssr:stedsnr" v="241744" />
		<tag k="ssr:type" v="eneboligMindreBoligbygg" />
	</node>
	<node lat="63.36528253043477" lon="10.351594788268677" id="-33262">
		<tag k="amenity" v="sports_centre" />
		<tag k="name" v="Husebyhallen" />
		<tag k="ssr:date" v="2018-11-29" />
		<tag k="ssr:gruppe" v="fritidsanlegg" />
		<tag k="ssr:hovedgruppe" v="bebyggelse" />
		<tag k="ssr:stedsnr" v="241973" />
		<tag k="ssr:type" v="idrettshall" />
	</node>
	<node lat="63.35760833304701" lon="10.197905549235212" id="-33263">
		<tag k="fixme" v="consider place=hamlet" />
		<tag k="name" v="Håbjørg" />
		<tag k="place" v="farm" />
		<tag k="ssr:date" v="2018-01-09" />
		<tag k="ssr:gruppe" v="gardsbebyggelse" />
		<tag k="ssr:hovedgruppe" v="bebyggelse" />
		<tag k="ssr:stedsnr" v="242475" />
		<tag k="ssr:type" v="gard" />
	</node>
	<node lat="63.385450003110044" lon="10.32248610870022" id="-33264">
		<tag k="fixme" v="consider place=hamlet" />
		<tag k="name" v="Brannhaugen" />
		<tag k="place" v="farm" />
		<tag k="ssr:date" v="2018-01-09" />
		<tag k="ssr:gruppe" v="gardsbebyggelse" />
		<tag k="ssr:hovedgruppe" v="bebyggelse" />
		<tag k="ssr:stedsnr" v="242771" />
		<tag k="ssr:type" v="gard" />
	</node>
	<node lat="63.32583191360098" lon="10.32645354864787" id="-33265">
		<tag k="layer" v="-1" />
		<tag k="name" v="Storlersundergangen" />
		<tag k="ssr:date" v="2020-01-28" />
		<tag k="ssr:gruppe" v="samferdselsanlegg" />
		<tag k="ssr:hovedgruppe" v="infrastruktur" />
		<tag k="ssr:stedsnr" v="242864" />
		<tag k="ssr:type" v="tunnel" />
		<tag k="tunnel" v="yes" />
	</node>
	<node lat="63.33608889073539" lon="10.340652771605248" id="-33266">
		<tag k="fixme" v="multiple name tags, choose one and add the other to alt_name" />
		<tag k="name" v="Søndre Heggstad;Heggstad" />
		<tag k="place" v="farm" />
		<tag k="ssr:date" v="2021-06-08" />
		<tag k="ssr:gruppe" v="gardsbebyggelse" />
		<tag k="ssr:hovedgruppe" v="bebyggelse" />
		<tag k="ssr:stedsnr" v="242883" />
		<tag k="ssr:type" v="bruk" />
	</node>
	<node lat="63.31237499900312" lon="10.307775000655845" id="-33267">
		<tag k="alt_name" v="Hjellen nordre" />
		<tag k="name" v="Nordre Hjellen" />
		<tag k="place" v="farm" />
		<tag k="ssr:date" v="2018-11-19" />
		<tag k="ssr:gruppe" v="gardsbebyggelse" />
		<tag k="ssr:hovedgruppe" v="bebyggelse" />
		<tag k="ssr:stedsnr" v="242884" />
		<tag k="ssr:type" v="bruk" />
	</node>
	<node lat="63.33984444557249" lon="10.302630564102166" id="-33268">
		<tag k="name" v="Skjetlein" />
		<tag k="place" v="hamlet" />
		<tag k="ssr:date" v="2018-01-09" />
		<tag k="ssr:gruppe" v="gardsbebyggelse" />
		<tag k="ssr:hovedgruppe" v="bebyggelse" />
		<tag k="ssr:stedsnr" v="242909" />
		<tag k="ssr:type" v="navnegard" />
	</node>
	<node lat="63.42723610974005" lon="10.56646943834941" id="-33269">
		<tag k="alt_name" v="Være vestre øvre" />
		<tag k="name" v="Øvre Vestre Være" />
		<tag k="place" v="farm" />
		<tag k="ssr:date" v="2018-01-09" />
		<tag k="ssr:gruppe" v="gardsbebyggelse" />
		<tag k="ssr:hovedgruppe" v="bebyggelse" />
		<tag k="ssr:stedsnr" v="242913" />
		<tag k="ssr:type" v="bruk" />
	</node>
	<node lat="63.41029444265639" lon="10.43155833482601" id="-33270">
		<tag k="alt_name" v="Vestre Moholt" />
		<tag k="name" v="Moholt Vestre" />
		<tag k="place" v="farm" />
		<tag k="ssr:date" v="2018-01-09" />
		<tag k="ssr:gruppe" v="gardsbebyggelse" />
		<tag k="ssr:hovedgruppe" v="bebyggelse" />
		<tag k="ssr:stedsnr" v="242949" />
		<tag k="ssr:type" v="bruk" />
	</node>
	<node lat="63.432479714817376" lon="10.152458462621306" id="-33271">
		<tag k="name" v="Byafjæra" />
		<tag k="natural" v="beach" />
		<tag k="ssr:date" v="2020-06-18" />
		<tag k="ssr:gruppe" v="kystkontur" />
		<tag k="ssr:hovedgruppe" v="sjø" />
		<tag k="ssr:stedsnr" v="73113" />
		<tag k="ssr:type" v="strandISjø" />
	</node>
	<node lat="63.42365695601562" lon="10.142186677250969" id="-33272">
		<tag k="fixme" v="consider place=hamlet" />
		<tag k="name" v="Nedre Langørjan" />
		<tag k="place" v="farm" />
		<tag k="ssr:date" v="2021-06-08" />
		<tag k="ssr:gruppe" v="gardsbebyggelse" />
		<tag k="ssr:hovedgruppe" v="bebyggelse" />
		<tag k="ssr:stedsnr" v="73122" />
		<tag k="ssr:type" v="gard" />
	</node>
	<node lat="63.42598055642048" lon="10.148463881817671" id="-33273">
		<tag k="name" v="Rabben" />
		<tag k="place" v="farm" />
		<tag k="ssr:date" v="2018-01-09" />
		<tag k="ssr:gruppe" v="gardsbebyggelse" />
		<tag k="ssr:hovedgruppe" v="bebyggelse" />
		<tag k="ssr:stedsnr" v="73123" />
		<tag k="ssr:type" v="bruk" />
	</node>
	<node lat="63.3385692657678" lon="10.321491368727322" id="-33274">
		<tag k="name" v="Ust" />
		<tag k="place" v="hamlet" />
		<tag k="ssr:date" v="2021-10-21" />
		<tag k="ssr:gruppe" v="gardsbebyggelse" />
		<tag k="ssr:hovedgruppe" v="bebyggelse" />
		<tag k="ssr:stedsnr" v="73958" />
		<tag k="ssr:type" v="navnegard" />
	</node>
	<node lat="63.25485278117512" lon="10.400108339253155" id="-33275">
		<tag k="name" v="Tjuvdalen" />
		<tag k="natural" v="valley" />
		<tag k="place" v="locality" />
		<tag k="ssr:date" v="2019-12-27" />
		<tag k="ssr:gruppe" v="senkninger" />
		<tag k="ssr:hovedgruppe" v="terreng" />
		<tag k="ssr:stedsnr" v="74174" />
		<tag k="ssr:type" v="dal" />
	</node>
	<node lat="63.26121388593216" lon="10.414961104660684" id="-33276">
		<tag k="fixme" v="consider natural=peak for the most distinct mountains in the district" />
		<tag k="name" v="Sagåsen" />
		<tag k="natural" v="hill" />
		<tag k="place" v="locality" />
		<tag k="ssr:date" v="2019-12-27" />
		<tag k="ssr:gruppe" v="høyder" />
		<tag k="ssr:hovedgruppe" v="terreng" />
		<tag k="ssr:stedsnr" v="74176" />
		<tag k="ssr:type" v="ås" />
	</node>
	<node lat="63.38181110874325" lon="10.166105551871347" id="-33277">
		<tag k="alt_name" v="Tarjestu" />
		<tag k="name" v="Torjestu" />
		<tag k="old_name" v="Torjestua" />
		<tag k="place" v="farm" />
		<tag k="ssr:date" v="2018-01-09" />
		<tag k="ssr:gruppe" v="gardsbebyggelse" />
		<tag k="ssr:hovedgruppe" v="bebyggelse" />
		<tag k="ssr:stedsnr" v="74413" />
		<tag k="ssr:type" v="bruk" />
	</node>
	<node lat="63.37807777851337" lon="10.155011107236817" id="-33278">
		<tag k="alt_name" v="Berg" />
		<tag k="name" v="Snauan" />
		<tag k="place" v="farm" />
		<tag k="ssr:date" v="2018-02-02" />
		<tag k="ssr:gruppe" v="gardsbebyggelse" />
		<tag k="ssr:hovedgruppe" v="bebyggelse" />
		<tag k="ssr:stedsnr" v="74414" />
		<tag k="ssr:type" v="bruk" />
	</node>
	<node lat="63.38892777475687" lon="10.07460000225059" id="-33279">
		<tag k="name" v="Sanden" />
		<tag k="place" v="farm" />
		<tag k="ssr:date" v="2018-01-09" />
		<tag k="ssr:gruppe" v="gardsbebyggelse" />
		<tag k="ssr:hovedgruppe" v="bebyggelse" />
		<tag k="ssr:stedsnr" v="74366" />
		<tag k="ssr:type" v="bruk" />
	</node>
	<node lat="63.38598888641983" lon="10.074030563946089" id="-33280">
		<tag k="name" v="Hauglia" />
		<tag k="place" v="farm" />
		<tag k="ssr:date" v="2018-01-09" />
		<tag k="ssr:gruppe" v="gardsbebyggelse" />
		<tag k="ssr:hovedgruppe" v="bebyggelse" />
		<tag k="ssr:stedsnr" v="74367" />
		<tag k="ssr:type" v="bruk" />
	</node>
	<node lat="63.38630833472689" lon="10.056575005200706" id="-33281">
		<tag k="fixme" v="consider seamark:type=rock or natural=shoal" />
		<tag k="name" v="Hangerskjæret" />
		<tag k="place" v="islet" />
		<tag k="ssr:date" v="2021-06-08" />
		<tag k="ssr:gruppe" v="grunnerISjø" />
		<tag k="ssr:hovedgruppe" v="sjø" />
		<tag k="ssr:stedsnr" v="74369" />
		<tag k="ssr:type" v="skjærISjø" />
	</node>
	<node lat="63.375958334585995" lon="10.528586107972586" id="-33282">
		<tag k="name" v="Engelsåsmoen" />
		<tag k="place" v="farm" />
		<tag k="ssr:date" v="2018-01-09" />
		<tag k="ssr:gruppe" v="gardsbebyggelse" />
		<tag k="ssr:hovedgruppe" v="bebyggelse" />
		<tag k="ssr:stedsnr" v="74505" />
		<tag k="ssr:type" v="bruk" />
	</node>
	<node lat="63.403852774103136" lon="10.338327780038743" id="-33283">
		<tag k="alt_name" v="Kyvatnet" />
		<tag k="name" v="Kyvannet" />
		<tag k="old_name" v="Kyvann;Kyvatn" />
		<tag k="railway" v="halt" />
		<tag k="ssr:date" v="2019-02-26" />
		<tag k="ssr:gruppe" v="bane" />
		<tag k="ssr:hovedgruppe" v="infrastruktur" />
		<tag k="ssr:stedsnr" v="74573" />
		<tag k="ssr:type" v="holdeplass" />
		<tag k="train" v="yes" />
	</node>
	<node lat="63.4160735147935" lon="10.536325719132648" id="-33284">
		<tag k="alt_name" v="Markplassen" />
		<tag k="fixme" v="multiple name tags, choose one and add the other to alt_name" />
		<tag k="name" v="Nedre Vikåsen;Markaplassen" />
		<tag k="place" v="quarter" />
		<tag k="ssr:date" v="2020-06-04" />
		<tag k="ssr:gruppe" v="bebyggelsesområder" />
		<tag k="ssr:hovedgruppe" v="bebyggelse" />
		<tag k="ssr:stedsnr" v="74601" />
		<tag k="ssr:type" v="boligfelt" />
	</node>
	<node lat="63.425570990048115" lon="10.545244558731994" id="-33286">
		<tag k="name" v="Ranheim" />
		<tag k="old_name" v="Raneim" />
		<tag k="place" v="hamlet" />
		<tag k="ssr:date" v="2020-11-06" />
		<tag k="ssr:gruppe" v="gardsbebyggelse" />
		<tag k="ssr:hovedgruppe" v="bebyggelse" />
		<tag k="ssr:stedsnr" v="74607" />
		<tag k="ssr:type" v="navnegard" />
	</node>
	<node lat="63.33497222535603" lon="10.410933325169765" id="-33287">
		<tag k="name" v="Moheim" />
		<tag k="place" v="farm" />
		<tag k="ssr:date" v="2018-01-09" />
		<tag k="ssr:gruppe" v="gardsbebyggelse" />
		<tag k="ssr:hovedgruppe" v="bebyggelse" />
		<tag k="ssr:stedsnr" v="74911" />
		<tag k="ssr:type" v="bruk" />
	</node>
	<node lat="63.35396666837942" lon="10.32189723058937" id="-33288">
		<tag k="alt_name" v="Lundås" />
		<tag k="name" v="Lundåsen" />
		<tag k="place" v="farm" />
		<tag k="ssr:date" v="2018-01-09" />
		<tag k="ssr:gruppe" v="gardsbebyggelse" />
		<tag k="ssr:hovedgruppe" v="bebyggelse" />
		<tag k="ssr:stedsnr" v="74960" />
		<tag k="ssr:type" v="bruk" />
	</node>
	<node lat="63.351055551573744" lon="10.46536388246409" id="-33289">
		<tag k="fixme" v="consider natural=peak for the most distinct mountains in the district" />
		<tag k="name" v="Bratsbergåsen" />
		<tag k="natural" v="hill" />
		<tag k="place" v="locality" />
		<tag k="ssr:date" v="2021-06-08" />
		<tag k="ssr:gruppe" v="høyder" />
		<tag k="ssr:hovedgruppe" v="terreng" />
		<tag k="ssr:stedsnr" v="74964" />
		<tag k="ssr:type" v="ås" />
	</node>
	<node lat="63.31746640017875" lon="10.48311467548406" id="-33290">
		<tag k="alt_name" v="Lysklett, nordre" />
		<tag k="fixme" v="consider place=hamlet" />
		<tag k="name" v="Nordre Lysklett" />
		<tag k="place" v="farm" />
		<tag k="ssr:date" v="2021-10-18" />
		<tag k="ssr:gruppe" v="gardsbebyggelse" />
		<tag k="ssr:hovedgruppe" v="bebyggelse" />
		<tag k="ssr:stedsnr" v="74851" />
		<tag k="ssr:type" v="gard" />
	</node>
	<node lat="63.406264113921715" lon="10.439147398085082" id="-33291">
		<tag k="alt_name" v="Othilienborg" />
		<tag k="fixme" v="consider place=suburb, village or hamlet" />
		<tag k="name" v="Otilienborg" />
		<tag k="place" v="quarter" />
		<tag k="ssr:date" v="2019-08-23" />
		<tag k="ssr:gruppe" v="bebyggelsesområder" />
		<tag k="ssr:hovedgruppe" v="bebyggelse" />
		<tag k="ssr:stedsnr" v="80352" />
		<tag k="ssr:type" v="tettbebyggelse" />
	</node>
	<node lat="63.264705559704765" lon="10.40535000953272" id="-33292">
		<tag k="historic" v="shieling" />
		<tag k="name" v="Litjvollen" />
		<tag k="place" v="locality" />
		<tag k="ssr:date" v="2021-06-08" />
		<tag k="ssr:gruppe" v="dyrkamark" />
		<tag k="ssr:hovedgruppe" v="markslag" />
		<tag k="ssr:stedsnr" v="82199" />
		<tag k="ssr:type" v="setervoll" />
	</node>
	<node lat="63.45691775175871" lon="10.452782945663097" id="-33293">
		<tag k="name" v="Djupvika" />
		<tag k="natural" v="bay" />
		<tag k="ssr:date" v="2021-06-08" />
		<tag k="ssr:gruppe" v="kystkontur" />
		<tag k="ssr:hovedgruppe" v="sjø" />
		<tag k="ssr:stedsnr" v="82833" />
		<tag k="ssr:type" v="vikISjø" />
	</node>
	<node lat="63.37476666734023" lon="10.199680557731828" id="-33294">
		<tag k="name" v="Tråddån" />
		<tag k="place" v="locality" />
		<tag k="ssr:date" v="2018-01-09" />
		<tag k="ssr:gruppe" v="skråninger" />
		<tag k="ssr:hovedgruppe" v="terreng" />
		<tag k="ssr:stedsnr" v="84089" />
		<tag k="ssr:type" v="fjellside" />
	</node>
	<node lat="63.39223611006411" lon="10.174913881504866" id="-33295">
		<tag k="name" v="Skogbekken" />
		<tag k="ssr:date" v="2018-01-09" />
		<tag k="ssr:gruppe" v="rennendeVann" />
		<tag k="ssr:hovedgruppe" v="ferskvann" />
		<tag k="ssr:stedsnr" v="84106" />
		<tag k="ssr:type" v="bekk" />
		<tag k="waterway" v="stream" />
	</node>
	<node lat="63.42497499858182" lon="10.180805548320924" id="-33296">
		<tag k="name" v="Elset" />
		<tag k="place" v="farm" />
		<tag k="ssr:date" v="2021-06-08" />
		<tag k="ssr:gruppe" v="gardsbebyggelse" />
		<tag k="ssr:hovedgruppe" v="bebyggelse" />
		<tag k="ssr:stedsnr" v="84109" />
		<tag k="ssr:type" v="bruk" />
	</node>
	<node lat="63.441368999715195" lon="10.195610973153315" id="-33297">
		<tag k="alt_name" v="Grøset nordre" />
		<tag k="name" v="Nordre Grøset" />
		<tag k="place" v="farm" />
		<tag k="ssr:date" v="2019-04-08" />
		<tag k="ssr:gruppe" v="gardsbebyggelse" />
		<tag k="ssr:hovedgruppe" v="bebyggelse" />
		<tag k="ssr:stedsnr" v="84115" />
		<tag k="ssr:type" v="bruk" />
	</node>
	<node lat="63.39347222103597" lon="10.187008337438368" id="-33298">
		<tag k="fixme" v="consider natural=peak for the most distinct mountains in the district" />
		<tag k="name" v="Svartåsen" />
		<tag k="natural" v="hill" />
		<tag k="place" v="locality" />
		<tag k="ssr:date" v="2018-01-09" />
		<tag k="ssr:gruppe" v="høyder" />
		<tag k="ssr:hovedgruppe" v="terreng" />
		<tag k="ssr:stedsnr" v="84905" />
		<tag k="ssr:type" v="ås" />
	</node>
	<node lat="63.42314722096535" lon="10.127825004019218" id="-33299">
		<tag k="name" v="Bjøra" />
		<tag k="place" v="isolated_dwelling" />
		<tag k="ssr:date" v="2018-01-09" />
		<tag k="ssr:gruppe" v="bolighus" />
		<tag k="ssr:hovedgruppe" v="bebyggelse" />
		<tag k="ssr:stedsnr" v="84911" />
		<tag k="ssr:type" v="eneboligMindreBoligbygg" />
	</node>
	<node lat="63.41099721886328" lon="10.137488884744526" id="-33300">
		<tag k="name" v="Høstadhaugen" />
		<tag k="natural" v="hill" />
		<tag k="place" v="locality" />
		<tag k="ssr:date" v="2018-01-09" />
		<tag k="ssr:gruppe" v="høyder" />
		<tag k="ssr:hovedgruppe" v="terreng" />
		<tag k="ssr:stedsnr" v="84914" />
		<tag k="ssr:type" v="haug" />
	</node>
	<node lat="63.41014722227538" lon="10.15820277014547" id="-33301">
		<tag k="junction" v="yes" />
		<tag k="name" v="Høstadkorsen" />
		<tag k="place" v="locality" />
		<tag k="ssr:date" v="2018-01-09" />
		<tag k="ssr:gruppe" v="veg" />
		<tag k="ssr:hovedgruppe" v="infrastruktur" />
		<tag k="ssr:stedsnr" v="84921" />
		<tag k="ssr:type" v="vegkryss" />
	</node>
	<node lat="63.42142777372406" lon="10.132586106605853" id="-33302">
		<tag k="name" v="Hørarhaugen" />
		<tag k="place" v="isolated_dwelling" />
		<tag k="ssr:date" v="2018-01-09" />
		<tag k="ssr:gruppe" v="bolighus" />
		<tag k="ssr:hovedgruppe" v="bebyggelse" />
		<tag k="ssr:stedsnr" v="84930" />
		<tag k="ssr:type" v="fritidsbolig" />
	</node>
	<node lat="63.37863611221374" lon="10.131355555148499" id="-33303">
		<tag k="name" v="Østegga" />
		<tag k="place" v="locality" />
		<tag k="ssr:date" v="2018-01-09" />
		<tag k="ssr:gruppe" v="dyrkamark" />
		<tag k="ssr:hovedgruppe" v="markslag" />
		<tag k="ssr:stedsnr" v="84943" />
		<tag k="ssr:type" v="jorde" />
	</node>
	<node lat="63.41590555687438" lon="10.121980545775516" id="-33304">
		<tag k="name" v="Myra" />
		<tag k="place" v="farm" />
		<tag k="ssr:date" v="2018-01-09" />
		<tag k="ssr:gruppe" v="gardsbebyggelse" />
		<tag k="ssr:hovedgruppe" v="bebyggelse" />
		<tag k="ssr:stedsnr" v="84945" />
		<tag k="ssr:type" v="bruk" />
	</node>
	<node lat="63.41458611486572" lon="10.10895833750378" id="-33305">
		<tag k="name" v="Brannhaugan" />
		<tag k="natural" v="hill" />
		<tag k="place" v="locality" />
		<tag k="ssr:date" v="2018-01-09" />
		<tag k="ssr:gruppe" v="høyder" />
		<tag k="ssr:hovedgruppe" v="terreng" />
		<tag k="ssr:stedsnr" v="84952" />
		<tag k="ssr:type" v="haug" />
	</node>
	<node lat="63.36780555547179" lon="10.117552773511093" id="-33306">
		<tag k="name" v="Langlo" />
		<tag k="place" v="farm" />
		<tag k="ssr:date" v="2018-01-09" />
		<tag k="ssr:gruppe" v="gardsbebyggelse" />
		<tag k="ssr:hovedgruppe" v="bebyggelse" />
		<tag k="ssr:stedsnr" v="84822" />
		<tag k="ssr:type" v="bruk" />
	</node>
	<node lat="63.381675000017104" lon="10.06735555596204" id="-33307">
		<tag k="name" v="Hangersletta" />
		<tag k="place" v="locality" />
		<tag k="ssr:date" v="2018-01-09" />
		<tag k="ssr:gruppe" v="flater" />
		<tag k="ssr:hovedgruppe" v="terreng" />
		<tag k="ssr:stedsnr" v="84827" />
		<tag k="ssr:type" v="slette" />
	</node>
	<node lat="63.417763885898694" lon="10.095433325189365" id="-33308">
		<tag k="name" v="Svahylla" />
		<tag k="place" v="locality" />
		<tag k="ssr:date" v="2018-01-09" />
		<tag k="ssr:gruppe" v="bartFjell" />
		<tag k="ssr:hovedgruppe" v="markslag" />
		<tag k="ssr:stedsnr" v="84837" />
		<tag k="ssr:type" v="fjellIDagen" />
	</node>
	<node lat="63.39051666731974" lon="10.083458332365758" id="-33309">
		<tag k="name" v="Svedalen" />
		<tag k="natural" v="valley" />
		<tag k="place" v="locality" />
		<tag k="ssr:date" v="2018-01-09" />
		<tag k="ssr:gruppe" v="senkninger" />
		<tag k="ssr:hovedgruppe" v="terreng" />
		<tag k="ssr:stedsnr" v="84841" />
		<tag k="ssr:type" v="dal" />
	</node>
	<node lat="63.38290195035644" lon="10.059275578439172" id="-33310">
		<tag k="alt_name" v="Kløvberget" />
		<tag k="name" v="Klauvberget" />
		<tag k="natural" v="hill" />
		<tag k="place" v="locality" />
		<tag k="ssr:date" v="2019-01-10" />
		<tag k="ssr:gruppe" v="høyder" />
		<tag k="ssr:hovedgruppe" v="terreng" />
		<tag k="ssr:stedsnr" v="84848" />
		<tag k="ssr:type" v="berg" />
	</node>
</osm>
