<?xml version="1.0" encoding="UTF-8"?>
<osm version="0.6" generator="osmapis">
	<node lat="59.68335555917524" lon="10.362772220134959" id="-13197">
		<tag k="name" v="Steinsbråtan" />
		<tag k="ssr:date" v="2019-12-27" />
		<tag k="ssr:gruppe" v="navigasjon" />
		<tag k="ssr:hovedgruppe" v="infrastruktur" />
		<tag k="ssr:stedsnr" v="3748" />
		<tag k="ssr:type" v="fyrlykt" />
	</node>
	<node lat="59.75390277359785" lon="10.129227769311058" id="-13256">
		<tag k="name" v="Hakavikledningen" />
		<tag k="ssr:date" v="2019-12-27" />
		<tag k="ssr:gruppe" v="energi" />
		<tag k="ssr:hovedgruppe" v="infrastruktur" />
		<tag k="ssr:stedsnr" v="83597" />
		<tag k="ssr:type" v="kraftledning" />
	</node>
	<node lat="59.563280554971044" lon="10.408533331401028" id="-13313">
		<tag k="name" v="Kroksberget" />
		<tag k="ssr:date" v="2019-12-27" />
		<tag k="ssr:gruppe" v="navigasjon" />
		<tag k="ssr:hovedgruppe" v="infrastruktur" />
		<tag k="ssr:stedsnr" v="124635" />
		<tag k="ssr:type" v="fyrlykt" />
	</node>
	<node lat="59.74328055543019" lon="10.125277779286876" id="-13438">
		<tag k="name" v="Pukerudlinna" />
		<tag k="ssr:date" v="2019-12-27" />
		<tag k="ssr:gruppe" v="veg" />
		<tag k="ssr:hovedgruppe" v="infrastruktur" />
		<tag k="ssr:stedsnr" v="241795" />
		<tag k="ssr:type" v="vegstrekning" />
	</node>
	<node lat="59.72753332948587" lon="10.216566667599325" id="-13530">
		<tag k="name" v="Vestfoldbanen" />
		<tag k="ssr:date" v="2019-12-27" />
		<tag k="ssr:gruppe" v="bane" />
		<tag k="ssr:hovedgruppe" v="infrastruktur" />
		<tag k="ssr:stedsnr" v="358257" />
		<tag k="ssr:type" v="banestrekning" />
	</node>
	<node lat="59.60641389281778" lon="10.412147215146904" id="-13541">
		<tag k="name" v="Batteriøya, nedre" />
		<tag k="ssr:date" v="2019-12-27" />
		<tag k="ssr:gruppe" v="navigasjon" />
		<tag k="ssr:hovedgruppe" v="infrastruktur" />
		<tag k="ssr:stedsnr" v="367610" />
		<tag k="ssr:type" v="fyrlykt" />
	</node>
	<node lat="59.7447201903042" lon="10.20616630074925" id="-13564">
		<tag k="alt_name" v="Drammen" />
		<tag k="name" v="Drammen kommune" />
		<tag k="ssr:date" v="2019-12-27" />
		<tag k="ssr:gruppe" v="administrativeIndelinger" />
		<tag k="ssr:hovedgruppe" v="offentligAdministrasjon" />
		<tag k="ssr:stedsnr" v="388756" />
		<tag k="ssr:type" v="kommune" />
	</node>
	<node lat="59.72748611181326" lon="10.164030553941505" id="-13673">
		<tag k="name" v="Haukåsveien" />
		<tag k="ssr:date" v="2019-12-27" />
		<tag k="ssr:gruppe" v="veg" />
		<tag k="ssr:hovedgruppe" v="infrastruktur" />
		<tag k="ssr:stedsnr" v="466002" />
		<tag k="ssr:type" v="vegstrekning" />
	</node>
	<node lat="59.60635278210824" lon="10.412124998735361" id="-13821">
		<tag k="alt_name" v="Batteriøy" />
		<tag k="name" v="Batteriøya" />
		<tag k="ssr:date" v="2019-12-27" />
		<tag k="ssr:gruppe" v="navigasjon" />
		<tag k="ssr:hovedgruppe" v="infrastruktur" />
		<tag k="ssr:stedsnr" v="599009" />
		<tag k="ssr:type" v="fyrlykt" />
	</node>
	<node lat="59.605530554004424" lon="10.41008889061473" id="-13993">
		<tag k="name" v="Nedre Tømmerås" />
		<tag k="ssr:date" v="2019-12-27" />
		<tag k="ssr:gruppe" v="navigasjon" />
		<tag k="ssr:hovedgruppe" v="infrastruktur" />
		<tag k="ssr:stedsnr" v="754253" />
		<tag k="ssr:type" v="fyrlykt" />
	</node>
	<node lat="59.6235330119918" lon="10.41287286332941" id="-14150">
		<tag k="alt_name" v="Blindeskjæra" />
		<tag k="loc_name" v="Blindeskjær lykt" />
		<tag k="name" v="Blindeskjær" />
		<tag k="old_name" v="Blindeskjer" />
		<tag k="ssr:date" v="2019-12-27" />
		<tag k="ssr:gruppe" v="navigasjon" />
		<tag k="ssr:hovedgruppe" v="infrastruktur" />
		<tag k="ssr:stedsnr" v="913633" />
		<tag k="ssr:type" v="fyrlykt" />
	</node>
	<node lat="59.732586109110365" lon="10.237972228105194" id="-14331">
		<tag k="name" v="Risgarden molo" />
		<tag k="ssr:date" v="2019-12-27" />
		<tag k="ssr:gruppe" v="navigasjon" />
		<tag k="ssr:hovedgruppe" v="infrastruktur" />
		<tag k="ssr:stedsnr" v="118132" />
		<tag k="ssr:type" v="fyrlykt" />
	</node>
	<node lat="59.88647222075609" lon="10.415908333412407" id="-14548">
		<tag k="name" v="Mårledningen" />
		<tag k="ssr:date" v="2019-12-27" />
		<tag k="ssr:gruppe" v="energi" />
		<tag k="ssr:hovedgruppe" v="infrastruktur" />
		<tag k="ssr:stedsnr" v="326619" />
		<tag k="ssr:type" v="kraftledning" />
	</node>
	<node lat="59.612508337354555" lon="10.40917499970995" id="-14726">
		<tag k="name" v="Svelvik" />
		<tag k="ssr:date" v="2019-12-27" />
		<tag k="ssr:gruppe" v="navigasjon" />
		<tag k="ssr:hovedgruppe" v="infrastruktur" />
		<tag k="ssr:stedsnr" v="539084" />
		<tag k="ssr:type" v="fyrlykt" />
	</node>
	<node lat="59.77078333427392" lon="10.181119448293675" id="-14936">
		<tag k="name" v="Hakavikledningen" />
		<tag k="ssr:date" v="2019-12-27" />
		<tag k="ssr:gruppe" v="energi" />
		<tag k="ssr:hovedgruppe" v="infrastruktur" />
		<tag k="ssr:stedsnr" v="769179" />
		<tag k="ssr:type" v="kraftledning" />
	</node>
	<node lat="59.601813888528575" lon="10.417286115696452" id="-14977">
		<tag k="name" v="Nordre Svelvikrenna" />
		<tag k="ssr:date" v="2019-12-27" />
		<tag k="ssr:gruppe" v="navigasjon" />
		<tag k="ssr:hovedgruppe" v="infrastruktur" />
		<tag k="ssr:stedsnr" v="813147" />
		<tag k="ssr:type" v="fyrlykt" />
	</node>
	<node lat="59.61476666639873" lon="10.407233335046975" id="-15065">
		<tag k="name" v="Brenna" />
		<tag k="ssr:date" v="2019-12-27" />
		<tag k="ssr:gruppe" v="navigasjon" />
		<tag k="ssr:hovedgruppe" v="infrastruktur" />
		<tag k="ssr:stedsnr" v="875204" />
		<tag k="ssr:type" v="fyrlykt" />
	</node>
	<node lat="59.742423830134605" lon="10.209568510083779" id="-15130">
		<tag k="name" v="Grev Wedels plass" />
		<tag k="ssr:date" v="2019-12-27" />
		<tag k="ssr:gruppe" v="veg" />
		<tag k="ssr:hovedgruppe" v="infrastruktur" />
		<tag k="ssr:stedsnr" v="1032465" />
		<tag k="ssr:type" v="adressenavn" />
	</node>
	<node lat="59.73304272503144" lon="10.21792403980123" id="-15131">
		<tag k="name" v="Mads Wiels plass" />
		<tag k="ssr:date" v="2019-12-27" />
		<tag k="ssr:gruppe" v="veg" />
		<tag k="ssr:hovedgruppe" v="infrastruktur" />
		<tag k="ssr:stedsnr" v="1032296" />
		<tag k="ssr:type" v="adressenavn" />
	</node>
	<node lat="59.716259984192995" lon="10.252460058842857" id="-15132">
		<tag k="name" v="Nordbykollen" />
		<tag k="ssr:date" v="2019-12-27" />
		<tag k="ssr:gruppe" v="veg" />
		<tag k="ssr:hovedgruppe" v="infrastruktur" />
		<tag k="ssr:stedsnr" v="1033157" />
		<tag k="ssr:type" v="adressenavn" />
	</node>
	<node lat="59.754237847116904" lon="10.191275181448464" id="-15133">
		<tag k="name" v="Hamborgstrømskogen" />
		<tag k="ssr:date" v="2019-12-27" />
		<tag k="ssr:gruppe" v="veg" />
		<tag k="ssr:hovedgruppe" v="infrastruktur" />
		<tag k="ssr:stedsnr" v="1033158" />
		<tag k="ssr:type" v="adressenavn" />
	</node>
	<node lat="59.70358881804052" lon="10.077601196812822" id="-15134">
		<tag k="name" v="Sagdammen" />
		<tag k="ssr:date" v="2019-12-27" />
		<tag k="ssr:gruppe" v="veg" />
		<tag k="ssr:hovedgruppe" v="infrastruktur" />
		<tag k="ssr:stedsnr" v="1033159" />
		<tag k="ssr:type" v="adressenavn" />
	</node>
	<node lat="59.73281148062664" lon="10.11448115592815" id="-15135">
		<tag k="name" v="Konnerudkollen" />
		<tag k="ssr:date" v="2019-12-27" />
		<tag k="ssr:gruppe" v="veg" />
		<tag k="ssr:hovedgruppe" v="infrastruktur" />
		<tag k="ssr:stedsnr" v="1033160" />
		<tag k="ssr:type" v="adressenavn" />
	</node>
	<node lat="59.68263499759104" lon="10.29932023494518" id="-15136">
		<tag k="name" v="Trestikle" />
		<tag k="ssr:date" v="2019-12-27" />
		<tag k="ssr:gruppe" v="veg" />
		<tag k="ssr:hovedgruppe" v="infrastruktur" />
		<tag k="ssr:stedsnr" v="1033162" />
		<tag k="ssr:type" v="adressenavn" />
	</node>
	<node lat="59.753957081618815" lon="10.220117977163998" id="-15137">
		<tag k="name" v="Strøtvetåsen" />
		<tag k="ssr:date" v="2019-12-27" />
		<tag k="ssr:gruppe" v="veg" />
		<tag k="ssr:hovedgruppe" v="infrastruktur" />
		<tag k="ssr:stedsnr" v="1033163" />
		<tag k="ssr:type" v="adressenavn" />
	</node>
	<node lat="59.70776675890299" lon="10.193862418535748" id="-15138">
		<tag k="name" v="Risdalsåsen" />
		<tag k="ssr:date" v="2019-12-27" />
		<tag k="ssr:gruppe" v="veg" />
		<tag k="ssr:hovedgruppe" v="infrastruktur" />
		<tag k="ssr:stedsnr" v="1033164" />
		<tag k="ssr:type" v="adressenavn" />
	</node>
	<node lat="59.68433216014983" lon="10.290238716053311" id="-15139">
		<tag k="name" v="Vardåsen" />
		<tag k="ssr:date" v="2019-12-27" />
		<tag k="ssr:gruppe" v="veg" />
		<tag k="ssr:hovedgruppe" v="infrastruktur" />
		<tag k="ssr:stedsnr" v="1033167" />
		<tag k="ssr:type" v="adressenavn" />
	</node>
	<node lat="59.71690239065001" lon="10.088265978223555" id="-15140">
		<tag k="name" v="Steglevannet" />
		<tag k="ssr:date" v="2019-12-27" />
		<tag k="ssr:gruppe" v="veg" />
		<tag k="ssr:hovedgruppe" v="infrastruktur" />
		<tag k="ssr:stedsnr" v="1033170" />
		<tag k="ssr:type" v="adressenavn" />
	</node>
	<node lat="59.713009738951094" lon="10.114773678427552" id="-15141">
		<tag k="name" v="Kolleruddalen" />
		<tag k="ssr:date" v="2019-12-27" />
		<tag k="ssr:gruppe" v="veg" />
		<tag k="ssr:hovedgruppe" v="infrastruktur" />
		<tag k="ssr:stedsnr" v="1033175" />
		<tag k="ssr:type" v="adressenavn" />
	</node>
	<node lat="59.763497976511324" lon="10.157059530917767" id="-15142">
		<tag k="name" v="Landfallåsen" />
		<tag k="ssr:date" v="2019-12-27" />
		<tag k="ssr:gruppe" v="veg" />
		<tag k="ssr:hovedgruppe" v="infrastruktur" />
		<tag k="ssr:stedsnr" v="1033187" />
		<tag k="ssr:type" v="adressenavn" />
	</node>
	<node lat="59.78099033819768" lon="10.150076876130862" id="-15143">
		<tag k="name" v="Myrsetra" />
		<tag k="ssr:date" v="2019-12-27" />
		<tag k="ssr:gruppe" v="veg" />
		<tag k="ssr:hovedgruppe" v="infrastruktur" />
		<tag k="ssr:stedsnr" v="1033188" />
		<tag k="ssr:type" v="adressenavn" />
	</node>
	<node lat="59.77182188187509" lon="10.165307578041116" id="-15144">
		<tag k="name" v="Landfallbrenna" />
		<tag k="ssr:date" v="2019-12-27" />
		<tag k="ssr:gruppe" v="veg" />
		<tag k="ssr:hovedgruppe" v="infrastruktur" />
		<tag k="ssr:stedsnr" v="1033189" />
		<tag k="ssr:type" v="adressenavn" />
	</node>
	<node lat="59.712167810461345" lon="10.187959327576333" id="-15145">
		<tag k="name" v="Dunkedalen" />
		<tag k="ssr:date" v="2019-12-27" />
		<tag k="ssr:gruppe" v="veg" />
		<tag k="ssr:hovedgruppe" v="infrastruktur" />
		<tag k="ssr:stedsnr" v="1033177" />
		<tag k="ssr:type" v="adressenavn" />
	</node>
	<node lat="59.81510539560611" lon="10.10295427403813" id="-15146">
		<tag k="name" v="Løken" />
		<tag k="ssr:date" v="2019-12-27" />
		<tag k="ssr:gruppe" v="veg" />
		<tag k="ssr:hovedgruppe" v="infrastruktur" />
		<tag k="ssr:stedsnr" v="1033178" />
		<tag k="ssr:type" v="adressenavn" />
	</node>
	<node lat="59.80891323725953" lon="10.10789644085316" id="-15147">
		<tag k="name" v="Måneskinnsheia" />
		<tag k="ssr:date" v="2019-12-27" />
		<tag k="ssr:gruppe" v="veg" />
		<tag k="ssr:hovedgruppe" v="infrastruktur" />
		<tag k="ssr:stedsnr" v="1033179" />
		<tag k="ssr:type" v="adressenavn" />
	</node>
	<node lat="59.772792217371915" lon="10.12714298062228" id="-15148">
		<tag k="name" v="Klemmehøgda" />
		<tag k="ssr:date" v="2019-12-27" />
		<tag k="ssr:gruppe" v="veg" />
		<tag k="ssr:hovedgruppe" v="infrastruktur" />
		<tag k="ssr:stedsnr" v="1033180" />
		<tag k="ssr:type" v="adressenavn" />
	</node>
	<node lat="59.781020122871354" lon="10.110035505211295" id="-15149">
		<tag k="name" v="Kjøsterudåsen" />
		<tag k="ssr:date" v="2019-12-27" />
		<tag k="ssr:gruppe" v="veg" />
		<tag k="ssr:hovedgruppe" v="infrastruktur" />
		<tag k="ssr:stedsnr" v="1033181" />
		<tag k="ssr:type" v="adressenavn" />
	</node>
	<node lat="59.78494060086478" lon="10.14917956790264" id="-15150">
		<tag k="name" v="Tverråsen" />
		<tag k="ssr:date" v="2019-12-27" />
		<tag k="ssr:gruppe" v="veg" />
		<tag k="ssr:hovedgruppe" v="infrastruktur" />
		<tag k="ssr:stedsnr" v="1033182" />
		<tag k="ssr:type" v="adressenavn" />
	</node>
	<node lat="59.77907126857204" lon="10.167092080144432" id="-15151">
		<tag k="name" v="Sauesetra" />
		<tag k="ssr:date" v="2019-12-27" />
		<tag k="ssr:gruppe" v="veg" />
		<tag k="ssr:hovedgruppe" v="infrastruktur" />
		<tag k="ssr:stedsnr" v="1033183" />
		<tag k="ssr:type" v="adressenavn" />
	</node>
	<node lat="59.801243683219425" lon="10.131150822064317" id="-15152">
		<tag k="name" v="Vakkertjernheia" />
		<tag k="ssr:date" v="2019-12-27" />
		<tag k="ssr:gruppe" v="veg" />
		<tag k="ssr:hovedgruppe" v="infrastruktur" />
		<tag k="ssr:stedsnr" v="1033184" />
		<tag k="ssr:type" v="adressenavn" />
	</node>
	<node lat="59.78861846778327" lon="10.157840192799528" id="-15153">
		<tag k="name" v="Skimtheia" />
		<tag k="ssr:date" v="2019-12-27" />
		<tag k="ssr:gruppe" v="veg" />
		<tag k="ssr:hovedgruppe" v="infrastruktur" />
		<tag k="ssr:stedsnr" v="1033185" />
		<tag k="ssr:type" v="adressenavn" />
	</node>
	<node lat="59.71279262344773" lon="10.031672484112462" id="-15154">
		<tag k="name" v="Hellesetra" />
		<tag k="ssr:date" v="2019-12-27" />
		<tag k="ssr:gruppe" v="veg" />
		<tag k="ssr:hovedgruppe" v="infrastruktur" />
		<tag k="ssr:stedsnr" v="1034087" />
		<tag k="ssr:type" v="adressenavn" />
	</node>
	<node lat="59.796361273309216" lon="10.022519369275065" id="-15155">
		<tag k="name" v="Solbergvannsmyra" />
		<tag k="ssr:date" v="2019-12-27" />
		<tag k="ssr:gruppe" v="veg" />
		<tag k="ssr:hovedgruppe" v="infrastruktur" />
		<tag k="ssr:stedsnr" v="1034089" />
		<tag k="ssr:type" v="adressenavn" />
	</node>
	<node lat="59.69780269939937" lon="10.017849851270508" id="-15156">
		<tag k="name" v="Nebergdammane" />
		<tag k="ssr:date" v="2019-12-27" />
		<tag k="ssr:gruppe" v="veg" />
		<tag k="ssr:hovedgruppe" v="infrastruktur" />
		<tag k="ssr:stedsnr" v="1034091" />
		<tag k="ssr:type" v="adressenavn" />
	</node>
	<node lat="59.699206517251156" lon="10.029573583284206" id="-15157">
		<tag k="name" v="Fjellfritt" />
		<tag k="ssr:date" v="2019-12-27" />
		<tag k="ssr:gruppe" v="veg" />
		<tag k="ssr:hovedgruppe" v="infrastruktur" />
		<tag k="ssr:stedsnr" v="1034092" />
		<tag k="ssr:type" v="adressenavn" />
	</node>
	<node lat="59.734593001885756" lon="10.094853046356896" id="-15158">
		<tag k="name" v="Langemyrtoppen" />
		<tag k="old_name" v="Toppen" />
		<tag k="ssr:date" v="2019-12-27" />
		<tag k="ssr:gruppe" v="veg" />
		<tag k="ssr:hovedgruppe" v="infrastruktur" />
		<tag k="ssr:stedsnr" v="1034093" />
		<tag k="ssr:type" v="adressenavn" />
	</node>
	<node lat="59.73565758977827" lon="10.044618570737837" id="-15159">
		<tag k="name" v="Olsesetra" />
		<tag k="ssr:date" v="2019-12-27" />
		<tag k="ssr:gruppe" v="veg" />
		<tag k="ssr:hovedgruppe" v="infrastruktur" />
		<tag k="ssr:stedsnr" v="1034095" />
		<tag k="ssr:type" v="adressenavn" />
	</node>
	<node lat="59.792281048409194" lon="10.019923116450808" id="-15160">
		<tag k="name" v="Eknessetra" />
		<tag k="ssr:date" v="2019-12-27" />
		<tag k="ssr:gruppe" v="veg" />
		<tag k="ssr:hovedgruppe" v="infrastruktur" />
		<tag k="ssr:stedsnr" v="1034097" />
		<tag k="ssr:type" v="adressenavn" />
	</node>
	<node lat="59.78415038238306" lon="10.016552224176634" id="-15161">
		<tag k="name" v="Eknesdalen" />
		<tag k="ssr:date" v="2019-12-27" />
		<tag k="ssr:gruppe" v="veg" />
		<tag k="ssr:hovedgruppe" v="infrastruktur" />
		<tag k="ssr:stedsnr" v="1034099" />
		<tag k="ssr:type" v="adressenavn" />
	</node>
	<node lat="59.67596776865414" lon="10.006324355485981" id="-15162">
		<tag k="name" v="Langtjern" />
		<tag k="ssr:date" v="2019-12-27" />
		<tag k="ssr:gruppe" v="veg" />
		<tag k="ssr:hovedgruppe" v="infrastruktur" />
		<tag k="ssr:stedsnr" v="1034101" />
		<tag k="ssr:type" v="adressenavn" />
	</node>
	<node lat="59.710535645159744" lon="10.034894894680153" id="-15163">
		<tag k="name" v="Kikkut" />
		<tag k="ssr:date" v="2019-12-27" />
		<tag k="ssr:gruppe" v="veg" />
		<tag k="ssr:hovedgruppe" v="infrastruktur" />
		<tag k="ssr:stedsnr" v="1034103" />
		<tag k="ssr:type" v="adressenavn" />
	</node>
	<node lat="59.69283902819092" lon="9.988976386778972" id="-15164">
		<tag k="name" v="Øvre Fisketjern" />
		<tag k="ssr:date" v="2019-12-27" />
		<tag k="ssr:gruppe" v="veg" />
		<tag k="ssr:hovedgruppe" v="infrastruktur" />
		<tag k="ssr:stedsnr" v="1034104" />
		<tag k="ssr:type" v="adressenavn" />
	</node>
	<node lat="59.683327389561335" lon="10.003365970510187" id="-15165">
		<tag k="name" v="Langtjernstua" />
		<tag k="ssr:date" v="2019-12-27" />
		<tag k="ssr:gruppe" v="veg" />
		<tag k="ssr:hovedgruppe" v="infrastruktur" />
		<tag k="ssr:stedsnr" v="1034107" />
		<tag k="ssr:type" v="adressenavn" />
	</node>
	<node lat="59.81355440240615" lon="10.004032608012437" id="-15166">
		<tag k="name" v="Grunnvann" />
		<tag k="ssr:date" v="2019-12-27" />
		<tag k="ssr:gruppe" v="veg" />
		<tag k="ssr:hovedgruppe" v="infrastruktur" />
		<tag k="ssr:stedsnr" v="1034110" />
		<tag k="ssr:type" v="adressenavn" />
	</node>
	<node lat="59.72448474984216" lon="9.99385801337439" id="-15167">
		<tag k="name" v="Hanseseter" />
		<tag k="ssr:date" v="2019-12-27" />
		<tag k="ssr:gruppe" v="veg" />
		<tag k="ssr:hovedgruppe" v="infrastruktur" />
		<tag k="ssr:stedsnr" v="1034111" />
		<tag k="ssr:type" v="adressenavn" />
	</node>
	<node lat="59.793500975684175" lon="10.104926268185896" id="-15168">
		<tag k="name" v="Stormyrputten" />
		<tag k="ssr:date" v="2019-12-27" />
		<tag k="ssr:gruppe" v="veg" />
		<tag k="ssr:hovedgruppe" v="infrastruktur" />
		<tag k="ssr:stedsnr" v="1034113" />
		<tag k="ssr:type" v="adressenavn" />
	</node>
	<node lat="59.83731848310747" lon="10.072048921864834" id="-15169">
		<tag k="name" v="Langvannet" />
		<tag k="ssr:date" v="2019-12-27" />
		<tag k="ssr:gruppe" v="veg" />
		<tag k="ssr:hovedgruppe" v="infrastruktur" />
		<tag k="ssr:stedsnr" v="1034114" />
		<tag k="ssr:type" v="adressenavn" />
	</node>
	<node lat="59.85417153900301" lon="10.060202157317264" id="-15170">
		<tag k="name" v="Kampen" />
		<tag k="ssr:date" v="2019-12-27" />
		<tag k="ssr:gruppe" v="veg" />
		<tag k="ssr:hovedgruppe" v="infrastruktur" />
		<tag k="ssr:stedsnr" v="1034115" />
		<tag k="ssr:type" v="adressenavn" />
	</node>
	<node lat="59.82324988947721" lon="10.080407308895259" id="-15171">
		<tag k="name" v="Sandva" />
		<tag k="ssr:date" v="2019-12-27" />
		<tag k="ssr:gruppe" v="veg" />
		<tag k="ssr:hovedgruppe" v="infrastruktur" />
		<tag k="ssr:stedsnr" v="1034117" />
		<tag k="ssr:type" v="adressenavn" />
	</node>
	<node lat="59.80215223962419" lon="10.051955647964343" id="-15172">
		<tag k="name" v="Kringletjern" />
		<tag k="ssr:date" v="2019-12-27" />
		<tag k="ssr:gruppe" v="veg" />
		<tag k="ssr:hovedgruppe" v="infrastruktur" />
		<tag k="ssr:stedsnr" v="1034118" />
		<tag k="ssr:type" v="adressenavn" />
	</node>
	<node lat="59.69598693964161" lon="10.031532167988226" id="-15173">
		<tag k="name" v="Øvre Leitjern" />
		<tag k="ssr:date" v="2019-12-27" />
		<tag k="ssr:gruppe" v="veg" />
		<tag k="ssr:hovedgruppe" v="infrastruktur" />
		<tag k="ssr:stedsnr" v="1034119" />
		<tag k="ssr:type" v="adressenavn" />
	</node>
	<node lat="59.71205892962848" lon="10.07774017956197" id="-15174">
		<tag k="name" v="Nikkerud" />
		<tag k="ssr:date" v="2019-12-27" />
		<tag k="ssr:gruppe" v="veg" />
		<tag k="ssr:hovedgruppe" v="infrastruktur" />
		<tag k="ssr:stedsnr" v="1034120" />
		<tag k="ssr:type" v="adressenavn" />
	</node>
	<node lat="59.672518397619825" lon="10.012628559274932" id="-15175">
		<tag k="name" v="Kittilsbu" />
		<tag k="ssr:date" v="2019-12-27" />
		<tag k="ssr:gruppe" v="veg" />
		<tag k="ssr:hovedgruppe" v="infrastruktur" />
		<tag k="ssr:stedsnr" v="1034121" />
		<tag k="ssr:type" v="adressenavn" />
	</node>
	<node lat="59.67962203979317" lon="10.027054840227125" id="-15176">
		<tag k="name" v="Nysetra" />
		<tag k="ssr:date" v="2019-12-27" />
		<tag k="ssr:gruppe" v="veg" />
		<tag k="ssr:hovedgruppe" v="infrastruktur" />
		<tag k="ssr:stedsnr" v="1034122" />
		<tag k="ssr:type" v="adressenavn" />
	</node>
	<node lat="59.72151610004084" lon="10.036355981364995" id="-15177">
		<tag k="name" v="Bremsåsen" />
		<tag k="ssr:date" v="2019-12-27" />
		<tag k="ssr:gruppe" v="veg" />
		<tag k="ssr:hovedgruppe" v="infrastruktur" />
		<tag k="ssr:stedsnr" v="1034123" />
		<tag k="ssr:type" v="adressenavn" />
	</node>
	<node lat="59.687934711687" lon="9.991496212656699" id="-15178">
		<tag k="name" v="Ytre Fisketjern" />
		<tag k="ssr:date" v="2019-12-27" />
		<tag k="ssr:gruppe" v="veg" />
		<tag k="ssr:hovedgruppe" v="infrastruktur" />
		<tag k="ssr:stedsnr" v="1034125" />
		<tag k="ssr:type" v="adressenavn" />
	</node>
	<node lat="59.718783826161655" lon="10.068023228657202" id="-15179">
		<tag k="name" v="Grunntjern" />
		<tag k="ssr:date" v="2019-12-27" />
		<tag k="ssr:gruppe" v="veg" />
		<tag k="ssr:hovedgruppe" v="infrastruktur" />
		<tag k="ssr:stedsnr" v="1034128" />
		<tag k="ssr:type" v="adressenavn" />
	</node>
	<node lat="59.71650686760298" lon="10.05753278166509" id="-15180">
		<tag k="name" v="Bremsetjern" />
		<tag k="ssr:date" v="2019-12-27" />
		<tag k="ssr:gruppe" v="veg" />
		<tag k="ssr:hovedgruppe" v="infrastruktur" />
		<tag k="ssr:stedsnr" v="1034129" />
		<tag k="ssr:type" v="adressenavn" />
	</node>
	<node lat="59.7156922450137" lon="10.004583658698396" id="-15181">
		<tag k="name" v="Auretjern" />
		<tag k="ssr:date" v="2019-12-27" />
		<tag k="ssr:gruppe" v="veg" />
		<tag k="ssr:hovedgruppe" v="infrastruktur" />
		<tag k="ssr:stedsnr" v="1034130" />
		<tag k="ssr:type" v="adressenavn" />
	</node>
	<node lat="59.81852637221744" lon="10.066077717654485" id="-15182">
		<tag k="name" v="Svarthamnsetra" />
		<tag k="ssr:date" v="2019-12-27" />
		<tag k="ssr:gruppe" v="veg" />
		<tag k="ssr:hovedgruppe" v="infrastruktur" />
		<tag k="ssr:stedsnr" v="1034132" />
		<tag k="ssr:type" v="adressenavn" />
	</node>
	<node lat="59.69325249795834" lon="10.003129870181247" id="-15183">
		<tag k="name" v="Lauvtjern" />
		<tag k="ssr:date" v="2019-12-27" />
		<tag k="ssr:gruppe" v="veg" />
		<tag k="ssr:hovedgruppe" v="infrastruktur" />
		<tag k="ssr:stedsnr" v="1034133" />
		<tag k="ssr:type" v="adressenavn" />
	</node>
	<node lat="59.71553860129356" lon="9.994090466723733" id="-15184">
		<tag k="name" v="Korsgårdseter" />
		<tag k="ssr:date" v="2019-12-27" />
		<tag k="ssr:gruppe" v="veg" />
		<tag k="ssr:hovedgruppe" v="infrastruktur" />
		<tag k="ssr:stedsnr" v="1034135" />
		<tag k="ssr:type" v="adressenavn" />
	</node>
	<node lat="59.78325033223901" lon="10.039783737437363" id="-15185">
		<tag k="name" v="Vadalen" />
		<tag k="ssr:date" v="2019-12-27" />
		<tag k="ssr:gruppe" v="veg" />
		<tag k="ssr:hovedgruppe" v="infrastruktur" />
		<tag k="ssr:stedsnr" v="1034081" />
		<tag k="ssr:type" v="adressenavn" />
	</node>
	<node lat="59.76912686613977" lon="10.019507099739425" id="-15186">
		<tag k="name" v="Inntaksdammen" />
		<tag k="ssr:date" v="2019-12-27" />
		<tag k="ssr:gruppe" v="veg" />
		<tag k="ssr:hovedgruppe" v="infrastruktur" />
		<tag k="ssr:stedsnr" v="1034082" />
		<tag k="ssr:type" v="adressenavn" />
	</node>
	<node lat="59.70299682760164" lon="9.987912254168783" id="-15187">
		<tag k="name" v="Kyrfjell" />
		<tag k="ssr:date" v="2019-12-27" />
		<tag k="ssr:gruppe" v="veg" />
		<tag k="ssr:hovedgruppe" v="infrastruktur" />
		<tag k="ssr:stedsnr" v="1034084" />
		<tag k="ssr:type" v="adressenavn" />
	</node>
	<node lat="59.788266644752554" lon="10.047037743239365" id="-15188">
		<tag k="name" v="Tarmmyr" />
		<tag k="ssr:date" v="2019-12-27" />
		<tag k="ssr:gruppe" v="veg" />
		<tag k="ssr:hovedgruppe" v="infrastruktur" />
		<tag k="ssr:stedsnr" v="1034085" />
		<tag k="ssr:type" v="adressenavn" />
	</node>
	<node lat="59.81102290270511" lon="9.996825239261161" id="-15189">
		<tag k="name" v="Yttervannet" />
		<tag k="ssr:date" v="2019-12-27" />
		<tag k="ssr:gruppe" v="veg" />
		<tag k="ssr:hovedgruppe" v="infrastruktur" />
		<tag k="ssr:stedsnr" v="1034137" />
		<tag k="ssr:type" v="adressenavn" />
	</node>
	<node lat="59.807918733699644" lon="10.021030023353443" id="-15190">
		<tag k="name" v="Lommetjern" />
		<tag k="ssr:date" v="2019-12-27" />
		<tag k="ssr:gruppe" v="veg" />
		<tag k="ssr:hovedgruppe" v="infrastruktur" />
		<tag k="ssr:stedsnr" v="1034139" />
		<tag k="ssr:type" v="adressenavn" />
	</node>
	<node lat="59.804211038019425" lon="10.017405232328473" id="-15191">
		<tag k="name" v="Korpetjern" />
		<tag k="ssr:date" v="2019-12-27" />
		<tag k="ssr:gruppe" v="veg" />
		<tag k="ssr:hovedgruppe" v="infrastruktur" />
		<tag k="ssr:stedsnr" v="1034141" />
		<tag k="ssr:type" v="adressenavn" />
	</node>
	<node lat="59.77882041520652" lon="10.036135392625415" id="-15192">
		<tag k="name" v="Vadalstua" />
		<tag k="ssr:date" v="2019-12-27" />
		<tag k="ssr:gruppe" v="veg" />
		<tag k="ssr:hovedgruppe" v="infrastruktur" />
		<tag k="ssr:stedsnr" v="1034142" />
		<tag k="ssr:type" v="adressenavn" />
	</node>
	<node lat="59.77181474865459" lon="10.032271373044361" id="-15193">
		<tag k="name" v="Svarttjern" />
		<tag k="ssr:date" v="2019-12-27" />
		<tag k="ssr:gruppe" v="veg" />
		<tag k="ssr:hovedgruppe" v="infrastruktur" />
		<tag k="ssr:stedsnr" v="1034144" />
		<tag k="ssr:type" v="adressenavn" />
	</node>
	<node lat="59.78852094343334" lon="10.006879191095928" id="-15194">
		<tag k="name" v="Eknesdalen Vest" />
		<tag k="ssr:date" v="2019-12-27" />
		<tag k="ssr:gruppe" v="veg" />
		<tag k="ssr:hovedgruppe" v="infrastruktur" />
		<tag k="ssr:stedsnr" v="1034146" />
		<tag k="ssr:type" v="adressenavn" />
	</node>
	<node lat="59.78495114553102" lon="10.074644083726273" id="-15195">
		<tag k="name" v="Eggebekkmyra" />
		<tag k="ssr:date" v="2019-12-27" />
		<tag k="ssr:gruppe" v="veg" />
		<tag k="ssr:hovedgruppe" v="infrastruktur" />
		<tag k="ssr:stedsnr" v="1034147" />
		<tag k="ssr:type" v="adressenavn" />
	</node>
	<node lat="59.797288642311614" lon="10.042464334121446" id="-15196">
		<tag k="name" v="Smedsetra" />
		<tag k="ssr:date" v="2019-12-27" />
		<tag k="ssr:gruppe" v="veg" />
		<tag k="ssr:hovedgruppe" v="infrastruktur" />
		<tag k="ssr:stedsnr" v="1034150" />
		<tag k="ssr:type" v="adressenavn" />
	</node>
	<node lat="59.71398502019837" lon="9.98455178170523" id="-15197">
		<tag k="name" v="Dammyr" />
		<tag k="ssr:date" v="2019-12-27" />
		<tag k="ssr:gruppe" v="veg" />
		<tag k="ssr:hovedgruppe" v="infrastruktur" />
		<tag k="ssr:stedsnr" v="1034153" />
		<tag k="ssr:type" v="adressenavn" />
	</node>
	<node lat="59.7789949312621" lon="10.017350116467792" id="-15198">
		<tag k="name" v="Lampetjern" />
		<tag k="ssr:date" v="2019-12-27" />
		<tag k="ssr:gruppe" v="veg" />
		<tag k="ssr:hovedgruppe" v="infrastruktur" />
		<tag k="ssr:stedsnr" v="1034154" />
		<tag k="ssr:type" v="adressenavn" />
	</node>
	<node lat="59.7940729103342" lon="10.046973806711499" id="-15199">
		<tag k="name" v="Steinarvanna" />
		<tag k="ssr:date" v="2019-12-27" />
		<tag k="ssr:gruppe" v="veg" />
		<tag k="ssr:hovedgruppe" v="infrastruktur" />
		<tag k="ssr:stedsnr" v="1034156" />
		<tag k="ssr:type" v="adressenavn" />
	</node>
	<node lat="59.823239789767605" lon="10.040421398750258" id="-15200">
		<tag k="name" v="Ormetjern" />
		<tag k="ssr:date" v="2019-12-27" />
		<tag k="ssr:gruppe" v="veg" />
		<tag k="ssr:hovedgruppe" v="infrastruktur" />
		<tag k="ssr:stedsnr" v="1034159" />
		<tag k="ssr:type" v="adressenavn" />
	</node>
	<node lat="59.817942496931146" lon="10.014988517686813" id="-15201">
		<tag k="name" v="Steindamtjern" />
		<tag k="ssr:date" v="2019-12-27" />
		<tag k="ssr:gruppe" v="veg" />
		<tag k="ssr:hovedgruppe" v="infrastruktur" />
		<tag k="ssr:stedsnr" v="1034160" />
		<tag k="ssr:type" v="adressenavn" />
	</node>
	<node lat="59.72105345460867" lon="10.013822971514001" id="-15202">
		<tag k="name" v="Øvre Grytjern" />
		<tag k="ssr:date" v="2019-12-27" />
		<tag k="ssr:gruppe" v="veg" />
		<tag k="ssr:hovedgruppe" v="infrastruktur" />
		<tag k="ssr:stedsnr" v="1034163" />
		<tag k="ssr:type" v="adressenavn" />
	</node>
	<node lat="59.814410753517066" lon="10.014733140242546" id="-15203">
		<tag k="name" v="Dobletjern" />
		<tag k="ssr:date" v="2019-12-27" />
		<tag k="ssr:gruppe" v="veg" />
		<tag k="ssr:hovedgruppe" v="infrastruktur" />
		<tag k="ssr:stedsnr" v="1034166" />
		<tag k="ssr:type" v="adressenavn" />
	</node>
	<node lat="59.806281537235016" lon="10.0701966703961" id="-15204">
		<tag k="name" v="Mellomdammen" />
		<tag k="ssr:date" v="2019-12-27" />
		<tag k="ssr:gruppe" v="veg" />
		<tag k="ssr:hovedgruppe" v="infrastruktur" />
		<tag k="ssr:stedsnr" v="1034167" />
		<tag k="ssr:type" v="adressenavn" />
	</node>
	<node lat="59.80445927268545" lon="10.087410505290494" id="-15205">
		<tag k="name" v="Nerdammen" />
		<tag k="ssr:date" v="2019-12-27" />
		<tag k="ssr:gruppe" v="veg" />
		<tag k="ssr:hovedgruppe" v="infrastruktur" />
		<tag k="ssr:stedsnr" v="1034169" />
		<tag k="ssr:type" v="adressenavn" />
	</node>
	<node lat="59.81493687681079" lon="10.00173843613455" id="-15206">
		<tag k="name" v="Øyvann" />
		<tag k="ssr:date" v="2019-12-27" />
		<tag k="ssr:gruppe" v="veg" />
		<tag k="ssr:hovedgruppe" v="infrastruktur" />
		<tag k="ssr:stedsnr" v="1034172" />
		<tag k="ssr:type" v="adressenavn" />
	</node>
	<node lat="59.805007386709775" lon="10.03743978497329" id="-15207">
		<tag k="name" v="Solbergvann" />
		<tag k="ssr:date" v="2019-12-27" />
		<tag k="ssr:gruppe" v="veg" />
		<tag k="ssr:hovedgruppe" v="infrastruktur" />
		<tag k="ssr:stedsnr" v="1034174" />
		<tag k="ssr:type" v="adressenavn" />
	</node>
	<node lat="59.797542097600406" lon="10.08942721365259" id="-15208">
		<tag k="name" v="Gravningen" />
		<tag k="ssr:date" v="2019-12-27" />
		<tag k="ssr:gruppe" v="veg" />
		<tag k="ssr:hovedgruppe" v="infrastruktur" />
		<tag k="ssr:stedsnr" v="1034176" />
		<tag k="ssr:type" v="adressenavn" />
	</node>
	<node lat="59.801780074868624" lon="9.993555069447364" id="-15209">
		<tag k="name" v="Horgensetertjern" />
		<tag k="ssr:date" v="2019-12-27" />
		<tag k="ssr:gruppe" v="veg" />
		<tag k="ssr:hovedgruppe" v="infrastruktur" />
		<tag k="ssr:stedsnr" v="1034179" />
		<tag k="ssr:type" v="adressenavn" />
	</node>
	<node lat="59.79421018208518" lon="10.095291611480661" id="-15210">
		<tag k="name" v="Marivann" />
		<tag k="ssr:date" v="2019-12-27" />
		<tag k="ssr:gruppe" v="veg" />
		<tag k="ssr:hovedgruppe" v="infrastruktur" />
		<tag k="ssr:stedsnr" v="1034180" />
		<tag k="ssr:type" v="adressenavn" />
	</node>
	<node lat="59.814082143479915" lon="10.098707233388422" id="-15211">
		<tag k="name" v="Vrangen" />
		<tag k="ssr:date" v="2019-12-27" />
		<tag k="ssr:gruppe" v="veg" />
		<tag k="ssr:hovedgruppe" v="infrastruktur" />
		<tag k="ssr:stedsnr" v="1034182" />
		<tag k="ssr:type" v="adressenavn" />
	</node>
	<node lat="59.62653432691708" lon="10.371428340880186" id="-15212">
		<tag k="name" v="Vassåsen" />
		<tag k="ssr:date" v="2019-12-27" />
		<tag k="ssr:gruppe" v="veg" />
		<tag k="ssr:hovedgruppe" v="infrastruktur" />
		<tag k="ssr:stedsnr" v="1043216" />
		<tag k="ssr:type" v="adressenavn" />
	</node>
	<node lat="59.668198556570395" lon="10.315964312789367" id="-15213">
		<tag k="name" v="Søndre Øksnevann" />
		<tag k="ssr:date" v="2019-12-27" />
		<tag k="ssr:gruppe" v="veg" />
		<tag k="ssr:hovedgruppe" v="infrastruktur" />
		<tag k="ssr:stedsnr" v="1043217" />
		<tag k="ssr:type" v="adressenavn" />
	</node>
	<node lat="59.64804943541731" lon="10.374499359081195" id="-15214">
		<tag k="name" v="Sønstebyåsen" />
		<tag k="ssr:date" v="2019-12-27" />
		<tag k="ssr:gruppe" v="veg" />
		<tag k="ssr:hovedgruppe" v="infrastruktur" />
		<tag k="ssr:stedsnr" v="1043219" />
		<tag k="ssr:type" v="adressenavn" />
	</node>
	<node lat="59.63747557599281" lon="10.33984152051674" id="-15215">
		<tag k="name" v="Svanevannsåsen" />
		<tag k="ssr:date" v="2019-12-27" />
		<tag k="ssr:gruppe" v="veg" />
		<tag k="ssr:hovedgruppe" v="infrastruktur" />
		<tag k="ssr:stedsnr" v="1043221" />
		<tag k="ssr:type" v="adressenavn" />
	</node>
	<node lat="59.61609732891854" lon="10.342818854094123" id="-15216">
		<tag k="name" v="Søndre Svanevann" />
		<tag k="ssr:date" v="2019-12-27" />
		<tag k="ssr:gruppe" v="veg" />
		<tag k="ssr:hovedgruppe" v="infrastruktur" />
		<tag k="ssr:stedsnr" v="1043222" />
		<tag k="ssr:type" v="adressenavn" />
	</node>
	<node lat="59.625556587895204" lon="10.3443490056637" id="-15217">
		<tag k="name" v="Stegaåsen" />
		<tag k="ssr:date" v="2019-12-27" />
		<tag k="ssr:gruppe" v="veg" />
		<tag k="ssr:hovedgruppe" v="infrastruktur" />
		<tag k="ssr:stedsnr" v="1043224" />
		<tag k="ssr:type" v="adressenavn" />
	</node>
	<node lat="59.61632374402666" lon="10.369026805976608" id="-15218">
		<tag k="name" v="Stølsåsen" />
		<tag k="ssr:date" v="2019-12-27" />
		<tag k="ssr:gruppe" v="veg" />
		<tag k="ssr:hovedgruppe" v="infrastruktur" />
		<tag k="ssr:stedsnr" v="1043225" />
		<tag k="ssr:type" v="adressenavn" />
	</node>
	<node lat="59.59871040531056" lon="10.362449870728422" id="-15219">
		<tag k="name" v="Sagdalen" />
		<tag k="ssr:date" v="2019-12-27" />
		<tag k="ssr:gruppe" v="veg" />
		<tag k="ssr:hovedgruppe" v="infrastruktur" />
		<tag k="ssr:stedsnr" v="1043226" />
		<tag k="ssr:type" v="adressenavn" />
	</node>
	<node lat="59.61046829893199" lon="10.342705891732976" id="-15220">
		<tag k="name" v="Setermyrene" />
		<tag k="ssr:date" v="2019-12-27" />
		<tag k="ssr:gruppe" v="veg" />
		<tag k="ssr:hovedgruppe" v="infrastruktur" />
		<tag k="ssr:stedsnr" v="1043227" />
		<tag k="ssr:type" v="adressenavn" />
	</node>
	<node lat="59.599398187727665" lon="10.379204383965742" id="-15221">
		<tag k="name" v="Plassen" />
		<tag k="ssr:date" v="2019-12-27" />
		<tag k="ssr:gruppe" v="veg" />
		<tag k="ssr:hovedgruppe" v="infrastruktur" />
		<tag k="ssr:stedsnr" v="1043230" />
		<tag k="ssr:type" v="adressenavn" />
	</node>
	<node lat="59.65218828674515" lon="10.338158662949908" id="-15222">
		<tag k="name" v="Nessetervann" />
		<tag k="ssr:date" v="2019-12-27" />
		<tag k="ssr:gruppe" v="veg" />
		<tag k="ssr:hovedgruppe" v="infrastruktur" />
		<tag k="ssr:stedsnr" v="1043232" />
		<tag k="ssr:type" v="adressenavn" />
	</node>
	<node lat="59.626571291383485" lon="10.338219083419201" id="-15223">
		<tag k="name" v="Midtre Svanevann" />
		<tag k="ssr:date" v="2019-12-27" />
		<tag k="ssr:gruppe" v="veg" />
		<tag k="ssr:hovedgruppe" v="infrastruktur" />
		<tag k="ssr:stedsnr" v="1043234" />
		<tag k="ssr:type" v="adressenavn" />
	</node>
	<node lat="59.58724626745907" lon="10.357154683179397" id="-15224">
		<tag k="name" v="Myrestulen" />
		<tag k="ssr:date" v="2019-12-27" />
		<tag k="ssr:gruppe" v="veg" />
		<tag k="ssr:hovedgruppe" v="infrastruktur" />
		<tag k="ssr:stedsnr" v="1043235" />
		<tag k="ssr:type" v="adressenavn" />
	</node>
	<node lat="59.651807264854746" lon="10.34739197068538" id="-15225">
		<tag k="name" v="Knektedammen" />
		<tag k="ssr:date" v="2019-12-27" />
		<tag k="ssr:gruppe" v="veg" />
		<tag k="ssr:hovedgruppe" v="infrastruktur" />
		<tag k="ssr:stedsnr" v="1043237" />
		<tag k="ssr:type" v="adressenavn" />
	</node>
	<node lat="59.67975496833757" lon="10.311675716699597" id="-15226">
		<tag k="name" v="Tørkoppdammene" />
		<tag k="ssr:date" v="2019-12-27" />
		<tag k="ssr:gruppe" v="veg" />
		<tag k="ssr:hovedgruppe" v="infrastruktur" />
		<tag k="ssr:stedsnr" v="1043238" />
		<tag k="ssr:type" v="adressenavn" />
	</node>
	<node lat="59.60163684860798" lon="10.375818002970119" id="-15227">
		<tag k="name" v="Hellumåsen" />
		<tag k="ssr:date" v="2019-12-27" />
		<tag k="ssr:gruppe" v="veg" />
		<tag k="ssr:hovedgruppe" v="infrastruktur" />
		<tag k="ssr:stedsnr" v="1043239" />
		<tag k="ssr:type" v="adressenavn" />
	</node>
	<node lat="59.597479217364" lon="10.382840842170683" id="-15228">
		<tag k="name" v="Kirkestuvollen" />
		<tag k="ssr:date" v="2019-12-27" />
		<tag k="ssr:gruppe" v="veg" />
		<tag k="ssr:hovedgruppe" v="infrastruktur" />
		<tag k="ssr:stedsnr" v="1043240" />
		<tag k="ssr:type" v="adressenavn" />
	</node>
	<node lat="59.67593128548787" lon="10.315496809416242" id="-15229">
		<tag k="name" v="Hansåsen" />
		<tag k="ssr:date" v="2019-12-27" />
		<tag k="ssr:gruppe" v="veg" />
		<tag k="ssr:hovedgruppe" v="infrastruktur" />
		<tag k="ssr:stedsnr" v="1043241" />
		<tag k="ssr:type" v="adressenavn" />
	</node>
	<node lat="59.61188455011161" lon="10.371504745984906" id="-15230">
		<tag k="name" v="Hellumvann" />
		<tag k="ssr:date" v="2019-12-27" />
		<tag k="ssr:gruppe" v="veg" />
		<tag k="ssr:hovedgruppe" v="infrastruktur" />
		<tag k="ssr:stedsnr" v="1043244" />
		<tag k="ssr:type" v="adressenavn" />
	</node>
	<node lat="59.62181998637976" lon="10.345011645198023" id="-15231">
		<tag k="name" v="Fjellheim" />
		<tag k="ssr:date" v="2019-12-27" />
		<tag k="ssr:gruppe" v="veg" />
		<tag k="ssr:hovedgruppe" v="infrastruktur" />
		<tag k="ssr:stedsnr" v="1043245" />
		<tag k="ssr:type" v="adressenavn" />
	</node>
	<node lat="59.601966253747904" lon="10.341890149948943" id="-15232">
		<tag k="name" v="Furuholmen" />
		<tag k="ssr:date" v="2019-12-27" />
		<tag k="ssr:gruppe" v="veg" />
		<tag k="ssr:hovedgruppe" v="infrastruktur" />
		<tag k="ssr:stedsnr" v="1043247" />
		<tag k="ssr:type" v="adressenavn" />
	</node>
	<node lat="59.614922625023716" lon="10.361792855069153" id="-15233">
		<tag k="name" v="Damvann" />
		<tag k="ssr:date" v="2019-12-27" />
		<tag k="ssr:gruppe" v="veg" />
		<tag k="ssr:hovedgruppe" v="infrastruktur" />
		<tag k="ssr:stedsnr" v="1043250" />
		<tag k="ssr:type" v="adressenavn" />
	</node>
	<node lat="59.62663591359734" lon="10.373648910844421" id="-15234">
		<tag k="name" v="Ebbestadvannet" />
		<tag k="ssr:date" v="2019-12-27" />
		<tag k="ssr:gruppe" v="veg" />
		<tag k="ssr:hovedgruppe" v="infrastruktur" />
		<tag k="ssr:stedsnr" v="1043251" />
		<tag k="ssr:type" v="adressenavn" />
	</node>
	<node lat="59.571559930267846" lon="10.342430175177032" id="-15235">
		<tag k="name" v="Blindevann" />
		<tag k="ssr:date" v="2019-12-27" />
		<tag k="ssr:gruppe" v="veg" />
		<tag k="ssr:hovedgruppe" v="infrastruktur" />
		<tag k="ssr:stedsnr" v="1043253" />
		<tag k="ssr:type" v="adressenavn" />
	</node>
	<node lat="59.63911816148226" lon="10.352703120063481" id="-15236">
		<tag k="name" v="Bollstein" />
		<tag k="ssr:date" v="2019-12-27" />
		<tag k="ssr:gruppe" v="veg" />
		<tag k="ssr:hovedgruppe" v="infrastruktur" />
		<tag k="ssr:stedsnr" v="1043254" />
		<tag k="ssr:type" v="adressenavn" />
	</node>
	<node lat="59.71098456892265" lon="10.267162464140494" id="-15244">
		<tag k="name" v="Sakerveien" />
		<tag k="ssr:date" v="2019-12-27" />
		<tag k="ssr:gruppe" v="veg" />
		<tag k="ssr:hovedgruppe" v="infrastruktur" />
		<tag k="ssr:stedsnr" v="1073244" />
		<tag k="ssr:type" v="adressenavn" />
	</node>
	<node lat="59.791832021593" lon="9.987646080992686" id="-15245">
		<tag k="name" v="Ulevannsveien" />
		<tag k="ssr:date" v="2019-12-27" />
		<tag k="ssr:gruppe" v="veg" />
		<tag k="ssr:hovedgruppe" v="infrastruktur" />
		<tag k="ssr:stedsnr" v="1073254" />
		<tag k="ssr:type" v="vegstrekning" />
	</node>
	<node lat="59.68528286967919" lon="10.346881834990786" id="-15247">
		<tag k="name" v="Herman Nygårds vei" />
		<tag k="ssr:date" v="2019-12-27" />
		<tag k="ssr:gruppe" v="veg" />
		<tag k="ssr:hovedgruppe" v="infrastruktur" />
		<tag k="ssr:stedsnr" v="1074054" />
		<tag k="ssr:type" v="adressenavn" />
	</node>
	<node lat="59.68599372301486" lon="10.34599889693435" id="-15248">
		<tag k="name" v="Grønliåsen" />
		<tag k="ssr:date" v="2019-12-27" />
		<tag k="ssr:gruppe" v="veg" />
		<tag k="ssr:hovedgruppe" v="infrastruktur" />
		<tag k="ssr:stedsnr" v="1074056" />
		<tag k="ssr:type" v="adressenavn" />
	</node>
	<node lat="59.60540003974931" lon="10.410098113138364" id="-15249">
		<tag k="name" v="Sagstien" />
		<tag k="ssr:date" v="2019-12-27" />
		<tag k="ssr:gruppe" v="veg" />
		<tag k="ssr:hovedgruppe" v="infrastruktur" />
		<tag k="ssr:stedsnr" v="1074057" />
		<tag k="ssr:type" v="adressenavn" />
	</node>
	<node lat="59.91168968762522" lon="10.758188226721538" id="-15250">
		<tag k="name" v="Viken fylke" />
		<tag k="ssr:date" v="2021-06-08" />
		<tag k="ssr:gruppe" v="administrativeIndelinger" />
		<tag k="ssr:hovedgruppe" v="offentligAdministrasjon" />
		<tag k="ssr:stedsnr" v="1074403" />
		<tag k="ssr:type" v="fylke" />
	</node>
	<node lat="59.742099347702755" lon="10.014690172915646" id="-15261">
		<tag k="name" v="Ginabakken" />
		<tag k="ssr:date" v="2021-12-13" />
		<tag k="ssr:gruppe" v="veg" />
		<tag k="ssr:hovedgruppe" v="infrastruktur" />
		<tag k="ssr:stedsnr" v="1083208" />
		<tag k="ssr:type" v="adressenavn" />
	</node>
</osm>
