<?xml version="1.0" encoding="UTF-8"?>
<osm version="0.6" generator="osmapis">
	<node lat="60.434741664185516" lon="5.358466675475697" id="-66676">
		<tag k="alt_name" v="Kløvssteinen" />
		<tag k="name" v="Kløpstølen" />
		<tag k="natural" v="hill" />
		<tag k="place" v="locality" />
		<tag k="ssr:stedsnr" v="82747" />
	</node>
	<node lat="60.347608335101924" lon="5.513599999843548" id="-66715">
		<tag k="name" v="Hovden" />
		<tag k="natural" v="hill" />
		<tag k="place" v="locality" />
		<tag k="ssr:stedsnr" v="126160" />
	</node>
	<node lat="60.27022777923821" lon="5.31234999108124" id="-66736">
		<tag k="name" v="Bjoardalen" />
		<tag k="natural" v="valley" />
		<tag k="place" v="locality" />
		<tag k="ssr:stedsnr" v="127921" />
	</node>
	<node lat="60.3835444443353" lon="5.548572230035125" id="-66818">
		<tag k="fixme" v="consider natural=peak for the most distinct mountains in the district" />
		<tag k="name" v="Kurlakampen" />
		<tag k="natural" v="hill" />
		<tag k="place" v="locality" />
		<tag k="ssr:stedsnr" v="187124" />
	</node>
	<node lat="60.37020833764424" lon="5.54017778324174" id="-66819">
		<tag k="fixme" v="consider natural=peak for the most distinct mountains in the district" />
		<tag k="name" v="Kurlerinden" />
		<tag k="natural" v="hill" />
		<tag k="place" v="locality" />
		<tag k="ssr:stedsnr" v="187174" />
	</node>
	<node lat="60.42481667074983" lon="5.488294450573996" id="-66821">
		<tag k="name" v="Tjovedalen" />
		<tag k="natural" v="valley" />
		<tag k="place" v="locality" />
		<tag k="ssr:stedsnr" v="187037" />
	</node>
	<node lat="60.29764721857321" lon="5.465724994508497" id="-66839">
		<tag k="fixme" v="consider natural=peak for the most distinct mountains in the district" />
		<tag k="name" v="Solbakkefjellet" />
		<tag k="natural" v="hill" />
		<tag k="place" v="locality" />
		<tag k="ssr:stedsnr" v="187914" />
	</node>
	<node lat="60.32275915330011" lon="5.427443170285842" id="-66848">
		<tag k="fixme" v="consider natural=peak for the most distinct mountains in the district" />
		<tag k="name" v="Svartabrotet" />
		<tag k="natural" v="hill" />
		<tag k="place" v="locality" />
		<tag k="ssr:stedsnr" v="188891" />
	</node>
	<node lat="60.2343608585721" lon="5.340460308654238" id="-67018">
		<tag k="fixme" v="consider natural=peak for the most distinct mountains in the district" />
		<tag k="name" v="Stokkfjellet" />
		<tag k="natural" v="hill" />
		<tag k="place" v="locality" />
		<tag k="ssr:stedsnr" v="247819" />
	</node>
	<node lat="60.4093749984867" lon="5.5890166745799625" id="-67020">
		<tag k="fixme" v="consider natural=peak for the most distinct mountains in the district" />
		<tag k="name" v="Gråfjellet" />
		<tag k="natural" v="hill" />
		<tag k="place" v="locality" />
		<tag k="ssr:stedsnr" v="248063" />
	</node>
	<node lat="60.467570435743866" lon="5.399527454253152" id="-67028">
		<tag k="name" v="Kletten" />
		<tag k="natural" v="hill" />
		<tag k="place" v="locality" />
		<tag k="ssr:stedsnr" v="248561" />
	</node>
	<node lat="60.296936107735185" lon="5.3744222174083545" id="-67036">
		<tag k="fixme" v="consider natural=peak for the most distinct mountains in the district" />
		<tag k="name" v="Vallaheiane" />
		<tag k="natural" v="hill" />
		<tag k="place" v="locality" />
		<tag k="ssr:stedsnr" v="248857" />
	</node>
	<node lat="60.367566668651364" lon="5.482538890892264" id="-67113">
		<tag k="name" v="Vemanen" />
		<tag k="natural" v="slope" />
		<tag k="place" v="locality" />
		<tag k="ssr:stedsnr" v="308149" />
	</node>
	<node lat="60.49988055110584" lon="5.274599997120905" id="-67121">
		<tag k="name" v="Geithaugane" />
		<tag k="natural" v="hill" />
		<tag k="place" v="locality" />
		<tag k="ssr:stedsnr" v="309502" />
	</node>
	<node lat="60.38606389249976" lon="5.5362861050458" id="-67209">
		<tag k="name" v="Tårbareset" />
		<tag k="natural" v="slope" />
		<tag k="place" v="locality" />
		<tag k="ssr:stedsnr" v="369112" />
	</node>
	<node lat="60.38961388854033" lon="5.550488880446265" id="-67359">
		<tag k="fixme" v="consider natural=peak for the most distinct mountains in the district" />
		<tag k="name" v="Svartavassrinden" />
		<tag k="natural" v="hill" />
		<tag k="place" v="locality" />
		<tag k="ssr:stedsnr" v="430096" />
	</node>
	<node lat="60.36760278173129" lon="5.5128944397249295" id="-67361">
		<tag k="fixme" v="consider natural=peak for the most distinct mountains in the district" />
		<tag k="name" v="Bjørkerinden" />
		<tag k="natural" v="hill" />
		<tag k="place" v="locality" />
		<tag k="ssr:stedsnr" v="430156" />
	</node>
	<node lat="60.37974721910415" lon="5.53356110327421" id="-67379">
		<tag k="name" v="Skitremmane" />
		<tag k="natural" v="slope" />
		<tag k="place" v="locality" />
		<tag k="ssr:stedsnr" v="431145" />
	</node>
	<node lat="60.5116916708825" lon="5.298983337956934" id="-67383">
		<tag k="name" v="Høgåsen" />
		<tag k="natural" v="hill" />
		<tag k="place" v="locality" />
		<tag k="ssr:stedsnr" v="491518" />
	</node>
	<node lat="60.42909721891988" lon="5.652313880266551" id="-67641">
		<tag k="name" v="Orrhaugen" />
		<tag k="natural" v="hill" />
		<tag k="place" v="locality" />
		<tag k="ssr:stedsnr" v="551049" />
	</node>
	<node lat="60.466219443116394" lon="5.2833222205299375" id="-67650">
		<tag k="name" v="Bryggjedalen" />
		<tag k="natural" v="valley" />
		<tag k="place" v="locality" />
		<tag k="ssr:stedsnr" v="551409" />
	</node>
	<node lat="60.38323333187506" lon="5.448127770565724" id="-67652">
		<tag k="name" v="Londalen" />
		<tag k="natural" v="valley" />
		<tag k="place" v="locality" />
		<tag k="ssr:stedsnr" v="551738" />
	</node>
	<node lat="60.378225001458084" lon="5.2093944367812695" id="-67659">
		<tag k="name" v="Fagerdalen" />
		<tag k="natural" v="valley" />
		<tag k="place" v="locality" />
		<tag k="ssr:stedsnr" v="551649" />
	</node>
	<node lat="60.500124999268856" lon="5.375580548049194" id="-67666">
		<tag k="name" v="Håhaugen" />
		<tag k="natural" v="hill" />
		<tag k="place" v="locality" />
		<tag k="ssr:stedsnr" v="552526" />
	</node>
	<node lat="60.500727781936966" lon="5.282011109616098" id="-67667">
		<tag k="name" v="Salhusdalen" />
		<tag k="natural" v="valley" />
		<tag k="place" v="locality" />
		<tag k="ssr:stedsnr" v="552539" />
	</node>
	<node lat="60.35344166241367" lon="5.512824999290486" id="-67849">
		<tag k="fixme" v="consider natural=peak for the most distinct mountains in the district" />
		<tag k="name" v="Vigrane" />
		<tag k="natural" v="hill" />
		<tag k="place" v="locality" />
		<tag k="ssr:stedsnr" v="611178" />
	</node>
	<node lat="60.39699444309752" lon="5.4070277797638004" id="-67859">
		<tag k="name" v="Hardbakkedalen" />
		<tag k="natural" v="valley" />
		<tag k="place" v="locality" />
		<tag k="ssr:stedsnr" v="612673" />
	</node>
	<node lat="60.33312499995888" lon="5.291524997037589" id="-67867">
		<tag k="name" v="Stokkedalen" />
		<tag k="natural" v="valley" />
		<tag k="place" v="locality" />
		<tag k="ssr:stedsnr" v="612789" />
	</node>
	<node lat="60.47144444329849" lon="5.310111108724725" id="-67988">
		<tag k="name" v="Blokkhaugen" />
		<tag k="natural" v="hill" />
		<tag k="place" v="locality" />
		<tag k="ssr:stedsnr" v="688414" />
	</node>
	<node lat="60.299099998083605" lon="5.2631111149655165" id="-68025">
		<tag k="name" v="Kokstad" />
		<tag k="place" v="locality" />
		<tag k="ssr:stedsnr" v="689436" />
	</node>
	<node lat="60.341130552983095" lon="5.240130563541016" id="-68026">
		<tag k="name" v="Hestabakken" />
		<tag k="natural" v="slope" />
		<tag k="place" v="locality" />
		<tag k="ssr:stedsnr" v="692107" />
	</node>
	<node lat="60.39503333083562" lon="5.501222226186403" id="-68043">
		<tag k="name" v="Seimsdalen" />
		<tag k="natural" v="valley" />
		<tag k="place" v="locality" />
		<tag k="ssr:stedsnr" v="733107" />
	</node>
	<node lat="60.31778888985645" lon="5.493155558892733" id="-68143">
		<tag k="name" v="Stemmedalshaugane" />
		<tag k="natural" v="hill" />
		<tag k="place" v="locality" />
		<tag k="ssr:stedsnr" v="794213" />
	</node>
	<node lat="60.40448055172185" lon="5.336800006040636" id="-68168">
		<tag k="name" v="Mulen" />
		<tag k="natural" v="slope" />
		<tag k="place" v="locality" />
		<tag k="ssr:stedsnr" v="915644" />
	</node>
	<node lat="60.3830527756877" lon="5.5691749995283235" id="-68257">
		<tag k="name" v="Rundamansbrekkene" />
		<tag k="natural" v="slope" />
		<tag k="place" v="locality" />
		<tag k="ssr:stedsnr" v="855122" />
	</node>
	<node lat="60.37287777722249" lon="5.500169437599492" id="-68260">
		<tag k="name" v="Ramsdalshovden" />
		<tag k="natural" v="hill" />
		<tag k="place" v="locality" />
		<tag k="ssr:stedsnr" v="855135" />
	</node>
	<node lat="60.39452778102307" lon="5.5407250038149245" id="-68484">
		<tag k="name" v="Høystakkliane" />
		<tag k="natural" v="slope" />
		<tag k="place" v="locality" />
		<tag k="ssr:stedsnr" v="915101" />
	</node>
	<node lat="60.40943055891258" lon="5.340205561094109" id="-68578">
		<tag k="name" v="Sandviksfjellet" />
		<tag k="natural" v="hill" />
		<tag k="place" v="locality" />
		<tag k="ssr:stedsnr" v="935829" />
	</node>
	<node lat="60.45924444817404" lon="5.2747861165402306" id="-68579">
		<tag k="name" v="Storevarden" />
		<tag k="natural" v="hill" />
		<tag k="place" v="locality" />
		<tag k="ssr:stedsnr" v="936535" />
	</node>
	<node lat="60.358100001231506" lon="5.24749444144946" id="-68635">
		<tag k="fixme" v="consider natural=peak for the most distinct mountains in the district" />
		<tag k="name" v="Svartaberget" />
		<tag k="natural" v="hill" />
		<tag k="place" v="locality" />
		<tag k="ssr:stedsnr" v="5679" />
	</node>
	<node lat="60.37843610750002" lon="5.537802786925522" id="-68644">
		<tag k="name" v="Munkebotnen" />
		<tag k="natural" v="valley" />
		<tag k="place" v="locality" />
		<tag k="ssr:stedsnr" v="6135" />
	</node>
	<node lat="60.375752778522354" lon="5.537852773549599" id="-68645">
		<tag k="name" v="Snøgjelsrinden" />
		<tag k="natural" v="ridge" />
		<tag k="place" v="locality" />
		<tag k="ssr:stedsnr" v="6136" />
	</node>
	<node lat="60.30307777832167" lon="5.516086118668681" id="-68772">
		<tag k="name" v="Hisbotnen" />
		<tag k="natural" v="valley" />
		<tag k="place" v="locality" />
		<tag k="ssr:stedsnr" v="66232" />
	</node>
	<node lat="60.46660555559568" lon="5.428658327169716" id="-68783">
		<tag k="name" v="Breisteinslia" />
		<tag k="natural" v="slope" />
		<tag k="place" v="locality" />
		<tag k="ssr:stedsnr" v="66533" />
	</node>
	<node lat="60.350911109569104" lon="5.487527776866834" id="-69092">
		<tag k="name" v="Tverrmeisi" />
		<tag k="natural" v="hill" />
		<tag k="place" v="locality" />
		<tag k="ssr:stedsnr" v="187181" />
	</node>
	<node lat="60.26549999637079" lon="5.4654166694747" id="-69097">
		<tag k="fixme" v="consider natural=peak for the most distinct mountains in the district" />
		<tag k="name" v="Nordhordlandskulten" />
		<tag k="natural" v="hill" />
		<tag k="place" v="locality" />
		<tag k="ssr:stedsnr" v="187877" />
	</node>
	<node lat="60.346991665793496" lon="5.562297228879346" id="-69254">
		<tag k="fixme" v="consider natural=peak for the most distinct mountains in the district" />
		<tag k="name" v="Hausdalsåsen" />
		<tag k="natural" v="hill" />
		<tag k="place" v="locality" />
		<tag k="ssr:stedsnr" v="308180" />
	</node>
	<node lat="60.222196834923444" lon="5.269175599724102" id="-69263">
		<tag k="fixme" v="consider natural=peak for the most distinct mountains in the district" />
		<tag k="name" v="Leirvågfjellet" />
		<tag k="natural" v="hill" />
		<tag k="place" v="locality" />
		<tag k="ssr:stedsnr" v="308826" />
	</node>
	<node lat="60.38078611451117" lon="5.520036111678001" id="-69267">
		<tag k="fixme" v="consider natural=peak for the most distinct mountains in the district" />
		<tag k="name" v="Danserinden" />
		<tag k="natural" v="hill" />
		<tag k="place" v="locality" />
		<tag k="ssr:stedsnr" v="309126" />
	</node>
	<node lat="60.373322218399956" lon="5.249777770305198" id="-69400">
		<tag k="name" v="Lia" />
		<tag k="natural" v="slope" />
		<tag k="place" v="locality" />
		<tag k="ssr:stedsnr" v="328798" />
	</node>
	<node lat="60.28361110976354" lon="5.518211114898376" id="-69420">
		<tag k="name" v="Munkelia" />
		<tag k="natural" v="slope" />
		<tag k="place" v="locality" />
		<tag k="ssr:stedsnr" v="369238" />
	</node>
	<node lat="60.373224998083096" lon="5.4087944363883915" id="-69433">
		<tag k="name" v="Haukelandsstikkene" />
		<tag k="natural" v="hill" />
		<tag k="place" v="locality" />
		<tag k="ssr:stedsnr" v="369701" />
	</node>
	<node lat="60.37467221936648" lon="5.528819439555911" id="-69436">
		<tag k="name" v="Mjølkehaugen" />
		<tag k="natural" v="hill" />
		<tag k="place" v="locality" />
		<tag k="ssr:stedsnr" v="370159" />
	</node>
	<node lat="60.302080553241844" lon="5.32049722207909" id="-69568">
		<tag k="name" v="Søråsen" />
		<tag k="natural" v="hill" />
		<tag k="place" v="locality" />
		<tag k="ssr:stedsnr" v="449016" />
	</node>
	<node lat="60.27711666658368" lon="5.476808340678568" id="-69577">
		<tag k="name" v="Austrelia" />
		<tag k="natural" v="slope" />
		<tag k="place" v="locality" />
		<tag k="ssr:stedsnr" v="430260" />
	</node>
	<node lat="60.42962500324263" lon="5.401769452847202" id="-69587">
		<tag k="name" v="Nauddalen" />
		<tag k="natural" v="valley" />
		<tag k="place" v="locality" />
		<tag k="ssr:stedsnr" v="430582" />
	</node>
	<node lat="60.381812005758114" lon="5.444447043728656" id="-69868">
		<tag k="name" v="Langedalen" />
		<tag k="natural" v="valley" />
		<tag k="place" v="locality" />
		<tag k="ssr:stedsnr" v="551736" />
	</node>
	<node lat="60.31103333311084" lon="5.423411111738731" id="-69876">
		<tag k="alt_name" v="Haggardsrinden" />
		<tag k="fixme" v="consider natural=peak for the most distinct mountains in the district" />
		<tag k="name" v="Åsen" />
		<tag k="natural" v="hill" />
		<tag k="place" v="locality" />
		<tag k="ssr:stedsnr" v="551867" />
	</node>
	<node lat="60.3858166669512" lon="5.580216658487043" id="-69987">
		<tag k="name" v="Pilatusgila" />
		<tag k="natural" v="valley" />
		<tag k="place" v="locality" />
		<tag k="ssr:stedsnr" v="612149" />
	</node>
	<node lat="60.375694447333686" lon="5.552216663862421" id="-69988">
		<tag k="name" v="Raunbotnen" />
		<tag k="natural" v="valley" />
		<tag k="place" v="locality" />
		<tag k="ssr:stedsnr" v="612173" />
	</node>
	<node lat="60.277608337045194" lon="5.321875007184802" id="-69997">
		<tag k="name" v="Stavollen" />
		<tag k="place" v="locality" />
		<tag k="ssr:stedsnr" v="612936" />
	</node>
	<node lat="60.368752781600676" lon="5.377663892256532" id="-70124">
		<tag k="name" v="Lægdene" />
		<tag k="place" v="locality" />
		<tag k="ssr:stedsnr" v="642195" />
	</node>
	<node lat="60.47541111014981" lon="5.269613883987819" id="-70168">
		<tag k="name" v="Kolbudalen" />
		<tag k="natural" v="valley" />
		<tag k="place" v="locality" />
		<tag k="ssr:stedsnr" v="734463" />
	</node>
	<node lat="60.3026750041101" lon="5.265236102678256" id="-70315">
		<tag k="name" v="Skraneflaten" />
		<tag k="place" v="locality" />
		<tag k="ssr:stedsnr" v="794831" />
	</node>
	<node lat="60.42278056006844" lon="5.316050006469671" id="-70491">
		<tag k="name" v="Sølvberget" />
		<tag k="natural" v="hill" />
		<tag k="place" v="locality" />
		<tag k="ssr:stedsnr" v="855568" />
	</node>
	<node lat="60.38369166925739" lon="5.498438885601091" id="-70508">
		<tag k="name" v="Djupedalen" />
		<tag k="natural" v="valley" />
		<tag k="place" v="locality" />
		<tag k="ssr:stedsnr" v="856627" />
	</node>
	<node lat="60.37335465047459" lon="5.175109382076271" id="-72557">
		<tag k="name" v="Skipparhaugen" />
		<tag k="natural" v="hill" />
		<tag k="place" v="locality" />
		<tag k="ssr:stedsnr" v="1073811" />
	</node>
</osm>
