<?xml version="1.0" encoding="UTF-8"?>
<osm version="0.6" generator="osmapis">
	<node lat="60.32146389264949" lon="5.26892778385603" id="-66463">
		<tag k="bridge" v="yes" />
		<tag k="layer" v="1" />
		<tag k="name" v="Nordåsstraumen bru" />
		<tag k="ssr:stedsnr" v="229961" />
	</node>
	<node lat="60.41778888859856" lon="5.45174999179026" id="-66464">
		<tag k="bridge" v="yes" />
		<tag k="layer" v="1" />
		<tag k="name" v="Mjeldheim Øvre" />
		<tag k="ssr:stedsnr" v="229977" />
	</node>
	<node lat="60.39908332918238" lon="5.3173694494802675" id="-66565">
		<tag k="man_made" v="quay" />
		<tag k="name" v="Festningskaien" />
		<tag k="place" v="locality" />
		<tag k="ssr:stedsnr" v="28044" />
	</node>
	<node lat="60.513866663545535" lon="5.289333331344155" id="-66567">
		<tag k="bridge" v="yes" />
		<tag k="layer" v="1" />
		<tag k="name" v="Solskiva" />
		<tag k="ssr:stedsnr" v="47889" />
	</node>
	<node lat="60.50739444128852" lon="5.273897224455896" id="-66568">
		<tag k="bridge" v="yes" />
		<tag k="layer" v="1" />
		<tag k="name" v="Salhus" />
		<tag k="ssr:stedsnr" v="47970" />
	</node>
	<node lat="60.519152925453405" lon="5.2760884986937455" id="-66683">
		<tag k="bridge" v="yes" />
		<tag k="layer" v="1" />
		<tag k="name" v="Nordhordlandsbrua" />
		<tag k="ssr:stedsnr" v="86684" />
	</node>
	<node lat="60.36940895961294" lon="5.238102068458248" id="-66708">
		<tag k="layer" v="-1" />
		<tag k="loc_name" v="Lyderhornstunnelen;Lyderhorntunnelen" />
		<tag k="name" v="Lyderhorn 1" />
		<tag k="ssr:stedsnr" v="105336" />
		<tag k="tunnel" v="yes" />
	</node>
	<node lat="60.47399166315601" lon="5.334494442918087" id="-66811">
		<tag k="bridge" v="yes" />
		<tag k="layer" v="1" />
		<tag k="name" v="Anntvedt" />
		<tag k="ssr:stedsnr" v="168960" />
	</node>
	<node lat="60.520011109601576" lon="5.323650001803291" id="-66841">
		<tag k="man_made" v="quay" />
		<tag k="name" v="Hordvikhamnen" />
		<tag k="place" v="locality" />
		<tag k="ssr:stedsnr" v="188416" />
	</node>
	<node lat="60.305144441365066" lon="5.407480564534475" id="-67010">
		<tag k="bridge" v="yes" />
		<tag k="layer" v="1" />
		<tag k="name" v="Fjellbirkeland" />
		<tag k="ssr:stedsnr" v="229937" />
	</node>
	<node lat="60.434861115341626" lon="5.491452771052668" id="-67011">
		<tag k="bridge" v="yes" />
		<tag k="layer" v="1" />
		<tag k="name" v="Kupena" />
		<tag k="ssr:stedsnr" v="229986" />
	</node>
	<node lat="60.42061944360434" lon="5.529849998325231" id="-67012">
		<tag k="bridge" v="yes" />
		<tag k="layer" v="1" />
		<tag k="name" v="Holo" />
		<tag k="ssr:stedsnr" v="229993" />
	</node>
	<node lat="60.267786112924654" lon="5.251736111500508" id="-67013">
		<tag k="bridge" v="yes" />
		<tag k="layer" v="1" />
		<tag k="name" v="Aalandstraumen" />
		<tag k="ssr:stedsnr" v="229886" />
	</node>
	<node lat="60.36389166264409" lon="5.225422216316417" id="-67014">
		<tag k="bridge" v="yes" />
		<tag k="layer" v="1" />
		<tag k="name" v="Vadmyra" />
		<tag k="ssr:stedsnr" v="229890" />
	</node>
	<node lat="60.417722226416686" lon="5.468741668836031" id="-67015">
		<tag k="bridge" v="yes" />
		<tag k="layer" v="1" />
		<tag k="name" v="Storelva Viadukt" />
		<tag k="ssr:stedsnr" v="229893" />
	</node>
	<node lat="60.35913611217595" lon="5.301036103646736" id="-67016">
		<tag k="bridge" v="yes" />
		<tag k="layer" v="1" />
		<tag k="name" v="Sikthaugen" />
		<tag k="ssr:stedsnr" v="229896" />
	</node>
	<node lat="60.324355551631974" lon="5.518302774921055" id="-67107">
		<tag k="bridge" v="yes" />
		<tag k="layer" v="1" />
		<tag k="name" v="Samdal" />
		<tag k="ssr:stedsnr" v="290975" />
	</node>
	<node lat="60.37737500425467" lon="5.359161119687289" id="-67108">
		<tag k="bridge" v="yes" />
		<tag k="layer" v="1" />
		<tag k="name" v="Møllendalselva" />
		<tag k="ssr:stedsnr" v="290985" />
	</node>
	<node lat="60.45450833401795" lon="5.321641663344022" id="-67109">
		<tag k="bridge" v="yes" />
		<tag k="layer" v="1" />
		<tag k="name" v="Storbotn" />
		<tag k="ssr:stedsnr" v="290878" />
	</node>
	<node lat="60.38620277580469" lon="5.319777777005673" id="-67194">
		<tag k="layer" v="-1" />
		<tag k="name" v="Sydnes 2" />
		<tag k="ssr:stedsnr" v="469690" />
		<tag k="tunnel" v="yes" />
	</node>
	<node lat="60.344066665067594" lon="5.3036194424786105" id="-67195">
		<tag k="bridge" v="yes" />
		<tag k="layer" v="1" />
		<tag k="name" v="Renneberget" />
		<tag k="ssr:stedsnr" v="532979" />
	</node>
	<node lat="60.514405557764384" lon="5.31566667192855" id="-67196">
		<tag k="bridge" v="yes" />
		<tag k="layer" v="1" />
		<tag k="name" v="Sedalen" />
		<tag k="ssr:stedsnr" v="472896" />
	</node>
	<node lat="60.439938889272035" lon="5.325394445831903" id="-67197">
		<tag k="bridge" v="yes" />
		<tag k="layer" v="1" />
		<tag k="name" v="Selvik" />
		<tag k="ssr:stedsnr" v="472897" />
	</node>
	<node lat="60.462641667389825" lon="5.29553056120857" id="-67198">
		<tag k="bridge" v="yes" />
		<tag k="layer" v="1" />
		<tag k="name" v="Haukedalsbrotet" />
		<tag k="ssr:stedsnr" v="472990" />
	</node>
	<node lat="60.435638885517285" lon="5.318319444534763" id="-67199">
		<tag k="bridge" v="yes" />
		<tag k="layer" v="1" />
		<tag k="name" v="Eidsvågvegen" />
		<tag k="ssr:stedsnr" v="472932" />
	</node>
	<node lat="60.34781111235516" lon="5.413780554230877" id="-67200">
		<tag k="bridge" v="yes" />
		<tag k="layer" v="1" />
		<tag k="name" v="Grimsåsen" />
		<tag k="ssr:stedsnr" v="472993" />
	</node>
	<node lat="60.4355277734672" lon="5.451294449194145" id="-67201">
		<tag k="bridge" v="yes" />
		<tag k="layer" v="1" />
		<tag k="name" v="Hestfoi" />
		<tag k="ssr:stedsnr" v="473000" />
	</node>
	<node lat="60.42036756661825" lon="5.467940482339159" id="-67203">
		<tag k="name" v="Arna stasjon" />
		<tag k="railway" v="station" />
		<tag k="ssr:stedsnr" v="350932" />
		<tag k="train" v="yes" />
	</node>
	<node lat="60.22395000415004" lon="5.291102777126504" id="-67204">
		<tag k="amenity" v="ferry_terminal" />
		<tag k="name" v="Krokeide ferjekai" />
		<tag k="ssr:stedsnr" v="350976" />
	</node>
	<node lat="60.361086109072204" lon="5.4809055612318005" id="-67205">
		<tag k="bridge" v="yes" />
		<tag k="layer" v="1" />
		<tag k="name" v="Unneland" />
		<tag k="ssr:stedsnr" v="350872" />
	</node>
	<node lat="60.34010833738317" lon="5.248997216727599" id="-67329">
		<tag k="bridge" v="yes" />
		<tag k="layer" v="1" />
		<tag k="name" v="Sæleidet" />
		<tag k="ssr:stedsnr" v="411904" />
	</node>
	<node lat="60.45561666293964" lon="5.441202778914411" id="-67330">
		<tag k="bridge" v="yes" />
		<tag k="layer" v="1" />
		<tag k="name" v="Sandbrekkene" />
		<tag k="ssr:stedsnr" v="411905" />
	</node>
	<node lat="60.42371111442667" lon="5.626133333896473" id="-67331">
		<tag k="bridge" v="yes" />
		<tag k="layer" v="1" />
		<tag k="name" v="Vesterdalselva" />
		<tag k="ssr:stedsnr" v="411892" />
	</node>
	<node lat="60.46570277848976" lon="5.36552499417669" id="-67332">
		<tag k="bridge" v="yes" />
		<tag k="layer" v="1" />
		<tag k="name" v="Træsgrenda" />
		<tag k="ssr:stedsnr" v="411896" />
	</node>
	<node lat="60.427797217799075" lon="5.454936103446731" id="-67333">
		<tag k="bridge" v="yes" />
		<tag k="layer" v="1" />
		<tag k="name" v="Trollskaret" />
		<tag k="ssr:stedsnr" v="411898" />
	</node>
	<node lat="60.287191670281366" lon="5.293605546336397" id="-67334">
		<tag k="bridge" v="yes" />
		<tag k="layer" v="1" />
		<tag k="name" v="Klaslone" />
		<tag k="ssr:stedsnr" v="411988" />
	</node>
	<node lat="60.32093888520252" lon="5.513794443056866" id="-67335">
		<tag k="bridge" v="yes" />
		<tag k="layer" v="1" />
		<tag k="name" v="Håland" />
		<tag k="ssr:stedsnr" v="411991" />
	</node>
	<node lat="60.32580278083914" lon="5.296611111170493" id="-67336">
		<tag k="bridge" v="yes" />
		<tag k="layer" v="1" />
		<tag k="name" v="Kyrkjetangen" />
		<tag k="ssr:stedsnr" v="411995" />
	</node>
	<node lat="60.311405553229065" lon="5.265147224716986" id="-67509">
		<tag k="bridge" v="yes" />
		<tag k="layer" v="1" />
		<tag k="name" v="Dolvik" />
		<tag k="ssr:stedsnr" v="472947" />
	</node>
	<node lat="60.41334444605718" lon="5.4669611025274" id="-67510">
		<tag k="bridge" v="yes" />
		<tag k="layer" v="1" />
		<tag k="name" v="Mjeldheim" />
		<tag k="ssr:stedsnr" v="472971" />
	</node>
	<node lat="60.4355444431015" lon="5.318383336699187" id="-67625">
		<tag k="bridge" v="yes" />
		<tag k="layer" v="1" />
		<tag k="name" v="Eidsvågvegen" />
		<tag k="ssr:stedsnr" v="532928" />
	</node>
	<node lat="60.3055222188654" lon="5.497530557900978" id="-67626">
		<tag k="bridge" v="yes" />
		<tag k="layer" v="1" />
		<tag k="name" v="Fjelltveit" />
		<tag k="ssr:stedsnr" v="532932" />
	</node>
	<node lat="60.46368610825623" lon="5.327641658655619" id="-67627">
		<tag k="bridge" v="yes" />
		<tag k="layer" v="1" />
		<tag k="name" v="Åsligrenda" />
		<tag k="ssr:stedsnr" v="532883" />
	</node>
	<node lat="60.34747777518472" lon="5.281022225833519" id="-67628">
		<tag k="bridge" v="yes" />
		<tag k="layer" v="1" />
		<tag k="name" v="Sælsand" />
		<tag k="ssr:stedsnr" v="532887" />
	</node>
	<node lat="60.51589999686737" lon="5.284863880699509" id="-67629">
		<tag k="bridge" v="yes" />
		<tag k="layer" v="1" />
		<tag k="name" v="Tellevikvegen" />
		<tag k="ssr:stedsnr" v="532890" />
	</node>
	<node lat="60.38245277630635" lon="5.465588893589648" id="-67630">
		<tag k="bridge" v="yes" />
		<tag k="layer" v="1" />
		<tag k="name" v="Otterkleiv" />
		<tag k="ssr:stedsnr" v="532972" />
	</node>
	<node lat="60.3419277761918" lon="5.274347224654972" id="-67631">
		<tag k="bridge" v="yes" />
		<tag k="layer" v="1" />
		<tag k="name" v="Vestre Sælen" />
		<tag k="ssr:stedsnr" v="533907" />
	</node>
	<node lat="60.23570555872474" lon="5.362824998058785" id="-67632">
		<tag k="bridge" v="yes" />
		<tag k="layer" v="1" />
		<tag k="name" v="Nordvik" />
		<tag k="ssr:stedsnr" v="533974" />
	</node>
	<node lat="60.38781944630718" lon="5.311088895762958" id="-67844">
		<tag k="man_made" v="quay" />
		<tag k="name" v="Dokkeskjærskaien" />
		<tag k="place" v="locality" />
		<tag k="ssr:stedsnr" v="571422" />
	</node>
	<node lat="60.398094447389816" lon="5.318972216466091" id="-67846">
		<tag k="man_made" v="quay" />
		<tag k="name" v="Bradbenken" />
		<tag k="place" v="locality" />
		<tag k="ssr:stedsnr" v="696049" />
	</node>
	<node lat="60.351674998342176" lon="5.435816671765952" id="-67847">
		<tag k="bridge" v="yes" />
		<tag k="layer" v="1" />
		<tag k="loc_name" v="Søylesundsbrua" />
		<tag k="name" v="Søylen Sundsbrua" />
		<tag k="ssr:stedsnr" v="593870" />
	</node>
	<node lat="60.498422219374014" lon="5.263222224281714" id="-67848">
		<tag k="bridge" v="yes" />
		<tag k="layer" v="1" />
		<tag k="name" v="Ranten" />
		<tag k="ssr:stedsnr" v="593966" />
	</node>
	<node lat="60.43308889129378" lon="5.4517222245676145" id="-67939">
		<tag k="bridge" v="yes" />
		<tag k="layer" v="1" />
		<tag k="name" v="Stokkebakken" />
		<tag k="ssr:stedsnr" v="654908" />
	</node>
	<node lat="60.32767777431011" lon="5.36266666439981" id="-67940">
		<tag k="bridge" v="yes" />
		<tag k="layer" v="1" />
		<tag k="name" v="Sandal" />
		<tag k="ssr:stedsnr" v="654911" />
	</node>
	<node lat="60.48713610933924" lon="5.259613892813752" id="-67941">
		<tag k="bridge" v="yes" />
		<tag k="layer" v="1" />
		<tag k="name" v="Slettestølen" />
		<tag k="ssr:stedsnr" v="654916" />
	</node>
	<node lat="60.26476388516741" lon="5.312311107975904" id="-67942">
		<tag k="bridge" v="yes" />
		<tag k="layer" v="1" />
		<tag k="name" v="Møllen" />
		<tag k="ssr:stedsnr" v="654985" />
	</node>
	<node lat="60.38318889138767" lon="5.365411113554245" id="-67946">
		<tag k="landuse" v="industrial" />
		<tag k="name" v="Lappen" />
		<tag k="power" v="plant" />
		<tag k="ssr:stedsnr" v="672729" />
	</node>
	<node lat="60.38603100329717" lon="5.320225032949972" id="-68027">
		<tag k="layer" v="-1" />
		<tag k="name" v="Nygårdstunnelen" />
		<tag k="old_name" v="Nygård" />
		<tag k="ssr:stedsnr" v="894398" />
		<tag k="tunnel" v="yes" />
	</node>
	<node lat="60.37821111032545" lon="5.336477776231958" id="-68029">
		<tag k="bridge" v="yes" />
		<tag k="layer" v="1" />
		<tag k="name" v="Danmarksplass Viadukt" />
		<tag k="ssr:stedsnr" v="896792" />
	</node>
	<node lat="60.26269166386772" lon="5.348499994211216" id="-68030">
		<tag k="bridge" v="yes" />
		<tag k="layer" v="1" />
		<tag k="name" v="Fana" />
		<tag k="ssr:stedsnr" v="897927" />
	</node>
	<node lat="60.29852777860712" lon="5.325697227327255" id="-68031">
		<tag k="bridge" v="yes" />
		<tag k="layer" v="1" />
		<tag k="name" v="Gjerdsmyrane" />
		<tag k="ssr:stedsnr" v="897934" />
	</node>
	<node lat="60.41890555331614" lon="5.456813887414296" id="-68032">
		<tag k="bridge" v="yes" />
		<tag k="layer" v="1" />
		<tag k="name" v="Bjørtveit" />
		<tag k="ssr:stedsnr" v="897938" />
	</node>
	<node lat="60.301250000108055" lon="5.304672230025375" id="-68033">
		<tag k="bridge" v="yes" />
		<tag k="layer" v="1" />
		<tag k="name" v="Dortledhaugen" />
		<tag k="ssr:stedsnr" v="897939" />
	</node>
	<node lat="60.42415555942388" lon="5.304586107386652" id="-68034">
		<tag k="bridge" v="yes" />
		<tag k="layer" v="1" />
		<tag k="name" v="Øyjordkrysset Høyre" />
		<tag k="ssr:stedsnr" v="897857" />
	</node>
	<node lat="60.49361666475859" lon="5.262841661148809" id="-68035">
		<tag k="bridge" v="yes" />
		<tag k="layer" v="1" />
		<tag k="name" v="Nordgard" />
		<tag k="ssr:stedsnr" v="897974" />
	</node>
	<node lat="60.29921666817826" lon="5.300649997776302" id="-68036">
		<tag k="bridge" v="yes" />
		<tag k="layer" v="1" />
		<tag k="name" v="Indre Steinsvik" />
		<tag k="ssr:stedsnr" v="897985" />
	</node>
	<node lat="60.45970862704307" lon="5.4285360805697005" id="-68038">
		<tag k="layer" v="-1" />
		<tag k="name" v="Sætretunnelen" />
		<tag k="old_name" v="Sætre" />
		<tag k="ssr:stedsnr" v="711682" />
		<tag k="tunnel" v="yes" />
	</node>
	<node lat="60.38941389325586" lon="5.321977783869621" id="-68039">
		<tag k="layer" v="-1" />
		<tag k="name" v="Sydnes 1" />
		<tag k="ssr:stedsnr" v="711697" />
		<tag k="tunnel" v="yes" />
	</node>
	<node lat="60.33344166568673" lon="5.2661499975738115" id="-68040">
		<tag k="bridge" v="yes" />
		<tag k="layer" v="1" />
		<tag k="name" v="Sandeidet" />
		<tag k="ssr:stedsnr" v="715908" />
	</node>
	<node lat="60.34568055530815" lon="5.339019446708342" id="-68041">
		<tag k="bridge" v="yes" />
		<tag k="layer" v="1" />
		<tag k="name" v="Fjøsanger" />
		<tag k="ssr:stedsnr" v="715933" />
	</node>
	<node lat="60.29225555249787" lon="5.222133326673833" id="-68054">
		<tag k="aeroway" v="aerodrome" />
		<tag k="alt_name" v="Flesland" />
		<tag k="name" v="Bergen lufthavn, Flesland" />
		<tag k="old_name" v="Bergen lufthavn" />
		<tag k="ssr:stedsnr" v="733820" />
	</node>
	<node lat="60.39277777523337" lon="5.472427771734604" id="-68140">
		<tag k="bridge" v="yes" />
		<tag k="layer" v="1" />
		<tag k="name" v="Bufloten" />
		<tag k="ssr:stedsnr" v="775955" />
	</node>
	<node lat="60.40833055997047" lon="5.475169451134147" id="-68248">
		<tag k="bridge" v="yes" />
		<tag k="layer" v="1" />
		<tag k="name" v="Nordre Arnatveit" />
		<tag k="ssr:stedsnr" v="836976" />
	</node>
	<node lat="60.229136113612356" lon="5.367863890811535" id="-68249">
		<tag k="bridge" v="yes" />
		<tag k="layer" v="1" />
		<tag k="name" v="Sagstad" />
		<tag k="ssr:stedsnr" v="836978" />
	</node>
	<node lat="60.32139444030281" lon="5.351241666294267" id="-68250">
		<tag k="bridge" v="yes" />
		<tag k="layer" v="1" />
		<tag k="name" v="Nesttunhalsen" />
		<tag k="ssr:stedsnr" v="836986" />
	</node>
	<node lat="60.427317097065" lon="5.3047483126404" id="-68480">
		<tag k="alt_name" v="Eidsvåg 1;Eidsvåg 2" />
		<tag k="layer" v="-1" />
		<tag k="loc_name" v="Eidsvågstunnelen" />
		<tag k="name" v="Eidsvågtunnelen" />
		<tag k="ssr:stedsnr" v="894454" />
		<tag k="tunnel" v="yes" />
	</node>
	<node lat="60.378133333583506" lon="5.518205548613887" id="-68481">
		<tag k="bridge" v="yes" />
		<tag k="layer" v="1" />
		<tag k="name" v="Osavatn" />
		<tag k="ssr:stedsnr" v="897959" />
	</node>
	<node lat="60.463441665900135" lon="5.315569444079703" id="-68482">
		<tag k="bridge" v="yes" />
		<tag k="layer" v="1" />
		<tag k="name" v="Midtkleiva" />
		<tag k="ssr:stedsnr" v="897966" />
	</node>
	<node lat="60.40079722324282" lon="5.468272219765223" id="-68483">
		<tag k="bridge" v="yes" />
		<tag k="layer" v="1" />
		<tag k="name" v="Løvås" />
		<tag k="ssr:stedsnr" v="897969" />
	</node>
	<node lat="60.39704999946267" lon="5.315966675097009" id="-68580">
		<tag k="man_made" v="quay" />
		<tag k="name" v="Munkebryggen" />
		<tag k="place" v="locality" />
		<tag k="ssr:stedsnr" v="938038" />
	</node>
	<node lat="60.39773055926138" lon="5.31356388343266" id="-68581">
		<tag k="man_made" v="quay" />
		<tag k="name" v="Nykirkekaien" />
		<tag k="place" v="locality" />
		<tag k="ssr:stedsnr" v="938041" />
	</node>
	<node lat="60.35574166696566" lon="5.350183324994452" id="-68582">
		<tag k="bridge" v="yes" />
		<tag k="layer" v="1" />
		<tag k="name" v="Elvebakken" />
		<tag k="ssr:stedsnr" v="957937" />
	</node>
	<node lat="60.29901666519083" lon="5.315380560847915" id="-68583">
		<tag k="bridge" v="yes" />
		<tag k="layer" v="1" />
		<tag k="name" v="Folldalen" />
		<tag k="ssr:stedsnr" v="957942" />
	</node>
	<node lat="60.32504444234996" lon="5.292933337998875" id="-68584">
		<tag k="bridge" v="yes" />
		<tag k="layer" v="1" />
		<tag k="name" v="Bønes" />
		<tag k="ssr:stedsnr" v="957947" />
	</node>
	<node lat="60.317544448249166" lon="5.363511105531995" id="-68585">
		<tag k="bridge" v="yes" />
		<tag k="layer" v="1" />
		<tag k="name" v="Langa" />
		<tag k="ssr:stedsnr" v="957989" />
	</node>
	<node lat="60.44749722508286" lon="5.447124999323748" id="-68586">
		<tag k="bridge" v="yes" />
		<tag k="layer" v="1" />
		<tag k="name" v="Kvamstø" />
		<tag k="ssr:stedsnr" v="957991" />
	</node>
	<node lat="60.31054444404424" lon="5.330808329256291" id="-68587">
		<tag k="bridge" v="yes" />
		<tag k="layer" v="1" />
		<tag k="name" v="Harald Skjoldsveg" />
		<tag k="ssr:stedsnr" v="957992" />
	</node>
	<node lat="60.38164722523634" lon="5.269302776426892" id="-68588">
		<tag k="bridge" v="yes" />
		<tag k="layer" v="1" />
		<tag k="name" v="Gravdalspollen" />
		<tag k="ssr:stedsnr" v="957996" />
	</node>
	<node lat="60.32791944077501" lon="5.34214722992929" id="-68590">
		<tag k="bridge" v="yes" />
		<tag k="layer" v="1" />
		<tag k="name" v="Hopsvannet" />
		<tag k="ssr:stedsnr" v="957999" />
	</node>
	<node lat="60.49035416972312" lon="5.399728617249515" id="-68600">
		<tag k="amenity" v="ferry_terminal" />
		<tag k="name" v="Breistein ferjekai" />
		<tag k="ssr:stedsnr" v="978594" />
	</node>
	<node lat="60.256128340797986" lon="5.240150013544618" id="-68601">
		<tag k="amenity" v="ferry_terminal" />
		<tag k="name" v="Hjellestad ferjekai" />
		<tag k="ssr:stedsnr" v="978603" />
	</node>
	<node lat="60.392330901136276" lon="5.312978364554091" id="-68616">
		<tag k="man_made" v="quay" />
		<tag k="name" v="Nøsteutstikkeren" />
		<tag k="place" v="locality" />
		<tag k="ssr:stedsnr" v="991149" />
	</node>
	<node lat="60.392509039092715" lon="5.314094051992227" id="-68617">
		<tag k="man_made" v="quay" />
		<tag k="name" v="Sukkerhusbryggen" />
		<tag k="place" v="locality" />
		<tag k="ssr:stedsnr" v="991150" />
	</node>
	<node lat="60.3937076916693" lon="5.31129634335303" id="-68618">
		<tag k="man_made" v="quay" />
		<tag k="name" v="Nøstekaien" />
		<tag k="place" v="locality" />
		<tag k="ssr:stedsnr" v="991155" />
	</node>
	<node lat="60.34247222079761" lon="5.269219441369952" id="-68754">
		<tag k="bridge" v="yes" />
		<tag k="layer" v="1" />
		<tag k="name" v="Hesjaholtet" />
		<tag k="ssr:stedsnr" v="47997" />
	</node>
	<node lat="60.30386388498733" lon="5.285041661895884" id="-68755">
		<tag k="bridge" v="yes" />
		<tag k="layer" v="1" />
		<tag k="name" v="Saksarhaugen" />
		<tag k="ssr:stedsnr" v="47974" />
	</node>
	<node lat="60.353930554863595" lon="5.290894449822115" id="-68756">
		<tag k="bridge" v="yes" />
		<tag k="layer" v="1" />
		<tag k="name" v="Løvås Skole" />
		<tag k="ssr:stedsnr" v="47980" />
	</node>
	<node lat="60.46940833104281" lon="5.27808054881872" id="-68757">
		<tag k="bridge" v="yes" />
		<tag k="layer" v="1" />
		<tag k="name" v="Morvik" />
		<tag k="ssr:stedsnr" v="47984" />
	</node>
	<node lat="60.46756388482858" lon="5.360644451807448" id="-68758">
		<tag k="bridge" v="yes" />
		<tag k="layer" v="1" />
		<tag k="name" v="Flaktveit" />
		<tag k="ssr:stedsnr" v="47941" />
	</node>
	<node lat="60.379106763162746" lon="5.33582358142088" id="-68759">
		<tag k="alt_name" v="Nygårds bru;Nygårdsbru" />
		<tag k="bridge" v="yes" />
		<tag k="layer" v="1" />
		<tag k="name" v="Nygårdsbroen" />
		<tag k="ssr:stedsnr" v="47967" />
	</node>
	<node lat="60.399574998136366" lon="5.311702782849395" id="-68905">
		<tag k="man_made" v="quay" />
		<tag k="name" v="Tollbodkaiene" />
		<tag k="place" v="locality" />
		<tag k="ssr:stedsnr" v="89051" />
	</node>
	<node lat="60.44050477942153" lon="5.325734244305377" id="-68909">
		<tag k="alt_name" v="Selvik 1;Selvik 2" />
		<tag k="layer" v="-1" />
		<tag k="name" v="Selviktunnelen" />
		<tag k="ssr:stedsnr" v="105754" />
		<tag k="tunnel" v="yes" />
	</node>
	<node lat="60.445520304330564" lon="5.325834240635034" id="-68910">
		<tag k="alt_name" v="Glaskar 2" />
		<tag k="layer" v="-1" />
		<tag k="loc_name" v="Glaskartunnelen;Glasskartunnelen" />
		<tag k="name" v="Glaskar 1" />
		<tag k="ssr:stedsnr" v="105462" />
		<tag k="tunnel" v="yes" />
	</node>
	<node lat="60.34676944150639" lon="5.337344437785804" id="-68911">
		<tag k="bridge" v="yes" />
		<tag k="layer" v="1" />
		<tag k="name" v="Fjøsanger Miljølokk" />
		<tag k="ssr:stedsnr" v="107777" />
	</node>
	<node lat="60.40682777767493" lon="5.47541388637991" id="-68912">
		<tag k="bridge" v="yes" />
		<tag k="layer" v="1" />
		<tag k="name" v="Søre Arnatveit" />
		<tag k="ssr:stedsnr" v="108888" />
	</node>
	<node lat="60.40979166592006" lon="5.467336114094214" id="-68913">
		<tag k="bridge" v="yes" />
		<tag k="layer" v="1" />
		<tag k="name" v="Høgheim" />
		<tag k="ssr:stedsnr" v="108984" />
	</node>
	<node lat="60.42902163258536" lon="5.624273229318696" id="-68923">
		<tag k="name" v="Trengereid stasjon" />
		<tag k="railway" v="station" />
		<tag k="ssr:stedsnr" v="126036" />
		<tag k="train" v="yes" />
	</node>
	<node lat="60.46360277445892" lon="5.365383334750123" id="-69078">
		<tag k="bridge" v="yes" />
		<tag k="layer" v="1" />
		<tag k="name" v="Ulvhøyen" />
		<tag k="ssr:stedsnr" v="168894" />
	</node>
	<node lat="60.41891111138019" lon="5.45675833546791" id="-69079">
		<tag k="bridge" v="yes" />
		<tag k="layer" v="1" />
		<tag k="name" v="Mjeldheim" />
		<tag k="ssr:stedsnr" v="168975" />
	</node>
	<node lat="60.3703305565691" lon="5.231752785302877" id="-69080">
		<tag k="bridge" v="yes" />
		<tag k="layer" v="1" />
		<tag k="name" v="Loddefjord" />
		<tag k="ssr:stedsnr" v="168980" />
	</node>
	<node lat="60.51307221936441" lon="5.335019438398721" id="-69081">
		<tag k="bridge" v="yes" />
		<tag k="layer" v="1" />
		<tag k="name" v="Langemyrane" />
		<tag k="ssr:stedsnr" v="168989" />
	</node>
	<node lat="60.37552777936832" lon="5.255286105063884" id="-69082">
		<tag k="bridge" v="yes" />
		<tag k="layer" v="1" />
		<tag k="name" v="Lianakk Mot Sentrum" />
		<tag k="ssr:stedsnr" v="168990" />
	</node>
	<node lat="60.3047666698348" lon="5.2818166609174435" id="-69083">
		<tag k="bridge" v="yes" />
		<tag k="layer" v="1" />
		<tag k="name" v="Gosen" />
		<tag k="ssr:stedsnr" v="168997" />
	</node>
	<node lat="60.513261968349426" lon="5.292843716974524" id="-69237">
		<tag k="layer" v="-1" />
		<tag k="name" v="Hordviktunnelen" />
		<tag k="old_name" v="Hordvik" />
		<tag k="ssr:stedsnr" v="287546" />
		<tag k="tunnel" v="yes" />
	</node>
	<node lat="60.45586944752336" lon="5.299897226498129" id="-69238">
		<tag k="bridge" v="yes" />
		<tag k="layer" v="1" />
		<tag k="name" v="Tertnes Viadukt" />
		<tag k="ssr:stedsnr" v="290866" />
	</node>
	<node lat="60.46206389086232" lon="5.330563892436617" id="-69239">
		<tag k="bridge" v="yes" />
		<tag k="layer" v="1" />
		<tag k="name" v="Barkaleitet" />
		<tag k="ssr:stedsnr" v="290937" />
	</node>
	<node lat="60.3894750034845" lon="5.330952782313985" id="-69240">
		<tag k="bridge" v="yes" />
		<tag k="layer" v="1" />
		<tag k="name" v="Busstasjonen" />
		<tag k="ssr:stedsnr" v="290944" />
	</node>
	<node lat="60.34089166535838" lon="5.298966666616288" id="-69241">
		<tag k="bridge" v="yes" />
		<tag k="layer" v="1" />
		<tag k="name" v="Bråtet" />
		<tag k="ssr:stedsnr" v="290946" />
	</node>
	<node lat="60.38902500427386" lon="5.339872113965214" id="-69356">
		<tag k="alt_name" v="Fløyfjell 1;Fløyfjell 2" />
		<tag k="layer" v="-1" />
		<tag k="loc_name" v="Fløyfjellstunnelen" />
		<tag k="name" v="Fløyfjelltunnelen" />
		<tag k="ssr:stedsnr" v="324347" />
		<tag k="tunnel" v="yes" />
	</node>
	<node lat="60.40356817670219" lon="5.32135600573245" id="-69404">
		<tag k="layer" v="-1" />
		<tag k="loc_name" v="Rotthaugstunnelen" />
		<tag k="name" v="Rothaugen" />
		<tag k="ssr:stedsnr" v="347386" />
		<tag k="tunnel" v="yes" />
	</node>
	<node lat="60.328877626517745" lon="5.345634673375629" id="-69406">
		<tag k="bridge" v="yes" />
		<tag k="layer" v="1" />
		<tag k="name" v="Hopsbrua" />
		<tag k="ssr:stedsnr" v="350994" />
	</node>
	<node lat="60.400288669640396" lon="5.211000728103116" id="-69564">
		<tag k="bridge" v="yes" />
		<tag k="layer" v="1" />
		<tag k="name" v="Askøybrua" />
		<tag k="ssr:stedsnr" v="390250" />
	</node>
	<node lat="60.39507777945929" lon="5.32200277842915" id="-69566">
		<tag k="man_made" v="quay" />
		<tag k="name" v="Strandkaien" />
		<tag k="place" v="locality" />
		<tag k="ssr:stedsnr" v="392053" />
	</node>
	<node lat="60.32716944297019" lon="5.3049583415756985" id="-69569">
		<tag k="bridge" v="yes" />
		<tag k="layer" v="1" />
		<tag k="name" v="Roggesveg" />
		<tag k="ssr:stedsnr" v="411969" />
	</node>
	<node lat="60.421124997635374" lon="5.4609861149619565" id="-69570">
		<tag k="bridge" v="yes" />
		<tag k="layer" v="1" />
		<tag k="name" v="Rollandsnausti" />
		<tag k="ssr:stedsnr" v="411970" />
	</node>
	<node lat="60.3172194442962" lon="5.364119438729971" id="-69571">
		<tag k="bridge" v="yes" />
		<tag k="layer" v="1" />
		<tag k="name" v="Midttun" />
		<tag k="ssr:stedsnr" v="411974" />
	</node>
	<node lat="60.49470934340334" lon="5.262876870821116" id="-69845">
		<tag k="alt_name" v="Ranten" />
		<tag k="layer" v="-1" />
		<tag k="name" v="Rantentunnelen" />
		<tag k="ssr:stedsnr" v="529373" />
		<tag k="tunnel" v="yes" />
	</node>
	<node lat="60.348447217816386" lon="5.337263883925331" id="-69847">
		<tag k="bridge" v="yes" />
		<tag k="layer" v="1" />
		<tag k="name" v="Fjøsanger Miljølokk" />
		<tag k="ssr:stedsnr" v="532756" />
	</node>
	<node lat="60.37256751326128" lon="5.157453805014565" id="-69848">
		<tag k="bridge" v="yes" />
		<tag k="layer" v="1" />
		<tag k="name" v="Sotrabrua" />
		<tag k="ssr:stedsnr" v="532812" />
	</node>
	<node lat="60.46434166710386" lon="5.303169449919696" id="-69849">
		<tag k="bridge" v="yes" />
		<tag k="layer" v="1" />
		<tag k="name" v="Fossekleiva" />
		<tag k="ssr:stedsnr" v="532936" />
	</node>
	<node lat="60.506133336284414" lon="5.353227781968525" id="-69850">
		<tag k="bridge" v="yes" />
		<tag k="layer" v="1" />
		<tag k="name" v="Hylkje" />
		<tag k="ssr:stedsnr" v="532986" />
	</node>
	<node lat="60.29689721819512" lon="5.322574997320357" id="-69851">
		<tag k="bridge" v="yes" />
		<tag k="layer" v="1" />
		<tag k="name" v="Litle Holtan" />
		<tag k="ssr:stedsnr" v="532991" />
	</node>
	<node lat="60.442147226292825" lon="5.451052783781957" id="-69852">
		<tag k="bridge" v="yes" />
		<tag k="layer" v="1" />
		<tag k="name" v="Hovle" />
		<tag k="ssr:stedsnr" v="532997" />
	</node>
	<node lat="60.42259679739958" lon="5.5378734661430595" id="-69972">
		<tag k="bridge" v="yes" />
		<tag k="layer" v="1" />
		<tag k="name" v="Osterøybrua" />
		<tag k="ssr:stedsnr" v="570470" />
	</node>
	<node lat="60.453801169928255" lon="5.4436220548789205" id="-69976">
		<tag k="alt_name" v="Bjørkhaug" />
		<tag k="layer" v="-1" />
		<tag k="name" v="Bjørkhaugtunnelen" />
		<tag k="ssr:stedsnr" v="590138" />
		<tag k="tunnel" v="yes" />
	</node>
	<node lat="60.435316665877885" lon="5.317136109121681" id="-69979">
		<tag k="bridge" v="yes" />
		<tag k="layer" v="1" />
		<tag k="name" v="Eidsvågbakken" />
		<tag k="ssr:stedsnr" v="593919" />
	</node>
	<node lat="60.370944443701894" lon="5.347655551855537" id="-69980">
		<tag k="bridge" v="yes" />
		<tag k="layer" v="1" />
		<tag k="name" v="Kronstad" />
		<tag k="ssr:stedsnr" v="593981" />
	</node>
	<node lat="60.401374996032345" lon="5.311425003395925" id="-70121">
		<tag k="man_made" v="quay" />
		<tag k="name" v="Skoltegrunnskaien" />
		<tag k="place" v="locality" />
		<tag k="ssr:stedsnr" v="634041" />
	</node>
	<node lat="60.31904917474804" lon="5.333207130602241" id="-70129">
		<tag k="layer" v="-1" />
		<tag k="name" v="Troldhaugtunnelen" />
		<tag k="old_name" v="Troldhaug" />
		<tag k="ssr:stedsnr" v="650667" />
		<tag k="tunnel" v="yes" />
	</node>
	<node lat="60.424138887954896" lon="5.304591674073499" id="-70130">
		<tag k="bridge" v="yes" />
		<tag k="layer" v="1" />
		<tag k="name" v="Øyjordkrysset Venstre" />
		<tag k="ssr:stedsnr" v="654895" />
	</node>
	<node lat="60.3826499973672" lon="5.314391670495728" id="-70131">
		<tag k="bridge" v="yes" />
		<tag k="layer" v="1" />
		<tag k="name" v="Gyldenpris" />
		<tag k="ssr:stedsnr" v="654994" />
	</node>
	<node lat="60.4210472186407" lon="5.531774993563197" id="-70132">
		<tag k="bridge" v="yes" />
		<tag k="layer" v="1" />
		<tag k="name" v="Holagjel" />
		<tag k="ssr:stedsnr" v="654999" />
	</node>
	<node lat="60.360744443164585" lon="5.234355552051645" id="-70133">
		<tag k="bridge" v="yes" />
		<tag k="layer" v="1" />
		<tag k="name" v="Bjørndalspollen" />
		<tag k="ssr:stedsnr" v="654959" />
	</node>
	<node lat="60.31068888970716" lon="5.381574998106347" id="-70134">
		<tag k="bridge" v="yes" />
		<tag k="layer" v="1" />
		<tag k="name" v="Myrdal" />
		<tag k="ssr:stedsnr" v="715980" />
	</node>
	<node lat="60.371205553088856" lon="5.2030777816150815" id="-70135">
		<tag k="bridge" v="yes" />
		<tag k="layer" v="1" />
		<tag k="name" v="Kipledalen" />
		<tag k="ssr:stedsnr" v="715983" />
	</node>
	<node lat="60.462166666363274" lon="5.28096389294817" id="-70136">
		<tag k="bridge" v="yes" />
		<tag k="layer" v="1" />
		<tag k="name" v="Kvernevik" />
		<tag k="ssr:stedsnr" v="715994" />
	</node>
	<node lat="60.357644442015385" lon="5.35812221785809" id="-70137">
		<tag k="bridge" v="yes" />
		<tag k="layer" v="1" />
		<tag k="name" v="Tveitevatnet" />
		<tag k="ssr:stedsnr" v="715896" />
	</node>
	<node lat="60.30102777761906" lon="5.330802772574094" id="-70138">
		<tag k="bridge" v="yes" />
		<tag k="layer" v="1" />
		<tag k="name" v="Sørås" />
		<tag k="ssr:stedsnr" v="715900" />
	</node>
	<node lat="60.422108329918515" lon="5.54847221803525" id="-70139">
		<tag k="bridge" v="yes" />
		<tag k="layer" v="1" />
		<tag k="name" v="Songstad" />
		<tag k="ssr:stedsnr" v="715902" />
	</node>
	<node lat="60.38038055282427" lon="5.269061113989833" id="-70289">
		<tag k="bridge" v="yes" />
		<tag k="layer" v="1" />
		<tag k="name" v="Lyngbøvannet" />
		<tag k="ssr:stedsnr" v="775978" />
	</node>
	<node lat="60.264672218955496" lon="5.351205557380167" id="-70290">
		<tag k="bridge" v="yes" />
		<tag k="layer" v="1" />
		<tag k="name" v="Nordheim" />
		<tag k="ssr:stedsnr" v="775980" />
	</node>
	<node lat="60.33930555691221" lon="5.395080552265583" id="-70291">
		<tag k="bridge" v="yes" />
		<tag k="layer" v="1" />
		<tag k="name" v="Helldal" />
		<tag k="ssr:stedsnr" v="775994" />
	</node>
	<node lat="60.347261113149806" lon="5.28165276994994" id="-70292">
		<tag k="bridge" v="yes" />
		<tag k="layer" v="1" />
		<tag k="name" v="Sælen" />
		<tag k="ssr:stedsnr" v="775887" />
	</node>
	<node lat="60.51640277541737" lon="5.283594452649742" id="-70293">
		<tag k="bridge" v="yes" />
		<tag k="layer" v="1" />
		<tag k="name" v="Tellevik" />
		<tag k="ssr:stedsnr" v="775891" />
	</node>
	<node lat="60.39361965943755" lon="5.319540550785303" id="-70294">
		<tag k="alt_name" v="Smørsbru" />
		<tag k="bridge" v="yes" />
		<tag k="layer" v="1" />
		<tag k="loc_name" v="Smørsbroen" />
		<tag k="name" v="Smørs bru" />
		<tag k="ssr:stedsnr" v="775899" />
	</node>
	<node lat="60.39429166956137" lon="5.471341662445992" id="-70295">
		<tag k="bridge" v="yes" />
		<tag k="layer" v="1" />
		<tag k="name" v="Espeland" />
		<tag k="ssr:stedsnr" v="775941" />
	</node>
	<node lat="60.35873888771898" lon="5.239655547764484" id="-70296">
		<tag k="bridge" v="yes" />
		<tag k="layer" v="1" />
		<tag k="name" v="Bjørndalen" />
		<tag k="ssr:stedsnr" v="775944" />
	</node>
	<node lat="60.45774721942699" lon="5.329680563283165" id="-70297">
		<tag k="bridge" v="yes" />
		<tag k="layer" v="1" />
		<tag k="name" v="Bruskedalsreset" />
		<tag k="ssr:stedsnr" v="775947" />
	</node>
	<node lat="60.31786743532125" lon="5.345470490725085" id="-70471">
		<tag k="layer" v="-1" />
		<tag k="name" v="Nesttuntunnelen" />
		<tag k="old_name" v="Nesttun" />
		<tag k="ssr:stedsnr" v="833360" />
		<tag k="tunnel" v="yes" />
	</node>
	<node lat="60.351694440500076" lon="5.441197230677051" id="-70473">
		<tag k="bridge" v="yes" />
		<tag k="layer" v="1" />
		<tag k="name" v="Forredalselv" />
		<tag k="ssr:stedsnr" v="836944" />
	</node>
	<node lat="60.42645277673141" lon="5.469749992941181" id="-70474">
		<tag k="bridge" v="yes" />
		<tag k="layer" v="1" />
		<tag k="name" v="Arna" />
		<tag k="ssr:stedsnr" v="836947" />
	</node>
	<node lat="60.3885055591255" lon="5.437141670644471" id="-70475">
		<tag k="bridge" v="yes" />
		<tag k="layer" v="1" />
		<tag k="name" v="Borge" />
		<tag k="ssr:stedsnr" v="836950" />
	</node>
	<node lat="60.30000000295134" lon="5.310422223646114" id="-70476">
		<tag k="bridge" v="yes" />
		<tag k="layer" v="1" />
		<tag k="name" v="Thunesflaten" />
		<tag k="ssr:stedsnr" v="836898" />
	</node>
	<node lat="60.51585833371497" lon="5.284658328887701" id="-70477">
		<tag k="bridge" v="yes" />
		<tag k="layer" v="1" />
		<tag k="name" v="Tellevikvegen" />
		<tag k="ssr:stedsnr" v="836902" />
	</node>
	<node lat="60.29220555177682" lon="5.432858339829633" id="-70478">
		<tag k="bridge" v="yes" />
		<tag k="layer" v="1" />
		<tag k="name" v="Henneli" />
		<tag k="ssr:stedsnr" v="837000" />
	</node>
	<node lat="60.417701453371826" lon="5.469247909074809" id="-70627">
		<tag k="alt_name" v="Arnanipa" />
		<tag k="layer" v="-1" />
		<tag k="loc_name" v="Arnanipatunnelen" />
		<tag k="name" v="Ådnanipatunnelen" />
		<tag k="ssr:stedsnr" v="936986" />
		<tag k="tunnel" v="yes" />
	</node>
	<node lat="60.41989167109267" lon="5.524358333994012" id="-70633">
		<tag k="bridge" v="yes" />
		<tag k="layer" v="1" />
		<tag k="name" v="Stasjonsvegen" />
		<tag k="ssr:stedsnr" v="957891" />
	</node>
	<node lat="60.38443888768429" lon="5.303511107532209" id="-70634">
		<tag k="bridge" v="yes" />
		<tag k="layer" v="1" />
		<tag k="name" v="Alleen" />
		<tag k="ssr:stedsnr" v="957960" />
	</node>
	<node lat="60.37655650226811" lon="5.3387959816252355" id="-70635">
		<tag k="junction" v="yes" />
		<tag k="name" v="Danmarks plass" />
		<tag k="place" v="locality" />
		<tag k="ssr:stedsnr" v="971363" />
	</node>
	<node lat="60.39041453994923" lon="5.333075858093272" id="-70636">
		<tag k="alt_name" v="Bergen jernbanestasjon" />
		<tag k="name" v="Bergen stasjon" />
		<tag k="railway" v="station" />
		<tag k="ssr:stedsnr" v="973420" />
		<tag k="train" v="yes" />
	</node>
	<node lat="60.399830873268144" lon="5.3113717686311945" id="-70657">
		<tag k="man_made" v="quay" />
		<tag k="name" v="Nordre Tollbodkai" />
		<tag k="place" v="locality" />
		<tag k="ssr:stedsnr" v="991156" />
	</node>
	<node lat="60.39916762881248" lon="5.312807756784663" id="-70658">
		<tag k="man_made" v="quay" />
		<tag k="name" v="Søndre Tollbodkai" />
		<tag k="place" v="locality" />
		<tag k="ssr:stedsnr" v="991157" />
	</node>
	<node lat="60.396916118977224" lon="5.31746378861651" id="-70659">
		<tag k="man_made" v="quay" />
		<tag k="name" v="Holbergskaien" />
		<tag k="place" v="locality" />
		<tag k="ssr:stedsnr" v="991158" />
	</node>
	<node lat="60.39524364932622" lon="5.321949204450554" id="-70660">
		<tag k="man_made" v="quay" />
		<tag k="name" v="Strandterminalen" />
		<tag k="place" v="locality" />
		<tag k="ssr:stedsnr" v="991159" />
	</node>
	<node lat="60.39483512803155" lon="5.324941748671502" id="-70661">
		<tag k="man_made" v="quay" />
		<tag k="name" v="Torgkaien" />
		<tag k="place" v="locality" />
		<tag k="ssr:stedsnr" v="991160" />
	</node>
	<node lat="60.40228270186168" lon="5.314471972492349" id="-70662">
		<tag k="man_made" v="quay" />
		<tag k="name" v="Bontelabo" />
		<tag k="place" v="locality" />
		<tag k="ssr:stedsnr" v="991162" />
	</node>
	<node lat="60.402586252035825" lon="5.320385414579846" id="-70663">
		<tag k="man_made" v="quay" />
		<tag k="name" v="Skuteviksbryggen" />
		<tag k="place" v="locality" />
		<tag k="ssr:stedsnr" v="991163" />
	</node>
	<node lat="60.405818600803194" lon="5.3216599723211155" id="-70664">
		<tag k="man_made" v="quay" />
		<tag k="name" v="Gamle Slaktehuskaien" />
		<tag k="place" v="locality" />
		<tag k="ssr:stedsnr" v="991164" />
	</node>
	<node lat="60.38369975341238" lon="5.316838618885847" id="-70666">
		<tag k="bridge" v="yes" />
		<tag k="layer" v="1" />
		<tag k="name" v="Puddefjordsbroen" />
		<tag k="ssr:stedsnr" v="991141" />
	</node>
	<node lat="60.395716091955485" lon="5.324194827978069" id="-70667">
		<tag k="man_made" v="quay" />
		<tag k="name" v="Torgutstikkeren" />
		<tag k="place" v="locality" />
		<tag k="ssr:stedsnr" v="991142" />
	</node>
	<node lat="60.395258089076194" lon="5.324442630231559" id="-70668">
		<tag k="man_made" v="quay" />
		<tag k="name" v="Zachariasbryggen" />
		<tag k="place" v="locality" />
		<tag k="ssr:stedsnr" v="991143" />
	</node>
	<node lat="60.3849579742401" lon="5.315274685075119" id="-70669">
		<tag k="man_made" v="quay" />
		<tag k="name" v="Frieleneskaien" />
		<tag k="place" v="locality" />
		<tag k="ssr:stedsnr" v="991144" />
	</node>
	<node lat="60.38343279782851" lon="5.319482834663942" id="-70670">
		<tag k="man_made" v="quay" />
		<tag k="name" v="Møhlenpriskaien" />
		<tag k="place" v="locality" />
		<tag k="ssr:stedsnr" v="991148" />
	</node>
	<node lat="60.436187882857155" lon="5.459792548516244" id="-72556">
		<tag k="man_made" v="quay" />
		<tag k="name" v="Seimskaien" />
		<tag k="place" v="locality" />
		<tag k="ssr:stedsnr" v="1072177" />
	</node>
	<node lat="60.37836491565928" lon="5.261685023852382" id="-72576">
		<tag k="layer" v="-1" />
		<tag k="name" v="Lyngbøtunnelen" />
		<tag k="ssr:stedsnr" v="1079021" />
		<tag k="tunnel" v="yes" />
	</node>
	<node lat="60.4861698462055" lon="5.275280007108554" id="-72580">
		<tag k="layer" v="-1" />
		<tag k="name" v="Toppetunnelen" />
		<tag k="ssr:stedsnr" v="1080147" />
		<tag k="tunnel" v="yes" />
	</node>
	<node lat="60.42213926962733" lon="5.542439711066331" id="-72585">
		<tag k="layer" v="-1" />
		<tag k="name" v="Songstadtunnelen" />
		<tag k="ssr:stedsnr" v="1080391" />
		<tag k="tunnel" v="yes" />
	</node>
	<node lat="60.39804827632588" lon="5.320488208024966" id="-72597">
		<tag k="man_made" v="monitoring_station" />
		<tag k="monitoring:water_Level" v="yes" />
		<tag k="name" v="Bergen vannstandsmåler" />
		<tag k="ssr:stedsnr" v="1082308" />
	</node>
</osm>
