<?xml version="1.0" encoding="UTF-8"?>
<osm version="0.6" generator="osmapis">
	<node lat="60.36660321348337" lon="5.584992940114161" id="-30569">
		<tag k="name" v="Gullfjelltjørnane" />
		<tag k="natural" v="water" />
		<tag k="ssr:stedsnr" v="5162" />
		<tag k="water" v="lake" />
	</node>
	<node lat="60.472463292597794" lon="5.3402264808796875" id="-30577">
		<tag k="name" v="Liavatnet" />
		<tag k="natural" v="water" />
		<tag k="ssr:stedsnr" v="5516" />
	</node>
	<node lat="60.301088890135226" lon="5.421558326878058" id="-30607">
		<tag k="name" v="Svanetangen" />
		<tag k="natural" v="cape" />
		<tag k="ssr:stedsnr" v="20265" />
	</node>
	<node lat="60.32718889247488" lon="5.307180551083692" id="-30614">
		<tag k="name" v="Stølsvika" />
		<tag k="natural" v="bay" />
		<tag k="ssr:stedsnr" v="20539" />
	</node>
	<node lat="60.39883333733098" lon="5.360613881617483" id="-30640">
		<tag k="name" v="Blåmansvatnet" />
		<tag k="natural" v="water" />
		<tag k="ssr:stedsnr" v="21284" />
		<tag k="water" v="lake" />
	</node>
	<node lat="60.2762638847835" lon="5.470941668960122" id="-30643">
		<tag k="name" v="Tjørna" />
		<tag k="natural" v="water" />
		<tag k="ssr:stedsnr" v="21584" />
		<tag k="water" v="pond" />
	</node>
	<node lat="60.266191670032704" lon="5.408555559593384" id="-30644">
		<tag k="name" v="Tangane" />
		<tag k="natural" v="cape" />
		<tag k="ssr:stedsnr" v="21676" />
	</node>
	<node lat="60.42088333523225" lon="5.540591658856613" id="-30655">
		<tag k="name" v="Holebekken" />
		<tag k="ssr:stedsnr" v="21907" />
		<tag k="waterway" v="stream" />
	</node>
	<node lat="60.29090039311951" lon="5.501097906521234" id="-30668">
		<tag k="name" v="Langetjørna" />
		<tag k="natural" v="water" />
		<tag k="ssr:stedsnr" v="66259" />
	</node>
	<node lat="60.479620621829724" lon="5.306013665535466" id="-30670">
		<tag k="name" v="Ulsetstemma" />
		<tag k="natural" v="water" />
		<tag k="ssr:stedsnr" v="66406" />
	</node>
	<node lat="60.36012746364343" lon="5.388203688015752" id="-30683">
		<tag k="name" v="Nubbevatnet" />
		<tag k="natural" v="water" />
		<tag k="ssr:stedsnr" v="66680" />
	</node>
	<node lat="60.353288507456774" lon="5.440939871169051" id="-30685">
		<tag k="name" v="Søylevatnet" />
		<tag k="natural" v="water" />
		<tag k="ssr:stedsnr" v="66699" />
	</node>
	<node lat="60.50349428281562" lon="5.2776032941800235" id="-30695">
		<tag k="name" v="Milastemma" />
		<tag k="natural" v="water" />
		<tag k="old_name" v="Mjåstemma" />
		<tag k="ssr:stedsnr" v="67499" />
	</node>
	<node lat="60.294611115592176" lon="5.223333333519389" id="-30699">
		<tag k="name" v="Lonebogane" />
		<tag k="ssr:stedsnr" v="81007" />
		<tag k="waterway" v="stream" />
	</node>
	<node lat="60.43249444538298" lon="5.441994442971861" id="-30707">
		<tag k="name" v="Grunnavatnet" />
		<tag k="natural" v="water" />
		<tag k="ssr:stedsnr" v="81025" />
		<tag k="water" v="pond" />
	</node>
	<node lat="60.43577222477821" lon="5.440225001929685" id="-30713">
		<tag k="name" v="Ullbergvatnet" />
		<tag k="natural" v="water" />
		<tag k="ssr:stedsnr" v="81045" />
	</node>
	<node lat="60.26041110690665" lon="5.440299992863643" id="-30718">
		<tag k="name" v="Straumen" />
		<tag k="ssr:stedsnr" v="81116" />
		<tag k="waterway" v="river" />
	</node>
	<node lat="60.32880277814093" lon="5.308411118794063" id="-30744">
		<tag k="name" v="Kvernabekken" />
		<tag k="ssr:stedsnr" v="81545" />
		<tag k="waterway" v="stream" />
	</node>
	<node lat="60.31952777632534" lon="5.349302768936192" id="-30755">
		<tag k="name" v="Litle Nesttunvatnet" />
		<tag k="natural" v="water" />
		<tag k="ssr:stedsnr" v="81735" />
		<tag k="water" v="lake" />
	</node>
	<node lat="60.41426944846267" lon="5.531313890950056" id="-30761">
		<tag k="name" v="Holaelva" />
		<tag k="ssr:stedsnr" v="81920" />
		<tag k="waterway" v="river" />
	</node>
	<node lat="60.34384272067503" lon="5.5907180103645615" id="-30785">
		<tag k="name" v="Litla Brekkevatnet" />
		<tag k="natural" v="water" />
		<tag k="ssr:stedsnr" v="248191" />
	</node>
	<node lat="60.36509381445639" lon="5.261270880640317" id="-30794">
		<tag k="name" v="Tennebekktjørna" />
		<tag k="natural" v="water" />
		<tag k="ssr:stedsnr" v="248734" />
	</node>
	<node lat="60.376877776211856" lon="5.398574999851698" id="-30795">
		<tag k="name" v="Skomakarvatnet" />
		<tag k="natural" v="water" />
		<tag k="ssr:stedsnr" v="248744" />
	</node>
	<node lat="60.34986090056335" lon="5.4840684373707775" id="-30811">
		<tag k="name" v="Rambjørgvatnet" />
		<tag k="natural" v="water" />
		<tag k="ssr:stedsnr" v="126162" />
		<tag k="water" v="lake" />
	</node>
	<node lat="60.418907588857245" lon="5.640473565206238" id="-30812">
		<tag k="name" v="Midttjørna" />
		<tag k="natural" v="water" />
		<tag k="ssr:stedsnr" v="126062" />
	</node>
	<node lat="60.3075888864594" lon="5.37440278227234" id="-30823">
		<tag k="name" v="Elvenes" />
		<tag k="natural" v="cape" />
		<tag k="ssr:stedsnr" v="126851" />
	</node>
	<node lat="60.3892555566089" lon="5.438997220151375" id="-30841">
		<tag k="name" v="Borgaelva" />
		<tag k="ssr:stedsnr" v="141182" />
		<tag k="waterway" v="river" />
	</node>
	<node lat="60.307366668357886" lon="5.5163166679648015" id="-30842">
		<tag k="name" v="Fiskebekktjørna" />
		<tag k="natural" v="water" />
		<tag k="ssr:stedsnr" v="141302" />
		<tag k="water" v="pond" />
	</node>
	<node lat="60.490022223614126" lon="5.323483324183086" id="-30846">
		<tag k="name" v="Dalselva" />
		<tag k="ssr:stedsnr" v="141340" />
		<tag k="waterway" v="stream" />
	</node>
	<node lat="60.326855559699545" lon="5.308908338026307" id="-30851">
		<tag k="name" v="Fureholmen" />
		<tag k="place" v="islet" />
		<tag k="ssr:stedsnr" v="141535" />
	</node>
	<node lat="60.24899444802135" lon="5.370577774263384" id="-30853">
		<tag k="name" v="Sædalstjørna" />
		<tag k="natural" v="water" />
		<tag k="ssr:stedsnr" v="141606" />
	</node>
	<node lat="60.40389999715545" lon="5.567936120305817" id="-30860">
		<tag k="name" v="Svanatjørna" />
		<tag k="natural" v="water" />
		<tag k="ssr:stedsnr" v="141887" />
		<tag k="water" v="pond" />
	</node>
	<node lat="60.347438765801485" lon="5.209577038222447" id="-30878">
		<tag k="name" v="Vassenden" />
		<tag k="natural" v="bay" />
		<tag k="ssr:stedsnr" v="142536" />
	</node>
	<node lat="60.421247217864156" lon="5.5656027786605" id="-30887">
		<tag k="name" v="Risparelva" />
		<tag k="ssr:stedsnr" v="142922" />
		<tag k="waterway" v="river" />
	</node>
	<node lat="60.37795277714769" lon="5.519338888674295" id="-30899">
		<tag k="name" v="Osen" />
		<tag k="natural" v="bay" />
		<tag k="ssr:stedsnr" v="142990" />
	</node>
	<node lat="60.2315558859947" lon="5.299462783560811" id="-30927">
		<tag k="name" v="Storavatnet" />
		<tag k="natural" v="water" />
		<tag k="ssr:stedsnr" v="187822" />
	</node>
	<node lat="60.23501666473073" lon="5.382419448295005" id="-30932">
		<tag k="name" v="Sagstadelva" />
		<tag k="ssr:stedsnr" v="187793" />
		<tag k="waterway" v="river" />
	</node>
	<node lat="60.38754459969364" lon="5.367746568601648" id="-30941">
		<tag k="name" v="Svartediket" />
		<tag k="natural" v="water" />
		<tag k="ssr:stedsnr" v="188678" />
		<tag k="water" v="lake" />
	</node>
	<node lat="60.29819366115419" lon="5.2361957958156955" id="-30946">
		<tag k="name" v="Træsvatnet" />
		<tag k="natural" v="water" />
		<tag k="ssr:stedsnr" v="263015" />
	</node>
	<node lat="60.302716666437554" lon="5.227794437991752" id="-30949">
		<tag k="name" v="Tverråna" />
		<tag k="ssr:stedsnr" v="263020" />
		<tag k="waterway" v="stream" />
	</node>
	<node lat="60.312013892285925" lon="5.396216674704331" id="-30963">
		<tag k="name" v="Holmen" />
		<tag k="place" v="islet" />
		<tag k="ssr:stedsnr" v="263127" />
	</node>
	<node lat="60.38065832906463" lon="5.4411000039655715" id="-30968">
		<tag k="name" v="Fosselva" />
		<tag k="ssr:stedsnr" v="263155" />
		<tag k="waterway" v="stream" />
	</node>
	<node lat="60.30183055975946" lon="5.413530553861179" id="-30974">
		<tag k="name" v="Digervadet" />
		<tag k="natural" v="shoal" />
		<tag k="place" v="locality" />
		<tag k="ssr:stedsnr" v="263253" />
	</node>
	<node lat="60.31317500282353" lon="5.490494448342237" id="-30982">
		<tag k="name" v="Frotveitelva" />
		<tag k="ssr:stedsnr" v="263275" />
		<tag k="waterway" v="river" />
	</node>
	<node lat="60.35598333149701" lon="5.181966668908846" id="-30991">
		<tag k="name" v="Tjørnet" />
		<tag k="natural" v="water" />
		<tag k="ssr:stedsnr" v="263550" />
		<tag k="water" v="pond" />
	</node>
	<node lat="60.34055277469717" lon="5.254794444182997" id="-30996">
		<tag k="name" v="Fureneset" />
		<tag k="natural" v="cape" />
		<tag k="ssr:stedsnr" v="263639" />
	</node>
	<node lat="60.34111136910369" lon="5.257256366005067" id="-31001">
		<tag k="name" v="Gjerdsvika" />
		<tag k="natural" v="bay" />
		<tag k="ssr:stedsnr" v="263635" />
	</node>
	<node lat="60.29659444619613" lon="5.297047229417261" id="-31002">
		<tag k="name" v="Steinsvikvatnet" />
		<tag k="natural" v="water" />
		<tag k="ssr:stedsnr" v="263746" />
	</node>
	<node lat="60.2709472263488" lon="5.381013888021131" id="-31003">
		<tag k="name" v="Mjelkevika" />
		<tag k="natural" v="bay" />
		<tag k="ssr:stedsnr" v="263679" />
	</node>
	<node lat="60.26280277396712" lon="5.259005564899052" id="-31007">
		<tag k="name" v="Kolavatnet" />
		<tag k="natural" v="water" />
		<tag k="ssr:stedsnr" v="263827" />
	</node>
	<node lat="60.319999510868946" lon="5.291334529285237" id="-31009">
		<tag k="name" v="Kyrkjetangen" />
		<tag k="natural" v="cape" />
		<tag k="ssr:stedsnr" v="263782" />
	</node>
	<node lat="60.44065277609782" lon="5.669427786424758" id="-31029">
		<tag k="name" v="Månabekken" />
		<tag k="ssr:stedsnr" v="264065" />
		<tag k="waterway" v="stream" />
	</node>
	<node lat="60.338055556481265" lon="5.251505548993635" id="-31058">
		<tag k="name" v="Botnavika" />
		<tag k="natural" v="bay" />
		<tag k="ssr:stedsnr" v="202656" />
	</node>
	<node lat="60.4152972205089" lon="5.642269436268335" id="-31065">
		<tag k="name" v="Lonane" />
		<tag k="natural" v="water" />
		<tag k="ssr:stedsnr" v="203006" />
		<tag k="water" v="lake" />
	</node>
	<node lat="60.28661388690443" lon="5.465027777097517" id="-31080">
		<tag k="name" v="Fossabekken" />
		<tag k="ssr:stedsnr" v="203326" />
		<tag k="waterway" v="stream" />
	</node>
	<node lat="60.31005277365984" lon="5.291055560531508" id="-31086">
		<tag k="name" v="Søvikatjørna" />
		<tag k="natural" v="water" />
		<tag k="ssr:stedsnr" v="203710" />
	</node>
	<node lat="60.300136110484196" lon="5.346666665571923" id="-31091">
		<tag k="name" v="Iglavatnet" />
		<tag k="natural" v="water" />
		<tag k="ssr:stedsnr" v="203748" />
	</node>
	<node lat="60.38544999711915" lon="5.526469451059659" id="-31096">
		<tag k="name" v="Dalelva" />
		<tag k="ssr:stedsnr" v="203993" />
		<tag k="waterway" v="stream" />
	</node>
	<node lat="60.367125002499066" lon="5.46520000370848" id="-31124">
		<tag k="name" v="Langeneset" />
		<tag k="natural" v="cape" />
		<tag k="ssr:stedsnr" v="248707" />
	</node>
	<node lat="60.35244804785301" lon="5.2673239943446175" id="-31127">
		<tag k="name" v="Stora Krokatjørna" />
		<tag k="natural" v="water" />
		<tag k="ssr:stedsnr" v="248725" />
	</node>
	<node lat="60.33868100788013" lon="5.255742740625274" id="-31129">
		<tag k="name" v="Gjeddevatnet" />
		<tag k="natural" v="water" />
		<tag k="ssr:stedsnr" v="248826" />
		<tag k="water" v="lake" />
	</node>
	<node lat="60.29758055230083" lon="5.333463890756805" id="-31131">
		<tag k="name" v="Apeltunvatnet" />
		<tag k="natural" v="water" />
		<tag k="ssr:stedsnr" v="248860" />
	</node>
	<node lat="60.37863547148863" lon="5.2678948432446155" id="-31146">
		<tag k="name" v="Lyngbøvatnet" />
		<tag k="natural" v="water" />
		<tag k="ssr:stedsnr" v="263076" />
		<tag k="water" v="lake" />
	</node>
	<node lat="60.405993726993344" lon="5.64306565352827" id="-31149">
		<tag k="name" v="Øyjordsvatnet" />
		<tag k="natural" v="water" />
		<tag k="ssr:stedsnr" v="263095" />
		<tag k="water" v="lake" />
	</node>
	<node lat="60.39622500384938" lon="5.476033325592941" id="-31153">
		<tag k="name" v="Kolbakkane" />
		<tag k="ssr:stedsnr" v="263106" />
		<tag k="waterway" v="stream" />
	</node>
	<node lat="60.346622220726324" lon="5.423538882634632" id="-31160">
		<tag k="name" v="Kattavika" />
		<tag k="natural" v="bay" />
		<tag k="ssr:stedsnr" v="263172" />
	</node>
	<node lat="60.31243610935839" lon="6.5594944384462455" id="-31166">
		<tag k="name" v="Søtetjørna" />
		<tag k="natural" v="water" />
		<tag k="ssr:stedsnr" v="263304" />
	</node>
	<node lat="60.24089722595362" lon="5.291655553204215" id="-31170">
		<tag k="name" v="Vorholmen" />
		<tag k="place" v="islet" />
		<tag k="ssr:stedsnr" v="263392" />
	</node>
	<node lat="60.32850277731911" lon="5.276830552982161" id="-31172">
		<tag k="name" v="Røyseneset" />
		<tag k="natural" v="cape" />
		<tag k="ssr:stedsnr" v="263540" />
	</node>
	<node lat="60.35322235598066" lon="5.282788658217037" id="-31175">
		<tag k="name" v="Lauvåstjørna" />
		<tag k="natural" v="water" />
		<tag k="ssr:stedsnr" v="263693" />
	</node>
	<node lat="60.32012221809361" lon="5.281700009071565" id="-31183">
		<tag k="name" v="Hestaklubben" />
		<tag k="natural" v="cape" />
		<tag k="ssr:stedsnr" v="263800" />
	</node>
	<node lat="60.22991666565852" lon="5.3476750064063" id="-31187">
		<tag k="name" v="Bekkjarviktjørna" />
		<tag k="natural" v="water" />
		<tag k="ssr:stedsnr" v="263911" />
		<tag k="water" v="pond" />
	</node>
	<node lat="60.46073333598379" lon="5.438933324640683" id="-31198">
		<tag k="name" v="Osen" />
		<tag k="natural" v="bay" />
		<tag k="ssr:stedsnr" v="286536" />
	</node>
	<node lat="60.34455555354808" lon="5.414419444637572" id="-31220">
		<tag k="name" v="Grimevatnet" />
		<tag k="natural" v="water" />
		<tag k="ssr:stedsnr" v="309781" />
		<tag k="water" v="lake" />
	</node>
	<node lat="60.278158334158945" lon="5.461291669910156" id="-31223">
		<tag k="name" v="Langøyna" />
		<tag k="place" v="island" />
		<tag k="ssr:stedsnr" v="309911" />
	</node>
	<node lat="60.27053611511982" lon="5.340366659824826" id="-31225">
		<tag k="name" v="Stendavatnet" />
		<tag k="natural" v="water" />
		<tag k="ssr:stedsnr" v="309919" />
	</node>
	<node lat="60.39951110814612" lon="5.48246943979106" id="-31245">
		<tag k="name" v="Meåsbekken" />
		<tag k="ssr:stedsnr" v="324073" />
		<tag k="waterway" v="stream" />
	</node>
	<node lat="60.25526387532782" lon="5.439272947067423" id="-31249">
		<tag k="name" v="Røykenesvatnet" />
		<tag k="natural" v="water" />
		<tag k="ssr:stedsnr" v="324090" />
		<tag k="water" v="lake" />
	</node>
	<node lat="60.401699995844226" lon="5.379011103363771" id="-31255">
		<tag k="name" v="Tindebekken" />
		<tag k="ssr:stedsnr" v="324270" />
		<tag k="waterway" v="stream" />
	</node>
	<node lat="60.46286111328202" lon="5.419611114524568" id="-31277">
		<tag k="name" v="Liatjørna" />
		<tag k="natural" v="water" />
		<tag k="ssr:stedsnr" v="324833" />
	</node>
	<node lat="60.36811111098586" lon="5.576697224233794" id="-31278">
		<tag k="name" v="Ålen" />
		<tag k="ssr:stedsnr" v="324834" />
		<tag k="waterway" v="stream" />
	</node>
	<node lat="60.316638885599374" lon="5.515672215397328" id="-31307">
		<tag k="name" v="Samdalselva" />
		<tag k="ssr:stedsnr" v="369220" />
		<tag k="waterway" v="river" />
	</node>
	<node lat="60.293875045294705" lon="5.272445882173644" id="-31318">
		<tag k="name" v="Birkelandsvatnet" />
		<tag k="natural" v="water" />
		<tag k="ssr:stedsnr" v="369812" />
	</node>
	<node lat="60.334727779928876" lon="5.280538880258555" id="-31321">
		<tag k="name" v="Løtveitneset" />
		<tag k="natural" v="cape" />
		<tag k="ssr:stedsnr" v="369773" />
	</node>
	<node lat="60.41481944352286" lon="5.357677780229601" id="-31329">
		<tag k="name" v="Rundemansdiket" />
		<tag k="natural" v="water" />
		<tag k="ssr:stedsnr" v="384010" />
		<tag k="water" v="pond" />
	</node>
	<node lat="60.30425271234575" lon="5.3588579766253295" id="-31344">
		<tag k="name" v="Tranevatnet" />
		<tag k="natural" v="water" />
		<tag k="ssr:stedsnr" v="384155" />
		<tag k="water" v="lake" />
	</node>
	<node lat="60.3316833307361" lon="5.42082221554286" id="-31346">
		<tag k="name" v="Fjellklovevatnet" />
		<tag k="natural" v="water" />
		<tag k="ssr:stedsnr" v="384197" />
	</node>
	<node lat="60.457505554480356" lon="5.289958325560104" id="-31350">
		<tag k="name" v="Tertnestjørna" />
		<tag k="natural" v="water" />
		<tag k="ssr:stedsnr" v="384313" />
	</node>
	<node lat="60.35344166415804" lon="5.18071388710628" id="-31366">
		<tag k="name" v="Eidet" />
		<tag k="place" v="locality" />
		<tag k="ssr:stedsnr" v="384512" />
	</node>
	<node lat="60.3296555561751" lon="5.344866661416261" id="-31367">
		<tag k="name" v="Hopsvannet" />
		<tag k="natural" v="water" />
		<tag k="ssr:stedsnr" v="384518" />
		<tag k="water" v="lake" />
	</node>
	<node lat="60.32044999798616" lon="5.318755548093007" id="-31371">
		<tag k="name" v="Flatøyna" />
		<tag k="place" v="islet" />
		<tag k="ssr:stedsnr" v="384707" />
	</node>
	<node lat="60.29843611447654" lon="5.248247229674825" id="-31372">
		<tag k="name" v="Svartatjørna" />
		<tag k="natural" v="water" />
		<tag k="ssr:stedsnr" v="384715" />
		<tag k="water" v="pond" />
	</node>
	<node lat="60.337172221226844" lon="5.277819441713294" id="-31374">
		<tag k="name" v="Neset" />
		<tag k="natural" v="cape" />
		<tag k="ssr:stedsnr" v="384604" />
	</node>
	<node lat="60.45628333024642" lon="5.412141662488593" id="-31380">
		<tag k="name" v="Neset" />
		<tag k="natural" v="cape" />
		<tag k="ssr:stedsnr" v="384812" />
	</node>
	<node lat="60.362955557242486" lon="5.5786777789655435" id="-31382">
		<tag k="name" v="Gullfjellfossen" />
		<tag k="natural" v="waterfall" />
		<tag k="ssr:stedsnr" v="384814" />
	</node>
	<node lat="60.355866665036366" lon="5.466783325098175" id="-31397">
		<tag k="name" v="Klubbaelva" />
		<tag k="ssr:stedsnr" v="384847" />
		<tag k="waterway" v="stream" />
	</node>
	<node lat="60.32042500307616" lon="5.483600005027895" id="-31405">
		<tag k="name" v="Neset" />
		<tag k="natural" v="cape" />
		<tag k="ssr:stedsnr" v="385217" />
	</node>
	<node lat="60.32333333260579" lon="5.4796944411461785" id="-31406">
		<tag k="name" v="Elvakroken" />
		<tag k="ssr:stedsnr" v="385219" />
		<tag k="waterway" v="river" />
	</node>
	<node lat="60.42166388476964" lon="5.504388885162328" id="-31431">
		<tag k="name" v="Tveitaelva" />
		<tag k="ssr:stedsnr" v="490064" />
		<tag k="waterway" v="stream" />
	</node>
	<node lat="60.34586689721602" lon="5.2499880638988135" id="-31438">
		<tag k="name" v="Bjørndalsvatnet" />
		<tag k="natural" v="water" />
		<tag k="ssr:stedsnr" v="490718" />
		<tag k="water" v="lake" />
	</node>
	<node lat="60.42121389151138" lon="5.572591658921245" id="-31449">
		<tag k="name" v="Romslaelva" />
		<tag k="ssr:stedsnr" v="430054" />
		<tag k="waterway" v="river" />
	</node>
	<node lat="60.41208333235422" lon="5.3407861132795995" id="-31456">
		<tag k="name" v="Storevatnet" />
		<tag k="natural" v="water" />
		<tag k="ssr:stedsnr" v="430598" />
	</node>
	<node lat="60.37246352883425" lon="5.255087021556612" id="-31459">
		<tag k="name" v="Liavatnet" />
		<tag k="natural" v="water" />
		<tag k="ssr:stedsnr" v="430712" />
		<tag k="water" v="lake" />
	</node>
	<node lat="60.38174442790674" lon="5.543799930615696" id="-31466">
		<tag k="name" v="Kurlatjørna" />
		<tag k="natural" v="water" />
		<tag k="ssr:stedsnr" v="491120" />
	</node>
	<node lat="60.269052777400866" lon="5.263697219488886" id="-31468">
		<tag k="name" v="Drageidet" />
		<tag k="place" v="locality" />
		<tag k="ssr:stedsnr" v="430911" />
	</node>
	<node lat="60.34118186933059" lon="5.443211227178438" id="-31483">
		<tag k="name" v="Furedalsvatnet" />
		<tag k="natural" v="water" />
		<tag k="ssr:stedsnr" v="491773" />
	</node>
	<node lat="60.33433055946758" lon="5.411716664466919" id="-31488">
		<tag k="name" v="Langavatnet" />
		<tag k="natural" v="water" />
		<tag k="ssr:stedsnr" v="491763" />
	</node>
	<node lat="60.289144444215324" lon="5.431911107144763" id="-31490">
		<tag k="name" v="Austevollselva" />
		<tag k="ssr:stedsnr" v="491936" />
		<tag k="waterway" v="river" />
	</node>
	<node lat="60.452455557749545" lon="5.319622213061673" id="-31492">
		<tag k="name" v="Griggastemma" />
		<tag k="natural" v="water" />
		<tag k="ssr:stedsnr" v="437408" />
		<tag k="water" v="lake" />
	</node>
	<node lat="60.29882222290157" lon="5.387566662351137" id="-31503">
		<tag k="name" v="Karihølen" />
		<tag k="natural" v="water" />
		<tag k="ssr:stedsnr" v="445228" />
		<tag k="water" v="pond" />
	</node>
	<node lat="60.25480555496102" lon="5.4018083366172975" id="-31518">
		<tag k="name" v="Stemmetjørna" />
		<tag k="natural" v="water" />
		<tag k="ssr:stedsnr" v="445623" />
		<tag k="water" v="pond" />
	</node>
	<node lat="60.35035555374941" lon="5.427322230043032" id="-31525">
		<tag k="name" v="Enneset" />
		<tag k="natural" v="cape" />
		<tag k="ssr:stedsnr" v="445881" />
	</node>
	<node lat="60.41581111273025" lon="5.533466672925046" id="-31531">
		<tag k="name" v="Tverrelva" />
		<tag k="ssr:stedsnr" v="445910" />
		<tag k="waterway" v="stream" />
	</node>
	<node lat="60.231783332754866" lon="5.304969443873638" id="-31537">
		<tag k="name" v="Vasslibekken" />
		<tag k="ssr:stedsnr" v="445984" />
		<tag k="waterway" v="stream" />
	</node>
	<node lat="60.340224995956625" lon="5.2076305528404045" id="-31547">
		<tag k="name" v="Kattatjørna" />
		<tag k="natural" v="water" />
		<tag k="ssr:stedsnr" v="446027" />
		<tag k="water" v="pond" />
	</node>
	<node lat="60.26460555335947" lon="5.437511116891686" id="-31551">
		<tag k="name" v="Eidatjørna" />
		<tag k="natural" v="water" />
		<tag k="ssr:stedsnr" v="446586" />
		<tag k="water" v="lake" />
	</node>
	<node lat="60.30981667118091" lon="5.460025006753536" id="-31576">
		<tag k="name" v="Grindåsbekken" />
		<tag k="ssr:stedsnr" v="672856" />
		<tag k="waterway" v="stream" />
	</node>
	<node lat="60.422666670355255" lon="5.64012499737769" id="-31580">
		<tag k="name" v="Nordsta Kråtjørna" />
		<tag k="natural" v="water" />
		<tag k="ssr:stedsnr" v="673069" />
	</node>
	<node lat="60.387722218236604" lon="5.557169448638176" id="-31583">
		<tag k="name" v="Svartavatnet" />
		<tag k="natural" v="water" />
		<tag k="ssr:stedsnr" v="673138" />
		<tag k="water" v="lake" />
	</node>
	<node lat="60.364399340438304" lon="5.463445339530413" id="-31590">
		<tag k="name" v="Haukelandsvatnet" />
		<tag k="natural" v="water" />
		<tag k="ssr:stedsnr" v="673694" />
		<tag k="water" v="lake" />
	</node>
	<node lat="60.36898795892218" lon="5.204787056779615" id="-31607">
		<tag k="name" v="Kiplevatnet" />
		<tag k="natural" v="water" />
		<tag k="ssr:stedsnr" v="490732" />
	</node>
	<node lat="60.35446271335756" lon="5.353666088796288" id="-31611">
		<tag k="name" v="Tveitevannet" />
		<tag k="natural" v="water" />
		<tag k="ssr:stedsnr" v="491711" />
	</node>
	<node lat="60.43438693016146" lon="5.33738976318487" id="-31612">
		<tag k="name" v="Jordalsvatnet" />
		<tag k="natural" v="water" />
		<tag k="ssr:stedsnr" v="491625" />
		<tag k="water" v="lake" />
	</node>
	<node lat="60.33408866724141" lon="5.264154007233756" id="-31615">
		<tag k="name" v="Sandeidet" />
		<tag k="place" v="locality" />
		<tag k="ssr:stedsnr" v="491779" />
	</node>
	<node lat="60.34385000312761" lon="5.214511117740792" id="-31636">
		<tag k="name" v="Rotatjørna" />
		<tag k="natural" v="water" />
		<tag k="ssr:stedsnr" v="506012" />
	</node>
	<node lat="60.38853888891526" lon="5.240199996262509" id="-31642">
		<tag k="name" v="Orfallet" />
		<tag k="ssr:stedsnr" v="506063" />
		<tag k="waterway" v="stream" />
	</node>
	<node lat="60.25922777583025" lon="5.4388416719125825" id="-31651">
		<tag k="name" v="Tangane" />
		<tag k="natural" v="cape" />
		<tag k="ssr:stedsnr" v="506107" />
	</node>
	<node lat="60.42684722123936" lon="5.619083339555403" id="-31655">
		<tag k="name" v="Slåttebekken" />
		<tag k="ssr:stedsnr" v="506122" />
		<tag k="waterway" v="stream" />
	</node>
	<node lat="60.3953361140644" lon="5.393011107785362" id="-31659">
		<tag k="name" v="Bogstifossen" />
		<tag k="natural" v="waterfall" />
		<tag k="ssr:stedsnr" v="506205" />
	</node>
	<node lat="60.34064999681082" lon="5.349880558994938" id="-31677">
		<tag k="name" v="Hundatjørna" />
		<tag k="natural" v="water" />
		<tag k="ssr:stedsnr" v="506508" />
		<tag k="water" v="pond" />
	</node>
	<node lat="60.3294999974968" lon="5.316305554599792" id="-31678">
		<tag k="name" v="Sørevågen" />
		<tag k="natural" v="bay" />
		<tag k="ssr:stedsnr" v="506512" />
	</node>
	<node lat="60.33470833229455" lon="5.27735277843901" id="-31679">
		<tag k="name" v="Ternaholmen" />
		<tag k="place" v="islet" />
		<tag k="ssr:stedsnr" v="506607" />
	</node>
	<node lat="60.273783331752156" lon="5.415599993844569" id="-31683">
		<tag k="name" v="Åkerneset" />
		<tag k="natural" v="cape" />
		<tag k="ssr:stedsnr" v="506657" />
	</node>
	<node lat="60.267325001871335" lon="5.403527774148474" id="-31684">
		<tag k="name" v="Klubbane" />
		<tag k="natural" v="cape" />
		<tag k="ssr:stedsnr" v="506662" />
	</node>
	<node lat="60.35609722234087" lon="5.297297217560178" id="-31686">
		<tag k="name" v="Lynghaugtjørna" />
		<tag k="natural" v="water" />
		<tag k="ssr:stedsnr" v="506667" />
	</node>
	<node lat="60.44716509980815" lon="5.320711380844709" id="-31728">
		<tag k="name" v="Sjurastemma" />
		<tag k="natural" v="water" />
		<tag k="ssr:stedsnr" v="687380" />
		<tag k="water" v="lake" />
	</node>
	<node lat="60.436702782148615" lon="5.657161116767331" id="-31731">
		<tag k="name" v="Verkane" />
		<tag k="natural" v="cape" />
		<tag k="ssr:stedsnr" v="551051" />
	</node>
	<node lat="60.323855553551944" lon="5.351849995415045" id="-31743">
		<tag k="name" v="Nesttunvatnet" />
		<tag k="natural" v="water" />
		<tag k="ssr:stedsnr" v="551755" />
	</node>
	<node lat="60.22454722552793" lon="5.314588894180934" id="-31752">
		<tag k="name" v="Litlavatnet" />
		<tag k="natural" v="water" />
		<tag k="ssr:stedsnr" v="551842" />
	</node>
	<node lat="60.39706111119623" lon="5.448138897571405" id="-31779">
		<tag k="name" v="Mølsbekken" />
		<tag k="ssr:stedsnr" v="688242" />
		<tag k="waterway" v="stream" />
	</node>
	<node lat="60.38074999756806" lon="5.3945222267701585" id="-31785">
		<tag k="name" v="Høkerfossen" />
		<tag k="natural" v="waterfall" />
		<tag k="ssr:stedsnr" v="688186" />
	</node>
	<node lat="60.33488333488685" lon="5.4216833399248445" id="-31788">
		<tag k="name" v="Tjørna" />
		<tag k="natural" v="water" />
		<tag k="ssr:stedsnr" v="688191" />
		<tag k="water" v="pond" />
	</node>
	<node lat="60.31605278018372" lon="5.431294442552248" id="-31790">
		<tag k="name" v="Sandbekken" />
		<tag k="ssr:stedsnr" v="688193" />
		<tag k="waterway" v="stream" />
	</node>
	<node lat="60.32065277560748" lon="5.482094439891705" id="-31793">
		<tag k="name" v="Utlevika" />
		<tag k="natural" v="bay" />
		<tag k="ssr:stedsnr" v="688215" />
	</node>
	<node lat="60.28688055661346" lon="5.3883527771245205" id="-31795">
		<tag k="name" v="Gorvika" />
		<tag k="natural" v="bay" />
		<tag k="ssr:stedsnr" v="688297" />
	</node>
	<node lat="60.40868333653425" lon="5.366844442813488" id="-31815">
		<tag k="name" v="Lille Tindevatnet" />
		<tag k="natural" v="water" />
		<tag k="ssr:stedsnr" v="688338" />
		<tag k="water" v="lake" />
	</node>
	<node lat="60.35155833548159" lon="5.3503138824545395" id="-31823">
		<tag k="name" v="Storetveitvannet" />
		<tag k="natural" v="water" />
		<tag k="ssr:stedsnr" v="688595" />
		<tag k="water" v="lake" />
	</node>
	<node lat="60.338552777067875" lon="5.274836108382382" id="-31827">
		<tag k="name" v="Sponavika" />
		<tag k="natural" v="bay" />
		<tag k="ssr:stedsnr" v="688630" />
	</node>
	<node lat="60.36645000433727" lon="5.25499444006628" id="-31839">
		<tag k="name" v="Tennebekken" />
		<tag k="ssr:stedsnr" v="688692" />
		<tag k="waterway" v="stream" />
	</node>
	<node lat="60.36882222410205" lon="5.457344449583011" id="-31841">
		<tag k="name" v="Forneset" />
		<tag k="natural" v="cape" />
		<tag k="ssr:stedsnr" v="688767" />
	</node>
</osm>
