<?xml version="1.0" encoding="UTF-8"?>
<osm version="0.6" generator="osmapis">
	<node lat="60.414855557364376" lon="5.64460000017869" id="-31878">
		<tag k="name" v="Lonane" />
		<tag k="natural" v="wetland" />
		<tag k="ssr:stedsnr" v="5070" />
	</node>
	<node lat="60.38073888896442" lon="5.251463895829379" id="-31888">
		<tag k="name" v="Banuren" />
		<tag k="natural" v="scree" />
		<tag k="ssr:stedsnr" v="5625" />
	</node>
	<node lat="60.312252781533864" lon="5.5102472224490056" id="-31909">
		<tag k="name" v="Trosamyra" />
		<tag k="natural" v="wetland" />
		<tag k="ssr:stedsnr" v="20239" />
	</node>
	<node lat="60.34106110938607" lon="5.461327771670632" id="-31934">
		<tag k="historic" v="shieling" />
		<tag k="name" v="Karvestølen" />
		<tag k="place" v="locality" />
		<tag k="ssr:stedsnr" v="21211" />
	</node>
	<node lat="60.35833333259127" lon="5.395191660256246" id="-31951">
		<tag k="historic" v="shieling" />
		<tag k="name" v="Vasstølen" />
		<tag k="place" v="locality" />
		<tag k="ssr:stedsnr" v="21346" />
	</node>
	<node lat="60.35934722427663" lon="5.193019448864714" id="-31952">
		<tag k="historic" v="shieling" />
		<tag k="name" v="Grønestølen" />
		<tag k="place" v="locality" />
		<tag k="ssr:stedsnr" v="21552" />
	</node>
	<node lat="60.264436109518684" lon="5.399919445556143" id="-31958">
		<tag k="historic" v="shieling" />
		<tag k="name" v="Steinstølen" />
		<tag k="place" v="locality" />
		<tag k="ssr:stedsnr" v="21677" />
	</node>
	<node lat="60.24860833700522" lon="5.42331111903131" id="-32028">
		<tag k="name" v="Drogemyra" />
		<tag k="natural" v="wetland" />
		<tag k="ssr:stedsnr" v="81110" />
	</node>
	<node lat="60.28496111351819" lon="5.502602771373454" id="-32051">
		<tag k="name" v="Kolamilsteinen" />
		<tag k="natural" v="stone" />
		<tag k="ssr:stedsnr" v="81328" />
	</node>
	<node lat="60.419149996281696" lon="5.442444444972514" id="-32076">
		<tag k="name" v="Slåttene" />
		<tag k="place" v="locality" />
		<tag k="ssr:stedsnr" v="81944" />
	</node>
	<node lat="60.421516667855286" lon="5.642480546500939" id="-32126">
		<tag k="name" v="Kråmyrane" />
		<tag k="natural" v="wetland" />
		<tag k="ssr:stedsnr" v="126063" />
	</node>
	<node lat="60.339238888718526" lon="5.525063887516028" id="-32195">
		<tag k="name" v="Slåttene" />
		<tag k="place" v="locality" />
		<tag k="ssr:stedsnr" v="142832" />
	</node>
	<node lat="60.38614444018334" lon="5.437641667285427" id="-32217">
		<tag k="name" v="Træene" />
		<tag k="place" v="locality" />
		<tag k="ssr:stedsnr" v="324141" />
	</node>
	<node lat="60.37100555537054" lon="5.173644450016803" id="-32264">
		<tag k="name" v="Kroken" />
		<tag k="place" v="locality" />
		<tag k="ssr:stedsnr" v="263037" />
	</node>
	<node lat="60.41067778077632" lon="5.440588894312332" id="-32289">
		<tag k="name" v="Slåttene" />
		<tag k="place" v="locality" />
		<tag k="ssr:stedsnr" v="263230" />
	</node>
	<node lat="60.31401666730508" lon="5.511702783621682" id="-32293">
		<tag k="name" v="Naustbakken" />
		<tag k="place" v="locality" />
		<tag k="ssr:stedsnr" v="263270" />
	</node>
	<node lat="60.38923055899739" lon="5.431527775678824" id="-32300">
		<tag k="historic" v="shieling" />
		<tag k="name" v="Stølen" />
		<tag k="place" v="locality" />
		<tag k="ssr:stedsnr" v="263350" />
	</node>
	<node lat="60.27374722160808" lon="5.29448610422215" id="-32373">
		<tag k="name" v="Ramnabergsmyra" />
		<tag k="natural" v="wetland" />
		<tag k="ssr:stedsnr" v="202841" />
	</node>
	<node lat="60.47529444680839" lon="5.371108336378821" id="-32374">
		<tag k="name" v="Mjølsteinen" />
		<tag k="natural" v="stone" />
		<tag k="ssr:stedsnr" v="202896" />
	</node>
	<node lat="60.37224444870237" lon="5.4344805516821975" id="-32388">
		<tag k="name" v="Revura" />
		<tag k="natural" v="scree" />
		<tag k="ssr:stedsnr" v="203190" />
	</node>
	<node lat="60.35709444775646" lon="5.188750000210812" id="-32396">
		<tag k="name" v="Gosen" />
		<tag k="place" v="locality" />
		<tag k="ssr:stedsnr" v="203539" />
	</node>
	<node lat="60.329705556874714" lon="5.439233328701155" id="-32463">
		<tag k="name" v="Huldresteinen" />
		<tag k="natural" v="stone" />
		<tag k="ssr:stedsnr" v="263202" />
	</node>
	<node lat="60.40093889236649" lon="5.523697220372571" id="-32467">
		<tag k="historic" v="shieling" />
		<tag k="name" v="Grønetølen" />
		<tag k="place" v="locality" />
		<tag k="ssr:stedsnr" v="263107" />
	</node>
	<node lat="60.37178610909398" lon="5.4501666622539044" id="-32468">
		<tag k="name" v="Botnamyra" />
		<tag k="natural" v="wetland" />
		<tag k="ssr:stedsnr" v="263161" />
	</node>
	<node lat="60.279302774103506" lon="5.468230557874447" id="-32486">
		<tag k="name" v="Høljemyrane" />
		<tag k="natural" v="wetland" />
		<tag k="ssr:stedsnr" v="263576" />
	</node>
	<node lat="60.272088884536636" lon="5.291633328538414" id="-32490">
		<tag k="name" v="Stølsmyra" />
		<tag k="natural" v="wetland" />
		<tag k="ssr:stedsnr" v="263840" />
	</node>
	<node lat="60.32224722172745" lon="5.487786118097866" id="-32564">
		<tag k="historic" v="shieling" />
		<tag k="name" v="Haldorsstølen" />
		<tag k="place" v="locality" />
		<tag k="ssr:stedsnr" v="324205" />
	</node>
	<node lat="60.31915000274605" lon="5.4509222177298415" id="-32576">
		<tag k="name" v="Geithusmyra" />
		<tag k="natural" v="wetland" />
		<tag k="ssr:stedsnr" v="324181" />
	</node>
	<node lat="60.369269448198466" lon="5.437580559875563" id="-32584">
		<tag k="historic" v="shieling" />
		<tag k="name" v="Setstølen" />
		<tag k="place" v="locality" />
		<tag k="ssr:stedsnr" v="324750" />
	</node>
	<node lat="60.29240277338954" lon="5.367555550080541" id="-32669">
		<tag k="name" v="Vardamyra" />
		<tag k="natural" v="wetland" />
		<tag k="ssr:stedsnr" v="384252" />
	</node>
	<node lat="60.23829999713279" lon="5.370022219673871" id="-32724">
		<tag k="name" v="Sagastokken" />
		<tag k="place" v="locality" />
		<tag k="ssr:stedsnr" v="385755" />
	</node>
	<node lat="60.406250003328935" lon="5.631080547250785" id="-32728">
		<tag k="historic" v="shieling" />
		<tag k="name" v="Gamlestølen" />
		<tag k="place" v="locality" />
		<tag k="ssr:stedsnr" v="385950" />
	</node>
	<node lat="60.408602780818896" lon="5.521122225265827" id="-32810">
		<tag k="historic" v="shieling" />
		<tag k="name" v="Gamlestølen" />
		<tag k="place" v="locality" />
		<tag k="ssr:stedsnr" v="445089" />
	</node>
	<node lat="60.34572222041918" lon="5.541927774880146" id="-32846">
		<tag k="landuse" v="meadow" />
		<tag k="name" v="Hesjane" />
		<tag k="ssr:stedsnr" v="445933" />
	</node>
	<node lat="60.38208055205977" lon="5.476066665813197" id="-32849">
		<tag k="name" v="Moldamyrane" />
		<tag k="natural" v="wetland" />
		<tag k="ssr:stedsnr" v="445979" />
	</node>
	<node lat="60.40338889257037" lon="5.454008324511857" id="-32862">
		<tag k="name" v="Maurneset" />
		<tag k="place" v="locality" />
		<tag k="ssr:stedsnr" v="446257" />
	</node>
	<node lat="60.29376111321905" lon="5.29570278426851" id="-32867">
		<tag k="name" v="Sikene" />
		<tag k="natural" v="wetland" />
		<tag k="ssr:stedsnr" v="446741" />
	</node>
	<node lat="60.34843611467736" lon="5.4774749970538545" id="-32895">
		<tag k="name" v="Storamyra" />
		<tag k="natural" v="wetland" />
		<tag k="ssr:stedsnr" v="673189" />
	</node>
	<node lat="60.44623611331201" lon="5.406108329867805" id="-32962">
		<tag k="name" v="Krossen" />
		<tag k="place" v="locality" />
		<tag k="ssr:stedsnr" v="506103" />
	</node>
	<node lat="60.296180553637285" lon="5.452738892445474" id="-32986">
		<tag k="historic" v="shieling" />
		<tag k="name" v="Andersstølen" />
		<tag k="place" v="locality" />
		<tag k="ssr:stedsnr" v="506324" />
	</node>
	<node lat="60.33969722452408" lon="5.260138893848143" id="-32994">
		<tag k="name" v="Skogadotten" />
		<tag k="place" v="locality" />
		<tag k="ssr:stedsnr" v="506618" />
	</node>
	<node lat="60.43043055856298" lon="5.482561108797268" id="-33019">
		<tag k="name" v="Langtomyra" />
		<tag k="natural" v="wetland" />
		<tag k="ssr:stedsnr" v="506956" />
	</node>
	<node lat="60.4289999958473" lon="5.473472217689" id="-33020">
		<tag k="name" v="Ekra" />
		<tag k="place" v="locality" />
		<tag k="ssr:stedsnr" v="506958" />
	</node>
	<node lat="60.38204166429536" lon="5.252308336994837" id="-33084">
		<tag k="name" v="Revura" />
		<tag k="natural" v="scree" />
		<tag k="ssr:stedsnr" v="688059" />
	</node>
	<node lat="60.3752472214757" lon="5.412905551184168" id="-33104">
		<tag k="name" v="Smedmyra" />
		<tag k="natural" v="wetland" />
		<tag k="ssr:stedsnr" v="688195" />
	</node>
	<node lat="60.28682777849564" lon="5.5267416751757175" id="-33117">
		<tag k="name" v="Gråura" />
		<tag k="natural" v="scree" />
		<tag k="ssr:stedsnr" v="688327" />
	</node>
	<node lat="60.464900002295195" lon="5.410736111506159" id="-33121">
		<tag k="name" v="Høljamyra" />
		<tag k="natural" v="wetland" />
		<tag k="ssr:stedsnr" v="688946" />
	</node>
	<node lat="60.41639999996137" lon="5.527566666284149" id="-33123">
		<tag k="name" v="Tveitane" />
		<tag k="place" v="locality" />
		<tag k="ssr:stedsnr" v="688954" />
	</node>
	<node lat="60.402166670748095" lon="5.630588887840586" id="-33125">
		<tag k="name" v="Hardingamyra" />
		<tag k="natural" v="wetland" />
		<tag k="ssr:stedsnr" v="688958" />
	</node>
	<node lat="60.28926666476785" lon="5.280872221702446" id="-33129">
		<tag k="historic" v="shieling" />
		<tag k="name" v="Sikestølen" />
		<tag k="place" v="locality" />
		<tag k="ssr:stedsnr" v="688380" />
	</node>
	<node lat="60.26868611130882" lon="5.287033338679287" id="-33150">
		<tag k="name" v="Utgjerdet" />
		<tag k="place" v="locality" />
		<tag k="ssr:stedsnr" v="688823" />
	</node>
	<node lat="60.27473333075085" lon="5.308449993796213" id="-33162">
		<tag k="name" v="Pittemyra" />
		<tag k="natural" v="wetland" />
		<tag k="ssr:stedsnr" v="688869" />
	</node>
	<node lat="60.29181388602177" lon="5.371708327448394" id="-33200">
		<tag k="historic" v="shieling" />
		<tag k="name" v="Vallastølen" />
		<tag k="place" v="locality" />
		<tag k="ssr:stedsnr" v="566260" />
	</node>
	<node lat="60.40391389049826" lon="5.5501027709142035" id="-33239">
		<tag k="name" v="Tausamyrane" />
		<tag k="natural" v="wetland" />
		<tag k="ssr:stedsnr" v="567903" />
	</node>
	<node lat="60.40653333771243" lon="5.569258337443515" id="-33242">
		<tag k="name" v="Gullvellmyrane" />
		<tag k="natural" v="wetland" />
		<tag k="ssr:stedsnr" v="567916" />
	</node>
	<node lat="60.377911115008835" lon="5.440861111675245" id="-33285">
		<tag k="name" v="Storura" />
		<tag k="natural" v="scree" />
		<tag k="ssr:stedsnr" v="627149" />
	</node>
	<node lat="60.40576944889385" lon="5.384597225838637" id="-33296">
		<tag k="historic" v="shieling" />
		<tag k="name" v="Stølane" />
		<tag k="place" v="locality" />
		<tag k="ssr:stedsnr" v="627348" />
	</node>
	<node lat="60.39498610812964" lon="5.394941673611702" id="-33302">
		<tag k="name" v="Slættene" />
		<tag k="place" v="locality" />
		<tag k="ssr:stedsnr" v="627212" />
	</node>
	<node lat="60.25713333511807" lon="5.409763880741614" id="-33312">
		<tag k="name" v="Pålamyra" />
		<tag k="natural" v="wetland" />
		<tag k="ssr:stedsnr" v="627617" />
	</node>
	<node lat="60.288886114226635" lon="5.251430552647155" id="-33322">
		<tag k="name" v="Såtemyrane" />
		<tag k="natural" v="wetland" />
		<tag k="ssr:stedsnr" v="627747" />
	</node>
	<node lat="60.33353610806238" lon="5.517769440574949" id="-33330">
		<tag k="historic" v="shieling" />
		<tag k="name" v="Askestølen" />
		<tag k="place" v="locality" />
		<tag k="ssr:stedsnr" v="627944" />
	</node>
	<node lat="60.36333055380795" lon="5.203588897533762" id="-33393">
		<tag k="name" v="Slettebakksmyra" />
		<tag k="natural" v="wetland" />
		<tag k="ssr:stedsnr" v="688545" />
	</node>
	<node lat="60.35925000184042" lon="5.187586110041869" id="-33394">
		<tag k="name" v="Gåsemyren" />
		<tag k="natural" v="wetland" />
		<tag k="ssr:stedsnr" v="688546" />
	</node>
	<node lat="60.28421388775628" lon="5.446650003347318" id="-33467">
		<tag k="name" v="Smørkisen" />
		<tag k="natural" v="scree" />
		<tag k="ssr:stedsnr" v="734930" />
	</node>
	<node lat="60.284483329610026" lon="5.414033328365678" id="-33491">
		<tag k="name" v="Storlimyra" />
		<tag k="natural" v="wetland" />
		<tag k="ssr:stedsnr" v="748264" />
	</node>
	<node lat="60.30702222588865" lon="5.429330555782769" id="-33519">
		<tag k="name" v="Flottorvene" />
		<tag k="natural" v="wetland" />
		<tag k="ssr:stedsnr" v="749226" />
	</node>
	<node lat="60.45078333137185" lon="5.370933339231562" id="-33522">
		<tag k="name" v="Bolga" />
		<tag k="place" v="locality" />
		<tag k="ssr:stedsnr" v="749166" />
	</node>
	<node lat="60.324616671053256" lon="5.467038886028822" id="-33524">
		<tag k="name" v="Gråsteinen" />
		<tag k="natural" v="stone" />
		<tag k="ssr:stedsnr" v="749178" />
	</node>
	<node lat="60.43788611049661" lon="5.335244443262312" id="-33610">
		<tag k="name" v="Slåttene" />
		<tag k="place" v="locality" />
		<tag k="ssr:stedsnr" v="809384" />
	</node>
	<node lat="60.46474722366239" lon="5.421644441086471" id="-33611">
		<tag k="historic" v="shieling" />
		<tag k="name" v="Fjellstølen" />
		<tag k="place" v="locality" />
		<tag k="ssr:stedsnr" v="809395" />
	</node>
	<node lat="60.23426110669417" lon="5.308252776673829" id="-33623">
		<tag k="name" v="Rosemyrane" />
		<tag k="natural" v="wetland" />
		<tag k="ssr:stedsnr" v="809971" />
	</node>
	<node lat="60.5134861128454" lon="5.333802778475659" id="-33680">
		<tag k="name" v="Langemyrane" />
		<tag k="natural" v="wetland" />
		<tag k="ssr:stedsnr" v="856541" />
	</node>
	<node lat="60.285558331489426" lon="5.225569438199766" id="-33683">
		<tag k="landuse" v="meadow" />
		<tag k="name" v="Stykket" />
		<tag k="ssr:stedsnr" v="930026" />
	</node>
	<node lat="60.3823999967608" lon="5.249108340841717" id="-33718">
		<tag k="name" v="Rapa" />
		<tag k="natural" v="scree" />
		<tag k="ssr:stedsnr" v="870085" />
	</node>
	<node lat="60.31966389162818" lon="5.467741669108826" id="-33724">
		<tag k="name" v="Minnesteinen" />
		<tag k="natural" v="stone" />
		<tag k="ssr:stedsnr" v="870203" />
	</node>
	<node lat="60.40933889063554" lon="5.449905550042386" id="-33732">
		<tag k="name" v="Hardfita" />
		<tag k="place" v="locality" />
		<tag k="ssr:stedsnr" v="870223" />
	</node>
	<node lat="60.30834444615417" lon="5.278305560204296" id="-33743">
		<tag k="name" v="Flotane" />
		<tag k="place" v="locality" />
		<tag k="ssr:stedsnr" v="870707" />
	</node>
	<node lat="60.301466668312024" lon="5.287041672688959" id="-33745">
		<tag k="name" v="Feråsmyra" />
		<tag k="natural" v="wetland" />
		<tag k="ssr:stedsnr" v="870723" />
	</node>
	<node lat="60.28018611561842" lon="5.267205560085141" id="-33751">
		<tag k="name" v="Hausbergsekkja" />
		<tag k="natural" v="wetland" />
		<tag k="ssr:stedsnr" v="870916" />
	</node>
	<node lat="60.386858334643364" lon="5.531072229804636" id="-33765">
		<tag k="historic" v="shieling" />
		<tag k="name" v="Fjellstølen" />
		<tag k="place" v="locality" />
		<tag k="ssr:stedsnr" v="870877" />
	</node>
</osm>
