<?xml version="1.0" encoding="UTF-8"?>
<osm version="0.6" generator="osmapis">
	<node lat="60.24190277804152" lon="5.2360055574990305" id="-25985">
		<tag k="name" v="Seløyna" />
		<tag k="place" v="island" />
		<tag k="ssr:stedsnr" v="4031" />
	</node>
	<node lat="60.45198611404657" lon="5.294883338156111" id="-25995">
		<tag k="name" v="Åstveitvågen" />
		<tag k="natural" v="bay" />
		<tag k="ssr:stedsnr" v="5478" />
	</node>
	<node lat="60.50629999950202" lon="5.375386110868127" id="-26011">
		<tag k="name" v="Neset" />
		<tag k="natural" v="cape" />
		<tag k="ssr:stedsnr" v="6502" />
	</node>
	<node lat="60.254852780824564" lon="5.202250001985086" id="-26012">
		<tag k="name" v="Spikaren" />
		<tag k="place" v="islet" />
		<tag k="ssr:stedsnr" v="6903" />
	</node>
	<node lat="60.39215596294278" lon="5.284753919881168" id="-26019">
		<tag k="name" v="Nordrevågen" />
		<tag k="natural" v="bay" />
		<tag k="ssr:stedsnr" v="20054" />
	</node>
	<node lat="60.470272225406866" lon="5.4263916722511345" id="-26041">
		<tag k="name" v="Kråna" />
		<tag k="natural" v="bay" />
		<tag k="ssr:stedsnr" v="20846" />
	</node>
	<node lat="60.26563889093024" lon="5.317888892920894" id="-26077">
		<tag k="name" v="Vågsholmane" />
		<tag k="place" v="islet" />
		<tag k="ssr:stedsnr" v="21842" />
	</node>
	<node lat="60.442759608017006" lon="5.298227118276902" id="-26084">
		<tag k="alt_name" v="Tømmervika" />
		<tag k="name" v="Tømmervågen" />
		<tag k="natural" v="bay" />
		<tag k="ssr:stedsnr" v="25990" />
	</node>
	<node lat="60.51887778094039" lon="5.328499999301964" id="-26091">
		<tag k="name" v="Fiskaneset" />
		<tag k="natural" v="cape" />
		<tag k="ssr:stedsnr" v="66360" />
	</node>
	<node lat="60.47364999737082" lon="5.421472222935423" id="-26096">
		<tag k="alt_name" v="Breisteinsskjeret" />
		<tag k="fixme" v="consider seamark:type=rock or natural=shoal" />
		<tag k="name" v="Liaskjeret" />
		<tag k="place" v="islet" />
		<tag k="ssr:stedsnr" v="66510" />
	</node>
	<node lat="60.419523541868024" lon="5.301072250324047" id="-26098">
		<tag k="name" v="Breiviken" />
		<tag k="natural" v="bay" />
		<tag k="ssr:stedsnr" v="66563" />
	</node>
	<node lat="60.256025002774486" lon="5.233341660461562" id="-26114">
		<tag k="name" v="Hjellestadosen" />
		<tag k="natural" v="bay" />
		<tag k="ssr:stedsnr" v="66886" />
	</node>
	<node lat="60.52655746425188" lon="5.2991842607571815" id="-26117">
		<tag k="name" v="Hordvikneset" />
		<tag k="natural" v="cape" />
		<tag k="ssr:stedsnr" v="67413" />
	</node>
	<node lat="60.33996666956475" lon="5.188333336923203" id="-26126">
		<tag k="name" v="Myravika" />
		<tag k="natural" v="bay" />
		<tag k="ssr:stedsnr" v="81016" />
	</node>
	<node lat="60.42816666586911" lon="5.46722221412391" id="-26128">
		<tag k="name" v="Likstø" />
		<tag k="natural" v="beach" />
		<tag k="ssr:stedsnr" v="81018" />
	</node>
	<node lat="60.38189833758817" lon="5.198486068124837" id="-26129">
		<tag k="name" v="Leirvika" />
		<tag k="natural" v="bay" />
		<tag k="ssr:stedsnr" v="81021" />
	</node>
	<node lat="60.315666663714566" lon="5.208955555694538" id="-26134">
		<tag k="fixme" v="consider seamark:type=rock or natural=shoal" />
		<tag k="name" v="Grasdalsskjeret" />
		<tag k="place" v="islet" />
		<tag k="ssr:stedsnr" v="81036" />
	</node>
	<node lat="60.377194448150405" lon="5.189430562864759" id="-26136">
		<tag k="name" v="Breivika" />
		<tag k="natural" v="bay" />
		<tag k="ssr:stedsnr" v="81043" />
	</node>
	<node lat="60.26602222275264" lon="5.225827778462276" id="-26146">
		<tag k="fixme" v="consider seamark:type=rock or natural=shoal" />
		<tag k="name" v="Myntevikskjeret" />
		<tag k="place" v="islet" />
		<tag k="ssr:stedsnr" v="81124" />
	</node>
	<node lat="60.46656666213982" lon="5.275455550609508" id="-26160">
		<tag k="fixme" v="consider seamark:type=rock or natural=shoal" />
		<tag k="name" v="Uraskjeret" />
		<tag k="place" v="islet" />
		<tag k="ssr:stedsnr" v="81321" />
	</node>
	<node lat="60.240511109068834" lon="5.293180552458155" id="-26165">
		<tag k="name" v="Berneset" />
		<tag k="natural" v="cape" />
		<tag k="ssr:stedsnr" v="81386" />
	</node>
	<node lat="60.36190555169291" lon="5.179180547660925" id="-26167">
		<tag k="name" v="Gabrielsholmen" />
		<tag k="place" v="islet" />
		<tag k="ssr:stedsnr" v="81536" />
	</node>
	<node lat="60.34723611449082" lon="5.185677779594155" id="-26169">
		<tag k="name" v="Vatnarneset" />
		<tag k="natural" v="cape" />
		<tag k="ssr:stedsnr" v="81582" />
	</node>
	<node lat="60.26449444494147" lon="5.263969452150062" id="-26171">
		<tag k="name" v="Eikevika" />
		<tag k="natural" v="bay" />
		<tag k="ssr:stedsnr" v="81833" />
	</node>
	<node lat="60.21874444348808" lon="5.302488880622605" id="-26176">
		<tag k="name" v="Vestre Husanesholmen" />
		<tag k="place" v="islet" />
		<tag k="ssr:stedsnr" v="81889" />
	</node>
	<node lat="60.27115555321757" lon="5.220313893342236" id="-26188">
		<tag k="name" v="Notatangen" />
		<tag k="natural" v="cape" />
		<tag k="ssr:stedsnr" v="82106" />
	</node>
	<node lat="60.499262783325634" lon="5.385480736276708" id="-26197">
		<tag k="name" v="Gudmundshavnen" />
		<tag k="natural" v="bay" />
		<tag k="ssr:stedsnr" v="82751" />
	</node>
	<node lat="60.42406111081585" lon="5.545572221442579" id="-26200">
		<tag k="name" v="Songstadneset" />
		<tag k="natural" v="cape" />
		<tag k="ssr:stedsnr" v="82914" />
	</node>
	<node lat="60.392874996225395" lon="5.262638882154211" id="-26202">
		<tag k="name" v="Wallemsneset" />
		<tag k="natural" v="cape" />
		<tag k="ssr:stedsnr" v="86725" />
	</node>
	<node lat="60.24028610866346" lon="5.241644446477085" id="-26203">
		<tag k="name" v="Laksholmen" />
		<tag k="place" v="islet" />
		<tag k="ssr:stedsnr" v="247650" />
	</node>
	<node lat="60.20781944115315" lon="5.256261118359977" id="-26204">
		<tag k="name" v="Donhavn" />
		<tag k="natural" v="bay" />
		<tag k="ssr:stedsnr" v="247844" />
	</node>
	<node lat="60.441136113183035" lon="5.280841659996055" id="-26214">
		<tag k="name" v="Midtneset" />
		<tag k="natural" v="cape" />
		<tag k="ssr:stedsnr" v="248530" />
	</node>
	<node lat="60.39517777340787" lon="5.265208330270876" id="-26221">
		<tag k="name" v="Gravdalsneset" />
		<tag k="natural" v="cape" />
		<tag k="ssr:stedsnr" v="248690" />
	</node>
	<node lat="60.5017444412139" lon="5.261208336579364" id="-26228">
		<tag k="name" v="Storåkervika" />
		<tag k="natural" v="bay" />
		<tag k="ssr:stedsnr" v="249484" />
	</node>
	<node lat="60.393147224695106" lon="5.281727770915782" id="-26230">
		<tag k="name" v="Olderneset" />
		<tag k="natural" v="cape" />
		<tag k="ssr:stedsnr" v="249595" />
	</node>
	<node lat="60.24802546983937" lon="5.232873836744762" id="-26231">
		<tag k="alt_name" v="Holmevika" />
		<tag k="name" v="Holmevikane" />
		<tag k="natural" v="bay" />
		<tag k="ssr:stedsnr" v="125701" />
	</node>
	<node lat="60.225230431806175" lon="5.282229284208" id="-26245">
		<tag k="name" v="Gjelevågen" />
		<tag k="natural" v="bay" />
		<tag k="ssr:stedsnr" v="126810" />
	</node>
	<node lat="60.446294447977394" lon="5.307333333474841" id="-26256">
		<tag k="name" v="Båtneset" />
		<tag k="natural" v="cape" />
		<tag k="ssr:stedsnr" v="140381" />
	</node>
	<node lat="60.295261108919284" lon="5.208161114695336" id="-26258">
		<tag k="name" v="Knutsvika" />
		<tag k="natural" v="bay" />
		<tag k="ssr:stedsnr" v="141009" />
	</node>
	<node lat="60.253830553397634" lon="5.241722226646393" id="-26260">
		<tag k="name" v="Krokstøvika" />
		<tag k="natural" v="bay" />
		<tag k="ssr:stedsnr" v="141089" />
	</node>
	<node lat="60.45322499668806" lon="5.290094444793751" id="-26273">
		<tag k="fixme" v="consider seamark:type=rock or natural=shoal" />
		<tag k="name" v="Storaskjeret" />
		<tag k="place" v="islet" />
		<tag k="ssr:stedsnr" v="141397" />
	</node>
	<node lat="60.44923889134464" lon="5.294911106320521" id="-26274">
		<tag k="name" v="Ingeborgvika" />
		<tag k="natural" v="bay" />
		<tag k="ssr:stedsnr" v="141401" />
	</node>
	<node lat="60.33497500191498" lon="5.233530557999831" id="-26285">
		<tag k="name" v="Hårsundklubben" />
		<tag k="natural" v="cape" />
		<tag k="ssr:stedsnr" v="142003" />
	</node>
	<node lat="60.22383610958554" lon="5.295191667099923" id="-26292">
		<tag k="name" v="Skipavika" />
		<tag k="natural" v="bay" />
		<tag k="ssr:stedsnr" v="141983" />
	</node>
	<node lat="60.48688218803909" lon="5.404928144278889" id="-26295">
		<tag k="name" v="Eikevika" />
		<tag k="natural" v="bay" />
		<tag k="ssr:stedsnr" v="141999" />
	</node>
	<node lat="60.33003333573331" lon="5.20143333941861" id="-26297">
		<tag k="name" v="Skotavika" />
		<tag k="natural" v="bay" />
		<tag k="ssr:stedsnr" v="142001" />
	</node>
	<node lat="60.26501667086059" lon="5.282783334563951" id="-26303">
		<tag k="name" v="Vestre Godalsvika" />
		<tag k="natural" v="bay" />
		<tag k="ssr:stedsnr" v="142824" />
	</node>
	<node lat="60.211466666723716" lon="5.290191675658613" id="-26308">
		<tag k="name" v="Kattholmen" />
		<tag k="place" v="islet" />
		<tag k="ssr:stedsnr" v="142912" />
	</node>
	<node lat="60.42342221954293" lon="5.537994449141273" id="-26309">
		<tag k="name" v="Herlandsneset" />
		<tag k="natural" v="cape" />
		<tag k="ssr:stedsnr" v="142917" />
	</node>
	<node lat="60.210102777082525" lon="5.283983335840529" id="-26316">
		<tag k="name" v="Grøteidet" />
		<tag k="place" v="locality" />
		<tag k="ssr:stedsnr" v="142940" />
	</node>
	<node lat="60.20492221826163" lon="5.25778889616985" id="-26325">
		<tag k="name" v="Galtaflua" />
		<tag k="natural" v="shoal" />
		<tag k="place" v="locality" />
		<tag k="ssr:stedsnr" v="146022" />
	</node>
	<node lat="60.183263885209534" lon="5.262747224727914" id="-26331">
		<tag k="name" v="Drivflua" />
		<tag k="natural" v="shoal" />
		<tag k="place" v="locality" />
		<tag k="ssr:stedsnr" v="175169" />
	</node>
	<node lat="60.44092499911246" lon="5.302225000384838" id="-26333">
		<tag k="name" v="Lillevågen" />
		<tag k="natural" v="bay" />
		<tag k="ssr:stedsnr" v="262362" />
	</node>
	<node lat="60.44637221973964" lon="5.285005551494898" id="-26335">
		<tag k="name" v="Maltmannen" />
		<tag k="place" v="locality" />
		<tag k="seamark:type" v="rock" />
		<tag k="ssr:stedsnr" v="262388" />
	</node>
	<node lat="60.42796111089945" lon="5.593266668926719" id="-26339">
		<tag k="name" v="Kvernhusvika" />
		<tag k="natural" v="bay" />
		<tag k="ssr:stedsnr" v="187030" />
	</node>
	<node lat="60.293758336070695" lon="5.200625007224752" id="-26350">
		<tag k="fixme" v="consider seamark:type=rock or natural=shoal" />
		<tag k="name" v="Fleslandsskjeret" />
		<tag k="place" v="islet" />
		<tag k="ssr:stedsnr" v="187813" />
	</node>
	<node lat="60.255127773206745" lon="5.313086104410922" id="-26352">
		<tag k="bay" v="fjord" />
		<tag k="name" v="Fanafjorden" />
		<tag k="natural" v="bay" />
		<tag k="ssr:stedsnr" v="187825" />
	</node>
	<node lat="60.28027777753568" lon="5.209686116491287" id="-26359">
		<tag k="name" v="Slettevika" />
		<tag k="natural" v="bay" />
		<tag k="ssr:stedsnr" v="187918" />
	</node>
	<node lat="60.38695833022965" lon="5.315177782738046" id="-26364">
		<tag k="name" v="Dokken" />
		<tag k="natural" v="cape" />
		<tag k="ssr:stedsnr" v="188674" />
	</node>
	<node lat="60.34459166665038" lon="5.223980561488396" id="-26369">
		<tag k="name" v="Notaneset" />
		<tag k="natural" v="cape" />
		<tag k="ssr:stedsnr" v="263011" />
	</node>
	<node lat="60.29849722451562" lon="5.207752777953284" id="-26371">
		<tag k="name" v="Kvernavika" />
		<tag k="natural" v="bay" />
		<tag k="ssr:stedsnr" v="263017" />
	</node>
	<node lat="60.45112019447152" lon="5.458499945884744" id="-26376">
		<tag k="name" v="Båtavika" />
		<tag k="natural" v="bay" />
		<tag k="ssr:stedsnr" v="263089" />
	</node>
	<node lat="60.26136944861412" lon="5.212794452935056" id="-26388">
		<tag k="name" v="Søre Egdholmsundet" />
		<tag k="natural" v="strait" />
		<tag k="ssr:stedsnr" v="263132" />
	</node>
	<node lat="60.52513610741295" lon="5.30635555036895" id="-26402">
		<tag k="name" v="Bakkavika" />
		<tag k="natural" v="bay" />
		<tag k="ssr:stedsnr" v="263316" />
	</node>
	<node lat="60.35063333556479" lon="5.18908332778317" id="-26419">
		<tag k="name" v="Grunnevågen" />
		<tag k="natural" v="bay" />
		<tag k="ssr:stedsnr" v="263566" />
	</node>
	<node lat="60.22535555353459" lon="5.368605551586309" id="-26421">
		<tag k="name" v="Djupevika" />
		<tag k="natural" v="bay" />
		<tag k="ssr:stedsnr" v="263645" />
	</node>
	<node lat="60.25523055759273" lon="5.277647218583563" id="-26432">
		<tag k="name" v="Geitahalsen" />
		<tag k="natural" v="cape" />
		<tag k="ssr:stedsnr" v="263772" />
	</node>
	<node lat="60.22738029909336" lon="5.287272549011666" id="-26446">
		<tag k="name" v="Krokeidvågen" />
		<tag k="natural" v="bay" />
		<tag k="ssr:stedsnr" v="263951" />
	</node>
	<node lat="60.42446111351746" lon="5.51022500470217" id="-26449">
		<tag k="name" v="Sandvika" />
		<tag k="natural" v="bay" />
		<tag k="ssr:stedsnr" v="263970" />
	</node>
	<node lat="60.267150003306945" lon="5.219947227184446" id="-26455">
		<tag k="fixme" v="consider seamark:type=rock or natural=shoal" />
		<tag k="name" v="Søre Steinskjeret" />
		<tag k="place" v="islet" />
		<tag k="ssr:stedsnr" v="264130" />
	</node>
	<node lat="60.21005000076168" lon="5.285752784547293" id="-26459">
		<tag k="name" v="Grøteidholmen" />
		<tag k="place" v="islet" />
		<tag k="ssr:stedsnr" v="264932" />
	</node>
	<node lat="60.244072226588685" lon="5.24700278201023" id="-26462">
		<tag k="name" v="Fløsholmen" />
		<tag k="place" v="islet" />
		<tag k="ssr:stedsnr" v="264760" />
	</node>
	<node lat="60.2578250008287" lon="5.333130549512072" id="-26463">
		<tag k="name" v="Sagavika" />
		<tag k="natural" v="bay" />
		<tag k="ssr:stedsnr" v="264764" />
	</node>
	<node lat="60.26006388975363" lon="5.304936112346256" id="-26465">
		<tag k="name" v="Ervika" />
		<tag k="natural" v="bay" />
		<tag k="ssr:stedsnr" v="264766" />
	</node>
	<node lat="60.413144443682604" lon="5.318069444272344" id="-26476">
		<tag k="fixme" v="consider seamark:type=rock or natural=shoal" />
		<tag k="name" v="Svineryggen" />
		<tag k="place" v="islet" />
		<tag k="ssr:stedsnr" v="202342" />
	</node>
	<node lat="60.44504999896525" lon="5.453511106527688" id="-26478">
		<tag k="name" v="Apalneset" />
		<tag k="natural" v="cape" />
		<tag k="ssr:stedsnr" v="202095" />
	</node>
	<node lat="60.33389214396904" lon="5.246708559283291" id="-26480">
		<tag k="name" v="Bjørgevika" />
		<tag k="natural" v="bay" />
		<tag k="ssr:stedsnr" v="202643" />
	</node>
	<node lat="60.353083332840164" lon="5.178058328912808" id="-26483">
		<tag k="name" v="Kristneset" />
		<tag k="natural" v="cape" />
		<tag k="ssr:stedsnr" v="202546" />
	</node>
	<node lat="60.21816944488255" lon="5.316519441839574" id="-26487">
		<tag k="fixme" v="consider seamark:type=rock or natural=shoal" />
		<tag k="name" v="Levra" />
		<tag k="place" v="islet" />
		<tag k="ssr:stedsnr" v="202899" />
	</node>
	<node lat="60.33599166736205" lon="5.198488882930791" id="-26488">
		<tag k="name" v="Bekkjarvika" />
		<tag k="natural" v="bay" />
		<tag k="ssr:stedsnr" v="203004" />
	</node>
	<node lat="60.22932222204559" lon="5.264419452626794" id="-26493">
		<tag k="name" v="Selvågen" />
		<tag k="natural" v="bay" />
		<tag k="ssr:stedsnr" v="202973" />
	</node>
	<node lat="60.19653889257824" lon="5.293716673157708" id="-26522">
		<tag k="name" v="Storahavet" />
		<tag k="natural" v="shoal" />
		<tag k="place" v="locality" />
		<tag k="ssr:stedsnr" v="207020" />
	</node>
	<node lat="60.44926111513271" lon="5.280663883556626" id="-26525">
		<tag k="name" v="Storflua" />
		<tag k="natural" v="shoal" />
		<tag k="place" v="locality" />
		<tag k="ssr:stedsnr" v="269549" />
	</node>
	<node lat="60.199149998824716" lon="5.2503249976818696" id="-26537">
		<tag k="fixme" v="consider seamark:type=rock or natural=shoal" />
		<tag k="name" v="Blia" />
		<tag k="place" v="islet" />
		<tag k="ssr:stedsnr" v="247773" />
	</node>
	<node lat="60.44270555528693" lon="5.306252771666329" id="-26543">
		<tag k="name" v="Eidsvågen" />
		<tag k="natural" v="bay" />
		<tag k="ssr:stedsnr" v="248501" />
	</node>
	<node lat="60.45437567725666" lon="5.459905979798285" id="-26545">
		<tag k="name" v="Garnestangen" />
		<tag k="natural" v="cape" />
		<tag k="ssr:stedsnr" v="248511" />
	</node>
	<node lat="60.259375000108996" lon="5.212319443938811" id="-26556">
		<tag k="name" v="Søre Egdholmen" />
		<tag k="place" v="islet" />
		<tag k="ssr:stedsnr" v="248900" />
	</node>
	<node lat="60.327469448548925" lon="5.203200003939956" id="-26557">
		<tag k="name" v="Årholmen" />
		<tag k="place" v="islet" />
		<tag k="ssr:stedsnr" v="248800" />
	</node>
	<node lat="60.25906111074603" lon="5.1853388799829006" id="-26558">
		<tag k="name" v="Vardholmen" />
		<tag k="place" v="islet" />
		<tag k="ssr:stedsnr" v="248903" />
	</node>
	<node lat="60.263286107429096" lon="5.278738881690996" id="-26559">
		<tag k="name" v="Litle Brandaneset" />
		<tag k="natural" v="cape" />
		<tag k="ssr:stedsnr" v="248907" />
	</node>
	<node lat="60.266708337792934" lon="5.211319451626462" id="-26560">
		<tag k="fixme" v="multiple name tags, choose one and add the other to alt_name" />
		<tag k="name" v="Høgevossen;Flatevossen" />
		<tag k="place" v="islet" />
		<tag k="ssr:stedsnr" v="248919" />
	</node>
	<node lat="60.290360920300905" lon="5.201943249576742" id="-26564">
		<tag k="name" v="Saltvikneset" />
		<tag k="natural" v="cape" />
		<tag k="ssr:stedsnr" v="263004" />
	</node>
	<node lat="60.29176666545028" lon="5.206644442203022" id="-26566">
		<tag k="name" v="Fleslandsvika" />
		<tag k="natural" v="bay" />
		<tag k="ssr:stedsnr" v="263006" />
	</node>
	<node lat="60.204474996782224" lon="5.270230552249454" id="-26571">
		<tag k="name" v="Krokaholmen" />
		<tag k="place" v="islet" />
		<tag k="ssr:stedsnr" v="263077" />
	</node>
	<node lat="60.275188890862715" lon="5.219380557927651" id="-26582">
		<tag k="name" v="Lønningshavn" />
		<tag k="natural" v="bay" />
		<tag k="ssr:stedsnr" v="263166" />
	</node>
	<node lat="60.27412499785602" lon="5.219913890036285" id="-26583">
		<tag k="name" v="Mariholmen" />
		<tag k="place" v="islet" />
		<tag k="ssr:stedsnr" v="263168" />
	</node>
	<node lat="60.26781389145249" lon="5.251711108663686" id="-26600">
		<tag k="name" v="Ådlandsstraumen" />
		<tag k="natural" v="strait" />
		<tag k="ssr:stedsnr" v="263838" />
	</node>
	<node lat="60.524669448143236" lon="5.711511105254485" id="-26605">
		<tag k="bay" v="fjord" />
		<tag k="name" v="Sørfjorden" />
		<tag k="natural" v="bay" />
		<tag k="ssr:stedsnr" v="263791" />
	</node>
	<node lat="60.32236111197163" lon="5.277988892258173" id="-26606">
		<tag k="name" v="Brakaneset" />
		<tag k="natural" v="cape" />
		<tag k="ssr:stedsnr" v="263794" />
	</node>
	<node lat="60.21716388653009" lon="5.318291660873309" id="-26617">
		<tag k="name" v="Austre Austnesholmen" />
		<tag k="place" v="islet" />
		<tag k="ssr:stedsnr" v="264909" />
	</node>
	<node lat="60.265143549538806" lon="5.219760238464285" id="-26648">
		<tag k="name" v="Grunnasundholmane" />
		<tag k="place" v="islet" />
		<tag k="ssr:stedsnr" v="309912" />
	</node>
	<node lat="60.477963890303464" lon="5.255616658713425" id="-26654">
		<tag k="name" v="Steinsvika" />
		<tag k="natural" v="bay" />
		<tag k="ssr:stedsnr" v="323328" />
	</node>
	<node lat="60.434336110009916" lon="5.500577780304251" id="-26666">
		<tag k="name" v="Langeneset" />
		<tag k="natural" v="cape" />
		<tag k="ssr:stedsnr" v="468844" />
	</node>
	<node lat="60.43289444715124" lon="5.6274999911207235" id="-26674">
		<tag k="name" v="Ospeneset" />
		<tag k="natural" v="cape" />
		<tag k="ssr:stedsnr" v="324100" />
	</node>
	<node lat="60.249349999317495" lon="5.26814444248154" id="-26696">
		<tag k="name" v="Mildevågen" />
		<tag k="natural" v="bay" />
		<tag k="ssr:stedsnr" v="324759" />
	</node>
	<node lat="60.26330833192236" lon="5.28506388876031" id="-26706">
		<tag k="name" v="Grasholmen" />
		<tag k="place" v="islet" />
		<tag k="ssr:stedsnr" v="324873" />
	</node>
	<node lat="60.22980555536598" lon="5.263072216277866" id="-26723">
		<tag k="name" v="Selvågstangen" />
		<tag k="natural" v="cape" />
		<tag k="ssr:stedsnr" v="368865" />
	</node>
	<node lat="60.416228194445" lon="5.305323797135442" id="-26733">
		<tag k="name" v="Hegreneset" />
		<tag k="natural" v="cape" />
		<tag k="ssr:stedsnr" v="369527" />
	</node>
	<node lat="60.40878611214887" lon="5.318738880358761" id="-26735">
		<tag k="name" v="Kristiansholm" />
		<tag k="natural" v="cape" />
		<tag k="ssr:stedsnr" v="369619" />
	</node>
	<node lat="60.3882127929081" lon="5.2052514636290725" id="-26755">
		<tag k="name" v="Gjerdingsneset" />
		<tag k="natural" v="cape" />
		<tag k="ssr:stedsnr" v="384013" />
	</node>
	<node lat="60.24541389035168" lon="5.24046944872889" id="-26756">
		<tag k="name" v="Okshammarsvika" />
		<tag k="natural" v="bay" />
		<tag k="ssr:stedsnr" v="384049" />
	</node>
	<node lat="60.24493610651036" lon="5.2345777706058945" id="-26760">
		<tag k="name" v="Olaholmen" />
		<tag k="place" v="islet" />
		<tag k="ssr:stedsnr" v="384056" />
	</node>
	<node lat="60.39409333445588" lon="5.268523830650458" id="-26762">
		<tag k="name" v="Simonsviken" />
		<tag k="natural" v="bay" />
		<tag k="ssr:stedsnr" v="384066" />
	</node>
	<node lat="60.46078888681534" lon="5.2683972160451935" id="-26775">
		<tag k="name" v="Knappen" />
		<tag k="natural" v="cape" />
		<tag k="ssr:stedsnr" v="384314" />
	</node>
	<node lat="60.33264166279491" lon="5.32275277727437" id="-26787">
		<tag k="name" v="Nordrevågen" />
		<tag k="natural" v="bay" />
		<tag k="ssr:stedsnr" v="384502" />
	</node>
	<node lat="60.26720833222081" lon="5.268891663331971" id="-26803">
		<tag k="name" v="Åsaholmen" />
		<tag k="place" v="islet" />
		<tag k="ssr:stedsnr" v="384811" />
	</node>
	<node lat="60.27148055858572" lon="5.26737777349826" id="-26807">
		<tag k="name" v="Austre Eidsholmen" />
		<tag k="place" v="islet" />
		<tag k="ssr:stedsnr" v="384821" />
	</node>
	<node lat="60.42198284149898" lon="5.525260388490938" id="-26813">
		<tag k="name" v="Takkvamsbukta" />
		<tag k="natural" v="bay" />
		<tag k="ssr:stedsnr" v="384947" />
	</node>
	<node lat="60.226108331676436" lon="5.279636110194091" id="-26814">
		<tag k="name" v="Kjenesvika" />
		<tag k="natural" v="bay" />
		<tag k="ssr:stedsnr" v="384948" />
	</node>
	<node lat="60.44904999648118" lon="5.4728222137612725" id="-26818">
		<tag k="name" v="Klubben" />
		<tag k="natural" v="cape" />
		<tag k="ssr:stedsnr" v="384995" />
	</node>
	<node lat="60.272999998631605" lon="5.220772216696184" id="-26819">
		<tag k="fixme" v="consider seamark:type=rock or natural=shoal" />
		<tag k="name" v="Notabuskjeret" />
		<tag k="place" v="islet" />
		<tag k="ssr:stedsnr" v="385118" />
	</node>
	<node lat="60.261424998170355" lon="5.31545556377402" id="-26820">
		<tag k="name" v="Rundesterten" />
		<tag k="natural" v="cape" />
		<tag k="ssr:stedsnr" v="384845" />
	</node>
	<node lat="60.22625000231471" lon="5.346869440968417" id="-26822">
		<tag k="name" v="Bakarvikneset" />
		<tag k="natural" v="cape" />
		<tag k="ssr:stedsnr" v="384895" />
	</node>
	<node lat="60.226313893189825" lon="5.357136119592132" id="-26824">
		<tag k="name" v="Hølsundet" />
		<tag k="natural" v="strait" />
		<tag k="ssr:stedsnr" v="384901" />
	</node>
	<node lat="60.328452781091556" lon="5.201383337215667" id="-26825">
		<tag k="name" v="Ytstaneset" />
		<tag k="natural" v="cape" />
		<tag k="ssr:stedsnr" v="385002" />
	</node>
	<node lat="60.331790022191534" lon="5.232778323433362" id="-26826">
		<tag k="name" v="Skværvika" />
		<tag k="natural" v="bay" />
		<tag k="ssr:stedsnr" v="385004" />
	</node>
	<node lat="60.487147226408595" lon="5.258541662861887" id="-26841">
		<tag k="name" v="Slettestølsneset" />
		<tag k="natural" v="cape" />
		<tag k="ssr:stedsnr" v="388991" />
	</node>
	<node lat="60.209955554508674" lon="5.2458749916998935" id="-26852">
		<tag k="name" v="Korsen" />
		<tag k="natural" v="cape" />
		<tag k="ssr:stedsnr" v="489854" />
	</node>
	<node lat="60.39874722045767" lon="5.241327770664403" id="-26859">
		<tag k="name" v="Kvarven" />
		<tag k="natural" v="cape" />
		<tag k="ssr:stedsnr" v="490571" />
	</node>
	<node lat="60.358558337736355" lon="5.237302773935264" id="-26861">
		<tag k="name" v="Bjørndalspollen" />
		<tag k="natural" v="bay" />
		<tag k="ssr:stedsnr" v="490698" />
	</node>
	<node lat="60.353769445424106" lon="5.186877772914137" id="-26863">
		<tag k="name" v="Alvøen" />
		<tag k="natural" v="cape" />
		<tag k="ssr:stedsnr" v="490722" />
	</node>
	<node lat="60.266483330697504" lon="5.324627769128609" id="-26866">
		<tag k="name" v="Stendaholmen" />
		<tag k="place" v="islet" />
		<tag k="ssr:stedsnr" v="490883" />
	</node>
	<node lat="60.23846308134453" lon="5.242672038013725" id="-26867">
		<tag k="name" v="Litle Svartholmen" />
		<tag k="place" v="islet" />
		<tag k="ssr:stedsnr" v="429661" />
	</node>
	<node lat="60.22493333716955" lon="5.358249995842944" id="-26868">
		<tag k="name" v="Storholmen" />
		<tag k="place" v="islet" />
		<tag k="ssr:stedsnr" v="490863" />
	</node>
	<node lat="60.21906111421617" lon="5.296986108315386" id="-26870">
		<tag k="name" v="Kjeøyna" />
		<tag k="place" v="islet" />
		<tag k="ssr:stedsnr" v="490868" />
	</node>
	<node lat="60.214794441626246" lon="5.285116675852648" id="-26871">
		<tag k="name" v="Rishavn" />
		<tag k="natural" v="bay" />
		<tag k="ssr:stedsnr" v="490871" />
	</node>
	<node lat="60.307138891927394" lon="5.209408339210939" id="-26886">
		<tag k="name" v="Lindevika" />
		<tag k="natural" v="bay" />
		<tag k="ssr:stedsnr" v="430845" />
	</node>
	<node lat="60.264202774292656" lon="5.269505553791464" id="-26889">
		<tag k="name" v="Vestrepollen" />
		<tag k="natural" v="bay" />
		<tag k="ssr:stedsnr" v="430898" />
	</node>
	<node lat="60.52055833578629" lon="5.287430553365623" id="-26895">
		<tag k="name" v="Tellevikabukta" />
		<tag k="natural" v="bay" />
		<tag k="ssr:stedsnr" v="431405" />
	</node>
	<node lat="60.34156388520279" lon="5.183455553641414" id="-26908">
		<tag k="name" v="Minnestraumen" />
		<tag k="natural" v="cape" />
		<tag k="ssr:stedsnr" v="491793" />
	</node>
	<node lat="60.31223889083988" lon="5.299869452668694" id="-26913">
		<tag k="name" v="Storhusholmen" />
		<tag k="place" v="islet" />
		<tag k="ssr:stedsnr" v="491862" />
	</node>
	<node lat="60.260274997131674" lon="5.23618612019283" id="-26922">
		<tag k="name" v="Gardsendvika" />
		<tag k="natural" v="bay" />
		<tag k="ssr:stedsnr" v="445091" />
	</node>
	<node lat="60.46328888956087" lon="5.27222500224082" id="-26936">
		<tag k="name" v="Bekkjarvika" />
		<tag k="natural" v="bay" />
		<tag k="ssr:stedsnr" v="445312" />
	</node>
	<node lat="60.35357222631747" lon="5.239205551493669" id="-26944">
		<tag k="name" v="Setrevika" />
		<tag k="natural" v="bay" />
		<tag k="ssr:stedsnr" v="445576" />
	</node>
	<node lat="60.4233444409801" lon="5.517577776204024" id="-26959">
		<tag k="name" v="Takkvamsneset" />
		<tag k="natural" v="cape" />
		<tag k="ssr:stedsnr" v="445973" />
	</node>
	<node lat="60.22239166648887" lon="5.2935638817535215" id="-26964">
		<tag k="fixme" v="consider seamark:type=rock or natural=shoal" />
		<tag k="name" v="Skipavikskjeret" />
		<tag k="place" v="islet" />
		<tag k="ssr:stedsnr" v="445991" />
	</node>
	<node lat="60.44448611291896" lon="5.476391674436411" id="-26966">
		<tag k="name" v="Leirvikneset" />
		<tag k="natural" v="cape" />
		<tag k="ssr:stedsnr" v="445993" />
	</node>
	<node lat="60.22048333144124" lon="5.295808328940158" id="-26967">
		<tag k="name" v="Øynaklubben" />
		<tag k="natural" v="cape" />
		<tag k="ssr:stedsnr" v="445995" />
	</node>
	<node lat="60.27278889053822" lon="5.214380559442864" id="-26970">
		<tag k="name" v="Røysatangen" />
		<tag k="natural" v="bay" />
		<tag k="ssr:stedsnr" v="446128" />
	</node>
	<node lat="60.258997224562094" lon="5.281622223550567" id="-26980">
		<tag k="name" v="Søre Mørkevågen" />
		<tag k="natural" v="bay" />
		<tag k="ssr:stedsnr" v="446780" />
	</node>
	<node lat="60.25977221792875" lon="5.328002783227158" id="-26982">
		<tag k="name" v="Fosseflua" />
		<tag k="natural" v="shoal" />
		<tag k="place" v="locality" />
		<tag k="ssr:stedsnr" v="450212" />
	</node>
	<node lat="60.20689722468535" lon="5.27330832836574" id="-26985">
		<tag k="name" v="Hendersvika" />
		<tag k="natural" v="bay" />
		<tag k="ssr:stedsnr" v="671767" />
	</node>
	<node lat="60.4164465296766" lon="5.30837380850157" id="-26991">
		<tag k="name" v="Nyhavn" />
		<tag k="natural" v="bay" />
		<tag k="ssr:stedsnr" v="672547" />
	</node>
	<node lat="60.23928682039138" lon="5.246810764125227" id="-26993">
		<tag k="name" v="Store Svartholmen" />
		<tag k="place" v="islet" />
		<tag k="ssr:stedsnr" v="672656" />
	</node>
	<node lat="60.270974995462204" lon="5.214355549138299" id="-27019">
		<tag k="name" v="Litle Løholmen" />
		<tag k="place" v="islet" />
		<tag k="ssr:stedsnr" v="673933" />
	</node>
	<node lat="60.322047223854895" lon="5.256063888963484" id="-27021">
		<tag k="name" v="Knappen" />
		<tag k="natural" v="cape" />
		<tag k="ssr:stedsnr" v="674593" />
	</node>
	<node lat="60.395183333899766" lon="5.272799999245351" id="-27038">
		<tag k="name" v="Lyreneset" />
		<tag k="natural" v="cape" />
		<tag k="ssr:stedsnr" v="491684" />
	</node>
	<node lat="60.27129444472169" lon="5.2617277780499965" id="-27041">
		<tag k="name" v="Øykjeneset" />
		<tag k="natural" v="cape" />
		<tag k="ssr:stedsnr" v="491914" />
	</node>
	<node lat="60.26323333294748" lon="5.182641672894335" id="-27043">
		<tag k="name" v="Flatøyna" />
		<tag k="place" v="island" />
		<tag k="ssr:stedsnr" v="491928" />
	</node>
	<node lat="60.294363888273026" lon="5.2070638812340935" id="-27046">
		<tag k="name" v="Tangavika" />
		<tag k="natural" v="bay" />
		<tag k="ssr:stedsnr" v="505006" />
	</node>
	<node lat="60.270763891417886" lon="5.281938881745347" id="-27051">
		<tag k="name" v="Grimseidpollen" />
		<tag k="natural" v="bay" />
		<tag k="ssr:stedsnr" v="505406" />
	</node>
	<node lat="60.22068055902906" lon="5.303347213038793" id="-27054">
		<tag k="name" v="Kalvaneset" />
		<tag k="natural" v="cape" />
		<tag k="ssr:stedsnr" v="505868" />
	</node>
	<node lat="60.213166667659245" lon="5.249999995045092" id="-27056">
		<tag k="name" v="Klenevågen" />
		<tag k="natural" v="bay" />
		<tag k="ssr:stedsnr" v="505876" />
	</node>
	<node lat="60.32821640094447" lon="5.2073211494634855" id="-27059">
		<tag k="name" v="Hundavika" />
		<tag k="natural" v="bay" />
		<tag k="ssr:stedsnr" v="506011" />
	</node>
	<node lat="60.33917499799324" lon="5.1948555581422085" id="-27062">
		<tag k="name" v="Storingavika" />
		<tag k="natural" v="bay" />
		<tag k="ssr:stedsnr" v="506017" />
	</node>
	<node lat="60.344524999869435" lon="5.228999996848032" id="-27063">
		<tag k="name" v="Storholmen" />
		<tag k="place" v="islet" />
		<tag k="ssr:stedsnr" v="506019" />
	</node>
	<node lat="60.368506444020895" lon="5.174148902243367" id="-27064">
		<tag k="name" v="Søre Drotningsvika" />
		<tag k="natural" v="bay" />
		<tag k="ssr:stedsnr" v="506022" />
	</node>
	<node lat="60.21932222586165" lon="5.290369442448411" id="-27070">
		<tag k="name" v="Såtevikssundet" />
		<tag k="natural" v="strait" />
		<tag k="ssr:stedsnr" v="505969" />
	</node>
	<node lat="60.43069722617123" lon="5.625077769785673" id="-27076">
		<tag k="fixme" v="consider seamark:type=rock or natural=shoal" />
		<tag k="name" v="Skjeret" />
		<tag k="place" v="islet" />
		<tag k="ssr:stedsnr" v="506109" />
	</node>
	<node lat="60.26113889056914" lon="5.208827780849895" id="-27081">
		<tag k="name" v="Kvalen" />
		<tag k="place" v="islet" />
		<tag k="ssr:stedsnr" v="506124" />
	</node>
	<node lat="60.26457222152522" lon="5.284961115132928" id="-27112">
		<tag k="name" v="Austre Godalsvika" />
		<tag k="natural" v="bay" />
		<tag k="ssr:stedsnr" v="506805" />
	</node>
	<node lat="60.26420000080032" lon="5.2827833277882394" id="-27113">
		<tag k="fixme" v="consider seamark:type=rock or natural=shoal" />
		<tag k="name" v="Tretteskjeret" />
		<tag k="place" v="islet" />
		<tag k="ssr:stedsnr" v="506806" />
	</node>
	<node lat="60.250361108595534" lon="5.317455559826653" id="-27121">
		<tag k="name" v="Salbusundet" />
		<tag k="natural" v="strait" />
		<tag k="ssr:stedsnr" v="506756" />
	</node>
	<node lat="60.24418889206451" lon="5.271122214194166" id="-27123">
		<tag k="name" v="Klubben" />
		<tag k="natural" v="cape" />
		<tag k="ssr:stedsnr" v="506758" />
	</node>
	<node lat="60.260424996035354" lon="5.292736105054841" id="-27125">
		<tag k="name" v="Furevika" />
		<tag k="natural" v="bay" />
		<tag k="ssr:stedsnr" v="506770" />
	</node>
	<node lat="60.317191669296676" lon="5.261211104760548" id="-27126">
		<tag k="name" v="Torskaneset" />
		<tag k="natural" v="cape" />
		<tag k="ssr:stedsnr" v="506775" />
	</node>
	<node lat="60.41037128709669" lon="5.319243176959497" id="-27136">
		<tag k="name" v="Sandviken" />
		<tag k="natural" v="bay" />
		<tag k="ssr:stedsnr" v="513031" />
	</node>
	<node lat="60.26002777990947" lon="5.213516675226204" id="-27148">
		<tag k="name" v="Egdholmsvågen" />
		<tag k="natural" v="bay" />
		<tag k="ssr:stedsnr" v="687072" />
	</node>
	<node lat="60.44418611190291" lon="5.475252770367377" id="-27153">
		<tag k="name" v="Leiro" />
		<tag k="natural" v="bay" />
		<tag k="ssr:stedsnr" v="551018" />
	</node>
	<node lat="60.33431388873969" lon="5.22583332926494" id="-27174">
		<tag k="name" v="Stora Bogøyna" />
		<tag k="natural" v="cape" />
		<tag k="ssr:stedsnr" v="551817" />
	</node>
	<node lat="60.28787778039099" lon="5.2081583322411005" id="-27175">
		<tag k="name" v="Setevika" />
		<tag k="natural" v="bay" />
		<tag k="ssr:stedsnr" v="551832" />
	</node>
	<node lat="60.33991944542718" lon="5.185474995133927" id="-27183">
		<tag k="name" v="Magnevika" />
		<tag k="natural" v="bay" />
		<tag k="ssr:stedsnr" v="688016" />
	</node>
	<node lat="60.22847499809072" lon="5.2748000037216" id="-27185">
		<tag k="name" v="Stampavika" />
		<tag k="natural" v="bay" />
		<tag k="ssr:stedsnr" v="687971" />
	</node>
	<node lat="60.27012500239468" lon="5.221858326865167" id="-27189">
		<tag k="name" v="Steingardsvika" />
		<tag k="natural" v="bay" />
		<tag k="ssr:stedsnr" v="688099" />
	</node>
	<node lat="60.208951466119395" lon="5.24816228994377" id="-27231">
		<tag k="name" v="Korsavika" />
		<tag k="natural" v="bay" />
		<tag k="ssr:stedsnr" v="688943" />
	</node>
	<node lat="60.223424999673895" lon="5.278474996701335" id="-27235">
		<tag k="name" v="Straumen" />
		<tag k="natural" v="bay" />
		<tag k="ssr:stedsnr" v="688957" />
	</node>
	<node lat="60.360661115726124" lon="5.178400007897448" id="-27254">
		<tag k="name" v="Træsholmen" />
		<tag k="place" v="islet" />
		<tag k="ssr:stedsnr" v="688523" />
	</node>
	<node lat="60.43073888483641" lon="5.5820722277511" id="-27285">
		<tag k="name" v="Naustvika" />
		<tag k="natural" v="bay" />
		<tag k="ssr:stedsnr" v="688917" />
	</node>
	<node lat="60.205177777413155" lon="5.309588896138321" id="-27293">
		<tag k="name" v="Uerseteskallen" />
		<tag k="natural" v="shoal" />
		<tag k="place" v="locality" />
		<tag k="ssr:stedsnr" v="692060" />
	</node>
	<node lat="60.35031944176701" lon="5.179419446534527" id="-27323">
		<tag k="name" v="Småholmen" />
		<tag k="place" v="islet" />
		<tag k="ssr:stedsnr" v="566523" />
	</node>
	<node lat="60.25656388633871" lon="5.281247227412092" id="-27331">
		<tag k="name" v="Sandholeholmen" />
		<tag k="place" v="islet" />
		<tag k="ssr:stedsnr" v="566863" />
	</node>
	<node lat="60.50370796945551" lon="5.379679488000059" id="-27337">
		<tag k="name" v="Hetlevika" />
		<tag k="natural" v="bay" />
		<tag k="ssr:stedsnr" v="566880" />
	</node>
	<node lat="60.219486109605995" lon="5.294263895648546" id="-27340">
		<tag k="name" v="Krabbasundet" />
		<tag k="place" v="islet" />
		<tag k="ssr:stedsnr" v="566971" />
	</node>
	<node lat="60.5103555543629" lon="5.255605555734599" id="-27368">
		<tag k="bay" v="fjord" />
		<tag k="name" v="Salhusfjorden" />
		<tag k="natural" v="bay" />
		<tag k="ssr:stedsnr" v="612403" />
	</node>
	<node lat="60.34900026947137" lon="5.184278524111374" id="-27376">
		<tag k="name" v="Alvøpollen" />
		<tag k="natural" v="bay" />
		<tag k="ssr:stedsnr" v="612726" />
	</node>
	<node lat="60.33140278230055" lon="5.337480558048431" id="-27378">
		<tag k="name" v="Kaninholmen" />
		<tag k="place" v="islet" />
		<tag k="ssr:stedsnr" v="612763" />
	</node>
	<node lat="60.42330277372061" lon="5.268197223878274" id="-27381">
		<tag k="bay" v="fjord" />
		<tag k="name" v="Byfjorden" />
		<tag k="natural" v="bay" />
		<tag k="ssr:stedsnr" v="613525" />
	</node>
	<node lat="60.441375000878935" lon="5.313497214760596" id="-27388">
		<tag k="fixme" v="consider seamark:type=rock or natural=shoal" />
		<tag k="name" v="Vollaskjera" />
		<tag k="place" v="islet" />
		<tag k="ssr:stedsnr" v="626400" />
	</node>
	<node lat="60.39043896172928" lon="5.216594108930875" id="-27389">
		<tag k="name" v="Gullvika" />
		<tag k="natural" v="bay" />
		<tag k="ssr:stedsnr" v="627005" />
	</node>
	<node lat="60.22438888528335" lon="5.250391664489123" id="-27391">
		<tag k="name" v="Rettarbenken" />
		<tag k="natural" v="cape" />
		<tag k="ssr:stedsnr" v="626950" />
	</node>
	<node lat="60.2659861081093" lon="5.273508326278576" id="-27435">
		<tag k="name" v="Kobbeneset" />
		<tag k="natural" v="cape" />
		<tag k="ssr:stedsnr" v="627845" />
	</node>
	<node lat="60.32152222170437" lon="5.242574994165627" id="-27439">
		<tag k="name" v="Blåbærvika" />
		<tag k="natural" v="bay" />
		<tag k="ssr:stedsnr" v="627801" />
	</node>
	<node lat="60.435599999552124" lon="5.49908610706894" id="-27445">
		<tag k="name" v="Tuneset" />
		<tag k="natural" v="cape" />
		<tag k="ssr:stedsnr" v="628000" />
	</node>
	<node lat="60.49378610818752" lon="5.259688897411311" id="-27447">
		<tag k="name" v="Bådalsneset" />
		<tag k="natural" v="cape" />
		<tag k="ssr:stedsnr" v="632539" />
	</node>
	<node lat="60.454438887189774" lon="5.2697166640943465" id="-27448">
		<tag k="name" v="Danmarkskallen" />
		<tag k="natural" v="shoal" />
		<tag k="place" v="locality" />
		<tag k="ssr:stedsnr" v="632540" />
	</node>
	<node lat="60.21998611330939" lon="5.246347214786836" id="-27461">
		<tag k="name" v="Storavikskaget" />
		<tag k="natural" v="cape" />
		<tag k="ssr:stedsnr" v="672829" />
	</node>
	<node lat="60.44465981976338" lon="5.454607338735653" id="-27466">
		<tag k="name" v="Festtangen" />
		<tag k="natural" v="cape" />
		<tag k="ssr:stedsnr" v="673615" />
	</node>
	<node lat="60.43517777790355" lon="5.4576333367411785" id="-27477">
		<tag k="name" v="Holmen" />
		<tag k="natural" v="cape" />
		<tag k="ssr:stedsnr" v="687041" />
	</node>
	<node lat="60.331858592510095" lon="5.2243252879562885" id="-27480">
		<tag k="name" v="Søra Sildavika" />
		<tag k="natural" v="bay" />
		<tag k="ssr:stedsnr" v="688009" />
	</node>
	<node lat="60.42922778152029" lon="5.616927768489137" id="-27486">
		<tag k="name" v="Synneset" />
		<tag k="natural" v="cape" />
		<tag k="ssr:stedsnr" v="688108" />
	</node>
	<node lat="60.27354444781199" lon="5.213222227129049" id="-27489">
		<tag k="name" v="Breiavika" />
		<tag k="natural" v="bay" />
		<tag k="ssr:stedsnr" v="688119" />
	</node>
	<node lat="60.23998888836733" lon="5.291386110412719" id="-27502">
		<tag k="name" v="Botnavika" />
		<tag k="natural" v="bay" />
		<tag k="ssr:stedsnr" v="688382" />
	</node>
	<node lat="60.34682222011348" lon="5.19090556072859" id="-27506">
		<tag k="name" v="Setrevika" />
		<tag k="natural" v="bay" />
		<tag k="ssr:stedsnr" v="688557" />
	</node>
	<node lat="60.34861389119334" lon="5.1847722255924324" id="-27508">
		<tag k="fixme" v="consider seamark:type=rock or natural=shoal" />
		<tag k="name" v="Myraskjeret" />
		<tag k="place" v="islet" />
		<tag k="ssr:stedsnr" v="688561" />
	</node>
	<node lat="60.270741662529296" lon="5.265644453776339" id="-27517">
		<tag k="name" v="Vestre Eidsholmen" />
		<tag k="place" v="islet" />
		<tag k="ssr:stedsnr" v="688837" />
	</node>
	<node lat="60.259491667136636" lon="5.2662749994169085" id="-27519">
		<tag k="name" v="Røytepøyla" />
		<tag k="natural" v="bay" />
		<tag k="ssr:stedsnr" v="688843" />
	</node>
	<node lat="60.22854721776655" lon="5.343427773102408" id="-27527">
		<tag k="name" v="Bekkjarvika" />
		<tag k="natural" v="bay" />
		<tag k="ssr:stedsnr" v="688904" />
	</node>
	<node lat="60.2117527753599" lon="5.282463895610268" id="-27531">
		<tag k="name" v="Kveiteholet" />
		<tag k="natural" v="bay" />
		<tag k="ssr:stedsnr" v="688935" />
	</node>
	<node lat="60.21941110948313" lon="5.318691664940584" id="-27532">
		<tag k="name" v="Tortelsvikskaget" />
		<tag k="natural" v="cape" />
		<tag k="ssr:stedsnr" v="688881" />
	</node>
	<node lat="60.22029444275344" lon="5.309850003897617" id="-27533">
		<tag k="name" v="Djupevika" />
		<tag k="natural" v="bay" />
		<tag k="ssr:stedsnr" v="688883" />
	</node>
	<node lat="60.231111111175395" lon="5.357936112977542" id="-27564">
		<tag k="name" v="Nordvika" />
		<tag k="natural" v="bay" />
		<tag k="ssr:stedsnr" v="733859" />
	</node>
	<node lat="60.22356944083802" lon="5.305122228836107" id="-27568">
		<tag k="name" v="Austrevågen" />
		<tag k="natural" v="bay" />
		<tag k="ssr:stedsnr" v="733802" />
	</node>
	<node lat="60.26837222282422" lon="5.215719448601142" id="-27575">
		<tag k="name" v="Slåttholmen" />
		<tag k="place" v="islet" />
		<tag k="ssr:stedsnr" v="734905" />
	</node>
	<node lat="60.29990277439985" lon="5.205708326443699" id="-27579">
		<tag k="name" v="Botnaneset" />
		<tag k="natural" v="cape" />
		<tag k="ssr:stedsnr" v="748015" />
	</node>
	<node lat="60.38911110881434" lon="5.209933324830575" id="-27581">
		<tag k="name" v="Olsvikaneset" />
		<tag k="natural" v="cape" />
		<tag k="ssr:stedsnr" v="748025" />
	</node>
	<node lat="60.45700555517005" lon="5.273413887890749" id="-27596">
		<tag k="fixme" v="consider seamark:type=rock or natural=shoal" />
		<tag k="name" v="Kipaskjeret" />
		<tag k="place" v="islet" />
		<tag k="ssr:stedsnr" v="748304" />
	</node>
	<node lat="60.48523889197705" lon="5.407094445007406" id="-27623">
		<tag k="fixme" v="consider seamark:type=rock or natural=shoal" />
		<tag k="name" v="Kvernhusskjeret" />
		<tag k="place" v="islet" />
		<tag k="ssr:stedsnr" v="748973" />
	</node>
	<node lat="60.34536944200766" lon="5.226461117663837" id="-27624">
		<tag k="name" v="Litleholmen" />
		<tag k="place" v="islet" />
		<tag k="ssr:stedsnr" v="749009" />
	</node>
	<node lat="60.390802778883696" lon="5.311563891424103" id="-27656">
		<tag k="name" v="Sydnes" />
		<tag k="natural" v="cape" />
		<tag k="ssr:stedsnr" v="794627" />
	</node>
	<node lat="60.47861643373214" lon="5.413069093801379" id="-27658">
		<tag k="name" v="Ervika" />
		<tag k="natural" v="bay" />
		<tag k="ssr:stedsnr" v="794384" />
	</node>
	<node lat="60.321202774440174" lon="5.246333338168815" id="-27662">
		<tag k="name" v="Stamneset" />
		<tag k="natural" v="cape" />
		<tag k="ssr:stedsnr" v="794775" />
	</node>
	<node lat="60.31606944260219" lon="5.304663887172068" id="-27668">
		<tag k="name" v="Ormøyna" />
		<tag k="place" v="island" />
		<tag k="ssr:stedsnr" v="794861" />
	</node>
	<node lat="60.20250555610008" lon="5.294386119721589" id="-27672">
		<tag k="bay" v="fjord" />
		<tag k="name" v="Lysefjorden" />
		<tag k="natural" v="bay" />
		<tag k="ssr:stedsnr" v="914771" />
	</node>
	<node lat="60.21496389239222" lon="5.305280551605331" id="-27675">
		<tag k="name" v="Langøyna" />
		<tag k="place" v="islet" />
		<tag k="ssr:stedsnr" v="914844" />
	</node>
	<node lat="60.242791665214995" lon="5.268644439287295" id="-27678">
		<tag k="name" v="Herøy" />
		<tag k="place" v="islet" />
		<tag k="ssr:stedsnr" v="915659" />
	</node>
	<node lat="60.21670833452413" lon="5.259494452880034" id="-27681">
		<tag k="name" v="Korsneset" />
		<tag k="natural" v="cape" />
		<tag k="ssr:stedsnr" v="915866" />
	</node>
	<node lat="60.34636666870486" lon="5.23096388808299" id="-27684">
		<tag k="name" v="Tømmervikneset" />
		<tag k="natural" v="cape" />
		<tag k="ssr:stedsnr" v="916747" />
	</node>
	<node lat="60.257680553620695" lon="5.232794451224397" id="-27701">
		<tag k="name" v="Dråttninga" />
		<tag k="place" v="islet" />
		<tag k="ssr:stedsnr" v="809097" />
	</node>
	<node lat="60.35968611369809" lon="5.176233335744308" id="-27725">
		<tag k="name" v="Kongshavnsholmen" />
		<tag k="place" v="islet" />
		<tag k="ssr:stedsnr" v="809542" />
	</node>
	<node lat="60.34933611299229" lon="5.19080278538898" id="-27728">
		<tag k="name" v="Kruttbodneset" />
		<tag k="natural" v="cape" />
		<tag k="ssr:stedsnr" v="809585" />
	</node>
	<node lat="60.32135555945865" lon="5.268658334793638" id="-27731">
		<tag k="name" v="Nordåsstraumen" />
		<tag k="natural" v="strait" />
		<tag k="ssr:stedsnr" v="809800" />
	</node>
	<node lat="60.2168722223082" lon="5.292033338907669" id="-27732">
		<tag k="name" v="Nordre Sætevika" />
		<tag k="natural" v="bay" />
		<tag k="ssr:stedsnr" v="809905" />
	</node>
	<node lat="60.219236108817874" lon="5.297461114680956" id="-27735">
		<tag k="name" v="Kjeøyna" />
		<tag k="place" v="islet" />
		<tag k="ssr:stedsnr" v="809981" />
	</node>
	<node lat="60.32854138131415" lon="5.229231877649222" id="-27742">
		<tag k="name" v="Tangavika" />
		<tag k="natural" v="bay" />
		<tag k="ssr:stedsnr" v="810007" />
	</node>
	<node lat="60.20841110771896" lon="5.289288885392131" id="-27760">
		<tag k="name" v="Bulderholmen" />
		<tag k="place" v="islet" />
		<tag k="ssr:stedsnr" v="854757" />
	</node>
	<node lat="60.2384333367097" lon="5.298805555978484" id="-27761">
		<tag k="name" v="Breivika" />
		<tag k="natural" v="bay" />
		<tag k="ssr:stedsnr" v="854654" />
	</node>
	<node lat="60.24688611115196" lon="5.264194436941435" id="-27762">
		<tag k="name" v="Skipaneset" />
		<tag k="natural" v="cape" />
		<tag k="ssr:stedsnr" v="854656" />
	</node>
	<node lat="60.44573055936707" lon="5.301297224639045" id="-27772">
		<tag k="name" v="Storøya" />
		<tag k="place" v="islet" />
		<tag k="ssr:stedsnr" v="855509" />
	</node>
	<node lat="60.46410000344806" lon="5.275641664313176" id="-27774">
		<tag k="name" v="Kvernavika" />
		<tag k="natural" v="bay" />
		<tag k="ssr:stedsnr" v="855407" />
	</node>
	<node lat="60.46756944412478" lon="5.27533889215856" id="-27775">
		<tag k="name" v="Morvika" />
		<tag k="natural" v="bay" />
		<tag k="ssr:stedsnr" v="855408" />
	</node>
	<node lat="60.428857575266434" lon="5.28839101782308" id="-27777">
		<tag k="name" v="Eikeviken" />
		<tag k="natural" v="bay" />
		<tag k="ssr:stedsnr" v="855613" />
	</node>
	<node lat="60.398475178881476" lon="5.315253655200403" id="-27778">
		<tag k="name" v="Vågen" />
		<tag k="natural" v="bay" />
		<tag k="ssr:stedsnr" v="855704" />
	</node>
	<node lat="60.31745000306405" lon="5.252163882499301" id="-27779">
		<tag k="name" v="Bergsvika" />
		<tag k="natural" v="bay" />
		<tag k="ssr:stedsnr" v="855783" />
	</node>
	<node lat="60.32483173679185" lon="5.252272401780393" id="-27787">
		<tag k="name" v="Maggevika" />
		<tag k="natural" v="bay" />
		<tag k="ssr:stedsnr" v="855808" />
	</node>
	<node lat="60.25659166700511" lon="5.3307999930349546" id="-27789">
		<tag k="name" v="Saganeset" />
		<tag k="natural" v="cape" />
		<tag k="ssr:stedsnr" v="855886" />
	</node>
	<node lat="60.31880833084284" lon="5.21334444642769" id="-27796">
		<tag k="name" v="Skoraflua" />
		<tag k="place" v="locality" />
		<tag k="seamark:type" v="rock" />
		<tag k="ssr:stedsnr" v="930037" />
	</node>
	<node lat="60.2575277821543" lon="5.228211115494594" id="-27798">
		<tag k="fixme" v="consider seamark:type=rock or natural=shoal" />
		<tag k="name" v="Søre Fuglaskjeret" />
		<tag k="place" v="islet" />
		<tag k="ssr:stedsnr" v="930092" />
	</node>
	<node lat="60.448652777078344" lon="5.4581500078929714" id="-27799">
		<tag k="name" v="Tona" />
		<tag k="natural" v="cape" />
		<tag k="ssr:stedsnr" v="869072" />
	</node>
	<node lat="60.260016662939684" lon="5.208638886247579" id="-27800">
		<tag k="name" v="Kuholmssundet" />
		<tag k="natural" v="strait" />
		<tag k="ssr:stedsnr" v="869074" />
	</node>
	<node lat="60.261938892684704" lon="5.213525000226438" id="-27810">
		<tag k="name" v="Dukholmen" />
		<tag k="place" v="islet" />
		<tag k="ssr:stedsnr" v="870123" />
	</node>
	<node lat="60.264625000586655" lon="5.2191611069247905" id="-27816">
		<tag k="name" v="Litle Grunnasundholmen" />
		<tag k="place" v="islet" />
		<tag k="ssr:stedsnr" v="870135" />
	</node>
	<node lat="60.4527416661667" lon="5.465505550992792" id="-27826">
		<tag k="name" v="Gygrasteinen" />
		<tag k="natural" v="cape" />
		<tag k="ssr:stedsnr" v="870076" />
	</node>
	<node lat="60.451711110718406" lon="5.450008334568817" id="-27830">
		<tag k="name" v="Senholmen" />
		<tag k="place" v="islet" />
		<tag k="ssr:stedsnr" v="870087" />
	</node>
	<node lat="60.24884999965898" lon="5.23305278466987" id="-27833">
		<tag k="name" v="Nordre Holmevika" />
		<tag k="natural" v="bay" />
		<tag k="ssr:stedsnr" v="870093" />
	</node>
	<node lat="60.36253889101682" lon="5.175666671236006" id="-27846">
		<tag k="name" v="Lyngholmen" />
		<tag k="place" v="islet" />
		<tag k="ssr:stedsnr" v="870521" />
	</node>
	<node lat="60.36317499854074" lon="5.180997223134148" id="-27849">
		<tag k="name" v="Ramsvik" />
		<tag k="natural" v="bay" />
		<tag k="ssr:stedsnr" v="870540" />
	</node>
	<node lat="60.24896388995181" lon="5.272505547398297" id="-27857">
		<tag k="fixme" v="consider seamark:type=rock or natural=shoal" />
		<tag k="name" v="Mildeskjeret" />
		<tag k="place" v="islet" />
		<tag k="ssr:stedsnr" v="870766" />
	</node>
	<node lat="60.259738886165344" lon="5.293636115090176" id="-27858">
		<tag k="name" v="Olavikholmen" />
		<tag k="place" v="islet" />
		<tag k="ssr:stedsnr" v="870773" />
	</node>
	<node lat="60.25354999832458" lon="5.273930551824605" id="-27859">
		<tag k="name" v="Hollendervika" />
		<tag k="natural" v="bay" />
		<tag k="ssr:stedsnr" v="870777" />
	</node>
	<node lat="60.21786111509614" lon="5.312972220526263" id="-27861">
		<tag k="name" v="Austnesvika" />
		<tag k="natural" v="bay" />
		<tag k="ssr:stedsnr" v="870914" />
	</node>
	<node lat="60.26362833577385" lon="5.278470071197105" id="-27866">
		<tag k="name" v="Litle Brandaneset" />
		<tag k="natural" v="cape" />
		<tag k="ssr:stedsnr" v="870809" />
	</node>
	<node lat="60.509441435398564" lon="5.369084931406757" id="-27869">
		<tag k="name" v="Holavika" />
		<tag k="natural" v="bay" />
		<tag k="ssr:stedsnr" v="870816" />
	</node>
	<node lat="60.229288891589825" lon="5.26183888129598" id="-27878">
		<tag k="name" v="Rasmusvika" />
		<tag k="natural" v="bay" />
		<tag k="ssr:stedsnr" v="870965" />
	</node>
	<node lat="60.226766663097436" lon="5.256252778012187" id="-27879">
		<tag k="name" v="Moldvikane" />
		<tag k="natural" v="bay" />
		<tag k="ssr:stedsnr" v="870966" />
	</node>
	<node lat="60.264333331294466" lon="5.249122213792337" id="-27887">
		<tag k="name" v="Langeneset" />
		<tag k="natural" v="cape" />
		<tag k="ssr:stedsnr" v="931845" />
	</node>
	<node lat="60.26676302545754" lon="5.275677672340935" id="-27888">
		<tag k="name" v="Saltvika" />
		<tag k="natural" v="bay" />
		<tag k="ssr:stedsnr" v="931848" />
	</node>
	<node lat="60.26651388713495" lon="5.255049996315819" id="-27891">
		<tag k="name" v="Vestre Ollforevågen" />
		<tag k="natural" v="bay" />
		<tag k="ssr:stedsnr" v="931854" />
	</node>
	<node lat="60.38504444029333" lon="5.2651472194660345" id="-27900">
		<tag k="name" v="Skjeneviken" />
		<tag k="natural" v="bay" />
		<tag k="ssr:stedsnr" v="931065" />
	</node>
	<node lat="60.26000277949844" lon="5.18851666990416" id="-27904">
		<tag k="name" v="Lamholmen" />
		<tag k="place" v="islet" />
		<tag k="ssr:stedsnr" v="931078" />
	</node>
	<node lat="60.44184288144998" lon="5.280489156721685" id="-27941">
		<tag k="name" v="Frøviken" />
		<tag k="natural" v="bay" />
		<tag k="ssr:stedsnr" v="931347" />
	</node>
	<node lat="60.26253888578337" lon="5.237441663553696" id="-27942">
		<tag k="name" v="Synningasundet" />
		<tag k="natural" v="strait" />
		<tag k="ssr:stedsnr" v="931379" />
	</node>
	<node lat="60.244100002872905" lon="5.303930563075499" id="-27956">
		<tag k="name" v="Småvikane" />
		<tag k="natural" v="bay" />
		<tag k="ssr:stedsnr" v="931830" />
	</node>
	<node lat="60.20642222439197" lon="5.256494436189245" id="-27962">
		<tag k="fixme" v="consider seamark:type=rock or natural=shoal" />
		<tag k="name" v="Donhavnskjeret" />
		<tag k="place" v="islet" />
		<tag k="ssr:stedsnr" v="931923" />
	</node>
	<node lat="60.424008337597336" lon="5.513172213041053" id="-27980">
		<tag k="name" v="Geitneset" />
		<tag k="natural" v="cape" />
		<tag k="ssr:stedsnr" v="931976" />
	</node>
	<node lat="60.252966662550676" lon="5.322761114216676" id="-27986">
		<tag k="name" v="Apalneset" />
		<tag k="natural" v="cape" />
		<tag k="ssr:stedsnr" v="935188" />
	</node>
	<node lat="60.38207415538677" lon="5.343545219176039" id="-27996">
		<tag k="name" v="Store Lungegårdsvannet" />
		<tag k="natural" v="bay" />
		<tag k="ssr:stedsnr" v="915620" />
	</node>
	<node lat="60.224730559771295" lon="5.291163889980974" id="-27997">
		<tag k="name" v="Eidsvågen" />
		<tag k="natural" v="bay" />
		<tag k="ssr:stedsnr" v="915818" />
	</node>
	<node lat="60.25234166448266" lon="5.234447231274866" id="-28018">
		<tag k="name" v="Nordre Ålevågen" />
		<tag k="natural" v="bay" />
		<tag k="ssr:stedsnr" v="930096" />
	</node>
	<node lat="60.44794444287837" lon="5.29456111869849" id="-28022">
		<tag k="fixme" v="consider seamark:type=rock or natural=shoal" />
		<tag k="name" v="Tertnesskjera" />
		<tag k="place" v="islet" />
		<tag k="ssr:stedsnr" v="930397" />
	</node>
	<node lat="60.22420871870185" lon="5.2498797380180795" id="-28023">
		<tag k="name" v="Rokesteinen" />
		<tag k="natural" v="cape" />
		<tag k="ssr:stedsnr" v="930941" />
	</node>
	<node lat="60.520438149483695" lon="5.274315201637096" id="-28051">
		<tag k="name" v="Nordvika" />
		<tag k="natural" v="bay" />
		<tag k="ssr:stedsnr" v="931295" />
	</node>
	<node lat="60.363108331402756" lon="5.173658327538583" id="-28054">
		<tag k="fixme" v="consider seamark:type=rock or natural=shoal" />
		<tag k="name" v="Gullskjeret" />
		<tag k="place" v="islet" />
		<tag k="ssr:stedsnr" v="931539" />
	</node>
	<node lat="60.355341667397376" lon="5.23943333912532" id="-28056">
		<tag k="name" v="Lauvvika" />
		<tag k="natural" v="bay" />
		<tag k="ssr:stedsnr" v="931550" />
	</node>
	<node lat="60.34402512634619" lon="5.177339103363109" id="-28058">
		<tag k="name" v="Godvika" />
		<tag k="natural" v="bay" />
		<tag k="ssr:stedsnr" v="931555" />
	</node>
	<node lat="60.2477361086507" lon="5.271416661027326" id="-28071">
		<tag k="name" v="Giljeneset" />
		<tag k="natural" v="cape" />
		<tag k="ssr:stedsnr" v="931803" />
	</node>
	<node lat="60.21200278043031" lon="5.291116662502314" id="-28077">
		<tag k="fixme" v="consider seamark:type=rock or natural=shoal" />
		<tag k="name" v="Gulaskjeret" />
		<tag k="place" v="islet" />
		<tag k="ssr:stedsnr" v="931946" />
	</node>
	<node lat="60.51677778036145" lon="5.337091663238506" id="-28149">
		<tag k="name" v="Merkesneset" />
		<tag k="natural" v="cape" />
		<tag k="ssr:stedsnr" v="6516" />
	</node>
	<node lat="60.39292341142492" lon="5.255530360953277" id="-28156">
		<tag k="name" v="Hesteviken" />
		<tag k="natural" v="bay" />
		<tag k="ssr:stedsnr" v="20035" />
	</node>
	<node lat="60.26575833389762" lon="5.221263897054996" id="-28160">
		<tag k="name" v="Store Grunnasundholmen" />
		<tag k="place" v="islet" />
		<tag k="ssr:stedsnr" v="20121" />
	</node>
	<node lat="60.25661666264737" lon="5.1951805618723315" id="-28165">
		<tag k="fixme" v="consider seamark:type=rock or natural=shoal" />
		<tag k="name" v="Jaktaskjeret" />
		<tag k="place" v="islet" />
		<tag k="ssr:stedsnr" v="20063" />
	</node>
	<node lat="60.37994722047655" lon="5.346911105571484" id="-28168">
		<tag k="name" v="Tonningsneset" />
		<tag k="natural" v="cape" />
		<tag k="ssr:stedsnr" v="20070" />
	</node>
	<node lat="60.36420277821291" lon="5.175186118270156" id="-28175">
		<tag k="name" v="Neset" />
		<tag k="natural" v="cape" />
		<tag k="ssr:stedsnr" v="20529" />
	</node>
	<node lat="60.43788310827596" lon="5.31348015324066" id="-28179">
		<tag k="name" v="Koparvika" />
		<tag k="natural" v="bay" />
		<tag k="ssr:stedsnr" v="20346" />
	</node>
	<node lat="60.22856944768896" lon="5.364488885260486" id="-28194">
		<tag k="name" v="Sagavika" />
		<tag k="natural" v="bay" />
		<tag k="ssr:stedsnr" v="20666" />
	</node>
	<node lat="60.33941944113733" lon="5.241169448198935" id="-28199">
		<tag k="name" v="Djupakastet" />
		<tag k="natural" v="bay" />
		<tag k="ssr:stedsnr" v="20630" />
	</node>
	<node lat="60.26067499923592" lon="5.309547221876659" id="-28235">
		<tag k="name" v="Porsavika" />
		<tag k="natural" v="bay" />
		<tag k="ssr:stedsnr" v="21772" />
	</node>
	<node lat="60.40331111420686" lon="5.318455557528882" id="-28252">
		<tag k="name" v="Skutevik" />
		<tag k="natural" v="bay" />
		<tag k="ssr:stedsnr" v="25734" />
	</node>
	<node lat="60.382794442655836" lon="5.319194451084966" id="-28253">
		<tag k="name" v="Damsgårdssundet" />
		<tag k="natural" v="strait" />
		<tag k="ssr:stedsnr" v="26450" />
	</node>
	<node lat="60.430163893603925" lon="5.464572230122512" id="-28272">
		<tag k="name" v="Storaneset" />
		<tag k="natural" v="cape" />
		<tag k="ssr:stedsnr" v="66589" />
	</node>
	<node lat="60.31458333438597" lon="5.263699992696845" id="-28278">
		<tag k="name" v="Dolvika" />
		<tag k="natural" v="bay" />
		<tag k="ssr:stedsnr" v="66755" />
	</node>
	<node lat="60.377075364030595" lon="5.177692646646639" id="-28284">
		<tag k="name" v="Tollneset" />
		<tag k="natural" v="cape" />
		<tag k="ssr:stedsnr" v="66634" />
	</node>
	<node lat="60.275813892297926" lon="5.208916659708106" id="-28301">
		<tag k="name" v="Vardaneset" />
		<tag k="natural" v="cape" />
		<tag k="ssr:stedsnr" v="67617" />
	</node>
	<node lat="60.22238888941746" lon="5.297605560319991" id="-28308">
		<tag k="name" v="Grindavika" />
		<tag k="natural" v="bay" />
		<tag k="ssr:stedsnr" v="81987" />
	</node>
	<node lat="60.437386113367516" lon="5.490811105681681" id="-28309">
		<tag k="name" v="Kyrkjevollneset" />
		<tag k="natural" v="cape" />
		<tag k="ssr:stedsnr" v="81997" />
	</node>
	<node lat="60.21189444268987" lon="5.286994445054954" id="-28318">
		<tag k="name" v="Havnaholmen" />
		<tag k="place" v="islet" />
		<tag k="ssr:stedsnr" v="81049" />
	</node>
	<node lat="60.258458331861405" lon="5.2269444473275035" id="-28319">
		<tag k="fixme" v="consider seamark:type=rock or natural=shoal" />
		<tag k="name" v="Nordre Fuglaskjeret" />
		<tag k="place" v="islet" />
		<tag k="ssr:stedsnr" v="81092" />
	</node>
	<node lat="60.40806944595034" lon="5.320713889511791" id="-28326">
		<tag k="name" v="Sjøflyhavnen" />
		<tag k="natural" v="bay" />
		<tag k="ssr:stedsnr" v="81059" />
	</node>
	<node lat="60.3895962755641" lon="5.294364253404129" id="-28327">
		<tag k="name" v="Sørevågen" />
		<tag k="natural" v="bay" />
		<tag k="ssr:stedsnr" v="81062" />
	</node>
	<node lat="60.2481000027235" lon="5.2349305552334" id="-28331">
		<tag k="name" v="Søre Holmevika" />
		<tag k="natural" v="bay" />
		<tag k="ssr:stedsnr" v="81077" />
	</node>
	<node lat="60.26804999708761" lon="5.258372227136326" id="-28361">
		<tag k="name" v="Austre Ollforevågen" />
		<tag k="natural" v="bay" />
		<tag k="ssr:stedsnr" v="81844" />
	</node>
	<node lat="60.267700001933825" lon="5.323877770986477" id="-28364">
		<tag k="name" v="Kylleren" />
		<tag k="natural" v="strait" />
		<tag k="ssr:stedsnr" v="81864" />
	</node>
	<node lat="60.34237500022231" lon="5.179341674192649" id="-28370">
		<tag k="name" v="Klubben" />
		<tag k="natural" v="cape" />
		<tag k="ssr:stedsnr" v="81572" />
	</node>
	<node lat="60.39166655645036" lon="5.259788985395134" id="-28394">
		<tag k="name" v="Gravdalsviken" />
		<tag k="natural" v="bay" />
		<tag k="ssr:stedsnr" v="82031" />
	</node>
	<node lat="60.38234722035019" lon="5.335513896813358" id="-28400">
		<tag k="name" v="Florida" />
		<tag k="natural" v="cape" />
		<tag k="ssr:stedsnr" v="86410" />
	</node>
	<node lat="60.49864722474065" lon="5.386008333019822" id="-28405">
		<tag k="name" v="Bukkehellaren" />
		<tag k="natural" v="cape" />
		<tag k="ssr:stedsnr" v="105160" />
	</node>
	<node lat="60.51539166484066" lon="5.344816667901644" id="-28406">
		<tag k="name" v="Håflua" />
		<tag k="place" v="locality" />
		<tag k="seamark:type" v="rock" />
		<tag k="ssr:stedsnr" v="105165" />
	</node>
	<node lat="60.21815707771082" lon="5.248918530231348" id="-28412">
		<tag k="name" v="Storavika" />
		<tag k="natural" v="bay" />
		<tag k="ssr:stedsnr" v="126863" />
	</node>
	<node lat="60.251816671317115" lon="5.232111116609735" id="-28413">
		<tag k="name" v="Åleknappen" />
		<tag k="natural" v="cape" />
		<tag k="ssr:stedsnr" v="126873" />
	</node>
	<node lat="60.251033336803026" lon="5.3173499996257805" id="-28414">
		<tag k="name" v="Salbuholmen" />
		<tag k="place" v="islet" />
		<tag k="ssr:stedsnr" v="126875" />
	</node>
	<node lat="60.22195536357936" lon="5.31995104053121" id="-28417">
		<tag k="name" v="Tortelsvika" />
		<tag k="natural" v="bay" />
		<tag k="ssr:stedsnr" v="125859" />
	</node>
	<node lat="60.21631621700894" lon="5.317529523731172" id="-28418">
		<tag k="name" v="Austnesholmane" />
		<tag k="place" v="islet" />
		<tag k="ssr:stedsnr" v="125860" />
	</node>
	<node lat="60.42922152489884" lon="5.461301585989693" id="-28421">
		<tag k="name" v="Arnavågen" />
		<tag k="natural" v="bay" />
		<tag k="ssr:stedsnr" v="126562" />
	</node>
	<node lat="60.39208888707545" lon="5.2981999939707345" id="-28431">
		<tag k="name" v="Puddefjorden" />
		<tag k="natural" v="bay" />
		<tag k="ssr:stedsnr" v="126675" />
	</node>
	<node lat="60.477630556111066" lon="5.255533340541881" id="-28436">
		<tag k="name" v="Steinsneset" />
		<tag k="natural" v="cape" />
		<tag k="ssr:stedsnr" v="127466" />
	</node>
	<node lat="60.2617138866432" lon="5.236555562146673" id="-28451">
		<tag k="name" v="Synninganeset" />
		<tag k="natural" v="cape" />
		<tag k="old_name" v="Flyen" />
		<tag k="ssr:stedsnr" v="141363" />
	</node>
	<node lat="60.33006110866172" lon="5.218286105856268" id="-28452">
		<tag k="name" v="Litla Bogøyna" />
		<tag k="place" v="island" />
		<tag k="ssr:stedsnr" v="141367" />
	</node>
	<node lat="60.31979721805774" lon="5.220719449588617" id="-28461">
		<tag k="name" v="Grimstadholmen" />
		<tag k="place" v="islet" />
		<tag k="ssr:stedsnr" v="141044" />
	</node>
	<node lat="60.24623889115515" lon="5.236008332437075" id="-28463">
		<tag k="name" v="Røytepollen" />
		<tag k="natural" v="bay" />
		<tag k="ssr:stedsnr" v="141051" />
	</node>
	<node lat="60.39360833222462" lon="5.263669447501408" id="-28465">
		<tag k="name" v="Wallemsviken" />
		<tag k="natural" v="bay" />
		<tag k="ssr:stedsnr" v="141056" />
	</node>
	<node lat="60.388900004106894" lon="5.311169447946996" id="-28467">
		<tag k="name" v="Jekteviken" />
		<tag k="natural" v="bay" />
		<tag k="ssr:stedsnr" v="141069" />
	</node>
	<node lat="60.26405278127223" lon="5.233916662342282" id="-28469">
		<tag k="name" v="Mørkevika" />
		<tag k="natural" v="bay" />
		<tag k="ssr:stedsnr" v="141072" />
	</node>
	<node lat="60.386538890054055" lon="5.3017416705298315" id="-28470">
		<tag k="name" v="Kirkebukten" />
		<tag k="natural" v="bay" />
		<tag k="ssr:stedsnr" v="141073" />
	</node>
	<node lat="60.21246388743907" lon="5.2826833273815215" id="-28478">
		<tag k="name" v="Vestrahavn" />
		<tag k="natural" v="bay" />
		<tag k="ssr:stedsnr" v="141919" />
	</node>
	<node lat="60.215041669734035" lon="5.290488889798976" id="-28479">
		<tag k="name" v="Bakarvikane" />
		<tag k="natural" v="bay" />
		<tag k="ssr:stedsnr" v="141920" />
	</node>
	<node lat="60.34338610715174" lon="5.17996666011651" id="-28481">
		<tag k="name" v="Pollen" />
		<tag k="natural" v="bay" />
		<tag k="ssr:stedsnr" v="142522" />
	</node>
	<node lat="60.456155555352055" lon="5.278702778884755" id="-28491">
		<tag k="name" v="Juvvika" />
		<tag k="natural" v="bay" />
		<tag k="ssr:stedsnr" v="141319" />
	</node>
	<node lat="60.32951163171266" lon="5.250054631869204" id="-28496">
		<tag k="name" v="Hellersvika" />
		<tag k="natural" v="bay" />
		<tag k="ssr:stedsnr" v="141519" />
	</node>
	<node lat="60.35202500367623" lon="5.180822224585172" id="-28498">
		<tag k="name" v="Kalandsholmen" />
		<tag k="place" v="islet" />
		<tag k="ssr:stedsnr" v="141530" />
	</node>
	<node lat="60.320613884906386" lon="5.261797213664636" id="-28506">
		<tag k="name" v="Knappasundet" />
		<tag k="natural" v="strait" />
		<tag k="ssr:stedsnr" v="141775" />
	</node>
	<node lat="60.33155658145133" lon="5.214348515731083" id="-28507">
		<tag k="name" v="Jystrevika" />
		<tag k="natural" v="bay" />
		<tag k="ssr:stedsnr" v="142012" />
	</node>
	<node lat="60.34303352241194" lon="5.221763414199481" id="-28508">
		<tag k="name" v="Nordrepollen" />
		<tag k="natural" v="bay" />
		<tag k="ssr:stedsnr" v="142013" />
	</node>
	<node lat="60.34448888875724" lon="5.235066674025637" id="-28510">
		<tag k="name" v="Mathopsvågen" />
		<tag k="natural" v="bay" />
		<tag k="ssr:stedsnr" v="142024" />
	</node>
	<node lat="60.26627222366323" lon="5.271513887790284" id="-28512">
		<tag k="name" v="Kobbevika" />
		<tag k="natural" v="bay" />
		<tag k="ssr:stedsnr" v="141808" />
	</node>
	<node lat="60.26558611431806" lon="5.26477499781701" id="-28513">
		<tag k="name" v="Eikeneset" />
		<tag k="natural" v="cape" />
		<tag k="ssr:stedsnr" v="141810" />
	</node>
	<node lat="60.45808060409917" lon="5.441910630230772" id="-28515">
		<tag k="name" v="Merkesvika" />
		<tag k="natural" v="bay" />
		<tag k="ssr:stedsnr" v="141813" />
	</node>
	<node lat="60.23800277374497" lon="5.287930561663472" id="-28523">
		<tag k="name" v="Steinavika" />
		<tag k="natural" v="bay" />
		<tag k="ssr:stedsnr" v="141947" />
	</node>
	<node lat="60.21919722388072" lon="5.292302770058032" id="-28525">
		<tag k="name" v="Såteviksholmen" />
		<tag k="place" v="islet" />
		<tag k="ssr:stedsnr" v="141970" />
	</node>
	<node lat="60.37526982129233" lon="5.17445502650126" id="-28528">
		<tag k="name" v="Skutevika" />
		<tag k="natural" v="bay" />
		<tag k="ssr:stedsnr" v="142045" />
	</node>
	<node lat="60.37452741220883" lon="5.172045951586571" id="-28529">
		<tag k="name" v="Indre Steinevika" />
		<tag k="natural" v="bay" />
		<tag k="ssr:stedsnr" v="142047" />
	</node>
	<node lat="60.243997225595365" lon="5.255436115808429" id="-28565">
		<tag k="name" v="Djupevika" />
		<tag k="natural" v="bay" />
		<tag k="ssr:stedsnr" v="142780" />
	</node>
	<node lat="60.2571111082176" lon="5.298502783249281" id="-28566">
		<tag k="name" v="Hausneset" />
		<tag k="natural" v="cape" />
		<tag k="ssr:stedsnr" v="142789" />
	</node>
	<node lat="60.26220277789131" lon="5.244005555092079" id="-28570">
		<tag k="name" v="Solnes" />
		<tag k="natural" v="cape" />
		<tag k="ssr:stedsnr" v="146140" />
	</node>
	<node lat="60.43948611479409" lon="5.299347219464271" id="-28580">
		<tag k="name" v="Eidsvåg" />
		<tag k="natural" v="bay" />
		<tag k="ssr:stedsnr" v="178839" />
	</node>
	<node lat="60.20395000002822" lon="5.269322230329001" id="-28582">
		<tag k="name" v="Kroken" />
		<tag k="natural" v="cape" />
		<tag k="ssr:stedsnr" v="186856" />
	</node>
	<node lat="60.39924999924752" lon="5.306538880959" id="-28598">
		<tag k="name" v="Nordnes" />
		<tag k="natural" v="cape" />
		<tag k="ssr:stedsnr" v="187649" />
	</node>
	<node lat="60.32443642916134" lon="5.324533818242431" id="-28600">
		<tag k="name" v="Marmorøyen" />
		<tag k="place" v="island" />
		<tag k="ssr:stedsnr" v="187733" />
	</node>
	<node lat="60.43924444826087" lon="5.309766666563781" id="-28610">
		<tag k="loc_name" v="Eidsvågsholmane" />
		<tag k="name" v="Eidsvågholmane" />
		<tag k="place" v="islet" />
		<tag k="ssr:stedsnr" v="202369" />
	</node>
	<node lat="60.385136115185254" lon="5.199972229557077" id="-28617">
		<tag k="name" v="Leirvikaneset" />
		<tag k="natural" v="cape" />
		<tag k="ssr:stedsnr" v="202016" />
	</node>
	<node lat="60.37891110738325" lon="5.1841472279675065" id="-28623">
		<tag k="fixme" v="consider seamark:type=rock or natural=shoal" />
		<tag k="name" v="Dorgaskjeret" />
		<tag k="place" v="islet" />
		<tag k="ssr:stedsnr" v="202035" />
	</node>
	<node lat="60.31315833190969" lon="5.208169439961337" id="-28630">
		<tag k="fixme" v="consider seamark:type=rock or natural=shoal" />
		<tag k="name" v="Illskjeret" />
		<tag k="place" v="islet" />
		<tag k="ssr:stedsnr" v="202051" />
	</node>
	<node lat="60.39402334326018" lon="5.270975267528845" id="-28631">
		<tag k="name" v="Nygårdsviken" />
		<tag k="natural" v="bay" />
		<tag k="ssr:stedsnr" v="202055" />
	</node>
	<node lat="60.44925950024803" lon="5.450682079574094" id="-28633">
		<tag k="name" v="Kvamsstøvika" />
		<tag k="natural" v="bay" />
		<tag k="ssr:stedsnr" v="202066" />
	</node>
	<node lat="60.507394444908805" lon="5.266066665125951" id="-28647">
		<tag k="name" v="Smedneset" />
		<tag k="natural" v="cape" />
		<tag k="ssr:stedsnr" v="202280" />
	</node>
	<node lat="60.33125724552083" lon="5.249210890008751" id="-28652">
		<tag k="name" v="Midtvika" />
		<tag k="natural" v="bay" />
		<tag k="ssr:stedsnr" v="202521" />
	</node>
	<node lat="60.27403055929544" lon="5.266305562184621" id="-28655">
		<tag k="name" v="Neset" />
		<tag k="natural" v="cape" />
		<tag k="ssr:stedsnr" v="202850" />
	</node>
	<node lat="60.32053611429512" lon="5.2650944409463625" id="-28659">
		<tag k="name" v="Ruskeneset" />
		<tag k="natural" v="cape" />
		<tag k="ssr:stedsnr" v="202815" />
	</node>
	<node lat="60.267696106935546" lon="5.270489006429431" id="-28662">
		<tag k="name" v="Røyta" />
		<tag k="natural" v="bay" />
		<tag k="ssr:stedsnr" v="202838" />
	</node>
	<node lat="60.21505833028064" lon="5.29373333045663" id="-28663">
		<tag k="name" v="Søre Sætevika" />
		<tag k="natural" v="bay" />
		<tag k="ssr:stedsnr" v="202943" />
	</node>
	<node lat="60.2256444481716" lon="5.353019444173836" id="-28671">
		<tag k="name" v="Svedneholmen" />
		<tag k="place" v="islet" />
		<tag k="ssr:stedsnr" v="202922" />
	</node>
	<node lat="60.27113888992461" lon="5.209019441315852" id="-28674">
		<tag k="fixme" v="consider seamark:type=rock or natural=shoal" />
		<tag k="name" v="Fløvossen" />
		<tag k="place" v="islet" />
		<tag k="ssr:stedsnr" v="203130" />
	</node>
	<node lat="60.42571110973154" lon="5.506136113282575" id="-28717">
		<tag k="name" v="Nordrevika" />
		<tag k="natural" v="bay" />
		<tag k="ssr:stedsnr" v="203972" />
	</node>
	<node lat="60.47658628838028" lon="5.415917101150317" id="-28719">
		<tag k="name" v="Matvika" />
		<tag k="natural" v="bay" />
		<tag k="ssr:stedsnr" v="203923" />
	</node>
	<node lat="60.42457500292661" lon="5.552505555374181" id="-28720">
		<tag k="name" v="Klubben" />
		<tag k="natural" v="cape" />
		<tag k="ssr:stedsnr" v="203925" />
	</node>
	<node lat="60.288069446752075" lon="5.202833332696464" id="-28724">
		<tag k="name" v="Setevikneset" />
		<tag k="natural" v="cape" />
		<tag k="ssr:stedsnr" v="206187" />
	</node>
	<node lat="60.25427222237309" lon="5.2808722160318835" id="-28726">
		<tag k="fixme" v="consider seamark:type=rock or natural=shoal" />
		<tag k="name" v="Geitaskjeret" />
		<tag k="place" v="islet" />
		<tag k="ssr:stedsnr" v="207193" />
	</node>
	<node lat="60.207844440256025" lon="5.249822219957341" id="-28737">
		<tag k="name" v="Spranget" />
		<tag k="natural" v="cape" />
		<tag k="ssr:stedsnr" v="307858" />
	</node>
	<node lat="60.4455062041297" lon="5.281150860945959" id="-28744">
		<tag k="alt_name" v="Eidsvågneset" />
		<tag k="name" v="Eidsvågsneset" />
		<tag k="natural" v="cape" />
		<tag k="ssr:stedsnr" v="309540" />
	</node>
	<node lat="60.22604999633863" lon="5.2758138921168225" id="-28758">
		<tag k="name" v="Leirvågen" />
		<tag k="natural" v="bay" />
		<tag k="ssr:stedsnr" v="308835" />
	</node>
	<node lat="60.260913892351205" lon="5.20590555377162" id="-28771">
		<tag k="name" v="Kuholmen" />
		<tag k="place" v="islet" />
		<tag k="ssr:stedsnr" v="309896" />
	</node>
	<node lat="60.261336107750836" lon="5.237777771356902" id="-28772">
		<tag k="name" v="Synningane" />
		<tag k="natural" v="cape" />
		<tag k="ssr:stedsnr" v="309901" />
	</node>
	<node lat="60.27124444671837" lon="5.211511117647368" id="-28773">
		<tag k="name" v="Store Løholmen" />
		<tag k="place" v="islet" />
		<tag k="ssr:stedsnr" v="309925" />
	</node>
	<node lat="60.32275278081311" lon="5.211522226529532" id="-28775">
		<tag k="bay" v="fjord" />
		<tag k="name" v="Grimstadfjorden" />
		<tag k="natural" v="bay" />
		<tag k="ssr:stedsnr" v="309770" />
	</node>
	<node lat="60.27809999944284" lon="5.219738891105782" id="-28778">
		<tag k="name" v="Slettepollen" />
		<tag k="natural" v="bay" />
		<tag k="ssr:stedsnr" v="309938" />
	</node>
	<node lat="60.30974166947679" lon="5.207263881949285" id="-28788">
		<tag k="name" v="Kvitursvika" />
		<tag k="natural" v="bay" />
		<tag k="ssr:stedsnr" v="323063" />
	</node>
	<node lat="60.437722221649835" lon="5.458586117225128" id="-28790">
		<tag k="name" v="Grønskjeret" />
		<tag k="natural" v="cape" />
		<tag k="ssr:stedsnr" v="323090" />
	</node>
	<node lat="60.28935277824422" lon="5.2024750028670805" id="-28794">
		<tag k="name" v="Saltvika" />
		<tag k="natural" v="bay" />
		<tag k="ssr:stedsnr" v="323002" />
	</node>
	<node lat="60.382036202464754" lon="5.19694804130469" id="-28797">
		<tag k="name" v="Kahrsaneset" />
		<tag k="natural" v="cape" />
		<tag k="ssr:stedsnr" v="323019" />
	</node>
</osm>
