<?xml version="1.0" encoding="UTF-8"?>
<osm version="0.6" generator="osmapis">
	<node lat="60.38840833425174" lon="5.35433610706511" id="-66478">
		<tag k="fixme" v="consider place=suburb, village or hamlet" />
		<tag k="name" v="Starefossen" />
		<tag k="place" v="quarter" />
		<tag k="ssr:stedsnr" v="5610" />
	</node>
	<node lat="60.46838889150392" lon="5.335800002964968" id="-66480">
		<tag k="fixme" v="consider place=suburb, village or hamlet" />
		<tag k="name" v="Nyborg" />
		<tag k="place" v="quarter" />
		<tag k="ssr:stedsnr" v="5515" />
	</node>
	<node lat="60.4579444451674" lon="5.282652779806729" id="-66482">
		<tag k="name" v="Tertnes" />
		<tag k="place" v="village" />
		<tag k="ssr:stedsnr" v="5537" />
	</node>
	<node lat="60.27621388768504" lon="5.292944451166056" id="-66488">
		<tag k="name" v="Helgheim" />
		<tag k="place" v="farm" />
		<tag k="ssr:stedsnr" v="5914" />
	</node>
	<node lat="60.46244166747898" lon="5.326405557065069" id="-66563">
		<tag k="name" v="Sørebø" />
		<tag k="place" v="isolated_dwelling" />
		<tag k="ssr:stedsnr" v="25989" />
	</node>
	<node lat="60.51876388757401" lon="5.299086114801935" id="-66570">
		<tag k="name" v="Hordvik" />
		<tag k="place" v="farm" />
		<tag k="ssr:stedsnr" v="66359" />
	</node>
	<node lat="60.4220305592301" lon="5.4682361132489214" id="-66577">
		<tag k="name" v="Arna" />
		<tag k="place" v="suburb" />
		<tag k="ssr:stedsnr" v="66561" />
	</node>
	<node lat="60.38925045027299" lon="5.282682393735646" id="-66580">
		<tag k="fixme" v="consider place=suburb, village or hamlet" />
		<tag k="name" v="Holen" />
		<tag k="place" v="quarter" />
		<tag k="ssr:stedsnr" v="66600" />
	</node>
	<node lat="60.345222221089145" lon="5.259899992717116" id="-66581">
		<tag k="fixme" v="consider place=suburb, village or hamlet" />
		<tag k="name" v="Hesjaholten" />
		<tag k="place" v="quarter" />
		<tag k="ssr:stedsnr" v="66705" />
	</node>
	<node lat="60.389574662947936" lon="5.262351752952076" id="-66585">
		<tag k="name" v="Gravdal" />
		<tag k="place" v="village" />
		<tag k="ssr:stedsnr" v="66618" />
	</node>
	<node lat="60.33494166547211" lon="5.2644861151344715" id="-66590">
		<tag k="fixme" v="consider place=suburb, village or hamlet" />
		<tag k="name" v="Varden" />
		<tag k="place" v="quarter" />
		<tag k="ssr:stedsnr" v="66800" />
	</node>
	<node lat="60.26074999677079" lon="5.253616667057875" id="-66595">
		<tag k="fixme" v="consider place=suburb, village or hamlet" />
		<tag k="name" v="Hjellestad" />
		<tag k="place" v="quarter" />
		<tag k="ssr:stedsnr" v="66887" />
	</node>
	<node lat="60.275825000421676" lon="5.417413892413363" id="-66596">
		<tag k="fixme" v="consider place=hamlet" />
		<tag k="name" v="Kaland" />
		<tag k="place" v="village" />
		<tag k="ssr:stedsnr" v="66892" />
	</node>
	<node lat="60.37716111398637" lon="5.343994443745765" id="-66703">
		<tag k="name" v="Kronstad" />
		<tag k="place" v="village" />
		<tag k="ssr:stedsnr" v="248760" />
	</node>
	<node lat="60.28255117660278" lon="5.379877280169016" id="-66707">
		<tag k="alt_name" v="Hamre, indre" />
		<tag k="fixme" v="consider place=hamlet" />
		<tag k="name" v="Indre Hamre" />
		<tag k="place" v="farm" />
		<tag k="ssr:stedsnr" v="248944" />
	</node>
	<node lat="60.50767499670289" lon="5.342674993393462" id="-66710">
		<tag k="alt_name" v="Tuft, nordre" />
		<tag k="name" v="Nordre Tuft" />
		<tag k="place" v="farm" />
		<tag k="ssr:stedsnr" v="249488" />
	</node>
	<node lat="60.47633611179014" lon="5.355730562658439" id="-66731">
		<tag k="name" v="Vågsbotn" />
		<tag k="place" v="farm" />
		<tag k="ssr:stedsnr" v="127439" />
	</node>
	<node lat="60.43026389235357" lon="5.300325006247252" id="-66733">
		<tag k="name" v="Øyjorden" />
		<tag k="place" v="isolated_dwelling" />
		<tag k="ssr:stedsnr" v="127648" />
	</node>
	<node lat="60.48602222251134" lon="5.386469447825232" id="-66807">
		<tag k="leisure" v="pitch" />
		<tag k="name" v="Bergen Travpark" />
		<tag k="ssr:stedsnr" v="146509" />
	</node>
	<node lat="60.38123055524565" lon="5.355375007880514" id="-66827">
		<tag k="fixme" v="consider place=suburb, village or hamlet" />
		<tag k="name" v="Fløen" />
		<tag k="place" v="quarter" />
		<tag k="ssr:stedsnr" v="187602" />
	</node>
	<node lat="60.35250278161264" lon="5.306988891672525" id="-66829">
		<tag k="name" v="Søregarden" />
		<tag k="place" v="farm" />
		<tag k="ssr:stedsnr" v="187682" />
	</node>
	<node lat="60.35154999935947" lon="5.242444444973977" id="-66830">
		<tag k="name" v="Straumsmyra" />
		<tag k="place" v="farm" />
		<tag k="ssr:stedsnr" v="187687" />
	</node>
	<node lat="60.27656666422186" lon="5.376336115997832" id="-66838">
		<tag k="alt_name" v="Hamre, ytre" />
		<tag k="fixme" v="consider place=hamlet" />
		<tag k="name" v="Ytre Hamre" />
		<tag k="place" v="farm" />
		<tag k="ssr:stedsnr" v="187911" />
	</node>
	<node lat="60.32142499693426" lon="5.447058326054728" id="-66847">
		<tag k="name" v="Ruken" />
		<tag k="place" v="farm" />
		<tag k="ssr:stedsnr" v="188889" />
	</node>
	<node lat="60.29578055552121" lon="5.212894442936912" id="-66949">
		<tag k="name" v="Flesland" />
		<tag k="place" v="hamlet" />
		<tag k="ssr:stedsnr" v="267016" />
	</node>
	<node lat="60.38373611113723" lon="5.301600006813969" id="-66950">
		<tag k="name" v="Damsgård" />
		<tag k="place" v="farm" />
		<tag k="ssr:stedsnr" v="267275" />
	</node>
	<node lat="60.4698499972716" lon="5.275044448291637" id="-67005">
		<tag k="fixme" v="consider place=suburb, village or hamlet" />
		<tag k="name" v="Morvik" />
		<tag k="place" v="quarter" />
		<tag k="ssr:stedsnr" v="269548" />
	</node>
	<node lat="60.401152781736876" lon="5.320697226843783" id="-67008">
		<tag k="landuse" v="military" />
		<tag k="name" v="Sverresborg" />
		<tag k="ssr:stedsnr" v="271039" />
	</node>
	<node lat="60.38107010487252" lon="5.19935350810675" id="-67034">
		<tag k="fixme" v="consider place=hamlet" />
		<tag k="name" v="Leirvika" />
		<tag k="place" v="farm" />
		<tag k="ssr:stedsnr" v="248652" />
	</node>
	<node lat="60.33652500149837" lon="5.322472216844042" id="-67100">
		<tag k="fixme" v="consider place=suburb, village or hamlet" />
		<tag k="name" v="Kråkenes" />
		<tag k="place" v="quarter" />
		<tag k="ssr:stedsnr" v="267004" />
	</node>
	<node lat="60.37824921342961" lon="5.3294926922498655" id="-67101">
		<tag k="fixme" v="consider place=suburb, village or hamlet" />
		<tag k="name" v="Krohnviken" />
		<tag k="place" v="quarter" />
		<tag k="ssr:stedsnr" v="268399" />
	</node>
	<node lat="60.255430554606754" lon="5.3623249961379615" id="-67116">
		<tag k="historic" v="shieling" />
		<tag k="name" v="Fanasæter" />
		<tag k="place" v="isolated_dwelling" />
		<tag k="ssr:stedsnr" v="308994" />
	</node>
	<node lat="60.305874999203525" lon="5.276427769467994" id="-67118">
		<tag k="name" v="Skarpsno" />
		<tag k="place" v="farm" />
		<tag k="ssr:stedsnr" v="308840" />
	</node>
	<node lat="60.504436110873044" lon="5.343952784258038" id="-67122">
		<tag k="alt_name" v="Tuft, midtre" />
		<tag k="name" v="Midtre Tuft" />
		<tag k="place" v="farm" />
		<tag k="ssr:stedsnr" v="309506" />
	</node>
	<node lat="60.51498055483784" lon="5.343399999467346" id="-67123">
		<tag k="alt_name" v="Tuft, nedre" />
		<tag k="name" v="Nedre Tuft" />
		<tag k="place" v="farm" />
		<tag k="ssr:stedsnr" v="309512" />
	</node>
	<node lat="60.388926942190764" lon="5.290113527303118" id="-67126">
		<tag k="name" v="Laksevåg" />
		<tag k="place" v="suburb" />
		<tag k="ssr:stedsnr" v="309696" />
	</node>
	<node lat="60.47835277732681" lon="5.321327781149771" id="-67206">
		<tag k="fixme" v="consider place=hamlet" />
		<tag k="name" v="Midtbygda" />
		<tag k="place" v="village" />
		<tag k="ssr:stedsnr" v="476333" />
	</node>
	<node lat="60.374752775839674" lon="5.187288897447603" id="-67219">
		<tag k="name" v="Breidvika" />
		<tag k="place" v="quarter" />
		<tag k="ssr:stedsnr" v="369607" />
	</node>
	<node lat="60.35515000106928" lon="5.3350999997699216" id="-67223">
		<tag k="name" v="Grønnestølen" />
		<tag k="place" v="isolated_dwelling" />
		<tag k="ssr:stedsnr" v="369669" />
	</node>
	<node lat="60.354244441989486" lon="5.3684055598835085" id="-67225">
		<tag k="fixme" v="consider place=suburb, village or hamlet" />
		<tag k="name" v="Mannsverk" />
		<tag k="place" v="quarter" />
		<tag k="ssr:stedsnr" v="369672" />
	</node>
	<node lat="60.36427500163051" lon="5.193991657582314" id="-67226">
		<tag k="name" v="Fristad" />
		<tag k="place" v="isolated_dwelling" />
		<tag k="ssr:stedsnr" v="369678" />
	</node>
	<node lat="60.227188890461505" lon="5.297147220038628" id="-67228">
		<tag k="fixme" v="consider place=hamlet" />
		<tag k="name" v="Krokeide" />
		<tag k="place" v="village" />
		<tag k="ssr:stedsnr" v="369802" />
	</node>
	<node lat="60.34419167042516" lon="5.2620999953776355" id="-67233">
		<tag k="name" v="Allestadhaugen" />
		<tag k="place" v="neighbourhood" />
		<tag k="ssr:stedsnr" v="370820" />
	</node>
	<node lat="60.34316666793484" lon="5.2982027710083" id="-67234">
		<tag k="fixme" v="consider place=suburb, village or hamlet" />
		<tag k="name" v="Ortuflaten" />
		<tag k="place" v="quarter" />
		<tag k="ssr:stedsnr" v="370821" />
	</node>
	<node lat="60.37973889220497" lon="5.219952785362996" id="-67327">
		<tag k="name" v="Fredheim" />
		<tag k="place" v="farm" />
		<tag k="ssr:stedsnr" v="389789" />
	</node>
	<node lat="60.412761112257854" lon="5.448213883420652" id="-67345">
		<tag k="alt_name" v="Rødland, nordre" />
		<tag k="name" v="Nordre Rødland" />
		<tag k="place" v="farm" />
		<tag k="ssr:stedsnr" v="490658" />
	</node>
	<node lat="60.444577774612455" lon="5.471880562126526" id="-67357">
		<tag k="name" v="Garnes" />
		<tag k="place" v="village" />
		<tag k="ssr:stedsnr" v="430015" />
	</node>
	<node lat="60.48623888683254" lon="5.403802771914314" id="-67362">
		<tag k="alt_name" v="Breidstein" />
		<tag k="fixme" v="consider place=suburb, village or hamlet" />
		<tag k="name" v="Breistein" />
		<tag k="place" v="quarter" />
		<tag k="ssr:stedsnr" v="430408" />
	</node>
	<node lat="60.460652774427004" lon="5.308261108474473" id="-67363">
		<tag k="fixme" v="consider place=suburb, village or hamlet" />
		<tag k="name" v="Ulsetåsen" />
		<tag k="place" v="quarter" />
		<tag k="ssr:stedsnr" v="430550" />
	</node>
	<node lat="60.31627222407139" lon="5.3543805566475156" id="-67372">
		<tag k="name" v="Nesttun" />
		<tag k="place" v="village" />
		<tag k="ssr:stedsnr" v="430851" />
	</node>
	<node lat="60.44946111082598" lon="5.3217972313142115" id="-67385">
		<tag k="fixme" v="consider place=suburb, village or hamlet" />
		<tag k="name" v="Åstveit" />
		<tag k="place" v="quarter" />
		<tag k="ssr:stedsnr" v="491536" />
	</node>
	<node lat="60.45167777438972" lon="5.461863887357342" id="-67386">
		<tag k="fixme" v="consider place=hamlet" />
		<tag k="name" v="Garnes" />
		<tag k="place" v="farm" />
		<tag k="ssr:stedsnr" v="491538" />
	</node>
	<node lat="60.43827221969339" lon="5.286230563487247" id="-67387">
		<tag k="fixme" v="consider place=suburb, village or hamlet" />
		<tag k="name" v="Lønborg" />
		<tag k="place" v="quarter" />
		<tag k="ssr:stedsnr" v="491546" />
	</node>
	<node lat="60.43905036392852" lon="5.343051177549235" id="-67388">
		<tag k="name" v="Selvik" />
		<tag k="place" v="hamlet" />
		<tag k="ssr:stedsnr" v="491548" />
	</node>
	<node lat="60.38152500042683" lon="5.2101888950281525" id="-67389">
		<tag k="name" v="Bjørkelia" />
		<tag k="place" v="farm" />
		<tag k="ssr:stedsnr" v="491642" />
	</node>
	<node lat="60.38343888959488" lon="5.3243138957093" id="-67468">
		<tag k="alt_name" v="Møhlenspris" />
		<tag k="name" v="Møhlenpris" />
		<tag k="place" v="suburb" />
		<tag k="ssr:stedsnr" v="450420" />
	</node>
	<node lat="60.360047220862484" lon="5.231744447196327" id="-67474">
		<tag k="name" v="Hetlevik" />
		<tag k="place" v="village" />
		<tag k="ssr:stedsnr" v="672680" />
	</node>
	<node lat="60.36878611024502" lon="5.226069449815501" id="-67480">
		<tag k="name" v="Loddefjord" />
		<tag k="place" v="village" />
		<tag k="ssr:stedsnr" v="672705" />
	</node>
	<node lat="60.2602000019204" lon="5.337216663474452" id="-67484">
		<tag k="fixme" v="consider place=suburb, village or hamlet" />
		<tag k="name" v="Fanahammaren" />
		<tag k="place" v="quarter" />
		<tag k="ssr:stedsnr" v="672890" />
	</node>
	<node lat="60.45738666777036" lon="5.4316015656955186" id="-67497">
		<tag k="name" v="Sætre" />
		<tag k="place" v="isolated_dwelling" />
		<tag k="ssr:stedsnr" v="673526" />
	</node>
	<node lat="60.31454444374896" lon="5.368705552431534" id="-67502">
		<tag k="fixme" v="consider place=suburb, village or hamlet" />
		<tag k="name" v="Øvsttun" />
		<tag k="place" v="quarter" />
		<tag k="ssr:stedsnr" v="673868" />
	</node>
	<node lat="60.28063333498776" lon="5.254775003533384" id="-67505">
		<tag k="name" v="Fristad" />
		<tag k="place" v="farm" />
		<tag k="ssr:stedsnr" v="673944" />
	</node>
	<node lat="60.456686114333465" lon="5.331730556773592" id="-67512">
		<tag k="name" v="Kolåsen" />
		<tag k="place" v="farm" />
		<tag k="ssr:stedsnr" v="490536" />
	</node>
	<node lat="60.455950000863325" lon="5.3139833398733485" id="-67513">
		<tag k="fixme" v="consider place=suburb, village or hamlet" />
		<tag k="name" v="Åstveitskogen" />
		<tag k="place" v="quarter" />
		<tag k="ssr:stedsnr" v="490538" />
	</node>
	<node lat="60.48766944594279" lon="5.330980561125935" id="-67520">
		<tag k="name" v="Dalabygda" />
		<tag k="place" v="hamlet" />
		<tag k="ssr:stedsnr" v="491407" />
	</node>
	<node lat="60.31904828702319" lon="5.443439282313948" id="-67530">
		<tag k="alt_name" v="Totland, øvre" />
		<tag k="name" v="Øvre Totland" />
		<tag k="place" v="farm" />
		<tag k="ssr:stedsnr" v="491877" />
	</node>
	<node lat="60.32318888949751" lon="5.343113885544883" id="-67620">
		<tag k="fixme" v="consider place=suburb, village or hamlet" />
		<tag k="name" v="Kloppedal" />
		<tag k="place" v="quarter" />
		<tag k="ssr:stedsnr" v="509031" />
	</node>
	<node lat="60.32765833756605" lon="5.336630551096372" id="-67621">
		<tag k="fixme" v="consider place=suburb, village or hamlet" />
		<tag k="name" v="Hopsbukta" />
		<tag k="place" v="quarter" />
		<tag k="ssr:stedsnr" v="509032" />
	</node>
	<node lat="60.4177124697722" lon="5.470854418502986" id="-67648">
		<tag k="name" v="Indre Arna" />
		<tag k="place" v="village" />
		<tag k="ssr:stedsnr" v="551559" />
	</node>
	<node lat="60.36160000344876" lon="5.296816670377396" id="-67651">
		<tag k="name" v="Fyllingsdalen" />
		<tag k="place" v="suburb" />
		<tag k="ssr:stedsnr" v="551702" />
	</node>
	<node lat="60.37646944102947" lon="5.361388898015478" id="-67653">
		<tag k="fixme" v="consider place=suburb, village or hamlet" />
		<tag k="name" v="Årstad" />
		<tag k="place" v="quarter" />
		<tag k="ssr:stedsnr" v="551743" />
	</node>
	<node lat="60.378658331429826" lon="5.343880547475985" id="-67658">
		<tag k="fixme" v="consider place=suburb, village or hamlet" />
		<tag k="name" v="Møllendal" />
		<tag k="place" v="quarter" />
		<tag k="ssr:stedsnr" v="551644" />
	</node>
	<node lat="60.37866581475976" lon="5.1980806642959925" id="-67660">
		<tag k="fixme" v="consider place=hamlet" />
		<tag k="name" v="Godvik" />
		<tag k="place" v="farm" />
		<tag k="ssr:stedsnr" v="551650" />
	</node>
	<node lat="60.51088055154792" lon="5.3589611075572" id="-67668">
		<tag k="amenity" v="university" />
		<tag k="name" v="Åsane Folkehøgskule" />
		<tag k="ssr:stedsnr" v="552551" />
	</node>
	<node lat="60.37790555247256" lon="5.363494437247206" id="-67851">
		<tag k="amenity" v="university" />
		<tag k="name" v="Ålrekstad" />
		<tag k="ssr:stedsnr" v="611746" />
	</node>
	<node lat="60.296380555691705" lon="5.312477779958188" id="-67860">
		<tag k="name" v="Råmyr" />
		<tag k="place" v="farm" />
		<tag k="ssr:stedsnr" v="612825" />
	</node>
	<node lat="60.34950950434418" lon="5.381382941871022" id="-67862">
		<tag k="alt_name" v="Helgesæter" />
		<tag k="name" v="Helgeseter" />
		<tag k="place" v="farm" />
		<tag k="ssr:stedsnr" v="612719" />
	</node>
	<node lat="60.419811114573804" lon="5.304988894131736" id="-67869">
		<tag k="name" v="Breiviken" />
		<tag k="place" v="village" />
		<tag k="ssr:stedsnr" v="703059" />
	</node>
	<node lat="60.34696666497538" lon="5.33707499626591" id="-67933">
		<tag k="fixme" v="consider place=suburb, village or hamlet" />
		<tag k="name" v="Fjøsanger" />
		<tag k="place" v="quarter" />
		<tag k="ssr:stedsnr" v="630003" />
	</node>
	<node lat="60.30752777545457" lon="5.347908340310158" id="-67947">
		<tag k="fixme" v="consider place=suburb, village or hamlet" />
		<tag k="name" v="Skjold" />
		<tag k="place" v="quarter" />
		<tag k="ssr:stedsnr" v="672859" />
	</node>
	<node lat="60.43428888977492" lon="5.28459444794742" id="-67955">
		<tag k="fixme" v="consider place=suburb, village or hamlet" />
		<tag k="name" v="Hellen" />
		<tag k="place" v="quarter" />
		<tag k="ssr:stedsnr" v="673624" />
	</node>
	<node lat="60.26509013622006" lon="5.355257677733573" id="-67960">
		<tag k="name" v="Nordheim" />
		<tag k="place" v="farm" />
		<tag k="ssr:stedsnr" v="673913" />
	</node>
	<node lat="60.36943089134036" lon="5.349895921698278" id="-67962">
		<tag k="name" v="Kronstadplassen" />
		<tag k="place" v="square" />
		<tag k="ssr:stedsnr" v="891130" />
	</node>
	<node lat="60.46719555940489" lon="5.350154614349149" id="-68047">
		<tag k="fixme" v="consider place=hamlet" />
		<tag k="name" v="Li" />
		<tag k="place" v="farm" />
		<tag k="ssr:stedsnr" v="733504" />
	</node>
	<node lat="60.42379999614206" lon="5.295319443789421" id="-68048">
		<tag k="fixme" v="consider place=suburb, village or hamlet" />
		<tag k="name" v="Biskopshavn" />
		<tag k="place" v="quarter" />
		<tag k="ssr:stedsnr" v="733584" />
	</node>
	<node lat="60.281930556117025" lon="5.247100006114354" id="-68056">
		<tag k="fixme" v="consider place=hamlet" />
		<tag k="name" v="Blomsterdalen" />
		<tag k="place" v="village" />
		<tag k="ssr:stedsnr" v="733791" />
	</node>
	<node lat="60.497741196157534" lon="5.381430460644445" id="-68148">
		<tag k="name" v="Vestlandsheimen" />
		<tag k="place" v="locality" />
		<tag k="ssr:stedsnr" v="794376" />
	</node>
	<node lat="60.326608334968675" lon="5.302363897075432" id="-68152">
		<tag k="fixme" v="consider place=hamlet" />
		<tag k="name" v="Bønes" />
		<tag k="place" v="village" />
		<tag k="ssr:stedsnr" v="794771" />
	</node>
	<node lat="60.25210555946708" lon="5.264569448595972" id="-68170">
		<tag k="name" v="Milde" />
		<tag k="place" v="hamlet" />
		<tag k="ssr:stedsnr" v="915666" />
	</node>
	<node lat="60.34557139050356" lon="5.179364792623585" id="-68174">
		<tag k="fixme" v="consider place=suburb, village or hamlet" />
		<tag k="name" v="Håkonshella" />
		<tag k="place" v="quarter" />
		<tag k="ssr:stedsnr" v="916746" />
	</node>
	<node lat="60.3773833375488" lon="5.50818333707113" id="-68178">
		<tag k="name" v="Hagen" />
		<tag k="place" v="farm" />
		<tag k="ssr:stedsnr" v="916142" />
	</node>
	<node lat="60.50336389164495" lon="5.34813610986007" id="-68180">
		<tag k="alt_name" v="Tuft, s" />
		<tag k="name" v="Søre Tuft" />
		<tag k="place" v="farm" />
		<tag k="ssr:stedsnr" v="916491" />
	</node>
	<node lat="60.3871861148934" lon="5.345427770851288" id="-68181">
		<tag k="fixme" v="consider place=suburb, village or hamlet" />
		<tag k="name" v="Kalfaret" />
		<tag k="place" v="quarter" />
		<tag k="ssr:stedsnr" v="916658" />
	</node>
	<node lat="60.49011389267476" lon="5.3740305631655065" id="-68183">
		<tag k="name" v="Myrsæter" />
		<tag k="place" v="farm" />
		<tag k="ssr:stedsnr" v="916450" />
	</node>
	<node lat="60.436775000212336" lon="5.310319446628972" id="-68185">
		<tag k="name" v="Eidsvåg" />
		<tag k="place" v="village" />
		<tag k="ssr:stedsnr" v="916547" />
	</node>
	<node lat="60.333891665532406" lon="5.212788898033559" id="-68244">
		<tag k="fixme" v="consider place=suburb, village or hamlet" />
		<tag k="name" v="Mathopen" />
		<tag k="place" v="quarter" />
		<tag k="ssr:stedsnr" v="813089" />
	</node>
	<node lat="60.40123056013388" lon="5.325608339752402" id="-68247">
		<tag k="name" v="Bergenhus" />
		<tag k="place" v="suburb" />
		<tag k="ssr:stedsnr" v="825111" />
	</node>
	<node lat="60.44046666599263" lon="5.323249993999104" id="-68264">
		<tag k="fixme" v="consider place=suburb, village or hamlet" />
		<tag k="name" v="Ervik" />
		<tag k="place" v="quarter" />
		<tag k="ssr:stedsnr" v="855511" />
	</node>
	<node lat="60.27086110858879" lon="5.232855554676891" id="-68272">
		<tag k="name" v="Strandli" />
		<tag k="place" v="farm" />
		<tag k="ssr:stedsnr" v="855908" />
	</node>
	<node lat="60.399955558170284" lon="5.318455553162909" id="-68275">
		<tag k="landuse" v="military" />
		<tag k="name" v="Bergenhus" />
		<tag k="ssr:stedsnr" v="855702" />
	</node>
	<node lat="60.36223611145095" lon="5.373683334054823" id="-68478">
		<tag k="name" v="Landås" />
		<tag k="place" v="village" />
		<tag k="ssr:stedsnr" v="886197" />
	</node>
	<node lat="60.42560363785982" lon="5.652725319528853" id="-68493">
		<tag k="name" v="Kråni" />
		<tag k="place" v="farm" />
		<tag k="ssr:stedsnr" v="916071" />
	</node>
	<node lat="60.39706111571124" lon="5.330641671722226" id="-68498">
		<tag k="name" v="Skansen" />
		<tag k="place" v="isolated_dwelling" />
		<tag k="ssr:stedsnr" v="916717" />
	</node>
	<node lat="60.382491668580364" lon="5.465697222587429" id="-68500">
		<tag k="fixme" v="consider place=suburb, village or hamlet" />
		<tag k="name" v="Espeland" />
		<tag k="place" v="quarter" />
		<tag k="ssr:stedsnr" v="916679" />
	</node>
	<node lat="60.3286222253265" lon="5.2064388821322085" id="-68503">
		<tag k="name" v="Noatun" />
		<tag k="place" v="isolated_dwelling" />
		<tag k="ssr:stedsnr" v="916806" />
	</node>
	<node lat="60.33917499873213" lon="5.318236105237352" id="-68505">
		<tag k="name" v="Haneborg" />
		<tag k="place" v="isolated_dwelling" />
		<tag k="ssr:stedsnr" v="916826" />
	</node>
	<node lat="60.40710276906502" lon="5.6405203543572" id="-68589">
		<tag k="name" v="Gullbotn" />
		<tag k="place" v="locality" />
		<tag k="ssr:stedsnr" v="957998" />
	</node>
	<node lat="60.30147450361128" lon="5.310805030860235" id="-68592">
		<tag k="name" v="Fagerheim" />
		<tag k="place" v="farm" />
		<tag k="ssr:stedsnr" v="974230" />
	</node>
	<node lat="60.34624805722987" lon="5.384781583355108" id="-68607">
		<tag k="fixme" v="consider place=hamlet" />
		<tag k="name" v="Sædal" />
		<tag k="place" v="farm" />
		<tag k="ssr:stedsnr" v="990655" />
	</node>
	<node lat="60.34022795147323" lon="5.3525579940757" id="-68608">
		<tag k="fixme" v="consider place=hamlet" />
		<tag k="name" v="Fantoft" />
		<tag k="place" v="farm" />
		<tag k="ssr:stedsnr" v="990656" />
	</node>
	<node lat="60.34186575694902" lon="5.336280270533543" id="-68609">
		<tag k="fixme" v="consider place=hamlet" />
		<tag k="name" v="Gamlehaugen" />
		<tag k="place" v="farm" />
		<tag k="ssr:stedsnr" v="990657" />
	</node>
	<node lat="60.329698962399206" lon="5.258028943218153" id="-68610">
		<tag k="fixme" v="consider place=hamlet" />
		<tag k="name" v="Knappen" />
		<tag k="place" v="farm" />
		<tag k="ssr:stedsnr" v="990658" />
	</node>
	<node lat="60.38947830276877" lon="5.2833980337912845" id="-68615">
		<tag k="amenity" v="school" />
		<tag k="name" v="Holen skole" />
		<tag k="ssr:stedsnr" v="991216" />
	</node>
	<node lat="60.427658332759" lon="5.623394447230023" id="-68623">
		<tag k="name" v="Trengereid" />
		<tag k="place" v="village" />
		<tag k="ssr:stedsnr" v="5029" />
	</node>
	<node lat="60.40590277842104" lon="5.448766667316071" id="-68628">
		<tag k="alt_name" v="Rødland, midt" />
		<tag k="name" v="Midt-Rødland" />
		<tag k="place" v="farm" />
		<tag k="ssr:stedsnr" v="5639" />
	</node>
	<node lat="60.374265210155066" lon="5.459124176409639" id="-68632">
		<tag k="fixme" v="consider place=hamlet" />
		<tag k="name" v="Lone" />
		<tag k="place" v="farm" />
		<tag k="ssr:stedsnr" v="5730" />
	</node>
	<node lat="60.36205277487316" lon="5.22096943943108" id="-68638">
		<tag k="fixme" v="consider place=suburb, village or hamlet" />
		<tag k="name" v="Vadmyra" />
		<tag k="place" v="quarter" />
		<tag k="ssr:stedsnr" v="5695" />
	</node>
	<node lat="60.339227689833734" lon="5.398242158027048" id="-68780">
		<tag k="fixme" v="consider place=hamlet" />
		<tag k="name" v="Helldal" />
		<tag k="place" v="farm" />
		<tag k="ssr:stedsnr" v="66759" />
	</node>
	<node lat="60.32515921018934" lon="5.299033971245711" id="-68782">
		<tag k="fixme" v="consider place=hamlet" />
		<tag k="name" v="Bønes" />
		<tag k="place" v="farm" />
		<tag k="ssr:stedsnr" v="66762" />
	</node>
	<node lat="60.372008330283265" lon="5.3371111110267035" id="-68786">
		<tag k="name" v="Solheim" />
		<tag k="place" v="village" />
		<tag k="ssr:stedsnr" v="66732" />
	</node>
	<node lat="60.350361107803465" lon="5.424861108949687" id="-68794">
		<tag k="name" v="Åsen" />
		<tag k="place" v="isolated_dwelling" />
		<tag k="ssr:stedsnr" v="66782" />
	</node>
	<node lat="60.28063889279832" lon="5.228669436812077" id="-68801">
		<tag k="name" v="Solbakken" />
		<tag k="place" v="farm" />
		<tag k="ssr:stedsnr" v="66927" />
	</node>
	<node lat="60.31325555835524" lon="5.26939444841704" id="-68900">
		<tag k="fixme" v="consider place=suburb, village or hamlet" />
		<tag k="name" v="Søreidgrenda" />
		<tag k="place" v="quarter" />
		<tag k="ssr:stedsnr" v="85020" />
	</node>
	<node lat="60.49049553602659" lon="5.268044320777934" id="-68914">
		<tag k="fixme" v="consider place=hamlet" />
		<tag k="name" v="Mjølkeråen" />
		<tag k="place" v="farm" />
		<tag k="ssr:stedsnr" v="126391" />
	</node>
	<node lat="60.46531111112507" lon="5.3598861193242975" id="-68926">
		<tag k="fixme" v="consider place=suburb, village or hamlet" />
		<tag k="name" v="Flaktveit" />
		<tag k="place" v="quarter" />
		<tag k="ssr:stedsnr" v="126529" />
	</node>
	<node lat="60.43781869043952" lon="5.452238530083271" id="-68927">
		<tag k="alt_name" v="Arna, ytre" />
		<tag k="fixme" v="consider place=hamlet" />
		<tag k="name" v="Ytre Arna" />
		<tag k="place" v="farm" />
		<tag k="ssr:stedsnr" v="126601" />
	</node>
	<node lat="60.37618611515991" lon="5.3064333301654925" id="-68930">
		<tag k="fixme" v="consider place=suburb, village or hamlet" />
		<tag k="name" v="Melkeplassen" />
		<tag k="place" v="quarter" />
		<tag k="ssr:stedsnr" v="126631" />
	</node>
	<node lat="60.36173656858144" lon="5.451824301154292" id="-68931">
		<tag k="name" v="Haukeland" />
		<tag k="place" v="farm" />
		<tag k="ssr:stedsnr" v="126713" />
	</node>
	<node lat="60.37403055092411" lon="5.359355547149396" id="-68932">
		<tag k="alt_name" v="Haukeland sjukehus;Haukeland sykehus" />
		<tag k="amenity" v="hospital" />
		<tag k="name" v="Haukeland universitetssjukehus" />
		<tag k="old_name" v="Haukeland Universitetssykehus" />
		<tag k="ssr:stedsnr" v="126716" />
	</node>
	<node lat="60.3673388844467" lon="5.372916659244574" id="-68933">
		<tag k="fixme" v="consider place=suburb, village or hamlet" />
		<tag k="name" v="Lægdene" />
		<tag k="place" v="quarter" />
		<tag k="ssr:stedsnr" v="126718" />
	</node>
	<node lat="60.39561666334131" lon="5.308952774894226" id="-69075">
		<tag k="building" v="industrial" />
		<tag k="industrial" v="factory" />
		<tag k="name" v="Georgernes" />
		<tag k="ssr:stedsnr" v="149044" />
	</node>
	<node lat="60.30937499938151" lon="5.370366660150046" id="-69077">
		<tag k="fixme" v="consider place=suburb, village or hamlet" />
		<tag k="name" v="Elvenes" />
		<tag k="place" v="quarter" />
		<tag k="ssr:stedsnr" v="157173" />
	</node>
	<node lat="60.43651993975882" lon="5.486921683516916" id="-69087">
		<tag k="name" v="Kyrkjevollen" />
		<tag k="place" v="farm" />
		<tag k="ssr:stedsnr" v="187015" />
	</node>
	<node lat="60.402355555584606" lon="5.321411112980768" id="-69101">
		<tag k="name" v="Skuteviken" />
		<tag k="place" v="suburb" />
		<tag k="ssr:stedsnr" v="187630" />
	</node>
	<node lat="60.40363610980193" lon="5.45039999579431" id="-69108">
		<tag k="alt_name" v="Rødland, s;Rødland" />
		<tag k="name" v="Søre Rødland" />
		<tag k="place" v="farm" />
		<tag k="ssr:stedsnr" v="187617" />
	</node>
	<node lat="60.4252944410627" lon="5.651091660677751" id="-69231">
		<tag k="name" v="Skulstad" />
		<tag k="place" v="farm" />
		<tag k="ssr:stedsnr" v="208964" />
	</node>
	<node lat="60.26342222090969" lon="5.345902778552624" id="-69235">
		<tag k="name" v="Fana" />
		<tag k="place" v="suburb" />
		<tag k="ssr:stedsnr" v="279165" />
	</node>
	<node lat="60.36938610918398" lon="5.559391675814623" id="-69247">
		<tag k="name" v="Redningshytta" />
		<tag k="place" v="isolated_dwelling" />
		<tag k="ssr:stedsnr" v="308141" />
	</node>
	<node lat="60.39903610720933" lon="5.302624993678294" id="-69416">
		<tag k="fixme" v="consider natural=beach + surface=sand" />
		<tag k="leisure" v="swimming_area" />
		<tag k="name" v="Nordnes Park og Sjøbad" />
		<tag k="place" v="locality" />
		<tag k="ssr:stedsnr" v="361593" />
	</node>
	<node lat="60.33929166601578" lon="5.358372226501471" id="-69429">
		<tag k="fixme" v="consider place=suburb, village or hamlet" />
		<tag k="name" v="Nattland" />
		<tag k="place" v="quarter" />
		<tag k="ssr:stedsnr" v="369752" />
	</node>
	<node lat="60.51625042236179" lon="5.3148088039707595" id="-69442">
		<tag k="name" v="Hordvik" />
		<tag k="place" v="hamlet" />
		<tag k="ssr:stedsnr" v="370542" />
	</node>
	<node lat="60.38405555965927" lon="5.328094450048443" id="-69563">
		<tag k="leisure" v="park" />
		<tag k="name" v="Nygårdsparken" />
		<tag k="ssr:stedsnr" v="389441" />
	</node>
	<node lat="60.41711388945448" lon="5.310477781184622" id="-69567">
		<tag k="name" v="Elsero" />
		<tag k="place" v="farm" />
		<tag k="ssr:stedsnr" v="392175" />
	</node>
	<node lat="60.38319729475533" lon="5.3045305671337495" id="-69573">
		<tag k="fixme" v="consider place=suburb, village or hamlet" />
		<tag k="name" v="Damsgård" />
		<tag k="place" v="quarter" />
		<tag k="ssr:stedsnr" v="430624" />
	</node>
	<node lat="60.49585000124708" lon="5.3894500077661425" id="-69581">
		<tag k="name" v="Solvang" />
		<tag k="place" v="isolated_dwelling" />
		<tag k="ssr:stedsnr" v="430385" />
	</node>
	<node lat="60.361602776884126" lon="5.354986103226758" id="-69592">
		<tag k="name" v="Minde" />
		<tag k="place" v="village" />
		<tag k="ssr:stedsnr" v="430690" />
	</node>
	<node lat="60.31363332943831" lon="5.433447226716217" id="-69601">
		<tag k="alt_name" v="Totland, nedre" />
		<tag k="name" v="Nedre Totland" />
		<tag k="place" v="farm" />
		<tag k="ssr:stedsnr" v="430867" />
	</node>
	<node lat="60.253677780020006" lon="5.333258341315719" id="-69602">
		<tag k="name" v="Nybø" />
		<tag k="place" v="farm" />
		<tag k="ssr:stedsnr" v="430871" />
	</node>
	<node lat="60.381955732236285" lon="5.309415227666059" id="-69842">
		<tag k="fixme" v="consider place=suburb, village or hamlet" />
		<tag k="name" v="Frydenbø" />
		<tag k="place" v="quarter" />
		<tag k="ssr:stedsnr" v="509298" />
	</node>
	<node lat="60.47122499983493" lon="5.327488890843373" id="-69843">
		<tag k="name" v="Åsane" />
		<tag k="place" v="suburb" />
		<tag k="ssr:stedsnr" v="513840" />
	</node>
	<node lat="60.39363610824184" lon="5.339075001026305" id="-69860">
		<tag k="name" v="Skansemyren" />
		<tag k="place" v="quarter" />
		<tag k="ssr:stedsnr" v="551621" />
	</node>
	<node lat="60.3932307856428" lon="5.324495095508396" id="-69865">
		<tag k="name" v="Bergen" />
		<tag k="place" v="town" />
		<tag k="ssr:stedsnr" v="551660" />
	</node>
	<node lat="60.32395892795007" lon="5.389916177861941" id="-69866">
		<tag k="alt_name" v="Dyngeland, øvre" />
		<tag k="fixme" v="consider place=hamlet" />
		<tag k="name" v="Øvre Dyngeland" />
		<tag k="place" v="farm" />
		<tag k="ssr:stedsnr" v="551764" />
	</node>
	<node lat="60.41852778059986" lon="5.310933339692396" id="-69973">
		<tag k="fixme" v="consider place=suburb, village or hamlet" />
		<tag k="name" v="Nyhavn" />
		<tag k="place" v="quarter" />
		<tag k="ssr:stedsnr" v="570977" />
	</node>
	<node lat="60.37046667097641" lon="5.174763895973183" id="-69975">
		<tag k="name" v="Søre Drotningsvik" />
		<tag k="old_name" v="Søra Drotningvik" />
		<tag k="place" v="farm" />
		<tag k="ssr:stedsnr" v="571780" />
	</node>
	<node lat="60.31522814590464" lon="5.4408528223711405" id="-69978">
		<tag k="name" v="Totland" />
		<tag k="place" v="hamlet" />
		<tag k="ssr:stedsnr" v="593166" />
	</node>
	<node lat="60.40586944625551" lon="5.324180550825587" id="-69990">
		<tag k="name" v="Sandviken" />
		<tag k="place" v="village" />
		<tag k="ssr:stedsnr" v="611586" />
	</node>
	<node lat="60.33134612977367" lon="5.397061503762126" id="-69998">
		<tag k="alt_name" v="Dyngeland, nedre" />
		<tag k="fixme" v="consider place=hamlet" />
		<tag k="name" v="Nedre Dyngeland" />
		<tag k="place" v="farm" />
		<tag k="ssr:stedsnr" v="612754" />
	</node>
	<node lat="60.427479436694256" lon="5.292593981813659" id="-70125">
		<tag k="fixme" v="consider place=suburb, village or hamlet" />
		<tag k="name" v="Eikeviken" />
		<tag k="place" v="quarter" />
		<tag k="ssr:stedsnr" v="642058" />
	</node>
	<node lat="60.291730555101964" lon="5.265330554143574" id="-70126">
		<tag k="name" v="Ytrebygda" />
		<tag k="place" v="village" />
		<tag k="ssr:stedsnr" v="642153" />
	</node>
	<node lat="60.46459999907132" lon="5.329124995641475" id="-70153">
		<tag k="name" v="Åsen" />
		<tag k="place" v="farm" />
		<tag k="ssr:stedsnr" v="733524" />
	</node>
	<node lat="60.257358336384165" lon="5.339013896406236" id="-70155">
		<tag k="alt_name" v="Fanavollen" />
		<tag k="name" v="Fanastølen" />
		<tag k="place" v="farm" />
		<tag k="ssr:stedsnr" v="733873" />
	</node>
	<node lat="60.505874998283815" lon="5.267388894984907" id="-70169">
		<tag k="name" v="Salhus" />
		<tag k="place" v="village" />
		<tag k="ssr:stedsnr" v="734511" />
	</node>
	<node lat="60.330947222525175" lon="5.298663887106456" id="-70174">
		<tag k="fixme" v="consider place=suburb, village or hamlet" />
		<tag k="name" v="Bønesberget" />
		<tag k="place" v="quarter" />
		<tag k="ssr:stedsnr" v="734764" />
	</node>
	<node lat="60.464327773385385" lon="5.341588884383788" id="-70178">
		<tag k="name" v="Li" />
		<tag k="place" v="farm" />
		<tag k="ssr:stedsnr" v="734570" />
	</node>
	<node lat="60.37509722315762" lon="5.193949994826037" id="-70285">
		<tag k="name" v="Stølen" />
		<tag k="place" v="farm" />
		<tag k="ssr:stedsnr" v="753781" />
	</node>
	<node lat="60.49214166399493" lon="5.375786105521655" id="-70287">
		<tag k="name" v="Vollaplassen" />
		<tag k="place" v="isolated_dwelling" />
		<tag k="ssr:stedsnr" v="772166" />
	</node>
	<node lat="60.45294999897594" lon="5.36808333493275" id="-70303">
		<tag k="alt_name" v="Hjortland, nordre" />
		<tag k="name" v="Nordre Hjortland" />
		<tag k="place" v="farm" />
		<tag k="ssr:stedsnr" v="794491" />
	</node>
	<node lat="60.458705553151596" lon="5.43908054783022" id="-70307">
		<tag k="name" v="Ytre Arna" />
		<tag k="place" v="village" />
		<tag k="ssr:stedsnr" v="794553" />
	</node>
	<node lat="60.388038887194455" lon="5.441050003510332" id="-70310">
		<tag k="name" v="Leitet" />
		<tag k="place" v="farm" />
		<tag k="ssr:stedsnr" v="794637" />
	</node>
	<node lat="60.379869444787865" lon="5.312933339969325" id="-70312">
		<tag k="name" v="Gyldenpris" />
		<tag k="place" v="village" />
		<tag k="ssr:stedsnr" v="794655" />
	</node>
	<node lat="60.370580557659196" lon="5.198650008816189" id="-70314">
		<tag k="name" v="Nyborg" />
		<tag k="place" v="farm" />
		<tag k="ssr:stedsnr" v="794719" />
	</node>
	<node lat="60.31958322889847" lon="5.329427643837732" id="-70318">
		<tag k="alt_name" v="Trollhaugen" />
		<tag k="name" v="Troldhaugen" />
		<tag k="place" v="isolated_dwelling" />
		<tag k="ssr:stedsnr" v="794851" />
	</node>
	<node lat="60.319327781557206" lon="5.37475000163767" id="-70319">
		<tag k="fixme" v="consider place=suburb, village or hamlet" />
		<tag k="name" v="Ulsmåg" />
		<tag k="place" v="quarter" />
		<tag k="ssr:stedsnr" v="794854" />
	</node>
	<node lat="60.346650001622535" lon="5.383736106206341" id="-70325">
		<tag k="alt_name" v="Sædal, øvre" />
		<tag k="name" v="Øvre Sædal" />
		<tag k="place" v="farm" />
		<tag k="ssr:stedsnr" v="795784" />
	</node>
	<node lat="60.44870607826577" lon="5.404041414234907" id="-70487">
		<tag k="fixme" v="consider place=hamlet" />
		<tag k="name" v="Haugland" />
		<tag k="place" v="farm" />
		<tag k="ssr:stedsnr" v="855520" />
	</node>
	<node lat="60.38800702792343" lon="5.228199411124523" id="-70488">
		<tag k="fixme" v="consider place=suburb, village or hamlet" />
		<tag k="name" v="Kjøkkelvik" />
		<tag k="place" v="quarter" />
		<tag k="ssr:stedsnr" v="855651" />
	</node>
	<node lat="60.403158335699054" lon="5.332772221554478" id="-70625">
		<tag k="name" v="Breistølen" />
		<tag k="place" v="isolated_dwelling" />
		<tag k="ssr:stedsnr" v="878036" />
	</node>
	<node lat="60.506466662582916" lon="5.3705027862665995" id="-70630">
		<tag k="name" v="Fredsvoll" />
		<tag k="place" v="farm" />
		<tag k="ssr:stedsnr" v="954151" />
	</node>
	<node lat="60.26259804657467" lon="5.351480008669727" id="-70644">
		<tag k="fixme" v="consider place=hamlet" />
		<tag k="name" v="Fana prestegåd" />
		<tag k="place" v="farm" />
		<tag k="ssr:stedsnr" v="990663" />
	</node>
	<node lat="60.508322229259655" lon="5.341985310329292" id="-70645">
		<tag k="fixme" v="consider place=hamlet" />
		<tag k="name" v="Tuft" />
		<tag k="place" v="farm" />
		<tag k="ssr:stedsnr" v="990790" />
	</node>
	<node lat="60.452477649974824" lon="5.370162978648489" id="-70646">
		<tag k="fixme" v="consider place=hamlet" />
		<tag k="name" v="Hjortland" />
		<tag k="place" v="farm" />
		<tag k="ssr:stedsnr" v="990808" />
	</node>
	<node lat="60.45519115461178" lon="5.332518482609679" id="-70647">
		<tag k="fixme" v="consider place=hamlet" />
		<tag k="name" v="Rødland" />
		<tag k="place" v="farm" />
		<tag k="ssr:stedsnr" v="990809" />
	</node>
	<node lat="60.44536953838682" lon="5.301533158386358" id="-70648">
		<tag k="fixme" v="consider place=hamlet" />
		<tag k="name" v="Storøya" />
		<tag k="place" v="farm" />
		<tag k="ssr:stedsnr" v="990810" />
	</node>
	<node lat="60.42662636702549" lon="5.573349608248462" id="-70649">
		<tag k="fixme" v="consider place=hamlet" />
		<tag k="name" v="Øvre Romslo" />
		<tag k="place" v="farm" />
		<tag k="ssr:stedsnr" v="990815" />
	</node>
	<node lat="60.43166277711774" lon="5.498092859646338" id="-70650">
		<tag k="fixme" v="consider place=hamlet" />
		<tag k="name" v="Store Tunes" />
		<tag k="place" v="farm" />
		<tag k="ssr:stedsnr" v="990816" />
	</node>
	<node lat="60.35831977102533" lon="5.2455538653267" id="-70652">
		<tag k="fixme" v="consider place=hamlet" />
		<tag k="name" v="Bjørndal" />
		<tag k="place" v="farm" />
		<tag k="ssr:stedsnr" v="990735" />
	</node>
	<node lat="60.358508610925796" lon="5.180708221589653" id="-70653">
		<tag k="fixme" v="consider place=hamlet" />
		<tag k="name" v="Bakken" />
		<tag k="place" v="farm" />
		<tag k="ssr:stedsnr" v="990740" />
	</node>
	<node lat="60.37382918153574" lon="5.172585976838133" id="-70654">
		<tag k="fixme" v="consider place=hamlet" />
		<tag k="name" v="Drotningsvik" />
		<tag k="place" v="farm" />
		<tag k="ssr:stedsnr" v="990742" />
	</node>
	<node lat="60.35721243193941" lon="5.340634653753227" id="-72555">
		<tag k="fixme" v="consider place=suburb, village or hamlet" />
		<tag k="name" v="Kristianborg" />
		<tag k="place" v="quarter" />
		<tag k="ssr:stedsnr" v="1072134" />
	</node>
	<node lat="60.48170605367094" lon="5.280608276603727" id="-72577">
		<tag k="name" v="Toppe" />
		<tag k="place" v="hamlet" />
		<tag k="ssr:stedsnr" v="1079138" />
	</node>
	<node lat="60.404058315620446" lon="5.321978875464999" id="-72579">
		<tag k="amenity" v="school" />
		<tag k="name" v="Rothaugen skole" />
		<tag k="ssr:stedsnr" v="1080144" />
	</node>
	<node lat="60.27749890721218" lon="5.354280693347323" id="-72581">
		<tag k="name" v="Titlestad" />
		<tag k="place" v="hamlet" />
		<tag k="ssr:stedsnr" v="1080300" />
	</node>
	<node lat="60.24794255800385" lon="5.367395575904932" id="-72582">
		<tag k="name" v="Sædalen" />
		<tag k="place" v="locality" />
		<tag k="ssr:stedsnr" v="1080303" />
	</node>
	<node lat="60.42243462563592" lon="5.547844457919055" id="-72584">
		<tag k="name" v="Songstad" />
		<tag k="place" v="hamlet" />
		<tag k="ssr:stedsnr" v="1080390" />
	</node>
	<node lat="60.26358152528608" lon="5.342862753565021" id="-72600">
		<tag k="amenity" v="kindergarten" />
		<tag k="name" v="Fana barnehage" />
		<tag k="ssr:stedsnr" v="1083375" />
	</node>
	<node lat="60.379591376153854" lon="5.354958917512168" id="-72601">
		<tag k="amenity" v="kindergarten" />
		<tag k="name" v="Fløenbakken barnehage" />
		<tag k="ssr:stedsnr" v="1083376" />
	</node>
	<node lat="60.39639120190357" lon="5.311317415054532" id="-72604">
		<tag k="amenity" v="kindergarten" />
		<tag k="name" v="Nykirken barnehage" />
		<tag k="ssr:stedsnr" v="1083379" />
	</node>
	<node lat="60.34618597695563" lon="5.394275016207487" id="-72607">
		<tag k="amenity" v="kindergarten" />
		<tag k="name" v="Sædalen barnehage" />
		<tag k="ssr:stedsnr" v="1083382" />
	</node>
	<node lat="60.40537039807297" lon="5.326580272264301" id="-72608">
		<tag k="amenity" v="kindergarten" />
		<tag k="name" v="Sandviken barnehage" />
		<tag k="ssr:stedsnr" v="1083383" />
	</node>
</osm>
