<?xml version="1.0" encoding="UTF-8"?>
<osm version="0.6" generator="osmapis">
	<node lat="60.3879444419421" lon="5.321277771667661" id="-31886">
		<tag k="name" v="Nygård" />
		<tag k="ssr:stedsnr" v="5608" />
		<tag k="tourism" v="museum" />
	</node>
	<node lat="60.50326901603534" lon="5.262312400798148" id="-32007">
		<tag k="alt_name" v="Salhus" />
		<tag k="amenity" v="place_of_worship" />
		<tag k="denomination" v="lutheran" />
		<tag k="name" v="Salhus kirke" />
		<tag k="religion" v="christian" />
		<tag k="ssr:stedsnr" v="67502" />
	</node>
	<node lat="60.35923055741018" lon="5.398941671500876" id="-32079">
		<tag k="name" v="Krossen" />
		<tag k="place" v="locality" />
		<tag k="ssr:stedsnr" v="82312" />
	</node>
	<node lat="60.47479025936183" lon="5.325813652272152" id="-32251">
		<tag k="amenity" v="place_of_worship" />
		<tag k="denomination" v="lutheran" />
		<tag k="name" v="Åsane gamle kirke" />
		<tag k="religion" v="christian" />
		<tag k="ssr:stedsnr" v="188484" />
	</node>
	<node lat="60.38677500385136" lon="5.331491664606629" id="-32412">
		<tag k="amenity" v="place_of_worship" />
		<tag k="denomination" v="lutheran" />
		<tag k="name" v="St. Jacobs kirke" />
		<tag k="religion" v="christian" />
		<tag k="ssr:stedsnr" v="210020" />
	</node>
	<node lat="60.3948583344772" lon="5.327694442947614" id="-32415">
		<tag k="amenity" v="place_of_worship" />
		<tag k="denomination" v="lutheran" />
		<tag k="name" v="Korskirken" />
		<tag k="religion" v="christian" />
		<tag k="ssr:stedsnr" v="271008" />
	</node>
	<node lat="60.35160555530149" lon="5.344952774925302" id="-32438">
		<tag k="amenity" v="place_of_worship" />
		<tag k="denomination" v="lutheran" />
		<tag k="name" v="Storetveit kirke" />
		<tag k="religion" v="christian" />
		<tag k="ssr:stedsnr" v="248720" />
	</node>
	<node lat="60.352827781241864" lon="5.357005559739136" id="-32439">
		<tag k="alt_name" v="Slettebakken" />
		<tag k="amenity" v="place_of_worship" />
		<tag k="denomination" v="lutheran" />
		<tag k="name" v="Slettebakken kirke" />
		<tag k="religion" v="christian" />
		<tag k="ssr:stedsnr" v="248723" />
	</node>
	<node lat="60.419172219271346" lon="5.46758332795125" id="-32621">
		<tag k="alt_name" v="Arna" />
		<tag k="amenity" v="place_of_worship" />
		<tag k="denomination" v="lutheran" />
		<tag k="name" v="Arna kyrkje" />
		<tag k="religion" v="christian" />
		<tag k="ssr:stedsnr" v="369523" />
	</node>
	<node lat="60.398927779539235" lon="5.323363893000916" id="-32732">
		<tag k="amenity" v="place_of_worship" />
		<tag k="denomination" v="lutheran" />
		<tag k="name" v="Mariakirken" />
		<tag k="religion" v="christian" />
		<tag k="ssr:stedsnr" v="392001" />
	</node>
	<node lat="60.33931332795322" lon="5.353267621787665" id="-32798">
		<tag k="alt_name" v="Fantoft" />
		<tag k="amenity" v="place_of_worship" />
		<tag k="denomination" v="lutheran" />
		<tag k="name" v="Fantoft stavkirke" />
		<tag k="religion" v="christian" />
		<tag k="ssr:stedsnr" v="491803" />
	</node>
	<node lat="60.366513550542706" lon="5.2273149291731125" id="-32885">
		<tag k="alt_name" v="Loddefjord" />
		<tag k="amenity" v="place_of_worship" />
		<tag k="denomination" v="lutheran" />
		<tag k="name" v="Loddefjord kirke" />
		<tag k="religion" v="christian" />
		<tag k="ssr:stedsnr" v="672710" />
	</node>
	<node lat="60.31583317713557" lon="5.356330609327917" id="-32905">
		<tag k="alt_name" v="Birkeland" />
		<tag k="amenity" v="place_of_worship" />
		<tag k="denomination" v="lutheran" />
		<tag k="name" v="Birkeland kirke" />
		<tag k="religion" v="christian" />
		<tag k="ssr:stedsnr" v="673865" />
	</node>
	<node lat="60.38553333717252" lon="5.300633335751878" id="-33181">
		<tag k="alt_name" v="Laksevåg" />
		<tag k="amenity" v="place_of_worship" />
		<tag k="denomination" v="lutheran" />
		<tag k="name" v="Laksevåg kirke" />
		<tag k="religion" v="christian" />
		<tag k="ssr:stedsnr" v="691366" />
	</node>
	<node lat="60.37899166318911" lon="5.3234361091386395" id="-33247">
		<tag k="amenity" v="place_of_worship" />
		<tag k="denomination" v="lutheran" />
		<tag k="name" v="St. Markus kirke" />
		<tag k="religion" v="christian" />
		<tag k="ssr:stedsnr" v="574021" />
	</node>
	<node lat="60.39391944233029" lon="5.33045000047881" id="-33338">
		<tag k="amenity" v="place_of_worship" />
		<tag k="denomination" v="lutheran" />
		<tag k="name" v="Bergen domkirke" />
		<tag k="old_name" v="Domkirken" />
		<tag k="religion" v="christian" />
		<tag k="ssr:stedsnr" v="632812" />
	</node>
	<node lat="60.3970608288682" lon="5.313367789411259" id="-33339">
		<tag k="amenity" v="place_of_worship" />
		<tag k="denomination" v="lutheran" />
		<tag k="name" v="Nykirken" />
		<tag k="religion" v="christian" />
		<tag k="ssr:stedsnr" v="634004" />
	</node>
	<node lat="60.3428866740225" lon="5.336776151781592" id="-33462">
		<tag k="name" v="Gamlehaugen" />
		<tag k="ssr:stedsnr" v="734809" />
		<tag k="tourism" v="attraction" />
	</node>
	<node lat="60.458140355456706" lon="5.439439340513777" id="-33582">
		<tag k="alt_name" v="Ytre Arna" />
		<tag k="amenity" v="place_of_worship" />
		<tag k="denomination" v="lutheran" />
		<tag k="name" v="Ytre Arna kirke" />
		<tag k="religion" v="christian" />
		<tag k="ssr:stedsnr" v="916535" />
	</node>
	<node lat="60.389055555736554" lon="5.32357222181278" id="-33644">
		<tag k="amenity" v="place_of_worship" />
		<tag k="denomination" v="lutheran" />
		<tag k="name" v="St. Pauls kirke" />
		<tag k="religion" v="christian" />
		<tag k="ssr:stedsnr" v="817007" />
	</node>
	<node lat="60.33728610678661" lon="5.508455550869912" id="-33757">
		<tag k="name" v="Øvstebøtræet" />
		<tag k="place" v="locality" />
		<tag k="ssr:stedsnr" v="870814" />
	</node>
</osm>
