<?xml version="1.0" encoding="UTF-8"?>
<osm generator="osmapis" version="0.6">
	<node id="-129791" lat="61.3190722205" lon="9.85571110947">
		<tag k="amenity" v="place_of_worship" />
		<tag k="denomination" v="lutheran" />
		<tag k="name" v="Svatsum kirke" />
		<tag k="religion" v="christian" />
		<tag k="ssr:stedsnr" v="433637" />
	</node>
	<node id="-128881" lat="61.2002194406" lon="10.1473638939">
		<tag k="amenity" v="place_of_worship" />
		<tag k="denomination" v="lutheran" />
		<tag k="name" v="Vestre Gausdal kirke" />
		<tag k="religion" v="christian" />
		<tag k="ssr:stedsnr" v="7389" />
	</node>
	<node id="-129392" lat="61.1461805532" lon="10.17003612">
		<tag k="amenity" v="community_centre" />
		<tag k="name" v="Berglund" />
		<tag k="ssr:stedsnr" v="177453" />
	</node>
	<node id="-129772" lat="61.2182166709" lon="10.2753194488">
		<tag k="amenity" v="community_centre" />
		<tag k="name" v="Vonheim" />
		<tag k="ssr:stedsnr" v="433440" />
	</node>
	<node id="-130539" lat="61.344416669" lon="10.0768333288">
		<tag k="amenity" v="place_of_worship" />
		<tag k="denomination" v="lutheran" />
		<tag k="name" v="Skei fjellkirke" />
		<tag k="religion" v="christian" />
		<tag k="ssr:stedsnr" v="727273" />
	</node>
	<node id="-128872" lat="61.4148722246" lon="9.55932499953">
		<tag k="name" v="Matholet" />
		<tag k="place" v="locality" />
		<tag k="ssr:stedsnr" v="413918" />
	</node>
	<node id="-130407" lat="61.2737722186" lon="10.0046583389">
		<tag k="amenity" v="place_of_worship" />
		<tag k="denomination" v="lutheran" />
		<tag k="name" v="Aulstad kirke" />
		<tag k="religion" v="christian" />
		<tag k="ssr:stedsnr" v="675882" />
	</node>
	<node id="-128988" lat="61.4071444482" lon="9.60099167098">
		<tag k="name" v="Evansgruva" />
		<tag k="place" v="locality" />
		<tag k="ssr:stedsnr" v="50847" />
	</node>
	<node id="-129236" lat="61.298774998" lon="9.63244166011">
		<tag k="name" v="Sliplassen" />
		<tag k="place" v="locality" />
		<tag k="ssr:stedsnr" v="118577" />
	</node>
	<node id="-130898" lat="61.2263750029" lon="10.222161104">
		<tag k="amenity" v="community_centre" />
		<tag k="name" v="Gausdal samfunnshus" />
		<tag k="ssr:stedsnr" v="841375" />
	</node>
	<node id="-130000" lat="61.2203972193" lon="10.2698777757">
		<tag k="name" v="Aulestad" />
		<tag k="ssr:stedsnr" v="540146" />
		<tag k="tourism" v="museum" />
	</node>
	<node id="-129999" lat="61.214200001" lon="10.2852111136">
		<tag k="amenity" v="community_centre" />
		<tag k="name" v="Follebu bygdahus" />
		<tag k="ssr:stedsnr" v="540142" />
	</node>
	<node id="-129741" lat="61.2219333305" lon="10.1698111192">
		<tag k="name" v="Bergenget" />
		<tag k="ssr:stedsnr" v="422411" />
		<tag k="tourism" v="viewpoint" />
	</node>
	<node id="-129996" lat="61.2673861083" lon="10.1505777802">
		<tag k="amenity" v="community_centre" />
		<tag k="name" v="Østre Gausdal bygdehus" />
		<tag k="ssr:stedsnr" v="538000" />
	</node>
	<node id="-129215" lat="61.2040638873" lon="10.1352416723">
		<tag k="amenity" v="community_centre" />
		<tag k="name" v="Haugetun" />
		<tag k="ssr:stedsnr" v="113588" />
	</node>
	<node id="-129594" lat="61.2936416632" lon="9.56662778289">
		<tag k="name" v="Feplassen" />
		<tag k="place" v="locality" />
		<tag k="ssr:stedsnr" v="240643" />
	</node>
	<node id="-130475" lat="61.3628222211" lon="9.6456111058">
		<tag k="name" v="Veslegruva" />
		<tag k="place" v="locality" />
		<tag k="ssr:stedsnr" v="718950" />
	</node>
	<node id="-130729" lat="61.3335111094" lon="9.57764444834">
		<tag k="name" v="Leppe" />
		<tag k="place" v="locality" />
		<tag k="ssr:stedsnr" v="786410" />
	</node>
	<node id="-128547" lat="61.1593638859" lon="10.1497638815">
		<tag k="amenity" v="place_of_worship" />
		<tag k="fixme" v="specify religion=*, denomination=*, building=* etc" />
		<tag k="name" v="Fredly" />
		<tag k="ssr:stedsnr" v="359425" />
	</node>
	<node id="-130464" lat="61.3340861078" lon="10.0262666612">
		<tag k="name" v="Knutsholoa" />
		<tag k="place" v="locality" />
		<tag k="ssr:stedsnr" v="717985" />
	</node>
	<node id="-128413" lat="61.1564111083" lon="9.74850555082">
		<tag k="alt_name" v="Salmakarplassen" />
		<tag k="name" v="Salmakerplassen" />
		<tag k="place" v="locality" />
		<tag k="ssr:stedsnr" v="311792" />
	</node>
	<node id="-129820" lat="61.1494916671" lon="10.1661444483">
		<tag k="amenity" v="place_of_worship" />
		<tag k="fixme" v="specify religion=*, denomination=*, building=* etc" />
		<tag k="name" v="Elim" />
		<tag k="ssr:stedsnr" v="481475" />
	</node>
	<node id="-129049" lat="61.4071583366" lon="9.60200556239">
		<tag k="name" v="Evansgruva" />
		<tag k="place" v="locality" />
		<tag k="ssr:stedsnr" v="58423" />
	</node>
	<node id="-130198" lat="61.2259750043" lon="10.2677194389">
		<tag k="amenity" v="place_of_worship" />
		<tag k="denomination" v="lutheran" />
		<tag k="name" v="Follebu kirke" />
		<tag k="religion" v="christian" />
		<tag k="ssr:stedsnr" v="614301" />
	</node>
	<node id="-129555" lat="61.1330111131" lon="10.1121722176">
		<tag k="name" v="Sjåheim" />
		<tag k="ssr:stedsnr" v="233892" />
		<tag k="tourism" v="viewpoint" />
	</node>
	<node id="-128619" lat="61.2574166667" lon="10.155247222">
		<tag k="amenity" v="place_of_worship" />
		<tag k="denomination" v="lutheran" />
		<tag k="name" v="Østre Gausdal kirke" />
		<tag k="religion" v="christian" />
		<tag k="ssr:stedsnr" v="372854" />
	</node>
</osm>
