<?xml version="1.0" encoding="UTF-8"?>
<osm generator="osmapis" version="0.6">
	<node id="-129528" lat="61.3302111103" lon="9.55940556189">
		<tag k="highway" v="path" />
		<tag k="name" v="Nordburåket" />
		<tag k="ssr:stedsnr" v="233203" />
	</node>
	<node id="-131060" lat="61.2359333335" lon="9.57486665781">
		<tag k="highway" v="path" />
		<tag k="name" v="Skytterburåket" />
		<tag k="ssr:stedsnr" v="907045" />
	</node>
	<node id="-129518" lat="61.317797221" lon="10.0408083371">
		<tag k="highway" v="path" />
		<tag k="name" v="Gammelsæterråket" />
		<tag k="ssr:stedsnr" v="232998" />
	</node>
	<node id="-129517" lat="61.3214333349" lon="10.0444583385">
		<tag k="highway" v="path" />
		<tag k="name" v="Kyrakampråket" />
		<tag k="ssr:stedsnr" v="232995" />
	</node>
	<node id="-129004" lat="61.3213944418" lon="9.7333527837">
		<tag k="highway" v="path" />
		<tag k="name" v="Skarvhøgdråket" />
		<tag k="ssr:stedsnr" v="51521" />
	</node>
	<node id="-131048" lat="61.1714944484" lon="10.1870361113">
		<tag k="fixme" v="consider highway=path" />
		<tag k="highway" v="track" />
		<tag k="name" v="Rinnåsvegen" />
		<tag k="ssr:stedsnr" v="902447" />
	</node>
	<node id="-130532" lat="61.2483194467" lon="9.55470554794">
		<tag k="highway" v="path" />
		<tag k="name" v="Fossbekkråket" />
		<tag k="ssr:stedsnr" v="725041" />
	</node>
	<node id="-130531" lat="61.2416499987" lon="9.70479444855">
		<tag k="highway" v="path" />
		<tag k="name" v="Vakkerliråket" />
		<tag k="ssr:stedsnr" v="724469" />
	</node>
	<node id="-130018" lat="61.2830166675" lon="9.55912500145">
		<tag k="highway" v="path" />
		<tag k="name" v="Liumsæterråket" />
		<tag k="ssr:stedsnr" v="543617" />
	</node>
	<node id="-130017" lat="61.3016694409" lon="9.61620277279">
		<tag k="highway" v="path" />
		<tag k="name" v="Nordburåket" />
		<tag k="ssr:stedsnr" v="543613" />
	</node>
	<node id="-130016" lat="61.406750002" lon="9.61670000426">
		<tag k="highway" v="path" />
		<tag k="name" v="Bjørkdalsråket" />
		<tag k="ssr:stedsnr" v="543399" />
	</node>
	<node id="-130014" lat="61.3713472256" lon="10.0261027842">
		<tag k="highway" v="path" />
		<tag k="name" v="Svarttjønnråket" />
		<tag k="ssr:stedsnr" v="543202" />
	</node>
	<node id="-131036" lat="61.1261888902" lon="10.0570916692">
		<tag k="highway" v="path" />
		<tag k="name" v="Blesterråket" />
		<tag k="ssr:stedsnr" v="901878" />
	</node>
	<node id="-130010" lat="61.2564500024" lon="9.60978054742">
		<tag k="highway" v="path" />
		<tag k="name" v="Svatsumsråket" />
		<tag k="ssr:stedsnr" v="543044" />
	</node>
	<node id="-128458" lat="61.3256361072" lon="10.1886416637">
		<tag k="ford" v="yes" />
		<tag k="name" v="Svartbekkvaet" />
		<tag k="place" v="locality" />
		<tag k="ssr:stedsnr" v="353216" />
	</node>
	<node id="-128457" lat="61.3617333301" lon="9.99620555195">
		<tag k="highway" v="path" />
		<tag k="name" v="Kløvråket" />
		<tag k="ssr:stedsnr" v="414052" />
	</node>
	<node id="-131015" lat="61.3448277738" lon="9.99216667298">
		<tag k="fixme" v="consider highway=path" />
		<tag k="highway" v="track" />
		<tag k="name" v="Jodalsvegen" />
		<tag k="ssr:stedsnr" v="900987" />
	</node>
	<node id="-129478" lat="61.2022194427" lon="10.1448555614">
		<tag k="bridge" v="yes" />
		<tag k="layer" v="1" />
		<tag k="name" v="Forset" />
		<tag k="ssr:stedsnr" v="228027" />
	</node>
	<node id="-128965" lat="61.3302777786" lon="9.93587499406">
		<tag k="highway" v="path" />
		<tag k="name" v="Sæterbakken" />
		<tag k="ssr:stedsnr" v="49814" />
	</node>
	<node id="-128452" lat="61.3752527793" lon="9.7503361154">
		<tag k="highway" v="path" />
		<tag k="name" v="Gåsøyråket" />
		<tag k="ssr:stedsnr" v="353101" />
	</node>
	<node id="-129986" lat="61.2689722214" lon="9.83732221986">
		<tag k="highway" v="path" />
		<tag k="name" v="Hornsjøråket" />
		<tag k="ssr:stedsnr" v="537268" />
	</node>
	<node id="-129984" lat="61.3937055565" lon="9.91832777404">
		<tag k="highway" v="path" />
		<tag k="name" v="Fagerhøyråket" />
		<tag k="ssr:stedsnr" v="537243" />
	</node>
	<node id="-129470" lat="61.2768777742" lon="10.0498250011">
		<tag k="alt_name" v="Kirkevegen" />
		<tag k="highway" v="path" />
		<tag k="name" v="Kyrkjevegen" />
		<tag k="ssr:stedsnr" v="191822" />
	</node>
	<node id="-128444" lat="61.3992055554" lon="9.66716389166">
		<tag k="highway" v="path" />
		<tag k="name" v="Plankevegen" />
		<tag k="ssr:stedsnr" v="352553" />
	</node>
	<node id="-129467" lat="61.3045583321" lon="9.80789722713">
		<tag k="highway" v="path" />
		<tag k="name" v="Furua" />
		<tag k="ssr:stedsnr" v="191237" />
	</node>
	<node id="-128954" lat="61.4044166625" lon="9.60468611063">
		<tag k="highway" v="path" />
		<tag k="name" v="Svingen" />
		<tag k="ssr:stedsnr" v="49095" />
	</node>
	<node id="-128953" lat="61.3399888874" lon="9.77163889464">
		<tag k="bridge" v="yes" />
		<tag k="layer" v="1" />
		<tag k="name" v="Gompholen" />
		<tag k="ssr:stedsnr" v="46016" />
	</node>
	<node id="-128952" lat="61.2773805516" lon="10.1431666717">
		<tag k="bridge" v="yes" />
		<tag k="layer" v="1" />
		<tag k="name" v="Bruvang" />
		<tag k="ssr:stedsnr" v="46012" />
	</node>
	<node id="-129012" lat="61.3134500005" lon="10.1012833358">
		<tag k="fixme" v="consider highway=path" />
		<tag k="highway" v="track" />
		<tag k="name" v="Svarttjønnlivegen" />
		<tag k="ssr:stedsnr" v="51744" />
	</node>
	<node id="-129974" lat="61.3495111075" lon="9.72346666613">
		<tag k="highway" v="path" />
		<tag k="name" v="Gamle Espedalsvegen" />
		<tag k="ssr:stedsnr" v="536895" />
	</node>
	<node id="-130995" lat="61.3418388855" lon="9.83691111065">
		<tag k="highway" v="path" />
		<tag k="name" v="Sætervegen" />
		<tag k="ssr:stedsnr" v="899654" />
	</node>
	<node id="-130477" lat="61.349413886" lon="9.67514166376">
		<tag k="highway" v="path" />
		<tag k="name" v="Roasæterråket" />
		<tag k="ssr:stedsnr" v="718339" />
	</node>
	<node id="-130473" lat="61.292605559" lon="10.1925611168">
		<tag k="fixme" v="consider highway=path" />
		<tag k="highway" v="track" />
		<tag k="name" v="Den grønne vegen" />
		<tag k="ssr:stedsnr" v="718163" />
	</node>
	<node id="-131018" lat="61.2068166635" lon="10.0661944357">
		<tag k="fixme" v="consider highway=path" />
		<tag k="highway" v="track" />
		<tag k="name" v="Kapteinsvegen" />
		<tag k="ssr:stedsnr" v="901036" />
	</node>
	<node id="-131227" lat="61.2216138928" lon="9.61428333573">
		<tag k="highway" v="path" />
		<tag k="name" v="Fullsenråket" />
		<tag k="ssr:stedsnr" v="968852" />
	</node>
	<node id="-130463" lat="61.3460305572" lon="9.88544166361">
		<tag k="ford" v="yes" />
		<tag k="name" v="Haustsætervaet" />
		<tag k="place" v="locality" />
		<tag k="ssr:stedsnr" v="717963" />
	</node>
	<node id="-129946" lat="61.3188583371" lon="9.61486111207">
		<tag k="highway" v="path" />
		<tag k="name" v="Hundtjønnråket" />
		<tag k="ssr:stedsnr" v="536167" />
	</node>
	<node id="-130457" lat="61.3537444442" lon="9.82386111246">
		<tag k="highway" v="path" />
		<tag k="name" v="Hanslisætervegen" />
		<tag k="ssr:stedsnr" v="717660" />
	</node>
	<node id="-130452" lat="61.3106805548" lon="10.0095555568">
		<tag k="fixme" v="consider highway=path" />
		<tag k="highway" v="track" />
		<tag k="name" v="Sætervegen" />
		<tag k="ssr:stedsnr" v="717001" />
	</node>
	<node id="-129939" lat="61.3391833377" lon="9.99669722844">
		<tag k="highway" v="path" />
		<tag k="name" v="Jodalsråket" />
		<tag k="ssr:stedsnr" v="535999" />
	</node>
	<node id="-129938" lat="61.3446694408" lon="9.8905999985">
		<tag k="highway" v="path" />
		<tag k="name" v="Sætervegen" />
		<tag k="ssr:stedsnr" v="535969" />
	</node>
	<node id="-129936" lat="61.3522972242" lon="9.88257222799">
		<tag k="ford" v="yes" />
		<tag k="name" v="Bennlivaet" />
		<tag k="place" v="locality" />
		<tag k="ssr:stedsnr" v="535956" />
	</node>
	<node id="-130659" lat="61.3437805578" lon="9.88350833899">
		<tag k="highway" v="path" />
		<tag k="name" v="Haustsætervarpet" />
		<tag k="ssr:stedsnr" v="778968" />
	</node>
	<node id="-130439" lat="61.3866888893" lon="9.79438611461">
		<tag k="bridge" v="yes" />
		<tag k="layer" v="1" />
		<tag k="name" v="Steinkloppa" />
		<tag k="ssr:stedsnr" v="716116" />
	</node>
	<node id="-130436" lat="61.3828499967" lon="10.0807638872">
		<tag k="highway" v="path" />
		<tag k="name" v="Prestekampråket" />
		<tag k="ssr:stedsnr" v="716076" />
	</node>
	<node id="-129923" lat="61.3086444402" lon="9.78350555875">
		<tag k="highway" v="path" />
		<tag k="name" v="Grytliråket" />
		<tag k="ssr:stedsnr" v="535544" />
	</node>
	<node id="-130434" lat="61.2177305528" lon="10.2336888816">
		<tag k="bridge" v="yes" />
		<tag k="layer" v="1" />
		<tag k="name" v="Haukå" />
		<tag k="ssr:stedsnr" v="714027" />
	</node>
	<node id="-130433" lat="61.2254472209" lon="10.3093250073">
		<tag k="bridge" v="yes" />
		<tag k="layer" v="1" />
		<tag k="name" v="Finna" />
		<tag k="ssr:stedsnr" v="714020" />
	</node>
	<node id="-129404" lat="61.2890000038" lon="9.70322499996">
		<tag k="highway" v="path" />
		<tag k="name" v="Nysæterråket" />
		<tag k="ssr:stedsnr" v="179599" />
	</node>
	<node id="-129909" lat="61.2903166652" lon="9.970330548">
		<tag k="bridge" v="yes" />
		<tag k="layer" v="1" />
		<tag k="name" v="Dørja" />
		<tag k="ssr:stedsnr" v="532017" />
	</node>
	<node id="-129370" lat="61.398850004" lon="9.59856666029">
		<tag k="fixme" v="consider highway=path" />
		<tag k="highway" v="track" />
		<tag k="name" v="Måsåvegen" />
		<tag k="ssr:stedsnr" v="172951" />
	</node>
	<node id="-130904" lat="61.1711055515" lon="10.1740277824">
		<tag k="fixme" v="consider highway=path" />
		<tag k="highway" v="track" />
		<tag k="name" v="Rinnåsvegen" />
		<tag k="ssr:stedsnr" v="841879" />
	</node>
	<node id="-128996" lat="61.3434500033" lon="9.68911943537">
		<tag k="highway" v="path" />
		<tag k="name" v="Vaslettråket" />
		<tag k="ssr:stedsnr" v="51376" />
	</node>
	<node id="-129165" lat="61.3654166691" lon="9.64467778391">
		<tag k="highway" v="path" />
		<tag k="name" v="Melgårdssæterråket" />
		<tag k="ssr:stedsnr" v="111913" />
	</node>
	<node id="-130891" lat="61.2179472226" lon="9.95339166768">
		<tag k="highway" v="path" />
		<tag k="name" v="Reinsåsråket" />
		<tag k="ssr:stedsnr" v="841258" />
	</node>
	<node id="-129353" lat="61.333972218" lon="9.72475000571">
		<tag k="fixme" v="consider highway=path" />
		<tag k="highway" v="track" />
		<tag k="name" v="Vaslettråket" />
		<tag k="ssr:stedsnr" v="172476" />
	</node>
	<node id="-130372" lat="61.2573472182" lon="9.56813611507">
		<tag k="highway" v="path" />
		<tag k="name" v="Turistråket" />
		<tag k="ssr:stedsnr" v="664047" />
	</node>
	<node id="-129346" lat="61.3163555554" lon="9.63270832955">
		<tag k="highway" v="path" />
		<tag k="name" v="Revsjøråket" />
		<tag k="ssr:stedsnr" v="172167" />
	</node>
	<node id="-130363" lat="61.2309194476" lon="10.3251944432">
		<tag k="junction" v="yes" />
		<tag k="name" v="Rådhusplassen" />
		<tag k="place" v="locality" />
		<tag k="ssr:stedsnr" v="661336" />
	</node>
	<node id="-130873" lat="61.2922222216" lon="10.0190777856">
		<tag k="fixme" v="consider highway=path" />
		<tag k="highway" v="track" />
		<tag k="name" v="Sætervegen" />
		<tag k="ssr:stedsnr" v="840717" />
	</node>
	<node id="-129335" lat="61.3322666684" lon="9.87996943861">
		<tag k="highway" v="path" />
		<tag k="name" v="Gamle Lonhaugvegen" />
		<tag k="ssr:stedsnr" v="171576" />
	</node>
	<node id="-129330" lat="61.3347833303" lon="9.82220555411">
		<tag k="highway" v="path" />
		<tag k="name" v="Varpet" />
		<tag k="ssr:stedsnr" v="171552" />
	</node>
	<node id="-130344" lat="61.236861115" lon="10.0130194377">
		<tag k="bridge" v="yes" />
		<tag k="layer" v="1" />
		<tag k="name" v="Hornsjøkloppa" />
		<tag k="ssr:stedsnr" v="658773" />
	</node>
	<node id="-130012" lat="61.2588472253" lon="9.58936112036">
		<tag k="highway" v="path" />
		<tag k="name" v="Revsjøråket" />
		<tag k="ssr:stedsnr" v="543053" />
	</node>
	<node id="-128678" lat="61.3267777775" lon="9.82642222625">
		<tag k="fixme" v="consider highway=path" />
		<tag k="highway" v="track" />
		<tag k="name" v="Hanslisætervegen" />
		<tag k="ssr:stedsnr" v="474544" />
	</node>
	<node id="-129313" lat="61.3416027805" lon="9.76638611116">
		<tag k="bridge" v="yes" />
		<tag k="layer" v="1" />
		<tag k="name" v="Løvlund" />
		<tag k="ssr:stedsnr" v="168116" />
	</node>
	<node id="-129312" lat="61.2263666659" lon="10.2750083403">
		<tag k="bridge" v="yes" />
		<tag k="layer" v="1" />
		<tag k="name" v="Næverå øvre" />
		<tag k="ssr:stedsnr" v="168114" />
	</node>
	<node id="-130843" lat="61.3317361101" lon="9.82026110417">
		<tag k="highway" v="path" />
		<tag k="name" v="Vintervegen" />
		<tag k="ssr:stedsnr" v="839630" />
	</node>
	<node id="-130839" lat="61.2988694469" lon="9.80450277324">
		<tag k="highway" v="path" />
		<tag k="name" v="Mossjøråket" />
		<tag k="ssr:stedsnr" v="839563" />
	</node>
	<node id="-129814" lat="61.3502361114" lon="9.75038055018">
		<tag k="bridge" v="yes" />
		<tag k="layer" v="1" />
		<tag k="name" v="Jøra" />
		<tag k="ssr:stedsnr" v="471100" />
	</node>
	<node id="-129813" lat="61.3195583313" lon="9.8585166741">
		<tag k="bridge" v="yes" />
		<tag k="layer" v="1" />
		<tag k="name" v="Andå" />
		<tag k="ssr:stedsnr" v="471024" />
	</node>
	<node id="-129812" lat="61.1504638865" lon="9.81484722888">
		<tag k="bridge" v="yes" />
		<tag k="layer" v="1" />
		<tag k="name" v="Grytbekken" />
		<tag k="ssr:stedsnr" v="471014" />
	</node>
	<node id="-128275" lat="61.1742861127" lon="9.96144444522">
		<tag k="bridge" v="yes" />
		<tag k="layer" v="1" />
		<tag k="name" v="Kittilbu" />
		<tag k="ssr:stedsnr" v="289093" />
	</node>
	<node id="-128274" lat="61.2280527787" lon="10.2224222146">
		<tag k="bridge" v="yes" />
		<tag k="layer" v="1" />
		<tag k="name" v="Segalstad" />
		<tag k="ssr:stedsnr" v="289088" />
	</node>
	<node id="-130321" lat="61.3985055528" lon="9.60556388258">
		<tag k="name" v="Måsåplassen" />
		<tag k="place" v="locality" />
		<tag k="ssr:stedsnr" v="657936" />
	</node>
	<node id="-128272" lat="61.3485833335" lon="9.73095833349">
		<tag k="highway" v="path" />
		<tag k="name" v="Sprangvegen" />
		<tag k="ssr:stedsnr" v="415906" />
	</node>
	<node id="-130829" lat="61.3697694472" lon="9.97872499681">
		<tag k="highway" v="path" />
		<tag k="name" v="Leikvamskløveråket" />
		<tag k="ssr:stedsnr" v="839049" />
	</node>
	<node id="-130820" lat="61.3878833353" lon="9.89178054714">
		<tag k="highway" v="path" />
		<tag k="name" v="Midtvollsæterråket" />
		<tag k="ssr:stedsnr" v="838642" />
	</node>
	<node id="-130813" lat="61.3996111135" lon="9.81078610819">
		<tag k="highway" v="path" />
		<tag k="name" v="Bonsjøhaugråket" />
		<tag k="ssr:stedsnr" v="838123" />
	</node>
	<node id="-130812" lat="61.2300638919" lon="10.2721972238">
		<tag k="bridge" v="yes" />
		<tag k="layer" v="1" />
		<tag k="name" v="Kluftbrua" />
		<tag k="ssr:stedsnr" v="835096" />
	</node>
	<node id="-130811" lat="61.3643500011" lon="9.67962221352">
		<tag k="bridge" v="yes" />
		<tag k="layer" v="1" />
		<tag k="name" v="Dritua" />
		<tag k="old_name" v="Dritjua" />
		<tag k="ssr:stedsnr" v="835015" />
	</node>
	<node id="-130295" lat="61.31755833" lon="10.0071611193">
		<tag k="highway" v="path" />
		<tag k="name" v="Sætervegen" />
		<tag k="ssr:stedsnr" v="656992" />
	</node>
	<node id="-130856" lat="61.2923972189" lon="9.92937222934">
		<tag k="fixme" v="consider highway=path" />
		<tag k="highway" v="track" />
		<tag k="name" v="Reinsåflatvegen" />
		<tag k="ssr:stedsnr" v="840189" />
	</node>
	<node id="-128740" lat="61.2084277794" lon="10.1640249981">
		<tag k="bridge" v="yes" />
		<tag k="layer" v="1" />
		<tag k="name" v="Kalstadbrua" />
		<tag k="old_name" v="Kalradbrua" />
		<tag k="ssr:stedsnr" v="477983" />
	</node>
	<node id="-130270" lat="61.3946694445" lon="9.81595832494">
		<tag k="highway" v="path" />
		<tag k="name" v="Lonhaugråket" />
		<tag k="ssr:stedsnr" v="655115" />
	</node>
	<node id="-130269" lat="61.3346638891" lon="10.0874583336">
		<tag k="bridge" v="yes" />
		<tag k="layer" v="1" />
		<tag k="name" v="Skei Fjellandsby" />
		<tag k="ssr:stedsnr" v="653090" />
	</node>
	<node id="-130268" lat="61.1538611132" lon="10.1601222139">
		<tag k="bridge" v="yes" />
		<tag k="layer" v="1" />
		<tag k="name" v="Ånrud" />
		<tag k="ssr:stedsnr" v="653088" />
	</node>
	<node id="-128731" lat="61.2381472225" lon="9.80196389046">
		<tag k="highway" v="path" />
		<tag k="name" v="Vintervegen" />
		<tag k="ssr:stedsnr" v="476713" />
	</node>
	<node id="-128724" lat="61.2569305581" lon="9.77306943905">
		<tag k="highway" v="path" />
		<tag k="name" v="Nysæterråket" />
		<tag k="ssr:stedsnr" v="476306" />
	</node>
	<node id="-128714" lat="61.3137722212" lon="9.84322222218">
		<tag k="fixme" v="consider highway=path" />
		<tag k="highway" v="track" />
		<tag k="name" v="Grinjuvegen" />
		<tag k="ssr:stedsnr" v="475951" />
	</node>
	<node id="-130506" lat="61.2236361127" lon="10.0249388937">
		<tag k="name" v="Roppakanalen" />
		<tag k="ssr:stedsnr" v="719563" />
		<tag k="waterway" v="canal" />
	</node>
	<node id="-129721" lat="61.2378861075" lon="9.79160000207">
		<tag k="highway" v="path" />
		<tag k="name" v="Engelandsvegen" />
		<tag k="ssr:stedsnr" v="416678" />
	</node>
	<node id="-129713" lat="61.256272219" lon="9.8366499945">
		<tag k="highway" v="path" />
		<tag k="name" v="Gulsandliråket" />
		<tag k="ssr:stedsnr" v="416274" />
	</node>
	<node id="-129479" lat="61.2363500004" lon="10.2611361186">
		<tag k="bridge" v="yes" />
		<tag k="layer" v="1" />
		<tag k="name" v="Tyrum" />
		<tag k="ssr:stedsnr" v="228101" />
	</node>
	<node id="-129703" lat="61.3520583373" lon="9.74242777832">
		<tag k="bridge" v="yes" />
		<tag k="layer" v="1" />
		<tag k="name" v="Nessebrua" />
		<tag k="ssr:stedsnr" v="415902" />
	</node>
	<node id="-129702" lat="61.3638777807" lon="9.74684722409">
		<tag k="highway" v="path" />
		<tag k="name" v="Kveinnslåråket" />
		<tag k="ssr:stedsnr" v="415897" />
	</node>
	<node id="-130724" lat="61.1184888931" lon="10.0274361126">
		<tag k="highway" v="path" />
		<tag k="name" v="Blesterråket" />
		<tag k="ssr:stedsnr" v="785088" />
	</node>
	<node id="-130723" lat="61.1381916626" lon="10.1432749992">
		<tag k="highway" v="path" />
		<tag k="name" v="Grøtåstråkket" />
		<tag k="ssr:stedsnr" v="784776" />
	</node>
	<node id="-128668" lat="61.4058611093" lon="9.58843888772">
		<tag k="highway" v="path" />
		<tag k="name" v="Malmvegen" />
		<tag k="ssr:stedsnr" v="474068" />
	</node>
	<node id="-130203" lat="61.4030222197" lon="9.86072777392">
		<tag k="highway" v="path" />
		<tag k="name" v="Lonhaugråket" />
		<tag k="ssr:stedsnr" v="614357" />
	</node>
	<node id="-131223" lat="61.2419055566" lon="9.72443888014">
		<tag k="highway" v="path" />
		<tag k="name" v="Tjønnråket" />
		<tag k="ssr:stedsnr" v="966532" />
	</node>
	<node id="-128660" lat="61.38922222" lon="9.68342500863">
		<tag k="highway" v="path" />
		<tag k="name" v="Gråhøråket" />
		<tag k="ssr:stedsnr" v="473543" />
	</node>
	<node id="-130703" lat="61.2603444477" lon="9.85157777893">
		<tag k="highway" v="path" />
		<tag k="name" v="Hornsjøsæterråket" />
		<tag k="ssr:stedsnr" v="780272" />
	</node>
	<node id="-129677" lat="61.1831888883" lon="9.95910000552">
		<tag k="highway" v="path" />
		<tag k="name" v="Kroktjernråket" />
		<tag k="ssr:stedsnr" v="415035" />
	</node>
	<node id="-130692" lat="61.1324666708" lon="10.0706777824">
		<tag k="highway" v="path" />
		<tag k="name" v="Skjellbreidsråket" />
		<tag k="ssr:stedsnr" v="779894" />
	</node>
	<node id="-130177" lat="61.1514916665" lon="10.1302305466">
		<tag k="highway" v="path" />
		<tag k="name" v="Djupådalsråket" />
		<tag k="ssr:stedsnr" v="602436" />
	</node>
	<node id="-128640" lat="61.2404499988" lon="10.0658499982">
		<tag k="bridge" v="yes" />
		<tag k="layer" v="1" />
		<tag k="name" v="Vigga" />
		<tag k="ssr:stedsnr" v="410099" />
	</node>
	<node id="-128639" lat="61.2215638907" lon="10.2128694402">
		<tag k="bridge" v="yes" />
		<tag k="layer" v="1" />
		<tag k="name" v="Grønland" />
		<tag k="ssr:stedsnr" v="410020" />
	</node>
	<node id="-130169" lat="61.2644083363" lon="10.2729777686">
		<tag k="junction" v="yes" />
		<tag k="name" v="Lassesæterkrysset" />
		<tag k="place" v="locality" />
		<tag k="ssr:stedsnr" v="600417" />
	</node>
	<node id="-128273" lat="61.2047222214" lon="10.1506416641">
		<tag k="bridge" v="yes" />
		<tag k="layer" v="1" />
		<tag k="name" v="Forset" />
		<tag k="ssr:stedsnr" v="289015" />
	</node>
	<node id="-129124" lat="61.2195833341" lon="10.2757861085">
		<tag k="bridge" v="yes" />
		<tag k="layer" v="1" />
		<tag k="name" v="Næverå" />
		<tag k="ssr:stedsnr" v="107076" />
	</node>
	<node id="-129123" lat="61.1584833337" lon="10.1515749985">
		<tag k="bridge" v="yes" />
		<tag k="layer" v="1" />
		<tag k="name" v="Djupå" />
		<tag k="ssr:stedsnr" v="107014" />
	</node>
	<node id="-131169" lat="61.2238861099" lon="9.78439444405">
		<tag k="fixme" v="consider highway=path" />
		<tag k="highway" v="track" />
		<tag k="name" v="Liumsætervegen" />
		<tag k="ssr:stedsnr" v="961614" />
	</node>
	<node id="-129630" lat="61.2881027738" lon="9.39160278686">
		<tag k="junction" v="yes" />
		<tag k="name" v="Langsuplassen" />
		<tag k="place" v="locality" />
		<tag k="ssr:stedsnr" v="251289" />
	</node>
	<node id="-130651" lat="61.4067416631" lon="9.61677500203">
		<tag k="highway" v="path" />
		<tag k="name" v="Børkdalsråket" />
		<tag k="ssr:stedsnr" v="778864" />
	</node>
	<node id="-131159" lat="61.3469527784" lon="9.59148332711">
		<tag k="highway" v="path" />
		<tag k="name" v="Leppråket" />
		<tag k="ssr:stedsnr" v="961012" />
	</node>
	<node id="-130132" lat="61.3654833316" lon="9.65445554741">
		<tag k="fixme" v="consider highway=path" />
		<tag k="highway" v="track" />
		<tag k="name" v="Gruvvegen" />
		<tag k="ssr:stedsnr" v="596955" />
	</node>
	<node id="-130642" lat="61.3725777777" lon="9.95592499093">
		<tag k="highway" v="path" />
		<tag k="name" v="Gamle Volesætervegen" />
		<tag k="ssr:stedsnr" v="778058" />
	</node>
	<node id="-131171" lat="61.2223805584" lon="10.0903333417">
		<tag k="bridge" v="yes" />
		<tag k="layer" v="1" />
		<tag k="name" v="Kråbølsbrua" />
		<tag k="ssr:stedsnr" v="961655" />
	</node>
	<node id="-130639" lat="61.353705559" lon="10.1216388965">
		<tag k="highway" v="path" />
		<tag k="name" v="Gamle Torsdalsvegen" />
		<tag k="ssr:stedsnr" v="778013" />
	</node>
	<node id="-128951" lat="61.2670083295" lon="9.81312223085">
		<tag k="highway" v="path" />
		<tag k="name" v="Mossjøfjellråket" />
		<tag k="ssr:stedsnr" v="45311" />
	</node>
	<node id="-128438" lat="61.137483334" lon="10.1812944451">
		<tag k="bridge" v="yes" />
		<tag k="layer" v="1" />
		<tag k="name" v="Finsrud" />
		<tag k="ssr:stedsnr" v="349023" />
	</node>
	<node id="-130111" lat="61.4068611073" lon="9.56658056095">
		<tag k="man_made" v="quay" />
		<tag k="name" v="Malmbrygga" />
		<tag k="place" v="locality" />
		<tag k="ssr:stedsnr" v="595875" />
	</node>
	<node id="-131130" lat="61.3424638878" lon="9.85195834106">
		<tag k="highway" v="path" />
		<tag k="name" v="Melbøsætervegen" />
		<tag k="ssr:stedsnr" v="959610" />
	</node>
	<node id="-129593" lat="61.2876499993" lon="9.68645833257">
		<tag k="highway" v="path" />
		<tag k="name" v="Grytliråket" />
		<tag k="ssr:stedsnr" v="240628" />
	</node>
	<node id="-131123" lat="61.3485499957" lon="9.78041943613">
		<tag k="bridge" v="yes" />
		<tag k="layer" v="1" />
		<tag k="name" v="Surta" />
		<tag k="ssr:stedsnr" v="957102" />
	</node>
	<node id="-131122" lat="61.2940305588" lon="10.1811277703">
		<tag k="bridge" v="yes" />
		<tag k="layer" v="1" />
		<tag k="name" v="Brustuen" />
		<tag k="ssr:stedsnr" v="957015" />
	</node>
	<node id="-130092" lat="61.2780305592" lon="10.0005055648">
		<tag k="bridge" v="yes" />
		<tag k="layer" v="1" />
		<tag k="name" v="Ulva" />
		<tag k="ssr:stedsnr" v="592091" />
	</node>
	<node id="-130091" lat="61.3127166706" lon="9.88452777973">
		<tag k="bridge" v="yes" />
		<tag k="layer" v="1" />
		<tag k="name" v="Benna" />
		<tag k="ssr:stedsnr" v="592030" />
	</node>
	<node id="-130090" lat="61.2332305537" lon="10.2113722175">
		<tag k="bridge" v="yes" />
		<tag k="layer" v="1" />
		<tag k="name" v="Fjerdrum" />
		<tag k="ssr:stedsnr" v="592018" />
	</node>
	<node id="-129575" lat="61.2253916676" lon="9.84752500443">
		<tag k="highway" v="path" />
		<tag k="name" v="Dunglungråket" />
		<tag k="ssr:stedsnr" v="234488" />
	</node>
	<node id="-129569" lat="61.1933916644" lon="9.98835000754">
		<tag k="highway" v="path" />
		<tag k="name" v="Vintervegen" />
		<tag k="ssr:stedsnr" v="234249" />
	</node>
	<node id="-129565" lat="61.271775001" lon="10.1326305643">
		<tag k="landuse" v="industrial" />
		<tag k="name" v="Raua kraftstasjon" />
		<tag k="power" v="plant" />
		<tag k="ssr:stedsnr" v="234050" />
	</node>
	<node id="-129051" lat="61.2865638846" lon="9.74582500324">
		<tag k="highway" v="path" />
		<tag k="name" v="Mossjøråket" />
		<tag k="ssr:stedsnr" v="58629" />
	</node>
	<node id="-129558" lat="61.1502750023" lon="10.0211861165">
		<tag k="highway" v="path" />
		<tag k="name" v="Bentsæterråket" />
		<tag k="ssr:stedsnr" v="233938" />
	</node>
	<node id="-130989" lat="61.3246111083" lon="9.67183610557">
		<tag k="highway" v="path" />
		<tag k="name" v="Vaslettråket" />
		<tag k="ssr:stedsnr" v="900447" />
	</node>
	<node id="-128524" lat="61.2252222185" lon="9.93724167574">
		<tag k="highway" v="path" />
		<tag k="name" v="Godtarmen" />
		<tag k="ssr:stedsnr" v="355214" />
	</node>
</osm>
