<?xml version="1.0" encoding="UTF-8"?>
<osm generator="osmapis" version="0.6">
	<node id="-131071" lat="61.2254916666" lon="9.61195832462">
		<tag k="name" v="Kroklon" />
		<tag k="natural" v="water" />
		<tag k="ssr:stedsnr" v="857515" />
		<tag k="water" v="lake" />
	</node>
	<node id="-129022" lat="61.2343611086" lon="9.58178610884">
		<tag k="alt_name" v="Kringlonen" />
		<tag k="name" v="Kringllonen" />
		<tag k="natural" v="water" />
		<tag k="ssr:stedsnr" v="7993" />
		<tag k="water" v="lake" />
	</node>
	<node id="-129020" lat="61.2072888872" lon="9.64981388328">
		<tag k="name" v="Skjellbreidbekken" />
		<tag k="ssr:stedsnr" v="7506" />
		<tag k="waterway" v="stream" />
	</node>
	<node id="-129019" lat="61.2301416643" lon="9.71002499612">
		<tag k="fixme" v="multiple name tags, choose one and add the other to alt_name" />
		<tag k="name" v="Kaldvassbekken;Veslebekken" />
		<tag k="ssr:stedsnr" v="7493" />
		<tag k="waterway" v="stream" />
	</node>
	<node id="-131066" lat="61.3938972191" lon="9.73536945116">
		<tag k="name" v="Åmot" />
		<tag k="natural" v="cape" />
		<tag k="ssr:stedsnr" v="857401" />
	</node>
	<node id="-131057" lat="61.1146750032" lon="10.1440750036">
		<tag k="name" v="Svarttjønnet" />
		<tag k="natural" v="water" />
		<tag k="ssr:stedsnr" v="857122" />
	</node>
	<node id="-129008" lat="61.3290277736" lon="9.89056666466">
		<tag k="name" v="Innleggingsbekken" />
		<tag k="ssr:stedsnr" v="413935" />
		<tag k="waterway" v="stream" />
	</node>
	<node id="-131055" lat="61.1246483263" lon="10.0941951156">
		<tag k="name" v="Hindalssjøen" />
		<tag k="natural" v="water" />
		<tag k="ssr:stedsnr" v="857110" />
		<tag k="water" v="lake" />
	</node>
	<node id="-131054" lat="61.1218472211" lon="10.1626388966">
		<tag k="name" v="Svarttjønnbekken" />
		<tag k="ssr:stedsnr" v="857099" />
		<tag k="waterway" v="stream" />
	</node>
	<node id="-131053" lat="61.2794305594" lon="9.59375556275">
		<tag k="name" v="Kirkelandet" />
		<tag k="natural" v="beach" />
		<tag k="ssr:stedsnr" v="847632" />
	</node>
	<node id="-131052" lat="61.3096111145" lon="9.59258889765">
		<tag k="name" v="Raubekken" />
		<tag k="ssr:stedsnr" v="847629" />
		<tag k="waterway" v="stream" />
	</node>
	<node id="-129003" lat="61.4165666686" lon="9.55527222088">
		<tag k="name" v="Megrundsbekken" />
		<tag k="ssr:stedsnr" v="413892" />
		<tag k="waterway" v="stream" />
	</node>
	<node id="-131050" lat="61.2942305512" lon="9.58907222687">
		<tag k="name" v="Nistubulandet" />
		<tag k="natural" v="beach" />
		<tag k="ssr:stedsnr" v="847625" />
	</node>
	<node id="-131038" lat="61.3691666669" lon="10.0896777733">
		<tag k="name" v="Klokkertjønnet" />
		<tag k="natural" v="water" />
		<tag k="ssr:stedsnr" v="845044" />
	</node>
	<node id="-131027" lat="61.2144361145" lon="10.0491944476">
		<tag k="name" v="Svartfossen" />
		<tag k="natural" v="waterfall" />
		<tag k="ssr:stedsnr" v="841586" />
	</node>
	<node id="-131022" lat="61.2617111139" lon="9.79825832669">
		<tag k="name" v="Kjerringbekken" />
		<tag k="ssr:stedsnr" v="841320" />
		<tag k="waterway" v="stream" />
	</node>
	<node id="-131009" lat="61.1925916624" lon="10.1133222246">
		<tag k="name" v="Vårsæterbekken" />
		<tag k="ssr:stedsnr" v="841027" />
		<tag k="waterway" v="stream" />
	</node>
	<node id="-130997" lat="61.2897141224" lon="10.0709474599">
		<tag k="name" v="Sætervika" />
		<tag k="natural" v="bay" />
		<tag k="ssr:stedsnr" v="840626" />
	</node>
	<node id="-130996" lat="61.279972222" lon="10.0898111186">
		<tag k="name" v="Storlon" />
		<tag k="natural" v="shoal" />
		<tag k="place" v="locality" />
		<tag k="ssr:stedsnr" v="840624" />
	</node>
	<node id="-130990" lat="61.3211111125" lon="9.6791777819">
		<tag k="name" v="Jonsholmen" />
		<tag k="place" v="islet" />
		<tag k="ssr:stedsnr" v="840464" />
	</node>
	<node id="-130987" lat="61.3193416624" lon="9.67217222135">
		<tag k="name" v="Gravbekken" />
		<tag k="ssr:stedsnr" v="840438" />
		<tag k="waterway" v="stream" />
	</node>
	<node id="-130975" lat="61.3581500033" lon="10.0199666732">
		<tag k="name" v="Langtjønnet" />
		<tag k="natural" v="water" />
		<tag k="ssr:stedsnr" v="839991" />
	</node>
	<node id="-129006" lat="61.4032444473" lon="9.54628889703">
		<tag k="alt_name" v="Søndre Vollbekken" />
		<tag k="name" v="Søre Vollbekken" />
		<tag k="ssr:stedsnr" v="413917" />
		<tag k="waterway" v="stream" />
	</node>
	<node id="-129005" lat="61.181804011" lon="9.76247673747">
		<tag k="name" v="Smalsnæra" />
		<tag k="natural" v="water" />
		<tag k="ssr:stedsnr" v="989893" />
	</node>
	<node id="-130955" lat="61.3374388899" lon="10.0621666757">
		<tag k="name" v="Sagfossen" />
		<tag k="ssr:stedsnr" v="839027" />
		<tag k="waterway" v="rapids" />
	</node>
	<node id="-129004" lat="61.3622655302" lon="10.0232240408">
		<tag k="name" v="Fisketjønnet" />
		<tag k="natural" v="water" />
		<tag k="ssr:stedsnr" v="989892" />
	</node>
	<node id="-130934" lat="61.2007777793" lon="9.98034445057">
		<tag k="alt_name" v="Ropptjern" />
		<tag k="name" v="Ropptjørn" />
		<tag k="natural" v="water" />
		<tag k="ssr:stedsnr" v="811430" />
		<tag k="water" v="lake" />
	</node>
	<node id="-130933" lat="61.3527972259" lon="9.98725555452">
		<tag k="name" v="Dørja" />
		<tag k="ssr:stedsnr" v="799799" />
		<tag k="waterway" v="river" />
	</node>
	<node id="-128884" lat="61.3911805543" lon="9.78281666156">
		<tag k="name" v="Magnhildtjønnet" />
		<tag k="natural" v="water" />
		<tag k="ssr:stedsnr" v="899125" />
	</node>
	<node id="-130931" lat="61.282605555" lon="10.102511117">
		<tag k="name" v="Gryttjønnet" />
		<tag k="natural" v="water" />
		<tag k="ssr:stedsnr" v="798832" />
	</node>
	<node id="-128882" lat="61.3501222257" lon="10.1893638877">
		<tag k="name" v="Jarudtjønnet" />
		<tag k="natural" v="water" />
		<tag k="ssr:stedsnr" v="899113" />
	</node>
	<node id="-130929" lat="61.3395666663" lon="10.021005563">
		<tag k="name" v="Hesttjønnet" />
		<tag k="natural" v="water" />
		<tag k="ssr:stedsnr" v="797961" />
	</node>
	<node id="-128875" lat="61.2056138934" lon="10.244994447">
		<tag k="name" v="Visknutkjelda" />
		<tag k="natural" v="spring" />
		<tag k="ssr:stedsnr" v="479273" />
	</node>
	<node id="-128873" lat="61.1213416639" lon="10.1650138947">
		<tag k="name" v="Midtdalsbekken" />
		<tag k="ssr:stedsnr" v="477914" />
		<tag k="waterway" v="stream" />
	</node>
	<node id="-130912" lat="61.3059666674" lon="9.81749166167">
		<tag k="name" v="Brattbekken" />
		<tag k="ssr:stedsnr" v="797745" />
		<tag k="waterway" v="stream" />
	</node>
	<node id="-130911" lat="61.2804416701" lon="9.64867500579">
		<tag k="alt_name" v="Tverrlitjønnene" />
		<tag k="name" v="Tverrlitjønnet" />
		<tag k="natural" v="water" />
		<tag k="ssr:stedsnr" v="797739" />
	</node>
	<node id="-130910" lat="61.3483027743" lon="9.95813611955">
		<tag k="name" v="Musa" />
		<tag k="ssr:stedsnr" v="797701" />
		<tag k="waterway" v="stream" />
	</node>
	<node id="-130909" lat="61.3414916666" lon="9.84101388811">
		<tag k="name" v="Ånåa" />
		<tag k="ssr:stedsnr" v="797684" />
		<tag k="waterway" v="stream" />
	</node>
	<node id="-130907" lat="61.3534000006" lon="9.66311944866">
		<tag k="name" v="Tverrlitjønnet" />
		<tag k="natural" v="water" />
		<tag k="ssr:stedsnr" v="797669" />
	</node>
	<node id="-128858" lat="61.2255638929" lon="9.77678333848">
		<tag k="name" v="Risbølvika" />
		<tag k="natural" v="bay" />
		<tag k="ssr:stedsnr" v="476586" />
	</node>
	<node id="-130905" lat="61.3110111078" lon="9.80843610421">
		<tag k="name" v="Svabekken" />
		<tag k="ssr:stedsnr" v="797653" />
		<tag k="waterway" v="stream" />
	</node>
	<node id="-128852" lat="61.2538999987" lon="9.83095832712">
		<tag k="name" v="Kluftodden" />
		<tag k="natural" v="cape" />
		<tag k="ssr:stedsnr" v="476284" />
	</node>
	<node id="-130899" lat="61.3319861105" lon="9.55952499151">
		<tag k="name" v="Leppbekken" />
		<tag k="ssr:stedsnr" v="797493" />
		<tag k="waterway" v="stream" />
	</node>
	<node id="-130896" lat="61.2965055532" lon="9.56632500191">
		<tag k="name" v="Febuvika" />
		<tag k="natural" v="bay" />
		<tag k="ssr:stedsnr" v="797471" />
	</node>
	<node id="-128835" lat="61.2774555531" lon="9.94036388003">
		<tag k="name" v="Sæterbekken" />
		<tag k="ssr:stedsnr" v="475854" />
		<tag k="waterway" v="stream" />
	</node>
	<node id="-130882" lat="61.2407527822" lon="9.4657222184">
		<tag k="name" v="Sandbekkosen" />
		<tag k="natural" v="bay" />
		<tag k="ssr:stedsnr" v="796986" />
	</node>
	<node id="-130880" lat="61.1649916637" lon="9.95165833009">
		<tag k="name" v="Kittilbubekken" />
		<tag k="ssr:stedsnr" v="796764" />
		<tag k="waterway" v="stream" />
	</node>
	<node id="-128829" lat="61.285722225" lon="10.0862611118">
		<tag k="name" v="Prestkjerringvika" />
		<tag k="natural" v="bay" />
		<tag k="ssr:stedsnr" v="475620" />
	</node>
	<node id="-130876" lat="61.180055553" lon="9.84539444615">
		<tag k="name" v="Ormtjønnbekken" />
		<tag k="ssr:stedsnr" v="796751" />
		<tag k="waterway" v="stream" />
	</node>
	<node id="-128826" lat="61.3342833346" lon="9.74718333811">
		<tag k="name" v="Kvernhusfossen" />
		<tag k="natural" v="waterfall" />
		<tag k="ssr:stedsnr" v="475451" />
	</node>
	<node id="-128824" lat="61.3462000022" lon="10.115949997">
		<tag k="name" v="Slåsæterbekken" />
		<tag k="ssr:stedsnr" v="475351" />
		<tag k="waterway" v="stream" />
	</node>
	<node id="-130869" lat="61.199263893" lon="10.1078444413">
		<tag k="name" v="Sagbekken" />
		<tag k="ssr:stedsnr" v="796392" />
		<tag k="waterway" v="stream" />
	</node>
	<node id="-128820" lat="61.2884222188" lon="10.2075166647">
		<tag k="name" v="Skillebekken" />
		<tag k="ssr:stedsnr" v="475142" />
		<tag k="waterway" v="stream" />
	</node>
	<node id="-130865" lat="61.3847083327" lon="9.87913888777">
		<tag k="alt_name" v="Tverråa" />
		<tag k="name" v="Tverrelva" />
		<tag k="ssr:stedsnr" v="796348" />
		<tag k="waterway" v="stream" />
	</node>
	<node id="-128814" lat="61.3500416659" lon="9.83451389338">
		<tag k="name" v="Sæterbekken" />
		<tag k="ssr:stedsnr" v="474667" />
		<tag k="waterway" v="stream" />
	</node>
	<node id="-128811" lat="61.3429333335" lon="9.83281111655">
		<tag k="name" v="Veslåntjønnet" />
		<tag k="natural" v="water" />
		<tag k="ssr:stedsnr" v="474658" />
	</node>
	<node id="-128810" lat="61.3873250002" lon="9.89561389747">
		<tag k="name" v="Bennosen" />
		<tag k="natural" v="bay" />
		<tag k="ssr:stedsnr" v="474655" />
	</node>
	<node id="-130846" lat="61.2415333374" lon="10.3587527776">
		<tag k="alt_name" v="Søndre Bleikjetjønn" />
		<tag k="name" v="Søre Bleikjetjønn" />
		<tag k="natural" v="water" />
		<tag k="ssr:stedsnr" v="783282" />
	</node>
	<node id="-130845" lat="61.201263893" lon="10.286972227">
		<tag k="name" v="Finna" />
		<tag k="ssr:stedsnr" v="783244" />
		<tag k="waterway" v="stream" />
	</node>
	<node id="-130831" lat="61.2536277798" lon="9.82554444289">
		<tag k="name" v="Kjerringodden" />
		<tag k="natural" v="cape" />
		<tag k="ssr:stedsnr" v="780275" />
	</node>
	<node id="-130827" lat="61.2219833303" lon="9.92915834058">
		<tag k="name" v="Tronåbekken" />
		<tag k="ssr:stedsnr" v="780200" />
		<tag k="waterway" v="stream" />
	</node>
	<node id="-128778" lat="61.3650583305" lon="10.153377776">
		<tag k="name" v="Goddalsvika" />
		<tag k="natural" v="bay" />
		<tag k="ssr:stedsnr" v="413173" />
	</node>
	<node id="-128777" lat="61.3727944444" lon="10.1324833359">
		<tag k="name" v="Forrestadbekken" />
		<tag k="ssr:stedsnr" v="413165" />
		<tag k="waterway" v="stream" />
	</node>
	<node id="-130818" lat="61.3399472196" lon="9.72924445033">
		<tag k="name" v="Lorttjønnet" />
		<tag k="natural" v="water" />
		<tag k="ssr:stedsnr" v="779890" />
	</node>
	<node id="-130817" lat="61.139094446" lon="10.0333416667">
		<tag k="name" v="Kroktjønnvika" />
		<tag k="natural" v="bay" />
		<tag k="ssr:stedsnr" v="779883" />
	</node>
	<node id="-128764" lat="61.3851500004" lon="9.909794451">
		<tag k="name" v="Bennsjøholmen" />
		<tag k="place" v="islet" />
		<tag k="ssr:stedsnr" v="414254" />
	</node>
	<node id="-130807" lat="61.3181972197" lon="9.69260000864">
		<tag k="name" v="Storholmen" />
		<tag k="place" v="islet" />
		<tag k="ssr:stedsnr" v="779464" />
	</node>
	<node id="-128748" lat="61.3185638932" lon="10.0519277688">
		<tag k="name" v="Sautjønnet" />
		<tag k="natural" v="water" />
		<tag k="ssr:stedsnr" v="372826" />
	</node>
	<node id="-130792" lat="61.3188166676" lon="10.0021027867">
		<tag k="name" v="Stølslettbekken" />
		<tag k="ssr:stedsnr" v="778992" />
		<tag k="waterway" v="stream" />
	</node>
	<node id="-130790" lat="61.34436389" lon="10.029013887">
		<tag k="name" v="Langlitjønnet" />
		<tag k="natural" v="water" />
		<tag k="ssr:stedsnr" v="778985" />
	</node>
	<node id="-128741" lat="61.2826944402" lon="10.1978888892">
		<tag k="name" v="Busterudbekken" />
		<tag k="ssr:stedsnr" v="372772" />
		<tag k="waterway" v="stream" />
	</node>
	<node id="-128739" lat="61.345191667" lon="9.70414444319">
		<tag k="name" v="Sekkholtjønnet" />
		<tag k="natural" v="water" />
		<tag k="ssr:stedsnr" v="372705" />
	</node>
	<node id="-130784" lat="61.3681861125" lon="9.65264165959">
		<tag k="name" v="Svartvika" />
		<tag k="natural" v="bay" />
		<tag k="ssr:stedsnr" v="778951" />
	</node>
	<node id="-130779" lat="61.3624694474" lon="9.68469444998">
		<tag k="name" v="Rostjønnet" />
		<tag k="natural" v="water" />
		<tag k="ssr:stedsnr" v="778900" />
	</node>
	<node id="-128728" lat="61.346927782" lon="9.47686944808">
		<tag k="name" v="Forundringstjønn" />
		<tag k="natural" v="water" />
		<tag k="ssr:stedsnr" v="372522" />
	</node>
	<node id="-128726" lat="61.3146694406" lon="9.43957222614">
		<tag k="name" v="Storkvolvtjønn" />
		<tag k="natural" v="water" />
		<tag k="ssr:stedsnr" v="372509" />
	</node>
	<node id="-128722" lat="61.2218166672" lon="10.2246999919">
		<tag k="name" v="Jøra" />
		<tag k="ssr:stedsnr" v="372490" />
		<tag k="waterway" v="river" />
	</node>
	<node id="-128717" lat="61.375522224" lon="9.55084167045">
		<tag k="name" v="Øvre Stylskardtjønnet" />
		<tag k="natural" v="water" />
		<tag k="ssr:stedsnr" v="372470" />
	</node>
	<node id="-128715" lat="61.3651416669" lon="9.5140694353">
		<tag k="name" v="Venaglbekken" />
		<tag k="ssr:stedsnr" v="372464" />
		<tag k="waterway" v="stream" />
	</node>
	<node id="-128713" lat="61.3725916684" lon="9.61143889349">
		<tag k="name" v="Bubekken" />
		<tag k="ssr:stedsnr" v="372376" />
		<tag k="waterway" v="stream" />
	</node>
	<node id="-130760" lat="61.3816472186" lon="9.92440277486">
		<tag k="name" v="Gardosen" />
		<tag k="natural" v="bay" />
		<tag k="ssr:stedsnr" v="777637" />
	</node>
	<node id="-128709" lat="61.2873027734" lon="9.48783054986">
		<tag k="name" v="Nonstjønnan" />
		<tag k="natural" v="water" />
		<tag k="ssr:stedsnr" v="372292" />
	</node>
	<node id="-128708" lat="61.2291333302" lon="10.348869439">
		<tag k="alt_name" v="Nerstøltjønnet" />
		<tag k="name" v="Nerstyltjønnet" />
		<tag k="natural" v="water" />
		<tag k="ssr:stedsnr" v="372158" />
	</node>
	<node id="-128707" lat="61.1528555546" lon="10.0220666692">
		<tag k="alt_name" v="Måråbeittjernet" />
		<tag k="name" v="Morgobeittjernet" />
		<tag k="natural" v="water" />
		<tag k="ssr:stedsnr" v="372080" />
	</node>
	<node id="-130751" lat="61.2064944411" lon="9.82542778697">
		<tag k="name" v="Tålåstubben" />
		<tag k="natural" v="beach" />
		<tag k="ssr:stedsnr" v="766259" />
	</node>
	<node id="-128702" lat="61.3239666675" lon="10.1796444447">
		<tag k="name" v="Svartbekken" />
		<tag k="ssr:stedsnr" v="371939" />
		<tag k="waterway" v="stream" />
	</node>
	<node id="-128700" lat="61.1956555519" lon="9.60782500761">
		<tag k="name" v="Nuptjønnet" />
		<tag k="natural" v="water" />
		<tag k="ssr:stedsnr" v="371725" />
	</node>
	<node id="-128697" lat="61.2371388911" lon="9.84536111816">
		<tag k="name" v="Hornsjøen" />
		<tag k="natural" v="water" />
		<tag k="ssr:stedsnr" v="371489" />
		<tag k="water" v="lake" />
	</node>
	<node id="-130744" lat="61.2062083334" lon="9.82229721868">
		<tag k="name" v="Sundmannen" />
		<tag k="place" v="islet" />
		<tag k="ssr:stedsnr" v="737463" />
	</node>
	<node id="-130742" lat="61.3006583326" lon="9.38287223132">
		<tag k="name" v="Massingtjønn" />
		<tag k="natural" v="water" />
		<tag k="ssr:stedsnr" v="737439" />
	</node>
	<node id="-130741" lat="61.2648222228" lon="9.50534443817">
		<tag k="name" v="Fossbekktjønnet" />
		<tag k="natural" v="water" />
		<tag k="ssr:stedsnr" v="737260" />
	</node>
	<node id="-130738" lat="61.3683999986" lon="10.1413222169">
		<tag k="name" v="Sjøsætervatnet" />
		<tag k="natural" v="water" />
		<tag k="ssr:stedsnr" v="736985" />
		<tag k="water" v="lake" />
	</node>
	<node id="-128688" lat="61.1229249973" lon="10.0273888882">
		<tag k="name" v="Rostjønna" />
		<tag k="natural" v="water" />
		<tag k="ssr:stedsnr" v="371090" />
	</node>
	<node id="-130731" lat="61.177208337" lon="9.63387222036">
		<tag k="name" v="Skjellbreidsvatnet" />
		<tag k="natural" v="water" />
		<tag k="ssr:stedsnr" v="736762" />
		<tag k="water" v="lake" />
	</node>
	<node id="-130729" lat="61.3448833352" lon="9.83568610381">
		<tag k="name" v="Åntjønnet" />
		<tag k="natural" v="water" />
		<tag k="ssr:stedsnr" v="736693" />
	</node>
	<node id="-130728" lat="61.3455166629" lon="9.77717222212">
		<tag k="name" v="Surta" />
		<tag k="ssr:stedsnr" v="736690" />
		<tag k="waterway" v="stream" />
	</node>
	<node id="-130722" lat="61.261269394" lon="10.2460598653">
		<tag k="name" v="Neversjøen" />
		<tag k="natural" v="water" />
		<tag k="ssr:stedsnr" v="736848" />
		<tag k="water" v="lake" />
	</node>
	<node id="-128672" lat="61.2150694406" lon="10.2556444513">
		<tag k="name" v="Fabrikkdammen" />
		<tag k="ssr:stedsnr" v="358162" />
		<tag k="waterway" v="dam" />
	</node>
	<node id="-130719" lat="61.2480969145" lon="9.89761371196">
		<tag k="alt_name" v="Reinsjøen, øvre" />
		<tag k="name" v="Øvre Reinsjøen" />
		<tag k="natural" v="water" />
		<tag k="ssr:stedsnr" v="736533" />
		<tag k="water" v="lake" />
	</node>
	<node id="-128669" lat="61.2540277767" lon="9.95737221876">
		<tag k="name" v="Blesterbekken" />
		<tag k="ssr:stedsnr" v="355975" />
		<tag k="waterway" v="stream" />
	</node>
	<node id="-128668" lat="61.2553833317" lon="9.99499444309">
		<tag k="name" v="Sæterbekken" />
		<tag k="ssr:stedsnr" v="355964" />
		<tag k="waterway" v="stream" />
	</node>
	<node id="-130715" lat="61.3320055515" lon="9.53922499184">
		<tag k="name" v="Bulonen" />
		<tag k="place" v="locality" />
		<tag k="ssr:stedsnr" v="736481" />
	</node>
	<node id="-128664" lat="61.1496000041" lon="10.0552555619">
		<tag k="name" v="Sneiråktjønnet" />
		<tag k="natural" v="water" />
		<tag k="ssr:stedsnr" v="355898" />
	</node>
	<node id="-130706" lat="61.376374996" lon="9.56576389702">
		<tag k="alt_name" v="Stylskardtjønnet, nedre" />
		<tag k="name" v="Nedre Stylskardtjønnet" />
		<tag k="natural" v="water" />
		<tag k="ssr:stedsnr" v="736448" />
	</node>
	<node id="-128651" lat="61.1723861122" lon="9.90159444786">
		<tag k="name" v="Brennfossen" />
		<tag k="natural" v="waterfall" />
		<tag k="ssr:stedsnr" v="355017" />
	</node>
	<node id="-128650" lat="61.3880527741" lon="9.60255833485">
		<tag k="name" v="Langodden" />
		<tag k="natural" v="cape" />
		<tag k="ssr:stedsnr" v="354969" />
	</node>
	<node id="-128649" lat="61.3808138882" lon="9.58830555922">
		<tag k="name" v="Maribubekken" />
		<tag k="ssr:stedsnr" v="354965" />
		<tag k="waterway" v="stream" />
	</node>
	<node id="-130695" lat="61.3933972247" lon="9.60359166629">
		<tag k="name" v="Lauvåa" />
		<tag k="ssr:stedsnr" v="736360" />
		<tag k="waterway" v="stream" />
	</node>
	<node id="-130693" lat="61.4006833312" lon="9.85095832803">
		<tag k="name" v="Bånsjøhaugtjønnet" />
		<tag k="natural" v="water" />
		<tag k="ssr:stedsnr" v="736358" />
	</node>
	<node id="-130691" lat="61.3771666642" lon="9.94805554892">
		<tag k="name" v="Reirtjønnet" />
		<tag k="natural" v="water" />
		<tag k="ssr:stedsnr" v="736340" />
	</node>
	<node id="-130685" lat="61.2431305566" lon="10.3526361107">
		<tag k="alt_name" v="Fougnsætervatnet;Fongsætertjønnet" />
		<tag k="name" v="Fognssætervatnet" />
		<tag k="natural" v="water" />
		<tag k="ssr:stedsnr" v="736251" />
	</node>
	<node id="-130683" lat="61.2249972203" lon="9.55626944072">
		<tag k="alt_name" v="Landlon" />
		<tag k="name" v="Langlonen" />
		<tag k="natural" v="water" />
		<tag k="ssr:stedsnr" v="735993" />
		<tag k="water" v="lake" />
	</node>
	<node id="-130678" lat="61.2081638866" lon="9.87782499457">
		<tag k="name" v="Revslonen" />
		<tag k="natural" v="water" />
		<tag k="ssr:stedsnr" v="735504" />
	</node>
	<node id="-128621" lat="61.3756888879" lon="9.6321972192">
		<tag k="name" v="Baksidesundet" />
		<tag k="natural" v="strait" />
		<tag k="ssr:stedsnr" v="354460" />
	</node>
	<node id="-130665" lat="61.375238887" lon="10.0063027699">
		<tag k="name" v="Massingtjønnbekken" />
		<tag k="ssr:stedsnr" v="725790" />
		<tag k="waterway" v="stream" />
	</node>
	<node id="-130664" lat="61.284102781" lon="9.57418055946">
		<tag k="name" v="Risåvika" />
		<tag k="natural" v="bay" />
		<tag k="ssr:stedsnr" v="725571" />
	</node>
	<node id="-128612" lat="61.3747611108" lon="9.71940832408">
		<tag k="name" v="Storbekken" />
		<tag k="ssr:stedsnr" v="354124" />
		<tag k="waterway" v="stream" />
	</node>
	<node id="-130657" lat="61.2514444483" lon="9.69994443667">
		<tag k="name" v="Vakkerlibekken" />
		<tag k="ssr:stedsnr" v="724459" />
		<tag k="waterway" v="stream" />
	</node>
	<node id="-130654" lat="61.2757361129" lon="9.93050277705">
		<tag k="name" v="Svarttjønnbekken" />
		<tag k="ssr:stedsnr" v="723656" />
		<tag k="waterway" v="stream" />
	</node>
	<node id="-128604" lat="61.4118249966" lon="9.54449166901">
		<tag k="name" v="Sagodden" />
		<tag k="natural" v="cape" />
		<tag k="ssr:stedsnr" v="353906" />
	</node>
	<node id="-130645" lat="61.2665027765" lon="9.88696943553">
		<tag k="name" v="Putterbekken" />
		<tag k="ssr:stedsnr" v="719998" />
		<tag k="waterway" v="stream" />
	</node>
	<node id="-128594" lat="61.3252694439" lon="9.83191110946">
		<tag k="name" v="Veslibekken" />
		<tag k="ssr:stedsnr" v="353544" />
		<tag k="waterway" v="stream" />
	</node>
	<node id="-128584" lat="61.353033329" lon="10.1767388872">
		<tag k="name" v="Stortjønnet" />
		<tag k="natural" v="water" />
		<tag k="ssr:stedsnr" v="353114" />
	</node>
	<node id="-130625" lat="61.3445138855" lon="10.0029611199">
		<tag k="name" v="Tvillingtjønnene" />
		<tag k="natural" v="water" />
		<tag k="ssr:stedsnr" v="718998" />
	</node>
	<node id="-130624" lat="61.3739999965" lon="9.6362250027">
		<tag k="name" v="Steinodden" />
		<tag k="natural" v="cape" />
		<tag k="ssr:stedsnr" v="719418" />
	</node>
	<node id="-128563" lat="61.2600777747" lon="9.94107500893">
		<tag k="name" v="Holbekktjønnet" />
		<tag k="natural" v="water" />
		<tag k="ssr:stedsnr" v="312715" />
	</node>
	<node id="-130610" lat="61.2431527797" lon="9.82970556199">
		<tag k="name" v="Skriuvika" />
		<tag k="natural" v="bay" />
		<tag k="ssr:stedsnr" v="718590" />
	</node>
	<node id="-130608" lat="61.3321722218" lon="9.75856667374">
		<tag k="name" v="Krokdammen" />
		<tag k="ssr:stedsnr" v="718471" />
		<tag k="waterway" v="dam" />
	</node>
	<node id="-128557" lat="61.2435472218" lon="9.58370833188">
		<tag k="name" v="Liomsæterbekken" />
		<tag k="ssr:stedsnr" v="312267" />
		<tag k="waterway" v="stream" />
	</node>
	<node id="-128556" lat="61.2653333334" lon="9.43312778583">
		<tag k="name" v="Gråmyrbekken" />
		<tag k="ssr:stedsnr" v="312264" />
		<tag k="waterway" v="stream" />
	</node>
	<node id="-128554" lat="61.361049996" lon="9.97330277422">
		<tag k="name" v="Åbbortjønnet" />
		<tag k="natural" v="water" />
		<tag k="ssr:stedsnr" v="311988" />
	</node>
	<node id="-128553" lat="61.3462249994" lon="10.1341916656">
		<tag k="name" v="Jønnbubekken" />
		<tag k="ssr:stedsnr" v="311985" />
		<tag k="waterway" v="stream" />
	</node>
	<node id="-128552" lat="61.3769944443" lon="9.98483889757">
		<tag k="fixme" v="multiple name tags, choose one and add the other to alt_name" />
		<tag k="name" v="Fjellåa;Grasdalselva" />
		<tag k="ssr:stedsnr" v="311897" />
		<tag k="waterway" v="stream" />
	</node>
	<node id="-128543" lat="61.1848361134" lon="9.90410554909">
		<tag k="alt_name" v="Søre Valdrestjønn;Valdrestjønnet, s" />
		<tag k="name" v="Søre Valdrestjønnet" />
		<tag k="natural" v="water" />
		<tag k="ssr:stedsnr" v="311773" />
	</node>
	<node id="-128542" lat="61.348730553" lon="9.92172776847">
		<tag k="alt_name" v="Firtjønnene" />
		<tag k="name" v="Firtjønna" />
		<tag k="natural" v="water" />
		<tag k="ssr:stedsnr" v="311731" />
	</node>
	<node id="-128541" lat="61.3561388874" lon="9.83110000731">
		<tag k="name" v="Svintjønnet" />
		<tag k="natural" v="water" />
		<tag k="ssr:stedsnr" v="311730" />
	</node>
	<node id="-128537" lat="61.3324555598" lon="9.71884444384">
		<tag k="name" v="Ongsjoa" />
		<tag k="ssr:stedsnr" v="311674" />
		<tag k="waterway" v="stream" />
	</node>
	<node id="-128535" lat="61.2190777785" lon="9.74867500929">
		<tag k="name" v="Dokkelva" />
		<tag k="ssr:stedsnr" v="311568" />
		<tag k="waterway" v="river" />
	</node>
	<node id="-128531" lat="61.2385444408" lon="9.73335832918">
		<tag k="name" v="Revåa" />
		<tag k="ssr:stedsnr" v="311543" />
		<tag k="waterway" v="river" />
	</node>
	<node id="-130577" lat="61.4119916702" lon="9.54104721343">
		<tag k="name" v="Lonodden" />
		<tag k="natural" v="cape" />
		<tag k="ssr:stedsnr" v="716887" />
	</node>
	<node id="-130576" lat="61.4095333328" lon="9.54934166718">
		<tag k="name" v="Storholmen" />
		<tag k="place" v="islet" />
		<tag k="ssr:stedsnr" v="716884" />
	</node>
	<node id="-130565" lat="61.3755805542" lon="10.1013888831">
		<tag k="name" v="Gammeldalsbekken" />
		<tag k="ssr:stedsnr" v="716078" />
		<tag k="waterway" v="stream" />
	</node>
	<node id="-128516" lat="61.1957638896" lon="9.56529721616">
		<tag k="name" v="Nevabekken" />
		<tag k="ssr:stedsnr" v="310950" />
		<tag k="waterway" v="stream" />
	</node>
	<node id="-128507" lat="61.2744444482" lon="9.58653611574">
		<tag k="name" v="Liumsætervika" />
		<tag k="natural" v="bay" />
		<tag k="ssr:stedsnr" v="300625" />
	</node>
	<node id="-128503" lat="61.185722222" lon="9.81768610737">
		<tag k="name" v="Sygardsbekken" />
		<tag k="ssr:stedsnr" v="300011" />
		<tag k="waterway" v="stream" />
	</node>
	<node id="-130549" lat="61.2621194405" lon="9.76710832557">
		<tag k="name" v="Slivatnet" />
		<tag k="natural" v="water" />
		<tag k="ssr:stedsnr" v="676747" />
	</node>
	<node id="-130547" lat="61.283361114" lon="9.89957222476">
		<tag k="alt_name" v="Bøltjønnet" />
		<tag k="name" v="Børtjønnet" />
		<tag k="natural" v="water" />
		<tag k="ssr:stedsnr" v="676718" />
	</node>
	<node id="-130546" lat="61.3323361119" lon="9.45975555582">
		<tag k="name" v="Gråvietjønnbekken" />
		<tag k="ssr:stedsnr" v="676491" />
		<tag k="waterway" v="stream" />
	</node>
	<node id="-130545" lat="61.3397222237" lon="9.52514722955">
		<tag k="alt_name" v="Storlon" />
		<tag k="name" v="Storlonen" />
		<tag k="natural" v="water" />
		<tag k="ssr:stedsnr" v="676487" />
		<tag k="water" v="lake" />
	</node>
	<node id="-130544" lat="61.3274250019" lon="9.54428333903">
		<tag k="name" v="Lepplonen" />
		<tag k="place" v="locality" />
		<tag k="ssr:stedsnr" v="676481" />
	</node>
	<node id="-130543" lat="61.371719443" lon="9.53863055432">
		<tag k="name" v="Pettertjønn" />
		<tag k="natural" v="water" />
		<tag k="ssr:stedsnr" v="676448" />
	</node>
	<node id="-128493" lat="61.1974305547" lon="10.2838944469">
		<tag k="name" v="Stuksrudbekken" />
		<tag k="ssr:stedsnr" v="297281" />
		<tag k="waterway" v="stream" />
	</node>
	<node id="-130538" lat="61.2540250026" lon="9.51193611204">
		<tag k="name" v="Skardtjønnan" />
		<tag k="natural" v="water" />
		<tag k="ssr:stedsnr" v="676243" />
	</node>
	<node id="-130537" lat="61.3357527754" lon="10.1727805587">
		<tag k="name" v="Storbekken" />
		<tag k="ssr:stedsnr" v="675969" />
		<tag k="waterway" v="stream" />
	</node>
	<node id="-130536" lat="61.325336112" lon="10.1239277857">
		<tag k="name" v="Skeiselva" />
		<tag k="ssr:stedsnr" v="675960" />
		<tag k="waterway" v="river" />
	</node>
	<node id="-128487" lat="61.128322218" lon="10.0424583345">
		<tag k="name" v="Sandodden" />
		<tag k="natural" v="cape" />
		<tag k="ssr:stedsnr" v="295888" />
	</node>
	<node id="-128485" lat="61.412322221" lon="9.54631110432">
		<tag k="name" v="Sagvika" />
		<tag k="natural" v="bay" />
		<tag k="ssr:stedsnr" v="295581" />
	</node>
	<node id="-130532" lat="61.2697305539" lon="10.1188638855">
		<tag k="name" v="Rauda" />
		<tag k="ssr:stedsnr" v="675860" />
		<tag k="waterway" v="stream" />
	</node>
	<node id="-130530" lat="61.1555888901" lon="9.80207499983">
		<tag k="name" v="Grytbekken" />
		<tag k="ssr:stedsnr" v="675761" />
		<tag k="waterway" v="stream" />
	</node>
	<node id="-130529" lat="61.3532666653" lon="9.82708333978">
		<tag k="alt_name" v="Liatjønnet, nedre" />
		<tag k="name" v="Nedre Liatjønnet" />
		<tag k="natural" v="water" />
		<tag k="ssr:stedsnr" v="675702" />
	</node>
	<node id="-130526" lat="61.213806097" lon="9.63704751955">
		<tag k="name" v="Vågskardvatnet" />
		<tag k="natural" v="water" />
		<tag k="ssr:stedsnr" v="675541" />
		<tag k="water" v="lake" />
	</node>
	<node id="-130525" lat="61.2127888869" lon="9.65287778541">
		<tag k="name" v="Skjela" />
		<tag k="ssr:stedsnr" v="675540" />
		<tag k="waterway" v="river" />
	</node>
	<node id="-128476" lat="61.1552083298" lon="10.0466527792">
		<tag k="name" v="Stortjønn" />
		<tag k="natural" v="water" />
		<tag k="ssr:stedsnr" v="294924" />
	</node>
	<node id="-128475" lat="61.1402277818" lon="10.0365361104">
		<tag k="name" v="Nysæterbekken" />
		<tag k="ssr:stedsnr" v="294886" />
		<tag k="waterway" v="stream" />
	</node>
	<node id="-130516" lat="61.3715277751" lon="9.67669166124">
		<tag k="name" v="Dritua" />
		<tag k="ssr:stedsnr" v="675385" />
		<tag k="waterway" v="stream" />
	</node>
	<node id="-130509" lat="61.1281194423" lon="9.98831389108">
		<tag k="name" v="Nordlibekken" />
		<tag k="ssr:stedsnr" v="675118" />
		<tag k="waterway" v="stream" />
	</node>
	<node id="-130506" lat="61.152655553" lon="10.1945611198">
		<tag k="name" v="Finnsrudbekken" />
		<tag k="ssr:stedsnr" v="675086" />
		<tag k="waterway" v="stream" />
	</node>
	<node id="-130502" lat="61.2122611145" lon="9.63314444634">
		<tag k="name" v="Verkensvika" />
		<tag k="natural" v="bay" />
		<tag k="ssr:stedsnr" v="664848" />
	</node>
	<node id="-130499" lat="61.237772218" lon="9.59229999849">
		<tag k="name" v="Lorttjønnet" />
		<tag k="natural" v="water" />
		<tag k="ssr:stedsnr" v="664034" />
	</node>
	<node id="-128449" lat="61.3362249956" lon="9.89099445135">
		<tag k="name" v="Haustsæterbekken" />
		<tag k="ssr:stedsnr" v="293960" />
		<tag k="waterway" v="stream" />
	</node>
	<node id="-130494" lat="61.120016666" lon="10.0401055522">
		<tag k="name" v="Blestervika" />
		<tag k="natural" v="bay" />
		<tag k="ssr:stedsnr" v="663095" />
	</node>
	<node id="-130483" lat="61.2610583373" lon="9.91045555515">
		<tag k="name" v="Stultertubekken" />
		<tag k="ssr:stedsnr" v="658997" />
		<tag k="waterway" v="stream" />
	</node>
	<node id="-130482" lat="61.2585833308" lon="9.89530277056">
		<tag k="name" v="Reinsjøbekken" />
		<tag k="ssr:stedsnr" v="658995" />
		<tag k="waterway" v="stream" />
	</node>
	<node id="-130481" lat="61.2616694413" lon="9.89811111966">
		<tag k="name" v="Karivika" />
		<tag k="natural" v="bay" />
		<tag k="ssr:stedsnr" v="658992" />
	</node>
	<node id="-130476" lat="61.1437694422" lon="10.0384916734">
		<tag k="name" v="Nedre Nysætervatnet" />
		<tag k="natural" v="water" />
		<tag k="ssr:stedsnr" v="658860" />
	</node>
	<node id="-130475" lat="61.1638083357" lon="10.1208000044">
		<tag k="name" v="Blåtjønnet" />
		<tag k="natural" v="water" />
		<tag k="ssr:stedsnr" v="658845" />
	</node>
	<node id="-130474" lat="61.2338055565" lon="10.0705916701">
		<tag k="name" v="Kårfaldstranda" />
		<tag k="natural" v="beach" />
		<tag k="ssr:stedsnr" v="658842" />
	</node>
	<node id="-128425" lat="61.4108333329" lon="9.54806944788">
		<tag k="name" v="Vesleholmen" />
		<tag k="place" v="islet" />
		<tag k="ssr:stedsnr" v="292899" />
	</node>
	<node id="-128414" lat="61.3702944414" lon="10.1424583328">
		<tag k="name" v="Kvebakken" />
		<tag k="natural" v="cape" />
		<tag k="ssr:stedsnr" v="292133" />
	</node>
	<node id="-130451" lat="61.391766671" lon="9.5885277795">
		<tag k="name" v="Tømmerodden" />
		<tag k="natural" v="cape" />
		<tag k="ssr:stedsnr" v="657961" />
	</node>
	<node id="-128402" lat="61.1434611077" lon="10.0471361182">
		<tag k="name" v="Øvre Nysætervatnet" />
		<tag k="natural" v="water" />
		<tag k="ssr:stedsnr" v="415905" />
	</node>
	<node id="-130437" lat="61.3279583376" lon="9.78314721893">
		<tag k="name" v="Enebakkbekken" />
		<tag k="ssr:stedsnr" v="657609" />
		<tag k="waterway" v="stream" />
	</node>
	<node id="-128576" lat="61.3912999961" lon="9.90845833764">
		<tag k="name" v="Leikvamsvika" />
		<tag k="natural" v="bay" />
		<tag k="ssr:stedsnr" v="352624" />
	</node>
	<node id="-130430" lat="61.2798666663" lon="9.90779166742">
		<tag k="name" v="Revtjønnet" />
		<tag k="natural" v="water" />
		<tag k="ssr:stedsnr" v="657179" />
	</node>
	<node id="-130426" lat="61.3431472216" lon="9.63507500267">
		<tag k="name" v="Skriulaupbekken" />
		<tag k="ssr:stedsnr" v="657016" />
		<tag k="waterway" v="stream" />
	</node>
	<node id="-130414" lat="61.3644361133" lon="9.90300276894">
		<tag k="name" v="Pålstjønnet" />
		<tag k="natural" v="water" />
		<tag k="ssr:stedsnr" v="656413" />
	</node>
	<node id="-130408" lat="61.3768222243" lon="9.95859722672">
		<tag k="name" v="Antontjønnet" />
		<tag k="natural" v="water" />
		<tag k="ssr:stedsnr" v="656051" />
	</node>
	<node id="-130401" lat="61.3700833294" lon="10.1449944451">
		<tag k="name" v="Systuguvika" />
		<tag k="natural" v="bay" />
		<tag k="ssr:stedsnr" v="655170" />
	</node>
	<node id="-130399" lat="61.4138388852" lon="9.84753054736">
		<tag k="name" v="Langtjønnet" />
		<tag k="natural" v="water" />
		<tag k="ssr:stedsnr" v="655130" />
	</node>
	<node id="-130394" lat="61.2030722213" lon="9.98975556351">
		<tag k="name" v="Roppdammen" />
		<tag k="ssr:stedsnr" v="628438" />
		<tag k="waterway" v="dam" />
	</node>
	<node id="-130393" lat="61.2059444466" lon="9.82139445351">
		<tag k="name" v="Bjønnan" />
		<tag k="place" v="islet" />
		<tag k="ssr:stedsnr" v="616468" />
	</node>
	<node id="-130391" lat="61.2709222256" lon="9.96300278573">
		<tag k="name" v="Haukåa" />
		<tag k="ssr:stedsnr" v="615748" />
		<tag k="waterway" v="stream" />
	</node>
	<node id="-130389" lat="61.2929777786" lon="9.70837222091">
		<tag k="name" v="Kroktjønnet" />
		<tag k="natural" v="water" />
		<tag k="ssr:stedsnr" v="615724" />
	</node>
	<node id="-130387" lat="61.2745555555" lon="9.89497500366">
		<tag k="name" v="Reinsåa" />
		<tag k="ssr:stedsnr" v="615700" />
		<tag k="waterway" v="stream" />
	</node>
	<node id="-130385" lat="61.2857277764" lon="9.71845000569">
		<tag k="alt_name" v="Vettafjelltjønnet" />
		<tag k="name" v="Vetafjelltjønnet" />
		<tag k="natural" v="water" />
		<tag k="ssr:stedsnr" v="615694" />
	</node>
	<node id="-130384" lat="61.3334250018" lon="9.43409722115">
		<tag k="name" v="Vietjønnet" />
		<tag k="natural" v="water" />
		<tag k="ssr:stedsnr" v="615477" />
	</node>
	<node id="-130382" lat="61.2518416668" lon="9.5329972199">
		<tag k="name" v="Skardtjønnbekken" />
		<tag k="ssr:stedsnr" v="615229" />
		<tag k="waterway" v="stream" />
	</node>
	<node id="-130380" lat="61.3682916622" lon="10.1071750048">
		<tag k="name" v="Torsdalsvatnet" />
		<tag k="natural" v="water" />
		<tag k="ssr:stedsnr" v="614985" />
	</node>
	<node id="-130379" lat="61.3428805537" lon="10.162541669">
		<tag k="alt_name" v="Kidlielva;Kilielva" />
		<tag k="name" v="Killielva" />
		<tag k="ssr:stedsnr" v="614967" />
		<tag k="waterway" v="river" />
	</node>
	<node id="-130373" lat="61.1961083333" lon="9.71620555897">
		<tag k="name" v="Snæresbekken" />
		<tag k="ssr:stedsnr" v="614764" />
		<tag k="waterway" v="stream" />
	</node>
	<node id="-130372" lat="61.1968500029" lon="9.88104443628">
		<tag k="name" v="Obleiken" />
		<tag k="natural" v="water" />
		<tag k="ssr:stedsnr" v="614760" />
	</node>
	<node id="-130371" lat="61.201443869" lon="9.91122371474">
		<tag k="alt_name" v="Glåmen, store" />
		<tag k="name" v="Store Glåmen" />
		<tag k="natural" v="water" />
		<tag k="ssr:stedsnr" v="614758" />
		<tag k="water" v="lake" />
	</node>
	<node id="-130370" lat="61.1960472179" lon="9.65960833652">
		<tag k="name" v="Nuptjønnbekken" />
		<tag k="ssr:stedsnr" v="614756" />
		<tag k="waterway" v="stream" />
	</node>
	<node id="-130360" lat="61.23858333" lon="9.90755000206">
		<tag k="alt_name" v="Reinsjøen, vesle" />
		<tag k="name" v="Vesle Reinsjøen" />
		<tag k="natural" v="water" />
		<tag k="ssr:stedsnr" v="614514" />
	</node>
	<node id="-130358" lat="61.2281805534" lon="9.64116944983">
		<tag k="name" v="Tortjønnbekken" />
		<tag k="ssr:stedsnr" v="614508" />
		<tag k="waterway" v="stream" />
	</node>
	<node id="-130356" lat="61.217113888" lon="9.67387778046">
		<tag k="name" v="Nyvatnet" />
		<tag k="natural" v="water" />
		<tag k="ssr:stedsnr" v="614506" />
	</node>
	<node id="-131294" lat="61.2488694469" lon="9.84899443649">
		<tag k="name" v="Gulsandtjønnene" />
		<tag k="natural" v="water" />
		<tag k="ssr:stedsnr" v="961595" />
	</node>
	<node id="-130351" lat="61.1983444461" lon="10.0662583405">
		<tag k="name" v="Astridbekken" />
		<tag k="ssr:stedsnr" v="614488" />
		<tag k="waterway" v="stream" />
	</node>
	<node id="-131293" lat="61.2312277811" lon="9.83317223093">
		<tag k="name" v="Vesledunglungen" />
		<tag k="natural" v="water" />
		<tag k="ssr:stedsnr" v="961588" />
	</node>
	<node id="-130347" lat="61.3926999967" lon="9.53165278514">
		<tag k="name" v="Nedre Megrundstjønnet" />
		<tag k="natural" v="water" />
		<tag k="ssr:stedsnr" v="614462" />
	</node>
	<node id="-130335" lat="61.1873750045" lon="10.1684138869">
		<tag k="name" v="Brennombekken" />
		<tag k="ssr:stedsnr" v="614379" />
		<tag k="waterway" v="stream" />
	</node>
	<node id="-130325" lat="61.2372138873" lon="10.3298194435">
		<tag k="name" v="Finntjønnet" />
		<tag k="natural" v="water" />
		<tag k="ssr:stedsnr" v="614258" />
	</node>
	<node id="-130313" lat="61.2223777775" lon="9.56417499155">
		<tag k="name" v="Reinsjøbekken" />
		<tag k="ssr:stedsnr" v="603769" />
		<tag k="waterway" v="stream" />
	</node>
	<node id="-130312" lat="61.3009305565" lon="9.56690833586">
		<tag k="name" v="Gulsannan" />
		<tag k="natural" v="beach" />
		<tag k="ssr:stedsnr" v="603593" />
	</node>
	<node id="-130310" lat="61.3792944473" lon="10.0471000025">
		<tag k="name" v="Svarttjønnet" />
		<tag k="natural" v="water" />
		<tag k="ssr:stedsnr" v="603148" />
	</node>
	<node id="-130295" lat="61.4048000043" lon="9.64797777983">
		<tag k="name" v="Glupbekken" />
		<tag k="ssr:stedsnr" v="598788" />
		<tag k="waterway" v="stream" />
	</node>
	<node id="-130278" lat="61.3100000037" lon="10.0780805601">
		<tag k="name" v="Velttjønnet" />
		<tag k="natural" v="water" />
		<tag k="ssr:stedsnr" v="597736" />
	</node>
	<node id="-130276" lat="61.2785777737" lon="10.0767611029">
		<tag k="name" v="Raumælgrunnan" />
		<tag k="place" v="locality" />
		<tag k="ssr:stedsnr" v="597634" />
	</node>
	<node id="-130270" lat="61.3430722254" lon="9.68241944095">
		<tag k="name" v="Raubekken" />
		<tag k="ssr:stedsnr" v="597335" />
		<tag k="waterway" v="stream" />
	</node>
	<node id="-130257" lat="61.2781472231" lon="9.97075556205">
		<tag k="name" v="Slåttdalsbekken" />
		<tag k="ssr:stedsnr" v="596861" />
		<tag k="waterway" v="stream" />
	</node>
	<node id="-130242" lat="61.4082499984" lon="9.55184721317">
		<tag k="name" v="Sandodden" />
		<tag k="natural" v="cape" />
		<tag k="ssr:stedsnr" v="595895" />
	</node>
	<node id="-130240" lat="61.4039527815" lon="9.56813889515">
		<tag k="name" v="Slåodden" />
		<tag k="natural" v="cape" />
		<tag k="ssr:stedsnr" v="595873" />
	</node>
	<node id="-130239" lat="61.4014111151" lon="9.57507777754">
		<tag k="name" v="Liavika" />
		<tag k="natural" v="bay" />
		<tag k="ssr:stedsnr" v="595874" />
	</node>
	<node id="-128885" lat="61.3653222198" lon="10.1240750048">
		<tag k="name" v="Storbekken" />
		<tag k="ssr:stedsnr" v="899136" />
		<tag k="waterway" v="stream" />
	</node>
	<node id="-130232" lat="61.387886109" lon="9.92174166418">
		<tag k="name" v="Ugletjønnet" />
		<tag k="natural" v="water" />
		<tag k="ssr:stedsnr" v="595609" />
	</node>
	<node id="-130227" lat="61.3855833348" lon="9.92661667018">
		<tag k="name" v="Gardåa" />
		<tag k="ssr:stedsnr" v="595230" />
		<tag k="waterway" v="river" />
	</node>
	<node id="-130226" lat="61.3272194403" lon="10.1030000024">
		<tag k="name" v="Helgafossen" />
		<tag k="ssr:stedsnr" v="595193" />
		<tag k="waterway" v="rapids" />
	</node>
	<node id="-128883" lat="61.4010055573" lon="9.76813889553">
		<tag k="name" v="Midtengstjønnet" />
		<tag k="natural" v="water" />
		<tag k="ssr:stedsnr" v="899116" />
	</node>
	<node id="-130208" lat="61.2913777771" lon="9.90979999452">
		<tag k="name" v="Svartholbekken" />
		<tag k="ssr:stedsnr" v="554763" />
		<tag k="waterway" v="stream" />
	</node>
	<node id="-130207" lat="61.2917777813" lon="9.66514444769">
		<tag k="name" v="Slibekken" />
		<tag k="ssr:stedsnr" v="554758" />
		<tag k="waterway" v="stream" />
	</node>
	<node id="-130206" lat="61.3193391571" lon="9.68775016936">
		<tag k="alt_name" v="Ongsjøen, nedre" />
		<tag k="loc_name" v="Nedre Ognsjøen" />
		<tag k="name" v="Nedre Ongsjøen" />
		<tag k="natural" v="water" />
		<tag k="ssr:stedsnr" v="554692" />
		<tag k="water" v="lake" />
	</node>
	<node id="-130201" lat="61.2487805561" lon="9.68656111106">
		<tag k="alt_name" v="Droktjernbekken" />
		<tag k="name" v="Druktjørnbekken" />
		<tag k="ssr:stedsnr" v="554591" />
		<tag k="waterway" v="stream" />
	</node>
	<node id="-130197" lat="61.2965315343" lon="9.57848443576">
		<tag k="alt_name" v="Revsjøen, øvre" />
		<tag k="name" v="Øvre Revsjøen" />
		<tag k="natural" v="water" />
		<tag k="ssr:stedsnr" v="554501" />
		<tag k="water" v="lake" />
	</node>
	<node id="-130195" lat="61.4016055523" lon="9.56712222637">
		<tag k="name" v="Espedalsvatnet" />
		<tag k="natural" v="water" />
		<tag k="ssr:stedsnr" v="554498" />
		<tag k="water" v="lake" />
	</node>
	<node id="-130192" lat="61.1535722219" lon="10.0890194438">
		<tag k="name" v="Djupåa" />
		<tag k="ssr:stedsnr" v="554086" />
		<tag k="waterway" v="river" />
	</node>
	<node id="-130190" lat="61.2114499983" lon="9.53782500053">
		<tag k="alt_name" v="Skruvedalstjønnet" />
		<tag k="name" v="Skruvdalstjønnet" />
		<tag k="natural" v="water" />
		<tag k="ssr:stedsnr" v="553963" />
	</node>
	<node id="-130189" lat="61.1834500008" lon="9.78037499519">
		<tag k="name" v="Snærespullen" />
		<tag k="natural" v="bay" />
		<tag k="ssr:stedsnr" v="553745" />
	</node>
	<node id="-130188" lat="61.2123210892" lon="9.81607301009">
		<tag k="name" v="Dokkvatnet" />
		<tag k="natural" v="water" />
		<tag k="ssr:stedsnr" v="553741" />
		<tag k="water" v="lake" />
	</node>
	<node id="-130185" lat="61.2096083312" lon="9.76615277703">
		<tag k="name" v="Verkensbekken" />
		<tag k="ssr:stedsnr" v="553519" />
		<tag k="waterway" v="stream" />
	</node>
	<node id="-130183" lat="61.2336749997" lon="9.84064444452">
		<tag k="name" v="Dunglungen" />
		<tag k="natural" v="water" />
		<tag k="ssr:stedsnr" v="553494" />
	</node>
	<node id="-130181" lat="61.2176833338" lon="9.99435833899">
		<tag k="name" v="Valåa" />
		<tag k="ssr:stedsnr" v="553454" />
		<tag k="waterway" v="stream" />
	</node>
	<node id="-130175" lat="61.1675861126" lon="10.0050666734">
		<tag k="alt_name" v="Heimtjernene" />
		<tag k="name" v="Heimtjørnet" />
		<tag k="natural" v="water" />
		<tag k="ssr:stedsnr" v="553430" />
	</node>
	<node id="-130171" lat="61.1892249981" lon="10.0834222149">
		<tag k="name" v="Briggebekken" />
		<tag k="ssr:stedsnr" v="553381" />
		<tag k="waterway" v="stream" />
	</node>
	<node id="-130169" lat="61.1844694478" lon="10.1002361132">
		<tag k="name" v="Storsvebekken" />
		<tag k="ssr:stedsnr" v="553371" />
		<tag k="waterway" v="stream" />
	</node>
	<node id="-130167" lat="61.3686611083" lon="9.7794999922">
		<tag k="name" v="Svarttjønnet" />
		<tag k="natural" v="water" />
		<tag k="ssr:stedsnr" v="553339" />
	</node>
	<node id="-130165" lat="61.3847083335" lon="9.93819166251">
		<tag k="name" v="Holtjønnlon" />
		<tag k="natural" v="water" />
		<tag k="ssr:stedsnr" v="553335" />
	</node>
	<node id="-130164" lat="61.3840166647" lon="9.91515276855">
		<tag k="name" v="Gulsanden" />
		<tag k="natural" v="beach" />
		<tag k="ssr:stedsnr" v="553336" />
	</node>
	<node id="-130144" lat="61.3105805518" lon="10.0371138937">
		<tag k="name" v="Åbbortjønn" />
		<tag k="natural" v="water" />
		<tag k="ssr:stedsnr" v="543154" />
	</node>
	<node id="-130134" lat="61.1648444449" lon="10.1334583267">
		<tag k="name" v="Kvernbekken" />
		<tag k="ssr:stedsnr" v="541433" />
		<tag k="waterway" v="stream" />
	</node>
	<node id="-130121" lat="61.1325305542" lon="10.1094805625">
		<tag k="name" v="Okstjønnet" />
		<tag k="natural" v="water" />
		<tag k="ssr:stedsnr" v="537874" />
	</node>
	<node id="-130116" lat="61.2554222214" lon="9.82454722225">
		<tag k="name" v="Kjerringvika" />
		<tag k="natural" v="bay" />
		<tag k="ssr:stedsnr" v="537264" />
	</node>
	<node id="-130109" lat="61.3851833335" lon="9.61151945193">
		<tag k="name" v="Revbekken" />
		<tag k="ssr:stedsnr" v="536957" />
		<tag k="waterway" v="stream" />
	</node>
	<node id="-130087" lat="61.3220805523" lon="9.67699443898">
		<tag k="name" v="Puttervika" />
		<tag k="natural" v="bay" />
		<tag k="ssr:stedsnr" v="536453" />
	</node>
	<node id="-130086" lat="61.3352444431" lon="9.74195556457">
		<tag k="name" v="Finntjønnbekken" />
		<tag k="ssr:stedsnr" v="536445" />
		<tag k="waterway" v="stream" />
	</node>
	<node id="-130225" lat="61.3437222248" lon="9.77563333182">
		<tag k="name" v="Nedre Surtfossen" />
		<tag k="natural" v="waterfall" />
		<tag k="ssr:stedsnr" v="595127" />
	</node>
	<node id="-128859" lat="61.2239666632" lon="9.77333610566">
		<tag k="name" v="Hestholmen" />
		<tag k="place" v="islet" />
		<tag k="ssr:stedsnr" v="476589" />
	</node>
	<node id="-130906" lat="61.3544305593" lon="9.68115000052">
		<tag k="name" v="Roasæterbekken" />
		<tag k="ssr:stedsnr" v="797668" />
		<tag k="waterway" v="stream" />
	</node>
	<node id="-130072" lat="61.1842944416" lon="9.96236110223">
		<tag k="name" v="Nedre Kroktjernet" />
		<tag k="natural" v="water" />
		<tag k="ssr:stedsnr" v="536037" />
	</node>
	<node id="-130071" lat="61.1802916633" lon="9.96350277657">
		<tag k="name" v="Kroktjernbekken" />
		<tag k="ssr:stedsnr" v="536036" />
		<tag k="waterway" v="stream" />
	</node>
	<node id="-130062" lat="61.3341916626" lon="9.99887500349">
		<tag k="name" v="Veslibekken" />
		<tag k="ssr:stedsnr" v="535811" />
		<tag k="waterway" v="stream" />
	</node>
	<node id="-130061" lat="61.3211416665" lon="9.9947972248">
		<tag k="name" v="Stylbekken" />
		<tag k="ssr:stedsnr" v="535805" />
		<tag k="waterway" v="stream" />
	</node>
	<node id="-130060" lat="61.3262722215" lon="9.99552221375">
		<tag k="name" v="Sæterbekken" />
		<tag k="ssr:stedsnr" v="535803" />
		<tag k="waterway" v="stream" />
	</node>
	<node id="-131244" lat="61.2588777769" lon="9.74035832695">
		<tag k="alt_name" v="Ommundtjønnet" />
		<tag k="name" v="Omundtjønnet" />
		<tag k="natural" v="water" />
		<tag k="ssr:stedsnr" v="919719" />
	</node>
	<node id="-130053" lat="61.3266305587" lon="9.83861667278">
		<tag k="name" v="Sålåa" />
		<tag k="ssr:stedsnr" v="535543" />
		<tag k="waterway" v="stream" />
	</node>
	<node id="-130037" lat="61.2753194437" lon="10.0294416663">
		<tag k="name" v="Geitrobekken" />
		<tag k="ssr:stedsnr" v="522669" />
		<tag k="waterway" v="stream" />
	</node>
	<node id="-130031" lat="61.2681000023" lon="9.7798805635">
		<tag k="name" v="Kjerringtjønna" />
		<tag k="natural" v="water" />
		<tag k="ssr:stedsnr" v="494719" />
	</node>
	<node id="-130030" lat="61.2792750017" lon="9.81192500314">
		<tag k="name" v="Mossa" />
		<tag k="ssr:stedsnr" v="494695" />
		<tag k="waterway" v="stream" />
	</node>
	<node id="-130029" lat="61.2808777734" lon="9.729738887">
		<tag k="name" v="Vakkertjønnet" />
		<tag k="natural" v="water" />
		<tag k="ssr:stedsnr" v="494689" />
	</node>
	<node id="-130027" lat="61.322816665" lon="9.58658054959">
		<tag k="name" v="Hundtjønn" />
		<tag k="natural" v="water" />
		<tag k="ssr:stedsnr" v="494450" />
	</node>
	<node id="-130024" lat="61.2912472203" lon="9.56831944238">
		<tag k="name" v="Febutjønn" />
		<tag k="natural" v="water" />
		<tag k="ssr:stedsnr" v="494242" />
	</node>
	<node id="-130018" lat="61.160474996" lon="9.86726110754">
		<tag k="alt_name" v="Skjervungen, vle;Lille Skjervungen" />
		<tag k="name" v="Vesle Skjervungen" />
		<tag k="natural" v="water" />
		<tag k="ssr:stedsnr" v="493761" />
	</node>
	<node id="-130016" lat="61.1637333318" lon="9.64593888024">
		<tag k="name" v="Merradumpa" />
		<tag k="natural" v="water" />
		<tag k="ssr:stedsnr" v="493756" />
	</node>
	<node id="-130015" lat="61.1662916628" lon="9.79320278494">
		<tag k="name" v="Hjerttjønnet" />
		<tag k="natural" v="water" />
		<tag k="ssr:stedsnr" v="493751" />
	</node>
	<node id="-130014" lat="61.1759777743" lon="9.95591389736">
		<tag k="name" v="Kittilbutjønna" />
		<tag k="natural" v="water" />
		<tag k="ssr:stedsnr" v="493747" />
	</node>
	<node id="-130012" lat="61.1784444469" lon="9.71539443961">
		<tag k="name" v="Fjellbekken" />
		<tag k="ssr:stedsnr" v="493743" />
		<tag k="waterway" v="stream" />
	</node>
	<node id="-130011" lat="61.3580305516" lon="9.82554165941">
		<tag k="alt_name" v="Liatjønnet, øvre" />
		<tag k="name" v="Øvre Liatjønnet" />
		<tag k="natural" v="water" />
		<tag k="ssr:stedsnr" v="493704" />
	</node>
	<node id="-130001" lat="61.2540666667" lon="9.96922499573">
		<tag k="name" v="Ulveflågån" />
		<tag k="natural" v="water" />
		<tag k="ssr:stedsnr" v="493862" />
	</node>
	<node id="-130000" lat="61.2464583328" lon="9.70915278027">
		<tag k="alt_name" v="Droktjernet" />
		<tag k="name" v="Drukstjørnet" />
		<tag k="natural" v="water" />
		<tag k="ssr:stedsnr" v="493549" />
	</node>
	<node id="-129998" lat="61.2200249992" lon="9.79625000084">
		<tag k="name" v="Dokkholmen" />
		<tag k="place" v="islet" />
		<tag k="ssr:stedsnr" v="493527" />
	</node>
	<node id="-129997" lat="61.215422219" lon="9.72950832714">
		<tag k="name" v="Stuva" />
		<tag k="ssr:stedsnr" v="493523" />
		<tag k="waterway" v="river" />
	</node>
	<node id="-129984" lat="61.3759000011" lon="9.79959167233">
		<tag k="name" v="Øvstetjønnet" />
		<tag k="natural" v="water" />
		<tag k="ssr:stedsnr" v="493353" />
	</node>
	<node id="-129983" lat="61.380447226" lon="9.95504166937">
		<tag k="alt_name" v="Holtjønnet, s" />
		<tag k="name" v="Søre Holtjønnet" />
		<tag k="natural" v="water" />
		<tag k="ssr:stedsnr" v="493352" />
	</node>
	<node id="-129982" lat="61.3855722242" lon="9.78552221724">
		<tag k="name" v="Langtjønnet" />
		<tag k="natural" v="water" />
		<tag k="ssr:stedsnr" v="493348" />
	</node>
	<node id="-129975" lat="61.1277345784" lon="10.1074759437">
		<tag k="name" v="Erstjønnet" />
		<tag k="natural" v="water" />
		<tag k="ssr:stedsnr" v="493104" />
	</node>
	<node id="-129972" lat="61.3623499964" lon="10.0081527791">
		<tag k="name" v="Lykkjevika" />
		<tag k="natural" v="bay" />
		<tag k="ssr:stedsnr" v="492865" />
	</node>
	<node id="-129971" lat="61.2468111119" lon="9.48593610423">
		<tag k="name" v="Fossbekken" />
		<tag k="ssr:stedsnr" v="492736" />
		<tag k="waterway" v="stream" />
	</node>
	<node id="-129969" lat="61.2429222195" lon="9.99461667221">
		<tag k="name" v="Beljebekken" />
		<tag k="ssr:stedsnr" v="492328" />
		<tag k="waterway" v="stream" />
	</node>
	<node id="-129963" lat="61.2482027762" lon="10.249338882">
		<tag k="name" v="Neveråa" />
		<tag k="ssr:stedsnr" v="492223" />
		<tag k="waterway" v="stream" />
	</node>
	<node id="-129958" lat="61.2785999957" lon="9.61491110513">
		<tag k="name" v="Kosan" />
		<tag k="natural" v="bay" />
		<tag k="ssr:stedsnr" v="482614" />
	</node>
	<node id="-129948" lat="61.1220333298" lon="10.040636105">
		<tag k="name" v="Store Bjørn" />
		<tag k="place" v="islet" />
		<tag k="ssr:stedsnr" v="481099" />
	</node>
	<node id="-129931" lat="61.2986583354" lon="9.99725833491">
		<tag k="name" v="Svarttjønnet" />
		<tag k="natural" v="water" />
		<tag k="ssr:stedsnr" v="433787" />
	</node>
	<node id="-129927" lat="61.374541669" lon="9.96576667367">
		<tag k="name" v="Næringstjønnet" />
		<tag k="natural" v="water" />
		<tag k="ssr:stedsnr" v="433676" />
	</node>
	<node id="-129924" lat="61.3565305531" lon="9.65200276851">
		<tag k="name" v="Tjuvholtjønnet" />
		<tag k="natural" v="water" />
		<tag k="ssr:stedsnr" v="433659" />
	</node>
	<node id="-129921" lat="61.3137305584" lon="9.79367777191">
		<tag k="name" v="Sagbekken" />
		<tag k="ssr:stedsnr" v="433631" />
		<tag k="waterway" v="stream" />
	</node>
	<node id="-129918" lat="61.23726389" lon="9.66220000495">
		<tag k="name" v="Leirbekktjønnet" />
		<tag k="natural" v="water" />
		<tag k="ssr:stedsnr" v="433505" />
	</node>
	<node id="-129916" lat="61.2322333369" lon="9.63365832595">
		<tag k="name" v="Tortjønnet" />
		<tag k="natural" v="water" />
		<tag k="ssr:stedsnr" v="433504" />
	</node>
	<node id="-129914" lat="61.2048888884" lon="10.0695611026">
		<tag k="name" v="Haukåa" />
		<tag k="ssr:stedsnr" v="433485" />
		<tag k="waterway" v="stream" />
	</node>
	<node id="-129913" lat="61.3324361147" lon="9.53435554696">
		<tag k="name" v="Nordåa" />
		<tag k="ssr:stedsnr" v="433481" />
		<tag k="waterway" v="river" />
	</node>
	<node id="-129909" lat="61.3117722257" lon="9.52299721756">
		<tag k="name" v="Risåtjønnet" />
		<tag k="natural" v="water" />
		<tag k="ssr:stedsnr" v="433472" />
	</node>
	<node id="-130877" lat="61.1820638872" lon="9.82982778229">
		<tag k="name" v="Ormtjønnet" />
		<tag k="natural" v="water" />
		<tag k="ssr:stedsnr" v="796753" />
	</node>
	<node id="-129894" lat="61.2751861106" lon="9.5727499951">
		<tag k="name" v="Langråka" />
		<tag k="ssr:stedsnr" v="433265" />
		<tag k="waterway" v="stream" />
	</node>
	<node id="-129890" lat="61.2036916672" lon="9.58397499199">
		<tag k="alt_name" v="Reinsjøen, nedre" />
		<tag k="name" v="Nedre Reinsjøen" />
		<tag k="natural" v="water" />
		<tag k="ssr:stedsnr" v="432970" />
		<tag k="water" v="lake" />
	</node>
	<node id="-129887" lat="61.326075001" lon="10.0360000073">
		<tag k="name" v="Ulvtjønnet" />
		<tag k="natural" v="water" />
		<tag k="ssr:stedsnr" v="432943" />
	</node>
	<node id="-129886" lat="61.1839388926" lon="9.79211943892">
		<tag k="name" v="Bubekken" />
		<tag k="ssr:stedsnr" v="432704" />
		<tag k="waterway" v="stream" />
	</node>
	<node id="-129885" lat="61.1964055576" lon="9.78988333324">
		<tag k="name" v="Butjønnet" />
		<tag k="natural" v="water" />
		<tag k="ssr:stedsnr" v="432490" />
	</node>
	<node id="-129876" lat="61.1295585122" lon="10.0407761999">
		<tag k="name" v="Mjogsjøen" />
		<tag k="natural" v="water" />
		<tag k="ssr:stedsnr" v="432093" />
		<tag k="water" v="lake" />
	</node>
	<node id="-128645" lat="61.1346833375" lon="10.0327333371">
		<tag k="name" v="Lomvika" />
		<tag k="natural" v="bay" />
		<tag k="ssr:stedsnr" v="354887" />
	</node>
	<node id="-129847" lat="61.2353166642" lon="10.3456694458">
		<tag k="name" v="Lortkulpen" />
		<tag k="natural" v="water" />
		<tag k="ssr:stedsnr" v="416312" />
		<tag k="water" v="pond" />
	</node>
	<node id="-128499" lat="61.1541833296" lon="10.1454138931">
		<tag k="name" v="Storbekken" />
		<tag k="ssr:stedsnr" v="299449" />
		<tag k="waterway" v="stream" />
	</node>
	<node id="-128477" lat="61.1535916693" lon="10.0362500079">
		<tag k="name" v="Staumsæterbekken" />
		<tag k="ssr:stedsnr" v="294927" />
		<tag k="waterway" v="stream" />
	</node>
	<node id="-129832" lat="61.271941667" lon="10.1005388876">
		<tag k="name" v="Storslågåbekken" />
		<tag k="ssr:stedsnr" v="415839" />
		<tag k="waterway" v="stream" />
	</node>
	<node id="-129825" lat="61.3240944481" lon="9.74551943812">
		<tag k="name" v="Stubberudbekken" />
		<tag k="ssr:stedsnr" v="415501" />
		<tag k="waterway" v="stream" />
	</node>
	<node id="-129819" lat="61.2835805566" lon="10.1822361168">
		<tag k="name" v="Toftengbekken" />
		<tag k="ssr:stedsnr" v="415158" />
		<tag k="waterway" v="stream" />
	</node>
	<node id="-129807" lat="61.3423194407" lon="9.9764222159">
		<tag k="name" v="Musholet" />
		<tag k="place" v="locality" />
		<tag k="ssr:stedsnr" v="414976" />
	</node>
	<node id="-129798" lat="61.3035583337" lon="9.76674444015">
		<tag k="name" v="Kroktjønnbekken" />
		<tag k="ssr:stedsnr" v="414541" />
		<tag k="waterway" v="stream" />
	</node>
	<node id="-129794" lat="61.3284805586" lon="9.83689167531">
		<tag k="name" v="Sålådammen" />
		<tag k="ssr:stedsnr" v="414529" />
		<tag k="waterway" v="dam" />
	</node>
	<node id="-129784" lat="61.3125021328" lon="10.0636997385">
		<tag k="name" v="Veslesætervatnet" />
		<tag k="natural" v="water" />
		<tag k="ssr:stedsnr" v="251836" />
		<tag k="water" v="lake" />
	</node>
	<node id="-129780" lat="61.2641814244" lon="9.89323831072">
		<tag k="alt_name" v="Reinsjøen, nedre" />
		<tag k="name" v="Nedre Reinsjøen" />
		<tag k="natural" v="water" />
		<tag k="ssr:stedsnr" v="251776" />
		<tag k="water" v="lake" />
	</node>
	<node id="-129777" lat="61.2685833337" lon="9.9455833292">
		<tag k="name" v="Holbekken" />
		<tag k="ssr:stedsnr" v="251769" />
		<tag k="waterway" v="stream" />
	</node>
	<node id="-129775" lat="61.282249997" lon="9.81349443616">
		<tag k="alt_name" v="Svabekktjønnet, øvre" />
		<tag k="name" v="Øvre Svabekktjønnet" />
		<tag k="natural" v="water" />
		<tag k="ssr:stedsnr" v="251756" />
	</node>
	<node id="-129772" lat="61.3399750012" lon="9.48359166535">
		<tag k="name" v="Vestmjøselva" />
		<tag k="ssr:stedsnr" v="251520" />
		<tag k="waterway" v="stream" />
	</node>
	<node id="-129770" lat="61.3272917366" lon="9.49212791312">
		<tag k="name" v="Vestmjøs" />
		<tag k="natural" v="water" />
		<tag k="ssr:stedsnr" v="251511" />
		<tag k="water" v="lake" />
	</node>
	<node id="-129768" lat="61.3183000031" lon="9.45690555583">
		<tag k="name" v="Storkvolvbekken" />
		<tag k="ssr:stedsnr" v="251506" />
		<tag k="waterway" v="stream" />
	</node>
	<node id="-129764" lat="61.3819416678" lon="9.51719721529">
		<tag k="name" v="Øvre Megrundstjønnet" />
		<tag k="natural" v="water" />
		<tag k="ssr:stedsnr" v="251465" />
	</node>
	<node id="-129762" lat="61.2673999981" lon="9.58562222822">
		<tag k="name" v="Skomakartjønnet" />
		<tag k="natural" v="water" />
		<tag k="ssr:stedsnr" v="251310" />
	</node>
	<node id="-129760" lat="61.1404111117" lon="10.0262305569">
		<tag k="name" v="Kroktjønnet" />
		<tag k="natural" v="water" />
		<tag k="ssr:stedsnr" v="251097" />
	</node>
	<node id="-129757" lat="61.3629333336" lon="10.1417166731">
		<tag k="alt_name" v="Grautauga" />
		<tag k="name" v="Grautauget" />
		<tag k="natural" v="water" />
		<tag k="ssr:stedsnr" v="250974" />
	</node>
	<node id="-129755" lat="61.383508951" lon="9.99988730387">
		<tag k="name" v="Grasdalsvatnet" />
		<tag k="natural" v="water" />
		<tag k="ssr:stedsnr" v="250896" />
		<tag k="water" v="lake" />
	</node>
	<node id="-129754" lat="61.3827472266" lon="10.1305388889">
		<tag k="name" v="Kroktjønnet" />
		<tag k="natural" v="water" />
		<tag k="ssr:stedsnr" v="250872" />
	</node>
	<node id="-129752" lat="61.1877250025" lon="9.95619166486">
		<tag k="alt_name" v="Øvre Kroktjønnet" />
		<tag k="name" v="Kroktjønnet" />
		<tag k="natural" v="water" />
		<tag k="ssr:stedsnr" v="250719" />
	</node>
	<node id="-129749" lat="61.2140055575" lon="10.0418999925">
		<tag k="name" v="Roppa" />
		<tag k="ssr:stedsnr" v="250462" />
		<tag k="waterway" v="river" />
	</node>
	<node id="-129743" lat="61.381791664" lon="9.94738611425">
		<tag k="alt_name" v="Holtjønnet;Holtjønnet, nordre" />
		<tag k="name" v="Nordre Holtjønnet" />
		<tag k="natural" v="water" />
		<tag k="ssr:stedsnr" v="250358" />
	</node>
	<node id="-129742" lat="61.3787805526" lon="9.78396388505">
		<tag k="name" v="Kringeltjønnet" />
		<tag k="natural" v="water" />
		<tag k="ssr:stedsnr" v="250346" />
	</node>
	<node id="-128461" lat="61.3762027766" lon="9.63164722305">
		<tag k="name" v="Kariholmen" />
		<tag k="place" v="islet" />
		<tag k="ssr:stedsnr" v="294463" />
	</node>
	<node id="-129732" lat="61.1190999958" lon="10.1306833379">
		<tag k="name" v="Gåstjønnet" />
		<tag k="natural" v="water" />
		<tag k="ssr:stedsnr" v="250114" />
	</node>
	<node id="-129729" lat="61.2203722251" lon="9.55609444412">
		<tag k="name" v="Skruvdalsbekken" />
		<tag k="ssr:stedsnr" v="249997" />
		<tag k="waterway" v="stream" />
	</node>
	<node id="-129727" lat="61.2128500038" lon="9.63555555893">
		<tag k="name" v="Killingholmen" />
		<tag k="place" v="islet" />
		<tag k="ssr:stedsnr" v="240852" />
	</node>
	<node id="-129699" lat="61.2220999981" lon="9.98519166251">
		<tag k="name" v="Vålåtjønnet" />
		<tag k="natural" v="water" />
		<tag k="ssr:stedsnr" v="234242" />
	</node>
	<node id="-129693" lat="61.1808694409" lon="9.90821667109">
		<tag k="name" v="Valdrestjønnbekken" />
		<tag k="ssr:stedsnr" v="234009" />
		<tag k="waterway" v="stream" />
	</node>
	<node id="-128451" lat="61.3408277774" lon="10.0146194466">
		<tag k="name" v="Langlitjønnet" />
		<tag k="natural" v="water" />
		<tag k="ssr:stedsnr" v="293999" />
	</node>
	<node id="-129678" lat="61.2830972244" lon="10.0614694387">
		<tag k="name" v="Nigardsvika" />
		<tag k="natural" v="bay" />
		<tag k="ssr:stedsnr" v="233666" />
	</node>
	<node id="-129675" lat="61.2102944473" lon="9.82204721716">
		<tag k="name" v="Kalstadvika" />
		<tag k="natural" v="bay" />
		<tag k="ssr:stedsnr" v="233632" />
	</node>
	<node id="-129674" lat="61.2411805558" lon="9.84245277529">
		<tag k="name" v="Langodden" />
		<tag k="natural" v="cape" />
		<tag k="ssr:stedsnr" v="233624" />
	</node>
	<node id="-129669" lat="61.3763027749" lon="9.62343332472">
		<tag k="name" v="Buvika" />
		<tag k="natural" v="bay" />
		<tag k="ssr:stedsnr" v="233532" />
	</node>
	<node id="-131230" lat="61.2124388862" lon="9.91634167438">
		<tag k="name" v="Hynna" />
		<tag k="ssr:stedsnr" v="918580" />
		<tag k="waterway" v="river" />
	</node>
	<node id="-129665" lat="61.3776888895" lon="9.62862778301">
		<tag k="name" v="Sauvomma" />
		<tag k="place" v="islet" />
		<tag k="ssr:stedsnr" v="233485" />
	</node>
	<node id="-129664" lat="61.3767416634" lon="9.63132221638">
		<tag k="name" v="Solsidesundet" />
		<tag k="natural" v="strait" />
		<tag k="ssr:stedsnr" v="233482" />
	</node>
	<node id="-128446" lat="61.3705944449" lon="9.64837222504">
		<tag k="name" v="Stabbursholmen" />
		<tag k="place" v="islet" />
		<tag k="ssr:stedsnr" v="293924" />
	</node>
	<node id="-129645" lat="61.336875" lon="10.0571194502">
		<tag k="name" v="Nisjua" />
		<tag k="ssr:stedsnr" v="232985" />
		<tag k="waterway" v="river" />
	</node>
	<node id="-129644" lat="61.3390833376" lon="9.99321666477">
		<tag k="name" v="Slåttbekken" />
		<tag k="ssr:stedsnr" v="232976" />
		<tag k="waterway" v="stream" />
	</node>
	<node id="-129642" lat="61.3724777748" lon="9.64833611183">
		<tag k="name" v="Stranddalsvika" />
		<tag k="natural" v="bay" />
		<tag k="ssr:stedsnr" v="232915" />
	</node>
	<node id="-129626" lat="61.3552555576" lon="10.1031999988">
		<tag k="name" v="Åmottjønnet" />
		<tag k="natural" v="water" />
		<tag k="ssr:stedsnr" v="231906" />
	</node>
	<node id="-129608" lat="61.2555027738" lon="9.96222777281">
		<tag k="name" v="Slettbekken" />
		<tag k="ssr:stedsnr" v="220979" />
		<tag k="waterway" v="stream" />
	</node>
	<node id="-129599" lat="61.2786944402" lon="9.58389445292">
		<tag k="alt_name" v="Revsjøen, nedre" />
		<tag k="name" v="Nedre Revsjøen" />
		<tag k="natural" v="water" />
		<tag k="ssr:stedsnr" v="191239" />
		<tag k="water" v="lake" />
	</node>
	<node id="-129597" lat="61.3793639657" lon="10.0470638318">
		<tag k="name" v="Svarttjønnet" />
		<tag k="natural" v="water" />
		<tag k="ssr:stedsnr" v="190988" />
	</node>
	<node id="-129596" lat="61.3741111109" lon="10.0130222272">
		<tag k="name" v="Nedre Massingtjønnet" />
		<tag k="natural" v="water" />
		<tag k="ssr:stedsnr" v="190986" />
	</node>
	<node id="-129589" lat="61.3085583346" lon="10.0398361113">
		<tag k="name" v="Åbbortjønna" />
		<tag k="natural" v="water" />
		<tag k="ssr:stedsnr" v="190810" />
	</node>
	<node id="-129584" lat="61.1583055569" lon="9.96833332536">
		<tag k="name" v="Holbekken" />
		<tag k="ssr:stedsnr" v="190752" />
		<tag k="waterway" v="stream" />
	</node>
	<node id="-129582" lat="61.1776800341" lon="9.78534283737">
		<tag k="name" v="Snæra" />
		<tag k="natural" v="water" />
		<tag k="ssr:stedsnr" v="190744" />
		<tag k="water" v="lake" />
	</node>
	<node id="-129574" lat="61.3112805577" lon="9.61318055815">
		<tag k="alt_name" v="Skomakartjønnet" />
		<tag k="name" v="Skomakertjønnet" />
		<tag k="natural" v="water" />
		<tag k="ssr:stedsnr" v="190664" />
	</node>
	<node id="-129572" lat="61.3019583344" lon="9.65031388035">
		<tag k="alt_name" v="Ongsjøen, vesle" />
		<tag k="name" v="Vesle Ongsjøen" />
		<tag k="natural" v="water" />
		<tag k="ssr:stedsnr" v="190650" />
	</node>
	<node id="-129563" lat="61.3384916659" lon="9.57923611669">
		<tag k="alt_name" v="Leppvatnet, øvre" />
		<tag k="name" v="Øvre Leppvatnet" />
		<tag k="natural" v="water" />
		<tag k="ssr:stedsnr" v="190499" />
		<tag k="water" v="lake" />
	</node>
	<node id="-129561" lat="61.321383329" lon="9.40266388861">
		<tag k="name" v="Raudgrovtjønn" />
		<tag k="natural" v="water" />
		<tag k="ssr:stedsnr" v="190494" />
	</node>
	<node id="-129555" lat="61.4036388929" lon="9.77399166347">
		<tag k="name" v="Gåsøybekken" />
		<tag k="ssr:stedsnr" v="190370" />
		<tag k="waterway" v="stream" />
	</node>
	<node id="-129544" lat="61.2155888885" lon="9.66664166064">
		<tag k="alt_name" v="Grønntjønnet" />
		<tag k="name" v="Grøntjønnet" />
		<tag k="natural" v="water" />
		<tag k="ssr:stedsnr" v="189469" />
	</node>
	<node id="-129526" lat="61.3467916623" lon="10.1031833413">
		<tag k="name" v="Vaskeribekken" />
		<tag k="ssr:stedsnr" v="178035" />
		<tag k="waterway" v="stream" />
	</node>
	<node id="-129515" lat="61.1354611126" lon="10.0870583246">
		<tag k="name" v="Toftbekken" />
		<tag k="ssr:stedsnr" v="173886" />
		<tag k="waterway" v="stream" />
	</node>
	<node id="-129499" lat="61.375905556" lon="9.64917221612">
		<tag k="name" v="Strandbekken" />
		<tag k="ssr:stedsnr" v="172945" />
		<tag k="waterway" v="stream" />
	</node>
	<node id="-129495" lat="61.3870222185" lon="9.59562777621">
		<tag k="name" v="Maribuvika" />
		<tag k="natural" v="bay" />
		<tag k="ssr:stedsnr" v="172975" />
	</node>
	<node id="-129493" lat="61.2902972185" lon="10.0074250032">
		<tag k="name" v="Vesleulva" />
		<tag k="ssr:stedsnr" v="172760" />
		<tag k="waterway" v="stream" />
	</node>
	<node id="-129490" lat="61.222019445" lon="9.77950555441">
		<tag k="name" v="Tronoa" />
		<tag k="place" v="islet" />
		<tag k="ssr:stedsnr" v="172619" />
	</node>
	<node id="-129488" lat="61.3250305557" lon="9.74488888144">
		<tag k="name" v="Øvrebekken" />
		<tag k="ssr:stedsnr" v="172486" />
		<tag k="waterway" v="stream" />
	</node>
	<node id="-129472" lat="61.4055833371" lon="9.81934445279">
		<tag k="name" v="Tritjønn" />
		<tag k="natural" v="water" />
		<tag k="ssr:stedsnr" v="171825" />
	</node>
	<node id="-129459" lat="61.3309472244" lon="10.2062583423">
		<tag k="name" v="Svartbekkroken" />
		<tag k="old_name" v="Svartbekkkroken" />
		<tag k="place" v="locality" />
		<tag k="ssr:stedsnr" v="171159" />
	</node>
	<node id="-129457" lat="61.4074749975" lon="9.54833056153">
		<tag k="name" v="Nordre Vollbekken" />
		<tag k="ssr:stedsnr" v="170917" />
		<tag k="waterway" v="stream" />
	</node>
	<node id="-129452" lat="61.3440861099" lon="9.82341944737">
		<tag k="name" v="Bakkomsflågån" />
		<tag k="natural" v="water" />
		<tag k="ssr:stedsnr" v="170646" />
	</node>
	<node id="-129449" lat="61.3625500002" lon="10.1485361068">
		<tag k="name" v="Sjøsæterdammen" />
		<tag k="ssr:stedsnr" v="170162" />
		<tag k="waterway" v="dam" />
	</node>
	<node id="-129448" lat="61.3699305523" lon="10.1247638805">
		<tag k="name" v="Veslebekken" />
		<tag k="ssr:stedsnr" v="170158" />
		<tag k="waterway" v="stream" />
	</node>
	<node id="-129445" lat="61.3670833329" lon="10.1377749931">
		<tag k="name" v="Ronesodden" />
		<tag k="natural" v="cape" />
		<tag k="ssr:stedsnr" v="170138" />
	</node>
	<node id="-129434" lat="61.2865638863" lon="9.56963610804">
		<tag k="name" v="Risåa" />
		<tag k="ssr:stedsnr" v="130423" />
		<tag k="waterway" v="stream" />
	</node>
	<node id="-129433" lat="61.2978749961" lon="9.57061110637">
		<tag k="alt_name" v="Skåodden" />
		<tag k="name" v="Skåkodden" />
		<tag k="natural" v="cape" />
		<tag k="ssr:stedsnr" v="130421" />
	</node>
	<node id="-131139" lat="61.3823444402" lon="9.63706666124">
		<tag k="name" v="Veslgardsbekken" />
		<tag k="ssr:stedsnr" v="900947" />
		<tag k="waterway" v="stream" />
	</node>
	<node id="-129420" lat="61.3390416633" lon="9.73731666777">
		<tag k="name" v="Finntjønnet" />
		<tag k="natural" v="water" />
		<tag k="ssr:stedsnr" v="129698" />
	</node>
	<node id="-129419" lat="61.3644500014" lon="9.60093611402">
		<tag k="alt_name" v="Sålåtjønnet" />
		<tag k="name" v="Solåtjønnet" />
		<tag k="natural" v="water" />
		<tag k="ssr:stedsnr" v="129678" />
	</node>
	<node id="-129415" lat="61.1877711028" lon="9.74279559303">
		<tag k="name" v="Toftsætervatnet" />
		<tag k="natural" v="water" />
		<tag k="ssr:stedsnr" v="129742" />
		<tag k="water" v="pond" />
	</node>
	<node id="-129411" lat="61.3081861092" lon="9.85272499988">
		<tag k="name" v="Grinjua" />
		<tag k="ssr:stedsnr" v="129647" />
		<tag k="waterway" v="stream" />
	</node>
	<node id="-129410" lat="61.3083265213" lon="9.64360139937">
		<tag k="alt_name" v="Ongsjøen, øvre" />
		<tag k="name" v="Øvre Ongsjøen" />
		<tag k="natural" v="water" />
		<tag k="ssr:stedsnr" v="129643" />
		<tag k="water" v="lake" />
	</node>
	<node id="-129408" lat="61.3395305581" lon="9.95777500081">
		<tag k="name" v="Gryttjønnet" />
		<tag k="natural" v="water" />
		<tag k="ssr:stedsnr" v="129628" />
	</node>
	<node id="-129407" lat="61.3321361132" lon="9.8871000092">
		<tag k="name" v="Benna" />
		<tag k="ssr:stedsnr" v="129623" />
		<tag k="waterway" v="river" />
	</node>
	<node id="-129402" lat="61.2163333361" lon="10.2475833297">
		<tag k="loc_name" v="Veslelva;Vesleelva" />
		<tag k="name" v="Gausa" />
		<tag k="ssr:stedsnr" v="129479" />
		<tag k="waterway" v="river" />
	</node>
	<node id="-129389" lat="61.1434666652" lon="10.0389249926">
		<tag k="name" v="Nysætertjønna" />
		<tag k="natural" v="water" />
		<tag k="ssr:stedsnr" v="129107" />
	</node>
	<node id="-129388" lat="61.2463222206" lon="9.45637499322">
		<tag k="name" v="Sandbekken" />
		<tag k="ssr:stedsnr" v="128749" />
		<tag k="waterway" v="stream" />
	</node>
	<node id="-129376" lat="61.247730552" lon="10.3285305598">
		<tag k="alt_name" v="Svarttjønna" />
		<tag k="name" v="Svarttjønnet" />
		<tag k="natural" v="water" />
		<tag k="ssr:stedsnr" v="128224" />
	</node>
	<node id="-129370" lat="61.3608611153" lon="10.0166333283">
		<tag k="name" v="Langtjønnvika" />
		<tag k="natural" v="bay" />
		<tag k="ssr:stedsnr" v="118869" />
	</node>
	<node id="-129369" lat="61.2804611096" lon="9.5819305562">
		<tag k="name" v="Studenten" />
		<tag k="place" v="islet" />
		<tag k="ssr:stedsnr" v="118583" />
	</node>
	<node id="-129363" lat="61.3073388901" lon="10.0429805593">
		<tag k="name" v="Åbbortjønn" />
		<tag k="natural" v="water" />
		<tag k="ssr:stedsnr" v="118110" />
	</node>
	<node id="-129358" lat="61.3706222184" lon="10.0926277769">
		<tag k="name" v="Klokkertjønnbekken" />
		<tag k="ssr:stedsnr" v="117038" />
		<tag k="waterway" v="stream" />
	</node>
	<node id="-128560" lat="61.2767194472" lon="9.93448333088">
		<tag k="name" v="Åbortjønnet" />
		<tag k="natural" v="water" />
		<tag k="ssr:stedsnr" v="312699" />
	</node>
	<node id="-129353" lat="61.2473916703" lon="10.2440166577">
		<tag k="name" v="Svartbekken" />
		<tag k="ssr:stedsnr" v="115966" />
		<tag k="waterway" v="stream" />
	</node>
	<node id="-131381" lat="61.1355166673" lon="9.93907778644">
		<tag k="name" v="Mannstadbekken" />
		<tag k="ssr:stedsnr" v="797708" />
		<tag k="waterway" v="stream" />
	</node>
	<node id="-131380" lat="61.3452849756" lon="9.80744291724">
		<tag k="name" v="Åstjønnet" />
		<tag k="natural" v="water" />
		<tag k="ssr:stedsnr" v="979373" />
	</node>
	<node id="-129323" lat="61.3747583362" lon="9.6388222256">
		<tag k="name" v="Furuholmen" />
		<tag k="place" v="islet" />
		<tag k="ssr:stedsnr" v="112484" />
	</node>
	<node id="-129317" lat="61.2852083291" lon="9.90275832411">
		<tag k="name" v="Svartholet" />
		<tag k="natural" v="water" />
		<tag k="ssr:stedsnr" v="112223" />
	</node>
	<node id="-128731" lat="61.3250861118" lon="9.63003332401">
		<tag k="name" v="Rubbeslettbekken" />
		<tag k="ssr:stedsnr" v="372643" />
		<tag k="waterway" v="stream" />
	</node>
	<node id="-129304" lat="61.3853305531" lon="9.58810833814">
		<tag k="name" v="Sofierudbekken" />
		<tag k="ssr:stedsnr" v="111966" />
		<tag k="waterway" v="stream" />
	</node>
	<node id="-131338" lat="61.2624722244" lon="9.88948334233">
		<tag k="name" v="Storvika" />
		<tag k="natural" v="bay" />
		<tag k="ssr:stedsnr" v="962993" />
	</node>
	<node id="-129288" lat="61.3182055558" lon="9.67104444261">
		<tag k="name" v="Ongsjøbekken" />
		<tag k="ssr:stedsnr" v="111423" />
		<tag k="waterway" v="stream" />
	</node>
	<node id="-131329" lat="61.2242611151" lon="10.0478472254">
		<tag k="name" v="Børkhågåbekken" />
		<tag k="ssr:stedsnr" v="962578" />
		<tag k="waterway" v="stream" />
	</node>
	<node id="-129280" lat="61.3239888896" lon="9.89528056008">
		<tag k="name" v="Storbekken" />
		<tag k="ssr:stedsnr" v="110932" />
		<tag k="waterway" v="stream" />
	</node>
	<node id="-129278" lat="61.349888893" lon="9.66203888094">
		<tag k="name" v="Sekkeslettbekken" />
		<tag k="ssr:stedsnr" v="112363" />
		<tag k="waterway" v="stream" />
	</node>
	<node id="-131311" lat="61.3707083343" lon="9.75822777598">
		<tag k="name" v="Elgslett-tjønnet" />
		<tag k="natural" v="water" />
		<tag k="ssr:stedsnr" v="961905" />
	</node>
	<node id="-131310" lat="61.2314333306" lon="10.1045055627">
		<tag k="name" v="Stølsbekken" />
		<tag k="ssr:stedsnr" v="961893" />
		<tag k="waterway" v="stream" />
	</node>
	<node id="-129261" lat="61.3712972267" lon="10.1597250007">
		<tag k="name" v="Goddalsbekken" />
		<tag k="ssr:stedsnr" v="110119" />
		<tag k="waterway" v="stream" />
	</node>
	<node id="-128693" lat="61.3881500009" lon="9.80960000139">
		<tag k="name" v="Kleivbekken" />
		<tag k="ssr:stedsnr" v="371336" />
		<tag k="waterway" v="stream" />
	</node>
	<node id="-129247" lat="61.2701138895" lon="9.9224805582">
		<tag k="name" v="Svarttjønna" />
		<tag k="natural" v="water" />
		<tag k="ssr:stedsnr" v="69767" />
	</node>
	<node id="-129246" lat="61.2895416691" lon="9.67412778653">
		<tag k="name" v="Gryttjønnet" />
		<tag k="natural" v="water" />
		<tag k="ssr:stedsnr" v="69760" />
	</node>
	<node id="-129245" lat="61.2871611104" lon="9.75580000651">
		<tag k="name" v="Tossentjønnet" />
		<tag k="natural" v="water" />
		<tag k="ssr:stedsnr" v="69759" />
	</node>
	<node id="-129240" lat="61.2961355587" lon="9.63595200113">
		<tag k="name" v="Slivatnet" />
		<tag k="natural" v="water" />
		<tag k="ssr:stedsnr" v="69680" />
		<tag k="water" v="lake" />
	</node>
	<node id="-129237" lat="61.2450194415" lon="9.76874443773">
		<tag k="name" v="Gryta" />
		<tag k="ssr:stedsnr" v="69596" />
		<tag k="waterway" v="stream" />
	</node>
	<node id="-129234" lat="61.1463611124" lon="9.98587500202">
		<tag k="name" v="Storbekken" />
		<tag k="ssr:stedsnr" v="69095" />
		<tag k="waterway" v="stream" />
	</node>
	<node id="-129231" lat="61.202566669" lon="10.1036444536">
		<tag k="name" v="Sagelva" />
		<tag k="ssr:stedsnr" v="69537" />
		<tag k="waterway" v="stream" />
	</node>
	<node id="-129230" lat="61.3205777774" lon="10.071197223">
		<tag k="name" v="Svarttjønnet" />
		<tag k="natural" v="water" />
		<tag k="ssr:stedsnr" v="68942" />
	</node>
	<node id="-129226" lat="61.3670388913" lon="9.88464999749">
		<tag k="alt_name" v="Tritjønnene" />
		<tag k="name" v="Trivatna" />
		<tag k="natural" v="water" />
		<tag k="ssr:stedsnr" v="68671" />
	</node>
	<node id="-129225" lat="61.3607916641" lon="9.94256665932">
		<tag k="name" v="Jonstjønnet" />
		<tag k="natural" v="water" />
		<tag k="ssr:stedsnr" v="68670" />
	</node>
	<node id="-129223" lat="61.2134123447" lon="9.70284952107">
		<tag k="name" v="Mjødokka" />
		<tag k="natural" v="water" />
		<tag k="ssr:stedsnr" v="68540" />
		<tag k="water" v="lake" />
	</node>
	<node id="-129222" lat="61.2296805552" lon="9.65718333506">
		<tag k="name" v="Leirbekken" />
		<tag k="ssr:stedsnr" v="68520" />
		<tag k="waterway" v="stream" />
	</node>
	<node id="-131269" lat="61.3771694417" lon="9.88207500391">
		<tag k="name" v="Tverråosen" />
		<tag k="natural" v="bay" />
		<tag k="ssr:stedsnr" v="960406" />
	</node>
	<node id="-129217" lat="61.1708944449" lon="10.2122055521">
		<tag k="alt_name" v="Hesttjønnsbekken" />
		<tag k="name" v="Hesttjønnbekken" />
		<tag k="ssr:stedsnr" v="68455" />
		<tag k="waterway" v="stream" />
	</node>
	<node id="-131264" lat="61.3261361087" lon="10.0768416665">
		<tag k="name" v="Svartbekken" />
		<tag k="ssr:stedsnr" v="960038" />
		<tag k="waterway" v="stream" />
	</node>
	<node id="-131259" lat="61.4072305519" lon="9.57479167313">
		<tag k="name" v="Jonasbekken" />
		<tag k="ssr:stedsnr" v="959874" />
		<tag k="waterway" v="stream" />
	</node>
	<node id="-131258" lat="61.4042527781" lon="9.78771389725">
		<tag k="name" v="Sæterbekken" />
		<tag k="ssr:stedsnr" v="959863" />
		<tag k="waterway" v="stream" />
	</node>
	<node id="-131255" lat="61.3507861146" lon="9.87880833965">
		<tag k="name" v="Hestbølbekken" />
		<tag k="ssr:stedsnr" v="959460" />
		<tag k="waterway" v="stream" />
	</node>
	<node id="-131253" lat="61.3775361099" lon="9.93363889351">
		<tag k="name" v="Volevika" />
		<tag k="natural" v="bay" />
		<tag k="ssr:stedsnr" v="959358" />
	</node>
	<node id="-129199" lat="61.2485305558" lon="10.3067916601">
		<tag k="name" v="Skardtjønnet" />
		<tag k="natural" v="water" />
		<tag k="ssr:stedsnr" v="68253" />
	</node>
	<node id="-129198" lat="61.1828416666" lon="9.67786666871">
		<tag k="name" v="Myrbekken" />
		<tag k="ssr:stedsnr" v="68751" />
		<tag k="waterway" v="stream" />
	</node>
	<node id="-128712" lat="61.3693583312" lon="9.81229444659">
		<tag k="name" v="Ropptjønnet" />
		<tag k="natural" v="water" />
		<tag k="ssr:stedsnr" v="372373" />
	</node>
	<node id="-129196" lat="61.1901527806" lon="9.90513055876">
		<tag k="alt_name" v="Nordre Valdrestjønn;Valdrestjønnet, nordre" />
		<tag k="name" v="Nordre Valdrestjønnet" />
		<tag k="natural" v="water" />
		<tag k="ssr:stedsnr" v="68746" />
	</node>
	<node id="-129194" lat="61.2010287301" lon="9.93043741047">
		<tag k="alt_name" v="Glåmen, vle" />
		<tag k="name" v="Vesle Glåmen" />
		<tag k="natural" v="water" />
		<tag k="ssr:stedsnr" v="68741" />
		<tag k="water" v="lake" />
	</node>
	<node id="-131240" lat="61.3853291139" lon="10.031299369">
		<tag k="name" v="Øvre Massingtjønnet" />
		<tag k="natural" v="water" />
		<tag k="ssr:stedsnr" v="918908" />
	</node>
	<node id="-129191" lat="61.1154083355" lon="10.1315361065">
		<tag k="name" v="Demmtjønnet" />
		<tag k="natural" v="water" />
		<tag k="ssr:stedsnr" v="68116" />
	</node>
	<node id="-129189" lat="61.2445499978" lon="9.57968334122">
		<tag k="name" v="Vakkerlibekken" />
		<tag k="ssr:stedsnr" v="67752" />
		<tag k="waterway" v="stream" />
	</node>
	<node id="-131235" lat="61.141747218" lon="9.96579999468">
		<tag k="fixme" v="multiple name tags, choose one and add the other to alt_name" />
		<tag k="name" v="Dokkfløy;Dokkfløyvatnet" />
		<tag k="natural" v="water" />
		<tag k="ssr:stedsnr" v="918762" />
		<tag k="water" v="lake" />
	</node>
	<node id="-129186" lat="61.3689361092" lon="10.0111694357">
		<tag k="name" v="Øvre Nosetjønnet" />
		<tag k="natural" v="water" />
		<tag k="ssr:stedsnr" v="58892" />
	</node>
	<node id="-131232" lat="61.3344888865" lon="9.95337500114">
		<tag k="name" v="Gryta" />
		<tag k="ssr:stedsnr" v="918692" />
		<tag k="waterway" v="stream" />
	</node>
	<node id="-131231" lat="61.2178194455" lon="9.74280000079">
		<tag k="alt_name" v="Karsjøen" />
		<tag k="name" v="Karssjøen" />
		<tag k="natural" v="water" />
		<tag k="ssr:stedsnr" v="918583" />
	</node>
	<node id="-129182" lat="61.3737944484" lon="10.0326583423">
		<tag k="name" v="Lykkjomtjønnet" />
		<tag k="natural" v="water" />
		<tag k="ssr:stedsnr" v="58189" />
	</node>
	<node id="-131227" lat="61.234583335" lon="9.93854165784">
		<tag k="name" v="Haukådalstjønnet" />
		<tag k="natural" v="water" />
		<tag k="ssr:stedsnr" v="918569" />
	</node>
	<node id="-131225" lat="61.2040694404" lon="10.1886305494">
		<tag k="name" v="Igletjønn" />
		<tag k="natural" v="water" />
		<tag k="ssr:stedsnr" v="918535" />
	</node>
	<node id="-129172" lat="61.1247138863" lon="10.0375694535">
		<tag k="name" v="Rosbekken" />
		<tag k="ssr:stedsnr" v="52880" />
		<tag k="waterway" v="stream" />
	</node>
	<node id="-129166" lat="61.3856900241" lon="9.90666516882">
		<tag k="name" v="Bennsjøen" />
		<tag k="natural" v="water" />
		<tag k="ssr:stedsnr" v="52517" />
		<tag k="water" v="lake" />
	</node>
	<node id="-131213" lat="61.1636500004" lon="10.1482277838">
		<tag k="name" v="Augga" />
		<tag k="ssr:stedsnr" v="918477" />
		<tag k="waterway" v="river" />
	</node>
	<node id="-131198" lat="61.2296777739" lon="9.54176667286">
		<tag k="alt_name" v="Skytterbuelva" />
		<tag k="name" v="Fjelldokka" />
		<tag k="ssr:stedsnr" v="917994" />
		<tag k="waterway" v="river" />
	</node>
	<node id="-129148" lat="61.2676805568" lon="10.1144666667">
		<tag k="name" v="Grossbakkbekken" />
		<tag k="ssr:stedsnr" v="51835" />
		<tag k="waterway" v="stream" />
	</node>
	<node id="-128703" lat="61.1901859208" lon="9.58689117391">
		<tag k="alt_name" v="Reinsjøen, øvre" />
		<tag k="name" v="Øvre Reinsjøen" />
		<tag k="natural" v="water" />
		<tag k="ssr:stedsnr" v="371955" />
		<tag k="water" v="lake" />
	</node>
	<node id="-131192" lat="61.349361115" lon="9.7181138889">
		<tag k="name" v="Sprangbekken" />
		<tag k="ssr:stedsnr" v="908341" />
		<tag k="waterway" v="stream" />
	</node>
	<node id="-129142" lat="61.235591663" lon="9.84163332691">
		<tag k="name" v="Dunglungsvika" />
		<tag k="natural" v="bay" />
		<tag k="ssr:stedsnr" v="51624" />
	</node>
	<node id="-131189" lat="61.3677361108" lon="10.0107000014">
		<tag k="name" v="Nedre Nosetjønnet" />
		<tag k="natural" v="water" />
		<tag k="ssr:stedsnr" v="907853" />
	</node>
	<node id="-129138" lat="61.3294611073" lon="9.75536389112">
		<tag k="name" v="Krokbekken" />
		<tag k="ssr:stedsnr" v="51510" />
		<tag k="waterway" v="stream" />
	</node>
	<node id="-131176" lat="61.1484444449" lon="10.1903500007">
		<tag k="name" v="Bergumsbekken" />
		<tag k="ssr:stedsnr" v="902839" />
		<tag k="waterway" v="stream" />
	</node>
	<node id="-129124" lat="61.41247778" lon="9.5429277794">
		<tag k="name" v="Lonavika" />
		<tag k="natural" v="bay" />
		<tag k="ssr:stedsnr" v="50889" />
	</node>
	<node id="-131167" lat="61.2572750008" lon="10.1154777754">
		<tag k="name" v="Sæterbekken" />
		<tag k="ssr:stedsnr" v="901965" />
		<tag k="waterway" v="stream" />
	</node>
	<node id="-129114" lat="61.300177779" lon="10.0461972304">
		<tag k="name" v="Fjellbekken" />
		<tag k="ssr:stedsnr" v="50220" />
		<tag k="waterway" v="stream" />
	</node>
	<node id="-131157" lat="61.2810527793" lon="10.0930027823">
		<tag k="name" v="Svarttjønn" />
		<tag k="natural" v="water" />
		<tag k="ssr:stedsnr" v="901635" />
	</node>
	<node id="-131156" lat="61.2166666698" lon="9.80595833135">
		<tag k="name" v="Hestsundet" />
		<tag k="natural" v="strait" />
		<tag k="ssr:stedsnr" v="901604" />
	</node>
	<node id="-129097" lat="61.3909916681" lon="9.89120555562">
		<tag k="name" v="Midtvollsvika" />
		<tag k="natural" v="bay" />
		<tag k="ssr:stedsnr" v="49679" />
	</node>
	<node id="-129096" lat="61.38488889" lon="9.91648889071">
		<tag k="name" v="Åbbortjønnet" />
		<tag k="natural" v="water" />
		<tag k="ssr:stedsnr" v="49673" />
	</node>
	<node id="-129095" lat="61.3893805582" lon="9.90259722582">
		<tag k="name" v="Åbborvika" />
		<tag k="natural" v="bay" />
		<tag k="ssr:stedsnr" v="49672" />
	</node>
	<node id="-129094" lat="61.3745583313" lon="9.91745833367">
		<tag k="name" v="Ukstjønnet" />
		<tag k="natural" v="water" />
		<tag k="ssr:stedsnr" v="49445" />
	</node>
	<node id="-129091" lat="61.3847388857" lon="9.78976944768">
		<tag k="name" v="Rustadbekken" />
		<tag k="ssr:stedsnr" v="49137" />
		<tag k="waterway" v="stream" />
	</node>
	<node id="-131138" lat="61.367852778" lon="9.73685278162">
		<tag k="name" v="Råttengstjønnet" />
		<tag k="natural" v="water" />
		<tag k="ssr:stedsnr" v="900886" />
	</node>
	<node id="-129085" lat="61.1788611128" lon="9.87266111743">
		<tag k="name" v="Holsfossen" />
		<tag k="natural" v="waterfall" />
		<tag k="ssr:stedsnr" v="38374" />
	</node>
	<node id="-129080" lat="61.2918249964" lon="10.1201000072">
		<tag k="name" v="Ulva" />
		<tag k="ssr:stedsnr" v="10794" />
		<tag k="waterway" v="stream" />
	</node>
	<node id="-129078" lat="61.2876527795" lon="9.58292777665">
		<tag k="name" v="Stubben" />
		<tag k="ssr:stedsnr" v="9236" />
		<tag k="waterway" v="stream" />
	</node>
	<node id="-129076" lat="61.2931833297" lon="9.51455277777">
		<tag k="name" v="Vesltjønn" />
		<tag k="natural" v="water" />
		<tag k="ssr:stedsnr" v="9233" />
	</node>
	<node id="-131120" lat="61.3940249966" lon="9.90333055907">
		<tag k="name" v="Gåsåvika" />
		<tag k="natural" v="bay" />
		<tag k="ssr:stedsnr" v="899648" />
	</node>
	<node id="-129066" lat="61.2560111079" lon="10.0689583353">
		<tag k="name" v="Vigga" />
		<tag k="ssr:stedsnr" v="8845" />
		<tag k="waterway" v="stream" />
	</node>
	<node id="-131112" lat="61.3587999982" lon="10.0106527731">
		<tag k="name" v="Nisjuvatnet" />
		<tag k="natural" v="water" />
		<tag k="ssr:stedsnr" v="858973" />
		<tag k="water" v="lake" />
	</node>
	<node id="-131108" lat="61.2510222234" lon="10.0153388948">
		<tag k="alt_name" v="Skarellbekken" />
		<tag k="name" v="Skaralbekken" />
		<tag k="ssr:stedsnr" v="858852" />
		<tag k="waterway" v="stream" />
	</node>
	<node id="-129059" lat="61.2942805569" lon="10.0047305568">
		<tag k="name" v="Ulva" />
		<tag k="ssr:stedsnr" v="8793" />
		<tag k="waterway" v="stream" />
	</node>
	<node id="-129058" lat="61.2582138931" lon="9.84717499725">
		<tag k="name" v="Horntjønnet" />
		<tag k="natural" v="water" />
		<tag k="ssr:stedsnr" v="8780" />
	</node>
	<node id="-131103" lat="61.2829274485" lon="10.072840257">
		<tag k="name" v="Raudsjøen" />
		<tag k="natural" v="water" />
		<tag k="ssr:stedsnr" v="858797" />
		<tag k="water" v="lake" />
	</node>
	<node id="-129054" lat="61.2766916628" lon="9.77800278138">
		<tag k="name" v="Mossjøen" />
		<tag k="natural" v="water" />
		<tag k="ssr:stedsnr" v="8764" />
		<tag k="water" v="lake" />
	</node>
	<node id="-131099" lat="61.2861666704" lon="9.81120832999">
		<tag k="alt_name" v="Svabekktjønnet, nedre" />
		<tag k="name" v="Nedre Svabekktjønnet" />
		<tag k="natural" v="water" />
		<tag k="ssr:stedsnr" v="858763" />
	</node>
	<node id="-131094" lat="61.30880833" lon="9.723275003">
		<tag k="name" v="Moatjønnet" />
		<tag k="natural" v="water" />
		<tag k="ssr:stedsnr" v="858676" />
	</node>
	<node id="-131092" lat="61.2985944462" lon="9.64022221945">
		<tag k="name" v="Sliputten" />
		<tag k="natural" v="water" />
		<tag k="ssr:stedsnr" v="858669" />
	</node>
	<node id="-129043" lat="61.3320194471" lon="9.57301666893">
		<tag k="alt_name" v="Leppvatnet, nedre" />
		<tag k="name" v="Nedre Leppvatnet" />
		<tag k="natural" v="water" />
		<tag k="ssr:stedsnr" v="8519" />
		<tag k="water" v="lake" />
	</node>
	<node id="-129042" lat="61.3198777738" lon="9.56168611507">
		<tag k="name" v="Hundtjønnlonen" />
		<tag k="natural" v="water" />
		<tag k="ssr:stedsnr" v="8508" />
		<tag k="water" v="lake" />
	</node>
	<node id="-129041" lat="61.2019944423" lon="10.2185444442">
		<tag k="name" v="Haukåa" />
		<tag k="ssr:stedsnr" v="8502" />
		<tag k="waterway" v="stream" />
	</node>
	<node id="-131085" lat="61.343349996" lon="9.53085833244">
		<tag k="name" v="Nordbuvatnet" />
		<tag k="natural" v="water" />
		<tag k="ssr:stedsnr" v="858523" />
		<tag k="water" v="lake" />
	</node>
	<node id="-131074" lat="61.3705027747" lon="9.92240833291">
		<tag k="alt_name" v="Tritjønnene" />
		<tag k="name" v="Tritjønna" />
		<tag k="natural" v="water" />
		<tag k="ssr:stedsnr" v="857666" />
	</node>
	<node id="-131080" lat="61.3524277738" lon="9.48535000316">
		<tag k="name" v="Gardbutjønnan" />
		<tag k="natural" v="water" />
		<tag k="ssr:stedsnr" v="858461" />
	</node>
	<node id="-129029" lat="61.3909750016" lon="9.70002777759">
		<tag k="name" v="Gryta" />
		<tag k="ssr:stedsnr" v="8395" />
		<tag k="waterway" v="stream" />
	</node>
	<node id="-129028" lat="61.3732611147" lon="9.69637500857">
		<tag k="name" v="Trontjønna" />
		<tag k="natural" v="water" />
		<tag k="ssr:stedsnr" v="8374" />
	</node>
	<node id="-129026" lat="61.4127083341" lon="9.85051665939">
		<tag k="name" v="Rundtjønnet" />
		<tag k="natural" v="water" />
		<tag k="ssr:stedsnr" v="8350" />
	</node>
	<node id="-128683" lat="61.3073306396" lon="9.55976762166">
		<tag k="name" v="Nordåosen" />
		<tag k="natural" v="bay" />
		<tag k="ssr:stedsnr" v="361642" />
	</node>
</osm>
