<?xml version="1.0" encoding="UTF-8"?>
<osm generator="osmapis" version="0.6">
	<node id="-130559" lat="61.2617472253" lon="9.98031666693">
		<tag k="name" v="Kvenndorra" />
		<tag k="natural" v="wetland" />
		<tag k="ssr:stedsnr" v="705986" />
	</node>
	<node id="-131069" lat="61.2223722257" lon="10.0310305546">
		<tag k="name" v="Limånmyra" />
		<tag k="natural" v="wetland" />
		<tag k="ssr:stedsnr" v="857474" />
	</node>
	<node id="-130554" lat="61.2603277778" lon="10.2320527708">
		<tag k="name" v="Engemyra" />
		<tag k="natural" v="wetland" />
		<tag k="ssr:stedsnr" v="676825" />
	</node>
	<node id="-130047" lat="61.326283331" lon="10.0853111128">
		<tag k="name" v="Skeismyra" />
		<tag k="natural" v="wetland" />
		<tag k="ssr:stedsnr" v="535032" />
	</node>
	<node id="-129790" lat="61.3285777819" lon="9.87831666429">
		<tag k="name" v="Åssteinan" />
		<tag k="natural" v="stone" />
		<tag k="ssr:stedsnr" v="414508" />
	</node>
	<node id="-128498" lat="61.1626638923" lon="10.1288638949">
		<tag k="name" v="Prestsletta" />
		<tag k="place" v="locality" />
		<tag k="ssr:stedsnr" v="299450" />
	</node>
	<node id="-131155" lat="61.3057472183" lon="10.1542416678">
		<tag k="landuse" v="meadow" />
		<tag k="name" v="Hjørnringen" />
		<tag k="ssr:stedsnr" v="901539" />
	</node>
	<node id="-130032" lat="61.2861555573" lon="10.2196305509">
		<tag k="name" v="Stormyra" />
		<tag k="natural" v="wetland" />
		<tag k="ssr:stedsnr" v="494732" />
	</node>
	<node id="-128424" lat="61.3226583297" lon="9.91147499849">
		<tag k="name" v="Rundmyra" />
		<tag k="natural" v="wetland" />
		<tag k="ssr:stedsnr" v="292824" />
	</node>
	<node id="-128494" lat="61.2004750026" lon="10.0416555576">
		<tag k="alt_name" v="Ned Fossetslættet;Forsetslettet, ned" />
		<tag k="name" v="Nedre Fossetslættet" />
		<tag k="place" v="locality" />
		<tag k="ssr:stedsnr" v="297454" />
	</node>
	<node id="-130557" lat="61.2840611094" lon="10.0437944381">
		<tag k="historic" v="shieling" />
		<tag k="name" v="Graupstølan" />
		<tag k="place" v="locality" />
		<tag k="ssr:stedsnr" v="704645" />
	</node>
	<node id="-129514" lat="61.1326694456" lon="10.0834888897">
		<tag k="name" v="Toftmyra" />
		<tag k="natural" v="wetland" />
		<tag k="ssr:stedsnr" v="173884" />
	</node>
	<node id="-128679" lat="61.3723527802" lon="9.9710166623">
		<tag k="name" v="Lengnskjørkja" />
		<tag k="natural" v="stone" />
		<tag k="old_name" v="Lengnskørkja" />
		<tag k="ssr:stedsnr" v="414054" />
	</node>
	<node id="-129509" lat="61.2179611117" lon="10.0579138855">
		<tag k="name" v="Jomyra" />
		<tag k="natural" v="wetland" />
		<tag k="ssr:stedsnr" v="173562" />
	</node>
	<node id="-131327" lat="61.2240583378" lon="10.1365388866">
		<tag k="name" v="Kollumsmyra" />
		<tag k="natural" v="wetland" />
		<tag k="ssr:stedsnr" v="962370" />
	</node>
	<node id="-130470" lat="61.3111027756" lon="10.1526277708">
		<tag k="historic" v="shieling" />
		<tag k="name" v="Veslestylen" />
		<tag k="place" v="locality" />
		<tag k="ssr:stedsnr" v="658530" />
	</node>
	<node id="-128592" lat="61.3303527807" lon="9.8361583385">
		<tag k="name" v="Nedre Sålåmyra" />
		<tag k="natural" v="wetland" />
		<tag k="ssr:stedsnr" v="353535" />
	</node>
	<node id="-131037" lat="61.2642194452" lon="10.2545472173">
		<tag k="name" v="Blautmyra" />
		<tag k="natural" v="wetland" />
		<tag k="ssr:stedsnr" v="844451" />
	</node>
	<node id="-129500" lat="61.25273056" lon="10.0824194471">
		<tag k="landuse" v="meadow" />
		<tag k="name" v="Solsetengene" />
		<tag k="ssr:stedsnr" v="172947" />
	</node>
	<node id="-130042" lat="61.3991888869" lon="9.72824723">
		<tag k="historic" v="shieling" />
		<tag k="name" v="Ormvollvollen" />
		<tag k="place" v="locality" />
		<tag k="ssr:stedsnr" v="534328" />
	</node>
	<node id="-129498" lat="61.3747472213" lon="9.64508888562">
		<tag k="landuse" v="meadow" />
		<tag k="name" v="Hanssonlykkja" />
		<tag k="ssr:stedsnr" v="172939" />
	</node>
	<node id="-128473" lat="61.2505416668" lon="10.0763250042">
		<tag k="landuse" v="meadow" />
		<tag k="name" v="Solsethågån" />
		<tag k="ssr:stedsnr" v="294866" />
	</node>
	<node id="-128472" lat="61.2487250004" lon="10.1036777759">
		<tag k="name" v="Brennsetmyra" />
		<tag k="natural" v="wetland" />
		<tag k="ssr:stedsnr" v="294864" />
	</node>
	<node id="-128470" lat="61.24822778" lon="9.95613333374">
		<tag k="historic" v="shieling" />
		<tag k="name" v="Blestervollen" />
		<tag k="place" v="locality" />
		<tag k="ssr:stedsnr" v="294799" />
	</node>
	<node id="-128469" lat="61.2489444483" lon="9.96646111481">
		<tag k="historic" v="shieling" />
		<tag k="name" v="Smelislettet" />
		<tag k="place" v="locality" />
		<tag k="ssr:stedsnr" v="294779" />
	</node>
	<node id="-129881" lat="61.231413387" lon="10.1275045189">
		<tag k="name" v="Stavlimyra" />
		<tag k="natural" v="wetland" />
		<tag k="ssr:stedsnr" v="432290" />
	</node>
	<node id="-129614" lat="61.3567361086" lon="9.85969444639">
		<tag k="name" v="Vintermyra" />
		<tag k="natural" v="wetland" />
		<tag k="ssr:stedsnr" v="231532" />
	</node>
	<node id="-130467" lat="61.3111777811" lon="10.1244694369">
		<tag k="name" v="Hopperslettmyra" />
		<tag k="natural" v="wetland" />
		<tag k="ssr:stedsnr" v="658508" />
	</node>
	<node id="-128463" lat="61.3139361071" lon="10.1468694422">
		<tag k="landuse" v="meadow" />
		<tag k="name" v="Nedre Selbota" />
		<tag k="ssr:stedsnr" v="294539" />
	</node>
	<node id="-128462" lat="61.2973972242" lon="10.1564000092">
		<tag k="name" v="Nordre Nustadhagan" />
		<tag k="place" v="locality" />
		<tag k="ssr:stedsnr" v="294538" />
	</node>
	<node id="-130125" lat="61.2677638851" lon="9.94602499979">
		<tag k="name" v="Fossmyra" />
		<tag k="natural" v="wetland" />
		<tag k="ssr:stedsnr" v="537989" />
	</node>
	<node id="-128418" lat="61.3476972207" lon="9.85492222621">
		<tag k="name" v="Helregnsmyra" />
		<tag k="natural" v="wetland" />
		<tag k="ssr:stedsnr" v="292459" />
	</node>
	<node id="-129482" lat="61.2618944468" lon="10.0519722262">
		<tag k="name" v="Rundmyra" />
		<tag k="natural" v="wetland" />
		<tag k="ssr:stedsnr" v="172450" />
	</node>
	<node id="-129481" lat="61.2691861104" lon="10.0607388856">
		<tag k="name" v="Tjønnmyra" />
		<tag k="natural" v="wetland" />
		<tag k="ssr:stedsnr" v="172429" />
	</node>
	<node id="-129992" lat="61.2252083296" lon="10.338216665">
		<tag k="name" v="Larsmyra" />
		<tag k="natural" v="wetland" />
		<tag k="ssr:stedsnr" v="493459" />
	</node>
	<node id="-129478" lat="61.2808333302" lon="9.93227777001">
		<tag k="name" v="Kloppmyra" />
		<tag k="natural" v="wetland" />
		<tag k="ssr:stedsnr" v="172181" />
	</node>
	<node id="-129476" lat="61.3215333297" lon="9.60086666801">
		<tag k="name" v="Hundtjønnmyrene" />
		<tag k="natural" v="wetland" />
		<tag k="ssr:stedsnr" v="172165" />
	</node>
	<node id="-129474" lat="61.3466999967" lon="9.97629722692">
		<tag k="name" v="Madsimyrene" />
		<tag k="natural" v="wetland" />
		<tag k="ssr:stedsnr" v="171988" />
	</node>
	<node id="-129082" lat="61.2822944453" lon="10.054016662">
		<tag k="name" v="Brenntjønnmyra" />
		<tag k="natural" v="wetland" />
		<tag k="ssr:stedsnr" v="36635" />
	</node>
	<node id="-128448" lat="61.4052469523" lon="9.61910177768">
		<tag k="name" v="Per Dalen" />
		<tag k="natural" v="stone" />
		<tag k="ssr:stedsnr" v="293950" />
	</node>
	<node id="-128416" lat="61.3471277779" lon="9.82944444645">
		<tag k="name" v="Langmyra" />
		<tag k="natural" v="wetland" />
		<tag k="ssr:stedsnr" v="292643" />
	</node>
	<node id="-131006" lat="61.3702555551" lon="9.75417778239">
		<tag k="name" v="Svartholmyra" />
		<tag k="natural" v="wetland" />
		<tag k="ssr:stedsnr" v="840894" />
	</node>
	<node id="-130634" lat="61.2202499984" lon="10.0429472267">
		<tag k="name" v="Geitmyra" />
		<tag k="natural" v="wetland" />
		<tag k="ssr:stedsnr" v="719581" />
	</node>
	<node id="-129465" lat="61.3027916682" lon="9.804638882">
		<tag k="name" v="Tørrfurumyra" />
		<tag k="natural" v="wetland" />
		<tag k="ssr:stedsnr" v="171565" />
	</node>
	<node id="-129464" lat="61.3231027777" lon="9.82356110267">
		<tag k="name" v="Hanslihågån" />
		<tag k="place" v="locality" />
		<tag k="ssr:stedsnr" v="171559" />
	</node>
	<node id="-131172" lat="61.2452416642" lon="10.2793222293">
		<tag k="name" v="Hågåmyra" />
		<tag k="natural" v="wetland" />
		<tag k="ssr:stedsnr" v="902326" />
	</node>
	<node id="-128751" lat="61.2578750014" lon="10.2694500009">
		<tag k="name" v="Furumyrene" />
		<tag k="natural" v="wetland" />
		<tag k="ssr:stedsnr" v="372858" />
	</node>
	<node id="-130995" lat="61.2783555545" lon="10.0923305637">
		<tag k="name" v="Skalmyra" />
		<tag k="natural" v="wetland" />
		<tag k="ssr:stedsnr" v="840621" />
	</node>
	<node id="-129970" lat="61.2410749962" lon="9.97218333549">
		<tag k="alt_name" v="Oppsetslettet" />
		<tag k="name" v="Oppsetslættet" />
		<tag k="place" v="locality" />
		<tag k="ssr:stedsnr" v="492329" />
	</node>
	<node id="-130993" lat="61.2113499988" lon="9.8137166675">
		<tag k="name" v="Sjælsteinan" />
		<tag k="natural" v="stone" />
		<tag k="ssr:stedsnr" v="840591" />
	</node>
	<node id="-130480" lat="61.2678583298" lon="10.0814111054">
		<tag k="name" v="Raudalsmyra" />
		<tag k="natural" v="wetland" />
		<tag k="ssr:stedsnr" v="658955" />
	</node>
	<node id="-130991" lat="61.3313083335" lon="9.74440278525">
		<tag k="name" v="Steinbakkringen" />
		<tag k="place" v="locality" />
		<tag k="ssr:stedsnr" v="840465" />
	</node>
	<node id="-128430" lat="61.3708777752" lon="9.73028333243">
		<tag k="name" v="Råttengsslettet" />
		<tag k="place" v="locality" />
		<tag k="ssr:stedsnr" v="293097" />
	</node>
	<node id="-130477" lat="61.2567694419" lon="10.1113972202">
		<tag k="landuse" v="meadow" />
		<tag k="name" v="Oleringen" />
		<tag k="ssr:stedsnr" v="658937" />
	</node>
	<node id="-128426" lat="61.3216305562" lon="10.0025277821">
		<tag k="historic" v="shieling" />
		<tag k="name" v="Møylilykkja" />
		<tag k="place" v="locality" />
		<tag k="ssr:stedsnr" v="292933" />
	</node>
	<node id="-130984" lat="61.3400777736" lon="9.66717777045">
		<tag k="name" v="Sagbakkmyra" />
		<tag k="natural" v="wetland" />
		<tag k="ssr:stedsnr" v="840326" />
	</node>
	<node id="-130471" lat="61.3082305535" lon="10.1506000072">
		<tag k="historic" v="shieling" />
		<tag k="name" v="Lillestylen" />
		<tag k="place" v="locality" />
		<tag k="ssr:stedsnr" v="658533" />
	</node>
	<node id="-130982" lat="61.2758861141" lon="10.2078194472">
		<tag k="name" v="Rundmyra" />
		<tag k="natural" v="wetland" />
		<tag k="ssr:stedsnr" v="840157" />
	</node>
	<node id="-130469" lat="61.3052916657" lon="10.1402805579">
		<tag k="name" v="Andersringen" />
		<tag k="place" v="locality" />
		<tag k="ssr:stedsnr" v="658517" />
	</node>
	<node id="-128932" lat="61.191939485" lon="10.1340634629">
		<tag k="landuse" v="quarry" />
		<tag k="name" v="Granligruva" />
		<tag k="ssr:stedsnr" v="982208" />
	</node>
	<node id="-130979" lat="61.3653638901" lon="9.73396944474">
		<tag k="historic" v="shieling" />
		<tag k="name" v="Brekkvollen" />
		<tag k="place" v="locality" />
		<tag k="ssr:stedsnr" v="840076" />
	</node>
	<node id="-128930" lat="61.2924606014" lon="10.124388007">
		<tag k="landuse" v="quarry" />
		<tag k="name" v="Kankerud fjelltak" />
		<tag k="ssr:stedsnr" v="982206" />
	</node>
	<node id="-128417" lat="61.3838222238" lon="9.73241943825">
		<tag k="landuse" v="meadow" />
		<tag k="name" v="Kvisbergvollen" />
		<tag k="ssr:stedsnr" v="292267" />
	</node>
	<node id="-130976" lat="61.3484250012" lon="9.95356110387">
		<tag k="name" v="Stohaugslettet" />
		<tag k="place" v="locality" />
		<tag k="ssr:stedsnr" v="839995" />
	</node>
	<node id="-128415" lat="61.3494555535" lon="9.85115556042">
		<tag k="name" v="Bytingsmyra" />
		<tag k="natural" v="wetland" />
		<tag k="ssr:stedsnr" v="292623" />
	</node>
	<node id="-128924" lat="61.2258379792" lon="10.2086621704">
		<tag k="name" v="Linflåa" />
		<tag k="place" v="locality" />
		<tag k="ssr:stedsnr" v="982194" />
	</node>
	<node id="-128666" lat="61.2585722224" lon="10.0759833286">
		<tag k="landuse" v="meadow" />
		<tag k="name" v="Solbjørgsengene" />
		<tag k="ssr:stedsnr" v="355934" />
	</node>
	<node id="-128410" lat="61.3272305538" lon="10.0701166626">
		<tag k="name" v="Brannåsmyra" />
		<tag k="natural" v="wetland" />
		<tag k="ssr:stedsnr" v="292036" />
	</node>
	<node id="-130799" lat="61.2865555544" lon="10.2204527694">
		<tag k="name" v="Ovrestormyra" />
		<tag k="natural" v="wetland" />
		<tag k="ssr:stedsnr" v="779139" />
	</node>
	<node id="-128408" lat="61.315180559" lon="10.0032388893">
		<tag k="name" v="Karimyra" />
		<tag k="natural" v="wetland" />
		<tag k="ssr:stedsnr" v="292001" />
	</node>
	<node id="-130967" lat="61.2960083326" lon="9.7993722147">
		<tag k="name" v="Huguskåla" />
		<tag k="place" v="locality" />
		<tag k="ssr:stedsnr" v="839567" />
	</node>
	<node id="-128665" lat="61.1596833349" lon="10.0236277823">
		<tag k="name" v="Måråbeitmyrene" />
		<tag k="natural" v="wetland" />
		<tag k="ssr:stedsnr" v="355912" />
	</node>
	<node id="-131132" lat="61.3341055565" lon="10.197372231">
		<tag k="historic" v="shieling" />
		<tag k="name" v="Blåbokstylen" />
		<tag k="place" v="locality" />
		<tag k="ssr:stedsnr" v="900198" />
	</node>
	<node id="-130450" lat="61.3895055536" lon="9.58580832742">
		<tag k="name" v="Tømmerhaugmyra" />
		<tag k="natural" v="wetland" />
		<tag k="ssr:stedsnr" v="657962" />
	</node>
	<node id="-129810" lat="61.3776333301" lon="9.72941110639">
		<tag k="landuse" v="meadow" />
		<tag k="name" v="Høgvollen" />
		<tag k="ssr:stedsnr" v="415056" />
	</node>
	<node id="-130968" lat="61.3097416648" lon="9.87005833964">
		<tag k="historic" v="shieling" />
		<tag k="name" v="Gikksæter" />
		<tag k="place" v="locality" />
		<tag k="ssr:stedsnr" v="839568" />
	</node>
	<node id="-130957" lat="61.3200916665" lon="10.1703666641">
		<tag k="historic" v="shieling" />
		<tag k="name" v="Jenshusringen" />
		<tag k="place" v="locality" />
		<tag k="ssr:stedsnr" v="839060" />
	</node>
	<node id="-129930" lat="61.2534722238" lon="9.8633027837">
		<tag k="name" v="Brettingsmyra" />
		<tag k="natural" v="wetland" />
		<tag k="ssr:stedsnr" v="433743" />
	</node>
	<node id="-130455" lat="61.3448499965" lon="9.97281944866">
		<tag k="name" v="Musholmyrene" />
		<tag k="natural" v="wetland" />
		<tag k="ssr:stedsnr" v="657984" />
	</node>
	<node id="-129636" lat="61.3751083373" lon="9.75498610934">
		<tag k="name" v="Elgslettet" />
		<tag k="place" v="locality" />
		<tag k="ssr:stedsnr" v="232092" />
	</node>
	<node id="-130949" lat="61.3271416702" lon="9.93746389218">
		<tag k="name" v="Lortpussan" />
		<tag k="natural" v="wetland" />
		<tag k="ssr:stedsnr" v="838847" />
	</node>
	<node id="-130436" lat="61.3039194461" lon="9.76652777515">
		<tag k="name" v="Vakkeråsen" />
		<tag k="place" v="locality" />
		<tag k="ssr:stedsnr" v="657563" />
	</node>
	<node id="-130433" lat="61.3384916706" lon="9.69525277171">
		<tag k="name" v="Stormyra" />
		<tag k="natural" v="wetland" />
		<tag k="ssr:stedsnr" v="657340" />
	</node>
	<node id="-130943" lat="61.3969694475" lon="9.72503055219">
		<tag k="name" v="Monsskål" />
		<tag k="place" v="locality" />
		<tag k="ssr:stedsnr" v="838362" />
	</node>
	<node id="-130942" lat="61.3811527788" lon="9.72969721631">
		<tag k="name" v="Besskveinslettene" />
		<tag k="place" v="locality" />
		<tag k="ssr:stedsnr" v="838319" />
	</node>
	<node id="-130941" lat="61.3942111107" lon="9.78671389312">
		<tag k="name" v="Magnhildmyra" />
		<tag k="natural" v="wetland" />
		<tag k="ssr:stedsnr" v="838157" />
	</node>
	<node id="-129431" lat="61.2681111121" lon="9.42046110527">
		<tag k="name" v="Gråmyrene" />
		<tag k="natural" v="wetland" />
		<tag k="ssr:stedsnr" v="130253" />
	</node>
	<node id="-129399" lat="61.2279166677" lon="10.3338972295">
		<tag k="alt_name" v="Holbekkmyra" />
		<tag k="name" v="Hølbekkmyra" />
		<tag k="natural" v="wetland" />
		<tag k="ssr:stedsnr" v="129298" />
	</node>
	<node id="-128886" lat="61.4026083369" lon="9.76285832625">
		<tag k="name" v="Brenndalsmyrene" />
		<tag k="natural" v="wetland" />
		<tag k="ssr:stedsnr" v="899344" />
	</node>
	<node id="-130420" lat="61.3325444418" lon="9.94190277788">
		<tag k="name" v="Byttingsmyra" />
		<tag k="natural" v="wetland" />
		<tag k="ssr:stedsnr" v="656876" />
	</node>
	<node id="-128421" lat="61.321791667" lon="9.82662778311">
		<tag k="landuse" v="meadow" />
		<tag k="name" v="Veslihågån" />
		<tag k="ssr:stedsnr" v="292520" />
	</node>
	<node id="-130416" lat="61.3332944485" lon="9.83675833338">
		<tag k="name" v="Øvre Sålåmyra" />
		<tag k="natural" v="wetland" />
		<tag k="ssr:stedsnr" v="656547" />
	</node>
	<node id="-130415" lat="61.3354222207" lon="9.85705555101">
		<tag k="name" v="Bjørnbakkmyra" />
		<tag k="natural" v="wetland" />
		<tag k="ssr:stedsnr" v="656543" />
	</node>
	<node id="-130413" lat="61.3923722226" lon="9.72363334126">
		<tag k="name" v="Endarompa" />
		<tag k="place" v="locality" />
		<tag k="ssr:stedsnr" v="656285" />
	</node>
	<node id="-130412" lat="61.3905305541" lon="9.7252749969">
		<tag k="name" v="Systurompa" />
		<tag k="place" v="locality" />
		<tag k="ssr:stedsnr" v="656284" />
	</node>
	<node id="-130922" lat="61.3079194437" lon="10.0300749957">
		<tag k="name" v="Bårdsliflågån" />
		<tag k="natural" v="wetland" />
		<tag k="ssr:stedsnr" v="797821" />
	</node>
	<node id="-130921" lat="61.3039527751" lon="10.0067777779">
		<tag k="alt_name" v="Oksummyra" />
		<tag k="name" v="Uksummyra" />
		<tag k="natural" v="wetland" />
		<tag k="ssr:stedsnr" v="797820" />
	</node>
	<node id="-128871" lat="61.2425194452" lon="10.3355027697">
		<tag k="name" v="Ståkåmyra" />
		<tag k="natural" v="wetland" />
		<tag k="ssr:stedsnr" v="477347" />
	</node>
	<node id="-129613" lat="61.400075" lon="9.78496943537">
		<tag k="name" v="Gjestebumyra" />
		<tag k="natural" v="wetland" />
		<tag k="ssr:stedsnr" v="231141" />
	</node>
	<node id="-130403" lat="61.3665222252" lon="9.90801945186">
		<tag k="name" v="Smehaugslettet" />
		<tag k="place" v="locality" />
		<tag k="ssr:stedsnr" v="655391" />
	</node>
	<node id="-128866" lat="61.2406527759" lon="10.0823777787">
		<tag k="name" v="Teigumsengene" />
		<tag k="place" v="locality" />
		<tag k="ssr:stedsnr" v="476865" />
	</node>
	<node id="-129083" lat="61.2902055547" lon="10.0362166734">
		<tag k="name" v="Megardsslettet" />
		<tag k="place" v="locality" />
		<tag k="ssr:stedsnr" v="36639" />
	</node>
	<node id="-128680" lat="61.3892249963" lon="9.77316666743">
		<tag k="historic" v="shieling" />
		<tag k="name" v="Kjerringstylen" />
		<tag k="place" v="locality" />
		<tag k="ssr:stedsnr" v="360474" />
	</node>
	<node id="-129375" lat="61.1263083293" lon="9.98790556293">
		<tag k="alt_name" v="Blestermyra" />
		<tag k="name" v="Blæstermyra" />
		<tag k="natural" v="wetland" />
		<tag k="ssr:stedsnr" v="128072" />
	</node>
	<node id="-131135" lat="61.295141664" lon="9.79895832589">
		<tag k="name" v="Rypvollslettet" />
		<tag k="place" v="locality" />
		<tag k="ssr:stedsnr" v="900553" />
	</node>
	<node id="-129373" lat="61.1323083336" lon="10.1870472283">
		<tag k="name" v="Flatom" />
		<tag k="place" v="locality" />
		<tag k="ssr:stedsnr" v="128059" />
	</node>
	<node id="-130908" lat="61.3642277771" lon="9.91397499374">
		<tag k="name" v="Svartdalsslettet" />
		<tag k="place" v="locality" />
		<tag k="ssr:stedsnr" v="797672" />
	</node>
	<node id="-131130" lat="61.2996611119" lon="9.96305554878">
		<tag k="landuse" v="meadow" />
		<tag k="name" v="Glåmsenget" />
		<tag k="ssr:stedsnr" v="900163" />
	</node>
	<node id="-129423" lat="61.2699000043" lon="10.2204749946">
		<tag k="name" v="Langmyra" />
		<tag k="natural" v="wetland" />
		<tag k="ssr:stedsnr" v="129852" />
	</node>
	<node id="-130392" lat="61.3008499987" lon="10.1213166703">
		<tag k="name" v="Rudstugumyra" />
		<tag k="natural" v="wetland" />
		<tag k="ssr:stedsnr" v="615762" />
	</node>
	<node id="-128441" lat="61.3322416668" lon="9.81488888175">
		<tag k="name" v="Langmyra" />
		<tag k="natural" v="wetland" />
		<tag k="ssr:stedsnr" v="293628" />
	</node>
	<node id="-129364" lat="61.372752777" lon="10.0456083383">
		<tag k="name" v="Ørnkampmyra" />
		<tag k="natural" v="wetland" />
		<tag k="ssr:stedsnr" v="118143" />
	</node>
	<node id="-130303" lat="61.2322111072" lon="10.0962805471">
		<tag k="name" v="Innlegginga" />
		<tag k="place" v="locality" />
		<tag k="ssr:stedsnr" v="602226" />
	</node>
	<node id="-129874" lat="61.1350111143" lon="10.0649944524">
		<tag k="name" v="Sjuputtmyra" />
		<tag k="natural" v="wetland" />
		<tag k="ssr:stedsnr" v="432070" />
	</node>
	<node id="-129549" lat="61.3293555535" lon="10.0791722163">
		<tag k="name" v="Lonan" />
		<tag k="natural" v="wetland" />
		<tag k="ssr:stedsnr" v="189958" />
	</node>
	<node id="-128847" lat="61.1744638866" lon="10.0053833325">
		<tag k="name" v="Stormyra" />
		<tag k="natural" v="wetland" />
		<tag k="ssr:stedsnr" v="476042" />
	</node>
	<node id="-129870" lat="61.2695638854" lon="9.5794722198">
		<tag k="name" v="Revsjømyrene" />
		<tag k="natural" v="wetland" />
		<tag k="ssr:stedsnr" v="422062" />
	</node>
	<node id="-131298" lat="61.290061107" lon="10.1025333337">
		<tag k="name" v="Mortenget" />
		<tag k="place" v="locality" />
		<tag k="ssr:stedsnr" v="961658" />
	</node>
	<node id="-128840" lat="61.3696472237" lon="9.74555555903">
		<tag k="name" v="Ømbjørgstein" />
		<tag k="natural" v="stone" />
		<tag k="ssr:stedsnr" v="475892" />
	</node>
	<node id="-128839" lat="61.3566305579" lon="9.72175833172">
		<tag k="name" v="Nesshaugmyra" />
		<tag k="natural" v="wetland" />
		<tag k="ssr:stedsnr" v="475883" />
	</node>
	<node id="-129861" lat="61.2564805555" lon="10.2575388823">
		<tag k="name" v="Einstadstylmyra" />
		<tag k="natural" v="wetland" />
		<tag k="ssr:stedsnr" v="419449" />
	</node>
	<node id="-129859" lat="61.2316583332" lon="10.3212583353">
		<tag k="name" v="Skyttermyra" />
		<tag k="natural" v="wetland" />
		<tag k="ssr:stedsnr" v="419357" />
	</node>
	<node id="-128833" lat="61.294466669" lon="10.0081944409">
		<tag k="name" v="Småmyrene" />
		<tag k="natural" v="wetland" />
		<tag k="ssr:stedsnr" v="475688" />
	</node>
	<node id="-129344" lat="61.2337972262" lon="10.3385249984">
		<tag k="name" v="Rundmyra" />
		<tag k="natural" v="wetland" />
		<tag k="ssr:stedsnr" v="113330" />
	</node>
	<node id="-130365" lat="61.3368500037" lon="9.69682221457">
		<tag k="name" v="Stormyra" />
		<tag k="natural" v="wetland" />
		<tag k="ssr:stedsnr" v="614651" />
	</node>
	<node id="-129340" lat="61.2733333321" lon="10.0747916745">
		<tag k="name" v="Krokmyra" />
		<tag k="natural" v="wetland" />
		<tag k="ssr:stedsnr" v="112959" />
	</node>
	<node id="-130875" lat="61.1705694463" lon="9.80574444874">
		<tag k="name" v="Oppsjømyra" />
		<tag k="natural" v="wetland" />
		<tag k="ssr:stedsnr" v="796744" />
	</node>
	<node id="-129849" lat="61.2283194423" lon="10.1497111074">
		<tag k="name" v="Brendmyra" />
		<tag k="natural" v="wetland" />
		<tag k="ssr:stedsnr" v="416357" />
	</node>
	<node id="-129336" lat="61.2472111108" lon="9.92423610688">
		<tag k="name" v="Stormyra" />
		<tag k="natural" v="wetland" />
		<tag k="ssr:stedsnr" v="112860" />
	</node>
	<node id="-128564" lat="61.3081460323" lon="10.1014910246">
		<tag k="name" v="Langmyra" />
		<tag k="natural" v="wetland" />
		<tag k="ssr:stedsnr" v="312755" />
	</node>
	<node id="-129334" lat="61.2662999959" lon="10.0952500028">
		<tag k="landuse" v="meadow" />
		<tag k="name" v="Bøhmerringen" />
		<tag k="ssr:stedsnr" v="112816" />
	</node>
	<node id="-129417" lat="61.3141166671" lon="9.93798611137">
		<tag k="name" v="Flågåslettet" />
		<tag k="place" v="locality" />
		<tag k="ssr:stedsnr" v="129652" />
	</node>
	<node id="-129843" lat="61.195552778" lon="9.95734723038">
		<tag k="name" v="Svarthusmyrene" />
		<tag k="natural" v="wetland" />
		<tag k="ssr:stedsnr" v="416234" />
	</node>
	<node id="-128818" lat="61.3468805528" lon="9.91825555587">
		<tag k="name" v="Nysæterkjølen" />
		<tag k="place" v="locality" />
		<tag k="ssr:stedsnr" v="474963" />
	</node>
	<node id="-128819" lat="61.2823527749" lon="10.2194861057">
		<tag k="name" v="Kojemyra" />
		<tag k="natural" v="wetland" />
		<tag k="ssr:stedsnr" v="475140" />
	</node>
	<node id="-129840" lat="61.2067361132" lon="10.0775472145">
		<tag k="name" v="Graffermorka" />
		<tag k="place" v="locality" />
		<tag k="ssr:stedsnr" v="416046" />
	</node>
	<node id="-129327" lat="61.2995611136" lon="10.1232888929">
		<tag k="name" v="Kjøttmysuringen" />
		<tag k="place" v="locality" />
		<tag k="ssr:stedsnr" v="112526" />
	</node>
	<node id="-130350" lat="61.1934555522" lon="10.0123138897">
		<tag k="alt_name" v="Svendsrudlislettet" />
		<tag k="name" v="Svensrudlislættet" />
		<tag k="place" v="locality" />
		<tag k="ssr:stedsnr" v="614484" />
	</node>
	<node id="-129616" lat="61.3285194483" lon="9.845358342">
		<tag k="name" v="Flatemsmyra" />
		<tag k="natural" v="wetland" />
		<tag k="ssr:stedsnr" v="231587" />
	</node>
	<node id="-129324" lat="61.2101555593" lon="9.82723611684">
		<tag k="name" v="Dokkvollan" />
		<tag k="place" v="locality" />
		<tag k="ssr:stedsnr" v="112512" />
	</node>
	<node id="-129074" lat="61.3485277766" lon="10.1228138862">
		<tag k="name" v="Stormyra" />
		<tag k="natural" v="wetland" />
		<tag k="ssr:stedsnr" v="8977" />
	</node>
	<node id="-128809" lat="61.3182500022" lon="9.87488889698">
		<tag k="name" v="Nigardshågån" />
		<tag k="place" v="locality" />
		<tag k="ssr:stedsnr" v="474628" />
	</node>
	<node id="-129320" lat="61.2576027752" lon="10.0152888962">
		<tag k="name" v="Sundmyra" />
		<tag k="natural" v="wetland" />
		<tag k="ssr:stedsnr" v="112433" />
	</node>
	<node id="-131292" lat="61.3137944427" lon="10.1519055526">
		<tag k="landuse" v="meadow" />
		<tag k="name" v="Storengene" />
		<tag k="ssr:stedsnr" v="961537" />
	</node>
	<node id="-130854" lat="61.3367222184" lon="9.72130278375">
		<tag k="name" v="Nedre Merramyra" />
		<tag k="natural" v="wetland" />
		<tag k="ssr:stedsnr" v="786308" />
	</node>
	<node id="-131365" lat="61.3622167298" lon="9.8212098078">
		<tag k="name" v="Lykkjeslettet" />
		<tag k="place" v="locality" />
		<tag k="ssr:stedsnr" v="974325" />
	</node>
	<node id="-128802" lat="61.3355166626" lon="10.1880055549">
		<tag k="name" v="Martinstylen" />
		<tag k="place" v="locality" />
		<tag k="ssr:stedsnr" v="474179" />
	</node>
	<node id="-129313" lat="61.2759222227" lon="10.2377222202">
		<tag k="name" v="Kolhusmyra" />
		<tag k="natural" v="wetland" />
		<tag k="ssr:stedsnr" v="112175" />
	</node>
	<node id="-128800" lat="61.391986114" lon="9.8078500082">
		<tag k="name" v="Heiskogen" />
		<tag k="place" v="locality" />
		<tag k="ssr:stedsnr" v="474088" />
	</node>
	<node id="-129310" lat="61.2692666699" lon="10.2349972226">
		<tag k="name" v="Kloppmyra" />
		<tag k="natural" v="wetland" />
		<tag k="ssr:stedsnr" v="112102" />
	</node>
	<node id="-128797" lat="61.3181861098" lon="10.1496749974">
		<tag k="historic" v="shieling" />
		<tag k="name" v="Blindjordslettet" />
		<tag k="place" v="locality" />
		<tag k="ssr:stedsnr" v="474067" />
	</node>
	<node id="-128474" lat="61.2330500011" lon="10.1090138917">
		<tag k="name" v="Kolhusmyra" />
		<tag k="natural" v="wetland" />
		<tag k="ssr:stedsnr" v="294872" />
	</node>
	<node id="-129306" lat="61.3576777769" lon="9.98436389424">
		<tag k="name" v="Bergsengene" />
		<tag k="place" v="locality" />
		<tag k="ssr:stedsnr" v="111994" />
	</node>
	<node id="-128793" lat="61.3044027806" lon="10.0098750009">
		<tag k="name" v="Finntottslettet" />
		<tag k="place" v="locality" />
		<tag k="ssr:stedsnr" v="474008" />
	</node>
	<node id="-130180" lat="61.212774997" lon="10.0649777812">
		<tag k="alt_name" v="Graffermarka" />
		<tag k="name" v="Graffermorka" />
		<tag k="place" v="locality" />
		<tag k="ssr:stedsnr" v="553452" />
	</node>
	<node id="-129301" lat="61.3586361137" lon="9.9110444439">
		<tag k="name" v="Svartdalsslettet" />
		<tag k="place" v="locality" />
		<tag k="ssr:stedsnr" v="111950" />
	</node>
	<node id="-129812" lat="61.2734083351" lon="10.2066249953">
		<tag k="name" v="Kjølrønningmyra" />
		<tag k="natural" v="wetland" />
		<tag k="ssr:stedsnr" v="415070" />
	</node>
	<node id="-129326" lat="61.3028944475" lon="10.1328361031">
		<tag k="name" v="Skredderslettet" />
		<tag k="place" v="locality" />
		<tag k="ssr:stedsnr" v="112525" />
	</node>
	<node id="-130834" lat="61.2336666706" lon="10.330750003">
		<tag k="name" v="Finntjønnmyra" />
		<tag k="natural" v="wetland" />
		<tag k="ssr:stedsnr" v="780320" />
	</node>
	<node id="-130833" lat="61.2513583346" lon="10.2951888914">
		<tag k="name" v="Gråbeinmyra" />
		<tag k="natural" v="wetland" />
		<tag k="ssr:stedsnr" v="780292" />
	</node>
	<node id="-130314" lat="61.3734184366" lon="10.0051290608">
		<tag k="name" v="Huldersætra" />
		<tag k="natural" v="stone" />
		<tag k="ssr:stedsnr" v="603799" />
	</node>
	<node id="-129291" lat="61.3024527771" lon="9.77664722586">
		<tag k="name" v="Veslimyra" />
		<tag k="natural" v="wetland" />
		<tag k="ssr:stedsnr" v="111529" />
	</node>
	<node id="-129290" lat="61.3024111151" lon="9.85234445089">
		<tag k="name" v="Grinjumyrene" />
		<tag k="natural" v="wetland" />
		<tag k="ssr:stedsnr" v="111526" />
	</node>
	<node id="-130311" lat="61.3483972257" lon="9.90089444958">
		<tag k="name" v="Larsslettene" />
		<tag k="place" v="locality" />
		<tag k="ssr:stedsnr" v="603317" />
	</node>
	<node id="-129284" lat="61.320249996" lon="10.1677777719">
		<tag k="name" v="Allemannsmyra" />
		<tag k="natural" v="wetland" />
		<tag k="ssr:stedsnr" v="111073" />
	</node>
	<node id="-129793" lat="61.3336972186" lon="9.82202499865">
		<tag k="name" v="Turtåsmyra" />
		<tag k="natural" v="wetland" />
		<tag k="ssr:stedsnr" v="414525" />
	</node>
	<node id="-129792" lat="61.3179444436" lon="9.82901111215">
		<tag k="landuse" v="meadow" />
		<tag k="name" v="Husenget" />
		<tag k="ssr:stedsnr" v="414520" />
	</node>
	<node id="-128767" lat="61.2548083331" lon="9.97530833375">
		<tag k="name" v="Gunnhildhalsen" />
		<tag k="natural" v="wetland" />
		<tag k="ssr:stedsnr" v="402979" />
	</node>
	<node id="-131326" lat="61.2407555547" lon="10.3156972201">
		<tag k="name" v="Nedre Nordsvehaugmyra" />
		<tag k="natural" v="wetland" />
		<tag k="ssr:stedsnr" v="962306" />
	</node>
	<node id="-130813" lat="61.2231944463" lon="10.1084611043">
		<tag k="historic" v="shieling" />
		<tag k="name" v="Vårsætra" />
		<tag k="place" v="locality" />
		<tag k="ssr:stedsnr" v="779642" />
	</node>
	<node id="-129788" lat="61.3011749969" lon="9.73700555473">
		<tag k="name" v="Stormyra" />
		<tag k="natural" v="wetland" />
		<tag k="ssr:stedsnr" v="479790" />
	</node>
	<node id="-129275" lat="61.2639500029" lon="9.85533056235">
		<tag k="name" v="Svartdalsmyra" />
		<tag k="natural" v="wetland" />
		<tag k="ssr:stedsnr" v="112325" />
	</node>
	<node id="-128766" lat="61.2790027758" lon="10.0417416619">
		<tag k="name" v="Skålslettmyra" />
		<tag k="natural" v="wetland" />
		<tag k="ssr:stedsnr" v="401677" />
	</node>
	<node id="-130809" lat="61.3706611113" lon="9.61039445197">
		<tag k="historic" v="shieling" />
		<tag k="name" v="Bosbergsætra" />
		<tag k="place" v="locality" />
		<tag k="ssr:stedsnr" v="779484" />
	</node>
	<node id="-128768" lat="61.2562361094" lon="9.96631388765">
		<tag k="name" v="Oksummyra" />
		<tag k="natural" v="wetland" />
		<tag k="ssr:stedsnr" v="402978" />
	</node>
	<node id="-129109" lat="61.3246333326" lon="9.9327916714">
		<tag k="name" v="Stormyra" />
		<tag k="natural" v="wetland" />
		<tag k="ssr:stedsnr" v="50005" />
	</node>
	<node id="-131315" lat="61.270386111" lon="10.0635555494">
		<tag k="name" v="Åsamyra" />
		<tag k="natural" v="wetland" />
		<tag k="ssr:stedsnr" v="961967" />
	</node>
	<node id="-129266" lat="61.3863222253" lon="9.73170833506">
		<tag k="landuse" v="meadow" />
		<tag k="name" v="Sveavollen" />
		<tag k="ssr:stedsnr" v="110289" />
	</node>
	<node id="-131313" lat="61.2613777799" lon="10.1078111145">
		<tag k="name" v="Klevamyra" />
		<tag k="natural" v="wetland" />
		<tag k="ssr:stedsnr" v="961956" />
	</node>
	<node id="-131312" lat="61.1399999959" lon="10.106102784">
		<tag k="name" v="Langmyra" />
		<tag k="natural" v="wetland" />
		<tag k="ssr:stedsnr" v="961912" />
	</node>
	<node id="-130287" lat="61.2719138926" lon="10.0827444484">
		<tag k="name" v="Øvre Haugaringmyra" />
		<tag k="natural" v="wetland" />
		<tag k="ssr:stedsnr" v="597970" />
	</node>
	<node id="-131309" lat="61.2508194431" lon="10.0967416636">
		<tag k="landuse" v="meadow" />
		<tag k="name" v="Skålenget" />
		<tag k="ssr:stedsnr" v="961892" />
	</node>
	<node id="-129341" lat="61.2731444485" lon="10.0690222293">
		<tag k="name" v="Stakkmyrene" />
		<tag k="natural" v="wetland" />
		<tag k="ssr:stedsnr" v="112960" />
	</node>
	<node id="-131304" lat="61.3015777954" lon="10.0951349806">
		<tag k="name" v="Klininggrautstein" />
		<tag k="natural" v="stone" />
		<tag k="ssr:stedsnr" v="961752" />
	</node>
	<node id="-131303" lat="61.3013111077" lon="10.1167444512">
		<tag k="name" v="Rudstugumyra" />
		<tag k="natural" v="wetland" />
		<tag k="ssr:stedsnr" v="961744" />
	</node>
	<node id="-129489" lat="61.3154666678" lon="9.72200833008">
		<tag k="name" v="Nistumyra" />
		<tag k="natural" v="wetland" />
		<tag k="ssr:stedsnr" v="172492" />
	</node>
	<node id="-129251" lat="61.2531888926" lon="10.2382777832">
		<tag k="name" v="Avlundmyra" />
		<tag k="natural" v="wetland" />
		<tag k="ssr:stedsnr" v="69848" />
	</node>
	<node id="-130274" lat="61.2999611106" lon="10.1399916664">
		<tag k="landuse" v="meadow" />
		<tag k="name" v="Krankerudringen" />
		<tag k="ssr:stedsnr" v="597523" />
	</node>
	<node id="-130273" lat="61.3004416664" lon="10.144824995">
		<tag k="name" v="Perringen" />
		<tag k="place" v="locality" />
		<tag k="ssr:stedsnr" v="597515" />
	</node>
	<node id="-129248" lat="61.2997333316" lon="10.2077472185">
		<tag k="alt_name" v="Skottmyra" />
		<tag k="name" v="Skotmyra" />
		<tag k="natural" v="wetland" />
		<tag k="ssr:stedsnr" v="69797" />
	</node>
	<node id="-130271" lat="61.3428555535" lon="9.66645277225">
		<tag k="name" v="Holbekkmyra" />
		<tag k="natural" v="wetland" />
		<tag k="ssr:stedsnr" v="597337" />
	</node>
	<node id="-130782" lat="61.3307638872" lon="10.0046888912">
		<tag k="name" v="Tøftumsbakkelykkja" />
		<tag k="place" v="locality" />
		<tag k="ssr:stedsnr" v="778939" />
	</node>
	<node id="-130269" lat="61.2268083348" lon="9.88588888419">
		<tag k="name" v="Kåsmyrene" />
		<tag k="natural" v="wetland" />
		<tag k="ssr:stedsnr" v="597211" />
	</node>
	<node id="-130780" lat="61.3681277799" lon="9.67544444622">
		<tag k="name" v="Frekmyra" />
		<tag k="natural" v="wetland" />
		<tag k="ssr:stedsnr" v="778930" />
	</node>
	<node id="-130777" lat="61.3200749972" lon="9.95311110412">
		<tag k="historic" v="shieling" />
		<tag k="name" v="Gammelvårsætra" />
		<tag k="place" v="locality" />
		<tag k="ssr:stedsnr" v="778853" />
	</node>
	<node id="-131161" lat="61.2891583347" lon="10.0084722256">
		<tag k="name" v="Kolbotn" />
		<tag k="place" v="locality" />
		<tag k="ssr:stedsnr" v="901724" />
	</node>
	<node id="-128931" lat="61.2252055299" lon="10.0515377833">
		<tag k="landuse" v="quarry" />
		<tag k="name" v="Børkhågålia fjelltak" />
		<tag k="ssr:stedsnr" v="982207" />
	</node>
	<node id="-130256" lat="61.2794888863" lon="9.88489166542">
		<tag k="name" v="Kjeikflågån" />
		<tag k="natural" v="wetland" />
		<tag k="ssr:stedsnr" v="596804" />
	</node>
	<node id="-128737" lat="61.3401055531" lon="9.86164999903">
		<tag k="alt_name" v="Bergemyrene" />
		<tag k="name" v="Bergemyrin" />
		<tag k="natural" v="wetland" />
		<tag k="ssr:stedsnr" v="372694" />
	</node>
	<node id="-130764" lat="61.3131138931" lon="10.016636117">
		<tag k="name" v="Stakkstomyra" />
		<tag k="natural" v="wetland" />
		<tag k="ssr:stedsnr" v="778001" />
	</node>
	<node id="-130248" lat="61.3193611086" lon="10.1812666695">
		<tag k="historic" v="shieling" />
		<tag k="name" v="Børrelykkja" />
		<tag k="place" v="locality" />
		<tag k="ssr:stedsnr" v="596183" />
	</node>
	<node id="-131271" lat="61.3289972259" lon="9.84787222337">
		<tag k="name" v="Flatene" />
		<tag k="place" v="locality" />
		<tag k="ssr:stedsnr" v="960529" />
	</node>
	<node id="-130758" lat="61.3999972203" lon="9.69186110544">
		<tag k="name" v="Flæene" />
		<tag k="natural" v="wetland" />
		<tag k="ssr:stedsnr" v="777525" />
	</node>
	<node id="-130245" lat="61.3743972187" lon="9.73051388412">
		<tag k="name" v="Veslvollen" />
		<tag k="place" v="locality" />
		<tag k="ssr:stedsnr" v="596072" />
	</node>
	<node id="-130756" lat="61.3919055539" lon="9.73324444765">
		<tag k="landuse" v="meadow" />
		<tag k="name" v="Larsvollen" />
		<tag k="ssr:stedsnr" v="777325" />
	</node>
	<node id="-128419" lat="61.3551805599" lon="9.8559500081">
		<tag k="name" v="Bakkamyra" />
		<tag k="natural" v="wetland" />
		<tag k="ssr:stedsnr" v="292461" />
	</node>
	<node id="-130233" lat="61.3422361083" lon="9.84116667535">
		<tag k="landuse" v="meadow" />
		<tag k="name" v="Ånåvollan" />
		<tag k="ssr:stedsnr" v="595626" />
	</node>
	<node id="-128879" lat="61.3123472203" lon="10.019711104">
		<tag k="name" v="Stakksto" />
		<tag k="place" v="locality" />
		<tag k="ssr:stedsnr" v="899002" />
	</node>
	<node id="-131254" lat="61.3470083338" lon="9.87301944809">
		<tag k="name" v="Skåråsmyra" />
		<tag k="natural" v="wetland" />
		<tag k="ssr:stedsnr" v="959452" />
	</node>
	<node id="-128457" lat="61.320505552" lon="9.6317027766">
		<tag k="name" v="Liamyra" />
		<tag k="natural" v="wetland" />
		<tag k="ssr:stedsnr" v="294170" />
	</node>
	<node id="-130228" lat="61.3997833361" lon="9.73419722298">
		<tag k="name" v="Åmillommyra" />
		<tag k="natural" v="wetland" />
		<tag k="ssr:stedsnr" v="595293" />
	</node>
	<node id="-131251" lat="61.3874749995" lon="9.72902222126">
		<tag k="name" v="Paulsrudrompa" />
		<tag k="place" v="locality" />
		<tag k="ssr:stedsnr" v="959259" />
	</node>
	<node id="-130128" lat="61.2484666672" lon="10.3477222275">
		<tag k="name" v="Stormyra" />
		<tag k="natural" v="wetland" />
		<tag k="ssr:stedsnr" v="538356" />
	</node>
	<node id="-128687" lat="61.1436611073" lon="10.222952786">
		<tag k="name" v="Hågåmyra" />
		<tag k="natural" v="wetland" />
		<tag k="ssr:stedsnr" v="371067" />
	</node>
	<node id="-129710" lat="61.2685611108" lon="9.98060277147">
		<tag k="name" v="Dipilmyra" />
		<tag k="natural" v="wetland" />
		<tag k="ssr:stedsnr" v="234982" />
	</node>
	<node id="-130203" lat="61.3348305536" lon="9.81666944615">
		<tag k="name" v="Turtåsmyra" />
		<tag k="natural" v="wetland" />
		<tag k="ssr:stedsnr" v="554678" />
	</node>
	<node id="-129446" lat="61.3787833357" lon="10.1431416593">
		<tag k="name" v="Stormyra" />
		<tag k="natural" v="wetland" />
		<tag k="ssr:stedsnr" v="170139" />
	</node>
	<node id="-129193" lat="61.1965555596" lon="9.96660555327">
		<tag k="name" v="Svarthus" />
		<tag k="place" v="locality" />
		<tag k="ssr:stedsnr" v="68736" />
	</node>
	<node id="-130216" lat="61.2761166656" lon="10.0842277774">
		<tag k="name" v="Drevmyra" />
		<tag k="natural" v="wetland" />
		<tag k="ssr:stedsnr" v="554880" />
	</node>
	<node id="-131239" lat="61.2720249996" lon="10.056036113">
		<tag k="name" v="Langmyra" />
		<tag k="natural" v="wetland" />
		<tag k="ssr:stedsnr" v="918879" />
	</node>
	<node id="-130213" lat="61.2648250024" lon="10.0706916714">
		<tag k="name" v="Bosshaugmyra" />
		<tag k="natural" v="wetland" />
		<tag k="ssr:stedsnr" v="554869" />
	</node>
	<node id="-130246" lat="61.3729472246" lon="9.72619444052">
		<tag k="name" v="Andersslettet" />
		<tag k="place" v="locality" />
		<tag k="ssr:stedsnr" v="596085" />
	</node>
	<node id="-128880" lat="61.3077305587" lon="10.0163111023">
		<tag k="name" v="Kjølslettmyr" />
		<tag k="natural" v="wetland" />
		<tag k="ssr:stedsnr" v="899005" />
	</node>
	<node id="-129263" lat="61.3960250039" lon="9.70108055674">
		<tag k="name" v="Flæmyra" />
		<tag k="natural" v="wetland" />
		<tag k="ssr:stedsnr" v="110269" />
	</node>
	<node id="-129179" lat="61.3712833307" lon="10.1064972308">
		<tag k="name" v="Madsøya" />
		<tag k="place" v="locality" />
		<tag k="ssr:stedsnr" v="56031" />
	</node>
	<node id="-129690" lat="61.2594194434" lon="10.1000805555">
		<tag k="landuse" v="meadow" />
		<tag k="name" v="Homsringen" />
		<tag k="ssr:stedsnr" v="233948" />
	</node>
	<node id="-129177" lat="61.2299388873" lon="10.3208694384">
		<tag k="name" v="Hågåmyra" />
		<tag k="natural" v="wetland" />
		<tag k="ssr:stedsnr" v="55345" />
	</node>
	<node id="-131224" lat="61.2174638887" lon="9.98549165756">
		<tag k="name" v="Kårfallslettet" />
		<tag k="place" v="locality" />
		<tag k="ssr:stedsnr" v="918528" />
	</node>
	<node id="-130244" lat="61.3772527773" lon="9.73202222231">
		<tag k="name" v="Ramsvollen" />
		<tag k="place" v="locality" />
		<tag k="ssr:stedsnr" v="596065" />
	</node>
	<node id="-128662" lat="61.2496527799" lon="9.93481944047">
		<tag k="name" v="Flåmyra" />
		<tag k="natural" v="wetland" />
		<tag k="ssr:stedsnr" v="355852" />
	</node>
	<node id="-129684" lat="61.3627027793" lon="9.74948611084">
		<tag k="historic" v="shieling" />
		<tag k="name" v="Høgbergsvollen" />
		<tag k="place" v="locality" />
		<tag k="ssr:stedsnr" v="233882" />
	</node>
	<node id="-129170" lat="61.1113583378" lon="10.1462222205">
		<tag k="name" v="Gråbeinmyra" />
		<tag k="natural" v="wetland" />
		<tag k="ssr:stedsnr" v="52866" />
	</node>
	<node id="-129169" lat="61.2315138893" lon="10.0561916629">
		<tag k="name" v="Øveste" />
		<tag k="place" v="locality" />
		<tag k="ssr:stedsnr" v="52767" />
	</node>
	<node id="-131328" lat="61.2296722219" lon="10.135008335">
		<tag k="name" v="Stormyra" />
		<tag k="natural" v="wetland" />
		<tag k="ssr:stedsnr" v="962373" />
	</node>
	<node id="-128648" lat="61.2582749966" lon="10.0656083344">
		<tag k="name" v="Austermyra" />
		<tag k="natural" v="wetland" />
		<tag k="ssr:stedsnr" v="354945" />
	</node>
	<node id="-129671" lat="61.2988111088" lon="10.1591972275">
		<tag k="name" v="Hjelmstadnyhagen" />
		<tag k="place" v="locality" />
		<tag k="ssr:stedsnr" v="233565" />
	</node>
	<node id="-129158" lat="61.2544749963" lon="10.0975416622">
		<tag k="name" v="Brettingsmyra" />
		<tag k="natural" v="wetland" />
		<tag k="ssr:stedsnr" v="51949" />
	</node>
	<node id="-130692" lat="61.3891472245" lon="9.76633054731">
		<tag k="historic" v="shieling" />
		<tag k="name" v="Pålsæter" />
		<tag k="place" v="locality" />
		<tag k="ssr:stedsnr" v="736348" />
	</node>
	<node id="-129667" lat="61.3320388872" lon="9.75054722783">
		<tag k="name" v="Grønnmyra" />
		<tag k="natural" v="wetland" />
		<tag k="ssr:stedsnr" v="233492" />
	</node>
	<node id="-129154" lat="61.2518833299" lon="10.0883361075">
		<tag k="landuse" v="meadow" />
		<tag k="name" v="Brettingsengene" />
		<tag k="ssr:stedsnr" v="51877" />
	</node>
	<node id="-128641" lat="61.2400527741" lon="10.1144027688">
		<tag k="name" v="Tjernsmyrhalsen" />
		<tag k="natural" v="wetland" />
		<tag k="ssr:stedsnr" v="354867" />
	</node>
	<node id="-129663" lat="61.3153499999" lon="9.67509444487">
		<tag k="name" v="Myrslettlia" />
		<tag k="place" v="locality" />
		<tag k="ssr:stedsnr" v="233477" />
	</node>
	<node id="-128533" lat="61.2019833312" lon="9.66246944711">
		<tag k="name" v="Sandmyra" />
		<tag k="natural" v="wetland" />
		<tag k="ssr:stedsnr" v="311561" />
	</node>
	<node id="-130684" lat="61.1502500005" lon="10.2152361047">
		<tag k="name" v="Bånmyra" />
		<tag k="natural" v="wetland" />
		<tag k="ssr:stedsnr" v="736071" />
	</node>
	<node id="-131193" lat="61.2286361116" lon="10.1494416656">
		<tag k="landuse" v="meadow" />
		<tag k="name" v="Ekerringen" />
		<tag k="ssr:stedsnr" v="908460" />
	</node>
	<node id="-131366" lat="61.3660576021" lon="9.81950226984">
		<tag k="name" v="Hanslislettet" />
		<tag k="place" v="locality" />
		<tag k="ssr:stedsnr" v="974326" />
	</node>
	<node id="-129300" lat="61.3828222227" lon="9.62897222399">
		<tag k="name" v="Veslgardsmarka" />
		<tag k="place" v="locality" />
		<tag k="ssr:stedsnr" v="111941" />
	</node>
	<node id="-129141" lat="61.3001500014" lon="10.1399999961">
		<tag k="landuse" v="meadow" />
		<tag k="name" v="Krankerudhaugringen" />
		<tag k="ssr:stedsnr" v="51570" />
	</node>
	<node id="-129651" lat="61.2617472193" lon="10.2246722137">
		<tag k="name" v="Norhusmyra" />
		<tag k="natural" v="wetland" />
		<tag k="ssr:stedsnr" v="233084" />
	</node>
	<node id="-129149" lat="61.2733472205" lon="10.1109000067">
		<tag k="landuse" v="meadow" />
		<tag k="name" v="Klevaengene" />
		<tag k="ssr:stedsnr" v="51836" />
	</node>
	<node id="-129811" lat="61.3673972247" lon="9.73166110657">
		<tag k="historic" v="shieling" />
		<tag k="name" v="Brekka" />
		<tag k="place" v="locality" />
		<tag k="ssr:stedsnr" v="415064" />
	</node>
	<node id="-129647" lat="61.3535055518" lon="9.9562583245">
		<tag k="name" v="Andersslettet" />
		<tag k="place" v="locality" />
		<tag k="ssr:stedsnr" v="232988" />
	</node>
	<node id="-129133" lat="61.2590249988" lon="10.030119441">
		<tag k="name" v="Teigumsvollen" />
		<tag k="place" v="locality" />
		<tag k="ssr:stedsnr" v="51461" />
	</node>
	<node id="-131180" lat="61.2581694464" lon="10.259227779">
		<tag k="historic" v="shieling" />
		<tag k="name" v="Einstadstylen" />
		<tag k="place" v="locality" />
		<tag k="ssr:stedsnr" v="904434" />
	</node>
	<node id="-131179" lat="61.2268250011" lon="10.3261972246">
		<tag k="name" v="Kvernbekkmyra" />
		<tag k="natural" v="wetland" />
		<tag k="ssr:stedsnr" v="904348" />
	</node>
	<node id="-128618" lat="61.2635055599" lon="10.0606944511">
		<tag k="name" v="Nyengemyrene" />
		<tag k="natural" v="wetland" />
		<tag k="ssr:stedsnr" v="354423" />
	</node>
	<node id="-129098" lat="61.358275002" lon="9.83585555332">
		<tag k="historic" v="shieling" />
		<tag k="name" v="Hole sæter" />
		<tag k="place" v="locality" />
		<tag k="ssr:stedsnr" v="49691" />
	</node>
	<node id="-128614" lat="61.2802555531" lon="10.2352055485">
		<tag k="name" v="Rundmyra" />
		<tag k="natural" v="wetland" />
		<tag k="ssr:stedsnr" v="354169" />
	</node>
	<node id="-130298" lat="61.1977972223" lon="10.243569448">
		<tag k="name" v="Fabrikkteigen" />
		<tag k="place" v="locality" />
		<tag k="ssr:stedsnr" v="600296" />
	</node>
	<node id="-130660" lat="61.2104666697" lon="10.1886722176">
		<tag k="name" v="Bjønnholen" />
		<tag k="place" v="locality" />
		<tag k="ssr:stedsnr" v="725063" />
	</node>
	<node id="-129634" lat="61.3250888862" lon="10.1552333255">
		<tag k="name" v="Rundtommyrene" />
		<tag k="natural" v="wetland" />
		<tag k="ssr:stedsnr" v="232063" />
	</node>
	<node id="-131280" lat="61.359702774" lon="10.0941416622">
		<tag k="landuse" v="quarry" />
		<tag k="name" v="Steinbruddet" />
		<tag k="ssr:stedsnr" v="960888" />
	</node>
	<node id="-131168" lat="61.270513887" lon="9.93273611031">
		<tag k="name" v="Tjyruglemyrene" />
		<tag k="natural" v="wetland" />
		<tag k="ssr:stedsnr" v="901999" />
	</node>
	<node id="-128607" lat="61.3406055571" lon="10.0496750031">
		<tag k="name" v="Svahellmyra" />
		<tag k="natural" v="wetland" />
		<tag k="ssr:stedsnr" v="353977" />
	</node>
	<node id="-128876" lat="61.2831472249" lon="10.059772227">
		<tag k="name" v="Nigardsmyra" />
		<tag k="natural" v="wetland" />
		<tag k="ssr:stedsnr" v="886687" />
	</node>
	<node id="-129117" lat="61.3108638929" lon="9.77825556105">
		<tag k="name" v="Leirvollmyra" />
		<tag k="natural" v="wetland" />
		<tag k="ssr:stedsnr" v="50511" />
	</node>
	<node id="-129628" lat="61.4059111088" lon="9.54877221441">
		<tag k="landuse" v="meadow" />
		<tag k="name" v="Hessenget" />
		<tag k="ssr:stedsnr" v="231910" />
	</node>
	<node id="-129627" lat="61.356180555" lon="10.0754444496">
		<tag k="name" v="Gråpurka" />
		<tag k="natural" v="stone" />
		<tag k="ssr:stedsnr" v="231908" />
	</node>
	<node id="-130650" lat="61.2255388904" lon="10.1483249977">
		<tag k="name" v="Kleivmyra" />
		<tag k="natural" v="wetland" />
		<tag k="ssr:stedsnr" v="720391" />
	</node>
	<node id="-129113" lat="61.3348944425" lon="10.1162194524">
		<tag k="landuse" v="meadow" />
		<tag k="name" v="Slåsæterengene" />
		<tag k="ssr:stedsnr" v="50203" />
	</node>
	<node id="-129624" lat="61.3280500039" lon="9.90402778054">
		<tag k="name" v="Olaslettet" />
		<tag k="place" v="locality" />
		<tag k="ssr:stedsnr" v="231869" />
	</node>
	<node id="-129623" lat="61.3534611133" lon="9.83802776865">
		<tag k="name" v="Ekkermyra" />
		<tag k="natural" v="wetland" />
		<tag k="ssr:stedsnr" v="231707" />
	</node>
	<node id="-131158" lat="61.2786333307" lon="10.1078972259">
		<tag k="landuse" v="meadow" />
		<tag k="name" v="Hesthågån" />
		<tag k="ssr:stedsnr" v="901643" />
	</node>
	<node id="-129977" lat="61.2481749994" lon="10.2868000002">
		<tag k="name" v="Finntottmyra" />
		<tag k="natural" v="wetland" />
		<tag k="ssr:stedsnr" v="493272" />
	</node>
	<node id="-128596" lat="61.305116664" lon="9.85637778334">
		<tag k="name" v="Flågåmyra" />
		<tag k="natural" v="wetland" />
		<tag k="ssr:stedsnr" v="353559" />
	</node>
	<node id="-129619" lat="61.3808027822" lon="9.6844194412">
		<tag k="name" v="Stormyra" />
		<tag k="natural" v="wetland" />
		<tag k="ssr:stedsnr" v="231624" />
	</node>
	<node id="-131154" lat="61.3039222212" lon="10.1555027864">
		<tag k="alt_name" v="Søndre Kjosslettet" />
		<tag k="name" v="Søre Kjosslettet" />
		<tag k="place" v="locality" />
		<tag k="ssr:stedsnr" v="901527" />
	</node>
	<node id="-128593" lat="61.3308249996" lon="9.84100833395">
		<tag k="name" v="Øverhaugmyra" />
		<tag k="natural" v="wetland" />
		<tag k="ssr:stedsnr" v="353534" />
	</node>
	<node id="-129104" lat="61.4053972243" lon="9.553313892">
		<tag k="historic" v="shieling" />
		<tag k="name" v="Skriua" />
		<tag k="place" v="locality" />
		<tag k="ssr:stedsnr" v="49900" />
	</node>
	<node id="-129615" lat="61.3407611084" lon="9.86723611842">
		<tag k="name" v="Åsbergmyra" />
		<tag k="natural" v="wetland" />
		<tag k="ssr:stedsnr" v="231566" />
	</node>
	<node id="-130126" lat="61.2589111118" lon="9.90142777025">
		<tag k="name" v="Grønnmyra" />
		<tag k="natural" v="wetland" />
		<tag k="ssr:stedsnr" v="537993" />
	</node>
	<node id="-129101" lat="61.3202749972" lon="9.91499444449">
		<tag k="name" v="Langrannmyra" />
		<tag k="natural" v="wetland" />
		<tag k="ssr:stedsnr" v="49826" />
	</node>
	<node id="-131148" lat="61.258041664" lon="9.86848610515">
		<tag k="name" v="Hans Bø-steinen" />
		<tag k="natural" v="stone" />
		<tag k="ssr:stedsnr" v="901266" />
	</node>
	<node id="-128587" lat="61.3186138904" lon="10.0765666585">
		<tag k="name" v="Pighaugmyra" />
		<tag k="natural" v="wetland" />
		<tag k="ssr:stedsnr" v="414035" />
	</node>
	<node id="-128586" lat="61.3355722224" lon="10.075688897">
		<tag k="landuse" v="meadow" />
		<tag k="name" v="Barhus" />
		<tag k="ssr:stedsnr" v="414033" />
	</node>
	<node id="-128585" lat="61.3468138921" lon="10.1847499955">
		<tag k="name" v="Norshusmyra" />
		<tag k="natural" v="wetland" />
		<tag k="ssr:stedsnr" v="353117" />
	</node>
	<node id="-130632" lat="61.354072221" lon="9.48600833529">
		<tag k="landuse" v="meadow" />
		<tag k="name" v="Galbuvollan" />
		<tag k="ssr:stedsnr" v="719539" />
	</node>
	<node id="-128582" lat="61.3294777814" lon="10.1263972236">
		<tag k="name" v="Slåsæterengene" />
		<tag k="place" v="locality" />
		<tag k="ssr:stedsnr" v="353078" />
	</node>
	<node id="-129633" lat="61.3206416655" lon="10.151277777">
		<tag k="alt_name" v="Gjefsenslettet" />
		<tag k="historic" v="shieling" />
		<tag k="name" v="Rødumsslettet" />
		<tag k="place" v="locality" />
		<tag k="ssr:stedsnr" v="232062" />
	</node>
	<node id="-128579" lat="61.3193888845" lon="9.89989443784">
		<tag k="name" v="Skålan" />
		<tag k="place" v="locality" />
		<tag k="ssr:stedsnr" v="352931" />
	</node>
	<node id="-128647" lat="61.3426138933" lon="9.73403610842">
		<tag k="name" v="Langmyra" />
		<tag k="natural" v="wetland" />
		<tag k="ssr:stedsnr" v="354898" />
	</node>
	<node id="-128644" lat="61.3517305533" lon="9.73823054699">
		<tag k="name" v="Solfritt" />
		<tag k="place" v="locality" />
		<tag k="ssr:stedsnr" v="354882" />
	</node>
	<node id="-129632" lat="61.3199861085" lon="10.0991944454">
		<tag k="name" v="Kjoshaugmyra" />
		<tag k="natural" v="wetland" />
		<tag k="ssr:stedsnr" v="232035" />
	</node>
	<node id="-128573" lat="61.3529194462" lon="9.85714166933">
		<tag k="name" v="Grøndalsmyra" />
		<tag k="natural" v="wetland" />
		<tag k="ssr:stedsnr" v="352470" />
	</node>
	<node id="-129084" lat="61.2814972222" lon="10.0420111028">
		<tag k="name" v="Graupstølteigen" />
		<tag k="place" v="locality" />
		<tag k="ssr:stedsnr" v="37686" />
	</node>
	<node id="-131131" lat="61.3112055573" lon="9.90173333265">
		<tag k="landuse" v="meadow" />
		<tag k="name" v="Bennliengene" />
		<tag k="ssr:stedsnr" v="900189" />
	</node>
	<node id="-130106" lat="61.3395611142" lon="9.71714166348">
		<tag k="name" v="Øvre Merramyra" />
		<tag k="natural" v="wetland" />
		<tag k="ssr:stedsnr" v="536901" />
	</node>
	<node id="-131126" lat="61.3231305586" lon="9.95647221346">
		<tag k="name" v="Bekkemillommyra" />
		<tag k="natural" v="wetland" />
		<tag k="ssr:stedsnr" v="899874" />
	</node>
	<node id="-130100" lat="61.2859166657" lon="10.0073611202">
		<tag k="name" v="Nordgardshågån" />
		<tag k="place" v="locality" />
		<tag k="ssr:stedsnr" v="536719" />
	</node>
	<node id="-131166" lat="61.2729055551" lon="10.0878888904">
		<tag k="name" v="Nedre Haugaringmyra" />
		<tag k="natural" v="wetland" />
		<tag k="ssr:stedsnr" v="901958" />
	</node>
	<node id="-130098" lat="61.2886111152" lon="10.0229166672">
		<tag k="name" v="Nigardsmyra" />
		<tag k="natural" v="wetland" />
		<tag k="ssr:stedsnr" v="536709" />
	</node>
	<node id="-129744" lat="61.3844916626" lon="9.73306944348">
		<tag k="landuse" v="meadow" />
		<tag k="name" v="Grytvollen" />
		<tag k="ssr:stedsnr" v="250366" />
	</node>
	<node id="-129581" lat="61.2803444452" lon="9.79908610713">
		<tag k="alt_name" v="Mossjømyrene" />
		<tag k="name" v="Mossjømyrin" />
		<tag k="natural" v="wetland" />
		<tag k="ssr:stedsnr" v="190739" />
	</node>
	<node id="-128555" lat="61.358200002" lon="10.1412083292">
		<tag k="name" v="Sjøsætermyra" />
		<tag k="natural" v="wetland" />
		<tag k="ssr:stedsnr" v="311989" />
	</node>
	<node id="-129578" lat="61.3417333361" lon="9.81444166673">
		<tag k="name" v="Åsmyra" />
		<tag k="natural" v="wetland" />
		<tag k="ssr:stedsnr" v="190693" />
	</node>
	<node id="-131113" lat="61.3577611098" lon="10.1258194387">
		<tag k="name" v="Langmyra" />
		<tag k="natural" v="wetland" />
		<tag k="ssr:stedsnr" v="858976" />
	</node>
	<node id="-128806" lat="61.3342999973" lon="9.86276111526">
		<tag k="name" v="Veslemyra" />
		<tag k="natural" v="wetland" />
		<tag k="ssr:stedsnr" v="474522" />
	</node>
	<node id="-130595" lat="61.3593305585" lon="9.72918889167">
		<tag k="name" v="Rustmyra" />
		<tag k="natural" v="wetland" />
		<tag k="ssr:stedsnr" v="718083" />
	</node>
	<node id="-130594" lat="61.3769055552" lon="9.7397027856">
		<tag k="name" v="Kveinnslåa" />
		<tag k="place" v="locality" />
		<tag k="ssr:stedsnr" v="718073" />
	</node>
	<node id="-129232" lat="61.2400638906" lon="9.96279722617">
		<tag k="name" v="Moslettet" />
		<tag k="place" v="locality" />
		<tag k="ssr:stedsnr" v="69549" />
	</node>
	<node id="-129672" lat="61.3061361155" lon="10.1495888953">
		<tag k="name" v="Nedre Kjoshaugslettet" />
		<tag k="place" v="locality" />
		<tag k="ssr:stedsnr" v="233568" />
	</node>
	<node id="-128432" lat="61.358652776" lon="9.72636944349">
		<tag k="name" v="Jakobmyra" />
		<tag k="natural" v="wetland" />
		<tag k="ssr:stedsnr" v="293106" />
	</node>
	<node id="-129999" lat="61.2460833325" lon="9.91901944789">
		<tag k="name" v="Stormyra" />
		<tag k="natural" v="wetland" />
		<tag k="ssr:stedsnr" v="493545" />
	</node>
	<node id="-130586" lat="61.4056916694" lon="9.77314167101">
		<tag k="name" v="Tossenmyra" />
		<tag k="natural" v="wetland" />
		<tag k="ssr:stedsnr" v="717815" />
	</node>
	<node id="-130479" lat="61.2699861139" lon="10.0686722163">
		<tag k="name" v="Nigardsmyra" />
		<tag k="natural" v="wetland" />
		<tag k="ssr:stedsnr" v="658954" />
	</node>
	<node id="-130583" lat="61.3293055538" lon="9.87964445207">
		<tag k="name" v="Stigersteinsmyra" />
		<tag k="natural" v="wetland" />
		<tag k="ssr:stedsnr" v="717538" />
	</node>
	<node id="-128534" lat="61.2126083359" lon="9.82246111294">
		<tag k="landuse" v="meadow" />
		<tag k="name" v="Dokkvollan" />
		<tag k="ssr:stedsnr" v="311565" />
	</node>
	<node id="-129625" lat="61.4099499969" lon="9.57714445261">
		<tag k="landuse" v="quarry" />
		<tag k="name" v="Bjellkugruva" />
		<tag k="ssr:stedsnr" v="231887" />
	</node>
	<node id="-131091" lat="61.3442972227" lon="9.92464722663">
		<tag k="alt_name" v="Haustsætermyrene" />
		<tag k="name" v="Haustsætermyrin" />
		<tag k="natural" v="wetland" />
		<tag k="ssr:stedsnr" v="858666" />
	</node>
	<node id="-129554" lat="61.3901777747" lon="9.73419444471">
		<tag k="landuse" v="meadow" />
		<tag k="name" v="Børkvollen" />
		<tag k="ssr:stedsnr" v="190358" />
	</node>
	<node id="-129040" lat="61.2193055529" lon="10.0098111076">
		<tag k="alt_name" v="Trasserudslettet" />
		<tag k="landuse" v="meadow" />
		<tag k="name" v="Trassrudslættet" />
		<tag k="ssr:stedsnr" v="8499" />
	</node>
	<node id="-130785" lat="61.3409972179" lon="9.88201110981">
		<tag k="name" v="Hellbekkmyra" />
		<tag k="natural" v="wetland" />
		<tag k="ssr:stedsnr" v="778967" />
	</node>
	<node id="-131247" lat="61.2522472202" lon="10.2761194473">
		<tag k="name" v="Langmyra" />
		<tag k="natural" v="wetland" />
		<tag k="ssr:stedsnr" v="920781" />
	</node>
	<node id="-130573" lat="61.333483332" lon="10.0706472254">
		<tag k="landuse" v="meadow" />
		<tag k="name" v="Paradis" />
		<tag k="ssr:stedsnr" v="717020" />
	</node>
	<node id="-129548" lat="61.3215388848" lon="9.97257778081">
		<tag k="name" v="Skåndalsmyra" />
		<tag k="natural" v="wetland" />
		<tag k="ssr:stedsnr" v="189950" />
	</node>
	<node id="-130647" lat="61.2424611137" lon="10.3230527825">
		<tag k="name" v="Øvre Nordsvehaugmyra" />
		<tag k="natural" v="wetland" />
		<tag k="ssr:stedsnr" v="720339" />
	</node>
	<node id="-128822" lat="61.3268666691" lon="9.67522777991">
		<tag k="name" v="Putterhaugflågan" />
		<tag k="natural" v="wetland" />
		<tag k="ssr:stedsnr" v="475323" />
	</node>
	<node id="-129030" lat="61.1598027755" lon="10.0974249979">
		<tag k="name" v="Stormyra" />
		<tag k="natural" v="wetland" />
		<tag k="ssr:stedsnr" v="8443" />
	</node>
	<node id="-129281" lat="61.3209666682" lon="9.9055999941">
		<tag k="name" v="Skålmyra" />
		<tag k="natural" v="wetland" />
		<tag k="ssr:stedsnr" v="110938" />
	</node>
	<node id="-130052" lat="61.3358916642" lon="9.82746667087">
		<tag k="name" v="Varpmyra" />
		<tag k="natural" v="wetland" />
		<tag k="ssr:stedsnr" v="535540" />
	</node>
	<node id="-128515" lat="61.239919786" lon="10.1223338675">
		<tag k="alt_name" v="Tjørnmyra" />
		<tag k="name" v="Tjernsmyra" />
		<tag k="natural" v="wetland" />
		<tag k="ssr:stedsnr" v="310271" />
	</node>
	<node id="-130279" lat="61.2453527745" lon="9.97166110626">
		<tag k="name" v="Kvernhaugflågån" />
		<tag k="natural" v="wetland" />
		<tag k="ssr:stedsnr" v="597782" />
	</node>
</osm>
