<?xml version="1.0" encoding="UTF-8"?>
<osm version="0.6" generator="osmapis">
	<node lat="68.8094388896924" lon="15.146652773938822" id="-20837">
		<tag k="fixme" v="multiple name tags, choose one and add the other to alt_name" />
		<tag k="name" v="Tuanuten;Nuten" />
		<tag k="natural" v="hill" />
		<tag k="place" v="locality" />
		<tag k="ssr:stedsnr" v="17320" />
	</node>
	<node lat="68.91187222118207" lon="14.966030550366671" id="-20849">
		<tag k="fixme" v="multiple name tags, choose one and add the other to alt_name; consider natural=peak for the most distinct mountains in the district" />
		<tag k="name" v="Gjura;Juvåggjura" />
		<tag k="natural" v="hill" />
		<tag k="place" v="locality" />
		<tag k="ssr:stedsnr" v="18720" />
	</node>
	<node lat="68.8860611114633" lon="15.294844434250118" id="-20851">
		<tag k="name" v="Puskerihågen" />
		<tag k="natural" v="hill" />
		<tag k="place" v="locality" />
		<tag k="ssr:stedsnr" v="36003" />
	</node>
	<node lat="68.87984722012588" lon="15.294263890474609" id="-20852">
		<tag k="name" v="Håbakkan" />
		<tag k="natural" v="slope" />
		<tag k="place" v="locality" />
		<tag k="ssr:stedsnr" v="36005" />
	</node>
	<node lat="68.88854166961738" lon="15.12326944023467" id="-20853">
		<tag k="fixme" v="consider natural=peak for the most distinct mountains in the district" />
		<tag k="name" v="Litjsalen" />
		<tag k="natural" v="hill" />
		<tag k="place" v="locality" />
		<tag k="ssr:stedsnr" v="36125" />
	</node>
	<node lat="68.87493888583106" lon="14.856022226474481" id="-20865">
		<tag k="name" v="Sandvikhågan" />
		<tag k="natural" v="hill" />
		<tag k="place" v="locality" />
		<tag k="ssr:stedsnr" v="39076" />
	</node>
	<node lat="68.82023055449001" lon="15.26405832851478" id="-20866">
		<tag k="name" v="Gjertruddalen" />
		<tag k="natural" v="valley" />
		<tag k="place" v="locality" />
		<tag k="ssr:stedsnr" v="40582" />
	</node>
	<node lat="68.81965277975407" lon="15.222038898744145" id="-20867">
		<tag k="name" v="Vasskråa" />
		<tag k="natural" v="slope" />
		<tag k="place" v="locality" />
		<tag k="ssr:stedsnr" v="40586" />
	</node>
	<node lat="68.88892500012253" lon="14.919891661385707" id="-20868">
		<tag k="name" v="Tunstadheia" />
		<tag k="natural" v="hill" />
		<tag k="place" v="locality" />
		<tag k="ssr:stedsnr" v="237170" />
	</node>
	<node lat="68.98864999658556" lon="15.115308328783982" id="-20870">
		<tag k="fixme" v="consider natural=peak for the most distinct mountains in the district" />
		<tag k="name" v="Ørna" />
		<tag k="natural" v="hill" />
		<tag k="place" v="locality" />
		<tag k="ssr:stedsnr" v="237424" />
	</node>
	<node lat="68.98710833717509" lon="15.066919442201936" id="-20871">
		<tag k="name" v="Sløykmarkheia" />
		<tag k="natural" v="hill" />
		<tag k="place" v="locality" />
		<tag k="ssr:stedsnr" v="237429" />
	</node>
	<node lat="68.87952499655862" lon="15.125805543945392" id="-20872">
		<tag k="name" v="Stavdalsbotn" />
		<tag k="natural" v="valley" />
		<tag k="place" v="locality" />
		<tag k="ssr:stedsnr" v="237453" />
	</node>
	<node lat="68.82789722072413" lon="15.001711118504934" id="-20873">
		<tag k="name" v="Nordsyldalen" />
		<tag k="natural" v="valley" />
		<tag k="place" v="locality" />
		<tag k="ssr:stedsnr" v="239121" />
	</node>
	<node lat="68.8336888902459" lon="14.799683339370695" id="-20876">
		<tag k="name" v="Storhågen" />
		<tag k="natural" v="hill" />
		<tag k="place" v="locality" />
		<tag k="ssr:stedsnr" v="239672" />
	</node>
	<node lat="68.84292500329191" lon="14.770749989268095" id="-20878">
		<tag k="name" v="Raet" />
		<tag k="natural" v="ridge" />
		<tag k="place" v="locality" />
		<tag k="ssr:stedsnr" v="239686" />
	</node>
	<node lat="68.96277222482196" lon="14.947805556689234" id="-20879">
		<tag k="name" v="Teistklubben" />
		<tag k="natural" v="hill" />
		<tag k="place" v="locality" />
		<tag k="ssr:stedsnr" v="55170" />
	</node>
	<node lat="68.89719166600214" lon="14.962594453777454" id="-20880">
		<tag k="name" v="Fjellgrimstaddalen" />
		<tag k="natural" v="valley" />
		<tag k="place" v="locality" />
		<tag k="ssr:stedsnr" v="55173" />
	</node>
	<node lat="68.8056777777982" lon="15.08597776858454" id="-20881">
		<tag k="fixme" v="consider natural=peak for the most distinct mountains in the district" />
		<tag k="name" v="Stállu" />
		<tag k="name:se" v="Stállu" />
		<tag k="natural" v="hill" />
		<tag k="place" v="locality" />
		<tag k="ssr:stedsnr" v="55410" />
	</node>
	<node lat="68.73917221795331" lon="14.855908342506552" id="-20883">
		<tag k="name" v="Skandalsskaret" />
		<tag k="natural" v="valley" />
		<tag k="place" v="locality" />
		<tag k="ssr:stedsnr" v="55585" />
	</node>
	<node lat="68.82663055581332" lon="15.01801110825665" id="-20884">
		<tag k="name" v="Madsvikhauen" />
		<tag k="natural" v="hill" />
		<tag k="place" v="locality" />
		<tag k="ssr:stedsnr" v="57116" />
	</node>
	<node lat="68.74107500331219" lon="14.906733323209611" id="-20885">
		<tag k="name" v="Straumhaugan" />
		<tag k="natural" v="hill" />
		<tag k="place" v="locality" />
		<tag k="ssr:stedsnr" v="59677" />
	</node>
	<node lat="68.83887777432199" lon="14.909897215640264" id="-20888">
		<tag k="name" v="Heggerabbene" />
		<tag k="natural" v="ridge" />
		<tag k="place" v="locality" />
		<tag k="ssr:stedsnr" v="241869" />
	</node>
	<node lat="68.77806388578254" lon="14.85049444512174" id="-20890">
		<tag k="name" v="Øvredalen" />
		<tag k="natural" v="valley" />
		<tag k="place" v="locality" />
		<tag k="ssr:stedsnr" v="78511" />
	</node>
	<node lat="68.76975000228379" lon="14.80493333369716" id="-20891">
		<tag k="alt_name" v="Breitinden" />
		<tag k="fixme" v="consider natural=peak for the most distinct mountains in the district" />
		<tag k="name" v="Skalltinden" />
		<tag k="natural" v="hill" />
		<tag k="place" v="locality" />
		<tag k="ssr:stedsnr" v="78548" />
	</node>
	<node lat="68.87073889228" lon="15.1363694523091" id="-20892">
		<tag k="fixme" v="consider natural=peak for the most distinct mountains in the district" />
		<tag k="name" v="Rundheia" />
		<tag k="natural" v="hill" />
		<tag k="place" v="locality" />
		<tag k="ssr:stedsnr" v="78702" />
	</node>
	<node lat="68.84207777684045" lon="14.83359722863218" id="-20899">
		<tag k="fixme" v="consider natural=peak for the most distinct mountains in the district" />
		<tag k="name" v="Børøytinden" />
		<tag k="natural" v="hill" />
		<tag k="place" v="locality" />
		<tag k="ssr:stedsnr" v="78848" />
	</node>
	<node lat="68.86613888563397" lon="15.227774993264457" id="-20903">
		<tag k="fixme" v="multiple name tags, choose one and add the other to alt_name; consider natural=peak for the most distinct mountains in the district" />
		<tag k="name" v="Nattmålstinden;Tretinden" />
		<tag k="natural" v="hill" />
		<tag k="place" v="locality" />
		<tag k="ssr:stedsnr" v="78752" />
	</node>
	<node lat="68.89197222020643" lon="14.952286114572312" id="-20905">
		<tag k="name" v="Hestdalen" />
		<tag k="natural" v="valley" />
		<tag k="place" v="locality" />
		<tag k="ssr:stedsnr" v="78796" />
	</node>
	<node lat="68.80191388585858" lon="15.139194438931828" id="-20907">
		<tag k="name" v="Larsdalen" />
		<tag k="natural" v="valley" />
		<tag k="place" v="locality" />
		<tag k="ssr:stedsnr" v="79343" />
	</node>
	<node lat="68.87482499639948" lon="15.294272225102123" id="-20913">
		<tag k="name" v="Høgda" />
		<tag k="natural" v="hill" />
		<tag k="place" v="locality" />
		<tag k="ssr:stedsnr" v="97006" />
	</node>
	<node lat="68.85263333285698" lon="15.164299992095213" id="-20916">
		<tag k="name" v="Riseknausen" />
		<tag k="natural" v="hill" />
		<tag k="place" v="locality" />
		<tag k="ssr:stedsnr" v="97409" />
	</node>
	<node lat="68.9797194400027" lon="15.139666671137068" id="-20917">
		<tag k="name" v="Lauklihågen" />
		<tag k="natural" v="hill" />
		<tag k="place" v="locality" />
		<tag k="ssr:stedsnr" v="97817" />
	</node>
	<node lat="68.88555000236767" lon="15.249738896469355" id="-20919">
		<tag k="fixme" v="consider natural=peak for the most distinct mountains in the district" />
		<tag k="name" v="Kvitgeita" />
		<tag k="natural" v="hill" />
		<tag k="place" v="locality" />
		<tag k="ssr:stedsnr" v="97788" />
	</node>
	<node lat="68.8896777809968" lon="14.851622212441843" id="-20921">
		<tag k="name" v="Solskaret" />
		<tag k="natural" v="valley" />
		<tag k="place" v="locality" />
		<tag k="ssr:stedsnr" v="100028" />
	</node>
	<node lat="68.88577222526321" lon="14.846024996597182" id="-20922">
		<tag k="name" v="Skaran" />
		<tag k="natural" v="valley" />
		<tag k="place" v="locality" />
		<tag k="ssr:stedsnr" v="100110" />
	</node>
	<node lat="68.82652777739999" lon="15.07226666350089" id="-20927">
		<tag k="fixme" v="consider natural=peak for the most distinct mountains in the district" />
		<tag k="name" v="Breifjellet" />
		<tag k="natural" v="hill" />
		<tag k="place" v="locality" />
		<tag k="ssr:stedsnr" v="102341" />
	</node>
	<node lat="69.0148111083264" lon="15.101833325216406" id="-20931">
		<tag k="name" v="Skipsandhågen" />
		<tag k="natural" v="hill" />
		<tag k="place" v="locality" />
		<tag k="ssr:stedsnr" v="116404" />
	</node>
	<node lat="68.77831666688563" lon="14.86152223260524" id="-20932">
		<tag k="name" v="Middagsheia" />
		<tag k="natural" v="hill" />
		<tag k="place" v="locality" />
		<tag k="ssr:stedsnr" v="116619" />
	</node>
	<node lat="68.79180555352575" lon="15.022044437857323" id="-20933">
		<tag k="fixme" v="consider natural=peak for the most distinct mountains in the district" />
		<tag k="name" v="Åsen" />
		<tag k="natural" v="hill" />
		<tag k="place" v="locality" />
		<tag k="ssr:stedsnr" v="117179" />
	</node>
	<node lat="69.00541666409784" lon="15.160983322216822" id="-20945">
		<tag k="fixme" v="consider natural=peak for the most distinct mountains in the district" />
		<tag k="name" v="Andersåsen" />
		<tag k="natural" v="hill" />
		<tag k="place" v="locality" />
		<tag k="ssr:stedsnr" v="138343" />
	</node>
	<node lat="68.90127222623481" lon="14.849652766289793" id="-20948">
		<tag k="alt_name" v="Laupbakkan" />
		<tag k="name" v="Laupbakken" />
		<tag k="natural" v="slope" />
		<tag k="place" v="locality" />
		<tag k="ssr:stedsnr" v="139739" />
	</node>
	<node lat="68.80109166493116" lon="14.947969441755767" id="-20956">
		<tag k="fixme" v="consider natural=peak for the most distinct mountains in the district" />
		<tag k="name" v="Skoltnesfjellet" />
		<tag k="natural" v="hill" />
		<tag k="place" v="locality" />
		<tag k="ssr:stedsnr" v="139938" />
	</node>
	<node lat="68.84871110701725" lon="14.975291672530233" id="-20957">
		<tag k="fixme" v="consider natural=peak for the most distinct mountains in the district" />
		<tag k="name" v="Slåttfjellet" />
		<tag k="natural" v="hill" />
		<tag k="place" v="locality" />
		<tag k="ssr:stedsnr" v="139837" />
	</node>
	<node lat="68.82341666297845" lon="14.76163332637951" id="-20958">
		<tag k="name" v="Lynghaugen" />
		<tag k="natural" v="hill" />
		<tag k="place" v="locality" />
		<tag k="ssr:stedsnr" v="139841" />
	</node>
	<node lat="68.88261666718653" lon="15.26303611576586" id="-20967">
		<tag k="name" v="Trolldalshola" />
		<tag k="natural" v="valley" />
		<tag k="place" v="locality" />
		<tag k="ssr:stedsnr" v="157780" />
	</node>
	<node lat="68.804024999941" lon="15.161511114949324" id="-20968">
		<tag k="fixme" v="consider natural=peak for the most distinct mountains in the district" />
		<tag k="name" v="Tverrfjellet" />
		<tag k="natural" v="hill" />
		<tag k="place" v="locality" />
		<tag k="ssr:stedsnr" v="162624" />
	</node>
	<node lat="68.95005555188558" lon="15.121516656693835" id="-20977">
		<tag k="fixme" v="consider natural=peak for the most distinct mountains in the district" />
		<tag k="name" v="Ørnnakken" />
		<tag k="natural" v="hill" />
		<tag k="place" v="locality" />
		<tag k="ssr:stedsnr" v="260664" />
	</node>
	<node lat="68.94953611393954" lon="15.045802768381519" id="-20978">
		<tag k="fixme" v="consider natural=peak for the most distinct mountains in the district" />
		<tag k="name" v="Skipet" />
		<tag k="natural" v="hill" />
		<tag k="place" v="locality" />
		<tag k="ssr:stedsnr" v="260671" />
	</node>
	<node lat="68.88050833638756" lon="15.245430544773896" id="-20983">
		<tag k="fixme" v="consider natural=peak for the most distinct mountains in the district" />
		<tag k="name" v="Nonskollen" />
		<tag k="natural" v="hill" />
		<tag k="place" v="locality" />
		<tag k="ssr:stedsnr" v="260722" />
	</node>
	<node lat="68.87421111079787" lon="15.21142221393769" id="-20984">
		<tag k="fixme" v="consider natural=peak for the most distinct mountains in the district" />
		<tag k="name" v="Jutjordtinden" />
		<tag k="natural" v="hill" />
		<tag k="place" v="locality" />
		<tag k="ssr:stedsnr" v="260729" />
	</node>
	<node lat="68.88355555510616" lon="14.923319453321438" id="-20985">
		<tag k="fixme" v="consider natural=peak for the most distinct mountains in the district" />
		<tag k="name" v="Branden" />
		<tag k="natural" v="hill" />
		<tag k="place" v="locality" />
		<tag k="ssr:stedsnr" v="260733" />
	</node>
	<node lat="68.89104166696482" lon="14.873233323399463" id="-20987">
		<tag k="fixme" v="consider natural=peak for the most distinct mountains in the district" />
		<tag k="name" v="Storbranden" />
		<tag k="natural" v="hill" />
		<tag k="place" v="locality" />
		<tag k="ssr:stedsnr" v="260821" />
	</node>
	<node lat="68.88254444683412" lon="14.88334721246963" id="-20992">
		<tag k="name" v="Kleiva" />
		<tag k="natural" v="ridge" />
		<tag k="place" v="locality" />
		<tag k="ssr:stedsnr" v="260844" />
	</node>
	<node lat="68.91247221787778" lon="15.117600003347212" id="-20999">
		<tag k="name" v="Sortland" />
		<tag k="place" v="locality" />
		<tag k="ssr:stedsnr" v="176404" />
	</node>
	<node lat="68.96808611082601" lon="15.11627223223368" id="-21000">
		<tag k="fixme" v="consider natural=peak for the most distinct mountains in the district" />
		<tag k="name" v="Mossheia" />
		<tag k="natural" v="hill" />
		<tag k="place" v="locality" />
		<tag k="ssr:stedsnr" v="176412" />
	</node>
	<node lat="68.88987499705452" lon="15.201597209324454" id="-21033">
		<tag k="name" v="Svarthammaren" />
		<tag k="natural" v="hill" />
		<tag k="place" v="locality" />
		<tag k="ssr:stedsnr" v="218127" />
	</node>
	<node lat="69.01626388879575" lon="15.159916660832826" id="-21035">
		<tag k="name" v="Johågen" />
		<tag k="natural" v="hill" />
		<tag k="place" v="locality" />
		<tag k="ssr:stedsnr" v="218867" />
	</node>
	<node lat="69.01236944436886" lon="15.140799995555287" id="-21039">
		<tag k="name" v="Kuhammaren" />
		<tag k="natural" v="hill" />
		<tag k="place" v="locality" />
		<tag k="ssr:stedsnr" v="218891" />
	</node>
	<node lat="68.90974444737991" lon="15.311794457042947" id="-21041">
		<tag k="name" v="Storhågen" />
		<tag k="natural" v="hill" />
		<tag k="place" v="locality" />
		<tag k="ssr:stedsnr" v="218779" />
	</node>
	<node lat="68.88028611090718" lon="15.230530551788487" id="-21042">
		<tag k="name" v="Svarthammardalen" />
		<tag k="natural" v="valley" />
		<tag k="place" v="locality" />
		<tag k="ssr:stedsnr" v="218780" />
	</node>
	<node lat="68.87043611059491" lon="15.280416658282858" id="-21043">
		<tag k="name" v="Ungdomssletta" />
		<tag k="place" v="locality" />
		<tag k="ssr:stedsnr" v="218788" />
	</node>
	<node lat="68.8684666637951" lon="15.260233335382619" id="-21044">
		<tag k="name" v="Vasshammeren" />
		<tag k="natural" v="hill" />
		<tag k="place" v="locality" />
		<tag k="ssr:stedsnr" v="218794" />
	</node>
	<node lat="68.88664444530957" lon="14.88313334381072" id="-21046">
		<tag k="name" v="Stulen" />
		<tag k="natural" v="hill" />
		<tag k="place" v="locality" />
		<tag k="ssr:stedsnr" v="221080" />
	</node>
	<node lat="68.88832777734424" lon="14.85625832411393" id="-21047">
		<tag k="name" v="Rødlia" />
		<tag k="natural" v="slope" />
		<tag k="place" v="locality" />
		<tag k="ssr:stedsnr" v="222027" />
	</node>
	<node lat="68.94465555924374" lon="15.271058332805293" id="-21048">
		<tag k="name" v="Einstakkhågen" />
		<tag k="natural" v="hill" />
		<tag k="place" v="locality" />
		<tag k="ssr:stedsnr" v="222513" />
	</node>
	<node lat="68.81776666369647" lon="15.26184721094766" id="-21049">
		<tag k="name" v="Reinhammaraksla" />
		<tag k="natural" v="ridge" />
		<tag k="place" v="locality" />
		<tag k="ssr:stedsnr" v="222526" />
	</node>
	<node lat="68.79070000190224" lon="14.963219432426355" id="-21054">
		<tag k="name" v="Marklahågen" />
		<tag k="natural" v="hill" />
		<tag k="place" v="locality" />
		<tag k="ssr:stedsnr" v="239179" />
	</node>
	<node lat="68.81019721831743" lon="15.129591669223124" id="-21059">
		<tag k="name" v="Kuhola" />
		<tag k="natural" v="valley" />
		<tag k="place" v="locality" />
		<tag k="ssr:stedsnr" v="260308" />
	</node>
	<node lat="68.73378333196864" lon="14.917661101951813" id="-21060">
		<tag k="fixme" v="consider natural=peak for the most distinct mountains in the district" />
		<tag k="name" v="Reinhaugen" />
		<tag k="natural" v="hill" />
		<tag k="place" v="locality" />
		<tag k="ssr:stedsnr" v="260310" />
	</node>
	<node lat="68.79345000094419" lon="15.05923889990488" id="-21062">
		<tag k="name" v="Storberget" />
		<tag k="natural" v="hill" />
		<tag k="place" v="locality" />
		<tag k="ssr:stedsnr" v="260406" />
	</node>
	<node lat="68.88346944202998" lon="14.935580561857112" id="-21067">
		<tag k="alt_name" v="Breidstranddalen" />
		<tag k="name" v="Breistranddalen" />
		<tag k="natural" v="valley" />
		<tag k="place" v="locality" />
		<tag k="ssr:stedsnr" v="260847" />
	</node>
	<node lat="68.88504166630212" lon="14.955286106006648" id="-21068">
		<tag k="name" v="Torvdalen" />
		<tag k="natural" v="valley" />
		<tag k="place" v="locality" />
		<tag k="ssr:stedsnr" v="260848" />
	</node>
	<node lat="68.78562777391973" lon="15.010894454124152" id="-21074">
		<tag k="name" v="Sommardalen" />
		<tag k="natural" v="valley" />
		<tag k="place" v="locality" />
		<tag k="ssr:stedsnr" v="260998" />
	</node>
	<node lat="68.91622500400841" lon="14.887113897580592" id="-21078">
		<tag k="fixme" v="multiple name tags, choose one and add the other to alt_name" />
		<tag k="name" v="Durmålsskaret;Skardet" />
		<tag k="natural" v="valley" />
		<tag k="place" v="locality" />
		<tag k="ssr:stedsnr" v="261720" />
	</node>
	<node lat="68.81492777593732" lon="14.99290832962845" id="-21079">
		<tag k="fixme" v="consider natural=peak for the most distinct mountains in the district" />
		<tag k="name" v="Godviktinden" />
		<tag k="natural" v="hill" />
		<tag k="place" v="locality" />
		<tag k="ssr:stedsnr" v="261898" />
	</node>
	<node lat="68.8599888850629" lon="15.232780542504916" id="-21081">
		<tag k="name" v="Sørbotnrabben" />
		<tag k="natural" v="ridge" />
		<tag k="place" v="locality" />
		<tag k="ssr:stedsnr" v="279011" />
	</node>
	<node lat="68.86125832985951" lon="15.147516656451142" id="-21083">
		<tag k="name" v="Grytøre" />
		<tag k="natural" v="hill" />
		<tag k="place" v="locality" />
		<tag k="ssr:stedsnr" v="279417" />
	</node>
	<node lat="68.98144166365523" lon="15.02375832868531" id="-21084">
		<tag k="alt_name" v="Nebbhaugen" />
		<tag k="name" v="Nebbhågen" />
		<tag k="natural" v="hill" />
		<tag k="place" v="locality" />
		<tag k="ssr:stedsnr" v="279378" />
	</node>
	<node lat="68.98577222178092" lon="15.030858341664537" id="-21085">
		<tag k="alt_name" v="Hamnhaugen" />
		<tag k="name" v="Hamnhågen" />
		<tag k="natural" v="hill" />
		<tag k="place" v="locality" />
		<tag k="ssr:stedsnr" v="279379" />
	</node>
	<node lat="68.99501944567037" lon="15.12823888591948" id="-21086">
		<tag k="name" v="Skrådalen" />
		<tag k="natural" v="valley" />
		<tag k="place" v="locality" />
		<tag k="ssr:stedsnr" v="279805" />
	</node>
	<node lat="68.99386111008764" lon="15.178050005318177" id="-21087">
		<tag k="name" v="Jakobsettermiddag" />
		<tag k="natural" v="hill" />
		<tag k="place" v="locality" />
		<tag k="ssr:stedsnr" v="279826" />
	</node>
	<node lat="68.90530277599584" lon="15.292211118297546" id="-21090">
		<tag k="name" v="Naustnakkan" />
		<tag k="natural" v="hill" />
		<tag k="place" v="locality" />
		<tag k="ssr:stedsnr" v="279776" />
	</node>
	<node lat="68.86958888867684" lon="15.27175554346163" id="-21092">
		<tag k="name" v="Skilbekkgropa" />
		<tag k="natural" v="valley" />
		<tag k="place" v="locality" />
		<tag k="ssr:stedsnr" v="279788" />
	</node>
	<node lat="68.96805277808176" lon="15.135247212825771" id="-21096">
		<tag k="name" v="Myrhågen" />
		<tag k="natural" v="hill" />
		<tag k="place" v="locality" />
		<tag k="ssr:stedsnr" v="460245" />
	</node>
	<node lat="68.95163888710884" lon="15.255427772369002" id="-21102">
		<tag k="name" v="Klefterhågen" />
		<tag k="natural" v="hill" />
		<tag k="place" v="locality" />
		<tag k="ssr:stedsnr" v="283511" />
	</node>
	<node lat="68.8039638889988" lon="15.223641675359874" id="-21103">
		<tag k="fixme" v="consider natural=peak for the most distinct mountains in the district" />
		<tag k="name" v="Båttinden" />
		<tag k="natural" v="hill" />
		<tag k="place" v="locality" />
		<tag k="ssr:stedsnr" v="283517" />
	</node>
	<node lat="68.8209416679487" lon="15.250474993561712" id="-21104">
		<tag k="name" v="Gaphågen" />
		<tag k="natural" v="hill" />
		<tag k="place" v="locality" />
		<tag k="ssr:stedsnr" v="283524" />
	</node>
	<node lat="68.91776110803703" lon="15.21956110483132" id="-21105">
		<tag k="name" v="Sjyhågen" />
		<tag k="natural" v="hill" />
		<tag k="place" v="locality" />
		<tag k="ssr:stedsnr" v="461031" />
	</node>
	<node lat="68.90184999689828" lon="14.98244998914823" id="-21107">
		<tag k="name" v="Gårdsdalen" />
		<tag k="natural" v="valley" />
		<tag k="place" v="locality" />
		<tag k="ssr:stedsnr" v="284326" />
	</node>
	<node lat="68.89864722236861" lon="14.974911117099934" id="-21108">
		<tag k="fixme" v="consider natural=peak for the most distinct mountains in the district" />
		<tag k="name" v="Rødraet" />
		<tag k="natural" v="hill" />
		<tag k="place" v="locality" />
		<tag k="ssr:stedsnr" v="284328" />
	</node>
	<node lat="68.896550002961" lon="15.287491677244653" id="-21111">
		<tag k="name" v="Resshøgda" />
		<tag k="natural" v="hill" />
		<tag k="old_name" v="Resshågen" />
		<tag k="place" v="locality" />
		<tag k="ssr:stedsnr" v="461137" />
	</node>
	<node lat="69.01782222020344" lon="15.103550000505628" id="-21115">
		<tag k="name" v="Kuhågen" />
		<tag k="natural" v="hill" />
		<tag k="place" v="locality" />
		<tag k="ssr:stedsnr" v="461432" />
	</node>
	<node lat="68.84442778106566" lon="14.847677787470918" id="-21117">
		<tag k="name" v="Børøyveggen" />
		<tag k="place" v="locality" />
		<tag k="ssr:stedsnr" v="461796" />
	</node>
	<node lat="68.99711944685642" lon="15.076350003662922" id="-21122">
		<tag k="name" v="Slåtten" />
		<tag k="place" v="locality" />
		<tag k="ssr:stedsnr" v="298382" />
	</node>
	<node lat="68.7690472258385" lon="14.803011105380822" id="-21123">
		<tag k="fixme" v="consider natural=peak for the most distinct mountains in the district" />
		<tag k="name" v="Skålebøtindan" />
		<tag k="natural" v="hill" />
		<tag k="place" v="locality" />
		<tag k="ssr:stedsnr" v="298593" />
	</node>
	<node lat="68.78975277460972" lon="14.979344450043085" id="-21124">
		<tag k="name" v="Fesktindskaret" />
		<tag k="natural" v="valley" />
		<tag k="place" v="locality" />
		<tag k="ssr:stedsnr" v="299174" />
	</node>
	<node lat="68.83436111224805" lon="14.722322230735594" id="-21126">
		<tag k="name" v="Storhågen" />
		<tag k="natural" v="hill" />
		<tag k="place" v="locality" />
		<tag k="ssr:stedsnr" v="300687" />
	</node>
	<node lat="68.82062221805064" lon="14.842436116338568" id="-21129">
		<tag k="name" v="Stien" />
		<tag k="natural" v="slope" />
		<tag k="place" v="locality" />
		<tag k="ssr:stedsnr" v="301907" />
	</node>
	<node lat="68.88986666907766" lon="14.901205560524264" id="-21130">
		<tag k="name" v="Hestdalen" />
		<tag k="natural" v="valley" />
		<tag k="place" v="locality" />
		<tag k="ssr:stedsnr" v="464040" />
	</node>
	<node lat="68.88371388749046" lon="14.840319444012705" id="-21135">
		<tag k="name" v="Hauan" />
		<tag k="natural" v="hill" />
		<tag k="place" v="locality" />
		<tag k="ssr:stedsnr" v="464123" />
	</node>
	<node lat="68.95869166475809" lon="15.281363890328565" id="-21136">
		<tag k="name" v="Kattvåghågen" />
		<tag k="natural" v="hill" />
		<tag k="place" v="locality" />
		<tag k="ssr:stedsnr" v="464501" />
	</node>
	<node lat="68.81771388823081" lon="15.237047232775582" id="-21137">
		<tag k="name" v="Branthågen" />
		<tag k="natural" v="hill" />
		<tag k="place" v="locality" />
		<tag k="ssr:stedsnr" v="465563" />
	</node>
	<node lat="68.81977500205157" lon="15.244238886027532" id="-21138">
		<tag k="name" v="Vassbotn" />
		<tag k="natural" v="valley" />
		<tag k="place" v="locality" />
		<tag k="ssr:stedsnr" v="465564" />
	</node>
	<node lat="68.82085833303799" lon="15.257963886018842" id="-21139">
		<tag k="name" v="Leitingshågen" />
		<tag k="natural" v="hill" />
		<tag k="place" v="locality" />
		<tag k="ssr:stedsnr" v="465566" />
	</node>
	<node lat="68.88548889267769" lon="15.13820279080323" id="-21140">
		<tag k="name" v="Rødhammaren" />
		<tag k="natural" v="hill" />
		<tag k="place" v="locality" />
		<tag k="ssr:stedsnr" v="465629" />
	</node>
	<node lat="68.96268889155803" lon="15.02900555679992" id="-21141">
		<tag k="name" v="Meddagsdalen" />
		<tag k="natural" v="valley" />
		<tag k="place" v="locality" />
		<tag k="ssr:stedsnr" v="466339" />
	</node>
	<node lat="68.91056667116936" lon="14.984536107769365" id="-21142">
		<tag k="fixme" v="consider natural=peak for the most distinct mountains in the district" />
		<tag k="name" v="Skoghammaren" />
		<tag k="natural" v="hill" />
		<tag k="place" v="locality" />
		<tag k="ssr:stedsnr" v="466345" />
	</node>
	<node lat="68.79470277425753" lon="15.21557221907929" id="-21153">
		<tag k="fixme" v="consider natural=peak for the most distinct mountains in the district" />
		<tag k="name" v="Årbringen" />
		<tag k="natural" v="hill" />
		<tag k="place" v="locality" />
		<tag k="ssr:stedsnr" v="321334" />
	</node>
	<node lat="68.74263332961847" lon="14.861708325466628" id="-21154">
		<tag k="fixme" v="consider natural=peak for the most distinct mountains in the district" />
		<tag k="name" v="Kutinden" />
		<tag k="natural" v="hill" />
		<tag k="place" v="locality" />
		<tag k="ssr:stedsnr" v="321336" />
	</node>
	<node lat="68.98259444853319" lon="15.07137777762521" id="-21157">
		<tag k="fixme" v="consider natural=peak for the most distinct mountains in the district" />
		<tag k="name" v="Finngamheia" />
		<tag k="natural" v="hill" />
		<tag k="place" v="locality" />
		<tag k="ssr:stedsnr" v="321537" />
	</node>
	<node lat="68.97317499601637" lon="15.080363878083409" id="-21159">
		<tag k="alt_name" v="Valberghågen" />
		<tag k="name" v="Valborghaugen" />
		<tag k="natural" v="hill" />
		<tag k="place" v="locality" />
		<tag k="ssr:stedsnr" v="321584" />
	</node>
	<node lat="68.91728055149922" lon="14.961863893092037" id="-21161">
		<tag k="alt_name" v="Litj-Klauva" />
		<tag k="fixme" v="consider natural=peak for the most distinct mountains in the district" />
		<tag k="name" v="Litlklauva" />
		<tag k="natural" v="hill" />
		<tag k="place" v="locality" />
		<tag k="ssr:stedsnr" v="321727" />
	</node>
	<node lat="68.84967777678331" lon="15.283258331016059" id="-21174">
		<tag k="name" v="Sørøyhumpen" />
		<tag k="natural" v="hill" />
		<tag k="place" v="locality" />
		<tag k="ssr:stedsnr" v="339445" />
	</node>
	<node lat="68.85554166265204" lon="15.26823055176133" id="-21175">
		<tag k="name" v="Blåhatten" />
		<tag k="natural" v="hill" />
		<tag k="place" v="locality" />
		<tag k="ssr:stedsnr" v="339455" />
	</node>
	<node lat="68.87897222467231" lon="15.281272230002218" id="-21176">
		<tag k="fixme" v="consider natural=peak for the most distinct mountains in the district" />
		<tag k="name" v="Langrånna" />
		<tag k="natural" v="hill" />
		<tag k="place" v="locality" />
		<tag k="ssr:stedsnr" v="339749" />
	</node>
	<node lat="69.0007527803098" lon="15.165830562733992" id="-21177">
		<tag k="name" v="Pikhågen" />
		<tag k="natural" v="hill" />
		<tag k="place" v="locality" />
		<tag k="ssr:stedsnr" v="339756" />
	</node>
	<node lat="68.97736667127707" lon="15.153838885176704" id="-21179">
		<tag k="name" v="Skjettnakkhågen" />
		<tag k="natural" v="hill" />
		<tag k="place" v="locality" />
		<tag k="ssr:stedsnr" v="339799" />
	</node>
	<node lat="68.8871999997101" lon="14.870244435966539" id="-21187">
		<tag k="name" v="Eriklia" />
		<tag k="natural" v="slope" />
		<tag k="place" v="locality" />
		<tag k="ssr:stedsnr" v="342093" />
	</node>
	<node lat="68.81046944824753" lon="15.082402772911788" id="-21191">
		<tag k="name" v="Svartbergan" />
		<tag k="natural" v="hill" />
		<tag k="place" v="locality" />
		<tag k="ssr:stedsnr" v="344498" />
	</node>
	<node lat="68.837572223074" lon="15.014000000486899" id="-21192">
		<tag k="name" v="Rishågen" />
		<tag k="natural" v="hill" />
		<tag k="place" v="locality" />
		<tag k="ssr:stedsnr" v="360102" />
	</node>
	<node lat="68.80142221820788" lon="14.993655555805304" id="-21193">
		<tag k="fixme" v="consider natural=peak for the most distinct mountains in the district" />
		<tag k="name" v="Tverrfjellet" />
		<tag k="natural" v="hill" />
		<tag k="place" v="locality" />
		<tag k="ssr:stedsnr" v="360108" />
	</node>
	<node lat="68.80424444492701" lon="15.01568888320957" id="-21194">
		<tag k="name" v="Skjellrabben" />
		<tag k="natural" v="hill" />
		<tag k="place" v="locality" />
		<tag k="ssr:stedsnr" v="360109" />
	</node>
	<node lat="68.84106666444934" lon="15.042599988235212" id="-21195">
		<tag k="name" v="Skjellberget" />
		<tag k="natural" v="hill" />
		<tag k="place" v="locality" />
		<tag k="ssr:stedsnr" v="360100" />
	</node>
	<node lat="68.97581944552775" lon="15.11179443220108" id="-21199">
		<tag k="name" v="Klodalen" />
		<tag k="natural" v="valley" />
		<tag k="place" v="locality" />
		<tag k="ssr:stedsnr" v="480352" />
	</node>
	<node lat="68.80633888781752" lon="15.09076388140067" id="-21201">
		<tag k="name" v="Bukkedalen" />
		<tag k="natural" v="valley" />
		<tag k="place" v="locality" />
		<tag k="ssr:stedsnr" v="480450" />
	</node>
	<node lat="68.81149437897595" lon="15.11588624471677" id="-21202">
		<tag k="name" v="Storslettheia" />
		<tag k="natural" v="hill" />
		<tag k="place" v="locality" />
		<tag k="ssr:stedsnr" v="480453" />
	</node>
	<node lat="68.80186111160559" lon="15.110497218539928" id="-21203">
		<tag k="name" v="Dalbotnheia" />
		<tag k="natural" v="hill" />
		<tag k="place" v="locality" />
		<tag k="ssr:stedsnr" v="480455" />
	</node>
	<node lat="68.79712222373014" lon="14.745133330104322" id="-21204">
		<tag k="name" v="Slettbakkan" />
		<tag k="natural" v="slope" />
		<tag k="place" v="locality" />
		<tag k="ssr:stedsnr" v="480655" />
	</node>
	<node lat="68.82021388740849" lon="15.105255559731988" id="-21209">
		<tag k="alt_name" v="Snekkebogtinden;Øverfjellet" />
		<tag k="fixme" v="consider natural=peak for the most distinct mountains in the district" />
		<tag k="name" v="Øverdalsfjellet" />
		<tag k="natural" v="hill" />
		<tag k="place" v="locality" />
		<tag k="ssr:stedsnr" v="381309" />
	</node>
	<node lat="68.9565305527205" lon="15.03881666747544" id="-21214">
		<tag k="alt_name" v="Kattflåget" />
		<tag k="fixme" v="consider natural=peak for the most distinct mountains in the district" />
		<tag k="name" v="Kattfloget" />
		<tag k="natural" v="hill" />
		<tag k="place" v="locality" />
		<tag k="ssr:stedsnr" v="381656" />
	</node>
	<node lat="68.94610555578451" lon="15.290008343580018" id="-21215">
		<tag k="alt_name" v="Storhågen" />
		<tag k="name" v="Storhaugen" />
		<tag k="natural" v="hill" />
		<tag k="place" v="locality" />
		<tag k="ssr:stedsnr" v="381673" />
	</node>
	<node lat="68.91232221852775" lon="14.889747215442805" id="-21216">
		<tag k="fixme" v="consider natural=peak for the most distinct mountains in the district" />
		<tag k="name" v="Monslitindan" />
		<tag k="natural" v="hill" />
		<tag k="place" v="locality" />
		<tag k="ssr:stedsnr" v="381814" />
	</node>
	<node lat="68.85428888423513" lon="15.223622233167243" id="-21219">
		<tag k="fixme" v="consider natural=peak for the most distinct mountains in the district" />
		<tag k="name" v="Brannåstinden" />
		<tag k="natural" v="hill" />
		<tag k="place" v="locality" />
		<tag k="ssr:stedsnr" v="382685" />
	</node>
	<node lat="68.82563332938471" lon="14.8395722206478" id="-21230">
		<tag k="name" v="Melkarhågen" />
		<tag k="natural" v="hill" />
		<tag k="place" v="locality" />
		<tag k="ssr:stedsnr" v="483825" />
	</node>
	<node lat="68.86336389280953" lon="15.27694721822852" id="-21231">
		<tag k="name" v="Seihågen" />
		<tag k="natural" v="hill" />
		<tag k="place" v="locality" />
		<tag k="ssr:stedsnr" v="400027" />
	</node>
	<node lat="68.91239444066225" lon="15.277288876163656" id="-21232">
		<tag k="name" v="Vasshågen" />
		<tag k="natural" v="hill" />
		<tag k="place" v="locality" />
		<tag k="ssr:stedsnr" v="400032" />
	</node>
	<node lat="68.91844722397617" lon="15.267300005656358" id="-21233">
		<tag k="name" v="Ramnhågen" />
		<tag k="natural" v="hill" />
		<tag k="place" v="locality" />
		<tag k="ssr:stedsnr" v="400035" />
	</node>
	<node lat="68.92176111377874" lon="15.072502771004315" id="-21234">
		<tag k="name" v="Kammen" />
		<tag k="natural" v="ridge" />
		<tag k="place" v="locality" />
		<tag k="ssr:stedsnr" v="400127" />
	</node>
	<node lat="68.9089611123893" lon="15.298186099490447" id="-21241">
		<tag k="name" v="Sildgarnhågan" />
		<tag k="natural" v="hill" />
		<tag k="place" v="locality" />
		<tag k="ssr:stedsnr" v="400782" />
	</node>
	<node lat="68.87427499940493" lon="15.2689805545497" id="-21244">
		<tag k="name" v="Vassbakken" />
		<tag k="natural" v="slope" />
		<tag k="place" v="locality" />
		<tag k="ssr:stedsnr" v="400808" />
	</node>
	<node lat="68.88540555647171" lon="14.871202782923914" id="-21247">
		<tag k="alt_name" v="Høydal" />
		<tag k="name" v="Høydalen" />
		<tag k="natural" v="valley" />
		<tag k="place" v="locality" />
		<tag k="ssr:stedsnr" v="401302" />
	</node>
	<node lat="68.95585833748656" lon="15.258394454227433" id="-21251">
		<tag k="name" v="Stabbhågan" />
		<tag k="natural" v="hill" />
		<tag k="place" v="locality" />
		<tag k="ssr:stedsnr" v="404478" />
	</node>
	<node lat="69.00508055682268" lon="15.103338876775565" id="-21257">
		<tag k="name" v="Gjuraheia" />
		<tag k="natural" v="hill" />
		<tag k="place" v="locality" />
		<tag k="ssr:stedsnr" v="419408" />
	</node>
	<node lat="68.88708611552838" lon="15.112613889190952" id="-21260">
		<tag k="name" v="Strupen" />
		<tag k="natural" v="valley" />
		<tag k="place" v="locality" />
		<tag k="ssr:stedsnr" v="419439" />
	</node>
	<node lat="68.93622777810323" lon="15.075641673402632" id="-21261">
		<tag k="name" v="Rødsandheia" />
		<tag k="natural" v="hill" />
		<tag k="place" v="locality" />
		<tag k="ssr:stedsnr" v="419388" />
	</node>
	<node lat="68.77394999623871" lon="14.990816669851982" id="-21265">
		<tag k="name" v="Elverånnhallaren" />
		<tag k="natural" v="hill" />
		<tag k="place" v="locality" />
		<tag k="ssr:stedsnr" v="421151" />
	</node>
	<node lat="68.81638055273187" lon="14.82453611382228" id="-21267">
		<tag k="name" v="Hushammaren" />
		<tag k="natural" v="hill" />
		<tag k="place" v="locality" />
		<tag k="ssr:stedsnr" v="423908" />
	</node>
	<node lat="68.81931700347423" lon="15.24708515940029" id="-21270">
		<tag k="name" v="Gjertruddalen" />
		<tag k="natural" v="valley" />
		<tag k="place" v="locality" />
		<tag k="ssr:stedsnr" v="442308" />
	</node>
	<node lat="69.00068889317534" lon="15.024705558468117" id="-21273">
		<tag k="alt_name" v="Dolpen" />
		<tag k="fixme" v="consider natural=peak for the most distinct mountains in the district" />
		<tag k="name" v="Delpen" />
		<tag k="natural" v="hill" />
		<tag k="place" v="locality" />
		<tag k="ssr:stedsnr" v="442343" />
	</node>
	<node lat="68.88509722080448" lon="15.225044432612641" id="-21275">
		<tag k="name" v="Svarthammaren" />
		<tag k="natural" v="hill" />
		<tag k="place" v="locality" />
		<tag k="ssr:stedsnr" v="442704" />
	</node>
	<node lat="68.78531388758176" lon="14.874999993197706" id="-21279">
		<tag k="fixme" v="consider natural=peak for the most distinct mountains in the district" />
		<tag k="name" v="Humpan" />
		<tag k="natural" v="hill" />
		<tag k="place" v="locality" />
		<tag k="ssr:stedsnr" v="442986" />
	</node>
	<node lat="68.80115833313191" lon="15.126524995916455" id="-21283">
		<tag k="name" v="Strompedalen" />
		<tag k="natural" v="valley" />
		<tag k="place" v="locality" />
		<tag k="ssr:stedsnr" v="443365" />
	</node>
	<node lat="68.86628611429902" lon="15.278897223533216" id="-21285">
		<tag k="name" v="Skjellarhågen" />
		<tag k="natural" v="hill" />
		<tag k="place" v="locality" />
		<tag k="ssr:stedsnr" v="461020" />
	</node>
	<node lat="68.9070999997258" lon="15.21156390035839" id="-21286">
		<tag k="name" v="Storhågen" />
		<tag k="natural" v="hill" />
		<tag k="place" v="locality" />
		<tag k="ssr:stedsnr" v="461104" />
	</node>
	<node lat="68.88324722342499" lon="15.277966670834571" id="-21289">
		<tag k="name" v="Storhammaren" />
		<tag k="natural" v="hill" />
		<tag k="place" v="locality" />
		<tag k="ssr:stedsnr" v="461770" />
	</node>
	<node lat="68.99634721855996" lon="15.14792222344243" id="-21291">
		<tag k="name" v="Kjækabakken" />
		<tag k="natural" v="slope" />
		<tag k="place" v="locality" />
		<tag k="ssr:stedsnr" v="461816" />
	</node>
	<node lat="68.9160194469961" lon="14.863202785343029" id="-21297">
		<tag k="name" v="Vollen" />
		<tag k="place" v="locality" />
		<tag k="ssr:stedsnr" v="464066" />
	</node>
	<node lat="68.94058610680793" lon="15.269586110237242" id="-21300">
		<tag k="name" v="Sør-Buhågen" />
		<tag k="natural" v="hill" />
		<tag k="place" v="locality" />
		<tag k="ssr:stedsnr" v="464555" />
	</node>
	<node lat="68.90696944068539" lon="14.918008321374565" id="-21301">
		<tag k="fixme" v="consider natural=peak for the most distinct mountains in the district" />
		<tag k="name" v="Innerraet" />
		<tag k="natural" v="hill" />
		<tag k="place" v="locality" />
		<tag k="ssr:stedsnr" v="480157" />
	</node>
	<node lat="68.76524444832769" lon="14.829408324713874" id="-21309">
		<tag k="fixme" v="consider natural=peak for the most distinct mountains in the district" />
		<tag k="name" v="Tverrfjellet" />
		<tag k="natural" v="hill" />
		<tag k="place" v="locality" />
		<tag k="ssr:stedsnr" v="503520" />
	</node>
	<node lat="68.72543055270465" lon="14.889505561402272" id="-21311">
		<tag k="fixme" v="consider natural=peak for the most distinct mountains in the district" />
		<tag k="name" v="Ånnfjordtinden" />
		<tag k="natural" v="hill" />
		<tag k="place" v="locality" />
		<tag k="ssr:stedsnr" v="503224" />
	</node>
	<node lat="68.77638889041852" lon="15.01460278760423" id="-21312">
		<tag k="fixme" v="consider natural=peak for the most distinct mountains in the district" />
		<tag k="name" v="Nipa" />
		<tag k="natural" v="hill" />
		<tag k="place" v="locality" />
		<tag k="ssr:stedsnr" v="503480" />
	</node>
	<node lat="68.92223611280602" lon="14.892438897773856" id="-21318">
		<tag k="alt_name" v="Sørsandskardet" />
		<tag k="fixme" v="multiple name tags, choose one and add the other to alt_name" />
		<tag k="name" v="Skaret;Sørsandskaret" />
		<tag k="natural" v="valley" />
		<tag k="place" v="locality" />
		<tag k="ssr:stedsnr" v="503725" />
	</node>
	<node lat="68.8564861126342" lon="15.158216665971311" id="-21323">
		<tag k="name" v="Storlihammaren" />
		<tag k="natural" v="hill" />
		<tag k="place" v="locality" />
		<tag k="ssr:stedsnr" v="521405" />
	</node>
	<node lat="69.00902777587011" lon="15.138377780016903" id="-21329">
		<tag k="name" v="Bergaksla" />
		<tag k="natural" v="slope" />
		<tag k="place" v="locality" />
		<tag k="ssr:stedsnr" v="521865" />
	</node>
	<node lat="68.80846111336373" lon="15.166750012316895" id="-21332">
		<tag k="alt_name" v="Innerhågen" />
		<tag k="name" v="Indrehaugen" />
		<tag k="natural" v="hill" />
		<tag k="place" v="locality" />
		<tag k="ssr:stedsnr" v="685280" />
	</node>
	<node lat="68.8352944485774" lon="15.213216662846287" id="-21333">
		<tag k="fixme" v="consider natural=peak for the most distinct mountains in the district" />
		<tag k="name" v="Stortinden" />
		<tag k="natural" v="hill" />
		<tag k="place" v="locality" />
		<tag k="ssr:stedsnr" v="685282" />
	</node>
	<node lat="68.77451666509815" lon="14.813755557879398" id="-21337">
		<tag k="name" v="Sørdalen" />
		<tag k="natural" v="valley" />
		<tag k="place" v="locality" />
		<tag k="ssr:stedsnr" v="685508" />
	</node>
	<node lat="68.91527499914122" lon="14.876283335460094" id="-21345">
		<tag k="name" v="Krøkbærhågen" />
		<tag k="natural" v="hill" />
		<tag k="place" v="locality" />
		<tag k="ssr:stedsnr" v="525064" />
	</node>
	<node lat="68.85507499785402" lon="14.963336100298628" id="-21346">
		<tag k="name" v="Rødbergan" />
		<tag k="natural" v="hill" />
		<tag k="place" v="locality" />
		<tag k="ssr:stedsnr" v="525067" />
	</node>
	<node lat="68.85808610962775" lon="14.952349996201754" id="-21347">
		<tag k="name" v="Løngmoa" />
		<tag k="place" v="locality" />
		<tag k="ssr:stedsnr" v="525084" />
	</node>
	<node lat="68.89846666567342" lon="15.249266666931002" id="-21349">
		<tag k="fixme" v="consider natural=peak for the most distinct mountains in the district" />
		<tag k="name" v="Ørntuva" />
		<tag k="natural" v="hill" />
		<tag k="place" v="locality" />
		<tag k="ssr:stedsnr" v="685656" />
	</node>
	<node lat="68.93444999807318" lon="15.056413878100901" id="-21350">
		<tag k="fixme" v="multiple name tags, choose one and add the other to alt_name" />
		<tag k="name" v="Gylta;Tinden" />
		<tag k="natural" v="hill" />
		<tag k="place" v="locality" />
		<tag k="ssr:stedsnr" v="685611" />
	</node>
	<node lat="68.92425000181811" lon="15.065333331491052" id="-21352">
		<tag k="fixme" v="consider natural=peak for the most distinct mountains in the district" />
		<tag k="name" v="Myrtinden" />
		<tag k="natural" v="hill" />
		<tag k="place" v="locality" />
		<tag k="ssr:stedsnr" v="685622" />
	</node>
	<node lat="68.90726666647876" lon="14.947413890259854" id="-21360">
		<tag k="name" v="Kalvdalen" />
		<tag k="natural" v="valley" />
		<tag k="place" v="locality" />
		<tag k="ssr:stedsnr" v="685761" />
	</node>
	<node lat="68.90770833790108" lon="14.956027770519562" id="-21361">
		<tag k="alt_name" v="Nattmålstind" />
		<tag k="fixme" v="consider natural=peak for the most distinct mountains in the district" />
		<tag k="name" v="Nattmålstinden" />
		<tag k="natural" v="hill" />
		<tag k="place" v="locality" />
		<tag k="ssr:stedsnr" v="685764" />
	</node>
	<node lat="68.82953611212011" lon="15.234619445207452" id="-21362">
		<tag k="name" v="Kvanntoa" />
		<tag k="natural" v="slope" />
		<tag k="place" v="locality" />
		<tag k="ssr:stedsnr" v="526610" />
	</node>
	<node lat="68.88981389160845" lon="14.948002779960506" id="-21365">
		<tag k="fixme" v="consider natural=peak for the most distinct mountains in the district" />
		<tag k="name" v="Sommarsettinden" />
		<tag k="natural" v="hill" />
		<tag k="place" v="locality" />
		<tag k="ssr:stedsnr" v="685774" />
	</node>
	<node lat="68.89662777535884" lon="14.98190833860375" id="-21366">
		<tag k="name" v="Tilsetdalen" />
		<tag k="natural" v="valley" />
		<tag k="place" v="locality" />
		<tag k="ssr:stedsnr" v="685776" />
	</node>
	<node lat="68.81669444832114" lon="14.990602780734006" id="-21373">
		<tag k="alt_name" v="Godvikskardet" />
		<tag k="name" v="Godvikskaret" />
		<tag k="natural" v="valley" />
		<tag k="place" v="locality" />
		<tag k="ssr:stedsnr" v="685879" />
	</node>
	<node lat="68.86962500157341" lon="14.83249167432026" id="-21376">
		<tag k="fixme" v="consider natural=peak for the most distinct mountains in the district" />
		<tag k="name" v="Ørntuva" />
		<tag k="natural" v="hill" />
		<tag k="place" v="locality" />
		<tag k="ssr:stedsnr" v="685818" />
	</node>
	<node lat="68.78083333645658" lon="14.994516673731864" id="-21379">
		<tag k="name" v="Skjåjorddalen" />
		<tag k="natural" v="valley" />
		<tag k="place" v="locality" />
		<tag k="ssr:stedsnr" v="685997" />
	</node>
	<node lat="68.89710555673896" lon="14.921630546405515" id="-21385">
		<tag k="name" v="Tekkelskaret" />
		<tag k="natural" v="valley" />
		<tag k="place" v="locality" />
		<tag k="ssr:stedsnr" v="540182" />
	</node>
	<node lat="68.9624388846667" lon="14.942613889453993" id="-21386">
		<tag k="fixme" v="consider natural=peak for the most distinct mountains in the district" />
		<tag k="name" v="Storvassreva" />
		<tag k="natural" v="hill" />
		<tag k="place" v="locality" />
		<tag k="ssr:stedsnr" v="540187" />
	</node>
	<node lat="68.84404444317467" lon="14.749858322707656" id="-21388">
		<tag k="name" v="Halsen" />
		<tag k="place" v="locality" />
		<tag k="ssr:stedsnr" v="543671" />
	</node>
	<node lat="68.82711111387972" lon="14.820308344019258" id="-21389">
		<tag k="fixme" v="consider natural=peak for the most distinct mountains in the district" />
		<tag k="name" v="Enkemannen" />
		<tag k="natural" v="hill" />
		<tag k="place" v="locality" />
		<tag k="ssr:stedsnr" v="544771" />
	</node>
	<node lat="68.92057222233254" lon="15.267897218740107" id="-21395">
		<tag k="name" v="Gjerdhågen" />
		<tag k="natural" v="hill" />
		<tag k="place" v="locality" />
		<tag k="ssr:stedsnr" v="582044" />
	</node>
	<node lat="68.87305278203598" lon="15.258772227013727" id="-21398">
		<tag k="fixme" v="consider natural=peak for the most distinct mountains in the district" />
		<tag k="name" v="Firetinden" />
		<tag k="natural" v="hill" />
		<tag k="place" v="locality" />
		<tag k="ssr:stedsnr" v="582810" />
	</node>
	<node lat="68.98862222363084" lon="15.150894432505265" id="-21399">
		<tag k="fixme" v="consider natural=peak for the most distinct mountains in the district" />
		<tag k="name" v="Båsan" />
		<tag k="natural" v="hill" />
		<tag k="place" v="locality" />
		<tag k="ssr:stedsnr" v="582818" />
	</node>
	<node lat="68.97928611080309" lon="15.129997220261208" id="-21401">
		<tag k="name" v="Kalvdalen" />
		<tag k="natural" v="valley" />
		<tag k="place" v="locality" />
		<tag k="ssr:stedsnr" v="582842" />
	</node>
	<node lat="69.01535833305896" lon="15.159158330767047" id="-21402">
		<tag k="name" v="Sommarfjøshågen" />
		<tag k="natural" v="hill" />
		<tag k="place" v="locality" />
		<tag k="ssr:stedsnr" v="582850" />
	</node>
	<node lat="68.88801944393632" lon="15.281983334338742" id="-21404">
		<tag k="name" v="Sandandalen" />
		<tag k="natural" v="valley" />
		<tag k="place" v="locality" />
		<tag k="ssr:stedsnr" v="582793" />
	</node>
	<node lat="68.86777500445577" lon="15.267333333121384" id="-21405">
		<tag k="name" v="Grønnlia" />
		<tag k="natural" v="slope" />
		<tag k="place" v="locality" />
		<tag k="ssr:stedsnr" v="582799" />
	</node>
	<node lat="68.8340527818506" lon="15.230769435345579" id="-21408">
		<tag k="fixme" v="consider natural=peak for the most distinct mountains in the district" />
		<tag k="name" v="Humpan" />
		<tag k="natural" v="hill" />
		<tag k="place" v="locality" />
		<tag k="ssr:stedsnr" v="586600" />
	</node>
	<node lat="68.90219999640453" lon="14.986633320393606" id="-21409">
		<tag k="name" v="Vedhågen" />
		<tag k="natural" v="hill" />
		<tag k="place" v="locality" />
		<tag k="ssr:stedsnr" v="587347" />
	</node>
	<node lat="68.98046667118315" lon="15.10904443395317" id="-21411">
		<tag k="fixme" v="consider natural=peak for the most distinct mountains in the district" />
		<tag k="name" v="Hallen" />
		<tag k="natural" v="hill" />
		<tag k="place" v="locality" />
		<tag k="ssr:stedsnr" v="601355" />
	</node>
	<node lat="68.79443332950764" lon="14.938191655706111" id="-21414">
		<tag k="name" v="Langknausen" />
		<tag k="natural" v="hill" />
		<tag k="place" v="locality" />
		<tag k="ssr:stedsnr" v="604755" />
	</node>
	<node lat="68.85484444282939" lon="15.194938880546276" id="-21425">
		<tag k="alt_name" v="Litledalsheia" />
		<tag k="fixme" v="consider natural=peak for the most distinct mountains in the district" />
		<tag k="name" v="Litjdalsheia" />
		<tag k="natural" v="hill" />
		<tag k="place" v="locality" />
		<tag k="ssr:stedsnr" v="624709" />
	</node>
	<node lat="68.83334722171111" lon="14.939275010335631" id="-21427">
		<tag k="fixme" v="consider natural=peak for the most distinct mountains in the district" />
		<tag k="name" v="Katthammaren" />
		<tag k="natural" v="hill" />
		<tag k="place" v="locality" />
		<tag k="ssr:stedsnr" v="624868" />
	</node>
	<node lat="68.91803888918803" lon="15.281219434386589" id="-21435">
		<tag k="name" v="Halvmiddagshågen" />
		<tag k="natural" v="hill" />
		<tag k="place" v="locality" />
		<tag k="ssr:stedsnr" v="704039" />
	</node>
	<node lat="68.85139722014746" lon="15.088663876923743" id="-21438">
		<tag k="name" v="Trollhola" />
		<tag k="natural" v="valley" />
		<tag k="place" v="locality" />
		<tag k="ssr:stedsnr" v="704402" />
	</node>
	<node lat="68.87417499966598" lon="15.280288894794491" id="-21440">
		<tag k="name" v="Storhågen" />
		<tag k="natural" v="hill" />
		<tag k="place" v="locality" />
		<tag k="ssr:stedsnr" v="704790" />
	</node>
	<node lat="68.88644166814315" lon="15.24746110192799" id="-21441">
		<tag k="fixme" v="consider natural=peak for the most distinct mountains in the district" />
		<tag k="name" v="Innerkeipen" />
		<tag k="natural" v="hill" />
		<tag k="place" v="locality" />
		<tag k="ssr:stedsnr" v="704756" />
	</node>
	<node lat="69.01510833224717" lon="15.13899166933742" id="-21442">
		<tag k="name" v="Kjerringhågen" />
		<tag k="natural" v="hill" />
		<tag k="place" v="locality" />
		<tag k="ssr:stedsnr" v="704824" />
	</node>
	<node lat="69.00820278152996" lon="15.167236109064667" id="-21443">
		<tag k="name" v="Daumannshågen" />
		<tag k="natural" v="hill" />
		<tag k="place" v="locality" />
		<tag k="ssr:stedsnr" v="704830" />
	</node>
	<node lat="68.86353611221095" lon="15.252944448579713" id="-21450">
		<tag k="name" v="Sauhollia" />
		<tag k="natural" v="slope" />
		<tag k="place" v="locality" />
		<tag k="ssr:stedsnr" v="642026" />
	</node>
	<node lat="68.86234444036167" lon="15.253280548437194" id="-21451">
		<tag k="name" v="Sauholdsknauvsen" />
		<tag k="natural" v="hill" />
		<tag k="place" v="locality" />
		<tag k="ssr:stedsnr" v="642028" />
	</node>
	<node lat="69.01774722264655" lon="15.11028055098074" id="-21453">
		<tag k="name" v="Hellrabben" />
		<tag k="natural" v="ridge" />
		<tag k="place" v="locality" />
		<tag k="ssr:stedsnr" v="642426" />
	</node>
	<node lat="68.97301666730078" lon="15.042727779405121" id="-21454">
		<tag k="name" v="Vottestadheia" />
		<tag k="natural" v="hill" />
		<tag k="place" v="locality" />
		<tag k="ssr:stedsnr" v="642378" />
	</node>
	<node lat="69.0114944478256" lon="15.150000000706482" id="-21455">
		<tag k="name" v="Storhågen" />
		<tag k="natural" v="hill" />
		<tag k="place" v="locality" />
		<tag k="ssr:stedsnr" v="642825" />
	</node>
	<node lat="69.00965555577207" lon="15.177702772017854" id="-21456">
		<tag k="name" v="Snåldhaugan" />
		<tag k="natural" v="hill" />
		<tag k="place" v="locality" />
		<tag k="ssr:stedsnr" v="642828" />
	</node>
	<node lat="69.01683332929021" lon="15.155041660098293" id="-21457">
		<tag k="name" v="Martahågen" />
		<tag k="natural" v="hill" />
		<tag k="place" v="locality" />
		<tag k="ssr:stedsnr" v="642832" />
	</node>
	<node lat="68.87175555761418" lon="15.27386943916444" id="-21461">
		<tag k="name" v="Langhammaren" />
		<tag k="natural" v="hill" />
		<tag k="place" v="locality" />
		<tag k="ssr:stedsnr" v="643797" />
	</node>
	<node lat="68.91656944669114" lon="14.856622213693514" id="-21463">
		<tag k="name" v="Hundberget" />
		<tag k="natural" v="hill" />
		<tag k="place" v="locality" />
		<tag k="ssr:stedsnr" v="646053" />
	</node>
	<node lat="68.88438611525375" lon="14.885783340748803" id="-21465">
		<tag k="name" v="Bukkhammaren" />
		<tag k="natural" v="hill" />
		<tag k="place" v="locality" />
		<tag k="ssr:stedsnr" v="646085" />
	</node>
	<node lat="68.93257222235029" lon="15.277766667274253" id="-21466">
		<tag k="name" v="Nausthågen" />
		<tag k="natural" v="hill" />
		<tag k="place" v="locality" />
		<tag k="ssr:stedsnr" v="646536" />
	</node>
	<node lat="68.84412777869747" lon="15.192863880907792" id="-21467">
		<tag k="name" v="Stavskardet" />
		<tag k="natural" v="valley" />
		<tag k="place" v="locality" />
		<tag k="ssr:stedsnr" v="646284" />
	</node>
	<node lat="68.83066666919342" lon="15.184358323070814" id="-21469">
		<tag k="fixme" v="consider natural=peak for the most distinct mountains in the district" />
		<tag k="name" v="Bukkhumpen" />
		<tag k="natural" v="hill" />
		<tag k="place" v="locality" />
		<tag k="ssr:stedsnr" v="647611" />
	</node>
	<node lat="69.00168332984403" lon="15.023930565255688" id="-21471">
		<tag k="name" v="Tyvrevva" />
		<tag k="natural" v="hill" />
		<tag k="place" v="locality" />
		<tag k="ssr:stedsnr" v="648299" />
	</node>
	<node lat="68.81848889279736" lon="15.053319455089532" id="-21474">
		<tag k="name" v="Navarsborrdalen" />
		<tag k="natural" v="valley" />
		<tag k="place" v="locality" />
		<tag k="ssr:stedsnr" v="648314" />
	</node>
	<node lat="68.8107444460056" lon="15.068372210446723" id="-21475">
		<tag k="fixme" v="consider natural=peak for the most distinct mountains in the district" />
		<tag k="name" v="Middagsaksla" />
		<tag k="natural" v="hill" />
		<tag k="place" v="locality" />
		<tag k="ssr:stedsnr" v="648315" />
	</node>
	<node lat="68.90383055500487" lon="14.992283322529115" id="-21476">
		<tag k="name" v="Leitet" />
		<tag k="place" v="locality" />
		<tag k="ssr:stedsnr" v="648341" />
	</node>
	<node lat="68.9254277739283" lon="14.903563896477834" id="-21477">
		<tag k="name" v="Lian" />
		<tag k="natural" v="slope" />
		<tag k="place" v="locality" />
		<tag k="ssr:stedsnr" v="707056" />
	</node>
	<node lat="68.91978889080458" lon="15.301844447156485" id="-21481">
		<tag k="name" v="Svartskjerhågen" />
		<tag k="natural" v="hill" />
		<tag k="place" v="locality" />
		<tag k="ssr:stedsnr" v="648713" />
	</node>
	<node lat="68.95146111172006" lon="15.28236945220508" id="-21484">
		<tag k="name" v="Skagrahågen" />
		<tag k="natural" v="hill" />
		<tag k="place" v="locality" />
		<tag k="ssr:stedsnr" v="707553" />
	</node>
	<node lat="68.82091388883549" lon="15.231155549580231" id="-21485">
		<tag k="name" v="Torhågen" />
		<tag k="natural" v="hill" />
		<tag k="place" v="locality" />
		<tag k="ssr:stedsnr" v="708597" />
	</node>
	<node lat="68.81811666732506" lon="15.160994438324735" id="-21486">
		<tag k="fixme" v="consider natural=peak for the most distinct mountains in the district" />
		<tag k="name" v="Åsen" />
		<tag k="natural" v="hill" />
		<tag k="place" v="locality" />
		<tag k="ssr:stedsnr" v="708600" />
	</node>
	<node lat="68.80705278020419" lon="15.207263884897406" id="-21487">
		<tag k="fixme" v="consider natural=peak for the most distinct mountains in the district" />
		<tag k="name" v="Tverrfjellet" />
		<tag k="natural" v="hill" />
		<tag k="place" v="locality" />
		<tag k="ssr:stedsnr" v="708602" />
	</node>
	<node lat="68.81617414771037" lon="15.131265240622888" id="-21488">
		<tag k="name" v="Jo Persa-hågen" />
		<tag k="natural" v="hill" />
		<tag k="place" v="locality" />
		<tag k="ssr:stedsnr" v="708606" />
	</node>
	<node lat="68.85083888420101" lon="15.046641673370297" id="-21491">
		<tag k="name" v="Hornkleiva" />
		<tag k="natural" v="slope" />
		<tag k="place" v="locality" />
		<tag k="ssr:stedsnr" v="709319" />
	</node>
	<node lat="68.85497222353644" lon="14.982091663865075" id="-21492">
		<tag k="fixme" v="consider natural=peak for the most distinct mountains in the district" />
		<tag k="name" v="Middagsaksla" />
		<tag k="natural" v="hill" />
		<tag k="place" v="locality" />
		<tag k="ssr:stedsnr" v="709351" />
	</node>
	<node lat="68.82061666391232" lon="14.794988879136543" id="-21494">
		<tag k="name" v="Skogneshågen" />
		<tag k="natural" v="hill" />
		<tag k="place" v="locality" />
		<tag k="ssr:stedsnr" v="709653" />
	</node>
	<node lat="68.8289555531862" lon="14.844161108103684" id="-21495">
		<tag k="name" v="Gammehaugen" />
		<tag k="natural" v="hill" />
		<tag k="place" v="locality" />
		<tag k="ssr:stedsnr" v="665810" />
	</node>
	<node lat="68.82877778246018" lon="14.818086102112137" id="-21496">
		<tag k="fixme" v="consider natural=peak for the most distinct mountains in the district" />
		<tag k="name" v="Lendingstinden" />
		<tag k="natural" v="hill" />
		<tag k="place" v="locality" />
		<tag k="ssr:stedsnr" v="665796" />
	</node>
	<node lat="68.99691388816552" lon="15.014875010932496" id="-21501">
		<tag k="name" v="Gaphågen" />
		<tag k="natural" v="hill" />
		<tag k="place" v="locality" />
		<tag k="ssr:stedsnr" v="891302" />
	</node>
	<node lat="68.99610555254641" lon="15.009550004262184" id="-21502">
		<tag k="name" v="Skolehågen" />
		<tag k="natural" v="hill" />
		<tag k="place" v="locality" />
		<tag k="ssr:stedsnr" v="891306" />
	</node>
	<node lat="68.9447638909626" lon="15.012594452705953" id="-21503">
		<tag k="name" v="Vikbakkan" />
		<tag k="natural" v="slope" />
		<tag k="place" v="locality" />
		<tag k="ssr:stedsnr" v="891315" />
	</node>
	<node lat="68.94202777640798" lon="15.016483344587945" id="-21504">
		<tag k="name" v="Sankthanshågen" />
		<tag k="natural" v="hill" />
		<tag k="place" v="locality" />
		<tag k="ssr:stedsnr" v="891322" />
	</node>
	<node lat="68.77009167034431" lon="14.840491673159237" id="-21516">
		<tag k="alt_name" v="Breidfjellet" />
		<tag k="fixme" v="consider natural=peak for the most distinct mountains in the district" />
		<tag k="name" v="Breifjellet" />
		<tag k="natural" v="hill" />
		<tag k="place" v="locality" />
		<tag k="ssr:stedsnr" v="685541" />
	</node>
	<node lat="68.8360916672671" lon="14.957705567614273" id="-21518">
		<tag k="fixme" v="consider natural=peak for the most distinct mountains in the district" />
		<tag k="name" v="Slåttfjellet" />
		<tag k="natural" v="hill" />
		<tag k="place" v="locality" />
		<tag k="ssr:stedsnr" v="685845" />
	</node>
	<node lat="68.88400278026502" lon="15.293199993470306" id="-21523">
		<tag k="name" v="Blåbærhågen" />
		<tag k="natural" v="hill" />
		<tag k="place" v="locality" />
		<tag k="ssr:stedsnr" v="703003" />
	</node>
	<node lat="68.8820777822419" lon="15.28596110548064" id="-21524">
		<tag k="name" v="Lensahågen" />
		<tag k="natural" v="hill" />
		<tag k="place" v="locality" />
		<tag k="ssr:stedsnr" v="703006" />
	</node>
	<node lat="68.85147222596964" lon="15.266269446237471" id="-21528">
		<tag k="name" v="Brattberget" />
		<tag k="natural" v="hill" />
		<tag k="place" v="locality" />
		<tag k="ssr:stedsnr" v="703506" />
	</node>
	<node lat="68.8856638880833" lon="15.280511113900785" id="-21531">
		<tag k="name" v="Sandanaksla" />
		<tag k="natural" v="ridge" />
		<tag k="place" v="locality" />
		<tag k="ssr:stedsnr" v="704737" />
	</node>
	<node lat="68.89729444424701" lon="15.296611100188391" id="-21532">
		<tag k="name" v="Storhågen" />
		<tag k="natural" v="hill" />
		<tag k="place" v="locality" />
		<tag k="ssr:stedsnr" v="704748" />
	</node>
	<node lat="68.8777444413552" lon="15.239927765115638" id="-21533">
		<tag k="name" v="Rødsanddalskaret" />
		<tag k="natural" v="valley" />
		<tag k="place" v="locality" />
		<tag k="ssr:stedsnr" v="704759" />
	</node>
	<node lat="68.95671388736562" lon="15.28945000649525" id="-21540">
		<tag k="name" v="Skagraet" />
		<tag k="natural" v="ridge" />
		<tag k="place" v="locality" />
		<tag k="ssr:stedsnr" v="709679" />
	</node>
	<node lat="68.80491111193486" lon="15.09616110297804" id="-21542">
		<tag k="name" v="Ressedalen" />
		<tag k="natural" v="valley" />
		<tag k="place" v="locality" />
		<tag k="ssr:stedsnr" v="722421" />
	</node>
	<node lat="68.97498889155204" lon="15.072277783176085" id="-21544">
		<tag k="name" v="Nyksundskaret" />
		<tag k="natural" v="valley" />
		<tag k="place" v="locality" />
		<tag k="ssr:stedsnr" v="723372" />
	</node>
	<node lat="68.7650638880317" lon="14.844163900493772" id="-21545">
		<tag k="alt_name" v="Likkjdalen" />
		<tag k="name" v="Litjdalen" />
		<tag k="natural" v="valley" />
		<tag k="place" v="locality" />
		<tag k="ssr:stedsnr" v="723597" />
	</node>
	<node lat="68.81749166294179" lon="14.815427788470465" id="-21549">
		<tag k="name" v="Bratthammaren" />
		<tag k="natural" v="hill" />
		<tag k="place" v="locality" />
		<tag k="ssr:stedsnr" v="726891" />
	</node>
	<node lat="68.78711944575787" lon="14.958075006407336" id="-21551">
		<tag k="loc_name" v="Mikkel Massa-hammaren" />
		<tag k="name" v="Mekkelmasshammaren" />
		<tag k="natural" v="hill" />
		<tag k="place" v="locality" />
		<tag k="ssr:stedsnr" v="726773" />
	</node>
	<node lat="68.827825001937" lon="14.816730543657641" id="-21553">
		<tag k="fixme" v="consider natural=peak for the most distinct mountains in the district" />
		<tag k="name" v="Moltebærheia" />
		<tag k="natural" v="hill" />
		<tag k="place" v="locality" />
		<tag k="ssr:stedsnr" v="726791" />
	</node>
	<node lat="68.7826388919756" lon="14.854111109307619" id="-21558">
		<tag k="name" v="Grøtsetdalen" />
		<tag k="natural" v="valley" />
		<tag k="place" v="locality" />
		<tag k="ssr:stedsnr" v="745985" />
	</node>
	<node lat="68.79195555465041" lon="14.977452769967693" id="-21568">
		<tag k="fixme" v="consider natural=peak for the most distinct mountains in the district" />
		<tag k="name" v="Sandsetheia" />
		<tag k="natural" v="hill" />
		<tag k="place" v="locality" />
		<tag k="ssr:stedsnr" v="746973" />
	</node>
	<node lat="68.96099167030938" lon="14.93515555262162" id="-21571">
		<tag k="name" v="Storhågen" />
		<tag k="natural" v="hill" />
		<tag k="place" v="locality" />
		<tag k="ssr:stedsnr" v="905174" />
	</node>
	<node lat="69.0117111082925" lon="15.096213886081891" id="-21572">
		<tag k="name" v="Varghågan" />
		<tag k="natural" v="hill" />
		<tag k="place" v="locality" />
		<tag k="ssr:stedsnr" v="905419" />
	</node>
	<node lat="69.01475000436393" lon="15.112541667362835" id="-21575">
		<tag k="name" v="Kallskaret" />
		<tag k="natural" v="valley" />
		<tag k="place" v="locality" />
		<tag k="ssr:stedsnr" v="905424" />
	</node>
	<node lat="68.85876667042422" lon="15.246233344877107" id="-21577">
		<tag k="name" v="Sandbakkrabben" />
		<tag k="natural" v="ridge" />
		<tag k="place" v="locality" />
		<tag k="ssr:stedsnr" v="764020" />
	</node>
	<node lat="68.96275833073626" lon="15.129575004579884" id="-21580">
		<tag k="name" v="Oterkråa" />
		<tag k="natural" v="valley" />
		<tag k="place" v="locality" />
		<tag k="ssr:stedsnr" v="764202" />
	</node>
	<node lat="69.00630555896028" lon="15.153766657851937" id="-21583">
		<tag k="name" v="Andersåshalsen" />
		<tag k="natural" v="slope" />
		<tag k="place" v="locality" />
		<tag k="ssr:stedsnr" v="764892" />
	</node>
	<node lat="68.89616110787601" lon="15.294080547268019" id="-21587">
		<tag k="name" v="Skjellarhågen" />
		<tag k="natural" v="hill" />
		<tag k="place" v="locality" />
		<tag k="ssr:stedsnr" v="764793" />
	</node>
	<node lat="68.93574166949853" lon="15.258783326127107" id="-21589">
		<tag k="name" v="Grønnhågen" />
		<tag k="natural" v="hill" />
		<tag k="place" v="locality" />
		<tag k="ssr:stedsnr" v="768541" />
	</node>
	<node lat="68.83927777972039" lon="15.247058343033844" id="-21591">
		<tag k="name" v="Nordtindaksla" />
		<tag k="natural" v="ridge" />
		<tag k="place" v="locality" />
		<tag k="ssr:stedsnr" v="768600" />
	</node>
	<node lat="68.96205555272871" lon="15.13254166158835" id="-21593">
		<tag k="name" v="Breidalen" />
		<tag k="natural" v="valley" />
		<tag k="place" v="locality" />
		<tag k="ssr:stedsnr" v="768496" />
	</node>
	<node lat="68.82786666811869" lon="14.717541658775104" id="-21594">
		<tag k="name" v="Omen" />
		<tag k="natural" v="hill" />
		<tag k="place" v="locality" />
		<tag k="ssr:stedsnr" v="907635" />
	</node>
	<node lat="68.7959583367597" lon="14.941038877567332" id="-21599">
		<tag k="name" v="Rishågen" />
		<tag k="natural" v="hill" />
		<tag k="place" v="locality" />
		<tag k="ssr:stedsnr" v="908783" />
	</node>
	<node lat="68.82712499902335" lon="14.826213887244789" id="-21600">
		<tag k="name" v="Ballurdalen" />
		<tag k="natural" v="valley" />
		<tag k="place" v="locality" />
		<tag k="ssr:stedsnr" v="908829" />
	</node>
	<node lat="68.74705833648291" lon="14.911083324789173" id="-21601">
		<tag k="name" v="Innerskreda" />
		<tag k="natural" v="slope" />
		<tag k="place" v="locality" />
		<tag k="ssr:stedsnr" v="908744" />
	</node>
	<node lat="68.97414722263528" lon="15.103494440620322" id="-21602">
		<tag k="fixme" v="consider natural=peak for the most distinct mountains in the district" />
		<tag k="name" v="Åsan" />
		<tag k="natural" v="hill" />
		<tag k="place" v="locality" />
		<tag k="ssr:stedsnr" v="783351" />
	</node>
	<node lat="68.9992361157909" lon="15.052230550504783" id="-21603">
		<tag k="name" v="Knut Olsa-sletta" />
		<tag k="place" v="locality" />
		<tag k="ssr:stedsnr" v="783407" />
	</node>
	<node lat="68.88826666744309" lon="15.139961103097676" id="-21611">
		<tag k="name" v="Hestheia" />
		<tag k="natural" v="hill" />
		<tag k="place" v="locality" />
		<tag k="ssr:stedsnr" v="825068" />
	</node>
	<node lat="68.89229722014606" lon="15.247077781028175" id="-21612">
		<tag k="name" v="Raplia" />
		<tag k="natural" v="slope" />
		<tag k="place" v="locality" />
		<tag k="ssr:stedsnr" v="825095" />
	</node>
	<node lat="68.89077222310574" lon="15.271094449977708" id="-21613">
		<tag k="name" v="Møllendalen" />
		<tag k="natural" v="valley" />
		<tag k="place" v="locality" />
		<tag k="ssr:stedsnr" v="825098" />
	</node>
	<node lat="68.86065555396034" lon="15.159763898149594" id="-21614">
		<tag k="name" v="Bjørnhammaren" />
		<tag k="natural" v="hill" />
		<tag k="place" v="locality" />
		<tag k="ssr:stedsnr" v="825364" />
	</node>
	<node lat="68.85942500266324" lon="15.151777786824939" id="-21615">
		<tag k="name" v="Storlian" />
		<tag k="natural" v="slope" />
		<tag k="place" v="locality" />
		<tag k="ssr:stedsnr" v="825366" />
	</node>
	<node lat="68.8556638847623" lon="15.132625002833784" id="-21616">
		<tag k="fixme" v="consider natural=peak for the most distinct mountains in the district" />
		<tag k="name" v="Verhågen" />
		<tag k="natural" v="hill" />
		<tag k="place" v="locality" />
		<tag k="ssr:stedsnr" v="825374" />
	</node>
	<node lat="68.93972499661736" lon="15.258455546138585" id="-21628">
		<tag k="name" v="Karihågen" />
		<tag k="natural" v="hill" />
		<tag k="place" v="locality" />
		<tag k="ssr:stedsnr" v="829562" />
	</node>
	<node lat="68.89126666776275" lon="14.991291677908144" id="-21629">
		<tag k="name" v="Gårdsdalen" />
		<tag k="natural" v="valley" />
		<tag k="place" v="locality" />
		<tag k="ssr:stedsnr" v="830291" />
	</node>
	<node lat="68.78454166281618" lon="15.20079166080547" id="-21632">
		<tag k="name" v="Vikskaret" />
		<tag k="natural" v="valley" />
		<tag k="place" v="locality" />
		<tag k="ssr:stedsnr" v="830592" />
	</node>
	<node lat="69.01006666346535" lon="15.114994431544094" id="-21633">
		<tag k="name" v="Litjdalen" />
		<tag k="natural" v="valley" />
		<tag k="place" v="locality" />
		<tag k="ssr:stedsnr" v="844394" />
	</node>
	<node lat="69.00079722082866" lon="15.079363896898533" id="-21635">
		<tag k="fixme" v="consider natural=peak for the most distinct mountains in the district" />
		<tag k="name" v="Åsmulen" />
		<tag k="natural" v="hill" />
		<tag k="place" v="locality" />
		<tag k="ssr:stedsnr" v="844403" />
	</node>
	<node lat="68.84032777798971" lon="14.998958343202922" id="-21637">
		<tag k="name" v="Raet" />
		<tag k="natural" v="ridge" />
		<tag k="place" v="locality" />
		<tag k="ssr:stedsnr" v="846111" />
	</node>
	<node lat="68.81652499896592" lon="15.012969451236048" id="-21638">
		<tag k="name" v="Langstrandbrekka" />
		<tag k="natural" v="slope" />
		<tag k="place" v="locality" />
		<tag k="ssr:stedsnr" v="846112" />
	</node>
	<node lat="68.75093055791892" lon="14.909930556980814" id="-21639">
		<tag k="name" v="Ytterskreda" />
		<tag k="natural" v="slope" />
		<tag k="place" v="locality" />
		<tag k="ssr:stedsnr" v="848710" />
	</node>
	<node lat="68.81807777539086" lon="14.827252781191728" id="-21640">
		<tag k="fixme" v="consider natural=peak for the most distinct mountains in the district" />
		<tag k="name" v="Heia" />
		<tag k="natural" v="hill" />
		<tag k="place" v="locality" />
		<tag k="ssr:stedsnr" v="848882" />
	</node>
	<node lat="69.00023333692826" lon="15.093563893242345" id="-21641">
		<tag k="fixme" v="consider natural=peak for the most distinct mountains in the district" />
		<tag k="name" v="Kjølen" />
		<tag k="natural" v="hill" />
		<tag k="place" v="locality" />
		<tag k="ssr:stedsnr" v="927330" />
	</node>
	<node lat="68.80375000164669" lon="15.064236104439676" id="-21649">
		<tag k="alt_name" v="Breidfjellet" />
		<tag k="fixme" v="consider natural=peak for the most distinct mountains in the district" />
		<tag k="name" v="Breifjellet" />
		<tag k="natural" v="hill" />
		<tag k="place" v="locality" />
		<tag k="ssr:stedsnr" v="928326" />
	</node>
	<node lat="68.80061388669124" lon="15.19977222378226" id="-21650">
		<tag k="alt_name" v="Gåsbølskardet" />
		<tag k="name" v="Gåsbølskaret" />
		<tag k="natural" v="valley" />
		<tag k="place" v="locality" />
		<tag k="ssr:stedsnr" v="928328" />
	</node>
	<node lat="68.79387500181338" lon="15.078980566495526" id="-21652">
		<tag k="alt_name" v="Ramnflåget" />
		<tag k="name" v="Ramnfloget" />
		<tag k="natural" v="hill" />
		<tag k="place" v="locality" />
		<tag k="ssr:stedsnr" v="928345" />
	</node>
	<node lat="68.7792861074872" lon="14.963177782918653" id="-21658">
		<tag k="fixme" v="consider natural=peak for the most distinct mountains in the district" />
		<tag k="name" v="Finnberget" />
		<tag k="natural" v="hill" />
		<tag k="place" v="locality" />
		<tag k="ssr:stedsnr" v="928470" />
	</node>
	<node lat="68.94006389304172" lon="15.044988882592" id="-21662">
		<tag k="fixme" v="consider natural=peak for the most distinct mountains in the district" />
		<tag k="name" v="Salen" />
		<tag k="natural" v="hill" />
		<tag k="place" v="locality" />
		<tag k="ssr:stedsnr" v="928611" />
	</node>
	<node lat="68.8974361118745" lon="14.940419446054097" id="-21664">
		<tag k="name" v="Langvassdalen" />
		<tag k="natural" v="valley" />
		<tag k="place" v="locality" />
		<tag k="ssr:stedsnr" v="928755" />
	</node>
	<node lat="68.90523055577953" lon="14.94087223317036" id="-21665">
		<tag k="fixme" v="consider natural=peak for the most distinct mountains in the district" />
		<tag k="name" v="Stålbranden" />
		<tag k="natural" v="hill" />
		<tag k="place" v="locality" />
		<tag k="ssr:stedsnr" v="928756" />
	</node>
	<node lat="68.85080000248672" lon="15.061144451536416" id="-21667">
		<tag k="fixme" v="consider natural=peak for the most distinct mountains in the district" />
		<tag k="name" v="Hornet" />
		<tag k="natural" v="hill" />
		<tag k="place" v="locality" />
		<tag k="ssr:stedsnr" v="928691" />
	</node>
	<node lat="68.88556111243265" lon="14.91985556388239" id="-21671">
		<tag k="alt_name" v="Tunstaddalen" />
		<tag k="name" v="Tunnstaddalen" />
		<tag k="natural" v="valley" />
		<tag k="place" v="locality" />
		<tag k="ssr:stedsnr" v="928793" />
	</node>
	<node lat="68.8846750044243" lon="14.904536111093645" id="-21672">
		<tag k="fixme" v="consider natural=peak for the most distinct mountains in the district" />
		<tag k="name" v="Holten" />
		<tag k="natural" v="hill" />
		<tag k="place" v="locality" />
		<tag k="ssr:stedsnr" v="928795" />
	</node>
	<node lat="68.93259166457429" lon="14.873824988750908" id="-21678">
		<tag k="fixme" v="consider natural=peak for the most distinct mountains in the district" />
		<tag k="name" v="Nova" />
		<tag k="natural" v="hill" />
		<tag k="place" v="locality" />
		<tag k="ssr:stedsnr" v="868119" />
	</node>
	<node lat="68.84680278126815" lon="15.23388332593996" id="-21679">
		<tag k="alt_name" v="Finnhellerdalen" />
		<tag k="name" v="Finnhellardalen" />
		<tag k="natural" v="valley" />
		<tag k="place" v="locality" />
		<tag k="ssr:stedsnr" v="868276" />
	</node>
	<node lat="68.891483333095" lon="15.135252767352554" id="-21684">
		<tag k="name" v="Slåttfjellet" />
		<tag k="natural" v="slope" />
		<tag k="place" v="locality" />
		<tag k="ssr:stedsnr" v="886104" />
	</node>
	<node lat="68.8566444430658" lon="15.223527780508809" id="-21686">
		<tag k="name" v="Sørbotnskaret" />
		<tag k="natural" v="valley" />
		<tag k="place" v="locality" />
		<tag k="ssr:stedsnr" v="886021" />
	</node>
	<node lat="69.00990833504243" lon="15.157944435748608" id="-21688">
		<tag k="fixme" v="consider natural=peak for the most distinct mountains in the district" />
		<tag k="name" v="Grønnåsen" />
		<tag k="natural" v="hill" />
		<tag k="place" v="locality" />
		<tag k="ssr:stedsnr" v="886867" />
	</node>
	<node lat="68.87850833684367" lon="14.882952787438384" id="-21692">
		<tag k="name" v="Storhauen" />
		<tag k="natural" v="hill" />
		<tag k="place" v="locality" />
		<tag k="ssr:stedsnr" v="889123" />
	</node>
	<node lat="68.81695278083214" lon="15.183750006778894" id="-21697">
		<tag k="name" v="Åsskaret" />
		<tag k="natural" v="valley" />
		<tag k="place" v="locality" />
		<tag k="ssr:stedsnr" v="890614" />
	</node>
	<node lat="68.93335833585543" lon="15.104872210403613" id="-21701">
		<tag k="name" v="Øver-Høydal" />
		<tag k="natural" v="valley" />
		<tag k="place" v="locality" />
		<tag k="ssr:stedsnr" v="905403" />
	</node>
	<node lat="68.807191668043" lon="15.086580557687485" id="-21702">
		<tag k="fixme" v="consider natural=peak for the most distinct mountains in the district" />
		<tag k="name" v="Stortind" />
		<tag k="natural" v="hill" />
		<tag k="place" v="locality" />
		<tag k="ssr:stedsnr" v="905461" />
	</node>
	<node lat="68.79764444454109" lon="14.982533343235541" id="-21705">
		<tag k="fixme" v="consider natural=peak for the most distinct mountains in the district" />
		<tag k="name" v="Tverrfjellet" />
		<tag k="natural" v="hill" />
		<tag k="place" v="locality" />
		<tag k="ssr:stedsnr" v="906167" />
	</node>
	<node lat="68.80808055561349" lon="15.037552771152507" id="-21706">
		<tag k="name" v="Likhellaren" />
		<tag k="natural" v="hill" />
		<tag k="place" v="locality" />
		<tag k="ssr:stedsnr" v="906365" />
	</node>
	<node lat="68.83639166303416" lon="14.955772215024489" id="-21709">
		<tag k="name" v="Ressula" />
		<tag k="natural" v="hill" />
		<tag k="place" v="locality" />
		<tag k="ssr:stedsnr" v="908904" />
	</node>
	<node lat="68.74556666674066" lon="14.92648056682922" id="-21711">
		<tag k="fixme" v="consider natural=peak for the most distinct mountains in the district" />
		<tag k="name" v="Oppsåttinden" />
		<tag k="natural" v="hill" />
		<tag k="place" v="locality" />
		<tag k="ssr:stedsnr" v="928317" />
	</node>
	<node lat="68.75478055561413" lon="14.83763334168429" id="-21712">
		<tag k="alt_name" v="Teistpollskardet" />
		<tag k="name" v="Teistpollskaret" />
		<tag k="natural" v="valley" />
		<tag k="place" v="locality" />
		<tag k="ssr:stedsnr" v="928499" />
	</node>
	<node lat="68.85802500177986" lon="15.243566663576368" id="-21722">
		<tag k="name" v="Horndalen" />
		<tag k="natural" v="valley" />
		<tag k="place" v="locality" />
		<tag k="ssr:stedsnr" v="946014" />
	</node>
	<node lat="68.9191861105067" lon="15.264044434071378" id="-21723">
		<tag k="name" v="Breistrandhågen" />
		<tag k="natural" v="hill" />
		<tag k="place" v="locality" />
		<tag k="ssr:stedsnr" v="946032" />
	</node>
	<node lat="68.96062777337598" lon="15.175286121253942" id="-21725">
		<tag k="name" v="Lomshågen" />
		<tag k="natural" v="hill" />
		<tag k="place" v="locality" />
		<tag k="ssr:stedsnr" v="946182" />
	</node>
	<node lat="69.0167361157108" lon="15.119308330891318" id="-21729">
		<tag k="name" v="Valberghågen" />
		<tag k="natural" v="hill" />
		<tag k="place" v="locality" />
		<tag k="ssr:stedsnr" v="946404" />
	</node>
	<node lat="68.92221389056867" lon="14.898544442811792" id="-21734">
		<tag k="name" v="Skogrøstan" />
		<tag k="natural" v="slope" />
		<tag k="place" v="locality" />
		<tag k="ssr:stedsnr" v="950054" />
	</node>
	<node lat="68.9287527740645" lon="14.90155556246668" id="-21735">
		<tag k="fixme" v="consider natural=peak for the most distinct mountains in the district" />
		<tag k="name" v="Siridalstinden" />
		<tag k="natural" v="hill" />
		<tag k="place" v="locality" />
		<tag k="ssr:stedsnr" v="950062" />
	</node>
	<node lat="68.88052222376758" lon="14.905325003727562" id="-21736">
		<tag k="name" v="Rabben" />
		<tag k="natural" v="ridge" />
		<tag k="place" v="locality" />
		<tag k="ssr:stedsnr" v="950108" />
	</node>
	<node lat="68.88311110958476" lon="14.885416660078944" id="-21737">
		<tag k="fixme" v="consider natural=peak for the most distinct mountains in the district" />
		<tag k="name" v="Kollen" />
		<tag k="natural" v="hill" />
		<tag k="place" v="locality" />
		<tag k="ssr:stedsnr" v="950110" />
	</node>
	<node lat="68.94198055645252" lon="15.266611100632042" id="-21738">
		<tag k="name" v="Martin-Hansahågen" />
		<tag k="natural" v="hill" />
		<tag k="place" v="locality" />
		<tag k="ssr:stedsnr" v="950539" />
	</node>
	<node lat="68.90213888718654" lon="15.275466676861802" id="-21741">
		<tag k="name" v="Arhågen" />
		<tag k="natural" v="hill" />
		<tag k="place" v="locality" />
		<tag k="ssr:stedsnr" v="950488" />
	</node>
	<node lat="68.74377500055226" lon="14.870263895679319" id="-21744">
		<tag k="name" v="Skandalsaksla" />
		<tag k="place" v="locality" />
		<tag k="ssr:stedsnr" v="965628" />
	</node>
	<node lat="68.76335833261261" lon="14.842913876745884" id="-21745">
		<tag k="alt_name" v="Likkjdalsaksla" />
		<tag k="name" v="Litjdalsaksla" />
		<tag k="place" v="locality" />
		<tag k="ssr:stedsnr" v="966637" />
	</node>
	<node lat="68.81888610933404" lon="15.046722218698243" id="-21747">
		<tag k="name" v="Tjuppen" />
		<tag k="natural" v="hill" />
		<tag k="place" v="locality" />
		<tag k="ssr:stedsnr" v="967336" />
	</node>
	<node lat="68.7886472263827" lon="14.870969450027868" id="-21750">
		<tag k="fixme" v="consider natural=peak for the most distinct mountains in the district" />
		<tag k="name" v="Grøtsetheia" />
		<tag k="natural" v="hill" />
		<tag k="place" v="locality" />
		<tag k="ssr:stedsnr" v="969738" />
	</node>
	<node lat="68.82993611229965" lon="15.060633332224072" id="-21818">
		<tag k="fixme" v="consider natural=peak for the most distinct mountains in the district" />
		<tag k="name" v="Navarsborrfjellet" />
		<tag k="natural" v="hill" />
		<tag k="place" v="locality" />
		<tag k="ssr:stedsnr" v="17341" />
	</node>
	<node lat="68.82903888811094" lon="15.161322219375334" id="-21819">
		<tag k="fixme" v="consider natural=peak for the most distinct mountains in the district" />
		<tag k="name" v="Steinheia" />
		<tag k="natural" v="hill" />
		<tag k="place" v="locality" />
		<tag k="ssr:stedsnr" v="17344" />
	</node>
	<node lat="68.98506389082823" lon="15.161941659653104" id="-21820">
		<tag k="alt_name" v="Jeskhågen" />
		<tag k="name" v="Jeskhaugen" />
		<tag k="natural" v="hill" />
		<tag k="place" v="locality" />
		<tag k="ssr:stedsnr" v="17580" />
	</node>
	<node lat="68.76021944827097" lon="14.992850012711846" id="-21822">
		<tag k="name" v="Tretthaugen" />
		<tag k="natural" v="hill" />
		<tag k="place" v="locality" />
		<tag k="ssr:stedsnr" v="18548" />
	</node>
	<node lat="68.75996666993964" lon="14.935247225901616" id="-21823">
		<tag k="alt_name" v="Gantinden" />
		<tag k="fixme" v="consider natural=peak for the most distinct mountains in the district" />
		<tag k="name" v="Gandtinden" />
		<tag k="natural" v="hill" />
		<tag k="place" v="locality" />
		<tag k="ssr:stedsnr" v="18550" />
	</node>
	<node lat="68.75708610848442" lon="14.944380558118528" id="-21824">
		<tag k="fixme" v="consider natural=peak for the most distinct mountains in the district" />
		<tag k="name" v="Gammelgårdtinden" />
		<tag k="natural" v="hill" />
		<tag k="place" v="locality" />
		<tag k="ssr:stedsnr" v="18552" />
	</node>
	<node lat="68.92745277436617" lon="14.886608333231166" id="-21828">
		<tag k="fixme" v="consider natural=peak for the most distinct mountains in the district" />
		<tag k="name" v="Vågsberget" />
		<tag k="natural" v="hill" />
		<tag k="place" v="locality" />
		<tag k="ssr:stedsnr" v="18131" />
	</node>
	<node lat="68.99672777801788" lon="15.04537498939008" id="-21834">
		<tag k="alt_name" v="Melen" />
		<tag k="fixme" v="consider natural=peak for the most distinct mountains in the district" />
		<tag k="name" v="Mælen" />
		<tag k="natural" v="hill" />
		<tag k="place" v="locality" />
		<tag k="ssr:stedsnr" v="18542" />
	</node>
	<node lat="68.91951389087906" lon="14.959991667061265" id="-21837">
		<tag k="fixme" v="consider natural=peak for the most distinct mountains in the district" />
		<tag k="name" v="Storklauva" />
		<tag k="natural" v="hill" />
		<tag k="place" v="locality" />
		<tag k="ssr:stedsnr" v="18688" />
	</node>
	<node lat="68.7804305540241" lon="14.768288886108236" id="-21839">
		<tag k="name" v="Kobbsteinen" />
		<tag k="natural" v="hill" />
		<tag k="place" v="locality" />
		<tag k="ssr:stedsnr" v="18480" />
	</node>
	<node lat="68.77321388785049" lon="14.85294166631394" id="-21840">
		<tag k="alt_name" v="Bukketindan" />
		<tag k="fixme" v="consider natural=peak for the most distinct mountains in the district" />
		<tag k="name" v="Bukketinden" />
		<tag k="natural" v="hill" />
		<tag k="place" v="locality" />
		<tag k="ssr:stedsnr" v="18488" />
	</node>
	<node lat="68.77262499809699" lon="14.83495555954188" id="-21841">
		<tag k="alt_name" v="Kagheia" />
		<tag k="fixme" v="consider natural=peak for the most distinct mountains in the district" />
		<tag k="name" v="Kakheia" />
		<tag k="natural" v="hill" />
		<tag k="place" v="locality" />
		<tag k="ssr:stedsnr" v="18489" />
	</node>
	<node lat="68.82032499878329" lon="14.75726943564455" id="-21849">
		<tag k="fixme" v="consider natural=peak for the most distinct mountains in the district" />
		<tag k="name" v="Øska" />
		<tag k="natural" v="hill" />
		<tag k="place" v="locality" />
		<tag k="ssr:stedsnr" v="18863" />
	</node>
	<node lat="68.8237611122642" lon="14.984769449360678" id="-21850">
		<tag k="alt_name" v="Spisstindan" />
		<tag k="fixme" v="consider natural=peak for the most distinct mountains in the district" />
		<tag k="name" v="Spisstinden" />
		<tag k="natural" v="hill" />
		<tag k="place" v="locality" />
		<tag k="ssr:stedsnr" v="18873" />
	</node>
	<node lat="68.90353889196919" lon="14.97065555256718" id="-21851">
		<tag k="name" v="Trolldalsrabben" />
		<tag k="natural" v="ridge" />
		<tag k="place" v="locality" />
		<tag k="ssr:stedsnr" v="18734" />
	</node>
	<node lat="68.88727500207817" lon="14.841811100311146" id="-21852">
		<tag k="name" v="Kyllsundet" />
		<tag k="place" v="locality" />
		<tag k="ssr:stedsnr" v="18737" />
	</node>
	<node lat="68.80430000261941" lon="14.877916679133403" id="-21860">
		<tag k="name" v="Langøyhovden" />
		<tag k="natural" v="hill" />
		<tag k="place" v="locality" />
		<tag k="ssr:stedsnr" v="18927" />
	</node>
	<node lat="68.94854444269386" lon="15.179083336427619" id="-21864">
		<tag k="name" v="Storhågen" />
		<tag k="natural" v="hill" />
		<tag k="place" v="locality" />
		<tag k="ssr:stedsnr" v="36196" />
	</node>
	<node lat="68.86046111521884" lon="15.259222212828593" id="-21874">
		<tag k="name" v="Vågarhågen" />
		<tag k="natural" v="hill" />
		<tag k="place" v="locality" />
		<tag k="ssr:stedsnr" v="36436" />
	</node>
	<node lat="68.98648055426754" lon="15.150580553682541" id="-21879">
		<tag k="name" v="Fjellfasthågen" />
		<tag k="natural" v="hill" />
		<tag k="place" v="locality" />
		<tag k="ssr:stedsnr" v="36824" />
	</node>
	<node lat="68.92216111407927" lon="14.966886112329824" id="-21884">
		<tag k="name" v="Frivågdalen" />
		<tag k="natural" v="valley" />
		<tag k="place" v="locality" />
		<tag k="ssr:stedsnr" v="39029" />
	</node>
	<node lat="68.91880000162158" lon="14.942255547091028" id="-21885">
		<tag k="name" v="Litjraet" />
		<tag k="natural" v="ridge" />
		<tag k="place" v="locality" />
		<tag k="ssr:stedsnr" v="39033" />
	</node>
	<node lat="68.92024722205518" lon="14.856672230011338" id="-21888">
		<tag k="name" v="Aksla" />
		<tag k="natural" v="ridge" />
		<tag k="place" v="locality" />
		<tag k="ssr:stedsnr" v="39050" />
	</node>
	<node lat="68.86646388669132" lon="15.179338897432205" id="-21889">
		<tag k="name" v="Steinlandskaret" />
		<tag k="natural" v="valley" />
		<tag k="place" v="locality" />
		<tag k="ssr:stedsnr" v="40635" />
	</node>
	<node lat="68.93893610657052" lon="15.251388899336781" id="-21893">
		<tag k="name" v="Straumhågan" />
		<tag k="natural" v="hill" />
		<tag k="place" v="locality" />
		<tag k="ssr:stedsnr" v="40559" />
	</node>
	<node lat="68.87769722193234" lon="15.145363890211133" id="-21894">
		<tag k="fixme" v="consider natural=peak for the most distinct mountains in the district" />
		<tag k="name" v="Kvanntinden" />
		<tag k="natural" v="hill" />
		<tag k="place" v="locality" />
		<tag k="ssr:stedsnr" v="40644" />
	</node>
	<node lat="68.89365277684516" lon="14.992536117621796" id="-21895">
		<tag k="name" v="Lean" />
		<tag k="natural" v="hill" />
		<tag k="place" v="locality" />
		<tag k="ssr:stedsnr" v="41324" />
	</node>
	<node lat="68.85014722351028" lon="14.990338901333832" id="-21896">
		<tag k="name" v="Eldhågen" />
		<tag k="natural" v="hill" />
		<tag k="place" v="locality" />
		<tag k="ssr:stedsnr" v="41354" />
	</node>
	<node lat="68.823944444606" lon="15.091458327739737" id="-21898">
		<tag k="fixme" v="consider natural=peak for the most distinct mountains in the district" />
		<tag k="name" v="Leinamannen" />
		<tag k="natural" v="hill" />
		<tag k="place" v="locality" />
		<tag k="ssr:stedsnr" v="41288" />
	</node>
	<node lat="68.84750277447692" lon="14.753941673673316" id="-21899">
		<tag k="name" v="Hellen" />
		<tag k="place" v="locality" />
		<tag k="ssr:stedsnr" v="41731" />
	</node>
	<node lat="68.9764111119374" lon="15.1240611109749" id="-21902">
		<tag k="fixme" v="consider natural=peak for the most distinct mountains in the district" />
		<tag k="name" v="Bjørnklakken" />
		<tag k="natural" v="hill" />
		<tag k="place" v="locality" />
		<tag k="ssr:stedsnr" v="55357" />
	</node>
	<node lat="68.77163332989112" lon="14.775519453575962" id="-21903">
		<tag k="fixme" v="consider natural=peak for the most distinct mountains in the district" />
		<tag k="name" v="Tridalstindan" />
		<tag k="natural" v="hill" />
		<tag k="place" v="locality" />
		<tag k="ssr:stedsnr" v="55540" />
	</node>
	<node lat="68.74873611327632" lon="14.934477789131442" id="-21906">
		<tag k="fixme" v="consider natural=peak for the most distinct mountains in the district" />
		<tag k="name" v="Olderfjordtindan" />
		<tag k="natural" v="hill" />
		<tag k="place" v="locality" />
		<tag k="ssr:stedsnr" v="78347" />
	</node>
	<node lat="68.84017222487707" lon="15.192580560069828" id="-21907">
		<tag k="fixme" v="consider natural=peak for the most distinct mountains in the district" />
		<tag k="name" v="Snøkolla" />
		<tag k="natural" v="hill" />
		<tag k="place" v="locality" />
		<tag k="ssr:stedsnr" v="78296" />
	</node>
	<node lat="68.83492777339434" lon="15.155383334559023" id="-21908">
		<tag k="name" v="Stordalen" />
		<tag k="natural" v="valley" />
		<tag k="place" v="locality" />
		<tag k="ssr:stedsnr" v="78298" />
	</node>
	<node lat="68.83643886377374" lon="15.07659381172006" id="-21910">
		<tag k="fixme" v="consider natural=peak for the most distinct mountains in the district" />
		<tag k="name" v="Storfuglen" />
		<tag k="natural" v="hill" />
		<tag k="place" v="locality" />
		<tag k="ssr:stedsnr" v="78300" />
	</node>
	<node lat="68.79355277410542" lon="15.11550832068776" id="-21912">
		<tag k="alt_name" v="Sandskardtinden" />
		<tag k="fixme" v="consider natural=peak for the most distinct mountains in the district" />
		<tag k="name" v="Sandskartinden" />
		<tag k="natural" v="hill" />
		<tag k="place" v="locality" />
		<tag k="ssr:stedsnr" v="78366" />
	</node>
	<node lat="68.94866807006674" lon="15.048776908791375" id="-21915">
		<tag k="fixme" v="consider natural=peak for the most distinct mountains in the district" />
		<tag k="name" v="Eldtinden" />
		<tag k="natural" v="hill" />
		<tag k="place" v="locality" />
		<tag k="ssr:stedsnr" v="78585" />
	</node>
	<node lat="68.91293611131972" lon="14.945680552207268" id="-21919">
		<tag k="fixme" v="consider natural=peak for the most distinct mountains in the district" />
		<tag k="name" v="Branden" />
		<tag k="natural" v="hill" />
		<tag k="place" v="locality" />
		<tag k="ssr:stedsnr" v="78786" />
	</node>
	<node lat="68.91466944109592" lon="14.959550010153851" id="-21920">
		<tag k="fixme" v="consider natural=peak for the most distinct mountains in the district" />
		<tag k="name" v="Lassan" />
		<tag k="natural" v="hill" />
		<tag k="place" v="locality" />
		<tag k="ssr:stedsnr" v="78788" />
	</node>
	<node lat="68.80156388712264" lon="15.08283333259714" id="-21923">
		<tag k="name" v="Trollhola" />
		<tag k="natural" v="valley" />
		<tag k="place" v="locality" />
		<tag k="ssr:stedsnr" v="79339" />
	</node>
	<node lat="68.8573138914963" lon="15.25571389943736" id="-21927">
		<tag k="name" v="Lidalen" />
		<tag k="natural" v="valley" />
		<tag k="place" v="locality" />
		<tag k="ssr:stedsnr" v="79688" />
	</node>
	<node lat="68.79428888662522" lon="14.76342500794432" id="-21929">
		<tag k="fixme" v="consider natural=peak for the most distinct mountains in the district" />
		<tag k="name" v="Finnberget" />
		<tag k="natural" v="hill" />
		<tag k="place" v="locality" />
		<tag k="ssr:stedsnr" v="79969" />
	</node>
	<node lat="68.80778888575854" lon="14.826588885599689" id="-21930">
		<tag k="fixme" v="consider natural=peak for the most distinct mountains in the district" />
		<tag k="name" v="Vedberget" />
		<tag k="natural" v="hill" />
		<tag k="place" v="locality" />
		<tag k="ssr:stedsnr" v="79910" />
	</node>
	<node lat="68.81290833598999" lon="15.0109333348535" id="-21932">
		<tag k="fixme" v="consider natural=peak for the most distinct mountains in the district" />
		<tag k="name" v="Langstrandheia" />
		<tag k="natural" v="hill" />
		<tag k="place" v="locality" />
		<tag k="ssr:stedsnr" v="79917" />
	</node>
	<node lat="68.91639444546993" lon="15.277786099956723" id="-21937">
		<tag k="name" v="Middagshågen" />
		<tag k="natural" v="hill" />
		<tag k="place" v="locality" />
		<tag k="ssr:stedsnr" v="97043" />
	</node>
	<node lat="68.90762499788157" lon="15.254469445678856" id="-21940">
		<tag k="name" v="Laksraet" />
		<tag k="place" v="locality" />
		<tag k="ssr:stedsnr" v="97132" />
	</node>
	<node lat="68.90089722036969" lon="15.06429445282159" id="-21942">
		<tag k="fixme" v="consider natural=peak for the most distinct mountains in the district" />
		<tag k="name" v="Åsen" />
		<tag k="natural" v="hill" />
		<tag k="place" v="locality" />
		<tag k="ssr:stedsnr" v="97150" />
	</node>
	<node lat="68.90661111163814" lon="15.053952777013684" id="-21945">
		<tag k="name" v="Gossen" />
		<tag k="natural" v="hill" />
		<tag k="place" v="locality" />
		<tag k="ssr:stedsnr" v="97167" />
	</node>
	<node lat="68.8501833329918" lon="15.264391662103582" id="-21946">
		<tag k="name" v="Urdalen" />
		<tag k="natural" v="valley" />
		<tag k="place" v="locality" />
		<tag k="ssr:stedsnr" v="97463" />
	</node>
	<node lat="68.85867499950407" lon="15.264913897920474" id="-21948">
		<tag k="name" v="Kråkhågen" />
		<tag k="natural" v="hill" />
		<tag k="place" v="locality" />
		<tag k="ssr:stedsnr" v="97474" />
	</node>
	<node lat="68.87654166540942" lon="15.269502772068641" id="-21952">
		<tag k="name" v="Perbyhøgstibakken" />
		<tag k="natural" v="slope" />
		<tag k="place" v="locality" />
		<tag k="ssr:stedsnr" v="97800" />
	</node>
	<node lat="68.91449721929922" lon="14.90829166186409" id="-21958">
		<tag k="name" v="Båsskråhågen" />
		<tag k="natural" v="hill" />
		<tag k="place" v="locality" />
		<tag k="ssr:stedsnr" v="100034" />
	</node>
	<node lat="68.87763333469947" lon="14.943233345989768" id="-21959">
		<tag k="name" v="Skogum" />
		<tag k="natural" v="slope" />
		<tag k="place" v="locality" />
		<tag k="ssr:stedsnr" v="100078" />
	</node>
	<node lat="68.88483889166871" lon="14.955452769491387" id="-21961">
		<tag k="name" v="Kvannto" />
		<tag k="natural" v="slope" />
		<tag k="place" v="locality" />
		<tag k="ssr:stedsnr" v="100092" />
	</node>
	<node lat="68.9365444410699" lon="15.272755566085692" id="-21963">
		<tag k="name" v="Revhågen" />
		<tag k="natural" v="hill" />
		<tag k="place" v="locality" />
		<tag k="ssr:stedsnr" v="101543" />
	</node>
	<node lat="68.93356388595646" lon="15.270474988809257" id="-21964">
		<tag k="name" v="Hesjeberget" />
		<tag k="natural" v="hill" />
		<tag k="place" v="locality" />
		<tag k="ssr:stedsnr" v="101550" />
	</node>
	<node lat="68.84357222015664" lon="15.259644453552202" id="-21967">
		<tag k="name" v="Finnhellaren" />
		<tag k="natural" v="hill" />
		<tag k="place" v="locality" />
		<tag k="ssr:stedsnr" v="101599" />
	</node>
	<node lat="68.86723055692039" lon="15.253558324169324" id="-21968">
		<tag k="name" v="Elvedalen" />
		<tag k="natural" v="valley" />
		<tag k="place" v="locality" />
		<tag k="ssr:stedsnr" v="101628" />
	</node>
	<node lat="68.90060000394286" lon="14.963236108930158" id="-21973">
		<tag k="name" v="Steindalen" />
		<tag k="natural" v="valley" />
		<tag k="place" v="locality" />
		<tag k="ssr:stedsnr" v="116185" />
	</node>
	<node lat="68.9603000000635" lon="14.929216671124987" id="-21974">
		<tag k="name" v="Fuggelberget" />
		<tag k="natural" v="hill" />
		<tag k="place" v="locality" />
		<tag k="ssr:stedsnr" v="116151" />
	</node>
	<node lat="68.98081388777747" lon="15.096980562464834" id="-21975">
		<tag k="fixme" v="consider natural=peak for the most distinct mountains in the district" />
		<tag k="name" v="Tverrfjellet" />
		<tag k="natural" v="hill" />
		<tag k="place" v="locality" />
		<tag k="ssr:stedsnr" v="116349" />
	</node>
	<node lat="68.82168055954936" lon="14.987722233020008" id="-21977">
		<tag k="name" v="Slettheia" />
		<tag k="natural" v="hill" />
		<tag k="place" v="locality" />
		<tag k="ssr:stedsnr" v="117161" />
	</node>
	<node lat="68.88620000329817" lon="14.980722229913681" id="-21978">
		<tag k="name" v="Saudalen" />
		<tag k="natural" v="valley" />
		<tag k="place" v="locality" />
		<tag k="ssr:stedsnr" v="118346" />
	</node>
	<node lat="68.8608527794519" lon="14.968891654497616" id="-21979">
		<tag k="name" v="Rotskaret" />
		<tag k="natural" v="valley" />
		<tag k="place" v="locality" />
		<tag k="ssr:stedsnr" v="118348" />
	</node>
	<node lat="68.8137638886172" lon="15.048174996986411" id="-21981">
		<tag k="name" v="Middagsaksla" />
		<tag k="natural" v="ridge" />
		<tag k="place" v="locality" />
		<tag k="ssr:stedsnr" v="118354" />
	</node>
	<node lat="68.78994444710492" lon="14.956458327046963" id="-21982">
		<tag k="name" v="Urhammaren" />
		<tag k="natural" v="hill" />
		<tag k="place" v="locality" />
		<tag k="ssr:stedsnr" v="119747" />
	</node>
	<node lat="68.79893611575511" lon="14.938552771239126" id="-21983">
		<tag k="fixme" v="consider natural=peak for the most distinct mountains in the district" />
		<tag k="name" v="Høgstatoppen" />
		<tag k="natural" v="hill" />
		<tag k="place" v="locality" />
		<tag k="ssr:stedsnr" v="119767" />
	</node>
	<node lat="68.82763333179369" lon="14.842111113970397" id="-21984">
		<tag k="name" v="Mellahågen" />
		<tag k="natural" v="hill" />
		<tag k="place" v="locality" />
		<tag k="ssr:stedsnr" v="119808" />
	</node>
	<node lat="68.82448333268754" lon="14.821075011749874" id="-21985">
		<tag k="fixme" v="consider natural=peak for the most distinct mountains in the district" />
		<tag k="name" v="Blåtinden" />
		<tag k="natural" v="hill" />
		<tag k="place" v="locality" />
		<tag k="ssr:stedsnr" v="119811" />
	</node>
	<node lat="68.81540277675717" lon="14.834016654968476" id="-21988">
		<tag k="name" v="Ramnfloget" />
		<tag k="natural" v="hill" />
		<tag k="place" v="locality" />
		<tag k="ssr:stedsnr" v="119909" />
	</node>
	<node lat="68.8214638924142" lon="14.852127783014367" id="-21989">
		<tag k="name" v="Bergsenghaugen" />
		<tag k="natural" v="hill" />
		<tag k="place" v="locality" />
		<tag k="ssr:stedsnr" v="119910" />
	</node>
	<node lat="68.77650555681163" lon="14.863811114513283" id="-21993">
		<tag k="fixme" v="consider natural=peak for the most distinct mountains in the district" />
		<tag k="name" v="Høgtinden" />
		<tag k="natural" v="hill" />
		<tag k="place" v="locality" />
		<tag k="ssr:stedsnr" v="138527" />
	</node>
	<node lat="68.79861111249299" lon="15.134397226407586" id="-21999">
		<tag k="fixme" v="consider natural=peak for the most distinct mountains in the district" />
		<tag k="name" v="Larsdalstinden" />
		<tag k="natural" v="hill" />
		<tag k="place" v="locality" />
		<tag k="ssr:stedsnr" v="139368" />
	</node>
	<node lat="68.75456666807567" lon="14.917258324580068" id="-22000">
		<tag k="alt_name" v="Gammelgårdsdalen" />
		<tag k="name" v="Gammelgårddalen" />
		<tag k="natural" v="valley" />
		<tag k="place" v="locality" />
		<tag k="ssr:stedsnr" v="139601" />
	</node>
	<node lat="68.92672221936581" lon="14.96072777661034" id="-22004">
		<tag k="fixme" v="consider natural=peak for the most distinct mountains in the district" />
		<tag k="name" v="Bremneskollan" />
		<tag k="natural" v="hill" />
		<tag k="place" v="locality" />
		<tag k="ssr:stedsnr" v="139728" />
	</node>
	<node lat="68.89133333779255" lon="14.894033332058791" id="-22007">
		<tag k="fixme" v="consider natural=peak for the most distinct mountains in the district" />
		<tag k="name" v="Hestdalshumpan" />
		<tag k="natural" v="hill" />
		<tag k="place" v="locality" />
		<tag k="ssr:stedsnr" v="139758" />
	</node>
	<node lat="68.86183888912771" lon="15.216499999355099" id="-22014">
		<tag k="name" v="Nordbotnskaret" />
		<tag k="natural" v="valley" />
		<tag k="place" v="locality" />
		<tag k="ssr:stedsnr" v="157012" />
	</node>
	<node lat="68.86554999703475" lon="15.278366657953834" id="-22015">
		<tag k="name" v="Endan" />
		<tag k="natural" v="valley" />
		<tag k="place" v="locality" />
		<tag k="ssr:stedsnr" v="157024" />
	</node>
	<node lat="68.91629444333326" lon="15.217205566083441" id="-22016">
		<tag k="name" v="Storhågen" />
		<tag k="natural" v="hill" />
		<tag k="place" v="locality" />
		<tag k="ssr:stedsnr" v="157028" />
	</node>
	<node lat="68.91773888730026" lon="15.210144432371532" id="-22017">
		<tag k="name" v="Grindhågen" />
		<tag k="natural" v="hill" />
		<tag k="place" v="locality" />
		<tag k="ssr:stedsnr" v="157029" />
	</node>
	<node lat="68.85744166868905" lon="15.274563898436417" id="-22022">
		<tag k="name" v="Smiraberget" />
		<tag k="natural" v="hill" />
		<tag k="place" v="locality" />
		<tag k="ssr:stedsnr" v="157438" />
	</node>
	<node lat="68.84816111308207" lon="15.170177766905434" id="-22024">
		<tag k="name" v="Skredalen" />
		<tag k="natural" v="valley" />
		<tag k="place" v="locality" />
		<tag k="ssr:stedsnr" v="157367" />
	</node>
	<node lat="68.85352222415042" lon="15.13154444717719" id="-22025">
		<tag k="name" v="Steinlandskleiva" />
		<tag k="natural" v="slope" />
		<tag k="place" v="locality" />
		<tag k="ssr:stedsnr" v="157375" />
	</node>
	<node lat="68.8542444411922" lon="15.08122499839133" id="-22026">
		<tag k="name" v="Hornkleiva" />
		<tag k="natural" v="slope" />
		<tag k="place" v="locality" />
		<tag k="ssr:stedsnr" v="157381" />
	</node>
	<node lat="68.87933333342991" lon="15.290477787568765" id="-22028">
		<tag k="name" v="Lahaugen" />
		<tag k="natural" v="hill" />
		<tag k="place" v="locality" />
		<tag k="ssr:stedsnr" v="157756" />
	</node>
	<node lat="68.92027777386227" lon="15.298613899190935" id="-22036">
		<tag k="name" v="Vardbergan" />
		<tag k="natural" v="hill" />
		<tag k="place" v="locality" />
		<tag k="ssr:stedsnr" v="158868" />
	</node>
	<node lat="68.8217166676491" lon="15.125080552255197" id="-22040">
		<tag k="alt_name" v="Storhaugen" />
		<tag k="name" v="Storhågen" />
		<tag k="natural" v="hill" />
		<tag k="place" v="locality" />
		<tag k="ssr:stedsnr" v="159909" />
	</node>
	<node lat="68.91240833470602" lon="14.880183336524757" id="-22046">
		<tag k="name" v="Monslia" />
		<tag k="natural" v="slope" />
		<tag k="place" v="locality" />
		<tag k="ssr:stedsnr" v="161062" />
	</node>
	<node lat="68.85562222233953" lon="14.930372211849656" id="-22050">
		<tag k="name" v="Dalbakken" />
		<tag k="natural" v="slope" />
		<tag k="place" v="locality" />
		<tag k="ssr:stedsnr" v="161089" />
	</node>
	<node lat="68.89284444300553" lon="14.85159999453815" id="-22051">
		<tag k="name" v="Pessarkjerringa" />
		<tag k="natural" v="hill" />
		<tag k="place" v="locality" />
		<tag k="ssr:stedsnr" v="161026" />
	</node>
	<node lat="68.91696111429765" lon="14.904919444295112" id="-22052">
		<tag k="name" v="Andtindraet" />
		<tag k="natural" v="ridge" />
		<tag k="place" v="locality" />
		<tag k="ssr:stedsnr" v="161038" />
	</node>
	<node lat="68.91518889208974" lon="14.932274988769787" id="-22053">
		<tag k="name" v="Storraet" />
		<tag k="natural" v="ridge" />
		<tag k="place" v="locality" />
		<tag k="ssr:stedsnr" v="161039" />
	</node>
	<node lat="68.88660555176668" lon="14.890672212666905" id="-22054">
		<tag k="name" v="Hjellsandheia" />
		<tag k="natural" v="hill" />
		<tag k="place" v="locality" />
		<tag k="ssr:stedsnr" v="161099" />
	</node>
	<node lat="68.94265000164805" lon="15.285772210748062" id="-22056">
		<tag k="name" v="Rødbergra" />
		<tag k="natural" v="ridge" />
		<tag k="place" v="locality" />
		<tag k="ssr:stedsnr" v="161520" />
	</node>
	<node lat="68.94052500257934" lon="15.2793361116506" id="-22057">
		<tag k="name" v="Vardhågen" />
		<tag k="natural" v="hill" />
		<tag k="place" v="locality" />
		<tag k="ssr:stedsnr" v="161526" />
	</node>
	<node lat="68.94597222327798" lon="15.249249988935583" id="-22059">
		<tag k="name" v="Husjordraet" />
		<tag k="natural" v="ridge" />
		<tag k="place" v="locality" />
		<tag k="ssr:stedsnr" v="161535" />
	</node>
	<node lat="68.90626111555133" lon="14.991436101843295" id="-22060">
		<tag k="name" v="Storhågen" />
		<tag k="natural" v="hill" />
		<tag k="place" v="locality" />
		<tag k="ssr:stedsnr" v="162330" />
	</node>
	<node lat="68.90777777498703" lon="14.985283332007533" id="-22061">
		<tag k="fixme" v="consider natural=peak for the most distinct mountains in the district" />
		<tag k="name" v="Aksla" />
		<tag k="natural" v="hill" />
		<tag k="place" v="locality" />
		<tag k="ssr:stedsnr" v="162284" />
	</node>
	<node lat="68.83559444451194" lon="15.217583345361476" id="-22062">
		<tag k="fixme" v="consider natural=peak for the most distinct mountains in the district" />
		<tag k="name" v="Brandåstinden" />
		<tag k="natural" v="hill" />
		<tag k="place" v="locality" />
		<tag k="ssr:stedsnr" v="162638" />
	</node>
	<node lat="69.00076110757938" lon="15.018652783234819" id="-22063">
		<tag k="name" v="Litj-Delpen" />
		<tag k="natural" v="hill" />
		<tag k="place" v="locality" />
		<tag k="ssr:stedsnr" v="163256" />
	</node>
	<node lat="68.81915278065095" lon="15.09369444002053" id="-22064">
		<tag k="name" v="Breilia" />
		<tag k="natural" v="slope" />
		<tag k="place" v="locality" />
		<tag k="ssr:stedsnr" v="163450" />
	</node>
	<node lat="69.00936388943491" lon="15.105786105192239" id="-22067">
		<tag k="fixme" v="consider natural=peak for the most distinct mountains in the district" />
		<tag k="name" v="Nonstinden" />
		<tag k="natural" v="hill" />
		<tag k="place" v="locality" />
		<tag k="ssr:stedsnr" v="176374" />
	</node>
	<node lat="68.78098889264443" lon="14.96828611635689" id="-22068">
		<tag k="name" v="Finnberget" />
		<tag k="natural" v="hill" />
		<tag k="place" v="locality" />
		<tag k="ssr:stedsnr" v="178153" />
	</node>
	<node lat="68.82027500091908" lon="15.045088886114224" id="-22070">
		<tag k="name" v="Strandhaugen" />
		<tag k="natural" v="hill" />
		<tag k="place" v="locality" />
		<tag k="ssr:stedsnr" v="178347" />
	</node>
	<node lat="68.74883333804723" lon="14.931644438030688" id="-22074">
		<tag k="fixme" v="consider natural=peak for the most distinct mountains in the district" />
		<tag k="name" v="Ånfjordtinden" />
		<tag k="natural" v="hill" />
		<tag k="place" v="locality" />
		<tag k="ssr:stedsnr" v="180696" />
	</node>
	<node lat="68.83216666424049" lon="14.819052784880185" id="-22075">
		<tag k="name" v="Lendingshågen" />
		<tag k="natural" v="hill" />
		<tag k="place" v="locality" />
		<tag k="ssr:stedsnr" v="180766" />
	</node>
	<node lat="68.80035555138603" lon="14.94682499895808" id="-22078">
		<tag k="fixme" v="consider natural=peak for the most distinct mountains in the district" />
		<tag k="name" v="Høgslottoppen" />
		<tag k="natural" v="hill" />
		<tag k="place" v="locality" />
		<tag k="ssr:stedsnr" v="180741" />
	</node>
	<node lat="68.78800555246637" lon="14.946852765608101" id="-22079">
		<tag k="name" v="Styrmannshaugen" />
		<tag k="natural" v="hill" />
		<tag k="place" v="locality" />
		<tag k="ssr:stedsnr" v="180753" />
	</node>
	<node lat="68.815791667542" lon="15.19730276799303" id="-22086">
		<tag k="name" v="Kuberget" />
		<tag k="natural" v="hill" />
		<tag k="place" v="locality" />
		<tag k="ssr:stedsnr" v="199294" />
	</node>
	<node lat="68.99462500316797" lon="15.02597223537302" id="-22088">
		<tag k="name" v="Nyken" />
		<tag k="natural" v="hill" />
		<tag k="place" v="locality" />
		<tag k="ssr:stedsnr" v="199589" />
	</node>
	<node lat="68.92970277706753" lon="14.898286099736984" id="-22090">
		<tag k="name" v="Siridalen" />
		<tag k="natural" v="valley" />
		<tag k="place" v="locality" />
		<tag k="ssr:stedsnr" v="200121" />
	</node>
	<node lat="68.94622777879864" lon="15.006486119501206" id="-22092">
		<tag k="name" v="Pansaren" />
		<tag k="natural" v="hill" />
		<tag k="place" v="locality" />
		<tag k="ssr:stedsnr" v="200125" />
	</node>
	<node lat="68.9025944423936" lon="14.884975002185762" id="-22105">
		<tag k="name" v="Bukkedalen" />
		<tag k="natural" v="valley" />
		<tag k="place" v="locality" />
		<tag k="ssr:stedsnr" v="200742" />
	</node>
	<node lat="68.8406277758302" lon="14.778027776093401" id="-22114">
		<tag k="fixme" v="consider natural=peak for the most distinct mountains in the district" />
		<tag k="name" v="Børa" />
		<tag k="natural" v="hill" />
		<tag k="place" v="locality" />
		<tag k="ssr:stedsnr" v="200832" />
	</node>
	<node lat="68.79510833473608" lon="14.750200004471985" id="-22115">
		<tag k="fixme" v="consider natural=peak for the most distinct mountains in the district" />
		<tag k="name" v="Ørntuva" />
		<tag k="natural" v="hill" />
		<tag k="place" v="locality" />
		<tag k="ssr:stedsnr" v="200965" />
	</node>
	<node lat="68.82542222253689" lon="14.817941666725249" id="-22117">
		<tag k="alt_name" v="Dyrøytind" />
		<tag k="fixme" v="consider natural=peak for the most distinct mountains in the district" />
		<tag k="name" v="Dyrøytinden" />
		<tag k="natural" v="hill" />
		<tag k="place" v="locality" />
		<tag k="ssr:stedsnr" v="200863" />
	</node>
	<node lat="68.8281000022585" lon="14.973950001027383" id="-22118">
		<tag k="fixme" v="consider natural=peak for the most distinct mountains in the district" />
		<tag k="name" v="Lembakktinden" />
		<tag k="natural" v="hill" />
		<tag k="place" v="locality" />
		<tag k="ssr:stedsnr" v="200869" />
	</node>
	<node lat="68.89140555853383" lon="15.256822210445149" id="-22123">
		<tag k="name" v="Vedhøggan" />
		<tag k="place" v="locality" />
		<tag k="ssr:stedsnr" v="218145" />
	</node>
	<node lat="68.88986388660308" lon="15.278772230127029" id="-22125">
		<tag k="name" v="Middagskollen" />
		<tag k="natural" v="hill" />
		<tag k="place" v="locality" />
		<tag k="ssr:stedsnr" v="218155" />
	</node>
	<node lat="68.85342222121001" lon="15.264180543425304" id="-22127">
		<tag k="name" v="Stiberget" />
		<tag k="natural" v="hill" />
		<tag k="place" v="locality" />
		<tag k="ssr:stedsnr" v="218469" />
	</node>
	<node lat="68.8705583328585" lon="15.264955564087655" id="-22129">
		<tag k="name" v="Jofinnheia" />
		<tag k="natural" v="hill" />
		<tag k="place" v="locality" />
		<tag k="ssr:stedsnr" v="218798" />
	</node>
	<node lat="68.87422777702446" lon="15.24630555405155" id="-22130">
		<tag k="name" v="Kvanntohågan" />
		<tag k="natural" v="hill" />
		<tag k="place" v="locality" />
		<tag k="ssr:stedsnr" v="218766" />
	</node>
	<node lat="68.91742499690163" lon="15.294488879485051" id="-22131">
		<tag k="name" v="Trollhågen" />
		<tag k="natural" v="hill" />
		<tag k="place" v="locality" />
		<tag k="ssr:stedsnr" v="218840" />
	</node>
	<node lat="68.975747222538" lon="15.126352779960568" id="-22132">
		<tag k="name" v="Bjørnklakken" />
		<tag k="natural" v="valley" />
		<tag k="place" v="locality" />
		<tag k="ssr:stedsnr" v="218859" />
	</node>
	<node lat="68.96313888625454" lon="15.018997210805553" id="-22138">
		<tag k="fixme" v="consider natural=peak for the most distinct mountains in the district" />
		<tag k="name" v="Andbjøra" />
		<tag k="natural" v="hill" />
		<tag k="place" v="locality" />
		<tag k="ssr:stedsnr" v="223322" />
	</node>
	<node lat="68.94681666333567" lon="15.007583328833737" id="-22139">
		<tag k="name" v="Hammaren" />
		<tag k="natural" v="hill" />
		<tag k="place" v="locality" />
		<tag k="ssr:stedsnr" v="223270" />
	</node>
	<node lat="68.94150556042293" lon="15.016058323786137" id="-22140">
		<tag k="name" v="Brekka" />
		<tag k="natural" v="slope" />
		<tag k="place" v="locality" />
		<tag k="ssr:stedsnr" v="223273" />
	</node>
	<node lat="68.95750555148693" lon="15.167724993195128" id="-22146">
		<tag k="name" v="Standalhågen" />
		<tag k="natural" v="hill" />
		<tag k="place" v="locality" />
		<tag k="ssr:stedsnr" v="279799" />
	</node>
	<node lat="68.8525666680494" lon="15.23635277625571" id="-22147">
		<tag k="name" v="Slettheia" />
		<tag k="natural" v="hill" />
		<tag k="place" v="locality" />
		<tag k="ssr:stedsnr" v="279488" />
	</node>
	<node lat="69.01330833778007" lon="15.157266658213713" id="-22148">
		<tag k="name" v="Blåbærhågen" />
		<tag k="natural" v="hill" />
		<tag k="place" v="locality" />
		<tag k="ssr:stedsnr" v="279848" />
	</node>
	<node lat="69.01145555850638" lon="15.162508344883438" id="-22150">
		<tag k="name" v="Tussbergskaret" />
		<tag k="natural" v="valley" />
		<tag k="place" v="locality" />
		<tag k="ssr:stedsnr" v="279864" />
	</node>
	<node lat="68.88928888690317" lon="14.839308338797569" id="-22157">
		<tag k="name" v="Hellen" />
		<tag k="natural" v="hill" />
		<tag k="place" v="locality" />
		<tag k="ssr:stedsnr" v="282040" />
	</node>
	<node lat="68.79538611146691" lon="15.154983342775045" id="-22160">
		<tag k="name" v="Sandskaret" />
		<tag k="natural" v="valley" />
		<tag k="place" v="locality" />
		<tag k="ssr:stedsnr" v="283530" />
	</node>
	<node lat="68.82829444737337" lon="15.237408321859974" id="-22162">
		<tag k="name" v="Brandåsen" />
		<tag k="natural" v="hill" />
		<tag k="place" v="locality" />
		<tag k="ssr:stedsnr" v="283545" />
	</node>
	<node lat="68.99823889360583" lon="15.027252771669726" id="-22166">
		<tag k="name" v="Opplandet" />
		<tag k="place" v="locality" />
		<tag k="ssr:stedsnr" v="284299" />
	</node>
	<node lat="68.9597472220912" lon="15.017594441708539" id="-22168">
		<tag k="name" v="Kattfloget" />
		<tag k="natural" v="hill" />
		<tag k="place" v="locality" />
		<tag k="ssr:stedsnr" v="284319" />
	</node>
	<node lat="68.85377777681131" lon="14.977025000223772" id="-22169">
		<tag k="name" v="Middagsdalen" />
		<tag k="natural" v="valley" />
		<tag k="place" v="locality" />
		<tag k="ssr:stedsnr" v="284354" />
	</node>
	<node lat="68.80770832991816" lon="15.14465833954401" id="-22172">
		<tag k="name" v="Vatndalen" />
		<tag k="natural" v="valley" />
		<tag k="place" v="locality" />
		<tag k="ssr:stedsnr" v="298412" />
	</node>
	<node lat="68.98199444319545" lon="15.11849444907296" id="-22173">
		<tag k="name" v="Kalvdalen" />
		<tag k="natural" v="valley" />
		<tag k="place" v="locality" />
		<tag k="ssr:stedsnr" v="298340" />
	</node>
	<node lat="68.93970277885364" lon="15.115449988321412" id="-22174">
		<tag k="name" v="Vedhøggan" />
		<tag k="natural" v="slope" />
		<tag k="place" v="locality" />
		<tag k="ssr:stedsnr" v="298363" />
	</node>
	<node lat="68.8322333302893" lon="14.96429166538596" id="-22175">
		<tag k="name" v="Tekkelskaret" />
		<tag k="natural" v="valley" />
		<tag k="place" v="locality" />
		<tag k="ssr:stedsnr" v="299106" />
	</node>
	<node lat="68.74469999950588" lon="14.910772224929406" id="-22177">
		<tag k="name" v="Oppsåta" />
		<tag k="natural" v="slope" />
		<tag k="place" v="locality" />
		<tag k="ssr:stedsnr" v="301693" />
	</node>
	<node lat="68.79210000068059" lon="14.86228055631433" id="-22179">
		<tag k="name" v="Årlauken" />
		<tag k="natural" v="hill" />
		<tag k="place" v="locality" />
		<tag k="ssr:stedsnr" v="301755" />
	</node>
	<node lat="68.91994999566467" lon="14.891952788608023" id="-22185">
		<tag k="fixme" v="consider natural=peak for the most distinct mountains in the district" />
		<tag k="name" v="Andtinden" />
		<tag k="natural" v="hill" />
		<tag k="place" v="locality" />
		<tag k="ssr:stedsnr" v="321720" />
	</node>
	<node lat="68.83887499621635" lon="15.07821388508781" id="-22194">
		<tag k="fixme" v="consider natural=peak for the most distinct mountains in the district" />
		<tag k="name" v="Stauren" />
		<tag k="natural" v="hill" />
		<tag k="place" v="locality" />
		<tag k="ssr:stedsnr" v="321272" />
	</node>
	<node lat="68.76203333408155" lon="14.816200011213608" id="-22196">
		<tag k="name" v="Sørdalskaret" />
		<tag k="natural" v="valley" />
		<tag k="place" v="locality" />
		<tag k="ssr:stedsnr" v="321526" />
	</node>
	<node lat="68.76118888420766" lon="15.002450009267168" id="-22201">
		<tag k="name" v="Rekdalen" />
		<tag k="natural" v="valley" />
		<tag k="place" v="locality" />
		<tag k="ssr:stedsnr" v="321558" />
	</node>
	<node lat="68.87503888497372" lon="15.101016653894686" id="-22208">
		<tag k="fixme" v="consider natural=peak for the most distinct mountains in the district" />
		<tag k="name" v="Staven" />
		<tag k="natural" v="hill" />
		<tag k="place" v="locality" />
		<tag k="ssr:stedsnr" v="321667" />
	</node>
	<node lat="68.89178333395296" lon="14.912044441354755" id="-22213">
		<tag k="fixme" v="consider natural=peak for the most distinct mountains in the district" />
		<tag k="name" v="Skredtinden" />
		<tag k="natural" v="hill" />
		<tag k="place" v="locality" />
		<tag k="ssr:stedsnr" v="321762" />
	</node>
	<node lat="68.89879999998638" lon="14.98322500793448" id="-22214">
		<tag k="fixme" v="consider natural=peak for the most distinct mountains in the district" />
		<tag k="name" v="Gjurtinden" />
		<tag k="natural" v="hill" />
		<tag k="place" v="locality" />
		<tag k="ssr:stedsnr" v="321776" />
	</node>
	<node lat="68.82239722260441" lon="14.75432221403257" id="-22215">
		<tag k="name" v="Trollkondalen" />
		<tag k="natural" v="valley" />
		<tag k="place" v="locality" />
		<tag k="ssr:stedsnr" v="321841" />
	</node>
	<node lat="68.9151111116006" lon="15.223372231786893" id="-22221">
		<tag k="name" v="Sommerfjøshågen" />
		<tag k="natural" v="hill" />
		<tag k="place" v="locality" />
		<tag k="ssr:stedsnr" v="339028" />
	</node>
	<node lat="68.91865555772793" lon="15.265608344697663" id="-22222">
		<tag k="name" v="Sniphågen" />
		<tag k="natural" v="hill" />
		<tag k="place" v="locality" />
		<tag k="ssr:stedsnr" v="339031" />
	</node>
	<node lat="68.9140638849492" lon="15.242041669982989" id="-22224">
		<tag k="name" v="Rishågen" />
		<tag k="natural" v="hill" />
		<tag k="place" v="locality" />
		<tag k="ssr:stedsnr" v="339096" />
	</node>
	<node lat="68.91676666975688" lon="15.074927767196534" id="-22225">
		<tag k="name" v="Brekka" />
		<tag k="natural" v="hill" />
		<tag k="place" v="locality" />
		<tag k="ssr:stedsnr" v="339147" />
	</node>
	<node lat="68.89471388814691" lon="15.245786105065442" id="-22228">
		<tag k="name" v="Grønnlia" />
		<tag k="natural" v="slope" />
		<tag k="place" v="locality" />
		<tag k="ssr:stedsnr" v="339163" />
	</node>
	<node lat="68.97736666306328" lon="15.036191663100452" id="-22233">
		<tag k="fixme" v="consider natural=peak for the most distinct mountains in the district" />
		<tag k="name" v="Rauntinden" />
		<tag k="natural" v="hill" />
		<tag k="place" v="locality" />
		<tag k="ssr:stedsnr" v="339382" />
	</node>
	<node lat="68.9891777816293" lon="15.037061119473304" id="-22234">
		<tag k="fixme" v="consider natural=peak for the most distinct mountains in the district" />
		<tag k="name" v="Brattnakktinden" />
		<tag k="natural" v="hill" />
		<tag k="place" v="locality" />
		<tag k="ssr:stedsnr" v="339388" />
	</node>
	<node lat="68.91032778031945" lon="14.866822234686312" id="-22250">
		<tag k="name" v="Kopphågen" />
		<tag k="natural" v="hill" />
		<tag k="place" v="locality" />
		<tag k="ssr:stedsnr" v="343060" />
	</node>
	<node lat="68.93197222183265" lon="15.267463891104715" id="-22255">
		<tag k="name" v="Merrastehågen" />
		<tag k="natural" v="hill" />
		<tag k="place" v="locality" />
		<tag k="ssr:stedsnr" v="343540" />
	</node>
	<node lat="68.94116388542535" lon="15.208722208603449" id="-22257">
		<tag k="name" v="Valraet" />
		<tag k="natural" v="hill" />
		<tag k="place" v="locality" />
		<tag k="ssr:stedsnr" v="343555" />
	</node>
	<node lat="68.79370277900215" lon="15.170280563020086" id="-22259">
		<tag k="name" v="Mosshågen" />
		<tag k="natural" v="hill" />
		<tag k="place" v="locality" />
		<tag k="ssr:stedsnr" v="343582" />
	</node>
	<node lat="68.92867777824219" lon="15.072077772705997" id="-22270">
		<tag k="name" v="Høydalen" />
		<tag k="natural" v="valley" />
		<tag k="place" v="locality" />
		<tag k="ssr:stedsnr" v="358418" />
	</node>
	<node lat="68.9329833312188" lon="15.066533325089177" id="-22271">
		<tag k="name" v="Bjørndalen" />
		<tag k="natural" v="valley" />
		<tag k="place" v="locality" />
		<tag k="ssr:stedsnr" v="358380" />
	</node>
	<node lat="68.78198610784155" lon="15.007749987988038" id="-22272">
		<tag k="fixme" v="consider natural=peak for the most distinct mountains in the district" />
		<tag k="name" v="Nipen" />
		<tag k="natural" v="hill" />
		<tag k="place" v="locality" />
		<tag k="ssr:stedsnr" v="360127" />
	</node>
	<node lat="68.784775001384" lon="14.999577768792262" id="-22273">
		<tag k="name" v="Sommardalsheia" />
		<tag k="natural" v="hill" />
		<tag k="place" v="locality" />
		<tag k="ssr:stedsnr" v="360128" />
	</node>
	<node lat="68.7805694480941" lon="14.980961118132145" id="-22274">
		<tag k="name" v="Helsinghågen" />
		<tag k="natural" v="hill" />
		<tag k="place" v="locality" />
		<tag k="ssr:stedsnr" v="360129" />
	</node>
	<node lat="68.84180832963354" lon="14.827191662128344" id="-22281">
		<tag k="name" v="Stien" />
		<tag k="natural" v="slope" />
		<tag k="place" v="locality" />
		<tag k="ssr:stedsnr" v="362793" />
	</node>
	<node lat="68.82465833396665" lon="14.832930553209879" id="-22282">
		<tag k="fixme" v="consider natural=peak for the most distinct mountains in the district" />
		<tag k="name" v="Kollan" />
		<tag k="natural" v="hill" />
		<tag k="place" v="locality" />
		<tag k="ssr:stedsnr" v="362797" />
	</node>
	<node lat="68.8270083368434" lon="14.844497210819407" id="-22283">
		<tag k="name" v="Nausthågen" />
		<tag k="natural" v="hill" />
		<tag k="place" v="locality" />
		<tag k="ssr:stedsnr" v="362799" />
	</node>
	<node lat="68.81848611163278" lon="14.842127767905101" id="-22284">
		<tag k="name" v="Stykkjan" />
		<tag k="natural" v="slope" />
		<tag k="place" v="locality" />
		<tag k="ssr:stedsnr" v="362883" />
	</node>
	<node lat="69.01211486073475" lon="15.176843131457389" id="-22290">
		<tag k="name" v="Snålden" />
		<tag k="natural" v="hill" />
		<tag k="place" v="locality" />
		<tag k="ssr:stedsnr" v="381324" />
	</node>
	<node lat="68.78978055781953" lon="15.112902781300233" id="-22296">
		<tag k="name" v="Keipen" />
		<tag k="natural" v="hill" />
		<tag k="place" v="locality" />
		<tag k="ssr:stedsnr" v="381380" />
	</node>
	<node lat="68.79837778192933" lon="15.157399998527316" id="-22297">
		<tag k="name" v="Tverrfjellet" />
		<tag k="natural" v="hill" />
		<tag k="place" v="locality" />
		<tag k="ssr:stedsnr" v="381381" />
	</node>
	<node lat="68.98489999873972" lon="15.10321943329975" id="-22300">
		<tag k="fixme" v="consider natural=peak for the most distinct mountains in the district" />
		<tag k="name" v="Sørkulen" />
		<tag k="natural" v="hill" />
		<tag k="place" v="locality" />
		<tag k="ssr:stedsnr" v="381565" />
	</node>
	<node lat="68.96721666689659" lon="15.082238893417744" id="-22301">
		<tag k="fixme" v="consider natural=peak for the most distinct mountains in the district" />
		<tag k="name" v="Klotinden" />
		<tag k="natural" v="hill" />
		<tag k="place" v="locality" />
		<tag k="ssr:stedsnr" v="381619" />
	</node>
	<node lat="68.97470833182476" lon="15.04148333493151" id="-22303">
		<tag k="fixme" v="consider natural=peak for the most distinct mountains in the district" />
		<tag k="name" v="Vottestadtinden" />
		<tag k="natural" v="hill" />
		<tag k="place" v="locality" />
		<tag k="ssr:stedsnr" v="381630" />
	</node>
	<node lat="68.89323333399103" lon="14.880263898606984" id="-22306">
		<tag k="alt_name" v="Solskarddalen" />
		<tag k="name" v="Solskardalen" />
		<tag k="natural" v="valley" />
		<tag k="place" v="locality" />
		<tag k="ssr:stedsnr" v="381822" />
	</node>
	<node lat="68.91820555654971" lon="14.973991671942997" id="-22312">
		<tag k="name" v="Klauvdalen" />
		<tag k="natural" v="valley" />
		<tag k="place" v="locality" />
		<tag k="ssr:stedsnr" v="382725" />
	</node>
	<node lat="68.78842778086779" lon="14.872844449448841" id="-22313">
		<tag k="fixme" v="consider natural=peak for the most distinct mountains in the district" />
		<tag k="name" v="Rundheia" />
		<tag k="natural" v="hill" />
		<tag k="place" v="locality" />
		<tag k="ssr:stedsnr" v="382969" />
	</node>
	<node lat="68.84306389188875" lon="14.92383054946739" id="-22314">
		<tag k="fixme" v="consider natural=peak for the most distinct mountains in the district" />
		<tag k="name" v="Saltberget" />
		<tag k="natural" v="hill" />
		<tag k="place" v="locality" />
		<tag k="ssr:stedsnr" v="382846" />
	</node>
	<node lat="68.86329721921423" lon="15.245811101081415" id="-22317">
		<tag k="fixme" v="consider natural=peak for the most distinct mountains in the district" />
		<tag k="name" v="Skartinden" />
		<tag k="natural" v="hill" />
		<tag k="place" v="locality" />
		<tag k="ssr:stedsnr" v="400019" />
	</node>
	<node lat="68.97755833282505" lon="15.125016664178311" id="-22320">
		<tag k="name" v="Gaphågen" />
		<tag k="natural" v="hill" />
		<tag k="place" v="locality" />
		<tag k="ssr:stedsnr" v="400824" />
	</node>
	<node lat="68.8896833340603" lon="14.868166677326867" id="-22322">
		<tag k="name" v="Litjbranden" />
		<tag k="natural" v="slope" />
		<tag k="place" v="locality" />
		<tag k="ssr:stedsnr" v="403031" />
	</node>
	<node lat="68.90654999770099" lon="14.86470554406991" id="-22323">
		<tag k="name" v="Dalen" />
		<tag k="natural" v="valley" />
		<tag k="place" v="locality" />
		<tag k="ssr:stedsnr" v="403034" />
	</node>
	<node lat="68.85783888730725" lon="14.962536122366803" id="-22324">
		<tag k="fixme" v="consider natural=peak for the most distinct mountains in the district" />
		<tag k="name" v="Toppåsen" />
		<tag k="natural" v="hill" />
		<tag k="place" v="locality" />
		<tag k="ssr:stedsnr" v="403060" />
	</node>
	<node lat="68.81331111165868" lon="15.202091670068095" id="-22329">
		<tag k="name" v="Storhågen" />
		<tag k="natural" v="hill" />
		<tag k="place" v="locality" />
		<tag k="ssr:stedsnr" v="404566" />
	</node>
	<node lat="68.9458111106206" lon="15.019330566151854" id="-22331">
		<tag k="name" v="Sjåberget" />
		<tag k="natural" v="hill" />
		<tag k="place" v="locality" />
		<tag k="ssr:stedsnr" v="405278" />
	</node>
	<node lat="68.90621944858333" lon="14.954088897376808" id="-22334">
		<tag k="name" v="Nattmålsskaret" />
		<tag k="natural" v="valley" />
		<tag k="place" v="locality" />
		<tag k="ssr:stedsnr" v="419201" />
	</node>
	<node lat="68.8130111122111" lon="15.120222228759046" id="-22335">
		<tag k="name" v="Ytterskaret" />
		<tag k="natural" v="valley" />
		<tag k="place" v="locality" />
		<tag k="ssr:stedsnr" v="419425" />
	</node>
	<node lat="68.7782416668975" lon="14.782780559936324" id="-22336">
		<tag k="name" v="Stordalen" />
		<tag k="natural" v="valley" />
		<tag k="place" v="locality" />
		<tag k="ssr:stedsnr" v="419581" />
	</node>
	<node lat="68.8427388878377" lon="15.005461119594873" id="-22337">
		<tag k="name" v="Kollhågen" />
		<tag k="natural" v="hill" />
		<tag k="place" v="locality" />
		<tag k="ssr:stedsnr" v="421116" />
	</node>
	<node lat="68.824744443886" lon="15.040136099382757" id="-22338">
		<tag k="name" v="Hjellberget" />
		<tag k="natural" v="hill" />
		<tag k="place" v="locality" />
		<tag k="ssr:stedsnr" v="421125" />
	</node>
	<node lat="68.83194999816668" lon="14.816424996489303" id="-22342">
		<tag k="name" v="Bramvågdalen" />
		<tag k="natural" v="valley" />
		<tag k="place" v="locality" />
		<tag k="ssr:stedsnr" v="423794" />
	</node>
	<node lat="68.78220555826601" lon="14.930675000796708" id="-22345">
		<tag k="name" v="Dungahågen" />
		<tag k="natural" v="hill" />
		<tag k="place" v="locality" />
		<tag k="ssr:stedsnr" v="423778" />
	</node>
	<node lat="68.81670833015781" lon="14.806136114896605" id="-22347">
		<tag k="name" v="Storhågen" />
		<tag k="natural" v="hill" />
		<tag k="place" v="locality" />
		<tag k="ssr:stedsnr" v="423886" />
	</node>
	<node lat="68.72581388562028" lon="14.912541663598649" id="-22349">
		<tag k="name" v="Solumskardet" />
		<tag k="natural" v="valley" />
		<tag k="place" v="locality" />
		<tag k="ssr:stedsnr" v="442300" />
	</node>
	<node lat="68.81403611132804" lon="15.266438880427662" id="-22350">
		<tag k="fixme" v="consider natural=peak for the most distinct mountains in the district" />
		<tag k="name" v="Reinen" />
		<tag k="natural" v="hill" />
		<tag k="place" v="locality" />
		<tag k="ssr:stedsnr" v="442321" />
	</node>
	<node lat="68.92440833150697" lon="14.959833337736248" id="-22373">
		<tag k="fixme" v="consider natural=peak for the most distinct mountains in the district" />
		<tag k="name" v="Frivågheia" />
		<tag k="natural" v="hill" />
		<tag k="place" v="locality" />
		<tag k="ssr:stedsnr" v="443719" />
	</node>
	<node lat="68.8308555563703" lon="14.999702783239417" id="-22376">
		<tag k="fixme" v="consider natural=peak for the most distinct mountains in the district" />
		<tag k="name" v="Nordkollen" />
		<tag k="natural" v="hill" />
		<tag k="place" v="locality" />
		<tag k="ssr:stedsnr" v="443859" />
	</node>
	<node lat="68.82300000087062" lon="14.977838877923213" id="-22378">
		<tag k="fixme" v="consider natural=peak for the most distinct mountains in the district" />
		<tag k="name" v="Heia" />
		<tag k="natural" v="hill" />
		<tag k="place" v="locality" />
		<tag k="ssr:stedsnr" v="443888" />
	</node>
	<node lat="68.84379444423675" lon="15.22513055696957" id="-22385">
		<tag k="fixme" v="consider natural=peak for the most distinct mountains in the district" />
		<tag k="name" v="Ørna" />
		<tag k="natural" v="hill" />
		<tag k="place" v="locality" />
		<tag k="ssr:stedsnr" v="503276" />
	</node>
	<node lat="68.80724444810508" lon="15.244083330813305" id="-22388">
		<tag k="alt_name" v="Kobbskardet" />
		<tag k="name" v="Kobbskaret" />
		<tag k="natural" v="valley" />
		<tag k="place" v="locality" />
		<tag k="ssr:stedsnr" v="503255" />
	</node>
	<node lat="69.01173610662168" lon="15.130650009082883" id="-22391">
		<tag k="name" v="Geitberget" />
		<tag k="natural" v="hill" />
		<tag k="place" v="locality" />
		<tag k="ssr:stedsnr" v="503317" />
	</node>
	<node lat="68.80568332896537" lon="15.119786109656138" id="-22392">
		<tag k="fixme" v="multiple name tags, choose one and add the other to alt_name; consider natural=peak for the most distinct mountains in the district" />
		<tag k="name" v="Henriktinden;Vatndalstinden" />
		<tag k="natural" v="hill" />
		<tag k="place" v="locality" />
		<tag k="ssr:stedsnr" v="503333" />
	</node>
	<node lat="68.95966111518803" lon="15.046247219553953" id="-22394">
		<tag k="alt_name" v="Jennskardet" />
		<tag k="name" v="Jennskaret" />
		<tag k="natural" v="valley" />
		<tag k="place" v="locality" />
		<tag k="ssr:stedsnr" v="503573" />
	</node>
	<node lat="68.75436666525408" lon="14.944372220008232" id="-22396">
		<tag k="name" v="Gammelgårdskardet" />
		<tag k="natural" v="valley" />
		<tag k="place" v="locality" />
		<tag k="ssr:stedsnr" v="503554" />
	</node>
	<node lat="68.8920388901874" lon="14.98382777686378" id="-22404">
		<tag k="fixme" v="consider natural=peak for the most distinct mountains in the district" />
		<tag k="name" v="Nattmålstinden" />
		<tag k="natural" v="hill" />
		<tag k="place" v="locality" />
		<tag k="ssr:stedsnr" v="503744" />
	</node>
	<node lat="68.81033888972831" lon="14.838416655837205" id="-22406">
		<tag k="fixme" v="multiple name tags, choose one and add the other to alt_name; consider natural=peak for the most distinct mountains in the district" />
		<tag k="name" v="Stornyken;Nyken" />
		<tag k="natural" v="hill" />
		<tag k="place" v="locality" />
		<tag k="ssr:stedsnr" v="503885" />
	</node>
	<node lat="68.81422222594688" lon="14.847325000837587" id="-22407">
		<tag k="name" v="Purkvikhaugan" />
		<tag k="natural" v="hill" />
		<tag k="place" v="locality" />
		<tag k="ssr:stedsnr" v="503888" />
	</node>
	<node lat="68.78054999658748" lon="14.842347227571256" id="-22410">
		<tag k="fixme" v="consider natural=peak for the most distinct mountains in the district" />
		<tag k="name" v="Sjurtinden" />
		<tag k="natural" v="hill" />
		<tag k="place" v="locality" />
		<tag k="ssr:stedsnr" v="503981" />
	</node>
	<node lat="68.82116666448886" lon="14.80683889911412" id="-22413">
		<tag k="name" v="Flata" />
		<tag k="natural" v="hill" />
		<tag k="place" v="locality" />
		<tag k="ssr:stedsnr" v="503852" />
	</node>
	<node lat="68.80710833153611" lon="14.948244437283384" id="-22415">
		<tag k="fixme" v="consider natural=peak for the most distinct mountains in the district" />
		<tag k="name" v="Torsetheia" />
		<tag k="natural" v="hill" />
		<tag k="place" v="locality" />
		<tag k="ssr:stedsnr" v="503932" />
	</node>
	<node lat="68.86451389277285" lon="15.247116658424599" id="-22420">
		<tag k="name" v="Skarsteinlia" />
		<tag k="natural" v="slope" />
		<tag k="place" v="locality" />
		<tag k="ssr:stedsnr" v="521027" />
	</node>
	<node lat="68.92830555703496" lon="15.081247210485714" id="-22422">
		<tag k="name" v="Minne" />
		<tag k="place" v="locality" />
		<tag k="ssr:stedsnr" v="521133" />
	</node>
	<node lat="68.97019166293019" lon="15.14372499949925" id="-22425">
		<tag k="name" v="Brannhågen" />
		<tag k="natural" v="hill" />
		<tag k="place" v="locality" />
		<tag k="ssr:stedsnr" v="521191" />
	</node>
	<node lat="68.90879722192543" lon="15.294075003505032" id="-22426">
		<tag k="name" v="Blåbærhågen" />
		<tag k="natural" v="hill" />
		<tag k="place" v="locality" />
		<tag k="ssr:stedsnr" v="521779" />
	</node>
	<node lat="68.97843055461186" lon="15.184022232341269" id="-22427">
		<tag k="name" v="Solbakken" />
		<tag k="natural" v="slope" />
		<tag k="place" v="locality" />
		<tag k="ssr:stedsnr" v="521837" />
	</node>
	<node lat="68.8218694483274" lon="15.252544438397175" id="-22440">
		<tag k="name" v="Håkahågen" />
		<tag k="natural" v="hill" />
		<tag k="place" v="locality" />
		<tag k="ssr:stedsnr" v="526597" />
	</node>
	<node lat="68.94613888592423" lon="15.042452765078115" id="-22441">
		<tag k="name" v="Durmålskaret" />
		<tag k="natural" v="valley" />
		<tag k="place" v="locality" />
		<tag k="ssr:stedsnr" v="527269" />
	</node>
	<node lat="68.9670916639043" lon="15.101313880939298" id="-22444">
		<tag k="fixme" v="consider natural=peak for the most distinct mountains in the district" />
		<tag k="name" v="Nella" />
		<tag k="natural" v="hill" />
		<tag k="place" v="locality" />
		<tag k="ssr:stedsnr" v="540453" />
	</node>
	<node lat="68.7694111072916" lon="14.863977785542016" id="-22445">
		<tag k="name" v="Brattberget" />
		<tag k="natural" v="hill" />
		<tag k="place" v="locality" />
		<tag k="ssr:stedsnr" v="541627" />
	</node>
	<node lat="68.82471944237902" lon="15.015702785010328" id="-22446">
		<tag k="name" v="Romsethågen" />
		<tag k="natural" v="hill" />
		<tag k="place" v="locality" />
		<tag k="ssr:stedsnr" v="542130" />
	</node>
	<node lat="68.82720555187977" lon="15.009327770823997" id="-22447">
		<tag k="fixme" v="consider natural=peak for the most distinct mountains in the district" />
		<tag k="name" v="Slåttfjellet" />
		<tag k="natural" v="hill" />
		<tag k="place" v="locality" />
		<tag k="ssr:stedsnr" v="542131" />
	</node>
	<node lat="68.82516110733515" lon="14.766022219715493" id="-22448">
		<tag k="name" v="Stien" />
		<tag k="natural" v="hill" />
		<tag k="place" v="locality" />
		<tag k="ssr:stedsnr" v="543658" />
	</node>
	<node lat="68.81135555404488" lon="15.064508339272388" id="-22457">
		<tag k="fixme" v="consider natural=peak for the most distinct mountains in the district" />
		<tag k="name" v="Stortinden" />
		<tag k="natural" v="hill" />
		<tag k="place" v="locality" />
		<tag k="ssr:stedsnr" v="563254" />
	</node>
	<node lat="68.83798055856983" lon="15.232102777296564" id="-22458">
		<tag k="fixme" v="consider natural=peak for the most distinct mountains in the district" />
		<tag k="name" v="Nordtinden" />
		<tag k="natural" v="hill" />
		<tag k="place" v="locality" />
		<tag k="ssr:stedsnr" v="563278" />
	</node>
	<node lat="68.74850000160097" lon="14.957841660529507" id="-22463">
		<tag k="fixme" v="consider natural=peak for the most distinct mountains in the district" />
		<tag k="name" v="Litlreka" />
		<tag k="natural" v="hill" />
		<tag k="place" v="locality" />
		<tag k="ssr:stedsnr" v="563334" />
	</node>
	<node lat="68.77459444078814" lon="14.941441671236836" id="-22467">
		<tag k="alt_name" v="Dungatinden" />
		<tag k="fixme" v="consider natural=peak for the most distinct mountains in the district" />
		<tag k="name" v="Dungafjellet" />
		<tag k="natural" v="hill" />
		<tag k="place" v="locality" />
		<tag k="ssr:stedsnr" v="563489" />
	</node>
	<node lat="68.97003055519504" lon="15.13748889895828" id="-22468">
		<tag k="alt_name" v="Sirihaugen" />
		<tag k="name" v="Sirihågen" />
		<tag k="natural" v="hill" />
		<tag k="place" v="locality" />
		<tag k="ssr:stedsnr" v="563602" />
	</node>
	<node lat="68.76248055605613" lon="14.876488879161453" id="-22469">
		<tag k="fixme" v="consider natural=peak for the most distinct mountains in the district" />
		<tag k="name" v="Nonstinden" />
		<tag k="natural" v="hill" />
		<tag k="place" v="locality" />
		<tag k="ssr:stedsnr" v="563522" />
	</node>
	<node lat="68.76899444262406" lon="14.950897231386694" id="-22470">
		<tag k="alt_name" v="Urdskardet" />
		<tag k="name" v="Urskaret" />
		<tag k="natural" v="valley" />
		<tag k="place" v="locality" />
		<tag k="ssr:stedsnr" v="563525" />
	</node>
	<node lat="68.99805555167097" lon="15.12657500782102" id="-22471">
		<tag k="fixme" v="consider natural=peak for the most distinct mountains in the district" />
		<tag k="name" v="Skrådalsheia" />
		<tag k="natural" v="hill" />
		<tag k="place" v="locality" />
		<tag k="ssr:stedsnr" v="563567" />
	</node>
	<node lat="68.85844166548536" lon="15.173588886292348" id="-22480">
		<tag k="name" v="Leithaugen" />
		<tag k="natural" v="hill" />
		<tag k="place" v="locality" />
		<tag k="ssr:stedsnr" v="563750" />
	</node>
	<node lat="68.9115777737466" lon="14.9781111131033" id="-22486">
		<tag k="fixme" v="multiple name tags, choose one and add the other to alt_name; consider natural=peak for the most distinct mountains in the district" />
		<tag k="name" v="Skogåsen;Snausen" />
		<tag k="natural" v="hill" />
		<tag k="place" v="locality" />
		<tag k="ssr:stedsnr" v="563805" />
	</node>
	<node lat="68.88014722038012" lon="14.949022229252279" id="-22491">
		<tag k="fixme" v="consider natural=peak for the most distinct mountains in the district" />
		<tag k="name" v="Lysvikhaugan" />
		<tag k="natural" v="hill" />
		<tag k="place" v="locality" />
		<tag k="ssr:stedsnr" v="563822" />
	</node>
	<node lat="68.84684444858425" lon="14.914680547645224" id="-22496">
		<tag k="fixme" v="consider natural=peak for the most distinct mountains in the district" />
		<tag k="name" v="Saltbergknean" />
		<tag k="natural" v="hill" />
		<tag k="place" v="locality" />
		<tag k="ssr:stedsnr" v="563849" />
	</node>
	<node lat="68.82046666568415" lon="14.820808344468775" id="-22502">
		<tag k="fixme" v="consider natural=peak for the most distinct mountains in the district" />
		<tag k="name" v="Småtindan" />
		<tag k="natural" v="hill" />
		<tag k="place" v="locality" />
		<tag k="ssr:stedsnr" v="563923" />
	</node>
	<node lat="68.84871388546242" lon="14.93126110042205" id="-22503">
		<tag k="name" v="Dalen" />
		<tag k="natural" v="valley" />
		<tag k="place" v="locality" />
		<tag k="ssr:stedsnr" v="563876" />
	</node>
	<node lat="68.83019166927737" lon="14.76468055001184" id="-22504">
		<tag k="fixme" v="multiple name tags, choose one and add the other to alt_name" />
		<tag k="name" v="Eidshaugen;Ershågen" />
		<tag k="natural" v="hill" />
		<tag k="place" v="locality" />
		<tag k="ssr:stedsnr" v="563879" />
	</node>
	<node lat="68.83430833692105" lon="15.011588893123152" id="-22505">
		<tag k="fixme" v="consider natural=peak for the most distinct mountains in the district" />
		<tag k="name" v="Bakkejordstabben" />
		<tag k="natural" v="hill" />
		<tag k="place" v="locality" />
		<tag k="ssr:stedsnr" v="563893" />
	</node>
	<node lat="68.82968333351633" lon="14.810786120915482" id="-22506">
		<tag k="name" v="Kollen" />
		<tag k="natural" v="hill" />
		<tag k="place" v="locality" />
		<tag k="ssr:stedsnr" v="563897" />
	</node>
	<node lat="68.80238610812337" lon="15.061883319964243" id="-22513">
		<tag k="name" v="Finnjordtinden" />
		<tag k="natural" v="hill" />
		<tag k="place" v="locality" />
		<tag k="ssr:stedsnr" v="564348" />
	</node>
	<node lat="68.81103611528366" lon="14.992686111665783" id="-22516">
		<tag k="fixme" v="consider natural=peak for the most distinct mountains in the district" />
		<tag k="name" v="Langstrandtinden" />
		<tag k="natural" v="hill" />
		<tag k="place" v="locality" />
		<tag k="ssr:stedsnr" v="564909" />
	</node>
	<node lat="68.97287777958157" lon="15.15730276947971" id="-22518">
		<tag k="name" v="Kjerlighetshågen" />
		<tag k="natural" v="hill" />
		<tag k="place" v="locality" />
		<tag k="ssr:stedsnr" v="581219" />
	</node>
	<node lat="68.88873333490197" lon="15.244922210387795" id="-22520">
		<tag k="name" v="Ytterkeipen" />
		<tag k="natural" v="slope" />
		<tag k="place" v="locality" />
		<tag k="ssr:stedsnr" v="582135" />
	</node>
	<node lat="68.86433055790164" lon="15.267738897630236" id="-22522">
		<tag k="name" v="Bjørnhågen" />
		<tag k="natural" v="hill" />
		<tag k="place" v="locality" />
		<tag k="ssr:stedsnr" v="582024" />
	</node>
	<node lat="68.9223777771156" lon="15.276016663680908" id="-22523">
		<tag k="name" v="Øyhågen" />
		<tag k="natural" v="hill" />
		<tag k="place" v="locality" />
		<tag k="ssr:stedsnr" v="582036" />
	</node>
	<node lat="68.9186583363207" lon="15.269344450650124" id="-22524">
		<tag k="name" v="Storhågen" />
		<tag k="natural" v="hill" />
		<tag k="place" v="locality" />
		<tag k="ssr:stedsnr" v="582037" />
	</node>
	<node lat="69.0209861132283" lon="15.153444432791725" id="-22529">
		<tag k="name" v="Nipen" />
		<tag k="natural" v="hill" />
		<tag k="place" v="locality" />
		<tag k="ssr:stedsnr" v="582859" />
	</node>
	<node lat="69.02895833473379" lon="15.121077765832897" id="-22533">
		<tag k="name" v="Leite" />
		<tag k="place" v="locality" />
		<tag k="ssr:stedsnr" v="582830" />
	</node>
	<node lat="68.87597778013091" lon="14.926899989310856" id="-22540">
		<tag k="name" v="Vassbakken" />
		<tag k="natural" v="slope" />
		<tag k="place" v="locality" />
		<tag k="ssr:stedsnr" v="585093" />
	</node>
	<node lat="68.84739721983294" lon="15.195994455717283" id="-22543">
		<tag k="name" v="Stamskaret" />
		<tag k="natural" v="valley" />
		<tag k="place" v="locality" />
		<tag k="ssr:stedsnr" v="585478" />
	</node>
	<node lat="68.96580278009655" lon="15.01405554655523" id="-22545">
		<tag k="name" v="Okshammaren" />
		<tag k="natural" v="hill" />
		<tag k="place" v="locality" />
		<tag k="ssr:stedsnr" v="587342" />
	</node>
	<node lat="68.94825000051857" lon="15.289338887099005" id="-22547">
		<tag k="name" v="Finnhågen" />
		<tag k="natural" v="hill" />
		<tag k="place" v="locality" />
		<tag k="ssr:stedsnr" v="588689" />
	</node>
	<node lat="68.91678888561142" lon="15.29953611350304" id="-22548">
		<tag k="name" v="Skagrahågen" />
		<tag k="natural" v="hill" />
		<tag k="place" v="locality" />
		<tag k="ssr:stedsnr" v="588719" />
	</node>
	<node lat="68.88884166710768" lon="15.130161102522335" id="-22549">
		<tag k="fixme" v="consider natural=peak for the most distinct mountains in the district" />
		<tag k="name" v="Storsalen" />
		<tag k="natural" v="hill" />
		<tag k="place" v="locality" />
		<tag k="ssr:stedsnr" v="601442" />
	</node>
	<node lat="69.00629722411783" lon="15.108647215644869" id="-22550">
		<tag k="fixme" v="consider natural=peak for the most distinct mountains in the district" />
		<tag k="name" v="Gjuratinden" />
		<tag k="natural" v="hill" />
		<tag k="place" v="locality" />
		<tag k="ssr:stedsnr" v="601395" />
	</node>
	<node lat="68.83500832938573" lon="15.005758331982188" id="-22551">
		<tag k="name" v="Rødberget" />
		<tag k="natural" v="hill" />
		<tag k="place" v="locality" />
		<tag k="ssr:stedsnr" v="602121" />
	</node>
	<node lat="68.77941389177825" lon="15.007822219085632" id="-22552">
		<tag k="fixme" v="consider natural=peak for the most distinct mountains in the district" />
		<tag k="name" v="Likilen" />
		<tag k="natural" v="hill" />
		<tag k="place" v="locality" />
		<tag k="ssr:stedsnr" v="602146" />
	</node>
	<node lat="68.87869999997433" lon="14.973963900874883" id="-22553">
		<tag k="name" v="Brekka" />
		<tag k="natural" v="slope" />
		<tag k="place" v="locality" />
		<tag k="ssr:stedsnr" v="602364" />
	</node>
	<node lat="68.88350833364547" lon="14.991094444495378" id="-22554">
		<tag k="name" v="Røingen" />
		<tag k="natural" v="slope" />
		<tag k="place" v="locality" />
		<tag k="ssr:stedsnr" v="602365" />
	</node>
	<node lat="68.80928333471778" lon="15.038250002903506" id="-22555">
		<tag k="name" v="Bonhammaren" />
		<tag k="natural" v="hill" />
		<tag k="place" v="locality" />
		<tag k="ssr:stedsnr" v="602371" />
	</node>
	<node lat="68.83548611263475" lon="14.820241661286458" id="-22559">
		<tag k="name" v="Bremvåghågen" />
		<tag k="natural" v="hill" />
		<tag k="place" v="locality" />
		<tag k="ssr:stedsnr" v="604799" />
	</node>
	<node lat="68.81916389073965" lon="14.838230560845467" id="-22561">
		<tag k="name" v="Tekkelskaret" />
		<tag k="natural" v="valley" />
		<tag k="place" v="locality" />
		<tag k="ssr:stedsnr" v="604889" />
	</node>
	<node lat="68.82137777893763" lon="14.826408322237224" id="-22562">
		<tag k="name" v="Bergsengdalen" />
		<tag k="natural" v="valley" />
		<tag k="place" v="locality" />
		<tag k="ssr:stedsnr" v="604892" />
	</node>
	<node lat="68.8091555543907" lon="15.076802787525642" id="-22577">
		<tag k="fixme" v="consider natural=peak for the most distinct mountains in the district" />
		<tag k="name" v="Risetinden" />
		<tag k="natural" v="hill" />
		<tag k="place" v="locality" />
		<tag k="ssr:stedsnr" v="624254" />
	</node>
	<node lat="68.89913610975836" lon="14.955522209290637" id="-22586">
		<tag k="alt_name" v="Steindalstindan" />
		<tag k="fixme" v="consider natural=peak for the most distinct mountains in the district" />
		<tag k="name" v="Steindalstinden" />
		<tag k="natural" v="hill" />
		<tag k="place" v="locality" />
		<tag k="ssr:stedsnr" v="624793" />
	</node>
	<node lat="68.93030277938918" lon="15.078325006064901" id="-22591">
		<tag k="name" v="Skogheia" />
		<tag k="natural" v="slope" />
		<tag k="place" v="locality" />
		<tag k="ssr:stedsnr" v="624631" />
	</node>
	<node lat="68.94640966258034" lon="15.086259963973083" id="-22594">
		<tag k="alt_name" v="Tretindan" />
		<tag k="fixme" v="consider natural=peak for the most distinct mountains in the district" />
		<tag k="name" v="Tretinden" />
		<tag k="natural" v="hill" />
		<tag k="place" v="locality" />
		<tag k="ssr:stedsnr" v="624649" />
	</node>
	<node lat="68.86353333498465" lon="15.155422214423417" id="-22596">
		<tag k="name" v="Bollvågtuva" />
		<tag k="natural" v="hill" />
		<tag k="place" v="locality" />
		<tag k="ssr:stedsnr" v="624740" />
	</node>
	<node lat="68.86522221957578" lon="15.267913883074254" id="-22597">
		<tag k="name" v="Elvedalen" />
		<tag k="natural" v="valley" />
		<tag k="place" v="locality" />
		<tag k="ssr:stedsnr" v="624743" />
	</node>
	<node lat="68.83583611032654" lon="14.9284222297386" id="-22601">
		<tag k="alt_name" v="Tekkelskardet" />
		<tag k="name" v="Tekkelskaret" />
		<tag k="natural" v="valley" />
		<tag k="place" v="locality" />
		<tag k="ssr:stedsnr" v="624831" />
	</node>
	<node lat="68.84746111140683" lon="14.95905277753471" id="-22602">
		<tag k="alt_name" v="Ressula" />
		<tag k="fixme" v="consider natural=peak for the most distinct mountains in the district" />
		<tag k="name" v="Resula" />
		<tag k="natural" v="hill" />
		<tag k="place" v="locality" />
		<tag k="ssr:stedsnr" v="624847" />
	</node>
	<node lat="68.80783055630702" lon="14.974641669059377" id="-22603">
		<tag k="fixme" v="consider natural=peak for the most distinct mountains in the district" />
		<tag k="name" v="Litlheia" />
		<tag k="natural" v="hill" />
		<tag k="place" v="locality" />
		<tag k="ssr:stedsnr" v="624919" />
	</node>
	<node lat="68.79995000022106" lon="14.983719435784511" id="-22605">
		<tag k="fixme" v="consider natural=peak for the most distinct mountains in the district" />
		<tag k="name" v="Steinheia" />
		<tag k="natural" v="hill" />
		<tag k="place" v="locality" />
		<tag k="ssr:stedsnr" v="624946" />
	</node>
	<node lat="68.79474443981877" lon="14.966861117258297" id="-22606">
		<tag k="name" v="Krummadalen" />
		<tag k="natural" v="valley" />
		<tag k="place" v="locality" />
		<tag k="ssr:stedsnr" v="624973" />
	</node>
	<node lat="68.8545944487196" lon="15.166524992436308" id="-22608">
		<tag k="name" v="Litjdalen" />
		<tag k="natural" v="valley" />
		<tag k="place" v="locality" />
		<tag k="ssr:stedsnr" v="642397" />
	</node>
	<node lat="68.85272499847154" lon="15.25625000916955" id="-22611">
		<tag k="name" v="Karran" />
		<tag k="natural" v="mountain_range" />
		<tag k="ssr:stedsnr" v="642459" />
	</node>
	<node lat="68.85980833472318" lon="15.275138892428151" id="-22612">
		<tag k="name" v="Ørnberget" />
		<tag k="natural" v="hill" />
		<tag k="place" v="locality" />
		<tag k="ssr:stedsnr" v="642469" />
	</node>
	<node lat="68.91422777881313" lon="15.21220556181898" id="-22616">
		<tag k="name" v="Torvskjåhågen" />
		<tag k="natural" v="hill" />
		<tag k="place" v="locality" />
		<tag k="ssr:stedsnr" v="642039" />
	</node>
	<node lat="68.89583611149583" lon="15.256027786554288" id="-22618">
		<tag k="name" v="Storsteinen" />
		<tag k="place" v="locality" />
		<tag k="ssr:stedsnr" v="642135" />
	</node>
	<node lat="68.98895555513914" lon="15.031288879592305" id="-22623">
		<tag k="name" v="Brattnakken" />
		<tag k="natural" v="ridge" />
		<tag k="place" v="locality" />
		<tag k="ssr:stedsnr" v="642372" />
	</node>
	<node lat="68.99891076022128" lon="15.178431938985199" id="-22625">
		<tag k="name" v="Fauskhågen" />
		<tag k="natural" v="hill" />
		<tag k="place" v="locality" />
		<tag k="ssr:stedsnr" v="642753" />
	</node>
	<node lat="68.98025278032635" lon="15.143616661381786" id="-22627">
		<tag k="name" v="Moan" />
		<tag k="place" v="locality" />
		<tag k="ssr:stedsnr" v="642819" />
	</node>
	<node lat="68.9108027773229" lon="14.951963885211114" id="-22632">
		<tag k="name" v="Budalsheia" />
		<tag k="natural" v="hill" />
		<tag k="place" v="locality" />
		<tag k="ssr:stedsnr" v="646034" />
	</node>
	<node lat="68.91220278147254" lon="14.961124992663382" id="-22633">
		<tag k="name" v="Øvre-Fagerdalen" />
		<tag k="natural" v="valley" />
		<tag k="place" v="locality" />
		<tag k="ssr:stedsnr" v="646035" />
	</node>
	<node lat="68.89805833170522" lon="14.845119442661247" id="-22634">
		<tag k="name" v="Johella" />
		<tag k="place" v="locality" />
		<tag k="ssr:stedsnr" v="646037" />
	</node>
	<node lat="68.99474721786856" lon="15.046444450427167" id="-22639">
		<tag k="name" v="Øvermelen" />
		<tag k="natural" v="slope" />
		<tag k="place" v="locality" />
		<tag k="ssr:stedsnr" v="648319" />
	</node>
	<node lat="68.82378610877717" lon="14.797986101585341" id="-22641">
		<tag k="name" v="Trollhågen" />
		<tag k="natural" v="hill" />
		<tag k="place" v="locality" />
		<tag k="ssr:stedsnr" v="648671" />
	</node>
	<node lat="68.82228055114061" lon="14.759108337615604" id="-22642">
		<tag k="name" v="Brannskaret" />
		<tag k="natural" v="valley" />
		<tag k="place" v="locality" />
		<tag k="ssr:stedsnr" v="648675" />
	</node>
	<node lat="68.73239444171935" lon="14.848738898869025" id="-22643">
		<tag k="fixme" v="consider natural=peak for the most distinct mountains in the district" />
		<tag k="name" v="Pikstaurbarnene" />
		<tag k="natural" v="hill" />
		<tag k="place" v="locality" />
		<tag k="ssr:stedsnr" v="659261" />
	</node>
	<node lat="68.93873611530589" lon="15.080238881975431" id="-22644">
		<tag k="name" v="Trettendalen" />
		<tag k="natural" v="valley" />
		<tag k="place" v="locality" />
		<tag k="ssr:stedsnr" v="662400" />
	</node>
	<node lat="68.99754444270907" lon="15.068352767991836" id="-22645">
		<tag k="name" v="Langvaddalen" />
		<tag k="natural" v="valley" />
		<tag k="place" v="locality" />
		<tag k="ssr:stedsnr" v="662424" />
	</node>
	<node lat="68.80297222287332" lon="15.097119436656012" id="-22646">
		<tag k="fixme" v="consider natural=peak for the most distinct mountains in the district" />
		<tag k="name" v="Ressetinden" />
		<tag k="natural" v="hill" />
		<tag k="place" v="locality" />
		<tag k="ssr:stedsnr" v="662447" />
	</node>
	<node lat="68.86797777504289" lon="15.090297222230483" id="-22647">
		<tag k="name" v="Torsvikhøgda" />
		<tag k="natural" v="hill" />
		<tag k="place" v="locality" />
		<tag k="ssr:stedsnr" v="662455" />
	</node>
	<node lat="68.9581666671482" lon="15.116719434952342" id="-22648">
		<tag k="name" v="Rødlia" />
		<tag k="natural" v="slope" />
		<tag k="place" v="locality" />
		<tag k="ssr:stedsnr" v="662469" />
	</node>
	<node lat="68.83368055561004" lon="15.010250008833289" id="-22649">
		<tag k="name" v="Skaran" />
		<tag k="natural" v="valley" />
		<tag k="place" v="locality" />
		<tag k="ssr:stedsnr" v="663125" />
	</node>
	<node lat="68.78972778160114" lon="14.889736117000176" id="-22651">
		<tag k="name" v="Buøyskolten" />
		<tag k="natural" v="hill" />
		<tag k="place" v="locality" />
		<tag k="ssr:stedsnr" v="665764" />
	</node>
	<node lat="68.89896666662881" lon="14.895911111972303" id="-22653">
		<tag k="name" v="Bukkedalen" />
		<tag k="natural" v="valley" />
		<tag k="place" v="locality" />
		<tag k="ssr:stedsnr" v="722206" />
	</node>
	<node lat="68.9908166696014" lon="15.120941664998137" id="-22654">
		<tag k="name" v="Skrådalen" />
		<tag k="natural" v="valley" />
		<tag k="place" v="locality" />
		<tag k="ssr:stedsnr" v="723430" />
	</node>
	<node lat="68.98763055981391" lon="15.055977779986337" id="-22655">
		<tag k="name" v="Nyksunddalen" />
		<tag k="natural" v="valley" />
		<tag k="place" v="locality" />
		<tag k="ssr:stedsnr" v="723440" />
	</node>
	<node lat="68.88483611579169" lon="14.99408054694989" id="-22657">
		<tag k="name" v="Melkarsletta" />
		<tag k="place" v="locality" />
		<tag k="ssr:stedsnr" v="724330" />
	</node>
	<node lat="68.78374166417252" lon="14.969247229280112" id="-22658">
		<tag k="name" v="Kleiva" />
		<tag k="natural" v="slope" />
		<tag k="place" v="locality" />
		<tag k="ssr:stedsnr" v="724132" />
	</node>
	<node lat="68.8581888855745" lon="14.975877786144874" id="-22659">
		<tag k="name" v="Meddagsdalen" />
		<tag k="natural" v="valley" />
		<tag k="place" v="locality" />
		<tag k="ssr:stedsnr" v="724353" />
	</node>
	<node lat="68.83904444803538" lon="14.771611106258916" id="-22660">
		<tag k="name" v="Bogen" />
		<tag k="natural" v="slope" />
		<tag k="place" v="locality" />
		<tag k="ssr:stedsnr" v="725633" />
	</node>
	<node lat="68.78816944478274" lon="15.046208328940795" id="-22665">
		<tag k="name" v="Stokkhaugen" />
		<tag k="natural" v="hill" />
		<tag k="place" v="locality" />
		<tag k="ssr:stedsnr" v="745355" />
	</node>
	<node lat="68.89433333537549" lon="15.147875010104416" id="-22672">
		<tag k="alt_name" v="Raudhammaren" />
		<tag k="fixme" v="consider natural=peak for the most distinct mountains in the district" />
		<tag k="name" v="Rødhamran" />
		<tag k="natural" v="hill" />
		<tag k="place" v="locality" />
		<tag k="ssr:stedsnr" v="745746" />
	</node>
	<node lat="68.72465277796151" lon="14.862027788481283" id="-22676">
		<tag k="fixme" v="multiple name tags, choose one and add the other to alt_name; consider natural=peak for the most distinct mountains in the district" />
		<tag k="name" v="Pikstauren;Hårskallen" />
		<tag k="natural" v="hill" />
		<tag k="place" v="locality" />
		<tag k="ssr:stedsnr" v="746262" />
	</node>
	<node lat="68.80391944342186" lon="15.089452784377494" id="-22677">
		<tag k="fixme" v="consider natural=peak for the most distinct mountains in the district" />
		<tag k="name" v="Trolltindan" />
		<tag k="natural" v="hill" />
		<tag k="place" v="locality" />
		<tag k="ssr:stedsnr" v="746348" />
	</node>
	<node lat="68.84369166738533" lon="15.047669434318847" id="-22679">
		<tag k="name" v="Horndalen" />
		<tag k="natural" v="valley" />
		<tag k="place" v="locality" />
		<tag k="ssr:stedsnr" v="746682" />
	</node>
	<node lat="68.9150972258627" lon="14.95050834547627" id="-22681">
		<tag k="name" v="Budalen" />
		<tag k="natural" v="valley" />
		<tag k="place" v="locality" />
		<tag k="ssr:stedsnr" v="746699" />
	</node>
	<node lat="68.85096666702444" lon="14.762647232576185" id="-22683">
		<tag k="name" v="Skarvberget" />
		<tag k="natural" v="hill" />
		<tag k="place" v="locality" />
		<tag k="ssr:stedsnr" v="746794" />
	</node>
	<node lat="68.85250277495548" lon="14.967736104483063" id="-22684">
		<tag k="fixme" v="consider natural=peak for the most distinct mountains in the district" />
		<tag k="name" v="Stabben" />
		<tag k="natural" v="hill" />
		<tag k="place" v="locality" />
		<tag k="ssr:stedsnr" v="746798" />
	</node>
	<node lat="68.85423418850093" lon="14.98586532326014" id="-22686">
		<tag k="fixme" v="consider natural=peak for the most distinct mountains in the district" />
		<tag k="name" v="Stigbergan" />
		<tag k="natural" v="hill" />
		<tag k="place" v="locality" />
		<tag k="ssr:stedsnr" v="746801" />
	</node>
	<node lat="68.81397499560586" lon="14.832886117716717" id="-22687">
		<tag k="alt_name" v="Bjørnskardet" />
		<tag k="name" v="Bjørnskaret" />
		<tag k="natural" v="valley" />
		<tag k="place" v="locality" />
		<tag k="ssr:stedsnr" v="746891" />
	</node>
	<node lat="68.90875555422193" lon="14.889366666736413" id="-22691">
		<tag k="fixme" v="consider natural=peak for the most distinct mountains in the district" />
		<tag k="name" v="Meraftestinden" />
		<tag k="natural" v="hill" />
		<tag k="place" v="locality" />
		<tag k="ssr:stedsnr" v="746727" />
	</node>
	<node lat="68.89023611104095" lon="14.855274992102299" id="-22692">
		<tag k="fixme" v="consider natural=peak for the most distinct mountains in the district" />
		<tag k="name" v="Larshammaren" />
		<tag k="natural" v="hill" />
		<tag k="place" v="locality" />
		<tag k="ssr:stedsnr" v="746735" />
	</node>
	<node lat="68.83032777991885" lon="14.801872216235884" id="-22695">
		<tag k="name" v="Egga" />
		<tag k="natural" v="hill" />
		<tag k="place" v="locality" />
		<tag k="ssr:stedsnr" v="746844" />
	</node>
	<node lat="68.75074721922404" lon="14.863177782373546" id="-22696">
		<tag k="fixme" v="multiple name tags, choose one and add the other to alt_name; consider natural=peak for the most distinct mountains in the district" />
		<tag k="name" v="Blåtinden;Blåfjellet" />
		<tag k="natural" v="hill" />
		<tag k="place" v="locality" />
		<tag k="ssr:stedsnr" v="746846" />
	</node>
	<node lat="68.80867777470355" lon="14.950002772336854" id="-22698">
		<tag k="name" v="Ramnfloget" />
		<tag k="natural" v="cliff" />
		<tag k="ssr:stedsnr" v="746907" />
	</node>
	<node lat="68.91208055839226" lon="15.229491677780228" id="-22701">
		<tag k="name" v="Langraet" />
		<tag k="place" v="locality" />
		<tag k="ssr:stedsnr" v="764077" />
	</node>
	<node lat="68.92259722467594" lon="15.268372229661587" id="-22703">
		<tag k="name" v="Nausthågen" />
		<tag k="natural" v="hill" />
		<tag k="place" v="locality" />
		<tag k="ssr:stedsnr" v="764039" />
	</node>
	<node lat="68.89070000044761" lon="15.139377788725607" id="-22705">
		<tag k="name" v="Budalen" />
		<tag k="natural" v="valley" />
		<tag k="place" v="locality" />
		<tag k="ssr:stedsnr" v="764100" />
	</node>
	<node lat="68.89218332877263" lon="15.280419447947725" id="-22706">
		<tag k="name" v="Fagerfjellet" />
		<tag k="natural" v="hill" />
		<tag k="place" v="locality" />
		<tag k="ssr:stedsnr" v="764123" />
	</node>
	<node lat="68.89427222280911" lon="15.253694439523606" id="-22707">
		<tag k="name" v="Kystdalsrabban" />
		<tag k="place" v="locality" />
		<tag k="ssr:stedsnr" v="764124" />
	</node>
	<node lat="68.90726388604" lon="15.266341667464317" id="-22708">
		<tag k="name" v="Saltoshågen" />
		<tag k="natural" v="hill" />
		<tag k="place" v="locality" />
		<tag k="ssr:stedsnr" v="764127" />
	</node>
	<node lat="68.95867777798506" lon="15.169305557271526" id="-22711">
		<tag k="name" v="Navhågen" />
		<tag k="natural" v="hill" />
		<tag k="place" v="locality" />
		<tag k="ssr:stedsnr" v="764184" />
	</node>
	<node lat="68.97891111391738" lon="15.034047232689263" id="-22713">
		<tag k="fixme" v="consider natural=peak for the most distinct mountains in the district" />
		<tag k="name" v="Stortinden" />
		<tag k="natural" v="hill" />
		<tag k="place" v="locality" />
		<tag k="ssr:stedsnr" v="764388" />
	</node>
	<node lat="69.00100555696248" lon="15.14387778542334" id="-22717">
		<tag k="name" v="Bjørndalen" />
		<tag k="natural" v="valley" />
		<tag k="place" v="locality" />
		<tag k="ssr:stedsnr" v="764830" />
	</node>
	<node lat="68.88889722213257" lon="14.863569437326378" id="-22721">
		<tag k="name" v="Kvannhola" />
		<tag k="natural" v="valley" />
		<tag k="place" v="locality" />
		<tag k="ssr:stedsnr" v="767032" />
	</node>
	<node lat="68.89027499784638" lon="14.847936108142013" id="-22722">
		<tag k="alt_name" v="Sundtinden" />
		<tag k="fixme" v="consider natural=peak for the most distinct mountains in the district" />
		<tag k="name" v="Kyllsundtinden" />
		<tag k="natural" v="hill" />
		<tag k="place" v="locality" />
		<tag k="ssr:stedsnr" v="767034" />
	</node>
	<node lat="68.89056388553686" lon="14.841091670785039" id="-22723">
		<tag k="name" v="Seljehola" />
		<tag k="natural" v="valley" />
		<tag k="place" v="locality" />
		<tag k="ssr:stedsnr" v="767035" />
	</node>
	<node lat="68.8495472190602" lon="14.904388892652834" id="-22724">
		<tag k="name" v="Gluntan" />
		<tag k="natural" v="slope" />
		<tag k="place" v="locality" />
		<tag k="ssr:stedsnr" v="767058" />
	</node>
	<node lat="68.94591111404755" lon="15.281500005070768" id="-22727">
		<tag k="name" v="Nord-Buhågen" />
		<tag k="natural" v="hill" />
		<tag k="place" v="locality" />
		<tag k="ssr:stedsnr" v="768534" />
	</node>
	<node lat="68.93442222192084" lon="15.276219451869627" id="-22729">
		<tag k="name" v="Ressmålshågen" />
		<tag k="natural" v="hill" />
		<tag k="place" v="locality" />
		<tag k="ssr:stedsnr" v="768538" />
	</node>
	<node lat="68.78325000069175" lon="15.17698333887797" id="-22732">
		<tag k="fixme" v="consider natural=peak for the most distinct mountains in the district" />
		<tag k="name" v="Storvassåsen" />
		<tag k="natural" v="hill" />
		<tag k="place" v="locality" />
		<tag k="ssr:stedsnr" v="768574" />
	</node>
	<node lat="68.81603889063773" lon="15.157211103309201" id="-22733">
		<tag k="name" v="Reinhågen" />
		<tag k="natural" v="hill" />
		<tag k="place" v="locality" />
		<tag k="ssr:stedsnr" v="768577" />
	</node>
	<node lat="68.82556388600281" lon="15.247277784665531" id="-22734">
		<tag k="name" v="Henrik-Sjursahågen" />
		<tag k="natural" v="hill" />
		<tag k="place" v="locality" />
		<tag k="ssr:stedsnr" v="768581" />
	</node>
	<node lat="68.99650833172623" lon="15.030024989809096" id="-22737">
		<tag k="name" v="Gangskaret" />
		<tag k="natural" v="valley" />
		<tag k="place" v="locality" />
		<tag k="ssr:stedsnr" v="769284" />
	</node>
	<node lat="68.90552222105818" lon="14.961011113971031" id="-22742">
		<tag k="name" v="Trolldalen" />
		<tag k="natural" v="valley" />
		<tag k="place" v="locality" />
		<tag k="ssr:stedsnr" v="783173" />
	</node>
	<node lat="68.96702493779271" lon="15.074354955785724" id="-22744">
		<tag k="fixme" v="consider natural=peak for the most distinct mountains in the district" />
		<tag k="name" v="Litj-Klotinden" />
		<tag k="natural" v="hill" />
		<tag k="place" v="locality" />
		<tag k="ssr:stedsnr" v="783446" />
	</node>
	<node lat="68.81865278133056" lon="14.819311117090237" id="-22748">
		<tag k="name" v="Geitberget" />
		<tag k="natural" v="hill" />
		<tag k="place" v="locality" />
		<tag k="ssr:stedsnr" v="787865" />
	</node>
	<node lat="68.90156111407445" lon="15.18861667438589" id="-22755">
		<tag k="alt_name" v="Sørvågmælen" />
		<tag k="fixme" v="consider natural=peak for the most distinct mountains in the district" />
		<tag k="name" v="Sørvågmelen" />
		<tag k="natural" v="hill" />
		<tag k="place" v="locality" />
		<tag k="ssr:stedsnr" v="806678" />
	</node>
	<node lat="68.87717777789774" lon="15.26012221943939" id="-22757">
		<tag k="alt_name" v="Raudsanddalen" />
		<tag k="name" v="Rødsanddalen" />
		<tag k="natural" v="valley" />
		<tag k="place" v="locality" />
		<tag k="ssr:stedsnr" v="806764" />
	</node>
	<node lat="68.73702777987947" lon="14.869880555352493" id="-22759">
		<tag k="alt_name" v="Skannsdalen" />
		<tag k="name" v="Skansdalen" />
		<tag k="natural" v="valley" />
		<tag k="place" v="locality" />
		<tag k="ssr:stedsnr" v="806358" />
	</node>
	<node lat="69.01614444604371" lon="15.104966666743426" id="-22762">
		<tag k="fixme" v="multiple name tags, choose one and add the other to alt_name" />
		<tag k="name" v="Valaksla;Kvalaksla" />
		<tag k="natural" v="hill" />
		<tag k="place" v="locality" />
		<tag k="ssr:stedsnr" v="806337" />
	</node>
	<node lat="68.770169442274" lon="15.013077784763427" id="-22765">
		<tag k="fixme" v="consider natural=peak for the most distinct mountains in the district" />
		<tag k="name" v="Bonhammaren" />
		<tag k="natural" v="hill" />
		<tag k="place" v="locality" />
		<tag k="ssr:stedsnr" v="806502" />
	</node>
	<node lat="68.98612499745684" lon="15.128988882853811" id="-22767">
		<tag k="fixme" v="consider natural=peak for the most distinct mountains in the district" />
		<tag k="name" v="Nordkulen" />
		<tag k="natural" v="hill" />
		<tag k="place" v="locality" />
		<tag k="ssr:stedsnr" v="806553" />
	</node>
	<node lat="68.98666389323995" lon="15.143822216620196" id="-22769">
		<tag k="fixme" v="consider natural=peak for the most distinct mountains in the district" />
		<tag k="name" v="Husfjellet" />
		<tag k="natural" v="hill" />
		<tag k="place" v="locality" />
		<tag k="ssr:stedsnr" v="806566" />
	</node>
	<node lat="68.88748888899948" lon="14.97263610623613" id="-22777">
		<tag k="fixme" v="consider natural=peak for the most distinct mountains in the district" />
		<tag k="name" v="Øksnesheia" />
		<tag k="natural" v="hill" />
		<tag k="place" v="locality" />
		<tag k="ssr:stedsnr" v="806802" />
	</node>
	<node lat="68.87808888983584" lon="14.937038879957205" id="-22784">
		<tag k="fixme" v="multiple name tags, choose one and add the other to alt_name; consider natural=peak for the most distinct mountains in the district" />
		<tag k="name" v="Storvarden;Varden" />
		<tag k="natural" v="hill" />
		<tag k="place" v="locality" />
		<tag k="ssr:stedsnr" v="806829" />
	</node>
	<node lat="68.78751944213731" lon="14.992544443060893" id="-22786">
		<tag k="alt_name" v="Festetindan" />
		<tag k="fixme" v="consider natural=peak for the most distinct mountains in the district" />
		<tag k="name" v="Fisketinden" />
		<tag k="natural" v="hill" />
		<tag k="place" v="locality" />
		<tag k="ssr:stedsnr" v="806996" />
	</node>
	<node lat="68.8495972198423" lon="15.207858326348589" id="-22790">
		<tag k="fixme" v="consider natural=peak for the most distinct mountains in the district" />
		<tag k="name" v="Slettheia" />
		<tag k="natural" v="hill" />
		<tag k="place" v="locality" />
		<tag k="ssr:stedsnr" v="807280" />
	</node>
	<node lat="68.9336944430259" lon="15.082991660788045" id="-22792">
		<tag k="name" v="Rødsand" />
		<tag k="natural" v="hill" />
		<tag k="place" v="locality" />
		<tag k="ssr:stedsnr" v="807610" />
	</node>
	<node lat="68.76499444542142" lon="14.789166658779516" id="-22795">
		<tag k="name" v="Skallskaret" />
		<tag k="natural" v="valley" />
		<tag k="place" v="locality" />
		<tag k="ssr:stedsnr" v="807552" />
	</node>
	<node lat="68.94408332892404" lon="15.238455565642393" id="-22796">
		<tag k="alt_name" v="Ramhaugen" />
		<tag k="name" v="Ramnhågen" />
		<tag k="natural" v="hill" />
		<tag k="place" v="locality" />
		<tag k="ssr:stedsnr" v="807642" />
	</node>
	<node lat="68.85478610781287" lon="15.17583610019152" id="-22801">
		<tag k="name" v="Risehaugen" />
		<tag k="natural" v="hill" />
		<tag k="place" v="locality" />
		<tag k="ssr:stedsnr" v="807690" />
	</node>
	<node lat="68.83625555593319" lon="14.988261112810317" id="-22805">
		<tag k="name" v="Lembakkan" />
		<tag k="natural" v="slope" />
		<tag k="place" v="locality" />
		<tag k="ssr:stedsnr" v="807861" />
	</node>
	<node lat="68.82301944535982" lon="14.807791660270382" id="-22806">
		<tag k="alt_name" v="Breidfjellet" />
		<tag k="fixme" v="consider natural=peak for the most distinct mountains in the district" />
		<tag k="name" v="Breifjellet" />
		<tag k="natural" v="hill" />
		<tag k="place" v="locality" />
		<tag k="ssr:stedsnr" v="807865" />
	</node>
	<node lat="68.82968333351633" lon="14.810786120915482" id="-22807">
		<tag k="fixme" v="multiple name tags, choose one and add the other to alt_name; consider natural=peak for the most distinct mountains in the district" />
		<tag k="name" v="Enka;Enketinden" />
		<tag k="natural" v="hill" />
		<tag k="place" v="locality" />
		<tag k="ssr:stedsnr" v="807866" />
	</node>
	<node lat="68.82648055167842" lon="15.000397221154603" id="-22808">
		<tag k="fixme" v="consider natural=peak for the most distinct mountains in the district" />
		<tag k="name" v="Sylen" />
		<tag k="natural" v="hill" />
		<tag k="place" v="locality" />
		<tag k="ssr:stedsnr" v="807872" />
	</node>
	<node lat="68.85618611548175" lon="14.952080547233406" id="-22813">
		<tag k="name" v="Rotdalen" />
		<tag k="natural" v="valley" />
		<tag k="place" v="locality" />
		<tag k="ssr:stedsnr" v="807825" />
	</node>
	<node lat="68.80508333166013" lon="14.818141654652766" id="-22816">
		<tag k="name" v="Halsan" />
		<tag k="natural" v="valley" />
		<tag k="place" v="locality" />
		<tag k="ssr:stedsnr" v="807938" />
	</node>
	<node lat="68.96187778187422" lon="15.180463879463437" id="-22819">
		<tag k="name" v="Niphågen" />
		<tag k="natural" v="hill" />
		<tag k="place" v="locality" />
		<tag k="ssr:stedsnr" v="825133" />
	</node>
	<node lat="68.97247777935263" lon="15.154852777669447" id="-22820">
		<tag k="name" v="Heshågen" />
		<tag k="natural" v="hill" />
		<tag k="place" v="locality" />
		<tag k="ssr:stedsnr" v="825135" />
	</node>
	<node lat="68.97015277646707" lon="15.157583332450574" id="-22821">
		<tag k="name" v="Anleggshågen" />
		<tag k="natural" v="hill" />
		<tag k="place" v="locality" />
		<tag k="ssr:stedsnr" v="825137" />
	</node>
	<node lat="68.91938610775381" lon="15.279866664505175" id="-22824">
		<tag k="name" v="Durmålstuva" />
		<tag k="natural" v="hill" />
		<tag k="place" v="locality" />
		<tag k="ssr:stedsnr" v="825022" />
	</node>
	<node lat="68.92150277923932" lon="15.263049998023478" id="-22826">
		<tag k="name" v="Silsandhågen" />
		<tag k="natural" v="hill" />
		<tag k="place" v="locality" />
		<tag k="ssr:stedsnr" v="825030" />
	</node>
	<node lat="68.96561667106147" lon="15.181591669841893" id="-22828">
		<tag k="name" v="Ørntua" />
		<tag k="natural" v="hill" />
		<tag k="place" v="locality" />
		<tag k="ssr:stedsnr" v="825170" />
	</node>
	<node lat="68.96345833457637" lon="15.177905547594518" id="-22829">
		<tag k="name" v="Ramnkleiva" />
		<tag k="natural" v="hill" />
		<tag k="place" v="locality" />
		<tag k="ssr:stedsnr" v="825173" />
	</node>
	<node lat="68.86180833043913" lon="15.273972209478654" id="-22831">
		<tag k="name" v="Lassan" />
		<tag k="natural" v="hill" />
		<tag k="place" v="locality" />
		<tag k="ssr:stedsnr" v="825432" />
	</node>
	<node lat="68.87332221960376" lon="15.227474991633523" id="-22834">
		<tag k="name" v="Elvedalskaret" />
		<tag k="natural" v="valley" />
		<tag k="place" v="locality" />
		<tag k="ssr:stedsnr" v="825739" />
	</node>
	<node lat="69.0185361156462" lon="15.145744439801888" id="-22839">
		<tag k="name" v="Varghågen" />
		<tag k="natural" v="hill" />
		<tag k="place" v="locality" />
		<tag k="ssr:stedsnr" v="825844" />
	</node>
	<node lat="68.85907778143257" lon="14.942386113220362" id="-22845">
		<tag k="name" v="Nonshågen" />
		<tag k="natural" v="hill" />
		<tag k="place" v="locality" />
		<tag k="ssr:stedsnr" v="828061" />
	</node>
	<node lat="68.84660277928813" lon="14.900130557433775" id="-22848">
		<tag k="name" v="Rundhola" />
		<tag k="natural" v="valley" />
		<tag k="place" v="locality" />
		<tag k="ssr:stedsnr" v="829076" />
	</node>
	<node lat="68.85238889301192" lon="14.946402775426982" id="-22849">
		<tag k="fixme" v="consider natural=peak for the most distinct mountains in the district" />
		<tag k="name" v="Meddagsfjellet" />
		<tag k="natural" v="hill" />
		<tag k="place" v="locality" />
		<tag k="ssr:stedsnr" v="829077" />
	</node>
	<node lat="68.90276111051737" lon="15.279133325269823" id="-22853">
		<tag k="name" v="Kyllbergan" />
		<tag k="natural" v="hill" />
		<tag k="place" v="locality" />
		<tag k="ssr:stedsnr" v="829510" />
	</node>
	<node lat="68.91660000039342" lon="14.97307223366393" id="-22854">
		<tag k="name" v="Skogstien" />
		<tag k="natural" v="slope" />
		<tag k="place" v="locality" />
		<tag k="ssr:stedsnr" v="830294" />
	</node>
	<node lat="68.89381388727344" lon="14.977580547147731" id="-22855">
		<tag k="fixme" v="consider natural=peak for the most distinct mountains in the district" />
		<tag k="name" v="Tjønndalshammaren" />
		<tag k="natural" v="hill" />
		<tag k="place" v="locality" />
		<tag k="ssr:stedsnr" v="830296" />
	</node>
	<node lat="68.87950833796313" lon="15.20856388407058" id="-22859">
		<tag k="name" v="Svarthammaren" />
		<tag k="natural" v="hill" />
		<tag k="place" v="locality" />
		<tag k="ssr:stedsnr" v="830641" />
	</node>
	<node lat="68.95128889002942" lon="15.086944449502763" id="-22866">
		<tag k="name" v="Eldtinddalen" />
		<tag k="natural" v="valley" />
		<tag k="place" v="locality" />
		<tag k="ssr:stedsnr" v="844448" />
	</node>
	<node lat="68.95188333267878" lon="15.056883320808682" id="-22867">
		<tag k="name" v="Svinlia" />
		<tag k="natural" v="slope" />
		<tag k="place" v="locality" />
		<tag k="ssr:stedsnr" v="844449" />
	</node>
	<node lat="68.7987138889836" lon="14.995936119790924" id="-22868">
		<tag k="name" v="Tverrfjelldalen" />
		<tag k="natural" v="valley" />
		<tag k="place" v="locality" />
		<tag k="ssr:stedsnr" v="846146" />
	</node>
	<node lat="68.79189166644183" lon="14.955116661685343" id="-22874">
		<tag k="name" v="Rødberget" />
		<tag k="natural" v="hill" />
		<tag k="place" v="locality" />
		<tag k="ssr:stedsnr" v="848735" />
	</node>
	<node lat="68.78680833736273" lon="15.151283341781594" id="-22885">
		<tag k="fixme" v="consider natural=peak for the most distinct mountains in the district" />
		<tag k="name" v="Totinden" />
		<tag k="natural" v="hill" />
		<tag k="place" v="locality" />
		<tag k="ssr:stedsnr" v="867349" />
	</node>
	<node lat="68.78242222235356" lon="14.872638900072788" id="-22890">
		<tag k="fixme" v="consider natural=peak for the most distinct mountains in the district" />
		<tag k="name" v="Middagsheia" />
		<tag k="natural" v="hill" />
		<tag k="place" v="locality" />
		<tag k="ssr:stedsnr" v="867985" />
	</node>
	<node lat="68.72480555099236" lon="14.928605563040323" id="-22894">
		<tag k="fixme" v="consider natural=peak for the most distinct mountains in the district" />
		<tag k="name" v="Bukkespelen" />
		<tag k="natural" v="hill" />
		<tag k="place" v="locality" />
		<tag k="ssr:stedsnr" v="867299" />
	</node>
	<node lat="68.77809167042776" lon="14.843491674612189" id="-22901">
		<tag k="name" v="Sjurdtindsskardet" />
		<tag k="natural" v="valley" />
		<tag k="place" v="locality" />
		<tag k="ssr:stedsnr" v="867541" />
	</node>
	<node lat="68.94419444858029" lon="15.03985555709089" id="-22907">
		<tag k="fixme" v="consider natural=peak for the most distinct mountains in the district" />
		<tag k="name" v="Kråknestinden" />
		<tag k="natural" v="hill" />
		<tag k="place" v="locality" />
		<tag k="ssr:stedsnr" v="867656" />
	</node>
	<node lat="68.88593055246311" lon="15.273349994604422" id="-22910">
		<tag k="name" v="Fagerfjellet" />
		<tag k="natural" v="hill" />
		<tag k="place" v="locality" />
		<tag k="ssr:stedsnr" v="867703" />
	</node>
	<node lat="68.87390555203274" lon="15.240363891673578" id="-22913">
		<tag k="fixme" v="multiple name tags, choose one and add the other to alt_name; consider natural=peak for the most distinct mountains in the district" />
		<tag k="name" v="Lielvtinden;Elvetinden" />
		<tag k="natural" v="hill" />
		<tag k="place" v="locality" />
		<tag k="ssr:stedsnr" v="867713" />
	</node>
	<node lat="68.846836111962" lon="14.765197217674205" id="-22917">
		<tag k="alt_name" v="Tindstind" />
		<tag k="fixme" v="consider natural=peak for the most distinct mountains in the district" />
		<tag k="name" v="Tindstinden" />
		<tag k="natural" v="hill" />
		<tag k="place" v="locality" />
		<tag k="ssr:stedsnr" v="867848" />
	</node>
	<node lat="68.8418444463012" lon="14.952013882629267" id="-22918">
		<tag k="alt_name" v="Dalskardet" />
		<tag k="name" v="Dalskaret" />
		<tag k="natural" v="valley" />
		<tag k="place" v="locality" />
		<tag k="ssr:stedsnr" v="867860" />
	</node>
	<node lat="68.89901110723763" lon="14.868733342821246" id="-22921">
		<tag k="alt_name" v="Stikollen" />
		<tag k="fixme" v="consider natural=peak for the most distinct mountains in the district" />
		<tag k="name" v="Stigkollen" />
		<tag k="natural" v="hill" />
		<tag k="place" v="locality" />
		<tag k="ssr:stedsnr" v="867790" />
	</node>
	<node lat="68.8981777815161" lon="14.930736104333011" id="-22922">
		<tag k="fixme" v="multiple name tags, choose one and add the other to alt_name; consider natural=peak for the most distinct mountains in the district" />
		<tag k="name" v="Mannstadtind;Tekkelskartinden" />
		<tag k="natural" v="hill" />
		<tag k="place" v="locality" />
		<tag k="ssr:stedsnr" v="867791" />
	</node>
	<node lat="68.90250000394119" lon="14.963630564449229" id="-22923">
		<tag k="fixme" v="consider natural=peak for the most distinct mountains in the district" />
		<tag k="name" v="Tretindan" />
		<tag k="natural" v="hill" />
		<tag k="place" v="locality" />
		<tag k="ssr:stedsnr" v="867792" />
	</node>
	<node lat="68.99237500159937" lon="15.02321943699983" id="-22934">
		<tag k="name" v="Skåltofta" />
		<tag k="place" v="locality" />
		<tag k="ssr:stedsnr" v="886384" />
	</node>
	<node lat="68.86483889257171" lon="15.280891673025023" id="-22935">
		<tag k="name" v="Brenthågen" />
		<tag k="natural" v="hill" />
		<tag k="place" v="locality" />
		<tag k="ssr:stedsnr" v="886032" />
	</node>
	<node lat="68.95061388978556" lon="15.170441666637746" id="-22938">
		<tag k="name" v="Oshågen" />
		<tag k="natural" v="hill" />
		<tag k="place" v="locality" />
		<tag k="ssr:stedsnr" v="886224" />
	</node>
	<node lat="68.86911110979018" lon="15.267250010626732" id="-22943">
		<tag k="name" v="Hammeren" />
		<tag k="natural" v="hill" />
		<tag k="place" v="locality" />
		<tag k="ssr:stedsnr" v="886790" />
	</node>
	<node lat="68.89313333376248" lon="14.845577768577334" id="-22952">
		<tag k="name" v="Stien" />
		<tag k="natural" v="slope" />
		<tag k="place" v="locality" />
		<tag k="ssr:stedsnr" v="889043" />
	</node>
	<node lat="68.86199722651513" lon="14.960194446757283" id="-22956">
		<tag k="fixme" v="consider natural=peak for the most distinct mountains in the district" />
		<tag k="name" v="Kallhammaren" />
		<tag k="natural" v="hill" />
		<tag k="place" v="locality" />
		<tag k="ssr:stedsnr" v="889092" />
	</node>
	<node lat="68.90214999693356" lon="15.273775003402736" id="-22957">
		<tag k="name" v="Arhågsletta" />
		<tag k="place" v="locality" />
		<tag k="ssr:stedsnr" v="889499" />
	</node>
	<node lat="68.89935277546455" lon="15.27933889546439" id="-22958">
		<tag k="name" v="Osen" />
		<tag k="place" v="locality" />
		<tag k="ssr:stedsnr" v="889500" />
	</node>
	<node lat="68.91691389219017" lon="15.243291677565539" id="-22961">
		<tag k="name" v="Klubben" />
		<tag k="natural" v="hill" />
		<tag k="place" v="locality" />
		<tag k="ssr:stedsnr" v="946073" />
	</node>
	<node lat="68.86235555786605" lon="15.197791676107203" id="-22964">
		<tag k="fixme" v="consider natural=peak for the most distinct mountains in the district" />
		<tag k="name" v="Botnfjellet" />
		<tag k="natural" v="hill" />
		<tag k="place" v="locality" />
		<tag k="ssr:stedsnr" v="946383" />
	</node>
	<node lat="68.87061944733831" lon="15.22185556310099" id="-22967">
		<tag k="name" v="Kråa" />
		<tag k="natural" v="valley" />
		<tag k="place" v="locality" />
		<tag k="ssr:stedsnr" v="946749" />
	</node>
	<node lat="68.89670277846947" lon="15.291649999241763" id="-22969">
		<tag k="name" v="Hundsneshøgda" />
		<tag k="natural" v="hill" />
		<tag k="place" v="locality" />
		<tag k="ssr:stedsnr" v="946763" />
	</node>
	<node lat="69.01691111538443" lon="15.127366666697334" id="-22970">
		<tag k="name" v="Brenna" />
		<tag k="natural" v="ridge" />
		<tag k="place" v="locality" />
		<tag k="ssr:stedsnr" v="946845" />
	</node>
	<node lat="69.00959444699248" lon="15.147186112067434" id="-22971">
		<tag k="name" v="Akslaskaret" />
		<tag k="natural" v="valley" />
		<tag k="place" v="locality" />
		<tag k="ssr:stedsnr" v="946869" />
	</node>
	<node lat="69.00605833662183" lon="15.138183345398446" id="-22972">
		<tag k="name" v="Gunnarlia" />
		<tag k="natural" v="slope" />
		<tag k="place" v="locality" />
		<tag k="ssr:stedsnr" v="946870" />
	</node>
	<node lat="69.01313611325591" lon="15.167250011081407" id="-22974">
		<tag k="name" v="Tussen" />
		<tag k="natural" v="hill" />
		<tag k="place" v="locality" />
		<tag k="ssr:stedsnr" v="947091" />
	</node>
	<node lat="68.87169443965837" lon="15.267605565405612" id="-22975">
		<tag k="name" v="Kvannhola" />
		<tag k="natural" v="valley" />
		<tag k="place" v="locality" />
		<tag k="ssr:stedsnr" v="947784" />
	</node>
	<node lat="68.92011110873455" lon="14.947830543324592" id="-22982">
		<tag k="name" v="Slåttlia" />
		<tag k="natural" v="slope" />
		<tag k="place" v="locality" />
		<tag k="ssr:stedsnr" v="950045" />
	</node>
	<node lat="68.88729166369461" lon="14.86016944365674" id="-22984">
		<tag k="name" v="Rødlia" />
		<tag k="natural" v="slope" />
		<tag k="place" v="locality" />
		<tag k="ssr:stedsnr" v="950132" />
	</node>
	<node lat="68.87794722505764" lon="14.917669446659538" id="-22985">
		<tag k="name" v="Langryggen" />
		<tag k="natural" v="ridge" />
		<tag k="place" v="locality" />
		<tag k="ssr:stedsnr" v="950090" />
	</node>
	<node lat="68.8763305558909" lon="14.935602784707747" id="-22987">
		<tag k="name" v="Skansen" />
		<tag k="natural" v="slope" />
		<tag k="place" v="locality" />
		<tag k="ssr:stedsnr" v="950094" />
	</node>
	<node lat="68.99988611070947" lon="15.041955550113478" id="-22989">
		<tag k="name" v="Nermelen" />
		<tag k="natural" v="slope" />
		<tag k="place" v="locality" />
		<tag k="ssr:stedsnr" v="951272" />
	</node>
	<node lat="68.8698083311093" lon="15.131044435710834" id="-22991">
		<tag k="name" v="Heia" />
		<tag k="natural" v="hill" />
		<tag k="place" v="locality" />
		<tag k="ssr:stedsnr" v="965452" />
	</node>
	<node lat="68.77911944623098" lon="14.869638898646372" id="-22993">
		<tag k="name" v="Trolldalen" />
		<tag k="natural" v="valley" />
		<tag k="place" v="locality" />
		<tag k="ssr:stedsnr" v="966632" />
	</node>
	<node lat="68.7853111077399" lon="15.036350008188235" id="-22996">
		<tag k="name" v="Reinhågen" />
		<tag k="natural" v="hill" />
		<tag k="place" v="locality" />
		<tag k="ssr:stedsnr" v="967133" />
	</node>
	<node lat="68.83443611497063" lon="14.802355547953416" id="-22998">
		<tag k="name" v="Hellen" />
		<tag k="place" v="locality" />
		<tag k="ssr:stedsnr" v="967620" />
	</node>
	<node lat="68.82863889320116" lon="14.757499998426068" id="-22999">
		<tag k="name" v="Flagdhågen" />
		<tag k="natural" v="hill" />
		<tag k="place" v="locality" />
		<tag k="ssr:stedsnr" v="967623" />
	</node>
	<node lat="68.82393055699329" lon="14.842708326823393" id="-23003">
		<tag k="name" v="Middagshågen" />
		<tag k="natural" v="hill" />
		<tag k="place" v="locality" />
		<tag k="ssr:stedsnr" v="969772" />
	</node>
	<node lat="68.8289222237941" lon="14.954322228093385" id="-23004">
		<tag k="alt_name" v="Godvikskardet" />
		<tag k="name" v="Godvikskaret" />
		<tag k="natural" v="valley" />
		<tag k="place" v="locality" />
		<tag k="ssr:stedsnr" v="969863" />
	</node>
	<node lat="68.8111805576365" lon="14.946377775415977" id="-23009">
		<tag k="name" v="Mikkjelhågen" />
		<tag k="natural" v="hill" />
		<tag k="place" v="locality" />
		<tag k="ssr:stedsnr" v="969879" />
	</node>
	<node lat="68.87055144687812" lon="15.160405962052774" id="-23120">
		<tag k="name" v="Larsokkdalen" />
		<tag k="natural" v="valley" />
		<tag k="place" v="locality" />
		<tag k="ssr:stedsnr" v="1072047" />
	</node>
	<node lat="68.93566764601982" lon="15.107940760689196" id="-23121">
		<tag k="name" v="Vedhøggan" />
		<tag k="natural" v="slope" />
		<tag k="place" v="locality" />
		<tag k="ssr:stedsnr" v="1073105" />
	</node>
	<node lat="68.96820822336689" lon="15.064759939496957" id="-23122">
		<tag k="fixme" v="consider natural=peak for the most distinct mountains in the district" />
		<tag k="name" v="Jennskartinden" />
		<tag k="natural" v="hill" />
		<tag k="place" v="locality" />
		<tag k="ssr:stedsnr" v="1073408" />
	</node>
	<node lat="68.81813860721864" lon="14.802161055689341" id="-23123">
		<tag k="name" v="Fjøshaugen" />
		<tag k="natural" v="hill" />
		<tag k="place" v="locality" />
		<tag k="ssr:stedsnr" v="1075974" />
	</node>
	<node lat="68.77396830990034" lon="14.986238113916775" id="-23138">
		<tag k="name" v="Storhaugen" />
		<tag k="natural" v="hill" />
		<tag k="place" v="locality" />
		<tag k="ssr:stedsnr" v="1078182" />
	</node>
	<node lat="68.96091707183614" lon="15.17932555039743" id="-23152">
		<tag k="name" v="Smibakken" />
		<tag k="natural" v="slope" />
		<tag k="place" v="locality" />
		<tag k="ssr:stedsnr" v="1080980" />
	</node>
	<node lat="68.95645476831314" lon="15.171765844668162" id="-23154">
		<tag k="name" v="Raet" />
		<tag k="natural" v="ridge" />
		<tag k="place" v="locality" />
		<tag k="ssr:stedsnr" v="1080982" />
	</node>
	<node lat="68.9624443708818" lon="15.108130524893078" id="-23155">
		<tag k="fixme" v="consider natural=peak for the most distinct mountains in the district" />
		<tag k="name" v="Breifjellet" />
		<tag k="natural" v="hill" />
		<tag k="place" v="locality" />
		<tag k="ssr:stedsnr" v="1081080" />
	</node>
	<node lat="68.81396545020795" lon="15.115461248139786" id="-23162">
		<tag k="name" v="Slettheia" />
		<tag k="natural" v="hill" />
		<tag k="place" v="locality" />
		<tag k="ssr:stedsnr" v="1083335" />
	</node>
	<node lat="68.813155383199" lon="15.139626460410707" id="-23163">
		<tag k="name" v="Nausthågen" />
		<tag k="natural" v="hill" />
		<tag k="place" v="locality" />
		<tag k="ssr:stedsnr" v="1083337" />
	</node>
	<node lat="68.76631362359012" lon="14.77927693292944" id="-23164">
		<tag k="fixme" v="consider natural=peak for the most distinct mountains in the district" />
		<tag k="name" v="Skalltuva" />
		<tag k="natural" v="hill" />
		<tag k="place" v="locality" />
		<tag k="ssr:stedsnr" v="928523" />
	</node>
</osm>
