<?xml version="1.0" encoding="UTF-8"?>
<osm generator="osmapis" version="0.6">
	<node id="-19454" lat="68.9904138868" lon="15.1434916594">
		<tag k="name" v="Skrådalsvatnet" />
		<tag k="natural" v="water" />
		<tag k="ssr:stedsnr" v="745573" />
	</node>
	<node id="-19965" lat="68.8598027813" lon="14.9670055496">
		<tag k="name" v="Rotvatnet" />
		<tag k="natural" v="water" />
		<tag k="ssr:stedsnr" v="200825" />
	</node>
	<node id="-19452" lat="68.9787027785" lon="15.1597305467">
		<tag k="name" v="Saltvatnet" />
		<tag k="natural" v="water" />
		<tag k="ssr:stedsnr" v="745556" />
	</node>
	<node id="-19959" lat="68.7384555563" lon="14.9278472271">
		<tag k="alt_name" v="Ånfjordvatnet" />
		<tag k="name" v="Ånnfjordvatnet" />
		<tag k="natural" v="water" />
		<tag k="ssr:stedsnr" v="200363" />
	</node>
	<node id="-19958" lat="68.8020305601" lon="15.1535861022">
		<tag k="name" v="Vatndalselva" />
		<tag k="ssr:stedsnr" v="200361" />
		<tag k="waterway" v="stream" />
	</node>
	<node id="-19951" lat="68.7946722255" lon="15.1758250056">
		<tag k="name" v="Svenskelva" />
		<tag k="ssr:stedsnr" v="199378" />
		<tag k="waterway" v="stream" />
	</node>
	<node id="-20458" lat="68.9745388861" lon="15.1449277675">
		<tag k="name" v="Finnspettneset" />
		<tag k="natural" v="cape" />
		<tag k="ssr:stedsnr" v="642796" />
	</node>
	<node id="-19111" lat="68.9711527748" lon="15.1035305653">
		<tag k="name" v="Klotindvatnet" />
		<tag k="natural" v="water" />
		<tag k="old_name" v="Tindvatnet" />
		<tag k="ssr:stedsnr" v="381634" />
	</node>
	<node id="-19944" lat="68.8430166671" lon="14.9458527825">
		<tag k="name" v="Dalskarvatnet" />
		<tag k="natural" v="water" />
		<tag k="ssr:stedsnr" v="180869" />
	</node>
	<node id="-19708" lat="68.883691671" lon="15.2693916575">
		<tag k="name" v="Møllendalsvatnet" />
		<tag k="natural" v="water" />
		<tag k="ssr:stedsnr" v="36782" />
		<tag k="water" v="lake" />
	</node>
	<node id="-18683" lat="68.9124916659" lon="15.223319439">
		<tag k="name" v="Likkjelva" />
		<tag k="ssr:stedsnr" v="218084" />
		<tag k="waterway" v="stream" />
	</node>
	<node id="-19424" lat="68.9087277824" lon="14.9821472137">
		<tag k="name" v="Fjellgrimstadvatnet" />
		<tag k="natural" v="water" />
		<tag k="ssr:stedsnr" v="891349" />
	</node>
	<node id="-19933" lat="68.9079249972" lon="14.9121055593">
		<tag k="name" v="Lomstjønna" />
		<tag k="natural" v="water" />
		<tag k="ssr:stedsnr" v="176196" />
	</node>
	<node id="-20444" lat="68.9524472256" lon="15.1497972152">
		<tag k="name" v="Hartviktjønna" />
		<tag k="natural" v="water" />
		<tag k="ssr:stedsnr" v="642182" />
	</node>
	<node id="-19419" lat="68.8951000037" lon="15.1965166782">
		<tag k="name" v="Reinøya" />
		<tag k="place" v="islet" />
		<tag k="ssr:stedsnr" v="704128" />
	</node>
	<node id="-20438" lat="68.9124194485" lon="15.236594433">
		<tag k="name" v="Storelva" />
		<tag k="ssr:stedsnr" v="642080" />
		<tag k="waterway" v="river" />
	</node>
	<node id="-19925" lat="68.9483416629" lon="15.2599277752">
		<tag k="name" v="Husjord-Lomtjønna" />
		<tag k="natural" v="water" />
		<tag k="ssr:stedsnr" v="161533" />
	</node>
	<node id="-20433" lat="68.8617277744" lon="15.2265861127">
		<tag k="name" v="Nordbotnvatnet" />
		<tag k="natural" v="water" />
		<tag k="ssr:stedsnr" v="642016" />
	</node>
	<node id="-18895" lat="68.8835305568" lon="14.9527194413">
		<tag k="name" v="Torvdalselva" />
		<tag k="ssr:stedsnr" v="161109" />
		<tag k="waterway" v="stream" />
	</node>
	<node id="-19918" lat="68.8576722193" lon="14.9477555544">
		<tag k="name" v="Vikelva" />
		<tag k="ssr:stedsnr" v="161087" />
		<tag k="waterway" v="stream" />
	</node>
	<node id="-19404" lat="68.9196694406" lon="14.9189833408">
		<tag k="name" v="Øret" />
		<tag k="natural" v="bay" />
		<tag k="ssr:stedsnr" v="889064" />
	</node>
	<node id="-19402" lat="68.9216750032" lon="14.9329027775">
		<tag k="name" v="Lakselva" />
		<tag k="ssr:stedsnr" v="889052" />
		<tag k="waterway" v="stream" />
	</node>
	<node id="-19401" lat="68.915475001" lon="14.9096333394">
		<tag k="name" v="Båsskråa" />
		<tag k="natural" v="cape" />
		<tag k="ssr:stedsnr" v="889049" />
	</node>
	<node id="-20422" lat="68.8512527778" lon="14.9250944444">
		<tag k="name" v="Dalvatnet" />
		<tag k="natural" v="water" />
		<tag k="ssr:stedsnr" v="624825" />
	</node>
	<node id="-20214" lat="68.9052472258" lon="15.2354722238">
		<tag k="name" v="Risneset" />
		<tag k="natural" v="cape" />
		<tag k="ssr:stedsnr" v="521088" />
	</node>
	<node id="-20414" lat="68.8889055552" lon="14.9359888871">
		<tag k="alt_name" v="Breidstranddalsvatnet" />
		<tag k="name" v="Breistranddalsvatnet" />
		<tag k="natural" v="water" />
		<tag k="ssr:stedsnr" v="624784" />
	</node>
	<node id="-20213" lat="68.8974527818" lon="15.2290666751">
		<tag k="name" v="Muslingdalsneset" />
		<tag k="natural" v="cape" />
		<tag k="ssr:stedsnr" v="521085" />
	</node>
	<node id="-18912" lat="68.8811027811" lon="14.9354888854">
		<tag k="name" v="Breistrandelva" />
		<tag k="ssr:stedsnr" v="282100" />
		<tag k="waterway" v="stream" />
	</node>
	<node id="-18868" lat="68.8083055535" lon="15.1390861086">
		<tag k="name" v="Vatndalsvatnet" />
		<tag k="natural" v="water" />
		<tag k="ssr:stedsnr" v="138305" />
	</node>
	<node id="-19378" lat="68.865577779" lon="15.2507666634">
		<tag k="name" v="Elvedalsvatnet" />
		<tag k="natural" v="water" />
		<tag k="ssr:stedsnr" v="685722" />
	</node>
	<node id="-20399" lat="68.9456527786" lon="15.045519433">
		<tag k="fixme" v="multiple name tags, choose one and add the other to alt_name" />
		<tag k="name" v="Kråknesvatnet;Søndre Kråknesvatnet" />
		<tag k="natural" v="water" />
		<tag k="ssr:stedsnr" v="624647" />
	</node>
	<node id="-19886" lat="68.9142416638" lon="15.2841860992">
		<tag k="name" v="Storvatnet" />
		<tag k="natural" v="water" />
		<tag k="ssr:stedsnr" v="157030" />
	</node>
	<node id="-20394" lat="68.9675249997" lon="15.0510333319">
		<tag k="alt_name" v="Jennskardvatnet" />
		<tag k="name" v="Jennskarvatnet" />
		<tag k="natural" v="water" />
		<tag k="ssr:stedsnr" v="624608" />
	</node>
	<node id="-20391" lat="68.7869000041" lon="15.1639611224">
		<tag k="name" v="Storeidet" />
		<tag k="natural" v="strait" />
		<tag k="ssr:stedsnr" v="624338" />
	</node>
	<node id="-20390" lat="68.8322333315" lon="15.1029555523">
		<tag k="name" v="Gullvikvatnet" />
		<tag k="natural" v="water" />
		<tag k="ssr:stedsnr" v="624315" />
	</node>
	<node id="-19877" lat="68.8264972248" lon="14.9887611041">
		<tag k="fixme" v="multiple name tags, choose one and add the other to alt_name" />
		<tag k="name" v="Trolldalsvatnet;Trollvatnet" />
		<tag k="natural" v="water" />
		<tag k="ssr:stedsnr" v="139864" />
	</node>
	<node id="-20388" lat="68.8116972265" lon="15.1671444381">
		<tag k="alt_name" v="Tuvaelva" />
		<tag k="name" v="Tuvenelva" />
		<tag k="ssr:stedsnr" v="624290" />
		<tag k="waterway" v="stream" />
	</node>
	<node id="-18851" lat="68.8001694452" lon="14.7889833421">
		<tag k="alt_name" v="Lomtjørna" />
		<tag k="name" v="Lomtjønna" />
		<tag k="natural" v="water" />
		<tag k="ssr:stedsnr" v="261924" />
	</node>
	<node id="-18847" lat="68.9122444442" lon="14.9206055511">
		<tag k="fixme" v="multiple name tags, choose one and add the other to alt_name" />
		<tag k="name" v="Nordsandvatnet;Storvatnet" />
		<tag k="natural" v="water" />
		<tag k="ssr:stedsnr" v="261722" />
		<tag k="water" v="lake" />
	</node>
	<node id="-20251" lat="68.836699997" lon="15.0647055552">
		<tag k="name" v="Øver-Hornvatnet" />
		<tag k="natural" v="water" />
		<tag k="ssr:stedsnr" v="527285" />
	</node>
	<node id="-18837" lat="68.8329166664" lon="14.98253056">
		<tag k="name" v="Lembakkvatnet" />
		<tag k="natural" v="water" />
		<tag k="ssr:stedsnr" v="260917" />
	</node>
	<node id="-19609" lat="68.7386194423" lon="14.8980444503">
		<tag k="name" v="Straumen" />
		<tag k="natural" v="strait" />
		<tag k="ssr:stedsnr" v="928331" />
	</node>
	<node id="-19858" lat="68.9201583373" lon="15.179027771">
		<tag k="name" v="Høystakkelva" />
		<tag k="ssr:stedsnr" v="139650" />
		<tag k="waterway" v="stream" />
	</node>
	<node id="-19854" lat="68.8059805584" lon="15.0452083282">
		<tag k="name" v="Rypsandelva" />
		<tag k="ssr:stedsnr" v="139359" />
		<tag k="waterway" v="stream" />
	</node>
	<node id="-18829" lat="68.8788388916" lon="14.9101055644">
		<tag k="name" v="Stampvatnet" />
		<tag k="natural" v="water" />
		<tag k="ssr:stedsnr" v="260850" />
	</node>
	<node id="-19339" lat="68.7893194454" lon="14.8834972189">
		<tag k="name" v="Krommaelva" />
		<tag k="ssr:stedsnr" v="604752" />
		<tag k="waterway" v="stream" />
	</node>
	<node id="-20357" lat="68.9777444433" lon="15.1282888993">
		<tag k="name" v="Kalvdalselva" />
		<tag k="ssr:stedsnr" v="582841" />
		<tag k="waterway" v="stream" />
	</node>
	<node id="-19843" lat="69.0082583309" lon="15.1499472296">
		<tag k="name" v="Grunnvatnet" />
		<tag k="natural" v="water" />
		<tag k="ssr:stedsnr" v="138342" />
	</node>
	<node id="-19330" lat="68.9830388856" lon="15.0557138762">
		<tag k="name" v="Fjerde-Nyksundvatnet" />
		<tag k="natural" v="water" />
		<tag k="ssr:stedsnr" v="601414" />
	</node>
	<node id="-20288" lat="68.9754166687" lon="15.079297224">
		<tag k="fixme" v="multiple name tags, choose one and add the other to alt_name" />
		<tag k="name" v="Valbergvatnet;Valborgvatnet" />
		<tag k="natural" v="water" />
		<tag k="ssr:stedsnr" v="563608" />
	</node>
	<node id="-19325" lat="68.9651277786" lon="15.0237166778">
		<tag k="name" v="Okshammarelva" />
		<tag k="ssr:stedsnr" v="587335" />
		<tag k="waterway" v="stream" />
	</node>
	<node id="-20347" lat="68.9149416642" lon="15.1472527667">
		<tag k="name" v="Lomstjønna" />
		<tag k="natural" v="water" />
		<tag k="ssr:stedsnr" v="582471" />
	</node>
	<node id="-19319" lat="68.9229972232" lon="14.9049194358">
		<tag k="name" v="Skogrøstelva" />
		<tag k="ssr:stedsnr" v="585070" />
		<tag k="waterway" v="stream" />
	</node>
	<node id="-19318" lat="68.9188555558" lon="14.9256388803">
		<tag k="name" v="Teinelva" />
		<tag k="ssr:stedsnr" v="585056" />
		<tag k="waterway" v="stream" />
	</node>
	<node id="-19309" lat="68.894638889" lon="15.2479250028">
		<tag k="name" v="Grønnlivatnet" />
		<tag k="natural" v="water" />
		<tag k="ssr:stedsnr" v="582150" />
	</node>
	<node id="-19818" lat="68.9493861088" lon="15.0379444555">
		<tag k="name" v="Nord-Kråknesvatnet" />
		<tag k="natural" v="water" />
		<tag k="ssr:stedsnr" v="102323" />
	</node>
	<node id="-19175" lat="68.7819472247" lon="14.9369138876">
		<tag k="name" v="Ålvatnet" />
		<tag k="natural" v="water" />
		<tag k="ssr:stedsnr" v="665776" />
	</node>
	<node id="-19302" lat="68.9478888897" lon="15.2315361212">
		<tag k="name" v="Nøkkvatnet" />
		<tag k="natural" v="water" />
		<tag k="ssr:stedsnr" v="707569" />
	</node>
	<node id="-19301" lat="68.9409777735" lon="15.2538305621">
		<tag k="name" v="Mølntjønna" />
		<tag k="natural" v="water" />
		<tag k="ssr:stedsnr" v="707562" />
	</node>
	<node id="-19299" lat="68.907166668" lon="15.2161444376">
		<tag k="name" v="Tangen" />
		<tag k="natural" v="strait" />
		<tag k="ssr:stedsnr" v="707509" />
	</node>
	<node id="-19632" lat="68.8433861135" lon="15.0530805542">
		<tag k="name" v="Horndalselva" />
		<tag k="ssr:stedsnr" v="965457" />
		<tag k="waterway" v="stream" />
	</node>
	<node id="-20732" lat="68.778886114" lon="14.9546000008">
		<tag k="name" v="Nøkkevatnet" />
		<tag k="natural" v="water" />
		<tag k="ssr:stedsnr" v="867525" />
	</node>
	<node id="-18780" lat="68.9657138882" lon="15.1350833437">
		<tag k="name" v="Oterbekken" />
		<tag k="ssr:stedsnr" v="96262" />
		<tag k="waterway" v="stream" />
	</node>
	<node id="-20314" lat="68.8363972191" lon="14.9395638865">
		<tag k="alt_name" v="Tekkelskardvatnet" />
		<tag k="name" v="Tekkelskarvatnet" />
		<tag k="natural" v="water" />
		<tag k="ssr:stedsnr" v="563864" />
	</node>
	<node id="-20313" lat="68.8407194434" lon="14.975225002">
		<tag k="alt_name" v="Sminesvatnet, l" />
		<tag k="fixme" v="multiple name tags, choose one and add the other to alt_name" />
		<tag k="name" v="Likkjvatnet;Litle Sminesvatnet" />
		<tag k="natural" v="water" />
		<tag k="ssr:stedsnr" v="563862" />
	</node>
	<node id="-19288" lat="69.0073861099" lon="15.1384416657">
		<tag k="name" v="Kjøleva" />
		<tag k="ssr:stedsnr" v="704861" />
		<tag k="waterway" v="stream" />
	</node>
	<node id="-19799" lat="68.9758722228" lon="15.1574250053">
		<tag k="name" v="Teingården" />
		<tag k="place" v="locality" />
		<tag k="ssr:stedsnr" v="97836" />
	</node>
	<node id="-20308" lat="68.8853361135" lon="14.9157333424">
		<tag k="name" v="Tunnstaddalsvatnet" />
		<tag k="natural" v="water" />
		<tag k="ssr:stedsnr" v="563830" />
	</node>
	<node id="-19283" lat="68.8748055598" lon="15.2784083335">
		<tag k="name" v="Rødsandelva" />
		<tag k="ssr:stedsnr" v="704785" />
		<tag k="waterway" v="river" />
	</node>
	<node id="-18768" lat="68.8172333361" lon="15.0025055628">
		<tag k="name" v="Romsetoselva" />
		<tag k="ssr:stedsnr" v="239133" />
		<tag k="waterway" v="stream" />
	</node>
	<node id="-19085" lat="68.9748833341" lon="15.08801112">
		<tag k="name" v="Valbergbekken" />
		<tag k="ssr:stedsnr" v="480350" />
		<tag k="waterway" v="stream" />
	</node>
	<node id="-20298" lat="68.8964027821" lon="15.2783555551">
		<tag k="name" v="Oselva" />
		<tag k="ssr:stedsnr" v="563745" />
		<tag k="waterway" v="stream" />
	</node>
	<node id="-20296" lat="68.8756638865" lon="15.1824972182">
		<tag k="alt_name" v="Likkjvatnet" />
		<tag k="name" v="Litlevatnet" />
		<tag k="natural" v="water" />
		<tag k="ssr:stedsnr" v="563723" />
	</node>
	<node id="-20295" lat="68.9103333287" lon="15.1118361154">
		<tag k="alt_name" v="Bruselva" />
		<tag k="name" v="Bruseelva" />
		<tag k="ssr:stedsnr" v="563714" />
		<tag k="waterway" v="stream" />
	</node>
	<node id="-19269" lat="68.9389055562" lon="15.1666111095">
		<tag k="name" v="Vasselva" />
		<tag k="ssr:stedsnr" v="703254" />
		<tag k="waterway" v="river" />
	</node>
	<node id="-20292" lat="68.8992111151" lon="15.0965444512">
		<tag k="name" v="Langryggvatnet" />
		<tag k="natural" v="water" />
		<tag k="ssr:stedsnr" v="563691" />
	</node>
	<node id="-18998" lat="68.8737388913" lon="15.149713884">
		<tag k="name" v="Bukkedalsvatnet" />
		<tag k="natural" v="water" />
		<tag k="ssr:stedsnr" v="442717" />
	</node>
	<node id="-20290" lat="68.9747194402" lon="15.1094138854">
		<tag k="alt_name" v="Åstjørna" />
		<tag k="name" v="Åstjønna" />
		<tag k="natural" v="water" />
		<tag k="ssr:stedsnr" v="563613" />
	</node>
	<node id="-20289" lat="68.9737416684" lon="15.1202000097">
		<tag k="alt_name" v="Mellomvatnet" />
		<tag k="name" v="Mellavatnet" />
		<tag k="natural" v="water" />
		<tag k="ssr:stedsnr" v="563610" />
	</node>
	<node id="-18752" lat="68.9025833351" lon="15.1755749918">
		<tag k="name" v="Meltjønna" />
		<tag k="natural" v="water" />
		<tag k="ssr:stedsnr" v="40118" />
	</node>
	<node id="-19263" lat="68.8918444421" lon="15.2251277676">
		<tag k="name" v="Rødsandelva" />
		<tag k="ssr:stedsnr" v="703092" />
		<tag k="waterway" v="river" />
	</node>
	<node id="-18750" lat="68.877538891" lon="14.9086944367">
		<tag k="name" v="Sommarfjøsvatnet" />
		<tag k="natural" v="water" />
		<tag k="ssr:stedsnr" v="39058" />
	</node>
	<node id="-19167" lat="68.8224055591" lon="14.8328472106">
		<tag k="name" v="Dalelva" />
		<tag k="ssr:stedsnr" v="423909" />
		<tag k="waterway" v="stream" />
	</node>
	<node id="-18744" lat="68.9897277817" lon="15.1771194338">
		<tag k="name" v="Grunnvatnet" />
		<tag k="natural" v="water" />
		<tag k="ssr:stedsnr" v="36827" />
		<tag k="water" v="lake" />
	</node>
	<node id="-20786" lat="68.7952777782" lon="15.0123611164">
		<tag k="name" v="Kavåselva" />
		<tag k="ssr:stedsnr" v="967148" />
		<tag k="waterway" v="stream" />
	</node>
	<node id="-19249" lat="68.8049555559" lon="14.9466194498">
		<tag k="name" v="Heivatnet" />
		<tag k="natural" v="water" />
		<tag k="ssr:stedsnr" v="685944" />
	</node>
	<node id="-18735" lat="68.947516666" lon="15.1231500115">
		<tag k="name" v="Tretinddalsvatnet" />
		<tag k="natural" v="water" />
		<tag k="ssr:stedsnr" v="18602" />
	</node>
	<node id="-18734" lat="68.7681527737" lon="14.9923333424">
		<tag k="name" v="Kjørvatnet" />
		<tag k="natural" v="water" />
		<tag k="ssr:stedsnr" v="18512" />
	</node>
	<node id="-19756" lat="68.8956972205" lon="14.9890249889">
		<tag k="alt_name" v="Tilsetvatnet, nedre" />
		<tag k="fixme" v="multiple name tags, choose one and add the other to alt_name" />
		<tag k="name" v="Likkjvatnet;Nedre Tilsetvatnet" />
		<tag k="natural" v="water" />
		<tag k="ssr:stedsnr" v="78793" />
	</node>
	<node id="-18730" lat="68.7913694453" lon="15.146797229">
		<tag k="alt_name" v="Sandskardvatnet, øvre" />
		<tag k="name" v="Øvre Sandskardvatnet" />
		<tag k="natural" v="water" />
		<tag k="ssr:stedsnr" v="17405" />
	</node>
	<node id="-20264" lat="68.7379000022" lon="14.9100333358">
		<tag k="name" v="Ånfjordelva" />
		<tag k="ssr:stedsnr" v="544701" />
		<tag k="waterway" v="stream" />
	</node>
	<node id="-20261" lat="68.8598416705" lon="14.9863361094">
		<tag k="name" v="Valen" />
		<tag k="natural" v="water" />
		<tag k="ssr:stedsnr" v="542385" />
	</node>
	<node id="-18723" lat="68.8207999999" lon="14.7714000018">
		<tag k="name" v="Vinjevatnet" />
		<tag k="natural" v="water" />
		<tag k="ssr:stedsnr" v="223711" />
	</node>
	<node id="-19234" lat="68.8827027781" lon="15.1244805444">
		<tag k="name" v="Stavdalsvatnet" />
		<tag k="natural" v="water" />
		<tag k="ssr:stedsnr" v="685671" />
	</node>
	<node id="-20769" lat="68.9161055563" lon="15.1343388981">
		<tag k="name" v="Evatnet" />
		<tag k="natural" v="water" />
		<tag k="ssr:stedsnr" v="868633" />
	</node>
	<node id="-20768" lat="68.7540138863" lon="14.9838277856">
		<tag k="name" v="Rekvatnet" />
		<tag k="natural" v="water" />
		<tag k="ssr:stedsnr" v="868557" />
		<tag k="water" v="lake" />
	</node>
	<node id="-18992" lat="68.9807222253" lon="15.1496166698">
		<tag k="name" v="Krokelva" />
		<tag k="ssr:stedsnr" v="442560" />
		<tag k="waterway" v="stream" />
	</node>
	<node id="-19230" lat="68.7507000021" lon="14.9312194552">
		<tag k="alt_name" v="Gammelgårdsvatnet" />
		<tag k="name" v="Gammelgårdvatnet" />
		<tag k="natural" v="water" />
		<tag k="ssr:stedsnr" v="685577" />
	</node>
	<node id="-19845" lat="69.0013750022" lon="15.1497250098">
		<tag k="name" v="Skogvatnet" />
		<tag k="natural" v="water" />
		<tag k="ssr:stedsnr" v="138346" />
	</node>
	<node id="-20763" lat="68.7804583365" lon="14.8139527724">
		<tag k="alt_name" v="Sørdalsvatnet, nedre" />
		<tag k="fixme" v="multiple name tags, choose one and add the other to alt_name" />
		<tag k="name" v="Sjurtindsvatnet;Nedre Sørdalsvatnet" />
		<tag k="natural" v="water" />
		<tag k="ssr:stedsnr" v="867989" />
	</node>
	<node id="-19732" lat="68.7873944438" lon="15.0149333301">
		<tag k="name" v="Sommardalselva" />
		<tag k="ssr:stedsnr" v="57131" />
		<tag k="waterway" v="stream" />
	</node>
	<node id="-19219" lat="68.8075888898" lon="15.1929416593">
		<tag k="name" v="Tverrelva" />
		<tag k="ssr:stedsnr" v="685277" />
		<tag k="waterway" v="stream" />
	</node>
	<node id="-20753" lat="68.8960361094" lon="14.9743166603">
		<tag k="alt_name" v="Tilsetvatnet, øvre" />
		<tag k="fixme" v="multiple name tags, choose one and add the other to alt_name" />
		<tag k="name" v="Storvatnet;Øvre Tilsetvatnet" />
		<tag k="natural" v="water" />
		<tag k="ssr:stedsnr" v="867810" />
	</node>
	<node id="-19008" lat="68.7828083315" lon="14.9781944512">
		<tag k="alt_name" v="Ramsvikronna" />
		<tag k="name" v="Ramsvikelva" />
		<tag k="ssr:stedsnr" v="442998" />
		<tag k="waterway" v="stream" />
	</node>
	<node id="-19724" lat="68.8407527735" lon="15.066205566">
		<tag k="name" v="Ner-Hornvatnet" />
		<tag k="natural" v="water" />
		<tag k="ssr:stedsnr" v="41285" />
	</node>
	<node id="-18818" lat="68.9016416714" lon="14.9183777698">
		<tag k="alt_name" v="Øvervatnet" />
		<tag k="name" v="Øvrevatnet" />
		<tag k="natural" v="water" />
		<tag k="ssr:stedsnr" v="260805" />
	</node>
	<node id="-19722" lat="68.879977778" lon="15.1901416597">
		<tag k="name" v="Jutjordbukta" />
		<tag k="natural" v="bay" />
		<tag k="ssr:stedsnr" v="40640" />
	</node>
	<node id="-18732" lat="68.7686055557" lon="14.9469749941">
		<tag k="alt_name" v="Urskarvatnan" />
		<tag k="name" v="Urdskardvatnet" />
		<tag k="natural" v="water" />
		<tag k="ssr:stedsnr" v="18507" />
	</node>
	<node id="-18693" lat="68.9888999975" lon="15.043358334">
		<tag k="name" v="Tjønna" />
		<tag k="natural" v="water" />
		<tag k="ssr:stedsnr" v="218394" />
	</node>
	<node id="-20225" lat="68.9762027819" lon="15.1485861167">
		<tag k="name" v="Badeneset" />
		<tag k="natural" v="cape" />
		<tag k="ssr:stedsnr" v="521844" />
	</node>
	<node id="-20736" lat="68.7688472194" lon="14.9862111135">
		<tag k="name" v="Sennvatnet" />
		<tag k="natural" v="water" />
		<tag k="ssr:stedsnr" v="867560" />
	</node>
	<node id="-19072" lat="68.8141888895" lon="15.086558338">
		<tag k="name" v="Svartbergelva" />
		<tag k="ssr:stedsnr" v="466494" />
		<tag k="waterway" v="stream" />
	</node>
	<node id="-18685" lat="68.948741669" lon="15.1407416723">
		<tag k="name" v="Ørnakktjønnan" />
		<tag k="natural" v="water" />
		<tag k="ssr:stedsnr" v="218228" />
	</node>
	<node id="-18684" lat="68.9373416636" lon="15.141169431">
		<tag k="name" v="Stortjønnan" />
		<tag k="natural" v="water" />
		<tag k="ssr:stedsnr" v="218210" />
	</node>
	<node id="-20731" lat="68.7715777739" lon="14.9784749885">
		<tag k="name" v="Nattmålsvatnet" />
		<tag k="natural" v="water" />
		<tag k="ssr:stedsnr" v="867521" />
	</node>
	<node id="-20727" lat="68.7884805533" lon="15.1754194559">
		<tag k="name" v="Spøktjørna" />
		<tag k="natural" v="water" />
		<tag k="ssr:stedsnr" v="867346" />
	</node>
	<node id="-20726" lat="68.7841472238" lon="15.0956999904">
		<tag k="alt_name" v="Sandskardelva" />
		<tag k="name" v="Sandskarelva" />
		<tag k="ssr:stedsnr" v="867343" />
		<tag k="waterway" v="stream" />
	</node>
	<node id="-20725" lat="69.0026222228" lon="15.1161805556">
		<tag k="name" v="Kjølvatnet" />
		<tag k="natural" v="water" />
		<tag k="ssr:stedsnr" v="867341" />
	</node>
	<node id="-20724" lat="68.8255111083" lon="15.2341305523">
		<tag k="name" v="Lifjordvatnan" />
		<tag k="natural" v="water" />
		<tag k="ssr:stedsnr" v="867337" />
		<tag k="water" v="lake" />
	</node>
	<node id="-19187" lat="68.9075444417" lon="14.9239333237">
		<tag k="name" v="Eidet" />
		<tag k="natural" v="strait" />
		<tag k="ssr:stedsnr" v="480164" />
	</node>
	<node id="-19698" lat="68.9391694401" lon="15.181150002">
		<tag k="name" v="Grunnvasselva" />
		<tag k="ssr:stedsnr" v="36210" />
		<tag k="waterway" v="river" />
	</node>
	<node id="-19695" lat="68.9011277807" lon="15.1032277721">
		<tag k="name" v="Nannabekken" />
		<tag k="ssr:stedsnr" v="36166" />
		<tag k="waterway" v="stream" />
	</node>
	<node id="-19692" lat="68.8903000006" lon="15.18124999">
		<tag k="name" v="Bukta" />
		<tag k="natural" v="bay" />
		<tag k="ssr:stedsnr" v="36097" />
	</node>
	<node id="-19691" lat="68.8883722258" lon="15.1721777742">
		<tag k="name" v="Buktaelva" />
		<tag k="ssr:stedsnr" v="36094" />
		<tag k="waterway" v="stream" />
	</node>
	<node id="-20202" lat="68.7924722242" lon="15.0043583281">
		<tag k="name" v="Nilsjorddalselva" />
		<tag k="ssr:stedsnr" v="421157" />
		<tag k="waterway" v="stream" />
	</node>
	<node id="-19688" lat="68.8999833337" lon="15.1747305483">
		<tag k="name" v="Melbekken" />
		<tag k="ssr:stedsnr" v="36062" />
		<tag k="waterway" v="stream" />
	</node>
	<node id="-20199" lat="68.8414027759" lon="14.9813305641">
		<tag k="name" v="Sminesvatnan" />
		<tag k="natural" v="water" />
		<tag k="ssr:stedsnr" v="421142" />
		<tag k="water" v="lake" />
	</node>
	<node id="-20709" lat="68.8247722196" lon="14.7515638886">
		<tag k="name" v="Trollkonelva" />
		<tag k="ssr:stedsnr" v="846652" />
		<tag k="waterway" v="stream" />
	</node>
	<node id="-18982" lat="68.7248777759" lon="14.9106777756">
		<tag k="fixme" v="multiple name tags, choose one and add the other to alt_name" />
		<tag k="name" v="5.Vatnet;Nøkkvatnet" />
		<tag k="natural" v="water" />
		<tag k="ssr:stedsnr" v="442298" />
	</node>
	<node id="-19323" lat="68.8765333294" lon="14.8897527701">
		<tag k="name" v="Rundvatnet" />
		<tag k="natural" v="water" />
		<tag k="ssr:stedsnr" v="585095" />
	</node>
	<node id="-20192" lat="68.9876833299" lon="15.0842138868">
		<tag k="name" v="Tredje-Langvadalsvatnet" />
		<tag k="natural" v="water" />
		<tag k="ssr:stedsnr" v="419411" />
	</node>
	<node id="-20191" lat="68.9916749993" lon="15.079430562">
		<tag k="name" v="Finnvatnet" />
		<tag k="natural" v="water" />
		<tag k="ssr:stedsnr" v="419410" />
	</node>
	<node id="-19678" lat="68.8798250006" lon="14.8937888972">
		<tag k="name" v="Rødsandvatnet" />
		<tag k="natural" v="water" />
		<tag k="ssr:stedsnr" v="18757" />
	</node>
	<node id="-18725" lat="68.8213055566" lon="15.2467833437">
		<tag k="name" v="Lifjordvatnet" />
		<tag k="natural" v="water" />
		<tag k="ssr:stedsnr" v="17306" />
	</node>
	<node id="-20700" lat="68.9993416619" lon="15.061358343">
		<tag k="name" v="Ner-Langvadalsvatnet" />
		<tag k="natural" v="water" />
		<tag k="ssr:stedsnr" v="844399" />
	</node>
	<node id="-20187" lat="68.9445944402" lon="15.2271111216">
		<tag k="name" v="Oterbekken" />
		<tag k="ssr:stedsnr" v="404548" />
		<tag k="waterway" v="stream" />
	</node>
	<node id="-20690" lat="68.8103333341" lon="15.1022111135">
		<tag k="name" v="Storfossen" />
		<tag k="natural" v="waterfall" />
		<tag k="ssr:stedsnr" v="830470" />
	</node>
	<node id="-20174" lat="68.9763722214" lon="15.1608500081">
		<tag k="name" v="Lakseblikkan" />
		<tag k="natural" v="waterfall" />
		<tag k="ssr:stedsnr" v="400856" />
	</node>
	<node id="-20173" lat="68.9826250023" lon="15.1694416634">
		<tag k="name" v="Kloelva" />
		<tag k="ssr:stedsnr" v="400829" />
		<tag k="waterway" v="stream" />
	</node>
	<node id="-19659" lat="68.9611138857" lon="15.0727833324">
		<tag k="name" v="Store Hollavatnet" />
		<tag k="natural" v="water" />
		<tag k="old_name" v="Klotindvatnet" />
		<tag k="ssr:stedsnr" v="18572" />
	</node>
	<node id="-20170" lat="68.8829222238" lon="15.2176749892">
		<tag k="name" v="Rødsandelva" />
		<tag k="ssr:stedsnr" v="400791" />
		<tag k="waterway" v="river" />
	</node>
	<node id="-19745" lat="68.9918388932" lon="15.0791555574">
		<tag k="name" v="Langvaddalsvatnan" />
		<tag k="natural" v="water" />
		<tag k="ssr:stedsnr" v="78572" />
		<tag k="water" v="lake" />
	</node>
	<node id="-19147" lat="68.7875388884" lon="14.8615694364">
		<tag k="name" v="Storvatnet" />
		<tag k="natural" v="water" />
		<tag k="ssr:stedsnr" v="503979" />
	</node>
	<node id="-19232" lat="68.8945333351" lon="15.1904166696">
		<tag k="name" v="Alsvågvatnet" />
		<tag k="natural" v="water" />
		<tag k="ssr:stedsnr" v="685652" />
		<tag k="water" v="lake" />
	</node>
	<node id="-20156" lat="68.802575004" lon="14.9358416677">
		<tag k="fixme" v="multiple name tags, choose one and add the other to alt_name" />
		<tag k="name" v="Dalvatnet;Torsetvatnet" />
		<tag k="natural" v="water" />
		<tag k="ssr:stedsnr" v="382956" />
	</node>
	<node id="-20155" lat="68.8075194473" lon="14.9640805518">
		<tag k="name" v="Brusdalsvatnet" />
		<tag k="natural" v="water" />
		<tag k="ssr:stedsnr" v="382932" />
	</node>
	<node id="-19084" lat="68.9805777741" lon="15.0448916767">
		<tag k="name" v="Femte-Nyksundvatnet" />
		<tag k="natural" v="water" />
		<tag k="ssr:stedsnr" v="480428" />
	</node>
	<node id="-19126" lat="68.9243111133" lon="15.1697416775">
		<tag k="alt_name" v="Tretneelva" />
		<tag k="name" v="Trettenelva" />
		<tag k="ssr:stedsnr" v="503592" />
		<tag k="waterway" v="stream" />
	</node>
	<node id="-20148" lat="68.7989222255" lon="15.0470777836">
		<tag k="fixme" v="multiple name tags, choose one and add the other to alt_name" />
		<tag k="name" v="Finnjordelva;Storelva" />
		<tag k="ssr:stedsnr" v="382340" />
		<tag k="waterway" v="stream" />
	</node>
	<node id="-20254" lat="68.9149333367" lon="14.9751166783">
		<tag k="name" v="Skjellelva" />
		<tag k="ssr:stedsnr" v="527310" />
		<tag k="waterway" v="stream" />
	</node>
	<node id="-19634" lat="68.8260333371" lon="15.0477305536">
		<tag k="name" v="Skredelva" />
		<tag k="ssr:stedsnr" v="967116" />
		<tag k="waterway" v="stream" />
	</node>
	<node id="-19120" lat="68.8011944459" lon="15.1893416791">
		<tag k="name" v="Storeidbekken" />
		<tag k="ssr:stedsnr" v="503336" />
		<tag k="waterway" v="stream" />
	</node>
	<node id="-19631" lat="68.832669441" lon="15.2510305623">
		<tag k="name" v="Likkjbuktvatnet" />
		<tag k="natural" v="water" />
		<tag k="ssr:stedsnr" v="951619" />
	</node>
	<node id="-19229" lat="68.998038893" lon="15.1604083343">
		<tag k="alt_name" v="Årskogelva" />
		<tag k="name" v="Orskogelva" />
		<tag k="ssr:stedsnr" v="685575" />
		<tag k="waterway" v="stream" />
	</node>
	<node id="-20137" lat="68.8703083359" lon="15.164208328">
		<tag k="name" v="Larsokkdalsvatnet" />
		<tag k="natural" v="water" />
		<tag k="ssr:stedsnr" v="381720" />
	</node>
	<node id="-19623" lat="68.8710388914" lon="15.2169111165">
		<tag k="name" v="Kråvatnan" />
		<tag k="natural" v="water" />
		<tag k="ssr:stedsnr" v="946753" />
		<tag k="water" v="lake" />
	</node>
	<node id="-20133" lat="68.9123444463" lon="15.2061583374">
		<tag k="name" v="Sørvågvatnet" />
		<tag k="natural" v="water" />
		<tag k="ssr:stedsnr" v="381679" />
		<tag k="water" v="lake" />
	</node>
	<node id="-19620" lat="68.9209194473" lon="14.92685278">
		<tag k="alt_name" v="Likkjvatnet" />
		<tag k="name" v="Litlvatnet" />
		<tag k="natural" v="water" />
		<tag k="ssr:stedsnr" v="928728" />
	</node>
	<node id="-19227" lat="68.9831388916" lon="15.055619435">
		<tag k="name" v="Nyksundvatnan" />
		<tag k="natural" v="water" />
		<tag k="ssr:stedsnr" v="685566" />
		<tag k="water" v="lake" />
	</node>
	<node id="-19141" lat="68.7972111131" lon="14.7630722144">
		<tag k="name" v="Finnvågvatnet" />
		<tag k="natural" v="water" />
		<tag k="old_name" v="Finnbågvatnet" />
		<tag k="ssr:stedsnr" v="503916" />
		<tag k="water" v="lake" />
	</node>
	<node id="-18970" lat="68.7928027782" lon="15.0124750024">
		<tag k="alt_name" v="Kauvåsvatnet" />
		<tag k="name" v="Kavåsvatnet" />
		<tag k="natural" v="water" />
		<tag k="ssr:stedsnr" v="200975" />
	</node>
	<node id="-19097" lat="68.9372888889" lon="15.0351555529">
		<tag k="name" v="Storelva" />
		<tag k="ssr:stedsnr" v="344268" />
		<tag k="waterway" v="stream" />
	</node>
	<node id="-20120" lat="68.8172583317" lon="15.221891677">
		<tag k="name" v="Haugvatnet" />
		<tag k="natural" v="water" />
		<tag k="ssr:stedsnr" v="381291" />
	</node>
	<node id="-19054" lat="69.0084333299" lon="15.1504055509">
		<tag k="name" v="Andersåstjønna" />
		<tag k="natural" v="water" />
		<tag k="ssr:stedsnr" v="461875" />
	</node>
	<node id="-19601" lat="68.8051250004" lon="14.9438138836">
		<tag k="name" v="Heivatnan" />
		<tag k="natural" v="water" />
		<tag k="ssr:stedsnr" v="908916" />
		<tag k="water" v="lake" />
	</node>
	<node id="-19087" lat="68.9617861094" lon="15.0949999891">
		<tag k="name" v="Likkje Hollavatnet" />
		<tag k="natural" v="water" />
		<tag k="ssr:stedsnr" v="480478" />
	</node>
	<node id="-19086" lat="68.9788611095" lon="15.0936250109">
		<tag k="name" v="Tverrfjellbekken" />
		<tag k="ssr:stedsnr" v="480351" />
		<tag k="waterway" v="stream" />
	</node>
	<node id="-19597" lat="68.8241249956" lon="15.0406555562">
		<tag k="name" v="Halkahalla" />
		<tag k="ssr:stedsnr" v="906114" />
		<tag k="waterway" v="stream" />
	</node>
	<node id="-19596" lat="68.8963194431" lon="15.1057166702">
		<tag k="name" v="Langryggelva" />
		<tag k="ssr:stedsnr" v="905474" />
		<tag k="waterway" v="stream" />
	</node>
	<node id="-20619" lat="68.8594055544" lon="15.1931222144">
		<tag k="name" v="Tjørna" />
		<tag k="natural" v="water" />
		<tag k="ssr:stedsnr" v="807689" />
	</node>
	<node id="-20617" lat="68.9234249972" lon="15.1734888938">
		<tag k="alt_name" v="Lomtjørna" />
		<tag k="name" v="Lomtjønna" />
		<tag k="natural" v="water" />
		<tag k="ssr:stedsnr" v="807651" />
	</node>
	<node id="-20616" lat="68.921608335" lon="15.1324722163">
		<tag k="name" v="Slåttelva" />
		<tag k="ssr:stedsnr" v="807648" />
		<tag k="waterway" v="stream" />
	</node>
	<node id="-19590" lat="68.8916555591" lon="14.9301083335">
		<tag k="name" v="Tekkelskarelva" />
		<tag k="ssr:stedsnr" v="905171" />
		<tag k="waterway" v="stream" />
	</node>
	<node id="-20612" lat="68.9409999995" lon="15.1771194457">
		<tag k="name" v="Grunnvatnet" />
		<tag k="natural" v="water" />
		<tag k="ssr:stedsnr" v="807608" />
	</node>
	<node id="-20610" lat="68.7668805521" lon="14.9758666671">
		<tag k="name" v="Kleksvatnet" />
		<tag k="natural" v="water" />
		<tag k="ssr:stedsnr" v="807543" />
	</node>
	<node id="-20608" lat="68.8064611133" lon="15.0005444402">
		<tag k="fixme" v="multiple name tags, choose one and add the other to alt_name" />
		<tag k="name" v="Likkjvatnet;Storvatnet" />
		<tag k="natural" v="water" />
		<tag k="ssr:stedsnr" v="807955" />
	</node>
	<node id="-20094" lat="68.8737305596" lon="15.1687805453">
		<tag k="name" v="Bukkedalsbekken" />
		<tag k="ssr:stedsnr" v="343659" />
		<tag k="waterway" v="stream" />
	</node>
	<node id="-20093" lat="68.844461107" lon="15.2477861016">
		<tag k="name" v="Finnhellardalsvatnet" />
		<tag k="natural" v="water" />
		<tag k="ssr:stedsnr" v="343609" />
	</node>
	<node id="-19562" lat="68.8668833364" lon="15.2460250121">
		<tag k="name" v="Mellatjønna" />
		<tag k="natural" v="water" />
		<tag k="ssr:stedsnr" v="947744" />
	</node>
	<node id="-19574" lat="68.8756416628" lon="14.9015916746">
		<tag k="name" v="Tunstadelva" />
		<tag k="ssr:stedsnr" v="950091" />
		<tag k="waterway" v="stream" />
	</node>
	<node id="-20596" lat="68.8734194464" lon="15.2662333214">
		<tag k="alt_name" v="Raudsanddalsvatnet" />
		<tag k="name" v="Rødsanddalsvatnet" />
		<tag k="natural" v="water" />
		<tag k="ssr:stedsnr" v="806762" />
	</node>
	<node id="-20083" lat="68.8452972196" lon="14.8363500075">
		<tag k="name" v="Børøyvatnet" />
		<tag k="natural" v="water" />
		<tag k="ssr:stedsnr" v="343072" />
	</node>
	<node id="-19570" lat="68.9216138893" lon="14.9357194568">
		<tag k="name" v="Gårdselva" />
		<tag k="ssr:stedsnr" v="950043" />
		<tag k="waterway" v="stream" />
	</node>
	<node id="-20590" lat="68.9719861085" lon="15.1347250044">
		<tag k="name" v="Hammarvatnet" />
		<tag k="natural" v="water" />
		<tag k="ssr:stedsnr" v="806606" />
	</node>
	<node id="-19563" lat="68.8681555566" lon="15.2401972136">
		<tag k="name" v="Likkjvatnet" />
		<tag k="natural" v="water" />
		<tag k="ssr:stedsnr" v="947746" />
		<tag k="water" v="lake" />
	</node>
	<node id="-20586" lat="68.9946472258" lon="15.1821583228">
		<tag k="name" v="Steinvatnet" />
		<tag k="natural" v="water" />
		<tag k="ssr:stedsnr" v="806563" />
	</node>
	<node id="-19191" lat="68.9735722204" lon="15.1206222313">
		<tag k="name" v="Klovatnan" />
		<tag k="natural" v="water" />
		<tag k="ssr:stedsnr" v="480473" />
		<tag k="water" v="lake" />
	</node>
	<node id="-20581" lat="69.0109027744" lon="15.1133222251">
		<tag k="alt_name" v="Likkjdalsvatnet" />
		<tag k="name" v="Litledalsvatnet" />
		<tag k="natural" v="water" />
		<tag k="ssr:stedsnr" v="806342" />
	</node>
	<node id="-19555" lat="68.9989416661" lon="15.174441673">
		<tag k="name" v="Katrinatjønna" />
		<tag k="natural" v="water" />
		<tag k="ssr:stedsnr" v="946748" />
	</node>
	<node id="-20578" lat="68.8138194423" lon="15.2305861114">
		<tag k="name" v="Lakselva" />
		<tag k="ssr:stedsnr" v="806290" />
		<tag k="waterway" v="stream" />
	</node>
	<node id="-19040" lat="68.8992555598" lon="15.2718972292">
		<tag k="name" v="Matelva" />
		<tag k="ssr:stedsnr" v="461105" />
		<tag k="waterway" v="river" />
	</node>
	<node id="-18960" lat="68.8942472239" lon="14.9265166742">
		<tag k="alt_name" v="Tekkelskardvatnet" />
		<tag k="name" v="Tekkelskarvatnet" />
		<tag k="natural" v="water" />
		<tag k="ssr:stedsnr" v="200754" />
	</node>
	<node id="-20062" lat="68.9480666635" lon="15.1324805572">
		<tag k="name" v="Tretindselva" />
		<tag k="ssr:stedsnr" v="339774" />
		<tag k="waterway" v="river" />
	</node>
	<node id="-19036" lat="68.9110666665" lon="14.934680565">
		<tag k="name" v="Duken" />
		<tag k="natural" v="bay" />
		<tag k="ssr:stedsnr" v="282048" />
	</node>
	<node id="-19547" lat="68.9085861112" lon="15.2133694397">
		<tag k="name" v="Sandbukta" />
		<tag k="natural" v="bay" />
		<tag k="ssr:stedsnr" v="946081" />
	</node>
	<node id="-20057" lat="68.991861111" lon="15.0381166583">
		<tag k="name" v="Andre Nyksundvatnet" />
		<tag k="natural" v="water" />
		<tag k="ssr:stedsnr" v="339389" />
	</node>
	<node id="-20568" lat="68.8000861084" lon="15.0085722154">
		<tag k="name" v="Tverrfjellelva" />
		<tag k="ssr:stedsnr" v="785168" />
		<tag k="waterway" v="stream" />
	</node>
	<node id="-20053" lat="68.9492111065" lon="15.155363895">
		<tag k="name" v="Hattavatnet" />
		<tag k="natural" v="water" />
		<tag k="ssr:stedsnr" v="339228" />
	</node>
	<node id="-19537" lat="68.8383277787" lon="14.9998749994">
		<tag k="name" v="Senvatnet" />
		<tag k="natural" v="water" />
		<tag k="ssr:stedsnr" v="846108" />
	</node>
	<node id="-19109" lat="68.9753194425" lon="15.1384388866">
		<tag k="name" v="Storvatnet" />
		<tag k="natural" v="water" />
		<tag k="ssr:stedsnr" v="381625" />
	</node>
	<node id="-20046" lat="68.8928416624" lon="15.1795527831">
		<tag k="name" v="Holmen" />
		<tag k="place" v="islet" />
		<tag k="ssr:stedsnr" v="339135" />
	</node>
	<node id="-20045" lat="68.9013083347" lon="15.2374194394">
		<tag k="name" v="Rypneset" />
		<tag k="natural" v="cape" />
		<tag k="ssr:stedsnr" v="339110" />
	</node>
	<node id="-19146" lat="68.7924250038" lon="14.9956638897">
		<tag k="name" v="Nilsjorddalsvatnet" />
		<tag k="natural" v="water" />
		<tag k="ssr:stedsnr" v="503966" />
	</node>
	<node id="-19015" lat="68.9224805599" lon="15.1882888796">
		<tag k="alt_name" v="Steintjørna" />
		<tag k="name" v="Steinvatnet" />
		<tag k="natural" v="water" />
		<tag k="ssr:stedsnr" v="443656" />
	</node>
	<node id="-19014" lat="68.9167833304" lon="15.122430545">
		<tag k="alt_name" v="Sevtjørna" />
		<tag k="name" v="Sævtjønna" />
		<tag k="natural" v="water" />
		<tag k="ssr:stedsnr" v="443652" />
	</node>
	<node id="-19525" lat="68.8046944435" lon="15.0094166632">
		<tag k="fixme" v="multiple name tags, choose one and add the other to alt_name" />
		<tag k="name" v="Langstrandvatnet;Litlvatnet" />
		<tag k="natural" v="water" />
		<tag k="ssr:stedsnr" v="928951" />
	</node>
	<node id="-20032" lat="68.8412583365" lon="14.9894750003">
		<tag k="alt_name" v="Sminesvatnet, store" />
		<tag k="fixme" v="multiple name tags, choose one and add the other to alt_name" />
		<tag k="name" v="Sminesvatnet;Store Sminesvatnet" />
		<tag k="natural" v="water" />
		<tag k="ssr:stedsnr" v="321822" />
	</node>
	<node id="-20540" lat="68.9756666651" lon="15.1354694395">
		<tag k="name" v="Falchneset" />
		<tag k="natural" v="cape" />
		<tag k="ssr:stedsnr" v="764846" />
	</node>
	<node id="-19515" lat="68.8585083356" lon="15.2377611205">
		<tag k="fixme" v="multiple name tags, choose one and add the other to alt_name" />
		<tag k="name" v="Horndalsvatnet;Lindalsvatnet" />
		<tag k="natural" v="water" />
		<tag k="ssr:stedsnr" v="928685" />
	</node>
	<node id="-19000" lat="68.8635777824" lon="15.1913722158">
		<tag k="name" v="Svartbotnvatnet" />
		<tag k="natural" v="water" />
		<tag k="ssr:stedsnr" v="442790" />
	</node>
	<node id="-20534" lat="68.9912777739" lon="15.0334916684">
		<tag k="name" v="Første Nyksundvatnet" />
		<tag k="natural" v="water" />
		<tag k="ssr:stedsnr" v="764394" />
	</node>
	<node id="-19509" lat="68.7884611143" lon="15.0545583285">
		<tag k="name" v="Svanvatnet" />
		<tag k="natural" v="water" />
		<tag k="ssr:stedsnr" v="928346" />
	</node>
	<node id="-20614" lat="68.9363361141" lon="15.0891805684">
		<tag k="alt_name" v="Tretnedalsvatnet" />
		<tag k="name" v="Trettendalsvatnet" />
		<tag k="natural" v="water" />
		<tag k="ssr:stedsnr" v="807611" />
	</node>
	<node id="-18994" lat="68.9878638912" lon="15.1575111155">
		<tag k="name" v="Mølnåa" />
		<tag k="ssr:stedsnr" v="442568" />
		<tag k="waterway" v="stream" />
	</node>
	<node id="-20147" lat="68.7864944485" lon="14.9605999911">
		<tag k="alt_name" v="Likkj-jordelva" />
		<tag k="name" v="Litljordelva" />
		<tag k="ssr:stedsnr" v="381998" />
		<tag k="waterway" v="stream" />
	</node>
	<node id="-20528" lat="68.9066388869" lon="15.2712388794">
		<tag k="name" v="Saltosbekken" />
		<tag k="ssr:stedsnr" v="764128" />
		<tag k="waterway" v="stream" />
	</node>
	<node id="-18991" lat="68.7719055542" lon="14.8161749946">
		<tag k="alt_name" v="Sørdalsvatnet, øvre" />
		<tag k="fixme" v="multiple name tags, choose one and add the other to alt_name" />
		<tag k="name" v="Sjurtindsvatnet;Øvre Sørdalsvatnet" />
		<tag k="natural" v="water" />
		<tag k="ssr:stedsnr" v="442529" />
	</node>
	<node id="-18990" lat="69.0074916713" lon="15.1169055448">
		<tag k="name" v="Trollvatnet" />
		<tag k="natural" v="water" />
		<tag k="ssr:stedsnr" v="442355" />
	</node>
	<node id="-20524" lat="68.8915666657" lon="15.1880527742">
		<tag k="name" v="Brannholmen" />
		<tag k="natural" v="cape" />
		<tag k="ssr:stedsnr" v="764110" />
	</node>
	<node id="-20011" lat="68.8779055561" lon="15.227124994">
		<tag k="alt_name" v="Svarthammardalsvatnan" />
		<tag k="name" v="Svarthammardalsvatnet" />
		<tag k="natural" v="water" />
		<tag k="ssr:stedsnr" v="321663" />
	</node>
	<node id="-20522" lat="68.9052166649" lon="15.2386583403">
		<tag k="name" v="Kiholmen" />
		<tag k="place" v="islet" />
		<tag k="ssr:stedsnr" v="764094" />
	</node>
	<node id="-20009" lat="68.9049250005" lon="15.1712083321">
		<tag k="name" v="Stokkdiket" />
		<tag k="natural" v="water" />
		<tag k="ssr:stedsnr" v="321634" />
	</node>
	<node id="-20008" lat="68.9032694483" lon="15.1168666758">
		<tag k="name" v="Griselva" />
		<tag k="ssr:stedsnr" v="321630" />
		<tag k="waterway" v="stream" />
	</node>
	<node id="-20519" lat="68.9138111155" lon="15.2718999958">
		<tag k="name" v="Lomtjønna" />
		<tag k="natural" v="water" />
		<tag k="ssr:stedsnr" v="764038" />
	</node>
	<node id="-20518" lat="68.8585611066" lon="15.2516222253">
		<tag k="name" v="Nordalselva" />
		<tag k="ssr:stedsnr" v="764022" />
		<tag k="waterway" v="stream" />
	</node>
	<node id="-20005" lat="68.9469444453" lon="15.1335722241">
		<tag k="alt_name" v="Ørnnakkbekken" />
		<tag k="name" v="Ørnnakkelva" />
		<tag k="ssr:stedsnr" v="321609" />
		<tag k="waterway" v="stream" />
	</node>
	<node id="-19491" lat="68.7906666623" lon="15.1579944481">
		<tag k="alt_name" v="Sandskardvatnet, nedre" />
		<tag k="name" v="Nedre Sandskardvatnet" />
		<tag k="natural" v="water" />
		<tag k="ssr:stedsnr" v="806368" />
	</node>
	<node id="-20513" lat="68.802366667" lon="14.958888897">
		<tag k="name" v="Sandsetvatnet" />
		<tag k="natural" v="water" />
		<tag k="ssr:stedsnr" v="746949" />
	</node>
	<node id="-19999" lat="68.7596722238" lon="14.9998749932">
		<tag k="fixme" v="multiple name tags, choose one and add the other to alt_name" />
		<tag k="name" v="Rekdalselva;Rekelva" />
		<tag k="ssr:stedsnr" v="321555" />
		<tag k="waterway" v="river" />
	</node>
	<node id="-19482" lat="68.9883583307" lon="15.0510805597">
		<tag k="name" v="Tredje-Nyksundvatnet" />
		<tag k="natural" v="water" />
		<tag k="ssr:stedsnr" v="783423" />
	</node>
	<node id="-19481" lat="68.9947694479" lon="15.0780666597">
		<tag k="name" v="Langvadalselva" />
		<tag k="ssr:stedsnr" v="783411" />
		<tag k="waterway" v="stream" />
	</node>
	<node id="-19991" lat="68.7742750043" lon="14.7900416596">
		<tag k="name" v="Skålebøelva" />
		<tag k="ssr:stedsnr" v="321479" />
		<tag k="waterway" v="stream" />
	</node>
	<node id="-19985" lat="68.8160305583" lon="15.1703277764">
		<tag k="name" v="Åselva" />
		<tag k="ssr:stedsnr" v="321287" />
		<tag k="waterway" v="stream" />
	</node>
	<node id="-19984" lat="68.8164833313" lon="15.0793861103">
		<tag k="alt_name" v="Naversborelva" />
		<tag k="name" v="Navarsborrelva" />
		<tag k="ssr:stedsnr" v="321285" />
		<tag k="waterway" v="river" />
	</node>
	<node id="-18959" lat="68.9165361081" lon="14.8984944496">
		<tag k="name" v="Andtindvatnet" />
		<tag k="natural" v="water" />
		<tag k="ssr:stedsnr" v="200723" />
	</node>
	<node id="-20490" lat="68.732080556" lon="14.9087472183">
		<tag k="name" v="Straumelva" />
		<tag k="ssr:stedsnr" v="746241" />
		<tag k="waterway" v="stream" />
	</node>
	<node id="-20111" lat="68.7973805568" lon="14.9551805663">
		<tag k="name" v="Sandsetelva" />
		<tag k="ssr:stedsnr" v="362740" />
		<tag k="waterway" v="stream" />
	</node>
	<node id="-20737" lat="68.7688750008" lon="14.9617472193">
		<tag k="name" v="Urdskardelva" />
		<tag k="ssr:stedsnr" v="867561" />
		<tag k="waterway" v="stream" />
	</node>
	<node id="-19459" lat="68.9279583314" lon="15.0758388821">
		<tag k="alt_name" v="Minnevatnet" />
		<tag k="name" v="Minnetjønna" />
		<tag k="natural" v="water" />
		<tag k="ssr:stedsnr" v="746612" />
	</node>
	<node id="-18737" lat="68.8872805537" lon="15.102116677">
		<tag k="name" v="Okselva" />
		<tag k="ssr:stedsnr" v="18629" />
		<tag k="waterway" v="stream" />
	</node>
	<node id="-18754" lat="68.8968194444" lon="14.9946749921">
		<tag k="name" v="Gjurneselva" />
		<tag k="ssr:stedsnr" v="41322" />
		<tag k="waterway" v="stream" />
	</node>
</osm>
