<?xml version="1.0" encoding="UTF-8"?>
<osm generator="osmapis" version="0.6">
	<node id="-19450" lat="69.0188861116" lon="15.155930554">
		<tag k="amenity" v="place_of_worship" />
		<tag k="denomination" v="lutheran" />
		<tag k="name" v="Langenes" />
		<tag k="religion" v="christian" />
		<tag k="ssr:stedsnr" v="745367" />
	</node>
	<node id="-18966" lat="68.8773000024" lon="14.9725999888">
		<tag k="amenity" v="place_of_worship" />
		<tag k="denomination" v="lutheran" />
		<tag k="name" v="Øksnes" />
		<tag k="religion" v="christian" />
		<tag k="ssr:stedsnr" v="200811" />
	</node>
	<node id="-19476" lat="68.9440361146" lon="15.0153888928">
		<tag k="name" v="Damman" />
		<tag k="place" v="locality" />
		<tag k="ssr:stedsnr" v="769263" />
	</node>
	<node id="-19025" lat="68.8031027811" lon="14.7517750038">
		<tag k="name" v="Slettbakkan" />
		<tag k="place" v="locality" />
		<tag k="ssr:stedsnr" v="443946" />
	</node>
	<node id="-20038" lat="68.7830444408" lon="14.9400750099">
		<tag k="name" v="Avløysa" />
		<tag k="place" v="locality" />
		<tag k="ssr:stedsnr" v="322000" />
	</node>
	<node id="-20257" lat="68.9184388862" lon="15.0823805474">
		<tag k="amenity" v="place_of_worship" />
		<tag k="denomination" v="lutheran" />
		<tag k="name" v="Myre kirke" />
		<tag k="religion" v="christian" />
		<tag k="ssr:stedsnr" v="540444" />
	</node>
</osm>
