<?xml version="1.0" encoding="UTF-8"?>
<osm generator="osmapis" version="0.6">
	<node id="-715770" lat="68.9540916653" lon="15.2651611145">
		<tag k="name" v="Rødmyra" />
		<tag k="natural" v="wetland" />
		<tag k="ssr:stedsnr" v="525483" />
	</node>
	<node id="-714616" lat="68.954813885" lon="15.2736777712">
		<tag k="name" v="Tynnmyra" />
		<tag k="natural" v="wetland" />
		<tag k="ssr:stedsnr" v="283453" />
	</node>
	<node id="-715013" lat="68.9190750036" lon="15.1398055662">
		<tag k="name" v="Stormyra" />
		<tag k="natural" v="wetland" />
		<tag k="ssr:stedsnr" v="18616" />
	</node>
	<node id="-714614" lat="68.8783388901" lon="14.8983972119">
		<tag k="name" v="Tøymstøet" />
		<tag k="natural" v="wetland" />
		<tag k="ssr:stedsnr" v="282095" />
	</node>
	<node id="-714869" lat="68.8932805604" lon="15.2510444355">
		<tag k="name" v="Raplimyran" />
		<tag k="natural" v="wetland" />
		<tag k="ssr:stedsnr" v="400140" />
	</node>
	<node id="-715764" lat="68.9096027738" lon="14.9328916685">
		<tag k="name" v="Stålbrandsura" />
		<tag k="natural" v="scree" />
		<tag k="ssr:stedsnr" v="525044" />
	</node>
	<node id="-716274" lat="68.8601888847" lon="15.266944445">
		<tag k="name" v="Hanspetterslåtta" />
		<tag k="place" v="locality" />
		<tag k="ssr:stedsnr" v="764475" />
	</node>
	<node id="-716017" lat="69.0033388916" lon="15.1810277766">
		<tag k="name" v="Fagervollen" />
		<tag k="place" v="locality" />
		<tag k="ssr:stedsnr" v="642742" />
	</node>
	<node id="-716398" lat="68.8658111135" lon="15.273747211">
		<tag k="name" v="Langmyra" />
		<tag k="natural" v="wetland" />
		<tag k="ssr:stedsnr" v="825015" />
	</node>
	<node id="-714731" lat="68.8956166702" lon="15.2418888855">
		<tag k="name" v="Kvilesteinen" />
		<tag k="natural" v="stone" />
		<tag k="ssr:stedsnr" v="339153" />
	</node>
	<node id="-715881" lat="68.9038277776" lon="15.1029888923">
		<tag k="name" v="Avinmyra" />
		<tag k="natural" v="wetland" />
		<tag k="ssr:stedsnr" v="582219" />
	</node>
	<node id="-714593" lat="68.8678694468" lon="15.2759861174">
		<tag k="name" v="Vedhøggan" />
		<tag k="place" v="locality" />
		<tag k="ssr:stedsnr" v="279784" />
	</node>
	<node id="-715872" lat="68.8630888923" lon="15.2640222148">
		<tag k="name" v="Fagermarka" />
		<tag k="place" v="locality" />
		<tag k="ssr:stedsnr" v="582016" />
	</node>
	<node id="-714590" lat="68.8690000037" lon="15.2462972138">
		<tag k="name" v="Svartskogen" />
		<tag k="place" v="locality" />
		<tag k="ssr:stedsnr" v="279766" />
	</node>
	<node id="-715737" lat="68.8660972225" lon="15.261972215">
		<tag k="name" v="Vassbekkmyra" />
		<tag k="natural" v="wetland" />
		<tag k="ssr:stedsnr" v="521024" />
	</node>
	<node id="-715479" lat="68.8633555527" lon="14.9691861171">
		<tag k="name" v="Rotmarka" />
		<tag k="place" v="locality" />
		<tag k="ssr:stedsnr" v="239342" />
	</node>
	<node id="-714836" lat="68.9030972205" lon="15.259472228">
		<tag k="alt_name" v="Alsvågmyran" />
		<tag k="name" v="Alsvågmyra" />
		<tag k="natural" v="wetland" />
		<tag k="ssr:stedsnr" v="381693" />
	</node>
	<node id="-716626" lat="68.8617027803" lon="15.2792138911">
		<tag k="name" v="Buskesteinen" />
		<tag k="natural" v="stone" />
		<tag k="ssr:stedsnr" v="946024" />
	</node>
	<node id="-716172" lat="68.9388972252" lon="15.0170305463">
		<tag k="name" v="Finnsæterura" />
		<tag k="natural" v="scree" />
		<tag k="ssr:stedsnr" v="709299" />
	</node>
	<node id="-715214" lat="68.8189305526" lon="15.0709277651">
		<tag k="name" v="Gjerbergan" />
		<tag k="natural" v="scree" />
		<tag k="ssr:stedsnr" v="102553" />
	</node>
	<node id="-715211" lat="68.9100361114" lon="14.9791083382">
		<tag k="name" v="Klumpmyra" />
		<tag k="natural" v="wetland" />
		<tag k="ssr:stedsnr" v="102376" />
	</node>
	<node id="-715207" lat="68.879866663" lon="15.1933722122">
		<tag k="name" v="Jutjorda" />
		<tag k="place" v="locality" />
		<tag k="ssr:stedsnr" v="101632" />
	</node>
	<node id="-716001" lat="68.8965972209" lon="15.2577277797">
		<tag k="name" v="Mellasteinen" />
		<tag k="natural" v="stone" />
		<tag k="ssr:stedsnr" v="642136" />
	</node>
	<node id="-715714" lat="68.9137055514" lon="14.9059694377">
		<tag k="name" v="Nordsandmarka" />
		<tag k="place" v="locality" />
		<tag k="ssr:stedsnr" v="503702" />
	</node>
	<node id="-716481" lat="68.8612472206" lon="14.9766444562">
		<tag k="name" v="Sminesmarka" />
		<tag k="place" v="locality" />
		<tag k="ssr:stedsnr" v="846341" />
	</node>
	<node id="-716480" lat="68.7960027809" lon="15.0126833386">
		<tag k="name" v="Myran" />
		<tag k="natural" v="wetland" />
		<tag k="ssr:stedsnr" v="846150" />
	</node>
	<node id="-715167" lat="68.8949777783" lon="15.2489000013">
		<tag k="name" v="Grønnlimyran" />
		<tag k="natural" v="wetland" />
		<tag k="ssr:stedsnr" v="97137" />
	</node>
	<node id="-716088" lat="68.9922083328" lon="15.1619916662">
		<tag k="name" v="Høljanmyra" />
		<tag k="natural" v="wetland" />
		<tag k="ssr:stedsnr" v="685573" />
	</node>
	<node id="-715062" lat="68.868252774" lon="15.2477305556">
		<tag k="name" v="Jorden" />
		<tag k="place" v="locality" />
		<tag k="ssr:stedsnr" v="36762" />
	</node>
	<node id="-715568" lat="68.8297166645" lon="14.8335388802">
		<tag k="name" v="Ballursteinen" />
		<tag k="natural" v="stone" />
		<tag k="ssr:stedsnr" v="423807" />
	</node>
	<node id="-715182" lat="68.8762805599" lon="15.2868805448">
		<tag k="name" v="Huldersteinen" />
		<tag k="natural" v="stone" />
		<tag k="ssr:stedsnr" v="97802" />
	</node>
	<node id="-716202" lat="68.8280805538" lon="14.8305222133">
		<tag k="name" v="Ballura" />
		<tag k="natural" v="scree" />
		<tag k="ssr:stedsnr" v="726804" />
	</node>
	<node id="-715305" lat="68.8846722247" lon="15.2845027793">
		<tag k="name" v="Sandanmarka" />
		<tag k="place" v="locality" />
		<tag k="ssr:stedsnr" v="157755" />
	</node>
	<node id="-715432" lat="68.8631083354" lon="15.2643222297">
		<tag k="name" v="Fagermarka" />
		<tag k="place" v="locality" />
		<tag k="ssr:stedsnr" v="218023" />
	</node>
	<node id="-716401" lat="68.9146277736" lon="15.2672527711">
		<tag k="name" v="Tørrtjønnan" />
		<tag k="natural" v="wetland" />
		<tag k="ssr:stedsnr" v="825025" />
	</node>
	<node id="-716195" lat="68.7985722183" lon="14.9580777663">
		<tag k="name" v="Vassmyra" />
		<tag k="natural" v="wetland" />
		<tag k="ssr:stedsnr" v="726745" />
	</node>
	<node id="-715679" lat="68.7911027739" lon="15.0364833371">
		<tag k="name" v="Kavåsmyran" />
		<tag k="natural" v="wetland" />
		<tag k="ssr:stedsnr" v="481162" />
	</node>
	<node id="-716701" lat="68.825508335" lon="14.9370388877">
		<tag k="name" v="Gummikirka" />
		<tag k="natural" v="stone" />
		<tag k="ssr:stedsnr" v="969868" />
	</node>
	<node id="-714907" lat="68.9191361114" lon="15.3097833212">
		<tag k="name" v="Småjorda" />
		<tag k="place" v="locality" />
		<tag k="ssr:stedsnr" v="406712" />
	</node>
	<node id="-714951" lat="68.9464083356" lon="15.2517500074">
		<tag k="name" v="Husjordmyra" />
		<tag k="natural" v="wetland" />
		<tag k="ssr:stedsnr" v="890589" />
	</node>
	<node id="-716184" lat="69.0028888857" lon="15.0736944491">
		<tag k="name" v="Rasmusmyra" />
		<tag k="natural" v="scree" />
		<tag k="ssr:stedsnr" v="723417" />
	</node>
	<node id="-716565" lat="68.8297583355" lon="14.7162499962">
		<tag k="name" v="Jomyra" />
		<tag k="natural" v="wetland" />
		<tag k="ssr:stedsnr" v="907636" />
	</node>
	<node id="-716052" lat="68.9085944423" lon="14.9882222245">
		<tag k="name" v="Tjønnmyra" />
		<tag k="natural" v="wetland" />
		<tag k="ssr:stedsnr" v="648335" />
	</node>
	<node id="-715630" lat="68.9424555599" lon="15.159655548">
		<tag k="name" v="Strengelvågmyran" />
		<tag k="natural" v="wetland" />
		<tag k="ssr:stedsnr" v="461243" />
	</node>
	<node id="-716690" lat="68.8248444411" lon="14.7996638878">
		<tag k="name" v="Hagan" />
		<tag k="natural" v="wetland" />
		<tag k="ssr:stedsnr" v="967617" />
	</node>
	<node id="-716419" lat="68.8567027799" lon="15.2644444421">
		<tag k="name" v="Lommyra" />
		<tag k="natural" v="wetland" />
		<tag k="ssr:stedsnr" v="825433" />
	</node>
	<node id="-715150" lat="68.9216222201" lon="14.9144916746">
		<tag k="name" v="Andtindmyra" />
		<tag k="natural" v="wetland" />
		<tag k="ssr:stedsnr" v="79714" />
	</node>
	<node id="-716301" lat="68.9457833372" lon="15.25471112">
		<tag k="name" v="Jordmorsteinen" />
		<tag k="natural" v="stone" />
		<tag k="ssr:stedsnr" v="768553" />
	</node>
	<node id="-716684" lat="68.8370722245" lon="15.0032277749">
		<tag k="name" v="Finnkjerka" />
		<tag k="natural" v="stone" />
		<tag k="ssr:stedsnr" v="967109" />
	</node>
	<node id="-716298" lat="68.9424277808" lon="15.2737249906">
		<tag k="name" v="Tjønnmyra" />
		<tag k="natural" v="wetland" />
		<tag k="ssr:stedsnr" v="768537" />
	</node>
	<node id="-715653" lat="68.8855555525" lon="14.9056277696">
		<tag k="name" v="Harramyra" />
		<tag k="natural" v="wetland" />
		<tag k="ssr:stedsnr" v="464109" />
	</node>
	<node id="-714771" lat="68.8747583306" lon="14.8920472316">
		<tag k="name" v="Myran" />
		<tag k="natural" v="wetland" />
		<tag k="ssr:stedsnr" v="343088" />
	</node>
	<node id="-716417" lat="68.9178999997" lon="15.1606500095">
		<tag k="name" v="Sørvågmyra" />
		<tag k="natural" v="wetland" />
		<tag k="ssr:stedsnr" v="825430" />
	</node>
</osm>
