<?xml version="1.0" encoding="UTF-8"?>
<osm generator="osmapis" version="0.6">
	<node id="-18940" lat="69.0159196979" lon="15.1587137272">
		<tag k="fixme" v="consider place=hamlet" />
		<tag k="name" v="Langenes" />
		<tag k="place" v="farm" />
		<tag k="ssr:stedsnr" v="199335" />
	</node>
	<node id="-19962" lat="68.9359638848" lon="15.1159166776">
		<tag k="fixme" v="consider place=hamlet" />
		<tag k="name" v="Skogly" />
		<tag k="place" v="village" />
		<tag k="ssr:stedsnr" v="200630" />
	</node>
	<node id="-19448" lat="68.7968418789" lon="15.0227348898">
		<tag k="fixme" v="consider place=hamlet" />
		<tag k="name" v="Kavåsen" />
		<tag k="place" v="farm" />
		<tag k="ssr:stedsnr" v="906366" />
	</node>
	<node id="-19955" lat="68.9154988381" lon="15.2157724779">
		<tag k="fixme" v="consider place=hamlet" />
		<tag k="name" v="Sørvågen" />
		<tag k="place" v="farm" />
		<tag k="ssr:stedsnr" v="199675" />
	</node>
	<node id="-20463" lat="68.8729138929" lon="15.2846000132">
		<tag k="name" v="Grindta" />
		<tag k="place" v="farm" />
		<tag k="ssr:stedsnr" v="643800" />
	</node>
	<node id="-19949" lat="69.0187158381" lon="15.1241556406">
		<tag k="fixme" v="consider place=hamlet" />
		<tag k="name" v="Stø" />
		<tag k="place" v="farm" />
		<tag k="ssr:stedsnr" v="199339" />
	</node>
	<node id="-19946" lat="68.8125111148" lon="14.8204527887">
		<tag k="name" v="Berge" />
		<tag k="place" v="farm" />
		<tag k="ssr:stedsnr" v="180882" />
	</node>
	<node id="-19945" lat="68.8144284873" lon="14.897885078">
		<tag k="alt_name" v="Langøy" />
		<tag k="fixme" v="consider place=hamlet" />
		<tag k="name" v="Langøya" />
		<tag k="place" v="farm" />
		<tag k="ssr:stedsnr" v="180878" />
	</node>
	<node id="-18919" lat="68.8145444467" lon="15.1634972241">
		<tag k="name" v="Høgda" />
		<tag k="place" v="farm" />
		<tag k="ssr:stedsnr" v="283538" />
	</node>
	<node id="-20817" lat="68.768737548" lon="15.0022789033">
		<tag k="fixme" v="multiple name tags, choose one and add the other to alt_name" />
		<tag k="name" v="Granaunet;Skjelfjord grana" />
		<tag k="place" v="farm" />
		<tag k="ssr:stedsnr" v="1077784" />
	</node>
	<node id="-19932" lat="68.804355558" lon="14.7731555624">
		<tag k="name" v="Finnvågan" />
		<tag k="place" v="farm" />
		<tag k="ssr:stedsnr" v="172847" />
	</node>
	<node id="-18938" lat="68.8174138894" lon="15.0423388917">
		<tag k="name" v="Strandhaugen" />
		<tag k="place" v="isolated_dwelling" />
		<tag k="ssr:stedsnr" v="199303" />
	</node>
	<node id="-20441" lat="68.885719445" lon="15.0884777676">
		<tag k="fixme" v="consider place=hamlet" />
		<tag k="name" v="Gamjorda" />
		<tag k="place" v="farm" />
		<tag k="ssr:stedsnr" v="642158" />
	</node>
	<node id="-19414" lat="68.8114916631" lon="15.1993722143">
		<tag k="fixme" v="consider place=hamlet" />
		<tag k="name" v="Lifjordeidet" />
		<tag k="place" v="farm" />
		<tag k="ssr:stedsnr" v="890607" />
	</node>
	<node id="-19917" lat="68.8602277786" lon="14.9461333354">
		<tag k="name" v="Rota" />
		<tag k="place" v="isolated_dwelling" />
		<tag k="ssr:stedsnr" v="161085" />
	</node>
	<node id="-20427" lat="68.8180067666" lon="14.7669698283">
		<tag k="fixme" v="consider place=hamlet" />
		<tag k="name" v="Vinje" />
		<tag k="place" v="farm" />
		<tag k="ssr:stedsnr" v="624885" />
	</node>
	<node id="-20812" lat="68.932863679" lon="15.0498069577">
		<tag k="fixme" v="consider place=hamlet" />
		<tag k="name" v="Høydal" />
		<tag k="place" v="farm" />
		<tag k="ssr:stedsnr" v="1076797" />
	</node>
	<node id="-18884" lat="68.8280305551" lon="15.0167972213">
		<tag k="name" v="Bakkejord" />
		<tag k="place" v="isolated_dwelling" />
		<tag k="ssr:stedsnr" v="159927" />
	</node>
	<node id="-19275" lat="68.9158638917" lon="15.2437805617">
		<tag k="name" v="Straumen" />
		<tag k="place" v="farm" />
		<tag k="ssr:stedsnr" v="704074" />
	</node>
	<node id="-19903" lat="69.0183583372" lon="15.1564277758">
		<tag k="fixme" v="consider place=hamlet" />
		<tag k="name" v="Langenes" />
		<tag k="place" v="village" />
		<tag k="ssr:stedsnr" v="157853" />
	</node>
	<node id="-18872" lat="68.9550083346" lon="15.1707249973">
		<tag k="name" v="Melkeberget" />
		<tag k="place" v="farm" />
		<tag k="ssr:stedsnr" v="279224" />
	</node>
	<node id="-19017" lat="68.8517000012" lon="15.1458388957">
		<tag k="fixme" v="consider place=hamlet" />
		<tag k="name" v="Steinland" />
		<tag k="place" v="farm" />
		<tag k="ssr:stedsnr" v="443683" />
	</node>
	<node id="-18867" lat="68.8110222222" lon="15.1798833317">
		<tag k="name" v="Palmåsen" />
		<tag k="place" v="farm" />
		<tag k="ssr:stedsnr" v="138304" />
	</node>
	<node id="-20402" lat="68.901875003" lon="15.2797138779">
		<tag k="name" v="Alsvåg" />
		<tag k="place" v="village" />
		<tag k="ssr:stedsnr" v="624662" />
	</node>
	<node id="-20396" lat="68.935155684" lon="15.2693097394">
		<tag k="alt_name" v="Gisløy" />
		<tag k="fixme" v="consider place=hamlet" />
		<tag k="name" v="Gisløya" />
		<tag k="place" v="farm" />
		<tag k="ssr:stedsnr" v="624628" />
	</node>
	<node id="-18857" lat="68.828883665" lon="14.7951622898">
		<tag k="name" v="Gudmundsvik" />
		<tag k="place" v="locality" />
		<tag k="ssr:stedsnr" v="118627" />
	</node>
	<node id="-19880" lat="68.7932027809" lon="14.9342583238">
		<tag k="fixme" v="consider place=hamlet" />
		<tag k="name" v="Sandset" />
		<tag k="place" v="village" />
		<tag k="ssr:stedsnr" v="139977" />
	</node>
	<node id="-20387" lat="68.8110277807" lon="15.1555138785">
		<tag k="name" v="Tuva" />
		<tag k="place" v="farm" />
		<tag k="ssr:stedsnr" v="624288" />
	</node>
	<node id="-19013" lat="68.9140027818" lon="15.0784305608">
		<tag k="name" v="Myre" />
		<tag k="place" v="village" />
		<tag k="ssr:stedsnr" v="443649" />
	</node>
	<node id="-20378" lat="68.9224269529" lon="14.9389331808">
		<tag k="fixme" v="consider place=hamlet" />
		<tag k="name" v="Nordsand" />
		<tag k="place" v="farm" />
		<tag k="ssr:stedsnr" v="624156" />
	</node>
	<node id="-18841" lat="68.7824" lon="14.9511999894">
		<tag k="name" v="Elverum" />
		<tag k="place" v="farm" />
		<tag k="ssr:stedsnr" v="260999" />
	</node>
	<node id="-19862" lat="68.8558638889" lon="15.1181944502">
		<tag k="fixme" v="multiple name tags, choose one and add the other to alt_name" />
		<tag k="name" v="Stranda;Ytterstranda" />
		<tag k="place" v="farm" />
		<tag k="ssr:stedsnr" v="139681" />
	</node>
	<node id="-19861" lat="68.8612358183" lon="15.1201170895">
		<tag k="alt_name" v="Bollevågen" />
		<tag k="fixme" v="consider place=hamlet" />
		<tag k="name" v="Bollvågen" />
		<tag k="place" v="farm" />
		<tag k="ssr:stedsnr" v="139680" />
	</node>
	<node id="-19348" lat="68.7904500038" lon="14.8493611222">
		<tag k="name" v="Mellajorden" />
		<tag k="place" v="farm" />
		<tag k="ssr:stedsnr" v="726764" />
	</node>
	<node id="-19859" lat="68.9173194475" lon="15.2094805551">
		<tag k="name" v="Bustad" />
		<tag k="place" v="farm" />
		<tag k="ssr:stedsnr" v="139653" />
	</node>
	<node id="-18856" lat="68.8136107325" lon="15.0188093082">
		<tag k="alt_name" v="Langstrand" />
		<tag k="fixme" v="consider place=hamlet" />
		<tag k="name" v="Langstranda" />
		<tag k="place" v="farm" />
		<tag k="ssr:stedsnr" v="118116" />
	</node>
	<node id="-19857" lat="68.9308361141" lon="15.0539888865">
		<tag k="alt_name" v="Høydal" />
		<tag k="fixme" v="consider place=hamlet" />
		<tag k="name" v="Høydalen" />
		<tag k="place" v="village" />
		<tag k="ssr:stedsnr" v="139624" />
	</node>
	<node id="-18682" lat="68.9072194447" lon="15.137863879">
		<tag k="name" v="Øvergårdskrysset" />
		<tag k="place" v="farm" />
		<tag k="ssr:stedsnr" v="218075" />
	</node>
	<node id="-19850" lat="68.9774994932" lon="15.0203257275">
		<tag k="name" v="Vottestad" />
		<tag k="place" v="farm" />
		<tag k="ssr:stedsnr" v="138624" />
	</node>
	<node id="-19337" lat="68.8609722193" lon="14.9881722216">
		<tag k="name" v="Kjellarbakken" />
		<tag k="place" v="farm" />
		<tag k="ssr:stedsnr" v="602387" />
	</node>
	<node id="-19848" lat="68.9822197488" lon="15.1737629315">
		<tag k="fixme" v="consider place=hamlet" />
		<tag k="name" v="Klo" />
		<tag k="place" v="farm" />
		<tag k="ssr:stedsnr" v="138570" />
	</node>
	<node id="-19842" lat="68.8137290931" lon="15.159273558">
		<tag k="fixme" v="consider place=hamlet" />
		<tag k="name" v="Elvenes" />
		<tag k="place" v="farm" />
		<tag k="ssr:stedsnr" v="138301" />
	</node>
	<node id="-18817" lat="68.8921972269" lon="15.2949833275">
		<tag k="name" v="Småsandan" />
		<tag k="old_name" v="Småsanden" />
		<tag k="place" v="farm" />
		<tag k="ssr:stedsnr" v="260756" />
	</node>
	<node id="-18813" lat="68.897211115" lon="15.1246111079">
		<tag k="alt_name" v="Øvergård" />
		<tag k="fixme" v="consider place=hamlet" />
		<tag k="name" v="Øvergården" />
		<tag k="place" v="farm" />
		<tag k="ssr:stedsnr" v="260691" />
	</node>
	<node id="-19836" lat="68.8163999957" lon="14.8101305504">
		<tag k="name" v="Skifte" />
		<tag k="place" v="farm" />
		<tag k="ssr:stedsnr" v="119898" />
	</node>
	<node id="-19321" lat="68.8743416661" lon="14.887177766">
		<tag k="name" v="Solheim" />
		<tag k="place" v="farm" />
		<tag k="ssr:stedsnr" v="585091" />
	</node>
	<node id="-18808" lat="68.7984788609" lon="15.0455617233">
		<tag k="fixme" v="consider place=hamlet" />
		<tag k="name" v="Finnjorda" />
		<tag k="place" v="farm" />
		<tag k="ssr:stedsnr" v="260404" />
	</node>
	<node id="-19831" lat="68.7848888867" lon="14.9601833351">
		<tag k="name" v="Likkjorda" />
		<tag k="place" v="farm" />
		<tag k="ssr:stedsnr" v="117180" />
	</node>
	<node id="-20338" lat="68.881316669" lon="15.2954527805">
		<tag k="name" v="Trasthågen" />
		<tag k="place" v="isolated_dwelling" />
		<tag k="ssr:stedsnr" v="582004" />
	</node>
	<node id="-18799" lat="68.9077472262" lon="15.1581944333">
		<tag k="name" v="Nergard" />
		<tag k="place" v="farm" />
		<tag k="ssr:stedsnr" v="260677" />
	</node>
	<node id="-18749" lat="68.8768972198" lon="14.9159333433">
		<tag k="name" v="Solbakken" />
		<tag k="place" v="farm" />
		<tag k="ssr:stedsnr" v="39057" />
	</node>
	<node id="-19817" lat="68.7802361075" lon="14.9867055424">
		<tag k="fixme" v="consider place=hamlet" />
		<tag k="name" v="Skjærfjorden - Skearavuotna" />
		<tag k="name:no" v="Skjærfjorden" />
		<tag k="name:se" v="Skearavuotna" />
		<tag k="old_name:no" v="Skjelfjorden" />
		<tag k="place" v="farm" />
		<tag k="ssr:stedsnr" v="101814" />
	</node>
	<node id="-19345" lat="68.8783416655" lon="14.970111116">
		<tag k="name" v="Øksnes" />
		<tag k="place" v="farm" />
		<tag k="ssr:stedsnr" v="724328" />
	</node>
	<node id="-20324" lat="68.7842316657" lon="14.9657145751">
		<tag k="alt_name" v="Indre Ramsvik" />
		<tag k="fixme" v="consider place=hamlet" />
		<tag k="name" v="Ramsvika" />
		<tag k="place" v="farm" />
		<tag k="ssr:stedsnr" v="563998" />
	</node>
	<node id="-20322" lat="68.8177125365" lon="14.8018582784">
		<tag k="fixme" v="consider place=hamlet" />
		<tag k="name" v="Barkestad" />
		<tag k="place" v="farm" />
		<tag k="ssr:stedsnr" v="563922" />
	</node>
	<node id="-18784" lat="68.8764222271" lon="15.293719434">
		<tag k="name" v="Gammen" />
		<tag k="place" v="farm" />
		<tag k="ssr:stedsnr" v="97002" />
	</node>
	<node id="-19807" lat="68.8743079651" lon="14.9029819751">
		<tag k="alt_name" v="Inner-Tunstad" />
		<tag k="name" v="Inner-Tunnstad" />
		<tag k="place" v="farm" />
		<tag k="ssr:stedsnr" v="100087" />
	</node>
	<node id="-20309" lat="68.8596698289" lon="14.9467692655">
		<tag k="name" v="Rota" />
		<tag k="place" v="farm" />
		<tag k="ssr:stedsnr" v="563835" />
	</node>
	<node id="-20818" lat="68.7747034328" lon="14.9665945127">
		<tag k="name" v="Haugen" />
		<tag k="old_name" v="Skjelfjord Hauge" />
		<tag k="place" v="farm" />
		<tag k="ssr:stedsnr" v="1077785" />
	</node>
	<node id="-19793" lat="68.9128444446" lon="15.1741361186">
		<tag k="name" v="Stakkelv" />
		<tag k="place" v="farm" />
		<tag k="ssr:stedsnr" v="97466" />
	</node>
	<node id="-20816" lat="68.9005546208" lon="15.2739250027">
		<tag k="fixme" v="consider place=hamlet" />
		<tag k="name" v="Alsvåg" />
		<tag k="place" v="farm" />
		<tag k="ssr:stedsnr" v="1076808" />
	</node>
	<node id="-20815" lat="68.9611149182" lon="15.184364179">
		<tag k="fixme" v="consider place=hamlet" />
		<tag k="name" v="Strengelvåg" />
		<tag k="place" v="farm" />
		<tag k="ssr:stedsnr" v="1076807" />
	</node>
	<node id="-20814" lat="68.9961039293" lon="15.0121580799">
		<tag k="fixme" v="consider place=hamlet" />
		<tag k="name" v="Nyksund" />
		<tag k="place" v="farm" />
		<tag k="ssr:stedsnr" v="1076800" />
	</node>
	<node id="-20813" lat="68.962152424" lon="14.9452245153">
		<tag k="name" v="Gåsøya" />
		<tag k="place" v="locality" />
		<tag k="ssr:stedsnr" v="1076799" />
	</node>
	<node id="-20300" lat="68.8531900255" lon="15.0456436557">
		<tag k="fixme" v="consider place=hamlet" />
		<tag k="name" v="Hornet" />
		<tag k="place" v="farm" />
		<tag k="ssr:stedsnr" v="563752" />
	</node>
	<node id="-20811" lat="68.8758909738" lon="14.9031971306">
		<tag k="fixme" v="consider place=hamlet" />
		<tag k="name" v="Tunnstad" />
		<tag k="place" v="farm" />
		<tag k="ssr:stedsnr" v="1076778" />
	</node>
	<node id="-20810" lat="68.8493389739" lon="14.9289585604">
		<tag k="name" v="Dalen" />
		<tag k="place" v="locality" />
		<tag k="ssr:stedsnr" v="1076777" />
	</node>
	<node id="-20809" lat="68.8340731302" lon="14.8114220384">
		<tag k="name" v="Brønvåg" />
		<tag k="place" v="locality" />
		<tag k="ssr:stedsnr" v="1076772" />
	</node>
	<node id="-20808" lat="68.8461059683" lon="14.7764967569">
		<tag k="fixme" v="consider place=hamlet" />
		<tag k="name" v="Fagervoll" />
		<tag k="place" v="farm" />
		<tag k="ssr:stedsnr" v="1076753" />
	</node>
	<node id="-20806" lat="68.9058142277" lon="15.2274550145">
		<tag k="name" v="RYPHAUG" />
		<tag k="place" v="farm" />
		<tag k="ssr:stedsnr" v="1075985" />
	</node>
	<node id="-20293" lat="68.9162166694" lon="15.0662833269">
		<tag k="name" v="Eriksrud" />
		<tag k="place" v="farm" />
		<tag k="ssr:stedsnr" v="563698" />
	</node>
	<node id="-20291" lat="68.9078583302" lon="15.1340194363">
		<tag k="name" v="Heimoen" />
		<tag k="place" v="farm" />
		<tag k="ssr:stedsnr" v="563674" />
	</node>
	<node id="-19595" lat="68.8657138869" lon="15.1015194409">
		<tag k="name" v="Lønskog" />
		<tag k="place" v="farm" />
		<tag k="ssr:stedsnr" v="905470" />
	</node>
	<node id="-20798" lat="68.8055526095" lon="14.7741962316">
		<tag k="fixme" v="consider place=hamlet" />
		<tag k="name" v="Finnvågan" />
		<tag k="place" v="farm" />
		<tag k="ssr:stedsnr" v="989752" />
	</node>
	<node id="-20797" lat="68.7784220446" lon="14.9737869838">
		<tag k="name" v="Skjellbogen" />
		<tag k="place" v="farm" />
		<tag k="ssr:stedsnr" v="972895" />
	</node>
	<node id="-19252" lat="68.7840602493" lon="14.891500469">
		<tag k="fixme" v="consider place=hamlet" />
		<tag k="name" v="Sigerland" />
		<tag k="place" v="farm" />
		<tag k="ssr:stedsnr" v="685984" />
	</node>
	<node id="-19766" lat="68.7804319993" lon="14.9296607709">
		<tag k="fixme" v="consider place=hamlet" />
		<tag k="name" v="Dungan" />
		<tag k="place" v="farm" />
		<tag k="ssr:stedsnr" v="78999" />
	</node>
	<node id="-19764" lat="68.8472593354" lon="14.7792203504">
		<tag k="name" v="Fagervoll" />
		<tag k="place" v="farm" />
		<tag k="ssr:stedsnr" v="78853" />
	</node>
	<node id="-18824" lat="68.8751996185" lon="14.9306478211">
		<tag k="alt_name" v="Breidstrand" />
		<tag k="fixme" v="consider place=hamlet" />
		<tag k="name" v="Breistrand" />
		<tag k="place" v="farm" />
		<tag k="ssr:stedsnr" v="260841" />
	</node>
	<node id="-19246" lat="68.8279166629" lon="14.7549777884">
		<tag k="name" v="Tøa" />
		<tag k="place" v="hamlet" />
		<tag k="ssr:stedsnr" v="685863" />
	</node>
	<node id="-19506" lat="68.7855250039" lon="15.0400916658">
		<tag k="name" v="Ranheim" />
		<tag k="place" v="farm" />
		<tag k="ssr:stedsnr" v="928286" />
	</node>
	<node id="-20265" lat="68.7888694464" lon="14.9533416739">
		<tag k="name" v="Fjellheim" />
		<tag k="place" v="farm" />
		<tag k="ssr:stedsnr" v="544765" />
	</node>
	<node id="-20775" lat="68.8037132323" lon="14.8378459739">
		<tag k="fixme" v="consider place=hamlet" />
		<tag k="name" v="Austringen" />
		<tag k="place" v="farm" />
		<tag k="ssr:stedsnr" v="868920" />
	</node>
	<node id="-19505" lat="68.8175162894" lon="15.2505457706">
		<tag k="alt_name" v="Holmbakkan" />
		<tag k="fixme" v="consider place=hamlet" />
		<tag k="name" v="Holmbakken" />
		<tag k="place" v="farm" />
		<tag k="ssr:stedsnr" v="928226" />
	</node>
	<node id="-20771" lat="68.8140427641" lon="14.8224805052">
		<tag k="alt_name" v="Dyrøy" />
		<tag k="fixme" v="consider place=hamlet" />
		<tag k="name" v="Dyrøya" />
		<tag k="place" v="farm" />
		<tag k="ssr:stedsnr" v="868896" />
	</node>
	<node id="-20770" lat="68.8149718585" lon="14.7464427117">
		<tag k="alt_name" v="Ramsvik;Ytre Ramsvik" />
		<tag k="fixme" v="consider place=hamlet" />
		<tag k="name" v="Ramsvika" />
		<tag k="place" v="farm" />
		<tag k="ssr:stedsnr" v="868887" />
	</node>
	<node id="-20764" lat="68.7861833312" lon="14.7486805538">
		<tag k="alt_name" v="Sletta" />
		<tag k="name" v="Sletten" />
		<tag k="place" v="farm" />
		<tag k="ssr:stedsnr" v="867993" />
	</node>
	<node id="-19738" lat="68.8371694584" lon="15.1123604435">
		<tag k="fixme" v="consider place=hamlet" />
		<tag k="name" v="Gullvik" />
		<tag k="place" v="farm" />
		<tag k="ssr:stedsnr" v="78299" />
	</node>
	<node id="-20249" lat="68.8096143499" lon="14.7763189751">
		<tag k="fixme" v="multiple name tags, choose one and add the other to alt_name; consider place=hamlet" />
		<tag k="name" v="Bakken;Kjerkvika" />
		<tag k="place" v="farm" />
		<tag k="ssr:stedsnr" v="526736" />
	</node>
	<node id="-20760" lat="68.8279644442" lon="14.7611641847">
		<tag k="alt_name" v="Dypeide" />
		<tag k="fixme" v="consider place=hamlet" />
		<tag k="name" v="Djupeidet" />
		<tag k="place" v="farm" />
		<tag k="ssr:stedsnr" v="867876" />
	</node>
	<node id="-19222" lat="69.0180626098" lon="15.1335964017">
		<tag k="alt_name" v="Husjord" />
		<tag k="fixme" v="consider place=hamlet" />
		<tag k="name" v="Husjorda" />
		<tag k="place" v="farm" />
		<tag k="ssr:stedsnr" v="685321" />
	</node>
	<node id="-20244" lat="68.9606972213" lon="15.1864444417">
		<tag k="amenity" v="school" />
		<tag k="name" v="Strengelvåg skole" />
		<tag k="ssr:stedsnr" v="525499" />
	</node>
	<node id="-20752" lat="68.891514636" lon="14.996557873">
		<tag k="fixme" v="consider place=hamlet" />
		<tag k="name" v="Tilset" />
		<tag k="place" v="farm" />
		<tag k="ssr:stedsnr" v="867806" />
	</node>
	<node id="-19671" lat="68.8673805566" lon="15.2845777757">
		<tag k="alt_name" v="Steinsvik" />
		<tag k="name" v="Steinsvika" />
		<tag k="place" v="farm" />
		<tag k="ssr:stedsnr" v="18679" />
	</node>
	<node id="-20231" lat="68.8880555554" lon="15.2921833443">
		<tag k="name" v="Sandan" />
		<tag k="place" v="farm" />
		<tag k="ssr:stedsnr" v="522843" />
	</node>
	<node id="-18690" lat="68.9028924351" lon="15.0545169491">
		<tag k="fixme" v="multiple name tags, choose one and add the other to alt_name; consider place=hamlet" />
		<tag k="name" v="Heimsommarøy;Sommarøy" />
		<tag k="place" v="farm" />
		<tag k="ssr:stedsnr" v="218167" />
	</node>
	<node id="-18688" lat="68.8968138912" lon="15.2848833242">
		<tag k="name" v="Resset" />
		<tag k="place" v="farm" />
		<tag k="ssr:stedsnr" v="218152" />
	</node>
	<node id="-20735" lat="68.7697444423" lon="14.9195055531">
		<tag k="fixme" v="multiple name tags, choose one and add the other to alt_name" />
		<tag k="name" v="Bukta;Urskarbukta" />
		<tag k="place" v="farm" />
		<tag k="ssr:stedsnr" v="867558" />
	</node>
	<node id="-19196" lat="68.8261333307" lon="14.7561138955">
		<tag k="alt_name" v="Lynghaug" />
		<tag k="fixme" v="consider place=hamlet" />
		<tag k="name" v="Lønghågen" />
		<tag k="place" v="farm" />
		<tag k="ssr:stedsnr" v="482657" />
	</node>
	<node id="-19706" lat="68.7696096052" lon="14.9175388948">
		<tag k="fixme" v="consider place=hamlet" />
		<tag k="name" v="Seljeholet" />
		<tag k="place" v="farm" />
		<tag k="ssr:stedsnr" v="36731" />
	</node>
	<node id="-20095" lat="68.9046277787" lon="15.1368527812">
		<tag k="name" v="Melrakken" />
		<tag k="place" v="farm" />
		<tag k="ssr:stedsnr" v="343714" />
	</node>
	<node id="-20723" lat="68.8216947181" lon="15.0429491031">
		<tag k="alt_name" v="Naversbor" />
		<tag k="fixme" v="consider place=hamlet" />
		<tag k="name" v="Navarsborra" />
		<tag k="place" v="farm" />
		<tag k="ssr:stedsnr" v="867330" />
	</node>
	<node id="-19696" lat="68.9492083361" lon="15.1772166757">
		<tag k="name" v="Vangen" />
		<tag k="place" v="farm" />
		<tag k="ssr:stedsnr" v="36195" />
	</node>
	<node id="-19693" lat="68.9209083374" lon="15.0504749986">
		<tag k="name" v="Vornes" />
		<tag k="place" v="farm" />
		<tag k="ssr:stedsnr" v="36108" />
	</node>
	<node id="-20712" lat="68.792228776" lon="14.94400599">
		<tag k="fixme" v="consider place=hamlet" />
		<tag k="name" v="Sandset" />
		<tag k="place" v="farm" />
		<tag k="ssr:stedsnr" v="848739" />
	</node>
	<node id="-18812" lat="68.9022111094" lon="15.0899388991">
		<tag k="alt_name" v="Langrygg" />
		<tag k="name" v="Langryggen" />
		<tag k="place" v="hamlet" />
		<tag k="ssr:stedsnr" v="260689" />
	</node>
	<node id="-19677" lat="68.8786581001" lon="14.8843699975">
		<tag k="fixme" v="consider place=hamlet" />
		<tag k="name" v="Hjellsand" />
		<tag k="place" v="farm" />
		<tag k="ssr:stedsnr" v="18754" />
	</node>
	<node id="-20696" lat="68.8084999981" lon="14.7679583416">
		<tag k="name" v="Stranda" />
		<tag k="place" v="farm" />
		<tag k="ssr:stedsnr" v="830747" />
	</node>
	<node id="-20695" lat="68.8085611148" lon="14.7861527813">
		<tag k="name" v="Nessan" />
		<tag k="place" v="farm" />
		<tag k="ssr:stedsnr" v="830746" />
	</node>
	<node id="-20182" lat="68.8775388858" lon="14.9500694484">
		<tag k="name" v="Bjørkelia" />
		<tag k="place" v="farm" />
		<tag k="ssr:stedsnr" v="403067" />
	</node>
	<node id="-19669" lat="68.9596694433" lon="15.1821944348">
		<tag k="fixme" v="consider place=suburb, village or hamlet" />
		<tag k="name" v="Strengelvåg" />
		<tag k="place" v="quarter" />
		<tag k="ssr:stedsnr" v="18600" />
	</node>
	<node id="-19666" lat="68.8071626356" lon="14.7746485519">
		<tag k="name" v="Finnvågan" />
		<tag k="old_name" v="Finnvågen" />
		<tag k="place" v="hamlet" />
		<tag k="ssr:stedsnr" v="18935" />
	</node>
	<node id="-20689" lat="68.8441833307" lon="14.9921305451">
		<tag k="name" v="Sætran" />
		<tag k="place" v="locality" />
		<tag k="ssr:stedsnr" v="830327" />
	</node>
	<node id="-19150" lat="68.7850770881" lon="14.7446073126">
		<tag k="fixme" v="consider place=hamlet" />
		<tag k="name" v="Nærøya" />
		<tag k="place" v="farm" />
		<tag k="ssr:stedsnr" v="503987" />
	</node>
	<node id="-20166" lat="68.9109000014" lon="15.145283339">
		<tag k="name" v="Ny Jord" />
		<tag k="place" v="farm" />
		<tag k="ssr:stedsnr" v="400483" />
	</node>
	<node id="-20164" lat="68.8490250005" lon="15.0984889006">
		<tag k="name" v="Elvestranda" />
		<tag k="place" v="locality" />
		<tag k="ssr:stedsnr" v="400432" />
	</node>
	<node id="-19651" lat="68.7803888916" lon="14.7913117878">
		<tag k="fixme" v="multiple name tags, choose one and add the other to alt_name; consider place=hamlet" />
		<tag k="name" v="Skallan;Skålebøl" />
		<tag k="place" v="farm" />
		<tag k="ssr:stedsnr" v="17988" />
	</node>
	<node id="-19135" lat="68.8611321836" lon="14.9823248356">
		<tag k="fixme" v="consider place=hamlet" />
		<tag k="name" v="Smines" />
		<tag k="place" v="farm" />
		<tag k="ssr:stedsnr" v="503781" />
	</node>
	<node id="-19134" lat="68.8732305525" lon="14.8875305551">
		<tag k="alt_name" v="Engeland" />
		<tag k="name" v="England" />
		<tag k="place" v="farm" />
		<tag k="ssr:stedsnr" v="503762" />
	</node>
	<node id="-19643" lat="69.0098888911" lon="15.1676250054">
		<tag k="name" v="Tussen" />
		<tag k="place" v="farm" />
		<tag k="ssr:stedsnr" v="17354" />
	</node>
	<node id="-20153" lat="68.828356111" lon="14.748321104">
		<tag k="alt_name" v="Skipnes" />
		<tag k="fixme" v="consider place=hamlet" />
		<tag k="name" v="Skipneset" />
		<tag k="place" v="farm" />
		<tag k="ssr:stedsnr" v="382853" />
	</node>
	<node id="-19127" lat="68.909791664" lon="15.1789666638">
		<tag k="name" v="Melvoll" />
		<tag k="place" v="farm" />
		<tag k="ssr:stedsnr" v="503611" />
	</node>
	<node id="-20657" lat="69.0154611133" lon="15.1649138835">
		<tag k="alt_name" v="Stagård" />
		<tag k="name" v="Staggarn" />
		<tag k="place" v="farm" />
		<tag k="ssr:stedsnr" v="825869" />
	</node>
	<node id="-20141" lat="68.9051812642" lon="14.9869736713">
		<tag k="fixme" v="consider place=hamlet" />
		<tag k="name" v="Fjellgrimstad" />
		<tag k="place" v="farm" />
		<tag k="ssr:stedsnr" v="381799" />
	</node>
	<node id="-19116" lat="68.8179027796" lon="15.2289916721">
		<tag k="name" v="Haugen" />
		<tag k="place" v="farm" />
		<tag k="ssr:stedsnr" v="503234" />
	</node>
	<node id="-20139" lat="68.8930938273" lon="15.0919831105">
		<tag k="fixme" v="consider place=hamlet" />
		<tag k="name" v="Oppmyre" />
		<tag k="place" v="farm" />
		<tag k="ssr:stedsnr" v="381747" />
	</node>
	<node id="-20294" lat="68.9197595888" lon="15.2734797405">
		<tag k="fixme" v="consider place=hamlet" />
		<tag k="name" v="Meløya" />
		<tag k="place" v="farm" />
		<tag k="ssr:stedsnr" v="563703" />
	</node>
	<node id="-20134" lat="68.9065886615" lon="15.2974056998">
		<tag k="fixme" v="consider place=hamlet" />
		<tag k="name" v="Instøya" />
		<tag k="place" v="farm" />
		<tag k="ssr:stedsnr" v="381692" />
	</node>
	<node id="-20642" lat="68.9178555572" lon="15.2303750039">
		<tag k="name" v="Finneset" />
		<tag k="place" v="farm" />
		<tag k="ssr:stedsnr" v="825052" />
	</node>
	<node id="-19092" lat="68.7885805566" lon="14.835380549">
		<tag k="name" v="Fagerneset" />
		<tag k="place" v="farm" />
		<tag k="ssr:stedsnr" v="483732" />
	</node>
	<node id="-19526" lat="68.8159555553" lon="14.8986583233">
		<tag k="name" v="Finngården" />
		<tag k="place" v="farm" />
		<tag k="ssr:stedsnr" v="928893" />
	</node>
	<node id="-20622" lat="68.9225324026" lon="14.8516541868">
		<tag k="alt_name" v="Våje" />
		<tag k="fixme" v="consider place=hamlet" />
		<tag k="name" v="Våge" />
		<tag k="place" v="farm" />
		<tag k="ssr:stedsnr" v="807740" />
	</node>
	<node id="-20109" lat="68.7721361128" lon="14.9149666746">
		<tag k="name" v="Myra" />
		<tag k="place" v="farm" />
		<tag k="ssr:stedsnr" v="362772" />
	</node>
	<node id="-20108" lat="68.7587805518" lon="14.9099472159">
		<tag k="name" v="Gammelgården" />
		<tag k="place" v="locality" />
		<tag k="ssr:stedsnr" v="362770" />
	</node>
	<node id="-20107" lat="68.8343055522" lon="14.7270138844">
		<tag k="name" v="Sunderøy" />
		<tag k="place" v="farm" />
		<tag k="ssr:stedsnr" v="360649" />
	</node>
	<node id="-19082" lat="68.9958111113" lon="15.0134749879">
		<tag k="name" v="Nyksund" />
		<tag k="place" v="village" />
		<tag k="ssr:stedsnr" v="321153" />
	</node>
	<node id="-19076" lat="68.7822444461" lon="14.8224777856">
		<tag k="name" v="Sjurtindsbukta" />
		<tag k="place" v="farm" />
		<tag k="ssr:stedsnr" v="301703" />
	</node>
	<node id="-19587" lat="68.8779333296" lon="14.9294805533">
		<tag k="name" v="Vågen" />
		<tag k="place" v="farm" />
		<tag k="ssr:stedsnr" v="889105" />
	</node>
	<node id="-20607" lat="68.8059999964" lon="14.9294327089">
		<tag k="fixme" v="consider place=hamlet" />
		<tag k="name" v="Torset" />
		<tag k="place" v="farm" />
		<tag k="ssr:stedsnr" v="807939" />
	</node>
	<node id="-20091" lat="68.8203750031" lon="15.2513611176">
		<tag k="name" v="Anebakkan" />
		<tag k="place" v="farm" />
		<tag k="ssr:stedsnr" v="343578" />
	</node>
	<node id="-20591" lat="68.9143027809" lon="15.1943222305">
		<tag k="alt_name" v="Buset" />
		<tag k="name" v="Buraet" />
		<tag k="place" v="farm" />
		<tag k="ssr:stedsnr" v="806664" />
	</node>
	<node id="-19053" lat="68.9740047934" lon="15.1714494023">
		<tag k="name" v="Foldnaustan" />
		<tag k="place" v="locality" />
		<tag k="ssr:stedsnr" v="461844" />
	</node>
	<node id="-19045" lat="68.8853722205" lon="15.0313166772">
		<tag k="name" v="Reinøy" />
		<tag k="place" v="locality" />
		<tag k="ssr:stedsnr" v="461247" />
	</node>
	<node id="-20579" lat="68.8167500007" lon="15.1688361149">
		<tag k="name" v="Åsen" />
		<tag k="place" v="farm" />
		<tag k="ssr:stedsnr" v="806302" />
	</node>
	<node id="-19041" lat="68.9290305529" lon="15.1004416728">
		<tag k="name" v="Øvre Høydal" />
		<tag k="place" v="farm" />
		<tag k="ssr:stedsnr" v="461135" />
	</node>
	<node id="-19728" lat="68.8070333346" lon="14.7781361202">
		<tag k="name" v="Finnvågan" />
		<tag k="place" v="farm" />
		<tag k="ssr:stedsnr" v="51846" />
	</node>
	<node id="-20573" lat="68.8409835277" lon="14.8384871281">
		<tag k="fixme" v="consider place=hamlet" />
		<tag k="name" v="Børøya" />
		<tag k="place" v="farm" />
		<tag k="ssr:stedsnr" v="787762" />
	</node>
	<node id="-19641" lat="68.8153277792" lon="14.850655551">
		<tag k="name" v="Purkvik" />
		<tag k="place" v="farm" />
		<tag k="ssr:stedsnr" v="969870" />
	</node>
	<node id="-20051" lat="68.8965638848" lon="15.2728083261">
		<tag k="name" v="Småjorden" />
		<tag k="place" v="farm" />
		<tag k="ssr:stedsnr" v="339165" />
	</node>
	<node id="-19026" lat="68.7972805533" lon="14.926441676">
		<tag k="name" v="Skoltneset" />
		<tag k="place" v="farm" />
		<tag k="ssr:stedsnr" v="443985" />
	</node>
	<node id="-19043" lat="68.9105361147" lon="15.1174388943">
		<tag k="name" v="Krysset" />
		<tag k="place" v="farm" />
		<tag k="ssr:stedsnr" v="461184" />
	</node>
	<node id="-20048" lat="68.9208416684" lon="15.0867499974">
		<tag k="name" v="Svartbakken" />
		<tag k="place" v="village" />
		<tag k="ssr:stedsnr" v="339149" />
	</node>
	<node id="-19020" lat="68.8285790778" lon="14.8427944399">
		<tag k="alt_name" v="Bergseng" />
		<tag k="fixme" v="consider place=hamlet" />
		<tag k="name" v="Bersenga" />
		<tag k="place" v="farm" />
		<tag k="ssr:stedsnr" v="443854" />
	</node>
	<node id="-19019" lat="68.9251250037" lon="14.9551666711">
		<tag k="name" v="Kvalvika" />
		<tag k="place" v="farm" />
		<tag k="ssr:stedsnr" v="443722" />
	</node>
	<node id="-19529" lat="68.8237394562" lon="14.9461605949">
		<tag k="alt_name" v="Godvik" />
		<tag k="fixme" v="consider place=hamlet" />
		<tag k="name" v="Godvika" />
		<tag k="place" v="farm" />
		<tag k="ssr:stedsnr" v="928901" />
	</node>
	<node id="-19528" lat="68.8157055588" lon="14.8509500037">
		<tag k="name" v="Yttervika" />
		<tag k="place" v="farm" />
		<tag k="ssr:stedsnr" v="928899" />
	</node>
	<node id="-20550" lat="68.9032138868" lon="15.1662194561">
		<tag k="name" v="Melrabben" />
		<tag k="place" v="farm" />
		<tag k="ssr:stedsnr" v="768489" />
	</node>
	<node id="-20549" lat="68.7742277761" lon="14.9900500036">
		<tag k="name" v="Strandgården" />
		<tag k="old_name" v="Skjelfjorden" />
		<tag k="place" v="farm" />
		<tag k="ssr:stedsnr" v="768162" />
	</node>
	<node id="-20036" lat="68.7909780946" lon="14.8611225344">
		<tag k="alt_name" v="Grødset" />
		<tag k="fixme" v="consider place=hamlet" />
		<tag k="name" v="Grøtset" />
		<tag k="place" v="farm" />
		<tag k="ssr:stedsnr" v="321952" />
	</node>
	<node id="-20545" lat="68.8780794976" lon="14.9625932149">
		<tag k="fixme" v="consider place=hamlet" />
		<tag k="name" v="Øksnes" />
		<tag k="place" v="farm" />
		<tag k="ssr:stedsnr" v="767089" />
	</node>
	<node id="-20544" lat="68.87511944" lon="14.9145222211">
		<tag k="name" v="Smedvika" />
		<tag k="place" v="farm" />
		<tag k="ssr:stedsnr" v="767084" />
	</node>
	<node id="-19517" lat="68.8408305546" lon="14.7663777884">
		<tag k="name" v="Grindta" />
		<tag k="place" v="farm" />
		<tag k="ssr:stedsnr" v="928839" />
	</node>
	<node id="-19002" lat="68.8751023126" lon="14.8986606927">
		<tag k="alt_name" v="Ytter-Tunstad;Tunstad;Tunnstad" />
		<tag k="name" v="Ytter-Tunnstad" />
		<tag k="place" v="farm" />
		<tag k="ssr:stedsnr" v="442825" />
	</node>
	<node id="-20025" lat="68.918534428" lon="14.8566567938">
		<tag k="alt_name" v="Sørsanden" />
		<tag k="fixme" v="consider place=hamlet" />
		<tag k="name" v="Sørsand" />
		<tag k="place" v="farm" />
		<tag k="ssr:stedsnr" v="321741" />
	</node>
	<node id="-20023" lat="68.9252664914" lon="14.9728341347">
		<tag k="fixme" v="consider place=hamlet" />
		<tag k="name" v="Frivågen" />
		<tag k="place" v="farm" />
		<tag k="ssr:stedsnr" v="321737" />
	</node>
	<node id="-19216" lat="68.9766092976" lon="15.021977439">
		<tag k="fixme" v="consider place=hamlet" />
		<tag k="name" v="Vottestad" />
		<tag k="place" v="farm" />
		<tag k="ssr:stedsnr" v="685150" />
	</node>
	<node id="-20018" lat="68.8664261878" lon="15.1037083314">
		<tag k="alt_name" v="Lønskogen" />
		<tag k="fixme" v="consider place=hamlet" />
		<tag k="name" v="Lønnskogen" />
		<tag k="place" v="farm" />
		<tag k="ssr:stedsnr" v="321715" />
	</node>
	<node id="-20017" lat="68.8704916628" lon="15.2874388914">
		<tag k="alt_name" v="Tofta" />
		<tag k="name" v="Toften" />
		<tag k="place" v="farm" />
		<tag k="ssr:stedsnr" v="321708" />
	</node>
	<node id="-20014" lat="68.8929527791" lon="15.1269750084">
		<tag k="name" v="Skogli" />
		<tag k="place" v="farm" />
		<tag k="ssr:stedsnr" v="321678" />
	</node>
	<node id="-18989" lat="68.7870583299" lon="15.0291694328">
		<tag k="alt_name" v="Kavåsen, øvre" />
		<tag k="name" v="Øvre Kavåsen" />
		<tag k="place" v="farm" />
		<tag k="ssr:stedsnr" v="442350" />
	</node>
	<node id="-20012" lat="68.9178166687" lon="15.0628472194">
		<tag k="name" v="Sandvika" />
		<tag k="place" v="village" />
		<tag k="ssr:stedsnr" v="321664" />
	</node>
	<node id="-18987" lat="68.8286611122" lon="15.2358722243">
		<tag k="name" v="Lifjord" />
		<tag k="place" v="isolated_dwelling" />
		<tag k="ssr:stedsnr" v="442337" />
	</node>
	<node id="-20010" lat="68.8788611117" lon="15.2889527783">
		<tag k="name" v="Rødsand" />
		<tag k="place" v="farm" />
		<tag k="ssr:stedsnr" v="321654" />
	</node>
	<node id="-19497" lat="68.8818694441" lon="14.8935305489">
		<tag k="name" v="Rabban" />
		<tag k="place" v="farm" />
		<tag k="ssr:stedsnr" v="806835" />
	</node>
	<node id="-20007" lat="68.9055138861" lon="15.0628639001">
		<tag k="name" v="Sommarøy" />
		<tag k="place" v="village" />
		<tag k="ssr:stedsnr" v="321627" />
	</node>
	<node id="-20043" lat="68.8996888862" lon="15.1330638766">
		<tag k="name" v="Øvergård" />
		<tag k="place" v="farm" />
		<tag k="ssr:stedsnr" v="339078" />
	</node>
	<node id="-19121" lat="69.0064416653" lon="15.0872388938">
		<tag k="name" v="Enge" />
		<tag k="place" v="locality" />
		<tag k="ssr:stedsnr" v="386110" />
	</node>
	<node id="-19483" lat="68.8746195479" lon="15.0791458058">
		<tag k="alt_name" v="Pund-Staven" />
		<tag k="fixme" v="consider place=hamlet" />
		<tag k="name" v="Pund Staven" />
		<tag k="place" v="farm" />
		<tag k="ssr:stedsnr" v="783431" />
	</node>
	<node id="-20506" lat="68.842199993" lon="14.7558624263">
		<tag k="fixme" v="consider place=hamlet" />
		<tag k="name" v="Tinden" />
		<tag k="place" v="farm" />
		<tag k="ssr:stedsnr" v="746791" />
	</node>
	<node id="-19511" lat="68.7714305568" lon="14.9959666579">
		<tag k="name" v="Skjærfjordeidet" />
		<tag k="place" v="farm" />
		<tag k="ssr:stedsnr" v="928468" />
	</node>
	<node id="-20504" lat="68.8232500014" lon="15.0141388862">
		<tag k="name" v="Romset" />
		<tag k="place" v="farm" />
		<tag k="ssr:stedsnr" v="746876" />
	</node>
	<node id="-19477" lat="68.8430500043" lon="15.1000527828">
		<tag k="name" v="Øyjorda" />
		<tag k="place" v="locality" />
		<tag k="ssr:stedsnr" v="769277" />
	</node>
	<node id="-20495" lat="68.8600438895" lon="15.2739227776">
		<tag k="fixme" v="consider place=hamlet" />
		<tag k="name" v="Lia" />
		<tag k="place" v="farm" />
		<tag k="ssr:stedsnr" v="746679" />
	</node>
	<node id="-19982" lat="68.8116055574" lon="15.1752944503">
		<tag k="name" v="Moen" />
		<tag k="place" v="farm" />
		<tag k="ssr:stedsnr" v="321259" />
	</node>
	<node id="-18955" lat="68.7775638846" lon="14.9899777823">
		<tag k="name" v="Skjåjorda" />
		<tag k="old_name" v="Skjaajorden" />
		<tag k="place" v="farm" />
		<tag k="ssr:stedsnr" v="200531" />
	</node>
	<node id="-20484" lat="68.7939111085" lon="15.028808336">
		<tag k="fixme" v="consider place=hamlet" />
		<tag k="name" v="Kavåsen" />
		<tag k="place" v="village" />
		<tag k="ssr:stedsnr" v="745399" />
	</node>
	<node id="-18947" lat="68.9440759517" lon="15.012560843">
		<tag k="fixme" v="consider place=hamlet" />
		<tag k="name" v="Kråknes" />
		<tag k="place" v="farm" />
		<tag k="ssr:stedsnr" v="200124" />
	</node>
	<node id="-19970" lat="68.8129935538" lon="14.7552583796">
		<tag k="alt_name" v="Jarbakken" />
		<tag k="fixme" v="consider place=hamlet" />
		<tag k="name" v="Jarbakkan" />
		<tag k="place" v="farm" />
		<tag k="ssr:stedsnr" v="200912" />
	</node>
</osm>
