<?xml version="1.0" encoding="UTF-8"?>
<osm version="0.6" generator="osmapis">
	<node lat="68.76836666929366" lon="14.910833335458836" id="-12738">
		<tag k="name" v="Urdskardbukta" />
		<tag k="natural" v="bay" />
		<tag k="ssr:stedsnr" v="18510" />
	</node>
	<node lat="68.83560000113242" lon="14.734763890407281" id="-12741">
		<tag k="name" v="Strupen" />
		<tag k="natural" v="strait" />
		<tag k="ssr:stedsnr" v="18815" />
	</node>
	<node lat="68.95133333108579" lon="15.32268610637345" id="-12742">
		<tag k="name" v="Årholmbåen" />
		<tag k="natural" v="shoal" />
		<tag k="place" v="locality" />
		<tag k="ssr:stedsnr" v="18599" />
	</node>
	<node lat="68.89961389011667" lon="14.921211106517074" id="-12744">
		<tag k="alt_name" v="Skogsøy" />
		<tag k="name" v="Skogsøya" />
		<tag k="place" v="island" />
		<tag k="ssr:stedsnr" v="18712" />
	</node>
	<node lat="68.910319443042" lon="14.788219436126006" id="-12745">
		<tag k="alt_name" v="Leirbryhella" />
		<tag k="name" v="Leirbrigghella" />
		<tag k="natural" v="shoal" />
		<tag k="place" v="locality" />
		<tag k="ssr:stedsnr" v="18714" />
	</node>
	<node lat="68.85182499658988" lon="15.002036115711638" id="-12747">
		<tag k="name" v="Slåttholmen" />
		<tag k="place" v="islet" />
		<tag k="ssr:stedsnr" v="18797" />
	</node>
	<node lat="68.79746110700438" lon="14.909344441585839" id="-12754">
		<tag k="name" v="Flatholmskallen" />
		<tag k="natural" v="shoal" />
		<tag k="place" v="locality" />
		<tag k="ssr:stedsnr" v="36712" />
	</node>
	<node lat="68.7975777781238" lon="14.829566664549445" id="-12756">
		<tag k="name" v="Øyskallan" />
		<tag k="natural" v="shoal" />
		<tag k="place" v="locality" />
		<tag k="ssr:stedsnr" v="36920" />
	</node>
	<node lat="68.79388889296698" lon="14.800858341709073" id="-12757">
		<tag k="name" v="Lysgrunnskallen" />
		<tag k="natural" v="shoal" />
		<tag k="place" v="locality" />
		<tag k="ssr:stedsnr" v="36927" />
	</node>
	<node lat="68.97649166937514" lon="14.918500010597642" id="-12758">
		<tag k="name" v="Vesterbåen" />
		<tag k="natural" v="shoal" />
		<tag k="place" v="locality" />
		<tag k="ssr:stedsnr" v="37002" />
	</node>
	<node lat="68.8235583293976" lon="15.144338879439603" id="-12759">
		<tag k="name" v="Tjønnbogneset" />
		<tag k="natural" v="cape" />
		<tag k="ssr:stedsnr" v="37907" />
	</node>
	<node lat="68.83902499764193" lon="15.011369441520104" id="-12771">
		<tag k="name" v="Flatholmen" />
		<tag k="place" v="islet" />
		<tag k="ssr:stedsnr" v="239123" />
	</node>
	<node lat="68.8294833308056" lon="14.752083339599817" id="-12774">
		<tag k="name" v="Leirbogen" />
		<tag k="natural" v="bay" />
		<tag k="ssr:stedsnr" v="239675" />
	</node>
	<node lat="68.7780388930413" lon="14.71705833619951" id="-12779">
		<tag k="fixme" v="consider seamark:type=rock or natural=shoal" />
		<tag k="name" v="Nærøyskagan" />
		<tag k="place" v="islet" />
		<tag k="ssr:stedsnr" v="55533" />
	</node>
	<node lat="68.81713333537668" lon="14.851386116590898" id="-12783">
		<tag k="name" v="Bjørnskarfjorden" />
		<tag k="natural" v="strait" />
		<tag k="ssr:stedsnr" v="59878" />
	</node>
	<node lat="68.83513888828328" lon="14.812227787446488" id="-12784">
		<tag k="name" v="Bremvågen" />
		<tag k="natural" v="bay" />
		<tag k="ssr:stedsnr" v="241758" />
	</node>
	<node lat="68.9562416646492" lon="14.925813875947407" id="-12786">
		<tag k="name" v="Hanskjerfallet" />
		<tag k="natural" v="shoal" />
		<tag k="place" v="locality" />
		<tag k="ssr:stedsnr" v="78156" />
	</node>
	<node lat="68.95091389259325" lon="15.241822234325932" id="-12790">
		<tag k="name" v="Tranosen" />
		<tag k="natural" v="bay" />
		<tag k="ssr:stedsnr" v="78643" />
	</node>
	<node lat="68.96581388993046" lon="15.181444451380962" id="-12791">
		<tag k="name" v="Klubben" />
		<tag k="natural" v="cape" />
		<tag k="ssr:stedsnr" v="78701" />
	</node>
	<node lat="68.87433055921795" lon="14.66409445534323" id="-12792">
		<tag k="alt_name" v="Kagrunnen" />
		<tag k="name" v="Kaggrunnen" />
		<tag k="natural" v="shoal" />
		<tag k="place" v="locality" />
		<tag k="ssr:stedsnr" v="78806" />
	</node>
	<node lat="68.87676666583795" lon="14.768688893583839" id="-12793">
		<tag k="name" v="Medfarbåen" />
		<tag k="natural" v="shoal" />
		<tag k="place" v="locality" />
		<tag k="ssr:stedsnr" v="78809" />
	</node>
	<node lat="68.88339167049584" lon="15.016913879681239" id="-12794">
		<tag k="name" v="Reinøya" />
		<tag k="place" v="island" />
		<tag k="ssr:stedsnr" v="78811" />
	</node>
	<node lat="68.84475555961485" lon="14.816566657884671" id="-12795">
		<tag k="name" v="Skognesholman" />
		<tag k="place" v="islet" />
		<tag k="ssr:stedsnr" v="78844" />
	</node>
	<node lat="68.84873888857031" lon="14.844444437355872" id="-12797">
		<tag k="name" v="Raet" />
		<tag k="natural" v="cape" />
		<tag k="ssr:stedsnr" v="78850" />
	</node>
	<node lat="68.8463888917323" lon="14.728527787519019" id="-12799">
		<tag k="fixme" v="consider seamark:type=rock or natural=shoal" />
		<tag k="name" v="Kuskankan" />
		<tag k="place" v="islet" />
		<tag k="ssr:stedsnr" v="78857" />
	</node>
	<node lat="68.9362777788392" lon="14.876338885809428" id="-12803">
		<tag k="name" v="Søsteinen" />
		<tag k="place" v="islet" />
		<tag k="ssr:stedsnr" v="79146" />
	</node>
	<node lat="68.93706666416429" lon="15.276999989673149" id="-12805">
		<tag k="name" v="Sandvika" />
		<tag k="natural" v="bay" />
		<tag k="ssr:stedsnr" v="79602" />
	</node>
	<node lat="68.93403889003481" lon="15.189958335963924" id="-12806">
		<tag k="bay" v="fjord" />
		<tag k="name" v="Grunnfjorden" />
		<tag k="natural" v="bay" />
		<tag k="ssr:stedsnr" v="79592" />
	</node>
	<node lat="68.8184416621424" lon="14.87968333835471" id="-12807">
		<tag k="bay" v="fjord" />
		<tag k="name" v="Bjørnerøyhøla" />
		<tag k="natural" v="bay" />
		<tag k="ssr:stedsnr" v="79891" />
	</node>
	<node lat="68.88792499758875" lon="15.301461110545283" id="-12811">
		<tag k="name" v="Sandanbukta" />
		<tag k="natural" v="bay" />
		<tag k="ssr:stedsnr" v="97012" />
	</node>
	<node lat="68.92337777632359" lon="15.274011104799627" id="-12812">
		<tag k="fixme" v="consider seamark:type=rock or natural=shoal" />
		<tag k="name" v="Øyskjeret" />
		<tag k="place" v="islet" />
		<tag k="ssr:stedsnr" v="97027" />
	</node>
	<node lat="69.02980000150055" lon="15.123183334938407" id="-12815">
		<tag k="name" v="Båsen" />
		<tag k="natural" v="bay" />
		<tag k="ssr:stedsnr" v="97828" />
	</node>
	<node lat="68.95382221828606" lon="15.233569443810005" id="-12820">
		<tag k="name" v="Fjærneset" />
		<tag k="natural" v="cape" />
		<tag k="ssr:stedsnr" v="100471" />
	</node>
	<node lat="68.97001666960054" lon="15.017977776446937" id="-12822">
		<tag k="name" v="Likkjhalsen" />
		<tag k="natural" v="cape" />
		<tag k="ssr:stedsnr" v="102371" />
	</node>
	<node lat="68.85843333296249" lon="14.990236119560315" id="-12825">
		<tag k="fixme" v="consider seamark:type=rock or natural=shoal" />
		<tag k="name" v="Skarvskjeret" />
		<tag k="place" v="islet" />
		<tag k="ssr:stedsnr" v="102413" />
	</node>
	<node lat="68.84619166278827" lon="14.786633341417911" id="-12826">
		<tag k="name" v="Steinsundholmen" />
		<tag k="place" v="islet" />
		<tag k="ssr:stedsnr" v="102752" />
	</node>
	<node lat="68.9127833322685" lon="15.326330548641092" id="-12827">
		<tag k="name" v="Nordskaga" />
		<tag k="natural" v="cape" />
		<tag k="ssr:stedsnr" v="103692" />
	</node>
	<node lat="68.83016666637215" lon="14.753116666184528" id="-12834">
		<tag k="name" v="Skipnesøya" />
		<tag k="place" v="islet" />
		<tag k="ssr:stedsnr" v="118641" />
	</node>
	<node lat="68.83283611058722" lon="14.77050832620194" id="-12835">
		<tag k="name" v="Gravareidbukta" />
		<tag k="natural" v="bay" />
		<tag k="ssr:stedsnr" v="118643" />
	</node>
	<node lat="68.83466944177181" lon="14.735769438233511" id="-12836">
		<tag k="name" v="Fyrklubben" />
		<tag k="place" v="islet" />
		<tag k="ssr:stedsnr" v="118646" />
	</node>
	<node lat="68.827969442835" lon="14.74698888959653" id="-12837">
		<tag k="name" v="Skipnesklubben" />
		<tag k="natural" v="cape" />
		<tag k="ssr:stedsnr" v="118650" />
	</node>
	<node lat="69.09998888870155" lon="15.159808329171378" id="-12840">
		<tag k="fixme" v="consider seamark:type=rock or natural=shoal" />
		<tag k="name" v="Flesan" />
		<tag k="place" v="islet" />
		<tag k="ssr:stedsnr" v="138293" />
	</node>
	<node lat="68.96941111354174" lon="15.168383346079812" id="-12841">
		<tag k="name" v="Borgarneset" />
		<tag k="natural" v="cape" />
		<tag k="ssr:stedsnr" v="138618" />
	</node>
	<node lat="68.93686944226772" lon="14.841605543721869" id="-12845">
		<tag k="fixme" v="consider seamark:type=rock or natural=shoal" />
		<tag k="name" v="Melskjeran" />
		<tag k="place" v="islet" />
		<tag k="ssr:stedsnr" v="139146" />
	</node>
	<node lat="68.85173055679962" lon="15.27352499203513" id="-12848">
		<tag k="name" v="Langosen" />
		<tag k="natural" v="bay" />
		<tag k="ssr:stedsnr" v="139693" />
	</node>
	<node lat="68.86734722110843" lon="15.083161104581908" id="-12849">
		<tag k="alt_name" v="Ytstvika;Ystvika" />
		<tag k="name" v="Ytstevika" />
		<tag k="natural" v="bay" />
		<tag k="ssr:stedsnr" v="139696" />
	</node>
	<node lat="68.86670555166485" lon="14.959663892898213" id="-12850">
		<tag k="name" v="Kaldhammarsundet" />
		<tag k="natural" v="strait" />
		<tag k="ssr:stedsnr" v="139803" />
	</node>
	<node lat="68.86917222613475" lon="14.957919447543834" id="-12851">
		<tag k="name" v="Svinøya" />
		<tag k="place" v="island" />
		<tag k="ssr:stedsnr" v="139807" />
	</node>
	<node lat="68.84796666239372" lon="14.836055554956888" id="-12852">
		<tag k="name" v="Børøymolla" />
		<tag k="natural" v="bay" />
		<tag k="ssr:stedsnr" v="139809" />
	</node>
	<node lat="68.81224444610008" lon="14.884136103421453" id="-12853">
		<tag k="name" v="Øysnaget" />
		<tag k="place" v="islet" />
		<tag k="ssr:stedsnr" v="139902" />
	</node>
	<node lat="68.91133333493688" lon="15.26325278839419" id="-12857">
		<tag k="name" v="Laksneset" />
		<tag k="natural" v="cape" />
		<tag k="ssr:stedsnr" v="157067" />
	</node>
	<node lat="68.90771111581579" lon="15.278049993566993" id="-12858">
		<tag k="name" v="Landvalen" />
		<tag k="natural" v="strait" />
		<tag k="ssr:stedsnr" v="157117" />
	</node>
	<node lat="68.90000833164845" lon="15.28913055223711" id="-12859">
		<tag k="name" v="Hestholmen" />
		<tag k="place" v="islet" />
		<tag k="ssr:stedsnr" v="157119" />
	</node>
	<node lat="68.98147777646005" lon="15.01521389107664" id="-12860">
		<tag k="fixme" v="consider seamark:type=rock or natural=shoal" />
		<tag k="name" v="Rundskjeret" />
		<tag k="place" v="islet" />
		<tag k="ssr:stedsnr" v="157349" />
	</node>
	<node lat="69.0288527772914" lon="15.12094999691521" id="-12862">
		<tag k="name" v="Leite" />
		<tag k="place" v="locality" />
		<tag k="ssr:stedsnr" v="157855" />
	</node>
	<node lat="68.94364166731437" lon="14.92079167344568" id="-12863">
		<tag k="name" v="Søftingan" />
		<tag k="natural" v="shoal" />
		<tag k="place" v="locality" />
		<tag k="ssr:stedsnr" v="158019" />
	</node>
	<node lat="68.9568250000387" lon="15.01287776978436" id="-12864">
		<tag k="alt_name" v="Klubban" />
		<tag k="name" v="Klubben" />
		<tag k="natural" v="cape" />
		<tag k="ssr:stedsnr" v="158023" />
	</node>
	<node lat="68.99758611202594" lon="15.016325005816343" id="-12867">
		<tag k="name" v="Spira" />
		<tag k="natural" v="cape" />
		<tag k="ssr:stedsnr" v="163275" />
	</node>
	<node lat="68.94870833208458" lon="15.014019447579667" id="-12868">
		<tag k="name" v="Kråknesvika" />
		<tag k="natural" v="bay" />
		<tag k="ssr:stedsnr" v="260184" />
	</node>
	<node lat="69.0063722179143" lon="15.026836121365339" id="-12869">
		<tag k="alt_name" v="Søre Fleskan" />
		<tag k="fixme" v="multiple name tags, choose one and add the other to alt_name; consider seamark:type=rock or natural=shoal" />
		<tag k="name" v="Fleskan;Sørflesken" />
		<tag k="place" v="islet" />
		<tag k="ssr:stedsnr" v="260377" />
	</node>
	<node lat="69.0387444407803" lon="15.052163877163473" id="-12870">
		<tag k="name" v="Råskallen" />
		<tag k="natural" v="shoal" />
		<tag k="place" v="locality" />
		<tag k="ssr:stedsnr" v="260380" />
	</node>
	<node lat="68.74662222095908" lon="14.901327779509108" id="-12871">
		<tag k="alt_name" v="Ånfjorden" />
		<tag k="bay" v="fjord" />
		<tag k="name" v="Ånnfjorden" />
		<tag k="natural" v="bay" />
		<tag k="ssr:stedsnr" v="260381" />
	</node>
	<node lat="69.02622222620172" lon="15.166005565914107" id="-12872">
		<tag k="fixme" v="consider seamark:type=rock or natural=shoal" />
		<tag k="name" v="Laupen" />
		<tag k="place" v="islet" />
		<tag k="ssr:stedsnr" v="260384" />
	</node>
	<node lat="68.98491111450369" lon="15.310524992462257" id="-12874">
		<tag k="alt_name" v="Skarvhausan" />
		<tag k="fixme" v="consider seamark:type=rock or natural=shoal" />
		<tag k="name" v="Skardhausan" />
		<tag k="place" v="islet" />
		<tag k="ssr:stedsnr" v="260580" />
	</node>
	<node lat="68.98065277797966" lon="15.27692223066597" id="-12875">
		<tag k="fixme" v="multiple name tags, choose one and add the other to alt_name; consider seamark:type=rock or natural=shoal" />
		<tag k="name" v="Svartoksen;Stor-Svartoksen" />
		<tag k="place" v="islet" />
		<tag k="ssr:stedsnr" v="260585" />
	</node>
	<node lat="68.91290278184043" lon="15.343941657470605" id="-12879">
		<tag k="fixme" v="multiple name tags, choose one and add the other to alt_name; consider seamark:type=rock or natural=shoal" />
		<tag k="name" v="Instøyvarden;Skiplingskjeran" />
		<tag k="place" v="islet" />
		<tag k="ssr:stedsnr" v="260682" />
	</node>
	<node lat="68.88920278109805" lon="14.676700002202255" id="-12887">
		<tag k="name" v="Flesa" />
		<tag k="place" v="islet" />
		<tag k="ssr:stedsnr" v="260826" />
	</node>
	<node lat="68.88580277772799" lon="14.696522224104779" id="-12888">
		<tag k="fixme" v="consider seamark:type=rock or natural=shoal" />
		<tag k="name" v="Brokskjeret" />
		<tag k="place" v="islet" />
		<tag k="ssr:stedsnr" v="260832" />
	</node>
	<node lat="68.87237500136798" lon="14.886352772737569" id="-12890">
		<tag k="name" v="Nippen" />
		<tag k="natural" v="cape" />
		<tag k="ssr:stedsnr" v="260843" />
	</node>
	<node lat="68.83505277457972" lon="14.833819446814127" id="-12892">
		<tag k="alt_name" v="Landholman" />
		<tag k="name" v="Landholmen" />
		<tag k="place" v="islet" />
		<tag k="ssr:stedsnr" v="260879" />
	</node>
	<node lat="68.83588888715076" lon="14.789794448367184" id="-12893">
		<tag k="name" v="Straumen" />
		<tag k="natural" v="strait" />
		<tag k="ssr:stedsnr" v="260882" />
	</node>
	<node lat="68.83955277978605" lon="14.717069446987077" id="-12894">
		<tag k="alt_name" v="Sennholmen" />
		<tag k="name" v="Senholmen" />
		<tag k="place" v="islet" />
		<tag k="ssr:stedsnr" v="260886" />
	</node>
	<node lat="68.85015555602446" lon="15.001266663711057" id="-12895">
		<tag k="name" v="Flatøya" />
		<tag k="place" v="islet" />
		<tag k="ssr:stedsnr" v="260891" />
	</node>
	<node lat="68.8171861101129" lon="14.734216676485394" id="-12896">
		<tag k="name" v="Skjåneset" />
		<tag k="natural" v="cape" />
		<tag k="ssr:stedsnr" v="260932" />
	</node>
	<node lat="68.81885555836439" lon="15.013516672341947" id="-12897">
		<tag k="name" v="Romsetbukta" />
		<tag k="natural" v="bay" />
		<tag k="ssr:stedsnr" v="260939" />
	</node>
	<node lat="68.75563889124608" lon="14.889547233842528" id="-12900">
		<tag k="name" v="Torsteinneset" />
		<tag k="natural" v="cape" />
		<tag k="ssr:stedsnr" v="261550" />
	</node>
	<node lat="68.84200555155532" lon="15.11245555275435" id="-12901">
		<tag k="name" v="Øyjordbukta" />
		<tag k="natural" v="bay" />
		<tag k="ssr:stedsnr" v="261701" />
	</node>
	<node lat="68.92040000401661" lon="14.795419453363978" id="-12903">
		<tag k="fixme" v="consider seamark:type=rock or natural=shoal" />
		<tag k="name" v="Brølan" />
		<tag k="place" v="islet" />
		<tag k="ssr:stedsnr" v="261729" />
	</node>
	<node lat="68.78896389319077" lon="14.888327769954266" id="-12905">
		<tag k="name" v="Buøya" />
		<tag k="place" v="islet" />
		<tag k="ssr:stedsnr" v="261959" />
	</node>
	<node lat="68.79588889288549" lon="14.789616677019053" id="-12907">
		<tag k="name" v="Lysvågen" />
		<tag k="natural" v="bay" />
		<tag k="ssr:stedsnr" v="261969" />
	</node>
	<node lat="69.06580000223063" lon="15.168800006876287" id="-12909">
		<tag k="name" v="Anden" />
		<tag k="place" v="island" />
		<tag k="ssr:stedsnr" v="199373" />
	</node>
	<node lat="68.97995000272542" lon="15.189686111416853" id="-12911">
		<tag k="name" v="Kloneset" />
		<tag k="natural" v="cape" />
		<tag k="ssr:stedsnr" v="199567" />
	</node>
	<node lat="68.89699722537114" lon="15.298997219259231" id="-12912">
		<tag k="name" v="Hundneset" />
		<tag k="natural" v="cape" />
		<tag k="ssr:stedsnr" v="199726" />
	</node>
	<node lat="68.96308888446447" lon="15.226602776853314" id="-12913">
		<tag k="fixme" v="multiple name tags, choose one and add the other to alt_name; consider seamark:type=rock or natural=shoal" />
		<tag k="name" v="Sylla;Stor-Sylla" />
		<tag k="place" v="islet" />
		<tag k="ssr:stedsnr" v="199618" />
	</node>
	<node lat="68.96843055279028" lon="15.234722226950437" id="-12914">
		<tag k="alt_name" v="Kvannholmen, l;Likkj-Kvannholmen" />
		<tag k="name" v="Litle Kvannholmen" />
		<tag k="place" v="islet" />
		<tag k="ssr:stedsnr" v="199620" />
	</node>
	<node lat="68.90693333161583" lon="15.29858332522389" id="-12915">
		<tag k="alt_name" v="Instøy" />
		<tag k="name" v="Instøya" />
		<tag k="place" v="island" />
		<tag k="ssr:stedsnr" v="199671" />
	</node>
	<node lat="68.92873888942397" lon="14.800341678065765" id="-12917">
		<tag k="name" v="Tarskallen" />
		<tag k="natural" v="shoal" />
		<tag k="place" v="locality" />
		<tag k="ssr:stedsnr" v="200117" />
	</node>
	<node lat="68.8668666689353" lon="14.733550006942318" id="-12920">
		<tag k="name" v="Nordeinsteinen" />
		<tag k="natural" v="shoal" />
		<tag k="place" v="locality" />
		<tag k="ssr:stedsnr" v="200809" />
	</node>
	<node lat="68.87470833247069" lon="14.961861119683617" id="-12922">
		<tag k="name" v="Skavlneset" />
		<tag k="natural" v="cape" />
		<tag k="ssr:stedsnr" v="200812" />
	</node>
	<node lat="68.84474999815853" lon="14.876308336682333" id="-12923">
		<tag k="bay" v="fjord" />
		<tag k="name" v="Salthøla" />
		<tag k="natural" v="bay" />
		<tag k="ssr:stedsnr" v="200816" />
	</node>
	<node lat="68.8093361099001" lon="14.894744455431043" id="-12926">
		<tag k="name" v="Finneset" />
		<tag k="natural" v="cape" />
		<tag k="ssr:stedsnr" v="200914" />
	</node>
	<node lat="68.86045277697792" lon="15.28657776578241" id="-12933">
		<tag k="name" v="Skarvøya" />
		<tag k="place" v="island" />
		<tag k="ssr:stedsnr" v="218472" />
	</node>
	<node lat="69.02168611261914" lon="15.17299443445214" id="-12935">
		<tag k="name" v="Galgeholmen" />
		<tag k="place" v="islet" />
		<tag k="ssr:stedsnr" v="218871" />
	</node>
	<node lat="69.01964444083264" lon="15.170527776965491" id="-12936">
		<tag k="name" v="Steinsundet" />
		<tag k="natural" v="strait" />
		<tag k="ssr:stedsnr" v="218876" />
	</node>
	<node lat="69.02731666458938" lon="15.134811118058373" id="-12937">
		<tag k="fixme" v="consider seamark:type=rock or natural=shoal" />
		<tag k="name" v="Juldagen" />
		<tag k="place" v="islet" />
		<tag k="ssr:stedsnr" v="218879" />
	</node>
	<node lat="68.99371666582836" lon="15.325755562606219" id="-12939">
		<tag k="name" v="Vausflua" />
		<tag k="natural" v="shoal" />
		<tag k="place" v="locality" />
		<tag k="ssr:stedsnr" v="219013" />
	</node>
	<node lat="68.94569444085354" lon="15.012097227105333" id="-12949">
		<tag k="name" v="Nordvika" />
		<tag k="natural" v="bay" />
		<tag k="ssr:stedsnr" v="223279" />
	</node>
	<node lat="68.78069722134586" lon="14.89084445059658" id="-12954">
		<tag k="name" v="Sauøya" />
		<tag k="place" v="islet" />
		<tag k="ssr:stedsnr" v="241730" />
	</node>
	<node lat="68.79238333087578" lon="14.856777781366995" id="-12955">
		<tag k="name" v="Grøtsetneset" />
		<tag k="natural" v="cape" />
		<tag k="old_name" v="Grødsetneset" />
		<tag k="ssr:stedsnr" v="241733" />
	</node>
	<node lat="68.78381667021037" lon="14.949288901635951" id="-12956">
		<tag k="name" v="Torvbukta" />
		<tag k="natural" v="bay" />
		<tag k="ssr:stedsnr" v="241738" />
	</node>
	<node lat="68.9949944490079" lon="15.002399992196958" id="-12957">
		<tag k="name" v="Skjerpingan" />
		<tag k="place" v="islet" />
		<tag k="ssr:stedsnr" v="260207" />
	</node>
	<node lat="68.95403611140054" lon="15.018463878660588" id="-12962">
		<tag k="name" v="Hella" />
		<tag k="natural" v="cape" />
		<tag k="ssr:stedsnr" v="260612" />
	</node>
	<node lat="68.90792499728663" lon="14.79193887749378" id="-12964">
		<tag k="alt_name" v="Silskjeret" />
		<tag k="name" v="Sildskjeret" />
		<tag k="natural" v="shoal" />
		<tag k="place" v="locality" />
		<tag k="ssr:stedsnr" v="260809" />
	</node>
	<node lat="68.9110916622052" lon="14.83066944458705" id="-12965">
		<tag k="fixme" v="consider seamark:type=rock or natural=shoal" />
		<tag k="name" v="Svartskjeret" />
		<tag k="place" v="islet" />
		<tag k="ssr:stedsnr" v="260813" />
	</node>
	<node lat="68.85394166366659" lon="14.772872226805804" id="-12969">
		<tag k="name" v="Terøysundet" />
		<tag k="natural" v="strait" />
		<tag k="ssr:stedsnr" v="260852" />
	</node>
	<node lat="68.86220000290793" lon="14.824550004679994" id="-12970">
		<tag k="name" v="Skagbåen" />
		<tag k="natural" v="shoal" />
		<tag k="place" v="locality" />
		<tag k="ssr:stedsnr" v="260855" />
	</node>
	<node lat="68.82955832941356" lon="14.706227766844481" id="-12971">
		<tag k="name" v="Ørholmen" />
		<tag k="place" v="islet" />
		<tag k="ssr:stedsnr" v="260906" />
	</node>
	<node lat="68.9290222231836" lon="15.23672222139177" id="-12976">
		<tag k="name" v="Bussingvika" />
		<tag k="natural" v="bay" />
		<tag k="ssr:stedsnr" v="261624" />
	</node>
	<node lat="68.88440833198804" lon="15.301363882959237" id="-12979">
		<tag k="name" v="Risneset" />
		<tag k="natural" v="cape" />
		<tag k="ssr:stedsnr" v="279003" />
	</node>
	<node lat="68.90456110921384" lon="15.295636106150699" id="-12988">
		<tag k="fixme" v="consider seamark:type=rock or natural=shoal" />
		<tag k="name" v="Vesterskjeran" />
		<tag k="place" v="islet" />
		<tag k="ssr:stedsnr" v="279775" />
	</node>
	<node lat="68.74253611088898" lon="14.893949997311854" id="-12992">
		<tag k="name" v="Ånnfjordbotn" />
		<tag k="natural" v="bay" />
		<tag k="ssr:stedsnr" v="279874" />
	</node>
	<node lat="68.74844722274479" lon="14.892858337126173" id="-12993">
		<tag k="alt_name" v="Tiggarholmen" />
		<tag k="name" v="Ånnfjordholmen" />
		<tag k="place" v="islet" />
		<tag k="ssr:stedsnr" v="279877" />
	</node>
	<node lat="69.03192777939056" lon="15.13358889409952" id="-12994">
		<tag k="name" v="Hella" />
		<tag k="natural" v="shoal" />
		<tag k="place" v="locality" />
		<tag k="ssr:stedsnr" v="280067" />
	</node>
	<node lat="68.91291666791125" lon="14.772766672077456" id="-12996">
		<tag k="name" v="Indre Hausen" />
		<tag k="natural" v="shoal" />
		<tag k="place" v="locality" />
		<tag k="ssr:stedsnr" v="281975" />
	</node>
	<node lat="68.92636111496535" lon="14.854813893743604" id="-12998">
		<tag k="fixme" v="consider seamark:type=rock or natural=shoal" />
		<tag k="name" v="Lemmetskjeret" />
		<tag k="place" v="islet" />
		<tag k="ssr:stedsnr" v="282074" />
	</node>
	<node lat="68.85235277474024" lon="14.844322222576015" id="-12999">
		<tag k="name" v="Vossen" />
		<tag k="natural" v="shoal" />
		<tag k="place" v="locality" />
		<tag k="ssr:stedsnr" v="282079" />
	</node>
	<node lat="68.9428666679292" lon="15.2182916622239" id="-13000">
		<tag k="name" v="Gisløyvalen" />
		<tag k="place" v="locality" />
		<tag k="ssr:stedsnr" v="283504" />
	</node>
	<node lat="68.81950833332931" lon="15.125094452940862" id="-13008">
		<tag k="name" v="Snekkebogen" />
		<tag k="natural" v="bay" />
		<tag k="ssr:stedsnr" v="284492" />
	</node>
	<node lat="68.98953333568276" lon="15.010622214051466" id="-13013">
		<tag k="name" v="Ramsundodden" />
		<tag k="natural" v="cape" />
		<tag k="ssr:stedsnr" v="461393" />
	</node>
	<node lat="68.99674722119168" lon="15.352600006785867" id="-13017">
		<tag k="name" v="Revet" />
		<tag k="natural" v="shoal" />
		<tag k="place" v="locality" />
		<tag k="ssr:stedsnr" v="462020" />
	</node>
	<node lat="68.99307221864001" lon="15.351316667579773" id="-13018">
		<tag k="name" v="Myrflua" />
		<tag k="natural" v="shoal" />
		<tag k="place" v="locality" />
		<tag k="ssr:stedsnr" v="462022" />
	</node>
	<node lat="68.89906110848818" lon="15.054583322716127" id="-13019">
		<tag k="name" v="Sandvika" />
		<tag k="natural" v="bay" />
		<tag k="ssr:stedsnr" v="461923" />
	</node>
	<node lat="68.7907444428347" lon="14.848119446640139" id="-13020">
		<tag k="name" v="Neset" />
		<tag k="natural" v="cape" />
		<tag k="ssr:stedsnr" v="461939" />
	</node>
	<node lat="68.87974166616938" lon="14.98460554729942" id="-13024">
		<tag k="name" v="Kjerkneset" />
		<tag k="natural" v="cape" />
		<tag k="ssr:stedsnr" v="299374" />
	</node>
	<node lat="68.81601666316377" lon="14.846436103273737" id="-13026">
		<tag k="name" v="Dyrøyneset" />
		<tag k="natural" v="cape" />
		<tag k="ssr:stedsnr" v="301893" />
	</node>
	<node lat="68.78931944536134" lon="14.883497218909806" id="-13027">
		<tag k="name" v="Kopparvalen" />
		<tag k="natural" v="bay" />
		<tag k="ssr:stedsnr" v="301746" />
	</node>
	<node lat="68.87081666296915" lon="14.831016662932207" id="-13031">
		<tag k="name" v="Bøvika" />
		<tag k="natural" v="bay" />
		<tag k="ssr:stedsnr" v="464115" />
	</node>
	<node lat="68.85705555921851" lon="14.930938890483793" id="-13032">
		<tag k="name" v="Sjøborvika" />
		<tag k="natural" v="bay" />
		<tag k="ssr:stedsnr" v="464085" />
	</node>
	<node lat="68.87457222041544" lon="14.912286106635085" id="-13033">
		<tag k="name" v="Klokkarvika" />
		<tag k="natural" v="bay" />
		<tag k="ssr:stedsnr" v="464091" />
	</node>
	<node lat="68.81833333208776" lon="14.791363884047776" id="-13043">
		<tag k="name" v="Barkestadneset" />
		<tag k="natural" v="cape" />
		<tag k="ssr:stedsnr" v="466691" />
	</node>
	<node lat="68.96575000134544" lon="14.950194440043148" id="-13044">
		<tag k="name" v="Kalven" />
		<tag k="place" v="island" />
		<tag k="ssr:stedsnr" v="321143" />
	</node>
	<node lat="68.94466389318076" lon="15.269961110395169" id="-13048">
		<tag k="name" v="Gisløya" />
		<tag k="place" v="island" />
		<tag k="ssr:stedsnr" v="321616" />
	</node>
	<node lat="68.98455000303808" lon="15.326058331607953" id="-13054">
		<tag k="alt_name" v="Vauskjeret" />
		<tag k="fixme" v="consider seamark:type=rock or natural=shoal" />
		<tag k="name" v="Vausskjeret" />
		<tag k="place" v="islet" />
		<tag k="ssr:stedsnr" v="321531" />
	</node>
	<node lat="68.9829888929266" lon="15.233027784866271" id="-13055">
		<tag k="alt_name" v="Tollholmen" />
		<tag k="fixme" v="consider seamark:type=rock or natural=shoal" />
		<tag k="name" v="Tolvholmen" />
		<tag k="place" v="islet" />
		<tag k="ssr:stedsnr" v="321532" />
	</node>
	<node lat="68.98648055289442" lon="15.343708341658532" id="-13057">
		<tag k="name" v="Torbåen" />
		<tag k="natural" v="shoal" />
		<tag k="place" v="locality" />
		<tag k="ssr:stedsnr" v="321543" />
	</node>
	<node lat="68.9463833294903" lon="15.3849694480198" id="-13059">
		<tag k="bay" v="fjord" />
		<tag k="name" v="Gavlfjorden" />
		<tag k="natural" v="bay" />
		<tag k="old_name" v="Gavlefjorden" />
		<tag k="ssr:stedsnr" v="321585" />
	</node>
	<node lat="68.907716669897" lon="14.763941662109117" id="-13061">
		<tag k="alt_name" v="Breidbåen" />
		<tag k="name" v="Breibåen" />
		<tag k="natural" v="shoal" />
		<tag k="place" v="locality" />
		<tag k="ssr:stedsnr" v="321729" />
	</node>
	<node lat="68.8950833320719" lon="14.839516668109095" id="-13063">
		<tag k="name" v="Bergeneset" />
		<tag k="natural" v="cape" />
		<tag k="ssr:stedsnr" v="321777" />
	</node>
	<node lat="68.87905555184386" lon="14.689941661510996" id="-13064">
		<tag k="alt_name" v="Brokskjergrunnen" />
		<tag k="name" v="Brokskjerbåen" />
		<tag k="natural" v="shoal" />
		<tag k="place" v="locality" />
		<tag k="ssr:stedsnr" v="321793" />
	</node>
	<node lat="68.79786388996088" lon="14.880044450952903" id="-13065">
		<tag k="bay" v="fjord" />
		<tag k="name" v="Hamnfjorden" />
		<tag k="natural" v="bay" />
		<tag k="ssr:stedsnr" v="321926" />
	</node>
	<node lat="68.88775555129689" lon="15.034255555272413" id="-13067">
		<tag k="name" v="Reinøysundet" />
		<tag k="natural" v="strait" />
		<tag k="ssr:stedsnr" v="321682" />
	</node>
	<node lat="68.8576194422304" lon="15.045488893125805" id="-13068">
		<tag k="fixme" v="consider seamark:type=rock or natural=shoal" />
		<tag k="name" v="Hundsholmen" />
		<tag k="place" v="islet" />
		<tag k="ssr:stedsnr" v="321690" />
	</node>
	<node lat="68.86538889066387" lon="14.91353334044672" id="-13069">
		<tag k="fixme" v="consider seamark:type=rock or natural=shoal" />
		<tag k="name" v="Sandholmskjeran" />
		<tag k="place" v="islet" />
		<tag k="ssr:stedsnr" v="321807" />
	</node>
	<node lat="68.83772777422078" lon="14.743161098875378" id="-13070">
		<tag k="name" v="Finnholmen" />
		<tag k="place" v="islet" />
		<tag k="ssr:stedsnr" v="321829" />
	</node>
	<node lat="68.88577777686986" lon="15.302599998342167" id="-13071">
		<tag k="name" v="Auorshatten" />
		<tag k="natural" v="cape" />
		<tag k="ssr:stedsnr" v="339002" />
	</node>
	<node lat="68.8712833316252" lon="15.293205543507431" id="-13077">
		<tag k="name" v="Toftenes" />
		<tag k="natural" v="cape" />
		<tag k="ssr:stedsnr" v="339798" />
	</node>
	<node lat="69.02707499636628" lon="15.183152784213737" id="-13079">
		<tag k="name" v="Skanken" />
		<tag k="natural" v="shoal" />
		<tag k="place" v="locality" />
		<tag k="ssr:stedsnr" v="340096" />
	</node>
	<node lat="69.06492222668567" lon="15.144872212628727" id="-13080">
		<tag k="name" v="Efallet" />
		<tag k="natural" v="shoal" />
		<tag k="place" v="locality" />
		<tag k="ssr:stedsnr" v="340411" />
	</node>
	<node lat="68.92076110999389" lon="15.036350011608503" id="-13081">
		<tag k="fixme" v="consider seamark:type=rock or natural=shoal" />
		<tag k="name" v="Tendringskjeret" />
		<tag k="place" v="islet" />
		<tag k="ssr:stedsnr" v="340946" />
	</node>
	<node lat="68.85007500217405" lon="14.785477767803188" id="-13082">
		<tag k="name" v="Fagervollbåen" />
		<tag k="natural" v="shoal" />
		<tag k="place" v="locality" />
		<tag k="ssr:stedsnr" v="341157" />
	</node>
	<node lat="69.06163055696895" lon="15.173261114938397" id="-13083">
		<tag k="name" v="Andsteinan" />
		<tag k="natural" v="shoal" />
		<tag k="place" v="locality" />
		<tag k="ssr:stedsnr" v="341548" />
	</node>
	<node lat="69.03506389147655" lon="15.082316661087493" id="-13084">
		<tag k="name" v="Stikkelgrunnen" />
		<tag k="natural" v="shoal" />
		<tag k="place" v="locality" />
		<tag k="ssr:stedsnr" v="341555" />
	</node>
	<node lat="68.92804444289524" lon="14.97557500482314" id="-13085">
		<tag k="name" v="Høyvikbåen" />
		<tag k="natural" v="shoal" />
		<tag k="place" v="locality" />
		<tag k="ssr:stedsnr" v="341924" />
	</node>
	<node lat="68.88424999638083" lon="14.870933330244947" id="-13087">
		<tag k="name" v="Alfredneset" />
		<tag k="natural" v="cape" />
		<tag k="ssr:stedsnr" v="342095" />
	</node>
	<node lat="68.86928611035378" lon="14.835874991726213" id="-13088">
		<tag k="name" v="Sørøya" />
		<tag k="natural" v="cape" />
		<tag k="ssr:stedsnr" v="343099" />
	</node>
	<node lat="68.97169444768019" lon="15.017780545823145" id="-13089">
		<tag k="name" v="Storhalsen" />
		<tag k="natural" v="cape" />
		<tag k="ssr:stedsnr" v="344314" />
	</node>
	<node lat="68.8429805527599" lon="15.012041666943949" id="-13104">
		<tag k="name" v="Langvågen" />
		<tag k="natural" v="bay" />
		<tag k="ssr:stedsnr" v="481131" />
	</node>
	<node lat="68.96243055386024" lon="14.940741672931074" id="-13105">
		<tag k="name" v="Gåsøya" />
		<tag k="place" v="island" />
		<tag k="ssr:stedsnr" v="381165" />
	</node>
	<node lat="68.95929166834658" lon="14.943347221123432" id="-13106">
		<tag k="fixme" v="consider seamark:type=rock or natural=shoal" />
		<tag k="name" v="Svartoksen" />
		<tag k="place" v="islet" />
		<tag k="ssr:stedsnr" v="381166" />
	</node>
	<node lat="68.95006667070847" lon="14.929433334804546" id="-13107">
		<tag k="name" v="Holmskallen" />
		<tag k="natural" v="shoal" />
		<tag k="place" v="locality" />
		<tag k="ssr:stedsnr" v="381170" />
	</node>
	<node lat="68.90885555629576" lon="15.049202767173906" id="-13109">
		<tag k="fixme" v="consider seamark:type=rock or natural=shoal" />
		<tag k="name" v="Sommarøya" />
		<tag k="place" v="islet" />
		<tag k="ssr:stedsnr" v="381710" />
	</node>
	<node lat="68.81064166294158" lon="14.889880546086404" id="-13111">
		<tag k="name" v="Langøya" />
		<tag k="place" v="island" />
		<tag k="ssr:stedsnr" v="381721" />
	</node>
	<node lat="68.84606666803425" lon="14.786725006145549" id="-13116">
		<tag k="name" v="Steinsundholmen" />
		<tag k="place" v="islet" />
		<tag k="ssr:stedsnr" v="381857" />
	</node>
	<node lat="68.8068249981686" lon="14.79814167214636" id="-13117">
		<tag k="name" v="Finnvågøya" />
		<tag k="place" v="island" />
		<tag k="ssr:stedsnr" v="382918" />
	</node>
	<node lat="68.83811944054007" lon="14.747022223867079" id="-13121">
		<tag k="name" v="Finnholman" />
		<tag k="place" v="islet" />
		<tag k="ssr:stedsnr" v="482662" />
	</node>
	<node lat="68.83351388669395" lon="14.79606110769306" id="-13122">
		<tag k="name" v="Vedbukta" />
		<tag k="natural" v="bay" />
		<tag k="ssr:stedsnr" v="482655" />
	</node>
	<node lat="68.79557222406949" lon="14.918147217196315" id="-13126">
		<tag k="name" v="Kobbskjeret" />
		<tag k="natural" v="shoal" />
		<tag k="place" v="locality" />
		<tag k="ssr:stedsnr" v="483784" />
	</node>
	<node lat="68.75522500356612" lon="14.890202788848875" id="-13128">
		<tag k="name" v="Nonstindlandet" />
		<tag k="natural" v="beach" />
		<tag k="ssr:stedsnr" v="483741" />
	</node>
	<node lat="68.8995749999477" lon="15.286013884420802" id="-13134">
		<tag k="name" v="Rundholmen" />
		<tag k="place" v="islet" />
		<tag k="ssr:stedsnr" v="400133" />
	</node>
	<node lat="68.95759721954725" lon="15.145216662983906" id="-13135">
		<tag k="name" v="Langneset" />
		<tag k="natural" v="cape" />
		<tag k="ssr:stedsnr" v="400176" />
	</node>
	<node lat="68.8466666631088" lon="15.271027784460827" id="-13137">
		<tag k="name" v="Finnhellardalsneset" />
		<tag k="natural" v="cape" />
		<tag k="ssr:stedsnr" v="400477" />
	</node>
	<node lat="68.89603611075306" lon="15.342186121203307" id="-13139">
		<tag k="fixme" v="consider seamark:type=rock or natural=shoal" />
		<tag k="name" v="Rundskjeret" />
		<tag k="place" v="islet" />
		<tag k="ssr:stedsnr" v="400780" />
	</node>
	<node lat="68.90975555621594" lon="15.305344433556346" id="-13141">
		<tag k="name" v="Leirosen" />
		<tag k="natural" v="bay" />
		<tag k="ssr:stedsnr" v="400783" />
	</node>
	<node lat="68.96191944751568" lon="15.012305552744746" id="-13145">
		<tag k="name" v="Katta" />
		<tag k="place" v="locality" />
		<tag k="seamark:type" v="rock" />
		<tag k="ssr:stedsnr" v="401014" />
	</node>
	<node lat="69.03700277339037" lon="15.173816667861578" id="-13147">
		<tag k="name" v="Indre Skreingen" />
		<tag k="natural" v="shoal" />
		<tag k="place" v="locality" />
		<tag k="ssr:stedsnr" v="401078" />
	</node>
	<node lat="68.86477222108113" lon="14.899205547922334" id="-13148">
		<tag k="name" v="Sandholmskallen" />
		<tag k="place" v="locality" />
		<tag k="seamark:type" v="rock" />
		<tag k="ssr:stedsnr" v="401289" />
	</node>
	<node lat="68.8819249997817" lon="14.838416670205731" id="-13149">
		<tag k="name" v="Geitholmen" />
		<tag k="place" v="islet" />
		<tag k="ssr:stedsnr" v="403106" />
	</node>
	<node lat="68.97351388812989" lon="15.209452781906927" id="-13152">
		<tag k="name" v="Kalven" />
		<tag k="place" v="islet" />
		<tag k="ssr:stedsnr" v="404493" />
	</node>
	<node lat="68.96690555724373" lon="15.007313890421324" id="-13153">
		<tag k="fixme" v="consider seamark:type=rock or natural=shoal" />
		<tag k="name" v="Rundskjeret" />
		<tag k="place" v="islet" />
		<tag k="ssr:stedsnr" v="405318" />
	</node>
	<node lat="69.01052222569983" lon="15.090705552866725" id="-13160">
		<tag k="name" v="Kleivan" />
		<tag k="natural" v="bay" />
		<tag k="ssr:stedsnr" v="419393" />
	</node>
	<node lat="68.78270277985712" lon="14.97147776677373" id="-13162">
		<tag k="name" v="Ramsvika" />
		<tag k="natural" v="bay" />
		<tag k="ssr:stedsnr" v="421146" />
	</node>
	<node lat="68.98170000194531" lon="14.993913881802104" id="-13167">
		<tag k="fixme" v="consider seamark:type=rock or natural=shoal" />
		<tag k="name" v="Nattmålsskjeret" />
		<tag k="place" v="islet" />
		<tag k="ssr:stedsnr" v="442187" />
	</node>
	<node lat="68.82900833289763" lon="15.12417778015969" id="-13169">
		<tag k="name" v="Mikkelsnes" />
		<tag k="natural" v="cape" />
		<tag k="ssr:stedsnr" v="442334" />
	</node>
	<node lat="68.88004444336018" lon="15.065974994133033" id="-13174">
		<tag k="alt_name" v="Skalløya" />
		<tag k="fixme" v="multiple name tags, choose one and add the other to alt_name" />
		<tag k="name" v="Skaløya;Skardøya" />
		<tag k="place" v="islet" />
		<tag k="ssr:stedsnr" v="442706" />
	</node>
	<node lat="68.85761666574194" lon="14.771219442150405" id="-13176">
		<tag k="alt_name" v="Terøya, store" />
		<tag k="fixme" v="multiple name tags, choose one and add the other to alt_name" />
		<tag k="name" v="Store Terøya;Terøya" />
		<tag k="place" v="island" />
		<tag k="ssr:stedsnr" v="442838" />
	</node>
	<node lat="68.94823055228723" lon="14.953658340585054" id="-13179">
		<tag k="name" v="Indreteisten" />
		<tag k="natural" v="shoal" />
		<tag k="place" v="locality" />
		<tag k="ssr:stedsnr" v="443138" />
	</node>
	<node lat="68.83676388459833" lon="15.021444452762905" id="-13180">
		<tag k="name" v="Krabbenes" />
		<tag k="natural" v="cape" />
		<tag k="ssr:stedsnr" v="443283" />
	</node>
	<node lat="68.81262222457681" lon="14.808847225771597" id="-13182">
		<tag k="name" v="Dyrøyholmen" />
		<tag k="place" v="island" />
		<tag k="ssr:stedsnr" v="443910" />
	</node>
	<node lat="69.02323888847707" lon="15.118866658391852" id="-13186">
		<tag k="fixme" v="consider seamark:type=rock or natural=shoal" />
		<tag k="name" v="Langskjeran" />
		<tag k="place" v="islet" />
		<tag k="ssr:stedsnr" v="461419" />
	</node>
	<node lat="68.89526944486211" lon="15.301808336085367" id="-13188">
		<tag k="name" v="Laksgarnvika" />
		<tag k="natural" v="bay" />
		<tag k="ssr:stedsnr" v="461779" />
	</node>
	<node lat="69.05303888764728" lon="15.145672215647846" id="-13191">
		<tag k="name" v="Kløfterskallan" />
		<tag k="natural" v="shoal" />
		<tag k="place" v="locality" />
		<tag k="ssr:stedsnr" v="462071" />
	</node>
	<node lat="69.02632777620734" lon="15.185325008323556" id="-13192">
		<tag k="name" v="Skagbåen" />
		<tag k="natural" v="shoal" />
		<tag k="place" v="locality" />
		<tag k="ssr:stedsnr" v="462082" />
	</node>
	<node lat="69.02880555704598" lon="15.076886113902772" id="-13194">
		<tag k="name" v="Hella" />
		<tag k="natural" v="shoal" />
		<tag k="place" v="locality" />
		<tag k="ssr:stedsnr" v="462502" />
	</node>
	<node lat="68.91928333602367" lon="14.851622232337096" id="-13196">
		<tag k="name" v="Nordkeila" />
		<tag k="natural" v="bay" />
		<tag k="ssr:stedsnr" v="464070" />
	</node>
	<node lat="68.9401694417365" lon="15.243450002921238" id="-13197">
		<tag k="name" v="Straumen" />
		<tag k="natural" v="strait" />
		<tag k="ssr:stedsnr" v="464504" />
	</node>
	<node lat="69.01529722039552" lon="15.081494454114596" id="-13201">
		<tag k="name" v="Vardholmen" />
		<tag k="place" v="islet" />
		<tag k="ssr:stedsnr" v="480416" />
	</node>
	<node lat="68.78309444630872" lon="14.957413889946709" id="-13204">
		<tag k="name" v="Breineset" />
		<tag k="natural" v="cape" />
		<tag k="ssr:stedsnr" v="483804" />
	</node>
	<node lat="68.93660555245276" lon="14.89284165893818" id="-13205">
		<tag k="name" v="Andneset" />
		<tag k="natural" v="cape" />
		<tag k="ssr:stedsnr" v="503126" />
	</node>
	<node lat="69.0166083341068" lon="15.069944445221035" id="-13206">
		<tag k="name" v="Beinøya" />
		<tag k="place" v="island" />
		<tag k="ssr:stedsnr" v="503306" />
	</node>
	<node lat="68.9842166697667" lon="15.025483341632222" id="-13208">
		<tag k="name" v="Raudneset" />
		<tag k="natural" v="cape" />
		<tag k="ssr:stedsnr" v="503534" />
	</node>
	<node lat="68.8473027791847" lon="15.006730556735064" id="-13211">
		<tag k="name" v="Skogøya" />
		<tag k="place" v="islet" />
		<tag k="ssr:stedsnr" v="503810" />
	</node>
	<node lat="68.96418611257951" lon="15.197680543955798" id="-13212">
		<tag k="name" v="Revsholmen" />
		<tag k="place" v="islet" />
		<tag k="ssr:stedsnr" v="503569" />
	</node>
	<node lat="68.92907500031727" lon="14.963586114305489" id="-13214">
		<tag k="name" v="Bremneset" />
		<tag k="natural" v="cape" />
		<tag k="ssr:stedsnr" v="503714" />
	</node>
	<node lat="68.91534444868371" lon="14.804588895415183" id="-13215">
		<tag k="alt_name" v="Store Langskjeret" />
		<tag k="fixme" v="consider seamark:type=rock or natural=shoal" />
		<tag k="name" v="Langskjeret" />
		<tag k="place" v="islet" />
		<tag k="ssr:stedsnr" v="503718" />
	</node>
	<node lat="68.93186944246355" lon="15.181663890221564" id="-13219">
		<tag k="name" v="Bestemorøra" />
		<tag k="place" v="islet" />
		<tag k="ssr:stedsnr" v="521207" />
	</node>
	<node lat="68.96326944197926" lon="15.171613891814987" id="-13220">
		<tag k="name" v="Strømstranda" />
		<tag k="natural" v="beach" />
		<tag k="ssr:stedsnr" v="521219" />
	</node>
	<node lat="69.02228332896804" lon="15.06292222963459" id="-13222">
		<tag k="fixme" v="consider seamark:type=rock or natural=shoal" />
		<tag k="name" v="Brørn" />
		<tag k="place" v="islet" />
		<tag k="ssr:stedsnr" v="521411" />
	</node>
	<node lat="69.02764166796318" lon="15.118666656697979" id="-13223">
		<tag k="name" v="Løngøysundet" />
		<tag k="natural" v="strait" />
		<tag k="ssr:stedsnr" v="521427" />
	</node>
	<node lat="68.93504721776834" lon="14.91665834438192" id="-13224">
		<tag k="alt_name" v="Løngøya" />
		<tag k="fixme" v="multiple name tags, choose one and add the other to alt_name" />
		<tag k="name" v="Lyngøya;Lyngholmen" />
		<tag k="place" v="islet" />
		<tag k="ssr:stedsnr" v="685137" />
	</node>
	<node lat="68.95523055861308" lon="14.95121944597448" id="-13225">
		<tag k="name" v="Nattevaka" />
		<tag k="natural" v="shoal" />
		<tag k="place" v="locality" />
		<tag k="ssr:stedsnr" v="685140" />
	</node>
	<node lat="68.98245555433951" lon="15.184355552130798" id="-13226">
		<tag k="name" v="Skjånes" />
		<tag k="natural" v="cape" />
		<tag k="ssr:stedsnr" v="521841" />
	</node>
	<node lat="68.90386111220938" lon="15.044686123603189" id="-13228">
		<tag k="name" v="Kalveneset" />
		<tag k="natural" v="cape" />
		<tag k="ssr:stedsnr" v="522244" />
	</node>
	<node lat="69.01273333277449" lon="15.076080566938193" id="-13233">
		<tag k="name" v="Kvalbaken" />
		<tag k="natural" v="shoal" />
		<tag k="place" v="locality" />
		<tag k="ssr:stedsnr" v="523510" />
	</node>
	<node lat="68.62195555744452" lon="14.94068333076403" id="-13234">
		<tag k="alt_name" v="Langøy" />
		<tag k="name" v="Langøya" />
		<tag k="place" v="island" />
		<tag k="ssr:stedsnr" v="685470" />
	</node>
	<node lat="68.93647778031489" lon="14.92405833900874" id="-13240">
		<tag k="fixme" v="consider seamark:type=rock or natural=shoal" />
		<tag k="name" v="Litle Langskjeret" />
		<tag k="place" v="islet" />
		<tag k="ssr:stedsnr" v="524908" />
	</node>
	<node lat="68.94075000032501" lon="14.813524988962326" id="-13241">
		<tag k="name" v="Novgrunnen" />
		<tag k="natural" v="shoal" />
		<tag k="place" v="locality" />
		<tag k="ssr:stedsnr" v="524928" />
	</node>
	<node lat="68.91505833166629" lon="14.852397228614592" id="-13242">
		<tag k="name" v="Sandstadholmen" />
		<tag k="place" v="islet" />
		<tag k="ssr:stedsnr" v="525061" />
	</node>
	<node lat="68.94031666361458" lon="15.222083321779996" id="-13249">
		<tag k="name" v="Valen" />
		<tag k="natural" v="strait" />
		<tag k="ssr:stedsnr" v="685617" />
	</node>
	<node lat="68.95091389259325" lon="15.241822234325932" id="-13251">
		<tag k="name" v="Husvågen" />
		<tag k="natural" v="bay" />
		<tag k="ssr:stedsnr" v="685627" />
	</node>
	<node lat="68.94562777573181" lon="15.21133332206217" id="-13252">
		<tag k="name" v="Valøya" />
		<tag k="place" v="islet" />
		<tag k="ssr:stedsnr" v="525563" />
	</node>
	<node lat="68.86592500082571" lon="15.092500004946583" id="-13253">
		<tag k="name" v="Torsvika" />
		<tag k="natural" v="bay" />
		<tag k="ssr:stedsnr" v="685720" />
	</node>
	<node lat="68.89971388771355" lon="15.348005567262655" id="-13256">
		<tag k="alt_name" v="Grasholmen" />
		<tag k="name" v="Grasholman" />
		<tag k="place" v="islet" />
		<tag k="ssr:stedsnr" v="685682" />
	</node>
	<node lat="68.90715833622795" lon="14.831677786045846" id="-13257">
		<tag k="alt_name" v="Heimerholmgrunnen" />
		<tag k="name" v="Heimreholmgrunnen" />
		<tag k="natural" v="shoal" />
		<tag k="place" v="locality" />
		<tag k="ssr:stedsnr" v="685758" />
	</node>
	<node lat="68.82048333178896" lon="15.152083339741003" id="-13261">
		<tag k="name" v="Tjønnbogen" />
		<tag k="natural" v="bay" />
		<tag k="ssr:stedsnr" v="526612" />
	</node>
	<node lat="68.83496666463931" lon="15.256913875922612" id="-13262">
		<tag k="name" v="Storbukta" />
		<tag k="natural" v="bay" />
		<tag k="ssr:stedsnr" v="526617" />
	</node>
	<node lat="68.99386389124443" lon="15.000800009812206" id="-13266">
		<tag k="name" v="Skjerpingen" />
		<tag k="place" v="islet" />
		<tag k="ssr:stedsnr" v="527290" />
	</node>
	<node lat="68.854125001655" lon="15.041380552179442" id="-13268">
		<tag k="name" v="Hornet" />
		<tag k="natural" v="cape" />
		<tag k="ssr:stedsnr" v="527305" />
	</node>
	<node lat="68.894361109373" lon="14.998308342973743" id="-13270">
		<tag k="name" v="Bomseilarvika" />
		<tag k="natural" v="bay" />
		<tag k="ssr:stedsnr" v="527312" />
	</node>
	<node lat="68.86610833124189" lon="14.969069432573477" id="-13272">
		<tag k="name" v="Kaldhammaren" />
		<tag k="natural" v="cape" />
		<tag k="ssr:stedsnr" v="685814" />
	</node>
	<node lat="68.8661944425928" lon="14.838299998011605" id="-13273">
		<tag k="name" v="Klubben" />
		<tag k="place" v="islet" />
		<tag k="ssr:stedsnr" v="685817" />
	</node>
	<node lat="68.95096389272382" lon="15.296708323260889" id="-13275">
		<tag k="name" v="Årvåghatten" />
		<tag k="place" v="islet" />
		<tag k="ssr:stedsnr" v="527693" />
	</node>
	<node lat="68.8218666699715" lon="14.898172230671701" id="-13276">
		<tag k="name" v="Sandnesan" />
		<tag k="natural" v="cape" />
		<tag k="ssr:stedsnr" v="685897" />
	</node>
	<node lat="68.78531666426014" lon="14.933324990520063" id="-13278">
		<tag k="name" v="Avløysholmen" />
		<tag k="place" v="islet" />
		<tag k="ssr:stedsnr" v="686000" />
	</node>
	<node lat="68.79791944330262" lon="14.840588880554645" id="-13279">
		<tag k="alt_name" v="Slåtterøyan" />
		<tag k="fixme" v="multiple name tags, choose one and add the other to alt_name" />
		<tag k="name" v="Slåtterøya;Søre Austringsøya" />
		<tag k="place" v="islet" />
		<tag k="ssr:stedsnr" v="685962" />
	</node>
	<node lat="68.7895083344139" lon="14.914280547430455" id="-13280">
		<tag k="bay" v="fjord" />
		<tag k="name" v="Sandsetfjorden" />
		<tag k="natural" v="bay" />
		<tag k="ssr:stedsnr" v="685964" />
	</node>
	<node lat="68.7813222220952" lon="14.723727769883318" id="-13282">
		<tag k="alt_name" v="Landskaga" />
		<tag k="name" v="Landskagan" />
		<tag k="place" v="islet" />
		<tag k="ssr:stedsnr" v="685989" />
	</node>
	<node lat="68.78737499802348" lon="14.79716388344075" id="-13288">
		<tag k="bay" v="fjord" />
		<tag k="name" v="Skallflaget" />
		<tag k="natural" v="bay" />
		<tag k="ssr:stedsnr" v="564964" />
	</node>
	<node lat="69.02554722615427" lon="15.114024996497822" id="-13289">
		<tag k="name" v="Stø Langøya" />
		<tag k="place" v="island" />
		<tag k="ssr:stedsnr" v="581445" />
	</node>
	<node lat="69.0192805519359" lon="15.110938881032084" id="-13290">
		<tag k="name" v="Valvika" />
		<tag k="natural" v="bay" />
		<tag k="ssr:stedsnr" v="581452" />
	</node>
	<node lat="68.92456389013547" lon="15.216563879351437" id="-13294">
		<tag k="name" v="Hombaksteinneset" />
		<tag k="natural" v="cape" />
		<tag k="ssr:stedsnr" v="582049" />
	</node>
	<node lat="68.90901110907149" lon="15.32978609983707" id="-13301">
		<tag k="name" v="Nøkkelskaga" />
		<tag k="natural" v="cape" />
		<tag k="ssr:stedsnr" v="582791" />
	</node>
	<node lat="68.87546944672859" lon="14.869294454130374" id="-13305">
		<tag k="fixme" v="consider seamark:type=rock or natural=shoal" />
		<tag k="name" v="Småhollan" />
		<tag k="place" v="islet" />
		<tag k="ssr:stedsnr" v="585107" />
	</node>
	<node lat="68.84041666298998" lon="14.82541387548383" id="-13311">
		<tag k="name" v="Bunesbukta" />
		<tag k="natural" v="bay" />
		<tag k="ssr:stedsnr" v="604803" />
	</node>
	<node lat="68.98273333646657" lon="14.946233324194186" id="-13314">
		<tag k="alt_name" v="Blåsbåen" />
		<tag k="name" v="Blåstbåen" />
		<tag k="natural" v="shoal" />
		<tag k="place" v="locality" />
		<tag k="ssr:stedsnr" v="624182" />
	</node>
	<node lat="68.97737777803822" lon="14.932744450058664" id="-13315">
		<tag k="name" v="Rovskanken" />
		<tag k="natural" v="shoal" />
		<tag k="place" v="locality" />
		<tag k="ssr:stedsnr" v="624184" />
	</node>
	<node lat="68.81945708503866" lon="15.14892014019576" id="-13317">
		<tag k="name" v="Åsneset" />
		<tag k="natural" v="cape" />
		<tag k="ssr:stedsnr" v="624307" />
	</node>
	<node lat="68.85479444876664" lon="14.773958338760965" id="-13321">
		<tag k="alt_name" v="Terøya, l" />
		<tag k="fixme" v="multiple name tags, choose one and add the other to alt_name" />
		<tag k="name" v="Likkjøya;Litle Terøya" />
		<tag k="place" v="islet" />
		<tag k="ssr:stedsnr" v="624808" />
	</node>
	<node lat="68.8911555569879" lon="15.337866677246144" id="-13323">
		<tag k="alt_name" v="Løngøya" />
		<tag k="name" v="Lyngøya" />
		<tag k="place" v="islet" />
		<tag k="ssr:stedsnr" v="624704" />
	</node>
	<node lat="68.90608888568572" lon="15.083580557140676" id="-13329">
		<tag k="name" v="Inner-Myrvågen" />
		<tag k="natural" v="bay" />
		<tag k="ssr:stedsnr" v="703182" />
	</node>
	<node lat="69.02135277583608" lon="15.075533343706269" id="-13330">
		<tag k="fixme" v="consider seamark:type=rock or natural=shoal" />
		<tag k="name" v="Hammaren" />
		<tag k="place" v="islet" />
		<tag k="ssr:stedsnr" v="703440" />
	</node>
	<node lat="69.02134721985605" lon="15.105994439117845" id="-13331">
		<tag k="alt_name" v="Kvalholman" />
		<tag k="name" v="Valholman" />
		<tag k="place" v="islet" />
		<tag k="ssr:stedsnr" v="703450" />
	</node>
	<node lat="68.91096666330138" lon="15.284391666884527" id="-13333">
		<tag k="name" v="Vasskjeften" />
		<tag k="natural" v="bay" />
		<tag k="ssr:stedsnr" v="704035" />
	</node>
	<node lat="68.9814611148707" lon="15.192316676084978" id="-13335">
		<tag k="name" v="Kjuklingan" />
		<tag k="natural" v="shoal" />
		<tag k="place" v="locality" />
		<tag k="ssr:stedsnr" v="704096" />
	</node>
	<node lat="68.86803611046139" lon="15.063677775396625" id="-13336">
		<tag k="name" v="Stavpungen" />
		<tag k="natural" v="shoal" />
		<tag k="place" v="locality" />
		<tag k="ssr:stedsnr" v="704445" />
	</node>
	<node lat="68.90486388899173" lon="15.29798055276878" id="-13343">
		<tag k="fixme" v="consider seamark:type=rock or natural=shoal" />
		<tag k="name" v="Vargsteinen" />
		<tag k="place" v="islet" />
		<tag k="ssr:stedsnr" v="704838" />
	</node>
	<node lat="68.93039444596941" lon="15.007327780276311" id="-13344">
		<tag k="name" v="Myrskjergrunnen" />
		<tag k="natural" v="shoal" />
		<tag k="place" v="locality" />
		<tag k="ssr:stedsnr" v="705003" />
	</node>
	<node lat="68.9803499976595" lon="14.95041111646854" id="-13345">
		<tag k="name" v="Nordflua" />
		<tag k="natural" v="shoal" />
		<tag k="place" v="locality" />
		<tag k="ssr:stedsnr" v="705005" />
	</node>
	<node lat="68.90889722133143" lon="15.350302767860198" id="-13346">
		<tag k="name" v="Hundskallen" />
		<tag k="natural" v="shoal" />
		<tag k="place" v="locality" />
		<tag k="ssr:stedsnr" v="705264" />
	</node>
	<node lat="69.0370138852129" lon="15.105091672074863" id="-13347">
		<tag k="name" v="Skruen" />
		<tag k="natural" v="shoal" />
		<tag k="place" v="locality" />
		<tag k="ssr:stedsnr" v="705566" />
	</node>
	<node lat="69.0188777770643" lon="15.076977786324438" id="-13351">
		<tag k="name" v="Austerkalven" />
		<tag k="place" v="islet" />
		<tag k="ssr:stedsnr" v="642404" />
	</node>
	<node lat="68.7930861122202" lon="14.914416655430193" id="-13357">
		<tag k="name" v="Lysgrunnen" />
		<tag k="natural" v="shoal" />
		<tag k="place" v="locality" />
		<tag k="ssr:stedsnr" v="642729" />
	</node>
	<node lat="68.99913332861556" lon="15.361138898933328" id="-13359">
		<tag k="name" v="Revskolten" />
		<tag k="natural" v="shoal" />
		<tag k="place" v="locality" />
		<tag k="ssr:stedsnr" v="643015" />
	</node>
	<node lat="69.01430000182627" lon="15.02807223054931" id="-13361">
		<tag k="name" v="Hella" />
		<tag k="natural" v="shoal" />
		<tag k="place" v="locality" />
		<tag k="ssr:stedsnr" v="644475" />
	</node>
	<node lat="68.87602777910018" lon="14.920436111767613" id="-13363">
		<tag k="name" v="Laksodden" />
		<tag k="natural" v="cape" />
		<tag k="ssr:stedsnr" v="646080" />
	</node>
	<node lat="68.83314722016813" lon="15.25659443321688" id="-13367">
		<tag k="name" v="Storbuktneset" />
		<tag k="natural" v="cape" />
		<tag k="ssr:stedsnr" v="647604" />
	</node>
	<node lat="68.91775833404087" lon="14.807813896152863" id="-13369">
		<tag k="fixme" v="consider seamark:type=rock or natural=shoal" />
		<tag k="name" v="Litle Langskjeret" />
		<tag k="place" v="islet" />
		<tag k="ssr:stedsnr" v="706943" />
	</node>
	<node lat="68.99560555242935" lon="15.004524988482387" id="-13371">
		<tag k="name" v="Vestervika" />
		<tag k="natural" v="bay" />
		<tag k="ssr:stedsnr" v="648300" />
	</node>
	<node lat="68.89326388638634" lon="14.841072221295134" id="-13372">
		<tag k="name" v="Innerhamn" />
		<tag k="natural" v="bay" />
		<tag k="ssr:stedsnr" v="707028" />
	</node>
	<node lat="68.8727527798067" lon="14.884327770689607" id="-13377">
		<tag k="name" v="Geitholmen" />
		<tag k="place" v="islet" />
		<tag k="ssr:stedsnr" v="707114" />
	</node>
	<node lat="68.91204166552728" lon="15.306272215055845" id="-13378">
		<tag k="name" v="Kuholmen" />
		<tag k="place" v="islet" />
		<tag k="ssr:stedsnr" v="648708" />
	</node>
	<node lat="68.80411389000662" lon="14.779724989334321" id="-13379">
		<tag k="name" v="Finnvågholmen" />
		<tag k="place" v="islet" />
		<tag k="ssr:stedsnr" v="648709" />
	</node>
	<node lat="68.87218888534525" lon="14.936311102056397" id="-13381">
		<tag k="fixme" v="consider seamark:type=rock or natural=shoal" />
		<tag k="name" v="Svartborga" />
		<tag k="place" v="islet" />
		<tag k="ssr:stedsnr" v="707097" />
	</node>
	<node lat="68.95424721829416" lon="15.250941662179228" id="-13382">
		<tag k="name" v="Båtneset" />
		<tag k="natural" v="cape" />
		<tag k="ssr:stedsnr" v="707497" />
	</node>
	<node lat="69.012358337163" lon="15.093541656544197" id="-13388">
		<tag k="name" v="Vargneset" />
		<tag k="natural" v="cape" />
		<tag k="ssr:stedsnr" v="662409" />
	</node>
	<node lat="68.81101666593311" lon="14.785658324997518" id="-13392">
		<tag k="name" v="Skagholmen" />
		<tag k="place" v="islet" />
		<tag k="ssr:stedsnr" v="709651" />
	</node>
	<node lat="68.83339999724609" lon="14.823186114595652" id="-13396">
		<tag k="name" v="Lendinga" />
		<tag k="natural" v="beach" />
		<tag k="ssr:stedsnr" v="665800" />
	</node>
	<node lat="68.93825277468997" lon="15.23380277507817" id="-13397">
		<tag k="name" v="Mjåneset" />
		<tag k="natural" v="cape" />
		<tag k="ssr:stedsnr" v="890572" />
	</node>
	<node lat="68.81181666819909" lon="14.77930276724256" id="-13399">
		<tag k="name" v="Kjerkvikskåga" />
		<tag k="natural" v="cape" />
		<tag k="ssr:stedsnr" v="891683" />
	</node>
	<node lat="68.94748055215692" lon="15.29740832352912" id="-13406">
		<tag k="name" v="Årholmneset" />
		<tag k="natural" v="cape" />
		<tag k="ssr:stedsnr" v="892673" />
	</node>
	<node lat="68.95797222094397" lon="15.308780562736949" id="-13407">
		<tag k="fixme" v="consider seamark:type=rock or natural=shoal" />
		<tag k="name" v="Skatskjeret" />
		<tag k="place" v="islet" />
		<tag k="ssr:stedsnr" v="892678" />
	</node>
	<node lat="68.94184444892159" lon="14.978597220776873" id="-13408">
		<tag k="bay" v="fjord" />
		<tag k="name" v="Prestfjorden" />
		<tag k="natural" v="bay" />
		<tag k="ssr:stedsnr" v="685114" />
	</node>
	<node lat="68.93858055327703" lon="14.961377778012732" id="-13409">
		<tag k="fixme" v="multiple name tags, choose one and add the other to alt_name; consider seamark:type=rock or natural=shoal" />
		<tag k="name" v="Brusan;Brusskjeran" />
		<tag k="place" v="islet" />
		<tag k="ssr:stedsnr" v="685119" />
	</node>
	<node lat="68.94256110788449" lon="14.891483338130717" id="-13410">
		<tag k="name" v="Seiskjeret" />
		<tag k="natural" v="shoal" />
		<tag k="place" v="locality" />
		<tag k="ssr:stedsnr" v="685146" />
	</node>
	<node lat="68.96122222540026" lon="14.954772228320914" id="-13412">
		<tag k="alt_name" v="Valbeinskjeret;Valbeinskjeran" />
		<tag k="fixme" v="consider seamark:type=rock or natural=shoal" />
		<tag k="name" v="Vallbeinskjeret" />
		<tag k="place" v="islet" />
		<tag k="ssr:stedsnr" v="685157" />
	</node>
	<node lat="68.95060555130769" lon="14.866613891130665" id="-13413">
		<tag k="name" v="Skallgrunnen" />
		<tag k="natural" v="shoal" />
		<tag k="place" v="locality" />
		<tag k="ssr:stedsnr" v="685160" />
	</node>
	<node lat="69.0675722207714" lon="15.055966671872389" id="-13414">
		<tag k="name" v="Trollbakkan" />
		<tag k="natural" v="shoal" />
		<tag k="place" v="locality" />
		<tag k="ssr:stedsnr" v="685343" />
	</node>
	<node lat="68.95693333276375" lon="15.134530543576297" id="-13416">
		<tag k="bay" v="fjord" />
		<tag k="name" v="Strengelvågfjorden" />
		<tag k="natural" v="bay" />
		<tag k="ssr:stedsnr" v="685593" />
	</node>
	<node lat="68.91532221806008" lon="14.79753334070996" id="-13418">
		<tag k="fixme" v="consider seamark:type=rock or natural=shoal" />
		<tag k="name" v="Langskjerbikkja" />
		<tag k="place" v="islet" />
		<tag k="ssr:stedsnr" v="685741" />
	</node>
	<node lat="68.87186666582946" lon="14.841672233294164" id="-13419">
		<tag k="name" v="Kobbvågen" />
		<tag k="natural" v="bay" />
		<tag k="ssr:stedsnr" v="685793" />
	</node>
	<node lat="69.01346944140646" lon="15.097891655962826" id="-13421">
		<tag k="name" v="Skipssanden" />
		<tag k="natural" v="beach" />
		<tag k="ssr:stedsnr" v="690097" />
	</node>
	<node lat="68.91141388786308" lon="15.071422225502557" id="-13424">
		<tag k="name" v="Myrevågen" />
		<tag k="natural" v="strait" />
		<tag k="ssr:stedsnr" v="703213" />
	</node>
	<node lat="68.96465277976489" lon="15.139297213715839" id="-13425">
		<tag k="name" v="Sirivika" />
		<tag k="natural" v="bay" />
		<tag k="ssr:stedsnr" v="703226" />
	</node>
	<node lat="68.99049167089092" lon="15.019944445569598" id="-13426">
		<tag k="name" v="Revholmen" />
		<tag k="place" v="islet" />
		<tag k="ssr:stedsnr" v="703428" />
	</node>
	<node lat="68.85979166323825" lon="15.280108320241201" id="-13428">
		<tag k="name" v="Skjåholmen" />
		<tag k="place" v="islet" />
		<tag k="ssr:stedsnr" v="703509" />
	</node>
	<node lat="68.98568889056068" lon="15.296325001035793" id="-13434">
		<tag k="name" v="Gravbåen" />
		<tag k="natural" v="shoal" />
		<tag k="place" v="locality" />
		<tag k="ssr:stedsnr" v="705011" />
	</node>
	<node lat="68.84968333301093" lon="14.781311120678536" id="-13438">
		<tag k="name" v="Langneset" />
		<tag k="natural" v="cape" />
		<tag k="ssr:stedsnr" v="709703" />
	</node>
	<node lat="68.91367778162687" lon="15.308361116063987" id="-13440">
		<tag k="name" v="Geitholmen" />
		<tag k="place" v="islet" />
		<tag k="ssr:stedsnr" v="709700" />
	</node>
	<node lat="68.83289999613775" lon="15.019555542687765" id="-13446">
		<tag k="name" v="Melkarneset" />
		<tag k="natural" v="cape" />
		<tag k="ssr:stedsnr" v="724105" />
	</node>
	<node lat="68.84426388491754" lon="15.012711109649425" id="-13447">
		<tag k="name" v="Storøya" />
		<tag k="natural" v="cape" />
		<tag k="ssr:stedsnr" v="724108" />
	</node>
	<node lat="68.78487221784177" lon="14.938022230661607" id="-13450">
		<tag k="name" v="Avløysbukta" />
		<tag k="natural" v="bay" />
		<tag k="ssr:stedsnr" v="726772" />
	</node>
	<node lat="68.76497778191367" lon="14.911605558128874" id="-13452">
		<tag k="name" v="Vedbukta" />
		<tag k="natural" v="bay" />
		<tag k="ssr:stedsnr" v="726778" />
	</node>
	<node lat="68.97048333225445" lon="15.208249989407138" id="-13454">
		<tag k="name" v="Strengelvågøya" />
		<tag k="place" v="island" />
		<tag k="ssr:stedsnr" v="745612" />
	</node>
	<node lat="69.02961944670383" lon="15.097286099801986" id="-13455">
		<tag k="alt_name" v="Måsskjeran" />
		<tag k="fixme" v="consider seamark:type=rock or natural=shoal" />
		<tag k="name" v="Madsskjeran" />
		<tag k="place" v="islet" />
		<tag k="ssr:stedsnr" v="745382" />
	</node>
	<node lat="68.77119444284577" lon="14.875911114531547" id="-13456">
		<tag k="name" v="Teistpollholman" />
		<tag k="place" v="islet" />
		<tag k="ssr:stedsnr" v="745506" />
	</node>
	<node lat="68.95736110943305" lon="15.303955563331284" id="-13460">
		<tag k="alt_name" v="Skaten;Skata" />
		<tag k="fixme" v="consider seamark:type=rock or natural=shoal" />
		<tag k="name" v="Skatta" />
		<tag k="place" v="islet" />
		<tag k="ssr:stedsnr" v="746619" />
	</node>
	<node lat="68.87216388923598" lon="15.077833332041452" id="-13461">
		<tag k="alt_name" v="Steinvikbukta" />
		<tag k="name" v="Steinvikbogen" />
		<tag k="natural" v="bay" />
		<tag k="ssr:stedsnr" v="746667" />
	</node>
	<node lat="68.87663610800136" lon="15.042769449151766" id="-13462">
		<tag k="name" v="Flatholmen" />
		<tag k="place" v="islet" />
		<tag k="ssr:stedsnr" v="746668" />
	</node>
	<node lat="68.91226110807271" lon="14.988669445140161" id="-13464">
		<tag k="name" v="Rypsanden" />
		<tag k="natural" v="beach" />
		<tag k="ssr:stedsnr" v="746718" />
	</node>
	<node lat="68.83988333034446" lon="14.794019448674295" id="-13465">
		<tag k="fixme" v="consider seamark:type=rock or natural=shoal" />
		<tag k="name" v="Børskjæret" />
		<tag k="place" v="islet" />
		<tag k="ssr:stedsnr" v="746807" />
	</node>
	<node lat="68.82029166303843" lon="14.853944451937192" id="-13466">
		<tag k="alt_name" v="Bjørnerøy" />
		<tag k="name" v="Bjørnerøya" />
		<tag k="place" v="islet" />
		<tag k="ssr:stedsnr" v="746868" />
	</node>
	<node lat="69.00352777613143" lon="15.067019451205265" id="-13476">
		<tag k="name" v="Keila" />
		<tag k="natural" v="bay" />
		<tag k="ssr:stedsnr" v="905432" />
	</node>
	<node lat="68.97541388897275" lon="14.934488900516596" id="-13484">
		<tag k="name" v="Alteret" />
		<tag k="natural" v="shoal" />
		<tag k="place" v="locality" />
		<tag k="ssr:stedsnr" v="765007" />
	</node>
	<node lat="69.0061611127592" lon="15.004627767585779" id="-13485">
		<tag k="name" v="Skanken" />
		<tag k="natural" v="shoal" />
		<tag k="place" v="locality" />
		<tag k="ssr:stedsnr" v="765017" />
	</node>
	<node lat="68.78174166413176" lon="14.885541658673427" id="-13486">
		<tag k="name" v="Stibukta" />
		<tag k="natural" v="bay" />
		<tag k="ssr:stedsnr" v="764745" />
	</node>
	<node lat="68.84161666638119" lon="15.26634999179385" id="-13490">
		<tag k="name" v="Oterbukta" />
		<tag k="natural" v="bay" />
		<tag k="ssr:stedsnr" v="768592" />
	</node>
	<node lat="68.80391667016241" lon="14.811152769180728" id="-13497">
		<tag k="name" v="Kvernnessundet" />
		<tag k="natural" v="strait" />
		<tag k="ssr:stedsnr" v="908918" />
	</node>
	<node lat="68.81092500341282" lon="14.815308338210647" id="-13498">
		<tag k="name" v="Skjåneset" />
		<tag k="natural" v="cape" />
		<tag k="ssr:stedsnr" v="908920" />
	</node>
	<node lat="68.78198333724043" lon="14.72193610529245" id="-13506">
		<tag k="name" v="Skagan" />
		<tag k="place" v="islet" />
		<tag k="ssr:stedsnr" v="785664" />
	</node>
	<node lat="68.83595000339855" lon="14.71773612058788" id="-13507">
		<tag k="name" v="Ålberholman" />
		<tag k="place" v="islet" />
		<tag k="ssr:stedsnr" v="785665" />
	</node>
	<node lat="68.83457221802118" lon="14.715741669760229" id="-13508">
		<tag k="name" v="Ålbersundet" />
		<tag k="natural" v="bay" />
		<tag k="ssr:stedsnr" v="785667" />
	</node>
	<node lat="68.82273889062795" lon="14.842941664854747" id="-13509">
		<tag k="name" v="Rebbesvika" />
		<tag k="natural" v="bay" />
		<tag k="ssr:stedsnr" v="787876" />
	</node>
	<node lat="68.91172221918704" lon="15.059197230008873" id="-13510">
		<tag k="name" v="Kattnesbukta" />
		<tag k="natural" v="bay" />
		<tag k="ssr:stedsnr" v="825125" />
	</node>
	<node lat="68.80345277714079" lon="15.035216678467561" id="-13518">
		<tag k="name" v="Storklubben" />
		<tag k="natural" v="cape" />
		<tag k="ssr:stedsnr" v="825714" />
	</node>
	<node lat="68.8139361156128" lon="15.037266660232858" id="-13519">
		<tag k="name" v="Oterneset" />
		<tag k="natural" v="cape" />
		<tag k="ssr:stedsnr" v="825718" />
	</node>
	<node lat="69.00049999804554" lon="15.014702768770348" id="-13520">
		<tag k="name" v="Evengrunnen" />
		<tag k="natural" v="shoal" />
		<tag k="place" v="locality" />
		<tag k="ssr:stedsnr" v="826009" />
	</node>
	<node lat="68.9483333320175" lon="14.948588892372591" id="-13521">
		<tag k="name" v="Ytre Teisten" />
		<tag k="natural" v="shoal" />
		<tag k="place" v="locality" />
		<tag k="ssr:stedsnr" v="826010" />
	</node>
	<node lat="68.97694304543084" lon="15.263727999399276" id="-13522">
		<tag k="fixme" v="consider seamark:type=rock or natural=shoal" />
		<tag k="name" v="Meløyskjeret" />
		<tag k="place" v="islet" />
		<tag k="ssr:stedsnr" v="826014" />
	</node>
	<node lat="69.03837777539607" lon="15.171949995816984" id="-13523">
		<tag k="name" v="Midtre Skreingen" />
		<tag k="natural" v="shoal" />
		<tag k="place" v="locality" />
		<tag k="ssr:stedsnr" v="826089" />
	</node>
	<node lat="68.82644722581304" lon="15.142597226698518" id="-13524">
		<tag k="name" v="Leirbogholmen" />
		<tag k="place" v="islet" />
		<tag k="ssr:stedsnr" v="826930" />
	</node>
	<node lat="68.81791667025286" lon="14.923869455427235" id="-13525">
		<tag k="name" v="Nordre Langøygrunnen" />
		<tag k="natural" v="shoal" />
		<tag k="place" v="locality" />
		<tag k="ssr:stedsnr" v="826934" />
	</node>
	<node lat="68.91549722597063" lon="14.862158328835863" id="-13526">
		<tag k="name" v="Sanden" />
		<tag k="natural" v="beach" />
		<tag k="ssr:stedsnr" v="829067" />
	</node>
	<node lat="68.93966667039524" lon="15.21691111149392" id="-13527">
		<tag k="name" v="Brekka" />
		<tag k="natural" v="bay" />
		<tag k="ssr:stedsnr" v="829550" />
	</node>
	<node lat="68.94840277839259" lon="14.998938882139914" id="-13542">
		<tag k="alt_name" v="Pansergrunnen" />
		<tag k="name" v="Pansargrunnen" />
		<tag k="natural" v="shoal" />
		<tag k="place" v="locality" />
		<tag k="ssr:stedsnr" v="928117" />
	</node>
	<node lat="68.93236944836957" lon="14.789986104233765" id="-13543">
		<tag k="name" v="Rekskallen" />
		<tag k="natural" v="shoal" />
		<tag k="place" v="locality" />
		<tag k="ssr:stedsnr" v="928119" />
	</node>
	<node lat="68.9571638898301" lon="14.929344433650618" id="-13544">
		<tag k="fixme" v="consider seamark:type=rock or natural=shoal" />
		<tag k="name" v="Hanskjeret" />
		<tag k="place" v="islet" />
		<tag k="ssr:stedsnr" v="928124" />
	</node>
	<node lat="68.94599721894174" lon="14.931558338547852" id="-13545">
		<tag k="name" v="Geitholmen" />
		<tag k="place" v="islet" />
		<tag k="ssr:stedsnr" v="928127" />
	</node>
	<node lat="68.96751666425557" lon="14.996830543114582" id="-13546">
		<tag k="alt_name" v="Innerøya" />
		<tag k="name" v="Indreøya" />
		<tag k="place" v="island" />
		<tag k="ssr:stedsnr" v="928135" />
	</node>
	<node lat="68.98941944811236" lon="14.984177777400834" id="-13547">
		<tag k="name" v="Valbergfallet" />
		<tag k="natural" v="shoal" />
		<tag k="place" v="locality" />
		<tag k="ssr:stedsnr" v="928140" />
	</node>
	<node lat="69.05385555324264" lon="15.17027221217774" id="-13554">
		<tag k="name" v="Hausan" />
		<tag k="natural" v="shoal" />
		<tag k="place" v="locality" />
		<tag k="ssr:stedsnr" v="928349" />
	</node>
	<node lat="68.76536667087524" lon="14.862938895149103" id="-13559">
		<tag k="name" v="Teistpollen" />
		<tag k="natural" v="bay" />
		<tag k="ssr:stedsnr" v="928514" />
	</node>
	<node lat="68.9627249997089" lon="15.294019439277767" id="-13560">
		<tag k="name" v="Gisløyskaga" />
		<tag k="natural" v="cape" />
		<tag k="ssr:stedsnr" v="928566" />
	</node>
	<node lat="68.95454722667318" lon="15.18082777751566" id="-13561">
		<tag k="alt_name" v="Gårdsøya" />
		<tag k="name" v="Gårdsholmen" />
		<tag k="place" v="islet" />
		<tag k="ssr:stedsnr" v="928605" />
	</node>
	<node lat="68.94848610905596" lon="15.275919439323653" id="-13563">
		<tag k="name" v="Årvågen" />
		<tag k="natural" v="bay" />
		<tag k="ssr:stedsnr" v="928616" />
	</node>
	<node lat="68.9236666625357" lon="14.830313892344686" id="-13569">
		<tag k="fixme" v="consider seamark:type=rock or natural=shoal" />
		<tag k="name" v="Revskjeran" />
		<tag k="place" v="islet" />
		<tag k="ssr:stedsnr" v="928745" />
	</node>
	<node lat="68.89940555939428" lon="14.695116662165272" id="-13570">
		<tag k="name" v="Tussbåen" />
		<tag k="natural" v="shoal" />
		<tag k="place" v="locality" />
		<tag k="ssr:stedsnr" v="928748" />
	</node>
	<node lat="68.82660555430867" lon="14.891513897061179" id="-13573">
		<tag k="name" v="Sandholmen" />
		<tag k="place" v="islet" />
		<tag k="ssr:stedsnr" v="928872" />
	</node>
	<node lat="68.81814999981974" lon="14.906641657889754" id="-13575">
		<tag k="name" v="Valan" />
		<tag k="natural" v="bay" />
		<tag k="ssr:stedsnr" v="928896" />
	</node>
	<node lat="68.78138610977938" lon="14.924338900288289" id="-13576">
		<tag k="name" v="Høgholmen" />
		<tag k="place" v="islet" />
		<tag k="ssr:stedsnr" v="928987" />
	</node>
	<node lat="68.78551111250276" lon="14.945769436949341" id="-13577">
		<tag k="bay" v="fjord" />
		<tag k="name" v="Skjærfjorden - Skearavuotna" />
		<tag k="name:no" v="Skjærfjorden" />
		<tag k="name:se" v="Skearavuotna" />
		<tag k="natural" v="bay" />
		<tag k="old_name:no" v="Skjelfjorden" />
		<tag k="ssr:stedsnr" v="928998" />
	</node>
	<node lat="68.81140000181571" lon="14.935444452895865" id="-13581">
		<tag k="name" v="Brusdalsneset" />
		<tag k="natural" v="cape" />
		<tag k="ssr:stedsnr" v="868907" />
	</node>
	<node lat="69.02224444663156" lon="15.11630832838717" id="-13583">
		<tag k="name" v="Rundholmen" />
		<tag k="place" v="islet" />
		<tag k="ssr:stedsnr" v="885420" />
	</node>
	<node lat="68.88818055248716" lon="15.298677781548406" id="-13585">
		<tag k="fixme" v="consider seamark:type=rock or natural=shoal" />
		<tag k="name" v="Skjeret" />
		<tag k="place" v="islet" />
		<tag k="ssr:stedsnr" v="886014" />
	</node>
	<node lat="69.02235000251562" lon="15.132955566951233" id="-13587">
		<tag k="name" v="Klubbholmen" />
		<tag k="place" v="islet" />
		<tag k="ssr:stedsnr" v="886848" />
	</node>
	<node lat="68.97096666307186" lon="15.012761118099688" id="-13589">
		<tag k="name" v="Halsbåan" />
		<tag k="natural" v="shoal" />
		<tag k="place" v="locality" />
		<tag k="ssr:stedsnr" v="887001" />
	</node>
	<node lat="68.8829111100282" lon="14.86683888708625" id="-13591">
		<tag k="name" v="Høydalsvika" />
		<tag k="natural" v="bay" />
		<tag k="ssr:stedsnr" v="889119" />
	</node>
	<node lat="68.92589444661192" lon="14.951380557551081" id="-13595">
		<tag k="name" v="Kvalvika" />
		<tag k="natural" v="bay" />
		<tag k="ssr:stedsnr" v="889058" />
	</node>
	<node lat="68.81750000221169" lon="15.148044440381192" id="-13598">
		<tag k="name" v="Holmen" />
		<tag k="natural" v="cape" />
		<tag k="ssr:stedsnr" v="890617" />
	</node>
	<node lat="68.9063611120949" lon="14.994522211632713" id="-13599">
		<tag k="name" v="Likkjhumpen" />
		<tag k="place" v="islet" />
		<tag k="ssr:stedsnr" v="891356" />
	</node>
	<node lat="68.83066666480056" lon="15.016972217538713" id="-13604">
		<tag k="name" v="Bakkejordbukta" />
		<tag k="natural" v="bay" />
		<tag k="ssr:stedsnr" v="906116" />
	</node>
	<node lat="68.83623611038868" lon="14.832544454579896" id="-13608">
		<tag k="name" v="Risholmen" />
		<tag k="place" v="islet" />
		<tag k="ssr:stedsnr" v="908821" />
	</node>
	<node lat="69.00985277978712" lon="15.026016656737706" id="-13610">
		<tag k="alt_name" v="Nordre Fleskan" />
		<tag k="fixme" v="multiple name tags, choose one and add the other to alt_name; consider seamark:type=rock or natural=shoal" />
		<tag k="name" v="Krokskjeret;Nordflesken" />
		<tag k="place" v="islet" />
		<tag k="ssr:stedsnr" v="927355" />
	</node>
	<node lat="68.86766944084034" lon="14.919247226146528" id="-13613">
		<tag k="name" v="Sandholmen" />
		<tag k="place" v="islet" />
		<tag k="ssr:stedsnr" v="928806" />
	</node>
	<node lat="68.8605555584757" lon="14.77343610262217" id="-13614">
		<tag k="name" v="Terøyskallen" />
		<tag k="natural" v="shoal" />
		<tag k="place" v="locality" />
		<tag k="ssr:stedsnr" v="928810" />
	</node>
	<node lat="68.86276944080363" lon="14.715499990498683" id="-13615">
		<tag k="name" v="Søreinsteinen" />
		<tag k="natural" v="shoal" />
		<tag k="place" v="locality" />
		<tag k="ssr:stedsnr" v="928812" />
	</node>
	<node lat="68.87161944735519" lon="14.956272235059373" id="-13616">
		<tag k="name" v="Svinøysundet" />
		<tag k="natural" v="strait" />
		<tag k="ssr:stedsnr" v="928813" />
	</node>
	<node lat="68.85928888523257" lon="14.85498332288467" id="-13617">
		<tag k="name" v="Børøyskallen" />
		<tag k="natural" v="shoal" />
		<tag k="place" v="locality" />
		<tag k="ssr:stedsnr" v="928828" />
	</node>
	<node lat="68.83365555705568" lon="14.826633331950406" id="-13618">
		<tag k="name" v="Ballvika" />
		<tag k="natural" v="bay" />
		<tag k="ssr:stedsnr" v="928833" />
	</node>
	<node lat="69.01652777701663" lon="15.097136121194696" id="-13626">
		<tag k="name" v="Melkarstøa" />
		<tag k="natural" v="bay" />
		<tag k="ssr:stedsnr" v="946401" />
	</node>
	<node lat="69.01955277507562" lon="15.10620833570737" id="-13627">
		<tag k="name" v="Valen" />
		<tag k="natural" v="bay" />
		<tag k="ssr:stedsnr" v="946402" />
	</node>
	<node lat="68.78006111370921" lon="14.768230550359934" id="-13628">
		<tag k="name" v="Tverrbrua" />
		<tag k="natural" v="cape" />
		<tag k="ssr:stedsnr" v="946516" />
	</node>
	<node lat="68.86730278003017" lon="14.815883342132468" id="-13630">
		<tag k="name" v="Storbåen" />
		<tag k="natural" v="shoal" />
		<tag k="place" v="locality" />
		<tag k="ssr:stedsnr" v="948327" />
	</node>
	<node lat="68.84655832936613" lon="14.899908324837963" id="-13631">
		<tag k="name" v="Søre Saltbergodden" />
		<tag k="natural" v="cape" />
		<tag k="ssr:stedsnr" v="948337" />
	</node>
	<node lat="68.99566667083126" lon="15.00155000692523" id="-13632">
		<tag k="name" v="Storskjerpingen" />
		<tag k="place" v="islet" />
		<tag k="ssr:stedsnr" v="948496" />
	</node>
	<node lat="68.92666944698102" lon="14.821219440313142" id="-13633">
		<tag k="name" v="Søre Ruten" />
		<tag k="natural" v="shoal" />
		<tag k="place" v="locality" />
		<tag k="ssr:stedsnr" v="949929" />
	</node>
	<node lat="68.9595888873889" lon="15.258713888029098" id="-13639">
		<tag k="name" v="Geitholmen" />
		<tag k="place" v="islet" />
		<tag k="ssr:stedsnr" v="950477" />
	</node>
	<node lat="68.95810555295932" lon="15.284175006832326" id="-13640">
		<tag k="name" v="Kattvågen" />
		<tag k="natural" v="bay" />
		<tag k="ssr:stedsnr" v="950480" />
	</node>
	<node lat="68.84283611064933" lon="14.56766110511077" id="-13642">
		<tag k="name" v="Hola" />
		<tag k="natural" v="reef" />
		<tag k="ssr:stedsnr" v="951210" />
	</node>
	<node lat="68.82216943979155" lon="14.77582778444375" id="-13643">
		<tag k="name" v="Vinjeklubben" />
		<tag k="natural" v="cape" />
		<tag k="ssr:stedsnr" v="951689" />
	</node>
	<node lat="68.86065832989814" lon="14.989763879350958" id="-13648">
		<tag k="name" v="Hamnneset" />
		<tag k="natural" v="cape" />
		<tag k="ssr:stedsnr" v="967347" />
	</node>
	<node lat="68.79666111575686" lon="14.926047211744413" id="-13649">
		<tag k="name" v="Skoltneset" />
		<tag k="natural" v="cape" />
		<tag k="ssr:stedsnr" v="969737" />
	</node>
	<node lat="68.79147499975211" lon="14.87518889483871" id="-13651">
		<tag k="name" v="Grøtsethamn" />
		<tag k="natural" v="bay" />
		<tag k="ssr:stedsnr" v="969739" />
	</node>
	<node lat="68.804125188896" lon="14.776467461891635" id="-13653">
		<tag k="name" v="Finnvågbukta" />
		<tag k="natural" v="bay" />
		<tag k="ssr:stedsnr" v="989753" />
	</node>
	<node lat="68.98899722475912" lon="15.276227772015446" id="-13658">
		<tag k="alt_name" v="Bjørn" />
		<tag k="name" v="Bjørnen" />
		<tag k="place" v="islet" />
		<tag k="ssr:stedsnr" v="17588" />
	</node>
	<node lat="68.96365555214335" lon="15.272849994159243" id="-13662">
		<tag k="fixme" v="consider seamark:type=rock or natural=shoal" />
		<tag k="name" v="Stabben" />
		<tag k="place" v="islet" />
		<tag k="ssr:stedsnr" v="18557" />
	</node>
	<node lat="68.98268055411776" lon="15.011641662992265" id="-13664">
		<tag k="alt_name" v="Senholmen" />
		<tag k="name" v="Sennholmen" />
		<tag k="place" v="islet" />
		<tag k="ssr:stedsnr" v="18156" />
	</node>
	<node lat="68.93511389254986" lon="14.82559444393359" id="-13666">
		<tag k="alt_name" v="Silrotskallen" />
		<tag k="name" v="Silråsskallen" />
		<tag k="natural" v="shoal" />
		<tag k="place" v="locality" />
		<tag k="ssr:stedsnr" v="18138" />
	</node>
	<node lat="68.93832778078047" lon="14.928888883235208" id="-13667">
		<tag k="fixme" v="multiple name tags, choose one and add the other to alt_name" />
		<tag k="name" v="Langskjeret;Store Langskjeret" />
		<tag k="place" v="islet" />
		<tag k="ssr:stedsnr" v="18139" />
	</node>
	<node lat="68.95684444396778" lon="15.006513894524572" id="-13668">
		<tag k="fixme" v="consider seamark:type=rock or natural=shoal" />
		<tag k="name" v="Klubbskjeret" />
		<tag k="place" v="islet" />
		<tag k="ssr:stedsnr" v="18141" />
	</node>
	<node lat="68.99953333630812" lon="15.003525002432507" id="-13669">
		<tag k="fixme" v="consider seamark:type=rock or natural=shoal" />
		<tag k="name" v="Småskjeran" />
		<tag k="place" v="islet" />
		<tag k="ssr:stedsnr" v="18158" />
	</node>
	<node lat="68.836844441797" lon="15.272224989691859" id="-13670">
		<tag k="bay" v="fjord" />
		<tag k="name" v="Lifjorden" />
		<tag k="natural" v="bay" />
		<tag k="ssr:stedsnr" v="18271" />
	</node>
	<node lat="68.86098888615494" lon="15.295116675773833" id="-13672">
		<tag k="name" v="Bokkøya" />
		<tag k="place" v="islet" />
		<tag k="ssr:stedsnr" v="18670" />
	</node>
	<node lat="68.92462777699947" lon="15.021208331496565" id="-13682">
		<tag k="alt_name" v="Myrskjeran" />
		<tag k="fixme" v="consider seamark:type=rock or natural=shoal" />
		<tag k="name" v="Myreskjeran" />
		<tag k="place" v="islet" />
		<tag k="ssr:stedsnr" v="18591" />
	</node>
	<node lat="68.84978888693105" lon="14.903850001820123" id="-13685">
		<tag k="alt_name" v="Nordre Saltbergodden" />
		<tag k="name" v="Saltbergodden" />
		<tag k="natural" v="cape" />
		<tag k="ssr:stedsnr" v="18792" />
	</node>
	<node lat="68.89363611406041" lon="14.717077767563453" id="-13690">
		<tag k="alt_name" v="Breidgrunnskjeran" />
		<tag k="fixme" v="consider seamark:type=rock or natural=shoal" />
		<tag k="name" v="Breigrunnskjeran" />
		<tag k="place" v="islet" />
		<tag k="ssr:stedsnr" v="18740" />
	</node>
	<node lat="68.8881416712795" lon="14.704019434853295" id="-13691">
		<tag k="name" v="Buholmen" />
		<tag k="place" v="islet" />
		<tag k="ssr:stedsnr" v="18744" />
	</node>
	<node lat="68.84895277459056" lon="14.999777778277798" id="-13692">
		<tag k="name" v="Sæterbukta" />
		<tag k="natural" v="bay" />
		<tag k="ssr:stedsnr" v="18822" />
	</node>
	<node lat="68.8303527744493" lon="14.717608328399542" id="-13693">
		<tag k="name" v="Sunderøya" />
		<tag k="place" v="island" />
		<tag k="ssr:stedsnr" v="18832" />
	</node>
	<node lat="68.79729999618188" lon="14.91430000049338" id="-13694">
		<tag k="alt_name" v="Flatskjeret" />
		<tag k="name" v="Flatholmen" />
		<tag k="place" v="islet" />
		<tag k="ssr:stedsnr" v="18948" />
	</node>
	<node lat="68.81312777999123" lon="14.855702784026274" id="-13695">
		<tag k="alt_name" v="Skjevelnes" />
		<tag k="name" v="Skjevelneset" />
		<tag k="natural" v="cape" />
		<tag k="ssr:stedsnr" v="18902" />
	</node>
	<node lat="68.79975833409803" lon="14.797244437505192" id="-13696">
		<tag k="name" v="Leirbugen" />
		<tag k="natural" v="bay" />
		<tag k="ssr:stedsnr" v="18922" />
	</node>
	<node lat="68.80302499863436" lon="14.764966672602798" id="-13699">
		<tag k="name" v="Nærøya" />
		<tag k="place" v="island" />
		<tag k="ssr:stedsnr" v="18970" />
	</node>
	<node lat="69.01962499605261" lon="15.086763895093481" id="-13702">
		<tag k="fixme" v="consider seamark:type=rock or natural=shoal" />
		<tag k="name" v="Rossmålen" />
		<tag k="place" v="islet" />
		<tag k="ssr:stedsnr" v="36372" />
	</node>
	<node lat="69.02924722057458" lon="15.117622217126867" id="-13703">
		<tag k="alt_name" v="Lyngøya" />
		<tag k="name" v="Løngøya" />
		<tag k="place" v="island" />
		<tag k="ssr:stedsnr" v="36391" />
	</node>
	<node lat="68.9112444465778" lon="15.210558324193793" id="-13704">
		<tag k="name" v="Innerholmen" />
		<tag k="place" v="islet" />
		<tag k="ssr:stedsnr" v="36075" />
	</node>
	<node lat="68.91934166547746" lon="15.237488879622997" id="-13705">
		<tag k="name" v="Sandholmen" />
		<tag k="place" v="islet" />
		<tag k="ssr:stedsnr" v="36076" />
	</node>
	<node lat="69.0571722257167" lon="15.132788902261927" id="-13709">
		<tag k="name" v="Skjerhella" />
		<tag k="natural" v="shoal" />
		<tag k="place" v="locality" />
		<tag k="ssr:stedsnr" v="37089" />
	</node>
	<node lat="68.99060833219288" lon="15.015244442110452" id="-13710">
		<tag k="name" v="Ramsundet" />
		<tag k="natural" v="strait" />
		<tag k="ssr:stedsnr" v="36358" />
	</node>
	<node lat="69.01977499947509" lon="15.120925010822102" id="-13712">
		<tag k="name" v="Spira" />
		<tag k="natural" v="cape" />
		<tag k="ssr:stedsnr" v="36400" />
	</node>
	<node lat="68.76605277673006" lon="14.911352779069876" id="-13714">
		<tag k="name" v="Hundsneset" />
		<tag k="natural" v="cape" />
		<tag k="ssr:stedsnr" v="36729" />
	</node>
	<node lat="69.02456388537028" lon="15.183805563574253" id="-13718">
		<tag k="name" v="Krusa" />
		<tag k="natural" v="shoal" />
		<tag k="place" v="locality" />
		<tag k="ssr:stedsnr" v="37098" />
	</node>
	<node lat="68.93278611100118" lon="15.035222220872765" id="-13719">
		<tag k="name" v="Høydalsvika" />
		<tag k="natural" v="bay" />
		<tag k="ssr:stedsnr" v="37917" />
	</node>
	<node lat="68.89457499825734" lon="14.701683337299961" id="-13720">
		<tag k="name" v="Tussbåhella" />
		<tag k="natural" v="shoal" />
		<tag k="place" v="locality" />
		<tag k="ssr:stedsnr" v="38974" />
	</node>
	<node lat="68.87034722230949" lon="14.847002787149046" id="-13723">
		<tag k="name" v="Skinnstakkvika" />
		<tag k="natural" v="bay" />
		<tag k="ssr:stedsnr" v="39079" />
	</node>
	<node lat="68.87335555649241" lon="14.873808321390609" id="-13724">
		<tag k="fixme" v="consider seamark:type=rock or natural=shoal" />
		<tag k="name" v="Skarvskjeret" />
		<tag k="place" v="islet" />
		<tag k="ssr:stedsnr" v="39082" />
	</node>
	<node lat="68.84736666344828" lon="14.78510833691618" id="-13737">
		<tag k="name" v="Steinsundneset" />
		<tag k="natural" v="cape" />
		<tag k="ssr:stedsnr" v="41734" />
	</node>
	<node lat="68.79843610839384" lon="14.924355549109567" id="-13742">
		<tag k="name" v="Teistklubben" />
		<tag k="natural" v="cape" />
		<tag k="ssr:stedsnr" v="59727" />
	</node>
	<node lat="69.05680277704545" lon="15.021013877892637" id="-13750">
		<tag k="name" v="Tretindbotn" />
		<tag k="natural" v="shoal" />
		<tag k="place" v="locality" />
		<tag k="ssr:stedsnr" v="78368" />
	</node>
	<node lat="68.96020000247627" lon="15.201016676487543" id="-13753">
		<tag k="fixme" v="consider seamark:type=rock or natural=shoal" />
		<tag k="name" v="Lassan" />
		<tag k="place" v="islet" />
		<tag k="ssr:stedsnr" v="78587" />
	</node>
	<node lat="68.89400277604287" lon="15.079552766594636" id="-13754">
		<tag k="alt_name" v="Oppmyrebogen" />
		<tag k="name" v="Oppmyrbogen" />
		<tag k="natural" v="bay" />
		<tag k="ssr:stedsnr" v="78719" />
	</node>
	<node lat="68.90962499630828" lon="14.991533334383268" id="-13755">
		<tag k="alt_name" v="Sjurdtangen" />
		<tag k="name" v="Sjurtangen" />
		<tag k="natural" v="cape" />
		<tag k="ssr:stedsnr" v="78769" />
	</node>
	<node lat="68.92760277947451" lon="14.860013891874342" id="-13758">
		<tag k="name" v="Vågjevika" />
		<tag k="natural" v="bay" />
		<tag k="ssr:stedsnr" v="79138" />
	</node>
	<node lat="69.11027777486723" lon="15.259058325017332" id="-13759">
		<tag k="name" v="Nordbåan" />
		<tag k="natural" v="shoal" />
		<tag k="place" v="locality" />
		<tag k="ssr:stedsnr" v="79232" />
	</node>
	<node lat="68.92710277718095" lon="14.971291673449592" id="-13762">
		<tag k="name" v="Høyvika" />
		<tag k="natural" v="bay" />
		<tag k="ssr:stedsnr" v="79727" />
	</node>
	<node lat="68.84903055693412" lon="15.100955559892716" id="-13763">
		<tag k="fixme" v="consider seamark:type=rock or natural=shoal" />
		<tag k="name" v="Olaskjeret" />
		<tag k="place" v="islet" />
		<tag k="ssr:stedsnr" v="79683" />
	</node>
	<node lat="68.81019444472446" lon="14.826025003996769" id="-13765">
		<tag k="name" v="Dyrøya" />
		<tag k="place" v="island" />
		<tag k="ssr:stedsnr" v="79859" />
	</node>
	<node lat="68.8113916626539" lon="14.765572232790193" id="-13768">
		<tag k="name" v="Vinjesundet" />
		<tag k="natural" v="strait" />
		<tag k="ssr:stedsnr" v="79911" />
	</node>
	<node lat="69.02454444308427" lon="15.110688895241323" id="-13770">
		<tag k="name" v="E-holmen" />
		<tag k="place" v="islet" />
		<tag k="ssr:stedsnr" v="96417" />
	</node>
	<node lat="69.01973333465926" lon="15.102330543490627" id="-13771">
		<tag k="fixme" v="consider seamark:type=rock or natural=shoal" />
		<tag k="name" v="Danmark" />
		<tag k="place" v="islet" />
		<tag k="ssr:stedsnr" v="96421" />
	</node>
	<node lat="69.02494444040815" lon="15.101480555738357" id="-13772">
		<tag k="fixme" v="consider seamark:type=rock or natural=shoal" />
		<tag k="name" v="Reppålen" />
		<tag k="place" v="islet" />
		<tag k="ssr:stedsnr" v="96425" />
	</node>
	<node lat="68.91752222133637" lon="15.249850007630858" id="-13773">
		<tag k="name" v="Makkholmen" />
		<tag k="place" v="islet" />
		<tag k="ssr:stedsnr" v="97083" />
	</node>
	<node lat="68.92190278020111" lon="15.221147217841432" id="-13775">
		<tag k="name" v="Sørvågen" />
		<tag k="natural" v="bay" />
		<tag k="ssr:stedsnr" v="97051" />
	</node>
	<node lat="68.92682222431787" lon="15.217633339278462" id="-13776">
		<tag k="name" v="Straumneset" />
		<tag k="natural" v="cape" />
		<tag k="ssr:stedsnr" v="97056" />
	</node>
	<node lat="68.93174166547627" lon="15.190811121870052" id="-13780">
		<tag k="name" v="Eveneset" />
		<tag k="natural" v="cape" />
		<tag k="ssr:stedsnr" v="97222" />
	</node>
	<node lat="68.9357333293564" lon="15.19111944434208" id="-13781">
		<tag k="name" v="Langdrangelen" />
		<tag k="natural" v="cape" />
		<tag k="ssr:stedsnr" v="97223" />
	</node>
	<node lat="68.86821388763465" lon="15.29000832392527" id="-13786">
		<tag k="name" v="Storsteinneset" />
		<tag k="natural" v="cape" />
		<tag k="ssr:stedsnr" v="97797" />
	</node>
	<node lat="69.02455000081824" lon="15.170991654824459" id="-13788">
		<tag k="fixme" v="consider seamark:type=rock or natural=shoal" />
		<tag k="name" v="Spanna" />
		<tag k="place" v="islet" />
		<tag k="ssr:stedsnr" v="97845" />
	</node>
	<node lat="68.9772162616295" lon="15.264164762786994" id="-13791">
		<tag k="alt_name" v="Kværnbøen" />
		<tag k="name" v="Kvernbåen" />
		<tag k="natural" v="shoal" />
		<tag k="place" v="locality" />
		<tag k="ssr:stedsnr" v="98008" />
	</node>
	<node lat="68.9218388909756" lon="15.008869452777615" id="-13792">
		<tag k="fixme" v="consider seamark:type=rock or natural=shoal" />
		<tag k="name" v="Gjæva" />
		<tag k="place" v="islet" />
		<tag k="ssr:stedsnr" v="99932" />
	</node>
	<node lat="68.92786666639864" lon="14.825222226782614" id="-13793">
		<tag k="name" v="Nordre Ruten" />
		<tag k="natural" v="shoal" />
		<tag k="place" v="locality" />
		<tag k="ssr:stedsnr" v="99947" />
	</node>
	<node lat="68.9203388893572" lon="14.840305555404733" id="-13794">
		<tag k="name" v="Snalsbåen" />
		<tag k="natural" v="shoal" />
		<tag k="place" v="locality" />
		<tag k="ssr:stedsnr" v="99952" />
	</node>
	<node lat="68.87339999818964" lon="14.852452774718834" id="-13799">
		<tag k="name" v="Nordøya" />
		<tag k="natural" v="cape" />
		<tag k="ssr:stedsnr" v="100100" />
	</node>
	<node lat="68.97538888943068" lon="15.241788890853433" id="-13802">
		<tag k="fixme" v="consider seamark:type=rock or natural=shoal" />
		<tag k="name" v="Likkj-Svartoksen" />
		<tag k="place" v="islet" />
		<tag k="ssr:stedsnr" v="101551" />
	</node>
	<node lat="68.82485833096872" lon="15.1445222321157" id="-13803">
		<tag k="name" v="Leirbogen" />
		<tag k="natural" v="bay" />
		<tag k="ssr:stedsnr" v="101598" />
	</node>
	<node lat="68.92129999665086" lon="14.975983324081959" id="-13808">
		<tag k="name" v="Skredneset" />
		<tag k="natural" v="cape" />
		<tag k="ssr:stedsnr" v="102378" />
	</node>
	<node lat="69.00393055380425" lon="15.067997220346898" id="-13813">
		<tag k="name" v="Åsmulen" />
		<tag k="place" v="islet" />
		<tag k="ssr:stedsnr" v="116410" />
	</node>
	<node lat="68.87740000387468" lon="14.968669440713317" id="-13817">
		<tag k="name" v="Øksnesvågen" />
		<tag k="natural" v="bay" />
		<tag k="ssr:stedsnr" v="118352" />
	</node>
	<node lat="68.78071944815999" lon="14.885719433769578" id="-13820">
		<tag k="name" v="Teistpolholmen" />
		<tag k="place" v="islet" />
		<tag k="ssr:stedsnr" v="119757" />
	</node>
	<node lat="68.82091666717413" lon="14.902105551871017" id="-13825">
		<tag k="name" v="Kasperbukta" />
		<tag k="natural" v="bay" />
		<tag k="ssr:stedsnr" v="119904" />
	</node>
	<node lat="69.02271388526624" lon="15.127638890242942" id="-13828">
		<tag k="name" v="Bårholmen" />
		<tag k="place" v="islet" />
		<tag k="ssr:stedsnr" v="138376" />
	</node>
	<node lat="68.97885555688842" lon="15.003622230760573" id="-13829">
		<tag k="fixme" v="consider seamark:type=rock or natural=shoal" />
		<tag k="name" v="Skarvskjeret" />
		<tag k="place" v="islet" />
		<tag k="ssr:stedsnr" v="138181" />
	</node>
	<node lat="68.95335832923038" lon="14.952719437047772" id="-13834">
		<tag k="fixme" v="consider seamark:type=rock or natural=shoal" />
		<tag k="name" v="Rundskjeret" />
		<tag k="place" v="islet" />
		<tag k="ssr:stedsnr" v="138719" />
	</node>
	<node lat="68.90826388727315" lon="14.855705552584636" id="-13835">
		<tag k="name" v="Sørsandvika" />
		<tag k="natural" v="bay" />
		<tag k="ssr:stedsnr" v="138784" />
	</node>
	<node lat="68.91528055935434" lon="15.31173334070577" id="-13841">
		<tag k="fixme" v="consider seamark:type=rock or natural=shoal" />
		<tag k="name" v="Kuholman" />
		<tag k="place" v="islet" />
		<tag k="ssr:stedsnr" v="139655" />
	</node>
	<node lat="68.8907777811831" lon="14.797674997415198" id="-13847">
		<tag k="fixme" v="consider seamark:type=rock or natural=shoal" />
		<tag k="name" v="Blindskjeran" />
		<tag k="place" v="islet" />
		<tag k="ssr:stedsnr" v="139773" />
	</node>
	<node lat="68.84341666961977" lon="14.782044438864503" id="-13848">
		<tag k="name" v="Børvågen" />
		<tag k="natural" v="bay" />
		<tag k="ssr:stedsnr" v="139818" />
	</node>
	<node lat="68.837194448659" lon="14.832588885290892" id="-13849">
		<tag k="name" v="Børøysundet" />
		<tag k="natural" v="strait" />
		<tag k="ssr:stedsnr" v="139825" />
	</node>
	<node lat="68.78820833312261" lon="14.936997213062964" id="-13852">
		<tag k="name" v="Sandsetneset" />
		<tag k="natural" v="cape" />
		<tag k="ssr:stedsnr" v="139978" />
	</node>
	<node lat="68.92291110715936" lon="15.28016109739374" id="-13858">
		<tag k="name" v="Klubben" />
		<tag k="natural" v="cape" />
		<tag k="ssr:stedsnr" v="157035" />
	</node>
	<node lat="68.91968611506917" lon="15.235999989933713" id="-13859">
		<tag k="name" v="Hesthumpen" />
		<tag k="natural" v="cape" />
		<tag k="ssr:stedsnr" v="157045" />
	</node>
	<node lat="68.89200833027665" lon="15.085566656096926" id="-13860">
		<tag k="name" v="Arrinaneset" />
		<tag k="natural" v="cape" />
		<tag k="ssr:stedsnr" v="157138" />
	</node>
	<node lat="68.86226110769367" lon="15.28886110970212" id="-13862">
		<tag k="name" v="Likkjøya" />
		<tag k="place" v="island" />
		<tag k="ssr:stedsnr" v="157442" />
	</node>
	<node lat="68.95060555195923" lon="15.141302766638987" id="-13868">
		<tag k="bay" v="fjord" />
		<tag k="name" v="Ørnakkfjorden" />
		<tag k="natural" v="bay" />
		<tag k="ssr:stedsnr" v="157794" />
	</node>
	<node lat="68.96656388818124" lon="15.014355564263168" id="-13869">
		<tag k="name" v="Svartoksklubben" />
		<tag k="natural" v="cape" />
		<tag k="ssr:stedsnr" v="158001" />
	</node>
	<node lat="68.95246111237664" lon="14.953694452508989" id="-13870">
		<tag k="name" v="Rundskjerflua" />
		<tag k="natural" v="shoal" />
		<tag k="place" v="locality" />
		<tag k="ssr:stedsnr" v="158026" />
	</node>
	<node lat="69.01688333175468" lon="15.177911101858946" id="-13871">
		<tag k="fixme" v="consider seamark:type=rock or natural=shoal" />
		<tag k="name" v="Børingen" />
		<tag k="place" v="islet" />
		<tag k="ssr:stedsnr" v="158114" />
	</node>
	<node lat="69.00558333614914" lon="15.193377783175462" id="-13872">
		<tag k="name" v="Fausken" />
		<tag k="natural" v="shoal" />
		<tag k="place" v="locality" />
		<tag k="ssr:stedsnr" v="158119" />
	</node>
	<node lat="68.99551944059503" lon="15.18653887919957" id="-13873">
		<tag k="name" v="Kleppan" />
		<tag k="natural" v="cape" />
		<tag k="ssr:stedsnr" v="158769" />
	</node>
	<node lat="68.89028055403996" lon="15.005299994670203" id="-13874">
		<tag k="fixme" v="consider seamark:type=rock or natural=shoal" />
		<tag k="name" v="Klokkerskjeret" />
		<tag k="place" v="islet" />
		<tag k="ssr:stedsnr" v="158824" />
	</node>
	<node lat="68.87779444634178" lon="14.850258325283018" id="-13876">
		<tag k="name" v="Høydalsbåen" />
		<tag k="natural" v="shoal" />
		<tag k="place" v="locality" />
		<tag k="ssr:stedsnr" v="159332" />
	</node>
	<node lat="68.89781111487633" lon="15.351272223234263" id="-13877">
		<tag k="fixme" v="consider seamark:type=rock or natural=shoal" />
		<tag k="name" v="Kvitskjeret" />
		<tag k="place" v="islet" />
		<tag k="ssr:stedsnr" v="159336" />
	</node>
	<node lat="68.88781944648449" lon="14.830786119258654" id="-13878">
		<tag k="name" v="Dyna" />
		<tag k="natural" v="shoal" />
		<tag k="place" v="locality" />
		<tag k="ssr:stedsnr" v="159337" />
	</node>
	<node lat="68.84346389233268" lon="15.014969451057677" id="-13880">
		<tag k="name" v="Storøya" />
		<tag k="natural" v="cape" />
		<tag k="ssr:stedsnr" v="159923" />
	</node>
	<node lat="68.82841389294278" lon="15.036594449662894" id="-13881">
		<tag k="name" v="Navarsborrneset" />
		<tag k="natural" v="cape" />
		<tag k="ssr:stedsnr" v="159926" />
	</node>
	<node lat="68.9277777761295" lon="14.923738877948846" id="-13883">
		<tag k="name" v="Lotran" />
		<tag k="natural" v="shoal" />
		<tag k="place" v="locality" />
		<tag k="ssr:stedsnr" v="159930" />
	</node>
	<node lat="68.84107499737158" lon="15.117197220219582" id="-13884">
		<tag k="name" v="Gullvikneset" />
		<tag k="natural" v="cape" />
		<tag k="ssr:stedsnr" v="159932" />
	</node>
	<node lat="68.91965833589462" lon="14.815272235274117" id="-13886">
		<tag k="fixme" v="consider seamark:type=rock or natural=shoal" />
		<tag k="name" v="Silskjeret" />
		<tag k="place" v="islet" />
		<tag k="ssr:stedsnr" v="161079" />
	</node>
	<node lat="68.81692222468655" lon="15.0415361030362" id="-13908">
		<tag k="name" v="Gåsebukta" />
		<tag k="natural" v="bay" />
		<tag k="ssr:stedsnr" v="178357" />
	</node>
	<node lat="68.8062888928453" lon="15.035369449115201" id="-13910">
		<tag k="name" v="Rypsanden" />
		<tag k="natural" v="bay" />
		<tag k="ssr:stedsnr" v="178348" />
	</node>
	<node lat="68.80103888583693" lon="14.797027769482737" id="-13911">
		<tag k="name" v="Leirbogneset" />
		<tag k="natural" v="cape" />
		<tag k="ssr:stedsnr" v="178661" />
	</node>
	<node lat="68.78641388790224" lon="14.934080552838523" id="-13912">
		<tag k="bay" v="fjord" />
		<tag k="name" v="Skjærfjordkjeften" />
		<tag k="natural" v="bay" />
		<tag k="ssr:stedsnr" v="178717" />
	</node>
	<node lat="68.84480277381994" lon="14.816441671198815" id="-13915">
		<tag k="name" v="Skonesholman" />
		<tag k="place" v="islet" />
		<tag k="ssr:stedsnr" v="180772" />
	</node>
	<node lat="68.78681944099947" lon="14.88851388237871" id="-13916">
		<tag k="name" v="Olabukta" />
		<tag k="natural" v="bay" />
		<tag k="ssr:stedsnr" v="180736" />
	</node>
	<node lat="68.7968000043187" lon="14.918911100846541" id="-13917">
		<tag k="fixme" v="consider seamark:type=rock or natural=shoal" />
		<tag k="name" v="Vaskjeret" />
		<tag k="place" v="islet" />
		<tag k="ssr:stedsnr" v="180740" />
	</node>
	<node lat="69.13333333667462" lon="14.750000005234861" id="-13922">
		<tag k="name" v="Sanden" />
		<tag k="natural" v="shoal" />
		<tag k="place" v="locality" />
		<tag k="ssr:stedsnr" v="181192" />
	</node>
	<node lat="69.01549444248982" lon="15.059900010063437" id="-13923">
		<tag k="fixme" v="multiple name tags, choose one and add the other to alt_name" />
		<tag k="name" v="Vesterkalven;Beinøykalven" />
		<tag k="place" v="islet" />
		<tag k="ssr:stedsnr" v="199333" />
	</node>
	<node lat="68.97533610757357" lon="15.175952775851776" id="-13927">
		<tag k="name" v="Øya" />
		<tag k="natural" v="cape" />
		<tag k="ssr:stedsnr" v="199633" />
	</node>
	<node lat="68.9337444451088" lon="14.929027788901514" id="-13933">
		<tag k="name" v="Lamholmen" />
		<tag k="place" v="islet" />
		<tag k="ssr:stedsnr" v="200128" />
	</node>
	<node lat="68.95487222297878" lon="14.996569441193738" id="-13934">
		<tag k="name" v="Djupbåen" />
		<tag k="natural" v="shoal" />
		<tag k="place" v="locality" />
		<tag k="ssr:stedsnr" v="200130" />
	</node>
	<node lat="68.9464694430699" lon="14.893444456408707" id="-13935">
		<tag k="fixme" v="consider seamark:type=rock or natural=shoal" />
		<tag k="name" v="Oddskjeran" />
		<tag k="place" v="islet" />
		<tag k="ssr:stedsnr" v="200133" />
	</node>
	<node lat="68.97436666509543" lon="14.946750001591026" id="-13937">
		<tag k="name" v="Klubbvoren" />
		<tag k="place" v="islet" />
		<tag k="ssr:stedsnr" v="200137" />
	</node>
	<node lat="68.96097222483793" lon="14.92159999468155" id="-13938">
		<tag k="name" v="Øyskallan" />
		<tag k="natural" v="shoal" />
		<tag k="place" v="locality" />
		<tag k="ssr:stedsnr" v="200138" />
	</node>
	<node lat="68.7613611136944" lon="14.906450005549026" id="-13940">
		<tag k="alt_name" v="Gammelgårdsneset" />
		<tag k="name" v="Gammelgårdneset" />
		<tag k="natural" v="cape" />
		<tag k="ssr:stedsnr" v="200557" />
	</node>
	<node lat="68.85848889132788" lon="15.110380566915419" id="-13941">
		<tag k="name" v="Avløysa" />
		<tag k="natural" v="bay" />
		<tag k="ssr:stedsnr" v="200706" />
	</node>
	<node lat="68.8542694445544" lon="15.10151666944767" id="-13942">
		<tag k="bay" v="fjord" />
		<tag k="name" v="Steinlandsfjorden" />
		<tag k="natural" v="bay" />
		<tag k="ssr:stedsnr" v="200707" />
	</node>
	<node lat="68.85290277910107" lon="15.279288886895472" id="-13943">
		<tag k="fixme" v="multiple name tags, choose one and add the other to alt_name" />
		<tag k="name" v="Sørøya;Storøya" />
		<tag k="natural" v="cape" />
		<tag k="ssr:stedsnr" v="200708" />
	</node>
	<node lat="68.92088333380195" lon="15.048383337517942" id="-13946">
		<tag k="name" v="Vorneset" />
		<tag k="natural" v="cape" />
		<tag k="ssr:stedsnr" v="200662" />
	</node>
	<node lat="68.77034722305731" lon="14.90794721394489" id="-13947">
		<tag k="name" v="Langneset" />
		<tag k="natural" v="cape" />
		<tag k="ssr:stedsnr" v="200683" />
	</node>
	<node lat="68.8871138916468" lon="14.685077777588155" id="-13948">
		<tag k="name" v="Floholman" />
		<tag k="place" v="islet" />
		<tag k="ssr:stedsnr" v="200766" />
	</node>
	<node lat="68.90159722355665" lon="14.993877789334183" id="-13949">
		<tag k="name" v="Sandvika" />
		<tag k="natural" v="bay" />
		<tag k="ssr:stedsnr" v="200767" />
	</node>
	<node lat="68.87088333279" lon="14.844663886754763" id="-13950">
		<tag k="name" v="Hjellsandøya" />
		<tag k="place" v="island" />
		<tag k="ssr:stedsnr" v="200774" />
	</node>
	<node lat="68.87281666310687" lon="14.901280552521433" id="-13951">
		<tag k="alt_name" v="Tunstadøya" />
		<tag k="name" v="Tunnstadøya" />
		<tag k="place" v="islet" />
		<tag k="ssr:stedsnr" v="200775" />
	</node>
	<node lat="68.8440916658221" lon="14.722447231031104" id="-13952">
		<tag k="alt_name" v="Flatholmen, store" />
		<tag k="fixme" v="multiple name tags, choose one and add the other to alt_name" />
		<tag k="name" v="Søre Flatskjeret;Flatskjeret;Store Flatholmen" />
		<tag k="place" v="islet" />
		<tag k="ssr:stedsnr" v="200823" />
	</node>
	<node lat="68.82314999867867" lon="14.7910722332818" id="-13959">
		<tag k="alt_name" v="Breidneset" />
		<tag k="name" v="Breineset" />
		<tag k="natural" v="cape" />
		<tag k="ssr:stedsnr" v="200886" />
	</node>
	<node lat="68.92075833413043" lon="15.231875003565841" id="-13961">
		<tag k="name" v="Finnesodden" />
		<tag k="natural" v="cape" />
		<tag k="ssr:stedsnr" v="218041" />
	</node>
	<node lat="68.92139166765375" lon="15.24785277898444" id="-13962">
		<tag k="name" v="Sørvågflaget" />
		<tag k="place" v="sea" />
		<tag k="ssr:stedsnr" v="218050" />
	</node>
	<node lat="68.99388333708117" lon="15.011122225959863" id="-13968">
		<tag k="name" v="Ungsmaløya" />
		<tag k="place" v="islet" />
		<tag k="ssr:stedsnr" v="218399" />
	</node>
	<node lat="68.76291944243057" lon="14.88888054656318" id="-13973">
		<tag k="fixme" v="consider seamark:type=rock or natural=shoal" />
		<tag k="name" v="Trolldalskjeret" />
		<tag k="place" v="islet" />
		<tag k="ssr:stedsnr" v="218901" />
	</node>
	<node lat="68.84451666929615" lon="14.786725010146979" id="-13974">
		<tag k="fixme" v="consider seamark:type=rock or natural=shoal" />
		<tag k="name" v="Dyna" />
		<tag k="place" v="islet" />
		<tag k="ssr:stedsnr" v="220188" />
	</node>
	<node lat="68.89289166391193" lon="15.352886104807325" id="-13975">
		<tag k="name" v="Steingrunnen" />
		<tag k="natural" v="shoal" />
		<tag k="place" v="locality" />
		<tag k="ssr:stedsnr" v="220701" />
	</node>
	<node lat="68.84964444540712" lon="15.005563890773377" id="-13977">
		<tag k="name" v="Nikolaiholmen" />
		<tag k="place" v="islet" />
		<tag k="ssr:stedsnr" v="223317" />
	</node>
	<node lat="68.85246110854422" lon="15.003227778918813" id="-13981">
		<tag k="name" v="Brettholmen" />
		<tag k="place" v="islet" />
		<tag k="ssr:stedsnr" v="223369" />
	</node>
	<node lat="68.92034444096019" lon="15.218616659968921" id="-13982">
		<tag k="name" v="Rasmusholmen" />
		<tag k="place" v="islet" />
		<tag k="ssr:stedsnr" v="279048" />
	</node>
	<node lat="68.9305611099064" lon="15.22447499705046" id="-13983">
		<tag k="name" v="Orkannholmen" />
		<tag k="place" v="islet" />
		<tag k="ssr:stedsnr" v="279052" />
	</node>
	<node lat="68.89557222304799" lon="15.074558342287197" id="-13984">
		<tag k="name" v="Finnesan" />
		<tag k="natural" v="cape" />
		<tag k="ssr:stedsnr" v="279167" />
	</node>
	<node lat="68.94696388771322" lon="15.197027785677012" id="-13985">
		<tag k="name" v="Flatøya" />
		<tag k="place" v="islet" />
		<tag k="ssr:stedsnr" v="279232" />
	</node>
	<node lat="69.02135833163042" lon="15.150066664336626" id="-13989">
		<tag k="name" v="Klevika" />
		<tag k="natural" v="bay" />
		<tag k="ssr:stedsnr" v="279856" />
	</node>
	<node lat="69.03850000364916" lon="15.011722223997316" id="-13992">
		<tag k="name" v="Frongskallen" />
		<tag k="natural" v="shoal" />
		<tag k="place" v="locality" />
		<tag k="ssr:stedsnr" v="280531" />
	</node>
	<node lat="68.8940611094587" lon="15.360544449502024" id="-13993">
		<tag k="name" v="Grasholmskallen" />
		<tag k="natural" v="shoal" />
		<tag k="place" v="locality" />
		<tag k="ssr:stedsnr" v="281674" />
	</node>
	<node lat="68.917563886664" lon="14.835666669847766" id="-13996">
		<tag k="fixme" v="consider seamark:type=rock or natural=shoal" />
		<tag k="name" v="Plytskjeran" />
		<tag k="place" v="islet" />
		<tag k="ssr:stedsnr" v="281961" />
	</node>
	<node lat="68.81809999986523" lon="15.150230543612867" id="-14003">
		<tag k="name" v="Åsbukta" />
		<tag k="natural" v="bay" />
		<tag k="ssr:stedsnr" v="283549" />
	</node>
	<node lat="68.83894722256986" lon="15.143844451147753" id="-14004">
		<tag k="name" v="Ressen" />
		<tag k="natural" v="bay" />
		<tag k="ssr:stedsnr" v="283560" />
	</node>
	<node lat="68.9977472232352" lon="15.020624994431092" id="-14005">
		<tag k="name" v="Nordleia" />
		<tag k="natural" v="bay" />
		<tag k="ssr:stedsnr" v="284298" />
	</node>
	<node lat="68.90696111395033" lon="14.990663880990308" id="-14007">
		<tag k="name" v="Vika" />
		<tag k="natural" v="bay" />
		<tag k="ssr:stedsnr" v="284300" />
	</node>
	<node lat="68.84610000440408" lon="14.785069440691794" id="-14010">
		<tag k="name" v="Steinsundet" />
		<tag k="natural" v="strait" />
		<tag k="ssr:stedsnr" v="284754" />
	</node>
	<node lat="68.93992499926165" lon="14.88332776909023" id="-14011">
		<tag k="name" v="Søsteinleia" />
		<tag k="natural" v="strait" />
		<tag k="ssr:stedsnr" v="298167" />
	</node>
	<node lat="68.81835833742072" lon="14.911219433634324" id="-14016">
		<tag k="fixme" v="consider seamark:type=rock or natural=shoal" />
		<tag k="name" v="Norddalssteinen" />
		<tag k="place" v="islet" />
		<tag k="ssr:stedsnr" v="301901" />
	</node>
	<node lat="68.78614166740151" lon="14.950944437094535" id="-14020">
		<tag k="name" v="Leirbogholmen" />
		<tag k="place" v="islet" />
		<tag k="ssr:stedsnr" v="301763" />
	</node>
	<node lat="69.07386110717437" lon="15.17426110189567" id="-14021">
		<tag k="name" v="Stabben" />
		<tag k="natural" v="shoal" />
		<tag k="place" v="locality" />
		<tag k="ssr:stedsnr" v="320364" />
	</node>
	<node lat="69.06039722274129" lon="15.113627779154433" id="-14022">
		<tag k="name" v="Klakkfallet" />
		<tag k="natural" v="shoal" />
		<tag k="place" v="locality" />
		<tag k="ssr:stedsnr" v="320371" />
	</node>
	<node lat="68.98182222241302" lon="14.935927767799225" id="-14026">
		<tag k="name" v="Hella" />
		<tag k="natural" v="shoal" />
		<tag k="place" v="locality" />
		<tag k="ssr:stedsnr" v="321150" />
	</node>
	<node lat="68.98113055183588" lon="14.930197225686124" id="-14027">
		<tag k="name" v="Nordbåen" />
		<tag k="natural" v="shoal" />
		<tag k="place" v="locality" />
		<tag k="ssr:stedsnr" v="321151" />
	</node>
	<node lat="68.98073055771137" lon="14.945816675225695" id="-14029">
		<tag k="name" v="Nordvoren" />
		<tag k="place" v="islet" />
		<tag k="ssr:stedsnr" v="321156" />
	</node>
	<node lat="68.93058055714775" lon="14.86016945602593" id="-14030">
		<tag k="fixme" v="consider seamark:type=rock or natural=shoal" />
		<tag k="name" v="Småsundskjeran" />
		<tag k="place" v="islet" />
		<tag k="ssr:stedsnr" v="321119" />
	</node>
	<node lat="68.94461944746165" lon="15.003191663022012" id="-14031">
		<tag k="alt_name" v="Panserskjeret;Pansarskjeret" />
		<tag k="fixme" v="consider seamark:type=rock or natural=shoal" />
		<tag k="name" v="Pansarskjeran" />
		<tag k="place" v="islet" />
		<tag k="ssr:stedsnr" v="321124" />
	</node>
	<node lat="69.03878888559433" lon="15.10935000035464" id="-14032">
		<tag k="name" v="Skankan" />
		<tag k="natural" v="shoal" />
		<tag k="place" v="locality" />
		<tag k="ssr:stedsnr" v="321317" />
	</node>
	<node lat="69.03489444455334" lon="15.171819440187113" id="-14035">
		<tag k="alt_name" v="Seingen" />
		<tag k="name" v="Skeiingen" />
		<tag k="natural" v="shoal" />
		<tag k="place" v="locality" />
		<tag k="ssr:stedsnr" v="321327" />
	</node>
	<node lat="68.99560833734958" lon="15.339933327924834" id="-14037">
		<tag k="name" v="Storbåen" />
		<tag k="natural" v="shoal" />
		<tag k="place" v="locality" />
		<tag k="ssr:stedsnr" v="321545" />
	</node>
	<node lat="68.7782444474205" lon="14.723369448122323" id="-14039">
		<tag k="alt_name" v="Skaga" />
		<tag k="fixme" v="multiple name tags, choose one and add the other to alt_name" />
		<tag k="name" v="Skagan;Skagenholman" />
		<tag k="place" v="islet" />
		<tag k="ssr:stedsnr" v="321481" />
	</node>
	<node lat="68.96765833432835" lon="15.2884944388116" id="-14042">
		<tag k="alt_name" v="Sportholmen;Spårholmen" />
		<tag k="name" v="Sporholmen" />
		<tag k="place" v="islet" />
		<tag k="ssr:stedsnr" v="321565" />
	</node>
	<node lat="68.9640055555843" lon="15.186747211880919" id="-14043">
		<tag k="name" v="Småholmen" />
		<tag k="place" v="islet" />
		<tag k="ssr:stedsnr" v="321570" />
	</node>
	<node lat="68.88768055265449" lon="15.291555563491885" id="-14045">
		<tag k="name" v="Sandan" />
		<tag k="natural" v="cape" />
		<tag k="ssr:stedsnr" v="321656" />
	</node>
	<node lat="68.91958333774379" lon="14.827802767441588" id="-14050">
		<tag k="name" v="Flaget" />
		<tag k="natural" v="shoal" />
		<tag k="place" v="locality" />
		<tag k="ssr:stedsnr" v="321739" />
	</node>
	<node lat="68.899652779911" lon="14.790613898581345" id="-14052">
		<tag k="name" v="Eggholmen" />
		<tag k="place" v="islet" />
		<tag k="ssr:stedsnr" v="321748" />
	</node>
	<node lat="68.79811666910611" lon="14.79727778643225" id="-14058">
		<tag k="name" v="Lysvågneset" />
		<tag k="natural" v="cape" />
		<tag k="ssr:stedsnr" v="321957" />
	</node>
	<node lat="68.9190249997667" lon="15.28611387724272" id="-14060">
		<tag k="name" v="Kusanden" />
		<tag k="natural" v="beach" />
		<tag k="ssr:stedsnr" v="339027" />
	</node>
	<node lat="68.95870277634036" lon="15.179613899530464" id="-14070">
		<tag k="name" v="Tennevollen" />
		<tag k="natural" v="cape" />
		<tag k="ssr:stedsnr" v="339212" />
	</node>
	<node lat="68.9775499974689" lon="15.013688877200574" id="-14072">
		<tag k="fixme" v="consider seamark:type=rock or natural=shoal" />
		<tag k="name" v="Stuskjeret" />
		<tag k="place" v="islet" />
		<tag k="ssr:stedsnr" v="339380" />
	</node>
	<node lat="68.97693055375275" lon="15.184383342042448" id="-14077">
		<tag k="name" v="Sandvika" />
		<tag k="natural" v="bay" />
		<tag k="ssr:stedsnr" v="339826" />
	</node>
	<node lat="69.02296666675304" lon="15.155283329638484" id="-14078">
		<tag k="name" v="Kjækholmen" />
		<tag k="natural" v="cape" />
		<tag k="ssr:stedsnr" v="339837" />
	</node>
	<node lat="68.76499999872135" lon="14.888152785837317" id="-14080">
		<tag k="name" v="Indre Nonstindbukta" />
		<tag k="natural" v="bay" />
		<tag k="ssr:stedsnr" v="339861" />
	</node>
	<node lat="68.99689444252493" lon="15.01157499256686" id="-14081">
		<tag k="name" v="Nyksundøya" />
		<tag k="place" v="island" />
		<tag k="ssr:stedsnr" v="340006" />
	</node>
	<node lat="68.99821389233941" lon="14.999575012098882" id="-14082">
		<tag k="name" v="Skjerpingskallen" />
		<tag k="natural" v="shoal" />
		<tag k="place" v="locality" />
		<tag k="ssr:stedsnr" v="340008" />
	</node>
	<node lat="68.98343332962408" lon="15.241977769212111" id="-14083">
		<tag k="alt_name" v="Feskbøen" />
		<tag k="name" v="Fiskerbåen" />
		<tag k="natural" v="shoal" />
		<tag k="place" v="locality" />
		<tag k="ssr:stedsnr" v="340014" />
	</node>
	<node lat="68.97958055681488" lon="15.275236105840252" id="-14084">
		<tag k="name" v="Ola Friksgrunnen" />
		<tag k="natural" v="shoal" />
		<tag k="place" v="locality" />
		<tag k="ssr:stedsnr" v="340016" />
	</node>
	<node lat="69.01891666606681" lon="15.044219449907464" id="-14085">
		<tag k="name" v="Kjempingen" />
		<tag k="natural" v="shoal" />
		<tag k="place" v="locality" />
		<tag k="ssr:stedsnr" v="341479" />
	</node>
	<node lat="68.86347499966372" lon="15.004894449087809" id="-14087">
		<tag k="name" v="Sminesgrunnen" />
		<tag k="natural" v="shoal" />
		<tag k="place" v="locality" />
		<tag k="ssr:stedsnr" v="341933" />
	</node>
	<node lat="68.91805000393457" lon="14.84614999859981" id="-14089">
		<tag k="name" v="Snålden" />
		<tag k="place" v="islet" />
		<tag k="ssr:stedsnr" v="343059" />
	</node>
	<node lat="68.86339722398735" lon="14.955991668599715" id="-14092">
		<tag k="name" v="Stranda" />
		<tag k="natural" v="beach" />
		<tag k="ssr:stedsnr" v="343073" />
	</node>
	<node lat="68.86079444653186" lon="14.946802779071223" id="-14093">
		<tag k="name" v="Nordneset" />
		<tag k="natural" v="cape" />
		<tag k="ssr:stedsnr" v="343079" />
	</node>
	<node lat="68.9784611149661" lon="15.171458332187067" id="-14096">
		<tag k="name" v="Flatøya" />
		<tag k="natural" v="cape" />
		<tag k="ssr:stedsnr" v="343544" />
	</node>
	<node lat="68.90474722188698" lon="14.990316666405928" id="-14102">
		<tag k="name" v="Valen" />
		<tag k="natural" v="bay" />
		<tag k="ssr:stedsnr" v="344330" />
	</node>
	<node lat="68.94535555991436" lon="15.008230556758877" id="-14104">
		<tag k="name" v="Kråkneset" />
		<tag k="natural" v="cape" />
		<tag k="ssr:stedsnr" v="344271" />
	</node>
	<node lat="68.99596110932283" lon="15.017099987594499" id="-14105">
		<tag k="name" v="Sundet" />
		<tag k="natural" v="strait" />
		<tag k="ssr:stedsnr" v="344291" />
	</node>
	<node lat="68.99826388869953" lon="15.035052774330191" id="-14106">
		<tag k="name" v="Trollvika" />
		<tag k="natural" v="bay" />
		<tag k="ssr:stedsnr" v="344293" />
	</node>
	<node lat="69.01510277404556" lon="14.557430548913187" id="-14107">
		<tag k="name" v="Grunnen" />
		<tag k="natural" v="shoal" />
		<tag k="place" v="locality" />
		<tag k="ssr:stedsnr" v="344745" />
	</node>
	<node lat="68.8159055538615" lon="14.766244436276358" id="-14108">
		<tag k="name" v="Vinjebukta" />
		<tag k="natural" v="bay" />
		<tag k="ssr:stedsnr" v="344689" />
	</node>
	<node lat="68.91730555272711" lon="15.315436114134142" id="-14109">
		<tag k="name" v="Lamholmskaga" />
		<tag k="natural" v="cape" />
		<tag k="ssr:stedsnr" v="345691" />
	</node>
	<node lat="68.83595000072516" lon="14.747147212379936" id="-14116">
		<tag k="fixme" v="consider seamark:type=rock or natural=shoal" />
		<tag k="name" v="Skarvskjeret" />
		<tag k="place" v="islet" />
		<tag k="ssr:stedsnr" v="360653" />
	</node>
	<node lat="68.79012222418703" lon="14.845847230791508" id="-14117">
		<tag k="name" v="Grøtsetnesan" />
		<tag k="natural" v="cape" />
		<tag k="ssr:stedsnr" v="362758" />
	</node>
	<node lat="68.82318889313738" lon="14.856011111659557" id="-14125">
		<tag k="name" v="Bjørnerøg-snaget" />
		<tag k="place" v="islet" />
		<tag k="ssr:stedsnr" v="362884" />
	</node>
	<node lat="69.04444444815" lon="14.422222234751011" id="-14126">
		<tag k="name" v="Skatskallen" />
		<tag k="natural" v="shoal" />
		<tag k="place" v="locality" />
		<tag k="ssr:stedsnr" v="363108" />
	</node>
	<node lat="69.01456944415243" lon="15.033052766901811" id="-14131">
		<tag k="fixme" v="consider seamark:type=rock or natural=shoal" />
		<tag k="name" v="Skolpen" />
		<tag k="place" v="islet" />
		<tag k="ssr:stedsnr" v="381332" />
	</node>
	<node lat="69.0276055554779" lon="15.116108325263237" id="-14133">
		<tag k="name" v="Lyngøyan" />
		<tag k="place" v="island" />
		<tag k="ssr:stedsnr" v="381358" />
	</node>
	<node lat="69.02167221829129" lon="15.058480564064865" id="-14134">
		<tag k="fixme" v="consider seamark:type=rock or natural=shoal" />
		<tag k="name" v="Skjersodden" />
		<tag k="place" v="islet" />
		<tag k="ssr:stedsnr" v="381359" />
	</node>
	<node lat="68.77826944551494" lon="14.89904999070012" id="-14138">
		<tag k="name" v="Sauøya" />
		<tag k="place" v="island" />
		<tag k="ssr:stedsnr" v="381515" />
	</node>
	<node lat="68.97725277572093" lon="15.215483332744583" id="-14139">
		<tag k="name" v="Kloøya" />
		<tag k="place" v="island" />
		<tag k="ssr:stedsnr" v="381558" />
	</node>
	<node lat="68.89246388547652" lon="15.045183322923645" id="-14145">
		<tag k="alt_name" v="Sommarøyhavet" />
		<tag k="name" v="Sommarøyhamn" />
		<tag k="natural" v="bay" />
		<tag k="ssr:stedsnr" v="381752" />
	</node>
	<node lat="68.84319722630646" lon="14.740758331821624" id="-14148">
		<tag k="name" v="Halsøya" />
		<tag k="place" v="island" />
		<tag k="ssr:stedsnr" v="381852" />
	</node>
	<node lat="68.83437221948549" lon="14.765083326659608" id="-14155">
		<tag k="name" v="Tindsøya" />
		<tag k="place" v="island" />
		<tag k="ssr:stedsnr" v="382850" />
	</node>
	<node lat="69.01675277632756" lon="15.04826945499885" id="-14159">
		<tag k="fixme" v="consider seamark:type=rock or natural=shoal" />
		<tag k="name" v="Brosmeskjeret" />
		<tag k="place" v="islet" />
		<tag k="ssr:stedsnr" v="400412" />
	</node>
	<node lat="68.93165833414275" lon="15.266063896876219" id="-14166">
		<tag k="name" v="Nessen" />
		<tag k="natural" v="cape" />
		<tag k="ssr:stedsnr" v="404529" />
	</node>
	<node lat="68.8132166706277" lon="15.152827785510388" id="-14168">
		<tag k="name" v="Tuvabukta" />
		<tag k="natural" v="bay" />
		<tag k="ssr:stedsnr" v="404564" />
	</node>
	<node lat="68.96351944771278" lon="15.217697214486734" id="-14170">
		<tag k="fixme" v="consider seamark:type=rock or natural=shoal" />
		<tag k="name" v="Likkj-Sylla" />
		<tag k="place" v="islet" />
		<tag k="ssr:stedsnr" v="404473" />
	</node>
	<node lat="68.94971111420055" lon="15.022302787626982" id="-14172">
		<tag k="name" v="Slettfjæra" />
		<tag k="natural" v="beach" />
		<tag k="ssr:stedsnr" v="405281" />
	</node>
	<node lat="68.95600555385793" lon="15.295627769295342" id="-14173">
		<tag k="name" v="Vikern" />
		<tag k="natural" v="bay" />
		<tag k="ssr:stedsnr" v="406688" />
	</node>
	<node lat="68.82483611011195" lon="15.019994436751787" id="-14179">
		<tag k="name" v="Massvika" />
		<tag k="natural" v="bay" />
		<tag k="ssr:stedsnr" v="421126" />
	</node>
	<node lat="68.7519527741355" lon="14.905524988490578" id="-14181">
		<tag k="name" v="Yttergårdskjeret" />
		<tag k="natural" v="shoal" />
		<tag k="place" v="locality" />
		<tag k="ssr:stedsnr" v="423734" />
	</node>
	<node lat="68.84034444078941" lon="14.843511097673835" id="-14183">
		<tag k="name" v="Langkanneset" />
		<tag k="natural" v="cape" />
		<tag k="ssr:stedsnr" v="423796" />
	</node>
	<node lat="68.82566388821922" lon="14.844161122423477" id="-14184">
		<tag k="name" v="Anfinnbukta" />
		<tag k="natural" v="bay" />
		<tag k="ssr:stedsnr" v="423801" />
	</node>
	<node lat="68.77388610688953" lon="14.916669448704242" id="-14186">
		<tag k="name" v="Dunganeset" />
		<tag k="natural" v="cape" />
		<tag k="ssr:stedsnr" v="423786" />
	</node>
	<node lat="68.96616389233931" lon="14.917586115641235" id="-14191">
		<tag k="name" v="Gåsøyfallet" />
		<tag k="natural" v="shoal" />
		<tag k="place" v="locality" />
		<tag k="ssr:stedsnr" v="442177" />
	</node>
	<node lat="68.97813055668426" lon="14.93823889203028" id="-14192">
		<tag k="name" v="Rova" />
		<tag k="place" v="islet" />
		<tag k="ssr:stedsnr" v="442183" />
	</node>
	<node lat="68.99071944711626" lon="15.205652789498679" id="-14196">
		<tag k="name" v="Langenesvika" />
		<tag k="natural" v="bay" />
		<tag k="ssr:stedsnr" v="442566" />
	</node>
	<node lat="68.87512222430462" lon="15.058352786948868" id="-14200">
		<tag k="name" v="Stavøya" />
		<tag k="place" v="island" />
		<tag k="ssr:stedsnr" v="442718" />
	</node>
	<node lat="68.84434444805653" lon="14.83298054395289" id="-14201">
		<tag k="name" v="Børøya" />
		<tag k="place" v="island" />
		<tag k="ssr:stedsnr" v="442859" />
	</node>
	<node lat="68.88891666605491" lon="14.725719455902835" id="-14202">
		<tag k="fixme" v="consider seamark:type=rock or natural=shoal" />
		<tag k="name" v="Hysskjeran" />
		<tag k="place" v="islet" />
		<tag k="ssr:stedsnr" v="442818" />
	</node>
	<node lat="68.87907499819043" lon="14.848336100578999" id="-14204">
		<tag k="name" v="Hjellsandvika" />
		<tag k="natural" v="bay" />
		<tag k="ssr:stedsnr" v="442827" />
	</node>
	<node lat="68.88564722103119" lon="14.713711121282342" id="-14205">
		<tag k="name" v="Jobåen" />
		<tag k="natural" v="shoal" />
		<tag k="place" v="locality" />
		<tag k="ssr:stedsnr" v="442829" />
	</node>
	<node lat="68.94306666894367" lon="14.87440555826615" id="-14206">
		<tag k="fixme" v="consider seamark:type=rock or natural=shoal" />
		<tag k="name" v="Rova" />
		<tag k="place" v="islet" />
		<tag k="ssr:stedsnr" v="443149" />
	</node>
	<node lat="69.10317777480226" lon="15.237111103041446" id="-14207">
		<tag k="alt_name" v="Reinshaue" />
		<tag k="name" v="Reishaue" />
		<tag k="natural" v="shoal" />
		<tag k="place" v="locality" />
		<tag k="ssr:stedsnr" v="443259" />
	</node>
	<node lat="68.92241110945187" lon="15.276386109042226" id="-14211">
		<tag k="name" v="Øya" />
		<tag k="place" v="island" />
		<tag k="ssr:stedsnr" v="443658" />
	</node>
	<node lat="68.81595000268481" lon="14.842419447713585" id="-14217">
		<tag k="alt_name" v="Bjørnskardbukta" />
		<tag k="name" v="Bjørnskarbukt" />
		<tag k="natural" v="bay" />
		<tag k="ssr:stedsnr" v="443874" />
	</node>
	<node lat="68.84797499963598" lon="14.831313879798513" id="-14221">
		<tag k="name" v="Langneset" />
		<tag k="natural" v="cape" />
		<tag k="ssr:stedsnr" v="503790" />
	</node>
	<node lat="68.85673333493497" lon="14.835566657416829" id="-14222">
		<tag k="bay" v="fjord" />
		<tag k="name" v="Børøyfjorden" />
		<tag k="natural" v="bay" />
		<tag k="ssr:stedsnr" v="503800" />
	</node>
	<node lat="68.95672499797472" lon="14.936166667210472" id="-14223">
		<tag k="fixme" v="consider seamark:type=rock or natural=shoal" />
		<tag k="name" v="Langskjeret" />
		<tag k="place" v="islet" />
		<tag k="ssr:stedsnr" v="503128" />
	</node>
	<node lat="68.97573055161347" lon="14.951033341633995" id="-14226">
		<tag k="alt_name" v="Sørflua" />
		<tag k="name" v="Sørflesa" />
		<tag k="natural" v="shoal" />
		<tag k="place" v="locality" />
		<tag k="ssr:stedsnr" v="503150" />
	</node>
	<node lat="68.83814722380134" lon="15.12202223127439" id="-14229">
		<tag k="name" v="Gullvikholmen" />
		<tag k="place" v="islet" />
		<tag k="ssr:stedsnr" v="503268" />
	</node>
	<node lat="69.01231944413772" lon="15.063069437685508" id="-14230">
		<tag k="fixme" v="consider seamark:type=rock or natural=shoal" />
		<tag k="name" v="Langskjeret" />
		<tag k="place" v="islet" />
		<tag k="ssr:stedsnr" v="503319" />
	</node>
	<node lat="68.99236389157788" lon="15.185313883363321" id="-14235">
		<tag k="name" v="Kleppan" />
		<tag k="natural" v="cape" />
		<tag k="ssr:stedsnr" v="503546" />
	</node>
	<node lat="68.91683889240662" lon="15.325319439562373" id="-14237">
		<tag k="fixme" v="consider seamark:type=rock or natural=shoal" />
		<tag k="name" v="Lamholmen" />
		<tag k="place" v="islet" />
		<tag k="ssr:stedsnr" v="503633" />
	</node>
	<node lat="68.9118138854416" lon="15.056505564896735" id="-14238">
		<tag k="alt_name" v="Kattnes;Kartneset" />
		<tag k="name" v="Kattneset" />
		<tag k="natural" v="cape" />
		<tag k="ssr:stedsnr" v="503637" />
	</node>
	<node lat="68.91404444611192" lon="15.061233331089307" id="-14239">
		<tag k="fixme" v="consider seamark:type=rock or natural=shoal" />
		<tag k="name" v="Skarvskjeret" />
		<tag k="place" v="islet" />
		<tag k="ssr:stedsnr" v="503638" />
	</node>
	<node lat="68.90179167147579" lon="15.28781665766864" id="-14242">
		<tag k="name" v="Alsvågen" />
		<tag k="natural" v="bay" />
		<tag k="ssr:stedsnr" v="503655" />
	</node>
	<node lat="68.90502500356621" lon="14.803347234853597" id="-14243">
		<tag k="name" v="Resulgrunnen" />
		<tag k="natural" v="shoal" />
		<tag k="place" v="locality" />
		<tag k="ssr:stedsnr" v="503732" />
	</node>
	<node lat="68.78673889112346" lon="14.757474998197816" id="-14251">
		<tag k="name" v="Pervika" />
		<tag k="natural" v="bay" />
		<tag k="ssr:stedsnr" v="503984" />
	</node>
	<node lat="68.80387222577396" lon="14.924808329470885" id="-14254">
		<tag k="name" v="Båtbukta" />
		<tag k="natural" v="bay" />
		<tag k="ssr:stedsnr" v="503927" />
	</node>
	<node lat="68.78912778098137" lon="14.835722229137497" id="-14256">
		<tag k="name" v="Revneset" />
		<tag k="natural" v="cape" />
		<tag k="ssr:stedsnr" v="503949" />
	</node>
	<node lat="68.79136111286647" lon="14.715327790101211" id="-14257">
		<tag k="bay" v="fjord" />
		<tag k="name" v="Møklandsfjorden" />
		<tag k="natural" v="bay" />
		<tag k="ssr:stedsnr" v="503954" />
	</node>
	<node lat="68.9199361102093" lon="15.243152778125529" id="-14261">
		<tag k="name" v="Storholmen" />
		<tag k="place" v="islet" />
		<tag k="ssr:stedsnr" v="521047" />
	</node>
	<node lat="69.0214999979187" lon="15.140108335617512" id="-14269">
		<tag k="name" v="Svinholmen" />
		<tag k="place" v="islet" />
		<tag k="ssr:stedsnr" v="521852" />
	</node>
	<node lat="69.00298610960698" lon="14.988447226062517" id="-14270">
		<tag k="name" v="Fleskleia" />
		<tag k="natural" v="strait" />
		<tag k="ssr:stedsnr" v="522004" />
	</node>
	<node lat="69.03580833258191" lon="15.156527784580762" id="-14271">
		<tag k="name" v="Sølvlåket" />
		<tag k="natural" v="shoal" />
		<tag k="place" v="locality" />
		<tag k="ssr:stedsnr" v="522082" />
	</node>
	<node lat="69.02545277966001" lon="15.155277774836948" id="-14273">
		<tag k="fixme" v="consider seamark:type=rock or natural=shoal" />
		<tag k="name" v="Innerkråla" />
		<tag k="place" v="islet" />
		<tag k="ssr:stedsnr" v="522849" />
	</node>
	<node lat="68.91714166778026" lon="15.055200010862437" id="-14274">
		<tag k="name" v="Sandvikflua" />
		<tag k="natural" v="shoal" />
		<tag k="place" v="locality" />
		<tag k="ssr:stedsnr" v="522933" />
	</node>
	<node lat="68.92393888662366" lon="14.947124988266006" id="-14276">
		<tag k="name" v="Innerstøa" />
		<tag k="natural" v="bay" />
		<tag k="ssr:stedsnr" v="525047" />
	</node>
	<node lat="68.82012500465088" lon="14.894222216737866" id="-14291">
		<tag k="name" v="Kilvika" />
		<tag k="natural" v="bay" />
		<tag k="ssr:stedsnr" v="544885" />
	</node>
	<node lat="68.8209833361246" lon="14.844738894734782" id="-14292">
		<tag k="name" v="Stineset" />
		<tag k="natural" v="cape" />
		<tag k="ssr:stedsnr" v="544891" />
	</node>
	<node lat="68.93291666559223" lon="14.803491671061213" id="-14293">
		<tag k="name" v="Einargrunnen" />
		<tag k="natural" v="shoal" />
		<tag k="place" v="locality" />
		<tag k="ssr:stedsnr" v="563138" />
	</node>
	<node lat="68.95366944668989" lon="14.94635555061823" id="-14294">
		<tag k="fixme" v="consider seamark:type=rock or natural=shoal" />
		<tag k="name" v="Storskjeret" />
		<tag k="place" v="islet" />
		<tag k="ssr:stedsnr" v="563144" />
	</node>
	<node lat="68.95397222468964" lon="15.019038894896305" id="-14295">
		<tag k="name" v="Hella" />
		<tag k="natural" v="cape" />
		<tag k="ssr:stedsnr" v="563148" />
	</node>
	<node lat="68.99164166909031" lon="14.996477784956866" id="-14296">
		<tag k="alt_name" v="Seiskjeran" />
		<tag k="fixme" v="consider seamark:type=rock or natural=shoal" />
		<tag k="name" v="Seiskjeret" />
		<tag k="place" v="islet" />
		<tag k="ssr:stedsnr" v="563165" />
	</node>
	<node lat="68.84466111441978" lon="15.261708341241855" id="-14299">
		<tag k="name" v="Kobbfjorden" />
		<tag k="natural" v="bay" />
		<tag k="ssr:stedsnr" v="563285" />
	</node>
	<node lat="69.00585278047699" lon="15.186602779583959" id="-14300">
		<tag k="fixme" v="consider seamark:type=rock or natural=shoal" />
		<tag k="name" v="Fauskeskjeret" />
		<tag k="place" v="islet" />
		<tag k="ssr:stedsnr" v="563301" />
	</node>
	<node lat="69.02055555294862" lon="15.177255565091945" id="-14301">
		<tag k="alt_name" v="Tjuvsundholmen" />
		<tag k="name" v="Tjuvsundøra" />
		<tag k="place" v="islet" />
		<tag k="ssr:stedsnr" v="563321" />
	</node>
	<node lat="69.01361388903904" lon="15.184116677075352" id="-14302">
		<tag k="name" v="Snåldneset" />
		<tag k="natural" v="cape" />
		<tag k="ssr:stedsnr" v="563323" />
	</node>
	<node lat="69.02731389033491" lon="15.07482221896687" id="-14304">
		<tag k="alt_name" v="Åmundskjeran" />
		<tag k="fixme" v="consider seamark:type=rock or natural=shoal" />
		<tag k="name" v="Åmundskjeret" />
		<tag k="place" v="islet" />
		<tag k="ssr:stedsnr" v="563336" />
	</node>
	<node lat="69.02800277762825" lon="15.153658326045" id="-14305">
		<tag k="alt_name" v="Store Kråka" />
		<tag k="fixme" v="consider seamark:type=rock or natural=shoal" />
		<tag k="name" v="Kråka" />
		<tag k="place" v="islet" />
		<tag k="ssr:stedsnr" v="563339" />
	</node>
	<node lat="68.97398055500248" lon="15.165830551944685" id="-14312">
		<tag k="alt_name" v="Klostrømmen" />
		<tag k="name" v="Klostraumen" />
		<tag k="natural" v="strait" />
		<tag k="ssr:stedsnr" v="563603" />
	</node>
	<node lat="68.97468333776263" lon="15.252022218559365" id="-14313">
		<tag k="alt_name" v="Kvannholmen, store;Stor-Kvannholmen" />
		<tag k="name" v="Store Kvannholmen" />
		<tag k="place" v="islet" />
		<tag k="ssr:stedsnr" v="563604" />
	</node>
	<node lat="68.87436110788349" lon="15.051308333989706" id="-14318">
		<tag k="name" v="Lyngholmen" />
		<tag k="place" v="islet" />
		<tag k="ssr:stedsnr" v="563728" />
	</node>
	<node lat="68.8460444436991" lon="15.115211119725839" id="-14327">
		<tag k="name" v="Flatholmen" />
		<tag k="place" v="islet" />
		<tag k="ssr:stedsnr" v="563760" />
	</node>
	<node lat="68.85653333332318" lon="15.286127786301845" id="-14328">
		<tag k="name" v="Nordøya" />
		<tag k="natural" v="cape" />
		<tag k="ssr:stedsnr" v="563761" />
	</node>
	<node lat="68.85249444307179" lon="15.288080560150417" id="-14329">
		<tag k="name" v="Kalvøya" />
		<tag k="place" v="island" />
		<tag k="ssr:stedsnr" v="563764" />
	</node>
	<node lat="68.88123888903266" lon="14.982391661371349" id="-14330">
		<tag k="name" v="Rødingen" />
		<tag k="natural" v="cape" />
		<tag k="ssr:stedsnr" v="563821" />
	</node>
	<node lat="68.88453055666264" lon="14.80766943370861" id="-14332">
		<tag k="name" v="Sandfallan" />
		<tag k="natural" v="shoal" />
		<tag k="place" v="locality" />
		<tag k="ssr:stedsnr" v="563826" />
	</node>
	<node lat="68.86868055489235" lon="14.82223332720156" id="-14335">
		<tag k="name" v="Dragan" />
		<tag k="place" v="islet" />
		<tag k="ssr:stedsnr" v="563840" />
	</node>
	<node lat="68.84608333021217" lon="14.72838334391089" id="-14337">
		<tag k="alt_name" v="Flatholmen, l" />
		<tag k="fixme" v="multiple name tags, choose one and add the other to alt_name" />
		<tag k="name" v="Nordre Flatskjeret;Flatskjeret;Litle Flatholmen" />
		<tag k="place" v="islet" />
		<tag k="ssr:stedsnr" v="563851" />
	</node>
	<node lat="68.83801944445823" lon="14.83297777065895" id="-14340">
		<tag k="name" v="Børøyholman" />
		<tag k="place" v="islet" />
		<tag k="ssr:stedsnr" v="563865" />
	</node>
	<node lat="68.82312777474576" lon="14.73774165964231" id="-14347">
		<tag k="alt_name" v="Skjeggvika" />
		<tag k="name" v="Skjeggevika" />
		<tag k="natural" v="bay" />
		<tag k="ssr:stedsnr" v="563917" />
	</node>
	<node lat="68.8195527790908" lon="14.791675002846416" id="-14348">
		<tag k="alt_name" v="Kronsvågen" />
		<tag k="name" v="Krumsvågen" />
		<tag k="natural" v="bay" />
		<tag k="ssr:stedsnr" v="563918" />
	</node>
	<node lat="68.91380555201081" lon="14.75343332807622" id="-14350">
		<tag k="alt_name" v="Ytrehaugen" />
		<tag k="name" v="Ytre Hausen" />
		<tag k="natural" v="shoal" />
		<tag k="place" v="locality" />
		<tag k="ssr:stedsnr" v="564742" />
	</node>
	<node lat="68.91066944623292" lon="14.744216670858982" id="-14351">
		<tag k="name" v="Jarsteinskallen" />
		<tag k="natural" v="shoal" />
		<tag k="place" v="locality" />
		<tag k="ssr:stedsnr" v="564747" />
	</node>
	<node lat="69.10686110789426" lon="15.252499991796038" id="-14352">
		<tag k="name" v="Brakan" />
		<tag k="natural" v="shoal" />
		<tag k="place" v="locality" />
		<tag k="ssr:stedsnr" v="564245" />
	</node>
	<node lat="68.91642778094828" lon="14.84867777068861" id="-14354">
		<tag k="name" v="Geitholmen" />
		<tag k="place" v="islet" />
		<tag k="ssr:stedsnr" v="564759" />
	</node>
	<node lat="68.80975277815539" lon="14.77166388118403" id="-14355">
		<tag k="name" v="Kjerkvika" />
		<tag k="natural" v="bay" />
		<tag k="ssr:stedsnr" v="564905" />
	</node>
	<node lat="68.81389166896233" lon="14.918524995297972" id="-14357">
		<tag k="fixme" v="multiple name tags, choose one and add the other to alt_name" />
		<tag k="name" v="Langøygrunnen;Søre Langøygrunnen" />
		<tag k="natural" v="shoal" />
		<tag k="place" v="locality" />
		<tag k="ssr:stedsnr" v="564912" />
	</node>
	<node lat="69.02070833042208" lon="15.090974995803933" id="-14359">
		<tag k="fixme" v="consider seamark:type=rock or natural=shoal" />
		<tag k="name" v="Pessegatt" />
		<tag k="place" v="islet" />
		<tag k="ssr:stedsnr" v="581426" />
	</node>
	<node lat="68.89367777629485" lon="15.063552766160567" id="-14366">
		<tag k="name" v="Svartbergan" />
		<tag k="natural" v="cape" />
		<tag k="ssr:stedsnr" v="582168" />
	</node>
	<node lat="68.88373889113022" lon="15.031613887616412" id="-14367">
		<tag k="name" v="Tangneset" />
		<tag k="natural" v="cape" />
		<tag k="ssr:stedsnr" v="582265" />
	</node>
	<node lat="68.82986667062191" lon="14.871797226084638" id="-14368">
		<tag k="name" v="Sandholmgrunnen" />
		<tag k="natural" v="shoal" />
		<tag k="place" v="locality" />
		<tag k="ssr:stedsnr" v="583158" />
	</node>
	<node lat="68.98088888876619" lon="15.219691655585804" id="-14370">
		<tag k="fixme" v="consider seamark:type=rock or natural=shoal" />
		<tag k="name" v="Hansskjeret" />
		<tag k="place" v="islet" />
		<tag k="ssr:stedsnr" v="583014" />
	</node>
	<node lat="68.78918333741703" lon="14.931916655300508" id="-14371">
		<tag k="name" v="Sandsetholmen" />
		<tag k="place" v="islet" />
		<tag k="ssr:stedsnr" v="582764" />
	</node>
	<node lat="68.90132221879053" lon="15.34401111792699" id="-14372">
		<tag k="name" v="Grasholmkalven" />
		<tag k="place" v="islet" />
		<tag k="ssr:stedsnr" v="582788" />
	</node>
	<node lat="68.80702222352193" lon="14.857972228204268" id="-14374">
		<tag k="name" v="Austringsgrunnen" />
		<tag k="natural" v="shoal" />
		<tag k="place" v="locality" />
		<tag k="ssr:stedsnr" v="582927" />
	</node>
	<node lat="69.04118333350422" lon="15.09155834236133" id="-14375">
		<tag k="name" v="Lyngøyfallet" />
		<tag k="natural" v="shoal" />
		<tag k="place" v="locality" />
		<tag k="ssr:stedsnr" v="583509" />
	</node>
	<node lat="68.81975832968911" lon="15.036158337050718" id="-14377">
		<tag k="name" v="Tangskjeret" />
		<tag k="natural" v="cape" />
		<tag k="ssr:stedsnr" v="583916" />
	</node>
	<node lat="68.8731111136311" lon="14.914852774294587" id="-14378">
		<tag k="name" v="Jektneset" />
		<tag k="natural" v="cape" />
		<tag k="ssr:stedsnr" v="585088" />
	</node>
	<node lat="68.82283889023964" lon="14.773488897467939" id="-14386">
		<tag k="name" v="Vinjesanden" />
		<tag k="natural" v="bay" />
		<tag k="ssr:stedsnr" v="587695" />
	</node>
	<node lat="68.78567778094013" lon="14.933238886834092" id="-14397">
		<tag k="fixme" v="consider seamark:type=rock or natural=shoal" />
		<tag k="name" v="Avløysskjeran" />
		<tag k="place" v="islet" />
		<tag k="ssr:stedsnr" v="604782" />
	</node>
	<node lat="68.83618055312546" lon="14.839941653857478" id="-14398">
		<tag k="name" v="Bukkholmen" />
		<tag k="place" v="islet" />
		<tag k="ssr:stedsnr" v="604798" />
	</node>
	<node lat="68.80501944570558" lon="14.80286666955558" id="-14400">
		<tag k="name" v="Småholman" />
		<tag k="place" v="islet" />
		<tag k="ssr:stedsnr" v="604886" />
	</node>
	<node lat="68.97915555430436" lon="15.310727778060972" id="-14403">
		<tag k="fixme" v="consider seamark:type=rock or natural=shoal" />
		<tag k="name" v="Fjellmoa" />
		<tag k="place" v="islet" />
		<tag k="ssr:stedsnr" v="624559" />
	</node>
	<node lat="68.96161944180595" lon="15.262655559426879" id="-14404">
		<tag k="fixme" v="multiple name tags, choose one and add the other to alt_name" />
		<tag k="name" v="Stabbholmen;Stavholmen" />
		<tag k="place" v="islet" />
		<tag k="ssr:stedsnr" v="624589" />
	</node>
	<node lat="68.92683055536061" lon="14.9344333221044" id="-14406">
		<tag k="name" v="Nordsandvika" />
		<tag k="natural" v="bay" />
		<tag k="ssr:stedsnr" v="624158" />
	</node>
	<node lat="68.94236388539288" lon="14.961461103189066" id="-14407">
		<tag k="alt_name" v="Brusfluan" />
		<tag k="name" v="Brusflua" />
		<tag k="natural" v="shoal" />
		<tag k="place" v="locality" />
		<tag k="ssr:stedsnr" v="624162" />
	</node>
	<node lat="68.94813888534482" lon="14.887691666597272" id="-14408">
		<tag k="name" v="Tarskallen" />
		<tag k="natural" v="shoal" />
		<tag k="place" v="locality" />
		<tag k="ssr:stedsnr" v="624168" />
	</node>
	<node lat="68.966572221811" lon="14.672525001611708" id="-14409">
		<tag k="alt_name" v="Torfinnskallen" />
		<tag k="name" v="Torfinnklakken" />
		<tag k="natural" v="shoal" />
		<tag k="place" v="locality" />
		<tag k="ssr:stedsnr" v="624170" />
	</node>
	<node lat="68.9279222257779" lon="14.834999993127234" id="-14410">
		<tag k="name" v="Revbåan" />
		<tag k="natural" v="shoal" />
		<tag k="place" v="locality" />
		<tag k="ssr:stedsnr" v="624150" />
	</node>
	<node lat="68.92733888806032" lon="14.793941654959795" id="-14411">
		<tag k="name" v="Litlgrunnen" />
		<tag k="natural" v="shoal" />
		<tag k="place" v="locality" />
		<tag k="ssr:stedsnr" v="624152" />
	</node>
	<node lat="68.9301055581317" lon="14.814686116938976" id="-14412">
		<tag k="alt_name" v="Krogskallen" />
		<tag k="name" v="Kråkskallen" />
		<tag k="natural" v="shoal" />
		<tag k="place" v="locality" />
		<tag k="ssr:stedsnr" v="624154" />
	</node>
	<node lat="68.87804722666576" lon="15.051944436918452" id="-14418">
		<tag k="fixme" v="consider seamark:type=rock or natural=shoal" />
		<tag k="name" v="Svinholmen" />
		<tag k="place" v="islet" />
		<tag k="ssr:stedsnr" v="624684" />
	</node>
	<node lat="68.87989722196131" lon="15.053150011230416" id="-14419">
		<tag k="fixme" v="consider seamark:type=rock or natural=shoal" />
		<tag k="name" v="Høgholmen" />
		<tag k="place" v="islet" />
		<tag k="ssr:stedsnr" v="624685" />
	</node>
	<node lat="68.79990277897919" lon="14.8411944492197" id="-14420">
		<tag k="fixme" v="multiple name tags, choose one and add the other to alt_name" />
		<tag k="name" v="Storøya;Nordre Austringsøyan" />
		<tag k="place" v="island" />
		<tag k="ssr:stedsnr" v="624690" />
	</node>
	<node lat="68.84070555177085" lon="14.819677772256801" id="-14421">
		<tag k="name" v="Buneset" />
		<tag k="natural" v="cape" />
		<tag k="ssr:stedsnr" v="624695" />
	</node>
	<node lat="68.9056500023834" lon="15.309350011618854" id="-14422">
		<tag k="alt_name" v="Purkeneset" />
		<tag k="name" v="Purkneset" />
		<tag k="natural" v="cape" />
		<tag k="ssr:stedsnr" v="624701" />
	</node>
	<node lat="68.89655277538897" lon="15.3478916547322" id="-14423">
		<tag k="fixme" v="consider seamark:type=rock or natural=shoal" />
		<tag k="name" v="Sandskjeret" />
		<tag k="place" v="islet" />
		<tag k="ssr:stedsnr" v="624702" />
	</node>
	<node lat="68.90139166894703" lon="15.000772227186078" id="-14425">
		<tag k="alt_name" v="Jurneset" />
		<tag k="name" v="Gjurneset" />
		<tag k="natural" v="cape" />
		<tag k="ssr:stedsnr" v="624790" />
	</node>
	<node lat="68.8813333344898" lon="14.829194438646185" id="-14427">
		<tag k="name" v="Kyllholmen" />
		<tag k="place" v="islet" />
		<tag k="ssr:stedsnr" v="624801" />
	</node>
	<node lat="68.84036110817296" lon="15.012461115464516" id="-14428">
		<tag k="name" v="Rebbesvågen" />
		<tag k="natural" v="bay" />
		<tag k="ssr:stedsnr" v="624859" />
	</node>
	<node lat="68.92713055674282" lon="15.276380561490667" id="-14429">
		<tag k="name" v="Gisløyflaket" />
		<tag k="natural" v="strait" />
		<tag k="ssr:stedsnr" v="624626" />
	</node>
	<node lat="68.92304722250427" lon="15.309738877803996" id="-14432">
		<tag k="fixme" v="consider seamark:type=rock or natural=shoal" />
		<tag k="name" v="Svartskjeret" />
		<tag k="place" v="islet" />
		<tag k="ssr:stedsnr" v="624639" />
	</node>
	<node lat="68.90845277737562" lon="15.285230546984556" id="-14435">
		<tag k="alt_name" v="Kjøravalen" />
		<tag k="name" v="Kjørarvalen" />
		<tag k="natural" v="strait" />
		<tag k="ssr:stedsnr" v="624653" />
	</node>
	<node lat="68.91455555498965" lon="14.981119440149476" id="-14438">
		<tag k="alt_name" v="Juvågen" />
		<tag k="name" v="Jurvågen" />
		<tag k="natural" v="bay" />
		<tag k="ssr:stedsnr" v="624750" />
	</node>
	<node lat="68.86190555203484" lon="14.926425004976473" id="-14439">
		<tag k="name" v="Klubban" />
		<tag k="place" v="islet" />
		<tag k="ssr:stedsnr" v="624810" />
	</node>
	<node lat="68.87576944482342" lon="14.922875006555014" id="-14440">
		<tag k="alt_name" v="Breidstrandvågen" />
		<tag k="name" v="Breistrandvågen" />
		<tag k="natural" v="bay" />
		<tag k="ssr:stedsnr" v="624816" />
	</node>
	<node lat="68.80116111217394" lon="14.824458339796074" id="-14444">
		<tag k="alt_name" v="Andneset" />
		<tag k="name" v="Andnesan" />
		<tag k="natural" v="cape" />
		<tag k="ssr:stedsnr" v="624932" />
	</node>
	<node lat="68.79071944451613" lon="14.93726110311536" id="-14447">
		<tag k="name" v="Sandsetbukta" />
		<tag k="natural" v="bay" />
		<tag k="ssr:stedsnr" v="624977" />
	</node>
	<node lat="69.02415833322581" lon="15.081500005443191" id="-14449">
		<tag k="name" v="Kobbholman" />
		<tag k="place" v="islet" />
		<tag k="ssr:stedsnr" v="642398" />
	</node>
	<node lat="68.8527777800363" lon="15.26911665635205" id="-14450">
		<tag k="name" v="Urdalsneset" />
		<tag k="natural" v="cape" />
		<tag k="ssr:stedsnr" v="642458" />
	</node>
	<node lat="68.96138889279736" lon="15.158344440147687" id="-14454">
		<tag k="name" v="Breifjorden" />
		<tag k="natural" v="bay" />
		<tag k="ssr:stedsnr" v="642180" />
	</node>
	<node lat="68.9157138877501" lon="15.25949444936689" id="-14457">
		<tag k="name" v="Oppkastan" />
		<tag k="natural" v="beach" />
		<tag k="ssr:stedsnr" v="642042" />
	</node>
	<node lat="68.9087277740533" lon="15.053686113655761" id="-14461">
		<tag k="name" v="Gossesanden" />
		<tag k="natural" v="beach" />
		<tag k="ssr:stedsnr" v="642171" />
	</node>
	<node lat="68.90710555488884" lon="15.326694450710843" id="-14466">
		<tag k="name" v="Sørskaga" />
		<tag k="natural" v="cape" />
		<tag k="ssr:stedsnr" v="642756" />
	</node>
	<node lat="68.87128055800012" lon="15.068733328935759" id="-14468">
		<tag k="name" v="Stavneset" />
		<tag k="natural" v="cape" />
		<tag k="ssr:stedsnr" v="643464" />
	</node>
	<node lat="68.8666055542124" lon="15.07540555748353" id="-14469">
		<tag k="name" v="Ytstvikgrunnen" />
		<tag k="natural" v="shoal" />
		<tag k="place" v="locality" />
		<tag k="ssr:stedsnr" v="643465" />
	</node>
	<node lat="68.86998610900649" lon="14.924908322706507" id="-14470">
		<tag k="name" v="Stålhuva" />
		<tag k="place" v="locality" />
		<tag k="seamark:type" v="rock" />
		<tag k="ssr:stedsnr" v="644315" />
	</node>
	<node lat="68.88799166825142" lon="15.354724995347253" id="-14471">
		<tag k="name" v="Lyngøygrunnen" />
		<tag k="natural" v="shoal" />
		<tag k="place" v="locality" />
		<tag k="ssr:stedsnr" v="644678" />
	</node>
	<node lat="68.92142499854867" lon="14.851808341949837" id="-14475">
		<tag k="name" v="Vågjekeila" />
		<tag k="natural" v="bay" />
		<tag k="ssr:stedsnr" v="646063" />
	</node>
	<node lat="68.8598583310762" lon="14.943427781874343" id="-14476">
		<tag k="name" v="Sørneset" />
		<tag k="natural" v="cape" />
		<tag k="ssr:stedsnr" v="646071" />
	</node>
	<node lat="68.9763861080916" lon="15.226838891396914" id="-14477">
		<tag k="fixme" v="consider seamark:type=rock or natural=shoal" />
		<tag k="name" v="Svartskjeret" />
		<tag k="place" v="islet" />
		<tag k="ssr:stedsnr" v="646543" />
	</node>
	<node lat="68.83295278059522" lon="14.739163887222462" id="-14490">
		<tag k="name" v="Småholman" />
		<tag k="place" v="islet" />
		<tag k="ssr:stedsnr" v="664664" />
	</node>
	<node lat="68.80197500080045" lon="14.815011109577258" id="-14502">
		<tag k="name" v="Kverneset" />
		<tag k="natural" v="cape" />
		<tag k="ssr:stedsnr" v="726762" />
	</node>
	<node lat="69.01111111452788" lon="14.4166666763864" id="-14504">
		<tag k="name" v="Klakken" />
		<tag k="natural" v="shoal" />
		<tag k="place" v="locality" />
		<tag k="ssr:stedsnr" v="727122" />
	</node>
	<node lat="69.07068888965588" lon="15.170516674775422" id="-14507">
		<tag k="fixme" v="consider seamark:type=rock or natural=shoal" />
		<tag k="name" v="Andskjeret" />
		<tag k="place" v="islet" />
		<tag k="ssr:stedsnr" v="745393" />
	</node>
	<node lat="68.9654222257026" lon="15.172830550398587" id="-14509">
		<tag k="name" v="Straumen" />
		<tag k="natural" v="strait" />
		<tag k="ssr:stedsnr" v="745596" />
	</node>
	<node lat="68.97841388988294" lon="15.188600012243429" id="-14511">
		<tag k="name" v="Landet" />
		<tag k="natural" v="cape" />
		<tag k="ssr:stedsnr" v="745558" />
	</node>
	<node lat="68.88757777850742" lon="15.0277861194526" id="-14513">
		<tag k="name" v="Nordneset" />
		<tag k="natural" v="cape" />
		<tag k="ssr:stedsnr" v="745756" />
	</node>
	<node lat="68.92363055798545" lon="14.848777767080682" id="-14514">
		<tag k="alt_name" v="Vågjehella" />
		<tag k="name" v="Hella" />
		<tag k="natural" v="cape" />
		<tag k="ssr:stedsnr" v="746131" />
	</node>
	<node lat="68.77763889292831" lon="14.919638883844774" id="-14518">
		<tag k="alt_name" v="Dunganneset" />
		<tag k="name" v="Dunganeset" />
		<tag k="natural" v="cape" />
		<tag k="ssr:stedsnr" v="746513" />
	</node>
	<node lat="68.84446111291271" lon="15.145469435832613" id="-14520">
		<tag k="name" v="Klubbneset" />
		<tag k="natural" v="cape" />
		<tag k="ssr:stedsnr" v="746686" />
	</node>
	<node lat="68.85579444709738" lon="14.991850001706288" id="-14525">
		<tag k="fixme" v="consider seamark:type=rock or natural=shoal" />
		<tag k="name" v="Skarvskjeran" />
		<tag k="place" v="islet" />
		<tag k="ssr:stedsnr" v="746800" />
	</node>
	<node lat="68.76553888886916" lon="15.001880553222035" id="-14528">
		<tag k="name" v="Bjørndalspollen" />
		<tag k="natural" v="bay" />
		<tag k="ssr:stedsnr" v="746556" />
	</node>
	<node lat="68.94412222054987" lon="15.199991667156297" id="-14529">
		<tag k="name" v="Ole-Jensaholmen" />
		<tag k="place" v="islet" />
		<tag k="ssr:stedsnr" v="746627" />
	</node>
	<node lat="68.90722499789993" lon="15.040708329781722" id="-14530">
		<tag k="name" v="Skjåneset" />
		<tag k="natural" v="cape" />
		<tag k="ssr:stedsnr" v="746664" />
	</node>
	<node lat="68.88271111379173" lon="15.0015416720222" id="-14533">
		<tag k="name" v="Tilsetsundet" />
		<tag k="natural" v="strait" />
		<tag k="ssr:stedsnr" v="746750" />
	</node>
	<node lat="68.8589666642846" lon="14.703022210409001" id="-14534">
		<tag k="name" v="Dyrøygrunnen" />
		<tag k="natural" v="shoal" />
		<tag k="place" v="locality" />
		<tag k="ssr:stedsnr" v="746764" />
	</node>
	<node lat="68.80474722318439" lon="14.808002778699143" id="-14537">
		<tag k="name" v="Nonøyan" />
		<tag k="place" v="islet" />
		<tag k="ssr:stedsnr" v="746928" />
	</node>
	<node lat="68.9284194433079" lon="15.21590556014583" id="-14540">
		<tag k="name" v="Slåtterøya" />
		<tag k="place" v="island" />
		<tag k="ssr:stedsnr" v="764059" />
	</node>
	<node lat="68.91336110926406" lon="15.063483321380447" id="-14550">
		<tag k="name" v="Holmen" />
		<tag k="natural" v="cape" />
		<tag k="ssr:stedsnr" v="764161" />
	</node>
	<node lat="68.9785916674211" lon="15.018186123563856" id="-14552">
		<tag k="name" v="Hundneset" />
		<tag k="natural" v="cape" />
		<tag k="ssr:stedsnr" v="764381" />
	</node>
	<node lat="69.02575833676165" lon="15.119205548727228" id="-14555">
		<tag k="name" v="Løkstranda" />
		<tag k="natural" v="beach" />
		<tag k="ssr:stedsnr" v="764435" />
	</node>
	<node lat="68.78451110712246" lon="14.929255564719584" id="-14556">
		<tag k="name" v="Avløysgrunnen" />
		<tag k="natural" v="shoal" />
		<tag k="place" v="locality" />
		<tag k="ssr:stedsnr" v="764765" />
	</node>
	<node lat="69.04148611134416" lon="15.174930565033465" id="-14558">
		<tag k="name" v="Ytre Skreingen" />
		<tag k="natural" v="shoal" />
		<tag k="place" v="locality" />
		<tag k="ssr:stedsnr" v="765082" />
	</node>
	<node lat="68.90703333072739" lon="15.00654722859588" id="-14559">
		<tag k="name" v="Fjellgrimstadbåen" />
		<tag k="natural" v="shoal" />
		<tag k="place" v="locality" />
		<tag k="ssr:stedsnr" v="765924" />
	</node>
	<node lat="68.9305583293249" lon="14.77958887920978" id="-14560">
		<tag k="name" v="Disken" />
		<tag k="natural" v="shoal" />
		<tag k="place" v="locality" />
		<tag k="ssr:stedsnr" v="766939" />
	</node>
	<node lat="68.92011389008806" lon="14.848950010567878" id="-14565">
		<tag k="fixme" v="consider seamark:type=rock or natural=shoal" />
		<tag k="name" v="Hjellskjeret" />
		<tag k="place" v="islet" />
		<tag k="ssr:stedsnr" v="767063" />
	</node>
	<node lat="68.90541944340615" lon="14.993052767242474" id="-14578">
		<tag k="name" v="Storholmen" />
		<tag k="place" v="islet" />
		<tag k="ssr:stedsnr" v="769321" />
	</node>
	<node lat="68.96271111055259" lon="15.286680562455153" id="-14579">
		<tag k="fixme" v="consider seamark:type=rock or natural=shoal" />
		<tag k="name" v="Svartskjeret" />
		<tag k="place" v="islet" />
		<tag k="ssr:stedsnr" v="770676" />
	</node>
	<node lat="68.91091944472257" lon="15.320549993697142" id="-14580">
		<tag k="name" v="Instøyskaga" />
		<tag k="natural" v="cape" />
		<tag k="ssr:stedsnr" v="770703" />
	</node>
	<node lat="68.91929722328612" lon="15.306197232966072" id="-14581">
		<tag k="name" v="Meløyskaga" />
		<tag k="natural" v="cape" />
		<tag k="ssr:stedsnr" v="770711" />
	</node>
	<node lat="68.83109999765428" lon="14.79471945516276" id="-14585">
		<tag k="name" v="Eggeneset" />
		<tag k="natural" v="cape" />
		<tag k="ssr:stedsnr" v="785644" />
	</node>
	<node lat="68.8109222211498" lon="14.882591667283805" id="-14589">
		<tag k="fixme" v="consider seamark:type=rock or natural=shoal" />
		<tag k="name" v="Storskjeret" />
		<tag k="place" v="islet" />
		<tag k="ssr:stedsnr" v="787868" />
	</node>
	<node lat="68.80547777370029" lon="14.847919445172733" id="-14590">
		<tag k="name" v="Austringsneset" />
		<tag k="natural" v="cape" />
		<tag k="ssr:stedsnr" v="787871" />
	</node>
	<node lat="68.96931110732588" lon="14.911488875859622" id="-14591">
		<tag k="name" v="Hallvardgrunnen" />
		<tag k="natural" v="shoal" />
		<tag k="place" v="locality" />
		<tag k="ssr:stedsnr" v="806158" />
	</node>
	<node lat="68.97020555828648" lon="14.92900278690716" id="-14592">
		<tag k="name" v="Rundskjerflua" />
		<tag k="natural" v="shoal" />
		<tag k="place" v="locality" />
		<tag k="ssr:stedsnr" v="806159" />
	</node>
	<node lat="69.05852777506513" lon="15.134452786072302" id="-14600">
		<tag k="name" v="Klakkskjeret" />
		<tag k="natural" v="shoal" />
		<tag k="place" v="locality" />
		<tag k="ssr:stedsnr" v="806364" />
	</node>
	<node lat="68.77896671979424" lon="14.975459218414" id="-14604">
		<tag k="name" v="Skjelbugen" />
		<tag k="natural" v="bay" />
		<tag k="ssr:stedsnr" v="806497" />
	</node>
	<node lat="68.9845361090201" lon="15.266902768641978" id="-14606">
		<tag k="alt_name" v="Meværan" />
		<tag k="fixme" v="consider seamark:type=rock or natural=shoal" />
		<tag k="name" v="Mevær" />
		<tag k="place" v="islet" />
		<tag k="ssr:stedsnr" v="806549" />
	</node>
	<node lat="68.97134722156112" lon="15.316958345448745" id="-14611">
		<tag k="alt_name" v="Sandøyra" />
		<tag k="fixme" v="consider seamark:type=rock or natural=shoal" />
		<tag k="name" v="Sandøya" />
		<tag k="place" v="islet" />
		<tag k="ssr:stedsnr" v="806597" />
	</node>
	<node lat="68.87739444428242" lon="15.069769444408417" id="-14613">
		<tag k="name" v="Gårdsholmen" />
		<tag k="place" v="islet" />
		<tag k="ssr:stedsnr" v="806709" />
	</node>
	<node lat="68.79300277374597" lon="14.874461115485575" id="-14614">
		<tag k="name" v="Hamnneset" />
		<tag k="natural" v="cape" />
		<tag k="old_name" v="Hamneset" />
		<tag k="ssr:stedsnr" v="806719" />
	</node>
	<node lat="68.89795833256407" lon="15.326808336966751" id="-14615">
		<tag k="fixme" v="multiple name tags, choose one and add the other to alt_name; consider seamark:type=rock or natural=shoal" />
		<tag k="name" v="Madsskjeret;Måsskjeret" />
		<tag k="place" v="islet" />
		<tag k="ssr:stedsnr" v="806735" />
	</node>
	<node lat="68.89633055741041" lon="15.062016655828774" id="-14616">
		<tag k="name" v="Sommarøya" />
		<tag k="place" v="island" />
		<tag k="ssr:stedsnr" v="806742" />
	</node>
	<node lat="68.90109444816186" lon="14.717211123385354" id="-14618">
		<tag k="alt_name" v="Breidgrunnen" />
		<tag k="name" v="Breigrunnen" />
		<tag k="natural" v="shoal" />
		<tag k="place" v="locality" />
		<tag k="ssr:stedsnr" v="806787" />
	</node>
	<node lat="68.86446666341814" lon="14.835175007586896" id="-14619">
		<tag k="alt_name" v="Skagen" />
		<tag k="fixme" v="multiple name tags, choose one and add the other to alt_name" />
		<tag k="name" v="Hjellsandøyskaga;Skaga" />
		<tag k="place" v="islet" />
		<tag k="ssr:stedsnr" v="806845" />
	</node>
	<node lat="68.89536111286552" lon="14.774650001453908" id="-14621">
		<tag k="name" v="Eggholmgrunnen" />
		<tag k="natural" v="shoal" />
		<tag k="place" v="locality" />
		<tag k="ssr:stedsnr" v="806810" />
	</node>
	<node lat="68.88110833364792" lon="15.010658343210197" id="-14622">
		<tag k="alt_name" v="Hovden" />
		<tag k="name" v="Reinøyhovden" />
		<tag k="place" v="islet" />
		<tag k="ssr:stedsnr" v="806813" />
	</node>
	<node lat="68.8699916638691" lon="14.887150002201446" id="-14623">
		<tag k="alt_name" v="Tunstadholmen" />
		<tag k="name" v="Tunnstadholmen" />
		<tag k="place" v="islet" />
		<tag k="ssr:stedsnr" v="806818" />
	</node>
	<node lat="68.78336666777727" lon="14.818708329229752" id="-14627">
		<tag k="name" v="Sjurdtindsbukta" />
		<tag k="natural" v="bay" />
		<tag k="ssr:stedsnr" v="806984" />
	</node>
	<node lat="68.9435777770248" lon="14.886550011009728" id="-14628">
		<tag k="fixme" v="multiple name tags, choose one and add the other to alt_name; consider seamark:type=rock or natural=shoal" />
		<tag k="name" v="Stabbskjeran;Oddskjeran" />
		<tag k="place" v="islet" />
		<tag k="ssr:stedsnr" v="807152" />
	</node>
	<node lat="68.95876944056899" lon="14.991016662011443" id="-14629">
		<tag k="name" v="Andværbåan" />
		<tag k="natural" v="shoal" />
		<tag k="place" v="locality" />
		<tag k="ssr:stedsnr" v="807161" />
	</node>
	<node lat="68.91645555483868" lon="15.27714167756078" id="-14639">
		<tag k="name" v="Meløya" />
		<tag k="place" v="island" />
		<tag k="ssr:stedsnr" v="807654" />
	</node>
	<node lat="68.92195555346139" lon="14.797077785330504" id="-14642">
		<tag k="fixme" v="consider seamark:type=rock or natural=shoal" />
		<tag k="name" v="Skjåskjeret" />
		<tag k="place" v="islet" />
		<tag k="ssr:stedsnr" v="807734" />
	</node>
	<node lat="68.91130833463826" lon="14.776927778337564" id="-14644">
		<tag k="name" v="Hella" />
		<tag k="natural" v="shoal" />
		<tag k="place" v="locality" />
		<tag k="ssr:stedsnr" v="807749" />
	</node>
	<node lat="68.81952777989508" lon="14.731672228771126" id="-14649">
		<tag k="name" v="Fauskhella" />
		<tag k="natural" v="cape" />
		<tag k="ssr:stedsnr" v="807887" />
	</node>
	<node lat="68.80896111425533" lon="15.026475004768214" id="-14651">
		<tag k="bay" v="fjord" />
		<tag k="name" v="Romsetfjorden" />
		<tag k="natural" v="bay" />
		<tag k="ssr:stedsnr" v="807795" />
	</node>
	<node lat="68.84814444154007" lon="14.737541657550603" id="-14652">
		<tag k="fixme" v="multiple name tags, choose one and add the other to alt_name" />
		<tag k="name" v="Kufothella;Hella" />
		<tag k="natural" v="shoal" />
		<tag k="place" v="locality" />
		<tag k="ssr:stedsnr" v="807822" />
	</node>
	<node lat="68.8086472266759" lon="14.84918888011347" id="-14654">
		<tag k="name" v="Fjellbukta" />
		<tag k="natural" v="bay" />
		<tag k="ssr:stedsnr" v="807915" />
	</node>
	<node lat="68.81488888968205" lon="14.970047211236876" id="-14655">
		<tag k="alt_name" v="Godvikbotn" />
		<tag k="name" v="Godvikbotnen" />
		<tag k="natural" v="bay" />
		<tag k="ssr:stedsnr" v="807919" />
	</node>
	<node lat="68.79789166878749" lon="14.849063897908628" id="-14658">
		<tag k="alt_name" v="Bolleøya" />
		<tag k="name" v="Bolløya" />
		<tag k="place" v="islet" />
		<tag k="ssr:stedsnr" v="807968" />
	</node>
	<node lat="68.86413333517935" lon="15.289805550008882" id="-14663">
		<tag k="name" v="Klubben" />
		<tag k="natural" v="cape" />
		<tag k="ssr:stedsnr" v="825018" />
	</node>
	<node lat="69.01656111253298" lon="15.083925008257435" id="-14673">
		<tag k="name" v="Barselkonholmen" />
		<tag k="place" v="islet" />
		<tag k="ssr:stedsnr" v="825346" />
	</node>
	<node lat="68.89981666992985" lon="15.2954750031917" id="-14675">
		<tag k="name" v="Sandvika" />
		<tag k="natural" v="bay" />
		<tag k="ssr:stedsnr" v="825754" />
	</node>
	<node lat="69.03061389295449" lon="15.12829723090876" id="-14676">
		<tag k="name" v="Avløysa" />
		<tag k="place" v="islet" />
		<tag k="ssr:stedsnr" v="825828" />
	</node>
	<node lat="69.02798333185484" lon="15.131511105915962" id="-14677">
		<tag k="name" v="Juldagsleia" />
		<tag k="natural" v="strait" />
		<tag k="ssr:stedsnr" v="825829" />
	</node>
	<node lat="68.98115555632343" lon="15.192213884119717" id="-14678">
		<tag k="fixme" v="consider seamark:type=rock or natural=shoal" />
		<tag k="name" v="Kjuklingan" />
		<tag k="place" v="islet" />
		<tag k="ssr:stedsnr" v="825839" />
	</node>
	<node lat="69.02462777935222" lon="15.164833330255197" id="-14680">
		<tag k="name" v="Buholmen" />
		<tag k="place" v="islet" />
		<tag k="ssr:stedsnr" v="825857" />
	</node>
	<node lat="69.02578611229866" lon="15.162413896162311" id="-14681">
		<tag k="name" v="Kistholmen" />
		<tag k="place" v="islet" />
		<tag k="ssr:stedsnr" v="825861" />
	</node>
	<node lat="68.86173888894216" lon="15.292683330462841" id="-14682">
		<tag k="fixme" v="consider seamark:type=rock or natural=shoal" />
		<tag k="name" v="Liskjeret" />
		<tag k="place" v="islet" />
		<tag k="ssr:stedsnr" v="827290" />
	</node>
	<node lat="69.04683611336722" lon="15.116138885249253" id="-14683">
		<tag k="name" v="Rasmusskallen" />
		<tag k="natural" v="shoal" />
		<tag k="place" v="locality" />
		<tag k="ssr:stedsnr" v="827529" />
	</node>
	<node lat="68.9317527798917" lon="14.838252770614808" id="-14684">
		<tag k="name" v="Blosbåen" />
		<tag k="natural" v="shoal" />
		<tag k="place" v="locality" />
		<tag k="ssr:stedsnr" v="827943" />
	</node>
	<node lat="68.8855861148743" lon="14.839111119227159" id="-14686">
		<tag k="name" v="Keila" />
		<tag k="natural" v="bay" />
		<tag k="ssr:stedsnr" v="828093" />
	</node>
	<node lat="68.92141111348985" lon="14.817450005530523" id="-14687">
		<tag k="fixme" v="consider seamark:type=rock or natural=shoal" />
		<tag k="name" v="Langskjeret" />
		<tag k="place" v="islet" />
		<tag k="ssr:stedsnr" v="829074" />
	</node>
	<node lat="68.92629999565732" lon="14.95277499915675" id="-14690">
		<tag k="name" v="Kvalvikodden" />
		<tag k="natural" v="cape" />
		<tag k="ssr:stedsnr" v="829043" />
	</node>
	<node lat="68.92399166383552" lon="14.940919433765472" id="-14691">
		<tag k="name" v="Ytterstøa" />
		<tag k="natural" v="bay" />
		<tag k="ssr:stedsnr" v="829051" />
	</node>
	<node lat="69.0210944442329" lon="15.155622223628079" id="-14692">
		<tag k="name" v="Været" />
		<tag k="natural" v="cape" />
		<tag k="ssr:stedsnr" v="829541" />
	</node>
	<node lat="68.99919999707367" lon="15.011050003702719" id="-14696">
		<tag k="name" v="Kalven" />
		<tag k="natural" v="cape" />
		<tag k="ssr:stedsnr" v="830230" />
	</node>
	<node lat="68.99459999895039" lon="15.016072220519582" id="-14698">
		<tag k="name" v="Vesterleia" />
		<tag k="natural" v="bay" />
		<tag k="ssr:stedsnr" v="830262" />
	</node>
	<node lat="68.82662222277308" lon="15.247338885309032" id="-14702">
		<tag k="name" v="Brandåssjyen" />
		<tag k="natural" v="bay" />
		<tag k="ssr:stedsnr" v="830598" />
	</node>
	<node lat="68.83904166597804" lon="15.266913900211627" id="-14703">
		<tag k="name" v="Omnkråvika" />
		<tag k="natural" v="bay" />
		<tag k="ssr:stedsnr" v="830608" />
	</node>
	<node lat="68.9595305510595" lon="14.935258337651373" id="-14704">
		<tag k="name" v="Langnesvika" />
		<tag k="natural" v="bay" />
		<tag k="ssr:stedsnr" v="844165" />
	</node>
	<node lat="68.96480000137471" lon="14.945777786328275" id="-14705">
		<tag k="name" v="Leitet" />
		<tag k="place" v="locality" />
		<tag k="ssr:stedsnr" v="844171" />
	</node>
	<node lat="68.86551666687969" lon="14.974900004344315" id="-14712">
		<tag k="name" v="Buskeneset" />
		<tag k="natural" v="cape" />
		<tag k="ssr:stedsnr" v="846345" />
	</node>
	<node lat="68.83288333091308" lon="14.765619445005456" id="-14714">
		<tag k="name" v="Gravareidet" />
		<tag k="place" v="locality" />
		<tag k="ssr:stedsnr" v="846656" />
	</node>
	<node lat="68.78069444022654" lon="14.921519443501385" id="-14717">
		<tag k="fixme" v="consider seamark:type=rock or natural=shoal" />
		<tag k="name" v="Dungaskjeran" />
		<tag k="place" v="islet" />
		<tag k="ssr:stedsnr" v="848754" />
	</node>
	<node lat="68.94154722557819" lon="14.929627786669878" id="-14718">
		<tag k="fixme" v="consider seamark:type=rock or natural=shoal" />
		<tag k="name" v="Geitskjeran" />
		<tag k="place" v="islet" />
		<tag k="ssr:stedsnr" v="867179" />
	</node>
	<node lat="68.97584721881132" lon="15.007244455310385" id="-14719">
		<tag k="alt_name" v="Gardsøya" />
		<tag k="fixme" v="multiple name tags, choose one and add the other to alt_name" />
		<tag k="name" v="Vottestadøya;Gårdsøya" />
		<tag k="place" v="island" />
		<tag k="ssr:stedsnr" v="867181" />
	</node>
	<node lat="68.97128611433374" lon="14.930430568378538" id="-14720">
		<tag k="alt_name" v="Rundskjeran" />
		<tag k="fixme" v="consider seamark:type=rock or natural=shoal" />
		<tag k="name" v="Rundskjeret" />
		<tag k="place" v="islet" />
		<tag k="ssr:stedsnr" v="867190" />
	</node>
	<node lat="68.93458611326626" lon="14.947647233740256" id="-14727">
		<tag k="fixme" v="multiple name tags, choose one and add the other to alt_name; consider seamark:type=rock or natural=shoal" />
		<tag k="name" v="Torfinnskjeran;Toffenskjeran;Toftenskjeran" />
		<tag k="place" v="islet" />
		<tag k="ssr:stedsnr" v="867158" />
	</node>
	<node lat="68.9324194461759" lon="14.910741661319111" id="-14728">
		<tag k="name" v="Revet" />
		<tag k="natural" v="shoal" />
		<tag k="place" v="locality" />
		<tag k="ssr:stedsnr" v="867174" />
	</node>
	<node lat="68.82808611478815" lon="14.79348054805318" id="-14730">
		<tag k="name" v="Gudmundsvika" />
		<tag k="natural" v="bay" />
		<tag k="ssr:stedsnr" v="867877" />
	</node>
	<node lat="68.78333888717276" lon="14.723280562036466" id="-14734">
		<tag k="name" v="Nærøyskaga" />
		<tag k="natural" v="cape" />
		<tag k="ssr:stedsnr" v="867994" />
	</node>
	<node lat="69.087966667903" lon="15.12386665977938" id="-14736">
		<tag k="name" v="Vikgrunnen" />
		<tag k="natural" v="shoal" />
		<tag k="place" v="locality" />
		<tag k="ssr:stedsnr" v="867302" />
	</node>
	<node lat="68.83891944237163" lon="15.269494431314232" id="-14737">
		<tag k="fixme" v="consider seamark:type=rock or natural=shoal" />
		<tag k="name" v="Andholman" />
		<tag k="place" v="islet" />
		<tag k="ssr:stedsnr" v="867322" />
	</node>
	<node lat="69.0119555510877" lon="15.090838890201708" id="-14739">
		<tag k="name" v="Kvalbaken" />
		<tag k="natural" v="cape" />
		<tag k="ssr:stedsnr" v="867359" />
	</node>
	<node lat="69.0100166699433" lon="15.049580551636945" id="-14740">
		<tag k="fixme" v="multiple name tags, choose one and add the other to alt_name; consider seamark:type=rock or natural=shoal" />
		<tag k="name" v="Rossmålen;Krokskjeret" />
		<tag k="place" v="islet" />
		<tag k="ssr:stedsnr" v="867361" />
	</node>
	<node lat="68.77850555283014" lon="14.746636100819162" id="-14741">
		<tag k="bay" v="fjord" />
		<tag k="name" v="Ryggefjorden" />
		<tag k="natural" v="bay" />
		<tag k="ssr:stedsnr" v="867533" />
	</node>
	<node lat="68.97766666951257" lon="15.317374997034184" id="-14746">
		<tag k="fixme" v="consider seamark:type=rock or natural=shoal" />
		<tag k="name" v="Fjellmoskjeret" />
		<tag k="place" v="islet" />
		<tag k="ssr:stedsnr" v="867569" />
	</node>
	<node lat="68.946936115503" lon="15.19663054459471" id="-14749">
		<tag k="name" v="Hestholmen" />
		<tag k="place" v="islet" />
		<tag k="ssr:stedsnr" v="867662" />
	</node>
	<node lat="68.94831111501148" lon="15.30507776921982" id="-14750">
		<tag k="name" v="Årholmen" />
		<tag k="place" v="islet" />
		<tag k="ssr:stedsnr" v="867664" />
	</node>
	<node lat="68.82831110761836" lon="15.142833334521145" id="-14752">
		<tag k="name" v="Langneset" />
		<tag k="natural" v="cape" />
		<tag k="ssr:stedsnr" v="867709" />
	</node>
	<node lat="68.91567500318304" lon="15.256302783539748" id="-14753">
		<tag k="name" v="Straumen" />
		<tag k="natural" v="strait" />
		<tag k="ssr:stedsnr" v="867712" />
	</node>
	<node lat="68.88377777700559" lon="14.751222227347123" id="-14755">
		<tag k="alt_name" v="Mangbåskjeran" />
		<tag k="fixme" v="consider seamark:type=rock or natural=shoal" />
		<tag k="name" v="Mangbåan" />
		<tag k="place" v="islet" />
		<tag k="ssr:stedsnr" v="867828" />
	</node>
	<node lat="68.87594721974989" lon="14.942166670852522" id="-14757">
		<tag k="name" v="Lysvika" />
		<tag k="natural" v="bay" />
		<tag k="ssr:stedsnr" v="867840" />
	</node>
	<node lat="68.83422777653848" lon="14.84442221457586" id="-14760">
		<tag k="name" v="Bergsengneset" />
		<tag k="natural" v="cape" />
		<tag k="ssr:stedsnr" v="867861" />
	</node>
	<node lat="68.90025833599438" lon="14.754497228671632" id="-14761">
		<tag k="name" v="Einsteinen" />
		<tag k="natural" v="shoal" />
		<tag k="place" v="locality" />
		<tag k="ssr:stedsnr" v="867784" />
	</node>
	<node lat="68.91172778103707" lon="14.839394434646207" id="-14765">
		<tag k="alt_name" v="Heimerholmen" />
		<tag k="name" v="Heimreholmen" />
		<tag k="place" v="islet" />
		<tag k="ssr:stedsnr" v="867793" />
	</node>
	<node lat="68.88676666995798" lon="14.684138891953998" id="-14766">
		<tag k="name" v="Storholmen" />
		<tag k="place" v="islet" />
		<tag k="ssr:stedsnr" v="867805" />
	</node>
	<node lat="68.81336388840307" lon="14.888488880216922" id="-14772">
		<tag k="name" v="Nothusholmen" />
		<tag k="place" v="islet" />
		<tag k="ssr:stedsnr" v="868900" />
	</node>
	<node lat="68.80992221903558" lon="14.85334443260426" id="-14773">
		<tag k="name" v="Klubben" />
		<tag k="natural" v="cape" />
		<tag k="ssr:stedsnr" v="868902" />
	</node>
	<node lat="68.98202499647361" lon="15.005497215368958" id="-14774">
		<tag k="fixme" v="consider seamark:type=rock or natural=shoal" />
		<tag k="name" v="Langskjeret" />
		<tag k="place" v="islet" />
		<tag k="ssr:stedsnr" v="886374" />
	</node>
	<node lat="68.95888332900314" lon="15.17874166812925" id="-14777">
		<tag k="name" v="Osen" />
		<tag k="natural" v="bay" />
		<tag k="ssr:stedsnr" v="886208" />
	</node>
	<node lat="68.95033055482513" lon="15.184736102275357" id="-14778">
		<tag k="name" v="Steinholmen" />
		<tag k="place" v="islet" />
		<tag k="ssr:stedsnr" v="886215" />
	</node>
	<node lat="68.77894444109099" lon="14.915783331478604" id="-14780">
		<tag k="fixme" v="consider seamark:type=rock or natural=shoal" />
		<tag k="name" v="Sauøyrevet" />
		<tag k="place" v="islet" />
		<tag k="ssr:stedsnr" v="886288" />
	</node>
	<node lat="68.78673055078985" lon="14.759541676714319" id="-14781">
		<tag k="name" v="Perneset" />
		<tag k="natural" v="cape" />
		<tag k="ssr:stedsnr" v="886531" />
	</node>
	<node lat="68.80106388646979" lon="14.921744441118449" id="-14782">
		<tag k="alt_name" v="Stampene" />
		<tag k="name" v="Stampan" />
		<tag k="natural" v="shoal" />
		<tag k="place" v="locality" />
		<tag k="ssr:stedsnr" v="886764" />
	</node>
	<node lat="68.91635000451208" lon="15.061249999650233" id="-14783">
		<tag k="name" v="Skjåhaugen" />
		<tag k="natural" v="cape" />
		<tag k="ssr:stedsnr" v="886940" />
	</node>
	<node lat="69.0154166636574" lon="15.181402787095823" id="-14785">
		<tag k="fixme" v="consider seamark:type=rock or natural=shoal" />
		<tag k="name" v="Stålhuva" />
		<tag k="place" v="islet" />
		<tag k="ssr:stedsnr" v="886873" />
	</node>
	<node lat="68.76750000282915" lon="14.886777778709737" id="-14786">
		<tag k="name" v="Ytre Nonstindbukta" />
		<tag k="natural" v="bay" />
		<tag k="ssr:stedsnr" v="886887" />
	</node>
	<node lat="68.89876110896687" lon="15.364477778401213" id="-14789">
		<tag k="name" v="Fjæra" />
		<tag k="natural" v="shoal" />
		<tag k="place" v="locality" />
		<tag k="ssr:stedsnr" v="888289" />
	</node>
	<node lat="68.90499444188715" lon="14.695666655592134" id="-14790">
		<tag k="alt_name" v="Breidgrunnleia" />
		<tag k="name" v="Breigrunnleia" />
		<tag k="natural" v="strait" />
		<tag k="ssr:stedsnr" v="888972" />
	</node>
	<node lat="68.93653889089069" lon="14.852627772683062" id="-14791">
		<tag k="name" v="Hellfallet" />
		<tag k="natural" v="shoal" />
		<tag k="place" v="locality" />
		<tag k="ssr:stedsnr" v="888935" />
	</node>
	<node lat="68.89436666497899" lon="14.840466672129434" id="-14792">
		<tag k="name" v="Hamn" />
		<tag k="natural" v="bay" />
		<tag k="ssr:stedsnr" v="889041" />
	</node>
	<node lat="68.92178055574833" lon="14.845574989299973" id="-14795">
		<tag k="name" v="Vågjesnålden" />
		<tag k="place" v="islet" />
		<tag k="ssr:stedsnr" v="889090" />
	</node>
	<node lat="68.85600555648156" lon="14.923911109913226" id="-14796">
		<tag k="fixme" v="consider seamark:type=rock or natural=shoal" />
		<tag k="name" v="Dalskjeran" />
		<tag k="place" v="islet" />
		<tag k="ssr:stedsnr" v="889091" />
	</node>
	<node lat="68.91894722131433" lon="15.239280564273086" id="-14801">
		<tag k="name" v="Steinholmen" />
		<tag k="place" v="islet" />
		<tag k="ssr:stedsnr" v="946067" />
	</node>
	<node lat="68.91089722301271" lon="15.214911108765255" id="-14803">
		<tag k="name" v="Vesterholmen" />
		<tag k="place" v="islet" />
		<tag k="ssr:stedsnr" v="946075" />
	</node>
	<node lat="68.90789167112975" lon="15.273147211186316" id="-14804">
		<tag k="name" v="Saltosen" />
		<tag k="natural" v="strait" />
		<tag k="ssr:stedsnr" v="946125" />
	</node>
	<node lat="68.78761111090745" lon="14.890688883089755" id="-14806">
		<tag k="name" v="Valholmen" />
		<tag k="place" v="islet" />
		<tag k="ssr:stedsnr" v="946728" />
	</node>
	<node lat="68.96683611012311" lon="14.955961106256671" id="-14815">
		<tag k="alt_name" v="Kalverumpa" />
		<tag k="fixme" v="consider seamark:type=rock or natural=shoal" />
		<tag k="name" v="Kalvrumpa" />
		<tag k="place" v="islet" />
		<tag k="ssr:stedsnr" v="947008" />
	</node>
	<node lat="68.86774999620242" lon="15.289033327282842" id="-14818">
		<tag k="name" v="Holmen" />
		<tag k="natural" v="bay" />
		<tag k="ssr:stedsnr" v="947790" />
	</node>
	<node lat="68.837888892912" lon="14.845027774047761" id="-14819">
		<tag k="fixme" v="consider seamark:type=rock or natural=shoal" />
		<tag k="name" v="Børøyskjæret" />
		<tag k="place" v="islet" />
		<tag k="ssr:stedsnr" v="947791" />
	</node>
	<node lat="68.85378333503233" lon="14.913238878901277" id="-14825">
		<tag k="name" v="Dalstranda" />
		<tag k="natural" v="beach" />
		<tag k="ssr:stedsnr" v="950073" />
	</node>
	<node lat="68.87343888543838" lon="14.92474723105362" id="-14830">
		<tag k="name" v="Låvneset" />
		<tag k="natural" v="cape" />
		<tag k="ssr:stedsnr" v="950097" />
	</node>
	<node lat="68.83913055223874" lon="14.783324991954201" id="-14842">
		<tag k="name" v="Sildvika" />
		<tag k="natural" v="bay" />
		<tag k="ssr:stedsnr" v="967632" />
	</node>
	<node lat="68.77144444313572" lon="14.911208339159804" id="-14843">
		<tag k="name" v="Naustbukta" />
		<tag k="natural" v="bay" />
		<tag k="ssr:stedsnr" v="969750" />
	</node>
	<node lat="68.83443333462019" lon="14.842238878417602" id="-14844">
		<tag k="name" v="Finnhallarneset" />
		<tag k="natural" v="cape" />
		<tag k="ssr:stedsnr" v="969765" />
	</node>
	<node lat="68.82742500136277" lon="14.928449996001767" id="-14847">
		<tag k="fixme" v="consider seamark:type=rock or natural=shoal" />
		<tag k="name" v="Klubbsteinen" />
		<tag k="place" v="islet" />
		<tag k="ssr:stedsnr" v="969867" />
	</node>
	<node lat="68.81449721779413" lon="14.807666666774024" id="-14850">
		<tag k="name" v="Dyrøybukta" />
		<tag k="natural" v="bay" />
		<tag k="ssr:stedsnr" v="969873" />
	</node>
	<node lat="68.74537576074349" lon="14.891751939249595" id="-14860">
		<tag k="name" v="Vesterkjosneset" />
		<tag k="natural" v="cape" />
		<tag k="ssr:stedsnr" v="1076011" />
	</node>
</osm>
