<?xml version="1.0" encoding="UTF-8"?>
<osm generator="osmapis" version="0.6">
	<node id="-713820" lat="68.9006750016" lon="15.2652166634">
		<tag k="fixme" v="consider highway=path" />
		<tag k="highway" v="track" />
		<tag k="name" v="Buvegen" />
		<tag k="ssr:stedsnr" v="40528" />
	</node>
	<node id="-715192" lat="68.943766665" lon="15.0105499981">
		<tag k="fixme" v="verify maritime location" />
		<tag k="mooring" v="yes" />
		<tag k="name" v="Jakobstøa" />
		<tag k="place" v="locality" />
		<tag k="ssr:stedsnr" v="830242" />
	</node>
	<node id="-713648" lat="68.7382249977" lon="14.8585611096">
		<tag k="layer" v="-1" />
		<tag k="name" v="Ryggedalen" />
		<tag k="ssr:stedsnr" v="408416" />
		<tag k="tunnel" v="yes" />
	</node>
	<node id="-714780" lat="68.9551083307" lon="15.1620694537">
		<tag k="junction" v="yes" />
		<tag k="name" v="Strengelvågkrysset" />
		<tag k="place" v="locality" />
		<tag k="ssr:stedsnr" v="646501" />
	</node>
	<node id="-713637" lat="68.96215278" lon="15.1927222223">
		<tag k="man_made" v="breakwater" />
		<tag k="name" v="Revet" />
		<tag k="place" v="locality" />
		<tag k="ssr:stedsnr" v="404490" />
	</node>
	<node id="-715393" lat="68.8161638873" lon="14.8504027688">
		<tag k="man_made" v="quay" />
		<tag k="name" v="Purkevik" />
		<tag k="place" v="locality" />
		<tag k="ssr:stedsnr" v="948163" />
	</node>
</osm>
