<?xml version="1.0" encoding="UTF-8"?>
<osm version="0.6" generator="osmapis">
	<node lat="60.05902500008231" lon="9.438913880218015" id="-15651">
		<tag k="fixme" v="consider natural=peak for the most distinct mountains in the district" />
		<tag k="name" v="Bjørnemyråsen" />
		<tag k="natural" v="hill" />
		<tag k="place" v="locality" />
		<tag k="ssr:stedsnr" v="4084" />
	</node>
	<node lat="60.09100277467467" lon="9.386686112714587" id="-15660">
		<tag k="fixme" v="consider natural=peak for the most distinct mountains in the district" />
		<tag k="name" v="Borofjell" />
		<tag k="natural" v="hill" />
		<tag k="place" v="locality" />
		<tag k="ssr:stedsnr" v="5109" />
	</node>
	<node lat="60.09611944707973" lon="9.499427783316074" id="-15661">
		<tag k="fixme" v="consider natural=peak for the most distinct mountains in the district" />
		<tag k="name" v="Uksåsen" />
		<tag k="natural" v="hill" />
		<tag k="place" v="locality" />
		<tag k="ssr:stedsnr" v="5111" />
	</node>
	<node lat="60.09247499744901" lon="9.40701666521404" id="-15662">
		<tag k="fixme" v="consider natural=peak for the most distinct mountains in the district" />
		<tag k="name" v="Grasbakkåsen" />
		<tag k="natural" v="hill" />
		<tag k="place" v="locality" />
		<tag k="ssr:stedsnr" v="5115" />
	</node>
	<node lat="60.11907777342135" lon="9.285619441678392" id="-15678">
		<tag k="name" v="Repetjennlia" />
		<tag k="natural" v="slope" />
		<tag k="place" v="locality" />
		<tag k="ssr:stedsnr" v="29376" />
	</node>
	<node lat="60.23505277651984" lon="9.29927499259569" id="-15681">
		<tag k="name" v="Gråås" />
		<tag k="natural" v="hill" />
		<tag k="place" v="locality" />
		<tag k="ssr:stedsnr" v="29471" />
	</node>
	<node lat="60.187236112183186" lon="9.29043332947201" id="-15683">
		<tag k="name" v="Solkomnatten" />
		<tag k="natural" v="hill" />
		<tag k="place" v="locality" />
		<tag k="ssr:stedsnr" v="29665" />
	</node>
	<node lat="60.3179388885549" lon="9.245988897050347" id="-15686">
		<tag k="fixme" v="consider natural=peak for the most distinct mountains in the district" />
		<tag k="name" v="Teigeseteråsen" />
		<tag k="natural" v="hill" />
		<tag k="place" v="locality" />
		<tag k="ssr:stedsnr" v="30115" />
	</node>
	<node lat="60.14692777606355" lon="9.387569442978942" id="-15690">
		<tag k="fixme" v="consider natural=peak for the most distinct mountains in the district" />
		<tag k="name" v="Røtthølåsen" />
		<tag k="natural" v="hill" />
		<tag k="place" v="locality" />
		<tag k="ssr:stedsnr" v="30082" />
	</node>
	<node lat="60.13780833429527" lon="9.47544721915979" id="-15691">
		<tag k="name" v="Tyltebudalen" />
		<tag k="natural" v="valley" />
		<tag k="place" v="locality" />
		<tag k="ssr:stedsnr" v="30316" />
	</node>
	<node lat="60.07462500255034" lon="9.366952783289426" id="-15694">
		<tag k="name" v="Gaulsnatten" />
		<tag k="natural" v="hill" />
		<tag k="place" v="locality" />
		<tag k="ssr:stedsnr" v="30909" />
	</node>
	<node lat="60.231097220958915" lon="9.319630549220243" id="-15695">
		<tag k="name" v="Rundehaugen" />
		<tag k="natural" v="ridge" />
		<tag k="place" v="locality" />
		<tag k="ssr:stedsnr" v="30924" />
	</node>
	<node lat="60.209408335029956" lon="9.387683325322293" id="-15697">
		<tag k="fixme" v="consider natural=peak for the most distinct mountains in the district" />
		<tag k="name" v="Nørstengåsen" />
		<tag k="natural" v="hill" />
		<tag k="place" v="locality" />
		<tag k="ssr:stedsnr" v="30887" />
	</node>
	<node lat="60.09405555442067" lon="9.368572213907527" id="-15698">
		<tag k="name" v="Kråkegullnatten" />
		<tag k="natural" v="hill" />
		<tag k="place" v="locality" />
		<tag k="ssr:stedsnr" v="30967" />
	</node>
	<node lat="60.14066389122498" lon="9.42719444431757" id="-15699">
		<tag k="name" v="Tussolla" />
		<tag k="natural" v="valley" />
		<tag k="place" v="locality" />
		<tag k="ssr:stedsnr" v="31320" />
	</node>
	<node lat="60.148436113003946" lon="9.486166672152525" id="-15700">
		<tag k="name" v="Kastet" />
		<tag k="natural" v="hill" />
		<tag k="place" v="locality" />
		<tag k="ssr:stedsnr" v="31405" />
	</node>
	<node lat="60.20717777578048" lon="9.491969440700107" id="-15701">
		<tag k="name" v="Lauvliseterlia" />
		<tag k="natural" v="slope" />
		<tag k="place" v="locality" />
		<tag k="ssr:stedsnr" v="31506" />
	</node>
	<node lat="60.0147305543506" lon="9.736147228954973" id="-15705">
		<tag k="name" v="Geiteryggen" />
		<tag k="natural" v="ridge" />
		<tag k="place" v="locality" />
		<tag k="ssr:stedsnr" v="32205" />
	</node>
	<node lat="60.03707499931124" lon="9.467741668539356" id="-15707">
		<tag k="name" v="Snåret" />
		<tag k="place" v="locality" />
		<tag k="ssr:stedsnr" v="32112" />
	</node>
	<node lat="59.96595833171606" lon="9.70259444696723" id="-15711">
		<tag k="name" v="Steinbrudæla" />
		<tag k="natural" v="valley" />
		<tag k="place" v="locality" />
		<tag k="ssr:stedsnr" v="32350" />
	</node>
	<node lat="60.07317221928527" lon="9.62409445260853" id="-15712">
		<tag k="name" v="Tubbemyrmoen" />
		<tag k="place" v="locality" />
		<tag k="ssr:stedsnr" v="32376" />
	</node>
	<node lat="60.06656944494611" lon="9.660913881657624" id="-15713">
		<tag k="fixme" v="consider natural=peak for the most distinct mountains in the district" />
		<tag k="name" v="Bjønnemyråsen" />
		<tag k="natural" v="hill" />
		<tag k="place" v="locality" />
		<tag k="ssr:stedsnr" v="32382" />
	</node>
	<node lat="60.09379444326553" lon="9.457947225129537" id="-15717">
		<tag k="name" v="Stordalen" />
		<tag k="natural" v="valley" />
		<tag k="place" v="locality" />
		<tag k="ssr:stedsnr" v="32391" />
	</node>
	<node lat="60.04928055934608" lon="9.534052770258908" id="-15721">
		<tag k="name" v="Tjyruhjelldalen" />
		<tag k="natural" v="valley" />
		<tag k="place" v="locality" />
		<tag k="ssr:stedsnr" v="32414" />
	</node>
	<node lat="59.95258610711141" lon="9.602277771811577" id="-15722">
		<tag k="name" v="Lauvhaugen" />
		<tag k="natural" v="hill" />
		<tag k="place" v="locality" />
		<tag k="ssr:stedsnr" v="32418" />
	</node>
	<node lat="59.97083611204113" lon="9.772711118335668" id="-15725">
		<tag k="name" v="Kjørkjekleiv" />
		<tag k="natural" v="slope" />
		<tag k="place" v="locality" />
		<tag k="ssr:stedsnr" v="32425" />
	</node>
	<node lat="59.96723333558551" lon="9.776286117099621" id="-15726">
		<tag k="name" v="Lurås" />
		<tag k="natural" v="hill" />
		<tag k="place" v="locality" />
		<tag k="ssr:stedsnr" v="32430" />
	</node>
	<node lat="60.113083329302356" lon="9.635102785701795" id="-15729">
		<tag k="name" v="Glessjølia" />
		<tag k="natural" v="slope" />
		<tag k="place" v="locality" />
		<tag k="ssr:stedsnr" v="32501" />
	</node>
	<node lat="60.05850000150774" lon="9.6665944486041" id="-15731">
		<tag k="name" v="Kvennberget" />
		<tag k="natural" v="hill" />
		<tag k="place" v="locality" />
		<tag k="ssr:stedsnr" v="32591" />
	</node>
	<node lat="59.963977779152664" lon="9.850855563633665" id="-15735">
		<tag k="name" v="Lyudalen" />
		<tag k="natural" v="valley" />
		<tag k="place" v="locality" />
		<tag k="ssr:stedsnr" v="32618" />
	</node>
	<node lat="60.02905555527798" lon="9.656305548286134" id="-15736">
		<tag k="name" v="Fjøsmoen" />
		<tag k="place" v="locality" />
		<tag k="ssr:stedsnr" v="32619" />
	</node>
	<node lat="60.062547220606056" lon="9.47126667510463" id="-15738">
		<tag k="name" v="Liseberget" />
		<tag k="natural" v="slope" />
		<tag k="place" v="locality" />
		<tag k="ssr:stedsnr" v="32814" />
	</node>
	<node lat="59.99148888445754" lon="9.717988884387697" id="-15743">
		<tag k="fixme" v="consider natural=peak for the most distinct mountains in the district" />
		<tag k="name" v="Øygardsåsen" />
		<tag k="natural" v="hill" />
		<tag k="place" v="locality" />
		<tag k="ssr:stedsnr" v="33998" />
	</node>
	<node lat="59.92529722463882" lon="9.702147222022328" id="-15756">
		<tag k="fixme" v="consider natural=peak for the most distinct mountains in the district" />
		<tag k="name" v="Korpåsen" />
		<tag k="natural" v="hill" />
		<tag k="place" v="locality" />
		<tag k="ssr:stedsnr" v="65863" />
	</node>
	<node lat="59.986022225691386" lon="9.790352771473016" id="-15760">
		<tag k="fixme" v="consider natural=peak for the most distinct mountains in the district" />
		<tag k="name" v="Puttåsen" />
		<tag k="natural" v="hill" />
		<tag k="place" v="locality" />
		<tag k="ssr:stedsnr" v="65954" />
	</node>
	<node lat="59.98263055516249" lon="9.692213883776668" id="-15763">
		<tag k="fixme" v="consider natural=peak for the most distinct mountains in the district" />
		<tag k="name" v="Stillingsåsen" />
		<tag k="natural" v="hill" />
		<tag k="place" v="locality" />
		<tag k="ssr:stedsnr" v="65963" />
	</node>
	<node lat="60.252941665398524" lon="9.189077785607111" id="-15766">
		<tag k="alt_name" v="Urdefjell" />
		<tag k="fixme" v="consider natural=peak for the most distinct mountains in the district" />
		<tag k="name" v="Ulefjell" />
		<tag k="natural" v="hill" />
		<tag k="place" v="locality" />
		<tag k="ssr:stedsnr" v="66310" />
	</node>
	<node lat="60.29770277344215" lon="9.19167499655309" id="-15777">
		<tag k="alt_name" v="Bugrovfjellet" />
		<tag k="fixme" v="consider natural=peak for the most distinct mountains in the district" />
		<tag k="name" v="Bugrovfjell" />
		<tag k="natural" v="hill" />
		<tag k="place" v="locality" />
		<tag k="ssr:stedsnr" v="67498" />
	</node>
	<node lat="60.31099444874977" lon="9.285066675422273" id="-15778">
		<tag k="name" v="Kvelvsaskard" />
		<tag k="natural" v="valley" />
		<tag k="place" v="locality" />
		<tag k="ssr:stedsnr" v="82182" />
	</node>
	<node lat="60.21047221971524" lon="9.271788883901655" id="-15785">
		<tag k="name" v="Uletjennfjellet" />
		<tag k="natural" v="hill" />
		<tag k="place" v="locality" />
		<tag k="ssr:stedsnr" v="90454" />
	</node>
	<node lat="60.13762222608352" lon="9.394361103592377" id="-15790">
		<tag k="name" v="Gamleseterhaugane" />
		<tag k="natural" v="hill" />
		<tag k="place" v="locality" />
		<tag k="ssr:stedsnr" v="91116" />
	</node>
	<node lat="60.265827779486706" lon="9.434969436888286" id="-15793">
		<tag k="name" v="Skaret" />
		<tag k="natural" v="valley" />
		<tag k="place" v="locality" />
		<tag k="ssr:stedsnr" v="91127" />
	</node>
	<node lat="60.14270555999775" lon="9.406936113793204" id="-15795">
		<tag k="name" v="Siljuhølet" />
		<tag k="natural" v="valley" />
		<tag k="place" v="locality" />
		<tag k="ssr:stedsnr" v="91071" />
	</node>
	<node lat="60.12316111460844" lon="9.469549998503885" id="-15803">
		<tag k="name" v="Svartåsdæla" />
		<tag k="natural" v="valley" />
		<tag k="place" v="locality" />
		<tag k="ssr:stedsnr" v="91421" />
	</node>
	<node lat="60.126816665949555" lon="9.469166669963828" id="-15804">
		<tag k="name" v="Langebakke" />
		<tag k="natural" v="slope" />
		<tag k="place" v="locality" />
		<tag k="ssr:stedsnr" v="91424" />
	</node>
	<node lat="60.22582777789344" lon="9.386413895509893" id="-15808">
		<tag k="name" v="Hansongardlia" />
		<tag k="natural" v="slope" />
		<tag k="place" v="locality" />
		<tag k="ssr:stedsnr" v="91864" />
	</node>
	<node lat="60.219363891109666" lon="9.399405546768856" id="-15809">
		<tag k="name" v="Glanarberget" />
		<tag k="place" v="locality" />
		<tag k="ssr:stedsnr" v="91868" />
	</node>
	<node lat="60.045738885416334" lon="9.528491667603097" id="-15820">
		<tag k="fixme" v="consider natural=peak for the most distinct mountains in the district" />
		<tag k="name" v="Svartebudalåsen" />
		<tag k="natural" v="hill" />
		<tag k="place" v="locality" />
		<tag k="ssr:stedsnr" v="93170" />
	</node>
	<node lat="59.957261111981474" lon="9.839775004300686" id="-15829">
		<tag k="name" v="Halvorsåsen" />
		<tag k="natural" v="hill" />
		<tag k="place" v="locality" />
		<tag k="ssr:stedsnr" v="93567" />
	</node>
	<node lat="59.977719445511845" lon="9.835916673534326" id="-15830">
		<tag k="name" v="Mørkomdalen" />
		<tag k="natural" v="valley" />
		<tag k="place" v="locality" />
		<tag k="ssr:stedsnr" v="93570" />
	</node>
	<node lat="60.032855555791855" lon="9.599025004274159" id="-15831">
		<tag k="name" v="Yksnebrekk" />
		<tag k="place" v="locality" />
		<tag k="ssr:stedsnr" v="93591" />
	</node>
	<node lat="60.01251944840499" lon="9.750286106058594" id="-15832">
		<tag k="name" v="Varsla" />
		<tag k="place" v="locality" />
		<tag k="ssr:stedsnr" v="93712" />
	</node>
	<node lat="60.08865833633539" lon="9.506969449571784" id="-15839">
		<tag k="name" v="Hellane" />
		<tag k="natural" v="ridge" />
		<tag k="place" v="locality" />
		<tag k="ssr:stedsnr" v="93870" />
	</node>
	<node lat="60.08463611158406" lon="9.702686108918202" id="-15841">
		<tag k="name" v="Reimyrskarva" />
		<tag k="natural" v="hill" />
		<tag k="place" v="locality" />
		<tag k="ssr:stedsnr" v="93884" />
	</node>
	<node lat="60.051719444873555" lon="9.436069450623638" id="-15842">
		<tag k="name" v="Liseterlia" />
		<tag k="natural" v="slope" />
		<tag k="place" v="locality" />
		<tag k="ssr:stedsnr" v="93912" />
	</node>
	<node lat="60.07110277982402" lon="9.435677771301025" id="-15844">
		<tag k="name" v="Peisen" />
		<tag k="place" v="locality" />
		<tag k="ssr:stedsnr" v="93961" />
	</node>
	<node lat="60.03999444122392" lon="9.737761116799216" id="-15845">
		<tag k="name" v="Sneka" />
		<tag k="place" v="locality" />
		<tag k="ssr:stedsnr" v="93970" />
	</node>
	<node lat="60.11224166931283" lon="9.341416671458607" id="-15850">
		<tag k="name" v="Tangedalen" />
		<tag k="natural" v="valley" />
		<tag k="place" v="locality" />
		<tag k="ssr:stedsnr" v="247383" />
	</node>
	<node lat="59.98356110722944" lon="9.661374998697449" id="-15862">
		<tag k="alt_name" v="Korsåsen" />
		<tag k="fixme" v="consider natural=peak for the most distinct mountains in the district" />
		<tag k="name" v="Korsås" />
		<tag k="natural" v="hill" />
		<tag k="place" v="locality" />
		<tag k="ssr:stedsnr" v="247946" />
	</node>
	<node lat="60.30227500044159" lon="9.419049998227157" id="-15866">
		<tag k="fixme" v="consider natural=peak for the most distinct mountains in the district" />
		<tag k="name" v="Ranten" />
		<tag k="natural" v="hill" />
		<tag k="place" v="locality" />
		<tag k="ssr:stedsnr" v="249081" />
	</node>
	<node lat="60.34247006602004" lon="9.154044915158336" id="-15869">
		<tag k="fixme" v="consider natural=peak for the most distinct mountains in the district" />
		<tag k="name" v="Seteråsen" />
		<tag k="natural" v="hill" />
		<tag k="place" v="locality" />
		<tag k="ssr:stedsnr" v="249432" />
	</node>
	<node lat="60.127755559340265" lon="9.48952777069053" id="-15873">
		<tag k="alt_name" v="Flea" />
		<tag k="name" v="Flya" />
		<tag k="place" v="locality" />
		<tag k="ssr:stedsnr" v="125456" />
	</node>
	<node lat="59.994219448906286" lon="9.569797229168437" id="-15874">
		<tag k="fixme" v="consider natural=peak for the most distinct mountains in the district" />
		<tag k="name" v="Ivarskollen" />
		<tag k="natural" v="hill" />
		<tag k="place" v="locality" />
		<tag k="ssr:stedsnr" v="125326" />
	</node>
	<node lat="60.03498888835198" lon="9.483444436262973" id="-15882">
		<tag k="fixme" v="consider natural=peak for the most distinct mountains in the district" />
		<tag k="name" v="Grytehøgda" />
		<tag k="natural" v="hill" />
		<tag k="place" v="locality" />
		<tag k="ssr:stedsnr" v="126047" />
	</node>
	<node lat="60.17194444418451" lon="9.292266662470315" id="-15888">
		<tag k="name" v="Trilledalen" />
		<tag k="natural" v="valley" />
		<tag k="place" v="locality" />
		<tag k="ssr:stedsnr" v="126459" />
	</node>
	<node lat="60.19412500323532" lon="9.44217499256257" id="-15892">
		<tag k="name" v="Grandalen" />
		<tag k="natural" v="valley" />
		<tag k="place" v="locality" />
		<tag k="ssr:stedsnr" v="126500" />
	</node>
	<node lat="60.3411944442432" lon="9.165938891903412" id="-15902">
		<tag k="name" v="Fagerfetdalen" />
		<tag k="natural" v="valley" />
		<tag k="place" v="locality" />
		<tag k="ssr:stedsnr" v="127448" />
	</node>
	<node lat="60.211350003840764" lon="9.198941669261966" id="-15905">
		<tag k="fixme" v="consider natural=peak for the most distinct mountains in the district" />
		<tag k="name" v="Trytetjennåsen" />
		<tag k="natural" v="hill" />
		<tag k="place" v="locality" />
		<tag k="ssr:stedsnr" v="150002" />
	</node>
	<node lat="60.219980552699035" lon="9.278325007864277" id="-15907">
		<tag k="name" v="Bleikemyrhaugan" />
		<tag k="natural" v="hill" />
		<tag k="place" v="locality" />
		<tag k="ssr:stedsnr" v="150461" />
	</node>
	<node lat="60.21171944725493" lon="9.290763894739879" id="-15908">
		<tag k="name" v="Nevretjenndalen" />
		<tag k="natural" v="valley" />
		<tag k="place" v="locality" />
		<tag k="ssr:stedsnr" v="150466" />
	</node>
	<node lat="60.26152777419594" lon="9.361883328037036" id="-15914">
		<tag k="name" v="Preskampen" />
		<tag k="natural" v="slope" />
		<tag k="place" v="locality" />
		<tag k="ssr:stedsnr" v="151453" />
	</node>
	<node lat="60.17243610689031" lon="9.403208328658033" id="-15915">
		<tag k="name" v="Tangebrøttet" />
		<tag k="natural" v="hill" />
		<tag k="place" v="locality" />
		<tag k="ssr:stedsnr" v="151656" />
	</node>
	<node lat="60.222866665627045" lon="9.315736106183765" id="-15917">
		<tag k="name" v="Utsikten" />
		<tag k="natural" v="hill" />
		<tag k="place" v="locality" />
		<tag k="ssr:stedsnr" v="151921" />
	</node>
	<node lat="60.21868888503422" lon="9.349086111164004" id="-15919">
		<tag k="name" v="Røan" />
		<tag k="natural" v="valley" />
		<tag k="place" v="locality" />
		<tag k="ssr:stedsnr" v="151853" />
	</node>
	<node lat="60.2711593876348" lon="9.278760994370264" id="-15921">
		<tag k="name" v="Heimseteråsen" />
		<tag k="natural" v="ridge" />
		<tag k="place" v="locality" />
		<tag k="ssr:stedsnr" v="151860" />
	</node>
	<node lat="60.12985832933325" lon="9.476211117281405" id="-15922">
		<tag k="name" v="Hælfardalen" />
		<tag k="natural" v="valley" />
		<tag k="place" v="locality" />
		<tag k="ssr:stedsnr" v="152310" />
	</node>
	<node lat="60.059019445326314" lon="9.38818056221845" id="-15923">
		<tag k="name" v="Seternatten" />
		<tag k="natural" v="hill" />
		<tag k="place" v="locality" />
		<tag k="ssr:stedsnr" v="152351" />
	</node>
	<node lat="60.06128333066684" lon="9.400891673375979" id="-15924">
		<tag k="name" v="Kvalia" />
		<tag k="natural" v="slope" />
		<tag k="place" v="locality" />
		<tag k="ssr:stedsnr" v="152355" />
	</node>
	<node lat="60.00362500106695" lon="9.547530562494726" id="-15928">
		<tag k="name" v="Tjennhaugen" />
		<tag k="natural" v="hill" />
		<tag k="place" v="locality" />
		<tag k="ssr:stedsnr" v="153055" />
	</node>
	<node lat="60.01151110925313" lon="9.58554722915861" id="-15929">
		<tag k="name" v="Sjåheim" />
		<tag k="natural" v="hill" />
		<tag k="place" v="locality" />
		<tag k="ssr:stedsnr" v="153209" />
	</node>
	<node lat="60.03922499606103" lon="9.500847218798212" id="-15932">
		<tag k="name" v="Det svarte berget" />
		<tag k="natural" v="slope" />
		<tag k="place" v="locality" />
		<tag k="ssr:stedsnr" v="153177" />
	</node>
	<node lat="60.11013611203619" lon="9.536972220678297" id="-15942">
		<tag k="name" v="Jordbrudæla" />
		<tag k="natural" v="valley" />
		<tag k="place" v="locality" />
		<tag k="ssr:stedsnr" v="153465" />
	</node>
	<node lat="59.99871388754902" lon="9.767413897068797" id="-15943">
		<tag k="name" v="Pengehaugen" />
		<tag k="natural" v="hill" />
		<tag k="place" v="locality" />
		<tag k="ssr:stedsnr" v="153605" />
	</node>
	<node lat="60.064166666874755" lon="9.61722778645613" id="-15949">
		<tag k="name" v="Kokkrudhølet" />
		<tag k="natural" v="valley" />
		<tag k="place" v="locality" />
		<tag k="ssr:stedsnr" v="153810" />
	</node>
	<node lat="60.030827775677395" lon="9.749627771906345" id="-15950">
		<tag k="alt_name" v="Hælfaråsen" />
		<tag k="name" v="Halvfaråsen" />
		<tag k="natural" v="slope" />
		<tag k="place" v="locality" />
		<tag k="ssr:stedsnr" v="153811" />
	</node>
	<node lat="60.05577499804973" lon="9.618477786501733" id="-15951">
		<tag k="name" v="Leina" />
		<tag k="natural" v="valley" />
		<tag k="place" v="locality" />
		<tag k="ssr:stedsnr" v="153812" />
	</node>
	<node lat="60.03506666758213" lon="9.566311109128433" id="-15952">
		<tag k="name" v="Grasvikmoen" />
		<tag k="place" v="locality" />
		<tag k="ssr:stedsnr" v="154333" />
	</node>
	<node lat="60.02637777486386" lon="9.568319444275495" id="-15953">
		<tag k="name" v="Holmesnarflata" />
		<tag k="place" v="locality" />
		<tag k="ssr:stedsnr" v="154343" />
	</node>
	<node lat="60.214780558131565" lon="9.435816660165596" id="-15961">
		<tag k="fixme" v="consider natural=peak for the most distinct mountains in the district" />
		<tag k="name" v="Djupdalsåsen" />
		<tag k="natural" v="hill" />
		<tag k="place" v="locality" />
		<tag k="ssr:stedsnr" v="186527" />
	</node>
	<node lat="60.16857777940225" lon="9.468036109390479" id="-15975">
		<tag k="fixme" v="consider natural=peak for the most distinct mountains in the district" />
		<tag k="name" v="Grunntjennåsen" />
		<tag k="natural" v="hill" />
		<tag k="place" v="locality" />
		<tag k="ssr:stedsnr" v="187426" />
	</node>
	<node lat="60.35758333550275" lon="9.172577772962104" id="-15983">
		<tag k="fixme" v="consider natural=peak for the most distinct mountains in the district" />
		<tag k="name" v="Bergshammaren" />
		<tag k="natural" v="hill" />
		<tag k="place" v="locality" />
		<tag k="ssr:stedsnr" v="188423" />
	</node>
	<node lat="60.25852221791022" lon="9.343133337169986" id="-15987">
		<tag k="fixme" v="consider natural=peak for the most distinct mountains in the district" />
		<tag k="name" v="Flekkerudåsen" />
		<tag k="natural" v="hill" />
		<tag k="place" v="locality" />
		<tag k="ssr:stedsnr" v="188924" />
	</node>
	<node lat="60.17899721887603" lon="9.263141657864521" id="-15989">
		<tag k="fixme" v="consider natural=peak for the most distinct mountains in the district" />
		<tag k="name" v="Resnatten" />
		<tag k="natural" v="hill" />
		<tag k="place" v="locality" />
		<tag k="ssr:stedsnr" v="272618" />
	</node>
	<node lat="60.17071635770214" lon="9.330339400075713" id="-15990">
		<tag k="fixme" v="consider natural=peak for the most distinct mountains in the district" />
		<tag k="name" v="Skodølåsen" />
		<tag k="natural" v="hill" />
		<tag k="place" v="locality" />
		<tag k="ssr:stedsnr" v="265132" />
	</node>
	<node lat="60.16362777815176" lon="9.348072220636329" id="-15991">
		<tag k="fixme" v="consider natural=peak for the most distinct mountains in the district" />
		<tag k="name" v="Svarttjennåsane" />
		<tag k="natural" v="hill" />
		<tag k="place" v="locality" />
		<tag k="ssr:stedsnr" v="265133" />
	</node>
	<node lat="60.179297223519136" lon="9.302813893872745" id="-15995">
		<tag k="name" v="Trillemarka" />
		<tag k="natural" v="wood" />
		<tag k="ssr:stedsnr" v="272636" />
	</node>
	<node lat="60.247308337821046" lon="9.298694438549045" id="-15997">
		<tag k="name" v="Berganhaugane" />
		<tag k="natural" v="hill" />
		<tag k="place" v="locality" />
		<tag k="ssr:stedsnr" v="211904" />
	</node>
	<node lat="60.36063332957148" lon="9.179955549270607" id="-16002">
		<tag k="name" v="Fjellstuguleina" />
		<tag k="natural" v="valley" />
		<tag k="place" v="locality" />
		<tag k="ssr:stedsnr" v="212183" />
	</node>
	<node lat="60.11394444519539" lon="9.394233327761823" id="-16005">
		<tag k="fixme" v="consider natural=peak for the most distinct mountains in the district" />
		<tag k="name" v="Brennåsen" />
		<tag k="natural" v="hill" />
		<tag k="place" v="locality" />
		<tag k="ssr:stedsnr" v="212078" />
	</node>
	<node lat="60.20063611335042" lon="9.256577770001167" id="-16007">
		<tag k="name" v="Vestre Skriutjenndalen" />
		<tag k="natural" v="valley" />
		<tag k="place" v="locality" />
		<tag k="ssr:stedsnr" v="212489" />
	</node>
	<node lat="60.20950555353035" lon="9.339005553970916" id="-16009">
		<tag k="fixme" v="consider natural=peak for the most distinct mountains in the district" />
		<tag k="name" v="Skorteåsen" />
		<tag k="natural" v="hill" />
		<tag k="place" v="locality" />
		<tag k="ssr:stedsnr" v="212909" />
	</node>
	<node lat="60.23130833658632" lon="9.399972213521796" id="-16011">
		<tag k="name" v="Underlanda" />
		<tag k="natural" v="valley" />
		<tag k="place" v="locality" />
		<tag k="ssr:stedsnr" v="212877" />
	</node>
	<node lat="60.2740527754117" lon="9.308308335635509" id="-16013">
		<tag k="name" v="Dalane" />
		<tag k="natural" v="valley" />
		<tag k="place" v="locality" />
		<tag k="ssr:stedsnr" v="212890" />
	</node>
	<node lat="60.11191110904409" lon="9.462238891435398" id="-16015">
		<tag k="name" v="Moen" />
		<tag k="place" v="locality" />
		<tag k="ssr:stedsnr" v="213405" />
	</node>
	<node lat="60.13237499806896" lon="9.445719449260482" id="-16017">
		<tag k="name" v="Moen" />
		<tag k="place" v="locality" />
		<tag k="ssr:stedsnr" v="213412" />
	</node>
	<node lat="60.1459390981457" lon="9.468994211341332" id="-16018">
		<tag k="name" v="Gunbjørnskorta" />
		<tag k="natural" v="valley" />
		<tag k="place" v="locality" />
		<tag k="ssr:stedsnr" v="213313" />
	</node>
	<node lat="59.96963888535204" lon="9.63071111136448" id="-16021">
		<tag k="name" v="Badstudalen" />
		<tag k="natural" v="valley" />
		<tag k="place" v="locality" />
		<tag k="ssr:stedsnr" v="213506" />
	</node>
	<node lat="59.97744444626437" lon="9.660975000031556" id="-16022">
		<tag k="name" v="Prestlunnberget" />
		<tag k="natural" v="slope" />
		<tag k="place" v="locality" />
		<tag k="ssr:stedsnr" v="213511" />
	</node>
	<node lat="60.19208611257434" lon="9.466136113365845" id="-16023">
		<tag k="name" v="Omlitjennhaugen" />
		<tag k="natural" v="hill" />
		<tag k="place" v="locality" />
		<tag k="ssr:stedsnr" v="213691" />
	</node>
	<node lat="60.01659444546803" lon="9.544952785987551" id="-16024">
		<tag k="name" v="Kjørkeroa" />
		<tag k="natural" v="valley" />
		<tag k="place" v="locality" />
		<tag k="ssr:stedsnr" v="214029" />
	</node>
	<node lat="60.002308332037465" lon="9.63657221856898" id="-16027">
		<tag k="name" v="Hoggåsen" />
		<tag k="natural" v="ridge" />
		<tag k="place" v="locality" />
		<tag k="ssr:stedsnr" v="214210" />
	</node>
	<node lat="60.017569448426876" lon="9.737763880168957" id="-16028">
		<tag k="name" v="Maurhaugen" />
		<tag k="natural" v="hill" />
		<tag k="place" v="locality" />
		<tag k="ssr:stedsnr" v="214213" />
	</node>
	<node lat="60.020166667273074" lon="9.726086110880921" id="-16029">
		<tag k="name" v="Gråten" />
		<tag k="natural" v="valley" />
		<tag k="place" v="locality" />
		<tag k="ssr:stedsnr" v="214215" />
	</node>
	<node lat="60.0189805534591" lon="9.588933327903082" id="-16030">
		<tag k="name" v="Snaråsen" />
		<tag k="natural" v="ridge" />
		<tag k="place" v="locality" />
		<tag k="ssr:stedsnr" v="214224" />
	</node>
	<node lat="60.06894167044579" lon="9.379338885802566" id="-16031">
		<tag k="name" v="Fleunatten" />
		<tag k="natural" v="hill" />
		<tag k="place" v="locality" />
		<tag k="ssr:stedsnr" v="213929" />
	</node>
	<node lat="59.983047218550894" lon="9.654741665774365" id="-16034">
		<tag k="name" v="Raubakk" />
		<tag k="natural" v="slope" />
		<tag k="place" v="locality" />
		<tag k="ssr:stedsnr" v="214128" />
	</node>
	<node lat="60.05788333257609" lon="9.638069451756403" id="-16038">
		<tag k="name" v="Presttjennkleiva" />
		<tag k="natural" v="slope" />
		<tag k="place" v="locality" />
		<tag k="ssr:stedsnr" v="214502" />
	</node>
	<node lat="60.05571388516152" lon="9.650491673640103" id="-16040">
		<tag k="fixme" v="consider natural=peak for the most distinct mountains in the district" />
		<tag k="name" v="Høgås" />
		<tag k="natural" v="hill" />
		<tag k="place" v="locality" />
		<tag k="ssr:stedsnr" v="214511" />
	</node>
	<node lat="60.123886108290236" lon="9.577105554499092" id="-16041">
		<tag k="fixme" v="consider natural=peak for the most distinct mountains in the district" />
		<tag k="name" v="Hjelleåsen" />
		<tag k="natural" v="hill" />
		<tag k="place" v="locality" />
		<tag k="ssr:stedsnr" v="214516" />
	</node>
	<node lat="59.964427773903616" lon="9.61512777343162" id="-16045">
		<tag k="name" v="Skurveåsen" />
		<tag k="natural" v="ridge" />
		<tag k="place" v="locality" />
		<tag k="ssr:stedsnr" v="214402" />
	</node>
	<node lat="59.993908334680896" lon="9.789627775958563" id="-16052">
		<tag k="name" v="Fleskelaupåsen" />
		<tag k="natural" v="ridge" />
		<tag k="place" v="locality" />
		<tag k="ssr:stedsnr" v="214633" />
	</node>
	<node lat="60.03492499649588" lon="9.76025000022256" id="-16054">
		<tag k="name" v="Gunhildsbråtadalen" />
		<tag k="natural" v="valley" />
		<tag k="place" v="locality" />
		<tag k="ssr:stedsnr" v="214788" />
	</node>
	<node lat="60.08787500400518" lon="9.683913888486149" id="-16057">
		<tag k="name" v="Svarteputtkleiva" />
		<tag k="natural" v="slope" />
		<tag k="place" v="locality" />
		<tag k="ssr:stedsnr" v="214924" />
	</node>
	<node lat="60.00910278187584" lon="9.487430551479834" id="-16063">
		<tag k="fixme" v="consider natural=peak for the most distinct mountains in the district" />
		<tag k="name" v="Flagåsen" />
		<tag k="natural" v="hill" />
		<tag k="place" v="locality" />
		<tag k="ssr:stedsnr" v="215125" />
	</node>
	<node lat="60.01863610760436" lon="9.476644449448374" id="-16064">
		<tag k="name" v="Grytehøgda" />
		<tag k="natural" v="hill" />
		<tag k="place" v="locality" />
		<tag k="ssr:stedsnr" v="215126" />
	</node>
	<node lat="60.03180555522099" lon="9.561724998307705" id="-16065">
		<tag k="name" v="Laupet" />
		<tag k="natural" v="valley" />
		<tag k="place" v="locality" />
		<tag k="ssr:stedsnr" v="215307" />
	</node>
	<node lat="60.095941664322694" lon="9.347074997216192" id="-16080">
		<tag k="fixme" v="consider natural=peak for the most distinct mountains in the district" />
		<tag k="name" v="Slettefjell" />
		<tag k="natural" v="hill" />
		<tag k="place" v="locality" />
		<tag k="ssr:stedsnr" v="247110" />
	</node>
	<node lat="60.182186112100574" lon="9.215452775533018" id="-16088">
		<tag k="fixme" v="multiple name tags, choose one and add the other to alt_name; consider natural=peak for the most distinct mountains in the district" />
		<tag k="name" v="Østre Langlitjennåsen;Langelitjennåsen" />
		<tag k="natural" v="hill" />
		<tag k="place" v="locality" />
		<tag k="ssr:stedsnr" v="247565" />
	</node>
	<node lat="60.04161111094038" lon="9.660186118876583" id="-16091">
		<tag k="alt_name" v="Skartumsåsen" />
		<tag k="fixme" v="consider natural=peak for the most distinct mountains in the district" />
		<tag k="name" v="Skartumåsen" />
		<tag k="natural" v="hill" />
		<tag k="place" v="locality" />
		<tag k="ssr:stedsnr" v="247922" />
	</node>
	<node lat="59.994755558628064" lon="9.720236109246795" id="-16093">
		<tag k="fixme" v="consider natural=peak for the most distinct mountains in the district" />
		<tag k="name" v="Allmannåsen" />
		<tag k="natural" v="hill" />
		<tag k="place" v="locality" />
		<tag k="ssr:stedsnr" v="247972" />
	</node>
	<node lat="60.27822500355078" lon="9.282502777185384" id="-16099">
		<tag k="fixme" v="consider natural=peak for the most distinct mountains in the district" />
		<tag k="name" v="Storeskarv" />
		<tag k="natural" v="hill" />
		<tag k="place" v="locality" />
		<tag k="ssr:stedsnr" v="249114" />
	</node>
	<node lat="60.148805552365616" lon="9.266966666867393" id="-16104">
		<tag k="fixme" v="consider natural=peak for the most distinct mountains in the district" />
		<tag k="name" v="Lislelinatten" />
		<tag k="natural" v="hill" />
		<tag k="place" v="locality" />
		<tag k="ssr:stedsnr" v="454346" />
	</node>
	<node lat="60.22816389142824" lon="9.263947226280413" id="-16106">
		<tag k="fixme" v="consider natural=peak for the most distinct mountains in the district" />
		<tag k="name" v="Flatskaråsen" />
		<tag k="natural" v="hill" />
		<tag k="place" v="locality" />
		<tag k="ssr:stedsnr" v="454050" />
	</node>
	<node lat="60.164823660505384" lon="9.220863640554683" id="-16110">
		<tag k="name" v="Olasåt" />
		<tag k="natural" v="hill" />
		<tag k="place" v="locality" />
		<tag k="ssr:stedsnr" v="454145" />
	</node>
	<node lat="60.26906388988732" lon="9.233613888970906" id="-16114">
		<tag k="name" v="Løkeli" />
		<tag k="natural" v="slope" />
		<tag k="place" v="locality" />
		<tag k="ssr:stedsnr" v="454844" />
	</node>
	<node lat="60.26136666932764" lon="9.241691663345916" id="-16115">
		<tag k="name" v="Hestelykkja" />
		<tag k="natural" v="valley" />
		<tag k="place" v="locality" />
		<tag k="ssr:stedsnr" v="454851" />
	</node>
	<node lat="60.29537499863199" lon="9.250027785912582" id="-16116">
		<tag k="name" v="Medalsåsen" />
		<tag k="natural" v="ridge" />
		<tag k="place" v="locality" />
		<tag k="ssr:stedsnr" v="455087" />
	</node>
	<node lat="60.119797223166344" lon="9.382288888192791" id="-16119">
		<tag k="name" v="Geiteryggen" />
		<tag k="natural" v="ridge" />
		<tag k="place" v="locality" />
		<tag k="ssr:stedsnr" v="455091" />
	</node>
	<node lat="60.27368055537229" lon="9.326805549310937" id="-16122">
		<tag k="name" v="Halvorskarlia" />
		<tag k="natural" v="slope" />
		<tag k="place" v="locality" />
		<tag k="ssr:stedsnr" v="455662" />
	</node>
	<node lat="60.1319277751013" lon="9.476530553741012" id="-16124">
		<tag k="name" v="Måsaskuten" />
		<tag k="natural" v="hill" />
		<tag k="place" v="locality" />
		<tag k="ssr:stedsnr" v="455287" />
	</node>
	<node lat="60.21489722163926" lon="9.414349997153133" id="-16126">
		<tag k="name" v="Lunnestaden" />
		<tag k="natural" v="valley" />
		<tag k="place" v="locality" />
		<tag k="ssr:stedsnr" v="455986" />
	</node>
	<node lat="60.27127500220857" lon="9.428311117151443" id="-16129">
		<tag k="name" v="Ådalen" />
		<tag k="natural" v="valley" />
		<tag k="place" v="locality" />
		<tag k="ssr:stedsnr" v="455378" />
	</node>
	<node lat="60.26329722633168" lon="9.331638891396489" id="-16130">
		<tag k="name" v="Grånhølåsen" />
		<tag k="natural" v="slope" />
		<tag k="place" v="locality" />
		<tag k="ssr:stedsnr" v="455382" />
	</node>
	<node lat="60.26213889211158" lon="9.316591675450322" id="-16134">
		<tag k="name" v="Paradisbakken" />
		<tag k="natural" v="slope" />
		<tag k="place" v="locality" />
		<tag k="ssr:stedsnr" v="455671" />
	</node>
	<node lat="60.18962777873993" lon="9.327272222906217" id="-16136">
		<tag k="fixme" v="consider natural=peak for the most distinct mountains in the district" />
		<tag k="name" v="Trillekista" />
		<tag k="natural" v="hill" />
		<tag k="place" v="locality" />
		<tag k="ssr:stedsnr" v="455739" />
	</node>
	<node lat="60.17134166949874" lon="9.380655556365449" id="-16139">
		<tag k="name" v="Markli" />
		<tag k="natural" v="slope" />
		<tag k="place" v="locality" />
		<tag k="ssr:stedsnr" v="455898" />
	</node>
	<node lat="60.22386388837405" lon="9.330597219342241" id="-16141">
		<tag k="name" v="Vesle Uksehol" />
		<tag k="natural" v="valley" />
		<tag k="place" v="locality" />
		<tag k="ssr:stedsnr" v="455834" />
	</node>
	<node lat="60.21610278098319" lon="9.345475008156024" id="-16142">
		<tag k="name" v="Juvsrønningsåsen" />
		<tag k="place" v="locality" />
		<tag k="ssr:stedsnr" v="455838" />
	</node>
	<node lat="60.22846666244631" lon="9.379150006178667" id="-16143">
		<tag k="name" v="Kølabotn" />
		<tag k="natural" v="valley" />
		<tag k="place" v="locality" />
		<tag k="ssr:stedsnr" v="455849" />
	</node>
	<node lat="60.142611115001856" lon="9.438344438331129" id="-16146">
		<tag k="name" v="Dalen" />
		<tag k="natural" v="valley" />
		<tag k="place" v="locality" />
		<tag k="ssr:stedsnr" v="456481" />
	</node>
	<node lat="60.22140555932882" lon="9.460180555031522" id="-16149">
		<tag k="name" v="Kannarmyrlia" />
		<tag k="natural" v="slope" />
		<tag k="old_name" v="Kannarimyrlia" />
		<tag k="place" v="locality" />
		<tag k="ssr:stedsnr" v="457000" />
	</node>
	<node lat="60.016874999001644" lon="9.598902770185793" id="-16154">
		<tag k="name" v="Saltjenndæla" />
		<tag k="natural" v="valley" />
		<tag k="place" v="locality" />
		<tag k="ssr:stedsnr" v="457196" />
	</node>
	<node lat="60.00606667089512" lon="9.575911114673914" id="-16155">
		<tag k="name" v="Brenningane" />
		<tag k="natural" v="slope" />
		<tag k="place" v="locality" />
		<tag k="ssr:stedsnr" v="457216" />
	</node>
	<node lat="59.97758333653043" lon="9.609188888447338" id="-16159">
		<tag k="name" v="Purkedælane" />
		<tag k="natural" v="valley" />
		<tag k="place" v="locality" />
		<tag k="ssr:stedsnr" v="457352" />
	</node>
	<node lat="60.11653333414844" lon="9.539372216426326" id="-16162">
		<tag k="name" v="Tømmeråsen" />
		<tag k="natural" v="slope" />
		<tag k="place" v="locality" />
		<tag k="ssr:stedsnr" v="457437" />
	</node>
	<node lat="59.9108972258016" lon="9.698258338139341" id="-16169">
		<tag k="fixme" v="consider natural=peak for the most distinct mountains in the district" />
		<tag k="name" v="Sagstuåsen" />
		<tag k="natural" v="hill" />
		<tag k="place" v="locality" />
		<tag k="ssr:stedsnr" v="457536" />
	</node>
	<node lat="60.04092222194382" lon="9.64291388589031" id="-16176">
		<tag k="name" v="Sandmoen" />
		<tag k="place" v="locality" />
		<tag k="ssr:stedsnr" v="457588" />
	</node>
	<node lat="60.06237778174619" lon="9.660761117874804" id="-16178">
		<tag k="fixme" v="consider natural=peak for the most distinct mountains in the district" />
		<tag k="name" v="Sagåsen" />
		<tag k="natural" v="hill" />
		<tag k="place" v="locality" />
		<tag k="ssr:stedsnr" v="457597" />
	</node>
	<node lat="59.98778055139303" lon="9.789924996406526" id="-16179">
		<tag k="name" v="Lønndalen" />
		<tag k="natural" v="valley" />
		<tag k="place" v="locality" />
		<tag k="ssr:stedsnr" v="457599" />
	</node>
	<node lat="60.025402782023455" lon="9.638774995265969" id="-16180">
		<tag k="name" v="Kvilarhaugen" />
		<tag k="natural" v="hill" />
		<tag k="place" v="locality" />
		<tag k="ssr:stedsnr" v="457620" />
	</node>
	<node lat="60.02632222475998" lon="9.672483338842529" id="-16181">
		<tag k="name" v="Grindehaugen" />
		<tag k="natural" v="hill" />
		<tag k="place" v="locality" />
		<tag k="ssr:stedsnr" v="457625" />
	</node>
	<node lat="60.03196944795916" lon="9.675013880640352" id="-16182">
		<tag k="name" v="Ollemyrhaugane" />
		<tag k="natural" v="hill" />
		<tag k="place" v="locality" />
		<tag k="ssr:stedsnr" v="457628" />
	</node>
	<node lat="59.97370833245244" lon="9.815105553342216" id="-16184">
		<tag k="name" v="Iversmoen" />
		<tag k="place" v="locality" />
		<tag k="ssr:stedsnr" v="457631" />
	</node>
	<node lat="60.008941666952616" lon="9.803277771703735" id="-16185">
		<tag k="name" v="Brattbakken" />
		<tag k="natural" v="slope" />
		<tag k="place" v="locality" />
		<tag k="ssr:stedsnr" v="457645" />
	</node>
	<node lat="60.055477774267715" lon="9.592044435679282" id="-16188">
		<tag k="name" v="Tollevsplassberga" />
		<tag k="natural" v="ridge" />
		<tag k="place" v="locality" />
		<tag k="ssr:stedsnr" v="457740" />
	</node>
	<node lat="60.05855000236482" lon="9.619713883862827" id="-16189">
		<tag k="name" v="Kollen" />
		<tag k="natural" v="hill" />
		<tag k="place" v="locality" />
		<tag k="ssr:stedsnr" v="457746" />
	</node>
	<node lat="60.02932500233898" lon="9.759283338952066" id="-16190">
		<tag k="name" v="Lauvberget" />
		<tag k="natural" v="ridge" />
		<tag k="place" v="locality" />
		<tag k="ssr:stedsnr" v="457749" />
	</node>
	<node lat="60.25241388605295" lon="9.266813880693922" id="-16196">
		<tag k="name" v="Solliåsen" />
		<tag k="natural" v="slope" />
		<tag k="place" v="locality" />
		<tag k="ssr:stedsnr" v="264183" />
	</node>
	<node lat="60.07840277695917" lon="9.506674999412494" id="-16199">
		<tag k="name" v="Røysebråtalia" />
		<tag k="natural" v="slope" />
		<tag k="place" v="locality" />
		<tag k="ssr:stedsnr" v="457898" />
	</node>
	<node lat="60.01237500078309" lon="9.797552779598043" id="-16200">
		<tag k="name" v="Ponglia" />
		<tag k="natural" v="slope" />
		<tag k="place" v="locality" />
		<tag k="ssr:stedsnr" v="457967" />
	</node>
	<node lat="60.06910556004408" lon="9.451941667692795" id="-16201">
		<tag k="name" v="Dambakkane" />
		<tag k="natural" v="slope" />
		<tag k="place" v="locality" />
		<tag k="ssr:stedsnr" v="457970" />
	</node>
	<node lat="60.03903056002609" lon="9.712669441120807" id="-16202">
		<tag k="name" v="Oredokka" />
		<tag k="natural" v="valley" />
		<tag k="place" v="locality" />
		<tag k="ssr:stedsnr" v="457971" />
	</node>
	<node lat="60.07311944451409" lon="9.42115555848566" id="-16203">
		<tag k="name" v="Skjærslia" />
		<tag k="natural" v="slope" />
		<tag k="place" v="locality" />
		<tag k="ssr:stedsnr" v="457972" />
	</node>
	<node lat="59.99597222240175" lon="9.725647222205215" id="-16209">
		<tag k="name" v="Skiktåsen" />
		<tag k="natural" v="hill" />
		<tag k="place" v="locality" />
		<tag k="ssr:stedsnr" v="458994" />
	</node>
	<node lat="60.17349166842598" lon="9.281300002448946" id="-16216">
		<tag k="name" v="Vesle-Helvete" />
		<tag k="natural" v="valley" />
		<tag k="place" v="locality" />
		<tag k="ssr:stedsnr" v="272628" />
	</node>
	<node lat="60.255500002300735" lon="9.248147213530194" id="-16217">
		<tag k="name" v="Grånlia" />
		<tag k="natural" v="slope" />
		<tag k="place" v="locality" />
		<tag k="ssr:stedsnr" v="272806" />
	</node>
	<node lat="60.11550832992226" lon="9.403075004024604" id="-16220">
		<tag k="name" v="Gygreseng" />
		<tag k="natural" v="valley" />
		<tag k="place" v="locality" />
		<tag k="ssr:stedsnr" v="273100" />
	</node>
	<node lat="60.13887221872082" lon="9.39384166839396" id="-16221">
		<tag k="name" v="Røtthøl" />
		<tag k="natural" v="valley" />
		<tag k="place" v="locality" />
		<tag k="ssr:stedsnr" v="273124" />
	</node>
	<node lat="60.357600002624075" lon="9.182744442909783" id="-16226">
		<tag k="name" v="Lågeskarleina" />
		<tag k="natural" v="valley" />
		<tag k="place" v="locality" />
		<tag k="ssr:stedsnr" v="273185" />
	</node>
	<node lat="60.16736111473694" lon="9.444825006274012" id="-16227">
		<tag k="name" v="Stordalen" />
		<tag k="natural" v="valley" />
		<tag k="place" v="locality" />
		<tag k="ssr:stedsnr" v="273281" />
	</node>
	<node lat="60.264361108478994" lon="9.339872225758798" id="-16229">
		<tag k="name" v="Brennlia" />
		<tag k="natural" v="slope" />
		<tag k="place" v="locality" />
		<tag k="ssr:stedsnr" v="273410" />
	</node>
	<node lat="60.2656361139507" lon="9.349719436554999" id="-16230">
		<tag k="name" v="Hekjørka" />
		<tag k="place" v="locality" />
		<tag k="ssr:stedsnr" v="273426" />
	</node>
	<node lat="60.2790944446807" lon="9.335672220925597" id="-16232">
		<tag k="name" v="Fleun" />
		<tag k="natural" v="ridge" />
		<tag k="place" v="locality" />
		<tag k="ssr:stedsnr" v="273434" />
	</node>
	<node lat="60.262188884658606" lon="9.377872219031136" id="-16233">
		<tag k="name" v="Svarteli" />
		<tag k="natural" v="slope" />
		<tag k="place" v="locality" />
		<tag k="ssr:stedsnr" v="273471" />
	</node>
	<node lat="59.97277500252785" lon="9.673175002930572" id="-16234">
		<tag k="name" v="Oresnaråsen" />
		<tag k="natural" v="slope" />
		<tag k="place" v="locality" />
		<tag k="ssr:stedsnr" v="273473" />
	</node>
	<node lat="60.15951944531632" lon="9.40180277532663" id="-16236">
		<tag k="fixme" v="consider natural=peak for the most distinct mountains in the district" />
		<tag k="name" v="Ulefjell" />
		<tag k="natural" v="hill" />
		<tag k="place" v="locality" />
		<tag k="ssr:stedsnr" v="273681" />
	</node>
	<node lat="60.21202499842255" lon="9.39198333287562" id="-16238">
		<tag k="name" v="Kleiva" />
		<tag k="natural" v="slope" />
		<tag k="place" v="locality" />
		<tag k="ssr:stedsnr" v="273906" />
	</node>
	<node lat="60.194005553856165" lon="9.362355555106507" id="-16239">
		<tag k="fixme" v="consider natural=peak for the most distinct mountains in the district" />
		<tag k="name" v="Haugan" />
		<tag k="natural" v="hill" />
		<tag k="place" v="locality" />
		<tag k="ssr:stedsnr" v="273912" />
	</node>
	<node lat="60.100336108912096" lon="9.390672229375667" id="-16241">
		<tag k="name" v="Andersbråtalia" />
		<tag k="natural" v="slope" />
		<tag k="place" v="locality" />
		<tag k="ssr:stedsnr" v="273976" />
	</node>
	<node lat="60.02448333137207" lon="9.457466658960703" id="-16250">
		<tag k="name" v="Skaberg" />
		<tag k="natural" v="slope" />
		<tag k="place" v="locality" />
		<tag k="ssr:stedsnr" v="275127" />
	</node>
	<node lat="60.00210555217922" lon="9.619891669314148" id="-16255">
		<tag k="name" v="Stillingsåsen" />
		<tag k="natural" v="ridge" />
		<tag k="place" v="locality" />
		<tag k="ssr:stedsnr" v="275204" />
	</node>
	<node lat="60.00103333503793" lon="9.581158335727368" id="-16257">
		<tag k="fixme" v="consider natural=peak for the most distinct mountains in the district" />
		<tag k="name" v="Middagsåsen" />
		<tag k="natural" v="hill" />
		<tag k="place" v="locality" />
		<tag k="ssr:stedsnr" v="275214" />
	</node>
	<node lat="60.027922221974954" lon="9.56130555865628" id="-16260">
		<tag k="name" v="Tverråmoane" />
		<tag k="place" v="locality" />
		<tag k="ssr:stedsnr" v="275222" />
	</node>
	<node lat="60.05792499985178" lon="9.51321944187251" id="-16262">
		<tag k="name" v="Veggesrudlia" />
		<tag k="natural" v="slope" />
		<tag k="place" v="locality" />
		<tag k="ssr:stedsnr" v="275174" />
	</node>
	<node lat="60.04884999695369" lon="9.481030550392893" id="-16263">
		<tag k="name" v="Glanås" />
		<tag k="natural" v="slope" />
		<tag k="place" v="locality" />
		<tag k="ssr:stedsnr" v="275176" />
	</node>
	<node lat="60.03347777905033" lon="9.509427777931554" id="-16265">
		<tag k="name" v="Suluseterlia" />
		<tag k="natural" v="slope" />
		<tag k="place" v="locality" />
		<tag k="ssr:stedsnr" v="275185" />
	</node>
	<node lat="60.08835277737052" lon="9.451644451216062" id="-16268">
		<tag k="name" v="Kvenneroa" />
		<tag k="natural" v="valley" />
		<tag k="place" v="locality" />
		<tag k="ssr:stedsnr" v="275315" />
	</node>
	<node lat="59.92765000160458" lon="9.69042777623032" id="-16273">
		<tag k="name" v="Portåsen" />
		<tag k="natural" v="ridge" />
		<tag k="place" v="locality" />
		<tag k="ssr:stedsnr" v="275504" />
	</node>
	<node lat="59.95088888951134" lon="9.639633336757106" id="-16275">
		<tag k="fixme" v="consider natural=peak for the most distinct mountains in the district" />
		<tag k="name" v="Leinebråtaåsen" />
		<tag k="natural" v="hill" />
		<tag k="place" v="locality" />
		<tag k="ssr:stedsnr" v="275420" />
	</node>
	<node lat="60.06385277422446" lon="9.650227780856026" id="-16277">
		<tag k="name" v="Presttjennåsen" />
		<tag k="natural" v="ridge" />
		<tag k="place" v="locality" />
		<tag k="ssr:stedsnr" v="275478" />
	</node>
	<node lat="59.972663890437175" lon="9.836983336866812" id="-16283">
		<tag k="name" v="Storlibakken" />
		<tag k="natural" v="slope" />
		<tag k="place" v="locality" />
		<tag k="ssr:stedsnr" v="275617" />
	</node>
	<node lat="59.97545833086373" lon="9.809686114232774" id="-16284">
		<tag k="name" v="Barlinddalen" />
		<tag k="natural" v="valley" />
		<tag k="place" v="locality" />
		<tag k="ssr:stedsnr" v="275624" />
	</node>
	<node lat="60.03092222369617" lon="9.731016671771824" id="-16291">
		<tag k="name" v="Bannarbakkane" />
		<tag k="natural" v="slope" />
		<tag k="place" v="locality" />
		<tag k="ssr:stedsnr" v="275978" />
	</node>
	<node lat="60.22056111197885" lon="9.315452774674155" id="-16297">
		<tag k="fixme" v="consider natural=peak for the most distinct mountains in the district" />
		<tag k="name" v="Middagsfjellet" />
		<tag k="natural" v="hill" />
		<tag k="place" v="locality" />
		<tag k="ssr:stedsnr" v="307307" />
	</node>
	<node lat="60.24933889051536" lon="9.480713887670124" id="-16299">
		<tag k="fixme" v="consider natural=peak for the most distinct mountains in the district" />
		<tag k="name" v="Storleinåsen" />
		<tag k="natural" v="hill" />
		<tag k="place" v="locality" />
		<tag k="ssr:stedsnr" v="308266" />
	</node>
	<node lat="60.20584722447671" lon="9.246469450009661" id="-16301">
		<tag k="name" v="Stavalidalen" />
		<tag k="natural" v="valley" />
		<tag k="place" v="locality" />
		<tag k="ssr:stedsnr" v="308441" />
	</node>
	<node lat="60.11667500276737" lon="9.418488888344791" id="-16303">
		<tag k="fixme" v="consider natural=peak for the most distinct mountains in the district" />
		<tag k="name" v="Andersnatten" />
		<tag k="natural" v="hill" />
		<tag k="place" v="locality" />
		<tag k="ssr:stedsnr" v="308360" />
	</node>
	<node lat="60.013816669697384" lon="9.629130554512153" id="-16308">
		<tag k="fixme" v="consider natural=peak for the most distinct mountains in the district" />
		<tag k="name" v="Grågalten" />
		<tag k="natural" v="hill" />
		<tag k="place" v="locality" />
		<tag k="ssr:stedsnr" v="308940" />
	</node>
	<node lat="60.29104999854844" lon="9.22617221460737" id="-16309">
		<tag k="fixme" v="consider natural=peak for the most distinct mountains in the district" />
		<tag k="name" v="Gørrtjennåsen" />
		<tag k="natural" v="hill" />
		<tag k="place" v="locality" />
		<tag k="ssr:stedsnr" v="309088" />
	</node>
	<node lat="60.252002775410396" lon="9.264033324281927" id="-16312">
		<tag k="fixme" v="consider natural=peak for the most distinct mountains in the district" />
		<tag k="name" v="Treåsen" />
		<tag k="natural" v="hill" />
		<tag k="place" v="locality" />
		<tag k="ssr:stedsnr" v="309913" />
	</node>
	<node lat="60.22917777897635" lon="9.379686104206321" id="-16319">
		<tag k="name" v="Eggedal" />
		<tag k="natural" v="valley" />
		<tag k="place" v="locality" />
		<tag k="ssr:stedsnr" v="327117" />
	</node>
	<node lat="60.08138888791397" lon="9.284991658760008" id="-16320">
		<tag k="fixme" v="consider natural=peak for the most distinct mountains in the district" />
		<tag k="name" v="Nysethøgde" />
		<tag k="natural" v="hill" />
		<tag k="place" v="locality" />
		<tag k="ssr:stedsnr" v="332111" />
	</node>
	<node lat="60.18676388483954" lon="9.203741673659009" id="-16324">
		<tag k="name" v="Stordalen" />
		<tag k="natural" v="valley" />
		<tag k="place" v="locality" />
		<tag k="ssr:stedsnr" v="333205" />
	</node>
	<node lat="60.25394444885717" lon="9.375980552661352" id="-16329">
		<tag k="name" v="Knuthusa" />
		<tag k="natural" v="valley" />
		<tag k="place" v="locality" />
		<tag k="ssr:stedsnr" v="333159" />
	</node>
	<node lat="60.20037222282548" lon="9.305238881332746" id="-16333">
		<tag k="name" v="Frånskar" />
		<tag k="natural" v="valley" />
		<tag k="place" v="locality" />
		<tag k="ssr:stedsnr" v="333415" />
	</node>
	<node lat="60.24904166653882" lon="9.270552779495548" id="-16342">
		<tag k="name" v="Sollijuvet" />
		<tag k="natural" v="gorge" />
		<tag k="ssr:stedsnr" v="333896" />
	</node>
	<node lat="60.113183337389366" lon="9.447011111132708" id="-16343">
		<tag k="name" v="Ormlidæla" />
		<tag k="natural" v="valley" />
		<tag k="place" v="locality" />
		<tag k="ssr:stedsnr" v="334302" />
	</node>
	<node lat="60.09728055492482" lon="9.391244441570516" id="-16347">
		<tag k="name" v="Borofjellskørra" />
		<tag k="natural" v="valley" />
		<tag k="place" v="locality" />
		<tag k="ssr:stedsnr" v="334955" />
	</node>
	<node lat="59.99646388690843" lon="9.573877768934954" id="-16348">
		<tag k="name" v="Ospesnaret" />
		<tag k="place" v="locality" />
		<tag k="ssr:stedsnr" v="335096" />
	</node>
	<node lat="59.98341111401143" lon="9.584291664867845" id="-16349">
		<tag k="name" v="Futbakkane" />
		<tag k="natural" v="slope" />
		<tag k="place" v="locality" />
		<tag k="ssr:stedsnr" v="335097" />
	</node>
	<node lat="60.007997217967265" lon="9.593502775744302" id="-16351">
		<tag k="fixme" v="consider natural=peak for the most distinct mountains in the district" />
		<tag k="name" v="Blautemyråsen" />
		<tag k="natural" v="hill" />
		<tag k="place" v="locality" />
		<tag k="ssr:stedsnr" v="335209" />
	</node>
	<node lat="60.010100004326986" lon="9.60560556031984" id="-16352">
		<tag k="fixme" v="consider natural=peak for the most distinct mountains in the district" />
		<tag k="name" v="Kvasshaugåsen" />
		<tag k="natural" v="hill" />
		<tag k="place" v="locality" />
		<tag k="ssr:stedsnr" v="335212" />
	</node>
	<node lat="60.01583888557921" lon="9.620938889544153" id="-16353">
		<tag k="name" v="Kastet" />
		<tag k="natural" v="slope" />
		<tag k="place" v="locality" />
		<tag k="ssr:stedsnr" v="335216" />
	</node>
	<node lat="59.975280558094" lon="9.717047229950788" id="-16363">
		<tag k="name" v="Vassdalen" />
		<tag k="natural" v="valley" />
		<tag k="place" v="locality" />
		<tag k="ssr:stedsnr" v="335368" />
	</node>
	<node lat="60.028075003616664" lon="9.59848610918938" id="-16364">
		<tag k="name" v="Ranten" />
		<tag k="natural" v="ridge" />
		<tag k="place" v="locality" />
		<tag k="ssr:stedsnr" v="335753" />
	</node>
	<node lat="59.9752722242724" lon="9.839169435801763" id="-16369">
		<tag k="fixme" v="consider natural=peak for the most distinct mountains in the district" />
		<tag k="name" v="Grååsen" />
		<tag k="natural" v="hill" />
		<tag k="place" v="locality" />
		<tag k="ssr:stedsnr" v="335663" />
	</node>
	<node lat="60.05851110843583" lon="9.624994443113613" id="-16372">
		<tag k="name" v="Helvete" />
		<tag k="natural" v="gorge" />
		<tag k="ssr:stedsnr" v="335810" />
	</node>
	<node lat="60.00395277645712" lon="9.480769449041384" id="-16375">
		<tag k="name" v="Flaget" />
		<tag k="natural" v="slope" />
		<tag k="place" v="locality" />
		<tag k="ssr:stedsnr" v="336121" />
	</node>
	<node lat="60.11090833303637" lon="9.642600006232492" id="-16381">
		<tag k="name" v="Kokkrudlia" />
		<tag k="natural" v="slope" />
		<tag k="place" v="locality" />
		<tag k="ssr:stedsnr" v="336514" />
	</node>
	<node lat="60.09451944731357" lon="9.54466111680141" id="-16386">
		<tag k="name" v="Dælasnaret" />
		<tag k="natural" v="valley" />
		<tag k="place" v="locality" />
		<tag k="ssr:stedsnr" v="336444" />
	</node>
	<node lat="59.984813885358456" lon="9.839166675476621" id="-16389">
		<tag k="name" v="Oppstadåsen" />
		<tag k="natural" v="hill" />
		<tag k="place" v="locality" />
		<tag k="ssr:stedsnr" v="336804" />
	</node>
	<node lat="59.98782777611794" lon="9.570719449293263" id="-16392">
		<tag k="name" v="Nordlihøgda" />
		<tag k="natural" v="hill" />
		<tag k="place" v="locality" />
		<tag k="ssr:stedsnr" v="336708" />
	</node>
	<node lat="60.078263884597334" lon="9.494147228546526" id="-16394">
		<tag k="name" v="Bringeberget" />
		<tag k="natural" v="hill" />
		<tag k="place" v="locality" />
		<tag k="ssr:stedsnr" v="336914" />
	</node>
	<node lat="59.97186944863954" lon="9.610769444443658" id="-16398">
		<tag k="name" v="Vasslikollen" />
		<tag k="natural" v="hill" />
		<tag k="place" v="locality" />
		<tag k="ssr:stedsnr" v="367791" />
	</node>
	<node lat="60.21400833648064" lon="9.17640000762274" id="-16409">
		<tag k="alt_name" v="Øgnesprangfjellet" />
		<tag k="fixme" v="consider natural=peak for the most distinct mountains in the district" />
		<tag k="name" v="Øgnesprangfjella" />
		<tag k="natural" v="hill" />
		<tag k="place" v="locality" />
		<tag k="ssr:stedsnr" v="368917" />
	</node>
	<node lat="60.05543610773238" lon="9.733622214133085" id="-16410">
		<tag k="fixme" v="consider natural=peak for the most distinct mountains in the district" />
		<tag k="name" v="Halvfaråsen" />
		<tag k="natural" v="hill" />
		<tag k="place" v="locality" />
		<tag k="ssr:stedsnr" v="368892" />
	</node>
	<node lat="60.04363333178967" lon="9.762777786004213" id="-16411">
		<tag k="fixme" v="consider natural=peak for the most distinct mountains in the district" />
		<tag k="name" v="Nattjennåsen" />
		<tag k="natural" v="hill" />
		<tag k="place" v="locality" />
		<tag k="ssr:stedsnr" v="368900" />
	</node>
	<node lat="60.00165000403568" lon="9.791400003919811" id="-16419">
		<tag k="alt_name" v="Tjuvnatten" />
		<tag k="name" v="Tjuvenatten" />
		<tag k="natural" v="hill" />
		<tag k="place" v="locality" />
		<tag k="ssr:stedsnr" v="369968" />
	</node>
	<node lat="60.28815000261885" lon="9.339125008876934" id="-16423">
		<tag k="fixme" v="consider natural=peak for the most distinct mountains in the district" />
		<tag k="name" v="Drotninggutunatten" />
		<tag k="natural" v="hill" />
		<tag k="place" v="locality" />
		<tag k="ssr:stedsnr" v="370112" />
	</node>
	<node lat="60.30583889212238" lon="9.282863889448253" id="-16424">
		<tag k="fixme" v="consider natural=peak for the most distinct mountains in the district" />
		<tag k="name" v="Langliåsen" />
		<tag k="natural" v="hill" />
		<tag k="place" v="locality" />
		<tag k="ssr:stedsnr" v="370114" />
	</node>
	<node lat="60.2015277808441" lon="9.271369445047068" id="-16435">
		<tag k="name" v="Angerskar" />
		<tag k="natural" v="valley" />
		<tag k="place" v="locality" />
		<tag k="ssr:stedsnr" v="393502" />
	</node>
	<node lat="60.17976388494684" lon="9.286786119390491" id="-16436">
		<tag k="name" v="Store Helvete" />
		<tag k="natural" v="valley" />
		<tag k="place" v="locality" />
		<tag k="ssr:stedsnr" v="393643" />
	</node>
	<node lat="60.066780557435635" lon="9.395777775259067" id="-16442">
		<tag k="name" v="Hallane" />
		<tag k="natural" v="valley" />
		<tag k="place" v="locality" />
		<tag k="ssr:stedsnr" v="394326" />
	</node>
	<node lat="60.26900833434926" lon="9.378241671975179" id="-16444">
		<tag k="name" v="Rislelia" />
		<tag k="natural" v="slope" />
		<tag k="place" v="locality" />
		<tag k="ssr:stedsnr" v="394390" />
	</node>
	<node lat="60.126347223428745" lon="9.501102785146868" id="-16445">
		<tag k="name" v="Primhølet" />
		<tag k="natural" v="valley" />
		<tag k="place" v="locality" />
		<tag k="ssr:stedsnr" v="394584" />
	</node>
	<node lat="60.1296250034692" lon="9.505100003628005" id="-16446">
		<tag k="fixme" v="consider natural=peak for the most distinct mountains in the district" />
		<tag k="name" v="Grasbakkåsen" />
		<tag k="natural" v="hill" />
		<tag k="place" v="locality" />
		<tag k="ssr:stedsnr" v="394587" />
	</node>
	<node lat="60.19647222493893" lon="9.41393889070864" id="-16449">
		<tag k="name" v="Hakkespettdalen" />
		<tag k="natural" v="valley" />
		<tag k="place" v="locality" />
		<tag k="ssr:stedsnr" v="394998" />
	</node>
	<node lat="60.066402780926595" lon="9.37296111437458" id="-16451">
		<tag k="name" v="Knivetjennhallen" />
		<tag k="natural" v="valley" />
		<tag k="place" v="locality" />
		<tag k="ssr:stedsnr" v="395930" />
	</node>
	<node lat="59.985897219182185" lon="9.663963880098516" id="-16453">
		<tag k="name" v="Slottstein" />
		<tag k="natural" v="slope" />
		<tag k="place" v="locality" />
		<tag k="ssr:stedsnr" v="396133" />
	</node>
	<node lat="60.06689722103682" lon="9.695672217731861" id="-16455">
		<tag k="name" v="Bjønnehøla" />
		<tag k="natural" v="valley" />
		<tag k="place" v="locality" />
		<tag k="ssr:stedsnr" v="396033" />
	</node>
	<node lat="60.017108337595126" lon="9.519669445245329" id="-16460">
		<tag k="name" v="Bratterudlia" />
		<tag k="natural" v="slope" />
		<tag k="place" v="locality" />
		<tag k="ssr:stedsnr" v="396088" />
	</node>
	<node lat="60.00795555397073" lon="9.528552777077147" id="-16461">
		<tag k="name" v="Gåsetjennåsen" />
		<tag k="natural" v="hill" />
		<tag k="place" v="locality" />
		<tag k="ssr:stedsnr" v="396090" />
	</node>
	<node lat="60.0070416674938" lon="9.4773944372832" id="-16462">
		<tag k="name" v="Klovoa" />
		<tag k="natural" v="valley" />
		<tag k="place" v="locality" />
		<tag k="ssr:stedsnr" v="396096" />
	</node>
	<node lat="60.0206861124866" lon="9.55694999365047" id="-16463">
		<tag k="name" v="Småmyrbakken" />
		<tag k="natural" v="slope" />
		<tag k="place" v="locality" />
		<tag k="ssr:stedsnr" v="396209" />
	</node>
	<node lat="59.96640277676067" lon="9.760483327567004" id="-16468">
		<tag k="fixme" v="consider natural=peak for the most distinct mountains in the district" />
		<tag k="name" v="Engaråsen" />
		<tag k="natural" v="hill" />
		<tag k="place" v="locality" />
		<tag k="ssr:stedsnr" v="396381" />
	</node>
	<node lat="60.09411111232098" lon="9.475266669506421" id="-16470">
		<tag k="name" v="Lurås" />
		<tag k="natural" v="ridge" />
		<tag k="place" v="locality" />
		<tag k="ssr:stedsnr" v="396397" />
	</node>
	<node lat="59.95889166303131" lon="9.71510832855663" id="-16475">
		<tag k="name" v="Dælane" />
		<tag k="natural" v="valley" />
		<tag k="place" v="locality" />
		<tag k="ssr:stedsnr" v="396403" />
	</node>
	<node lat="59.96343333191687" lon="9.74488611108502" id="-16476">
		<tag k="name" v="Djupendæl" />
		<tag k="natural" v="valley" />
		<tag k="place" v="locality" />
		<tag k="ssr:stedsnr" v="396405" />
	</node>
	<node lat="59.962027776386066" lon="9.802894446438556" id="-16483">
		<tag k="fixme" v="consider natural=peak for the most distinct mountains in the district" />
		<tag k="name" v="Helgerudåsen" />
		<tag k="natural" v="hill" />
		<tag k="place" v="locality" />
		<tag k="ssr:stedsnr" v="396611" />
	</node>
	<node lat="59.955061108711355" lon="9.745419449045592" id="-16485">
		<tag k="fixme" v="consider natural=peak for the most distinct mountains in the district" />
		<tag k="name" v="Nordstadåsen" />
		<tag k="natural" v="hill" />
		<tag k="place" v="locality" />
		<tag k="ssr:stedsnr" v="396585" />
	</node>
	<node lat="60.05106666426698" lon="9.588405563988164" id="-16499">
		<tag k="fixme" v="consider natural=peak for the most distinct mountains in the district" />
		<tag k="name" v="Tollevsplassåsen" />
		<tag k="natural" v="hill" />
		<tag k="place" v="locality" />
		<tag k="ssr:stedsnr" v="489088" />
	</node>
	<node lat="60.14756110670261" lon="9.413874997835562" id="-16503">
		<tag k="fixme" v="consider natural=peak for the most distinct mountains in the district" />
		<tag k="name" v="Ulaåsen" />
		<tag k="natural" v="hill" />
		<tag k="place" v="locality" />
		<tag k="ssr:stedsnr" v="489430" />
	</node>
	<node lat="60.08675277962468" lon="9.710724995686357" id="-16514">
		<tag k="fixme" v="consider natural=peak for the most distinct mountains in the district" />
		<tag k="name" v="Høgås" />
		<tag k="natural" v="hill" />
		<tag k="place" v="locality" />
		<tag k="ssr:stedsnr" v="490415" />
	</node>
	<node lat="60.192444446448256" lon="9.508963883498156" id="-16516">
		<tag k="fixme" v="consider natural=peak for the most distinct mountains in the district" />
		<tag k="name" v="Vardefjell" />
		<tag k="natural" v="hill" />
		<tag k="place" v="locality" />
		<tag k="ssr:stedsnr" v="490479" />
	</node>
	<node lat="60.20714166543753" lon="9.274236117098459" id="-16517">
		<tag k="name" v="Skriutjennatten" />
		<tag k="natural" v="hill" />
		<tag k="place" v="locality" />
		<tag k="ssr:stedsnr" v="490460" />
	</node>
	<node lat="60.181294440271664" lon="9.31124721956325" id="-16519">
		<tag k="alt_name" v="Hestliåsen" />
		<tag k="fixme" v="consider natural=peak for the most distinct mountains in the district" />
		<tag k="name" v="Hesteliåsen" />
		<tag k="natural" v="hill" />
		<tag k="place" v="locality" />
		<tag k="ssr:stedsnr" v="490474" />
	</node>
	<node lat="59.9735194471006" lon="9.552255554491095" id="-16520">
		<tag k="name" v="Rævskollen" />
		<tag k="natural" v="hill" />
		<tag k="place" v="locality" />
		<tag k="ssr:stedsnr" v="428302" />
	</node>
	<node lat="59.978713886918406" lon="9.540874999915069" id="-16521">
		<tag k="fixme" v="consider natural=peak for the most distinct mountains in the district" />
		<tag k="name" v="Kongleåsen" />
		<tag k="natural" v="hill" />
		<tag k="place" v="locality" />
		<tag k="ssr:stedsnr" v="428305" />
	</node>
	<node lat="60.141002781944586" lon="9.476252781254795" id="-16528">
		<tag k="name" v="Risbrøttdalen" />
		<tag k="natural" v="valley" />
		<tag k="place" v="locality" />
		<tag k="ssr:stedsnr" v="429407" />
	</node>
	<node lat="60.135947220478116" lon="9.287463893734271" id="-16529">
		<tag k="name" v="Grunntjennatten" />
		<tag k="natural" v="hill" />
		<tag k="place" v="locality" />
		<tag k="ssr:stedsnr" v="429413" />
	</node>
	<node lat="60.180927778938106" lon="9.352705562855766" id="-16535">
		<tag k="name" v="Sandskard" />
		<tag k="natural" v="valley" />
		<tag k="place" v="locality" />
		<tag k="ssr:stedsnr" v="429429" />
	</node>
	<node lat="59.95972499973995" lon="9.68303333767438" id="-16539">
		<tag k="fixme" v="consider natural=peak for the most distinct mountains in the district" />
		<tag k="name" v="Seteråsen" />
		<tag k="natural" v="hill" />
		<tag k="place" v="locality" />
		<tag k="ssr:stedsnr" v="429604" />
	</node>
	<node lat="59.94966666388462" lon="9.692280562087358" id="-16543">
		<tag k="name" v="Jolinhaugen" />
		<tag k="natural" v="hill" />
		<tag k="place" v="locality" />
		<tag k="ssr:stedsnr" v="429774" />
	</node>
	<node lat="59.99160833184693" lon="9.688924998942744" id="-16546">
		<tag k="name" v="Svadal" />
		<tag k="natural" v="valley" />
		<tag k="place" v="locality" />
		<tag k="ssr:stedsnr" v="429964" />
	</node>
	<node lat="60.00375833406625" lon="9.639302769769218" id="-16553">
		<tag k="name" v="Bukketjennkollen" />
		<tag k="natural" v="hill" />
		<tag k="place" v="locality" />
		<tag k="ssr:stedsnr" v="490984" />
	</node>
	<node lat="60.07940000211146" lon="9.663411112768308" id="-16561">
		<tag k="fixme" v="consider natural=peak for the most distinct mountains in the district" />
		<tag k="name" v="Holmennatten" />
		<tag k="natural" v="hill" />
		<tag k="place" v="locality" />
		<tag k="ssr:stedsnr" v="430857" />
	</node>
	<node lat="60.27112500410745" lon="9.318100001701085" id="-16562">
		<tag k="fixme" v="consider natural=peak for the most distinct mountains in the district" />
		<tag k="name" v="Skåråliåsen" />
		<tag k="natural" v="hill" />
		<tag k="place" v="locality" />
		<tag k="ssr:stedsnr" v="491114" />
	</node>
	<node lat="60.28120000406834" lon="9.470549999993665" id="-16568">
		<tag k="name" v="Steindalen" />
		<tag k="natural" v="valley" />
		<tag k="place" v="locality" />
		<tag k="ssr:stedsnr" v="431092" />
	</node>
	<node lat="60.33007500180525" lon="9.191074994671345" id="-16573">
		<tag k="name" v="Hovdan" />
		<tag k="natural" v="hill" />
		<tag k="place" v="locality" />
		<tag k="ssr:stedsnr" v="491459" />
	</node>
	<node lat="60.21212500114166" lon="9.241638882720176" id="-16579">
		<tag k="fixme" v="consider natural=peak for the most distinct mountains in the district" />
		<tag k="name" v="Stavalinatten" />
		<tag k="natural" v="hill" />
		<tag k="place" v="locality" />
		<tag k="ssr:stedsnr" v="272056" />
	</node>
	<node lat="60.30012777551356" lon="9.206888884541689" id="-16580">
		<tag k="name" v="Svartedalen" />
		<tag k="natural" v="valley" />
		<tag k="place" v="locality" />
		<tag k="ssr:stedsnr" v="272070" />
	</node>
	<node lat="59.99075277421438" lon="9.797761119383619" id="-16582">
		<tag k="fixme" v="consider natural=peak for the most distinct mountains in the district" />
		<tag k="name" v="Gleåsen" />
		<tag k="natural" v="hill" />
		<tag k="place" v="locality" />
		<tag k="ssr:stedsnr" v="671969" />
	</node>
	<node lat="60.231055558833745" lon="9.224766660631756" id="-16590">
		<tag k="name" v="Feskørrnuten" />
		<tag k="natural" v="hill" />
		<tag k="place" v="locality" />
		<tag k="ssr:stedsnr" v="454111" />
	</node>
	<node lat="60.23404999616667" lon="9.225258339314292" id="-16591">
		<tag k="name" v="Geiteskørra" />
		<tag k="natural" v="valley" />
		<tag k="place" v="locality" />
		<tag k="ssr:stedsnr" v="454113" />
	</node>
	<node lat="60.13754444108814" lon="9.278347228999836" id="-16599">
		<tag k="fixme" v="consider natural=peak for the most distinct mountains in the district" />
		<tag k="name" v="Grunntjennåsen" />
		<tag k="natural" v="hill" />
		<tag k="place" v="locality" />
		<tag k="ssr:stedsnr" v="454378" />
	</node>
	<node lat="60.166219446685936" lon="9.266838881293877" id="-16603">
		<tag k="name" v="Olasåt" />
		<tag k="natural" v="hill" />
		<tag k="place" v="locality" />
		<tag k="ssr:stedsnr" v="454679" />
	</node>
	<node lat="60.15472499953806" lon="9.255241666243489" id="-16604">
		<tag k="name" v="Hamburgdalen" />
		<tag k="natural" v="valley" />
		<tag k="place" v="locality" />
		<tag k="ssr:stedsnr" v="454680" />
	</node>
	<node lat="60.14507777596394" lon="9.422833336364953" id="-16611">
		<tag k="fixme" v="consider natural=peak for the most distinct mountains in the district" />
		<tag k="name" v="Ulaåsen" />
		<tag k="natural" v="hill" />
		<tag k="place" v="locality" />
		<tag k="ssr:stedsnr" v="672389" />
	</node>
	<node lat="60.141372222259875" lon="9.399138892018135" id="-16614">
		<tag k="name" v="Ulebekkjuvet" />
		<tag k="natural" v="gorge" />
		<tag k="ssr:stedsnr" v="455062" />
	</node>
	<node lat="60.14087222188637" lon="9.40488333499253" id="-16615">
		<tag k="name" v="Grisingard" />
		<tag k="natural" v="slope" />
		<tag k="place" v="locality" />
		<tag k="ssr:stedsnr" v="455063" />
	</node>
	<node lat="60.20765278129132" lon="9.310544449867903" id="-16618">
		<tag k="alt_name" v="Sølandsfjella" />
		<tag k="fixme" v="consider natural=peak for the most distinct mountains in the district" />
		<tag k="name" v="Sølandsfjellet" />
		<tag k="natural" v="hill" />
		<tag k="place" v="locality" />
		<tag k="ssr:stedsnr" v="672443" />
	</node>
	<node lat="60.063805558731474" lon="9.383172216964558" id="-16621">
		<tag k="name" v="Rognetjennhallen" />
		<tag k="natural" v="valley" />
		<tag k="place" v="locality" />
		<tag k="ssr:stedsnr" v="455320" />
	</node>
	<node lat="60.103002779029225" lon="9.526961108325409" id="-16624">
		<tag k="name" v="Geiteryggen" />
		<tag k="natural" v="ridge" />
		<tag k="place" v="locality" />
		<tag k="ssr:stedsnr" v="455411" />
	</node>
	<node lat="60.168913885287395" lon="9.395516668905394" id="-16628">
		<tag k="name" v="Kvernhushaugen" />
		<tag k="natural" v="hill" />
		<tag k="place" v="locality" />
		<tag k="ssr:stedsnr" v="455616" />
	</node>
	<node lat="60.193619444829785" lon="9.376963897305687" id="-16631">
		<tag k="name" v="Tollevsgard" />
		<tag k="natural" v="valley" />
		<tag k="place" v="locality" />
		<tag k="ssr:stedsnr" v="455715" />
	</node>
	<node lat="60.082797219005116" lon="9.373716673480718" id="-16637">
		<tag k="name" v="Gaulsdalane" />
		<tag k="natural" v="valley" />
		<tag k="place" v="locality" />
		<tag k="ssr:stedsnr" v="455922" />
	</node>
	<node lat="60.10747777867295" lon="9.381594450577783" id="-16638">
		<tag k="name" v="Killingnatten" />
		<tag k="natural" v="hill" />
		<tag k="place" v="locality" />
		<tag k="ssr:stedsnr" v="455967" />
	</node>
	<node lat="59.973261109435654" lon="9.652208341373752" id="-16641">
		<tag k="name" v="Gullkle" />
		<tag k="place" v="locality" />
		<tag k="ssr:stedsnr" v="456468" />
	</node>
	<node lat="60.01376389006756" lon="9.485236105164496" id="-16642">
		<tag k="name" v="Røsitjennlia" />
		<tag k="natural" v="slope" />
		<tag k="place" v="locality" />
		<tag k="ssr:stedsnr" v="457107" />
	</node>
	<node lat="59.99816111290407" lon="9.640113888296426" id="-16646">
		<tag k="name" v="Hogglia" />
		<tag k="natural" v="slope" />
		<tag k="place" v="locality" />
		<tag k="ssr:stedsnr" v="457135" />
	</node>
	<node lat="59.98068333067903" lon="9.635380560357657" id="-16647">
		<tag k="name" v="Gruvedalen" />
		<tag k="natural" v="valley" />
		<tag k="place" v="locality" />
		<tag k="ssr:stedsnr" v="457145" />
	</node>
	<node lat="59.97048055479317" lon="9.546802776553763" id="-16648">
		<tag k="name" v="Mjovasshølet" />
		<tag k="place" v="locality" />
		<tag k="ssr:stedsnr" v="457005" />
	</node>
	<node lat="59.97793332987289" lon="9.54378611034345" id="-16649">
		<tag k="name" v="Flåren" />
		<tag k="place" v="locality" />
		<tag k="ssr:stedsnr" v="457009" />
	</node>
	<node lat="60.03001944435653" lon="9.564911109428524" id="-16654">
		<tag k="name" v="Tverråjuvet" />
		<tag k="natural" v="gorge" />
		<tag k="ssr:stedsnr" v="457046" />
	</node>
	<node lat="60.00807222622212" lon="9.4422555473339" id="-16657">
		<tag k="fixme" v="consider natural=peak for the most distinct mountains in the district" />
		<tag k="name" v="Nyseteråsen" />
		<tag k="natural" v="hill" />
		<tag k="place" v="locality" />
		<tag k="ssr:stedsnr" v="457072" />
	</node>
	<node lat="60.010391670951776" lon="9.471819438450735" id="-16658">
		<tag k="name" v="Stillingsdæla" />
		<tag k="natural" v="valley" />
		<tag k="place" v="locality" />
		<tag k="ssr:stedsnr" v="457077" />
	</node>
	<node lat="60.06979721895416" lon="9.63483888800317" id="-16663">
		<tag k="name" v="Veslesess" />
		<tag k="natural" v="slope" />
		<tag k="place" v="locality" />
		<tag k="ssr:stedsnr" v="457405" />
	</node>
	<node lat="60.088655559041406" lon="9.473883328517633" id="-16666">
		<tag k="name" v="Hovsmoen" />
		<tag k="place" v="locality" />
		<tag k="ssr:stedsnr" v="457415" />
	</node>
	<node lat="59.90436388698787" lon="9.718191665964355" id="-16677">
		<tag k="name" v="Gulsmyrdæla" />
		<tag k="natural" v="valley" />
		<tag k="place" v="locality" />
		<tag k="ssr:stedsnr" v="457508" />
	</node>
	<node lat="60.32357499871222" lon="9.235325003973957" id="-16681">
		<tag k="fixme" v="consider natural=peak for the most distinct mountains in the district" />
		<tag k="name" v="Skinnatten" />
		<tag k="natural" v="hill" />
		<tag k="place" v="locality" />
		<tag k="ssr:stedsnr" v="673071" />
	</node>
	<node lat="60.0490083332789" lon="9.769891664607266" id="-16685">
		<tag k="name" v="Vasshøllia" />
		<tag k="natural" v="slope" />
		<tag k="place" v="locality" />
		<tag k="ssr:stedsnr" v="457769" />
	</node>
	<node lat="60.33155555286506" lon="9.173116674001234" id="-16692">
		<tag k="name" v="Flatlia" />
		<tag k="natural" v="slope" />
		<tag k="place" v="locality" />
		<tag k="ssr:stedsnr" v="673425" />
	</node>
	<node lat="60.165622217868965" lon="9.252466660586393" id="-16700">
		<tag k="fixme" v="consider natural=peak for the most distinct mountains in the district" />
		<tag k="name" v="Leinåsen" />
		<tag k="natural" v="hill" />
		<tag k="place" v="locality" />
		<tag k="ssr:stedsnr" v="272154" />
	</node>
	<node lat="60.21906388967256" lon="9.224641669945298" id="-16703">
		<tag k="fixme" v="consider natural=peak for the most distinct mountains in the district" />
		<tag k="name" v="Snipnatten" />
		<tag k="natural" v="hill" />
		<tag k="place" v="locality" />
		<tag k="ssr:stedsnr" v="489304" />
	</node>
	<node lat="59.98370555339106" lon="9.576886105520654" id="-16705">
		<tag k="fixme" v="consider natural=peak for the most distinct mountains in the district" />
		<tag k="name" v="Laukliåsen" />
		<tag k="natural" v="hill" />
		<tag k="place" v="locality" />
		<tag k="ssr:stedsnr" v="489337" />
	</node>
	<node lat="60.23110277574893" lon="9.479183339313266" id="-16710">
		<tag k="fixme" v="consider natural=peak for the most distinct mountains in the district" />
		<tag k="name" v="Gvitsteinåsen" />
		<tag k="natural" v="hill" />
		<tag k="place" v="locality" />
		<tag k="ssr:stedsnr" v="489292" />
	</node>
	<node lat="59.975119440387424" lon="9.78423332668635" id="-16713">
		<tag k="fixme" v="consider natural=peak for the most distinct mountains in the district" />
		<tag k="name" v="Tresåsen" />
		<tag k="natural" v="hill" />
		<tag k="place" v="locality" />
		<tag k="ssr:stedsnr" v="489804" />
	</node>
	<node lat="60.15031110752354" lon="9.373197216136507" id="-16720">
		<tag k="fixme" v="consider natural=peak for the most distinct mountains in the district" />
		<tag k="name" v="Tollevnatten" />
		<tag k="natural" v="hill" />
		<tag k="place" v="locality" />
		<tag k="ssr:stedsnr" v="490395" />
	</node>
	<node lat="60.31209999683321" lon="9.32280000163441" id="-16721">
		<tag k="fixme" v="consider natural=peak for the most distinct mountains in the district" />
		<tag k="name" v="Langevassåsen" />
		<tag k="natural" v="hill" />
		<tag k="place" v="locality" />
		<tag k="ssr:stedsnr" v="491035" />
	</node>
	<node lat="60.29847499580643" lon="9.383049998379771" id="-16723">
		<tag k="name" v="Neverfanten" />
		<tag k="natural" v="hill" />
		<tag k="place" v="locality" />
		<tag k="ssr:stedsnr" v="491082" />
	</node>
	<node lat="60.3369999975629" lon="9.312625007636479" id="-16725">
		<tag k="fixme" v="consider natural=peak for the most distinct mountains in the district" />
		<tag k="name" v="Toveåsen" />
		<tag k="natural" v="hill" />
		<tag k="place" v="locality" />
		<tag k="ssr:stedsnr" v="492010" />
	</node>
	<node lat="60.265166666594595" lon="9.26726388311049" id="-16731">
		<tag k="name" v="Greipetangen" />
		<tag k="place" v="locality" />
		<tag k="ssr:stedsnr" v="272830" />
	</node>
	<node lat="60.13789444095688" lon="9.286383339558338" id="-16735">
		<tag k="name" v="Rolihøl" />
		<tag k="natural" v="valley" />
		<tag k="place" v="locality" />
		<tag k="ssr:stedsnr" v="272359" />
	</node>
	<node lat="60.2929638907457" lon="9.234286105697386" id="-16738">
		<tag k="fixme" v="consider natural=peak for the most distinct mountains in the district" />
		<tag k="name" v="Sagåsen" />
		<tag k="natural" v="hill" />
		<tag k="place" v="locality" />
		<tag k="ssr:stedsnr" v="515106" />
	</node>
	<node lat="60.262391668462655" lon="9.368936113161729" id="-16740">
		<tag k="name" v="Haugan" />
		<tag k="natural" v="hill" />
		<tag k="place" v="locality" />
		<tag k="ssr:stedsnr" v="515408" />
	</node>
	<node lat="60.14230555831656" lon="9.451997221472448" id="-16751">
		<tag k="name" v="Taleshaugen" />
		<tag k="natural" v="hill" />
		<tag k="place" v="locality" />
		<tag k="ssr:stedsnr" v="516216" />
	</node>
	<node lat="60.229700001907474" lon="9.49620555352382" id="-16754">
		<tag k="name" v="Lauvhogget" />
		<tag k="natural" v="slope" />
		<tag k="place" v="locality" />
		<tag k="ssr:stedsnr" v="516515" />
	</node>
	<node lat="60.12079166450353" lon="9.519966670283932" id="-16756">
		<tag k="name" v="Klemma" />
		<tag k="natural" v="valley" />
		<tag k="place" v="locality" />
		<tag k="ssr:stedsnr" v="516478" />
	</node>
	<node lat="59.970927780847454" lon="9.680413887868044" id="-16757">
		<tag k="name" v="Løsløkdæla" />
		<tag k="natural" v="valley" />
		<tag k="place" v="locality" />
		<tag k="ssr:stedsnr" v="516480" />
	</node>
	<node lat="60.298738892842" lon="9.282797219656869" id="-16759">
		<tag k="fixme" v="consider natural=peak for the most distinct mountains in the district" />
		<tag k="name" v="Sangarberg" />
		<tag k="natural" v="hill" />
		<tag k="place" v="locality" />
		<tag k="ssr:stedsnr" v="516623" />
	</node>
	<node lat="59.99397221946245" lon="9.607027780642701" id="-16765">
		<tag k="name" v="Hæljelundbakken" />
		<tag k="natural" v="slope" />
		<tag k="place" v="locality" />
		<tag k="ssr:stedsnr" v="517012" />
	</node>
	<node lat="59.963197219409004" lon="9.71578333876995" id="-16768">
		<tag k="name" v="Hælfaret" />
		<tag k="place" v="locality" />
		<tag k="ssr:stedsnr" v="517405" />
	</node>
	<node lat="60.14890833460772" lon="9.49945278622799" id="-16769">
		<tag k="fixme" v="consider natural=peak for the most distinct mountains in the district" />
		<tag k="name" v="Mastemyråsen" />
		<tag k="natural" v="hill" />
		<tag k="place" v="locality" />
		<tag k="ssr:stedsnr" v="517411" />
	</node>
	<node lat="59.99481944202403" lon="9.823847217521601" id="-16779">
		<tag k="name" v="Tjuvodden" />
		<tag k="natural" v="hill" />
		<tag k="place" v="locality" />
		<tag k="ssr:stedsnr" v="517838" />
	</node>
	<node lat="59.98662499714858" lon="9.821363887296261" id="-16780">
		<tag k="fixme" v="consider natural=peak for the most distinct mountains in the district" />
		<tag k="name" v="Hestemyråsen" />
		<tag k="natural" v="hill" />
		<tag k="place" v="locality" />
		<tag k="ssr:stedsnr" v="517841" />
	</node>
	<node lat="60.07000833734118" lon="9.753283329079851" id="-16781">
		<tag k="alt_name" v="Tjernsdæla" />
		<tag k="name" v="Tjennsdæla" />
		<tag k="natural" v="valley" />
		<tag k="place" v="locality" />
		<tag k="ssr:stedsnr" v="517920" />
	</node>
	<node lat="60.06689166996723" lon="9.759355559365623" id="-16782">
		<tag k="name" v="Mikkelshøla" />
		<tag k="natural" v="valley" />
		<tag k="place" v="locality" />
		<tag k="ssr:stedsnr" v="517921" />
	</node>
	<node lat="60.03223333518052" lon="9.718169437561787" id="-16783">
		<tag k="name" v="Høgås" />
		<tag k="natural" v="ridge" />
		<tag k="place" v="locality" />
		<tag k="ssr:stedsnr" v="517980" />
	</node>
	<node lat="60.09693055781483" lon="9.553647224702763" id="-16786">
		<tag k="name" v="Klemmeåsen" />
		<tag k="natural" v="slope" />
		<tag k="place" v="locality" />
		<tag k="ssr:stedsnr" v="518341" />
	</node>
	<node lat="59.97467499897535" lon="9.809330555701967" id="-16788">
		<tag k="fixme" v="consider natural=peak for the most distinct mountains in the district" />
		<tag k="name" v="Brennbråtaåsen" />
		<tag k="natural" v="hill" />
		<tag k="place" v="locality" />
		<tag k="ssr:stedsnr" v="518630" />
	</node>
	<node lat="60.125469441725876" lon="9.570411119038786" id="-16789">
		<tag k="name" v="Siljuåsulin" />
		<tag k="natural" v="slope" />
		<tag k="place" v="locality" />
		<tag k="ssr:stedsnr" v="518508" />
	</node>
	<node lat="60.014819443703956" lon="9.752872230081135" id="-16793">
		<tag k="name" v="Hagamoen" />
		<tag k="place" v="locality" />
		<tag k="ssr:stedsnr" v="518768" />
	</node>
	<node lat="60.01991944303122" lon="9.770638891545124" id="-16800">
		<tag k="name" v="Djupedal" />
		<tag k="natural" v="valley" />
		<tag k="place" v="locality" />
		<tag k="ssr:stedsnr" v="518965" />
	</node>
	<node lat="60.01970833266907" lon="9.762450005966615" id="-16801">
		<tag k="fixme" v="consider natural=peak for the most distinct mountains in the district" />
		<tag k="name" v="Flååsen" />
		<tag k="natural" v="hill" />
		<tag k="place" v="locality" />
		<tag k="ssr:stedsnr" v="518969" />
	</node>
	<node lat="60.01066389209196" lon="9.76923888122967" id="-16802">
		<tag k="name" v="Pipekleiv" />
		<tag k="natural" v="slope" />
		<tag k="place" v="locality" />
		<tag k="ssr:stedsnr" v="518980" />
	</node>
	<node lat="60.00814444675893" lon="9.76932778250398" id="-16803">
		<tag k="name" v="Åsen" />
		<tag k="natural" v="hill" />
		<tag k="place" v="locality" />
		<tag k="ssr:stedsnr" v="518981" />
	</node>
	<node lat="60.129586110683945" lon="9.402986104170385" id="-16807">
		<tag k="name" v="Liugrana" />
		<tag k="place" v="locality" />
		<tag k="ssr:stedsnr" v="758083" />
	</node>
	<node lat="60.04844166401235" lon="9.587849992730048" id="-16813">
		<tag k="fixme" v="consider natural=peak for the most distinct mountains in the district" />
		<tag k="name" v="Høgås" />
		<tag k="natural" v="hill" />
		<tag k="place" v="locality" />
		<tag k="ssr:stedsnr" v="550070" />
	</node>
	<node lat="60.09495277759002" lon="9.704294439820492" id="-16816">
		<tag k="name" v="Vardhaugtoppen" />
		<tag k="natural" v="hill" />
		<tag k="place" v="locality" />
		<tag k="ssr:stedsnr" v="550844" />
	</node>
	<node lat="59.97981944361924" lon="9.644422219669886" id="-16818">
		<tag k="name" v="Eikjedalen" />
		<tag k="natural" v="valley" />
		<tag k="place" v="locality" />
		<tag k="ssr:stedsnr" v="550948" />
	</node>
	<node lat="60.07483691648387" lon="9.398987425891818" id="-16823">
		<tag k="fixme" v="consider natural=peak for the most distinct mountains in the district" />
		<tag k="name" v="Skjærsnatten" />
		<tag k="natural" v="hill" />
		<tag k="place" v="locality" />
		<tag k="ssr:stedsnr" v="551103" />
	</node>
	<node lat="60.30855555738578" lon="9.18298334145871" id="-16829">
		<tag k="fixme" v="consider natural=peak for the most distinct mountains in the district" />
		<tag k="name" v="Brennåsen" />
		<tag k="natural" v="hill" />
		<tag k="place" v="locality" />
		<tag k="ssr:stedsnr" v="552504" />
	</node>
	<node lat="60.35913610772774" lon="9.167527770657566" id="-16834">
		<tag k="fixme" v="consider natural=peak for the most distinct mountains in the district" />
		<tag k="name" v="Hammarnattane" />
		<tag k="natural" v="hill" />
		<tag k="place" v="locality" />
		<tag k="ssr:stedsnr" v="567207" />
	</node>
	<node lat="60.00972777977548" lon="9.427822223409983" id="-16836">
		<tag k="name" v="Lunnan" />
		<tag k="natural" v="slope" />
		<tag k="place" v="locality" />
		<tag k="ssr:stedsnr" v="693546" />
	</node>
	<node lat="60.31547777471688" lon="9.20656666086559" id="-16837">
		<tag k="name" v="Fekjanhaugen" />
		<tag k="natural" v="hill" />
		<tag k="place" v="locality" />
		<tag k="ssr:stedsnr" v="575062" />
	</node>
	<node lat="60.21656944653421" lon="9.27824999396298" id="-16846">
		<tag k="name" v="Heimseterlia" />
		<tag k="natural" v="slope" />
		<tag k="place" v="locality" />
		<tag k="ssr:stedsnr" v="575448" />
	</node>
	<node lat="60.28836666509703" lon="9.262227768745287" id="-16847">
		<tag k="name" v="Snåret" />
		<tag k="natural" v="slope" />
		<tag k="place" v="locality" />
		<tag k="ssr:stedsnr" v="575614" />
	</node>
	<node lat="60.17727221898682" lon="9.267691665282774" id="-16849">
		<tag k="name" v="Puttemønet" />
		<tag k="place" v="locality" />
		<tag k="ssr:stedsnr" v="575645" />
	</node>
	<node lat="60.156886114192474" lon="9.257044448092612" id="-16850">
		<tag k="fixme" v="consider natural=peak for the most distinct mountains in the district" />
		<tag k="name" v="Tjyruhjellhaugen" />
		<tag k="natural" v="hill" />
		<tag k="place" v="locality" />
		<tag k="ssr:stedsnr" v="575647" />
	</node>
	<node lat="60.27303610670069" lon="9.302244451239826" id="-16852">
		<tag k="name" v="Langeli" />
		<tag k="natural" v="slope" />
		<tag k="place" v="locality" />
		<tag k="ssr:stedsnr" v="575861" />
	</node>
	<node lat="60.139897225403566" lon="9.424163883977721" id="-16854">
		<tag k="name" v="Trolldalen" />
		<tag k="natural" v="valley" />
		<tag k="place" v="locality" />
		<tag k="ssr:stedsnr" v="576358" />
	</node>
	<node lat="60.14152778043345" lon="9.316444440859883" id="-16855">
		<tag k="name" v="Svimlingen" />
		<tag k="natural" v="valley" />
		<tag k="place" v="locality" />
		<tag k="ssr:stedsnr" v="576097" />
	</node>
	<node lat="60.12350000297218" lon="9.49041110639764" id="-16857">
		<tag k="name" v="Kastet" />
		<tag k="place" v="locality" />
		<tag k="ssr:stedsnr" v="576609" />
	</node>
	<node lat="60.17839722047224" lon="9.467816664527092" id="-16861">
		<tag k="name" v="Fuglenatten" />
		<tag k="natural" v="hill" />
		<tag k="place" v="locality" />
		<tag k="ssr:stedsnr" v="576708" />
	</node>
	<node lat="60.20688055612267" lon="9.389897223360212" id="-16863">
		<tag k="name" v="Store Nørsteng" />
		<tag k="natural" v="valley" />
		<tag k="place" v="locality" />
		<tag k="ssr:stedsnr" v="576905" />
	</node>
	<node lat="60.020033337085955" lon="9.613572227840363" id="-16872">
		<tag k="name" v="Kløvstein" />
		<tag k="natural" v="hill" />
		<tag k="place" v="locality" />
		<tag k="ssr:stedsnr" v="578211" />
	</node>
	<node lat="60.228369447271085" lon="9.426772228158185" id="-16875">
		<tag k="name" v="Kjølahovet" />
		<tag k="natural" v="hill" />
		<tag k="place" v="locality" />
		<tag k="ssr:stedsnr" v="577998" />
	</node>
	<node lat="60.01521388479117" lon="9.518600001144264" id="-16877">
		<tag k="name" v="Bratterud" />
		<tag k="natural" v="slope" />
		<tag k="place" v="locality" />
		<tag k="ssr:stedsnr" v="578105" />
	</node>
	<node lat="60.03635277919261" lon="9.550775002785663" id="-16883">
		<tag k="name" v="Larsbråtalia" />
		<tag k="natural" v="slope" />
		<tag k="place" v="locality" />
		<tag k="ssr:stedsnr" v="578404" />
	</node>
	<node lat="59.96383333692596" lon="9.78644443738288" id="-16884">
		<tag k="fixme" v="consider natural=peak for the most distinct mountains in the district" />
		<tag k="name" v="Strandåsen" />
		<tag k="natural" v="hill" />
		<tag k="place" v="locality" />
		<tag k="ssr:stedsnr" v="578409" />
	</node>
	<node lat="60.05895277973552" lon="9.690963894344407" id="-16892">
		<tag k="name" v="Klokkehaugen" />
		<tag k="natural" v="hill" />
		<tag k="place" v="locality" />
		<tag k="ssr:stedsnr" v="578933" />
	</node>
	<node lat="60.00648333155376" lon="9.785688881524829" id="-16897">
		<tag k="name" v="Steinporten" />
		<tag k="place" v="locality" />
		<tag k="ssr:stedsnr" v="578993" />
	</node>
	<node lat="60.29777777628038" lon="9.255930563419126" id="-16898">
		<tag k="name" v="Snipesprøtt" />
		<tag k="place" v="locality" />
		<tag k="ssr:stedsnr" v="697674" />
	</node>
	<node lat="60.27678889111309" lon="9.291469445818656" id="-16899">
		<tag k="name" v="Grånhølet" />
		<tag k="natural" v="valley" />
		<tag k="place" v="locality" />
		<tag k="ssr:stedsnr" v="696850" />
	</node>
	<node lat="60.31444444079806" lon="9.167763883017054" id="-16901">
		<tag k="name" v="Juvet" />
		<tag k="natural" v="gorge" />
		<tag k="ssr:stedsnr" v="697036" />
	</node>
	<node lat="60.299049999031624" lon="9.157877772227895" id="-16904">
		<tag k="name" v="Grefteskar" />
		<tag k="natural" v="valley" />
		<tag k="place" v="locality" />
		<tag k="ssr:stedsnr" v="697002" />
	</node>
	<node lat="60.29187499706123" lon="9.21453055676801" id="-16905">
		<tag k="fixme" v="consider natural=peak for the most distinct mountains in the district" />
		<tag k="name" v="Bjønnliåsen" />
		<tag k="natural" v="hill" />
		<tag k="place" v="locality" />
		<tag k="ssr:stedsnr" v="697051" />
	</node>
	<node lat="60.23403332984722" lon="9.24614166540238" id="-16906">
		<tag k="name" v="Smylibakken" />
		<tag k="natural" v="valley" />
		<tag k="place" v="locality" />
		<tag k="ssr:stedsnr" v="697124" />
	</node>
	<node lat="60.2513472192552" lon="9.209302770801797" id="-16909">
		<tag k="name" v="Lisleli" />
		<tag k="natural" v="slope" />
		<tag k="place" v="locality" />
		<tag k="ssr:stedsnr" v="697186" />
	</node>
	<node lat="60.35584999612717" lon="9.187286112859331" id="-16913">
		<tag k="name" v="Hamarberget" />
		<tag k="natural" v="ridge" />
		<tag k="place" v="locality" />
		<tag k="ssr:stedsnr" v="697194" />
	</node>
	<node lat="60.24830833373261" lon="9.374708333685447" id="-16914">
		<tag k="name" v="Jensgardshaugen" />
		<tag k="natural" v="hill" />
		<tag k="place" v="locality" />
		<tag k="ssr:stedsnr" v="697155" />
	</node>
	<node lat="60.25001388614175" lon="9.404630550932032" id="-16916">
		<tag k="name" v="Sjusjølia" />
		<tag k="natural" v="slope" />
		<tag k="place" v="locality" />
		<tag k="ssr:stedsnr" v="697163" />
	</node>
	<node lat="60.183469446283105" lon="9.219772217077065" id="-16917">
		<tag k="name" v="Langlitjennlia" />
		<tag k="natural" v="slope" />
		<tag k="place" v="locality" />
		<tag k="ssr:stedsnr" v="697228" />
	</node>
	<node lat="60.20259167011817" lon="9.27336388943812" id="-16918">
		<tag k="fixme" v="consider natural=peak for the most distinct mountains in the district" />
		<tag k="name" v="Skriutjennfjellet" />
		<tag k="natural" v="hill" />
		<tag k="place" v="locality" />
		<tag k="ssr:stedsnr" v="697490" />
	</node>
	<node lat="60.271199997518494" lon="9.358574993412706" id="-16919">
		<tag k="name" v="Flakaliåsen" />
		<tag k="natural" v="slope" />
		<tag k="place" v="locality" />
		<tag k="ssr:stedsnr" v="697433" />
	</node>
	<node lat="60.19128055257871" lon="9.306533340672424" id="-16924">
		<tag k="name" v="Skatjenndalen" />
		<tag k="natural" v="valley" />
		<tag k="place" v="locality" />
		<tag k="ssr:stedsnr" v="697643" />
	</node>
	<node lat="60.222233334482645" lon="9.504205555300452" id="-16925">
		<tag k="name" v="Solehøgda" />
		<tag k="natural" v="hill" />
		<tag k="place" v="locality" />
		<tag k="ssr:stedsnr" v="698486" />
	</node>
	<node lat="60.224644441419706" lon="9.364544448506143" id="-16927">
		<tag k="name" v="Djupendal" />
		<tag k="natural" v="valley" />
		<tag k="place" v="locality" />
		<tag k="ssr:stedsnr" v="697843" />
	</node>
	<node lat="60.24189721929501" lon="9.24714167391139" id="-16928">
		<tag k="name" v="Bjønnegjenga" />
		<tag k="natural" v="cliff" />
		<tag k="ssr:stedsnr" v="697845" />
	</node>
	<node lat="60.2216555561598" lon="9.32955833999368" id="-16929">
		<tag k="name" v="Vesleseteråsen" />
		<tag k="place" v="locality" />
		<tag k="ssr:stedsnr" v="697846" />
	</node>
	<node lat="60.24612777413249" lon="9.2618972270676" id="-16931">
		<tag k="fixme" v="consider natural=peak for the most distinct mountains in the district" />
		<tag k="name" v="Kodalsåsen" />
		<tag k="natural" v="hill" />
		<tag k="place" v="locality" />
		<tag k="ssr:stedsnr" v="697898" />
	</node>
	<node lat="60.13483055318633" lon="9.38130000849296" id="-16932">
		<tag k="name" v="Helgesetåsen" />
		<tag k="natural" v="ridge" />
		<tag k="place" v="locality" />
		<tag k="ssr:stedsnr" v="698056" />
	</node>
	<node lat="60.13053888902114" lon="9.378869443285364" id="-16933">
		<tag k="fixme" v="consider natural=peak for the most distinct mountains in the district" />
		<tag k="name" v="Bakås" />
		<tag k="natural" v="hill" />
		<tag k="place" v="locality" />
		<tag k="ssr:stedsnr" v="698059" />
	</node>
	<node lat="60.149455552801136" lon="9.314983332124553" id="-16939">
		<tag k="name" v="Værtjennhaugane" />
		<tag k="natural" v="hill" />
		<tag k="place" v="locality" />
		<tag k="ssr:stedsnr" v="698074" />
	</node>
	<node lat="60.1280555513941" lon="9.34414166436169" id="-16940">
		<tag k="name" v="Skarbekklia" />
		<tag k="natural" v="slope" />
		<tag k="place" v="locality" />
		<tag k="ssr:stedsnr" v="698078" />
	</node>
	<node lat="60.13071666429571" lon="9.416930557705363" id="-16942">
		<tag k="name" v="Køltehaugen" />
		<tag k="natural" v="hill" />
		<tag k="place" v="locality" />
		<tag k="ssr:stedsnr" v="698101" />
	</node>
	<node lat="60.11735277783793" lon="9.429194447969145" id="-16945">
		<tag k="name" v="Storgjenga" />
		<tag k="natural" v="valley" />
		<tag k="place" v="locality" />
		<tag k="ssr:stedsnr" v="698294" />
	</node>
	<node lat="60.061636107675334" lon="9.408533325428461" id="-16947">
		<tag k="fixme" v="consider natural=peak for the most distinct mountains in the district" />
		<tag k="name" v="Heimseterfjellet" />
		<tag k="natural" v="hill" />
		<tag k="place" v="locality" />
		<tag k="ssr:stedsnr" v="698299" />
	</node>
	<node lat="60.11658055920258" lon="9.482858339056431" id="-16948">
		<tag k="name" v="Oppsteget" />
		<tag k="natural" v="slope" />
		<tag k="place" v="locality" />
		<tag k="ssr:stedsnr" v="698434" />
	</node>
	<node lat="60.19127222019624" lon="9.42803889255108" id="-16951">
		<tag k="name" v="Soleåsane" />
		<tag k="natural" v="slope" />
		<tag k="place" v="locality" />
		<tag k="ssr:stedsnr" v="698639" />
	</node>
	<node lat="60.18523055969768" lon="9.4950500047324" id="-16952">
		<tag k="name" v="Lauvskausnaret" />
		<tag k="natural" v="slope" />
		<tag k="place" v="locality" />
		<tag k="ssr:stedsnr" v="698656" />
	</node>
	<node lat="60.0627749967868" lon="9.415697214738493" id="-16954">
		<tag k="name" v="Pikesprangnatten" />
		<tag k="natural" v="hill" />
		<tag k="place" v="locality" />
		<tag k="ssr:stedsnr" v="698950" />
	</node>
	<node lat="60.09883055173828" lon="9.423038886029348" id="-16956">
		<tag k="name" v="Kollen" />
		<tag k="natural" v="ridge" />
		<tag k="place" v="locality" />
		<tag k="ssr:stedsnr" v="699228" />
	</node>
	<node lat="60.1360666632315" lon="9.534977778044063" id="-16959">
		<tag k="name" v="Olasdokka" />
		<tag k="natural" v="slope" />
		<tag k="place" v="locality" />
		<tag k="ssr:stedsnr" v="699384" />
	</node>
	<node lat="60.06078055553901" lon="9.602258337753497" id="-16964">
		<tag k="name" v="Kjempeflata" />
		<tag k="place" v="locality" />
		<tag k="ssr:stedsnr" v="699731" />
	</node>
	<node lat="59.98925000338772" lon="9.586813894562336" id="-16971">
		<tag k="name" v="Snaret" />
		<tag k="place" v="locality" />
		<tag k="ssr:stedsnr" v="700133" />
	</node>
	<node lat="60.02961388520346" lon="9.559433340715392" id="-16976">
		<tag k="name" v="Bygginga" />
		<tag k="place" v="locality" />
		<tag k="ssr:stedsnr" v="700275" />
	</node>
	<node lat="60.21161666727953" lon="9.304541663622238" id="-16980">
		<tag k="name" v="Sulunatten" />
		<tag k="natural" v="hill" />
		<tag k="place" v="locality" />
		<tag k="ssr:stedsnr" v="272449" />
	</node>
	<node lat="60.09852222002337" lon="9.559127776424559" id="-16983">
		<tag k="name" v="Klemmedalen" />
		<tag k="natural" v="valley" />
		<tag k="place" v="locality" />
		<tag k="ssr:stedsnr" v="700352" />
	</node>
	<node lat="60.01488888842999" lon="9.80167778267626" id="-17000">
		<tag k="fixme" v="consider natural=peak for the most distinct mountains in the district" />
		<tag k="name" v="Byseteråsen" />
		<tag k="natural" v="hill" />
		<tag k="place" v="locality" />
		<tag k="ssr:stedsnr" v="700665" />
	</node>
	<node lat="59.97213055174769" lon="9.844588884646363" id="-17009">
		<tag k="name" v="Høkkleivåsen" />
		<tag k="natural" v="ridge" />
		<tag k="place" v="locality" />
		<tag k="ssr:stedsnr" v="700649" />
	</node>
	<node lat="60.14854444055042" lon="9.271136114474352" id="-17015">
		<tag k="fixme" v="consider natural=peak for the most distinct mountains in the district" />
		<tag k="name" v="Venlifjella" />
		<tag k="natural" v="hill" />
		<tag k="place" v="locality" />
		<tag k="ssr:stedsnr" v="611420" />
	</node>
	<node lat="60.0843999962862" lon="9.637619436384522" id="-17017">
		<tag k="name" v="Oksåsen" />
		<tag k="natural" v="hill" />
		<tag k="place" v="locality" />
		<tag k="ssr:stedsnr" v="611870" />
	</node>
	<node lat="60.056474998671696" lon="9.435213887841444" id="-17026">
		<tag k="name" v="Svarttjennlia" />
		<tag k="natural" v="slope" />
		<tag k="place" v="locality" />
		<tag k="ssr:stedsnr" v="700944" />
	</node>
	<node lat="60.061091669757104" lon="9.739647224797489" id="-17027">
		<tag k="name" v="Pettersolla" />
		<tag k="place" v="locality" />
		<tag k="ssr:stedsnr" v="700945" />
	</node>
	<node lat="60.105863888595486" lon="9.641633333895044" id="-17032">
		<tag k="name" v="Lyarnatten" />
		<tag k="natural" v="hill" />
		<tag k="place" v="locality" />
		<tag k="ssr:stedsnr" v="700909" />
	</node>
	<node lat="60.03668333767337" lon="9.68536111201462" id="-17034">
		<tag k="name" v="Vadsåsen" />
		<tag k="natural" v="hill" />
		<tag k="place" v="locality" />
		<tag k="ssr:stedsnr" v="700997" />
	</node>
	<node lat="60.243419443221086" lon="9.249058330806475" id="-17046">
		<tag k="fixme" v="consider natural=peak for the most distinct mountains in the district" />
		<tag k="name" v="Treåsen" />
		<tag k="natural" v="hill" />
		<tag k="place" v="locality" />
		<tag k="ssr:stedsnr" v="636193" />
	</node>
	<node lat="60.18181388937217" lon="9.245502786794482" id="-17047">
		<tag k="fixme" v="consider natural=peak for the most distinct mountains in the district" />
		<tag k="name" v="Bonkeliåsen" />
		<tag k="natural" v="hill" />
		<tag k="place" v="locality" />
		<tag k="ssr:stedsnr" v="636196" />
	</node>
	<node lat="60.272811115022066" lon="9.414211118097983" id="-17049">
		<tag k="name" v="Saueåsen" />
		<tag k="natural" v="slope" />
		<tag k="place" v="locality" />
		<tag k="ssr:stedsnr" v="636415" />
	</node>
	<node lat="60.26262500012645" lon="9.356641660403712" id="-17050">
		<tag k="name" v="Kvernhusjuvet" />
		<tag k="natural" v="gorge" />
		<tag k="ssr:stedsnr" v="636428" />
	</node>
	<node lat="60.15608333496913" lon="9.281694439825596" id="-17052">
		<tag k="name" v="Delesnatten" />
		<tag k="natural" v="hill" />
		<tag k="place" v="locality" />
		<tag k="ssr:stedsnr" v="636687" />
	</node>
	<node lat="60.268144441604264" lon="9.213063888843315" id="-17054">
		<tag k="name" v="Toskar" />
		<tag k="natural" v="valley" />
		<tag k="place" v="locality" />
		<tag k="ssr:stedsnr" v="636803" />
	</node>
	<node lat="60.22728333222803" lon="9.32717500645006" id="-17055">
		<tag k="name" v="Kultrudhaugan" />
		<tag k="natural" v="hill" />
		<tag k="place" v="locality" />
		<tag k="ssr:stedsnr" v="636832" />
	</node>
	<node lat="60.27148888517811" lon="9.321972216195837" id="-17057">
		<tag k="name" v="Helgeskar" />
		<tag k="natural" v="valley" />
		<tag k="place" v="locality" />
		<tag k="ssr:stedsnr" v="636703" />
	</node>
	<node lat="60.218827778002606" lon="9.315711119944053" id="-17059">
		<tag k="name" v="Mellom-Koren" />
		<tag k="place" v="locality" />
		<tag k="ssr:stedsnr" v="636927" />
	</node>
	<node lat="60.126397226467645" lon="9.456880560905994" id="-17062">
		<tag k="name" v="Komdæla" />
		<tag k="natural" v="valley" />
		<tag k="place" v="locality" />
		<tag k="ssr:stedsnr" v="637413" />
	</node>
	<node lat="60.123027779489995" lon="9.425452786639205" id="-17063">
		<tag k="name" v="Svarteberggjenga" />
		<tag k="natural" v="valley" />
		<tag k="place" v="locality" />
		<tag k="ssr:stedsnr" v="637432" />
	</node>
	<node lat="60.15907221825748" lon="9.42800000587265" id="-17064">
		<tag k="name" v="Gåseberg" />
		<tag k="natural" v="hill" />
		<tag k="place" v="locality" />
		<tag k="ssr:stedsnr" v="637725" />
	</node>
	<node lat="60.07466110765167" lon="9.390827773957106" id="-17067">
		<tag k="name" v="Dugurdmålnatten" />
		<tag k="natural" v="hill" />
		<tag k="place" v="locality" />
		<tag k="ssr:stedsnr" v="637918" />
	</node>
	<node lat="60.08338333679399" lon="9.398405554227338" id="-17068">
		<tag k="name" v="Borofjellia" />
		<tag k="natural" v="slope" />
		<tag k="place" v="locality" />
		<tag k="ssr:stedsnr" v="637935" />
	</node>
	<node lat="60.02038055689407" lon="9.619783329280928" id="-17071">
		<tag k="name" v="Heistupet" />
		<tag k="natural" v="slope" />
		<tag k="place" v="locality" />
		<tag k="ssr:stedsnr" v="638205" />
	</node>
	<node lat="59.95523055119302" lon="9.609116674457391" id="-17072">
		<tag k="name" v="Steinvad" />
		<tag k="place" v="locality" />
		<tag k="ssr:stedsnr" v="638403" />
	</node>
	<node lat="59.96953610778947" lon="9.79686666018585" id="-17074">
		<tag k="fixme" v="consider natural=peak for the most distinct mountains in the district" />
		<tag k="name" v="Brennåsen" />
		<tag k="natural" v="hill" />
		<tag k="place" v="locality" />
		<tag k="ssr:stedsnr" v="638377" />
	</node>
	<node lat="60.04894444167061" lon="9.664658325797195" id="-17077">
		<tag k="fixme" v="consider natural=peak for the most distinct mountains in the district" />
		<tag k="name" v="Kluftefuruåsen" />
		<tag k="natural" v="hill" />
		<tag k="old_name" v="Klufterudåsen" />
		<tag k="place" v="locality" />
		<tag k="ssr:stedsnr" v="638614" />
	</node>
	<node lat="59.96750555469821" lon="9.838500001124652" id="-17078">
		<tag k="name" v="Brennkollen" />
		<tag k="natural" v="hill" />
		<tag k="place" v="locality" />
		<tag k="ssr:stedsnr" v="638631" />
	</node>
	<node lat="60.03723610775721" lon="9.739816664555345" id="-17086">
		<tag k="name" v="Helvetesbakken" />
		<tag k="natural" v="slope" />
		<tag k="place" v="locality" />
		<tag k="ssr:stedsnr" v="638979" />
	</node>
	<node lat="60.026950002280756" lon="9.702186117604123" id="-17087">
		<tag k="fixme" v="consider natural=peak for the most distinct mountains in the district" />
		<tag k="name" v="Kramstadåsen" />
		<tag k="natural" v="hill" />
		<tag k="place" v="locality" />
		<tag k="ssr:stedsnr" v="638985" />
	</node>
	<node lat="60.09698333326276" lon="9.696825002399764" id="-17094">
		<tag k="name" v="Vardhaugane" />
		<tag k="natural" v="hill" />
		<tag k="place" v="locality" />
		<tag k="ssr:stedsnr" v="638894" />
	</node>
	<node lat="59.99313055505093" lon="9.493188890558228" id="-17096">
		<tag k="name" v="Mellomgardsmarka" />
		<tag k="natural" v="slope" />
		<tag k="place" v="locality" />
		<tag k="ssr:stedsnr" v="639084" />
	</node>
	<node lat="60.04713610821087" lon="9.511199991424464" id="-17097">
		<tag k="name" v="Nysnaret" />
		<tag k="place" v="locality" />
		<tag k="ssr:stedsnr" v="639223" />
	</node>
	<node lat="60.08580833125036" lon="9.614275002050567" id="-17102">
		<tag k="name" v="Sigridåsen" />
		<tag k="natural" v="ridge" />
		<tag k="place" v="locality" />
		<tag k="ssr:stedsnr" v="639425" />
	</node>
	<node lat="60.080138887474384" lon="9.492216660297077" id="-17109">
		<tag k="name" v="Småtta" />
		<tag k="natural" v="slope" />
		<tag k="place" v="locality" />
		<tag k="ssr:stedsnr" v="639927" />
	</node>
	<node lat="60.01043889340586" lon="9.589008325264762" id="-17116">
		<tag k="name" v="Hestokken" />
		<tag k="natural" v="hill" />
		<tag k="place" v="locality" />
		<tag k="ssr:stedsnr" v="672023" />
	</node>
	<node lat="60.21651388758177" lon="9.197191672975295" id="-17128">
		<tag k="fixme" v="multiple name tags, choose one and add the other to alt_name; consider natural=peak for the most distinct mountains in the district" />
		<tag k="name" v="Vatnelifjella;Vatnelifjellet" />
		<tag k="natural" v="hill" />
		<tag k="place" v="locality" />
		<tag k="ssr:stedsnr" v="672905" />
	</node>
	<node lat="60.084411112303705" lon="9.633855555015513" id="-17130">
		<tag k="name" v="Kastet" />
		<tag k="place" v="locality" />
		<tag k="ssr:stedsnr" v="672860" />
	</node>
	<node lat="60.295777781213104" lon="9.336800008207199" id="-17131">
		<tag k="fixme" v="consider natural=peak for the most distinct mountains in the district" />
		<tag k="name" v="Holmevassnatten" />
		<tag k="natural" v="hill" />
		<tag k="place" v="locality" />
		<tag k="ssr:stedsnr" v="673101" />
	</node>
	<node lat="60.307147221170844" lon="9.17328889726646" id="-17132">
		<tag k="fixme" v="consider natural=peak for the most distinct mountains in the district" />
		<tag k="name" v="Skriunatten" />
		<tag k="natural" v="hill" />
		<tag k="place" v="locality" />
		<tag k="ssr:stedsnr" v="673468" />
	</node>
	<node lat="60.299049999031624" lon="9.157877772227895" id="-17133">
		<tag k="fixme" v="consider natural=peak for the most distinct mountains in the district" />
		<tag k="name" v="Stornatten" />
		<tag k="natural" v="hill" />
		<tag k="place" v="locality" />
		<tag k="ssr:stedsnr" v="673604" />
	</node>
	<node lat="60.14871110908049" lon="9.519663891079635" id="-17137">
		<tag k="name" v="Brannflata" />
		<tag k="place" v="locality" />
		<tag k="ssr:stedsnr" v="941407" />
	</node>
	<node lat="60.07430567743258" lon="9.396244354797771" id="-17138">
		<tag k="name" v="Kisneskard" />
		<tag k="natural" v="valley" />
		<tag k="place" v="locality" />
		<tag k="ssr:stedsnr" v="690132" />
	</node>
	<node lat="60.21015555317778" lon="9.222449993352999" id="-17142">
		<tag k="fixme" v="consider natural=peak for the most distinct mountains in the district" />
		<tag k="name" v="Stornatten" />
		<tag k="natural" v="hill" />
		<tag k="place" v="locality" />
		<tag k="ssr:stedsnr" v="697075" />
	</node>
	<node lat="60.30666110665354" lon="9.215355557033309" id="-17144">
		<tag k="fixme" v="consider natural=peak for the most distinct mountains in the district" />
		<tag k="name" v="Steinmyråsen" />
		<tag k="natural" v="hill" />
		<tag k="place" v="locality" />
		<tag k="ssr:stedsnr" v="697086" />
	</node>
	<node lat="60.14184166815454" lon="9.283916660186181" id="-17147">
		<tag k="name" v="Tverrhøgget" />
		<tag k="natural" v="cliff" />
		<tag k="ssr:stedsnr" v="697376" />
	</node>
	<node lat="60.133644446880155" lon="9.272141666853054" id="-17148">
		<tag k="name" v="Briskelåghøgda" />
		<tag k="natural" v="hill" />
		<tag k="place" v="locality" />
		<tag k="ssr:stedsnr" v="697377" />
	</node>
	<node lat="60.30115277441464" lon="9.300244452531889" id="-17151">
		<tag k="name" v="Tverrliskar" />
		<tag k="natural" v="valley" />
		<tag k="place" v="locality" />
		<tag k="ssr:stedsnr" v="697596" />
	</node>
	<node lat="60.1927388886681" lon="9.415030560256866" id="-17152">
		<tag k="fixme" v="consider natural=peak for the most distinct mountains in the district" />
		<tag k="name" v="Soleåsane" />
		<tag k="natural" v="hill" />
		<tag k="place" v="locality" />
		<tag k="ssr:stedsnr" v="697718" />
	</node>
	<node lat="60.26566666957269" lon="9.30102778197817" id="-17154">
		<tag k="name" v="Kleivan" />
		<tag k="natural" v="gorge" />
		<tag k="ssr:stedsnr" v="697879" />
	</node>
	<node lat="60.26293055734781" lon="9.303319439397205" id="-17155">
		<tag k="name" v="Petterbråtalia" />
		<tag k="natural" v="slope" />
		<tag k="place" v="locality" />
		<tag k="ssr:stedsnr" v="697886" />
	</node>
	<node lat="60.196894445614504" lon="9.318952771532242" id="-17156">
		<tag k="name" v="Putt" />
		<tag k="natural" v="hill" />
		<tag k="place" v="locality" />
		<tag k="ssr:stedsnr" v="697918" />
	</node>
	<node lat="60.115294440690946" lon="9.42294444997683" id="-17157">
		<tag k="name" v="Natteflaget" />
		<tag k="place" v="locality" />
		<tag k="ssr:stedsnr" v="698280" />
	</node>
	<node lat="60.11228333528136" lon="9.426588896288413" id="-17158">
		<tag k="name" v="Aksla" />
		<tag k="natural" v="hill" />
		<tag k="place" v="locality" />
		<tag k="ssr:stedsnr" v="698284" />
	</node>
	<node lat="60.10026944242355" lon="9.509663886460132" id="-17159">
		<tag k="name" v="Mokollen" />
		<tag k="natural" v="hill" />
		<tag k="place" v="locality" />
		<tag k="ssr:stedsnr" v="698405" />
	</node>
	<node lat="60.06231111375589" lon="9.402430560217152" id="-17160">
		<tag k="name" v="Sekstjenndalane" />
		<tag k="natural" v="valley" />
		<tag k="place" v="locality" />
		<tag k="ssr:stedsnr" v="698308" />
	</node>
	<node lat="60.06959999767263" lon="9.414058329550496" id="-17163">
		<tag k="name" v="Heimseterfjellet" />
		<tag k="natural" v="ridge" />
		<tag k="place" v="locality" />
		<tag k="ssr:stedsnr" v="698919" />
	</node>
	<node lat="60.072280556889474" lon="9.368302782704959" id="-17164">
		<tag k="name" v="Nattelia" />
		<tag k="natural" v="slope" />
		<tag k="place" v="locality" />
		<tag k="ssr:stedsnr" v="698922" />
	</node>
	<node lat="60.01607777518885" lon="9.642127779100706" id="-17166">
		<tag k="name" v="Grågaltlia" />
		<tag k="natural" v="slope" />
		<tag k="place" v="locality" />
		<tag k="ssr:stedsnr" v="699214" />
	</node>
	<node lat="60.158827781354724" lon="9.332661105246983" id="-17167">
		<tag k="name" v="Hengestein" />
		<tag k="natural" v="hill" />
		<tag k="place" v="locality" />
		<tag k="ssr:stedsnr" v="698976" />
	</node>
	<node lat="60.01227777370355" lon="9.660449992899967" id="-17168">
		<tag k="name" v="Helvete" />
		<tag k="natural" v="valley" />
		<tag k="place" v="locality" />
		<tag k="ssr:stedsnr" v="699112" />
	</node>
	<node lat="60.037958336194094" lon="9.669458338999064" id="-17170">
		<tag k="name" v="Rogneberg" />
		<tag k="natural" v="hill" />
		<tag k="place" v="locality" />
		<tag k="ssr:stedsnr" v="699571" />
	</node>
	<node lat="59.98733889186775" lon="9.609186114936275" id="-17172">
		<tag k="name" v="Skjæråsen" />
		<tag k="natural" v="ridge" />
		<tag k="place" v="locality" />
		<tag k="ssr:stedsnr" v="700012" />
	</node>
	<node lat="60.039724997760345" lon="9.473086114679612" id="-17177">
		<tag k="name" v="Haslonhaugen" />
		<tag k="natural" v="hill" />
		<tag k="place" v="locality" />
		<tag k="ssr:stedsnr" v="700171" />
	</node>
	<node lat="59.939649996384205" lon="9.693527774282655" id="-17180">
		<tag k="name" v="Berganlia" />
		<tag k="natural" v="slope" />
		<tag k="place" v="locality" />
		<tag k="ssr:stedsnr" v="700418" />
	</node>
	<node lat="59.97514722574749" lon="9.724572227475539" id="-17181">
		<tag k="fixme" v="consider natural=peak for the most distinct mountains in the district" />
		<tag k="name" v="Bråtaåsen" />
		<tag k="natural" v="hill" />
		<tag k="place" v="locality" />
		<tag k="ssr:stedsnr" v="700419" />
	</node>
	<node lat="59.99126666300852" lon="9.754475001439962" id="-17185">
		<tag k="name" v="Belbakkane" />
		<tag k="natural" v="slope" />
		<tag k="place" v="locality" />
		<tag k="ssr:stedsnr" v="700609" />
	</node>
	<node lat="60.101877773748356" lon="9.486938883642685" id="-17186">
		<tag k="name" v="Saltberget" />
		<tag k="natural" v="slope" />
		<tag k="place" v="locality" />
		<tag k="ssr:stedsnr" v="700615" />
	</node>
	<node lat="60.10357778140002" lon="9.491147221731906" id="-17187">
		<tag k="name" v="Brenna" />
		<tag k="place" v="locality" />
		<tag k="ssr:stedsnr" v="700616" />
	</node>
	<node lat="60.11046944683639" lon="9.603952774766661" id="-17191">
		<tag k="name" v="Øyvasslia" />
		<tag k="natural" v="slope" />
		<tag k="place" v="locality" />
		<tag k="ssr:stedsnr" v="700567" />
	</node>
	<node lat="60.09791388987073" lon="9.63080277830539" id="-17193">
		<tag k="name" v="Prestkjerringbakkane" />
		<tag k="natural" v="slope" />
		<tag k="place" v="locality" />
		<tag k="ssr:stedsnr" v="700871" />
	</node>
	<node lat="60.04129722534167" lon="9.714411109623946" id="-17197">
		<tag k="name" v="Bentås" />
		<tag k="natural" v="ridge" />
		<tag k="place" v="locality" />
		<tag k="ssr:stedsnr" v="700969" />
	</node>
	<node lat="60.03763888470125" lon="9.71943889657222" id="-17198">
		<tag k="name" v="Tjyruhjellbakkane" />
		<tag k="natural" v="slope" />
		<tag k="place" v="locality" />
		<tag k="ssr:stedsnr" v="700972" />
	</node>
	<node lat="60.06851944705542" lon="9.468641675172675" id="-17200">
		<tag k="name" v="Høgås" />
		<tag k="place" v="locality" />
		<tag k="ssr:stedsnr" v="700981" />
	</node>
	<node lat="60.17743333750498" lon="9.205980557159313" id="-17204">
		<tag k="name" v="Rolihøl" />
		<tag k="natural" v="valley" />
		<tag k="place" v="locality" />
		<tag k="ssr:stedsnr" v="732610" />
	</node>
	<node lat="60.04661110865836" lon="9.738050000513125" id="-17209">
		<tag k="name" v="Halvfardalen" />
		<tag k="natural" v="valley" />
		<tag k="place" v="locality" />
		<tag k="ssr:stedsnr" v="732923" />
	</node>
	<node lat="60.20554444105264" lon="9.235533329656025" id="-17223">
		<tag k="fixme" v="consider natural=peak for the most distinct mountains in the district" />
		<tag k="name" v="Stavalinatten" />
		<tag k="natural" v="hill" />
		<tag k="place" v="locality" />
		<tag k="ssr:stedsnr" v="733443" />
	</node>
	<node lat="60.19710000290384" lon="9.263824999575236" id="-17224">
		<tag k="fixme" v="consider natural=peak for the most distinct mountains in the district" />
		<tag k="name" v="Søtelifjellet" />
		<tag k="natural" v="hill" />
		<tag k="place" v="locality" />
		<tag k="ssr:stedsnr" v="733444" />
	</node>
	<node lat="60.10467777399024" lon="9.607925007017686" id="-17227">
		<tag k="fixme" v="consider natural=peak for the most distinct mountains in the district" />
		<tag k="name" v="Bjørketjennvarden" />
		<tag k="natural" v="hill" />
		<tag k="place" v="locality" />
		<tag k="ssr:stedsnr" v="733809" />
	</node>
	<node lat="60.31341944697935" lon="9.285361113098313" id="-17230">
		<tag k="name" v="Kvelvsanatten" />
		<tag k="natural" v="hill" />
		<tag k="place" v="locality" />
		<tag k="ssr:stedsnr" v="734034" />
	</node>
	<node lat="60.253161109780166" lon="9.213174996047886" id="-17235">
		<tag k="fixme" v="consider natural=peak for the most distinct mountains in the district" />
		<tag k="name" v="Elgtjennåsen" />
		<tag k="natural" v="hill" />
		<tag k="place" v="locality" />
		<tag k="ssr:stedsnr" v="734346" />
	</node>
	<node lat="60.21868611025585" lon="9.245869442197673" id="-17241">
		<tag k="name" v="Seterdalen" />
		<tag k="natural" v="valley" />
		<tag k="place" v="locality" />
		<tag k="ssr:stedsnr" v="757003" />
	</node>
	<node lat="60.214633333296604" lon="9.205227779556443" id="-17242">
		<tag k="name" v="Trytetjennreset" />
		<tag k="natural" v="hill" />
		<tag k="place" v="locality" />
		<tag k="ssr:stedsnr" v="757001" />
	</node>
	<node lat="60.19214722635649" lon="9.224066672479195" id="-17244">
		<tag k="name" v="Dritarbakke" />
		<tag k="natural" v="slope" />
		<tag k="place" v="locality" />
		<tag k="ssr:stedsnr" v="757164" />
	</node>
	<node lat="60.18324999873004" lon="9.2073861151546" id="-17245">
		<tag k="fixme" v="consider natural=peak for the most distinct mountains in the district" />
		<tag k="name" v="Vestre Langlitjennåsen" />
		<tag k="natural" v="hill" />
		<tag k="place" v="locality" />
		<tag k="ssr:stedsnr" v="757200" />
	</node>
	<node lat="60.202413884887086" lon="9.289191670056484" id="-17248">
		<tag k="name" v="Rundekollen" />
		<tag k="natural" v="hill" />
		<tag k="place" v="locality" />
		<tag k="ssr:stedsnr" v="757396" />
	</node>
	<node lat="60.30148611086857" lon="9.194513888726807" id="-17250">
		<tag k="name" v="Øvre Annebudalen" />
		<tag k="natural" v="valley" />
		<tag k="place" v="locality" />
		<tag k="ssr:stedsnr" v="758003" />
	</node>
	<node lat="60.24227777334962" lon="9.198025006605956" id="-17252">
		<tag k="name" v="Kyrskar" />
		<tag k="natural" v="valley" />
		<tag k="place" v="locality" />
		<tag k="ssr:stedsnr" v="758204" />
	</node>
	<node lat="60.19386111477979" lon="9.386633324434564" id="-17257">
		<tag k="name" v="Ormeberg" />
		<tag k="natural" v="hill" />
		<tag k="place" v="locality" />
		<tag k="ssr:stedsnr" v="758745" />
	</node>
	<node lat="60.22573055422318" lon="9.334763889851384" id="-17262">
		<tag k="name" v="Store Uksehol" />
		<tag k="natural" v="valley" />
		<tag k="place" v="locality" />
		<tag k="ssr:stedsnr" v="758844" />
	</node>
	<node lat="60.11535833415167" lon="9.53483332970032" id="-17266">
		<tag k="name" v="Kastet" />
		<tag k="natural" v="slope" />
		<tag k="place" v="locality" />
		<tag k="ssr:stedsnr" v="759348" />
	</node>
	<node lat="60.194119444085516" lon="9.494947221923232" id="-17267">
		<tag k="name" v="Omlikollen" />
		<tag k="natural" v="hill" />
		<tag k="place" v="locality" />
		<tag k="ssr:stedsnr" v="759504" />
	</node>
	<node lat="60.02406666485387" lon="9.546397222658207" id="-17271">
		<tag k="name" v="Nedre Sauebakk" />
		<tag k="natural" v="slope" />
		<tag k="place" v="locality" />
		<tag k="ssr:stedsnr" v="760047" />
	</node>
	<node lat="60.03360833009191" lon="9.521666675478047" id="-17275">
		<tag k="name" v="Damhaugen" />
		<tag k="natural" v="hill" />
		<tag k="place" v="locality" />
		<tag k="ssr:stedsnr" v="760217" />
	</node>
	<node lat="60.039202774449016" lon="9.514986117400786" id="-17276">
		<tag k="name" v="Sulutjennlia" />
		<tag k="natural" v="slope" />
		<tag k="place" v="locality" />
		<tag k="ssr:stedsnr" v="760222" />
	</node>
	<node lat="59.972033336773535" lon="9.752155561604054" id="-17282">
		<tag k="name" v="Olasåsen" />
		<tag k="natural" v="hill" />
		<tag k="place" v="locality" />
		<tag k="ssr:stedsnr" v="760411" />
	</node>
	<node lat="59.95916944291573" lon="9.752208338239125" id="-17283">
		<tag k="name" v="Dælane" />
		<tag k="natural" v="valley" />
		<tag k="place" v="locality" />
		<tag k="ssr:stedsnr" v="760443" />
	</node>
	<node lat="60.09111944255081" lon="9.538269437549792" id="-17286">
		<tag k="name" v="Storstokkdalen" />
		<tag k="natural" v="valley" />
		<tag k="place" v="locality" />
		<tag k="ssr:stedsnr" v="760454" />
	</node>
	<node lat="59.984355559499875" lon="9.78040278651557" id="-17290">
		<tag k="fixme" v="consider natural=peak for the most distinct mountains in the district" />
		<tag k="name" v="Tresåsen" />
		<tag k="natural" v="hill" />
		<tag k="place" v="locality" />
		<tag k="ssr:stedsnr" v="760621" />
	</node>
	<node lat="60.13504722357795" lon="9.56831110585745" id="-17297">
		<tag k="name" v="Bjørnerudstykket" />
		<tag k="natural" v="slope" />
		<tag k="place" v="locality" />
		<tag k="ssr:stedsnr" v="760509" />
	</node>
	<node lat="60.05274166502957" lon="9.617538886213554" id="-17299">
		<tag k="name" v="Leitet" />
		<tag k="natural" v="hill" />
		<tag k="place" v="locality" />
		<tag k="ssr:stedsnr" v="760754" />
	</node>
	<node lat="60.09128611118683" lon="9.52835556260254" id="-17304">
		<tag k="name" v="Dammedalen" />
		<tag k="natural" v="valley" />
		<tag k="place" v="locality" />
		<tag k="ssr:stedsnr" v="760917" />
	</node>
	<node lat="60.08744722500045" lon="9.531205550118205" id="-17305">
		<tag k="name" v="Storstokkdalen" />
		<tag k="natural" v="valley" />
		<tag k="place" v="locality" />
		<tag k="ssr:stedsnr" v="760918" />
	</node>
	<node lat="60.04629722424499" lon="9.468222223721725" id="-17306">
		<tag k="name" v="Trolldalen" />
		<tag k="natural" v="valley" />
		<tag k="place" v="locality" />
		<tag k="ssr:stedsnr" v="760954" />
	</node>
	<node lat="59.984852773921915" lon="9.810430551505682" id="-17307">
		<tag k="alt_name" v="Damtjernåsen" />
		<tag k="name" v="Damtjennåsen" />
		<tag k="natural" v="ridge" />
		<tag k="place" v="locality" />
		<tag k="ssr:stedsnr" v="760806" />
	</node>
	<node lat="60.08232777836145" lon="9.423438885269006" id="-17308">
		<tag k="name" v="Langetjennhallen" />
		<tag k="natural" v="valley" />
		<tag k="place" v="locality" />
		<tag k="ssr:stedsnr" v="760896" />
	</node>
	<node lat="59.954877774733525" lon="9.675861110662797" id="-17344">
		<tag k="fixme" v="consider natural=peak for the most distinct mountains in the district" />
		<tag k="name" v="Berskauåsen" />
		<tag k="natural" v="hill" />
		<tag k="place" v="locality" />
		<tag k="ssr:stedsnr" v="914782" />
	</node>
	<node lat="60.04977500304367" lon="9.410411105721309" id="-17354">
		<tag k="fixme" v="consider natural=peak for the most distinct mountains in the district" />
		<tag k="name" v="Gudbrandseterfjellet" />
		<tag k="natural" v="hill" />
		<tag k="place" v="locality" />
		<tag k="ssr:stedsnr" v="915063" />
	</node>
	<node lat="60.096091666624595" lon="9.582005549974166" id="-17356">
		<tag k="fixme" v="consider natural=peak for the most distinct mountains in the district" />
		<tag k="name" v="Berganvarden" />
		<tag k="natural" v="hill" />
		<tag k="place" v="locality" />
		<tag k="ssr:stedsnr" v="915116" />
	</node>
	<node lat="60.056649996589364" lon="9.642294437109253" id="-17359">
		<tag k="name" v="Holmenåsen" />
		<tag k="natural" v="hill" />
		<tag k="place" v="locality" />
		<tag k="ssr:stedsnr" v="915884" />
	</node>
	<node lat="60.072191668431024" lon="9.663355553279796" id="-17360">
		<tag k="name" v="Haugannatten" />
		<tag k="natural" v="hill" />
		<tag k="place" v="locality" />
		<tag k="ssr:stedsnr" v="915886" />
	</node>
	<node lat="60.02648888674242" lon="9.642011112649271" id="-17369">
		<tag k="name" v="Lundsbråtaåsen" />
		<tag k="natural" v="hill" />
		<tag k="place" v="locality" />
		<tag k="ssr:stedsnr" v="915950" />
	</node>
	<node lat="60.30817499979628" lon="9.371399993575992" id="-17372">
		<tag k="fixme" v="consider natural=peak for the most distinct mountains in the district" />
		<tag k="name" v="Donkeliåsen" />
		<tag k="natural" v="hill" />
		<tag k="place" v="locality" />
		<tag k="ssr:stedsnr" v="916046" />
	</node>
	<node lat="60.31752777708544" lon="9.395947215493635" id="-17374">
		<tag k="fixme" v="consider natural=peak for the most distinct mountains in the district" />
		<tag k="name" v="Gråfjell" />
		<tag k="natural" v="hill" />
		<tag k="place" v="locality" />
		<tag k="ssr:stedsnr" v="917034" />
	</node>
	<node lat="60.268769446796405" lon="9.206272221834343" id="-17375">
		<tag k="fixme" v="consider natural=peak for the most distinct mountains in the district" />
		<tag k="name" v="Toskardfjellet" />
		<tag k="natural" v="hill" />
		<tag k="place" v="locality" />
		<tag k="ssr:stedsnr" v="917252" />
	</node>
	<node lat="60.09323055616776" lon="9.612786103346115" id="-17377">
		<tag k="name" v="Annetjennhaugen" />
		<tag k="natural" v="hill" />
		<tag k="place" v="locality" />
		<tag k="ssr:stedsnr" v="811350" />
	</node>
	<node lat="60.1255388907678" lon="9.484955557768227" id="-17383">
		<tag k="name" v="Sandbakk" />
		<tag k="natural" v="hill" />
		<tag k="place" v="locality" />
		<tag k="ssr:stedsnr" v="819622" />
	</node>
	<node lat="60.15498610910993" lon="9.410144440404412" id="-17384">
		<tag k="name" v="Ekornlia" />
		<tag k="natural" v="slope" />
		<tag k="place" v="locality" />
		<tag k="ssr:stedsnr" v="819669" />
	</node>
	<node lat="60.19092500090017" lon="9.332897218640943" id="-17385">
		<tag k="name" v="Donkeli" />
		<tag k="natural" v="slope" />
		<tag k="place" v="locality" />
		<tag k="ssr:stedsnr" v="819769" />
	</node>
	<node lat="60.21470833698027" lon="9.3607138832249" id="-17387">
		<tag k="name" v="Rønningen" />
		<tag k="natural" v="slope" />
		<tag k="place" v="locality" />
		<tag k="ssr:stedsnr" v="819886" />
	</node>
	<node lat="60.11578333261659" lon="9.447311113926467" id="-17392">
		<tag k="name" v="Liudæla" />
		<tag k="natural" v="valley" />
		<tag k="place" v="locality" />
		<tag k="ssr:stedsnr" v="820304" />
	</node>
	<node lat="60.234049997084824" lon="9.503541671101871" id="-17393">
		<tag k="name" v="Leppejuv" />
		<tag k="natural" v="gorge" />
		<tag k="ssr:stedsnr" v="820521" />
	</node>
	<node lat="59.99218055643397" lon="9.587213890791416" id="-17400">
		<tag k="name" v="Grasgjeila" />
		<tag k="place" v="locality" />
		<tag k="ssr:stedsnr" v="821103" />
	</node>
	<node lat="60.045911110301475" lon="9.515824996599482" id="-17401">
		<tag k="name" v="Hellerudflæa" />
		<tag k="natural" v="hill" />
		<tag k="place" v="locality" />
		<tag k="ssr:stedsnr" v="821171" />
	</node>
	<node lat="60.0470222218393" lon="9.501163888326094" id="-17402">
		<tag k="name" v="Gamlesnaret" />
		<tag k="place" v="locality" />
		<tag k="ssr:stedsnr" v="821173" />
	</node>
	<node lat="60.054952773426336" lon="9.502830556848927" id="-17403">
		<tag k="name" v="Veggesrudliane" />
		<tag k="natural" v="slope" />
		<tag k="place" v="locality" />
		<tag k="ssr:stedsnr" v="821174" />
	</node>
	<node lat="60.054616662940695" lon="9.514738896553443" id="-17404">
		<tag k="name" v="Lusåsen" />
		<tag k="natural" v="slope" />
		<tag k="place" v="locality" />
		<tag k="ssr:stedsnr" v="821177" />
	</node>
	<node lat="60.05426666515839" lon="9.448591670891844" id="-17405">
		<tag k="name" v="Hammaren" />
		<tag k="natural" v="ridge" />
		<tag k="place" v="locality" />
		<tag k="ssr:stedsnr" v="821188" />
	</node>
	<node lat="60.023913888992304" lon="9.508997218558969" id="-17406">
		<tag k="name" v="Stormyrlia" />
		<tag k="natural" v="slope" />
		<tag k="place" v="locality" />
		<tag k="ssr:stedsnr" v="821192" />
	</node>
	<node lat="60.026163889631576" lon="9.497466675098451" id="-17407">
		<tag k="name" v="Gohaug" />
		<tag k="natural" v="hill" />
		<tag k="place" v="locality" />
		<tag k="ssr:stedsnr" v="821194" />
	</node>
	<node lat="60.08632222130767" lon="9.467266666122965" id="-17408">
		<tag k="name" v="Båsumhaugen" />
		<tag k="natural" v="hill" />
		<tag k="place" v="locality" />
		<tag k="ssr:stedsnr" v="821322" />
	</node>
	<node lat="60.04702499926034" lon="9.644830562726746" id="-17414">
		<tag k="name" v="Haugandalen" />
		<tag k="natural" v="valley" />
		<tag k="place" v="locality" />
		<tag k="ssr:stedsnr" v="821485" />
	</node>
	<node lat="60.04889722542959" lon="9.754780557843471" id="-17420">
		<tag k="name" v="Fladda" />
		<tag k="place" v="locality" />
		<tag k="ssr:stedsnr" v="821809" />
	</node>
	<node lat="60.044580557610814" lon="9.698949996057483" id="-17421">
		<tag k="name" v="Kastbakken" />
		<tag k="natural" v="slope" />
		<tag k="place" v="locality" />
		<tag k="ssr:stedsnr" v="821813" />
	</node>
	<node lat="60.02850833235931" lon="9.68771666251419" id="-17422">
		<tag k="name" v="Eikjemoen" />
		<tag k="place" v="locality" />
		<tag k="ssr:stedsnr" v="821881" />
	</node>
	<node lat="60.03246666957655" lon="9.756697216375155" id="-17423">
		<tag k="name" v="Fugleleikåsen" />
		<tag k="natural" v="ridge" />
		<tag k="place" v="locality" />
		<tag k="ssr:stedsnr" v="821776" />
	</node>
	<node lat="59.977330554334216" lon="9.55512500469974" id="-17432">
		<tag k="fixme" v="consider natural=peak for the most distinct mountains in the district" />
		<tag k="name" v="Brennåsen" />
		<tag k="natural" v="hill" />
		<tag k="place" v="locality" />
		<tag k="ssr:stedsnr" v="853322" />
	</node>
	<node lat="59.97862499655773" lon="9.566399993440967" id="-17433">
		<tag k="fixme" v="consider natural=peak for the most distinct mountains in the district" />
		<tag k="name" v="Paradisåsen" />
		<tag k="natural" v="hill" />
		<tag k="place" v="locality" />
		<tag k="ssr:stedsnr" v="853325" />
	</node>
	<node lat="59.93932777435107" lon="9.698130557153345" id="-17446">
		<tag k="fixme" v="consider natural=peak for the most distinct mountains in the district" />
		<tag k="name" v="Kallstadtoppen" />
		<tag k="natural" v="hill" />
		<tag k="place" v="locality" />
		<tag k="ssr:stedsnr" v="854743" />
	</node>
	<node lat="59.978377779211094" lon="9.72163611992966" id="-17450">
		<tag k="fixme" v="consider natural=peak for the most distinct mountains in the district" />
		<tag k="name" v="Kvislekollen" />
		<tag k="natural" v="hill" />
		<tag k="place" v="locality" />
		<tag k="ssr:stedsnr" v="854940" />
	</node>
	<node lat="59.984113888438145" lon="9.710311103993217" id="-17451">
		<tag k="name" v="Geitekleiv" />
		<tag k="natural" v="slope" />
		<tag k="place" v="locality" />
		<tag k="ssr:stedsnr" v="854943" />
	</node>
	<node lat="59.98731944285213" lon="9.604813892059193" id="-17453">
		<tag k="fixme" v="consider natural=peak for the most distinct mountains in the district" />
		<tag k="name" v="Høgåsen" />
		<tag k="natural" v="hill" />
		<tag k="place" v="locality" />
		<tag k="ssr:stedsnr" v="854951" />
	</node>
	<node lat="60.334300000841225" lon="9.264499993574193" id="-17462">
		<tag k="name" v="Urdenatten" />
		<tag k="natural" v="hill" />
		<tag k="place" v="locality" />
		<tag k="ssr:stedsnr" v="856017" />
	</node>
	<node lat="60.27442500352103" lon="9.245600004134719" id="-17463">
		<tag k="fixme" v="consider natural=peak for the most distinct mountains in the district" />
		<tag k="name" v="Snaukollen" />
		<tag k="natural" v="hill" />
		<tag k="place" v="locality" />
		<tag k="ssr:stedsnr" v="856106" />
	</node>
	<node lat="60.322186108488104" lon="9.153019437786643" id="-17467">
		<tag k="name" v="Slokoskard" />
		<tag k="natural" v="valley" />
		<tag k="place" v="locality" />
		<tag k="ssr:stedsnr" v="856480" />
	</node>
	<node lat="60.26576666517612" lon="9.22982500136054" id="-17479">
		<tag k="name" v="Stusslendælan" />
		<tag k="natural" v="valley" />
		<tag k="place" v="locality" />
		<tag k="ssr:stedsnr" v="879812" />
	</node>
	<node lat="60.118633332995785" lon="9.499205554876388" id="-17488">
		<tag k="name" v="Stillinga" />
		<tag k="natural" v="valley" />
		<tag k="place" v="locality" />
		<tag k="ssr:stedsnr" v="880467" />
	</node>
	<node lat="60.18746110932874" lon="9.346549995880638" id="-17491">
		<tag k="name" v="Stigåsane" />
		<tag k="place" v="locality" />
		<tag k="ssr:stedsnr" v="880762" />
	</node>
	<node lat="60.20747222645609" lon="9.312019443085616" id="-17492">
		<tag k="fixme" v="consider natural=peak for the most distinct mountains in the district" />
		<tag k="name" v="Storliåsen" />
		<tag k="natural" v="hill" />
		<tag k="place" v="locality" />
		<tag k="ssr:stedsnr" v="880918" />
	</node>
	<node lat="60.237163889660195" lon="9.343613896241187" id="-17493">
		<tag k="name" v="Oreslettin" />
		<tag k="place" v="locality" />
		<tag k="ssr:stedsnr" v="880822" />
	</node>
	<node lat="60.22066388464637" lon="9.352697213380104" id="-17494">
		<tag k="name" v="Juvsåsen" />
		<tag k="place" v="locality" />
		<tag k="ssr:stedsnr" v="880854" />
	</node>
	<node lat="60.09920277789279" lon="9.363258328430387" id="-17497">
		<tag k="name" v="Grøsetkollen" />
		<tag k="natural" v="hill" />
		<tag k="place" v="locality" />
		<tag k="ssr:stedsnr" v="880955" />
	</node>
	<node lat="60.10735277430861" lon="9.36948888389914" id="-17498">
		<tag k="name" v="Skinnfellian" />
		<tag k="natural" v="slope" />
		<tag k="place" v="locality" />
		<tag k="ssr:stedsnr" v="880956" />
	</node>
	<node lat="59.96351666929951" lon="9.632919439115133" id="-17499">
		<tag k="fixme" v="consider natural=peak for the most distinct mountains in the district" />
		<tag k="name" v="Roåsen" />
		<tag k="natural" v="hill" />
		<tag k="place" v="locality" />
		<tag k="ssr:stedsnr" v="881455" />
	</node>
	<node lat="60.221755558840954" lon="9.482947214178097" id="-17500">
		<tag k="name" v="Skrikarlia" />
		<tag k="natural" v="slope" />
		<tag k="place" v="locality" />
		<tag k="ssr:stedsnr" v="881501" />
	</node>
	<node lat="60.21179444661986" lon="9.448352771108858" id="-17501">
		<tag k="name" v="Kviteberget" />
		<tag k="natural" v="hill" />
		<tag k="place" v="locality" />
		<tag k="ssr:stedsnr" v="881948" />
	</node>
	<node lat="60.19935833379061" lon="9.464130563087668" id="-17502">
		<tag k="name" v="Brattefosslia" />
		<tag k="natural" v="slope" />
		<tag k="place" v="locality" />
		<tag k="ssr:stedsnr" v="881949" />
	</node>
	<node lat="59.99279444783337" lon="9.614036115640802" id="-17503">
		<tag k="name" v="Raudåkroken" />
		<tag k="place" v="locality" />
		<tag k="ssr:stedsnr" v="882004" />
	</node>
	<node lat="59.980747223029155" lon="9.513986118345498" id="-17510">
		<tag k="name" v="Brattlanda" />
		<tag k="natural" v="slope" />
		<tag k="place" v="locality" />
		<tag k="ssr:stedsnr" v="882063" />
	</node>
	<node lat="60.10221111219014" lon="9.442830558991414" id="-17514">
		<tag k="name" v="Brattestig" />
		<tag k="natural" v="slope" />
		<tag k="place" v="locality" />
		<tag k="ssr:stedsnr" v="882320" />
	</node>
	<node lat="59.977905554641694" lon="9.710555549111534" id="-17516">
		<tag k="name" v="Bråtalikleiva" />
		<tag k="natural" v="slope" />
		<tag k="place" v="locality" />
		<tag k="ssr:stedsnr" v="882351" />
	</node>
	<node lat="60.111005559338636" lon="9.546372216824265" id="-17522">
		<tag k="name" v="Skrubbedælane" />
		<tag k="natural" v="valley" />
		<tag k="place" v="locality" />
		<tag k="ssr:stedsnr" v="882404" />
	</node>
	<node lat="59.93912222109033" lon="9.664416662164207" id="-17526">
		<tag k="name" v="Piperfjell" />
		<tag k="natural" v="hill" />
		<tag k="place" v="locality" />
		<tag k="ssr:stedsnr" v="882422" />
	</node>
	<node lat="60.063038885543754" lon="9.743072224567427" id="-17538">
		<tag k="name" v="Seterli" />
		<tag k="natural" v="slope" />
		<tag k="place" v="locality" />
		<tag k="ssr:stedsnr" v="882707" />
	</node>
	<node lat="59.990775000385604" lon="9.561799994512366" id="-17540">
		<tag k="name" v="Lindbuhøgda" />
		<tag k="natural" v="hill" />
		<tag k="place" v="locality" />
		<tag k="ssr:stedsnr" v="882651" />
	</node>
	<node lat="60.077036107833784" lon="9.457908339202618" id="-17544">
		<tag k="name" v="Kvennhusberga" />
		<tag k="natural" v="slope" />
		<tag k="place" v="locality" />
		<tag k="ssr:stedsnr" v="882961" />
	</node>
	<node lat="59.98306944793257" lon="9.787091672383012" id="-17551">
		<tag k="name" v="Puttdalen" />
		<tag k="natural" v="valley" />
		<tag k="place" v="locality" />
		<tag k="ssr:stedsnr" v="914804" />
	</node>
	<node lat="59.966966669013225" lon="9.618702770269502" id="-17553">
		<tag k="fixme" v="consider natural=peak for the most distinct mountains in the district" />
		<tag k="name" v="Vatnåskollen" />
		<tag k="natural" v="hill" />
		<tag k="place" v="locality" />
		<tag k="ssr:stedsnr" v="914811" />
	</node>
	<node lat="60.19221110927382" lon="9.323452777882421" id="-17560">
		<tag k="fixme" v="consider natural=peak for the most distinct mountains in the district" />
		<tag k="name" v="Trillefjell" />
		<tag k="natural" v="hill" />
		<tag k="old_name" v="Trille Fj." />
		<tag k="place" v="locality" />
		<tag k="ssr:stedsnr" v="915477" />
	</node>
	<node lat="60.11013888688528" lon="9.616225005010357" id="-17562">
		<tag k="fixme" v="consider natural=peak for the most distinct mountains in the district" />
		<tag k="name" v="Røvsåhøgda" />
		<tag k="natural" v="hill" />
		<tag k="place" v="locality" />
		<tag k="ssr:stedsnr" v="915817" />
	</node>
	<node lat="60.27827777541174" lon="9.380875005916755" id="-17565">
		<tag k="fixme" v="consider natural=peak for the most distinct mountains in the district" />
		<tag k="name" v="Urdenatten" />
		<tag k="natural" v="hill" />
		<tag k="place" v="locality" />
		<tag k="ssr:stedsnr" v="916079" />
	</node>
	<node lat="60.25621111377059" lon="9.453394447231998" id="-17572">
		<tag k="fixme" v="consider natural=peak for the most distinct mountains in the district" />
		<tag k="name" v="Kortetjennatten" />
		<tag k="natural" v="hill" />
		<tag k="place" v="locality" />
		<tag k="ssr:stedsnr" v="917910" />
	</node>
	<node lat="60.21981111408133" lon="9.239816663031608" id="-17573">
		<tag k="name" v="Grånhølet" />
		<tag k="natural" v="valley" />
		<tag k="place" v="locality" />
		<tag k="ssr:stedsnr" v="940109" />
	</node>
	<node lat="60.248227778965386" lon="9.32652777389629" id="-17574">
		<tag k="name" v="Hølet" />
		<tag k="natural" v="valley" />
		<tag k="place" v="locality" />
		<tag k="ssr:stedsnr" v="940110" />
	</node>
	<node lat="60.24493055843367" lon="9.271886104978142" id="-17576">
		<tag k="fixme" v="consider natural=peak for the most distinct mountains in the district" />
		<tag k="name" v="Båshagaåsen" />
		<tag k="natural" v="hill" />
		<tag k="place" v="locality" />
		<tag k="ssr:stedsnr" v="272870" />
	</node>
	<node lat="60.108341664783175" lon="9.345872223214878" id="-17595">
		<tag k="name" v="Langeli" />
		<tag k="natural" v="slope" />
		<tag k="place" v="locality" />
		<tag k="ssr:stedsnr" v="4377" />
	</node>
	<node lat="60.02105277338175" lon="9.797311109579129" id="-17600">
		<tag k="fixme" v="consider natural=peak for the most distinct mountains in the district" />
		<tag k="name" v="Delesteinåsen" />
		<tag k="natural" v="hill" />
		<tag k="place" v="locality" />
		<tag k="ssr:stedsnr" v="4952" />
	</node>
	<node lat="60.24704166974493" lon="9.396125000011835" id="-17605">
		<tag k="fixme" v="consider natural=peak for the most distinct mountains in the district" />
		<tag k="name" v="Bjørnåsen" />
		<tag k="natural" v="hill" />
		<tag k="place" v="locality" />
		<tag k="ssr:stedsnr" v="5291" />
	</node>
	<node lat="60.00671666604921" lon="9.583452772885758" id="-17611">
		<tag k="alt_name" v="Sæteråsen" />
		<tag k="fixme" v="consider natural=peak for the most distinct mountains in the district" />
		<tag k="name" v="Seteråsen" />
		<tag k="natural" v="hill" />
		<tag k="place" v="locality" />
		<tag k="ssr:stedsnr" v="5403" />
	</node>
	<node lat="60.16150000096951" lon="9.463838882942412" id="-17613">
		<tag k="fixme" v="consider natural=peak for the most distinct mountains in the district" />
		<tag k="name" v="Jonsrudåsen" />
		<tag k="natural" v="hill" />
		<tag k="place" v="locality" />
		<tag k="ssr:stedsnr" v="5448" />
	</node>
	<node lat="60.30204721824402" lon="9.282547214965845" id="-17618">
		<tag k="fixme" v="consider natural=peak for the most distinct mountains in the district" />
		<tag k="name" v="Langlifjellet" />
		<tag k="natural" v="hill" />
		<tag k="place" v="locality" />
		<tag k="ssr:stedsnr" v="6051" />
	</node>
	<node lat="60.2731277804019" lon="9.403574998414657" id="-17620">
		<tag k="fixme" v="consider natural=peak for the most distinct mountains in the district" />
		<tag k="name" v="Tempelnatten" />
		<tag k="natural" v="hill" />
		<tag k="place" v="locality" />
		<tag k="ssr:stedsnr" v="6129" />
	</node>
	<node lat="60.327355553901626" lon="9.149827784168878" id="-17622">
		<tag k="fixme" v="consider natural=peak for the most distinct mountains in the district" />
		<tag k="name" v="Haglebunatten" />
		<tag k="natural" v="hill" />
		<tag k="place" v="locality" />
		<tag k="ssr:stedsnr" v="6439" />
	</node>
	<node lat="60.26481111035219" lon="9.380191662413349" id="-17628">
		<tag k="name" v="Jellestein" />
		<tag k="place" v="locality" />
		<tag k="ssr:stedsnr" v="22148" />
	</node>
	<node lat="60.002049996282665" lon="9.686166668475375" id="-17630">
		<tag k="fixme" v="consider natural=peak for the most distinct mountains in the district" />
		<tag k="name" v="Kleivåsen" />
		<tag k="natural" v="hill" />
		<tag k="place" v="locality" />
		<tag k="ssr:stedsnr" v="24754" />
	</node>
	<node lat="60.097774998310626" lon="9.272458333403366" id="-17631">
		<tag k="name" v="Dyrenattane" />
		<tag k="natural" v="hill" />
		<tag k="place" v="locality" />
		<tag k="ssr:stedsnr" v="28395" />
	</node>
	<node lat="60.230683330543215" lon="9.272458327944463" id="-17632">
		<tag k="name" v="Meskarlia" />
		<tag k="natural" v="slope" />
		<tag k="place" v="locality" />
		<tag k="ssr:stedsnr" v="29050" />
	</node>
	<node lat="60.250913887007314" lon="9.20511944885084" id="-17637">
		<tag k="name" v="Geiteryggen" />
		<tag k="natural" v="ridge" />
		<tag k="place" v="locality" />
		<tag k="ssr:stedsnr" v="29175" />
	</node>
	<node lat="60.17720832897434" lon="9.214858340035175" id="-17638">
		<tag k="name" v="Renna" />
		<tag k="natural" v="valley" />
		<tag k="place" v="locality" />
		<tag k="ssr:stedsnr" v="29186" />
	</node>
	<node lat="60.1788916660718" lon="9.197780549774887" id="-17639">
		<tag k="name" v="Småtjenndalen" />
		<tag k="natural" v="valley" />
		<tag k="place" v="locality" />
		<tag k="ssr:stedsnr" v="29187" />
	</node>
	<node lat="60.24317500155957" lon="9.235674998393446" id="-17641">
		<tag k="fixme" v="consider natural=peak for the most distinct mountains in the district" />
		<tag k="name" v="Reiarkøsåsen" />
		<tag k="natural" v="hill" />
		<tag k="place" v="locality" />
		<tag k="ssr:stedsnr" v="29192" />
	</node>
	<node lat="60.15222222057759" lon="9.219958333100138" id="-17643">
		<tag k="name" v="Rydningssnaret" />
		<tag k="natural" v="slope" />
		<tag k="place" v="locality" />
		<tag k="ssr:stedsnr" v="29353" />
	</node>
	<node lat="60.24368055401507" lon="9.297744450367153" id="-17646">
		<tag k="name" v="Rolihøl" />
		<tag k="natural" v="valley" />
		<tag k="place" v="locality" />
		<tag k="ssr:stedsnr" v="29905" />
	</node>
	<node lat="60.32528055967573" lon="9.161416669841806" id="-17649">
		<tag k="name" v="Hesteryggen" />
		<tag k="natural" v="ridge" />
		<tag k="place" v="locality" />
		<tag k="ssr:stedsnr" v="30032" />
	</node>
	<node lat="60.28676388663877" lon="9.225483340818982" id="-17651">
		<tag k="name" v="Turteli" />
		<tag k="natural" v="slope" />
		<tag k="place" v="locality" />
		<tag k="ssr:stedsnr" v="30052" />
	</node>
	<node lat="60.28517778063763" lon="9.226491668669453" id="-17652">
		<tag k="name" v="Tømmerlia" />
		<tag k="natural" v="slope" />
		<tag k="place" v="locality" />
		<tag k="ssr:stedsnr" v="30053" />
	</node>
	<node lat="60.272766668561665" lon="9.244211106871916" id="-17653">
		<tag k="name" v="Styggedalen" />
		<tag k="natural" v="valley" />
		<tag k="place" v="locality" />
		<tag k="ssr:stedsnr" v="30837" />
	</node>
	<node lat="60.2467333368944" lon="9.421486103282302" id="-17657">
		<tag k="fixme" v="consider natural=peak for the most distinct mountains in the district" />
		<tag k="name" v="Øvre Sjusjøåsen" />
		<tag k="natural" v="hill" />
		<tag k="place" v="locality" />
		<tag k="ssr:stedsnr" v="30146" />
	</node>
	<node lat="60.29311388746623" lon="9.244433336381567" id="-17658">
		<tag k="name" v="Runnan" />
		<tag k="natural" v="slope" />
		<tag k="place" v="locality" />
		<tag k="ssr:stedsnr" v="30100" />
	</node>
	<node lat="60.26824999907578" lon="9.335863893729666" id="-17659">
		<tag k="name" v="Lauvhaugen" />
		<tag k="natural" v="hill" />
		<tag k="place" v="locality" />
		<tag k="ssr:stedsnr" v="30420" />
	</node>
	<node lat="60.27704722085603" lon="9.352980560456658" id="-17661">
		<tag k="fixme" v="consider natural=peak for the most distinct mountains in the district" />
		<tag k="name" v="Værtjennåsen" />
		<tag k="natural" v="hill" />
		<tag k="place" v="locality" />
		<tag k="ssr:stedsnr" v="30433" />
	</node>
	<node lat="60.27382777414969" lon="9.340416663131244" id="-17665">
		<tag k="name" v="Fleun" />
		<tag k="place" v="locality" />
		<tag k="ssr:stedsnr" v="30389" />
	</node>
	<node lat="60.16396666349865" lon="9.409647227792442" id="-17668">
		<tag k="name" v="Bjønnegjenga" />
		<tag k="natural" v="valley" />
		<tag k="place" v="locality" />
		<tag k="ssr:stedsnr" v="30652" />
	</node>
	<node lat="60.174372220348495" lon="9.419861115072452" id="-17669">
		<tag k="name" v="Åslia" />
		<tag k="natural" v="slope" />
		<tag k="place" v="locality" />
		<tag k="ssr:stedsnr" v="30739" />
	</node>
	<node lat="60.22609444772735" lon="9.316097221944581" id="-17672">
		<tag k="name" v="Dælalian" />
		<tag k="natural" v="slope" />
		<tag k="place" v="locality" />
		<tag k="ssr:stedsnr" v="30926" />
	</node>
	<node lat="60.158986114346035" lon="9.341833339598642" id="-17674">
		<tag k="name" v="Nybuskaret" />
		<tag k="natural" v="valley" />
		<tag k="place" v="locality" />
		<tag k="ssr:stedsnr" v="30990" />
	</node>
	<node lat="60.206580552392715" lon="9.403361114340841" id="-17675">
		<tag k="name" v="Brennun" />
		<tag k="natural" v="ridge" />
		<tag k="place" v="locality" />
		<tag k="ssr:stedsnr" v="30991" />
	</node>
	<node lat="59.9722027750496" lon="9.667983333857546" id="-17681">
		<tag k="name" v="Kinnfelløktangane" />
		<tag k="place" v="locality" />
		<tag k="ssr:stedsnr" v="31474" />
	</node>
	<node lat="60.123655552547675" lon="9.468341674603383" id="-17684">
		<tag k="name" v="Svartås" />
		<tag k="natural" v="ridge" />
		<tag k="place" v="locality" />
		<tag k="ssr:stedsnr" v="31361" />
	</node>
	<node lat="60.114158333417" lon="9.494649993267142" id="-17686">
		<tag k="fixme" v="consider natural=peak for the most distinct mountains in the district" />
		<tag k="name" v="Hestebakkåsen" />
		<tag k="natural" v="hill" />
		<tag k="place" v="locality" />
		<tag k="ssr:stedsnr" v="31440" />
	</node>
	<node lat="60.039952774641336" lon="9.519802773593836" id="-17688">
		<tag k="name" v="Tambothøgda" />
		<tag k="natural" v="hill" />
		<tag k="place" v="locality" />
		<tag k="ssr:stedsnr" v="32178" />
	</node>
	<node lat="59.99579722599531" lon="9.54048334131252" id="-17690">
		<tag k="name" v="Liubråtamarka" />
		<tag k="natural" v="slope" />
		<tag k="place" v="locality" />
		<tag k="ssr:stedsnr" v="32041" />
	</node>
	<node lat="60.073194444000265" lon="9.737669443105322" id="-17691">
		<tag k="name" v="Snaret" />
		<tag k="place" v="locality" />
		<tag k="ssr:stedsnr" v="32046" />
	</node>
	<node lat="59.99380277610331" lon="9.471547213472611" id="-17693">
		<tag k="name" v="Kandokklia" />
		<tag k="natural" v="slope" />
		<tag k="place" v="locality" />
		<tag k="ssr:stedsnr" v="32057" />
	</node>
	<node lat="60.13717777501915" lon="9.546588883197197" id="-17695">
		<tag k="name" v="Bjørevasslia" />
		<tag k="natural" v="slope" />
		<tag k="place" v="locality" />
		<tag k="ssr:stedsnr" v="32451" />
	</node>
	<node lat="60.009472219249204" lon="9.643508338964413" id="-17696">
		<tag k="name" v="Stillingsåsen" />
		<tag k="natural" v="ridge" />
		<tag k="place" v="locality" />
		<tag k="ssr:stedsnr" v="32194" />
	</node>
	<node lat="59.977130559364426" lon="9.72664444259847" id="-17700">
		<tag k="name" v="Skarda" />
		<tag k="natural" v="valley" />
		<tag k="place" v="locality" />
		<tag k="ssr:stedsnr" v="32364" />
	</node>
	<node lat="59.98445277531368" lon="9.795411109642885" id="-17704">
		<tag k="name" v="Askedokka" />
		<tag k="natural" v="valley" />
		<tag k="place" v="locality" />
		<tag k="ssr:stedsnr" v="32586" />
	</node>
	<node lat="60.03160833217276" lon="9.618297226088236" id="-17705">
		<tag k="name" v="Fjøsåsen" />
		<tag k="natural" v="slope" />
		<tag k="place" v="locality" />
		<tag k="ssr:stedsnr" v="32684" />
	</node>
	<node lat="59.960780554951555" lon="9.677566657756847" id="-17708">
		<tag k="name" v="Pålsonbonn" />
		<tag k="natural" v="valley" />
		<tag k="place" v="locality" />
		<tag k="ssr:stedsnr" v="32468" />
	</node>
	<node lat="60.00586944797862" lon="9.75055278238979" id="-17717">
		<tag k="name" v="Kilahaugen" />
		<tag k="natural" v="hill" />
		<tag k="place" v="locality" />
		<tag k="ssr:stedsnr" v="32891" />
	</node>
	<node lat="60.0488777750531" lon="9.57909443944501" id="-17720">
		<tag k="name" v="Grååsen" />
		<tag k="natural" v="slope" />
		<tag k="place" v="locality" />
		<tag k="ssr:stedsnr" v="32751" />
	</node>
	<node lat="60.0271472209175" lon="9.755830550568788" id="-17722">
		<tag k="name" v="Bjønnelaupåsen" />
		<tag k="natural" v="ridge" />
		<tag k="place" v="locality" />
		<tag k="ssr:stedsnr" v="32754" />
	</node>
	<node lat="60.064308337706926" lon="9.715955557096443" id="-17726">
		<tag k="name" v="Moltedokka" />
		<tag k="natural" v="valley" />
		<tag k="place" v="locality" />
		<tag k="ssr:stedsnr" v="32942" />
	</node>
	<node lat="60.00503333428581" lon="9.756313890572315" id="-17727">
		<tag k="name" v="Hasleåsen" />
		<tag k="natural" v="hill" />
		<tag k="place" v="locality" />
		<tag k="ssr:stedsnr" v="32898" />
	</node>
	<node lat="60.0389027782461" lon="9.73136944571846" id="-17728">
		<tag k="name" v="Jerpedokka" />
		<tag k="natural" v="valley" />
		<tag k="place" v="locality" />
		<tag k="ssr:stedsnr" v="32987" />
	</node>
	<node lat="59.953755553120494" lon="9.745952786088639" id="-17735">
		<tag k="name" v="Steindalen" />
		<tag k="natural" v="valley" />
		<tag k="place" v="locality" />
		<tag k="ssr:stedsnr" v="64782" />
	</node>
	<node lat="60.326577779554974" lon="9.346275005297437" id="-17757">
		<tag k="fixme" v="consider natural=peak for the most distinct mountains in the district" />
		<tag k="name" v="Hesteryggen" />
		<tag k="natural" v="hill" />
		<tag k="place" v="locality" />
		<tag k="ssr:stedsnr" v="67064" />
	</node>
	<node lat="60.32067499596916" lon="9.304250001663691" id="-17758">
		<tag k="fixme" v="consider natural=peak for the most distinct mountains in the district" />
		<tag k="name" v="Steinfantnatten" />
		<tag k="natural" v="hill" />
		<tag k="place" v="locality" />
		<tag k="ssr:stedsnr" v="67070" />
	</node>
	<node lat="60.35425000102874" lon="9.239125003536817" id="-17760">
		<tag k="fixme" v="consider natural=peak for the most distinct mountains in the district" />
		<tag k="name" v="Brennatten" />
		<tag k="natural" v="hill" />
		<tag k="place" v="locality" />
		<tag k="ssr:stedsnr" v="67008" />
	</node>
	<node lat="60.339399996027915" lon="9.225124992636447" id="-17761">
		<tag k="fixme" v="consider natural=peak for the most distinct mountains in the district" />
		<tag k="name" v="Storlifjellet" />
		<tag k="natural" v="hill" />
		<tag k="place" v="locality" />
		<tag k="ssr:stedsnr" v="67020" />
	</node>
	<node lat="60.27230278086033" lon="9.477102778644273" id="-17765">
		<tag k="fixme" v="consider natural=peak for the most distinct mountains in the district" />
		<tag k="name" v="Grindefjell" />
		<tag k="natural" v="hill" />
		<tag k="place" v="locality" />
		<tag k="ssr:stedsnr" v="67139" />
	</node>
	<node lat="60.186802779061956" lon="9.210611119736498" id="-17772">
		<tag k="name" v="Ragnhilddælun" />
		<tag k="natural" v="valley" />
		<tag k="place" v="locality" />
		<tag k="ssr:stedsnr" v="90141" />
	</node>
	<node lat="60.23214721954842" lon="9.249016672571013" id="-17773">
		<tag k="name" v="Lauvhaugen" />
		<tag k="natural" v="hill" />
		<tag k="place" v="locality" />
		<tag k="ssr:stedsnr" v="90098" />
	</node>
	<node lat="60.18586666813192" lon="9.206766675470316" id="-17774">
		<tag k="name" v="Vestmannskard" />
		<tag k="natural" v="valley" />
		<tag k="place" v="locality" />
		<tag k="ssr:stedsnr" v="90150" />
	</node>
	<node lat="60.26498611212269" lon="9.259055560388655" id="-17779">
		<tag k="name" v="Brennaskørra" />
		<tag k="natural" v="cliff" />
		<tag k="ssr:stedsnr" v="90836" />
	</node>
	<node lat="60.35547221816488" lon="9.193655554294391" id="-17784">
		<tag k="name" v="Åsseterlia" />
		<tag k="natural" v="slope" />
		<tag k="place" v="locality" />
		<tag k="ssr:stedsnr" v="91189" />
	</node>
	<node lat="60.243891665500456" lon="9.29171944556943" id="-17787">
		<tag k="fixme" v="consider natural=peak for the most distinct mountains in the district" />
		<tag k="name" v="Snikkeråsen" />
		<tag k="natural" v="hill" />
		<tag k="place" v="locality" />
		<tag k="ssr:stedsnr" v="90897" />
	</node>
	<node lat="60.10889166342717" lon="9.431266668703623" id="-17788">
		<tag k="fixme" v="consider natural=peak for the most distinct mountains in the district" />
		<tag k="name" v="Nerliåsen" />
		<tag k="natural" v="hill" />
		<tag k="place" v="locality" />
		<tag k="ssr:stedsnr" v="91350" />
	</node>
	<node lat="60.11175832913654" lon="9.447577783033484" id="-17789">
		<tag k="fixme" v="consider natural=peak for the most distinct mountains in the district" />
		<tag k="name" v="Gunnerudåsen" />
		<tag k="natural" v="hill" />
		<tag k="place" v="locality" />
		<tag k="ssr:stedsnr" v="91352" />
	</node>
	<node lat="60.27744721986033" lon="9.363313884354504" id="-17792">
		<tag k="name" v="Tjennskar" />
		<tag k="natural" v="valley" />
		<tag k="place" v="locality" />
		<tag k="ssr:stedsnr" v="91460" />
	</node>
	<node lat="60.21769721926254" lon="9.312955551077971" id="-17796">
		<tag k="name" v="Øvre Koren" />
		<tag k="place" v="locality" />
		<tag k="ssr:stedsnr" v="91938" />
	</node>
	<node lat="60.19071111471468" lon="9.44346945315867" id="-17798">
		<tag k="name" v="Stupuldæla" />
		<tag k="natural" v="valley" />
		<tag k="place" v="locality" />
		<tag k="ssr:stedsnr" v="91676" />
	</node>
	<node lat="60.17781110852019" lon="9.38681389068117" id="-17802">
		<tag k="fixme" v="consider natural=peak for the most distinct mountains in the district" />
		<tag k="name" v="Grønhovdsåsen" />
		<tag k="natural" v="hill" />
		<tag k="place" v="locality" />
		<tag k="ssr:stedsnr" v="91736" />
	</node>
	<node lat="60.103624996459416" lon="9.369683334107235" id="-17804">
		<tag k="name" v="Grøsetflaget" />
		<tag k="place" v="locality" />
		<tag k="ssr:stedsnr" v="91974" />
	</node>
	<node lat="60.167655559957545" lon="9.339524991687352" id="-17805">
		<tag k="name" v="Sjåheimberga" />
		<tag k="natural" v="hill" />
		<tag k="place" v="locality" />
		<tag k="ssr:stedsnr" v="91982" />
	</node>
	<node lat="60.23743888831726" lon="9.37364444353839" id="-17810">
		<tag k="name" v="Nedre Besserud" />
		<tag k="natural" v="valley" />
		<tag k="place" v="locality" />
		<tag k="ssr:stedsnr" v="91860" />
	</node>
	<node lat="60.10600000431985" lon="9.43813333773038" id="-17812">
		<tag k="name" v="Treiteli" />
		<tag k="natural" v="slope" />
		<tag k="place" v="locality" />
		<tag k="ssr:stedsnr" v="92247" />
	</node>
	<node lat="60.13050278097307" lon="9.502072223968261" id="-17813">
		<tag k="name" v="Primhølet" />
		<tag k="natural" v="valley" />
		<tag k="place" v="locality" />
		<tag k="ssr:stedsnr" v="92411" />
	</node>
	<node lat="60.01733333638209" lon="9.461486111287613" id="-17817">
		<tag k="name" v="Gryteseterliane" />
		<tag k="natural" v="slope" />
		<tag k="place" v="locality" />
		<tag k="ssr:stedsnr" v="93062" />
	</node>
	<node lat="60.08340000005518" lon="9.735191663437446" id="-17819">
		<tag k="name" v="Toppenhaug" />
		<tag k="natural" v="hill" />
		<tag k="place" v="locality" />
		<tag k="ssr:stedsnr" v="93045" />
	</node>
	<node lat="59.980658335968776" lon="9.52757777809101" id="-17820">
		<tag k="name" v="Mottaklia" />
		<tag k="natural" v="slope" />
		<tag k="place" v="locality" />
		<tag k="ssr:stedsnr" v="93056" />
	</node>
	<node lat="59.93453333621768" lon="9.650630564205093" id="-17831">
		<tag k="name" v="Gampedalåsen" />
		<tag k="natural" v="ridge" />
		<tag k="place" v="locality" />
		<tag k="ssr:stedsnr" v="93302" />
	</node>
	<node lat="59.98801111388346" lon="9.6379722137455" id="-17832">
		<tag k="name" v="Eikjedælane" />
		<tag k="natural" v="valley" />
		<tag k="place" v="locality" />
		<tag k="ssr:stedsnr" v="93074" />
	</node>
	<node lat="60.006536115466325" lon="9.491700004327797" id="-17836">
		<tag k="name" v="Pikop" />
		<tag k="place" v="locality" />
		<tag k="ssr:stedsnr" v="93096" />
	</node>
	<node lat="59.96244721987871" lon="9.71172500208528" id="-17840">
		<tag k="name" v="Stavrildalen" />
		<tag k="natural" v="valley" />
		<tag k="place" v="locality" />
		<tag k="ssr:stedsnr" v="93356" />
	</node>
	<node lat="60.07038333496344" lon="9.678788894228978" id="-17841">
		<tag k="name" v="Endebakkane" />
		<tag k="natural" v="slope" />
		<tag k="place" v="locality" />
		<tag k="ssr:stedsnr" v="93357" />
	</node>
	<node lat="60.07598610750324" lon="9.646652770981355" id="-17843">
		<tag k="name" v="Buttelbakke" />
		<tag k="natural" v="slope" />
		<tag k="place" v="locality" />
		<tag k="ssr:stedsnr" v="93359" />
	</node>
	<node lat="60.0628055529684" lon="9.630922221366239" id="-17845">
		<tag k="name" v="Heklebergdalen" />
		<tag k="natural" v="valley" />
		<tag k="place" v="locality" />
		<tag k="ssr:stedsnr" v="93434" />
	</node>
	<node lat="60.12345555528855" lon="9.583505555996224" id="-17846">
		<tag k="name" v="Kvelledalen" />
		<tag k="natural" v="valley" />
		<tag k="place" v="locality" />
		<tag k="ssr:stedsnr" v="93448" />
	</node>
	<node lat="60.09514444140387" lon="9.48500832619472" id="-17848">
		<tag k="name" v="Lia" />
		<tag k="natural" v="slope" />
		<tag k="place" v="locality" />
		<tag k="ssr:stedsnr" v="93522" />
	</node>
	<node lat="59.95058055376401" lon="9.747680547111683" id="-17850">
		<tag k="name" v="Damtjennåsen" />
		<tag k="natural" v="hill" />
		<tag k="place" v="locality" />
		<tag k="ssr:stedsnr" v="93533" />
	</node>
	<node lat="59.97041111299452" lon="9.81431945190558" id="-17851">
		<tag k="fixme" v="consider natural=peak for the most distinct mountains in the district" />
		<tag k="name" v="Nyliåsen" />
		<tag k="natural" v="hill" />
		<tag k="place" v="locality" />
		<tag k="ssr:stedsnr" v="93560" />
	</node>
	<node lat="60.09034721831355" lon="9.645322222078802" id="-17860">
		<tag k="name" v="Gampedalen" />
		<tag k="natural" v="valley" />
		<tag k="place" v="locality" />
		<tag k="ssr:stedsnr" v="93850" />
	</node>
	<node lat="60.06712222640423" lon="9.429122218678334" id="-17861">
		<tag k="name" v="Seterhølet" />
		<tag k="natural" v="valley" />
		<tag k="place" v="locality" />
		<tag k="ssr:stedsnr" v="93857" />
	</node>
	<node lat="60.06144166758963" lon="9.720352771831822" id="-17862">
		<tag k="name" v="Rullarberget" />
		<tag k="natural" v="ridge" />
		<tag k="place" v="locality" />
		<tag k="ssr:stedsnr" v="93919" />
	</node>
	<node lat="59.974647219059776" lon="9.584844453109142" id="-17876">
		<tag k="fixme" v="consider natural=peak for the most distinct mountains in the district" />
		<tag k="name" v="Tangåsen" />
		<tag k="natural" v="hill" />
		<tag k="place" v="locality" />
		<tag k="ssr:stedsnr" v="125342" />
	</node>
	<node lat="60.23887222652044" lon="9.445086112297504" id="-17877">
		<tag k="name" v="Djupsjølia" />
		<tag k="natural" v="slope" />
		<tag k="place" v="locality" />
		<tag k="ssr:stedsnr" v="126287" />
	</node>
	<node lat="59.93869166857353" lon="9.675702786326195" id="-17884">
		<tag k="fixme" v="consider natural=peak for the most distinct mountains in the district" />
		<tag k="name" v="Gørrtjennåsen" />
		<tag k="natural" v="hill" />
		<tag k="place" v="locality" />
		<tag k="ssr:stedsnr" v="125781" />
	</node>
	<node lat="60.02382499697463" lon="9.674075001828013" id="-17888">
		<tag k="alt_name" v="Eikjehaugane" />
		<tag k="name" v="Eikjehaugan" />
		<tag k="natural" v="hill" />
		<tag k="place" v="locality" />
		<tag k="ssr:stedsnr" v="125957" />
	</node>
	<node lat="60.015505554932325" lon="9.77948055303354" id="-17893">
		<tag k="fixme" v="consider natural=peak for the most distinct mountains in the district" />
		<tag k="name" v="Høgås" />
		<tag k="natural" v="hill" />
		<tag k="place" v="locality" />
		<tag k="ssr:stedsnr" v="126433" />
	</node>
	<node lat="60.17740000327308" lon="9.34386110325857" id="-17894">
		<tag k="fixme" v="consider natural=peak for the most distinct mountains in the district" />
		<tag k="name" v="Hasliåsen" />
		<tag k="natural" v="hill" />
		<tag k="place" v="locality" />
		<tag k="ssr:stedsnr" v="126440" />
	</node>
	<node lat="60.015133332081" lon="9.597902779618504" id="-17899">
		<tag k="name" v="Salttjennåsen" />
		<tag k="natural" v="hill" />
		<tag k="place" v="locality" />
		<tag k="ssr:stedsnr" v="126936" />
	</node>
	<node lat="60.22889166908706" lon="9.27591389365926" id="-17913">
		<tag k="name" v="Hestemyrhaugen" />
		<tag k="natural" v="hill" />
		<tag k="place" v="locality" />
		<tag k="ssr:stedsnr" v="150046" />
	</node>
	<node lat="60.17726388468743" lon="9.198355563119748" id="-17915">
		<tag k="name" v="Den brente lia" />
		<tag k="natural" v="slope" />
		<tag k="place" v="locality" />
		<tag k="ssr:stedsnr" v="150189" />
	</node>
	<node lat="60.20232700971634" lon="9.301567490332975" id="-17921">
		<tag k="name" v="Rundenatten" />
		<tag k="natural" v="hill" />
		<tag k="place" v="locality" />
		<tag k="ssr:stedsnr" v="150399" />
	</node>
	<node lat="60.27543333201333" lon="9.410605550297394" id="-17922">
		<tag k="name" v="Langås" />
		<tag k="natural" v="ridge" />
		<tag k="place" v="locality" />
		<tag k="ssr:stedsnr" v="151429" />
	</node>
	<node lat="60.34246110865164" lon="9.168902783242611" id="-17924">
		<tag k="name" v="Brattebakk" />
		<tag k="natural" v="slope" />
		<tag k="place" v="locality" />
		<tag k="ssr:stedsnr" v="151877" />
	</node>
	<node lat="60.25062222342555" lon="9.270505550897118" id="-17925">
		<tag k="fixme" v="consider natural=peak for the most distinct mountains in the district" />
		<tag k="name" v="Narverudåsen" />
		<tag k="natural" v="hill" />
		<tag k="place" v="locality" />
		<tag k="ssr:stedsnr" v="151882" />
	</node>
	<node lat="60.31561111335239" lon="9.15217777404324" id="-17929">
		<tag k="name" v="Nedre Beinstighaugen" />
		<tag k="natural" v="hill" />
		<tag k="place" v="locality" />
		<tag k="ssr:stedsnr" v="151030" />
	</node>
	<node lat="60.2997666706914" lon="9.253613884393044" id="-17932">
		<tag k="fixme" v="consider natural=peak for the most distinct mountains in the district" />
		<tag k="name" v="Snipesprøttåsen" />
		<tag k="natural" v="hill" />
		<tag k="place" v="locality" />
		<tag k="ssr:stedsnr" v="151130" />
	</node>
	<node lat="60.13192777437741" lon="9.398183341296084" id="-17933">
		<tag k="name" v="Fjerdingsmyrhaugane" />
		<tag k="natural" v="hill" />
		<tag k="place" v="locality" />
		<tag k="ssr:stedsnr" v="151134" />
	</node>
	<node lat="60.228863887467895" lon="9.200113887137435" id="-17935">
		<tag k="name" v="Kastet" />
		<tag k="natural" v="slope" />
		<tag k="place" v="locality" />
		<tag k="ssr:stedsnr" v="151136" />
	</node>
	<node lat="60.22321666728218" lon="9.204738889824753" id="-17937">
		<tag k="name" v="Vatnelia" />
		<tag k="natural" v="slope" />
		<tag k="place" v="locality" />
		<tag k="ssr:stedsnr" v="151076" />
	</node>
	<node lat="60.13761944557574" lon="9.40386389273208" id="-17938">
		<tag k="name" v="Bjønnesteinåsen" />
		<tag k="natural" v="ridge" />
		<tag k="place" v="locality" />
		<tag k="ssr:stedsnr" v="151084" />
	</node>
	<node lat="60.12490277439174" lon="9.40964443746408" id="-17939">
		<tag k="name" v="Svartli" />
		<tag k="natural" v="slope" />
		<tag k="place" v="locality" />
		<tag k="ssr:stedsnr" v="151086" />
	</node>
	<node lat="60.292144445856664" lon="9.249777776696702" id="-17943">
		<tag k="name" v="Svenskeåsen" />
		<tag k="place" v="locality" />
		<tag k="ssr:stedsnr" v="151095" />
	</node>
	<node lat="60.29011110771014" lon="9.245169437261358" id="-17944">
		<tag k="name" v="Medalskleiva" />
		<tag k="natural" v="valley" />
		<tag k="place" v="locality" />
		<tag k="ssr:stedsnr" v="151101" />
	</node>
	<node lat="60.256780555966664" lon="9.43722778251995" id="-17945">
		<tag k="name" v="Tomasbekkfjellet" />
		<tag k="natural" v="ridge" />
		<tag k="place" v="locality" />
		<tag k="ssr:stedsnr" v="151201" />
	</node>
	<node lat="60.283841666477066" lon="9.30504165855942" id="-17950">
		<tag k="name" v="Springhaug" />
		<tag k="natural" v="hill" />
		<tag k="place" v="locality" />
		<tag k="ssr:stedsnr" v="151630" />
	</node>
	<node lat="60.17194167086239" lon="9.470194448464225" id="-17952">
		<tag k="name" v="Bjønnegjenga" />
		<tag k="natural" v="valley" />
		<tag k="place" v="locality" />
		<tag k="ssr:stedsnr" v="151635" />
	</node>
	<node lat="60.17691110893744" lon="9.471563880698188" id="-17955">
		<tag k="name" v="Grunntjennåsen" />
		<tag k="place" v="locality" />
		<tag k="ssr:stedsnr" v="151684" />
	</node>
	<node lat="60.18258333213132" lon="9.437805555427126" id="-17958">
		<tag k="name" v="Skaret" />
		<tag k="natural" v="valley" />
		<tag k="place" v="locality" />
		<tag k="ssr:stedsnr" v="151694" />
	</node>
	<node lat="60.047208329651426" lon="9.394805558218286" id="-17962">
		<tag k="name" v="Grunntjennlia" />
		<tag k="natural" v="slope" />
		<tag k="place" v="locality" />
		<tag k="ssr:stedsnr" v="152336" />
	</node>
	<node lat="60.10860555713476" lon="9.445838886897302" id="-17963">
		<tag k="name" v="Frolia" />
		<tag k="natural" v="slope" />
		<tag k="place" v="locality" />
		<tag k="ssr:stedsnr" v="152343" />
	</node>
	<node lat="60.16824999996516" lon="9.333075008371765" id="-17965">
		<tag k="name" v="Laupet" />
		<tag k="natural" v="valley" />
		<tag k="place" v="locality" />
		<tag k="ssr:stedsnr" v="151977" />
	</node>
	<node lat="60.21553889257408" lon="9.331241672720038" id="-17968">
		<tag k="name" v="Fjellskarsnatten" />
		<tag k="natural" v="hill" />
		<tag k="place" v="locality" />
		<tag k="ssr:stedsnr" v="151901" />
	</node>
	<node lat="60.08504999967063" lon="9.440305563474782" id="-17970">
		<tag k="name" v="Storeskar" />
		<tag k="natural" v="valley" />
		<tag k="place" v="locality" />
		<tag k="ssr:stedsnr" v="152376" />
	</node>
	<node lat="59.99064444875438" lon="9.598644444240197" id="-17974">
		<tag k="fixme" v="consider natural=peak for the most distinct mountains in the district" />
		<tag k="name" v="Høgståsen" />
		<tag k="natural" v="hill" />
		<tag k="place" v="locality" />
		<tag k="ssr:stedsnr" v="153085" />
	</node>
	<node lat="60.017386111151815" lon="9.437063892393196" id="-17975">
		<tag k="name" v="Svenskerud" />
		<tag k="natural" v="slope" />
		<tag k="place" v="locality" />
		<tag k="ssr:stedsnr" v="153087" />
	</node>
	<node lat="60.149391663491464" lon="9.511586111311043" id="-17980">
		<tag k="fixme" v="consider natural=peak for the most distinct mountains in the district" />
		<tag k="name" v="Dælastykketåsen" />
		<tag k="natural" v="hill" />
		<tag k="place" v="locality" />
		<tag k="ssr:stedsnr" v="152440" />
	</node>
	<node lat="60.131597224429726" lon="9.492680554752727" id="-17981">
		<tag k="name" v="Frosthølet" />
		<tag k="natural" v="valley" />
		<tag k="place" v="locality" />
		<tag k="ssr:stedsnr" v="152449" />
	</node>
	<node lat="60.14614721807926" lon="9.431741674747034" id="-17982">
		<tag k="name" v="Engersmoane" />
		<tag k="place" v="locality" />
		<tag k="ssr:stedsnr" v="152527" />
	</node>
	<node lat="60.0740027760465" lon="9.684655549581539" id="-17987">
		<tag k="name" v="Askedokk" />
		<tag k="place" v="locality" />
		<tag k="ssr:stedsnr" v="153030" />
	</node>
	<node lat="60.00954444500274" lon="9.691552772492086" id="-17993">
		<tag k="name" v="Kleivås" />
		<tag k="natural" v="ridge" />
		<tag k="place" v="locality" />
		<tag k="ssr:stedsnr" v="153795" />
	</node>
	<node lat="60.03278055527921" lon="9.727500005208933" id="-17996">
		<tag k="name" v="Askedokk" />
		<tag k="natural" v="valley" />
		<tag k="place" v="locality" />
		<tag k="ssr:stedsnr" v="153979" />
	</node>
	<node lat="60.036244441688055" lon="9.714280553182627" id="-17998">
		<tag k="name" v="Brattebakke" />
		<tag k="natural" v="slope" />
		<tag k="place" v="locality" />
		<tag k="ssr:stedsnr" v="153983" />
	</node>
	<node lat="60.00615000138109" lon="9.681369440376054" id="-18002">
		<tag k="name" v="Stillingsdæla" />
		<tag k="natural" v="valley" />
		<tag k="place" v="locality" />
		<tag k="ssr:stedsnr" v="153128" />
	</node>
	<node lat="60.01197499818266" lon="9.673350004806464" id="-18003">
		<tag k="name" v="Enterud" />
		<tag k="natural" v="slope" />
		<tag k="place" v="locality" />
		<tag k="ssr:stedsnr" v="153144" />
	</node>
	<node lat="60.013330558291266" lon="9.644369451282701" id="-18005">
		<tag k="name" v="Middagskollen" />
		<tag k="natural" v="hill" />
		<tag k="place" v="locality" />
		<tag k="ssr:stedsnr" v="153238" />
	</node>
	<node lat="59.96451389292167" lon="9.690016667001288" id="-18007">
		<tag k="name" v="Oppkastbakkane" />
		<tag k="natural" v="slope" />
		<tag k="place" v="locality" />
		<tag k="ssr:stedsnr" v="153397" />
	</node>
	<node lat="60.08838055721394" lon="9.463594435661324" id="-18010">
		<tag k="name" v="Tjyromnshaugen" />
		<tag k="natural" v="hill" />
		<tag k="place" v="locality" />
		<tag k="ssr:stedsnr" v="153316" />
	</node>
	<node lat="60.12054166474817" lon="9.564377777210716" id="-18012">
		<tag k="name" v="Askeruddokka" />
		<tag k="place" v="locality" />
		<tag k="ssr:stedsnr" v="153343" />
	</node>
	<node lat="60.090580555511465" lon="9.470352777644969" id="-18013">
		<tag k="name" v="Bråtahaugen" />
		<tag k="natural" v="hill" />
		<tag k="place" v="locality" />
		<tag k="ssr:stedsnr" v="153431" />
	</node>
	<node lat="60.103427780856265" lon="9.552555548876308" id="-18015">
		<tag k="name" v="Dipilåsen" />
		<tag k="natural" v="slope" />
		<tag k="place" v="locality" />
		<tag k="ssr:stedsnr" v="153435" />
	</node>
	<node lat="60.0431222235302" lon="9.534249993661776" id="-18016">
		<tag k="name" v="Nørste putten" />
		<tag k="natural" v="slope" />
		<tag k="place" v="locality" />
		<tag k="ssr:stedsnr" v="153448" />
	</node>
	<node lat="59.99146389302746" lon="9.73714444199936" id="-18017">
		<tag k="name" v="Øygardshaugen" />
		<tag k="natural" v="hill" />
		<tag k="place" v="locality" />
		<tag k="ssr:stedsnr" v="153575" />
	</node>
	<node lat="59.94885277623166" lon="9.706663892320723" id="-18021">
		<tag k="name" v="Bønnane" />
		<tag k="place" v="locality" />
		<tag k="ssr:stedsnr" v="153588" />
	</node>
	<node lat="59.978502775665305" lon="9.812611117239427" id="-18024">
		<tag k="fixme" v="consider natural=peak for the most distinct mountains in the district" />
		<tag k="name" v="Gampestillingsåsen" />
		<tag k="natural" v="hill" />
		<tag k="place" v="locality" />
		<tag k="ssr:stedsnr" v="153677" />
	</node>
	<node lat="60.053688891807006" lon="9.660772229110997" id="-18027">
		<tag k="name" v="Bråtaåsen" />
		<tag k="natural" v="hill" />
		<tag k="place" v="locality" />
		<tag k="ssr:stedsnr" v="153638" />
	</node>
	<node lat="60.055955554912074" lon="9.6715250071242" id="-18028">
		<tag k="name" v="Bollebekkåsen" />
		<tag k="natural" v="hill" />
		<tag k="place" v="locality" />
		<tag k="ssr:stedsnr" v="153642" />
	</node>
	<node lat="59.93316944678929" lon="9.693708335749415" id="-18030">
		<tag k="name" v="Kollstadtoppen" />
		<tag k="natural" v="hill" />
		<tag k="place" v="locality" />
		<tag k="ssr:stedsnr" v="153720" />
	</node>
	<node lat="60.02201666696275" lon="9.610333328789057" id="-18031">
		<tag k="name" v="Lensmannslia" />
		<tag k="natural" v="slope" />
		<tag k="place" v="locality" />
		<tag k="ssr:stedsnr" v="153740" />
	</node>
	<node lat="60.02094167029635" lon="9.558411117260691" id="-18039">
		<tag k="name" v="Juvsbråtaflata" />
		<tag k="place" v="locality" />
		<tag k="ssr:stedsnr" v="154345" />
	</node>
	<node lat="60.06804167115685" lon="9.632275003689008" id="-18042">
		<tag k="name" v="Hekleberg" />
		<tag k="natural" v="hill" />
		<tag k="place" v="locality" />
		<tag k="ssr:stedsnr" v="154489" />
	</node>
	<node lat="60.070999998847405" lon="9.664975000343" id="-18043">
		<tag k="name" v="Stillingsdæla" />
		<tag k="natural" v="valley" />
		<tag k="place" v="locality" />
		<tag k="ssr:stedsnr" v="154497" />
	</node>
	<node lat="60.308950002529706" lon="9.14764444597956" id="-18045">
		<tag k="name" v="Juvet" />
		<tag k="natural" v="gorge" />
		<tag k="ssr:stedsnr" v="273036" />
	</node>
	<node lat="60.31618888686705" lon="9.150344441132924" id="-18046">
		<tag k="name" v="Øvre Beinstighaugen" />
		<tag k="natural" v="hill" />
		<tag k="place" v="locality" />
		<tag k="ssr:stedsnr" v="273040" />
	</node>
	<node lat="60.323955551267034" lon="9.182144447508662" id="-18047">
		<tag k="name" v="Langemyrhaugen" />
		<tag k="natural" v="hill" />
		<tag k="place" v="locality" />
		<tag k="ssr:stedsnr" v="273043" />
	</node>
	<node lat="59.9728888849564" lon="9.627036111746678" id="-18052">
		<tag k="fixme" v="consider natural=peak for the most distinct mountains in the district" />
		<tag k="name" v="Slottet" />
		<tag k="natural" v="hill" />
		<tag k="place" v="locality" />
		<tag k="ssr:stedsnr" v="185791" />
	</node>
	<node lat="59.97639444509093" lon="9.82273056438969" id="-18060">
		<tag k="fixme" v="consider natural=peak for the most distinct mountains in the district" />
		<tag k="name" v="Øverbykollen" />
		<tag k="natural" v="hill" />
		<tag k="place" v="locality" />
		<tag k="ssr:stedsnr" v="186822" />
	</node>
	<node lat="60.040363890687615" lon="9.723561114058558" id="-18062">
		<tag k="name" v="Halvningsbråtan" />
		<tag k="natural" v="hill" />
		<tag k="place" v="locality" />
		<tag k="ssr:stedsnr" v="186911" />
	</node>
	<node lat="60.298874998118826" lon="9.300350005486637" id="-18071">
		<tag k="fixme" v="consider natural=peak for the most distinct mountains in the district" />
		<tag k="name" v="Markeliåsen" />
		<tag k="natural" v="hill" />
		<tag k="place" v="locality" />
		<tag k="ssr:stedsnr" v="188047" />
	</node>
	<node lat="60.27219999974011" lon="9.394025006237364" id="-18072">
		<tag k="fixme" v="consider natural=peak for the most distinct mountains in the district" />
		<tag k="name" v="Nordnatten" />
		<tag k="natural" v="hill" />
		<tag k="place" v="locality" />
		<tag k="ssr:stedsnr" v="188140" />
	</node>
	<node lat="60.2706750028486" lon="9.234075001813814" id="-18076">
		<tag k="fixme" v="consider natural=peak for the most distinct mountains in the district" />
		<tag k="name" v="Løkeliåsen" />
		<tag k="natural" v="hill" />
		<tag k="place" v="locality" />
		<tag k="ssr:stedsnr" v="188148" />
	</node>
	<node lat="60.354705554863315" lon="9.19746111126206" id="-18078">
		<tag k="name" v="Åslandsetermarka" />
		<tag k="natural" v="slope" />
		<tag k="place" v="locality" />
		<tag k="ssr:stedsnr" v="188450" />
	</node>
	<node lat="60.23780555377845" lon="9.189666669022442" id="-18082">
		<tag k="name" v="Kleiva" />
		<tag k="natural" v="slope" />
		<tag k="place" v="locality" />
		<tag k="ssr:stedsnr" v="212814" />
	</node>
	<node lat="60.232075002537755" lon="9.292224991128206" id="-18087">
		<tag k="name" v="Kremarrudhaugan" />
		<tag k="natural" v="hill" />
		<tag k="place" v="locality" />
		<tag k="ssr:stedsnr" v="212048" />
	</node>
	<node lat="60.20991111295956" lon="9.235555557713464" id="-18088">
		<tag k="name" v="Stavalidalen" />
		<tag k="natural" v="valley" />
		<tag k="place" v="locality" />
		<tag k="ssr:stedsnr" v="212051" />
	</node>
	<node lat="60.22901666724496" lon="9.256874991377577" id="-18089">
		<tag k="name" v="Brennun" />
		<tag k="natural" v="slope" />
		<tag k="place" v="locality" />
		<tag k="ssr:stedsnr" v="212054" />
	</node>
	<node lat="60.150450002911086" lon="9.23035556038324" id="-18090">
		<tag k="name" v="Ragnhilddælan" />
		<tag k="natural" v="valley" />
		<tag k="place" v="locality" />
		<tag k="ssr:stedsnr" v="212317" />
	</node>
	<node lat="60.17701666665633" lon="9.257269435577193" id="-18097">
		<tag k="name" v="Reslia" />
		<tag k="natural" v="slope" />
		<tag k="place" v="locality" />
		<tag k="ssr:stedsnr" v="212658" />
	</node>
	<node lat="60.18951388660798" lon="9.308738896853047" id="-18101">
		<tag k="name" v="Skatjenndalen" />
		<tag k="natural" v="valley" />
		<tag k="place" v="locality" />
		<tag k="ssr:stedsnr" v="212758" />
	</node>
	<node lat="60.21779444098939" lon="9.343663895108724" id="-18103">
		<tag k="name" v="Hagaåsen" />
		<tag k="natural" v="slope" />
		<tag k="place" v="locality" />
		<tag k="ssr:stedsnr" v="212860" />
	</node>
	<node lat="60.2265944435789" lon="9.389486110096572" id="-18105">
		<tag k="name" v="Snuruberga" />
		<tag k="natural" v="slope" />
		<tag k="place" v="locality" />
		<tag k="ssr:stedsnr" v="212865" />
	</node>
	<node lat="60.258074995771835" lon="9.26304722367856" id="-18106">
		<tag k="name" v="Sollia" />
		<tag k="natural" v="slope" />
		<tag k="place" v="locality" />
		<tag k="ssr:stedsnr" v="212899" />
	</node>
	<node lat="59.98653889147227" lon="9.545930552130995" id="-18110">
		<tag k="name" v="Mjøsengmarka" />
		<tag k="natural" v="hill" />
		<tag k="place" v="locality" />
		<tag k="ssr:stedsnr" v="214046" />
	</node>
	<node lat="60.23035000448579" lon="9.316144444787904" id="-18113">
		<tag k="name" v="Glanås" />
		<tag k="natural" v="hill" />
		<tag k="place" v="locality" />
		<tag k="ssr:stedsnr" v="212938" />
	</node>
	<node lat="60.11532221821389" lon="9.479724994174132" id="-18115">
		<tag k="name" v="Askedokk" />
		<tag k="natural" v="valley" />
		<tag k="place" v="locality" />
		<tag k="ssr:stedsnr" v="213485" />
	</node>
	<node lat="60.117830551427645" lon="9.508441661714006" id="-18116">
		<tag k="name" v="Killingrud" />
		<tag k="natural" v="valley" />
		<tag k="place" v="locality" />
		<tag k="ssr:stedsnr" v="213486" />
	</node>
	<node lat="60.055541670469964" lon="9.413174999066811" id="-18120">
		<tag k="name" v="Mauretjenndæla" />
		<tag k="natural" v="valley" />
		<tag k="place" v="locality" />
		<tag k="ssr:stedsnr" v="213339" />
	</node>
	<node lat="60.2164666667922" lon="9.493227784934682" id="-18124">
		<tag k="name" v="Hamneli" />
		<tag k="natural" v="slope" />
		<tag k="place" v="locality" />
		<tag k="ssr:stedsnr" v="213558" />
	</node>
	<node lat="60.21828611451215" lon="9.48399723009984" id="-18125">
		<tag k="name" v="Busløklia" />
		<tag k="natural" v="slope" />
		<tag k="place" v="locality" />
		<tag k="ssr:stedsnr" v="213559" />
	</node>
	<node lat="60.12507778007703" lon="9.50566665838573" id="-18126">
		<tag k="name" v="De svarte berga" />
		<tag k="natural" v="slope" />
		<tag k="place" v="locality" />
		<tag k="ssr:stedsnr" v="213639" />
	</node>
	<node lat="60.025188891347014" lon="9.736263883692864" id="-18131">
		<tag k="name" v="Bråtalia" />
		<tag k="natural" v="slope" />
		<tag k="place" v="locality" />
		<tag k="ssr:stedsnr" v="214980" />
	</node>
	<node lat="60.07396944721855" lon="9.46626945090805" id="-18132">
		<tag k="name" v="Plassåsen" />
		<tag k="natural" v="slope" />
		<tag k="place" v="locality" />
		<tag k="ssr:stedsnr" v="214987" />
	</node>
	<node lat="60.053488891959496" lon="9.531288886553044" id="-18134">
		<tag k="name" v="Vikaåsen" />
		<tag k="natural" v="slope" />
		<tag k="place" v="locality" />
		<tag k="ssr:stedsnr" v="214161" />
	</node>
	<node lat="60.01159444075806" lon="9.579772215092929" id="-18136">
		<tag k="name" v="Brennåsen" />
		<tag k="natural" v="hill" />
		<tag k="place" v="locality" />
		<tag k="ssr:stedsnr" v="214218" />
	</node>
	<node lat="59.970913888241746" lon="9.715586109062254" id="-18144">
		<tag k="name" v="Stormoen" />
		<tag k="place" v="locality" />
		<tag k="ssr:stedsnr" v="214368" />
	</node>
	<node lat="60.03703889330411" lon="9.541216667072884" id="-18145">
		<tag k="name" v="Brattåsen" />
		<tag k="natural" v="slope" />
		<tag k="place" v="locality" />
		<tag k="ssr:stedsnr" v="214436" />
	</node>
	<node lat="60.143913886196934" lon="9.548283336719372" id="-18150">
		<tag k="fixme" v="consider natural=peak for the most distinct mountains in the district" />
		<tag k="name" v="Bjørevassåsen" />
		<tag k="natural" v="hill" />
		<tag k="place" v="locality" />
		<tag k="ssr:stedsnr" v="214473" />
	</node>
	<node lat="59.98121111340421" lon="9.568674995977913" id="-18152">
		<tag k="name" v="Hesjabakken" />
		<tag k="natural" v="slope" />
		<tag k="place" v="locality" />
		<tag k="ssr:stedsnr" v="214543" />
	</node>
	<node lat="59.94367221791947" lon="9.700594446899416" id="-18159">
		<tag k="name" v="Sekoenglia" />
		<tag k="natural" v="slope" />
		<tag k="place" v="locality" />
		<tag k="ssr:stedsnr" v="214571" />
	</node>
	<node lat="60.07525555698919" lon="9.50619166703344" id="-18160">
		<tag k="fixme" v="consider natural=peak for the most distinct mountains in the district" />
		<tag k="name" v="Rudsåsen" />
		<tag k="natural" v="hill" />
		<tag k="place" v="locality" />
		<tag k="ssr:stedsnr" v="214573" />
	</node>
	<node lat="59.96628333777285" lon="9.829149997029418" id="-18161">
		<tag k="name" v="Flaberga" />
		<tag k="place" v="locality" />
		<tag k="ssr:stedsnr" v="214649" />
	</node>
	<node lat="59.96726110964197" lon="9.842247213699375" id="-18162">
		<tag k="name" v="Stordalsåsen" />
		<tag k="natural" v="slope" />
		<tag k="place" v="locality" />
		<tag k="ssr:stedsnr" v="214666" />
	</node>
	<node lat="59.96796110846956" lon="9.846525006973593" id="-18163">
		<tag k="name" v="Snauskolten" />
		<tag k="natural" v="hill" />
		<tag k="place" v="locality" />
		<tag k="ssr:stedsnr" v="214668" />
	</node>
	<node lat="59.9708972191067" lon="9.83301944008469" id="-18164">
		<tag k="name" v="Storlihovet" />
		<tag k="place" v="locality" />
		<tag k="ssr:stedsnr" v="214671" />
	</node>
	<node lat="60.04836944166654" lon="9.420330549919473" id="-18168">
		<tag k="name" v="Gudbrandseterlia" />
		<tag k="natural" v="slope" />
		<tag k="place" v="locality" />
		<tag k="ssr:stedsnr" v="214957" />
	</node>
	<node lat="60.062622219072566" lon="9.438605560619111" id="-18169">
		<tag k="name" v="Svartetjennhaugen" />
		<tag k="natural" v="hill" />
		<tag k="place" v="locality" />
		<tag k="ssr:stedsnr" v="214960" />
	</node>
	<node lat="60.07806388850476" lon="9.447449996492336" id="-18170">
		<tag k="name" v="Skørrene" />
		<tag k="natural" v="valley" />
		<tag k="place" v="locality" />
		<tag k="ssr:stedsnr" v="214970" />
	</node>
	<node lat="60.02289166455956" lon="9.541119448347498" id="-18172">
		<tag k="name" v="Øvre Sauebakk" />
		<tag k="natural" v="slope" />
		<tag k="place" v="locality" />
		<tag k="ssr:stedsnr" v="215040" />
	</node>
	<node lat="60.03899166472869" lon="9.441480548800648" id="-18174">
		<tag k="name" v="Langkloppdalen" />
		<tag k="natural" v="valley" />
		<tag k="place" v="locality" />
		<tag k="ssr:stedsnr" v="215171" />
	</node>
	<node lat="60.12048888914421" lon="9.424399999498094" id="-18183">
		<tag k="fixme" v="consider natural=peak for the most distinct mountains in the district" />
		<tag k="name" v="Stillingsåsen" />
		<tag k="natural" v="hill" />
		<tag k="place" v="locality" />
		<tag k="ssr:stedsnr" v="273330" />
	</node>
	<node lat="60.18263610848848" lon="9.487202781066461" id="-18187">
		<tag k="name" v="Omlidæla" />
		<tag k="natural" v="valley" />
		<tag k="place" v="locality" />
		<tag k="ssr:stedsnr" v="273706" />
	</node>
	<node lat="60.272138891976404" lon="9.3239583377543" id="-18189">
		<tag k="name" v="Bekarberget" />
		<tag k="place" v="locality" />
		<tag k="ssr:stedsnr" v="273716" />
	</node>
	<node lat="60.111875003923366" lon="9.500274992396182" id="-18191">
		<tag k="name" v="Hestebakkane" />
		<tag k="natural" v="slope" />
		<tag k="place" v="locality" />
		<tag k="ssr:stedsnr" v="273450" />
	</node>
	<node lat="60.020566664527735" lon="9.599224998248433" id="-18211">
		<tag k="name" v="Sølesnar" />
		<tag k="place" v="locality" />
		<tag k="ssr:stedsnr" v="275196" />
	</node>
	<node lat="59.966447220185685" lon="9.732674991685533" id="-18214">
		<tag k="name" v="Skarbekkåsen" />
		<tag k="natural" v="slope" />
		<tag k="place" v="locality" />
		<tag k="ssr:stedsnr" v="275397" />
	</node>
	<node lat="60.07039444724873" lon="9.69866945244461" id="-18218">
		<tag k="fixme" v="consider natural=peak for the most distinct mountains in the district" />
		<tag k="name" v="Tjennåsen" />
		<tag k="natural" v="hill" />
		<tag k="place" v="locality" />
		<tag k="ssr:stedsnr" v="275034" />
	</node>
	<node lat="60.066422220192486" lon="9.688880556680155" id="-18219">
		<tag k="name" v="Brennemyrliane" />
		<tag k="natural" v="slope" />
		<tag k="place" v="locality" />
		<tag k="ssr:stedsnr" v="275035" />
	</node>
	<node lat="60.03753611486452" lon="9.42564443739356" id="-18225">
		<tag k="name" v="Heimseteråsen" />
		<tag k="natural" v="slope" />
		<tag k="place" v="locality" />
		<tag k="ssr:stedsnr" v="275132" />
	</node>
	<node lat="60.01915833172526" lon="9.5607166586876" id="-18227">
		<tag k="name" v="Juva" />
		<tag k="natural" v="gorge" />
		<tag k="ssr:stedsnr" v="275240" />
	</node>
	<node lat="59.93197221894164" lon="9.685322221645412" id="-18230">
		<tag k="name" v="Kaggåsen" />
		<tag k="natural" v="ridge" />
		<tag k="place" v="locality" />
		<tag k="ssr:stedsnr" v="275256" />
	</node>
	<node lat="60.0779666691662" lon="9.639655556415514" id="-18234">
		<tag k="name" v="Juvsåsen" />
		<tag k="natural" v="ridge" />
		<tag k="place" v="locality" />
		<tag k="ssr:stedsnr" v="275355" />
	</node>
	<node lat="60.09060833137697" lon="9.542602785220206" id="-18238">
		<tag k="name" v="Oredokka" />
		<tag k="natural" v="valley" />
		<tag k="place" v="locality" />
		<tag k="ssr:stedsnr" v="275434" />
	</node>
	<node lat="60.140708331849524" lon="9.54415833860291" id="-18239">
		<tag k="fixme" v="consider natural=peak for the most distinct mountains in the district" />
		<tag k="name" v="Vassåsan" />
		<tag k="natural" v="hill" />
		<tag k="place" v="locality" />
		<tag k="ssr:stedsnr" v="275442" />
	</node>
	<node lat="59.95426388564812" lon="9.707569449099294" id="-18242">
		<tag k="name" v="Tjennhaugen" />
		<tag k="natural" v="hill" />
		<tag k="place" v="locality" />
		<tag k="ssr:stedsnr" v="275533" />
	</node>
	<node lat="60.037094442170094" lon="9.625022227983706" id="-18247">
		<tag k="name" v="Flata" />
		<tag k="place" v="locality" />
		<tag k="ssr:stedsnr" v="275656" />
	</node>
	<node lat="60.02954166800527" lon="9.745822222390492" id="-18248">
		<tag k="name" v="Postbakkane" />
		<tag k="natural" v="slope" />
		<tag k="place" v="locality" />
		<tag k="ssr:stedsnr" v="275746" />
	</node>
	<node lat="60.04443888581568" lon="9.59626111749883" id="-18249">
		<tag k="name" v="Skabergåsen" />
		<tag k="natural" v="hill" />
		<tag k="place" v="locality" />
		<tag k="ssr:stedsnr" v="275747" />
	</node>
	<node lat="60.033700004159826" lon="9.765794440821312" id="-18251">
		<tag k="name" v="Øvre Møllbakke" />
		<tag k="natural" v="slope" />
		<tag k="place" v="locality" />
		<tag k="ssr:stedsnr" v="275751" />
	</node>
	<node lat="60.050736114779795" lon="9.767955551061608" id="-18253">
		<tag k="name" v="Seteråsen" />
		<tag k="natural" v="hill" />
		<tag k="place" v="locality" />
		<tag k="ssr:stedsnr" v="275759" />
	</node>
	<node lat="60.07625000072546" lon="9.436055549176197" id="-18255">
		<tag k="name" v="Godthøl" />
		<tag k="natural" v="valley" />
		<tag k="place" v="locality" />
		<tag k="ssr:stedsnr" v="275883" />
	</node>
	<node lat="60.026619440221445" lon="9.602716658844988" id="-18257">
		<tag k="name" v="Styggedæla" />
		<tag k="natural" v="valley" />
		<tag k="place" v="locality" />
		<tag k="ssr:stedsnr" v="275695" />
	</node>
	<node lat="59.98120277558759" lon="9.830716667436157" id="-18260">
		<tag k="name" v="Seterhaugen" />
		<tag k="natural" v="hill" />
		<tag k="place" v="locality" />
		<tag k="ssr:stedsnr" v="275793" />
	</node>
	<node lat="60.087402776593855" lon="9.498388890713036" id="-18261">
		<tag k="name" v="Høla" />
		<tag k="place" v="locality" />
		<tag k="ssr:stedsnr" v="275915" />
	</node>
	<node lat="60.06847500313326" lon="9.457791671385316" id="-18263">
		<tag k="name" v="Svartetjennlia" />
		<tag k="natural" v="slope" />
		<tag k="place" v="locality" />
		<tag k="ssr:stedsnr" v="275937" />
	</node>
	<node lat="60.073686114105136" lon="9.458355555526257" id="-18264">
		<tag k="name" v="Bjønnsokberga" />
		<tag k="natural" v="slope" />
		<tag k="place" v="locality" />
		<tag k="ssr:stedsnr" v="275967" />
	</node>
	<node lat="60.10000832898475" lon="9.58122499488852" id="-18265">
		<tag k="name" v="Busteåsen" />
		<tag k="natural" v="slope" />
		<tag k="place" v="locality" />
		<tag k="ssr:stedsnr" v="275859" />
	</node>
	<node lat="60.23201388860731" lon="9.427144440404806" id="-18269">
		<tag k="fixme" v="consider natural=peak for the most distinct mountains in the district" />
		<tag k="name" v="Rakketjennåsen" />
		<tag k="natural" v="hill" />
		<tag k="place" v="locality" />
		<tag k="ssr:stedsnr" v="307296" />
	</node>
	<node lat="60.21761110721061" lon="9.437966665811336" id="-18270">
		<tag k="alt_name" v="Djupedal" />
		<tag k="name" v="Djupdal" />
		<tag k="natural" v="valley" />
		<tag k="place" v="locality" />
		<tag k="ssr:stedsnr" v="307300" />
	</node>
	<node lat="60.131477778492936" lon="9.454436105952079" id="-18271">
		<tag k="fixme" v="consider natural=peak for the most distinct mountains in the district" />
		<tag k="name" v="Myranåsen" />
		<tag k="natural" v="hill" />
		<tag k="place" v="locality" />
		<tag k="ssr:stedsnr" v="307434" />
	</node>
	<node lat="60.13755833737959" lon="9.488252781620384" id="-18272">
		<tag k="fixme" v="consider natural=peak for the most distinct mountains in the district" />
		<tag k="name" v="Tretjennhøgda" />
		<tag k="natural" v="hill" />
		<tag k="place" v="locality" />
		<tag k="ssr:stedsnr" v="307436" />
	</node>
	<node lat="60.05013055172895" lon="9.678494435953018" id="-18279">
		<tag k="name" v="Tukudalen" />
		<tag k="natural" v="valley" />
		<tag k="place" v="locality" />
		<tag k="ssr:stedsnr" v="307883" />
	</node>
	<node lat="60.24014444295204" lon="9.53011666437991" id="-18282">
		<tag k="name" v="Norefjell" />
		<tag k="natural" v="mountain_range" />
		<tag k="ssr:stedsnr" v="308234" />
	</node>
	<node lat="60.23211388804129" lon="9.267716669903818" id="-18283">
		<tag k="fixme" v="consider natural=peak for the most distinct mountains in the district" />
		<tag k="name" v="Nastadåsen" />
		<tag k="natural" v="hill" />
		<tag k="place" v="locality" />
		<tag k="ssr:stedsnr" v="308237" />
	</node>
	<node lat="59.99132500237204" lon="9.675024994708199" id="-18291">
		<tag k="name" v="Jønnemyråsen" />
		<tag k="natural" v="hill" />
		<tag k="place" v="locality" />
		<tag k="ssr:stedsnr" v="308981" />
	</node>
	<node lat="60.322194444688364" lon="9.271297224667034" id="-18293">
		<tag k="fixme" v="consider natural=peak for the most distinct mountains in the district" />
		<tag k="name" v="Maureliåsen" />
		<tag k="natural" v="hill" />
		<tag k="place" v="locality" />
		<tag k="ssr:stedsnr" v="309057" />
	</node>
	<node lat="60.23410833489967" lon="9.174286111532068" id="-18294">
		<tag k="name" v="Kårsethøgda" />
		<tag k="natural" v="hill" />
		<tag k="place" v="locality" />
		<tag k="ssr:stedsnr" v="308872" />
	</node>
	<node lat="60.251322219352566" lon="9.395388885621976" id="-18300">
		<tag k="name" v="Sløgjajuvet" />
		<tag k="natural" v="gorge" />
		<tag k="ssr:stedsnr" v="333170" />
	</node>
	<node lat="60.29090000156543" lon="9.20976944221674" id="-18304">
		<tag k="name" v="Sokketorhaugane" />
		<tag k="natural" v="hill" />
		<tag k="place" v="locality" />
		<tag k="ssr:stedsnr" v="333041" />
	</node>
	<node lat="60.117202781211496" lon="9.289452776255631" id="-18310">
		<tag k="name" v="Repetjennmoen" />
		<tag k="place" v="locality" />
		<tag k="ssr:stedsnr" v="333386" />
	</node>
	<node lat="60.21869722004287" lon="9.263386111635956" id="-18311">
		<tag k="fixme" v="consider natural=peak for the most distinct mountains in the district" />
		<tag k="name" v="Storhovdåsen" />
		<tag k="natural" v="hill" />
		<tag k="place" v="locality" />
		<tag k="ssr:stedsnr" v="333472" />
	</node>
	<node lat="60.21102499689386" lon="9.296280548414114" id="-18312">
		<tag k="name" v="Skranglefjell" />
		<tag k="natural" v="slope" />
		<tag k="place" v="locality" />
		<tag k="ssr:stedsnr" v="333479" />
	</node>
	<node lat="60.21402222044008" lon="9.275402770571828" id="-18313">
		<tag k="name" v="Kåvådæla" />
		<tag k="natural" v="valley" />
		<tag k="place" v="locality" />
		<tag k="ssr:stedsnr" v="333487" />
	</node>
	<node lat="60.207630554932024" lon="9.26476944594912" id="-18314">
		<tag k="name" v="Skriutjenndalen" />
		<tag k="natural" v="valley" />
		<tag k="place" v="locality" />
		<tag k="ssr:stedsnr" v="333492" />
	</node>
	<node lat="60.18714444279733" lon="9.27323610237382" id="-18315">
		<tag k="name" v="Bekkedalen" />
		<tag k="natural" v="valley" />
		<tag k="place" v="locality" />
		<tag k="ssr:stedsnr" v="333643" />
	</node>
	<node lat="60.185294448433375" lon="9.339675002270694" id="-18319">
		<tag k="name" v="Gørrtjennlia" />
		<tag k="natural" v="slope" />
		<tag k="place" v="locality" />
		<tag k="ssr:stedsnr" v="333732" />
	</node>
	<node lat="60.2523527748676" lon="9.440933330400451" id="-18321">
		<tag k="fixme" v="consider natural=peak for the most distinct mountains in the district" />
		<tag k="name" v="Heggebæråsen" />
		<tag k="natural" v="hill" />
		<tag k="place" v="locality" />
		<tag k="ssr:stedsnr" v="334186" />
	</node>
	<node lat="60.13290277571366" lon="9.456966675535208" id="-18322">
		<tag k="name" v="Risbrøtt" />
		<tag k="natural" v="hill" />
		<tag k="place" v="locality" />
		<tag k="ssr:stedsnr" v="334277" />
	</node>
	<node lat="60.11836944014767" lon="9.474716670000841" id="-18323">
		<tag k="name" v="Ormekulåsen" />
		<tag k="natural" v="ridge" />
		<tag k="place" v="locality" />
		<tag k="ssr:stedsnr" v="334362" />
	</node>
	<node lat="60.11186389124515" lon="9.45687777410328" id="-18324">
		<tag k="name" v="Moane" />
		<tag k="place" v="locality" />
		<tag k="ssr:stedsnr" v="334371" />
	</node>
	<node lat="60.17081666508726" lon="9.36159721672421" id="-18333">
		<tag k="fixme" v="consider natural=peak for the most distinct mountains in the district" />
		<tag k="name" v="Gravningsåsen" />
		<tag k="natural" v="hill" />
		<tag k="place" v="locality" />
		<tag k="ssr:stedsnr" v="334979" />
	</node>
	<node lat="60.004355558446015" lon="9.666727779653504" id="-18334">
		<tag k="name" v="Haukåbakken" />
		<tag k="natural" v="slope" />
		<tag k="place" v="locality" />
		<tag k="ssr:stedsnr" v="335111" />
	</node>
	<node lat="60.017166663902735" lon="9.671427771367526" id="-18336">
		<tag k="name" v="Delesgrinda" />
		<tag k="place" v="locality" />
		<tag k="ssr:stedsnr" v="335119" />
	</node>
	<node lat="59.926583330681304" lon="9.685936106796234" id="-18342">
		<tag k="name" v="Kjellaren" />
		<tag k="place" v="locality" />
		<tag k="ssr:stedsnr" v="335276" />
	</node>
	<node lat="60.148186108378994" lon="9.493594444375352" id="-18348">
		<tag k="name" v="Gampemyrhaugane" />
		<tag k="natural" v="hill" />
		<tag k="place" v="locality" />
		<tag k="ssr:stedsnr" v="335428" />
	</node>
	<node lat="60.023738888402676" lon="9.752397221390458" id="-18353">
		<tag k="name" v="Gusførhaugane" />
		<tag k="natural" v="hill" />
		<tag k="place" v="locality" />
		<tag k="ssr:stedsnr" v="335778" />
	</node>
	<node lat="60.06255000403382" lon="9.613008338754785" id="-18361">
		<tag k="fixme" v="consider natural=peak for the most distinct mountains in the district" />
		<tag k="name" v="Lauvbrennåsen" />
		<tag k="natural" v="hill" />
		<tag k="place" v="locality" />
		<tag k="ssr:stedsnr" v="335795" />
	</node>
	<node lat="60.031438893057484" lon="9.742644445754244" id="-18363">
		<tag k="name" v="Vindfallhølet" />
		<tag k="natural" v="valley" />
		<tag k="place" v="locality" />
		<tag k="ssr:stedsnr" v="335797" />
	</node>
	<node lat="60.05629166358357" lon="9.723199995163124" id="-18365">
		<tag k="name" v="Nakjinås" />
		<tag k="natural" v="slope" />
		<tag k="place" v="locality" />
		<tag k="ssr:stedsnr" v="335826" />
	</node>
	<node lat="60.05162500397439" lon="9.73501111831676" id="-18366">
		<tag k="fixme" v="consider natural=peak for the most distinct mountains in the district" />
		<tag k="name" v="Julsbråtaåsen" />
		<tag k="natural" v="hill" />
		<tag k="place" v="locality" />
		<tag k="ssr:stedsnr" v="335829" />
	</node>
	<node lat="60.04542778177487" lon="9.510316658042981" id="-18369">
		<tag k="name" v="Hellerudhaugen" />
		<tag k="natural" v="hill" />
		<tag k="place" v="locality" />
		<tag k="ssr:stedsnr" v="336200" />
	</node>
	<node lat="60.05479166663157" lon="9.456955564405625" id="-18371">
		<tag k="name" v="Nordmarka" />
		<tag k="natural" v="hill" />
		<tag k="place" v="locality" />
		<tag k="ssr:stedsnr" v="336216" />
	</node>
	<node lat="60.08355833270266" lon="9.590166663787725" id="-18374">
		<tag k="name" v="Storekleiv" />
		<tag k="natural" v="slope" />
		<tag k="place" v="locality" />
		<tag k="ssr:stedsnr" v="336382" />
	</node>
	<node lat="60.00152500366805" lon="9.558449995069486" id="-18376">
		<tag k="name" v="Lauvbrenna" />
		<tag k="natural" v="slope" />
		<tag k="place" v="locality" />
		<tag k="ssr:stedsnr" v="336719" />
	</node>
	<node lat="59.98654722045692" lon="9.562055559368822" id="-18378">
		<tag k="name" v="Hestehagan" />
		<tag k="natural" v="slope" />
		<tag k="place" v="locality" />
		<tag k="ssr:stedsnr" v="336726" />
	</node>
	<node lat="60.095200002862946" lon="9.650377777323362" id="-18382">
		<tag k="fixme" v="consider natural=peak for the most distinct mountains in the district" />
		<tag k="name" v="Pøllåsen" />
		<tag k="natural" v="hill" />
		<tag k="place" v="locality" />
		<tag k="ssr:stedsnr" v="336899" />
	</node>
	<node lat="60.10704444687766" lon="9.573986114331417" id="-18385">
		<tag k="name" v="Eldstamphølet" />
		<tag k="natural" v="valley" />
		<tag k="place" v="locality" />
		<tag k="ssr:stedsnr" v="336876" />
	</node>
	<node lat="60.00947778211397" lon="9.763894438010377" id="-18387">
		<tag k="name" v="Søledika" />
		<tag k="place" v="locality" />
		<tag k="ssr:stedsnr" v="336890" />
	</node>
	<node lat="59.99200000358076" lon="9.710769442710562" id="-18390">
		<tag k="name" v="Gampedæla" />
		<tag k="natural" v="valley" />
		<tag k="place" v="locality" />
		<tag k="ssr:stedsnr" v="336987" />
	</node>
	<node lat="60.07764722540072" lon="9.605177782545676" id="-18396">
		<tag k="name" v="Stillingsåsen" />
		<tag k="natural" v="hill" />
		<tag k="place" v="locality" />
		<tag k="ssr:stedsnr" v="369849" />
	</node>
</osm>
