<?xml version="1.0" encoding="UTF-8"?>
<osm generator="osmapis" version="0.6">
	<node id="-253951" lat="59.9747083316" lon="9.5109250047">
		<tag k="name" v="Nedre Aurehølen" />
		<tag k="place" v="locality" />
		<tag k="ssr:stedsnr" v="489342" />
	</node>
	<node id="-251898" lat="60.0938305584" lon="9.63331112006">
		<tag k="name" v="Seterbekken" />
		<tag k="ssr:stedsnr" v="943864" />
		<tag k="waterway" v="stream" />
	</node>
	<node id="-251896" lat="59.9962027739" lon="9.63308055101">
		<tag k="name" v="Helletjenn" />
		<tag k="natural" v="water" />
		<tag k="ssr:stedsnr" v="854970" />
	</node>
	<node id="-251887" lat="60.1972096082" lon="9.2887603667">
		<tag k="name" v="Høvretjenn" />
		<tag k="natural" v="water" />
		<tag k="ssr:stedsnr" v="854468" />
	</node>
	<node id="-251886" lat="60.2128472187" lon="9.40303055752">
		<tag k="name" v="Sagbekken" />
		<tag k="ssr:stedsnr" v="854459" />
		<tag k="waterway" v="stream" />
	</node>
	<node id="-251883" lat="60.1316250018" lon="9.23948332897">
		<tag k="name" v="Kvitvatn" />
		<tag k="natural" v="water" />
		<tag k="ssr:stedsnr" v="854417" />
	</node>
	<node id="-251881" lat="60.1319450373" lon="9.27907666337">
		<tag k="name" v="Grunntjenn" />
		<tag k="natural" v="water" />
		<tag k="ssr:stedsnr" v="854412" />
	</node>
	<node id="-251875" lat="60.0706245615" lon="9.58470967537">
		<tag k="name" v="Åstjenn" />
		<tag k="natural" v="water" />
		<tag k="ssr:stedsnr" v="854062" />
	</node>
	<node id="-251864" lat="59.9968277771" lon="9.49395000149">
		<tag k="fixme" v="multiple name tags, choose one and add the other to alt_name" />
		<tag k="name" v="Nedre Kvernhølen;Kvernhølen" />
		<tag k="place" v="locality" />
		<tag k="ssr:stedsnr" v="853226" />
	</node>
	<node id="-250531" lat="60.0412874351" lon="9.49291256923">
		<tag k="name" v="Feletjenna" />
		<tag k="natural" v="water" />
		<tag k="ssr:stedsnr" v="275166" />
	</node>
	<node id="-251856" lat="60.1238611144" lon="9.54594167572">
		<tag k="name" v="Munkebekk" />
		<tag k="ssr:stedsnr" v="943468" />
		<tag k="waterway" v="stream" />
	</node>
	<node id="-251854" lat="60.0857055583" lon="9.60718055895">
		<tag k="name" v="Seterbekken" />
		<tag k="ssr:stedsnr" v="943417" />
		<tag k="waterway" v="stream" />
	</node>
	<node id="-251845" lat="60.0139333372" lon="9.5547138939">
		<tag k="name" v="Storebrannfoss" />
		<tag k="natural" v="waterfall" />
		<tag k="ssr:stedsnr" v="943289" />
	</node>
	<node id="-251843" lat="60.0315194467" lon="9.52121945018">
		<tag k="name" v="Nedre Sulutjenn" />
		<tag k="natural" v="water" />
		<tag k="ssr:stedsnr" v="943245" />
	</node>
	<node id="-253890" lat="60.3457722225" lon="9.14792777205">
		<tag k="name" v="Groptjenn" />
		<tag k="natural" v="water" />
		<tag k="ssr:stedsnr" v="856449" />
	</node>
	<node id="-251836" lat="60.0002611086" lon="9.50781944812">
		<tag k="name" v="Nedre Megardstjenn" />
		<tag k="natural" v="water" />
		<tag k="ssr:stedsnr" v="943140" />
	</node>
	<node id="-251835" lat="60.0163694442" lon="9.52324722478">
		<tag k="name" v="Toretjenn" />
		<tag k="natural" v="water" />
		<tag k="ssr:stedsnr" v="943132" />
	</node>
	<node id="-253882" lat="60.0755000019" lon="9.37355000121">
		<tag k="alt_name" v="Store-Gaulen" />
		<tag k="name" v="Gaulsvatna" />
		<tag k="natural" v="water" />
		<tag k="ssr:stedsnr" v="855095" />
	</node>
	<node id="-253880" lat="59.9778333316" lon="9.65132499347">
		<tag k="name" v="Grimetjenn" />
		<tag k="natural" v="water" />
		<tag k="ssr:stedsnr" v="854945" />
	</node>
	<node id="-253877" lat="59.9821361137" lon="9.59875556385">
		<tag k="name" v="Emmerudtjenn" />
		<tag k="natural" v="water" />
		<tag k="ssr:stedsnr" v="854937" />
	</node>
	<node id="-250867" lat="60.0250750016" lon="9.56813333458">
		<tag k="name" v="Jansbråtabekken" />
		<tag k="ssr:stedsnr" v="518245" />
		<tag k="waterway" v="stream" />
	</node>
	<node id="-253869" lat="59.9390361131" lon="9.64354167279">
		<tag k="name" v="Klabutjenn" />
		<tag k="natural" v="water" />
		<tag k="ssr:stedsnr" v="854746" />
	</node>
	<node id="-253867" lat="60.1148421582" lon="9.54971325251">
		<tag k="alt_name" v="Perlemyr" />
		<tag k="name" v="Pelemyrtjenn" />
		<tag k="natural" v="water" />
		<tag k="ssr:stedsnr" v="854386" />
	</node>
	<node id="-253860" lat="60.0503500029" lon="9.42037777494">
		<tag k="name" v="Hansbakkbekken" />
		<tag k="ssr:stedsnr" v="854044" />
		<tag k="waterway" v="stream" />
	</node>
	<node id="-253859" lat="60.0198776061" lon="9.45002057659">
		<tag k="name" v="Grytevatn" />
		<tag k="natural" v="water" />
		<tag k="ssr:stedsnr" v="854019" />
		<tag k="water" v="lake" />
	</node>
	<node id="-253858" lat="60.0169944413" lon="9.48469165897">
		<tag k="name" v="Svarteputt" />
		<tag k="natural" v="water" />
		<tag k="ssr:stedsnr" v="854012" />
	</node>
	<node id="-251806" lat="60.012586115" lon="9.63331110235">
		<tag k="name" v="Sjutjennsputtane" />
		<tag k="natural" v="water" />
		<tag k="ssr:stedsnr" v="942212" />
		<tag k="water" v="pond" />
	</node>
	<node id="-251805" lat="60.0092944432" lon="9.6101666717">
		<tag k="name" v="Løken" />
		<tag k="natural" v="water" />
		<tag k="ssr:stedsnr" v="942208" />
		<tag k="water" v="lake" />
	</node>
	<node id="-251798" lat="60.0726555591" lon="9.3734333362">
		<tag k="name" v="Størrtjennet" />
		<tag k="natural" v="water" />
		<tag k="ssr:stedsnr" v="941917" />
	</node>
	<node id="-253845" lat="60.0443499989" lon="9.76388888182">
		<tag k="alt_name" v="Nattjern" />
		<tag k="name" v="Nattjenn" />
		<tag k="natural" v="water" />
		<tag k="ssr:stedsnr" v="821787" />
	</node>
	<node id="-251796" lat="60.0966334894" lon="9.41896298102">
		<tag k="name" v="Kolletjenn" />
		<tag k="natural" v="water" />
		<tag k="ssr:stedsnr" v="941896" />
	</node>
	<node id="-250862" lat="59.9981472227" lon="9.471583326">
		<tag k="name" v="Flaberghølen" />
		<tag k="place" v="locality" />
		<tag k="ssr:stedsnr" v="518073" />
	</node>
	<node id="-251784" lat="60.1275722221" lon="9.43448334192">
		<tag k="name" v="Svartelibekken" />
		<tag k="ssr:stedsnr" v="941397" />
		<tag k="waterway" v="stream" />
	</node>
	<node id="-251780" lat="60.1500305547" lon="9.4446305515">
		<tag k="name" v="Storevjua" />
		<tag k="natural" v="water" />
		<tag k="ssr:stedsnr" v="941192" />
		<tag k="water" v="lake" />
	</node>
	<node id="-251776" lat="60.1171583291" lon="9.37488888513">
		<tag k="name" v="Glitra" />
		<tag k="ssr:stedsnr" v="941062" />
		<tag k="waterway" v="stream" />
	</node>
	<node id="-253820" lat="59.9637249982" lon="9.66194999541">
		<tag k="name" v="Svarttjenn" />
		<tag k="natural" v="water" />
		<tag k="ssr:stedsnr" v="821351" />
	</node>
	<node id="-253816" lat="59.9970972213" lon="9.64032777277">
		<tag k="name" v="Skauteputtane" />
		<tag k="natural" v="water" />
		<tag k="ssr:stedsnr" v="821138" />
		<tag k="water" v="pond" />
	</node>
	<node id="-251767" lat="60.216669443" lon="9.35645833245">
		<tag k="name" v="Flatinbekken" />
		<tag k="ssr:stedsnr" v="940850" />
		<tag k="waterway" v="stream" />
	</node>
	<node id="-251763" lat="60.2763861076" lon="9.2424972157">
		<tag k="name" v="Snaukolltjenn" />
		<tag k="natural" v="water" />
		<tag k="ssr:stedsnr" v="940841" />
	</node>
	<node id="-251762" lat="60.2313194412" lon="9.36476111598">
		<tag k="name" v="Igletjenn" />
		<tag k="natural" v="water" />
		<tag k="ssr:stedsnr" v="940840" />
	</node>
	<node id="-251761" lat="60.2685972188" lon="9.22530833989">
		<tag k="name" v="Løkan" />
		<tag k="place" v="locality" />
		<tag k="ssr:stedsnr" v="940838" />
	</node>
	<node id="-251197" lat="60.1578444413" lon="9.23763889046">
		<tag k="name" v="Buvasshugu" />
		<tag k="natural" v="bay" />
		<tag k="ssr:stedsnr" v="636155" />
	</node>
	<node id="-251538" lat="60.0910333319" lon="9.49519445089">
		<tag k="name" v="Mikkeltjenn" />
		<tag k="natural" v="water" />
		<tag k="ssr:stedsnr" v="733141" />
	</node>
	<node id="-251754" lat="60.1983666684" lon="9.24843889033">
		<tag k="name" v="Nedre Feratjenn" />
		<tag k="natural" v="water" />
		<tag k="ssr:stedsnr" v="940445" />
	</node>
	<node id="-251752" lat="60.1167555553" lon="9.29559444164">
		<tag k="name" v="Vesle Repetjenn" />
		<tag k="natural" v="water" />
		<tag k="ssr:stedsnr" v="940354" />
	</node>
	<node id="-251751" lat="60.3421638857" lon="9.18423610648">
		<tag k="name" v="Flenta" />
		<tag k="ssr:stedsnr" v="940195" />
		<tag k="waterway" v="stream" />
	</node>
	<node id="-253798" lat="60.0147055573" lon="9.53920277021">
		<tag k="name" v="Fjøstjenn" />
		<tag k="natural" v="water" />
		<tag k="ssr:stedsnr" v="821026" />
		<tag k="water" v="pond" />
	</node>
	<node id="-251749" lat="60.2572805521" lon="9.2292111156">
		<tag k="name" v="Svartekulp" />
		<tag k="natural" v="water" />
		<tag k="ssr:stedsnr" v="940169" />
		<tag k="water" v="pond" />
	</node>
	<node id="-253795" lat="60.0677472248" lon="9.40538054974">
		<tag k="name" v="Bjønnetjenn" />
		<tag k="natural" v="water" />
		<tag k="ssr:stedsnr" v="820932" />
	</node>
	<node id="-253794" lat="60.0682611149" lon="9.38847777998">
		<tag k="name" v="Rognetjenn" />
		<tag k="natural" v="water" />
		<tag k="ssr:stedsnr" v="820931" />
	</node>
	<node id="-251744" lat="60.1665333299" lon="9.22810000352">
		<tag k="name" v="Delesodden" />
		<tag k="natural" v="cape" />
		<tag k="ssr:stedsnr" v="940140" />
	</node>
	<node id="-251743" lat="60.3062750008" lon="9.26997777023">
		<tag k="name" v="Sinefurubekken" />
		<tag k="ssr:stedsnr" v="940132" />
		<tag k="waterway" v="stream" />
	</node>
	<node id="-251194" lat="60.3127083367" lon="9.25958333584">
		<tag k="name" v="Halvorsetbekken" />
		<tag k="ssr:stedsnr" v="636120" />
		<tag k="waterway" v="stream" />
	</node>
	<node id="-253785" lat="60.1950750038" lon="9.4019944509">
		<tag k="name" v="Smilstjennputten" />
		<tag k="natural" v="water" />
		<tag k="ssr:stedsnr" v="819994" />
		<tag k="water" v="pond" />
	</node>
	<node id="-253784" lat="60.1668444448" lon="9.35755278379">
		<tag k="name" v="Klypefoss" />
		<tag k="natural" v="waterfall" />
		<tag k="ssr:stedsnr" v="819983" />
	</node>
	<node id="-251732" lat="60.2497666662" lon="9.30524444389">
		<tag k="name" v="Kaugerudhølen" />
		<tag k="place" v="locality" />
		<tag k="ssr:stedsnr" v="939928" />
	</node>
	<node id="-253779" lat="60.3383277773" lon="9.17708055576">
		<tag k="name" v="Moltemyrløken" />
		<tag k="ssr:stedsnr" v="819888" />
		<tag k="waterway" v="stream" />
	</node>
	<node id="-253776" lat="60.1745638879" lon="9.46494999964">
		<tag k="name" v="Tretjenn" />
		<tag k="natural" v="water" />
		<tag k="ssr:stedsnr" v="819701" />
	</node>
	<node id="-251192" lat="60.2089111096" lon="9.22763055828">
		<tag k="name" v="Helletjenn" />
		<tag k="natural" v="water" />
		<tag k="ssr:stedsnr" v="636065" />
	</node>
	<node id="-251726" lat="60.3339727286" lon="9.3067819464">
		<tag k="name" v="Tverrhøggvatnet" />
		<tag k="natural" v="water" />
		<tag k="ssr:stedsnr" v="933155" />
	</node>
	<node id="-251723" lat="60.1008750014" lon="9.64839445247">
		<tag k="name" v="Loppedammen" />
		<tag k="natural" v="water" />
		<tag k="ssr:stedsnr" v="822923" />
		<tag k="water" v="pond" />
	</node>
	<node id="-251721" lat="60.1022361072" lon="9.60353056422">
		<tag k="name" v="Mellom-Bjørketjenn" />
		<tag k="natural" v="water" />
		<tag k="ssr:stedsnr" v="822908" />
	</node>
	<node id="-253767" lat="60.2892388923" lon="9.21986944023">
		<tag k="name" v="Bjønnlitjenn" />
		<tag k="natural" v="water" />
		<tag k="ssr:stedsnr" v="819046" />
	</node>
	<node id="-253764" lat="60.299727777" lon="9.22471111277">
		<tag k="name" v="Den lange lykkja" />
		<tag k="place" v="locality" />
		<tag k="ssr:stedsnr" v="819094" />
	</node>
	<node id="-253759" lat="60.2642027823" lon="9.28653332731">
		<tag k="name" v="Beinstigfossen" />
		<tag k="natural" v="waterfall" />
		<tag k="ssr:stedsnr" v="818880" />
	</node>
	<node id="-250165" lat="60.0568583366" lon="9.56770555563">
		<tag k="name" v="Rånåbekk" />
		<tag k="ssr:stedsnr" v="275338" />
		<tag k="waterway" v="stream" />
	</node>
	<node id="-253755" lat="60.1983535447" lon="9.25115919767">
		<tag k="name" v="Øvre Feratjenn" />
		<tag k="natural" v="water" />
		<tag k="ssr:stedsnr" v="818491" />
	</node>
	<node id="-253752" lat="60.1638138854" lon="9.2121444518">
		<tag k="name" v="Gunnarodden" />
		<tag k="natural" v="cape" />
		<tag k="ssr:stedsnr" v="818126" />
	</node>
	<node id="-251703" lat="59.998400671" lon="9.81764260913">
		<tag k="alt_name" v="Kroktjerna" />
		<tag k="name" v="Kroktjenna" />
		<tag k="natural" v="water" />
		<tag k="ssr:stedsnr" v="821675" />
		<tag k="water" v="lake" />
	</node>
	<node id="-253745" lat="60.1610250001" lon="9.22626666631">
		<tag k="name" v="Buvasselva" />
		<tag k="ssr:stedsnr" v="818027" />
		<tag k="waterway" v="river" />
	</node>
	<node id="-253743" lat="59.9982555554" lon="9.52391944529">
		<tag k="name" v="Eirputten" />
		<tag k="natural" v="water" />
		<tag k="ssr:stedsnr" v="811327" />
		<tag k="water" v="pond" />
	</node>
	<node id="-251694" lat="59.952147225" lon="9.68579999712">
		<tag k="name" v="Brattefoss" />
		<tag k="natural" v="waterfall" />
		<tag k="ssr:stedsnr" v="821475" />
	</node>
	<node id="-251693" lat="60.1415166657" lon="9.54818054721">
		<tag k="name" v="Slibekk" />
		<tag k="ssr:stedsnr" v="821466" />
		<tag k="waterway" v="stream" />
	</node>
	<node id="-251692" lat="60.0691861126" lon="9.53784721661">
		<tag k="name" v="Aurevika" />
		<tag k="natural" v="bay" />
		<tag k="ssr:stedsnr" v="821458" />
	</node>
	<node id="-250162" lat="60.0624611096" lon="9.47747777667">
		<tag k="name" v="Steinbekk" />
		<tag k="ssr:stedsnr" v="275180" />
		<tag k="waterway" v="stream" />
	</node>
	<node id="-253738" lat="60.2615305555" lon="9.25488333004">
		<tag k="name" v="Brennabekken" />
		<tag k="ssr:stedsnr" v="795140" />
		<tag k="waterway" v="stream" />
	</node>
	<node id="-253737" lat="60.2994555526" lon="9.38693056038">
		<tag k="name" v="Vesletjenn" />
		<tag k="natural" v="water" />
		<tag k="ssr:stedsnr" v="795110" />
	</node>
	<node id="-253736" lat="60.322279281" lon="9.33531345773">
		<tag k="name" v="Øvre Tovevatnet" />
		<tag k="natural" v="water" />
		<tag k="ssr:stedsnr" v="795083" />
	</node>
	<node id="-253734" lat="60.2040638928" lon="9.17799722816">
		<tag k="name" v="Flåvatna" />
		<tag k="natural" v="water" />
		<tag k="ssr:stedsnr" v="794583" />
		<tag k="water" v="lake" />
	</node>
	<node id="-253732" lat="60.0739916669" lon="9.68104444726">
		<tag k="name" v="Tukuelva" />
		<tag k="ssr:stedsnr" v="794842" />
		<tag k="waterway" v="stream" />
	</node>
	<node id="-253731" lat="60.0907551596" lon="9.68156206459">
		<tag k="name" v="Svartputt" />
		<tag k="natural" v="water" />
		<tag k="ssr:stedsnr" v="794841" />
	</node>
	<node id="-251681" lat="60.0781944432" lon="9.37713888013">
		<tag k="name" v="Den fremre bekken" />
		<tag k="ssr:stedsnr" v="820916" />
		<tag k="waterway" v="stream" />
	</node>
	<node id="-253728" lat="60.0735249992" lon="9.58961111513">
		<tag k="name" v="Fisibutjenn" />
		<tag k="natural" v="water" />
		<tag k="ssr:stedsnr" v="794086" />
	</node>
	<node id="-253723" lat="60.0728055516" lon="9.69834445249">
		<tag k="name" v="Piperudtjenn" />
		<tag k="natural" v="water" />
		<tag k="ssr:stedsnr" v="793890" />
	</node>
	<node id="-251673" lat="60.0899972214" lon="9.40094443789">
		<tag k="name" v="Søre Borofjelltjenn" />
		<tag k="natural" v="water" />
		<tag k="ssr:stedsnr" v="819913" />
	</node>
	<node id="-253720" lat="60.2383819155" lon="9.18620879309">
		<tag k="alt_name" v="Illtanntjenn" />
		<tag k="name" v="Illtanntjenna" />
		<tag k="natural" v="water" />
		<tag k="ssr:stedsnr" v="793990" />
		<tag k="water" v="lake" />
	</node>
	<node id="-253719" lat="60.0095833331" lon="9.63042222172">
		<tag k="alt_name" v="Hønnsjøen" />
		<tag k="name" v="Hornsjøen" />
		<tag k="natural" v="water" />
		<tag k="ssr:stedsnr" v="793988" />
	</node>
	<node id="-253718" lat="59.9930555544" lon="9.64251111987">
		<tag k="name" v="Store Trytetjenn" />
		<tag k="natural" v="water" />
		<tag k="ssr:stedsnr" v="793980" />
	</node>
	<node id="-250499" lat="60.1555083342" lon="9.34729722392">
		<tag k="name" v="Sinerbekken" />
		<tag k="ssr:stedsnr" v="273656" />
		<tag k="waterway" v="stream" />
	</node>
	<node id="-253712" lat="60.2153587794" lon="9.30733724819">
		<tag k="name" v="Gurotjenn" />
		<tag k="natural" v="water" />
		<tag k="ssr:stedsnr" v="793517" />
	</node>
	<node id="-253711" lat="60.2171305589" lon="9.45842499758">
		<tag k="name" v="Tranetjenn" />
		<tag k="natural" v="water" />
		<tag k="ssr:stedsnr" v="793513" />
	</node>
	<node id="-253710" lat="60.2108666634" lon="9.47489999663">
		<tag k="name" v="Lauvliløken" />
		<tag k="ssr:stedsnr" v="793511" />
		<tag k="waterway" v="stream" />
	</node>
	<node id="-253709" lat="60.1697055578" lon="9.24221388963">
		<tag k="alt_name" v="Svansvatnet" />
		<tag k="name" v="Svansvatn" />
		<tag k="natural" v="water" />
		<tag k="ssr:stedsnr" v="793494" />
		<tag k="water" v="lake" />
	</node>
	<node id="-253704" lat="60.1438499984" lon="9.36904444758">
		<tag k="alt_name" v="Goplitjenn" />
		<tag k="name" v="Goplitjenna" />
		<tag k="natural" v="water" />
		<tag k="ssr:stedsnr" v="793441" />
		<tag k="water" v="lake" />
	</node>
	<node id="-253700" lat="60.1097777746" lon="9.27067499378">
		<tag k="name" v="Langvassåa" />
		<tag k="ssr:stedsnr" v="793401" />
		<tag k="waterway" v="stream" />
	</node>
	<node id="-253698" lat="60.1225305521" lon="9.28219445279">
		<tag k="name" v="Holmevatnet" />
		<tag k="natural" v="water" />
		<tag k="ssr:stedsnr" v="793391" />
	</node>
	<node id="-253697" lat="60.0905194474" lon="9.36375832499">
		<tag k="alt_name" v="Damtjenn" />
		<tag k="name" v="Damtjenna" />
		<tag k="natural" v="water" />
		<tag k="ssr:stedsnr" v="793113" />
		<tag k="water" v="lake" />
	</node>
	<node id="-253696" lat="60.0630722183" lon="9.43499443897">
		<tag k="alt_name" v="Svartetjenn" />
		<tag k="name" v="Svartetjennet" />
		<tag k="natural" v="water" />
		<tag k="ssr:stedsnr" v="793073" />
	</node>
	<node id="-253694" lat="60.2226166706" lon="9.38971388342">
		<tag k="name" v="Tovstjennbekken" />
		<tag k="ssr:stedsnr" v="793282" />
		<tag k="waterway" v="stream" />
	</node>
	<node id="-253690" lat="59.9892045894" lon="9.50466698517">
		<tag k="alt_name" v="Grimesundvatnet" />
		<tag k="name" v="Grimesundsvatnet" />
		<tag k="natural" v="water" />
		<tag k="ssr:stedsnr" v="792285" />
		<tag k="water" v="lake" />
	</node>
	<node id="-253685" lat="59.9075944478" lon="9.72971112002">
		<tag k="name" v="Løken" />
		<tag k="place" v="locality" />
		<tag k="ssr:stedsnr" v="764118" />
	</node>
	<node id="-251636" lat="60.2965191988" lon="9.18881850606">
		<tag k="name" v="Trytetjenn" />
		<tag k="natural" v="water" />
		<tag k="ssr:stedsnr" v="916486" />
	</node>
	<node id="-251635" lat="60.3021242481" lon="9.35777114987">
		<tag k="name" v="Svarttjenn" />
		<tag k="natural" v="water" />
		<tag k="ssr:stedsnr" v="916087" />
	</node>
	<node id="-251633" lat="60.3097722263" lon="9.30578056332">
		<tag k="name" v="Nedre Sandvatn" />
		<tag k="natural" v="water" />
		<tag k="ssr:stedsnr" v="916035" />
	</node>
	<node id="-253679" lat="60.0816552594" lon="9.67514926836">
		<tag k="name" v="Snåketjenn" />
		<tag k="natural" v="water" />
		<tag k="ssr:stedsnr" v="761485" />
	</node>
	<node id="-253674" lat="60.0462749959" lon="9.7582333386">
		<tag k="alt_name" v="Tretjern" />
		<tag k="name" v="Tretjenn" />
		<tag k="natural" v="water" />
		<tag k="ssr:stedsnr" v="760791" />
	</node>
	<node id="-253673" lat="60.0494638917" lon="9.75257500417">
		<tag k="alt_name" v="Gullromstjern" />
		<tag k="name" v="Gullromstjenn" />
		<tag k="natural" v="water" />
		<tag k="ssr:stedsnr" v="760789" />
	</node>
	<node id="-253670" lat="60.0296583293" lon="9.78431389423">
		<tag k="name" v="Vestre Gamlesetertjennet" />
		<tag k="natural" v="water" />
		<tag k="ssr:stedsnr" v="760768" />
	</node>
	<node id="-253669" lat="60.0472583323" lon="9.62222778258">
		<tag k="name" v="Lindlykkodden" />
		<tag k="natural" v="cape" />
		<tag k="ssr:stedsnr" v="760767" />
	</node>
	<node id="-251618" lat="60.098466669" lon="9.48263611017">
		<tag k="name" v="Bjørebekk" />
		<tag k="ssr:stedsnr" v="915383" />
		<tag k="waterway" v="stream" />
	</node>
	<node id="-251617" lat="60.2453500043" lon="9.4164021872">
		<tag k="name" v="Sjusjøen" />
		<tag k="natural" v="water" />
		<tag k="ssr:stedsnr" v="915282" />
	</node>
	<node id="-251615" lat="60.078182152" lon="9.4776743966">
		<tag k="name" v="Myrantjennet" />
		<tag k="natural" v="water" />
		<tag k="ssr:stedsnr" v="915099" />
	</node>
	<node id="-251610" lat="59.9503407881" lon="9.60382872402">
		<tag k="name" v="Gislegardstjennet" />
		<tag k="natural" v="water" />
		<tag k="ssr:stedsnr" v="914784" />
	</node>
	<node id="-251606" lat="60.1353027811" lon="9.30075555419">
		<tag k="alt_name" v="Brennlivatnet" />
		<tag k="name" v="Brennlivatn" />
		<tag k="natural" v="water" />
		<tag k="ssr:stedsnr" v="914420" />
	</node>
	<node id="-251605" lat="60.1189861135" lon="9.26796943974">
		<tag k="alt_name" v="Mjovatnet" />
		<tag k="name" v="Mjovatn" />
		<tag k="natural" v="water" />
		<tag k="ssr:stedsnr" v="914372" />
	</node>
	<node id="-251604" lat="59.9883055584" lon="9.50993332859">
		<tag k="name" v="Grimesundet" />
		<tag k="natural" v="strait" />
		<tag k="ssr:stedsnr" v="914308" />
	</node>
	<node id="-251602" lat="60.2331213708" lon="9.4460915108">
		<tag k="name" v="Djupsjøen" />
		<tag k="natural" v="water" />
		<tag k="ssr:stedsnr" v="914271" />
		<tag k="water" v="lake" />
	</node>
	<node id="-250167" lat="59.973216665" lon="9.58582221611">
		<tag k="name" v="Lauvnestangen" />
		<tag k="natural" v="cape" />
		<tag k="ssr:stedsnr" v="275349" />
	</node>
	<node id="-251600" lat="60.0502805588" lon="9.4294888954">
		<tag k="name" v="Nedre Størrputt" />
		<tag k="natural" v="water" />
		<tag k="ssr:stedsnr" v="760930" />
		<tag k="water" v="pond" />
	</node>
	<node id="-251596" lat="60.0839666642" lon="9.48634445289">
		<tag k="name" v="Dannemark" />
		<tag k="natural" v="cape" />
		<tag k="ssr:stedsnr" v="760904" />
	</node>
	<node id="-253639" lat="60.0153542856" lon="9.60056492485">
		<tag k="name" v="Saltjenn" />
		<tag k="natural" v="water" />
		<tag k="ssr:stedsnr" v="760224" />
	</node>
	<node id="-251588" lat="59.8983444429" lon="9.72566110574">
		<tag k="name" v="Uttangen" />
		<tag k="natural" v="cape" />
		<tag k="ssr:stedsnr" v="760529" />
	</node>
	<node id="-251587" lat="60.044091664" lon="9.63877222759">
		<tag k="name" v="Bråtahølen" />
		<tag k="place" v="locality" />
		<tag k="ssr:stedsnr" v="760516" />
	</node>
	<node id="-253633" lat="60.0706972265" lon="9.71935277749">
		<tag k="name" v="Krokmyrsnarbekken" />
		<tag k="ssr:stedsnr" v="760037" />
		<tag k="waterway" v="stream" />
	</node>
	<node id="-251584" lat="60.0787833342" lon="9.53978056264">
		<tag k="name" v="Dælabekken" />
		<tag k="ssr:stedsnr" v="760455" />
		<tag k="waterway" v="stream" />
	</node>
	<node id="-251581" lat="59.9512638896" lon="9.61793055628">
		<tag k="name" v="Libekk" />
		<tag k="ssr:stedsnr" v="760445" />
		<tag k="waterway" v="stream" />
	</node>
	<node id="-253625" lat="60.0091361072" lon="9.47809166343">
		<tag k="name" v="Klovotjenn" />
		<tag k="natural" v="water" />
		<tag k="ssr:stedsnr" v="760121" />
	</node>
	<node id="-253619" lat="60.2047333357" lon="9.49725556187">
		<tag k="name" v="Tverrbekken" />
		<tag k="ssr:stedsnr" v="759510" />
		<tag k="waterway" v="stream" />
	</node>
	<node id="-251570" lat="59.9924361104" lon="9.50631945159">
		<tag k="name" v="Mjovassløken" />
		<tag k="ssr:stedsnr" v="760066" />
		<tag k="waterway" v="stream" />
	</node>
	<node id="-253614" lat="60.1652750023" lon="9.36208056301">
		<tag k="name" v="Skriufoss" />
		<tag k="natural" v="waterfall" />
		<tag k="ssr:stedsnr" v="758979" />
	</node>
	<node id="-251563" lat="59.9478722184" lon="9.80877778377">
		<tag k="name" v="Storelva" />
		<tag k="ssr:stedsnr" v="759866" />
		<tag k="waterway" v="river" />
	</node>
	<node id="-253606" lat="60.1968944456" lon="9.31895277153">
		<tag k="name" v="Damtjenn" />
		<tag k="natural" v="water" />
		<tag k="ssr:stedsnr" v="758901" />
	</node>
	<node id="-253604" lat="60.1713416695" lon="9.38065555637">
		<tag k="name" v="Grunntjennelva" />
		<tag k="ssr:stedsnr" v="758895" />
		<tag k="waterway" v="stream" />
	</node>
	<node id="-250822" lat="60.2045416646" lon="9.17760277726">
		<tag k="name" v="Øvstevatn" />
		<tag k="natural" v="water" />
		<tag k="ssr:stedsnr" v="430933" />
	</node>
	<node id="-253598" lat="60.1884083352" lon="9.4075222284">
		<tag k="name" v="Soletjennet" />
		<tag k="natural" v="water" />
		<tag k="ssr:stedsnr" v="758746" />
	</node>
	<node id="-251547" lat="60.1286805597" lon="9.34831666077">
		<tag k="name" v="Skarbekken" />
		<tag k="ssr:stedsnr" v="758111" />
		<tag k="waterway" v="stream" />
	</node>
	<node id="-251546" lat="60.0237499999" lon="9.56346111349">
		<tag k="name" v="Horga" />
		<tag k="ssr:stedsnr" v="915037" />
		<tag k="waterway" v="river" />
	</node>
	<node id="-253593" lat="60.2460499997" lon="9.42863332467">
		<tag k="name" v="Kjøla" />
		<tag k="ssr:stedsnr" v="758239" />
		<tag k="waterway" v="stream" />
	</node>
	<node id="-253591" lat="60.2439946796" lon="9.4256573707">
		<tag k="name" v="Svarttjenn" />
		<tag k="natural" v="water" />
		<tag k="ssr:stedsnr" v="758224" />
	</node>
	<node id="-251161" lat="60.0952444406" lon="9.5732111183">
		<tag k="name" v="Feletjenn" />
		<tag k="natural" v="water" />
		<tag k="ssr:stedsnr" v="578867" />
	</node>
	<node id="-251539" lat="60.227755556" lon="9.24374167248">
		<tag k="name" v="Damtjennbekken" />
		<tag k="ssr:stedsnr" v="733247" />
		<tag k="waterway" v="stream" />
	</node>
	<node id="-253586" lat="60.2450249963" lon="9.22691110792">
		<tag k="name" v="Bølestjennbekken" />
		<tag k="ssr:stedsnr" v="758197" />
		<tag k="waterway" v="stream" />
	</node>
	<node id="-251536" lat="60.0996367961" lon="9.58930789216">
		<tag k="name" v="Bekartjenn" />
		<tag k="natural" v="water" />
		<tag k="ssr:stedsnr" v="733136" />
	</node>
	<node id="-251534" lat="60.0737666674" lon="9.48584721956">
		<tag k="name" v="Strandefjorden" />
		<tag k="natural" v="water" />
		<tag k="ssr:stedsnr" v="733108" />
	</node>
	<node id="-253580" lat="60.3219361086" lon="9.15880277714">
		<tag k="name" v="Skarbekken" />
		<tag k="ssr:stedsnr" v="758022" />
		<tag k="waterway" v="stream" />
	</node>
	<node id="-253566" lat="60.1886944489" lon="9.22370834203">
		<tag k="name" v="Langlibekken" />
		<tag k="ssr:stedsnr" v="757204" />
		<tag k="waterway" v="stream" />
	</node>
	<node id="-253563" lat="60.1873902074" lon="9.23545997819">
		<tag k="name" v="Feratjenn" />
		<tag k="natural" v="water" />
		<tag k="ssr:stedsnr" v="757160" />
	</node>
	<node id="-253558" lat="60.0218277765" lon="9.74782499805">
		<tag k="name" v="Halvfarbekken" />
		<tag k="ssr:stedsnr" v="750341" />
		<tag k="waterway" v="stream" />
	</node>
	<node id="-251505" lat="60.0126027758" lon="9.50491943573">
		<tag k="name" v="Mellomgardsbekken" />
		<tag k="ssr:stedsnr" v="700128" />
		<tag k="waterway" v="stream" />
	</node>
	<node id="-253550" lat="60.0217472253" lon="9.78118611593">
		<tag k="name" v="Vesle Rugåkertjenn" />
		<tag k="natural" v="water" />
		<tag k="ssr:stedsnr" v="639979" />
	</node>
	<node id="-251515" lat="60.1095611143" lon="9.59612500302">
		<tag k="name" v="Svarteputt" />
		<tag k="natural" v="water" />
		<tag k="ssr:stedsnr" v="700565" />
		<tag k="water" v="pond" />
	</node>
	<node id="-253547" lat="60.0927055576" lon="9.65173332894">
		<tag k="name" v="Pøllen" />
		<tag k="natural" v="bay" />
		<tag k="ssr:stedsnr" v="639911" />
	</node>
	<node id="-253542" lat="60.1297222255" lon="9.54296388819">
		<tag k="name" v="Aureputtane" />
		<tag k="natural" v="water" />
		<tag k="ssr:stedsnr" v="639483" />
		<tag k="water" v="pond" />
	</node>
	<node id="-251493" lat="60.015325001" lon="9.67812221924">
		<tag k="name" v="Dælabekken" />
		<tag k="ssr:stedsnr" v="699124" />
		<tag k="waterway" v="stream" />
	</node>
	<node id="-253536" lat="60.0560388864" lon="9.56561388078">
		<tag k="name" v="Gvemsnes" />
		<tag k="natural" v="cape" />
		<tag k="ssr:stedsnr" v="639383" />
	</node>
	<node id="-251486" lat="60.2897305517" lon="9.29970833613">
		<tag k="name" v="Markeliløken" />
		<tag k="ssr:stedsnr" v="698615" />
		<tag k="waterway" v="stream" />
	</node>
	<node id="-253526" lat="60.026266398" lon="9.47965936189">
		<tag k="name" v="Holmentjenna" />
		<tag k="natural" v="water" />
		<tag k="ssr:stedsnr" v="639168" />
		<tag k="water" v="lake" />
	</node>
	<node id="-251476" lat="60.1332361095" lon="9.35292776901">
		<tag k="name" v="Åliolen" />
		<tag k="natural" v="water" />
		<tag k="ssr:stedsnr" v="698104" />
		<tag k="water" v="pond" />
	</node>
	<node id="-252174" lat="60.0895916704" lon="9.42236944293">
		<tag k="name" v="Svartetjenn" />
		<tag k="natural" v="water" />
		<tag k="ssr:stedsnr" v="65093" />
	</node>
	<node id="-253522" lat="59.9851277737" lon="9.52036944007">
		<tag k="name" v="Brannbråtavika" />
		<tag k="natural" v="bay" />
		<tag k="ssr:stedsnr" v="639099" />
	</node>
	<node id="-253520" lat="60.0018166623" lon="9.53258888835">
		<tag k="name" v="Plasseodden" />
		<tag k="natural" v="cape" />
		<tag k="ssr:stedsnr" v="639079" />
	</node>
	<node id="-251470" lat="60.1259916689" lon="9.27452777778">
		<tag k="name" v="Vikvassdammen" />
		<tag k="ssr:stedsnr" v="697371" />
		<tag k="waterway" v="dam" />
	</node>
	<node id="-251469" lat="60.1171055546" lon="9.30092778188">
		<tag k="name" v="Eitermigen" />
		<tag k="ssr:stedsnr" v="697367" />
		<tag k="waterway" v="stream" />
	</node>
	<node id="-251463" lat="60.2506416656" lon="9.30324721537">
		<tag k="name" v="Kaugerudfossen" />
		<tag k="natural" v="waterfall" />
		<tag k="ssr:stedsnr" v="696924" />
	</node>
	<node id="-253507" lat="60.0476555534" lon="9.75445833166">
		<tag k="alt_name" v="Tretjern" />
		<tag k="name" v="Tretjenn" />
		<tag k="natural" v="water" />
		<tag k="ssr:stedsnr" v="638800" />
	</node>
	<node id="-253503" lat="60.0472833327" lon="9.76236667365">
		<tag k="alt_name" v="Storrtjern" />
		<tag k="name" v="Størrtjenn" />
		<tag k="natural" v="water" />
		<tag k="ssr:stedsnr" v="638773" />
	</node>
	<node id="-251450" lat="60.0802211165" lon="9.42293024185">
		<tag k="name" v="Langetjenn" />
		<tag k="natural" v="water" />
		<tag k="ssr:stedsnr" v="882864" />
	</node>
	<node id="-253495" lat="59.9556027777" lon="9.691455559">
		<tag k="name" v="Dælabekken" />
		<tag k="ssr:stedsnr" v="638555" />
		<tag k="waterway" v="stream" />
	</node>
	<node id="-253494" lat="59.9481111135" lon="9.68979167223">
		<tag k="name" v="Finnebråtabekken" />
		<tag k="ssr:stedsnr" v="638552" />
		<tag k="waterway" v="stream" />
	</node>
	<node id="-253491" lat="59.9001694402" lon="9.72003333164">
		<tag k="name" v="Stortangen" />
		<tag k="natural" v="cape" />
		<tag k="ssr:stedsnr" v="638497" />
	</node>
	<node id="-251437" lat="60.030447223" lon="9.78780834166">
		<tag k="name" v="Østre Gamlesetertjennet" />
		<tag k="natural" v="water" />
		<tag k="ssr:stedsnr" v="882691" />
	</node>
	<node id="-250119" lat="60.3401250021" lon="9.19343889115">
		<tag k="name" v="Røvsholobekken" />
		<tag k="ssr:stedsnr" v="273199" />
		<tag k="waterway" v="stream" />
	</node>
	<node id="-253478" lat="60.0106777793" lon="9.59414722457">
		<tag k="name" v="Bergstjenn" />
		<tag k="natural" v="water" />
		<tag k="ssr:stedsnr" v="638196" />
	</node>
	<node id="-253477" lat="59.9801027739" lon="9.6424750086">
		<tag k="name" v="Kvennefossen" />
		<tag k="natural" v="waterfall" />
		<tag k="ssr:stedsnr" v="638144" />
	</node>
	<node id="-253472" lat="60.0793361106" lon="9.73543889537">
		<tag k="name" v="Kvennebekken" />
		<tag k="ssr:stedsnr" v="638056" />
		<tag k="waterway" v="stream" />
	</node>
	<node id="-251420" lat="59.9495694465" lon="9.74085556413">
		<tag k="name" v="Løken" />
		<tag k="ssr:stedsnr" v="882507" />
		<tag k="waterway" v="stream" />
	</node>
	<node id="-253466" lat="60.2296444461" lon="9.45101665831">
		<tag k="name" v="Løken" />
		<tag k="place" v="locality" />
		<tag k="ssr:stedsnr" v="637997" />
	</node>
	<node id="-253465" lat="60.2123361069" lon="9.44718888685">
		<tag k="name" v="Lensmannsvika" />
		<tag k="natural" v="bay" />
		<tag k="ssr:stedsnr" v="637992" />
	</node>
	<node id="-253463" lat="60.095733331" lon="9.37590278342">
		<tag k="name" v="Damtjennbekken" />
		<tag k="ssr:stedsnr" v="637964" />
		<tag k="waterway" v="stream" />
	</node>
	<node id="-251411" lat="59.9516611073" lon="9.69813055657">
		<tag k="name" v="Løken" />
		<tag k="natural" v="water" />
		<tag k="ssr:stedsnr" v="882430" />
		<tag k="water" v="lake" />
	</node>
	<node id="-251409" lat="59.9406583297" lon="9.68347778448">
		<tag k="name" v="Gørrtjenn" />
		<tag k="natural" v="water" />
		<tag k="ssr:stedsnr" v="882423" />
	</node>
	<node id="-253449" lat="60.0623472213" lon="9.39436944617">
		<tag k="name" v="Sekstjennputtane" />
		<tag k="natural" v="water" />
		<tag k="ssr:stedsnr" v="637352" />
		<tag k="water" v="pond" />
	</node>
	<node id="-251386" lat="60.0992138911" lon="9.46502500073">
		<tag k="name" v="Ulvesprang" />
		<tag k="natural" v="cape" />
		<tag k="ssr:stedsnr" v="882286" />
	</node>
	<node id="-253431" lat="60.1552668168" lon="9.28458304625">
		<tag k="name" v="Lushøltjenna" />
		<tag k="natural" v="water" />
		<tag k="ssr:stedsnr" v="636688" />
		<tag k="water" v="lake" />
	</node>
	<node id="-251380" lat="60.2584055538" lon="9.36513332666">
		<tag k="name" v="Bergsbekken" />
		<tag k="ssr:stedsnr" v="674906" />
		<tag k="waterway" v="stream" />
	</node>
	<node id="-251379" lat="60.0352111126" lon="9.52210000564">
		<tag k="name" v="Putten" />
		<tag k="natural" v="water" />
		<tag k="ssr:stedsnr" v="882190" />
		<tag k="water" v="pond" />
	</node>
	<node id="-251378" lat="60.0572722198" lon="9.51518888295">
		<tag k="name" v="Lusåsbekken" />
		<tag k="ssr:stedsnr" v="882166" />
		<tag k="waterway" v="stream" />
	</node>
	<node id="-251376" lat="59.9880361147" lon="9.51073889109">
		<tag k="name" v="Grimesundodden" />
		<tag k="natural" v="cape" />
		<tag k="ssr:stedsnr" v="882133" />
	</node>
	<node id="-251372" lat="59.9802055573" lon="9.51117499334">
		<tag k="name" v="Gampevika" />
		<tag k="natural" v="bay" />
		<tag k="ssr:stedsnr" v="882064" />
	</node>
	<node id="-251369" lat="59.9934694418" lon="9.51273332897">
		<tag k="name" v="Brannbråtatjenn" />
		<tag k="natural" v="water" />
		<tag k="ssr:stedsnr" v="882052" />
	</node>
	<node id="-251368" lat="59.9966666669" lon="9.50074444045">
		<tag k="name" v="Megardstjennbekken" />
		<tag k="ssr:stedsnr" v="882050" />
		<tag k="waterway" v="stream" />
	</node>
	<node id="-253415" lat="60.2541527814" lon="9.21918056323">
		<tag k="name" v="Elgtjenn" />
		<tag k="natural" v="water" />
		<tag k="ssr:stedsnr" v="612919" />
	</node>
	<node id="-253414" lat="60.2842499997" lon="9.17459999796">
		<tag k="alt_name" v="Øvstevatn" />
		<tag k="name" v="Øvstevatnet" />
		<tag k="natural" v="water" />
		<tag k="ssr:stedsnr" v="612515" />
	</node>
	<node id="-253412" lat="60.2925694482" lon="9.18911667088">
		<tag k="name" v="Steinbutjenn" />
		<tag k="natural" v="water" />
		<tag k="ssr:stedsnr" v="612495" />
	</node>
	<node id="-253410" lat="60.3067722203" lon="9.2908861079">
		<tag k="fixme" v="multiple name tags, choose one and add the other to alt_name" />
		<tag k="name" v="Dammen;Sandvassdammen" />
		<tag k="ssr:stedsnr" v="612101" />
		<tag k="waterway" v="dam" />
	</node>
	<node id="-253409" lat="60.3503500006" lon="9.16884445151">
		<tag k="name" v="Tjennleinetjenn" />
		<tag k="natural" v="water" />
		<tag k="ssr:stedsnr" v="612420" />
	</node>
	<node id="-251472" lat="60.2937111135" lon="9.26309445061">
		<tag k="name" v="Snårfossen" />
		<tag k="natural" v="waterfall" />
		<tag k="ssr:stedsnr" v="697605" />
	</node>
	<node id="-253403" lat="60.0672246185" lon="9.59581301514">
		<tag k="name" v="Langetjenn" />
		<tag k="natural" v="water" />
		<tag k="ssr:stedsnr" v="611901" />
		<tag k="water" v="lake" />
	</node>
	<node id="-253398" lat="60.0979388898" lon="9.60145000812">
		<tag k="name" v="Grastjenn" />
		<tag k="natural" v="water" />
		<tag k="ssr:stedsnr" v="611867" />
	</node>
	<node id="-253395" lat="60.205247223" lon="9.46041388941">
		<tag k="name" v="Elgtjenn" />
		<tag k="natural" v="water" />
		<tag k="ssr:stedsnr" v="611489" />
	</node>
	<node id="-253394" lat="60.1981766212" lon="9.29671127025">
		<tag k="name" v="Asketjenn" />
		<tag k="natural" v="water" />
		<tag k="ssr:stedsnr" v="611488" />
	</node>
	<node id="-251342" lat="60.2304722228" lon="9.39763611369">
		<tag k="name" v="Løken" />
		<tag k="ssr:stedsnr" v="880856" />
		<tag k="waterway" v="stream" />
	</node>
	<node id="-251340" lat="60.2307416667" lon="9.360158342">
		<tag k="name" v="Klemmafossen" />
		<tag k="natural" v="waterfall" />
		<tag k="ssr:stedsnr" v="880839" />
	</node>
	<node id="-253387" lat="60.2389194485" lon="9.26890833888">
		<tag k="name" v="Tverråa" />
		<tag k="ssr:stedsnr" v="611277" />
		<tag k="waterway" v="river" />
	</node>
	<node id="-251334" lat="60.1629694488" lon="9.41561389267">
		<tag k="name" v="Ulatangen" />
		<tag k="natural" v="cape" />
		<tag k="ssr:stedsnr" v="880695" />
	</node>
	<node id="-253381" lat="60.0797361094" lon="9.38995000356">
		<tag k="alt_name" v="Skinntjennet" />
		<tag k="name" v="Skinntjenn" />
		<tag k="natural" v="water" />
		<tag k="ssr:stedsnr" v="611097" />
	</node>
	<node id="-253380" lat="60.0765666709" lon="9.54210000685">
		<tag k="name" v="Askedalsbekken" />
		<tag k="ssr:stedsnr" v="611086" />
		<tag k="waterway" v="stream" />
	</node>
	<node id="-253379" lat="60.0634764841" lon="9.37222089085">
		<tag k="alt_name" v="Knivetjennet" />
		<tag k="name" v="Knivetjenn" />
		<tag k="natural" v="water" />
		<tag k="ssr:stedsnr" v="611079" />
	</node>
	<node id="-253375" lat="60.0223750039" lon="9.55414721474">
		<tag k="alt_name" v="Svartebekken" />
		<tag k="name" v="Svartebekk" />
		<tag k="ssr:stedsnr" v="611043" />
		<tag k="waterway" v="stream" />
	</node>
	<node id="-251325" lat="60.2757666626" lon="9.38925277017">
		<tag k="name" v="Løkane" />
		<tag k="place" v="locality" />
		<tag k="ssr:stedsnr" v="880367" />
	</node>
	<node id="-251311" lat="60.2512944439" lon="9.28151944399">
		<tag k="name" v="Basolfossen" />
		<tag k="natural" v="waterfall" />
		<tag k="ssr:stedsnr" v="879875" />
	</node>
	<node id="-251309" lat="60.2672833375" lon="9.26612777731">
		<tag k="name" v="Oterfoss" />
		<tag k="natural" v="waterfall" />
		<tag k="ssr:stedsnr" v="879847" />
	</node>
	<node id="-251302" lat="60.1722138912" lon="9.26975278093">
		<tag k="name" v="Putten" />
		<tag k="natural" v="water" />
		<tag k="ssr:stedsnr" v="879644" />
	</node>
	<node id="-251301" lat="60.1802972203" lon="9.29830000437">
		<tag k="name" v="Elgstjennbekken" />
		<tag k="ssr:stedsnr" v="879637" />
		<tag k="waterway" v="stream" />
	</node>
	<node id="-253348" lat="59.9090709378" lon="9.73098626705">
		<tag k="name" v="Hestebråtafossen" />
		<tag k="natural" v="waterfall" />
		<tag k="ssr:stedsnr" v="578526" />
	</node>
	<node id="-251294" lat="60.1812320221" lon="9.23730021139">
		<tag k="name" v="Småløkan" />
		<tag k="place" v="locality" />
		<tag k="ssr:stedsnr" v="879175" />
	</node>
	<node id="-251293" lat="60.1876972208" lon="9.24771110563">
		<tag k="name" v="Svarttjenn" />
		<tag k="natural" v="water" />
		<tag k="ssr:stedsnr" v="879156" />
	</node>
	<node id="-251291" lat="60.1756527802" lon="9.25588333786">
		<tag k="name" v="Tangebekken" />
		<tag k="ssr:stedsnr" v="879138" />
		<tag k="waterway" v="stream" />
	</node>
	<node id="-251290" lat="60.1662777758" lon="9.21429445274">
		<tag k="name" v="Barlindosrumpa" />
		<tag k="natural" v="bay" />
		<tag k="ssr:stedsnr" v="879133" />
	</node>
	<node id="-253333" lat="60.064400004" lon="9.47208056323">
		<tag k="name" v="Skarfossen" />
		<tag k="natural" v="waterfall" />
		<tag k="ssr:stedsnr" v="578182" />
	</node>
	<node id="-251284" lat="60.3119833376" lon="9.14782221949">
		<tag k="name" v="Flesebekk" />
		<tag k="ssr:stedsnr" v="734476" />
		<tag k="waterway" v="stream" />
	</node>
	<node id="-251283" lat="60.3409472257" lon="9.21003055354">
		<tag k="name" v="Ruglandseterbekken" />
		<tag k="ssr:stedsnr" v="734451" />
		<tag k="waterway" v="stream" />
	</node>
	<node id="-253329" lat="60.2316472213" lon="9.43995833885">
		<tag k="name" v="Heimvika" />
		<tag k="natural" v="bay" />
		<tag k="ssr:stedsnr" v="577997" />
	</node>
	<node id="-253325" lat="60.0246166645" lon="9.44968611781">
		<tag k="name" v="Haslonløken" />
		<tag k="ssr:stedsnr" v="578130" />
		<tag k="waterway" v="stream" />
	</node>
	<node id="-251275" lat="60.2531083305" lon="9.31910000675">
		<tag k="name" v="Skallandsbekken" />
		<tag k="ssr:stedsnr" v="734099" />
		<tag k="waterway" v="stream" />
	</node>
	<node id="-251270" lat="60.0734527821" lon="9.63651388477">
		<tag k="name" v="Svarttjenn" />
		<tag k="natural" v="water" />
		<tag k="ssr:stedsnr" v="733856" />
	</node>
	<node id="-253316" lat="60.1448638849" lon="9.4885138898">
		<tag k="name" v="Saltjenn" />
		<tag k="natural" v="water" />
		<tag k="ssr:stedsnr" v="577429" />
	</node>
	<node id="-251264" lat="60.1680916705" lon="9.47259444797">
		<tag k="name" v="Grunntjenn" />
		<tag k="natural" v="water" />
		<tag k="ssr:stedsnr" v="733420" />
	</node>
	<node id="-251263" lat="60.1458777794" lon="9.45417221961">
		<tag k="name" v="Åmotelva" />
		<tag k="ssr:stedsnr" v="733388" />
		<tag k="waterway" v="stream" />
	</node>
	<node id="-251261" lat="60.2545245093" lon="9.42718060857">
		<tag k="name" v="Gamlesetervatnet" />
		<tag k="natural" v="water" />
		<tag k="ssr:stedsnr" v="733289" />
		<tag k="water" v="lake" />
	</node>
	<node id="-253306" lat="60.0850750019" lon="9.40835834015">
		<tag k="name" v="Tørrfurutjenn" />
		<tag k="natural" v="water" />
		<tag k="ssr:stedsnr" v="576948" />
	</node>
	<node id="-253305" lat="60.1698888879" lon="9.39325833502">
		<tag k="name" v="Grønhovdfossen" />
		<tag k="natural" v="waterfall" />
		<tag k="ssr:stedsnr" v="576651" />
	</node>
	<node id="-251254" lat="59.985891668" lon="9.78344999466">
		<tag k="name" v="Putten" />
		<tag k="natural" v="water" />
		<tag k="ssr:stedsnr" v="732950" />
	</node>
	<node id="-253161" lat="60.1461980627" lon="9.53383276003">
		<tag k="name" v="Albjørktjenn" />
		<tag k="natural" v="water" />
		<tag k="ssr:stedsnr" v="429421" />
	</node>
	<node id="-253289" lat="60.3076777781" lon="9.17988888049">
		<tag k="name" v="Brennåstjenn" />
		<tag k="natural" v="water" />
		<tag k="ssr:stedsnr" v="576032" />
	</node>
	<node id="-251238" lat="59.9703385349" lon="9.8493992935">
		<tag k="name" v="Risgardtjenn" />
		<tag k="natural" v="water" />
		<tag k="ssr:stedsnr" v="732786" />
	</node>
	<node id="-251232" lat="60.1293313975" lon="9.27169287833">
		<tag k="alt_name" v="Vikvatnet" />
		<tag k="name" v="Vikvatn" />
		<tag k="natural" v="water" />
		<tag k="ssr:stedsnr" v="732382" />
	</node>
	<node id="-251231" lat="59.9812694981" lon="9.51023712444">
		<tag k="name" v="Storøya" />
		<tag k="natural" v="cape" />
		<tag k="ssr:stedsnr" v="732334" />
	</node>
	<node id="-253277" lat="60.1123138875" lon="9.27162499487">
		<tag k="name" v="Løkane" />
		<tag k="place" v="locality" />
		<tag k="ssr:stedsnr" v="575327" />
	</node>
	<node id="-253274" lat="60.1767682776" lon="9.23914136854">
		<tag k="name" v="Smalløk" />
		<tag k="natural" v="water" />
		<tag k="ssr:stedsnr" v="575187" />
	</node>
	<node id="-251223" lat="59.9931166623" lon="9.80719166077">
		<tag k="name" v="Illdalstjenn" />
		<tag k="natural" v="water" />
		<tag k="ssr:stedsnr" v="638814" />
	</node>
	<node id="-250801" lat="60.1397500003" lon="9.3396611067">
		<tag k="name" v="Svartetjenn" />
		<tag k="natural" v="water" />
		<tag k="ssr:stedsnr" v="429405" />
	</node>
	<node id="-253268" lat="60.1791888932" lon="9.45214444343">
		<tag k="name" v="Øvre Bergstjenn" />
		<tag k="natural" v="water" />
		<tag k="ssr:stedsnr" v="572684" />
	</node>
	<node id="-253266" lat="60.0768177677" lon="9.39713786746">
		<tag k="name" v="Kisneskardtjennet" />
		<tag k="natural" v="water" />
		<tag k="ssr:stedsnr" v="568131" />
	</node>
	<node id="-253261" lat="60.2948722218" lon="9.1654194492">
		<tag k="name" v="Ormetjenn" />
		<tag k="natural" v="water" />
		<tag k="ssr:stedsnr" v="552538" />
	</node>
	<node id="-253259" lat="60.3404000036" lon="9.163586115">
		<tag k="name" v="Fagerfetbekken" />
		<tag k="ssr:stedsnr" v="552468" />
		<tag k="waterway" v="stream" />
	</node>
	<node id="-253258" lat="60.3374111077" lon="9.16529999806">
		<tag k="alt_name" v="Snøfonntjennet" />
		<tag k="name" v="Snøfonntjenn" />
		<tag k="natural" v="water" />
		<tag k="ssr:stedsnr" v="552467" />
	</node>
	<node id="-251208" lat="60.2828277775" lon="9.17038889601">
		<tag k="name" v="Medalsbekken" />
		<tag k="ssr:stedsnr" v="637331" />
		<tag k="waterway" v="stream" />
	</node>
	<node id="-253253" lat="60.3056750021" lon="9.35112500355">
		<tag k="name" v="Holmevatn" />
		<tag k="natural" v="water" />
		<tag k="ssr:stedsnr" v="552090" />
		<tag k="water" v="lake" />
	</node>
	<node id="-253252" lat="60.2866305539" lon="9.30681111027">
		<tag k="name" v="Hellebekk" />
		<tag k="ssr:stedsnr" v="552080" />
		<tag k="waterway" v="stream" />
	</node>
	<node id="-253251" lat="60.3237250034" lon="9.3216749934">
		<tag k="name" v="Nedre Tovevatnet" />
		<tag k="natural" v="water" />
		<tag k="ssr:stedsnr" v="552072" />
	</node>
	<node id="-251201" lat="60.2815412033" lon="9.38916645303">
		<tag k="name" v="Nordre Istjenn" />
		<tag k="natural" v="water" />
		<tag k="ssr:stedsnr" v="636617" />
		<tag k="water" v="lake" />
	</node>
	<node id="-253246" lat="60.0748219567" lon="9.74676672068">
		<tag k="name" v="Finnerudtjenn" />
		<tag k="natural" v="water" />
		<tag k="ssr:stedsnr" v="551885" />
	</node>
	<node id="-253245" lat="60.0778388846" lon="9.61847777865">
		<tag k="name" v="Tubbemyrbekken" />
		<tag k="ssr:stedsnr" v="551868" />
		<tag k="waterway" v="stream" />
	</node>
	<node id="-251196" lat="60.3231472222" lon="9.25696667489">
		<tag k="name" v="Sandbekken" />
		<tag k="ssr:stedsnr" v="636127" />
		<tag k="waterway" v="stream" />
	</node>
	<node id="-253242" lat="60.241188885" lon="9.43246388901">
		<tag k="name" v="Buratjenn" />
		<tag k="natural" v="water" />
		<tag k="ssr:stedsnr" v="551307" />
	</node>
	<node id="-253240" lat="60.0840000014" lon="9.52409722026">
		<tag k="name" v="Skreddarbekken" />
		<tag k="ssr:stedsnr" v="551113" />
		<tag k="waterway" v="stream" />
	</node>
	<node id="-251188" lat="60.3510337925" lon="9.26740528149">
		<tag k="name" v="Småtjenna" />
		<tag k="natural" v="water" />
		<tag k="ssr:stedsnr" v="613012" />
		<tag k="water" v="lake" />
	</node>
	<node id="-253233" lat="59.9915055533" lon="9.60813056268">
		<tag k="name" v="Raudåa" />
		<tag k="ssr:stedsnr" v="550960" />
		<tag k="waterway" v="stream" />
	</node>
	<node id="-251184" lat="60.0748138926" lon="9.75630277783">
		<tag k="name" v="Medrudtjenn" />
		<tag k="natural" v="water" />
		<tag k="ssr:stedsnr" v="611905" />
	</node>
	<node id="-251179" lat="60.1533860926" lon="9.24010821863">
		<tag k="name" v="Danmark" />
		<tag k="natural" v="water" />
		<tag k="ssr:stedsnr" v="611422" />
	</node>
	<node id="-251176" lat="60.0725555515" lon="9.52504999927">
		<tag k="name" v="Eidalselva" />
		<tag k="ssr:stedsnr" v="611408" />
		<tag k="waterway" v="river" />
	</node>
	<node id="-253222" lat="59.9488799574" lon="9.74911031456">
		<tag k="name" v="Damtjenn" />
		<tag k="natural" v="water" />
		<tag k="ssr:stedsnr" v="550772" />
	</node>
	<node id="-251169" lat="59.9704064403" lon="9.57477251192">
		<tag k="name" v="Lauvnesvatnet" />
		<tag k="natural" v="water" />
		<tag k="ssr:stedsnr" v="610356" />
		<tag k="water" v="lake" />
	</node>
	<node id="-253213" lat="60.1117757045" lon="9.45303971851">
		<tag k="name" v="Gunnerudtjennet" />
		<tag k="natural" v="water" />
		<tag k="ssr:stedsnr" v="550381" />
	</node>
	<node id="-253211" lat="60.2175558106" lon="9.22522039167">
		<tag k="name" v="Snipnattjenn" />
		<tag k="natural" v="water" />
		<tag k="ssr:stedsnr" v="550265" />
	</node>
	<node id="-253209" lat="60.0883361096" lon="9.41038056396">
		<tag k="name" v="Gørrkimetjenn" />
		<tag k="natural" v="water" />
		<tag k="ssr:stedsnr" v="550113" />
	</node>
	<node id="-253207" lat="60.047330559" lon="9.45298332712">
		<tag k="name" v="Trytetjenn" />
		<tag k="natural" v="water" />
		<tag k="ssr:stedsnr" v="550071" />
	</node>
	<node id="-251158" lat="60.0892666642" lon="9.59746388193">
		<tag k="name" v="Vesle Guletjenn" />
		<tag k="natural" v="water" />
		<tag k="ssr:stedsnr" v="578861" />
	</node>
	<node id="-253204" lat="60.0167861128" lon="9.52923889418">
		<tag k="alt_name" v="Tjennhaugtjenn" />
		<tag k="name" v="Tjennhaugtjenna" />
		<tag k="natural" v="water" />
		<tag k="ssr:stedsnr" v="550020" />
	</node>
	<node id="-253199" lat="60.101645397" lon="9.29205353797">
		<tag k="name" v="Øytjenna" />
		<tag k="natural" v="water" />
		<tag k="ssr:stedsnr" v="545914" />
		<tag k="water" v="lake" />
	</node>
	<node id="-253194" lat="60.2910383107" lon="9.18864534978">
		<tag k="name" v="Steintjenn" />
		<tag k="natural" v="water" />
		<tag k="ssr:stedsnr" v="431495" />
	</node>
	<node id="-253192" lat="60.2705777788" lon="9.22070554763">
		<tag k="name" v="Kråketjenn" />
		<tag k="natural" v="water" />
		<tag k="ssr:stedsnr" v="431138" />
	</node>
	<node id="-251142" lat="59.9814416646" lon="9.52318054867">
		<tag k="name" v="Igletjenn" />
		<tag k="natural" v="water" />
		<tag k="ssr:stedsnr" v="578075" />
	</node>
	<node id="-253183" lat="60.2432486479" lon="9.19481006226">
		<tag k="fixme" v="multiple name tags, choose one and add the other to alt_name" />
		<tag k="name" v="Kyrskardvatnet;Kyrskartjenn" />
		<tag k="natural" v="water" />
		<tag k="ssr:stedsnr" v="429990" />
	</node>
	<node id="-251131" lat="60.2130166643" lon="9.34385000705">
		<tag k="name" v="Juvsbekken" />
		<tag k="ssr:stedsnr" v="576919" />
		<tag k="waterway" v="stream" />
	</node>
	<node id="-253178" lat="59.9963240811" lon="9.71766468414">
		<tag k="name" v="Bolsrudtjenn" />
		<tag k="natural" v="water" />
		<tag k="ssr:stedsnr" v="429969" />
	</node>
	<node id="-253175" lat="59.9890388887" lon="9.83114722643">
		<tag k="name" v="Grastjenn" />
		<tag k="natural" v="water" />
		<tag k="ssr:stedsnr" v="429949" />
	</node>
	<node id="-253171" lat="59.951399997" lon="9.80558610707">
		<tag k="alt_name" v="Storelva" />
		<tag k="name" v="Simoa" />
		<tag k="ssr:stedsnr" v="429753" />
		<tag k="waterway" v="river" />
	</node>
	<node id="-253170" lat="60.1002999976" lon="9.44137499173">
		<tag k="name" v="Ulbergselva" />
		<tag k="ssr:stedsnr" v="429384" />
		<tag k="waterway" v="stream" />
	</node>
	<node id="-251121" lat="60.333972223" lon="9.19111666394">
		<tag k="name" v="Hallingbekken" />
		<tag k="ssr:stedsnr" v="576120" />
		<tag k="waterway" v="stream" />
	</node>
	<node id="-253166" lat="60.1729151798" lon="9.32133783098">
		<tag k="name" v="Skodøltjenn" />
		<tag k="natural" v="water" />
		<tag k="ssr:stedsnr" v="429444" />
	</node>
	<node id="-251113" lat="60.1537210397" lon="9.21734997469">
		<tag k="name" v="Tryteula" />
		<tag k="natural" v="bay" />
		<tag k="ssr:stedsnr" v="575132" />
	</node>
	<node id="-251111" lat="60.1975888901" lon="9.19061389419">
		<tag k="name" v="Løken" />
		<tag k="ssr:stedsnr" v="575074" />
		<tag k="waterway" v="stream" />
	</node>
	<node id="-250406" lat="60.0064111143" lon="9.64097221701">
		<tag k="name" v="Bukketjenn" />
		<tag k="natural" v="water" />
		<tag k="ssr:stedsnr" v="457210" />
	</node>
	<node id="-251105" lat="60.0984999999" lon="9.65228334221">
		<tag k="name" v="Aurevika" />
		<tag k="natural" v="bay" />
		<tag k="ssr:stedsnr" v="700914" />
	</node>
	<node id="-251104" lat="60.0729722204" lon="9.43189166493">
		<tag k="name" v="Gampetjenn" />
		<tag k="natural" v="water" />
		<tag k="ssr:stedsnr" v="700913" />
	</node>
	<node id="-253149" lat="59.9687310364" lon="9.53822360936">
		<tag k="name" v="Mjovatnet" />
		<tag k="natural" v="water" />
		<tag k="ssr:stedsnr" v="428300" />
		<tag k="water" v="lake" />
	</node>
	<node id="-253148" lat="59.9922555595" lon="9.52028610732">
		<tag k="name" v="Brannbråtatjenn" />
		<tag k="natural" v="water" />
		<tag k="ssr:stedsnr" v="428288" />
	</node>
	<node id="-251099" lat="60.0498138876" lon="9.71760000736">
		<tag k="name" v="Løkane" />
		<tag k="natural" v="water" />
		<tag k="ssr:stedsnr" v="700801" />
		<tag k="water" v="lake" />
	</node>
	<node id="-251093" lat="60.0725555554" lon="9.525894444">
		<tag k="name" v="Bekketangen" />
		<tag k="natural" v="cape" />
		<tag k="ssr:stedsnr" v="700589" />
	</node>
	<node id="-253138" lat="60.0496222256" lon="9.42420833374">
		<tag k="name" v="Øvre Størrputt" />
		<tag k="natural" v="water" />
		<tag k="ssr:stedsnr" v="396927" />
		<tag k="water" v="pond" />
	</node>
	<node id="-251081" lat="59.96216667" lon="9.79699999164">
		<tag k="name" v="Sandbekken" />
		<tag k="ssr:stedsnr" v="700479" />
		<tag k="waterway" v="stream" />
	</node>
	<node id="-251079" lat="60.0334444442" lon="9.52598611439">
		<tag k="name" v="Puttane" />
		<tag k="natural" v="water" />
		<tag k="ssr:stedsnr" v="700245" />
		<tag k="water" v="pond" />
	</node>
	<node id="-251078" lat="60.0515194423" lon="9.47853332542">
		<tag k="name" v="Sløyfebekk" />
		<tag k="ssr:stedsnr" v="700232" />
		<tag k="waterway" v="stream" />
	</node>
	<node id="-253125" lat="60.0609416654" lon="9.56971665888">
		<tag k="name" v="Rånåbekk" />
		<tag k="ssr:stedsnr" v="396732" />
		<tag k="waterway" v="stream" />
	</node>
	<node id="-250059" lat="60.2029055539" lon="9.26363888272">
		<tag k="name" v="Skriutjenn" />
		<tag k="natural" v="water" />
		<tag k="ssr:stedsnr" v="247452" />
	</node>
	<node id="-251072" lat="59.9958888846" lon="9.59167499567">
		<tag k="name" v="Tretjennbekken" />
		<tag k="ssr:stedsnr" v="700136" />
		<tag k="waterway" v="stream" />
	</node>
	<node id="-253119" lat="59.9558027766" lon="9.6455944378">
		<tag k="name" v="Trommefoss" />
		<tag k="natural" v="waterfall" />
		<tag k="ssr:stedsnr" v="396476" />
	</node>
	<node id="-253118" lat="60.0660055564" lon="9.54420278225">
		<tag k="name" v="Båthusodden" />
		<tag k="natural" v="cape" />
		<tag k="ssr:stedsnr" v="396450" />
	</node>
	<node id="-251069" lat="59.9987527734" lon="9.46907500391">
		<tag k="name" v="Rundhøl" />
		<tag k="place" v="locality" />
		<tag k="ssr:stedsnr" v="700082" />
	</node>
	<node id="-251068" lat="60.0026583327" lon="9.54314167148">
		<tag k="name" v="Kanelesbekken" />
		<tag k="ssr:stedsnr" v="700075" />
		<tag k="waterway" v="stream" />
	</node>
	<node id="-251066" lat="60.06321667" lon="9.59206666218">
		<tag k="name" v="Svarteputt" />
		<tag k="natural" v="water" />
		<tag k="ssr:stedsnr" v="699728" />
		<tag k="water" v="pond" />
	</node>
	<node id="-253105" lat="60.0779944463" lon="9.59542222701">
		<tag k="name" v="Svartetjenn" />
		<tag k="natural" v="water" />
		<tag k="ssr:stedsnr" v="396357" />
	</node>
	<node id="-251055" lat="60.2262638914" lon="9.46559166772">
		<tag k="name" v="Tussetjenn" />
		<tag k="natural" v="water" />
		<tag k="ssr:stedsnr" v="698500" />
	</node>
	<node id="-253101" lat="59.9322323975" lon="9.65882329037">
		<tag k="name" v="Gørrtjenn" />
		<tag k="natural" v="water" />
		<tag k="ssr:stedsnr" v="396312" />
	</node>
	<node id="-253098" lat="59.9699444483" lon="9.6222500075">
		<tag k="name" v="Mattistjenn" />
		<tag k="natural" v="water" />
		<tag k="ssr:stedsnr" v="396278" />
	</node>
	<node id="-253096" lat="60.0015750044" lon="9.5898333384">
		<tag k="name" v="Løken" />
		<tag k="ssr:stedsnr" v="396201" />
		<tag k="waterway" v="stream" />
	</node>
	<node id="-251545" lat="60.0264027777" lon="9.54823888124">
		<tag k="name" v="Tverråa" />
		<tag k="ssr:stedsnr" v="915035" />
		<tag k="waterway" v="stream" />
	</node>
	<node id="-251034" lat="60.2649950454" lon="9.19806818604">
		<tag k="name" v="Snøfonnskartjenn" />
		<tag k="natural" v="water" />
		<tag k="ssr:stedsnr" v="697793" />
	</node>
	<node id="-251031" lat="60.2810413506" lon="9.37883774748">
		<tag k="name" v="Bannartjenn" />
		<tag k="natural" v="water" />
		<tag k="ssr:stedsnr" v="697579" />
	</node>
	<node id="-251030" lat="60.2267666632" lon="9.28099721871">
		<tag k="name" v="Bekkemotet" />
		<tag k="place" v="locality" />
		<tag k="ssr:stedsnr" v="697448" />
	</node>
	<node id="-253077" lat="60.0164999996" lon="9.44906667459">
		<tag k="name" v="Grytedammen" />
		<tag k="ssr:stedsnr" v="396056" />
		<tag k="waterway" v="dam" />
	</node>
	<node id="-251028" lat="60.3077749966" lon="9.29796666872">
		<tag k="name" v="Løken" />
		<tag k="ssr:stedsnr" v="697143" />
		<tag k="waterway" v="stream" />
	</node>
	<node id="-253075" lat="60.0488416656" lon="9.67570000138">
		<tag k="name" v="Tukuelva" />
		<tag k="ssr:stedsnr" v="396578" />
		<tag k="waterway" v="stream" />
	</node>
	<node id="-253071" lat="59.9749833349" lon="9.66431389733">
		<tag k="name" v="Brattefoss" />
		<tag k="natural" v="waterfall" />
		<tag k="ssr:stedsnr" v="395490" />
	</node>
	<node id="-251021" lat="60.1631055548" lon="9.22491388025">
		<tag k="name" v="Åsantangen" />
		<tag k="natural" v="cape" />
		<tag k="ssr:stedsnr" v="697164" />
	</node>
	<node id="-250050" lat="60.2136583324" lon="9.22417500091">
		<tag k="name" v="Stornattjenn" />
		<tag k="natural" v="water" />
		<tag k="ssr:stedsnr" v="247251" />
	</node>
	<node id="-253064" lat="60.2070944482" lon="9.4098861137">
		<tag k="name" v="Kultbekken" />
		<tag k="ssr:stedsnr" v="394987" />
		<tag k="waterway" v="stream" />
	</node>
	<node id="-251010" lat="59.8980417366" lon="9.72704115533">
		<tag k="name" v="Skårfossdammen" />
		<tag k="ssr:stedsnr" v="694393" />
		<tag k="waterway" v="dam" />
	</node>
	<node id="-253054" lat="60.2319027769" lon="9.3337499991">
		<tag k="name" v="Ringnesbekken" />
		<tag k="ssr:stedsnr" v="394840" />
		<tag k="waterway" v="stream" />
	</node>
	<node id="-250999" lat="60.0489833326" lon="9.75670000704">
		<tag k="alt_name" v="Tretjern" />
		<tag k="name" v="Tretjenn" />
		<tag k="natural" v="water" />
		<tag k="ssr:stedsnr" v="517822" />
	</node>
	<node id="-251070" lat="59.9994222204" lon="9.47481388424">
		<tag k="name" v="Den lange hølen" />
		<tag k="place" v="locality" />
		<tag k="ssr:stedsnr" v="700089" />
	</node>
	<node id="-253039" lat="60.1167638859" lon="9.43343889011">
		<tag k="name" v="Svabekken" />
		<tag k="ssr:stedsnr" v="394319" />
		<tag k="waterway" v="stream" />
	</node>
	<node id="-253037" lat="60.2824888861" lon="9.1980777688">
		<tag k="name" v="Nestetjenn" />
		<tag k="natural" v="water" />
		<tag k="ssr:stedsnr" v="393790" />
	</node>
	<node id="-253036" lat="60.2725805579" lon="9.21559723071">
		<tag k="name" v="Leinetjenn" />
		<tag k="natural" v="water" />
		<tag k="ssr:stedsnr" v="393784" />
	</node>
	<node id="-253033" lat="60.3220388859" lon="9.25894444569">
		<tag k="name" v="Åslandbekken" />
		<tag k="ssr:stedsnr" v="394097" />
		<tag k="waterway" v="stream" />
	</node>
	<node id="-250983" lat="59.9858340612" lon="9.51462992072">
		<tag k="name" v="Horgesetervatna" />
		<tag k="natural" v="water" />
		<tag k="old_name" v="Horgevatnet;Hørgevatna" />
		<tag k="ssr:stedsnr" v="490006" />
		<tag k="water" v="lake" />
	</node>
	<node id="-250982" lat="59.9802096684" lon="9.56502839467">
		<tag k="name" v="Lindbutjenn" />
		<tag k="natural" v="water" />
		<tag k="ssr:stedsnr" v="489338" />
	</node>
	<node id="-250980" lat="60.2271305588" lon="9.25350277876">
		<tag k="name" v="Svarttjenn" />
		<tag k="natural" v="water" />
		<tag k="ssr:stedsnr" v="489306" />
	</node>
	<node id="-250977" lat="60.2595839783" lon="9.19979710021">
		<tag k="alt_name" v="Urdetjenn" />
		<tag k="name" v="Uletjenn" />
		<tag k="natural" v="water" />
		<tag k="ssr:stedsnr" v="674290" />
	</node>
	<node id="-253024" lat="60.1395888925" lon="9.25032499512">
		<tag k="name" v="Uksetjenn" />
		<tag k="natural" v="water" />
		<tag k="ssr:stedsnr" v="393348" />
	</node>
	<node id="-253023" lat="60.1473388853" lon="9.25935000302">
		<tag k="name" v="Lislelivatn" />
		<tag k="natural" v="water" />
		<tag k="ssr:stedsnr" v="393341" />
	</node>
	<node id="-253021" lat="60.1960129876" lon="9.22225723822">
		<tag k="name" v="Kroktjenna" />
		<tag k="natural" v="water" />
		<tag k="ssr:stedsnr" v="393186" />
		<tag k="water" v="lake" />
	</node>
	<node id="-253020" lat="60.1661916647" lon="9.20379167194">
		<tag k="name" v="Ambjørghølun" />
		<tag k="natural" v="water" />
		<tag k="ssr:stedsnr" v="393151" />
		<tag k="water" v="pond" />
	</node>
	<node id="-253019" lat="60.2063694447" lon="9.18990833793">
		<tag k="name" v="Løken" />
		<tag k="ssr:stedsnr" v="393096" />
		<tag k="waterway" v="stream" />
	</node>
	<node id="-253017" lat="59.9977138931" lon="9.49072222068">
		<tag k="name" v="Øvre Kvernhølen" />
		<tag k="place" v="locality" />
		<tag k="ssr:stedsnr" v="388041" />
	</node>
	<node id="-250967" lat="60.2896888869" lon="9.39600832666">
		<tag k="name" v="Istjennbekken" />
		<tag k="ssr:stedsnr" v="673080" />
		<tag k="waterway" v="stream" />
	</node>
	<node id="-250965" lat="60.295038887" lon="9.36475555255">
		<tag k="name" v="Grunntjenn" />
		<tag k="natural" v="water" />
		<tag k="ssr:stedsnr" v="673076" />
	</node>
	<node id="-250960" lat="60.2025999976" lon="9.18949166892">
		<tag k="alt_name" v="Nilstjenna" />
		<tag k="name" v="Nilstjenn" />
		<tag k="natural" v="water" />
		<tag k="ssr:stedsnr" v="672929" />
	</node>
	<node id="-253007" lat="60.2897750021" lon="9.36940000613">
		<tag k="name" v="Steinveggvatnet" />
		<tag k="natural" v="water" />
		<tag k="ssr:stedsnr" v="370087" />
		<tag k="water" v="lake" />
	</node>
	<node id="-253006" lat="60.3293861438" lon="9.26996802929">
		<tag k="name" v="Bekkerudsjøen" />
		<tag k="natural" v="water" />
		<tag k="ssr:stedsnr" v="370068" />
		<tag k="water" v="lake" />
	</node>
	<node id="-253005" lat="60.0046250036" lon="9.66407777363">
		<tag k="name" v="Haukåa" />
		<tag k="ssr:stedsnr" v="369980" />
		<tag k="waterway" v="stream" />
	</node>
	<node id="-250955" lat="60.1942779403" lon="9.30321874088">
		<tag k="name" v="Skatjenn" />
		<tag k="natural" v="water" />
		<tag k="ssr:stedsnr" v="672449" />
	</node>
	<node id="-253001" lat="60.0950385679" lon="9.61288450673">
		<tag k="name" v="Annetjenn" />
		<tag k="natural" v="water" />
		<tag k="ssr:stedsnr" v="369836" />
	</node>
	<node id="-253000" lat="60.1070586987" lon="9.66388205361">
		<tag k="name" v="Glessjøen" />
		<tag k="natural" v="water" />
		<tag k="ssr:stedsnr" v="369830" />
		<tag k="water" v="lake" />
	</node>
	<node id="-252999" lat="60.1490555529" lon="9.32847221466">
		<tag k="name" v="Sinern" />
		<tag k="natural" v="water" />
		<tag k="ssr:stedsnr" v="369368" />
		<tag k="water" v="lake" />
	</node>
	<node id="-252998" lat="60.2476555541" lon="9.43552221569">
		<tag k="alt_name" v="Bjertnessetertjenn" />
		<tag k="name" v="Bjertnessetertjennet" />
		<tag k="natural" v="water" />
		<tag k="ssr:stedsnr" v="369288" />
	</node>
	<node id="-250949" lat="60.1081444401" lon="9.49150000174">
		<tag k="alt_name" v="Igletjenn" />
		<tag k="name" v="Igletjennet" />
		<tag k="natural" v="water" />
		<tag k="ssr:stedsnr" v="672378" />
	</node>
	<node id="-252996" lat="60.2281222225" lon="9.36441389075">
		<tag k="name" v="Eggedøla" />
		<tag k="ssr:stedsnr" v="369232" />
		<tag k="waterway" v="river" />
	</node>
	<node id="-252995" lat="60.0878972262" lon="9.40335833098">
		<tag k="name" v="Kisneskardbekken" />
		<tag k="ssr:stedsnr" v="369111" />
		<tag k="waterway" v="stream" />
	</node>
	<node id="-252993" lat="60.0916578505" lon="9.59154458786">
		<tag k="name" v="Guletjenn" />
		<tag k="natural" v="water" />
		<tag k="ssr:stedsnr" v="369088" />
	</node>
	<node id="-250944" lat="60.1231138849" lon="9.37686388072">
		<tag k="name" v="Nedalselva" />
		<tag k="ssr:stedsnr" v="672346" />
		<tag k="waterway" v="river" />
	</node>
	<node id="-252990" lat="60.0635388849" lon="9.51288888347">
		<tag k="name" v="Soneren" />
		<tag k="natural" v="water" />
		<tag k="ssr:stedsnr" v="369071" />
		<tag k="water" v="lake" />
	</node>
	<node id="-250938" lat="60.2217250014" lon="9.42037499947">
		<tag k="name" v="Kjøla" />
		<tag k="ssr:stedsnr" v="672241" />
		<tag k="waterway" v="stream" />
	</node>
	<node id="-250936" lat="60.23095278" lon="9.28033611473">
		<tag k="name" v="Nastadbekken" />
		<tag k="ssr:stedsnr" v="672236" />
		<tag k="waterway" v="stream" />
	</node>
	<node id="-250377" lat="59.9598666631" lon="9.63869444739">
		<tag k="name" v="Barhaugbekken" />
		<tag k="ssr:stedsnr" v="456464" />
		<tag k="waterway" v="stream" />
	</node>
	<node id="-250930" lat="60.0644861102" lon="9.38736666085">
		<tag k="name" v="Rognetjenna" />
		<tag k="natural" v="water" />
		<tag k="ssr:stedsnr" v="672084" />
		<tag k="water" v="lake" />
	</node>
	<node id="-250035" lat="60.2850749999" lon="9.1853444412">
		<tag k="name" v="Flåtåtjenn" />
		<tag k="natural" v="water" />
		<tag k="ssr:stedsnr" v="67522" />
	</node>
	<node id="-252976" lat="60.1965305541" lon="9.2405138953">
		<tag k="name" v="Øvre Trytetjenn" />
		<tag k="natural" v="water" />
		<tag k="ssr:stedsnr" v="368523" />
	</node>
	<node id="-250927" lat="60.032602782" lon="9.40687222955">
		<tag k="name" v="Rebbe" />
		<tag k="natural" v="water" />
		<tag k="ssr:stedsnr" v="672053" />
	</node>
	<node id="-252974" lat="60.1994138921" lon="9.34816111873">
		<tag k="name" v="Skårsbekken" />
		<tag k="ssr:stedsnr" v="368515" />
		<tag k="waterway" v="stream" />
	</node>
	<node id="-252973" lat="60.1875416687" lon="9.46949443863">
		<tag k="name" v="Omlitjenn" />
		<tag k="natural" v="water" />
		<tag k="ssr:stedsnr" v="368470" />
	</node>
	<node id="-252970" lat="60.1107222251" lon="9.41040555347">
		<tag k="alt_name" v="Andersnattjennet" />
		<tag k="name" v="Andersnattjenn" />
		<tag k="natural" v="water" />
		<tag k="ssr:stedsnr" v="368412" />
	</node>
	<node id="-252969" lat="60.1150749971" lon="9.25987221977">
		<tag k="alt_name" v="Grasbekken" />
		<tag k="name" v="Grasbekk" />
		<tag k="ssr:stedsnr" v="368409" />
		<tag k="waterway" v="stream" />
	</node>
	<node id="-250919" lat="59.9727249995" lon="9.69172776961">
		<tag k="name" v="Grima" />
		<tag k="ssr:stedsnr" v="671803" />
		<tag k="waterway" v="river" />
	</node>
	<node id="-252965" lat="59.9672805536" lon="9.56068888368">
		<tag k="name" v="Skjelåa" />
		<tag k="ssr:stedsnr" v="368340" />
		<tag k="waterway" v="river" />
	</node>
	<node id="-250916" lat="59.9943500004" lon="9.49669166519">
		<tag k="name" v="Langhølen" />
		<tag k="place" v="locality" />
		<tag k="ssr:stedsnr" v="671258" />
	</node>
	<node id="-252963" lat="60.2195388925" lon="9.45443333398">
		<tag k="name" v="Hornsjøelva" />
		<tag k="ssr:stedsnr" v="368292" />
		<tag k="waterway" v="stream" />
	</node>
	<node id="-252962" lat="60.2264972225" lon="9.45687499387">
		<tag k="name" v="Lislevatn" />
		<tag k="natural" v="water" />
		<tag k="ssr:stedsnr" v="368277" />
	</node>
	<node id="-252958" lat="60.0105055539" lon="9.48293888354">
		<tag k="name" v="Flagtjenn" />
		<tag k="natural" v="water" />
		<tag k="ssr:stedsnr" v="368013" />
	</node>
	<node id="-252957" lat="60.0063055594" lon="9.52572500608">
		<tag k="name" v="Gåsetjenn" />
		<tag k="natural" v="water" />
		<tag k="ssr:stedsnr" v="368011" />
	</node>
	<node id="-252955" lat="59.9849250928" lon="9.57628031867">
		<tag k="name" v="Laukliåstjenn" />
		<tag k="natural" v="water" />
		<tag k="ssr:stedsnr" v="367254" />
	</node>
	<node id="-250031" lat="60.2945000041" lon="9.28964999127">
		<tag k="name" v="Sandvassbekken" />
		<tag k="ssr:stedsnr" v="67108" />
		<tag k="waterway" v="stream" />
	</node>
	<node id="-250904" lat="60.1804583352" lon="9.27312777984">
		<tag k="name" v="Sauetjenn" />
		<tag k="natural" v="water" />
		<tag k="ssr:stedsnr" v="454667" />
	</node>
	<node id="-252949" lat="60.0796805591" lon="9.48814166079">
		<tag k="name" v="Glupetangen" />
		<tag k="natural" v="cape" />
		<tag k="ssr:stedsnr" v="336915" />
	</node>
	<node id="-250899" lat="60.1562577394" lon="9.23785325481">
		<tag k="name" v="Buvassbekken" />
		<tag k="ssr:stedsnr" v="454029" />
		<tag k="waterway" v="stream" />
	</node>
	<node id="-252946" lat="60.0861472214" lon="9.42884166972">
		<tag k="name" v="Svartetjennbekken" />
		<tag k="ssr:stedsnr" v="336897" />
		<tag k="waterway" v="stream" />
	</node>
	<node id="-250897" lat="60.2022138891" lon="9.21067222526">
		<tag k="name" v="Fjellvatn" />
		<tag k="natural" v="water" />
		<tag k="ssr:stedsnr" v="454006" />
	</node>
	<node id="-252944" lat="60.0943472197" lon="9.64380833815">
		<tag k="name" v="Pøllbekken" />
		<tag k="ssr:stedsnr" v="336892" />
		<tag k="waterway" v="stream" />
	</node>
	<node id="-251053" lat="60.1473249971" lon="9.46420278188">
		<tag k="name" v="Tangebekken" />
		<tag k="ssr:stedsnr" v="698328" />
		<tag k="waterway" v="stream" />
	</node>
	<node id="-250890" lat="60.0748277756" lon="9.49297499688">
		<tag k="name" v="Blekabergodden" />
		<tag k="natural" v="cape" />
		<tag k="ssr:stedsnr" v="518905" />
	</node>
	<node id="-250886" lat="60.0995583322" lon="9.66652222893">
		<tag k="name" v="Glessjøelva" />
		<tag k="ssr:stedsnr" v="518886" />
		<tag k="waterway" v="stream" />
	</node>
	<node id="-252932" lat="60.1327999963" lon="9.5461472214">
		<tag k="name" v="Bjørevassdammen" />
		<tag k="ssr:stedsnr" v="336465" />
		<tag k="waterway" v="dam" />
	</node>
	<node id="-252928" lat="60.0825472192" lon="9.66305833462">
		<tag k="name" v="Øvre Åstjenn" />
		<tag k="natural" v="water" />
		<tag k="ssr:stedsnr" v="336419" />
	</node>
	<node id="-252927" lat="60.0831361135" lon="9.66724444995">
		<tag k="name" v="Nedre Åstjenn" />
		<tag k="natural" v="water" />
		<tag k="ssr:stedsnr" v="336418" />
	</node>
	<node id="-250876" lat="59.9856472247" lon="9.76929444839">
		<tag k="name" v="Dælabekken" />
		<tag k="ssr:stedsnr" v="518560" />
		<tag k="waterway" v="stream" />
	</node>
	<node id="-250872" lat="60.0680916622" lon="9.60387778663">
		<tag k="name" v="Butjenn" />
		<tag k="natural" v="water" />
		<tag k="ssr:stedsnr" v="518392" />
	</node>
	<node id="-252917" lat="60.0033555532" lon="9.45723332786">
		<tag k="name" v="Tråenhølen" />
		<tag k="place" v="locality" />
		<tag k="ssr:stedsnr" v="336089" />
	</node>
	<node id="-252916" lat="60.0199861134" lon="9.44406944952">
		<tag k="name" v="Signehølen" />
		<tag k="place" v="locality" />
		<tag k="ssr:stedsnr" v="336086" />
	</node>
	<node id="-252915" lat="60.0112111078" lon="9.45027777386">
		<tag k="name" v="Bastebråtahølen" />
		<tag k="place" v="locality" />
		<tag k="ssr:stedsnr" v="336081" />
	</node>
	<node id="-250039" lat="59.9913721076" lon="9.48856345084">
		<tag k="name" v="Gørrtjenn" />
		<tag k="natural" v="water" />
		<tag k="ssr:stedsnr" v="246295" />
	</node>
	<node id="-252912" lat="60.0477277788" lon="9.5596416655">
		<tag k="name" v="Larseberg" />
		<tag k="natural" v="cape" />
		<tag k="ssr:stedsnr" v="336371" />
	</node>
	<node id="-252911" lat="60.0732196496" lon="9.56904860801">
		<tag k="name" v="Småtjenn" />
		<tag k="natural" v="water" />
		<tag k="ssr:stedsnr" v="336355" />
	</node>
	<node id="-252910" lat="60.0015388869" lon="9.52652221501">
		<tag k="name" v="Plassetjenn" />
		<tag k="natural" v="water" />
		<tag k="ssr:stedsnr" v="336076" />
	</node>
	<node id="-252908" lat="60.0419138911" lon="9.591752784">
		<tag k="name" v="Sundet" />
		<tag k="natural" v="strait" />
		<tag k="ssr:stedsnr" v="335800" />
	</node>
	<node id="-250854" lat="60.0514777753" lon="9.60943054772">
		<tag k="name" v="Tjuvodden" />
		<tag k="natural" v="cape" />
		<tag k="ssr:stedsnr" v="517800" />
	</node>
	<node id="-252893" lat="60.0351749989" lon="9.63838333694">
		<tag k="name" v="Saltåa" />
		<tag k="ssr:stedsnr" v="335669" />
		<tag k="waterway" v="stream" />
	</node>
	<node id="-250362" lat="60.3262583325" lon="9.18417500362">
		<tag k="name" v="Haglebudammen" />
		<tag k="ssr:stedsnr" v="455879" />
		<tag k="waterway" v="dam" />
	</node>
	<node id="-252288" lat="59.9909888893" lon="9.51825832786">
		<tag k="name" v="Bergøya" />
		<tag k="place" v="island" />
		<tag k="ssr:stedsnr" v="93058" />
	</node>
	<node id="-252883" lat="59.9739944431" lon="9.73716111243">
		<tag k="name" v="Kvennhusfossen" />
		<tag k="natural" v="waterfall" />
		<tag k="ssr:stedsnr" v="335365" />
	</node>
	<node id="-252881" lat="59.9752444447" lon="9.59091110772">
		<tag k="name" v="Raudtangen" />
		<tag k="natural" v="cape" />
		<tag k="ssr:stedsnr" v="335359" />
	</node>
	<node id="-250829" lat="60.1459888864" lon="9.49892222904">
		<tag k="name" v="Mastemyrtjennet" />
		<tag k="natural" v="water" />
		<tag k="ssr:stedsnr" v="517413" />
	</node>
	<node id="-251383" lat="60.0189499991" lon="9.57803056422">
		<tag k="name" v="Milebråtabekken" />
		<tag k="ssr:stedsnr" v="882221" />
		<tag k="waterway" v="stream" />
	</node>
	<node id="-252870" lat="60.0776638868" lon="9.41845834092">
		<tag k="name" v="Skjærn" />
		<tag k="ssr:stedsnr" v="334921" />
		<tag k="waterway" v="stream" />
	</node>
	<node id="-250821" lat="59.9765583322" lon="9.59444722379">
		<tag k="name" v="Evjua" />
		<tag k="natural" v="bay" />
		<tag k="ssr:stedsnr" v="517348" />
	</node>
	<node id="-250820" lat="60.3129439556" lon="9.33692959171">
		<tag k="name" v="Flætjenn" />
		<tag k="natural" v="water" />
		<tag k="ssr:stedsnr" v="431047" />
	</node>
	<node id="-250819" lat="60.2993583354" lon="9.23770555597">
		<tag k="name" v="Sagbekken" />
		<tag k="ssr:stedsnr" v="431042" />
		<tag k="waterway" v="stream" />
	</node>
	<node id="-252861" lat="60.1116388888" lon="9.34165278184">
		<tag k="name" v="Tangebekken" />
		<tag k="ssr:stedsnr" v="334028" />
		<tag k="waterway" v="stream" />
	</node>
	<node id="-250810" lat="60.0908027808" lon="9.45513610521">
		<tag k="name" v="Skjærsbekken" />
		<tag k="ssr:stedsnr" v="430104" />
		<tag k="waterway" v="stream" />
	</node>
	<node id="-252856" lat="60.1547333365" lon="9.30729722932">
		<tag k="name" v="Ånnetjenn" />
		<tag k="natural" v="water" />
		<tag k="ssr:stedsnr" v="333660" />
	</node>
	<node id="-252849" lat="60.2827166664" lon="9.25856944483">
		<tag k="name" v="Ligardsfossen" />
		<tag k="natural" v="waterfall" />
		<tag k="ssr:stedsnr" v="333620" />
	</node>
	<node id="-250800" lat="60.1467638873" lon="9.33698610249">
		<tag k="alt_name" v="Dukelivatnet" />
		<tag k="name" v="Vestre Dukelivatn" />
		<tag k="natural" v="water" />
		<tag k="ssr:stedsnr" v="429404" />
	</node>
	<node id="-250797" lat="60.0877284104" lon="9.30592858029">
		<tag k="name" v="Tjenndalstjenn" />
		<tag k="natural" v="water" />
		<tag k="ssr:stedsnr" v="429111" />
	</node>
	<node id="-252843" lat="60.1390111129" lon="9.24223055055">
		<tag k="name" v="Letjenn" />
		<tag k="natural" v="water" />
		<tag k="ssr:stedsnr" v="333374" />
	</node>
	<node id="-251719" lat="60.020841663" lon="9.77893333411">
		<tag k="name" v="Store Rugåkertjenn" />
		<tag k="natural" v="water" />
		<tag k="ssr:stedsnr" v="821969" />
	</node>
	<node id="-252840" lat="60.172720288" lon="9.29226398381">
		<tag k="name" v="Grunntjennelva" />
		<tag k="ssr:stedsnr" v="333252" />
		<tag k="waterway" v="stream" />
	</node>
	<node id="-250790" lat="60.15406389" lon="9.43909167458">
		<tag k="name" v="Bjørebekken" />
		<tag k="ssr:stedsnr" v="516702" />
		<tag k="waterway" v="stream" />
	</node>
	<node id="-250789" lat="60.1523916711" lon="9.43420555743">
		<tag k="name" v="Heftafossen" />
		<tag k="natural" v="waterfall" />
		<tag k="ssr:stedsnr" v="516701" />
	</node>
	<node id="-252830" lat="60.2639333294" lon="9.29723888719">
		<tag k="fixme" v="multiple name tags, choose one and add the other to alt_name" />
		<tag k="name" v="Flagbekken;Kleivanbekken" />
		<tag k="ssr:stedsnr" v="310091" />
		<tag k="waterway" v="stream" />
	</node>
	<node id="-252827" lat="60.3315138913" lon="9.19940278539">
		<tag k="name" v="Hovdetjenn" />
		<tag k="natural" v="water" />
		<tag k="ssr:stedsnr" v="309483" />
	</node>
	<node id="-252826" lat="60.3333731487" lon="9.17767662218">
		<tag k="alt_name" v="Haglebuvatnet" />
		<tag k="name" v="Haglebuvatna" />
		<tag k="natural" v="water" />
		<tag k="ssr:stedsnr" v="309446" />
		<tag k="water" v="lake" />
	</node>
	<node id="-250776" lat="60.0627749968" lon="9.41569721474">
		<tag k="name" v="Fjellbekken" />
		<tag k="ssr:stedsnr" v="516323" />
		<tag k="waterway" v="stream" />
	</node>
	<node id="-252823" lat="60.2825583295" lon="9.40603888904">
		<tag k="name" v="Fetjenn" />
		<tag k="natural" v="water" />
		<tag k="ssr:stedsnr" v="309077" />
	</node>
	<node id="-250773" lat="60.2535111085" lon="9.45204166149">
		<tag k="name" v="Kortetjenn" />
		<tag k="natural" v="water" />
		<tag k="ssr:stedsnr" v="516195" />
	</node>
	<node id="-250769" lat="60.1482333366" lon="9.34314166441">
		<tag k="name" v="Østre Dukelivatn" />
		<tag k="natural" v="water" />
		<tag k="ssr:stedsnr" v="516097" />
		<tag k="water" v="lake" />
	</node>
	<node id="-252816" lat="60.0442083338" lon="9.62871666211">
		<tag k="name" v="Kråkefjorden" />
		<tag k="natural" v="water" />
		<tag k="ssr:stedsnr" v="308908" />
	</node>
	<node id="-250007" lat="60.1183583343" lon="9.49581666291">
		<tag k="name" v="Djupendalsbekken" />
		<tag k="ssr:stedsnr" v="31437" />
		<tag k="waterway" v="stream" />
	</node>
	<node id="-252804" lat="60.2363777802" lon="9.45536665859">
		<tag k="name" v="Djupsjøbekken" />
		<tag k="ssr:stedsnr" v="308268" />
		<tag k="waterway" v="stream" />
	</node>
	<node id="-252798" lat="60.0541800918" lon="9.40501654586">
		<tag k="name" v="Oddetjenna" />
		<tag k="natural" v="water" />
		<tag k="ssr:stedsnr" v="308055" />
		<tag k="water" v="lake" />
	</node>
	<node id="-252797" lat="60.0374583297" lon="9.51236111885">
		<tag k="fixme" v="multiple name tags, choose one and add the other to alt_name" />
		<tag k="name" v="Øvre Sulutjenn;Sulutjenna" />
		<tag k="natural" v="water" />
		<tag k="ssr:stedsnr" v="308038" />
	</node>
	<node id="-252796" lat="59.9795388928" lon="9.59881665894">
		<tag k="name" v="Evjuå" />
		<tag k="ssr:stedsnr" v="307934" />
		<tag k="waterway" v="stream" />
	</node>
	<node id="-250747" lat="60.1624916707" lon="9.37084166787">
		<tag k="name" v="Lammefoss" />
		<tag k="natural" v="waterfall" />
		<tag k="ssr:stedsnr" v="515647" />
	</node>
	<node id="-250740" lat="60.2764861094" lon="9.40776388058">
		<tag k="name" v="Tempelløken" />
		<tag k="place" v="locality" />
		<tag k="ssr:stedsnr" v="515410" />
	</node>
	<node id="-250738" lat="60.2665888848" lon="9.37281944028">
		<tag k="name" v="Rislelibekken" />
		<tag k="ssr:stedsnr" v="515407" />
		<tag k="waterway" v="stream" />
	</node>
	<node id="-250737" lat="60.2791166646" lon="9.39130833732">
		<tag k="name" v="Rautjenn" />
		<tag k="natural" v="water" />
		<tag k="ssr:stedsnr" v="515396" />
	</node>
	<node id="-252782" lat="59.9988444488" lon="9.45900556012">
		<tag k="name" v="Elddalsbekken" />
		<tag k="ssr:stedsnr" v="307294" />
		<tag k="waterway" v="stream" />
	</node>
	<node id="-250730" lat="60.2065888861" lon="9.23020555387">
		<tag k="name" v="Delestjenn" />
		<tag k="natural" v="water" />
		<tag k="ssr:stedsnr" v="515066" />
	</node>
	<node id="-252776" lat="60.0662500019" lon="9.63253054856">
		<tag k="name" v="Knutekulpen" />
		<tag k="natural" v="water" />
		<tag k="ssr:stedsnr" v="215479" />
		<tag k="water" v="pond" />
	</node>
	<node id="-252773" lat="60.0260888878" lon="9.51798333593">
		<tag k="name" v="Bukkebekk" />
		<tag k="ssr:stedsnr" v="215250" />
		<tag k="waterway" v="stream" />
	</node>
	<node id="-252769" lat="60.016863885" lon="9.43017778197">
		<tag k="name" v="Bågåtjenn" />
		<tag k="natural" v="water" />
		<tag k="ssr:stedsnr" v="215085" />
	</node>
	<node id="-252768" lat="59.9896249971" lon="9.51935832522">
		<tag k="name" v="Ormeodden" />
		<tag k="natural" v="cape" />
		<tag k="ssr:stedsnr" v="215078" />
	</node>
	<node id="-252767" lat="59.9928138919" lon="9.50222777989">
		<tag k="name" v="Gryteoset" />
		<tag k="natural" v="bay" />
		<tag k="ssr:stedsnr" v="215066" />
	</node>
	<node id="-250375" lat="60.1448333364" lon="9.50484166939">
		<tag k="name" v="Fugletjennbekken" />
		<tag k="ssr:stedsnr" v="456395" />
		<tag k="waterway" v="stream" />
	</node>
	<node id="-250715" lat="59.9610277776" lon="9.81547221776">
		<tag k="name" v="Midtskogen" />
		<tag k="ssr:stedsnr" v="396609" />
		<tag k="waterway" v="stream" />
	</node>
	<node id="-252762" lat="60.0685111144" lon="9.43852221381">
		<tag k="name" v="Søletjenn" />
		<tag k="natural" v="water" />
		<tag k="ssr:stedsnr" v="214976" />
	</node>
	<node id="-250725" lat="60.1532541832" lon="9.2471732384">
		<tag k="name" v="Vesle-Danmark" />
		<tag k="natural" v="water" />
		<tag k="ssr:stedsnr" v="515030" />
	</node>
	<node id="-252625" lat="60.0629027776" lon="9.63822777127">
		<tag k="name" v="Vesletjenn" />
		<tag k="natural" v="water" />
		<tag k="ssr:stedsnr" v="186874" />
	</node>
	<node id="-249997" lat="60.1553361122" lon="9.22279166716">
		<tag k="name" v="Trollodden" />
		<tag k="natural" v="cape" />
		<tag k="ssr:stedsnr" v="29152" />
	</node>
	<node id="-251670" lat="60.1833222213" lon="9.42183610957">
		<tag k="name" v="Fugleviktjenn" />
		<tag k="natural" v="water" />
		<tag k="ssr:stedsnr" v="819756" />
	</node>
	<node id="-251361" lat="60.0075500012" lon="9.53814721793">
		<tag k="name" v="Laugarputten" />
		<tag k="natural" v="water" />
		<tag k="ssr:stedsnr" v="882023" />
		<tag k="water" v="pond" />
	</node>
	<node id="-252738" lat="59.944366664" lon="9.70672778127">
		<tag k="name" v="Løkedammen" />
		<tag k="ssr:stedsnr" v="214563" />
		<tag k="waterway" v="dam" />
	</node>
	<node id="-252737" lat="60.0690333298" lon="9.50970000359">
		<tag k="name" v="Båneberg" />
		<tag k="natural" v="cape" />
		<tag k="ssr:stedsnr" v="214562" />
	</node>
	<node id="-252735" lat="59.9719361144" lon="9.56033055271">
		<tag k="name" v="Lomøyane" />
		<tag k="place" v="island" />
		<tag k="ssr:stedsnr" v="214559" />
	</node>
	<node id="-252732" lat="60.1118083303" lon="9.59227222992">
		<tag k="name" v="Blåsetjenn" />
		<tag k="natural" v="water" />
		<tag k="ssr:stedsnr" v="214536" />
	</node>
	<node id="-251359" lat="60.2332638922" lon="9.45870555636">
		<tag k="name" v="Vesle Lislevatn" />
		<tag k="natural" v="water" />
		<tag k="ssr:stedsnr" v="881982" />
	</node>
	<node id="-250671" lat="60.2787542042" lon="9.35537836804">
		<tag k="name" v="Værtjenn" />
		<tag k="natural" v="water" />
		<tag k="ssr:stedsnr" v="491116" />
	</node>
	<node id="-250668" lat="60.2946922498" lon="9.35110555194">
		<tag k="name" v="Fiskeløysingen" />
		<tag k="natural" v="water" />
		<tag k="ssr:stedsnr" v="491092" />
	</node>
	<node id="-250662" lat="60.093086112" lon="9.60853054764">
		<tag k="name" v="Sluffa" />
		<tag k="ssr:stedsnr" v="490856" />
		<tag k="waterway" v="stream" />
	</node>
	<node id="-250660" lat="60.1904138922" lon="9.28205554734">
		<tag k="name" v="Åsanlanglitjenn" />
		<tag k="natural" v="water" />
		<tag k="ssr:stedsnr" v="490478" />
	</node>
	<node id="-250658" lat="60.2029277807" lon="9.41871945154">
		<tag k="name" v="Kvernebekken" />
		<tag k="ssr:stedsnr" v="490473" />
		<tag k="waterway" v="stream" />
	</node>
	<node id="-250656" lat="60.1658373023" lon="9.35374435527">
		<tag k="name" v="Svarttjenn" />
		<tag k="natural" v="water" />
		<tag k="ssr:stedsnr" v="490441" />
	</node>
	<node id="-250651" lat="60.2426604106" lon="9.42171284192">
		<tag k="name" v="Sjusjøbroren" />
		<tag k="natural" v="water" />
		<tag k="ssr:stedsnr" v="490289" />
	</node>
	<node id="-250644" lat="59.9858611111" lon="9.82915833087">
		<tag k="name" v="Svarttjenn" />
		<tag k="natural" v="water" />
		<tag k="ssr:stedsnr" v="489947" />
	</node>
	<node id="-250643" lat="60.0449531289" lon="9.75386316117">
		<tag k="name" v="Trytetjenn" />
		<tag k="natural" v="water" />
		<tag k="ssr:stedsnr" v="489898" />
	</node>
	<node id="-250642" lat="60.0444017158" lon="9.73695140911">
		<tag k="name" v="Halvfartjenn" />
		<tag k="natural" v="water" />
		<tag k="ssr:stedsnr" v="489897" />
	</node>
	<node id="-252689" lat="60.1688388863" lon="9.26960832655">
		<tag k="name" v="Puttebekken" />
		<tag k="ssr:stedsnr" v="212655" />
		<tag k="waterway" v="stream" />
	</node>
	<node id="-252684" lat="60.1849916626" lon="9.37351388316">
		<tag k="name" v="Enderudsbekken" />
		<tag k="ssr:stedsnr" v="212745" />
		<tag k="waterway" v="stream" />
	</node>
	<node id="-252681" lat="60.2194333303" lon="9.29000000692">
		<tag k="name" v="Nevretjennbekken" />
		<tag k="ssr:stedsnr" v="212446" />
		<tag k="waterway" v="stream" />
	</node>
	<node id="-250632" lat="60.1249388904" lon="9.35941388784">
		<tag k="name" v="Kvernbekken" />
		<tag k="ssr:stedsnr" v="489385" />
		<tag k="waterway" v="stream" />
	</node>
	<node id="-252679" lat="60.1267027771" lon="9.30959445073">
		<tag k="name" v="Limpetjenn" />
		<tag k="natural" v="water" />
		<tag k="ssr:stedsnr" v="212096" />
	</node>
	<node id="-252678" lat="60.287955552" lon="9.24393889348">
		<tag k="name" v="Lifossen" />
		<tag k="natural" v="waterfall" />
		<tag k="ssr:stedsnr" v="212079" />
	</node>
	<node id="-250629" lat="59.9995388889" lon="9.48700554826">
		<tag k="name" v="Grytehølen" />
		<tag k="place" v="locality" />
		<tag k="ssr:stedsnr" v="489288" />
	</node>
	<node id="-252676" lat="60.1491694476" lon="9.38886388196">
		<tag k="name" v="Røtthøltjenn" />
		<tag k="natural" v="water" />
		<tag k="ssr:stedsnr" v="212074" />
	</node>
	<node id="-250625" lat="60.012022223" lon="9.5339111116">
		<tag k="name" v="Langetjenn" />
		<tag k="natural" v="water" />
		<tag k="ssr:stedsnr" v="489023" />
	</node>
	<node id="-250624" lat="60.0718805525" lon="9.44031943885">
		<tag k="name" v="Svarteputt" />
		<tag k="natural" v="water" />
		<tag k="ssr:stedsnr" v="336967" />
		<tag k="water" v="pond" />
	</node>
	<node id="-252670" lat="60.2444388928" lon="9.21882499764">
		<tag k="name" v="Bølestjenn" />
		<tag k="natural" v="water" />
		<tag k="ssr:stedsnr" v="212164" />
	</node>
	<node id="-250620" lat="59.9556861138" lon="9.82894999136">
		<tag k="name" v="Vestbekken" />
		<tag k="ssr:stedsnr" v="336609" />
		<tag k="waterway" v="stream" />
	</node>
	<node id="-250616" lat="60.0092416691" lon="9.5397666609">
		<tag k="name" v="Rundhøl" />
		<tag k="place" v="locality" />
		<tag k="ssr:stedsnr" v="336035" />
	</node>
	<node id="-250615" lat="59.9734472185" lon="9.54235832732">
		<tag k="name" v="Lindbubekken" />
		<tag k="ssr:stedsnr" v="336010" />
		<tag k="waterway" v="stream" />
	</node>
	<node id="-252662" lat="60.303540385" lon="9.17371432506">
		<tag k="name" v="Skriutjenn" />
		<tag k="natural" v="water" />
		<tag k="ssr:stedsnr" v="188505" />
	</node>
	<node id="-251689" lat="60.0147333345" lon="9.7150611124">
		<tag k="name" v="Skarbekk" />
		<tag k="ssr:stedsnr" v="821258" />
		<tag k="waterway" v="stream" />
	</node>
	<node id="-252659" lat="60.2893444455" lon="9.2039777705">
		<tag k="name" v="Misetbekken" />
		<tag k="ssr:stedsnr" v="188283" />
		<tag k="waterway" v="stream" />
	</node>
	<node id="-252657" lat="60.2701472253" lon="9.25357500881">
		<tag k="alt_name" v="Urdetjennbekken" />
		<tag k="name" v="Uletjennbekken" />
		<tag k="ssr:stedsnr" v="188147" />
		<tag k="waterway" v="stream" />
	</node>
	<node id="-252655" lat="60.2789116878" lon="9.39449466203">
		<tag k="fixme" v="multiple name tags, choose one and add the other to alt_name" />
		<tag k="name" v="Istjenn;Søre Istjenn" />
		<tag k="natural" v="water" />
		<tag k="ssr:stedsnr" v="188142" />
	</node>
	<node id="-252652" lat="60.2932361079" lon="9.2675305497">
		<tag k="name" v="Snårbekken" />
		<tag k="ssr:stedsnr" v="188108" />
		<tag k="waterway" v="stream" />
	</node>
	<node id="-252651" lat="60.2953499976" lon="9.23550000629">
		<tag k="alt_name" v="Sagfoss" />
		<tag k="name" v="Sagfossen" />
		<tag k="natural" v="waterfall" />
		<tag k="ssr:stedsnr" v="188099" />
	</node>
	<node id="-250602" lat="60.0075777753" lon="9.6246222281">
		<tag k="name" v="Lårbutjenn" />
		<tag k="natural" v="water" />
		<tag k="ssr:stedsnr" v="335221" />
	</node>
	<node id="-252649" lat="60.2893999999" lon="9.42529999973">
		<tag k="name" v="Tempelbekken" />
		<tag k="ssr:stedsnr" v="188077" />
		<tag k="waterway" v="stream" />
	</node>
	<node id="-252647" lat="60.3093333365" lon="9.2528888903">
		<tag k="name" v="Ormetjenn" />
		<tag k="natural" v="water" />
		<tag k="ssr:stedsnr" v="188040" />
	</node>
	<node id="-252646" lat="60.3119305978" lon="9.29398016137">
		<tag k="name" v="Kvelvsavatnet" />
		<tag k="natural" v="water" />
		<tag k="ssr:stedsnr" v="188034" />
	</node>
	<node id="-252645" lat="60.3370731332" lon="9.28678560674">
		<tag k="name" v="Bekkelitjennet" />
		<tag k="natural" v="water" />
		<tag k="ssr:stedsnr" v="188011" />
	</node>
	<node id="-252640" lat="60.181041668" lon="9.40938333138">
		<tag k="name" v="Solevatnet" />
		<tag k="natural" v="water" />
		<tag k="ssr:stedsnr" v="187423" />
		<tag k="water" v="lake" />
	</node>
	<node id="-252638" lat="60.1531244958" lon="9.48921374925">
		<tag k="name" v="Hagatjenna" />
		<tag k="natural" v="water" />
		<tag k="ssr:stedsnr" v="187389" />
		<tag k="water" v="lake" />
	</node>
	<node id="-252636" lat="60.2332159026" lon="9.42524463293">
		<tag k="name" v="Rakketjenn" />
		<tag k="natural" v="water" />
		<tag k="ssr:stedsnr" v="187241" />
	</node>
	<node id="-252634" lat="60.084627774" lon="9.51311389232">
		<tag k="name" v="Bråtatjenn" />
		<tag k="natural" v="water" />
		<tag k="ssr:stedsnr" v="187100" />
	</node>
	<node id="-252633" lat="60.0792555517" lon="9.3445638878">
		<tag k="name" v="Putten" />
		<tag k="natural" v="water" />
		<tag k="ssr:stedsnr" v="187097" />
	</node>
	<node id="-252630" lat="60.240124999" lon="9.21203334006">
		<tag k="name" v="Fagerlitjenn" />
		<tag k="natural" v="water" />
		<tag k="ssr:stedsnr" v="186986" />
	</node>
	<node id="-250581" lat="60.2237027803" lon="9.2388722225">
		<tag k="name" v="Puttbekken" />
		<tag k="ssr:stedsnr" v="333113" />
		<tag k="waterway" v="stream" />
	</node>
	<node id="-251683" lat="60.0109666636" lon="9.54974165828">
		<tag k="name" v="Saghølen" />
		<tag k="place" v="locality" />
		<tag k="ssr:stedsnr" v="821024" />
	</node>
	<node id="-252622" lat="59.9830249959" lon="9.8187749994">
		<tag k="name" v="Damtjenn" />
		<tag k="natural" v="water" />
		<tag k="ssr:stedsnr" v="186819" />
	</node>
	<node id="-250571" lat="60.2305833352" lon="9.29534166425">
		<tag k="name" v="Kremarrudtjennet" />
		<tag k="natural" v="water" />
		<tag k="ssr:stedsnr" v="326118" />
	</node>
	<node id="-250570" lat="60.1065166637" lon="9.40001667331">
		<tag k="alt_name" v="Reintjennet" />
		<tag k="name" v="Reintjenn" />
		<tag k="natural" v="water" />
		<tag k="ssr:stedsnr" v="550387" />
	</node>
	<node id="-250568" lat="60.1172147329" lon="9.60603158596">
		<tag k="name" v="Øyvatnet" />
		<tag k="natural" v="water" />
		<tag k="ssr:stedsnr" v="308822" />
	</node>
	<node id="-252614" lat="60.0242407768" lon="9.43646121631">
		<tag k="name" v="Haukelitjenn" />
		<tag k="natural" v="water" />
		<tag k="ssr:stedsnr" v="186032" />
	</node>
	<node id="-253729" lat="60.0732941838" lon="9.58257622588">
		<tag k="name" v="Helvetestjenna" />
		<tag k="natural" v="water" />
		<tag k="ssr:stedsnr" v="794088" />
	</node>
	<node id="-252612" lat="59.9944333354" lon="9.49839445209">
		<tag k="name" v="Grytelva" />
		<tag k="ssr:stedsnr" v="186013" />
		<tag k="waterway" v="river" />
	</node>
	<node id="-252611" lat="59.9013361111" lon="9.71794165782">
		<tag k="name" v="Letmolielva" />
		<tag k="ssr:stedsnr" v="185820" />
		<tag k="waterway" v="river" />
	</node>
	<node id="-252607" lat="59.9942519628" lon="9.50588546584">
		<tag k="alt_name" v="Mjovatnet" />
		<tag k="name" v="Mjovatn" />
		<tag k="natural" v="water" />
		<tag k="ssr:stedsnr" v="185240" />
		<tag k="water" v="lake" />
	</node>
	<node id="-252603" lat="60.1054555523" lon="9.60624443632">
		<tag k="name" v="Øvre Bjørketjenn" />
		<tag k="natural" v="water" />
		<tag k="ssr:stedsnr" v="154934" />
	</node>
	<node id="-250553" lat="59.9556833312" lon="9.81629721552">
		<tag k="name" v="Nesbekken" />
		<tag k="ssr:stedsnr" v="275609" />
		<tag k="waterway" v="stream" />
	</node>
	<node id="-252598" lat="60.010794441" lon="9.55305000654">
		<tag k="name" v="Eivindhølen" />
		<tag k="place" v="locality" />
		<tag k="ssr:stedsnr" v="154398" />
	</node>
	<node id="-250313" lat="60.191844441" lon="9.18885277024">
		<tag k="name" v="Ytrevatn" />
		<tag k="natural" v="water" />
		<tag k="ssr:stedsnr" v="454074" />
		<tag k="water" v="lake" />
	</node>
	<node id="-252593" lat="60.0335750014" lon="9.44421389757">
		<tag k="name" v="Grasbakktjenn" />
		<tag k="natural" v="water" />
		<tag k="ssr:stedsnr" v="154189" />
	</node>
	<node id="-252590" lat="59.9953555543" lon="9.49674167369">
		<tag k="name" v="Bekkemøtet" />
		<tag k="place" v="locality" />
		<tag k="ssr:stedsnr" v="154066" />
	</node>
	<node id="-252582" lat="60.0621555529" lon="9.70797500546">
		<tag k="name" v="Klauvbekken" />
		<tag k="ssr:stedsnr" v="153964" />
		<tag k="waterway" v="stream" />
	</node>
	<node id="-253382" lat="60.0797292323" lon="9.35585402582">
		<tag k="name" v="Tuftnevatn" />
		<tag k="natural" v="water" />
		<tag k="ssr:stedsnr" v="611098" />
		<tag k="water" v="lake" />
	</node>
	<node id="-250525" lat="60.0152111073" lon="9.4836888935">
		<tag k="name" v="Røsitjenn" />
		<tag k="natural" v="water" />
		<tag k="ssr:stedsnr" v="275109" />
	</node>
	<node id="-250524" lat="60.0119205741" lon="9.51811651677">
		<tag k="name" v="Småtjenna" />
		<tag k="natural" v="water" />
		<tag k="ssr:stedsnr" v="275108" />
		<tag k="water" v="lake" />
	</node>
	<node id="-250523" lat="60.0053638917" lon="9.44738611632">
		<tag k="name" v="Nyseterbekken" />
		<tag k="ssr:stedsnr" v="275075" />
		<tag k="waterway" v="stream" />
	</node>
	<node id="-250519" lat="60.0048833339" lon="9.54144443893">
		<tag k="name" v="Tjennhaugvika" />
		<tag k="natural" v="bay" />
		<tag k="ssr:stedsnr" v="275052" />
	</node>
	<node id="-250517" lat="59.972419448" lon="9.53463889177">
		<tag k="name" v="Kistefoss" />
		<tag k="natural" v="waterfall" />
		<tag k="ssr:stedsnr" v="275010" />
	</node>
	<node id="-250516" lat="60.1325611084" lon="9.51365834176">
		<tag k="name" v="Dælatjenn" />
		<tag k="natural" v="water" />
		<tag k="ssr:stedsnr" v="274355" />
	</node>
	<node id="-252562" lat="60.0599305575" lon="9.65239999964">
		<tag k="name" v="Sagbekken" />
		<tag k="ssr:stedsnr" v="153634" />
		<tag k="waterway" v="stream" />
	</node>
	<node id="-250512" lat="60.0866750026" lon="9.40702499756">
		<tag k="name" v="Puttane" />
		<tag k="natural" v="water" />
		<tag k="ssr:stedsnr" v="273952" />
		<tag k="water" v="pond" />
	</node>
	<node id="-252554" lat="60.1192583323" lon="9.60077500772">
		<tag k="name" v="Øyvassdammen" />
		<tag k="ssr:stedsnr" v="153553" />
		<tag k="waterway" v="dam" />
	</node>
	<node id="-250988" lat="60.2494666686" lon="9.3083611057">
		<tag k="name" v="Øya" />
		<tag k="place" v="island" />
		<tag k="ssr:stedsnr" v="514905" />
	</node>
	<node id="-250500" lat="60.2889499995" lon="9.29811389487">
		<tag k="name" v="Løkane" />
		<tag k="place" v="locality" />
		<tag k="ssr:stedsnr" v="273657" />
	</node>
	<node id="-252547" lat="59.9650111153" lon="9.76671944675">
		<tag k="name" v="Svingen" />
		<tag k="place" v="locality" />
		<tag k="ssr:stedsnr" v="153464" />
	</node>
	<node id="-252546" lat="59.9559527761" lon="9.61922222606">
		<tag k="name" v="Tjennet" />
		<tag k="natural" v="water" />
		<tag k="ssr:stedsnr" v="153454" />
	</node>
	<node id="-250490" lat="60.2967999992" lon="9.18416388107">
		<tag k="name" v="Kråketjenn" />
		<tag k="natural" v="water" />
		<tag k="ssr:stedsnr" v="273005" />
	</node>
	<node id="-250489" lat="60.2704972213" lon="9.20829999583">
		<tag k="name" v="Høvretjenn" />
		<tag k="natural" v="water" />
		<tag k="ssr:stedsnr" v="272764" />
	</node>
	<node id="-252536" lat="60.0418305592" lon="9.53309444349">
		<tag k="name" v="Fremste putten" />
		<tag k="natural" v="water" />
		<tag k="ssr:stedsnr" v="153216" />
		<tag k="water" v="pond" />
	</node>
	<node id="-250485" lat="60.1245305597" lon="9.27553332648">
		<tag k="name" v="Vikvasselva" />
		<tag k="ssr:stedsnr" v="272356" />
		<tag k="waterway" v="stream" />
	</node>
	<node id="-250484" lat="60.1909138892" lon="9.26641665911">
		<tag k="name" v="Venlitjenn" />
		<tag k="natural" v="water" />
		<tag k="ssr:stedsnr" v="272603" />
	</node>
	<node id="-250483" lat="60.2096666691" lon="9.27028889733">
		<tag k="name" v="Uletjenn" />
		<tag k="natural" v="water" />
		<tag k="ssr:stedsnr" v="272454" />
	</node>
	<node id="-252530" lat="59.9906388882" lon="9.63783333509">
		<tag k="name" v="Store Trytetjennbekken" />
		<tag k="ssr:stedsnr" v="153153" />
		<tag k="waterway" v="stream" />
	</node>
	<node id="-252525" lat="60.0131472239" lon="9.45078888235">
		<tag k="name" v="Gampehølen" />
		<tag k="place" v="locality" />
		<tag k="ssr:stedsnr" v="153078" />
	</node>
	<node id="-250471" lat="60.023494448" lon="9.72928611962">
		<tag k="name" v="Hektoa" />
		<tag k="ssr:stedsnr" v="457987" />
		<tag k="waterway" v="stream" />
	</node>
	<node id="-250094" lat="60.3210138909" lon="9.21551944766">
		<tag k="name" v="Bubekk" />
		<tag k="ssr:stedsnr" v="272086" />
		<tag k="waterway" v="stream" />
	</node>
	<node id="-250641" lat="59.9110555571" lon="9.70218611485">
		<tag k="name" v="Midtskogtjenn" />
		<tag k="natural" v="water" />
		<tag k="ssr:stedsnr" v="489823" />
	</node>
	<node id="-252516" lat="60.0792083309" lon="9.36974722917">
		<tag k="name" v="Vesle-Gaulen" />
		<tag k="natural" v="bay" />
		<tag k="ssr:stedsnr" v="152915" />
	</node>
	<node id="-250465" lat="60.0819500035" lon="9.49353611862">
		<tag k="name" v="Kvennebekken" />
		<tag k="ssr:stedsnr" v="457911" />
		<tag k="waterway" v="stream" />
	</node>
	<node id="-250458" lat="60.0381138928" lon="9.77158611614">
		<tag k="alt_name" v="Høgsetertjern" />
		<tag k="name" v="Høgsetertjenn" />
		<tag k="natural" v="water" />
		<tag k="ssr:stedsnr" v="457776" />
	</node>
	<node id="-251663" lat="60.2664833341" lon="9.41179166033">
		<tag k="name" v="Bråtaseterfoss" />
		<tag k="natural" v="waterfall" />
		<tag k="ssr:stedsnr" v="819418" />
	</node>
	<node id="-252499" lat="60.1396138867" lon="9.47521944537">
		<tag k="name" v="Gørrtjenn" />
		<tag k="natural" v="water" />
		<tag k="ssr:stedsnr" v="152272" />
		<tag k="water" v="pond" />
	</node>
	<node id="-252498" lat="60.1469833343" lon="9.44861943878">
		<tag k="name" v="Kittilsfoss" />
		<tag k="natural" v="waterfall" />
		<tag k="ssr:stedsnr" v="152221" />
	</node>
	<node id="-250447" lat="60.0377722249" lon="9.66183888065">
		<tag k="name" v="Skomphøl" />
		<tag k="place" v="locality" />
		<tag k="ssr:stedsnr" v="457630" />
	</node>
	<node id="-250443" lat="60.0534472265" lon="9.66548333966">
		<tag k="name" v="Bikkjefotdike" />
		<tag k="natural" v="water" />
		<tag k="ssr:stedsnr" v="457607" />
		<tag k="water" v="pond" />
	</node>
	<node id="-250310" lat="60.1722000026" lon="9.21766943757">
		<tag k="name" v="Langlitjennbekken" />
		<tag k="ssr:stedsnr" v="454139" />
		<tag k="waterway" v="stream" />
	</node>
	<node id="-252479" lat="60.2677527822" lon="9.32217222246">
		<tag k="name" v="Krossgardsbekken" />
		<tag k="ssr:stedsnr" v="151691" />
		<tag k="waterway" v="stream" />
	</node>
	<node id="-250429" lat="60.1141944408" lon="9.58485276935">
		<tag k="name" v="Flåtaløkdammen" />
		<tag k="ssr:stedsnr" v="457492" />
		<tag k="waterway" v="dam" />
	</node>
	<node id="-250975" lat="60.288777777" lon="9.28680834048">
		<tag k="alt_name" v="Kleivselva" />
		<tag k="name" v="Sandvassbekken" />
		<tag k="ssr:stedsnr" v="674096" />
		<tag k="waterway" v="stream" />
	</node>
	<node id="-250423" lat="60.055091664" lon="9.54603055131">
		<tag k="name" v="Sandoddevika" />
		<tag k="natural" v="bay" />
		<tag k="ssr:stedsnr" v="457428" />
	</node>
	<node id="-252465" lat="60.1386777743" lon="9.37673889219">
		<tag k="name" v="Setertjennet" />
		<tag k="natural" v="water" />
		<tag k="ssr:stedsnr" v="151089" />
	</node>
	<node id="-251656" lat="60.1332361095" lon="9.35292776901">
		<tag k="name" v="Olhovd" />
		<tag k="natural" v="water" />
		<tag k="ssr:stedsnr" v="819109" />
		<tag k="water" v="pond" />
	</node>
	<node id="-250973" lat="60.3337083325" lon="9.30696666206">
		<tag k="name" v="Tussetjenn" />
		<tag k="natural" v="water" />
		<tag k="ssr:stedsnr" v="674050" />
	</node>
	<node id="-252459" lat="60.3172377007" lon="9.13836601628">
		<tag k="name" v="Vesle Holmevatn" />
		<tag k="natural" v="water" />
		<tag k="ssr:stedsnr" v="151029" />
	</node>
	<node id="-252455" lat="60.1838366756" lon="9.30751944264">
		<tag k="name" v="Elgstjenn" />
		<tag k="natural" v="water" />
		<tag k="ssr:stedsnr" v="150638" />
	</node>
	<node id="-252454" lat="60.1807083293" lon="9.27870277645">
		<tag k="name" v="Putten" />
		<tag k="natural" v="water" />
		<tag k="ssr:stedsnr" v="150637" />
	</node>
	<node id="-250404" lat="60.034616555" lon="9.53282603554">
		<tag k="name" v="Svartetjenn" />
		<tag k="natural" v="water" />
		<tag k="ssr:stedsnr" v="457189" />
	</node>
	<node id="-250630" lat="59.9976611146" lon="9.52852221893">
		<tag k="name" v="Eiret" />
		<tag k="natural" v="strait" />
		<tag k="ssr:stedsnr" v="489291" />
	</node>
	<node id="-250971" lat="60.2883555576" lon="9.37426943977">
		<tag k="name" v="Fiskeløysingen" />
		<tag k="natural" v="water" />
		<tag k="ssr:stedsnr" v="673599" />
	</node>
	<node id="-250398" lat="60.0032416646" lon="9.5023277713">
		<tag k="name" v="Øvre Megardstjenn" />
		<tag k="natural" v="water" />
		<tag k="ssr:stedsnr" v="457111" />
	</node>
	<node id="-252443" lat="60.2911388853" lon="9.23172500082">
		<tag k="name" v="Gørrtjenn" />
		<tag k="natural" v="water" />
		<tag k="ssr:stedsnr" v="143136" />
	</node>
	<node id="-252442" lat="60.1520333333" lon="9.32132221414">
		<tag k="name" v="Gammalseterbekken" />
		<tag k="ssr:stedsnr" v="143115" />
		<tag k="waterway" v="stream" />
	</node>
	<node id="-252440" lat="60.3274861078" lon="9.17337499984">
		<tag k="name" v="Fiskebuvika" />
		<tag k="natural" v="bay" />
		<tag k="ssr:stedsnr" v="127474" />
	</node>
	<node id="-250391" lat="59.9949861142" lon="9.52212221674">
		<tag k="name" v="Sandvika" />
		<tag k="natural" v="bay" />
		<tag k="ssr:stedsnr" v="457066" />
	</node>
	<node id="-252438" lat="60.2482361146" lon="9.37118611078">
		<tag k="name" v="Jelleelva" />
		<tag k="ssr:stedsnr" v="127100" />
		<tag k="waterway" v="stream" />
	</node>
	<node id="-252437" lat="60.2783861152" lon="9.30214167411">
		<tag k="name" v="Medbekk" />
		<tag k="ssr:stedsnr" v="127094" />
		<tag k="waterway" v="stream" />
	</node>
	<node id="-252436" lat="60.3249234557" lon="9.30972201284">
		<tag k="name" v="Øvre Sandvatn" />
		<tag k="natural" v="water" />
		<tag k="ssr:stedsnr" v="127062" />
	</node>
	<node id="-252435" lat="60.3106999982" lon="9.37972223075">
		<tag k="name" v="Donkelitjenn" />
		<tag k="natural" v="water" />
		<tag k="ssr:stedsnr" v="127045" />
	</node>
	<node id="-250386" lat="60.0188416637" lon="9.5466472222">
		<tag k="name" v="Kjørkerotjenn" />
		<tag k="natural" v="water" />
		<tag k="ssr:stedsnr" v="457027" />
	</node>
	<node id="-252430" lat="60.0167327639" lon="9.7743315454">
		<tag k="alt_name" v="Djupedaltjenn" />
		<tag k="name" v="Djupedalstjenn" />
		<tag k="natural" v="water" />
		<tag k="ssr:stedsnr" v="126958" />
	</node>
	<node id="-250381" lat="60.2348638918" lon="9.43400834071">
		<tag k="name" v="Fjøratjenn" />
		<tag k="natural" v="water" />
		<tag k="ssr:stedsnr" v="456996" />
	</node>
	<node id="-252425" lat="60.0860305571" lon="9.66769166268">
		<tag k="name" v="Kroktjenn" />
		<tag k="natural" v="water" />
		<tag k="ssr:stedsnr" v="126850" />
	</node>
	<node id="-252423" lat="60.0985888873" lon="9.67455277001">
		<tag k="name" v="Fyranvatnet" />
		<tag k="natural" v="water" />
		<tag k="ssr:stedsnr" v="126838" />
		<tag k="water" v="lake" />
	</node>
	<node id="-252422" lat="60.1055361093" lon="9.6289694489">
		<tag k="name" v="Nokketjenn" />
		<tag k="natural" v="water" />
		<tag k="ssr:stedsnr" v="126818" />
	</node>
	<node id="-252421" lat="60.1156715615" lon="9.62295236279">
		<tag k="name" v="Røvsåtjennet" />
		<tag k="natural" v="water" />
		<tag k="ssr:stedsnr" v="126802" />
	</node>
	<node id="-252419" lat="60.191113888" lon="9.23484722932">
		<tag k="name" v="Nedre Trytetjenn" />
		<tag k="natural" v="water" />
		<tag k="ssr:stedsnr" v="126497" />
	</node>
	<node id="-252416" lat="60.1712432242" lon="9.34676142413">
		<tag k="name" v="Haslitjenn" />
		<tag k="natural" v="water" />
		<tag k="ssr:stedsnr" v="126460" />
	</node>
	<node id="-250367" lat="60.0802527738" lon="9.34748333354">
		<tag k="name" v="Tuftnevassoset" />
		<tag k="natural" v="bay" />
		<tag k="ssr:stedsnr" v="455912" />
	</node>
	<node id="-252412" lat="60.1035527237" lon="9.50589764506">
		<tag k="name" v="Uksåstjenn" />
		<tag k="natural" v="water" />
		<tag k="ssr:stedsnr" v="126397" />
	</node>
	<node id="-252411" lat="60.1055397648" lon="9.27960305876">
		<tag k="name" v="Lomtjenn" />
		<tag k="natural" v="water" />
		<tag k="ssr:stedsnr" v="126390" />
	</node>
	<node id="-252410" lat="60.1177638856" lon="9.55573332659">
		<tag k="name" v="Hertåa" />
		<tag k="ssr:stedsnr" v="126389" />
		<tag k="waterway" v="stream" />
	</node>
	<node id="-250361" lat="60.3348166661" lon="9.18027222943">
		<tag k="name" v="Gråntangen" />
		<tag k="natural" v="cape" />
		<tag k="ssr:stedsnr" v="455875" />
	</node>
	<node id="-252401" lat="60.0343750022" lon="9.45373016463">
		<tag k="name" v="Haslontjenn" />
		<tag k="natural" v="water" />
		<tag k="ssr:stedsnr" v="126048" />
		<tag k="water" v="lake" />
	</node>
	<node id="-252398" lat="59.9925083342" lon="9.65135556">
		<tag k="name" v="Vesle Trytetjenn" />
		<tag k="natural" v="water" />
		<tag k="ssr:stedsnr" v="125981" />
	</node>
	<node id="-252397" lat="59.9963982433" lon="9.77699078924">
		<tag k="name" v="Gullbergtjenn" />
		<tag k="natural" v="water" />
		<tag k="ssr:stedsnr" v="125974" />
	</node>
	<node id="-252392" lat="59.9559222196" lon="9.70605277797">
		<tag k="alt_name" v="Sætertjenn" />
		<tag k="name" v="Setertjennet" />
		<tag k="natural" v="water" />
		<tag k="ssr:stedsnr" v="125806" />
	</node>
	<node id="-252389" lat="60.2148480414" lon="9.30242239333">
		<tag k="name" v="Nevretjenn" />
		<tag k="natural" v="water" />
		<tag k="ssr:stedsnr" v="125500" />
	</node>
	<node id="-252387" lat="60.1218083357" lon="9.52908611888">
		<tag k="alt_name" v="Dælabekken" />
		<tag k="name" v="Dalabekken" />
		<tag k="ssr:stedsnr" v="125442" />
		<tag k="waterway" v="stream" />
	</node>
	<node id="-252386" lat="60.1246548067" lon="9.58018675207">
		<tag k="name" v="Hjelletjenna" />
		<tag k="natural" v="water" />
		<tag k="ssr:stedsnr" v="125401" />
	</node>
	<node id="-250335" lat="60.2626143313" lon="9.25678575568">
		<tag k="name" v="Røbba" />
		<tag k="natural" v="water" />
		<tag k="ssr:stedsnr" v="454873" />
		<tag k="water" v="pond" />
	</node>
	<node id="-252382" lat="59.9858972216" lon="9.53196944119">
		<tag k="name" v="Jønnlimyrbekken" />
		<tag k="ssr:stedsnr" v="125328" />
		<tag k="waterway" v="stream" />
	</node>
	<node id="-250976" lat="60.2705666651" lon="9.42219999909">
		<tag k="name" v="Ådalsbekken" />
		<tag k="ssr:stedsnr" v="674101" />
		<tag k="waterway" v="stream" />
	</node>
	<node id="-250332" lat="60.147408334" lon="9.32158610474">
		<tag k="name" v="Rolihøl" />
		<tag k="natural" v="bay" />
		<tag k="ssr:stedsnr" v="455098" />
	</node>
	<node id="-252379" lat="60.0667444486" lon="9.55793054796">
		<tag k="name" v="Kvennebekken" />
		<tag k="ssr:stedsnr" v="125090" />
		<tag k="waterway" v="stream" />
	</node>
	<node id="-252377" lat="60.014388892" lon="9.57996389623">
		<tag k="alt_name" v="Libekken" />
		<tag k="name" v="Libekk" />
		<tag k="ssr:stedsnr" v="125017" />
		<tag k="waterway" v="stream" />
	</node>
	<node id="-252375" lat="59.975538887" lon="9.5185694423">
		<tag k="name" v="Øvre Aurehølen" />
		<tag k="place" v="locality" />
		<tag k="ssr:stedsnr" v="112368" />
	</node>
	<node id="-250958" lat="60.0559570294" lon="9.66218679467">
		<tag k="alt_name" v="Kvennbergtjenn" />
		<tag k="name" v="Kvernbergtjennet" />
		<tag k="natural" v="water" />
		<tag k="ssr:stedsnr" v="672888" />
	</node>
	<node id="-250322" lat="60.1674361086" lon="9.2795527826">
		<tag k="name" v="Vindolelva" />
		<tag k="ssr:stedsnr" v="454688" />
		<tag k="waterway" v="stream" />
	</node>
	<node id="-250316" lat="60.1495361069" lon="9.3034277803">
		<tag k="name" v="Jankelibekken" />
		<tag k="ssr:stedsnr" v="454349" />
		<tag k="waterway" v="stream" />
	</node>
	<node id="-252663" lat="60.2980416672" lon="9.18173332975">
		<tag k="name" v="Eiketjenna" />
		<tag k="natural" v="water" />
		<tag k="ssr:stedsnr" v="188522" />
		<tag k="water" v="lake" />
	</node>
	<node id="-250312" lat="60.1579527749" lon="9.22064167342">
		<tag k="name" v="Elgstjenn" />
		<tag k="natural" v="water" />
		<tag k="ssr:stedsnr" v="454147" />
	</node>
	<node id="-252358" lat="60.0694555587" lon="9.74769443605">
		<tag k="name" v="Tomasbråtabekken" />
		<tag k="ssr:stedsnr" v="93878" />
		<tag k="waterway" v="stream" />
	</node>
	<node id="-250309" lat="60.1682638871" lon="9.23810555315">
		<tag k="name" v="Tjuvekulpen" />
		<tag k="natural" v="water" />
		<tag k="ssr:stedsnr" v="454138" />
		<tag k="water" v="pond" />
	</node>
	<node id="-250307" lat="60.067883332" lon="9.62705278239">
		<tag k="fixme" v="multiple name tags, choose one and add the other to alt_name" />
		<tag k="name" v="Nedre Vikstjenn;Vikstjenna" />
		<tag k="natural" v="water" />
		<tag k="ssr:stedsnr" v="247871" />
	</node>
	<node id="-250306" lat="59.9310611112" lon="9.6676666755">
		<tag k="name" v="Bølltjenn" />
		<tag k="natural" v="water" />
		<tag k="ssr:stedsnr" v="247856" />
	</node>
	<node id="-252353" lat="60.1007222212" lon="9.60616943574">
		<tag k="name" v="Nedre Bjørketjenn" />
		<tag k="natural" v="water" />
		<tag k="ssr:stedsnr" v="93842" />
	</node>
	<node id="-252346" lat="59.9228222192" lon="9.66234444536">
		<tag k="name" v="Perstangen" />
		<tag k="natural" v="cape" />
		<tag k="ssr:stedsnr" v="93633" />
	</node>
	<node id="-250297" lat="60.2130222225" lon="9.17733333276">
		<tag k="alt_name" v="Øgnesprangtjenna" />
		<tag k="name" v="Øgnesprangtjennet" />
		<tag k="natural" v="water" />
		<tag k="ssr:stedsnr" v="247907" />
	</node>
	<node id="-250293" lat="60.1027583318" lon="9.57551944793">
		<tag k="name" v="Ulebrubekken" />
		<tag k="ssr:stedsnr" v="215902" />
		<tag k="waterway" v="stream" />
	</node>
	<node id="-250286" lat="60.0268333311" lon="9.79219722819">
		<tag k="alt_name" v="Vesle Dylletjern" />
		<tag k="name" v="Vesle Dylletjenn" />
		<tag k="natural" v="water" />
		<tag k="ssr:stedsnr" v="214803" />
	</node>
	<node id="-252331" lat="60.1107388904" lon="9.57538611289">
		<tag k="name" v="Seterbekken" />
		<tag k="ssr:stedsnr" v="93455" />
		<tag k="waterway" v="stream" />
	</node>
	<node id="-250951" lat="60.1460694429" lon="9.55421111454">
		<tag k="name" v="Holløkbekken" />
		<tag k="ssr:stedsnr" v="672399" />
		<tag k="waterway" v="stream" />
	</node>
	<node id="-252327" lat="60.066908333" lon="9.5425833367">
		<tag k="name" v="Bergetanguksen" />
		<tag k="natural" v="cape" />
		<tag k="ssr:stedsnr" v="93406" />
	</node>
	<node id="-250277" lat="60.1395388919" lon="9.55829167424">
		<tag k="name" v="Smalevatn" />
		<tag k="natural" v="water" />
		<tag k="ssr:stedsnr" v="214316" />
		<tag k="water" v="lake" />
	</node>
	<node id="-252317" lat="59.9676333339" lon="9.6259777721">
		<tag k="name" v="Tjennsbekken" />
		<tag k="ssr:stedsnr" v="93350" />
		<tag k="waterway" v="stream" />
	</node>
	<node id="-252314" lat="59.9599111096" lon="9.59576666264">
		<tag k="name" v="Spælen" />
		<tag k="place" v="island" />
		<tag k="ssr:stedsnr" v="93323" />
	</node>
	<node id="-252313" lat="59.9681111083" lon="9.59740276895">
		<tag k="name" v="Gampøya" />
		<tag k="place" v="island" />
		<tag k="ssr:stedsnr" v="93321" />
	</node>
	<node id="-250264" lat="60.0538333302" lon="9.5483388927">
		<tag k="name" v="Sandodden" />
		<tag k="natural" v="cape" />
		<tag k="ssr:stedsnr" v="214428" />
	</node>
	<node id="-250263" lat="59.9664555532" lon="9.59488056434">
		<tag k="name" v="Vasslitangen" />
		<tag k="natural" v="cape" />
		<tag k="ssr:stedsnr" v="214408" />
	</node>
	<node id="-250260" lat="60.097966665" lon="9.41183056067">
		<tag k="name" v="Kollebekk" />
		<tag k="ssr:stedsnr" v="213914" />
		<tag k="waterway" v="stream" />
	</node>
	<node id="-252305" lat="60.0343361075" lon="9.51747778413">
		<tag k="name" v="Mellom-Sulutjenn" />
		<tag k="natural" v="water" />
		<tag k="ssr:stedsnr" v="93184" />
	</node>
	<node id="-250155" lat="60.2880611132" lon="9.29190555992">
		<tag k="name" v="Grashølfossen" />
		<tag k="natural" v="waterfall" />
		<tag k="ssr:stedsnr" v="151632" />
	</node>
	<node id="-252301" lat="60.0429105644" lon="9.52543706613">
		<tag k="name" v="Tambottjenna" />
		<tag k="natural" v="water" />
		<tag k="ssr:stedsnr" v="93167" />
		<tag k="water" v="lake" />
	</node>
	<node id="-252300" lat="59.9860138893" lon="9.65086388693">
		<tag k="name" v="Vesle Trytetjennbekken" />
		<tag k="ssr:stedsnr" v="93134" />
		<tag k="waterway" v="stream" />
	</node>
	<node id="-250248" lat="60.058344442" lon="9.40956389756">
		<tag k="name" v="Mauretjenn" />
		<tag k="natural" v="water" />
		<tag k="ssr:stedsnr" v="213341" />
	</node>
	<node id="-250246" lat="60.0509027782" lon="9.41084166761">
		<tag k="name" v="Tjennputten" />
		<tag k="natural" v="water" />
		<tag k="ssr:stedsnr" v="213338" />
		<tag k="water" v="pond" />
	</node>
	<node id="-252292" lat="59.9815722224" lon="9.59381110699">
		<tag k="name" v="Vesletjenn" />
		<tag k="natural" v="water" />
		<tag k="ssr:stedsnr" v="93082" />
	</node>
	<node id="-250240" lat="60.2747972192" lon="9.20970832895">
		<tag k="name" v="Brennattjenn" />
		<tag k="natural" v="water" />
		<tag k="ssr:stedsnr" v="212807" />
	</node>
	<node id="-250236" lat="60.2461027798" lon="9.34373054799">
		<tag k="name" v="Pletanøya" />
		<tag k="place" v="island" />
		<tag k="ssr:stedsnr" v="212128" />
	</node>
	<node id="-252650" lat="60.2857499988" lon="9.41552499899">
		<tag k="name" v="Rantebekken" />
		<tag k="ssr:stedsnr" v="188088" />
		<tag k="waterway" v="stream" />
	</node>
	<node id="-252279" lat="60.1026583355" lon="9.43599444039">
		<tag k="name" v="Svarthøl" />
		<tag k="place" v="locality" />
		<tag k="ssr:stedsnr" v="92246" />
	</node>
	<node id="-252278" lat="60.148549996" lon="9.35267500792">
		<tag k="name" v="Dukelibekken" />
		<tag k="ssr:stedsnr" v="91990" />
		<tag k="waterway" v="stream" />
	</node>
	<node id="-250942" lat="60.236172224" lon="9.36141945314">
		<tag k="name" v="Sløgja" />
		<tag k="ssr:stedsnr" v="672263" />
		<tag k="waterway" v="stream" />
	</node>
	<node id="-252274" lat="60.0836861156" lon="9.36639445224">
		<tag k="name" v="Rompa" />
		<tag k="natural" v="bay" />
		<tag k="ssr:stedsnr" v="91931" />
	</node>
	<node id="-252272" lat="60.2343027784" lon="9.40863889211">
		<tag k="name" v="Sjusjøbekken" />
		<tag k="ssr:stedsnr" v="91872" />
		<tag k="waterway" v="stream" />
	</node>
	<node id="-250222" lat="60.1380944442" lon="9.5574055544">
		<tag k="name" v="Smalvasstangen" />
		<tag k="natural" v="cape" />
		<tag k="ssr:stedsnr" v="153332" />
	</node>
	<node id="-252264" lat="60.1848500032" lon="9.4473916704">
		<tag k="name" v="Lauvlibekken" />
		<tag k="ssr:stedsnr" v="91704" />
		<tag k="waterway" v="stream" />
	</node>
	<node id="-252263" lat="60.1899416666" lon="9.43177221734">
		<tag k="name" v="Gråndalsbekken" />
		<tag k="ssr:stedsnr" v="91678" />
		<tag k="waterway" v="stream" />
	</node>
	<node id="-251622" lat="60.1637392446" lon="9.26908116363">
		<tag k="name" v="Vindolvatnet" />
		<tag k="natural" v="water" />
		<tag k="ssr:stedsnr" v="915443" />
		<tag k="water" v="lake" />
	</node>
	<node id="-250597" lat="59.9907444408" lon="9.63209444311">
		<tag k="name" v="Bjørndalsbekken" />
		<tag k="ssr:stedsnr" v="335140" />
		<tag k="waterway" v="stream" />
	</node>
	<node id="-252246" lat="60.1298166697" lon="9.4479777841">
		<tag k="name" v="Fosstjenn" />
		<tag k="natural" v="water" />
		<tag k="ssr:stedsnr" v="91210" />
		<tag k="water" v="pond" />
	</node>
	<node id="-250835" lat="59.9541305589" lon="9.66775277251">
		<tag k="name" v="Dammen" />
		<tag k="ssr:stedsnr" v="517487" />
		<tag k="waterway" v="dam" />
	</node>
	<node id="-252238" lat="60.1342583329" lon="9.41633888323">
		<tag k="name" v="Sagfossen" />
		<tag k="natural" v="waterfall" />
		<tag k="ssr:stedsnr" v="91077" />
	</node>
	<node id="-251277" lat="60.2578333294" lon="9.2660388816">
		<tag k="name" v="Sollibekken" />
		<tag k="ssr:stedsnr" v="734107" />
		<tag k="waterway" v="stream" />
	</node>
	<node id="-250185" lat="60.0681027743" lon="9.62018611068">
		<tag k="name" v="Øvre Vikstjenn" />
		<tag k="natural" v="water" />
		<tag k="ssr:stedsnr" v="275375" />
	</node>
	<node id="-252227" lat="60.2161333289" lon="9.27656110321">
		<tag k="name" v="Smålibekken" />
		<tag k="ssr:stedsnr" v="90462" />
		<tag k="waterway" v="stream" />
	</node>
	<node id="-252224" lat="60.1214194471" lon="9.28964166441">
		<tag k="name" v="Holmevasselva" />
		<tag k="ssr:stedsnr" v="90348" />
		<tag k="waterway" v="stream" />
	</node>
	<node id="-250171" lat="60.0355361112" lon="9.50499443891">
		<tag k="name" v="Langetjennløken" />
		<tag k="ssr:stedsnr" v="275187" />
		<tag k="waterway" v="stream" />
	</node>
	<node id="-252217" lat="60.3194583299" lon="9.16676389081">
		<tag k="name" v="Fjellbekk" />
		<tag k="ssr:stedsnr" v="90031" />
		<tag k="waterway" v="stream" />
	</node>
	<node id="-252215" lat="60.0121694473" lon="9.54478055648">
		<tag k="name" v="Rolsrudhølen" />
		<tag k="place" v="locality" />
		<tag k="ssr:stedsnr" v="83892" />
	</node>
	<node id="-252213" lat="60.3544083378" lon="9.16708055913">
		<tag k="name" v="Nilsetjenn" />
		<tag k="natural" v="water" />
		<tag k="ssr:stedsnr" v="67396" />
	</node>
	<node id="-252211" lat="60.3218055576" lon="9.18868055687">
		<tag k="name" v="Haglebuelva" />
		<tag k="ssr:stedsnr" v="67467" />
		<tag k="waterway" v="river" />
	</node>
	<node id="-252210" lat="60.3155055522" lon="9.17207777578">
		<tag k="name" v="Slokobekken" />
		<tag k="ssr:stedsnr" v="67466" />
		<tag k="waterway" v="stream" />
	</node>
	<node id="-250374" lat="60.1989027791" lon="9.39908333567">
		<tag k="name" v="Østengtjennet" />
		<tag k="natural" v="water" />
		<tag k="ssr:stedsnr" v="455998" />
	</node>
	<node id="-252204" lat="60.312986109" lon="9.2511972234">
		<tag k="name" v="Skodøla" />
		<tag k="ssr:stedsnr" v="67056" />
		<tag k="waterway" v="stream" />
	</node>
	<node id="-252203" lat="60.2666599913" lon="9.1732673225">
		<tag k="alt_name" v="Fjellvatnet" />
		<tag k="name" v="Fjellvatn" />
		<tag k="natural" v="water" />
		<tag k="ssr:stedsnr" v="67311" />
		<tag k="water" v="lake" />
	</node>
	<node id="-252201" lat="60.1476694458" lon="9.30980277708">
		<tag k="name" v="Gammalsetertjenn" />
		<tag k="natural" v="water" />
		<tag k="ssr:stedsnr" v="66387" />
	</node>
	<node id="-250152" lat="60.1605583299" lon="9.4740666597">
		<tag k="name" v="Sleipefoss" />
		<tag k="natural" v="waterfall" />
		<tag k="ssr:stedsnr" v="151625" />
	</node>
	<node id="-250145" lat="60.1358916703" lon="9.35189167537">
		<tag k="name" v="Trytetjenn" />
		<tag k="natural" v="water" />
		<tag k="ssr:stedsnr" v="151135" />
	</node>
	<node id="-252187" lat="60.2034534445" lon="9.44675708053">
		<tag k="name" v="Hornsjøen" />
		<tag k="natural" v="water" />
		<tag k="ssr:stedsnr" v="65475" />
		<tag k="water" v="lake" />
	</node>
	<node id="-250137" lat="60.117769442" lon="9.29157500804">
		<tag k="name" v="Store Repetjenn" />
		<tag k="natural" v="water" />
		<tag k="ssr:stedsnr" v="150362" />
	</node>
	<node id="-252184" lat="60.1775444441" lon="9.45161666568">
		<tag k="name" v="Nedre Bergstjenn" />
		<tag k="natural" v="water" />
		<tag k="ssr:stedsnr" v="65443" />
	</node>
	<node id="-250833" lat="60.2662361054" lon="9.17927520915">
		<tag k="name" v="Skjenvatnet" />
		<tag k="natural" v="water" />
		<tag k="ssr:stedsnr" v="431319" />
		<tag k="water" v="lake" />
	</node>
	<node id="-252182" lat="60.179690814" lon="9.34327902252">
		<tag k="name" v="Gørrtjenn" />
		<tag k="natural" v="water" />
		<tag k="ssr:stedsnr" v="65425" />
	</node>
	<node id="-250133" lat="59.9746583324" lon="9.6698222135">
		<tag k="name" v="Grima" />
		<tag k="ssr:stedsnr" v="274441" />
		<tag k="waterway" v="stream" />
	</node>
	<node id="-250132" lat="60.0715166646" lon="9.38421389239">
		<tag k="name" v="Rolitjenn" />
		<tag k="natural" v="water" />
		<tag k="ssr:stedsnr" v="273943" />
	</node>
	<node id="-252176" lat="60.2475861083" lon="9.25435277824">
		<tag k="alt_name" v="Brennebekken" />
		<tag k="name" v="Brennebekk" />
		<tag k="ssr:stedsnr" v="65262" />
		<tag k="waterway" v="stream" />
	</node>
	<node id="-252175" lat="60.0950472225" lon="9.51059999729">
		<tag k="alt_name" v="Sæterbekken" />
		<tag k="name" v="Seterbekken" />
		<tag k="ssr:stedsnr" v="65100" />
		<tag k="waterway" v="stream" />
	</node>
	<node id="-250506" lat="60.1780166645" lon="9.46101666833">
		<tag k="name" v="Kjørsletjenn" />
		<tag k="natural" v="water" />
		<tag k="ssr:stedsnr" v="273718" />
	</node>
	<node id="-252172" lat="60.0633416673" lon="9.39689722932">
		<tag k="alt_name" v="Sekstjenna" />
		<tag k="name" v="Sekstjenn" />
		<tag k="natural" v="water" />
		<tag k="ssr:stedsnr" v="65062" />
		<tag k="water" v="lake" />
	</node>
	<node id="-252171" lat="60.0474499974" lon="9.44118611">
		<tag k="name" v="Litjenn" />
		<tag k="natural" v="water" />
		<tag k="ssr:stedsnr" v="65048" />
	</node>
	<node id="-250121" lat="60.2612361074" lon="9.35609444705">
		<tag k="name" v="Hallingbrufossen" />
		<tag k="natural" v="waterfall" />
		<tag k="ssr:stedsnr" v="273420" />
	</node>
	<node id="-252167" lat="60.0227495336" lon="9.50212576941">
		<tag k="alt_name" v="Bukketjenna" />
		<tag k="name" v="Bukketjenn" />
		<tag k="natural" v="water" />
		<tag k="ssr:stedsnr" v="65028" />
	</node>
	<node id="-250117" lat="60.2599666704" lon="9.18969999678">
		<tag k="name" v="Vesle Uletjenn" />
		<tag k="natural" v="water" />
		<tag k="ssr:stedsnr" v="273296" />
	</node>
	<node id="-250112" lat="60.2588250007" lon="9.35324167173">
		<tag k="name" v="Åsfossen" />
		<tag k="natural" v="waterfall" />
		<tag k="ssr:stedsnr" v="273125" />
	</node>
	<node id="-252159" lat="60.0788583323" lon="9.51019443755">
		<tag k="name" v="Helleklopp" />
		<tag k="place" v="locality" />
		<tag k="ssr:stedsnr" v="32909" />
	</node>
	<node id="-252155" lat="60.0253055566" lon="9.79181111718">
		<tag k="alt_name" v="Store Dylletjern" />
		<tag k="name" v="Store Dylletjenn" />
		<tag k="natural" v="water" />
		<tag k="ssr:stedsnr" v="32763" />
	</node>
	<node id="-250105" lat="60.1337833338" lon="9.41026110408">
		<tag k="name" v="Langefoss" />
		<tag k="natural" v="waterfall" />
		<tag k="ssr:stedsnr" v="273089" />
	</node>
	<node id="-250104" lat="60.1444972248" lon="9.39662222961">
		<tag k="name" v="Ulebekk" />
		<tag k="ssr:stedsnr" v="273087" />
		<tag k="waterway" v="stream" />
	</node>
	<node id="-250921" lat="59.9338416669" lon="9.66946945122">
		<tag k="name" v="Langtjenn" />
		<tag k="natural" v="water" />
		<tag k="ssr:stedsnr" v="671872" />
	</node>
	<node id="-250096" lat="60.1675277769" lon="9.21549721675">
		<tag k="name" v="Brenntangen" />
		<tag k="natural" v="cape" />
		<tag k="ssr:stedsnr" v="272143" />
	</node>
	<node id="-250095" lat="60.1718555576" lon="9.22794721503">
		<tag k="name" v="Barlindostjenn" />
		<tag k="natural" v="water" />
		<tag k="ssr:stedsnr" v="272141" />
	</node>
	<node id="-252142" lat="59.9284222267" lon="9.67834999887">
		<tag k="name" v="Langtjennbekken" />
		<tag k="ssr:stedsnr" v="32674" />
		<tag k="waterway" v="stream" />
	</node>
	<node id="-250089" lat="60.134247222" lon="9.31795555968">
		<tag k="name" v="Trettetjenn" />
		<tag k="natural" v="water" />
		<tag k="ssr:stedsnr" v="265136" />
	</node>
	<node id="-250085" lat="60.2485000013" lon="9.21966944904">
		<tag k="name" v="Elgtjennbekken" />
		<tag k="ssr:stedsnr" v="264199" />
		<tag k="waterway" v="stream" />
	</node>
	<node id="-250083" lat="60.1148722213" lon="9.53307223032">
		<tag k="name" v="Hertåtangane" />
		<tag k="natural" v="cape" />
		<tag k="ssr:stedsnr" v="91520" />
	</node>
	<node id="-252283" lat="59.9703861131" lon="9.53503333987">
		<tag k="name" v="Mjovassdammen" />
		<tag k="ssr:stedsnr" v="93008" />
		<tag k="waterway" v="dam" />
	</node>
	<node id="-250076" lat="60.3490777739" lon="9.17907778039">
		<tag k="name" v="Tjennleinebekken" />
		<tag k="ssr:stedsnr" v="82204" />
		<tag k="waterway" v="stream" />
	</node>
	<node id="-252123" lat="60.1123416664" lon="9.61516388308">
		<tag k="name" v="Røvsåputtane" />
		<tag k="natural" v="water" />
		<tag k="ssr:stedsnr" v="32509" />
		<tag k="water" v="pond" />
	</node>
	<node id="-250069" lat="60.2649000004" lon="9.45415000227">
		<tag k="name" v="Fiskeløysingen" />
		<tag k="natural" v="water" />
		<tag k="ssr:stedsnr" v="249098" />
	</node>
	<node id="-252115" lat="60.119280559" lon="9.54547499945">
		<tag k="name" v="Flåbekken" />
		<tag k="ssr:stedsnr" v="32424" />
		<tag k="waterway" v="stream" />
	</node>
	<node id="-250064" lat="60.3183272386" lon="9.28900940849">
		<tag k="name" v="Jøslivatn" />
		<tag k="natural" v="water" />
		<tag k="ssr:stedsnr" v="248026" />
	</node>
	<node id="-252111" lat="60.0570722235" lon="9.53924166346">
		<tag k="name" v="Svartebergvika" />
		<tag k="natural" v="bay" />
		<tag k="ssr:stedsnr" v="32410" />
	</node>
	<node id="-250061" lat="60.1918083304" lon="9.47376111894">
		<tag k="alt_name" v="Hyttebekken" />
		<tag k="name" v="Hyttebekk" />
		<tag k="ssr:stedsnr" v="247468" />
		<tag k="waterway" v="stream" />
	</node>
	<node id="-252107" lat="59.9647500039" lon="9.59696111676">
		<tag k="alt_name" v="Pøllvika" />
		<tag k="name" v="Pollvika" />
		<tag k="natural" v="bay" />
		<tag k="ssr:stedsnr" v="32386" />
	</node>
	<node id="-250058" lat="60.2151111115" lon="9.37895833743">
		<tag k="name" v="Tovstjenn" />
		<tag k="natural" v="water" />
		<tag k="ssr:stedsnr" v="247447" />
	</node>
	<node id="-250353" lat="60.1851972258" lon="9.41394722638">
		<tag k="name" v="Fuglevik" />
		<tag k="natural" v="bay" />
		<tag k="ssr:stedsnr" v="455710" />
	</node>
	<node id="-250054" lat="60.1833571048" lon="9.22520625958">
		<tag k="alt_name" v="Langelitjenn" />
		<tag k="name" v="Langlitjenn" />
		<tag k="natural" v="water" />
		<tag k="ssr:stedsnr" v="247418" />
	</node>
	<node id="-250052" lat="60.1133754353" lon="9.30174957103">
		<tag k="name" v="Kvernhusvatnet" />
		<tag k="natural" v="water" />
		<tag k="ssr:stedsnr" v="247373" />
	</node>
	<node id="-252098" lat="60.1015111094" lon="9.45501666071">
		<tag k="name" v="Vesleelva" />
		<tag k="ssr:stedsnr" v="32286" />
		<tag k="waterway" v="stream" />
	</node>
	<node id="-250046" lat="60.0992833372" lon="9.375486105">
		<tag k="name" v="Grøsetbekken" />
		<tag k="ssr:stedsnr" v="247109" />
		<tag k="waterway" v="stream" />
	</node>
	<node id="-250040" lat="59.9892277742" lon="9.51633055898">
		<tag k="name" v="Brennøya" />
		<tag k="place" v="island" />
		<tag k="ssr:stedsnr" v="246297" />
	</node>
	<node id="-252087" lat="60.0059222258" lon="9.53647778025">
		<tag k="name" v="Dammen" />
		<tag k="ssr:stedsnr" v="32047" />
		<tag k="waterway" v="dam" />
	</node>
	<node id="-252083" lat="60.2173916667" lon="9.4659888803">
		<tag k="name" v="Kannarmyrtjenn" />
		<tag k="natural" v="water" />
		<tag k="old_name" v="Kannarimyrtjenn" />
		<tag k="ssr:stedsnr" v="31529" />
	</node>
	<node id="-252079" lat="60.1318444405" lon="9.48872778004">
		<tag k="name" v="Svartetjenn" />
		<tag k="natural" v="water" />
		<tag k="ssr:stedsnr" v="31399" />
	</node>
	<node id="-252078" lat="60.1400194456" lon="9.50084444351">
		<tag k="name" v="Fugletjenn" />
		<tag k="natural" v="water" />
		<tag k="ssr:stedsnr" v="31394" />
	</node>
	<node id="-252076" lat="60.1355972263" lon="9.5121055591">
		<tag k="name" v="Dælatjenn" />
		<tag k="natural" v="water" />
		<tag k="ssr:stedsnr" v="31379" />
	</node>
	<node id="-252075" lat="60.0871277766" lon="9.42046112002">
		<tag k="name" v="Bekartjenn" />
		<tag k="natural" v="water" />
		<tag k="ssr:stedsnr" v="31336" />
	</node>
	<node id="-250026" lat="60.0889494897" lon="9.65632064691">
		<tag k="name" v="Vardåstjenn" />
		<tag k="natural" v="water" />
		<tag k="ssr:stedsnr" v="66838" />
	</node>
	<node id="-250025" lat="60.252722222" lon="9.35701667157">
		<tag k="name" v="Åselva" />
		<tag k="ssr:stedsnr" v="66314" />
		<tag k="waterway" v="stream" />
	</node>
	<node id="-250019" lat="60.1430163572" lon="9.53208144294">
		<tag k="name" v="Albjørktjenn" />
		<tag k="natural" v="water" />
		<tag k="ssr:stedsnr" v="65413" />
	</node>
	<node id="-250018" lat="60.14124722" lon="9.30869167048">
		<tag k="name" v="Trytetjenn" />
		<tag k="natural" v="water" />
		<tag k="ssr:stedsnr" v="65405" />
	</node>
	<node id="-250016" lat="60.0958477252" lon="9.39730434973">
		<tag k="alt_name" v="Nørste Borofjelltjenn" />
		<tag k="name" v="Borofjelltjenn" />
		<tag k="natural" v="water" />
		<tag k="ssr:stedsnr" v="65109" />
	</node>
	<node id="-252613" lat="60.0261527816" lon="9.48861388281">
		<tag k="name" v="Langetjenn" />
		<tag k="natural" v="water" />
		<tag k="ssr:stedsnr" v="186031" />
	</node>
	<node id="-252057" lat="60.1003583367" lon="9.50556666216">
		<tag k="name" v="Aureputten" />
		<tag k="natural" v="water" />
		<tag k="ssr:stedsnr" v="30434" />
		<tag k="water" v="pond" />
	</node>
	<node id="-250564" lat="59.9281833307" lon="9.71509166344">
		<tag k="name" v="Gamleandershølen" />
		<tag k="place" v="locality" />
		<tag k="ssr:stedsnr" v="461072" />
	</node>
	<node id="-252049" lat="60.2752805536" lon="9.21447221706">
		<tag k="name" v="Dipilan" />
		<tag k="natural" v="water" />
		<tag k="ssr:stedsnr" v="30800" />
		<tag k="water" v="pond" />
	</node>
	<node id="-252047" lat="60.1115" lon="9.32465278232">
		<tag k="name" v="Vestelva" />
		<tag k="ssr:stedsnr" v="30033" />
		<tag k="waterway" v="stream" />
	</node>
	<node id="-252045" lat="60.1146805544" lon="9.34202776951">
		<tag k="name" v="Tangen" />
		<tag k="natural" v="cape" />
		<tag k="ssr:stedsnr" v="30030" />
	</node>
	<node id="-252042" lat="60.1919527818" lon="9.27363610739">
		<tag k="name" v="Uksetjenn" />
		<tag k="natural" v="water" />
		<tag k="ssr:stedsnr" v="29669" />
	</node>
	<node id="-249989" lat="60.1619916635" lon="9.21334167174">
		<tag k="alt_name" v="Storvatnet" />
		<tag k="name" v="Storvatn" />
		<tag k="natural" v="water" />
		<tag k="ssr:stedsnr" v="4606" />
		<tag k="water" v="lake" />
	</node>
	<node id="-252033" lat="60.2191333368" lon="9.28136944172">
		<tag k="name" v="Heimseterbekken" />
		<tag k="ssr:stedsnr" v="29481" />
		<tag k="waterway" v="stream" />
	</node>
	<node id="-252030" lat="60.1993000041" lon="9.27417499977">
		<tag k="name" v="Angerstjenn" />
		<tag k="natural" v="water" />
		<tag k="ssr:stedsnr" v="29404" />
	</node>
	<node id="-252029" lat="60.1399638854" lon="9.2735361173">
		<tag k="name" v="Rumpetjenn" />
		<tag k="natural" v="water" />
		<tag k="ssr:stedsnr" v="29385" />
	</node>
	<node id="-252027" lat="60.0990700048" lon="9.29140609844">
		<tag k="name" v="Øvre Øytjenn" />
		<tag k="natural" v="water" />
		<tag k="ssr:stedsnr" v="29356" />
	</node>
	<node id="-252025" lat="60.1749055591" lon="9.24088888127">
		<tag k="name" v="Breiløk" />
		<tag k="natural" v="water" />
		<tag k="ssr:stedsnr" v="29193" />
	</node>
	<node id="-252023" lat="60.1611222206" lon="9.21189722093">
		<tag k="name" v="Nedregardsøya" />
		<tag k="place" v="island" />
		<tag k="ssr:stedsnr" v="29149" />
	</node>
	<node id="-252022" lat="60.166363891" lon="9.23479722472">
		<tag k="name" v="Pråmhuselva" />
		<tag k="ssr:stedsnr" v="29136" />
		<tag k="waterway" v="stream" />
	</node>
	<node id="-251241" lat="59.9811805543" lon="9.83245555204">
		<tag k="name" v="Gørrtjenn" />
		<tag k="natural" v="water" />
		<tag k="ssr:stedsnr" v="732805" />
	</node>
	<node id="-252020" lat="60.1718138904" lon="9.24731388154">
		<tag k="name" v="Kattenbergvika" />
		<tag k="natural" v="bay" />
		<tag k="ssr:stedsnr" v="29122" />
	</node>
	<node id="-250215" lat="60.0724111148" lon="9.75312222512">
		<tag k="name" v="Løken" />
		<tag k="natural" v="water" />
		<tag k="ssr:stedsnr" v="275905" />
		<tag k="water" v="lake" />
	</node>
	<node id="-252004" lat="60.3199249968" lon="9.13535556153">
		<tag k="alt_name" v="Holmevatnet" />
		<tag k="name" v="Store Holmevatn" />
		<tag k="natural" v="water" />
		<tag k="ssr:stedsnr" v="6460" />
		<tag k="water" v="lake" />
	</node>
	<node id="-251999" lat="60.3015111092" lon="9.3825055615">
		<tag k="name" v="Neverfantetjenn" />
		<tag k="natural" v="water" />
		<tag k="ssr:stedsnr" v="6092" />
	</node>
	<node id="-251998" lat="60.3202500037" lon="9.34032500252">
		<tag k="name" v="Fiskeløysingen" />
		<tag k="natural" v="water" />
		<tag k="ssr:stedsnr" v="6062" />
	</node>
	<node id="-251995" lat="60.3123763198" lon="9.3285629048">
		<tag k="name" v="Langevatnet" />
		<tag k="natural" v="water" />
		<tag k="ssr:stedsnr" v="6042" />
	</node>
	<node id="-251994" lat="60.2134555523" lon="9.20069443879">
		<tag k="alt_name" v="Trytetjenn" />
		<tag k="name" v="Trytetjenna" />
		<tag k="natural" v="water" />
		<tag k="ssr:stedsnr" v="5902" />
		<tag k="water" v="lake" />
	</node>
	<node id="-251989" lat="60.1647416623" lon="9.38193332741">
		<tag k="alt_name" v="Grønhovdselva" />
		<tag k="name" v="Grønhovdelva" />
		<tag k="ssr:stedsnr" v="5439" />
		<tag k="waterway" v="stream" />
	</node>
	<node id="-251986" lat="60.1026861084" lon="9.29236389431">
		<tag k="name" v="Nedre Øytjenn" />
		<tag k="natural" v="water" />
		<tag k="ssr:stedsnr" v="5390" />
	</node>
	<node id="-251983" lat="60.2364916647" lon="9.31448610296">
		<tag k="name" v="Tjennåsvatnet" />
		<tag k="natural" v="water" />
		<tag k="ssr:stedsnr" v="5297" />
	</node>
	<node id="-251976" lat="60.0967138896" lon="9.3210166681">
		<tag k="name" v="Vestmannåa" />
		<tag k="ssr:stedsnr" v="5108" />
		<tag k="waterway" v="stream" />
	</node>
	<node id="-251971" lat="59.981072224" lon="9.63029999946">
		<tag k="name" v="Svarttjenn" />
		<tag k="natural" v="water" />
		<tag k="ssr:stedsnr" v="4953" />
	</node>
	<node id="-251965" lat="60.134441667" lon="9.55050555812">
		<tag k="alt_name" v="Bjørevatnet" />
		<tag k="name" v="Bjørevatna" />
		<tag k="natural" v="water" />
		<tag k="ssr:stedsnr" v="4431" />
		<tag k="water" v="lake" />
	</node>
	<node id="-251963" lat="60.1060128716" lon="9.31340877743">
		<tag k="name" v="Bråtatjenn" />
		<tag k="natural" v="water" />
		<tag k="ssr:stedsnr" v="4391" />
	</node>
	<node id="-251961" lat="60.1167777747" lon="9.34585554984">
		<tag k="name" v="Nedalstjennet" />
		<tag k="natural" v="water" />
		<tag k="ssr:stedsnr" v="4376" />
		<tag k="water" v="lake" />
	</node>
	<node id="-251957" lat="60.0685366973" lon="9.5781380083">
		<tag k="name" v="Bergtjenn" />
		<tag k="natural" v="water" />
		<tag k="ssr:stedsnr" v="4089" />
	</node>
	<node id="-251955" lat="60.0667638933" lon="9.48243055195">
		<tag k="name" v="Strandeelva" />
		<tag k="ssr:stedsnr" v="4082" />
		<tag k="waterway" v="stream" />
	</node>
	<node id="-251571" lat="60.0017361095" lon="9.51892777604">
		<tag k="name" v="Puttane" />
		<tag k="natural" v="water" />
		<tag k="ssr:stedsnr" v="760076" />
		<tag k="water" v="pond" />
	</node>
	<node id="-251229" lat="60.2276416705" lon="9.22938333645">
		<tag k="name" v="Damtjenn" />
		<tag k="natural" v="water" />
		<tag k="ssr:stedsnr" v="732284" />
	</node>
	<node id="-251948" lat="60.0124777738" lon="9.683411107">
		<tag k="name" v="Haukåsvingen" />
		<tag k="place" v="locality" />
		<tag k="ssr:stedsnr" v="942126" />
	</node>
	<node id="-250075" lat="60.3310861082" lon="9.17891388319">
		<tag k="name" v="Langodden" />
		<tag k="natural" v="cape" />
		<tag k="ssr:stedsnr" v="249579" />
	</node>
	<node id="-251941" lat="60.1627722217" lon="9.36542777604">
		<tag k="name" v="Spikikjøtthølet" />
		<tag k="place" v="locality" />
		<tag k="ssr:stedsnr" v="940625" />
	</node>
	<node id="-251938" lat="60.2583305591" lon="9.43651944883">
		<tag k="alt_name" v="Tomasbekken" />
		<tag k="name" v="Tomasbekk" />
		<tag k="ssr:stedsnr" v="917907" />
		<tag k="waterway" v="stream" />
	</node>
	<node id="-251933" lat="60.2058646177" lon="9.35445350169">
		<tag k="name" v="Trytetjenn" />
		<tag k="natural" v="water" />
		<tag k="ssr:stedsnr" v="915461" />
	</node>
	<node id="-251932" lat="60.17394663" lon="9.2927131635">
		<tag k="name" v="Grunntjenn" />
		<tag k="natural" v="water" />
		<tag k="ssr:stedsnr" v="915413" />
	</node>
	<node id="-251930" lat="60.1528227187" lon="9.21842536709">
		<tag k="alt_name" v="Buvatnet" />
		<tag k="name" v="Buvatn" />
		<tag k="natural" v="water" />
		<tag k="ssr:stedsnr" v="915508" />
	</node>
	<node id="-251929" lat="60.0714194432" lon="9.54421388637">
		<tag k="name" v="Flåbekken" />
		<tag k="ssr:stedsnr" v="915079" />
		<tag k="waterway" v="stream" />
	</node>
	<node id="-251927" lat="60.0283194406" lon="9.42680833335">
		<tag k="name" v="Moslontjenn" />
		<tag k="natural" v="water" />
		<tag k="ssr:stedsnr" v="915054" />
	</node>
	<node id="-251922" lat="59.9887833327" lon="9.66031665793">
		<tag k="alt_name" v="Svartputten" />
		<tag k="name" v="Svarteputt" />
		<tag k="natural" v="water" />
		<tag k="ssr:stedsnr" v="914960" />
	</node>
	<node id="-251911" lat="60.3139611094" lon="9.29086667203">
		<tag k="name" v="Kvelvsabekk" />
		<tag k="ssr:stedsnr" v="871158" />
		<tag k="waterway" v="stream" />
	</node>
	<node id="-253953" lat="60.198955624" lon="9.18287040801">
		<tag k="name" v="Miljomvatn" />
		<tag k="natural" v="water" />
		<tag k="ssr:stedsnr" v="636098" />
		<tag k="water" v="lake" />
	</node>
	<node id="-251908" lat="60.0059833339" lon="9.77611111525">
		<tag k="name" v="Smalemyrbekken" />
		<tag k="ssr:stedsnr" v="943983" />
		<tag k="waterway" v="stream" />
	</node>
	<node id="-253954" lat="58.7621997726" lon="6.57525269454">
		<tag k="alt_name" v="Øyestøllona" />
		<tag k="name" v="Loni" />
		<tag k="natural" v="water" />
		<tag k="ssr:stedsnr" v="911787" />
		<tag k="water" v="lake" />
	</node>
	<node id="-251905" lat="60.0534777757" lon="9.42686110702">
		<tag k="name" v="Femtjenna" />
		<tag k="natural" v="water" />
		<tag k="ssr:stedsnr" v="943936" />
		<tag k="water" v="lake" />
	</node>
</osm>
