<?xml version="1.0" encoding="UTF-8"?>
<osm version="0.6" generator="osmapis">
	<node lat="60.054755554127496" lon="9.68149444794619" id="-32547">
		<tag k="name" v="Rimstad" />
		<tag k="place" v="farm" />
		<tag k="ssr:stedsnr" v="4903" />
	</node>
	<node lat="60.08068055541118" lon="9.461219435784834" id="-32548">
		<tag k="name" v="Båstad" />
		<tag k="place" v="farm" />
		<tag k="ssr:stedsnr" v="5082" />
	</node>
	<node lat="60.095688884851086" lon="9.639738887834188" id="-32555">
		<tag k="historic" v="shieling" />
		<tag k="name" v="Ramstadsetra" />
		<tag k="place" v="isolated_dwelling" />
		<tag k="ssr:stedsnr" v="5825" />
	</node>
	<node lat="60.252597222155025" lon="9.309963882595547" id="-32575">
		<tag k="name" v="Myrrønningen" />
		<tag k="place" v="isolated_dwelling" />
		<tag k="ssr:stedsnr" v="30113" />
	</node>
	<node lat="60.24929166407038" lon="9.36208055258697" id="-32582">
		<tag k="name" v="Nordre Nedre-Teige" />
		<tag k="place" v="farm" />
		<tag k="ssr:stedsnr" v="30515" />
	</node>
	<node lat="60.01187499645381" lon="9.74200555128981" id="-32594">
		<tag k="name" v="Nordre Støvern" />
		<tag k="place" v="farm" />
		<tag k="ssr:stedsnr" v="32203" />
	</node>
	<node lat="60.044388892791716" lon="9.558413892706636" id="-32600">
		<tag k="name" v="Nedre Flågan" />
		<tag k="place" v="farm" />
		<tag k="ssr:stedsnr" v="32335" />
	</node>
	<node lat="60.12004167014488" lon="9.59049721472314" id="-32618">
		<tag k="name" v="Bergstykket" />
		<tag k="place" v="locality" />
		<tag k="ssr:stedsnr" v="32490" />
	</node>
	<node lat="60.06847500313326" lon="9.457791671385316" id="-32632">
		<tag k="name" v="Skreddarrudrødningen" />
		<tag k="place" v="locality" />
		<tag k="ssr:stedsnr" v="32982" />
	</node>
	<node lat="60.263215266595274" lon="9.280183222458607" id="-32634">
		<tag k="name" v="Kleiv" />
		<tag k="place" v="hamlet" />
		<tag k="ssr:stedsnr" v="240155" />
	</node>
	<node lat="59.957277667775756" lon="9.654771831188247" id="-32635">
		<tag k="alt_name" v="Øvre Grønset" />
		<tag k="fixme" v="consider place=hamlet" />
		<tag k="name" v="Grønset" />
		<tag k="place" v="farm" />
		<tag k="ssr:stedsnr" v="64804" />
	</node>
	<node lat="59.971950000906546" lon="9.729091672115883" id="-32636">
		<tag k="name" v="Solvang" />
		<tag k="place" v="farm" />
		<tag k="ssr:stedsnr" v="64818" />
	</node>
	<node lat="60.07287222116744" lon="9.587405550581511" id="-32638">
		<tag k="alt_name" v="Viksetra" />
		<tag k="name" v="Vikseter" />
		<tag k="place" v="locality" />
		<tag k="ssr:stedsnr" v="65066" />
	</node>
	<node lat="60.24283332969193" lon="9.255452778754414" id="-32640">
		<tag k="alt_name" v="Berget" />
		<tag k="name" v="Øvre Berget" />
		<tag k="place" v="farm" />
		<tag k="ssr:stedsnr" v="65265" />
	</node>
	<node lat="60.24112500417906" lon="9.236638890540219" id="-32641">
		<tag k="alt_name" v="Hagan" />
		<tag k="name" v="Bøleshagan" />
		<tag k="place" v="farm" />
		<tag k="ssr:stedsnr" v="65268" />
	</node>
	<node lat="60.14547221827608" lon="9.429705557960903" id="-32643">
		<tag k="name" v="Hefta" />
		<tag k="place" v="isolated_dwelling" />
		<tag k="ssr:stedsnr" v="65403" />
	</node>
	<node lat="60.03752221990707" lon="9.675036115134457" id="-32647">
		<tag k="name" v="Piskerud" />
		<tag k="place" v="farm" />
		<tag k="ssr:stedsnr" v="65948" />
	</node>
	<node lat="60.01636666991821" lon="9.615041668985077" id="-32648">
		<tag k="historic" v="shieling" />
		<tag k="name" v="Mollerudsetra" />
		<tag k="place" v="isolated_dwelling" />
		<tag k="ssr:stedsnr" v="65950" />
	</node>
	<node lat="59.98381465342558" lon="9.734400942080168" id="-32649">
		<tag k="alt_name" v="Nordre Kvisle" />
		<tag k="fixme" v="consider place=hamlet" />
		<tag k="name" v="Kvisle" />
		<tag k="place" v="farm" />
		<tag k="ssr:stedsnr" v="65951" />
	</node>
	<node lat="60.0292997485061" lon="9.661621346267962" id="-32651">
		<tag k="fixme" v="consider place=hamlet" />
		<tag k="name" v="Brandsrud" />
		<tag k="place" v="farm" />
		<tag k="ssr:stedsnr" v="65956" />
	</node>
	<node lat="59.98745278039225" lon="9.614336117174517" id="-32652">
		<tag k="name" v="Bergerud" />
		<tag k="place" v="farm" />
		<tag k="ssr:stedsnr" v="65959" />
	</node>
	<node lat="60.07967222399959" lon="9.476805549018056" id="-32654">
		<tag k="name" v="Myran" />
		<tag k="place" v="farm" />
		<tag k="ssr:stedsnr" v="66101" />
	</node>
	<node lat="60.244427780809694" lon="9.380397226521257" id="-32655">
		<tag k="name" v="Gulsrud" />
		<tag k="place" v="isolated_dwelling" />
		<tag k="ssr:stedsnr" v="66309" />
	</node>
	<node lat="60.24572775123725" lon="9.372830744747585" id="-32657">
		<tag k="fixme" v="consider place=hamlet" />
		<tag k="name" v="Haugen" />
		<tag k="place" v="farm" />
		<tag k="ssr:stedsnr" v="66313" />
	</node>
	<node lat="60.27325833414485" lon="9.26251111657155" id="-32660">
		<tag k="name" v="Brekka" />
		<tag k="place" v="farm" />
		<tag k="ssr:stedsnr" v="67125" />
	</node>
	<node lat="60.05302050872943" lon="9.629068737809659" id="-32662">
		<tag k="alt_name" v="Østre Ramstad" />
		<tag k="fixme" v="consider place=hamlet" />
		<tag k="name" v="Ramstad" />
		<tag k="place" v="farm" />
		<tag k="ssr:stedsnr" v="66896" />
	</node>
	<node lat="59.98463889198119" lon="9.589836107347876" id="-32676">
		<tag k="name" v="Kvernnes" />
		<tag k="place" v="farm" />
		<tag k="ssr:stedsnr" v="246338" />
	</node>
	<node lat="60.289655557906634" lon="9.258591673469446" id="-32677">
		<tag k="name" v="Bergerud" />
		<tag k="place" v="isolated_dwelling" />
		<tag k="ssr:stedsnr" v="90613" />
	</node>
	<node lat="60.271949996147704" lon="9.330261107273452" id="-32678">
		<tag k="historic" v="shieling" />
		<tag k="name" v="Nysetra" />
		<tag k="place" v="isolated_dwelling" />
		<tag k="ssr:stedsnr" v="90667" />
	</node>
	<node lat="60.307994442339535" lon="9.15460554788208" id="-32684">
		<tag k="historic" v="shieling" />
		<tag k="name" v="Øvre Reset" />
		<tag k="place" v="isolated_dwelling" />
		<tag k="ssr:stedsnr" v="91023" />
	</node>
	<node lat="60.114355556359946" lon="9.460575004342815" id="-32696">
		<tag k="building" v="industrial" />
		<tag k="name" v="Sag" />
		<tag k="ssr:stedsnr" v="91432" />
	</node>
	<node lat="60.00211111521469" lon="9.736469448377363" id="-32705">
		<tag k="amenity" v="school" />
		<tag k="name" v="Nerstad skole" />
		<tag k="ssr:stedsnr" v="93208" />
	</node>
	<node lat="60.01546389292449" lon="9.686347228511814" id="-32706">
		<tag k="name" v="Lillemoen" />
		<tag k="place" v="farm" />
		<tag k="ssr:stedsnr" v="93225" />
	</node>
	<node lat="60.052325000346386" lon="9.543474999442433" id="-32717">
		<tag k="name" v="Flåganbråtan" />
		<tag k="place" v="farm" />
		<tag k="ssr:stedsnr" v="93385" />
	</node>
	<node lat="59.96058611324656" lon="9.836194436361874" id="-32725">
		<tag k="name" v="Langbråtan" />
		<tag k="place" v="isolated_dwelling" />
		<tag k="ssr:stedsnr" v="93664" />
	</node>
	<node lat="60.02868333040722" lon="9.695352779686107" id="-32736">
		<tag k="name" v="Søre Vad" />
		<tag k="place" v="farm" />
		<tag k="ssr:stedsnr" v="93976" />
	</node>
	<node lat="60.16665555413425" lon="9.463191668048838" id="-32742">
		<tag k="name" v="Åmotsetra" />
		<tag k="place" v="locality" />
		<tag k="ssr:stedsnr" v="247431" />
	</node>
	<node lat="60.19832222001229" lon="9.239875004984873" id="-32745">
		<tag k="alt_name" v="Frøvollsetra" />
		<tag k="historic" v="shieling" />
		<tag k="name" v="Frøvollseter" />
		<tag k="place" v="isolated_dwelling" />
		<tag k="ssr:stedsnr" v="247455" />
	</node>
	<node lat="59.922558334836" lon="9.693341666980624" id="-32746">
		<tag k="alt_name" v="Østre Ingebu;Øvre Ingebu" />
		<tag k="name" v="Øst-Ingebu" />
		<tag k="place" v="farm" />
		<tag k="ssr:stedsnr" v="247839" />
	</node>
	<node lat="60.07131111445134" lon="9.736486116969786" id="-32749">
		<tag k="fixme" v="multiple name tags, choose one and add the other to alt_name" />
		<tag k="historic" v="shieling" />
		<tag k="name" v="Hoffarsetrane;Hoffarsetra" />
		<tag k="place" v="isolated_dwelling" />
		<tag k="ssr:stedsnr" v="247877" />
	</node>
	<node lat="60.03696944560485" lon="9.654544436622828" id="-32750">
		<tag k="name" v="Eid" />
		<tag k="place" v="farm" />
		<tag k="ssr:stedsnr" v="247938" />
	</node>
	<node lat="59.989669581379786" lon="9.762603473712792" id="-32754">
		<tag k="fixme" v="consider place=hamlet" />
		<tag k="name" v="Bakkane" />
		<tag k="place" v="farm" />
		<tag k="ssr:stedsnr" v="247950" />
	</node>
	<node lat="60.363580553002755" lon="9.187838880486934" id="-32755">
		<tag k="fixme" v="multiple name tags, choose one and add the other to alt_name" />
		<tag k="historic" v="shieling" />
		<tag k="name" v="Bergshamaren;Berghammarsetra" />
		<tag k="place" v="isolated_dwelling" />
		<tag k="ssr:stedsnr" v="248374" />
	</node>
	<node lat="59.97679657323627" lon="9.588986303059714" id="-32766">
		<tag k="fixme" v="consider place=hamlet" />
		<tag k="name" v="Rud" />
		<tag k="place" v="farm" />
		<tag k="ssr:stedsnr" v="125363" />
	</node>
	<node lat="60.0900631106812" lon="9.464233216341166" id="-32771">
		<tag k="fixme" v="consider place=hamlet" />
		<tag k="name" v="Hole" />
		<tag k="place" v="farm" />
		<tag k="ssr:stedsnr" v="126111" />
	</node>
	<node lat="60.04003888810059" lon="9.578413880379545" id="-32774">
		<tag k="name" v="Odden" />
		<tag k="place" v="isolated_dwelling" />
		<tag k="ssr:stedsnr" v="126058" />
	</node>
	<node lat="60.08129130766915" lon="9.495482161126851" id="-32775">
		<tag k="alt_name" v="Vestre Blekaberg" />
		<tag k="name" v="Blekaberg" />
		<tag k="place" v="hamlet" />
		<tag k="ssr:stedsnr" v="126089" />
	</node>
	<node lat="60.24322778029448" lon="9.353327784644538" id="-32777">
		<tag k="alt_name" v="Moen" />
		<tag k="name" v="Nord-Moen" />
		<tag k="place" v="farm" />
		<tag k="ssr:stedsnr" v="126296" />
	</node>
	<node lat="60.18726666293292" lon="9.376719439374686" id="-32780">
		<tag k="alt_name" v="Nedre Enderud" />
		<tag k="name" v="Enderud" />
		<tag k="place" v="farm" />
		<tag k="ssr:stedsnr" v="126496" />
	</node>
	<node lat="60.089955554005925" lon="9.678133338157744" id="-32785">
		<tag k="alt_name" v="Skartumsetra" />
		<tag k="historic" v="shieling" />
		<tag k="name" v="Skartumseter" />
		<tag k="place" v="isolated_dwelling" />
		<tag k="ssr:stedsnr" v="126849" />
	</node>
	<node lat="60.26046666797338" lon="9.316349608643662" id="-32791">
		<tag k="fixme" v="consider place=hamlet" />
		<tag k="name" v="Krossgarden" />
		<tag k="place" v="farm" />
		<tag k="ssr:stedsnr" v="127107" />
	</node>
	<node lat="60.20787222601504" lon="9.195391660624667" id="-32796">
		<tag k="historic" v="shieling" />
		<tag k="name" v="Båsseter" />
		<tag k="place" v="isolated_dwelling" />
		<tag k="ssr:stedsnr" v="150009" />
	</node>
	<node lat="60.22698333263799" lon="9.467588882524312" id="-32817">
		<tag k="name" v="Skrikarlia" />
		<tag k="place" v="isolated_dwelling" />
		<tag k="ssr:stedsnr" v="152561" />
	</node>
	<node lat="59.96137222543768" lon="9.756297216203182" id="-32828">
		<tag k="name" v="Nordre Åby" />
		<tag k="place" v="farm" />
		<tag k="ssr:stedsnr" v="153426" />
	</node>
	<node lat="60.03417221944311" lon="9.582922215791399" id="-32835">
		<tag k="name" v="Jordet" />
		<tag k="place" v="farm" />
		<tag k="ssr:stedsnr" v="153755" />
	</node>
	<node lat="60.21428831946872" lon="9.39010031196806" id="-32852">
		<tag k="name" v="Grønvoll" />
		<tag k="place" v="locality" />
		<tag k="ssr:stedsnr" v="186531" />
	</node>
	<node lat="59.95919444428105" lon="9.82477500712447" id="-32853">
		<tag k="name" v="Neshagan" />
		<tag k="place" v="farm" />
		<tag k="ssr:stedsnr" v="186790" />
	</node>
	<node lat="60.0444083323346" lon="9.671891665823683" id="-32854">
		<tag k="name" v="Tukua" />
		<tag k="place" v="farm" />
		<tag k="ssr:stedsnr" v="186923" />
	</node>
	<node lat="60.08442222043176" lon="9.370513885482483" id="-32858">
		<tag k="fixme" v="multiple name tags, choose one and add the other to alt_name" />
		<tag k="historic" v="shieling" />
		<tag k="name" v="Nord-Gaulen;Gaulsetra" />
		<tag k="place" v="isolated_dwelling" />
		<tag k="ssr:stedsnr" v="187096" />
	</node>
	<node lat="60.15220555653318" lon="9.346988890860187" id="-32861">
		<tag k="alt_name" v="Dukeliseter" />
		<tag k="historic" v="shieling" />
		<tag k="name" v="Dukelisetra" />
		<tag k="place" v="isolated_dwelling" />
		<tag k="ssr:stedsnr" v="187381" />
	</node>
	<node lat="60.1757805531055" lon="9.405972220939544" id="-32863">
		<tag k="name" v="Tangen" />
		<tag k="place" v="farm" />
		<tag k="ssr:stedsnr" v="187422" />
	</node>
	<node lat="60.01906666838728" lon="9.694502775809053" id="-32866">
		<tag k="name" v="Søre Langerud" />
		<tag k="place" v="farm" />
		<tag k="ssr:stedsnr" v="187924" />
	</node>
	<node lat="60.006966665843215" lon="9.72867777880216" id="-32870">
		<tag k="name" v="Åsum" />
		<tag k="place" v="isolated_dwelling" />
		<tag k="ssr:stedsnr" v="187973" />
	</node>
	<node lat="60.264730552538836" lon="9.369950003662563" id="-32872">
		<tag k="historic" v="shieling" />
		<tag k="name" v="Veslesetra" />
		<tag k="place" v="isolated_dwelling" />
		<tag k="ssr:stedsnr" v="188116" />
	</node>
	<node lat="60.24971110721502" lon="9.242558329289846" id="-32876">
		<tag k="historic" v="shieling" />
		<tag k="name" v="Dønhauglisetra" />
		<tag k="place" v="isolated_dwelling" />
		<tag k="ssr:stedsnr" v="188918" />
	</node>
	<node lat="60.06847500313326" lon="9.457791671385316" id="-32886">
		<tag k="name" v="Søre Strand" />
		<tag k="place" v="farm" />
		<tag k="ssr:stedsnr" v="207029" />
	</node>
	<node lat="60.147555557599965" lon="9.347461112400595" id="-32890">
		<tag k="name" v="Trollbu" />
		<tag k="place" v="isolated_dwelling" />
		<tag k="ssr:stedsnr" v="212109" />
	</node>
	<node lat="60.34049166810102" lon="9.187616671055554" id="-32893">
		<tag k="fixme" v="consider tourism=alpine_hut or tourism=chalet" />
		<tag k="name" v="Turistheimen" />
		<tag k="ssr:stedsnr" v="212196" />
		<tag k="tourism" v="wilderness_hut" />
	</node>
	<node lat="60.12139999795459" lon="9.457636114592189" id="-32906">
		<tag k="name" v="Bjørnhaug" />
		<tag k="place" v="isolated_dwelling" />
		<tag k="ssr:stedsnr" v="213409" />
	</node>
	<node lat="60.05831944694456" lon="9.56257223101718" id="-32925">
		<tag k="name" v="Kotrud" />
		<tag k="place" v="isolated_dwelling" />
		<tag k="ssr:stedsnr" v="214327" />
	</node>
	<node lat="59.97265555407312" lon="9.765011103325635" id="-32927">
		<tag k="name" v="Mellom-Bergan" />
		<tag k="place" v="farm" />
		<tag k="ssr:stedsnr" v="214396" />
	</node>
	<node lat="60.05361388867885" lon="9.631997221129126" id="-32929">
		<tag k="name" v="Ramstad" />
		<tag k="place" v="farm" />
		<tag k="ssr:stedsnr" v="214506" />
	</node>
	<node lat="60.03825277751853" lon="9.61743054986935" id="-32943">
		<tag k="name" v="Øvre Øverby" />
		<tag k="place" v="farm" />
		<tag k="ssr:stedsnr" v="214705" />
	</node>
	<node lat="60.051158335991865" lon="9.684708337245135" id="-32951">
		<tag k="alt_name" v="Nordre Reistad" />
		<tag k="name" v="Nord-Reistad" />
		<tag k="place" v="farm" />
		<tag k="ssr:stedsnr" v="214828" />
	</node>
	<node lat="60.02606111056022" lon="9.68958611885115" id="-32952">
		<tag k="name" v="Nygård" />
		<tag k="place" v="farm" />
		<tag k="ssr:stedsnr" v="214896" />
	</node>
	<node lat="60.00056388723007" lon="9.466086110514707" id="-32958">
		<tag k="name" v="Nedre Stugua" />
		<tag k="place" v="isolated_dwelling" />
		<tag k="ssr:stedsnr" v="215096" />
	</node>
	<node lat="60.072028020985854" lon="9.515477358820696" id="-32968">
		<tag k="fixme" v="consider place=hamlet" />
		<tag k="name" v="Havika" />
		<tag k="place" v="farm" />
		<tag k="ssr:stedsnr" v="247071" />
	</node>
	<node lat="60.09114721969906" lon="9.515355555876475" id="-32969">
		<tag k="alt_name" v="Sætra" />
		<tag k="name" v="Setra" />
		<tag k="place" v="farm" />
		<tag k="ssr:stedsnr" v="247085" />
	</node>
	<node lat="60.0950213085128" lon="9.473595442693298" id="-32971">
		<tag k="alt_name" v="Søre Albjørk" />
		<tag k="name" v="Albjørk" />
		<tag k="place" v="hamlet" />
		<tag k="ssr:stedsnr" v="247113" />
	</node>
	<node lat="60.16964167022846" lon="9.236647228407938" id="-32973">
		<tag k="historic" v="shieling" />
		<tag k="name" v="Sølandsetra" />
		<tag k="place" v="isolated_dwelling" />
		<tag k="ssr:stedsnr" v="247421" />
	</node>
	<node lat="60.17256111539785" lon="9.393194446448728" id="-32974">
		<tag k="name" v="Grønhovdsroa" />
		<tag k="place" v="hamlet" />
		<tag k="ssr:stedsnr" v="247427" />
	</node>
	<node lat="60.044233336989784" lon="9.609388887459463" id="-32980">
		<tag k="alt_name" v="Sund" />
		<tag k="name" v="Søre Sund" />
		<tag k="place" v="farm" />
		<tag k="ssr:stedsnr" v="247918" />
	</node>
	<node lat="60.03111870364232" lon="9.692686343370779" id="-32982">
		<tag k="alt_name" v="Nordre Vad" />
		<tag k="fixme" v="consider place=hamlet" />
		<tag k="name" v="Vad" />
		<tag k="place" v="farm" />
		<tag k="ssr:stedsnr" v="247924" />
	</node>
	<node lat="60.000788887632936" lon="9.730300000296776" id="-32984">
		<tag k="name" v="Søre Tovsrud" />
		<tag k="place" v="farm" />
		<tag k="ssr:stedsnr" v="247978" />
	</node>
	<node lat="60.04206630552516" lon="9.566857434622582" id="-32986">
		<tag k="fixme" v="consider place=hamlet" />
		<tag k="name" v="Nubberud" />
		<tag k="place" v="farm" />
		<tag k="ssr:stedsnr" v="248056" />
	</node>
	<node lat="60.26174563450437" lon="9.280277356383948" id="-32987">
		<tag k="fixme" v="consider place=hamlet" />
		<tag k="name" v="Nedre Kleiv" />
		<tag k="place" v="farm" />
		<tag k="ssr:stedsnr" v="249103" />
	</node>
	<node lat="60.2398722197977" lon="9.256261105182345" id="-32992">
		<tag k="name" v="Nedre Berget" />
		<tag k="place" v="farm" />
		<tag k="ssr:stedsnr" v="454902" />
	</node>
	<node lat="60.110844444018966" lon="9.377988880073344" id="-33008">
		<tag k="name" v="Holestykket" />
		<tag k="place" v="locality" />
		<tag k="ssr:stedsnr" v="455090" />
	</node>
	<node lat="60.20381388792083" lon="9.39043610336618" id="-33029">
		<tag k="name" v="Vesle Nørsteng" />
		<tag k="place" v="farm" />
		<tag k="ssr:stedsnr" v="455884" />
	</node>
	<node lat="60.23369999939691" lon="9.315561111052356" id="-33035">
		<tag k="name" v="Gutun" />
		<tag k="place" v="isolated_dwelling" />
		<tag k="ssr:stedsnr" v="455939" />
	</node>
	<node lat="60.22309999753646" lon="9.48123332742902" id="-33038">
		<tag k="name" v="Nystova" />
		<tag k="place" v="isolated_dwelling" />
		<tag k="ssr:stedsnr" v="456524" />
	</node>
	<node lat="60.09813333206711" lon="9.455283335184768" id="-33048">
		<tag k="name" v="Mellom-Ulberg" />
		<tag k="place" v="farm" />
		<tag k="ssr:stedsnr" v="457301" />
	</node>
	<node lat="60.06054721819486" lon="9.559727780961952" id="-33049">
		<tag k="name" v="Snytrud" />
		<tag k="place" v="isolated_dwelling" />
		<tag k="ssr:stedsnr" v="457330" />
	</node>
	<node lat="59.96288333049472" lon="9.770199997804742" id="-33051">
		<tag k="name" v="Storebråtan" />
		<tag k="place" v="farm" />
		<tag k="ssr:stedsnr" v="457431" />
	</node>
	<node lat="60.04750555324119" lon="9.55052221457575" id="-33052">
		<tag k="name" v="Mellom-Flågan" />
		<tag k="place" v="farm" />
		<tag k="ssr:stedsnr" v="457433" />
	</node>
	<node lat="59.964830554677334" lon="9.672227771094041" id="-33056">
		<tag k="name" v="Kikut" />
		<tag k="place" v="isolated_dwelling" />
		<tag k="ssr:stedsnr" v="457477" />
	</node>
	<node lat="60.11187222381919" lon="9.571713889205025" id="-33058">
		<tag k="historic" v="shieling" />
		<tag k="name" v="Skakkeset" />
		<tag k="place" v="isolated_dwelling" />
		<tag k="ssr:stedsnr" v="457497" />
	</node>
	<node lat="59.98816666310009" lon="9.746736116215377" id="-33064">
		<tag k="name" v="Veststrøm" />
		<tag k="place" v="farm" />
		<tag k="ssr:stedsnr" v="457551" />
	</node>
	<node lat="60.04262221821352" lon="9.641188890963118" id="-33066">
		<tag k="leisure" v="pitch" />
		<tag k="name" v="Idrettsplass" />
		<tag k="ssr:stedsnr" v="457587" />
	</node>
	<node lat="60.01186666281332" lon="9.800525005564909" id="-33077">
		<tag k="historic" v="shieling" />
		<tag k="name" v="Bysetervollane" />
		<tag k="place" v="isolated_dwelling" />
		<tag k="ssr:stedsnr" v="457647" />
	</node>
	<node lat="60.04875833306446" lon="9.687655559102803" id="-33078">
		<tag k="alt_name" v="Reistad med Ellevsplassen" />
		<tag k="name" v="Olstad" />
		<tag k="place" v="farm" />
		<tag k="ssr:stedsnr" v="457785" />
	</node>
	<node lat="60.0100555564174" lon="9.747294443568846" id="-33083">
		<tag k="name" v="Øvre Haugen" />
		<tag k="place" v="farm" />
		<tag k="ssr:stedsnr" v="457756" />
	</node>
	<node lat="60.21454722264418" lon="9.186916671397515" id="-33101">
		<tag k="name" v="Sameiga" />
		<tag k="place" v="locality" />
		<tag k="ssr:stedsnr" v="272005" />
	</node>
	<node lat="60.20781944070897" lon="9.19667221329591" id="-33102">
		<tag k="historic" v="shieling" />
		<tag k="name" v="Røyslandseter" />
		<tag k="place" v="isolated_dwelling" />
		<tag k="ssr:stedsnr" v="272008" />
	</node>
	<node lat="60.18161110886408" lon="9.225619442581731" id="-33105">
		<tag k="name" v="Langlitjennhytta" />
		<tag k="place" v="isolated_dwelling" />
		<tag k="ssr:stedsnr" v="272202" />
	</node>
	<node lat="60.138475002784794" lon="9.390841660735514" id="-33114">
		<tag k="name" v="Solsprett" />
		<tag k="place" v="isolated_dwelling" />
		<tag k="ssr:stedsnr" v="273128" />
	</node>
	<node lat="60.123094441772274" lon="9.499319438414558" id="-33126">
		<tag k="name" v="Flatlistykket" />
		<tag k="place" v="locality" />
		<tag k="ssr:stedsnr" v="273592" />
	</node>
	<node lat="60.0201805600457" lon="9.65859999152114" id="-33140">
		<tag k="name" v="Ravnåshagan" />
		<tag k="place" v="locality" />
		<tag k="ssr:stedsnr" v="275118" />
	</node>
	<node lat="60.00189999951166" lon="9.58489166022123" id="-33149">
		<tag k="historic" v="shieling" />
		<tag k="name" v="Rustandseter" />
		<tag k="place" v="isolated_dwelling" />
		<tag k="ssr:stedsnr" v="275215" />
	</node>
	<node lat="60.0121194418718" lon="9.728013894202237" id="-33152">
		<tag k="name" v="Storebråtan" />
		<tag k="place" v="farm" />
		<tag k="ssr:stedsnr" v="275223" />
	</node>
	<node lat="60.094994441864024" lon="9.451552773358122" id="-33158">
		<tag k="name" v="Åsmoen" />
		<tag k="place" v="isolated_dwelling" />
		<tag k="ssr:stedsnr" v="275312" />
	</node>
	<node lat="59.962055555085016" lon="9.59880832929368" id="-33163">
		<tag k="name" v="Sølvtjennmoen" />
		<tag k="place" v="isolated_dwelling" />
		<tag k="ssr:stedsnr" v="275386" />
	</node>
	<node lat="59.963880553195935" lon="9.826850002508847" id="-33169">
		<tag k="name" v="Øverby" />
		<tag k="place" v="farm" />
		<tag k="ssr:stedsnr" v="275606" />
	</node>
	<node lat="60.02768055399813" lon="9.683202779517035" id="-33173">
		<tag k="name" v="Nedre Eikje" />
		<tag k="place" v="farm" />
		<tag k="ssr:stedsnr" v="275616" />
	</node>
	<node lat="60.040602781008666" lon="9.639927777316258" id="-33178">
		<tag k="leisure" v="pitch" />
		<tag k="name" v="Skibakke" />
		<tag k="ssr:stedsnr" v="275584" />
	</node>
	<node lat="60.04367777584963" lon="9.691241673376453" id="-33184">
		<tag k="name" v="Nordby" />
		<tag k="place" v="locality" />
		<tag k="ssr:stedsnr" v="275995" />
	</node>
	<node lat="60.214611108797065" lon="9.423344448354523" id="-33187">
		<tag k="name" v="Søre Gampeløksetra" />
		<tag k="place" v="locality" />
		<tag k="ssr:stedsnr" v="307302" />
	</node>
	<node lat="60.04898333406043" lon="9.638558331289438" id="-33197">
		<tag k="name" v="Holmen" />
		<tag k="place" v="farm" />
		<tag k="ssr:stedsnr" v="308902" />
	</node>
	<node lat="60.05372222092759" lon="9.611366662002943" id="-33198">
		<tag k="name" v="Skogheim" />
		<tag k="place" v="farm" />
		<tag k="ssr:stedsnr" v="308906" />
	</node>
	<node lat="60.27109167069655" lon="9.382030550324922" id="-33206">
		<tag k="historic" v="shieling" />
		<tag k="name" v="Teigesetran" />
		<tag k="place" v="isolated_dwelling" />
		<tag k="ssr:stedsnr" v="310094" />
	</node>
	<node lat="60.31748611000712" lon="9.212572225542404" id="-33207">
		<tag k="alt_name" v="Buin setergrend" />
		<tag k="historic" v="shieling" />
		<tag k="name" v="Buin" />
		<tag k="place" v="isolated_dwelling" />
		<tag k="ssr:stedsnr" v="310436" />
	</node>
	<node lat="60.25680269268687" lon="9.351548242361295" id="-33208">
		<tag k="fixme" v="consider place=hamlet" />
		<tag k="name" v="Åsen" />
		<tag k="place" v="farm" />
		<tag k="ssr:stedsnr" v="310902" />
	</node>
	<node lat="60.25105555270475" lon="9.308369449239668" id="-33213">
		<tag k="name" v="Kaugerud" />
		<tag k="place" v="farm" />
		<tag k="ssr:stedsnr" v="332901" />
	</node>
	<node lat="60.20792222053792" lon="9.207891665583938" id="-33214">
		<tag k="historic" v="shieling" />
		<tag k="name" v="Lurenhol" />
		<tag k="place" v="isolated_dwelling" />
		<tag k="ssr:stedsnr" v="333007" />
	</node>
	<node lat="60.25516111537387" lon="9.313072228796317" id="-33220">
		<tag k="name" v="Smed-Rønningen" />
		<tag k="place" v="isolated_dwelling" />
		<tag k="ssr:stedsnr" v="333120" />
	</node>
	<node lat="60.23318610998401" lon="9.326063887669697" id="-33228">
		<tag k="name" v="Grindjordet" />
		<tag k="place" v="locality" />
		<tag k="ssr:stedsnr" v="333812" />
	</node>
	<node lat="60.2353944447873" lon="9.335041669444394" id="-33229">
		<tag k="name" v="Nedre Søland" />
		<tag k="place" v="farm" />
		<tag k="ssr:stedsnr" v="333815" />
	</node>
	<node lat="60.281421128407516" lon="9.269496785107776" id="-33233">
		<tag k="fixme" v="consider place=hamlet" />
		<tag k="name" v="Nord-Åsland" />
		<tag k="place" v="farm" />
		<tag k="ssr:stedsnr" v="333862" />
	</node>
	<node lat="59.972022221250505" lon="9.768127773633257" id="-33248">
		<tag k="name" v="Søre Bergan" />
		<tag k="place" v="farm" />
		<tag k="ssr:stedsnr" v="335404" />
	</node>
	<node lat="59.96950555598101" lon="9.762436103629016" id="-33249">
		<tag k="name" v="Berganhagan" />
		<tag k="place" v="farm" />
		<tag k="ssr:stedsnr" v="335405" />
	</node>
	<node lat="59.97778610905416" lon="9.752344442338183" id="-33250">
		<tag k="name" v="Tangen" />
		<tag k="place" v="isolated_dwelling" />
		<tag k="ssr:stedsnr" v="335407" />
	</node>
	<node lat="59.99937777805376" lon="9.755080562717897" id="-33259">
		<tag k="name" v="Nordre Jokstad" />
		<tag k="place" v="farm" />
		<tag k="ssr:stedsnr" v="335604" />
	</node>
	<node lat="60.025236110044254" lon="9.683747229962" id="-33260">
		<tag k="name" v="Granheim" />
		<tag k="place" v="farm" />
		<tag k="ssr:stedsnr" v="335660" />
	</node>
	<node lat="59.9539666646861" lon="9.806536109800321" id="-33263">
		<tag k="name" v="Nordre Mellom-Nes" />
		<tag k="place" v="farm" />
		<tag k="ssr:stedsnr" v="335693" />
	</node>
	<node lat="60.04409999986233" lon="9.608152773514977" id="-33264">
		<tag k="name" v="Nordre Sund" />
		<tag k="place" v="farm" />
		<tag k="ssr:stedsnr" v="335700" />
	</node>
	<node lat="60.00592777373593" lon="9.454430547833708" id="-33272">
		<tag k="name" v="Brenndalsbu" />
		<tag k="place" v="isolated_dwelling" />
		<tag k="ssr:stedsnr" v="336097" />
	</node>
	<node lat="59.96750833379873" lon="9.802475002377992" id="-33284">
		<tag k="name" v="Bråtan" />
		<tag k="place" v="isolated_dwelling" />
		<tag k="ssr:stedsnr" v="336598" />
	</node>
	<node lat="60.04974999758235" lon="9.574986106707843" id="-33292">
		<tag k="name" v="Endeberg" />
		<tag k="place" v="farm" />
		<tag k="ssr:stedsnr" v="368080" />
	</node>
	<node lat="60.11960278220009" lon="9.503719435884538" id="-33295">
		<tag k="historic" v="shieling" />
		<tag k="name" v="Flatlia" />
		<tag k="place" v="isolated_dwelling" />
		<tag k="ssr:stedsnr" v="368404" />
	</node>
	<node lat="59.98906111305574" lon="9.665816666361161" id="-33305">
		<tag k="historic" v="shieling" />
		<tag k="name" v="Eikjesetra" />
		<tag k="place" v="isolated_dwelling" />
		<tag k="ssr:stedsnr" v="368966" />
	</node>
	<node lat="59.993177776952564" lon="9.744186112727201" id="-33306">
		<tag k="name" v="Haugen" />
		<tag k="place" v="farm" />
		<tag k="ssr:stedsnr" v="368971" />
	</node>
	<node lat="60.237313285365936" lon="9.469017802959268" id="-33309">
		<tag k="alt_name" v="Narumseter" />
		<tag k="historic" v="shieling" />
		<tag k="name" v="Narumsetra" />
		<tag k="place" v="isolated_dwelling" />
		<tag k="ssr:stedsnr" v="369286" />
	</node>
	<node lat="60.31920833196108" lon="9.178599993300105" id="-33318">
		<tag k="alt_name" v="Baklia" />
		<tag k="historic" v="shieling" />
		<tag k="name" v="Baklisetra" />
		<tag k="place" v="isolated_dwelling" />
		<tag k="ssr:stedsnr" v="370465" />
	</node>
	<node lat="60.25324341031058" lon="9.3681303289559" id="-33320">
		<tag k="alt_name" v="Øvre Teige" />
		<tag k="name" v="Søre Øvre-Teige" />
		<tag k="place" v="farm" />
		<tag k="ssr:stedsnr" v="370920" />
	</node>
	<node lat="60.253452777134825" lon="9.35868056098173" id="-33332">
		<tag k="name" v="Nedre Berg" />
		<tag k="place" v="farm" />
		<tag k="ssr:stedsnr" v="394104" />
	</node>
	<node lat="60.26616944063245" lon="9.32930000440886" id="-33336">
		<tag k="name" v="Øvre Skallandseter" />
		<tag k="place" v="locality" />
		<tag k="ssr:stedsnr" v="394419" />
	</node>
	<node lat="60.235322224265346" lon="9.327658330699155" id="-33343">
		<tag k="name" v="Mellom-Søland" />
		<tag k="place" v="farm" />
		<tag k="ssr:stedsnr" v="394833" />
	</node>
	<node lat="60.11331667047472" lon="9.573730563779243" id="-33372">
		<tag k="historic" v="shieling" />
		<tag k="name" v="Bergetangseter" />
		<tag k="place" v="isolated_dwelling" />
		<tag k="ssr:stedsnr" v="396494" />
	</node>
	<node lat="59.97001389118896" lon="9.809011105320755" id="-33373">
		<tag k="name" v="Øverbyplassen" />
		<tag k="place" v="isolated_dwelling" />
		<tag k="ssr:stedsnr" v="396605" />
	</node>
	<node lat="59.964027777379385" lon="9.820688884487588" id="-33374">
		<tag k="name" v="Søre Øverby" />
		<tag k="place" v="farm" />
		<tag k="ssr:stedsnr" v="396608" />
	</node>
	<node lat="60.03563888631436" lon="9.632516664263639" id="-33377">
		<tag k="name" v="Rørsrud" />
		<tag k="place" v="farm" />
		<tag k="ssr:stedsnr" v="396627" />
	</node>
	<node lat="60.05140833524934" lon="9.656447230737259" id="-33379">
		<tag k="name" v="Hauganlykka" />
		<tag k="place" v="isolated_dwelling" />
		<tag k="ssr:stedsnr" v="396596" />
	</node>
	<node lat="60.09968888649154" lon="9.637161111732913" id="-33382">
		<tag k="name" v="Åslyhytta" />
		<tag k="place" v="isolated_dwelling" />
		<tag k="ssr:stedsnr" v="396887" />
	</node>
	<node lat="60.07511388461063" lon="9.498319450082926" id="-33384">
		<tag k="name" v="Hagan" />
		<tag k="place" v="isolated_dwelling" />
		<tag k="ssr:stedsnr" v="396897" />
	</node>
	<node lat="60.133320942358374" lon="9.52982475796422" id="-33394">
		<tag k="historic" v="shieling" />
		<tag k="name" v="Nedre Dalen" />
		<tag k="place" v="isolated_dwelling" />
		<tag k="ssr:stedsnr" v="489456" />
	</node>
	<node lat="60.12687180877175" lon="9.560419963610117" id="-33395">
		<tag k="fixme" v="multiple name tags, choose one and add the other to alt_name" />
		<tag k="name" v="Bjørnerud;Bjørnerudsetra" />
		<tag k="place" v="locality" />
		<tag k="ssr:stedsnr" v="489457" />
	</node>
	<node lat="60.00876111115549" lon="9.496352782935936" id="-33403">
		<tag k="alt_name" v="Vestre Hiåsen" />
		<tag k="name" v="Hiåsen" />
		<tag k="place" v="farm" />
		<tag k="ssr:stedsnr" v="490019" />
	</node>
	<node lat="60.23418611133044" lon="9.319447222496041" id="-33404">
		<tag k="alt_name" v="Søland" />
		<tag k="name" v="Vestre Søland" />
		<tag k="place" v="farm" />
		<tag k="ssr:stedsnr" v="490252" />
	</node>
	<node lat="60.24941666940197" lon="9.385200000635368" id="-33405">
		<tag k="alt_name" v="Bråtan" />
		<tag k="name" v="Nedre Bråtan" />
		<tag k="place" v="farm" />
		<tag k="ssr:stedsnr" v="490283" />
	</node>
	<node lat="59.96627589984459" lon="9.818157283646833" id="-33415">
		<tag k="alt_name" v="Nordre Øverby" />
		<tag k="name" v="Øverby" />
		<tag k="place" v="hamlet" />
		<tag k="ssr:stedsnr" v="428773" />
	</node>
	<node lat="60.14355000310384" lon="9.304683336746162" id="-33420">
		<tag k="alt_name" v="Sautjennsetra" />
		<tag k="historic" v="shieling" />
		<tag k="name" v="Sauetjennsetra" />
		<tag k="place" v="isolated_dwelling" />
		<tag k="ssr:stedsnr" v="429406" />
	</node>
	<node lat="60.14441388902902" lon="9.517255556145855" id="-33423">
		<tag k="alt_name" v="Narumsetra" />
		<tag k="historic" v="shieling" />
		<tag k="name" v="Narumseter" />
		<tag k="place" v="isolated_dwelling" />
		<tag k="ssr:stedsnr" v="429415" />
	</node>
	<node lat="60.13494444779723" lon="9.452616674279435" id="-33424">
		<tag k="name" v="Steinsvad" />
		<tag k="place" v="farm" />
		<tag k="ssr:stedsnr" v="429418" />
	</node>
	<node lat="60.17364166680237" lon="9.372333332112678" id="-33427">
		<tag k="name" v="Grønlund" />
		<tag k="place" v="farm" />
		<tag k="ssr:stedsnr" v="429428" />
	</node>
	<node lat="60.065055554284505" lon="9.745077768983153" id="-33431">
		<tag k="historic" v="shieling" />
		<tag k="name" v="Hovlandsetra" />
		<tag k="place" v="isolated_dwelling" />
		<tag k="ssr:stedsnr" v="490885" />
	</node>
	<node lat="59.94029722498501" lon="9.727516674311275" id="-33435">
		<tag k="historic" v="shieling" />
		<tag k="name" v="Åbysetra" />
		<tag k="place" v="isolated_dwelling" />
		<tag k="ssr:stedsnr" v="429756" />
	</node>
	<node lat="60.04073333125203" lon="9.615002782662248" id="-33437">
		<tag k="alt_name" v="Øverby" />
		<tag k="name" v="Søre Øverby" />
		<tag k="place" v="farm" />
		<tag k="ssr:stedsnr" v="429919" />
	</node>
	<node lat="59.99739204861259" lon="9.770011451453104" id="-33440">
		<tag k="fixme" v="consider place=hamlet" />
		<tag k="name" v="Østby" />
		<tag k="place" v="farm" />
		<tag k="ssr:stedsnr" v="429968" />
	</node>
	<node lat="60.011249996412104" lon="9.700561103416467" id="-33442">
		<tag k="name" v="Hellum" />
		<tag k="place" v="farm" />
		<tag k="ssr:stedsnr" v="429971" />
	</node>
	<node lat="60.01234722095926" lon="9.719936116698873" id="-33443">
		<tag k="name" v="Bakken" />
		<tag k="place" v="farm" />
		<tag k="ssr:stedsnr" v="490968" />
	</node>
	<node lat="60.08941944752531" lon="9.488200003999847" id="-33444">
		<tag k="name" v="Bjøre" />
		<tag k="place" v="farm" />
		<tag k="ssr:stedsnr" v="430100" />
	</node>
	<node lat="60.000752775220874" lon="9.813433329795911" id="-33445">
		<tag k="historic" v="shieling" />
		<tag k="name" v="Kolsrudsetra" />
		<tag k="place" v="isolated_dwelling" />
		<tag k="ssr:stedsnr" v="490978" />
	</node>
	<node lat="60.249372066828" lon="9.365092108601402" id="-33448">
		<tag k="alt_name" v="Teige" />
		<tag k="name" v="Søre Nedre-Teige" />
		<tag k="place" v="farm" />
		<tag k="ssr:stedsnr" v="430305" />
	</node>
	<node lat="60.23712500286675" lon="9.396638895219143" id="-33450">
		<tag k="name" v="Bjertnes" />
		<tag k="place" v="farm" />
		<tag k="ssr:stedsnr" v="430296" />
	</node>
	<node lat="60.238011958160335" lon="9.379929471515192" id="-33451">
		<tag k="fixme" v="consider place=hamlet" />
		<tag k="name" v="Besserud" />
		<tag k="place" v="farm" />
		<tag k="ssr:stedsnr" v="430300" />
	</node>
	<node lat="60.321472222382916" lon="9.250563895909618" id="-33452">
		<tag k="historic" v="shieling" />
		<tag k="name" v="Teigesetra" />
		<tag k="place" v="isolated_dwelling" />
		<tag k="ssr:stedsnr" v="491064" />
	</node>
	<node lat="60.285875000960864" lon="9.256150000388107" id="-33453">
		<tag k="name" v="Flatin" />
		<tag k="place" v="farm" />
		<tag k="ssr:stedsnr" v="491073" />
	</node>
	<node lat="60.272419448812016" lon="9.333722217575048" id="-33458">
		<tag k="historic" v="shieling" />
		<tag k="name" v="Krossgardsetra" />
		<tag k="place" v="isolated_dwelling" />
		<tag k="ssr:stedsnr" v="431115" />
	</node>
	<node lat="60.343077778921256" lon="9.176797213967989" id="-33465">
		<tag k="alt_name" v="Haglebu" />
		<tag k="historic" v="shieling" />
		<tag k="name" v="Haglebu seter" />
		<tag k="place" v="isolated_dwelling" />
		<tag k="ssr:stedsnr" v="491437" />
	</node>
	<node lat="60.203426417908936" lon="9.21083454033013" id="-33471">
		<tag k="name" v="Blåsbort" />
		<tag k="place" v="farm" />
		<tag k="ssr:stedsnr" v="272055" />
	</node>
	<node lat="60.077576402125985" lon="9.470920723801173" id="-33476">
		<tag k="fixme" v="consider place=hamlet" />
		<tag k="name" v="Myre" />
		<tag k="place" v="farm" />
		<tag k="ssr:stedsnr" v="672093" />
	</node>
	<node lat="60.20804167064732" lon="9.20587500836389" id="-33481">
		<tag k="historic" v="shieling" />
		<tag k="name" v="Kampenhaug" />
		<tag k="place" v="isolated_dwelling" />
		<tag k="ssr:stedsnr" v="454007" />
	</node>
	<node lat="60.22323055533339" lon="9.260641666097797" id="-33489">
		<tag k="historic" v="shieling" />
		<tag k="name" v="Skålasetra" />
		<tag k="place" v="isolated_dwelling" />
		<tag k="ssr:stedsnr" v="672246" />
	</node>
	<node lat="60.223516664841334" lon="9.252197223891534" id="-33490">
		<tag k="historic" v="shieling" />
		<tag k="name" v="Putten" />
		<tag k="place" v="isolated_dwelling" />
		<tag k="ssr:stedsnr" v="672248" />
	</node>
	<node lat="60.23705833144207" lon="9.221711104575178" id="-33491">
		<tag k="name" v="Dokkeberg" />
		<tag k="place" v="isolated_dwelling" />
		<tag k="ssr:stedsnr" v="672259" />
	</node>
	<node lat="60.115000001907546" lon="9.324099991883738" id="-33502">
		<tag k="alt_name" v="Plassen" />
		<tag k="name" v="Nedalsplassen" />
		<tag k="place" v="farm" />
		<tag k="ssr:stedsnr" v="672360" />
	</node>
	<node lat="60.24991388861958" lon="9.28659444070322" id="-33503">
		<tag k="name" v="Haugane" />
		<tag k="place" v="locality" />
		<tag k="ssr:stedsnr" v="454920" />
	</node>
	<node lat="60.14602499916913" lon="9.418830562223995" id="-33506">
		<tag k="name" v="Søre Lia" />
		<tag k="place" v="farm" />
		<tag k="ssr:stedsnr" v="455061" />
	</node>
	<node lat="60.19213333536473" lon="9.401972224515436" id="-33513">
		<tag k="alt_name" v="Sole" />
		<tag k="name" v="Nedre Sole" />
		<tag k="place" v="farm" />
		<tag k="ssr:stedsnr" v="672455" />
	</node>
	<node lat="60.0804472255256" lon="9.368813894207554" id="-33529">
		<tag k="historic" v="shieling" />
		<tag k="name" v="Gaulen" />
		<tag k="place" v="isolated_dwelling" />
		<tag k="ssr:stedsnr" v="455921" />
	</node>
	<node lat="59.98322499928798" lon="9.637966673516003" id="-33538">
		<tag k="name" v="Grimeli" />
		<tag k="place" v="locality" />
		<tag k="ssr:stedsnr" v="457133" />
	</node>
	<node lat="60.060150000153165" lon="9.708230551852314" id="-33553">
		<tag k="fixme" v="multiple name tags, choose one and add the other to alt_name" />
		<tag k="name" v="Milebråtan;Hælfarmoen" />
		<tag k="place" v="isolated_dwelling" />
		<tag k="ssr:stedsnr" v="672886" />
	</node>
	<node lat="59.97345833307253" lon="9.758219447918881" id="-33560">
		<tag k="name" v="Bergheim" />
		<tag k="place" v="farm" />
		<tag k="ssr:stedsnr" v="457424" />
	</node>
	<node lat="59.91199722267834" lon="9.728077784907464" id="-33571">
		<tag k="name" v="Skrubbemoen" />
		<tag k="place" v="isolated_dwelling" />
		<tag k="ssr:stedsnr" v="457518" />
	</node>
	<node lat="60.29491666287919" lon="9.373261114709303" id="-33576">
		<tag k="historic" v="shieling" />
		<tag k="name" v="Steinveggsetran" />
		<tag k="place" v="isolated_dwelling" />
		<tag k="ssr:stedsnr" v="673078" />
	</node>
	<node lat="60.30727610680984" lon="9.240684615168458" id="-33583">
		<tag k="alt_name" v="Liansetra" />
		<tag k="historic" v="shieling" />
		<tag k="name" v="Lianseter" />
		<tag k="place" v="isolated_dwelling" />
		<tag k="ssr:stedsnr" v="673047" />
	</node>
	<node lat="60.06281944703671" lon="9.556891673572949" id="-33595">
		<tag k="name" v="Frågått" />
		<tag k="place" v="farm" />
		<tag k="ssr:stedsnr" v="489089" />
	</node>
	<node lat="60.139971224531344" lon="9.453869555359008" id="-33604">
		<tag k="fixme" v="consider place=hamlet" />
		<tag k="name" v="Tales" />
		<tag k="place" v="farm" />
		<tag k="ssr:stedsnr" v="489436" />
	</node>
	<node lat="60.13718692876996" lon="9.414571142085808" id="-33605">
		<tag k="name" v="Helgeset" />
		<tag k="place" v="farm" />
		<tag k="ssr:stedsnr" v="489452" />
	</node>
	<node lat="59.97379444822476" lon="9.634919447283286" id="-33607">
		<tag k="name" v="Liplassen" />
		<tag k="place" v="isolated_dwelling" />
		<tag k="ssr:stedsnr" v="489813" />
	</node>
	<node lat="60.089780557572794" lon="9.43438610789173" id="-33609">
		<tag k="name" v="Åssetra" />
		<tag k="place" v="locality" />
		<tag k="ssr:stedsnr" v="490105" />
	</node>
	<node lat="60.10255277903709" lon="9.451130555988243" id="-33612">
		<tag k="name" v="Hagan" />
		<tag k="place" v="farm" />
		<tag k="ssr:stedsnr" v="490386" />
	</node>
	<node lat="60.036009503779994" lon="9.705163414737777" id="-33615">
		<tag k="alt_name" v="Nordre Hoffar" />
		<tag k="fixme" v="consider place=hamlet" />
		<tag k="name" v="Hoffar" />
		<tag k="place" v="farm" />
		<tag k="ssr:stedsnr" v="490911" />
	</node>
	<node lat="60.25706944246217" lon="9.359094452436548" id="-33622">
		<tag k="name" v="Hagan" />
		<tag k="place" v="farm" />
		<tag k="ssr:stedsnr" v="492906" />
	</node>
	<node lat="60.17579444859563" lon="9.414627786386175" id="-33639">
		<tag k="name" v="Nedre Sandan" />
		<tag k="place" v="isolated_dwelling" />
		<tag k="ssr:stedsnr" v="515739" />
	</node>
	<node lat="60.242002782049326" lon="9.261444449768778" id="-33642">
		<tag k="name" v="Nord-Kodalen" />
		<tag k="place" v="farm" />
		<tag k="ssr:stedsnr" v="515904" />
	</node>
	<node lat="60.15004999625078" lon="9.345263883382357" id="-33643">
		<tag k="name" v="Nilsebu" />
		<tag k="place" v="isolated_dwelling" />
		<tag k="ssr:stedsnr" v="516113" />
	</node>
	<node lat="59.968566664303644" lon="9.642172224687938" id="-33648">
		<tag k="name" v="Mellom-Li" />
		<tag k="place" v="farm" />
		<tag k="ssr:stedsnr" v="516470" />
	</node>
	<node lat="60.16911110768327" lon="9.482986117732954" id="-33651">
		<tag k="name" v="Midtstykket" />
		<tag k="place" v="locality" />
		<tag k="ssr:stedsnr" v="516622" />
	</node>
	<node lat="60.15615000073088" lon="9.428349995306254" id="-33655">
		<tag k="name" v="Solebu" />
		<tag k="place" v="locality" />
		<tag k="ssr:stedsnr" v="516703" />
	</node>
	<node lat="59.986293541461876" lon="9.615666197535088" id="-33657">
		<tag k="fixme" v="consider place=hamlet" />
		<tag k="name" v="Langelund" />
		<tag k="place" v="farm" />
		<tag k="ssr:stedsnr" v="517005" />
	</node>
	<node lat="59.96864722427768" lon="9.725575003377546" id="-33660">
		<tag k="name" v="Svalstad" />
		<tag k="place" v="farm" />
		<tag k="ssr:stedsnr" v="517402" />
	</node>
	<node lat="60.0479277739873" lon="9.68947777223074" id="-33668">
		<tag k="name" v="Øvre Reistad" />
		<tag k="place" v="farm" />
		<tag k="ssr:stedsnr" v="517817" />
	</node>
	<node lat="60.006830556082164" lon="9.745541671592866" id="-33685">
		<tag k="name" v="Solstad" />
		<tag k="place" v="farm" />
		<tag k="ssr:stedsnr" v="518760" />
	</node>
	<node lat="60.09234371857008" lon="9.475424193654941" id="-33701">
		<tag k="alt_name" v="Øvre Hov" />
		<tag k="fixme" v="consider place=hamlet" />
		<tag k="name" v="Hov" />
		<tag k="place" v="farm" />
		<tag k="ssr:stedsnr" v="550111" />
	</node>
	<node lat="60.09791388991378" lon="9.516647225255635" id="-33703">
		<tag k="name" v="Strøm" />
		<tag k="place" v="farm" />
		<tag k="ssr:stedsnr" v="550128" />
	</node>
	<node lat="60.00894721986147" lon="9.52060277585792" id="-33704">
		<tag k="name" v="Gåsefra" />
		<tag k="place" v="farm" />
		<tag k="ssr:stedsnr" v="550013" />
	</node>
	<node lat="60.16758333754074" lon="9.212113897372486" id="-33708">
		<tag k="alt_name" v="Barlindos" />
		<tag k="historic" v="shieling" />
		<tag k="name" v="Barlindossetra" />
		<tag k="place" v="isolated_dwelling" />
		<tag k="ssr:stedsnr" v="550611" />
	</node>
	<node lat="59.94330069354447" lon="9.626760346927115" id="-33710">
		<tag k="fixme" v="consider place=hamlet" />
		<tag k="name" v="Klabu" />
		<tag k="place" v="farm" />
		<tag k="ssr:stedsnr" v="550760" />
	</node>
	<node lat="60.02097222396723" lon="9.699205552030278" id="-33713">
		<tag k="name" v="Sauerud" />
		<tag k="place" v="farm" />
		<tag k="ssr:stedsnr" v="550954" />
	</node>
	<node lat="60.040024996019234" lon="9.554205561581261" id="-33718">
		<tag k="name" v="Svarverud" />
		<tag k="place" v="farm" />
		<tag k="ssr:stedsnr" v="551053" />
	</node>
	<node lat="60.27341220913471" lon="9.276037195430243" id="-33721">
		<tag k="fixme" v="consider place=hamlet" />
		<tag k="name" v="Steinset" />
		<tag k="place" v="farm" />
		<tag k="ssr:stedsnr" v="552126" />
	</node>
	<node lat="60.25229062818931" lon="9.350379718625158" id="-33724">
		<tag k="fixme" v="consider place=hamlet" />
		<tag k="name" v="Hamre" />
		<tag k="place" v="farm" />
		<tag k="ssr:stedsnr" v="552930" />
	</node>
	<node lat="60.25530833498801" lon="9.306319440351439" id="-33741">
		<tag k="name" v="Kleiverud" />
		<tag k="place" v="isolated_dwelling" />
		<tag k="ssr:stedsnr" v="575907" />
	</node>
	<node lat="60.288925003562326" lon="9.249386105357765" id="-33746">
		<tag k="name" v="Søre Medalen" />
		<tag k="place" v="farm" />
		<tag k="ssr:stedsnr" v="576006" />
	</node>
	<node lat="60.15053055761586" lon="9.42925278249489" id="-33749">
		<tag k="building" v="industrial" />
		<tag k="industrial" v="factory" />
		<tag k="name" v="Granli trevare" />
		<tag k="ssr:stedsnr" v="576499" />
	</node>
	<node lat="60.153077773656925" lon="9.42895833210562" id="-33755">
		<tag k="name" v="Kilan" />
		<tag k="place" v="farm" />
		<tag k="ssr:stedsnr" v="576750" />
	</node>
	<node lat="60.01346944736385" lon="9.520047217905418" id="-33769">
		<tag k="historic" v="shieling" />
		<tag k="name" v="Nygård" />
		<tag k="place" v="isolated_dwelling" />
		<tag k="ssr:stedsnr" v="578104" />
	</node>
	<node lat="60.07323055586395" lon="9.53624722434966" id="-33772">
		<tag k="name" v="Øvre Bergan" />
		<tag k="place" v="farm" />
		<tag k="ssr:stedsnr" v="578393" />
	</node>
	<node lat="59.98343055804826" lon="9.744816665870907" id="-33775">
		<tag k="name" v="Nedre Anfinnrud" />
		<tag k="place" v="farm" />
		<tag k="ssr:stedsnr" v="578545" />
	</node>
	<node lat="59.962505557211685" lon="9.780377779830518" id="-33778">
		<tag k="name" v="Nedre Solum" />
		<tag k="place" v="farm" />
		<tag k="ssr:stedsnr" v="578410" />
	</node>
	<node lat="60.04864999734683" lon="9.735780547930787" id="-33787">
		<tag k="name" v="Hollenderen" />
		<tag k="place" v="isolated_dwelling" />
		<tag k="ssr:stedsnr" v="578955" />
	</node>
	<node lat="60.03129722666322" lon="9.686300004487777" id="-33788">
		<tag k="name" v="Bergheim" />
		<tag k="place" v="isolated_dwelling" />
		<tag k="ssr:stedsnr" v="578849" />
	</node>
	<node lat="60.31824444124904" lon="9.165775007911886" id="-33795">
		<tag k="historic" v="shieling" />
		<tag k="name" v="Grønli" />
		<tag k="place" v="isolated_dwelling" />
		<tag k="ssr:stedsnr" v="697038" />
	</node>
	<node lat="60.21004722237699" lon="9.202408332285632" id="-33796">
		<tag k="name" v="Fjellrabb" />
		<tag k="place" v="isolated_dwelling" />
		<tag k="ssr:stedsnr" v="697001" />
	</node>
	<node lat="60.15929690432737" lon="9.236661896341833" id="-33801">
		<tag k="historic" v="shieling" />
		<tag k="name" v="Snårseter" />
		<tag k="place" v="isolated_dwelling" />
		<tag k="ssr:stedsnr" v="697167" />
	</node>
	<node lat="60.13483055318633" lon="9.38130000849296" id="-33827">
		<tag k="historic" v="shieling" />
		<tag k="name" v="Bergerudseter" />
		<tag k="place" v="isolated_dwelling" />
		<tag k="ssr:stedsnr" v="698060" />
	</node>
	<node lat="60.13629166935547" lon="9.454322229834839" id="-33828">
		<tag k="name" v="Bekkestykket" />
		<tag k="place" v="locality" />
		<tag k="ssr:stedsnr" v="698184" />
	</node>
	<node lat="60.24195555188817" lon="9.181677778853242" id="-33830">
		<tag k="historic" v="shieling" />
		<tag k="name" v="Kupa" />
		<tag k="place" v="isolated_dwelling" />
		<tag k="ssr:stedsnr" v="698259" />
	</node>
	<node lat="60.23470278177603" lon="9.453019437594689" id="-33848">
		<tag k="alt_name" v="Djupsjøseter" />
		<tag k="historic" v="shieling" />
		<tag k="name" v="Djupsjøsetra" />
		<tag k="place" v="isolated_dwelling" />
		<tag k="ssr:stedsnr" v="698996" />
	</node>
	<node lat="60.02556944211134" lon="9.628294445368324" id="-33854">
		<tag k="name" v="Gøksrud" />
		<tag k="place" v="isolated_dwelling" />
		<tag k="ssr:stedsnr" v="699606" />
	</node>
	<node lat="60.014586068461604" lon="9.47223048491694" id="-33861">
		<tag k="name" v="Sveltihel" />
		<tag k="place" v="locality" />
		<tag k="ssr:stedsnr" v="700114" />
	</node>
	<node lat="60.01319999629745" lon="9.557124999413169" id="-33870">
		<tag k="name" v="Tufta" />
		<tag k="place" v="locality" />
		<tag k="ssr:stedsnr" v="700284" />
	</node>
	<node lat="60.01771388502047" lon="9.71984722841095" id="-33875">
		<tag k="name" v="Sagmoen" />
		<tag k="place" v="farm" />
		<tag k="ssr:stedsnr" v="700303" />
	</node>
	<node lat="59.970661109098344" lon="9.598677786622622" id="-33877">
		<tag k="name" v="Solli" />
		<tag k="place" v="isolated_dwelling" />
		<tag k="ssr:stedsnr" v="700387" />
	</node>
	<node lat="59.96766944709092" lon="9.80107222040911" id="-33879">
		<tag k="name" v="Kløyva" />
		<tag k="place" v="isolated_dwelling" />
		<tag k="ssr:stedsnr" v="700435" />
	</node>
	<node lat="60.04930277961884" lon="9.628458339659062" id="-33885">
		<tag k="name" v="Søre Ramstad" />
		<tag k="place" v="farm" />
		<tag k="ssr:stedsnr" v="700558" />
	</node>
	<node lat="59.969294441773314" lon="9.807902771846118" id="-33886">
		<tag k="alt_name" v="Nordre Desarud" />
		<tag k="name" v="Desarudplassen" />
		<tag k="place" v="farm" />
		<tag k="ssr:stedsnr" v="610804" />
	</node>
	<node lat="59.96723610947574" lon="9.634249993706915" id="-33888">
		<tag k="alt_name" v="Li" />
		<tag k="name" v="Vestre Li" />
		<tag k="place" v="farm" />
		<tag k="ssr:stedsnr" v="610821" />
	</node>
	<node lat="59.92413055522461" lon="9.707130548588799" id="-33889">
		<tag k="alt_name" v="Flaget" />
		<tag k="name" v="Sør-Flaget" />
		<tag k="place" v="farm" />
		<tag k="ssr:stedsnr" v="610873" />
	</node>
	<node lat="60.00791828822588" lon="9.556082447309656" id="-33890">
		<tag k="alt_name" v="Vest-Halvorset" />
		<tag k="fixme" v="consider place=hamlet" />
		<tag k="name" v="Halvorset" />
		<tag k="place" v="farm" />
		<tag k="ssr:stedsnr" v="611004" />
	</node>
	<node lat="60.00851389309321" lon="9.559136112660788" id="-33891">
		<tag k="alt_name" v="Fram-Halvorset" />
		<tag k="name" v="Halvorset" />
		<tag k="place" v="farm" />
		<tag k="ssr:stedsnr" v="611016" />
	</node>
	<node lat="60.011719718718524" lon="9.508238800286136" id="-33892">
		<tag k="alt_name" v="Østre Hiåsen" />
		<tag k="name" v="Hiåsen" />
		<tag k="place" v="hamlet" />
		<tag k="ssr:stedsnr" v="611017" />
	</node>
	<node lat="60.23981944387166" lon="9.239666664116834" id="-33900">
		<tag k="alt_name" v="Bøle" />
		<tag k="name" v="Vest-Bøle" />
		<tag k="place" v="farm" />
		<tag k="ssr:stedsnr" v="611280" />
	</node>
	<node lat="60.12068055710326" lon="9.350574994216053" id="-33903">
		<tag k="name" v="Halsteinrud" />
		<tag k="place" v="farm" />
		<tag k="ssr:stedsnr" v="611394" />
	</node>
	<node lat="60.006288887620016" lon="9.729497230110834" id="-33905">
		<tag k="name" v="Flannum" />
		<tag k="place" v="farm" />
		<tag k="ssr:stedsnr" v="700773" />
	</node>
	<node lat="60.08153611216376" lon="9.722455561809673" id="-33911">
		<tag k="historic" v="shieling" />
		<tag k="name" v="Kroksetra" />
		<tag k="place" v="isolated_dwelling" />
		<tag k="ssr:stedsnr" v="611879" />
	</node>
	<node lat="60.0153694433119" lon="9.791680558268546" id="-33914">
		<tag k="alt_name" v="Østby" />
		<tag k="name" v="Østby-Fillebakkane" />
		<tag k="place" v="isolated_dwelling" />
		<tag k="ssr:stedsnr" v="611971" />
	</node>
	<node lat="60.29818499138211" lon="9.28760970825209" id="-33916">
		<tag k="historic" v="shieling" />
		<tag k="name" v="Kleivsetra" />
		<tag k="place" v="isolated_dwelling" />
		<tag k="ssr:stedsnr" v="612116" />
	</node>
	<node lat="60.287399997595195" lon="9.182161102129735" id="-33922">
		<tag k="alt_name" v="Kodalseter" />
		<tag k="historic" v="shieling" />
		<tag k="name" v="Kodalsetra" />
		<tag k="place" v="isolated_dwelling" />
		<tag k="ssr:stedsnr" v="612514" />
	</node>
	<node lat="60.03497777787269" lon="9.705005560095511" id="-33925">
		<tag k="name" v="Søre Hoffar" />
		<tag k="place" v="farm" />
		<tag k="ssr:stedsnr" v="700991" />
	</node>
	<node lat="60.284602777340965" lon="9.38823889181287" id="-33930">
		<tag k="historic" v="shieling" />
		<tag k="name" v="Istjennsetra" />
		<tag k="place" v="isolated_dwelling" />
		<tag k="ssr:stedsnr" v="613078" />
	</node>
	<node lat="60.261099365351626" lon="9.24609234496565" id="-33931">
		<tag k="alt_name" v="Granliseter" />
		<tag k="historic" v="shieling" />
		<tag k="name" v="Granlisetra" />
		<tag k="place" v="isolated_dwelling" />
		<tag k="ssr:stedsnr" v="613107" />
	</node>
	<node lat="60.27959166916823" lon="9.263852769072496" id="-33932">
		<tag k="alt_name" v="Søre Ligarden" />
		<tag k="name" v="Vesle-Ligarden" />
		<tag k="place" v="farm" />
		<tag k="ssr:stedsnr" v="613119" />
	</node>
	<node lat="60.25508333049331" lon="9.362811106506866" id="-33934">
		<tag k="alt_name" v="Berg" />
		<tag k="name" v="Øvre Berg" />
		<tag k="place" v="farm" />
		<tag k="ssr:stedsnr" v="613912" />
	</node>
	<node lat="59.998202774617894" lon="9.72988055126719" id="-33935">
		<tag k="name" v="Torrud" />
		<tag k="place" v="farm" />
		<tag k="ssr:stedsnr" v="701996" />
	</node>
	<node lat="60.266566666274734" lon="9.39797222202539" id="-33942">
		<tag k="name" v="Tempelseterfeltet" />
		<tag k="place" v="neighbourhood" />
		<tag k="ssr:stedsnr" v="636392" />
	</node>
	<node lat="60.26939722106139" lon="9.325741674599737" id="-33952">
		<tag k="historic" v="shieling" />
		<tag k="name" v="Jareseter" />
		<tag k="place" v="isolated_dwelling" />
		<tag k="ssr:stedsnr" v="636705" />
	</node>
	<node lat="60.040455558623854" lon="9.653999998789919" id="-33973">
		<tag k="building" v="industrial" />
		<tag k="name" v="Skartum meieri" />
		<tag k="ssr:stedsnr" v="638589" />
	</node>
	<node lat="60.02710000407377" lon="9.620402777964955" id="-33974">
		<tag k="name" v="Hovden" />
		<tag k="place" v="isolated_dwelling" />
		<tag k="ssr:stedsnr" v="638715" />
	</node>
	<node lat="60.035449996020866" lon="9.588636107500648" id="-33976">
		<tag k="name" v="Frydenlund" />
		<tag k="place" v="isolated_dwelling" />
		<tag k="ssr:stedsnr" v="638736" />
	</node>
	<node lat="60.000863887124176" lon="9.749500004833227" id="-33986">
		<tag k="name" v="Mellom-By" />
		<tag k="place" v="farm" />
		<tag k="ssr:stedsnr" v="638883" />
	</node>
	<node lat="60.00093333462781" lon="9.754319437090619" id="-33987">
		<tag k="name" v="Søre By" />
		<tag k="place" v="farm" />
		<tag k="ssr:stedsnr" v="638884" />
	</node>
	<node lat="60.00606944869609" lon="9.738572221705486" id="-33992">
		<tag k="name" v="Nerstad" />
		<tag k="place" v="isolated_dwelling" />
		<tag k="ssr:stedsnr" v="639280" />
	</node>
	<node lat="60.01562777542626" lon="9.556572213890817" id="-33993">
		<tag k="name" v="Howli" />
		<tag k="place" v="isolated_dwelling" />
		<tag k="ssr:stedsnr" v="639282" />
	</node>
	<node lat="60.02001388835444" lon="9.715222217682555" id="-33994">
		<tag k="building" v="industrial" />
		<tag k="name" v="Saga" />
		<tag k="ssr:stedsnr" v="639293" />
	</node>
	<node lat="60.14115833477297" lon="9.444619435490903" id="-34004">
		<tag k="alt_name" v="Søre Stubberud" />
		<tag k="name" v="Stubberud" />
		<tag k="place" v="farm" />
		<tag k="ssr:stedsnr" v="671410" />
	</node>
	<node lat="60.14320555611767" lon="9.449327775449078" id="-34005">
		<tag k="name" v="Åmot" />
		<tag k="place" v="farm" />
		<tag k="ssr:stedsnr" v="671411" />
	</node>
	<node lat="59.97437143937262" lon="9.599947636694303" id="-34007">
		<tag k="fixme" v="consider place=hamlet" />
		<tag k="name" v="Vasslia" />
		<tag k="place" v="farm" />
		<tag k="ssr:stedsnr" v="671812" />
	</node>
	<node lat="59.98191388513009" lon="9.67560832839141" id="-34008">
		<tag k="historic" v="shieling" />
		<tag k="name" v="Kvislesetra" />
		<tag k="place" v="isolated_dwelling" />
		<tag k="ssr:stedsnr" v="671943" />
	</node>
	<node lat="60.039426892180195" lon="9.591342867378454" id="-34011">
		<tag k="fixme" v="consider place=hamlet" />
		<tag k="name" v="Sandsbråtan" />
		<tag k="place" v="farm" />
		<tag k="ssr:stedsnr" v="672063" />
	</node>
	<node lat="60.073295578250494" lon="9.50291580086582" id="-34012">
		<tag k="alt_name" v="Øvre Rud" />
		<tag k="fixme" v="consider place=hamlet" />
		<tag k="name" v="Rud" />
		<tag k="place" v="farm" />
		<tag k="ssr:stedsnr" v="672083" />
	</node>
	<node lat="60.07243888761395" lon="9.473338887365289" id="-34014">
		<tag k="name" v="Sonheim" />
		<tag k="place" v="farm" />
		<tag k="ssr:stedsnr" v="672085" />
	</node>
	<node lat="59.99821944747855" lon="9.762119449802562" id="-34016">
		<tag k="name" v="Vestby" />
		<tag k="place" v="farm" />
		<tag k="ssr:stedsnr" v="671963" />
	</node>
	<node lat="60.24223611521415" lon="9.384347215647328" id="-34018">
		<tag k="name" v="Dalen" />
		<tag k="place" v="farm" />
		<tag k="ssr:stedsnr" v="672278" />
	</node>
	<node lat="60.18568610950459" lon="9.48010833751271" id="-34020">
		<tag k="name" v="Omliplassen" />
		<tag k="place" v="farm" />
		<tag k="ssr:stedsnr" v="672416" />
	</node>
	<node lat="60.11489095228925" lon="9.45732687925886" id="-34021">
		<tag k="fixme" v="consider place=hamlet" />
		<tag k="name" v="Gunnerud" />
		<tag k="place" v="farm" />
		<tag k="ssr:stedsnr" v="672363" />
	</node>
	<node lat="60.01319166653382" lon="9.7909638824851" id="-34023">
		<tag k="alt_name" v="Nordby" />
		<tag k="historic" v="shieling" />
		<tag k="name" v="Nordby-Fillebakkane" />
		<tag k="place" v="isolated_dwelling" />
		<tag k="ssr:stedsnr" v="672967" />
	</node>
	<node lat="60.28956666832832" lon="9.247269440581569" id="-34028">
		<tag k="alt_name" v="Medalen" />
		<tag k="name" v="Nordre Medalen" />
		<tag k="place" v="farm" />
		<tag k="ssr:stedsnr" v="674072" />
	</node>
	<node lat="60.31331388729852" lon="9.158491672603299" id="-34029">
		<tag k="historic" v="shieling" />
		<tag k="name" v="Veslevollen" />
		<tag k="place" v="isolated_dwelling" />
		<tag k="ssr:stedsnr" v="674420" />
	</node>
	<node lat="60.2491388890531" lon="9.301433327622918" id="-34034">
		<tag k="name" v="Bergan" />
		<tag k="place" v="locality" />
		<tag k="ssr:stedsnr" v="696920" />
	</node>
	<node lat="60.12137777891091" lon="9.54466666154845" id="-34077">
		<tag k="name" v="Uksebergstykkene" />
		<tag k="place" v="locality" />
		<tag k="ssr:stedsnr" v="700478" />
	</node>
	<node lat="59.90430150156491" lon="9.731744141744612" id="-34100">
		<tag k="fixme" v="consider place=hamlet" />
		<tag k="name" v="Nævra" />
		<tag k="place" v="farm" />
		<tag k="ssr:stedsnr" v="732815" />
	</node>
	<node lat="59.960952614298215" lon="9.626888432876285" id="-34101">
		<tag k="alt_name" v="Øvre Vatnås" />
		<tag k="name" v="Vatnås" />
		<tag k="place" v="hamlet" />
		<tag k="ssr:stedsnr" v="732795" />
	</node>
	<node lat="60.04514166947475" lon="9.648999991243684" id="-34102">
		<tag k="name" v="Åsen" />
		<tag k="place" v="farm" />
		<tag k="ssr:stedsnr" v="732918" />
	</node>
	<node lat="60.0543055527955" lon="9.604336103525835" id="-34106">
		<tag k="alt_name" v="Vik" />
		<tag k="name" v="Øvre Vik" />
		<tag k="place" v="farm" />
		<tag k="ssr:stedsnr" v="732894" />
	</node>
	<node lat="60.07275277499811" lon="9.523313887654654" id="-34107">
		<tag k="name" v="Oset" />
		<tag k="place" v="farm" />
		<tag k="ssr:stedsnr" v="733094" />
	</node>
	<node lat="60.097461113575534" lon="9.453183333288427" id="-34111">
		<tag k="alt_name" v="Ulberg" />
		<tag k="name" v="Øvre Ulberg" />
		<tag k="place" v="farm" />
		<tag k="ssr:stedsnr" v="733140" />
	</node>
	<node lat="60.232263771826794" lon="9.30713585619776" id="-34114">
		<tag k="fixme" v="consider place=hamlet" />
		<tag k="name" v="Tjernås" />
		<tag k="place" v="farm" />
		<tag k="ssr:stedsnr" v="733251" />
	</node>
	<node lat="60.08260833443965" lon="9.699405551888821" id="-34122">
		<tag k="alt_name" v="Reistadseter" />
		<tag k="historic" v="shieling" />
		<tag k="name" v="Reistadsetra" />
		<tag k="place" v="isolated_dwelling" />
		<tag k="ssr:stedsnr" v="733853" />
	</node>
	<node lat="60.31458888492479" lon="9.302961112767901" id="-34125">
		<tag k="historic" v="shieling" />
		<tag k="name" v="Sandvassetra" />
		<tag k="place" v="isolated_dwelling" />
		<tag k="ssr:stedsnr" v="734036" />
	</node>
	<node lat="60.21969166396788" lon="9.270522228230309" id="-34143">
		<tag k="historic" v="shieling" />
		<tag k="name" v="Storhovdvollen" />
		<tag k="place" v="isolated_dwelling" />
		<tag k="ssr:stedsnr" v="757450" />
	</node>
	<node lat="60.297852774627216" lon="9.236183334209109" id="-34145">
		<tag k="name" v="Jonsbråtan" />
		<tag k="place" v="locality" />
		<tag k="ssr:stedsnr" v="758102" />
	</node>
	<node lat="60.13585555470835" lon="9.423138882624981" id="-34158">
		<tag k="name" v="Brustedstykket" />
		<tag k="place" v="locality" />
		<tag k="ssr:stedsnr" v="759308" />
	</node>
	<node lat="60.14045555252086" lon="9.43193889110143" id="-34159">
		<tag k="name" v="Nedre Bergerud" />
		<tag k="place" v="farm" />
		<tag k="ssr:stedsnr" v="759310" />
	</node>
	<node lat="60.045347219188045" lon="9.67643888533567" id="-34184">
		<tag k="alt_name" v="Plassene" />
		<tag k="name" v="Nedre Reistad" />
		<tag k="place" v="farm" />
		<tag k="ssr:stedsnr" v="760605" />
	</node>
	<node lat="60.04032500415538" lon="9.673475008873353" id="-34185">
		<tag k="name" v="Fagernes" />
		<tag k="place" v="isolated_dwelling" />
		<tag k="ssr:stedsnr" v="760608" />
	</node>
	<node lat="60.03745277951828" lon="9.65110000009627" id="-34189">
		<tag k="name" v="Skogli" />
		<tag k="place" v="farm" />
		<tag k="ssr:stedsnr" v="760659" />
	</node>
	<node lat="60.03878889172356" lon="9.644488886994042" id="-34190">
		<tag k="name" v="Lund" />
		<tag k="place" v="isolated_dwelling" />
		<tag k="ssr:stedsnr" v="760660" />
	</node>
	<node lat="60.039652774927674" lon="9.648050000674509" id="-34191">
		<tag k="name" v="Østre Ebbesberg" />
		<tag k="place" v="farm" />
		<tag k="ssr:stedsnr" v="760661" />
	</node>
	<node lat="60.044530552904796" lon="9.603133325078238" id="-34196">
		<tag k="name" v="Bjørnsjordet" />
		<tag k="place" v="farm" />
		<tag k="ssr:stedsnr" v="760756" />
	</node>
	<node lat="60.07895555863926" lon="9.747002769251786" id="-34199">
		<tag k="name" v="Østre Finnerud" />
		<tag k="place" v="farm" />
		<tag k="ssr:stedsnr" v="760906" />
	</node>
	<node lat="60.070122222822896" lon="9.647166664289298" id="-34206">
		<tag k="name" v="Persbu" />
		<tag k="place" v="isolated_dwelling" />
		<tag k="ssr:stedsnr" v="761492" />
	</node>
	<node lat="59.920520844668744" lon="9.684137078149375" id="-34210">
		<tag k="name" v="Ingebu" />
		<tag k="place" v="hamlet" />
		<tag k="ssr:stedsnr" v="908154" />
	</node>
	<node lat="59.98544118362837" lon="9.587388817436334" id="-34214">
		<tag k="alt_name" v="Øvre Nordli" />
		<tag k="fixme" v="consider place=hamlet" />
		<tag k="name" v="Nordli" />
		<tag k="place" v="farm" />
		<tag k="ssr:stedsnr" v="792288" />
	</node>
	<node lat="60.00204999744988" lon="9.586911116652782" id="-34216">
		<tag k="historic" v="shieling" />
		<tag k="name" v="Øverbysetra" />
		<tag k="place" v="isolated_dwelling" />
		<tag k="ssr:stedsnr" v="793003" />
	</node>
	<node lat="60.12332847517612" lon="9.443652268189608" id="-34219">
		<tag k="alt_name" v="Nedre Tveiten" />
		<tag k="fixme" v="consider place=hamlet" />
		<tag k="name" v="Tveiten" />
		<tag k="place" v="farm" />
		<tag k="ssr:stedsnr" v="793395" />
	</node>
	<node lat="60.22009722512045" lon="9.32464167220421" id="-34223">
		<tag k="alt_name" v="Grøndalsetra" />
		<tag k="historic" v="shieling" />
		<tag k="name" v="Grøndalseter" />
		<tag k="place" v="isolated_dwelling" />
		<tag k="ssr:stedsnr" v="793279" />
	</node>
	<node lat="60.115391665533465" lon="9.502783327518003" id="-34227">
		<tag k="name" v="Flatlihytta" />
		<tag k="place" v="isolated_dwelling" />
		<tag k="ssr:stedsnr" v="793418" />
	</node>
	<node lat="60.0505611078848" lon="9.60022776924918" id="-34228">
		<tag k="name" v="Viksbråtan" />
		<tag k="place" v="farm" />
		<tag k="ssr:stedsnr" v="793906" />
	</node>
	<node lat="59.987634846673" lon="9.761013204006977" id="-34229">
		<tag k="alt_name" v="Øvre Skyliholt" />
		<tag k="fixme" v="consider place=hamlet" />
		<tag k="name" v="Skyliholt" />
		<tag k="place" v="farm" />
		<tag k="ssr:stedsnr" v="793969" />
	</node>
	<node lat="59.9847444478076" lon="9.761541668209722" id="-34230">
		<tag k="name" v="Solberg" />
		<tag k="place" v="farm" />
		<tag k="ssr:stedsnr" v="793970" />
	</node>
	<node lat="60.25390000251192" lon="9.298280553925668" id="-34234">
		<tag k="name" v="Nerum" />
		<tag k="place" v="farm" />
		<tag k="ssr:stedsnr" v="795910" />
	</node>
	<node lat="59.95494124290124" lon="9.808542950438747" id="-34242">
		<tag k="alt_name" v="Nordre Nes" />
		<tag k="name" v="Nes" />
		<tag k="place" v="hamlet" />
		<tag k="ssr:stedsnr" v="914762" />
	</node>
	<node lat="59.98857007269248" lon="9.769167062162866" id="-34243">
		<tag k="fixme" v="consider place=hamlet" />
		<tag k="name" v="Dalen" />
		<tag k="place" v="farm" />
		<tag k="ssr:stedsnr" v="914955" />
	</node>
	<node lat="59.997897223169296" lon="9.600730550024508" id="-34245">
		<tag k="historic" v="shieling" />
		<tag k="name" v="Rolstadsetra" />
		<tag k="place" v="isolated_dwelling" />
		<tag k="ssr:stedsnr" v="914973" />
	</node>
	<node lat="60.09853055891924" lon="9.521600002021074" id="-34251">
		<tag k="name" v="Lia" />
		<tag k="place" v="farm" />
		<tag k="ssr:stedsnr" v="915113" />
	</node>
	<node lat="60.23549166259099" lon="9.344919440667644" id="-34254">
		<tag k="name" v="Vik" />
		<tag k="place" v="farm" />
		<tag k="ssr:stedsnr" v="915251" />
	</node>
	<node lat="60.17260902295964" lon="9.388901357993166" id="-34258">
		<tag k="alt_name" v="Øvre Grønhovd" />
		<tag k="name" v="Grønhovd" />
		<tag k="place" v="hamlet" />
		<tag k="ssr:stedsnr" v="915433" />
	</node>
	<node lat="60.16473611012739" lon="9.375983338908421" id="-34259">
		<tag k="name" v="Maribråtan" />
		<tag k="place" v="farm" />
		<tag k="ssr:stedsnr" v="915434" />
	</node>
	<node lat="60.03182304733732" lon="9.6657737671391" id="-34262">
		<tag k="fixme" v="consider place=hamlet" />
		<tag k="name" v="Trøseng" />
		<tag k="place" v="farm" />
		<tag k="ssr:stedsnr" v="915933" />
	</node>
	<node lat="60.02257221930922" lon="9.691919443693566" id="-34264">
		<tag k="name" v="Nordre Langerud" />
		<tag k="place" v="farm" />
		<tag k="ssr:stedsnr" v="915946" />
	</node>
	<node lat="60.25008888626951" lon="9.35867222847595" id="-34277">
		<tag k="name" v="Elvom" />
		<tag k="place" v="isolated_dwelling" />
		<tag k="ssr:stedsnr" v="819121" />
	</node>
	<node lat="60.21367222654424" lon="9.35000277032828" id="-34284">
		<tag k="historic" v="shieling" />
		<tag k="name" v="Juvsrønningen" />
		<tag k="place" v="isolated_dwelling" />
		<tag k="ssr:stedsnr" v="819887" />
	</node>
	<node lat="60.09670277965725" lon="9.47017499770001" id="-34305">
		<tag k="name" v="Nordre Albjørk" />
		<tag k="place" v="farm" />
		<tag k="ssr:stedsnr" v="821326" />
	</node>
	<node lat="59.96463611395642" lon="9.779441671712197" id="-34306">
		<tag k="name" v="Bergerud" />
		<tag k="place" v="farm" />
		<tag k="ssr:stedsnr" v="821413" />
	</node>
	<node lat="59.95665833217057" lon="9.655016664827237" id="-34309">
		<tag k="name" v="Nedre Grønset" />
		<tag k="place" v="farm" />
		<tag k="ssr:stedsnr" v="821478" />
	</node>
	<node lat="60.04930833707585" lon="9.64321388818606" id="-34311">
		<tag k="name" v="Nedre Haugen" />
		<tag k="place" v="farm" />
		<tag k="ssr:stedsnr" v="821503" />
	</node>
	<node lat="59.980586114548" lon="9.770747219883576" id="-34312">
		<tag k="name" v="Åsgarden" />
		<tag k="place" v="isolated_dwelling" />
		<tag k="ssr:stedsnr" v="821580" />
	</node>
	<node lat="60.0805916702223" lon="9.497299995642535" id="-34313">
		<tag k="name" v="Østre Blekaberg" />
		<tag k="place" v="farm" />
		<tag k="ssr:stedsnr" v="821583" />
	</node>
	<node lat="60.094377779204585" lon="9.516544445930522" id="-34324">
		<tag k="name" v="Mohagan" />
		<tag k="place" v="farm" />
		<tag k="ssr:stedsnr" v="821917" />
	</node>
	<node lat="60.03978889172205" lon="9.696638896402678" id="-34327">
		<tag k="name" v="Søre Kroken" />
		<tag k="place" v="farm" />
		<tag k="ssr:stedsnr" v="821991" />
	</node>
	<node lat="59.97049722305522" lon="9.60494166252244" id="-34330">
		<tag k="name" v="Åsen" />
		<tag k="place" v="isolated_dwelling" />
		<tag k="ssr:stedsnr" v="853805" />
	</node>
	<node lat="60.06026111481432" lon="9.532672221238192" id="-34333">
		<tag k="name" v="Saueton" />
		<tag k="place" v="farm" />
		<tag k="ssr:stedsnr" v="854054" />
	</node>
	<node lat="60.06096111517366" lon="9.518169437208545" id="-34334">
		<tag k="name" v="Stubberud" />
		<tag k="place" v="farm" />
		<tag k="ssr:stedsnr" v="854056" />
	</node>
	<node lat="60.13948649598317" lon="9.52448127063569" id="-34338">
		<tag k="name" v="Albjørksetra" />
		<tag k="place" v="locality" />
		<tag k="ssr:stedsnr" v="854414" />
	</node>
	<node lat="60.13165277765609" lon="9.569258341734496" id="-34340">
		<tag k="historic" v="shieling" />
		<tag k="name" v="Hagansetra" />
		<tag k="place" v="isolated_dwelling" />
		<tag k="ssr:stedsnr" v="854425" />
	</node>
	<node lat="59.94550049789673" lon="9.645996953528915" id="-34344">
		<tag k="name" v="Grønvoll" />
		<tag k="place" v="isolated_dwelling" />
		<tag k="ssr:stedsnr" v="854748" />
	</node>
	<node lat="59.94509722334669" lon="9.656941674790303" id="-34345">
		<tag k="alt_name" v="Trondlia" />
		<tag k="name" v="Tronlia" />
		<tag k="place" v="isolated_dwelling" />
		<tag k="ssr:stedsnr" v="854750" />
	</node>
	<node lat="59.98869722229732" lon="9.695766661691698" id="-34350">
		<tag k="historic" v="shieling" />
		<tag k="name" v="Velstadsetra" />
		<tag k="place" v="isolated_dwelling" />
		<tag k="ssr:stedsnr" v="854955" />
	</node>
	<node lat="59.99315000118062" lon="9.751927781341383" id="-34351">
		<tag k="name" v="Lyubråtan" />
		<tag k="place" v="farm" />
		<tag k="ssr:stedsnr" v="854956" />
	</node>
	<node lat="59.998991573435056" lon="9.75726687998814" id="-34352">
		<tag k="alt_name" v="Søre Jokstad" />
		<tag k="fixme" v="consider place=hamlet" />
		<tag k="name" v="Jokstad" />
		<tag k="place" v="farm" />
		<tag k="ssr:stedsnr" v="854959" />
	</node>
	<node lat="60.01635555304937" lon="9.724419447303086" id="-34353">
		<tag k="name" v="Hovlandsmoen" />
		<tag k="place" v="farm" />
		<tag k="ssr:stedsnr" v="854961" />
	</node>
	<node lat="60.01315277744329" lon="9.69891667098805" id="-34354">
		<tag k="name" v="Elverum" />
		<tag k="place" v="farm" />
		<tag k="ssr:stedsnr" v="854964" />
	</node>
	<node lat="60.14613333160883" lon="9.29349166583334" id="-34357">
		<tag k="fixme" v="multiple name tags, choose one and add the other to alt_name" />
		<tag k="historic" v="shieling" />
		<tag k="name" v="Venli;Venlisetra" />
		<tag k="old_name" v="Venlis-r" />
		<tag k="place" v="isolated_dwelling" />
		<tag k="ssr:stedsnr" v="855403" />
	</node>
	<node lat="60.26963674735977" lon="9.35577362283984" id="-34360">
		<tag k="fixme" v="multiple name tags, choose one and add the other to alt_name" />
		<tag k="historic" v="shieling" />
		<tag k="name" v="Bergsetra;Nisetra" />
		<tag k="place" v="isolated_dwelling" />
		<tag k="ssr:stedsnr" v="856091" />
	</node>
	<node lat="60.26236944066473" lon="9.289411110162511" id="-34361">
		<tag k="name" v="Flaget" />
		<tag k="place" v="farm" />
		<tag k="ssr:stedsnr" v="856099" />
	</node>
	<node lat="60.26088702577115" lon="9.312619398697803" id="-34362">
		<tag k="fixme" v="consider place=hamlet" />
		<tag k="name" v="Jare" />
		<tag k="place" v="farm" />
		<tag k="ssr:stedsnr" v="856102" />
	</node>
	<node lat="60.25414999885842" lon="9.305349993449905" id="-34364">
		<tag k="name" v="Rust" />
		<tag k="place" v="farm" />
		<tag k="ssr:stedsnr" v="856932" />
	</node>
	<node lat="60.239425001453384" lon="9.301777783096036" id="-34373">
		<tag k="name" v="Midtstykket" />
		<tag k="place" v="locality" />
		<tag k="ssr:stedsnr" v="879562" />
	</node>
	<node lat="60.24692499873373" lon="9.32676111695585" id="-34377">
		<tag k="name" v="Saghølen" />
		<tag k="place" v="locality" />
		<tag k="ssr:stedsnr" v="880101" />
	</node>
	<node lat="60.13282777770022" lon="9.429197230809722" id="-34378">
		<tag k="name" v="Øvre Enger" />
		<tag k="place" v="farm" />
		<tag k="ssr:stedsnr" v="880304" />
	</node>
	<node lat="59.96387777514126" lon="9.683374994283046" id="-34419">
		<tag k="name" v="Hovet" />
		<tag k="place" v="locality" />
		<tag k="ssr:stedsnr" v="882410" />
	</node>
	<node lat="59.98234444331659" lon="9.737252773912179" id="-34424">
		<tag k="name" v="Søre Kvisle" />
		<tag k="place" v="farm" />
		<tag k="ssr:stedsnr" v="882503" />
	</node>
	<node lat="59.988727779243405" lon="9.758222214102913" id="-34426">
		<tag k="name" v="Nedre Skyliholt" />
		<tag k="place" v="farm" />
		<tag k="ssr:stedsnr" v="882516" />
	</node>
	<node lat="59.95633333342939" lon="9.803697224089753" id="-34429">
		<tag k="name" v="Nestangen" />
		<tag k="place" v="farm" />
		<tag k="ssr:stedsnr" v="882562" />
	</node>
	<node lat="60.056216669633095" lon="9.599505561962543" id="-34437">
		<tag k="name" v="Sandmoen" />
		<tag k="place" v="isolated_dwelling" />
		<tag k="ssr:stedsnr" v="882667" />
	</node>
	<node lat="59.979629542921685" lon="9.760489503423841" id="-34448">
		<tag k="fixme" v="consider place=hamlet" />
		<tag k="name" v="Kolsrud" />
		<tag k="place" v="farm" />
		<tag k="ssr:stedsnr" v="914805" />
	</node>
	<node lat="60.04489149327738" lon="9.652651615566718" id="-34450">
		<tag k="fixme" v="consider place=hamlet" />
		<tag k="name" v="Skartum" />
		<tag k="place" v="farm" />
		<tag k="ssr:stedsnr" v="914921" />
	</node>
	<node lat="60.009822219878934" lon="9.794291666201797" id="-34459">
		<tag k="alt_name" v="Sørby" />
		<tag k="historic" v="shieling" />
		<tag k="name" v="Sørby-Fillebakkane" />
		<tag k="place" v="isolated_dwelling" />
		<tag k="ssr:stedsnr" v="915974" />
	</node>
	<node lat="60.00856944290468" lon="9.73136944801608" id="-34460">
		<tag k="name" v="Flattum" />
		<tag k="place" v="farm" />
		<tag k="ssr:stedsnr" v="915980" />
	</node>
	<node lat="60.282691389432365" lon="9.253613643720069" id="-34462">
		<tag k="name" v="Baklimoen" />
		<tag k="place" v="locality" />
		<tag k="ssr:stedsnr" v="916080" />
	</node>
	<node lat="60.29002222656522" lon="9.197686117627255" id="-34465">
		<tag k="alt_name" v="Sollilangsetra" />
		<tag k="name" v="Solli langseter" />
		<tag k="place" v="locality" />
		<tag k="ssr:stedsnr" v="916487" />
	</node>
	<node lat="60.269266666652726" lon="9.263544443106381" id="-34466">
		<tag k="alt_name" v="Bråtan" />
		<tag k="name" v="Søre Bråtan" />
		<tag k="place" v="farm" />
		<tag k="ssr:stedsnr" v="917103" />
	</node>
	<node lat="60.247397225677595" lon="9.320869442865739" id="-34471">
		<tag k="name" v="Kvenna" />
		<tag k="place" v="locality" />
		<tag k="ssr:stedsnr" v="940112" />
	</node>
	<node lat="60.04845124824167" lon="9.689958987788344" id="-34474">
		<tag k="fixme" v="consider place=hamlet" />
		<tag k="name" v="Reistad" />
		<tag k="place" v="farm" />
		<tag k="ssr:stedsnr" v="968318" />
	</node>
	<node lat="60.00150118037889" lon="9.752524744166363" id="-34476">
		<tag k="fixme" v="consider place=hamlet" />
		<tag k="name" v="By" />
		<tag k="place" v="farm" />
		<tag k="ssr:stedsnr" v="974341" />
	</node>
	<node lat="60.03632992715836" lon="9.579867836627125" id="-34477">
		<tag k="name" v="Berget" />
		<tag k="place" v="farm" />
		<tag k="ssr:stedsnr" v="975553" />
	</node>
	<node lat="60.0988509532072" lon="9.45608465293388" id="-34479">
		<tag k="name" v="Ulberg" />
		<tag k="place" v="hamlet" />
		<tag k="ssr:stedsnr" v="978479" />
	</node>
	<node lat="60.10344350382976" lon="9.46756685121656" id="-34480">
		<tag k="alt_name" v="Narum" />
		<tag k="name" v="Nareim" />
		<tag k="place" v="farm" />
		<tag k="ssr:stedsnr" v="978475" />
	</node>
	<node lat="60.042074619733526" lon="9.6262710147185" id="-34481">
		<tag k="name" v="Fjordnes" />
		<tag k="place" v="farm" />
		<tag k="ssr:stedsnr" v="978480" />
	</node>
	<node lat="60.173332067210495" lon="9.393492854626357" id="-34484">
		<tag k="name" v="Søre Grønhovd" />
		<tag k="old_name" v="Nedre Grønhovd" />
		<tag k="place" v="farm" />
		<tag k="ssr:stedsnr" v="980980" />
	</node>
	<node lat="60.21798610818782" lon="9.2677694518262" id="-34491">
		<tag k="fixme" v="multiple name tags, choose one and add the other to alt_name" />
		<tag k="name" v="Storhovden;Storhovdesetra" />
		<tag k="place" v="locality" />
		<tag k="ssr:stedsnr" v="4268" />
	</node>
	<node lat="60.21892500447477" lon="9.42481389371104" id="-34492">
		<tag k="historic" v="shieling" />
		<tag k="name" v="Nordre Gampeløksetra" />
		<tag k="place" v="isolated_dwelling" />
		<tag k="ssr:stedsnr" v="4262" />
	</node>
	<node lat="59.950072226323464" lon="9.633341662050979" id="-34499">
		<tag k="alt_name" v="Klampeli" />
		<tag k="name" v="Klampelia" />
		<tag k="place" v="farm" />
		<tag k="ssr:stedsnr" v="4799" />
	</node>
	<node lat="60.23999166617042" lon="9.257958336430162" id="-34504">
		<tag k="fixme" v="consider place=hamlet" />
		<tag k="name" v="Vestbygda" />
		<tag k="place" v="village" />
		<tag k="ssr:stedsnr" v="5281" />
	</node>
	<node lat="60.23745555182885" lon="9.382575004066021" id="-34506">
		<tag k="name" v="Finnebråtan" />
		<tag k="place" v="farm" />
		<tag k="ssr:stedsnr" v="5293" />
	</node>
	<node lat="60.24544444427422" lon="9.296997213646593" id="-34509">
		<tag k="name" v="Røysland" />
		<tag k="place" v="farm" />
		<tag k="ssr:stedsnr" v="5299" />
	</node>
	<node lat="60.07831944856361" lon="9.668675001503399" id="-34515">
		<tag k="historic" v="shieling" />
		<tag k="name" v="Haugansetra" />
		<tag k="place" v="isolated_dwelling" />
		<tag k="ssr:stedsnr" v="5833" />
	</node>
	<node lat="60.31177500290762" lon="9.353025002519825" id="-34519">
		<tag k="historic" v="shieling" />
		<tag k="name" v="Holmevassetra" />
		<tag k="place" v="isolated_dwelling" />
		<tag k="ssr:stedsnr" v="6054" />
	</node>
	<node lat="60.251272220957645" lon="9.268572220968876" id="-34523">
		<tag k="name" v="Solli" />
		<tag k="place" v="locality" />
		<tag k="ssr:stedsnr" v="6919" />
	</node>
	<node lat="60.2526166665083" lon="9.334275008447893" id="-34524">
		<tag k="name" v="Nordre Rugland" />
		<tag k="place" v="farm" />
		<tag k="ssr:stedsnr" v="6920" />
	</node>
	<node lat="60.252463886453604" lon="9.342902785109061" id="-34525">
		<tag k="name" v="Søre Rugland" />
		<tag k="place" v="farm" />
		<tag k="ssr:stedsnr" v="6921" />
	</node>
	<node lat="60.26123611309002" lon="9.373147227620978" id="-34547">
		<tag k="name" v="Sleggeberga" />
		<tag k="place" v="neighbourhood" />
		<tag k="ssr:stedsnr" v="30024" />
	</node>
	<node lat="60.27174999647507" lon="9.407472227052837" id="-34566">
		<tag k="historic" v="shieling" />
		<tag k="name" v="Besserudseter" />
		<tag k="place" v="isolated_dwelling" />
		<tag k="ssr:stedsnr" v="30483" />
	</node>
	<node lat="60.14403055726137" lon="9.445122221429123" id="-34582">
		<tag k="name" v="Nordre Stubberud" />
		<tag k="place" v="farm" />
		<tag k="ssr:stedsnr" v="31481" />
	</node>
	<node lat="60.0428444453121" lon="9.678741660680256" id="-34602">
		<tag k="name" v="Grønli" />
		<tag k="place" v="locality" />
		<tag k="ssr:stedsnr" v="32568" />
	</node>
	<node lat="60.03534342401659" lon="9.578173332048266" id="-34607">
		<tag k="name" v="Bergerud" />
		<tag k="place" v="farm" />
		<tag k="ssr:stedsnr" v="32706" />
	</node>
	<node lat="59.947358337774475" lon="9.700338894446157" id="-34610">
		<tag k="historic" v="shieling" />
		<tag k="name" v="Løkvoll" />
		<tag k="place" v="isolated_dwelling" />
		<tag k="ssr:stedsnr" v="32530" />
	</node>
	<node lat="59.98582500370415" lon="9.750300002753415" id="-34612">
		<tag k="building" v="industrial" />
		<tag k="name" v="Mølle" />
		<tag k="ssr:stedsnr" v="32548" />
	</node>
	<node lat="60.03823332894555" lon="9.646822228331693" id="-34614">
		<tag k="name" v="Vestre Ebbesberg" />
		<tag k="place" v="farm" />
		<tag k="ssr:stedsnr" v="32627" />
	</node>
	<node lat="59.95351944233897" lon="9.809572216806707" id="-34616">
		<tag k="name" v="Søre Mellom-Nes" />
		<tag k="place" v="farm" />
		<tag k="ssr:stedsnr" v="32642" />
	</node>
	<node lat="60.018036112129614" lon="9.698550007278788" id="-34618">
		<tag k="name" v="Skorta" />
		<tag k="place" v="isolated_dwelling" />
		<tag k="ssr:stedsnr" v="32743" />
	</node>
	<node lat="60.05758659092991" lon="9.624641415556482" id="-34625">
		<tag k="name" v="Rullerud" />
		<tag k="place" v="isolated_dwelling" />
		<tag k="ssr:stedsnr" v="32760" />
	</node>
	<node lat="59.95723770157849" lon="9.758299741843347" id="-34636">
		<tag k="name" v="Åby" />
		<tag k="place" v="hamlet" />
		<tag k="ssr:stedsnr" v="64799" />
	</node>
	<node lat="60.10360120019368" lon="9.467794903969542" id="-34639">
		<tag k="fixme" v="consider place=hamlet" />
		<tag k="name" v="Narum" />
		<tag k="place" v="farm" />
		<tag k="ssr:stedsnr" v="65385" />
	</node>
	<node lat="60.10222221984066" lon="9.5851555578721" id="-34641">
		<tag k="alt_name" v="Kvistoppsetra" />
		<tag k="name" v="Kvistoppseter" />
		<tag k="place" v="isolated_dwelling" />
		<tag k="ssr:stedsnr" v="65389" />
	</node>
	<node lat="60.13263611192581" lon="9.390816661274247" id="-34642">
		<tag k="historic" v="shieling" />
		<tag k="name" v="Bergerudsetra" />
		<tag k="place" v="isolated_dwelling" />
		<tag k="ssr:stedsnr" v="65419" />
	</node>
	<node lat="60.18713559419969" lon="9.482425114860678" id="-34644">
		<tag k="fixme" v="consider place=hamlet" />
		<tag k="name" v="Omlia" />
		<tag k="place" v="farm" />
		<tag k="ssr:stedsnr" v="65429" />
	</node>
	<node lat="60.21368333149779" lon="9.371452773008214" id="-34646">
		<tag k="name" v="Ertesprang" />
		<tag k="place" v="farm" />
		<tag k="ssr:stedsnr" v="65463" />
	</node>
	<node lat="60.00355555136673" lon="9.758000007437875" id="-34650">
		<tag k="fixme" v="multiple name tags, choose one and add the other to alt_name" />
		<tag k="name" v="Byhovet;Øvre By" />
		<tag k="place" v="farm" />
		<tag k="ssr:stedsnr" v="65972" />
	</node>
	<node lat="60.002438885521315" lon="9.753827780733557" id="-34651">
		<tag k="alt_name" v="By" />
		<tag k="name" v="Nordre By" />
		<tag k="place" v="farm" />
		<tag k="ssr:stedsnr" v="65977" />
	</node>
	<node lat="60.091174997652146" lon="9.520336106384757" id="-34652">
		<tag k="name" v="Lesteberg" />
		<tag k="place" v="farm" />
		<tag k="ssr:stedsnr" v="66110" />
	</node>
	<node lat="60.045427773722764" lon="9.58128334065372" id="-34653">
		<tag k="name" v="Paddegropa" />
		<tag k="place" v="isolated_dwelling" />
		<tag k="ssr:stedsnr" v="66060" />
	</node>
	<node lat="60.22928611158309" lon="9.409216662332309" id="-34655">
		<tag k="historic" v="shieling" />
		<tag k="name" v="Torrud" />
		<tag k="place" v="isolated_dwelling" />
		<tag k="ssr:stedsnr" v="66239" />
	</node>
	<node lat="60.08246944727794" lon="9.650213890838" id="-34656">
		<tag k="name" v="Holmensetra" />
		<tag k="place" v="locality" />
		<tag k="ssr:stedsnr" v="66842" />
	</node>
	<node lat="60.28564999561073" lon="9.214002785462615" id="-34662">
		<tag k="historic" v="shieling" />
		<tag k="name" v="Miset" />
		<tag k="place" v="isolated_dwelling" />
		<tag k="ssr:stedsnr" v="67283" />
	</node>
	<node lat="60.28234991098318" lon="9.261830408171297" id="-34663">
		<tag k="alt_name" v="Nordre Ligarden" />
		<tag k="fixme" v="consider place=hamlet" />
		<tag k="name" v="Ligarden" />
		<tag k="place" v="farm" />
		<tag k="ssr:stedsnr" v="67089" />
	</node>
	<node lat="60.27714721984814" lon="9.224497220264288" id="-34664">
		<tag k="fixme" v="multiple name tags, choose one and add the other to alt_name" />
		<tag k="name" v="Solli heimseter;Sollisetra" />
		<tag k="place" v="locality" />
		<tag k="ssr:stedsnr" v="67091" />
	</node>
	<node lat="60.25034444571739" lon="9.435941659944158" id="-34668">
		<tag k="alt_name" v="Bjertnesseter" />
		<tag k="historic" v="shieling" />
		<tag k="name" v="Bjertnessetra" />
		<tag k="place" v="isolated_dwelling" />
		<tag k="ssr:stedsnr" v="67917" />
	</node>
	<node lat="60.25059734609454" lon="9.275698626678091" id="-34680">
		<tag k="name" v="Gamlerødningen" />
		<tag k="place" v="locality" />
		<tag k="ssr:stedsnr" v="90872" />
	</node>
	<node lat="60.24278333159427" lon="9.28966666531168" id="-34687">
		<tag k="name" v="Nedre Skåla" />
		<tag k="place" v="farm" />
		<tag k="ssr:stedsnr" v="90895" />
	</node>
	<node lat="60.136408335650685" lon="9.447649998841396" id="-34698">
		<tag k="name" v="Østerøya" />
		<tag k="place" v="isolated_dwelling" />
		<tag k="ssr:stedsnr" v="91382" />
	</node>
	<node lat="60.2364555542072" lon="9.3296388860534" id="-34709">
		<tag k="name" v="Fram-Søland" />
		<tag k="place" v="farm" />
		<tag k="ssr:stedsnr" v="91832" />
	</node>
	<node lat="60.03486110795472" lon="9.601755549235548" id="-34716">
		<tag k="name" v="Korsen" />
		<tag k="place" v="locality" />
		<tag k="ssr:stedsnr" v="93595" />
	</node>
	<node lat="60.04248889053004" lon="9.602466669615609" id="-34717">
		<tag k="name" v="Lille-Sund" />
		<tag k="place" v="farm" />
		<tag k="ssr:stedsnr" v="93598" />
	</node>
	<node lat="59.98143333578007" lon="9.681769450056322" id="-34723">
		<tag k="name" v="Gamlemannstykket" />
		<tag k="place" v="locality" />
		<tag k="ssr:stedsnr" v="93123" />
	</node>
	<node lat="59.98504722089314" lon="9.588694439536312" id="-34736">
		<tag k="name" v="Nedre Nordli" />
		<tag k="place" v="farm" />
		<tag k="ssr:stedsnr" v="93093" />
	</node>
	<node lat="60.08600277966982" lon="9.67319167366217" id="-34743">
		<tag k="name" v="Kroktjennhytta" />
		<tag k="place" v="isolated_dwelling" />
		<tag k="ssr:stedsnr" v="93358" />
	</node>
	<node lat="60.041561113963304" lon="9.67653889168934" id="-34750">
		<tag k="name" v="Granheim" />
		<tag k="place" v="isolated_dwelling" />
		<tag k="ssr:stedsnr" v="93530" />
	</node>
	<node lat="60.114270982602115" lon="9.607262925931112" id="-34754">
		<tag k="name" v="Øyvassbu" />
		<tag k="place" v="locality" />
		<tag k="ssr:stedsnr" v="93476" />
	</node>
	<node lat="60.07983610965302" lon="9.525930552897103" id="-34755">
		<tag k="name" v="Bekken" />
		<tag k="place" v="farm" />
		<tag k="ssr:stedsnr" v="93493" />
	</node>
	<node lat="60.02703611528832" lon="9.586074992110635" id="-34774">
		<tag k="name" v="Torstenrud" />
		<tag k="place" v="isolated_dwelling" />
		<tag k="ssr:stedsnr" v="125037" />
	</node>
	<node lat="60.245291964152365" lon="9.337816186231354" id="-34780">
		<tag k="fixme" v="consider place=hamlet" />
		<tag k="name" v="Frøvoll" />
		<tag k="place" v="farm" />
		<tag k="ssr:stedsnr" v="126290" />
	</node>
	<node lat="60.24819722014223" lon="9.315900003546208" id="-34781">
		<tag k="name" v="Evju" />
		<tag k="place" v="farm" />
		<tag k="ssr:stedsnr" v="126292" />
	</node>
	<node lat="60.24120278076226" lon="9.272508339873816" id="-34782">
		<tag k="name" v="Båsen" />
		<tag k="place" v="farm" />
		<tag k="ssr:stedsnr" v="126293" />
	</node>
	<node lat="59.94176110860625" lon="9.711191665011137" id="-34785">
		<tag k="name" v="Herbrandsmoen" />
		<tag k="place" v="isolated_dwelling" />
		<tag k="ssr:stedsnr" v="125780" />
	</node>
	<node lat="60.079711659687106" lon="9.745089192765748" id="-34787">
		<tag k="alt_name" v="Vestre Finnerud" />
		<tag k="fixme" v="consider place=hamlet" />
		<tag k="name" v="Finnerud" />
		<tag k="place" v="farm" />
		<tag k="ssr:stedsnr" v="126867" />
	</node>
	<node lat="60.03909066893865" lon="9.568074466197457" id="-34793">
		<tag k="fixme" v="consider place=hamlet" />
		<tag k="name" v="Grasvik" />
		<tag k="place" v="farm" />
		<tag k="ssr:stedsnr" v="126035" />
	</node>
	<node lat="60.194816665034935" lon="9.280080555206533" id="-34797">
		<tag k="name" v="Søtelisetra" />
		<tag k="place" v="locality" />
		<tag k="ssr:stedsnr" v="126491" />
	</node>
	<node lat="60.00971085266476" lon="9.744291650341511" id="-34798">
		<tag k="alt_name" v="Søre Støvern" />
		<tag k="name" v="Støvern" />
		<tag k="place" v="hamlet" />
		<tag k="ssr:stedsnr" v="126957" />
	</node>
	<node lat="60.01621388845381" lon="9.692577772455301" id="-34802">
		<tag k="alt_name" v="Langerudmoen" />
		<tag k="name" v="Langerudsmoen" />
		<tag k="place" v="farm" />
		<tag k="ssr:stedsnr" v="126963" />
	</node>
	<node lat="60.010461109318015" lon="9.71369167220889" id="-34803">
		<tag k="name" v="Velstadbråtan" />
		<tag k="place" v="farm" />
		<tag k="ssr:stedsnr" v="126974" />
	</node>
	<node lat="60.001986110241546" lon="9.729436106044695" id="-34804">
		<tag k="name" v="Nordre Tovsrud" />
		<tag k="place" v="farm" />
		<tag k="ssr:stedsnr" v="126977" />
	</node>
	<node lat="60.30858610750879" lon="9.15055832740407" id="-34808">
		<tag k="alt_name" v="Nedre Reset" />
		<tag k="historic" v="shieling" />
		<tag k="name" v="Reset" />
		<tag k="place" v="isolated_dwelling" />
		<tag k="ssr:stedsnr" v="127481" />
	</node>
	<node lat="60.25722991208996" lon="9.336109990834972" id="-34809">
		<tag k="fixme" v="consider place=hamlet" />
		<tag k="name" v="Åsland" />
		<tag k="place" v="farm" />
		<tag k="ssr:stedsnr" v="127924" />
	</node>
	<node lat="60.23735833032232" lon="9.248141669135707" id="-34816">
		<tag k="name" v="Gulhusa" />
		<tag k="place" v="locality" />
		<tag k="ssr:stedsnr" v="150100" />
	</node>
	<node lat="60.249675003565635" lon="9.3198888955654" id="-34832">
		<tag k="name" v="Bjørkerud" />
		<tag k="place" v="isolated_dwelling" />
		<tag k="ssr:stedsnr" v="151113" />
	</node>
	<node lat="60.256930552058016" lon="9.415719439027182" id="-34838">
		<tag k="historic" v="shieling" />
		<tag k="name" v="Moheimseter" />
		<tag k="place" v="isolated_dwelling" />
		<tag k="ssr:stedsnr" v="151151" />
	</node>
	<node lat="60.3218555569507" lon="9.20126111102089" id="-34842">
		<tag k="historic" v="shieling" />
		<tag k="name" v="Nord-Buin" />
		<tag k="place" v="isolated_dwelling" />
		<tag k="ssr:stedsnr" v="151087" />
	</node>
	<node lat="60.31276388539656" lon="9.206769453194898" id="-34844">
		<tag k="historic" v="shieling" />
		<tag k="name" v="Fekjan" />
		<tag k="place" v="isolated_dwelling" />
		<tag k="ssr:stedsnr" v="151090" />
	</node>
	<node lat="60.218658332572986" lon="9.365627769586753" id="-34861">
		<tag k="name" v="Kranserud" />
		<tag k="place" v="isolated_dwelling" />
		<tag k="ssr:stedsnr" v="151842" />
	</node>
	<node lat="60.135983331280045" lon="9.438908340894395" id="-34863">
		<tag k="name" v="Mellomøya" />
		<tag k="place" v="farm" />
		<tag k="ssr:stedsnr" v="152331" />
	</node>
	<node lat="60.15689722597308" lon="9.346580547692858" id="-34868">
		<tag k="historic" v="shieling" />
		<tag k="name" v="Nybuseter" />
		<tag k="place" v="isolated_dwelling" />
		<tag k="ssr:stedsnr" v="151981" />
	</node>
	<node lat="60.21203611154535" lon="9.360272216200242" id="-34869">
		<tag k="historic" v="shieling" />
		<tag k="name" v="Øvre Stallsbråtan" />
		<tag k="place" v="isolated_dwelling" />
		<tag k="ssr:stedsnr" v="151899" />
	</node>
	<node lat="60.01439166881714" lon="9.451080554027529" id="-34874">
		<tag k="name" v="Øvre Stugua" />
		<tag k="place" v="isolated_dwelling" />
		<tag k="ssr:stedsnr" v="153077" />
	</node>
	<node lat="60.01659167076225" lon="9.71290556121874" id="-34881">
		<tag k="name" v="Nedre Velstad" />
		<tag k="place" v="farm" />
		<tag k="ssr:stedsnr" v="153265" />
	</node>
	<node lat="60.1129222199415" lon="9.523958332338745" id="-34885">
		<tag k="name" v="Mohagastykket" />
		<tag k="place" v="locality" />
		<tag k="ssr:stedsnr" v="152540" />
	</node>
	<node lat="60.08194444027882" lon="9.403283341144476" id="-34888">
		<tag k="historic" v="shieling" />
		<tag k="name" v="Kristiansetra" />
		<tag k="place" v="isolated_dwelling" />
		<tag k="ssr:stedsnr" v="152932" />
	</node>
	<node lat="60.02173333385383" lon="9.726611117634" id="-34908">
		<tag k="name" v="Ravnås" />
		<tag k="place" v="farm" />
		<tag k="ssr:stedsnr" v="153242" />
	</node>
	<node lat="60.05159999823245" lon="9.677102778170546" id="-34932">
		<tag k="name" v="Myra" />
		<tag k="place" v="farm" />
		<tag k="ssr:stedsnr" v="153644" />
	</node>
	<node lat="60.01133333137199" lon="9.506169435892618" id="-34937">
		<tag k="name" v="Mellom-Hiåsen" />
		<tag k="place" v="farm" />
		<tag k="ssr:stedsnr" v="154132" />
	</node>
	<node lat="60.02401944431514" lon="9.439352778367164" id="-34941">
		<tag k="name" v="Haukeli" />
		<tag k="place" v="isolated_dwelling" />
		<tag k="ssr:stedsnr" v="154192" />
	</node>
	<node lat="60.00362777369943" lon="9.529855551115844" id="-34951">
		<tag k="historic" v="shieling" />
		<tag k="name" v="Plassen" />
		<tag k="place" v="isolated_dwelling" />
		<tag k="ssr:stedsnr" v="275062" />
	</node>
	<node lat="59.983412771832164" lon="9.560370022685992" id="-34954">
		<tag k="fixme" v="consider place=hamlet" />
		<tag k="name" v="Lindbu" />
		<tag k="place" v="farm" />
		<tag k="ssr:stedsnr" v="185317" />
	</node>
	<node lat="60.205169762134844" lon="9.334685255609655" id="-34958">
		<tag k="fixme" v="multiple name tags, choose one and add the other to alt_name" />
		<tag k="historic" v="shieling" />
		<tag k="name" v="Skårsheimseter;Skårsetra" />
		<tag k="place" v="isolated_dwelling" />
		<tag k="ssr:stedsnr" v="186536" />
	</node>
	<node lat="59.973852777302746" lon="9.565994443589643" id="-34959">
		<tag k="name" v="Vestheim" />
		<tag k="place" v="isolated_dwelling" />
		<tag k="ssr:stedsnr" v="186334" />
	</node>
	<node lat="60.119180557583945" lon="9.263819437371176" id="-34960">
		<tag k="alt_name" v="Mjovasseter" />
		<tag k="historic" v="shieling" />
		<tag k="name" v="Mjovassetra" />
		<tag k="place" v="isolated_dwelling" />
		<tag k="ssr:stedsnr" v="186414" />
	</node>
	<node lat="59.89908889213773" lon="9.730961119836579" id="-34964">
		<tag k="name" v="Elvenes" />
		<tag k="place" v="farm" />
		<tag k="ssr:stedsnr" v="186835" />
	</node>
	<node lat="60.04325555972338" lon="9.679841674088443" id="-34966">
		<tag k="name" v="Voll" />
		<tag k="place" v="isolated_dwelling" />
		<tag k="ssr:stedsnr" v="186922" />
	</node>
	<node lat="60.25260555778086" lon="9.404872221809594" id="-34983">
		<tag k="name" v="Midtlihytta" />
		<tag k="place" v="isolated_dwelling" />
		<tag k="ssr:stedsnr" v="273145" />
	</node>
	<node lat="60.25683822291724" lon="9.32619355595502" id="-34988">
		<tag k="fixme" v="consider place=hamlet" />
		<tag k="name" v="Hollerud" />
		<tag k="place" v="farm" />
		<tag k="ssr:stedsnr" v="212100" />
	</node>
	<node lat="60.252275002443284" lon="9.360308328379379" id="-34989">
		<tag k="name" v="Solberg" />
		<tag k="place" v="isolated_dwelling" />
		<tag k="ssr:stedsnr" v="212110" />
	</node>
	<node lat="60.24604166468443" lon="9.340963883374684" id="-34994">
		<tag k="name" v="Frøvoll" />
		<tag k="place" v="farm" />
		<tag k="ssr:stedsnr" v="212614" />
	</node>
	<node lat="60.29109444064137" lon="9.295858325567819" id="-34996">
		<tag k="historic" v="shieling" />
		<tag k="name" v="Markeli" />
		<tag k="place" v="isolated_dwelling" />
		<tag k="ssr:stedsnr" v="212636" />
	</node>
	<node lat="60.234005557777934" lon="9.397925006540293" id="-35007">
		<tag k="name" v="Myrvoll" />
		<tag k="place" v="isolated_dwelling" />
		<tag k="ssr:stedsnr" v="212861" />
	</node>
	<node lat="60.34231389287046" lon="9.200719437308132" id="-35011">
		<tag k="name" v="Rugland setermark" />
		<tag k="place" v="neighbourhood" />
		<tag k="ssr:stedsnr" v="212901" />
	</node>
	<node lat="60.12285000261864" lon="9.53023611713142" id="-35020">
		<tag k="historic" v="shieling" />
		<tag k="name" v="Evjusetra" />
		<tag k="place" v="isolated_dwelling" />
		<tag k="ssr:stedsnr" v="213522" />
	</node>
	<node lat="60.15061944524266" lon="9.474969440074487" id="-35021">
		<tag k="name" v="Fosshytta" />
		<tag k="place" v="isolated_dwelling" />
		<tag k="ssr:stedsnr" v="213267" />
	</node>
	<node lat="60.12239722328012" lon="9.448566670900497" id="-35026">
		<tag k="name" v="Søre Tveiten" />
		<tag k="place" v="farm" />
		<tag k="ssr:stedsnr" v="213459" />
	</node>
	<node lat="60.10086388743142" lon="9.41328610418281" id="-35030">
		<tag k="historic" v="shieling" />
		<tag k="name" v="Amundrudseter" />
		<tag k="place" v="isolated_dwelling" />
		<tag k="ssr:stedsnr" v="213913" />
	</node>
	<node lat="60.01331944761796" lon="9.73938054891292" id="-35040">
		<tag k="name" v="Nordheim" />
		<tag k="place" v="farm" />
		<tag k="ssr:stedsnr" v="214222" />
	</node>
	<node lat="60.04183889096731" lon="9.631091671564443" id="-35044">
		<tag k="name" v="Nedre Kringstad" />
		<tag k="place" v="farm" />
		<tag k="ssr:stedsnr" v="214620" />
	</node>
	<node lat="59.97227499792826" lon="9.728024993380389" id="-35046">
		<tag k="name" v="Bråtan" />
		<tag k="place" v="farm" />
		<tag k="ssr:stedsnr" v="214367" />
	</node>
	<node lat="59.96016388467937" lon="9.774322213627721" id="-35049">
		<tag k="name" v="Flomnes" />
		<tag k="place" v="farm" />
		<tag k="ssr:stedsnr" v="214439" />
	</node>
	<node lat="59.961952779594824" lon="9.793408331185619" id="-35051">
		<tag k="name" v="Høgmoen" />
		<tag k="place" v="farm" />
		<tag k="ssr:stedsnr" v="214445" />
	</node>
	<node lat="59.90160833037865" lon="9.73221111459107" id="-35056">
		<tag k="name" v="Løkka" />
		<tag k="place" v="isolated_dwelling" />
		<tag k="ssr:stedsnr" v="214552" />
	</node>
	<node lat="60.08025832888993" lon="9.53016666775439" id="-35058">
		<tag k="name" v="Køsa" />
		<tag k="place" v="locality" />
		<tag k="ssr:stedsnr" v="214561" />
	</node>
	<node lat="60.24239166605915" lon="9.416402769151064" id="-35084">
		<tag k="name" v="Sjusjøhytta" />
		<tag k="place" v="isolated_dwelling" />
		<tag k="ssr:stedsnr" v="273162" />
	</node>
	<node lat="60.214124997316254" lon="9.382377779333966" id="-35103">
		<tag k="name" v="Tovstjennstykket" />
		<tag k="place" v="locality" />
		<tag k="ssr:stedsnr" v="273895" />
	</node>
	<node lat="60.233680552215716" lon="9.31194444543015" id="-35107">
		<tag k="name" v="Nedre Tjennås" />
		<tag k="place" v="locality" />
		<tag k="ssr:stedsnr" v="273955" />
	</node>
	<node lat="59.958113889891926" lon="9.702619442813216" id="-35118">
		<tag k="historic" v="shieling" />
		<tag k="name" v="Seterhagan" />
		<tag k="place" v="isolated_dwelling" />
		<tag k="ssr:stedsnr" v="275399" />
	</node>
	<node lat="60.047836110591106" lon="9.549652768882508" id="-35120">
		<tag k="name" v="Nordre Flågan" />
		<tag k="place" v="farm" />
		<tag k="ssr:stedsnr" v="275418" />
	</node>
	<node lat="59.998827781061" lon="9.537899997605654" id="-35126">
		<tag k="historic" v="shieling" />
		<tag k="name" v="Slettesetra" />
		<tag k="place" v="isolated_dwelling" />
		<tag k="ssr:stedsnr" v="275053" />
	</node>
	<node lat="60.01691666949645" lon="9.698836110126443" id="-35131">
		<tag k="name" v="Åsland" />
		<tag k="place" v="isolated_dwelling" />
		<tag k="ssr:stedsnr" v="275246" />
	</node>
	<node lat="60.018663888747" lon="9.689530548412236" id="-35132">
		<tag k="name" v="Kjemperud" />
		<tag k="place" v="farm" />
		<tag k="ssr:stedsnr" v="275251" />
	</node>
	<node lat="60.07898610910613" lon="9.526530548856467" id="-35143">
		<tag k="name" v="Bekken" />
		<tag k="place" v="farm" />
		<tag k="ssr:stedsnr" v="275528" />
	</node>
	<node lat="60.072733330403665" lon="9.500680560874814" id="-35146">
		<tag k="name" v="Nedre Rud" />
		<tag k="place" v="locality" />
		<tag k="ssr:stedsnr" v="275539" />
	</node>
	<node lat="60.034972219203276" lon="9.596744439036547" id="-35148">
		<tag k="name" v="Haugen" />
		<tag k="place" v="farm" />
		<tag k="ssr:stedsnr" v="275648" />
	</node>
	<node lat="59.95245277707545" lon="9.811000006141676" id="-35149">
		<tag k="name" v="Søre Nes" />
		<tag k="place" v="farm" />
		<tag k="ssr:stedsnr" v="275653" />
	</node>
	<node lat="60.08940000415295" lon="9.661419447413524" id="-35157">
		<tag k="name" v="Holmenhytta" />
		<tag k="place" v="isolated_dwelling" />
		<tag k="ssr:stedsnr" v="275882" />
	</node>
	<node lat="60.08054444661324" lon="9.509263886389938" id="-35159">
		<tag k="name" v="Røysebråtan" />
		<tag k="place" v="locality" />
		<tag k="ssr:stedsnr" v="275891" />
	</node>
	<node lat="60.023977303569204" lon="9.601245532977716" id="-35161">
		<tag k="name" v="Rantestua" />
		<tag k="place" v="locality" />
		<tag k="ssr:stedsnr" v="275696" />
	</node>
	<node lat="59.995074996964696" lon="9.736641671160916" id="-35169">
		<tag k="name" v="Sommerro" />
		<tag k="place" v="farm" />
		<tag k="ssr:stedsnr" v="277000" />
	</node>
	<node lat="60.131147972580564" lon="9.433356148557458" id="-35177">
		<tag k="alt_name" v="Søre Enger" />
		<tag k="name" v="Enger" />
		<tag k="place" v="hamlet" />
		<tag k="ssr:stedsnr" v="307437" />
	</node>
	<node lat="59.95353333422472" lon="9.83104444386482" id="-35180">
		<tag k="name" v="Bjørnstad" />
		<tag k="place" v="farm" />
		<tag k="ssr:stedsnr" v="307755" />
	</node>
	<node lat="59.96222499590108" lon="9.828558336133604" id="-35181">
		<tag k="name" v="Myrhagan" />
		<tag k="place" v="farm" />
		<tag k="ssr:stedsnr" v="307774" />
	</node>
	<node lat="59.960924998984986" lon="9.709633342001192" id="-35182">
		<tag k="name" v="Bergli" />
		<tag k="place" v="isolated_dwelling" />
		<tag k="ssr:stedsnr" v="307791" />
	</node>
	<node lat="60.06861944706298" lon="9.544024994325534" id="-35185">
		<tag k="name" v="Bergetangen" />
		<tag k="place" v="farm" />
		<tag k="ssr:stedsnr" v="308071" />
	</node>
	<node lat="60.204355626760034" lon="9.366267790224759" id="-35189">
		<tag k="fixme" v="consider place=hamlet" />
		<tag k="name" v="Skår" />
		<tag k="place" v="farm" />
		<tag k="ssr:stedsnr" v="308437" />
	</node>
	<node lat="60.02920969561421" lon="9.677167919276556" id="-35190">
		<tag k="fixme" v="consider place=hamlet" />
		<tag k="name" v="Eikje" />
		<tag k="place" v="farm" />
		<tag k="ssr:stedsnr" v="308920" />
	</node>
	<node lat="60.113059304104524" lon="9.470278267918763" id="-35191">
		<tag k="fixme" v="consider place=hamlet" />
		<tag k="name" v="Hagavoll" />
		<tag k="place" v="farm" />
		<tag k="ssr:stedsnr" v="308364" />
	</node>
	<node lat="60.01095000002405" lon="9.61052500137924" id="-35194">
		<tag k="historic" v="shieling" />
		<tag k="name" v="Kvasshaugsetra" />
		<tag k="place" v="isolated_dwelling" />
		<tag k="ssr:stedsnr" v="308980" />
	</node>
	<node lat="60.32048611315012" lon="9.289533327646705" id="-35196">
		<tag k="historic" v="shieling" />
		<tag k="name" v="Jøslisetra" />
		<tag k="place" v="isolated_dwelling" />
		<tag k="ssr:stedsnr" v="309055" />
	</node>
	<node lat="60.234891668740715" lon="9.20859999148517" id="-35199">
		<tag k="alt_name" v="Nedre Fagerli" />
		<tag k="name" v="Fagerli" />
		<tag k="place" v="isolated_dwelling" />
		<tag k="ssr:stedsnr" v="308873" />
	</node>
	<node lat="60.27893524890156" lon="9.260067521456048" id="-35201">
		<tag k="fixme" v="consider place=hamlet" />
		<tag k="name" v="Bakli" />
		<tag k="place" v="farm" />
		<tag k="ssr:stedsnr" v="309114" />
	</node>
	<node lat="60.11894444427278" lon="9.34179166109623" id="-35209">
		<tag k="name" v="Hagan" />
		<tag k="place" v="isolated_dwelling" />
		<tag k="ssr:stedsnr" v="334027" />
	</node>
	<node lat="60.17408611308155" lon="9.392791664215434" id="-35220">
		<tag k="name" v="Nedre Grønhovd" />
		<tag k="place" v="farm" />
		<tag k="ssr:stedsnr" v="333711" />
	</node>
	<node lat="59.96096667082988" lon="9.807955554373217" id="-35234">
		<tag k="name" v="Sandberg" />
		<tag k="place" v="farm" />
		<tag k="ssr:stedsnr" v="336607" />
	</node>
	<node lat="59.961247219857135" lon="9.839883341918167" id="-35236">
		<tag k="name" v="Sandbråtan" />
		<tag k="place" v="locality" />
		<tag k="ssr:stedsnr" v="336613" />
	</node>
	<node lat="59.95618055544114" lon="9.653599993058398" id="-35246">
		<tag k="name" v="Vestre Grønset" />
		<tag k="place" v="farm" />
		<tag k="ssr:stedsnr" v="335508" />
	</node>
	<node lat="59.961019448028715" lon="9.6155638837389" id="-35248">
		<tag k="name" v="Nedre Vatnås" />
		<tag k="place" v="farm" />
		<tag k="ssr:stedsnr" v="335373" />
	</node>
	<node lat="59.96532861212305" lon="9.753554030717348" id="-35252">
		<tag k="fixme" v="consider place=hamlet" />
		<tag k="name" v="Fagerbakke" />
		<tag k="place" v="farm" />
		<tag k="ssr:stedsnr" v="335424" />
	</node>
	<node lat="59.95949999667154" lon="9.786947229173622" id="-35255">
		<tag k="name" v="Solumshengslet" />
		<tag k="place" v="farm" />
		<tag k="ssr:stedsnr" v="335459" />
	</node>
	<node lat="60.026841671075225" lon="9.698602776108258" id="-35259">
		<tag k="name" v="Strømstad" />
		<tag k="place" v="isolated_dwelling" />
		<tag k="ssr:stedsnr" v="335992" />
	</node>
	<node lat="60.01241944631683" lon="9.758752774985988" id="-35285">
		<tag k="name" v="Fossestykket" />
		<tag k="place" v="locality" />
		<tag k="ssr:stedsnr" v="336893" />
	</node>
	<node lat="60.07371389315378" lon="9.475655556889615" id="-35288">
		<tag k="name" v="Vang" />
		<tag k="place" v="farm" />
		<tag k="ssr:stedsnr" v="336928" />
	</node>
	<node lat="60.03667222157501" lon="9.693038891048092" id="-35305">
		<tag k="name" v="Vang" />
		<tag k="place" v="farm" />
		<tag k="ssr:stedsnr" v="368944" />
	</node>
	<node lat="60.02546111222101" lon="9.707608331072109" id="-35307">
		<tag k="name" v="Åsen" />
		<tag k="place" v="farm" />
		<tag k="ssr:stedsnr" v="368953" />
	</node>
	<node lat="60.05236111360706" lon="9.571277786316038" id="-35309">
		<tag k="name" v="Enge" />
		<tag k="place" v="farm" />
		<tag k="ssr:stedsnr" v="368085" />
	</node>
	<node lat="60.092950001877355" lon="9.461497217154134" id="-35311">
		<tag k="name" v="Fossheim" />
		<tag k="place" v="isolated_dwelling" />
		<tag k="ssr:stedsnr" v="368142" />
	</node>
	<node lat="60.124055076748036" lon="9.432663125069748" id="-35315">
		<tag k="alt_name" v="Nordre Halsteinrud" />
		<tag k="fixme" v="consider place=hamlet" />
		<tag k="name" v="Halsteinrud" />
		<tag k="place" v="farm" />
		<tag k="ssr:stedsnr" v="368401" />
	</node>
	<node lat="60.20851110855742" lon="9.393441672523918" id="-35317">
		<tag k="name" v="Saga" />
		<tag k="place" v="isolated_dwelling" />
		<tag k="ssr:stedsnr" v="368516" />
	</node>
	<node lat="59.951022224072155" lon="9.606430551009948" id="-35318">
		<tag k="historic" v="shieling" />
		<tag k="name" v="Gislegard" />
		<tag k="place" v="isolated_dwelling" />
		<tag k="ssr:stedsnr" v="368817" />
	</node>
	<node lat="60.040875003285734" lon="9.771094443329057" id="-35319">
		<tag k="alt_name" v="Høgseter" />
		<tag k="historic" v="shieling" />
		<tag k="name" v="Høgsetra" />
		<tag k="place" v="isolated_dwelling" />
		<tag k="ssr:stedsnr" v="368914" />
	</node>
	<node lat="59.99588055373773" lon="9.743961106472087" id="-35320">
		<tag k="name" v="Støa" />
		<tag k="place" v="farm" />
		<tag k="ssr:stedsnr" v="368974" />
	</node>
	<node lat="60.07528610834963" lon="9.511836108765781" id="-35322">
		<tag k="name" v="Havikhagan" />
		<tag k="place" v="farm" />
		<tag k="ssr:stedsnr" v="369085" />
	</node>
	<node lat="60.2801500042415" lon="9.270955559905028" id="-35328">
		<tag k="alt_name" v="Åsland" />
		<tag k="name" v="Sør-Åsland" />
		<tag k="place" v="farm" />
		<tag k="ssr:stedsnr" v="370142" />
	</node>
	<node lat="60.26146215529425" lon="9.40535738057749" id="-35330">
		<tag k="alt_name" v="Ingraseter" />
		<tag k="historic" v="shieling" />
		<tag k="name" v="Ingrasetra" />
		<tag k="place" v="isolated_dwelling" />
		<tag k="ssr:stedsnr" v="370924" />
	</node>
	<node lat="60.23683888743241" lon="9.212711119017808" id="-35334">
		<tag k="name" v="Øvre Fagerli" />
		<tag k="place" v="farm" />
		<tag k="ssr:stedsnr" v="393122" />
	</node>
	<node lat="60.264249999479844" lon="9.299433333952033" id="-35350">
		<tag k="historic" v="shieling" />
		<tag k="name" v="Petterbråtan" />
		<tag k="place" v="isolated_dwelling" />
		<tag k="ssr:stedsnr" v="393879" />
	</node>
	<node lat="60.255202779519934" lon="9.354055564251082" id="-35362">
		<tag k="name" v="Frydheim" />
		<tag k="place" v="isolated_dwelling" />
		<tag k="ssr:stedsnr" v="394101" />
	</node>
	<node lat="60.24095833691208" lon="9.381963894633643" id="-35363">
		<tag k="name" v="Klypa" />
		<tag k="place" v="isolated_dwelling" />
		<tag k="ssr:stedsnr" v="394114" />
	</node>
	<node lat="60.25220832935317" lon="9.383947213625591" id="-35364">
		<tag k="historic" v="shieling" />
		<tag k="name" v="Torbråtan" />
		<tag k="place" v="isolated_dwelling" />
		<tag k="ssr:stedsnr" v="394122" />
	</node>
	<node lat="60.24868055732689" lon="9.388516663240733" id="-35365">
		<tag k="name" v="Juvstykket" />
		<tag k="place" v="locality" />
		<tag k="ssr:stedsnr" v="394125" />
	</node>
	<node lat="60.34434166360059" lon="9.185919439899365" id="-35367">
		<tag k="fixme" v="consider tourism=alpine_hut or tourism=chalet" />
		<tag k="name" v="Haglebu fjellstue" />
		<tag k="ssr:stedsnr" v="394170" />
		<tag k="tourism" v="wilderness_hut" />
	</node>
	<node lat="60.17754444325707" lon="9.373344445182592" id="-35374">
		<tag k="name" v="Mellom-Enderud" />
		<tag k="place" v="isolated_dwelling" />
		<tag k="ssr:stedsnr" v="394740" />
	</node>
	<node lat="60.18446388872348" lon="9.370958340462035" id="-35375">
		<tag k="name" v="Øvre Enderud" />
		<tag k="place" v="farm" />
		<tag k="ssr:stedsnr" v="394741" />
	</node>
	<node lat="60.23170000436165" lon="9.344502775091406" id="-35378">
		<tag k="name" v="Bergerønningen" />
		<tag k="place" v="locality" />
		<tag k="ssr:stedsnr" v="394848" />
	</node>
	<node lat="60.232747221152366" lon="9.399402780017562" id="-35383">
		<tag k="name" v="Nedre Ellevsrud" />
		<tag k="place" v="farm" />
		<tag k="ssr:stedsnr" v="394876" />
	</node>
	<node lat="60.01758722582019" lon="9.630715443040875" id="-35388">
		<tag k="name" v="Vardehytta" />
		<tag k="place" v="isolated_dwelling" />
		<tag k="ssr:stedsnr" v="396196" />
	</node>
	<node lat="60.022069443245414" lon="9.73449166854227" id="-35389">
		<tag k="name" v="Hagan" />
		<tag k="place" v="farm" />
		<tag k="ssr:stedsnr" v="396199" />
	</node>
	<node lat="60.19819444838639" lon="9.452552776311332" id="-35394">
		<tag k="name" v="Hornsjøhytta" />
		<tag k="place" v="isolated_dwelling" />
		<tag k="ssr:stedsnr" v="395954" />
	</node>
	<node lat="60.061691666162154" lon="9.505247223518088" id="-35400">
		<tag k="name" v="Lauvlia" />
		<tag k="place" v="isolated_dwelling" />
		<tag k="ssr:stedsnr" v="396165" />
	</node>
	<node lat="60.05389444502814" lon="9.622455551759591" id="-35419">
		<tag k="name" v="Ramstad" />
		<tag k="place" v="farm" />
		<tag k="ssr:stedsnr" v="396754" />
	</node>
	<node lat="60.07181111209258" lon="9.510169444495089" id="-35422">
		<tag k="name" v="Bråtan" />
		<tag k="place" v="locality" />
		<tag k="ssr:stedsnr" v="396543" />
	</node>
	<node lat="59.99194166762923" lon="9.76456111608987" id="-35423">
		<tag k="name" v="Brenna" />
		<tag k="place" v="farm" />
		<tag k="ssr:stedsnr" v="396553" />
	</node>
	<node lat="59.99196111547093" lon="9.760977777277038" id="-35424">
		<tag k="name" v="Løkka" />
		<tag k="place" v="isolated_dwelling" />
		<tag k="ssr:stedsnr" v="396569" />
	</node>
	<node lat="60.04053611061459" lon="9.613711110352604" id="-35427">
		<tag k="name" v="Nordre Øverby" />
		<tag k="place" v="farm" />
		<tag k="ssr:stedsnr" v="396646" />
	</node>
	<node lat="60.0508416690826" lon="9.687966670498705" id="-35430">
		<tag k="name" v="Eik" />
		<tag k="place" v="isolated_dwelling" />
		<tag k="ssr:stedsnr" v="396772" />
	</node>
	<node lat="59.99653055114023" lon="9.736580554583034" id="-35434">
		<tag k="name" v="Støa" />
		<tag k="place" v="farm" />
		<tag k="ssr:stedsnr" v="397992" />
	</node>
	<node lat="60.04930953864034" lon="9.686646922828608" id="-35436">
		<tag k="alt_name" v="Reistad mellom;Reistad" />
		<tag k="name" v="Mellom-Reistad" />
		<tag k="place" v="farm" />
		<tag k="ssr:stedsnr" v="422288" />
	</node>
	<node lat="59.962778957974635" lon="9.605102966356402" id="-35439">
		<tag k="name" v="Vatnåsbråtan" />
		<tag k="place" v="farm" />
		<tag k="ssr:stedsnr" v="428788" />
	</node>
	<node lat="59.96130109973277" lon="9.634914374452704" id="-35440">
		<tag k="fixme" v="consider place=hamlet" />
		<tag k="name" v="Barhaugen" />
		<tag k="place" v="farm" />
		<tag k="ssr:stedsnr" v="428790" />
	</node>
	<node lat="60.02057221900491" lon="9.512477778508366" id="-35445">
		<tag k="fixme" v="multiple name tags, choose one and add the other to alt_name" />
		<tag k="historic" v="shieling" />
		<tag k="name" v="Høgeli;Høglisetra" />
		<tag k="place" v="isolated_dwelling" />
		<tag k="ssr:stedsnr" v="429030" />
	</node>
	<node lat="60.20765755313381" lon="9.318989028957015" id="-35450">
		<tag k="alt_name" v="Storlisetra" />
		<tag k="historic" v="shieling" />
		<tag k="name" v="Storliseter" />
		<tag k="place" v="isolated_dwelling" />
		<tag k="ssr:stedsnr" v="429461" />
	</node>
	<node lat="60.07922499624475" lon="9.51682222896878" id="-35457">
		<tag k="name" v="Brubråtan" />
		<tag k="place" v="farm" />
		<tag k="ssr:stedsnr" v="430088" />
	</node>
	<node lat="60.23397777900889" lon="9.406408335949575" id="-35460">
		<tag k="name" v="Nyhus" />
		<tag k="place" v="farm" />
		<tag k="ssr:stedsnr" v="430243" />
	</node>
	<node lat="60.338711114855684" lon="9.322280562415115" id="-35464">
		<tag k="fixme" v="consider tourism=alpine_hut or tourism=chalet" />
		<tag k="name" v="Toveseter" />
		<tag k="old_name" v="Tovesætra;Tovesetra" />
		<tag k="ssr:stedsnr" v="431014" />
		<tag k="tourism" v="wilderness_hut" />
	</node>
	<node lat="60.250925364427815" lon="9.351892949042652" id="-35468">
		<tag k="fixme" v="consider place=hamlet" />
		<tag k="name" v="Hovland" />
		<tag k="place" v="farm" />
		<tag k="ssr:stedsnr" v="431927" />
	</node>
	<node lat="60.2405305558061" lon="9.225044445605654" id="-35477">
		<tag k="name" v="Hagastykket" />
		<tag k="place" v="locality" />
		<tag k="ssr:stedsnr" v="515841" />
	</node>
	<node lat="60.27253889015877" lon="9.410949994736583" id="-35492">
		<tag k="historic" v="shieling" />
		<tag k="name" v="Finnebråtaseter" />
		<tag k="place" v="isolated_dwelling" />
		<tag k="ssr:stedsnr" v="515480" />
	</node>
	<node lat="60.173537921671034" lon="9.384060293840248" id="-35497">
		<tag k="name" v="Øvre Grønhovd" />
		<tag k="place" v="farm" />
		<tag k="ssr:stedsnr" v="515664" />
	</node>
	<node lat="60.26351388735981" lon="9.312313886278753" id="-35499">
		<tag k="name" v="Gunhildbråtan" />
		<tag k="place" v="isolated_dwelling" />
		<tag k="ssr:stedsnr" v="515689" />
	</node>
	<node lat="60.24484722024196" lon="9.276272217659864" id="-35500">
		<tag k="name" v="Båshagan" />
		<tag k="place" v="isolated_dwelling" />
		<tag k="ssr:stedsnr" v="515895" />
	</node>
	<node lat="60.240127777379016" lon="9.43927777578722" id="-35506">
		<tag k="name" v="Djupsjøfeltet" />
		<tag k="place" v="neighbourhood" />
		<tag k="ssr:stedsnr" v="516173" />
	</node>
	<node lat="60.113780554725906" lon="9.46192222931541" id="-35507">
		<tag k="name" v="Molund" />
		<tag k="place" v="isolated_dwelling" />
		<tag k="ssr:stedsnr" v="516370" />
	</node>
	<node lat="59.96173055356844" lon="9.771180556637285" id="-35536">
		<tag k="name" v="Solumsmoen" />
		<tag k="place" v="farm" />
		<tag k="ssr:stedsnr" v="517439" />
	</node>
	<node lat="60.04193777014007" lon="9.620329271008186" id="-35539">
		<tag k="fixme" v="consider place=hamlet" />
		<tag k="name" v="Slette" />
		<tag k="place" v="farm" />
		<tag k="ssr:stedsnr" v="517690" />
	</node>
	<node lat="59.95870555400505" lon="9.80268333614848" id="-35545">
		<tag k="name" v="Nordre Nes" />
		<tag k="place" v="farm" />
		<tag k="ssr:stedsnr" v="517643" />
	</node>
	<node lat="60.05406666912152" lon="9.606633340673044" id="-35553">
		<tag k="name" v="Nedre Vik" />
		<tag k="place" v="farm" />
		<tag k="ssr:stedsnr" v="517801" />
	</node>
	<node lat="59.98208888931482" lon="9.752505558682863" id="-35564">
		<tag k="name" v="Rundhaug" />
		<tag k="place" v="farm" />
		<tag k="ssr:stedsnr" v="518551" />
	</node>
	<node lat="60.08242509952547" lon="9.516145176645693" id="-35565">
		<tag k="name" v="Tangen" />
		<tag k="place" v="locality" />
		<tag k="ssr:stedsnr" v="518552" />
	</node>
	<node lat="59.96873611038455" lon="9.644888883582908" id="-35572">
		<tag k="alt_name" v="Li" />
		<tag k="name" v="Østre Li" />
		<tag k="place" v="farm" />
		<tag k="ssr:stedsnr" v="549792" />
	</node>
	<node lat="59.97211666615525" lon="9.725127786127644" id="-35573">
		<tag k="name" v="Steinset" />
		<tag k="place" v="farm" />
		<tag k="ssr:stedsnr" v="549795" />
	</node>
	<node lat="60.18401389281574" lon="9.390605556677013" id="-35575">
		<tag k="name" v="Bakkanbråtan" />
		<tag k="place" v="farm" />
		<tag k="ssr:stedsnr" v="550477" />
	</node>
	<node lat="60.19267777547902" lon="9.471086119478237" id="-35576">
		<tag k="name" v="Solehytta" />
		<tag k="place" v="isolated_dwelling" />
		<tag k="ssr:stedsnr" v="550481" />
	</node>
	<node lat="60.11966511396188" lon="9.458486275390856" id="-35580">
		<tag k="fixme" v="consider place=hamlet" />
		<tag k="name" v="Gråskei" />
		<tag k="place" v="farm" />
		<tag k="ssr:stedsnr" v="550382" />
	</node>
	<node lat="60.103807234239895" lon="9.378099765173383" id="-35581">
		<tag k="alt_name" v="Grøsetsetra" />
		<tag k="historic" v="shieling" />
		<tag k="name" v="Grøset" />
		<tag k="place" v="isolated_dwelling" />
		<tag k="ssr:stedsnr" v="550386" />
	</node>
	<node lat="60.17730555718445" lon="9.41874721622562" id="-35583">
		<tag k="name" v="Sandan" />
		<tag k="place" v="isolated_dwelling" />
		<tag k="ssr:stedsnr" v="550439" />
	</node>
	<node lat="60.17584999953053" lon="9.453949998284926" id="-35584">
		<tag k="fixme" v="multiple name tags, choose one and add the other to alt_name" />
		<tag k="name" v="Bergsbu;Bergbo" />
		<tag k="place" v="isolated_dwelling" />
		<tag k="ssr:stedsnr" v="550440" />
	</node>
	<node lat="60.028991913997345" lon="9.710983244052684" id="-35586">
		<tag k="name" v="Kinkebråtan" />
		<tag k="place" v="locality" />
		<tag k="ssr:stedsnr" v="550927" />
	</node>
	<node lat="59.96380202381608" lon="9.809423622472167" id="-35588">
		<tag k="alt_name" v="Søndre Desarud;Søre Desarud" />
		<tag k="fixme" v="consider place=hamlet" />
		<tag k="name" v="Desarud" />
		<tag k="place" v="farm" />
		<tag k="ssr:stedsnr" v="550770" />
	</node>
	<node lat="59.95671389313566" lon="9.646894443707978" id="-35590">
		<tag k="fixme" v="consider place=hamlet" />
		<tag k="name" v="Grenskogen" />
		<tag k="place" v="village" />
		<tag k="ssr:stedsnr" v="550775" />
	</node>
	<node lat="59.96325555579049" lon="9.755300007616464" id="-35591">
		<tag k="name" v="Sekoenga" />
		<tag k="place" v="farm" />
		<tag k="ssr:stedsnr" v="550792" />
	</node>
	<node lat="60.09348889008654" lon="9.704208331004928" id="-35592">
		<tag k="name" v="Plassansetra" />
		<tag k="place" v="locality" />
		<tag k="ssr:stedsnr" v="550851" />
	</node>
	<node lat="60.07290027824768" lon="9.534767388206534" id="-35598">
		<tag k="alt_name" v="Øvre Bergan" />
		<tag k="fixme" v="consider place=hamlet" />
		<tag k="name" v="Bergan" />
		<tag k="place" v="farm" />
		<tag k="ssr:stedsnr" v="551083" />
	</node>
	<node lat="60.28054444272591" lon="9.341155552628791" id="-35601">
		<tag k="historic" v="shieling" />
		<tag k="name" v="Hollerudsetra" />
		<tag k="place" v="isolated_dwelling" />
		<tag k="ssr:stedsnr" v="552127" />
	</node>
	<node lat="60.153944443491405" lon="9.500016658083764" id="-35602">
		<tag k="historic" v="shieling" />
		<tag k="name" v="Dalen" />
		<tag k="place" v="isolated_dwelling" />
		<tag k="ssr:stedsnr" v="551400" />
	</node>
	<node lat="60.00034722539652" lon="9.757686104442799" id="-35606">
		<tag k="name" v="Varsla" />
		<tag k="place" v="farm" />
		<tag k="ssr:stedsnr" v="551977" />
	</node>
	<node lat="60.26404444799645" lon="9.326383325708916" id="-35621">
		<tag k="historic" v="shieling" />
		<tag k="name" v="Nedre Skallandseter" />
		<tag k="place" v="isolated_dwelling" />
		<tag k="ssr:stedsnr" v="576413" />
	</node>
	<node lat="60.142258333577985" lon="9.399597218156163" id="-35632">
		<tag k="name" v="Lurvelia" />
		<tag k="place" v="isolated_dwelling" />
		<tag k="ssr:stedsnr" v="576069" />
	</node>
	<node lat="60.262561107411166" lon="9.264916674039048" id="-35633">
		<tag k="name" v="Brenna" />
		<tag k="place" v="isolated_dwelling" />
		<tag k="ssr:stedsnr" v="575839" />
	</node>
	<node lat="60.1287722223698" lon="9.455141661505024" id="-35639">
		<tag k="name" v="Åsrud" />
		<tag k="place" v="isolated_dwelling" />
		<tag k="ssr:stedsnr" v="576410" />
	</node>
	<node lat="60.27081666587026" lon="9.342011107497308" id="-35645">
		<tag k="name" v="Skaret" />
		<tag k="place" v="isolated_dwelling" />
		<tag k="ssr:stedsnr" v="576428" />
	</node>
	<node lat="60.15617500038826" lon="9.42352222420943" id="-35647">
		<tag k="name" v="Bottolvshus" />
		<tag k="place" v="farm" />
		<tag k="ssr:stedsnr" v="576752" />
	</node>
	<node lat="60.08047777960309" lon="9.60994444462955" id="-35679">
		<tag k="name" v="Nilsebu" />
		<tag k="place" v="isolated_dwelling" />
		<tag k="ssr:stedsnr" v="578369" />
	</node>
	<node lat="59.98490555633503" lon="9.729402778841557" id="-35686">
		<tag k="name" v="Solli" />
		<tag k="place" v="locality" />
		<tag k="ssr:stedsnr" v="578539" />
	</node>
	<node lat="60.06389166583837" lon="9.605925005689281" id="-35694">
		<tag k="name" v="Lunnestadstua" />
		<tag k="place" v="locality" />
		<tag k="ssr:stedsnr" v="578716" />
	</node>
	<node lat="60.00077212113868" lon="9.731475229857404" id="-35712">
		<tag k="fixme" v="consider place=hamlet" />
		<tag k="name" v="Tovsrud" />
		<tag k="place" v="farm" />
		<tag k="ssr:stedsnr" v="604432" />
	</node>
	<node lat="59.96278333775983" lon="9.797447217385619" id="-35714">
		<tag k="alt_name" v="Nes" />
		<tag k="name" v="Neshagan" />
		<tag k="place" v="farm" />
		<tag k="ssr:stedsnr" v="610784" />
	</node>
	<node lat="59.950300003105205" lon="9.709605550695443" id="-35715">
		<tag k="name" v="Solheim" />
		<tag k="place" v="farm" />
		<tag k="ssr:stedsnr" v="610786" />
	</node>
	<node lat="60.106883336582726" lon="9.455550004587977" id="-35724">
		<tag k="name" v="Demma" />
		<tag k="place" v="farm" />
		<tag k="ssr:stedsnr" v="611415" />
	</node>
	<node lat="60.214563892647554" lon="9.478458339095319" id="-35725">
		<tag k="alt_name" v="Solesetra" />
		<tag k="historic" v="shieling" />
		<tag k="name" v="Soleseter" />
		<tag k="place" v="isolated_dwelling" />
		<tag k="ssr:stedsnr" v="611469" />
	</node>
	<node lat="60.213249998506036" lon="9.450372223530689" id="-35726">
		<tag k="fixme" v="multiple name tags, choose one and add the other to alt_name" />
		<tag k="name" v="Norestua;Hornsjøvollen" />
		<tag k="place" v="isolated_dwelling" />
		<tag k="ssr:stedsnr" v="611472" />
	</node>
	<node lat="60.210386109742664" lon="9.28342222316207" id="-35728">
		<tag k="alt_name" v="Sølandseter" />
		<tag k="historic" v="shieling" />
		<tag k="name" v="Sølandsetra" />
		<tag k="place" v="isolated_dwelling" />
		<tag k="ssr:stedsnr" v="611477" />
	</node>
	<node lat="60.102925000339155" lon="9.654236108370787" id="-35731">
		<tag k="name" v="Tangen" />
		<tag k="place" v="isolated_dwelling" />
		<tag k="ssr:stedsnr" v="611859" />
	</node>
	<node lat="60.14801111508132" lon="9.43066389707952" id="-35733">
		<tag k="building" v="industrial" />
		<tag k="industrial" v="factory" />
		<tag k="name" v="Solemoa" />
		<tag k="ssr:stedsnr" v="611424" />
	</node>
	<node lat="60.149825003103594" lon="9.419036113904022" id="-35734">
		<tag k="alt_name" v="Nordre Lia" />
		<tag k="name" v="Lia" />
		<tag k="place" v="isolated_dwelling" />
		<tag k="ssr:stedsnr" v="611427" />
	</node>
	<node lat="60.05845833210805" lon="9.681733328931335" id="-35738">
		<tag k="name" v="Glanås" />
		<tag k="place" v="farm" />
		<tag k="ssr:stedsnr" v="611896" />
	</node>
	<node lat="60.0519555530714" lon="9.674111114835371" id="-35740">
		<tag k="name" v="Kolstad" />
		<tag k="place" v="farm" />
		<tag k="ssr:stedsnr" v="611908" />
	</node>
	<node lat="60.04126111186247" lon="9.597780558579647" id="-35741">
		<tag k="name" v="Hagajordet" />
		<tag k="place" v="farm" />
		<tag k="ssr:stedsnr" v="611934" />
	</node>
	<node lat="60.04343055163602" lon="9.635197217469655" id="-35742">
		<tag k="name" v="Prestfoss" />
		<tag k="place" v="village" />
		<tag k="ssr:stedsnr" v="611936" />
	</node>
	<node lat="60.0402146404936" lon="9.69478895237184" id="-35743">
		<tag k="alt_name" v="Nordre Kroken" />
		<tag k="fixme" v="consider place=hamlet" />
		<tag k="name" v="Kroken" />
		<tag k="place" v="farm" />
		<tag k="ssr:stedsnr" v="611937" />
	</node>
	<node lat="60.03586666448709" lon="9.694638881553963" id="-35745">
		<tag k="name" v="Haugen" />
		<tag k="place" v="farm" />
		<tag k="ssr:stedsnr" v="611951" />
	</node>
	<node lat="60.26549947638491" lon="9.27953581796057" id="-35749">
		<tag k="fixme" v="consider place=hamlet" />
		<tag k="name" v="Øvre Kleiv" />
		<tag k="place" v="farm" />
		<tag k="ssr:stedsnr" v="613100" />
	</node>
	<node lat="60.244802781770275" lon="9.372924993628775" id="-35751">
		<tag k="name" v="Haugstad" />
		<tag k="place" v="farm" />
		<tag k="ssr:stedsnr" v="636149" />
	</node>
	<node lat="60.19010555557535" lon="9.36049166271921" id="-35771">
		<tag k="name" v="Trettedokka" />
		<tag k="place" v="locality" />
		<tag k="ssr:stedsnr" v="636760" />
	</node>
	<node lat="60.13356944789992" lon="9.434294439092163" id="-35776">
		<tag k="name" v="Nedre Enger" />
		<tag k="place" v="farm" />
		<tag k="ssr:stedsnr" v="637337" />
	</node>
	<node lat="60.124405555277725" lon="9.44791111196483" id="-35782">
		<tag k="name" v="Nordre Tveiten" />
		<tag k="place" v="farm" />
		<tag k="ssr:stedsnr" v="637457" />
	</node>
	<node lat="60.13513611067875" lon="9.518011109917412" id="-35789">
		<tag k="name" v="Hallandstykket" />
		<tag k="place" v="locality" />
		<tag k="ssr:stedsnr" v="637418" />
	</node>
	<node lat="60.291797219493624" lon="9.294233340009749" id="-35794">
		<tag k="historic" v="shieling" />
		<tag k="name" v="Grindestølen" />
		<tag k="place" v="isolated_dwelling" />
		<tag k="ssr:stedsnr" v="637659" />
	</node>
	<node lat="60.0784833335893" lon="9.735230557529169" id="-35806">
		<tag k="name" v="Finnerudstykket" />
		<tag k="place" v="locality" />
		<tag k="ssr:stedsnr" v="638057" />
	</node>
	<node lat="60.099683337337446" lon="9.455908326948887" id="-35810">
		<tag k="name" v="Nedre Ulberg" />
		<tag k="place" v="farm" />
		<tag k="ssr:stedsnr" v="638292" />
	</node>
	<node lat="59.968072225316405" lon="9.727900004964486" id="-35813">
		<tag k="name" v="Skreddarplassen" />
		<tag k="place" v="isolated_dwelling" />
		<tag k="ssr:stedsnr" v="638388" />
	</node>
	<node lat="60.05985000260809" lon="9.678313891483292" id="-35816">
		<tag k="name" v="Skogly" />
		<tag k="place" v="farm" />
		<tag k="ssr:stedsnr" v="638459" />
	</node>
	<node lat="59.96121944030866" lon="9.69466665930258" id="-35819">
		<tag k="historic" v="shieling" />
		<tag k="name" v="Herbrandseter" />
		<tag k="place" v="isolated_dwelling" />
		<tag k="ssr:stedsnr" v="638363" />
	</node>
	<node lat="60.0921972249121" lon="9.590641665008402" id="-35846">
		<tag k="name" v="Guletjennstua" />
		<tag k="place" v="isolated_dwelling" />
		<tag k="ssr:stedsnr" v="639898" />
	</node>
	<node lat="60.05981111122379" lon="9.521688887618659" id="-35854">
		<tag k="name" v="Hellerud" />
		<tag k="place" v="farm" />
		<tag k="ssr:stedsnr" v="732084" />
	</node>
	<node lat="60.06181240936728" lon="9.496182749138363" id="-35855">
		<tag k="fixme" v="consider place=hamlet" />
		<tag k="name" v="Veggesrud" />
		<tag k="place" v="farm" />
		<tag k="ssr:stedsnr" v="732087" />
	</node>
	<node lat="60.21857777742918" lon="9.36171110273317" id="-35857">
		<tag k="name" v="Flatin" />
		<tag k="place" v="farm" />
		<tag k="ssr:stedsnr" v="732287" />
	</node>
	<node lat="60.12375927060145" lon="9.45501857621646" id="-35861">
		<tag k="fixme" v="consider place=hamlet" />
		<tag k="name" v="Foss" />
		<tag k="place" v="farm" />
		<tag k="ssr:stedsnr" v="732392" />
	</node>
	<node lat="60.05298889338818" lon="9.636486111698547" id="-35864">
		<tag k="name" v="Solbakken" />
		<tag k="place" v="farm" />
		<tag k="ssr:stedsnr" v="732888" />
	</node>
	<node lat="59.96642499465673" lon="9.785088426283014" id="-35869">
		<tag k="fixme" v="consider place=hamlet" />
		<tag k="name" v="Solum" />
		<tag k="place" v="farm" />
		<tag k="ssr:stedsnr" v="732783" />
	</node>
	<node lat="59.96397221800644" lon="9.855547225800121" id="-35871">
		<tag k="name" v="Retrum" />
		<tag k="place" v="isolated_dwelling" />
		<tag k="ssr:stedsnr" v="732788" />
	</node>
	<node lat="60.031742365162685" lon="9.634378492453656" id="-35872">
		<tag k="fixme" v="consider place=hamlet" />
		<tag k="name" v="Mollerud" />
		<tag k="place" v="farm" />
		<tag k="ssr:stedsnr" v="732935" />
	</node>
	<node lat="60.033527778741636" lon="9.640316668256002" id="-35873">
		<tag k="name" v="Neggen" />
		<tag k="place" v="farm" />
		<tag k="ssr:stedsnr" v="732937" />
	</node>
	<node lat="59.99380278122541" lon="9.818408327523311" id="-35875">
		<tag k="fixme" v="multiple name tags, choose one and add the other to alt_name" />
		<tag k="historic" v="shieling" />
		<tag k="name" v="Solumsetrane;Solumsetra" />
		<tag k="place" v="isolated_dwelling" />
		<tag k="ssr:stedsnr" v="732971" />
	</node>
	<node lat="60.24582500058278" lon="9.356861105141999" id="-35877">
		<tag k="name" v="Eggedal" />
		<tag k="place" v="village" />
		<tag k="ssr:stedsnr" v="733283" />
	</node>
	<node lat="60.12001338544033" lon="9.333784988429809" id="-35878">
		<tag k="historic" v="shieling" />
		<tag k="name" v="Nedalen" />
		<tag k="place" v="isolated_dwelling" />
		<tag k="ssr:stedsnr" v="733362" />
	</node>
	<node lat="60.17220556003942" lon="9.366424995465099" id="-35879">
		<tag k="name" v="Gravningen" />
		<tag k="place" v="farm" />
		<tag k="ssr:stedsnr" v="733423" />
	</node>
	<node lat="60.015996341446666" lon="9.70800072936271" id="-35880">
		<tag k="alt_name" v="Øvre Velstad" />
		<tag k="name" v="Velstad" />
		<tag k="place" v="hamlet" />
		<tag k="ssr:stedsnr" v="733957" />
	</node>
	<node lat="60.285530557341154" lon="9.267702779892991" id="-35881">
		<tag k="historic" v="shieling" />
		<tag k="name" v="Ligardshaugen" />
		<tag k="place" v="isolated_dwelling" />
		<tag k="ssr:stedsnr" v="734075" />
	</node>
	<node lat="60.275083332182945" lon="9.262591669946286" id="-35882">
		<tag k="fixme" v="consider place=hamlet" />
		<tag k="name" v="Nordbygda" />
		<tag k="place" v="village" />
		<tag k="ssr:stedsnr" v="734118" />
	</node>
	<node lat="60.276091666760905" lon="9.343594447922607" id="-35884">
		<tag k="historic" v="shieling" />
		<tag k="name" v="Åssetra" />
		<tag k="place" v="isolated_dwelling" />
		<tag k="ssr:stedsnr" v="734121" />
	</node>
	<node lat="60.017503695440766" lon="9.679402958528073" id="-35890">
		<tag k="name" v="Dalen" />
		<tag k="place" v="locality" />
		<tag k="ssr:stedsnr" v="753749" />
	</node>
	<node lat="60.133644446880155" lon="9.272141666853054" id="-35894">
		<tag k="name" v="Lågbu" />
		<tag k="place" v="isolated_dwelling" />
		<tag k="ssr:stedsnr" v="757366" />
	</node>
	<node lat="60.25109166521001" lon="9.313427773792625" id="-35900">
		<tag k="name" v="Heimdal" />
		<tag k="place" v="isolated_dwelling" />
		<tag k="ssr:stedsnr" v="758114" />
	</node>
	<node lat="60.2769777803461" lon="9.340183327152657" id="-35918">
		<tag k="historic" v="shieling" />
		<tag k="name" v="Bjørnerudsetra" />
		<tag k="place" v="isolated_dwelling" />
		<tag k="ssr:stedsnr" v="758483" />
	</node>
	<node lat="60.231780555582446" lon="9.371649995779668" id="-35923">
		<tag k="name" v="Rundemyr" />
		<tag k="place" v="isolated_dwelling" />
		<tag k="ssr:stedsnr" v="758853" />
	</node>
	<node lat="60.20859166673885" lon="9.378244446472664" id="-35929">
		<tag k="name" v="Kvernrud" />
		<tag k="place" v="farm" />
		<tag k="ssr:stedsnr" v="758894" />
	</node>
	<node lat="60.210449999531306" lon="9.38289999404096" id="-35934">
		<tag k="name" v="Nørstengåsstykket" />
		<tag k="place" v="locality" />
		<tag k="ssr:stedsnr" v="758892" />
	</node>
	<node lat="60.15935833549014" lon="9.351333337527418" id="-35937">
		<tag k="historic" v="shieling" />
		<tag k="name" v="Erteliseter" />
		<tag k="place" v="isolated_dwelling" />
		<tag k="ssr:stedsnr" v="758981" />
	</node>
	<node lat="60.042911111587905" lon="9.61530000693021" id="-35944">
		<tag k="name" v="Eikli" />
		<tag k="place" v="farm" />
		<tag k="ssr:stedsnr" v="760676" />
	</node>
	<node lat="60.00507500058027" lon="9.67469721798398" id="-35964">
		<tag k="name" v="Liarbu" />
		<tag k="place" v="isolated_dwelling" />
		<tag k="ssr:stedsnr" v="760130" />
	</node>
	<node lat="60.10397777869082" lon="9.456247222753449" id="-35967">
		<tag k="name" v="Ulbergsrødningen" />
		<tag k="place" v="farm" />
		<tag k="ssr:stedsnr" v="760323" />
	</node>
	<node lat="60.0916250001512" lon="9.475186111060045" id="-35972">
		<tag k="name" v="Nedre Hov" />
		<tag k="place" v="farm" />
		<tag k="ssr:stedsnr" v="760429" />
	</node>
	<node lat="59.9954805546581" lon="9.764586111841293" id="-35975">
		<tag k="name" v="Torrud" />
		<tag k="place" v="locality" />
		<tag k="ssr:stedsnr" v="760598" />
	</node>
	<node lat="59.97956110740178" lon="9.75044721741034" id="-35984">
		<tag k="name" v="Aker" />
		<tag k="place" v="farm" />
		<tag k="ssr:stedsnr" v="760566" />
	</node>
	<node lat="59.94778610871539" lon="9.697425005738678" id="-35985">
		<tag k="historic" v="shieling" />
		<tag k="name" v="Berganlia" />
		<tag k="place" v="isolated_dwelling" />
		<tag k="ssr:stedsnr" v="760570" />
	</node>
	<node lat="59.98956944401501" lon="9.749366669758745" id="-35988">
		<tag k="name" v="Lyngstad" />
		<tag k="ssr:stedsnr" v="760589" />
		<tag k="tourism" v="camp_site" />
	</node>
	<node lat="60.06896944749502" lon="9.660063894065944" id="-35994">
		<tag k="name" v="Bjønnemyrhytta" />
		<tag k="place" v="isolated_dwelling" />
		<tag k="ssr:stedsnr" v="761482" />
	</node>
	<node lat="60.06474167036613" lon="9.745116662498459" id="-36000">
		<tag k="historic" v="shieling" />
		<tag k="name" v="Mosetra" />
		<tag k="place" v="isolated_dwelling" />
		<tag k="ssr:stedsnr" v="785938" />
	</node>
	<node lat="59.961549998731854" lon="9.819975003826475" id="-36001">
		<tag k="name" v="Nordby" />
		<tag k="place" v="farm" />
		<tag k="ssr:stedsnr" v="792752" />
	</node>
	<node lat="59.96037722986585" lon="9.643468644757277" id="-36004">
		<tag k="fixme" v="consider place=hamlet" />
		<tag k="name" v="Skuggerud" />
		<tag k="place" v="farm" />
		<tag k="ssr:stedsnr" v="792773" />
	</node>
	<node lat="60.17395833017767" lon="9.478316663199895" id="-36006">
		<tag k="name" v="Trulsehytta" />
		<tag k="place" v="isolated_dwelling" />
		<tag k="ssr:stedsnr" v="793485" />
	</node>
	<node lat="60.10307306859645" lon="9.519112085613264" id="-36009">
		<tag k="fixme" v="consider place=hamlet" />
		<tag k="name" v="Moen" />
		<tag k="place" v="farm" />
		<tag k="ssr:stedsnr" v="793426" />
	</node>
	<node lat="60.13848611378864" lon="9.426441661393348" id="-36011">
		<tag k="alt_name" v="Bergerud" />
		<tag k="name" v="Øvre Bergerud" />
		<tag k="place" v="farm" />
		<tag k="ssr:stedsnr" v="793448" />
	</node>
	<node lat="60.13198888949532" lon="9.569680553030315" id="-36013">
		<tag k="alt_name" v="Skomannrudsetra" />
		<tag k="historic" v="shieling" />
		<tag k="name" v="Skomannrud" />
		<tag k="place" v="isolated_dwelling" />
		<tag k="ssr:stedsnr" v="793463" />
	</node>
	<node lat="59.92999166579395" lon="9.68900833605794" id="-36018">
		<tag k="name" v="Porten" />
		<tag k="place" v="isolated_dwelling" />
		<tag k="ssr:stedsnr" v="793853" />
	</node>
	<node lat="60.0391043916643" lon="9.633167807348615" id="-36019">
		<tag k="alt_name" v="Øvre Kringstad" />
		<tag k="fixme" v="consider place=hamlet" />
		<tag k="name" v="Kringstad" />
		<tag k="place" v="farm" />
		<tag k="ssr:stedsnr" v="793933" />
	</node>
	<node lat="60.02187990573981" lon="9.718333470946147" id="-36022">
		<tag k="fixme" v="consider place=hamlet" />
		<tag k="name" v="Hovland" />
		<tag k="place" v="farm" />
		<tag k="ssr:stedsnr" v="793956" />
	</node>
	<node lat="60.043150002930965" lon="9.553124998381866" id="-36023">
		<tag k="alt_name" v="Flågan" />
		<tag k="name" v="Søre Flågan" />
		<tag k="place" v="farm" />
		<tag k="ssr:stedsnr" v="794049" />
	</node>
	<node lat="60.06729999610525" lon="9.479719445249787" id="-36024">
		<tag k="alt_name" v="Strand" />
		<tag k="name" v="Nordre Strand" />
		<tag k="place" v="farm" />
		<tag k="ssr:stedsnr" v="794077" />
	</node>
	<node lat="60.249186498625356" lon="9.341295720026835" id="-36029">
		<tag k="fixme" v="consider place=hamlet" />
		<tag k="name" v="Pletan" />
		<tag k="place" v="farm" />
		<tag k="ssr:stedsnr" v="794285" />
	</node>
	<node lat="60.167505556707276" lon="9.423052777806054" id="-36031">
		<tag k="alt_name" v="Myra" />
		<tag k="name" v="Myre" />
		<tag k="place" v="locality" />
		<tag k="ssr:stedsnr" v="794439" />
	</node>
	<node lat="60.15587500175514" lon="9.430694443483397" id="-36033">
		<tag k="name" v="Tovsrud" />
		<tag k="place" v="isolated_dwelling" />
		<tag k="ssr:stedsnr" v="794445" />
	</node>
	<node lat="60.11705278048425" lon="9.381863892256057" id="-36069">
		<tag k="name" v="Fisebu" />
		<tag k="place" v="locality" />
		<tag k="ssr:stedsnr" v="819090" />
	</node>
	<node lat="60.256505559973775" lon="9.419441660448575" id="-36077">
		<tag k="name" v="Gamleseterfeltet" />
		<tag k="old_name" v="Gamleseterfjeltet" />
		<tag k="place" v="neighbourhood" />
		<tag k="ssr:stedsnr" v="819153" />
	</node>
	<node lat="60.17116111259896" lon="9.474761120119286" id="-36084">
		<tag k="name" v="Vannberg" />
		<tag k="place" v="isolated_dwelling" />
		<tag k="ssr:stedsnr" v="819646" />
	</node>
	<node lat="60.19387222434213" lon="9.398316663262687" id="-36086">
		<tag k="name" v="Øvre Sole" />
		<tag k="place" v="farm" />
		<tag k="ssr:stedsnr" v="819761" />
	</node>
	<node lat="60.218202774043945" lon="9.381077773287052" id="-36092">
		<tag k="name" v="Hansongården" />
		<tag k="place" v="farm" />
		<tag k="ssr:stedsnr" v="819863" />
	</node>
	<node lat="60.25480000176323" lon="9.285949994478598" id="-36094">
		<tag k="name" v="Basol" />
		<tag k="place" v="locality" />
		<tag k="ssr:stedsnr" v="819926" />
	</node>
	<node lat="60.037483337182664" lon="9.607227774382679" id="-36111">
		<tag k="name" v="Øverbymoen" />
		<tag k="place" v="isolated_dwelling" />
		<tag k="ssr:stedsnr" v="821681" />
	</node>
	<node lat="59.98533055605428" lon="9.637397214627397" id="-36121">
		<tag k="name" v="Dælahytta" />
		<tag k="place" v="isolated_dwelling" />
		<tag k="ssr:stedsnr" v="821135" />
	</node>
	<node lat="59.94398888558556" lon="9.691852783091797" id="-36129">
		<tag k="name" v="Fagerbakkeremsa" />
		<tag k="place" v="locality" />
		<tag k="ssr:stedsnr" v="821394" />
	</node>
	<node lat="59.959461113420694" lon="9.619230559433767" id="-36131">
		<tag k="name" v="Øvre Vatnås" />
		<tag k="place" v="farm" />
		<tag k="ssr:stedsnr" v="821398" />
	</node>
	<node lat="60.05623888767107" lon="9.67910833189991" id="-36132">
		<tag k="name" v="Skarpsno" />
		<tag k="place" v="farm" />
		<tag k="ssr:stedsnr" v="821496" />
	</node>
	<node lat="60.042188887611125" lon="9.650894452403062" id="-36134">
		<tag k="name" v="Prestfoss gartneri" />
		<tag k="place" v="locality" />
		<tag k="ssr:stedsnr" v="821599" />
	</node>
	<node lat="60.09220277526496" lon="9.452683324564605" id="-36140">
		<tag k="name" v="Nordre Åsen" />
		<tag k="place" v="farm" />
		<tag k="ssr:stedsnr" v="821329" />
	</node>
	<node lat="60.02906091565371" lon="9.676016845946318" id="-36147">
		<tag k="name" v="Søre Eikje" />
		<tag k="place" v="farm" />
		<tag k="ssr:stedsnr" v="821653" />
	</node>
	<node lat="59.98250555879855" lon="9.727897223752032" id="-36149">
		<tag k="name" v="Kvisleplassen" />
		<tag k="place" v="locality" />
		<tag k="ssr:stedsnr" v="821558" />
	</node>
	<node lat="60.033852781940915" lon="9.779369442997815" id="-36153">
		<tag k="historic" v="shieling" />
		<tag k="name" v="Haugseter" />
		<tag k="place" v="isolated_dwelling" />
		<tag k="ssr:stedsnr" v="821770" />
	</node>
	<node lat="60.049897226225035" lon="9.644083331255834" id="-36178">
		<tag k="alt_name" v="Haugan" />
		<tag k="name" v="Øvre Haugan" />
		<tag k="place" v="farm" />
		<tag k="ssr:stedsnr" v="854897" />
	</node>
	<node lat="60.052613888375724" lon="9.639125004768735" id="-36179">
		<tag k="name" v="Åsly" />
		<tag k="place" v="farm" />
		<tag k="ssr:stedsnr" v="854898" />
	</node>
	<node lat="60.045438887720806" lon="9.691177779352993" id="-36180">
		<tag k="name" v="Ås" />
		<tag k="place" v="farm" />
		<tag k="ssr:stedsnr" v="854899" />
	</node>
	<node lat="59.97500617077508" lon="9.764597006850959" id="-36181">
		<tag k="alt_name" v="Nordre Bergan" />
		<tag k="fixme" v="consider place=hamlet" />
		<tag k="name" v="Bergan" />
		<tag k="place" v="farm" />
		<tag k="ssr:stedsnr" v="853767" />
	</node>
	<node lat="60.08765277609485" lon="9.467105554472658" id="-36183">
		<tag k="name" v="Svingom" />
		<tag k="place" v="farm" />
		<tag k="ssr:stedsnr" v="854086" />
	</node>
	<node lat="60.09147458600472" lon="9.453678809025519" id="-36184">
		<tag k="fixme" v="consider place=hamlet" />
		<tag k="name" v="Åsen" />
		<tag k="place" v="farm" />
		<tag k="ssr:stedsnr" v="854092" />
	</node>
	<node lat="60.08756388453524" lon="9.462266666244263" id="-36185">
		<tag k="name" v="Orholt" />
		<tag k="place" v="farm" />
		<tag k="ssr:stedsnr" v="854095" />
	</node>
	<node lat="60.08535832977359" lon="9.447630551062026" id="-36186">
		<tag k="name" v="Langås" />
		<tag k="place" v="isolated_dwelling" />
		<tag k="ssr:stedsnr" v="854096" />
	</node>
	<node lat="60.242569440747644" lon="9.283713884604689" id="-36187">
		<tag k="alt_name" v="Skåla" />
		<tag k="name" v="Øvre Skåla" />
		<tag k="place" v="farm" />
		<tag k="ssr:stedsnr" v="854279" />
	</node>
	<node lat="60.24308611070947" lon="9.26397778564922" id="-36188">
		<tag k="alt_name" v="Kodalen" />
		<tag k="name" v="Sør-Kodalen" />
		<tag k="place" v="farm" />
		<tag k="ssr:stedsnr" v="854281" />
	</node>
	<node lat="60.2059583339964" lon="9.423486115050936" id="-36194">
		<tag k="name" v="Knebithytta" />
		<tag k="place" v="isolated_dwelling" />
		<tag k="ssr:stedsnr" v="854474" />
	</node>
	<node lat="60.231169442106996" lon="9.4035722247897" id="-36200">
		<tag k="alt_name" v="Ellevsrud" />
		<tag k="name" v="Søre Ellevsrud" />
		<tag k="place" v="farm" />
		<tag k="ssr:stedsnr" v="855261" />
	</node>
	<node lat="60.16284444794948" lon="9.377291666641455" id="-36203">
		<tag k="name" v="Biksrud" />
		<tag k="place" v="farm" />
		<tag k="ssr:stedsnr" v="855445" />
	</node>
	<node lat="60.08628434575147" lon="9.611839131695628" id="-36206">
		<tag k="alt_name" v="Viksetra" />
		<tag k="name" v="Vikseter" />
		<tag k="place" v="locality" />
		<tag k="ssr:stedsnr" v="855873" />
	</node>
	<node lat="60.122169442694194" lon="9.43773056046654" id="-36231">
		<tag k="name" v="Søre Halsteinrud" />
		<tag k="place" v="farm" />
		<tag k="ssr:stedsnr" v="880428" />
	</node>
	<node lat="60.25384444077204" lon="9.366766668376124" id="-36232">
		<tag k="name" v="Nordre Øvre-Teige" />
		<tag k="place" v="farm" />
		<tag k="ssr:stedsnr" v="880539" />
	</node>
	<node lat="60.270300000358304" lon="9.263100000935976" id="-36237">
		<tag k="name" v="Nordre Bråtan" />
		<tag k="place" v="farm" />
		<tag k="ssr:stedsnr" v="879846" />
	</node>
	<node lat="60.14728889260459" lon="9.41872777624572" id="-36244">
		<tag k="name" v="Mellom-Lia" />
		<tag k="place" v="farm" />
		<tag k="ssr:stedsnr" v="880070" />
	</node>
	<node lat="60.266499998320036" lon="9.4155138908759" id="-36249">
		<tag k="historic" v="shieling" />
		<tag k="name" v="Bråtaseter" />
		<tag k="place" v="isolated_dwelling" />
		<tag k="ssr:stedsnr" v="880476" />
	</node>
	<node lat="60.27341110939918" lon="9.387266663764722" id="-36250">
		<tag k="historic" v="shieling" />
		<tag k="name" v="Sø-Jellesetra" />
		<tag k="place" v="isolated_dwelling" />
		<tag k="ssr:stedsnr" v="880376" />
	</node>
	<node lat="60.01603333729827" lon="9.697269446967365" id="-36252">
		<tag k="name" v="Vestheim" />
		<tag k="place" v="isolated_dwelling" />
		<tag k="ssr:stedsnr" v="882232" />
	</node>
	<node lat="59.9581694487369" lon="9.705391668933117" id="-36258">
		<tag k="historic" v="shieling" />
		<tag k="name" v="Tjennbråtan" />
		<tag k="place" v="isolated_dwelling" />
		<tag k="ssr:stedsnr" v="882380" />
	</node>
	<node lat="59.95881666672286" lon="9.75921667381689" id="-36260">
		<tag k="name" v="Søre Åby" />
		<tag k="place" v="farm" />
		<tag k="ssr:stedsnr" v="882397" />
	</node>
	<node lat="60.205494442440745" lon="9.381991674504338" id="-36268">
		<tag k="name" v="Bråtan" />
		<tag k="place" v="isolated_dwelling" />
		<tag k="ssr:stedsnr" v="880890" />
	</node>
	<node lat="60.204777776160114" lon="9.374341675117412" id="-36269">
		<tag k="name" v="Skårshagan" />
		<tag k="place" v="locality" />
		<tag k="ssr:stedsnr" v="880892" />
	</node>
	<node lat="60.17175555692817" lon="9.390955549846447" id="-36270">
		<tag k="name" v="Mellom-Grønhovd" />
		<tag k="place" v="farm" />
		<tag k="ssr:stedsnr" v="880897" />
	</node>
	<node lat="59.960897225950404" lon="9.790036117493257" id="-36281">
		<tag k="name" v="Berget" />
		<tag k="place" v="farm" />
		<tag k="ssr:stedsnr" v="882401" />
	</node>
	<node lat="59.90124444227863" lon="9.722144436315897" id="-36294">
		<tag k="name" v="Nævramoen" />
		<tag k="place" v="isolated_dwelling" />
		<tag k="ssr:stedsnr" v="882499" />
	</node>
	<node lat="59.970183333175086" lon="9.557991669109589" id="-36295">
		<tag k="name" v="Saglanda" />
		<tag k="place" v="isolated_dwelling" />
		<tag k="ssr:stedsnr" v="882500" />
	</node>
	<node lat="60.01460000365899" lon="9.74524167135186" id="-36311">
		<tag k="name" v="Hagan" />
		<tag k="place" v="isolated_dwelling" />
		<tag k="ssr:stedsnr" v="882692" />
	</node>
	<node lat="60.078830558096286" lon="9.74339444711882" id="-36317">
		<tag k="name" v="Nedre Finnerud" />
		<tag k="place" v="farm" />
		<tag k="ssr:stedsnr" v="882879" />
	</node>
	<node lat="60.249411110527305" lon="9.294399998071116" id="-36330">
		<tag k="name" v="Flata" />
		<tag k="place" v="locality" />
		<tag k="ssr:stedsnr" v="939931" />
	</node>
	<node lat="60.168169445953225" lon="9.226069451764376" id="-36333">
		<tag k="historic" v="shieling" />
		<tag k="name" v="Storvassetra" />
		<tag k="place" v="isolated_dwelling" />
		<tag k="ssr:stedsnr" v="940141" />
	</node>
	<node lat="60.250141670939044" lon="9.386630561087914" id="-36334">
		<tag k="historic" v="shieling" />
		<tag k="name" v="Øvre Bråtan" />
		<tag k="place" v="isolated_dwelling" />
		<tag k="ssr:stedsnr" v="940143" />
	</node>
	<node lat="60.27279444589945" lon="9.384644439419802" id="-36345">
		<tag k="historic" v="shieling" />
		<tag k="name" v="Sø-Teigeseter" />
		<tag k="place" v="isolated_dwelling" />
		<tag k="ssr:stedsnr" v="940386" />
	</node>
	<node lat="60.17913610849327" lon="9.403613891450592" id="-36355">
		<tag k="name" v="Bakken" />
		<tag k="place" v="isolated_dwelling" />
		<tag k="ssr:stedsnr" v="940718" />
	</node>
	<node lat="60.24086389031179" lon="9.247330562828667" id="-36360">
		<tag k="name" v="Fram-Bøle" />
		<tag k="place" v="farm" />
		<tag k="ssr:stedsnr" v="940844" />
	</node>
	<node lat="60.21927777548536" lon="9.377572223752951" id="-36364">
		<tag k="name" v="Tjennrønningen" />
		<tag k="place" v="isolated_dwelling" />
		<tag k="ssr:stedsnr" v="940874" />
	</node>
	<node lat="60.252310626839396" lon="9.28937732216527" id="-36365">
		<tag k="name" v="Kleivsbråtan" />
		<tag k="place" v="locality" />
		<tag k="ssr:stedsnr" v="940932" />
	</node>
	<node lat="60.22966389286667" lon="9.488622229614958" id="-36384">
		<tag k="historic" v="shieling" />
		<tag k="name" v="Kopsengseter" />
		<tag k="place" v="isolated_dwelling" />
		<tag k="ssr:stedsnr" v="941525" />
	</node>
	<node lat="60.23181944480624" lon="9.491111111679485" id="-36385">
		<tag k="name" v="Sameiga" />
		<tag k="place" v="locality" />
		<tag k="ssr:stedsnr" v="941526" />
	</node>
	<node lat="60.15969721948527" lon="9.479280564262599" id="-36387">
		<tag k="name" v="Svarteputthytta" />
		<tag k="place" v="isolated_dwelling" />
		<tag k="ssr:stedsnr" v="941622" />
	</node>
	<node lat="60.040972220375664" lon="9.622902774858893" id="-36394">
		<tag k="leisure" v="pitch" />
		<tag k="name" v="Slettebakken" />
		<tag k="ssr:stedsnr" v="942681" />
	</node>
	<node lat="59.9754138873436" lon="9.75064166069419" id="-36408">
		<tag k="name" v="Noss" />
		<tag k="place" v="isolated_dwelling" />
		<tag k="ssr:stedsnr" v="942384" />
	</node>
	<node lat="59.96616944720371" lon="9.774241668969388" id="-36411">
		<tag k="name" v="Fagerstad" />
		<tag k="place" v="isolated_dwelling" />
		<tag k="ssr:stedsnr" v="942444" />
	</node>
	<node lat="60.036022224609745" lon="9.675458332652783" id="-36413">
		<tag k="name" v="Sundbakken" />
		<tag k="place" v="isolated_dwelling" />
		<tag k="ssr:stedsnr" v="942597" />
	</node>
	<node lat="59.948713885380315" lon="9.696663890593975" id="-36414">
		<tag k="historic" v="shieling" />
		<tag k="name" v="Åbysetra" />
		<tag k="place" v="isolated_dwelling" />
		<tag k="ssr:stedsnr" v="942557" />
	</node>
	<node lat="60.03531681201447" lon="9.594682836380333" id="-36417">
		<tag k="name" v="Køssa" />
		<tag k="place" v="farm" />
		<tag k="ssr:stedsnr" v="942677" />
	</node>
	<node lat="60.025402778341466" lon="9.691275006690661" id="-36420">
		<tag k="name" v="Elverud" />
		<tag k="place" v="farm" />
		<tag k="ssr:stedsnr" v="942869" />
	</node>
	<node lat="60.02114444658354" lon="9.454077769601476" id="-36432">
		<tag k="historic" v="shieling" />
		<tag k="name" v="Veggesrudsetra" />
		<tag k="place" v="isolated_dwelling" />
		<tag k="ssr:stedsnr" v="943093" />
	</node>
	<node lat="60.02870832955324" lon="9.52463888319562" id="-36439">
		<tag k="name" v="Tverråstua" />
		<tag k="place" v="isolated_dwelling" />
		<tag k="ssr:stedsnr" v="943238" />
	</node>
	<node lat="60.063566662962536" lon="9.492472217349553" id="-36442">
		<tag k="name" v="Treet" />
		<tag k="place" v="isolated_dwelling" />
		<tag k="ssr:stedsnr" v="943222" />
	</node>
	<node lat="60.00956388661665" lon="9.561894446167171" id="-36447">
		<tag k="name" v="Liabråtan" />
		<tag k="place" v="locality" />
		<tag k="ssr:stedsnr" v="943327" />
	</node>
	<node lat="60.08158611210299" lon="9.59677221803274" id="-36456">
		<tag k="name" v="Storekleivhytta" />
		<tag k="place" v="isolated_dwelling" />
		<tag k="ssr:stedsnr" v="943398" />
	</node>
	<node lat="59.98417221949824" lon="9.744311105402884" id="-36461">
		<tag k="name" v="Øvre Anfinnrud" />
		<tag k="place" v="farm" />
		<tag k="ssr:stedsnr" v="943573" />
	</node>
	<node lat="60.00830833546325" lon="9.746574999915314" id="-36465">
		<tag k="name" v="Nedre Haugen" />
		<tag k="place" v="isolated_dwelling" />
		<tag k="ssr:stedsnr" v="943752" />
	</node>
	<node lat="60.0896416653191" lon="9.634761117753266" id="-36469">
		<tag k="name" v="Seterstykket" />
		<tag k="place" v="locality" />
		<tag k="ssr:stedsnr" v="943866" />
	</node>
	<node lat="59.98083948504837" lon="9.76267502828464" id="-36474">
		<tag k="name" v="Kolsrud" />
		<tag k="place" v="farm" />
		<tag k="ssr:stedsnr" v="975045" />
	</node>
	<node lat="60.02956339967357" lon="9.677474532391209" id="-36475">
		<tag k="name" v="Nordre Eikje" />
		<tag k="place" v="farm" />
		<tag k="ssr:stedsnr" v="975046" />
	</node>
	<node lat="60.09097046227239" lon="9.453369653322806" id="-36476">
		<tag k="name" v="Søre Åsen" />
		<tag k="place" v="farm" />
		<tag k="ssr:stedsnr" v="975044" />
	</node>
	<node lat="60.03289180395914" lon="9.582160188033274" id="-36583">
		<tag k="name" v="Skogtun" />
		<tag k="place" v="farm" />
		<tag k="ssr:stedsnr" v="985062" />
	</node>
	<node lat="60.13720309230362" lon="9.444790619268598" id="-36586">
		<tag k="name" v="Gladheim" />
		<tag k="place" v="farm" />
		<tag k="ssr:stedsnr" v="989706" />
	</node>
	<node lat="60.19627267063941" lon="9.392807669058708" id="-36587">
		<tag k="fixme" v="consider place=hamlet" />
		<tag k="name" v="Kopseng" />
		<tag k="place" v="farm" />
		<tag k="ssr:stedsnr" v="990081" />
	</node>
	<node lat="60.05250164971285" lon="9.605773797111649" id="-36835">
		<tag k="name" v="Vik" />
		<tag k="place" v="hamlet" />
		<tag k="ssr:stedsnr" v="1072495" />
	</node>
	<node lat="60.06730448803725" lon="9.483880074953435" id="-36836">
		<tag k="name" v="Strand" />
		<tag k="place" v="hamlet" />
		<tag k="ssr:stedsnr" v="1072496" />
	</node>
	<node lat="60.19290561553785" lon="9.401321365371357" id="-36837">
		<tag k="fixme" v="consider place=hamlet" />
		<tag k="name" v="Sole" />
		<tag k="place" v="farm" />
		<tag k="ssr:stedsnr" v="1072498" />
	</node>
	<node lat="60.21596051744084" lon="9.368103424397288" id="-36838">
		<tag k="fixme" v="consider place=hamlet" />
		<tag k="name" v="Ertesprang" />
		<tag k="place" v="farm" />
		<tag k="ssr:stedsnr" v="1072499" />
	</node>
	<node lat="60.2356577534274" lon="9.330580113848171" id="-36839">
		<tag k="name" v="Søland" />
		<tag k="place" v="hamlet" />
		<tag k="ssr:stedsnr" v="1072501" />
	</node>
	<node lat="60.25255771502761" lon="9.366804852405986" id="-36840">
		<tag k="name" v="Teige" />
		<tag k="place" v="hamlet" />
		<tag k="ssr:stedsnr" v="1072502" />
	</node>
	<node lat="60.25564977815997" lon="9.363642253619915" id="-36841">
		<tag k="fixme" v="consider place=hamlet" />
		<tag k="name" v="Berg" />
		<tag k="place" v="farm" />
		<tag k="ssr:stedsnr" v="1072503" />
	</node>
	<node lat="60.251896854842514" lon="9.339312852814933" id="-36842">
		<tag k="fixme" v="consider place=hamlet" />
		<tag k="name" v="Rugland" />
		<tag k="place" v="farm" />
		<tag k="ssr:stedsnr" v="1072504" />
	</node>
	<node lat="60.25904679498212" lon="9.304006090752967" id="-36843">
		<tag k="fixme" v="consider place=hamlet" />
		<tag k="name" v="Skare" />
		<tag k="place" v="farm" />
		<tag k="ssr:stedsnr" v="1072505" />
	</node>
	<node lat="60.288726832900444" lon="9.24655055640508" id="-36844">
		<tag k="fixme" v="consider place=hamlet" />
		<tag k="name" v="Medalen" />
		<tag k="place" v="farm" />
		<tag k="ssr:stedsnr" v="1072507" />
	</node>
	<node lat="60.24229003957976" lon="9.26396164634512" id="-36845">
		<tag k="name" v="Kodalen" />
		<tag k="place" v="hamlet" />
		<tag k="ssr:stedsnr" v="1072508" />
	</node>
	<node lat="60.24283744552921" lon="9.285823536312602" id="-36846">
		<tag k="fixme" v="consider place=hamlet" />
		<tag k="name" v="Skåla" />
		<tag k="place" v="farm" />
		<tag k="ssr:stedsnr" v="1072509" />
	</node>
	<node lat="60.241070961939805" lon="9.255168556411276" id="-36847">
		<tag k="name" v="Berget" />
		<tag k="place" v="hamlet" />
		<tag k="ssr:stedsnr" v="1072510" />
	</node>
	<node lat="60.239437283859324" lon="9.240741709475916" id="-36848">
		<tag k="fixme" v="consider place=hamlet" />
		<tag k="name" v="Bøle" />
		<tag k="place" v="farm" />
		<tag k="ssr:stedsnr" v="1072511" />
	</node>
	<node lat="59.95689365700352" lon="9.83165266912858" id="-36849">
		<tag k="fixme" v="consider place=hamlet" />
		<tag k="name" v="Bjørndalen" />
		<tag k="place" v="farm" />
		<tag k="ssr:stedsnr" v="1072463" />
	</node>
	<node lat="60.04629278247719" lon="9.551944472749936" id="-36850">
		<tag k="fixme" v="consider place=hamlet" />
		<tag k="name" v="Flågan" />
		<tag k="place" v="farm" />
		<tag k="ssr:stedsnr" v="1072465" />
	</node>
	<node lat="60.050299618824" lon="9.644509996357332" id="-36851">
		<tag k="fixme" v="consider place=hamlet" />
		<tag k="name" v="Haugan" />
		<tag k="place" v="farm" />
		<tag k="ssr:stedsnr" v="1072466" />
	</node>
	<node lat="60.04781099285978" lon="9.63754956333055" id="-36852">
		<tag k="fixme" v="consider place=hamlet" />
		<tag k="name" v="Sigdal prestegård" />
		<tag k="place" v="farm" />
		<tag k="ssr:stedsnr" v="1072467" />
	</node>
	<node lat="60.01840874160529" lon="9.693770000113249" id="-36853">
		<tag k="fixme" v="consider place=hamlet" />
		<tag k="name" v="Langerud" />
		<tag k="place" v="farm" />
		<tag k="ssr:stedsnr" v="1072468" />
	</node>
	<node lat="60.03929181779183" lon="9.649040080270549" id="-36854">
		<tag k="fixme" v="consider place=hamlet" />
		<tag k="name" v="Ebbesberg" />
		<tag k="place" v="farm" />
		<tag k="ssr:stedsnr" v="1072469" />
	</node>
	<node lat="59.98384231103695" lon="9.596190223695588" id="-36855">
		<tag k="fixme" v="consider place=hamlet" />
		<tag k="name" v="Emmerud" />
		<tag k="place" v="farm" />
		<tag k="ssr:stedsnr" v="1072470" />
	</node>
	<node lat="59.96911170315729" lon="9.643948199957697" id="-36856">
		<tag k="fixme" v="consider place=hamlet" />
		<tag k="name" v="Li" />
		<tag k="place" v="farm" />
		<tag k="ssr:stedsnr" v="1072476" />
	</node>
	<node lat="59.92486552555824" lon="9.708644773691788" id="-36857">
		<tag k="fixme" v="consider place=hamlet" />
		<tag k="name" v="Flaget" />
		<tag k="place" v="farm" />
		<tag k="ssr:stedsnr" v="1072479" />
	</node>
	<node lat="60.03982213766718" lon="9.613697074985748" id="-36858">
		<tag k="fixme" v="consider place=hamlet" />
		<tag k="name" v="Øverby" />
		<tag k="place" v="farm" />
		<tag k="ssr:stedsnr" v="1072480" />
	</node>
	<node lat="60.043339206097286" lon="9.609061839131103" id="-36859">
		<tag k="fixme" v="consider place=hamlet" />
		<tag k="name" v="Sund" />
		<tag k="place" v="farm" />
		<tag k="ssr:stedsnr" v="1072481" />
	</node>
	<node lat="60.082994605520994" lon="9.517740007126717" id="-36866">
		<tag k="name" v="Rudstangen" />
		<tag k="place" v="locality" />
		<tag k="ssr:stedsnr" v="1082791" />
	</node>
</osm>
