<?xml version="1.0" encoding="UTF-8"?>
<osm generator="osmapis" version="0.6">
	<node id="-270335" lat="60.0335749992" lon="9.45759722691">
		<tag k="highway" v="path" />
		<tag k="name" v="Vinterveien" />
		<tag k="ssr:stedsnr" v="700954" />
	</node>
	<node id="-270643" lat="60.0142277822" lon="9.51015555334">
		<tag k="highway" v="path" />
		<tag k="name" v="Høgeliveien" />
		<tag k="ssr:stedsnr" v="943128" />
	</node>
	<node id="-272378" lat="60.1164444439" lon="9.29268889017">
		<tag k="ford" v="yes" />
		<tag k="name" v="Hovsvad" />
		<tag k="place" v="locality" />
		<tag k="ssr:stedsnr" v="757359" />
	</node>
	<node id="-270847" lat="60.2438666639" lon="9.3709638808">
		<tag k="highway" v="path" />
		<tag k="name" v="Stensrud" />
		<tag k="ssr:stedsnr" v="30130" />
	</node>
	<node id="-269301" lat="60.2402944428" lon="9.39748889675">
		<tag k="name" v="Lunnestaden" />
		<tag k="place" v="locality" />
		<tag k="ssr:stedsnr" v="273161" />
	</node>
	<node id="-272126" lat="60.1256888898" lon="9.39016945154">
		<tag k="bridge" v="yes" />
		<tag k="layer" v="1" />
		<tag k="name" v="Sleipeklopp" />
		<tag k="ssr:stedsnr" v="577597" />
	</node>
	<node id="-271341" lat="60.0603166634" lon="9.50963611855">
		<tag k="fixme" v="consider highway=path" />
		<tag k="highway" v="track" />
		<tag k="name" v="Gamleveien" />
		<tag k="ssr:stedsnr" v="153185" />
	</node>
	<node id="-272363" lat="60.0813361089" lon="9.51558888279">
		<tag k="bridge" v="yes" />
		<tag k="layer" v="1" />
		<tag k="name" v="Eidalstangen" />
		<tag k="ssr:stedsnr" v="653959" />
	</node>
	<node id="-272362" lat="60.344933332" lon="9.18469443577">
		<tag k="bridge" v="yes" />
		<tag k="layer" v="1" />
		<tag k="name" v="Haglebu" />
		<tag k="ssr:stedsnr" v="653956" />
	</node>
	<node id="-270313" lat="60.0102527763" lon="9.49284722853">
		<tag k="highway" v="path" />
		<tag k="name" v="Fjøsliveien" />
		<tag k="ssr:stedsnr" v="700120" />
	</node>
	<node id="-272357" lat="60.0992888852" lon="9.64776388599">
		<tag k="fixme" v="consider highway=path" />
		<tag k="highway" v="track" />
		<tag k="name" v="Tangenveien" />
		<tag k="ssr:stedsnr" v="639917" />
	</node>
	<node id="-271843" lat="60.3156305597" lon="9.23945000351">
		<tag k="highway" v="path" />
		<tag k="name" v="Lianfjellveien" />
		<tag k="ssr:stedsnr" v="394099" />
	</node>
	<node id="-272353" lat="60.0758" lon="9.50863610298">
		<tag k="highway" v="path" />
		<tag k="name" v="Skoleveien" />
		<tag k="ssr:stedsnr" v="639587" />
	</node>
	<node id="-271696" lat="59.9714138858" lon="9.70453889475">
		<tag k="highway" v="path" />
		<tag k="name" v="Angerkleiv" />
		<tag k="ssr:stedsnr" v="335392" />
	</node>
	<node id="-271838" lat="60.1516944464" lon="9.33098055697">
		<tag k="highway" v="path" />
		<tag k="name" v="Geitekleiv" />
		<tag k="ssr:stedsnr" v="394079" />
	</node>
	<node id="-269275" lat="60.0624527819" lon="9.69882778535">
		<tag k="highway" v="path" />
		<tag k="name" v="Bekkedalsveien" />
		<tag k="ssr:stedsnr" v="457942" />
	</node>
	<node id="-269135" lat="60.1390222254" lon="9.40605000889">
		<tag k="highway" v="path" />
		<tag k="name" v="Ulefjellveien" />
		<tag k="ssr:stedsnr" v="455067" />
	</node>
	<node id="-272344" lat="60.1241499969" lon="9.55396110463">
		<tag k="highway" v="path" />
		<tag k="name" v="Seterveien" />
		<tag k="ssr:stedsnr" v="639374" />
	</node>
	<node id="-271827" lat="60.2260972209" lon="9.20354444608">
		<tag k="highway" v="path" />
		<tag k="name" v="Skålaseterveien" />
		<tag k="ssr:stedsnr" v="393077" />
	</node>
	<node id="-269264" lat="60.0059611072" lon="9.68818611493">
		<tag k="highway" v="path" />
		<tag k="name" v="Dælaveien" />
		<tag k="ssr:stedsnr" v="457755" />
	</node>
	<node id="-272332" lat="60.0005388861" lon="9.47204444984">
		<tag k="junction" v="yes" />
		<tag k="name" v="Pavelundveiskillet" />
		<tag k="place" v="locality" />
		<tag k="ssr:stedsnr" v="639108" />
	</node>
	<node id="-270274" lat="60.2394111136" lon="9.35427777427">
		<tag k="ford" v="yes" />
		<tag k="name" v="Strengåvad" />
		<tag k="place" v="locality" />
		<tag k="ssr:stedsnr" v="697129" />
	</node>
	<node id="-271289" lat="60.1837944441" lon="9.44113888186">
		<tag k="highway" v="path" />
		<tag k="name" v="Skarsveien" />
		<tag k="ssr:stedsnr" v="151692" />
	</node>
	<node id="-269226" lat="60.077663889" lon="9.62013611682">
		<tag k="highway" v="path" />
		<tag k="name" v="Norddælaveien" />
		<tag k="ssr:stedsnr" v="457378" />
	</node>
	<node id="-269223" lat="60.081688892" lon="9.63157222138">
		<tag k="highway" v="path" />
		<tag k="name" v="Ramstadseterveien" />
		<tag k="ssr:stedsnr" v="457362" />
	</node>
	<node id="-271267" lat="60.2511111083" lon="9.3791833332">
		<tag k="highway" v="path" />
		<tag k="name" v="Seterveien" />
		<tag k="ssr:stedsnr" v="151155" />
	</node>
	<node id="-272290" lat="60.0862194473" lon="9.47107222441">
		<tag k="fixme" v="verify maritime location" />
		<tag k="mooring" v="yes" />
		<tag k="name" v="Støa" />
		<tag k="place" v="locality" />
		<tag k="ssr:stedsnr" v="638300" />
	</node>
	<node id="-270231" lat="59.9468833359" lon="9.72839166322">
		<tag k="name" v="Lunnestaden" />
		<tag k="place" v="locality" />
		<tag k="ssr:stedsnr" v="882552" />
	</node>
	<node id="-271763" lat="60.2610527771" lon="9.28903888107">
		<tag k="bridge" v="yes" />
		<tag k="layer" v="1" />
		<tag k="name" v="Skare" />
		<tag k="ssr:stedsnr" v="350998" />
	</node>
	<node id="-271762" lat="60.0101527763" lon="9.73790278047">
		<tag k="bridge" v="yes" />
		<tag k="layer" v="1" />
		<tag k="name" v="Støvern" />
		<tag k="ssr:stedsnr" v="350992" />
	</node>
	<node id="-271761" lat="60.1370694414" lon="9.43951944858">
		<tag k="bridge" v="yes" />
		<tag k="layer" v="1" />
		<tag k="name" v="Øya" />
		<tag k="ssr:stedsnr" v="350991" />
	</node>
	<node id="-269197" lat="60.0310944426" lon="9.54352223092">
		<tag k="highway" v="path" />
		<tag k="name" v="Høgeliveien" />
		<tag k="ssr:stedsnr" v="457043" />
	</node>
	<node id="-270729" lat="60.0410777772" lon="9.59061665778">
		<tag k="bridge" v="yes" />
		<tag k="layer" v="1" />
		<tag k="name" v="Sandsbråten" />
		<tag k="ssr:stedsnr" v="896965" />
	</node>
	<node id="-270216" lat="60.1346499968" lon="9.54097499972">
		<tag k="highway" v="path" />
		<tag k="name" v="Listigen" />
		<tag k="ssr:stedsnr" v="882417" />
	</node>
	<node id="-270827" lat="60.1863638851" lon="9.25969722609">
		<tag k="highway" v="path" />
		<tag k="name" v="Fjellveien" />
		<tag k="ssr:stedsnr" v="29189" />
	</node>
	<node id="-270203" lat="59.9389027802" lon="9.69693055684">
		<tag k="name" v="Lunnestaden" />
		<tag k="place" v="locality" />
		<tag k="ssr:stedsnr" v="882359" />
	</node>
	<node id="-269175" lat="60.2130666707" lon="9.33564444468">
		<tag k="highway" v="path" />
		<tag k="name" v="Storliveien" />
		<tag k="ssr:stedsnr" v="455909" />
	</node>
	<node id="-270198" lat="59.9729555526" lon="9.71023888983">
		<tag k="name" v="Velte" />
		<tag k="place" v="locality" />
		<tag k="ssr:stedsnr" v="882341" />
	</node>
	<node id="-272361" lat="60.0523416654" lon="9.62398888503">
		<tag k="bridge" v="yes" />
		<tag k="layer" v="1" />
		<tag k="name" v="Ramstad" />
		<tag k="ssr:stedsnr" v="653950" />
	</node>
	<node id="-269886" lat="60.0540111126" lon="9.48531389662">
		<tag k="bridge" v="yes" />
		<tag k="layer" v="1" />
		<tag k="name" v="Kvistombru" />
		<tag k="ssr:stedsnr" v="700230" />
	</node>
	<node id="-272242" lat="60.2662777784" lon="9.36135555695">
		<tag k="name" v="Lunnestaden" />
		<tag k="place" v="locality" />
		<tag k="ssr:stedsnr" v="636431" />
	</node>
	<node id="-271723" lat="59.9836166658" lon="9.51856110648">
		<tag k="name" v="Bjørkesnarvelta" />
		<tag k="place" v="locality" />
		<tag k="ssr:stedsnr" v="336080" />
	</node>
	<node id="-269670" lat="60.0300388878" lon="9.54185277145">
		<tag k="name" v="Lunnestaden" />
		<tag k="place" v="locality" />
		<tag k="ssr:stedsnr" v="518049" />
	</node>
	<node id="-270179" lat="60.0020888885" lon="9.51261388575">
		<tag k="highway" v="path" />
		<tag k="name" v="Ranteveien" />
		<tag k="ssr:stedsnr" v="882059" />
	</node>
	<node id="-270173" lat="60.0793638916" lon="9.72097500447">
		<tag k="name" v="Lunnestaden" />
		<tag k="place" v="locality" />
		<tag k="ssr:stedsnr" v="882035" />
	</node>
	<node id="-269145" lat="60.2651472221" lon="9.26476943784">
		<tag k="highway" v="path" />
		<tag k="name" v="Brennaveien" />
		<tag k="ssr:stedsnr" v="454882" />
	</node>
	<node id="-269136" lat="60.1262138866" lon="9.41756388945">
		<tag k="highway" v="path" />
		<tag k="name" v="Svartliveien" />
		<tag k="ssr:stedsnr" v="455070" />
	</node>
	<node id="-271695" lat="59.9585416668" lon="9.59941110284">
		<tag k="name" v="Velta" />
		<tag k="place" v="locality" />
		<tag k="ssr:stedsnr" v="335375" />
	</node>
	<node id="-271182" lat="60.0995138913" lon="9.45304165806">
		<tag k="bridge" v="yes" />
		<tag k="layer" v="1" />
		<tag k="name" v="Ulberg" />
		<tag k="ssr:stedsnr" v="107996" />
	</node>
	<node id="-271181" lat="60.0888666657" lon="9.48336111994">
		<tag k="bridge" v="yes" />
		<tag k="layer" v="1" />
		<tag k="name" v="Hofton" />
		<tag k="ssr:stedsnr" v="107963" />
	</node>
	<node id="-271180" lat="60.2119333305" lon="9.37305556023">
		<tag k="bridge" v="yes" />
		<tag k="layer" v="1" />
		<tag k="name" v="Ertesprang" />
		<tag k="ssr:stedsnr" v="107962" />
	</node>
	<node id="-271179" lat="60.0117916669" lon="9.55497222977">
		<tag k="bridge" v="yes" />
		<tag k="layer" v="1" />
		<tag k="name" v="Rolfsrud" />
		<tag k="ssr:stedsnr" v="107958" />
	</node>
	<node id="-271178" lat="60.0109305517" lon="9.77755000782">
		<tag k="highway" v="path" />
		<tag k="name" v="Djupedalsveien" />
		<tag k="ssr:stedsnr" v="93997" />
	</node>
	<node id="-271688" lat="59.9506388862" lon="9.65191665995">
		<tag k="highway" v="path" />
		<tag k="name" v="Grønvollveien" />
		<tag k="ssr:stedsnr" v="335452" />
	</node>
	<node id="-269127" lat="60.2071222222" lon="9.24746110945">
		<tag k="highway" v="path" />
		<tag k="name" v="Frøvollseterveien" />
		<tag k="ssr:stedsnr" v="454482" />
	</node>
	<node id="-272606" lat="60.2269527787" lon="9.43960832483">
		<tag k="highway" v="path" />
		<tag k="name" v="Kryllingveien" />
		<tag k="ssr:stedsnr" v="820994" />
	</node>
	<node id="-271171" lat="60.0598055537" lon="9.70346944607">
		<tag k="highway" v="path" />
		<tag k="name" v="Milebråtaveien" />
		<tag k="ssr:stedsnr" v="93915" />
	</node>
	<node id="-272706" lat="60.0513833359" lon="9.60519444349">
		<tag k="bridge" v="yes" />
		<tag k="layer" v="1" />
		<tag k="name" v="Vik" />
		<tag k="ssr:stedsnr" v="957993" />
	</node>
	<node id="-270901" lat="60.0563722212" lon="9.49404444212">
		<tag k="highway" v="path" />
		<tag k="name" v="Hiåsveien" />
		<tag k="ssr:stedsnr" v="32160" />
	</node>
	<node id="-270136" lat="60.2675638903" lon="9.34148333172">
		<tag k="highway" v="path" />
		<tag k="name" v="Bjørnerudseterveien" />
		<tag k="ssr:stedsnr" v="880405" />
	</node>
	<node id="-271671" lat="60.1966444404" lon="9.39946666263">
		<tag k="highway" v="path" />
		<tag k="name" v="Purkekleivveien" />
		<tag k="ssr:stedsnr" v="333992" />
	</node>
	<node id="-270133" lat="60.1475166644" lon="9.47477777995">
		<tag k="highway" v="path" />
		<tag k="name" v="Kryllingveien" />
		<tag k="ssr:stedsnr" v="880357" />
	</node>
	<node id="-271667" lat="60.2233111095" lon="9.41035555993">
		<tag k="highway" v="path" />
		<tag k="name" v="Laupveien" />
		<tag k="ssr:stedsnr" v="333857" />
	</node>
	<node id="-272178" lat="60.0799527767" lon="9.5058944385">
		<tag k="bridge" v="yes" />
		<tag k="layer" v="1" />
		<tag k="name" v="Eidal" />
		<tag k="ssr:stedsnr" v="592968" />
	</node>
	<node id="-272177" lat="60.0259472211" lon="9.68660278293">
		<tag k="bridge" v="yes" />
		<tag k="layer" v="1" />
		<tag k="name" v="Haukåa" />
		<tag k="ssr:stedsnr" v="592965" />
	</node>
	<node id="-272176" lat="60.0424194416" lon="9.63429444367">
		<tag k="bridge" v="yes" />
		<tag k="layer" v="1" />
		<tag k="name" v="Prestfoss" />
		<tag k="ssr:stedsnr" v="592963" />
	</node>
	<node id="-270728" lat="60.0020305547" lon="9.74043610418">
		<tag k="alt_name" v="Nærstad" />
		<tag k="bridge" v="yes" />
		<tag k="layer" v="1" />
		<tag k="name" v="Nerstad" />
		<tag k="ssr:stedsnr" v="896962" />
	</node>
	<node id="-272169" lat="60.0587250017" lon="9.70535277746">
		<tag k="highway" v="path" />
		<tag k="name" v="Skogbøringsveien" />
		<tag k="ssr:stedsnr" v="578934" />
	</node>
	<node id="-271651" lat="60.1858861069" lon="9.22938611427">
		<tag k="highway" v="path" />
		<tag k="name" v="Barlindosveien" />
		<tag k="ssr:stedsnr" v="333201" />
	</node>
	<node id="-271650" lat="60.1909416634" lon="9.23899722169">
		<tag k="highway" v="path" />
		<tag k="name" v="Seterveien" />
		<tag k="ssr:stedsnr" v="333194" />
	</node>
	<node id="-269104" lat="60.2961916709" lon="9.23718611089">
		<tag k="bridge" v="yes" />
		<tag k="layer" v="1" />
		<tag k="name" v="Medalen" />
		<tag k="ssr:stedsnr" v="228956" />
	</node>
	<node id="-271134" lat="59.9370222198" lon="9.63582777855">
		<tag k="highway" v="path" />
		<tag k="name" v="Ragnhildsrudveien" />
		<tag k="ssr:stedsnr" v="93393" />
	</node>
	<node id="-271127" lat="60.0714777773" lon="9.67516111215">
		<tag k="man_made" v="cairn" />
		<tag k="name" v="Hælfarrøysa" />
		<tag k="place" v="locality" />
		<tag k="ssr:stedsnr" v="93354" />
	</node>
	<node id="-272662" lat="60.0727111071" lon="9.64347222057">
		<tag k="highway" v="path" />
		<tag k="name" v="Holmeseterveien" />
		<tag k="ssr:stedsnr" v="822480" />
	</node>
	<node id="-271070" lat="60.1625000019" lon="9.38872777951">
		<tag k="name" v="Lunnestaden" />
		<tag k="place" v="locality" />
		<tag k="ssr:stedsnr" v="91658" />
	</node>
	<node id="-272660" lat="60.0514250031" lon="9.47126111982">
		<tag k="name" v="Lunnestaden" />
		<tag k="place" v="locality" />
		<tag k="ssr:stedsnr" v="821945" />
	</node>
	<node id="-272143" lat="60.0580138883" lon="9.48657778296">
		<tag k="highway" v="path" />
		<tag k="name" v="Olbogan" />
		<tag k="ssr:stedsnr" v="578185" />
	</node>
	<node id="-272653" lat="59.9669333373" lon="9.83384166889">
		<tag k="highway" v="path" />
		<tag k="name" v="Storlihovveien" />
		<tag k="ssr:stedsnr" v="821652" />
	</node>
	<node id="-270551" lat="60.3180916708" lon="9.27729999421">
		<tag k="highway" v="path" />
		<tag k="name" v="Jøsliveien" />
		<tag k="ssr:stedsnr" v="940123" />
	</node>
	<node id="-271112" lat="60.0324444418" lon="9.49886111389">
		<tag k="highway" v="path" />
		<tag k="name" v="Gryteseterveien" />
		<tag k="ssr:stedsnr" v="93181" />
	</node>
	<node id="-272647" lat="60.0239194468" lon="9.61566667437">
		<tag k="highway" v="path" />
		<tag k="name" v="Malmveien" />
		<tag k="ssr:stedsnr" v="821732" />
	</node>
	<node id="-272129" lat="60.0028138894" lon="9.66482221574">
		<tag k="highway" v="path" />
		<tag k="name" v="Sauemyrveien" />
		<tag k="ssr:stedsnr" v="578114" />
	</node>
	<node id="-269566" lat="60.2766611153" lon="9.2043333316">
		<tag k="highway" v="path" />
		<tag k="name" v="Kodalseterveien" />
		<tag k="ssr:stedsnr" v="515804" />
	</node>
	<node id="-272122" lat="60.1336305547" lon="9.50476945094">
		<tag k="highway" v="path" />
		<tag k="name" v="Narumseterveien" />
		<tag k="ssr:stedsnr" v="577411" />
	</node>
	<node id="-270462" lat="60.1253888887" lon="9.29171110515">
		<tag k="highway" v="path" />
		<tag k="name" v="Nedalseterveien" />
		<tag k="ssr:stedsnr" v="818373" />
	</node>
	<node id="-272105" lat="60.2780083357" lon="9.40965556339">
		<tag k="highway" v="path" />
		<tag k="name" v="Pikveien" />
		<tag k="ssr:stedsnr" v="576397" />
	</node>
	<node id="-272103" lat="60.0568555533" lon="9.40587222174">
		<tag k="name" v="Lunnestaden" />
		<tag k="place" v="locality" />
		<tag k="ssr:stedsnr" v="576335" />
	</node>
	<node id="-270564" lat="60.2616361081" lon="9.41078889372">
		<tag k="highway" v="path" />
		<tag k="name" v="Gamleseterveien" />
		<tag k="ssr:stedsnr" v="940453" />
	</node>
	<node id="-272099" lat="60.126686112" lon="9.35628055773">
		<tag k="highway" v="path" />
		<tag k="name" v="Seterveien" />
		<tag k="ssr:stedsnr" v="576034" />
	</node>
	<node id="-271586" lat="60.0769666642" lon="9.67340555451">
		<tag k="highway" v="path" />
		<tag k="name" v="Vilhelmsveien" />
		<tag k="ssr:stedsnr" v="215488" />
	</node>
	<node id="-272608" lat="60.0750555514" lon="9.69789722235">
		<tag k="highway" v="path" />
		<tag k="name" v="Seterveien" />
		<tag k="ssr:stedsnr" v="821033" />
	</node>
	<node id="-272094" lat="60.1228972196" lon="9.36948333346">
		<tag k="highway" v="path" />
		<tag k="name" v="Åliveien" />
		<tag k="ssr:stedsnr" v="576083" />
	</node>
	<node id="-269016" lat="60.0395611092" lon="9.58228611153">
		<tag k="name" v="Velta" />
		<tag k="place" v="locality" />
		<tag k="ssr:stedsnr" v="275718" />
	</node>
	<node id="-272087" lat="60.2138916696" lon="9.28818889426">
		<tag k="highway" v="path" />
		<tag k="name" v="Dælaveien" />
		<tag k="ssr:stedsnr" v="575446" />
	</node>
	<node id="-271574" lat="60.0430388916" lon="9.73469166388">
		<tag k="name" v="Lunnestaden" />
		<tag k="place" v="locality" />
		<tag k="ssr:stedsnr" v="214988" />
	</node>
	<node id="-271494" lat="60.1839472204" lon="9.3181361124">
		<tag k="highway" v="path" />
		<tag k="name" v="Fjellveien" />
		<tag k="ssr:stedsnr" v="212752" />
	</node>
	<node id="-272080" lat="60.2054333359" lon="9.18593611191">
		<tag k="highway" v="path" />
		<tag k="name" v="Feveien" />
		<tag k="ssr:stedsnr" v="575084" />
	</node>
	<node id="-271560" lat="60.0334861113" lon="9.75600278357">
		<tag k="name" v="Hunstadlunnestaden" />
		<tag k="place" v="locality" />
		<tag k="ssr:stedsnr" v="214792" />
	</node>
	<node id="-272580" lat="60.1602250031" lon="9.45409999261">
		<tag k="highway" v="path" />
		<tag k="name" v="Lunnestadveien" />
		<tag k="ssr:stedsnr" v="819641" />
	</node>
	<node id="-272579" lat="60.0944694447" lon="9.50883610772">
		<tag k="highway" v="path" />
		<tag k="name" v="Moenveien" />
		<tag k="ssr:stedsnr" v="819450" />
	</node>
	<node id="-271715" lat="60.0333055583" lon="9.77348333769">
		<tag k="name" v="Lunnestaden" />
		<tag k="place" v="locality" />
		<tag k="ssr:stedsnr" v="335796" />
	</node>
	<node id="-269503" lat="60.3100361144" lon="9.25915000847">
		<tag k="highway" v="path" />
		<tag k="name" v="Seterveien" />
		<tag k="ssr:stedsnr" v="394103" />
	</node>
	<node id="-270526" lat="60.0807666645" lon="9.50093334213">
		<tag k="highway" v="path" />
		<tag k="name" v="Røysveien" />
		<tag k="ssr:stedsnr" v="821908" />
	</node>
	<node id="-271032" lat="60.1495833302" lon="9.29123889241">
		<tag k="highway" v="path" />
		<tag k="name" v="Vindolveien" />
		<tag k="ssr:stedsnr" v="90316" />
	</node>
	<node id="-268982" lat="60.0030027775" lon="9.61001945044">
		<tag k="highway" v="path" />
		<tag k="name" v="Skogbøringsveien" />
		<tag k="ssr:stedsnr" v="275192" />
	</node>
	<node id="-270517" lat="60.0627527776" lon="9.60305277526">
		<tag k="junction" v="yes" />
		<tag k="name" v="Korsmyrveiskillet" />
		<tag k="place" v="locality" />
		<tag k="ssr:stedsnr" v="821759" />
	</node>
	<node id="-271539" lat="59.9624194475" lon="9.68959723079">
		<tag k="highway" v="path" />
		<tag k="name" v="Glabakkveien" />
		<tag k="ssr:stedsnr" v="214382" />
	</node>
	<node id="-270002" lat="60.1783722217" lon="9.27507221551">
		<tag k="highway" v="path" />
		<tag k="name" v="Seterveien" />
		<tag k="ssr:stedsnr" v="636069" />
	</node>
	<node id="-272558" lat="60.2384916649" lon="9.17861666636">
		<tag k="highway" v="path" />
		<tag k="name" v="Turistveien" />
		<tag k="ssr:stedsnr" v="818095" />
	</node>
	<node id="-271531" lat="59.9674222178" lon="9.70976388839">
		<tag k="highway" v="path" />
		<tag k="name" v="Kløyvveien" />
		<tag k="ssr:stedsnr" v="214365" />
	</node>
	<node id="-270493" lat="59.9977805523" lon="9.47060278456">
		<tag k="name" v="Velta" />
		<tag k="place" v="locality" />
		<tag k="ssr:stedsnr" v="821060" />
	</node>
	<node id="-268956" lat="60.2255694405" lon="9.43153611445">
		<tag k="ford" v="yes" />
		<tag k="name" v="Kryllingvad" />
		<tag k="place" v="locality" />
		<tag k="ssr:stedsnr" v="274998" />
	</node>
	<node id="-270874" lat="60.2118055576" lon="9.38068611644">
		<tag k="highway" v="path" />
		<tag k="name" v="Grønvollveien" />
		<tag k="ssr:stedsnr" v="30870" />
	</node>
	<node id="-271514" lat="60.1402222231" lon="9.46319722293">
		<tag k="highway" v="path" />
		<tag k="name" v="Gruveveien" />
		<tag k="ssr:stedsnr" v="213375" />
	</node>
	<node id="-270487" lat="60.10729721" lon="9.44326877991">
		<tag k="highway" v="path" />
		<tag k="name" v="Hallingveien" />
		<tag k="ssr:stedsnr" v="820261" />
	</node>
	<node id="-270927" lat="60.0649500027" lon="9.54809999623">
		<tag k="name" v="Velteberget" />
		<tag k="place" v="locality" />
		<tag k="ssr:stedsnr" v="32434" />
	</node>
	<node id="-270531" lat="60.0871888892" lon="9.65103333779">
		<tag k="highway" v="path" />
		<tag k="name" v="Skovveien" />
		<tag k="ssr:stedsnr" v="822920" />
	</node>
	<node id="-269336" lat="60.0112916658" lon="9.65843889476">
		<tag k="highway" v="path" />
		<tag k="name" v="Langebakkveien" />
		<tag k="ssr:stedsnr" v="275115" />
	</node>
	<node id="-271502" lat="60.2558361144" lon="9.22787222117">
		<tag k="highway" v="path" />
		<tag k="name" v="Dei lange kloppenn" />
		<tag k="ssr:stedsnr" v="212848" />
	</node>
	<node id="-271496" lat="60.1610666629" lon="9.37903055138">
		<tag k="highway" v="path" />
		<tag k="name" v="Åliveien" />
		<tag k="ssr:stedsnr" v="212642" />
	</node>
	<node id="-272007" lat="59.8999611125" lon="9.73547222736">
		<tag k="bridge" v="yes" />
		<tag k="layer" v="1" />
		<tag k="name" v="Brutangen" />
		<tag k="ssr:stedsnr" v="532944" />
	</node>
	<node id="-272006" lat="60.0892638901" lon="9.46249999144">
		<tag k="bridge" v="yes" />
		<tag k="layer" v="1" />
		<tag k="name" v="Skjærs" />
		<tag k="ssr:stedsnr" v="533000" />
	</node>
	<node id="-270466" lat="60.2583555569" lon="9.31957499856">
		<tag k="highway" v="path" />
		<tag k="name" v="Breigutua" />
		<tag k="ssr:stedsnr" v="819112" />
	</node>
	<node id="-270975" lat="60.2833222243" lon="9.25985278321">
		<tag k="bridge" v="yes" />
		<tag k="layer" v="1" />
		<tag k="name" v="Skodøla" />
		<tag k="ssr:stedsnr" v="47000" />
	</node>
	<node id="-270974" lat="60.2357666669" lon="9.36054167188">
		<tag k="bridge" v="yes" />
		<tag k="layer" v="1" />
		<tag k="name" v="Sløga" />
		<tag k="ssr:stedsnr" v="46996" />
	</node>
	<node id="-270973" lat="59.9937416647" lon="9.50181944749">
		<tag k="bridge" v="yes" />
		<tag k="layer" v="1" />
		<tag k="name" v="Grytelva" />
		<tag k="ssr:stedsnr" v="46959" />
	</node>
	<node id="-271990" lat="59.9975166644" lon="9.65220556126">
		<tag k="name" v="Lunnestaden" />
		<tag k="place" v="locality" />
		<tag k="ssr:stedsnr" v="429978" />
	</node>
	<node id="-269941" lat="60.0769722201" lon="9.38922778299">
		<tag k="highway" v="path" />
		<tag k="name" v="Gaulsveien" />
		<tag k="ssr:stedsnr" v="576937" />
	</node>
	<node id="-272497" lat="60.0359277759" lon="9.6740972256">
		<tag k="bridge" v="yes" />
		<tag k="layer" v="1" />
		<tag k="name" v="Tyrvla" />
		<tag k="ssr:stedsnr" v="775997" />
	</node>
	<node id="-272496" lat="60.2830638919" lon="9.26138611676">
		<tag k="bridge" v="yes" />
		<tag k="layer" v="1" />
		<tag k="name" v="Snårsbekk" />
		<tag k="ssr:stedsnr" v="774998" />
	</node>
	<node id="-272495" lat="60.1699666644" lon="9.40665000879">
		<tag k="bridge" v="yes" />
		<tag k="layer" v="1" />
		<tag k="name" v="Grønhovd" />
		<tag k="ssr:stedsnr" v="774957" />
	</node>
	<node id="-269412" lat="60.0179888903" lon="9.63530554679">
		<tag k="highway" v="path" />
		<tag k="name" v="Kippeveien" />
		<tag k="ssr:stedsnr" v="335225" />
	</node>
	<node id="-269410" lat="60.0141500026" lon="9.61405833075">
		<tag k="name" v="Hesteveltene" />
		<tag k="place" v="locality" />
		<tag k="ssr:stedsnr" v="335217" />
	</node>
	<node id="-271064" lat="60.1093583322" lon="9.47362777919">
		<tag k="fixme" v="consider highway=path" />
		<tag k="highway" v="track" />
		<tag k="name" v="Seterveien" />
		<tag k="ssr:stedsnr" v="91430" />
	</node>
	<node id="-270944" lat="59.9579583346" lon="9.8049222157">
		<tag k="name" v="Velte" />
		<tag k="place" v="locality" />
		<tag k="ssr:stedsnr" v="32614" />
	</node>
	<node id="-269393" lat="60.2014472237" lon="9.28337778377">
		<tag k="highway" v="path" />
		<tag k="name" v="Søteliveien" />
		<tag k="ssr:stedsnr" v="333413" />
	</node>
	<node id="-268889" lat="60.1591444488" lon="9.26013055749">
		<tag k="highway" v="path" />
		<tag k="name" v="Snårsveien" />
		<tag k="ssr:stedsnr" v="90645" />
	</node>
	<node id="-271183" lat="60.2458388874" lon="9.35673888159">
		<tag k="bridge" v="yes" />
		<tag k="layer" v="1" />
		<tag k="name" v="Teige" />
		<tag k="ssr:stedsnr" v="108000" />
	</node>
	<node id="-269398" lat="60.2745611152" lon="9.2261833373">
		<tag k="highway" v="path" />
		<tag k="name" v="Solliseterveien" />
		<tag k="ssr:stedsnr" v="333825" />
	</node>
	<node id="-271955" lat="60.0309305574" lon="9.68741944503">
		<tag k="bridge" v="yes" />
		<tag k="layer" v="1" />
		<tag k="name" v="Vad" />
		<tag k="ssr:stedsnr" v="410997" />
	</node>
	<node id="-271954" lat="60.0390388889" lon="9.57670278468">
		<tag k="bridge" v="yes" />
		<tag k="layer" v="1" />
		<tag k="name" v="Hørja" />
		<tag k="ssr:stedsnr" v="410952" />
	</node>
	<node id="-271953" lat="59.976813892" lon="9.75272500813">
		<tag k="bridge" v="yes" />
		<tag k="layer" v="1" />
		<tag k="name" v="Grime" />
		<tag k="ssr:stedsnr" v="410949" />
	</node>
	<node id="-271951" lat="59.9967194437" lon="9.70238054781">
		<tag k="highway" v="path" />
		<tag k="name" v="Beinstigen" />
		<tag k="ssr:stedsnr" v="397990" />
	</node>
	<node id="-269374" lat="60.186213887" lon="9.38884167365">
		<tag k="bridge" v="yes" />
		<tag k="layer" v="1" />
		<tag k="name" v="Kopseng" />
		<tag k="ssr:stedsnr" v="471948" />
	</node>
	<node id="-271941" lat="60.0579833356" lon="9.74638334195">
		<tag k="alt_name" v="Hovlandsetervegen" />
		<tag k="highway" v="path" />
		<tag k="name" v="Hovlandseterveien" />
		<tag k="ssr:stedsnr" v="396762" />
	</node>
	<node id="-269376" lat="60.2055222224" lon="9.38123056069">
		<tag k="bridge" v="yes" />
		<tag k="layer" v="1" />
		<tag k="name" v="Skarsbekk" />
		<tag k="ssr:stedsnr" v="471999" />
	</node>
	<node id="-269375" lat="60.0359888846" lon="9.67386944859">
		<tag k="bridge" v="yes" />
		<tag k="layer" v="1" />
		<tag k="name" v="Tuku" />
		<tag k="ssr:stedsnr" v="471996" />
	</node>
	<node id="-270398" lat="60.024983337" lon="9.65335277684">
		<tag k="highway" v="path" />
		<tag k="name" v="Kristensveien" />
		<tag k="ssr:stedsnr" v="760654" />
	</node>
	<node id="-270908" lat="60.0749972229" lon="9.55523332751">
		<tag k="highway" v="path" />
		<tag k="name" v="Bergveien" />
		<tag k="ssr:stedsnr" v="32303" />
	</node>
	<node id="-272443" lat="60.0127527795" lon="9.53664443922">
		<tag k="highway" v="path" />
		<tag k="name" v="Hiåsveien" />
		<tag k="ssr:stedsnr" v="760040" />
	</node>
	<node id="-270906" lat="60.1055194461" lon="9.4612583373">
		<tag k="fixme" v="verify maritime location" />
		<tag k="mooring" v="yes" />
		<tag k="name" v="Vinterstøa" />
		<tag k="place" v="locality" />
		<tag k="ssr:stedsnr" v="32282" />
	</node>
	<node id="-271415" lat="60.0687194423" lon="9.48216110254">
		<tag k="bridge" v="yes" />
		<tag k="layer" v="1" />
		<tag k="name" v="Strand" />
		<tag k="ssr:stedsnr" v="168999" />
	</node>
	<node id="-271925" lat="59.9496333305" lon="9.65527777598">
		<tag k="highway" v="path" />
		<tag k="name" v="Tronliveien" />
		<tag k="ssr:stedsnr" v="396427" />
	</node>
	<node id="-269661" lat="60.0235027753" lon="9.77681388023">
		<tag k="highway" v="path" />
		<tag k="name" v="Seterveien" />
		<tag k="ssr:stedsnr" v="517793" />
	</node>
	<node id="-269352" lat="60.060069441" lon="9.66534167275">
		<tag k="name" v="Lunnestaden" />
		<tag k="place" v="locality" />
		<tag k="ssr:stedsnr" v="275477" />
	</node>
	<node id="-272416" lat="60.2751527765" lon="9.195763893">
		<tag k="highway" v="path" />
		<tag k="name" v="Bergetseterveien" />
		<tag k="ssr:stedsnr" v="758794" />
	</node>
	<node id="-269343" lat="60.10293056" lon="9.46144443589">
		<tag k="fixme" v="verify maritime location" />
		<tag k="mooring" v="yes" />
		<tag k="name" v="Promstøa" />
		<tag k="place" v="locality" />
		<tag k="ssr:stedsnr" v="275306" />
	</node>
	<node id="-271899" lat="60.0537416666" lon="9.50796110611">
		<tag k="highway" v="path" />
		<tag k="name" v="Seterveien" />
		<tag k="ssr:stedsnr" v="396157" />
	</node>
	<node id="-272410" lat="60.2443083344" lon="9.26307499542">
		<tag k="highway" v="path" />
		<tag k="name" v="Solliveien" />
		<tag k="ssr:stedsnr" v="758890" />
	</node>
	<node id="-269848" lat="60.2566611104" lon="9.2666555554">
		<tag k="highway" v="path" />
		<tag k="name" v="Bråtaveien" />
		<tag k="ssr:stedsnr" v="697894" />
	</node>
	<node id="-271383" lat="60.0356777755" lon="9.7537333331">
		<tag k="highway" v="path" />
		<tag k="name" v="Kippeveien" />
		<tag k="ssr:stedsnr" v="153792" />
	</node>
	<node id="-270857" lat="60.1812333341" lon="9.33879999204">
		<tag k="highway" v="path" />
		<tag k="name" v="Trilleveien" />
		<tag k="ssr:stedsnr" v="30751" />
	</node>
	<node id="-272390" lat="60.1120611092" lon="9.31999444429">
		<tag k="highway" v="path" />
		<tag k="name" v="Plassekleiva" />
		<tag k="ssr:stedsnr" v="758024" />
	</node>
	<node id="-270340" lat="60.2467833307" lon="9.35548888286">
		<tag k="bridge" v="yes" />
		<tag k="layer" v="1" />
		<tag k="name" v="Stampe" />
		<tag k="ssr:stedsnr" v="714997" />
	</node>
	<node id="-271362" lat="59.9195055586" lon="9.69908610862">
		<tag k="highway" v="path" />
		<tag k="name" v="Flagveien" />
		<tag k="ssr:stedsnr" v="153545" />
	</node>
</osm>
