<?xml version="1.0" encoding="UTF-8"?>
<osm generator="osmapis" version="0.6">
	<node id="-251901" lat="60.2316111094" lon="9.40906388772">
		<tag k="historic" v="shieling" />
		<tag k="name" v="Råenset" />
		<tag k="place" v="locality" />
		<tag k="ssr:stedsnr" v="855263" />
	</node>
	<node id="-251897" lat="59.9964972186" lon="9.69334721884">
		<tag k="name" v="Jelldalsmyra" />
		<tag k="natural" v="wetland" />
		<tag k="ssr:stedsnr" v="854974" />
	</node>
	<node id="-250537" lat="60.097413889" lon="9.56175555549">
		<tag k="name" v="Ollemyr" />
		<tag k="natural" v="wetland" />
		<tag k="ssr:stedsnr" v="275316" />
	</node>
	<node id="-251861" lat="59.9918833369" lon="9.72733055585">
		<tag k="landuse" v="meadow" />
		<tag k="name" v="Bråtane" />
		<tag k="ssr:stedsnr" v="943569" />
	</node>
	<node id="-251860" lat="59.9274638913" lon="9.69654999326">
		<tag k="name" v="Primstein" />
		<tag k="natural" v="stone" />
		<tag k="ssr:stedsnr" v="943546" />
	</node>
	<node id="-251850" lat="60.0637222263" lon="9.55608055602">
		<tag k="name" v="Bastøgroa" />
		<tag k="place" v="locality" />
		<tag k="ssr:stedsnr" v="943365" />
	</node>
	<node id="-251844" lat="60.0173999998" lon="9.56293055248">
		<tag k="name" v="Ospekrullen" />
		<tag k="place" v="locality" />
		<tag k="ssr:stedsnr" v="943280" />
	</node>
	<node id="-251552" lat="60.1691638883" lon="9.43641388306">
		<tag k="name" v="Stormyr" />
		<tag k="natural" v="wetland" />
		<tag k="ssr:stedsnr" v="758317" />
	</node>
	<node id="-251837" lat="60.0319249976" lon="9.48266111006">
		<tag k="name" v="Ljåmyrane" />
		<tag k="natural" v="wetland" />
		<tag k="ssr:stedsnr" v="943164" />
	</node>
	<node id="-251833" lat="60.0041388862" lon="9.44359999332">
		<tag k="name" v="Nysetermyra" />
		<tag k="natural" v="wetland" />
		<tag k="ssr:stedsnr" v="943096" />
	</node>
	<node id="-251831" lat="59.995630555" lon="9.46992222988">
		<tag k="name" v="Flagskogen" />
		<tag k="place" v="locality" />
		<tag k="ssr:stedsnr" v="943077" />
	</node>
	<node id="-251818" lat="59.9482805534" lon="9.72101389117">
		<tag k="name" v="Smalmyra" />
		<tag k="natural" v="wetland" />
		<tag k="ssr:stedsnr" v="942614" />
	</node>
	<node id="-251817" lat="60.0620888884" lon="9.66646388916">
		<tag k="name" v="Småbrukermyra" />
		<tag k="natural" v="wetland" />
		<tag k="ssr:stedsnr" v="942610" />
	</node>
	<node id="-251808" lat="59.9265583312" lon="9.67923334084">
		<tag k="landuse" v="meadow" />
		<tag k="name" v="Bekkerud" />
		<tag k="ssr:stedsnr" v="942248" />
	</node>
	<node id="-253854" lat="60.0702611138" lon="9.60666111346">
		<tag k="landuse" v="meadow" />
		<tag k="name" v="Seterbråtan" />
		<tag k="ssr:stedsnr" v="822442" />
	</node>
	<node id="-251804" lat="60.0153416652" lon="9.58131110233">
		<tag k="name" v="Tverrgarden" />
		<tag k="place" v="locality" />
		<tag k="ssr:stedsnr" v="942192" />
	</node>
	<node id="-253849" lat="60.0396472266" lon="9.68546389204">
		<tag k="name" v="Vadshagan" />
		<tag k="place" v="locality" />
		<tag k="ssr:stedsnr" v="821994" />
	</node>
	<node id="-251800" lat="60.1702750044" lon="9.35358056151">
		<tag k="historic" v="shieling" />
		<tag k="name" v="Hasliseter" />
		<tag k="place" v="locality" />
		<tag k="ssr:stedsnr" v="941971" />
	</node>
	<node id="-253843" lat="60.024155559" lon="9.63205278424">
		<tag k="name" v="Øvre Husemyr" />
		<tag k="natural" v="wetland" />
		<tag k="ssr:stedsnr" v="821649" />
	</node>
	<node id="-251792" lat="60.227102776" lon="9.49685278258">
		<tag k="historic" v="shieling" />
		<tag k="name" v="Solesetra" />
		<tag k="place" v="locality" />
		<tag k="ssr:stedsnr" v="941527" />
	</node>
	<node id="-253839" lat="60.0330972239" lon="9.5762138949">
		<tag k="name" v="Heimmarka" />
		<tag k="place" v="locality" />
		<tag k="ssr:stedsnr" v="821746" />
	</node>
	<node id="-253836" lat="60.0380222231" lon="9.61349165881">
		<tag k="name" v="Lykka" />
		<tag k="place" v="locality" />
		<tag k="ssr:stedsnr" v="821684" />
	</node>
	<node id="-250518" lat="59.9901750003" lon="9.6015472254">
		<tag k="name" v="Hauganstomyra" />
		<tag k="natural" v="wetland" />
		<tag k="ssr:stedsnr" v="275013" />
	</node>
	<node id="-251778" lat="60.1338499957" lon="9.41908054654">
		<tag k="landuse" v="meadow" />
		<tag k="name" v="Slåttebråtan" />
		<tag k="ssr:stedsnr" v="941116" />
	</node>
	<node id="-251777" lat="60.1334250013" lon="9.39020278358">
		<tag k="name" v="Stormyr" />
		<tag k="natural" v="wetland" />
		<tag k="ssr:stedsnr" v="941113" />
	</node>
	<node id="-251775" lat="60.2427694433" lon="9.27843611939">
		<tag k="name" v="Brekka" />
		<tag k="place" v="locality" />
		<tag k="ssr:stedsnr" v="940972" />
	</node>
	<node id="-251773" lat="60.2526555599" lon="9.29125556408">
		<tag k="landuse" v="meadow" />
		<tag k="name" v="Kleivsbråtan" />
		<tag k="ssr:stedsnr" v="940932" />
	</node>
	<node id="-251770" lat="60.2528492101" lon="9.27182224627">
		<tag k="historic" v="shieling" />
		<tag k="name" v="Narverud" />
		<tag k="place" v="locality" />
		<tag k="ssr:stedsnr" v="940892" />
	</node>
	<node id="-253817" lat="59.9961333365" lon="9.65548334053">
		<tag k="name" v="Sauemyr" />
		<tag k="natural" v="wetland" />
		<tag k="ssr:stedsnr" v="821143" />
	</node>
	<node id="-251766" lat="60.2208388905" lon="9.34440278399">
		<tag k="name" v="Hagan" />
		<tag k="place" v="locality" />
		<tag k="ssr:stedsnr" v="940849" />
	</node>
	<node id="-253813" lat="59.9809944421" lon="9.59023054918">
		<tag k="landuse" v="meadow" />
		<tag k="name" v="Tjennbråtan" />
		<tag k="ssr:stedsnr" v="821088" />
	</node>
	<node id="-251764" lat="60.2313444447" lon="9.33863054981">
		<tag k="landuse" v="meadow" />
		<tag k="name" v="Langebråta" />
		<tag k="ssr:stedsnr" v="940842" />
	</node>
	<node id="-253810" lat="60.037241668" lon="9.5644777725">
		<tag k="name" v="Pilterud" />
		<tag k="place" v="locality" />
		<tag k="ssr:stedsnr" v="821227" />
	</node>
	<node id="-251760" lat="60.2266388929" lon="9.18208332796">
		<tag k="historic" v="shieling" />
		<tag k="name" v="Fagerliseter" />
		<tag k="place" v="locality" />
		<tag k="ssr:stedsnr" v="940792" />
	</node>
	<node id="-251757" lat="60.2599277761" lon="9.39693610711">
		<tag k="name" v="Nedre Kloppmyr" />
		<tag k="natural" v="wetland" />
		<tag k="ssr:stedsnr" v="940464" />
	</node>
	<node id="-251756" lat="60.261202779" lon="9.39556665852">
		<tag k="name" v="Øvre Kloppmyr" />
		<tag k="natural" v="wetland" />
		<tag k="ssr:stedsnr" v="940457" />
	</node>
	<node id="-253800" lat="59.9951055598" lon="9.54370276935">
		<tag k="landuse" v="meadow" />
		<tag k="name" v="Brattbakkbråtane" />
		<tag k="ssr:stedsnr" v="821048" />
	</node>
	<node id="-250513" lat="60.2300416708" lon="9.30996388682">
		<tag k="name" v="Jønnmyra" />
		<tag k="natural" v="wetland" />
		<tag k="ssr:stedsnr" v="273953" />
	</node>
	<node id="-251748" lat="60.170655555" lon="9.25129999325">
		<tag k="name" v="Kattenberg skog" />
		<tag k="place" v="locality" />
		<tag k="ssr:stedsnr" v="940154" />
	</node>
	<node id="-253791" lat="60.1223972223" lon="9.52140554971">
		<tag k="name" v="Bjønnemyr" />
		<tag k="natural" v="wetland" />
		<tag k="ssr:stedsnr" v="820485" />
	</node>
	<node id="-251741" lat="60.2387416685" lon="9.34884166811">
		<tag k="name" v="Skrelhaug" />
		<tag k="place" v="locality" />
		<tag k="ssr:stedsnr" v="940120" />
	</node>
	<node id="-253788" lat="60.1051361149" lon="9.52849167081">
		<tag k="name" v="Fugleleikmyra" />
		<tag k="natural" v="wetland" />
		<tag k="ssr:stedsnr" v="820435" />
	</node>
	<node id="-251735" lat="60.2382444465" lon="9.26224721697">
		<tag k="name" v="Kodalstykket" />
		<tag k="place" v="locality" />
		<tag k="ssr:stedsnr" v="940056" />
	</node>
	<node id="-253782" lat="60.2370722234" lon="9.33398888952">
		<tag k="name" v="Bokkelsroa" />
		<tag k="place" v="locality" />
		<tag k="ssr:stedsnr" v="819831" />
	</node>
	<node id="-253781" lat="60.2108638901" lon="9.34871111013">
		<tag k="landuse" v="meadow" />
		<tag k="name" v="Flatinbråtan" />
		<tag k="ssr:stedsnr" v="819902" />
	</node>
	<node id="-251728" lat="60.0744611075" lon="9.71954444175">
		<tag k="name" v="Gamlemannsmyra" />
		<tag k="natural" v="wetland" />
		<tag k="ssr:stedsnr" v="933394" />
	</node>
	<node id="-253768" lat="60.0512611068" lon="9.39329722373">
		<tag k="name" v="Vestremarka" />
		<tag k="place" v="locality" />
		<tag k="ssr:stedsnr" v="819342" />
	</node>
	<node id="-253766" lat="60.2592611121" lon="9.4066166715">
		<tag k="historic" v="shieling" />
		<tag k="name" v="Haugsheimseter" />
		<tag k="place" v="locality" />
		<tag k="ssr:stedsnr" v="819149" />
	</node>
	<node id="-251716" lat="60.0828027818" lon="9.51162221432">
		<tag k="name" v="Brenntangen" />
		<tag k="natural" v="wetland" />
		<tag k="ssr:stedsnr" v="821905" />
	</node>
	<node id="-251715" lat="60.0255472237" lon="9.77415277713">
		<tag k="name" v="Blautemyrskogen" />
		<tag k="place" v="locality" />
		<tag k="ssr:stedsnr" v="821779" />
	</node>
	<node id="-251714" lat="60.0539083366" lon="9.59538333536">
		<tag k="historic" v="shieling" />
		<tag k="name" v="Tollevsplassen" />
		<tag k="place" v="locality" />
		<tag k="ssr:stedsnr" v="821777" />
	</node>
	<node id="-253753" lat="60.1616027787" lon="9.26446389044">
		<tag k="historic" v="shieling" />
		<tag k="name" v="Vindolsetra" />
		<tag k="place" v="locality" />
		<tag k="ssr:stedsnr" v="818133" />
	</node>
	<node id="-251704" lat="60.0578749971" lon="9.75970833941">
		<tag k="name" v="Gampemyra" />
		<tag k="natural" v="wetland" />
		<tag k="ssr:stedsnr" v="821808" />
	</node>
	<node id="-251702" lat="60.007558337" lon="9.80066389309">
		<tag k="historic" v="shieling" />
		<tag k="name" v="Vollane" />
		<tag k="place" v="locality" />
		<tag k="ssr:stedsnr" v="821674" />
	</node>
	<node id="-251700" lat="59.9419972197" lon="9.73900556032">
		<tag k="name" v="Engmyr" />
		<tag k="natural" v="wetland" />
		<tag k="ssr:stedsnr" v="821607" />
	</node>
	<node id="-250504" lat="60.1726749995" lon="9.4786944515">
		<tag k="landuse" v="meadow" />
		<tag k="name" v="Gunnarsonlykka" />
		<tag k="ssr:stedsnr" v="273710" />
	</node>
	<node id="-253741" lat="60.3245277773" lon="9.17570833158">
		<tag k="alt_name" v="Langemyra" />
		<tag k="name" v="Langemyr" />
		<tag k="natural" v="wetland" />
		<tag k="ssr:stedsnr" v="795485" />
	</node>
	<node id="-251687" lat="60.011827782" lon="9.60495556214">
		<tag k="name" v="Firtjenna" />
		<tag k="natural" v="wetland" />
		<tag k="ssr:stedsnr" v="821206" />
	</node>
	<node id="-250502" lat="60.1887694489" lon="9.48969165812">
		<tag k="name" v="Skarmyra" />
		<tag k="natural" v="wetland" />
		<tag k="ssr:stedsnr" v="273704" />
	</node>
	<node id="-251679" lat="60.1424722224" lon="9.47997499954">
		<tag k="landuse" v="quarry" />
		<tag k="name" v="Gruva" />
		<tag k="ssr:stedsnr" v="820417" />
	</node>
	<node id="-250501" lat="60.292225002" lon="9.29592777921">
		<tag k="name" v="Delesmyrane" />
		<tag k="natural" v="wetland" />
		<tag k="ssr:stedsnr" v="273660" />
	</node>
	<node id="-251660" lat="60.3049249975" lon="9.24740278438">
		<tag k="historic" v="shieling" />
		<tag k="name" v="Kistemyrvollen" />
		<tag k="place" v="locality" />
		<tag k="ssr:stedsnr" v="819119" />
	</node>
	<node id="-251659" lat="60.2433361099" lon="9.34289165891">
		<tag k="name" v="Midtstykket" />
		<tag k="place" v="locality" />
		<tag k="ssr:stedsnr" v="819118" />
	</node>
	<node id="-251658" lat="60.240461111" lon="9.34686944278">
		<tag k="name" v="Hestehegna" />
		<tag k="place" v="locality" />
		<tag k="ssr:stedsnr" v="819116" />
	</node>
	<node id="-251655" lat="60.2432277807" lon="9.32643889205">
		<tag k="historic" v="shieling" />
		<tag k="name" v="Sagbråtan" />
		<tag k="place" v="locality" />
		<tag k="ssr:stedsnr" v="819108" />
	</node>
	<node id="-251652" lat="60.1336916695" lon="9.25954721365">
		<tag k="historic" v="shieling" />
		<tag k="name" v="Tveitseter" />
		<tag k="place" v="locality" />
		<tag k="ssr:stedsnr" v="818357" />
	</node>
	<node id="-251651" lat="60.2304398901" lon="9.23866660904">
		<tag k="historic" v="shieling" />
		<tag k="name" v="Rønningsheimseter" />
		<tag k="place" v="locality" />
		<tag k="ssr:stedsnr" v="818085" />
	</node>
	<node id="-251650" lat="60.2274444411" lon="9.27231945131">
		<tag k="historic" v="shieling" />
		<tag k="name" v="Gamle Båssetervollen" />
		<tag k="place" v="locality" />
		<tag k="ssr:stedsnr" v="818054" />
	</node>
	<node id="-250495" lat="60.1687111091" lon="9.45271666624">
		<tag k="name" v="Løkensmyr" />
		<tag k="natural" v="wetland" />
		<tag k="ssr:stedsnr" v="273287" />
	</node>
	<node id="-251638" lat="60.3408555595" lon="9.19256943651">
		<tag k="alt_name" v="Ruglandsetra" />
		<tag k="historic" v="shieling" />
		<tag k="name" v="Rugland seter" />
		<tag k="place" v="locality" />
		<tag k="ssr:stedsnr" v="916442" />
	</node>
	<node id="-253684" lat="60.0908694482" lon="9.67438332615">
		<tag k="name" v="Brenntorvmyra" />
		<tag k="natural" v="wetland" />
		<tag k="ssr:stedsnr" v="761922" />
	</node>
	<node id="-253683" lat="60.087399996" lon="9.62318888688">
		<tag k="name" v="Den runde myra" />
		<tag k="natural" v="wetland" />
		<tag k="ssr:stedsnr" v="761910" />
	</node>
	<node id="-253681" lat="60.0838277794" lon="9.65608333957">
		<tag k="name" v="Eftasmyr" />
		<tag k="natural" v="wetland" />
		<tag k="ssr:stedsnr" v="761495" />
	</node>
	<node id="-250834" lat="59.966636114" lon="9.64885832455">
		<tag k="name" v="Steffengården" />
		<tag k="natural" v="wetland" />
		<tag k="ssr:stedsnr" v="517471" />
	</node>
	<node id="-253662" lat="59.9563111145" lon="9.80942499188">
		<tag k="name" v="Løkka" />
		<tag k="place" v="locality" />
		<tag k="ssr:stedsnr" v="760647" />
	</node>
	<node id="-253661" lat="59.9426916703" lon="9.72155834131">
		<tag k="name" v="Plankemyr" />
		<tag k="natural" v="wetland" />
		<tag k="ssr:stedsnr" v="760635" />
	</node>
	<node id="-250473" lat="60.0124527802" lon="9.77827500614">
		<tag k="name" v="Brenna" />
		<tag k="place" v="locality" />
		<tag k="ssr:stedsnr" v="457997" />
	</node>
	<node id="-253655" lat="60.0989277738" lon="9.49435555562">
		<tag k="landuse" v="quarry" />
		<tag k="name" v="Gruvene" />
		<tag k="ssr:stedsnr" v="760599" />
	</node>
	<node id="-253652" lat="59.9938083304" lon="9.77189166853">
		<tag k="name" v="Hagan" />
		<tag k="place" v="locality" />
		<tag k="ssr:stedsnr" v="760584" />
	</node>
	<node id="-251601" lat="60.1023750029" lon="9.57170277488">
		<tag k="name" v="Fugleleikmyran" />
		<tag k="natural" v="wetland" />
		<tag k="ssr:stedsnr" v="761903" />
	</node>
	<node id="-253648" lat="60.0462305582" lon="9.55868889041">
		<tag k="name" v="Jerpen" />
		<tag k="place" v="locality" />
		<tag k="ssr:stedsnr" v="760371" />
	</node>
	<node id="-253647" lat="60.0444138866" lon="9.56252222428">
		<tag k="name" v="Nedre Jasom" />
		<tag k="place" v="locality" />
		<tag k="ssr:stedsnr" v="760356" />
	</node>
	<node id="-253646" lat="60.0816638903" lon="9.56193334165">
		<tag k="landuse" v="meadow" />
		<tag k="name" v="Bubbehibråtan" />
		<tag k="ssr:stedsnr" v="760339" />
	</node>
	<node id="-253645" lat="60.087583329" lon="9.56343055381">
		<tag k="name" v="Store Flagmyra" />
		<tag k="natural" v="wetland" />
		<tag k="ssr:stedsnr" v="760329" />
	</node>
	<node id="-253641" lat="60.1430916629" lon="9.53948888856">
		<tag k="landuse" v="meadow" />
		<tag k="name" v="Bjørnsbråtan" />
		<tag k="ssr:stedsnr" v="760480" />
	</node>
	<node id="-253640" lat="60.002044443" lon="9.67725000725">
		<tag k="name" v="Mastemyr" />
		<tag k="natural" v="wetland" />
		<tag k="ssr:stedsnr" v="760241" />
	</node>
	<node id="-251427" lat="60.0267861077" lon="9.5719472278">
		<tag k="landuse" v="meadow" />
		<tag k="name" v="Palmebråtan" />
		<tag k="ssr:stedsnr" v="882642" />
	</node>
	<node id="-253632" lat="60.0734333335" lon="9.70982221655">
		<tag k="landuse" v="meadow" />
		<tag k="name" v="Lauvlyubråtan" />
		<tag k="ssr:stedsnr" v="760036" />
	</node>
	<node id="-253630" lat="59.9759452705" lon="9.53432445897">
		<tag k="historic" v="shieling" />
		<tag k="loc_name" v="Jobrenna" />
		<tag k="name" v="Jobrennsetra" />
		<tag k="place" v="locality" />
		<tag k="ssr:stedsnr" v="760009" />
	</node>
	<node id="-251577" lat="59.9655416635" lon="9.79821388564">
		<tag k="landuse" v="meadow" />
		<tag k="name" v="Dælabråtan" />
		<tag k="ssr:stedsnr" v="760417" />
	</node>
	<node id="-253623" lat="60.1238055546" lon="9.48385556073">
		<tag k="name" v="Bleikemyr" />
		<tag k="natural" v="wetland" />
		<tag k="ssr:stedsnr" v="759607" />
	</node>
	<node id="-253622" lat="60.1112305587" lon="9.47836665896">
		<tag k="landuse" v="meadow" />
		<tag k="name" v="Larsbråtan" />
		<tag k="ssr:stedsnr" v="759440" />
	</node>
	<node id="-251573" lat="59.9691361152" lon="9.69216388531">
		<tag k="name" v="Helgesmyr" />
		<tag k="natural" v="wetland" />
		<tag k="ssr:stedsnr" v="760404" />
	</node>
	<node id="-251569" lat="59.9985694425" lon="9.54489722177">
		<tag k="landuse" v="meadow" />
		<tag k="name" v="Bråtan" />
		<tag k="ssr:stedsnr" v="760062" />
	</node>
	<node id="-253616" lat="60.200305555" lon="9.39635000005">
		<tag k="name" v="Flata" />
		<tag k="place" v="locality" />
		<tag k="ssr:stedsnr" v="758984" />
	</node>
	<node id="-251567" lat="60.0864805548" lon="9.72678055073">
		<tag k="name" v="Radelemyra" />
		<tag k="natural" v="wetland" />
		<tag k="ssr:stedsnr" v="760056" />
	</node>
	<node id="-251564" lat="59.9603749975" lon="9.65271389272">
		<tag k="name" v="Gulsonhagan" />
		<tag k="place" v="locality" />
		<tag k="ssr:stedsnr" v="759455" />
	</node>
	<node id="-253610" lat="60.2229138847" lon="9.33444722227">
		<tag k="landuse" v="meadow" />
		<tag k="name" v="Slåttebråta" />
		<tag k="ssr:stedsnr" v="758839" />
	</node>
	<node id="-253608" lat="60.2374000045" lon="9.32937777334">
		<tag k="landuse" v="meadow" />
		<tag k="name" v="Skotre" />
		<tag k="ssr:stedsnr" v="758817" />
	</node>
	<node id="-250403" lat="60.0261333342" lon="9.50550278453">
		<tag k="name" v="Gohaugmyra" />
		<tag k="natural" v="wetland" />
		<tag k="ssr:stedsnr" v="457184" />
	</node>
	<node id="-251553" lat="60.2617111153" lon="9.33625277461">
		<tag k="historic" v="shieling" />
		<tag k="name" v="Torsteinbråtan" />
		<tag k="place" v="locality" />
		<tag k="ssr:stedsnr" v="758464" />
	</node>
	<node id="-253600" lat="60.300238893" lon="9.30379999307">
		<tag k="historic" v="shieling" />
		<tag k="name" v="Tverrlivollen" />
		<tag k="place" v="locality" />
		<tag k="ssr:stedsnr" v="758643" />
	</node>
	<node id="-253599" lat="60.1937472208" lon="9.31210278648">
		<tag k="name" v="Skårsmarka" />
		<tag k="place" v="locality" />
		<tag k="ssr:stedsnr" v="758759" />
	</node>
	<node id="-251550" lat="60.2571305517" lon="9.31888889297">
		<tag k="name" v="Staukehagan" />
		<tag k="place" v="locality" />
		<tag k="ssr:stedsnr" v="758123" />
	</node>
	<node id="-251221" lat="59.9817833316" lon="9.84100278494">
		<tag k="landuse" v="meadow" />
		<tag k="name" v="Helgesbråtan" />
		<tag k="ssr:stedsnr" v="638808" />
	</node>
	<node id="-253594" lat="60.1018111098" lon="9.52999444623">
		<tag k="name" v="Fjerdingsmyr" />
		<tag k="natural" v="wetland" />
		<tag k="ssr:stedsnr" v="758488" />
	</node>
	<node id="-253589" lat="60.2432194446" lon="9.20393611288">
		<tag k="historic" v="shieling" />
		<tag k="name" v="Vestmannbråtan" />
		<tag k="place" v="locality" />
		<tag k="ssr:stedsnr" v="758205" />
	</node>
	<node id="-253585" lat="60.2397611068" lon="9.3631166643">
		<tag k="name" v="Mogen" />
		<tag k="place" v="locality" />
		<tag k="ssr:stedsnr" v="758158" />
	</node>
	<node id="-253584" lat="60.2395944434" lon="9.38668888269">
		<tag k="name" v="Lund" />
		<tag k="place" v="locality" />
		<tag k="ssr:stedsnr" v="758157" />
	</node>
	<node id="-253582" lat="60.3049277807" lon="9.2169944483">
		<tag k="name" v="Steinmyran" />
		<tag k="natural" v="wetland" />
		<tag k="ssr:stedsnr" v="758133" />
	</node>
	<node id="-253578" lat="60.3235083346" lon="9.20269444175">
		<tag k="historic" v="shieling" />
		<tag k="name" v="Bjørnerudseter" />
		<tag k="place" v="locality" />
		<tag k="ssr:stedsnr" v="758088" />
	</node>
	<node id="-253577" lat="60.3197166626" lon="9.19748055588">
		<tag k="name" v="Medalsmarka" />
		<tag k="place" v="locality" />
		<tag k="ssr:stedsnr" v="758085" />
	</node>
	<node id="-253575" lat="60.1289055513" lon="9.3956416616">
		<tag k="name" v="Fjerdingsmyr" />
		<tag k="natural" v="wetland" />
		<tag k="ssr:stedsnr" v="758081" />
	</node>
	<node id="-251523" lat="59.9246944457" lon="9.67058054726">
		<tag k="name" v="Ingebumarka" />
		<tag k="place" v="locality" />
		<tag k="ssr:stedsnr" v="700706" />
	</node>
	<node id="-251521" lat="59.9759694445" lon="9.80428055021">
		<tag k="landuse" v="quarry" />
		<tag k="name" v="Skjerp" />
		<tag k="ssr:stedsnr" v="700655" />
	</node>
	<node id="-253568" lat="60.151383333" lon="9.29699722503">
		<tag k="name" v="Søtegrø" />
		<tag k="natural" v="wetland" />
		<tag k="ssr:stedsnr" v="757347" />
	</node>
	<node id="-251513" lat="59.9585972255" lon="9.67262222037">
		<tag k="name" v="Grønsetmyra" />
		<tag k="natural" v="wetland" />
		<tag k="ssr:stedsnr" v="700522" />
	</node>
	<node id="-251512" lat="60.140330559" lon="9.53798888826">
		<tag k="name" v="Puttemyr" />
		<tag k="natural" v="wetland" />
		<tag k="ssr:stedsnr" v="700505" />
	</node>
	<node id="-251509" lat="59.9804833312" lon="9.54779723106">
		<tag k="name" v="Jaremyra" />
		<tag k="natural" v="wetland" />
		<tag k="ssr:stedsnr" v="700068" />
	</node>
	<node id="-253556" lat="59.9973805589" lon="9.52035834195">
		<tag k="name" v="Eirmyrane" />
		<tag k="natural" v="wetland" />
		<tag k="ssr:stedsnr" v="750306" />
	</node>
	<node id="-253555" lat="60.2478222224" lon="9.39993888035">
		<tag k="loc_name" v="Bjønnemyr" />
		<tag k="name" v="Bjørnemyr" />
		<tag k="natural" v="wetland" />
		<tag k="ssr:stedsnr" v="750102" />
	</node>
	<node id="-253551" lat="60.0708333333" lon="9.46564722881">
		<tag k="name" v="Orremyra" />
		<tag k="natural" v="wetland" />
		<tag k="ssr:stedsnr" v="639987" />
	</node>
	<node id="-251502" lat="60.0026888898" lon="9.44405556363">
		<tag k="historic" v="shieling" />
		<tag k="name" v="Nyseter" />
		<tag k="place" v="locality" />
		<tag k="ssr:stedsnr" v="700110" />
	</node>
	<node id="-251500" lat="60.060141664" lon="9.62555000036">
		<tag k="landuse" v="meadow" />
		<tag k="name" v="Køssa" />
		<tag k="ssr:stedsnr" v="699754" />
	</node>
	<node id="-251497" lat="60.1451472181" lon="9.48339444838">
		<tag k="historic" v="shieling" />
		<tag k="name" v="Fosseter" />
		<tag k="place" v="locality" />
		<tag k="ssr:stedsnr" v="699407" />
	</node>
	<node id="-253540" lat="60.0737944422" lon="9.64526944187">
		<tag k="historic" v="shieling" />
		<tag k="name" v="Gamle Holmeseter" />
		<tag k="place" v="locality" />
		<tag k="ssr:stedsnr" v="639458" />
	</node>
	<node id="-253539" lat="60.0669972182" lon="9.63618889591">
		<tag k="name" v="Vardåsmyr" />
		<tag k="natural" v="wetland" />
		<tag k="ssr:stedsnr" v="639445" />
	</node>
	<node id="-253537" lat="60.0707333333" lon="9.58821666922">
		<tag k="name" v="Dammyra" />
		<tag k="natural" v="wetland" />
		<tag k="ssr:stedsnr" v="639415" />
	</node>
	<node id="-253529" lat="60.0550222261" lon="9.42678333598">
		<tag k="name" v="Klovoa" />
		<tag k="natural" v="wetland" />
		<tag k="ssr:stedsnr" v="639235" />
	</node>
	<node id="-251492" lat="60.0214361068" lon="9.66991110431">
		<tag k="name" v="Leikarmyra" />
		<tag k="natural" v="wetland" />
		<tag k="ssr:stedsnr" v="699122" />
	</node>
	<node id="-253524" lat="60.0199499991" lon="9.52950276976">
		<tag k="name" v="Mastemyr" />
		<tag k="natural" v="wetland" />
		<tag k="ssr:stedsnr" v="639130" />
	</node>
	<node id="-251475" lat="60.2220527759" lon="9.41056944489">
		<tag k="name" v="Paddemyr" />
		<tag k="natural" v="wetland" />
		<tag k="ssr:stedsnr" v="697866" />
	</node>
	<node id="-253519" lat="60.0327388873" lon="9.70222222048">
		<tag k="name" v="Storfuglen" />
		<tag k="place" v="locality" />
		<tag k="ssr:stedsnr" v="638987" />
	</node>
	<node id="-253516" lat="60.0618777782" lon="9.69776666906">
		<tag k="name" v="Dammyr" />
		<tag k="natural" v="wetland" />
		<tag k="ssr:stedsnr" v="638932" />
	</node>
	<node id="-253514" lat="60.0835611116" lon="9.68568610552">
		<tag k="name" v="Sørenseterbrenna" />
		<tag k="place" v="locality" />
		<tag k="ssr:stedsnr" v="638916" />
	</node>
	<node id="-253513" lat="60.088736111" lon="9.69084166775">
		<tag k="name" v="Mastemyr" />
		<tag k="natural" v="wetland" />
		<tag k="ssr:stedsnr" v="638904" />
	</node>
	<node id="-253512" lat="60.0915277795" lon="9.68415832887">
		<tag k="name" v="Tukua skog" />
		<tag k="place" v="locality" />
		<tag k="ssr:stedsnr" v="638903" />
	</node>
	<node id="-251459" lat="59.9828444418" lon="9.71441666489">
		<tag k="name" v="Jordmyra" />
		<tag k="natural" v="wetland" />
		<tag k="ssr:stedsnr" v="883999" />
	</node>
	<node id="-251458" lat="60.0018000023" lon="9.79732778114">
		<tag k="name" v="Snarsmyra" />
		<tag k="natural" v="wetland" />
		<tag k="ssr:stedsnr" v="882998" />
	</node>
	<node id="-251457" lat="60.0069583339" lon="9.7805833301">
		<tag k="name" v="Hælgåttstein" />
		<tag k="natural" v="stone" />
		<tag k="ssr:stedsnr" v="882989" />
	</node>
	<node id="-253504" lat="60.0417805585" lon="9.77609444262">
		<tag k="name" v="Setermarka" />
		<tag k="place" v="locality" />
		<tag k="ssr:stedsnr" v="638777" />
	</node>
	<node id="-251454" lat="60.0448611139" lon="9.72631111857">
		<tag k="name" v="Husmyrane" />
		<tag k="natural" v="wetland" />
		<tag k="ssr:stedsnr" v="882954" />
	</node>
	<node id="-251453" lat="60.0570722243" lon="9.7373250037">
		<tag k="name" v="Rømmestein" />
		<tag k="natural" v="stone" />
		<tag k="ssr:stedsnr" v="882935" />
	</node>
	<node id="-253497" lat="59.9420999982" lon="9.72862500215">
		<tag k="landuse" v="meadow" />
		<tag k="name" v="Torgersbråtan" />
		<tag k="ssr:stedsnr" v="638611" />
	</node>
	<node id="-251448" lat="60.1010441167" lon="9.58795035048">
		<tag k="historic" v="shieling" />
		<tag k="name" v="Frågåttseter" />
		<tag k="place" v="locality" />
		<tag k="ssr:stedsnr" v="882843" />
	</node>
	<node id="-251447" lat="60.0867750033" lon="9.6355750005">
		<tag k="name" v="Kastmyrane" />
		<tag k="natural" v="wetland" />
		<tag k="ssr:stedsnr" v="882837" />
	</node>
	<node id="-253493" lat="59.9871055552" lon="9.73198889533">
		<tag k="name" v="Engebråtan" />
		<tag k="place" v="locality" />
		<tag k="ssr:stedsnr" v="638550" />
	</node>
	<node id="-253492" lat="59.9409083292" lon="9.71585000677">
		<tag k="landuse" v="meadow" />
		<tag k="name" v="Bråtane" />
		<tag k="ssr:stedsnr" v="638548" />
	</node>
	<node id="-251443" lat="60.0483916688" lon="9.77175832907">
		<tag k="name" v="Vasshølmyra" />
		<tag k="natural" v="wetland" />
		<tag k="ssr:stedsnr" v="882704" />
	</node>
	<node id="-253490" lat="60.052577781" lon="9.64671388787">
		<tag k="landuse" v="meadow" />
		<tag k="name" v="Fjøsbråtan" />
		<tag k="ssr:stedsnr" v="638466" />
	</node>
	<node id="-251441" lat="60.0199222188" lon="9.74728889521">
		<tag k="landuse" v="meadow" />
		<tag k="name" v="Kleivbråtan" />
		<tag k="ssr:stedsnr" v="882697" />
	</node>
	<node id="-253488" lat="60.0566111147" lon="9.63060556107">
		<tag k="landuse" v="meadow" />
		<tag k="name" v="Helgebråta" />
		<tag k="ssr:stedsnr" v="638457" />
	</node>
	<node id="-251436" lat="60.0384555574" lon="9.76538610871">
		<tag k="landuse" v="meadow" />
		<tag k="name" v="Kallebråtan" />
		<tag k="ssr:stedsnr" v="882680" />
	</node>
	<node id="-251435" lat="60.0355361081" lon="9.775052786">
		<tag k="landuse" v="meadow" />
		<tag k="name" v="Trettebråtan" />
		<tag k="ssr:stedsnr" v="882677" />
	</node>
	<node id="-251433" lat="60.063308329" lon="9.56949167347">
		<tag k="name" v="Karimyra" />
		<tag k="natural" v="wetland" />
		<tag k="ssr:stedsnr" v="882671" />
	</node>
	<node id="-253479" lat="60.0194416644" lon="9.60631110926">
		<tag k="name" v="Torvmyra" />
		<tag k="natural" v="wetland" />
		<tag k="ssr:stedsnr" v="638202" />
	</node>
	<node id="-251430" lat="59.9918194447" lon="9.56242776959">
		<tag k="name" v="Kanelesmyra" />
		<tag k="natural" v="wetland" />
		<tag k="ssr:stedsnr" v="882649" />
	</node>
	<node id="-253475" lat="60.0102083323" lon="9.68027223076">
		<tag k="name" v="Hansehogsten" />
		<tag k="place" v="locality" />
		<tag k="ssr:stedsnr" v="638123" />
	</node>
	<node id="-253474" lat="60.0080111067" lon="9.65015278017">
		<tag k="name" v="Lauvkøyta" />
		<tag k="natural" v="wetland" />
		<tag k="ssr:stedsnr" v="638120" />
	</node>
	<node id="-251425" lat="60.0337500003" lon="9.65177777882">
		<tag k="name" v="Fjøsmoen" />
		<tag k="place" v="locality" />
		<tag k="ssr:stedsnr" v="882570" />
	</node>
	<node id="-253471" lat="60.0802222251" lon="9.7313166655">
		<tag k="name" v="Finnerudmyr" />
		<tag k="natural" v="wetland" />
		<tag k="ssr:stedsnr" v="638055" />
	</node>
	<node id="-253469" lat="60.0767027755" lon="9.72297777496">
		<tag k="landuse" v="meadow" />
		<tag k="name" v="Slåttebråtan" />
		<tag k="ssr:stedsnr" v="638051" />
	</node>
	<node id="-253468" lat="60.0750861086" lon="9.70630277741">
		<tag k="name" v="Bjønnemyr" />
		<tag k="natural" v="wetland" />
		<tag k="ssr:stedsnr" v="638036" />
	</node>
	<node id="-253467" lat="59.9927916632" lon="9.59780277326">
		<tag k="name" v="Hyttemyra" />
		<tag k="natural" v="wetland" />
		<tag k="ssr:stedsnr" v="638014" />
	</node>
	<node id="-251416" lat="60.1092222192" lon="9.6504416652">
		<tag k="historic" v="shieling" />
		<tag k="name" v="Malinesetra" />
		<tag k="place" v="locality" />
		<tag k="ssr:stedsnr" v="882474" />
	</node>
	<node id="-251415" lat="60.1103361083" lon="9.58505555801">
		<tag k="name" v="Kvistoppmyra" />
		<tag k="natural" v="wetland" />
		<tag k="ssr:stedsnr" v="882466" />
	</node>
	<node id="-251414" lat="60.1155305513" lon="9.58451666822">
		<tag k="name" v="Korpemyr" />
		<tag k="natural" v="wetland" />
		<tag k="ssr:stedsnr" v="882461" />
	</node>
	<node id="-251413" lat="60.0552694427" lon="9.63574722745">
		<tag k="landuse" v="meadow" />
		<tag k="name" v="Orebråta" />
		<tag k="ssr:stedsnr" v="882444" />
	</node>
	<node id="-253460" lat="60.1920333317" lon="9.48135556375">
		<tag k="landuse" v="meadow" />
		<tag k="name" v="Gamlemannsbråtan" />
		<tag k="ssr:stedsnr" v="637691" />
	</node>
	<node id="-253458" lat="60.2928000026" lon="9.28657499237">
		<tag k="historic" v="shieling" />
		<tag k="name" v="Lisetvollen" />
		<tag k="place" v="locality" />
		<tag k="ssr:stedsnr" v="637669" />
	</node>
	<node id="-253456" lat="60.1600444405" lon="9.48506666734">
		<tag k="historic" v="shieling" />
		<tag k="name" v="Steinsvadsetra" />
		<tag k="place" v="locality" />
		<tag k="ssr:stedsnr" v="637656" />
	</node>
	<node id="-253453" lat="60.142866668" lon="9.49656667294">
		<tag k="name" v="Storflata" />
		<tag k="natural" v="wetland" />
		<tag k="ssr:stedsnr" v="637436" />
	</node>
	<node id="-253451" lat="60.1050777815" lon="9.44588889665">
		<tag k="name" v="Storemyr" />
		<tag k="natural" v="wetland" />
		<tag k="ssr:stedsnr" v="637282" />
	</node>
	<node id="-253448" lat="60.1200472226" lon="9.43949721668">
		<tag k="name" v="Hestehagan" />
		<tag k="place" v="locality" />
		<tag k="ssr:stedsnr" v="637351" />
	</node>
	<node id="-253447" lat="60.1384527781" lon="9.45790277176">
		<tag k="landuse" v="meadow" />
		<tag k="name" v="Eivindhagan" />
		<tag k="ssr:stedsnr" v="637228" />
	</node>
	<node id="-253444" lat="60.2296944463" lon="9.37952777215">
		<tag k="name" v="Holt" />
		<tag k="place" v="locality" />
		<tag k="ssr:stedsnr" v="636846" />
	</node>
	<node id="-253441" lat="60.2094305583" lon="9.36185555771">
		<tag k="landuse" v="meadow" />
		<tag k="name" v="Kleivbråtan" />
		<tag k="ssr:stedsnr" v="636897" />
	</node>
	<node id="-253440" lat="60.170133333" lon="9.38946389602">
		<tag k="landuse" v="meadow" />
		<tag k="name" v="Svartebråta" />
		<tag k="ssr:stedsnr" v="636887" />
	</node>
	<node id="-251391" lat="60.0690305563" lon="9.57805556065">
		<tag k="name" v="Bergtjennmyra" />
		<tag k="natural" v="wetland" />
		<tag k="ssr:stedsnr" v="882349" />
	</node>
	<node id="-253438" lat="60.1995916668" lon="9.37523055696">
		<tag k="landuse" v="meadow" />
		<tag k="name" v="Skårsbråtan" />
		<tag k="ssr:stedsnr" v="636882" />
	</node>
	<node id="-251381" lat="60.0355777747" lon="9.55985277072">
		<tag k="name" v="Hallingmyra" />
		<tag k="natural" v="wetland" />
		<tag k="ssr:stedsnr" v="882214" />
	</node>
	<node id="-253426" lat="60.1718111119" lon="9.21344443983">
		<tag k="historic" v="shieling" />
		<tag k="name" v="Barlindosbråtan" />
		<tag k="place" v="locality" />
		<tag k="ssr:stedsnr" v="636148" />
	</node>
	<node id="-253425" lat="60.2551527786" lon="9.37056110544">
		<tag k="name" v="Husajordun" />
		<tag k="place" v="locality" />
		<tag k="ssr:stedsnr" v="636144" />
	</node>
	<node id="-251373" lat="60.0190305565" lon="9.47110000295">
		<tag k="historic" v="shieling" />
		<tag k="name" v="Gryteseter" />
		<tag k="place" v="locality" />
		<tag k="ssr:stedsnr" v="882075" />
	</node>
	<node id="-253420" lat="60.271150001" lon="9.33583889516">
		<tag k="alt_name" v="Krossmyra" />
		<tag k="name" v="Krossmyran" />
		<tag k="natural" v="wetland" />
		<tag k="ssr:stedsnr" v="613122" />
	</node>
	<node id="-251367" lat="60.0652583296" lon="9.72639444347">
		<tag k="name" v="Fjerdingsmyr" />
		<tag k="natural" v="wetland" />
		<tag k="ssr:stedsnr" v="882046" />
	</node>
	<node id="-251362" lat="60.0691916681" lon="9.68460833535">
		<tag k="landuse" v="meadow" />
		<tag k="name" v="Bjønneklembråtan" />
		<tag k="ssr:stedsnr" v="882029" />
	</node>
	<node id="-251354" lat="60.1623805574" lon="9.32781111322">
		<tag k="name" v="Den grå ula" />
		<tag k="natural" v="scree" />
		<tag k="ssr:stedsnr" v="880979" />
	</node>
	<node id="-251353" lat="60.1720888863" lon="9.33864445036">
		<tag k="name" v="Vestre Hasli skog" />
		<tag k="place" v="locality" />
		<tag k="ssr:stedsnr" v="880970" />
	</node>
	<node id="-251343" lat="60.2297277813" lon="9.39660277519">
		<tag k="name" v="Stormyran" />
		<tag k="natural" v="wetland" />
		<tag k="ssr:stedsnr" v="880859" />
	</node>
	<node id="-253385" lat="60.1796916629" lon="9.37023888122">
		<tag k="alt_name" v="Stormyr" />
		<tag k="name" v="Stormyra" />
		<tag k="natural" v="wetland" />
		<tag k="ssr:stedsnr" v="611444" />
	</node>
	<node id="-251336" lat="60.1550555561" lon="9.438458342">
		<tag k="landuse" v="meadow" />
		<tag k="name" v="Bjøre" />
		<tag k="ssr:stedsnr" v="880744" />
	</node>
	<node id="-251335" lat="60.1789527762" lon="9.47804722019">
		<tag k="landuse" v="meadow" />
		<tag k="name" v="Seterjordet" />
		<tag k="ssr:stedsnr" v="880713" />
	</node>
	<node id="-251333" lat="60.1538055565" lon="9.39795277575">
		<tag k="name" v="Søre Engersmarka" />
		<tag k="place" v="locality" />
		<tag k="ssr:stedsnr" v="880683" />
	</node>
	<node id="-251330" lat="60.276130553" lon="9.34845556348">
		<tag k="historic" v="shieling" />
		<tag k="name" v="Nordsetervollen" />
		<tag k="place" v="locality" />
		<tag k="ssr:stedsnr" v="880427" />
	</node>
	<node id="-251329" lat="60.1260944465" lon="9.43871944395">
		<tag k="name" v="Gråskeimyra" />
		<tag k="place" v="locality" />
		<tag k="ssr:stedsnr" v="880426" />
	</node>
	<node id="-253376" lat="60.0405111104" lon="9.45676388724">
		<tag k="name" v="Strandemyran" />
		<tag k="natural" v="wetland" />
		<tag k="ssr:stedsnr" v="611060" />
	</node>
	<node id="-251322" lat="60.1502888898" lon="9.46924999884">
		<tag k="landuse" v="meadow" />
		<tag k="name" v="Påsarud" />
		<tag k="ssr:stedsnr" v="880283" />
	</node>
	<node id="-251319" lat="60.2598722183" lon="9.36961944876">
		<tag k="landuse" v="meadow" />
		<tag k="name" v="Slåttekøsbråtan" />
		<tag k="ssr:stedsnr" v="880150" />
	</node>
	<node id="-251317" lat="60.1342805514" lon="9.37446388814">
		<tag k="name" v="Østerøya skog" />
		<tag k="place" v="locality" />
		<tag k="ssr:stedsnr" v="880077" />
	</node>
	<node id="-253363" lat="60.0178611101" lon="9.77869722479">
		<tag k="name" v="Brenna" />
		<tag k="place" v="locality" />
		<tag k="ssr:stedsnr" v="578962" />
	</node>
	<node id="-253362" lat="60.0143222249" lon="9.78595000236">
		<tag k="landuse" v="meadow" />
		<tag k="name" v="Bråtan" />
		<tag k="ssr:stedsnr" v="578959" />
	</node>
	<node id="-250463" lat="60.0952861076" lon="9.69861665873">
		<tag k="name" v="Kolstad skog" />
		<tag k="place" v="locality" />
		<tag k="ssr:stedsnr" v="457895" />
	</node>
	<node id="-253358" lat="60.0641194459" lon="9.68943888539">
		<tag k="name" v="Brennemyr" />
		<tag k="natural" v="wetland" />
		<tag k="ssr:stedsnr" v="578931" />
	</node>
	<node id="-253355" lat="60.0485777785" lon="9.69582776933">
		<tag k="name" v="Reistadbrenna" />
		<tag k="place" v="locality" />
		<tag k="ssr:stedsnr" v="578760" />
	</node>
	<node id="-253353" lat="59.9758972216" lon="9.85199444492">
		<tag k="landuse" v="meadow" />
		<tag k="name" v="Hestebråtan" />
		<tag k="ssr:stedsnr" v="578634" />
	</node>
	<node id="-251304" lat="60.2663305542" lon="9.32415555804">
		<tag k="historic" v="shieling" />
		<tag k="name" v="Gamlevollen" />
		<tag k="place" v="locality" />
		<tag k="ssr:stedsnr" v="879670" />
	</node>
	<node id="-253350" lat="60.0758222243" lon="9.52078055482">
		<tag k="name" v="Bertelsmyra" />
		<tag k="natural" v="wetland" />
		<tag k="ssr:stedsnr" v="578537" />
	</node>
	<node id="-253347" lat="59.9105388921" lon="9.72745832816">
		<tag k="name" v="Jakobsløkka" />
		<tag k="place" v="locality" />
		<tag k="ssr:stedsnr" v="578522" />
	</node>
	<node id="-253345" lat="59.9476166679" lon="9.66799444363">
		<tag k="historic" v="shieling" />
		<tag k="name" v="Bjørkestua" />
		<tag k="place" v="locality" />
		<tag k="ssr:stedsnr" v="578442" />
	</node>
	<node id="-253344" lat="60.0926666629" lon="9.53604166168">
		<tag k="name" v="Bjellemyr" />
		<tag k="natural" v="wetland" />
		<tag k="ssr:stedsnr" v="578419" />
	</node>
	<node id="-251295" lat="60.2622944403" lon="9.32385832769">
		<tag k="name" v="Setermyr" />
		<tag k="natural" v="wetland" />
		<tag k="ssr:stedsnr" v="879413" />
	</node>
	<node id="-250437" lat="59.9452583361" lon="9.69898889588">
		<tag k="historic" v="shieling" />
		<tag k="name" v="Berganvollen" />
		<tag k="place" v="locality" />
		<tag k="ssr:stedsnr" v="457555" />
	</node>
	<node id="-251292" lat="60.2528138929" lon="9.24011389104">
		<tag k="name" v="Møreputtmyra" />
		<tag k="natural" v="wetland" />
		<tag k="ssr:stedsnr" v="879149" />
	</node>
	<node id="-253338" lat="59.9636694412" lon="9.62217221753">
		<tag k="landuse" v="meadow" />
		<tag k="name" v="Skigardsbråtan" />
		<tag k="ssr:stedsnr" v="578380" />
	</node>
	<node id="-251289" lat="60.3067916627" lon="9.24603888756">
		<tag k="name" v="Flåmyran" />
		<tag k="natural" v="wetland" />
		<tag k="ssr:stedsnr" v="879114" />
	</node>
	<node id="-251801" lat="59.9813694453" lon="9.6669388971">
		<tag k="name" v="Liabakkskogen" />
		<tag k="place" v="locality" />
		<tag k="ssr:stedsnr" v="942131" />
	</node>
	<node id="-253332" lat="60.0458888924" lon="9.47982222814">
		<tag k="name" v="Hælfaret" />
		<tag k="natural" v="wetland" />
		<tag k="ssr:stedsnr" v="578181" />
	</node>
	<node id="-253331" lat="59.9717916652" lon="9.54181665893">
		<tag k="name" v="Bjønnehølmyra" />
		<tag k="natural" v="wetland" />
		<tag k="ssr:stedsnr" v="578013" />
	</node>
	<node id="-250462" lat="60.1010083315" lon="9.58178333994">
		<tag k="name" v="Bustetjennmyr" />
		<tag k="natural" v="wetland" />
		<tag k="ssr:stedsnr" v="457866" />
	</node>
	<node id="-250434" lat="59.9897722219" lon="9.73065277709">
		<tag k="name" v="Grindjordhagan" />
		<tag k="place" v="locality" />
		<tag k="ssr:stedsnr" v="457546" />
	</node>
	<node id="-251268" lat="60.2104111129" lon="9.42650278626">
		<tag k="name" v="Knebitmyran" />
		<tag k="natural" v="wetland" />
		<tag k="ssr:stedsnr" v="733450" />
	</node>
	<node id="-253315" lat="60.1463555536" lon="9.49475833106">
		<tag k="name" v="Mastemyr" />
		<tag k="natural" v="wetland" />
		<tag k="ssr:stedsnr" v="577428" />
	</node>
	<node id="-253311" lat="60.1794500005" lon="9.37758332558">
		<tag k="name" v="Torvstrømyra" />
		<tag k="natural" v="wetland" />
		<tag k="ssr:stedsnr" v="576759" />
	</node>
	<node id="-251258" lat="59.9928694471" lon="9.70682222135">
		<tag k="name" v="Velstadmarka" />
		<tag k="place" v="locality" />
		<tag k="ssr:stedsnr" v="732980" />
	</node>
	<node id="-253304" lat="60.1605166682" lon="9.46857221604">
		<tag k="name" v="Jonsrudmyra" />
		<tag k="natural" v="wetland" />
		<tag k="ssr:stedsnr" v="576643" />
	</node>
	<node id="-253303" lat="60.1537083333" lon="9.47418611437">
		<tag k="name" v="Fossmarka" />
		<tag k="place" v="locality" />
		<tag k="ssr:stedsnr" v="576637" />
	</node>
	<node id="-253301" lat="60.2946805572" lon="9.26546943641">
		<tag k="historic" v="shieling" />
		<tag k="name" v="Åsland heimseter" />
		<tag k="place" v="locality" />
		<tag k="ssr:stedsnr" v="576672" />
	</node>
	<node id="-253297" lat="60.1268111086" lon="9.45209166676">
		<tag k="name" v="Myra" />
		<tag k="natural" v="wetland" />
		<tag k="ssr:stedsnr" v="576408" />
	</node>
	<node id="-253283" lat="60.2703166643" lon="9.2439638814">
		<tag k="historic" v="shieling" />
		<tag k="name" v="Løkelibråtan" />
		<tag k="place" v="locality" />
		<tag k="ssr:stedsnr" v="575817" />
	</node>
	<node id="-253273" lat="60.2371694432" lon="9.24149444424">
		<tag k="name" v="Myran" />
		<tag k="natural" v="wetland" />
		<tag k="ssr:stedsnr" v="575101" />
	</node>
	<node id="-253272" lat="60.2235583301" lon="9.22943055042">
		<tag k="historic" v="shieling" />
		<tag k="name" v="Tjuvevollane" />
		<tag k="place" v="locality" />
		<tag k="ssr:stedsnr" v="575097" />
	</node>
	<node id="-251222" lat="59.9882611138" lon="9.82031666871">
		<tag k="name" v="Hestemyr" />
		<tag k="natural" v="wetland" />
		<tag k="ssr:stedsnr" v="638810" />
	</node>
	<node id="-253269" lat="60.2316694436" lon="9.28596944985">
		<tag k="historic" v="shieling" />
		<tag k="name" v="Torsbråta" />
		<tag k="place" v="locality" />
		<tag k="ssr:stedsnr" v="575041" />
	</node>
	<node id="-251220" lat="60.0340277815" lon="9.75656110578">
		<tag k="name" v="Fugleleikmyra" />
		<tag k="natural" v="wetland" />
		<tag k="ssr:stedsnr" v="638764" />
	</node>
	<node id="-251219" lat="60.0566999964" lon="9.58171389465">
		<tag k="name" v="Mastehallen" />
		<tag k="place" v="locality" />
		<tag k="ssr:stedsnr" v="638755" />
	</node>
	<node id="-251217" lat="60.0378611068" lon="9.59564166949">
		<tag k="landuse" v="meadow" />
		<tag k="name" v="Småbråtane" />
		<tag k="ssr:stedsnr" v="638734" />
	</node>
	<node id="-251214" lat="59.9353583369" lon="9.64087222046">
		<tag k="name" v="Gørrmyr" />
		<tag k="natural" v="wetland" />
		<tag k="ssr:stedsnr" v="638325" />
	</node>
	<node id="-251210" lat="60.1145583369" lon="9.43777499805">
		<tag k="name" v="Kleivsmyra" />
		<tag k="natural" v="wetland" />
		<tag k="ssr:stedsnr" v="637346" />
	</node>
	<node id="-251788" lat="59.9718194485" lon="9.64054167398">
		<tag k="name" v="Blåmyra" />
		<tag k="natural" v="wetland" />
		<tag k="ssr:stedsnr" v="941476" />
	</node>
	<node id="-250081" lat="59.9704805549" lon="9.64679999839">
		<tag k="name" v="Kjøyemyr" />
		<tag k="natural" v="wetland" />
		<tag k="ssr:stedsnr" v="91505" />
	</node>
	<node id="-251198" lat="60.1907638874" lon="9.22165278243">
		<tag k="name" v="Løkemyr" />
		<tag k="natural" v="wetland" />
		<tag k="ssr:stedsnr" v="636175" />
	</node>
	<node id="-251195" lat="60.1511944438" lon="9.35824443785">
		<tag k="name" v="Nokkemyrane" />
		<tag k="natural" v="wetland" />
		<tag k="ssr:stedsnr" v="636123" />
	</node>
	<node id="-251103" lat="60.1038777755" lon="9.56891666857">
		<tag k="name" v="Diplemyr" />
		<tag k="natural" v="wetland" />
		<tag k="ssr:stedsnr" v="700882" />
	</node>
	<node id="-253236" lat="59.9952277753" lon="9.62282500141">
		<tag k="alt_name" v="Bjønndalsetra" />
		<tag k="historic" v="shieling" />
		<tag k="name" v="Bjørndalssetra" />
		<tag k="place" v="locality" />
		<tag k="ssr:stedsnr" v="550973" />
	</node>
	<node id="-251442" lat="60.0405722223" lon="9.75158055859">
		<tag k="name" v="Flagmyrene" />
		<tag k="natural" v="wetland" />
		<tag k="ssr:stedsnr" v="882703" />
	</node>
	<node id="-251172" lat="59.956830557" lon="9.63859722298">
		<tag k="alt_name" v="Glomsmyr" />
		<tag k="name" v="Glomsmyrane" />
		<tag k="natural" v="wetland" />
		<tag k="ssr:stedsnr" v="610792" />
	</node>
	<node id="-251168" lat="60.2449194405" lon="9.33999443868">
		<tag k="name" v="Heimjordet" />
		<tag k="place" v="locality" />
		<tag k="ssr:stedsnr" v="758127" />
	</node>
	<node id="-251440" lat="60.0237333336" lon="9.78672500026">
		<tag k="name" v="Kittilmyra" />
		<tag k="natural" v="wetland" />
		<tag k="ssr:stedsnr" v="882696" />
	</node>
	<node id="-251162" lat="60.0940972239" lon="9.67618610598">
		<tag k="name" v="Grasmyra" />
		<tag k="natural" v="wetland" />
		<tag k="ssr:stedsnr" v="578879" />
	</node>
	<node id="-251159" lat="60.0924666644" lon="9.56962221448">
		<tag k="name" v="Fugleleiken" />
		<tag k="natural" v="wetland" />
		<tag k="ssr:stedsnr" v="578864" />
	</node>
	<node id="-251157" lat="60.1052888878" lon="9.61648055916">
		<tag k="name" v="Gamlevollmyrane" />
		<tag k="natural" v="wetland" />
		<tag k="ssr:stedsnr" v="578922" />
	</node>
	<node id="-251156" lat="60.0864305531" lon="9.70275555759">
		<tag k="landuse" v="meadow" />
		<tag k="name" v="Gunnarseterbråtan" />
		<tag k="ssr:stedsnr" v="578917" />
	</node>
	<node id="-251155" lat="60.0839222227" lon="9.47858055245">
		<tag k="name" v="Hengslemyran" />
		<tag k="place" v="locality" />
		<tag k="ssr:stedsnr" v="578903" />
	</node>
	<node id="-251147" lat="60.0417611128" lon="9.55782222989">
		<tag k="name" v="Øvre Jasom" />
		<tag k="place" v="locality" />
		<tag k="ssr:stedsnr" v="578336" />
	</node>
	<node id="-251140" lat="60.0706388913" lon="9.73066944974">
		<tag k="name" v="Setermyra" />
		<tag k="natural" v="wetland" />
		<tag k="ssr:stedsnr" v="578065" />
	</node>
	<node id="-251138" lat="59.9839138908" lon="9.54856110514">
		<tag k="landuse" v="meadow" />
		<tag k="name" v="Bråtan" />
		<tag k="ssr:stedsnr" v="578057" />
	</node>
	<node id="-251133" lat="60.018405552" lon="9.60589721326">
		<tag k="landuse" v="quarry" />
		<tag k="name" v="Nikkelgruvene" />
		<tag k="ssr:stedsnr" v="578208" />
	</node>
	<node id="-251130" lat="60.2085861074" lon="9.32590277726">
		<tag k="name" v="Størrmyra" />
		<tag k="natural" v="wetland" />
		<tag k="ssr:stedsnr" v="576909" />
	</node>
	<node id="-251092" lat="60.0778666642" lon="9.68166110864">
		<tag k="landuse" v="meadow" />
		<tag k="name" v="Tukusnarbråtan" />
		<tag k="ssr:stedsnr" v="700445" />
	</node>
	<node id="-251091" lat="60.0674055565" lon="9.65993610799">
		<tag k="name" v="Bjønnemyr" />
		<tag k="natural" v="wetland" />
		<tag k="ssr:stedsnr" v="700440" />
	</node>
	<node id="-251120" lat="60.1424388864" lon="9.3461416708">
		<tag k="historic" v="shieling" />
		<tag k="name" v="Halsteinrudseter" />
		<tag k="place" v="locality" />
		<tag k="ssr:stedsnr" v="576114" />
	</node>
	<node id="-253165" lat="60.1738694474" lon="9.25425000659">
		<tag k="historic" v="shieling" />
		<tag k="name" v="Kattenbergsetra" />
		<tag k="place" v="locality" />
		<tag k="ssr:stedsnr" v="429442" />
	</node>
	<node id="-251115" lat="60.2510111149" lon="9.22706389197">
		<tag k="name" v="Bøstelihølet" />
		<tag k="natural" v="wetland" />
		<tag k="ssr:stedsnr" v="575148" />
	</node>
	<node id="-251114" lat="60.1625638916" lon="9.26311944528">
		<tag k="historic" v="shieling" />
		<tag k="name" v="Ertesprangsetra" />
		<tag k="place" v="locality" />
		<tag k="ssr:stedsnr" v="575136" />
	</node>
	<node id="-251112" lat="60.2859222201" lon="9.2501750089">
		<tag k="name" v="Stormyr" />
		<tag k="natural" v="wetland" />
		<tag k="ssr:stedsnr" v="575076" />
	</node>
	<node id="-251110" lat="60.3149444486" lon="9.19696388031">
		<tag k="name" v="Brennåsstykket" />
		<tag k="place" v="locality" />
		<tag k="ssr:stedsnr" v="575065" />
	</node>
	<node id="-253151" lat="59.9585944463" lon="9.73774443668">
		<tag k="alt_name" v="Norstadmyr" />
		<tag k="name" v="Norstadmyra" />
		<tag k="natural" v="wetland" />
		<tag k="ssr:stedsnr" v="428781" />
	</node>
	<node id="-251098" lat="60.0455027751" lon="9.717388886">
		<tag k="landuse" v="meadow" />
		<tag k="name" v="Hestebråtane" />
		<tag k="ssr:stedsnr" v="700799" />
	</node>
	<node id="-251097" lat="60.0629999979" lon="9.75381110989">
		<tag k="name" v="Tjyruhjellmyra" />
		<tag k="natural" v="wetland" />
		<tag k="ssr:stedsnr" v="700783" />
	</node>
	<node id="-251094" lat="60.0749805554" lon="9.52583333671">
		<tag k="name" v="Myran" />
		<tag k="place" v="locality" />
		<tag k="ssr:stedsnr" v="700590" />
	</node>
	<node id="-253141" lat="60.0428944407" lon="9.69776389717">
		<tag k="name" v="Randihagan" />
		<tag k="place" v="locality" />
		<tag k="ssr:stedsnr" v="396995" />
	</node>
	<node id="-253140" lat="60.0295638855" lon="9.74022500487">
		<tag k="name" v="Brenna" />
		<tag k="place" v="locality" />
		<tag k="ssr:stedsnr" v="396979" />
	</node>
	<node id="-253139" lat="60.0420861131" lon="9.71166110853">
		<tag k="landuse" v="meadow" />
		<tag k="name" v="Hestebråtan" />
		<tag k="ssr:stedsnr" v="396973" />
	</node>
	<node id="-251089" lat="60.1462638905" lon="9.5410750044">
		<tag k="name" v="Orreleikmyra" />
		<tag k="natural" v="wetland" />
		<tag k="ssr:stedsnr" v="700423" />
	</node>
	<node id="-253136" lat="60.0906833313" lon="9.69078055165">
		<tag k="historic" v="shieling" />
		<tag k="name" v="Mastevollen" />
		<tag k="place" v="locality" />
		<tag k="ssr:stedsnr" v="396890" />
	</node>
	<node id="-251086" lat="60.0790222202" lon="9.578355559">
		<tag k="name" v="Øvre Snarmyra" />
		<tag k="natural" v="wetland" />
		<tag k="ssr:stedsnr" v="700408" />
	</node>
	<node id="-251085" lat="60.0852111142" lon="9.57240833354">
		<tag k="name" v="Hestestallmyr" />
		<tag k="natural" v="wetland" />
		<tag k="ssr:stedsnr" v="700397" />
	</node>
	<node id="-251082" lat="59.9708861133" lon="9.65715555019">
		<tag k="name" v="Bjønnefurumyra" />
		<tag k="natural" v="wetland" />
		<tag k="ssr:stedsnr" v="700500" />
	</node>
	<node id="-251076" lat="59.9760027787" lon="9.54369999364">
		<tag k="name" v="Kittilsbråtamyra" />
		<tag k="natural" v="wetland" />
		<tag k="ssr:stedsnr" v="700016" />
	</node>
	<node id="-253115" lat="60.082294442" lon="9.64632222675">
		<tag k="landuse" v="meadow" />
		<tag k="name" v="Heggebråta" />
		<tag k="ssr:stedsnr" v="396414" />
	</node>
	<node id="-251423" lat="59.9706944488" lon="9.80365833342">
		<tag k="name" v="Askemyr" />
		<tag k="natural" v="wetland" />
		<tag k="ssr:stedsnr" v="882557" />
	</node>
	<node id="-253112" lat="60.0920472265" lon="9.46745278384">
		<tag k="name" v="Pinerud" />
		<tag k="place" v="locality" />
		<tag k="ssr:stedsnr" v="396401" />
	</node>
	<node id="-253110" lat="59.9768999989" lon="9.76968889383">
		<tag k="historic" v="shieling" />
		<tag k="name" v="Kolsrudvollen" />
		<tag k="place" v="locality" />
		<tag k="ssr:stedsnr" v="396387" />
	</node>
	<node id="-253108" lat="59.9413916674" lon="9.69134444524">
		<tag k="historic" v="shieling" />
		<tag k="name" v="Gamle Bergansetra" />
		<tag k="place" v="locality" />
		<tag k="ssr:stedsnr" v="396373" />
	</node>
	<node id="-253107" lat="59.9418388848" lon="9.68988055269">
		<tag k="name" v="Finnebråtan skog" />
		<tag k="place" v="locality" />
		<tag k="ssr:stedsnr" v="396372" />
	</node>
	<node id="-251058" lat="60.1566916676" lon="9.48092777652">
		<tag k="name" v="Store Fossmyra" />
		<tag k="natural" v="wetland" />
		<tag k="ssr:stedsnr" v="698621" />
	</node>
	<node id="-251057" lat="59.9736277757" lon="9.64761111321">
		<tag k="name" v="Lokkarstein" />
		<tag k="natural" v="stone" />
		<tag k="ssr:stedsnr" v="698452" />
	</node>
	<node id="-253104" lat="60.0760583332" lon="9.63134445081">
		<tag k="name" v="Dælamyra" />
		<tag k="natural" v="wetland" />
		<tag k="ssr:stedsnr" v="396352" />
	</node>
	<node id="-253103" lat="59.9774861107" lon="9.57996388272">
		<tag k="name" v="Hestehagan" />
		<tag k="place" v="locality" />
		<tag k="ssr:stedsnr" v="396341" />
	</node>
	<node id="-253100" lat="59.9689888911" lon="9.61092777462">
		<tag k="landuse" v="meadow" />
		<tag k="name" v="Jensebråtan" />
		<tag k="ssr:stedsnr" v="396310" />
	</node>
	<node id="-253099" lat="60.095994448" lon="9.4624583296">
		<tag k="name" v="Holejordet" />
		<tag k="place" v="locality" />
		<tag k="ssr:stedsnr" v="396290" />
	</node>
	<node id="-251049" lat="60.1572166678" lon="9.44565000632">
		<tag k="name" v="Tovsrudbråtamyr" />
		<tag k="natural" v="wetland" />
		<tag k="ssr:stedsnr" v="698248" />
	</node>
	<node id="-251047" lat="60.1154916649" lon="9.43778610942">
		<tag k="landuse" v="meadow" />
		<tag k="name" v="Helgebråtan" />
		<tag k="ssr:stedsnr" v="698290" />
	</node>
	<node id="-253093" lat="60.0072055536" lon="9.58610833791">
		<tag k="name" v="Petersdokka" />
		<tag k="natural" v="wetland" />
		<tag k="ssr:stedsnr" v="396181" />
	</node>
	<node id="-253088" lat="60.0324777764" lon="9.46003888864">
		<tag k="historic" v="shieling" />
		<tag k="name" v="Stubberudseter" />
		<tag k="place" v="locality" />
		<tag k="ssr:stedsnr" v="396118" />
	</node>
	<node id="-253087" lat="60.0279694424" lon="9.42794444811">
		<tag k="historic" v="shieling" />
		<tag k="name" v="Moslon" />
		<tag k="place" v="locality" />
		<tag k="ssr:stedsnr" v="396114" />
	</node>
	<node id="-253083" lat="60.0178277809" lon="9.50452222168">
		<tag k="name" v="Delesteinmyra" />
		<tag k="natural" v="wetland" />
		<tag k="ssr:stedsnr" v="396086" />
	</node>
	<node id="-253080" lat="59.9821638868" lon="9.60430833695">
		<tag k="name" v="Hagan" />
		<tag k="place" v="locality" />
		<tag k="ssr:stedsnr" v="396081" />
	</node>
	<node id="-253079" lat="59.9827833317" lon="9.59065278659">
		<tag k="name" v="Storhagan" />
		<tag k="place" v="locality" />
		<tag k="ssr:stedsnr" v="396067" />
	</node>
	<node id="-253078" lat="60.0199805553" lon="9.46705832885">
		<tag k="name" v="Moltehogsten" />
		<tag k="natural" v="wetland" />
		<tag k="ssr:stedsnr" v="396061" />
	</node>
	<node id="-251027" lat="60.2538416681" lon="9.35215555252">
		<tag k="name" v="Hagan" />
		<tag k="place" v="locality" />
		<tag k="ssr:stedsnr" v="697137" />
	</node>
	<node id="-253070" lat="60.114216668" lon="9.5090027797">
		<tag k="name" v="Killingrudmyra" />
		<tag k="natural" v="wetland" />
		<tag k="ssr:stedsnr" v="395458" />
	</node>
	<node id="-251017" lat="60.1993944466" lon="9.24217499601">
		<tag k="historic" v="shieling" />
		<tag k="name" v="Utvollane" />
		<tag k="place" v="locality" />
		<tag k="ssr:stedsnr" v="697077" />
	</node>
	<node id="-251016" lat="60.2517388929" lon="9.29789445206">
		<tag k="name" v="Storøen" />
		<tag k="place" v="locality" />
		<tag k="ssr:stedsnr" v="696926" />
	</node>
	<node id="-253063" lat="60.2374888894" lon="9.31033611702">
		<tag k="landuse" v="meadow" />
		<tag k="name" v="Tjennbråtan" />
		<tag k="ssr:stedsnr" v="394932" />
	</node>
	<node id="-253060" lat="60.2302583372" lon="9.4175194506">
		<tag k="landuse" v="meadow" />
		<tag k="name" v="Seterbråtan" />
		<tag k="ssr:stedsnr" v="394870" />
	</node>
	<node id="-251007" lat="60.0172555539" lon="9.5379277853">
		<tag k="landuse" v="meadow" />
		<tag k="name" v="Rolsrudbråtan" />
		<tag k="ssr:stedsnr" v="690902" />
	</node>
	<node id="-253049" lat="60.2744888933" lon="9.34836944422">
		<tag k="historic" v="shieling" />
		<tag k="name" v="Hyttevollen" />
		<tag k="place" v="locality" />
		<tag k="ssr:stedsnr" v="394448" />
	</node>
	<node id="-251000" lat="60.0507388875" lon="9.72938333754">
		<tag k="landuse" v="meadow" />
		<tag k="name" v="Julsbråtan" />
		<tag k="ssr:stedsnr" v="517823" />
	</node>
	<node id="-251412" lat="59.961616668" lon="9.67094999602">
		<tag k="name" v="Solebrumyra" />
		<tag k="natural" v="wetland" />
		<tag k="ssr:stedsnr" v="882439" />
	</node>
	<node id="-250994" lat="60.2082305565" lon="9.50531944499">
		<tag k="historic" v="shieling" />
		<tag k="name" v="Solevollen" />
		<tag k="place" v="locality" />
		<tag k="ssr:stedsnr" v="516504" />
	</node>
	<node id="-250993" lat="60.2020083356" lon="9.50574721925">
		<tag k="historic" v="shieling" />
		<tag k="name" v="Svidivollen" />
		<tag k="place" v="locality" />
		<tag k="ssr:stedsnr" v="516503" />
	</node>
	<node id="-250992" lat="60.1044777756" lon="9.51306110219">
		<tag k="name" v="Djupemyr" />
		<tag k="natural" v="wetland" />
		<tag k="ssr:stedsnr" v="516429" />
	</node>
	<node id="-250990" lat="60.2853416664" lon="9.30365555153">
		<tag k="name" v="Heimseterskogen" />
		<tag k="place" v="locality" />
		<tag k="ssr:stedsnr" v="515635" />
	</node>
	<node id="-251410" lat="59.9566222246" lon="9.68184999827">
		<tag k="name" v="Rundmyra" />
		<tag k="natural" v="wetland" />
		<tag k="ssr:stedsnr" v="882425" />
	</node>
	<node id="-253025" lat="60.2220638881" lon="9.28619444421">
		<tag k="name" v="Bekkemotmyra" />
		<tag k="natural" v="wetland" />
		<tag k="ssr:stedsnr" v="393447" />
	</node>
	<node id="-253014" lat="60.0498361101" lon="9.75438610716">
		<tag k="name" v="Steinsmyr" />
		<tag k="natural" v="wetland" />
		<tag k="ssr:stedsnr" v="386207" />
	</node>
	<node id="-251403" lat="60.1129750015" lon="9.53642499837">
		<tag k="name" v="Pelemyr" />
		<tag k="natural" v="wetland" />
		<tag k="ssr:stedsnr" v="882403" />
	</node>
	<node id="-250914" lat="59.9413500042" lon="9.6815583423">
		<tag k="name" v="Gørrtjennmyra" />
		<tag k="natural" v="wetland" />
		<tag k="ssr:stedsnr" v="457463" />
	</node>
	<node id="-250911" lat="60.110419442" lon="9.65193332695">
		<tag k="name" v="Malinemyra" />
		<tag k="natural" v="wetland" />
		<tag k="ssr:stedsnr" v="457502" />
	</node>
	<node id="-250910" lat="60.1752527808" lon="9.38682777242">
		<tag k="name" v="Hestehagan" />
		<tag k="place" v="locality" />
		<tag k="ssr:stedsnr" v="455704" />
	</node>
	<node id="-250909" lat="60.1754611069" lon="9.4598083337">
		<tag k="name" v="Lunnestadmyra" />
		<tag k="natural" v="wetland" />
		<tag k="ssr:stedsnr" v="455664" />
	</node>
	<node id="-250906" lat="60.1121472267" lon="9.44068332771">
		<tag k="landuse" v="meadow" />
		<tag k="name" v="Småbråtane" />
		<tag k="ssr:stedsnr" v="455302" />
	</node>
	<node id="-251396" lat="60.0671250003" lon="9.67749167531">
		<tag k="landuse" v="meadow" />
		<tag k="name" v="Milebråtan" />
		<tag k="ssr:stedsnr" v="882373" />
	</node>
	<node id="-250901" lat="60.2001194442" lon="9.24392221409">
		<tag k="loc_name" v="Dordistein" />
		<tag k="name" v="Dørdistein" />
		<tag k="natural" v="stone" />
		<tag k="ssr:stedsnr" v="454051" />
	</node>
	<node id="-250896" lat="60.0064999987" lon="9.79445278404">
		<tag k="name" v="Småtjennmyrane" />
		<tag k="natural" v="wetland" />
		<tag k="ssr:stedsnr" v="518995" />
	</node>
	<node id="-252942" lat="60.1001333305" lon="9.59790277118">
		<tag k="historic" v="shieling" />
		<tag k="name" v="Helliksetra" />
		<tag k="place" v="locality" />
		<tag k="ssr:stedsnr" v="336884" />
	</node>
	<node id="-252938" lat="59.9899305545" lon="9.55672500355">
		<tag k="name" v="Riklemyr" />
		<tag k="natural" v="wetland" />
		<tag k="ssr:stedsnr" v="336722" />
	</node>
	<node id="-252936" lat="60.0109777745" lon="9.56157778188">
		<tag k="landuse" v="meadow" />
		<tag k="name" v="Slåttebråtan" />
		<tag k="ssr:stedsnr" v="336717" />
	</node>
	<node id="-252934" lat="59.9232833319" lon="9.67402499495">
		<tag k="landuse" v="meadow" />
		<tag k="name" v="Barlindbråtan" />
		<tag k="ssr:stedsnr" v="336680" />
	</node>
	<node id="-251393" lat="59.9718749972" lon="9.6969333419">
		<tag k="landuse" v="meadow" />
		<tag k="name" v="Hyttebråta" />
		<tag k="ssr:stedsnr" v="882353" />
	</node>
	<node id="-250884" lat="60.103841668" lon="9.6131833369">
		<tag k="historic" v="shieling" />
		<tag k="name" v="Gamlevollane" />
		<tag k="place" v="locality" />
		<tag k="ssr:stedsnr" v="518871" />
	</node>
	<node id="-252931" lat="60.078294447" lon="9.5421888907">
		<tag k="name" v="Flugumyr" />
		<tag k="natural" v="wetland" />
		<tag k="ssr:stedsnr" v="336445" />
	</node>
	<node id="-252929" lat="60.127166667" lon="9.53846389245">
		<tag k="historic" v="shieling" />
		<tag k="name" v="Blekabergseter" />
		<tag k="place" v="locality" />
		<tag k="ssr:stedsnr" v="336436" />
	</node>
	<node id="-250880" lat="60.0021722222" lon="9.69848611728">
		<tag k="name" v="Tjennmyra" />
		<tag k="natural" v="wetland" />
		<tag k="ssr:stedsnr" v="518758" />
	</node>
	<node id="-250879" lat="59.9967277806" lon="9.55688054907">
		<tag k="name" v="Grasdalskogen" />
		<tag k="place" v="locality" />
		<tag k="ssr:stedsnr" v="518732" />
	</node>
	<node id="-252926" lat="60.1011194453" lon="9.56036667055">
		<tag k="name" v="Trommedokka" />
		<tag k="natural" v="wetland" />
		<tag k="ssr:stedsnr" v="336413" />
	</node>
	<node id="-252925" lat="59.9956250037" lon="9.81316110523">
		<tag k="name" v="Solumsetermyra" />
		<tag k="natural" v="wetland" />
		<tag k="ssr:stedsnr" v="336650" />
	</node>
	<node id="-252924" lat="59.9762833362" lon="9.82900556212">
		<tag k="name" v="Raumyr" />
		<tag k="natural" v="wetland" />
		<tag k="ssr:stedsnr" v="336629" />
	</node>
	<node id="-252922" lat="59.9920444463" lon="9.77889443955">
		<tag k="name" v="Blakkemyr" />
		<tag k="natural" v="wetland" />
		<tag k="ssr:stedsnr" v="336596" />
	</node>
	<node id="-252920" lat="60.0612416628" lon="9.48821111499">
		<tag k="name" v="Plassen" />
		<tag k="place" v="locality" />
		<tag k="ssr:stedsnr" v="336204" />
	</node>
	<node id="-250871" lat="60.0800138928" lon="9.56725554737">
		<tag k="name" v="Bubbehimyr" />
		<tag k="natural" v="wetland" />
		<tag k="ssr:stedsnr" v="518350" />
	</node>
	<node id="-250870" lat="60.1317694436" lon="9.56006111536">
		<tag k="name" v="Setermarka" />
		<tag k="place" v="locality" />
		<tag k="ssr:stedsnr" v="518347" />
	</node>
	<node id="-250868" lat="60.0220055531" lon="9.56320000529">
		<tag k="landuse" v="meadow" />
		<tag k="name" v="Juvsbråtan" />
		<tag k="ssr:stedsnr" v="518255" />
	</node>
	<node id="-251390" lat="60.0767638911" lon="9.57153611963">
		<tag k="name" v="Kloppmyr" />
		<tag k="natural" v="wetland" />
		<tag k="ssr:stedsnr" v="882345" />
	</node>
	<node id="-250866" lat="60.0439638869" lon="9.43831944792">
		<tag k="historic" v="shieling" />
		<tag k="name" v="Heimsetra" />
		<tag k="place" v="locality" />
		<tag k="ssr:stedsnr" v="518212" />
	</node>
	<node id="-250863" lat="60.0074472201" lon="9.50083887997">
		<tag k="name" v="Hansemyra" />
		<tag k="natural" v="wetland" />
		<tag k="ssr:stedsnr" v="518118" />
	</node>
	<node id="-250860" lat="60.0158916633" lon="9.55131388756">
		<tag k="name" v="Bakdalsmyra" />
		<tag k="natural" v="wetland" />
		<tag k="ssr:stedsnr" v="518037" />
	</node>
	<node id="-252903" lat="60.0606861152" lon="9.58604721777">
		<tag k="name" v="Lauvbrennmyra" />
		<tag k="natural" v="wetland" />
		<tag k="ssr:stedsnr" v="335773" />
	</node>
	<node id="-252902" lat="60.0336111072" lon="9.5888972229">
		<tag k="name" v="Inngjerdinga" />
		<tag k="place" v="locality" />
		<tag k="ssr:stedsnr" v="335763" />
	</node>
	<node id="-252898" lat="60.0400111155" lon="9.78100556207">
		<tag k="name" v="Den runde myra" />
		<tag k="natural" v="wetland" />
		<tag k="ssr:stedsnr" v="335818" />
	</node>
	<node id="-250849" lat="59.974102776" lon="9.83201944199">
		<tag k="name" v="Porsmyr" />
		<tag k="natural" v="wetland" />
		<tag k="ssr:stedsnr" v="517656" />
	</node>
	<node id="-250848" lat="60.0242638877" lon="9.63448888312">
		<tag k="name" v="Nedre Husemyr" />
		<tag k="natural" v="wetland" />
		<tag k="ssr:stedsnr" v="517648" />
	</node>
	<node id="-250847" lat="59.9554083379" lon="9.82171110865">
		<tag k="name" v="Stykket" />
		<tag k="place" v="locality" />
		<tag k="ssr:stedsnr" v="517644" />
	</node>
	<node id="-252891" lat="59.9799972204" lon="9.84339722791">
		<tag k="landuse" v="meadow" />
		<tag k="name" v="Rasmusbråtan" />
		<tag k="ssr:stedsnr" v="335661" />
	</node>
	<node id="-250841" lat="59.9507888906" lon="9.73205277449">
		<tag k="landuse" v="meadow" />
		<tag k="name" v="Reiersbråtan" />
		<tag k="ssr:stedsnr" v="517624" />
	</node>
	<node id="-252888" lat="60.1401305582" lon="9.52169167263">
		<tag k="landuse" v="meadow" />
		<tag k="name" v="Seterbråtan" />
		<tag k="ssr:stedsnr" v="335401" />
	</node>
	<node id="-250839" lat="60.0583166689" lon="9.64809165877">
		<tag k="name" v="Delemyr" />
		<tag k="natural" v="wetland" />
		<tag k="ssr:stedsnr" v="517609" />
	</node>
	<node id="-250838" lat="59.9526527764" lon="9.74373611677">
		<tag k="landuse" v="quarry" />
		<tag k="name" v="Steintaket" />
		<tag k="ssr:stedsnr" v="517604" />
	</node>
	<node id="-250837" lat="59.9186055519" lon="9.69416111255">
		<tag k="name" v="Torvmyra" />
		<tag k="natural" v="wetland" />
		<tag k="ssr:stedsnr" v="517540" />
	</node>
	<node id="-252882" lat="59.9742678899" lon="9.5743820582">
		<tag k="name" v="Brenna" />
		<tag k="place" v="locality" />
		<tag k="ssr:stedsnr" v="335362" />
	</node>
	<node id="-250831" lat="59.9440472231" lon="9.61593332697">
		<tag k="name" v="Fålabånn" />
		<tag k="natural" v="wetland" />
		<tag k="ssr:stedsnr" v="517435" />
	</node>
	<node id="-252875" lat="59.9934999992" lon="9.59251111722">
		<tag k="landuse" v="meadow" />
		<tag k="name" v="Skrukkebråta" />
		<tag k="ssr:stedsnr" v="335099" />
	</node>
	<node id="-252868" lat="60.1830250009" lon="9.47419166953">
		<tag k="landuse" v="meadow" />
		<tag k="name" v="Sebjørnsrud" />
		<tag k="ssr:stedsnr" v="334663" />
	</node>
	<node id="-250816" lat="60.0912249969" lon="9.44384723033">
		<tag k="landuse" v="meadow" />
		<tag k="name" v="Kløvjabekkbråtan" />
		<tag k="ssr:stedsnr" v="517311" />
	</node>
	<node id="-252863" lat="60.1091361103" lon="9.53191945004">
		<tag k="name" v="Mosteinmyra" />
		<tag k="natural" v="wetland" />
		<tag k="ssr:stedsnr" v="334447" />
	</node>
	<node id="-250812" lat="60.0183638869" lon="9.61369999443">
		<tag k="historic" v="shieling" />
		<tag k="name" v="Kringstadseter" />
		<tag k="place" v="locality" />
		<tag k="ssr:stedsnr" v="517209" />
	</node>
	<node id="-250811" lat="60.0055777735" lon="9.60665277053">
		<tag k="name" v="Langemyr" />
		<tag k="natural" v="wetland" />
		<tag k="ssr:stedsnr" v="517199" />
	</node>
	<node id="-252857" lat="60.2342555576" lon="9.38990277222">
		<tag k="landuse" v="meadow" />
		<tag k="name" v="Høgåsbråtan" />
		<tag k="ssr:stedsnr" v="333847" />
	</node>
	<node id="-252854" lat="60.1925055529" lon="9.40559444042">
		<tag k="name" v="Svenskemyr" />
		<tag k="natural" v="wetland" />
		<tag k="ssr:stedsnr" v="333725" />
	</node>
	<node id="-250803" lat="60.213713887" lon="9.42472223013">
		<tag k="name" v="Gampeløken" />
		<tag k="natural" v="wetland" />
		<tag k="ssr:stedsnr" v="516941" />
	</node>
	<node id="-251720" lat="60.0687944428" lon="9.62452777021">
		<tag k="name" v="Tubbemyr" />
		<tag k="natural" v="wetland" />
		<tag k="ssr:stedsnr" v="822458" />
	</node>
	<node id="-252844" lat="60.1492583357" lon="9.22895555372">
		<tag k="name" v="Snåråsetermarka" />
		<tag k="place" v="locality" />
		<tag k="ssr:stedsnr" v="333381" />
	</node>
	<node id="-252839" lat="60.2973249976" lon="9.25089166988">
		<tag k="historic" v="shieling" />
		<tag k="name" v="Kristofferbråtan" />
		<tag k="place" v="locality" />
		<tag k="ssr:stedsnr" v="333084" />
	</node>
	<node id="-252837" lat="60.2895416635" lon="9.24020000167">
		<tag k="historic" v="shieling" />
		<tag k="name" v="Flatin heimseter" />
		<tag k="place" v="locality" />
		<tag k="ssr:stedsnr" v="333047" />
	</node>
	<node id="-250788" lat="60.1789333341" lon="9.48568889118">
		<tag k="historic" v="shieling" />
		<tag k="name" v="Øvre Setra" />
		<tag k="place" v="locality" />
		<tag k="ssr:stedsnr" v="516665" />
	</node>
	<node id="-251718" lat="60.0185888865" lon="9.7977916737">
		<tag k="landuse" v="meadow" />
		<tag k="name" v="Kveldbekkbråtane" />
		<tag k="ssr:stedsnr" v="821968" />
	</node>
	<node id="-252834" lat="60.273108335" lon="9.2863611046">
		<tag k="historic" v="shieling" />
		<tag k="name" v="Juvbråtan" />
		<tag k="place" v="locality" />
		<tag k="ssr:stedsnr" v="332855" />
	</node>
	<node id="-252833" lat="60.0964666664" lon="9.61019722999">
		<tag k="name" v="Annetjennmyr" />
		<tag k="natural" v="wetland" />
		<tag k="ssr:stedsnr" v="326385" />
	</node>
	<node id="-252828" lat="60.3089138894" lon="9.20848334074">
		<tag k="name" v="Flatinmarka" />
		<tag k="place" v="locality" />
		<tag k="ssr:stedsnr" v="309495" />
	</node>
	<node id="-251468" lat="60.2551861117" lon="9.37706666272">
		<tag k="name" v="Heimkyrhagan" />
		<tag k="place" v="locality" />
		<tag k="ssr:stedsnr" v="697156" />
	</node>
	<node id="-251127" lat="60.2255750031" lon="9.37188056268">
		<tag k="name" v="Dælastykket" />
		<tag k="place" v="locality" />
		<tag k="ssr:stedsnr" v="576863" />
	</node>
	<node id="-250768" lat="60.23211111" lon="9.31202500578">
		<tag k="landuse" v="meadow" />
		<tag k="name" v="Nedre Flatbråtan" />
		<tag k="ssr:stedsnr" v="515950" />
	</node>
	<node id="-250767" lat="60.2286388882" lon="9.31019445026">
		<tag k="landuse" v="meadow" />
		<tag k="name" v="Dælabråtan" />
		<tag k="ssr:stedsnr" v="515947" />
	</node>
	<node id="-252813" lat="60.0682083342" lon="9.72338056317">
		<tag k="alt_name" v="Langmyr" />
		<tag k="name" v="Langemyr" />
		<tag k="natural" v="wetland" />
		<tag k="ssr:stedsnr" v="308884" />
	</node>
	<node id="-251551" lat="60.3137999957" lon="9.25872777206">
		<tag k="name" v="Moldbakken" />
		<tag k="natural" v="wetland" />
		<tag k="ssr:stedsnr" v="758124" />
	</node>
	<node id="-252807" lat="60.1740250009" lon="9.44289999787">
		<tag k="landuse" v="meadow" />
		<tag k="name" v="Lauvlibråtan" />
		<tag k="ssr:stedsnr" v="308404" />
	</node>
	<node id="-250758" lat="60.2358305571" lon="9.34788888982">
		<tag k="name" v="Liurønningen" />
		<tag k="place" v="locality" />
		<tag k="ssr:stedsnr" v="515823" />
	</node>
	<node id="-250755" lat="60.174466668" lon="9.35110834016">
		<tag k="name" v="Haslimarka" />
		<tag k="place" v="locality" />
		<tag k="ssr:stedsnr" v="515746" />
	</node>
	<node id="-250753" lat="60.1864000033" lon="9.38934444254">
		<tag k="name" v="Flata" />
		<tag k="place" v="locality" />
		<tag k="ssr:stedsnr" v="515732" />
	</node>
	<node id="-250752" lat="60.1753916666" lon="9.39791111338">
		<tag k="landuse" v="meadow" />
		<tag k="name" v="Vårfjøsroa" />
		<tag k="ssr:stedsnr" v="515728" />
	</node>
	<node id="-250745" lat="60.2088805555" lon="9.25448611657">
		<tag k="name" v="Storhovdstykket" />
		<tag k="place" v="locality" />
		<tag k="ssr:stedsnr" v="515472" />
	</node>
	<node id="-250744" lat="60.2289083352" lon="9.30623333742">
		<tag k="name" v="Øvstemarka" />
		<tag k="place" v="locality" />
		<tag k="ssr:stedsnr" v="515459" />
	</node>
	<node id="-250741" lat="60.2636749995" lon="9.34396944619">
		<tag k="name" v="Torvstrømyra" />
		<tag k="natural" v="wetland" />
		<tag k="ssr:stedsnr" v="515439" />
	</node>
	<node id="-252786" lat="60.2245027813" lon="9.29824166449">
		<tag k="name" v="Stormyr" />
		<tag k="natural" v="wetland" />
		<tag k="ssr:stedsnr" v="307305" />
	</node>
	<node id="-252781" lat="60.1033999995" lon="9.58103332673">
		<tag k="name" v="Gurimyr" />
		<tag k="natural" v="wetland" />
		<tag k="ssr:stedsnr" v="215900" />
	</node>
	<node id="-252780" lat="60.0922500009" lon="9.62775556271">
		<tag k="name" v="De store myrane" />
		<tag k="natural" v="wetland" />
		<tag k="ssr:stedsnr" v="215895" />
	</node>
	<node id="-252779" lat="60.0016555588" lon="9.56412777045">
		<tag k="name" v="Grønlimyra" />
		<tag k="natural" v="wetland" />
		<tag k="ssr:stedsnr" v="215775" />
	</node>
	<node id="-252778" lat="60.078119445" lon="9.64936943611">
		<tag k="name" v="Fjerdingsmyr" />
		<tag k="natural" v="wetland" />
		<tag k="ssr:stedsnr" v="215499" />
	</node>
	<node id="-250728" lat="60.2884472183" lon="9.24020832444">
		<tag k="historic" v="shieling" />
		<tag k="name" v="Bakli heimseter" />
		<tag k="place" v="locality" />
		<tag k="ssr:stedsnr" v="515052" />
	</node>
	<node id="-252775" lat="60.0694055513" lon="9.61042499325">
		<tag k="name" v="Skotjennmyra" />
		<tag k="natural" v="wetland" />
		<tag k="ssr:stedsnr" v="215449" />
	</node>
	<node id="-252774" lat="60.0655694413" lon="9.56921389176">
		<tag k="name" v="Myrbråtamyra" />
		<tag k="natural" v="wetland" />
		<tag k="ssr:stedsnr" v="215443" />
	</node>
	<node id="-250722" lat="60.1648083296" lon="9.33993056192">
		<tag k="name" v="Svarttjennmarka" />
		<tag k="place" v="locality" />
		<tag k="ssr:stedsnr" v="508131" />
	</node>
	<node id="-250721" lat="60.0100750031" lon="9.80498611284">
		<tag k="landuse" v="meadow" />
		<tag k="name" v="Bråtan" />
		<tag k="ssr:stedsnr" v="396636" />
	</node>
	<node id="-250719" lat="60.0356111084" lon="9.64120277584">
		<tag k="name" v="Hestehagen" />
		<tag k="place" v="locality" />
		<tag k="ssr:stedsnr" v="396626" />
	</node>
	<node id="-250717" lat="59.9527444453" lon="9.80408333173">
		<tag k="name" v="Nesmyrane" />
		<tag k="place" v="locality" />
		<tag k="ssr:stedsnr" v="396617" />
	</node>
	<node id="-252761" lat="60.0824666671" lon="9.45005276898">
		<tag k="historic" v="shieling" />
		<tag k="name" v="Nedre Bråtan" />
		<tag k="place" v="locality" />
		<tag k="ssr:stedsnr" v="214971" />
	</node>
	<node id="-250711" lat="59.9125944464" lon="9.71913888877">
		<tag k="name" v="Nævraskogen" />
		<tag k="place" v="locality" />
		<tag k="ssr:stedsnr" v="396528" />
	</node>
	<node id="-252757" lat="60.0900888885" lon="9.50246944779">
		<tag k="historic" v="shieling" />
		<tag k="name" v="Torsplassen" />
		<tag k="place" v="locality" />
		<tag k="ssr:stedsnr" v="214940" />
	</node>
	<node id="-252755" lat="60.0829888901" lon="9.49060556002">
		<tag k="name" v="Åjordet" />
		<tag k="place" v="locality" />
		<tag k="ssr:stedsnr" v="214932" />
	</node>
	<node id="-252754" lat="60.088602774" lon="9.51264443639">
		<tag k="name" v="Inngjerdinga" />
		<tag k="place" v="locality" />
		<tag k="ssr:stedsnr" v="214930" />
	</node>
	<node id="-252752" lat="60.0852527788" lon="9.50769722101">
		<tag k="landuse" v="meadow" />
		<tag k="name" v="Trettebråtan" />
		<tag k="ssr:stedsnr" v="214923" />
	</node>
	<node id="-250702" lat="60.1095444487" lon="9.3964916664">
		<tag k="historic" v="shieling" />
		<tag k="name" v="Reintjennvollen" />
		<tag k="place" v="locality" />
		<tag k="ssr:stedsnr" v="394066" />
	</node>
	<node id="-252749" lat="59.9830527794" lon="9.83222777146">
		<tag k="name" v="Tågemyr" />
		<tag k="natural" v="wetland" />
		<tag k="ssr:stedsnr" v="214843" />
	</node>
	<node id="-250696" lat="60.2541916646" lon="9.34113054745">
		<tag k="name" v="Barbruhagan" />
		<tag k="place" v="locality" />
		<tag k="ssr:stedsnr" v="394110" />
	</node>
	<node id="-252743" lat="60.095666668" lon="9.49762499429">
		<tag k="historic" v="shieling" />
		<tag k="name" v="Jøranvollen" />
		<tag k="place" v="locality" />
		<tag k="ssr:stedsnr" v="214601" />
	</node>
	<node id="-252742" lat="59.9960111093" lon="9.75010832822">
		<tag k="name" v="Jokstadlanda" />
		<tag k="place" v="locality" />
		<tag k="ssr:stedsnr" v="214600" />
	</node>
	<node id="-250693" lat="60.1341888923" lon="9.39380555365">
		<tag k="historic" v="shieling" />
		<tag k="name" v="Gamlesetervollen" />
		<tag k="place" v="locality" />
		<tag k="ssr:stedsnr" v="394102" />
	</node>
	<node id="-250692" lat="60.15771389" lon="9.30055556055">
		<tag k="name" v="Hasliskogen" />
		<tag k="place" v="locality" />
		<tag k="ssr:stedsnr" v="393660" />
	</node>
	<node id="-252739" lat="59.9529249964" lon="9.70850555572">
		<tag k="name" v="Torvstrømyra" />
		<tag k="natural" v="wetland" />
		<tag k="ssr:stedsnr" v="214566" />
	</node>
	<node id="-250685" lat="60.2170722192" lon="9.23588611424">
		<tag k="name" v="Hella" />
		<tag k="natural" v="stone" />
		<tag k="ssr:stedsnr" v="393109" />
	</node>
	<node id="-250684" lat="60.2179500006" lon="9.24182499581">
		<tag k="name" v="Hella" />
		<tag k="natural" v="stone" />
		<tag k="ssr:stedsnr" v="393107" />
	</node>
	<node id="-250682" lat="60.2069166687" lon="9.19742500721">
		<tag k="name" v="Lorthølmyra" />
		<tag k="natural" v="wetland" />
		<tag k="ssr:stedsnr" v="393007" />
	</node>
	<node id="-252727" lat="59.9570027789" lon="9.66545833826">
		<tag k="name" v="Hogstan" />
		<tag k="place" v="locality" />
		<tag k="ssr:stedsnr" v="214490" />
	</node>
	<node id="-252725" lat="59.9683583373" lon="9.6575416678">
		<tag k="name" v="Gørrdiplen" />
		<tag k="natural" v="wetland" />
		<tag k="ssr:stedsnr" v="214470" />
	</node>
	<node id="-252721" lat="60.0147333312" lon="9.61737222945">
		<tag k="name" v="Kloppmyra" />
		<tag k="natural" v="wetland" />
		<tag k="ssr:stedsnr" v="214200" />
	</node>
	<node id="-250672" lat="60.3367444422" lon="9.17599166087">
		<tag k="name" v="Moltemyra" />
		<tag k="natural" v="wetland" />
		<tag k="ssr:stedsnr" v="491434" />
	</node>
	<node id="-252719" lat="59.9875944427" lon="9.5823916733">
		<tag k="landuse" v="meadow" />
		<tag k="name" v="Nilsebråta" />
		<tag k="ssr:stedsnr" v="214098" />
	</node>
	<node id="-250669" lat="60.2964916648" lon="9.30604721852">
		<tag k="name" v="Markelimyra" />
		<tag k="natural" v="wetland" />
		<tag k="ssr:stedsnr" v="491094" />
	</node>
	<node id="-252715" lat="59.9985833359" lon="9.68017221403">
		<tag k="landuse" v="meadow" />
		<tag k="name" v="Småbråtane" />
		<tag k="ssr:stedsnr" v="214127" />
	</node>
	<node id="-252714" lat="60.02009722" lon="9.6630694511">
		<tag k="landuse" v="meadow" />
		<tag k="name" v="Bråtan" />
		<tag k="ssr:stedsnr" v="214113" />
	</node>
	<node id="-252713" lat="60.089711113" lon="9.38422221769">
		<tag k="name" v="Flåmyran" />
		<tag k="natural" v="wetland" />
		<tag k="ssr:stedsnr" v="213962" />
	</node>
	<node id="-252704" lat="60.1576916672" lon="9.45020833076">
		<tag k="landuse" v="meadow" />
		<tag k="name" v="Tovsrudbråtan" />
		<tag k="ssr:stedsnr" v="213288" />
	</node>
	<node id="-252701" lat="60.3273611107" lon="9.18146667507">
		<tag k="name" v="Osmyrane" />
		<tag k="natural" v="wetland" />
		<tag k="ssr:stedsnr" v="212900" />
	</node>
	<node id="-252698" lat="60.2715111152" lon="9.3022194505">
		<tag k="name" v="Torvstrømyra" />
		<tag k="natural" v="wetland" />
		<tag k="ssr:stedsnr" v="212887" />
	</node>
	<node id="-252692" lat="60.200702781" lon="9.40189722551">
		<tag k="name" v="Bråtan" />
		<tag k="place" v="locality" />
		<tag k="ssr:stedsnr" v="212991" />
	</node>
	<node id="-252688" lat="60.1580722189" lon="9.39521944235">
		<tag k="name" v="Østre Mellommyra" />
		<tag k="natural" v="wetland" />
		<tag k="ssr:stedsnr" v="212643" />
	</node>
	<node id="-250638" lat="59.9528333354" lon="9.72619999473">
		<tag k="alt_name" v="Slåttmyr" />
		<tag k="name" v="Slåttemyr" />
		<tag k="natural" v="wetland" />
		<tag k="ssr:stedsnr" v="489778" />
	</node>
	<node id="-252683" lat="60.1790083358" lon="9.35989167278">
		<tag k="name" v="Grønlundmarka" />
		<tag k="place" v="locality" />
		<tag k="ssr:stedsnr" v="212741" />
	</node>
	<node id="-250623" lat="60.0743527801" lon="9.45340277279">
		<tag k="historic" v="shieling" />
		<tag k="name" v="Øvre Bråtan" />
		<tag k="place" v="locality" />
		<tag k="ssr:stedsnr" v="336964" />
	</node>
	<node id="-252666" lat="60.2353277788" lon="9.28236944736">
		<tag k="historic" v="shieling" />
		<tag k="name" v="Nastadhagan" />
		<tag k="place" v="locality" />
		<tag k="ssr:stedsnr" v="204097" />
	</node>
	<node id="-250614" lat="59.9775583323" lon="9.53608889257">
		<tag k="name" v="Setermyra" />
		<tag k="natural" v="wetland" />
		<tag k="ssr:stedsnr" v="336008" />
	</node>
	<node id="-250613" lat="60.0924166651" lon="9.70136666573">
		<tag k="landuse" v="meadow" />
		<tag k="name" v="Snaubråtan" />
		<tag k="ssr:stedsnr" v="335914" />
	</node>
	<node id="-250612" lat="60.0940499966" lon="9.6978111152">
		<tag k="name" v="Jakobsmyr" />
		<tag k="natural" v="wetland" />
		<tag k="ssr:stedsnr" v="335910" />
	</node>
	<node id="-250611" lat="60.0472638881" lon="9.67339723075">
		<tag k="name" v="Tukujordet" />
		<tag k="place" v="locality" />
		<tag k="ssr:stedsnr" v="335634" />
	</node>
	<node id="-250608" lat="60.0956666672" lon="9.44961388679">
		<tag k="landuse" v="meadow" />
		<tag k="name" v="Haslebråtan" />
		<tag k="ssr:stedsnr" v="335315" />
	</node>
	<node id="-250607" lat="60.1462666654" lon="9.52545000252">
		<tag k="name" v="Narumsetermyran" />
		<tag k="natural" v="wetland" />
		<tag k="ssr:stedsnr" v="335411" />
	</node>
	<node id="-250594" lat="60.0077361155" lon="9.65613055985">
		<tag k="name" v="Elgmyrane" />
		<tag k="natural" v="wetland" />
		<tag k="ssr:stedsnr" v="335113" />
	</node>
	<node id="-250592" lat="60.1601055568" lon="9.48043888689">
		<tag k="name" v="Svarteputt" />
		<tag k="natural" v="wetland" />
		<tag k="ssr:stedsnr" v="334625" />
	</node>
	<node id="-250591" lat="60.1613083358" lon="9.47827499548">
		<tag k="landuse" v="meadow" />
		<tag k="name" v="Reiulsbråtan" />
		<tag k="ssr:stedsnr" v="334618" />
	</node>
	<node id="-250098" lat="60.2220750014" lon="9.26959444228">
		<tag k="historic" v="shieling" />
		<tag k="name" v="Flatinseter" />
		<tag k="place" v="locality" />
		<tag k="ssr:stedsnr" v="272438" />
	</node>
	<node id="-251001" lat="59.9932805583" lon="9.82879721393">
		<tag k="name" v="Ingebermyr" />
		<tag k="natural" v="wetland" />
		<tag k="ssr:stedsnr" v="517833" />
	</node>
	<node id="-250580" lat="60.2479777807" lon="9.2225083359">
		<tag k="name" v="Ørnehøl" />
		<tag k="natural" v="wetland" />
		<tag k="ssr:stedsnr" v="333221" />
	</node>
	<node id="-250579" lat="60.1753666626" lon="9.23326111275">
		<tag k="historic" v="shieling" />
		<tag k="name" v="Steinseter" />
		<tag k="place" v="locality" />
		<tag k="ssr:stedsnr" v="333219" />
	</node>
	<node id="-250562" lat="60.0666027802" lon="9.45947500661">
		<tag k="landuse" v="meadow" />
		<tag k="name" v="Bjønnemyrbråtan" />
		<tag k="ssr:stedsnr" v="275984" />
	</node>
	<node id="-250558" lat="60.0057999987" lon="9.71355834178">
		<tag k="landuse" v="meadow" />
		<tag k="name" v="Barbrubråtan" />
		<tag k="ssr:stedsnr" v="275753" />
	</node>
	<node id="-252604" lat="59.9905722262" lon="9.69443611491">
		<tag k="name" v="Velstadseterskogen" />
		<tag k="place" v="locality" />
		<tag k="ssr:stedsnr" v="154988" />
	</node>
	<node id="-250554" lat="60.0388527787" lon="9.62284721523">
		<tag k="name" v="Hefta" />
		<tag k="place" v="locality" />
		<tag k="ssr:stedsnr" v="275610" />
	</node>
	<node id="-252600" lat="60.0769944471" lon="9.61225278002">
		<tag k="landuse" v="meadow" />
		<tag k="name" v="Skotjennbråtan" />
		<tag k="ssr:stedsnr" v="154471" />
	</node>
	<node id="-252599" lat="60.0749972215" lon="9.57675277843">
		<tag k="name" v="Nedre Snarmyra" />
		<tag k="natural" v="wetland" />
		<tag k="ssr:stedsnr" v="154460" />
	</node>
	<node id="-250550" lat="60.0912916667" lon="9.4993999959">
		<tag k="name" v="Kloppmyra" />
		<tag k="natural" v="wetland" />
		<tag k="ssr:stedsnr" v="275563" />
	</node>
	<node id="-250549" lat="59.9252055589" lon="9.69123888381">
		<tag k="landuse" v="meadow" />
		<tag k="name" v="Milebråtan" />
		<tag k="ssr:stedsnr" v="275507" />
	</node>
	<node id="-250547" lat="60.0717055592" lon="9.59382221868">
		<tag k="name" v="Fugleleikmyra" />
		<tag k="natural" v="wetland" />
		<tag k="ssr:stedsnr" v="275368" />
	</node>
	<node id="-250546" lat="60.0830388887" lon="9.57564722057">
		<tag k="name" v="Huskemyr" />
		<tag k="natural" v="wetland" />
		<tag k="ssr:stedsnr" v="275363" />
	</node>
	<node id="-250545" lat="60.0859138845" lon="9.63446945138">
		<tag k="name" v="Kaggestein" />
		<tag k="natural" v="stone" />
		<tag k="ssr:stedsnr" v="275361" />
	</node>
	<node id="-252591" lat="59.9928055553" lon="9.52529167294">
		<tag k="landuse" v="meadow" />
		<tag k="name" v="Kittilsbråta" />
		<tag k="ssr:stedsnr" v="154081" />
	</node>
	<node id="-252589" lat="60.0210777762" lon="9.55147778627">
		<tag k="name" v="Kloppmyr" />
		<tag k="natural" v="wetland" />
		<tag k="ssr:stedsnr" v="154035" />
	</node>
	<node id="-252588" lat="60.0249000004" lon="9.71563055423">
		<tag k="name" v="Snakarud" />
		<tag k="place" v="locality" />
		<tag k="ssr:stedsnr" v="153994" />
	</node>
	<node id="-253042" lat="60.2472249958" lon="9.39723054901">
		<tag k="name" v="Bleikemyr" />
		<tag k="natural" v="wetland" />
		<tag k="ssr:stedsnr" v="394131" />
	</node>
	<node id="-251051" lat="60.1178666683" lon="9.43941111882">
		<tag k="name" v="Hallingmyra" />
		<tag k="natural" v="wetland" />
		<tag k="ssr:stedsnr" v="698297" />
	</node>
	<node id="-252585" lat="60.0221777745" lon="9.76015277358">
		<tag k="landuse" v="quarry" />
		<tag k="name" v="Steinbrøttet" />
		<tag k="ssr:stedsnr" v="153980" />
	</node>
	<node id="-252583" lat="60.0545944445" lon="9.71605277975">
		<tag k="name" v="Husmyrane" />
		<tag k="natural" v="wetland" />
		<tag k="ssr:stedsnr" v="153969" />
	</node>
	<node id="-250530" lat="59.9912416696" lon="9.66999444905">
		<tag k="name" v="Jønnemyr" />
		<tag k="natural" v="wetland" />
		<tag k="ssr:stedsnr" v="275128" />
	</node>
	<node id="-252577" lat="60.0244166712" lon="9.76941666519">
		<tag k="landuse" v="meadow" />
		<tag k="name" v="Rugbråtan" />
		<tag k="ssr:stedsnr" v="153802" />
	</node>
	<node id="-252576" lat="60.0061666624" lon="9.69133610606">
		<tag k="name" v="Skamyr" />
		<tag k="natural" v="wetland" />
		<tag k="ssr:stedsnr" v="153799" />
	</node>
	<node id="-250526" lat="60.0017305546" lon="9.48569722206">
		<tag k="name" v="Hagamyra" />
		<tag k="natural" v="wetland" />
		<tag k="ssr:stedsnr" v="275110" />
	</node>
	<node id="-252573" lat="60.0634638902" lon="9.57912777677">
		<tag k="name" v="Orreleiken" />
		<tag k="natural" v="wetland" />
		<tag k="ssr:stedsnr" v="153773" />
	</node>
	<node id="-252571" lat="60.0287111149" lon="9.57643610476">
		<tag k="name" v="Tømmermyr" />
		<tag k="natural" v="wetland" />
		<tag k="ssr:stedsnr" v="153747" />
	</node>
	<node id="-250521" lat="59.9963694429" lon="9.51456945225">
		<tag k="name" v="Fugleleikmyr" />
		<tag k="natural" v="wetland" />
		<tag k="ssr:stedsnr" v="275060" />
	</node>
	<node id="-252567" lat="60.0253249994" lon="9.6423805476">
		<tag k="name" v="Storemyr" />
		<tag k="natural" v="wetland" />
		<tag k="ssr:stedsnr" v="153664" />
	</node>
	<node id="-252566" lat="60.0211777793" lon="9.67015277266">
		<tag k="name" v="Leikarmyra" />
		<tag k="natural" v="wetland" />
		<tag k="ssr:stedsnr" v="153663" />
	</node>
	<node id="-252561" lat="59.9565472245" lon="9.73623055026">
		<tag k="name" v="Kistemyr" />
		<tag k="natural" v="wetland" />
		<tag k="ssr:stedsnr" v="153625" />
	</node>
	<node id="-252558" lat="59.9846138924" lon="9.72391111745">
		<tag k="landuse" v="meadow" />
		<tag k="name" v="Jørnsbråtan" />
		<tag k="ssr:stedsnr" v="153580" />
	</node>
	<node id="-250509" lat="60.3300083299" lon="9.20535554937">
		<tag k="name" v="Søre Medalen skog" />
		<tag k="place" v="locality" />
		<tag k="ssr:stedsnr" v="273903" />
	</node>
	<node id="-250508" lat="60.2194805574" lon="9.33880555799">
		<tag k="name" v="Hagamyran" />
		<tag k="natural" v="wetland" />
		<tag k="ssr:stedsnr" v="273856" />
	</node>
	<node id="-250507" lat="60.1855055531" lon="9.40656665912">
		<tag k="name" v="Storstørringa" />
		<tag k="natural" v="wetland" />
		<tag k="ssr:stedsnr" v="273754" />
	</node>
	<node id="-252552" lat="60.0597638883" lon="9.65520833732">
		<tag k="historic" v="shieling" />
		<tag k="name" v="Småvollane" />
		<tag k="place" v="locality" />
		<tag k="ssr:stedsnr" v="153525" />
	</node>
	<node id="-252551" lat="60.0629805525" lon="9.67902222712">
		<tag k="name" v="Åsskogen" />
		<tag k="place" v="locality" />
		<tag k="ssr:stedsnr" v="153522" />
	</node>
	<node id="-252550" lat="59.9528083313" lon="9.66603888512">
		<tag k="name" v="Flåmyrane" />
		<tag k="natural" v="wetland" />
		<tag k="ssr:stedsnr" v="153491" />
	</node>
	<node id="-252549" lat="59.9665916656" lon="9.65439167222">
		<tag k="name" v="Bukkehønnmyra" />
		<tag k="natural" v="wetland" />
		<tag k="ssr:stedsnr" v="153476" />
	</node>
	<node id="-253035" lat="60.2716250006" lon="9.20878055821">
		<tag k="name" v="Hukestein" />
		<tag k="natural" v="stone" />
		<tag k="ssr:stedsnr" v="393783" />
	</node>
	<node id="-250496" lat="59.9601666645" lon="9.66129445125">
		<tag k="name" v="Hagan" />
		<tag k="place" v="locality" />
		<tag k="ssr:stedsnr" v="273465" />
	</node>
	<node id="-251328" lat="60.2711999975" lon="9.35857499341">
		<tag k="name" v="Solbergmarka" />
		<tag k="place" v="locality" />
		<tag k="ssr:stedsnr" v="880424" />
	</node>
	<node id="-252542" lat="60.0479916635" lon="9.55388888576">
		<tag k="name" v="Underlanda" />
		<tag k="place" v="locality" />
		<tag k="ssr:stedsnr" v="153366" />
	</node>
	<node id="-250491" lat="60.2416027776" lon="9.39648055961">
		<tag k="name" v="Nedstemyr" />
		<tag k="natural" v="wetland" />
		<tag k="ssr:stedsnr" v="273156" />
	</node>
	<node id="-252537" lat="60.0043833296" lon="9.62929722139">
		<tag k="historic" v="shieling" />
		<tag k="name" v="Ravnåsseter" />
		<tag k="place" v="locality" />
		<tag k="ssr:stedsnr" v="153236" />
	</node>
	<node id="-250487" lat="60.2606416671" lon="9.29167499841">
		<tag k="historic" v="shieling" />
		<tag k="name" v="Rustebråtan" />
		<tag k="place" v="locality" />
		<tag k="ssr:stedsnr" v="272854" />
	</node>
	<node id="-250477" lat="60.2380916697" lon="9.28410555661">
		<tag k="historic" v="shieling" />
		<tag k="name" v="Bråtan" />
		<tag k="place" v="locality" />
		<tag k="ssr:stedsnr" v="272054" />
	</node>
	<node id="-252521" lat="60.0783555512" lon="9.68933333722">
		<tag k="name" v="Hattestein" />
		<tag k="natural" v="stone" />
		<tag k="ssr:stedsnr" v="153033" />
	</node>
	<node id="-252518" lat="60.2219305576" lon="9.43778888832">
		<tag k="name" v="Snøplogmyra" />
		<tag k="natural" v="wetland" />
		<tag k="ssr:stedsnr" v="152999" />
	</node>
	<node id="-252512" lat="60.1150277811" lon="9.51485832601">
		<tag k="name" v="Smalmyr" />
		<tag k="natural" v="wetland" />
		<tag k="ssr:stedsnr" v="152514" />
	</node>
	<node id="-252511" lat="60.12674444" lon="9.53244165843">
		<tag k="historic" v="shieling" />
		<tag k="name" v="Hovsetra" />
		<tag k="place" v="locality" />
		<tag k="ssr:stedsnr" v="152513" />
	</node>
	<node id="-252510" lat="60.1090444485" lon="9.51566111644">
		<tag k="name" v="Storemyr" />
		<tag k="natural" v="wetland" />
		<tag k="ssr:stedsnr" v="152498" />
	</node>
	<node id="-250461" lat="60.0892805589" lon="9.62997499247">
		<tag k="name" v="Hattefurumyra" />
		<tag k="natural" v="wetland" />
		<tag k="ssr:stedsnr" v="457861" />
	</node>
	<node id="-250460" lat="59.9804694478" lon="9.80603611352">
		<tag k="name" v="Gråbeinmyr" />
		<tag k="natural" v="wetland" />
		<tag k="ssr:stedsnr" v="457798" />
	</node>
	<node id="-252507" lat="60.1430111135" lon="9.46685278382">
		<tag k="landuse" v="quarry" />
		<tag k="name" v="Fossgruva" />
		<tag k="ssr:stedsnr" v="152378" />
	</node>
	<node id="-252495" lat="60.2301333345" lon="9.32234722741">
		<tag k="name" v="Midtstykket" />
		<tag k="place" v="locality" />
		<tag k="ssr:stedsnr" v="151925" />
	</node>
	<node id="-252494" lat="60.2247472195" lon="9.32246666449">
		<tag k="name" v="Siglemyr" />
		<tag k="natural" v="wetland" />
		<tag k="ssr:stedsnr" v="151922" />
	</node>
	<node id="-252490" lat="60.2093166632" lon="9.33274166033">
		<tag k="name" v="Rønningsetermarka" />
		<tag k="place" v="locality" />
		<tag k="ssr:stedsnr" v="151892" />
	</node>
	<node id="-252489" lat="60.2473888852" lon="9.27762222582">
		<tag k="landuse" v="meadow" />
		<tag k="name" v="Gamlemannsbråtan" />
		<tag k="ssr:stedsnr" v="151883" />
	</node>
	<node id="-250440" lat="59.9495694465" lon="9.74085556413">
		<tag k="name" v="Rundemyr" />
		<tag k="natural" v="wetland" />
		<tag k="ssr:stedsnr" v="457590" />
	</node>
	<node id="-252485" lat="60.2270279754" lon="9.41893465565">
		<tag k="landuse" v="meadow" />
		<tag k="name" v="Siktesetbråtan" />
		<tag k="ssr:stedsnr" v="151858" />
	</node>
	<node id="-252482" lat="60.1775444433" lon="9.37334444518">
		<tag k="name" v="Stormyrstykket" />
		<tag k="natural" v="wetland" />
		<tag k="ssr:stedsnr" v="151749" />
	</node>
	<node id="-250433" lat="59.9443666647" lon="9.71254444189">
		<tag k="name" v="Bråtajordet" />
		<tag k="place" v="locality" />
		<tag k="ssr:stedsnr" v="457544" />
	</node>
	<node id="-250431" lat="59.9131333343" lon="9.69833333528">
		<tag k="name" v="Sørmarka" />
		<tag k="place" v="locality" />
		<tag k="ssr:stedsnr" v="457534" />
	</node>
	<node id="-252477" lat="60.1929583349" lon="9.46310000316">
		<tag k="historic" v="shieling" />
		<tag k="name" v="Tovsrudseter" />
		<tag k="place" v="locality" />
		<tag k="ssr:stedsnr" v="151667" />
	</node>
	<node id="-250427" lat="60.1033555545" lon="9.5476499937">
		<tag k="name" v="Bikkjemyr" />
		<tag k="natural" v="wetland" />
		<tag k="ssr:stedsnr" v="457440" />
	</node>
	<node id="-252474" lat="60.268255552" lon="9.3912638877">
		<tag k="name" v="Bjørntjennmyr" />
		<tag k="natural" v="wetland" />
		<tag k="ssr:stedsnr" v="151410" />
	</node>
	<node id="-252473" lat="60.2678055533" lon="9.37106666682">
		<tag k="historic" v="shieling" />
		<tag k="name" v="Kvilarvollen" />
		<tag k="place" v="locality" />
		<tag k="ssr:stedsnr" v="151402" />
	</node>
	<node id="-252472" lat="60.27529167" lon="9.37951666533">
		<tag k="name" v="Seterskogsameige" />
		<tag k="place" v="locality" />
		<tag k="ssr:stedsnr" v="151401" />
	</node>
	<node id="-252471" lat="60.0417555511" lon="9.41648056241">
		<tag k="landuse" v="meadow" />
		<tag k="name" v="Fjellbråtan" />
		<tag k="ssr:stedsnr" v="151331" />
	</node>
	<node id="-250420" lat="60.1035027774" lon="9.56105555757">
		<tag k="name" v="Dipilmyr" />
		<tag k="natural" v="wetland" />
		<tag k="ssr:stedsnr" v="457413" />
	</node>
	<node id="-250419" lat="59.9617999964" lon="9.72212777843">
		<tag k="landuse" v="meadow" />
		<tag k="name" v="Siljukleivbråtan" />
		<tag k="ssr:stedsnr" v="457408" />
	</node>
	<node id="-250416" lat="60.0724305519" lon="9.60107222463">
		<tag k="name" v="Kalvemyr" />
		<tag k="natural" v="wetland" />
		<tag k="ssr:stedsnr" v="457371" />
	</node>
	<node id="-250415" lat="60.0654666676" lon="9.6000333289">
		<tag k="name" v="Korsmyr" />
		<tag k="natural" v="wetland" />
		<tag k="ssr:stedsnr" v="457370" />
	</node>
	<node id="-250413" lat="60.0798861093" lon="9.63705832643">
		<tag k="landuse" v="quarry" />
		<tag k="name" v="Gruvene" />
		<tag k="ssr:stedsnr" v="457359" />
	</node>
	<node id="-251456" lat="60.0184305536" lon="9.76583889267">
		<tag k="name" v="Skrikemyr" />
		<tag k="natural" v="wetland" />
		<tag k="ssr:stedsnr" v="882970" />
	</node>
	<node id="-251314" lat="60.1498999965" lon="9.40958888404">
		<tag k="name" v="Hesteskotjennmyra" />
		<tag k="natural" v="wetland" />
		<tag k="ssr:stedsnr" v="880065" />
	</node>
	<node id="-250410" lat="60.1077888861" lon="9.56156944309">
		<tag k="name" v="Øvre Stykket" />
		<tag k="place" v="locality" />
		<tag k="ssr:stedsnr" v="457323" />
	</node>
	<node id="-250409" lat="60.0955694416" lon="9.43810833227">
		<tag k="landuse" v="meadow" />
		<tag k="name" v="Langebråtan" />
		<tag k="ssr:stedsnr" v="457312" />
	</node>
	<node id="-252456" lat="60.1675916636" lon="9.26163334172">
		<tag k="historic" v="shieling" />
		<tag k="name" v="Tangevollane" />
		<tag k="place" v="locality" />
		<tag k="ssr:stedsnr" v="150643" />
	</node>
	<node id="-252453" lat="60.188900001" lon="9.25334722923">
		<tag k="name" v="Langsetermarka" />
		<tag k="place" v="locality" />
		<tag k="ssr:stedsnr" v="150629" />
	</node>
	<node id="-252451" lat="60.1515194457" lon="9.21905834007">
		<tag k="name" v="Trytestein" />
		<tag k="natural" v="stone" />
		<tag k="ssr:stedsnr" v="150341" />
	</node>
	<node id="-252448" lat="60.2383555549" lon="9.29279444544">
		<tag k="historic" v="shieling" />
		<tag k="name" v="Øyamyra" />
		<tag k="place" v="locality" />
		<tag k="ssr:stedsnr" v="150031" />
	</node>
	<node id="-250399" lat="60.0206944413" lon="9.6748138838">
		<tag k="name" v="Dælamyra" />
		<tag k="natural" v="wetland" />
		<tag k="ssr:stedsnr" v="457117" />
	</node>
	<node id="-250396" lat="59.9980888877" lon="9.5823000015">
		<tag k="name" v="Setermarka" />
		<tag k="place" v="locality" />
		<tag k="ssr:stedsnr" v="457100" />
	</node>
	<node id="-250395" lat="59.9799083343" lon="9.60603055638">
		<tag k="name" v="Vasslimarka" />
		<tag k="place" v="locality" />
		<tag k="ssr:stedsnr" v="457093" />
	</node>
	<node id="-250394" lat="59.9840638912" lon="9.5724972264">
		<tag k="name" v="Gvilemyr" />
		<tag k="natural" v="wetland" />
		<tag k="ssr:stedsnr" v="457079" />
	</node>
	<node id="-250390" lat="59.9920333324" lon="9.53990278355">
		<tag k="name" v="Vinterveimyra" />
		<tag k="natural" v="wetland" />
		<tag k="ssr:stedsnr" v="457055" />
	</node>
	<node id="-250387" lat="60.0685833361" lon="9.70224722927">
		<tag k="name" v="Kastmyra" />
		<tag k="natural" v="wetland" />
		<tag k="ssr:stedsnr" v="457039" />
	</node>
	<node id="-252434" lat="60.3126916693" lon="9.25500555484">
		<tag k="name" v="Teigesetermyran" />
		<tag k="natural" v="wetland" />
		<tag k="ssr:stedsnr" v="127036" />
	</node>
	<node id="-250385" lat="59.9791027741" lon="9.54948611388">
		<tag k="landuse" v="meadow" />
		<tag k="name" v="Pyntemyrbråtan" />
		<tag k="ssr:stedsnr" v="457010" />
	</node>
	<node id="-250376" lat="59.9615749958" lon="9.65029444954">
		<tag k="name" v="Bleikemyr" />
		<tag k="natural" v="wetland" />
		<tag k="ssr:stedsnr" v="456462" />
	</node>
	<node id="-250373" lat="60.2012944446" lon="9.39261111108">
		<tag k="name" v="Heimjordet" />
		<tag k="place" v="locality" />
		<tag k="ssr:stedsnr" v="455995" />
	</node>
	<node id="-251307" lat="60.2705583307" lon="9.24688055813">
		<tag k="historic" v="shieling" />
		<tag k="name" v="Styggedalsetra" />
		<tag k="place" v="locality" />
		<tag k="ssr:stedsnr" v="879816" />
	</node>
	<node id="-250365" lat="60.197578608" lon="9.35702595908">
		<tag k="name" v="Åsanmmyra" />
		<tag k="natural" v="wetland" />
		<tag k="ssr:stedsnr" v="455899" />
	</node>
	<node id="-250357" lat="60.186163889" lon="9.31304165855">
		<tag k="historic" v="shieling" />
		<tag k="name" v="Finnevollane" />
		<tag k="place" v="locality" />
		<tag k="ssr:stedsnr" v="455741" />
	</node>
	<node id="-250355" lat="60.1781222251" lon="9.33842222248">
		<tag k="name" v="Stillingsstein" />
		<tag k="natural" v="stone" />
		<tag k="ssr:stedsnr" v="455731" />
	</node>
	<node id="-250351" lat="60.2703277772" lon="9.32390833229">
		<tag k="historic" v="shieling" />
		<tag k="name" v="Romelivollen" />
		<tag k="place" v="locality" />
		<tag k="ssr:stedsnr" v="455669" />
	</node>
	<node id="-250347" lat="60.122752778" lon="9.51519444777">
		<tag k="landuse" v="meadow" />
		<tag k="name" v="Hallanbråtan" />
		<tag k="ssr:stedsnr" v="455471" />
	</node>
	<node id="-250346" lat="60.1116194402" lon="9.49337778245">
		<tag k="name" v="Lessarmyr" />
		<tag k="natural" v="wetland" />
		<tag k="ssr:stedsnr" v="455463" />
	</node>
	<node id="-250344" lat="60.1195638932" lon="9.44381665862">
		<tag k="name" v="Postmyra" />
		<tag k="natural" v="wetland" />
		<tag k="ssr:stedsnr" v="455409" />
	</node>
	<node id="-250343" lat="60.2673361074" lon="9.3529499934">
		<tag k="historic" v="shieling" />
		<tag k="name" v="Kolhyttvollen" />
		<tag k="place" v="locality" />
		<tag k="ssr:stedsnr" v="455400" />
	</node>
	<node id="-250340" lat="60.0396166703" lon="9.41094166928">
		<tag k="landuse" v="meadow" />
		<tag k="name" v="Vestre Fjellbråtan" />
		<tag k="ssr:stedsnr" v="455296" />
	</node>
	<node id="-250333" lat="60.2418555528" lon="9.33006389748">
		<tag k="name" v="Heimskogen" />
		<tag k="place" v="locality" />
		<tag k="ssr:stedsnr" v="455101" />
	</node>
	<node id="-252380" lat="59.9941583293" lon="9.47279445294">
		<tag k="name" v="Svellmyran" />
		<tag k="natural" v="wetland" />
		<tag k="ssr:stedsnr" v="125278" />
	</node>
	<node id="-252368" lat="60.0282722263" lon="9.70818889021">
		<tag k="name" v="Dusterud" />
		<tag k="place" v="locality" />
		<tag k="ssr:stedsnr" v="93987" />
	</node>
	<node id="-252367" lat="60.0075472201" lon="9.77382777318">
		<tag k="name" v="Smalemyr" />
		<tag k="natural" v="wetland" />
		<tag k="ssr:stedsnr" v="93984" />
	</node>
	<node id="-250314" lat="60.2582555595" lon="9.21682777691">
		<tag k="name" v="Sauemyr" />
		<tag k="natural" v="wetland" />
		<tag k="ssr:stedsnr" v="454166" />
	</node>
	<node id="-252360" lat="60.0556777738" lon="9.43719999434">
		<tag k="name" v="Langemyr" />
		<tag k="natural" v="wetland" />
		<tag k="ssr:stedsnr" v="93910" />
	</node>
	<node id="-252352" lat="60.092702781" lon="9.63462499557">
		<tag k="name" v="Langemyr" />
		<tag k="natural" v="wetland" />
		<tag k="ssr:stedsnr" v="93829" />
	</node>
	<node id="-252351" lat="60.0638611136" lon="9.62176389306">
		<tag k="landuse" v="meadow" />
		<tag k="name" v="Embretsbråta" />
		<tag k="ssr:stedsnr" v="93714" />
	</node>
	<node id="-252349" lat="59.9926250022" lon="9.55202500732">
		<tag k="name" v="Hagajordmarka" />
		<tag k="place" v="locality" />
		<tag k="ssr:stedsnr" v="93679" />
	</node>
	<node id="-252348" lat="59.9951722255" lon="9.55473055849">
		<tag k="name" v="Kanelesmarka" />
		<tag k="place" v="locality" />
		<tag k="ssr:stedsnr" v="93677" />
	</node>
	<node id="-252345" lat="59.9495333292" lon="9.80828611289">
		<tag k="name" v="Engmomyra" />
		<tag k="place" v="locality" />
		<tag k="ssr:stedsnr" v="93607" />
	</node>
	<node id="-250296" lat="60.0908027808" lon="9.45513610521">
		<tag k="name" v="Skjærsmyra" />
		<tag k="natural" v="wetland" />
		<tag k="ssr:stedsnr" v="447871" />
	</node>
	<node id="-250294" lat="60.0957166678" lon="9.5884555563">
		<tag k="name" v="Vardesmyrane" />
		<tag k="natural" v="wetland" />
		<tag k="ssr:stedsnr" v="215904" />
	</node>
	<node id="-250289" lat="60.0897999989" lon="9.69373889125">
		<tag k="historic" v="shieling" />
		<tag k="name" v="Setervollen" />
		<tag k="place" v="locality" />
		<tag k="ssr:stedsnr" v="214918" />
	</node>
	<node id="-250287" lat="60.0877111073" lon="9.47861388111">
		<tag k="name" v="Torvstrømyra" />
		<tag k="natural" v="wetland" />
		<tag k="ssr:stedsnr" v="214602" />
	</node>
	<node id="-252334" lat="59.9485499986" lon="9.7103416609">
		<tag k="historic" v="shieling" />
		<tag k="name" v="Vollane" />
		<tag k="place" v="locality" />
		<tag k="ssr:stedsnr" v="93503" />
	</node>
	<node id="-250285" lat="59.9278166708" lon="9.70841388026">
		<tag k="name" v="Nord-Flaget" />
		<tag k="place" v="locality" />
		<tag k="ssr:stedsnr" v="214528" />
	</node>
	<node id="-250284" lat="59.9098722248" lon="9.71305555747">
		<tag k="name" v="Tømmermyra" />
		<tag k="natural" v="wetland" />
		<tag k="ssr:stedsnr" v="214526" />
	</node>
	<node id="-250283" lat="59.9165305514" lon="9.71633889535">
		<tag k="name" v="Postmyra" />
		<tag k="natural" v="wetland" />
		<tag k="ssr:stedsnr" v="214525" />
	</node>
	<node id="-252328" lat="59.967155552" lon="9.68228888183">
		<tag k="name" v="Nordmarka" />
		<tag k="place" v="locality" />
		<tag k="ssr:stedsnr" v="93410" />
	</node>
	<node id="-252324" lat="59.9594000001" lon="9.75551388825">
		<tag k="name" v="Tonet" />
		<tag k="place" v="locality" />
		<tag k="ssr:stedsnr" v="93386" />
	</node>
	<node id="-250269" lat="60.1255722193" lon="9.54868332623">
		<tag k="name" v="Bjønnemyr" />
		<tag k="natural" v="wetland" />
		<tag k="ssr:stedsnr" v="214442" />
	</node>
	<node id="-252316" lat="60.065438892" lon="9.63993888568">
		<tag k="landuse" v="meadow" />
		<tag k="name" v="Tomasbråta" />
		<tag k="ssr:stedsnr" v="93348" />
	</node>
	<node id="-252315" lat="60.0718222234" lon="9.57293056027">
		<tag k="name" v="Dammyrane" />
		<tag k="natural" v="wetland" />
		<tag k="ssr:stedsnr" v="93327" />
	</node>
	<node id="-250266" lat="59.954491666" lon="9.61204166765">
		<tag k="name" v="Slåttemyr" />
		<tag k="natural" v="wetland" />
		<tag k="ssr:stedsnr" v="214434" />
	</node>
	<node id="-250265" lat="60.0548833367" lon="9.54121111431">
		<tag k="landuse" v="meadow" />
		<tag k="name" v="Bråtan" />
		<tag k="ssr:stedsnr" v="214430" />
	</node>
	<node id="-252311" lat="60.1109361107" lon="9.56298889178">
		<tag k="name" v="Berganseterstykket" />
		<tag k="place" v="locality" />
		<tag k="ssr:stedsnr" v="93298" />
	</node>
	<node id="-252310" lat="60.070872223" lon="9.55676110812">
		<tag k="name" v="Bergetangmyra" />
		<tag k="natural" v="wetland" />
		<tag k="ssr:stedsnr" v="93296" />
	</node>
	<node id="-252309" lat="60.0751944477" lon="9.56640000532">
		<tag k="name" v="Venemyr" />
		<tag k="natural" v="wetland" />
		<tag k="ssr:stedsnr" v="93292" />
	</node>
	<node id="-252306" lat="60.0091222212" lon="9.61734444933">
		<tag k="name" v="Løkstykket" />
		<tag k="place" v="locality" />
		<tag k="ssr:stedsnr" v="93194" />
	</node>
	<node id="-252304" lat="60.0340472241" lon="9.52593611171">
		<tag k="name" v="Puttmyrane" />
		<tag k="natural" v="wetland" />
		<tag k="ssr:stedsnr" v="93183" />
	</node>
	<node id="-250252" lat="60.1429888923" lon="9.4883638941">
		<tag k="historic" v="shieling" />
		<tag k="name" v="Nord-Hagaseter" />
		<tag k="place" v="locality" />
		<tag k="ssr:stedsnr" v="213436" />
	</node>
	<node id="-252299" lat="59.9954361142" lon="9.67281667131">
		<tag k="name" v="Diplemyr" />
		<tag k="natural" v="wetland" />
		<tag k="ssr:stedsnr" v="93130" />
	</node>
	<node id="-252298" lat="59.9995472204" lon="9.68299167527">
		<tag k="name" v="Langemyr" />
		<tag k="natural" v="wetland" />
		<tag k="ssr:stedsnr" v="93128" />
	</node>
	<node id="-252297" lat="60.0313694405" lon="9.4428888898">
		<tag k="name" v="Strandemyran" />
		<tag k="natural" v="wetland" />
		<tag k="ssr:stedsnr" v="93125" />
	</node>
	<node id="-252295" lat="60.0046055558" lon="9.49826943763">
		<tag k="name" v="Tangane" />
		<tag k="natural" v="wetland" />
		<tag k="ssr:stedsnr" v="93104" />
	</node>
	<node id="-250245" lat="60.11165" lon="9.42523888995">
		<tag k="name" v="Bjønnsmyr" />
		<tag k="natural" v="wetland" />
		<tag k="ssr:stedsnr" v="213330" />
	</node>
	<node id="-250243" lat="60.2292555576" lon="9.31723332779">
		<tag k="landuse" v="meadow" />
		<tag k="name" v="Middagsbråtan" />
		<tag k="ssr:stedsnr" v="212939" />
	</node>
	<node id="-252285" lat="60.0858666638" lon="9.71941388824">
		<tag k="name" v="Kavlebrumyr" />
		<tag k="natural" v="wetland" />
		<tag k="ssr:stedsnr" v="93044" />
	</node>
	<node id="-252284" lat="60.0357305566" lon="9.53779999289">
		<tag k="name" v="Trugemyr" />
		<tag k="natural" v="wetland" />
		<tag k="ssr:stedsnr" v="93037" />
	</node>
	<node id="-252281" lat="60.14940556" lon="9.50660000455">
		<tag k="name" v="Stykketmyran" />
		<tag k="natural" v="wetland" />
		<tag k="ssr:stedsnr" v="92404" />
	</node>
	<node id="-250232" lat="60.2485722224" lon="9.30658333388">
		<tag k="name" v="Flatinjordet" />
		<tag k="place" v="locality" />
		<tag k="ssr:stedsnr" v="211910" />
	</node>
	<node id="-252273" lat="60.2074999956" lon="9.36791110475">
		<tag k="name" v="Kølamyra" />
		<tag k="natural" v="wetland" />
		<tag k="ssr:stedsnr" v="91899" />
	</node>
	<node id="-252268" lat="60.2275083301" lon="9.35551388345">
		<tag k="name" v="Åsanrønningen" />
		<tag k="place" v="locality" />
		<tag k="ssr:stedsnr" v="91841" />
	</node>
	<node id="-250258" lat="60.0821027777" lon="9.71298610559">
		<tag k="name" v="Lauvlimyr" />
		<tag k="natural" v="wetland" />
		<tag k="ssr:stedsnr" v="214047" />
	</node>
	<node id="-252266" lat="60.1827888907" lon="9.38123332449">
		<tag k="landuse" v="meadow" />
		<tag k="name" v="Gudbrandbråtan" />
		<tag k="ssr:stedsnr" v="91746" />
	</node>
	<node id="-250217" lat="60.0819000018" lon="9.69258333138">
		<tag k="name" v="Lauvskogbrenna" />
		<tag k="place" v="locality" />
		<tag k="ssr:stedsnr" v="275918" />
	</node>
	<node id="-252260" lat="60.1262583353" lon="9.44268056019">
		<tag k="name" v="Tveitmyrane" />
		<tag k="place" v="locality" />
		<tag k="ssr:stedsnr" v="91465" />
	</node>
	<node id="-252259" lat="60.0977944438" lon="9.50826667532">
		<tag k="name" v="Løkenmyra" />
		<tag k="natural" v="wetland" />
		<tag k="ssr:stedsnr" v="91462" />
	</node>
	<node id="-250210" lat="60.0132305586" lon="9.70972777092">
		<tag k="name" v="Lykka" />
		<tag k="place" v="locality" />
		<tag k="ssr:stedsnr" v="275749" />
	</node>
	<node id="-252257" lat="60.0936777765" lon="9.52275833328">
		<tag k="name" v="Grindemyr" />
		<tag k="natural" v="wetland" />
		<tag k="ssr:stedsnr" v="91459" />
	</node>
	<node id="-250204" lat="60.0273111117" lon="9.61541110256">
		<tag k="historic" v="shieling" />
		<tag k="name" v="Jakobssetra" />
		<tag k="place" v="locality" />
		<tag k="ssr:stedsnr" v="275700" />
	</node>
	<node id="-252251" lat="60.0593611116" lon="9.40434999355">
		<tag k="name" v="Knoterastein" />
		<tag k="natural" v="stone" />
		<tag k="ssr:stedsnr" v="91364" />
	</node>
	<node id="-252250" lat="60.1198694475" lon="9.43470555048">
		<tag k="name" v="Rudningan" />
		<tag k="place" v="locality" />
		<tag k="ssr:stedsnr" v="91359" />
	</node>
	<node id="-252247" lat="60.2452055533" lon="9.18870833253">
		<tag k="name" v="Kulpun" />
		<tag k="natural" v="wetland" />
		<tag k="ssr:stedsnr" v="91309" />
	</node>
	<node id="-250198" lat="59.9992111112" lon="9.80870834121">
		<tag k="name" v="Setermyra" />
		<tag k="natural" v="wetland" />
		<tag k="ssr:stedsnr" v="275639" />
	</node>
	<node id="-252244" lat="60.1122861087" lon="9.31744721574">
		<tag k="historic" v="shieling" />
		<tag k="name" v="Øvre Plassen" />
		<tag k="place" v="locality" />
		<tag k="ssr:stedsnr" v="91161" />
	</node>
	<node id="-252242" lat="60.1351722201" lon="9.34562499507">
		<tag k="historic" v="shieling" />
		<tag k="name" v="Åliseter" />
		<tag k="place" v="locality" />
		<tag k="ssr:stedsnr" v="91123" />
	</node>
	<node id="-252241" lat="60.2543805518" lon="9.34738333264">
		<tag k="name" v="Gamledagsroa" />
		<tag k="place" v="locality" />
		<tag k="ssr:stedsnr" v="91118" />
	</node>
	<node id="-250192" lat="60.1067555523" lon="9.48884444929">
		<tag k="name" v="Igletjennmyra" />
		<tag k="natural" v="wetland" />
		<tag k="ssr:stedsnr" v="275577" />
	</node>
	<node id="-252239" lat="60.1145083334" lon="9.41054443551">
		<tag k="landuse" v="meadow" />
		<tag k="name" v="Andersnattbråtan" />
		<tag k="ssr:stedsnr" v="91085" />
	</node>
	<node id="-252236" lat="60.31579167" lon="9.14908610715">
		<tag k="historic" v="shieling" />
		<tag k="name" v="Beinstigvollen" />
		<tag k="place" v="locality" />
		<tag k="ssr:stedsnr" v="91025" />
	</node>
	<node id="-250187" lat="60.0691500007" lon="9.67254166738">
		<tag k="name" v="Stormyr" />
		<tag k="natural" v="wetland" />
		<tag k="ssr:stedsnr" v="275395" />
	</node>
	<node id="-252232" lat="60.2394222242" lon="9.26455278452">
		<tag k="landuse" v="meadow" />
		<tag k="name" v="Liukøsa" />
		<tag k="ssr:stedsnr" v="90879" />
	</node>
	<node id="-252231" lat="60.2483694468" lon="9.27721666024">
		<tag k="landuse" v="meadow" />
		<tag k="name" v="Brattekøsa" />
		<tag k="ssr:stedsnr" v="90873" />
	</node>
	<node id="-252228" lat="60.2585527799" lon="9.23506110681">
		<tag k="historic" v="shieling" />
		<tag k="name" v="Nysetra" />
		<tag k="place" v="locality" />
		<tag k="ssr:stedsnr" v="90822" />
	</node>
	<node id="-250179" lat="60.0115555547" lon="9.57211666814">
		<tag k="name" v="Brennåsmyra" />
		<tag k="natural" v="wetland" />
		<tag k="ssr:stedsnr" v="275221" />
	</node>
	<node id="-252225" lat="60.2271888846" lon="9.28746943943">
		<tag k="name" v="Langemyr" />
		<tag k="natural" v="wetland" />
		<tag k="ssr:stedsnr" v="90444" />
	</node>
	<node id="-250176" lat="60.0127416709" lon="9.61960832953">
		<tag k="name" v="Heia" />
		<tag k="place" v="locality" />
		<tag k="ssr:stedsnr" v="275205" />
	</node>
	<node id="-252222" lat="60.1862555518" lon="9.19890000682">
		<tag k="historic" v="shieling" />
		<tag k="name" v="Øyasetra" />
		<tag k="place" v="locality" />
		<tag k="ssr:stedsnr" v="90155" />
	</node>
	<node id="-250170" lat="60.0774472251" lon="9.51021666972">
		<tag k="name" v="Lykka" />
		<tag k="place" v="locality" />
		<tag k="ssr:stedsnr" v="275530" />
	</node>
	<node id="-250166" lat="60.0432499981" lon="9.56570278518">
		<tag k="name" v="Nubberudlandet" />
		<tag k="place" v="locality" />
		<tag k="ssr:stedsnr" v="275343" />
	</node>
	<node id="-250164" lat="60.0736805551" lon="9.56280555041">
		<tag k="landuse" v="meadow" />
		<tag k="name" v="Tostenbråtan" />
		<tag k="ssr:stedsnr" v="275321" />
	</node>
	<node id="-250161" lat="60.0740805556" lon="9.72397499941">
		<tag k="landuse" v="meadow" />
		<tag k="name" v="Libråtan" />
		<tag k="ssr:stedsnr" v="275043" />
	</node>
	<node id="-250160" lat="60.065736115" lon="9.70314443618">
		<tag k="name" v="Uksemyr" />
		<tag k="natural" v="wetland" />
		<tag k="ssr:stedsnr" v="275036" />
	</node>
	<node id="-250220" lat="59.9734055523" lon="9.61846388027">
		<tag k="name" v="Hestemarka" />
		<tag k="place" v="locality" />
		<tag k="ssr:stedsnr" v="153302" />
	</node>
	<node id="-250157" lat="60.1582055572" lon="9.3808722295">
		<tag k="name" v="Nattemyra" />
		<tag k="natural" v="wetland" />
		<tag k="ssr:stedsnr" v="151640" />
	</node>
	<node id="-250153" lat="60.2868916655" lon="9.27066666268">
		<tag k="historic" v="shieling" />
		<tag k="name" v="Ligardsvollen" />
		<tag k="place" v="locality" />
		<tag k="ssr:stedsnr" v="151627" />
	</node>
	<node id="-250151" lat="60.1562638849" lon="9.46777221492">
		<tag k="landuse" v="meadow" />
		<tag k="name" v="Finnebråtan" />
		<tag k="ssr:stedsnr" v="151622" />
	</node>
	<node id="-250149" lat="59.992116666" lon="9.57780833881">
		<tag k="name" v="Stormyr" />
		<tag k="natural" v="wetland" />
		<tag k="ssr:stedsnr" v="275088" />
	</node>
	<node id="-250148" lat="60.0173916681" lon="9.47170833723">
		<tag k="name" v="Grytesetermyra" />
		<tag k="natural" v="wetland" />
		<tag k="ssr:stedsnr" v="275081" />
	</node>
	<node id="-250140" lat="60.2433999974" lon="9.31356944005">
		<tag k="name" v="Midtistykket" />
		<tag k="place" v="locality" />
		<tag k="ssr:stedsnr" v="151105" />
	</node>
	<node id="-250134" lat="60.2036888921" lon="9.48591110433">
		<tag k="historic" v="shieling" />
		<tag k="name" v="Lauvliseter" />
		<tag k="place" v="locality" />
		<tag k="ssr:stedsnr" v="274477" />
	</node>
	<node id="-252180" lat="60.1048222224" lon="9.47434444103">
		<tag k="name" v="Stormyr" />
		<tag k="natural" v="wetland" />
		<tag k="ssr:stedsnr" v="65386" />
	</node>
	<node id="-250131" lat="60.0745611133" lon="9.35725277774">
		<tag k="name" v="Gaulsmarka" />
		<tag k="place" v="locality" />
		<tag k="ssr:stedsnr" v="273935" />
	</node>
	<node id="-250129" lat="60.2350083314" lon="9.41136944559">
		<tag k="name" v="Ellevsrudmarka" />
		<tag k="place" v="locality" />
		<tag k="ssr:stedsnr" v="273878" />
	</node>
	<node id="-250128" lat="60.2275611073" lon="9.34452500127">
		<tag k="landuse" v="meadow" />
		<tag k="name" v="Svartebråta" />
		<tag k="ssr:stedsnr" v="273848" />
	</node>
	<node id="-250123" lat="60.271122219" lon="9.36670277898">
		<tag k="name" v="Rupemyr" />
		<tag k="natural" v="wetland" />
		<tag k="ssr:stedsnr" v="273429" />
	</node>
	<node id="-250115" lat="60.1371027752" lon="9.36274166207">
		<tag k="name" v="Nedalsmarka" />
		<tag k="place" v="locality" />
		<tag k="ssr:stedsnr" v="273130" />
	</node>
	<node id="-250114" lat="60.1395416658" lon="9.38507778202">
		<tag k="historic" v="shieling" />
		<tag k="loc_name" v="Helgeset" />
		<tag k="name" v="Helgesetseter" />
		<tag k="place" v="locality" />
		<tag k="ssr:stedsnr" v="273129" />
	</node>
	<node id="-252152" lat="60.0037277776" lon="9.72672221602">
		<tag k="name" v="Augunsrud" />
		<tag k="place" v="locality" />
		<tag k="ssr:stedsnr" v="32755" />
	</node>
	<node id="-252150" lat="60.0295111137" lon="9.77997778484">
		<tag k="historic" v="shieling" />
		<tag k="name" v="Gamleseter" />
		<tag k="place" v="locality" />
		<tag k="ssr:stedsnr" v="32752" />
	</node>
	<node id="-252148" lat="60.0496305592" lon="9.59669445033">
		<tag k="name" v="Hagan" />
		<tag k="place" v="locality" />
		<tag k="ssr:stedsnr" v="32749" />
	</node>
	<node id="-252146" lat="59.9875833331" lon="9.55634166116">
		<tag k="name" v="Mastemyr" />
		<tag k="natural" v="wetland" />
		<tag k="ssr:stedsnr" v="32715" />
	</node>
	<node id="-252144" lat="60.0315611149" lon="9.60742776992">
		<tag k="landuse" v="meadow" />
		<tag k="name" v="Sebjønnsbråtan" />
		<tag k="ssr:stedsnr" v="32696" />
	</node>
	<node id="-252140" lat="60.0048555591" lon="9.80837499141">
		<tag k="name" v="Kolsrudmarka" />
		<tag k="place" v="locality" />
		<tag k="ssr:stedsnr" v="32640" />
	</node>
	<node id="-252138" lat="60.0339277801" lon="9.64473889686">
		<tag k="name" v="Buskerud" />
		<tag k="place" v="locality" />
		<tag k="ssr:stedsnr" v="32623" />
	</node>
	<node id="-251377" lat="60.0420805517" lon="9.48357222275">
		<tag k="name" v="Rolimyr" />
		<tag k="natural" v="wetland" />
		<tag k="ssr:stedsnr" v="882155" />
	</node>
	<node id="-252131" lat="60.1073861125" lon="9.48084721884">
		<tag k="landuse" v="meadow" />
		<tag k="name" v="Helgebråta" />
		<tag k="ssr:stedsnr" v="32571" />
	</node>
	<node id="-250082" lat="60.1251722213" lon="9.52830277075">
		<tag k="name" v="Hovsetermyra" />
		<tag k="natural" v="wetland" />
		<tag k="ssr:stedsnr" v="91512" />
	</node>
	<node id="-252129" lat="60.095586112" lon="9.49233888321">
		<tag k="name" v="Nordplassmyra" />
		<tag k="natural" v="wetland" />
		<tag k="ssr:stedsnr" v="32562" />
	</node>
	<node id="-250077" lat="59.9834388858" lon="9.69598333697">
		<tag k="name" v="Svadalsmyra" />
		<tag k="natural" v="wetland" />
		<tag k="ssr:stedsnr" v="83164" />
	</node>
	<node id="-252124" lat="59.9832361101" lon="9.55405832554">
		<tag k="name" v="Vindfallet" />
		<tag k="place" v="locality" />
		<tag k="ssr:stedsnr" v="32518" />
	</node>
	<node id="-250233" lat="60.3165194406" lon="9.26972777712">
		<tag k="name" v="Kistestein" />
		<tag k="natural" v="stone" />
		<tag k="ssr:stedsnr" v="212108" />
	</node>
	<node id="-252114" lat="59.9405972204" lon="9.64249166909">
		<tag k="name" v="Tjennmyra" />
		<tag k="natural" v="wetland" />
		<tag k="ssr:stedsnr" v="32423" />
	</node>
	<node id="-251256" lat="59.9848722196" lon="9.62249721584">
		<tag k="name" v="Lunnemyr" />
		<tag k="natural" v="wetland" />
		<tag k="ssr:stedsnr" v="732955" />
	</node>
	<node id="-252110" lat="60.0771166668" lon="9.67769444682">
		<tag k="name" v="Skartummyr" />
		<tag k="natural" v="wetland" />
		<tag k="ssr:stedsnr" v="32392" />
	</node>
	<node id="-252108" lat="60.082469444" lon="9.66902777291">
		<tag k="name" v="Torvmyra" />
		<tag k="natural" v="wetland" />
		<tag k="ssr:stedsnr" v="32388" />
	</node>
	<node id="-252106" lat="60.073358337" lon="9.66008610513">
		<tag k="name" v="Fugleleiken" />
		<tag k="natural" v="wetland" />
		<tag k="ssr:stedsnr" v="32383" />
	</node>
	<node id="-252102" lat="60.0734416689" lon="9.6071111102">
		<tag k="name" v="Sauemyr" />
		<tag k="natural" v="wetland" />
		<tag k="ssr:stedsnr" v="32363" />
	</node>
	<node id="-250049" lat="60.215222225" lon="9.46745833588">
		<tag k="name" v="Kannarmyra" />
		<tag k="natural" v="wetland" />
		<tag k="ssr:stedsnr" v="247247" />
	</node>
	<node id="-252096" lat="59.9759555543" lon="9.60903055113">
		<tag k="name" v="Felemyr" />
		<tag k="natural" v="wetland" />
		<tag k="ssr:stedsnr" v="32281" />
	</node>
	<node id="-252094" lat="60.0006249959" lon="9.6038805475">
		<tag k="name" v="Fugleleiken" />
		<tag k="natural" v="wetland" />
		<tag k="ssr:stedsnr" v="32180" />
	</node>
	<node id="-252089" lat="60.0173388857" lon="9.47715833739">
		<tag k="name" v="Grytesetermyra" />
		<tag k="natural" v="wetland" />
		<tag k="ssr:stedsnr" v="32087" />
	</node>
	<node id="-251507" lat="60.0379222267" lon="9.46850555501">
		<tag k="name" v="Haslonmyra" />
		<tag k="natural" v="wetland" />
		<tag k="ssr:stedsnr" v="700173" />
	</node>
	<node id="-252084" lat="60.0091777788" lon="9.5512388961">
		<tag k="landuse" v="meadow" />
		<tag k="name" v="Karibråtan" />
		<tag k="ssr:stedsnr" v="32023" />
	</node>
	<node id="-252077" lat="60.136897223" lon="9.4953749963">
		<tag k="name" v="Stormyran" />
		<tag k="natural" v="wetland" />
		<tag k="ssr:stedsnr" v="31392" />
	</node>
	<node id="-252070" lat="60.231258336" lon="9.30927500093">
		<tag k="landuse" v="meadow" />
		<tag k="name" v="Øvre Flatbråtan" />
		<tag k="ssr:stedsnr" v="30934" />
	</node>
	<node id="-250225" lat="60.0937416635" lon="9.47431943929">
		<tag k="name" v="Løkka" />
		<tag k="place" v="locality" />
		<tag k="ssr:stedsnr" v="153434" />
	</node>
	<node id="-252064" lat="60.2225111118" lon="9.35298610435">
		<tag k="name" v="Finnjordet" />
		<tag k="place" v="locality" />
		<tag k="ssr:stedsnr" v="30843" />
	</node>
	<node id="-252060" lat="60.1701222245" lon="9.49127222466">
		<tag k="name" v="Omsmyra" />
		<tag k="natural" v="wetland" />
		<tag k="ssr:stedsnr" v="30634" />
	</node>
	<node id="-250011" lat="60.0198611144" lon="9.59223888945">
		<tag k="landuse" v="meadow" />
		<tag k="name" v="Brannbråtan" />
		<tag k="ssr:stedsnr" v="32206" />
	</node>
	<node id="-252055" lat="60.2609388883" lon="9.33148055224">
		<tag k="name" v="Jordet" />
		<tag k="place" v="locality" />
		<tag k="ssr:stedsnr" v="30426" />
	</node>
	<node id="-252051" lat="60.0364499979" lon="9.41186666349">
		<tag k="name" v="Nordmarka" />
		<tag k="place" v="locality" />
		<tag k="ssr:stedsnr" v="30330" />
	</node>
	<node id="-249996" lat="59.9881833343" lon="9.53565000195">
		<tag k="name" v="Jønnlimyra" />
		<tag k="natural" v="wetland" />
		<tag k="ssr:stedsnr" v="22315" />
	</node>
	<node id="-252039" lat="60.2450361108" lon="9.39828333912">
		<tag k="name" v="Mellommyr" />
		<tag k="natural" v="wetland" />
		<tag k="ssr:stedsnr" v="30141" />
	</node>
	<node id="-252037" lat="60.3222611082" lon="9.28211665874">
		<tag k="name" v="Steinset langsetermark" />
		<tag k="place" v="locality" />
		<tag k="ssr:stedsnr" v="30124" />
	</node>
	<node id="-252036" lat="60.2521166652" lon="9.3298722248">
		<tag k="name" v="Pletanhagan" />
		<tag k="place" v="locality" />
		<tag k="ssr:stedsnr" v="30123" />
	</node>
	<node id="-252035" lat="60.3035333317" lon="9.26245000383">
		<tag k="name" v="Sauedemma" />
		<tag k="natural" v="wetland" />
		<tag k="ssr:stedsnr" v="30122" />
	</node>
	<node id="-252031" lat="60.2192555558" lon="9.27799723072">
		<tag k="name" v="Bleikemyr" />
		<tag k="natural" v="wetland" />
		<tag k="ssr:stedsnr" v="29465" />
	</node>
	<node id="-252021" lat="60.1733249964" lon="9.24549722707">
		<tag k="historic" v="shieling" />
		<tag k="name" v="Svanvassetra" />
		<tag k="place" v="locality" />
		<tag k="ssr:stedsnr" v="29124" />
	</node>
	<node id="-251582" lat="60.0402944478" lon="9.54866943582">
		<tag k="name" v="Stugujordet" />
		<tag k="place" v="locality" />
		<tag k="ssr:stedsnr" v="760447" />
	</node>
	<node id="-252014" lat="60.2532444461" lon="9.23429166803">
		<tag k="name" v="Grisesprangmyrane" />
		<tag k="natural" v="wetland" />
		<tag k="ssr:stedsnr" v="29168" />
	</node>
	<node id="-252005" lat="60.3139749976" lon="9.16058887996">
		<tag k="historic" v="shieling" />
		<tag k="name" v="Slokoseter" />
		<tag k="place" v="locality" />
		<tag k="ssr:stedsnr" v="6474" />
	</node>
	<node id="-250552" lat="59.958155555" lon="9.80233888791">
		<tag k="name" v="Nesvollen" />
		<tag k="place" v="locality" />
		<tag k="ssr:stedsnr" v="275607" />
	</node>
	<node id="-251574" lat="59.9572888922" lon="9.61484722377">
		<tag k="name" v="Myrane" />
		<tag k="natural" v="wetland" />
		<tag k="ssr:stedsnr" v="760405" />
	</node>
	<node id="-251950" lat="59.9751833319" lon="9.54909721693">
		<tag k="name" v="Pyntemyr" />
		<tag k="natural" v="wetland" />
		<tag k="ssr:stedsnr" v="943016" />
	</node>
	<node id="-251944" lat="60.1569166674" lon="9.3913305642">
		<tag k="name" v="Vestre Mellommyra" />
		<tag k="natural" v="wetland" />
		<tag k="ssr:stedsnr" v="940637" />
	</node>
	<node id="-251568" lat="59.9892499967" lon="9.54607777368">
		<tag k="name" v="Ivarliubekken" />
		<tag k="natural" v="wetland" />
		<tag k="ssr:stedsnr" v="760058" />
	</node>
	<node id="-250883" lat="60.0885777737" lon="9.57471666569">
		<tag k="name" v="Pinnemyran" />
		<tag k="natural" v="wetland" />
		<tag k="ssr:stedsnr" v="518869" />
	</node>
	<node id="-251915" lat="60.2606805515" lon="9.39229722547">
		<tag k="name" v="Lykkebotmyr" />
		<tag k="natural" v="wetland" />
		<tag k="ssr:stedsnr" v="880474" />
	</node>
	<node id="-251913" lat="60.1105638923" lon="9.48521388541">
		<tag k="name" v="Pettermyr" />
		<tag k="natural" v="wetland" />
		<tag k="ssr:stedsnr" v="880456" />
	</node>
	<node id="-251912" lat="60.2874972256" lon="9.27164166853">
		<tag k="historic" v="shieling" />
		<tag k="name" v="Råmanset heimseter" />
		<tag k="place" v="locality" />
		<tag k="ssr:stedsnr" v="879611" />
	</node>
	<node id="-252587" lat="60.035716663" lon="9.74081389706">
		<tag k="landuse" v="meadow" />
		<tag k="name" v="Asbjørnsbråtan" />
		<tag k="ssr:stedsnr" v="153991" />
	</node>
</osm>
