<?xml version="1.0" encoding="UTF-8"?>
<<<<<<< HEAD
<osm version="0.6" generator="osmapis">
	<node lat="60.13242500180488" lon="9.404108335651529" id="-16663">
=======
<osm generator="osmapis" version="0.6">
	<node id="-281055" lat="60.2127666661" lon="9.3223583301">
>>>>>>> e1d4bc35ff8a6074a6f2e91616a996b547c36f15
		<tag k="historic" v="boundary_stone" />
		<tag k="man_made" v="cairn" />
		<tag k="name" v="Leirgråna" />
		<tag k="place" v="locality" />
		<tag k="ssr:stedsnr" v="30119" />
	</node>
<<<<<<< HEAD
	<node lat="60.013972225615305" lon="9.491355547912852" id="-17001">
		<tag k="historic" v="boundary_stone" />
		<tag k="man_made" v="cairn" />
		<tag k="name" v="Jonsbråtastein" />
		<tag k="place" v="locality" />
		<tag k="ssr:stedsnr" v="214086" />
	</node>
	<node lat="60.11310000187357" lon="9.372572228241044" id="-17093">
=======
	<node id="-280798" lat="60.1131000019" lon="9.37257222824">
>>>>>>> e1d4bc35ff8a6074a6f2e91616a996b547c36f15
		<tag k="historic" v="boundary_stone" />
		<tag k="man_made" v="cairn" />
		<tag k="name" v="Kvitstein" />
		<tag k="place" v="locality" />
		<tag k="ssr:stedsnr" v="455089" />
	</node>
<<<<<<< HEAD
	<node lat="60.11942777464951" lon="9.525136115016908" id="-17108">
		<tag k="historic" v="boundary_stone" />
		<tag k="man_made" v="cairn" />
		<tag k="name" v="Reiaråsstein" />
		<tag k="place" v="locality" />
		<tag k="ssr:stedsnr" v="455488" />
	</node>
	<node lat="60.21276666606493" lon="9.322358330097506" id="-17310">
=======
	<node id="-284380" lat="60.1471840382" lon="9.23201670698">
		<tag k="fixme" v="consider boundary=protected_area and relevant protect_class if not nature reserve" />
		<tag k="leisure" v="nature_reserve" />
		<tag k="name" v="Trillemarka-Rollagsfjell naturreservat" />
		<tag k="ssr:stedsnr" v="981232" />
	</node>
	<node id="-283322" lat="60.1868444445" lon="9.40518611528">
		<tag k="fixme" v="consider boundary=protected_area and relevant protect_class if not nature reserve" />
		<tag k="leisure" v="nature_reserve" />
		<tag k="name" v="Solevatn naturreservat" />
		<tag k="ssr:stedsnr" v="333720" />
	</node>
	<node id="-280697" lat="60.1157972185" lon="9.61718888158">
>>>>>>> e1d4bc35ff8a6074a6f2e91616a996b547c36f15
		<tag k="historic" v="boundary_stone" />
		<tag k="man_made" v="cairn" />
		<tag k="name" v="Delesrøysa" />
		<tag k="place" v="locality" />
		<tag k="ssr:stedsnr" v="333909" />
	</node>
<<<<<<< HEAD
	<node lat="59.99031389247324" lon="9.567838891788611" id="-17660">
=======
	<node id="-280920" lat="59.9903138925" lon="9.56783889179">
>>>>>>> e1d4bc35ff8a6074a6f2e91616a996b547c36f15
		<tag k="historic" v="boundary_stone" />
		<tag k="man_made" v="cairn" />
		<tag k="name" v="Pælen" />
		<tag k="place" v="locality" />
		<tag k="ssr:stedsnr" v="457724" />
	</node>
<<<<<<< HEAD
	<node lat="60.17288611083679" lon="9.49179999734564" id="-17929">
		<tag k="historic" v="boundary_stone" />
		<tag k="man_made" v="cairn" />
		<tag k="name" v="Lakserudrøysa" />
		<tag k="place" v="locality" />
		<tag k="ssr:stedsnr" v="698658" />
	</node>
	<node lat="60.079037965036775" lon="9.647591664961775" id="-18555">
=======
	<node id="-282421" lat="60.079037965" lon="9.64759166496">
>>>>>>> e1d4bc35ff8a6074a6f2e91616a996b547c36f15
		<tag k="fixme" v="consider boundary=protected_area and relevant protect_class if not nature reserve" />
		<tag k="leisure" v="nature_reserve" />
		<tag k="name" v="Juvsåsen naturreservat" />
		<tag k="ssr:stedsnr" v="971499" />
	</node>
<<<<<<< HEAD
	<node lat="60.14718403824697" lon="9.232016706981604" id="-18566">
		<tag k="fixme" v="consider boundary=protected_area and relevant protect_class if not nature reserve" />
		<tag k="leisure" v="nature_reserve" />
		<tag k="name" v="Trillemarka-Rollagsfjell naturreservat" />
		<tag k="ssr:stedsnr" v="981232" />
	</node>
	<node lat="60.115797218463165" lon="9.617188881580345" id="-19243">
=======
	<node id="-283187" lat="60.0139722256" lon="9.49135554791">
		<tag k="historic" v="boundary_stone" />
		<tag k="man_made" v="cairn" />
		<tag k="name" v="Jonsbråtastein" />
		<tag k="place" v="locality" />
		<tag k="ssr:stedsnr" v="214086" />
	</node>
	<node id="-280817" lat="60.1194277746" lon="9.52513611502">
>>>>>>> e1d4bc35ff8a6074a6f2e91616a996b547c36f15
		<tag k="historic" v="boundary_stone" />
		<tag k="man_made" v="cairn" />
		<tag k="name" v="Vikivollstein" />
		<tag k="place" v="locality" />
		<tag k="ssr:stedsnr" v="277658" />
	</node>
<<<<<<< HEAD
	<node lat="60.18684444450793" lon="9.405186115284081" id="-19293">
		<tag k="fixme" v="consider boundary=protected_area and relevant protect_class if not nature reserve" />
		<tag k="leisure" v="nature_reserve" />
		<tag k="name" v="Solevatn naturreservat" />
		<tag k="ssr:stedsnr" v="333720" />
	</node>
	<node lat="60.017433329995306" lon="9.645383324445923" id="-19313">
=======
	<node id="-282155" lat="59.9839583321" lon="9.51312778218">
		<tag k="historic" v="boundary_stone" />
		<tag k="man_made" v="cairn" />
		<tag k="name" v="Tronstein" />
		<tag k="place" v="locality" />
		<tag k="ssr:stedsnr" v="821064" />
	</node>
	<node id="-281065" lat="60.01743333" lon="9.64538332445">
>>>>>>> e1d4bc35ff8a6074a6f2e91616a996b547c36f15
		<tag k="historic" v="boundary_stone" />
		<tag k="man_made" v="cairn" />
		<tag k="name" v="Dike" />
		<tag k="place" v="locality" />
		<tag k="ssr:stedsnr" v="335136" />
	</node>
<<<<<<< HEAD
=======
	<node id="-282503" lat="60.1324250018" lon="9.40410833565">
		<tag k="historic" v="boundary_stone" />
		<tag k="man_made" v="cairn" />
		<tag k="name" v="Leirgråna" />
		<tag k="place" v="locality" />
		<tag k="ssr:stedsnr" v="30119" />
	</node>
	<node id="-281957" lat="60.1728861108" lon="9.49179999735">
		<tag k="historic" v="boundary_stone" />
		<tag k="man_made" v="cairn" />
		<tag k="name" v="Lakserudrøysa" />
		<tag k="place" v="locality" />
		<tag k="ssr:stedsnr" v="698658" />
	</node>
>>>>>>> e1d4bc35ff8a6074a6f2e91616a996b547c36f15
</osm>
