<?xml version="1.0" encoding="UTF-8"?>
<osm version="0.6" generator="osmapis">
	<node lat="59.035422226337715" lon="8.374847224451841" id="-19548">
		<tag k="name" v="Grunntjønnvegen" />
		<tag k="ssr:date" v="2019-12-27" />
		<tag k="ssr:gruppe" v="veg" />
		<tag k="ssr:hovedgruppe" v="infrastruktur" />
		<tag k="ssr:stedsnr" v="48696" />
		<tag k="ssr:type" v="vegstrekning" />
	</node>
	<node lat="59.0195888854582" lon="8.521294439220236" id="-19635">
		<tag k="name" v="Nissedal kommune" />
		<tag k="ssr:date" v="2019-12-27" />
		<tag k="ssr:gruppe" v="administrativeIndelinger" />
		<tag k="ssr:hovedgruppe" v="offentligAdministrasjon" />
		<tag k="ssr:stedsnr" v="85432" />
		<tag k="ssr:type" v="kommune" />
	</node>
	<node lat="58.87926944242416" lon="8.666936103935054" id="-20006">
		<tag k="name" v="Brursvingen" />
		<tag k="ssr:date" v="2019-12-27" />
		<tag k="ssr:gruppe" v="veg" />
		<tag k="ssr:hovedgruppe" v="infrastruktur" />
		<tag k="ssr:stedsnr" v="460174" />
		<tag k="ssr:type" v="vegstrekning" />
	</node>
	<node lat="59.153925001172105" lon="8.461083334073841" id="-20075">
		<tag k="name" v="Torsbuvegen" />
		<tag k="ssr:date" v="2019-12-27" />
		<tag k="ssr:gruppe" v="veg" />
		<tag k="ssr:hovedgruppe" v="infrastruktur" />
		<tag k="ssr:stedsnr" v="471429" />
		<tag k="ssr:type" v="vegstrekning" />
	</node>
	<node lat="59.1586555555942" lon="8.44662222700898" id="-20835">
		<tag k="name" v="Borstadvegen" />
		<tag k="ssr:date" v="2019-12-27" />
		<tag k="ssr:gruppe" v="veg" />
		<tag k="ssr:hovedgruppe" v="infrastruktur" />
		<tag k="ssr:stedsnr" v="653396" />
		<tag k="ssr:type" v="vegstrekning" />
	</node>
	<node lat="58.94275000179495" lon="8.407522221119873" id="-21624">
		<tag k="name" v="Stavkleiv" />
		<tag k="ssr:date" v="2019-12-27" />
		<tag k="ssr:gruppe" v="veg" />
		<tag k="ssr:hovedgruppe" v="infrastruktur" />
		<tag k="ssr:stedsnr" v="45253" />
		<tag k="ssr:type" v="vegstrekning" />
	</node>
	<node lat="59.04667499815542" lon="8.502636112064746" id="-21925">
		<tag k="name" v="Nordstøkleiva" />
		<tag k="ssr:date" v="2019-12-27" />
		<tag k="ssr:gruppe" v="veg" />
		<tag k="ssr:hovedgruppe" v="infrastruktur" />
		<tag k="ssr:stedsnr" v="155549" />
		<tag k="ssr:type" v="vegstrekning" />
	</node>
	<node lat="59.154700001636044" lon="8.457172222786301" id="-21986">
		<tag k="name" v="Gamle Fjalestadvegen" />
		<tag k="ssr:date" v="2019-12-27" />
		<tag k="ssr:gruppe" v="veg" />
		<tag k="ssr:hovedgruppe" v="infrastruktur" />
		<tag k="ssr:stedsnr" v="168093" />
		<tag k="ssr:type" v="vegstrekning" />
	</node>
	<node lat="59.14854722329728" lon="8.356158325794542" id="-22004">
		<tag k="name" v="Vehusvegen" />
		<tag k="ssr:date" v="2019-12-27" />
		<tag k="ssr:gruppe" v="veg" />
		<tag k="ssr:hovedgruppe" v="infrastruktur" />
		<tag k="ssr:stedsnr" v="168589" />
		<tag k="ssr:type" v="vegstrekning" />
	</node>
	<node lat="58.99563888746969" lon="8.529344447829859" id="-22116">
		<tag k="name" v="Nausgang" />
		<tag k="ssr:date" v="2019-12-27" />
		<tag k="ssr:gruppe" v="veg" />
		<tag k="ssr:hovedgruppe" v="infrastruktur" />
		<tag k="ssr:stedsnr" v="216947" />
		<tag k="ssr:type" v="vegstrekning" />
	</node>
	<node lat="59.03392778168921" lon="8.511808341072136" id="-22858">
		<tag k="name" v="Ruslislepa" />
		<tag k="ssr:date" v="2019-12-27" />
		<tag k="ssr:gruppe" v="veg" />
		<tag k="ssr:hovedgruppe" v="infrastruktur" />
		<tag k="ssr:stedsnr" v="580853" />
		<tag k="ssr:type" v="vegstrekning" />
	</node>
</osm>
