<?xml version="1.0" encoding="UTF-8"?>
<osm generator="osmapis" version="0.6">
	<node id="-90993" lat="61.7836527768" lon="11.0667500053">
		<tag k="name" v="Børte" />
		<tag k="place" v="locality" />
		<tag k="ssr:stedsnr" v="785631" />
	</node>
	<node id="-90107" lat="61.8549583366" lon="11.0442555487">
		<tag k="alt_name" v="Løvåsmyra" />
		<tag k="name" v="Lauvåsmyra" />
		<tag k="natural" v="wetland" />
		<tag k="ssr:stedsnr" v="496163" />
	</node>
	<node id="-90617" lat="62.0270833344" lon="11.2006916672">
		<tag k="name" v="Uglåbørtet" />
		<tag k="natural" v="wetland" />
		<tag k="ssr:stedsnr" v="664284" />
	</node>
	<node id="-90613" lat="62.0527972258" lon="11.0630249975">
		<tag k="name" v="Størnabben" />
		<tag k="place" v="locality" />
		<tag k="ssr:stedsnr" v="664232" />
	</node>
	<node id="-90612" lat="61.9858805544" lon="11.4914972193">
		<tag k="name" v="Jensmyra" />
		<tag k="natural" v="wetland" />
		<tag k="ssr:stedsnr" v="664094" />
	</node>
	<node id="-90099" lat="61.9445861108" lon="11.6242472163">
		<tag k="name" v="Grønmyrkjølen" />
		<tag k="natural" v="wetland" />
		<tag k="ssr:stedsnr" v="496114" />
	</node>
	<node id="-90097" lat="62.0863500041" lon="11.1874527779">
		<tag k="loc_name" v="Neksjømyrene" />
		<tag k="name" v="Nekmyrene" />
		<tag k="natural" v="wetland" />
		<tag k="ssr:stedsnr" v="496095" />
	</node>
	<node id="-89584" lat="61.5911666708" lon="11.3645749955">
		<tag k="alt_name" v="Andrå-Flendalen" />
		<tag k="historic" v="shieling" />
		<tag k="name" v="Flendalen" />
		<tag k="place" v="locality" />
		<tag k="ssr:stedsnr" v="192473" />
	</node>
	<node id="-90095" lat="62.1213805514" lon="11.0052555601">
		<tag k="alt_name" v="Nørdstenget" />
		<tag k="name" v="Nørdstenga" />
		<tag k="place" v="locality" />
		<tag k="ssr:stedsnr" v="496079" />
	</node>
	<node id="-91116" lat="61.9323805586" lon="11.3881916616">
		<tag k="alt_name" v="Tannvordfløyet" />
		<tag k="name" v="Tannvolfløyet" />
		<tag k="natural" v="wetland" />
		<tag k="ssr:stedsnr" v="800241" />
	</node>
	<node id="-90647" lat="61.6382666708" lon="11.1131166674">
		<tag k="name" v="Rypemyra" />
		<tag k="natural" v="wetland" />
		<tag k="ssr:stedsnr" v="665902" />
	</node>
	<node id="-89065" lat="61.753377779" lon="10.8237055472">
		<tag k="alt_name" v="Brenninga" />
		<tag k="name" v="Brenningen" />
		<tag k="place" v="locality" />
		<tag k="ssr:stedsnr" v="11193" />
	</node>
	<node id="-90087" lat="62.0176944446" lon="11.1690666648">
		<tag k="alt_name" v="Strypmyra" />
		<tag k="name" v="Strypmyrene" />
		<tag k="natural" v="wetland" />
		<tag k="ssr:stedsnr" v="496027" />
	</node>
	<node id="-90086" lat="61.8639499964" lon="11.2596527762">
		<tag k="name" v="Stormyra" />
		<tag k="natural" v="wetland" />
		<tag k="ssr:stedsnr" v="496022" />
	</node>
	<node id="-90137" lat="61.4852416674" lon="11.2884888814">
		<tag k="name" v="Harrstenen" />
		<tag k="natural" v="stone" />
		<tag k="ssr:stedsnr" v="499233" />
	</node>
	<node id="-90592" lat="61.9020138872" lon="11.1630666714">
		<tag k="name" v="Orremyra" />
		<tag k="natural" v="wetland" />
		<tag k="ssr:stedsnr" v="663195" />
	</node>
	<node id="-90591" lat="61.4703722222" lon="11.4162388893">
		<tag k="name" v="Nordre Skjærbergsmyra" />
		<tag k="natural" v="wetland" />
		<tag k="ssr:stedsnr" v="663187" />
	</node>
	<node id="-89054" lat="61.8927027815" lon="10.8670833404">
		<tag k="name" v="Stormyra" />
		<tag k="natural" v="wetland" />
		<tag k="ssr:stedsnr" v="11116" />
	</node>
	<node id="-90362" lat="61.7655750004" lon="10.9126333269">
		<tag k="name" v="Okstjønnmyra" />
		<tag k="natural" v="wetland" />
		<tag k="ssr:stedsnr" v="579225" />
	</node>
	<node id="-91364" lat="61.6415722266" lon="11.1533194361">
		<tag k="name" v="Halstenmyra" />
		<tag k="natural" v="wetland" />
		<tag k="ssr:stedsnr" v="908089" />
	</node>
	<node id="-90703" lat="61.8851861118" lon="11.2268749965">
		<tag k="name" v="Milskiftmyra" />
		<tag k="natural" v="wetland" />
		<tag k="ssr:stedsnr" v="678011" />
	</node>
	<node id="-89045" lat="61.7508083375" lon="11.1084083297">
		<tag k="alt_name" v="Nybusataen" />
		<tag k="historic" v="shieling" />
		<tag k="name" v="Nybusetan" />
		<tag k="place" v="locality" />
		<tag k="ssr:stedsnr" v="11072" />
	</node>
	<node id="-90580" lat="61.8650305572" lon="11.0507194442">
		<tag k="name" v="Finndalsmyra" />
		<tag k="natural" v="wetland" />
		<tag k="ssr:stedsnr" v="632464" />
	</node>
	<node id="-90579" lat="61.9055138927" lon="11.0752666611">
		<tag k="landuse" v="meadow" />
		<tag k="name" v="Nordengene" />
		<tag k="ssr:stedsnr" v="632455" />
	</node>
	<node id="-90575" lat="61.8849861151" lon="11.0833611191">
		<tag k="name" v="Prestegardsjordet" />
		<tag k="place" v="locality" />
		<tag k="ssr:stedsnr" v="632150" />
	</node>
	<node id="-89545" lat="61.7995638896" lon="10.7229888957">
		<tag k="name" v="Atnkjølsmyrene" />
		<tag k="natural" v="wetland" />
		<tag k="ssr:stedsnr" v="180291" />
	</node>
	<node id="-89543" lat="61.6861944449" lon="11.1688444434">
		<tag k="name" v="Nybumyra" />
		<tag k="natural" v="wetland" />
		<tag k="ssr:stedsnr" v="180073" />
	</node>
	<node id="-89030" lat="61.6499999993" lon="11.3969388829">
		<tag k="alt_name" v="Vammyrene" />
		<tag k="name" v="Vammyra" />
		<tag k="natural" v="wetland" />
		<tag k="ssr:stedsnr" v="10464" />
	</node>
	<node id="-91076" lat="61.725377775" lon="11.1631000007">
		<tag k="historic" v="shieling" />
		<tag k="name" v="Klettvollen" />
		<tag k="place" v="locality" />
		<tag k="ssr:stedsnr" v="799428" />
	</node>
	<node id="-89334" lat="62.1136250031" lon="11.012005558">
		<tag k="name" v="Småoddene" />
		<tag k="place" v="locality" />
		<tag k="ssr:stedsnr" v="119344" />
	</node>
	<node id="-90050" lat="61.9540416692" lon="11.0308999962">
		<tag k="landuse" v="meadow" />
		<tag k="name" v="Setan" />
		<tag k="ssr:stedsnr" v="483891" />
	</node>
	<node id="-90561" lat="61.8273027783" lon="10.9593527696">
		<tag k="name" v="Kalbergmyra" />
		<tag k="natural" v="wetland" />
		<tag k="ssr:stedsnr" v="630493" />
	</node>
	<node id="-89535" lat="62.0281999979" lon="11.0367138894">
		<tag k="name" v="Harsandbekkfløyet" />
		<tag k="natural" v="wetland" />
		<tag k="ssr:stedsnr" v="179838" />
	</node>
	<node id="-90045" lat="61.8397888922" lon="11.029219449">
		<tag k="name" v="Kalvmyra" />
		<tag k="natural" v="wetland" />
		<tag k="ssr:stedsnr" v="483833" />
	</node>
	<node id="-90043" lat="61.9628472223" lon="10.9770638944">
		<tag k="name" v="Lensmannsengene" />
		<tag k="place" v="locality" />
		<tag k="ssr:stedsnr" v="483807" />
	</node>
	<node id="-90042" lat="61.610183335" lon="11.1557833398">
		<tag k="name" v="Flarkemyra" />
		<tag k="natural" v="wetland" />
		<tag k="ssr:stedsnr" v="483924" />
	</node>
	<node id="-89529" lat="61.7480388925" lon="11.0436749912">
		<tag k="name" v="Stormyra" />
		<tag k="natural" v="wetland" />
		<tag k="ssr:stedsnr" v="179625" />
	</node>
	<node id="-89528" lat="61.4668861109" lon="11.4394027703">
		<tag k="name" v="Bjønndalsmyra" />
		<tag k="natural" v="wetland" />
		<tag k="ssr:stedsnr" v="179604" />
	</node>
	<node id="-90039" lat="61.7070416694" lon="11.2395638859">
		<tag k="name" v="Skogholet" />
		<tag k="place" v="locality" />
		<tag k="ssr:stedsnr" v="483665" />
	</node>
	<node id="-90805" lat="62.0317861147" lon="11.1873555623">
		<tag k="name" v="Gråkolla" />
		<tag k="natural" v="wetland" />
		<tag k="ssr:stedsnr" v="725314" />
	</node>
	<node id="-90549" lat="62.020652775" lon="11.5913666699">
		<tag k="name" v="Svarttjønnfloen" />
		<tag k="natural" v="wetland" />
		<tag k="ssr:stedsnr" v="617444" />
	</node>
	<node id="-90270" lat="62.0457916711" lon="11.117800001">
		<tag k="name" v="Klettmyra" />
		<tag k="natural" v="wetland" />
		<tag k="ssr:stedsnr" v="556001" />
	</node>
	<node id="-89522" lat="62.0228194475" lon="11.4846944419">
		<tag k="name" v="Hemmyra" />
		<tag k="natural" v="wetland" />
		<tag k="ssr:stedsnr" v="179418" />
	</node>
	<node id="-89331" lat="62.0085833289" lon="11.0884166686">
		<tag k="name" v="Heieskogen" />
		<tag k="place" v="locality" />
		<tag k="ssr:stedsnr" v="119329" />
	</node>
	<node id="-89520" lat="62.0762194417" lon="11.4596666602">
		<tag k="name" v="Nordre Øya" />
		<tag k="place" v="locality" />
		<tag k="ssr:stedsnr" v="179406" />
	</node>
	<node id="-89832" lat="61.7683055538" lon="10.9531972178">
		<tag k="name" v="Mjovassmyra" />
		<tag k="natural" v="wetland" />
		<tag k="ssr:stedsnr" v="421430" />
	</node>
	<node id="-90525" lat="62.137291665" lon="11.0819777737">
		<tag k="name" v="Lauvbekkfløyet" />
		<tag k="natural" v="wetland" />
		<tag k="ssr:stedsnr" v="617199" />
	</node>
	<node id="-90027" lat="61.7888277759" lon="11.3102722273">
		<tag k="name" v="Maurbekkslauan" />
		<tag k="place" v="locality" />
		<tag k="ssr:stedsnr" v="482889" />
	</node>
	<node id="-90026" lat="61.6729666708" lon="11.3030638847">
		<tag k="name" v="Bergevollen" />
		<tag k="place" v="locality" />
		<tag k="ssr:stedsnr" v="482472" />
	</node>
	<node id="-91561" lat="61.8559722179" lon="10.9881222175">
		<tag k="name" v="Langmyra" />
		<tag k="natural" v="wetland" />
		<tag k="ssr:stedsnr" v="968795" />
	</node>
	<node id="-90024" lat="61.8897944489" lon="11.7204277743">
		<tag k="name" v="Langmyra" />
		<tag k="natural" v="wetland" />
		<tag k="ssr:stedsnr" v="482376" />
	</node>
	<node id="-89511" lat="62.0108527765" lon="11.0883305544">
		<tag k="name" v="Krokenget" />
		<tag k="place" v="locality" />
		<tag k="ssr:stedsnr" v="179315" />
	</node>
	<node id="-90534" lat="61.9518055563" lon="11.1574694507">
		<tag k="alt_name" v="Raudvordmyra" />
		<tag k="name" v="Rødvolmyra" />
		<tag k="natural" v="wetland" />
		<tag k="ssr:stedsnr" v="617263" />
	</node>
	<node id="-90017" lat="62.0763027787" lon="11.042147229">
		<tag k="name" v="Vidvollen" />
		<tag k="place" v="locality" />
		<tag k="ssr:stedsnr" v="482255" />
	</node>
	<node id="-91040" lat="61.5440500025" lon="11.3973638847">
		<tag k="name" v="Tørråsmyra" />
		<tag k="natural" v="wetland" />
		<tag k="ssr:stedsnr" v="798255" />
	</node>
	<node id="-91037" lat="61.4922388929" lon="11.501024996">
		<tag k="alt_name" v="Dulpa" />
		<tag k="name" v="Dulpmyra" />
		<tag k="natural" v="wetland" />
		<tag k="ssr:stedsnr" v="797196" />
	</node>
	<node id="-90012" lat="61.596372224" lon="11.1836583241">
		<tag k="historic" v="shieling" />
		<tag k="name" v="Røstvangen" />
		<tag k="place" v="locality" />
		<tag k="ssr:stedsnr" v="481931" />
	</node>
	<node id="-89499" lat="61.6241083322" lon="11.1301694452">
		<tag k="name" v="Åsmyra" />
		<tag k="natural" v="wetland" />
		<tag k="ssr:stedsnr" v="178863" />
	</node>
	<node id="-90010" lat="61.6320472242" lon="11.1285750001">
		<tag k="name" v="Skrukkemyra" />
		<tag k="natural" v="wetland" />
		<tag k="ssr:stedsnr" v="481879" />
	</node>
	<node id="-89497" lat="61.8042027792" lon="10.9950916638">
		<tag k="name" v="Klettbekkmyra" />
		<tag k="natural" v="wetland" />
		<tag k="ssr:stedsnr" v="178705" />
	</node>
	<node id="-90006" lat="61.7741972197" lon="10.9259611095">
		<tag k="name" v="Toppmyra" />
		<tag k="natural" v="wetland" />
		<tag k="ssr:stedsnr" v="481465" />
	</node>
	<node id="-91541" lat="62.0803694482" lon="11.4472138894">
		<tag k="name" v="Fallmyra" />
		<tag k="natural" v="wetland" />
		<tag k="ssr:stedsnr" v="968358" />
	</node>
	<node id="-91540" lat="62.073897225" lon="11.4390833403">
		<tag k="name" v="Sætermyra" />
		<tag k="natural" v="wetland" />
		<tag k="ssr:stedsnr" v="968357" />
	</node>
	<node id="-91027" lat="61.5364777775" lon="11.663025005">
		<tag k="historic" v="shieling" />
		<tag k="name" v="Døvhans" />
		<tag k="place" v="locality" />
		<tag k="ssr:stedsnr" v="786718" />
	</node>
	<node id="-91538" lat="62.0665833319" lon="11.3925277761">
		<tag k="name" v="Skjellåbørtet" />
		<tag k="natural" v="wetland" />
		<tag k="ssr:stedsnr" v="968352" />
	</node>
	<node id="-91537" lat="62.1080249972" lon="11.0159166689">
		<tag k="landuse" v="meadow" />
		<tag k="name" v="Engebortenget" />
		<tag k="ssr:stedsnr" v="968345" />
	</node>
	<node id="-90266" lat="61.6199666671" lon="11.150475008">
		<tag k="name" v="Midtskogen" />
		<tag k="place" v="locality" />
		<tag k="ssr:stedsnr" v="555446" />
	</node>
	<node id="-89486" lat="61.6436000033" lon="11.2344861135">
		<tag k="name" v="Rønningsmyra" />
		<tag k="natural" v="wetland" />
		<tag k="ssr:stedsnr" v="177400" />
	</node>
	<node id="-90133" lat="61.7770666703" lon="11.5942861078">
		<tag k="name" v="Jøgåsmyra" />
		<tag k="natural" v="wetland" />
		<tag k="ssr:stedsnr" v="496933" />
	</node>
	<node id="-90508" lat="62.1087833344" lon="11.084869452">
		<tag k="name" v="Stormyra" />
		<tag k="natural" v="wetland" />
		<tag k="ssr:stedsnr" v="617089" />
	</node>
	<node id="-89995" lat="61.7395916699" lon="11.153438891">
		<tag k="name" v="Langmyra" />
		<tag k="natural" v="wetland" />
		<tag k="ssr:stedsnr" v="481220" />
	</node>
	<node id="-91017" lat="62.0937861149" lon="11.4738583289">
		<tag k="name" v="Storfurua" />
		<tag k="place" v="locality" />
		<tag k="ssr:stedsnr" v="786477" />
	</node>
	<node id="-89992" lat="61.919213892" lon="11.1777611079">
		<tag k="name" v="Kjølvollmyra" />
		<tag k="natural" v="wetland" />
		<tag k="ssr:stedsnr" v="481211" />
	</node>
	<node id="-91015" lat="62.0448861076" lon="11.4564611027">
		<tag k="name" v="Graslandet" />
		<tag k="natural" v="wetland" />
		<tag k="ssr:stedsnr" v="786440" />
	</node>
	<node id="-89478" lat="61.7173138932" lon="11.1604083263">
		<tag k="name" v="Jemninga" />
		<tag k="place" v="locality" />
		<tag k="ssr:stedsnr" v="177169" />
	</node>
	<node id="-91525" lat="61.4709361127" lon="11.3554472216">
		<tag k="name" v="Steindiket" />
		<tag k="natural" v="wetland" />
		<tag k="ssr:stedsnr" v="968228" />
	</node>
	<node id="-90500" lat="61.8662611126" lon="11.2752500082">
		<tag k="name" v="Tønnesbekkmyra" />
		<tag k="natural" v="wetland" />
		<tag k="ssr:stedsnr" v="617030" />
	</node>
	<node id="-89773" lat="62.0897999991" lon="11.0747944349">
		<tag k="alt_name" v="Lauvåsmyrene" />
		<tag k="name" v="Lauvåsmyra" />
		<tag k="natural" v="wetland" />
		<tag k="ssr:stedsnr" v="253117" />
	</node>
	<node id="-91010" lat="61.7701722233" lon="10.8282861049">
		<tag k="name" v="Nefloen" />
		<tag k="natural" v="wetland" />
		<tag k="ssr:stedsnr" v="786315" />
	</node>
	<node id="-91521" lat="61.6908638901" lon="11.1646250027">
		<tag k="name" v="Skjeftmyra" />
		<tag k="natural" v="wetland" />
		<tag k="ssr:stedsnr" v="968091" />
	</node>
	<node id="-91518" lat="61.9392305551" lon="11.1110138833">
		<tag k="landuse" v="meadow" />
		<tag k="name" v="Setan" />
		<tag k="ssr:stedsnr" v="968074" />
	</node>
	<node id="-89493" lat="61.8806138908" lon="11.1955138847">
		<tag k="name" v="Kvitmyra" />
		<tag k="natural" v="wetland" />
		<tag k="ssr:stedsnr" v="178193" />
	</node>
	<node id="-89468" lat="61.785827774" lon="11.1983305468">
		<tag k="alt_name" v="Bergvollen" />
		<tag k="historic" v="shieling" />
		<tag k="name" v="Bergevollen" />
		<tag k="place" v="locality" />
		<tag k="ssr:stedsnr" v="148426" />
	</node>
	<node id="-90491" lat="62.0484750033" lon="11.1442861089">
		<tag k="alt_name" v="Økjoten" />
		<tag k="name" v="Øygjotmyra" />
		<tag k="natural" v="wetland" />
		<tag k="ssr:stedsnr" v="617001" />
	</node>
	<node id="-88919" lat="61.6955138855" lon="11.2388444494">
		<tag k="name" v="Vassbekkmyra" />
		<tag k="natural" v="wetland" />
		<tag k="ssr:stedsnr" v="374386" />
	</node>
	<node id="-91512" lat="61.7685777783" lon="10.9093499991">
		<tag k="name" v="Oksmyra" />
		<tag k="natural" v="wetland" />
		<tag k="ssr:stedsnr" v="967415" />
	</node>
	<node id="-91510" lat="61.7698055587" lon="10.8584611166">
		<tag k="name" v="Kampmyra" />
		<tag k="natural" v="wetland" />
		<tag k="ssr:stedsnr" v="967355" />
	</node>
	<node id="-90995" lat="61.6405972249" lon="11.1354027686">
		<tag k="name" v="Lykkjemyra" />
		<tag k="natural" v="wetland" />
		<tag k="ssr:stedsnr" v="785886" />
	</node>
	<node id="-90994" lat="61.8213000006" lon="11.0023750055">
		<tag k="name" v="Stormyra" />
		<tag k="natural" v="wetland" />
		<tag k="ssr:stedsnr" v="785801" />
	</node>
	<node id="-89457" lat="61.8628944452" lon="11.1106388842">
		<tag k="name" v="Hein" />
		<tag k="place" v="locality" />
		<tag k="ssr:stedsnr" v="147014" />
	</node>
	<node id="-90991" lat="61.7842000029" lon="10.9351055475">
		<tag k="name" v="Tolengdermyra" />
		<tag k="natural" v="wetland" />
		<tag k="ssr:stedsnr" v="785394" />
	</node>
	<node id="-89149" lat="62.0553777769" lon="11.478952777">
		<tag k="name" v="Stortrøa" />
		<tag k="place" v="locality" />
		<tag k="ssr:stedsnr" v="58457" />
	</node>
	<node id="-90474" lat="61.601936112" lon="11.2362083271">
		<tag k="alt_name" v="Otersten" />
		<tag k="name" v="Otersteinen" />
		<tag k="natural" v="stone" />
		<tag k="ssr:stedsnr" v="616425" />
	</node>
	<node id="-91497" lat="61.8792277741" lon="11.1831749997">
		<tag k="name" v="Brenna" />
		<tag k="place" v="locality" />
		<tag k="ssr:stedsnr" v="966197" />
	</node>
	<node id="-88820" lat="61.6910305513" lon="11.1098722247">
		<tag k="name" v="Bessmormyra" />
		<tag k="natural" v="wetland" />
		<tag k="ssr:stedsnr" v="361086" />
	</node>
	<node id="-91494" lat="61.6911833307" lon="11.1874527859">
		<tag k="name" v="Stortalla" />
		<tag k="place" v="locality" />
		<tag k="ssr:stedsnr" v="966146" />
	</node>
	<node id="-88762" lat="61.8491166635" lon="11.1300027706">
		<tag k="name" v="Skarvbuløypa" />
		<tag k="natural" v="wetland" />
		<tag k="ssr:stedsnr" v="329027" />
	</node>
	<node id="-89951" lat="62.0783194461" lon="11.0874333335">
		<tag k="name" v="Stormyra" />
		<tag k="natural" v="wetland" />
		<tag k="ssr:stedsnr" v="436017" />
	</node>
	<node id="-89947" lat="61.7515305597" lon="11.5089888839">
		<tag k="name" v="Vassbekkmyrene" />
		<tag k="natural" v="wetland" />
		<tag k="ssr:stedsnr" v="435930" />
	</node>
	<node id="-91481" lat="61.7638916637" lon="11.160286119">
		<tag k="landuse" v="meadow" />
		<tag k="name" v="Åkertrøa" />
		<tag k="ssr:stedsnr" v="936077" />
	</node>
	<node id="-88804" lat="61.7297444416" lon="11.2276277834">
		<tag k="name" v="Langmyra" />
		<tag k="natural" v="wetland" />
		<tag k="ssr:stedsnr" v="359550" />
	</node>
	<node id="-91534" lat="61.7774472255" lon="10.8300361075">
		<tag k="name" v="Neholmsmyra" />
		<tag k="natural" v="wetland" />
		<tag k="ssr:stedsnr" v="968334" />
	</node>
	<node id="-89938" lat="61.6435777737" lon="11.1239805469">
		<tag k="name" v="Lemyra" />
		<tag k="natural" v="wetland" />
		<tag k="ssr:stedsnr" v="435505" />
	</node>
	<node id="-91192" lat="62.0036111098" lon="11.1734694416">
		<tag k="name" v="Sætermyra" />
		<tag k="natural" v="wetland" />
		<tag k="ssr:stedsnr" v="847327" />
	</node>
	<node id="-89859" lat="62.0725416667" lon="11.4645138956">
		<tag k="name" v="Søndre Øya" />
		<tag k="place" v="locality" />
		<tag k="ssr:stedsnr" v="422406" />
	</node>
	<node id="-91191" lat="61.9976749963" lon="11.0869500092">
		<tag k="name" v="Trøenget" />
		<tag k="place" v="locality" />
		<tag k="ssr:stedsnr" v="847324" />
	</node>
	<node id="-89416" lat="62.0311583315" lon="11.1961638808">
		<tag k="alt_name" v="Bjørkmorka" />
		<tag k="name" v="Bjørkmarka" />
		<tag k="place" v="locality" />
		<tag k="ssr:stedsnr" v="132035" />
	</node>
	<node id="-90439" lat="61.9419055511" lon="11.0088138936">
		<tag k="name" v="Kolsveen" />
		<tag k="place" v="locality" />
		<tag k="ssr:stedsnr" v="604793" />
	</node>
	<node id="-88902" lat="62.099550001" lon="11.1571499933">
		<tag k="name" v="Gjotfloen" />
		<tag k="natural" v="wetland" />
		<tag k="ssr:stedsnr" v="374125" />
	</node>
	<node id="-89413" lat="62.0523000038" lon="11.1167388803">
		<tag k="name" v="Slåttmyra" />
		<tag k="natural" v="wetland" />
		<tag k="ssr:stedsnr" v="132011" />
	</node>
	<node id="-90948" lat="61.8187888917" lon="10.9420972299">
		<tag k="name" v="Børtmyra" />
		<tag k="natural" v="wetland" />
		<tag k="ssr:stedsnr" v="753492" />
	</node>
	<node id="-88921" lat="61.682224998" lon="11.1278638883">
		<tag k="name" v="Røsken" />
		<tag k="place" v="locality" />
		<tag k="ssr:stedsnr" v="374398" />
	</node>
	<node id="-91531" lat="61.9993583353" lon="11.1736722281">
		<tag k="name" v="Kummyra" />
		<tag k="natural" v="wetland" />
		<tag k="ssr:stedsnr" v="968324" />
	</node>
	<node id="-88896" lat="62.018224996" lon="11.2083972156">
		<tag k="name" v="Storbekkbørtet" />
		<tag k="natural" v="wetland" />
		<tag k="ssr:stedsnr" v="374039" />
	</node>
	<node id="-90939" lat="62.0087916693" lon="11.2007833386">
		<tag k="name" v="Tjønnmyra" />
		<tag k="natural" v="wetland" />
		<tag k="ssr:stedsnr" v="739433" />
	</node>
	<node id="-90426" lat="62.0891305562" lon="11.3913583409">
		<tag k="name" v="Storfløyet" />
		<tag k="natural" v="wetland" />
		<tag k="ssr:stedsnr" v="604352" />
	</node>
	<node id="-90425" lat="62.0860555577" lon="11.3999611091">
		<tag k="name" v="Øverkjølen" />
		<tag k="place" v="locality" />
		<tag k="ssr:stedsnr" v="604348" />
	</node>
	<node id="-89910" lat="61.8330999958" lon="10.9959250039">
		<tag k="name" v="Mjeltmyra" />
		<tag k="natural" v="wetland" />
		<tag k="ssr:stedsnr" v="435206" />
	</node>
	<node id="-91187" lat="62.059266664" lon="11.0591416594">
		<tag k="name" v="Mesmyrhauan" />
		<tag k="place" v="locality" />
		<tag k="ssr:stedsnr" v="847299" />
	</node>
	<node id="-90927" lat="61.8089166708" lon="10.7063916748">
		<tag k="alt_name" v="Lemyrane" />
		<tag k="name" v="Lemyrene" />
		<tag k="natural" v="wetland" />
		<tag k="ssr:stedsnr" v="739247" />
	</node>
	<node id="-90919" lat="61.8572527763" lon="10.9836750051">
		<tag k="name" v="Hanestadkjølen" />
		<tag k="natural" v="wetland" />
		<tag k="ssr:stedsnr" v="739145" />
	</node>
	<node id="-90918" lat="61.8606750024" lon="11.0005333322">
		<tag k="alt_name" v="Hanabekkmyra" />
		<tag k="name" v="Hanamyrene" />
		<tag k="natural" v="wetland" />
		<tag k="ssr:stedsnr" v="739142" />
	</node>
	<node id="-91014" lat="62.0731111098" lon="11.4138861081">
		<tag k="name" v="Løvåsmyra" />
		<tag k="natural" v="wetland" />
		<tag k="ssr:stedsnr" v="786340" />
	</node>
	<node id="-90402" lat="61.4747750018" lon="11.4793055487">
		<tag k="name" v="Stormyra" />
		<tag k="natural" v="wetland" />
		<tag k="ssr:stedsnr" v="603270" />
	</node>
	<node id="-91355" lat="61.9626638883" lon="11.1315000019">
		<tag k="name" v="Torvstrømyra" />
		<tag k="natural" v="wetland" />
		<tag k="ssr:stedsnr" v="907430" />
	</node>
	<node id="-90400" lat="62.0881305521" lon="11.0376611126">
		<tag k="name" v="Vestenget" />
		<tag k="place" v="locality" />
		<tag k="ssr:stedsnr" v="603265" />
	</node>
	<node id="-89375" lat="61.5048027814" lon="11.2945888842">
		<tag k="name" v="Dammyra" />
		<tag k="natural" v="wetland" />
		<tag k="ssr:stedsnr" v="131255" />
	</node>
	<node id="-88862" lat="61.9180555513" lon="10.9800583235">
		<tag k="name" v="Malmtekta" />
		<tag k="place" v="locality" />
		<tag k="ssr:stedsnr" v="361787" />
	</node>
	<node id="-90538" lat="61.9355000008" lon="10.8848083407">
		<tag k="name" v="Sjøbekkmyra" />
		<tag k="natural" v="wetland" />
		<tag k="ssr:stedsnr" v="617340" />
	</node>
	<node id="-90437" lat="61.6882750008" lon="11.2405916646">
		<tag k="name" v="Langmyra" />
		<tag k="natural" v="wetland" />
		<tag k="ssr:stedsnr" v="604684" />
	</node>
	<node id="-90795" lat="61.9311833364" lon="11.1354777762">
		<tag k="name" v="Haukåmyra" />
		<tag k="natural" v="wetland" />
		<tag k="ssr:stedsnr" v="725065" />
	</node>
	<node id="-88623" lat="61.7658722182" lon="10.892572221">
		<tag k="name" v="Puttmyra" />
		<tag k="natural" v="wetland" />
		<tag k="ssr:stedsnr" v="299471" />
	</node>
	<node id="-88856" lat="61.7186027754" lon="11.2460722156">
		<tag k="name" v="Storbrenna" />
		<tag k="place" v="locality" />
		<tag k="ssr:stedsnr" v="361668" />
	</node>
	<node id="-90244" lat="61.5399749967" lon="11.2595861054">
		<tag k="name" v="Åsmarka" />
		<tag k="place" v="locality" />
		<tag k="ssr:stedsnr" v="555231" />
	</node>
	<node id="-89878" lat="61.6172833338" lon="11.164233339">
		<tag k="name" v="Kringlemyra" />
		<tag k="natural" v="wetland" />
		<tag k="ssr:stedsnr" v="422911" />
	</node>
	<node id="-90388" lat="61.7816749988" lon="10.953788891">
		<tag k="historic" v="shieling" />
		<tag k="name" v="Kivvollen" />
		<tag k="place" v="locality" />
		<tag k="ssr:stedsnr" v="602448" />
	</node>
	<node id="-91411" lat="61.5519500011" lon="11.3687750014">
		<tag k="name" v="Veksenmyrene" />
		<tag k="natural" v="wetland" />
		<tag k="ssr:stedsnr" v="920288" />
	</node>
	<node id="-88849" lat="62.1205055553" lon="11.4777027731">
		<tag k="name" v="Kristinemyra" />
		<tag k="natural" v="wetland" />
		<tag k="ssr:stedsnr" v="361485" />
	</node>
	<node id="-91406" lat="61.7526833327" lon="11.0463499989">
		<tag k="name" v="Vangvollsmyrene" />
		<tag k="natural" v="wetland" />
		<tag k="ssr:stedsnr" v="920222" />
	</node>
	<node id="-91405" lat="61.7302611138" lon="11.0061527697">
		<tag k="name" v="Rokkmyra" />
		<tag k="natural" v="wetland" />
		<tag k="ssr:stedsnr" v="920204" />
	</node>
	<node id="-90498" lat="61.8434305522" lon="11.1227500034">
		<tag k="name" v="Østamyra" />
		<tag k="natural" v="wetland" />
		<tag k="ssr:stedsnr" v="617023" />
	</node>
	<node id="-90377" lat="61.4802638899" lon="11.3962861122">
		<tag k="name" v="Flendalsmyra" />
		<tag k="natural" v="wetland" />
		<tag k="ssr:stedsnr" v="602190" />
	</node>
	<node id="-89351" lat="61.7768305551" lon="10.9729083415">
		<tag k="name" v="Bløtmyra" />
		<tag k="natural" v="wetland" />
		<tag k="ssr:stedsnr" v="119677" />
	</node>
	<node id="-88838" lat="61.4699388932" lon="11.4691138878">
		<tag k="landuse" v="meadow" />
		<tag k="name" v="Børbruenget" />
		<tag k="ssr:stedsnr" v="361367" />
	</node>
	<node id="-91397" lat="61.6127861126" lon="11.1474722225">
		<tag k="name" v="Store Sten" />
		<tag k="natural" v="stone" />
		<tag k="ssr:stedsnr" v="908930" />
	</node>
	<node id="-88835" lat="62.0326722231" lon="11.1435777799">
		<tag k="name" v="Langmyrene" />
		<tag k="natural" v="wetland" />
		<tag k="ssr:stedsnr" v="361360" />
	</node>
	<node id="-90882" lat="61.6355500032" lon="11.122149998">
		<tag k="name" v="Malmmyra" />
		<tag k="natural" v="wetland" />
		<tag k="ssr:stedsnr" v="738468" />
	</node>
	<node id="-89345" lat="61.7570166686" lon="10.8838499923">
		<tag k="name" v="Salmyra" />
		<tag k="natural" v="wetland" />
		<tag k="ssr:stedsnr" v="119531" />
	</node>
	<node id="-91392" lat="61.9547388856" lon="10.9898222132">
		<tag k="name" v="Trøenget" />
		<tag k="place" v="locality" />
		<tag k="ssr:stedsnr" v="908812" />
	</node>
	<node id="-89853" lat="62.0111500009" lon="11.1917749939">
		<tag k="name" v="Storbekkjølen" />
		<tag k="natural" v="wetland" />
		<tag k="ssr:stedsnr" v="422305" />
	</node>
	<node id="-89340" lat="62.0335499975" lon="11.5678111113">
		<tag k="name" v="Langmyra" />
		<tag k="natural" v="wetland" />
		<tag k="ssr:stedsnr" v="119462" />
	</node>
	<node id="-88827" lat="62.0017500003" lon="11.0874194524">
		<tag k="name" v="Nautenget" />
		<tag k="place" v="locality" />
		<tag k="ssr:stedsnr" v="361338" />
	</node>
	<node id="-91386" lat="61.957016665" lon="10.9440638858">
		<tag k="name" v="Stormyra" />
		<tag k="natural" v="wetland" />
		<tag k="ssr:stedsnr" v="908673" />
	</node>
	<node id="-89846" lat="61.814652779" lon="10.8022055474">
		<tag k="name" v="Blåura" />
		<tag k="natural" v="scree" />
		<tag k="ssr:stedsnr" v="422283" />
	</node>
	<node id="-89333" lat="62.0943749968" lon="11.0128194505">
		<tag k="name" v="Sættan" />
		<tag k="place" v="locality" />
		<tag k="ssr:stedsnr" v="119335" />
	</node>
	<node id="-89332" lat="62.0424111127" lon="11.1364888811">
		<tag k="name" v="Grønbakken" />
		<tag k="place" v="locality" />
		<tag k="ssr:stedsnr" v="119333" />
	</node>
	<node id="-89843" lat="62.0692472242" lon="11.0466277856">
		<tag k="name" v="Skauslåtten" />
		<tag k="place" v="locality" />
		<tag k="ssr:stedsnr" v="422250" />
	</node>
	<node id="-90374" lat="61.4478305602" lon="11.4018083244">
		<tag k="name" v="Nilseburusta" />
		<tag k="place" v="locality" />
		<tag k="ssr:stedsnr" v="602180" />
	</node>
	<node id="-89128" lat="61.7686083338" lon="10.8863555559">
		<tag k="name" v="Bløthølmyra" />
		<tag k="natural" v="wetland" />
		<tag k="ssr:stedsnr" v="57420" />
	</node>
	<node id="-88701" lat="61.7848527747" lon="10.8884527787">
		<tag k="alt_name" v="Tøråsmyra" />
		<tag k="name" v="Tørråsmyra" />
		<tag k="natural" v="wetland" />
		<tag k="ssr:stedsnr" v="314212" />
	</node>
	<node id="-89242" lat="61.5660333372" lon="11.3018416624">
		<tag k="name" v="Stormyra" />
		<tag k="natural" v="wetland" />
		<tag k="ssr:stedsnr" v="71489" />
	</node>
	<node id="-88810" lat="61.7297555582" lon="11.2733333428">
		<tag k="name" v="Bekkedalsmyra" />
		<tag k="natural" v="wetland" />
		<tag k="ssr:stedsnr" v="359974" />
	</node>
	<node id="-88871" lat="61.9571722238" lon="11.0623777746">
		<tag k="landuse" v="meadow" />
		<tag k="name" v="Setan" />
		<tag k="ssr:stedsnr" v="361866" />
	</node>
	<node id="-90344" lat="61.930650004" lon="11.0418388944">
		<tag k="name" v="Ivermoen" />
		<tag k="place" v="locality" />
		<tag k="ssr:stedsnr" v="572016" />
	</node>
	<node id="-89831" lat="61.7666833302" lon="10.8667805511">
		<tag k="name" v="Bumyra" />
		<tag k="natural" v="wetland" />
		<tag k="ssr:stedsnr" v="421375" />
	</node>
	<node id="-91365" lat="61.953113891" lon="11.1287416695">
		<tag k="name" v="Bergemyra" />
		<tag k="natural" v="wetland" />
		<tag k="ssr:stedsnr" v="908130" />
	</node>
	<node id="-90852" lat="62.0389361124" lon="11.1955944464">
		<tag k="name" v="Gråfjellmyrene" />
		<tag k="natural" v="wetland" />
		<tag k="ssr:stedsnr" v="738010" />
	</node>
	<node id="-91475" lat="61.8581611152" lon="11.0919638824">
		<tag k="landuse" v="quarry" />
		<tag k="name" v="Sandbekken Tverrslag" />
		<tag k="ssr:stedsnr" v="936027" />
	</node>
	<node id="-91162" lat="61.6567805542" lon="11.0863611072">
		<tag k="name" v="Molteholet" />
		<tag k="natural" v="wetland" />
		<tag k="ssr:stedsnr" v="845011" />
	</node>
	<node id="-88795" lat="61.4876861143" lon="11.3941000025">
		<tag k="name" v="Høybakkmyrene" />
		<tag k="natural" v="wetland" />
		<tag k="ssr:stedsnr" v="359191" />
	</node>
	<node id="-88794" lat="61.4635333319" lon="11.435369447">
		<tag k="name" v="Søndre Skjærbergsmyra" />
		<tag k="natural" v="wetland" />
		<tag k="ssr:stedsnr" v="359183" />
	</node>
	<node id="-88793" lat="61.4728833362" lon="11.382147221">
		<tag k="name" v="Langmyra" />
		<tag k="natural" v="wetland" />
		<tag k="ssr:stedsnr" v="359181" />
	</node>
	<node id="-89303" lat="61.4358249995" lon="11.2812388892">
		<tag k="historic" v="shieling" />
		<tag k="name" v="Glesåvollen" />
		<tag k="place" v="locality" />
		<tag k="ssr:stedsnr" v="117310" />
	</node>
	<node id="-90355" lat="61.783411111" lon="11.1704333297">
		<tag k="name" v="Rørmyra" />
		<tag k="natural" v="wetland" />
		<tag k="ssr:stedsnr" v="572423" />
	</node>
	<node id="-89514" lat="61.9828333319" lon="11.0290361133">
		<tag k="name" v="Grønnstripan" />
		<tag k="natural" v="wetland" />
		<tag k="ssr:stedsnr" v="179326" />
	</node>
	<node id="-91346" lat="61.7775305532" lon="10.9110333361">
		<tag k="name" v="Finnbumyra" />
		<tag k="natural" v="wetland" />
		<tag k="ssr:stedsnr" v="906463" />
	</node>
	<node id="-90403" lat="62.0022138896" lon="11.0908805528">
		<tag k="name" v="Betengene" />
		<tag k="place" v="locality" />
		<tag k="ssr:stedsnr" v="603280" />
	</node>
	<node id="-91344" lat="61.7731833373" lon="10.9487249986">
		<tag k="name" v="Mjovassmyra" />
		<tag k="natural" v="wetland" />
		<tag k="ssr:stedsnr" v="906459" />
	</node>
	<node id="-89295" lat="61.6512111123" lon="11.1389805544">
		<tag k="name" v="Engemyra" />
		<tag k="natural" v="wetland" />
		<tag k="ssr:stedsnr" v="117001" />
	</node>
	<node id="-90318" lat="62.0415361107" lon="11.3476111156">
		<tag k="name" v="Meimyra" />
		<tag k="natural" v="wetland" />
		<tag k="ssr:stedsnr" v="556460" />
	</node>
	<node id="-89804" lat="62.0633611098" lon="11.1809944418">
		<tag k="name" v="Gloppmyra" />
		<tag k="natural" v="wetland" />
		<tag k="ssr:stedsnr" v="254010" />
	</node>
	<node id="-91339" lat="61.7687361107" lon="10.8684194489">
		<tag k="name" v="Grasmyra" />
		<tag k="natural" v="wetland" />
		<tag k="ssr:stedsnr" v="906391" />
	</node>
	<node id="-88777" lat="61.6387638904" lon="11.1385666751">
		<tag k="name" v="Storhesjemyra" />
		<tag k="natural" v="wetland" />
		<tag k="ssr:stedsnr" v="119902" />
	</node>
	<node id="-89292" lat="61.7554777806" lon="10.8561694426">
		<tag k="name" v="Tjønnbekkmyra" />
		<tag k="natural" v="wetland" />
		<tag k="ssr:stedsnr" v="95689" />
	</node>
	<node id="-90401" lat="62.088447218" lon="11.0437888942">
		<tag k="name" v="Rytterbotn" />
		<tag k="place" v="locality" />
		<tag k="ssr:stedsnr" v="603269" />
	</node>
	<node id="-91332" lat="61.450038892" lon="11.3871972218">
		<tag k="name" v="Stormyra" />
		<tag k="natural" v="wetland" />
		<tag k="ssr:stedsnr" v="906187" />
	</node>
	<node id="-90998" lat="61.6653777784" lon="11.1764749975">
		<tag k="name" v="Vårsætermyrene" />
		<tag k="natural" v="wetland" />
		<tag k="ssr:stedsnr" v="786073" />
	</node>
	<node id="-91330" lat="61.7149166664" lon="11.1696194528">
		<tag k="name" v="Lijordet" />
		<tag k="place" v="locality" />
		<tag k="ssr:stedsnr" v="906165" />
	</node>
	<node id="-89803" lat="61.8886388858" lon="11.4249000005">
		<tag k="alt_name" v="Tannvordsmyra" />
		<tag k="name" v="Tannvolsmyra" />
		<tag k="natural" v="wetland" />
		<tag k="ssr:stedsnr" v="254008" />
	</node>
	<node id="-90792" lat="61.6375333336" lon="11.1652777849">
		<tag k="name" v="Store Sten" />
		<tag k="natural" v="stone" />
		<tag k="ssr:stedsnr" v="724901" />
	</node>
	<node id="-90302" lat="61.9360027816" lon="11.2529500058">
		<tag k="name" v="Skånborkemyrene" />
		<tag k="natural" v="wetland" />
		<tag k="old_name" v="Skånborkemyrane" />
		<tag k="ssr:stedsnr" v="556287" />
	</node>
	<node id="-91325" lat="62.1171333307" lon="11.0072888914">
		<tag k="name" v="Tegnodden" />
		<tag k="place" v="locality" />
		<tag k="ssr:stedsnr" v="902056" />
	</node>
	<node id="-88763" lat="61.8445805577" lon="11.113580547">
		<tag k="landuse" v="meadow" />
		<tag k="name" v="Bergsetenget" />
		<tag k="ssr:stedsnr" v="329036" />
	</node>
	<node id="-89274" lat="61.7957833377" lon="10.9572527841">
		<tag k="name" v="Vollbekkmyra" />
		<tag k="natural" v="wetland" />
		<tag k="ssr:stedsnr" v="86567" />
	</node>
	<node id="-90399" lat="62.0801194447" lon="11.0628361071">
		<tag k="name" v="Hemåsmyra" />
		<tag k="natural" v="wetland" />
		<tag k="ssr:stedsnr" v="603262" />
	</node>
	<node id="-90825" lat="62.0561083321" lon="11.556219453">
		<tag k="name" v="Langmyra" />
		<tag k="natural" v="wetland" />
		<tag k="ssr:stedsnr" v="726446" />
	</node>
	<node id="-91316" lat="61.8145166652" lon="11.1345277764">
		<tag k="name" v="Revsand" />
		<tag k="natural" v="beach" />
		<tag k="ssr:stedsnr" v="876382" />
		<tag k="surface" v="sand" />
	</node>
	<node id="-90398" lat="61.4847555518" lon="11.3362083312">
		<tag k="name" v="Kvernbergsmyra" />
		<tag k="natural" v="wetland" />
		<tag k="ssr:stedsnr" v="603222" />
	</node>
	<node id="-91311" lat="61.8609527773" lon="11.1125750052">
		<tag k="name" v="Kverningmoen" />
		<tag k="place" v="locality" />
		<tag k="ssr:stedsnr" v="876024" />
	</node>
	<node id="-89262" lat="61.852036111" lon="10.9874249909">
		<tag k="name" v="Kloppåsmyra" />
		<tag k="natural" v="wetland" />
		<tag k="ssr:stedsnr" v="72151" />
	</node>
	<node id="-91309" lat="61.832316665" lon="10.870769439">
		<tag k="name" v="Kvennhusmyra" />
		<tag k="natural" v="wetland" />
		<tag k="ssr:stedsnr" v="874552" />
	</node>
	<node id="-89990" lat="61.4672194488" lon="11.3578666735">
		<tag k="name" v="Bjørneltmyra" />
		<tag k="natural" v="wetland" />
		<tag k="ssr:stedsnr" v="481197" />
	</node>
	<node id="-90868" lat="61.5345777811" lon="11.1625750074">
		<tag k="name" v="Storåsmyra" />
		<tag k="natural" v="wetland" />
		<tag k="ssr:stedsnr" v="738313" />
	</node>
	<node id="-91064" lat="61.6961250012" lon="11.6576777718">
		<tag k="alt_name" v="Tøråskjølen" />
		<tag k="name" v="Tørråskjølen" />
		<tag k="natural" v="wetland" />
		<tag k="ssr:stedsnr" v="799367" />
	</node>
	<node id="-90791" lat="61.782213892" lon="11.4969000086">
		<tag k="name" v="Stormyra" />
		<tag k="natural" v="wetland" />
		<tag k="ssr:stedsnr" v="724806" />
	</node>
	<node id="-91302" lat="61.8360500018" lon="11.4941388843">
		<tag k="name" v="Halvorsfløyet" />
		<tag k="natural" v="wetland" />
		<tag k="ssr:stedsnr" v="861964" />
	</node>
	<node id="-90789" lat="61.8043194413" lon="11.47691944">
		<tag k="name" v="Multmyrene" />
		<tag k="natural" v="wetland" />
		<tag k="ssr:stedsnr" v="724800" />
	</node>
	<node id="-90274" lat="61.8259944466" lon="11.4058194477">
		<tag k="name" v="Stormyra" />
		<tag k="natural" v="wetland" />
		<tag k="ssr:stedsnr" v="556021" />
	</node>
	<node id="-89249" lat="61.8012777748" lon="11.4688833336">
		<tag k="name" v="Slåttmyra" />
		<tag k="natural" v="wetland" />
		<tag k="ssr:stedsnr" v="71959" />
	</node>
	<node id="-91294" lat="61.8682583318" lon="10.8585194392">
		<tag k="alt_name" v="Kvolvmyra" />
		<tag k="name" v="Kvelvmyra" />
		<tag k="natural" v="wetland" />
		<tag k="ssr:stedsnr" v="861130" />
	</node>
	<node id="-90780" lat="61.7740527756" lon="10.8636499963">
		<tag k="name" v="Kølbrennermyra" />
		<tag k="natural" v="wetland" />
		<tag k="ssr:stedsnr" v="724399" />
	</node>
	<node id="-90779" lat="61.7173027748" lon="11.3673805493">
		<tag k="name" v="Renåmyra" />
		<tag k="natural" v="wetland" />
		<tag k="ssr:stedsnr" v="724375" />
	</node>
	<node id="-90535" lat="61.9241666639" lon="11.3507972242">
		<tag k="name" v="Horndalsbørtet" />
		<tag k="natural" v="wetland" />
		<tag k="old_name" v="Horndalsbyrtet" />
		<tag k="ssr:stedsnr" v="617274" />
	</node>
	<node id="-91289" lat="62.060725002" lon="11.153325001">
		<tag k="name" v="Slåttmyra" />
		<tag k="natural" v="wetland" />
		<tag k="ssr:stedsnr" v="861009" />
	</node>
	<node id="-89751" lat="61.9115777745" lon="10.539302785">
		<tag k="historic" v="shieling" />
		<tag k="name" v="Hattfløyvangen" />
		<tag k="place" v="locality" />
		<tag k="ssr:stedsnr" v="252441" />
	</node>
	<node id="-91285" lat="61.782199996" lon="11.4837777829">
		<tag k="name" v="Strupmyra" />
		<tag k="natural" v="wetland" />
		<tag k="ssr:stedsnr" v="860948" />
	</node>
	<node id="-90016" lat="61.9348250018" lon="11.0949611176">
		<tag k="name" v="Stormyra" />
		<tag k="natural" v="wetland" />
		<tag k="ssr:stedsnr" v="482063" />
	</node>
	<node id="-89921" lat="61.6814722245" lon="11.4810277728">
		<tag k="name" v="Slåttmyra" />
		<tag k="natural" v="wetland" />
		<tag k="ssr:stedsnr" v="435395" />
	</node>
	<node id="-90313" lat="61.6609222189" lon="11.6397638816">
		<tag k="name" v="Osdalssjømyrene" />
		<tag k="natural" v="wetland" />
		<tag k="ssr:stedsnr" v="556428" />
	</node>
	<node id="-88718" lat="62.1299666695" lon="11.094919453">
		<tag k="name" v="Storbekkfløyet" />
		<tag k="natural" v="wetland" />
		<tag k="ssr:stedsnr" v="314093" />
	</node>
	<node id="-91380" lat="62.0331805572" lon="11.4685611129">
		<tag k="name" v="Stormyra" />
		<tag k="natural" v="wetland" />
		<tag k="ssr:stedsnr" v="908471" />
	</node>
	<node id="-89739" lat="61.5090472981" lon="11.375115879">
		<tag k="fixme" v="multiple name tags, choose one and add the other to alt_name" />
		<tag k="name" v="Gammelsæterkjølen;Storkjølen" />
		<tag k="natural" v="wetland" />
		<tag k="ssr:stedsnr" v="252240" />
	</node>
	<node id="-90250" lat="61.7014027779" lon="11.108874992">
		<tag k="name" v="Vollmyra" />
		<tag k="natural" v="wetland" />
		<tag k="ssr:stedsnr" v="555318" />
	</node>
	<node id="-89225" lat="61.6558" lon="11.4815249952">
		<tag k="name" v="Blæsterbekkjølen" />
		<tag k="natural" v="wetland" />
		<tag k="ssr:stedsnr" v="71401" />
	</node>
	<node id="-90220" lat="61.5602055536" lon="11.1542388896">
		<tag k="name" v="Torvstrømyra" />
		<tag k="natural" v="wetland" />
		<tag k="ssr:stedsnr" v="543807" />
	</node>
	<node id="-88769" lat="61.9149638873" lon="11.0727583427">
		<tag k="landuse" v="meadow" />
		<tag k="name" v="Kvisla" />
		<tag k="ssr:stedsnr" v="329419" />
	</node>
	<node id="-89220" lat="61.8224722234" lon="10.6987333353">
		<tag k="alt_name" v="Nelimyrane" />
		<tag k="name" v="Nelimyrene" />
		<tag k="natural" v="wetland" />
		<tag k="ssr:stedsnr" v="71285" />
	</node>
	<node id="-90390" lat="61.7782805561" lon="10.9549388895">
		<tag k="name" v="Kivvollmyra" />
		<tag k="natural" v="wetland" />
		<tag k="ssr:stedsnr" v="602452" />
	</node>
	<node id="-89215" lat="61.7821972181" lon="10.9241750064">
		<tag k="name" v="Stormyra" />
		<tag k="natural" v="wetland" />
		<tag k="ssr:stedsnr" v="71218" />
	</node>
	<node id="-89725" lat="61.6186888934" lon="11.1450833263">
		<tag k="name" v="Midtskogmyra" />
		<tag k="natural" v="wetland" />
		<tag k="ssr:stedsnr" v="240917" />
	</node>
	<node id="-89724" lat="61.6353194438" lon="11.1322583289">
		<tag k="name" v="Starrmyra" />
		<tag k="natural" v="wetland" />
		<tag k="ssr:stedsnr" v="240897" />
	</node>
	<node id="-91259" lat="61.8023885135" lon="11.0509850484">
		<tag k="fixme" v="multiple name tags, choose one and add the other to alt_name" />
		<tag k="name" v="Hornsetmyra;Stormyra" />
		<tag k="natural" v="wetland" />
		<tag k="ssr:stedsnr" v="860218" />
	</node>
	<node id="-89721" lat="62.0342500025" lon="11.0728305551">
		<tag k="name" v="Langleitet" />
		<tag k="place" v="locality" />
		<tag k="ssr:stedsnr" v="240840" />
	</node>
	<node id="-91254" lat="61.8828249986" lon="11.0308249936">
		<tag k="alt_name" v="Kjelåsmyra" />
		<tag k="name" v="Kjelåsmyrene" />
		<tag k="natural" v="wetland" />
		<tag k="ssr:stedsnr" v="860163" />
	</node>
	<node id="-90261" lat="61.8645638915" lon="10.6845000085">
		<tag k="name" v="Stormyra" />
		<tag k="natural" v="wetland" />
		<tag k="ssr:stedsnr" v="555422" />
	</node>
	<node id="-90228" lat="61.6268666654" lon="11.1410083245">
		<tag k="name" v="Blestermyra" />
		<tag k="natural" v="wetland" />
		<tag k="ssr:stedsnr" v="543881" />
	</node>
	<node id="-90222" lat="62.0292861108" lon="11.0809694354">
		<tag k="name" v="Fridtjofenget" />
		<tag k="place" v="locality" />
		<tag k="ssr:stedsnr" v="543831" />
	</node>
	<node id="-90732" lat="61.9285249994" lon="11.1605694365">
		<tag k="name" v="Vierrismyrene" />
		<tag k="natural" v="wetland" />
		<tag k="ssr:stedsnr" v="678264" />
	</node>
	<node id="-89194" lat="61.5727749969" lon="11.4956277752">
		<tag k="name" v="Nottjønnkjølen" />
		<tag k="natural" v="wetland" />
		<tag k="ssr:stedsnr" v="70295" />
	</node>
	<node id="-88681" lat="61.5355277735" lon="11.4519944488">
		<tag k="name" v="Flenkjølen" />
		<tag k="natural" v="wetland" />
		<tag k="ssr:stedsnr" v="313286" />
	</node>
	<node id="-91240" lat="61.7570583295" lon="11.3328194347">
		<tag k="alt_name" v="Gjitlaugmyra" />
		<tag k="name" v="Geitlaugmyra" />
		<tag k="natural" v="wetland" />
		<tag k="ssr:stedsnr" v="860068" />
	</node>
	<node id="-90897" lat="61.8074999978" lon="11.220002778">
		<tag k="loc_name" v="Purksundmyra" />
		<tag k="name" v="Purktjønnmyra" />
		<tag k="natural" v="wetland" />
		<tag k="ssr:stedsnr" v="739034" />
	</node>
	<node id="-90212" lat="61.9670027752" lon="11.085077785">
		<tag k="name" v="Stormyra" />
		<tag k="natural" v="wetland" />
		<tag k="ssr:stedsnr" v="543473" />
	</node>
	<node id="-90211" lat="61.9695444418" lon="11.1910388946">
		<tag k="name" v="Størtjønnmyrene" />
		<tag k="natural" v="wetland" />
		<tag k="ssr:stedsnr" v="543467" />
	</node>
	<node id="-90210" lat="62.0370749968" lon="11.5325944427">
		<tag k="name" v="Sjømyra" />
		<tag k="natural" v="wetland" />
		<tag k="ssr:stedsnr" v="543421" />
	</node>
	<node id="-89697" lat="62.0257944464" lon="11.5293138977">
		<tag k="name" v="Gjerdinga" />
		<tag k="place" v="locality" />
		<tag k="ssr:stedsnr" v="240433" />
	</node>
	<node id="-90207" lat="62.1112916665" lon="11.0162750042">
		<tag k="name" v="Bjørdamoen" />
		<tag k="place" v="locality" />
		<tag k="ssr:stedsnr" v="543345" />
	</node>
	<node id="-89182" lat="61.639611113" lon="11.1291083411">
		<tag k="name" v="Stormyra" />
		<tag k="natural" v="wetland" />
		<tag k="ssr:stedsnr" v="58900" />
	</node>
	<node id="-90717" lat="61.9523750021" lon="11.4749472247">
		<tag k="name" v="Åkeråmyra" />
		<tag k="natural" v="wetland" />
		<tag k="ssr:stedsnr" v="678097" />
	</node>
	<node id="-91228" lat="61.5398166699" lon="11.2457083324">
		<tag k="alt_name" v="Vesleæterbutomta" />
		<tag k="historic" v="shieling" />
		<tag k="name" v="Veslsætra" />
		<tag k="place" v="locality" />
		<tag k="ssr:stedsnr" v="859257" />
	</node>
	<node id="-89530" lat="61.7669500043" lon="10.9632444382">
		<tag k="name" v="Åsmyra" />
		<tag k="natural" v="wetland" />
		<tag k="ssr:stedsnr" v="179640" />
	</node>
	<node id="-89178" lat="61.8410499977" lon="10.9790888939">
		<tag k="name" v="Kvitmyra" />
		<tag k="natural" v="wetland" />
		<tag k="ssr:stedsnr" v="58787" />
	</node>
	<node id="-91283" lat="62.1812638859" lon="11.2281083398">
		<tag k="name" v="Vedhundfløyet" />
		<tag k="natural" v="wetland" />
		<tag k="ssr:stedsnr" v="860526" />
	</node>
	<node id="-90200" lat="61.685441667" lon="11.1308638871">
		<tag k="name" v="Langmyra" />
		<tag k="natural" v="wetland" />
		<tag k="ssr:stedsnr" v="543101" />
	</node>
	<node id="-90297" lat="61.9978111135" lon="11.1207472153">
		<tag k="name" v="Kvilsteinmyra" />
		<tag k="natural" v="wetland" />
		<tag k="ssr:stedsnr" v="556236" />
	</node>
	<node id="-88660" lat="61.7170111114" lon="11.2561444495">
		<tag k="name" v="Lauvhusmyra" />
		<tag k="natural" v="wetland" />
		<tag k="ssr:stedsnr" v="301643" />
	</node>
	<node id="-89699" lat="62.0827611104" lon="11.4945805495">
		<tag k="name" v="Krokettbekkmyra" />
		<tag k="natural" v="wetland" />
		<tag k="ssr:stedsnr" v="240448" />
	</node>
	<node id="-90191" lat="61.7394111134" lon="11.5933611207">
		<tag k="name" v="Hornsetmyrene" />
		<tag k="natural" v="wetland" />
		<tag k="ssr:stedsnr" v="542948" />
	</node>
	<node id="-89322" lat="61.9746611108" lon="11.0931583354">
		<tag k="name" v="Løkrosmyra" />
		<tag k="natural" v="wetland" />
		<tag k="ssr:stedsnr" v="118427" />
	</node>
	<node id="-89165" lat="61.9499805579" lon="11.1613194531">
		<tag k="name" v="Langebekkmyrene" />
		<tag k="natural" v="wetland" />
		<tag k="ssr:stedsnr" v="58519" />
	</node>
	<node id="-90396" lat="61.9497000011" lon="11.1183888907">
		<tag k="landuse" v="meadow" />
		<tag k="name" v="Setan" />
		<tag k="ssr:stedsnr" v="603091" />
	</node>
	<node id="-88674" lat="61.6080222232" lon="11.1696222246">
		<tag k="name" v="Vierrismyra" />
		<tag k="natural" v="wetland" />
		<tag k="ssr:stedsnr" v="301917" />
	</node>
	<node id="-88647" lat="61.7262305574" lon="11.1050555619">
		<tag k="landuse" v="meadow" />
		<tag k="name" v="Småvolla" />
		<tag k="ssr:stedsnr" v="301173" />
	</node>
	<node id="-90748" lat="61.54787778" lon="11.3029944486">
		<tag k="name" v="Andtjønnkjølen" />
		<tag k="natural" v="wetland" />
		<tag k="ssr:stedsnr" v="691478" />
	</node>
	<node id="-90140" lat="61.7803638897" lon="11.2669777698">
		<tag k="name" v="Fuggsjømyrene" />
		<tag k="natural" v="wetland" />
		<tag k="ssr:stedsnr" v="505302" />
	</node>
	<node id="-89156" lat="62.0755694409" lon="11.4227250045">
		<tag k="name" v="Vest i Joten" />
		<tag k="place" v="locality" />
		<tag k="ssr:stedsnr" v="58362" />
	</node>
	<node id="-91203" lat="62.0476944419" lon="11.5004194525">
		<tag k="name" v="Kvitmyra" />
		<tag k="natural" v="wetland" />
		<tag k="ssr:stedsnr" v="847452" />
	</node>
	<node id="-88642" lat="61.9759194482" lon="11.1185749996">
		<tag k="name" v="Veslefugldyet" />
		<tag k="natural" v="wetland" />
		<tag k="ssr:stedsnr" v="300476" />
	</node>
	<node id="-90176" lat="61.4709361075" lon="11.3913000012">
		<tag k="name" v="Vestmyra" />
		<tag k="natural" v="wetland" />
		<tag k="ssr:stedsnr" v="542183" />
	</node>
	<node id="-90174" lat="61.4623277819" lon="11.4043583351">
		<tag k="name" v="Firkantmyra" />
		<tag k="natural" v="wetland" />
		<tag k="ssr:stedsnr" v="542179" />
	</node>
	<node id="-90037" lat="61.8399888855" lon="10.8946527719">
		<tag k="name" v="Skulhusmyra" />
		<tag k="natural" v="wetland" />
		<tag k="ssr:stedsnr" v="483624" />
	</node>
	<node id="-89148" lat="62.0710027795" lon="11.468933332">
		<tag k="name" v="Tjønnmyra" />
		<tag k="natural" v="wetland" />
		<tag k="ssr:stedsnr" v="58452" />
	</node>
	<node id="-91194" lat="62.0478388907" lon="11.1337138873">
		<tag k="name" v="Lortikje" />
		<tag k="natural" v="wetland" />
		<tag k="ssr:stedsnr" v="847341" />
	</node>
	<node id="-89144" lat="61.7544277811" lon="11.4393638822">
		<tag k="name" v="Grønmyra" />
		<tag k="natural" v="wetland" />
		<tag k="ssr:stedsnr" v="58330" />
	</node>
	<node id="-89143" lat="61.9943499958" lon="11.1734444456">
		<tag k="name" v="Bumyra" />
		<tag k="natural" v="wetland" />
		<tag k="ssr:stedsnr" v="58329" />
	</node>
	<node id="-89140" lat="61.4876472187" lon="11.5376222228">
		<tag k="historic" v="shieling" />
		<tag k="name" v="Gammelvollen" />
		<tag k="place" v="locality" />
		<tag k="ssr:stedsnr" v="58322" />
	</node>
	<node id="-89694" lat="62.1125749959" lon="11.4385388874">
		<tag k="name" v="Finnjota" />
		<tag k="natural" v="wetland" />
		<tag k="ssr:stedsnr" v="240418" />
	</node>
	<node id="-89138" lat="62.0736250019" lon="11.0472472265">
		<tag k="name" v="Nedre Vesleenget" />
		<tag k="place" v="locality" />
		<tag k="ssr:stedsnr" v="58306" />
	</node>
	<node id="-88625" lat="61.8083361132" lon="10.9634555472">
		<tag k="name" v="Hanestadstripene" />
		<tag k="natural" v="wetland" />
		<tag k="ssr:stedsnr" v="299748" />
	</node>
	<node id="-89135" lat="61.6429277755" lon="11.1474888949">
		<tag k="name" v="Ulbekkmyra" />
		<tag k="natural" v="wetland" />
		<tag k="ssr:stedsnr" v="58080" />
	</node>
	<node id="-91181" lat="61.6574583362" lon="11.1414972247">
		<tag k="name" v="Rymyra" />
		<tag k="natural" v="wetland" />
		<tag k="ssr:stedsnr" v="847085" />
	</node>
	<node id="-89132" lat="61.6213194454" lon="11.1418583246">
		<tag k="name" v="Midtskogmyra" />
		<tag k="natural" v="wetland" />
		<tag k="ssr:stedsnr" v="57892" />
	</node>
	<node id="-90154" lat="61.9103777759" lon="11.0633222244">
		<tag k="name" v="Myrhaugene" />
		<tag k="place" v="locality" />
		<tag k="ssr:stedsnr" v="512456" />
	</node>
	<node id="-90375" lat="61.4661138902" lon="11.377016663">
		<tag k="name" v="Fuglåsmyra" />
		<tag k="natural" v="wetland" />
		<tag k="ssr:stedsnr" v="602184" />
	</node>
	<node id="-90804" lat="62.0408583309" lon="11.1900361082">
		<tag k="name" v="Mokkmyrene" />
		<tag k="natural" v="wetland" />
		<tag k="ssr:stedsnr" v="725315" />
	</node>
	<node id="-89639" lat="61.8043555551" lon="10.9497694432">
		<tag k="name" v="Klettmyra" />
		<tag k="natural" v="wetland" />
		<tag k="ssr:stedsnr" v="208557" />
	</node>
	<node id="-91174" lat="61.7689194423" lon="10.8644222191">
		<tag k="name" v="Haugmyra" />
		<tag k="natural" v="wetland" />
		<tag k="ssr:stedsnr" v="846366" />
	</node>
	<node id="-90033" lat="61.7867222197" lon="10.7394194497">
		<tag k="name" v="Elgmyra" />
		<tag k="natural" v="wetland" />
		<tag k="ssr:stedsnr" v="483330" />
	</node>
	<node id="-89124" lat="61.750566663" lon="11.48503055">
		<tag k="name" v="Nøklåkjølen" />
		<tag k="natural" v="wetland" />
		<tag k="ssr:stedsnr" v="56794" />
	</node>
	<node id="-88611" lat="61.65624167" lon="11.0992249935">
		<tag k="name" v="Orrfuglholtet" />
		<tag k="place" v="locality" />
		<tag k="ssr:stedsnr" v="299026" />
	</node>
	<node id="-88610" lat="62.1542083302" lon="11.4358999923">
		<tag k="historic" v="shieling" />
		<tag k="name" v="Gamle Orvdalsvollen" />
		<tag k="place" v="locality" />
		<tag k="ssr:stedsnr" v="297742" />
	</node>
	<node id="-90971" lat="62.1183083355" lon="11.0074722215">
		<tag k="name" v="Blæstermyra" />
		<tag k="natural" v="wetland" />
		<tag k="ssr:stedsnr" v="780073" />
	</node>
	<node id="-91568" lat="61.6397888877" lon="11.1072888808">
		<tag k="name" v="Småmyra" />
		<tag k="natural" v="wetland" />
		<tag k="ssr:stedsnr" v="968899" />
	</node>
	<node id="-90142" lat="61.8256055519" lon="10.8529194451">
		<tag k="landuse" v="meadow" />
		<tag k="name" v="Sveen" />
		<tag k="ssr:stedsnr" v="509508" />
	</node>
	<node id="-90885" lat="61.6062249964" lon="11.1561361082">
		<tag k="alt_name" v="Fuglemyra" />
		<tag k="name" v="Fuglmyra" />
		<tag k="natural" v="wetland" />
		<tag k="ssr:stedsnr" v="738475" />
	</node>
	<node id="-91164" lat="61.5869444444" lon="11.2637166581">
		<tag k="name" v="Niermyra" />
		<tag k="natural" v="wetland" />
		<tag k="ssr:stedsnr" v="845330" />
	</node>
	<node id="-89114" lat="61.9337972266" lon="11.1684777813">
		<tag k="name" v="Viermyra" />
		<tag k="natural" v="wetland" />
		<tag k="ssr:stedsnr" v="56177" />
	</node>
	<node id="-90649" lat="61.4744916657" lon="11.6116416747">
		<tag k="alt_name" v="Sylismyra" />
		<tag k="name" v="Syljismyra" />
		<tag k="natural" v="wetland" />
		<tag k="ssr:stedsnr" v="675243" />
	</node>
	<node id="-91160" lat="62.021533331" lon="11.0290250035">
		<tag k="name" v="Røskfløyet" />
		<tag k="natural" v="wetland" />
		<tag k="ssr:stedsnr" v="847848" />
	</node>
	<node id="-89111" lat="61.6496000044" lon="11.1280138906">
		<tag k="name" v="Lallemyra" />
		<tag k="natural" v="wetland" />
		<tag k="ssr:stedsnr" v="56001" />
	</node>
	<node id="-91158" lat="61.7020666643" lon="11.0735500065">
		<tag k="name" v="Storbekkmyrene" />
		<tag k="natural" v="wetland" />
		<tag k="ssr:stedsnr" v="847836" />
	</node>
	<node id="-89109" lat="62.0020638904" lon="10.9541833414">
		<tag k="name" v="Skårer" />
		<tag k="place" v="locality" />
		<tag k="ssr:stedsnr" v="54672" />
	</node>
	<node id="-88596" lat="61.8157555538" lon="11.133522219">
		<tag k="name" v="Stubbteigen" />
		<tag k="natural" v="beach" />
		<tag k="ssr:stedsnr" v="269387" />
		<tag k="surface" v="sand" />
	</node>
	<node id="-90798" lat="62.0843388876" lon="11.0399749937">
		<tag k="name" v="Øvre Vesleenget" />
		<tag k="place" v="locality" />
		<tag k="ssr:stedsnr" v="725270" />
	</node>
	<node id="-91395" lat="61.5565555597" lon="11.1672833338">
		<tag k="name" v="Sagbekkmyra" />
		<tag k="natural" v="wetland" />
		<tag k="ssr:stedsnr" v="908859" />
	</node>
	<node id="-89698" lat="62.154308329" lon="11.4368805472">
		<tag k="historic" v="shieling" />
		<tag k="name" v="Gamle Orvdalsvollen" />
		<tag k="place" v="locality" />
		<tag k="ssr:stedsnr" v="240442" />
	</node>
	<node id="-90797" lat="61.6004027746" lon="11.4133444497">
		<tag k="name" v="Skogstjøllen" />
		<tag k="place" v="locality" />
		<tag k="ssr:stedsnr" v="725108" />
	</node>
	<node id="-90370" lat="61.6482444406" lon="11.1224861093">
		<tag k="name" v="Gommomyra" />
		<tag k="natural" v="wetland" />
		<tag k="ssr:stedsnr" v="602005" />
	</node>
	<node id="-90455" lat="61.7507166681" lon="11.5449722175">
		<tag k="name" v="Nysæterkjølen" />
		<tag k="natural" v="wetland" />
		<tag k="ssr:stedsnr" v="616233" />
	</node>
	<node id="-91178" lat="61.6215083334" lon="11.1236305506">
		<tag k="name" v="Langmyra" />
		<tag k="natural" v="wetland" />
		<tag k="ssr:stedsnr" v="846883" />
	</node>
	<node id="-89094" lat="61.8168805541" lon="11.1283861042">
		<tag k="name" v="Signes" />
		<tag k="natural" v="beach" />
		<tag k="ssr:stedsnr" v="26397" />
		<tag k="surface" v="sand" />
	</node>
	<node id="-90369" lat="62.0870944484" lon="11.4585722175">
		<tag k="name" v="Nord i Hallan" />
		<tag k="natural" v="wetland" />
		<tag k="ssr:stedsnr" v="604437" />
	</node>
	<node id="-91246" lat="62.1082694415" lon="11.0133999905">
		<tag k="name" v="Væråmyrene" />
		<tag k="natural" v="wetland" />
		<tag k="ssr:stedsnr" v="860081" />
	</node>
	<node id="-90564" lat="61.9320861092" lon="11.0637472236">
		<tag k="name" v="Svartmoen" />
		<tag k="place" v="locality" />
		<tag k="ssr:stedsnr" v="632008" />
	</node>
</osm>
