<?xml version="1.0" encoding="UTF-8"?>
<osm generator="osmapis" version="0.6">
	<node id="-88764" lat="61.5249777808" lon="11.2338583279">
		<tag k="historic" v="boundary_stone" />
		<tag k="man_made" v="cairn" />
		<tag k="name" v="Halvmilsskiftet" />
		<tag k="place" v="locality" />
		<tag k="ssr:stedsnr" v="313296" />
	</node>
	<node id="-88954" lat="61.9006583353" lon="10.7860805577">
		<tag k="fixme" v="consider boundary=protected_area and relevant protect_class if not nature reserve" />
		<tag k="leisure" v="nature_reserve" />
		<tag k="name" v="Tegningdalen naturreservat" />
		<tag k="ssr:stedsnr" v="363426" />
	</node>
	<node id="-89075" lat="61.6544051425" lon="11.582298446">
		<tag k="fixme" v="consider boundary=protected_area and relevant protect_class if not nature reserve" />
		<tag k="leisure" v="nature_reserve" />
		<tag k="name" v="Fjellkroken naturreservat" />
		<tag k="ssr:stedsnr" v="989001" />
	</node>
	<node id="-89074" lat="61.5867029089" lon="11.3464273274">
		<tag k="fixme" v="consider boundary=protected_area and relevant protect_class if not nature reserve" />
		<tag k="leisure" v="nature_reserve" />
		<tag k="name" v="Skarvberget og Tallåsen naturreservat" />
		<tag k="ssr:stedsnr" v="982696" />
	</node>
	<node id="-89073" lat="62.0132567955" lon="11.5693526944">
		<tag k="fixme" v="consider boundary=protected_area and relevant protect_class if not nature reserve" />
		<tag k="leisure" v="nature_reserve" />
		<tag k="name" v="Lille Sølensjø" />
		<tag k="ssr:stedsnr" v="982677" />
	</node>
	<node id="-89069" lat="62.0702424793" lon="11.0889092834">
		<tag k="fixme" v="consider boundary=protected_area and relevant protect_class if not nature reserve" />
		<tag k="leisure" v="nature_reserve" />
		<tag k="name" v="Nekfallet naturreservat" />
		<tag k="ssr:stedsnr" v="1072106" />
	</node>
	<node id="-91657" lat="61.5925246595" lon="11.2490382687">
		<tag k="fixme" v="consider boundary=protected_area and relevant protect_class if not nature reserve" />
		<tag k="leisure" v="nature_reserve" />
		<tag k="name" v="Valsjøberget og Andråsberget naturreservat" />
		<tag k="ssr:stedsnr" v="980919" />
	</node>
	<node id="-91654" lat="61.7267533483" lon="11.3081532926">
		<tag k="fixme" v="consider boundary=protected_area and relevant protect_class if not nature reserve" />
		<tag k="leisure" v="nature_reserve" />
		<tag k="name" v="Misterlia naturreservat" />
		<tag k="ssr:stedsnr" v="971418" />
	</node>
</osm>
