<?xml version="1.0" encoding="UTF-8"?>
<osm generator="osmapis" version="0.6">
	<node id="-89258" lat="61.8926916711" lon="10.9476472175">
		<tag k="name" v="Grasbekkvelta" />
		<tag k="place" v="locality" />
		<tag k="ssr:stedsnr" v="58712" />
	</node>
	<node id="-90105" lat="62.0093694484" lon="11.1742611062">
		<tag k="highway" v="path" />
		<tag k="name" v="Storbekkvegen" />
		<tag k="ssr:stedsnr" v="482297" />
	</node>
	<node id="-89592" lat="61.460188886" lon="11.4682638821">
		<tag k="name" v="Bjønndalsvelta" />
		<tag k="place" v="locality" />
		<tag k="ssr:stedsnr" v="179298" />
	</node>
	<node id="-91639" lat="61.7617583377" lon="11.0700083357">
		<tag k="highway" v="path" />
		<tag k="name" v="Myrvegen" />
		<tag k="ssr:stedsnr" v="968689" />
	</node>
	<node id="-91636" lat="61.9169777803" lon="10.9558583385">
		<tag k="highway" v="path" />
		<tag k="name" v="Elvålsløpa" />
		<tag k="ssr:stedsnr" v="968668" />
	</node>
	<node id="-91634" lat="61.9114249971" lon="10.913969438">
		<tag k="highway" v="path" />
		<tag k="name" v="Jordabuvegen" />
		<tag k="ssr:stedsnr" v="968662" />
	</node>
	<node id="-91630" lat="62.0729361067" lon="11.4712972243">
		<tag k="ford" v="yes" />
		<tag k="name" v="Søndre Vadet" />
		<tag k="place" v="locality" />
		<tag k="ssr:stedsnr" v="968443" />
	</node>
	<node id="-91629" lat="62.0750499995" lon="11.4685944382">
		<tag k="ford" v="yes" />
		<tag k="name" v="Veslevadet" />
		<tag k="place" v="locality" />
		<tag k="ssr:stedsnr" v="968442" />
	</node>
	<node id="-89579" lat="61.7692083303" lon="10.8721138875">
		<tag k="highway" v="path" />
		<tag k="name" v="Slepvegen" />
		<tag k="ssr:stedsnr" v="178441" />
	</node>
	<node id="-89066" lat="61.90843889" lon="11.0610611102">
		<tag k="bridge" v="yes" />
		<tag k="layer" v="1" />
		<tag k="name" v="Kvernbekk bru" />
		<tag k="ssr:stedsnr" v="896296" />
	</node>
	<node id="-89065" lat="61.6707166681" lon="11.1907972226">
		<tag k="bridge" v="yes" />
		<tag k="layer" v="1" />
		<tag k="name" v="Sagbekk bru" />
		<tag k="ssr:stedsnr" v="896288" />
	</node>
	<node id="-89064" lat="61.766025003" lon="11.5552555522">
		<tag k="bridge" v="yes" />
		<tag k="layer" v="1" />
		<tag k="name" v="Nøklebekk" />
		<tag k="ssr:stedsnr" v="896287" />
	</node>
	<node id="-91623" lat="62.0578000009" lon="11.419638887">
		<tag k="man_made" v="cairn" />
		<tag k="name" v="Andersvarden" />
		<tag k="place" v="locality" />
		<tag k="ssr:stedsnr" v="968354" />
	</node>
	<node id="-90085" lat="61.5585027816" lon="11.2572944399">
		<tag k="highway" v="path" />
		<tag k="name" v="Borkhusvegen" />
		<tag k="ssr:stedsnr" v="481350" />
	</node>
	<node id="-91620" lat="62.0409805598" lon="11.1286138952">
		<tag k="highway" v="path" />
		<tag k="name" v="Helgesvegen" />
		<tag k="ssr:stedsnr" v="968344" />
	</node>
	<node id="-91107" lat="61.713299997" lon="11.2773138915">
		<tag k="highway" v="path" />
		<tag k="name" v="Skarbekkløpa" />
		<tag k="ssr:stedsnr" v="786657" />
	</node>
	<node id="-89058" lat="61.4434944461" lon="11.336963893">
		<tag k="bridge" v="yes" />
		<tag k="layer" v="1" />
		<tag k="name" v="Nakua bru" />
		<tag k="ssr:stedsnr" v="410294" />
	</node>
	<node id="-90081" lat="61.7527166634" lon="11.1246000038">
		<tag k="fixme" v="consider highway=path" />
		<tag k="highway" v="track" />
		<tag k="name" v="Nybuvegen" />
		<tag k="ssr:stedsnr" v="481287" />
	</node>
	<node id="-91616" lat="61.5139416638" lon="11.5469333373">
		<tag k="fixme" v="consider highway=path" />
		<tag k="highway" v="track" />
		<tag k="name" v="Sætervegen" />
		<tag k="ssr:stedsnr" v="968326" />
	</node>
	<node id="-90077" lat="61.9162777789" lon="11.1886805473">
		<tag k="highway" v="path" />
		<tag k="name" v="Skånborketvegen" />
		<tag k="ssr:stedsnr" v="481212" />
	</node>
	<node id="-91100" lat="62.1095333329" lon="11.4639638861">
		<tag k="highway" v="path" />
		<tag k="name" v="Jotvegen" />
		<tag k="ssr:stedsnr" v="786464" />
	</node>
	<node id="-91610" lat="61.8552527761" lon="11.1581027691">
		<tag k="highway" v="path" />
		<tag k="name" v="Grauthølvegen" />
		<tag k="ssr:stedsnr" v="968234" />
	</node>
	<node id="-91097" lat="62.0808833368" lon="11.4292777733">
		<tag k="highway" v="path" />
		<tag k="name" v="Neksjølivegen" />
		<tag k="ssr:stedsnr" v="786337" />
	</node>
	<node id="-91608" lat="61.7103722241" lon="11.0925888976">
		<tag k="highway" v="path" />
		<tag k="name" v="Fellingvegen" />
		<tag k="ssr:stedsnr" v="968198" />
	</node>
	<node id="-91599" lat="61.8177222189" lon="10.9635083277">
		<tag k="highway" v="path" />
		<tag k="name" v="Storjotvegen" />
		<tag k="ssr:stedsnr" v="967769" />
	</node>
	<node id="-89549" lat="61.9092972248" lon="11.0709694465">
		<tag k="name" v="Strømevjekanalen" />
		<tag k="ssr:stedsnr" v="147437" />
		<tag k="waterway" v="canal" />
	</node>
	<node id="-91593" lat="61.7589666641" lon="11.2503583389">
		<tag k="highway" v="path" />
		<tag k="name" v="Sætervegen" />
		<tag k="ssr:stedsnr" v="966981" />
	</node>
	<node id="-89538" lat="61.8077027738" lon="10.8632555635">
		<tag k="highway" v="path" />
		<tag k="name" v="Stenvegen" />
		<tag k="ssr:stedsnr" v="140557" />
	</node>
	<node id="-91073" lat="61.7908388896" lon="10.8567333283">
		<tag k="fixme" v="consider highway=path" />
		<tag k="highway" v="track" />
		<tag k="name" v="Klevsvingen" />
		<tag k="ssr:stedsnr" v="785378" />
	</node>
	<node id="-91583" lat="61.4866055529" lon="11.3033222222">
		<tag k="fixme" v="consider highway=path" />
		<tag k="highway" v="track" />
		<tag k="name" v="Sætervegen" />
		<tag k="ssr:stedsnr" v="966317" />
	</node>
	<node id="-91580" lat="61.465022219" lon="11.4007388968">
		<tag k="highway" v="path" />
		<tag k="name" v="Hedmarkingvegen" />
		<tag k="ssr:stedsnr" v="966182" />
	</node>
	<node id="-88735" lat="62.0222138902" lon="11.5418444445">
		<tag k="ford" v="yes" />
		<tag k="name" v="Istervadet" />
		<tag k="place" v="locality" />
		<tag k="ssr:stedsnr" v="301411" />
	</node>
	<node id="-91575" lat="61.9277361071" lon="10.9453944358">
		<tag k="highway" v="path" />
		<tag k="name" v="Aursjøvegen" />
		<tag k="ssr:stedsnr" v="939643" />
	</node>
	<node id="-91054" lat="61.8540194433" lon="10.9072972272">
		<tag k="bridge" v="yes" />
		<tag k="layer" v="1" />
		<tag k="name" v="Tingstadbekken" />
		<tag k="ssr:stedsnr" v="774312" />
	</node>
	<node id="-91561" lat="61.850725003" lon="11.1243222282">
		<tag k="name" v="Jordbrukskanalen" />
		<tag k="ssr:stedsnr" v="936033" />
		<tag k="waterway" v="canal" />
	</node>
	<node id="-90530" lat="61.9805527754" lon="10.9993750038">
		<tag k="highway" v="path" />
		<tag k="name" v="Fjellvegen" />
		<tag k="ssr:stedsnr" v="604863" />
	</node>
	<node id="-91038" lat="61.8408666669" lon="11.1116499974">
		<tag k="highway" v="path" />
		<tag k="name" v="Gamle Kongevegen" />
		<tag k="ssr:stedsnr" v="754036" />
	</node>
	<node id="-90525" lat="61.4560972223" lon="11.3190888959">
		<tag k="man_made" v="quay" />
		<tag k="name" v="Strandbrygga" />
		<tag k="place" v="locality" />
		<tag k="ssr:stedsnr" v="604828" />
	</node>
	<node id="-91034" lat="61.82016944" lon="10.9194527755">
		<tag k="highway" v="path" />
		<tag k="name" v="Bekstrømvegen" />
		<tag k="ssr:stedsnr" v="753508" />
	</node>
	<node id="-90516" lat="61.8461694475" lon="10.9222416707">
		<tag k="bridge" v="yes" />
		<tag k="layer" v="1" />
		<tag k="name" v="Bruen" />
		<tag k="ssr:stedsnr" v="604598" />
	</node>
	<node id="-91288" lat="62.0232611131" lon="11.5111222139">
		<tag k="highway" v="path" />
		<tag k="name" v="Fenåvadvegen" />
		<tag k="ssr:stedsnr" v="847458" />
	</node>
	<node id="-89410" lat="61.9577222241" lon="11.0860361125">
		<tag k="fixme" v="consider highway=path" />
		<tag k="highway" v="track" />
		<tag k="name" v="Gamle Unsetveg" />
		<tag k="ssr:stedsnr" v="119119" />
	</node>
	<node id="-90502" lat="61.6891861068" lon="11.101744447">
		<tag k="highway" v="path" />
		<tag k="name" v="Rønningsvegen" />
		<tag k="ssr:stedsnr" v="604098" />
	</node>
	<node id="-90498" lat="61.677958331" lon="11.1846277727">
		<tag k="highway" v="path" />
		<tag k="name" v="Bureisningsvegen" />
		<tag k="ssr:stedsnr" v="604060" />
	</node>
	<node id="-90495" lat="61.7814416646" lon="11.2829750066">
		<tag k="highway" v="path" />
		<tag k="name" v="Vinterveglea" />
		<tag k="ssr:stedsnr" v="603898" />
	</node>
	<node id="-90089" lat="61.7754833304" lon="10.9483055606">
		<tag k="alt_name" v="Vaet" />
		<tag k="ford" v="yes" />
		<tag k="name" v="Vadet" />
		<tag k="place" v="locality" />
		<tag k="ssr:stedsnr" v="481463" />
	</node>
	<node id="-88947" lat="61.5689361138" lon="11.1711472258">
		<tag k="fixme" v="consider highway=path" />
		<tag k="highway" v="track" />
		<tag k="name" v="Gamle Liavegen" />
		<tag k="ssr:stedsnr" v="361842" />
	</node>
	<node id="-90481" lat="61.9576805551" lon="11.0877305614">
		<tag k="bridge" v="yes" />
		<tag k="layer" v="1" />
		<tag k="name" v="Gammelbrua" />
		<tag k="ssr:stedsnr" v="603093" />
	</node>
	<node id="-90088" lat="61.7215222238" lon="11.3707583305">
		<tag k="fixme" v="consider highway=path" />
		<tag k="highway" v="track" />
		<tag k="name" v="Johannesvegen" />
		<tag k="ssr:stedsnr" v="481414" />
	</node>
	<node id="-90475" lat="61.8319111095" lon="10.8640694446">
		<tag k="highway" v="path" />
		<tag k="name" v="Grønnegata" />
		<tag k="ssr:stedsnr" v="602605" />
	</node>
	<node id="-88936" lat="61.723752781" lon="11.3105055474">
		<tag k="fixme" v="consider highway=path" />
		<tag k="highway" v="track" />
		<tag k="name" v="Gamle Engerdalsvegen" />
		<tag k="ssr:stedsnr" v="361660" />
	</node>
	<node id="-88934" lat="61.8480999965" lon="10.8712833327">
		<tag k="fixme" v="consider highway=path" />
		<tag k="highway" v="track" />
		<tag k="name" v="Petravegen" />
		<tag k="ssr:stedsnr" v="361619" />
	</node>
	<node id="-89955" lat="61.8272805594" lon="10.9724472212">
		<tag k="highway" v="path" />
		<tag k="name" v="Snevegen" />
		<tag k="ssr:stedsnr" v="422805" />
	</node>
	<node id="-90466" lat="61.6250305519" lon="11.296130551">
		<tag k="name" v="Åkervelta" />
		<tag k="place" v="locality" />
		<tag k="ssr:stedsnr" v="602366" />
	</node>
	<node id="-88926" lat="62.02041111" lon="11.5323999991">
		<tag k="highway" v="path" />
		<tag k="name" v="Istervadvegen" />
		<tag k="ssr:stedsnr" v="361437" />
	</node>
	<node id="-88925" lat="62.124358337" lon="11.4399861178">
		<tag k="bridge" v="yes" />
		<tag k="layer" v="1" />
		<tag k="name" v="Øvre Orvkloppa" />
		<tag k="ssr:stedsnr" v="361432" />
	</node>
	<node id="-88924" lat="62.0142277789" lon="11.5507194416">
		<tag k="ford" v="yes" />
		<tag k="name" v="Sløkravadet" />
		<tag k="place" v="locality" />
		<tag k="ssr:stedsnr" v="361433" />
	</node>
	<node id="-89433" lat="61.6880138886" lon="11.2160250064">
		<tag k="name" v="Sjøvikvelta" />
		<tag k="place" v="locality" />
		<tag k="ssr:stedsnr" v="119668" />
	</node>
	<node id="-90449" lat="61.5750138931" lon="11.1744666761">
		<tag k="bridge" v="yes" />
		<tag k="layer" v="1" />
		<tag k="name" v="Burua" />
		<tag k="ssr:stedsnr" v="592298" />
	</node>
	<node id="-89423" lat="62.0700916705" lon="11.5408000039">
		<tag k="highway" v="path" />
		<tag k="name" v="Jotvegen" />
		<tag k="ssr:stedsnr" v="119452" />
	</node>
	<node id="-90437" lat="61.922091667" lon="11.0949027726">
		<tag k="highway" v="path" />
		<tag k="name" v="Øvre Livegen" />
		<tag k="ssr:stedsnr" v="572129" />
	</node>
	<node id="-88900" lat="61.7027055566" lon="11.1340027835">
		<tag k="highway" v="path" />
		<tag k="name" v="Eliasvegen" />
		<tag k="ssr:stedsnr" v="361083" />
	</node>
	<node id="-89922" lat="61.8154916676" lon="10.9852694387">
		<tag k="ford" v="yes" />
		<tag k="name" v="Stenvadet" />
		<tag k="place" v="locality" />
		<tag k="ssr:stedsnr" v="421822" />
	</node>
	<node id="-89920" lat="61.7806000005" lon="11.0784638834">
		<tag k="highway" v="path" />
		<tag k="name" v="Nysætervegen" />
		<tag k="ssr:stedsnr" v="421643" />
	</node>
	<node id="-89568" lat="61.6263694402" lon="11.2932722309">
		<tag k="name" v="Kvernesvelta" />
		<tag k="place" v="locality" />
		<tag k="ssr:stedsnr" v="177349" />
	</node>
	<node id="-90423" lat="61.4885138853" lon="11.282522213">
		<tag k="fixme" v="verify maritime location" />
		<tag k="mooring" v="yes" />
		<tag k="name" v="Syllistøa" />
		<tag k="place" v="locality" />
		<tag k="ssr:stedsnr" v="560290" />
	</node>
	<node id="-89910" lat="61.6010833362" lon="11.3179388856">
		<tag k="fixme" v="consider highway=path" />
		<tag k="highway" v="track" />
		<tag k="name" v="Djupdalsvegen" />
		<tag k="ssr:stedsnr" v="420349" />
	</node>
	<node id="-91613" lat="61.84365" lon="10.6497333403">
		<tag k="highway" v="path" />
		<tag k="name" v="Nysætervegen" />
		<tag k="ssr:stedsnr" v="968286" />
	</node>
	<node id="-90922" lat="61.5740083329" lon="11.1971583324">
		<tag k="name" v="Buruvelta" />
		<tag k="place" v="locality" />
		<tag k="ssr:stedsnr" v="726842" />
	</node>
	<node id="-88873" lat="61.7191499972" lon="11.1857749985">
		<tag k="highway" v="path" />
		<tag k="name" v="Klettvollsvegen" />
		<tag k="ssr:stedsnr" v="359149" />
	</node>
	<node id="-89893" lat="61.8379697513" lon="10.878713861">
		<tag k="name" v="Hanestad stasjon" />
		<tag k="railway" v="station" />
		<tag k="ssr:stedsnr" v="254143" />
		<tag k="train" v="yes" />
	</node>
	<node id="-88868" lat="61.8796499967" lon="11.0643083263">
		<tag k="bridge" v="yes" />
		<tag k="layer" v="1" />
		<tag k="name" v="Rødbekk bru" />
		<tag k="ssr:stedsnr" v="349332" />
	</node>
	<node id="-88867" lat="61.8214750041" lon="10.6182916708">
		<tag k="highway" v="path" />
		<tag k="name" v="Nedre Kjølvegen" />
		<tag k="ssr:stedsnr" v="343237" />
	</node>
	<node id="-89378" lat="62.1491749994" lon="11.4357611049">
		<tag k="fixme" v="consider highway=path" />
		<tag k="highway" v="track" />
		<tag k="name" v="Skjærbekkvegen" />
		<tag k="ssr:stedsnr" v="115717" />
	</node>
	<node id="-90913" lat="61.7111861145" lon="11.2515638869">
		<tag k="highway" v="path" />
		<tag k="name" v="Vassnosvingen" />
		<tag k="ssr:stedsnr" v="726663" />
	</node>
	<node id="-89368" lat="62.1066833307" lon="11.5594472302">
		<tag k="highway" v="path" />
		<tag k="name" v="Fjellvegen" />
		<tag k="ssr:stedsnr" v="87428" />
	</node>
	<node id="-91268" lat="61.8698000046" lon="10.5655055521">
		<tag k="bridge" v="yes" />
		<tag k="layer" v="1" />
		<tag k="name" v="Nedalsbotn" />
		<tag k="ssr:stedsnr" v="847289" />
	</node>
	<node id="-91411" lat="61.7032861069" lon="11.1987305479">
		<tag k="bridge" v="yes" />
		<tag k="layer" v="1" />
		<tag k="name" v="Strømshue" />
		<tag k="ssr:stedsnr" v="906147" />
	</node>
	<node id="-90898" lat="61.7823583291" lon="11.2069833245">
		<tag k="highway" v="path" />
		<tag k="name" v="Gaupvegen" />
		<tag k="ssr:stedsnr" v="725882" />
	</node>
	<node id="-89357" lat="61.8083444415" lon="10.946669452">
		<tag k="fixme" v="consider highway=path" />
		<tag k="highway" v="track" />
		<tag k="name" v="Kivsjøvegen" />
		<tag k="ssr:stedsnr" v="85471" />
	</node>
	<node id="-90884" lat="62.0242749995" lon="11.168561103">
		<tag k="highway" v="path" />
		<tag k="name" v="Gråfjellvegen" />
		<tag k="ssr:stedsnr" v="725293" />
	</node>
	<node id="-90871" lat="61.7912472262" lon="10.9799055603">
		<tag k="highway" v="path" />
		<tag k="name" v="Turistvegen" />
		<tag k="ssr:stedsnr" v="724643" />
	</node>
	<node id="-90867" lat="61.7737694447" lon="10.9536166729">
		<tag k="highway" v="path" />
		<tag k="name" v="Elgstien" />
		<tag k="ssr:stedsnr" v="724414" />
	</node>
	<node id="-90848" lat="61.7517222198" lon="11.4266527722">
		<tag k="bridge" v="yes" />
		<tag k="layer" v="1" />
		<tag k="name" v="Nysæterbekk" />
		<tag k="ssr:stedsnr" v="714245" />
	</node>
	<node id="-90844" lat="61.8122888927" lon="11.1132222203">
		<tag k="landuse" v="industrial" />
		<tag k="name" v="Bassenget" />
		<tag k="power" v="plant" />
		<tag k="ssr:stedsnr" v="694496" />
	</node>
	<node id="-90835" lat="61.8666777752" lon="11.0989999999">
		<tag k="name" v="Storvetra" />
		<tag k="ssr:stedsnr" v="694015" />
		<tag k="waterway" v="canal" />
	</node>
	<node id="-90914" lat="61.7461194473" lon="11.0397555647">
		<tag k="highway" v="path" />
		<tag k="name" v="Rokkdalsvegen" />
		<tag k="ssr:stedsnr" v="726666" />
	</node>
	<node id="-89801" lat="61.9283416663" lon="10.9885805514">
		<tag k="name" v="Fossbekkvelta" />
		<tag k="place" v="locality" />
		<tag k="ssr:stedsnr" v="240781" />
	</node>
	<node id="-89799" lat="61.943333332" lon="11.007780553">
		<tag k="name" v="Tobrovelta" />
		<tag k="place" v="locality" />
		<tag k="ssr:stedsnr" v="240777" />
	</node>
	<node id="-89791" lat="61.7185999994" lon="11.2675749955">
		<tag k="highway" v="path" />
		<tag k="name" v="Doningsvegen" />
		<tag k="ssr:stedsnr" v="240654" />
	</node>
	<node id="-90298" lat="61.6769388922" lon="11.2753388944">
		<tag k="fixme" v="consider highway=path" />
		<tag k="highway" v="track" />
		<tag k="name" v="Djupdalsvegen" />
		<tag k="ssr:stedsnr" v="543481" />
	</node>
	<node id="-90297" lat="61.9647305544" lon="11.1677472146">
		<tag k="highway" v="path" />
		<tag k="name" v="Dalevegen" />
		<tag k="ssr:stedsnr" v="543478" />
	</node>
	<node id="-90313" lat="61.6103777746" lon="11.1895194366">
		<tag k="highway" v="path" />
		<tag k="name" v="Elgstien" />
		<tag k="ssr:stedsnr" v="543890" />
	</node>
	<node id="-90292" lat="62.1273750045" lon="11.4170416684">
		<tag k="highway" v="path" />
		<tag k="name" v="Spekedalsvegen" />
		<tag k="ssr:stedsnr" v="543400" />
	</node>
	<node id="-89779" lat="62.0094194444" lon="11.4768555517">
		<tag k="highway" v="path" />
		<tag k="name" v="Hemvegen" />
		<tag k="ssr:stedsnr" v="240432" />
	</node>
	<node id="-90288" lat="62.0037305513" lon="11.1612722272">
		<tag k="fixme" v="verify maritime location" />
		<tag k="mooring" v="yes" />
		<tag k="name" v="Kvanntjølla" />
		<tag k="place" v="locality" />
		<tag k="ssr:stedsnr" v="543323" />
	</node>
	<node id="-91306" lat="61.4467305561" lon="11.3285055627">
		<tag k="name" v="Nakuvelta" />
		<tag k="place" v="locality" />
		<tag k="ssr:stedsnr" v="847912" />
	</node>
	<node id="-91305" lat="61.6151805522" lon="11.1394944389">
		<tag k="fixme" v="consider highway=path" />
		<tag k="highway" v="track" />
		<tag k="name" v="Kneppåsvegen" />
		<tag k="ssr:stedsnr" v="847909" />
	</node>
	<node id="-91299" lat="61.8894833366" lon="10.9449249942">
		<tag k="highway" v="path" />
		<tag k="name" v="Brakkvegen" />
		<tag k="ssr:stedsnr" v="847702" />
	</node>
	<node id="-88738" lat="61.9161583298" lon="10.9407972277">
		<tag k="highway" v="path" />
		<tag k="name" v="Gammellivegen" />
		<tag k="ssr:stedsnr" v="301631" />
	</node>
	<node id="-91295" lat="61.7232944486" lon="11.2343694467">
		<tag k="highway" v="path" />
		<tag k="name" v="Øvergangsvegen" />
		<tag k="ssr:stedsnr" v="847656" />
	</node>
	<node id="-88734" lat="62.1124694487" lon="11.0651916611">
		<tag k="highway" v="path" />
		<tag k="name" v="Nysætervegen" />
		<tag k="ssr:stedsnr" v="301324" />
	</node>
	<node id="-91293" lat="61.7069333334" lon="11.253719439">
		<tag k="highway" v="path" />
		<tag k="name" v="Langeggvegen" />
		<tag k="ssr:stedsnr" v="847648" />
	</node>
	<node id="-90268" lat="61.7347555521" lon="11.2315527731">
		<tag k="name" v="Borkstan" />
		<tag k="place" v="locality" />
		<tag k="ssr:stedsnr" v="542515" />
	</node>
	<node id="-90265" lat="61.7823305535" lon="10.8671750051">
		<tag k="junction" v="yes" />
		<tag k="name" v="Krysset" />
		<tag k="place" v="locality" />
		<tag k="ssr:stedsnr" v="542424" />
	</node>
	<node id="-89752" lat="61.7833027743" lon="11.0481166611">
		<tag k="highway" v="path" />
		<tag k="name" v="Klettvolvegen" />
		<tag k="ssr:stedsnr" v="239655" />
	</node>
	<node id="-90263" lat="61.7881666683" lon="10.8546749939">
		<tag k="fixme" v="consider highway=path" />
		<tag k="highway" v="track" />
		<tag k="name" v="Klevvegen" />
		<tag k="ssr:stedsnr" v="542419" />
	</node>
	<node id="-89238" lat="62.0457194426" lon="11.1800000094">
		<tag k="highway" v="path" />
		<tag k="name" v="Gamle Spekedalsvegen" />
		<tag k="ssr:stedsnr" v="58354" />
	</node>
	<node id="-88725" lat="61.6670916647" lon="11.2441250035">
		<tag k="highway" v="path" />
		<tag k="name" v="Yttergangsvegen" />
		<tag k="ssr:stedsnr" v="300487" />
	</node>
	<node id="-89236" lat="62.0283499979" lon="11.5405388954">
		<tag k="ford" v="yes" />
		<tag k="name" v="Fenåvadet" />
		<tag k="place" v="locality" />
		<tag k="ssr:stedsnr" v="58462" />
	</node>
	<node id="-89742" lat="61.5649694472" lon="11.237702786">
		<tag k="highway" v="path" />
		<tag k="name" v="Sætervegen" />
		<tag k="ssr:stedsnr" v="238337" />
	</node>
	<node id="-88717" lat="61.6448722257" lon="11.4349749983">
		<tag k="highway" v="path" />
		<tag k="name" v="Nubbvegen" />
		<tag k="ssr:stedsnr" v="300005" />
	</node>
	<node id="-90251" lat="61.5158138904" lon="11.2416444534">
		<tag k="name" v="Melhusvelta" />
		<tag k="place" v="locality" />
		<tag k="ssr:stedsnr" v="541358" />
	</node>
	<node id="-89226" lat="61.8031166636" lon="10.7439027806">
		<tag k="fixme" v="consider highway=path" />
		<tag k="highway" v="track" />
		<tag k="name" v="Atnkjølsvegen" />
		<tag k="ssr:stedsnr" v="58326" />
	</node>
	<node id="-89733" lat="61.8067472206" lon="11.128155546">
		<tag k="bridge" v="yes" />
		<tag k="layer" v="1" />
		<tag k="name" v="Hornset bru" />
		<tag k="ssr:stedsnr" v="228305" />
	</node>
	<node id="-89732" lat="61.8995722262" lon="11.0892611104">
		<tag k="bridge" v="yes" />
		<tag k="layer" v="1" />
		<tag k="name" v="Haukåa bru" />
		<tag k="ssr:stedsnr" v="228302" />
	</node>
	<node id="-90236" lat="61.8059888931" lon="11.1315722231">
		<tag k="name" v="Kanalen" />
		<tag k="ssr:stedsnr" v="511458" />
		<tag k="waterway" v="canal" />
	</node>
	<node id="-89206" lat="61.65923889" lon="11.2255138949">
		<tag k="fixme" v="consider highway=path" />
		<tag k="highway" v="track" />
		<tag k="name" v="Fallvegen" />
		<tag k="ssr:stedsnr" v="56410" />
	</node>
	<node id="-89201" lat="61.5699111102" lon="11.2265138949">
		<tag k="name" v="Andersvelta" />
		<tag k="place" v="locality" />
		<tag k="ssr:stedsnr" v="56336" />
	</node>
	<node id="-88685" lat="61.8119944488" lon="11.1196194412">
		<tag k="landuse" v="industrial" />
		<tag k="name" v="Rendalen kraftverk" />
		<tag k="power" v="plant" />
		<tag k="ssr:stedsnr" v="269497" />
	</node>
	<node id="-90727" lat="61.8311444429" lon="11.0104944387">
		<tag k="highway" v="path" />
		<tag k="name" v="Svartåsvegen" />
		<tag k="ssr:stedsnr" v="665823" />
	</node>
	<node id="-89189" lat="61.5638444417" lon="11.2265194406">
		<tag k="bridge" v="yes" />
		<tag k="layer" v="1" />
		<tag k="name" v="Andrå bru" />
		<tag k="ssr:stedsnr" v="46291" />
	</node>
	<node id="-89188" lat="61.4781888869" lon="11.3091833239">
		<tag k="bridge" v="yes" />
		<tag k="layer" v="1" />
		<tag k="name" v="Møra bru" />
		<tag k="ssr:stedsnr" v="46280" />
	</node>
	<node id="-90718" lat="61.8402777746" lon="10.851841662">
		<tag k="highway" v="path" />
		<tag k="name" v="Elstadstien" />
		<tag k="ssr:stedsnr" v="665644" />
	</node>
	<node id="-90715" lat="61.9700361112" lon="11.5195833351">
		<tag k="highway" v="path" />
		<tag k="name" v="Misjøhaugvegen" />
		<tag k="ssr:stedsnr" v="665471" />
	</node>
	<node id="-89173" lat="61.7622472215" lon="11.1446333264">
		<tag k="highway" v="path" />
		<tag k="name" v="Viksætervegen" />
		<tag k="ssr:stedsnr" v="26088" />
	</node>
	<node id="-89169" lat="61.8110083351" lon="10.9307555471">
		<tag k="alt_name" v="Kvanbekkvegen" />
		<tag k="fixme" v="consider highway=path" />
		<tag k="highway" v="track" />
		<tag k="name" v="Kvannbekkvegen" />
		<tag k="ssr:stedsnr" v="25551" />
	</node>
	<node id="-90702" lat="62.0379916631" lon="11.1230916603">
		<tag k="highway" v="path" />
		<tag k="name" v="Engåsvegen" />
		<tag k="ssr:stedsnr" v="664295" />
	</node>
	<node id="-89267" lat="61.7897638858" lon="11.2261888849">
		<tag k="highway" v="path" />
		<tag k="name" v="Veslesæterjotvegen" />
		<tag k="ssr:stedsnr" v="58901" />
	</node>
	<node id="-90671" lat="61.7929500023" lon="11.1365027772">
		<tag k="bridge" v="yes" />
		<tag k="layer" v="1" />
		<tag k="name" v="Hornset bru" />
		<tag k="ssr:stedsnr" v="653264" />
	</node>
	<node id="-90460" lat="61.4869388886" lon="11.4230277737">
		<tag k="highway" v="path" />
		<tag k="name" v="Strandvegen" />
		<tag k="ssr:stedsnr" v="602188" />
	</node>
	<node id="-89630" lat="61.7215944414" lon="11.2230694407">
		<tag k="highway" v="path" />
		<tag k="name" v="Yttergangsvegen" />
		<tag k="ssr:stedsnr" v="180641" />
	</node>
	<node id="-90646" lat="61.8302499981" lon="10.8898916668">
		<tag k="highway" v="path" />
		<tag k="name" v="Kivdalsvegen" />
		<tag k="ssr:stedsnr" v="630497" />
	</node>
	<node id="-88921" lat="62.0373027743" lon="11.1491833271">
		<tag k="ford" v="yes" />
		<tag k="name" v="Skjærvadet" />
		<tag k="place" v="locality" />
		<tag k="ssr:stedsnr" v="361373" />
	</node>
	<node id="-90119" lat="61.8503194406" lon="10.8404138832">
		<tag k="highway" v="path" />
		<tag k="name" v="Elstadmyra" />
		<tag k="ssr:stedsnr" v="483612" />
	</node>
	<node id="-91651" lat="61.9892777799" lon="11.0069499933">
		<tag k="highway" v="path" />
		<tag k="name" v="Skåråssætervegen" />
		<tag k="ssr:stedsnr" v="968871" />
	</node>
</osm>
