<?xml version="1.0" encoding="UTF-8"?>
<osm generator="osmapis" version="0.6">
	<node id="-89726" lat="61.9279055584" lon="11.0546250029">
		<tag k="amenity" v="community_centre" />
		<tag k="name" v="Elvheim" />
		<tag k="ssr:stedsnr" v="269066" />
	</node>
	<node id="-91513" lat="61.802499998" lon="11.065577775">
		<tag k="name" v="Fåbergslinja" />
		<tag k="place" v="locality" />
		<tag k="ssr:stedsnr" v="967685" />
	</node>
	<node id="-89456" lat="61.8345472248" lon="10.8671555515">
		<tag k="amenity" v="community_centre" />
		<tag k="name" v="Kivatun" />
		<tag k="ssr:stedsnr" v="145535" />
	</node>
	<node id="-90988" lat="61.7469000039" lon="11.2132583427">
		<tag k="amenity" v="community_centre" />
		<tag k="name" v="Skytterhuset" />
		<tag k="ssr:stedsnr" v="784975" />
	</node>
	<node id="-90598" lat="61.6191972264" lon="11.3048833263">
		<tag k="name" v="Klumphuset" />
		<tag k="place" v="locality" />
		<tag k="ssr:stedsnr" v="663340" />
	</node>
	<node id="-89957" lat="61.8701000017" lon="11.0687888813">
		<tag k="alt_name" v="Utsikta" />
		<tag k="name" v="Utsikten" />
		<tag k="ssr:stedsnr" v="436127" />
		<tag k="tourism" v="viewpoint" />
	</node>
	<node id="-89314" lat="61.7880861131" lon="10.8468666671">
		<tag k="amenity" v="community_centre" />
		<tag k="name" v="Glåmsjå" />
		<tag k="ssr:stedsnr" v="117439" />
	</node>
	<node id="-89818" lat="61.7247916639" lon="11.1759305604">
		<tag k="name" v="Utsikten" />
		<tag k="ssr:stedsnr" v="420167" />
		<tag k="tourism" v="viewpoint" />
	</node>
	<node id="-90576" lat="61.4792555562" lon="11.3072777747">
		<tag k="amenity" v="community_centre" />
		<tag k="name" v="Sjøli skole" />
		<tag k="ssr:stedsnr" v="632328" />
	</node>
	<node id="-89293" lat="61.5650083355" lon="11.1791750085">
		<tag k="amenity" v="place_of_worship" />
		<tag k="denomination" v="lutheran" />
		<tag k="name" v="Lia kirke" />
		<tag k="religion" v="christian" />
		<tag k="ssr:stedsnr" v="102359" />
	</node>
	<node id="-89162" lat="61.9670888859" lon="11.102674993">
		<tag k="amenity" v="community_centre" />
		<tag k="name" v="Utheim" />
		<tag k="ssr:stedsnr" v="58512" />
	</node>
	<node id="-89673" lat="61.6440055531" lon="11.1809888814">
		<tag k="name" v="Utsikten" />
		<tag k="ssr:stedsnr" v="240075" />
		<tag k="tourism" v="viewpoint" />
	</node>
	<node id="-88774" lat="61.8845138859" lon="11.0807166663">
		<tag k="name" v="Bullmuseet" />
		<tag k="ssr:stedsnr" v="330051" />
		<tag k="tourism" v="attraction" />
	</node>
	<node id="-88643" lat="61.9695055539" lon="11.1014666634">
		<tag k="amenity" v="community_centre" />
		<tag k="name" v="Unset gamle skole" />
		<tag k="ssr:stedsnr" v="300482" />
	</node>
	<node id="-91329" lat="61.7029222224" lon="11.1972499924">
		<tag k="amenity" v="community_centre" />
		<tag k="name" v="Strømssalen" />
		<tag k="ssr:stedsnr" v="906148" />
	</node>
	<node id="-90803" lat="62.1020750037" lon="11.0335527818">
		<tag k="cemetery" v="grave" />
		<tag k="name" v="Brattegga" />
		<tag k="place" v="locality" />
		<tag k="ssr:stedsnr" v="725309" />
	</node>
	<node id="-89779" lat="61.8895638932" lon="11.0786583358">
		<tag k="amenity" v="place_of_worship" />
		<tag k="denomination" v="lutheran" />
		<tag k="name" v="Øvre Rendal kirke" />
		<tag k="religion" v="christian" />
		<tag k="ssr:stedsnr" v="253157" />
	</node>
	<node id="-90284" lat="61.7593888847" lon="11.1809916652">
		<tag k="amenity" v="place_of_worship" />
		<tag k="denomination" v="lutheran" />
		<tag k="name" v="Ytre Rendal kirke" />
		<tag k="religion" v="christian" />
		<tag k="ssr:stedsnr" v="556068" />
	</node>
	<node id="-90182" lat="61.7780777754" lon="10.8832611127">
		<tag k="name" v="Snøplogen" />
		<tag k="place" v="locality" />
		<tag k="ssr:stedsnr" v="542423" />
	</node>
	<node id="-90651" lat="61.4785388928" lon="11.3064472289">
		<tag k="amenity" v="place_of_worship" />
		<tag k="denomination" v="lutheran" />
		<tag k="name" v="Sjøli kirke" />
		<tag k="religion" v="christian" />
		<tag k="ssr:stedsnr" v="676106" />
	</node>
	<node id="-88606" lat="62.0096638847" lon="10.9491305555">
		<tag k="name" v="Jutulgrava" />
		<tag k="place" v="locality" />
		<tag k="ssr:stedsnr" v="271576" />
	</node>
	<node id="-89627" lat="61.9221111093" lon="11.0329750024">
		<tag k="name" v="Tverrslag Elvål" />
		<tag k="place" v="locality" />
		<tag k="ssr:stedsnr" v="208013" />
	</node>
	<node id="-90389" lat="61.7801583299" lon="10.948644441">
		<tag k="name" v="Kåta" />
		<tag k="place" v="locality" />
		<tag k="ssr:stedsnr" v="602450" />
	</node>
	<node id="-91028" lat="61.9508111084" lon="10.9783361101">
		<tag k="name" v="Tverrslag Tysla" />
		<tag k="place" v="locality" />
		<tag k="ssr:stedsnr" v="786776" />
	</node>
	<node id="-90769" lat="61.5590583348" lon="11.2342944373">
		<tag k="amenity" v="community_centre" />
		<tag k="name" v="Andrå skole" />
		<tag k="ssr:stedsnr" v="723325" />
	</node>
	<node id="-90523" lat="61.8393361076" lon="10.8891444364">
		<tag k="amenity" v="place_of_worship" />
		<tag k="denomination" v="lutheran" />
		<tag k="name" v="Hanestad kirke" />
		<tag k="religion" v="christian" />
		<tag k="ssr:stedsnr" v="617194" />
	</node>
</osm>
