<?xml version="1.0" encoding="UTF-8"?>
<osm generator="osmapis" version="0.6">
	<node id="-90111" lat="61.9680555551" lon="11.4645055624">
		<tag k="fixme" v="consider natural=peak for the most distinct mountains in the district" />
		<tag k="name" v="Akshaugen" />
		<tag k="natural" v="hill" />
		<tag k="place" v="locality" />
		<tag k="ssr:stedsnr" v="496237" />
	</node>
	<node id="-90104" lat="61.8704138879" lon="10.7825083392">
		<tag k="alt_name" v="Grøtebratten" />
		<tag k="fixme" v="consider natural=peak for the most distinct mountains in the district" />
		<tag k="name" v="Grøttingbratten" />
		<tag k="natural" v="hill" />
		<tag k="place" v="locality" />
		<tag k="ssr:stedsnr" v="496143" />
	</node>
	<node id="-90090" lat="61.7808750006" lon="11.3572722132">
		<tag k="alt_name" v="Væråsen" />
		<tag k="fixme" v="consider natural=peak for the most distinct mountains in the district" />
		<tag k="name" v="Veråsen" />
		<tag k="natural" v="hill" />
		<tag k="place" v="locality" />
		<tag k="ssr:stedsnr" v="496051" />
	</node>
	<node id="-89425" lat="61.796594445" lon="10.9479499935">
		<tag k="fixme" v="consider natural=peak for the most distinct mountains in the district" />
		<tag k="name" v="Granåsen" />
		<tag k="natural" v="hill" />
		<tag k="place" v="locality" />
		<tag k="ssr:stedsnr" v="132113" />
	</node>
	<node id="-90083" lat="61.5933249992" lon="11.6578972222">
		<tag k="fixme" v="consider natural=peak for the most distinct mountains in the district" />
		<tag k="name" v="Bjørbekkåsen" />
		<tag k="natural" v="hill" />
		<tag k="place" v="locality" />
		<tag k="ssr:stedsnr" v="495806" />
	</node>
	<node id="-90081" lat="61.5129611128" lon="11.7557333299">
		<tag k="alt_name" v="Raudfjellet, syndre;Søndre Raudfjellet" />
		<tag k="fixme" v="consider natural=peak for the most distinct mountains in the district" />
		<tag k="name" v="Syndre Raudfjellet" />
		<tag k="natural" v="hill" />
		<tag k="place" v="locality" />
		<tag k="ssr:stedsnr" v="495707" />
	</node>
	<node id="-90079" lat="61.8801611145" lon="10.6454694464">
		<tag k="fixme" v="consider natural=peak for the most distinct mountains in the district" />
		<tag k="name" v="Midttangen" />
		<tag k="natural" v="hill" />
		<tag k="place" v="locality" />
		<tag k="ssr:stedsnr" v="495481" />
	</node>
	<node id="-90078" lat="61.8453166686" lon="10.6321611054">
		<tag k="fixme" v="consider natural=peak for the most distinct mountains in the district" />
		<tag k="name" v="Nelitangen" />
		<tag k="natural" v="hill" />
		<tag k="place" v="locality" />
		<tag k="ssr:stedsnr" v="495470" />
	</node>
	<node id="-90072" lat="62.0504083335" lon="11.2670972142">
		<tag k="name" v="Kulehøgda" />
		<tag k="natural" v="hill" />
		<tag k="place" v="locality" />
		<tag k="ssr:stedsnr" v="495403" />
	</node>
	<node id="-90071" lat="61.6750111121" lon="11.3180999967">
		<tag k="alt_name" v="Tøråsen" />
		<tag k="fixme" v="consider natural=peak for the most distinct mountains in the district" />
		<tag k="name" v="Tørråsen" />
		<tag k="natural" v="hill" />
		<tag k="place" v="locality" />
		<tag k="ssr:stedsnr" v="495388" />
	</node>
	<node id="-90065" lat="61.6117722209" lon="11.525849993">
		<tag k="name" v="Storhøgda" />
		<tag k="natural" v="hill" />
		<tag k="place" v="locality" />
		<tag k="ssr:stedsnr" v="495344" />
	</node>
	<node id="-90062" lat="61.5198750016" lon="11.4105166648">
		<tag k="name" v="Knappane" />
		<tag k="natural" v="hill" />
		<tag k="place" v="locality" />
		<tag k="ssr:stedsnr" v="495312" />
	</node>
	<node id="-91127" lat="61.8955527755" lon="11.6886083355">
		<tag k="alt_name" v="Rødvorda" />
		<tag k="fixme" v="consider natural=peak for the most distinct mountains in the district" />
		<tag k="name" v="Rødvola" />
		<tag k="natural" v="hill" />
		<tag k="place" v="locality" />
		<tag k="ssr:stedsnr" v="800991" />
	</node>
	<node id="-90055" lat="61.7186055571" lon="11.0725249969">
		<tag k="fixme" v="consider natural=peak for the most distinct mountains in the district" />
		<tag k="name" v="Storfjellet" />
		<tag k="natural" v="hill" />
		<tag k="place" v="locality" />
		<tag k="ssr:stedsnr" v="495206" />
	</node>
	<node id="-90785" lat="61.7602361123" lon="10.8923527702">
		<tag k="name" v="Veslsalen" />
		<tag k="natural" v="valley" />
		<tag k="place" v="locality" />
		<tag k="ssr:stedsnr" v="724420" />
	</node>
	<node id="-90048" lat="62.0262555591" lon="10.9696472173">
		<tag k="name" v="Skårsåbørtet" />
		<tag k="natural" v="slope" />
		<tag k="place" v="locality" />
		<tag k="ssr:stedsnr" v="483878" />
	</node>
	<node id="-90044" lat="61.8445194464" lon="11.0737750027">
		<tag k="fixme" v="consider natural=peak for the most distinct mountains in the district" />
		<tag k="name" v="Veslefjellet" />
		<tag k="natural" v="hill" />
		<tag k="place" v="locality" />
		<tag k="ssr:stedsnr" v="483827" />
	</node>
	<node id="-90041" lat="61.6233416707" lon="11.1801000069">
		<tag k="name" v="Brakkedalen" />
		<tag k="natural" v="valley" />
		<tag k="place" v="locality" />
		<tag k="ssr:stedsnr" v="483921" />
	</node>
	<node id="-90038" lat="61.9089638896" lon="10.9087222225">
		<tag k="name" v="Åsen" />
		<tag k="natural" v="hill" />
		<tag k="place" v="locality" />
		<tag k="ssr:stedsnr" v="483660" />
	</node>
	<node id="-90034" lat="62.0183222231" lon="11.5335666724">
		<tag k="name" v="Sølnmoen" />
		<tag k="place" v="locality" />
		<tag k="ssr:stedsnr" v="483454" />
	</node>
	<node id="-90029" lat="61.6597249984" lon="11.1302611104">
		<tag k="name" v="Smørstubben" />
		<tag k="place" v="locality" />
		<tag k="ssr:stedsnr" v="483093" />
	</node>
	<node id="-90023" lat="62.0458694489" lon="11.1261194357">
		<tag k="fixme" v="consider natural=peak for the most distinct mountains in the district" />
		<tag k="name" v="Fellingåsen" />
		<tag k="natural" v="hill" />
		<tag k="place" v="locality" />
		<tag k="ssr:stedsnr" v="482332" />
	</node>
	<node id="-90020" lat="61.999052778" lon="11.1873694426">
		<tag k="name" v="Bøylen" />
		<tag k="place" v="locality" />
		<tag k="ssr:stedsnr" v="482294" />
	</node>
	<node id="-90019" lat="61.4387249992" lon="11.4747416603">
		<tag k="fixme" v="consider natural=peak for the most distinct mountains in the district" />
		<tag k="name" v="Nordre Åsen" />
		<tag k="natural" v="hill" />
		<tag k="place" v="locality" />
		<tag k="ssr:stedsnr" v="482291" />
	</node>
	<node id="-90015" lat="61.7425944485" lon="11.295783327">
		<tag k="name" v="Blåhølet" />
		<tag k="natural" v="valley" />
		<tag k="place" v="locality" />
		<tag k="ssr:stedsnr" v="481987" />
	</node>
	<node id="-90014" lat="61.7456416629" lon="11.2454916617">
		<tag k="name" v="Svemåsåkvolvet" />
		<tag k="natural" v="valley" />
		<tag k="place" v="locality" />
		<tag k="ssr:stedsnr" v="481971" />
	</node>
	<node id="-90011" lat="61.6277194442" lon="11.1531638932">
		<tag k="name" v="Vesletorvet" />
		<tag k="place" v="locality" />
		<tag k="ssr:stedsnr" v="481889" />
	</node>
	<node id="-90009" lat="61.8158750008" lon="10.972430564">
		<tag k="name" v="Langåsen" />
		<tag k="natural" v="hill" />
		<tag k="place" v="locality" />
		<tag k="ssr:stedsnr" v="481804" />
	</node>
	<node id="-90000" lat="61.5825166624" lon="11.239219442">
		<tag k="name" v="Brennsatan" />
		<tag k="place" v="locality" />
		<tag k="ssr:stedsnr" v="481344" />
	</node>
	<node id="-89999" lat="61.4811388919" lon="11.2456833392">
		<tag k="name" v="Jøkulen" />
		<tag k="natural" v="hill" />
		<tag k="place" v="locality" />
		<tag k="ssr:stedsnr" v="481326" />
	</node>
	<node id="-89996" lat="61.9998722201" lon="11.1007750067">
		<tag k="fixme" v="consider natural=peak for the most distinct mountains in the district" />
		<tag k="name" v="Digerhammerberget" />
		<tag k="natural" v="hill" />
		<tag k="place" v="locality" />
		<tag k="ssr:stedsnr" v="481284" />
	</node>
	<node id="-89994" lat="61.8966833338" lon="11.1579888875">
		<tag k="fixme" v="consider natural=peak for the most distinct mountains in the district" />
		<tag k="name" v="Bergevollåsen" />
		<tag k="natural" v="hill" />
		<tag k="place" v="locality" />
		<tag k="ssr:stedsnr" v="481215" />
	</node>
	<node id="-89991" lat="61.4511638874" lon="11.4114444352">
		<tag k="name" v="Skramsliåsen" />
		<tag k="natural" v="hill" />
		<tag k="place" v="locality" />
		<tag k="ssr:stedsnr" v="481202" />
	</node>
	<node id="-89988" lat="61.6964055545" lon="11.1852250036">
		<tag k="fixme" v="consider natural=peak for the most distinct mountains in the district" />
		<tag k="name" v="Åsberget" />
		<tag k="natural" v="hill" />
		<tag k="place" v="locality" />
		<tag k="ssr:stedsnr" v="481160" />
	</node>
	<node id="-89986" lat="61.6737694443" lon="11.2514888936">
		<tag k="fixme" v="consider natural=peak for the most distinct mountains in the district" />
		<tag k="name" v="Lomtjønnåsen" />
		<tag k="natural" v="hill" />
		<tag k="place" v="locality" />
		<tag k="ssr:stedsnr" v="458225" />
	</node>
	<node id="-89978" lat="61.7490861081" lon="11.1475611106">
		<tag k="name" v="Meliskletta" />
		<tag k="place" v="locality" />
		<tag k="ssr:stedsnr" v="451098" />
	</node>
	<node id="-89973" lat="61.7752777745" lon="11.0914499909">
		<tag k="fixme" v="consider natural=peak for the most distinct mountains in the district" />
		<tag k="name" v="Motjønnåsen" />
		<tag k="natural" v="hill" />
		<tag k="place" v="locality" />
		<tag k="ssr:stedsnr" v="450167" />
	</node>
	<node id="-89972" lat="61.9712694455" lon="11.1603499996">
		<tag k="name" v="Slåttdalen" />
		<tag k="natural" v="valley" />
		<tag k="place" v="locality" />
		<tag k="ssr:stedsnr" v="444263" />
	</node>
	<node id="-89971" lat="61.996899999" lon="11.220413893">
		<tag k="name" v="Sørvollshaugen" />
		<tag k="natural" v="hill" />
		<tag k="place" v="locality" />
		<tag k="ssr:stedsnr" v="444258" />
	</node>
	<node id="-89970" lat="61.8986027811" lon="11.5322361136">
		<tag k="alt_name" v="Sølen, nordre" />
		<tag k="fixme" v="consider natural=peak for the most distinct mountains in the district" />
		<tag k="name" v="Nordre Sølen" />
		<tag k="natural" v="hill" />
		<tag k="place" v="locality" />
		<tag k="ssr:stedsnr" v="436985" />
	</node>
	<node id="-89969" lat="61.8373250013" lon="11.6540249937">
		<tag k="alt_name" v="Ørsjøvorda" />
		<tag k="fixme" v="consider natural=peak for the most distinct mountains in the district" />
		<tag k="name" v="Ørsjøvola" />
		<tag k="natural" v="hill" />
		<tag k="place" v="locality" />
		<tag k="ssr:stedsnr" v="436961" />
	</node>
	<node id="-89967" lat="62.0668444448" lon="11.2249444447">
		<tag k="fixme" v="consider natural=peak for the most distinct mountains in the district" />
		<tag k="name" v="Brennkletten" />
		<tag k="natural" v="hill" />
		<tag k="place" v="locality" />
		<tag k="ssr:stedsnr" v="436386" />
	</node>
	<node id="-89965" lat="62.1551666633" lon="11.4617638809">
		<tag k="alt_name" v="Kletten, s" />
		<tag k="fixme" v="consider natural=peak for the most distinct mountains in the district" />
		<tag k="name" v="Søndre Kletten" />
		<tag k="natural" v="hill" />
		<tag k="place" v="locality" />
		<tag k="ssr:stedsnr" v="436361" />
	</node>
	<node id="-89964" lat="61.8919138926" lon="11.0477500052">
		<tag k="fixme" v="consider natural=peak for the most distinct mountains in the district" />
		<tag k="name" v="Trønneskampen" />
		<tag k="natural" v="hill" />
		<tag k="place" v="locality" />
		<tag k="ssr:stedsnr" v="436324" />
	</node>
	<node id="-89962" lat="61.9323236513" lon="11.1258786882">
		<tag k="name" v="Haugsetberget" />
		<tag k="natural" v="hill" />
		<tag k="place" v="locality" />
		<tag k="ssr:stedsnr" v="436221" />
	</node>
	<node id="-89960" lat="61.9603055529" lon="11.1538249967">
		<tag k="alt_name" v="Raudvorda" />
		<tag k="fixme" v="consider natural=peak for the most distinct mountains in the district" />
		<tag k="name" v="Rødvola" />
		<tag k="natural" v="hill" />
		<tag k="place" v="locality" />
		<tag k="ssr:stedsnr" v="436217" />
	</node>
	<node id="-91452" lat="61.8457611149" lon="11.0002638873">
		<tag k="fixme" v="consider natural=peak for the most distinct mountains in the district" />
		<tag k="name" v="Kloppåsen" />
		<tag k="natural" v="hill" />
		<tag k="place" v="locality" />
		<tag k="ssr:stedsnr" v="921168" />
	</node>
	<node id="-89956" lat="61.8757388852" lon="10.7283833403">
		<tag k="fixme" v="consider natural=peak for the most distinct mountains in the district" />
		<tag k="name" v="Brennfjellet" />
		<tag k="natural" v="hill" />
		<tag k="place" v="locality" />
		<tag k="ssr:stedsnr" v="436119" />
	</node>
	<node id="-89955" lat="62.092391668" lon="11.0962750001">
		<tag k="fixme" v="consider natural=peak for the most distinct mountains in the district" />
		<tag k="name" v="Langkletten" />
		<tag k="natural" v="hill" />
		<tag k="place" v="locality" />
		<tag k="ssr:stedsnr" v="436094" />
	</node>
	<node id="-89950" lat="62.0655388867" lon="11.1282444381">
		<tag k="fixme" v="consider natural=peak for the most distinct mountains in the district" />
		<tag k="name" v="Klettsæterklettan" />
		<tag k="natural" v="hill" />
		<tag k="place" v="locality" />
		<tag k="ssr:stedsnr" v="436012" />
	</node>
	<node id="-91450" lat="61.8638805564" lon="11.0738250056">
		<tag k="fixme" v="consider natural=peak for the most distinct mountains in the district" />
		<tag k="name" v="Sauskarven" />
		<tag k="natural" v="hill" />
		<tag k="place" v="locality" />
		<tag k="ssr:stedsnr" v="921156" />
	</node>
	<node id="-89945" lat="61.5490083376" lon="11.3971083324">
		<tag k="fixme" v="consider natural=peak for the most distinct mountains in the district" />
		<tag k="name" v="Tørråsen" />
		<tag k="natural" v="hill" />
		<tag k="place" v="locality" />
		<tag k="ssr:stedsnr" v="435803" />
	</node>
	<node id="-89944" lat="61.5236722181" lon="11.7568166682">
		<tag k="alt_name" v="Nordre Raudfjellet;Raudfjellet" />
		<tag k="fixme" v="consider natural=peak for the most distinct mountains in the district" />
		<tag k="name" v="Nørdre Raudfjellet" />
		<tag k="natural" v="hill" />
		<tag k="place" v="locality" />
		<tag k="ssr:stedsnr" v="435721" />
	</node>
	<node id="-89941" lat="61.9184527808" lon="10.6536888804">
		<tag k="alt_name" v="Småvordan" />
		<tag k="fixme" v="consider natural=peak for the most distinct mountains in the district" />
		<tag k="name" v="Småvolan" />
		<tag k="natural" v="hill" />
		<tag k="place" v="locality" />
		<tag k="ssr:stedsnr" v="435517" />
	</node>
	<node id="-89940" lat="62.188083336" lon="11.267183326">
		<tag k="name" v="Brurhøgda" />
		<tag k="natural" v="hill" />
		<tag k="place" v="locality" />
		<tag k="ssr:stedsnr" v="435513" />
	</node>
	<node id="-89937" lat="61.9639500032" lon="10.5470000063">
		<tag k="fixme" v="consider natural=peak for the most distinct mountains in the district" />
		<tag k="name" v="Storhøa" />
		<tag k="natural" v="hill" />
		<tag k="place" v="locality" />
		<tag k="ssr:stedsnr" v="435500" />
	</node>
	<node id="-89934" lat="62.0192499976" lon="11.3027944368">
		<tag k="name" v="Smikkjølhøgda" />
		<tag k="natural" v="hill" />
		<tag k="place" v="locality" />
		<tag k="ssr:stedsnr" v="435472" />
	</node>
	<node id="-89926" lat="61.6995749993" lon="11.2768166653">
		<tag k="alt_name" v="Kongsskardåsen, vestre" />
		<tag k="fixme" v="consider natural=peak for the most distinct mountains in the district" />
		<tag k="name" v="Vestre Kongsskardåsen" />
		<tag k="natural" v="hill" />
		<tag k="place" v="locality" />
		<tag k="ssr:stedsnr" v="435422" />
	</node>
	<node id="-89920" lat="61.9525249966" lon="10.9377611079">
		<tag k="fixme" v="consider natural=peak for the most distinct mountains in the district" />
		<tag k="name" v="Barkaldåsen" />
		<tag k="natural" v="hill" />
		<tag k="place" v="locality" />
		<tag k="ssr:stedsnr" v="435375" />
	</node>
	<node id="-89913" lat="61.7331638897" lon="11.0802249943">
		<tag k="alt_name" v="Åkeråbotnen" />
		<tag k="name" v="Åkeråbotnet" />
		<tag k="natural" v="valley" />
		<tag k="place" v="locality" />
		<tag k="ssr:stedsnr" v="435243" />
	</node>
	<node id="-89905" lat="62.100499997" lon="10.9626027747">
		<tag k="fixme" v="consider natural=peak for the most distinct mountains in the district" />
		<tag k="name" v="Risbekkfjellet" />
		<tag k="natural" v="hill" />
		<tag k="place" v="locality" />
		<tag k="ssr:stedsnr" v="435152" />
	</node>
	<node id="-89901" lat="62.1088083301" lon="11.0724138851">
		<tag k="name" v="Skarvdalen" />
		<tag k="natural" v="valley" />
		<tag k="place" v="locality" />
		<tag k="ssr:stedsnr" v="435095" />
	</node>
	<node id="-89888" lat="61.6196249976" lon="11.720058335">
		<tag k="fixme" v="consider natural=peak for the most distinct mountains in the district" />
		<tag k="name" v="Storbekkmåna" />
		<tag k="natural" v="hill" />
		<tag k="place" v="locality" />
		<tag k="ssr:stedsnr" v="434301" />
	</node>
	<node id="-89885" lat="61.6237166699" lon="11.2364194446">
		<tag k="name" v="Midtskaret" />
		<tag k="natural" v="valley" />
		<tag k="place" v="locality" />
		<tag k="ssr:stedsnr" v="433370" />
	</node>
	<node id="-89883" lat="61.4801055546" lon="11.5262749986">
		<tag k="fixme" v="consider natural=peak for the most distinct mountains in the district" />
		<tag k="name" v="Høgåsen" />
		<tag k="natural" v="hill" />
		<tag k="place" v="locality" />
		<tag k="ssr:stedsnr" v="433185" />
	</node>
	<node id="-91439" lat="62.0354638914" lon="11.0983583263">
		<tag k="fixme" v="consider natural=peak for the most distinct mountains in the district" />
		<tag k="name" v="Hanakammen" />
		<tag k="natural" v="hill" />
		<tag k="place" v="locality" />
		<tag k="ssr:stedsnr" v="921059" />
	</node>
	<node id="-89870" lat="61.8150138871" lon="11.0334861175">
		<tag k="name" v="Klettroa" />
		<tag k="natural" v="valley" />
		<tag k="place" v="locality" />
		<tag k="ssr:stedsnr" v="422793" />
	</node>
	<node id="-89869" lat="61.9406972218" lon="11.006461103">
		<tag k="name" v="Kolsveløpa" />
		<tag k="natural" v="valley" />
		<tag k="place" v="locality" />
		<tag k="ssr:stedsnr" v="422771" />
	</node>
	<node id="-89867" lat="61.8464416702" lon="10.8776944388">
		<tag k="name" v="Fallbakkene" />
		<tag k="natural" v="slope" />
		<tag k="place" v="locality" />
		<tag k="ssr:stedsnr" v="422695" />
	</node>
	<node id="-89860" lat="62.053344442" lon="11.4669333347">
		<tag k="name" v="Meiådalen" />
		<tag k="natural" v="valley" />
		<tag k="place" v="locality" />
		<tag k="ssr:stedsnr" v="422410" />
	</node>
	<node id="-89857" lat="61.9725666674" lon="11.5131472305">
		<tag k="name" v="Haukhaugen" />
		<tag k="natural" v="hill" />
		<tag k="place" v="locality" />
		<tag k="ssr:stedsnr" v="422394" />
	</node>
	<node id="-89848" lat="61.4425555567" lon="11.4465666704">
		<tag k="name" v="Vardehaugen" />
		<tag k="natural" v="hill" />
		<tag k="place" v="locality" />
		<tag k="ssr:stedsnr" v="422290" />
	</node>
	<node id="-91237" lat="61.8209249978" lon="11.1981916721">
		<tag k="alt_name" v="Ælingsåkletten" />
		<tag k="fixme" v="consider natural=peak for the most distinct mountains in the district" />
		<tag k="name" v="Elingsåkletten" />
		<tag k="natural" v="hill" />
		<tag k="place" v="locality" />
		<tag k="ssr:stedsnr" v="860053" />
	</node>
	<node id="-89839" lat="61.7733527759" lon="11.5117388914">
		<tag k="name" v="Grønhue" />
		<tag k="natural" v="hill" />
		<tag k="place" v="locality" />
		<tag k="ssr:stedsnr" v="421825" />
	</node>
	<node id="-89837" lat="61.8033527796" lon="11.0147666699">
		<tag k="name" v="Dansarjota" />
		<tag k="place" v="locality" />
		<tag k="ssr:stedsnr" v="421748" />
	</node>
	<node id="-89835" lat="61.7771222199" lon="11.0319666593">
		<tag k="name" v="Heståsen" />
		<tag k="natural" v="hill" />
		<tag k="place" v="locality" />
		<tag k="ssr:stedsnr" v="421640" />
	</node>
	<node id="-89833" lat="61.739838892" lon="11.2472277738">
		<tag k="name" v="Gråhammeren" />
		<tag k="natural" v="hill" />
		<tag k="place" v="locality" />
		<tag k="ssr:stedsnr" v="421503" />
	</node>
	<node id="-89830" lat="61.7403861089" lon="11.2184166703">
		<tag k="name" v="Vampmyrdalen" />
		<tag k="natural" v="valley" />
		<tag k="place" v="locality" />
		<tag k="ssr:stedsnr" v="420975" />
	</node>
	<node id="-89828" lat="61.6549055538" lon="11.2442583266">
		<tag k="name" v="Bogen" />
		<tag k="place" v="locality" />
		<tag k="ssr:stedsnr" v="420405" />
	</node>
	<node id="-89824" lat="61.55749167" lon="11.2768222189">
		<tag k="name" v="Borkhusdalen" />
		<tag k="natural" v="valley" />
		<tag k="place" v="locality" />
		<tag k="ssr:stedsnr" v="420323" />
	</node>
	<node id="-89823" lat="61.5793138852" lon="11.2311833347">
		<tag k="name" v="Rensbåsa" />
		<tag k="place" v="locality" />
		<tag k="ssr:stedsnr" v="420311" />
	</node>
	<node id="-89822" lat="61.6089861079" lon="11.2395472303">
		<tag k="name" v="Løpskjæret" />
		<tag k="natural" v="hill" />
		<tag k="place" v="locality" />
		<tag k="ssr:stedsnr" v="420306" />
	</node>
	<node id="-89814" lat="61.8011777819" lon="10.8804055471">
		<tag k="name" v="Gammelbutomta" />
		<tag k="place" v="locality" />
		<tag k="ssr:stedsnr" v="262621" />
	</node>
	<node id="-89813" lat="61.7545527741" lon="11.1028111161">
		<tag k="name" v="Ottdalen" />
		<tag k="natural" v="valley" />
		<tag k="place" v="locality" />
		<tag k="ssr:stedsnr" v="262262" />
	</node>
	<node id="-89811" lat="62.081819443" lon="11.4730916713">
		<tag k="name" v="Sølendalen" />
		<tag k="natural" v="valley" />
		<tag k="place" v="locality" />
		<tag k="ssr:stedsnr" v="254381" />
	</node>
	<node id="-89806" lat="61.8712694407" lon="10.9466027827">
		<tag k="alt_name" v="Tingstadåsen" />
		<tag k="fixme" v="consider natural=peak for the most distinct mountains in the district" />
		<tag k="name" v="Tengstadåsen" />
		<tag k="natural" v="hill" />
		<tag k="place" v="locality" />
		<tag k="ssr:stedsnr" v="254118" />
	</node>
	<node id="-88839" lat="62.0435638882" lon="11.14101667">
		<tag k="name" v="Sollern" />
		<tag k="natural" v="hill" />
		<tag k="place" v="locality" />
		<tag k="ssr:stedsnr" v="361369" />
	</node>
	<node id="-91372" lat="62.0488833313" lon="11.1294277756">
		<tag k="name" v="Oksehullet" />
		<tag k="natural" v="valley" />
		<tag k="place" v="locality" />
		<tag k="ssr:stedsnr" v="908356" />
	</node>
	<node id="-89786" lat="61.9748305552" lon="11.2968083289">
		<tag k="fixme" v="consider natural=peak for the most distinct mountains in the district" />
		<tag k="name" v="Kverninghøgda" />
		<tag k="natural" v="hill" />
		<tag k="place" v="locality" />
		<tag k="ssr:stedsnr" v="253255" />
	</node>
	<node id="-89785" lat="61.9806861135" lon="11.360550001">
		<tag k="name" v="Misterfløyet" />
		<tag k="natural" v="plateau" />
		<tag k="ssr:stedsnr" v="253251" />
	</node>
	<node id="-89783" lat="61.7883277743" lon="10.8792777682">
		<tag k="fixme" v="consider natural=peak for the most distinct mountains in the district" />
		<tag k="name" v="Sagåsen" />
		<tag k="natural" v="hill" />
		<tag k="place" v="locality" />
		<tag k="ssr:stedsnr" v="253231" />
	</node>
	<node id="-89781" lat="61.8138888858" lon="10.8809527696">
		<tag k="alt_name" v="Hanekampen" />
		<tag k="fixme" v="consider natural=peak for the most distinct mountains in the district" />
		<tag k="name" v="Hanakampen" />
		<tag k="natural" v="hill" />
		<tag k="place" v="locality" />
		<tag k="ssr:stedsnr" v="253208" />
	</node>
	<node id="-89763" lat="62.0836638856" lon="11.0957666648">
		<tag k="name" v="Skarven" />
		<tag k="natural" v="hill" />
		<tag k="place" v="locality" />
		<tag k="ssr:stedsnr" v="253030" />
	</node>
	<node id="-89758" lat="61.8681444476" lon="11.461299991">
		<tag k="alt_name" v="Sølenholet, søre" />
		<tag k="name" v="Søre Sølenholet" />
		<tag k="natural" v="valley" />
		<tag k="place" v="locality" />
		<tag k="ssr:stedsnr" v="253003" />
	</node>
	<node id="-89756" lat="61.5528027742" lon="11.5068749943">
		<tag k="fixme" v="consider natural=peak for the most distinct mountains in the district" />
		<tag k="name" v="Raudfjellet" />
		<tag k="natural" v="hill" />
		<tag k="place" v="locality" />
		<tag k="ssr:stedsnr" v="252697" />
	</node>
	<node id="-89754" lat="61.5661972209" lon="11.7510916574">
		<tag k="fixme" v="consider natural=peak for the most distinct mountains in the district" />
		<tag k="name" v="Ryensjøhøgda" />
		<tag k="natural" v="hill" />
		<tag k="place" v="locality" />
		<tag k="ssr:stedsnr" v="252693" />
	</node>
	<node id="-89750" lat="61.5892527819" lon="11.2925388838">
		<tag k="name" v="Valsjødalen" />
		<tag k="natural" v="valley" />
		<tag k="place" v="locality" />
		<tag k="ssr:stedsnr" v="252407" />
	</node>
	<node id="-89748" lat="61.7067361117" lon="11.3003138882">
		<tag k="alt_name" v="Kongsskardåsen, østre" />
		<tag k="fixme" v="consider natural=peak for the most distinct mountains in the district" />
		<tag k="name" v="Østre Kongsskardåsen" />
		<tag k="natural" v="hill" />
		<tag k="place" v="locality" />
		<tag k="ssr:stedsnr" v="252399" />
	</node>
	<node id="-89745" lat="61.7176666693" lon="11.2868777856">
		<tag k="name" v="Misterlia" />
		<tag k="natural" v="slope" />
		<tag k="place" v="locality" />
		<tag k="ssr:stedsnr" v="252392" />
	</node>
	<node id="-89743" lat="61.5978500033" lon="11.7453222195">
		<tag k="fixme" v="consider natural=peak for the most distinct mountains in the district" />
		<tag k="name" v="Krokbekkmåna" />
		<tag k="natural" v="hill" />
		<tag k="place" v="locality" />
		<tag k="ssr:stedsnr" v="252312" />
	</node>
	<node id="-89742" lat="61.5993166706" lon="11.582683326">
		<tag k="fixme" v="consider natural=peak for the most distinct mountains in the district" />
		<tag k="loc_name" v="Bordveggen" />
		<tag k="name" v="Borveggen" />
		<tag k="natural" v="hill" />
		<tag k="place" v="locality" />
		<tag k="ssr:stedsnr" v="252310" />
	</node>
	<node id="-89741" lat="61.6349694438" lon="11.68463889">
		<tag k="alt_name" v="Osdalssjøhøgda, østre" />
		<tag k="fixme" v="consider natural=peak for the most distinct mountains in the district" />
		<tag k="name" v="Østre Osdalssjøhøgda" />
		<tag k="natural" v="hill" />
		<tag k="place" v="locality" />
		<tag k="ssr:stedsnr" v="252292" />
	</node>
	<node id="-89736" lat="61.4576583333" lon="11.2557277848">
		<tag k="name" v="Mørkletten" />
		<tag k="natural" v="hill" />
		<tag k="place" v="locality" />
		<tag k="ssr:stedsnr" v="251124" />
	</node>
	<node id="-89723" lat="61.7813888894" lon="11.2124638951">
		<tag k="name" v="Skårdalen" />
		<tag k="natural" v="valley" />
		<tag k="place" v="locality" />
		<tag k="ssr:stedsnr" v="240898" />
	</node>
	<node id="-89722" lat="61.6865305524" lon="11.0783055637">
		<tag k="name" v="Kartrøsta" />
		<tag k="natural" v="slope" />
		<tag k="place" v="locality" />
		<tag k="ssr:stedsnr" v="240845" />
	</node>
	<node id="-89719" lat="61.851952774" lon="11.0654638803">
		<tag k="name" v="Sandbekkbørtet" />
		<tag k="natural" v="slope" />
		<tag k="place" v="locality" />
		<tag k="ssr:stedsnr" v="240792" />
	</node>
	<node id="-89716" lat="61.9293833367" lon="11.005688894">
		<tag k="name" v="Heimlia" />
		<tag k="natural" v="slope" />
		<tag k="place" v="locality" />
		<tag k="ssr:stedsnr" v="240779" />
	</node>
	<node id="-89713" lat="61.7039611136" lon="11.218569448">
		<tag k="fixme" v="consider natural=peak for the most distinct mountains in the district" />
		<tag k="name" v="Bringebæråsen" />
		<tag k="natural" v="hill" />
		<tag k="place" v="locality" />
		<tag k="ssr:stedsnr" v="240678" />
	</node>
	<node id="-89709" lat="61.7254472178" lon="11.2344055611">
		<tag k="name" v="Vatninga" />
		<tag k="place" v="locality" />
		<tag k="ssr:stedsnr" v="240664" />
	</node>
	<node id="-89706" lat="61.9520916643" lon="10.9548499912">
		<tag k="name" v="Slaggrøstvegen" />
		<tag k="natural" v="slope" />
		<tag k="place" v="locality" />
		<tag k="ssr:stedsnr" v="240653" />
	</node>
	<node id="-89705" lat="61.6843694413" lon="11.2710500091">
		<tag k="name" v="Bjønnstille" />
		<tag k="place" v="locality" />
		<tag k="ssr:stedsnr" v="240649" />
	</node>
	<node id="-89704" lat="61.6851166627" lon="11.2726888819">
		<tag k="name" v="Djupdalen" />
		<tag k="natural" v="valley" />
		<tag k="place" v="locality" />
		<tag k="ssr:stedsnr" v="240650" />
	</node>
	<node id="-89703" lat="61.8467861136" lon="10.8597499918">
		<tag k="fixme" v="consider natural=peak for the most distinct mountains in the district" />
		<tag k="name" v="Stenbrøttåsen" />
		<tag k="natural" v="hill" />
		<tag k="place" v="locality" />
		<tag k="ssr:stedsnr" v="240615" />
	</node>
	<node id="-89702" lat="61.6658111148" lon="11.2240166723">
		<tag k="name" v="Vikdalen" />
		<tag k="natural" v="valley" />
		<tag k="place" v="locality" />
		<tag k="ssr:stedsnr" v="240533" />
	</node>
	<node id="-89693" lat="62.0779666691" lon="11.3989194369">
		<tag k="name" v="Løvåsen" />
		<tag k="natural" v="hill" />
		<tag k="place" v="locality" />
		<tag k="ssr:stedsnr" v="240363" />
	</node>
	<node id="-91066" lat="61.9274388847" lon="10.7825888909">
		<tag k="fixme" v="consider natural=peak for the most distinct mountains in the district" />
		<tag k="name" v="Svartfjellet" />
		<tag k="natural" v="hill" />
		<tag k="place" v="locality" />
		<tag k="ssr:stedsnr" v="799378" />
	</node>
	<node id="-89690" lat="62.0354805587" lon="11.1406361067">
		<tag k="name" v="Bjønndalen" />
		<tag k="natural" v="valley" />
		<tag k="place" v="locality" />
		<tag k="ssr:stedsnr" v="240340" />
	</node>
	<node id="-89689" lat="61.4974361147" lon="11.4773777716">
		<tag k="name" v="Gravdalsskaret" />
		<tag k="natural" v="valley" />
		<tag k="place" v="locality" />
		<tag k="ssr:stedsnr" v="240335" />
	</node>
	<node id="-89688" lat="62.0185750036" lon="11.1164583293">
		<tag k="name" v="Erikshølet" />
		<tag k="natural" v="valley" />
		<tag k="place" v="locality" />
		<tag k="ssr:stedsnr" v="240334" />
	</node>
	<node id="-89685" lat="61.8083138901" lon="10.7908277825">
		<tag k="name" v="Gammelbudalen" />
		<tag k="natural" v="valley" />
		<tag k="place" v="locality" />
		<tag k="ssr:stedsnr" v="240310" />
	</node>
	<node id="-89681" lat="62.0691638889" lon="11.0660416685">
		<tag k="fixme" v="consider natural=peak for the most distinct mountains in the district" />
		<tag k="name" v="Neklikampen" />
		<tag k="natural" v="hill" />
		<tag k="place" v="locality" />
		<tag k="ssr:stedsnr" v="240291" />
	</node>
	<node id="-89680" lat="61.9103388857" lon="10.8546694459">
		<tag k="name" v="Ranegga" />
		<tag k="natural" v="ridge" />
		<tag k="place" v="locality" />
		<tag k="ssr:stedsnr" v="240711" />
	</node>
	<node id="-89679" lat="61.985044446" lon="11.0961083335">
		<tag k="name" v="Snørengløpa" />
		<tag k="place" v="locality" />
		<tag k="ssr:stedsnr" v="240128" />
	</node>
	<node id="-89678" lat="62.043544446" lon="11.3896694456">
		<tag k="name" v="Gråmerra" />
		<tag k="place" v="locality" />
		<tag k="ssr:stedsnr" v="240114" />
	</node>
	<node id="-89677" lat="61.8541777756" lon="11.1741361132">
		<tag k="name" v="Søndre Kvolvet" />
		<tag k="natural" v="valley" />
		<tag k="place" v="locality" />
		<tag k="ssr:stedsnr" v="240235" />
	</node>
	<node id="-89676" lat="61.6926527802" lon="11.0847805608">
		<tag k="name" v="Kartrøstfløyet" />
		<tag k="natural" v="slope" />
		<tag k="place" v="locality" />
		<tag k="ssr:stedsnr" v="240088" />
	</node>
	<node id="-89675" lat="61.6436083327" lon="11.1541583258">
		<tag k="fixme" v="consider natural=peak for the most distinct mountains in the district" />
		<tag k="name" v="Sagåsen" />
		<tag k="natural" v="hill" />
		<tag k="place" v="locality" />
		<tag k="ssr:stedsnr" v="240078" />
	</node>
	<node id="-89672" lat="61.6548611108" lon="11.1816222302">
		<tag k="name" v="Grispurkholet" />
		<tag k="natural" v="valley" />
		<tag k="place" v="locality" />
		<tag k="ssr:stedsnr" v="240074" />
	</node>
	<node id="-89669" lat="61.7979583336" lon="10.9758305547">
		<tag k="fixme" v="consider natural=peak for the most distinct mountains in the district" />
		<tag k="name" v="Kivsjøåsen" />
		<tag k="natural" v="hill" />
		<tag k="place" v="locality" />
		<tag k="ssr:stedsnr" v="239749" />
	</node>
	<node id="-89667" lat="61.7913527785" lon="10.9560805511">
		<tag k="name" v="Dansjota" />
		<tag k="place" v="locality" />
		<tag k="ssr:stedsnr" v="239414" />
	</node>
	<node id="-89664" lat="61.7652888847" lon="11.2275666577">
		<tag k="name" v="Kvernbekkbotne" />
		<tag k="natural" v="valley" />
		<tag k="place" v="locality" />
		<tag k="ssr:stedsnr" v="238978" />
	</node>
	<node id="-89663" lat="61.6405027742" lon="11.1815416678">
		<tag k="name" v="Vassbekkdalen" />
		<tag k="natural" v="valley" />
		<tag k="place" v="locality" />
		<tag k="ssr:stedsnr" v="239912" />
	</node>
	<node id="-89660" lat="61.549383334" lon="11.2737083289">
		<tag k="name" v="Kvitbergfløtningen" />
		<tag k="place" v="locality" />
		<tag k="ssr:stedsnr" v="238356" />
	</node>
	<node id="-89657" lat="61.7566111094" lon="11.0894722182">
		<tag k="name" v="Ottdalsbrottet" />
		<tag k="natural" v="slope" />
		<tag k="place" v="locality" />
		<tag k="ssr:stedsnr" v="238271" />
	</node>
	<node id="-89647" lat="61.9400361128" lon="11.0795277804">
		<tag k="name" v="Gammelembretsløpa" />
		<tag k="natural" v="valley" />
		<tag k="place" v="locality" />
		<tag k="ssr:stedsnr" v="269056" />
	</node>
	<node id="-89642" lat="61.8158638911" lon="10.9575749919">
		<tag k="name" v="Horntjønnkletten" />
		<tag k="natural" v="hill" />
		<tag k="place" v="locality" />
		<tag k="ssr:stedsnr" v="214989" />
	</node>
	<node id="-89638" lat="61.8031472217" lon="11.1363083328">
		<tag k="name" v="Øyen" />
		<tag k="place" v="locality" />
		<tag k="ssr:stedsnr" v="208493" />
	</node>
	<node id="-91057" lat="61.7962499968" lon="11.04010555">
		<tag k="fixme" v="consider natural=peak for the most distinct mountains in the district" />
		<tag k="name" v="Langåsen" />
		<tag k="natural" v="hill" />
		<tag k="place" v="locality" />
		<tag k="ssr:stedsnr" v="799192" />
	</node>
	<node id="-89634" lat="61.8289388903" lon="11.0998333265">
		<tag k="name" v="Raufjellia" />
		<tag k="natural" v="slope" />
		<tag k="place" v="locality" />
		<tag k="ssr:stedsnr" v="208381" />
	</node>
	<node id="-89633" lat="61.851291663" lon="11.1114527796">
		<tag k="name" v="Kvarskauen" />
		<tag k="place" v="locality" />
		<tag k="ssr:stedsnr" v="208097" />
	</node>
	<node id="-91056" lat="62.1368861151" lon="11.1576749917">
		<tag k="name" v="Finnroa" />
		<tag k="natural" v="valley" />
		<tag k="place" v="locality" />
		<tag k="ssr:stedsnr" v="799176" />
	</node>
	<node id="-89630" lat="61.9347027766" lon="11.0682805548">
		<tag k="name" v="Svartmoegga" />
		<tag k="natural" v="ridge" />
		<tag k="place" v="locality" />
		<tag k="ssr:stedsnr" v="208056" />
	</node>
	<node id="-89629" lat="61.8483722181" lon="11.1097527747">
		<tag k="name" v="Fetten" />
		<tag k="place" v="locality" />
		<tag k="ssr:stedsnr" v="208036" />
	</node>
	<node id="-89626" lat="61.8278611121" lon="10.8921749955">
		<tag k="name" v="Kvitskjæret" />
		<tag k="natural" v="hill" />
		<tag k="place" v="locality" />
		<tag k="ssr:stedsnr" v="206521" />
	</node>
	<node id="-89625" lat="61.8168083303" lon="10.9451749997">
		<tag k="name" v="Storjota" />
		<tag k="place" v="locality" />
		<tag k="ssr:stedsnr" v="206516" />
	</node>
	<node id="-91396" lat="61.9845250043" lon="11.0132583358">
		<tag k="name" v="Skarvan" />
		<tag k="natural" v="hill" />
		<tag k="place" v="locality" />
		<tag k="ssr:stedsnr" v="908882" />
	</node>
	<node id="-89621" lat="61.8917527814" lon="11.1351000065">
		<tag k="alt_name" v="Skjæråsen" />
		<tag k="fixme" v="consider natural=peak for the most distinct mountains in the district" />
		<tag k="name" v="Skjeråsen" />
		<tag k="natural" v="hill" />
		<tag k="place" v="locality" />
		<tag k="ssr:stedsnr" v="202292" />
	</node>
	<node id="-89620" lat="62.0566055565" lon="11.5907027822">
		<tag k="fixme" v="consider natural=peak for the most distinct mountains in the district" />
		<tag k="name" v="Småklettan" />
		<tag k="natural" v="hill" />
		<tag k="place" v="locality" />
		<tag k="ssr:stedsnr" v="203103" />
	</node>
	<node id="-89619" lat="61.9431638885" lon="11.2228972162">
		<tag k="name" v="Djupdalen" />
		<tag k="natural" v="valley" />
		<tag k="place" v="locality" />
		<tag k="ssr:stedsnr" v="202277" />
	</node>
	<node id="-89618" lat="61.8840527745" lon="11.517022226">
		<tag k="alt_name" v="Sølen, midtre" />
		<tag k="fixme" v="consider natural=peak for the most distinct mountains in the district" />
		<tag k="name" v="Midtre Sølen" />
		<tag k="natural" v="hill" />
		<tag k="place" v="locality" />
		<tag k="ssr:stedsnr" v="193980" />
	</node>
	<node id="-89610" lat="61.917008329" lon="11.4361972192">
		<tag k="alt_name" v="Misterdalen" />
		<tag k="name" v="Mistdalen" />
		<tag k="natural" v="valley" />
		<tag k="place" v="locality" />
		<tag k="ssr:stedsnr" v="193225" />
	</node>
	<node id="-89607" lat="61.7718138918" lon="10.9298277863">
		<tag k="alt_name" v="Hanestadåsen;Hanestadfjellet" />
		<tag k="fixme" v="consider natural=peak for the most distinct mountains in the district" />
		<tag k="name" v="Hanestadvorda" />
		<tag k="natural" v="hill" />
		<tag k="place" v="locality" />
		<tag k="ssr:stedsnr" v="193195" />
	</node>
	<node id="-91050" lat="61.806158329" lon="11.2994222135">
		<tag k="fixme" v="consider natural=peak for the most distinct mountains in the district" />
		<tag k="name" v="Steinfjellet" />
		<tag k="natural" v="hill" />
		<tag k="place" v="locality" />
		<tag k="ssr:stedsnr" v="799028" />
	</node>
	<node id="-89593" lat="61.915913888" lon="10.5292250032">
		<tag k="name" v="Hattfløyet" />
		<tag k="natural" v="plateau" />
		<tag k="ssr:stedsnr" v="192511" />
	</node>
	<node id="-91024" lat="61.7080972191" lon="11.2359888829">
		<tag k="alt_name" v="Kværnøya" />
		<tag k="name" v="Kvernøya" />
		<tag k="place" v="locality" />
		<tag k="ssr:stedsnr" v="786661" />
	</node>
	<node id="-89589" lat="61.6550500003" lon="11.3473138976">
		<tag k="name" v="Stokkbekkdalen" />
		<tag k="natural" v="valley" />
		<tag k="place" v="locality" />
		<tag k="ssr:stedsnr" v="192491" />
	</node>
	<node id="-91390" lat="61.8715083356" lon="10.9417916729">
		<tag k="name" v="Tingstadlia" />
		<tag k="natural" v="slope" />
		<tag k="place" v="locality" />
		<tag k="ssr:stedsnr" v="908721" />
	</node>
	<node id="-89583" lat="61.5896305532" lon="11.2672166571">
		<tag k="name" v="Valsjøberget" />
		<tag k="natural" v="hill" />
		<tag k="place" v="locality" />
		<tag k="ssr:stedsnr" v="192467" />
	</node>
	<node id="-89581" lat="62.0041555535" lon="11.4211111102">
		<tag k="name" v="Tannberget" />
		<tag k="natural" v="hill" />
		<tag k="place" v="locality" />
		<tag k="ssr:stedsnr" v="192457" />
	</node>
	<node id="-89580" lat="62.0261750028" lon="11.3311333281">
		<tag k="name" v="Hovardshøgda" />
		<tag k="natural" v="hill" />
		<tag k="place" v="locality" />
		<tag k="ssr:stedsnr" v="192451" />
	</node>
	<node id="-90706" lat="62.0837750027" lon="11.0769888934">
		<tag k="name" v="Kvitrabben" />
		<tag k="natural" v="hill" />
		<tag k="place" v="locality" />
		<tag k="ssr:stedsnr" v="678031" />
	</node>
	<node id="-89574" lat="61.6860805517" lon="11.256575">
		<tag k="name" v="Sagskardet" />
		<tag k="natural" v="valley" />
		<tag k="place" v="locality" />
		<tag k="ssr:stedsnr" v="192409" />
	</node>
	<node id="-89572" lat="61.6950027799" lon="11.2667222151">
		<tag k="alt_name" v="Skogberghammeren" />
		<tag k="fixme" v="consider natural=peak for the most distinct mountains in the district" />
		<tag k="name" v="Skogberghammaren" />
		<tag k="natural" v="hill" />
		<tag k="place" v="locality" />
		<tag k="ssr:stedsnr" v="192402" />
	</node>
	<node id="-89571" lat="61.7012777756" lon="11.5388638826">
		<tag k="alt_name" v="Kvitåsen, østre" />
		<tag k="fixme" v="consider natural=peak for the most distinct mountains in the district" />
		<tag k="name" v="Østre Kvitåsen" />
		<tag k="natural" v="hill" />
		<tag k="place" v="locality" />
		<tag k="ssr:stedsnr" v="192386" />
	</node>
	<node id="-89569" lat="61.5819305526" lon="11.497527775">
		<tag k="name" v="Grøsjøhøgda" />
		<tag k="natural" v="hill" />
		<tag k="place" v="locality" />
		<tag k="ssr:stedsnr" v="192363" />
	</node>
	<node id="-89565" lat="61.618955554" lon="11.4973972291">
		<tag k="fixme" v="consider natural=peak for the most distinct mountains in the district" />
		<tag k="name" v="Nubben" />
		<tag k="natural" v="hill" />
		<tag k="place" v="locality" />
		<tag k="ssr:stedsnr" v="192338" />
	</node>
	<node id="-89561" lat="62.20011389" lon="11.2174249908">
		<tag k="name" v="Brennhøgda" />
		<tag k="natural" v="hill" />
		<tag k="place" v="locality" />
		<tag k="ssr:stedsnr" v="192261" />
	</node>
	<node id="-89553" lat="61.8504527786" lon="11.4326583342">
		<tag k="name" v="Smørholet" />
		<tag k="natural" v="valley" />
		<tag k="place" v="locality" />
		<tag k="ssr:stedsnr" v="192034" />
	</node>
	<node id="-89542" lat="61.6857805571" lon="11.1929805535">
		<tag k="name" v="Åsheimberget" />
		<tag k="natural" v="hill" />
		<tag k="place" v="locality" />
		<tag k="ssr:stedsnr" v="180071" />
	</node>
	<node id="-89541" lat="61.6595805539" lon="11.1362222153">
		<tag k="name" v="Storbakken" />
		<tag k="natural" v="slope" />
		<tag k="place" v="locality" />
		<tag k="ssr:stedsnr" v="180068" />
	</node>
	<node id="-89538" lat="61.9606888882" lon="11.0284500057">
		<tag k="name" v="Enerrøsta" />
		<tag k="natural" v="slope" />
		<tag k="place" v="locality" />
		<tag k="ssr:stedsnr" v="179869" />
	</node>
	<node id="-89536" lat="62.0443888865" lon="11.0626833296">
		<tag k="name" v="Sengefortua" />
		<tag k="place" v="locality" />
		<tag k="ssr:stedsnr" v="179843" />
	</node>
	<node id="-90357" lat="61.7941416635" lon="11.1573694503">
		<tag k="name" v="Nymodalen" />
		<tag k="natural" v="valley" />
		<tag k="place" v="locality" />
		<tag k="ssr:stedsnr" v="572490" />
	</node>
	<node id="-89526" lat="61.9621222226" lon="11.1669472137">
		<tag k="name" v="Brennvola" />
		<tag k="natural" v="hill" />
		<tag k="place" v="locality" />
		<tag k="ssr:stedsnr" v="179482" />
	</node>
	<node id="-91569" lat="61.7891944425" lon="11.2893916666">
		<tag k="name" v="Stenfjellia" />
		<tag k="natural" v="slope" />
		<tag k="place" v="locality" />
		<tag k="ssr:stedsnr" v="968904" />
	</node>
	<node id="-91566" lat="62.0063166662" lon="11.0361055494">
		<tag k="fixme" v="consider natural=peak for the most distinct mountains in the district" />
		<tag k="name" v="Langtjønnåsen" />
		<tag k="natural" v="hill" />
		<tag k="place" v="locality" />
		<tag k="ssr:stedsnr" v="968872" />
	</node>
	<node id="-91565" lat="61.9932833357" lon="11.0567888965">
		<tag k="name" v="Djupdalen" />
		<tag k="natural" v="valley" />
		<tag k="place" v="locality" />
		<tag k="ssr:stedsnr" v="968860" />
	</node>
	<node id="-90354" lat="61.9116222268" lon="11.1147749931">
		<tag k="name" v="Haugsetlia" />
		<tag k="natural" v="slope" />
		<tag k="place" v="locality" />
		<tag k="ssr:stedsnr" v="572146" />
	</node>
	<node id="-89513" lat="62.0347138876" lon="11.1208888873">
		<tag k="name" v="Skarvdalen" />
		<tag k="natural" v="valley" />
		<tag k="place" v="locality" />
		<tag k="ssr:stedsnr" v="179322" />
	</node>
	<node id="-89510" lat="61.7723749983" lon="11.3280694426">
		<tag k="name" v="Fuggdalen" />
		<tag k="natural" v="valley" />
		<tag k="place" v="locality" />
		<tag k="ssr:stedsnr" v="179302" />
	</node>
	<node id="-91557" lat="61.6961055587" lon="11.2577861056">
		<tag k="name" v="Haukskjæret" />
		<tag k="natural" v="hill" />
		<tag k="place" v="locality" />
		<tag k="ssr:stedsnr" v="968704" />
	</node>
	<node id="-89506" lat="61.956925004" lon="11.0914194506">
		<tag k="name" v="Nisseegga" />
		<tag k="natural" v="slope" />
		<tag k="place" v="locality" />
		<tag k="ssr:stedsnr" v="179114" />
	</node>
	<node id="-89505" lat="61.6870416674" lon="11.0890222209">
		<tag k="name" v="Glenen" />
		<tag k="place" v="locality" />
		<tag k="ssr:stedsnr" v="179095" />
	</node>
	<node id="-89503" lat="61.5357833342" lon="11.3216111033">
		<tag k="name" v="Holmsjølia" />
		<tag k="natural" v="slope" />
		<tag k="place" v="locality" />
		<tag k="ssr:stedsnr" v="179080" />
	</node>
	<node id="-89501" lat="61.6823916687" lon="11.1509972167">
		<tag k="name" v="Saubekkrøsta" />
		<tag k="natural" v="slope" />
		<tag k="place" v="locality" />
		<tag k="ssr:stedsnr" v="179075" />
	</node>
	<node id="-89500" lat="61.6342805555" lon="11.171699998">
		<tag k="name" v="Litorvet" />
		<tag k="place" v="locality" />
		<tag k="ssr:stedsnr" v="178871" />
	</node>
	<node id="-89327" lat="62.0662555517" lon="11.0327083357">
		<tag k="name" v="Vestlia" />
		<tag k="natural" v="slope" />
		<tag k="place" v="locality" />
		<tag k="ssr:stedsnr" v="119287" />
	</node>
	<node id="-91544" lat="61.9858527793" lon="11.5388833413">
		<tag k="name" v="Kusundhaugen" />
		<tag k="natural" v="hill" />
		<tag k="place" v="locality" />
		<tag k="ssr:stedsnr" v="968437" />
	</node>
	<node id="-89492" lat="61.9414944464" lon="11.1556749913">
		<tag k="name" v="Rådelerabben" />
		<tag k="natural" v="hill" />
		<tag k="place" v="locality" />
		<tag k="ssr:stedsnr" v="178187" />
	</node>
	<node id="-89490" lat="61.5804027814" lon="11.1984805547">
		<tag k="name" v="Buruhammeren" />
		<tag k="natural" v="hill" />
		<tag k="place" v="locality" />
		<tag k="ssr:stedsnr" v="177930" />
	</node>
	<node id="-89489" lat="61.713552782" lon="11.2547027866">
		<tag k="name" v="Misterdalen" />
		<tag k="natural" v="valley" />
		<tag k="place" v="locality" />
		<tag k="ssr:stedsnr" v="177901" />
	</node>
	<node id="-89488" lat="61.5825305541" lon="11.1768611144">
		<tag k="fixme" v="consider natural=peak for the most distinct mountains in the district" />
		<tag k="name" v="Burutangen" />
		<tag k="natural" v="hill" />
		<tag k="place" v="locality" />
		<tag k="ssr:stedsnr" v="177829" />
	</node>
	<node id="-91533" lat="61.5102638852" lon="11.5512666572">
		<tag k="name" v="Vestre Bjørbekkåsen" />
		<tag k="natural" v="hill" />
		<tag k="place" v="locality" />
		<tag k="ssr:stedsnr" v="968328" />
	</node>
	<node id="-89483" lat="61.5651666686" lon="11.2741944476">
		<tag k="name" v="Bukkdalen" />
		<tag k="natural" v="valley" />
		<tag k="place" v="locality" />
		<tag k="ssr:stedsnr" v="177317" />
	</node>
	<node id="-89481" lat="61.4890611146" lon="11.3162833267">
		<tag k="name" v="Oksbakka" />
		<tag k="natural" v="slope" />
		<tag k="place" v="locality" />
		<tag k="ssr:stedsnr" v="177287" />
	</node>
	<node id="-89480" lat="61.4864249967" lon="11.3156888971">
		<tag k="name" v="Mørdalen" />
		<tag k="natural" v="valley" />
		<tag k="place" v="locality" />
		<tag k="ssr:stedsnr" v="177286" />
	</node>
	<node id="-89479" lat="61.760266666" lon="11.1264027766">
		<tag k="name" v="Lavskrikmoen" />
		<tag k="place" v="locality" />
		<tag k="ssr:stedsnr" v="177247" />
	</node>
	<node id="-91523" lat="61.6172027762" lon="11.3784694474">
		<tag k="name" v="Nordre Likvolvet" />
		<tag k="natural" v="slope" />
		<tag k="place" v="locality" />
		<tag k="ssr:stedsnr" v="968129" />
	</node>
	<node id="-91522" lat="61.6931972199" lon="11.1269250027">
		<tag k="name" v="Blæsterbutomta" />
		<tag k="place" v="locality" />
		<tag k="ssr:stedsnr" v="968093" />
	</node>
	<node id="-89473" lat="61.4950277766" lon="11.4208805537">
		<tag k="name" v="Ledalssletta" />
		<tag k="place" v="locality" />
		<tag k="ssr:stedsnr" v="177121" />
	</node>
	<node id="-90688" lat="61.9122277766" lon="10.6380694407">
		<tag k="fixme" v="consider natural=peak for the most distinct mountains in the district" />
		<tag k="name" v="Blårandfjellet" />
		<tag k="natural" v="hill" />
		<tag k="place" v="locality" />
		<tag k="ssr:stedsnr" v="677480" />
	</node>
	<node id="-89467" lat="61.7927555583" lon="11.1295138887">
		<tag k="name" v="Skibakkegga" />
		<tag k="natural" v="ridge" />
		<tag k="place" v="locality" />
		<tag k="ssr:stedsnr" v="147462" />
	</node>
	<node id="-90687" lat="61.6266583329" lon="11.2349305644">
		<tag k="alt_name" v="Skarkampane" />
		<tag k="fixme" v="consider natural=peak for the most distinct mountains in the district" />
		<tag k="name" v="Skarklettene" />
		<tag k="natural" v="hill" />
		<tag k="place" v="locality" />
		<tag k="ssr:stedsnr" v="677476" />
	</node>
	<node id="-89462" lat="61.7603527809" lon="11.1664666732">
		<tag k="name" v="Brattegga" />
		<tag k="natural" v="ridge" />
		<tag k="place" v="locality" />
		<tag k="ssr:stedsnr" v="147095" />
	</node>
	<node id="-89460" lat="61.9344138915" lon="11.063922225">
		<tag k="name" v="Trongdalen" />
		<tag k="natural" v="valley" />
		<tag k="place" v="locality" />
		<tag k="ssr:stedsnr" v="147055" />
	</node>
	<node id="-89320" lat="61.5254694487" lon="11.3865527732">
		<tag k="name" v="Knapplia" />
		<tag k="natural" v="slope" />
		<tag k="place" v="locality" />
		<tag k="ssr:stedsnr" v="118067" />
	</node>
	<node id="-89451" lat="61.8566638913" lon="11.6749805608">
		<tag k="name" v="Sølenberga" />
		<tag k="natural" v="hill" />
		<tag k="place" v="locality" />
		<tag k="ssr:stedsnr" v="132968" />
	</node>
	<node id="-89450" lat="61.8545805552" lon="11.4750972194">
		<tag k="name" v="Søteroa" />
		<tag k="natural" v="valley" />
		<tag k="place" v="locality" />
		<tag k="ssr:stedsnr" v="132967" />
	</node>
	<node id="-91495" lat="61.72201944" lon="11.1567500058">
		<tag k="name" v="Djupdalen" />
		<tag k="natural" v="valley" />
		<tag k="place" v="locality" />
		<tag k="ssr:stedsnr" v="966163" />
	</node>
	<node id="-91490" lat="61.8736722197" lon="11.0717111181">
		<tag k="fixme" v="consider natural=peak for the most distinct mountains in the district" />
		<tag k="name" v="Slettberget" />
		<tag k="natural" v="hill" />
		<tag k="place" v="locality" />
		<tag k="ssr:stedsnr" v="937506" />
	</node>
	<node id="-89441" lat="61.9116277737" lon="11.0231861186">
		<tag k="fixme" v="consider natural=peak for the most distinct mountains in the district" />
		<tag k="name" v="Kampan" />
		<tag k="natural" v="hill" />
		<tag k="place" v="locality" />
		<tag k="ssr:stedsnr" v="132337" />
	</node>
	<node id="-91487" lat="61.472694447" lon="11.624383334">
		<tag k="alt_name" v="Skjærmarken" />
		<tag k="name" v="Skjærmarka" />
		<tag k="natural" v="wood" />
		<tag k="ssr:stedsnr" v="936601" />
	</node>
	<node id="-91486" lat="61.7847833351" lon="11.1337027764">
		<tag k="name" v="Tobekkdalen" />
		<tag k="natural" v="valley" />
		<tag k="place" v="locality" />
		<tag k="ssr:stedsnr" v="936405" />
	</node>
	<node id="-89432" lat="62.1870555545" lon="11.2079888924">
		<tag k="fixme" v="consider natural=peak for the most distinct mountains in the district" />
		<tag k="name" v="Brurhøgda" />
		<tag k="natural" v="hill" />
		<tag k="place" v="locality" />
		<tag k="ssr:stedsnr" v="132210" />
	</node>
	<node id="-89429" lat="61.7583055513" lon="11.0223805536">
		<tag k="fixme" v="consider natural=peak for the most distinct mountains in the district" />
		<tag k="name" v="Raudfjellet" />
		<tag k="natural" v="hill" />
		<tag k="place" v="locality" />
		<tag k="ssr:stedsnr" v="132194" />
	</node>
	<node id="-91473" lat="61.5290972229" lon="11.5442722234">
		<tag k="name" v="Svartbekkdalen" />
		<tag k="natural" v="valley" />
		<tag k="place" v="locality" />
		<tag k="ssr:stedsnr" v="935262" />
	</node>
	<node id="-91471" lat="61.7785611147" lon="11.20843889">
		<tag k="alt_name" v="Skårdalshammeren" />
		<tag k="name" v="Skordalshammaren" />
		<tag k="natural" v="hill" />
		<tag k="place" v="locality" />
		<tag k="ssr:stedsnr" v="930308" />
	</node>
	<node id="-91468" lat="61.7685805525" lon="11.2141888942">
		<tag k="name" v="Røskberget" />
		<tag k="natural" v="hill" />
		<tag k="place" v="locality" />
		<tag k="ssr:stedsnr" v="930280" />
	</node>
	<node id="-88836" lat="62.0465388905" lon="11.1017777748">
		<tag k="name" v="Farshaugen" />
		<tag k="natural" v="hill" />
		<tag k="place" v="locality" />
		<tag k="ssr:stedsnr" v="361361" />
	</node>
	<node id="-91466" lat="61.8793972225" lon="11.4864777831">
		<tag k="name" v="Sølenskardet" />
		<tag k="natural" v="valley" />
		<tag k="place" v="locality" />
		<tag k="ssr:stedsnr" v="921976" />
	</node>
	<node id="-89415" lat="61.800352777" lon="11.1748249969">
		<tag k="alt_name" v="Lausåkletten, nørdre;Nordre Løsåkletten" />
		<tag k="fixme" v="consider natural=peak for the most distinct mountains in the district" />
		<tag k="name" v="Nørdre Lausåkletten" />
		<tag k="natural" v="hill" />
		<tag k="place" v="locality" />
		<tag k="ssr:stedsnr" v="132032" />
	</node>
	<node id="-90677" lat="61.5881250008" lon="11.3479777749">
		<tag k="fixme" v="consider natural=peak for the most distinct mountains in the district" />
		<tag k="name" v="Skarvberget" />
		<tag k="natural" v="hill" />
		<tag k="place" v="locality" />
		<tag k="ssr:stedsnr" v="677426" />
	</node>
	<node id="-89405" lat="61.8890888924" lon="10.5508722166">
		<tag k="name" v="Gluggen" />
		<tag k="natural" v="valley" />
		<tag k="place" v="locality" />
		<tag k="ssr:stedsnr" v="131464" />
	</node>
	<node id="-89404" lat="61.9140666674" lon="10.6802555574">
		<tag k="name" v="Tegningsdalen" />
		<tag k="natural" v="valley" />
		<tag k="old_name" v="Teiningsdalen" />
		<tag k="place" v="locality" />
		<tag k="ssr:stedsnr" v="131463" />
	</node>
	<node id="-89402" lat="61.6636138886" lon="11.2661250037">
		<tag k="fixme" v="consider natural=peak for the most distinct mountains in the district" />
		<tag k="name" v="Bekkedalsåsen" />
		<tag k="natural" v="hill" />
		<tag k="place" v="locality" />
		<tag k="ssr:stedsnr" v="131449" />
	</node>
	<node id="-89401" lat="61.6625888861" lon="11.1568000001">
		<tag k="name" v="Fiskviklia" />
		<tag k="natural" v="slope" />
		<tag k="place" v="locality" />
		<tag k="ssr:stedsnr" v="131446" />
	</node>
	<node id="-89399" lat="61.5973555591" lon="11.3305611053">
		<tag k="name" v="Djupdalen" />
		<tag k="natural" v="valley" />
		<tag k="place" v="locality" />
		<tag k="ssr:stedsnr" v="131417" />
	</node>
	<node id="-89396" lat="62.0470027798" lon="11.2318361075">
		<tag k="fixme" v="consider natural=peak for the most distinct mountains in the district" />
		<tag k="name" v="Gråfjellet" />
		<tag k="natural" v="hill" />
		<tag k="place" v="locality" />
		<tag k="ssr:stedsnr" v="131399" />
	</node>
	<node id="-89392" lat="61.7419000014" lon="11.1047472146">
		<tag k="fixme" v="consider natural=peak for the most distinct mountains in the district" />
		<tag k="name" v="Ottlaugkampen" />
		<tag k="natural" v="hill" />
		<tag k="place" v="locality" />
		<tag k="ssr:stedsnr" v="131380" />
	</node>
	<node id="-89391" lat="61.7443972179" lon="11.2696388876">
		<tag k="alt_name" v="Kværnesvola;Kvernnesvorda" />
		<tag k="fixme" v="consider natural=peak for the most distinct mountains in the district" />
		<tag k="name" v="Kvernnesvola" />
		<tag k="natural" v="hill" />
		<tag k="place" v="locality" />
		<tag k="ssr:stedsnr" v="131375" />
	</node>
	<node id="-89386" lat="61.6915249972" lon="11.4903861142">
		<tag k="alt_name" v="Kvitåsen, vestre" />
		<tag k="fixme" v="consider natural=peak for the most distinct mountains in the district" />
		<tag k="name" v="Vestre Kvitåsen" />
		<tag k="natural" v="hill" />
		<tag k="place" v="locality" />
		<tag k="ssr:stedsnr" v="131339" />
	</node>
	<node id="-89379" lat="61.6262416685" lon="11.5242555638">
		<tag k="name" v="Ryen" />
		<tag k="natural" v="valley" />
		<tag k="place" v="locality" />
		<tag k="ssr:stedsnr" v="131300" />
	</node>
	<node id="-89374" lat="61.5108833361" lon="11.4593222297">
		<tag k="fixme" v="consider natural=peak for the most distinct mountains in the district" />
		<tag k="name" v="Gravdalsåsen" />
		<tag k="natural" v="hill" />
		<tag k="place" v="locality" />
		<tag k="ssr:stedsnr" v="131250" />
	</node>
	<node id="-91421" lat="61.7134805554" lon="11.2124722234">
		<tag k="alt_name" v="Kvernnesmoane" />
		<tag k="name" v="Kvernnesmoa" />
		<tag k="place" v="locality" />
		<tag k="ssr:stedsnr" v="920402" />
	</node>
	<node id="-89372" lat="61.8132777763" lon="10.7977750067">
		<tag k="alt_name" v="Klonkneset" />
		<tag k="fixme" v="consider natural=peak for the most distinct mountains in the district" />
		<tag k="name" v="Klunkneset" />
		<tag k="natural" v="hill" />
		<tag k="place" v="locality" />
		<tag k="ssr:stedsnr" v="131170" />
	</node>
	<node id="-91417" lat="61.7330749992" lon="11.1254833424">
		<tag k="alt_name" v="Raukollen" />
		<tag k="fixme" v="consider natural=peak for the most distinct mountains in the district" />
		<tag k="name" v="Raudkollen" />
		<tag k="natural" v="hill" />
		<tag k="place" v="locality" />
		<tag k="ssr:stedsnr" v="920378" />
	</node>
	<node id="-91414" lat="61.568336111" lon="11.7197083398">
		<tag k="fixme" v="consider natural=peak for the most distinct mountains in the district" />
		<tag k="name" v="Måsåveltåsen" />
		<tag k="natural" v="hill" />
		<tag k="place" v="locality" />
		<tag k="ssr:stedsnr" v="920317" />
	</node>
	<node id="-91412" lat="61.5314416642" lon="11.2552250025">
		<tag k="fixme" v="consider natural=peak for the most distinct mountains in the district" />
		<tag k="name" v="Grasliberget" />
		<tag k="natural" v="hill" />
		<tag k="place" v="locality" />
		<tag k="ssr:stedsnr" v="920294" />
	</node>
	<node id="-89363" lat="61.4689250012" lon="11.4256611125">
		<tag k="alt_name" v="Skjerberget" />
		<tag k="name" v="Skjærberget" />
		<tag k="natural" v="hill" />
		<tag k="place" v="locality" />
		<tag k="ssr:stedsnr" v="130081" />
	</node>
	<node id="-89362" lat="61.4794694476" lon="11.3307388918">
		<tag k="name" v="Kvernberget" />
		<tag k="natural" v="hill" />
		<tag k="place" v="locality" />
		<tag k="ssr:stedsnr" v="130076" />
	</node>
	<node id="-91409" lat="61.5471972181" lon="11.1939111048">
		<tag k="alt_name" v="Rangkløvhammeren" />
		<tag k="name" v="Rangkløvhammaren" />
		<tag k="natural" v="cliff" />
		<tag k="ssr:stedsnr" v="920277" />
	</node>
	<node id="-91407" lat="61.5003972215" lon="11.4286472291">
		<tag k="alt_name" v="Byringen, store" />
		<tag k="fixme" v="consider natural=peak for the most distinct mountains in the district" />
		<tag k="name" v="Store Byringen" />
		<tag k="natural" v="hill" />
		<tag k="place" v="locality" />
		<tag k="ssr:stedsnr" v="920260" />
	</node>
	<node id="-89358" lat="62.0085361093" lon="10.9919722126">
		<tag k="name" v="Rossbekkbørtet" />
		<tag k="natural" v="slope" />
		<tag k="place" v="locality" />
		<tag k="ssr:stedsnr" v="119873" />
	</node>
	<node id="-89356" lat="61.8750277739" lon="10.9858944412">
		<tag k="name" v="Storkvolvet" />
		<tag k="natural" v="valley" />
		<tag k="place" v="locality" />
		<tag k="ssr:stedsnr" v="119804" />
	</node>
	<node id="-89355" lat="61.876627782" lon="11.0032250097">
		<tag k="name" v="Rullbekklia" />
		<tag k="natural" v="slope" />
		<tag k="place" v="locality" />
		<tag k="ssr:stedsnr" v="119800" />
	</node>
	<node id="-91402" lat="61.497175001" lon="11.580052775">
		<tag k="name" v="Vakkerbrenna" />
		<tag k="place" v="locality" />
		<tag k="ssr:stedsnr" v="918227" />
	</node>
	<node id="-91398" lat="61.6011694479" lon="11.1432249962">
		<tag k="name" v="Burudalslia" />
		<tag k="natural" v="slope" />
		<tag k="place" v="locality" />
		<tag k="ssr:stedsnr" v="908944" />
	</node>
	<node id="-89348" lat="61.7702111116" lon="10.9665083256">
		<tag k="name" v="Tangen" />
		<tag k="natural" v="hill" />
		<tag k="place" v="locality" />
		<tag k="ssr:stedsnr" v="119661" />
	</node>
	<node id="-89347" lat="61.7679361152" lon="11.0012277829">
		<tag k="name" v="Brennåsknappen" />
		<tag k="natural" v="hill" />
		<tag k="place" v="locality" />
		<tag k="ssr:stedsnr" v="119659" />
	</node>
	<node id="-91394" lat="61.8733888915" lon="10.997624999">
		<tag k="name" v="Veslekvolvet" />
		<tag k="natural" v="valley" />
		<tag k="place" v="locality" />
		<tag k="ssr:stedsnr" v="908820" />
	</node>
	<node id="-90667" lat="61.7061027792" lon="11.2737416722">
		<tag k="alt_name" v="Kongsskaret" />
		<tag k="name" v="Kongsskardet" />
		<tag k="natural" v="valley" />
		<tag k="place" v="locality" />
		<tag k="ssr:stedsnr" v="677353" />
	</node>
	<node id="-89344" lat="61.6807857415" lon="11.2617291111">
		<tag k="fixme" v="consider natural=peak for the most distinct mountains in the district" />
		<tag k="name" v="Sagskaråsen" />
		<tag k="natural" v="hill" />
		<tag k="place" v="locality" />
		<tag k="ssr:stedsnr" v="119530" />
	</node>
	<node id="-89342" lat="61.6552638869" lon="11.2692527697">
		<tag k="name" v="Raneggdalen" />
		<tag k="natural" v="valley" />
		<tag k="place" v="locality" />
		<tag k="ssr:stedsnr" v="119526" />
	</node>
	<node id="-91388" lat="61.7665277781" lon="10.9788083258">
		<tag k="fixme" v="consider natural=peak for the most distinct mountains in the district" />
		<tag k="name" v="Mjovassåsen" />
		<tag k="natural" v="hill" />
		<tag k="place" v="locality" />
		<tag k="ssr:stedsnr" v="908679" />
	</node>
	<node id="-91387" lat="61.7265972254" lon="11.2093805647">
		<tag k="name" v="Nabbdalen" />
		<tag k="natural" v="valley" />
		<tag k="place" v="locality" />
		<tag k="ssr:stedsnr" v="908676" />
	</node>
	<node id="-89337" lat="62.1182555548" lon="11.4226944375">
		<tag k="name" v="Markgraften" />
		<tag k="place" v="locality" />
		<tag k="ssr:stedsnr" v="119438" />
	</node>
	<node id="-91382" lat="61.7524027809" lon="10.8612611149">
		<tag k="name" v="Kjølsjødalen" />
		<tag k="natural" v="valley" />
		<tag k="place" v="locality" />
		<tag k="ssr:stedsnr" v="908532" />
	</node>
	<node id="-91381" lat="61.9668666682" lon="11.0881666659">
		<tag k="name" v="Storskredet" />
		<tag k="natural" v="slope" />
		<tag k="place" v="locality" />
		<tag k="ssr:stedsnr" v="908516" />
	</node>
	<node id="-91379" lat="62.0478138869" lon="11.4905777687">
		<tag k="name" v="Hallan" />
		<tag k="natural" v="slope" />
		<tag k="place" v="locality" />
		<tag k="ssr:stedsnr" v="908464" />
	</node>
	<node id="-89330" lat="62.0213027804" lon="11.1609916686">
		<tag k="name" v="Bredalen" />
		<tag k="natural" v="valley" />
		<tag k="place" v="locality" />
		<tag k="ssr:stedsnr" v="119325" />
	</node>
	<node id="-89329" lat="61.8117500042" lon="10.7722472254">
		<tag k="fixme" v="consider natural=peak for the most distinct mountains in the district" />
		<tag k="name" v="Baråsen" />
		<tag k="natural" v="hill" />
		<tag k="place" v="locality" />
		<tag k="ssr:stedsnr" v="119299" />
	</node>
	<node id="-91375" lat="62.123133334" lon="11.056630557">
		<tag k="name" v="Nysæterlia" />
		<tag k="natural" v="slope" />
		<tag k="place" v="locality" />
		<tag k="ssr:stedsnr" v="908361" />
	</node>
	<node id="-91374" lat="62.0470666647" lon="11.4323722246">
		<tag k="name" v="Stormyrbakken" />
		<tag k="natural" v="slope" />
		<tag k="place" v="locality" />
		<tag k="ssr:stedsnr" v="908362" />
	</node>
	<node id="-89324" lat="61.6708638929" lon="11.1386583396">
		<tag k="name" v="Kjørarbutomta" />
		<tag k="place" v="locality" />
		<tag k="ssr:stedsnr" v="119094" />
	</node>
	<node id="-91370" lat="61.9933638902" lon="11.1975499991">
		<tag k="name" v="Huegalenrisa" />
		<tag k="natural" v="valley" />
		<tag k="place" v="locality" />
		<tag k="ssr:stedsnr" v="908333" />
	</node>
	<node id="-89321" lat="61.493194445" lon="11.4418666584">
		<tag k="name" v="Rognåsen" />
		<tag k="natural" v="hill" />
		<tag k="place" v="locality" />
		<tag k="ssr:stedsnr" v="118297" />
	</node>
	<node id="-91368" lat="62.086850001" lon="11.0590444437">
		<tag k="name" v="Brottet" />
		<tag k="natural" v="hill" />
		<tag k="place" v="locality" />
		<tag k="ssr:stedsnr" v="908312" />
	</node>
	<node id="-91367" lat="61.7520472231" lon="11.0919527852">
		<tag k="name" v="Kløftet" />
		<tag k="natural" v="valley" />
		<tag k="place" v="locality" />
		<tag k="ssr:stedsnr" v="908313" />
	</node>
	<node id="-91363" lat="61.6534444418" lon="11.1839972219">
		<tag k="name" v="Geitryggen" />
		<tag k="natural" v="hill" />
		<tag k="place" v="locality" />
		<tag k="ssr:stedsnr" v="908080" />
	</node>
	<node id="-91360" lat="61.4387472248" lon="11.3764055541">
		<tag k="name" v="Kletten" />
		<tag k="natural" v="hill" />
		<tag k="place" v="locality" />
		<tag k="ssr:stedsnr" v="907887" />
	</node>
	<node id="-89310" lat="61.7617166645" lon="10.8606972174">
		<tag k="name" v="Skjærdalen" />
		<tag k="natural" v="valley" />
		<tag k="place" v="locality" />
		<tag k="ssr:stedsnr" v="117402" />
	</node>
	<node id="-91002" lat="61.8634194487" lon="11.169066662">
		<tag k="name" v="Stokkbekkvolvet" />
		<tag k="natural" v="slope" />
		<tag k="place" v="locality" />
		<tag k="ssr:stedsnr" v="786201" />
	</node>
	<node id="-91352" lat="61.6250416642" lon="11.1537111098">
		<tag k="name" v="Midtskogbakkene" />
		<tag k="natural" v="slope" />
		<tag k="place" v="locality" />
		<tag k="ssr:stedsnr" v="906896" />
	</node>
	<node id="-91351" lat="61.816175004" lon="11.0070916626">
		<tag k="name" v="Vesleskaret" />
		<tag k="natural" v="valley" />
		<tag k="place" v="locality" />
		<tag k="ssr:stedsnr" v="906826" />
	</node>
	<node id="-89301" lat="61.9882805582" lon="11.1412666655">
		<tag k="name" v="Kvannmyrmoene" />
		<tag k="place" v="locality" />
		<tag k="ssr:stedsnr" v="117292" />
	</node>
	<node id="-91342" lat="61.7801000037" lon="10.9165055535">
		<tag k="name" v="Bløtrøsta" />
		<tag k="natural" v="slope" />
		<tag k="place" v="locality" />
		<tag k="ssr:stedsnr" v="906454" />
	</node>
	<node id="-91341" lat="61.7741305528" lon="10.8670222256">
		<tag k="name" v="Kølbrennertangen" />
		<tag k="natural" v="hill" />
		<tag k="place" v="locality" />
		<tag k="ssr:stedsnr" v="906449" />
	</node>
	<node id="-91335" lat="61.4822138868" lon="11.429263893">
		<tag k="name" v="Østre Slemlia" />
		<tag k="natural" v="slope" />
		<tag k="place" v="locality" />
		<tag k="ssr:stedsnr" v="906196" />
	</node>
	<node id="-89286" lat="61.8062555586" lon="11.1474916593">
		<tag k="name" v="Stordalen" />
		<tag k="natural" v="valley" />
		<tag k="place" v="locality" />
		<tag k="ssr:stedsnr" v="87478" />
	</node>
	<node id="-91331" lat="61.7411527751" lon="11.0879250091">
		<tag k="name" v="Kløftdalen" />
		<tag k="natural" v="valley" />
		<tag k="place" v="locality" />
		<tag k="ssr:stedsnr" v="906178" />
	</node>
	<node id="-91328" lat="61.7025138849" lon="11.1831444408">
		<tag k="name" v="Storbakken" />
		<tag k="natural" v="slope" />
		<tag k="place" v="locality" />
		<tag k="ssr:stedsnr" v="906149" />
	</node>
	<node id="-89275" lat="61.8092749993" lon="10.9070555564">
		<tag k="name" v="Kivfjellsalen" />
		<tag k="natural" v="valley" />
		<tag k="place" v="locality" />
		<tag k="ssr:stedsnr" v="86568" />
	</node>
	<node id="-91321" lat="61.8096083304" lon="11.0885444369">
		<tag k="name" v="Gammelsæterlia" />
		<tag k="natural" v="slope" />
		<tag k="place" v="locality" />
		<tag k="ssr:stedsnr" v="876517" />
	</node>
	<node id="-91320" lat="61.7973972207" lon="11.088841666">
		<tag k="name" v="Nysæterlia" />
		<tag k="natural" v="slope" />
		<tag k="place" v="locality" />
		<tag k="ssr:stedsnr" v="876507" />
	</node>
	<node id="-91319" lat="61.7959722246" lon="11.1281527722">
		<tag k="name" v="Kvernmoen" />
		<tag k="place" v="locality" />
		<tag k="ssr:stedsnr" v="876502" />
	</node>
	<node id="-89270" lat="61.9871388847" lon="11.1722611135">
		<tag k="fixme" v="consider natural=peak for the most distinct mountains in the district" />
		<tag k="name" v="Vollsbrenna" />
		<tag k="natural" v="hill" />
		<tag k="place" v="locality" />
		<tag k="ssr:stedsnr" v="80294" />
	</node>
	<node id="-91314" lat="61.9259138917" lon="11.0235305477">
		<tag k="name" v="Elvålsløpa" />
		<tag k="natural" v="valley" />
		<tag k="place" v="locality" />
		<tag k="ssr:stedsnr" v="876077" />
	</node>
	<node id="-91310" lat="61.9261861128" lon="11.0503194435">
		<tag k="name" v="Gammelstuegga" />
		<tag k="natural" v="ridge" />
		<tag k="place" v="locality" />
		<tag k="ssr:stedsnr" v="876006" />
	</node>
	<node id="-89261" lat="62.1484749982" lon="11.1475999942">
		<tag k="name" v="Firkanthøgda" />
		<tag k="natural" v="hill" />
		<tag k="place" v="locality" />
		<tag k="ssr:stedsnr" v="72150" />
	</node>
	<node id="-89260" lat="61.8707388909" lon="10.9974249947">
		<tag k="fixme" v="consider natural=peak for the most distinct mountains in the district" />
		<tag k="name" v="Neversåsen" />
		<tag k="natural" v="hill" />
		<tag k="place" v="locality" />
		<tag k="ssr:stedsnr" v="72140" />
	</node>
	<node id="-89259" lat="61.8754305596" lon="10.9685499939">
		<tag k="alt_name" v="Bjønnåsen" />
		<tag k="fixme" v="consider natural=peak for the most distinct mountains in the district" />
		<tag k="name" v="Bjørnåsen" />
		<tag k="natural" v="hill" />
		<tag k="place" v="locality" />
		<tag k="ssr:stedsnr" v="72129" />
	</node>
	<node id="-91304" lat="61.8489500025" lon="11.5755555573">
		<tag k="name" v="Storfløyet" />
		<tag k="natural" v="plateau" />
		<tag k="ssr:stedsnr" v="861979" />
	</node>
	<node id="-89252" lat="62.0778327411" lon="11.0656663345">
		<tag k="fixme" v="multiple name tags, choose one and add the other to alt_name; consider natural=peak for the most distinct mountains in the district" />
		<tag k="name" v="Heimrabben;Hemåsen" />
		<tag k="natural" v="hill" />
		<tag k="place" v="locality" />
		<tag k="ssr:stedsnr" v="72017" />
	</node>
	<node id="-89251" lat="62.0663527751" lon="11.0926999945">
		<tag k="fixme" v="consider natural=peak for the most distinct mountains in the district" />
		<tag k="name" v="Nekvollåsen" />
		<tag k="natural" v="hill" />
		<tag k="place" v="locality" />
		<tag k="ssr:stedsnr" v="72009" />
	</node>
	<node id="-89250" lat="61.8926750017" lon="11.1990944474">
		<tag k="fixme" v="consider natural=peak for the most distinct mountains in the district" />
		<tag k="name" v="Lysingåsen" />
		<tag k="natural" v="hill" />
		<tag k="place" v="locality" />
		<tag k="ssr:stedsnr" v="72007" />
	</node>
	<node id="-91296" lat="61.8430250025" lon="11.0474305638">
		<tag k="name" v="Gråberget" />
		<tag k="natural" v="hill" />
		<tag k="place" v="locality" />
		<tag k="ssr:stedsnr" v="861148" />
	</node>
	<node id="-89247" lat="61.7919472257" lon="11.5265361072">
		<tag k="fixme" v="consider natural=peak for the most distinct mountains in the district" />
		<tag k="name" v="Gravåsen" />
		<tag k="natural" v="hill" />
		<tag k="place" v="locality" />
		<tag k="ssr:stedsnr" v="71951" />
	</node>
	<node id="-91292" lat="62.0553000041" lon="10.9527999941">
		<tag k="alt_name" v="Skorsåhøgdan" />
		<tag k="name" v="Søndre Skårsjøhøgda" />
		<tag k="natural" v="hill" />
		<tag k="place" v="locality" />
		<tag k="ssr:stedsnr" v="861017" />
	</node>
	<node id="-91291" lat="61.8880972245" lon="11.1639250035">
		<tag k="alt_name" v="Lysingkvolvet" />
		<tag k="name" v="Lysingkvelvet" />
		<tag k="natural" v="slope" />
		<tag k="place" v="locality" />
		<tag k="ssr:stedsnr" v="861015" />
	</node>
	<node id="-89240" lat="62.0068138867" lon="10.9411000084">
		<tag k="fixme" v="consider natural=peak for the most distinct mountains in the district" />
		<tag k="name" v="Fallegga" />
		<tag k="natural" v="hill" />
		<tag k="place" v="locality" />
		<tag k="ssr:stedsnr" v="71471" />
	</node>
	<node id="-89239" lat="61.5796305596" lon="11.4615250045">
		<tag k="fixme" v="consider natural=peak for the most distinct mountains in the district" />
		<tag k="name" v="Klettane" />
		<tag k="natural" v="hill" />
		<tag k="place" v="locality" />
		<tag k="ssr:stedsnr" v="71468" />
	</node>
	<node id="-89235" lat="61.9174333304" lon="10.9127777698">
		<tag k="fixme" v="consider natural=peak for the most distinct mountains in the district" />
		<tag k="name" v="Rååsen" />
		<tag k="natural" v="hill" />
		<tag k="place" v="locality" />
		<tag k="ssr:stedsnr" v="71400" />
	</node>
	<node id="-89234" lat="61.6516305522" lon="11.569313885">
		<tag k="alt_name" v="Rødkollen" />
		<tag k="fixme" v="consider natural=peak for the most distinct mountains in the district" />
		<tag k="name" v="Raudkollen" />
		<tag k="natural" v="hill" />
		<tag k="place" v="locality" />
		<tag k="ssr:stedsnr" v="71399" />
	</node>
	<node id="-89232" lat="61.6409416644" lon="11.6497166718">
		<tag k="alt_name" v="Osdalssjøhøgda, vestre" />
		<tag k="name" v="Vestre Osdalssjøhøgda" />
		<tag k="natural" v="hill" />
		<tag k="place" v="locality" />
		<tag k="ssr:stedsnr" v="71368" />
	</node>
	<node id="-89231" lat="61.9426083326" lon="10.7886916589">
		<tag k="alt_name" v="Nonsvorda" />
		<tag k="fixme" v="consider natural=peak for the most distinct mountains in the district" />
		<tag k="name" v="Monsvola" />
		<tag k="natural" v="hill" />
		<tag k="place" v="locality" />
		<tag k="ssr:stedsnr" v="71356" />
	</node>
	<node id="-89224" lat="61.9205277752" lon="10.8005888873">
		<tag k="alt_name" v="Skarvvorda" />
		<tag k="fixme" v="consider natural=peak for the most distinct mountains in the district" />
		<tag k="name" v="Skarvvola" />
		<tag k="natural" v="hill" />
		<tag k="place" v="locality" />
		<tag k="ssr:stedsnr" v="71402" />
	</node>
	<node id="-91269" lat="61.9099388899" lon="10.7461555604">
		<tag k="fixme" v="consider natural=peak for the most distinct mountains in the district" />
		<tag k="name" v="Lauvåsen" />
		<tag k="natural" v="hill" />
		<tag k="place" v="locality" />
		<tag k="ssr:stedsnr" v="860415" />
	</node>
	<node id="-90646" lat="61.9787416663" lon="10.966191662">
		<tag k="name" v="Nygardsengmoen" />
		<tag k="place" v="locality" />
		<tag k="ssr:stedsnr" v="665877" />
	</node>
	<node id="-91264" lat="61.9742027801" lon="11.1858083379">
		<tag k="fixme" v="consider natural=peak for the most distinct mountains in the district" />
		<tag k="name" v="Størtjønnåsen" />
		<tag k="natural" v="hill" />
		<tag k="place" v="locality" />
		<tag k="ssr:stedsnr" v="860263" />
	</node>
	<node id="-91262" lat="61.758761111" lon="10.8860611083">
		<tag k="alt_name" v="Kjølsjøberget, nordre" />
		<tag k="name" v="Nordre Kjølsjøberget" />
		<tag k="natural" v="hill" />
		<tag k="place" v="locality" />
		<tag k="ssr:stedsnr" v="860225" />
	</node>
	<node id="-89211" lat="62.0262833322" lon="11.1103416575">
		<tag k="fixme" v="consider natural=peak for the most distinct mountains in the district" />
		<tag k="name" v="Brennkampen" />
		<tag k="natural" v="hill" />
		<tag k="place" v="locality" />
		<tag k="ssr:stedsnr" v="71047" />
	</node>
	<node id="-91258" lat="61.8240000005" lon="10.9287999934">
		<tag k="fixme" v="consider natural=peak for the most distinct mountains in the district" />
		<tag k="name" v="Storåsen" />
		<tag k="natural" v="hill" />
		<tag k="place" v="locality" />
		<tag k="ssr:stedsnr" v="860204" />
	</node>
	<node id="-89208" lat="61.8436999991" lon="11.1644055556">
		<tag k="alt_name" v="Kværninghue;Kverninghovudet" />
		<tag k="fixme" v="consider natural=peak for the most distinct mountains in the district" />
		<tag k="name" v="Kverninghue" />
		<tag k="natural" v="hill" />
		<tag k="place" v="locality" />
		<tag k="ssr:stedsnr" v="71024" />
	</node>
	<node id="-91252" lat="61.892883332" lon="10.8014750004">
		<tag k="name" v="Tegningdalen" />
		<tag k="natural" v="valley" />
		<tag k="place" v="locality" />
		<tag k="ssr:stedsnr" v="860148" />
	</node>
	<node id="-91251" lat="61.9466888862" lon="11.6968000051">
		<tag k="alt_name" v="Sydbårn" />
		<tag k="fixme" v="consider natural=peak for the most distinct mountains in the district" />
		<tag k="name" v="Sørbårn" />
		<tag k="natural" v="hill" />
		<tag k="place" v="locality" />
		<tag k="ssr:stedsnr" v="860142" />
	</node>
	<node id="-91250" lat="61.9191555567" lon="11.7124527707">
		<tag k="name" v="Kvølvet" />
		<tag k="natural" v="hill" />
		<tag k="place" v="locality" />
		<tag k="ssr:stedsnr" v="860130" />
	</node>
	<node id="-91248" lat="62.127669446" lon="11.1220000057">
		<tag k="fixme" v="consider natural=peak for the most distinct mountains in the district" />
		<tag k="name" v="Slettfjellet" />
		<tag k="natural" v="hill" />
		<tag k="place" v="locality" />
		<tag k="ssr:stedsnr" v="860105" />
	</node>
	<node id="-91245" lat="61.7686055572" lon="11.2404833318">
		<tag k="alt_name" v="Fuggsjøvorda" />
		<tag k="fixme" v="consider natural=peak for the most distinct mountains in the district" />
		<tag k="name" v="Fuggsjøvola" />
		<tag k="natural" v="hill" />
		<tag k="place" v="locality" />
		<tag k="ssr:stedsnr" v="860077" />
	</node>
	<node id="-91241" lat="62.1054805553" lon="11.2112944381">
		<tag k="fixme" v="consider natural=peak for the most distinct mountains in the district" />
		<tag k="name" v="Nekkjølen" />
		<tag k="natural" v="hill" />
		<tag k="place" v="locality" />
		<tag k="ssr:stedsnr" v="860071" />
	</node>
	<node id="-89192" lat="61.5185250023" lon="11.2671305518">
		<tag k="alt_name" v="Målbekkampen" />
		<tag k="fixme" v="consider natural=peak for the most distinct mountains in the district" />
		<tag k="name" v="Målbekkhammaren" />
		<tag k="natural" v="hill" />
		<tag k="place" v="locality" />
		<tag k="ssr:stedsnr" v="70245" />
	</node>
	<node id="-89189" lat="61.4640111133" lon="11.3697750015">
		<tag k="fixme" v="consider natural=peak for the most distinct mountains in the district" />
		<tag k="name" v="Fuglåsen" />
		<tag k="natural" v="hill" />
		<tag k="place" v="locality" />
		<tag k="ssr:stedsnr" v="69117" />
	</node>
	<node id="-91323" lat="61.8010805595" lon="10.9324333394">
		<tag k="name" v="Kivdalen" />
		<tag k="natural" v="valley" />
		<tag k="place" v="locality" />
		<tag k="ssr:stedsnr" v="877622" />
	</node>
	<node id="-91230" lat="61.5703527745" lon="11.6790611087">
		<tag k="name" v="Bjørbekkøya" />
		<tag k="place" v="locality" />
		<tag k="ssr:stedsnr" v="859288" />
	</node>
	<node id="-89181" lat="61.9555194443" lon="11.0629888829">
		<tag k="name" v="Søndre Vestlia" />
		<tag k="natural" v="slope" />
		<tag k="place" v="locality" />
		<tag k="ssr:stedsnr" v="58861" />
	</node>
	<node id="-89180" lat="61.5748222249" lon="11.1956083253">
		<tag k="name" v="Burumoen" />
		<tag k="place" v="locality" />
		<tag k="ssr:stedsnr" v="58826" />
	</node>
	<node id="-89176" lat="61.9259111097" lon="11.0181083334">
		<tag k="name" v="Haukrøsta" />
		<tag k="natural" v="slope" />
		<tag k="place" v="locality" />
		<tag k="ssr:stedsnr" v="58778" />
	</node>
	<node id="-89175" lat="61.8713694403" lon="10.9205249924">
		<tag k="name" v="Grasbekklia" />
		<tag k="natural" v="slope" />
		<tag k="place" v="locality" />
		<tag k="ssr:stedsnr" v="58714" />
	</node>
	<node id="-89173" lat="61.7014416658" lon="11.2445361155">
		<tag k="name" v="Feierbudalen" />
		<tag k="natural" v="valley" />
		<tag k="place" v="locality" />
		<tag k="ssr:stedsnr" v="58684" />
	</node>
	<node id="-91218" lat="61.91676667" lon="11.006788898">
		<tag k="name" v="Hammerskaret" />
		<tag k="natural" v="valley" />
		<tag k="place" v="locality" />
		<tag k="ssr:stedsnr" v="847782" />
	</node>
	<node id="-91217" lat="61.938177782" lon="11.0187777873">
		<tag k="name" v="Stornesmoen" />
		<tag k="place" v="locality" />
		<tag k="ssr:stedsnr" v="847779" />
	</node>
	<node id="-91212" lat="61.7022944472" lon="11.2250611077">
		<tag k="name" v="Misterøya" />
		<tag k="place" v="locality" />
		<tag k="ssr:stedsnr" v="847667" />
	</node>
	<node id="-91208" lat="61.9534777787" lon="10.9571305548">
		<tag k="name" v="Slaggrøsta" />
		<tag k="natural" v="slope" />
		<tag k="place" v="locality" />
		<tag k="ssr:stedsnr" v="847644" />
	</node>
	<node id="-91318" lat="61.9045833354" lon="11.0365722306">
		<tag k="name" v="Kvernbekkskaret" />
		<tag k="natural" v="valley" />
		<tag k="place" v="locality" />
		<tag k="ssr:stedsnr" v="876451" />
	</node>
	<node id="-91199" lat="62.1134416632" lon="11.4252277681">
		<tag k="name" v="Kløftet" />
		<tag k="natural" v="valley" />
		<tag k="place" v="locality" />
		<tag k="ssr:stedsnr" v="847426" />
	</node>
	<node id="-89150" lat="62.0717361092" lon="11.553911119">
		<tag k="name" v="Krokhaugen" />
		<tag k="natural" v="hill" />
		<tag k="place" v="locality" />
		<tag k="ssr:stedsnr" v="58459" />
	</node>
	<node id="-89147" lat="62.0471555526" lon="11.1633333367">
		<tag k="name" v="Nordre Langjotdalen" />
		<tag k="natural" v="valley" />
		<tag k="place" v="locality" />
		<tag k="ssr:stedsnr" v="58350" />
	</node>
	<node id="-89146" lat="61.4767416685" lon="11.4612277867">
		<tag k="name" v="Storbekkdalen" />
		<tag k="natural" v="valley" />
		<tag k="place" v="locality" />
		<tag k="ssr:stedsnr" v="58347" />
	</node>
	<node id="-91193" lat="61.9975111147" lon="11.1995611025">
		<tag k="name" v="Søvollsrya" />
		<tag k="place" v="locality" />
		<tag k="ssr:stedsnr" v="847330" />
	</node>
	<node id="-89141" lat="61.4575500042" lon="11.5036055593">
		<tag k="fixme" v="consider natural=peak for the most distinct mountains in the district" />
		<tag k="name" v="Tangen" />
		<tag k="natural" v="hill" />
		<tag k="place" v="locality" />
		<tag k="ssr:stedsnr" v="58324" />
	</node>
	<node id="-91185" lat="62.0557055553" lon="10.9971333383">
		<tag k="name" v="Nekbekkvolvet" />
		<tag k="natural" v="valley" />
		<tag k="place" v="locality" />
		<tag k="ssr:stedsnr" v="847290" />
	</node>
	<node id="-91183" lat="61.6854972247" lon="11.1595027758">
		<tag k="name" v="Rotbakkfløtningen" />
		<tag k="place" v="locality" />
		<tag k="ssr:stedsnr" v="847098" />
	</node>
	<node id="-89134" lat="61.9247166652" lon="11.0931250042">
		<tag k="name" v="Tjennegga" />
		<tag k="natural" v="hill" />
		<tag k="place" v="locality" />
		<tag k="ssr:stedsnr" v="58076" />
	</node>
	<node id="-89131" lat="61.6264638862" lon="11.1349694497">
		<tag k="fixme" v="consider natural=peak for the most distinct mountains in the district" />
		<tag k="name" v="Gravåsen" />
		<tag k="natural" v="hill" />
		<tag k="place" v="locality" />
		<tag k="ssr:stedsnr" v="57881" />
	</node>
	<node id="-89130" lat="61.8158750006" lon="11.0171055575">
		<tag k="name" v="Klettlia" />
		<tag k="natural" v="slope" />
		<tag k="place" v="locality" />
		<tag k="ssr:stedsnr" v="57805" />
	</node>
	<node id="-91177" lat="61.76988333" lon="10.9488333331">
		<tag k="name" v="Jakthaugen" />
		<tag k="natural" v="hill" />
		<tag k="place" v="locality" />
		<tag k="ssr:stedsnr" v="846422" />
	</node>
	<node id="-91175" lat="61.7871055559" lon="10.876124995">
		<tag k="name" v="Sagåssøkken" />
		<tag k="natural" v="valley" />
		<tag k="place" v="locality" />
		<tag k="ssr:stedsnr" v="846396" />
	</node>
	<node id="-89126" lat="61.7368055556" lon="11.2209499916">
		<tag k="name" v="Kjøldalen" />
		<tag k="natural" v="valley" />
		<tag k="place" v="locality" />
		<tag k="ssr:stedsnr" v="56977" />
	</node>
	<node id="-91173" lat="61.9960916701" lon="11.136108339">
		<tag k="name" v="Gulknapprøsta" />
		<tag k="natural" v="slope" />
		<tag k="place" v="locality" />
		<tag k="ssr:stedsnr" v="846216" />
	</node>
	<node id="-91172" lat="61.763850001" lon="11.2136055533">
		<tag k="loc_name" v="Terrassen" />
		<tag k="name" v="Terassen" />
		<tag k="place" v="locality" />
		<tag k="ssr:stedsnr" v="845982" />
	</node>
	<node id="-89121" lat="61.6260277786" lon="11.2324972153">
		<tag k="name" v="Veslskaret" />
		<tag k="natural" v="valley" />
		<tag k="place" v="locality" />
		<tag k="ssr:stedsnr" v="56400" />
	</node>
	<node id="-89120" lat="61.6396277821" lon="11.2967777794">
		<tag k="name" v="Styggrøsta" />
		<tag k="natural" v="hill" />
		<tag k="place" v="locality" />
		<tag k="ssr:stedsnr" v="56399" />
	</node>
	<node id="-89116" lat="61.5883583342" lon="11.2995194397">
		<tag k="name" v="Valsjødalen" />
		<tag k="natural" v="valley" />
		<tag k="place" v="locality" />
		<tag k="ssr:stedsnr" v="56321" />
	</node>
	<node id="-89115" lat="61.47499167" lon="11.380541661">
		<tag k="name" v="Tallegga" />
		<tag k="natural" v="slope" />
		<tag k="place" v="locality" />
		<tag k="ssr:stedsnr" v="56182" />
	</node>
	<node id="-89113" lat="61.7211472179" lon="11.1512527716">
		<tag k="name" v="Åkerådalen" />
		<tag k="natural" v="valley" />
		<tag k="place" v="locality" />
		<tag k="ssr:stedsnr" v="56161" />
	</node>
	<node id="-89112" lat="61.6541138884" lon="11.1156361032">
		<tag k="name" v="Skjærdalen" />
		<tag k="natural" v="valley" />
		<tag k="place" v="locality" />
		<tag k="ssr:stedsnr" v="56006" />
	</node>
	<node id="-91157" lat="62.1391694407" lon="11.0489861039">
		<tag k="name" v="Sjølia" />
		<tag k="natural" v="slope" />
		<tag k="place" v="locality" />
		<tag k="ssr:stedsnr" v="842213" />
	</node>
	<node id="-91156" lat="61.5657027799" lon="11.281127778">
		<tag k="name" v="Småtjønndalen" />
		<tag k="natural" v="valley" />
		<tag k="place" v="locality" />
		<tag k="ssr:stedsnr" v="823668" />
	</node>
	<node id="-91154" lat="61.7691666667" lon="10.914716675">
		<tag k="name" v="Okstjønnsalen" />
		<tag k="natural" v="valley" />
		<tag k="place" v="locality" />
		<tag k="ssr:stedsnr" v="822241" />
	</node>
	<node id="-91151" lat="61.8009638869" lon="11.0329277867">
		<tag k="name" v="Hundtjønndalen" />
		<tag k="natural" v="valley" />
		<tag k="place" v="locality" />
		<tag k="ssr:stedsnr" v="821977" />
	</node>
	<node id="-89100" lat="61.8084611111" lon="11.147975">
		<tag k="name" v="Koiedalen" />
		<tag k="natural" v="valley" />
		<tag k="place" v="locality" />
		<tag k="ssr:stedsnr" v="26482" />
	</node>
	<node id="-91147" lat="61.8849388901" lon="11.0776749958">
		<tag k="name" v="Bergslia" />
		<tag k="natural" v="slope" />
		<tag k="place" v="locality" />
		<tag k="ssr:stedsnr" v="816048" />
	</node>
	<node id="-89098" lat="61.8746888891" lon="11.0601833413">
		<tag k="name" v="Tømmerdalen" />
		<tag k="natural" v="valley" />
		<tag k="place" v="locality" />
		<tag k="ssr:stedsnr" v="26465" />
	</node>
	<node id="-91145" lat="61.8122666651" lon="10.9037722202">
		<tag k="fixme" v="consider natural=peak for the most distinct mountains in the district" />
		<tag k="name" v="Veslekivfjellet" />
		<tag k="natural" v="hill" />
		<tag k="place" v="locality" />
		<tag k="ssr:stedsnr" v="815533" />
	</node>
	<node id="-89095" lat="61.8336249997" lon="11.1881305538">
		<tag k="name" v="Ælingsåkvolvet" />
		<tag k="natural" v="valley" />
		<tag k="place" v="locality" />
		<tag k="ssr:stedsnr" v="26401" />
	</node>
	<node id="-91141" lat="61.8405111144" lon="11.1147694489">
		<tag k="name" v="Langleite" />
		<tag k="place" v="locality" />
		<tag k="ssr:stedsnr" v="815095" />
	</node>
	<node id="-89091" lat="61.8912027767" lon="11.11205">
		<tag k="name" v="Merkingdalen" />
		<tag k="natural" v="valley" />
		<tag k="place" v="locality" />
		<tag k="ssr:stedsnr" v="26130" />
	</node>
	<node id="-91307" lat="61.814888892" lon="11.1829749951">
		<tag k="fixme" v="consider natural=peak for the most distinct mountains in the district" />
		<tag k="name" v="Måsåbukletten" />
		<tag k="natural" v="hill" />
		<tag k="place" v="locality" />
		<tag k="ssr:stedsnr" v="869320" />
	</node>
	<node id="-89087" lat="61.9374555553" lon="11.053761108">
		<tag k="name" v="Husdalen" />
		<tag k="natural" v="valley" />
		<tag k="place" v="locality" />
		<tag k="ssr:stedsnr" v="26068" />
	</node>
	<node id="-91133" lat="61.8225027768" lon="11.131394453">
		<tag k="name" v="Rendalen" />
		<tag k="natural" v="valley" />
		<tag k="place" v="locality" />
		<tag k="ssr:stedsnr" v="814461" />
	</node>
	<node id="-89082" lat="61.9301777753" lon="11.3162611089">
		<tag k="fixme" v="consider natural=peak for the most distinct mountains in the district" />
		<tag k="name" v="Stonga" />
		<tag k="natural" v="hill" />
		<tag k="place" v="locality" />
		<tag k="ssr:stedsnr" v="20300" />
	</node>
	<node id="-89079" lat="61.8692111084" lon="11.4810055493">
		<tag k="alt_name" v="Sølen;Sølen, søre" />
		<tag k="fixme" v="consider natural=peak for the most distinct mountains in the district" />
		<tag k="name" v="Søre Sølen" />
		<tag k="natural" v="hill" />
		<tag k="place" v="locality" />
		<tag k="ssr:stedsnr" v="11994" />
	</node>
	<node id="-91125" lat="61.8783777733" lon="11.5803111139">
		<tag k="name" v="Stollfløyet" />
		<tag k="place" v="locality" />
		<tag k="ssr:stedsnr" v="800981" />
	</node>
	<node id="-91122" lat="62.0023750007" lon="10.9132166617">
		<tag k="name" v="Jutulhogget" />
		<tag k="natural" v="valley" />
		<tag k="place" v="locality" />
		<tag k="ssr:stedsnr" v="800435" />
	</node>
	<node id="-91121" lat="62.1070861071" lon="11.2902861094">
		<tag k="name" v="Veslehøgda" />
		<tag k="natural" v="hill" />
		<tag k="place" v="locality" />
		<tag k="ssr:stedsnr" v="800387" />
	</node>
	<node id="-89072" lat="61.8969166699" lon="10.7252388882">
		<tag k="fixme" v="consider natural=peak for the most distinct mountains in the district" />
		<tag k="name" v="Reinsfjellet" />
		<tag k="natural" v="hill" />
		<tag k="place" v="locality" />
		<tag k="ssr:stedsnr" v="11333" />
	</node>
	<node id="-89071" lat="61.893066666" lon="10.8804833278">
		<tag k="alt_name" v="Glommlia" />
		<tag k="name" v="Glåmlia" />
		<tag k="natural" v="slope" />
		<tag k="place" v="locality" />
		<tag k="ssr:stedsnr" v="11331" />
	</node>
	<node id="-89069" lat="61.9620333359" lon="11.3277999932">
		<tag k="fixme" v="consider natural=peak for the most distinct mountains in the district" />
		<tag k="name" v="Marsfjellet" />
		<tag k="natural" v="hill" />
		<tag k="place" v="locality" />
		<tag k="ssr:stedsnr" v="11229" />
	</node>
	<node id="-89062" lat="62.1563555517" lon="11.1215666576">
		<tag k="fixme" v="consider natural=peak for the most distinct mountains in the district" />
		<tag k="name" v="Vakkerfjellet" />
		<tag k="natural" v="hill" />
		<tag k="place" v="locality" />
		<tag k="ssr:stedsnr" v="11167" />
	</node>
	<node id="-89061" lat="62.1563694477" lon="11.1660694403">
		<tag k="name" v="Nordre Finnroan" />
		<tag k="natural" v="slope" />
		<tag k="place" v="locality" />
		<tag k="ssr:stedsnr" v="11166" />
	</node>
	<node id="-91103" lat="61.9667527748" lon="11.5861805537">
		<tag k="name" v="Bjøntehaugen" />
		<tag k="natural" v="hill" />
		<tag k="place" v="locality" />
		<tag k="ssr:stedsnr" v="800091" />
	</node>
	<node id="-91096" lat="62.05727778" lon="11.1771333336">
		<tag k="fixme" v="consider natural=peak for the most distinct mountains in the district" />
		<tag k="name" v="Gloppa" />
		<tag k="natural" v="hill" />
		<tag k="place" v="locality" />
		<tag k="ssr:stedsnr" v="800020" />
	</node>
	<node id="-89047" lat="61.9255972232" lon="11.523066667">
		<tag k="name" v="Vesleskardet" />
		<tag k="natural" v="valley" />
		<tag k="place" v="locality" />
		<tag k="ssr:stedsnr" v="11090" />
	</node>
	<node id="-91087" lat="61.9143694478" lon="10.6165916724">
		<tag k="name" v="Kuven" />
		<tag k="natural" v="valley" />
		<tag k="place" v="locality" />
		<tag k="ssr:stedsnr" v="799495" />
	</node>
	<node id="-91083" lat="61.5657666669" lon="11.4507972246">
		<tag k="fixme" v="consider natural=peak for the most distinct mountains in the district" />
		<tag k="name" v="Kletten" />
		<tag k="natural" v="hill" />
		<tag k="place" v="locality" />
		<tag k="ssr:stedsnr" v="799467" />
	</node>
	<node id="-91077" lat="61.716599997" lon="11.3244250067">
		<tag k="fixme" v="consider natural=peak for the most distinct mountains in the district" />
		<tag k="name" v="Renåskarven" />
		<tag k="natural" v="hill" />
		<tag k="place" v="locality" />
		<tag k="ssr:stedsnr" v="799430" />
	</node>
	<node id="-89025" lat="61.5997749989" lon="11.341475">
		<tag k="fixme" v="consider natural=peak for the most distinct mountains in the district" />
		<tag k="name" v="Tallåsen" />
		<tag k="natural" v="hill" />
		<tag k="place" v="locality" />
		<tag k="ssr:stedsnr" v="10433" />
	</node>
	<node id="-89023" lat="61.5935055571" lon="11.1711305604">
		<tag k="alt_name" v="Reset, øvre" />
		<tag k="fixme" v="consider natural=peak for the most distinct mountains in the district" />
		<tag k="name" v="Østre Reset" />
		<tag k="natural" v="hill" />
		<tag k="place" v="locality" />
		<tag k="ssr:stedsnr" v="10427" />
	</node>
	<node id="-89022" lat="62.0059249978" lon="11.251408334">
		<tag k="name" v="Hønnvarshøgda" />
		<tag k="natural" v="hill" />
		<tag k="place" v="locality" />
		<tag k="ssr:stedsnr" v="10423" />
	</node>
	<node id="-91069" lat="61.7378361093" lon="11.1349583331">
		<tag k="name" v="Granberget" />
		<tag k="natural" v="hill" />
		<tag k="place" v="locality" />
		<tag k="ssr:stedsnr" v="799412" />
	</node>
	<node id="-89018" lat="61.676750003" lon="11.2832499975">
		<tag k="alt_name" v="Kvitskjeret" />
		<tag k="name" v="Kvitskjæret" />
		<tag k="natural" v="cliff" />
		<tag k="ssr:stedsnr" v="10390" />
	</node>
	<node id="-91065" lat="61.6968194444" lon="11.5167083345">
		<tag k="alt_name" v="Kvitåsen, midtre;Kvitåsen" />
		<tag k="fixme" v="consider natural=peak for the most distinct mountains in the district" />
		<tag k="name" v="Midtre Kvitåsen" />
		<tag k="natural" v="hill" />
		<tag k="place" v="locality" />
		<tag k="ssr:stedsnr" v="799369" />
	</node>
	<node id="-89016" lat="61.6790777755" lon="11.1018499924">
		<tag k="alt_name" v="Rokkdalsåsen" />
		<tag k="fixme" v="consider natural=peak for the most distinct mountains in the district" />
		<tag k="name" v="Rokkdalsfjellet" />
		<tag k="natural" v="hill" />
		<tag k="place" v="locality" />
		<tag k="ssr:stedsnr" v="10383" />
	</node>
	<node id="-91060" lat="61.5614472212" lon="11.2987388898">
		<tag k="fixme" v="consider natural=peak for the most distinct mountains in the district" />
		<tag k="name" v="Andtjønnkletten" />
		<tag k="natural" v="hill" />
		<tag k="place" v="locality" />
		<tag k="ssr:stedsnr" v="799309" />
	</node>
	<node id="-91059" lat="61.5017472266" lon="11.3110388949">
		<tag k="alt_name" v="Røstet, søre;Røstet" />
		<tag k="fixme" v="consider natural=peak for the most distinct mountains in the district" />
		<tag k="name" v="Søre Røstet" />
		<tag k="natural" v="hill" />
		<tag k="place" v="locality" />
		<tag k="ssr:stedsnr" v="799283" />
	</node>
	<node id="-89009" lat="61.646205559" lon="11.7092888874">
		<tag k="fixme" v="consider natural=peak for the most distinct mountains in the district" />
		<tag k="name" v="Gråhøgda" />
		<tag k="natural" v="hill" />
		<tag k="place" v="locality" />
		<tag k="ssr:stedsnr" v="10305" />
	</node>
	<node id="-89008" lat="61.6215972188" lon="11.6384722191">
		<tag k="fixme" v="consider natural=peak for the most distinct mountains in the district" />
		<tag k="name" v="Kletten" />
		<tag k="natural" v="hill" />
		<tag k="place" v="locality" />
		<tag k="ssr:stedsnr" v="10298" />
	</node>
	<node id="-89007" lat="61.5298999956" lon="11.2688805609">
		<tag k="fixme" v="consider natural=peak for the most distinct mountains in the district" />
		<tag k="name" v="Skramsliberget" />
		<tag k="natural" v="hill" />
		<tag k="place" v="locality" />
		<tag k="ssr:stedsnr" v="10295" />
	</node>
	<node id="-91053" lat="61.7761666695" lon="10.8597083361">
		<tag k="alt_name" v="Tøråsen" />
		<tag k="fixme" v="consider natural=peak for the most distinct mountains in the district" />
		<tag k="name" v="Tørråsen" />
		<tag k="natural" v="hill" />
		<tag k="place" v="locality" />
		<tag k="ssr:stedsnr" v="799150" />
	</node>
	<node id="-89002" lat="61.8241249965" lon="10.9693638924">
		<tag k="fixme" v="consider natural=peak for the most distinct mountains in the district" />
		<tag k="name" v="Kalberget" />
		<tag k="natural" v="hill" />
		<tag k="place" v="locality" />
		<tag k="ssr:stedsnr" v="10177" />
	</node>
	<node id="-90951" lat="61.8715749962" lon="11.0942250088">
		<tag k="name" v="Brennhaugen" />
		<tag k="natural" v="hill" />
		<tag k="place" v="locality" />
		<tag k="ssr:stedsnr" v="754022" />
	</node>
	<node id="-89000" lat="62.1069249988" lon="11.1066694382">
		<tag k="fixme" v="consider natural=peak for the most distinct mountains in the district" />
		<tag k="name" v="Skarven" />
		<tag k="natural" v="hill" />
		<tag k="place" v="locality" />
		<tag k="ssr:stedsnr" v="10073" />
	</node>
	<node id="-91047" lat="62.0501138863" lon="11.0917361094">
		<tag k="fixme" v="consider natural=peak for the most distinct mountains in the district" />
		<tag k="name" v="Vollskampen" />
		<tag k="natural" v="hill" />
		<tag k="place" v="locality" />
		<tag k="ssr:stedsnr" v="799001" />
	</node>
	<node id="-88995" lat="61.4936361081" lon="11.4796416617">
		<tag k="alt_name" v="Vesle Byringen" />
		<tag k="fixme" v="consider natural=peak for the most distinct mountains in the district" />
		<tag k="name" v="Veslbyringen" />
		<tag k="natural" v="hill" />
		<tag k="place" v="locality" />
		<tag k="ssr:stedsnr" v="8217" />
	</node>
	<node id="-88993" lat="61.4449111125" lon="11.3830138944">
		<tag k="name" v="Holmsliberget" />
		<tag k="natural" v="hill" />
		<tag k="place" v="locality" />
		<tag k="ssr:stedsnr" v="8132" />
	</node>
	<node id="-88992" lat="61.5195749959" lon="11.6476972245">
		<tag k="loc_name" v="Perla" />
		<tag k="name" v="Pælene" />
		<tag k="natural" v="hill" />
		<tag k="place" v="locality" />
		<tag k="ssr:stedsnr" v="10713" />
	</node>
	<node id="-91038" lat="61.4755222231" lon="11.4917083399">
		<tag k="fixme" v="consider natural=peak for the most distinct mountains in the district" />
		<tag k="name" v="Svartåsen" />
		<tag k="natural" v="hill" />
		<tag k="place" v="locality" />
		<tag k="ssr:stedsnr" v="797211" />
	</node>
	<node id="-90949" lat="61.8151055541" lon="10.8870777762">
		<tag k="name" v="Hanekampsalen" />
		<tag k="natural" v="valley" />
		<tag k="place" v="locality" />
		<tag k="ssr:stedsnr" v="753505" />
	</node>
	<node id="-88976" lat="61.4444305541" lon="11.2449999959">
		<tag k="fixme" v="consider natural=peak for the most distinct mountains in the district" />
		<tag k="name" v="Svantjønnåsen" />
		<tag k="natural" v="hill" />
		<tag k="place" v="locality" />
		<tag k="ssr:stedsnr" v="398692" />
	</node>
	<node id="-91288" lat="61.8803166639" lon="11.2579888954">
		<tag k="alt_name" v="Einvorda" />
		<tag k="name" v="Envola" />
		<tag k="natural" v="hill" />
		<tag k="place" v="locality" />
		<tag k="ssr:stedsnr" v="861004" />
	</node>
	<node id="-88974" lat="61.8946305597" lon="11.0184333349">
		<tag k="name" v="Gåstjønnmoen" />
		<tag k="place" v="locality" />
		<tag k="ssr:stedsnr" v="397000" />
	</node>
	<node id="-88973" lat="61.8196861074" lon="11.1513555581">
		<tag k="name" v="Solungsrøsta" />
		<tag k="natural" v="slope" />
		<tag k="place" v="locality" />
		<tag k="ssr:stedsnr" v="390464" />
	</node>
	<node id="-91020" lat="61.9672194444" lon="11.1559638912">
		<tag k="name" v="Gammelørbekkdalen" />
		<tag k="natural" v="valley" />
		<tag k="place" v="locality" />
		<tag k="ssr:stedsnr" v="786515" />
	</node>
	<node id="-91018" lat="61.9816333318" lon="11.1633583298">
		<tag k="name" v="Trollbua" />
		<tag k="place" v="locality" />
		<tag k="ssr:stedsnr" v="786509" />
	</node>
	<node id="-88964" lat="61.9353472196" lon="11.0657666608">
		<tag k="name" v="Busta" />
		<tag k="natural" v="ridge" />
		<tag k="place" v="locality" />
		<tag k="ssr:stedsnr" v="390060" />
	</node>
	<node id="-91011" lat="62.0385888916" lon="11.1181305481">
		<tag k="name" v="Koiehaugen" />
		<tag k="natural" v="hill" />
		<tag k="place" v="locality" />
		<tag k="ssr:stedsnr" v="786317" />
	</node>
	<node id="-91007" lat="61.4733277803" lon="11.4750500036">
		<tag k="name" v="Bergkletten" />
		<tag k="natural" v="hill" />
		<tag k="place" v="locality" />
		<tag k="ssr:stedsnr" v="786291" />
	</node>
	<node id="-88958" lat="61.8059305587" lon="10.8901777724">
		<tag k="name" v="Kvikvolvet" />
		<tag k="natural" v="valley" />
		<tag k="place" v="locality" />
		<tag k="ssr:stedsnr" v="383625" />
	</node>
	<node id="-88954" lat="61.8490861083" lon="11.5149861051">
		<tag k="name" v="Småhøgdene" />
		<tag k="natural" v="hill" />
		<tag k="place" v="locality" />
		<tag k="ssr:stedsnr" v="375959" />
	</node>
	<node id="-88953" lat="62.0592638869" lon="11.2876805615">
		<tag k="name" v="Neksjøhøgda" />
		<tag k="natural" v="hill" />
		<tag k="place" v="locality" />
		<tag k="ssr:stedsnr" v="375372" />
	</node>
	<node id="-88952" lat="62.1367777766" lon="11.2842583245">
		<tag k="fixme" v="consider natural=peak for the most distinct mountains in the district" />
		<tag k="name" v="Kusten" />
		<tag k="natural" v="hill" />
		<tag k="place" v="locality" />
		<tag k="ssr:stedsnr" v="375354" />
	</node>
	<node id="-88951" lat="62.1471750012" lon="11.3885944463">
		<tag k="name" v="Veslehøgda" />
		<tag k="natural" v="hill" />
		<tag k="place" v="locality" />
		<tag k="ssr:stedsnr" v="375353" />
	</node>
	<node id="-90996" lat="61.6729055588" lon="11.1928222281">
		<tag k="name" v="Fjordingshammaren" />
		<tag k="natural" v="hill" />
		<tag k="place" v="locality" />
		<tag k="ssr:stedsnr" v="786067" />
	</node>
	<node id="-90984" lat="61.6452861126" lon="11.3082416605">
		<tag k="name" v="Skjæregga" />
		<tag k="natural" v="slope" />
		<tag k="place" v="locality" />
		<tag k="ssr:stedsnr" v="784429" />
	</node>
	<node id="-90983" lat="61.5502166676" lon="11.2629444466">
		<tag k="name" v="Anddalen" />
		<tag k="natural" v="valley" />
		<tag k="place" v="locality" />
		<tag k="ssr:stedsnr" v="784373" />
	</node>
	<node id="-88932" lat="61.5502416689" lon="11.5547888805">
		<tag k="name" v="Villdalen" />
		<tag k="natural" v="valley" />
		<tag k="place" v="locality" />
		<tag k="ssr:stedsnr" v="374715" />
	</node>
	<node id="-88931" lat="61.5554166686" lon="11.6683777857">
		<tag k="name" v="Bjørbekkmoen" />
		<tag k="place" v="locality" />
		<tag k="ssr:stedsnr" v="374707" />
	</node>
	<node id="-90978" lat="61.9944055568" lon="11.1423638796">
		<tag k="name" v="Slettmoene" />
		<tag k="place" v="locality" />
		<tag k="ssr:stedsnr" v="784263" />
	</node>
	<node id="-90977" lat="61.8816555584" lon="11.1952277687">
		<tag k="name" v="Bakselabakken" />
		<tag k="natural" v="slope" />
		<tag k="place" v="locality" />
		<tag k="ssr:stedsnr" v="784211" />
	</node>
	<node id="-91280" lat="61.5671083354" lon="11.3810277769">
		<tag k="fixme" v="consider natural=peak for the most distinct mountains in the district" />
		<tag k="name" v="Veksenbekkåsen" />
		<tag k="natural" v="hill" />
		<tag k="place" v="locality" />
		<tag k="ssr:stedsnr" v="860504" />
	</node>
	<node id="-90974" lat="61.6945277744" lon="11.1911305643">
		<tag k="name" v="Båsdalen" />
		<tag k="natural" v="valley" />
		<tag k="place" v="locality" />
		<tag k="ssr:stedsnr" v="784153" />
	</node>
	<node id="-88924" lat="61.740699997" lon="11.163875008">
		<tag k="alt_name" v="Åkersten" />
		<tag k="fixme" v="consider natural=peak for the most distinct mountains in the district" />
		<tag k="name" v="Åkersteinen" />
		<tag k="natural" v="hill" />
		<tag k="place" v="locality" />
		<tag k="ssr:stedsnr" v="374417" />
	</node>
	<node id="-90966" lat="61.8861416706" lon="11.0579777732">
		<tag k="name" v="Grova" />
		<tag k="natural" v="slope" />
		<tag k="place" v="locality" />
		<tag k="ssr:stedsnr" v="755036" />
	</node>
	<node id="-88916" lat="61.9638333353" lon="10.7699500091">
		<tag k="name" v="Kulhøgda" />
		<tag k="natural" v="hill" />
		<tag k="place" v="locality" />
		<tag k="ssr:stedsnr" v="374355" />
	</node>
	<node id="-90962" lat="61.8334722217" lon="11.1454916701">
		<tag k="name" v="Svartbekklia" />
		<tag k="natural" v="slope" />
		<tag k="place" v="locality" />
		<tag k="ssr:stedsnr" v="754422" />
	</node>
	<node id="-88913" lat="61.934099996" lon="10.8481499999">
		<tag k="alt_name" v="Svarthøgda" />
		<tag k="name" v="Svarthaugen" />
		<tag k="natural" v="hill" />
		<tag k="place" v="locality" />
		<tag k="ssr:stedsnr" v="374343" />
	</node>
	<node id="-90936" lat="62.1235333374" lon="11.5200305588">
		<tag k="fixme" v="consider natural=peak for the most distinct mountains in the district" />
		<tag k="name" v="Bakolaskarven" />
		<tag k="natural" v="hill" />
		<tag k="place" v="locality" />
		<tag k="ssr:stedsnr" v="739387" />
	</node>
	<node id="-88908" lat="61.9984833375" lon="11.4209305595">
		<tag k="name" v="Tangtjønnhøgda" />
		<tag k="natural" v="hill" />
		<tag k="place" v="locality" />
		<tag k="ssr:stedsnr" v="374227" />
	</node>
	<node id="-88905" lat="61.78645" lon="11.0486749955">
		<tag k="fixme" v="consider natural=peak for the most distinct mountains in the district" />
		<tag k="name" v="Høgåsen" />
		<tag k="natural" v="hill" />
		<tag k="place" v="locality" />
		<tag k="ssr:stedsnr" v="374211" />
	</node>
	<node id="-90952" lat="61.8680194473" lon="11.1233472269">
		<tag k="name" v="Rønningsberget" />
		<tag k="natural" v="hill" />
		<tag k="place" v="locality" />
		<tag k="ssr:stedsnr" v="754026" />
	</node>
	<node id="-88903" lat="61.8197249993" lon="11.0159027844">
		<tag k="alt_name" v="Kletten" />
		<tag k="fixme" v="consider natural=peak for the most distinct mountains in the district" />
		<tag k="name" v="Klettan" />
		<tag k="natural" v="hill" />
		<tag k="place" v="locality" />
		<tag k="ssr:stedsnr" v="374197" />
	</node>
	<node id="-88901" lat="61.9536777777" lon="11.4857305578">
		<tag k="name" v="Sokshaugen" />
		<tag k="natural" v="hill" />
		<tag k="place" v="locality" />
		<tag k="ssr:stedsnr" v="374106" />
	</node>
	<node id="-90947" lat="61.5417083294" lon="11.2756388954">
		<tag k="name" v="Abbortjønneggene" />
		<tag k="natural" v="ridge" />
		<tag k="place" v="locality" />
		<tag k="ssr:stedsnr" v="753459" />
	</node>
	<node id="-90946" lat="62.1094555587" lon="11.4895694459">
		<tag k="name" v="Jørgenshaugen" />
		<tag k="natural" v="hill" />
		<tag k="place" v="locality" />
		<tag k="ssr:stedsnr" v="753359" />
	</node>
	<node id="-90941" lat="61.8083055582" lon="11.615280551">
		<tag k="fixme" v="consider natural=peak for the most distinct mountains in the district" />
		<tag k="name" v="Knappen" />
		<tag k="natural" v="hill" />
		<tag k="place" v="locality" />
		<tag k="ssr:stedsnr" v="739933" />
	</node>
	<node id="-88892" lat="62.0479611104" lon="11.164413898">
		<tag k="name" v="Langgjota" />
		<tag k="place" v="locality" />
		<tag k="ssr:stedsnr" v="374005" />
	</node>
	<node id="-88891" lat="61.6055250022" lon="11.4501861148">
		<tag k="fixme" v="consider natural=peak for the most distinct mountains in the district" />
		<tag k="name" v="Vestnubben" />
		<tag k="natural" v="hill" />
		<tag k="place" v="locality" />
		<tag k="ssr:stedsnr" v="373503" />
	</node>
	<node id="-88888" lat="61.7076750022" lon="11.1651305595">
		<tag k="name" v="Åkerslia" />
		<tag k="natural" v="slope" />
		<tag k="place" v="locality" />
		<tag k="ssr:stedsnr" v="373442" />
	</node>
	<node id="-90934" lat="62.1436888861" lon="11.5097722196">
		<tag k="fixme" v="consider natural=peak for the most distinct mountains in the district" />
		<tag k="name" v="Gloføken" />
		<tag k="natural" v="hill" />
		<tag k="place" v="locality" />
		<tag k="ssr:stedsnr" v="739371" />
	</node>
	<node id="-90932" lat="61.911499997" lon="10.9802527693">
		<tag k="fixme" v="consider natural=peak for the most distinct mountains in the district" />
		<tag k="name" v="Tronsjøåsen" />
		<tag k="natural" v="hill" />
		<tag k="place" v="locality" />
		<tag k="ssr:stedsnr" v="739344" />
	</node>
	<node id="-88879" lat="61.4576527797" lon="11.3370861166">
		<tag k="fixme" v="consider natural=peak for the most distinct mountains in the district" />
		<tag k="name" v="Bjørkåsen" />
		<tag k="natural" v="hill" />
		<tag k="place" v="locality" />
		<tag k="ssr:stedsnr" v="372121" />
	</node>
	<node id="-90923" lat="61.7697222184" lon="10.9119333338">
		<tag k="fixme" v="consider natural=peak for the most distinct mountains in the district" />
		<tag k="name" v="Okstjønnåsen" />
		<tag k="natural" v="hill" />
		<tag k="place" v="locality" />
		<tag k="ssr:stedsnr" v="739196" />
	</node>
	<node id="-90920" lat="62.1462583325" lon="11.0995583426">
		<tag k="name" v="Brennhøgda" />
		<tag k="natural" v="hill" />
		<tag k="place" v="locality" />
		<tag k="ssr:stedsnr" v="739185" />
	</node>
	<node id="-88870" lat="62.0386444445" lon="11.02505">
		<tag k="name" v="Brennhøgda" />
		<tag k="natural" v="hill" />
		<tag k="place" v="locality" />
		<tag k="ssr:stedsnr" v="361863" />
	</node>
	<node id="-88869" lat="62.0173944466" lon="11.063794436">
		<tag k="name" v="Harsandlia" />
		<tag k="natural" v="slope" />
		<tag k="place" v="locality" />
		<tag k="ssr:stedsnr" v="361856" />
	</node>
	<node id="-90915" lat="61.87176389" lon="11.0601999941">
		<tag k="alt_name" v="Kaukkampen" />
		<tag k="fixme" v="consider natural=peak for the most distinct mountains in the district" />
		<tag k="name" v="Haukkampen" />
		<tag k="natural" v="hill" />
		<tag k="place" v="locality" />
		<tag k="ssr:stedsnr" v="739129" />
	</node>
	<node id="-90914" lat="61.867330551" lon="10.8763416733">
		<tag k="alt_name" v="Grøtåsen" />
		<tag k="fixme" v="consider natural=peak for the most distinct mountains in the district" />
		<tag k="name" v="Grøttingåsen" />
		<tag k="natural" v="hill" />
		<tag k="place" v="locality" />
		<tag k="ssr:stedsnr" v="739124" />
	</node>
	<node id="-88865" lat="61.862363893" lon="10.9824972268">
		<tag k="name" v="Høgda" />
		<tag k="natural" v="hill" />
		<tag k="place" v="locality" />
		<tag k="ssr:stedsnr" v="361795" />
	</node>
	<node id="-88864" lat="61.8930583321" lon="10.9985250069">
		<tag k="name" v="Geitryggene" />
		<tag k="natural" v="ridge" />
		<tag k="place" v="locality" />
		<tag k="ssr:stedsnr" v="361791" />
	</node>
	<node id="-90909" lat="62.0972111115" lon="10.9871055513">
		<tag k="alt_name" v="Kvannskardfjellet" />
		<tag k="fixme" v="consider natural=peak for the most distinct mountains in the district" />
		<tag k="name" v="Skardfjellet" />
		<tag k="natural" v="hill" />
		<tag k="place" v="locality" />
		<tag k="ssr:stedsnr" v="739099" />
	</node>
	<node id="-90907" lat="61.930075001" lon="11.5181555557">
		<tag k="fixme" v="consider natural=peak for the most distinct mountains in the district" />
		<tag k="name" v="Veslesølen" />
		<tag k="natural" v="hill" />
		<tag k="place" v="locality" />
		<tag k="ssr:stedsnr" v="739095" />
	</node>
	<node id="-88858" lat="61.765688893" lon="11.0242944354">
		<tag k="fixme" v="consider natural=peak for the most distinct mountains in the district" />
		<tag k="name" v="Veslefjellet" />
		<tag k="natural" v="hill" />
		<tag k="place" v="locality" />
		<tag k="ssr:stedsnr" v="361681" />
	</node>
	<node id="-90905" lat="62.0915999967" lon="11.1873888895">
		<tag k="name" v="Svarthaugen" />
		<tag k="natural" v="hill" />
		<tag k="place" v="locality" />
		<tag k="ssr:stedsnr" v="739088" />
	</node>
	<node id="-90901" lat="61.7922500008" lon="11.182349994">
		<tag k="alt_name" v="Lausåkletten, søre;Søndre Løsåkletten" />
		<tag k="fixme" v="consider natural=peak for the most distinct mountains in the district" />
		<tag k="name" v="Søre Lausåkletten" />
		<tag k="natural" v="hill" />
		<tag k="place" v="locality" />
		<tag k="ssr:stedsnr" v="739065" />
	</node>
	<node id="-88852" lat="61.7541000021" lon="10.8675361193">
		<tag k="name" v="Kjølsøkken" />
		<tag k="natural" v="valley" />
		<tag k="place" v="locality" />
		<tag k="ssr:stedsnr" v="361533" />
	</node>
	<node id="-88851" lat="61.760600004" lon="10.8821666582">
		<tag k="name" v="Utsikten" />
		<tag k="place" v="locality" />
		<tag k="ssr:stedsnr" v="361530" />
	</node>
	<node id="-88850" lat="61.9726666704" lon="11.1642388909">
		<tag k="name" v="Bubakken" />
		<tag k="natural" v="slope" />
		<tag k="place" v="locality" />
		<tag k="ssr:stedsnr" v="361513" />
	</node>
	<node id="-88842" lat="62.1290333329" lon="11.4418416645">
		<tag k="name" v="Hallan" />
		<tag k="natural" v="slope" />
		<tag k="place" v="locality" />
		<tag k="ssr:stedsnr" v="361428" />
	</node>
	<node id="-88841" lat="62.0425805512" lon="11.1630194436">
		<tag k="name" v="Søndre Langjotdalen" />
		<tag k="natural" v="valley" />
		<tag k="place" v="locality" />
		<tag k="ssr:stedsnr" v="361376" />
	</node>
	<node id="-90888" lat="61.6187499999" lon="11.418449992">
		<tag k="fixme" v="consider natural=peak for the most distinct mountains in the district" />
		<tag k="name" v="Vamfjellet" />
		<tag k="natural" v="hill" />
		<tag k="place" v="locality" />
		<tag k="ssr:stedsnr" v="738481" />
	</node>
	<node id="-90887" lat="61.8972833353" lon="10.7079749988">
		<tag k="fixme" v="consider natural=peak for the most distinct mountains in the district" />
		<tag k="name" v="Reinsfjellet" />
		<tag k="natural" v="hill" />
		<tag k="place" v="locality" />
		<tag k="ssr:stedsnr" v="738482" />
	</node>
	<node id="-90884" lat="61.6160194409" lon="11.3018500078">
		<tag k="name" v="Flenbuøya" />
		<tag k="place" v="locality" />
		<tag k="ssr:stedsnr" v="738476" />
	</node>
	<node id="-88833" lat="61.7721416629" lon="10.7943083276">
		<tag k="name" v="Glopskaret" />
		<tag k="natural" v="valley" />
		<tag k="place" v="locality" />
		<tag k="ssr:stedsnr" v="361358" />
	</node>
	<node id="-90879" lat="61.5721027813" lon="11.2282638976">
		<tag k="alt_name" v="Sponghammeren" />
		<tag k="name" v="Spronghamaren" />
		<tag k="natural" v="cliff" />
		<tag k="ssr:stedsnr" v="738445" />
	</node>
	<node id="-88830" lat="62.0257388901" lon="11.1486777773">
		<tag k="name" v="Løkrosåsen" />
		<tag k="natural" v="hill" />
		<tag k="place" v="locality" />
		<tag k="ssr:stedsnr" v="361347" />
	</node>
	<node id="-90875" lat="61.9934583306" lon="11.0318833368">
		<tag k="fixme" v="consider natural=peak for the most distinct mountains in the district" />
		<tag k="name" v="Fonnåsfjellet" />
		<tag k="natural" v="hill" />
		<tag k="place" v="locality" />
		<tag k="ssr:stedsnr" v="738351" />
	</node>
	<node id="-88826" lat="61.7958416638" lon="10.7247888937">
		<tag k="name" v="Kjellerhølet" />
		<tag k="natural" v="valley" />
		<tag k="place" v="locality" />
		<tag k="ssr:stedsnr" v="361336" />
	</node>
	<node id="-90873" lat="61.9656222267" lon="10.8332722228">
		<tag k="alt_name" v="Nordisætervorda" />
		<tag k="fixme" v="consider natural=peak for the most distinct mountains in the district" />
		<tag k="name" v="Nordisætervola" />
		<tag k="natural" v="hill" />
		<tag k="place" v="locality" />
		<tag k="ssr:stedsnr" v="738344" />
	</node>
	<node id="-88822" lat="62.0535694414" lon="11.0325416626">
		<tag k="name" v="Nordre Vestlia" />
		<tag k="natural" v="slope" />
		<tag k="place" v="locality" />
		<tag k="ssr:stedsnr" v="361297" />
	</node>
	<node id="-88818" lat="61.6478750032" lon="11.1549166669">
		<tag k="name" v="Sagtomta" />
		<tag k="place" v="locality" />
		<tag k="ssr:stedsnr" v="361076" />
	</node>
	<node id="-88817" lat="61.8257666703" lon="10.9988305497">
		<tag k="name" v="Svartåsen" />
		<tag k="natural" v="hill" />
		<tag k="place" v="locality" />
		<tag k="ssr:stedsnr" v="360788" />
	</node>
	<node id="-88815" lat="61.7676611152" lon="10.8823916607">
		<tag k="name" v="Butomta" />
		<tag k="place" v="locality" />
		<tag k="ssr:stedsnr" v="360406" />
	</node>
	<node id="-90862" lat="61.8065111077" lon="10.9589944426">
		<tag k="alt_name" v="Hanestadkletten" />
		<tag k="fixme" v="consider natural=peak for the most distinct mountains in the district" />
		<tag k="name" v="Kletten" />
		<tag k="natural" v="hill" />
		<tag k="place" v="locality" />
		<tag k="ssr:stedsnr" v="738181" />
	</node>
	<node id="-90861" lat="61.8037944488" lon="11.0227194428">
		<tag k="fixme" v="consider natural=peak for the most distinct mountains in the district" />
		<tag k="name" v="Hundtjønnåsen" />
		<tag k="natural" v="hill" />
		<tag k="place" v="locality" />
		<tag k="ssr:stedsnr" v="738180" />
	</node>
	<node id="-88811" lat="62.0005499977" lon="11.1366249978">
		<tag k="name" v="Emiliebakken" />
		<tag k="natural" v="slope" />
		<tag k="place" v="locality" />
		<tag k="ssr:stedsnr" v="360220" />
	</node>
	<node id="-88807" lat="61.6246472192" lon="11.5672416731">
		<tag k="fixme" v="consider natural=peak for the most distinct mountains in the district" />
		<tag k="name" v="Tøråsen" />
		<tag k="natural" v="hill" />
		<tag k="place" v="locality" />
		<tag k="ssr:stedsnr" v="359732" />
	</node>
	<node id="-90854" lat="61.8568555593" lon="11.2406361129">
		<tag k="fixme" v="consider natural=peak for the most distinct mountains in the district" />
		<tag k="name" v="Steinfjellet" />
		<tag k="natural" v="hill" />
		<tag k="place" v="locality" />
		<tag k="ssr:stedsnr" v="738029" />
	</node>
	<node id="-90853" lat="61.8365777737" lon="11.1681555557">
		<tag k="alt_name" v="Grauthølet;Grautholet" />
		<tag k="name" v="Grøtholet" />
		<tag k="natural" v="valley" />
		<tag k="place" v="locality" />
		<tag k="ssr:stedsnr" v="738016" />
	</node>
	<node id="-88918" lat="61.6741250006" lon="11.6563750035">
		<tag k="alt_name" v="Tøråsen" />
		<tag k="fixme" v="consider natural=peak for the most distinct mountains in the district" />
		<tag k="name" v="Tørråsen" />
		<tag k="natural" v="hill" />
		<tag k="place" v="locality" />
		<tag k="ssr:stedsnr" v="374379" />
	</node>
	<node id="-88802" lat="61.6670472249" lon="11.3524722231">
		<tag k="name" v="Storbekkdalen" />
		<tag k="natural" v="valley" />
		<tag k="place" v="locality" />
		<tag k="ssr:stedsnr" v="359397" />
	</node>
	<node id="-88801" lat="61.6277500042" lon="11.300027787">
		<tag k="name" v="Åkersdalen" />
		<tag k="natural" v="valley" />
		<tag k="place" v="locality" />
		<tag k="ssr:stedsnr" v="359361" />
	</node>
	<node id="-90847" lat="62.01604167" lon="11.432855551">
		<tag k="fixme" v="consider natural=peak for the most distinct mountains in the district" />
		<tag k="name" v="Søskarven" />
		<tag k="natural" v="hill" />
		<tag k="place" v="locality" />
		<tag k="ssr:stedsnr" v="738423" />
	</node>
	<node id="-90844" lat="61.4414916636" lon="11.2779499931">
		<tag k="name" v="Sæterkletten" />
		<tag k="natural" v="hill" />
		<tag k="place" v="locality" />
		<tag k="ssr:stedsnr" v="736130" />
	</node>
	<node id="-90842" lat="61.4610749974" lon="11.4495527717">
		<tag k="alt_name" v="Bjønndalen" />
		<tag k="name" v="Bjørndalen" />
		<tag k="natural" v="valley" />
		<tag k="place" v="locality" />
		<tag k="ssr:stedsnr" v="736121" />
	</node>
	<node id="-90828" lat="61.70694167" lon="11.3171055622">
		<tag k="name" v="Misterlikvolvet" />
		<tag k="place" v="locality" />
		<tag k="ssr:stedsnr" v="726661" />
	</node>
	<node id="-90826" lat="61.7581583336" lon="10.8820972147">
		<tag k="name" v="Storsalen" />
		<tag k="natural" v="valley" />
		<tag k="place" v="locality" />
		<tag k="ssr:stedsnr" v="726521" />
	</node>
	<node id="-90231" lat="61.7326250026" lon="11.1842166657">
		<tag k="name" v="Skarpegga" />
		<tag k="place" v="locality" />
		<tag k="ssr:stedsnr" v="544262" />
	</node>
	<node id="-88775" lat="61.8934583346" lon="11.0656666694">
		<tag k="name" v="Kattskjæret" />
		<tag k="natural" v="hill" />
		<tag k="place" v="locality" />
		<tag k="ssr:stedsnr" v="330055" />
	</node>
	<node id="-90822" lat="61.8073694425" lon="10.7527833239">
		<tag k="name" v="Kløftet" />
		<tag k="natural" v="valley" />
		<tag k="place" v="locality" />
		<tag k="ssr:stedsnr" v="726332" />
	</node>
	<node id="-88773" lat="61.8016083306" lon="11.0976500022">
		<tag k="name" v="Hårrenndalen" />
		<tag k="natural" v="valley" />
		<tag k="place" v="locality" />
		<tag k="ssr:stedsnr" v="329473" />
	</node>
	<node id="-88772" lat="61.7939777761" lon="11.110511106">
		<tag k="name" v="Djupdalen" />
		<tag k="natural" v="valley" />
		<tag k="place" v="locality" />
		<tag k="ssr:stedsnr" v="329470" />
	</node>
	<node id="-90819" lat="61.6927083295" lon="11.1129527762">
		<tag k="name" v="Rabba" />
		<tag k="natural" v="slope" />
		<tag k="place" v="locality" />
		<tag k="ssr:stedsnr" v="726086" />
	</node>
	<node id="-90816" lat="61.6794666683" lon="11.1620444417">
		<tag k="name" v="Fjølbærmoen" />
		<tag k="place" v="locality" />
		<tag k="ssr:stedsnr" v="726056" />
	</node>
	<node id="-88764" lat="61.9355388847" lon="11.0580777808">
		<tag k="name" v="Låvedalen" />
		<tag k="natural" v="valley" />
		<tag k="place" v="locality" />
		<tag k="ssr:stedsnr" v="329059" />
	</node>
	<node id="-90811" lat="61.6676999979" lon="11.2541222267">
		<tag k="name" v="Hagenkvernbakka" />
		<tag k="natural" v="slope" />
		<tag k="place" v="locality" />
		<tag k="ssr:stedsnr" v="725452" />
	</node>
	<node id="-88761" lat="61.8727194432" lon="11.088447221">
		<tag k="name" v="Hårsetberget" />
		<tag k="natural" v="ridge" />
		<tag k="place" v="locality" />
		<tag k="ssr:stedsnr" v="329017" />
	</node>
	<node id="-88760" lat="61.8346111086" lon="10.8727944526">
		<tag k="name" v="Tyve" />
		<tag k="place" v="locality" />
		<tag k="ssr:stedsnr" v="328517" />
	</node>
	<node id="-90807" lat="62.1199111144" lon="11.3908694541">
		<tag k="name" v="Nordre Vaåsen" />
		<tag k="natural" v="hill" />
		<tag k="place" v="locality" />
		<tag k="ssr:stedsnr" v="725372" />
	</node>
	<node id="-90806" lat="62.1305611089" lon="11.4098111052">
		<tag k="name" v="Talet" />
		<tag k="natural" v="slope" />
		<tag k="place" v="locality" />
		<tag k="ssr:stedsnr" v="725354" />
	</node>
	<node id="-88757" lat="61.7839638904" lon="11.187299997">
		<tag k="alt_name" v="Vardhammeren" />
		<tag k="name" v="Vardhammaren" />
		<tag k="natural" v="hill" />
		<tag k="place" v="locality" />
		<tag k="ssr:stedsnr" v="323298" />
	</node>
	<node id="-90802" lat="62.0407722239" lon="11.1231472191">
		<tag k="name" v="Bakkeråsen" />
		<tag k="natural" v="hill" />
		<tag k="place" v="locality" />
		<tag k="ssr:stedsnr" v="725306" />
	</node>
	<node id="-88752" lat="62.0481000042" lon="11.6085916603">
		<tag k="name" v="Treklettan" />
		<tag k="natural" v="hill" />
		<tag k="place" v="locality" />
		<tag k="ssr:stedsnr" v="314451" />
	</node>
	<node id="-90799" lat="61.4727555513" lon="11.5412861168">
		<tag k="name" v="Høgåslia" />
		<tag k="natural" v="slope" />
		<tag k="place" v="locality" />
		<tag k="ssr:stedsnr" v="725277" />
	</node>
	<node id="-88747" lat="61.9254416657" lon="10.8314361202">
		<tag k="name" v="Kletten" />
		<tag k="natural" v="hill" />
		<tag k="place" v="locality" />
		<tag k="ssr:stedsnr" v="314409" />
	</node>
	<node id="-90794" lat="61.6582500007" lon="11.4215999973">
		<tag k="name" v="Rennesjøtangen" />
		<tag k="place" v="locality" />
		<tag k="ssr:stedsnr" v="725058" />
	</node>
	<node id="-90793" lat="61.7531472237" lon="11.2371000095">
		<tag k="name" v="Sataen" />
		<tag k="place" v="locality" />
		<tag k="ssr:stedsnr" v="724917" />
	</node>
	<node id="-90788" lat="61.796791664" lon="11.4929444412">
		<tag k="name" v="Gravåslia" />
		<tag k="natural" v="slope" />
		<tag k="place" v="locality" />
		<tag k="ssr:stedsnr" v="724796" />
	</node>
	<node id="-88737" lat="61.905938893" lon="11.4095555596">
		<tag k="alt_name" v="Tannvorda" />
		<tag k="fixme" v="consider natural=peak for the most distinct mountains in the district" />
		<tag k="name" v="Tannvola" />
		<tag k="natural" v="hill" />
		<tag k="place" v="locality" />
		<tag k="ssr:stedsnr" v="314278" />
	</node>
	<node id="-90784" lat="61.7698888848" lon="10.9563527681">
		<tag k="name" v="Elgrøsta" />
		<tag k="natural" v="hill" />
		<tag k="place" v="locality" />
		<tag k="ssr:stedsnr" v="724417" />
	</node>
	<node id="-88735" lat="61.9021444483" lon="11.3109833277">
		<tag k="fixme" v="consider natural=peak for the most distinct mountains in the district" />
		<tag k="name" v="Kjelåsfjellet" />
		<tag k="natural" v="hill" />
		<tag k="place" v="locality" />
		<tag k="ssr:stedsnr" v="314271" />
	</node>
	<node id="-90782" lat="61.7815777779" lon="10.9575972157">
		<tag k="name" v="Hellebrøtte" />
		<tag k="natural" v="slope" />
		<tag k="place" v="locality" />
		<tag k="ssr:stedsnr" v="724409" />
	</node>
	<node id="-88731" lat="61.8245499983" lon="11.0293277852">
		<tag k="alt_name" v="Bergsetvollskarven" />
		<tag k="fixme" v="consider natural=peak for the most distinct mountains in the district" />
		<tag k="name" v="Skarven" />
		<tag k="natural" v="hill" />
		<tag k="place" v="locality" />
		<tag k="ssr:stedsnr" v="314190" />
	</node>
	<node id="-88730" lat="61.8228083338" lon="10.9540416696">
		<tag k="fixme" v="consider natural=peak for the most distinct mountains in the district" />
		<tag k="name" v="Horntjønnåsen" />
		<tag k="natural" v="hill" />
		<tag k="place" v="locality" />
		<tag k="ssr:stedsnr" v="314188" />
	</node>
	<node id="-88728" lat="61.8537861109" lon="10.8846916628">
		<tag k="alt_name" v="Holmbunesåsen" />
		<tag k="fixme" v="consider natural=peak for the most distinct mountains in the district" />
		<tag k="name" v="Holmbuåsen" />
		<tag k="natural" v="hill" />
		<tag k="place" v="locality" />
		<tag k="ssr:stedsnr" v="314176" />
	</node>
	<node id="-90773" lat="61.477305555" lon="11.4202222238">
		<tag k="name" v="Vestre Slemlia" />
		<tag k="natural" v="slope" />
		<tag k="place" v="locality" />
		<tag k="ssr:stedsnr" v="724172" />
	</node>
	<node id="-90770" lat="61.5461944437" lon="11.2680083413">
		<tag k="name" v="Kjerkebakkmota" />
		<tag k="natural" v="slope" />
		<tag k="place" v="locality" />
		<tag k="ssr:stedsnr" v="723329" />
	</node>
	<node id="-88721" lat="61.9691416638" lon="11.6375972254">
		<tag k="fixme" v="consider natural=peak for the most distinct mountains in the district" />
		<tag k="name" v="Rødsandlikampen" />
		<tag k="natural" v="hill" />
		<tag k="place" v="locality" />
		<tag k="ssr:stedsnr" v="314110" />
	</node>
	<node id="-88720" lat="61.9788472234" lon="11.5825083262">
		<tag k="loc_name" v="Slagglandet" />
		<tag k="name" v="Stegglandet" />
		<tag k="place" v="locality" />
		<tag k="ssr:stedsnr" v="314104" />
	</node>
	<node id="-90767" lat="61.6926472208" lon="11.165933338">
		<tag k="name" v="Åsfløtningen" />
		<tag k="place" v="locality" />
		<tag k="ssr:stedsnr" v="723160" />
	</node>
	<node id="-90766" lat="62.160291664" lon="11.432088886">
		<tag k="name" v="Finnroa" />
		<tag k="natural" v="valley" />
		<tag k="place" v="locality" />
		<tag k="ssr:stedsnr" v="722786" />
	</node>
	<node id="-90765" lat="61.994380554" lon="10.9210749971">
		<tag k="name" v="Vestre Tysllia" />
		<tag k="natural" v="slope" />
		<tag k="place" v="locality" />
		<tag k="ssr:stedsnr" v="721661" />
	</node>
	<node id="-90761" lat="61.5455555578" lon="11.3419777822">
		<tag k="name" v="Leitjønndalen" />
		<tag k="natural" v="valley" />
		<tag k="place" v="locality" />
		<tag k="ssr:stedsnr" v="701147" />
	</node>
	<node id="-90758" lat="61.8645000024" lon="11.0763611183">
		<tag k="name" v="Saudalen" />
		<tag k="natural" v="valley" />
		<tag k="place" v="locality" />
		<tag k="ssr:stedsnr" v="694453" />
	</node>
	<node id="-88708" lat="61.80410278" lon="11.4112055545">
		<tag k="fixme" v="consider natural=peak for the most distinct mountains in the district" />
		<tag k="name" v="Kjesaråsknappen" />
		<tag k="natural" v="hill" />
		<tag k="place" v="locality" />
		<tag k="ssr:stedsnr" v="314033" />
	</node>
	<node id="-90753" lat="61.8485694425" lon="11.1345527719">
		<tag k="name" v="Søndre Lia" />
		<tag k="natural" v="slope" />
		<tag k="place" v="locality" />
		<tag k="ssr:stedsnr" v="694088" />
	</node>
	<node id="-90752" lat="61.7641333332" lon="11.1742638819">
		<tag k="name" v="Otnesøyen" />
		<tag k="place" v="locality" />
		<tag k="ssr:stedsnr" v="694079" />
	</node>
	<node id="-88702" lat="61.7764194454" lon="10.792780558">
		<tag k="fixme" v="consider natural=peak for the most distinct mountains in the district" />
		<tag k="name" v="Skarven" />
		<tag k="natural" v="hill" />
		<tag k="place" v="locality" />
		<tag k="ssr:stedsnr" v="314221" />
	</node>
	<node id="-88697" lat="61.5379861128" lon="11.7885888901">
		<tag k="name" v="Rishaugen" />
		<tag k="natural" v="hill" />
		<tag k="place" v="locality" />
		<tag k="ssr:stedsnr" v="313714" />
	</node>
	<node id="-88696" lat="61.5220388848" lon="11.5375555489">
		<tag k="fixme" v="consider natural=peak for the most distinct mountains in the district" />
		<tag k="name" v="Toklokkletten" />
		<tag k="natural" v="hill" />
		<tag k="place" v="locality" />
		<tag k="ssr:stedsnr" v="313711" />
	</node>
	<node id="-88695" lat="61.5092916635" lon="11.4986527819">
		<tag k="fixme" v="consider natural=peak for the most distinct mountains in the district" />
		<tag k="name" v="Flendalsåsen" />
		<tag k="natural" v="hill" />
		<tag k="place" v="locality" />
		<tag k="ssr:stedsnr" v="313700" />
	</node>
	<node id="-88693" lat="61.56541389" lon="11.2592916575">
		<tag k="fixme" v="consider natural=peak for the most distinct mountains in the district" />
		<tag k="name" v="Andråsberget" />
		<tag k="natural" v="hill" />
		<tag k="place" v="locality" />
		<tag k="ssr:stedsnr" v="313449" />
	</node>
	<node id="-90740" lat="61.8366750039" lon="11.5178083401">
		<tag k="name" v="Harahøgda" />
		<tag k="natural" v="hill" />
		<tag k="place" v="locality" />
		<tag k="ssr:stedsnr" v="678937" />
	</node>
	<node id="-88691" lat="61.9404388929" lon="10.7106138814">
		<tag k="name" v="Kløftbekkdalen" />
		<tag k="natural" v="valley" />
		<tag k="place" v="locality" />
		<tag k="ssr:stedsnr" v="313438" />
	</node>
	<node id="-88690" lat="61.6070777759" lon="11.1765305466">
		<tag k="fixme" v="consider natural=peak for the most distinct mountains in the district" />
		<tag k="name" v="Tjønnåsen" />
		<tag k="natural" v="hill" />
		<tag k="place" v="locality" />
		<tag k="ssr:stedsnr" v="313432" />
	</node>
	<node id="-88689" lat="61.719433329" lon="11.2550416639">
		<tag k="fixme" v="consider natural=peak for the most distinct mountains in the district" />
		<tag k="name" v="Kletten" />
		<tag k="natural" v="hill" />
		<tag k="place" v="locality" />
		<tag k="ssr:stedsnr" v="313414" />
	</node>
	<node id="-90736" lat="61.734275002" lon="11.4287500026">
		<tag k="alt_name" v="Svultningsåsane" />
		<tag k="fixme" v="consider natural=peak for the most distinct mountains in the district" />
		<tag k="name" v="Svultningsåsen" />
		<tag k="natural" v="hill" />
		<tag k="place" v="locality" />
		<tag k="ssr:stedsnr" v="678441" />
	</node>
	<node id="-90731" lat="61.9548416693" lon="11.2597527818">
		<tag k="fixme" v="consider natural=peak for the most distinct mountains in the district" />
		<tag k="name" v="Gråhøgda" />
		<tag k="natural" v="hill" />
		<tag k="place" v="locality" />
		<tag k="ssr:stedsnr" v="678249" />
	</node>
	<node id="-90729" lat="61.9871166652" lon="11.3985249907">
		<tag k="name" v="Korphaugen" />
		<tag k="natural" v="hill" />
		<tag k="place" v="locality" />
		<tag k="ssr:stedsnr" v="678238" />
	</node>
	<node id="-88679" lat="61.7441416707" lon="11.0286722189">
		<tag k="fixme" v="consider natural=peak for the most distinct mountains in the district" />
		<tag k="name" v="Raudfjellet" />
		<tag k="natural" v="hill" />
		<tag k="place" v="locality" />
		<tag k="ssr:stedsnr" v="313228" />
	</node>
	<node id="-90722" lat="62.1436444464" lon="11.1717999938">
		<tag k="name" v="Finnrokampan" />
		<tag k="natural" v="hill" />
		<tag k="place" v="locality" />
		<tag k="ssr:stedsnr" v="678162" />
	</node>
	<node id="-88673" lat="61.9593083362" lon="11.023099992">
		<tag k="name" v="Djupdalen" />
		<tag k="natural" v="valley" />
		<tag k="place" v="locality" />
		<tag k="ssr:stedsnr" v="301872" />
	</node>
	<node id="-88670" lat="61.5717444442" lon="11.1605916644">
		<tag k="name" v="Søndre Burudalen" />
		<tag k="natural" v="valley" />
		<tag k="place" v="locality" />
		<tag k="ssr:stedsnr" v="301827" />
	</node>
	<node id="-88669" lat="61.8275277814" lon="11.0610166715">
		<tag k="name" v="Hårrennlia" />
		<tag k="natural" v="slope" />
		<tag k="place" v="locality" />
		<tag k="ssr:stedsnr" v="301797" />
	</node>
	<node id="-88667" lat="61.8770333348" lon="10.997505565">
		<tag k="fixme" v="consider natural=peak for the most distinct mountains in the district" />
		<tag k="name" v="Rullbekkliåsen" />
		<tag k="natural" v="hill" />
		<tag k="place" v="locality" />
		<tag k="ssr:stedsnr" v="301777" />
	</node>
	<node id="-88666" lat="61.9159833326" lon="11.0200277763">
		<tag k="name" v="Grøtåsen" />
		<tag k="natural" v="hill" />
		<tag k="place" v="locality" />
		<tag k="ssr:stedsnr" v="301775" />
	</node>
	<node id="-88665" lat="61.9121694447" lon="10.9762222307">
		<tag k="name" v="Langmaritåsen" />
		<tag k="natural" v="hill" />
		<tag k="place" v="locality" />
		<tag k="ssr:stedsnr" v="301771" />
	</node>
	<node id="-90709" lat="61.8260000003" lon="11.1533555493">
		<tag k="name" v="Svankletten" />
		<tag k="natural" v="hill" />
		<tag k="place" v="locality" />
		<tag k="ssr:stedsnr" v="678055" />
	</node>
	<node id="-88659" lat="61.7225722181" lon="11.2588499979">
		<tag k="name" v="Gammelhansbakka" />
		<tag k="natural" v="slope" />
		<tag k="place" v="locality" />
		<tag k="ssr:stedsnr" v="301644" />
	</node>
	<node id="-88658" lat="61.7176444454" lon="11.2061944474">
		<tag k="name" v="Fagerkollen" />
		<tag k="natural" v="hill" />
		<tag k="place" v="locality" />
		<tag k="ssr:stedsnr" v="301638" />
	</node>
	<node id="-88656" lat="61.8467916703" lon="10.8538638812">
		<tag k="name" v="Veslebudalen" />
		<tag k="natural" v="valley" />
		<tag k="place" v="locality" />
		<tag k="ssr:stedsnr" v="301596" />
	</node>
	<node id="-90700" lat="61.5452499977" lon="11.5719777753">
		<tag k="name" v="Brøskifthaugen" />
		<tag k="natural" v="hill" />
		<tag k="place" v="locality" />
		<tag k="ssr:stedsnr" v="677705" />
	</node>
	<node id="-90693" lat="62.114316668" lon="11.5584250058">
		<tag k="fixme" v="consider natural=peak for the most distinct mountains in the district" />
		<tag k="name" v="Gloføkkampen" />
		<tag k="natural" v="hill" />
		<tag k="place" v="locality" />
		<tag k="ssr:stedsnr" v="678424" />
	</node>
	<node id="-88641" lat="61.9754027745" lon="11.0946750092">
		<tag k="name" v="Flata" />
		<tag k="place" v="locality" />
		<tag k="ssr:stedsnr" v="300472" />
	</node>
	<node id="-88640" lat="61.5076305567" lon="11.5442305472">
		<tag k="name" v="Bjørbekkdalen" />
		<tag k="natural" v="valley" />
		<tag k="place" v="locality" />
		<tag k="ssr:stedsnr" v="300338" />
	</node>
	<node id="-88639" lat="62.0898916623" lon="11.0661416614">
		<tag k="fixme" v="consider natural=peak for the most distinct mountains in the district" />
		<tag k="name" v="Lauvåsen" />
		<tag k="natural" v="hill" />
		<tag k="place" v="locality" />
		<tag k="ssr:stedsnr" v="300307" />
	</node>
	<node id="-88638" lat="62.0594833364" lon="11.0794305641">
		<tag k="fixme" v="consider natural=peak for the most distinct mountains in the district" />
		<tag k="name" v="Størnabbkampen" />
		<tag k="natural" v="hill" />
		<tag k="place" v="locality" />
		<tag k="ssr:stedsnr" v="300292" />
	</node>
	<node id="-88634" lat="61.7680666684" lon="11.211361103">
		<tag k="name" v="Hamra" />
		<tag k="natural" v="hill" />
		<tag k="place" v="locality" />
		<tag k="ssr:stedsnr" v="299974" />
	</node>
	<node id="-88632" lat="61.7471277813" lon="11.2146638871">
		<tag k="name" v="Skytterflata" />
		<tag k="place" v="locality" />
		<tag k="ssr:stedsnr" v="299967" />
	</node>
	<node id="-88630" lat="61.6284277766" lon="11.1728388806">
		<tag k="name" v="Sataen" />
		<tag k="place" v="locality" />
		<tag k="ssr:stedsnr" v="299879" />
	</node>
	<node id="-90889" lat="61.5120805535" lon="11.6823000052">
		<tag k="name" v="Matsekkskjeret" />
		<tag k="place" v="locality" />
		<tag k="ssr:stedsnr" v="738709" />
	</node>
	<node id="-88627" lat="61.8034277762" lon="11.009647215">
		<tag k="name" v="Høybrennåsen" />
		<tag k="natural" v="hill" />
		<tag k="place" v="locality" />
		<tag k="ssr:stedsnr" v="299753" />
	</node>
	<node id="-88622" lat="61.777730559" lon="10.8649361074">
		<tag k="name" v="Tøråsrøsta" />
		<tag k="natural" v="slope" />
		<tag k="place" v="locality" />
		<tag k="ssr:stedsnr" v="299457" />
	</node>
	<node id="-90669" lat="61.6911388904" lon="11.3545999958">
		<tag k="fixme" v="consider natural=peak for the most distinct mountains in the district" />
		<tag k="name" v="Renåfjellet" />
		<tag k="natural" v="hill" />
		<tag k="place" v="locality" />
		<tag k="ssr:stedsnr" v="677357" />
	</node>
	<node id="-88620" lat="61.6295055521" lon="11.2878611102">
		<tag k="name" v="Flendalen" />
		<tag k="natural" v="valley" />
		<tag k="place" v="locality" />
		<tag k="ssr:stedsnr" v="299373" />
	</node>
	<node id="-88619" lat="61.5187166648" lon="11.2723749953">
		<tag k="name" v="Stordalen" />
		<tag k="natural" v="valley" />
		<tag k="place" v="locality" />
		<tag k="ssr:stedsnr" v="299370" />
	</node>
	<node id="-88617" lat="61.5866555545" lon="11.3156083289">
		<tag k="name" v="Veksenklaven" />
		<tag k="natural" v="valley" />
		<tag k="place" v="locality" />
		<tag k="ssr:stedsnr" v="299351" />
	</node>
	<node id="-88615" lat="61.9175611133" lon="11.1501388829">
		<tag k="name" v="Øvre Haugsetlia" />
		<tag k="natural" v="slope" />
		<tag k="place" v="locality" />
		<tag k="ssr:stedsnr" v="299208" />
	</node>
	<node id="-88614" lat="61.9264888908" lon="11.1781194351">
		<tag k="name" v="Fjellbekkrøsta" />
		<tag k="natural" v="slope" />
		<tag k="place" v="locality" />
		<tag k="ssr:stedsnr" v="299202" />
	</node>
	<node id="-90661" lat="61.5840499969" lon="11.8216250083">
		<tag k="name" v="Storelthøa" />
		<tag k="natural" v="hill" />
		<tag k="place" v="locality" />
		<tag k="ssr:stedsnr" v="677306" />
	</node>
	<node id="-90660" lat="61.5695170291" lon="11.6234392319">
		<tag k="alt_name" v="Løvåskampen" />
		<tag k="fixme" v="multiple name tags, choose one and add the other to alt_name" />
		<tag k="name" v="Skjerbekkraudkollen;Lauvåskampen" />
		<tag k="natural" v="hill" />
		<tag k="place" v="locality" />
		<tag k="ssr:stedsnr" v="677304" />
	</node>
	<node id="-88608" lat="61.7622277749" lon="10.8988750007">
		<tag k="name" v="Okstjønnkløfta" />
		<tag k="natural" v="valley" />
		<tag k="place" v="locality" />
		<tag k="ssr:stedsnr" v="276269" />
	</node>
	<node id="-90650" lat="61.4826916706" lon="11.2137472209">
		<tag k="name" v="Vestkjølen" />
		<tag k="natural" v="hill" />
		<tag k="place" v="locality" />
		<tag k="ssr:stedsnr" v="676102" />
	</node>
	<node id="-90543" lat="61.9221555547" lon="10.9994166671">
		<tag k="alt_name" v="Hammarsskorsåsen" />
		<tag k="fixme" v="consider natural=peak for the most distinct mountains in the district" />
		<tag k="name" v="Hammerskaråsen" />
		<tag k="natural" v="hill" />
		<tag k="place" v="locality" />
		<tag k="ssr:stedsnr" v="617397" />
	</node>
	<node id="-88599" lat="61.9013305527" lon="11.0574111038">
		<tag k="name" v="Odalen" />
		<tag k="natural" v="valley" />
		<tag k="place" v="locality" />
		<tag k="ssr:stedsnr" v="269458" />
	</node>
	<node id="-88598" lat="61.7797888867" lon="11.1947388937">
		<tag k="name" v="Ishammeren" />
		<tag k="natural" v="hill" />
		<tag k="place" v="locality" />
		<tag k="ssr:stedsnr" v="269415" />
	</node>
	<node id="-90645" lat="61.6951416702" lon="11.0626833372">
		<tag k="name" v="Rokkdalslia" />
		<tag k="natural" v="slope" />
		<tag k="place" v="locality" />
		<tag k="ssr:stedsnr" v="665860" />
	</node>
	<node id="-90642" lat="61.8402666627" lon="11.0324499907">
		<tag k="name" v="Sagmoen" />
		<tag k="place" v="locality" />
		<tag k="ssr:stedsnr" v="665821" />
	</node>
	<node id="-90639" lat="61.7014388894" lon="11.2212861175">
		<tag k="name" v="Grønengmælen" />
		<tag k="place" v="locality" />
		<tag k="ssr:stedsnr" v="665710" />
	</node>
	<node id="-90638" lat="61.7325777799" lon="11.0803888827">
		<tag k="name" v="Rundhaugen" />
		<tag k="natural" v="hill" />
		<tag k="place" v="locality" />
		<tag k="ssr:stedsnr" v="665703" />
	</node>
	<node id="-90637" lat="61.7091444423" lon="11.2366861111">
		<tag k="alt_name" v="Kværnesløa" />
		<tag k="name" v="Kvernnesløa" />
		<tag k="place" v="locality" />
		<tag k="ssr:stedsnr" v="665690" />
	</node>
	<node id="-90624" lat="61.9646499998" lon="11.1242250018">
		<tag k="name" v="Bakselatolla" />
		<tag k="place" v="locality" />
		<tag k="ssr:stedsnr" v="664453" />
	</node>
	<node id="-90622" lat="62.0850444479" lon="11.4386749959">
		<tag k="name" v="Finnteltene" />
		<tag k="place" v="locality" />
		<tag k="ssr:stedsnr" v="664321" />
	</node>
	<node id="-90620" lat="62.0399944403" lon="11.1519361101">
		<tag k="name" v="Koppjota" />
		<tag k="natural" v="valley" />
		<tag k="place" v="locality" />
		<tag k="ssr:stedsnr" v="664304" />
	</node>
	<node id="-90616" lat="61.4791833338" lon="11.4965833275">
		<tag k="fixme" v="consider natural=peak for the most distinct mountains in the district" />
		<tag k="name" v="Langlidalshøgda" />
		<tag k="natural" v="hill" />
		<tag k="place" v="locality" />
		<tag k="ssr:stedsnr" v="664269" />
	</node>
	<node id="-90615" lat="62.0638027754" lon="11.0535305582">
		<tag k="name" v="Tegnleitet" />
		<tag k="place" v="locality" />
		<tag k="ssr:stedsnr" v="664248" />
	</node>
	<node id="-90611" lat="61.6391388857" lon="11.3546027789">
		<tag k="fixme" v="consider natural=peak for the most distinct mountains in the district" />
		<tag k="name" v="Vamåsen" />
		<tag k="natural" v="hill" />
		<tag k="place" v="locality" />
		<tag k="ssr:stedsnr" v="664008" />
	</node>
	<node id="-90610" lat="61.7568527799" lon="11.2375222298">
		<tag k="name" v="Storkuhammeren" />
		<tag k="natural" v="hill" />
		<tag k="place" v="locality" />
		<tag k="ssr:stedsnr" v="663981" />
	</node>
	<node id="-90609" lat="61.7390083331" lon="11.3144888978">
		<tag k="name" v="Sataen" />
		<tag k="place" v="locality" />
		<tag k="ssr:stedsnr" v="663980" />
	</node>
	<node id="-90604" lat="61.7669305517" lon="11.5340750027">
		<tag k="name" v="Blomsterdalen" />
		<tag k="natural" v="valley" />
		<tag k="place" v="locality" />
		<tag k="ssr:stedsnr" v="663791" />
	</node>
	<node id="-90603" lat="61.7993333309" lon="11.0718944508">
		<tag k="name" v="Storfløtningen" />
		<tag k="natural" v="slope" />
		<tag k="place" v="locality" />
		<tag k="ssr:stedsnr" v="663733" />
	</node>
	<node id="-90595" lat="61.5887750018" lon="11.2770444406">
		<tag k="name" v="Nørstskaret" />
		<tag k="natural" v="valley" />
		<tag k="place" v="locality" />
		<tag k="ssr:stedsnr" v="663310" />
	</node>
	<node id="-90593" lat="61.60660278" lon="11.2409027689">
		<tag k="name" v="Glattskjæret" />
		<tag k="natural" v="hill" />
		<tag k="place" v="locality" />
		<tag k="ssr:stedsnr" v="663301" />
	</node>
	<node id="-90589" lat="62.0200472183" lon="10.9473888947">
		<tag k="name" v="Østre Tysllia" />
		<tag k="natural" v="slope" />
		<tag k="place" v="locality" />
		<tag k="ssr:stedsnr" v="658664" />
	</node>
	<node id="-90874" lat="61.6010666703" lon="11.4834750059">
		<tag k="name" v="Kvitfjellet" />
		<tag k="natural" v="hill" />
		<tag k="place" v="locality" />
		<tag k="ssr:stedsnr" v="738348" />
	</node>
	<node id="-90583" lat="61.7954638901" lon="11.1136333378">
		<tag k="name" v="Prekestolen" />
		<tag k="natural" v="valley" />
		<tag k="place" v="locality" />
		<tag k="ssr:stedsnr" v="632482" />
	</node>
	<node id="-90581" lat="61.7997888857" lon="11.1529194468">
		<tag k="name" v="Langdalen" />
		<tag k="natural" v="valley" />
		<tag k="place" v="locality" />
		<tag k="ssr:stedsnr" v="632473" />
	</node>
	<node id="-90577" lat="61.7880666622" lon="11.1288388963">
		<tag k="name" v="Førstebekkdalen" />
		<tag k="natural" v="valley" />
		<tag k="place" v="locality" />
		<tag k="ssr:stedsnr" v="632423" />
	</node>
	<node id="-90572" lat="61.8876861108" lon="11.0913861088">
		<tag k="name" v="Holmegga" />
		<tag k="natural" v="ridge" />
		<tag k="place" v="locality" />
		<tag k="ssr:stedsnr" v="632139" />
	</node>
	<node id="-91554" lat="61.9528888927" lon="10.872100003">
		<tag k="name" v="Vestlia" />
		<tag k="natural" v="slope" />
		<tag k="place" v="locality" />
		<tag k="ssr:stedsnr" v="968683" />
	</node>
	<node id="-90570" lat="61.8903638914" lon="11.1274833245">
		<tag k="name" v="Brattegga" />
		<tag k="natural" v="hill" />
		<tag k="place" v="locality" />
		<tag k="ssr:stedsnr" v="632129" />
	</node>
	<node id="-91553" lat="61.7094444448" lon="11.2081249917">
		<tag k="name" v="Utsikta" />
		<tag k="natural" v="hill" />
		<tag k="place" v="locality" />
		<tag k="ssr:stedsnr" v="968677" />
	</node>
	<node id="-90563" lat="61.8275666691" lon="10.8580527694">
		<tag k="name" v="Gardsmoen" />
		<tag k="place" v="locality" />
		<tag k="ssr:stedsnr" v="630499" />
	</node>
	<node id="-90558" lat="61.9701333329" lon="11.1410916606">
		<tag k="name" v="Skarvdalen" />
		<tag k="natural" v="valley" />
		<tag k="place" v="locality" />
		<tag k="ssr:stedsnr" v="626309" />
	</node>
	<node id="-91551" lat="61.9136888904" lon="10.9062972314">
		<tag k="name" v="Jordabudalen" />
		<tag k="natural" v="valley" />
		<tag k="place" v="locality" />
		<tag k="ssr:stedsnr" v="968666" />
	</node>
	<node id="-90551" lat="61.572063889" lon="11.446113889">
		<tag k="name" v="Skarven" />
		<tag k="natural" v="hill" />
		<tag k="place" v="locality" />
		<tag k="ssr:stedsnr" v="617480" />
	</node>
	<node id="-90550" lat="61.5770416677" lon="11.169613888">
		<tag k="alt_name" v="Nordre Burudalen" />
		<tag k="name" v="Burudalen" />
		<tag k="natural" v="valley" />
		<tag k="place" v="locality" />
		<tag k="ssr:stedsnr" v="617476" />
	</node>
	<node id="-90547" lat="62.125277775" lon="11.2544138882">
		<tag k="fixme" v="consider natural=peak for the most distinct mountains in the district" />
		<tag k="name" v="Utistukletten" />
		<tag k="natural" v="hill" />
		<tag k="place" v="locality" />
		<tag k="ssr:stedsnr" v="617423" />
	</node>
	<node id="-90546" lat="62.1593333295" lon="11.3582305471">
		<tag k="fixme" v="consider natural=peak for the most distinct mountains in the district" />
		<tag k="name" v="Elgspiggen" />
		<tag k="natural" v="hill" />
		<tag k="place" v="locality" />
		<tag k="ssr:stedsnr" v="617410" />
	</node>
	<node id="-90545" lat="61.9221388868" lon="10.9209777841">
		<tag k="fixme" v="consider natural=peak for the most distinct mountains in the district" />
		<tag k="name" v="Aursjøåsen" />
		<tag k="natural" v="hill" />
		<tag k="place" v="locality" />
		<tag k="ssr:stedsnr" v="617401" />
	</node>
	<node id="-89160" lat="62.122527774" lon="11.4173694427">
		<tag k="name" v="Spekehallan" />
		<tag k="natural" v="slope" />
		<tag k="place" v="locality" />
		<tag k="ssr:stedsnr" v="58444" />
	</node>
	<node id="-90542" lat="61.6568055559" lon="11.5277750041">
		<tag k="fixme" v="consider natural=peak for the most distinct mountains in the district" />
		<tag k="name" v="Gamleskarven" />
		<tag k="natural" v="hill" />
		<tag k="place" v="locality" />
		<tag k="ssr:stedsnr" v="617391" />
	</node>
	<node id="-90528" lat="61.7910555527" lon="10.8254083352">
		<tag k="fixme" v="consider natural=peak for the most distinct mountains in the district" />
		<tag k="name" v="Nehalsen" />
		<tag k="natural" v="hill" />
		<tag k="place" v="locality" />
		<tag k="ssr:stedsnr" v="617224" />
	</node>
	<node id="-90524" lat="61.8326555547" lon="10.9806805628">
		<tag k="alt_name" v="Gunnarsåsen" />
		<tag k="fixme" v="consider natural=peak for the most distinct mountains in the district" />
		<tag k="name" v="Gunnersåsen" />
		<tag k="natural" v="hill" />
		<tag k="place" v="locality" />
		<tag k="ssr:stedsnr" v="617195" />
	</node>
	<node id="-91055" lat="62.1336388921" lon="11.0602027876">
		<tag k="fixme" v="consider natural=peak for the most distinct mountains in the district" />
		<tag k="name" v="Storbekkmåna" />
		<tag k="natural" v="hill" />
		<tag k="place" v="locality" />
		<tag k="ssr:stedsnr" v="799175" />
	</node>
	<node id="-90863" lat="61.7966555512" lon="10.9238194532">
		<tag k="fixme" v="consider natural=peak for the most distinct mountains in the district" />
		<tag k="name" v="Kivfjellet" />
		<tag k="natural" v="hill" />
		<tag k="place" v="locality" />
		<tag k="ssr:stedsnr" v="738184" />
	</node>
	<node id="-90520" lat="61.8583249957" lon="11.0540027859">
		<tag k="fixme" v="consider natural=peak for the most distinct mountains in the district" />
		<tag k="name" v="Finndalskampen" />
		<tag k="natural" v="hill" />
		<tag k="place" v="locality" />
		<tag k="ssr:stedsnr" v="617185" />
	</node>
	<node id="-90515" lat="62.09099167" lon="10.958541659">
		<tag k="fixme" v="consider natural=peak for the most distinct mountains in the district" />
		<tag k="name" v="Roparåsan" />
		<tag k="natural" v="hill" />
		<tag k="place" v="locality" />
		<tag k="ssr:stedsnr" v="617139" />
	</node>
	<node id="-90859" lat="62.1232555554" lon="11.1110250023">
		<tag k="alt_name" v="Svarthammearen" />
		<tag k="fixme" v="consider natural=peak for the most distinct mountains in the district" />
		<tag k="name" v="Svarthammaren" />
		<tag k="natural" v="hill" />
		<tag k="place" v="locality" />
		<tag k="ssr:stedsnr" v="738091" />
	</node>
	<node id="-90713" lat="62.042413885" lon="11.1142527801">
		<tag k="fixme" v="consider natural=peak for the most distinct mountains in the district" />
		<tag k="name" v="Engåsen" />
		<tag k="natural" v="hill" />
		<tag k="place" v="locality" />
		<tag k="ssr:stedsnr" v="678069" />
	</node>
	<node id="-90487" lat="61.8882777745" lon="10.6111250086">
		<tag k="name" v="Gjømtbekkfløyet" />
		<tag k="natural" v="plateau" />
		<tag k="ssr:stedsnr" v="616479" />
	</node>
	<node id="-90486" lat="61.625961115" lon="11.2594250031">
		<tag k="fixme" v="consider natural=peak for the most distinct mountains in the district" />
		<tag k="name" v="Rønningsåsen" />
		<tag k="natural" v="hill" />
		<tag k="place" v="locality" />
		<tag k="ssr:stedsnr" v="616471" />
	</node>
	<node id="-91198" lat="62.0684805599" lon="11.4348416617">
		<tag k="name" v="Enan" />
		<tag k="natural" v="slope" />
		<tag k="place" v="locality" />
		<tag k="ssr:stedsnr" v="847361" />
	</node>
	<node id="-90478" lat="61.5967250005" lon="11.3786611141">
		<tag k="name" v="Flenlia" />
		<tag k="natural" v="slope" />
		<tag k="place" v="locality" />
		<tag k="ssr:stedsnr" v="616436" />
	</node>
	<node id="-90477" lat="61.5908249961" lon="11.4546888932">
		<tag k="alt_name" v="Storbekkfjellet, nørdre" />
		<tag k="fixme" v="consider natural=peak for the most distinct mountains in the district" />
		<tag k="name" v="Nordre Storbekkfjellet" />
		<tag k="natural" v="hill" />
		<tag k="place" v="locality" />
		<tag k="ssr:stedsnr" v="616434" />
	</node>
	<node id="-90476" lat="61.9334527735" lon="10.5369944449">
		<tag k="fixme" v="consider natural=peak for the most distinct mountains in the district" />
		<tag k="name" v="Lykksandfjellet" />
		<tag k="natural" v="hill" />
		<tag k="place" v="locality" />
		<tag k="ssr:stedsnr" v="616431" />
	</node>
	<node id="-90855" lat="61.8497750005" lon="11.3320138945">
		<tag k="fixme" v="consider natural=peak for the most distinct mountains in the district" />
		<tag k="name" v="Nupen" />
		<tag k="natural" v="hill" />
		<tag k="place" v="locality" />
		<tag k="ssr:stedsnr" v="738031" />
	</node>
	<node id="-90470" lat="61.6718750002" lon="11.4654222233">
		<tag k="fixme" v="consider natural=peak for the most distinct mountains in the district" />
		<tag k="name" v="Fuglåsen" />
		<tag k="natural" v="hill" />
		<tag k="place" v="locality" />
		<tag k="ssr:stedsnr" v="616387" />
	</node>
	<node id="-91195" lat="62.0980666678" lon="11.0313888888">
		<tag k="name" v="Granholmen" />
		<tag k="place" v="locality" />
		<tag k="ssr:stedsnr" v="847351" />
	</node>
	<node id="-88629" lat="61.8174694487" lon="10.9825555633">
		<tag k="name" v="Midtåsen" />
		<tag k="natural" v="hill" />
		<tag k="place" v="locality" />
		<tag k="ssr:stedsnr" v="299813" />
	</node>
	<node id="-90458" lat="61.727177777" lon="11.5478111047">
		<tag k="alt_name" v="Raudvorda" />
		<tag k="fixme" v="consider natural=peak for the most distinct mountains in the district" />
		<tag k="name" v="Raudvola" />
		<tag k="natural" v="hill" />
		<tag k="place" v="locality" />
		<tag k="ssr:stedsnr" v="616262" />
	</node>
	<node id="-90457" lat="61.5140749988" lon="11.2921138934">
		<tag k="alt_name" v="Røstet, nordre;Røstet" />
		<tag k="fixme" v="consider natural=peak for the most distinct mountains in the district" />
		<tag k="name" v="Nordre Røstet" />
		<tag k="natural" v="hill" />
		<tag k="place" v="locality" />
		<tag k="ssr:stedsnr" v="616245" />
	</node>
	<node id="-90454" lat="61.7391888851" lon="11.037150002">
		<tag k="fixme" v="consider natural=peak for the most distinct mountains in the district" />
		<tag k="name" v="Grønkampen" />
		<tag k="natural" v="hill" />
		<tag k="place" v="locality" />
		<tag k="ssr:stedsnr" v="616211" />
	</node>
	<node id="-90452" lat="61.4760277772" lon="11.3868749917">
		<tag k="alt_name" v="Vestre Nysæteråsen" />
		<tag k="fixme" v="consider natural=peak for the most distinct mountains in the district" />
		<tag k="name" v="Nysæteråsen" />
		<tag k="natural" v="hill" />
		<tag k="place" v="locality" />
		<tag k="ssr:stedsnr" v="615094" />
	</node>
	<node id="-90451" lat="61.4680305578" lon="11.5929944493">
		<tag k="alt_name" v="Burusjøåsen, østre" />
		<tag k="fixme" v="consider natural=peak for the most distinct mountains in the district" />
		<tag k="name" v="Østre Burusjøåsen" />
		<tag k="natural" v="hill" />
		<tag k="place" v="locality" />
		<tag k="ssr:stedsnr" v="614211" />
	</node>
	<node id="-90450" lat="61.466386108" lon="11.4977888839">
		<tag k="name" v="Langlidalen" />
		<tag k="natural" v="valley" />
		<tag k="place" v="locality" />
		<tag k="ssr:stedsnr" v="614208" />
	</node>
	<node id="-90445" lat="61.9467055581" lon="11.0523166585">
		<tag k="name" v="Langegga" />
		<tag k="natural" v="ridge" />
		<tag k="place" v="locality" />
		<tag k="ssr:stedsnr" v="604861" />
	</node>
	<node id="-90444" lat="62.0381638905" lon="11.0506333286">
		<tag k="name" v="Nordre Vestlia" />
		<tag k="natural" v="slope" />
		<tag k="place" v="locality" />
		<tag k="ssr:stedsnr" v="604858" />
	</node>
	<node id="-90850" lat="61.5925999999" lon="11.1868999912">
		<tag k="name" v="Solungsdalen" />
		<tag k="natural" v="valley" />
		<tag k="place" v="locality" />
		<tag k="ssr:stedsnr" v="738431" />
	</node>
	<node id="-90442" lat="61.5640972182" lon="11.1321277754">
		<tag k="name" v="Kjemsjølia" />
		<tag k="natural" v="slope" />
		<tag k="place" v="locality" />
		<tag k="ssr:stedsnr" v="604838" />
	</node>
	<node id="-90438" lat="61.703472224" lon="11.2318472249">
		<tag k="name" v="Buhammeren" />
		<tag k="natural" v="hill" />
		<tag k="place" v="locality" />
		<tag k="ssr:stedsnr" v="604689" />
	</node>
	<node id="-90435" lat="61.7237888882" lon="11.2868083364">
		<tag k="name" v="Bekkedalen" />
		<tag k="natural" v="valley" />
		<tag k="place" v="locality" />
		<tag k="ssr:stedsnr" v="604655" />
	</node>
	<node id="-90429" lat="61.7507666701" lon="10.8561611083">
		<tag k="fixme" v="consider natural=peak for the most distinct mountains in the district" />
		<tag k="name" v="Brenningsberget" />
		<tag k="natural" v="hill" />
		<tag k="place" v="locality" />
		<tag k="ssr:stedsnr" v="604497" />
	</node>
	<node id="-90428" lat="62.1050611113" lon="11.4748666726">
		<tag k="name" v="Langmoen" />
		<tag k="place" v="locality" />
		<tag k="ssr:stedsnr" v="604459" />
	</node>
	<node id="-90424" lat="62.0967749973" lon="11.0314888852">
		<tag k="name" v="Væråkløftet" />
		<tag k="natural" v="valley" />
		<tag k="place" v="locality" />
		<tag k="ssr:stedsnr" v="604337" />
	</node>
	<node id="-90423" lat="62.0946916677" lon="11.0075194364">
		<tag k="name" v="Midtbuskaret" />
		<tag k="natural" v="valley" />
		<tag k="place" v="locality" />
		<tag k="ssr:stedsnr" v="604331" />
	</node>
	<node id="-90422" lat="61.7809999962" lon="10.8055472294">
		<tag k="name" v="Prekstolen" />
		<tag k="natural" v="hill" />
		<tag k="place" v="locality" />
		<tag k="ssr:stedsnr" v="604327" />
	</node>
	<node id="-90165" lat="61.561358338" lon="11.2333361031">
		<tag k="loc_name" v="Badstubakken" />
		<tag k="name" v="Bastubakken" />
		<tag k="natural" v="slope" />
		<tag k="place" v="locality" />
		<tag k="ssr:stedsnr" v="541345" />
	</node>
	<node id="-90417" lat="61.6901055557" lon="11.1521444444">
		<tag k="name" v="Piggstenmoen" />
		<tag k="place" v="locality" />
		<tag k="ssr:stedsnr" v="604090" />
	</node>
	<node id="-90415" lat="61.6739861147" lon="11.1917444482">
		<tag k="name" v="Grasløpa" />
		<tag k="place" v="locality" />
		<tag k="ssr:stedsnr" v="604063" />
	</node>
	<node id="-90410" lat="61.4576527781" lon="11.3638416662">
		<tag k="name" v="Bjønndalen" />
		<tag k="natural" v="valley" />
		<tag k="place" v="locality" />
		<tag k="ssr:stedsnr" v="603767" />
	</node>
	<node id="-90404" lat="61.7659361125" lon="11.4090611181">
		<tag k="name" v="Stordalen" />
		<tag k="natural" v="valley" />
		<tag k="place" v="locality" />
		<tag k="ssr:stedsnr" v="603285" />
	</node>
	<node id="-90393" lat="61.6392666652" lon="11.155947215">
		<tag k="name" v="Kalvhammeren" />
		<tag k="natural" v="hill" />
		<tag k="place" v="locality" />
		<tag k="ssr:stedsnr" v="602883" />
	</node>
	<node id="-90392" lat="61.7678250038" lon="11.5100055466">
		<tag k="name" v="Mæradalen" />
		<tag k="natural" v="valley" />
		<tag k="place" v="locality" />
		<tag k="ssr:stedsnr" v="602797" />
	</node>
	<node id="-90386" lat="61.7715111118" lon="10.8903305572">
		<tag k="name" v="Dalan" />
		<tag k="natural" v="valley" />
		<tag k="place" v="locality" />
		<tag k="ssr:stedsnr" v="602440" />
	</node>
	<node id="-90384" lat="61.7269805561" lon="11.4318416676">
		<tag k="name" v="Svultningsåskvolvet" />
		<tag k="place" v="locality" />
		<tag k="ssr:stedsnr" v="602407" />
	</node>
	<node id="-90383" lat="61.7658361151" lon="10.861188887">
		<tag k="name" v="Veslhaugen" />
		<tag k="natural" v="hill" />
		<tag k="place" v="locality" />
		<tag k="ssr:stedsnr" v="602396" />
	</node>
	<node id="-90381" lat="61.5212499974" lon="11.2828861183">
		<tag k="name" v="Heggedalen" />
		<tag k="natural" v="valley" />
		<tag k="place" v="locality" />
		<tag k="ssr:stedsnr" v="602358" />
	</node>
	<node id="-90378" lat="61.4698916627" lon="11.4116888974">
		<tag k="fixme" v="consider natural=peak for the most distinct mountains in the district" />
		<tag k="name" v="Østre Nysæteråsen" />
		<tag k="natural" v="hill" />
		<tag k="place" v="locality" />
		<tag k="ssr:stedsnr" v="602194" />
	</node>
	<node id="-91179" lat="61.6323722213" lon="11.1627888889">
		<tag k="name" v="Tjæredalsmoen" />
		<tag k="place" v="locality" />
		<tag k="ssr:stedsnr" v="846892" />
	</node>
	<node id="-90368" lat="62.1181305533" lon="11.411752776">
		<tag k="name" v="Søndre Vaåsen" />
		<tag k="natural" v="hill" />
		<tag k="place" v="locality" />
		<tag k="ssr:stedsnr" v="604431" />
	</node>
	<node id="-90367" lat="62.1016055554" lon="11.4358111106">
		<tag k="name" v="Sølnbakken" />
		<tag k="natural" v="hill" />
		<tag k="place" v="locality" />
		<tag k="ssr:stedsnr" v="604406" />
	</node>
	<node id="-90366" lat="62.0905138885" lon="10.9580361124">
		<tag k="name" v="Svartskjæran" />
		<tag k="natural" v="hill" />
		<tag k="place" v="locality" />
		<tag k="ssr:stedsnr" v="597404" />
	</node>
	<node id="-90364" lat="61.7602527777" lon="10.8638138901">
		<tag k="name" v="Tjønnhaugen" />
		<tag k="natural" v="hill" />
		<tag k="place" v="locality" />
		<tag k="ssr:stedsnr" v="580730" />
	</node>
	<node id="-90363" lat="61.7640916686" lon="10.9038777848">
		<tag k="name" v="Okstjønnsøkken" />
		<tag k="natural" v="valley" />
		<tag k="place" v="locality" />
		<tag k="ssr:stedsnr" v="579617" />
	</node>
	<node id="-89129" lat="61.7891277768" lon="10.989763882">
		<tag k="name" v="Baggåsen" />
		<tag k="natural" v="hill" />
		<tag k="place" v="locality" />
		<tag k="ssr:stedsnr" v="57619" />
	</node>
	<node id="-90356" lat="61.9207194445" lon="11.054013896">
		<tag k="name" v="Munkbakken" />
		<tag k="natural" v="hill" />
		<tag k="place" v="locality" />
		<tag k="ssr:stedsnr" v="572474" />
	</node>
	<node id="-90913" lat="61.8092749962" lon="10.9849638919">
		<tag k="fixme" v="consider natural=peak for the most distinct mountains in the district" />
		<tag k="name" v="Skarven" />
		<tag k="natural" v="hill" />
		<tag k="place" v="locality" />
		<tag k="ssr:stedsnr" v="739118" />
	</node>
	<node id="-90349" lat="61.7549638866" lon="11.173966666">
		<tag k="name" v="Skibakkegga" />
		<tag k="natural" v="ridge" />
		<tag k="place" v="locality" />
		<tag k="ssr:stedsnr" v="572094" />
	</node>
	<node id="-90348" lat="61.9382888881" lon="11.0572444357">
		<tag k="name" v="Bredalsmoen" />
		<tag k="place" v="locality" />
		<tag k="ssr:stedsnr" v="572074" />
	</node>
	<node id="-90343" lat="61.9265222247" lon="11.0655638873">
		<tag k="name" v="Morken" />
		<tag k="place" v="locality" />
		<tag k="ssr:stedsnr" v="572011" />
	</node>
	<node id="-90342" lat="61.9805138917" lon="11.1659666586">
		<tag k="name" v="Trollbudalen" />
		<tag k="natural" v="valley" />
		<tag k="place" v="locality" />
		<tag k="ssr:stedsnr" v="565277" />
	</node>
	<node id="-90341" lat="61.8724916694" lon="11.1595861056">
		<tag k="alt_name" v="Barketallsbakken" />
		<tag k="name" v="Borketollsbakken" />
		<tag k="natural" v="slope" />
		<tag k="place" v="locality" />
		<tag k="ssr:stedsnr" v="565278" />
	</node>
	<node id="-90335" lat="61.9320723964" lon="11.1256995042">
		<tag k="fixme" v="consider natural=peak for the most distinct mountains in the district" />
		<tag k="name" v="Haugsetåsen" />
		<tag k="natural" v="hill" />
		<tag k="place" v="locality" />
		<tag k="ssr:stedsnr" v="557233" />
	</node>
	<node id="-90333" lat="61.9301138886" lon="11.1967555615">
		<tag k="fixme" v="consider natural=peak for the most distinct mountains in the district" />
		<tag k="name" v="Slettfjellet" />
		<tag k="natural" v="hill" />
		<tag k="place" v="locality" />
		<tag k="ssr:stedsnr" v="557228" />
	</node>
	<node id="-90328" lat="61.9172222186" lon="11.4846361024">
		<tag k="name" v="Vesleskardfløyet" />
		<tag k="place" v="locality" />
		<tag k="ssr:stedsnr" v="556994" />
	</node>
	<node id="-90326" lat="61.7058999984" lon="11.119944438">
		<tag k="fixme" v="consider natural=peak for the most distinct mountains in the district" />
		<tag k="name" v="Fuglåsen" />
		<tag k="natural" v="hill" />
		<tag k="place" v="locality" />
		<tag k="ssr:stedsnr" v="556817" />
	</node>
	<node id="-90324" lat="61.6682277822" lon="11.4108999925">
		<tag k="fixme" v="consider natural=peak for the most distinct mountains in the district" />
		<tag k="name" v="Renåtangen" />
		<tag k="natural" v="hill" />
		<tag k="place" v="locality" />
		<tag k="ssr:stedsnr" v="556513" />
	</node>
	<node id="-90323" lat="61.5670611102" lon="11.3311555551">
		<tag k="alt_name" v="Veksenvorda" />
		<tag k="fixme" v="consider natural=peak for the most distinct mountains in the district" />
		<tag k="name" v="Veksenvola" />
		<tag k="natural" v="hill" />
		<tag k="place" v="locality" />
		<tag k="ssr:stedsnr" v="556507" />
	</node>
	<node id="-90321" lat="61.5826000037" lon="11.4429555537">
		<tag k="alt_name" v="Storbekkfjellet, søre;Storbekkfjellet" />
		<tag k="fixme" v="consider natural=peak for the most distinct mountains in the district" />
		<tag k="name" v="Søndre Storbekkfjellet" />
		<tag k="natural" v="hill" />
		<tag k="place" v="locality" />
		<tag k="ssr:stedsnr" v="556492" />
	</node>
	<node id="-90980" lat="61.6122277785" lon="11.2441055577">
		<tag k="fixme" v="consider natural=peak for the most distinct mountains in the district" />
		<tag k="name" v="Strandvollberget" />
		<tag k="natural" v="hill" />
		<tag k="place" v="locality" />
		<tag k="ssr:stedsnr" v="784352" />
	</node>
	<node id="-90317" lat="62.0349399731" lon="11.6014216869">
		<tag k="fixme" v="multiple name tags, choose one and add the other to alt_name; consider natural=peak for the most distinct mountains in the district" />
		<tag k="name" v="Jopålsakletten;Vesle Sølensjøkletten" />
		<tag k="natural" v="hill" />
		<tag k="place" v="locality" />
		<tag k="ssr:stedsnr" v="556456" />
	</node>
	<node id="-91169" lat="61.6244861112" lon="11.2412388898">
		<tag k="name" v="Østskaret" />
		<tag k="natural" v="valley" />
		<tag k="place" v="locality" />
		<tag k="ssr:stedsnr" v="845419" />
	</node>
	<node id="-90296" lat="61.7609249996" lon="10.854205561">
		<tag k="fixme" v="consider natural=peak for the most distinct mountains in the district" />
		<tag k="name" v="Svarttjønnkampen" />
		<tag k="natural" v="hill" />
		<tag k="place" v="locality" />
		<tag k="ssr:stedsnr" v="556227" />
	</node>
	<node id="-90295" lat="61.7917000011" lon="11.0588500083">
		<tag k="fixme" v="consider natural=peak for the most distinct mountains in the district" />
		<tag k="name" v="Nysæteråsen" />
		<tag k="natural" v="hill" />
		<tag k="place" v="locality" />
		<tag k="ssr:stedsnr" v="556217" />
	</node>
	<node id="-90293" lat="61.835444443" lon="11.074583326">
		<tag k="alt_name" v="Raudfjellet;Raufjellet" />
		<tag k="fixme" v="consider natural=peak for the most distinct mountains in the district" />
		<tag k="name" v="Rødfjellet" />
		<tag k="natural" v="hill" />
		<tag k="place" v="locality" />
		<tag k="ssr:stedsnr" v="556204" />
	</node>
	<node id="-90291" lat="61.8840527819" lon="10.9858666717">
		<tag k="alt_name" v="Gammelvollåsen" />
		<tag k="fixme" v="consider natural=peak for the most distinct mountains in the district" />
		<tag k="name" v="Gamlevollåsen" />
		<tag k="natural" v="hill" />
		<tag k="place" v="locality" />
		<tag k="ssr:stedsnr" v="556156" />
	</node>
	<node id="-90979" lat="61.4972472195" lon="11.2817777789">
		<tag k="name" v="Skjærberget" />
		<tag k="natural" v="hill" />
		<tag k="place" v="locality" />
		<tag k="ssr:stedsnr" v="784311" />
	</node>
	<node id="-90272" lat="61.8350166645" lon="11.4244444489">
		<tag k="fixme" v="consider natural=peak for the most distinct mountains in the district" />
		<tag k="name" v="Sandnupen" />
		<tag k="natural" v="hill" />
		<tag k="place" v="locality" />
		<tag k="ssr:stedsnr" v="556017" />
	</node>
	<node id="-90271" lat="61.8699277813" lon="11.398961119">
		<tag k="alt_name" v="Tissvorda" />
		<tag k="fixme" v="consider natural=peak for the most distinct mountains in the district" />
		<tag k="name" v="Tissvola" />
		<tag k="natural" v="hill" />
		<tag k="place" v="locality" />
		<tag k="ssr:stedsnr" v="556008" />
	</node>
	<node id="-89455" lat="61.9126250041" lon="11.3318694396">
		<tag k="name" v="Storgjota" />
		<tag k="natural" v="valley" />
		<tag k="place" v="locality" />
		<tag k="ssr:stedsnr" v="141317" />
	</node>
	<node id="-90264" lat="61.9016777809" lon="10.5666333342">
		<tag k="alt_name" v="Nehatten, vesle" />
		<tag k="fixme" v="consider natural=peak for the most distinct mountains in the district" />
		<tag k="name" v="Vesle Nehatten" />
		<tag k="natural" v="hill" />
		<tag k="place" v="locality" />
		<tag k="ssr:stedsnr" v="555443" />
	</node>
	<node id="-90263" lat="61.8894861155" lon="10.5351888967">
		<tag k="name" v="Blankgrytkroken" />
		<tag k="natural" v="valley" />
		<tag k="place" v="locality" />
		<tag k="ssr:stedsnr" v="555442" />
	</node>
	<node id="-90262" lat="61.8831277757" lon="10.561541667">
		<tag k="fixme" v="consider natural=peak for the most distinct mountains in the district" />
		<tag k="name" v="Brennfjelltangen" />
		<tag k="natural" v="hill" />
		<tag k="place" v="locality" />
		<tag k="ssr:stedsnr" v="555438" />
	</node>
	<node id="-91161" lat="61.9798722222" lon="10.9703027869">
		<tag k="name" v="Sommerbrekka" />
		<tag k="natural" v="slope" />
		<tag k="place" v="locality" />
		<tag k="ssr:stedsnr" v="847856" />
	</node>
	<node id="-90249" lat="61.7032583327" lon="11.4669138867">
		<tag k="fixme" v="consider natural=peak for the most distinct mountains in the district" />
		<tag k="name" v="Jønnbuåsen" />
		<tag k="natural" v="hill" />
		<tag k="place" v="locality" />
		<tag k="ssr:stedsnr" v="555317" />
	</node>
	<node id="-90243" lat="61.5386749982" lon="11.4156555524">
		<tag k="name" v="Drykkjedalen" />
		<tag k="natural" v="valley" />
		<tag k="place" v="locality" />
		<tag k="ssr:stedsnr" v="555229" />
	</node>
	<node id="-90241" lat="61.4599111107" lon="11.5177500012">
		<tag k="name" v="Pottbekkdalen" />
		<tag k="natural" v="valley" />
		<tag k="place" v="locality" />
		<tag k="ssr:stedsnr" v="554222" />
	</node>
	<node id="-90240" lat="61.4959638874" lon="11.5334805568">
		<tag k="fixme" v="consider natural=peak for the most distinct mountains in the district" />
		<tag k="name" v="Bjørbekkåsen" />
		<tag k="natural" v="hill" />
		<tag k="place" v="locality" />
		<tag k="ssr:stedsnr" v="554209" />
	</node>
	<node id="-90236" lat="61.4912361099" lon="11.369102783">
		<tag k="name" v="Røstberget" />
		<tag k="natural" v="hill" />
		<tag k="place" v="locality" />
		<tag k="ssr:stedsnr" v="554093" />
	</node>
	<node id="-91498" lat="61.4556916677" lon="11.2705333294">
		<tag k="name" v="Mørkletten" />
		<tag k="natural" v="hill" />
		<tag k="place" v="locality" />
		<tag k="ssr:stedsnr" v="966308" />
	</node>
	<node id="-90233" lat="61.6915500033" lon="11.2107916615">
		<tag k="name" v="Svarstadmoen" />
		<tag k="place" v="locality" />
		<tag k="ssr:stedsnr" v="544672" />
	</node>
	<node id="-89108" lat="62.1369694488" lon="11.0600805637">
		<tag k="fixme" v="consider natural=peak for the most distinct mountains in the district" />
		<tag k="name" v="Lauvbekkmåna" />
		<tag k="natural" v="hill" />
		<tag k="place" v="locality" />
		<tag k="ssr:stedsnr" v="53235" />
	</node>
	<node id="-90473" lat="61.9510416693" lon="10.4952888846">
		<tag k="fixme" v="consider natural=peak for the most distinct mountains in the district" />
		<tag k="name" v="Skarvhøa" />
		<tag k="natural" v="hill" />
		<tag k="place" v="locality" />
		<tag k="ssr:stedsnr" v="616420" />
	</node>
	<node id="-90226" lat="61.9567027738" lon="11.0331388961">
		<tag k="name" v="Nysæterrøsta" />
		<tag k="natural" v="slope" />
		<tag k="place" v="locality" />
		<tag k="ssr:stedsnr" v="543849" />
	</node>
	<node id="-90225" lat="61.9980916653" lon="11.0720888905">
		<tag k="name" v="Nautenglia" />
		<tag k="natural" v="slope" />
		<tag k="place" v="locality" />
		<tag k="ssr:stedsnr" v="543843" />
	</node>
	<node id="-90224" lat="61.9912083323" lon="10.9640416715">
		<tag k="name" v="Vakkerrøsta" />
		<tag k="natural" v="slope" />
		<tag k="place" v="locality" />
		<tag k="ssr:stedsnr" v="543841" />
	</node>
	<node id="-90223" lat="61.9715222209" lon="11.0013333306">
		<tag k="name" v="Styggdalen" />
		<tag k="natural" v="valley" />
		<tag k="place" v="locality" />
		<tag k="ssr:stedsnr" v="543836" />
	</node>
	<node id="-90217" lat="61.7689805521" lon="10.9715361189">
		<tag k="name" v="Mjovassalen" />
		<tag k="natural" v="valley" />
		<tag k="place" v="locality" />
		<tag k="ssr:stedsnr" v="543636" />
	</node>
	<node id="-90216" lat="61.8376277761" lon="10.8718972185">
		<tag k="name" v="Ytre Tyve" />
		<tag k="place" v="locality" />
		<tag k="ssr:stedsnr" v="543583" />
	</node>
	<node id="-90215" lat="61.8462138899" lon="10.9405861145">
		<tag k="name" v="Børtet" />
		<tag k="natural" v="slope" />
		<tag k="place" v="locality" />
		<tag k="ssr:stedsnr" v="543574" />
	</node>
	<node id="-90206" lat="62.0313444448" lon="11.1219916683">
		<tag k="name" v="Klettsæterrøsta" />
		<tag k="natural" v="slope" />
		<tag k="place" v="locality" />
		<tag k="ssr:stedsnr" v="543331" />
	</node>
	<node id="-90205" lat="62.0106166624" lon="11.102608333">
		<tag k="name" v="Uglålia" />
		<tag k="natural" v="slope" />
		<tag k="place" v="locality" />
		<tag k="ssr:stedsnr" v="543332" />
	</node>
	<node id="-90203" lat="62.0703777802" lon="11.0683888897">
		<tag k="name" v="Vesleengrøsta" />
		<tag k="natural" v="hill" />
		<tag k="place" v="locality" />
		<tag k="ssr:stedsnr" v="543290" />
	</node>
	<node id="-90202" lat="61.4707750033" lon="11.3593666656">
		<tag k="name" v="Hansbrenna" />
		<tag k="natural" v="hill" />
		<tag k="place" v="locality" />
		<tag k="ssr:stedsnr" v="543230" />
	</node>
	<node id="-90201" lat="61.6774638875" lon="11.1795777692">
		<tag k="name" v="Lauvtjellbakken" />
		<tag k="natural" v="slope" />
		<tag k="place" v="locality" />
		<tag k="ssr:stedsnr" v="543102" />
	</node>
	<node id="-90199" lat="61.6887527743" lon="11.1371416612">
		<tag k="name" v="Vollrøsta" />
		<tag k="natural" v="slope" />
		<tag k="place" v="locality" />
		<tag k="ssr:stedsnr" v="543099" />
	</node>
	<node id="-90198" lat="61.6983916648" lon="11.0823722205">
		<tag k="name" v="Totilrøsta" />
		<tag k="natural" v="slope" />
		<tag k="place" v="locality" />
		<tag k="ssr:stedsnr" v="543097" />
	</node>
	<node id="-90809" lat="61.9730333348" lon="11.1585249933">
		<tag k="name" v="Heggesletta" />
		<tag k="place" v="locality" />
		<tag k="ssr:stedsnr" v="725433" />
	</node>
	<node id="-90196" lat="61.6607166672" lon="11.1466777721">
		<tag k="name" v="Rennskitubakken" />
		<tag k="natural" v="slope" />
		<tag k="place" v="locality" />
		<tag k="ssr:stedsnr" v="543082" />
	</node>
	<node id="-90193" lat="61.4939944483" lon="11.4349388944">
		<tag k="name" v="Rognåsen" />
		<tag k="natural" v="hill" />
		<tag k="place" v="locality" />
		<tag k="ssr:stedsnr" v="543072" />
	</node>
	<node id="-90188" lat="61.8131027767" lon="10.9714972167">
		<tag k="name" v="Langåsfløyet" />
		<tag k="place" v="locality" />
		<tag k="ssr:stedsnr" v="542746" />
	</node>
	<node id="-91148" lat="61.8682805557" lon="11.0747666619">
		<tag k="name" v="Finndalen" />
		<tag k="natural" v="valley" />
		<tag k="place" v="locality" />
		<tag k="ssr:stedsnr" v="816507" />
	</node>
	<node id="-91489" lat="61.887397222" lon="11.0387166588">
		<tag k="fixme" v="consider natural=peak for the most distinct mountains in the district" />
		<tag k="name" v="Kjelåsen" />
		<tag k="natural" v="hill" />
		<tag k="place" v="locality" />
		<tag k="ssr:stedsnr" v="937478" />
	</node>
	<node id="-90178" lat="62.0015249963" lon="11.1130111018">
		<tag k="fixme" v="consider natural=peak for the most distinct mountains in the district" />
		<tag k="name" v="Kvilsteinberget" />
		<tag k="natural" v="hill" />
		<tag k="place" v="locality" />
		<tag k="ssr:stedsnr" v="542255" />
	</node>
	<node id="-90175" lat="61.9354444408" lon="11.2018861015">
		<tag k="name" v="Kalvgrubbene" />
		<tag k="natural" v="valley" />
		<tag k="place" v="locality" />
		<tag k="ssr:stedsnr" v="542180" />
	</node>
	<node id="-90170" lat="61.7770416648" lon="10.9494527791">
		<tag k="name" v="Storposten" />
		<tag k="natural" v="hill" />
		<tag k="place" v="locality" />
		<tag k="ssr:stedsnr" v="541866" />
	</node>
	<node id="-90166" lat="61.5520388858" lon="11.2670777727">
		<tag k="name" v="Kvitberget" />
		<tag k="natural" v="hill" />
		<tag k="place" v="locality" />
		<tag k="ssr:stedsnr" v="541352" />
	</node>
	<node id="-89097" lat="61.7817833303" lon="11.1347138967">
		<tag k="name" v="Trebekkdalen" />
		<tag k="natural" v="valley" />
		<tag k="place" v="locality" />
		<tag k="ssr:stedsnr" v="26438" />
	</node>
	<node id="-90164" lat="61.582824997" lon="11.2744333423">
		<tag k="name" v="Synstskaret" />
		<tag k="natural" v="valley" />
		<tag k="place" v="locality" />
		<tag k="ssr:stedsnr" v="541339" />
	</node>
	<node id="-90161" lat="61.726136111" lon="11.1844611087">
		<tag k="name" v="Hellskjæret" />
		<tag k="natural" v="hill" />
		<tag k="place" v="locality" />
		<tag k="ssr:stedsnr" v="541161" />
	</node>
	<node id="-90158" lat="61.6959500009" lon="11.1946305581">
		<tag k="name" v="Åsheimbakken" />
		<tag k="natural" v="slope" />
		<tag k="place" v="locality" />
		<tag k="ssr:stedsnr" v="541148" />
	</node>
	<node id="-91143" lat="61.9099527795" lon="11.024063888">
		<tag k="fixme" v="consider natural=peak for the most distinct mountains in the district" />
		<tag k="name" v="Bersetsjøkampen" />
		<tag k="natural" v="hill" />
		<tag k="place" v="locality" />
		<tag k="ssr:stedsnr" v="815442" />
	</node>
	<node id="-90145" lat="61.9337750037" lon="11.0714138839">
		<tag k="name" v="Ferdervelta" />
		<tag k="place" v="locality" />
		<tag k="ssr:stedsnr" v="511059" />
	</node>
	<node id="-90144" lat="61.9450138908" lon="11.0354583315">
		<tag k="name" v="Fonnåslia" />
		<tag k="natural" v="slope" />
		<tag k="place" v="locality" />
		<tag k="ssr:stedsnr" v="511055" />
	</node>
	<node id="-90143" lat="61.9356416644" lon="11.0631888912">
		<tag k="name" v="Breddalen" />
		<tag k="natural" v="valley" />
		<tag k="place" v="locality" />
		<tag k="ssr:stedsnr" v="511007" />
	</node>
	<node id="-90136" lat="61.8940000002" lon="11.5034861137">
		<tag k="name" v="Nordre Sølenholet" />
		<tag k="natural" v="valley" />
		<tag k="place" v="locality" />
		<tag k="ssr:stedsnr" v="496989" />
	</node>
	<node id="-90126" lat="62.1131416683" lon="11.2934277807">
		<tag k="name" v="Gråhøgda" />
		<tag k="natural" v="hill" />
		<tag k="place" v="locality" />
		<tag k="ssr:stedsnr" v="496436" />
	</node>
	<node id="-90120" lat="61.8940361075" lon="10.8170916713">
		<tag k="name" v="Tegninghalsen" />
		<tag k="place" v="locality" />
		<tag k="ssr:stedsnr" v="496371" />
	</node>
	<node id="-90118" lat="61.9480055595" lon="10.7393694423">
		<tag k="fixme" v="consider natural=peak for the most distinct mountains in the district" />
		<tag k="name" v="Kløftbekkhøgda" />
		<tag k="natural" v="hill" />
		<tag k="place" v="locality" />
		<tag k="ssr:stedsnr" v="496344" />
	</node>
	<node id="-90117" lat="61.9385305556" lon="10.8147027776">
		<tag k="fixme" v="consider natural=peak for the most distinct mountains in the district" />
		<tag k="name" v="Storskarven" />
		<tag k="natural" v="hill" />
		<tag k="place" v="locality" />
		<tag k="ssr:stedsnr" v="496336" />
	</node>
</osm>
