<?xml version="1.0" encoding="UTF-8"?>
<<<<<<< HEAD
<osm version="0.6" generator="osmapis">
	<node lat="60.46162754123172" lon="7.07104239764246" id="-31063">
		<tag k="alt_name" v="Eidfjord" />
=======
<osm generator="osmapis" version="0.6">
	<node id="-618863" lat="60.2715583292" lon="7.62834722567">
		<tag k="name" v="Byen" />
		<tag k="place" v="locality" />
		<tag k="ssr:stedsnr" v="491978" />
	</node>
	<node id="-620062" lat="60.4631788453" lon="7.06981131172">
>>>>>>> e1d4bc35ff8a6074a6f2e91616a996b547c36f15
		<tag k="amenity" v="place_of_worship" />
		<tag k="denomination" v="lutheran" />
		<tag k="name" v="Eidfjord gamle kyrkje" />
		<tag k="religion" v="christian" />
		<tag k="ssr:stedsnr" v="248756" />
	</node>
<<<<<<< HEAD
	<node lat="60.27155832921382" lon="7.6283472256727665" id="-31382">
		<tag k="name" v="Byen" />
		<tag k="place" v="locality" />
		<tag k="ssr:stedsnr" v="491978" />
	</node>
	<node lat="60.46317884529567" lon="7.069811311723266" id="-31698">
=======
	<node id="-618665" lat="60.4616275412" lon="7.07104239764">
		<tag k="alt_name" v="Eidfjord" />
>>>>>>> e1d4bc35ff8a6074a6f2e91616a996b547c36f15
		<tag k="amenity" v="place_of_worship" />
		<tag k="denomination" v="lutheran" />
		<tag k="name" v="Eidfjord kyrkje" />
		<tag k="religion" v="christian" />
		<tag k="ssr:stedsnr" v="990728" />
	</node>
</osm>
