<?xml version="1.0" encoding="UTF-8"?>
<osm version="0.6" generator="osmapis">
	<node lat="60.158074997448786" lon="7.373408340360903" id="-70780">
		<tag k="fixme" v="consider natural=peak for the most distinct mountains in the district" />
		<tag k="name" v="Dimmedalshøgdene" />
		<tag k="natural" v="hill" />
		<tag k="place" v="locality" />
		<tag k="ssr:stedsnr" v="4763" />
	</node>
	<node lat="60.421941666693876" lon="7.363569436099074" id="-70793">
		<tag k="fixme" v="consider natural=peak for the most distinct mountains in the district" />
		<tag k="name" v="Attekvelvnuten" />
		<tag k="natural" v="hill" />
		<tag k="place" v="locality" />
		<tag k="ssr:stedsnr" v="5567" />
	</node>
	<node lat="60.43406111368259" lon="7.4879361144985666" id="-70795">
		<tag k="fixme" v="consider natural=peak for the most distinct mountains in the district" />
		<tag k="name" v="Smyttenutane" />
		<tag k="natural" v="hill" />
		<tag k="place" v="locality" />
		<tag k="ssr:stedsnr" v="5573" />
	</node>
	<node lat="60.430708335684756" lon="7.397252771416847" id="-70796">
		<tag k="name" v="Hansalia" />
		<tag k="natural" v="slope" />
		<tag k="place" v="locality" />
		<tag k="ssr:stedsnr" v="5576" />
	</node>
	<node lat="60.368969440980145" lon="7.142727771000148" id="-70813">
		<tag k="name" v="Gråoreteigen" />
		<tag k="place" v="locality" />
		<tag k="ssr:stedsnr" v="38312" />
	</node>
	<node lat="60.47831111453831" lon="6.983513894335628" id="-70814">
		<tag k="name" v="Nedste Hjallen" />
		<tag k="place" v="locality" />
		<tag k="ssr:stedsnr" v="38419" />
	</node>
	<node lat="60.41626666415001" lon="7.178152773530813" id="-70815">
		<tag k="name" v="Sauagrova" />
		<tag k="place" v="locality" />
		<tag k="ssr:stedsnr" v="38719" />
	</node>
	<node lat="60.42114166762984" lon="7.1073138963062705" id="-70817">
		<tag k="name" v="Hundskor" />
		<tag k="place" v="locality" />
		<tag k="ssr:stedsnr" v="38758" />
	</node>
	<node lat="60.41798333292414" lon="7.1143666691169205" id="-70818">
		<tag k="name" v="Ovnen" />
		<tag k="place" v="locality" />
		<tag k="ssr:stedsnr" v="38768" />
	</node>
	<node lat="60.419652776615415" lon="7.11012499445882" id="-70819">
		<tag k="name" v="Gygraberget" />
		<tag k="natural" v="hill" />
		<tag k="place" v="locality" />
		<tag k="ssr:stedsnr" v="38775" />
	</node>
	<node lat="60.424424999216676" lon="7.100944441616206" id="-70820">
		<tag k="name" v="Borgi" />
		<tag k="place" v="locality" />
		<tag k="ssr:stedsnr" v="38779" />
	</node>
	<node lat="60.415991665457874" lon="7.259874999267289" id="-70821">
		<tag k="name" v="Brudalen" />
		<tag k="natural" v="valley" />
		<tag k="place" v="locality" />
		<tag k="ssr:stedsnr" v="38692" />
	</node>
	<node lat="60.39385277777037" lon="7.155125003746141" id="-70822">
		<tag k="name" v="Hjølmosetlegdene" />
		<tag k="natural" v="slope" />
		<tag k="place" v="locality" />
		<tag k="ssr:stedsnr" v="39206" />
	</node>
	<node lat="60.47590000155043" lon="6.966152785609056" id="-70823">
		<tag k="name" v="Insta Rotagjelet" />
		<tag k="natural" v="gorge" />
		<tag k="old_name" v="Indre Rotagjelet" />
		<tag k="ssr:stedsnr" v="43974" />
	</node>
	<node lat="60.23971389213309" lon="7.410674990930649" id="-70833">
		<tag k="fixme" v="consider natural=peak for the most distinct mountains in the district" />
		<tag k="name" v="Nordvasshæ" />
		<tag k="natural" v="hill" />
		<tag k="place" v="locality" />
		<tag k="ssr:stedsnr" v="66267" />
	</node>
	<node lat="60.4418666662461" lon="7.393066673670173" id="-70834">
		<tag k="name" v="Håkåhelleren" />
		<tag k="place" v="locality" />
		<tag k="ssr:stedsnr" v="66565" />
	</node>
	<node lat="60.45837500287488" lon="7.417505561350977" id="-70835">
		<tag k="fixme" v="consider natural=peak for the most distinct mountains in the district" />
		<tag k="name" v="Leirhalsen" />
		<tag k="natural" v="hill" />
		<tag k="place" v="locality" />
		<tag k="ssr:stedsnr" v="66568" />
	</node>
	<node lat="60.30114166515641" lon="7.608683332768119" id="-70863">
		<tag k="name" v="Hyttehaugen" />
		<tag k="natural" v="hill" />
		<tag k="place" v="locality" />
		<tag k="ssr:stedsnr" v="66882" />
	</node>
	<node lat="60.09894999981634" lon="7.487983339709965" id="-70872">
		<tag k="name" v="Hardangervidda" />
		<tag k="natural" v="plateau" />
		<tag k="ssr:stedsnr" v="85109" />
	</node>
	<node lat="60.13998888722455" lon="7.463133341917976" id="-70876">
		<tag k="fixme" v="consider natural=peak for the most distinct mountains in the district" />
		<tag k="name" v="Lakadalskongen" />
		<tag k="natural" v="hill" />
		<tag k="place" v="locality" />
		<tag k="ssr:stedsnr" v="247741" />
	</node>
	<node lat="60.3775444490419" lon="7.156666673926697" id="-70878">
		<tag k="name" v="Hjølmaloftet" />
		<tag k="place" v="locality" />
		<tag k="ssr:stedsnr" v="99312" />
	</node>
	<node lat="60.40795277395801" lon="7.120483325787029" id="-70879">
		<tag k="name" v="Kjosane" />
		<tag k="place" v="locality" />
		<tag k="ssr:stedsnr" v="99260" />
	</node>
	<node lat="60.40789722217018" lon="7.107080560817911" id="-70880">
		<tag k="name" v="Reipegjela" />
		<tag k="place" v="locality" />
		<tag k="ssr:stedsnr" v="99270" />
	</node>
	<node lat="60.47745555513356" lon="7.012238895313595" id="-70881">
		<tag k="name" v="Novi" />
		<tag k="place" v="locality" />
		<tag k="ssr:stedsnr" v="99416" />
	</node>
	<node lat="60.393361108550565" lon="7.354772225325899" id="-70882">
		<tag k="name" v="Nystøllia" />
		<tag k="natural" v="slope" />
		<tag k="place" v="locality" />
		<tag k="ssr:stedsnr" v="99463" />
	</node>
	<node lat="60.431426983548555" lon="7.398523465774743" id="-70884">
		<tag k="name" v="Bytesdalen" />
		<tag k="natural" v="valley" />
		<tag k="place" v="locality" />
		<tag k="ssr:stedsnr" v="99583" />
	</node>
	<node lat="60.46015277891977" lon="7.099311111825081" id="-70885">
		<tag k="name" v="Nautabolet" />
		<tag k="place" v="locality" />
		<tag k="ssr:stedsnr" v="99702" />
	</node>
	<node lat="60.349105559837824" lon="7.653669441657213" id="-70894">
		<tag k="name" v="Skaupsjøberget" />
		<tag k="natural" v="hill" />
		<tag k="place" v="locality" />
		<tag k="ssr:stedsnr" v="248887" />
	</node>
	<node lat="60.39974721927338" lon="7.417397213996487" id="-70895">
		<tag k="fixme" v="consider natural=peak for the most distinct mountains in the district" />
		<tag k="name" v="Storlinutane" />
		<tag k="natural" v="hill" />
		<tag k="place" v="locality" />
		<tag k="ssr:stedsnr" v="248931" />
	</node>
	<node lat="60.26348610855157" lon="7.547994450669592" id="-70897">
		<tag k="fixme" v="consider natural=peak for the most distinct mountains in the district" />
		<tag k="name" v="Hellehalsen" />
		<tag k="natural" v="hill" />
		<tag k="place" v="locality" />
		<tag k="ssr:stedsnr" v="248975" />
	</node>
	<node lat="60.25230555227604" lon="7.477500005016596" id="-70898">
		<tag k="fixme" v="consider natural=peak for the most distinct mountains in the district" />
		<tag k="name" v="Ruvlenuten" />
		<tag k="natural" v="hill" />
		<tag k="place" v="locality" />
		<tag k="ssr:stedsnr" v="248984" />
	</node>
	<node lat="60.17376666896121" lon="7.321886104280645" id="-70903">
		<tag k="fixme" v="consider natural=peak for the most distinct mountains in the district" />
		<tag k="name" v="Høgevarden" />
		<tag k="natural" v="hill" />
		<tag k="place" v="locality" />
		<tag k="ssr:stedsnr" v="125366" />
	</node>
	<node lat="60.2310995554423" lon="7.3366660269483255" id="-70905">
		<tag k="alt_name" v="Vierslahæ" />
		<tag k="fixme" v="consider natural=peak for the most distinct mountains in the district" />
		<tag k="name" v="Vierslanutane" />
		<tag k="natural" v="hill" />
		<tag k="place" v="locality" />
		<tag k="ssr:stedsnr" v="126364" />
	</node>
	<node lat="60.4749083351942" lon="7.474227779538372" id="-70913">
		<tag k="loc_name" v="Leirebotnen" />
		<tag k="name" v="Leirbotn" />
		<tag k="natural" v="valley" />
		<tag k="place" v="locality" />
		<tag k="ssr:stedsnr" v="127650" />
	</node>
	<node lat="60.46925555334079" lon="6.943141664054662" id="-70919">
		<tag k="name" v="Aldalane" />
		<tag k="natural" v="valley" />
		<tag k="place" v="locality" />
		<tag k="ssr:stedsnr" v="159421" />
	</node>
	<node lat="60.4662138885321" lon="7.021272219159037" id="-70920">
		<tag k="name" v="Bleikaberg" />
		<tag k="natural" v="hill" />
		<tag k="place" v="locality" />
		<tag k="ssr:stedsnr" v="159469" />
	</node>
	<node lat="60.503730554228895" lon="7.007699993553667" id="-70921">
		<tag k="name" v="Snjåkaberg" />
		<tag k="place" v="locality" />
		<tag k="ssr:stedsnr" v="159351" />
	</node>
	<node lat="60.511455554528276" lon="7.250047227366885" id="-70922">
		<tag k="name" v="Moldsteinsbakken" />
		<tag k="natural" v="slope" />
		<tag k="place" v="locality" />
		<tag k="ssr:stedsnr" v="159502" />
	</node>
	<node lat="60.499069440658076" lon="7.256961119809852" id="-70923">
		<tag k="name" v="Storhaugrobbi" />
		<tag k="place" v="locality" />
		<tag k="ssr:stedsnr" v="159507" />
	</node>
	<node lat="60.50899999845484" lon="7.16451110820612" id="-70938">
		<tag k="alt_name" v="Lauvsteinsgjeli" />
		<tag k="name" v="Løsteingilet" />
		<tag k="natural" v="valley" />
		<tag k="place" v="locality" />
		<tag k="ssr:stedsnr" v="189219" />
	</node>
	<node lat="60.40686111110886" lon="7.143238892639104" id="-70943">
		<tag k="fixme" v="consider natural=peak for the most distinct mountains in the district" />
		<tag k="name" v="Midtnuten" />
		<tag k="natural" v="hill" />
		<tag k="place" v="locality" />
		<tag k="ssr:stedsnr" v="220309" />
	</node>
	<node lat="60.40438889068127" lon="7.149208332204128" id="-70944">
		<tag k="fixme" v="consider natural=peak for the most distinct mountains in the district" />
		<tag k="name" v="Nutane" />
		<tag k="natural" v="hill" />
		<tag k="place" v="locality" />
		<tag k="ssr:stedsnr" v="220311" />
	</node>
	<node lat="60.35867617728631" lon="7.145123533109373" id="-70945">
		<tag k="name" v="Røvskorane" />
		<tag k="place" v="locality" />
		<tag k="ssr:stedsnr" v="220380" />
	</node>
	<node lat="60.35985000196072" lon="7.166263886164892" id="-70946">
		<tag k="fixme" v="consider natural=peak for the most distinct mountains in the district" />
		<tag k="name" v="Brannstjørnslaet" />
		<tag k="natural" v="hill" />
		<tag k="place" v="locality" />
		<tag k="ssr:stedsnr" v="220392" />
	</node>
	<node lat="60.408172218172766" lon="7.360088882578155" id="-70948">
		<tag k="name" v="Burtnalia" />
		<tag k="natural" v="slope" />
		<tag k="place" v="locality" />
		<tag k="ssr:stedsnr" v="220520" />
	</node>
	<node lat="60.33236389267563" lon="7.135205562971495" id="-70949">
		<tag k="name" v="Vierdalen" />
		<tag k="natural" v="valley" />
		<tag k="place" v="locality" />
		<tag k="ssr:stedsnr" v="220408" />
	</node>
	<node lat="60.3365666679572" lon="7.145783328166128" id="-70950">
		<tag k="name" v="Dansareskarv" />
		<tag k="natural" v="valley" />
		<tag k="place" v="locality" />
		<tag k="ssr:stedsnr" v="220412" />
	</node>
	<node lat="60.46886666628264" lon="6.983250008896124" id="-70951">
		<tag k="name" v="Svarthamrane" />
		<tag k="natural" v="hill" />
		<tag k="place" v="locality" />
		<tag k="ssr:stedsnr" v="220474" />
	</node>
	<node lat="60.465838886638494" lon="7.001322223159393" id="-70952">
		<tag k="name" v="Sessena" />
		<tag k="place" v="locality" />
		<tag k="ssr:stedsnr" v="220490" />
	</node>
	<node lat="60.38077777697679" lon="7.166869448710477" id="-70955">
		<tag k="fixme" v="consider natural=peak for the most distinct mountains in the district" />
		<tag k="name" v="Bjørnanuten" />
		<tag k="natural" v="hill" />
		<tag k="place" v="locality" />
		<tag k="ssr:stedsnr" v="221290" />
	</node>
	<node lat="60.42140000006615" lon="7.098158339034673" id="-70956">
		<tag k="name" v="Staupegjeli" />
		<tag k="natural" v="gorge" />
		<tag k="ssr:stedsnr" v="221674" />
	</node>
	<node lat="60.42181110913529" lon="7.112480561811553" id="-70957">
		<tag k="name" v="Storhoggane" />
		<tag k="place" v="locality" />
		<tag k="ssr:stedsnr" v="221676" />
	</node>
	<node lat="60.31081944090435" lon="7.671388891825033" id="-70979">
		<tag k="fixme" v="consider natural=peak for the most distinct mountains in the district" />
		<tag k="name" v="Grasnuten" />
		<tag k="natural" v="hill" />
		<tag k="place" v="locality" />
		<tag k="ssr:stedsnr" v="248910" />
	</node>
	<node lat="60.36985555892898" lon="7.668061107414741" id="-70981">
		<tag k="name" v="Hansamadalen" />
		<tag k="natural" v="valley" />
		<tag k="place" v="locality" />
		<tag k="ssr:stedsnr" v="248949" />
	</node>
	<node lat="60.51501389063764" lon="7.2801083363029875" id="-70983">
		<tag k="name" v="Torkjelshøgda" />
		<tag k="natural" v="hill" />
		<tag k="place" v="locality" />
		<tag k="ssr:stedsnr" v="249217" />
	</node>
	<node lat="60.40304166771682" lon="7.110036107529576" id="-70987">
		<tag k="name" v="Nonsgjeli" />
		<tag k="place" v="locality" />
		<tag k="ssr:stedsnr" v="281310" />
	</node>
	<node lat="60.377447222050236" lon="7.143177780523815" id="-70989">
		<tag k="name" v="Krona" />
		<tag k="place" v="locality" />
		<tag k="ssr:stedsnr" v="281322" />
	</node>
	<node lat="60.363352777959406" lon="7.181500005283626" id="-70991">
		<tag k="name" v="Hesa" />
		<tag k="place" v="locality" />
		<tag k="ssr:stedsnr" v="281373" />
	</node>
	<node lat="60.3377694414117" lon="7.158463894743075" id="-70992">
		<tag k="name" v="Kvasshovdegjelet" />
		<tag k="natural" v="valley" />
		<tag k="place" v="locality" />
		<tag k="ssr:stedsnr" v="281380" />
	</node>
	<node lat="60.46196944232758" lon="6.907050001535042" id="-70993">
		<tag k="name" v="Skredena" />
		<tag k="natural" v="valley" />
		<tag k="place" v="locality" />
		<tag k="ssr:stedsnr" v="281403" />
	</node>
	<node lat="60.46306944778632" lon="6.871561108571827" id="-70994">
		<tag k="name" v="Storhaug" />
		<tag k="natural" v="hill" />
		<tag k="place" v="locality" />
		<tag k="ssr:stedsnr" v="281406" />
	</node>
	<node lat="60.45816944814628" lon="6.866600000145038" id="-70995">
		<tag k="name" v="Stølslia" />
		<tag k="natural" v="slope" />
		<tag k="place" v="locality" />
		<tag k="ssr:stedsnr" v="281407" />
	</node>
	<node lat="60.472525000201266" lon="6.969486117247378" id="-70996">
		<tag k="name" v="Insta Rotagjel" />
		<tag k="place" v="locality" />
		<tag k="ssr:stedsnr" v="281415" />
	</node>
	<node lat="60.51039166915364" lon="7.197283326368325" id="-70997">
		<tag k="name" v="Bjørnskor" />
		<tag k="place" v="locality" />
		<tag k="ssr:stedsnr" v="281710" />
	</node>
	<node lat="60.41388610689791" lon="7.168272225587315" id="-70998">
		<tag k="name" v="Kaldavasskorane" />
		<tag k="place" v="locality" />
		<tag k="ssr:stedsnr" v="281719" />
	</node>
	<node lat="60.4214916623181" lon="7.208788892057844" id="-70999">
		<tag k="name" v="Kvernhusskorane" />
		<tag k="place" v="locality" />
		<tag k="ssr:stedsnr" v="281721" />
	</node>
	<node lat="60.47000359173986" lon="6.868773332433225" id="-71001">
		<tag k="name" v="Eikehaugen" />
		<tag k="natural" v="hill" />
		<tag k="place" v="locality" />
		<tag k="ssr:stedsnr" v="463456" />
	</node>
	<node lat="60.37925278189326" lon="7.172749996312773" id="-71002">
		<tag k="fixme" v="consider natural=peak for the most distinct mountains in the district" />
		<tag k="name" v="Hjødlefallnuten" />
		<tag k="natural" v="hill" />
		<tag k="place" v="locality" />
		<tag k="ssr:stedsnr" v="463284" />
	</node>
	<node lat="60.37612500373798" lon="7.171386109539068" id="-71003">
		<tag k="name" v="Hjødlefall" />
		<tag k="place" v="locality" />
		<tag k="ssr:stedsnr" v="463286" />
	</node>
	<node lat="60.32694722152335" lon="7.13443888718382" id="-71004">
		<tag k="name" v="Vesterlia" />
		<tag k="natural" v="slope" />
		<tag k="place" v="locality" />
		<tag k="ssr:stedsnr" v="463252" />
	</node>
	<node lat="60.365363885039855" lon="7.190422230967356" id="-71006">
		<tag k="name" v="Finnabui" />
		<tag k="place" v="locality" />
		<tag k="ssr:stedsnr" v="463331" />
	</node>
	<node lat="60.46228611548904" lon="6.874502784429102" id="-71007">
		<tag k="name" v="Lauvruskehaugen" />
		<tag k="natural" v="hill" />
		<tag k="place" v="locality" />
		<tag k="ssr:stedsnr" v="463360" />
	</node>
	<node lat="60.376197218879845" lon="7.159436118528354" id="-71008">
		<tag k="name" v="Støytene" />
		<tag k="place" v="locality" />
		<tag k="ssr:stedsnr" v="463289" />
	</node>
	<node lat="60.418225000509956" lon="7.1928805507912745" id="-71011">
		<tag k="name" v="Høgdene" />
		<tag k="natural" v="hill" />
		<tag k="place" v="locality" />
		<tag k="ssr:stedsnr" v="463676" />
	</node>
	<node lat="60.42364166286644" lon="7.196891665999501" id="-71014">
		<tag k="fixme" v="consider natural=peak for the most distinct mountains in the district" />
		<tag k="name" v="Blånuten" />
		<tag k="natural" v="hill" />
		<tag k="place" v="locality" />
		<tag k="ssr:stedsnr" v="463704" />
	</node>
	<node lat="60.4158166650387" lon="7.1398499999837455" id="-71015">
		<tag k="name" v="Kleivane" />
		<tag k="natural" v="slope" />
		<tag k="place" v="locality" />
		<tag k="ssr:stedsnr" v="463695" />
	</node>
	<node lat="60.4255111131484" lon="7.163005550568745" id="-71016">
		<tag k="fixme" v="consider natural=peak for the most distinct mountains in the district" />
		<tag k="name" v="Storlinuten" />
		<tag k="natural" v="hill" />
		<tag k="place" v="locality" />
		<tag k="ssr:stedsnr" v="463705" />
	</node>
	<node lat="60.428686109043895" lon="7.1310999911296085" id="-71017">
		<tag k="name" v="Fugladokki" />
		<tag k="place" v="locality" />
		<tag k="ssr:stedsnr" v="463717" />
	</node>
	<node lat="60.14686666219768" lon="7.293611106131483" id="-71020">
		<tag k="name" v="Venahallet" />
		<tag k="natural" v="slope" />
		<tag k="place" v="locality" />
		<tag k="ssr:stedsnr" v="307322" />
	</node>
	<node lat="60.176133329898796" lon="7.56613055413038" id="-71021">
		<tag k="fixme" v="consider natural=peak for the most distinct mountains in the district" />
		<tag k="name" v="Krakavadnutane" />
		<tag k="natural" v="hill" />
		<tag k="place" v="locality" />
		<tag k="ssr:stedsnr" v="307699" />
	</node>
	<node lat="60.20677500219081" lon="7.197077774105018" id="-71022">
		<tag k="name" v="Ulvafeta" />
		<tag k="place" v="locality" />
		<tag k="ssr:stedsnr" v="308276" />
	</node>
	<node lat="60.488399998154186" lon="7.26615278068879" id="-71023">
		<tag k="fixme" v="consider natural=peak for the most distinct mountains in the district" />
		<tag k="name" v="Væte" />
		<tag k="natural" v="hill" />
		<tag k="place" v="locality" />
		<tag k="ssr:stedsnr" v="308592" />
	</node>
	<node lat="60.524558329401295" lon="7.074388890908633" id="-71034">
		<tag k="fixme" v="consider natural=peak for the most distinct mountains in the district" />
		<tag k="name" v="Onen" />
		<tag k="natural" v="hill" />
		<tag k="place" v="locality" />
		<tag k="ssr:stedsnr" v="309141" />
	</node>
	<node lat="60.549405557048864" lon="7.253975000134727" id="-71035">
		<tag k="name" v="Lureggane" />
		<tag k="natural" v="hill" />
		<tag k="place" v="locality" />
		<tag k="ssr:stedsnr" v="309187" />
	</node>
	<node lat="60.29294444458474" lon="7.360741675469565" id="-71042">
		<tag k="name" v="Sildabudalen" />
		<tag k="natural" v="valley" />
		<tag k="place" v="locality" />
		<tag k="ssr:stedsnr" v="309906" />
	</node>
	<node lat="60.28902500152939" lon="7.589733331504135" id="-71043">
		<tag k="fixme" v="consider natural=peak for the most distinct mountains in the district" />
		<tag k="name" v="Endahæ" />
		<tag k="natural" v="hill" />
		<tag k="place" v="locality" />
		<tag k="ssr:stedsnr" v="309910" />
	</node>
	<node lat="60.46660833690546" lon="7.077802769157275" id="-71047">
		<tag k="name" v="Langedalen" />
		<tag k="natural" v="valley" />
		<tag k="place" v="locality" />
		<tag k="ssr:stedsnr" v="341342" />
	</node>
	<node lat="60.46567778118963" lon="6.896358335916531" id="-71049">
		<tag k="name" v="Sandhauggjelet" />
		<tag k="place" v="locality" />
		<tag k="ssr:stedsnr" v="341551" />
	</node>
	<node lat="60.466841664447855" lon="6.92256110641311" id="-71050">
		<tag k="name" v="Rjukande" />
		<tag k="place" v="locality" />
		<tag k="ssr:stedsnr" v="341554" />
	</node>
	<node lat="60.46355277567826" lon="6.9085111106380115" id="-71051">
		<tag k="name" v="Oksle" />
		<tag k="place" v="locality" />
		<tag k="ssr:stedsnr" v="341557" />
	</node>
	<node lat="60.46565000079798" lon="6.882477780424691" id="-71052">
		<tag k="name" v="Ellingskor" />
		<tag k="place" v="locality" />
		<tag k="ssr:stedsnr" v="341560" />
	</node>
	<node lat="60.46321944848556" lon="6.879913887235298" id="-71053">
		<tag k="name" v="Øykjaskorane" />
		<tag k="place" v="locality" />
		<tag k="ssr:stedsnr" v="341561" />
	</node>
	<node lat="60.41134721959376" lon="7.296372220318155" id="-71054">
		<tag k="name" v="Storanes" />
		<tag k="place" v="locality" />
		<tag k="ssr:stedsnr" v="341714" />
	</node>
	<node lat="60.3944333317003" lon="7.141194442923296" id="-71055">
		<tag k="name" v="Tvinbro" />
		<tag k="place" v="locality" />
		<tag k="ssr:stedsnr" v="342254" />
	</node>
	<node lat="60.384436109513295" lon="7.163958335142858" id="-71056">
		<tag k="fixme" v="consider natural=peak for the most distinct mountains in the district" />
		<tag k="name" v="Kalvanuten" />
		<tag k="natural" v="hill" />
		<tag k="place" v="locality" />
		<tag k="ssr:stedsnr" v="342295" />
	</node>
	<node lat="60.34018889172645" lon="7.142136102369254" id="-71057">
		<tag k="name" v="Brenningane" />
		<tag k="place" v="locality" />
		<tag k="ssr:stedsnr" v="342348" />
	</node>
	<node lat="60.34153055979387" lon="7.123566672831195" id="-71058">
		<tag k="name" v="Branden" />
		<tag k="place" v="locality" />
		<tag k="ssr:stedsnr" v="342349" />
	</node>
	<node lat="60.427189558561516" lon="7.273426719800029" id="-71061">
		<tag k="alt_name" v="Roaldshaugen" />
		<tag k="name" v="Roaldshaug" />
		<tag k="natural" v="hill" />
		<tag k="place" v="locality" />
		<tag k="ssr:stedsnr" v="342599" />
	</node>
	<node lat="60.23653055160941" lon="7.503116675569629" id="-71075">
		<tag k="name" v="Sjonarhaug" />
		<tag k="natural" v="hill" />
		<tag k="place" v="locality" />
		<tag k="ssr:stedsnr" v="369667" />
	</node>
	<node lat="60.288505556043816" lon="7.461622222224995" id="-71078">
		<tag k="name" v="Gauteshaugane" />
		<tag k="natural" v="hill" />
		<tag k="place" v="locality" />
		<tag k="ssr:stedsnr" v="369904" />
	</node>
	<node lat="60.274216669337434" lon="7.542294443799249" id="-71080">
		<tag k="name" v="Gunnarsbotn" />
		<tag k="natural" v="valley" />
		<tag k="place" v="locality" />
		<tag k="ssr:stedsnr" v="369969" />
	</node>
	<node lat="60.538316670586326" lon="7.28582222825306" id="-71082">
		<tag k="name" v="Luraskor" />
		<tag k="place" v="locality" />
		<tag k="ssr:stedsnr" v="370165" />
	</node>
	<node lat="60.51672500120412" lon="7.301275007277382" id="-71085">
		<tag k="fixme" v="consider natural=peak for the most distinct mountains in the district" />
		<tag k="name" v="Moldnuten" />
		<tag k="natural" v="hill" />
		<tag k="place" v="locality" />
		<tag k="ssr:stedsnr" v="370276" />
	</node>
	<node lat="60.461783334374495" lon="6.901605562966133" id="-71089">
		<tag k="name" v="Bakkane" />
		<tag k="natural" v="slope" />
		<tag k="place" v="locality" />
		<tag k="ssr:stedsnr" v="402404" />
	</node>
	<node lat="60.41657221798562" lon="7.075491658593956" id="-71090">
		<tag k="name" v="Nonshaug" />
		<tag k="natural" v="hill" />
		<tag k="place" v="locality" />
		<tag k="ssr:stedsnr" v="402433" />
	</node>
	<node lat="60.41798055871021" lon="7.0750555593466125" id="-71091">
		<tag k="name" v="Steinarjuen" />
		<tag k="place" v="locality" />
		<tag k="ssr:stedsnr" v="402434" />
	</node>
	<node lat="60.510580553580205" lon="7.258663885784516" id="-71092">
		<tag k="name" v="Nollane" />
		<tag k="place" v="locality" />
		<tag k="ssr:stedsnr" v="402484" />
	</node>
	<node lat="60.37266111112042" lon="7.176497227765555" id="-71094">
		<tag k="name" v="Fjørungshaugen" />
		<tag k="natural" v="hill" />
		<tag k="place" v="locality" />
		<tag k="ssr:stedsnr" v="403279" />
	</node>
	<node lat="60.1569666674501" lon="7.312166671032946" id="-71106">
		<tag k="fixme" v="consider natural=peak for the most distinct mountains in the district" />
		<tag k="name" v="Bismarhei" />
		<tag k="natural" v="hill" />
		<tag k="place" v="locality" />
		<tag k="ssr:stedsnr" v="429302" />
	</node>
	<node lat="60.317572219087936" lon="7.52345000068823" id="-71109">
		<tag k="name" v="Steingardhæ" />
		<tag k="natural" v="hill" />
		<tag k="place" v="locality" />
		<tag k="ssr:stedsnr" v="490884" />
	</node>
	<node lat="60.44008055181868" lon="7.59562500111563" id="-71118">
		<tag k="name" v="Kjeldedalen" />
		<tag k="natural" v="valley" />
		<tag k="place" v="locality" />
		<tag k="ssr:stedsnr" v="430597" />
	</node>
	<node lat="60.305761107793266" lon="7.357274993519073" id="-71127">
		<tag k="name" v="Sildabuhallet" />
		<tag k="natural" v="slope" />
		<tag k="place" v="locality" />
		<tag k="ssr:stedsnr" v="430897" />
	</node>
	<node lat="60.530149997494256" lon="7.161255562033447" id="-71130">
		<tag k="fixme" v="consider natural=peak for the most distinct mountains in the district" />
		<tag k="name" v="Åsenfjellet" />
		<tag k="natural" v="hill" />
		<tag k="place" v="locality" />
		<tag k="ssr:stedsnr" v="491140" />
	</node>
	<node lat="60.554600000507996" lon="7.293124998279752" id="-71132">
		<tag k="name" v="Luranuten" />
		<tag k="natural" v="hill" />
		<tag k="place" v="locality" />
		<tag k="ssr:stedsnr" v="491169" />
	</node>
	<node lat="60.161680556064304" lon="7.4626611038291655" id="-71142">
		<tag k="name" v="Finnskjeggjo" />
		<tag k="natural" v="hill" />
		<tag k="place" v="locality" />
		<tag k="ssr:stedsnr" v="671735" />
	</node>
	<node lat="60.417377778783944" lon="7.39440000215381" id="-71147">
		<tag k="alt_name" v="Bjørkehaug" />
		<tag k="name" v="Bjørkhaugen" />
		<tag k="natural" v="hill" />
		<tag k="place" v="locality" />
		<tag k="ssr:stedsnr" v="672531" />
	</node>
	<node lat="60.367461111421406" lon="7.6568972300252085" id="-71153">
		<tag k="fixme" v="consider natural=peak for the most distinct mountains in the district" />
		<tag k="name" v="Lundhaukenutane" />
		<tag k="natural" v="hill" />
		<tag k="place" v="locality" />
		<tag k="ssr:stedsnr" v="672936" />
	</node>
	<node lat="60.53227500195505" lon="7.329180547883384" id="-71155">
		<tag k="fixme" v="consider natural=peak for the most distinct mountains in the district" />
		<tag k="name" v="Tresnuten" />
		<tag k="natural" v="hill" />
		<tag k="place" v="locality" />
		<tag k="ssr:stedsnr" v="673153" />
	</node>
	<node lat="60.44350555372079" lon="7.437077777964132" id="-71157">
		<tag k="name" v="Storaberget" />
		<tag k="natural" v="hill" />
		<tag k="place" v="locality" />
		<tag k="ssr:stedsnr" v="673602" />
	</node>
	<node lat="60.43740833557055" lon="7.293719435707993" id="-71161">
		<tag k="name" v="Hjallen" />
		<tag k="natural" v="gorge" />
		<tag k="ssr:stedsnr" v="462056" />
	</node>
	<node lat="60.32521111316168" lon="7.47662222143093" id="-71162">
		<tag k="fixme" v="consider natural=peak for the most distinct mountains in the district" />
		<tag k="name" v="Jenglenutane" />
		<tag k="natural" v="hill" />
		<tag k="place" v="locality" />
		<tag k="ssr:stedsnr" v="673897" />
	</node>
	<node lat="60.3366944434481" lon="7.624769436643349" id="-71163">
		<tag k="name" v="Håsteinen" />
		<tag k="natural" v="slope" />
		<tag k="place" v="locality" />
		<tag k="ssr:stedsnr" v="673899" />
	</node>
	<node lat="60.510502779334715" lon="7.214677772487645" id="-71165">
		<tag k="alt_name" v="Ulveskredgjeli" />
		<tag k="name" v="Ulvagilet" />
		<tag k="natural" v="valley" />
		<tag k="place" v="locality" />
		<tag k="ssr:stedsnr" v="674136" />
	</node>
	<node lat="60.42069166599991" lon="7.242977786357825" id="-71166">
		<tag k="name" v="Båsahaug" />
		<tag k="natural" v="hill" />
		<tag k="place" v="locality" />
		<tag k="ssr:stedsnr" v="463021" />
	</node>
	<node lat="60.39193611318601" lon="7.165538885915211" id="-71168">
		<tag k="name" v="Hellefjelldalen" />
		<tag k="natural" v="valley" />
		<tag k="place" v="locality" />
		<tag k="ssr:stedsnr" v="463259" />
	</node>
	<node lat="60.40118333558364" lon="7.127225006478169" id="-71169">
		<tag k="name" v="Bråbakkane" />
		<tag k="natural" v="slope" />
		<tag k="place" v="locality" />
		<tag k="ssr:stedsnr" v="463266" />
	</node>
	<node lat="60.46241944620437" lon="7.289580557597448" id="-71170">
		<tag k="fixme" v="consider natural=peak for the most distinct mountains in the district" />
		<tag k="name" v="Rauen" />
		<tag k="natural" v="hill" />
		<tag k="place" v="locality" />
		<tag k="ssr:stedsnr" v="463415" />
	</node>
	<node lat="60.467058333418336" lon="7.291702785819893" id="-71171">
		<tag k="name" v="Rjuperusti" />
		<tag k="natural" v="hill" />
		<tag k="place" v="locality" />
		<tag k="ssr:stedsnr" v="463417" />
	</node>
	<node lat="60.506427781096285" lon="7.023036106964565" id="-71173">
		<tag k="name" v="Rindane" />
		<tag k="place" v="locality" />
		<tag k="ssr:stedsnr" v="463318" />
	</node>
	<node lat="60.467608332663424" lon="7.009502783318634" id="-71176">
		<tag k="name" v="Johanshesjane" />
		<tag k="place" v="locality" />
		<tag k="ssr:stedsnr" v="463397" />
	</node>
	<node lat="60.4669805565019" lon="7.016816674061156" id="-71177">
		<tag k="name" v="Kristiskor" />
		<tag k="place" v="locality" />
		<tag k="ssr:stedsnr" v="463399" />
	</node>
	<node lat="60.51009999821767" lon="7.141249997768467" id="-71179">
		<tag k="name" v="Bakligilet" />
		<tag k="natural" v="valley" />
		<tag k="place" v="locality" />
		<tag k="ssr:stedsnr" v="674231" />
	</node>
	<node lat="60.50743333656257" lon="7.154675004078049" id="-71180">
		<tag k="fixme" v="consider natural=peak for the most distinct mountains in the district" />
		<tag k="name" v="Sænuten" />
		<tag k="natural" v="hill" />
		<tag k="place" v="locality" />
		<tag k="ssr:stedsnr" v="674233" />
	</node>
	<node lat="60.50975832968332" lon="7.238955555329129" id="-71182">
		<tag k="alt_name" v="Trondsnotten" />
		<tag k="fixme" v="consider natural=peak for the most distinct mountains in the district" />
		<tag k="name" v="Trondenotten" />
		<tag k="natural" v="hill" />
		<tag k="place" v="locality" />
		<tag k="ssr:stedsnr" v="674236" />
	</node>
	<node lat="60.50371666561053" lon="7.118208331784166" id="-71184">
		<tag k="name" v="Onagjeli" />
		<tag k="natural" v="gorge" />
		<tag k="ssr:stedsnr" v="463658" />
	</node>
	<node lat="60.414800002137845" lon="7.326177775133448" id="-71185">
		<tag k="name" v="Maursetlia" />
		<tag k="natural" v="slope" />
		<tag k="place" v="locality" />
		<tag k="ssr:stedsnr" v="463620" />
	</node>
	<node lat="60.420438891794284" lon="7.180849995682668" id="-71186">
		<tag k="fixme" v="consider natural=peak for the most distinct mountains in the district" />
		<tag k="name" v="Dansarnuten" />
		<tag k="natural" v="hill" />
		<tag k="place" v="locality" />
		<tag k="ssr:stedsnr" v="463703" />
	</node>
	<node lat="60.3783083295069" lon="7.502783330295" id="-71203">
		<tag k="fixme" v="consider natural=peak for the most distinct mountains in the district" />
		<tag k="name" v="Dyranutane" />
		<tag k="natural" v="hill" />
		<tag k="place" v="locality" />
		<tag k="ssr:stedsnr" v="490916" />
	</node>
	<node lat="60.43887499683351" lon="7.444769444296816" id="-71208">
		<tag k="name" v="Tverrlihaugen" />
		<tag k="natural" v="hill" />
		<tag k="place" v="locality" />
		<tag k="ssr:stedsnr" v="491604" />
	</node>
	<node lat="60.27957500287296" lon="7.542924999207698" id="-71217">
		<tag k="name" v="Gunnarshaug" />
		<tag k="natural" v="hill" />
		<tag k="place" v="locality" />
		<tag k="ssr:stedsnr" v="491979" />
	</node>
	<node lat="60.30582499650263" lon="7.40007777902249" id="-71219">
		<tag k="fixme" v="consider natural=peak for the most distinct mountains in the district" />
		<tag k="name" v="Nøkkanuten" />
		<tag k="natural" v="hill" />
		<tag k="place" v="locality" />
		<tag k="ssr:stedsnr" v="491896" />
	</node>
	<node lat="60.40766944877534" lon="7.2527361183448935" id="-71223">
		<tag k="name" v="Halsabrekka" />
		<tag k="natural" v="hill" />
		<tag k="place" v="locality" />
		<tag k="ssr:stedsnr" v="523003" />
	</node>
	<node lat="60.347127781755624" lon="7.1641472223839715" id="-71224">
		<tag k="name" v="Vierdalen" />
		<tag k="natural" v="valley" />
		<tag k="place" v="locality" />
		<tag k="ssr:stedsnr" v="523402" />
	</node>
	<node lat="60.33786666768253" lon="7.131269451928834" id="-71226">
		<tag k="name" v="Sprangdalen" />
		<tag k="natural" v="valley" />
		<tag k="place" v="locality" />
		<tag k="ssr:stedsnr" v="523422" />
	</node>
	<node lat="60.363891671147584" lon="7.1627944531482495" id="-71227">
		<tag k="name" v="Veierslabrekka" />
		<tag k="natural" v="slope" />
		<tag k="place" v="locality" />
		<tag k="ssr:stedsnr" v="523424" />
	</node>
	<node lat="60.509422226264384" lon="7.002444440520781" id="-71228">
		<tag k="name" v="Espeliskor" />
		<tag k="place" v="locality" />
		<tag k="ssr:stedsnr" v="523367" />
	</node>
	<node lat="60.50657500229615" lon="7.031052783592239" id="-71229">
		<tag k="name" v="Skårslia" />
		<tag k="natural" v="slope" />
		<tag k="place" v="locality" />
		<tag k="ssr:stedsnr" v="523371" />
	</node>
	<node lat="60.36387777700078" lon="7.2086749954602" id="-71230">
		<tag k="name" v="Berastølgjell" />
		<tag k="natural" v="gorge" />
		<tag k="ssr:stedsnr" v="523381" />
	</node>
	<node lat="60.506122224047125" lon="7.261427780106402" id="-71232">
		<tag k="name" v="Nongjeli" />
		<tag k="natural" v="gorge" />
		<tag k="ssr:stedsnr" v="523530" />
	</node>
	<node lat="60.4697861107418" lon="6.901713890189617" id="-71233">
		<tag k="name" v="Langaskor" />
		<tag k="place" v="locality" />
		<tag k="ssr:stedsnr" v="523566" />
	</node>
	<node lat="60.43222777468793" lon="7.098119443645861" id="-71234">
		<tag k="name" v="Selen" />
		<tag k="place" v="locality" />
		<tag k="ssr:stedsnr" v="524709" />
	</node>
	<node lat="60.43479722550639" lon="7.104380563746869" id="-71235">
		<tag k="name" v="Kjeskorane" />
		<tag k="place" v="locality" />
		<tag k="ssr:stedsnr" v="524713" />
	</node>
	<node lat="60.410250003466736" lon="7.201308324103173" id="-71237">
		<tag k="name" v="Bjørkemåna" />
		<tag k="place" v="locality" />
		<tag k="ssr:stedsnr" v="524650" />
	</node>
	<node lat="60.40170833729584" lon="7.463733324163069" id="-71247">
		<tag k="name" v="Norddalen" />
		<tag k="natural" v="valley" />
		<tag k="place" v="locality" />
		<tag k="ssr:stedsnr" v="551909" />
	</node>
	<node lat="60.406644442562744" lon="7.648133331384587" id="-71248">
		<tag k="fixme" v="consider natural=peak for the most distinct mountains in the district" />
		<tag k="name" v="Lågahæ" />
		<tag k="natural" v="hill" />
		<tag k="place" v="locality" />
		<tag k="ssr:stedsnr" v="551910" />
	</node>
	<node lat="60.535552780758806" lon="7.230244437358373" id="-71253">
		<tag k="fixme" v="consider natural=peak for the most distinct mountains in the district" />
		<tag k="name" v="Vardeskorvet" />
		<tag k="natural" v="hill" />
		<tag k="place" v="locality" />
		<tag k="ssr:stedsnr" v="552143" />
	</node>
	<node lat="60.51889999739663" lon="7.222424996404094" id="-71254">
		<tag k="alt_name" v="Hisskrednuten" />
		<tag k="fixme" v="consider natural=peak for the most distinct mountains in the district" />
		<tag k="name" v="Hiskrednuten" />
		<tag k="natural" v="hill" />
		<tag k="place" v="locality" />
		<tag k="ssr:stedsnr" v="552145" />
	</node>
	<node lat="60.467694448588254" lon="6.9627472264487595" id="-71264">
		<tag k="alt_name" v="Ruskegjel" />
		<tag k="name" v="Ruskegilet" />
		<tag k="natural" v="gorge" />
		<tag k="ssr:stedsnr" v="584403" />
	</node>
	<node lat="60.47013888964202" lon="6.927636103256953" id="-71265">
		<tag k="name" v="Smyttet" />
		<tag k="place" v="locality" />
		<tag k="ssr:stedsnr" v="584404" />
	</node>
	<node lat="60.44871944891269" lon="7.092277783208338" id="-71266">
		<tag k="name" v="Brunnateigen" />
		<tag k="place" v="locality" />
		<tag k="ssr:stedsnr" v="584414" />
	</node>
	<node lat="60.415925003373005" lon="7.068888886036755" id="-71267">
		<tag k="name" v="Aslakrindane" />
		<tag k="place" v="locality" />
		<tag k="ssr:stedsnr" v="584416" />
	</node>
	<node lat="60.46301666334707" lon="7.06279166649951" id="-71269">
		<tag k="name" v="Stangadalen" />
		<tag k="natural" v="valley" />
		<tag k="place" v="locality" />
		<tag k="ssr:stedsnr" v="584341" />
	</node>
	<node lat="60.36099722535792" lon="7.144358327021093" id="-71270">
		<tag k="name" v="Fosslia" />
		<tag k="natural" v="slope" />
		<tag k="place" v="locality" />
		<tag k="ssr:stedsnr" v="584345" />
	</node>
	<node lat="60.35502499999487" lon="7.132647227456806" id="-71271">
		<tag k="name" v="Hallet" />
		<tag k="place" v="locality" />
		<tag k="ssr:stedsnr" v="584350" />
	</node>
	<node lat="60.508686111802426" lon="7.017119453337869" id="-71272">
		<tag k="name" v="Stølslia" />
		<tag k="natural" v="slope" />
		<tag k="place" v="locality" />
		<tag k="ssr:stedsnr" v="584353" />
	</node>
	<node lat="60.46146389140101" lon="7.02734165747941" id="-71273">
		<tag k="fixme" v="consider natural=peak for the most distinct mountains in the district" />
		<tag k="name" v="Midnuten" />
		<tag k="natural" v="hill" />
		<tag k="old_name" v="Midnut" />
		<tag k="place" v="locality" />
		<tag k="ssr:stedsnr" v="584440" />
	</node>
	<node lat="60.467586111483975" lon="6.899963880146551" id="-71274">
		<tag k="name" v="Kolgrovehaugen" />
		<tag k="natural" v="hill" />
		<tag k="place" v="locality" />
		<tag k="ssr:stedsnr" v="584489" />
	</node>
	<node lat="60.41650833648326" lon="7.161802770295114" id="-71275">
		<tag k="name" v="Langhjadlen" />
		<tag k="place" v="locality" />
		<tag k="ssr:stedsnr" v="584700" />
	</node>
	<node lat="60.193986115265915" lon="7.251841669738534" id="-71279">
		<tag k="name" v="Olavsdalen" />
		<tag k="natural" v="valley" />
		<tag k="place" v="locality" />
		<tag k="ssr:stedsnr" v="611315" />
	</node>
	<node lat="60.404250004009945" lon="7.386136111699165" id="-71282">
		<tag k="alt_name" v="Skinnvelten" />
		<tag k="name" v="Skinnvelta" />
		<tag k="place" v="locality" />
		<tag k="ssr:stedsnr" v="611920" />
	</node>
	<node lat="60.314913891278586" lon="7.438450004428667" id="-71287">
		<tag k="fixme" v="consider natural=peak for the most distinct mountains in the district" />
		<tag k="name" v="Susaren" />
		<tag k="natural" v="hill" />
		<tag k="place" v="locality" />
		<tag k="ssr:stedsnr" v="612904" />
	</node>
	<node lat="60.50466111546553" lon="6.957716672477586" id="-71289">
		<tag k="fixme" v="consider natural=peak for the most distinct mountains in the district" />
		<tag k="name" v="Blåfjell" />
		<tag k="natural" v="hill" />
		<tag k="place" v="locality" />
		<tag k="ssr:stedsnr" v="613879" />
	</node>
	<node lat="60.43576110882489" lon="7.241055550763664" id="-71292">
		<tag k="name" v="Tyssvikhamrane" />
		<tag k="natural" v="hill" />
		<tag k="place" v="locality" />
		<tag k="ssr:stedsnr" v="705056" />
	</node>
	<node lat="60.481013885005076" lon="6.996827774909627" id="-71295">
		<tag k="name" v="Sansen" />
		<tag k="place" v="locality" />
		<tag k="ssr:stedsnr" v="705484" />
	</node>
	<node lat="60.492997226238" lon="7.077869446547268" id="-71296">
		<tag k="name" v="Seljeskor" />
		<tag k="place" v="locality" />
		<tag k="ssr:stedsnr" v="705489" />
	</node>
	<node lat="60.46654444542475" lon="6.883774993637033" id="-71297">
		<tag k="name" v="Kattugleberget" />
		<tag k="natural" v="hill" />
		<tag k="place" v="locality" />
		<tag k="ssr:stedsnr" v="705574" />
	</node>
	<node lat="60.4060694469255" lon="7.1283055554572075" id="-71299">
		<tag k="name" v="Vekti" />
		<tag k="place" v="locality" />
		<tag k="ssr:stedsnr" v="706228" />
	</node>
	<node lat="60.367038885152226" lon="7.139408339395928" id="-71301">
		<tag k="name" v="Vetleteigen" />
		<tag k="place" v="locality" />
		<tag k="ssr:stedsnr" v="706271" />
	</node>
	<node lat="60.3789055589578" lon="7.115366661416221" id="-71302">
		<tag k="name" v="Tverrlibrotet" />
		<tag k="place" v="locality" />
		<tag k="ssr:stedsnr" v="706276" />
	</node>
	<node lat="60.38321465297553" lon="7.1495460244595295" id="-71303">
		<tag k="name" v="Ådneshovden" />
		<tag k="natural" v="hill" />
		<tag k="place" v="locality" />
		<tag k="ssr:stedsnr" v="706281" />
	</node>
	<node lat="60.39566111383984" lon="7.157427781429782" id="-71304">
		<tag k="name" v="Hjambudalen" />
		<tag k="natural" v="valley" />
		<tag k="place" v="locality" />
		<tag k="ssr:stedsnr" v="706252" />
	</node>
	<node lat="60.38829444400693" lon="7.154616668093011" id="-71305">
		<tag k="name" v="Geithellerberget" />
		<tag k="place" v="locality" />
		<tag k="ssr:stedsnr" v="706256" />
	</node>
	<node lat="60.35195833478687" lon="7.130405561145194" id="-71307">
		<tag k="name" v="Blåaberget" />
		<tag k="natural" v="hill" />
		<tag k="place" v="locality" />
		<tag k="ssr:stedsnr" v="644337" />
	</node>
	<node lat="60.46113333454529" lon="6.88517778176307" id="-71308">
		<tag k="name" v="Einstaketreet" />
		<tag k="natural" v="slope" />
		<tag k="place" v="locality" />
		<tag k="ssr:stedsnr" v="644409" />
	</node>
	<node lat="60.423758330051335" lon="7.28223056459646" id="-71309">
		<tag k="name" v="Lisetlia" />
		<tag k="natural" v="slope" />
		<tag k="place" v="locality" />
		<tag k="ssr:stedsnr" v="644474" />
	</node>
	<node lat="60.3428777772873" lon="7.163611118821528" id="-71310">
		<tag k="name" v="Naglaskavlen" />
		<tag k="place" v="locality" />
		<tag k="ssr:stedsnr" v="644375" />
	</node>
	<node lat="60.46834444089592" lon="6.90756943901063" id="-71314">
		<tag k="name" v="Renneberget" />
		<tag k="natural" v="hill" />
		<tag k="place" v="locality" />
		<tag k="ssr:stedsnr" v="644529" />
	</node>
	<node lat="60.380947222397246" lon="7.161741667787814" id="-71316">
		<tag k="name" v="Fossbard" />
		<tag k="place" v="locality" />
		<tag k="ssr:stedsnr" v="645283" />
	</node>
	<node lat="60.422752777158685" lon="7.168316661021188" id="-71319">
		<tag k="name" v="Storlia" />
		<tag k="natural" v="slope" />
		<tag k="place" v="locality" />
		<tag k="ssr:stedsnr" v="645688" />
	</node>
	<node lat="60.420991664625255" lon="7.198752771792402" id="-71320">
		<tag k="name" v="Kyrkjeskorane" />
		<tag k="place" v="locality" />
		<tag k="ssr:stedsnr" v="645691" />
	</node>
	<node lat="60.425086111468346" lon="7.203211116016343" id="-71321">
		<tag k="name" v="Streitesdalen" />
		<tag k="natural" v="valley" />
		<tag k="place" v="locality" />
		<tag k="ssr:stedsnr" v="645695" />
	</node>
	<node lat="60.41875555942911" lon="7.119552771100855" id="-71322">
		<tag k="name" v="Hagaskarv" />
		<tag k="natural" v="valley" />
		<tag k="place" v="locality" />
		<tag k="ssr:stedsnr" v="645709" />
	</node>
	<node lat="60.414749996437386" lon="7.120063895813903" id="-71323">
		<tag k="name" v="Horni" />
		<tag k="place" v="locality" />
		<tag k="ssr:stedsnr" v="706682" />
	</node>
	<node lat="60.504311109657" lon="7.1480388801049415" id="-71324">
		<tag k="name" v="Ekregjeli" />
		<tag k="place" v="locality" />
		<tag k="ssr:stedsnr" v="706644" />
	</node>
	<node lat="60.43296389229471" lon="7.126783340768661" id="-71326">
		<tag k="name" v="Mjølstølsberget" />
		<tag k="natural" v="hill" />
		<tag k="place" v="locality" />
		<tag k="ssr:stedsnr" v="706732" />
	</node>
	<node lat="60.237488887747844" lon="7.25255833177981" id="-71328">
		<tag k="name" v="Granafeta" />
		<tag k="place" v="locality" />
		<tag k="ssr:stedsnr" v="672325" />
	</node>
	<node lat="60.125700001325015" lon="7.518969442763336" id="-71332">
		<tag k="fixme" v="consider natural=peak for the most distinct mountains in the district" />
		<tag k="name" v="Brakanuten" />
		<tag k="natural" v="hill" />
		<tag k="place" v="locality" />
		<tag k="ssr:stedsnr" v="672703" />
	</node>
	<node lat="60.54010277721581" lon="7.151155546528338" id="-71333">
		<tag k="name" v="Gruvlenuten" />
		<tag k="natural" v="hill" />
		<tag k="place" v="locality" />
		<tag k="ssr:stedsnr" v="673163" />
	</node>
	<node lat="60.447844445341616" lon="7.533538891175863" id="-71334">
		<tag k="name" v="Grunnsnjobotnane" />
		<tag k="natural" v="valley" />
		<tag k="place" v="locality" />
		<tag k="ssr:stedsnr" v="673605" />
	</node>
	<node lat="60.44831944711184" lon="7.3837083285944045" id="-71335">
		<tag k="name" v="Hallingspranget" />
		<tag k="place" v="locality" />
		<tag k="ssr:stedsnr" v="673607" />
	</node>
	<node lat="60.49308055603007" lon="7.534663887568386" id="-71337">
		<tag k="name" v="Lassheldreslaet" />
		<tag k="natural" v="valley" />
		<tag k="place" v="locality" />
		<tag k="ssr:stedsnr" v="673630" />
	</node>
	<node lat="60.407486108134016" lon="7.2699916635070085" id="-71341">
		<tag k="name" v="Fetaleitet" />
		<tag k="place" v="locality" />
		<tag k="ssr:stedsnr" v="673712" />
	</node>
	<node lat="60.33080277978402" lon="7.122636102040351" id="-71351">
		<tag k="name" v="Vesterlisnorret" />
		<tag k="place" v="locality" />
		<tag k="ssr:stedsnr" v="705406" />
	</node>
	<node lat="60.42100277710497" lon="7.136372227771338" id="-71354">
		<tag k="name" v="Steinberg" />
		<tag k="natural" v="hill" />
		<tag k="place" v="locality" />
		<tag k="ssr:stedsnr" v="706703" />
	</node>
	<node lat="60.4161944450689" lon="7.130438888449181" id="-71355">
		<tag k="name" v="Fleto" />
		<tag k="place" v="locality" />
		<tag k="ssr:stedsnr" v="706710" />
	</node>
	<node lat="60.4179083347943" lon="7.182202770352743" id="-71356">
		<tag k="name" v="Bjønnskor" />
		<tag k="place" v="locality" />
		<tag k="ssr:stedsnr" v="706659" />
	</node>
	<node lat="60.30088888918193" lon="7.563652770372473" id="-71370">
		<tag k="fixme" v="consider natural=peak for the most distinct mountains in the district" />
		<tag k="loc_name" v="Svintenuten" />
		<tag k="name" v="Trondsbunuten" />
		<tag k="natural" v="hill" />
		<tag k="place" v="locality" />
		<tag k="ssr:stedsnr" v="734893" />
	</node>
	<node lat="60.40589722056554" lon="7.276913888196223" id="-71373">
		<tag k="name" v="Fetaleitet" />
		<tag k="natural" v="slope" />
		<tag k="place" v="locality" />
		<tag k="ssr:stedsnr" v="765004" />
	</node>
	<node lat="60.33704721961005" lon="7.141833334996817" id="-71374">
		<tag k="name" v="Krukledokka" />
		<tag k="place" v="locality" />
		<tag k="ssr:stedsnr" v="766369" />
	</node>
	<node lat="60.41578333398054" lon="7.078519436345811" id="-71375">
		<tag k="name" v="Brattabrekka" />
		<tag k="natural" v="slope" />
		<tag k="place" v="locality" />
		<tag k="ssr:stedsnr" v="766396" />
	</node>
	<node lat="60.42402499931667" lon="7.080458332050756" id="-71376">
		<tag k="name" v="Buadalane" />
		<tag k="natural" v="valley" />
		<tag k="place" v="locality" />
		<tag k="ssr:stedsnr" v="766401" />
	</node>
	<node lat="60.46469444322386" lon="6.88735277275718" id="-71377">
		<tag k="name" v="Furudullen" />
		<tag k="natural" v="hill" />
		<tag k="place" v="locality" />
		<tag k="ssr:stedsnr" v="766509" />
	</node>
	<node lat="60.481902777021524" lon="7.003650001047305" id="-71378">
		<tag k="name" v="Veraklov" />
		<tag k="place" v="locality" />
		<tag k="ssr:stedsnr" v="766411" />
	</node>
	<node lat="60.4069888868389" lon="7.4053916694780995" id="-71379">
		<tag k="name" v="Sysenlia" />
		<tag k="natural" v="slope" />
		<tag k="place" v="locality" />
		<tag k="ssr:stedsnr" v="766465" />
	</node>
	<node lat="60.42643055176416" lon="7.175908331130609" id="-71381">
		<tag k="name" v="Ytstenotten" />
		<tag k="place" v="locality" />
		<tag k="ssr:stedsnr" v="766746" />
	</node>
	<node lat="60.3461805558272" lon="7.583499997436465" id="-71394">
		<tag k="name" v="Loftstovedalen" />
		<tag k="natural" v="valley" />
		<tag k="place" v="locality" />
		<tag k="ssr:stedsnr" v="794877" />
	</node>
	<node lat="60.306849995464596" lon="7.455394435703652" id="-71395">
		<tag k="name" v="Høgahæ" />
		<tag k="natural" v="hill" />
		<tag k="place" v="locality" />
		<tag k="ssr:stedsnr" v="794887" />
	</node>
	<node lat="60.522133332538466" lon="7.159605555979676" id="-71396">
		<tag k="name" v="Meisahøgda" />
		<tag k="natural" v="hill" />
		<tag k="place" v="locality" />
		<tag k="ssr:stedsnr" v="795163" />
	</node>
	<node lat="60.51108332907349" lon="7.186425008589562" id="-71397">
		<tag k="name" v="Skredåsgilet" />
		<tag k="natural" v="valley" />
		<tag k="place" v="locality" />
		<tag k="ssr:stedsnr" v="795172" />
	</node>
	<node lat="60.51695000245215" lon="7.0613833292462305" id="-71398">
		<tag k="fixme" v="consider natural=peak for the most distinct mountains in the district" />
		<tag k="name" v="Skorsonen" />
		<tag k="natural" v="hill" />
		<tag k="place" v="locality" />
		<tag k="ssr:stedsnr" v="795175" />
	</node>
	<node lat="60.50109999554089" lon="7.056199999960169" id="-71399">
		<tag k="fixme" v="consider natural=peak for the most distinct mountains in the district" />
		<tag k="name" v="Bytesbekknuten" />
		<tag k="natural" v="hill" />
		<tag k="place" v="locality" />
		<tag k="ssr:stedsnr" v="795276" />
	</node>
	<node lat="60.426316665626" lon="7.694000005849643" id="-71413">
		<tag k="name" v="Halnekollen" />
		<tag k="natural" v="hill" />
		<tag k="place" v="locality" />
		<tag k="ssr:stedsnr" v="915545" />
	</node>
	<node lat="60.431874999442336" lon="7.677188882199349" id="-71415">
		<tag k="name" v="Halnebotnane" />
		<tag k="natural" v="valley" />
		<tag k="place" v="locality" />
		<tag k="ssr:stedsnr" v="915554" />
	</node>
	<node lat="60.13853055134922" lon="7.530766675136094" id="-71419">
		<tag k="name" v="Grjothalsen" />
		<tag k="natural" v="hill" />
		<tag k="place" v="locality" />
		<tag k="ssr:stedsnr" v="915734" />
	</node>
	<node lat="60.39128611023699" lon="7.1293555600127245" id="-71420">
		<tag k="fixme" v="consider natural=peak for the most distinct mountains in the district" />
		<tag k="name" v="Veanuten" />
		<tag k="natural" v="hill" />
		<tag k="place" v="locality" />
		<tag k="ssr:stedsnr" v="916732" />
	</node>
	<node lat="60.51568037778053" lon="7.005504065089633" id="-71426">
		<tag k="alt_name" v="Grøndal" />
		<tag k="name" v="Grøndalen" />
		<tag k="natural" v="valley" />
		<tag k="place" v="locality" />
		<tag k="ssr:stedsnr" v="916149" />
	</node>
	<node lat="60.45813055873585" lon="7.496088890468895" id="-71427">
		<tag k="fixme" v="consider natural=peak for the most distinct mountains in the district" />
		<tag k="loc_name" v="Leirenuten" />
		<tag k="name" v="Leirnuten" />
		<tag k="natural" v="hill" />
		<tag k="place" v="locality" />
		<tag k="ssr:stedsnr" v="916618" />
	</node>
	<node lat="60.479627774798466" lon="7.680086115101241" id="-71428">
		<tag k="fixme" v="consider natural=peak for the most distinct mountains in the district" />
		<tag k="name" v="Andersbunuten" />
		<tag k="natural" v="hill" />
		<tag k="place" v="locality" />
		<tag k="ssr:stedsnr" v="916625" />
	</node>
	<node lat="60.48764166600878" lon="7.362752783839876" id="-71431">
		<tag k="name" v="Primbyttevardane" />
		<tag k="natural" v="hill" />
		<tag k="place" v="locality" />
		<tag k="ssr:stedsnr" v="916642" />
	</node>
	<node lat="60.51930000389836" lon="7.27662500119189" id="-71437">
		<tag k="fixme" v="consider natural=peak for the most distinct mountains in the district" />
		<tag k="name" v="Skoranuten" />
		<tag k="natural" v="hill" />
		<tag k="place" v="locality" />
		<tag k="ssr:stedsnr" v="917189" />
	</node>
	<node lat="60.439341665690755" lon="7.3000583410884925" id="-71443">
		<tag k="name" v="Fjellskar" />
		<tag k="natural" v="valley" />
		<tag k="place" v="locality" />
		<tag k="ssr:stedsnr" v="826077" />
	</node>
	<node lat="60.41423611170836" lon="7.075361109953422" id="-71444">
		<tag k="name" v="Marivollane" />
		<tag k="place" v="locality" />
		<tag k="ssr:stedsnr" v="827434" />
	</node>
	<node lat="60.469280559608045" lon="7.013833324579145" id="-71445">
		<tag k="name" v="Beggeskor" />
		<tag k="place" v="locality" />
		<tag k="ssr:stedsnr" v="827464" />
	</node>
	<node lat="60.46783889323575" lon="6.999258330246044" id="-71446">
		<tag k="name" v="Lessingaplassen" />
		<tag k="place" v="locality" />
		<tag k="ssr:stedsnr" v="827467" />
	</node>
	<node lat="60.46796388551765" lon="7.014716670161362" id="-71447">
		<tag k="name" v="Kalvaskorberget" />
		<tag k="place" v="locality" />
		<tag k="ssr:stedsnr" v="827470" />
	</node>
	<node lat="60.42524254998835" lon="7.2521444855186" id="-71448">
		<tag k="name" v="Trolladalen" />
		<tag k="natural" v="valley" />
		<tag k="place" v="locality" />
		<tag k="ssr:stedsnr" v="827717" />
	</node>
	<node lat="60.40234444187543" lon="7.130158334652572" id="-71449">
		<tag k="name" v="Rubbølet" />
		<tag k="place" v="locality" />
		<tag k="ssr:stedsnr" v="828212" />
	</node>
	<node lat="60.37828888440154" lon="7.140105553238145" id="-71450">
		<tag k="name" v="Bjørnskor" />
		<tag k="place" v="locality" />
		<tag k="ssr:stedsnr" v="828266" />
	</node>
	<node lat="60.478375002004526" lon="7.590750005081254" id="-71459">
		<tag k="name" v="Istjørnreset" />
		<tag k="natural" v="hill" />
		<tag k="place" v="locality" />
		<tag k="ssr:stedsnr" v="855605" />
	</node>
	<node lat="60.557655556425026" lon="7.260599993735487" id="-71467">
		<tag k="name" v="Raudhaugane" />
		<tag k="natural" v="hill" />
		<tag k="place" v="locality" />
		<tag k="ssr:stedsnr" v="856142" />
	</node>
	<node lat="60.451574999674705" lon="7.2768694453940705" id="-71483">
		<tag k="name" v="Insta Tyssviklia" />
		<tag k="natural" v="slope" />
		<tag k="place" v="locality" />
		<tag k="ssr:stedsnr" v="887059" />
	</node>
	<node lat="60.35686944663757" lon="7.158224992071844" id="-71484">
		<tag k="name" v="Sutarebrekka" />
		<tag k="natural" v="slope" />
		<tag k="place" v="locality" />
		<tag k="ssr:stedsnr" v="888316" />
	</node>
	<node lat="60.393116666783854" lon="7.137044453186675" id="-71485">
		<tag k="name" v="Løkena" />
		<tag k="place" v="locality" />
		<tag k="ssr:stedsnr" v="888245" />
	</node>
	<node lat="60.39865277680614" lon="7.130544446125521" id="-71486">
		<tag k="name" v="Seljeskorane" />
		<tag k="place" v="locality" />
		<tag k="ssr:stedsnr" v="888247" />
	</node>
	<node lat="60.39912222278367" lon="7.137158330084165" id="-71487">
		<tag k="name" v="Urdnahagen" />
		<tag k="place" v="locality" />
		<tag k="ssr:stedsnr" v="888248" />
	</node>
	<node lat="60.38251944423186" lon="7.146063884352135" id="-71488">
		<tag k="name" v="Tuftena" />
		<tag k="place" v="locality" />
		<tag k="ssr:stedsnr" v="888258" />
	</node>
	<node lat="60.365641665981585" lon="7.137105563347117" id="-71489">
		<tag k="name" v="Rjostet" />
		<tag k="place" v="locality" />
		<tag k="ssr:stedsnr" v="888302" />
	</node>
	<node lat="60.4542222243475" lon="7.318511114336301" id="-71490">
		<tag k="name" v="Liabøen" />
		<tag k="place" v="locality" />
		<tag k="ssr:stedsnr" v="888403" />
	</node>
	<node lat="60.46364999955726" lon="7.320166666922697" id="-71491">
		<tag k="name" v="Kleivane" />
		<tag k="natural" v="slope" />
		<tag k="place" v="locality" />
		<tag k="ssr:stedsnr" v="888399" />
	</node>
	<node lat="60.504911108835444" lon="7.259400007357972" id="-71492">
		<tag k="name" v="Kløvskotet" />
		<tag k="natural" v="hill" />
		<tag k="place" v="locality" />
		<tag k="ssr:stedsnr" v="888406" />
	</node>
	<node lat="60.49985555374683" lon="7.225252777826548" id="-71493">
		<tag k="name" v="Lii" />
		<tag k="natural" v="slope" />
		<tag k="place" v="locality" />
		<tag k="ssr:stedsnr" v="888407" />
	</node>
	<node lat="60.46710000331817" lon="6.8757611098199005" id="-71494">
		<tag k="name" v="Knutshaug" />
		<tag k="natural" v="hill" />
		<tag k="place" v="locality" />
		<tag k="ssr:stedsnr" v="888433" />
	</node>
	<node lat="60.46659722459176" lon="6.89895555021592" id="-71495">
		<tag k="name" v="Bratterinden" />
		<tag k="place" v="locality" />
		<tag k="ssr:stedsnr" v="888449" />
	</node>
	<node lat="60.46580833583297" lon="6.906152777391021" id="-71496">
		<tag k="name" v="Nautaskar" />
		<tag k="natural" v="valley" />
		<tag k="place" v="locality" />
		<tag k="ssr:stedsnr" v="888453" />
	</node>
	<node lat="60.44470832975086" lon="7.105811112005791" id="-71498">
		<tag k="name" v="Skulen" />
		<tag k="place" v="locality" />
		<tag k="ssr:stedsnr" v="888721" />
	</node>
	<node lat="60.50103611054595" lon="7.166616666595971" id="-71499">
		<tag k="name" v="Sopphagen" />
		<tag k="place" v="locality" />
		<tag k="ssr:stedsnr" v="888655" />
	</node>
	<node lat="60.386388884734004" lon="7.402202771627559" id="-71508">
		<tag k="name" v="Litlastølshallet" />
		<tag k="natural" v="slope" />
		<tag k="place" v="locality" />
		<tag k="ssr:stedsnr" v="915913" />
	</node>
	<node lat="60.51930555270255" lon="7.172374991672759" id="-71515">
		<tag k="fixme" v="consider natural=peak for the most distinct mountains in the district" />
		<tag k="name" v="Johannesnuten" />
		<tag k="natural" v="hill" />
		<tag k="place" v="locality" />
		<tag k="ssr:stedsnr" v="917111" />
	</node>
	<node lat="60.461958328845434" lon="7.066447213672473" id="-71518">
		<tag k="name" v="Esmarhaug" />
		<tag k="natural" v="hill" />
		<tag k="place" v="locality" />
		<tag k="ssr:stedsnr" v="948339" />
	</node>
	<node lat="60.45780555353894" lon="6.917841666967917" id="-71520">
		<tag k="name" v="Hjellen" />
		<tag k="place" v="locality" />
		<tag k="ssr:stedsnr" v="948402" />
	</node>
	<node lat="60.498913890285124" lon="7.233099997996521" id="-71521">
		<tag k="name" v="Baklia" />
		<tag k="natural" v="slope" />
		<tag k="place" v="locality" />
		<tag k="ssr:stedsnr" v="948532" />
	</node>
	<node lat="60.333677778677504" lon="7.140466657626049" id="-71522">
		<tag k="name" v="Fedlura" />
		<tag k="place" v="locality" />
		<tag k="ssr:stedsnr" v="948277" />
	</node>
	<node lat="60.46656666816735" lon="6.872097218895598" id="-71523">
		<tag k="name" v="Stigen" />
		<tag k="place" v="locality" />
		<tag k="ssr:stedsnr" v="948413" />
	</node>
	<node lat="60.458633332305645" lon="7.003063892748309" id="-71524">
		<tag k="name" v="Tretteslåtta" />
		<tag k="place" v="locality" />
		<tag k="ssr:stedsnr" v="948490" />
	</node>
	<node lat="60.40402778024302" lon="7.127019445532272" id="-71527">
		<tag k="name" v="Storaskramslaup" />
		<tag k="place" v="locality" />
		<tag k="ssr:stedsnr" v="949230" />
	</node>
	<node lat="60.405300000035304" lon="7.125986111746094" id="-71528">
		<tag k="name" v="Vetlaskramslaup" />
		<tag k="place" v="locality" />
		<tag k="ssr:stedsnr" v="949232" />
	</node>
	<node lat="60.39166388890639" lon="7.135777776786927" id="-71529">
		<tag k="name" v="Forvo" />
		<tag k="place" v="locality" />
		<tag k="ssr:stedsnr" v="949251" />
	</node>
	<node lat="60.37237222443335" lon="7.1700027764277765" id="-71530">
		<tag k="name" v="Skavlen" />
		<tag k="place" v="locality" />
		<tag k="ssr:stedsnr" v="949280" />
	</node>
	<node lat="60.37470555436007" lon="7.181394449539115" id="-71531">
		<tag k="name" v="Smyttet" />
		<tag k="place" v="locality" />
		<tag k="ssr:stedsnr" v="949282" />
	</node>
	<node lat="60.38313055409348" lon="7.16200556359994" id="-71532">
		<tag k="name" v="Hellabakkane" />
		<tag k="natural" v="slope" />
		<tag k="place" v="locality" />
		<tag k="ssr:stedsnr" v="949287" />
	</node>
	<node lat="60.419369446414926" lon="7.171372219524206" id="-71534">
		<tag k="name" v="Heimretveito" />
		<tag k="place" v="locality" />
		<tag k="ssr:stedsnr" v="949635" />
	</node>
	<node lat="60.415580556863496" lon="7.156597231203118" id="-71535">
		<tag k="name" v="Mylningstveito" />
		<tag k="natural" v="hill" />
		<tag k="place" v="locality" />
		<tag k="ssr:stedsnr" v="949637" />
	</node>
	<node lat="60.41394166761949" lon="7.1557750071812825" id="-71536">
		<tag k="name" v="Vetlahalltusslia" />
		<tag k="natural" v="slope" />
		<tag k="place" v="locality" />
		<tag k="ssr:stedsnr" v="949639" />
	</node>
	<node lat="60.20541111417465" lon="7.477775006731265" id="-71562">
		<tag k="fixme" v="consider natural=peak for the most distinct mountains in the district" />
		<tag k="name" v="Trondavadnutane" />
		<tag k="natural" v="hill" />
		<tag k="place" v="locality" />
		<tag k="ssr:stedsnr" v="5688" />
	</node>
	<node lat="60.45097777730072" lon="6.930869440602583" id="-71571">
		<tag k="fixme" v="consider natural=peak for the most distinct mountains in the district" />
		<tag k="name" v="Skoddedalsfjellet" />
		<tag k="natural" v="hill" />
		<tag k="place" v="locality" />
		<tag k="ssr:stedsnr" v="6364" />
	</node>
	<node lat="60.34576111040766" lon="7.137763890204367" id="-71575">
		<tag k="fixme" v="consider natural=peak for the most distinct mountains in the district" />
		<tag k="name" v="Øymarenuten" />
		<tag k="natural" v="hill" />
		<tag k="place" v="locality" />
		<tag k="ssr:stedsnr" v="38375" />
	</node>
	<node lat="60.42608611106048" lon="7.252833333391773" id="-71576">
		<tag k="name" v="Fossaskori" />
		<tag k="place" v="locality" />
		<tag k="ssr:stedsnr" v="38035" />
	</node>
	<node lat="60.40812222594" lon="7.127436111416092" id="-71577">
		<tag k="name" v="Haugane" />
		<tag k="natural" v="hill" />
		<tag k="place" v="locality" />
		<tag k="ssr:stedsnr" v="38293" />
	</node>
	<node lat="60.3929583336025" lon="7.391105553669894" id="-71578">
		<tag k="name" v="Storlia" />
		<tag k="natural" v="slope" />
		<tag k="place" v="locality" />
		<tag k="ssr:stedsnr" v="38480" />
	</node>
	<node lat="60.468013891164105" lon="6.8800138880600805" id="-71579">
		<tag k="name" v="Vika-løypet" />
		<tag k="place" v="locality" />
		<tag k="ssr:stedsnr" v="38491" />
	</node>
	<node lat="60.46517222086295" lon="7.079466671577396" id="-71580">
		<tag k="alt_name" v="Hereidsbrotet" />
		<tag k="name" v="Hæreidsbrotet" />
		<tag k="place" v="locality" />
		<tag k="ssr:stedsnr" v="38334" />
	</node>
	<node lat="60.45333333503745" lon="7.0665000088595" id="-71581">
		<tag k="name" v="Middagsgjeli" />
		<tag k="natural" v="gorge" />
		<tag k="ssr:stedsnr" v="38339" />
	</node>
	<node lat="60.363016663561936" lon="7.150424994329873" id="-71582">
		<tag k="fixme" v="consider natural=peak for the most distinct mountains in the district" />
		<tag k="name" v="Hundanipane" />
		<tag k="natural" v="hill" />
		<tag k="place" v="locality" />
		<tag k="ssr:stedsnr" v="38354" />
	</node>
	<node lat="60.473713885080116" lon="6.992580550457273" id="-71583">
		<tag k="name" v="Fletena" />
		<tag k="place" v="locality" />
		<tag k="ssr:stedsnr" v="38428" />
	</node>
	<node lat="60.47267499983204" lon="7.270605556090831" id="-71585">
		<tag k="name" v="Alhaugane" />
		<tag k="natural" v="hill" />
		<tag k="place" v="locality" />
		<tag k="ssr:stedsnr" v="38452" />
	</node>
	<node lat="60.403286109887475" lon="7.128583324453495" id="-71586">
		<tag k="name" v="Brakahjallane" />
		<tag k="place" v="locality" />
		<tag k="ssr:stedsnr" v="39192" />
	</node>
	<node lat="60.50402222062415" lon="7.20340833656898" id="-71587">
		<tag k="name" v="Veslehagen" />
		<tag k="place" v="locality" />
		<tag k="ssr:stedsnr" v="38669" />
	</node>
	<node lat="60.411469447580735" lon="7.1252055495852025" id="-71591">
		<tag k="name" v="Varaleitet" />
		<tag k="natural" v="slope" />
		<tag k="place" v="locality" />
		<tag k="ssr:stedsnr" v="38736" />
	</node>
	<node lat="60.410926549981" lon="7.119133472839825" id="-71592">
		<tag k="alt_name" v="Olmohjallen" />
		<tag k="name" v="Olmodhjallen" />
		<tag k="place" v="locality" />
		<tag k="ssr:stedsnr" v="38739" />
	</node>
	<node lat="60.41567777819011" lon="7.14721110569467" id="-71593">
		<tag k="name" v="Skamhjallen" />
		<tag k="place" v="locality" />
		<tag k="ssr:stedsnr" v="38746" />
	</node>
	<node lat="60.42231111426193" lon="7.205455563241804" id="-71594">
		<tag k="name" v="Kvernhushaugane" />
		<tag k="natural" v="hill" />
		<tag k="place" v="locality" />
		<tag k="ssr:stedsnr" v="38750" />
	</node>
	<node lat="60.42638055827122" lon="7.1803722265097285" id="-71595">
		<tag k="name" v="Instenotten" />
		<tag k="place" v="locality" />
		<tag k="ssr:stedsnr" v="38753" />
	</node>
	<node lat="60.373477780715525" lon="7.171594445128177" id="-71596">
		<tag k="name" v="Fjørungsdalen" />
		<tag k="natural" v="valley" />
		<tag k="place" v="locality" />
		<tag k="ssr:stedsnr" v="39245" />
	</node>
	<node lat="60.374436113696035" lon="7.180141674662134" id="-71597">
		<tag k="fixme" v="consider natural=peak for the most distinct mountains in the district" />
		<tag k="name" v="Smyttenuten" />
		<tag k="natural" v="hill" />
		<tag k="place" v="locality" />
		<tag k="ssr:stedsnr" v="39248" />
	</node>
	<node lat="60.13474999973066" lon="7.478411103612371" id="-71605">
		<tag k="name" v="Kjøthaug" />
		<tag k="natural" v="hill" />
		<tag k="place" v="locality" />
		<tag k="ssr:stedsnr" v="65727" />
	</node>
	<node lat="60.1592999994575" lon="7.395099994712359" id="-71607">
		<tag k="fixme" v="consider natural=peak for the most distinct mountains in the district" />
		<tag k="name" v="Dimmedalshæ" />
		<tag k="natural" v="hill" />
		<tag k="place" v="locality" />
		<tag k="ssr:stedsnr" v="65743" />
	</node>
	<node lat="60.517800001024334" lon="7.209833332833274" id="-71612">
		<tag k="fixme" v="consider natural=peak for the most distinct mountains in the district" />
		<tag k="name" v="Bjørnskornuten" />
		<tag k="natural" v="hill" />
		<tag k="place" v="locality" />
		<tag k="ssr:stedsnr" v="67151" />
	</node>
	<node lat="60.2700694479277" lon="7.404063888004294" id="-71622">
		<tag k="name" v="Gjermundshaug" />
		<tag k="natural" v="hill" />
		<tag k="place" v="locality" />
		<tag k="ssr:stedsnr" v="66965" />
	</node>
	<node lat="60.35916944185558" lon="7.544486118053165" id="-71623">
		<tag k="name" v="Larsbudalen" />
		<tag k="natural" v="valley" />
		<tag k="place" v="locality" />
		<tag k="ssr:stedsnr" v="66928" />
	</node>
	<node lat="60.5085000015258" lon="6.998074990940555" id="-71624">
		<tag k="name" v="Ramnaberget" />
		<tag k="natural" v="hill" />
		<tag k="place" v="locality" />
		<tag k="ssr:stedsnr" v="67269" />
	</node>
	<node lat="60.34060833399351" lon="7.130486118187482" id="-71630">
		<tag k="name" v="Bergalia" />
		<tag k="natural" v="slope" />
		<tag k="place" v="locality" />
		<tag k="ssr:stedsnr" v="99385" />
	</node>
	<node lat="60.46685833147835" lon="6.940125008853485" id="-71631">
		<tag k="fixme" v="consider natural=peak for the most distinct mountains in the district" />
		<tag k="name" v="Aldalenuten" />
		<tag k="natural" v="hill" />
		<tag k="place" v="locality" />
		<tag k="ssr:stedsnr" v="99396" />
	</node>
	<node lat="60.40554444392851" lon="7.1388277842516805" id="-71633">
		<tag k="name" v="Kast" />
		<tag k="place" v="locality" />
		<tag k="ssr:stedsnr" v="99253" />
	</node>
	<node lat="60.42042222457217" lon="7.278602780312342" id="-71635">
		<tag k="name" v="Leitet" />
		<tag k="natural" v="slope" />
		<tag k="place" v="locality" />
		<tag k="ssr:stedsnr" v="99031" />
	</node>
	<node lat="60.40118055784664" lon="7.133994439391019" id="-71636">
		<tag k="name" v="Pall" />
		<tag k="place" v="locality" />
		<tag k="ssr:stedsnr" v="99280" />
	</node>
	<node lat="60.40058888658929" lon="7.122086119855748" id="-71637">
		<tag k="name" v="Havragjøtta" />
		<tag k="place" v="locality" />
		<tag k="ssr:stedsnr" v="99290" />
	</node>
	<node lat="60.386494447310284" lon="7.155544446099677" id="-71638">
		<tag k="name" v="Rindane" />
		<tag k="place" v="locality" />
		<tag k="ssr:stedsnr" v="99292" />
	</node>
	<node lat="60.37551667075864" lon="7.14323333685432" id="-71639">
		<tag k="name" v="Storebakken" />
		<tag k="natural" v="slope" />
		<tag k="place" v="locality" />
		<tag k="ssr:stedsnr" v="99295" />
	</node>
	<node lat="60.46545277789147" lon="7.0664777853376854" id="-71641">
		<tag k="name" v="Sandgjeli" />
		<tag k="natural" v="gorge" />
		<tag k="ssr:stedsnr" v="99329" />
	</node>
	<node lat="60.469869440092964" lon="6.998361113163384" id="-71643">
		<tag k="name" v="Bulegena" />
		<tag k="place" v="locality" />
		<tag k="ssr:stedsnr" v="99426" />
	</node>
	<node lat="60.460919439974525" lon="7.011536103020469" id="-71644">
		<tag k="name" v="Berget" />
		<tag k="natural" v="hill" />
		<tag k="place" v="locality" />
		<tag k="ssr:stedsnr" v="99430" />
	</node>
	<node lat="60.464786108912634" lon="6.987916662494102" id="-71645">
		<tag k="name" v="Bjørnagjel" />
		<tag k="natural" v="gorge" />
		<tag k="ssr:stedsnr" v="99434" />
	</node>
	<node lat="60.46005833463392" lon="7.291455562675158" id="-71646">
		<tag k="name" v="Isdal" />
		<tag k="natural" v="valley" />
		<tag k="place" v="locality" />
		<tag k="ssr:stedsnr" v="99445" />
	</node>
	<node lat="60.4604055571619" lon="7.319477779736972" id="-71647">
		<tag k="name" v="Gløsarnollen" />
		<tag k="place" v="locality" />
		<tag k="ssr:stedsnr" v="99447" />
	</node>
	<node lat="60.507483333574434" lon="7.230516667759485" id="-71649">
		<tag k="name" v="Hiskredskorane" />
		<tag k="place" v="locality" />
		<tag k="ssr:stedsnr" v="99456" />
	</node>
	<node lat="60.41329999718866" lon="7.1093972233592835" id="-71651">
		<tag k="name" v="Segelhammar" />
		<tag k="natural" v="hill" />
		<tag k="place" v="locality" />
		<tag k="ssr:stedsnr" v="99743" />
	</node>
	<node lat="60.413083334521644" lon="7.141344451088375" id="-71652">
		<tag k="name" v="Vardbergskori" />
		<tag k="place" v="locality" />
		<tag k="ssr:stedsnr" v="99748" />
	</node>
	<node lat="60.41386666410956" lon="7.289930561799902" id="-71653">
		<tag k="name" v="Lialeitet" />
		<tag k="natural" v="slope" />
		<tag k="place" v="locality" />
		<tag k="ssr:stedsnr" v="99667" />
	</node>
	<node lat="60.42275277943027" lon="7.236533338473379" id="-71654">
		<tag k="name" v="Borddalen" />
		<tag k="natural" v="valley" />
		<tag k="place" v="locality" />
		<tag k="ssr:stedsnr" v="99696" />
	</node>
	<node lat="60.4230138879184" lon="7.289572224390952" id="-71655">
		<tag k="name" v="Bakkane" />
		<tag k="natural" v="slope" />
		<tag k="place" v="locality" />
		<tag k="ssr:stedsnr" v="99698" />
	</node>
	<node lat="60.43266111432403" lon="7.139780556913659" id="-71657">
		<tag k="name" v="Branden" />
		<tag k="place" v="locality" />
		<tag k="ssr:stedsnr" v="99790" />
	</node>
	<node lat="60.437161115193526" lon="7.100011103965942" id="-71658">
		<tag k="fixme" v="consider natural=peak for the most distinct mountains in the district" />
		<tag k="name" v="Langedalsnuten" />
		<tag k="natural" v="hill" />
		<tag k="place" v="locality" />
		<tag k="ssr:stedsnr" v="99799" />
	</node>
	<node lat="60.4521250020069" lon="6.849644450072556" id="-71663">
		<tag k="fixme" v="consider natural=peak for the most distinct mountains in the district" />
		<tag k="name" v="Bunuten" />
		<tag k="natural" v="hill" />
		<tag k="place" v="locality" />
		<tag k="ssr:stedsnr" v="126334" />
	</node>
	<node lat="60.40969444504291" lon="7.372663890215912" id="-71664">
		<tag k="name" v="Lokkebakknuten" />
		<tag k="natural" v="hill" />
		<tag k="place" v="locality" />
		<tag k="ssr:stedsnr" v="126564" />
	</node>
	<node lat="60.41721389261724" lon="7.147722218537802" id="-71671">
		<tag k="name" v="Måbødalen" />
		<tag k="natural" v="valley" />
		<tag k="place" v="locality" />
		<tag k="ssr:stedsnr" v="126687" />
	</node>
	<node lat="60.44555555564104" lon="7.57668333142549" id="-71675">
		<tag k="fixme" v="consider natural=peak for the most distinct mountains in the district" />
		<tag k="name" v="Dalborenuten" />
		<tag k="natural" v="hill" />
		<tag k="place" v="locality" />
		<tag k="ssr:stedsnr" v="127629" />
	</node>
	<node lat="60.42704787364531" lon="7.258223239521116" id="-71688">
		<tag k="alt_name" v="Fosslilia" />
		<tag k="name" v="Fossli" />
		<tag k="natural" v="slope" />
		<tag k="place" v="locality" />
		<tag k="ssr:stedsnr" v="159039" />
	</node>
	<node lat="60.50810555312995" lon="6.979588885185478" id="-71689">
		<tag k="name" v="Kjeskor" />
		<tag k="place" v="locality" />
		<tag k="ssr:stedsnr" v="159334" />
	</node>
	<node lat="60.3533916699959" lon="7.115755553583923" id="-71691">
		<tag k="fixme" v="consider natural=peak for the most distinct mountains in the district" />
		<tag k="name" v="Flathaug" />
		<tag k="natural" v="hill" />
		<tag k="place" v="locality" />
		<tag k="ssr:stedsnr" v="159341" />
	</node>
	<node lat="60.470213884569795" lon="6.936930547113857" id="-71692">
		<tag k="name" v="Skrantaløypet" />
		<tag k="place" v="locality" />
		<tag k="ssr:stedsnr" v="159429" />
	</node>
	<node lat="60.42521389017972" lon="7.0944916621900855" id="-71693">
		<tag k="name" v="Bygningen" />
		<tag k="place" v="locality" />
		<tag k="ssr:stedsnr" v="159446" />
	</node>
	<node lat="60.36445278063227" lon="7.20138333508623" id="-71694">
		<tag k="name" v="Husaskarv" />
		<tag k="natural" v="valley" />
		<tag k="place" v="locality" />
		<tag k="ssr:stedsnr" v="159374" />
	</node>
	<node lat="60.34574166952618" lon="7.149208336811543" id="-71695">
		<tag k="name" v="Liabaret" />
		<tag k="place" v="locality" />
		<tag k="ssr:stedsnr" v="159378" />
	</node>
	<node lat="60.34584722425337" lon="7.172999990981199" id="-71696">
		<tag k="fixme" v="consider natural=peak for the most distinct mountains in the district" />
		<tag k="name" v="Veslesåta" />
		<tag k="natural" v="hill" />
		<tag k="place" v="locality" />
		<tag k="ssr:stedsnr" v="159388" />
	</node>
	<node lat="60.39975833460839" lon="7.149894436081626" id="-71698">
		<tag k="name" v="Geitalia" />
		<tag k="natural" v="slope" />
		<tag k="place" v="locality" />
		<tag k="ssr:stedsnr" v="160231" />
	</node>
	<node lat="60.396997224252644" lon="7.1331666702363625" id="-71699">
		<tag k="name" v="Røyneskor" />
		<tag k="natural" v="hill" />
		<tag k="place" v="locality" />
		<tag k="ssr:stedsnr" v="160235" />
	</node>
	<node lat="60.34434999731944" lon="7.135141670754099" id="-71700">
		<tag k="fixme" v="consider natural=peak for the most distinct mountains in the district" />
		<tag k="name" v="Ørnarnuten" />
		<tag k="natural" v="hill" />
		<tag k="place" v="locality" />
		<tag k="ssr:stedsnr" v="160333" />
	</node>
	<node lat="60.38674166448976" lon="7.136972228319436" id="-71701">
		<tag k="name" v="Stakshogget" />
		<tag k="place" v="locality" />
		<tag k="ssr:stedsnr" v="160259" />
	</node>
	<node lat="60.386436112976256" lon="7.143333331540727" id="-71702">
		<tag k="name" v="Leitet" />
		<tag k="natural" v="slope" />
		<tag k="place" v="locality" />
		<tag k="ssr:stedsnr" v="160260" />
	</node>
	<node lat="60.497311115075746" lon="7.210847222718143" id="-71703">
		<tag k="name" v="Bjørnflot" />
		<tag k="place" v="locality" />
		<tag k="ssr:stedsnr" v="160597" />
	</node>
	<node lat="60.46649166773861" lon="7.099594435424926" id="-71705">
		<tag k="name" v="Nolten" />
		<tag k="place" v="locality" />
		<tag k="ssr:stedsnr" v="160616" />
	</node>
	<node lat="60.46588055927256" lon="7.1129750053758904" id="-71706">
		<tag k="fixme" v="consider natural=peak for the most distinct mountains in the district" />
		<tag k="name" v="Åsen" />
		<tag k="natural" v="hill" />
		<tag k="place" v="locality" />
		<tag k="ssr:stedsnr" v="160617" />
	</node>
	<node lat="60.496599998101736" lon="7.151258332709432" id="-71707">
		<tag k="name" v="Tveitane" />
		<tag k="natural" v="hill" />
		<tag k="place" v="locality" />
		<tag k="ssr:stedsnr" v="160619" />
	</node>
	<node lat="60.41431389047417" lon="7.160452773757815" id="-71709">
		<tag k="name" v="Halltusslia" />
		<tag k="natural" v="slope" />
		<tag k="place" v="locality" />
		<tag k="ssr:stedsnr" v="160637" />
	</node>
	<node lat="60.43191667103269" lon="7.135461118694042" id="-71711">
		<tag k="name" v="Notfane" />
		<tag k="place" v="locality" />
		<tag k="ssr:stedsnr" v="160697" />
	</node>
	<node lat="60.43523055997247" lon="7.100355554332261" id="-71712">
		<tag k="fixme" v="consider natural=peak for the most distinct mountains in the district" />
		<tag k="name" v="Skoradalsnuten" />
		<tag k="natural" v="hill" />
		<tag k="place" v="locality" />
		<tag k="ssr:stedsnr" v="160704" />
	</node>
	<node lat="60.43390833051995" lon="7.120950007417812" id="-71713">
		<tag k="name" v="Tambjørnhamren" />
		<tag k="natural" v="hill" />
		<tag k="place" v="locality" />
		<tag k="ssr:stedsnr" v="160708" />
	</node>
	<node lat="60.41315833434102" lon="7.181469443827339" id="-71714">
		<tag k="fixme" v="consider natural=peak for the most distinct mountains in the district" />
		<tag k="name" v="Tinden" />
		<tag k="natural" v="hill" />
		<tag k="place" v="locality" />
		<tag k="ssr:stedsnr" v="160647" />
	</node>
	<node lat="60.41232500442251" lon="7.203344444412392" id="-71715">
		<tag k="name" v="Ovnen" />
		<tag k="place" v="locality" />
		<tag k="ssr:stedsnr" v="160652" />
	</node>
	<node lat="60.41048055790201" lon="7.124680548743678" id="-71716">
		<tag k="name" v="Haugane" />
		<tag k="natural" v="hill" />
		<tag k="place" v="locality" />
		<tag k="ssr:stedsnr" v="160659" />
	</node>
	<node lat="60.41882778064868" lon="7.144383334698184" id="-71717">
		<tag k="name" v="Rodna" />
		<tag k="place" v="locality" />
		<tag k="ssr:stedsnr" v="160661" />
	</node>
	<node lat="60.410191664038635" lon="7.143322224694442" id="-71718">
		<tag k="name" v="Røysahjallane" />
		<tag k="place" v="locality" />
		<tag k="ssr:stedsnr" v="160674" />
	</node>
	<node lat="60.44473889275809" lon="7.122766671065331" id="-71719">
		<tag k="name" v="Skredkoilen" />
		<tag k="place" v="locality" />
		<tag k="ssr:stedsnr" v="160694" />
	</node>
	<node lat="60.343108335832405" lon="7.493972221435449" id="-71737">
		<tag k="name" v="Bjoreidalen" />
		<tag k="natural" v="valley" />
		<tag k="place" v="locality" />
		<tag k="ssr:stedsnr" v="187876" />
	</node>
	<node lat="60.4936583291153" lon="7.551475005972845" id="-71744">
		<tag k="fixme" v="consider natural=peak for the most distinct mountains in the district" />
		<tag k="name" v="Lassheldrenuten" />
		<tag k="natural" v="hill" />
		<tag k="place" v="locality" />
		<tag k="ssr:stedsnr" v="187567" />
	</node>
	<node lat="60.37171388872137" lon="7.154927783205242" id="-71751">
		<tag k="fixme" v="consider natural=peak for the most distinct mountains in the district" />
		<tag k="name" v="Veanuten" />
		<tag k="natural" v="hill" />
		<tag k="place" v="locality" />
		<tag k="ssr:stedsnr" v="188635" />
	</node>
	<node lat="60.50125555391127" lon="6.96523333046332" id="-71753">
		<tag k="name" v="Oksastod" />
		<tag k="natural" v="slope" />
		<tag k="place" v="locality" />
		<tag k="ssr:stedsnr" v="189005" />
	</node>
	<node lat="60.52080000125834" lon="7.238025004658465" id="-71754">
		<tag k="name" v="Grønedalen" />
		<tag k="natural" v="valley" />
		<tag k="place" v="locality" />
		<tag k="ssr:stedsnr" v="189210" />
	</node>
	<node lat="60.4039222221472" lon="7.134016665144121" id="-71763">
		<tag k="name" v="Kastdalen" />
		<tag k="natural" v="valley" />
		<tag k="place" v="locality" />
		<tag k="ssr:stedsnr" v="220301" />
	</node>
	<node lat="60.499202774831254" lon="7.246230564043676" id="-71764">
		<tag k="name" v="Svarthamrane" />
		<tag k="place" v="locality" />
		<tag k="ssr:stedsnr" v="220519" />
	</node>
	<node lat="60.391838892889226" lon="7.275155551207767" id="-71765">
		<tag k="name" v="Fjellhaug" />
		<tag k="natural" v="hill" />
		<tag k="place" v="locality" />
		<tag k="ssr:stedsnr" v="220063" />
	</node>
	<node lat="60.46397222642118" lon="6.871344445995725" id="-71767">
		<tag k="name" v="Elvahaugen" />
		<tag k="natural" v="hill" />
		<tag k="place" v="locality" />
		<tag k="ssr:stedsnr" v="220430" />
	</node>
	<node lat="60.43564444770198" lon="7.091077777023087" id="-71768">
		<tag k="name" v="Prestagardteigen" />
		<tag k="place" v="locality" />
		<tag k="ssr:stedsnr" v="220440" />
	</node>
	<node lat="60.431863886818675" lon="7.094211102691325" id="-71769">
		<tag k="name" v="Botnatræet" />
		<tag k="natural" v="slope" />
		<tag k="place" v="locality" />
		<tag k="ssr:stedsnr" v="220442" />
	</node>
	<node lat="60.48105833407834" lon="7.010252779799809" id="-71770">
		<tag k="name" v="Salbustad" />
		<tag k="place" v="locality" />
		<tag k="ssr:stedsnr" v="220461" />
	</node>
	<node lat="60.48166666805288" lon="6.998616675669382" id="-71771">
		<tag k="name" v="Stykket" />
		<tag k="place" v="locality" />
		<tag k="ssr:stedsnr" v="220466" />
	</node>
	<node lat="60.462394446328034" lon="6.897088888663217" id="-71774">
		<tag k="name" v="Bjørkeflaten" />
		<tag k="place" v="locality" />
		<tag k="ssr:stedsnr" v="220556" />
	</node>
	<node lat="60.379794448181826" lon="7.151205563561545" id="-71776">
		<tag k="name" v="Lynghaug" />
		<tag k="natural" v="hill" />
		<tag k="place" v="locality" />
		<tag k="ssr:stedsnr" v="221270" />
	</node>
	<node lat="60.44862222516901" lon="7.121077770434562" id="-71777">
		<tag k="name" v="Prestteigen" />
		<tag k="place" v="locality" />
		<tag k="ssr:stedsnr" v="221685" />
	</node>
	<node lat="60.433263892759086" lon="7.129100002503274" id="-71778">
		<tag k="name" v="Almflot" />
		<tag k="place" v="locality" />
		<tag k="ssr:stedsnr" v="221690" />
	</node>
	<node lat="60.375495162131024" lon="7.1548475423056" id="-71779">
		<tag k="name" v="Kvannagjeli" />
		<tag k="natural" v="gorge" />
		<tag k="ssr:stedsnr" v="221257" />
	</node>
	<node lat="60.38170833041328" lon="7.150927769711675" id="-71781">
		<tag k="name" v="Litlestigen" />
		<tag k="place" v="locality" />
		<tag k="ssr:stedsnr" v="221269" />
	</node>
	<node lat="60.41271389138982" lon="7.144455549524248" id="-71783">
		<tag k="name" v="Røysalia" />
		<tag k="natural" v="slope" />
		<tag k="place" v="locality" />
		<tag k="ssr:stedsnr" v="221643" />
	</node>
	<node lat="60.42727500426802" lon="7.190652771965718" id="-71784">
		<tag k="name" v="Idleskor" />
		<tag k="place" v="locality" />
		<tag k="ssr:stedsnr" v="221651" />
	</node>
	<node lat="60.42625555880244" lon="7.139816659609452" id="-71785">
		<tag k="name" v="Lundarhjallane" />
		<tag k="place" v="locality" />
		<tag k="ssr:stedsnr" v="221665" />
	</node>
	<node lat="60.42825833377824" lon="7.128102775498047" id="-71786">
		<tag k="name" v="Gråskallen" />
		<tag k="place" v="locality" />
		<tag k="ssr:stedsnr" v="221668" />
	</node>
	<node lat="60.424677779013045" lon="7.232808337613826" id="-71787">
		<tag k="name" v="Storegjel" />
		<tag k="place" v="locality" />
		<tag k="ssr:stedsnr" v="280043" />
	</node>
	<node lat="60.380722224063376" lon="7.15632777890714" id="-71788">
		<tag k="name" v="Sveena" />
		<tag k="place" v="locality" />
		<tag k="ssr:stedsnr" v="281337" />
	</node>
	<node lat="60.36197222185259" lon="7.139972228467227" id="-71790">
		<tag k="name" v="Botnen" />
		<tag k="natural" v="valley" />
		<tag k="place" v="locality" />
		<tag k="ssr:stedsnr" v="281355" />
	</node>
	<node lat="60.32427777464541" lon="7.146497228095208" id="-71791">
		<tag k="name" v="Streitesgjelet" />
		<tag k="place" v="locality" />
		<tag k="ssr:stedsnr" v="281286" />
	</node>
	<node lat="60.32440000247917" lon="7.128825005214915" id="-71792">
		<tag k="name" v="Kvølvet" />
		<tag k="place" v="locality" />
		<tag k="ssr:stedsnr" v="281287" />
	</node>
	<node lat="60.36554444245145" lon="7.15430833972146" id="-71793">
		<tag k="fixme" v="consider natural=peak for the most distinct mountains in the district" />
		<tag k="name" v="Hundanipane" />
		<tag k="natural" v="hill" />
		<tag k="place" v="locality" />
		<tag k="ssr:stedsnr" v="281391" />
	</node>
	<node lat="60.46757777375109" lon="6.888719447829703" id="-71794">
		<tag k="name" v="Høgasteg" />
		<tag k="place" v="locality" />
		<tag k="ssr:stedsnr" v="281499" />
	</node>
	<node lat="60.41319722163304" lon="7.2386249985869675" id="-71796">
		<tag k="name" v="Hølalii" />
		<tag k="natural" v="slope" />
		<tag k="place" v="locality" />
		<tag k="ssr:stedsnr" v="281697" />
	</node>
	<node lat="60.50275833720683" lon="7.016724993011702" id="-71797">
		<tag k="name" v="Skårsgjeli" />
		<tag k="natural" v="gorge" />
		<tag k="ssr:stedsnr" v="281365" />
	</node>
	<node lat="60.49581388950774" lon="7.041838892662294" id="-71798">
		<tag k="name" v="Salthelledalen" />
		<tag k="natural" v="valley" />
		<tag k="place" v="locality" />
		<tag k="ssr:stedsnr" v="281442" />
	</node>
	<node lat="60.46143889152591" lon="6.985024996206149" id="-71799">
		<tag k="name" v="Krossdalen" />
		<tag k="natural" v="valley" />
		<tag k="place" v="locality" />
		<tag k="ssr:stedsnr" v="281448" />
	</node>
	<node lat="60.462780556207925" lon="6.990674992397763" id="-71800">
		<tag k="name" v="Geitagjel" />
		<tag k="natural" v="gorge" />
		<tag k="ssr:stedsnr" v="281449" />
	</node>
	<node lat="60.4130666711346" lon="7.196747229552361" id="-71802">
		<tag k="name" v="Magnhildskor" />
		<tag k="place" v="locality" />
		<tag k="ssr:stedsnr" v="281734" />
	</node>
	<node lat="60.4257833374136" lon="7.18668055654568" id="-71804">
		<tag k="name" v="Klakjen" />
		<tag k="place" v="locality" />
		<tag k="ssr:stedsnr" v="281747" />
	</node>
	<node lat="60.47054722217989" lon="6.934030551856235" id="-71809">
		<tag k="name" v="Aldalane" />
		<tag k="natural" v="slope" />
		<tag k="place" v="locality" />
		<tag k="ssr:stedsnr" v="286972" />
	</node>
	<node lat="60.14677778155501" lon="7.246080563666071" id="-71814">
		<tag k="loc_name" v="Grjotfljått" />
		<tag k="name" v="Grotflott" />
		<tag k="natural" v="hill" />
		<tag k="place" v="locality" />
		<tag k="ssr:stedsnr" v="307345" />
	</node>
	<node lat="60.4165666699807" lon="7.362972220249157" id="-71816">
		<tag k="name" v="Rjuven" />
		<tag k="natural" v="hill" />
		<tag k="place" v="locality" />
		<tag k="ssr:stedsnr" v="308546" />
	</node>
	<node lat="60.21835277934529" lon="7.394791660332899" id="-71820">
		<tag k="fixme" v="consider natural=peak for the most distinct mountains in the district" />
		<tag k="name" v="Grønahæ" />
		<tag k="natural" v="hill" />
		<tag k="place" v="locality" />
		<tag k="ssr:stedsnr" v="308671" />
	</node>
	<node lat="60.326558330500816" lon="7.114227774250913" id="-71834">
		<tag k="name" v="Smyttet" />
		<tag k="place" v="locality" />
		<tag k="ssr:stedsnr" v="341280" />
	</node>
	<node lat="60.420844444324544" lon="7.4418388827245225" id="-71836">
		<tag k="name" v="Sysenlia" />
		<tag k="natural" v="slope" />
		<tag k="place" v="locality" />
		<tag k="ssr:stedsnr" v="341529" />
	</node>
	<node lat="60.50823055552707" lon="6.988416664661088" id="-71837">
		<tag k="name" v="Breiskor" />
		<tag k="place" v="locality" />
		<tag k="ssr:stedsnr" v="341357" />
	</node>
	<node lat="60.34324444221613" lon="7.1558250080447765" id="-71838">
		<tag k="name" v="Storlijuvet" />
		<tag k="place" v="locality" />
		<tag k="ssr:stedsnr" v="341390" />
	</node>
	<node lat="60.46952777947363" lon="7.089536102988851" id="-71839">
		<tag k="alt_name" v="Hereidsberget" />
		<tag k="name" v="Hæreidsberget" />
		<tag k="natural" v="hill" />
		<tag k="place" v="locality" />
		<tag k="ssr:stedsnr" v="341466" />
	</node>
	<node lat="60.46425833205767" lon="7.008844435877759" id="-71840">
		<tag k="name" v="Tunga" />
		<tag k="place" v="locality" />
		<tag k="ssr:stedsnr" v="341469" />
	</node>
	<node lat="60.42933333737916" lon="7.133458341024561" id="-71841">
		<tag k="name" v="Lundarliane" />
		<tag k="natural" v="slope" />
		<tag k="place" v="locality" />
		<tag k="ssr:stedsnr" v="342660" />
	</node>
	<node lat="60.49055277947969" lon="7.120127771028698" id="-71843">
		<tag k="name" v="Lynghaugen" />
		<tag k="natural" v="hill" />
		<tag k="place" v="locality" />
		<tag k="ssr:stedsnr" v="342631" />
	</node>
	<node lat="60.43213889216968" lon="7.072119440684691" id="-71845">
		<tag k="fixme" v="consider natural=peak for the most distinct mountains in the district" />
		<tag k="name" v="Nøkken" />
		<tag k="natural" v="hill" />
		<tag k="place" v="locality" />
		<tag k="ssr:stedsnr" v="346961" />
	</node>
	<node lat="60.3355722185244" lon="7.674875004606655" id="-71848">
		<tag k="fixme" v="consider natural=peak for the most distinct mountains in the district" />
		<tag k="name" v="Skaupsjøbrotet" />
		<tag k="natural" v="hill" />
		<tag k="place" v="locality" />
		<tag k="ssr:stedsnr" v="369878" />
	</node>
	<node lat="60.12068610873405" lon="7.487808332481581" id="-71851">
		<tag k="name" v="Holberget" />
		<tag k="natural" v="hill" />
		<tag k="place" v="locality" />
		<tag k="ssr:stedsnr" v="368753" />
	</node>
	<node lat="60.30005555407968" lon="7.219630559246145" id="-71855">
		<tag k="name" v="Rjotebotn" />
		<tag k="natural" v="valley" />
		<tag k="place" v="locality" />
		<tag k="ssr:stedsnr" v="369447" />
	</node>
	<node lat="60.22217500267144" lon="7.434213880464089" id="-71861">
		<tag k="name" v="Moldedalen" />
		<tag k="natural" v="valley" />
		<tag k="place" v="locality" />
		<tag k="ssr:stedsnr" v="369659" />
	</node>
	<node lat="60.48106389340279" lon="7.643325005315555" id="-71863">
		<tag k="fixme" v="consider natural=peak for the most distinct mountains in the district" />
		<tag k="name" v="Krobuhalsen" />
		<tag k="natural" v="hill" />
		<tag k="place" v="locality" />
		<tag k="ssr:stedsnr" v="369545" />
	</node>
	<node lat="60.48656667102476" lon="7.70344444915942" id="-71864">
		<tag k="fixme" v="consider natural=peak for the most distinct mountains in the district" />
		<tag k="name" v="Blåfjell" />
		<tag k="natural" v="hill" />
		<tag k="place" v="locality" />
		<tag k="ssr:stedsnr" v="369547" />
	</node>
	<node lat="60.4741111105022" lon="7.442538886495721" id="-71865">
		<tag k="fixme" v="consider natural=peak for the most distinct mountains in the district" />
		<tag k="name" v="Moldenutane" />
		<tag k="natural" v="hill" />
		<tag k="place" v="locality" />
		<tag k="ssr:stedsnr" v="369552" />
	</node>
	<node lat="60.39163888888307" lon="7.446533332479534" id="-71869">
		<tag k="name" v="Krossdalen" />
		<tag k="natural" v="valley" />
		<tag k="place" v="locality" />
		<tag k="ssr:stedsnr" v="369912" />
	</node>
	<node lat="60.37246111054043" lon="7.595669436936229" id="-71872">
		<tag k="fixme" v="consider natural=peak for the most distinct mountains in the district" />
		<tag k="name" v="Steinbunuten" />
		<tag k="natural" v="hill" />
		<tag k="place" v="locality" />
		<tag k="ssr:stedsnr" v="369921" />
	</node>
	<node lat="60.35632777571291" lon="7.495036115563383" id="-71874">
		<tag k="name" v="Nybunuten" />
		<tag k="natural" v="hill" />
		<tag k="place" v="locality" />
		<tag k="ssr:stedsnr" v="369930" />
	</node>
	<node lat="60.4635888871478" lon="7.060583327444193" id="-71881">
		<tag k="name" v="Gamlenausta" />
		<tag k="place" v="locality" />
		<tag k="ssr:stedsnr" v="402352" />
	</node>
	<node lat="60.36506944135906" lon="7.148447230151582" id="-71882">
		<tag k="name" v="Buadalen" />
		<tag k="natural" v="valley" />
		<tag k="place" v="locality" />
		<tag k="ssr:stedsnr" v="402353" />
	</node>
	<node lat="60.353058331986915" lon="7.139269449387297" id="-71883">
		<tag k="loc_name" v="Haraldshaugane" />
		<tag k="name" v="Harahaugane" />
		<tag k="natural" v="hill" />
		<tag k="place" v="locality" />
		<tag k="ssr:stedsnr" v="402356" />
	</node>
	<node lat="60.35599999588352" lon="7.125969442237612" id="-71885">
		<tag k="name" v="Vivegjelet" />
		<tag k="natural" v="gorge" />
		<tag k="ssr:stedsnr" v="402358" />
	</node>
	<node lat="60.36031388499596" lon="7.173116667579961" id="-71886">
		<tag k="loc_name" v="Djupsgjela" />
		<tag k="name" v="Djupsgjellet" />
		<tag k="natural" v="gorge" />
		<tag k="ssr:stedsnr" v="402372" />
	</node>
	<node lat="60.43329722293331" lon="7.241588881456219" id="-71887">
		<tag k="name" v="Tyssviklia" />
		<tag k="natural" v="slope" />
		<tag k="place" v="locality" />
		<tag k="ssr:stedsnr" v="401042" />
	</node>
	<node lat="60.44084166786936" lon="7.266091673697614" id="-71888">
		<tag k="name" v="Kapteinshaug" />
		<tag k="natural" v="hill" />
		<tag k="place" v="locality" />
		<tag k="ssr:stedsnr" v="401049" />
	</node>
	<node lat="60.47642777849292" lon="6.992866673084114" id="-71889">
		<tag k="name" v="Nedre Mjostølen" />
		<tag k="place" v="locality" />
		<tag k="ssr:stedsnr" v="402436" />
	</node>
	<node lat="60.47621944791563" lon="7.0098972220396405" id="-71891">
		<tag k="name" v="Gryvlet" />
		<tag k="place" v="locality" />
		<tag k="ssr:stedsnr" v="402439" />
	</node>
	<node lat="60.479194443061644" lon="7.023366662102716" id="-71892">
		<tag k="name" v="Kassabløyta" />
		<tag k="place" v="locality" />
		<tag k="ssr:stedsnr" v="402441" />
	</node>
	<node lat="60.369455557488344" lon="7.1576333333475475" id="-71894">
		<tag k="name" v="Heiane" />
		<tag k="place" v="locality" />
		<tag k="ssr:stedsnr" v="402316" />
	</node>
	<node lat="60.457938885328126" lon="6.905136118273917" id="-71895">
		<tag k="name" v="Tungeteigen" />
		<tag k="place" v="locality" />
		<tag k="ssr:stedsnr" v="402400" />
	</node>
	<node lat="60.46871110750272" lon="6.910163880798755" id="-71897">
		<tag k="name" v="Orrahaugen" />
		<tag k="natural" v="hill" />
		<tag k="place" v="locality" />
		<tag k="ssr:stedsnr" v="402520" />
	</node>
	<node lat="60.46268333744922" lon="7.012758340082312" id="-71898">
		<tag k="name" v="Rindane" />
		<tag k="place" v="locality" />
		<tag k="ssr:stedsnr" v="402469" />
	</node>
	<node lat="60.50717500102956" lon="7.173344438541285" id="-71899">
		<tag k="name" v="Hagaskor" />
		<tag k="place" v="locality" />
		<tag k="ssr:stedsnr" v="402734" />
	</node>
	<node lat="60.378427778858224" lon="7.16617221680229" id="-71904">
		<tag k="name" v="Trugastreitet" />
		<tag k="place" v="locality" />
		<tag k="ssr:stedsnr" v="403283" />
	</node>
	<node lat="60.34202222673779" lon="7.138541666801739" id="-71905">
		<tag k="name" v="Geitaryggen" />
		<tag k="natural" v="ridge" />
		<tag k="place" v="locality" />
		<tag k="ssr:stedsnr" v="403343" />
	</node>
	<node lat="60.42738888738362" lon="7.127941675067796" id="-71906">
		<tag k="name" v="Rossaskori" />
		<tag k="place" v="locality" />
		<tag k="ssr:stedsnr" v="403698" />
	</node>
	<node lat="60.4327916640752" lon="7.5243888964890155" id="-71917">
		<tag k="fixme" v="consider natural=peak for the most distinct mountains in the district" />
		<tag k="name" v="Fisketjørnnuten" />
		<tag k="natural" v="hill" />
		<tag k="place" v="locality" />
		<tag k="ssr:stedsnr" v="430590" />
	</node>
	<node lat="60.476352779650256" lon="7.152722223675458" id="-71923">
		<tag k="fixme" v="consider natural=peak for the most distinct mountains in the district" />
		<tag k="name" v="Trælhaug" />
		<tag k="natural" v="hill" />
		<tag k="place" v="locality" />
		<tag k="ssr:stedsnr" v="430634" />
	</node>
	<node lat="60.50814999826683" lon="7.0636500006655005" id="-71934">
		<tag k="name" v="Hotlegilet" />
		<tag k="natural" v="valley" />
		<tag k="place" v="locality" />
		<tag k="ssr:stedsnr" v="431158" />
	</node>
	<node lat="60.552180554830635" lon="7.2738777833933925" id="-71935">
		<tag k="name" v="Kyrkja" />
		<tag k="natural" v="hill" />
		<tag k="place" v="locality" />
		<tag k="ssr:stedsnr" v="431162" />
	</node>
	<node lat="60.42532500167998" lon="7.252769448126801" id="-71949">
		<tag k="name" v="Trolldalen" />
		<tag k="natural" v="valley" />
		<tag k="place" v="locality" />
		<tag k="ssr:stedsnr" v="523049" />
	</node>
	<node lat="60.40727499597919" lon="7.125955562477527" id="-71950">
		<tag k="name" v="Molen" />
		<tag k="place" v="locality" />
		<tag k="ssr:stedsnr" v="523269" />
	</node>
	<node lat="60.326475004107664" lon="7.14190833969176" id="-71951">
		<tag k="name" v="Streitet" />
		<tag k="place" v="locality" />
		<tag k="ssr:stedsnr" v="523274" />
	</node>
	<node lat="60.35128889078089" lon="7.124094451584035" id="-71953">
		<tag k="fixme" v="consider natural=peak for the most distinct mountains in the district" />
		<tag k="name" v="Vivhalsane" />
		<tag k="natural" v="hill" />
		<tag k="place" v="locality" />
		<tag k="ssr:stedsnr" v="523399" />
	</node>
	<node lat="60.49286944392788" lon="7.09329722979124" id="-71955">
		<tag k="name" v="Byteshelleteigen" />
		<tag k="place" v="locality" />
		<tag k="ssr:stedsnr" v="523482" />
	</node>
	<node lat="60.45996667095027" lon="7.096013897242563" id="-71956">
		<tag k="name" v="Vassbakkane" />
		<tag k="natural" v="slope" />
		<tag k="place" v="locality" />
		<tag k="ssr:stedsnr" v="523341" />
	</node>
	<node lat="60.45569444290004" lon="7.049700004074948" id="-71957">
		<tag k="fixme" v="consider natural=peak for the most distinct mountains in the district" />
		<tag k="name" v="Ulvskjaftnuten" />
		<tag k="natural" v="hill" />
		<tag k="place" v="locality" />
		<tag k="ssr:stedsnr" v="523345" />
	</node>
	<node lat="60.46744444745639" lon="6.935677777796271" id="-71958">
		<tag k="name" v="Skranten" />
		<tag k="place" v="locality" />
		<tag k="ssr:stedsnr" v="523441" />
	</node>
	<node lat="60.46828333256358" lon="6.978016660259246" id="-71959">
		<tag k="name" v="Røvahiet" />
		<tag k="place" v="locality" />
		<tag k="ssr:stedsnr" v="523442" />
	</node>
	<node lat="60.46197221946312" lon="6.894124997631895" id="-71960">
		<tag k="name" v="Navragjelet" />
		<tag k="place" v="locality" />
		<tag k="ssr:stedsnr" v="523444" />
	</node>
	<node lat="60.465075002004916" lon="6.9342361021775405" id="-71962">
		<tag k="name" v="Bulegena" />
		<tag k="place" v="locality" />
		<tag k="ssr:stedsnr" v="523452" />
	</node>
	<node lat="60.46671389268834" lon="7.024841666449827" id="-71963">
		<tag k="name" v="Matbotnen" />
		<tag k="natural" v="valley" />
		<tag k="place" v="locality" />
		<tag k="ssr:stedsnr" v="523498" />
	</node>
	<node lat="60.511124996880206" lon="7.177583338662054" id="-71964">
		<tag k="name" v="Seljeskor" />
		<tag k="place" v="locality" />
		<tag k="ssr:stedsnr" v="524626" />
	</node>
	<node lat="60.50246944513141" lon="7.181511113829002" id="-71965">
		<tag k="alt_name" v="Medhushagen" />
		<tag k="name" v="Midhushagen" />
		<tag k="place" v="locality" />
		<tag k="ssr:stedsnr" v="524629" />
	</node>
	<node lat="60.37266944573542" lon="7.165863896944833" id="-71968">
		<tag k="fixme" v="consider natural=peak for the most distinct mountains in the district" />
		<tag k="name" v="Lambahaug" />
		<tag k="natural" v="hill" />
		<tag k="place" v="locality" />
		<tag k="ssr:stedsnr" v="524271" />
	</node>
	<node lat="60.39250833190667" lon="7.150505562685868" id="-71969">
		<tag k="name" v="Røysaberget" />
		<tag k="place" v="locality" />
		<tag k="ssr:stedsnr" v="524242" />
	</node>
	<node lat="60.42761944446287" lon="7.1848833285472" id="-71972">
		<tag k="name" v="Tveitaskora" />
		<tag k="natural" v="hill" />
		<tag k="place" v="locality" />
		<tag k="ssr:stedsnr" v="524670" />
	</node>
	<node lat="60.41935833240252" lon="7.135449995866689" id="-71973">
		<tag k="name" v="Vardbergshaugen" />
		<tag k="natural" v="hill" />
		<tag k="place" v="locality" />
		<tag k="ssr:stedsnr" v="524684" />
	</node>
	<node lat="60.41703611533264" lon="7.116805558224277" id="-71974">
		<tag k="name" v="Duhamrane" />
		<tag k="place" v="locality" />
		<tag k="ssr:stedsnr" v="524688" />
	</node>
	<node lat="60.23163611128187" lon="7.57905555848216" id="-71976">
		<tag k="name" v="Vombsflatane" />
		<tag k="place" v="locality" />
		<tag k="ssr:stedsnr" v="551276" />
	</node>
	<node lat="60.16356944778242" lon="7.372666669642251" id="-71979">
		<tag k="name" v="Dimmedalen" />
		<tag k="natural" v="valley" />
		<tag k="place" v="locality" />
		<tag k="ssr:stedsnr" v="550690" />
	</node>
	<node lat="60.41662500186145" lon="7.44690278001927" id="-71982">
		<tag k="fixme" v="consider natural=peak for the most distinct mountains in the district" />
		<tag k="name" v="Kvannjolenuten" />
		<tag k="natural" v="hill" />
		<tag k="place" v="locality" />
		<tag k="ssr:stedsnr" v="551566" />
	</node>
	<node lat="60.49517777805393" lon="7.069938887820374" id="-71993">
		<tag k="fixme" v="consider natural=peak for the most distinct mountains in the district" />
		<tag k="name" v="Støla" />
		<tag k="natural" v="hill" />
		<tag k="place" v="locality" />
		<tag k="ssr:stedsnr" v="551637" />
	</node>
	<node lat="60.5723500043338" lon="7.320833329273245" id="-72001">
		<tag k="fixme" v="consider natural=peak for the most distinct mountains in the district" />
		<tag k="name" v="Ramnabergnuten" />
		<tag k="natural" v="hill" />
		<tag k="place" v="locality" />
		<tag k="ssr:stedsnr" v="552177" />
	</node>
	<node lat="60.503483330427684" lon="7.262449997728368" id="-72002">
		<tag k="name" v="Storhaugen" />
		<tag k="natural" v="hill" />
		<tag k="place" v="locality" />
		<tag k="ssr:stedsnr" v="552268" />
	</node>
	<node lat="60.5087499957594" lon="7.255875008356683" id="-72003">
		<tag k="fixme" v="consider natural=peak for the most distinct mountains in the district" />
		<tag k="name" v="Pikkenollen" />
		<tag k="natural" v="hill" />
		<tag k="place" v="locality" />
		<tag k="ssr:stedsnr" v="552269" />
	</node>
	<node lat="60.38002221923756" lon="7.142002782517734" id="-72012">
		<tag k="name" v="Seljeskorane" />
		<tag k="place" v="locality" />
		<tag k="ssr:stedsnr" v="584308" />
	</node>
	<node lat="60.36706944695691" lon="7.159580548150144" id="-72013">
		<tag k="name" v="Bratteskavlen" />
		<tag k="place" v="locality" />
		<tag k="ssr:stedsnr" v="584316" />
	</node>
	<node lat="60.37988888498654" lon="7.162927769148062" id="-72014">
		<tag k="name" v="Bjørnabrekka" />
		<tag k="natural" v="slope" />
		<tag k="place" v="locality" />
		<tag k="ssr:stedsnr" v="584328" />
	</node>
	<node lat="60.3809222191423" lon="7.176313884888801" id="-72015">
		<tag k="name" v="Krukledokka" />
		<tag k="place" v="locality" />
		<tag k="ssr:stedsnr" v="584329" />
	</node>
	<node lat="60.45311944709605" lon="7.092263896852409" id="-72016">
		<tag k="name" v="Ferjestøet" />
		<tag k="place" v="locality" />
		<tag k="ssr:stedsnr" v="584332" />
	</node>
	<node lat="60.4555805590951" lon="7.060399992308187" id="-72017">
		<tag k="name" v="Lægreidslia" />
		<tag k="natural" v="slope" />
		<tag k="place" v="locality" />
		<tag k="ssr:stedsnr" v="584334" />
	</node>
	<node lat="60.36568888885106" lon="7.157722227477908" id="-72018">
		<tag k="name" v="Røysaskavlen" />
		<tag k="place" v="locality" />
		<tag k="ssr:stedsnr" v="584389" />
	</node>
	<node lat="60.46176944227241" lon="6.866413890806064" id="-72020">
		<tag k="name" v="Selshaug" />
		<tag k="natural" v="hill" />
		<tag k="place" v="locality" />
		<tag k="ssr:stedsnr" v="584400" />
	</node>
	<node lat="60.46826944001024" lon="6.884472218398969" id="-72022">
		<tag k="alt_name" v="Kobbastilla" />
		<tag k="name" v="Kobbastillet" />
		<tag k="place" v="locality" />
		<tag k="ssr:stedsnr" v="584492" />
	</node>
	<node lat="60.346950000254864" lon="7.141105556311858" id="-72023">
		<tag k="name" v="Ruskedalen" />
		<tag k="natural" v="valley" />
		<tag k="place" v="locality" />
		<tag k="ssr:stedsnr" v="584372" />
	</node>
	<node lat="60.3517305514416" lon="7.167488890115494" id="-72024">
		<tag k="name" v="Brotetrommi" />
		<tag k="place" v="locality" />
		<tag k="ssr:stedsnr" v="584376" />
	</node>
	<node lat="60.33543333423488" lon="7.157277774436342" id="-72025">
		<tag k="name" v="Fljotebaret" />
		<tag k="place" v="locality" />
		<tag k="ssr:stedsnr" v="584377" />
	</node>
	<node lat="60.51423333279092" lon="7.25570278673711" id="-72026">
		<tag k="name" v="Hjallane" />
		<tag k="natural" v="ridge" />
		<tag k="place" v="locality" />
		<tag k="ssr:stedsnr" v="584456" />
	</node>
	<node lat="60.50546111352652" lon="7.220450006225231" id="-72027">
		<tag k="name" v="Stokkateigen" />
		<tag k="place" v="locality" />
		<tag k="ssr:stedsnr" v="584458" />
	</node>
	<node lat="60.412124999539294" lon="7.186347216929686" id="-72030">
		<tag k="name" v="Yksnarlia" />
		<tag k="natural" v="slope" />
		<tag k="place" v="locality" />
		<tag k="ssr:stedsnr" v="584716" />
	</node>
	<node lat="60.42211666288676" lon="7.171416664713544" id="-72031">
		<tag k="name" v="Storeskor" />
		<tag k="place" v="locality" />
		<tag k="ssr:stedsnr" v="584730" />
	</node>
	<node lat="60.41056110896216" lon="7.133283325083705" id="-72032">
		<tag k="name" v="Handaberg" />
		<tag k="place" v="locality" />
		<tag k="ssr:stedsnr" v="584737" />
	</node>
	<node lat="60.438552776931616" lon="7.100402779284012" id="-72034">
		<tag k="fixme" v="consider natural=peak for the most distinct mountains in the district" />
		<tag k="name" v="Svartedalsnuten" />
		<tag k="natural" v="hill" />
		<tag k="place" v="locality" />
		<tag k="ssr:stedsnr" v="584759" />
	</node>
	<node lat="60.37032222156325" lon="7.181116671341357" id="-72035">
		<tag k="name" v="Bjørkehaugen" />
		<tag k="natural" v="hill" />
		<tag k="place" v="locality" />
		<tag k="ssr:stedsnr" v="584763" />
	</node>
	<node lat="60.43214446704371" lon="7.398607702733888" id="-72044">
		<tag k="alt_name" v="Hansalinut" />
		<tag k="name" v="Hansalinuten" />
		<tag k="natural" v="hill" />
		<tag k="place" v="locality" />
		<tag k="ssr:stedsnr" v="611580" />
	</node>
	<node lat="60.35136666237042" lon="7.596630549191828" id="-72062">
		<tag k="name" v="Hella blå" />
		<tag k="natural" v="slope" />
		<tag k="place" v="locality" />
		<tag k="ssr:stedsnr" v="612882" />
	</node>
	<node lat="60.31956389002079" lon="7.629811111721486" id="-72065">
		<tag k="fixme" v="consider natural=peak for the most distinct mountains in the district" />
		<tag k="name" v="Jakobsbunuten" />
		<tag k="natural" v="hill" />
		<tag k="place" v="locality" />
		<tag k="ssr:stedsnr" v="612901" />
	</node>
	<node lat="60.45851667100697" lon="7.051769445344282" id="-72079">
		<tag k="name" v="Fosslia" />
		<tag k="natural" v="slope" />
		<tag k="place" v="locality" />
		<tag k="ssr:stedsnr" v="644312" />
	</node>
	<node lat="60.45705555433721" lon="7.061138893533631" id="-72080">
		<tag k="name" v="Heggjarapen" />
		<tag k="place" v="locality" />
		<tag k="ssr:stedsnr" v="644313" />
	</node>
	<node lat="60.494538885033684" lon="7.047941671152286" id="-72082">
		<tag k="name" v="Kyrkjeteigen" />
		<tag k="place" v="locality" />
		<tag k="ssr:stedsnr" v="644450" />
	</node>
	<node lat="60.32551666326807" lon="7.156100007487405" id="-72083">
		<tag k="name" v="Sandvadleitet" />
		<tag k="natural" v="slope" />
		<tag k="place" v="locality" />
		<tag k="ssr:stedsnr" v="644269" />
	</node>
	<node lat="60.32963055670115" lon="7.1301805540269205" id="-72084">
		<tag k="name" v="Bytesdalen" />
		<tag k="natural" v="valley" />
		<tag k="place" v="locality" />
		<tag k="ssr:stedsnr" v="644272" />
	</node>
	<node lat="60.50529444538868" lon="6.994169448380241" id="-72085">
		<tag k="name" v="Torsteinsgjøtta" />
		<tag k="place" v="locality" />
		<tag k="ssr:stedsnr" v="644343" />
	</node>
	<node lat="60.33611944537591" lon="7.164641664442562" id="-72086">
		<tag k="name" v="Tryglabrekka" />
		<tag k="natural" v="slope" />
		<tag k="place" v="locality" />
		<tag k="ssr:stedsnr" v="644367" />
	</node>
	<node lat="60.362622218318" lon="7.1619194430683875" id="-72087">
		<tag k="name" v="Veiersla" />
		<tag k="place" v="locality" />
		<tag k="ssr:stedsnr" v="644379" />
	</node>
	<node lat="60.44168611451322" lon="7.077361109677104" id="-72089">
		<tag k="name" v="Spannsdalen" />
		<tag k="natural" v="valley" />
		<tag k="place" v="locality" />
		<tag k="ssr:stedsnr" v="644419" />
	</node>
	<node lat="60.46609444329095" lon="6.916263890729479" id="-72090">
		<tag k="name" v="Kvannagjelet" />
		<tag k="natural" v="gorge" />
		<tag k="ssr:stedsnr" v="644539" />
	</node>
	<node lat="60.47631388717091" lon="7.1000527756490515" id="-72092">
		<tag k="name" v="Ormagjeli" />
		<tag k="place" v="locality" />
		<tag k="ssr:stedsnr" v="645637" />
	</node>
	<node lat="60.51034167074176" lon="7.18311388468856" id="-72094">
		<tag k="fixme" v="consider natural=peak for the most distinct mountains in the district" />
		<tag k="name" v="Skredånsnuten" />
		<tag k="natural" v="hill" />
		<tag k="place" v="locality" />
		<tag k="ssr:stedsnr" v="645656" />
	</node>
	<node lat="60.372386111332624" lon="7.110719439416315" id="-72095">
		<tag k="name" v="Fjellskor" />
		<tag k="place" v="locality" />
		<tag k="ssr:stedsnr" v="645262" />
	</node>
	<node lat="60.49991110782605" lon="7.220513888409308" id="-72110">
		<tag k="name" v="Fonnarleina" />
		<tag k="natural" v="slope" />
		<tag k="place" v="locality" />
		<tag k="ssr:stedsnr" v="735238" />
	</node>
	<node lat="60.37212777868693" lon="7.275566670897328" id="-72112">
		<tag k="fixme" v="consider natural=peak for the most distinct mountains in the district" />
		<tag k="name" v="Fruo" />
		<tag k="natural" v="hill" />
		<tag k="place" v="locality" />
		<tag k="ssr:stedsnr" v="733519" />
	</node>
	<node lat="60.42439167127561" lon="6.905616674604497" id="-72123">
		<tag k="name" v="Vassdalen" />
		<tag k="natural" v="valley" />
		<tag k="place" v="locality" />
		<tag k="ssr:stedsnr" v="734391" />
	</node>
	<node lat="60.46953055346778" lon="7.444774996228398" id="-72125">
		<tag k="name" v="Moldedalen" />
		<tag k="natural" v="valley" />
		<tag k="place" v="locality" />
		<tag k="ssr:stedsnr" v="734640" />
	</node>
	<node lat="60.57551667074667" lon="7.287319437215859" id="-72128">
		<tag k="fixme" v="consider natural=peak for the most distinct mountains in the district" />
		<tag k="name" v="Svartrandane" />
		<tag k="natural" v="hill" />
		<tag k="place" v="locality" />
		<tag k="ssr:stedsnr" v="735164" />
	</node>
	<node lat="60.417452777844105" lon="7.140150004498039" id="-72135">
		<tag k="name" v="Klyvet" />
		<tag k="place" v="locality" />
		<tag k="ssr:stedsnr" v="766731" />
	</node>
	<node lat="60.416330551823336" lon="7.146205547132043" id="-72136">
		<tag k="name" v="Løefloten" />
		<tag k="place" v="locality" />
		<tag k="ssr:stedsnr" v="766735" />
	</node>
	<node lat="60.408700000088835" lon="7.125199997398422" id="-72137">
		<tag k="name" v="Mylningstveiti" />
		<tag k="natural" v="hill" />
		<tag k="place" v="locality" />
		<tag k="ssr:stedsnr" v="766248" />
	</node>
	<node lat="60.331000002314944" lon="7.150152769808289" id="-72138">
		<tag k="name" v="Ormsdalen" />
		<tag k="natural" v="valley" />
		<tag k="place" v="locality" />
		<tag k="ssr:stedsnr" v="766255" />
	</node>
	<node lat="60.365013893046154" lon="7.205630554213286" id="-72140">
		<tag k="name" v="Leitet" />
		<tag k="natural" v="slope" />
		<tag k="place" v="locality" />
		<tag k="ssr:stedsnr" v="766343" />
	</node>
	<node lat="60.46156389285032" lon="6.912438891183579" id="-72141">
		<tag k="name" v="Bjoanasvo" />
		<tag k="place" v="locality" />
		<tag k="ssr:stedsnr" v="766378" />
	</node>
	<node lat="60.468605556899895" lon="6.952177771229838" id="-72142">
		<tag k="name" v="Roynebotn" />
		<tag k="natural" v="valley" />
		<tag k="place" v="locality" />
		<tag k="ssr:stedsnr" v="766382" />
	</node>
	<node lat="60.44011111017621" lon="7.086349995855244" id="-72143">
		<tag k="name" v="Kvamslia" />
		<tag k="natural" v="slope" />
		<tag k="place" v="locality" />
		<tag k="ssr:stedsnr" v="766387" />
	</node>
	<node lat="60.40593333297836" lon="7.37196667516244" id="-72144">
		<tag k="name" v="Armoddalane" />
		<tag k="natural" v="valley" />
		<tag k="place" v="locality" />
		<tag k="ssr:stedsnr" v="766457" />
	</node>
	<node lat="60.47233055429807" lon="7.088724997121559" id="-72145">
		<tag k="name" v="Vindoksli" />
		<tag k="natural" v="slope" />
		<tag k="place" v="locality" />
		<tag k="ssr:stedsnr" v="766426" />
	</node>
	<node lat="60.47259444468212" lon="7.282166664195464" id="-72146">
		<tag k="fixme" v="consider natural=peak for the most distinct mountains in the district" />
		<tag k="name" v="Svolnos" />
		<tag k="natural" v="hill" />
		<tag k="place" v="locality" />
		<tag k="ssr:stedsnr" v="766436" />
	</node>
	<node lat="60.419413889871535" lon="7.105591659661459" id="-72148">
		<tag k="name" v="Stegabergskori" />
		<tag k="place" v="locality" />
		<tag k="ssr:stedsnr" v="766764" />
	</node>
	<node lat="60.369719441897445" lon="7.19367222151182" id="-72149">
		<tag k="name" v="Deildarkedalen" />
		<tag k="natural" v="valley" />
		<tag k="place" v="locality" />
		<tag k="ssr:stedsnr" v="766776" />
	</node>
	<node lat="60.39400277702185" lon="7.137955550670019" id="-72151">
		<tag k="name" v="Fjøringen" />
		<tag k="place" v="locality" />
		<tag k="ssr:stedsnr" v="767260" />
	</node>
	<node lat="60.38296111505547" lon="7.114827785362776" id="-72153">
		<tag k="name" v="Togafeti" />
		<tag k="place" v="locality" />
		<tag k="ssr:stedsnr" v="767276" />
	</node>
	<node lat="60.38310555937866" lon="7.110927769808447" id="-72154">
		<tag k="name" v="Togahaugen" />
		<tag k="natural" v="hill" />
		<tag k="place" v="locality" />
		<tag k="ssr:stedsnr" v="767278" />
	</node>
	<node lat="60.381013891970554" lon="7.126716662289537" id="-72156">
		<tag k="name" v="Langedalen" />
		<tag k="natural" v="valley" />
		<tag k="place" v="locality" />
		<tag k="ssr:stedsnr" v="767282" />
	</node>
	<node lat="60.43884166954516" lon="7.103355553603994" id="-72158">
		<tag k="name" v="Kattagjøtta" />
		<tag k="place" v="locality" />
		<tag k="ssr:stedsnr" v="767713" />
	</node>
	<node lat="60.4330166637302" lon="7.105183340757091" id="-72159">
		<tag k="name" v="Lindetoni" />
		<tag k="place" v="locality" />
		<tag k="ssr:stedsnr" v="767724" />
	</node>
	<node lat="60.440766668269326" lon="7.103333327201206" id="-72160">
		<tag k="name" v="Slaet" />
		<tag k="place" v="locality" />
		<tag k="ssr:stedsnr" v="767728" />
	</node>
	<node lat="60.18174166500398" lon="7.267402784889325" id="-72163">
		<tag k="fixme" v="consider natural=peak for the most distinct mountains in the district" />
		<tag k="name" v="Fljåene" />
		<tag k="natural" v="hill" />
		<tag k="place" v="locality" />
		<tag k="ssr:stedsnr" v="793349" />
	</node>
	<node lat="60.1291555581011" lon="7.383008329281055" id="-72164">
		<tag k="name" v="Nøkkjabotnane" />
		<tag k="natural" v="valley" />
		<tag k="place" v="locality" />
		<tag k="ssr:stedsnr" v="793751" />
	</node>
	<node lat="60.30387777807476" lon="7.191441675439067" id="-72167">
		<tag k="name" v="Køyrsleslaet" />
		<tag k="natural" v="hill" />
		<tag k="place" v="locality" />
		<tag k="ssr:stedsnr" v="794494" />
	</node>
	<node lat="60.447183330887235" lon="7.441991672098759" id="-72168">
		<tag k="name" v="Bjørnanuten" />
		<tag k="natural" v="hill" />
		<tag k="place" v="locality" />
		<tag k="ssr:stedsnr" v="794584" />
	</node>
	<node lat="60.445677778558974" lon="7.4955361148670105" id="-72169">
		<tag k="name" v="Holsnehallet" />
		<tag k="natural" v="slope" />
		<tag k="place" v="locality" />
		<tag k="ssr:stedsnr" v="794586" />
	</node>
	<node lat="60.39845555359225" lon="7.29835277352252" id="-72182">
		<tag k="name" v="Fetalia" />
		<tag k="natural" v="slope" />
		<tag k="place" v="locality" />
		<tag k="ssr:stedsnr" v="794699" />
	</node>
	<node lat="60.3556333316974" lon="7.163766661112993" id="-72196">
		<tag k="name" v="Broto" />
		<tag k="place" v="locality" />
		<tag k="ssr:stedsnr" v="827379" />
	</node>
	<node lat="60.33863611326031" lon="7.166616660161315" id="-72197">
		<tag k="name" v="Feiensbrekka" />
		<tag k="natural" v="slope" />
		<tag k="place" v="locality" />
		<tag k="ssr:stedsnr" v="827386" />
	</node>
	<node lat="60.42268055428577" lon="7.228144446505727" id="-72198">
		<tag k="name" v="Natten" />
		<tag k="place" v="locality" />
		<tag k="ssr:stedsnr" v="827029" />
	</node>
	<node lat="60.43048333073235" lon="7.272772227605397" id="-72199">
		<tag k="name" v="Bjørkehaug" />
		<tag k="natural" v="hill" />
		<tag k="place" v="locality" />
		<tag k="ssr:stedsnr" v="827035" />
	</node>
	<node lat="60.43933055834168" lon="7.255500006267703" id="-72200">
		<tag k="name" v="Tyssvikdalen" />
		<tag k="natural" v="valley" />
		<tag k="place" v="locality" />
		<tag k="ssr:stedsnr" v="827042" />
	</node>
	<node lat="60.45525833238462" lon="7.086497216585317" id="-72201">
		<tag k="name" v="Vasshjallane" />
		<tag k="place" v="locality" />
		<tag k="ssr:stedsnr" v="827338" />
	</node>
	<node lat="60.34908611397799" lon="7.147877785571001" id="-72202">
		<tag k="name" v="Torsteinsdalen" />
		<tag k="natural" v="valley" />
		<tag k="place" v="locality" />
		<tag k="ssr:stedsnr" v="827359" />
	</node>
	<node lat="60.480725002581615" lon="6.990605549183261" id="-72203">
		<tag k="name" v="Grotet" />
		<tag k="place" v="locality" />
		<tag k="ssr:stedsnr" v="827439" />
	</node>
	<node lat="60.46824166487846" lon="6.87338889712641" id="-72206">
		<tag k="name" v="Nautafloten" />
		<tag k="place" v="locality" />
		<tag k="ssr:stedsnr" v="827519" />
	</node>
	<node lat="60.466949999667754" lon="6.90289444510668" id="-72207">
		<tag k="name" v="Moni" />
		<tag k="place" v="locality" />
		<tag k="ssr:stedsnr" v="827528" />
	</node>
	<node lat="60.471047224881026" lon="6.913269450307289" id="-72208">
		<tag k="name" v="Sauatræet" />
		<tag k="natural" v="slope" />
		<tag k="place" v="locality" />
		<tag k="ssr:stedsnr" v="827531" />
	</node>
	<node lat="60.46408332941792" lon="6.875536119725574" id="-72209">
		<tag k="name" v="Mjølkehaug" />
		<tag k="natural" v="hill" />
		<tag k="place" v="locality" />
		<tag k="ssr:stedsnr" v="827538" />
	</node>
	<node lat="60.388230554399975" lon="7.1647805632366115" id="-72210">
		<tag k="name" v="Hjølmosetstrupen" />
		<tag k="place" v="locality" />
		<tag k="ssr:stedsnr" v="828233" />
	</node>
	<node lat="60.38691388738475" lon="7.149183336872837" id="-72212">
		<tag k="name" v="Espeskorane" />
		<tag k="place" v="locality" />
		<tag k="ssr:stedsnr" v="828276" />
	</node>
	<node lat="60.37361944133787" lon="7.2016666682624795" id="-72213">
		<tag k="name" v="Berastøllegena" />
		<tag k="place" v="locality" />
		<tag k="ssr:stedsnr" v="828288" />
	</node>
	<node lat="60.376247217900534" lon="7.167200004667941" id="-72214">
		<tag k="name" v="Sisyrja" />
		<tag k="place" v="locality" />
		<tag k="ssr:stedsnr" v="828293" />
	</node>
	<node lat="60.38918888452492" lon="7.139888885950253" id="-72215">
		<tag k="name" v="Stegane" />
		<tag k="place" v="locality" />
		<tag k="ssr:stedsnr" v="828240" />
	</node>
	<node lat="60.37052222522198" lon="7.136052779278598" id="-72216">
		<tag k="name" v="Almstøet" />
		<tag k="place" v="locality" />
		<tag k="ssr:stedsnr" v="828256" />
	</node>
	<node lat="60.4595666649118" lon="7.107247220820574" id="-72217">
		<tag k="name" v="Gyllaskorane" />
		<tag k="place" v="locality" />
		<tag k="ssr:stedsnr" v="828642" />
	</node>
	<node lat="60.417666667016796" lon="7.156591669402846" id="-72218">
		<tag k="name" v="Lauvhjadlen" />
		<tag k="place" v="locality" />
		<tag k="ssr:stedsnr" v="828649" />
	</node>
	<node lat="60.41206111386353" lon="7.165541668046334" id="-72219">
		<tag k="name" v="Kvannaskornotten" />
		<tag k="place" v="locality" />
		<tag k="ssr:stedsnr" v="828650" />
	</node>
	<node lat="60.41709166380562" lon="7.174433326599239" id="-72220">
		<tag k="name" v="Nautabakken" />
		<tag k="natural" v="slope" />
		<tag k="place" v="locality" />
		<tag k="ssr:stedsnr" v="828658" />
	</node>
	<node lat="60.426552774038974" lon="7.109147226664661" id="-72222">
		<tag k="name" v="Kvitura" />
		<tag k="place" v="locality" />
		<tag k="ssr:stedsnr" v="828695" />
	</node>
	<node lat="60.51538611188839" lon="7.079375009016296" id="-72227">
		<tag k="fixme" v="consider natural=peak for the most distinct mountains in the district" />
		<tag k="name" v="Hotleonen" />
		<tag k="natural" v="hill" />
		<tag k="place" v="locality" />
		<tag k="ssr:stedsnr" v="855138" />
	</node>
	<node lat="60.22536110823165" lon="7.263188893715902" id="-72230">
		<tag k="fixme" v="consider natural=peak for the most distinct mountains in the district" />
		<tag k="name" v="Smågrananutane" />
		<tag k="natural" v="hill" />
		<tag k="place" v="locality" />
		<tag k="ssr:stedsnr" v="855315" />
	</node>
	<node lat="60.4378812424725" lon="6.936215949919269" id="-72231">
		<tag k="loc_name" v="Skoddadalen" />
		<tag k="name" v="Skoddedalen" />
		<tag k="natural" v="valley" />
		<tag k="place" v="locality" />
		<tag k="ssr:stedsnr" v="855335" />
	</node>
	<node lat="60.239194444282624" lon="7.315505556640292" id="-72232">
		<tag k="fixme" v="consider natural=peak for the most distinct mountains in the district" />
		<tag k="name" v="Sørfjordingsrindane" />
		<tag k="natural" v="hill" />
		<tag k="place" v="locality" />
		<tag k="ssr:stedsnr" v="855349" />
	</node>
	<node lat="60.53603333353481" lon="7.181955548113921" id="-72233">
		<tag k="name" v="Skredåshøgdi" />
		<tag k="natural" v="hill" />
		<tag k="place" v="locality" />
		<tag k="ssr:stedsnr" v="856129" />
	</node>
	<node lat="60.18926388943372" lon="7.485483327802032" id="-72243">
		<tag k="fixme" v="consider natural=peak for the most distinct mountains in the district" />
		<tag k="name" v="Sandhaugnuten" />
		<tag k="natural" v="hill" />
		<tag k="place" v="locality" />
		<tag k="ssr:stedsnr" v="855710" />
	</node>
	<node lat="60.569483333195635" lon="7.279299999552331" id="-72253">
		<tag k="name" v="Steinbrunene" />
		<tag k="natural" v="hill" />
		<tag k="place" v="locality" />
		<tag k="ssr:stedsnr" v="856175" />
	</node>
	<node lat="60.50360278088085" lon="7.275299992190502" id="-72256">
		<tag k="name" v="Smørbotnkulten" />
		<tag k="natural" v="hill" />
		<tag k="place" v="locality" />
		<tag k="ssr:stedsnr" v="856256" />
	</node>
	<node lat="60.327369445161416" lon="7.374450006028329" id="-72261">
		<tag k="fixme" v="consider natural=peak for the most distinct mountains in the district" />
		<tag k="name" v="Fannanutane" />
		<tag k="natural" v="hill" />
		<tag k="place" v="locality" />
		<tag k="ssr:stedsnr" v="874218" />
	</node>
	<node lat="60.46103055248547" lon="7.051655547093299" id="-72264">
		<tag k="name" v="Vikelia" />
		<tag k="natural" v="slope" />
		<tag k="place" v="locality" />
		<tag k="ssr:stedsnr" v="888274" />
	</node>
	<node lat="60.459183336370714" lon="7.061066668143934" id="-72265">
		<tag k="name" v="Grjotsdøl" />
		<tag k="place" v="locality" />
		<tag k="ssr:stedsnr" v="888276" />
	</node>
	<node lat="60.403280556024676" lon="7.141619436613936" id="-72267">
		<tag k="name" v="Bleikaberg" />
		<tag k="natural" v="hill" />
		<tag k="place" v="locality" />
		<tag k="ssr:stedsnr" v="888226" />
	</node>
	<node lat="60.467958334553984" lon="7.0780166724271965" id="-72268">
		<tag k="name" v="Horni" />
		<tag k="place" v="locality" />
		<tag k="ssr:stedsnr" v="888280" />
	</node>
	<node lat="60.50123332969214" lon="7.055908342234216" id="-72271">
		<tag k="fixme" v="consider natural=peak for the most distinct mountains in the district" />
		<tag k="name" v="Bytesbergnuten" />
		<tag k="natural" v="hill" />
		<tag k="place" v="locality" />
		<tag k="ssr:stedsnr" v="888360" />
	</node>
	<node lat="60.495430553342686" lon="7.056905560288145" id="-72272">
		<tag k="name" v="Hotlegjeli" />
		<tag k="place" v="locality" />
		<tag k="ssr:stedsnr" v="888369" />
	</node>
	<node lat="60.468169440468415" lon="6.9844388972375375" id="-72273">
		<tag k="name" v="Paugjel" />
		<tag k="natural" v="gorge" />
		<tag k="ssr:stedsnr" v="888372" />
	</node>
	<node lat="60.46754166248841" lon="7.019080554874051" id="-72274">
		<tag k="name" v="Galtekleiv" />
		<tag k="natural" v="slope" />
		<tag k="place" v="locality" />
		<tag k="ssr:stedsnr" v="888376" />
	</node>
	<node lat="60.362616668893054" lon="7.168413897430954" id="-72276">
		<tag k="name" v="Djupsgjelshamrane" />
		<tag k="natural" v="hill" />
		<tag k="place" v="locality" />
		<tag k="ssr:stedsnr" v="888327" />
	</node>
	<node lat="60.465705557634536" lon="6.89103888950789" id="-72277">
		<tag k="name" v="Espeskar" />
		<tag k="natural" v="valley" />
		<tag k="place" v="locality" />
		<tag k="ssr:stedsnr" v="888460" />
	</node>
	<node lat="60.433241663186045" lon="7.098494439841861" id="-72280">
		<tag k="name" v="Setebrekkena" />
		<tag k="natural" v="slope" />
		<tag k="place" v="locality" />
		<tag k="ssr:stedsnr" v="888736" />
	</node>
	<node lat="60.43233888815739" lon="7.101461118437535" id="-72281">
		<tag k="fixme" v="consider natural=peak for the most distinct mountains in the district" />
		<tag k="name" v="Setenuten" />
		<tag k="natural" v="hill" />
		<tag k="place" v="locality" />
		<tag k="ssr:stedsnr" v="888737" />
	</node>
	<node lat="60.435486113012175" lon="7.145499995943692" id="-72282">
		<tag k="name" v="Hovet" />
		<tag k="place" v="locality" />
		<tag k="ssr:stedsnr" v="888743" />
	</node>
	<node lat="60.35650833600117" lon="7.1507916622923755" id="-72284">
		<tag k="name" v="Joteigen" />
		<tag k="place" v="locality" />
		<tag k="ssr:stedsnr" v="948350" />
	</node>
	<node lat="60.4989250033435" lon="7.058608335165309" id="-72285">
		<tag k="name" v="Hotlegjeli" />
		<tag k="place" v="locality" />
		<tag k="ssr:stedsnr" v="948358" />
	</node>
	<node lat="60.34785833772977" lon="7.1347944384685915" id="-72287">
		<tag k="fixme" v="consider natural=peak for the most distinct mountains in the district" />
		<tag k="name" v="Pikenuten" />
		<tag k="natural" v="hill" />
		<tag k="place" v="locality" />
		<tag k="ssr:stedsnr" v="948367" />
	</node>
	<node lat="60.348419441564076" lon="7.163408325969931" id="-72288">
		<tag k="name" v="Storejuven" />
		<tag k="natural" v="gorge" />
		<tag k="ssr:stedsnr" v="948372" />
	</node>
	<node lat="60.46867221948972" lon="6.926641664721276" id="-72289">
		<tag k="name" v="Blåfjellskori" />
		<tag k="place" v="locality" />
		<tag k="ssr:stedsnr" v="948426" />
	</node>
	<node lat="60.47742777471478" lon="7.016677781918781" id="-72290">
		<tag k="name" v="Veralskor" />
		<tag k="place" v="locality" />
		<tag k="ssr:stedsnr" v="948455" />
	</node>
	<node lat="60.47366388955342" lon="7.019322229423931" id="-72291">
		<tag k="name" v="Kakkaskor" />
		<tag k="place" v="locality" />
		<tag k="ssr:stedsnr" v="948460" />
	</node>
	<node lat="60.47885555777373" lon="7.007336112193045" id="-72292">
		<tag k="name" v="Øykaskor" />
		<tag k="place" v="locality" />
		<tag k="ssr:stedsnr" v="948473" />
	</node>
	<node lat="60.464383337314025" lon="6.902255563929119" id="-72294">
		<tag k="name" v="Rindane" />
		<tag k="place" v="locality" />
		<tag k="ssr:stedsnr" v="948566" />
	</node>
	<node lat="60.49939444170957" lon="7.198711111458114" id="-72295">
		<tag k="name" v="Sauajøkulen" />
		<tag k="place" v="locality" />
		<tag k="ssr:stedsnr" v="949597" />
	</node>
	<node lat="60.375988887304175" lon="7.15144723074465" id="-72296">
		<tag k="name" v="Seljeteigen" />
		<tag k="place" v="locality" />
		<tag k="ssr:stedsnr" v="949266" />
	</node>
	<node lat="60.38705555298606" lon="7.1086277691420365" id="-72297">
		<tag k="name" v="Vetlalia" />
		<tag k="natural" v="slope" />
		<tag k="place" v="locality" />
		<tag k="ssr:stedsnr" v="949274" />
	</node>
	<node lat="60.36828888921731" lon="7.169797217143174" id="-72298">
		<tag k="name" v="Fantahaugane" />
		<tag k="natural" v="hill" />
		<tag k="place" v="locality" />
		<tag k="ssr:stedsnr" v="949275" />
	</node>
	<node lat="60.36951388703974" lon="7.166538890141006" id="-72299">
		<tag k="name" v="Skjeglenakken" />
		<tag k="place" v="locality" />
		<tag k="ssr:stedsnr" v="949276" />
	</node>
	<node lat="60.41410277860336" lon="7.207611112769128" id="-72301">
		<tag k="name" v="Daurmanngjela" />
		<tag k="natural" v="gorge" />
		<tag k="ssr:stedsnr" v="949656" />
	</node>
	<node lat="60.439797219791025" lon="7.1029944385961405" id="-72302">
		<tag k="fixme" v="consider natural=peak for the most distinct mountains in the district" />
		<tag k="name" v="Nutane" />
		<tag k="natural" v="hill" />
		<tag k="place" v="locality" />
		<tag k="ssr:stedsnr" v="949700" />
	</node>
	<node lat="60.36959999953529" lon="7.188961105235885" id="-72304">
		<tag k="name" v="Halvfjøringsskarvet" />
		<tag k="natural" v="valley" />
		<tag k="place" v="locality" />
		<tag k="ssr:stedsnr" v="949708" />
	</node>
	<node lat="60.27683488831081" lon="7.160946121863849" id="-72350">
		<tag k="name" v="Veigdalen" />
		<tag k="natural" v="valley" />
		<tag k="place" v="locality" />
		<tag k="ssr:stedsnr" v="1081267" />
	</node>
</osm>
