<?xml version="1.0" encoding="UTF-8"?>
<osm version="0.6" generator="osmapis">
	<node lat="60.27107222013786" lon="7.461927776377493" id="-71711">
		<tag k="name" v="Langavassmyrane" />
		<tag k="natural" v="wetland" />
		<tag k="ssr:stedsnr" v="21793" />
	</node>
	<node lat="60.375525000281506" lon="7.162947227687606" id="-71764">
		<tag k="name" v="Vedalsmyra" />
		<tag k="natural" v="wetland" />
		<tag k="ssr:stedsnr" v="99310" />
	</node>
	<node lat="60.425194444781624" lon="7.430866665367459" id="-71773">
		<tag k="historic" v="shieling" />
		<tag k="name" v="Instebusete" />
		<tag k="place" v="locality" />
		<tag k="ssr:stedsnr" v="99472" />
	</node>
	<node lat="60.47415000418693" lon="6.997477777212301" id="-71796">
		<tag k="name" v="Storaflot" />
		<tag k="place" v="locality" />
		<tag k="ssr:stedsnr" v="142885" />
	</node>
	<node lat="60.414902366123" lon="7.272331951495924" id="-71798">
		<tag k="name" v="Gardsmyrane" />
		<tag k="natural" v="wetland" />
		<tag k="ssr:stedsnr" v="142907" />
	</node>
	<node lat="60.5476777817906" lon="7.4483416638297495" id="-71839">
		<tag k="name" v="Hardangerjøkulen" />
		<tag k="natural" v="glacier" />
		<tag k="old_name" v="Jukulen" />
		<tag k="ssr:stedsnr" v="249250" />
	</node>
	<node lat="60.50211944520041" lon="7.166094437206056" id="-71873">
		<tag k="name" v="Sopphagesteinen" />
		<tag k="natural" v="stone" />
		<tag k="ssr:stedsnr" v="220751" />
	</node>
	<node lat="60.383955552982854" lon="7.157102779366282" id="-71908">
		<tag k="historic" v="shieling" />
		<tag k="name" v="Brattsete" />
		<tag k="place" v="locality" />
		<tag k="ssr:stedsnr" v="281343" />
	</node>
	<node lat="60.470736107677425" lon="6.917280557246088" id="-71914">
		<tag k="name" v="Storura" />
		<tag k="natural" v="scree" />
		<tag k="ssr:stedsnr" v="281500" />
	</node>
	<node lat="60.46665000301465" lon="6.833605556112959" id="-71943">
		<tag k="name" v="Storerøys" />
		<tag k="natural" v="stone" />
		<tag k="ssr:stedsnr" v="340706" />
	</node>
	<node lat="60.3603500045074" lon="7.15667500772591" id="-71945">
		<tag k="name" v="Sutaremyri" />
		<tag k="natural" v="wetland" />
		<tag k="ssr:stedsnr" v="341407" />
	</node>
	<node lat="60.48060000298734" lon="7.094238885021858" id="-71975">
		<tag k="name" v="Stavanessanden" />
		<tag k="natural" v="beach" />
		<tag k="ssr:stedsnr" v="463684" />
		<tag k="surface" v="sand" />
	</node>
	<node lat="60.368869445466316" lon="7.182197223192115" id="-71977">
		<tag k="name" v="Brakafeta" />
		<tag k="natural" v="wetland" />
		<tag k="ssr:stedsnr" v="463750" />
	</node>
	<node lat="60.477891663792434" lon="6.988866658535506" id="-72011">
		<tag k="name" v="Svinastein" />
		<tag k="natural" v="stone" />
		<tag k="ssr:stedsnr" v="402438" />
	</node>
	<node lat="60.414886108157496" lon="7.351344436576981" id="-72015">
		<tag k="name" v="Tjukkaskog" />
		<tag k="place" v="locality" />
		<tag k="ssr:stedsnr" v="402504" />
	</node>
	<node lat="60.49396388846453" lon="7.189130553311402" id="-72016">
		<tag k="name" v="Øyjordsvaena" />
		<tag k="place" v="locality" />
		<tag k="ssr:stedsnr" v="402719" />
	</node>
	<node lat="60.4921361119018" lon="7.138416659553567" id="-72017">
		<tag k="name" v="Sauurane" />
		<tag k="natural" v="scree" />
		<tag k="ssr:stedsnr" v="402741" />
	</node>
	<node lat="60.472052780216885" lon="6.837136103746171" id="-72031">
		<tag k="name" v="Kalvhagen" />
		<tag k="place" v="locality" />
		<tag k="ssr:stedsnr" v="430411" />
	</node>
	<node lat="60.53797500004245" lon="7.318361107110289" id="-72084">
		<tag k="name" v="Rembesdalskåka" />
		<tag k="natural" v="glacier" />
		<tag k="ssr:stedsnr" v="491136" />
	</node>
	<node lat="60.346052777539285" lon="7.155083332406715" id="-72130">
		<tag k="historic" v="shieling" />
		<tag k="loc_name" v="Storrlia" />
		<tag k="name" v="Storrliiseter" />
		<tag k="place" v="locality" />
		<tag k="ssr:stedsnr" v="523403" />
	</node>
	<node lat="60.45091110760088" lon="7.283711117830364" id="-72157">
		<tag k="name" v="Isdalsmyrane" />
		<tag k="natural" v="wetland" />
		<tag k="ssr:stedsnr" v="583068" />
	</node>
	<node lat="60.45752222094319" lon="6.866741660977204" id="-72168">
		<tag k="historic" v="shieling" />
		<tag k="name" v="Brattsete" />
		<tag k="place" v="locality" />
		<tag k="ssr:stedsnr" v="584398" />
	</node>
	<node lat="60.42013055558022" lon="7.4342472177977275" id="-72195">
		<tag k="historic" v="shieling" />
		<tag k="name" v="Midtbusete" />
		<tag k="place" v="locality" />
		<tag k="ssr:stedsnr" v="644513" />
	</node>
	<node lat="60.5021249988529" lon="7.210347214093913" id="-72204">
		<tag k="name" v="Mjøstølsteinane" />
		<tag k="natural" v="stone" />
		<tag k="ssr:stedsnr" v="645628" />
	</node>
	<node lat="60.456827777152725" lon="6.91343332781585" id="-72238">
		<tag k="historic" v="shieling" />
		<tag k="name" v="Stølsteigen" />
		<tag k="place" v="locality" />
		<tag k="ssr:stedsnr" v="705429" />
	</node>
	<node lat="60.458419444860446" lon="6.833900006336857" id="-72251">
		<tag k="name" v="Ospeskogen" />
		<tag k="place" v="locality" />
		<tag k="ssr:stedsnr" v="887725" />
	</node>
	<node lat="60.430111111205996" lon="7.261552782186265" id="-72254">
		<tag k="name" v="Grannasteinen" />
		<tag k="natural" v="stone" />
		<tag k="ssr:stedsnr" v="888031" />
	</node>
	<node lat="60.41864722448358" lon="7.228672220463779" id="-72273">
		<tag k="name" v="Heiosteinen" />
		<tag k="natural" v="stone" />
		<tag k="ssr:stedsnr" v="888639" />
	</node>
	<node lat="60.417652779738845" lon="7.120411118903005" id="-72275">
		<tag k="name" v="Urane" />
		<tag k="natural" v="scree" />
		<tag k="ssr:stedsnr" v="888713" />
	</node>
	<node lat="60.5043611102491" lon="7.218124999079781" id="-72334">
		<tag k="name" v="Storøya" />
		<tag k="place" v="locality" />
		<tag k="ssr:stedsnr" v="795281" />
	</node>
	<node lat="60.43751944196575" lon="7.017294444165221" id="-72361">
		<tag k="name" v="Geitsmyrane" />
		<tag k="natural" v="wetland" />
		<tag k="ssr:stedsnr" v="855744" />
	</node>
	<node lat="60.45850000110064" lon="7.093919440394631" id="-72402">
		<tag k="name" v="Hæreidssanden" />
		<tag k="natural" v="beach" />
		<tag k="ssr:stedsnr" v="871928" />
		<tag k="surface" v="sand" />
	</node>
	<node lat="60.36480833195872" lon="7.168719442681391" id="-72439">
		<tag k="name" v="Høgemyr" />
		<tag k="natural" v="wetland" />
		<tag k="ssr:stedsnr" v="948394" />
	</node>
	<node lat="60.38504722004571" lon="7.256452784887325" id="-72530">
		<tag k="name" v="Hallamyrane" />
		<tag k="natural" v="wetland" />
		<tag k="ssr:stedsnr" v="66531" />
	</node>
	<node lat="60.41861944736094" lon="7.228649992678739" id="-72558">
		<tag k="name" v="Heiasteinen" />
		<tag k="natural" v="stone" />
		<tag k="ssr:stedsnr" v="99028" />
	</node>
	<node lat="60.36813055418776" lon="7.173622228813773" id="-72574">
		<tag k="name" v="Djupsgjelsmyrane" />
		<tag k="natural" v="wetland" />
		<tag k="ssr:stedsnr" v="99789" />
	</node>
	<node lat="60.40348611361565" lon="7.078075004458277" id="-72671">
		<tag k="name" v="Slettvieren" />
		<tag k="natural" v="wetland" />
		<tag k="ssr:stedsnr" v="264899" />
	</node>
	<node lat="60.37750555448399" lon="7.147336109001694" id="-72677">
		<tag k="name" v="Valursteinen" />
		<tag k="natural" v="stone" />
		<tag k="ssr:stedsnr" v="281318" />
	</node>
	<node lat="60.426288596664" lon="7.121927090548956" id="-72694">
		<tag k="name" v="Litlatunøyni" />
		<tag k="place" v="locality" />
		<tag k="ssr:stedsnr" v="281764" />
	</node>
	<node lat="60.292125001823536" lon="7.170475005809339" id="-72715">
		<tag k="name" v="Rjotemyrane" />
		<tag k="natural" v="wetland" />
		<tag k="ssr:stedsnr" v="309537" />
	</node>
	<node lat="60.50378055322851" lon="7.215661107799157" id="-72734">
		<tag k="name" v="Bustosteinane" />
		<tag k="natural" v="stone" />
		<tag k="ssr:stedsnr" v="342590" />
	</node>
	<node lat="60.36295833738929" lon="7.18986110895502" id="-72786">
		<tag k="historic" v="shieling" />
		<tag k="name" v="Margretemyri" />
		<tag k="place" v="locality" />
		<tag k="ssr:stedsnr" v="402376" />
	</node>
	<node lat="60.4682527779598" lon="6.994155563187991" id="-72787">
		<tag k="name" v="Storur" />
		<tag k="natural" v="scree" />
		<tag k="ssr:stedsnr" v="402456" />
	</node>
	<node lat="60.532124997778354" lon="7.514850008028943" id="-72854">
		<tag k="name" v="Torsteinsfonna" />
		<tag k="natural" v="glacier" />
		<tag k="ssr:stedsnr" v="492227" />
	</node>
	<node lat="60.48984999798662" lon="7.089361119834273" id="-72869">
		<tag k="historic" v="shieling" />
		<tag k="name" v="Hotlemjølstølen" />
		<tag k="place" v="locality" />
		<tag k="ssr:stedsnr" v="523481" />
	</node>
	<node lat="60.47136944536022" lon="6.936561111813431" id="-72875">
		<tag k="name" v="Pylsur" />
		<tag k="natural" v="scree" />
		<tag k="ssr:stedsnr" v="523446" />
	</node>
	<node lat="60.37848888875695" lon="7.147197229091957" id="-72884">
		<tag k="name" v="Valur" />
		<tag k="natural" v="scree" />
		<tag k="ssr:stedsnr" v="524252" />
	</node>
	<node lat="60.38262777987561" lon="7.105077781001812" id="-72885">
		<tag k="name" v="Barnamyrane" />
		<tag k="natural" v="wetland" />
		<tag k="ssr:stedsnr" v="524259" />
	</node>
	<node lat="60.366672224965534" lon="7.164841665550155" id="-72886">
		<tag k="name" v="Høgamyr" />
		<tag k="natural" v="wetland" />
		<tag k="ssr:stedsnr" v="524265" />
	</node>
	<node lat="60.34802499802943" lon="7.145433324921405" id="-72929">
		<tag k="name" v="Klokkarmyr" />
		<tag k="natural" v="wetland" />
		<tag k="ssr:stedsnr" v="584365" />
	</node>
	<node lat="60.46398333690011" lon="7.067619438784508" id="-72938">
		<tag k="alt_name" v="Evja" />
		<tag k="name" v="Evjo" />
		<tag k="place" v="locality" />
		<tag k="ssr:stedsnr" v="584340" />
	</node>
	<node lat="60.4809138903567" lon="6.9888722239063314" id="-72946">
		<tag k="name" v="Øyni" />
		<tag k="place" v="locality" />
		<tag k="ssr:stedsnr" v="584428" />
	</node>
	<node lat="60.20854444779551" lon="7.312061108151449" id="-72956">
		<tag k="name" v="Vierslamyrane" />
		<tag k="natural" v="wetland" />
		<tag k="ssr:stedsnr" v="611329" />
	</node>
	<node lat="60.47038889145399" lon="6.837658329725364" id="-72997">
		<tag k="name" v="Storemyr" />
		<tag k="natural" v="wetland" />
		<tag k="ssr:stedsnr" v="643694" />
	</node>
	<node lat="60.49042499916039" lon="7.090066658327115" id="-73018">
		<tag k="name" v="Småura" />
		<tag k="natural" v="scree" />
		<tag k="old_name" v="Småuri" />
		<tag k="ssr:stedsnr" v="650955" />
	</node>
	<node lat="60.40648055754997" lon="7.122491673987739" id="-73025">
		<tag k="name" v="Kvitasteinen" />
		<tag k="natural" v="stone" />
		<tag k="ssr:stedsnr" v="706230" />
	</node>
	<node lat="60.505230553359276" lon="7.16953889219062" id="-73031">
		<tag k="name" v="Lauvstein" />
		<tag k="natural" v="stone" />
		<tag k="ssr:stedsnr" v="706653" />
	</node>
	<node lat="60.28398055233262" lon="7.500938893711876" id="-73052">
		<tag k="name" v="Fantatuene" />
		<tag k="natural" v="wetland" />
		<tag k="ssr:stedsnr" v="733878" />
	</node>
	<node lat="60.46009444421769" lon="6.824997227163828" id="-73071">
		<tag k="name" v="Storhaugmyri" />
		<tag k="natural" v="wetland" />
		<tag k="ssr:stedsnr" v="766725" />
	</node>
	<node lat="60.50213889085476" lon="7.206636119739476" id="-73074">
		<tag k="name" v="Smiesteinane" />
		<tag k="natural" v="stone" />
		<tag k="ssr:stedsnr" v="766684" />
	</node>
	<node lat="60.48008888989943" lon="7.018386108863242" id="-73134">
		<tag k="name" v="Beltestein" />
		<tag k="natural" v="stone" />
		<tag k="ssr:stedsnr" v="827448" />
	</node>
	<node lat="60.27179167053969" lon="7.371488882106047" id="-73198">
		<tag k="loc_name" v="Berrnosmyrane" />
		<tag k="name" v="Bergnosmyrane" />
		<tag k="natural" v="wetland" />
		<tag k="ssr:stedsnr" v="932758" />
	</node>
	<node lat="60.4585694409488" lon="7.00116388689829" id="-73207">
		<tag k="historic" v="shieling" />
		<tag k="name" v="Dalsete" />
		<tag k="place" v="locality" />
		<tag k="ssr:stedsnr" v="948492" />
	</node>
	<node lat="60.43179166577955" lon="7.2830083295723" id="-73209">
		<tag k="historic" v="shieling" />
		<tag k="name" v="Sveinstøl" />
		<tag k="place" v="locality" />
		<tag k="ssr:stedsnr" v="948069" />
	</node>
	<node lat="60.48817222042165" lon="7.114036103211972" id="-73229">
		<tag k="name" v="Strangasva" />
		<tag k="place" v="locality" />
		<tag k="ssr:stedsnr" v="949651" />
	</node>
	<node lat="60.36917221985699" lon="7.202080558826328" id="-73232">
		<tag k="name" v="Barnamyri" />
		<tag k="natural" v="wetland" />
		<tag k="ssr:stedsnr" v="949706" />
	</node>
</osm>
