<?xml version="1.0" encoding="UTF-8"?>
<osm version="0.6" generator="osmapis">
	<node lat="60.4709943551844" lon="6.909427849551624" id="-70783">
		<tag k="alt_name" v="Brimnes, in;Brimnes indre" />
		<tag k="name" v="Indre Brimnes" />
		<tag k="place" v="farm" />
		<tag k="ssr:stedsnr" v="5306" />
	</node>
	<node lat="60.46645555860321" lon="7.089852772018588" id="-70786">
		<tag k="alt_name" v="Hereid" />
		<tag k="fixme" v="consider place=hamlet" />
		<tag k="name" v="Hæreid" />
		<tag k="place" v="farm" />
		<tag k="ssr:stedsnr" v="5619" />
	</node>
	<node lat="60.41836702117355" lon="7.68563757397122" id="-70791">
		<tag k="fixme" v="consider tourism=alpine_hut or tourism=chalet" />
		<tag k="name" v="Halne fjellstova" />
		<tag k="old_name" v="Halne" />
		<tag k="ssr:stedsnr" v="5560" />
		<tag k="tourism" v="wilderness_hut" />
	</node>
	<node lat="60.31340555370337" lon="7.53556944251212" id="-70800">
		<tag k="name" v="Granahytta" />
		<tag k="place" v="isolated_dwelling" />
		<tag k="ssr:stedsnr" v="5876" />
	</node>
	<node lat="60.467502773743526" lon="7.0719333299280835" id="-70810">
		<tag k="name" v="Eidfjord" />
		<tag k="place" v="village" />
		<tag k="ssr:stedsnr" v="24194" />
	</node>
	<node lat="60.467455555602704" lon="6.859749998505929" id="-70830">
		<tag k="alt_name" v="Bu, in;Indra Bu" />
		<tag k="fixme" v="consider place=hamlet" />
		<tag k="name" v="Indre Bu" />
		<tag k="place" v="farm" />
		<tag k="ssr:stedsnr" v="66320" />
	</node>
	<node lat="60.42175572875925" lon="7.2689914232972255" id="-70856">
		<tag k="name" v="Solbakken" />
		<tag k="place" v="farm" />
		<tag k="ssr:stedsnr" v="66694" />
	</node>
	<node lat="60.417947222372064" lon="7.125194452161858" id="-70859">
		<tag k="fixme" v="consider place=hamlet" />
		<tag k="name" v="Myklatun" />
		<tag k="place" v="farm" />
		<tag k="ssr:stedsnr" v="66700" />
	</node>
	<node lat="60.17450000138034" lon="7.519313890989911" id="-70874">
		<tag k="historic" v="shieling" />
		<tag k="name" v="Bremafotbua" />
		<tag k="place" v="isolated_dwelling" />
		<tag k="ssr:stedsnr" v="247686" />
	</node>
	<node lat="60.52422499833012" lon="7.323324998869929" id="-70887">
		<tag k="name" v="Træet" />
		<tag k="place" v="locality" />
		<tag k="ssr:stedsnr" v="248135" />
	</node>
	<node lat="60.34060278059926" lon="7.508025007598968" id="-70896">
		<tag k="historic" v="shieling" />
		<tag k="name" v="Nybu" />
		<tag k="place" v="isolated_dwelling" />
		<tag k="ssr:stedsnr" v="248893" />
	</node>
	<node lat="60.16998611032444" lon="7.288769447807549" id="-70901">
		<tag k="name" v="Urabu" />
		<tag k="place" v="locality" />
		<tag k="ssr:stedsnr" v="125353" />
	</node>
	<node lat="60.38414427433289" lon="7.146714398252471" id="-70912">
		<tag k="fixme" v="consider place=hamlet" />
		<tag k="name" v="Hjølmo" />
		<tag k="place" v="farm" />
		<tag k="ssr:stedsnr" v="127605" />
	</node>
	<node lat="60.469013886177756" lon="6.898175002400675" id="-70926">
		<tag k="alt_name" v="Brimnes ytre;Brimnes, yt;Brimnes, ytre" />
		<tag k="name" v="Ytre Brimnes" />
		<tag k="place" v="farm" />
		<tag k="ssr:stedsnr" v="187311" />
	</node>
	<node lat="60.57237777633073" lon="7.333300003476441" id="-70935">
		<tag k="name" v="Ramnaberghytta" />
		<tag k="place" v="locality" />
		<tag k="ssr:stedsnr" v="188178" />
	</node>
	<node lat="60.42648333434517" lon="7.1271555511259415" id="-70958">
		<tag k="name" v="Hagaskarv" />
		<tag k="place" v="quarter" />
		<tag k="ssr:stedsnr" v="222206" />
	</node>
	<node lat="60.36806110856017" lon="7.503430550676683" id="-70980">
		<tag k="alt_name" v="Dyranut Turisthytta" />
		<tag k="fixme" v="consider tourism=alpine_hut or tourism=chalet" />
		<tag k="name" v="Dyranut" />
		<tag k="ssr:stedsnr" v="248946" />
		<tag k="tourism" v="wilderness_hut" />
	</node>
	<node lat="60.50428611436149" lon="7.023897217444785" id="-70984">
		<tag k="alt_name" v="Skar;Skår" />
		<tag k="fixme" v="consider place=hamlet" />
		<tag k="name" v="Skor" />
		<tag k="place" v="farm" />
		<tag k="ssr:stedsnr" v="249220" />
	</node>
	<node lat="60.46392662724514" lon="7.064941285919067" id="-71026">
		<tag k="fixme" v="consider place=hamlet" />
		<tag k="name" v="Vik" />
		<tag k="place" v="farm" />
		<tag k="ssr:stedsnr" v="308600" />
	</node>
	<node lat="60.26010277875126" lon="7.5370888826148805" id="-71045">
		<tag k="historic" v="shieling" />
		<tag k="name" v="Hellehalsen" />
		<tag k="place" v="isolated_dwelling" />
		<tag k="ssr:stedsnr" v="309988" />
	</node>
	<node lat="60.467697225588786" lon="6.895022217412862" id="-71065">
		<tag k="name" v="Teigen" />
		<tag k="place" v="farm" />
		<tag k="ssr:stedsnr" v="369308" />
	</node>
	<node lat="60.43236944527351" lon="6.930416659654503" id="-71066">
		<tag k="name" v="Husaleitet" />
		<tag k="place" v="locality" />
		<tag k="ssr:stedsnr" v="369318" />
	</node>
	<node lat="60.4230916654002" lon="7.2731833341003895" id="-71074">
		<tag k="name" v="Liseth pensjonat" />
		<tag k="ssr:stedsnr" v="369666" />
		<tag k="tourism" v="guest_house" />
	</node>
	<node lat="60.426971757918444" lon="7.268209068252944" id="-71077">
		<tag k="alt_name" v="Stakseng" />
		<tag k="name" v="Stakkseng" />
		<tag k="place" v="locality" />
		<tag k="ssr:stedsnr" v="369687" />
	</node>
	<node lat="60.39793055706067" lon="7.370491673554849" id="-71079">
		<tag k="historic" v="shieling" />
		<tag k="name" v="Sjursløken" />
		<tag k="place" v="isolated_dwelling" />
		<tag k="ssr:stedsnr" v="369906" />
	</node>
	<node lat="60.500635465547894" lon="7.187590329013336" id="-71087">
		<tag k="name" v="Øyjorda" />
		<tag k="place" v="farm" />
		<tag k="ssr:stedsnr" v="370288" />
	</node>
	<node lat="60.4177637069626" lon="7.131209096601804" id="-71105">
		<tag k="fixme" v="consider place=hamlet" />
		<tag k="name" v="Vardberg" />
		<tag k="place" v="farm" />
		<tag k="ssr:stedsnr" v="490716" />
	</node>
	<node lat="60.48008332937466" lon="7.685288886675513" id="-71113">
		<tag k="name" v="Larsbu" />
		<tag k="place" v="locality" />
		<tag k="ssr:stedsnr" v="430605" />
	</node>
	<node lat="60.40798611295278" lon="7.27976666475083" id="-71121">
		<tag k="fixme" v="consider place=hamlet" />
		<tag k="name" v="Fet" />
		<tag k="place" v="farm" />
		<tag k="ssr:stedsnr" v="430708" />
	</node>
	<node lat="60.4227672499734" lon="7.13070270523602" id="-71124">
		<tag k="fixme" v="consider place=hamlet" />
		<tag k="name" v="Sæbø" />
		<tag k="place" v="farm" />
		<tag k="ssr:stedsnr" v="430721" />
	</node>
	<node lat="60.41741388628951" lon="7.2004500080286125" id="-71126">
		<tag k="fixme" v="consider place=hamlet" />
		<tag k="name" v="Måbø" />
		<tag k="place" v="farm" />
		<tag k="ssr:stedsnr" v="430697" />
	</node>
	<node lat="60.42280000120465" lon="7.273991675505496" id="-71167">
		<tag k="name" v="Liset" />
		<tag k="place" v="locality" />
		<tag k="ssr:stedsnr" v="463025" />
	</node>
	<node lat="60.50387822776949" lon="7.193405988694315" id="-71181">
		<tag k="fixme" v="consider place=hamlet" />
		<tag k="name" v="Midhus" />
		<tag k="place" v="farm" />
		<tag k="ssr:stedsnr" v="674235" />
	</node>
	<node lat="60.41316111012412" lon="7.354027770353322" id="-71187">
		<tag k="name" v="Tverrlia" />
		<tag k="place" v="neighbourhood" />
		<tag k="ssr:stedsnr" v="465223" />
	</node>
	<node lat="60.22443055903021" lon="7.314305562569269" id="-71193">
		<tag k="historic" v="shieling" />
		<tag k="name" v="Viersla" />
		<tag k="place" v="isolated_dwelling" />
		<tag k="ssr:stedsnr" v="490310" />
	</node>
	<node lat="60.38882499701667" lon="7.447174993583025" id="-71201">
		<tag k="historic" v="shieling" />
		<tag k="name" v="Krossdalen" />
		<tag k="place" v="isolated_dwelling" />
		<tag k="ssr:stedsnr" v="490907" />
	</node>
	<node lat="60.41214444522116" lon="7.334175004606484" id="-71212">
		<tag k="fixme" v="consider place=hamlet" />
		<tag k="name" v="Maurset" />
		<tag k="place" v="farm" />
		<tag k="ssr:stedsnr" v="491689" />
	</node>
	<node lat="60.29120277556813" lon="7.552124994441364" id="-71213">
		<tag k="alt_name" v="Trondsbu turisthytta" />
		<tag k="fixme" v="consider tourism=alpine_hut or tourism=chalet" />
		<tag k="name" v="Trondsbu" />
		<tag k="ssr:stedsnr" v="491903" />
		<tag k="tourism" v="wilderness_hut" />
	</node>
	<node lat="60.34411944574782" lon="7.1468861079439785" id="-71222">
		<tag k="fixme" v="consider tourism=alpine_hut or tourism=chalet" />
		<tag k="name" v="Vivelid fjellstova" />
		<tag k="ssr:stedsnr" v="509190" />
		<tag k="tourism" v="wilderness_hut" />
	</node>
	<node lat="60.53991667075052" lon="7.314777769764745" id="-71252">
		<tag k="fixme" v="consider tourism=alpine_hut or tourism=chalet" />
		<tag k="name" v="Demmevasshytta" />
		<tag k="ssr:stedsnr" v="552141" />
		<tag k="tourism" v="wilderness_hut" />
	</node>
	<node lat="60.46976111202071" lon="6.854541659460521" id="-71261">
		<tag k="name" v="Bu" />
		<tag k="place" v="hamlet" />
		<tag k="ssr:stedsnr" v="691342" />
	</node>
	<node lat="60.423013893097476" lon="7.123277783657853" id="-71276">
		<tag k="fixme" v="consider place=hamlet" />
		<tag k="name" v="Litlatun" />
		<tag k="place" v="farm" />
		<tag k="ssr:stedsnr" v="584739" />
	</node>
	<node lat="60.46433611346919" lon="7.067827775595424" id="-71277">
		<tag k="name" v="Evjo" />
		<tag k="place" v="quarter" />
		<tag k="ssr:stedsnr" v="586220" />
	</node>
	<node lat="60.22925278017878" lon="7.192016667032736" id="-71280">
		<tag k="historic" v="shieling" />
		<tag k="name" v="Frisete" />
		<tag k="place" v="isolated_dwelling" />
		<tag k="ssr:stedsnr" v="611378" />
	</node>
	<node lat="60.167466662350684" lon="7.5332388834310295" id="-71281">
		<tag k="name" v="Lakabu" />
		<tag k="place" v="isolated_dwelling" />
		<tag k="ssr:stedsnr" v="611702" />
	</node>
	<node lat="60.43352777369857" lon="7.095927784893212" id="-71286">
		<tag k="alt_name" v="Kvamsdal" />
		<tag k="fixme" v="consider place=hamlet" />
		<tag k="name" v="Kvamsdalen" />
		<tag k="place" v="farm" />
		<tag k="ssr:stedsnr" v="612733" />
	</node>
	<node lat="60.50212778175177" lon="7.202836119896107" id="-71317">
		<tag k="fixme" v="consider place=hamlet" />
		<tag k="name" v="Tveit" />
		<tag k="place" v="farm" />
		<tag k="ssr:stedsnr" v="645626" />
	</node>
	<node lat="60.40946666304328" lon="7.349419437851264" id="-71327">
		<tag k="name" v="Tverrlihaugen" />
		<tag k="place" v="neighbourhood" />
		<tag k="ssr:stedsnr" v="890228" />
	</node>
	<node lat="60.379480557617676" lon="7.159311115328123" id="-71346">
		<tag k="fixme" v="consider tourism=alpine_hut or tourism=chalet" />
		<tag k="name" v="Åsdalen" />
		<tag k="ssr:stedsnr" v="689909" />
		<tag k="tourism" v="wilderness_hut" />
	</node>
	<node lat="60.4793194411013" lon="6.971252778559174" id="-71349">
		<tag k="name" v="Klyngstu" />
		<tag k="place" v="locality" />
		<tag k="ssr:stedsnr" v="893950" />
	</node>
	<node lat="60.41673402435686" lon="7.1272547520478575" id="-71363">
		<tag k="fixme" v="consider place=hamlet" />
		<tag k="name" v="Røyso" />
		<tag k="place" v="farm" />
		<tag k="ssr:stedsnr" v="733683" />
	</node>
	<node lat="60.426724996365756" lon="7.497416674756339" id="-71372">
		<tag k="fixme" v="consider tourism=alpine_hut or tourism=chalet" />
		<tag k="name" v="Kjeldebu" />
		<tag k="ssr:stedsnr" v="752816" />
		<tag k="tourism" v="wilderness_hut" />
	</node>
	<node lat="60.41231666806862" lon="7.342322228089241" id="-71414">
		<tag k="name" v="Maurset" />
		<tag k="place" v="neighbourhood" />
		<tag k="ssr:stedsnr" v="915549" />
	</node>
	<node lat="60.42742500150204" lon="7.254855549827971" id="-71424">
		<tag k="alt_name" v="Fossli Hotell" />
		<tag k="name" v="Fossli Hotel" />
		<tag k="ssr:stedsnr" v="916757" />
		<tag k="tourism" v="hotel" />
	</node>
	<node lat="60.250827776927395" lon="7.166249992891899" id="-71460">
		<tag k="fixme" v="consider tourism=alpine_hut or tourism=chalet" />
		<tag k="name" v="Hadlaskard" />
		<tag k="old_name" v="Hadlaskar" />
		<tag k="ssr:stedsnr" v="855616" />
		<tag k="tourism" v="wilderness_hut" />
	</node>
	<node lat="60.208736106843176" lon="7.186386115366573" id="-71501">
		<tag k="historic" v="shieling" />
		<tag k="name" v="Kristofferbu" />
		<tag k="place" v="isolated_dwelling" />
		<tag k="ssr:stedsnr" v="915308" />
	</node>
	<node lat="60.31337777893836" lon="7.150299999330418" id="-71502">
		<tag k="historic" v="shieling" />
		<tag k="name" v="Sandvadet" />
		<tag k="place" v="isolated_dwelling" />
		<tag k="ssr:stedsnr" v="915505" />
	</node>
	<node lat="60.396716665298456" lon="7.4530416693095285" id="-71506">
		<tag k="historic" v="shieling" />
		<tag k="name" v="Krossdalen" />
		<tag k="place" v="isolated_dwelling" />
		<tag k="ssr:stedsnr" v="915911" />
	</node>
	<node lat="60.46256389221122" lon="7.1001138866886855" id="-71510">
		<tag k="name" v="Djupedal" />
		<tag k="place" v="farm" />
		<tag k="ssr:stedsnr" v="916764" />
	</node>
	<node lat="60.421633337310766" lon="7.117552778443945" id="-71516">
		<tag k="name" v="Neset" />
		<tag k="place" v="farm" />
		<tag k="ssr:stedsnr" v="938321" />
	</node>
	<node lat="60.50011388526053" lon="7.1750444518376" id="-71533">
		<tag k="name" v="Selgjerd" />
		<tag k="place" v="farm" />
		<tag k="ssr:stedsnr" v="949607" />
	</node>
	<node lat="60.44516111800595" lon="7.098990505354052" id="-71539">
		<tag k="name" v="Nedre Kvammen" />
		<tag k="place" v="farm" />
		<tag k="ssr:stedsnr" v="988062" />
	</node>
	<node lat="60.41600833004616" lon="6.955630555734708" id="-71553">
		<tag k="name" v="Buvadet" />
		<tag k="place" v="locality" />
		<tag k="ssr:stedsnr" v="5350" />
	</node>
	<node lat="60.41163333704084" lon="7.285441665827039" id="-71557">
		<tag k="alt_name" v="Garden" />
		<tag k="fixme" v="consider place=hamlet" />
		<tag k="name" v="Garen" />
		<tag k="place" v="farm" />
		<tag k="ssr:stedsnr" v="5683" />
	</node>
	<node lat="60.19693888720836" lon="7.379583329604185" id="-71559">
		<tag k="name" v="Andersbu" />
		<tag k="place" v="locality" />
		<tag k="ssr:stedsnr" v="5685" />
	</node>
	<node lat="60.41150833075974" lon="7.121366664475885" id="-71563">
		<tag k="name" v="Tveit" />
		<tag k="place" v="farm" />
		<tag k="ssr:stedsnr" v="5691" />
	</node>
	<node lat="60.504064793001504" lon="7.130583139330092" id="-71570">
		<tag k="fixme" v="consider place=hamlet" />
		<tag k="name" v="Kjeåsen" />
		<tag k="place" v="farm" />
		<tag k="ssr:stedsnr" v="6251" />
	</node>
	<node lat="60.47059444560276" lon="7.08008055484876" id="-71599">
		<tag k="name" v="Holmane" />
		<tag k="place" v="quarter" />
		<tag k="ssr:stedsnr" v="40233" />
	</node>
	<node lat="60.40450000342926" lon="7.295880560166462" id="-71600">
		<tag k="name" v="Fet" />
		<tag k="place" v="neighbourhood" />
		<tag k="ssr:stedsnr" v="40235" />
	</node>
	<node lat="60.188866667289716" lon="7.392355548894514" id="-71609">
		<tag k="name" v="Nesbu" />
		<tag k="place" v="locality" />
		<tag k="ssr:stedsnr" v="65692" />
	</node>
	<node lat="60.3451138914681" lon="7.1458444411691255" id="-71666">
		<tag k="fixme" v="consider place=hamlet" />
		<tag k="name" v="Viveli" />
		<tag k="place" v="farm" />
		<tag k="ssr:stedsnr" v="126530" />
	</node>
	<node lat="60.48147222626852" lon="6.992405564185301" id="-71669">
		<tag k="fixme" v="consider place=hamlet" />
		<tag k="name" v="Erdal" />
		<tag k="place" v="farm" />
		<tag k="ssr:stedsnr" v="126633" />
	</node>
	<node lat="60.44158889193552" lon="7.098125004716876" id="-71687">
		<tag k="name" v="Øvre Kvammen" />
		<tag k="place" v="farm" />
		<tag k="ssr:stedsnr" v="148335" />
	</node>
	<node lat="60.41135278058619" lon="7.296358328961344" id="-71697">
		<tag k="name" v="Storanes" />
		<tag k="place" v="farm" />
		<tag k="ssr:stedsnr" v="159488" />
	</node>
	<node lat="60.41359444685321" lon="7.125844451364106" id="-71721">
		<tag k="name" v="Nordberg" />
		<tag k="place" v="farm" />
		<tag k="ssr:stedsnr" v="164961" />
	</node>
	<node lat="60.417075002851604" lon="7.685199992597969" id="-71740">
		<tag k="name" v="Halnelægret" />
		<tag k="place" v="isolated_dwelling" />
		<tag k="ssr:stedsnr" v="187528" />
	</node>
	<node lat="60.42137778225332" lon="7.185536116267033" id="-71745">
		<tag k="fixme" v="consider place=hamlet" />
		<tag k="name" v="Tveito" />
		<tag k="place" v="farm" />
		<tag k="ssr:stedsnr" v="187670" />
	</node>
	<node lat="60.34732500316491" lon="7.4463388913202175" id="-71747">
		<tag k="historic" v="shieling" />
		<tag k="name" v="Særebakken" />
		<tag k="place" v="isolated_dwelling" />
		<tag k="ssr:stedsnr" v="187866" />
	</node>
	<node lat="60.29746333094339" lon="7.655500767291707" id="-71761">
		<tag k="fixme" v="consider tourism=alpine_hut or tourism=chalet" />
		<tag k="name" v="Stigstuv" />
		<tag k="ssr:stedsnr" v="206195" />
		<tag k="tourism" v="wilderness_hut" />
	</node>
	<node lat="60.459569442773116" lon="7.086411104603377" id="-71766">
		<tag k="name" v="Insta-Horni" />
		<tag k="place" v="farm" />
		<tag k="ssr:stedsnr" v="220362" />
	</node>
	<node lat="60.41651389323738" lon="7.148708337079835" id="-71803">
		<tag k="name" v="Finnasteinfloten" />
		<tag k="place" v="farm" />
		<tag k="ssr:stedsnr" v="281742" />
	</node>
	<node lat="60.42331944470578" lon="7.121105558845497" id="-71805">
		<tag k="name" v="Myklatun" />
		<tag k="place" v="farm" />
		<tag k="ssr:stedsnr" v="281758" />
	</node>
	<node lat="60.31261388810994" lon="7.158641662633703" id="-71817">
		<tag k="fixme" v="consider tourism=alpine_hut or tourism=chalet" />
		<tag k="name" v="Hedlo" />
		<tag k="ssr:stedsnr" v="308486" />
		<tag k="tourism" v="wilderness_hut" />
	</node>
	<node lat="60.4142694436076" lon="7.127277777948105" id="-71846">
		<tag k="name" v="Katlo" />
		<tag k="place" v="farm" />
		<tag k="ssr:stedsnr" v="346962" />
	</node>
	<node lat="60.420108336976575" lon="7.256800006972238" id="-71860">
		<tag k="fixme" v="consider place=hamlet" />
		<tag k="name" v="Høl" />
		<tag k="place" v="farm" />
		<tag k="ssr:stedsnr" v="369658" />
	</node>
	<node lat="60.35725555240419" lon="7.416427780014802" id="-71873">
		<tag k="name" v="Grjoto" />
		<tag k="place" v="locality" />
		<tag k="ssr:stedsnr" v="369926" />
	</node>
	<node lat="60.5473194460589" lon="7.391669437973993" id="-71880">
		<tag k="name" v="Olavsvarden" />
		<tag k="place" v="locality" />
		<tag k="ssr:stedsnr" v="387000" />
	</node>
	<node lat="60.41922777480413" lon="7.130311118344181" id="-71902">
		<tag k="name" v="Bolingo" />
		<tag k="place" v="farm" />
		<tag k="ssr:stedsnr" v="402774" />
	</node>
	<node lat="60.41707777440226" lon="7.12615556212599" id="-71903">
		<tag k="alt_name" v="Garatun" />
		<tag k="fixme" v="consider place=hamlet" />
		<tag k="name" v="Gardatun" />
		<tag k="place" v="farm" />
		<tag k="ssr:stedsnr" v="402775" />
	</node>
	<node lat="60.18394166440962" lon="7.48178611498573" id="-71908">
		<tag k="fixme" v="consider tourism=alpine_hut or tourism=chalet" />
		<tag k="name" v="Sandhaug" />
		<tag k="ssr:stedsnr" v="429678" />
		<tag k="tourism" v="wilderness_hut" />
	</node>
	<node lat="60.18307221847348" lon="7.402680549649439" id="-71909">
		<tag k="alt_name" v="Besso Turisthytte" />
		<tag k="fixme" v="consider tourism=alpine_hut or tourism=chalet" />
		<tag k="name" v="Besso" />
		<tag k="old_name" v="Besså Turisthytte;Besså" />
		<tag k="ssr:stedsnr" v="429685" />
		<tag k="tourism" v="wilderness_hut" />
	</node>
	<node lat="60.34166110948589" lon="7.501363887090608" id="-71931">
		<tag k="name" v="Rinden" />
		<tag k="place" v="locality" />
		<tag k="ssr:stedsnr" v="430880" />
	</node>
	<node lat="60.53408332888751" lon="7.270169442719786" id="-71933">
		<tag k="fixme" v="consider tourism=alpine_hut or tourism=chalet" />
		<tag k="name" v="Rembesdalsseter" />
		<tag k="old_name" v="Rembesdalssete" />
		<tag k="ssr:stedsnr" v="431150" />
		<tag k="tourism" v="wilderness_hut" />
	</node>
	<node lat="60.426777776853534" lon="6.945708334384721" id="-71939">
		<tag k="historic" v="shieling" />
		<tag k="name" v="Busete" />
		<tag k="place" v="isolated_dwelling" />
		<tag k="ssr:stedsnr" v="431384" />
	</node>
	<node lat="60.47714688963666" lon="7.080800972665297" id="-71948">
		<tag k="name" v="Blurnes" />
		<tag k="place" v="farm" />
		<tag k="ssr:stedsnr" v="512135" />
	</node>
	<node lat="60.42614166860346" lon="7.262733333947605" id="-71994">
		<tag k="name" v="Midtbø" />
		<tag k="place" v="farm" />
		<tag k="ssr:stedsnr" v="551734" />
	</node>
	<node lat="60.36894843925218" lon="7.521821727769289" id="-71997">
		<tag k="alt_name" v="Tråstølen" />
		<tag k="historic" v="shieling" />
		<tag k="name" v="Tråastølen" />
		<tag k="place" v="isolated_dwelling" />
		<tag k="ssr:stedsnr" v="551935" />
	</node>
	<node lat="60.254433331050684" lon="7.5992361144233" id="-71999">
		<tag k="name" v="Blyttsbu" />
		<tag k="place" v="locality" />
		<tag k="ssr:stedsnr" v="551982" />
	</node>
	<node lat="60.42558333573767" lon="7.2177472303820425" id="-72033">
		<tag k="name" v="Byrkjenes" />
		<tag k="place" v="farm" />
		<tag k="ssr:stedsnr" v="584683" />
	</node>
	<node lat="60.460702774686006" lon="7.070183336581212" id="-72053">
		<tag k="fixme" v="consider place=hamlet" />
		<tag k="name" v="Lægreid" />
		<tag k="place" v="farm" />
		<tag k="ssr:stedsnr" v="612640" />
	</node>
	<node lat="60.490361110699375" lon="7.058591673918667" id="-72054">
		<tag k="fixme" v="consider place=hamlet" />
		<tag k="name" v="Hotle" />
		<tag k="place" v="farm" />
		<tag k="ssr:stedsnr" v="612647" />
	</node>
	<node lat="60.42562500372926" lon="7.135266673839966" id="-72060">
		<tag k="fixme" v="consider place=hamlet" />
		<tag k="name" v="Lund" />
		<tag k="place" v="farm" />
		<tag k="ssr:stedsnr" v="612740" />
	</node>
	<node lat="60.346136112175095" lon="7.503099991689069" id="-72063">
		<tag k="historic" v="shieling" />
		<tag k="name" v="Gamlestølen" />
		<tag k="place" v="isolated_dwelling" />
		<tag k="ssr:stedsnr" v="612888" />
	</node>
	<node lat="60.322666500995126" lon="7.607859628085053" id="-72064">
		<tag k="name" v="Jakobsbulægret" />
		<tag k="place" v="locality" />
		<tag k="ssr:stedsnr" v="612892" />
	</node>
	<node lat="60.27523055687203" lon="7.5643083317429465" id="-72066">
		<tag k="name" v="Heinebu" />
		<tag k="place" v="isolated_dwelling" />
		<tag k="ssr:stedsnr" v="612973" />
	</node>
	<node lat="60.41566110690185" lon="7.124038886207555" id="-72078">
		<tag k="name" v="Bjødnatun" />
		<tag k="place" v="quarter" />
		<tag k="ssr:stedsnr" v="633152" />
	</node>
	<node lat="60.47989444024834" lon="6.995583339519465" id="-72105">
		<tag k="name" v="Sand" />
		<tag k="place" v="farm" />
		<tag k="ssr:stedsnr" v="711949" />
	</node>
	<node lat="60.332049996011584" lon="7.545602779044874" id="-72119">
		<tag k="fixme" v="consider tourism=alpine_hut or tourism=chalet" />
		<tag k="name" v="Bjoreidalshytta" />
		<tag k="ssr:stedsnr" v="733876" />
		<tag k="tourism" v="wilderness_hut" />
	</node>
	<node lat="60.47606388985537" lon="7.650627774699434" id="-72170">
		<tag k="name" v="Krobu" />
		<tag k="place" v="locality" />
		<tag k="ssr:stedsnr" v="794596" />
	</node>
	<node lat="60.443864370608004" lon="7.097533724202002" id="-72179">
		<tag k="fixme" v="consider place=hamlet" />
		<tag k="name" v="Kvammen" />
		<tag k="place" v="farm" />
		<tag k="ssr:stedsnr" v="794746" />
	</node>
	<node lat="60.35619167003818" lon="7.448708339234744" id="-72191">
		<tag k="historic" v="shieling" />
		<tag k="name" v="Gruvo" />
		<tag k="place" v="isolated_dwelling" />
		<tag k="ssr:stedsnr" v="794945" />
	</node>
	<node lat="60.4699177678062" lon="6.904595783914517" id="-72195">
		<tag k="fixme" v="consider place=hamlet" />
		<tag k="name" v="Brimnes" />
		<tag k="place" v="farm" />
		<tag k="ssr:stedsnr" v="813316" />
	</node>
	<node lat="60.4692861079754" lon="7.075972216193676" id="-72223">
		<tag k="name" v="Sjobakkane" />
		<tag k="place" v="quarter" />
		<tag k="ssr:stedsnr" v="830198" />
	</node>
	<node lat="60.51291428497184" lon="6.9991099322330985" id="-72228">
		<tag k="historic" v="shieling" />
		<tag k="name" v="Skaret" />
		<tag k="old_name" v="Skardsete" />
		<tag k="place" v="isolated_dwelling" />
		<tag k="ssr:stedsnr" v="855139" />
	</node>
	<node lat="60.471163889122124" lon="6.858355563005069" id="-72229">
		<tag k="name" v="Dokki" />
		<tag k="place" v="farm" />
		<tag k="ssr:stedsnr" v="855313" />
	</node>
	<node lat="60.40907499712421" lon="7.403563887822269" id="-72235">
		<tag k="name" v="Busete" />
		<tag k="place" v="locality" />
		<tag k="ssr:stedsnr" v="855562" />
	</node>
	<node lat="60.399863891357285" lon="7.357363892224936" id="-72236">
		<tag k="alt_name" v="Nystøl" />
		<tag k="historic" v="shieling" />
		<tag k="name" v="Nyestølen" />
		<tag k="place" v="isolated_dwelling" />
		<tag k="ssr:stedsnr" v="855564" />
	</node>
	<node lat="60.478391665246576" lon="7.084533339124405" id="-72262">
		<tag k="name" v="Leirvikane" />
		<tag k="place" v="farm" />
		<tag k="ssr:stedsnr" v="877193" />
	</node>
	<node lat="60.50053055822894" lon="7.158991673710502" id="-72278">
		<tag k="alt_name" v="Sæd" />
		<tag k="fixme" v="consider place=hamlet" />
		<tag k="name" v="Sæ" />
		<tag k="place" v="farm" />
		<tag k="ssr:stedsnr" v="888629" />
	</node>
	<node lat="60.46009999619637" lon="7.076625000547668" id="-72305">
		<tag k="name" v="Øvrehagen" />
		<tag k="place" v="quarter" />
		<tag k="ssr:stedsnr" v="951221" />
	</node>
	<node lat="60.420654797766964" lon="7.132524350525267" id="-72348">
		<tag k="name" v="Moen" />
		<tag k="place" v="farm" />
		<tag k="ssr:stedsnr" v="1077072" />
	</node>
</osm>
