<?xml version="1.0" encoding="UTF-8"?>
<osm version="0.6" generator="osmapis">
	<node lat="60.469033336704015" lon="6.881261116013456" id="-71000">
		<tag k="name" v="Vikanes" />
		<tag k="natural" v="cape" />
		<tag k="ssr:stedsnr" v="463454" />
	</node>
	<node lat="60.490475003389925" lon="6.930663893863085" id="-71111">
		<tag k="name" v="Kvernauga" />
		<tag k="natural" v="cape" />
		<tag k="ssr:stedsnr" v="430406" />
	</node>
	<node lat="60.50277777433918" lon="6.986988889639656" id="-71174">
		<tag k="name" v="Bagnsvikane" />
		<tag k="natural" v="bay" />
		<tag k="ssr:stedsnr" v="463323" />
	</node>
	<node lat="60.48131388625901" lon="7.006805560970186" id="-71175">
		<tag k="name" v="Fiskaviki" />
		<tag k="natural" v="bay" />
		<tag k="ssr:stedsnr" v="463380" />
	</node>
	<node lat="60.46498055779704" lon="7.059094444967528" id="-71188">
		<tag k="name" v="Gamlenaustvika" />
		<tag k="natural" v="bay" />
		<tag k="old_name" v="Gamle Naustvik" />
		<tag k="ssr:stedsnr" v="468928" />
	</node>
	<node lat="60.48180277533494" lon="6.984286109010479" id="-71293">
		<tag k="name" v="Sagviki" />
		<tag k="natural" v="bay" />
		<tag k="ssr:stedsnr" v="705467" />
	</node>
	<node lat="60.4829861141811" lon="6.994175003002894" id="-71294">
		<tag k="name" v="Naustnes" />
		<tag k="natural" v="cape" />
		<tag k="ssr:stedsnr" v="705469" />
	</node>
	<node lat="60.4705361116008" lon="6.904572229027546" id="-71313">
		<tag k="name" v="Aplaviki" />
		<tag k="natural" v="bay" />
		<tag k="ssr:stedsnr" v="644525" />
	</node>
	<node lat="60.495380559205636" lon="7.113183336289792" id="-71357">
		<tag k="name" v="Nesjaodden" />
		<tag k="natural" v="cape" />
		<tag k="ssr:stedsnr" v="706678" />
	</node>
	<node lat="60.486347220548566" lon="7.101352770222879" id="-71451">
		<tag k="name" v="Stavanesodden" />
		<tag k="natural" v="cape" />
		<tag k="ssr:stedsnr" v="828663" />
	</node>
	<node lat="60.43730555158505" lon="7.119569445425275" id="-71590">
		<tag k="name" v="Tindesnes" />
		<tag k="natural" v="cape" />
		<tag k="ssr:stedsnr" v="38800" />
	</node>
	<node lat="60.478469444912434" lon="7.024622219236719" id="-71601">
		<tag k="name" v="Oksaneset" />
		<tag k="natural" v="cape" />
		<tag k="ssr:stedsnr" v="43962" />
	</node>
	<node lat="60.47191666603744" lon="6.912647228083754" id="-71632">
		<tag k="fixme" v="consider seamark:type=rock or natural=shoal" />
		<tag k="name" v="Saltaskjer" />
		<tag k="place" v="islet" />
		<tag k="ssr:stedsnr" v="99489" />
	</node>
	<node lat="60.46640555920254" lon="7.065863883643892" id="-71640">
		<tag k="name" v="Vik" />
		<tag k="natural" v="bay" />
		<tag k="ssr:stedsnr" v="99328" />
	</node>
	<node lat="60.49183055975469" lon="7.1313111190778455" id="-71710">
		<tag k="name" v="Televiki" />
		<tag k="natural" v="bay" />
		<tag k="ssr:stedsnr" v="160644" />
	</node>
	<node lat="60.494247219022576" lon="7.112688891669277" id="-71720">
		<tag k="alt_name" v="Simadalsskjæri;Simadalsskjæra" />
		<tag k="fixme" v="consider seamark:type=rock or natural=shoal" />
		<tag k="name" v="Simadalsskjera" />
		<tag k="place" v="islet" />
		<tag k="ssr:stedsnr" v="164956" />
	</node>
	<node lat="60.493983332234805" lon="7.138647229674642" id="-71808">
		<tag k="name" v="Prestkoneholet" />
		<tag k="natural" v="bay" />
		<tag k="ssr:stedsnr" v="286967" />
	</node>
	<node lat="60.44336944688865" lon="7.10731388091056" id="-71842">
		<tag k="name" v="Kvamsneset" />
		<tag k="natural" v="cape" />
		<tag k="ssr:stedsnr" v="342678" />
	</node>
	<node lat="60.46925833279351" lon="7.047505564473652" id="-71844">
		<tag k="name" v="Kyskeneset" />
		<tag k="natural" v="cape" />
		<tag k="ssr:stedsnr" v="346945" />
	</node>
	<node lat="60.48264721824333" lon="6.995950002386797" id="-72081">
		<tag k="name" v="Nolten" />
		<tag k="natural" v="cape" />
		<tag k="ssr:stedsnr" v="644433" />
	</node>
	<node lat="60.498030559980265" lon="7.026436116286206" id="-72096">
		<tag k="name" v="Selavik" />
		<tag k="natural" v="bay" />
		<tag k="ssr:stedsnr" v="650823" />
	</node>
	<node lat="60.4711916635877" lon="7.0736222160704125" id="-72097">
		<tag k="name" v="Hæreidvika" />
		<tag k="natural" v="bay" />
		<tag k="old_name" v="Hæreidvik" />
		<tag k="ssr:stedsnr" v="650951" />
	</node>
	<node lat="60.498997219627114" lon="7.130986108922481" id="-72098">
		<tag k="name" v="Kjeanesvika" />
		<tag k="natural" v="bay" />
		<tag k="old_name" v="Kjeanesvik" />
		<tag k="ssr:stedsnr" v="650953" />
	</node>
	<node lat="60.48215833129599" lon="6.998661106583864" id="-72205">
		<tag k="name" v="Sansaviki" />
		<tag k="natural" v="bay" />
		<tag k="ssr:stedsnr" v="827452" />
	</node>
	<node lat="60.468251594267635" lon="6.892706383964358" id="-72275">
		<tag k="name" v="Teigaviki" />
		<tag k="natural" v="bay" />
		<tag k="old_name" v="Teigoviki" />
		<tag k="ssr:stedsnr" v="888441" />
	</node>
</osm>
