<?xml version="1.0" encoding="UTF-8"?>
<osm version="0.6" generator="osmapis">
	<node lat="60.16609444361169" lon="7.556494450941931" id="-70781">
		<tag k="name" v="Bremafoten" />
		<tag k="ssr:stedsnr" v="4764" />
		<tag k="waterway" v="river" />
	</node>
	<node lat="60.14796667038875" lon="7.368649994698041" id="-70782">
		<tag k="name" v="Steinkjeret" />
		<tag k="place" v="locality" />
		<tag k="ssr:stedsnr" v="4769" />
	</node>
	<node lat="60.382393573429844" lon="7.43267325540056" id="-70801">
		<tag k="name" v="Repsetjørnane" />
		<tag k="natural" v="water" />
		<tag k="ssr:stedsnr" v="5911" />
		<tag k="water" v="lake" />
	</node>
	<node lat="60.270144443314074" lon="7.588466667659394" id="-70804">
		<tag k="name" v="Simleøya" />
		<tag k="place" v="islet" />
		<tag k="ssr:stedsnr" v="5957" />
	</node>
	<node lat="60.43861944723712" lon="7.2822861187501395" id="-70811">
		<tag k="name" v="Sanghøl" />
		<tag k="place" v="locality" />
		<tag k="ssr:stedsnr" v="37073" />
	</node>
	<node lat="60.40081944136246" lon="7.255805553194104" id="-70812">
		<tag k="name" v="Skisetebekken" />
		<tag k="ssr:stedsnr" v="37075" />
		<tag k="waterway" v="stream" />
	</node>
	<node lat="60.41819166960496" lon="7.173244451637132" id="-70816">
		<tag k="name" v="Varbergneset" />
		<tag k="natural" v="cape" />
		<tag k="ssr:stedsnr" v="38722" />
	</node>
	<node lat="60.176810706032036" lon="7.359535866412897" id="-70827">
		<tag k="name" v="Lomatjørnane" />
		<tag k="natural" v="water" />
		<tag k="ssr:stedsnr" v="65700" />
		<tag k="water" v="lake" />
	</node>
	<node lat="60.24087752553202" lon="7.594690213359957" id="-70832">
		<tag k="name" v="Kleivshovdtjørnane" />
		<tag k="natural" v="water" />
		<tag k="ssr:stedsnr" v="66257" />
		<tag k="water" v="lake" />
	</node>
	<node lat="60.409877776507244" lon="7.271736109531651" id="-70840">
		<tag k="name" v="Fetafossen" />
		<tag k="natural" v="waterfall" />
		<tag k="ssr:stedsnr" v="66704" />
	</node>
	<node lat="60.22321388931276" lon="7.405241660322052" id="-70857">
		<tag k="name" v="Nordåna" />
		<tag k="ssr:stedsnr" v="66695" />
		<tag k="waterway" v="river" />
	</node>
	<node lat="60.57648298636613" lon="7.266292143221707" id="-70866">
		<tag k="name" v="Holmavatnet" />
		<tag k="natural" v="water" />
		<tag k="ssr:stedsnr" v="67196" />
		<tag k="water" v="lake" />
	</node>
	<node lat="60.19205555610462" lon="7.402049991031117" id="-70875">
		<tag k="name" v="Nesbuholmen" />
		<tag k="place" v="islet" />
		<tag k="ssr:stedsnr" v="247700" />
	</node>
	<node lat="60.49976058935211" lon="7.127306466306735" id="-70886">
		<tag k="name" v="Åselvi" />
		<tag k="ssr:stedsnr" v="99712" />
		<tag k="waterway" v="river" />
	</node>
	<node lat="60.42274104613601" lon="7.412010313318674" id="-70889">
		<tag k="name" v="Sysenvatnet" />
		<tag k="natural" v="water" />
		<tag k="ssr:stedsnr" v="248582" />
		<tag k="water" v="lake" />
	</node>
	<node lat="60.491609924281015" lon="7.6260150237469775" id="-70890">
		<tag k="name" v="Finnsbergvatnet" />
		<tag k="natural" v="water" />
		<tag k="ssr:stedsnr" v="248625" />
		<tag k="water" v="lake" />
	</node>
	<node lat="60.28485000328127" lon="7.428033333449222" id="-70916">
		<tag k="name" v="Hitabekken" />
		<tag k="ssr:stedsnr" v="127913" />
		<tag k="waterway" v="stream" />
	</node>
	<node lat="60.50623055173665" lon="7.019705548320179" id="-70917">
		<tag k="name" v="Skorselva" />
		<tag k="ssr:stedsnr" v="128214" />
		<tag k="waterway" v="stream" />
	</node>
	<node lat="60.46452499656327" lon="6.8996777770550635" id="-70924">
		<tag k="name" v="Teigelvi" />
		<tag k="ssr:stedsnr" v="159552" />
		<tag k="waterway" v="river" />
	</node>
	<node lat="60.232145711531345" lon="7.556228310513218" id="-70928">
		<tag k="name" v="Vombstjørnane" />
		<tag k="natural" v="water" />
		<tag k="ssr:stedsnr" v="187675" />
		<tag k="water" v="lake" />
	</node>
	<node lat="60.354016667607155" lon="7.51464445121675" id="-70933">
		<tag k="name" v="Nybubekken" />
		<tag k="ssr:stedsnr" v="187919" />
		<tag k="waterway" v="stream" />
	</node>
	<node lat="60.55504955025838" lon="7.230661186772147" id="-70934">
		<tag k="name" v="Grasbotnvatnet" />
		<tag k="natural" v="water" />
		<tag k="ssr:stedsnr" v="188170" />
	</node>
	<node lat="60.54164418825848" lon="7.237991348803332" id="-70936">
		<tag k="name" v="Fossavatnet" />
		<tag k="natural" v="water" />
		<tag k="ssr:stedsnr" v="188184" />
	</node>
	<node lat="60.50540555458636" lon="7.246294443302373" id="-70947">
		<tag k="name" v="Løfallfossen" />
		<tag k="natural" v="waterfall" />
		<tag k="ssr:stedsnr" v="220514" />
	</node>
	<node lat="60.49835555274594" lon="7.186475003417363" id="-70953">
		<tag k="name" v="Øyjordsbekken" />
		<tag k="ssr:stedsnr" v="220725" />
		<tag k="waterway" v="stream" />
	</node>
	<node lat="60.39906944784303" lon="7.155383325023832" id="-70954">
		<tag k="name" v="Fjøringsbekken" />
		<tag k="ssr:stedsnr" v="221224" />
		<tag k="waterway" v="stream" />
	</node>
	<node lat="60.127623406705624" lon="7.270773066280568" id="-70960">
		<tag k="loc_name" v="Grjottjørnane" />
		<tag k="name" v="Grottjørnane" />
		<tag k="natural" v="water" />
		<tag k="ssr:stedsnr" v="247265" />
		<tag k="water" v="lake" />
	</node>
	<node lat="60.18699444848028" lon="7.377261118071678" id="-70961">
		<tag k="name" v="Lomabekken" />
		<tag k="ssr:stedsnr" v="247677" />
		<tag k="waterway" v="stream" />
	</node>
	<node lat="60.47078055682561" lon="7.415919452048471" id="-70965">
		<tag k="name" v="Hellevatnet" />
		<tag k="natural" v="water" />
		<tag k="ssr:stedsnr" v="248617" />
		<tag k="water" v="lake" />
	</node>
	<node lat="60.32771944215405" lon="7.572744436534333" id="-70977">
		<tag k="name" v="Svinto" />
		<tag k="ssr:stedsnr" v="248896" />
		<tag k="waterway" v="river" />
	</node>
	<node lat="60.36251111002987" lon="7.1952277717093605" id="-70990">
		<tag k="name" v="Tinndølebekken" />
		<tag k="ssr:stedsnr" v="281372" />
		<tag k="waterway" v="stream" />
	</node>
	<node lat="60.36311944581778" lon="7.209949996727015" id="-71005">
		<tag k="name" v="Frubekken" />
		<tag k="ssr:stedsnr" v="463326" />
		<tag k="waterway" v="stream" />
	</node>
	<node lat="60.429991670911875" lon="7.085230550235551" id="-71009">
		<tag k="name" v="Kvamsdalsbekken" />
		<tag k="ssr:stedsnr" v="463370" />
		<tag k="waterway" v="stream" />
	</node>
	<node lat="60.44971389054949" lon="7.095941666229548" id="-71010">
		<tag k="name" v="Stiganes" />
		<tag k="natural" v="cape" />
		<tag k="ssr:stedsnr" v="463373" />
	</node>
	<node lat="60.496930552018995" lon="7.170000006542898" id="-71013">
		<tag k="name" v="Erreskredbekken" />
		<tag k="ssr:stedsnr" v="463638" />
		<tag k="waterway" v="stream" />
	</node>
	<node lat="60.12562122594087" lon="7.46457688165828" id="-71027">
		<tag k="name" v="Lakadalstjørnane" />
		<tag k="natural" v="water" />
		<tag k="ssr:stedsnr" v="308703" />
		<tag k="water" v="lake" />
	</node>
	<node lat="60.499613890607726" lon="7.231377786668427" id="-71048">
		<tag k="name" v="Fonnagjelbekken" />
		<tag k="ssr:stedsnr" v="341503" />
		<tag k="waterway" v="stream" />
	</node>
	<node lat="60.49871388558875" lon="7.180302786230306" id="-71060">
		<tag k="alt_name" v="Selgjerbekken" />
		<tag k="name" v="Selgjerdbekken" />
		<tag k="ssr:stedsnr" v="342597" />
		<tag k="waterway" v="stream" />
	</node>
	<node lat="60.14269444366793" lon="7.295933340952152" id="-71063">
		<tag k="name" v="Engelstjørn" />
		<tag k="natural" v="water" />
		<tag k="ssr:stedsnr" v="368307" />
	</node>
	<node lat="60.57882499578117" lon="7.302530559147843" id="-71081">
		<tag k="name" v="Ramnabergvatnet" />
		<tag k="natural" v="water" />
		<tag k="ssr:stedsnr" v="370202" />
		<tag k="water" v="lake" />
	</node>
	<node lat="60.518974997501" lon="7.25839999973349" id="-71084">
		<tag k="name" v="Rembesdalsfossen" />
		<tag k="natural" v="waterfall" />
		<tag k="ssr:stedsnr" v="370273" />
	</node>
	<node lat="60.507588890050144" lon="6.978494443728907" id="-71086">
		<tag k="name" v="Ologselva" />
		<tag k="ssr:stedsnr" v="370279" />
		<tag k="waterway" v="stream" />
	</node>
	<node lat="60.405824996804306" lon="7.116380563035005" id="-71093">
		<tag k="name" v="Nonsgjelsbekken" />
		<tag k="ssr:stedsnr" v="403252" />
		<tag k="waterway" v="stream" />
	</node>
	<node lat="60.42541944213942" lon="7.11565556006234" id="-71095">
		<tag k="name" v="Øyrane" />
		<tag k="place" v="island" />
		<tag k="ssr:stedsnr" v="403702" />
	</node>
	<node lat="60.18491666650871" lon="7.421633329116508" id="-71097">
		<tag k="name" v="Bessesundet" />
		<tag k="natural" v="strait" />
		<tag k="ssr:stedsnr" v="489722" />
	</node>
	<node lat="60.45653333462209" lon="7.51869166870665" id="-71119">
		<tag k="name" v="Holsno" />
		<tag k="ssr:stedsnr" v="430601" />
		<tag k="waterway" v="river" />
	</node>
	<node lat="60.19660568811233" lon="7.408195664906572" id="-71120">
		<tag k="name" v="Nordmannslågen" />
		<tag k="natural" v="water" />
		<tag k="ssr:stedsnr" v="430706" />
		<tag k="water" v="lake" />
	</node>
	<node lat="60.546991664391726" lon="7.232425003676318" id="-71131">
		<tag k="name" v="Nordelva" />
		<tag k="ssr:stedsnr" v="491164" />
		<tag k="waterway" v="stream" />
	</node>
	<node lat="60.50305000031459" lon="7.053855547025497" id="-71136">
		<tag k="name" v="Bytesbekken" />
		<tag k="ssr:stedsnr" v="492201" />
		<tag k="waterway" v="stream" />
	</node>
	<node lat="60.369544442841544" lon="7.435580551347885" id="-71152">
		<tag k="name" v="Gjero" />
		<tag k="ssr:stedsnr" v="672931" />
		<tag k="waterway" v="stream" />
	</node>
	<node lat="60.350280551341356" lon="7.518727769062173" id="-71160">
		<tag k="name" v="Larsbubekken" />
		<tag k="ssr:stedsnr" v="673888" />
		<tag k="waterway" v="stream" />
	</node>
	<node lat="60.464997224879355" lon="7.073591659025756" id="-71172">
		<tag k="name" v="Kjærøyni" />
		<tag k="place" v="island" />
		<tag k="ssr:stedsnr" v="463309" />
	</node>
	<node lat="60.50572500221267" lon="6.992874994943815" id="-71178">
		<tag k="name" v="Sloarbekken" />
		<tag k="ssr:stedsnr" v="674229" />
		<tag k="waterway" v="stream" />
	</node>
	<node lat="60.50156111048232" lon="7.147488889062094" id="-71183">
		<tag k="name" v="Ekrebekken" />
		<tag k="ssr:stedsnr" v="463657" />
		<tag k="waterway" v="stream" />
	</node>
	<node lat="60.52623835209081" lon="7.185666528098852" id="-71204">
		<tag k="name" v="Skredåstjørna" />
		<tag k="natural" v="water" />
		<tag k="ssr:stedsnr" v="491132" />
	</node>
	<node lat="60.29003610833806" lon="7.612230555257971" id="-71218">
		<tag k="name" v="Veiso" />
		<tag k="ssr:stedsnr" v="491981" />
		<tag k="waterway" v="stream" />
	</node>
	<node lat="60.49801110795879" lon="7.192399992452951" id="-71236">
		<tag k="name" v="Klevahaugo" />
		<tag k="ssr:stedsnr" v="524607" />
		<tag k="waterway" v="stream" />
	</node>
	<node lat="60.52773458481082" lon="7.271881646172407" id="-71240">
		<tag k="name" v="Rembesdalsvatnet" />
		<tag k="natural" v="water" />
		<tag k="ssr:stedsnr" v="551149" />
		<tag k="water" v="lake" />
	</node>
	<node lat="60.22714999611613" lon="7.416083326155935" id="-71244">
		<tag k="name" v="Holmavatnet" />
		<tag k="natural" v="water" />
		<tag k="ssr:stedsnr" v="551719" />
	</node>
	<node lat="60.51301901280012" lon="7.134112557183042" id="-71255">
		<tag k="name" v="Åsåna" />
		<tag k="ssr:stedsnr" v="552147" />
		<tag k="waterway" v="stream" />
	</node>
	<node lat="60.45741412906871" lon="7.093020146455002" id="-71263">
		<tag k="name" v="Eio" />
		<tag k="ssr:stedsnr" v="695286" />
		<tag k="waterway" v="river" />
	</node>
	<node lat="60.43118212651611" lon="7.385008667967491" id="-71298">
		<tag k="name" v="Hansalibekken" />
		<tag k="ssr:stedsnr" v="705557" />
		<tag k="waterway" v="stream" />
	</node>
	<node lat="60.469363888300215" lon="7.071038880266651" id="-71306">
		<tag k="name" v="Osen" />
		<tag k="natural" v="bay" />
		<tag k="ssr:stedsnr" v="644323" />
	</node>
	<node lat="60.38653888550817" lon="7.422244445147051" id="-71364">
		<tag k="name" v="Sandtjørnbekken" />
		<tag k="ssr:stedsnr" v="733908" />
		<tag k="waterway" v="stream" />
	</node>
	<node lat="60.53196468364493" lon="7.1819830506772755" id="-71365">
		<tag k="name" v="Erikstjørn" />
		<tag k="natural" v="water" />
		<tag k="ssr:stedsnr" v="734139" />
	</node>
	<node lat="60.49978888965028" lon="7.122197228584365" id="-71380">
		<tag k="name" v="Neselvi" />
		<tag k="ssr:stedsnr" v="766710" />
		<tag k="waterway" v="river" />
	</node>
	<node lat="60.24565277850922" lon="7.3491388810614895" id="-71405">
		<tag k="name" v="Andersosen" />
		<tag k="place" v="locality" />
		<tag k="ssr:stedsnr" v="915259" />
	</node>
	<node lat="60.24917221857684" lon="7.559488891419265" id="-71406">
		<tag k="name" v="Snero" />
		<tag k="ssr:stedsnr" v="915261" />
		<tag k="waterway" v="river" />
	</node>
	<node lat="60.235350002138325" lon="7.385327772552087" id="-71418">
		<tag k="name" v="Nordvatnet" />
		<tag k="natural" v="water" />
		<tag k="ssr:stedsnr" v="915691" />
		<tag k="water" v="lake" />
	</node>
	<node lat="60.34671111003362" lon="7.692819436268794" id="-71434">
		<tag k="name" v="Skaupsjøen" />
		<tag k="natural" v="water" />
		<tag k="ssr:stedsnr" v="916891" />
		<tag k="water" v="lake" />
	</node>
	<node lat="60.256108332144926" lon="7.602769442048841" id="-71436">
		<tag k="name" v="Hestosen" />
		<tag k="natural" v="bay" />
		<tag k="ssr:stedsnr" v="916985" />
	</node>
	<node lat="60.407602781554296" lon="7.30683055813041" id="-71442">
		<tag k="name" v="Øyni" />
		<tag k="place" v="island" />
		<tag k="ssr:stedsnr" v="826070" />
	</node>
	<node lat="60.14414871725606" lon="7.331245565841052" id="-71453">
		<tag k="name" v="Bismarvatnet" />
		<tag k="natural" v="water" />
		<tag k="ssr:stedsnr" v="854262" />
		<tag k="water" v="lake" />
	</node>
	<node lat="60.15203611027918" lon="7.2924583324418455" id="-71454">
		<tag k="name" v="Dyrasanden" />
		<tag k="natural" v="beach" />
		<tag k="ssr:stedsnr" v="854302" />
	</node>
	<node lat="60.34679166924845" lon="7.401894440518831" id="-71465">
		<tag k="name" v="Grjoto" />
		<tag k="ssr:stedsnr" v="855887" />
		<tag k="waterway" v="stream" />
	</node>
	<node lat="60.2604361076606" lon="7.597813892195264" id="-71466">
		<tag k="name" v="Dyratangen" />
		<tag k="natural" v="cape" />
		<tag k="ssr:stedsnr" v="855985" />
	</node>
	<node lat="60.56428314810838" lon="7.301250623281318" id="-71468">
		<tag k="name" v="Nutavatnet" />
		<tag k="natural" v="water" />
		<tag k="ssr:stedsnr" v="856144" />
		<tag k="water" v="lake" />
	</node>
	<node lat="60.27808888838542" lon="7.6248333266091795" id="-71514">
		<tag k="name" v="Sandtjørnane" />
		<tag k="natural" v="water" />
		<tag k="ssr:stedsnr" v="916979" />
		<tag k="water" v="lake" />
	</node>
	<node lat="60.498072224707535" lon="7.216891659240956" id="-71517">
		<tag k="name" v="Alstabekken" />
		<tag k="ssr:stedsnr" v="948004" />
		<tag k="waterway" v="stream" />
	</node>
	<node lat="60.46200833147511" lon="7.0069888814241335" id="-71526">
		<tag k="name" v="Bergabekken" />
		<tag k="ssr:stedsnr" v="948493" />
		<tag k="waterway" v="stream" />
	</node>
	<node lat="60.18811111414387" lon="7.421500002013218" id="-71543">
		<tag k="name" v="Sønstebøøyna" />
		<tag k="place" v="island" />
		<tag k="ssr:stedsnr" v="4690" />
	</node>
	<node lat="60.13542500096436" lon="7.392188882125404" id="-71545">
		<tag k="name" v="Nøkkjatjørna" />
		<tag k="natural" v="water" />
		<tag k="ssr:stedsnr" v="4739" />
	</node>
	<node lat="60.19856388878489" lon="7.424425005733297" id="-71558">
		<tag k="name" v="Vikane" />
		<tag k="natural" v="bay" />
		<tag k="ssr:stedsnr" v="5684" />
	</node>
	<node lat="60.40344720911166" lon="7.600400682646758" id="-71568">
		<tag k="name" v="Dyratjørnane" />
		<tag k="natural" v="water" />
		<tag k="ssr:stedsnr" v="5898" />
		<tag k="water" v="lake" />
	</node>
	<node lat="60.41172500331778" lon="7.261941660053281" id="-71584">
		<tag k="name" v="Engjahøl" />
		<tag k="place" v="locality" />
		<tag k="ssr:stedsnr" v="38444" />
	</node>
	<node lat="60.44533093664708" lon="7.10102348862529" id="-71588">
		<tag k="name" v="Kvamselva" />
		<tag k="ssr:stedsnr" v="38785" />
		<tag k="waterway" v="stream" />
	</node>
	<node lat="60.434933332156454" lon="7.126547228268389" id="-71589">
		<tag k="name" v="Skogasetbekken" />
		<tag k="ssr:stedsnr" v="38799" />
		<tag k="waterway" v="stream" />
	</node>
	<node lat="60.122941669759996" lon="7.4255749996239455" id="-71604">
		<tag k="name" v="Reinavatnet" />
		<tag k="natural" v="water" />
		<tag k="ssr:stedsnr" v="65723" />
		<tag k="water" v="lake" />
	</node>
	<node lat="60.446581690998656" lon="6.891470297596406" id="-71610">
		<tag k="name" v="Storavatnet" />
		<tag k="natural" v="water" />
		<tag k="ssr:stedsnr" v="66335" />
	</node>
	<node lat="60.416669448432565" lon="7.348941658975957" id="-71613">
		<tag k="name" v="Børdølo" />
		<tag k="ssr:stedsnr" v="66554" />
		<tag k="waterway" v="stream" />
	</node>
	<node lat="60.35737777575092" lon="7.143513880130555" id="-71642">
		<tag k="name" v="Røvskorfossen" />
		<tag k="natural" v="waterfall" />
		<tag k="ssr:stedsnr" v="99336" />
	</node>
	<node lat="60.50454721938173" lon="7.223474994379989" id="-71648">
		<tag k="name" v="Hiskredbekken" />
		<tag k="ssr:stedsnr" v="99453" />
		<tag k="waterway" v="stream" />
	</node>
	<node lat="60.49346944332283" lon="7.139766660461052" id="-71650">
		<tag k="name" v="Isdammen" />
		<tag k="ssr:stedsnr" v="99734" />
		<tag k="waterway" v="dam" />
	</node>
	<node lat="60.55203333333932" lon="7.319375007521863" id="-71673">
		<tag k="alt_name" v="Demmevatnet, midtre" />
		<tag k="name" v="Midtre Demmevatnet" />
		<tag k="natural" v="water" />
		<tag k="ssr:stedsnr" v="127165" />
		<tag k="water" v="lake" />
	</node>
	<node lat="60.45003804847656" lon="7.48921628213318" id="-71674">
		<tag k="loc_name" v="Leirevatnet" />
		<tag k="name" v="Leirvatnet" />
		<tag k="natural" v="water" />
		<tag k="ssr:stedsnr" v="127628" />
		<tag k="water" v="lake" />
	</node>
	<node lat="60.463388885561244" lon="7.474405548774672" id="-71676">
		<tag k="name" v="Øyane" />
		<tag k="place" v="island" />
		<tag k="ssr:stedsnr" v="127638" />
	</node>
	<node lat="60.46436666802364" lon="7.0455805487978616" id="-71690">
		<tag k="name" v="Menesbekken" />
		<tag k="ssr:stedsnr" v="159338" />
		<tag k="waterway" v="stream" />
	</node>
	<node lat="60.49771666992133" lon="7.206024994128875" id="-71704">
		<tag k="name" v="Middagsbekken" />
		<tag k="ssr:stedsnr" v="160599" />
		<tag k="waterway" v="stream" />
	</node>
	<node lat="60.50642499875268" lon="7.187747229690067" id="-71708">
		<tag k="name" v="Skredåni" />
		<tag k="ssr:stedsnr" v="160635" />
		<tag k="waterway" v="river" />
	</node>
	<node lat="60.174824996155124" lon="7.393925009089798" id="-71733">
		<tag k="name" v="Besso" />
		<tag k="ssr:stedsnr" v="186730" />
		<tag k="waterway" v="river" />
	</node>
	<node lat="60.42712222289965" lon="7.251230548568457" id="-71736">
		<tag k="alt_name" v="Vøringen" />
		<tag k="name" v="Vøringsfossen" />
		<tag k="natural" v="waterfall" />
		<tag k="ssr:stedsnr" v="187701" />
	</node>
	<node lat="60.30722778013889" lon="7.532136112327895" id="-71738">
		<tag k="name" v="Fossane" />
		<tag k="ssr:stedsnr" v="187884" />
		<tag k="waterway" v="rapids" />
	</node>
	<node lat="60.425019442955936" lon="7.516019441131765" id="-71741">
		<tag k="name" v="Kjeldo" />
		<tag k="ssr:stedsnr" v="187536" />
		<tag k="waterway" v="river" />
	</node>
	<node lat="60.52353611226858" lon="7.142852776030651" id="-71749">
		<tag k="name" v="Kjeåsvatnet" />
		<tag k="natural" v="water" />
		<tag k="ssr:stedsnr" v="188150" />
	</node>
	<node lat="60.426847662465455" lon="6.9595477809990935" id="-71750">
		<tag k="name" v="Busetevatnet" />
		<tag k="natural" v="water" />
		<tag k="ssr:stedsnr" v="188395" />
		<tag k="water" v="lake" />
	</node>
	<node lat="60.4746527810555" lon="6.993022217545466" id="-71772">
		<tag k="name" v="Fossen" />
		<tag k="natural" v="waterfall" />
		<tag k="ssr:stedsnr" v="220468" />
	</node>
	<node lat="60.468605558370186" lon="6.921813890423788" id="-71773">
		<tag k="name" v="Vikebekken" />
		<tag k="ssr:stedsnr" v="220547" />
		<tag k="waterway" v="stream" />
	</node>
	<node lat="60.37606944829477" lon="7.145816667767626" id="-71780">
		<tag k="name" v="Øyane" />
		<tag k="place" v="island" />
		<tag k="ssr:stedsnr" v="221262" />
	</node>
	<node lat="60.41426666354155" lon="7.114166665586468" id="-71782">
		<tag k="name" v="Sauabekken" />
		<tag k="ssr:stedsnr" v="221640" />
		<tag k="waterway" v="stream" />
	</node>
	<node lat="60.46423332922172" lon="7.004547228140123" id="-71801">
		<tag k="name" v="Tungegjelsbekken" />
		<tag k="ssr:stedsnr" v="281450" />
		<tag k="waterway" v="stream" />
	</node>
	<node lat="60.42612222009663" lon="7.120836107439501" id="-71806">
		<tag k="name" v="Litlatunøyni" />
		<tag k="place" v="island" />
		<tag k="ssr:stedsnr" v="281764" />
	</node>
	<node lat="60.423705558254724" lon="7.098966672342878" id="-71807">
		<tag k="name" v="Svinåni" />
		<tag k="ssr:stedsnr" v="281774" />
		<tag k="waterway" v="stream" />
	</node>
	<node lat="60.3258735757129" lon="7.510953951867564" id="-71932">
		<tag k="name" v="Hjølmatjørnane" />
		<tag k="natural" v="water" />
		<tag k="ssr:stedsnr" v="430884" />
		<tag k="water" v="lake" />
	</node>
	<node lat="60.53022177239662" lon="7.115764082656648" id="-71936">
		<tag k="name" v="Istjørni" />
		<tag k="natural" v="water" />
		<tag k="ssr:stedsnr" v="431168" />
	</node>
	<node lat="60.55427499890628" lon="7.325599992847774" id="-71937">
		<tag k="alt_name" v="Demmevatnet, øvre" />
		<tag k="name" v="Øvre Demmevatnet" />
		<tag k="natural" v="water" />
		<tag k="ssr:stedsnr" v="431178" />
		<tag k="water" v="lake" />
	</node>
	<node lat="60.35891061077885" lon="7.168137223113617" id="-71952">
		<tag k="name" v="Brannstjørn" />
		<tag k="natural" v="water" />
		<tag k="ssr:stedsnr" v="523386" />
	</node>
	<node lat="60.38451667113985" lon="7.15516667282603" id="-71970">
		<tag k="name" v="Brattsetebekken" />
		<tag k="ssr:stedsnr" v="524249" />
		<tag k="waterway" v="stream" />
	</node>
	<node lat="60.54558611285395" lon="7.314580547655898" id="-72000">
		<tag k="alt_name" v="Demmevatnet, nedre" />
		<tag k="name" v="Nedre Demmevatnet" />
		<tag k="natural" v="water" />
		<tag k="ssr:stedsnr" v="552166" />
		<tag k="water" v="lake" />
	</node>
	<node lat="60.33192500363037" lon="7.1456166579008515" id="-72010">
		<tag k="name" v="Liøyni" />
		<tag k="place" v="island" />
		<tag k="ssr:stedsnr" v="584283" />
	</node>
	<node lat="60.49728611024966" lon="7.223322224304318" id="-72028">
		<tag k="name" v="Reinshovdbekken" />
		<tag k="ssr:stedsnr" v="584460" />
		<tag k="waterway" v="stream" />
	</node>
	<node lat="60.403713890521935" lon="7.3695361140635995" id="-72029">
		<tag k="name" v="Leiro" />
		<tag k="ssr:stedsnr" v="584468" />
		<tag k="waterway" v="river" />
	</node>
	<node lat="60.39060278102399" lon="7.382769445200034" id="-72050">
		<tag k="name" v="Storlifossen" />
		<tag k="natural" v="waterfall" />
		<tag k="ssr:stedsnr" v="611932" />
	</node>
	<node lat="60.58111789899003" lon="7.2343780980474035" id="-72067">
		<tag k="name" v="Senanutvatna" />
		<tag k="natural" v="water" />
		<tag k="ssr:stedsnr" v="613152" />
		<tag k="water" v="lake" />
	</node>
	<node lat="60.45963055982311" lon="6.912341667192864" id="-72088">
		<tag k="name" v="Stølsbekken" />
		<tag k="ssr:stedsnr" v="644390" />
		<tag k="waterway" v="stream" />
	</node>
	<node lat="60.4658111134559" lon="6.8927833310437725" id="-72091">
		<tag k="name" v="Novragjelselvi" />
		<tag k="ssr:stedsnr" v="644546" />
		<tag k="waterway" v="river" />
	</node>
	<node lat="60.49913055536038" lon="7.154430552799471" id="-72093">
		<tag k="loc_name" v="Simoa" />
		<tag k="name" v="Sima" />
		<tag k="ssr:stedsnr" v="645638" />
		<tag k="waterway" v="river" />
	</node>
	<node lat="60.13755000079217" lon="7.373161117276515" id="-72109">
		<tag k="name" v="Dimmedalsvatnet" />
		<tag k="natural" v="water" />
		<tag k="ssr:stedsnr" v="732751" />
		<tag k="water" v="lake" />
	</node>
	<node lat="60.35363889036488" lon="7.438280557223461" id="-72114">
		<tag k="name" v="Bjoreio" />
		<tag k="ssr:stedsnr" v="733679" />
		<tag k="waterway" v="river" />
	</node>
	<node lat="60.5232833349292" lon="7.174702770186768" id="-72122">
		<tag k="name" v="Ljotavatnet" />
		<tag k="natural" v="water" />
		<tag k="ssr:stedsnr" v="734132" />
	</node>
	<node lat="60.32693889331847" lon="7.136466675032114" id="-72139">
		<tag k="name" v="Storeholmen" />
		<tag k="place" v="islet" />
		<tag k="ssr:stedsnr" v="766258" />
	</node>
	<node lat="60.38352222171502" lon="7.159413887253462" id="-72150">
		<tag k="name" v="Budeiebekken" />
		<tag k="ssr:stedsnr" v="767295" />
		<tag k="waterway" v="stream" />
	</node>
	<node lat="60.3990138900983" lon="7.127044437621318" id="-72152">
		<tag k="name" v="Seljeskorbekken" />
		<tag k="ssr:stedsnr" v="767266" />
		<tag k="waterway" v="stream" />
	</node>
	<node lat="60.383530559175774" lon="7.128283338930847" id="-72155">
		<tag k="name" v="Flåena" />
		<tag k="ssr:stedsnr" v="767280" />
		<tag k="waterway" v="stream" />
	</node>
	<node lat="60.37476111195701" lon="7.174683340199226" id="-72157">
		<tag k="name" v="Fjørungsbekken" />
		<tag k="ssr:stedsnr" v="767286" />
		<tag k="waterway" v="stream" />
	</node>
	<node lat="60.23820833529506" lon="7.1908888830677995" id="-72171">
		<tag k="name" v="Granabekken" />
		<tag k="ssr:stedsnr" v="794341" />
		<tag k="waterway" v="stream" />
	</node>
	<node lat="60.227505551803596" lon="7.199008340744704" id="-72173">
		<tag k="name" v="Simletjørnbekken" />
		<tag k="ssr:stedsnr" v="794346" />
		<tag k="waterway" v="stream" />
	</node>
	<node lat="60.22026557123602" lon="7.343762682937519" id="-72184">
		<tag k="name" v="Turreidet" />
		<tag k="place" v="locality" />
		<tag k="ssr:stedsnr" v="794708" />
	</node>
	<node lat="60.57657222271286" lon="7.242894450938924" id="-72188">
		<tag k="name" v="Olbogen" />
		<tag k="natural" v="water" />
		<tag k="ssr:stedsnr" v="795194" />
	</node>
	<node lat="60.39518742215338" lon="7.127099210443372" id="-72211">
		<tag k="name" v="Røyneskorbekken" />
		<tag k="ssr:stedsnr" v="828235" />
		<tag k="waterway" v="stream" />
	</node>
	<node lat="60.49216389069399" lon="7.159216660916518" id="-72221">
		<tag k="name" v="Storefossen" />
		<tag k="natural" v="waterfall" />
		<tag k="ssr:stedsnr" v="828660" />
	</node>
	<node lat="60.41567777570563" lon="7.67782778107135" id="-72237">
		<tag k="name" v="Halnebekken" />
		<tag k="ssr:stedsnr" v="855566" />
		<tag k="waterway" v="stream" />
	</node>
	<node lat="60.50785279031903" lon="7.1145754368437535" id="-72254">
		<tag k="loc_name" v="Onåna" />
		<tag k="name" v="Oneåa" />
		<tag k="ssr:stedsnr" v="856252" />
		<tag k="waterway" v="stream" />
	</node>
	<node lat="60.44446666977542" lon="7.291461111277116" id="-72263">
		<tag k="name" v="Tangen" />
		<tag k="natural" v="cape" />
		<tag k="ssr:stedsnr" v="887070" />
	</node>
	<node lat="60.463919444458874" lon="6.937249997621118" id="-72269">
		<tag k="name" v="Tverrbekken" />
		<tag k="ssr:stedsnr" v="888346" />
		<tag k="waterway" v="stream" />
	</node>
	<node lat="60.41635833309259" lon="7.084263896448512" id="-72270">
		<tag k="name" v="Sveinungelvi" />
		<tag k="ssr:stedsnr" v="888357" />
		<tag k="waterway" v="river" />
	</node>
	<node lat="60.363413890215206" lon="7.199236104541505" id="-72286">
		<tag k="name" v="Berastølfossen" />
		<tag k="natural" v="waterfall" />
		<tag k="ssr:stedsnr" v="948365" />
	</node>
	<node lat="60.42185555916531" lon="7.350261102319757" id="-72293">
		<tag k="name" v="Børdøla" />
		<tag k="ssr:stedsnr" v="948548" />
		<tag k="waterway" v="stream" />
	</node>
</osm>
