<?xml version="1.0" encoding="UTF-8"?>
<osm version="0.6" generator="osmapis">
	<node lat="68.8605777808824" lon="18.350533340375225" id="-98276">
		<tag k="alt_name:no" v="Bardu" />
		<tag k="loc_name:se" v="Beardu suohkan" />
		<tag k="name" v="Bardu kommune" />
		<tag k="name:no" v="Bardu kommune" />
		<tag k="ssr:date" v="2019-12-27" />
		<tag k="ssr:gruppe" v="administrativeIndelinger" />
		<tag k="ssr:hovedgruppe" v="offentligAdministrasjon" />
		<tag k="ssr:stedsnr" v="146155" />
		<tag k="ssr:type" v="kommune" />
	</node>
	<node lat="68.80161111407101" lon="18.343761106948236" id="-99607">
		<tag k="name" v="Bardu - Beardu" />
		<tag k="name:no" v="Bardu" />
		<tag k="name:se" v="Beardu" />
		<tag k="ssr:date" v="2019-12-27" />
		<tag k="ssr:gruppe" v="terrengområder" />
		<tag k="ssr:hovedgruppe" v="terreng" />
		<tag k="ssr:stedsnr" v="938785" />
		<tag k="ssr:type" v="landskapsområde" />
	</node>
	<node lat="68.86776397308782" lon="18.342665926764603" id="-99675">
		<tag k="name" v="Bjørkveien" />
		<tag k="ssr:date" v="2019-12-27" />
		<tag k="ssr:gruppe" v="veg" />
		<tag k="ssr:hovedgruppe" v="infrastruktur" />
		<tag k="ssr:stedsnr" v="1010140" />
		<tag k="ssr:type" v="adressenavn" />
	</node>
	<node lat="69.0072619309189" lon="18.523101311223886" id="-99676">
		<tag k="name" v="Brandseggveien" />
		<tag k="ssr:date" v="2019-12-27" />
		<tag k="ssr:gruppe" v="veg" />
		<tag k="ssr:hovedgruppe" v="infrastruktur" />
		<tag k="ssr:stedsnr" v="1010159" />
		<tag k="ssr:type" v="adressenavn" />
	</node>
	<node lat="68.71788620992129" lon="18.101787020503064" id="-99677">
		<tag k="name" v="Bonesveien" />
		<tag k="ssr:date" v="2019-12-27" />
		<tag k="ssr:gruppe" v="veg" />
		<tag k="ssr:hovedgruppe" v="infrastruktur" />
		<tag k="ssr:stedsnr" v="1010171" />
		<tag k="ssr:type" v="adressenavn" />
	</node>
	<node lat="69.00583199632274" lon="18.51085835311947" id="-99678">
		<tag k="name" v="Beredskapsveien" />
		<tag k="ssr:date" v="2019-12-27" />
		<tag k="ssr:gruppe" v="veg" />
		<tag k="ssr:hovedgruppe" v="infrastruktur" />
		<tag k="ssr:stedsnr" v="1010174" />
		<tag k="ssr:type" v="adressenavn" />
	</node>
	<node lat="68.87129855254102" lon="18.342671239739307" id="-99679">
		<tag k="name" v="Blåbærstien" />
		<tag k="ssr:date" v="2019-12-27" />
		<tag k="ssr:gruppe" v="veg" />
		<tag k="ssr:hovedgruppe" v="infrastruktur" />
		<tag k="ssr:stedsnr" v="1010181" />
		<tag k="ssr:type" v="adressenavn" />
	</node>
	<node lat="68.85920668053784" lon="18.348852259715496" id="-99680">
		<tag k="name" v="Blokkveien" />
		<tag k="ssr:date" v="2019-12-27" />
		<tag k="ssr:gruppe" v="veg" />
		<tag k="ssr:hovedgruppe" v="infrastruktur" />
		<tag k="ssr:stedsnr" v="1010188" />
		<tag k="ssr:type" v="adressenavn" />
	</node>
	<node lat="69.01329719753858" lon="18.48391702039283" id="-99681">
		<tag k="name" v="Bjørnsmoveien" />
		<tag k="ssr:date" v="2019-12-27" />
		<tag k="ssr:gruppe" v="veg" />
		<tag k="ssr:hovedgruppe" v="infrastruktur" />
		<tag k="ssr:stedsnr" v="1010120" />
		<tag k="ssr:type" v="adressenavn" />
	</node>
	<node lat="68.86452284690635" lon="18.091686297547994" id="-99682">
		<tag k="name" v="Prestbakkveien" />
		<tag k="ssr:date" v="2019-12-27" />
		<tag k="ssr:gruppe" v="veg" />
		<tag k="ssr:hovedgruppe" v="infrastruktur" />
		<tag k="ssr:stedsnr" v="1010132" />
		<tag k="ssr:type" v="adressenavn" />
	</node>
	<node lat="68.87279793526405" lon="18.346413095843616" id="-99683">
		<tag k="name" v="Bergveien" />
		<tag k="ssr:date" v="2019-12-27" />
		<tag k="ssr:gruppe" v="veg" />
		<tag k="ssr:hovedgruppe" v="infrastruktur" />
		<tag k="ssr:stedsnr" v="1010257" />
		<tag k="ssr:type" v="adressenavn" />
	</node>
	<node lat="68.86718442655116" lon="18.344190980224397" id="-99684">
		<tag k="name" v="Bekkfaret" />
		<tag k="ssr:date" v="2019-12-27" />
		<tag k="ssr:gruppe" v="veg" />
		<tag k="ssr:hovedgruppe" v="infrastruktur" />
		<tag k="ssr:stedsnr" v="1010270" />
		<tag k="ssr:type" v="adressenavn" />
	</node>
	<node lat="68.8527757048822" lon="18.36836448548526" id="-99685">
		<tag k="name" v="Altevannsveien" />
		<tag k="ssr:date" v="2019-12-27" />
		<tag k="ssr:gruppe" v="veg" />
		<tag k="ssr:hovedgruppe" v="infrastruktur" />
		<tag k="ssr:stedsnr" v="1010319" />
		<tag k="ssr:type" v="adressenavn" />
	</node>
	<node lat="69.00591258472551" lon="18.510782318481414" id="-99686">
		<tag k="name" v="Sundliveien" />
		<tag k="ssr:date" v="2019-12-27" />
		<tag k="ssr:gruppe" v="veg" />
		<tag k="ssr:hovedgruppe" v="infrastruktur" />
		<tag k="ssr:stedsnr" v="1010323" />
		<tag k="ssr:type" v="adressenavn" />
	</node>
	<node lat="68.86905548969612" lon="18.339774923771657" id="-99687">
		<tag k="name" v="Skogbrynet" />
		<tag k="ssr:date" v="2019-12-27" />
		<tag k="ssr:gruppe" v="veg" />
		<tag k="ssr:hovedgruppe" v="infrastruktur" />
		<tag k="ssr:stedsnr" v="1010866" />
		<tag k="ssr:type" v="adressenavn" />
	</node>
	<node lat="68.86200191036588" lon="18.33781054978287" id="-99688">
		<tag k="name" v="Furuveien" />
		<tag k="ssr:date" v="2019-12-27" />
		<tag k="ssr:gruppe" v="veg" />
		<tag k="ssr:hovedgruppe" v="infrastruktur" />
		<tag k="ssr:stedsnr" v="1010392" />
		<tag k="ssr:type" v="adressenavn" />
	</node>
	<node lat="69.00640605635657" lon="18.529587826736304" id="-99689">
		<tag k="name" v="Fjellstadveien" />
		<tag k="ssr:date" v="2019-12-27" />
		<tag k="ssr:gruppe" v="veg" />
		<tag k="ssr:hovedgruppe" v="infrastruktur" />
		<tag k="ssr:stedsnr" v="1010393" />
		<tag k="ssr:type" v="adressenavn" />
	</node>
	<node lat="68.86128390534999" lon="18.34845854021776" id="-99690">
		<tag k="name" v="Fogd Holmboes gate" />
		<tag k="ssr:date" v="2019-12-27" />
		<tag k="ssr:gruppe" v="veg" />
		<tag k="ssr:hovedgruppe" v="infrastruktur" />
		<tag k="ssr:stedsnr" v="1010396" />
		<tag k="ssr:type" v="adressenavn" />
	</node>
	<node lat="68.88030465183637" lon="18.353908383018" id="-99691">
		<tag k="name" v="Tromsøveien" />
		<tag k="ssr:date" v="2019-12-27" />
		<tag k="ssr:gruppe" v="veg" />
		<tag k="ssr:hovedgruppe" v="infrastruktur" />
		<tag k="ssr:stedsnr" v="1010399" />
		<tag k="ssr:type" v="adressenavn" />
	</node>
	<node lat="68.86831798127976" lon="18.353567703693905" id="-99692">
		<tag k="name" v="Aaslandjordet" />
		<tag k="ssr:date" v="2019-12-27" />
		<tag k="ssr:gruppe" v="veg" />
		<tag k="ssr:hovedgruppe" v="infrastruktur" />
		<tag k="ssr:stedsnr" v="1010400" />
		<tag k="ssr:type" v="adressenavn" />
	</node>
	<node lat="68.86015447585808" lon="18.35315753719049" id="-99693">
		<tag k="name" v="Brinkenveien" />
		<tag k="ssr:date" v="2019-12-27" />
		<tag k="ssr:gruppe" v="veg" />
		<tag k="ssr:hovedgruppe" v="infrastruktur" />
		<tag k="ssr:stedsnr" v="1010486" />
		<tag k="ssr:type" v="adressenavn" />
	</node>
	<node lat="68.8638279964639" lon="18.336594670310483" id="-99694">
		<tag k="name" v="Bakkeveien" />
		<tag k="ssr:date" v="2019-12-27" />
		<tag k="ssr:gruppe" v="veg" />
		<tag k="ssr:hovedgruppe" v="infrastruktur" />
		<tag k="ssr:stedsnr" v="1010354" />
		<tag k="ssr:type" v="adressenavn" />
	</node>
	<node lat="68.86945263324067" lon="18.34816472404902" id="-99695">
		<tag k="name" v="Fageråsveien" />
		<tag k="ssr:date" v="2019-12-27" />
		<tag k="ssr:gruppe" v="veg" />
		<tag k="ssr:hovedgruppe" v="infrastruktur" />
		<tag k="ssr:stedsnr" v="1010460" />
		<tag k="ssr:type" v="adressenavn" />
	</node>
	<node lat="68.86208437430913" lon="18.32985095345222" id="-99696">
		<tag k="name" v="Engstien" />
		<tag k="ssr:date" v="2019-12-27" />
		<tag k="ssr:gruppe" v="veg" />
		<tag k="ssr:hovedgruppe" v="infrastruktur" />
		<tag k="ssr:stedsnr" v="1010525" />
		<tag k="ssr:type" v="adressenavn" />
	</node>
	<node lat="68.8605148978222" lon="18.319373780427192" id="-99697">
		<tag k="name" v="Dørum" />
		<tag k="ssr:date" v="2019-12-27" />
		<tag k="ssr:gruppe" v="veg" />
		<tag k="ssr:hovedgruppe" v="infrastruktur" />
		<tag k="ssr:stedsnr" v="1010531" />
		<tag k="ssr:type" v="adressenavn" />
	</node>
	<node lat="68.86856425597634" lon="18.35633261265244" id="-99698">
		<tag k="name" v="Elvegata" />
		<tag k="ssr:date" v="2019-12-27" />
		<tag k="ssr:gruppe" v="veg" />
		<tag k="ssr:hovedgruppe" v="infrastruktur" />
		<tag k="ssr:stedsnr" v="1010539" />
		<tag k="ssr:type" v="adressenavn" />
	</node>
	<node lat="69.00695270656637" lon="18.518249042825268" id="-99699">
		<tag k="name" v="Elverumveien" />
		<tag k="ssr:date" v="2019-12-27" />
		<tag k="ssr:gruppe" v="veg" />
		<tag k="ssr:hovedgruppe" v="infrastruktur" />
		<tag k="ssr:stedsnr" v="1010546" />
		<tag k="ssr:type" v="adressenavn" />
	</node>
	<node lat="68.86189331517902" lon="18.326996745670716" id="-99700">
		<tag k="name" v="Skogveien" />
		<tag k="ssr:date" v="2019-12-27" />
		<tag k="ssr:gruppe" v="veg" />
		<tag k="ssr:hovedgruppe" v="infrastruktur" />
		<tag k="ssr:stedsnr" v="1010649" />
		<tag k="ssr:type" v="adressenavn" />
	</node>
	<node lat="68.81927021225039" lon="18.476745742331357" id="-99701">
		<tag k="name" v="Hauglandveien" />
		<tag k="ssr:date" v="2019-12-27" />
		<tag k="ssr:gruppe" v="veg" />
		<tag k="ssr:hovedgruppe" v="infrastruktur" />
		<tag k="ssr:stedsnr" v="1011492" />
		<tag k="ssr:type" v="adressenavn" />
	</node>
	<node lat="68.86843766327337" lon="18.36342109609994" id="-99702">
		<tag k="name" v="Skolegata" />
		<tag k="ssr:date" v="2019-12-27" />
		<tag k="ssr:gruppe" v="veg" />
		<tag k="ssr:hovedgruppe" v="infrastruktur" />
		<tag k="ssr:stedsnr" v="1010752" />
		<tag k="ssr:type" v="adressenavn" />
	</node>
	<node lat="68.86006807407767" lon="18.33847690720959" id="-99703">
		<tag k="name" v="Seterveien" />
		<tag k="ssr:date" v="2019-12-27" />
		<tag k="ssr:gruppe" v="veg" />
		<tag k="ssr:hovedgruppe" v="infrastruktur" />
		<tag k="ssr:stedsnr" v="1010764" />
		<tag k="ssr:type" v="adressenavn" />
	</node>
	<node lat="68.85766981595593" lon="18.32044984739911" id="-99704">
		<tag k="name" v="Strandveien" />
		<tag k="ssr:date" v="2019-12-27" />
		<tag k="ssr:gruppe" v="veg" />
		<tag k="ssr:hovedgruppe" v="infrastruktur" />
		<tag k="ssr:stedsnr" v="1011136" />
		<tag k="ssr:type" v="adressenavn" />
	</node>
	<node lat="68.86861042097806" lon="18.344829460814715" id="-99705">
		<tag k="name" v="Stormyrveien" />
		<tag k="ssr:date" v="2019-12-27" />
		<tag k="ssr:gruppe" v="veg" />
		<tag k="ssr:hovedgruppe" v="infrastruktur" />
		<tag k="ssr:stedsnr" v="1011161" />
		<tag k="ssr:type" v="adressenavn" />
	</node>
	<node lat="68.85801863828301" lon="18.322036868976003" id="-99706">
		<tag k="name" v="Seljeveien" />
		<tag k="ssr:date" v="2019-12-27" />
		<tag k="ssr:gruppe" v="veg" />
		<tag k="ssr:hovedgruppe" v="infrastruktur" />
		<tag k="ssr:stedsnr" v="1011053" />
		<tag k="ssr:type" v="adressenavn" />
	</node>
	<node lat="68.86797292004121" lon="18.371426125560582" id="-99707">
		<tag k="name" v="Landeveien" />
		<tag k="ssr:date" v="2019-12-27" />
		<tag k="ssr:gruppe" v="veg" />
		<tag k="ssr:hovedgruppe" v="infrastruktur" />
		<tag k="ssr:stedsnr" v="1011547" />
		<tag k="ssr:type" v="adressenavn" />
	</node>
	<node lat="68.88724448257057" lon="18.35502449572718" id="-99708">
		<tag k="name" v="Bruhaugveien" />
		<tag k="ssr:date" v="2019-12-27" />
		<tag k="ssr:gruppe" v="veg" />
		<tag k="ssr:hovedgruppe" v="infrastruktur" />
		<tag k="ssr:stedsnr" v="1011549" />
		<tag k="ssr:type" v="adressenavn" />
	</node>
	<node lat="68.85871463705794" lon="18.317987110766733" id="-99709">
		<tag k="name" v="Strandbakken" />
		<tag k="ssr:date" v="2019-12-27" />
		<tag k="ssr:gruppe" v="veg" />
		<tag k="ssr:hovedgruppe" v="infrastruktur" />
		<tag k="ssr:stedsnr" v="1011203" />
		<tag k="ssr:type" v="adressenavn" />
	</node>
	<node lat="68.860506301006" lon="18.339070342146986" id="-99710">
		<tag k="name" v="Solåsveien" />
		<tag k="ssr:date" v="2019-12-27" />
		<tag k="ssr:gruppe" v="veg" />
		<tag k="ssr:hovedgruppe" v="infrastruktur" />
		<tag k="ssr:stedsnr" v="1011225" />
		<tag k="ssr:type" v="adressenavn" />
	</node>
	<node lat="68.87168053315858" lon="18.357382326566047" id="-99711">
		<tag k="name" v="Spongaveien" />
		<tag k="ssr:date" v="2019-12-27" />
		<tag k="ssr:gruppe" v="veg" />
		<tag k="ssr:hovedgruppe" v="infrastruktur" />
		<tag k="ssr:stedsnr" v="1011235" />
		<tag k="ssr:type" v="adressenavn" />
	</node>
	<node lat="68.85959838027998" lon="18.32789682329576" id="-99712">
		<tag k="name" v="St Hansbakken" />
		<tag k="ssr:date" v="2019-12-27" />
		<tag k="ssr:gruppe" v="veg" />
		<tag k="ssr:hovedgruppe" v="infrastruktur" />
		<tag k="ssr:stedsnr" v="1011241" />
		<tag k="ssr:type" v="adressenavn" />
	</node>
	<node lat="68.87105355494798" lon="18.34383716439988" id="-99713">
		<tag k="name" v="Storløveien" />
		<tag k="ssr:date" v="2019-12-27" />
		<tag k="ssr:gruppe" v="veg" />
		<tag k="ssr:hovedgruppe" v="infrastruktur" />
		<tag k="ssr:stedsnr" v="1011252" />
		<tag k="ssr:type" v="adressenavn" />
	</node>
	<node lat="68.85969202906821" lon="18.32566706207455" id="-99714">
		<tag k="name" v="Snevebakken" />
		<tag k="ssr:date" v="2019-12-27" />
		<tag k="ssr:gruppe" v="veg" />
		<tag k="ssr:hovedgruppe" v="infrastruktur" />
		<tag k="ssr:stedsnr" v="1011317" />
		<tag k="ssr:type" v="adressenavn" />
	</node>
	<node lat="68.86235225586877" lon="18.3363855216336" id="-99715">
		<tag k="name" v="Solsvingen" />
		<tag k="ssr:date" v="2019-12-27" />
		<tag k="ssr:gruppe" v="veg" />
		<tag k="ssr:hovedgruppe" v="infrastruktur" />
		<tag k="ssr:stedsnr" v="1011320" />
		<tag k="ssr:type" v="adressenavn" />
	</node>
	<node lat="68.8628797638023" lon="18.33709694518048" id="-99716">
		<tag k="name" v="Solstien" />
		<tag k="ssr:date" v="2019-12-27" />
		<tag k="ssr:gruppe" v="veg" />
		<tag k="ssr:hovedgruppe" v="infrastruktur" />
		<tag k="ssr:stedsnr" v="1011327" />
		<tag k="ssr:type" v="adressenavn" />
	</node>
	<node lat="68.86288365175692" lon="18.32369715574054" id="-99717">
		<tag k="name" v="Liveien" />
		<tag k="ssr:date" v="2019-12-27" />
		<tag k="ssr:gruppe" v="veg" />
		<tag k="ssr:hovedgruppe" v="infrastruktur" />
		<tag k="ssr:stedsnr" v="1011329" />
		<tag k="ssr:type" v="adressenavn" />
	</node>
	<node lat="68.85884423094491" lon="18.32523279715668" id="-99718">
		<tag k="name" v="Lyngveien" />
		<tag k="ssr:date" v="2019-12-27" />
		<tag k="ssr:gruppe" v="veg" />
		<tag k="ssr:hovedgruppe" v="infrastruktur" />
		<tag k="ssr:stedsnr" v="1011331" />
		<tag k="ssr:type" v="adressenavn" />
	</node>
	<node lat="68.85908820718274" lon="18.338326465022693" id="-99719">
		<tag k="name" v="Lappraen" />
		<tag k="ssr:date" v="2019-12-27" />
		<tag k="ssr:gruppe" v="veg" />
		<tag k="ssr:hovedgruppe" v="infrastruktur" />
		<tag k="ssr:stedsnr" v="1011333" />
		<tag k="ssr:type" v="adressenavn" />
	</node>
	<node lat="68.86491006124886" lon="18.343907206101612" id="-99720">
		<tag k="name" v="Kirkebakken" />
		<tag k="ssr:date" v="2019-12-27" />
		<tag k="ssr:gruppe" v="veg" />
		<tag k="ssr:hovedgruppe" v="infrastruktur" />
		<tag k="ssr:stedsnr" v="1011334" />
		<tag k="ssr:type" v="adressenavn" />
	</node>
	<node lat="68.85956449422366" lon="18.350831054730424" id="-99721">
		<tag k="name" v="Infanteriveien" />
		<tag k="ssr:date" v="2019-12-27" />
		<tag k="ssr:gruppe" v="veg" />
		<tag k="ssr:hovedgruppe" v="infrastruktur" />
		<tag k="ssr:stedsnr" v="1011335" />
		<tag k="ssr:type" v="adressenavn" />
	</node>
	<node lat="68.86249667766256" lon="18.330334153253414" id="-99722">
		<tag k="name" v="Konglestien" />
		<tag k="ssr:date" v="2019-12-27" />
		<tag k="ssr:gruppe" v="veg" />
		<tag k="ssr:hovedgruppe" v="infrastruktur" />
		<tag k="ssr:stedsnr" v="1011336" />
		<tag k="ssr:type" v="adressenavn" />
	</node>
	<node lat="68.86538999555172" lon="18.340290527052627" id="-99723">
		<tag k="name" v="Kirkemogata" />
		<tag k="ssr:date" v="2019-12-27" />
		<tag k="ssr:gruppe" v="veg" />
		<tag k="ssr:hovedgruppe" v="infrastruktur" />
		<tag k="ssr:stedsnr" v="1011337" />
		<tag k="ssr:type" v="adressenavn" />
	</node>
	<node lat="69.00953592414308" lon="18.494377798065702" id="-99724">
		<tag k="name" v="Granbergveien" />
		<tag k="ssr:date" v="2019-12-27" />
		<tag k="ssr:gruppe" v="veg" />
		<tag k="ssr:hovedgruppe" v="infrastruktur" />
		<tag k="ssr:stedsnr" v="1011338" />
		<tag k="ssr:type" v="adressenavn" />
	</node>
	<node lat="68.86202029461647" lon="18.346453909309666" id="-99725">
		<tag k="name" v="Gammelveien" />
		<tag k="ssr:date" v="2019-12-27" />
		<tag k="ssr:gruppe" v="veg" />
		<tag k="ssr:hovedgruppe" v="infrastruktur" />
		<tag k="ssr:stedsnr" v="1011339" />
		<tag k="ssr:type" v="adressenavn" />
	</node>
	<node lat="68.86273825475567" lon="18.327136114554033" id="-99726">
		<tag k="name" v="Granhellinga" />
		<tag k="ssr:date" v="2019-12-27" />
		<tag k="ssr:gruppe" v="veg" />
		<tag k="ssr:hovedgruppe" v="infrastruktur" />
		<tag k="ssr:stedsnr" v="1011340" />
		<tag k="ssr:type" v="adressenavn" />
	</node>
	<node lat="68.8629884498423" lon="18.345410921349323" id="-99727">
		<tag k="name" v="Granveien" />
		<tag k="ssr:date" v="2019-12-27" />
		<tag k="ssr:gruppe" v="veg" />
		<tag k="ssr:hovedgruppe" v="infrastruktur" />
		<tag k="ssr:stedsnr" v="1011341" />
		<tag k="ssr:type" v="adressenavn" />
	</node>
	<node lat="68.87162045525368" lon="18.33530861355556" id="-99728">
		<tag k="name" v="Granstien" />
		<tag k="ssr:date" v="2019-12-27" />
		<tag k="ssr:gruppe" v="veg" />
		<tag k="ssr:hovedgruppe" v="infrastruktur" />
		<tag k="ssr:stedsnr" v="1011342" />
		<tag k="ssr:type" v="adressenavn" />
	</node>
	<node lat="68.87657161008967" lon="18.355983067777654" id="-99729">
		<tag k="name" v="Industriveien" />
		<tag k="ssr:date" v="2019-12-27" />
		<tag k="ssr:gruppe" v="veg" />
		<tag k="ssr:hovedgruppe" v="infrastruktur" />
		<tag k="ssr:stedsnr" v="1011344" />
		<tag k="ssr:type" v="adressenavn" />
	</node>
	<node lat="68.87632606700528" lon="18.360305551021405" id="-99730">
		<tag k="name" v="Idrettsveien" />
		<tag k="ssr:date" v="2019-12-27" />
		<tag k="ssr:gruppe" v="veg" />
		<tag k="ssr:hovedgruppe" v="infrastruktur" />
		<tag k="ssr:stedsnr" v="1011345" />
		<tag k="ssr:type" v="adressenavn" />
	</node>
	<node lat="68.85945115678938" lon="18.338294595280693" id="-99731">
		<tag k="name" v="Nerjordet" />
		<tag k="ssr:date" v="2019-12-27" />
		<tag k="ssr:gruppe" v="veg" />
		<tag k="ssr:hovedgruppe" v="infrastruktur" />
		<tag k="ssr:stedsnr" v="1011386" />
		<tag k="ssr:type" v="adressenavn" />
	</node>
	<node lat="68.96689069409277" lon="18.486748518033682" id="-99732">
		<tag k="name" v="Nordliveien" />
		<tag k="ssr:date" v="2019-12-27" />
		<tag k="ssr:gruppe" v="veg" />
		<tag k="ssr:hovedgruppe" v="infrastruktur" />
		<tag k="ssr:stedsnr" v="1011387" />
		<tag k="ssr:type" v="adressenavn" />
	</node>
	<node lat="68.87208774133187" lon="18.345860175238894" id="-99733">
		<tag k="name" v="Markaveien" />
		<tag k="ssr:date" v="2019-12-27" />
		<tag k="ssr:gruppe" v="veg" />
		<tag k="ssr:hovedgruppe" v="infrastruktur" />
		<tag k="ssr:stedsnr" v="1011388" />
		<tag k="ssr:type" v="adressenavn" />
	</node>
	<node lat="68.86070157296868" lon="18.355148500976302" id="-99734">
		<tag k="name" v="Magasinveien" />
		<tag k="ssr:date" v="2019-12-27" />
		<tag k="ssr:gruppe" v="veg" />
		<tag k="ssr:hovedgruppe" v="infrastruktur" />
		<tag k="ssr:stedsnr" v="1011389" />
		<tag k="ssr:type" v="adressenavn" />
	</node>
	<node lat="68.87155383340136" lon="18.358869208506444" id="-99735">
		<tag k="name" v="Mellomveien" />
		<tag k="ssr:date" v="2019-12-27" />
		<tag k="ssr:gruppe" v="veg" />
		<tag k="ssr:hovedgruppe" v="infrastruktur" />
		<tag k="ssr:stedsnr" v="1011390" />
		<tag k="ssr:type" v="adressenavn" />
	</node>
	<node lat="68.91478069286993" lon="18.422599857154438" id="-99736">
		<tag k="name" v="Tuneveien" />
		<tag k="ssr:date" v="2019-12-27" />
		<tag k="ssr:gruppe" v="veg" />
		<tag k="ssr:hovedgruppe" v="infrastruktur" />
		<tag k="ssr:stedsnr" v="1011415" />
		<tag k="ssr:type" v="adressenavn" />
	</node>
	<node lat="68.76055767878032" lon="18.581686706475875" id="-99737">
		<tag k="name" v="Øveråsveien" />
		<tag k="ssr:date" v="2019-12-27" />
		<tag k="ssr:gruppe" v="veg" />
		<tag k="ssr:hovedgruppe" v="infrastruktur" />
		<tag k="ssr:stedsnr" v="1011593" />
		<tag k="ssr:type" v="adressenavn" />
	</node>
	<node lat="68.86049406676702" lon="18.335394100036822" id="-99738">
		<tag k="name" v="Haugliveien" />
		<tag k="ssr:date" v="2019-12-27" />
		<tag k="ssr:gruppe" v="veg" />
		<tag k="ssr:hovedgruppe" v="infrastruktur" />
		<tag k="ssr:stedsnr" v="1011346" />
		<tag k="ssr:type" v="adressenavn" />
	</node>
	<node lat="68.86115018620454" lon="18.34736930072533" id="-99739">
		<tag k="name" v="Parkveien" />
		<tag k="ssr:date" v="2019-12-27" />
		<tag k="ssr:gruppe" v="veg" />
		<tag k="ssr:hovedgruppe" v="infrastruktur" />
		<tag k="ssr:stedsnr" v="1011347" />
		<tag k="ssr:type" v="adressenavn" />
	</node>
	<node lat="68.86233316543802" lon="18.322228772568295" id="-99740">
		<tag k="name" v="Rundmyra" />
		<tag k="ssr:date" v="2019-12-27" />
		<tag k="ssr:gruppe" v="veg" />
		<tag k="ssr:hovedgruppe" v="infrastruktur" />
		<tag k="ssr:stedsnr" v="1011348" />
		<tag k="ssr:type" v="adressenavn" />
	</node>
	<node lat="68.87143946616445" lon="18.344624730898396" id="-99741">
		<tag k="name" v="Olderveien" />
		<tag k="ssr:date" v="2019-12-27" />
		<tag k="ssr:gruppe" v="veg" />
		<tag k="ssr:hovedgruppe" v="infrastruktur" />
		<tag k="ssr:stedsnr" v="1011377" />
		<tag k="ssr:type" v="adressenavn" />
	</node>
	<node lat="68.69010167267666" lon="18.050802558232135" id="-99742">
		<tag k="name" v="Narvikveien" />
		<tag k="ssr:date" v="2019-12-27" />
		<tag k="ssr:gruppe" v="veg" />
		<tag k="ssr:hovedgruppe" v="infrastruktur" />
		<tag k="ssr:stedsnr" v="1011378" />
		<tag k="ssr:type" v="adressenavn" />
	</node>
	<node lat="68.86032268471888" lon="18.31607292534964" id="-99743">
		<tag k="name" v="Nyveien" />
		<tag k="ssr:date" v="2019-12-27" />
		<tag k="ssr:gruppe" v="veg" />
		<tag k="ssr:hovedgruppe" v="infrastruktur" />
		<tag k="ssr:stedsnr" v="1011379" />
		<tag k="ssr:type" v="adressenavn" />
	</node>
	<node lat="68.85939669492795" lon="18.337684142265847" id="-99744">
		<tag k="name" v="Parallellen" />
		<tag k="ssr:date" v="2019-12-27" />
		<tag k="ssr:gruppe" v="veg" />
		<tag k="ssr:hovedgruppe" v="infrastruktur" />
		<tag k="ssr:stedsnr" v="1011380" />
		<tag k="ssr:type" v="adressenavn" />
	</node>
	<node lat="68.88030465183637" lon="18.353908383018" id="-99745">
		<tag k="name" v="Moegga" />
		<tag k="ssr:date" v="2019-12-27" />
		<tag k="ssr:gruppe" v="veg" />
		<tag k="ssr:hovedgruppe" v="infrastruktur" />
		<tag k="ssr:stedsnr" v="1011382" />
		<tag k="ssr:type" v="adressenavn" />
	</node>
	<node lat="68.85994564908117" lon="18.352404227664845" id="-99746">
		<tag k="name" v="Molundveien" />
		<tag k="ssr:date" v="2019-12-27" />
		<tag k="ssr:gruppe" v="veg" />
		<tag k="ssr:hovedgruppe" v="infrastruktur" />
		<tag k="ssr:stedsnr" v="1011384" />
		<tag k="ssr:type" v="adressenavn" />
	</node>
	<node lat="68.8196646047604" lon="18.475642794720915" id="-99747">
		<tag k="name" v="Nordhusveien" />
		<tag k="ssr:date" v="2019-12-27" />
		<tag k="ssr:gruppe" v="veg" />
		<tag k="ssr:hovedgruppe" v="infrastruktur" />
		<tag k="ssr:stedsnr" v="1011385" />
		<tag k="ssr:type" v="adressenavn" />
	</node>
	<node lat="68.91456753464513" lon="18.422732418123392" id="-99748">
		<tag k="name" v="Heimdalveien" />
		<tag k="ssr:date" v="2019-12-27" />
		<tag k="ssr:gruppe" v="veg" />
		<tag k="ssr:hovedgruppe" v="infrastruktur" />
		<tag k="ssr:stedsnr" v="1011446" />
		<tag k="ssr:type" v="adressenavn" />
	</node>
	<node lat="68.87292100017638" lon="18.375039927141923" id="-99749">
		<tag k="name" v="Steienveien" />
		<tag k="ssr:date" v="2019-12-27" />
		<tag k="ssr:gruppe" v="veg" />
		<tag k="ssr:hovedgruppe" v="infrastruktur" />
		<tag k="ssr:stedsnr" v="1011470" />
		<tag k="ssr:type" v="adressenavn" />
	</node>
	<node lat="68.88724448257057" lon="18.35502449572718" id="-99750">
		<tag k="name" v="Høydenveien" />
		<tag k="ssr:date" v="2019-12-27" />
		<tag k="ssr:gruppe" v="veg" />
		<tag k="ssr:hovedgruppe" v="infrastruktur" />
		<tag k="ssr:stedsnr" v="1011480" />
		<tag k="ssr:type" v="adressenavn" />
	</node>
	<node lat="68.89201632073296" lon="18.37701465628491" id="-99751">
		<tag k="name" v="Storbekkveien" />
		<tag k="ssr:date" v="2019-12-27" />
		<tag k="ssr:gruppe" v="veg" />
		<tag k="ssr:hovedgruppe" v="infrastruktur" />
		<tag k="ssr:stedsnr" v="1011497" />
		<tag k="ssr:type" v="adressenavn" />
	</node>
	<node lat="68.7444964029583" lon="18.629933612524944" id="-99752">
		<tag k="name" v="Solbu" />
		<tag k="ssr:date" v="2019-12-27" />
		<tag k="ssr:gruppe" v="veg" />
		<tag k="ssr:hovedgruppe" v="infrastruktur" />
		<tag k="ssr:stedsnr" v="1012141" />
		<tag k="ssr:type" v="adressenavn" />
	</node>
	<node lat="68.81707315867209" lon="18.442263535428545" id="-99753">
		<tag k="name" v="Vikenveien" />
		<tag k="ssr:date" v="2019-12-27" />
		<tag k="ssr:gruppe" v="veg" />
		<tag k="ssr:hovedgruppe" v="infrastruktur" />
		<tag k="ssr:stedsnr" v="1012163" />
		<tag k="ssr:type" v="adressenavn" />
	</node>
	<node lat="68.82858083549208" lon="18.429573042859452" id="-99754">
		<tag k="name" v="Bostadveien" />
		<tag k="ssr:date" v="2019-12-27" />
		<tag k="ssr:gruppe" v="veg" />
		<tag k="ssr:hovedgruppe" v="infrastruktur" />
		<tag k="ssr:stedsnr" v="1012171" />
		<tag k="ssr:type" v="adressenavn" />
	</node>
	<node lat="68.82814363368146" lon="18.419170598648723" id="-99755">
		<tag k="name" v="Stinabakken" />
		<tag k="ssr:date" v="2019-12-27" />
		<tag k="ssr:gruppe" v="veg" />
		<tag k="ssr:hovedgruppe" v="infrastruktur" />
		<tag k="ssr:stedsnr" v="1012173" />
		<tag k="ssr:type" v="adressenavn" />
	</node>
	<node lat="68.80491638093079" lon="18.532856687198997" id="-99756">
		<tag k="name" v="Movinkelveien" />
		<tag k="ssr:date" v="2019-12-27" />
		<tag k="ssr:gruppe" v="veg" />
		<tag k="ssr:hovedgruppe" v="infrastruktur" />
		<tag k="ssr:stedsnr" v="1011609" />
		<tag k="ssr:type" v="adressenavn" />
	</node>
	<node lat="68.80572837855412" lon="18.53069498705738" id="-99757">
		<tag k="name" v="Bardujordveien" />
		<tag k="ssr:date" v="2019-12-27" />
		<tag k="ssr:gruppe" v="veg" />
		<tag k="ssr:hovedgruppe" v="infrastruktur" />
		<tag k="ssr:stedsnr" v="1011611" />
		<tag k="ssr:type" v="adressenavn" />
	</node>
	<node lat="68.84115171099998" lon="18.260802202459978" id="-99758">
		<tag k="name" v="Moanveien" />
		<tag k="ssr:date" v="2019-12-27" />
		<tag k="ssr:gruppe" v="veg" />
		<tag k="ssr:hovedgruppe" v="infrastruktur" />
		<tag k="ssr:stedsnr" v="1011623" />
		<tag k="ssr:type" v="adressenavn" />
	</node>
	<node lat="68.87220591297896" lon="18.35731092516028" id="-99759">
		<tag k="name" v="Trolldalsveien" />
		<tag k="ssr:date" v="2019-12-27" />
		<tag k="ssr:gruppe" v="veg" />
		<tag k="ssr:hovedgruppe" v="infrastruktur" />
		<tag k="ssr:stedsnr" v="1011688" />
		<tag k="ssr:type" v="adressenavn" />
	</node>
	<node lat="68.86168946015533" lon="18.329501731859256" id="-99760">
		<tag k="name" v="Vestliveien" />
		<tag k="ssr:date" v="2019-12-27" />
		<tag k="ssr:gruppe" v="veg" />
		<tag k="ssr:hovedgruppe" v="infrastruktur" />
		<tag k="ssr:stedsnr" v="1011689" />
		<tag k="ssr:type" v="adressenavn" />
	</node>
	<node lat="68.86716123788017" lon="18.349721167677036" id="-99761">
		<tag k="name" v="Vekvedveien" />
		<tag k="ssr:date" v="2019-12-27" />
		<tag k="ssr:gruppe" v="veg" />
		<tag k="ssr:hovedgruppe" v="infrastruktur" />
		<tag k="ssr:stedsnr" v="1011690" />
		<tag k="ssr:type" v="adressenavn" />
	</node>
	<node lat="68.86378875590414" lon="18.330618299449444" id="-99762">
		<tag k="name" v="Tyribakken" />
		<tag k="ssr:date" v="2019-12-27" />
		<tag k="ssr:gruppe" v="veg" />
		<tag k="ssr:hovedgruppe" v="infrastruktur" />
		<tag k="ssr:stedsnr" v="1011693" />
		<tag k="ssr:type" v="adressenavn" />
	</node>
	<node lat="68.8611153583979" lon="18.32522300769543" id="-99763">
		<tag k="name" v="Stubben" />
		<tag k="ssr:date" v="2019-12-27" />
		<tag k="ssr:gruppe" v="veg" />
		<tag k="ssr:hovedgruppe" v="infrastruktur" />
		<tag k="ssr:stedsnr" v="1011696" />
		<tag k="ssr:type" v="adressenavn" />
	</node>
	<node lat="68.85889726006178" lon="18.33938899660635" id="-99764">
		<tag k="name" v="Toftaker" />
		<tag k="ssr:date" v="2019-12-27" />
		<tag k="ssr:gruppe" v="veg" />
		<tag k="ssr:hovedgruppe" v="infrastruktur" />
		<tag k="ssr:stedsnr" v="1011697" />
		<tag k="ssr:type" v="adressenavn" />
	</node>
	<node lat="68.86084789230301" lon="18.360969795036162" id="-99765">
		<tag k="name" v="Infanterileiren" />
		<tag k="ssr:date" v="2019-12-27" />
		<tag k="ssr:gruppe" v="veg" />
		<tag k="ssr:hovedgruppe" v="infrastruktur" />
		<tag k="ssr:stedsnr" v="1011659" />
		<tag k="ssr:type" v="adressenavn" />
	</node>
	<node lat="68.8496328210391" lon="18.372308408128124" id="-99766">
		<tag k="name" v="Ingeniørleiren" />
		<tag k="ssr:date" v="2019-12-27" />
		<tag k="ssr:gruppe" v="veg" />
		<tag k="ssr:hovedgruppe" v="infrastruktur" />
		<tag k="ssr:stedsnr" v="1011664" />
		<tag k="ssr:type" v="adressenavn" />
	</node>
	<node lat="68.85180269524369" lon="18.37105629627457" id="-99767">
		<tag k="name" v="Sanitetsleiren" />
		<tag k="ssr:date" v="2019-12-27" />
		<tag k="ssr:gruppe" v="veg" />
		<tag k="ssr:hovedgruppe" v="infrastruktur" />
		<tag k="ssr:stedsnr" v="1011668" />
		<tag k="ssr:type" v="adressenavn" />
	</node>
	<node lat="68.8389687754348" lon="18.396703547519472" id="-99768">
		<tag k="name" v="Huntorp" />
		<tag k="ssr:date" v="2019-12-27" />
		<tag k="ssr:gruppe" v="veg" />
		<tag k="ssr:hovedgruppe" v="infrastruktur" />
		<tag k="ssr:stedsnr" v="1011670" />
		<tag k="ssr:type" v="adressenavn" />
	</node>
	<node lat="68.86584734811014" lon="18.347111927377245" id="-99769">
		<tag k="name" v="Ytterjordveien" />
		<tag k="ssr:date" v="2019-12-27" />
		<tag k="ssr:gruppe" v="veg" />
		<tag k="ssr:hovedgruppe" v="infrastruktur" />
		<tag k="ssr:stedsnr" v="1011674" />
		<tag k="ssr:type" v="adressenavn" />
	</node>
	<node lat="68.8682181331532" lon="18.352356280936437" id="-99770">
		<tag k="name" v="Aasvangveien" />
		<tag k="ssr:date" v="2019-12-27" />
		<tag k="ssr:gruppe" v="veg" />
		<tag k="ssr:hovedgruppe" v="infrastruktur" />
		<tag k="ssr:stedsnr" v="1011675" />
		<tag k="ssr:type" v="adressenavn" />
	</node>
	<node lat="68.8568275160274" lon="18.357158546348977" id="-99771">
		<tag k="name" v="Artillerileiren" />
		<tag k="ssr:date" v="2019-12-27" />
		<tag k="ssr:gruppe" v="veg" />
		<tag k="ssr:hovedgruppe" v="infrastruktur" />
		<tag k="ssr:stedsnr" v="1011680" />
		<tag k="ssr:type" v="adressenavn" />
	</node>
	<node lat="68.8626851013474" lon="18.341750011611413" id="-99772">
		<tag k="name" v="Åsveien" />
		<tag k="ssr:date" v="2019-12-27" />
		<tag k="ssr:gruppe" v="veg" />
		<tag k="ssr:hovedgruppe" v="infrastruktur" />
		<tag k="ssr:stedsnr" v="1011684" />
		<tag k="ssr:type" v="adressenavn" />
	</node>
	<node lat="68.85953228407314" lon="18.350879907456342" id="-99773">
		<tag k="name" v="Toftakerlia" />
		<tag k="ssr:date" v="2019-12-27" />
		<tag k="ssr:gruppe" v="veg" />
		<tag k="ssr:hovedgruppe" v="infrastruktur" />
		<tag k="ssr:stedsnr" v="1011685" />
		<tag k="ssr:type" v="adressenavn" />
	</node>
	<node lat="68.82091058125091" lon="18.188217294820454" id="-99774">
		<tag k="name" v="Kistefossveien" />
		<tag k="ssr:date" v="2019-12-27" />
		<tag k="ssr:gruppe" v="veg" />
		<tag k="ssr:hovedgruppe" v="infrastruktur" />
		<tag k="ssr:stedsnr" v="1011825" />
		<tag k="ssr:type" v="adressenavn" />
	</node>
	<node lat="69.00246489286445" lon="18.473570931078214" id="-99775">
		<tag k="name" v="Brandegga" />
		<tag k="ssr:date" v="2019-12-27" />
		<tag k="ssr:gruppe" v="veg" />
		<tag k="ssr:hovedgruppe" v="infrastruktur" />
		<tag k="ssr:stedsnr" v="1011935" />
		<tag k="ssr:type" v="adressenavn" />
	</node>
	<node lat="69.02074024655393" lon="18.566672634764696" id="-99776">
		<tag k="name" v="Åsen" />
		<tag k="ssr:date" v="2019-12-27" />
		<tag k="ssr:gruppe" v="veg" />
		<tag k="ssr:hovedgruppe" v="infrastruktur" />
		<tag k="ssr:stedsnr" v="1011937" />
		<tag k="ssr:type" v="adressenavn" />
	</node>
	<node lat="69.01207364525641" lon="18.4826184843396" id="-99777">
		<tag k="name" v="Elvemoveien" />
		<tag k="ssr:date" v="2019-12-27" />
		<tag k="ssr:gruppe" v="veg" />
		<tag k="ssr:hovedgruppe" v="infrastruktur" />
		<tag k="ssr:stedsnr" v="1011940" />
		<tag k="ssr:type" v="adressenavn" />
	</node>
	<node lat="68.82685992229698" lon="18.183276399892772" id="-99778">
		<tag k="name" v="Fredly" />
		<tag k="ssr:date" v="2019-12-27" />
		<tag k="ssr:gruppe" v="veg" />
		<tag k="ssr:hovedgruppe" v="infrastruktur" />
		<tag k="ssr:stedsnr" v="1011969" />
		<tag k="ssr:type" v="adressenavn" />
	</node>
	<node lat="68.7831666107777" lon="18.173782624923316" id="-99779">
		<tag k="name" v="Fossengveien" />
		<tag k="ssr:date" v="2019-12-27" />
		<tag k="ssr:gruppe" v="veg" />
		<tag k="ssr:hovedgruppe" v="infrastruktur" />
		<tag k="ssr:stedsnr" v="1011971" />
		<tag k="ssr:type" v="adressenavn" />
	</node>
	<node lat="68.81890558803082" lon="18.17931127827349" id="-99780">
		<tag k="name" v="Høylandveien" />
		<tag k="ssr:date" v="2019-12-27" />
		<tag k="ssr:gruppe" v="veg" />
		<tag k="ssr:hovedgruppe" v="infrastruktur" />
		<tag k="ssr:stedsnr" v="1011973" />
		<tag k="ssr:type" v="adressenavn" />
	</node>
	<node lat="68.81845405682974" lon="18.185297062261316" id="-99781">
		<tag k="name" v="Nygårdveien" />
		<tag k="ssr:date" v="2019-12-27" />
		<tag k="ssr:gruppe" v="veg" />
		<tag k="ssr:hovedgruppe" v="infrastruktur" />
		<tag k="ssr:stedsnr" v="1011974" />
		<tag k="ssr:type" v="adressenavn" />
	</node>
	<node lat="68.77426045818146" lon="18.163505404591504" id="-99782">
		<tag k="name" v="Strømskrokveien" />
		<tag k="ssr:date" v="2019-12-27" />
		<tag k="ssr:gruppe" v="veg" />
		<tag k="ssr:hovedgruppe" v="infrastruktur" />
		<tag k="ssr:stedsnr" v="1011975" />
		<tag k="ssr:type" v="adressenavn" />
	</node>
	<node lat="68.77497184218767" lon="18.167729498004057" id="-99783">
		<tag k="name" v="Vestre Forset" />
		<tag k="ssr:date" v="2019-12-27" />
		<tag k="ssr:gruppe" v="veg" />
		<tag k="ssr:hovedgruppe" v="infrastruktur" />
		<tag k="ssr:stedsnr" v="1011976" />
		<tag k="ssr:type" v="adressenavn" />
	</node>
	<node lat="68.70059096080246" lon="18.10692353300214" id="-99784">
		<tag k="name" v="Lundliveien" />
		<tag k="ssr:date" v="2019-12-27" />
		<tag k="ssr:gruppe" v="veg" />
		<tag k="ssr:hovedgruppe" v="infrastruktur" />
		<tag k="ssr:stedsnr" v="1011977" />
		<tag k="ssr:type" v="adressenavn" />
	</node>
	<node lat="68.6915027614764" lon="18.558873108833723" id="-99785">
		<tag k="name" v="Engstadveien" />
		<tag k="ssr:date" v="2019-12-27" />
		<tag k="ssr:gruppe" v="veg" />
		<tag k="ssr:hovedgruppe" v="infrastruktur" />
		<tag k="ssr:stedsnr" v="1012040" />
		<tag k="ssr:type" v="adressenavn" />
	</node>
	<node lat="68.66392613064849" lon="18.563823197799167" id="-99786">
		<tag k="name" v="Strømsengveien" />
		<tag k="ssr:date" v="2019-12-27" />
		<tag k="ssr:gruppe" v="veg" />
		<tag k="ssr:hovedgruppe" v="infrastruktur" />
		<tag k="ssr:stedsnr" v="1012049" />
		<tag k="ssr:type" v="adressenavn" />
	</node>
	<node lat="68.80933630960175" lon="18.516198207324187" id="-99787">
		<tag k="name" v="Østerdalsveien" />
		<tag k="ssr:date" v="2019-12-27" />
		<tag k="ssr:gruppe" v="veg" />
		<tag k="ssr:hovedgruppe" v="infrastruktur" />
		<tag k="ssr:stedsnr" v="1011985" />
		<tag k="ssr:type" v="adressenavn" />
	</node>
	<node lat="68.82361628341943" lon="18.458442578847123" id="-99788">
		<tag k="name" v="Kjølhaugveien" />
		<tag k="ssr:date" v="2019-12-27" />
		<tag k="ssr:gruppe" v="veg" />
		<tag k="ssr:hovedgruppe" v="infrastruktur" />
		<tag k="ssr:stedsnr" v="1011986" />
		<tag k="ssr:type" v="adressenavn" />
	</node>
	<node lat="68.82924843359997" lon="18.437415242670344" id="-99789">
		<tag k="name" v="Fosshaugveien" />
		<tag k="ssr:date" v="2019-12-27" />
		<tag k="ssr:gruppe" v="veg" />
		<tag k="ssr:hovedgruppe" v="infrastruktur" />
		<tag k="ssr:stedsnr" v="1011987" />
		<tag k="ssr:type" v="adressenavn" />
	</node>
	<node lat="69.01265497626372" lon="18.4785895100991" id="-99790">
		<tag k="name" v="Løvliveien" />
		<tag k="ssr:date" v="2019-12-27" />
		<tag k="ssr:gruppe" v="veg" />
		<tag k="ssr:hovedgruppe" v="infrastruktur" />
		<tag k="ssr:stedsnr" v="1011998" />
		<tag k="ssr:type" v="adressenavn" />
	</node>
	<node lat="68.72676610236037" lon="18.10017754402466" id="-99791">
		<tag k="name" v="Sollidveien" />
		<tag k="ssr:date" v="2019-12-27" />
		<tag k="ssr:gruppe" v="veg" />
		<tag k="ssr:hovedgruppe" v="infrastruktur" />
		<tag k="ssr:stedsnr" v="1012017" />
		<tag k="ssr:type" v="adressenavn" />
	</node>
	<node lat="68.85421398872992" lon="18.09760702904732" id="-99792">
		<tag k="name" v="Løkkenveien" />
		<tag k="ssr:date" v="2019-12-27" />
		<tag k="ssr:gruppe" v="veg" />
		<tag k="ssr:hovedgruppe" v="infrastruktur" />
		<tag k="ssr:stedsnr" v="1012018" />
		<tag k="ssr:type" v="adressenavn" />
	</node>
	<node lat="68.7426376971748" lon="18.55056626105752" id="-99793">
		<tag k="name" v="Sørdalsveien" />
		<tag k="ssr:date" v="2019-12-27" />
		<tag k="ssr:gruppe" v="veg" />
		<tag k="ssr:hovedgruppe" v="infrastruktur" />
		<tag k="ssr:stedsnr" v="1012106" />
		<tag k="ssr:type" v="adressenavn" />
	</node>
	<node lat="68.6777969048796" lon="18.736216534748056" id="-99794">
		<tag k="name" v="Innsetveien" />
		<tag k="ssr:date" v="2019-12-27" />
		<tag k="ssr:gruppe" v="veg" />
		<tag k="ssr:hovedgruppe" v="infrastruktur" />
		<tag k="ssr:stedsnr" v="1012271" />
		<tag k="ssr:type" v="adressenavn" />
	</node>
	<node lat="68.82623035023886" lon="18.42234546131524" id="-99795">
		<tag k="name" v="Vikingveien" />
		<tag k="ssr:date" v="2019-12-27" />
		<tag k="ssr:gruppe" v="veg" />
		<tag k="ssr:hovedgruppe" v="infrastruktur" />
		<tag k="ssr:stedsnr" v="1012384" />
		<tag k="ssr:type" v="adressenavn" />
	</node>
	<node lat="70.08225403199775" lon="29.73028468656217" id="-99796">
		<tag k="fixme" v="multiple name tags, choose one and add the other to alt_name" />
		<tag k="name" v="Troms og Finnmark;Troms og Finnmark fylke - Romssa ja Finnmárkku fylka - Tromssan ja Finmarkun fylkki" />
		<tag k="name:fkv" v="Tromssan ja Finmarkun fylkki" />
		<tag k="name:no" v="Troms og Finnmark;Troms og Finnmark fylke" />
		<tag k="name:se" v="Romssa ja Finnmárkku fylka" />
		<tag k="ssr:date" v="2021-06-08" />
		<tag k="ssr:gruppe" v="administrativeIndelinger" />
		<tag k="ssr:hovedgruppe" v="offentligAdministrasjon" />
		<tag k="ssr:stedsnr" v="1073694" />
		<tag k="ssr:type" v="fylke" />
	</node>
	<node lat="68.87699260001544" lon="18.442562608105327" id="-99834">
		<tag k="name" v="Krokstadskaret" />
		<tag k="ssr:date" v="2021-04-14" />
		<tag k="ssr:gruppe" v="veg" />
		<tag k="ssr:hovedgruppe" v="infrastruktur" />
		<tag k="ssr:stedsnr" v="1080788" />
		<tag k="ssr:type" v="adressenavn" />
	</node>
	<node lat="68.87897070235886" lon="18.17417440404513" id="-99835">
		<tag k="name" v="Leirbekkvatnet" />
		<tag k="ssr:date" v="2021-04-14" />
		<tag k="ssr:gruppe" v="veg" />
		<tag k="ssr:hovedgruppe" v="infrastruktur" />
		<tag k="ssr:stedsnr" v="1080789" />
		<tag k="ssr:type" v="adressenavn" />
	</node>
	<node lat="68.98369861076839" lon="18.572791463516197" id="-99836">
		<tag k="name" v="Istindlia" />
		<tag k="ssr:date" v="2021-04-14" />
		<tag k="ssr:gruppe" v="veg" />
		<tag k="ssr:hovedgruppe" v="infrastruktur" />
		<tag k="ssr:stedsnr" v="1080790" />
		<tag k="ssr:type" v="adressenavn" />
	</node>
	<node lat="68.65855529030456" lon="18.88403960076227" id="-99837">
		<tag k="name" v="Slåttmoberget" />
		<tag k="ssr:date" v="2021-04-14" />
		<tag k="ssr:gruppe" v="veg" />
		<tag k="ssr:hovedgruppe" v="infrastruktur" />
		<tag k="ssr:stedsnr" v="1080792" />
		<tag k="ssr:type" v="adressenavn" />
	</node>
	<node lat="68.70286927505995" lon="18.448803450681382" id="-99841">
		<tag k="name" v="Melhusdalen" />
		<tag k="ssr:date" v="2021-04-30" />
		<tag k="ssr:gruppe" v="veg" />
		<tag k="ssr:hovedgruppe" v="infrastruktur" />
		<tag k="ssr:stedsnr" v="1081068" />
		<tag k="ssr:type" v="adressenavn" />
	</node>
	<node lat="68.86231723604871" lon="18.236940621869497" id="-99842">
		<tag k="name" v="Leirvassfjellet" />
		<tag k="ssr:date" v="2021-04-30" />
		<tag k="ssr:gruppe" v="veg" />
		<tag k="ssr:hovedgruppe" v="infrastruktur" />
		<tag k="ssr:stedsnr" v="1081067" />
		<tag k="ssr:type" v="adressenavn" />
	</node>
	<node lat="68.8910425051583" lon="18.280478268662208" id="-99843">
		<tag k="name" v="Langvassliveien" />
		<tag k="ssr:date" v="2021-04-30" />
		<tag k="ssr:gruppe" v="veg" />
		<tag k="ssr:hovedgruppe" v="infrastruktur" />
		<tag k="ssr:stedsnr" v="1081069" />
		<tag k="ssr:type" v="adressenavn" />
	</node>
	<node lat="68.85940857142138" lon="18.42925607259899" id="-99844">
		<tag k="name" v="Steilia" />
		<tag k="ssr:date" v="2021-04-30" />
		<tag k="ssr:gruppe" v="veg" />
		<tag k="ssr:hovedgruppe" v="infrastruktur" />
		<tag k="ssr:stedsnr" v="1081070" />
		<tag k="ssr:type" v="adressenavn" />
	</node>
	<node lat="68.97535149971182" lon="18.363406164896446" id="-99845">
		<tag k="name" v="Skoelvdalen" />
		<tag k="ssr:date" v="2021-04-30" />
		<tag k="ssr:gruppe" v="veg" />
		<tag k="ssr:hovedgruppe" v="infrastruktur" />
		<tag k="ssr:stedsnr" v="1081071" />
		<tag k="ssr:type" v="adressenavn" />
	</node>
	<node lat="69.0257707532463" lon="18.410230130448344" id="-99846">
		<tag k="name" v="Sundlifjellet" />
		<tag k="ssr:date" v="2021-04-30" />
		<tag k="ssr:gruppe" v="veg" />
		<tag k="ssr:hovedgruppe" v="infrastruktur" />
		<tag k="ssr:stedsnr" v="1081074" />
		<tag k="ssr:type" v="adressenavn" />
	</node>
	<node lat="68.5910160165941" lon="19.238916842981283" id="-99847">
		<tag k="name" v="Søndre Altevatnet" />
		<tag k="old_name" v="Altevatnet Sør" />
		<tag k="ssr:date" v="2021-04-30" />
		<tag k="ssr:gruppe" v="veg" />
		<tag k="ssr:hovedgruppe" v="infrastruktur" />
		<tag k="ssr:stedsnr" v="1081077" />
		<tag k="ssr:type" v="adressenavn" />
	</node>
	<node lat="68.757529517627" lon="18.659488378831313" id="-99848">
		<tag k="name" v="Strømsmovangen" />
		<tag k="ssr:date" v="2021-04-30" />
		<tag k="ssr:gruppe" v="veg" />
		<tag k="ssr:hovedgruppe" v="infrastruktur" />
		<tag k="ssr:stedsnr" v="1081075" />
		<tag k="ssr:type" v="adressenavn" />
	</node>
	<node lat="68.57343935197864" lon="19.45323861255766" id="-99849">
		<tag k="name" v="Nordre Altevatnet" />
		<tag k="old_name" v="Altevatnet Nord" />
		<tag k="ssr:date" v="2021-04-30" />
		<tag k="ssr:gruppe" v="veg" />
		<tag k="ssr:hovedgruppe" v="infrastruktur" />
		<tag k="ssr:stedsnr" v="1081076" />
		<tag k="ssr:type" v="adressenavn" />
	</node>
	<node lat="68.75225481388067" lon="18.683607464962975" id="-99850">
		<tag k="name" v="Vasskarstien" />
		<tag k="ssr:date" v="2021-05-11" />
		<tag k="ssr:gruppe" v="veg" />
		<tag k="ssr:hovedgruppe" v="infrastruktur" />
		<tag k="ssr:stedsnr" v="1081230" />
		<tag k="ssr:type" v="adressenavn" />
	</node>
	<node lat="68.46253251315474" lon="19.760583381673765" id="-99851">
		<tag k="name" v="Leinavatnet" />
		<tag k="ssr:date" v="2021-05-11" />
		<tag k="ssr:gruppe" v="veg" />
		<tag k="ssr:hovedgruppe" v="infrastruktur" />
		<tag k="ssr:stedsnr" v="1081231" />
		<tag k="ssr:type" v="adressenavn" />
	</node>
	<node lat="68.86572566168645" lon="18.32578176303267" id="-99852">
		<tag k="name" v="Myrbakken" />
		<tag k="ssr:date" v="2021-05-11" />
		<tag k="ssr:gruppe" v="veg" />
		<tag k="ssr:hovedgruppe" v="infrastruktur" />
		<tag k="ssr:stedsnr" v="1081234" />
		<tag k="ssr:type" v="adressenavn" />
	</node>
	<node lat="68.45801527406837" lon="19.583055094216018" id="-99853">
		<tag k="name" v="Geavdja" />
		<tag k="name:se" v="Geavdja" />
		<tag k="ssr:date" v="2021-05-11" />
		<tag k="ssr:gruppe" v="veg" />
		<tag k="ssr:hovedgruppe" v="infrastruktur" />
		<tag k="ssr:stedsnr" v="1081232" />
		<tag k="ssr:type" v="adressenavn" />
	</node>
	<node lat="68.86520778701409" lon="18.331431716366783" id="-99854">
		<tag k="name" v="Tyttebærstien" />
		<tag k="ssr:date" v="2021-05-11" />
		<tag k="ssr:gruppe" v="veg" />
		<tag k="ssr:hovedgruppe" v="infrastruktur" />
		<tag k="ssr:stedsnr" v="1081233" />
		<tag k="ssr:type" v="adressenavn" />
	</node>
</osm>
