<?xml version="1.0" encoding="UTF-8"?>
<osm generator="osmapis" version="0.6">
	<node id="-753660" lat="69.3286611108" lon="17.1048583402">
		<tag k="name" v="Purkøyra" />
		<tag k="natural" v="cape" />
		<tag k="ssr:stedsnr" v="443432" />
	</node>
	<node id="-753657" lat="69.2836777773" lon="16.9495527883">
		<tag k="alt_name" v="Blankhola" />
		<tag k="name" v="Blankholla" />
		<tag k="natural" v="bay" />
		<tag k="ssr:stedsnr" v="443399" />
	</node>
	<node id="-753656" lat="69.2842555538" lon="17.1686944382">
		<tag k="name" v="Røyrneset" />
		<tag k="natural" v="cape" />
		<tag k="ssr:stedsnr" v="443393" />
	</node>
	<node id="-753653" lat="69.3359194413" lon="16.9358000077">
		<tag k="fixme" v="consider seamark:type=rock or natural=shoal" />
		<tag k="name" v="Klakkan" />
		<tag k="place" v="islet" />
		<tag k="ssr:stedsnr" v="443349" />
	</node>
	<node id="-753652" lat="69.4097388863" lon="16.8270750013">
		<tag k="name" v="Nøkkelbåen" />
		<tag k="natural" v="shoal" />
		<tag k="place" v="locality" />
		<tag k="ssr:stedsnr" v="443264" />
	</node>
	<node id="-753651" lat="69.3110694476" lon="16.7616305566">
		<tag k="name" v="Teistgrunnen" />
		<tag k="natural" v="shoal" />
		<tag k="place" v="locality" />
		<tag k="ssr:stedsnr" v="443216" />
	</node>
	<node id="-753650" lat="69.2919944443" lon="16.7937805559">
		<tag k="alt_name" v="Holmevær" />
		<tag k="name" v="Holmenvær" />
		<tag k="place" v="island" />
		<tag k="ssr:stedsnr" v="443207" />
	</node>
	<node id="-753649" lat="69.3040027776" lon="16.9828333435">
		<tag k="name" v="Stranda" />
		<tag k="natural" v="beach" />
		<tag k="place" v="locality" />
		<tag k="ssr:stedsnr" v="443045" />
	</node>
	<node id="-753646" lat="69.1985305528" lon="16.8475750037">
		<tag k="alt_name" v="Skarvskjæret;Skarvskjeret" />
		<tag k="fixme" v="consider seamark:type=rock or natural=shoal" />
		<tag k="name" v="Skarveskjæret" />
		<tag k="place" v="islet" />
		<tag k="ssr:stedsnr" v="442173" />
	</node>
	<node id="-753645" lat="69.1982388896" lon="16.8948666617">
		<tag k="name" v="Årbergneset" />
		<tag k="natural" v="cape" />
		<tag k="ssr:stedsnr" v="442165" />
	</node>
	<node id="-753644" lat="69.2034749973" lon="16.890666663">
		<tag k="name" v="Grindebogen" />
		<tag k="natural" v="bay" />
		<tag k="ssr:stedsnr" v="442163" />
	</node>
	<node id="-753642" lat="69.2164277826" lon="16.8331361026">
		<tag k="name" v="Kjerkeskallen" />
		<tag k="natural" v="shoal" />
		<tag k="place" v="locality" />
		<tag k="ssr:stedsnr" v="442149" />
	</node>
	<node id="-753623" lat="69.3360333365" lon="17.0870944387">
		<tag k="name" v="Værneset" />
		<tag k="natural" v="cape" />
		<tag k="ssr:stedsnr" v="415783" />
	</node>
	<node id="-753622" lat="69.3576888922" lon="17.1041222199">
		<tag k="name" v="Indre Skursandholla" />
		<tag k="natural" v="bay" />
		<tag k="ssr:stedsnr" v="415707" />
	</node>
	<node id="-753620" lat="69.3377444476" lon="17.1036249939">
		<tag k="name" v="Bukta" />
		<tag k="natural" v="bay" />
		<tag k="ssr:stedsnr" v="415686" />
	</node>
	<node id="-753616" lat="69.3790527779" lon="16.9187027783">
		<tag k="name" v="Kverna" />
		<tag k="natural" v="shoal" />
		<tag k="place" v="locality" />
		<tag k="ssr:stedsnr" v="415489" />
	</node>
	<node id="-753615" lat="69.1864861134" lon="17.0558666689">
		<tag k="name" v="Telegrafneset" />
		<tag k="natural" v="cape" />
		<tag k="ssr:stedsnr" v="415480" />
	</node>
	<node id="-753610" lat="69.1991777802" lon="16.9060638932">
		<tag k="name" v="Støttegrunnen" />
		<tag k="natural" v="shoal" />
		<tag k="place" v="locality" />
		<tag k="ssr:stedsnr" v="415282" />
	</node>
	<node id="-753608" lat="69.2002722259" lon="16.9097527661">
		<tag k="name" v="Litjevika" />
		<tag k="natural" v="bay" />
		<tag k="ssr:stedsnr" v="415275" />
	</node>
	<node id="-753607" lat="69.1988055576" lon="16.9017361155">
		<tag k="name" v="Kalvika" />
		<tag k="natural" v="bay" />
		<tag k="ssr:stedsnr" v="415270" />
	</node>
	<node id="-753603" lat="69.2034416635" lon="16.8375972142">
		<tag k="name" v="Seingsholmen" />
		<tag k="place" v="islet" />
		<tag k="ssr:stedsnr" v="415146" />
	</node>
	<node id="-753602" lat="69.2651611135" lon="16.8000805657">
		<tag k="name" v="Kjerkekeila" />
		<tag k="natural" v="bay" />
		<tag k="ssr:stedsnr" v="415145" />
	</node>
	<node id="-753600" lat="69.2696111086" lon="16.7816388764">
		<tag k="fixme" v="consider seamark:type=rock or natural=shoal" />
		<tag k="name" v="Fugleskjæret" />
		<tag k="place" v="islet" />
		<tag k="ssr:stedsnr" v="415136" />
	</node>
	<node id="-753589" lat="69.4593277796" lon="16.8588055483">
		<tag k="name" v="Grunnhaugbåen" />
		<tag k="natural" v="shoal" />
		<tag k="place" v="locality" />
		<tag k="ssr:stedsnr" v="261306" />
	</node>
	<node id="-753588" lat="69.3097249965" lon="16.7171194299">
		<tag k="name" v="Angvardan" />
		<tag k="natural" v="shoal" />
		<tag k="place" v="locality" />
		<tag k="ssr:stedsnr" v="261213" />
	</node>
	<node id="-753585" lat="69.2307722222" lon="16.8887666536">
		<tag k="alt_name" v="Persvika" />
		<tag k="name" v="Olpersavika" />
		<tag k="natural" v="bay" />
		<tag k="ssr:stedsnr" v="260216" />
	</node>
	<node id="-753580" lat="69.3106472223" lon="17.1194833285">
		<tag k="fixme" v="consider seamark:type=rock or natural=shoal" />
		<tag k="name" v="Osterrevet" />
		<tag k="place" v="islet" />
		<tag k="ssr:stedsnr" v="234610" />
	</node>
	<node id="-753576" lat="69.3624722234" lon="17.0947249979">
		<tag k="fixme" v="consider seamark:type=rock or natural=shoal" />
		<tag k="name" v="Indre Pålsteinan" />
		<tag k="place" v="islet" />
		<tag k="ssr:stedsnr" v="233695" />
	</node>
	<node id="-753573" lat="69.3547194458" lon="17.135155555">
		<tag k="fixme" v="consider seamark:type=rock or natural=shoal" />
		<tag k="name" v="Hysesteinen" />
		<tag k="place" v="islet" />
		<tag k="ssr:stedsnr" v="233675" />
	</node>
	<node id="-753572" lat="69.3581583319" lon="17.1371111112">
		<tag k="fixme" v="consider seamark:type=rock or natural=shoal" />
		<tag k="name" v="Hysesteinen" />
		<tag k="place" v="islet" />
		<tag k="ssr:stedsnr" v="233674" />
	</node>
	<node id="-753569" lat="69.2517194456" lon="17.0996999951">
		<tag k="fixme" v="consider seamark:type=rock or natural=shoal" />
		<tag k="name" v="Bøan" />
		<tag k="place" v="islet" />
		<tag k="ssr:stedsnr" v="233591" />
	</node>
	<node id="-753567" lat="69.2577111118" lon="17.1036916701">
		<tag k="name" v="Kråksølvneset" />
		<tag k="natural" v="cape" />
		<tag k="ssr:stedsnr" v="233579" />
	</node>
	<node id="-753565" lat="69.2501250013" lon="17.1043444561">
		<tag k="name" v="Måshuset" />
		<tag k="natural" v="cape" />
		<tag k="ssr:stedsnr" v="233558" />
	</node>
	<node id="-753560" lat="69.2716361145" lon="17.1184583335">
		<tag k="name" v="Skogneset" />
		<tag k="natural" v="cape" />
		<tag k="ssr:stedsnr" v="233516" />
	</node>
	<node id="-753556" lat="69.1811138854" lon="17.0766666523">
		<tag k="name" v="Insteneset" />
		<tag k="natural" v="cape" />
		<tag k="ssr:stedsnr" v="233498" />
	</node>
	<node id="-753554" lat="69.3295277774" lon="16.9940305595">
		<tag k="name" v="Sennholmleia" />
		<tag k="natural" v="strait" />
		<tag k="ssr:stedsnr" v="233470" />
	</node>
	<node id="-753553" lat="69.3633361097" lon="16.9476333415">
		<tag k="name" v="Måneslandet" />
		<tag k="natural" v="beach" />
		<tag k="place" v="locality" />
		<tag k="ssr:stedsnr" v="233450" />
	</node>
	<node id="-753552" lat="69.3637777811" lon="16.8889611131">
		<tag k="name" v="Keila" />
		<tag k="natural" v="bay" />
		<tag k="ssr:stedsnr" v="233449" />
	</node>
	<node id="-753551" lat="69.360016668" lon="17.0250138971">
		<tag k="name" v="Ausemannen" />
		<tag k="natural" v="cape" />
		<tag k="ssr:stedsnr" v="233446" />
	</node>
	<node id="-753542" lat="69.2073722201" lon="16.8996138756">
		<tag k="name" v="Ressenesen" />
		<tag k="natural" v="cape" />
		<tag k="ssr:stedsnr" v="233279" />
	</node>
	<node id="-753539" lat="69.2183555533" lon="16.9122444496">
		<tag k="name" v="Kvalan" />
		<tag k="natural" v="bay" />
		<tag k="ssr:stedsnr" v="233246" />
	</node>
	<node id="-753537" lat="69.2654583371" lon="16.7797833369">
		<tag k="fixme" v="consider seamark:type=rock or natural=shoal" />
		<tag k="name" v="Tjuvskjæret" />
		<tag k="place" v="islet" />
		<tag k="ssr:stedsnr" v="233151" />
	</node>
	<node id="-753535" lat="69.4247277797" lon="17.1540250095">
		<tag k="name" v="Nordre Flatholman" />
		<tag k="place" v="islet" />
		<tag k="ssr:stedsnr" v="228440" />
	</node>
	<node id="-753534" lat="69.2704861122" lon="16.7985694377">
		<tag k="name" v="Kilegrunnen" />
		<tag k="natural" v="shoal" />
		<tag k="place" v="locality" />
		<tag k="ssr:stedsnr" v="225224" />
	</node>
	<node id="-753532" lat="69.2098361088" lon="16.764213887">
		<tag k="name" v="Nordskolten" />
		<tag k="natural" v="shoal" />
		<tag k="place" v="locality" />
		<tag k="ssr:stedsnr" v="224901" />
	</node>
	<node id="-753531" lat="69.2763944412" lon="16.9671138947">
		<tag k="name" v="Stryneset" />
		<tag k="natural" v="cape" />
		<tag k="ssr:stedsnr" v="224973" />
	</node>
	<node id="-753524" lat="69.3439972242" lon="16.928294436">
		<tag k="name" v="Klakkegrunnen" />
		<tag k="natural" v="shoal" />
		<tag k="place" v="locality" />
		<tag k="ssr:stedsnr" v="201310" />
	</node>
	<node id="-753522" lat="69.2737944482" lon="17.0119916745">
		<tag k="alt_name" v="Stangneset" />
		<tag k="name" v="Stonga" />
		<tag k="natural" v="cape" />
		<tag k="ssr:stedsnr" v="200379" />
	</node>
	<node id="-753518" lat="69.4025194459" lon="17.0529861223">
		<tag k="name" v="Revvikneset" />
		<tag k="natural" v="cape" />
		<tag k="ssr:stedsnr" v="200345" />
	</node>
	<node id="-753517" lat="69.3392194485" lon="17.0608416737">
		<tag k="name" v="Torkelneset" />
		<tag k="natural" v="cape" />
		<tag k="ssr:stedsnr" v="200342" />
	</node>
	<node id="-753516" lat="69.3193583363" lon="16.9260111186">
		<tag k="name" v="Kveitsporden" />
		<tag k="natural" v="cape" />
		<tag k="ssr:stedsnr" v="200411" />
	</node>
	<node id="-753515" lat="69.3199888898" lon="16.959063891">
		<tag k="name" v="Kjerringvika" />
		<tag k="natural" v="bay" />
		<tag k="ssr:stedsnr" v="200412" />
	</node>
	<node id="-753514" lat="69.2078222258" lon="16.7569305454">
		<tag k="name" v="Djupskolten" />
		<tag k="natural" v="shoal" />
		<tag k="place" v="locality" />
		<tag k="ssr:stedsnr" v="200044" />
	</node>
	<node id="-753513" lat="69.2874333328" lon="16.7609500077">
		<tag k="fixme" v="consider seamark:type=rock or natural=shoal" />
		<tag k="name" v="Langskjæret" />
		<tag k="place" v="islet" />
		<tag k="ssr:stedsnr" v="200201" />
	</node>
	<node id="-753512" lat="69.2910361088" lon="16.7890916524">
		<tag k="name" v="Vardøya" />
		<tag k="place" v="island" />
		<tag k="ssr:stedsnr" v="200198" />
	</node>
	<node id="-753511" lat="69.2612805536" lon="16.8104166721">
		<tag k="alt_name" v="Bolholmen" />
		<tag k="name" v="Bollholmen" />
		<tag k="place" v="islet" />
		<tag k="ssr:stedsnr" v="200187" />
	</node>
	<node id="-753510" lat="69.2413583345" lon="16.9899749896">
		<tag k="name" v="Flesbukta" />
		<tag k="natural" v="bay" />
		<tag k="ssr:stedsnr" v="200160" />
	</node>
	<node id="-753508" lat="69.1976611107" lon="16.8419388873">
		<tag k="name" v="Steinholmen" />
		<tag k="place" v="islet" />
		<tag k="ssr:stedsnr" v="200135" />
	</node>
	<node id="-753504" lat="69.3877000016" lon="17.1059583392">
		<tag k="name" v="Valen" />
		<tag k="natural" v="bay" />
		<tag k="ssr:stedsnr" v="173689" />
	</node>
	<node id="-753494" lat="69.3128638888" lon="17.1202527701">
		<tag k="name" v="Toftebukta" />
		<tag k="natural" v="bay" />
		<tag k="ssr:stedsnr" v="173465" />
	</node>
	<node id="-753491" lat="69.3955083303" lon="16.9820083402">
		<tag k="name" v="Yttervika" />
		<tag k="natural" v="bay" />
		<tag k="ssr:stedsnr" v="173389" />
	</node>
	<node id="-753489" lat="69.3580638914" lon="17.1047666606">
		<tag k="fixme" v="consider seamark:type=rock or natural=shoal" />
		<tag k="name" v="Kobbesteinan" />
		<tag k="place" v="islet" />
		<tag k="ssr:stedsnr" v="172674" />
	</node>
	<node id="-753484" lat="69.3635222183" lon="17.0882444515">
		<tag k="fixme" v="consider seamark:type=rock or natural=shoal" />
		<tag k="name" v="Ytre Pålsteinan" />
		<tag k="place" v="islet" />
		<tag k="ssr:stedsnr" v="172707" />
	</node>
	<node id="-753479" lat="69.1849749997" lon="17.0573277637">
		<tag k="name" v="Vedvika" />
		<tag k="natural" v="bay" />
		<tag k="ssr:stedsnr" v="172493" />
	</node>
	<node id="-753478" lat="69.1947472217" lon="17.1787000079">
		<tag k="name" v="Holla" />
		<tag k="natural" v="bay" />
		<tag k="ssr:stedsnr" v="172489" />
	</node>
	<node id="-753477" lat="69.3925527739" lon="16.939124998">
		<tag k="name" v="Mollvika" />
		<tag k="natural" v="bay" />
		<tag k="ssr:stedsnr" v="172459" />
	</node>
	<node id="-753474" lat="69.3555833293" lon="17.0201527787">
		<tag k="fixme" v="consider seamark:type=rock or natural=shoal" />
		<tag k="name" v="Juldagssteinen" />
		<tag k="place" v="islet" />
		<tag k="ssr:stedsnr" v="172428" />
	</node>
	<node id="-753473" lat="69.3441444471" lon="17.0001499968">
		<tag k="fixme" v="consider seamark:type=rock or natural=shoal" />
		<tag k="name" v="Skarveskjæret" />
		<tag k="place" v="islet" />
		<tag k="ssr:stedsnr" v="172427" />
	</node>
	<node id="-753471" lat="69.296305557" lon="16.9648111027">
		<tag k="fixme" v="consider seamark:type=rock or natural=shoal" />
		<tag k="name" v="Kobbhella" />
		<tag k="place" v="islet" />
		<tag k="ssr:stedsnr" v="172416" />
	</node>
	<node id="-753468" lat="69.2000805592" lon="16.9254638821">
		<tag k="name" v="Storvika" />
		<tag k="natural" v="bay" />
		<tag k="ssr:stedsnr" v="172275" />
	</node>
	<node id="-753464" lat="69.4240249992" lon="16.8669722327">
		<tag k="name" v="Litlebåen" />
		<tag k="natural" v="shoal" />
		<tag k="place" v="locality" />
		<tag k="ssr:stedsnr" v="167408" />
	</node>
	<node id="-753463" lat="69.4387805523" lon="16.7684611049">
		<tag k="name" v="Fallbakkdjupet" />
		<tag k="place" v="locality" />
		<tag k="ssr:stedsnr" v="167406" />
	</node>
	<node id="-753462" lat="69.2854166682" lon="16.8017610992">
		<tag k="name" v="Skreinggrunnan" />
		<tag k="natural" v="shoal" />
		<tag k="place" v="locality" />
		<tag k="ssr:stedsnr" v="164231" />
	</node>
	<node id="-753461" lat="69.381125003" lon="16.9074750096">
		<tag k="name" v="Andenesbåen" />
		<tag k="natural" v="shoal" />
		<tag k="place" v="locality" />
		<tag k="ssr:stedsnr" v="163163" />
	</node>
	<node id="-753460" lat="69.2517583329" lon="17.0981388988">
		<tag k="name" v="Vikanbåan" />
		<tag k="natural" v="shoal" />
		<tag k="place" v="locality" />
		<tag k="ssr:stedsnr" v="163014" />
	</node>
	<node id="-753459" lat="69.2735222238" lon="17.0217138772">
		<tag k="name" v="Veidmannsneset" />
		<tag k="natural" v="cape" />
		<tag k="ssr:stedsnr" v="141377" />
	</node>
	<node id="-753456" lat="69.3247250036" lon="17.0767055448">
		<tag k="name" v="Kongsneset" />
		<tag k="natural" v="cape" />
		<tag k="ssr:stedsnr" v="139436" />
	</node>
	<node id="-753451" lat="69.401527775" lon="17.0328999858">
		<tag k="name" v="Storsteinneset" />
		<tag k="natural" v="cape" />
		<tag k="ssr:stedsnr" v="139350" />
	</node>
	<node id="-753446" lat="69.3893083365" lon="17.0769361123">
		<tag k="name" v="Sildevika" />
		<tag k="natural" v="bay" />
		<tag k="ssr:stedsnr" v="139361" />
	</node>
	<node id="-753442" lat="69.1849444442" lon="17.1153972298">
		<tag k="name" v="Storneset" />
		<tag k="natural" v="cape" />
		<tag k="ssr:stedsnr" v="138241" />
	</node>
	<node id="-753440" lat="69.195450001" lon="16.8259638805">
		<tag k="name" v="Hamnsvellingen" />
		<tag k="place" v="islet" />
		<tag k="ssr:stedsnr" v="138167" />
	</node>
	<node id="-753430" lat="69.3425222255" lon="17.123219438">
		<tag k="name" v="Ferånabukta" />
		<tag k="natural" v="bay" />
		<tag k="ssr:stedsnr" v="112639" />
	</node>
	<node id="-753424" lat="69.1854194458" lon="17.0586361188">
		<tag k="name" v="Oterneset" />
		<tag k="natural" v="cape" />
		<tag k="ssr:stedsnr" v="112487" />
	</node>
	<node id="-753420" lat="69.392363891" lon="16.9326555603">
		<tag k="name" v="Oksebåsen" />
		<tag k="natural" v="bay" />
		<tag k="ssr:stedsnr" v="112454" />
	</node>
	<node id="-753419" lat="69.3526166691" lon="16.9452944507">
		<tag k="name" v="Torskeråsa" />
		<tag k="natural" v="shoal" />
		<tag k="place" v="locality" />
		<tag k="ssr:stedsnr" v="112441" />
	</node>
	<node id="-753418" lat="69.3601861159" lon="16.988719439">
		<tag k="name" v="Eldhusholla" />
		<tag k="natural" v="bay" />
		<tag k="ssr:stedsnr" v="112438" />
	</node>
	<node id="-753417" lat="69.3441249977" lon="17.0067944378">
		<tag k="name" v="Nordøyneset" />
		<tag k="natural" v="cape" />
		<tag k="ssr:stedsnr" v="112431" />
	</node>
	<node id="-753413" lat="69.2937333332" lon="16.7725944366">
		<tag k="name" v="Litje Gåsholmen" />
		<tag k="place" v="islet" />
		<tag k="ssr:stedsnr" v="112169" />
	</node>
	<node id="-753411" lat="69.325477775" lon="16.9774916632">
		<tag k="name" v="Stiholla" />
		<tag k="natural" v="bay" />
		<tag k="ssr:stedsnr" v="112404" />
	</node>
	<node id="-753409" lat="69.2813638876" lon="17.0333916694">
		<tag k="name" v="Mollneset" />
		<tag k="natural" v="cape" />
		<tag k="ssr:stedsnr" v="112327" />
	</node>
	<node id="-753406" lat="69.433525003" lon="16.9679527823">
		<tag k="name" v="Gjesselskolten" />
		<tag k="natural" v="shoal" />
		<tag k="place" v="locality" />
		<tag k="ssr:stedsnr" v="107402" />
	</node>
	<node id="-753405" lat="69.4248888877" lon="16.8322305507">
		<tag k="name" v="Snyfjellskallen" />
		<tag k="natural" v="shoal" />
		<tag k="place" v="locality" />
		<tag k="ssr:stedsnr" v="107395" />
	</node>
	<node id="-753403" lat="69.2890638914" lon="16.9559833304">
		<tag k="alt_name" v="Stryaørja" />
		<tag k="name" v="Stryøyra" />
		<tag k="natural" v="beach" />
		<tag k="place" v="locality" />
		<tag k="ssr:stedsnr" v="103970" />
	</node>
	<node id="-753402" lat="69.1958416689" lon="16.7660055673">
		<tag k="name" v="Steinan" />
		<tag k="natural" v="shoal" />
		<tag k="place" v="locality" />
		<tag k="ssr:stedsnr" v="103884" />
	</node>
	<node id="-753401" lat="69.2820194449" lon="16.7867583343">
		<tag k="fixme" v="consider seamark:type=rock or natural=shoal" />
		<tag k="name" v="Mefjerdingen" />
		<tag k="place" v="islet" />
		<tag k="ssr:stedsnr" v="103352" />
	</node>
	<node id="-753400" lat="69.176352781" lon="17.0613138973">
		<tag k="fixme" v="multiple name tags, choose one and add the other to alt_name" />
		<tag k="name" v="Lomsnesskjæran;Storskjæran" />
		<tag k="place" v="islet" />
		<tag k="ssr:stedsnr" v="103188" />
	</node>
	<node id="-753399" lat="69.296855552" lon="16.99021944">
		<tag k="name" v="Hamnneset" />
		<tag k="natural" v="cape" />
		<tag k="ssr:stedsnr" v="103055" />
	</node>
	<node id="-753398" lat="69.2847833364" lon="17.1276916739">
		<tag k="name" v="Leirhøla" />
		<tag k="natural" v="beach" />
		<tag k="place" v="locality" />
		<tag k="ssr:stedsnr" v="103015" />
	</node>
	<node id="-753397" lat="69.2456611078" lon="17.1095027798">
		<tag k="name" v="Mølnevika" />
		<tag k="natural" v="bay" />
		<tag k="ssr:stedsnr" v="82606" />
	</node>
	<node id="-753394" lat="69.3301472188" lon="17.0368138776">
		<tag k="name" v="Inner-Spanhella" />
		<tag k="natural" v="cape" />
		<tag k="ssr:stedsnr" v="81379" />
	</node>
	<node id="-753387" lat="69.3770750003" lon="16.8696527814">
		<tag k="alt_name" v="Månesodden, yt" />
		<tag k="name" v="Ytre Månesodden" />
		<tag k="natural" v="cape" />
		<tag k="ssr:stedsnr" v="79356" />
	</node>
	<node id="-753383" lat="69.4063527813" lon="16.9534666778">
		<tag k="fixme" v="consider seamark:type=rock or natural=shoal" />
		<tag k="name" v="Nord-Teisteskjæret" />
		<tag k="place" v="islet" />
		<tag k="ssr:stedsnr" v="79244" />
	</node>
	<node id="-753382" lat="69.2872111133" lon="16.7922194403">
		<tag k="name" v="Kjerringholman" />
		<tag k="place" v="islet" />
		<tag k="ssr:stedsnr" v="79203" />
	</node>
	<node id="-753378" lat="69.2487916623" lon="16.997036109">
		<tag k="fixme" v="consider seamark:type=rock or natural=shoal" />
		<tag k="name" v="Flesskjæran" />
		<tag k="place" v="islet" />
		<tag k="ssr:stedsnr" v="78171" />
	</node>
	<node id="-753370" lat="69.28721111" lon="17.1779916663">
		<tag k="name" v="Botnbergneset" />
		<tag k="natural" v="cape" />
		<tag k="ssr:stedsnr" v="51729" />
	</node>
	<node id="-753362" lat="69.2734638851" lon="17.089622231">
		<tag k="name" v="Yttereidneset" />
		<tag k="natural" v="cape" />
		<tag k="ssr:stedsnr" v="51550" />
	</node>
	<node id="-753354" lat="69.1907361123" lon="16.8202888853">
		<tag k="name" v="Storkeila" />
		<tag k="natural" v="bay" />
		<tag k="ssr:stedsnr" v="51158" />
	</node>
	<node id="-753353" lat="69.2928138881" lon="16.7795277662">
		<tag k="name" v="Kjeholmen" />
		<tag k="place" v="islet" />
		<tag k="ssr:stedsnr" v="51144" />
	</node>
	<node id="-753352" lat="69.1923638855" lon="16.9786638782">
		<tag k="name" v="Litje Bjørgeneset" />
		<tag k="natural" v="cape" />
		<tag k="ssr:stedsnr" v="51133" />
	</node>
	<node id="-753351" lat="69.4073277788" lon="16.9383638888">
		<tag k="name" v="Teistgrunnen" />
		<tag k="natural" v="shoal" />
		<tag k="place" v="locality" />
		<tag k="ssr:stedsnr" v="43148" />
	</node>
	<node id="-753350" lat="69.2007138877" lon="16.8614694378">
		<tag k="name" v="Båen" />
		<tag k="natural" v="shoal" />
		<tag k="place" v="locality" />
		<tag k="ssr:stedsnr" v="42877" />
	</node>
	<node id="-753349" lat="69.3594583348" lon="17.0853916741">
		<tag k="alt_name" v="Ytre Sildvika" />
		<tag k="name" v="Sildevika" />
		<tag k="natural" v="bay" />
		<tag k="ssr:stedsnr" v="42075" />
	</node>
	<node id="-753348" lat="69.3759666632" lon="16.8665527711">
		<tag k="name" v="Måneset" />
		<tag k="natural" v="cape" />
		<tag k="ssr:stedsnr" v="28326" />
	</node>
	<node id="-753347" lat="69.4048500041" lon="16.9405527717">
		<tag k="name" v="Teisteneset" />
		<tag k="natural" v="cape" />
		<tag k="ssr:stedsnr" v="26463" />
	</node>
	<node id="-753345" lat="69.2782666713" lon="17.0656694394">
		<tag k="name" v="Veidmannsbotn" />
		<tag k="natural" v="bay" />
		<tag k="ssr:stedsnr" v="20357" />
	</node>
	<node id="-753336" lat="69.2575527773" lon="16.9224166754">
		<tag k="name" v="Kvengrunnen" />
		<tag k="natural" v="shoal" />
		<tag k="place" v="locality" />
		<tag k="ssr:stedsnr" v="18356" />
	</node>
	<node id="-753332" lat="69.3898777815" lon="16.9223055666">
		<tag k="name" v="Fiskeneset" />
		<tag k="natural" v="cape" />
		<tag k="ssr:stedsnr" v="18308" />
	</node>
	<node id="-753330" lat="69.3367722259" lon="17.0745472246">
		<tag k="fixme" v="multiple name tags, choose one and add the other to alt_name" />
		<tag k="name" v="Sundsneset;Sylsneset" />
		<tag k="natural" v="cape" />
		<tag k="ssr:stedsnr" v="18297" />
	</node>
	<node id="-753329" lat="69.4213472264" lon="17.0068527695">
		<tag k="name" v="Torsteinfallet" />
		<tag k="natural" v="shoal" />
		<tag k="place" v="locality" />
		<tag k="ssr:stedsnr" v="18237" />
	</node>
	<node id="-753328" lat="69.4268305545" lon="16.8389527662">
		<tag k="name" v="Kjerringfallet" />
		<tag k="natural" v="shoal" />
		<tag k="place" v="locality" />
		<tag k="ssr:stedsnr" v="18228" />
	</node>
	<node id="-753327" lat="69.2637833305" lon="16.7755972223">
		<tag k="alt_name" v="Atterholman" />
		<tag k="name" v="Atterholmen" />
		<tag k="place" v="islet" />
		<tag k="ssr:stedsnr" v="18182" />
	</node>
	<node id="-753326" lat="69.2692277795" lon="16.7946999967">
		<tag k="name" v="Heimkeila" />
		<tag k="natural" v="bay" />
		<tag k="ssr:stedsnr" v="18179" />
	</node>
	<node id="-753320" lat="69.2443888874" lon="17.0579527789">
		<tag k="bay" v="fjord" />
		<tag k="name" v="Sifjorden" />
		<tag k="natural" v="bay" />
		<tag k="ssr:stedsnr" v="17192" />
	</node>
	<node id="-753278" lat="69.337513885" lon="17.0192611061">
		<tag k="name" v="Husvika" />
		<tag k="natural" v="bay" />
		<tag k="ssr:stedsnr" v="415442" />
	</node>
	<node id="-753273" lat="69.4833333313" lon="16.6944444376">
		<tag k="name" v="Tåja" />
		<tag k="place" v="locality" />
		<tag k="ssr:stedsnr" v="788735" />
	</node>
	<node id="-753272" lat="69.4916666695" lon="16.7222222335">
		<tag k="name" v="Sveinsgrunnbakken" />
		<tag k="place" v="locality" />
		<tag k="ssr:stedsnr" v="727740" />
	</node>
	<node id="-753271" lat="69.461111113" lon="16.594444457">
		<tag k="name" v="Vesterbakken" />
		<tag k="place" v="locality" />
		<tag k="ssr:stedsnr" v="302728" />
	</node>
	<node id="-753270" lat="69.2749555594" lon="17.1295027821">
		<tag k="name" v="Finnesbukta" />
		<tag k="natural" v="bay" />
		<tag k="ssr:stedsnr" v="900510" />
	</node>
	<node id="-753267" lat="69.2647472187" lon="16.8085499939">
		<tag k="name" v="Bolholmgrunnan" />
		<tag k="natural" v="shoal" />
		<tag k="place" v="locality" />
		<tag k="ssr:stedsnr" v="892212" />
	</node>
	<node id="-753254" lat="69.2853388864" lon="17.1807333265">
		<tag k="name" v="Skredhodet" />
		<tag k="natural" v="cape" />
		<tag k="ssr:stedsnr" v="476678" />
	</node>
	<node id="-753245" lat="69.26824167" lon="16.7955249966">
		<tag k="name" v="Vika" />
		<tag k="natural" v="bay" />
		<tag k="ssr:stedsnr" v="476144" />
	</node>
	<node id="-753243" lat="69.2932833374" lon="16.7880444423">
		<tag k="name" v="Moloholmen" />
		<tag k="place" v="islet" />
		<tag k="ssr:stedsnr" v="476139" />
	</node>
	<node id="-753239" lat="69.2828277752" lon="17.1626555561">
		<tag k="name" v="Hamneklubben" />
		<tag k="natural" v="cape" />
		<tag k="ssr:stedsnr" v="475498" />
	</node>
	<node id="-753237" lat="69.2392027771" lon="17.129574988">
		<tag k="name" v="Bjørnvika" />
		<tag k="natural" v="bay" />
		<tag k="ssr:stedsnr" v="475490" />
	</node>
	<node id="-753229" lat="69.2076999984" lon="16.8971249951">
		<tag k="fixme" v="consider seamark:type=rock or natural=shoal" />
		<tag k="name" v="Skarvesteinen" />
		<tag k="place" v="islet" />
		<tag k="ssr:stedsnr" v="475269" />
	</node>
	<node id="-753224" lat="69.2368055552" lon="16.9218111004">
		<tag k="fixme" v="consider seamark:type=rock or natural=shoal" />
		<tag k="name" v="Olhansasteinen" />
		<tag k="place" v="islet" />
		<tag k="ssr:stedsnr" v="475226" />
	</node>
	<node id="-753223" lat="69.2938777797" lon="16.9589666569">
		<tag k="name" v="Kobbsteinen" />
		<tag k="natural" v="shoal" />
		<tag k="place" v="locality" />
		<tag k="ssr:stedsnr" v="406980" />
	</node>
	<node id="-753222" lat="69.2040444401" lon="16.8478666655">
		<tag k="name" v="Kjerringgrunnen" />
		<tag k="natural" v="shoal" />
		<tag k="place" v="locality" />
		<tag k="ssr:stedsnr" v="406911" />
	</node>
	<node id="-753221" lat="69.1910083303" lon="16.8166749979">
		<tag k="fixme" v="consider seamark:type=rock or natural=shoal" />
		<tag k="name" v="Leiskjæret" />
		<tag k="place" v="islet" />
		<tag k="ssr:stedsnr" v="406907" />
	</node>
	<node id="-753220" lat="69.3976416686" lon="16.902388887">
		<tag k="name" v="Hella" />
		<tag k="natural" v="shoal" />
		<tag k="place" v="locality" />
		<tag k="ssr:stedsnr" v="406190" />
	</node>
	<node id="-753218" lat="69.4045972198" lon="16.9368250018">
		<tag k="fixme" v="consider seamark:type=rock or natural=shoal" />
		<tag k="name" v="Sør-Teisteskjæran" />
		<tag k="place" v="islet" />
		<tag k="ssr:stedsnr" v="384740" />
	</node>
	<node id="-753213" lat="69.2726361143" lon="17.1261361091">
		<tag k="name" v="Finnes" />
		<tag k="natural" v="cape" />
		<tag k="ssr:stedsnr" v="382363" />
	</node>
	<node id="-753208" lat="69.4448194437" lon="16.9240777678">
		<tag k="name" v="Ramnskolten" />
		<tag k="natural" v="shoal" />
		<tag k="place" v="locality" />
		<tag k="ssr:stedsnr" v="382308" />
	</node>
	<node id="-753207" lat="69.4260305519" lon="16.9357111043">
		<tag k="name" v="Brunfallet" />
		<tag k="natural" v="shoal" />
		<tag k="place" v="locality" />
		<tag k="ssr:stedsnr" v="382232" />
	</node>
	<node id="-753206" lat="69.2656944401" lon="16.7908555647">
		<tag k="name" v="Ørja" />
		<tag k="place" v="island" />
		<tag k="ssr:stedsnr" v="382204" />
	</node>
	<node id="-753205" lat="69.2643999972" lon="16.7399194469">
		<tag k="name" v="Sandfallan" />
		<tag k="natural" v="shoal" />
		<tag k="place" v="locality" />
		<tag k="ssr:stedsnr" v="382200" />
	</node>
	<node id="-753204" lat="69.1948361154" lon="16.8149583389">
		<tag k="fixme" v="multiple name tags, choose one and add the other to alt_name; consider seamark:type=rock or natural=shoal" />
		<tag k="name" v="Flatskjæret;Svartskjæret" />
		<tag k="place" v="islet" />
		<tag k="ssr:stedsnr" v="382063" />
	</node>
	<node id="-753201" lat="69.2000388848" lon="16.9305777854">
		<tag k="name" v="Blåneset" />
		<tag k="natural" v="cape" />
		<tag k="ssr:stedsnr" v="381160" />
	</node>
	<node id="-753197" lat="69.4017666646" lon="17.1240277702">
		<tag k="name" v="Storsteinbukta" />
		<tag k="natural" v="bay" />
		<tag k="ssr:stedsnr" v="355700" />
	</node>
	<node id="-753179" lat="69.18125" lon="17.0665638778">
		<tag k="fixme" v="consider seamark:type=rock or natural=shoal" />
		<tag k="name" v="Salbergskjæret" />
		<tag k="place" v="islet" />
		<tag k="ssr:stedsnr" v="354480" />
	</node>
	<node id="-753178" lat="69.2282722187" lon="17.08548611">
		<tag k="fixme" v="consider seamark:type=rock or natural=shoal" />
		<tag k="name" v="Skjæret" />
		<tag k="place" v="islet" />
		<tag k="ssr:stedsnr" v="354475" />
	</node>
	<node id="-753174" lat="69.3952500014" lon="16.9963916728">
		<tag k="name" v="Porten" />
		<tag k="natural" v="bay" />
		<tag k="ssr:stedsnr" v="354439" />
	</node>
	<node id="-753173" lat="69.3608972191" lon="16.9821944306">
		<tag k="name" v="Vottholla" />
		<tag k="natural" v="bay" />
		<tag k="ssr:stedsnr" v="354428" />
	</node>
	<node id="-753171" lat="69.3484194438" lon="17.0372305552">
		<tag k="name" v="Byttingssteinen" />
		<tag k="natural" v="cape" />
		<tag k="ssr:stedsnr" v="354421" />
	</node>
	<node id="-753162" lat="69.2496749982" lon="17.0061638961">
		<tag k="name" v="Flesgrunnen" />
		<tag k="natural" v="shoal" />
		<tag k="place" v="locality" />
		<tag k="ssr:stedsnr" v="345961" />
	</node>
	<node id="-753161" lat="69.4006888864" lon="16.8316500091">
		<tag k="name" v="Hellandsfoten" />
		<tag k="natural" v="shoal" />
		<tag k="place" v="locality" />
		<tag k="ssr:stedsnr" v="345203" />
	</node>
	<node id="-753158" lat="69.2618861128" lon="17.0714444372">
		<tag k="fixme" v="multiple name tags, choose one and add the other to alt_name" />
		<tag k="name" v="Kvalvika;Kvalvikran" />
		<tag k="natural" v="bay" />
		<tag k="ssr:stedsnr" v="345031" />
	</node>
	<node id="-753157" lat="69.2721666667" lon="17.0880805505">
		<tag k="name" v="Bjørnberget" />
		<tag k="natural" v="cape" />
		<tag k="ssr:stedsnr" v="345027" />
	</node>
	<node id="-753156" lat="69.2571805565" lon="17.1016749976">
		<tag k="name" v="Kolsan" />
		<tag k="natural" v="shoal" />
		<tag k="place" v="locality" />
		<tag k="ssr:stedsnr" v="345012" />
	</node>
	<node id="-753155" lat="69.2297194412" lon="17.1265333425">
		<tag k="name" v="Kvænbukta" />
		<tag k="natural" v="bay" />
		<tag k="ssr:stedsnr" v="332311" />
	</node>
	<node id="-753143" lat="69.3227833297" lon="17.0991666635">
		<tag k="name" v="Osterneset" />
		<tag k="natural" v="cape" />
		<tag k="ssr:stedsnr" v="321391" />
	</node>
	<node id="-753140" lat="69.3404944441" lon="17.0104499893">
		<tag k="name" v="Torskøya" />
		<tag k="old_name" v="Torskenøya" />
		<tag k="place" v="island" />
		<tag k="ssr:stedsnr" v="321314" />
	</node>
	<node id="-753139" lat="69.2846138844" lon="16.7708000059">
		<tag k="fixme" v="consider seamark:type=rock or natural=shoal" />
		<tag k="name" v="Kobbebarden" />
		<tag k="place" v="islet" />
		<tag k="ssr:stedsnr" v="321201" />
	</node>
	<node id="-753138" lat="69.305549997" lon="16.7539444372">
		<tag k="name" v="Esfallet" />
		<tag k="natural" v="shoal" />
		<tag k="place" v="locality" />
		<tag k="ssr:stedsnr" v="321198" />
	</node>
	<node id="-753137" lat="69.3046777744" lon="16.7863194388">
		<tag k="fixme" v="consider seamark:type=rock or natural=shoal" />
		<tag k="name" v="Stabban" />
		<tag k="place" v="islet" />
		<tag k="ssr:stedsnr" v="321196" />
	</node>
	<node id="-753136" lat="69.2323555575" lon="17.0588277824">
		<tag k="name" v="Skarlandet" />
		<tag k="natural" v="beach" />
		<tag k="place" v="locality" />
		<tag k="ssr:stedsnr" v="321175" />
	</node>
	<node id="-753135" lat="69.2287777755" lon="17.1260944512">
		<tag k="alt_name" v="Kvænbukta, in" />
		<tag k="fixme" v="multiple name tags, choose one and add the other to alt_name" />
		<tag k="name" v="Indre Kvænbukta;Innerbukta" />
		<tag k="natural" v="bay" />
		<tag k="ssr:stedsnr" v="321173" />
	</node>
	<node id="-753130" lat="69.2864500029" lon="17.1806388826">
		<tag k="name" v="Sifjordbotn" />
		<tag k="natural" v="bay" />
		<tag k="ssr:stedsnr" v="295697" />
	</node>
	<node id="-753129" lat="69.2845805518" lon="17.1292805523">
		<tag k="name" v="Holla" />
		<tag k="natural" v="bay" />
		<tag k="ssr:stedsnr" v="295602" />
	</node>
	<node id="-753125" lat="69.318986112" lon="17.1012361097">
		<tag k="name" v="Galten" />
		<tag k="natural" v="cape" />
		<tag k="ssr:stedsnr" v="295517" />
	</node>
	<node id="-753122" lat="69.2850916695" lon="17.174383321">
		<tag k="name" v="Røyrnesbukta" />
		<tag k="natural" v="bay" />
		<tag k="ssr:stedsnr" v="294708" />
	</node>
	<node id="-753112" lat="69.3582805542" lon="17.0965277637">
		<tag k="name" v="Sildevikklubben" />
		<tag k="natural" v="cape" />
		<tag k="ssr:stedsnr" v="294680" />
	</node>
	<node id="-753109" lat="69.2579277769" lon="16.8093138806">
		<tag k="name" v="Per-Jonsaholmen" />
		<tag k="place" v="islet" />
		<tag k="ssr:stedsnr" v="294127" />
	</node>
	<node id="-753108" lat="69.3006999984" lon="16.758377776">
		<tag k="name" v="Skjolddraget" />
		<tag k="place" v="islet" />
		<tag k="ssr:stedsnr" v="294124" />
	</node>
	<node id="-753105" lat="69.280133331" lon="17.0530750073">
		<tag k="name" v="Ravnneset" />
		<tag k="natural" v="cape" />
		<tag k="ssr:stedsnr" v="293499" />
	</node>
	<node id="-753101" lat="69.2757111075" lon="16.961291658">
		<tag k="name" v="Purkekeila" />
		<tag k="natural" v="bay" />
		<tag k="ssr:stedsnr" v="293333" />
	</node>
	<node id="-753094" lat="69.3932111148" lon="17.0672500127">
		<tag k="name" v="Sildvik" />
		<tag k="natural" v="beach" />
		<tag k="place" v="locality" />
		<tag k="ssr:stedsnr" v="286168" />
	</node>
	<node id="-753093" lat="69.3090361088" lon="16.7785583324">
		<tag k="name" v="Hella" />
		<tag k="natural" v="shoal" />
		<tag k="place" v="locality" />
		<tag k="ssr:stedsnr" v="286152" />
	</node>
	<node id="-753091" lat="69.3791555584" lon="16.8972472343">
		<tag k="name" v="Erikbåen" />
		<tag k="natural" v="shoal" />
		<tag k="place" v="locality" />
		<tag k="ssr:stedsnr" v="285218" />
	</node>
	<node id="-753090" lat="69.3328833325" lon="17.1191750105">
		<tag k="name" v="Keipbukta" />
		<tag k="natural" v="bay" />
		<tag k="ssr:stedsnr" v="415787" />
	</node>
	<node id="-754193" lat="69.3957416663" lon="17.0662694339">
		<tag k="name" v="Steinneset" />
		<tag k="natural" v="cape" />
		<tag k="ssr:stedsnr" v="962715" />
	</node>
	<node id="-754189" lat="69.3101916678" lon="17.1517527655">
		<tag k="name" v="Øyra" />
		<tag k="natural" v="cape" />
		<tag k="ssr:stedsnr" v="962599" />
	</node>
	<node id="-754178" lat="69.1807944414" lon="17.1109444479">
		<tag k="fixme" v="consider seamark:type=rock or natural=shoal" />
		<tag k="name" v="Svartskjæret" />
		<tag k="place" v="islet" />
		<tag k="ssr:stedsnr" v="961479" />
	</node>
	<node id="-754177" lat="69.1864888874" lon="17.1275833431">
		<tag k="name" v="Storneset" />
		<tag k="natural" v="cape" />
		<tag k="ssr:stedsnr" v="961468" />
	</node>
	<node id="-754174" lat="69.3407861086" lon="16.9987611118">
		<tag k="name" v="Sørøyneset" />
		<tag k="natural" v="cape" />
		<tag k="ssr:stedsnr" v="961423" />
	</node>
	<node id="-754171" lat="69.289247222" lon="16.9583861109">
		<tag k="name" v="Sommarkeila" />
		<tag k="natural" v="bay" />
		<tag k="ssr:stedsnr" v="961414" />
	</node>
	<node id="-754167" lat="69.2351083322" lon="16.9047833385">
		<tag k="name" v="Renna" />
		<tag k="natural" v="bay" />
		<tag k="ssr:stedsnr" v="961246" />
	</node>
	<node id="-754164" lat="69.2640611125" lon="16.7840638886">
		<tag k="name" v="Per-Jonsakeila" />
		<tag k="natural" v="bay" />
		<tag k="ssr:stedsnr" v="961144" />
	</node>
	<node id="-754163" lat="69.262297219" lon="16.7876277812">
		<tag k="name" v="Karravikholmen" />
		<tag k="place" v="islet" />
		<tag k="ssr:stedsnr" v="961142" />
	</node>
	<node id="-754162" lat="69.2922916703" lon="16.7816361013">
		<tag k="name" v="Likholmen" />
		<tag k="place" v="islet" />
		<tag k="ssr:stedsnr" v="961131" />
	</node>
	<node id="-754160" lat="69.2736583346" lon="16.6895722113">
		<tag k="name" v="Krona" />
		<tag k="natural" v="shoal" />
		<tag k="place" v="locality" />
		<tag k="ssr:stedsnr" v="953213" />
	</node>
	<node id="-754159" lat="69.2651388872" lon="17.0409388877">
		<tag k="alt_name" v="Skarvesteinen" />
		<tag k="fixme" v="consider seamark:type=rock or natural=shoal" />
		<tag k="name" v="Skarvsteinen" />
		<tag k="place" v="islet" />
		<tag k="ssr:stedsnr" v="953048" />
	</node>
	<node id="-754158" lat="69.1990722212" lon="16.8629944467">
		<tag k="name" v="Snaget" />
		<tag k="natural" v="shoal" />
		<tag k="place" v="locality" />
		<tag k="ssr:stedsnr" v="952891" />
	</node>
	<node id="-754157" lat="69.3866416689" lon="16.9058750095">
		<tag k="name" v="Fiskenesbåen" />
		<tag k="natural" v="shoal" />
		<tag k="place" v="locality" />
		<tag k="ssr:stedsnr" v="952209" />
	</node>
	<node id="-754155" lat="69.2555583325" lon="17.0768666535">
		<tag k="name" v="Skallen" />
		<tag k="natural" v="shoal" />
		<tag k="place" v="locality" />
		<tag k="ssr:stedsnr" v="952022" />
	</node>
	<node id="-754154" lat="69.2234805584" lon="16.8798694423">
		<tag k="name" v="Leikneset" />
		<tag k="natural" v="cape" />
		<tag k="ssr:stedsnr" v="936449" />
	</node>
	<node id="-754147" lat="69.3894416659" lon="17.0957944539">
		<tag k="name" v="Ballesvika" />
		<tag k="natural" v="bay" />
		<tag k="ssr:stedsnr" v="929330" />
	</node>
	<node id="-754145" lat="69.340294447" lon="16.9074527888">
		<tag k="name" v="Benningsgrunnen" />
		<tag k="natural" v="shoal" />
		<tag k="place" v="locality" />
		<tag k="ssr:stedsnr" v="929312" />
	</node>
	<node id="-754144" lat="69.341808331" lon="17.1374361198">
		<tag k="name" v="Skipsfjorden" />
		<tag k="natural" v="bay" />
		<tag k="ssr:stedsnr" v="929306" />
	</node>
	<node id="-754142" lat="69.3565120188" lon="17.0231324144">
		<tag k="name" v="Juldagsneset" />
		<tag k="natural" v="cape" />
		<tag k="ssr:stedsnr" v="929294" />
	</node>
	<node id="-754140" lat="69.4005722176" lon="16.9683055651">
		<tag k="name" v="Buttelen" />
		<tag k="natural" v="cape" />
		<tag k="ssr:stedsnr" v="929246" />
	</node>
	<node id="-754139" lat="69.4004361147" lon="17.0246916699">
		<tag k="name" v="Hunden" />
		<tag k="natural" v="cape" />
		<tag k="ssr:stedsnr" v="929245" />
	</node>
	<node id="-754138" lat="69.3018055539" lon="16.7523944335">
		<tag k="name" v="Dragskolten" />
		<tag k="natural" v="shoal" />
		<tag k="place" v="locality" />
		<tag k="ssr:stedsnr" v="929197" />
	</node>
	<node id="-754135" lat="69.1804083338" lon="16.8463916643">
		<tag k="name" v="Kinngrunnen" />
		<tag k="natural" v="shoal" />
		<tag k="place" v="locality" />
		<tag k="ssr:stedsnr" v="928195" />
	</node>
	<node id="-754133" lat="69.246733331" lon="17.1362611192">
		<tag k="bay" v="fjord" />
		<tag k="name" v="Gjeska" />
		<tag k="natural" v="bay" />
		<tag k="ssr:stedsnr" v="928146" />
	</node>
	<node id="-754132" lat="69.1894555535" lon="17.1392333186">
		<tag k="alt_name" v="Leikåsa, yt" />
		<tag k="name" v="Ytre Leirkåsa" />
		<tag k="natural" v="bay" />
		<tag k="ssr:stedsnr" v="928137" />
	</node>
	<node id="-754129" lat="69.2117027817" lon="16.9155750028">
		<tag k="name" v="Leikvika" />
		<tag k="natural" v="bay" />
		<tag k="ssr:stedsnr" v="928109" />
	</node>
	<node id="-754128" lat="69.3377027816" lon="17.1097638804">
		<tag k="name" v="Kverna" />
		<tag k="natural" v="bay" />
		<tag k="ssr:stedsnr" v="901769" />
	</node>
	<node id="-754120" lat="69.3539944446" lon="17.1826583291">
		<tag k="name" v="Klubbeneset" />
		<tag k="natural" v="cape" />
		<tag k="ssr:stedsnr" v="901653" />
	</node>
	<node id="-754119" lat="69.3521888883" lon="17.1624361023">
		<tag k="name" v="Revneset" />
		<tag k="natural" v="cape" />
		<tag k="ssr:stedsnr" v="901650" />
	</node>
	<node id="-754115" lat="69.3108083349" lon="17.1455722242">
		<tag k="name" v="Leirsteinneset" />
		<tag k="natural" v="cape" />
		<tag k="ssr:stedsnr" v="901613" />
	</node>
	<node id="-754108" lat="69.2923277758" lon="16.7699472198">
		<tag k="name" v="Store Gåsholmen" />
		<tag k="place" v="islet" />
		<tag k="ssr:stedsnr" v="901126" />
	</node>
	<node id="-754107" lat="69.1907277777" lon="17.0115111036">
		<tag k="name" v="Finnelvstranda" />
		<tag k="natural" v="beach" />
		<tag k="place" v="locality" />
		<tag k="ssr:stedsnr" v="901111" />
	</node>
	<node id="-754105" lat="69.2626916629" lon="17.0462388835">
		<tag k="name" v="Blåskjellnesbukta" />
		<tag k="natural" v="bay" />
		<tag k="ssr:stedsnr" v="900516" />
	</node>
	<node id="-754104" lat="69.3386027816" lon="17.0029805519">
		<tag k="name" v="Sommarkeila" />
		<tag k="natural" v="bay" />
		<tag k="ssr:stedsnr" v="900384" />
	</node>
	<node id="-754096" lat="69.4048361135" lon="16.9553833448">
		<tag k="name" v="Slumpholla" />
		<tag k="natural" v="bay" />
		<tag k="ssr:stedsnr" v="900444" />
	</node>
	<node id="-754087" lat="69.2771416682" lon="16.9547833342">
		<tag k="name" v="Varden" />
		<tag k="natural" v="cape" />
		<tag k="ssr:stedsnr" v="868363" />
	</node>
	<node id="-754084" lat="69.3961083311" lon="16.8533472172">
		<tag k="name" v="Haugbåen" />
		<tag k="natural" v="shoal" />
		<tag k="place" v="locality" />
		<tag k="ssr:stedsnr" v="868255" />
	</node>
	<node id="-754083" lat="69.2897277798" lon="16.7941194546">
		<tag k="alt_name" v="Indreholmen" />
		<tag k="name" v="Innerholmen" />
		<tag k="place" v="islet" />
		<tag k="ssr:stedsnr" v="868198" />
	</node>
	<node id="-754082" lat="69.2778166677" lon="16.7184250099">
		<tag k="name" v="Småfallan" />
		<tag k="natural" v="shoal" />
		<tag k="place" v="locality" />
		<tag k="ssr:stedsnr" v="868196" />
	</node>
	<node id="-754081" lat="69.2890305559" lon="16.6760611188">
		<tag k="name" v="Okseskolten" />
		<tag k="natural" v="shoal" />
		<tag k="place" v="locality" />
		<tag k="ssr:stedsnr" v="868192" />
	</node>
	<node id="-754080" lat="69.2275138851" lon="17.1194610977">
		<tag k="alt_name" v="Kvænbukta, yt" />
		<tag k="fixme" v="multiple name tags, choose one and add the other to alt_name" />
		<tag k="name" v="Ytre Kvænbukta;Ytterbukta" />
		<tag k="natural" v="bay" />
		<tag k="ssr:stedsnr" v="867215" />
	</node>
	<node id="-754079" lat="69.2433833286" lon="17.1137972305">
		<tag k="alt_name" v="Gjeskaneset" />
		<tag k="name" v="Gjeskeneset" />
		<tag k="natural" v="cape" />
		<tag k="ssr:stedsnr" v="867207" />
	</node>
	<node id="-754078" lat="69.1996841863" lon="16.8863712552">
		<tag k="fixme" v="multiple name tags, choose one and add the other to alt_name; consider seamark:type=rock or natural=shoal" />
		<tag k="name" v="Storskjæret;Årbergskjæret" />
		<tag k="place" v="islet" />
		<tag k="ssr:stedsnr" v="867171" />
	</node>
	<node id="-754077" lat="69.214872222" lon="16.93121945">
		<tag k="name" v="Stranda" />
		<tag k="natural" v="beach" />
		<tag k="place" v="locality" />
		<tag k="ssr:stedsnr" v="867156" />
	</node>
	<node id="-754069" lat="69.3108666669" lon="17.1510722303">
		<tag k="name" v="Leirbogen" />
		<tag k="natural" v="bay" />
		<tag k="ssr:stedsnr" v="841605" />
	</node>
	<node id="-754064" lat="69.242555556" lon="17.114491666">
		<tag k="fixme" v="consider seamark:type=rock or natural=shoal" />
		<tag k="name" v="Finnknuta" />
		<tag k="place" v="islet" />
		<tag k="ssr:stedsnr" v="841500" />
	</node>
	<node id="-754063" lat="69.2486972218" lon="17.1043222307">
		<tag k="fixme" v="consider seamark:type=rock or natural=shoal" />
		<tag k="name" v="Sølvskeia" />
		<tag k="place" v="islet" />
		<tag k="ssr:stedsnr" v="841495" />
	</node>
	<node id="-754051" lat="69.3336888931" lon="17.0170416666">
		<tag k="name" v="Sørsundet" />
		<tag k="natural" v="strait" />
		<tag k="ssr:stedsnr" v="840428" />
	</node>
	<node id="-754046" lat="69.272691665" lon="17.0110361014">
		<tag k="name" v="Hellarbukta" />
		<tag k="natural" v="bay" />
		<tag k="ssr:stedsnr" v="840292" />
	</node>
	<node id="-754045" lat="69.2778833368" lon="16.9515250061">
		<tag k="fixme" v="consider seamark:type=rock or natural=shoal" />
		<tag k="name" v="Stryskjæran" />
		<tag k="place" v="islet" />
		<tag k="ssr:stedsnr" v="840281" />
	</node>
	<node id="-754043" lat="69.2001277817" lon="16.9073777694">
		<tag k="name" v="Kvassneset" />
		<tag k="natural" v="cape" />
		<tag k="ssr:stedsnr" v="840266" />
	</node>
	<node id="-754042" lat="69.1999555569" lon="16.8873611221">
		<tag k="name" v="Skjærsundet" />
		<tag k="natural" v="strait" />
		<tag k="ssr:stedsnr" v="840260" />
	</node>
	<node id="-754040" lat="69.1973083306" lon="16.8241083201">
		<tag k="name" v="Klubban" />
		<tag k="place" v="islet" />
		<tag k="ssr:stedsnr" v="840152" />
	</node>
	<node id="-754039" lat="69.2713305566" lon="16.7884333279">
		<tag k="name" v="Mastervika" />
		<tag k="natural" v="bay" />
		<tag k="ssr:stedsnr" v="840150" />
	</node>
	<node id="-754038" lat="69.2913444484" lon="16.7645555574">
		<tag k="fixme" v="consider seamark:type=rock or natural=shoal" />
		<tag k="name" v="Brødrene" />
		<tag k="place" v="islet" />
		<tag k="ssr:stedsnr" v="840142" />
	</node>
	<node id="-754036" lat="69.4501999958" lon="17.0846583429">
		<tag k="name" v="Sisarbåen" />
		<tag k="natural" v="shoal" />
		<tag k="place" v="locality" />
		<tag k="ssr:stedsnr" v="835432" />
	</node>
	<node id="-754035" lat="69.2454166691" lon="16.8160972311">
		<tag k="name" v="Tørbåen" />
		<tag k="natural" v="shoal" />
		<tag k="place" v="locality" />
		<tag k="ssr:stedsnr" v="832231" />
	</node>
	<node id="-754034" lat="69.2535305546" lon="16.8047416742">
		<tag k="fixme" v="consider seamark:type=rock or natural=shoal" />
		<tag k="name" v="Kveitskjæret" />
		<tag k="place" v="islet" />
		<tag k="ssr:stedsnr" v="832230" />
	</node>
	<node id="-754033" lat="69.2768027795" lon="16.804566671">
		<tag k="name" v="Jensgrunnen" />
		<tag k="natural" v="shoal" />
		<tag k="place" v="locality" />
		<tag k="ssr:stedsnr" v="832224" />
	</node>
	<node id="-754031" lat="69.3936527742" lon="16.8856083318">
		<tag k="name" v="Stumpen" />
		<tag k="natural" v="shoal" />
		<tag k="place" v="locality" />
		<tag k="ssr:stedsnr" v="831189" />
	</node>
	<node id="-754030" lat="69.347905551" lon="16.9609916731">
		<tag k="name" v="Hovderevet" />
		<tag k="natural" v="shoal" />
		<tag k="place" v="locality" />
		<tag k="ssr:stedsnr" v="831107" />
	</node>
	<node id="-754029" lat="69.3055555583" lon="17.022222234">
		<tag k="name" v="Grunnfarnesbotn" />
		<tag k="natural" v="bay" />
		<tag k="ssr:stedsnr" v="831054" />
	</node>
	<node id="-754028" lat="69.3137805572" lon="16.8979083321">
		<tag k="name" v="Kjerringneset" />
		<tag k="natural" v="cape" />
		<tag k="ssr:stedsnr" v="831053" />
	</node>
	<node id="-754023" lat="69.3161527795" lon="17.1025527762">
		<tag k="bay" v="fjord" />
		<tag k="name" v="Osterfjorden" />
		<tag k="natural" v="bay" />
		<tag k="ssr:stedsnr" v="807419" />
	</node>
	<node id="-754021" lat="69.2981861077" lon="16.923908339">
		<tag k="name" v="Nattmålneset" />
		<tag k="natural" v="cape" />
		<tag k="ssr:stedsnr" v="807412" />
	</node>
	<node id="-754020" lat="69.31541667" lon="16.9029138981">
		<tag k="name" v="Skjøttevika" />
		<tag k="natural" v="bay" />
		<tag k="ssr:stedsnr" v="807404" />
	</node>
	<node id="-754017" lat="69.4289027765" lon="16.8579750006">
		<tag k="name" v="Leiknesfallet" />
		<tag k="natural" v="shoal" />
		<tag k="place" v="locality" />
		<tag k="ssr:stedsnr" v="807233" />
	</node>
	<node id="-754016" lat="69.2927166666" lon="16.7801000056">
		<tag k="name" v="Moloholman" />
		<tag k="place" v="islet" />
		<tag k="ssr:stedsnr" v="807204" />
	</node>
	<node id="-754015" lat="69.2625527752" lon="16.8006610988">
		<tag k="name" v="Leiholmen" />
		<tag k="place" v="islet" />
		<tag k="ssr:stedsnr" v="807201" />
	</node>
	<node id="-754014" lat="69.1991166703" lon="16.7609083424">
		<tag k="name" v="Breidgrunnen" />
		<tag k="natural" v="shoal" />
		<tag k="place" v="locality" />
		<tag k="ssr:stedsnr" v="807065" />
	</node>
	<node id="-754013" lat="69.1806666649" lon="16.8760138826">
		<tag k="name" v="Kjerringgrunnen" />
		<tag k="natural" v="shoal" />
		<tag k="place" v="locality" />
		<tag k="ssr:stedsnr" v="806232" />
	</node>
	<node id="-754012" lat="69.190197219" lon="16.8237583432">
		<tag k="name" v="Storsvellingen" />
		<tag k="place" v="island" />
		<tag k="ssr:stedsnr" v="806147" />
	</node>
	<node id="-754010" lat="69.2055999973" lon="16.8364861084">
		<tag k="name" v="Nordsvellingen" />
		<tag k="place" v="islet" />
		<tag k="ssr:stedsnr" v="806132" />
	</node>
	<node id="-754004" lat="69.3360777751" lon="17.1286750026">
		<tag k="name" v="Galgenesbukta" />
		<tag k="natural" v="bay" />
		<tag k="ssr:stedsnr" v="780690" />
	</node>
	<node id="-753999" lat="69.3108611136" lon="17.1403777853">
		<tag k="name" v="Mathildeneset" />
		<tag k="natural" v="cape" />
		<tag k="ssr:stedsnr" v="780549" />
	</node>
	<node id="-753996" lat="69.3194250043" lon="17.0983888898">
		<tag k="name" v="Trinevika" />
		<tag k="natural" v="bay" />
		<tag k="ssr:stedsnr" v="780447" />
	</node>
	<node id="-753991" lat="69.3601305565" lon="17.0813222249">
		<tag k="name" v="Grisen" />
		<tag k="natural" v="cape" />
		<tag k="ssr:stedsnr" v="779671" />
	</node>
	<node id="-753989" lat="69.2782416628" lon="17.0911194502">
		<tag k="name" v="Eidet" />
		<tag k="place" v="locality" />
		<tag k="ssr:stedsnr" v="779516" />
	</node>
	<node id="-753985" lat="69.1850111131" lon="17.1189555514">
		<tag k="name" v="Kobbhella" />
		<tag k="natural" v="bay" />
		<tag k="ssr:stedsnr" v="779490" />
	</node>
	<node id="-753984" lat="69.1843305554" lon="17.0621944505">
		<tag k="name" v="Blåneset" />
		<tag k="natural" v="cape" />
		<tag k="ssr:stedsnr" v="779478" />
	</node>
	<node id="-753983" lat="69.3748861158" lon="16.9130166579">
		<tag k="name" v="Kvalskolten" />
		<tag k="natural" v="shoal" />
		<tag k="place" v="locality" />
		<tag k="ssr:stedsnr" v="779448" />
	</node>
	<node id="-753982" lat="69.3937722257" lon="16.9841694573">
		<tag k="name" v="Steinneset" />
		<tag k="natural" v="cape" />
		<tag k="ssr:stedsnr" v="779440" />
	</node>
	<node id="-753980" lat="69.1993000008" lon="16.9369583197">
		<tag k="fixme" v="consider seamark:type=rock or natural=shoal" />
		<tag k="name" v="Hella" />
		<tag k="place" v="islet" />
		<tag k="ssr:stedsnr" v="779281" />
	</node>
	<node id="-753977" lat="69.1940472263" lon="16.8380861072">
		<tag k="name" v="Flyndra" />
		<tag k="natural" v="shoal" />
		<tag k="place" v="locality" />
		<tag k="ssr:stedsnr" v="770904" />
	</node>
	<node id="-753975" lat="69.2470444423" lon="16.9946999993">
		<tag k="fixme" v="consider seamark:type=rock or natural=shoal" />
		<tag k="name" v="Flesa" />
		<tag k="place" v="islet" />
		<tag k="ssr:stedsnr" v="757550" />
	</node>
	<node id="-753974" lat="69.2437333332" lon="17.0028083311">
		<tag k="name" v="Flesneset" />
		<tag k="natural" v="cape" />
		<tag k="ssr:stedsnr" v="757543" />
	</node>
	<node id="-753964" lat="69.2567138862" lon="17.1029694345">
		<tag k="name" v="Lavika" />
		<tag k="natural" v="bay" />
		<tag k="ssr:stedsnr" v="746389" />
	</node>
	<node id="-753962" lat="69.4026777775" lon="17.0575249859">
		<tag k="name" v="Revvika" />
		<tag k="natural" v="bay" />
		<tag k="ssr:stedsnr" v="746337" />
	</node>
	<node id="-753961" lat="69.3624555535" lon="16.9607638812">
		<tag k="fixme" v="multiple name tags, choose one and add the other to alt_name" />
		<tag k="name" v="Indre Klemmingen;Klemningen" />
		<tag k="natural" v="cape" />
		<tag k="ssr:stedsnr" v="746303" />
	</node>
	<node id="-753960" lat="69.417969441" lon="16.8292138948">
		<tag k="name" v="Tindebåen" />
		<tag k="natural" v="shoal" />
		<tag k="place" v="locality" />
		<tag k="ssr:stedsnr" v="746251" />
	</node>
	<node id="-753959" lat="69.4396499966" lon="16.96127777">
		<tag k="name" v="Grytskolten" />
		<tag k="natural" v="shoal" />
		<tag k="place" v="locality" />
		<tag k="ssr:stedsnr" v="746244" />
	</node>
	<node id="-753958" lat="69.2583694468" lon="16.8137916631">
		<tag k="name" v="Langværan" />
		<tag k="place" v="island" />
		<tag k="ssr:stedsnr" v="746199" />
	</node>
	<node id="-753957" lat="69.191580556" lon="16.8325583386">
		<tag k="name" v="Rypøya" />
		<tag k="place" v="islet" />
		<tag k="ssr:stedsnr" v="746151" />
	</node>
	<node id="-753955" lat="69.2361444447" lon="17.0395527745">
		<tag k="alt_name" v="Linnepollen" />
		<tag k="name" v="Lendepollen" />
		<tag k="natural" v="bay" />
		<tag k="ssr:stedsnr" v="745218" />
	</node>
	<node id="-753954" lat="69.2295277774" lon="16.8843944329">
		<tag k="alt_name" v="Trollflesen" />
		<tag k="name" v="Trollflesa" />
		<tag k="natural" v="cape" />
		<tag k="ssr:stedsnr" v="745212" />
	</node>
	<node id="-753948" lat="69.3677416675" lon="17.0651639">
		<tag k="name" v="Håmannsvika" />
		<tag k="natural" v="bay" />
		<tag k="ssr:stedsnr" v="719644" />
	</node>
	<node id="-753936" lat="69.2273666652" lon="17.1164999943">
		<tag k="name" v="Reinsteinneset" />
		<tag k="natural" v="cape" />
		<tag k="ssr:stedsnr" v="718504" />
	</node>
	<node id="-753931" lat="69.3637055534" lon="16.9068583389">
		<tag k="fixme" v="consider seamark:type=rock or natural=shoal" />
		<tag k="name" v="Leiknessteinan" />
		<tag k="place" v="islet" />
		<tag k="ssr:stedsnr" v="718435" />
	</node>
	<node id="-753922" lat="69.1978500027" lon="16.9558611147">
		<tag k="name" v="Molvika" />
		<tag k="natural" v="bay" />
		<tag k="ssr:stedsnr" v="718260" />
	</node>
	<node id="-753920" lat="69.1991527745" lon="16.8895111091">
		<tag k="name" v="Varvika" />
		<tag k="natural" v="bay" />
		<tag k="ssr:stedsnr" v="718258" />
	</node>
	<node id="-753918" lat="69.207772223" lon="16.8994138872">
		<tag k="name" v="Skarvholla" />
		<tag k="natural" v="bay" />
		<tag k="ssr:stedsnr" v="718256" />
	</node>
	<node id="-753916" lat="69.422283335" lon="16.8545805648">
		<tag k="name" v="Søre Kjerringkneskolten" />
		<tag k="natural" v="shoal" />
		<tag k="place" v="locality" />
		<tag k="ssr:stedsnr" v="714331" />
	</node>
	<node id="-753915" lat="69.3814194476" lon="16.9156472328">
		<tag k="name" v="Flua" />
		<tag k="natural" v="shoal" />
		<tag k="place" v="locality" />
		<tag k="ssr:stedsnr" v="710211" />
	</node>
	<node id="-753914" lat="69.1936972238" lon="16.8117361139">
		<tag k="name" v="Kjøllegrunnen" />
		<tag k="natural" v="shoal" />
		<tag k="place" v="locality" />
		<tag k="ssr:stedsnr" v="709927" />
	</node>
	<node id="-753910" lat="69.2905555582" lon="16.8574999939">
		<tag k="name" v="Nordgrunnen" />
		<tag k="natural" v="shoal" />
		<tag k="place" v="locality" />
		<tag k="ssr:stedsnr" v="686434" />
	</node>
	<node id="-753908" lat="69.3942416701" lon="16.938155549">
		<tag k="name" v="Nonsvika" />
		<tag k="natural" v="bay" />
		<tag k="ssr:stedsnr" v="686339" />
	</node>
	<node id="-753902" lat="69.398397223" lon="16.9944000069">
		<tag k="name" v="Teistevika" />
		<tag k="natural" v="bay" />
		<tag k="ssr:stedsnr" v="686256" />
	</node>
	<node id="-753901" lat="69.3410000032" lon="16.7370194555">
		<tag k="name" v="Norddjupskallen" />
		<tag k="natural" v="shoal" />
		<tag k="place" v="locality" />
		<tag k="ssr:stedsnr" v="686215" />
	</node>
	<node id="-753900" lat="69.2759916685" lon="16.6978833338">
		<tag k="name" v="Skolpan" />
		<tag k="natural" v="shoal" />
		<tag k="place" v="locality" />
		<tag k="ssr:stedsnr" v="686208" />
	</node>
	<node id="-753899" lat="69.2554833327" lon="16.7759499959">
		<tag k="fixme" v="consider seamark:type=rock or natural=shoal" />
		<tag k="name" v="Leiskjæret" />
		<tag k="place" v="islet" />
		<tag k="ssr:stedsnr" v="686201" />
	</node>
	<node id="-753898" lat="69.261169442" lon="16.7131055425">
		<tag k="name" v="Skjerdingen" />
		<tag k="natural" v="shoal" />
		<tag k="place" v="locality" />
		<tag k="ssr:stedsnr" v="686198" />
	</node>
	<node id="-753895" lat="69.2220027782" lon="16.8895638823">
		<tag k="name" v="Korsvika" />
		<tag k="natural" v="bay" />
		<tag k="ssr:stedsnr" v="685177" />
	</node>
	<node id="-753893" lat="69.1909972262" lon="16.9859916601">
		<tag k="name" v="Bjørgeneset" />
		<tag k="natural" v="cape" />
		<tag k="ssr:stedsnr" v="685143" />
	</node>
	<node id="-753892" lat="69.3918222209" lon="17.0720611116">
		<tag k="name" v="Ytterhollet" />
		<tag k="natural" v="bay" />
		<tag k="ssr:stedsnr" v="658731" />
	</node>
	<node id="-753887" lat="69.2841305585" lon="17.1457277686">
		<tag k="name" v="Grindevika" />
		<tag k="natural" v="bay" />
		<tag k="ssr:stedsnr" v="658603" />
	</node>
	<node id="-753886" lat="69.2842055528" lon="17.1346000039">
		<tag k="name" v="Mølnevika" />
		<tag k="natural" v="bay" />
		<tag k="ssr:stedsnr" v="658592" />
	</node>
	<node id="-753884" lat="69.2832861116" lon="17.1642222182">
		<tag k="name" v="Grunnhamn" />
		<tag k="natural" v="bay" />
		<tag k="ssr:stedsnr" v="658590" />
	</node>
	<node id="-753882" lat="69.2511111113" lon="17.1042416661">
		<tag k="name" v="Sørvikneset" />
		<tag k="natural" v="cape" />
		<tag k="ssr:stedsnr" v="658545" />
	</node>
	<node id="-753879" lat="69.3255500047" lon="17.0717055491">
		<tag k="name" v="Kongsnesbukta" />
		<tag k="natural" v="bay" />
		<tag k="ssr:stedsnr" v="658495" />
	</node>
	<node id="-753877" lat="69.3758361079" lon="16.9080194317">
		<tag k="name" v="Erikskolten" />
		<tag k="natural" v="shoal" />
		<tag k="place" v="locality" />
		<tag k="ssr:stedsnr" v="658451" />
	</node>
	<node id="-753875" lat="69.294991663" lon="16.7858333189">
		<tag k="name" v="Kjerringholmen" />
		<tag k="place" v="islet" />
		<tag k="ssr:stedsnr" v="658145" />
	</node>
	<node id="-753874" lat="69.2947055524" lon="16.7940416606">
		<tag k="name" v="Ertnholmspira" />
		<tag k="natural" v="cape" />
		<tag k="ssr:stedsnr" v="658144" />
	</node>
	<node id="-753872" lat="69.2746361077" lon="17.0889527638">
		<tag k="name" v="Yttereidet" />
		<tag k="place" v="locality" />
		<tag k="ssr:stedsnr" v="657519" />
	</node>
	<node id="-753869" lat="69.2805888877" lon="17.0674555416">
		<tag k="name" v="Buskeneset" />
		<tag k="natural" v="cape" />
		<tag k="ssr:stedsnr" v="657500" />
	</node>
	<node id="-753868" lat="69.1976999963" lon="17.2001916747">
		<tag k="name" v="Selfjordbotn" />
		<tag k="natural" v="bay" />
		<tag k="ssr:stedsnr" v="657495" />
	</node>
	<node id="-753867" lat="69.3524166633" lon="17.0281722079">
		<tag k="name" v="Sølvskeien" />
		<tag k="natural" v="cape" />
		<tag k="ssr:stedsnr" v="657427" />
	</node>
	<node id="-753866" lat="69.343369441" lon="17.0316944306">
		<tag k="name" v="Nordsundet" />
		<tag k="natural" v="strait" />
		<tag k="ssr:stedsnr" v="657421" />
	</node>
	<node id="-753863" lat="69.2805666699" lon="16.954830554">
		<tag k="name" v="Stryholla" />
		<tag k="natural" v="bay" />
		<tag k="ssr:stedsnr" v="657289" />
	</node>
	<node id="-753860" lat="69.2627277784" lon="16.7871888966">
		<tag k="name" v="Karravikkeila" />
		<tag k="natural" v="bay" />
		<tag k="ssr:stedsnr" v="657144" />
	</node>
	<node id="-753859" lat="69.4467083356" lon="17.080361119">
		<tag k="name" v="Sølvskeia" />
		<tag k="natural" v="shoal" />
		<tag k="place" v="locality" />
		<tag k="ssr:stedsnr" v="653387" />
	</node>
	<node id="-753857" lat="69.2731527773" lon="16.7854444525">
		<tag k="name" v="Steingrunnen" />
		<tag k="natural" v="shoal" />
		<tag k="place" v="locality" />
		<tag k="ssr:stedsnr" v="649196" />
	</node>
	<node id="-753856" lat="69.2860305531" lon="16.7694250082">
		<tag k="fixme" v="consider seamark:type=rock or natural=shoal" />
		<tag k="name" v="Småbardan" />
		<tag k="place" v="islet" />
		<tag k="ssr:stedsnr" v="649192" />
	</node>
	<node id="-753855" lat="69.3790972247" lon="16.9180610989">
		<tag k="name" v="Kværna" />
		<tag k="natural" v="shoal" />
		<tag k="place" v="locality" />
		<tag k="ssr:stedsnr" v="649187" />
	</node>
	<node id="-753854" lat="69.3556055592" lon="17.0211111066">
		<tag k="name" v="Juldagen" />
		<tag k="natural" v="shoal" />
		<tag k="place" v="locality" />
		<tag k="ssr:stedsnr" v="649089" />
	</node>
	<node id="-753853" lat="69.2612194465" lon="17.0514833253">
		<tag k="alt_name" v="Bloskeneset" />
		<tag k="name" v="Blåskjellneset" />
		<tag k="natural" v="cape" />
		<tag k="ssr:stedsnr" v="649023" />
	</node>
	<node id="-753844" lat="69.3755527759" lon="16.8827388776">
		<tag k="name" v="Purkevika" />
		<tag k="natural" v="bay" />
		<tag k="ssr:stedsnr" v="625374" />
	</node>
	<node id="-753841" lat="69.2921583352" lon="16.7702527849">
		<tag k="name" v="Gåsholman" />
		<tag k="place" v="islet" />
		<tag k="ssr:stedsnr" v="625212" />
	</node>
	<node id="-753840" lat="69.300675002" lon="16.7653944519">
		<tag k="name" v="Skjolden" />
		<tag k="place" v="islet" />
		<tag k="ssr:stedsnr" v="625208" />
	</node>
	<node id="-753839" lat="69.2593611067" lon="16.7967638912">
		<tag k="fixme" v="consider seamark:type=rock or natural=shoal" />
		<tag k="name" v="Skarvskjæran" />
		<tag k="place" v="islet" />
		<tag k="ssr:stedsnr" v="625204" />
	</node>
	<node id="-753836" lat="69.2607333299" lon="17.1044999872">
		<tag k="name" v="Kolsaren" />
		<tag k="natural" v="cape" />
		<tag k="ssr:stedsnr" v="624411" />
	</node>
	<node id="-753835" lat="69.3284638868" lon="16.9974055481">
		<tag k="name" v="Spanhellneset" />
		<tag k="natural" v="cape" />
		<tag k="ssr:stedsnr" v="624355" />
	</node>
	<node id="-753834" lat="69.3328972236" lon="17.0492111124">
		<tag k="bay" v="fjord" />
		<tag k="name" v="Torskefjorden" />
		<tag k="natural" v="bay" />
		<tag k="ssr:stedsnr" v="624350" />
	</node>
	<node id="-753831" lat="69.2411166701" lon="17.005038884">
		<tag k="alt_name" v="Flesen, in" />
		<tag k="name" v="Innerflesa" />
		<tag k="natural" v="cape" />
		<tag k="ssr:stedsnr" v="624192" />
	</node>
	<node id="-753830" lat="69.2435999988" lon="17.1348138989">
		<tag k="alt_name" v="Forrneset" />
		<tag k="name" v="Forneset" />
		<tag k="natural" v="cape" />
		<tag k="ssr:stedsnr" v="624189" />
	</node>
	<node id="-753827" lat="69.2852166674" lon="17.1500499889">
		<tag k="name" v="Skjåneset" />
		<tag k="natural" v="cape" />
		<tag k="ssr:stedsnr" v="598572" />
	</node>
	<node id="-753826" lat="69.2845361121" lon="17.138955548">
		<tag k="name" v="Kvitsteinneset" />
		<tag k="natural" v="cape" />
		<tag k="ssr:stedsnr" v="598568" />
	</node>
	<node id="-753823" lat="69.3304888878" lon="17.1105527875">
		<tag k="name" v="Sommarlandet" />
		<tag k="natural" v="beach" />
		<tag k="place" v="locality" />
		<tag k="ssr:stedsnr" v="597762" />
	</node>
	<node id="-753818" lat="69.3629777766" lon="17.0916805543">
		<tag k="fixme" v="consider seamark:type=rock or natural=shoal" />
		<tag k="name" v="Mellom Pålsteinan" />
		<tag k="place" v="islet" />
		<tag k="ssr:stedsnr" v="597676" />
	</node>
	<node id="-753813" lat="69.2504750021" lon="17.1043305425">
		<tag k="name" v="Sørvika" />
		<tag k="natural" v="bay" />
		<tag k="ssr:stedsnr" v="597544" />
	</node>
	<node id="-753812" lat="69.2522638903" lon="17.1019833214">
		<tag k="name" v="Vikanneset" />
		<tag k="natural" v="cape" />
		<tag k="ssr:stedsnr" v="597540" />
	</node>
	<node id="-753811" lat="69.3246944412" lon="17.0978166592">
		<tag k="name" v="Purkevika" />
		<tag k="natural" v="bay" />
		<tag k="ssr:stedsnr" v="597501" />
	</node>
	<node id="-753806" lat="69.2275222265" lon="16.8840138897">
		<tag k="name" v="Trollvika" />
		<tag k="natural" v="bay" />
		<tag k="ssr:stedsnr" v="597258" />
	</node>
	<node id="-753800" lat="69.2875333298" lon="16.7921833421">
		<tag k="name" v="Skreingen" />
		<tag k="place" v="islet" />
		<tag k="ssr:stedsnr" v="597133" />
	</node>
	<node id="-753796" lat="69.2799055582" lon="17.1524666679">
		<tag k="name" v="Nøkkelsvika" />
		<tag k="natural" v="bay" />
		<tag k="ssr:stedsnr" v="596464" />
	</node>
	<node id="-753794" lat="69.2280055525" lon="17.1233694461">
		<tag k="name" v="Mellaneset" />
		<tag k="natural" v="cape" />
		<tag k="ssr:stedsnr" v="596455" />
	</node>
	<node id="-753793" lat="69.3626861109" lon="16.9487222175">
		<tag k="name" v="Kvalen" />
		<tag k="natural" v="bay" />
		<tag k="ssr:stedsnr" v="596396" />
	</node>
	<node id="-753792" lat="69.3535166657" lon="17.0264416656">
		<tag k="name" v="Nauststøa" />
		<tag k="natural" v="bay" />
		<tag k="ssr:stedsnr" v="596389" />
	</node>
	<node id="-753791" lat="69.1962305582" lon="16.8322527706">
		<tag k="name" v="Kalvøya" />
		<tag k="place" v="islet" />
		<tag k="ssr:stedsnr" v="596145" />
	</node>
	<node id="-753790" lat="69.4367555583" lon="17.0381805523">
		<tag k="name" v="Barstindskolten" />
		<tag k="natural" v="shoal" />
		<tag k="place" v="locality" />
		<tag k="ssr:stedsnr" v="592431" />
	</node>
	<node id="-753789" lat="69.2741694464" lon="16.8916666536">
		<tag k="name" v="Sørgrunnen" />
		<tag k="natural" v="shoal" />
		<tag k="place" v="locality" />
		<tag k="ssr:stedsnr" v="588974" />
	</node>
	<node id="-753788" lat="69.2655416662" lon="16.7320055634">
		<tag k="name" v="Hella" />
		<tag k="natural" v="shoal" />
		<tag k="place" v="locality" />
		<tag k="ssr:stedsnr" v="588203" />
	</node>
	<node id="-753787" lat="69.3792833344" lon="16.9060388785">
		<tag k="name" v="Portbåen" />
		<tag k="natural" v="shoal" />
		<tag k="place" v="locality" />
		<tag k="ssr:stedsnr" v="588190" />
	</node>
	<node id="-753786" lat="69.2705500032" lon="17.0163499994">
		<tag k="alt_name" v="Laukliberget" />
		<tag k="name" v="Løkliberget" />
		<tag k="natural" v="cape" />
		<tag k="ssr:stedsnr" v="588054" />
	</node>
	<node id="-753784" lat="69.3320527769" lon="16.9853583202">
		<tag k="name" v="Sennholmen" />
		<tag k="old_name" v="Senholmen" />
		<tag k="place" v="islet" />
		<tag k="ssr:stedsnr" v="571285" />
	</node>
	<node id="-753782" lat="69.3304583289" lon="17.027377782">
		<tag k="name" v="Merraføa" />
		<tag k="natural" v="bay" />
		<tag k="ssr:stedsnr" v="566362" />
	</node>
	<node id="-753767" lat="69.3812944482" lon="16.9100944566">
		<tag k="name" v="Sandsvika" />
		<tag k="natural" v="bay" />
		<tag k="ssr:stedsnr" v="564357" />
	</node>
	<node id="-753765" lat="69.4014666666" lon="17.0620083421">
		<tag k="name" v="Tortenbergneset" />
		<tag k="natural" v="cape" />
		<tag k="ssr:stedsnr" v="564339" />
	</node>
	<node id="-753764" lat="69.3380194475" lon="17.1371000077">
		<tag k="name" v="Galgeneset" />
		<tag k="natural" v="cape" />
		<tag k="ssr:stedsnr" v="564337" />
	</node>
	<node id="-753763" lat="69.3415388856" lon="17.1182666635">
		<tag k="name" v="Selneset" />
		<tag k="natural" v="cape" />
		<tag k="ssr:stedsnr" v="564320" />
	</node>
	<node id="-753760" lat="69.4234361135" lon="17.0471138809">
		<tag k="name" v="Reolen" />
		<tag k="natural" v="shoal" />
		<tag k="place" v="locality" />
		<tag k="ssr:stedsnr" v="564231" />
	</node>
	<node id="-753759" lat="69.3140055518" lon="16.7716027755">
		<tag k="name" v="Breidtaren" />
		<tag k="natural" v="shoal" />
		<tag k="place" v="locality" />
		<tag k="ssr:stedsnr" v="564206" />
	</node>
	<node id="-753758" lat="69.2949750033" lon="16.7535472294">
		<tag k="alt_name" v="Barden" />
		<tag k="fixme" v="consider seamark:type=rock or natural=shoal" />
		<tag k="name" v="Storbarden" />
		<tag k="place" v="islet" />
		<tag k="ssr:stedsnr" v="564197" />
	</node>
	<node id="-753755" lat="69.1814222194" lon="17.0805499945">
		<tag k="name" v="Salbergneset" />
		<tag k="natural" v="cape" />
		<tag k="ssr:stedsnr" v="563154" />
	</node>
	<node id="-753754" lat="69.1952611113" lon="16.8265472265">
		<tag k="name" v="Svellingan" />
		<tag k="place" v="island" />
		<tag k="ssr:stedsnr" v="563143" />
	</node>
	<node id="-753749" lat="69.3378277788" lon="17.1499055664">
		<tag k="name" v="Jektevika" />
		<tag k="natural" v="bay" />
		<tag k="ssr:stedsnr" v="537722" />
	</node>
	<node id="-753748" lat="69.3389166669" lon="17.1508055483">
		<tag k="name" v="Skipsfjordbotn" />
		<tag k="natural" v="bay" />
		<tag k="ssr:stedsnr" v="537720" />
	</node>
	<node id="-753746" lat="69.3911916646" lon="17.112647211">
		<tag k="name" v="Vinfatneset" />
		<tag k="natural" v="cape" />
		<tag k="ssr:stedsnr" v="537705" />
	</node>
	<node id="-753739" lat="69.3516083362" lon="17.1816055611">
		<tag k="name" v="Gryllefjordbotn" />
		<tag k="natural" v="bay" />
		<tag k="ssr:stedsnr" v="537617" />
	</node>
	<node id="-753731" lat="69.3954361114" lon="17.0138833293">
		<tag k="name" v="Hundevika" />
		<tag k="natural" v="bay" />
		<tag k="ssr:stedsnr" v="537422" />
	</node>
	<node id="-753727" lat="69.2766999962" lon="17.067552765">
		<tag k="name" v="Sørvika" />
		<tag k="natural" v="bay" />
		<tag k="ssr:stedsnr" v="536466" />
	</node>
	<node id="-753726" lat="69.3633194436" lon="16.9419555522">
		<tag k="fixme" v="consider seamark:type=rock or natural=shoal" />
		<tag k="name" v="Bonesteinen" />
		<tag k="place" v="islet" />
		<tag k="ssr:stedsnr" v="536419" />
	</node>
	<node id="-753712" lat="69.1983944427" lon="16.9010555638">
		<tag k="name" v="Russhusan" />
		<tag k="natural" v="shoal" />
		<tag k="place" v="locality" />
		<tag k="ssr:stedsnr" v="536264" />
	</node>
	<node id="-753711" lat="69.2053583323" lon="16.9161277889">
		<tag k="name" v="Kariholla" />
		<tag k="natural" v="bay" />
		<tag k="ssr:stedsnr" v="536256" />
	</node>
	<node id="-753708" lat="69.2390833339" lon="16.9744388889">
		<tag k="name" v="Blåstranda" />
		<tag k="natural" v="beach" />
		<tag k="place" v="locality" />
		<tag k="ssr:stedsnr" v="536230" />
	</node>
	<node id="-753706" lat="69.222461113" lon="16.8820111062">
		<tag k="name" v="Simavika" />
		<tag k="natural" v="bay" />
		<tag k="ssr:stedsnr" v="536151" />
	</node>
	<node id="-753705" lat="69.2046222191" lon="16.8400249952">
		<tag k="name" v="Oljonsaholmen" />
		<tag k="place" v="islet" />
		<tag k="ssr:stedsnr" v="536150" />
	</node>
	<node id="-753703" lat="69.2638694427" lon="16.7698999863">
		<tag k="name" v="Glimmen" />
		<tag k="natural" v="shoal" />
		<tag k="place" v="locality" />
		<tag k="ssr:stedsnr" v="528228" />
	</node>
	<node id="-753702" lat="69.1750777757" lon="17.0655138923">
		<tag k="name" v="Storflua" />
		<tag k="natural" v="shoal" />
		<tag k="place" v="locality" />
		<tag k="ssr:stedsnr" v="528204" />
	</node>
	<node id="-753701" lat="69.4040194417" lon="16.9692833247">
		<tag k="name" v="Gråsteinbåen" />
		<tag k="natural" v="shoal" />
		<tag k="place" v="locality" />
		<tag k="ssr:stedsnr" v="528171" />
	</node>
	<node id="-753700" lat="69.2062361096" lon="16.8273472159">
		<tag k="name" v="Erikbåen" />
		<tag k="natural" v="shoal" />
		<tag k="place" v="locality" />
		<tag k="ssr:stedsnr" v="527899" />
	</node>
	<node id="-753699" lat="69.3228361125" lon="16.9721749887">
		<tag k="name" v="Laupneset" />
		<tag k="natural" v="cape" />
		<tag k="ssr:stedsnr" v="527103" />
	</node>
	<node id="-753698" lat="69.3578972215" lon="17.0981500101">
		<tag k="name" v="Indre Sildvika" />
		<tag k="natural" v="bay" />
		<tag k="ssr:stedsnr" v="527073" />
	</node>
	<node id="-753687" lat="69.3643388856" lon="17.0160110999">
		<tag k="bay" v="fjord" />
		<tag k="name" v="Gryllefjorden" />
		<tag k="natural" v="bay" />
		<tag k="ssr:stedsnr" v="504292" />
	</node>
	<node id="-753686" lat="69.3649305596" lon="16.8819138849">
		<tag k="alt_name" v="Månesodden, in" />
		<tag k="name" v="Indre Månesodden" />
		<tag k="natural" v="cape" />
		<tag k="ssr:stedsnr" v="504290" />
	</node>
	<node id="-753685" lat="69.2670055577" lon="16.7827805585">
		<tag k="name" v="Russevågen" />
		<tag k="natural" v="bay" />
		<tag k="ssr:stedsnr" v="504182" />
	</node>
	<node id="-753683" lat="69.3197694426" lon="16.9392555459">
		<tag k="name" v="Henningstøa" />
		<tag k="natural" v="cape" />
		<tag k="ssr:stedsnr" v="503400" />
	</node>
	<node id="-753682" lat="69.2641138928" lon="16.8643388962">
		<tag k="name" v="Mefjerdingen" />
		<tag k="natural" v="shoal" />
		<tag k="place" v="locality" />
		<tag k="ssr:stedsnr" v="503384" />
	</node>
	<node id="-753680" lat="69.2514777747" lon="17.1029611002">
		<tag k="name" v="Vikan" />
		<tag k="natural" v="bay" />
		<tag k="ssr:stedsnr" v="503377" />
	</node>
	<node id="-753678" lat="69.2770472208" lon="17.0023944369">
		<tag k="bay" v="fjord" />
		<tag k="name" v="Veidmannsfjorden" />
		<tag k="natural" v="bay" />
		<tag k="ssr:stedsnr" v="503354" />
	</node>
	<node id="-753675" lat="69.1938416641" lon="17.1719111177">
		<tag k="alt_name" v="Leikåsa, in" />
		<tag k="name" v="Indre Leirkåsa" />
		<tag k="natural" v="bay" />
		<tag k="ssr:stedsnr" v="503145" />
	</node>
	<node id="-753673" lat="69.4558805602" lon="16.9563861087">
		<tag k="name" v="Nordre Kjerringkneskolten" />
		<tag k="natural" v="shoal" />
		<tag k="place" v="locality" />
		<tag k="ssr:stedsnr" v="471383" />
	</node>
	<node id="-753672" lat="69.3950916649" lon="17.126988896">
		<tag k="name" v="Håmannsvika" />
		<tag k="natural" v="bay" />
		<tag k="ssr:stedsnr" v="468160" />
	</node>
	<node id="-753670" lat="69.2618277741" lon="16.7779805622">
		<tag k="alt_name" v="Rosmålen" />
		<tag k="fixme" v="consider seamark:type=rock or natural=shoal" />
		<tag k="name" v="Rossmolen" />
		<tag k="place" v="islet" />
		<tag k="ssr:stedsnr" v="467210" />
	</node>
	<node id="-753669" lat="69.1747111079" lon="17.0497444453">
		<tag k="name" v="Storskjærgrunnen" />
		<tag k="natural" v="shoal" />
		<tag k="place" v="locality" />
		<tag k="ssr:stedsnr" v="467188" />
	</node>
	<node id="-753668" lat="69.2794750001" lon="17.1002888918">
		<tag k="name" v="Rødberget" />
		<tag k="natural" v="cape" />
		<tag k="ssr:stedsnr" v="467008" />
	</node>
	<node id="-753667" lat="69.2023527753" lon="16.8332083427">
		<tag k="name" v="Teistholmen" />
		<tag k="place" v="islet" />
		<tag k="ssr:stedsnr" v="467917" />
	</node>
</osm>
