<?xml version="1.0" encoding="UTF-8"?>
<osm generator="osmapis" version="0.6">
	<node id="-752605" lat="69.3536916705" lon="17.1109277658">
		<tag k="highway" v="path" />
		<tag k="name" v="Snarvegen" />
		<tag k="ssr:stedsnr" v="719614" />
	</node>
	<node id="-751772" lat="69.2762250002" lon="17.087805565">
		<tag k="highway" v="path" />
		<tag k="name" v="Vassveien" />
		<tag k="ssr:stedsnr" v="293526" />
	</node>
	<node id="-751796" lat="69.2230638845" lon="17.0877111118">
		<tag k="layer" v="-1" />
		<tag k="name" v="Sifjordskaret tunnel" />
		<tag k="ssr:stedsnr" v="299515" />
		<tag k="tunnel" v="yes" />
	</node>
	<node id="-751923" lat="69.3811638889" lon="17.1406833255">
		<tag k="ford" v="yes" />
		<tag k="name" v="Spranget" />
		<tag k="place" v="locality" />
		<tag k="ssr:stedsnr" v="476705" />
	</node>
	<node id="-752015" lat="69.2729333352" lon="17.0332861082">
		<tag k="highway" v="path" />
		<tag k="name" v="Karolinavegen" />
		<tag k="ssr:stedsnr" v="51348" />
	</node>
	<node id="-752363" lat="69.4389388872" lon="16.868319433">
		<tag k="name" v="Stauraleia" />
		<tag k="place" v="locality" />
		<tag k="ssr:stedsnr" v="532371" />
	</node>
	<node id="-752298" lat="69.2971666639" lon="17.2892111121">
		<tag k="layer" v="-1" />
		<tag k="name" v="Kaperskartunnelen" />
		<tag k="ssr:stedsnr" v="420540" />
		<tag k="tunnel" v="yes" />
	</node>
	<node id="-752487" lat="69.2852861091" lon="17.1313916581">
		<tag k="layer" v="-1" />
		<tag k="name" v="Sifjordura tunnel" />
		<tag k="ssr:stedsnr" v="603576" />
		<tag k="tunnel" v="yes" />
	</node>
	<node id="-751845" lat="69.1984916676" lon="17.0606666625">
		<tag k="ford" v="yes" />
		<tag k="name" v="Ã˜vstevad" />
		<tag k="place" v="locality" />
		<tag k="ssr:stedsnr" v="354495" />
	</node>
	<node id="-752836" lat="69.3751944471" lon="16.9517749936">
		<tag k="highway" v="path" />
		<tag k="name" v="Kjerkevegen" />
		<tag k="ssr:stedsnr" v="961449" />
	</node>
	<node id="-752197" lat="69.1932138917" lon="17.0194972158">
		<tag k="highway" v="path" />
		<tag k="name" v="Steinvegen" />
		<tag k="ssr:stedsnr" v="233202" />
	</node>
	<node id="-752129" lat="69.2784527738" lon="16.9716888815">
		<tag k="highway" v="path" />
		<tag k="name" v="Benkevegen" />
		<tag k="ssr:stedsnr" v="172304" />
	</node>
</osm>
