<?xml version="1.0" encoding="UTF-8"?>
<osm generator="osmapis" version="0.6">
	<node id="-752855" lat="69.3440583366" lon="17.1413138889">
		<tag k="name" v="Skipsfjordlian" />
		<tag k="natural" v="slope" />
		<tag k="place" v="locality" />
		<tag k="ssr:stedsnr" v="962728" />
	</node>
	<node id="-752854" lat="69.3373777795" lon="17.1754222336">
		<tag k="name" v="Heia" />
		<tag k="natural" v="hill" />
		<tag k="place" v="locality" />
		<tag k="ssr:stedsnr" v="962719" />
	</node>
	<node id="-752852" lat="69.3810361086" lon="17.0536611052">
		<tag k="fixme" v="consider natural=peak for the most distinct mountains in the district" />
		<tag k="name" v="Bukketindholla" />
		<tag k="natural" v="hill" />
		<tag k="place" v="locality" />
		<tag k="ssr:stedsnr" v="962705" />
	</node>
	<node id="-752850" lat="69.3708944464" lon="17.1767361159">
		<tag k="fixme" v="consider natural=peak for the most distinct mountains in the district" />
		<tag k="name" v="Indre Tolen" />
		<tag k="natural" v="hill" />
		<tag k="place" v="locality" />
		<tag k="ssr:stedsnr" v="962678" />
	</node>
	<node id="-752848" lat="69.2986166705" lon="17.0859138821">
		<tag k="fixme" v="consider natural=peak for the most distinct mountains in the district" />
		<tag k="name" v="Skalletinden" />
		<tag k="natural" v="hill" />
		<tag k="ssr:stedsnr" v="962587" />
	</node>
	<node id="-752847" lat="69.2951333341" lon="17.1943361193">
		<tag k="name" v="Ressmålskaret" />
		<tag k="natural" v="valley" />
		<tag k="place" v="locality" />
		<tag k="ssr:stedsnr" v="962577" />
	</node>
	<node id="-752846" lat="69.2844583345" lon="17.1234416596">
		<tag k="name" v="Skogliknausen" />
		<tag k="natural" v="hill" />
		<tag k="place" v="locality" />
		<tag k="ssr:stedsnr" v="962563" />
	</node>
	<node id="-752845" lat="69.2874000018" lon="17.1569972123">
		<tag k="name" v="Laberget" />
		<tag k="natural" v="hill" />
		<tag k="place" v="locality" />
		<tag k="ssr:stedsnr" v="962557" />
	</node>
	<node id="-752843" lat="69.2935277803" lon="17.3564555466">
		<tag k="name" v="Kaperdalen" />
		<tag k="natural" v="valley" />
		<tag k="place" v="locality" />
		<tag k="ssr:stedsnr" v="961925" />
	</node>
	<node id="-752842" lat="69.3471611105" lon="17.1451611117">
		<tag k="fixme" v="consider natural=peak for the most distinct mountains in the district" />
		<tag k="name" v="Klubban" />
		<tag k="natural" v="hill" />
		<tag k="place" v="locality" />
		<tag k="ssr:stedsnr" v="961710" />
	</node>
	<node id="-752841" lat="69.3524111085" lon="17.1079499987">
		<tag k="name" v="Torskeskaret" />
		<tag k="natural" v="valley" />
		<tag k="place" v="locality" />
		<tag k="ssr:stedsnr" v="961668" />
	</node>
	<node id="-752840" lat="69.3535861157" lon="17.1866499972">
		<tag k="name" v="Storlia" />
		<tag k="natural" v="slope" />
		<tag k="place" v="locality" />
		<tag k="ssr:stedsnr" v="961666" />
	</node>
	<node id="-752839" lat="69.2732499961" lon="17.0549388869">
		<tag k="name" v="Middagsskreda" />
		<tag k="natural" v="slope" />
		<tag k="place" v="locality" />
		<tag k="ssr:stedsnr" v="961506" />
	</node>
	<node id="-752835" lat="69.3538777736" lon="17.0296083416">
		<tag k="name" v="Naustlia" />
		<tag k="natural" v="slope" />
		<tag k="place" v="locality" />
		<tag k="ssr:stedsnr" v="961426" />
	</node>
	<node id="-752832" lat="69.3026694405" lon="17.03205">
		<tag k="name" v="Sørkroken" />
		<tag k="natural" v="slope" />
		<tag k="place" v="locality" />
		<tag k="ssr:stedsnr" v="961421" />
	</node>
	<node id="-752829" lat="69.2328638902" lon="16.9030055576">
		<tag k="name" v="Storlia" />
		<tag k="natural" v="slope" />
		<tag k="place" v="locality" />
		<tag k="ssr:stedsnr" v="961252" />
	</node>
	<node id="-752828" lat="69.2303083339" lon="16.904347223">
		<tag k="fixme" v="consider natural=peak for the most distinct mountains in the district" />
		<tag k="name" v="Leiknesfinnen" />
		<tag k="natural" v="hill" />
		<tag k="place" v="locality" />
		<tag k="ssr:stedsnr" v="961249" />
	</node>
	<node id="-752826" lat="69.2218249965" lon="16.8945583294">
		<tag k="name" v="Korsvikbergan" />
		<tag k="natural" v="hill" />
		<tag k="place" v="locality" />
		<tag k="ssr:stedsnr" v="961239" />
	</node>
	<node id="-752825" lat="69.2183527739" lon="16.9432388851">
		<tag k="fixme" v="consider natural=peak for the most distinct mountains in the district" />
		<tag k="name" v="Leikvikfjellet" />
		<tag k="natural" v="hill" />
		<tag k="place" v="locality" />
		<tag k="ssr:stedsnr" v="961225" />
	</node>
	<node id="-752821" lat="69.1957722219" lon="17.0251944539">
		<tag k="name" v="Aksla" />
		<tag k="place" v="locality" />
		<tag k="ssr:stedsnr" v="961125" />
	</node>
	<node id="-752810" lat="69.3468222192" lon="17.0606250004">
		<tag k="name" v="Neverdalen" />
		<tag k="natural" v="valley" />
		<tag k="place" v="locality" />
		<tag k="ssr:stedsnr" v="931366" />
	</node>
	<node id="-752809" lat="69.3012833361" lon="16.9272333276">
		<tag k="alt_name" v="Mannen" />
		<tag k="fixme" v="consider natural=peak for the most distinct mountains in the district" />
		<tag k="name" v="Mannan" />
		<tag k="natural" v="hill" />
		<tag k="place" v="locality" />
		<tag k="ssr:stedsnr" v="929414" />
	</node>
	<node id="-752801" lat="69.3652722183" lon="17.1769360994">
		<tag k="fixme" v="consider natural=peak for the most distinct mountains in the district" />
		<tag k="name" v="Tolan" />
		<tag k="natural" v="hill" />
		<tag k="place" v="locality" />
		<tag k="ssr:stedsnr" v="929277" />
	</node>
	<node id="-752797" lat="69.3281583353" lon="17.1417638798">
		<tag k="alt_name" v="Keipen, store" />
		<tag k="fixme" v="consider natural=peak for the most distinct mountains in the district" />
		<tag k="name" v="Storkeipen" />
		<tag k="natural" v="hill" />
		<tag k="place" v="locality" />
		<tag k="ssr:stedsnr" v="928388" />
	</node>
	<node id="-752794" lat="69.225924999" lon="16.923469434">
		<tag k="fixme" v="multiple name tags, choose one and add the other to alt_name; consider natural=peak for the most distinct mountains in the district" />
		<tag k="name" v="Leiknestindan;Leikvikfjellet" />
		<tag k="natural" v="hill" />
		<tag k="place" v="locality" />
		<tag k="ssr:stedsnr" v="928152" />
	</node>
	<node id="-752790" lat="69.1928499977" lon="17.116352766">
		<tag k="alt_name" v="Salberget, l" />
		<tag k="name" v="Litje Salberget" />
		<tag k="natural" v="hill" />
		<tag k="place" v="locality" />
		<tag k="ssr:stedsnr" v="928134" />
	</node>
	<node id="-752787" lat="69.3971833323" lon="17.1590333433">
		<tag k="fixme" v="consider natural=peak for the most distinct mountains in the district" />
		<tag k="name" v="Jonen" />
		<tag k="natural" v="hill" />
		<tag k="place" v="locality" />
		<tag k="ssr:stedsnr" v="901744" />
	</node>
	<node id="-752786" lat="69.3912555575" lon="17.1340805517">
		<tag k="name" v="Kvitskreda" />
		<tag k="natural" v="slope" />
		<tag k="place" v="locality" />
		<tag k="ssr:stedsnr" v="901742" />
	</node>
	<node id="-752783" lat="69.3346388865" lon="17.2370194457">
		<tag k="name" v="Botnheia" />
		<tag k="natural" v="hill" />
		<tag k="place" v="locality" />
		<tag k="ssr:stedsnr" v="901710" />
	</node>
	<node id="-752782" lat="69.2912972211" lon="17.1942249927">
		<tag k="name" v="Storlia" />
		<tag k="natural" v="slope" />
		<tag k="place" v="locality" />
		<tag k="ssr:stedsnr" v="901699" />
	</node>
	<node id="-752781" lat="69.3668444438" lon="17.0858083413">
		<tag k="name" v="Langhalslia" />
		<tag k="natural" v="slope" />
		<tag k="place" v="locality" />
		<tag k="ssr:stedsnr" v="901682" />
	</node>
	<node id="-752776" lat="69.3020805532" lon="17.0680444457">
		<tag k="name" v="Fortekråa" />
		<tag k="natural" v="slope" />
		<tag k="place" v="locality" />
		<tag k="ssr:stedsnr" v="901617" />
	</node>
	<node id="-752774" lat="69.283630559" lon="17.1142250117">
		<tag k="name" v="Halldorliloftet" />
		<tag k="natural" v="slope" />
		<tag k="place" v="locality" />
		<tag k="ssr:stedsnr" v="901596" />
	</node>
	<node id="-752773" lat="69.2865583337" lon="17.1273027638">
		<tag k="name" v="Bekkelihamran" />
		<tag k="natural" v="hill" />
		<tag k="place" v="locality" />
		<tag k="ssr:stedsnr" v="901591" />
	</node>
	<node id="-752772" lat="69.2895888854" lon="17.1527500004">
		<tag k="name" v="Hanselihamran" />
		<tag k="natural" v="hill" />
		<tag k="place" v="locality" />
		<tag k="ssr:stedsnr" v="901588" />
	</node>
	<node id="-752770" lat="69.402049999" lon="17.0378166687">
		<tag k="name" v="Morderan" />
		<tag k="natural" v="hill" />
		<tag k="place" v="locality" />
		<tag k="ssr:stedsnr" v="901443" />
	</node>
	<node id="-752769" lat="69.2232027781" lon="16.9010305535">
		<tag k="name" v="Skjellhammaren" />
		<tag k="natural" v="hill" />
		<tag k="place" v="locality" />
		<tag k="ssr:stedsnr" v="901205" />
	</node>
	<node id="-752766" lat="69.2704999974" lon="17.1464277871">
		<tag k="name" v="Mollsparka" />
		<tag k="natural" v="slope" />
		<tag k="place" v="locality" />
		<tag k="ssr:stedsnr" v="900570" />
	</node>
	<node id="-752763" lat="69.2708611081" lon="17.0162166625">
		<tag k="name" v="Storrevna" />
		<tag k="natural" v="valley" />
		<tag k="place" v="locality" />
		<tag k="ssr:stedsnr" v="900309" />
	</node>
	<node id="-752762" lat="69.2720083298" lon="17.0195805426">
		<tag k="name" v="Steinlistrupen" />
		<tag k="natural" v="valley" />
		<tag k="place" v="locality" />
		<tag k="ssr:stedsnr" v="900310" />
	</node>
	<node id="-752761" lat="69.2247944447" lon="16.9007805528">
		<tag k="name" v="Torløvlia" />
		<tag k="natural" v="slope" />
		<tag k="place" v="locality" />
		<tag k="ssr:stedsnr" v="900248" />
	</node>
	<node id="-752760" lat="69.2688333321" lon="17.124080557">
		<tag k="name" v="Markuspollen" />
		<tag k="natural" v="slope" />
		<tag k="place" v="locality" />
		<tag k="ssr:stedsnr" v="900507" />
	</node>
	<node id="-752759" lat="69.2640861081" lon="17.075747232">
		<tag k="name" v="Hyseberget" />
		<tag k="natural" v="hill" />
		<tag k="place" v="locality" />
		<tag k="ssr:stedsnr" v="900501" />
	</node>
	<node id="-752757" lat="69.2221666709" lon="17.1129749915">
		<tag k="name" v="Kvænræva" />
		<tag k="natural" v="slope" />
		<tag k="place" v="locality" />
		<tag k="ssr:stedsnr" v="900465" />
	</node>
	<node id="-752754" lat="69.3820722182" lon="17.0799055538">
		<tag k="name" v="Jesselbakken" />
		<tag k="natural" v="slope" />
		<tag k="place" v="locality" />
		<tag k="ssr:stedsnr" v="870738" />
	</node>
	<node id="-752748" lat="69.3101833369" lon="17.0471333449">
		<tag k="alt_name" v="Rundhågen" />
		<tag k="name" v="Rundhaugen" />
		<tag k="natural" v="hill" />
		<tag k="place" v="locality" />
		<tag k="ssr:stedsnr" v="868398" />
	</node>
	<node id="-752746" lat="69.2687305524" lon="17.0514000046">
		<tag k="fixme" v="consider natural=peak for the most distinct mountains in the district" />
		<tag k="name" v="Veidmannsfjellet" />
		<tag k="natural" v="hill" />
		<tag k="place" v="locality" />
		<tag k="ssr:stedsnr" v="868359" />
	</node>
	<node id="-752745" lat="69.3573833363" lon="17.03601389">
		<tag k="alt_name" v="Gleret" />
		<tag k="name" v="Glæret" />
		<tag k="natural" v="slope" />
		<tag k="place" v="locality" />
		<tag k="ssr:stedsnr" v="868307" />
	</node>
	<node id="-752735" lat="69.3923833383" lon="17.1185527675">
		<tag k="name" v="Merravollen" />
		<tag k="place" v="locality" />
		<tag k="ssr:stedsnr" v="841707" />
	</node>
	<node id="-752733" lat="69.3887722195" lon="17.1253972222">
		<tag k="name" v="Risbakken" />
		<tag k="natural" v="slope" />
		<tag k="place" v="locality" />
		<tag k="ssr:stedsnr" v="841700" />
	</node>
	<node id="-752732" lat="69.3824194462" lon="17.1081111108">
		<tag k="name" v="Mobakken" />
		<tag k="natural" v="slope" />
		<tag k="place" v="locality" />
		<tag k="ssr:stedsnr" v="841695" />
	</node>
	<node id="-752731" lat="69.3740277792" lon="17.1188777641">
		<tag k="name" v="Dalen" />
		<tag k="natural" v="valley" />
		<tag k="place" v="locality" />
		<tag k="ssr:stedsnr" v="841686" />
	</node>
	<node id="-752728" lat="69.3256222262" lon="17.1497166587">
		<tag k="fixme" v="consider natural=peak for the most distinct mountains in the district" />
		<tag k="name" v="Keipen" />
		<tag k="natural" v="hill" />
		<tag k="place" v="locality" />
		<tag k="ssr:stedsnr" v="841602" />
	</node>
	<node id="-752726" lat="69.2860222239" lon="17.1402888931">
		<tag k="name" v="Salen" />
		<tag k="natural" v="slope" />
		<tag k="place" v="locality" />
		<tag k="ssr:stedsnr" v="841571" />
	</node>
	<node id="-752722" lat="69.3094944432" lon="17.0982222262">
		<tag k="name" v="Rennesdalen" />
		<tag k="natural" v="valley" />
		<tag k="place" v="locality" />
		<tag k="ssr:stedsnr" v="841492" />
	</node>
	<node id="-752720" lat="69.3491111155" lon="17.1881805504">
		<tag k="name" v="Duken" />
		<tag k="place" v="locality" />
		<tag k="ssr:stedsnr" v="840641" />
	</node>
	<node id="-752719" lat="69.2637055575" lon="17.1286222233">
		<tag k="fixme" v="consider natural=peak for the most distinct mountains in the district" />
		<tag k="name" v="Siridalstuva" />
		<tag k="natural" v="hill" />
		<tag k="place" v="locality" />
		<tag k="ssr:stedsnr" v="840542" />
	</node>
	<node id="-752718" lat="69.278916664" lon="17.0903638769">
		<tag k="name" v="Mingemaurhågen" />
		<tag k="natural" v="hill" />
		<tag k="place" v="locality" />
		<tag k="ssr:stedsnr" v="840505" />
	</node>
	<node id="-752716" lat="69.2682944453" lon="17.0791194541">
		<tag k="name" v="Ørnereiret" />
		<tag k="place" v="locality" />
		<tag k="ssr:stedsnr" v="840497" />
	</node>
	<node id="-752713" lat="69.1946472253" lon="17.163783323">
		<tag k="name" v="Rabben" />
		<tag k="natural" v="hill" />
		<tag k="place" v="locality" />
		<tag k="ssr:stedsnr" v="840468" />
	</node>
	<node id="-752712" lat="69.1959222205" lon="17.0740472184">
		<tag k="name" v="Storrånna" />
		<tag k="natural" v="valley" />
		<tag k="place" v="locality" />
		<tag k="ssr:stedsnr" v="840443" />
	</node>
	<node id="-752709" lat="69.3614388901" lon="16.9858611046">
		<tag k="name" v="Ravnerevna" />
		<tag k="natural" v="valley" />
		<tag k="place" v="locality" />
		<tag k="ssr:stedsnr" v="840407" />
	</node>
	<node id="-752708" lat="69.3001111122" lon="16.9194527805">
		<tag k="name" v="Litjerevna" />
		<tag k="natural" v="valley" />
		<tag k="place" v="locality" />
		<tag k="ssr:stedsnr" v="840400" />
	</node>
	<node id="-752707" lat="69.2682083361" lon="17.0316666599">
		<tag k="name" v="Skoglia" />
		<tag k="natural" v="slope" />
		<tag k="place" v="locality" />
		<tag k="ssr:stedsnr" v="840294" />
	</node>
	<node id="-752701" lat="69.2355638867" lon="16.9607111132">
		<tag k="name" v="Krabbekjeften" />
		<tag k="natural" v="valley" />
		<tag k="place" v="locality" />
		<tag k="ssr:stedsnr" v="840233" />
	</node>
	<node id="-752697" lat="69.1969722204" lon="16.9656027651">
		<tag k="name" v="Seljerånna" />
		<tag k="natural" v="valley" />
		<tag k="place" v="locality" />
		<tag k="ssr:stedsnr" v="840138" />
	</node>
	<node id="-752692" lat="69.3730611125" lon="16.8758694515">
		<tag k="name" v="Månestuva" />
		<tag k="natural" v="hill" />
		<tag k="old_name" v="Månestua" />
		<tag k="place" v="locality" />
		<tag k="ssr:stedsnr" v="831196" />
	</node>
	<node id="-752686" lat="69.2294249976" lon="16.9961944344">
		<tag k="fixme" v="multiple name tags, choose one and add the other to alt_name; consider natural=peak for the most distinct mountains in the district" />
		<tag k="name" v="Flestindan;Lendepolltindan" />
		<tag k="natural" v="hill" />
		<tag k="place" v="locality" />
		<tag k="ssr:stedsnr" v="810612" />
	</node>
	<node id="-752685" lat="69.3772416678" lon="17.0389694479">
		<tag k="fixme" v="consider natural=peak for the most distinct mountains in the district" />
		<tag k="name" v="Bukketinden" />
		<tag k="natural" v="hill" />
		<tag k="place" v="locality" />
		<tag k="ssr:stedsnr" v="809758" />
	</node>
	<node id="-752682" lat="69.2994861116" lon="17.279327771">
		<tag k="name" v="Haken" />
		<tag k="natural" v="hill" />
		<tag k="place" v="locality" />
		<tag k="ssr:stedsnr" v="807416" />
	</node>
	<node id="-752679" lat="69.3566472186" lon="17.027366668">
		<tag k="fixme" v="consider natural=peak for the most distinct mountains in the district" />
		<tag k="name" v="Juldagen" />
		<tag k="natural" v="hill" />
		<tag k="place" v="locality" />
		<tag k="ssr:stedsnr" v="807305" />
	</node>
	<node id="-752668" lat="69.201791668" lon="16.9888277644">
		<tag k="fixme" v="consider natural=peak for the most distinct mountains in the district" />
		<tag k="name" v="Bjørga" />
		<tag k="natural" v="hill" />
		<tag k="place" v="locality" />
		<tag k="ssr:stedsnr" v="806124" />
	</node>
	<node id="-752667" lat="69.2027250012" lon="16.9449916697">
		<tag k="fixme" v="multiple name tags, choose one and add the other to alt_name" />
		<tag k="name" v="Middagshågen;Middagstuva" />
		<tag k="natural" v="hill" />
		<tag k="place" v="locality" />
		<tag k="ssr:stedsnr" v="806122" />
	</node>
	<node id="-752666" lat="69.219000002" lon="17.0822972226">
		<tag k="fixme" v="multiple name tags, choose one and add the other to alt_name" />
		<tag k="name" v="Innerskaret;Sørskaret" />
		<tag k="natural" v="valley" />
		<tag k="place" v="locality" />
		<tag k="ssr:stedsnr" v="806117" />
	</node>
	<node id="-752663" lat="69.3265888934" lon="17.169399995">
		<tag k="fixme" v="consider natural=peak for the most distinct mountains in the district" />
		<tag k="name" v="Kaldtinden" />
		<tag k="natural" v="hill" />
		<tag k="ssr:stedsnr" v="780688" />
	</node>
	<node id="-752661" lat="69.376999997" lon="17.1360777637">
		<tag k="fixme" v="consider natural=peak for the most distinct mountains in the district" />
		<tag k="name" v="Tolnova" />
		<tag k="natural" v="hill" />
		<tag k="place" v="locality" />
		<tag k="ssr:stedsnr" v="780652" />
	</node>
	<node id="-752658" lat="69.2572972203" lon="17.1132194532">
		<tag k="name" v="Slåken" />
		<tag k="natural" v="valley" />
		<tag k="place" v="locality" />
		<tag k="ssr:stedsnr" v="780481" />
	</node>
	<node id="-752654" lat="69.291874997" lon="17.1776749868">
		<tag k="name" v="Bruna" />
		<tag k="natural" v="slope" />
		<tag k="place" v="locality" />
		<tag k="ssr:stedsnr" v="779696" />
	</node>
	<node id="-752653" lat="69.2916638875" lon="17.1706305591">
		<tag k="name" v="Elvesulen" />
		<tag k="natural" v="slope" />
		<tag k="place" v="locality" />
		<tag k="ssr:stedsnr" v="779693" />
	</node>
	<node id="-752650" lat="69.3657694436" lon="17.1818722235">
		<tag k="fixme" v="consider natural=peak for the most distinct mountains in the district" />
		<tag k="name" v="Mellomtolen" />
		<tag k="natural" v="hill" />
		<tag k="place" v="locality" />
		<tag k="ssr:stedsnr" v="779654" />
	</node>
	<node id="-752648" lat="69.2701861131" lon="17.0628250071">
		<tag k="fixme" v="consider natural=peak for the most distinct mountains in the district" />
		<tag k="name" v="Tuva" />
		<tag k="natural" v="hill" />
		<tag k="place" v="locality" />
		<tag k="ssr:stedsnr" v="779513" />
	</node>
	<node id="-752647" lat="69.2036694415" lon="17.0509805654">
		<tag k="name" v="Kudauen" />
		<tag k="natural" v="slope" />
		<tag k="place" v="locality" />
		<tag k="ssr:stedsnr" v="779498" />
	</node>
	<node id="-752646" lat="69.2730555544" lon="17.0775222255">
		<tag k="name" v="Bjørnlia" />
		<tag k="natural" v="slope" />
		<tag k="place" v="locality" />
		<tag k="ssr:stedsnr" v="779494" />
	</node>
	<node id="-752641" lat="69.2874055558" lon="16.9795916632">
		<tag k="fixme" v="consider natural=peak for the most distinct mountains in the district" />
		<tag k="name" v="Litjetinden" />
		<tag k="natural" v="hill" />
		<tag k="ssr:stedsnr" v="779418" />
	</node>
	<node id="-752639" lat="69.2037361102" lon="16.9061916721">
		<tag k="name" v="Lia" />
		<tag k="natural" v="slope" />
		<tag k="place" v="locality" />
		<tag k="ssr:stedsnr" v="779261" />
	</node>
	<node id="-752630" lat="69.287336112" lon="17.0482110987">
		<tag k="fixme" v="consider natural=peak for the most distinct mountains in the district" />
		<tag k="name" v="Medbytuva" />
		<tag k="natural" v="hill" />
		<tag k="place" v="locality" />
		<tag k="ssr:stedsnr" v="747409" />
	</node>
	<node id="-752628" lat="69.3495694417" lon="17.242916663">
		<tag k="fixme" v="consider natural=peak for the most distinct mountains in the district" />
		<tag k="name" v="Skredfloget" />
		<tag k="natural" v="hill" />
		<tag k="place" v="locality" />
		<tag k="ssr:stedsnr" v="747328" />
	</node>
	<node id="-752627" lat="69.355124997" lon="17.0698083264">
		<tag k="fixme" v="consider natural=peak for the most distinct mountains in the district" />
		<tag k="name" v="Klubban" />
		<tag k="natural" v="hill" />
		<tag k="place" v="locality" />
		<tag k="ssr:stedsnr" v="747326" />
	</node>
	<node id="-752626" lat="69.3093833321" lon="16.9248166651">
		<tag k="fixme" v="consider natural=peak for the most distinct mountains in the district" />
		<tag k="name" v="Dalfjellet" />
		<tag k="natural" v="hill" />
		<tag k="place" v="locality" />
		<tag k="ssr:stedsnr" v="746399" />
	</node>
	<node id="-752613" lat="69.2319277794" lon="16.9172944387">
		<tag k="fixme" v="consider natural=peak for the most distinct mountains in the district" />
		<tag k="name" v="Soltuva" />
		<tag k="natural" v="hill" />
		<tag k="place" v="locality" />
		<tag k="ssr:stedsnr" v="745209" />
	</node>
	<node id="-752611" lat="69.3830361103" lon="17.112358319">
		<tag k="name" v="Toften" />
		<tag k="place" v="locality" />
		<tag k="ssr:stedsnr" v="719690" />
	</node>
	<node id="-752608" lat="69.3431777778" lon="17.0714222097">
		<tag k="fixme" v="consider natural=peak for the most distinct mountains in the district" />
		<tag k="name" v="Torsken" />
		<tag k="natural" v="hill" />
		<tag k="place" v="locality" />
		<tag k="ssr:stedsnr" v="719658" />
	</node>
	<node id="-752606" lat="69.3543083304" lon="17.0765749907">
		<tag k="name" v="Bleiklidalen" />
		<tag k="natural" v="valley" />
		<tag k="place" v="locality" />
		<tag k="ssr:stedsnr" v="719626" />
	</node>
	<node id="-752604" lat="69.3018111133" lon="17.0984916729">
		<tag k="name" v="Breitindholla" />
		<tag k="natural" v="valley" />
		<tag k="place" v="locality" />
		<tag k="ssr:stedsnr" v="719577" />
	</node>
	<node id="-752603" lat="69.3126833328" lon="17.1603805621">
		<tag k="name" v="Finngambakkan" />
		<tag k="natural" v="slope" />
		<tag k="place" v="locality" />
		<tag k="ssr:stedsnr" v="719572" />
	</node>
	<node id="-752602" lat="69.2944805554" lon="17.1664027817">
		<tag k="name" v="Hestelvdalen" />
		<tag k="natural" v="valley" />
		<tag k="place" v="locality" />
		<tag k="ssr:stedsnr" v="719555" />
	</node>
	<node id="-752601" lat="69.2856916671" lon="17.1272027728">
		<tag k="name" v="Varlia" />
		<tag k="natural" v="slope" />
		<tag k="place" v="locality" />
		<tag k="ssr:stedsnr" v="719535" />
	</node>
	<node id="-752600" lat="69.2557861122" lon="17.1092055626">
		<tag k="name" v="Kleiva" />
		<tag k="natural" v="slope" />
		<tag k="place" v="locality" />
		<tag k="ssr:stedsnr" v="719500" />
	</node>
	<node id="-752598" lat="69.4008972186" lon="17.1289055443">
		<tag k="name" v="Jonsletten" />
		<tag k="place" v="locality" />
		<tag k="ssr:stedsnr" v="719707" />
	</node>
	<node id="-752596" lat="69.2744444406" lon="17.1371527655">
		<tag k="name" v="Elvebakken" />
		<tag k="natural" v="slope" />
		<tag k="place" v="locality" />
		<tag k="ssr:stedsnr" v="718571" />
	</node>
	<node id="-752594" lat="69.2739222224" lon="17.0485777795">
		<tag k="name" v="Kuhågen" />
		<tag k="natural" v="hill" />
		<tag k="place" v="locality" />
		<tag k="ssr:stedsnr" v="718498" />
	</node>
	<node id="-752592" lat="69.2800111076" lon="17.0812333373">
		<tag k="name" v="Eidebakken" />
		<tag k="natural" v="slope" />
		<tag k="place" v="locality" />
		<tag k="ssr:stedsnr" v="718495" />
	</node>
	<node id="-752588" lat="69.3159916652" lon="16.95292777">
		<tag k="name" v="Ytre Holtan" />
		<tag k="natural" v="slope" />
		<tag k="place" v="locality" />
		<tag k="ssr:stedsnr" v="718408" />
	</node>
	<node id="-752586" lat="69.2718138923" lon="17.0240305565">
		<tag k="name" v="Høglia" />
		<tag k="natural" v="slope" />
		<tag k="place" v="locality" />
		<tag k="ssr:stedsnr" v="718303" />
	</node>
	<node id="-752584" lat="69.2692611114" lon="17.0243972321">
		<tag k="name" v="Lian" />
		<tag k="natural" v="slope" />
		<tag k="place" v="locality" />
		<tag k="ssr:stedsnr" v="718291" />
	</node>
	<node id="-752583" lat="69.2746111151" lon="17.0292000014">
		<tag k="name" v="Hulderhuset" />
		<tag k="natural" v="slope" />
		<tag k="place" v="locality" />
		<tag k="ssr:stedsnr" v="718292" />
	</node>
	<node id="-752580" lat="69.2069638918" lon="16.9502944402">
		<tag k="name" v="Høgden" />
		<tag k="natural" v="hill" />
		<tag k="place" v="locality" />
		<tag k="ssr:stedsnr" v="718261" />
	</node>
	<node id="-752572" lat="69.3208638925" lon="17.0555888771">
		<tag k="name" v="Kongsnesskaret" />
		<tag k="natural" v="valley" />
		<tag k="place" v="locality" />
		<tag k="ssr:stedsnr" v="688383" />
	</node>
	<node id="-752570" lat="69.3028388861" lon="17.0846611115">
		<tag k="fixme" v="consider natural=peak for the most distinct mountains in the district" />
		<tag k="name" v="Breitinden" />
		<tag k="natural" v="hill" />
		<tag k="place" v="locality" />
		<tag k="ssr:stedsnr" v="686439" />
	</node>
	<node id="-752568" lat="69.2873361101" lon="17.0928277716">
		<tag k="fixme" v="consider natural=peak for the most distinct mountains in the district" />
		<tag k="name" v="Høgtinden" />
		<tag k="natural" v="hill" />
		<tag k="place" v="locality" />
		<tag k="ssr:stedsnr" v="686430" />
	</node>
	<node id="-752566" lat="69.3975916699" lon="17.159924991">
		<tag k="alt_name" v="Hellandstinden" />
		<tag k="fixme" v="consider natural=peak for the most distinct mountains in the district" />
		<tag k="name" v="Helland" />
		<tag k="natural" v="hill" />
		<tag k="old_name" v="Hellan" />
		<tag k="place" v="locality" />
		<tag k="ssr:stedsnr" v="686330" />
	</node>
	<node id="-752565" lat="69.3520666697" lon="17.0459027804">
		<tag k="fixme" v="consider natural=peak for the most distinct mountains in the district" />
		<tag k="name" v="Torsken" />
		<tag k="natural" v="hill" />
		<tag k="place" v="locality" />
		<tag k="ssr:stedsnr" v="686304" />
	</node>
	<node id="-752564" lat="69.3481611104" lon="17.0423888963">
		<tag k="name" v="Torskelian" />
		<tag k="natural" v="slope" />
		<tag k="place" v="locality" />
		<tag k="ssr:stedsnr" v="686301" />
	</node>
	<node id="-752562" lat="69.3622583306" lon="16.9823472258">
		<tag k="fixme" v="consider natural=peak for the most distinct mountains in the district" />
		<tag k="name" v="Hovda" />
		<tag k="natural" v="hill" />
		<tag k="place" v="locality" />
		<tag k="ssr:stedsnr" v="686292" />
	</node>
	<node id="-752555" lat="69.2709805591" lon="17.1554472337">
		<tag k="fixme" v="consider natural=peak for the most distinct mountains in the district" />
		<tag k="name" v="Småtindnebbet" />
		<tag k="natural" v="hill" />
		<tag k="place" v="locality" />
		<tag k="ssr:stedsnr" v="685376" />
	</node>
	<node id="-752550" lat="69.3739222234" lon="17.1625666536">
		<tag k="fixme" v="consider natural=peak for the most distinct mountains in the district" />
		<tag k="name" v="Ytre Tolen" />
		<tag k="natural" v="hill" />
		<tag k="place" v="locality" />
		<tag k="ssr:stedsnr" v="658705" />
	</node>
	<node id="-752548" lat="69.3464749966" lon="17.0749722205">
		<tag k="name" v="Neverdalsskaret" />
		<tag k="natural" v="valley" />
		<tag k="place" v="locality" />
		<tag k="ssr:stedsnr" v="658656" />
	</node>
	<node id="-752544" lat="69.2851138896" lon="17.1173861019">
		<tag k="name" v="Bukkeskinnet" />
		<tag k="natural" v="slope" />
		<tag k="place" v="locality" />
		<tag k="ssr:stedsnr" v="658589" />
	</node>
	<node id="-752542" lat="69.2919388896" lon="17.0467861015">
		<tag k="name" v="Dalebakken" />
		<tag k="natural" v="slope" />
		<tag k="place" v="locality" />
		<tag k="ssr:stedsnr" v="658587" />
	</node>
	<node id="-752540" lat="69.2598888894" lon="17.1086472184">
		<tag k="name" v="Skaret" />
		<tag k="natural" v="valley" />
		<tag k="place" v="locality" />
		<tag k="ssr:stedsnr" v="658540" />
	</node>
	<node id="-752539" lat="69.2556416626" lon="17.1524638802">
		<tag k="name" v="Rundhågen" />
		<tag k="natural" v="hill" />
		<tag k="place" v="locality" />
		<tag k="ssr:stedsnr" v="658525" />
	</node>
	<node id="-752537" lat="69.2407861152" lon="17.1585916721">
		<tag k="name" v="Heia" />
		<tag k="natural" v="hill" />
		<tag k="place" v="locality" />
		<tag k="ssr:stedsnr" v="658480" />
	</node>
	<node id="-752532" lat="69.2722972251" lon="17.1307888806">
		<tag k="name" v="Hallen" />
		<tag k="natural" v="slope" />
		<tag k="place" v="locality" />
		<tag k="ssr:stedsnr" v="657568" />
	</node>
	<node id="-752530" lat="69.2712083338" lon="17.0539916687">
		<tag k="fixme" v="consider natural=peak for the most distinct mountains in the district" />
		<tag k="name" v="Svartoksen" />
		<tag k="natural" v="hill" />
		<tag k="place" v="locality" />
		<tag k="ssr:stedsnr" v="657516" />
	</node>
	<node id="-752524" lat="69.2700722259" lon="17.023361105">
		<tag k="name" v="Benkelian" />
		<tag k="natural" v="slope" />
		<tag k="place" v="locality" />
		<tag k="ssr:stedsnr" v="657305" />
	</node>
	<node id="-752523" lat="69.2748083312" lon="17.0152111209">
		<tag k="name" v="Gressrabben" />
		<tag k="natural" v="hill" />
		<tag k="place" v="locality" />
		<tag k="ssr:stedsnr" v="657299" />
	</node>
	<node id="-752520" lat="69.2006916657" lon="16.9016833316">
		<tag k="name" v="Storhågen" />
		<tag k="natural" v="hill" />
		<tag k="place" v="locality" />
		<tag k="ssr:stedsnr" v="657256" />
	</node>
	<node id="-752510" lat="69.2955944425" lon="17.1413249929">
		<tag k="name" v="Sifjordskaret" />
		<tag k="natural" v="valley" />
		<tag k="place" v="locality" />
		<tag k="ssr:stedsnr" v="627386" />
	</node>
	<node id="-752509" lat="69.3653916654" lon="17.1099111113">
		<tag k="name" v="Ballesvikskaret" />
		<tag k="natural" v="valley" />
		<tag k="place" v="locality" />
		<tag k="ssr:stedsnr" v="627374" />
	</node>
	<node id="-752507" lat="69.2997027804" lon="17.0455583354">
		<tag k="fixme" v="multiple name tags, choose one and add the other to alt_name; consider natural=peak for the most distinct mountains in the district" />
		<tag k="name" v="Kammen;Fakstinden" />
		<tag k="natural" v="hill" />
		<tag k="ssr:stedsnr" v="625430" />
	</node>
	<node id="-752504" lat="69.2878027746" lon="17.0797722267">
		<tag k="name" v="Innderdalen" />
		<tag k="natural" v="valley" />
		<tag k="place" v="locality" />
		<tag k="ssr:stedsnr" v="625383" />
	</node>
	<node id="-752501" lat="69.3894583357" lon="17.0446972215">
		<tag k="fixme" v="consider natural=peak for the most distinct mountains in the district" />
		<tag k="name" v="Reinstinden" />
		<tag k="natural" v="hill" />
		<tag k="place" v="locality" />
		<tag k="ssr:stedsnr" v="625369" />
	</node>
	<node id="-752497" lat="69.3210055565" lon="16.989991659">
		<tag k="fixme" v="consider natural=peak for the most distinct mountains in the district" />
		<tag k="name" v="Laupen" />
		<tag k="natural" v="hill" />
		<tag k="place" v="locality" />
		<tag k="ssr:stedsnr" v="624429" />
	</node>
	<node id="-752496" lat="69.3210416682" lon="17.0160416564">
		<tag k="fixme" v="consider natural=peak for the most distinct mountains in the district" />
		<tag k="name" v="Kauren" />
		<tag k="natural" v="hill" />
		<tag k="place" v="locality" />
		<tag k="ssr:stedsnr" v="624421" />
	</node>
	<node id="-752491" lat="69.2125194489" lon="17.0120416659">
		<tag k="name" v="Trolldalsskaret" />
		<tag k="natural" v="valley" />
		<tag k="place" v="locality" />
		<tag k="ssr:stedsnr" v="624202" />
	</node>
	<node id="-752488" lat="69.1885277801" lon="17.0799777868">
		<tag k="alt_name" v="Salberget, store" />
		<tag k="name" v="Storsalberget" />
		<tag k="natural" v="hill" />
		<tag k="place" v="locality" />
		<tag k="ssr:stedsnr" v="624181" />
	</node>
	<node id="-752484" lat="69.2908638879" lon="17.1636416641">
		<tag k="fixme" v="consider natural=peak for the most distinct mountains in the district" />
		<tag k="name" v="Røyrkollen" />
		<tag k="natural" v="hill" />
		<tag k="place" v="locality" />
		<tag k="ssr:stedsnr" v="598567" />
	</node>
	<node id="-752483" lat="69.2879444417" lon="17.1475611112">
		<tag k="name" v="Mosshamran" />
		<tag k="natural" v="hill" />
		<tag k="place" v="locality" />
		<tag k="ssr:stedsnr" v="598557" />
	</node>
	<node id="-752481" lat="69.3843888932" lon="17.120222211">
		<tag k="name" v="Rabakken" />
		<tag k="natural" v="slope" />
		<tag k="place" v="locality" />
		<tag k="ssr:stedsnr" v="597730" />
	</node>
	<node id="-752480" lat="69.3845805562" lon="17.1083333225">
		<tag k="name" v="Vollen" />
		<tag k="place" v="locality" />
		<tag k="ssr:stedsnr" v="597727" />
	</node>
	<node id="-752478" lat="69.3828472258" lon="17.1550388984">
		<tag k="name" v="Botnhaugen" />
		<tag k="natural" v="hill" />
		<tag k="place" v="locality" />
		<tag k="ssr:stedsnr" v="597719" />
	</node>
	<node id="-752475" lat="69.3630361083" lon="17.1919333413">
		<tag k="fixme" v="consider natural=peak for the most distinct mountains in the district" />
		<tag k="name" v="Sydtolen" />
		<tag k="natural" v="hill" />
		<tag k="place" v="locality" />
		<tag k="ssr:stedsnr" v="597652" />
	</node>
	<node id="-752474" lat="69.340319444" lon="17.0634194553">
		<tag k="name" v="Langhalslia" />
		<tag k="natural" v="slope" />
		<tag k="place" v="locality" />
		<tag k="ssr:stedsnr" v="597648" />
	</node>
	<node id="-752473" lat="69.3399944406" lon="17.0756138929">
		<tag k="fixme" v="consider natural=peak for the most distinct mountains in the district" />
		<tag k="name" v="Ravnfløya" />
		<tag k="natural" v="hill" />
		<tag k="place" v="locality" />
		<tag k="ssr:stedsnr" v="597644" />
	</node>
	<node id="-752469" lat="69.1821388875" lon="17.0881999958">
		<tag k="name" v="Forrholtet" />
		<tag k="natural" v="slope" />
		<tag k="place" v="locality" />
		<tag k="ssr:stedsnr" v="597466" />
	</node>
	<node id="-752468" lat="69.1828805586" lon="17.0817027656">
		<tag k="name" v="Storlia" />
		<tag k="natural" v="slope" />
		<tag k="place" v="locality" />
		<tag k="ssr:stedsnr" v="597462" />
	</node>
	<node id="-752467" lat="69.3715749977" lon="17.0346777712">
		<tag k="name" v="Lenningan" />
		<tag k="natural" v="slope" />
		<tag k="place" v="locality" />
		<tag k="ssr:stedsnr" v="597449" />
	</node>
	<node id="-752466" lat="69.281727782" lon="16.9699138932">
		<tag k="name" v="Breilia" />
		<tag k="natural" v="slope" />
		<tag k="place" v="locality" />
		<tag k="ssr:stedsnr" v="597294" />
	</node>
	<node id="-752464" lat="69.2301861128" lon="16.8969527649">
		<tag k="name" v="Renna" />
		<tag k="natural" v="valley" />
		<tag k="place" v="locality" />
		<tag k="ssr:stedsnr" v="597256" />
	</node>
	<node id="-752462" lat="69.2255611133" lon="16.9053444418">
		<tag k="name" v="Årbergslåtta" />
		<tag k="natural" v="slope" />
		<tag k="place" v="locality" />
		<tag k="ssr:stedsnr" v="597246" />
	</node>
	<node id="-752461" lat="69.2701749986" lon="16.7885805662">
		<tag k="name" v="Mastervikhågen" />
		<tag k="natural" v="hill" />
		<tag k="place" v="locality" />
		<tag k="ssr:stedsnr" v="597142" />
	</node>
	<node id="-752460" lat="69.2672722207" lon="16.790083333">
		<tag k="fixme" v="consider natural=peak for the most distinct mountains in the district" />
		<tag k="name" v="Ørjekollen" />
		<tag k="natural" v="hill" />
		<tag k="place" v="locality" />
		<tag k="ssr:stedsnr" v="597140" />
	</node>
	<node id="-752457" lat="69.2657277755" lon="17.1354361063">
		<tag k="name" v="Krakelvdalen" />
		<tag k="natural" v="valley" />
		<tag k="place" v="locality" />
		<tag k="ssr:stedsnr" v="596531" />
	</node>
	<node id="-752444" lat="69.1881833305" lon="17.092016673">
		<tag k="name" v="Salberget" />
		<tag k="natural" v="hill" />
		<tag k="place" v="locality" />
		<tag k="ssr:stedsnr" v="574338" />
	</node>
	<node id="-752440" lat="69.3085972252" lon="16.9690722103">
		<tag k="fixme" v="consider natural=peak for the most distinct mountains in the district" />
		<tag k="name" v="Dyret" />
		<tag k="natural" v="hill" />
		<tag k="place" v="locality" />
		<tag k="ssr:stedsnr" v="564446" />
	</node>
	<node id="-752438" lat="69.2967527779" lon="17.1732333214">
		<tag k="alt_name" v="Høvret" />
		<tag k="fixme" v="consider natural=peak for the most distinct mountains in the district" />
		<tag k="name" v="Høvre" />
		<tag k="natural" v="hill" />
		<tag k="place" v="locality" />
		<tag k="ssr:stedsnr" v="564440" />
	</node>
	<node id="-752437" lat="69.2913444419" lon="17.0687749911">
		<tag k="fixme" v="consider natural=peak for the most distinct mountains in the district" />
		<tag k="name" v="Medbyfjellet" />
		<tag k="natural" v="hill" />
		<tag k="place" v="locality" />
		<tag k="ssr:stedsnr" v="564438" />
	</node>
	<node id="-752436" lat="69.284127777" lon="17.1027194442">
		<tag k="name" v="Rishågen" />
		<tag k="natural" v="hill" />
		<tag k="place" v="locality" />
		<tag k="ssr:stedsnr" v="564439" />
	</node>
	<node id="-752435" lat="69.318427778" lon="16.9189444448">
		<tag k="name" v="Bratteberget" />
		<tag k="natural" v="hill" />
		<tag k="place" v="locality" />
		<tag k="ssr:stedsnr" v="564428" />
	</node>
	<node id="-752434" lat="69.3205833324" lon="17.0418499942">
		<tag k="fixme" v="consider natural=peak for the most distinct mountains in the district" />
		<tag k="name" v="Tetinden" />
		<tag k="natural" v="hill" />
		<tag k="place" v="locality" />
		<tag k="ssr:stedsnr" v="564423" />
	</node>
	<node id="-752429" lat="69.3753166706" lon="17.0724194335">
		<tag k="name" v="Reålskaret" />
		<tag k="natural" v="valley" />
		<tag k="place" v="locality" />
		<tag k="ssr:stedsnr" v="564372" />
	</node>
	<node id="-752428" lat="69.3754611127" lon="17.0923055587">
		<tag k="name" v="Gommen" />
		<tag k="place" v="locality" />
		<tag k="ssr:stedsnr" v="564361" />
	</node>
	<node id="-752421" lat="69.3436833299" lon="17.186216659">
		<tag k="alt_name" v="Skipstind" />
		<tag k="fixme" v="consider natural=peak for the most distinct mountains in the district" />
		<tag k="name" v="Skipstinden" />
		<tag k="natural" v="hill" />
		<tag k="place" v="locality" />
		<tag k="ssr:stedsnr" v="564319" />
	</node>
	<node id="-752420" lat="69.4015833297" lon="16.9447888921">
		<tag k="alt_name" v="Teisten, yt" />
		<tag k="fixme" v="consider natural=peak for the most distinct mountains in the district" />
		<tag k="name" v="Ytre Teisten" />
		<tag k="natural" v="hill" />
		<tag k="place" v="locality" />
		<tag k="ssr:stedsnr" v="564252" />
	</node>
	<node id="-752411" lat="69.2159388889" lon="17.202275003">
		<tag k="fixme" v="consider natural=peak for the most distinct mountains in the district" />
		<tag k="name" v="Henrikshovudet" />
		<tag k="natural" v="hill" />
		<tag k="old_name" v="Henrikshauet" />
		<tag k="place" v="locality" />
		<tag k="ssr:stedsnr" v="563135" />
	</node>
	<node id="-752410" lat="69.2172888846" lon="17.0678833382">
		<tag k="alt_name" v="Rundtind, store" />
		<tag k="fixme" v="multiple name tags, choose one and add the other to alt_name; consider natural=peak for the most distinct mountains in the district" />
		<tag k="name" v="Rundtinden;Store Rundtind" />
		<tag k="natural" v="hill" />
		<tag k="place" v="locality" />
		<tag k="ssr:stedsnr" v="563133" />
	</node>
	<node id="-752409" lat="69.2128750007" lon="16.9960138983">
		<tag k="alt_name" v="Mollfjellet" />
		<tag k="fixme" v="consider natural=peak for the most distinct mountains in the district" />
		<tag k="name" v="Molfjellet" />
		<tag k="natural" v="hill" />
		<tag k="place" v="locality" />
		<tag k="ssr:stedsnr" v="563131" />
	</node>
	<node id="-752403" lat="69.3695777765" lon="17.0637083214">
		<tag k="name" v="Einehaugen" />
		<tag k="natural" v="hill" />
		<tag k="place" v="locality" />
		<tag k="ssr:stedsnr" v="537683" />
	</node>
	<node id="-752402" lat="69.3729361098" lon="17.1142833386">
		<tag k="name" v="Storbakken" />
		<tag k="natural" v="slope" />
		<tag k="place" v="locality" />
		<tag k="ssr:stedsnr" v="537679" />
	</node>
	<node id="-752401" lat="69.2861000002" lon="17.1850138987">
		<tag k="name" v="Sørkroken" />
		<tag k="natural" v="hill" />
		<tag k="place" v="locality" />
		<tag k="ssr:stedsnr" v="537650" />
	</node>
	<node id="-752397" lat="69.349369442" lon="17.1880333202">
		<tag k="name" v="Disken" />
		<tag k="place" v="locality" />
		<tag k="ssr:stedsnr" v="537616" />
	</node>
	<node id="-752394" lat="69.2550000015" lon="17.1229055656">
		<tag k="name" v="Hanselia" />
		<tag k="natural" v="slope" />
		<tag k="place" v="locality" />
		<tag k="ssr:stedsnr" v="537525" />
	</node>
	<node id="-752392" lat="69.1925111119" lon="17.0792860985">
		<tag k="name" v="Varden" />
		<tag k="natural" v="hill" />
		<tag k="place" v="locality" />
		<tag k="ssr:stedsnr" v="537434" />
	</node>
	<node id="-752391" lat="69.3967972194" lon="16.9416138989">
		<tag k="name" v="Stølan" />
		<tag k="place" v="locality" />
		<tag k="ssr:stedsnr" v="537424" />
	</node>
	<node id="-752388" lat="69.2727194472" lon="17.1391083275">
		<tag k="name" v="Høgda" />
		<tag k="natural" v="hill" />
		<tag k="place" v="locality" />
		<tag k="ssr:stedsnr" v="536552" />
	</node>
	<node id="-752384" lat="69.3420861094" lon="17.004880541">
		<tag k="name" v="Stauren" />
		<tag k="natural" v="hill" />
		<tag k="place" v="locality" />
		<tag k="ssr:stedsnr" v="536415" />
	</node>
	<node id="-752383" lat="69.3396861101" lon="17.0188361202">
		<tag k="fixme" v="consider natural=peak for the most distinct mountains in the district" />
		<tag k="name" v="Lilløya" />
		<tag k="natural" v="hill" />
		<tag k="place" v="locality" />
		<tag k="ssr:stedsnr" v="536412" />
	</node>
	<node id="-752382" lat="69.2980333378" lon="16.9273861125">
		<tag k="name" v="Steinbruddhågen" />
		<tag k="natural" v="hill" />
		<tag k="place" v="locality" />
		<tag k="ssr:stedsnr" v="536408" />
	</node>
	<node id="-752378" lat="69.2698694457" lon="17.0274305608">
		<tag k="name" v="Breilia" />
		<tag k="natural" v="slope" />
		<tag k="place" v="locality" />
		<tag k="ssr:stedsnr" v="536298" />
	</node>
	<node id="-752377" lat="69.2670833303" lon="17.0378805408">
		<tag k="name" v="Magerlia" />
		<tag k="natural" v="slope" />
		<tag k="place" v="locality" />
		<tag k="ssr:stedsnr" v="536295" />
	</node>
	<node id="-752376" lat="69.2753833334" lon="17.0312388951">
		<tag k="name" v="Banhågen" />
		<tag k="natural" v="hill" />
		<tag k="place" v="locality" />
		<tag k="ssr:stedsnr" v="536294" />
	</node>
	<node id="-752375" lat="69.2704333299" lon="17.0409472076">
		<tag k="fixme" v="consider natural=peak for the most distinct mountains in the district" />
		<tag k="name" v="Storbudden" />
		<tag k="natural" v="hill" />
		<tag k="place" v="locality" />
		<tag k="ssr:stedsnr" v="536287" />
	</node>
	<node id="-752374" lat="69.281036107" lon="16.9653222205">
		<tag k="name" v="Storskaret" />
		<tag k="natural" v="valley" />
		<tag k="place" v="locality" />
		<tag k="ssr:stedsnr" v="536279" />
	</node>
	<node id="-752372" lat="69.2069694431" lon="16.940230545">
		<tag k="name" v="Tobbesletta" />
		<tag k="place" v="locality" />
		<tag k="ssr:stedsnr" v="536269" />
	</node>
	<node id="-752369" lat="69.2038722232" lon="16.918252781">
		<tag k="name" v="Høgden" />
		<tag k="natural" v="hill" />
		<tag k="place" v="locality" />
		<tag k="ssr:stedsnr" v="536245" />
	</node>
	<node id="-752368" lat="69.1994055528" lon="16.90271112">
		<tag k="name" v="Kollhågen" />
		<tag k="natural" v="hill" />
		<tag k="place" v="locality" />
		<tag k="ssr:stedsnr" v="536243" />
	</node>
	<node id="-752366" lat="69.2109583302" lon="16.9524083255">
		<tag k="name" v="Ytterheia" />
		<tag k="natural" v="hill" />
		<tag k="place" v="locality" />
		<tag k="ssr:stedsnr" v="536204" />
	</node>
	<node id="-752354" lat="69.2948472234" lon="17.0172611167">
		<tag k="name" v="Gongskaret" />
		<tag k="natural" v="valley" />
		<tag k="place" v="locality" />
		<tag k="ssr:stedsnr" v="504414" />
	</node>
	<node id="-752352" lat="69.2849527767" lon="17.0987388763">
		<tag k="alt_name" v="Rødbergdalen" />
		<tag k="name" v="Rødbergsdalen" />
		<tag k="natural" v="valley" />
		<tag k="place" v="locality" />
		<tag k="ssr:stedsnr" v="504366" />
	</node>
	<node id="-752350" lat="69.2776527778" lon="17.0805694515">
		<tag k="alt_name" v="Botnkollen" />
		<tag k="fixme" v="consider natural=peak for the most distinct mountains in the district" />
		<tag k="name" v="Botnhågen" />
		<tag k="natural" v="hill" />
		<tag k="place" v="locality" />
		<tag k="ssr:stedsnr" v="504363" />
	</node>
	<node id="-752349" lat="69.3714305558" lon="16.889799997">
		<tag k="fixme" v="consider natural=peak for the most distinct mountains in the district" />
		<tag k="name" v="Månestind" />
		<tag k="natural" v="hill" />
		<tag k="place" v="locality" />
		<tag k="ssr:stedsnr" v="504356" />
	</node>
	<node id="-752347" lat="69.3804638858" lon="16.9798666733">
		<tag k="alt_name" v="Nonstinden" />
		<tag k="fixme" v="consider natural=peak for the most distinct mountains in the district" />
		<tag k="name" v="Inkjetinden" />
		<tag k="natural" v="hill" />
		<tag k="place" v="locality" />
		<tag k="ssr:stedsnr" v="504340" />
	</node>
	<node id="-752343" lat="69.3222472182" lon="17.0289638925">
		<tag k="name" v="Inner-Spanhelldalen" />
		<tag k="natural" v="valley" />
		<tag k="place" v="locality" />
		<tag k="ssr:stedsnr" v="503404" />
	</node>
	<node id="-752338" lat="69.2785972257" lon="17.2008194392">
		<tag k="alt_name" v="Stortind" />
		<tag k="fixme" v="consider natural=peak for the most distinct mountains in the district" />
		<tag k="name" v="Stortinden" />
		<tag k="natural" v="hill" />
		<tag k="place" v="locality" />
		<tag k="ssr:stedsnr" v="503360" />
	</node>
	<node id="-752336" lat="69.3385250027" lon="17.0797249963">
		<tag k="name" v="Måsaksla" />
		<tag k="natural" v="hill" />
		<tag k="place" v="locality" />
		<tag k="ssr:stedsnr" v="503309" />
	</node>
	<node id="-752335" lat="69.3976916666" lon="16.9583250101">
		<tag k="alt_name" v="Teisten, in" />
		<tag k="fixme" v="consider natural=peak for the most distinct mountains in the district" />
		<tag k="name" v="Indre Teisten" />
		<tag k="natural" v="hill" />
		<tag k="place" v="locality" />
		<tag k="ssr:stedsnr" v="503251" />
	</node>
	<node id="-752324" lat="69.3181694484" lon="17.271125004">
		<tag k="name" v="Bumannsheia" />
		<tag k="natural" v="hill" />
		<tag k="place" v="locality" />
		<tag k="ssr:stedsnr" v="445383" />
	</node>
	<node id="-752323" lat="69.3248277787" lon="17.0159999945">
		<tag k="fixme" v="consider natural=peak for the most distinct mountains in the district" />
		<tag k="name" v="Spanhelltinden" />
		<tag k="natural" v="hill" />
		<tag k="place" v="locality" />
		<tag k="ssr:stedsnr" v="445370" />
	</node>
	<node id="-752322" lat="69.3518944456" lon="17.0456583358">
		<tag k="fixme" v="consider natural=peak for the most distinct mountains in the district" />
		<tag k="name" v="Middagstinden" />
		<tag k="natural" v="hill" />
		<tag k="place" v="locality" />
		<tag k="ssr:stedsnr" v="445361" />
	</node>
	<node id="-752314" lat="69.2852333376" lon="16.9677055519">
		<tag k="name" v="Strya" />
		<tag k="natural" v="hill" />
		<tag k="place" v="locality" />
		<tag k="ssr:stedsnr" v="443388" />
	</node>
	<node id="-752313" lat="69.3325749985" lon="17.2934888773">
		<tag k="name" v="Leirdalen" />
		<tag k="natural" v="valley" />
		<tag k="place" v="locality" />
		<tag k="ssr:stedsnr" v="443351" />
	</node>
	<node id="-752307" lat="69.2294249976" lon="16.9961944344">
		<tag k="fixme" v="consider natural=peak for the most distinct mountains in the district" />
		<tag k="name" v="Lendepolltindan" />
		<tag k="natural" v="hill" />
		<tag k="place" v="locality" />
		<tag k="ssr:stedsnr" v="442220" />
	</node>
	<node id="-752306" lat="69.2298111118" lon="17.1615805587">
		<tag k="fixme" v="consider natural=peak for the most distinct mountains in the district" />
		<tag k="name" v="Heia" />
		<tag k="natural" v="hill" />
		<tag k="place" v="locality" />
		<tag k="ssr:stedsnr" v="442212" />
	</node>
	<node id="-752302" lat="69.2040611139" lon="17.0111388965">
		<tag k="name" v="Trolldalen" />
		<tag k="natural" v="valley" />
		<tag k="place" v="locality" />
		<tag k="ssr:stedsnr" v="442152" />
	</node>
	<node id="-752300" lat="69.2202777817" lon="17.0500361148">
		<tag k="alt_name" v="Rundtind, l" />
		<tag k="fixme" v="consider natural=peak for the most distinct mountains in the district" />
		<tag k="name" v="Litje Rundtinden" />
		<tag k="natural" v="hill" />
		<tag k="place" v="locality" />
		<tag k="ssr:stedsnr" v="442143" />
	</node>
	<node id="-752299" lat="69.2126638881" lon="17.0545833275">
		<tag k="name" v="Norddalen" />
		<tag k="natural" v="valley" />
		<tag k="place" v="locality" />
		<tag k="ssr:stedsnr" v="442139" />
	</node>
	<node id="-752297" lat="69.3818027764" lon="17.1018249995">
		<tag k="name" v="Litjemoan" />
		<tag k="place" v="locality" />
		<tag k="ssr:stedsnr" v="416690" />
	</node>
	<node id="-752296" lat="69.371102775" lon="17.0969583431">
		<tag k="name" v="Stordalen" />
		<tag k="natural" v="valley" />
		<tag k="place" v="locality" />
		<tag k="ssr:stedsnr" v="416683" />
	</node>
	<node id="-752294" lat="69.2955500043" lon="17.0774555562">
		<tag k="fixme" v="consider natural=peak for the most distinct mountains in the district" />
		<tag k="name" v="Horntinden" />
		<tag k="natural" v="hill" />
		<tag k="ssr:stedsnr" v="416565" />
	</node>
	<node id="-752291" lat="69.287063891" lon="17.1186861162">
		<tag k="fixme" v="consider natural=peak for the most distinct mountains in the district" />
		<tag k="name" v="Åsfjellet" />
		<tag k="natural" v="hill" />
		<tag k="place" v="locality" />
		<tag k="ssr:stedsnr" v="416546" />
	</node>
	<node id="-752290" lat="69.2835166662" lon="17.119119438">
		<tag k="name" v="Halldorlia" />
		<tag k="natural" v="slope" />
		<tag k="place" v="locality" />
		<tag k="ssr:stedsnr" v="416539" />
	</node>
	<node id="-752289" lat="69.285988886" lon="17.1336472086">
		<tag k="name" v="Middagssletta" />
		<tag k="place" v="locality" />
		<tag k="ssr:stedsnr" v="416534" />
	</node>
	<node id="-752288" lat="69.2880611082" lon="17.1596972239">
		<tag k="name" v="Tobbesletta" />
		<tag k="place" v="locality" />
		<tag k="ssr:stedsnr" v="416531" />
	</node>
	<node id="-752287" lat="69.288069441" lon="17.1536027869">
		<tag k="name" v="Breilia" />
		<tag k="natural" v="slope" />
		<tag k="place" v="locality" />
		<tag k="ssr:stedsnr" v="416530" />
	</node>
	<node id="-752286" lat="69.2889333294" lon="17.1294416615">
		<tag k="fixme" v="consider natural=peak for the most distinct mountains in the district" />
		<tag k="name" v="Høgda" />
		<tag k="natural" v="hill" />
		<tag k="place" v="locality" />
		<tag k="ssr:stedsnr" v="416526" />
	</node>
	<node id="-752285" lat="69.2589222217" lon="17.1184277876">
		<tag k="name" v="Siridalen" />
		<tag k="natural" v="valley" />
		<tag k="place" v="locality" />
		<tag k="ssr:stedsnr" v="416493" />
	</node>
	<node id="-752284" lat="69.2518194464" lon="17.1073583339">
		<tag k="name" v="Karihaugen" />
		<tag k="natural" v="hill" />
		<tag k="place" v="locality" />
		<tag k="ssr:stedsnr" v="416492" />
	</node>
	<node id="-752283" lat="69.3419583291" lon="17.1045166739">
		<tag k="name" v="Høgranen" />
		<tag k="natural" v="hill" />
		<tag k="place" v="locality" />
		<tag k="ssr:stedsnr" v="415786" />
	</node>
	<node id="-752280" lat="69.3676333348" lon="17.179174989">
		<tag k="fixme" v="consider natural=peak for the most distinct mountains in the district" />
		<tag k="name" v="Nordtolen" />
		<tag k="natural" v="hill" />
		<tag k="place" v="locality" />
		<tag k="ssr:stedsnr" v="415689" />
	</node>
	<node id="-752278" lat="69.2689416684" lon="17.1497722209">
		<tag k="name" v="Moan" />
		<tag k="place" v="locality" />
		<tag k="ssr:stedsnr" v="415596" />
	</node>
	<node id="-752277" lat="69.2698833375" lon="17.0783250028">
		<tag k="fixme" v="consider natural=peak for the most distinct mountains in the district" />
		<tag k="name" v="Kammen" />
		<tag k="natural" v="hill" />
		<tag k="place" v="locality" />
		<tag k="ssr:stedsnr" v="415529" />
	</node>
	<node id="-752276" lat="69.266499998" lon="17.1198583413">
		<tag k="name" v="Hamran" />
		<tag k="natural" v="hill" />
		<tag k="place" v="locality" />
		<tag k="ssr:stedsnr" v="415525" />
	</node>
	<node id="-752271" lat="69.3665499972" lon="16.9249666584">
		<tag k="name" v="Ølningsskarhågen" />
		<tag k="natural" v="hill" />
		<tag k="place" v="locality" />
		<tag k="ssr:stedsnr" v="415451" />
	</node>
	<node id="-752265" lat="69.1995500018" lon="16.8967166552">
		<tag k="name" v="Kjerkhågen" />
		<tag k="natural" v="hill" />
		<tag k="place" v="locality" />
		<tag k="ssr:stedsnr" v="415265" />
	</node>
	<node id="-752264" lat="69.2337027763" lon="16.9376611012">
		<tag k="name" v="Storbakken" />
		<tag k="natural" v="slope" />
		<tag k="place" v="locality" />
		<tag k="ssr:stedsnr" v="415240" />
	</node>
	<node id="-752263" lat="69.2083499963" lon="16.9553472106">
		<tag k="name" v="Innerheia" />
		<tag k="natural" v="hill" />
		<tag k="place" v="locality" />
		<tag k="ssr:stedsnr" v="415237" />
	</node>
	<node id="-752260" lat="69.2662027762" lon="16.7985333389">
		<tag k="name" v="Reithågen" />
		<tag k="natural" v="hill" />
		<tag k="place" v="locality" />
		<tag k="ssr:stedsnr" v="415140" />
	</node>
	<node id="-752258" lat="69.2663444449" lon="16.7925222227">
		<tag k="name" v="Geitlia" />
		<tag k="natural" v="slope" />
		<tag k="place" v="locality" />
		<tag k="ssr:stedsnr" v="415135" />
	</node>
	<node id="-752257" lat="69.3658722262" lon="17.0993305561">
		<tag k="name" v="Jessellian" />
		<tag k="natural" v="slope" />
		<tag k="place" v="locality" />
		<tag k="ssr:stedsnr" v="263741" />
	</node>
	<node id="-752252" lat="69.2846722248" lon="17.2704916549">
		<tag k="fixme" v="consider natural=peak for the most distinct mountains in the district" />
		<tag k="name" v="Istind - Jieŋas" />
		<tag k="name:no" v="Istind" />
		<tag k="name:se" v="Jieŋas" />
		<tag k="natural" v="hill" />
		<tag k="place" v="locality" />
		<tag k="ssr:stedsnr" v="261384" />
	</node>
	<node id="-752250" lat="69.3637999989" lon="17.1554611088">
		<tag k="fixme" v="consider natural=peak for the most distinct mountains in the district" />
		<tag k="name" v="Småtindan" />
		<tag k="natural" v="hill" />
		<tag k="place" v="locality" />
		<tag k="ssr:stedsnr" v="261331" />
	</node>
	<node id="-752246" lat="69.2229555515" lon="17.0239916687">
		<tag k="alt_name" v="Askillstindan" />
		<tag k="fixme" v="multiple name tags, choose one and add the other to alt_name; consider natural=peak for the most distinct mountains in the district" />
		<tag k="name" v="Askjelstindan;Flestindan" />
		<tag k="natural" v="hill" />
		<tag k="place" v="locality" />
		<tag k="ssr:stedsnr" v="260228" />
	</node>
	<node id="-752245" lat="69.2312361103" lon="16.9272611021">
		<tag k="name" v="Oladalen" />
		<tag k="natural" v="valley" />
		<tag k="place" v="locality" />
		<tag k="ssr:stedsnr" v="260215" />
	</node>
	<node id="-752240" lat="69.3250583331" lon="17.1655027792">
		<tag k="name" v="Kaldskaret" />
		<tag k="natural" v="valley" />
		<tag k="place" v="locality" />
		<tag k="ssr:stedsnr" v="234619" />
	</node>
	<node id="-752236" lat="69.3648611138" lon="17.0955416669">
		<tag k="name" v="Skoglia" />
		<tag k="natural" v="slope" />
		<tag k="place" v="locality" />
		<tag k="ssr:stedsnr" v="233697" />
	</node>
	<node id="-752233" lat="69.3534694418" lon="17.1282527734">
		<tag k="name" v="Vedrabbhaugen" />
		<tag k="natural" v="hill" />
		<tag k="place" v="locality" />
		<tag k="ssr:stedsnr" v="233676" />
	</node>
	<node id="-752230" lat="69.2752333355" lon="17.1649388999">
		<tag k="name" v="Innerdalen" />
		<tag k="natural" v="valley" />
		<tag k="place" v="locality" />
		<tag k="ssr:stedsnr" v="233600" />
	</node>
	<node id="-752227" lat="69.2556555531" lon="17.1050222323">
		<tag k="name" v="Ramnehaugen" />
		<tag k="natural" v="hill" />
		<tag k="place" v="locality" />
		<tag k="ssr:stedsnr" v="233583" />
	</node>
	<node id="-752223" lat="69.281197223" lon="17.0974610994">
		<tag k="name" v="Lyshammaren" />
		<tag k="natural" v="hill" />
		<tag k="place" v="locality" />
		<tag k="ssr:stedsnr" v="233534" />
	</node>
	<node id="-752221" lat="69.2650805536" lon="17.1118472239">
		<tag k="name" v="Rabban" />
		<tag k="natural" v="hill" />
		<tag k="place" v="locality" />
		<tag k="ssr:stedsnr" v="233520" />
	</node>
	<node id="-752218" lat="69.2080888867" lon="17.1877083295">
		<tag k="name" v="Norddalen" />
		<tag k="natural" v="valley" />
		<tag k="place" v="locality" />
		<tag k="ssr:stedsnr" v="233513" />
	</node>
	<node id="-752217" lat="69.236574996" lon="17.1305750057">
		<tag k="name" v="Bjørnvikbergan" />
		<tag k="natural" v="hill" />
		<tag k="place" v="locality" />
		<tag k="ssr:stedsnr" v="233512" />
	</node>
	<node id="-752216" lat="69.2810333329" lon="17.0774972281">
		<tag k="name" v="Vollen" />
		<tag k="place" v="locality" />
		<tag k="ssr:stedsnr" v="233508" />
	</node>
	<node id="-752214" lat="69.3820361081" lon="16.9709583255">
		<tag k="name" v="Trolldalen" />
		<tag k="natural" v="valley" />
		<tag k="place" v="locality" />
		<tag k="ssr:stedsnr" v="233475" />
	</node>
	<node id="-752209" lat="69.2846944409" lon="17.0005500023">
		<tag k="name" v="Storsteinsletta" />
		<tag k="place" v="locality" />
		<tag k="ssr:stedsnr" v="233434" />
	</node>
	<node id="-752208" lat="69.317813886" lon="16.9616611122">
		<tag k="name" v="Storhågen" />
		<tag k="natural" v="hill" />
		<tag k="place" v="locality" />
		<tag k="ssr:stedsnr" v="233415" />
	</node>
	<node id="-752207" lat="69.2686972229" lon="17.0365972146">
		<tag k="name" v="Buddesula" />
		<tag k="natural" v="valley" />
		<tag k="place" v="locality" />
		<tag k="ssr:stedsnr" v="233335" />
	</node>
	<node id="-752206" lat="69.2686749979" lon="17.0289416637">
		<tag k="name" v="Blåryggen" />
		<tag k="natural" v="ridge" />
		<tag k="place" v="locality" />
		<tag k="ssr:stedsnr" v="233327" />
	</node>
	<node id="-752205" lat="69.281961109" lon="17.0344222225">
		<tag k="name" v="Mollnesbergan" />
		<tag k="natural" v="hill" />
		<tag k="place" v="locality" />
		<tag k="ssr:stedsnr" v="233318" />
	</node>
	<node id="-752204" lat="69.2705861158" lon="17.0303944352">
		<tag k="fixme" v="consider natural=peak for the most distinct mountains in the district" />
		<tag k="name" v="Litjebudden" />
		<tag k="natural" v="hill" />
		<tag k="place" v="locality" />
		<tag k="ssr:stedsnr" v="233316" />
	</node>
	<node id="-752203" lat="69.2039138855" lon="17.0012805524">
		<tag k="name" v="Flakstadskaret" />
		<tag k="natural" v="valley" />
		<tag k="place" v="locality" />
		<tag k="ssr:stedsnr" v="233308" />
	</node>
	<node id="-752199" lat="69.2141333331" lon="16.9407388895">
		<tag k="name" v="Litjeryggen" />
		<tag k="natural" v="ridge" />
		<tag k="place" v="locality" />
		<tag k="ssr:stedsnr" v="233248" />
	</node>
	<node id="-752195" lat="69.1947833299" lon="16.9918388899">
		<tag k="name" v="Rasmuslia" />
		<tag k="natural" v="slope" />
		<tag k="place" v="locality" />
		<tag k="ssr:stedsnr" v="233143" />
	</node>
	<node id="-752187" lat="69.2954138865" lon="17.1321166521">
		<tag k="alt_name" v="Høgstakktind" />
		<tag k="fixme" v="consider natural=peak for the most distinct mountains in the district" />
		<tag k="name" v="Høgstakktinden" />
		<tag k="natural" v="hill" />
		<tag k="place" v="locality" />
		<tag k="ssr:stedsnr" v="201402" />
	</node>
	<node id="-752185" lat="69.2937416658" lon="17.1756194508">
		<tag k="name" v="Sifjorddalen" />
		<tag k="natural" v="valley" />
		<tag k="place" v="locality" />
		<tag k="ssr:stedsnr" v="201367" />
	</node>
	<node id="-752182" lat="69.2573111123" lon="17.1439555488">
		<tag k="name" v="Gjeskeheia" />
		<tag k="natural" v="hill" />
		<tag k="place" v="locality" />
		<tag k="ssr:stedsnr" v="200398" />
	</node>
	<node id="-752168" lat="69.231427773" lon="16.9376305633">
		<tag k="name" v="Ytterdalen" />
		<tag k="natural" v="valley" />
		<tag k="place" v="locality" />
		<tag k="ssr:stedsnr" v="200158" />
	</node>
	<node id="-752161" lat="69.3736527806" lon="17.0627861084">
		<tag k="name" v="Ytre Rognskaret" />
		<tag k="natural" v="valley" />
		<tag k="place" v="locality" />
		<tag k="ssr:stedsnr" v="173675" />
	</node>
	<node id="-752160" lat="69.3793833323" lon="17.0988999933">
		<tag k="name" v="Veihauglia" />
		<tag k="natural" v="slope" />
		<tag k="place" v="locality" />
		<tag k="ssr:stedsnr" v="173667" />
	</node>
	<node id="-752159" lat="69.3817222195" lon="17.1593694544">
		<tag k="name" v="Vassbotn" />
		<tag k="natural" v="valley" />
		<tag k="place" v="locality" />
		<tag k="ssr:stedsnr" v="173660" />
	</node>
	<node id="-752158" lat="69.3696944473" lon="17.1098749884">
		<tag k="name" v="Skarkråa" />
		<tag k="natural" v="slope" />
		<tag k="place" v="locality" />
		<tag k="ssr:stedsnr" v="173656" />
	</node>
	<node id="-752156" lat="69.2859444429" lon="17.1072388921">
		<tag k="name" v="Rødbergslia" />
		<tag k="natural" v="slope" />
		<tag k="place" v="locality" />
		<tag k="ssr:stedsnr" v="173538" />
	</node>
	<node id="-752154" lat="69.259205555" lon="17.1094027877">
		<tag k="name" v="Rødberget" />
		<tag k="natural" v="hill" />
		<tag k="place" v="locality" />
		<tag k="ssr:stedsnr" v="173496" />
	</node>
	<node id="-752151" lat="69.2496944483" lon="17.1095138794">
		<tag k="name" v="Sølvskeidalen" />
		<tag k="natural" v="valley" />
		<tag k="place" v="locality" />
		<tag k="ssr:stedsnr" v="173505" />
	</node>
	<node id="-752145" lat="69.2884972255" lon="17.1918749985">
		<tag k="name" v="Sifjordbotndalen" />
		<tag k="natural" v="valley" />
		<tag k="place" v="locality" />
		<tag k="ssr:stedsnr" v="172730" />
	</node>
	<node id="-752144" lat="69.3633694422" lon="17.1194694502">
		<tag k="name" v="Labergshaugen" />
		<tag k="natural" v="hill" />
		<tag k="place" v="locality" />
		<tag k="ssr:stedsnr" v="172710" />
	</node>
	<node id="-752135" lat="69.310602777" lon="16.9079694307">
		<tag k="name" v="Kjerringa" />
		<tag k="natural" v="hill" />
		<tag k="place" v="locality" />
		<tag k="ssr:stedsnr" v="172398" />
	</node>
	<node id="-752131" lat="69.3406194458" lon="17.0128861207">
		<tag k="fixme" v="consider natural=peak for the most distinct mountains in the district" />
		<tag k="name" v="Kollen" />
		<tag k="natural" v="hill" />
		<tag k="place" v="locality" />
		<tag k="ssr:stedsnr" v="172424" />
	</node>
	<node id="-752128" lat="69.200297226" lon="16.9682472143">
		<tag k="name" v="Bjørgeræva" />
		<tag k="natural" v="slope" />
		<tag k="place" v="locality" />
		<tag k="ssr:stedsnr" v="172281" />
	</node>
	<node id="-752124" lat="69.2323305568" lon="17.0129083263">
		<tag k="name" v="Lendepolldalen" />
		<tag k="natural" v="valley" />
		<tag k="place" v="locality" />
		<tag k="ssr:stedsnr" v="172234" />
	</node>
	<node id="-752117" lat="69.349427781" lon="17.0865999908">
		<tag k="fixme" v="consider natural=peak for the most distinct mountains in the district" />
		<tag k="name" v="Saufjellet" />
		<tag k="natural" v="hill" />
		<tag k="place" v="locality" />
		<tag k="ssr:stedsnr" v="140344" />
	</node>
	<node id="-752113" lat="69.2643722193" lon="17.1433972306">
		<tag k="fixme" v="consider natural=peak for the most distinct mountains in the district" />
		<tag k="name" v="Finnestuva" />
		<tag k="natural" v="hill" />
		<tag k="place" v="locality" />
		<tag k="ssr:stedsnr" v="139415" />
	</node>
	<node id="-752111" lat="69.3953611123" lon="17.0362777878">
		<tag k="name" v="Tortenberget" />
		<tag k="natural" v="hill" />
		<tag k="place" v="locality" />
		<tag k="ssr:stedsnr" v="139351" />
	</node>
	<node id="-752109" lat="69.3747083297" lon="17.0590000044">
		<tag k="name" v="Reålhaugen" />
		<tag k="natural" v="hill" />
		<tag k="place" v="locality" />
		<tag k="ssr:stedsnr" v="139381" />
	</node>
	<node id="-752107" lat="69.383772219" lon="17.0463777713">
		<tag k="fixme" v="consider natural=peak for the most distinct mountains in the district" />
		<tag k="name" v="Eiriken" />
		<tag k="natural" v="hill" />
		<tag k="place" v="locality" />
		<tag k="ssr:stedsnr" v="139374" />
	</node>
	<node id="-752106" lat="69.3830444398" lon="16.9536555624">
		<tag k="fixme" v="consider natural=peak for the most distinct mountains in the district" />
		<tag k="name" v="Teistevikheia" />
		<tag k="natural" v="hill" />
		<tag k="place" v="locality" />
		<tag k="ssr:stedsnr" v="139370" />
	</node>
	<node id="-752104" lat="69.3600333379" lon="17.0274527687">
		<tag k="name" v="Aushola" />
		<tag k="natural" v="valley" />
		<tag k="place" v="locality" />
		<tag k="ssr:stedsnr" v="139329" />
	</node>
	<node id="-752103" lat="69.3689694451" lon="17.093219451">
		<tag k="name" v="Jesla" />
		<tag k="natural" v="ridge" />
		<tag k="place" v="locality" />
		<tag k="ssr:stedsnr" v="139320" />
	</node>
	<node id="-752100" lat="69.2328972219" lon="16.9669027856">
		<tag k="name" v="Innerdalen" />
		<tag k="natural" v="valley" />
		<tag k="place" v="locality" />
		<tag k="ssr:stedsnr" v="138199" />
	</node>
	<node id="-752096" lat="69.2843277753" lon="17.0913638953">
		<tag k="fixme" v="consider natural=peak for the most distinct mountains in the district" />
		<tag k="name" v="Rødbergshøgda" />
		<tag k="natural" v="hill" />
		<tag k="place" v="locality" />
		<tag k="ssr:stedsnr" v="113560" />
	</node>
	<node id="-752095" lat="69.3247944473" lon="17.1158249928">
		<tag k="name" v="Rishaugen" />
		<tag k="natural" v="hill" />
		<tag k="place" v="locality" />
		<tag k="ssr:stedsnr" v="113475" />
	</node>
	<node id="-752094" lat="69.3728055587" lon="17.0685722177">
		<tag k="name" v="Indre Rognskaret" />
		<tag k="natural" v="valley" />
		<tag k="place" v="locality" />
		<tag k="ssr:stedsnr" v="112719" />
	</node>
	<node id="-752093" lat="69.3833138917" lon="17.1344361003">
		<tag k="name" v="Joanveita" />
		<tag k="place" v="locality" />
		<tag k="ssr:stedsnr" v="112713" />
	</node>
	<node id="-752092" lat="69.3601611102" lon="17.0676166766">
		<tag k="name" v="Høgryggen" />
		<tag k="natural" v="ridge" />
		<tag k="place" v="locality" />
		<tag k="ssr:stedsnr" v="112673" />
	</node>
	<node id="-752091" lat="69.3516388898" lon="17.0685833398">
		<tag k="fixme" v="consider natural=peak for the most distinct mountains in the district" />
		<tag k="name" v="Messetinden" />
		<tag k="natural" v="hill" />
		<tag k="ssr:stedsnr" v="112660" />
	</node>
	<node id="-752090" lat="69.366711111" lon="17.1505305598">
		<tag k="name" v="Toldalen" />
		<tag k="natural" v="valley" />
		<tag k="place" v="locality" />
		<tag k="ssr:stedsnr" v="112643" />
	</node>
	<node id="-752087" lat="69.2719138897" lon="17.1221083336">
		<tag k="name" v="Toften" />
		<tag k="natural" v="slope" />
		<tag k="place" v="locality" />
		<tag k="ssr:stedsnr" v="112506" />
	</node>
	<node id="-752086" lat="69.2709499993" lon="17.0750638791">
		<tag k="name" v="Tuvdalen" />
		<tag k="natural" v="valley" />
		<tag k="place" v="locality" />
		<tag k="ssr:stedsnr" v="112503" />
	</node>
	<node id="-752082" lat="69.1866833294" lon="17.1051666715">
		<tag k="name" v="Hellaren" />
		<tag k="natural" v="hill" />
		<tag k="place" v="locality" />
		<tag k="ssr:stedsnr" v="112486" />
	</node>
	<node id="-752075" lat="69.299750003" lon="16.9200805439">
		<tag k="name" v="Storrevna" />
		<tag k="natural" v="valley" />
		<tag k="place" v="locality" />
		<tag k="ssr:stedsnr" v="112427" />
	</node>
	<node id="-752074" lat="69.2096611111" lon="16.9550277668">
		<tag k="name" v="Leikvikheia" />
		<tag k="natural" v="hill" />
		<tag k="place" v="locality" />
		<tag k="ssr:stedsnr" v="112265" />
	</node>
	<node id="-752073" lat="69.2239888888" lon="16.8907083312">
		<tag k="name" v="Rødberget" />
		<tag k="natural" v="hill" />
		<tag k="place" v="locality" />
		<tag k="ssr:stedsnr" v="112259" />
	</node>
	<node id="-752071" lat="69.192052774" lon="16.9850138826">
		<tag k="name" v="Bjørgelian" />
		<tag k="natural" v="slope" />
		<tag k="place" v="locality" />
		<tag k="ssr:stedsnr" v="112162" />
	</node>
	<node id="-752069" lat="69.3158750006" lon="16.9733055598">
		<tag k="name" v="Indre Holtan" />
		<tag k="natural" v="slope" />
		<tag k="place" v="locality" />
		<tag k="ssr:stedsnr" v="112402" />
	</node>
	<node id="-752067" lat="69.2091194449" lon="17.0274333232">
		<tag k="name" v="Trolldalskråa" />
		<tag k="natural" v="valley" />
		<tag k="place" v="locality" />
		<tag k="ssr:stedsnr" v="112312" />
	</node>
	<node id="-752066" lat="69.2039222255" lon="16.9386500125">
		<tag k="name" v="Middagsheia" />
		<tag k="natural" v="hill" />
		<tag k="place" v="locality" />
		<tag k="ssr:stedsnr" v="112302" />
	</node>
	<node id="-752062" lat="69.2364249988" lon="16.9239972305">
		<tag k="name" v="Prestjorda" />
		<tag k="place" v="locality" />
		<tag k="ssr:stedsnr" v="103983" />
	</node>
	<node id="-752053" lat="69.2709805591" lon="17.1554472337">
		<tag k="fixme" v="consider natural=peak for the most distinct mountains in the district" />
		<tag k="name" v="Småtindan" />
		<tag k="natural" v="hill" />
		<tag k="place" v="locality" />
		<tag k="ssr:stedsnr" v="81384" />
	</node>
	<node id="-752049" lat="69.3175388918" lon="17.074938884">
		<tag k="alt_name" v="Kongsneshågen" />
		<tag k="name" v="Kongsneshaugen" />
		<tag k="natural" v="hill" />
		<tag k="place" v="locality" />
		<tag k="ssr:stedsnr" v="79388" />
	</node>
	<node id="-752048" lat="69.3211916651" lon="17.1234361091">
		<tag k="alt_name" v="Keipen, l" />
		<tag k="fixme" v="consider natural=peak for the most distinct mountains in the district" />
		<tag k="name" v="Litjekeipen" />
		<tag k="natural" v="hill" />
		<tag k="place" v="locality" />
		<tag k="ssr:stedsnr" v="79387" />
	</node>
	<node id="-752047" lat="69.323061115" lon="17.0003389017">
		<tag k="name" v="Ytter-Spanhelldalen" />
		<tag k="natural" v="valley" />
		<tag k="place" v="locality" />
		<tag k="ssr:stedsnr" v="79385" />
	</node>
	<node id="-752046" lat="69.3761805526" lon="17.0212166758">
		<tag k="name" v="Småtindan" />
		<tag k="natural" v="hill" />
		<tag k="place" v="locality" />
		<tag k="ssr:stedsnr" v="79358" />
	</node>
	<node id="-752044" lat="69.3769444427" lon="17.0074638978">
		<tag k="fixme" v="consider natural=peak for the most distinct mountains in the district" />
		<tag k="name" v="Stauren" />
		<tag k="natural" v="hill" />
		<tag k="place" v="locality" />
		<tag k="ssr:stedsnr" v="79345" />
	</node>
	<node id="-752043" lat="69.3896111152" lon="16.954452774">
		<tag k="fixme" v="multiple name tags, choose one and add the other to alt_name" />
		<tag k="name" v="Salen;Teisteskaret" />
		<tag k="natural" v="valley" />
		<tag k="place" v="locality" />
		<tag k="ssr:stedsnr" v="79336" />
	</node>
	<node id="-752039" lat="69.2938277754" lon="17.0547916626">
		<tag k="name" v="Ytterdalen" />
		<tag k="natural" v="valley" />
		<tag k="place" v="locality" />
		<tag k="ssr:stedsnr" v="79041" />
	</node>
	<node id="-752038" lat="69.2195888865" lon="16.9701166594">
		<tag k="fixme" v="consider natural=peak for the most distinct mountains in the district" />
		<tag k="name" v="Bernfjellet" />
		<tag k="natural" v="hill" />
		<tag k="place" v="locality" />
		<tag k="ssr:stedsnr" v="78187" />
	</node>
	<node id="-752037" lat="69.2360888898" lon="16.9317694388">
		<tag k="name" v="Storsletta" />
		<tag k="place" v="locality" />
		<tag k="ssr:stedsnr" v="78185" />
	</node>
	<node id="-752034" lat="69.340333337" lon="17.1539611187">
		<tag k="name" v="Geitlifoten" />
		<tag k="natural" v="slope" />
		<tag k="place" v="locality" />
		<tag k="ssr:stedsnr" v="52714" />
	</node>
	<node id="-752033" lat="69.3958333357" lon="17.14636945">
		<tag k="fixme" v="consider natural=peak for the most distinct mountains in the district" />
		<tag k="name" v="Silhammaren" />
		<tag k="natural" v="hill" />
		<tag k="place" v="locality" />
		<tag k="ssr:stedsnr" v="52699" />
	</node>
	<node id="-752032" lat="69.3727055589" lon="17.1708861146">
		<tag k="fixme" v="consider natural=peak for the most distinct mountains in the district" />
		<tag k="name" v="Tolkjeften" />
		<tag k="natural" v="hill" />
		<tag k="place" v="locality" />
		<tag k="ssr:stedsnr" v="52661" />
	</node>
	<node id="-752030" lat="69.2486805596" lon="17.112836117">
		<tag k="name" v="Mølnedalen" />
		<tag k="natural" v="valley" />
		<tag k="place" v="locality" />
		<tag k="ssr:stedsnr" v="52466" />
	</node>
	<node id="-752029" lat="69.3446500037" lon="17.1247694564">
		<tag k="name" v="Feråna" />
		<tag k="natural" v="slope" />
		<tag k="place" v="locality" />
		<tag k="ssr:stedsnr" v="51767" />
	</node>
	<node id="-752027" lat="69.2887500009" lon="17.1859166621">
		<tag k="name" v="Laksebakklia" />
		<tag k="natural" v="slope" />
		<tag k="place" v="locality" />
		<tag k="ssr:stedsnr" v="51728" />
	</node>
	<node id="-752025" lat="69.3605999991" lon="17.0580138873">
		<tag k="name" v="Urhaugen" />
		<tag k="natural" v="hill" />
		<tag k="place" v="locality" />
		<tag k="ssr:stedsnr" v="51712" />
	</node>
	<node id="-752023" lat="69.3497583306" lon="17.1042555531">
		<tag k="name" v="Dalebakken" />
		<tag k="natural" v="slope" />
		<tag k="place" v="locality" />
		<tag k="ssr:stedsnr" v="51699" />
	</node>
	<node id="-752022" lat="69.3544805581" lon="17.1205083264">
		<tag k="name" v="Ytre Vedrabbhaugen" />
		<tag k="natural" v="hill" />
		<tag k="place" v="locality" />
		<tag k="ssr:stedsnr" v="51697" />
	</node>
	<node id="-752021" lat="69.3501111121" lon="17.0772361023">
		<tag k="fixme" v="consider natural=peak for the most distinct mountains in the district" />
		<tag k="name" v="Midtertinden" />
		<tag k="natural" v="hill" />
		<tag k="ssr:stedsnr" v="51693" />
	</node>
	<node id="-752019" lat="69.2692277793" lon="17.1168583231">
		<tag k="name" v="Larssletta" />
		<tag k="place" v="locality" />
		<tag k="ssr:stedsnr" v="51544" />
	</node>
	<node id="-752018" lat="69.2009861132" lon="17.0960833291">
		<tag k="name" v="Kvændalen" />
		<tag k="natural" v="valley" />
		<tag k="place" v="locality" />
		<tag k="ssr:stedsnr" v="51539" />
	</node>
	<node id="-752017" lat="69.196824996" lon="17.0479277716">
		<tag k="name" v="Tjønnesbakkan" />
		<tag k="natural" v="slope" />
		<tag k="place" v="locality" />
		<tag k="ssr:stedsnr" v="51492" />
	</node>
	<node id="-752016" lat="69.3070638862" lon="16.9939249938">
		<tag k="name" v="Steinbakken" />
		<tag k="natural" v="slope" />
		<tag k="place" v="locality" />
		<tag k="ssr:stedsnr" v="51434" />
	</node>
	<node id="-752014" lat="69.27435278" lon="17.036399999">
		<tag k="name" v="Hågen" />
		<tag k="natural" v="hill" />
		<tag k="place" v="locality" />
		<tag k="ssr:stedsnr" v="51336" />
	</node>
	<node id="-752013" lat="69.200600003" lon="16.9193972259">
		<tag k="name" v="Geitebergan" />
		<tag k="natural" v="hill" />
		<tag k="place" v="locality" />
		<tag k="ssr:stedsnr" v="51305" />
	</node>
	<node id="-752004" lat="69.2467083292" lon="17.435188891">
		<tag k="fixme" v="consider natural=peak for the most distinct mountains in the district" />
		<tag k="name" v="Svanfjellet - Njukčavárri" />
		<tag k="name:no" v="Svanfjellet" />
		<tag k="name:se" v="Njukčavárri" />
		<tag k="natural" v="hill" />
		<tag k="place" v="locality" />
		<tag k="ssr:stedsnr" v="21463" />
	</node>
	<node id="-752002" lat="69.3281416635" lon="17.2975694477">
		<tag k="name" v="Leirskaret" />
		<tag k="natural" v="valley" />
		<tag k="place" v="locality" />
		<tag k="ssr:stedsnr" v="20342" />
	</node>
	<node id="-751999" lat="69.2941361077" lon="17.193422224">
		<tag k="name" v="Botnkollen" />
		<tag k="natural" v="hill" />
		<tag k="place" v="locality" />
		<tag k="ssr:stedsnr" v="19380" />
	</node>
	<node id="-751997" lat="69.3662861157" lon="16.9625555481">
		<tag k="fixme" v="consider natural=peak for the most distinct mountains in the district" />
		<tag k="name" v="Sula" />
		<tag k="natural" v="hill" />
		<tag k="place" v="locality" />
		<tag k="ssr:stedsnr" v="19298" />
	</node>
	<node id="-751996" lat="69.3148500006" lon="16.9964305522">
		<tag k="fixme" v="consider natural=peak for the most distinct mountains in the district" />
		<tag k="name" v="Klemmingan" />
		<tag k="natural" v="hill" />
		<tag k="place" v="locality" />
		<tag k="ssr:stedsnr" v="18365" />
	</node>
	<node id="-751995" lat="69.3064194422" lon="16.9561416605">
		<tag k="alt_name" v="Høgtind" />
		<tag k="fixme" v="consider natural=peak for the most distinct mountains in the district" />
		<tag k="name" v="Høgtinden" />
		<tag k="natural" v="hill" />
		<tag k="place" v="locality" />
		<tag k="ssr:stedsnr" v="18360" />
	</node>
	<node id="-751992" lat="69.37519722" lon="16.9681361178">
		<tag k="name" v="Sandsvikskaret" />
		<tag k="natural" v="valley" />
		<tag k="place" v="locality" />
		<tag k="ssr:stedsnr" v="18330" />
	</node>
	<node id="-751991" lat="69.3775138903" lon="17.1508083231">
		<tag k="name" v="Ballesvikbotn" />
		<tag k="natural" v="valley" />
		<tag k="place" v="locality" />
		<tag k="ssr:stedsnr" v="18321" />
	</node>
	<node id="-751982" lat="69.2321027768" lon="16.951405552">
		<tag k="alt_name" v="Rishågen" />
		<tag k="name" v="Rishaugen" />
		<tag k="natural" v="hill" />
		<tag k="place" v="locality" />
		<tag k="ssr:stedsnr" v="18164" />
	</node>
	<node id="-751981" lat="69.219133331" lon="17.0597583185">
		<tag k="fixme" v="multiple name tags, choose one and add the other to alt_name" />
		<tag k="name" v="Ytterskaret;Nordskaret;Sifjordskaret" />
		<tag k="natural" v="valley" />
		<tag k="place" v="locality" />
		<tag k="ssr:stedsnr" v="18130" />
	</node>
	<node id="-751979" lat="69.2136777777" lon="17.0381138966">
		<tag k="fixme" v="consider natural=peak for the most distinct mountains in the district" />
		<tag k="name" v="Husfjellet" />
		<tag k="natural" v="hill" />
		<tag k="place" v="locality" />
		<tag k="ssr:stedsnr" v="18127" />
	</node>
	<node id="-751930" lat="69.2002666709" lon="16.9504805585">
		<tag k="name" v="Olveskarhågen" />
		<tag k="natural" v="hill" />
		<tag k="place" v="locality" />
		<tag k="ssr:stedsnr" v="900282" />
	</node>
	<node id="-751929" lat="69.3318000011" lon="17.1406805452">
		<tag k="name" v="Galgenesryggen" />
		<tag k="natural" v="ridge" />
		<tag k="place" v="locality" />
		<tag k="ssr:stedsnr" v="476749" />
	</node>
	<node id="-751928" lat="69.3356083325" lon="17.1418833367">
		<tag k="name" v="Galgenesdalen" />
		<tag k="natural" v="valley" />
		<tag k="place" v="locality" />
		<tag k="ssr:stedsnr" v="476747" />
	</node>
	<node id="-751926" lat="69.3726499982" lon="17.0613388818">
		<tag k="fixme" v="consider natural=peak for the most distinct mountains in the district" />
		<tag k="name" v="Rognskartinden" />
		<tag k="natural" v="hill" />
		<tag k="ssr:stedsnr" v="476721" />
	</node>
	<node id="-751925" lat="69.3802277759" lon="17.1004777745">
		<tag k="name" v="Veihaugen" />
		<tag k="natural" v="hill" />
		<tag k="place" v="locality" />
		<tag k="ssr:stedsnr" v="476720" />
	</node>
	<node id="-751921" lat="69.2902527784" lon="17.1949416761">
		<tag k="name" v="Høyhellaren" />
		<tag k="natural" v="hill" />
		<tag k="place" v="locality" />
		<tag k="ssr:stedsnr" v="476686" />
	</node>
	<node id="-751920" lat="69.2851305552" lon="17.1956888969">
		<tag k="name" v="Durmålsdalen" />
		<tag k="natural" v="valley" />
		<tag k="place" v="locality" />
		<tag k="ssr:stedsnr" v="476683" />
	</node>
	<node id="-751918" lat="69.3496277797" lon="17.122044439">
		<tag k="name" v="Festninga" />
		<tag k="natural" v="slope" />
		<tag k="place" v="locality" />
		<tag k="ssr:stedsnr" v="476654" />
	</node>
	<node id="-751917" lat="69.3556333372" lon="17.0823416676">
		<tag k="name" v="Bleiklia" />
		<tag k="natural" v="slope" />
		<tag k="place" v="locality" />
		<tag k="ssr:stedsnr" v="476649" />
	</node>
	<node id="-751916" lat="69.3557666692" lon="17.0616694429">
		<tag k="name" v="Dalen" />
		<tag k="natural" v="valley" />
		<tag k="place" v="locality" />
		<tag k="ssr:stedsnr" v="476648" />
	</node>
	<node id="-751915" lat="69.3436194464" lon="17.0797916591">
		<tag k="name" v="Dalebakken" />
		<tag k="natural" v="slope" />
		<tag k="place" v="locality" />
		<tag k="ssr:stedsnr" v="476633" />
	</node>
	<node id="-751914" lat="69.2876861105" lon="17.1404249945">
		<tag k="name" v="Store Rishågtuva" />
		<tag k="natural" v="hill" />
		<tag k="place" v="locality" />
		<tag k="ssr:stedsnr" v="476554" />
	</node>
	<node id="-751913" lat="69.2871777743" lon="17.1430277812">
		<tag k="name" v="Skakkelia" />
		<tag k="natural" v="slope" />
		<tag k="place" v="locality" />
		<tag k="ssr:stedsnr" v="476551" />
	</node>
	<node id="-751912" lat="69.193325002" lon="17.0339805453">
		<tag k="name" v="Landslettbakken" />
		<tag k="natural" v="slope" />
		<tag k="place" v="locality" />
		<tag k="ssr:stedsnr" v="476185" />
	</node>
	<node id="-751911" lat="69.268672222" lon="16.7884416536">
		<tag k="name" v="Ramnelia" />
		<tag k="natural" v="slope" />
		<tag k="place" v="locality" />
		<tag k="ssr:stedsnr" v="476147" />
	</node>
	<node id="-751909" lat="69.2655999985" lon="16.7911194442">
		<tag k="name" v="Resshauet" />
		<tag k="natural" v="hill" />
		<tag k="place" v="locality" />
		<tag k="ssr:stedsnr" v="476145" />
	</node>
	<node id="-751905" lat="69.2712750036" lon="17.120041665">
		<tag k="name" v="Litjepallen" />
		<tag k="natural" v="hill" />
		<tag k="place" v="locality" />
		<tag k="ssr:stedsnr" v="475504" />
	</node>
	<node id="-751903" lat="69.2111472255" lon="17.0566527832">
		<tag k="name" v="Norddalsbakken" />
		<tag k="natural" v="slope" />
		<tag k="place" v="locality" />
		<tag k="ssr:stedsnr" v="475493" />
	</node>
	<node id="-751898" lat="69.2714222185" lon="17.0203222269">
		<tag k="name" v="Steggellia" />
		<tag k="natural" v="slope" />
		<tag k="place" v="locality" />
		<tag k="ssr:stedsnr" v="475302" />
	</node>
	<node id="-751897" lat="69.2708777816" lon="17.021211101">
		<tag k="name" v="Botnlia" />
		<tag k="natural" v="slope" />
		<tag k="place" v="locality" />
		<tag k="ssr:stedsnr" v="475301" />
	</node>
	<node id="-751896" lat="69.2828638919" lon="17.035755551">
		<tag k="name" v="Kulen" />
		<tag k="natural" v="hill" />
		<tag k="place" v="locality" />
		<tag k="ssr:stedsnr" v="475295" />
	</node>
	<node id="-751895" lat="69.1996638931" lon="16.9474333378">
		<tag k="name" v="Olveskaret" />
		<tag k="natural" v="valley" />
		<tag k="place" v="locality" />
		<tag k="ssr:stedsnr" v="475277" />
	</node>
	<node id="-751892" lat="69.2054138876" lon="16.8973305613">
		<tag k="name" v="Hæsa" />
		<tag k="natural" v="slope" />
		<tag k="place" v="locality" />
		<tag k="ssr:stedsnr" v="475258" />
	</node>
	<node id="-751891" lat="69.2295138893" lon="16.9068249911">
		<tag k="fixme" v="consider natural=peak for the most distinct mountains in the district" />
		<tag k="name" v="Soltua" />
		<tag k="natural" v="hill" />
		<tag k="place" v="locality" />
		<tag k="ssr:stedsnr" v="475243" />
	</node>
	<node id="-751890" lat="69.2262638885" lon="16.8900250009">
		<tag k="name" v="Kobbevikhalsen" />
		<tag k="natural" v="cliff" />
		<tag k="ssr:stedsnr" v="475237" />
	</node>
	<node id="-751882" lat="69.3089527802" lon="16.9076472295">
		<tag k="alt_name" v="Kjerringfjellet" />
		<tag k="name" v="Kjerringberget" />
		<tag k="natural" v="hill" />
		<tag k="place" v="locality" />
		<tag k="ssr:stedsnr" v="382408" />
	</node>
	<node id="-751881" lat="69.309813888" lon="16.9792638773">
		<tag k="name" v="Kjerringvikskaret" />
		<tag k="natural" v="valley" />
		<tag k="place" v="locality" />
		<tag k="ssr:stedsnr" v="382405" />
	</node>
	<node id="-751880" lat="69.2817749958" lon="17.2406888921">
		<tag k="fixme" v="consider natural=peak for the most distinct mountains in the district" />
		<tag k="name" v="Sørfjellan" />
		<tag k="natural" v="hill" />
		<tag k="place" v="locality" />
		<tag k="ssr:stedsnr" v="382381" />
	</node>
	<node id="-751879" lat="69.2853222238" lon="16.9676444414">
		<tag k="alt_name" v="Strytind" />
		<tag k="fixme" v="consider natural=peak for the most distinct mountains in the district" />
		<tag k="name" v="Strytinden" />
		<tag k="natural" v="hill" />
		<tag k="place" v="locality" />
		<tag k="ssr:stedsnr" v="382380" />
	</node>
	<node id="-751877" lat="69.3810250027" lon="17.036202787">
		<tag k="fixme" v="consider natural=peak for the most distinct mountains in the district" />
		<tag k="name" v="Høgtinden" />
		<tag k="natural" v="hill" />
		<tag k="place" v="locality" />
		<tag k="ssr:stedsnr" v="382348" />
	</node>
	<node id="-751875" lat="69.3237750031" lon="16.9810138996">
		<tag k="name" v="Stighola" />
		<tag k="natural" v="valley" />
		<tag k="place" v="locality" />
		<tag k="ssr:stedsnr" v="382329" />
	</node>
	<node id="-751865" lat="69.2053861117" lon="16.9037333357">
		<tag k="fixme" v="consider natural=peak for the most distinct mountains in the district" />
		<tag k="name" v="Årbergnakken" />
		<tag k="natural" v="hill" />
		<tag k="place" v="locality" />
		<tag k="ssr:stedsnr" v="381158" />
	</node>
	<node id="-751864" lat="69.2061249976" lon="17.1355138794">
		<tag k="fixme" v="consider natural=peak for the most distinct mountains in the district" />
		<tag k="name" v="Kvænan" />
		<tag k="natural" v="hill" />
		<tag k="place" v="locality" />
		<tag k="ssr:stedsnr" v="381154" />
	</node>
	<node id="-751860" lat="69.3349722187" lon="17.2159555474">
		<tag k="fixme" v="consider natural=peak for the most distinct mountains in the district" />
		<tag k="name" v="Skipsfjordtuva" />
		<tag k="natural" v="hill" />
		<tag k="place" v="locality" />
		<tag k="ssr:stedsnr" v="355673" />
	</node>
	<node id="-751859" lat="69.3812972184" lon="17.1757555492">
		<tag k="name" v="Tolskaret" />
		<tag k="natural" v="valley" />
		<tag k="place" v="locality" />
		<tag k="ssr:stedsnr" v="355671" />
	</node>
	<node id="-751856" lat="69.2888611068" lon="17.1666083361">
		<tag k="name" v="Skreda" />
		<tag k="natural" v="slope" />
		<tag k="place" v="locality" />
		<tag k="ssr:stedsnr" v="355535" />
	</node>
	<node id="-751855" lat="69.2486833298" lon="17.1112666709">
		<tag k="name" v="Mølneviknakken" />
		<tag k="natural" v="ridge" />
		<tag k="place" v="locality" />
		<tag k="ssr:stedsnr" v="355512" />
	</node>
	<node id="-751854" lat="69.2472944399" lon="17.1651916684">
		<tag k="name" v="Kolkjerkdalen" />
		<tag k="natural" v="valley" />
		<tag k="place" v="locality" />
		<tag k="ssr:stedsnr" v="355491" />
	</node>
	<node id="-751851" lat="69.3056999958" lon="17.0694944484">
		<tag k="fixme" v="consider natural=peak for the most distinct mountains in the district" />
		<tag k="name" v="Litje Fakstind" />
		<tag k="natural" v="hill" />
		<tag k="ssr:stedsnr" v="355464" />
	</node>
	<node id="-751850" lat="69.3483833337" lon="17.1166166765">
		<tag k="name" v="Klubban" />
		<tag k="natural" v="hill" />
		<tag k="place" v="locality" />
		<tag k="ssr:stedsnr" v="354691" />
	</node>
	<node id="-751848" lat="69.3427555516" lon="17.0571749974">
		<tag k="name" v="Elvelia" />
		<tag k="natural" v="slope" />
		<tag k="place" v="locality" />
		<tag k="ssr:stedsnr" v="354663" />
	</node>
	<node id="-751847" lat="69.2686749981" lon="17.142719433">
		<tag k="name" v="Ytterdalen" />
		<tag k="natural" v="valley" />
		<tag k="place" v="locality" />
		<tag k="ssr:stedsnr" v="354558" />
	</node>
	<node id="-751846" lat="69.2000055532" lon="17.0892333435">
		<tag k="fixme" v="consider natural=peak for the most distinct mountains in the district" />
		<tag k="name" v="Kvændalsbruna" />
		<tag k="natural" v="hill" />
		<tag k="place" v="locality" />
		<tag k="ssr:stedsnr" v="354499" />
	</node>
	<node id="-751841" lat="69.3923361148" lon="16.9540361085">
		<tag k="name" v="Teistevikskaret" />
		<tag k="natural" v="valley" />
		<tag k="place" v="locality" />
		<tag k="ssr:stedsnr" v="354447" />
	</node>
	<node id="-751835" lat="69.3113666639" lon="17.014088885">
		<tag k="name" v="Storlia" />
		<tag k="natural" v="slope" />
		<tag k="place" v="locality" />
		<tag k="ssr:stedsnr" v="354414" />
	</node>
	<node id="-751834" lat="69.2783027771" lon="17.0653583382">
		<tag k="name" v="Veidmannsaksla" />
		<tag k="place" v="locality" />
		<tag k="ssr:stedsnr" v="354302" />
	</node>
	<node id="-751833" lat="69.2069861065" lon="16.8954388925">
		<tag k="name" v="Mastebergan" />
		<tag k="natural" v="hill" />
		<tag k="place" v="locality" />
		<tag k="ssr:stedsnr" v="354286" />
	</node>
	<node id="-751832" lat="69.2025444407" lon="16.9241166673">
		<tag k="name" v="Nonshågen" />
		<tag k="natural" v="hill" />
		<tag k="place" v="locality" />
		<tag k="ssr:stedsnr" v="354274" />
	</node>
	<node id="-751831" lat="69.2217194444" lon="16.904827768">
		<tag k="name" v="Leikviklian" />
		<tag k="natural" v="slope" />
		<tag k="place" v="locality" />
		<tag k="ssr:stedsnr" v="354257" />
	</node>
	<node id="-751830" lat="69.1963888931" lon="17.0384027723">
		<tag k="name" v="Humpen" />
		<tag k="natural" v="hill" />
		<tag k="place" v="locality" />
		<tag k="ssr:stedsnr" v="354190" />
	</node>
	<node id="-751825" lat="69.3381916644" lon="17.1571888739">
		<tag k="name" v="Skipsfjordbotn" />
		<tag k="natural" v="valley" />
		<tag k="place" v="locality" />
		<tag k="ssr:stedsnr" v="345111" />
	</node>
	<node id="-751817" lat="69.304786112" lon="17.2629166741">
		<tag k="name" v="Kaperskaret" />
		<tag k="natural" v="valley" />
		<tag k="place" v="locality" />
		<tag k="ssr:stedsnr" v="322434" />
	</node>
	<node id="-751816" lat="69.3087888876" lon="17.2952305659">
		<tag k="name" v="Langdalsryggen - Dáččavárri" />
		<tag k="name:no" v="Langdalsryggen" />
		<tag k="name:se" v="Dáččavárri" />
		<tag k="natural" v="ridge" />
		<tag k="old_name:se" v="Dažžavarri" />
		<tag k="place" v="locality" />
		<tag k="ssr:stedsnr" v="322432" />
	</node>
	<node id="-751815" lat="69.2925027755" lon="17.0025972114">
		<tag k="fixme" v="multiple name tags, choose one and add the other to alt_name; consider natural=peak for the most distinct mountains in the district" />
		<tag k="name" v="Durmålsfjellet;Kjølen" />
		<tag k="natural" v="hill" />
		<tag k="place" v="locality" />
		<tag k="ssr:stedsnr" v="322419" />
	</node>
	<node id="-751813" lat="69.3769972226" lon="16.9443999987">
		<tag k="alt_name" v="Dalabakkan" />
		<tag k="name" v="Dalebakkan" />
		<tag k="natural" v="slope" />
		<tag k="place" v="locality" />
		<tag k="ssr:stedsnr" v="322359" />
	</node>
	<node id="-751810" lat="69.3500083295" lon="17.1964499879">
		<tag k="name" v="Gryllefjordbotn" />
		<tag k="natural" v="valley" />
		<tag k="place" v="locality" />
		<tag k="ssr:stedsnr" v="322302" />
	</node>
	<node id="-751809" lat="69.367030554" lon="16.9049305542">
		<tag k="name" v="Ølningsskaran" />
		<tag k="natural" v="valley" />
		<tag k="place" v="locality" />
		<tag k="ssr:stedsnr" v="322292" />
	</node>
	<node id="-751799" lat="69.1927111071" lon="17.0058916576">
		<tag k="name" v="Justebakken" />
		<tag k="natural" v="slope" />
		<tag k="place" v="locality" />
		<tag k="ssr:stedsnr" v="321131" />
	</node>
	<node id="-751798" lat="69.2071583334" lon="16.990733327">
		<tag k="name" v="Leikvikskaret" />
		<tag k="natural" v="valley" />
		<tag k="place" v="locality" />
		<tag k="ssr:stedsnr" v="321125" />
	</node>
	<node id="-751797" lat="69.2096555528" lon="17.1122055559">
		<tag k="fixme" v="consider natural=peak for the most distinct mountains in the district" />
		<tag k="name" v="Kvænstammen" />
		<tag k="natural" v="hill" />
		<tag k="place" v="locality" />
		<tag k="ssr:stedsnr" v="321118" />
	</node>
	<node id="-751793" lat="69.2849611099" lon="17.1233777854">
		<tag k="name" v="Skoglia" />
		<tag k="natural" v="slope" />
		<tag k="place" v="locality" />
		<tag k="ssr:stedsnr" v="295598" />
	</node>
	<node id="-751792" lat="69.2867055569" lon="17.1422999894">
		<tag k="name" v="Rødhamran" />
		<tag k="natural" v="hill" />
		<tag k="place" v="locality" />
		<tag k="ssr:stedsnr" v="295585" />
	</node>
	<node id="-751791" lat="69.3074444484" lon="17.0557638886">
		<tag k="name" v="Trollvassdalen" />
		<tag k="natural" v="valley" />
		<tag k="place" v="locality" />
		<tag k="ssr:stedsnr" v="295521" />
	</node>
	<node id="-751788" lat="69.3823111098" lon="17.100050003">
		<tag k="name" v="Sandmoen" />
		<tag k="place" v="locality" />
		<tag k="ssr:stedsnr" v="294722" />
	</node>
	<node id="-751786" lat="69.2867666684" lon="17.1374666742">
		<tag k="name" v="Litje Rishågtuva" />
		<tag k="natural" v="hill" />
		<tag k="place" v="locality" />
		<tag k="ssr:stedsnr" v="294598" />
	</node>
	<node id="-751782" lat="69.2607555564" lon="17.1088222129">
		<tag k="name" v="Kolsartua" />
		<tag k="natural" v="hill" />
		<tag k="place" v="locality" />
		<tag k="ssr:stedsnr" v="294545" />
	</node>
	<node id="-751781" lat="69.3722111134" lon="17.0260000091">
		<tag k="name" v="Trollslotthaugen" />
		<tag k="natural" v="hill" />
		<tag k="place" v="locality" />
		<tag k="ssr:stedsnr" v="294459" />
	</node>
	<node id="-751779" lat="69.3505777765" lon="17.0939500067">
		<tag k="name" v="Sauholla" />
		<tag k="natural" v="valley" />
		<tag k="place" v="locality" />
		<tag k="ssr:stedsnr" v="294684" />
	</node>
	<node id="-751778" lat="69.3506305555" lon="17.0731472134">
		<tag k="name" v="Messetindsula" />
		<tag k="natural" v="valley" />
		<tag k="place" v="locality" />
		<tag k="ssr:stedsnr" v="294682" />
	</node>
	<node id="-751775" lat="69.2664194426" lon="16.7808916757">
		<tag k="name" v="Votthågen" />
		<tag k="natural" v="hill" />
		<tag k="place" v="locality" />
		<tag k="ssr:stedsnr" v="294136" />
	</node>
	<node id="-751771" lat="69.278941664" lon="17.1526638801">
		<tag k="name" v="Klubbhågen" />
		<tag k="natural" v="hill" />
		<tag k="place" v="locality" />
		<tag k="ssr:stedsnr" v="293518" />
	</node>
	<node id="-751769" lat="69.2750277743" lon="17.0726249878">
		<tag k="name" v="Skarhågan" />
		<tag k="natural" v="hill" />
		<tag k="place" v="locality" />
		<tag k="ssr:stedsnr" v="293491" />
	</node>
	<node id="-751768" lat="69.3644083339" lon="16.994911098">
		<tag k="name" v="Kubergan" />
		<tag k="natural" v="hill" />
		<tag k="place" v="locality" />
		<tag k="ssr:stedsnr" v="293449" />
	</node>
	<node id="-751765" lat="69.2770194451" lon="16.9645999898">
		<tag k="name" v="Litjeskaret" />
		<tag k="natural" v="valley" />
		<tag k="place" v="locality" />
		<tag k="ssr:stedsnr" v="293331" />
	</node>
	<node id="-751764" lat="69.2001861131" lon="16.9935472239">
		<tag k="fixme" v="consider natural=peak for the most distinct mountains in the district" />
		<tag k="name" v="Mellabjørga" />
		<tag k="natural" v="hill" />
		<tag k="place" v="locality" />
		<tag k="ssr:stedsnr" v="293321" />
	</node>
	<node id="-751761" lat="69.2299388854" lon="16.9172527877">
		<tag k="fixme" v="consider natural=peak for the most distinct mountains in the district" />
		<tag k="name" v="Langhalstinden" />
		<tag k="natural" v="hill" />
		<tag k="place" v="locality" />
		<tag k="ssr:stedsnr" v="293286" />
	</node>
</osm>
