<?xml version="1.0" encoding="UTF-8"?>
<osm generator="osmapis" version="0.6">
	<node id="-752126" lat="69.2004277813" lon="16.898094448">
		<tag k="name" v="Stormyra" />
		<tag k="natural" v="wetland" />
		<tag k="ssr:stedsnr" v="172270" />
	</node>
	<node id="-752381" lat="69.2950555537" lon="16.948947209">
		<tag k="name" v="Mellomøyra" />
		<tag k="place" v="locality" />
		<tag k="ssr:stedsnr" v="536405" />
	</node>
	<node id="-752380" lat="69.3073444428" lon="17.0341388837">
		<tag k="name" v="Stormyra" />
		<tag k="natural" v="wetland" />
		<tag k="ssr:stedsnr" v="536382" />
	</node>
	<node id="-752379" lat="69.2659777764" lon="17.0425722208">
		<tag k="name" v="Skarvuran" />
		<tag k="natural" v="scree" />
		<tag k="ssr:stedsnr" v="536301" />
	</node>
	<node id="-752249" lat="69.3738749985" lon="17.1276694314">
		<tag k="name" v="Tolmyran" />
		<tag k="natural" v="wetland" />
		<tag k="ssr:stedsnr" v="261325" />
	</node>
	<node id="-751989" lat="69.3863638861" lon="17.0718333196">
		<tag k="name" v="Sildevikmyra" />
		<tag k="natural" v="wetland" />
		<tag k="ssr:stedsnr" v="18309" />
	</node>
	<node id="-752755" lat="69.2961333349" lon="16.9459000026">
		<tag k="name" v="Litjeøyra" />
		<tag k="place" v="locality" />
		<tag k="ssr:stedsnr" v="900404" />
	</node>
	<node id="-752662" lat="69.3902083298" lon="17.1056583256">
		<tag k="name" v="Øyra" />
		<tag k="place" v="locality" />
		<tag k="ssr:stedsnr" v="780667" />
	</node>
	<node id="-752238" lat="69.3890833328" lon="17.1284277858">
		<tag k="name" v="Kvitskredmyra" />
		<tag k="natural" v="wetland" />
		<tag k="ssr:stedsnr" v="233741" />
	</node>
	<node id="-752237" lat="69.358155552" lon="17.0707055458">
		<tag k="name" v="Dalemyra" />
		<tag k="natural" v="wetland" />
		<tag k="ssr:stedsnr" v="233708" />
	</node>
	<node id="-751980" lat="69.2092777804" lon="16.9727027789">
		<tag k="name" v="Langmyra" />
		<tag k="natural" v="wetland" />
		<tag k="ssr:stedsnr" v="18125" />
	</node>
	<node id="-752234" lat="69.3558277741" lon="17.1128583412">
		<tag k="name" v="Torskeskarmyran" />
		<tag k="natural" v="wetland" />
		<tag k="ssr:stedsnr" v="233684" />
	</node>
	<node id="-752229" lat="69.2733416631" lon="17.1352944304">
		<tag k="name" v="Storsteinen" />
		<tag k="natural" v="stone" />
		<tag k="ssr:stedsnr" v="233597" />
	</node>
	<node id="-752610" lat="69.3794138873" lon="17.1042972226">
		<tag k="name" v="Veihaugmyra" />
		<tag k="natural" v="wetland" />
		<tag k="ssr:stedsnr" v="719685" />
	</node>
	<node id="-752609" lat="69.3826749983" lon="17.1445166659">
		<tag k="name" v="Bubbelverslet" />
		<tag k="natural" v="wetland" />
		<tag k="ssr:stedsnr" v="719680" />
	</node>
	<node id="-752734" lat="69.3874722214" lon="17.0846861105">
		<tag k="name" v="Daumannsøyra" />
		<tag k="place" v="locality" />
		<tag k="ssr:stedsnr" v="841701" />
	</node>
	<node id="-751837" lat="69.3526194466" lon="17.029611115">
		<tag k="name" v="Sølvskeiura" />
		<tag k="natural" v="scree" />
		<tag k="ssr:stedsnr" v="354422" />
	</node>
	<node id="-752476" lat="69.3564472258" lon="17.0948222152">
		<tag k="name" v="Kusteinen" />
		<tag k="natural" v="stone" />
		<tag k="ssr:stedsnr" v="597658" />
	</node>
	<node id="-752721" lat="69.2481944445" lon="17.1303277747">
		<tag k="name" v="Gjeskura" />
		<tag k="natural" v="scree" />
		<tag k="ssr:stedsnr" v="841480" />
	</node>
	<node id="-752088" lat="69.3382194446" lon="17.0639305481">
		<tag k="name" v="Smørsteinen" />
		<tag k="natural" v="stone" />
		<tag k="ssr:stedsnr" v="112634" />
	</node>
	<node id="-752164" lat="69.3997111109" lon="17.1345000051">
		<tag k="name" v="Blåura" />
		<tag k="natural" v="scree" />
		<tag k="ssr:stedsnr" v="173692" />
	</node>
	<node id="-752597" lat="69.1872027762" lon="17.0580861012">
		<tag k="name" v="Marensteinen" />
		<tag k="natural" v="stone" />
		<tag k="ssr:stedsnr" v="719426" />
	</node>
	<node id="-752084" lat="69.1982722206" lon="17.1829833252">
		<tag k="name" v="Simonteigen" />
		<tag k="place" v="locality" />
		<tag k="ssr:stedsnr" v="112493" />
	</node>
	<node id="-752725" lat="69.255774996" lon="17.1123250043">
		<tag k="name" v="Langslåtta" />
		<tag k="place" v="locality" />
		<tag k="ssr:stedsnr" v="841531" />
	</node>
	<node id="-752593" lat="69.2747388881" lon="17.0579916655">
		<tag k="name" v="Vaura" />
		<tag k="natural" v="scree" />
		<tag k="ssr:stedsnr" v="718497" />
	</node>
	<node id="-752717" lat="69.282447219" lon="17.1122305568">
		<tag k="name" v="Sifjordura" />
		<tag k="natural" v="scree" />
		<tag k="ssr:stedsnr" v="840502" />
	</node>
	<node id="-752844" lat="69.3168916715" lon="17.1128222128">
		<tag k="name" v="Skorsteinsura" />
		<tag k="natural" v="scree" />
		<tag k="ssr:stedsnr" v="962495" />
	</node>
	<node id="-752587" lat="69.264200004" lon="16.7941027848">
		<tag k="name" v="Henrikmyra" />
		<tag k="natural" v="wetland" />
		<tag k="ssr:stedsnr" v="718153" />
	</node>
	<node id="-752714" lat="69.1825722192" lon="17.0981499973">
		<tag k="name" v="Skogen" />
		<tag k="place" v="locality" />
		<tag k="ssr:stedsnr" v="840473" />
	</node>
	<node id="-752585" lat="69.2799749979" lon="16.9842194299">
		<tag k="name" v="Kobbøyra" />
		<tag k="place" v="locality" />
		<tag k="ssr:stedsnr" v="718297" />
	</node>
	<node id="-752081" lat="69.1920083367" lon="17.1557583359">
		<tag k="name" v="Listeinan" />
		<tag k="natural" v="stone" />
		<tag k="ssr:stedsnr" v="112481" />
	</node>
	<node id="-752710" lat="69.3935388873" lon="17.0169611131">
		<tag k="name" v="Hundevikmyran" />
		<tag k="natural" v="wetland" />
		<tag k="ssr:stedsnr" v="840421" />
	</node>
	<node id="-752225" lat="69.2518361068" lon="17.1456888962">
		<tag k="name" v="Øverjorda" />
		<tag k="place" v="locality" />
		<tag k="ssr:stedsnr" v="233566" />
	</node>
	<node id="-751812" lat="69.3823305515" lon="17.1341527732">
		<tag k="name" v="Ballesvikmyran" />
		<tag k="natural" v="wetland" />
		<tag k="ssr:stedsnr" v="322353" />
	</node>
	<node id="-752578" lat="69.2086638884" lon="16.9549861175">
		<tag k="name" v="Huldersteinen" />
		<tag k="natural" v="stone" />
		<tag k="ssr:stedsnr" v="718257" />
	</node>
	<node id="-752576" lat="69.2126972224" lon="16.9553472212">
		<tag k="name" v="Ytterheimyran" />
		<tag k="natural" v="wetland" />
		<tag k="ssr:stedsnr" v="718234" />
	</node>
	<node id="-752085" lat="69.203966664" lon="17.0821500078">
		<tag k="name" v="Forrholtet" />
		<tag k="place" v="locality" />
		<tag k="ssr:stedsnr" v="112499" />
	</node>
	<node id="-751934" lat="69.285036116" lon="17.0305860994">
		<tag k="name" v="Skogen" />
		<tag k="natural" v="wetland" />
		<tag k="ssr:stedsnr" v="900394" />
	</node>
	<node id="-752189" lat="69.2013222251" lon="17.0534027649">
		<tag k="name" v="Flakstadmyran" />
		<tag k="natural" v="wetland" />
		<tag k="ssr:stedsnr" v="203624" />
	</node>
	<node id="-752330" lat="69.3892027792" lon="17.0790416637">
		<tag k="alt_name" v="Sildvikøra" />
		<tag k="name" v="Sildevikøyra" />
		<tag k="place" v="locality" />
		<tag k="ssr:stedsnr" v="468154" />
	</node>
	<node id="-751829" lat="69.1940972228" lon="17.0137750083">
		<tag k="name" v="Finnelvmyran" />
		<tag k="natural" v="wetland" />
		<tag k="ssr:stedsnr" v="354145" />
	</node>
	<node id="-751927" lat="69.3992916667" lon="17.0651361012">
		<tag k="name" v="Kvitsteinen" />
		<tag k="natural" v="stone" />
		<tag k="ssr:stedsnr" v="476742" />
	</node>
	<node id="-752222" lat="69.2794694452" lon="17.0882333207">
		<tag k="name" v="Hampeskogmyra" />
		<tag k="natural" v="wetland" />
		<tag k="ssr:stedsnr" v="233530" />
	</node>
	<node id="-751901" lat="69.2785611074" lon="17.0861388874">
		<tag k="name" v="Hampeskogen" />
		<tag k="place" v="locality" />
		<tag k="ssr:stedsnr" v="475481" />
	</node>
	<node id="-752024" lat="69.3598000008" lon="17.0842333352">
		<tag k="name" v="Kjeløyra" />
		<tag k="place" v="locality" />
		<tag k="ssr:stedsnr" v="51700" />
	</node>
	<node id="-751785" lat="69.2532055534" lon="17.1158527863">
		<tag k="name" v="Litjevassholtet" />
		<tag k="place" v="locality" />
		<tag k="ssr:stedsnr" v="294571" />
	</node>
	<node id="-751784" lat="69.2512805523" lon="17.1137388866">
		<tag k="name" v="Mølneholtan" />
		<tag k="place" v="locality" />
		<tag k="ssr:stedsnr" v="294570" />
	</node>
	<node id="-751783" lat="69.2559166704" lon="17.1201305535">
		<tag k="name" v="Krokholtet" />
		<tag k="place" v="locality" />
		<tag k="ssr:stedsnr" v="294563" />
	</node>
	<node id="-752097" lat="69.3115638873" lon="17.169952766">
		<tag k="name" v="Stormyra" />
		<tag k="natural" v="wetland" />
		<tag k="ssr:stedsnr" v="113573" />
	</node>
	<node id="-752293" lat="69.2836805522" lon="17.0766388947">
		<tag k="name" v="Rognkallmyra" />
		<tag k="natural" v="wetland" />
		<tag k="ssr:stedsnr" v="416563" />
	</node>
	<node id="-751780" lat="69.3657166694" lon="17.083694448">
		<tag k="name" v="Håmannsura" />
		<tag k="natural" v="scree" />
		<tag k="ssr:stedsnr" v="294686" />
	</node>
	<node id="-751907" lat="69.1899972229" lon="17.0230166565">
		<tag k="name" v="Uran" />
		<tag k="natural" v="scree" />
		<tag k="ssr:stedsnr" v="476134" />
	</node>
	<node id="-751906" lat="69.2776861137" lon="17.0920055616">
		<tag k="name" v="Nefsemyra" />
		<tag k="natural" v="wetland" />
		<tag k="ssr:stedsnr" v="475506" />
	</node>
	<node id="-751899" lat="69.2975388851" lon="16.964455562">
		<tag k="name" v="Naustnesøyra" />
		<tag k="place" v="locality" />
		<tag k="ssr:stedsnr" v="475412" />
	</node>
	<node id="-752669" lat="69.2048999985" lon="17.0615777635">
		<tag k="name" v="Rundtindmyran" />
		<tag k="natural" v="wetland" />
		<tag k="ssr:stedsnr" v="806126" />
	</node>
	<node id="-752155" lat="69.289044443" lon="17.1508944334">
		<tag k="name" v="Kariura" />
		<tag k="natural" v="scree" />
		<tag k="ssr:stedsnr" v="173528" />
	</node>
	<node id="-752152" lat="69.1900138893" lon="17.0295055486">
		<tag k="name" v="Segelsteinen" />
		<tag k="natural" v="stone" />
		<tag k="ssr:stedsnr" v="173183" />
	</node>
	<node id="-751767" lat="69.2947555541" lon="16.952633339">
		<tag k="name" v="Storøyra" />
		<tag k="place" v="locality" />
		<tag k="ssr:stedsnr" v="293438" />
	</node>
	<node id="-752406" lat="69.3935999978" lon="17.1248111101">
		<tag k="name" v="Huldersteinen" />
		<tag k="natural" v="stone" />
		<tag k="ssr:stedsnr" v="537704" />
	</node>
	<node id="-751893" lat="69.2072527804" lon="16.9039888802">
		<tag k="name" v="Nakkura" />
		<tag k="natural" v="scree" />
		<tag k="ssr:stedsnr" v="475267" />
	</node>
	<node id="-752404" lat="69.3866027767" lon="17.0851749961">
		<tag k="name" v="Skarvesteinen" />
		<tag k="natural" v="stone" />
		<tag k="ssr:stedsnr" v="537693" />
	</node>
	<node id="-752146" lat="69.2900333374" lon="17.1675944424">
		<tag k="name" v="Nebbesteinen" />
		<tag k="natural" v="stone" />
		<tag k="ssr:stedsnr" v="172737" />
	</node>
	<node id="-752785" lat="69.3843416663" lon="17.0916277686">
		<tag k="name" v="Vedsteinen" />
		<tag k="natural" v="stone" />
		<tag k="ssr:stedsnr" v="901737" />
	</node>
	<node id="-751760" lat="69.2111777793" lon="16.94493333">
		<tag k="name" v="Bårsteinan" />
		<tag k="natural" v="stone" />
		<tag k="ssr:stedsnr" v="293266" />
	</node>
	<node id="-752399" lat="69.3579388859" lon="17.0908861183">
		<tag k="name" v="Sildevikmyra" />
		<tag k="natural" v="wetland" />
		<tag k="ssr:stedsnr" v="537638" />
	</node>
	<node id="-751853" lat="69.2510333305" lon="17.1456305608">
		<tag k="name" v="Jorda" />
		<tag k="place" v="locality" />
		<tag k="ssr:stedsnr" v="355486" />
	</node>
	<node id="-752396" lat="69.2914555532" lon="17.1373666631">
		<tag k="name" v="Bjørnesteinen" />
		<tag k="natural" v="stone" />
		<tag k="ssr:stedsnr" v="537552" />
	</node>
	<node id="-752139" lat="69.2784666671" lon="17.0895805432">
		<tag k="name" v="Humyra" />
		<tag k="natural" v="wetland" />
		<tag k="ssr:stedsnr" v="172539" />
	</node>
	<node id="-752521" lat="69.2071777741" lon="16.9617611191">
		<tag k="name" v="Langmyran" />
		<tag k="natural" v="wetland" />
		<tag k="ssr:stedsnr" v="657268" />
	</node>
	<node id="-751852" lat="69.3128333347" lon="17.0897444466">
		<tag k="name" v="Kongsnesholtan" />
		<tag k="place" v="locality" />
		<tag k="ssr:stedsnr" v="355468" />
	</node>
	<node id="-752771" lat="69.3183583365" lon="17.1164972259">
		<tag k="name" v="Skorsteinen" />
		<tag k="natural" v="stone" />
		<tag k="ssr:stedsnr" v="901506" />
	</node>
</osm>
