<?xml version="1.0" encoding="UTF-8"?>
<osm generator="osmapis" version="0.6">
	<node id="-752256" lat="69.3873999994" lon="17.1095972331">
		<tag k="name" v="Ballesvika" />
		<tag k="place" v="farm" />
		<tag k="ssr:stedsnr" v="263736" />
	</node>
	<node id="-752511" lat="69.3386805518" lon="17.1054944428">
		<tag k="name" v="Torsken" />
		<tag k="place" v="village" />
		<tag k="ssr:stedsnr" v="632292" />
	</node>
	<node id="-752253" lat="69.281144443" lon="16.9851249969">
		<tag k="fixme" v="consider place=hamlet" />
		<tag k="name" v="Kaldfarnes" />
		<tag k="place" v="village" />
		<tag k="ssr:stedsnr" v="261392" />
	</node>
	<node id="-752251" lat="69.3606527763" lon="17.1160888941">
		<tag k="name" v="Laberget" />
		<tag k="place" v="farm" />
		<tag k="ssr:stedsnr" v="261329" />
	</node>
	<node id="-752633" lat="69.3856361072" lon="17.1088916616">
		<tag k="name" v="Ballesvika" />
		<tag k="place" v="farm" />
		<tag k="ssr:stedsnr" v="748743" />
	</node>
	<node id="-752632" lat="69.3678027782" lon="16.9967638965">
		<tag k="name" v="Barbogen" />
		<tag k="place" v="farm" />
		<tag k="ssr:stedsnr" v="748318" />
	</node>
	<node id="-752631" lat="69.310397219" lon="17.1581083391">
		<tag k="name" v="Osteren" />
		<tag k="place" v="neighbourhood" />
		<tag k="ssr:stedsnr" v="747420" />
	</node>
	<node id="-752629" lat="69.2985472184" lon="16.9418944317">
		<tag k="name" v="Yttergården" />
		<tag k="place" v="farm" />
		<tag k="ssr:stedsnr" v="747407" />
	</node>
	<node id="-752242" lat="69.191094441" lon="17.0449999953">
		<tag k="fixme" v="consider place=hamlet" />
		<tag k="name" v="Flakstadvåg" />
		<tag k="place" v="village" />
		<tag k="ssr:stedsnr" v="260191" />
	</node>
	<node id="-752753" lat="69.3824749981" lon="17.1130833314">
		<tag k="name" v="Ballesvika" />
		<tag k="place" v="farm" />
		<tag k="ssr:stedsnr" v="870732" />
	</node>
	<node id="-752623" lat="69.3819611077" lon="17.1120416554">
		<tag k="fixme" v="consider place=hamlet" />
		<tag k="name" v="Ballesvika" />
		<tag k="place" v="village" />
		<tag k="ssr:stedsnr" v="746355" />
	</node>
	<node id="-751849" lat="69.3619722191" lon="17.0658361078">
		<tag k="name" v="Hallen" />
		<tag k="place" v="quarter" />
		<tag k="ssr:stedsnr" v="354689" />
	</node>
	<node id="-752098" lat="69.1995583323" lon="16.9038944304">
		<tag k="name" v="Årberg" />
		<tag k="place" v="isolated_dwelling" />
		<tag k="ssr:stedsnr" v="138160" />
	</node>
	<node id="-752353" lat="69.281172224" lon="17.0560833364">
		<tag k="fixme" v="consider place=hamlet" />
		<tag k="name" v="Medby" />
		<tag k="place" v="farm" />
		<tag k="ssr:stedsnr" v="504369" />
	</node>
	<node id="-752736" lat="69.2090722233" lon="16.9441472219">
		<tag k="name" v="Leikvika" />
		<tag k="place" v="hamlet" />
		<tag k="ssr:stedsnr" v="867157" />
	</node>
	<node id="-752351" lat="69.2853499993" lon="17.1477277668">
		<tag k="fixme" v="consider place=hamlet" />
		<tag k="name" v="Sifjord" />
		<tag k="place" v="village" />
		<tag k="ssr:stedsnr" v="504365" />
	</node>
	<node id="-752505" lat="69.2859722232" lon="17.0220388958">
		<tag k="name" v="Elvejorda" />
		<tag k="place" v="farm" />
		<tag k="ssr:stedsnr" v="625384" />
	</node>
	<node id="-751828" lat="69.3591250004" lon="17.0861138916">
		<tag k="name" v="Sildvik" />
		<tag k="place" v="isolated_dwelling" />
		<tag k="ssr:stedsnr" v="349304" />
	</node>
	<node id="-751824" lat="69.3626972182" lon="17.0323138922">
		<tag k="name" v="Spira" />
		<tag k="place" v="isolated_dwelling" />
		<tag k="ssr:stedsnr" v="345094" />
	</node>
	<node id="-752591" lat="69.1976833326" lon="17.1912249952">
		<tag k="name" v="Husmannsplassen" />
		<tag k="place" v="locality" />
		<tag k="ssr:stedsnr" v="718494" />
	</node>
	<node id="-752255" lat="69.2755499977" lon="17.0345777821">
		<tag k="name" v="Veidmannen" />
		<tag k="place" v="farm" />
		<tag k="ssr:stedsnr" v="263365" />
	</node>
	<node id="-751819" lat="69.2528916686" lon="17.1079805637">
		<tag k="name" v="Gjeska" />
		<tag k="place" v="farm" />
		<tag k="ssr:stedsnr" v="324383" />
	</node>
	<node id="-751818" lat="69.2756638855" lon="17.0376666572">
		<tag k="name" v="Veidmannen" />
		<tag k="place" v="farm" />
		<tag k="ssr:stedsnr" v="324336" />
	</node>
	<node id="-752200" lat="69.2364777753" lon="16.9433722194">
		<tag k="name" v="Skrivargården" />
		<tag k="place" v="locality" />
		<tag k="ssr:stedsnr" v="233249" />
	</node>
	<node id="-751814" lat="69.2810166652" lon="17.1591694381">
		<tag k="name" v="Stølen" />
		<tag k="place" v="locality" />
		<tag k="ssr:stedsnr" v="322372" />
	</node>
	<node id="-752192" lat="69.391613892" lon="17.0044944415">
		<tag k="alt_name" v="Teistvik" />
		<tag k="name" v="Teistevik" />
		<tag k="place" v="locality" />
		<tag k="ssr:stedsnr" v="225180" />
	</node>
	<node id="-751807" lat="69.3077194473" lon="17.0311527836">
		<tag k="name" v="Grunnfarnesbotn" />
		<tag k="place" v="farm" />
		<tag k="ssr:stedsnr" v="321388" />
	</node>
	<node id="-752188" lat="69.3673083352" lon="17.0018444327">
		<tag k="name" v="Barbogen" />
		<tag k="place" v="farm" />
		<tag k="ssr:stedsnr" v="203343" />
	</node>
	<node id="-752571" lat="69.2751805516" lon="17.0376388881">
		<tag k="name" v="Veidmannen" />
		<tag k="place" v="farm" />
		<tag k="ssr:stedsnr" v="688345" />
	</node>
	<node id="-752442" lat="69.3867166652" lon="17.1086361165">
		<tag k="name" v="Ballesvika" />
		<tag k="place" v="farm" />
		<tag k="ssr:stedsnr" v="566743" />
	</node>
	<node id="-752031" lat="69.2613222186" lon="17.0609888869">
		<tag k="name" v="Hulderbyen" />
		<tag k="place" v="locality" />
		<tag k="ssr:stedsnr" v="52491" />
	</node>
	<node id="-752563" lat="69.36773611" lon="17.0004833259">
		<tag k="name" v="Barbogen" />
		<tag k="place" v="hamlet" />
		<tag k="ssr:stedsnr" v="686295" />
	</node>
	<node id="-752051" lat="69.368108334" lon="16.9987222119">
		<tag k="name" v="Barbogen" />
		<tag k="place" v="farm" />
		<tag k="ssr:stedsnr" v="81336" />
	</node>
	<node id="-752432" lat="69.2804138914" lon="17.074255563">
		<tag k="name" v="Veidmannsbotn" />
		<tag k="place" v="hamlet" />
		<tag k="ssr:stedsnr" v="564390" />
	</node>
	<node id="-751931" lat="69.3184361082" lon="16.9537138921">
		<tag k="fixme" v="consider place=hamlet" />
		<tag k="name" v="Kjerringvik" />
		<tag k="place" v="farm" />
		<tag k="ssr:stedsnr" v="900392" />
	</node>
	<node id="-752813" lat="69.2732444419" lon="17.1247888881">
		<tag k="name" v="Finnes" />
		<tag k="place" v="farm" />
		<tag k="ssr:stedsnr" v="936338" />
	</node>
	<node id="-752684" lat="69.3110888847" lon="17.1356000065">
		<tag k="name" v="Toften" />
		<tag k="place" v="isolated_dwelling" />
		<tag k="ssr:stedsnr" v="807421" />
	</node>
	<node id="-752553" lat="69.1915944478" lon="17.0349194429">
		<tag k="name" v="Langslett" />
		<tag k="place" v="farm" />
		<tag k="ssr:stedsnr" v="685142" />
	</node>
	<node id="-752806" lat="69.3924888866" lon="16.9985277657">
		<tag k="name" v="Dungan" />
		<tag k="place" v="isolated_dwelling" />
		<tag k="ssr:stedsnr" v="929326" />
	</node>
	<node id="-752415" lat="69.1915666664" lon="17.0445638852">
		<tag k="name" v="Vollen" />
		<tag k="place" v="farm" />
		<tag k="ssr:stedsnr" v="563157" />
	</node>
	<node id="-752751" lat="69.302550002" lon="16.9774583351">
		<tag k="fixme" v="consider place=hamlet" />
		<tag k="name" v="Grunnfarnes" />
		<tag k="place" v="village" />
		<tag k="ssr:stedsnr" v="868427" />
	</node>
	<node id="-752791" lat="69.1896416654" lon="17.0479916529">
		<tag k="alt_name" v="Flakkstad" />
		<tag k="name" v="Flakstad" />
		<tag k="place" v="farm" />
		<tag k="ssr:stedsnr" v="928136" />
	</node>
	<node id="-752430" lat="69.2753805593" lon="17.0376777844">
		<tag k="name" v="Veidmannen" />
		<tag k="place" v="hamlet" />
		<tag k="ssr:stedsnr" v="564379" />
	</node>
	<node id="-751762" lat="69.205005553" lon="16.9369305541">
		<tag k="fixme" v="consider place=hamlet" />
		<tag k="name" v="Leikvik" />
		<tag k="place" v="farm" />
		<tag k="ssr:stedsnr" v="293309" />
	</node>
	<node id="-752655" lat="69.3242277756" lon="17.077208326">
		<tag k="name" v="Kongsnes" />
		<tag k="place" v="farm" />
		<tag k="ssr:stedsnr" v="780443" />
	</node>
	<node id="-751884" lat="69.2814250043" lon="17.0589444375">
		<tag k="fixme" v="consider place=hamlet" />
		<tag k="name" v="Medby" />
		<tag k="place" v="village" />
		<tag k="ssr:stedsnr" v="390342" />
	</node>
	<node id="-752535" lat="69.3729027816" lon="16.9141805451">
		<tag k="fixme" v="consider place=hamlet" />
		<tag k="name" v="Sandsvik" />
		<tag k="place" v="farm" />
		<tag k="ssr:stedsnr" v="658448" />
	</node>
	<node id="-751874" lat="69.3629777756" lon="17.0528638978">
		<tag k="name" v="Gryllefjord" />
		<tag k="place" v="village" />
		<tag k="ssr:stedsnr" v="382319" />
	</node>
</osm>
