<?xml version="1.0" encoding="UTF-8"?>
<osm generator="osmapis" version="0.6">
	<node id="-752638" lat="69.3813027763" lon="17.1239055614">
		<tag k="fixme" v="multiple name tags, choose one and add the other to alt_name" />
		<tag k="name" v="Ballesvikelva;Lakselva" />
		<tag k="ssr:stedsnr" v="771168" />
		<tag k="waterway" v="river" />
	</node>
	<node id="-752125" lat="69.2119333338" lon="16.9518750033">
		<tag k="name" v="Storelva" />
		<tag k="ssr:stedsnr" v="172239" />
		<tag k="waterway" v="stream" />
	</node>
	<node id="-752116" lat="69.330016669" lon="17.2774638838">
		<tag k="name" v="Litje-Ostervatnet" />
		<tag k="natural" v="water" />
		<tag k="ssr:stedsnr" v="139440" />
		<tag k="water" v="lake" />
	</node>
	<node id="-752114" lat="69.2713250023" lon="17.1386472215">
		<tag k="name" v="Halldorelva" />
		<tag k="ssr:stedsnr" v="139420" />
		<tag k="waterway" v="stream" />
	</node>
	<node id="-752625" lat="69.2711111079" lon="17.238038883">
		<tag k="name" v="Rundvatnet" />
		<tag k="natural" v="water" />
		<tag k="ssr:stedsnr" v="746393" />
	</node>
	<node id="-752108" lat="69.3816666648" lon="17.1898361206">
		<tag k="name" v="Litje-Tolevatnet" />
		<tag k="natural" v="water" />
		<tag k="ssr:stedsnr" v="139376" />
		<tag k="water" v="lake" />
	</node>
	<node id="-752616" lat="69.2015277783" lon="17.0752333228">
		<tag k="name" v="Kvændalselva" />
		<tag k="ssr:stedsnr" v="746136" />
		<tag k="waterway" v="stream" />
	</node>
	<node id="-752612" lat="69.3814888879" lon="17.1038694485">
		<tag k="name" v="Kaldelva" />
		<tag k="ssr:stedsnr" v="719694" />
		<tag k="waterway" v="stream" />
	</node>
	<node id="-752599" lat="69.247266664" lon="17.1563555408">
		<tag k="name" v="Tverrelva" />
		<tag k="ssr:stedsnr" v="719489" />
		<tag k="waterway" v="stream" />
	</node>
	<node id="-752547" lat="69.2929722211" lon="17.0605083344">
		<tag k="name" v="Åsvatnet" />
		<tag k="natural" v="water" />
		<tag k="ssr:stedsnr" v="658614" />
	</node>
	<node id="-752080" lat="69.3855750037" lon="16.9960750072">
		<tag k="name" v="Litjevatnet" />
		<tag k="natural" v="water" />
		<tag k="ssr:stedsnr" v="112460" />
	</node>
	<node id="-752589" lat="69.3008888878" lon="16.9395499942">
		<tag k="name" v="Dalelva" />
		<tag k="ssr:stedsnr" v="718419" />
		<tag k="waterway" v="stream" />
	</node>
	<node id="-752582" lat="69.1999111121" lon="17.0061361022">
		<tag k="name" v="Skarelva" />
		<tag k="ssr:stedsnr" v="718270" />
		<tag k="waterway" v="stream" />
	</node>
	<node id="-752373" lat="69.2074388917" lon="17.0219249955">
		<tag k="name" v="Trolldalselva" />
		<tag k="ssr:stedsnr" v="536272" />
		<tag k="waterway" v="stream" />
	</node>
	<node id="-752054" lat="69.3113555591" lon="17.1613777858">
		<tag k="name" v="Osterelva" />
		<tag k="ssr:stedsnr" v="81394" />
		<tag k="waterway" v="river" />
	</node>
	<node id="-752050" lat="69.3246888908" lon="17.124333335">
		<tag k="name" v="Keipvatnet" />
		<tag k="natural" v="water" />
		<tag k="ssr:stedsnr" v="79395" />
	</node>
	<node id="-752556" lat="69.3280499961" lon="17.0281750038">
		<tag k="name" v="Merraføelva" />
		<tag k="ssr:stedsnr" v="685394" />
		<tag k="waterway" v="stream" />
	</node>
	<node id="-752549" lat="69.3813138864" lon="17.1572499908">
		<tag k="name" v="Langneset" />
		<tag k="natural" v="cape" />
		<tag k="ssr:stedsnr" v="658703" />
	</node>
	<node id="-752035" lat="69.2064333363" lon="17.1909055518">
		<tag k="name" v="Nordelva" />
		<tag k="ssr:stedsnr" v="78151" />
		<tag k="waterway" v="stream" />
	</node>
	<node id="-752026" lat="69.2855500038" lon="17.1927472287">
		<tag k="name" v="Durmålselva" />
		<tag k="ssr:stedsnr" v="51725" />
		<tag k="waterway" v="stream" />
	</node>
	<node id="-752529" lat="69.2146916682" lon="17.0540861156">
		<tag k="name" v="Norddalselva" />
		<tag k="ssr:stedsnr" v="657502" />
		<tag k="waterway" v="stream" />
	</node>
	<node id="-752001" lat="69.3374777805" lon="17.2090305601">
		<tag k="name" v="Svartvatnet" />
		<tag k="natural" v="water" />
		<tag k="ssr:stedsnr" v="20338" />
		<tag k="water" v="lake" />
	</node>
	<node id="-752000" lat="69.2934305592" lon="17.140544452">
		<tag k="alt_name" v="Tindevatnet" />
		<tag k="name" v="Tindvatnet" />
		<tag k="natural" v="water" />
		<tag k="ssr:stedsnr" v="19384" />
	</node>
	<node id="-751998" lat="69.3551999968" lon="17.0379194533">
		<tag k="alt_name" v="Glervatnet" />
		<tag k="name" v="Glærvatnet" />
		<tag k="natural" v="water" />
		<tag k="ssr:stedsnr" v="19314" />
	</node>
	<node id="-752508" lat="69.3050555518" lon="17.1965805635">
		<tag k="name" v="Sør-Ostervatnet" />
		<tag k="natural" v="water" />
		<tag k="ssr:stedsnr" v="625432" />
		<tag k="water" v="lake" />
	</node>
	<node id="-752506" lat="69.293586108" lon="17.2133611035">
		<tag k="alt_name" v="Botnvatnet, l" />
		<tag k="name" v="Litje Botnvatnet" />
		<tag k="natural" v="water" />
		<tag k="ssr:stedsnr" v="625389" />
	</node>
	<node id="-751993" lat="69.2548333299" lon="17.1578166624">
		<tag k="name" v="Gjeskeelva" />
		<tag k="ssr:stedsnr" v="18355" />
		<tag k="waterway" v="river" />
	</node>
	<node id="-751983" lat="69.2273194417" lon="17.1852694313">
		<tag k="name" v="Kvænvatnet" />
		<tag k="natural" v="water" />
		<tag k="ssr:stedsnr" v="18169" />
		<tag k="water" v="lake" />
	</node>
	<node id="-752479" lat="69.3706944458" lon="17.1236027699">
		<tag k="name" v="Tolelva" />
		<tag k="ssr:stedsnr" v="597721" />
		<tag k="waterway" v="stream" />
	</node>
	<node id="-752463" lat="69.2328499995" lon="17.0330166722">
		<tag k="name" v="Lendepollvatnet" />
		<tag k="natural" v="water" />
		<tag k="ssr:stedsnr" v="597249" />
	</node>
	<node id="-752458" lat="69.1932555554" lon="17.0400583384">
		<tag k="name" v="Steintjønna" />
		<tag k="natural" v="water" />
		<tag k="ssr:stedsnr" v="597128" />
	</node>
	<node id="-752456" lat="69.2818194453" lon="17.0928333224">
		<tag k="name" v="Rødbergselva" />
		<tag k="ssr:stedsnr" v="596470" />
		<tag k="waterway" v="stream" />
	</node>
	<node id="-752454" lat="69.2742027809" lon="17.1432833419">
		<tag k="name" v="Imellaelva" />
		<tag k="ssr:stedsnr" v="596462" />
		<tag k="waterway" v="stream" />
	</node>
	<node id="-751933" lat="69.199011113" lon="16.956005545">
		<tag k="name" v="Vatnelva" />
		<tag k="ssr:stedsnr" v="892853" />
		<tag k="waterway" v="stream" />
	</node>
	<node id="-752439" lat="69.3007472256" lon="17.2926833204">
		<tag k="name" v="Bumannsvatnet" />
		<tag k="natural" v="water" />
		<tag k="ssr:stedsnr" v="564441" />
		<tag k="water" v="lake" />
	</node>
	<node id="-751924" lat="69.3809500006" lon="17.15418056">
		<tag k="name" v="Ballesvikvatnet" />
		<tag k="natural" v="water" />
		<tag k="ssr:stedsnr" v="476709" />
		<tag k="water" v="lake" />
	</node>
	<node id="-751922" lat="69.3820055539" lon="17.2004055483">
		<tag k="name" v="Tjønna" />
		<tag k="natural" v="water" />
		<tag k="ssr:stedsnr" v="476701" />
	</node>
	<node id="-752433" lat="69.2746861081" lon="17.1572750098">
		<tag k="name" v="Krokelva" />
		<tag k="ssr:stedsnr" v="564415" />
		<tag k="waterway" v="stream" />
	</node>
	<node id="-752431" lat="69.2831111148" lon="17.1998750111">
		<tag k="name" v="Durmålsvatnet" />
		<tag k="natural" v="water" />
		<tag k="ssr:stedsnr" v="564386" />
		<tag k="water" v="lake" />
	</node>
	<node id="-752427" lat="69.3785055558" lon="17.0656194453">
		<tag k="name" v="Sildevikelva" />
		<tag k="ssr:stedsnr" v="564360" />
		<tag k="waterway" v="stream" />
	</node>
	<node id="-752425" lat="69.3839749989" lon="16.9995583379">
		<tag k="name" v="Trollvatnet" />
		<tag k="natural" v="water" />
		<tag k="ssr:stedsnr" v="564356" />
	</node>
	<node id="-752416" lat="69.221622222" lon="16.9996166759">
		<tag k="name" v="Rundvatnet" />
		<tag k="natural" v="water" />
		<tag k="ssr:stedsnr" v="563182" />
	</node>
	<node id="-751900" lat="69.2741722236" lon="17.0807944322">
		<tag k="name" v="Botnvatnan" />
		<tag k="natural" v="water" />
		<tag k="ssr:stedsnr" v="475474" />
		<tag k="water" v="lake" />
	</node>
	<node id="-752412" lat="69.1971583335" lon="17.1214638793">
		<tag k="name" v="Kvændalsvatnet" />
		<tag k="natural" v="water" />
		<tag k="ssr:stedsnr" v="563139" />
	</node>
	<node id="-752400" lat="69.3609416629" lon="17.06948612">
		<tag k="name" v="Halltjønna" />
		<tag k="natural" v="water" />
		<tag k="ssr:stedsnr" v="537644" />
	</node>
	<node id="-752395" lat="69.2479861139" lon="17.1122527745">
		<tag k="name" v="Mølnelva" />
		<tag k="ssr:stedsnr" v="537531" />
		<tag k="waterway" v="stream" />
	</node>
	<node id="-752393" lat="69.2533277815" lon="17.1217333393">
		<tag k="name" v="Litjevatnet" />
		<tag k="natural" v="water" />
		<tag k="ssr:stedsnr" v="537512" />
	</node>
	<node id="-752389" lat="69.1904944424" lon="17.0348249948">
		<tag k="name" v="Kjosen" />
		<tag k="natural" v="bay" />
		<tag k="ssr:stedsnr" v="537115" />
	</node>
	<node id="-751876" lat="69.3352333339" lon="17.1845750022">
		<tag k="name" v="Skipsfjordelva" />
		<tag k="ssr:stedsnr" v="382331" />
		<tag k="waterway" v="stream" />
	</node>
	<node id="-752387" lat="69.2747805585" lon="17.0783000004">
		<tag k="name" v="Yttervatnet" />
		<tag k="natural" v="water" />
		<tag k="ssr:stedsnr" v="536467" />
	</node>
	<node id="-751867" lat="69.2245083353" lon="16.9805055577">
		<tag k="name" v="Strupvatnet" />
		<tag k="natural" v="water" />
		<tag k="ssr:stedsnr" v="381192" />
	</node>
	<node id="-751863" lat="69.2017250034" lon="16.9606249904">
		<tag k="name" v="Storvatnet" />
		<tag k="natural" v="water" />
		<tag k="ssr:stedsnr" v="381145" />
	</node>
	<node id="-751861" lat="69.3838833341" lon="17.0606610985">
		<tag k="name" v="Sildevikvatnet" />
		<tag k="natural" v="water" />
		<tag k="ssr:stedsnr" v="355690" />
	</node>
	<node id="-751858" lat="69.3137333305" lon="17.1664444497">
		<tag k="name" v="Osterfossen" />
		<tag k="natural" v="waterfall" />
		<tag k="ssr:stedsnr" v="355588" />
	</node>
	<node id="-751857" lat="69.2835777819" lon="17.1660750037">
		<tag k="name" v="Lomtjønna" />
		<tag k="natural" v="water" />
		<tag k="ssr:stedsnr" v="355551" />
	</node>
	<node id="-752356" lat="69.3336333352" lon="17.199258334">
		<tag k="fixme" v="multiple name tags, choose one and add the other to alt_name" />
		<tag k="name" v="Gamvatnet;Skipsfjordvatnet" />
		<tag k="natural" v="water" />
		<tag k="ssr:stedsnr" v="506382" />
		<tag k="water" v="lake" />
	</node>
	<node id="-752355" lat="69.2977305564" lon="17.2419166627">
		<tag k="alt_name" v="Botnvatnet, store" />
		<tag k="name" v="Store Botnvatnet" />
		<tag k="natural" v="water" />
		<tag k="ssr:stedsnr" v="504422" />
	</node>
	<node id="-751842" lat="69.1969444454" lon="17.0629694337">
		<tag k="name" v="Djupelva" />
		<tag k="ssr:stedsnr" v="354458" />
		<tag k="waterway" v="stream" />
	</node>
	<node id="-751840" lat="69.4009222265" lon="17.0388638942">
		<tag k="name" v="Skjellelva" />
		<tag k="ssr:stedsnr" v="354445" />
		<tag k="waterway" v="stream" />
	</node>
	<node id="-752348" lat="69.3849277799" lon="17.0014722123">
		<tag k="name" v="Langvatnet" />
		<tag k="natural" v="water" />
		<tag k="ssr:stedsnr" v="504344" />
	</node>
	<node id="-752340" lat="69.2603055532" lon="17.2058361122">
		<tag k="name" v="Sørvatnet" />
		<tag k="natural" v="water" />
		<tag k="ssr:stedsnr" v="503382" />
	</node>
	<node id="-752851" lat="69.3565166675" lon="17.2314472313">
		<tag k="name" v="Bingen" />
		<tag k="natural" v="water" />
		<tag k="ssr:stedsnr" v="962683" />
	</node>
	<node id="-751811" lat="69.3850361146" lon="17.1225777782">
		<tag k="name" v="Ravatnet" />
		<tag k="natural" v="water" />
		<tag k="ssr:stedsnr" v="322333" />
	</node>
	<node id="-752833" lat="69.2977388851" lon="16.9350110995">
		<tag k="name" v="Stortjønna" />
		<tag k="natural" v="water" />
		<tag k="ssr:stedsnr" v="961422" />
	</node>
	<node id="-752320" lat="69.3080583352" lon="17.0539249967">
		<tag k="name" v="Trollvatnet" />
		<tag k="natural" v="water" />
		<tag k="ssr:stedsnr" v="443448" />
	</node>
	<node id="-752784" lat="69.3328888859" lon="17.2453083254">
		<tag k="name" v="Botnvatnelva" />
		<tag k="ssr:stedsnr" v="901715" />
		<tag k="waterway" v="stream" />
	</node>
	<node id="-752318" lat="69.3191583311" lon="17.059319439">
		<tag k="alt_name" v="Litlevatnet" />
		<tag k="name" v="Litjevatnet" />
		<tag k="natural" v="water" />
		<tag k="ssr:stedsnr" v="443427" />
	</node>
	<node id="-752317" lat="69.3142611129" lon="17.0560694401">
		<tag k="name" v="Storvatnet" />
		<tag k="natural" v="water" />
		<tag k="ssr:stedsnr" v="443425" />
	</node>
	<node id="-751789" lat="69.3864361132" lon="17.1125111206">
		<tag k="name" v="Gunnartjønna" />
		<tag k="natural" v="water" />
		<tag k="ssr:stedsnr" v="294725" />
	</node>
	<node id="-752812" lat="69.2559694436" lon="17.1658861049">
		<tag k="name" v="Gjeskefossen" />
		<tag k="natural" v="waterfall" />
		<tag k="ssr:stedsnr" v="931382" />
	</node>
	<node id="-752811" lat="69.343783333" lon="17.2593416734">
		<tag k="name" v="Svartholvatnet" />
		<tag k="natural" v="water" />
		<tag k="ssr:stedsnr" v="931370" />
		<tag k="water" v="lake" />
	</node>
	<node id="-752808" lat="69.2930277762" lon="17.1685110981">
		<tag k="name" v="Hestelva" />
		<tag k="ssr:stedsnr" v="929372" />
		<tag k="waterway" v="stream" />
	</node>
	<node id="-752295" lat="69.3811055531" lon="17.2036722097">
		<tag k="name" v="Gamneset" />
		<tag k="natural" v="cape" />
		<tag k="ssr:stedsnr" v="416676" />
	</node>
	<node id="-752292" lat="69.2889333299" lon="17.1387305512">
		<tag k="name" v="Mølnelva" />
		<tag k="ssr:stedsnr" v="416553" />
		<tag k="waterway" v="stream" />
	</node>
	<node id="-752803" lat="69.3431638928" lon="17.2184111035">
		<tag k="name" v="Botnvatnet" />
		<tag k="natural" v="water" />
		<tag k="ssr:stedsnr" v="929304" />
		<tag k="water" v="lake" />
	</node>
	<node id="-751776" lat="69.3383083363" lon="17.0892249932">
		<tag k="name" v="Værneselva" />
		<tag k="ssr:stedsnr" v="294663" />
		<tag k="waterway" v="stream" />
	</node>
	<node id="-752796" lat="69.2690333361" lon="17.2096944448">
		<tag k="name" v="Langvatnet" />
		<tag k="natural" v="water" />
		<tag k="ssr:stedsnr" v="928379" />
	</node>
	<node id="-751763" lat="69.2112305536" lon="17.0118972111">
		<tag k="name" v="Trolldalsvatnet" />
		<tag k="natural" v="water" />
		<tag k="ssr:stedsnr" v="293319" />
	</node>
	<node id="-752273" lat="69.3929472217" lon="17.0146499903">
		<tag k="name" v="Hundevikelva" />
		<tag k="ssr:stedsnr" v="415467" />
		<tag k="waterway" v="stream" />
	</node>
	<node id="-752272" lat="69.3886333317" lon="17.0098388983">
		<tag k="name" v="Gårdselva" />
		<tag k="ssr:stedsnr" v="415465" />
		<tag k="waterway" v="stream" />
	</node>
	<node id="-752270" lat="69.2053388859" lon="16.9941666569">
		<tag k="name" v="Småvatnan" />
		<tag k="natural" v="water" />
		<tag k="ssr:stedsnr" v="415287" />
		<tag k="water" v="lake" />
	</node>
	<node id="-752268" lat="69.202152779" lon="16.954680554">
		<tag k="name" v="Litjevatnet" />
		<tag k="natural" v="water" />
		<tag k="ssr:stedsnr" v="415277" />
	</node>
	<node id="-752778" lat="69.2974361107" lon="17.0688110977">
		<tag k="name" v="Dalevatnan" />
		<tag k="natural" v="water" />
		<tag k="ssr:stedsnr" v="901625" />
		<tag k="water" v="lake" />
	</node>
	<node id="-752777" lat="69.2880944431" lon="17.0819527722">
		<tag k="name" v="Innerdalselva" />
		<tag k="ssr:stedsnr" v="901619" />
		<tag k="waterway" v="stream" />
	</node>
	<node id="-752321" lat="69.3088361084" lon="17.1786166743">
		<tag k="name" v="Sør-Osterelva" />
		<tag k="ssr:stedsnr" v="443451" />
		<tag k="waterway" v="river" />
	</node>
	<node id="-752254" lat="69.2884583378" lon="17.1103638796">
		<tag k="name" v="Rødbergvatnet" />
		<tag k="natural" v="water" />
		<tag k="ssr:stedsnr" v="261399" />
	</node>
	<node id="-752758" lat="69.2047027824" lon="17.0683388809">
		<tag k="name" v="Skarelva" />
		<tag k="ssr:stedsnr" v="900494" />
		<tag k="waterway" v="stream" />
	</node>
	<node id="-752243" lat="69.1951583371" lon="17.0559388805">
		<tag k="fixme" v="multiple name tags, choose one and add the other to alt_name" />
		<tag k="name" v="Flakkstadbekken;Storelva" />
		<tag k="ssr:stedsnr" v="260193" />
		<tag k="waterway" v="river" />
	</node>
	<node id="-752241" lat="69.294169444" lon="17.0523944399">
		<tag k="name" v="Dalelva" />
		<tag k="ssr:stedsnr" v="234599" />
		<tag k="waterway" v="stream" />
	</node>
	<node id="-752752" lat="69.3397888852" lon="17.0590138844">
		<tag k="name" v="Torkelnesbukta" />
		<tag k="natural" v="bay" />
		<tag k="ssr:stedsnr" v="870379" />
	</node>
	<node id="-752750" lat="69.311477782" lon="17.3138555437">
		<tag k="name" v="Langdalsvatnet" />
		<tag k="natural" v="water" />
		<tag k="ssr:stedsnr" v="868426" />
		<tag k="water" v="lake" />
	</node>
	<node id="-752749" lat="69.3233333349" lon="17.2337777846">
		<tag k="name" v="Ostervatnet" />
		<tag k="natural" v="water" />
		<tag k="ssr:stedsnr" v="868419" />
		<tag k="water" v="lake" />
	</node>
	<node id="-752220" lat="69.2664083295" lon="17.1300666635">
		<tag k="name" v="Krakelva" />
		<tag k="ssr:stedsnr" v="233519" />
		<tag k="waterway" v="stream" />
	</node>
	<node id="-752730" lat="69.3836111085" lon="17.1388444452">
		<tag k="name" v="Lomtjønnan" />
		<tag k="natural" v="water" />
		<tag k="ssr:stedsnr" v="841685" />
		<tag k="water" v="lake" />
	</node>
	<node id="-752727" lat="69.2957416656" lon="17.1632333322">
		<tag k="name" v="Hestelvvatnet" />
		<tag k="natural" v="water" />
		<tag k="ssr:stedsnr" v="841579" />
	</node>
	<node id="-752715" lat="69.2852638885" lon="17.0806638863">
		<tag k="name" v="Botnelva" />
		<tag k="ssr:stedsnr" v="840477" />
		<tag k="waterway" v="stream" />
	</node>
	<node id="-752202" lat="69.2061166705" lon="17.0238083361">
		<tag k="name" v="Stilla" />
		<tag k="natural" v="water" />
		<tag k="ssr:stedsnr" v="233304" />
		<tag k="water" v="lake" />
	</node>
	<node id="-752140" lat="69.3424944437" lon="17.1147250021">
		<tag k="name" v="Storelva" />
		<tag k="ssr:stedsnr" v="172662" />
		<tag k="waterway" v="stream" />
	</node>
	<node id="-752704" lat="69.2020055541" lon="16.9592083273">
		<tag k="name" v="Holmen" />
		<tag k="place" v="islet" />
		<tag k="ssr:stedsnr" v="840272" />
	</node>
	<node id="-752184" lat="69.2928722198" lon="17.2066638929">
		<tag k="name" v="Botnelva" />
		<tag k="ssr:stedsnr" v="201364" />
		<tag k="waterway" v="river" />
	</node>
	<node id="-752180" lat="69.2740611098" lon="17.0834777822">
		<tag k="fixme" v="multiple name tags, choose one and add the other to alt_name" />
		<tag k="name" v="Botnvatnet;Innervatnet" />
		<tag k="natural" v="water" />
		<tag k="ssr:stedsnr" v="200376" />
	</node>
	<node id="-752179" lat="69.3733555592" lon="16.9423861083">
		<tag k="name" v="Storvatnet" />
		<tag k="natural" v="water" />
		<tag k="ssr:stedsnr" v="200372" />
	</node>
	<node id="-752178" lat="69.3847722213" lon="17.0123638759">
		<tag k="name" v="Storvatnet" />
		<tag k="natural" v="water" />
		<tag k="ssr:stedsnr" v="200364" />
	</node>
	<node id="-752166" lat="69.3271805545" lon="17.2550972159">
		<tag k="name" v="Nordbukta" />
		<tag k="natural" v="bay" />
		<tag k="ssr:stedsnr" v="173650" />
	</node>
	<node id="-752165" lat="69.3201499998" lon="17.22254167">
		<tag k="name" v="Halvøya" />
		<tag k="place" v="island" />
		<tag k="ssr:stedsnr" v="173651" />
	</node>
	<node id="-752830" lat="69.291641665" lon="17.0337416704">
		<tag k="name" v="Elvejordselva" />
		<tag k="ssr:stedsnr" v="961411" />
		<tag k="waterway" v="stream" />
	</node>
	<node id="-752162" lat="69.3802666705" lon="17.112172227">
		<tag k="name" v="Holmen" />
		<tag k="place" v="islet" />
		<tag k="ssr:stedsnr" v="173678" />
	</node>
	<node id="-752671" lat="69.1946277778" lon="17.0107472202">
		<tag k="name" v="Finnelva" />
		<tag k="ssr:stedsnr" v="806138" />
		<tag k="waterway" v="stream" />
	</node>
	<node id="-752157" lat="69.3349500041" lon="17.2504694419">
		<tag k="name" v="Svartholelva" />
		<tag k="ssr:stedsnr" v="173652" />
		<tag k="waterway" v="stream" />
	</node>
	<node id="-752665" lat="69.2191722257" lon="17.0361861072">
		<tag k="name" v="Norddalsvatnet" />
		<tag k="natural" v="water" />
		<tag k="ssr:stedsnr" v="806114" />
	</node>
	<node id="-752149" lat="69.3928722245" lon="16.9922444358">
		<tag k="name" v="Steinkrysselva" />
		<tag k="ssr:stedsnr" v="173387" />
		<tag k="waterway" v="stream" />
	</node>
	<node id="-752660" lat="69.3704361154" lon="17.2029027736">
		<tag k="name" v="Tolvassbotn" />
		<tag k="natural" v="bay" />
		<tag k="ssr:stedsnr" v="780650" />
	</node>
	<node id="-752147" lat="69.3286888904" lon="17.1224722332">
		<tag k="name" v="Keipelva" />
		<tag k="ssr:stedsnr" v="172789" />
		<tag k="waterway" v="stream" />
	</node>
	<node id="-752657" lat="69.2603527802" lon="17.1409555456">
		<tag k="name" v="Kroken" />
		<tag k="natural" v="cape" />
		<tag k="ssr:stedsnr" v="780471" />
	</node>
	<node id="-752142" lat="69.3626944452" lon="17.1042361078">
		<tag k="name" v="Skarpråna" />
		<tag k="ssr:stedsnr" v="172706" />
		<tag k="waterway" v="stream" />
	</node>
	<node id="-752141" lat="69.3418999972" lon="17.0943000071">
		<tag k="name" v="Kjerkelva" />
		<tag k="ssr:stedsnr" v="172664" />
		<tag k="waterway" v="stream" />
	</node>
	<node id="-752652" lat="69.3588361149" lon="17.0824500106">
		<tag k="name" v="Sildevikvatnet" />
		<tag k="natural" v="water" />
		<tag k="ssr:stedsnr" v="779678" />
	</node>
	<node id="-752134" lat="69.3114083373" lon="17.0417277702">
		<tag k="name" v="Botnelva" />
		<tag k="ssr:stedsnr" v="172393" />
		<tag k="waterway" v="stream" />
	</node>
	<node id="-751806" lat="69.2584694407" lon="17.1326499872">
		<tag k="name" v="Storvatnet" />
		<tag k="natural" v="water" />
		<tag k="ssr:stedsnr" v="321371" />
	</node>
</osm>
