<?xml version="1.0" encoding="UTF-8"?>
<osm generator="osmapis" version="0.6">
	<node id="-571903" lat="62.3581611125" lon="6.81723611005">
		<tag k="name" v="Sandfjøra" />
		<tag k="natural" v="bay" />
		<tag k="ssr:stedsnr" v="399325" />
	</node>
	<node id="-572923" lat="62.304680552" lon="6.5371694437">
		<tag k="name" v="Fjerdevatnet" />
		<tag k="natural" v="water" />
		<tag k="ssr:stedsnr" v="801466" />
	</node>
	<node id="-572406" lat="62.2762277734" lon="6.62371388126">
		<tag k="name" v="Regndalsvatnet" />
		<tag k="natural" v="water" />
		<tag k="ssr:stedsnr" v="436247" />
	</node>
	<node id="-572404" lat="62.3819833369" lon="6.46104721348">
		<tag k="alt_name" v="Svartbekkelva" />
		<tag k="name" v="Svartebekken" />
		<tag k="ssr:stedsnr" v="436101" />
		<tag k="waterway" v="stream" />
	</node>
	<node id="-572914" lat="62.3397777792" lon="6.50249444747">
		<tag k="name" v="Storevatnet" />
		<tag k="natural" v="water" />
		<tag k="ssr:stedsnr" v="800423" />
	</node>
	<node id="-571987" lat="62.3523833345" lon="6.54879722211">
		<tag k="alt_name" v="Riksheimelva" />
		<tag k="name" v="Riksemelva" />
		<tag k="ssr:stedsnr" v="10410" />
		<tag k="waterway" v="stream" />
	</node>
	<node id="-572911" lat="62.384074996" lon="6.50768888634">
		<tag k="alt_name" v="Sæssvatna" />
		<tag k="name" v="Sætsvatna" />
		<tag k="natural" v="water" />
		<tag k="ssr:stedsnr" v="800372" />
	</node>
	<node id="-572910" lat="62.3853333356" lon="6.69648333496">
		<tag k="name" v="Tungegylgrova" />
		<tag k="ssr:stedsnr" v="800369" />
		<tag k="waterway" v="stream" />
	</node>
	<node id="-572397" lat="62.4256194474" lon="6.6813361079">
		<tag k="name" v="Furneselva" />
		<tag k="ssr:stedsnr" v="435101" />
		<tag k="waterway" v="stream" />
	</node>
	<node id="-572396" lat="62.2884583318" lon="6.67037221566">
		<tag k="name" v="Brunstadelva" />
		<tag k="ssr:stedsnr" v="266770" />
		<tag k="waterway" v="river" />
	</node>
	<node id="-571881" lat="62.3339166691" lon="6.59213055008">
		<tag k="name" v="Straumen" />
		<tag k="ssr:stedsnr" v="399193" />
		<tag k="waterway" v="river" />
	</node>
	<node id="-572392" lat="62.3847333307" lon="6.69279443736">
		<tag k="name" v="Tungegylgrova" />
		<tag k="ssr:stedsnr" v="265913" />
		<tag k="waterway" v="stream" />
	</node>
	<node id="-572898" lat="62.3548888916" lon="6.67960832446">
		<tag k="name" v="Saudegrova" />
		<tag k="ssr:stedsnr" v="799408" />
		<tag k="waterway" v="stream" />
	</node>
	<node id="-572385" lat="62.3476277761" lon="6.54190000805">
		<tag k="name" v="Dammen" />
		<tag k="natural" v="water" />
		<tag k="ssr:stedsnr" v="254400" />
	</node>
	<node id="-571872" lat="62.4229250005" lon="6.70789166383">
		<tag k="name" v="Løken" />
		<tag k="ssr:stedsnr" v="399137" />
		<tag k="waterway" v="stream" />
	</node>
	<node id="-572893" lat="62.4219805534" lon="6.62844722685">
		<tag k="name" v="Svartevatnet" />
		<tag k="natural" v="water" />
		<tag k="ssr:stedsnr" v="799071" />
	</node>
	<node id="-572380" lat="62.3143833306" lon="6.69072222046">
		<tag k="name" v="Andersgrova" />
		<tag k="ssr:stedsnr" v="254454" />
		<tag k="waterway" v="stream" />
	</node>
	<node id="-572379" lat="62.3445499993" lon="6.48069166369">
		<tag k="fixme" v="multiple name tags, choose one and add the other to alt_name" />
		<tag k="name" v="Heimstevatnet;Hunavatnet" />
		<tag k="natural" v="water" />
		<tag k="ssr:stedsnr" v="254402" />
	</node>
	<node id="-572889" lat="62.3822500038" lon="6.50385277976">
		<tag k="name" v="Fremstevatnet" />
		<tag k="natural" v="water" />
		<tag k="ssr:stedsnr" v="763375" />
		<tag k="water" v="lake" />
	</node>
	<node id="-572375" lat="62.3941444456" lon="6.46195277479">
		<tag k="name" v="Tuvatnet" />
		<tag k="natural" v="water" />
		<tag k="ssr:stedsnr" v="253107" />
	</node>
	<node id="-572886" lat="62.3365805539" lon="6.52488611943">
		<tag k="name" v="Stordepelen" />
		<tag k="place" v="locality" />
		<tag k="ssr:stedsnr" v="763348" />
	</node>
	<node id="-572372" lat="62.4342555582" lon="6.69905555441">
		<tag k="name" v="Løsetvatnet" />
		<tag k="natural" v="water" />
		<tag k="ssr:stedsnr" v="253063" />
	</node>
	<node id="-572493" lat="62.3224166695" lon="6.5940416754">
		<tag k="alt_name" v="Fetvatnet" />
		<tag k="name" v="Fitjavatnet" />
		<tag k="natural" v="water" />
		<tag k="ssr:stedsnr" v="497442" />
		<tag k="water" v="lake" />
	</node>
	<node id="-571852" lat="62.3910194429" lon="6.81119445194">
		<tag k="alt_name" v="Daleelva;Dale-elva" />
		<tag k="name" v="Ramstaddalselva" />
		<tag k="ssr:stedsnr" v="375708" />
		<tag k="waterway" v="river" />
	</node>
	<node id="-572871" lat="62.3838694448" lon="6.67977222939">
		<tag k="name" v="Nedsetergrova" />
		<tag k="ssr:stedsnr" v="763215" />
		<tag k="waterway" v="stream" />
	</node>
	<node id="-572869" lat="62.3348361138" lon="6.57900555308">
		<tag k="name" v="Kolaelva" />
		<tag k="ssr:stedsnr" v="763190" />
		<tag k="waterway" v="stream" />
	</node>
	<node id="-571843" lat="62.4257416639" lon="6.80083055287">
		<tag k="alt_name" v="Storgrova" />
		<tag k="name" v="Storfonna" />
		<tag k="old_name" v="Starfonna" />
		<tag k="ssr:stedsnr" v="374670" />
		<tag k="waterway" v="stream" />
	</node>
	<node id="-572863" lat="62.3217250033" lon="6.59104443823">
		<tag k="name" v="Veslesanden" />
		<tag k="natural" v="beach" />
		<tag k="ssr:stedsnr" v="763140" />
	</node>
	<node id="-572860" lat="62.3376111073" lon="6.76627777962">
		<tag k="name" v="Åsgrova" />
		<tag k="ssr:stedsnr" v="763111" />
		<tag k="waterway" v="stream" />
	</node>
	<node id="-572346" lat="62.3562027792" lon="6.8199833277">
		<tag k="name" v="Småholmane" />
		<tag k="natural" v="bay" />
		<tag k="ssr:stedsnr" v="218004" />
	</node>
	<node id="-572854" lat="62.3772499993" lon="6.54925000963">
		<tag k="name" v="Sæsselva" />
		<tag k="ssr:stedsnr" v="763072" />
		<tag k="waterway" v="stream" />
	</node>
	<node id="-572489" lat="62.4059999984" lon="6.81939167555">
		<tag k="name" v="Årsetvatnet" />
		<tag k="natural" v="water" />
		<tag k="ssr:stedsnr" v="496642" />
	</node>
	<node id="-571828" lat="62.3410111129" lon="6.77539721441">
		<tag k="name" v="Skinstøene" />
		<tag k="natural" v="beach" />
		<tag k="ssr:stedsnr" v="339299" />
	</node>
	<node id="-572339" lat="62.3746111081" lon="6.60479721464">
		<tag k="name" v="Tverrelva" />
		<tag k="ssr:stedsnr" v="217326" />
		<tag k="waterway" v="stream" />
	</node>
	<node id="-572333" lat="62.3229583319" lon="6.58987221711">
		<tag k="name" v="Storsteinvika" />
		<tag k="natural" v="bay" />
		<tag k="ssr:stedsnr" v="217240" />
	</node>
	<node id="-572843" lat="62.4333333359" lon="6.74867777909">
		<tag k="name" v="Søvikelva" />
		<tag k="ssr:stedsnr" v="759303" />
		<tag k="waterway" v="stream" />
	</node>
	<node id="-571818" lat="62.315886109" lon="6.61335277611">
		<tag k="name" v="Veslebryggja" />
		<tag k="natural" v="cape" />
		<tag k="ssr:stedsnr" v="339233" />
	</node>
	<node id="-572841" lat="62.3225055579" lon="6.7534194457">
		<tag k="alt_name" v="Sundalsgrova" />
		<tag k="fixme" v="multiple name tags, choose one and add the other to alt_name" />
		<tag k="name" v="Sunndalselva;Sætreelva" />
		<tag k="ssr:stedsnr" v="740502" />
		<tag k="waterway" v="stream" />
	</node>
	<node id="-572835" lat="62.4031694482" lon="6.82379723047">
		<tag k="name" v="Forsevatnet" />
		<tag k="natural" v="water" />
		<tag k="old_name" v="Fersevatnet" />
		<tag k="ssr:stedsnr" v="739639" />
	</node>
	<node id="-572318" lat="62.3578638914" lon="6.66011111305">
		<tag k="name" v="Tverrelva" />
		<tag k="ssr:stedsnr" v="217158" />
		<tag k="waterway" v="stream" />
	</node>
	<node id="-571887" lat="62.3660749988" lon="6.70345277608">
		<tag k="name" v="Stølsgrova" />
		<tag k="ssr:stedsnr" v="399214" />
		<tag k="waterway" v="stream" />
	</node>
	<node id="-572823" lat="62.4215083305" lon="6.61124722435">
		<tag k="alt_name" v="Setervatnet" />
		<tag k="name" v="Sætrevatnet" />
		<tag k="natural" v="water" />
		<tag k="ssr:stedsnr" v="739069" />
	</node>
	<node id="-571801" lat="62.3355944412" lon="6.56039722276">
		<tag k="name" v="Muskeskredene" />
		<tag k="ssr:stedsnr" v="339150" />
		<tag k="waterway" v="stream" />
	</node>
	<node id="-571796" lat="62.3695388864" lon="6.54911111581">
		<tag k="name" v="Fonnaelva" />
		<tag k="ssr:stedsnr" v="339128" />
		<tag k="waterway" v="stream" />
	</node>
	<node id="-572819" lat="62.3894222263" lon="6.51580832413">
		<tag k="name" v="Ramskartjønna" />
		<tag k="natural" v="water" />
		<tag k="ssr:stedsnr" v="703399" />
	</node>
	<node id="-572814" lat="62.3561055557" lon="6.78189721674">
		<tag k="name" v="Elvekroken" />
		<tag k="place" v="locality" />
		<tag k="ssr:stedsnr" v="703340" />
	</node>
	<node id="-572813" lat="62.3484500003" lon="6.80683610184">
		<tag k="name" v="Langeneset" />
		<tag k="natural" v="cape" />
		<tag k="ssr:stedsnr" v="703336" />
	</node>
	<node id="-572812" lat="62.3352249957" lon="6.76875555501">
		<tag k="name" v="Svarthølen" />
		<tag k="place" v="locality" />
		<tag k="ssr:stedsnr" v="703327" />
	</node>
	<node id="-572811" lat="62.3366972249" lon="6.7716583365">
		<tag k="name" v="Vassenden" />
		<tag k="natural" v="bay" />
		<tag k="ssr:stedsnr" v="703328" />
	</node>
	<node id="-572311" lat="62.3441333352" lon="6.63061110215">
		<tag k="name" v="Stilla" />
		<tag k="natural" v="water" />
		<tag k="ssr:stedsnr" v="218170" />
		<tag k="water" v="lake" />
	</node>
	<node id="-572801" lat="62.2834722183" lon="6.65114722906">
		<tag k="name" v="Bergeelva" />
		<tag k="ssr:stedsnr" v="703258" />
		<tag k="waterway" v="stream" />
	</node>
	<node id="-573112" lat="62.3354666682" lon="6.76925834075">
		<tag k="name" v="Tjønne-elva" />
		<tag k="ssr:stedsnr" v="946267" />
		<tag k="waterway" v="river" />
	</node>
	<node id="-571775" lat="62.3054833335" lon="6.51074444024">
		<tag k="name" v="Andrevatnet" />
		<tag k="natural" v="water" />
		<tag k="ssr:stedsnr" v="315464" />
	</node>
	<node id="-571774" lat="62.3031222212" lon="6.59224444178">
		<tag k="name" v="Blåbreelva" />
		<tag k="ssr:stedsnr" v="315460" />
		<tag k="waterway" v="stream" />
	</node>
	<node id="-572797" lat="62.3177333319" lon="6.71967222202">
		<tag k="name" v="Bjørnbakkfonna" />
		<tag k="ssr:stedsnr" v="703245" />
		<tag k="waterway" v="stream" />
	</node>
	<node id="-572795" lat="62.3921388886" lon="6.74011111539">
		<tag k="name" v="Melsetelva" />
		<tag k="ssr:stedsnr" v="703218" />
		<tag k="waterway" v="river" />
	</node>
	<node id="-572281" lat="62.2884472261" lon="6.76689445242">
		<tag k="name" v="Svartevatnet" />
		<tag k="natural" v="water" />
		<tag k="ssr:stedsnr" v="193610" />
	</node>
	<node id="-571767" lat="62.3558972195" lon="6.64768056094">
		<tag k="name" v="Gimsdalselva" />
		<tag k="ssr:stedsnr" v="314454" />
		<tag k="waterway" v="stream" />
	</node>
	<node id="-571761" lat="62.3931666692" lon="6.70211388487">
		<tag k="name" v="Sætregrova" />
		<tag k="ssr:stedsnr" v="314105" />
		<tag k="waterway" v="stream" />
	</node>
	<node id="-572781" lat="62.2972361067" lon="6.68811666667">
		<tag k="name" v="Kvislane" />
		<tag k="place" v="islet" />
		<tag k="ssr:stedsnr" v="703139" />
	</node>
	<node id="-572268" lat="62.4123972213" lon="6.7708472213">
		<tag k="name" v="Ivergrova" />
		<tag k="ssr:stedsnr" v="192687" />
		<tag k="waterway" v="stream" />
	</node>
	<node id="-571754" lat="62.4104333302" lon="6.64422500135">
		<tag k="name" v="Kloppegrova" />
		<tag k="ssr:stedsnr" v="278370" />
		<tag k="waterway" v="stream" />
	</node>
	<node id="-572264" lat="62.4232194454" lon="6.64541387945">
		<tag k="name" v="Grøtdalsvatna" />
		<tag k="natural" v="water" />
		<tag k="ssr:stedsnr" v="192090" />
	</node>
	<node id="-572263" lat="62.424608329" lon="6.66967499864">
		<tag k="alt_name" v="Byrkjenesgrova" />
		<tag k="name" v="Byrkjeneselva" />
		<tag k="ssr:stedsnr" v="192089" />
		<tag k="waterway" v="stream" />
	</node>
	<node id="-572774" lat="62.3376638857" lon="6.65183333442">
		<tag k="name" v="Klyfteskrea" />
		<tag k="ssr:stedsnr" v="703114" />
		<tag k="waterway" v="stream" />
	</node>
	<node id="-572772" lat="62.3769583306" lon="6.43639167597">
		<tag k="name" v="Raudåa" />
		<tag k="ssr:stedsnr" v="703081" />
		<tag k="waterway" v="stream" />
	</node>
	<node id="-572259" lat="62.3812944423" lon="6.51367777228">
		<tag k="name" v="Kald-dalselva" />
		<tag k="ssr:stedsnr" v="157334" />
		<tag k="waterway" v="stream" />
	</node>
	<node id="-572767" lat="62.4128805539" lon="6.59630554672">
		<tag k="name" v="Elvagrova" />
		<tag k="ssr:stedsnr" v="703007" />
		<tag k="waterway" v="stream" />
	</node>
	<node id="-572766" lat="62.3173027773" lon="6.61818055033">
		<tag k="name" v="Ellingfonna" />
		<tag k="ssr:stedsnr" v="703004" />
		<tag k="waterway" v="stream" />
	</node>
	<node id="-571741" lat="62.3101805547" lon="6.63297222154">
		<tag k="name" v="Dravlausfonna" />
		<tag k="ssr:stedsnr" v="278271" />
		<tag k="waterway" v="stream" />
	</node>
	<node id="-571738" lat="62.3280250037" lon="6.59532499741">
		<tag k="name" v="Stongarneset" />
		<tag k="natural" v="cape" />
		<tag k="ssr:stedsnr" v="278255" />
	</node>
	<node id="-572248" lat="62.3302388894" lon="6.76760277786">
		<tag k="name" v="Tjønneelva" />
		<tag k="ssr:stedsnr" v="157272" />
		<tag k="waterway" v="river" />
	</node>
	<node id="-572755" lat="62.2704333374" lon="6.73259445113">
		<tag k="name" v="Storevatnet" />
		<tag k="natural" v="water" />
		<tag k="ssr:stedsnr" v="679527" />
	</node>
	<node id="-572751" lat="62.3132027816" lon="6.5089861088">
		<tag k="name" v="Storevatnet" />
		<tag k="natural" v="water" />
		<tag k="ssr:stedsnr" v="679437" />
		<tag k="water" v="lake" />
	</node>
	<node id="-571726" lat="62.2977305539" lon="6.60258889751">
		<tag k="name" v="Åsvora" />
		<tag k="ssr:stedsnr" v="278178" />
		<tag k="waterway" v="stream" />
	</node>
	<node id="-572747" lat="62.3500833326" lon="6.68875277729">
		<tag k="name" v="Haugvatnet" />
		<tag k="natural" v="water" />
		<tag k="ssr:stedsnr" v="679393" />
	</node>
	<node id="-572044" lat="62.3067222194" lon="6.75698889035">
		<tag k="name" v="Myrdalselva" />
		<tag k="ssr:stedsnr" v="35245" />
		<tag k="waterway" v="river" />
	</node>
	<node id="-572735" lat="62.2430500032" lon="6.68464999952">
		<tag k="name" v="Gullmordalsvatnet" />
		<tag k="natural" v="water" />
		<tag k="ssr:stedsnr" v="678531" />
	</node>
	<node id="-571797" lat="62.3314" lon="6.65861666803">
		<tag k="name" v="Storskrea" />
		<tag k="ssr:stedsnr" v="339136" />
		<tag k="waterway" v="stream" />
	</node>
	<node id="-572216" lat="62.324291666" lon="6.61414445254">
		<tag k="name" v="Løsvora" />
		<tag k="ssr:stedsnr" v="157133" />
		<tag k="waterway" v="stream" />
	</node>
	<node id="-571702" lat="62.4409861068" lon="6.68709721789">
		<tag k="name" v="Kvernhuselva" />
		<tag k="ssr:stedsnr" v="277024" />
		<tag k="waterway" v="stream" />
	</node>
	<node id="-572722" lat="62.3851638905" lon="6.54203610834">
		<tag k="name" v="Ikornneselva" />
		<tag k="ssr:stedsnr" v="642337" />
		<tag k="waterway" v="river" />
	</node>
	<node id="-572040" lat="62.3297722223" lon="6.72790832996">
		<tag k="name" v="Sunndalsgrova" />
		<tag k="ssr:stedsnr" v="35214" />
		<tag k="waterway" v="stream" />
	</node>
	<node id="-572206" lat="62.3719388854" lon="6.81500556306">
		<tag k="name" v="Fasteingrova" />
		<tag k="ssr:stedsnr" v="157018" />
		<tag k="waterway" v="river" />
	</node>
	<node id="-572717" lat="62.3337555543" lon="6.76580000804">
		<tag k="name" v="Vesleskipet" />
		<tag k="place" v="islet" />
		<tag k="ssr:stedsnr" v="642266" />
	</node>
	<node id="-572204" lat="62.353161114" lon="6.57348333784">
		<tag k="name" v="Kloppegrova" />
		<tag k="ssr:stedsnr" v="157004" />
		<tag k="waterway" v="stream" />
	</node>
	<node id="-572202" lat="62.4183444476" lon="6.74449999963">
		<tag k="name" v="Simonskarvatnet" />
		<tag k="natural" v="water" />
		<tag k="ssr:stedsnr" v="156047" />
	</node>
	<node id="-572189" lat="62.3930361154" lon="6.77703889667">
		<tag k="fixme" v="multiple name tags, choose one and add the other to alt_name" />
		<tag k="name" v="Blådalselva;Løsetelva" />
		<tag k="ssr:stedsnr" v="132645" />
		<tag k="waterway" v="stream" />
	</node>
	<node id="-572186" lat="62.3373055573" lon="6.81898610171">
		<tag k="name" v="Raudegrova" />
		<tag k="ssr:stedsnr" v="132502" />
		<tag k="waterway" v="stream" />
	</node>
	<node id="-572184" lat="62.3367111142" lon="6.5082944485">
		<tag k="name" v="Trollvatnet" />
		<tag k="natural" v="water" />
		<tag k="ssr:stedsnr" v="132404" />
	</node>
	<node id="-572239" lat="62.3113388881" lon="6.63289722564">
		<tag k="name" v="Seljefonna" />
		<tag k="ssr:stedsnr" v="157201" />
		<tag k="waterway" v="stream" />
	</node>
	<node id="-572693" lat="62.3765750044" lon="6.65952222696">
		<tag k="name" v="Tyssdalsgrova" />
		<tag k="ssr:stedsnr" v="642162" />
		<tag k="waterway" v="stream" />
	</node>
	<node id="-572180" lat="62.3697694409" lon="6.53749445136">
		<tag k="name" v="Fonnaelva" />
		<tag k="ssr:stedsnr" v="132356" />
		<tag k="waterway" v="stream" />
	</node>
	<node id="-572691" lat="62.3129166644" lon="6.61536111094">
		<tag k="name" v="Batøyna" />
		<tag k="place" v="island" />
		<tag k="ssr:stedsnr" v="642156" />
	</node>
	<node id="-572174" lat="62.4253277802" lon="6.71696389551">
		<tag k="name" v="Litlevatnet" />
		<tag k="natural" v="water" />
		<tag k="ssr:stedsnr" v="132060" />
	</node>
	<node id="-572173" lat="62.4250972236" lon="6.61425277769">
		<tag k="alt_name" v="Kyrkjesteingrova" />
		<tag k="name" v="Kyrkjesteinsgrova" />
		<tag k="ssr:stedsnr" v="132056" />
		<tag k="waterway" v="stream" />
	</node>
	<node id="-572684" lat="62.2815805601" lon="6.65064722764">
		<tag k="name" v="Jyljane" />
		<tag k="natural" v="cape" />
		<tag k="ssr:stedsnr" v="642144" />
	</node>
	<node id="-571727" lat="62.3733944427" lon="6.60043888687">
		<tag k="name" v="Straumsdalselva" />
		<tag k="ssr:stedsnr" v="278183" />
		<tag k="waterway" v="river" />
	</node>
	<node id="-572160" lat="62.3734083304" lon="6.48799445024">
		<tag k="name" v="Svartebekkelva" />
		<tag k="ssr:stedsnr" v="96358" />
		<tag k="waterway" v="stream" />
	</node>
	<node id="-572158" lat="62.3836027819" lon="6.46326389755">
		<tag k="name" v="Storeidet" />
		<tag k="natural" v="strait" />
		<tag k="ssr:stedsnr" v="96289" />
	</node>
	<node id="-572667" lat="62.4023500035" lon="6.79270000603">
		<tag k="name" v="Hagardshølen" />
		<tag k="place" v="locality" />
		<tag k="ssr:stedsnr" v="642062" />
	</node>
	<node id="-572151" lat="62.316597223" lon="6.71519444312">
		<tag k="name" v="Krokfonna" />
		<tag k="ssr:stedsnr" v="96239" />
		<tag k="waterway" v="stream" />
	</node>
	<node id="-572146" lat="62.3547277788" lon="6.6445416601">
		<tag k="name" v="Fossane" />
		<tag k="natural" v="waterfall" />
		<tag k="ssr:stedsnr" v="96208" />
	</node>
	<node id="-572285" lat="62.308002775" lon="6.53116388367">
		<tag k="name" v="Tridjevatnet" />
		<tag k="natural" v="water" />
		<tag k="ssr:stedsnr" v="194419" />
	</node>
	<node id="-572646" lat="62.3176833319" lon="6.6603583355">
		<tag k="name" v="Langenesvatnet" />
		<tag k="natural" v="water" />
		<tag k="ssr:stedsnr" v="618452" />
		<tag k="water" v="lake" />
	</node>
	<node id="-572643" lat="62.3915555594" lon="6.72477777933">
		<tag k="name" v="Melsetvatnet" />
		<tag k="natural" v="water" />
		<tag k="ssr:stedsnr" v="617771" />
	</node>
	<node id="-572283" lat="62.4299277803" lon="6.83771945268">
		<tag k="alt_name" v="Buge-elva" />
		<tag k="name" v="Bugelva" />
		<tag k="ssr:stedsnr" v="193666" />
		<tag k="waterway" v="stream" />
	</node>
	<node id="-572127" lat="62.3456583346" lon="6.79862499331">
		<tag k="name" v="Røyrvika" />
		<tag k="natural" v="bay" />
		<tag k="ssr:stedsnr" v="96124" />
	</node>
	<node id="-572118" lat="62.4277833325" lon="6.76616665833">
		<tag k="name" v="Kvithammarligrova" />
		<tag k="ssr:stedsnr" v="95031" />
		<tag k="waterway" v="stream" />
	</node>
	<node id="-571769" lat="62.3900972235" lon="6.77910278514">
		<tag k="alt_name" v="Blådalsvatnet" />
		<tag k="name" v="Løsetvatnet" />
		<tag k="natural" v="water" />
		<tag k="ssr:stedsnr" v="314732" />
	</node>
	<node id="-572627" lat="62.3211111072" lon="6.76771944962">
		<tag k="name" v="Elvakrokane" />
		<tag k="place" v="locality" />
		<tag k="ssr:stedsnr" v="581307" />
	</node>
	<node id="-572112" lat="62.4171833334" lon="6.80256388352">
		<tag k="name" v="Svinnsetgrova" />
		<tag k="ssr:stedsnr" v="91407" />
		<tag k="waterway" v="stream" />
	</node>
	<node id="-572623" lat="62.3118916634" lon="6.60251666748">
		<tag k="name" v="Småmyrvikane" />
		<tag k="natural" v="bay" />
		<tag k="ssr:stedsnr" v="581264" />
	</node>
	<node id="-572106" lat="62.3008388922" lon="6.6157666753">
		<tag k="name" v="Velledalselva" />
		<tag k="ssr:stedsnr" v="87792" />
		<tag k="waterway" v="river" />
	</node>
	<node id="-572617" lat="62.2958138851" lon="6.71210000502">
		<tag k="name" v="Vesleelva" />
		<tag k="ssr:stedsnr" v="581239" />
		<tag k="waterway" v="stream" />
	</node>
	<node id="-572101" lat="62.3235055554" lon="6.78502500599">
		<tag k="name" v="Sætreelva" />
		<tag k="old_name" v="Sæterelva" />
		<tag k="ssr:stedsnr" v="72506" />
		<tag k="waterway" v="stream" />
	</node>
	<node id="-572612" lat="62.3541416652" lon="6.55566944884">
		<tag k="name" v="Skasvødelva" />
		<tag k="ssr:stedsnr" v="581214" />
		<tag k="waterway" v="stream" />
	</node>
	<node id="-572099" lat="62.340805558" lon="6.49568611482">
		<tag k="alt_name" v="Mellomvatnet" />
		<tag k="name" v="Mevatnet" />
		<tag k="natural" v="water" />
		<tag k="ssr:stedsnr" v="72400" />
	</node>
	<node id="-572090" lat="62.421913885" lon="6.84145556526">
		<tag k="alt_name" v="Kvangrevatnet" />
		<tag k="name" v="Ansokdalsvatnet" />
		<tag k="natural" v="water" />
		<tag k="ssr:stedsnr" v="71711" />
	</node>
	<node id="-572088" lat="62.3883500045" lon="6.50861111236">
		<tag k="name" v="Kjenglivatnet" />
		<tag k="natural" v="water" />
		<tag k="ssr:stedsnr" v="71100" />
	</node>
	<node id="-573111" lat="62.3538972198" lon="6.82863333074">
		<tag k="name" v="Orreneset" />
		<tag k="natural" v="cape" />
		<tag k="ssr:stedsnr" v="946263" />
	</node>
	<node id="-572082" lat="62.4124722182" lon="6.64749445012">
		<tag k="name" v="Kvennhusgrova" />
		<tag k="ssr:stedsnr" v="35404" />
		<tag k="waterway" v="stream" />
	</node>
	<node id="-572080" lat="62.3883277752" lon="6.61939443643">
		<tag k="name" v="Breiskargrova" />
		<tag k="ssr:stedsnr" v="35395" />
		<tag k="waterway" v="stream" />
	</node>
	<node id="-572078" lat="62.3963055552" lon="6.62341110848">
		<tag k="name" v="Storhylen" />
		<tag k="place" v="locality" />
		<tag k="ssr:stedsnr" v="35387" />
	</node>
	<node id="-572589" lat="62.4083833322" lon="6.81058610576">
		<tag k="name" v="Kråkevatna" />
		<tag k="natural" v="water" />
		<tag k="ssr:stedsnr" v="581030" />
	</node>
	<node id="-573098" lat="62.3184222209" lon="6.72238888672">
		<tag k="name" v="Remsetfonna" />
		<tag k="ssr:stedsnr" v="946185" />
		<tag k="waterway" v="stream" />
	</node>
	<node id="-571847" lat="62.3696749978" lon="6.5119388882">
		<tag k="name" v="Kalddalsvatnet" />
		<tag k="natural" v="water" />
		<tag k="ssr:stedsnr" v="375360" />
	</node>
	<node id="-572072" lat="62.3106694451" lon="6.74444165911">
		<tag k="name" v="Myrdalselva" />
		<tag k="ssr:stedsnr" v="35337" />
		<tag k="waterway" v="stream" />
	</node>
	<node id="-573094" lat="62.364697225" lon="6.70865556312">
		<tag k="name" v="Brekke-elva" />
		<tag k="ssr:stedsnr" v="946161" />
		<tag k="waterway" v="stream" />
	</node>
	<node id="-572577" lat="62.3156222193" lon="6.59400000358">
		<tag k="name" v="Ljosaelva" />
		<tag k="ssr:stedsnr" v="569747" />
		<tag k="waterway" v="stream" />
	</node>
	<node id="-573088" lat="62.3051749958" lon="6.59433888519">
		<tag k="name" v="Fossane" />
		<tag k="ssr:stedsnr" v="946139" />
		<tag k="waterway" v="rapids" />
	</node>
	<node id="-572062" lat="62.2893694484" lon="6.63575277335">
		<tag k="name" v="Regndalselva" />
		<tag k="ssr:stedsnr" v="35293" />
		<tag k="waterway" v="river" />
	</node>
	<node id="-572571" lat="62.3471388847" lon="6.7657805597">
		<tag k="alt_name" v="Tudøla" />
		<tag k="name" v="Tudalselva" />
		<tag k="ssr:stedsnr" v="557516" />
		<tag k="waterway" v="stream" />
	</node>
	<node id="-572057" lat="62.318008335" lon="6.75854999382">
		<tag k="name" v="Juene" />
		<tag k="place" v="locality" />
		<tag k="ssr:stedsnr" v="35279" />
	</node>
	<node id="-572567" lat="62.319050001" lon="6.8137861022">
		<tag k="name" v="Blådalsvatna" />
		<tag k="natural" v="water" />
		<tag k="ssr:stedsnr" v="557478" />
	</node>
	<node id="-573077" lat="62.3439611078" lon="6.78896112013">
		<tag k="name" v="Støene" />
		<tag k="natural" v="beach" />
		<tag k="ssr:stedsnr" v="946089" />
	</node>
	<node id="-572563" lat="62.3620972202" lon="6.50214721559">
		<tag k="name" v="Tussavatnet" />
		<tag k="natural" v="water" />
		<tag k="ssr:stedsnr" v="557383" />
	</node>
	<node id="-572048" lat="62.3116027767" lon="6.7145055611">
		<tag k="name" v="Skjervagrova" />
		<tag k="ssr:stedsnr" v="35255" />
		<tag k="waterway" v="stream" />
	</node>
	<node id="-572557" lat="62.3997944414" lon="6.80908055195">
		<tag k="alt_name" v="Forse-elva" />
		<tag k="name" v="Forsegrova" />
		<tag k="old_name" v="Fersegrova" />
		<tag k="ssr:stedsnr" v="556757" />
		<tag k="waterway" v="stream" />
	</node>
	<node id="-573068" lat="62.3106722243" lon="6.60589723133">
		<tag k="name" v="Svartegrova" />
		<tag k="ssr:stedsnr" v="946007" />
		<tag k="waterway" v="stream" />
	</node>
	<node id="-572554" lat="62.4180222177" lon="6.81696666198">
		<tag k="name" v="Svinnsetvatnet" />
		<tag k="natural" v="water" />
		<tag k="ssr:stedsnr" v="556691" />
	</node>
	<node id="-573065" lat="62.4188166644" lon="6.71552221612">
		<tag k="name" v="Løvollelva" />
		<tag k="ssr:stedsnr" v="945034" />
		<tag k="waterway" v="stream" />
	</node>
	<node id="-572552" lat="62.3544972218" lon="6.45735833811">
		<tag k="fixme" v="multiple name tags, choose one and add the other to alt_name" />
		<tag k="name" v="Huna;Storelva" />
		<tag k="ssr:stedsnr" v="556455" />
		<tag k="waterway" v="river" />
	</node>
	<node id="-572547" lat="62.4141527788" lon="6.64462499027">
		<tag k="name" v="Storegrova" />
		<tag k="ssr:stedsnr" v="521333" />
		<tag k="waterway" v="stream" />
	</node>
	<node id="-572034" lat="62.3558611124" lon="6.64776945279">
		<tag k="name" v="Gimsdalsfossen" />
		<tag k="natural" v="waterfall" />
		<tag k="ssr:stedsnr" v="35186" />
	</node>
	<node id="-573054" lat="62.3261222188" lon="6.81074443965">
		<tag k="alt_name" v="Vikeelva" />
		<tag k="name" v="Vikelva" />
		<tag k="ssr:stedsnr" v="922489" />
		<tag k="waterway" v="stream" />
	</node>
	<node id="-572181" lat="62.3719111098" lon="6.60883055328">
		<tag k="name" v="Vikeelva" />
		<tag k="ssr:stedsnr" v="132358" />
		<tag k="waterway" v="river" />
	</node>
	<node id="-572302" lat="62.3612833369" lon="6.77921110363">
		<tag k="name" v="Liagrova" />
		<tag k="ssr:stedsnr" v="218104" />
		<tag k="waterway" v="stream" />
	</node>
	<node id="-572023" lat="62.3465249989" lon="6.54237500535">
		<tag k="name" v="Tangen" />
		<tag k="natural" v="cape" />
		<tag k="ssr:stedsnr" v="35103" />
	</node>
	<node id="-573086" lat="62.3025472252" lon="6.63031944166">
		<tag k="name" v="Kanalen" />
		<tag k="ssr:stedsnr" v="946135" />
		<tag k="waterway" v="drain" />
	</node>
	<node id="-572526" lat="62.3285333331" lon="6.6494333361">
		<tag k="name" v="Osen" />
		<tag k="natural" v="bay" />
		<tag k="ssr:stedsnr" v="521156" />
	</node>
	<node id="-572820" lat="62.3829194443" lon="6.51314167233">
		<tag k="name" v="Heimstevatnet" />
		<tag k="natural" v="water" />
		<tag k="ssr:stedsnr" v="703403" />
		<tag k="water" v="lake" />
	</node>
	<node id="-572006" lat="62.2907583376" lon="6.59196110325">
		<tag k="name" v="Drivdalsvatnet" />
		<tag k="natural" v="water" />
		<tag k="ssr:stedsnr" v="12478" />
	</node>
	<node id="-572262" lat="62.4187027755" lon="6.60271667515">
		<tag k="alt_name" v="Bytingsgrova" />
		<tag k="name" v="Litlevatnet" />
		<tag k="natural" v="water" />
		<tag k="ssr:stedsnr" v="192085" />
	</node>
	<node id="-573022" lat="62.3536999977" lon="6.78173611003">
		<tag k="name" v="Revsdalselva" />
		<tag k="ssr:stedsnr" v="861532" />
		<tag k="waterway" v="stream" />
	</node>
	<node id="-573021" lat="62.3514805562" lon="6.81859721955">
		<tag k="name" v="Storholmen" />
		<tag k="place" v="islet" />
		<tag k="ssr:stedsnr" v="861527" />
	</node>
	<node id="-573020" lat="62.3316333366" lon="6.76425000835">
		<tag k="name" v="Sætrevatnet" />
		<tag k="natural" v="water" />
		<tag k="ssr:stedsnr" v="861490" />
	</node>
	<node id="-573019" lat="62.3300111085" lon="6.69408056339">
		<tag k="name" v="Grønevatna" />
		<tag k="natural" v="water" />
		<tag k="ssr:stedsnr" v="861408" />
	</node>
	<node id="-572386" lat="62.341955554" lon="6.80060833006">
		<tag k="name" v="Nysætervatnet" />
		<tag k="natural" v="water" />
		<tag k="ssr:stedsnr" v="254512" />
		<tag k="water" v="lake" />
	</node>
	<node id="-571989" lat="62.411486107" lon="6.7971333308">
		<tag k="name" v="Kråkegrova" />
		<tag k="ssr:stedsnr" v="10672" />
		<tag k="waterway" v="stream" />
	</node>
	<node id="-572499" lat="62.4083055523" lon="6.56851667027">
		<tag k="name" v="Fauskeelva" />
		<tag k="ssr:stedsnr" v="521010" />
		<tag k="waterway" v="stream" />
	</node>
	<node id="-572495" lat="62.303836109" lon="6.78253889837">
		<tag k="name" v="Kleivdalsvatnet" />
		<tag k="natural" v="water" />
		<tag k="ssr:stedsnr" v="497587" />
	</node>
	<node id="-572494" lat="62.3159194429" lon="6.70807223056">
		<tag k="name" v="Skjervagrova" />
		<tag k="ssr:stedsnr" v="497459" />
		<tag k="waterway" v="stream" />
	</node>
	<node id="-573005" lat="62.4098694412" lon="6.70040555568">
		<tag k="alt_name" v="Ytsteelva" />
		<tag k="name" v="Reitegrova" />
		<tag k="ssr:stedsnr" v="860141" />
		<tag k="waterway" v="stream" />
	</node>
	<node id="-573004" lat="62.4142472193" lon="6.65696389824">
		<tag k="name" v="Andestadvatnet" />
		<tag k="natural" v="water" />
		<tag k="ssr:stedsnr" v="860140" />
		<tag k="water" v="lake" />
	</node>
	<node id="-572490" lat="62.4140833289" lon="6.8211666586">
		<tag k="name" v="Svartevatnet" />
		<tag k="natural" v="water" />
		<tag k="ssr:stedsnr" v="496664" />
	</node>
	<node id="-573001" lat="62.3944222218" lon="6.60546944223">
		<tag k="name" v="Aureelva" />
		<tag k="ssr:stedsnr" v="860115" />
		<tag k="waterway" v="river" />
	</node>
	<node id="-572488" lat="62.403977782" lon="6.80676388978">
		<tag k="name" v="Årsetelva" />
		<tag k="ssr:stedsnr" v="496640" />
		<tag k="waterway" v="stream" />
	</node>
	<node id="-572485" lat="62.3417472199" lon="6.48818889497">
		<tag k="alt_name" v="Setrevatnet" />
		<tag k="loc_name" v="Hundavatnet" />
		<tag k="name" v="Litlevatnet" />
		<tag k="natural" v="water" />
		<tag k="ssr:stedsnr" v="496454" />
	</node>
	<node id="-571830" lat="62.4158250037" lon="6.66259443533">
		<tag k="name" v="Storesteinneset" />
		<tag k="natural" v="cape" />
		<tag k="ssr:stedsnr" v="339320" />
	</node>
	<node id="-572994" lat="62.3285638918" lon="6.57414999224">
		<tag k="name" v="Fossane" />
		<tag k="natural" v="waterfall" />
		<tag k="ssr:stedsnr" v="825113" />
	</node>
	<node id="-572480" lat="62.3936055579" lon="6.65033333773">
		<tag k="alt_name" v="Sunndalselva" />
		<tag k="name" v="Aurdalselva" />
		<tag k="ssr:stedsnr" v="496102" />
		<tag k="waterway" v="river" />
	</node>
	<node id="-571964" lat="62.3511833373" lon="6.80382778671">
		<tag k="name" v="Nysætervika" />
		<tag k="natural" v="bay" />
		<tag k="ssr:stedsnr" v="885303" />
	</node>
	<node id="-572473" lat="62.3481555516" lon="6.53288333102">
		<tag k="name" v="Skaragrova" />
		<tag k="ssr:stedsnr" v="460402" />
		<tag k="waterway" v="stream" />
	</node>
	<node id="-572470" lat="62.3451555595" lon="6.81044444691">
		<tag k="name" v="Støholmen" />
		<tag k="place" v="islet" />
		<tag k="ssr:stedsnr" v="460341" />
	</node>
	<node id="-572466" lat="62.3087222189" lon="6.71274722944">
		<tag k="name" v="Hauknutgrova" />
		<tag k="ssr:stedsnr" v="460314" />
		<tag k="waterway" v="stream" />
	</node>
	<node id="-571953" lat="62.313838891" lon="6.62681111213">
		<tag k="name" v="Krokfonna" />
		<tag k="ssr:stedsnr" v="885249" />
		<tag k="waterway" v="stream" />
	</node>
	<node id="-571947" lat="62.3796527799" lon="6.62311389163">
		<tag k="name" v="Tverrelva" />
		<tag k="ssr:stedsnr" v="885182" />
		<tag k="waterway" v="stream" />
	</node>
	<node id="-572970" lat="62.3242500033" lon="6.65602222207">
		<tag k="name" v="Langeneset" />
		<tag k="natural" v="cape" />
		<tag k="ssr:stedsnr" v="824285" />
	</node>
	<node id="-571944" lat="62.3490527766" lon="6.63224999902">
		<tag k="name" v="Fossane" />
		<tag k="ssr:stedsnr" v="885173" />
		<tag k="waterway" v="rapids" />
	</node>
	<node id="-571750" lat="62.3627027758" lon="6.77234166481">
		<tag k="name" v="Veslegrova" />
		<tag k="ssr:stedsnr" v="278339" />
		<tag k="waterway" v="stream" />
	</node>
	<node id="-572953" lat="62.3930250021" lon="6.66714166043">
		<tag k="name" v="Ulldalsgrova" />
		<tag k="ssr:stedsnr" v="824214" />
		<tag k="waterway" v="stream" />
	</node>
	<node id="-572439" lat="62.3352805543" lon="6.65373333772">
		<tag k="name" v="Sankarskrea" />
		<tag k="ssr:stedsnr" v="460155" />
		<tag k="waterway" v="stream" />
	</node>
	<node id="-572950" lat="62.3435944429" lon="6.56383054894">
		<tag k="name" v="Snippegrova" />
		<tag k="ssr:stedsnr" v="824182" />
		<tag k="waterway" v="stream" />
	</node>
	<node id="-572437" lat="62.3620694403" lon="6.7670972154">
		<tag k="name" v="Løkane" />
		<tag k="ssr:stedsnr" v="460141" />
		<tag k="waterway" v="stream" />
	</node>
	<node id="-572947" lat="62.3340277791" lon="6.55981111548">
		<tag k="name" v="Ellingstreka" />
		<tag k="ssr:stedsnr" v="824164" />
		<tag k="waterway" v="stream" />
	</node>
	<node id="-572945" lat="62.4116777735" lon="6.78495832421">
		<tag k="name" v="Holane" />
		<tag k="natural" v="cape" />
		<tag k="ssr:stedsnr" v="824157" />
	</node>
	<node id="-572672" lat="62.3328944438" lon="6.52197222576">
		<tag k="name" v="Rugga" />
		<tag k="ssr:stedsnr" v="642078" />
		<tag k="waterway" v="river" />
	</node>
	<node id="-572425" lat="62.4357722205" lon="6.69506389545">
		<tag k="name" v="Mjeltholmen" />
		<tag k="place" v="islet" />
		<tag k="ssr:stedsnr" v="460053" />
	</node>
	<node id="-571912" lat="62.3401861146" lon="6.533144443">
		<tag k="name" v="Matavatnet" />
		<tag k="natural" v="water" />
		<tag k="ssr:stedsnr" v="399376" />
	</node>
	<node id="-572935" lat="62.4342194475" lon="6.6968500037">
		<tag k="name" v="Lausholmen" />
		<tag k="place" v="islet" />
		<tag k="ssr:stedsnr" v="824060" />
	</node>
	<node id="-572933" lat="62.4183972205" lon="6.67553611985">
		<tag k="name" v="Andestadstranda" />
		<tag k="natural" v="beach" />
		<tag k="ssr:stedsnr" v="824053" />
	</node>
	<node id="-572420" lat="62.3407805593" lon="6.54311388402">
		<tag k="name" v="Fonnagrova" />
		<tag k="ssr:stedsnr" v="460016" />
		<tag k="waterway" v="stream" />
	</node>
	<node id="-572930" lat="62.4270805529" lon="6.87323333091">
		<tag k="name" v="Plittegrova" />
		<tag k="ssr:stedsnr" v="824035" />
		<tag k="waterway" v="stream" />
	</node>
	<node id="-572331" lat="62.3498083297" lon="6.72459166177">
		<tag k="name" v="Sunndalselva" />
		<tag k="ssr:stedsnr" v="217221" />
		<tag k="waterway" v="river" />
	</node>
</osm>
