<?xml version="1.0" encoding="UTF-8"?>
<osm generator="osmapis" version="0.6">
	<node id="-573440" lat="62.397658335" lon="6.61061389403">
		<tag k="loc_name" v="Grebstad" />
		<tag k="name" v="Grefstad" />
		<tag k="place" v="farm" />
		<tag k="ssr:stedsnr" v="576435" />
	</node>
	<node id="-573950" lat="62.3641277792" lon="6.614594449">
		<tag k="name" v="Pegjerdet" />
		<tag k="place" v="locality" />
		<tag k="ssr:stedsnr" v="946146" />
	</node>
	<node id="-573437" lat="62.3667499967" lon="6.42422500359">
		<tag k="fixme" v="consider place=hamlet" />
		<tag k="name" v="Hundeidvik" />
		<tag k="place" v="village" />
		<tag k="ssr:stedsnr" v="571796" />
	</node>
	<node id="-573434" lat="62.3540833304" lon="6.83622500705">
		<tag k="name" v="Orreneset" />
		<tag k="place" v="isolated_dwelling" />
		<tag k="ssr:stedsnr" v="568932" />
	</node>
	<node id="-573433" lat="62.422747226" lon="6.61343333815">
		<tag k="alt_name" v="Vass-setra" />
		<tag k="historic" v="shieling" />
		<tag k="name" v="Vassætra" />
		<tag k="place" v="locality" />
		<tag k="ssr:stedsnr" v="566171" />
	</node>
	<node id="-573865" lat="62.3554183524" lon="6.57478844896">
		<tag k="alt_name" v="Riksheim;Rikseim" />
		<tag k="fixme" v="consider place=hamlet" />
		<tag k="name" v="Riksem" />
		<tag k="place" v="farm" />
		<tag k="ssr:stedsnr" v="860474" />
	</node>
	<node id="-573428" lat="62.3280021746" lon="6.77539561414">
		<tag k="alt_name" v="Fetstølen" />
		<tag k="historic" v="shieling" />
		<tag k="name" v="Fitjastølen" />
		<tag k="place" v="locality" />
		<tag k="ssr:stedsnr" v="557506" />
	</node>
	<node id="-573427" lat="62.3309694466" lon="6.76319721409">
		<tag k="alt_name" v="Drabløsstølen" />
		<tag k="historic" v="shieling" />
		<tag k="name" v="Dravlausstølen" />
		<tag k="place" v="locality" />
		<tag k="ssr:stedsnr" v="557494" />
	</node>
	<node id="-573425" lat="62.3087440993" lon="6.61603201312">
		<tag k="alt_name" v="Fit" />
		<tag k="fixme" v="consider place=hamlet" />
		<tag k="name" v="Fet" />
		<tag k="place" v="farm" />
		<tag k="ssr:stedsnr" v="557451" />
	</node>
	<node id="-572912" lat="62.3866333323" lon="6.53987499522">
		<tag k="name" v="Åsen" />
		<tag k="place" v="farm" />
		<tag k="ssr:stedsnr" v="35267" />
	</node>
	<node id="-572911" lat="62.2828416645" lon="6.63031111424">
		<tag k="name" v="Gamlesetra" />
		<tag k="place" v="locality" />
		<tag k="ssr:stedsnr" v="35265" />
	</node>
	<node id="-572910" lat="62.3732771566" lon="6.42904915396">
		<tag k="alt_name" v="Utgård" />
		<tag k="fixme" v="consider place=hamlet" />
		<tag k="name" v="Utgården" />
		<tag k="place" v="farm" />
		<tag k="ssr:stedsnr" v="35263" />
	</node>
	<node id="-573421" lat="62.3723222221" lon="6.68739443815">
		<tag k="alt_name" v="Eidemsetra" />
		<tag k="historic" v="shieling" />
		<tag k="name" v="Eideimsstølen" />
		<tag k="place" v="locality" />
		<tag k="ssr:stedsnr" v="557381" />
	</node>
	<node id="-573420" lat="62.3713388893" lon="6.51412223126">
		<tag k="alt_name" v="Kalddalssætra" />
		<tag k="historic" v="shieling" />
		<tag k="name" v="Kalddalsstølen" />
		<tag k="place" v="locality" />
		<tag k="ssr:stedsnr" v="557363" />
	</node>
	<node id="-572906" lat="62.4093083351" lon="6.57014722513">
		<tag k="name" v="Stølane" />
		<tag k="place" v="farm" />
		<tag k="ssr:stedsnr" v="35250" />
	</node>
	<node id="-572905" lat="62.3624444426" lon="6.55698332981">
		<tag k="name" v="Reiten" />
		<tag k="place" v="farm" />
		<tag k="ssr:stedsnr" v="35248" />
	</node>
	<node id="-573415" lat="62.4254374758" lon="6.77567260321">
		<tag k="fixme" v="consider place=hamlet" />
		<tag k="name" v="Klokk" />
		<tag k="place" v="farm" />
		<tag k="ssr:stedsnr" v="556702" />
	</node>
	<node id="-573412" lat="62.4077058301" lon="6.78151207903">
		<tag k="fixme" v="consider place=hamlet" />
		<tag k="name" v="Løset" />
		<tag k="place" v="farm" />
		<tag k="ssr:stedsnr" v="556656" />
	</node>
	<node id="-573862" lat="62.4098416663" lon="6.56386944825">
		<tag k="name" v="Lassegjerdet" />
		<tag k="place" v="farm" />
		<tag k="ssr:stedsnr" v="860136" />
	</node>
	<node id="-573410" lat="62.3979256346" lon="6.60299124325">
		<tag k="alt_name" v="Grefstad" />
		<tag k="fixme" v="consider place=hamlet" />
		<tag k="name" v="Grepstad" />
		<tag k="place" v="farm" />
		<tag k="ssr:stedsnr" v="556111" />
	</node>
	<node id="-573409" lat="62.4220833162" lon="6.70213619935">
		<tag k="fixme" v="consider place=hamlet" />
		<tag k="name" v="Furneset" />
		<tag k="place" v="farm" />
		<tag k="ssr:stedsnr" v="556082" />
	</node>
	<node id="-573861" lat="62.3930807453" lon="6.62812167569">
		<tag k="fixme" v="consider place=hamlet" />
		<tag k="name" v="Haugset" />
		<tag k="place" v="farm" />
		<tag k="ssr:stedsnr" v="860118" />
	</node>
	<node id="-573404" lat="62.3804472186" lon="6.4135138811">
		<tag k="name" v="Steinaplassen" />
		<tag k="place" v="farm" />
		<tag k="ssr:stedsnr" v="521238" />
	</node>
	<node id="-573398" lat="62.3779944438" lon="6.4212527788">
		<tag k="name" v="Hagen" />
		<tag k="place" v="farm" />
		<tag k="ssr:stedsnr" v="521208" />
	</node>
	<node id="-573396" lat="62.4342917237" lon="6.74727316688">
		<tag k="fixme" v="consider place=hamlet" />
		<tag k="name" v="Nedre Søvik" />
		<tag k="place" v="farm" />
		<tag k="ssr:stedsnr" v="521203" />
	</node>
	<node id="-573395" lat="62.4331313109" lon="6.74423686194">
		<tag k="fixme" v="consider place=hamlet" />
		<tag k="name" v="Øvre Søvik" />
		<tag k="place" v="farm" />
		<tag k="ssr:stedsnr" v="521201" />
	</node>
	<node id="-573394" lat="62.3949255635" lon="6.59039259152">
		<tag k="name" v="Aure" />
		<tag k="place" v="farm" />
		<tag k="ssr:stedsnr" v="521199" />
	</node>
	<node id="-573904" lat="62.3698609041" lon="6.42704418547">
		<tag k="alt_name" v="Midgard;Midgarden" />
		<tag k="fixme" v="consider place=hamlet" />
		<tag k="name" v="Megarden" />
		<tag k="place" v="farm" />
		<tag k="ssr:stedsnr" v="921410" />
	</node>
	<node id="-573903" lat="62.2713749983" lon="6.6901055637">
		<tag k="historic" v="shieling" />
		<tag k="name" v="Brunstadsætra" />
		<tag k="place" v="locality" />
		<tag k="ssr:stedsnr" v="921281" />
	</node>
	<node id="-572749" lat="62.4222833362" lon="6.78347499991">
		<tag k="name" v="Dalheim" />
		<tag k="place" v="farm" />
		<tag k="ssr:stedsnr" v="399249" />
	</node>
	<node id="-573900" lat="62.4087334928" lon="6.64357859292">
		<tag k="fixme" v="consider place=hamlet" />
		<tag k="name" v="Andestad" />
		<tag k="place" v="farm" />
		<tag k="ssr:stedsnr" v="921115" />
	</node>
	<node id="-573858" lat="62.4215254651" lon="6.71133700514">
		<tag k="fixme" v="consider place=hamlet" />
		<tag k="name" v="Løvollen" />
		<tag k="place" v="farm" />
		<tag k="ssr:stedsnr" v="860086" />
	</node>
	<node id="-573897" lat="62.377580556" lon="6.46728054798">
		<tag k="alt_name" v="Utgardsetra" />
		<tag k="historic" v="shieling" />
		<tag k="name" v="Utgardsætra" />
		<tag k="place" v="locality" />
		<tag k="ssr:stedsnr" v="921100" />
	</node>
	<node id="-573896" lat="62.3990220695" lon="6.61653268506">
		<tag k="fixme" v="consider place=hamlet" />
		<tag k="loc_name" v="Eideim" />
		<tag k="name" v="Eidem" />
		<tag k="place" v="farm" />
		<tag k="ssr:stedsnr" v="921082" />
	</node>
	<node id="-573894" lat="62.3565499958" lon="6.44837221933">
		<tag k="historic" v="shieling" />
		<tag k="name" v="Ålen" />
		<tag k="place" v="locality" />
		<tag k="ssr:stedsnr" v="920379" />
	</node>
	<node id="-573892" lat="62.3990944416" lon="6.58996110319">
		<tag k="name" v="Kagholen" />
		<tag k="place" v="isolated_dwelling" />
		<tag k="ssr:stedsnr" v="901627" />
	</node>
	<node id="-573890" lat="62.3553527739" lon="6.44001666128">
		<tag k="historic" v="shieling" />
		<tag k="loc_name" v="Ålsætra" />
		<tag k="name" v="Gamleålen" />
		<tag k="place" v="locality" />
		<tag k="ssr:stedsnr" v="880520" />
	</node>
	<node id="-573771" lat="62.3873416681" lon="6.68216388454">
		<tag k="alt_name" v="Aurdalsetra" />
		<tag k="historic" v="shieling" />
		<tag k="name" v="Aurdalssætra" />
		<tag k="place" v="locality" />
		<tag k="ssr:stedsnr" v="800371" />
	</node>
	<node id="-572864" lat="62.3973749967" lon="6.80031666083">
		<tag k="historic" v="shieling" />
		<tag k="name" v="Årsetsætra" />
		<tag k="place" v="locality" />
		<tag k="ssr:stedsnr" v="11743" />
	</node>
	<node id="-573600" lat="62.3723527805" lon="6.82394445266">
		<tag k="name" v="Fastein" />
		<tag k="place" v="locality" />
		<tag k="ssr:stedsnr" v="678698" />
	</node>
	<node id="-572860" lat="62.3294599779" lon="6.5987845462">
		<tag k="fixme" v="consider place=hamlet" />
		<tag k="name" v="Straume" />
		<tag k="place" v="farm" />
		<tag k="ssr:stedsnr" v="11436" />
	</node>
	<node id="-572858" lat="62.3684936002" lon="6.57243717332">
		<tag k="fixme" v="consider place=hamlet" />
		<tag k="name" v="Tjønes" />
		<tag k="place" v="farm" />
		<tag k="ssr:stedsnr" v="11399" />
	</node>
	<node id="-572856" lat="62.3816837013" lon="6.57882961289">
		<tag k="fixme" v="consider place=hamlet" />
		<tag k="name" v="Vik" />
		<tag k="place" v="farm" />
		<tag k="ssr:stedsnr" v="11389" />
	</node>
	<node id="-573877" lat="62.335094004" lon="6.59361565782">
		<tag k="name" v="Straumgjerde" />
		<tag k="place" v="village" />
		<tag k="ssr:stedsnr" v="861404" />
	</node>
	<node id="-572852" lat="62.4062361832" lon="6.58157463284">
		<tag k="fixme" v="consider place=hamlet" />
		<tag k="name" v="Åsen" />
		<tag k="place" v="farm" />
		<tag k="ssr:stedsnr" v="11104" />
	</node>
	<node id="-572851" lat="62.3989375068" lon="6.50682444036">
		<tag k="fixme" v="consider place=hamlet" />
		<tag k="name" v="Blakstad" />
		<tag k="place" v="farm" />
		<tag k="ssr:stedsnr" v="11102" />
	</node>
	<node id="-572850" lat="62.3951416676" lon="6.449827779">
		<tag k="alt_name" v="Langholen" />
		<tag k="name" v="Langhol" />
		<tag k="place" v="farm" />
		<tag k="ssr:stedsnr" v="11098" />
	</node>
	<node id="-572849" lat="62.4494716844" lon="6.70187668526">
		<tag k="fixme" v="consider place=hamlet" />
		<tag k="name" v="Furstranda" />
		<tag k="place" v="farm" />
		<tag k="ssr:stedsnr" v="11032" />
	</node>
	<node id="-573872" lat="62.3868465438" lon="6.58401988065">
		<tag k="fixme" v="consider place=hamlet" />
		<tag k="name" v="Nakkegjerdet" />
		<tag k="place" v="farm" />
		<tag k="ssr:stedsnr" v="861353" />
	</node>
	<node id="-573359" lat="62.3787722192" lon="6.5849111029">
		<tag k="name" v="Heimstelegene" />
		<tag k="place" v="locality" />
		<tag k="ssr:stedsnr" v="521019" />
	</node>
	<node id="-573870" lat="62.3805304451" lon="6.41570211698">
		<tag k="fixme" v="consider place=hamlet" />
		<tag k="name" v="Kursetgjerdet" />
		<tag k="place" v="farm" />
		<tag k="ssr:stedsnr" v="861104" />
	</node>
	<node id="-572845" lat="62.4416830451" lon="6.67318086893">
		<tag k="fixme" v="consider place=hamlet" />
		<tag k="name" v="Bjørnavika" />
		<tag k="place" v="farm" />
		<tag k="ssr:stedsnr" v="10088" />
	</node>
	<node id="-572844" lat="62.4300427421" lon="6.60604450831">
		<tag k="name" v="Kyrkjesteinen" />
		<tag k="place" v="locality" />
		<tag k="ssr:stedsnr" v="10066" />
	</node>
	<node id="-573867" lat="62.4166908407" lon="6.79076942636">
		<tag k="fixme" v="consider place=hamlet" />
		<tag k="name" v="Svinnset" />
		<tag k="place" v="farm" />
		<tag k="ssr:stedsnr" v="860699" />
	</node>
	<node id="-572841" lat="62.3425219983" lon="6.5750362062">
		<tag k="alt_name" v="Riksheimgjerdet" />
		<tag k="name" v="Riksemgjerdet" />
		<tag k="place" v="farm" />
		<tag k="ssr:stedsnr" v="989167" />
	</node>
	<node id="-572840" lat="62.3554059676" lon="6.57343190366">
		<tag k="alt_name" v="Riksheim" />
		<tag k="name" v="Riksem" />
		<tag k="place" v="farm" />
		<tag k="ssr:stedsnr" v="989166" />
	</node>
	<node id="-573351" lat="62.3955472205" lon="6.77349443754">
		<tag k="historic" v="shieling" />
		<tag k="name" v="Løsetsætra" />
		<tag k="place" v="locality" />
		<tag k="ssr:stedsnr" v="496743" />
	</node>
	<node id="-572838" lat="62.3765417344" lon="6.57385311245">
		<tag k="alt_name" v="Blindem" />
		<tag k="fixme" v="consider place=hamlet" />
		<tag k="name" v="Blindheim" />
		<tag k="place" v="farm" />
		<tag k="ssr:stedsnr" v="983659" />
	</node>
	<node id="-572837" lat="62.3888689681" lon="6.57808458048">
		<tag k="fixme" v="consider place=hamlet" />
		<tag k="name" v="Klokkarhaugen" />
		<tag k="place" v="farm" />
		<tag k="ssr:stedsnr" v="983658" />
	</node>
	<node id="-573346" lat="62.3417865426" lon="6.59087116549">
		<tag k="alt_name" v="Tannstad, indre;Indre Tandstad" />
		<tag k="fixme" v="consider place=hamlet" />
		<tag k="name" v="Indre Tannstad" />
		<tag k="place" v="farm" />
		<tag k="ssr:stedsnr" v="496475" />
	</node>
	<node id="-573345" lat="62.3511495151" lon="6.58666960493">
		<tag k="alt_name" v="Tannstad, ytre;Ytre Tandstad" />
		<tag k="fixme" v="consider place=hamlet" />
		<tag k="name" v="Ytre Tannstad" />
		<tag k="place" v="farm" />
		<tag k="ssr:stedsnr" v="496463" />
	</node>
	<node id="-573342" lat="62.3771738856" lon="6.43006552183">
		<tag k="fixme" v="consider place=hamlet" />
		<tag k="name" v="Myrset" />
		<tag k="place" v="farm" />
		<tag k="ssr:stedsnr" v="496416" />
	</node>
	<node id="-573338" lat="62.3914500014" lon="6.57952778532">
		<tag k="fixme" v="consider place=suburb, village or hamlet" />
		<tag k="name" v="Aure" />
		<tag k="place" v="quarter" />
		<tag k="ssr:stedsnr" v="496101" />
	</node>
	<node id="-573336" lat="62.3974261109" lon="6.63657579773">
		<tag k="fixme" v="consider place=hamlet" />
		<tag k="name" v="Kjemphol" />
		<tag k="place" v="farm" />
		<tag k="ssr:stedsnr" v="496090" />
	</node>
	<node id="-573764" lat="62.411877777" lon="6.6309000094">
		<tag k="name" v="Lysholsætra" />
		<tag k="place" v="locality" />
		<tag k="ssr:stedsnr" v="800105" />
	</node>
	<node id="-572820" lat="62.3892527812" lon="6.42593332432">
		<tag k="name" v="Kursetsetra" />
		<tag k="place" v="locality" />
		<tag k="ssr:stedsnr" v="885279" />
	</node>
	<node id="-573843" lat="62.3837861079" lon="6.4864027856">
		<tag k="name" v="Hovdestølen" />
		<tag k="place" v="isolated_dwelling" />
		<tag k="ssr:stedsnr" v="824378" />
	</node>
	<node id="-573330" lat="62.4077965272" lon="6.56509881088">
		<tag k="fixme" v="consider place=hamlet" />
		<tag k="name" v="Ytre Fauske" />
		<tag k="place" v="farm" />
		<tag k="ssr:stedsnr" v="460365" />
	</node>
	<node id="-573838" lat="62.3801361122" lon="6.60091945028">
		<tag k="name" v="Gamlesætra" />
		<tag k="place" v="locality" />
		<tag k="ssr:stedsnr" v="824350" />
	</node>
	<node id="-573324" lat="62.3642722215" lon="6.41245276906">
		<tag k="name" v="Giskeplassen" />
		<tag k="place" v="farm" />
		<tag k="ssr:stedsnr" v="460308" />
	</node>
	<node id="-573322" lat="62.2916500028" lon="6.64577777189">
		<tag k="amenity" v="school" />
		<tag k="name" v="Velledalen skule" />
		<tag k="ssr:stedsnr" v="460305" />
	</node>
	<node id="-573932" lat="62.3758500022" lon="6.63171943985">
		<tag k="name" v="Åsætra" />
		<tag k="place" v="locality" />
		<tag k="ssr:stedsnr" v="946057" />
	</node>
	<node id="-573824" lat="62.3927000046" lon="6.60043055899">
		<tag k="name" v="Nyborg" />
		<tag k="place" v="farm" />
		<tag k="ssr:stedsnr" v="824277" />
	</node>
	<node id="-573821" lat="62.4000444466" lon="6.50088888745">
		<tag k="name" v="Ytreberg" />
		<tag k="place" v="farm" />
		<tag k="ssr:stedsnr" v="824263" />
	</node>
	<node id="-573820" lat="62.280544443" lon="6.62356388815">
		<tag k="name" v="Regndalssetra" />
		<tag k="place" v="locality" />
		<tag k="ssr:stedsnr" v="824262" />
	</node>
	<node id="-572839" lat="62.3551487274" lon="6.57477055958">
		<tag k="alt_name" v="Riksheim" />
		<tag k="name" v="Riksem" />
		<tag k="place" v="farm" />
		<tag k="ssr:stedsnr" v="989165" />
	</node>
	<node id="-573816" lat="62.3526222238" lon="6.57367778288">
		<tag k="alt_name" v="Løkplassen" />
		<tag k="name" v="Løkane" />
		<tag k="place" v="farm" />
		<tag k="ssr:stedsnr" v="824254" />
	</node>
	<node id="-573299" lat="62.4257055552" lon="6.68505554968">
		<tag k="barrier" v="fence" />
		<tag k="name" v="Hagarden" />
		<tag k="ssr:stedsnr" v="460157" />
	</node>
	<node id="-572818" lat="62.3842975042" lon="6.4111784968">
		<tag k="name" v="Nedre Kurset" />
		<tag k="place" v="farm" />
		<tag k="ssr:stedsnr" v="885262" />
	</node>
	<node id="-573800" lat="62.3982777752" lon="6.51697221979">
		<tag k="name" v="Ishuset" />
		<tag k="place" v="locality" />
		<tag k="ssr:stedsnr" v="824123" />
	</node>
	<node id="-573285" lat="62.4172694483" lon="6.78625555796">
		<tag k="amenity" v="school" />
		<tag k="name" v="Ramstaddal skule" />
		<tag k="ssr:stedsnr" v="460061" />
	</node>
	<node id="-572772" lat="62.3526250016" lon="6.46184166682">
		<tag k="name" v="Heimsetra" />
		<tag k="place" v="locality" />
		<tag k="ssr:stedsnr" v="399379" />
	</node>
	<node id="-573962" lat="62.2936361101" lon="6.63804167605">
		<tag k="alt_name" v="Odde-Brauta" />
		<tag k="name" v="Brauta" />
		<tag k="place" v="farm" />
		<tag k="ssr:stedsnr" v="946205" />
	</node>
	<node id="-573785" lat="62.3845611069" lon="6.66561111863">
		<tag k="name" v="Grepstadstølen" />
		<tag k="place" v="neighbourhood" />
		<tag k="ssr:stedsnr" v="811910" />
	</node>
	<node id="-573271" lat="62.3098813318" lon="6.71691070838">
		<tag k="alt_name" v="La" />
		<tag k="fixme" v="consider place=hamlet" />
		<tag k="name" v="Lade" />
		<tag k="place" v="farm" />
		<tag k="ssr:stedsnr" v="436449" />
	</node>
	<node id="-573270" lat="62.3428722202" lon="6.5380583312">
		<tag k="alt_name" v="Riksheimsetra" />
		<tag k="historic" v="shieling" />
		<tag k="name" v="Riksemsætra" />
		<tag k="place" v="locality" />
		<tag k="ssr:stedsnr" v="436407" />
	</node>
	<node id="-573269" lat="62.3458527784" lon="6.62317500799">
		<tag k="name" v="Hindaholen" />
		<tag k="place" v="isolated_dwelling" />
		<tag k="ssr:stedsnr" v="436404" />
	</node>
	<node id="-573267" lat="62.3700388921" lon="6.60954167411">
		<tag k="alt_name" v="Tynessetra" />
		<tag k="historic" v="shieling" />
		<tag k="name" v="Tjønessætra" />
		<tag k="place" v="locality" />
		<tag k="ssr:stedsnr" v="436371" />
	</node>
	<node id="-573775" lat="62.3287694403" lon="6.64943612107">
		<tag k="name" v="Langenessætra" />
		<tag k="place" v="isolated_dwelling" />
		<tag k="ssr:stedsnr" v="800437" />
	</node>
	<node id="-573262" lat="62.3827005097" lon="6.41308564676">
		<tag k="fixme" v="consider place=hamlet" />
		<tag k="name" v="Kurset" />
		<tag k="place" v="farm" />
		<tag k="ssr:stedsnr" v="436100" />
	</node>
	<node id="-573261" lat="62.3967280884" lon="6.6498607995">
		<tag k="fixme" v="consider place=hamlet" />
		<tag k="name" v="Aurdal" />
		<tag k="place" v="farm" />
		<tag k="ssr:stedsnr" v="436099" />
	</node>
	<node id="-573260" lat="62.389645895" lon="6.44590664258">
		<tag k="alt_name" v="Hatlemark" />
		<tag k="fixme" v="consider place=hamlet" />
		<tag k="name" v="Hatlemorka" />
		<tag k="place" v="farm" />
		<tag k="ssr:stedsnr" v="436089" />
	</node>
	<node id="-573259" lat="62.4197666707" lon="6.7316416598">
		<tag k="historic" v="shieling" />
		<tag k="name" v="Klokkssætra" />
		<tag k="old_name" v="Klokksætra" />
		<tag k="place" v="locality" />
		<tag k="ssr:stedsnr" v="435701" />
	</node>
	<node id="-573257" lat="62.3540083302" lon="6.5492611178">
		<tag k="historic" v="shieling" />
		<tag k="name" v="Erstadsætra" />
		<tag k="place" v="locality" />
		<tag k="ssr:stedsnr" v="435461" />
	</node>
	<node id="-573768" lat="62.3755949897" lon="6.54822982985">
		<tag k="fixme" v="consider place=hamlet" />
		<tag k="name" v="Sætre" />
		<tag k="place" v="farm" />
		<tag k="ssr:stedsnr" v="800367" />
	</node>
	<node id="-573767" lat="62.4447698255" lon="6.74459168352">
		<tag k="fixme" v="consider place=hamlet" />
		<tag k="name" v="Vindsnes" />
		<tag k="place" v="farm" />
		<tag k="ssr:stedsnr" v="800359" />
	</node>
	<node id="-573765" lat="62.3981129128" lon="6.47036721234">
		<tag k="alt_name" v="Tusvik" />
		<tag k="fixme" v="consider place=hamlet" />
		<tag k="name" v="Tusvika" />
		<tag k="place" v="farm" />
		<tag k="ssr:stedsnr" v="800108" />
	</node>
	<node id="-573252" lat="62.3666694421" lon="6.43320833822">
		<tag k="name" v="Bakkane" />
		<tag k="place" v="farm" />
		<tag k="ssr:stedsnr" v="266751" />
	</node>
	<node id="-573763" lat="62.3949195902" lon="6.44440461865">
		<tag k="fixme" v="consider place=hamlet" />
		<tag k="name" v="Svartebekk" />
		<tag k="place" v="farm" />
		<tag k="ssr:stedsnr" v="800088" />
	</node>
	<node id="-573762" lat="62.3946981354" lon="6.46615641833">
		<tag k="fixme" v="consider place=hamlet" />
		<tag k="name" v="Tu" />
		<tag k="place" v="farm" />
		<tag k="ssr:stedsnr" v="800087" />
	</node>
	<node id="-573760" lat="62.4145509491" lon="6.78025716974">
		<tag k="fixme" v="consider place=hamlet" />
		<tag k="name" v="Melset" />
		<tag k="place" v="farm" />
		<tag k="ssr:stedsnr" v="799683" />
	</node>
	<node id="-573758" lat="62.3527138921" lon="6.63320277885">
		<tag k="historic" v="shieling" />
		<tag k="name" v="Skålholten" />
		<tag k="place" v="locality" />
		<tag k="ssr:stedsnr" v="799411" />
	</node>
	<node id="-573756" lat="62.4427749977" lon="6.696152778">
		<tag k="historic" v="shieling" />
		<tag k="name" v="Jogardsstølen" />
		<tag k="place" v="locality" />
		<tag k="ssr:stedsnr" v="799089" />
	</node>
	<node id="-573754" lat="62.4254094143" lon="6.71115011288">
		<tag k="fixme" v="consider place=hamlet" />
		<tag k="name" v="Løset" />
		<tag k="place" v="farm" />
		<tag k="ssr:stedsnr" v="799078" />
	</node>
	<node id="-573240" lat="62.288953545" lon="6.67408339636">
		<tag k="fixme" v="consider place=hamlet" />
		<tag k="name" v="Brunstad" />
		<tag k="place" v="farm" />
		<tag k="ssr:stedsnr" v="254230" />
	</node>
	<node id="-573751" lat="62.4232722198" lon="6.61627777899">
		<tag k="historic" v="shieling" />
		<tag k="name" v="Fauskesætra" />
		<tag k="place" v="locality" />
		<tag k="ssr:stedsnr" v="799069" />
	</node>
	<node id="-573235" lat="62.3758468399" lon="6.57787627487">
		<tag k="alt_name" v="Blindem" />
		<tag k="name" v="Blindheim" />
		<tag k="place" v="hamlet" />
		<tag k="ssr:stedsnr" v="253431" />
	</node>
	<node id="-573233" lat="62.3909901228" lon="6.54773377781">
		<tag k="fixme" v="consider place=hamlet" />
		<tag k="name" v="Jarnes" />
		<tag k="place" v="farm" />
		<tag k="ssr:stedsnr" v="253101" />
	</node>
	<node id="-573740" lat="62.4062789414" lon="6.56882702597">
		<tag k="fixme" v="consider place=hamlet" />
		<tag k="name" v="Indre Fauske" />
		<tag k="place" v="farm" />
		<tag k="ssr:stedsnr" v="763326" />
	</node>
	<node id="-572715" lat="62.4055583366" lon="6.57720555353">
		<tag k="name" v="Fauske" />
		<tag k="place" v="farm" />
		<tag k="ssr:stedsnr" v="389269" />
	</node>
	<node id="-572714" lat="62.3354583297" lon="6.59439722142">
		<tag k="name" v="Straumgjerde" />
		<tag k="place" v="farm" />
		<tag k="ssr:stedsnr" v="388362" />
	</node>
	<node id="-572713" lat="62.2935361126" lon="6.68086111629">
		<tag k="name" v="Nakkeberget" />
		<tag k="place" v="farm" />
		<tag k="ssr:stedsnr" v="387768" />
	</node>
	<node id="-573736" lat="62.3858833319" lon="6.41352222095">
		<tag k="name" v="Berntplassen" />
		<tag k="place" v="locality" />
		<tag k="ssr:stedsnr" v="763272" />
	</node>
	<node id="-573916" lat="62.3222583359" lon="6.60393611988">
		<tag k="name" v="Grøtgarden" />
		<tag k="place" v="isolated_dwelling" />
		<tag k="ssr:stedsnr" v="934747" />
	</node>
	<node id="-573222" lat="62.3917305529" lon="6.53991666174">
		<tag k="name" v="Ytre Jarnes" />
		<tag k="place" v="farm" />
		<tag k="ssr:stedsnr" v="218219" />
	</node>
	<node id="-573221" lat="62.3986333356" lon="6.51003610833">
		<tag k="name" v="Jogarden" />
		<tag k="place" v="farm" />
		<tag k="ssr:stedsnr" v="218217" />
	</node>
	<node id="-573731" lat="62.372727781" lon="6.42843610743">
		<tag k="name" v="Utgård" />
		<tag k="place" v="farm" />
		<tag k="ssr:stedsnr" v="763226" />
	</node>
	<node id="-572635" lat="62.2986712312" lon="6.68444139899">
		<tag k="alt_name" v="Bruvoll" />
		<tag k="fixme" v="consider place=hamlet" />
		<tag k="name" v="Brøvoll" />
		<tag k="place" v="farm" />
		<tag k="ssr:stedsnr" v="315473" />
	</node>
	<node id="-572703" lat="62.3804333336" lon="6.43177222561">
		<tag k="name" v="Grønhaugen" />
		<tag k="place" v="farm" />
		<tag k="ssr:stedsnr" v="375087" />
	</node>
	<node id="-572701" lat="62.4106885147" lon="6.78929283294">
		<tag k="fixme" v="consider place=hamlet" />
		<tag k="name" v="Kråka" />
		<tag k="place" v="farm" />
		<tag k="ssr:stedsnr" v="374623" />
	</node>
	<node id="-572697" lat="62.4061583374" lon="6.56749721254">
		<tag k="name" v="Fauske" />
		<tag k="place" v="hamlet" />
		<tag k="ssr:stedsnr" v="374138" />
	</node>
	<node id="-572696" lat="62.4073305597" lon="6.57661667278">
		<tag k="alt_name" v="Kambane" />
		<tag k="name" v="Fauskekambane" />
		<tag k="place" v="farm" />
		<tag k="ssr:stedsnr" v="374127" />
	</node>
	<node id="-572695" lat="62.3964245271" lon="6.58224684056">
		<tag k="name" v="Sykkylven" />
		<tag k="place" v="village" />
		<tag k="ssr:stedsnr" v="374114" />
	</node>
	<node id="-573657" lat="62.3436972183" lon="6.57248054679">
		<tag k="name" v="Stølen" />
		<tag k="place" v="farm" />
		<tag k="ssr:stedsnr" v="703253" />
	</node>
	<node id="-572682" lat="62.3719527773" lon="6.42943055166">
		<tag k="name" v="Joakimplassen" />
		<tag k="place" v="locality" />
		<tag k="ssr:stedsnr" v="339257" />
	</node>
	<node id="-572676" lat="62.3332166662" lon="6.59373888408">
		<tag k="name" v="Myrane" />
		<tag k="place" v="hamlet" />
		<tag k="ssr:stedsnr" v="339231" />
	</node>
	<node id="-573910" lat="62.3049021627" lon="6.62456276427">
		<tag k="fixme" v="consider place=hamlet" />
		<tag k="name" v="Dravlaus" />
		<tag k="place" v="farm" />
		<tag k="ssr:stedsnr" v="922432" />
	</node>
	<node id="-573697" lat="62.4348166648" lon="6.74383333501">
		<tag k="alt_name" v="Nedre Søvik" />
		<tag k="loc_name" v="Søvika" />
		<tag k="name" v="Søvik" />
		<tag k="place" v="farm" />
		<tag k="ssr:stedsnr" v="739671" />
	</node>
	<node id="-572671" lat="62.3083527739" lon="6.72079722123">
		<tag k="name" v="Hole" />
		<tag k="place" v="farm" />
		<tag k="ssr:stedsnr" v="339215" />
	</node>
	<node id="-572670" lat="62.4287861132" lon="6.71169722388">
		<tag k="name" v="Løsetgjerdet" />
		<tag k="place" v="isolated_dwelling" />
		<tag k="ssr:stedsnr" v="339209" />
	</node>
	<node id="-573180" lat="62.3533305583" lon="6.56646666169">
		<tag k="name" v="Grøngotta" />
		<tag k="place" v="farm" />
		<tag k="ssr:stedsnr" v="217171" />
	</node>
	<node id="-573691" lat="62.3331333291" lon="6.75981111959">
		<tag k="historic" v="shieling" />
		<tag k="name" v="Ladestølen" />
		<tag k="place" v="locality" />
		<tag k="ssr:stedsnr" v="739547" />
	</node>
	<node id="-573178" lat="62.3856388911" lon="6.65676666586">
		<tag k="name" v="Gamlesætra" />
		<tag k="place" v="locality" />
		<tag k="ssr:stedsnr" v="217165" />
	</node>
	<node id="-573689" lat="62.3293749982" lon="6.5630305582">
		<tag k="alt_name" v="Straumsemsetra" />
		<tag k="historic" v="shieling" />
		<tag k="name" v="Straumsheimsætra" />
		<tag k="place" v="locality" />
		<tag k="ssr:stedsnr" v="739430" />
	</node>
	<node id="-573688" lat="62.342879394" lon="6.48766119987">
		<tag k="historic" v="shieling" />
		<tag k="name" v="Megardsstøylen" />
		<tag k="place" v="locality" />
		<tag k="ssr:stedsnr" v="739429" />
	</node>
	<node id="-573687" lat="62.344519604" lon="6.58777840058">
		<tag k="alt_name" v="Tannstad, midtre;Tannstad" />
		<tag k="fixme" v="consider place=hamlet" />
		<tag k="name" v="Midtre Tannstad" />
		<tag k="place" v="farm" />
		<tag k="ssr:stedsnr" v="739421" />
	</node>
	<node id="-573683" lat="62.3991055518" lon="6.62944444656">
		<tag k="name" v="Nygard" />
		<tag k="place" v="farm" />
		<tag k="ssr:stedsnr" v="739086" />
	</node>
	<node id="-573906" lat="62.3353250016" lon="6.52069443628">
		<tag k="alt_name" v="Framsetra" />
		<tag k="historic" v="shieling" />
		<tag k="name" v="Framsætra" />
		<tag k="place" v="locality" />
		<tag k="ssr:stedsnr" v="921461" />
	</node>
	<node id="-572646" lat="62.3628250038" lon="6.60852222536">
		<tag k="name" v="Øvstestølen" />
		<tag k="place" v="locality" />
		<tag k="ssr:stedsnr" v="339015" />
	</node>
	<node id="-572640" lat="62.3578795909" lon="6.40678108128">
		<tag k="fixme" v="consider place=hamlet" />
		<tag k="name" v="Gjevenes" />
		<tag k="place" v="farm" />
		<tag k="ssr:stedsnr" v="328177" />
	</node>
	<node id="-572639" lat="62.2889611148" lon="6.66213611154">
		<tag k="name" v="Bjørnedalen" />
		<tag k="place" v="farm" />
		<tag k="ssr:stedsnr" v="326786" />
	</node>
	<node id="-572638" lat="62.3821361073" lon="6.68235834296">
		<tag k="historic" v="shieling" />
		<tag k="name" v="Haugsetstølen" />
		<tag k="place" v="locality" />
		<tag k="ssr:stedsnr" v="325899" />
	</node>
	<node id="-573661" lat="62.2842861097" lon="6.67805833217">
		<tag k="name" v="Sommerfjøsane" />
		<tag k="place" v="locality" />
		<tag k="ssr:stedsnr" v="703264" />
	</node>
	<node id="-573147" lat="62.3847124252" lon="6.55012713991">
		<tag k="fixme" v="consider place=hamlet" />
		<tag k="name" v="Ikornnes" />
		<tag k="place" v="farm" />
		<tag k="ssr:stedsnr" v="206381" />
	</node>
	<node id="-573658" lat="62.3743749966" lon="6.4328999938">
		<tag k="name" v="Hoggaplassen" />
		<tag k="place" v="farm" />
		<tag k="ssr:stedsnr" v="703255" />
	</node>
	<node id="-573145" lat="62.2946328463" lon="6.67182362548">
		<tag k="alt_name" v="Hjorthol" />
		<tag k="fixme" v="consider place=hamlet" />
		<tag k="name" v="Hjortdal" />
		<tag k="place" v="farm" />
		<tag k="ssr:stedsnr" v="194428" />
	</node>
	<node id="-573139" lat="62.3544566756" lon="6.80373411906">
		<tag k="fixme" v="consider place=hamlet" />
		<tag k="name" v="Nysætra" />
		<tag k="place" v="farm" />
		<tag k="ssr:stedsnr" v="193569" />
	</node>
	<node id="-573138" lat="62.337200003" lon="6.77142500907">
		<tag k="alt_name" v="Fjellseter Ungdomssenter" />
		<tag k="fixme" v="consider tourism=alpine_hut or tourism=chalet" />
		<tag k="name" v="Fjellsæter turisthytte" />
		<tag k="old_name" v="Fjellsæter th" />
		<tag k="ssr:stedsnr" v="193551" />
		<tag k="tourism" v="wilderness_hut" />
	</node>
	<node id="-572625" lat="62.3662033298" lon="6.41908967735">
		<tag k="alt_name" v="Hundeide" />
		<tag k="fixme" v="consider place=hamlet" />
		<tag k="name" v="Hundeid" />
		<tag k="place" v="farm" />
		<tag k="ssr:stedsnr" v="314439" />
	</node>
	<node id="-573136" lat="62.3795361084" lon="6.48750278383">
		<tag k="alt_name" v="Koldastølen" />
		<tag k="historic" v="shieling" />
		<tag k="name" v="Kaldastøylen" />
		<tag k="place" v="locality" />
		<tag k="ssr:stedsnr" v="193417" />
	</node>
	<node id="-572623" lat="62.3663222193" lon="6.70842221782">
		<tag k="alt_name" v="Auresetra" />
		<tag k="historic" v="shieling" />
		<tag k="name" v="Sunndalssætra" />
		<tag k="place" v="locality" />
		<tag k="ssr:stedsnr" v="314425" />
	</node>
	<node id="-572622" lat="62.3772527738" lon="6.4694555576">
		<tag k="alt_name" v="Myrsetsetra" />
		<tag k="name" v="Nysætra" />
		<tag k="place" v="isolated_dwelling" />
		<tag k="ssr:stedsnr" v="314417" />
	</node>
	<node id="-573901" lat="62.4004444402" lon="6.46180554789">
		<tag k="name" v="Litlevik" />
		<tag k="place" v="farm" />
		<tag k="ssr:stedsnr" v="921120" />
	</node>
	<node id="-573132" lat="62.398897225" lon="6.58270000376">
		<tag k="name" v="Ullavika" />
		<tag k="place" v="farm" />
		<tag k="ssr:stedsnr" v="193120" />
	</node>
	<node id="-573131" lat="62.3816633602" lon="6.42263499666">
		<tag k="fixme" v="consider place=hamlet" />
		<tag k="name" v="Hovden" />
		<tag k="place" v="farm" />
		<tag k="ssr:stedsnr" v="193100" />
	</node>
	<node id="-572618" lat="62.4356607137" lon="6.64406668558">
		<tag k="fixme" v="consider place=hamlet" />
		<tag k="name" v="Sandvika" />
		<tag k="place" v="farm" />
		<tag k="ssr:stedsnr" v="314078" />
	</node>
	<node id="-572617" lat="62.4138833363" lon="6.71396388028">
		<tag k="historic" v="shieling" />
		<tag k="name" v="Løvollsætra" />
		<tag k="place" v="locality" />
		<tag k="ssr:stedsnr" v="71130" />
	</node>
	<node id="-573128" lat="62.4223536838" lon="6.79265075651">
		<tag k="fixme" v="consider place=hamlet" />
		<tag k="name" v="Ramstad" />
		<tag k="place" v="farm" />
		<tag k="ssr:stedsnr" v="192704" />
	</node>
	<node id="-573126" lat="62.4179305595" lon="6.72651389473">
		<tag k="historic" v="shieling" />
		<tag k="name" v="Søviksætra" />
		<tag k="old_name" v="Søuiksætra" />
		<tag k="place" v="locality" />
		<tag k="ssr:stedsnr" v="192686" />
	</node>
	<node id="-573125" lat="62.4356222228" lon="6.70305833595">
		<tag k="historic" v="shieling" />
		<tag k="name" v="Løsetsætra" />
		<tag k="place" v="locality" />
		<tag k="ssr:stedsnr" v="192095" />
	</node>
	<node id="-573124" lat="62.4385899103" lon="6.65219333826">
		<tag k="fixme" v="consider place=hamlet" />
		<tag k="name" v="Oppsal" />
		<tag k="place" v="farm" />
		<tag k="ssr:stedsnr" v="192092" />
	</node>
	<node id="-572619" lat="62.4365972246" lon="6.67292778683">
		<tag k="historic" v="shieling" />
		<tag k="name" v="Bjørnaviksætra" />
		<tag k="place" v="locality" />
		<tag k="ssr:stedsnr" v="314084" />
	</node>
	<node id="-573119" lat="62.4046805587" lon="6.58736387999">
		<tag k="name" v="Hjellebru" />
		<tag k="place" v="isolated_dwelling" />
		<tag k="ssr:stedsnr" v="173574" />
	</node>
	<node id="-573115" lat="62.3422638924" lon="6.48515278513">
		<tag k="name" v="Hundeide-Gjævenessetra" />
		<tag k="place" v="isolated_dwelling" />
		<tag k="ssr:stedsnr" v="157319" />
	</node>
	<node id="-572601" lat="62.3863472265" lon="6.41165276804">
		<tag k="name" v="Toreplassen" />
		<tag k="place" v="locality" />
		<tag k="ssr:stedsnr" v="278285" />
	</node>
	<node id="-573617" lat="62.3368475999" lon="6.59515475372">
		<tag k="fixme" v="consider place=hamlet" />
		<tag k="name" v="Straumgjerde" />
		<tag k="place" v="farm" />
		<tag k="ssr:stedsnr" v="692320" />
	</node>
	<node id="-573616" lat="62.3990972198" lon="6.45256667059">
		<tag k="alt_name" v="Norvik" />
		<tag k="name" v="Norvika" />
		<tag k="place" v="farm" />
		<tag k="ssr:stedsnr" v="691740" />
	</node>
	<node id="-573101" lat="62.3692944402" lon="6.42338889476">
		<tag k="name" v="Pålplassen" />
		<tag k="place" v="locality" />
		<tag k="ssr:stedsnr" v="157231" />
	</node>
	<node id="-573612" lat="62.3325361156" lon="6.75726667515">
		<tag k="fixme" v="multiple name tags, choose one and add the other to alt_name" />
		<tag k="historic" v="shieling" />
		<tag k="name" v="Drotninghaugstølen;Øygardsstølen" />
		<tag k="place" v="locality" />
		<tag k="ssr:stedsnr" v="679474" />
	</node>
	<node id="-573611" lat="62.2992284191" lon="6.62780726172">
		<tag k="fixme" v="consider place=hamlet" />
		<tag k="name" v="Velle" />
		<tag k="place" v="farm" />
		<tag k="ssr:stedsnr" v="679446" />
	</node>
	<node id="-573980" lat="62.3377944484" lon="6.76983611551">
		<tag k="loc_name" v="Fjellsæter" />
		<tag k="name" v="Fjellsætra" />
		<tag k="place" v="hamlet" />
		<tag k="ssr:stedsnr" v="956350" />
	</node>
	<node id="-573605" lat="62.3972194423" lon="6.76235832672">
		<tag k="historic" v="shieling" />
		<tag k="name" v="Melsetsætra" />
		<tag k="place" v="locality" />
		<tag k="ssr:stedsnr" v="678737" />
	</node>
	<node id="-573601" lat="62.3700777793" lon="6.8283611089">
		<tag k="name" v="Fausateigane" />
		<tag k="place" v="locality" />
		<tag k="ssr:stedsnr" v="678700" />
	</node>
	<node id="-573088" lat="62.3291249992" lon="6.58922778688">
		<tag k="name" v="Nymarka" />
		<tag k="place" v="farm" />
		<tag k="ssr:stedsnr" v="157180" />
	</node>
	<node id="-573087" lat="62.3881138907" lon="6.81392500188">
		<tag k="name" v="Espeberg" />
		<tag k="place" v="farm" />
		<tag k="ssr:stedsnr" v="157171" />
	</node>
	<node id="-573590" lat="62.3863972187" lon="6.5514749944">
		<tag k="fixme" v="consider place=hamlet" />
		<tag k="name" v="Ikornnes" />
		<tag k="place" v="village" />
		<tag k="ssr:stedsnr" v="678105" />
	</node>
	<node id="-572558" lat="62.3289666672" lon="6.77785555261">
		<tag k="historic" v="shieling" />
		<tag k="name" v="Fitjastølen" />
		<tag k="place" v="locality" />
		<tag k="ssr:stedsnr" v="278237" />
	</node>
	<node id="-572557" lat="62.409793138" lon="6.55208678148">
		<tag k="fixme" v="consider place=hamlet" />
		<tag k="name" v="Aursnes" />
		<tag k="place" v="farm" />
		<tag k="ssr:stedsnr" v="278232" />
	</node>
	<node id="-572556" lat="62.4067750292" lon="6.59871871451">
		<tag k="fixme" v="consider place=hamlet" />
		<tag k="name" v="Høgreset" />
		<tag k="place" v="farm" />
		<tag k="ssr:stedsnr" v="278229" />
	</node>
	<node id="-572555" lat="62.3972083322" lon="6.5855638979">
		<tag k="name" v="Skjerva" />
		<tag k="place" v="farm" />
		<tag k="ssr:stedsnr" v="278227" />
	</node>
	<node id="-573922" lat="62.3588861135" lon="6.4508194487">
		<tag k="loc_name" v="Einehaugen" />
		<tag k="name" v="Stølane" />
		<tag k="place" v="locality" />
		<tag k="ssr:stedsnr" v="941507" />
	</node>
	<node id="-573563" lat="62.3749861071" lon="6.43252222143">
		<tag k="name" v="Lerskogen" />
		<tag k="place" v="farm" />
		<tag k="ssr:stedsnr" v="642205" />
	</node>
	<node id="-573562" lat="62.396602776" lon="6.46369166742">
		<tag k="name" v="Nakken" />
		<tag k="place" v="farm" />
		<tag k="ssr:stedsnr" v="642204" />
	</node>
	<node id="-573560" lat="62.3619111138" lon="6.5586944402">
		<tag k="name" v="Gjerdsvollen" />
		<tag k="place" v="farm" />
		<tag k="ssr:stedsnr" v="642196" />
	</node>
	<node id="-573047" lat="62.4083492098" lon="6.77197968669">
		<tag k="fixme" v="consider place=hamlet" />
		<tag k="name" v="Løkedalen" />
		<tag k="place" v="farm" />
		<tag k="ssr:stedsnr" v="132644" />
	</node>
	<node id="-573044" lat="62.3358661025" lon="6.57935224286">
		<tag k="fixme" v="consider place=hamlet" />
		<tag k="name" v="Straumsheim" />
		<tag k="place" v="farm" />
		<tag k="ssr:stedsnr" v="132428" />
	</node>
	<node id="-573041" lat="62.3824944411" lon="6.66414445017">
		<tag k="historic" v="shieling" />
		<tag k="name" v="Grepstadstølen" />
		<tag k="place" v="locality" />
		<tag k="ssr:stedsnr" v="132362" />
	</node>
	<node id="-573038" lat="62.4517072757" lon="6.72229523227">
		<tag k="alt_name" v="Rønes" />
		<tag k="fixme" v="consider place=hamlet" />
		<tag k="name" v="Røneset" />
		<tag k="place" v="farm" />
		<tag k="ssr:stedsnr" v="132333" />
	</node>
	<node id="-573036" lat="62.40622592" lon="6.59193168693">
		<tag k="fixme" v="consider place=hamlet" />
		<tag k="name" v="Hjellane" />
		<tag k="place" v="farm" />
		<tag k="ssr:stedsnr" v="132098" />
	</node>
	<node id="-573034" lat="62.4031209597" lon="6.64033190886">
		<tag k="fixme" v="consider place=hamlet" />
		<tag k="name" v="Lyshol" />
		<tag k="place" v="farm" />
		<tag k="ssr:stedsnr" v="132082" />
	</node>
	<node id="-573031" lat="62.3588885372" lon="6.56639755383">
		<tag k="fixme" v="consider place=hamlet" />
		<tag k="name" v="Erstad" />
		<tag k="place" v="farm" />
		<tag k="ssr:stedsnr" v="131384" />
	</node>
	<node id="-573030" lat="62.3582305572" lon="6.64759445122">
		<tag k="alt_name" v="Gimsdalen" />
		<tag k="name" v="Gimsdalssætra" />
		<tag k="place" v="isolated_dwelling" />
		<tag k="ssr:stedsnr" v="131382" />
	</node>
	<node id="-573027" lat="62.3555671327" lon="6.57415936302">
		<tag k="name" v="Riksem" />
		<tag k="place" v="farm" />
		<tag k="ssr:stedsnr" v="96988" />
	</node>
	<node id="-573023" lat="62.4302416677" lon="6.63404167606">
		<tag k="name" v="Gamlesetra" />
		<tag k="place" v="locality" />
		<tag k="ssr:stedsnr" v="96328" />
	</node>
	<node id="-573699" lat="62.3141110866" lon="6.73808923612">
		<tag k="fixme" v="consider place=hamlet" />
		<tag k="loc_name" v="Drotningshaug" />
		<tag k="name" v="Drotninghaug" />
		<tag k="place" v="farm" />
		<tag k="ssr:stedsnr" v="740478" />
	</node>
	<node id="-573553" lat="62.3838111106" lon="6.62000556378">
		<tag k="barrier" v="fence" />
		<tag k="name" v="Gardkroken" />
		<tag k="ssr:stedsnr" v="642167" />
	</node>
	<node id="-573882" lat="62.3092388866" lon="6.75159444309">
		<tag k="historic" v="shieling" />
		<tag k="name" v="Myrdalsætra" />
		<tag k="place" v="locality" />
		<tag k="ssr:stedsnr" v="861582" />
	</node>
	<node id="-573013" lat="62.3874555562" lon="6.54390834109">
		<tag k="name" v="Kjerane" />
		<tag k="place" v="farm" />
		<tag k="ssr:stedsnr" v="96252" />
	</node>
	<node id="-573011" lat="62.382977781" lon="6.41023888597">
		<tag k="name" v="Lilleneset" />
		<tag k="place" v="farm" />
		<tag k="ssr:stedsnr" v="96249" />
	</node>
	<node id="-573009" lat="62.3002749971" lon="6.69266944938">
		<tag k="name" v="Brøvollsgjerdet" />
		<tag k="place" v="farm" />
		<tag k="ssr:stedsnr" v="96237" />
	</node>
	<node id="-573519" lat="62.3338361105" lon="6.76099722768">
		<tag k="historic" v="shieling" />
		<tag k="name" v="Lastølen" />
		<tag k="place" v="locality" />
		<tag k="ssr:stedsnr" v="641981" />
	</node>
	<node id="-573508" lat="62.2680055573" lon="6.67049722213">
		<tag k="fixme" v="consider tourism=alpine_hut or tourism=chalet" />
		<tag k="name" v="Velleseter" />
		<tag k="ssr:stedsnr" v="630984" />
		<tag k="tourism" v="wilderness_hut" />
	</node>
	<node id="-573507" lat="62.2995638723" lon="6.70385155582">
		<tag k="fixme" v="consider place=hamlet" />
		<tag k="name" v="Hole" />
		<tag k="place" v="farm" />
		<tag k="ssr:stedsnr" v="618479" />
	</node>
	<node id="-573503" lat="62.2680055543" lon="6.67047777824">
		<tag k="historic" v="shieling" />
		<tag k="name" v="Vellesætra" />
		<tag k="place" v="locality" />
		<tag k="ssr:stedsnr" v="618237" />
	</node>
	<node id="-573500" lat="62.3784499984" lon="6.82166388557">
		<tag k="name" v="Leitet" />
		<tag k="place" v="locality" />
		<tag k="ssr:stedsnr" v="617728" />
	</node>
	<node id="-573499" lat="62.4304516589" lon="6.73058072592">
		<tag k="alt_name" v="Almeskar" />
		<tag k="fixme" v="consider place=hamlet" />
		<tag k="name" v="Almeskard" />
		<tag k="place" v="farm" />
		<tag k="ssr:stedsnr" v="617691" />
	</node>
	<node id="-573496" lat="62.3515111147" lon="6.58446665771">
		<tag k="name" v="Øygarden" />
		<tag k="place" v="farm" />
		<tag k="ssr:stedsnr" v="598528" />
	</node>
	<node id="-573485" lat="62.3640666674" lon="6.61872500889">
		<tag k="name" v="Gamlesetra" />
		<tag k="place" v="locality" />
		<tag k="ssr:stedsnr" v="581294" />
	</node>
	<node id="-573478" lat="62.2907027792" lon="6.6597888859">
		<tag k="name" v="Hjortdal" />
		<tag k="place" v="farm" />
		<tag k="ssr:stedsnr" v="581245" />
	</node>
	<node id="-573873" lat="62.3712859281" lon="6.54899801082">
		<tag k="fixme" v="consider place=hamlet" />
		<tag k="name" v="Stave" />
		<tag k="place" v="farm" />
		<tag k="ssr:stedsnr" v="861364" />
	</node>
	<node id="-572959" lat="62.3420027073" lon="6.57321010597">
		<tag k="alt_name" v="Riksheimgjerdet" />
		<tag k="fixme" v="consider place=hamlet" />
		<tag k="name" v="Riksemgjerdet" />
		<tag k="place" v="farm" />
		<tag k="ssr:stedsnr" v="72409" />
	</node>
	<node id="-572956" lat="62.380499996" lon="6.4976944412">
		<tag k="alt_name" v="Sæss-sætra" />
		<tag k="historic" v="shieling" />
		<tag k="name" v="Sætssætra" />
		<tag k="place" v="locality" />
		<tag k="ssr:stedsnr" v="72365" />
	</node>
	<node id="-572955" lat="62.3748305578" lon="6.60004999873">
		<tag k="historic" v="shieling" />
		<tag k="name" v="Vikesætra" />
		<tag k="place" v="locality" />
		<tag k="ssr:stedsnr" v="72356" />
	</node>
	<node id="-573871" lat="62.38039141" lon="6.55405363765">
		<tag k="fixme" v="consider place=hamlet" />
		<tag k="name" v="Hella" />
		<tag k="place" v="farm" />
		<tag k="ssr:stedsnr" v="861354" />
	</node>
	<node id="-573975" lat="62.3490166676" lon="6.54108333886">
		<tag k="name" v="Gamlestølen" />
		<tag k="place" v="isolated_dwelling" />
		<tag k="ssr:stedsnr" v="946310" />
	</node>
	<node id="-572950" lat="62.3647166624" lon="6.82372499522">
		<tag k="historic" v="shieling" />
		<tag k="name" v="Furesætra" />
		<tag k="place" v="locality" />
		<tag k="ssr:stedsnr" v="71732" />
	</node>
	<node id="-572948" lat="62.3981098633" lon="6.47970541838">
		<tag k="fixme" v="consider place=hamlet" />
		<tag k="name" v="Våtmyra" />
		<tag k="place" v="farm" />
		<tag k="ssr:stedsnr" v="71136" />
	</node>
	<node id="-572945" lat="62.3904777758" lon="6.57987500348">
		<tag k="name" v="Myrane" />
		<tag k="place" v="isolated_dwelling" />
		<tag k="ssr:stedsnr" v="52575" />
	</node>
	<node id="-573452" lat="62.3922430424" lon="6.58775786656">
		<tag k="fixme" v="consider place=hamlet" />
		<tag k="name" v="Aure" />
		<tag k="place" v="farm" />
		<tag k="ssr:stedsnr" v="581088" />
	</node>
	<node id="-572938" lat="62.3745333335" lon="6.58796666804">
		<tag k="name" v="Blindemfjøsane" />
		<tag k="place" v="locality" />
		<tag k="ssr:stedsnr" v="35390" />
	</node>
	<node id="-573961" lat="62.2764638865" lon="6.67573888583">
		<tag k="name" v="Kolbeinstøylen" />
		<tag k="place" v="locality" />
		<tag k="ssr:stedsnr" v="946197" />
	</node>
	<node id="-573960" lat="62.4315972226" lon="6.63800000876">
		<tag k="name" v="Sandviksetra" />
		<tag k="place" v="isolated_dwelling" />
		<tag k="ssr:stedsnr" v="946192" />
	</node>
	<node id="-573959" lat="62.2968027774" lon="6.63680277779">
		<tag k="name" v="Heggebakkane" />
		<tag k="place" v="farm" />
		<tag k="ssr:stedsnr" v="946191" />
	</node>
	<node id="-573956" lat="62.3562749964" lon="6.56862223084">
		<tag k="name" v="Høgebakkane" />
		<tag k="place" v="farm" />
		<tag k="ssr:stedsnr" v="946177" />
	</node>
</osm>
