<?xml version="1.0" encoding="UTF-8"?>
<<<<<<< HEAD
<osm version="0.6" generator="osmapis">
	<node lat="62.36660277794875" lon="6.423877773549643" id="-7678">
		<tag k="bridge" v="yes" />
		<tag k="layer" v="1" />
		<tag k="name" v="Storelvbrua" />
		<tag k="ssr:stedsnr" v="29238" />
	</node>
	<node lat="62.378566667320044" lon="6.572327777482754" id="-7707">
		<tag k="bridge" v="yes" />
		<tag k="layer" v="1" />
		<tag k="name" v="Vikøyrbrua" />
		<tag k="ssr:stedsnr" v="89222" />
	</node>
	<node lat="62.31736944130997" lon="6.756430557172871" id="-7722">
		<tag k="bridge" v="yes" />
		<tag k="layer" v="1" />
		<tag k="name" v="Berge bru" />
		<tag k="ssr:stedsnr" v="96302" />
	</node>
	<node lat="62.39549999880924" lon="6.581994452945088" id="-7786">
		<tag k="bridge" v="yes" />
		<tag k="layer" v="1" />
		<tag k="name" v="Aureosgangbrua" />
		<tag k="ssr:stedsnr" v="211202" />
	</node>
	<node lat="62.4127638870067" lon="6.564827775382431" id="-7810">
		<tag k="highway" v="path" />
		<tag k="loc_name" v="Strandaråsa" />
		<tag k="name" v="Strandavegen" />
		<tag k="ssr:stedsnr" v="455379" />
	</node>
	<node lat="62.371652776720914" lon="6.424211103265866" id="-7825">
		<tag k="amenity" v="ferry_terminal" />
		<tag k="name" v="Hundeidvika ferjekai" />
		<tag k="ssr:stedsnr" v="277125" />
	</node>
	<node lat="62.30920277868702" lon="6.6241611109321346" id="-7859">
		<tag k="bridge" v="yes" />
		<tag k="layer" v="1" />
		<tag k="name" v="Fitjabrua" />
		<tag k="ssr:stedsnr" v="460136" />
	</node>
	<node lat="62.38538888511961" lon="6.554719451973493" id="-7893">
		<tag k="bridge" v="yes" />
		<tag k="layer" v="1" />
		<tag k="name" v="Ikornnesbrua" />
		<tag k="ssr:stedsnr" v="332199" />
	</node>
	<node lat="62.41005555256993" lon="6.547933328283045" id="-7894">
		<tag k="alt_name" v="Ørsneset ferjekai" />
		<tag k="amenity" v="ferry_terminal" />
		<tag k="name" v="Aursneset ferjekai" />
		<tag k="ssr:stedsnr" v="338259" />
	</node>
	<node lat="62.31955555482804" lon="6.750833326866207" id="-7904">
		<tag k="junction" v="yes" />
		<tag k="name" v="Fjellsætervegskiftet" />
		<tag k="place" v="locality" />
		<tag k="ssr:stedsnr" v="339294" />
	</node>
	<node lat="62.41126666632562" lon="6.567219449517803" id="-7919">
		<tag k="highway" v="path" />
		<tag k="loc_name" v="Fjellråsa" />
		<tag k="name" v="Fjellvegen" />
		<tag k="ssr:stedsnr" v="394424" />
	</node>
	<node lat="62.43367778036925" lon="6.643861114685458" id="-7926">
		<tag k="highway" v="path" />
		<tag k="name" v="Bjørnastigen" />
		<tag k="ssr:stedsnr" v="399009" />
	</node>
	<node lat="62.391733334849285" lon="6.63113332806962" id="-7934">
		<tag k="landuse" v="industrial" />
		<tag k="name" v="Haugset sekundærstasjon" />
		<tag k="power" v="plant" />
		<tag k="ssr:stedsnr" v="399192" />
	</node>
	<node lat="62.37607222680637" lon="6.516172227484335" id="-7969">
		<tag k="highway" v="path" />
		<tag k="name" v="Trongstien" />
		<tag k="ssr:stedsnr" v="460404" />
	</node>
	<node lat="62.36514722564302" lon="6.420555562846146" id="-7973">
		<tag k="fixme" v="consider highway=path" />
		<tag k="highway" v="track" />
		<tag k="name" v="Sætervegen" />
		<tag k="ssr:stedsnr" v="460307" />
	</node>
	<node lat="62.41898333453576" lon="6.784536119840831" id="-8048">
		<tag k="bridge" v="yes" />
		<tag k="layer" v="1" />
		<tag k="name" v="Svinnsetbrua" />
		<tag k="ssr:stedsnr" v="580043" />
	</node>
	<node lat="62.35726111333955" lon="6.626302782292031" id="-8084">
=======
<osm generator="osmapis" version="0.6">
	<node id="-69495" lat="62.387755553" lon="6.55475832614">
>>>>>>> e1d4bc35ff8a6074a6f2e91616a996b547c36f15
		<tag k="bridge" v="yes" />
		<tag k="layer" v="1" />
		<tag k="name" v="Skålholtbrua" />
		<tag k="ssr:stedsnr" v="703144" />
	</node>
<<<<<<< HEAD
	<node lat="62.33771389328142" lon="6.611786107669693" id="-8097">
		<tag k="highway" v="path" />
		<tag k="name" v="Trippe" />
		<tag k="ssr:stedsnr" v="703186" />
	</node>
	<node lat="62.40957777866434" lon="6.781444448046001" id="-8112">
		<tag k="bridge" v="yes" />
		<tag k="layer" v="1" />
		<tag k="name" v="Heimstebrua" />
		<tag k="ssr:stedsnr" v="635207" />
	</node>
	<node lat="62.392305553460005" lon="6.8100861200028" id="-8116">
=======
	<node id="-69878" lat="62.3342388916" lon="6.63706110866">
>>>>>>> e1d4bc35ff8a6074a6f2e91616a996b547c36f15
		<tag k="ford" v="yes" />
		<tag k="name" v="Breivadet" />
		<tag k="place" v="locality" />
		<tag k="ssr:stedsnr" v="642030" />
	</node>
<<<<<<< HEAD
	<node lat="62.334238891624885" lon="6.637061108656121" id="-8121">
=======
	<node id="-69800" lat="62.4060055533" lon="6.56529443736">
		<tag k="bridge" v="yes" />
		<tag k="layer" v="1" />
		<tag k="name" v="Fauskebrua" />
		<tag k="ssr:stedsnr" v="574221" />
	</node>
	<node id="-69865" lat="62.3923055535" lon="6.81008612">
>>>>>>> e1d4bc35ff8a6074a6f2e91616a996b547c36f15
		<tag k="ford" v="yes" />
		<tag k="name" v="Hammarsetvadet" />
		<tag k="place" v="locality" />
		<tag k="ssr:stedsnr" v="642115" />
	</node>
<<<<<<< HEAD
	<node lat="62.30728888870102" lon="6.6270361150705375" id="-8145">
=======
	<node id="-68961" lat="62.3072888887" lon="6.62703611507">
>>>>>>> e1d4bc35ff8a6074a6f2e91616a996b547c36f15
		<tag k="bridge" v="yes" />
		<tag k="layer" v="1" />
		<tag k="name" v="Dravlausbrua" />
		<tag k="ssr:stedsnr" v="696220" />
	</node>
<<<<<<< HEAD
	<node lat="62.31734722461787" lon="6.756424995039782" id="-8177">
=======
	<node id="-69343" lat="62.3793888859" lon="6.57328888758">
>>>>>>> e1d4bc35ff8a6074a6f2e91616a996b547c36f15
		<tag k="bridge" v="yes" />
		<tag k="layer" v="1" />
		<tag k="name" v="Juvbrua" />
		<tag k="ssr:stedsnr" v="757208" />
	</node>
<<<<<<< HEAD
	<node lat="62.31958055233968" lon="6.751230549692387" id="-8212">
		<tag k="bridge" v="yes" />
		<tag k="layer" v="1" />
		<tag k="name" v="Drotninghaugbrua" />
		<tag k="ssr:stedsnr" v="818208" />
	</node>
	<node lat="62.386961114934785" lon="6.453663880217384" id="-8220">
		<tag k="bridge" v="yes" />
		<tag k="layer" v="1" />
		<tag k="name" v="Sykkylvsbrua" />
		<tag k="ssr:stedsnr" v="824308" />
	</node>
	<node lat="62.39550833441462" lon="6.581861113883165" id="-8263">
=======
	<node id="-69598" lat="62.4100555526" lon="6.54793332828">
		<tag k="alt_name" v="Ørsneset ferjekai" />
		<tag k="amenity" v="ferry_terminal" />
		<tag k="name" v="Aursneset ferjekai" />
		<tag k="ssr:stedsnr" v="338259" />
	</node>
	<node id="-68701" lat="62.3173694413" lon="6.75643055717">
		<tag k="bridge" v="yes" />
		<tag k="layer" v="1" />
		<tag k="name" v="Berge bru" />
		<tag k="ssr:stedsnr" v="96302" />
	</node>
	<node id="-68828" lat="62.4422111148" lon="6.74314999466">
		<tag k="man_made" v="quay" />
		<tag k="name" v="Vedakaia" />
		<tag k="place" v="locality" />
		<tag k="ssr:stedsnr" v="278251" />
	</node>
	<node id="-69595" lat="62.3853888851" lon="6.55471945197">
>>>>>>> e1d4bc35ff8a6074a6f2e91616a996b547c36f15
		<tag k="bridge" v="yes" />
		<tag k="layer" v="1" />
		<tag k="name" v="Aureosbrua" />
		<tag k="ssr:stedsnr" v="878220" />
	</node>
<<<<<<< HEAD
	<node lat="62.33881111031818" lon="6.635488886316708" id="-8321">
=======
	<node id="-69208" lat="62.3388111103" lon="6.63548888632">
>>>>>>> e1d4bc35ff8a6074a6f2e91616a996b547c36f15
		<tag k="ford" v="yes" />
		<tag k="name" v="Godfarholtvadet" />
		<tag k="place" v="locality" />
		<tag k="ssr:stedsnr" v="946102" />
	</node>
<<<<<<< HEAD
	<node lat="62.37938888588876" lon="6.573288887577011" id="-8349">
=======
	<node id="-68817" lat="62.3716527767" lon="6.42421110327">
		<tag k="amenity" v="ferry_terminal" />
		<tag k="name" v="Hundeidvika ferjekai" />
		<tag k="ssr:stedsnr" v="277125" />
	</node>
	<node id="-68664" lat="62.3666027779" lon="6.42387777355">
		<tag k="bridge" v="yes" />
		<tag k="layer" v="1" />
		<tag k="name" v="Storelvbrua" />
		<tag k="ssr:stedsnr" v="29238" />
	</node>
	<node id="-68814" lat="62.412763887" lon="6.56482777538">
		<tag k="highway" v="path" />
		<tag k="loc_name" v="Strandaråsa" />
		<tag k="name" v="Strandavegen" />
		<tag k="ssr:stedsnr" v="455379" />
	</node>
	<node id="-68676" lat="62.3785666673" lon="6.57232777748">
>>>>>>> e1d4bc35ff8a6074a6f2e91616a996b547c36f15
		<tag k="bridge" v="yes" />
		<tag k="layer" v="1" />
		<tag k="name" v="Sjursbrua" />
		<tag k="ssr:stedsnr" v="28225" />
	</node>
<<<<<<< HEAD
	<node lat="62.44484166622505" lon="6.746097225657498" id="-8424">
=======
	<node id="-69494" lat="62.3850111084" lon="6.55837777851">
		<tag k="bridge" v="yes" />
		<tag k="layer" v="1" />
		<tag k="name" v="Sykkylvsbrua" />
		<tag k="ssr:stedsnr" v="142164" />
	</node>
	<node id="-69438" lat="62.4448416662" lon="6.74609722566">
>>>>>>> e1d4bc35ff8a6074a6f2e91616a996b547c36f15
		<tag k="fixme" v="verify maritime location" />
		<tag k="mooring" v="yes" />
		<tag k="name" v="Likstøa" />
		<tag k="place" v="locality" />
		<tag k="ssr:stedsnr" v="91385" />
	</node>
<<<<<<< HEAD
	<node lat="62.38501110836023" lon="6.558377778507442" id="-8481">
		<tag k="bridge" v="yes" />
		<tag k="layer" v="1" />
		<tag k="name" v="Sykkylvsbrua" />
		<tag k="ssr:stedsnr" v="142164" />
	</node>
	<node lat="62.38775555303284" lon="6.554758326140103" id="-8483">
=======
	<node id="-69948" lat="62.3388305599" lon="6.63548612007">
		<tag k="ford" v="yes" />
		<tag k="loc_name" v="Goffarholtvadet" />
		<tag k="name" v="Loffarholtvadet" />
		<tag k="place" v="locality" />
		<tag k="ssr:stedsnr" v="759472" />
	</node>
	<node id="-69947" lat="62.3173472246" lon="6.75642499504">
>>>>>>> e1d4bc35ff8a6074a6f2e91616a996b547c36f15
		<tag k="bridge" v="yes" />
		<tag k="layer" v="1" />
		<tag k="name" v="Hatlemarkbrua" />
		<tag k="ssr:stedsnr" v="150227" />
	</node>
<<<<<<< HEAD
	<node lat="62.34933889130398" lon="6.790311113732628" id="-8517">
=======
	<node id="-69050" lat="62.3955083344" lon="6.58186111388">
>>>>>>> e1d4bc35ff8a6074a6f2e91616a996b547c36f15
		<tag k="bridge" v="yes" />
		<tag k="layer" v="1" />
		<tag k="name" v="Revsdalsbrua" />
		<tag k="ssr:stedsnr" v="174102" />
	</node>
<<<<<<< HEAD
	<node lat="62.409569445089964" lon="6.781483341299835" id="-8555">
=======
	<node id="-69049" lat="62.4095777787" lon="6.78144444805">
>>>>>>> e1d4bc35ff8a6074a6f2e91616a996b547c36f15
		<tag k="bridge" v="yes" />
		<tag k="layer" v="1" />
		<tag k="name" v="Heimste Løsetbrua" />
		<tag k="ssr:stedsnr" v="217062" />
	</node>
<<<<<<< HEAD
	<node lat="62.40570555997949" lon="6.78783056447302" id="-8556">
=======
	<node id="-69560" lat="62.3493388913" lon="6.79031111373">
>>>>>>> e1d4bc35ff8a6074a6f2e91616a996b547c36f15
		<tag k="bridge" v="yes" />
		<tag k="layer" v="1" />
		<tag k="name" v="Fremste Løsetbrua" />
		<tag k="ssr:stedsnr" v="217063" />
	</node>
<<<<<<< HEAD
	<node lat="62.2995305537598" lon="6.694602787219227" id="-8590">
		<tag k="bridge" v="yes" />
		<tag k="layer" v="1" />
		<tag k="name" v="Øyebrua" />
		<tag k="ssr:stedsnr" v="218143" />
	</node>
	<node lat="62.4422111148312" lon="6.743149994657116" id="-8618">
		<tag k="man_made" v="quay" />
		<tag k="name" v="Vedakaia" />
		<tag k="place" v="locality" />
		<tag k="ssr:stedsnr" v="278251" />
	</node>
	<node lat="62.40016944246639" lon="6.582794448655426" id="-8701">
=======
	<node id="-68918" lat="62.4336777804" lon="6.64386111469">
		<tag k="highway" v="path" />
		<tag k="name" v="Bjørnastigen" />
		<tag k="ssr:stedsnr" v="399009" />
	</node>
	<node id="-69173" lat="62.4056777782" lon="6.78779167208">
>>>>>>> e1d4bc35ff8a6074a6f2e91616a996b547c36f15
		<tag k="bridge" v="yes" />
		<tag k="layer" v="1" />
		<tag k="name" v="Jakobsbrua" />
		<tag k="ssr:stedsnr" v="392218" />
	</node>
<<<<<<< HEAD
	<node lat="62.29701111175681" lon="6.765994441329445" id="-8702">
=======
	<node id="-69854" lat="62.3729416703" lon="6.57223055372">
		<tag k="bridge" v="yes" />
		<tag k="layer" v="1" />
		<tag k="name" v="Jektevikbrua" />
		<tag k="ssr:stedsnr" v="635195" />
	</node>
	<node id="-68786" lat="62.3954999988" lon="6.58199445295">
>>>>>>> e1d4bc35ff8a6074a6f2e91616a996b547c36f15
		<tag k="bridge" v="yes" />
		<tag k="layer" v="1" />
		<tag k="name" v="Klipekloppa" />
		<tag k="ssr:stedsnr" v="392227" />
	</node>
<<<<<<< HEAD
	<node lat="62.40600555326921" lon="6.5652944373632405" id="-8807">
		<tag k="bridge" v="yes" />
		<tag k="layer" v="1" />
		<tag k="name" v="Fauskebrua" />
		<tag k="ssr:stedsnr" v="574221" />
	</node>
	<node lat="62.3729422462479" lon="6.573925496393934" id="-8851">
=======
	<node id="-69679" lat="62.3917333348" lon="6.63113332807">
		<tag k="landuse" v="industrial" />
		<tag k="name" v="Haugset sekundærstasjon" />
		<tag k="power" v="plant" />
		<tag k="ssr:stedsnr" v="399192" />
	</node>
	<node id="-69806" lat="62.4189833345" lon="6.78453611984">
>>>>>>> e1d4bc35ff8a6074a6f2e91616a996b547c36f15
		<tag k="bridge" v="yes" />
		<tag k="layer" v="1" />
		<tag k="name" v="Jektevikbrua" />
		<tag k="ssr:stedsnr" v="635195" />
	</node>
	<node lat="62.385208329207174" lon="6.454666663142421" id="-8894">
		<tag k="ford" v="yes" />
		<tag k="name" v="Sykkylvsvadet" />
		<tag k="place" v="locality" />
		<tag k="ssr:stedsnr" v="642246" />
	</node>
	<node lat="62.33883055992461" lon="6.635486120065881" id="-8916">
		<tag k="ford" v="yes" />
		<tag k="loc_name" v="Goffarholtvadet" />
		<tag k="name" v="Loffarholtvadet" />
		<tag k="place" v="locality" />
		<tag k="ssr:stedsnr" v="759472" />
	</node>
	<node lat="62.41094444181074" lon="6.576619447672649" id="-9042">
		<tag k="highway" v="path" />
		<tag k="name" v="Sætrevegen" />
		<tag k="ssr:stedsnr" v="885325" />
	</node>
	<node lat="62.40567777822054" lon="6.787791672081631" id="-9061">
		<tag k="bridge" v="yes" />
		<tag k="layer" v="1" />
		<tag k="name" v="Fremstebrua" />
		<tag k="ssr:stedsnr" v="939242" />
	</node>
	<node id="-69289" lat="62.40570556" lon="6.78783056447">
		<tag k="bridge" v="yes" />
		<tag k="layer" v="1" />
		<tag k="name" v="Fremste Løsetbrua" />
		<tag k="ssr:stedsnr" v="217063" />
	</node>
	<node id="-69288" lat="62.4095694451" lon="6.7814833413">
		<tag k="bridge" v="yes" />
		<tag k="layer" v="1" />
		<tag k="name" v="Heimste Løsetbrua" />
		<tag k="ssr:stedsnr" v="217062" />
	</node>
	<node id="-68647" lat="62.2995305538" lon="6.69460278722">
		<tag k="bridge" v="yes" />
		<tag k="layer" v="1" />
		<tag k="name" v="Øyebrua" />
		<tag k="ssr:stedsnr" v="218143" />
	</node>
	<node id="-69156" lat="62.3869611149" lon="6.45366388022">
		<tag k="bridge" v="yes" />
		<tag k="layer" v="1" />
		<tag k="name" v="Sykkylvsbrua" />
		<tag k="ssr:stedsnr" v="824308" />
	</node>
	<node id="-69918" lat="62.3852083292" lon="6.45466666314">
		<tag k="ford" v="yes" />
		<tag k="name" v="Sykkylvsvadet" />
		<tag k="place" v="locality" />
		<tag k="ssr:stedsnr" v="642246" />
	</node>
	<node id="-69661" lat="62.4112666663" lon="6.56721944952">
		<tag k="highway" v="path" />
		<tag k="loc_name" v="Fjellråsa" />
		<tag k="name" v="Fjellvegen" />
		<tag k="ssr:stedsnr" v="394424" />
	</node>
	<node id="-69659" lat="62.2970111118" lon="6.76599444133">
		<tag k="bridge" v="yes" />
		<tag k="layer" v="1" />
		<tag k="name" v="Klipekloppa" />
		<tag k="ssr:stedsnr" v="392227" />
	</node>
	<node id="-69658" lat="62.4001694425" lon="6.58279444866">
		<tag k="bridge" v="yes" />
		<tag k="layer" v="1" />
		<tag k="name" v="Jakobsbrua" />
		<tag k="ssr:stedsnr" v="392218" />
	</node>
	<node id="-68847" lat="62.3092027787" lon="6.62416111093">
		<tag k="bridge" v="yes" />
		<tag k="layer" v="1" />
		<tag k="name" v="Fitjabrua" />
		<tag k="ssr:stedsnr" v="460136" />
	</node>
	<node id="-69143" lat="62.3195805523" lon="6.75123054969">
		<tag k="bridge" v="yes" />
		<tag k="layer" v="1" />
		<tag k="name" v="Drotninghaugbrua" />
		<tag k="ssr:stedsnr" v="818208" />
	</node>
	<node id="-69268" lat="62.4109444418" lon="6.57661944767">
		<tag k="highway" v="path" />
		<tag k="name" v="Sætrevegen" />
		<tag k="ssr:stedsnr" v="885325" />
	</node>
	<node id="-68878" lat="62.3760722268" lon="6.51617222748">
		<tag k="highway" v="path" />
		<tag k="name" v="Trongstien" />
		<tag k="ssr:stedsnr" v="460404" />
	</node>
	<node id="-69004" lat="62.3377138933" lon="6.61178610767">
		<tag k="highway" v="path" />
		<tag k="name" v="Trippe" />
		<tag k="ssr:stedsnr" v="703186" />
	</node>
	<node id="-69640" lat="62.3195555548" lon="6.75083332687">
		<tag k="junction" v="yes" />
		<tag k="name" v="Fjellsætervegskiftet" />
		<tag k="place" v="locality" />
		<tag k="ssr:stedsnr" v="339294" />
	</node>
	<node id="-68868" lat="62.3651472256" lon="6.42055556285">
		<tag k="fixme" v="consider highway=path" />
		<tag k="highway" v="track" />
		<tag k="name" v="Sætervegen" />
		<tag k="ssr:stedsnr" v="460307" />
	</node>
	<node id="-68995" lat="62.3572611133" lon="6.62630278229">
		<tag k="bridge" v="yes" />
		<tag k="layer" v="1" />
		<tag k="name" v="Skålholtbrua" />
		<tag k="ssr:stedsnr" v="703144" />
	</node>
</osm>
