<?xml version="1.0" encoding="UTF-8"?>
<osm version="0.6" generator="osmapis">
	<node lat="62.36024722074665" lon="6.8348916667990105" id="-3603">
		<tag k="name" v="Høgkleivhaugen" />
		<tag k="natural" v="hill" />
		<tag k="place" v="locality" />
		<tag k="ssr:stedsnr" v="10707" />
	</node>
	<node lat="62.25795000320945" lon="6.6537416703478485" id="-3607">
		<tag k="name" v="Vellesætredalen" />
		<tag k="natural" v="valley" />
		<tag k="place" v="locality" />
		<tag k="ssr:stedsnr" v="11276" />
	</node>
	<node lat="62.3151292865124" lon="6.639045245913279" id="-3608">
		<tag k="alt_name" v="Dravlauskollen" />
		<tag k="fixme" v="consider natural=peak for the most distinct mountains in the district" />
		<tag k="name" v="Dravlausnyken" />
		<tag k="natural" v="hill" />
		<tag k="place" v="locality" />
		<tag k="ssr:stedsnr" v="11435" />
	</node>
	<node lat="62.38520277942988" lon="6.6435833384770975" id="-3610">
		<tag k="fixme" v="consider natural=peak for the most distinct mountains in the district" />
		<tag k="name" v="Fagrefjellet" />
		<tag k="natural" v="hill" />
		<tag k="place" v="locality" />
		<tag k="ssr:stedsnr" v="11381" />
	</node>
	<node lat="62.38264444751861" lon="6.525663895290174" id="-3611">
		<tag k="alt_name" v="Sæssåsen" />
		<tag k="fixme" v="consider natural=peak for the most distinct mountains in the district" />
		<tag k="name" v="Åsen" />
		<tag k="natural" v="hill" />
		<tag k="place" v="locality" />
		<tag k="ssr:stedsnr" v="11388" />
	</node>
	<node lat="62.303008332144884" lon="6.671841662394683" id="-3617">
		<tag k="name" v="Bytingsskaret" />
		<tag k="natural" v="valley" />
		<tag k="place" v="locality" />
		<tag k="ssr:stedsnr" v="35007" />
	</node>
	<node lat="62.35063888744236" lon="6.55875833668798" id="-3618">
		<tag k="name" v="Hjellen" />
		<tag k="place" v="locality" />
		<tag k="ssr:stedsnr" v="35203" />
	</node>
	<node lat="62.36384166932025" lon="6.623125004757513" id="-3619">
		<tag k="name" v="Hjellen" />
		<tag k="place" v="locality" />
		<tag k="ssr:stedsnr" v="35204" />
	</node>
	<node lat="62.358827781629955" lon="6.552211109363792" id="-3620">
		<tag k="name" v="Furenakken" />
		<tag k="natural" v="ridge" />
		<tag k="place" v="locality" />
		<tag k="ssr:stedsnr" v="35205" />
	</node>
	<node lat="62.29533333368727" lon="6.636194450197513" id="-3622">
		<tag k="name" v="Djupedalen" />
		<tag k="natural" v="valley" />
		<tag k="place" v="locality" />
		<tag k="ssr:stedsnr" v="35260" />
	</node>
	<node lat="62.41455277618884" lon="6.747044450715901" id="-3627">
		<tag k="name" v="Tverbergane" />
		<tag k="natural" v="ridge" />
		<tag k="place" v="locality" />
		<tag k="ssr:stedsnr" v="35227" />
	</node>
	<node lat="62.28338333239879" lon="6.646502768737399" id="-3632">
		<tag k="name" v="Remen" />
		<tag k="natural" v="ridge" />
		<tag k="place" v="locality" />
		<tag k="ssr:stedsnr" v="35168" />
	</node>
	<node lat="62.33281944152427" lon="6.754611115598648" id="-3633">
		<tag k="name" v="Legene" />
		<tag k="natural" v="slope" />
		<tag k="place" v="locality" />
		<tag k="ssr:stedsnr" v="35122" />
	</node>
	<node lat="62.36820277345422" lon="6.591216660269637" id="-3634">
		<tag k="name" v="Fjellenden" />
		<tag k="place" v="locality" />
		<tag k="ssr:stedsnr" v="35179" />
	</node>
	<node lat="62.35475277385608" lon="6.5374500075753925" id="-3635">
		<tag k="name" v="Dyrestallane" />
		<tag k="natural" v="slope" />
		<tag k="place" v="locality" />
		<tag k="ssr:stedsnr" v="35310" />
	</node>
	<node lat="62.35834444373184" lon="6.7499861179881435" id="-3636">
		<tag k="name" v="Nysæternakken" />
		<tag k="natural" v="ridge" />
		<tag k="place" v="locality" />
		<tag k="ssr:stedsnr" v="35363" />
	</node>
	<node lat="62.36984166521684" lon="6.745388888688872" id="-3637">
		<tag k="fixme" v="multiple name tags, choose one and add the other to alt_name" />
		<tag k="name" v="Revsdalsbrekka;Brekka" />
		<tag k="natural" v="slope" />
		<tag k="place" v="locality" />
		<tag k="ssr:stedsnr" v="35366" />
	</node>
	<node lat="62.415936108721255" lon="6.5848305572905685" id="-3638">
		<tag k="name" v="Fauskekammen" />
		<tag k="natural" v="hill" />
		<tag k="place" v="locality" />
		<tag k="ssr:stedsnr" v="35377" />
	</node>
	<node lat="62.42063888559473" lon="6.657505548460518" id="-3639">
		<tag k="name" v="Bukkeflæene" />
		<tag k="place" v="locality" />
		<tag k="ssr:stedsnr" v="35382" />
	</node>
	<node lat="62.273219442978075" lon="6.651802784983096" id="-3642">
		<tag k="name" v="Kloven" />
		<tag k="natural" v="hill" />
		<tag k="place" v="locality" />
		<tag k="ssr:stedsnr" v="72267" />
	</node>
	<node lat="62.32242499808403" lon="6.76342500157391" id="-3643">
		<tag k="alt_name" v="Kvitenykane" />
		<tag k="fixme" v="consider natural=peak for the most distinct mountains in the district" />
		<tag k="name" v="Nakkane" />
		<tag k="natural" v="hill" />
		<tag k="place" v="locality" />
		<tag k="ssr:stedsnr" v="72614" />
	</node>
	<node lat="62.36459722056976" lon="6.452322231407971" id="-3646">
		<tag k="loc_name" v="Skøyelsgylet" />
		<tag k="name" v="Grøngjelet" />
		<tag k="natural" v="valley" />
		<tag k="place" v="locality" />
		<tag k="ssr:stedsnr" v="91529" />
	</node>
	<node lat="62.42971388500932" lon="6.749738886090231" id="-3648">
		<tag k="name" v="Store Kattåsen" />
		<tag k="natural" v="ridge" />
		<tag k="place" v="locality" />
		<tag k="ssr:stedsnr" v="96073" />
	</node>
	<node lat="62.41225277463985" lon="6.693536115442861" id="-3649">
		<tag k="name" v="Nakkerøra" />
		<tag k="natural" v="ridge" />
		<tag k="place" v="locality" />
		<tag k="ssr:stedsnr" v="96077" />
	</node>
	<node lat="62.266622226236066" lon="6.6814666570392545" id="-3650">
		<tag k="name" v="Vellesæterryggen" />
		<tag k="natural" v="ridge" />
		<tag k="place" v="locality" />
		<tag k="ssr:stedsnr" v="96229" />
	</node>
	<node lat="62.30999722685252" lon="6.6049333414477225" id="-3651">
		<tag k="name" v="Ytstebjønnane" />
		<tag k="natural" v="hill" />
		<tag k="place" v="locality" />
		<tag k="ssr:stedsnr" v="96263" />
	</node>
	<node lat="62.32098611475916" lon="6.619463885234945" id="-3652">
		<tag k="name" v="Sletterabben" />
		<tag k="natural" v="slope" />
		<tag k="place" v="locality" />
		<tag k="ssr:stedsnr" v="96265" />
	</node>
	<node lat="62.35501944148978" lon="6.599208326942175" id="-3654">
		<tag k="name" v="Tandstadfjellet" />
		<tag k="natural" v="ridge" />
		<tag k="place" v="locality" />
		<tag k="ssr:stedsnr" v="96174" />
	</node>
	<node lat="62.321877779553844" lon="6.646677787170213" id="-3655">
		<tag k="name" v="Søtå" />
		<tag k="natural" v="slope" />
		<tag k="place" v="locality" />
		<tag k="ssr:stedsnr" v="96175" />
	</node>
	<node lat="62.32573333641459" lon="6.607977772355172" id="-3656">
		<tag k="name" v="Hjellane" />
		<tag k="natural" v="slope" />
		<tag k="place" v="locality" />
		<tag k="ssr:stedsnr" v="96181" />
	</node>
	<node lat="62.33505833489514" lon="6.806472226022906" id="-3657">
		<tag k="name" v="Furuhaugen" />
		<tag k="natural" v="hill" />
		<tag k="place" v="locality" />
		<tag k="ssr:stedsnr" v="96315" />
	</node>
	<node lat="62.42137221856004" lon="6.5898638937593175" id="-3661">
		<tag k="name" v="Svartesvahammaren" />
		<tag k="place" v="locality" />
		<tag k="ssr:stedsnr" v="96359" />
	</node>
	<node lat="62.36857222611754" lon="6.646241671170773" id="-3666">
		<tag k="fixme" v="consider natural=peak for the most distinct mountains in the district" />
		<tag k="name" v="Koppen" />
		<tag k="natural" v="hill" />
		<tag k="place" v="locality" />
		<tag k="ssr:stedsnr" v="132371" />
	</node>
	<node lat="62.31087777566939" lon="6.8052722128410545" id="-3670">
		<tag k="fixme" v="consider natural=peak for the most distinct mountains in the district" />
		<tag k="name" v="Kleivdalsfjellet" />
		<tag k="natural" v="hill" />
		<tag k="place" v="locality" />
		<tag k="ssr:stedsnr" v="133456" />
	</node>
	<node lat="62.425627773615346" lon="6.657197230388251" id="-3673">
		<tag k="name" v="Tudalen" />
		<tag k="natural" v="valley" />
		<tag k="place" v="locality" />
		<tag k="ssr:stedsnr" v="253057" />
	</node>
	<node lat="62.38905000411038" lon="6.701266673757073" id="-3675">
		<tag k="name" v="Melsetdalen" />
		<tag k="natural" v="valley" />
		<tag k="place" v="locality" />
		<tag k="ssr:stedsnr" v="253440" />
	</node>
	<node lat="62.33541944289719" lon="6.443499991349223" id="-3676">
		<tag k="name" v="Hundsvadgylet" />
		<tag k="natural" v="valley" />
		<tag k="place" v="locality" />
		<tag k="ssr:stedsnr" v="254394" />
	</node>
	<node lat="62.3051416631945" lon="6.7736444421547555" id="-3680">
		<tag k="fixme" v="consider natural=peak for the most distinct mountains in the district" />
		<tag k="name" v="Myrdalsfjellet" />
		<tag k="natural" v="hill" />
		<tag k="place" v="locality" />
		<tag k="ssr:stedsnr" v="254583" />
	</node>
	<node lat="62.43159722477914" lon="6.807686104091298" id="-3681">
		<tag k="name" v="Nova" />
		<tag k="natural" v="hill" />
		<tag k="place" v="locality" />
		<tag k="ssr:stedsnr" v="254651" />
	</node>
	<node lat="62.43300000114903" lon="6.824380547199388" id="-3682">
		<tag k="name" v="Bugane" />
		<tag k="natural" v="valley" />
		<tag k="old_name" v="Bugen" />
		<tag k="place" v="locality" />
		<tag k="ssr:stedsnr" v="254656" />
	</node>
	<node lat="62.448577774438725" lon="6.72909722236203" id="-3687">
		<tag k="name" v="Storgylet" />
		<tag k="natural" v="valley" />
		<tag k="place" v="locality" />
		<tag k="ssr:stedsnr" v="156025" />
	</node>
	<node lat="62.42275277920445" lon="6.7456083314063005" id="-3689">
		<tag k="name" v="Ramnegalet" />
		<tag k="natural" v="cliff" />
		<tag k="ssr:stedsnr" v="156050" />
	</node>
	<node lat="62.36707222111406" lon="6.598497231839245" id="-3691">
		<tag k="name" v="Blikjene" />
		<tag k="place" v="locality" />
		<tag k="ssr:stedsnr" v="157052" />
	</node>
	<node lat="62.37436389267594" lon="6.622011107962848" id="-3692">
		<tag k="name" v="Ospelia" />
		<tag k="natural" v="slope" />
		<tag k="place" v="locality" />
		<tag k="ssr:stedsnr" v="157062" />
	</node>
	<node lat="62.38842499815779" lon="6.707936108807694" id="-3693">
		<tag k="name" v="Aurdalsheiane" />
		<tag k="natural" v="slope" />
		<tag k="place" v="locality" />
		<tag k="ssr:stedsnr" v="157098" />
	</node>
	<node lat="62.30526666518669" lon="6.601183331560061" id="-3695">
		<tag k="name" v="Brykjet" />
		<tag k="natural" v="slope" />
		<tag k="place" v="locality" />
		<tag k="ssr:stedsnr" v="157211" />
	</node>
	<node lat="62.34591388477212" lon="6.7818111118640845" id="-3696">
		<tag k="name" v="Tudalsreset" />
		<tag k="natural" v="hill" />
		<tag k="place" v="locality" />
		<tag k="ssr:stedsnr" v="157250" />
	</node>
	<node lat="62.342224995830506" lon="6.783005560298657" id="-3697">
		<tag k="name" v="La-storhaugen" />
		<tag k="natural" v="hill" />
		<tag k="place" v="locality" />
		<tag k="ssr:stedsnr" v="157251" />
	</node>
	<node lat="62.44092500077117" lon="6.738047214673133" id="-3698">
		<tag k="name" v="Veltene" />
		<tag k="natural" v="slope" />
		<tag k="place" v="locality" />
		<tag k="ssr:stedsnr" v="157102" />
	</node>
	<node lat="62.34204167013425" lon="6.613816675461723" id="-3699">
		<tag k="name" v="Litlehaugane" />
		<tag k="natural" v="hill" />
		<tag k="place" v="locality" />
		<tag k="ssr:stedsnr" v="157103" />
	</node>
	<node lat="62.344074998225956" lon="6.593933341927605" id="-3701">
		<tag k="name" v="Hjellane" />
		<tag k="place" v="locality" />
		<tag k="ssr:stedsnr" v="157147" />
	</node>
	<node lat="62.332124997206044" lon="6.569986116159242" id="-3702">
		<tag k="name" v="Berget" />
		<tag k="natural" v="slope" />
		<tag k="place" v="locality" />
		<tag k="ssr:stedsnr" v="157149" />
	</node>
	<node lat="62.43744999973805" lon="6.652441665188787" id="-3703">
		<tag k="name" v="Hjellane" />
		<tag k="place" v="locality" />
		<tag k="ssr:stedsnr" v="157150" />
	</node>
	<node lat="62.343083333776434" lon="6.551372219360394" id="-3705">
		<tag k="name" v="Heia" />
		<tag k="natural" v="ridge" />
		<tag k="place" v="locality" />
		<tag k="ssr:stedsnr" v="157153" />
	</node>
	<node lat="62.373255552314625" lon="6.703336111142356" id="-3707">
		<tag k="name" v="Raudebergane" />
		<tag k="natural" v="slope" />
		<tag k="place" v="locality" />
		<tag k="ssr:stedsnr" v="157163" />
	</node>
	<node lat="62.26632500445286" lon="6.697672220715439" id="-3708">
		<tag k="name" v="Rødsethaugen" />
		<tag k="natural" v="hill" />
		<tag k="place" v="locality" />
		<tag k="ssr:stedsnr" v="157169" />
	</node>
	<node lat="62.32436388561986" lon="6.620800000800781" id="-3709">
		<tag k="name" v="Bjørnastigen" />
		<tag k="natural" v="slope" />
		<tag k="place" v="locality" />
		<tag k="ssr:stedsnr" v="157198" />
	</node>
	<node lat="62.41421388722004" lon="6.594533338401922" id="-3711">
		<tag k="name" v="Kalvehaugen" />
		<tag k="natural" v="hill" />
		<tag k="place" v="locality" />
		<tag k="ssr:stedsnr" v="157302" />
	</node>
	<node lat="62.413613885073445" lon="6.5867250045064045" id="-3712">
		<tag k="name" v="Gamalseternausa" />
		<tag k="natural" v="hill" />
		<tag k="place" v="locality" />
		<tag k="ssr:stedsnr" v="157303" />
	</node>
	<node lat="62.32998610785645" lon="6.5218111078963386" id="-3713">
		<tag k="name" v="Jolgrøkollen" />
		<tag k="natural" v="hill" />
		<tag k="place" v="locality" />
		<tag k="ssr:stedsnr" v="157318" />
	</node>
	<node lat="62.38186110972661" lon="6.602958333529582" id="-3715">
		<tag k="name" v="Vikeheidane" />
		<tag k="natural" v="slope" />
		<tag k="place" v="locality" />
		<tag k="ssr:stedsnr" v="157299" />
	</node>
	<node lat="62.302402777162655" lon="6.603575007974105" id="-3719">
		<tag k="name" v="Høgremen" />
		<tag k="natural" v="ridge" />
		<tag k="place" v="locality" />
		<tag k="ssr:stedsnr" v="266769" />
	</node>
	<node lat="62.39158333776669" lon="6.5008611095783" id="-3721">
		<tag k="fixme" v="consider natural=peak for the most distinct mountains in the district" />
		<tag k="name" v="Blakstadfjellet" />
		<tag k="natural" v="hill" />
		<tag k="place" v="locality" />
		<tag k="ssr:stedsnr" v="205784" />
	</node>
	<node lat="62.33886111178173" lon="6.623174998295076" id="-3724">
		<tag k="name" v="Storhaugen" />
		<tag k="natural" v="hill" />
		<tag k="place" v="locality" />
		<tag k="ssr:stedsnr" v="217127" />
	</node>
	<node lat="62.303122222339965" lon="6.681647224665695" id="-3725">
		<tag k="name" v="Ufshammaren" />
		<tag k="place" v="locality" />
		<tag k="ssr:stedsnr" v="217207" />
	</node>
	<node lat="62.302277782082854" lon="6.686388895225108" id="-3726">
		<tag k="name" v="Rystebakken" />
		<tag k="natural" v="slope" />
		<tag k="place" v="locality" />
		<tag k="ssr:stedsnr" v="217209" />
	</node>
	<node lat="62.308608332142" lon="6.669227768553269" id="-3727">
		<tag k="name" v="Søre Kroken" />
		<tag k="natural" v="slope" />
		<tag k="place" v="locality" />
		<tag k="ssr:stedsnr" v="217214" />
	</node>
	<node lat="62.28694166966782" lon="6.684702776794096" id="-3728">
		<tag k="name" v="Remelegda" />
		<tag k="natural" v="slope" />
		<tag k="place" v="locality" />
		<tag k="ssr:stedsnr" v="217215" />
	</node>
	<node lat="62.39481944781451" lon="6.597955563657378" id="-3732">
		<tag k="name" v="Bakkeøyane" />
		<tag k="place" v="locality" />
		<tag k="ssr:stedsnr" v="217331" />
	</node>
	<node lat="62.42408888894378" lon="6.818491674427669" id="-3734">
		<tag k="fixme" v="consider natural=peak for the most distinct mountains in the district" />
		<tag k="name" v="Ramstadfjellet" />
		<tag k="natural" v="hill" />
		<tag k="place" v="locality" />
		<tag k="ssr:stedsnr" v="218026" />
	</node>
	<node lat="62.43021667036458" lon="6.642249993647466" id="-3735">
		<tag k="name" v="Jøtta" />
		<tag k="natural" v="slope" />
		<tag k="place" v="locality" />
		<tag k="ssr:stedsnr" v="218076" />
	</node>
	<node lat="62.34015277977883" lon="6.518958325880609" id="-3736">
		<tag k="name" v="Mælen" />
		<tag k="natural" v="ridge" />
		<tag k="place" v="locality" />
		<tag k="ssr:stedsnr" v="218079" />
	</node>
	<node lat="62.29381111451909" lon="6.705922230116449" id="-3739">
		<tag k="name" v="Remane" />
		<tag k="natural" v="ridge" />
		<tag k="place" v="locality" />
		<tag k="ssr:stedsnr" v="218223" />
	</node>
	<node lat="62.31902778139609" lon="6.7568527690942135" id="-3741">
		<tag k="name" v="Nakken" />
		<tag k="natural" v="ridge" />
		<tag k="place" v="locality" />
		<tag k="ssr:stedsnr" v="218115" />
	</node>
	<node lat="62.37222221894" lon="6.612116674690928" id="-3744">
		<tag k="name" v="Ospelia" />
		<tag k="natural" v="slope" />
		<tag k="place" v="locality" />
		<tag k="ssr:stedsnr" v="218184" />
	</node>
	<node lat="62.358569443106994" lon="6.648152782119994" id="-3745">
		<tag k="name" v="Salen" />
		<tag k="natural" v="valley" />
		<tag k="place" v="locality" />
		<tag k="ssr:stedsnr" v="218186" />
	</node>
	<node lat="62.415891663100346" lon="6.81224167190632" id="-3751">
		<tag k="name" v="Storevarden" />
		<tag k="natural" v="hill" />
		<tag k="place" v="locality" />
		<tag k="ssr:stedsnr" v="253674" />
	</node>
	<node lat="62.314294443172024" lon="6.47486665961206" id="-3754">
		<tag k="name" v="Molaupsskaret" />
		<tag k="natural" v="valley" />
		<tag k="place" v="locality" />
		<tag k="ssr:stedsnr" v="254424" />
	</node>
	<node lat="62.32970555315778" lon="6.524883328432145" id="-3755">
		<tag k="name" v="Riksemdalen" />
		<tag k="natural" v="valley" />
		<tag k="place" v="locality" />
		<tag k="ssr:stedsnr" v="254390" />
	</node>
	<node lat="62.3800722265422" lon="6.727680554844801" id="-3757">
		<tag k="fixme" v="consider natural=peak for the most distinct mountains in the district" />
		<tag k="name" v="Aurdalsnibba" />
		<tag k="natural" v="hill" />
		<tag k="old_name" v="Aurdalsnebba" />
		<tag k="place" v="locality" />
		<tag k="ssr:stedsnr" v="254702" />
	</node>
	<node lat="62.28256388887208" lon="6.742536117711978" id="-3758">
		<tag k="fixme" v="multiple name tags, choose one and add the other to alt_name; consider natural=peak for the most distinct mountains in the district" />
		<tag k="name" v="Holetindane;Ytstevasshornet" />
		<tag k="natural" v="hill" />
		<tag k="old_name" v="Ystevasshornet" />
		<tag k="place" v="locality" />
		<tag k="ssr:stedsnr" v="265628" />
	</node>
	<node lat="62.41557500144912" lon="6.763594443219232" id="-3760">
		<tag k="name" v="Rønakken" />
		<tag k="natural" v="ridge" />
		<tag k="place" v="locality" />
		<tag k="ssr:stedsnr" v="460159" />
	</node>
	<node lat="62.3197333295884" lon="6.738477768707186" id="-3764">
		<tag k="name" v="Nakken" />
		<tag k="natural" v="ridge" />
		<tag k="place" v="locality" />
		<tag k="ssr:stedsnr" v="278110" />
	</node>
	<node lat="62.32043055691666" lon="6.749511104342286" id="-3765">
		<tag k="name" v="Brekka" />
		<tag k="natural" v="slope" />
		<tag k="place" v="locality" />
		<tag k="ssr:stedsnr" v="278111" />
	</node>
	<node lat="62.38814722518751" lon="6.647305545837852" id="-3766">
		<tag k="name" v="Kamben" />
		<tag k="natural" v="ridge" />
		<tag k="place" v="locality" />
		<tag k="ssr:stedsnr" v="278068" />
	</node>
	<node lat="62.40799166470287" lon="6.581558334795232" id="-3767">
		<tag k="name" v="Åsdalen" />
		<tag k="natural" v="valley" />
		<tag k="place" v="locality" />
		<tag k="ssr:stedsnr" v="278073" />
	</node>
	<node lat="62.4119499981969" lon="6.573908338671526" id="-3768">
		<tag k="name" v="Holane" />
		<tag k="natural" v="hill" />
		<tag k="place" v="locality" />
		<tag k="ssr:stedsnr" v="278075" />
	</node>
	<node lat="62.43585555471051" lon="6.649388890576332" id="-3769">
		<tag k="name" v="Koppen" />
		<tag k="natural" v="valley" />
		<tag k="place" v="locality" />
		<tag k="ssr:stedsnr" v="278082" />
	</node>
	<node lat="62.34308611432412" lon="6.4976722155278965" id="-3770">
		<tag k="name" v="Sol-lia" />
		<tag k="natural" v="slope" />
		<tag k="place" v="locality" />
		<tag k="ssr:stedsnr" v="278088" />
	</node>
	<node lat="62.39216667024711" lon="6.769888882172142" id="-3771">
		<tag k="name" v="Melsetbenkane" />
		<tag k="natural" v="ridge" />
		<tag k="place" v="locality" />
		<tag k="ssr:stedsnr" v="278203" />
	</node>
	<node lat="62.35501111000003" lon="6.7150111081302" id="-3772">
		<tag k="name" v="Solaskreda" />
		<tag k="natural" v="slope" />
		<tag k="place" v="locality" />
		<tag k="ssr:stedsnr" v="278205" />
	</node>
	<node lat="62.26845833330788" lon="6.687897225721753" id="-3773">
		<tag k="name" v="Setrehaugane" />
		<tag k="natural" v="hill" />
		<tag k="place" v="locality" />
		<tag k="ssr:stedsnr" v="278221" />
	</node>
	<node lat="62.332572218458935" lon="6.518819453334811" id="-3774">
		<tag k="name" v="Slettene" />
		<tag k="natural" v="slope" />
		<tag k="place" v="locality" />
		<tag k="ssr:stedsnr" v="278269" />
	</node>
	<node lat="62.358002777764" lon="6.631552785144037" id="-3777">
		<tag k="name" v="Høysetkrokane" />
		<tag k="natural" v="slope" />
		<tag k="place" v="locality" />
		<tag k="ssr:stedsnr" v="278170" />
	</node>
	<node lat="62.308419440826164" lon="6.633380557036289" id="-3778">
		<tag k="name" v="Nyfonna" />
		<tag k="natural" v="slope" />
		<tag k="place" v="locality" />
		<tag k="ssr:stedsnr" v="278175" />
	</node>
	<node lat="62.334474998878065" lon="6.6095083426259995" id="-3781">
		<tag k="name" v="Smårisa" />
		<tag k="natural" v="slope" />
		<tag k="place" v="locality" />
		<tag k="ssr:stedsnr" v="278186" />
	</node>
	<node lat="62.39213610721509" lon="6.654480562270786" id="-3783">
		<tag k="name" v="Kjempholdalane" />
		<tag k="natural" v="valley" />
		<tag k="place" v="locality" />
		<tag k="ssr:stedsnr" v="278191" />
	</node>
	<node lat="62.388838890921136" lon="6.45916111030853" id="-3784">
		<tag k="name" v="Goskardnakken" />
		<tag k="natural" v="ridge" />
		<tag k="place" v="locality" />
		<tag k="ssr:stedsnr" v="278308" />
	</node>
	<node lat="62.3961222184064" lon="6.492227768630974" id="-3785">
		<tag k="name" v="Litledalen" />
		<tag k="natural" v="valley" />
		<tag k="place" v="locality" />
		<tag k="ssr:stedsnr" v="278311" />
	</node>
	<node lat="62.41089444500162" lon="6.641174997164559" id="-3789">
		<tag k="name" v="Litlehammaren" />
		<tag k="natural" v="cliff" />
		<tag k="ssr:stedsnr" v="278368" />
	</node>
	<node lat="62.36549166247997" lon="6.5403249929910245" id="-3791">
		<tag k="name" v="Storgjelet" />
		<tag k="natural" v="valley" />
		<tag k="place" v="locality" />
		<tag k="ssr:stedsnr" v="278372" />
	</node>
	<node lat="62.43073333420385" lon="6.831922224083898" id="-3792">
		<tag k="name" v="Svarthammaren" />
		<tag k="place" v="locality" />
		<tag k="ssr:stedsnr" v="460039" />
	</node>
	<node lat="62.40506944814175" lon="6.782536106781486" id="-3793">
		<tag k="name" v="Løsetteigane" />
		<tag k="natural" v="slope" />
		<tag k="place" v="locality" />
		<tag k="ssr:stedsnr" v="460071" />
	</node>
	<node lat="62.35925000141264" lon="6.747286105400535" id="-3795">
		<tag k="name" v="Tua" />
		<tag k="natural" v="hill" />
		<tag k="place" v="locality" />
		<tag k="ssr:stedsnr" v="460133" />
	</node>
	<node lat="62.39006944061536" lon="6.614766664138352" id="-3798">
		<tag k="name" v="Kleiva" />
		<tag k="natural" v="hill" />
		<tag k="place" v="locality" />
		<tag k="ssr:stedsnr" v="460092" />
	</node>
	<node lat="62.41926666953673" lon="6.577497229252056" id="-3799">
		<tag k="name" v="Kløven" />
		<tag k="natural" v="valley" />
		<tag k="place" v="locality" />
		<tag k="ssr:stedsnr" v="460095" />
	</node>
	<node lat="62.287572218047075" lon="6.663425001909108" id="-3800">
		<tag k="name" v="Slettene" />
		<tag k="place" v="locality" />
		<tag k="ssr:stedsnr" v="460285" />
	</node>
	<node lat="62.38877500058032" lon="6.632683333379087" id="-3804">
		<tag k="name" v="Furehaugen" />
		<tag k="natural" v="hill" />
		<tag k="place" v="locality" />
		<tag k="ssr:stedsnr" v="460225" />
	</node>
	<node lat="62.30644444828286" lon="6.704811106863353" id="-3805">
		<tag k="name" v="Gjerda" />
		<tag k="natural" v="slope" />
		<tag k="place" v="locality" />
		<tag k="ssr:stedsnr" v="460165" />
	</node>
	<node lat="62.30874444284153" lon="6.6724111130826795" id="-3806">
		<tag k="name" v="Botnen" />
		<tag k="natural" v="valley" />
		<tag k="place" v="locality" />
		<tag k="ssr:stedsnr" v="460168" />
	</node>
	<node lat="62.346388890379345" lon="6.547722223288115" id="-3807">
		<tag k="name" v="Breiskaret" />
		<tag k="natural" v="valley" />
		<tag k="place" v="locality" />
		<tag k="ssr:stedsnr" v="460171" />
	</node>
	<node lat="62.26601667042164" lon="6.672522213204653" id="-3809">
		<tag k="name" v="Skredene" />
		<tag k="natural" v="slope" />
		<tag k="place" v="locality" />
		<tag k="ssr:stedsnr" v="460181" />
	</node>
	<node lat="62.349252780083965" lon="6.603158341824616" id="-3810">
		<tag k="name" v="Vasshaugane" />
		<tag k="natural" v="hill" />
		<tag k="place" v="locality" />
		<tag k="ssr:stedsnr" v="460186" />
	</node>
	<node lat="62.283055558656265" lon="6.649811106430532" id="-3811">
		<tag k="name" v="Berget" />
		<tag k="natural" v="ridge" />
		<tag k="place" v="locality" />
		<tag k="ssr:stedsnr" v="460187" />
	</node>
	<node lat="62.38113889241862" lon="6.696066661397863" id="-3814">
		<tag k="name" v="Svarthammaren" />
		<tag k="place" v="locality" />
		<tag k="ssr:stedsnr" v="460240" />
	</node>
	<node lat="62.35575555507806" lon="6.467888896797667" id="-3815">
		<tag k="name" v="Brøtfonna" />
		<tag k="natural" v="valley" />
		<tag k="place" v="locality" />
		<tag k="ssr:stedsnr" v="460328" />
	</node>
	<node lat="62.38709721939214" lon="6.4618999909551995" id="-3816">
		<tag k="name" v="Lianakken" />
		<tag k="natural" v="ridge" />
		<tag k="place" v="locality" />
		<tag k="ssr:stedsnr" v="460335" />
	</node>
	<node lat="62.34905555164188" lon="6.611727781519711" id="-3818">
		<tag k="name" v="Liene" />
		<tag k="natural" v="slope" />
		<tag k="place" v="locality" />
		<tag k="ssr:stedsnr" v="460288" />
	</node>
	<node lat="62.44909166624224" lon="6.709797227133955" id="-3819">
		<tag k="name" v="Keipen" />
		<tag k="natural" v="hill" />
		<tag k="place" v="locality" />
		<tag k="ssr:stedsnr" v="460291" />
	</node>
	<node lat="62.32142777435143" lon="6.621227781096799" id="-3820">
		<tag k="name" v="Tellfonna" />
		<tag k="natural" v="valley" />
		<tag k="place" v="locality" />
		<tag k="ssr:stedsnr" v="460293" />
	</node>
	<node lat="62.3583722239552" lon="6.4251472168588615" id="-3821">
		<tag k="name" v="Lia" />
		<tag k="natural" v="slope" />
		<tag k="place" v="locality" />
		<tag k="ssr:stedsnr" v="460297" />
	</node>
	<node lat="62.30730555646777" lon="6.598327786714133" id="-3822">
		<tag k="name" v="Vesleremen" />
		<tag k="natural" v="ridge" />
		<tag k="place" v="locality" />
		<tag k="ssr:stedsnr" v="460300" />
	</node>
	<node lat="62.36348055859205" lon="6.537955556808097" id="-3823">
		<tag k="name" v="Blåfjellet" />
		<tag k="place" v="locality" />
		<tag k="ssr:stedsnr" v="460396" />
	</node>
	<node lat="62.41382500171304" lon="6.599961103650587" id="-3826">
		<tag k="name" v="Myrdalen" />
		<tag k="natural" v="valley" />
		<tag k="place" v="locality" />
		<tag k="ssr:stedsnr" v="314118" />
	</node>
	<node lat="62.41199722558865" lon="6.661441668674499" id="-3829">
		<tag k="name" v="Eldeberget" />
		<tag k="natural" v="hill" />
		<tag k="place" v="locality" />
		<tag k="ssr:stedsnr" v="323178" />
	</node>
	<node lat="62.29885555713058" lon="6.718813879497233" id="-3832">
		<tag k="name" v="Storenakken" />
		<tag k="natural" v="ridge" />
		<tag k="place" v="locality" />
		<tag k="ssr:stedsnr" v="339004" />
	</node>
	<node lat="62.355630554073244" lon="6.412447213817146" id="-3834">
		<tag k="name" v="Klingra" />
		<tag k="place" v="locality" />
		<tag k="ssr:stedsnr" v="339105" />
	</node>
	<node lat="62.31555555756434" lon="6.597358334639745" id="-3835">
		<tag k="alt_name" v="Fitjagjerde" />
		<tag k="name" v="Fitjagjerdet" />
		<tag k="natural" v="slope" />
		<tag k="place" v="locality" />
		<tag k="ssr:stedsnr" v="339120" />
	</node>
	<node lat="62.38312499628747" lon="6.689999993370869" id="-3837">
		<tag k="name" v="Grebstadteigane" />
		<tag k="natural" v="slope" />
		<tag k="place" v="locality" />
		<tag k="ssr:stedsnr" v="339204" />
	</node>
	<node lat="62.37294999743225" lon="6.438486105316625" id="-3838">
		<tag k="name" v="Blikhaugen" />
		<tag k="natural" v="hill" />
		<tag k="place" v="locality" />
		<tag k="ssr:stedsnr" v="339252" />
	</node>
	<node lat="62.3765277806497" lon="6.476811111135289" id="-3839">
		<tag k="name" v="Agardsgjelet" />
		<tag k="natural" v="valley" />
		<tag k="place" v="locality" />
		<tag k="ssr:stedsnr" v="339256" />
	</node>
	<node lat="62.366613891047834" lon="6.638980547111515" id="-3843">
		<tag k="name" v="Skredene" />
		<tag k="natural" v="slope" />
		<tag k="place" v="locality" />
		<tag k="ssr:stedsnr" v="339192" />
	</node>
	<node lat="62.366597218729254" lon="6.838747218269322" id="-3844">
		<tag k="name" v="Kleivanakken" />
		<tag k="natural" v="ridge" />
		<tag k="place" v="locality" />
		<tag k="ssr:stedsnr" v="339303" />
	</node>
	<node lat="62.33493332896401" lon="6.528969445682609" id="-3846">
		<tag k="name" v="Gaddeskogen" />
		<tag k="natural" v="slope" />
		<tag k="place" v="locality" />
		<tag k="ssr:stedsnr" v="339352" />
	</node>
	<node lat="62.3908277761524" lon="6.518055559951103" id="-3847">
		<tag k="name" v="Nonshaugen" />
		<tag k="natural" v="hill" />
		<tag k="place" v="locality" />
		<tag k="ssr:stedsnr" v="339360" />
	</node>
	<node lat="62.35474722064524" lon="6.489866672805489" id="-3850">
		<tag k="fixme" v="consider natural=peak for the most distinct mountains in the district" />
		<tag k="name" v="Skopphornet" />
		<tag k="natural" v="hill" />
		<tag k="place" v="locality" />
		<tag k="ssr:stedsnr" v="374421" />
	</node>
	<node lat="62.35467160479719" lon="6.4223142905140405" id="-3851">
		<tag k="fixme" v="consider natural=peak for the most distinct mountains in the district" />
		<tag k="name" v="Gjevenakken" />
		<tag k="natural" v="hill" />
		<tag k="place" v="locality" />
		<tag k="ssr:stedsnr" v="374425" />
	</node>
	<node lat="62.34041388631668" lon="6.552844454191893" id="-3853">
		<tag k="fixme" v="consider natural=peak for the most distinct mountains in the district" />
		<tag k="name" v="Gjerdekollen" />
		<tag k="natural" v="hill" />
		<tag k="place" v="locality" />
		<tag k="ssr:stedsnr" v="375381" />
	</node>
	<node lat="62.32641944244884" lon="6.749363887357156" id="-3854">
		<tag k="name" v="Sunndalen" />
		<tag k="natural" v="valley" />
		<tag k="place" v="locality" />
		<tag k="ssr:stedsnr" v="375610" />
	</node>
	<node lat="62.35989999992969" lon="6.459908329970339" id="-3858">
		<tag k="loc_name" v="Einehauggylet" />
		<tag k="name" v="Mjågeremma" />
		<tag k="natural" v="valley" />
		<tag k="place" v="locality" />
		<tag k="ssr:stedsnr" v="395433" />
	</node>
	<node lat="62.346719443642776" lon="6.568555549424281" id="-3859">
		<tag k="name" v="Gyljane" />
		<tag k="natural" v="slope" />
		<tag k="place" v="locality" />
		<tag k="ssr:stedsnr" v="399102" />
	</node>
	<node lat="62.36065833208368" lon="6.418666658714215" id="-3860">
		<tag k="name" v="Lia" />
		<tag k="natural" v="slope" />
		<tag k="place" v="locality" />
		<tag k="ssr:stedsnr" v="399105" />
	</node>
	<node lat="62.36148610684711" lon="6.784697217624568" id="-3861">
		<tag k="name" v="Liaegga" />
		<tag k="natural" v="ridge" />
		<tag k="place" v="locality" />
		<tag k="ssr:stedsnr" v="399114" />
	</node>
	<node lat="62.43214722062984" lon="6.796511117960758" id="-3862">
		<tag k="name" v="Skredene" />
		<tag k="natural" v="slope" />
		<tag k="place" v="locality" />
		<tag k="ssr:stedsnr" v="399133" />
	</node>
	<node lat="62.42134722115085" lon="6.724830557273798" id="-3864">
		<tag k="name" v="Høgenakken" />
		<tag k="natural" v="ridge" />
		<tag k="place" v="locality" />
		<tag k="ssr:stedsnr" v="399033" />
	</node>
	<node lat="62.4164027817676" lon="6.730622229667892" id="-3865">
		<tag k="name" v="Blombakkane" />
		<tag k="natural" v="slope" />
		<tag k="place" v="locality" />
		<tag k="ssr:stedsnr" v="399034" />
	</node>
	<node lat="62.38115555481507" lon="6.630544448299905" id="-3866">
		<tag k="name" v="Bakliene" />
		<tag k="natural" v="slope" />
		<tag k="place" v="locality" />
		<tag k="ssr:stedsnr" v="399077" />
	</node>
	<node lat="62.354730551244316" lon="6.6541416574714285" id="-3868">
		<tag k="name" v="Stortua" />
		<tag k="natural" v="hill" />
		<tag k="place" v="locality" />
		<tag k="ssr:stedsnr" v="399210" />
	</node>
	<node lat="62.385461110455246" lon="6.6461888823438935" id="-3873">
		<tag k="name" v="Farlihaugen" />
		<tag k="natural" v="hill" />
		<tag k="place" v="locality" />
		<tag k="ssr:stedsnr" v="399194" />
	</node>
	<node lat="62.3888777733299" lon="6.441355549839558" id="-3874">
		<tag k="name" v="Lyngbakken" />
		<tag k="natural" v="slope" />
		<tag k="place" v="locality" />
		<tag k="ssr:stedsnr" v="399304" />
	</node>
	<node lat="62.34728611134081" lon="6.796591658298043" id="-3875">
		<tag k="name" v="Elverongen" />
		<tag k="natural" v="ridge" />
		<tag k="place" v="locality" />
		<tag k="ssr:stedsnr" v="399313" />
	</node>
	<node lat="62.35857222270271" lon="6.81963332399117" id="-3876">
		<tag k="name" v="Vassbakken" />
		<tag k="natural" v="slope" />
		<tag k="place" v="locality" />
		<tag k="ssr:stedsnr" v="399336" />
	</node>
	<node lat="62.3773777792196" lon="6.489211109398179" id="-3879">
		<tag k="name" v="Fersetremane" />
		<tag k="natural" v="ridge" />
		<tag k="place" v="locality" />
		<tag k="ssr:stedsnr" v="399388" />
	</node>
	<node lat="62.39174166940274" lon="6.536766666686734" id="-3880">
		<tag k="name" v="Storhaugen" />
		<tag k="natural" v="hill" />
		<tag k="place" v="locality" />
		<tag k="ssr:stedsnr" v="399396" />
	</node>
	<node lat="62.40230277950818" lon="6.67539721996033" id="-3882">
		<tag k="name" v="Tverrfjellet" />
		<tag k="natural" v="ridge" />
		<tag k="place" v="locality" />
		<tag k="ssr:stedsnr" v="399291" />
	</node>
	<node lat="62.25083333297556" lon="6.66727778079578" id="-3884">
		<tag k="name" v="Gullmorbrekka" />
		<tag k="natural" v="valley" />
		<tag k="place" v="locality" />
		<tag k="ssr:stedsnr" v="436258" />
	</node>
	<node lat="62.4281444472174" lon="6.817197220461034" id="-3888">
		<tag k="fixme" v="consider natural=peak for the most distinct mountains in the district" />
		<tag k="name" v="Aksla" />
		<tag k="natural" v="hill" />
		<tag k="place" v="locality" />
		<tag k="ssr:stedsnr" v="436669" />
	</node>
	<node lat="62.373399998939206" lon="6.735883325091123" id="-3889">
		<tag k="name" v="Brekka" />
		<tag k="natural" v="valley" />
		<tag k="place" v="locality" />
		<tag k="ssr:stedsnr" v="436716" />
	</node>
	<node lat="62.42843333411256" lon="6.780816661005383" id="-3892">
		<tag k="name" v="Båthaugen" />
		<tag k="natural" v="hill" />
		<tag k="place" v="locality" />
		<tag k="ssr:stedsnr" v="460017" />
	</node>
	<node lat="62.384916666270186" lon="6.582894438437496" id="-3893">
		<tag k="name" v="Einehaugen" />
		<tag k="natural" v="hill" />
		<tag k="place" v="locality" />
		<tag k="ssr:stedsnr" v="460024" />
	</node>
	<node lat="62.311708333434815" lon="6.621219435194106" id="-3894">
		<tag k="name" v="Gjerdehaugen" />
		<tag k="natural" v="hill" />
		<tag k="place" v="locality" />
		<tag k="ssr:stedsnr" v="460026" />
	</node>
	<node lat="62.40182777766994" lon="6.727413890825154" id="-3896">
		<tag k="name" v="Langfjellet" />
		<tag k="natural" v="hill" />
		<tag k="place" v="locality" />
		<tag k="ssr:stedsnr" v="460068" />
	</node>
	<node lat="62.4179805519352" lon="6.580669451330198" id="-3897">
		<tag k="name" v="Geiddane" />
		<tag k="natural" v="slope" />
		<tag k="place" v="locality" />
		<tag k="ssr:stedsnr" v="460102" />
	</node>
	<node lat="62.34950833568052" lon="6.543930563695418" id="-3898">
		<tag k="name" v="Reset" />
		<tag k="natural" v="ridge" />
		<tag k="place" v="locality" />
		<tag k="ssr:stedsnr" v="460113" />
	</node>
	<node lat="62.38664444841404" lon="6.444208337465712" id="-3899">
		<tag k="name" v="Åsenden" />
		<tag k="natural" v="ridge" />
		<tag k="place" v="locality" />
		<tag k="ssr:stedsnr" v="460123" />
	</node>
	<node lat="62.33593889097631" lon="6.790411118213879" id="-3900">
		<tag k="name" v="Pusken" />
		<tag k="natural" v="slope" />
		<tag k="place" v="locality" />
		<tag k="ssr:stedsnr" v="460125" />
	</node>
	<node lat="62.28606666767296" lon="6.656786116252246" id="-3902">
		<tag k="name" v="Kvasshaugen" />
		<tag k="natural" v="hill" />
		<tag k="place" v="locality" />
		<tag k="ssr:stedsnr" v="460275" />
	</node>
	<node lat="62.27916111031331" lon="6.641199991502146" id="-3903">
		<tag k="name" v="Middagshjellen" />
		<tag k="place" v="locality" />
		<tag k="ssr:stedsnr" v="460279" />
	</node>
	<node lat="62.2769444415483" lon="6.645683334860088" id="-3904">
		<tag k="name" v="Vesledalen" />
		<tag k="natural" v="valley" />
		<tag k="place" v="locality" />
		<tag k="ssr:stedsnr" v="460280" />
	</node>
	<node lat="62.38966666870666" lon="6.414802774395342" id="-3913">
		<tag k="name" v="Sølvberghalsen" />
		<tag k="natural" v="ridge" />
		<tag k="place" v="locality" />
		<tag k="ssr:stedsnr" v="460316" />
	</node>
	<node lat="62.3769999986915" lon="6.748027768339099" id="-3918">
		<tag k="name" v="Saudeskardet" />
		<tag k="natural" v="valley" />
		<tag k="old_name" v="Sauskardet" />
		<tag k="place" v="locality" />
		<tag k="ssr:stedsnr" v="678712" />
	</node>
	<node lat="62.376311108169844" lon="6.8061166723128" id="-3919">
		<tag k="fixme" v="consider natural=peak for the most distinct mountains in the district" />
		<tag k="name" v="Husnakken" />
		<tag k="natural" v="hill" />
		<tag k="place" v="locality" />
		<tag k="ssr:stedsnr" v="678714" />
	</node>
	<node lat="62.40101389331869" lon="6.673291668013315" id="-3921">
		<tag k="fixme" v="consider natural=peak for the most distinct mountains in the district" />
		<tag k="name" v="Tua" />
		<tag k="natural" v="hill" />
		<tag k="place" v="locality" />
		<tag k="ssr:stedsnr" v="678100" />
	</node>
	<node lat="62.35395277436922" lon="6.514633326647849" id="-3923">
		<tag k="name" v="Smådalane" />
		<tag k="natural" v="valley" />
		<tag k="place" v="locality" />
		<tag k="ssr:stedsnr" v="678439" />
	</node>
	<node lat="62.32865555964259" lon="6.491252785111818" id="-3924">
		<tag k="fixme" v="consider natural=peak for the most distinct mountains in the district" />
		<tag k="name" v="Tverrfjellet" />
		<tag k="natural" v="hill" />
		<tag k="place" v="locality" />
		<tag k="ssr:stedsnr" v="678631" />
	</node>
	<node lat="62.40059999951044" lon="6.7821777801562515" id="-3925">
		<tag k="name" v="Løsethornet" />
		<tag k="natural" v="hill" />
		<tag k="place" v="locality" />
		<tag k="ssr:stedsnr" v="678640" />
	</node>
	<node lat="62.416249996628196" lon="6.743024996676054" id="-3926">
		<tag k="alt_name" v="Simonskaret" />
		<tag k="name" v="Simoskardet" />
		<tag k="natural" v="valley" />
		<tag k="place" v="locality" />
		<tag k="ssr:stedsnr" v="678653" />
	</node>
	<node lat="62.41836111090819" lon="6.833499993786801" id="-3927">
		<tag k="fixme" v="consider natural=peak for the most distinct mountains in the district" />
		<tag k="name" v="Ramstadvarden" />
		<tag k="natural" v="hill" />
		<tag k="place" v="locality" />
		<tag k="ssr:stedsnr" v="678656" />
	</node>
	<node lat="62.325594441124565" lon="6.554377781100409" id="-3930">
		<tag k="alt_name" v="Straumsdalen" />
		<tag k="name" v="Straumsheimdalen" />
		<tag k="natural" v="valley" />
		<tag k="place" v="locality" />
		<tag k="ssr:stedsnr" v="679400" />
	</node>
	<node lat="62.34630555365107" lon="6.736455553098787" id="-3931">
		<tag k="alt_name" v="Setrefjellet" />
		<tag k="fixme" v="consider natural=peak for the most distinct mountains in the district" />
		<tag k="name" v="Sætrefjellet" />
		<tag k="natural" v="hill" />
		<tag k="place" v="locality" />
		<tag k="ssr:stedsnr" v="679489" />
	</node>
	<node lat="62.3076888893538" lon="6.6482250073709075" id="-3933">
		<tag k="fixme" v="consider natural=peak for the most distinct mountains in the district" />
		<tag k="name" v="Tretindane" />
		<tag k="natural" v="hill" />
		<tag k="place" v="locality" />
		<tag k="ssr:stedsnr" v="679434" />
	</node>
	<node lat="62.3695944448494" lon="6.4879666606133295" id="-3937">
		<tag k="name" v="Svartekoppen" />
		<tag k="natural" v="valley" />
		<tag k="place" v="locality" />
		<tag k="ssr:stedsnr" v="496413" />
	</node>
	<node lat="62.298063886946366" lon="6.668416665754373" id="-3942">
		<tag k="name" v="Svodstigen" />
		<tag k="natural" v="slope" />
		<tag k="place" v="locality" />
		<tag k="ssr:stedsnr" v="521002" />
	</node>
	<node lat="62.28871111504234" lon="6.698569453377553" id="-3944">
		<tag k="name" v="Øykjeveltene" />
		<tag k="natural" v="slope" />
		<tag k="place" v="locality" />
		<tag k="ssr:stedsnr" v="521008" />
	</node>
	<node lat="62.29378611198835" lon="6.624661115215309" id="-3947">
		<tag k="name" v="Vellebakkane" />
		<tag k="natural" v="slope" />
		<tag k="place" v="locality" />
		<tag k="ssr:stedsnr" v="521025" />
	</node>
	<node lat="62.37359444692063" lon="6.538119450762012" id="-3948">
		<tag k="name" v="Aksla" />
		<tag k="natural" v="slope" />
		<tag k="place" v="locality" />
		<tag k="ssr:stedsnr" v="521066" />
	</node>
	<node lat="62.336058331540116" lon="6.514900000360716" id="-3949">
		<tag k="name" v="Høghylla" />
		<tag k="place" v="locality" />
		<tag k="ssr:stedsnr" v="521074" />
	</node>
	<node lat="62.36851944544927" lon="6.531700006364119" id="-3950">
		<tag k="name" v="Stolpen" />
		<tag k="natural" v="ridge" />
		<tag k="place" v="locality" />
		<tag k="ssr:stedsnr" v="521079" />
	</node>
	<node lat="62.34491111225456" lon="6.534744440751664" id="-3951">
		<tag k="name" v="Aksla" />
		<tag k="natural" v="ridge" />
		<tag k="place" v="locality" />
		<tag k="ssr:stedsnr" v="521081" />
	</node>
	<node lat="62.333036114343614" lon="6.788080559792716" id="-3953">
		<tag k="name" v="Fitjalia" />
		<tag k="natural" v="slope" />
		<tag k="place" v="locality" />
		<tag k="ssr:stedsnr" v="521205" />
	</node>
	<node lat="62.30478611424968" lon="6.7099027689389485" id="-3956">
		<tag k="name" v="Leitet" />
		<tag k="natural" v="slope" />
		<tag k="place" v="locality" />
		<tag k="ssr:stedsnr" v="521214" />
	</node>
	<node lat="62.44510555994434" lon="6.688833337156253" id="-3957">
		<tag k="name" v="Høghaugen" />
		<tag k="natural" v="hill" />
		<tag k="place" v="locality" />
		<tag k="ssr:stedsnr" v="521106" />
	</node>
	<node lat="62.36651111123632" lon="6.6289916586595945" id="-3960">
		<tag k="name" v="Grønedika" />
		<tag k="natural" v="slope" />
		<tag k="place" v="locality" />
		<tag k="ssr:stedsnr" v="521162" />
	</node>
	<node lat="62.36044722026737" lon="6.621999997427902" id="-3961">
		<tag k="name" v="Geiskjerhola" />
		<tag k="natural" v="valley" />
		<tag k="place" v="locality" />
		<tag k="ssr:stedsnr" v="521163" />
	</node>
	<node lat="62.36424444459047" lon="6.612488896129214" id="-3963">
		<tag k="name" v="Reset" />
		<tag k="natural" v="ridge" />
		<tag k="place" v="locality" />
		<tag k="ssr:stedsnr" v="521176" />
	</node>
	<node lat="62.35914722053266" lon="6.709674992567742" id="-3964">
		<tag k="name" v="Svetthamaren" />
		<tag k="place" v="locality" />
		<tag k="ssr:stedsnr" v="521182" />
	</node>
	<node lat="62.317970466874236" lon="6.555446650651137" id="-3965">
		<tag k="fixme" v="consider natural=peak for the most distinct mountains in the district" />
		<tag k="name" v="Trollkyrkja" />
		<tag k="natural" v="hill" />
		<tag k="place" v="locality" />
		<tag k="ssr:stedsnr" v="687166" />
	</node>
	<node lat="62.282972218763696" lon="6.713027778570437" id="-3970">
		<tag k="fixme" v="consider natural=peak for the most distinct mountains in the district" />
		<tag k="name" v="Brunstadkollen" />
		<tag k="natural" v="hill" />
		<tag k="place" v="locality" />
		<tag k="ssr:stedsnr" v="557254" />
	</node>
	<node lat="62.264697217822" lon="6.62843610821041" id="-3971">
		<tag k="fixme" v="consider natural=peak for the most distinct mountains in the district" />
		<tag k="name" v="Klovetinden" />
		<tag k="natural" v="hill" />
		<tag k="place" v="locality" />
		<tag k="ssr:stedsnr" v="557265" />
	</node>
	<node lat="62.25958055552256" lon="6.626527782572362" id="-3972">
		<tag k="fixme" v="consider natural=peak for the most distinct mountains in the district" />
		<tag k="name" v="Grøtdalstinden" />
		<tag k="natural" v="hill" />
		<tag k="place" v="locality" />
		<tag k="ssr:stedsnr" v="557270" />
	</node>
	<node lat="62.35137500379428" lon="6.666602777452099" id="-3973">
		<tag k="name" v="Gimsdalen" />
		<tag k="natural" v="valley" />
		<tag k="place" v="locality" />
		<tag k="ssr:stedsnr" v="557413" />
	</node>
	<node lat="62.32731388667622" lon="6.713383336705769" id="-3974">
		<tag k="fixme" v="consider natural=peak for the most distinct mountains in the district" />
		<tag k="name" v="Lafjellet" />
		<tag k="natural" v="hill" />
		<tag k="place" v="locality" />
		<tag k="ssr:stedsnr" v="557419" />
	</node>
	<node lat="62.384616667593065" lon="6.73480277037331" id="-3977">
		<tag k="name" v="Svarthola" />
		<tag k="natural" v="valley" />
		<tag k="place" v="locality" />
		<tag k="ssr:stedsnr" v="557707" />
	</node>
	<node lat="62.43253610671486" lon="6.678519438110876" id="-3982">
		<tag k="name" v="Svartehamrane" />
		<tag k="place" v="locality" />
		<tag k="ssr:stedsnr" v="580036" />
	</node>
	<node lat="62.42849166339063" lon="6.69401665959008" id="-3983">
		<tag k="name" v="Kyrkjesteinhammaren" />
		<tag k="natural" v="slope" />
		<tag k="place" v="locality" />
		<tag k="ssr:stedsnr" v="580039" />
	</node>
	<node lat="62.43197499908162" lon="6.765761103329298" id="-3984">
		<tag k="name" v="Eine-hjellen" />
		<tag k="place" v="locality" />
		<tag k="ssr:stedsnr" v="580041" />
	</node>
	<node lat="62.34520000425659" lon="6.5439749917148005" id="-3986">
		<tag k="name" v="Legdene" />
		<tag k="natural" v="slope" />
		<tag k="place" v="locality" />
		<tag k="ssr:stedsnr" v="581107" />
	</node>
	<node lat="62.31285277384619" lon="6.719699991869825" id="-3987">
		<tag k="name" v="Gjerda" />
		<tag k="natural" v="slope" />
		<tag k="place" v="locality" />
		<tag k="ssr:stedsnr" v="581112" />
	</node>
	<node lat="62.41502222641265" lon="6.699980549142347" id="-3988">
		<tag k="name" v="Nibba" />
		<tag k="natural" v="hill" />
		<tag k="place" v="locality" />
		<tag k="ssr:stedsnr" v="581150" />
	</node>
	<node lat="62.37696944311891" lon="6.681791658255231" id="-3989">
		<tag k="name" v="Trollhaugen" />
		<tag k="natural" v="hill" />
		<tag k="place" v="locality" />
		<tag k="ssr:stedsnr" v="581012" />
	</node>
	<node lat="62.34710277911087" lon="6.592674994960954" id="-3990">
		<tag k="name" v="Brauta" />
		<tag k="natural" v="slope" />
		<tag k="place" v="locality" />
		<tag k="ssr:stedsnr" v="581203" />
	</node>
	<node lat="62.31214721954885" lon="6.715308333530305" id="-3991">
		<tag k="name" v="Skjervaberget" />
		<tag k="natural" v="slope" />
		<tag k="place" v="locality" />
		<tag k="ssr:stedsnr" v="581243" />
	</node>
	<node lat="62.306261109734294" lon="6.5849305574695585" id="-3996">
		<tag k="name" v="Heiane" />
		<tag k="natural" v="slope" />
		<tag k="place" v="locality" />
		<tag k="ssr:stedsnr" v="581190" />
	</node>
	<node lat="62.34476111458471" lon="6.6089444499371774" id="-3998">
		<tag k="name" v="Brune" />
		<tag k="natural" v="slope" />
		<tag k="place" v="locality" />
		<tag k="ssr:stedsnr" v="581196" />
	</node>
	<node lat="62.34707499644096" lon="6.618349998403847" id="-3999">
		<tag k="name" v="Skardet" />
		<tag k="natural" v="valley" />
		<tag k="place" v="locality" />
		<tag k="ssr:stedsnr" v="581197" />
	</node>
	<node lat="62.43242499988357" lon="6.6564638833334735" id="-4001">
		<tag k="name" v="Storeskredene" />
		<tag k="natural" v="valley" />
		<tag k="place" v="locality" />
		<tag k="ssr:stedsnr" v="581344" />
	</node>
	<node lat="62.420025002782104" lon="6.645766670103819" id="-4002">
		<tag k="name" v="Langhammaren" />
		<tag k="place" v="locality" />
		<tag k="ssr:stedsnr" v="581353" />
	</node>
	<node lat="62.303019445912504" lon="6.6065777814067355" id="-4003">
		<tag k="name" v="Høgeremen" />
		<tag k="natural" v="ridge" />
		<tag k="place" v="locality" />
		<tag k="ssr:stedsnr" v="581949" />
	</node>
	<node lat="62.38704166925072" lon="6.498511119321509" id="-4005">
		<tag k="loc_name" v="Sætrenakken" />
		<tag k="name" v="Sæssnakken" />
		<tag k="natural" v="ridge" />
		<tag k="place" v="locality" />
		<tag k="ssr:stedsnr" v="698484" />
	</node>
	<node lat="62.445674999316736" lon="6.729561109490524" id="-4007">
		<tag k="name" v="Vindsnesrørne" />
		<tag k="natural" v="hill" />
		<tag k="old_name" v="Vindsnesrøra" />
		<tag k="place" v="locality" />
		<tag k="ssr:stedsnr" v="617383" />
	</node>
	<node lat="62.42199444365932" lon="6.722580559835179" id="-4012">
		<tag k="name" v="Bukkeflåa" />
		<tag k="place" v="locality" />
		<tag k="ssr:stedsnr" v="702043" />
	</node>
	<node lat="62.37679166220738" lon="6.597977775119695" id="-4013">
		<tag k="name" v="Reset" />
		<tag k="natural" v="ridge" />
		<tag k="place" v="locality" />
		<tag k="ssr:stedsnr" v="703066" />
	</node>
	<node lat="62.42746388438443" lon="6.839252771744072" id="-4015">
		<tag k="name" v="Ansokdalen" />
		<tag k="natural" v="valley" />
		<tag k="place" v="locality" />
		<tag k="ssr:stedsnr" v="703032" />
	</node>
	<node lat="62.32318611377364" lon="6.582333326915716" id="-4017">
		<tag k="name" v="Ytste Bjørkebakkane" />
		<tag k="natural" v="slope" />
		<tag k="place" v="locality" />
		<tag k="ssr:stedsnr" v="703130" />
	</node>
	<node lat="62.373086114505774" lon="6.671297231284779" id="-4018">
		<tag k="name" v="Kollen" />
		<tag k="natural" v="hill" />
		<tag k="place" v="locality" />
		<tag k="ssr:stedsnr" v="703132" />
	</node>
	<node lat="62.29775277663416" lon="6.734113880024523" id="-4022">
		<tag k="name" v="Skaret" />
		<tag k="natural" v="valley" />
		<tag k="place" v="locality" />
		<tag k="ssr:stedsnr" v="703145" />
	</node>
	<node lat="62.267744444113085" lon="6.681433332252577" id="-4023">
		<tag k="name" v="Halsen" />
		<tag k="natural" v="ridge" />
		<tag k="place" v="locality" />
		<tag k="ssr:stedsnr" v="703147" />
	</node>
	<node lat="62.36521666508031" lon="6.593461102262801" id="-4024">
		<tag k="name" v="Hjartegylet" />
		<tag k="natural" v="valley" />
		<tag k="place" v="locality" />
		<tag k="ssr:stedsnr" v="703162" />
	</node>
	<node lat="62.33852222294613" lon="6.603038897148211" id="-4025">
		<tag k="name" v="Einahaugen" />
		<tag k="natural" v="hill" />
		<tag k="place" v="locality" />
		<tag k="ssr:stedsnr" v="703152" />
	</node>
	<node lat="62.33030833518242" lon="6.566000000616991" id="-4026">
		<tag k="name" v="Ospahaugen" />
		<tag k="natural" v="hill" />
		<tag k="place" v="locality" />
		<tag k="ssr:stedsnr" v="703153" />
	</node>
	<node lat="62.281966667764664" lon="6.629522224075046" id="-4027">
		<tag k="name" v="Brune" />
		<tag k="natural" v="ridge" />
		<tag k="place" v="locality" />
		<tag k="ssr:stedsnr" v="703154" />
	</node>
	<node lat="62.27374444695314" lon="6.623608324944165" id="-4028">
		<tag k="name" v="Benkane" />
		<tag k="natural" v="slope" />
		<tag k="place" v="locality" />
		<tag k="ssr:stedsnr" v="703156" />
	</node>
	<node lat="62.27853889171195" lon="6.6159166694849" id="-4031">
		<tag k="name" v="Regndalslia" />
		<tag k="natural" v="slope" />
		<tag k="place" v="locality" />
		<tag k="ssr:stedsnr" v="703257" />
	</node>
	<node lat="62.3601000000756" lon="6.594238889144898" id="-4033">
		<tag k="name" v="Øvste Stigranda" />
		<tag k="natural" v="ridge" />
		<tag k="place" v="locality" />
		<tag k="ssr:stedsnr" v="703171" />
	</node>
	<node lat="62.33198611084509" lon="6.632500003454581" id="-4035">
		<tag k="name" v="Fonnene" />
		<tag k="natural" v="slope" />
		<tag k="place" v="locality" />
		<tag k="ssr:stedsnr" v="703189" />
	</node>
	<node lat="62.27344167055094" lon="6.683341669586183" id="-4037">
		<tag k="name" v="Raudebrauta" />
		<tag k="natural" v="hill" />
		<tag k="place" v="locality" />
		<tag k="ssr:stedsnr" v="703267" />
	</node>
	<node lat="62.31102499595578" lon="6.589930551458333" id="-4038">
		<tag k="name" v="Svarthammaren" />
		<tag k="natural" v="cliff" />
		<tag k="ssr:stedsnr" v="703268" />
	</node>
	<node lat="62.36234444489395" lon="6.583983341257544" id="-4039">
		<tag k="name" v="Plassane" />
		<tag k="natural" v="slope" />
		<tag k="place" v="locality" />
		<tag k="ssr:stedsnr" v="703272" />
	</node>
	<node lat="62.32214999577748" lon="6.6108055543874436" id="-4040">
		<tag k="name" v="Saudhjellen" />
		<tag k="natural" v="slope" />
		<tag k="place" v="locality" />
		<tag k="ssr:stedsnr" v="703276" />
	</node>
	<node lat="62.388458336419596" lon="6.459986110096659" id="-4041">
		<tag k="name" v="Turyggen" />
		<tag k="natural" v="ridge" />
		<tag k="place" v="locality" />
		<tag k="ssr:stedsnr" v="703288" />
	</node>
	<node lat="62.294336110112205" lon="6.6106222220733075" id="-4042">
		<tag k="name" v="Lia" />
		<tag k="natural" v="slope" />
		<tag k="place" v="locality" />
		<tag k="ssr:stedsnr" v="703291" />
	</node>
	<node lat="62.293444446321814" lon="6.650341671164379" id="-4043">
		<tag k="name" v="Tregardsgjerdet" />
		<tag k="natural" v="slope" />
		<tag k="place" v="locality" />
		<tag k="ssr:stedsnr" v="703294" />
	</node>
	<node lat="62.415427777242016" lon="6.567525004518138" id="-4044">
		<tag k="name" v="Saudhammaren" />
		<tag k="natural" v="slope" />
		<tag k="place" v="locality" />
		<tag k="ssr:stedsnr" v="703355" />
	</node>
	<node lat="62.404502778179406" lon="6.615422223265742" id="-4050">
		<tag k="name" v="Nørskogdalen" />
		<tag k="natural" v="valley" />
		<tag k="place" v="locality" />
		<tag k="ssr:stedsnr" v="637431" />
	</node>
	<node lat="62.40716944201595" lon="6.6818416685591195" id="-4051">
		<tag k="name" v="Jutulhaugen" />
		<tag k="natural" v="hill" />
		<tag k="place" v="locality" />
		<tag k="ssr:stedsnr" v="642003" />
	</node>
	<node lat="62.337316666715644" lon="6.563397220292498" id="-4052">
		<tag k="name" v="Pehammaren" />
		<tag k="place" v="locality" />
		<tag k="ssr:stedsnr" v="642011" />
	</node>
	<node lat="62.39523055740481" lon="6.798733338370055" id="-4054">
		<tag k="name" v="Svinehamrane" />
		<tag k="place" v="locality" />
		<tag k="ssr:stedsnr" v="642031" />
	</node>
	<node lat="62.419263884759005" lon="6.716922222512087" id="-4057">
		<tag k="name" v="Kvilebakkane" />
		<tag k="natural" v="slope" />
		<tag k="place" v="locality" />
		<tag k="ssr:stedsnr" v="642105" />
	</node>
	<node lat="62.34235832940016" lon="6.624188889567445" id="-4059">
		<tag k="name" v="Klyftebjørka" />
		<tag k="place" v="locality" />
		<tag k="ssr:stedsnr" v="642116" />
	</node>
	<node lat="62.32642221961068" lon="6.575869451765856" id="-4061">
		<tag k="name" v="Insteremen" />
		<tag k="natural" v="ridge" />
		<tag k="place" v="locality" />
		<tag k="ssr:stedsnr" v="642128" />
	</node>
	<node lat="62.43145555196916" lon="6.646300008288159" id="-4063">
		<tag k="name" v="Kløven" />
		<tag k="natural" v="valley" />
		<tag k="place" v="locality" />
		<tag k="ssr:stedsnr" v="642074" />
	</node>
	<node lat="62.285041666083735" lon="6.62994721733349" id="-4067">
		<tag k="name" v="Nystigen" />
		<tag k="natural" v="slope" />
		<tag k="place" v="locality" />
		<tag k="ssr:stedsnr" v="642213" />
	</node>
	<node lat="62.322538889263946" lon="6.605586107317202" id="-4068">
		<tag k="name" v="Djupejylet" />
		<tag k="natural" v="valley" />
		<tag k="place" v="locality" />
		<tag k="ssr:stedsnr" v="642214" />
	</node>
	<node lat="62.34007499835138" lon="6.556958324245825" id="-4070">
		<tag k="name" v="Tunga" />
		<tag k="natural" v="ridge" />
		<tag k="place" v="locality" />
		<tag k="ssr:stedsnr" v="642174" />
	</node>
	<node lat="62.3476111152921" lon="6.5603083370003565" id="-4071">
		<tag k="name" v="Remen" />
		<tag k="natural" v="ridge" />
		<tag k="place" v="locality" />
		<tag k="ssr:stedsnr" v="642175" />
	</node>
	<node lat="62.36508888995473" lon="6.718516661049539" id="-4072">
		<tag k="name" v="Revsdalsrongen" />
		<tag k="natural" v="valley" />
		<tag k="place" v="locality" />
		<tag k="ssr:stedsnr" v="642177" />
	</node>
	<node lat="62.3861750016489" lon="6.607638890625635" id="-4073">
		<tag k="name" v="Smiskarnakken" />
		<tag k="natural" v="ridge" />
		<tag k="place" v="locality" />
		<tag k="ssr:stedsnr" v="642308" />
	</node>
	<node lat="62.391883336958855" lon="6.679977777629021" id="-4075">
		<tag k="name" v="Storlia" />
		<tag k="natural" v="slope" />
		<tag k="place" v="locality" />
		<tag k="ssr:stedsnr" v="678111" />
	</node>
	<node lat="62.37816111517957" lon="6.696608342656003" id="-4076">
		<tag k="fixme" v="consider natural=peak for the most distinct mountains in the district" />
		<tag k="name" v="Kollane" />
		<tag k="natural" v="hill" />
		<tag k="place" v="locality" />
		<tag k="ssr:stedsnr" v="678430" />
	</node>
	<node lat="62.43856111204034" lon="6.72339722146822" id="-4077">
		<tag k="fixme" v="consider natural=peak for the most distinct mountains in the district" />
		<tag k="name" v="Søvikhornet" />
		<tag k="natural" v="hill" />
		<tag k="place" v="locality" />
		<tag k="ssr:stedsnr" v="678395" />
	</node>
	<node lat="62.420813885918335" lon="6.728677771763328" id="-4079">
		<tag k="fixme" v="consider natural=peak for the most distinct mountains in the district" />
		<tag k="name" v="Høgenakken" />
		<tag k="natural" v="hill" />
		<tag k="place" v="locality" />
		<tag k="ssr:stedsnr" v="678678" />
	</node>
	<node lat="62.38946666266371" lon="6.753824991626388" id="-4080">
		<tag k="name" v="Melsetdalen" />
		<tag k="natural" v="valley" />
		<tag k="place" v="locality" />
		<tag k="ssr:stedsnr" v="678722" />
	</node>
	<node lat="62.335419000021034" lon="6.640828977577731" id="-4081">
		<tag k="alt_name" v="Godfarholthaugane" />
		<tag k="loc_name" v="Goffarholthaugane" />
		<tag k="name" v="Hammarsethaugen" />
		<tag k="natural" v="hill" />
		<tag k="place" v="locality" />
		<tag k="ssr:stedsnr" v="679406" />
	</node>
	<node lat="62.37449999845375" lon="6.502674991228016" id="-4085">
		<tag k="name" v="Storheida" />
		<tag k="natural" v="slope" />
		<tag k="place" v="locality" />
		<tag k="ssr:stedsnr" v="703011" />
	</node>
	<node lat="62.3903027782042" lon="6.663955552554449" id="-4087">
		<tag k="name" v="Alfarhaugen" />
		<tag k="natural" v="hill" />
		<tag k="place" v="locality" />
		<tag k="ssr:stedsnr" v="703206" />
	</node>
	<node lat="62.30124999989023" lon="6.725402776025435" id="-4090">
		<tag k="name" v="Myrdalshaugen" />
		<tag k="natural" v="hill" />
		<tag k="place" v="locality" />
		<tag k="ssr:stedsnr" v="703243" />
	</node>
	<node lat="62.3183861076227" lon="6.741361116935712" id="-4092">
		<tag k="name" v="Revahola" />
		<tag k="natural" v="slope" />
		<tag k="place" v="locality" />
		<tag k="ssr:stedsnr" v="703105" />
	</node>
	<node lat="62.3369444456113" lon="6.633233336467358" id="-4094">
		<tag k="name" v="Elvebakkane" />
		<tag k="natural" v="slope" />
		<tag k="place" v="locality" />
		<tag k="ssr:stedsnr" v="703117" />
	</node>
	<node lat="62.35992777550774" lon="6.439922216063318" id="-4096">
		<tag k="name" v="Stokkhaugane" />
		<tag k="natural" v="hill" />
		<tag k="place" v="locality" />
		<tag k="ssr:stedsnr" v="703306" />
	</node>
	<node lat="62.365311114771536" lon="6.771047213580735" id="-4101">
		<tag k="name" v="Svarthammaren" />
		<tag k="natural" v="cliff" />
		<tag k="ssr:stedsnr" v="703342" />
	</node>
	<node lat="62.43613610731606" lon="6.642519446339873" id="-4102">
		<tag k="name" v="Sandvikhaugen" />
		<tag k="natural" v="hill" />
		<tag k="place" v="locality" />
		<tag k="ssr:stedsnr" v="703349" />
	</node>
	<node lat="62.355661110257586" lon="6.723633341757368" id="-4105">
		<tag k="name" v="Sunndalen" />
		<tag k="natural" v="valley" />
		<tag k="place" v="locality" />
		<tag k="ssr:stedsnr" v="738703" />
	</node>
	<node lat="62.40708333748478" lon="6.678105557875584" id="-4106">
		<tag k="alt_name" v="Saudeskaret" />
		<tag k="name" v="Saudskaret" />
		<tag k="natural" v="valley" />
		<tag k="place" v="locality" />
		<tag k="ssr:stedsnr" v="739098" />
	</node>
	<node lat="62.28819166989283" lon="6.604988894614004" id="-4107">
		<tag k="name" v="Drivdalen" />
		<tag k="natural" v="valley" />
		<tag k="place" v="locality" />
		<tag k="ssr:stedsnr" v="739252" />
	</node>
	<node lat="62.409186114958096" lon="6.743808329644042" id="-4109">
		<tag k="name" v="Storsteinskardet" />
		<tag k="natural" v="valley" />
		<tag k="place" v="locality" />
		<tag k="ssr:stedsnr" v="739652" />
	</node>
	<node lat="62.41134166274745" lon="6.839505554495881" id="-4110">
		<tag k="name" v="Bjørndalen" />
		<tag k="natural" v="valley" />
		<tag k="place" v="locality" />
		<tag k="ssr:stedsnr" v="739656" />
	</node>
	<node lat="62.299227778414384" lon="6.762216662872713" id="-4111">
		<tag k="name" v="Myrdalen" />
		<tag k="natural" v="valley" />
		<tag k="place" v="locality" />
		<tag k="ssr:stedsnr" v="739599" />
	</node>
	<node lat="62.29336944760673" lon="6.735941661172169" id="-4112">
		<tag k="name" v="Holebotnen" />
		<tag k="natural" v="valley" />
		<tag k="old_name" v="Holebotn" />
		<tag k="place" v="locality" />
		<tag k="ssr:stedsnr" v="739600" />
	</node>
	<node lat="62.30357499672718" lon="6.676311110777182" id="-4113">
		<tag k="fixme" v="consider natural=peak for the most distinct mountains in the district" />
		<tag k="name" v="Koppen" />
		<tag k="natural" v="hill" />
		<tag k="place" v="locality" />
		<tag k="ssr:stedsnr" v="740453" />
	</node>
	<node lat="62.43208055221152" lon="6.687994444515469" id="-4116">
		<tag k="name" v="Bjørneskaret" />
		<tag k="natural" v="valley" />
		<tag k="place" v="locality" />
		<tag k="ssr:stedsnr" v="763047" />
	</node>
	<node lat="62.368863889039986" lon="6.702180560277783" id="-4117">
		<tag k="name" v="Hjellbakkane" />
		<tag k="natural" v="slope" />
		<tag k="place" v="locality" />
		<tag k="ssr:stedsnr" v="763204" />
	</node>
	<node lat="62.273491670125566" lon="6.69249167513161" id="-4120">
		<tag k="name" v="Setreremteigane" />
		<tag k="natural" v="slope" />
		<tag k="place" v="locality" />
		<tag k="ssr:stedsnr" v="763228" />
	</node>
	<node lat="62.34184444127698" lon="6.59723332629029" id="-4122">
		<tag k="name" v="Hagarden" />
		<tag k="natural" v="slope" />
		<tag k="place" v="locality" />
		<tag k="ssr:stedsnr" v="763258" />
	</node>
	<node lat="62.327674996903575" lon="6.755824993821754" id="-4124">
		<tag k="name" v="Sætralia" />
		<tag k="natural" v="slope" />
		<tag k="place" v="locality" />
		<tag k="ssr:stedsnr" v="763110" />
	</node>
	<node lat="62.330122221841506" lon="6.7879611112013025" id="-4126">
		<tag k="name" v="Fitjalegene" />
		<tag k="natural" v="slope" />
		<tag k="place" v="locality" />
		<tag k="ssr:stedsnr" v="763113" />
	</node>
	<node lat="62.40726111057702" lon="6.753666673981621" id="-4127">
		<tag k="name" v="Klimpane" />
		<tag k="natural" v="slope" />
		<tag k="place" v="locality" />
		<tag k="ssr:stedsnr" v="763144" />
	</node>
	<node lat="62.39049444686234" lon="6.4958944528966045" id="-4128">
		<tag k="name" v="Trongedalen" />
		<tag k="natural" v="valley" />
		<tag k="place" v="locality" />
		<tag k="ssr:stedsnr" v="763343" />
	</node>
	<node lat="62.39361110910687" lon="6.508488892311329" id="-4129">
		<tag k="name" v="Sætredalen" />
		<tag k="natural" v="valley" />
		<tag k="place" v="locality" />
		<tag k="ssr:stedsnr" v="763344" />
	</node>
	<node lat="62.35004444820678" lon="6.537122230074732" id="-4131">
		<tag k="name" v="Gamlestølberget" />
		<tag k="natural" v="slope" />
		<tag k="place" v="locality" />
		<tag k="ssr:stedsnr" v="763350" />
	</node>
	<node lat="62.41815555229676" lon="6.572158334352095" id="-4132">
		<tag k="name" v="Skagedalen" />
		<tag k="natural" v="valley" />
		<tag k="place" v="locality" />
		<tag k="ssr:stedsnr" v="763357" />
	</node>
	<node lat="62.32251110758152" lon="6.572908324815795" id="-4134">
		<tag k="name" v="Svødene" />
		<tag k="natural" v="slope" />
		<tag k="place" v="locality" />
		<tag k="ssr:stedsnr" v="764144" />
	</node>
	<node lat="62.35708055831064" lon="6.459072212504968" id="-4138">
		<tag k="name" v="Megardsdalen" />
		<tag k="natural" v="valley" />
		<tag k="place" v="locality" />
		<tag k="ssr:stedsnr" v="799414" />
	</node>
	<node lat="62.358655556536476" lon="6.7498277840252" id="-4139">
		<tag k="fixme" v="consider natural=peak for the most distinct mountains in the district" />
		<tag k="name" v="Revsdalshornet" />
		<tag k="natural" v="hill" />
		<tag k="place" v="locality" />
		<tag k="ssr:stedsnr" v="799727" />
	</node>
	<node lat="62.25458333178689" lon="6.682494448935738" id="-4142">
		<tag k="fixme" v="consider natural=peak for the most distinct mountains in the district" />
		<tag k="name" v="Brunstadhornet" />
		<tag k="natural" v="hill" />
		<tag k="place" v="locality" />
		<tag k="ssr:stedsnr" v="800280" />
	</node>
	<node lat="62.3454694416699" lon="6.451805558410553" id="-4143">
		<tag k="fixme" v="consider natural=peak for the most distinct mountains in the district" />
		<tag k="name" v="Keipen" />
		<tag k="natural" v="hill" />
		<tag k="place" v="locality" />
		<tag k="ssr:stedsnr" v="800429" />
	</node>
	<node lat="62.36554444687288" lon="6.596908332595692" id="-4145">
		<tag k="fixme" v="consider natural=peak for the most distinct mountains in the district" />
		<tag k="name" v="Tjønesfjellet" />
		<tag k="natural" v="hill" />
		<tag k="place" v="locality" />
		<tag k="ssr:stedsnr" v="800380" />
	</node>
	<node lat="62.35223611239124" lon="6.704297223176732" id="-4146">
		<tag k="fixme" v="consider natural=peak for the most distinct mountains in the district" />
		<tag k="name" v="Langfjella" />
		<tag k="natural" v="hill" />
		<tag k="place" v="locality" />
		<tag k="ssr:stedsnr" v="920373" />
	</node>
	<node lat="62.381966662950354" lon="6.702144450427987" id="-4154">
		<tag k="name" v="Grønhaugen" />
		<tag k="natural" v="hill" />
		<tag k="place" v="locality" />
		<tag k="ssr:stedsnr" v="824006" />
	</node>
	<node lat="62.39331666739365" lon="6.45183332904761" id="-4158">
		<tag k="name" v="Sløkhaugen" />
		<tag k="natural" v="hill" />
		<tag k="place" v="locality" />
		<tag k="ssr:stedsnr" v="824312" />
	</node>
	<node lat="62.32478333608781" lon="6.748250005980746" id="-4159">
		<tag k="name" v="Furnakken" />
		<tag k="natural" v="ridge" />
		<tag k="place" v="locality" />
		<tag k="ssr:stedsnr" v="824314" />
	</node>
	<node lat="62.40259722053586" lon="6.609563885577087" id="-4160">
		<tag k="name" v="Kjellinghamrane" />
		<tag k="natural" v="cliff" />
		<tag k="ssr:stedsnr" v="824344" />
	</node>
	<node lat="62.38261388847756" lon="6.59108610264508" id="-4161">
		<tag k="name" v="Vikenakken" />
		<tag k="natural" v="ridge" />
		<tag k="place" v="locality" />
		<tag k="ssr:stedsnr" v="824348" />
	</node>
	<node lat="62.38497221993366" lon="6.586933337100422" id="-4162">
		<tag k="name" v="Langehammaren" />
		<tag k="natural" v="ridge" />
		<tag k="place" v="locality" />
		<tag k="ssr:stedsnr" v="824349" />
	</node>
	<node lat="62.367883335349966" lon="6.534027776464475" id="-4164">
		<tag k="name" v="Sauedalen" />
		<tag k="natural" v="valley" />
		<tag k="place" v="locality" />
		<tag k="ssr:stedsnr" v="824356" />
	</node>
	<node lat="62.39279166567847" lon="6.534113888272399" id="-4165">
		<tag k="name" v="Ormehaugen" />
		<tag k="natural" v="hill" />
		<tag k="place" v="locality" />
		<tag k="ssr:stedsnr" v="824375" />
	</node>
	<node lat="62.37859444864231" lon="6.4876833414961315" id="-4166">
		<tag k="name" v="Seljesletta" />
		<tag k="place" v="locality" />
		<tag k="ssr:stedsnr" v="824376" />
	</node>
	<node lat="62.28195000419946" lon="6.644316669541681" id="-4170">
		<tag k="name" v="Krokhjellen" />
		<tag k="place" v="locality" />
		<tag k="ssr:stedsnr" v="824266" />
	</node>
	<node lat="62.33174722329362" lon="6.598594445538528" id="-4171">
		<tag k="name" v="Reiten" />
		<tag k="natural" v="slope" />
		<tag k="place" v="locality" />
		<tag k="ssr:stedsnr" v="824271" />
	</node>
	<node lat="62.432847226467864" lon="6.628888883316637" id="-4173">
		<tag k="name" v="Bulegene" />
		<tag k="natural" v="slope" />
		<tag k="place" v="locality" />
		<tag k="ssr:stedsnr" v="824278" />
	</node>
	<node lat="62.43165000439604" lon="6.613416667721401" id="-4174">
		<tag k="name" v="Spranget" />
		<tag k="natural" v="valley" />
		<tag k="place" v="locality" />
		<tag k="ssr:stedsnr" v="824280" />
	</node>
	<node lat="62.32631944008718" lon="6.663452774344361" id="-4176">
		<tag k="name" v="Solliheia" />
		<tag k="natural" v="slope" />
		<tag k="place" v="locality" />
		<tag k="ssr:stedsnr" v="824283" />
	</node>
	<node lat="62.343655554024394" lon="6.6017000080693595" id="-4181">
		<tag k="name" v="Kvennene" />
		<tag k="natural" v="slope" />
		<tag k="place" v="locality" />
		<tag k="ssr:stedsnr" v="825115" />
	</node>
	<node lat="62.3790888858983" lon="6.671399994150881" id="-4182">
		<tag k="name" v="Storhaugen" />
		<tag k="natural" v="hill" />
		<tag k="place" v="locality" />
		<tag k="ssr:stedsnr" v="825006" />
	</node>
	<node lat="62.40899444446284" lon="6.576855556033562" id="-4183">
		<tag k="name" v="Kambedalen" />
		<tag k="natural" v="valley" />
		<tag k="place" v="locality" />
		<tag k="ssr:stedsnr" v="825007" />
	</node>
	<node lat="62.285913889564455" lon="6.653102784933866" id="-4186">
		<tag k="name" v="Dyftene" />
		<tag k="natural" v="slope" />
		<tag k="place" v="locality" />
		<tag k="ssr:stedsnr" v="825092" />
	</node>
	<node lat="62.30559444294822" lon="6.5548444364414" id="-4188">
		<tag k="alt_name" v="Blåbretindane" />
		<tag k="fixme" v="consider natural=peak for the most distinct mountains in the district" />
		<tag k="name" v="Blåbretinden" />
		<tag k="natural" v="hill" />
		<tag k="place" v="locality" />
		<tag k="ssr:stedsnr" v="922437" />
	</node>
	<node lat="62.398166662646496" lon="6.826247213227864" id="-4192">
		<tag k="fixme" v="consider natural=peak for the most distinct mountains in the district" />
		<tag k="name" v="Sjurlihornet" />
		<tag k="natural" v="hill" />
		<tag k="place" v="locality" />
		<tag k="ssr:stedsnr" v="860773" />
	</node>
	<node lat="62.39239444259928" lon="6.793716675987359" id="-4193">
		<tag k="alt_name" v="Barbrauta" />
		<tag k="fixme" v="consider natural=peak for the most distinct mountains in the district" />
		<tag k="name" v="Barbrotua" />
		<tag k="natural" v="hill" />
		<tag k="place" v="locality" />
		<tag k="ssr:stedsnr" v="860777" />
	</node>
	<node lat="62.36967500379076" lon="6.650505556493281" id="-4198">
		<tag k="fixme" v="consider natural=peak for the most distinct mountains in the district" />
		<tag k="name" v="Borgundkollen" />
		<tag k="natural" v="hill" />
		<tag k="place" v="locality" />
		<tag k="ssr:stedsnr" v="930163" />
	</node>
	<node lat="62.3834777757885" lon="6.628669443755582" id="-4199">
		<tag k="fixme" v="multiple name tags, choose one and add the other to alt_name" />
		<tag k="name" v="Haugsetkoppen;Middagsnakken" />
		<tag k="natural" v="hill" />
		<tag k="place" v="locality" />
		<tag k="ssr:stedsnr" v="932906" />
	</node>
	<node lat="62.429422224137085" lon="6.792358324938234" id="-4203">
		<tag k="name" v="Løteigane" />
		<tag k="natural" v="slope" />
		<tag k="place" v="locality" />
		<tag k="ssr:stedsnr" v="884058" />
	</node>
	<node lat="62.41982777327036" lon="6.747263879621366" id="-4204">
		<tag k="name" v="Klokksnakken" />
		<tag k="natural" v="hill" />
		<tag k="place" v="locality" />
		<tag k="ssr:stedsnr" v="884061" />
	</node>
	<node lat="62.403363885575516" lon="6.816166670138666" id="-4206">
		<tag k="name" v="Fersenakken" />
		<tag k="natural" v="hill" />
		<tag k="place" v="locality" />
		<tag k="ssr:stedsnr" v="885022" />
	</node>
	<node lat="62.31059999944779" lon="6.750527774058218" id="-4207">
		<tag k="name" v="Brekka" />
		<tag k="natural" v="slope" />
		<tag k="place" v="locality" />
		<tag k="ssr:stedsnr" v="885105" />
	</node>
	<node lat="62.35827499909453" lon="6.7893777718818775" id="-4208">
		<tag k="name" v="Skaret" />
		<tag k="natural" v="valley" />
		<tag k="place" v="locality" />
		<tag k="ssr:stedsnr" v="885106" />
	</node>
	<node lat="62.34826111025073" lon="6.5466888950262305" id="-4209">
		<tag k="name" v="Ellingsnora" />
		<tag k="natural" v="ridge" />
		<tag k="place" v="locality" />
		<tag k="ssr:stedsnr" v="885148" />
	</node>
	<node lat="62.26636666465049" lon="6.6886249938382845" id="-4210">
		<tag k="name" v="Fonnene" />
		<tag k="natural" v="slope" />
		<tag k="place" v="locality" />
		<tag k="ssr:stedsnr" v="885150" />
	</node>
	<node lat="62.33206111531102" lon="6.583975001789589" id="-4211">
		<tag k="name" v="Skjorabakkane" />
		<tag k="natural" v="slope" />
		<tag k="place" v="locality" />
		<tag k="ssr:stedsnr" v="885152" />
	</node>
	<node lat="62.34850000162199" lon="6.627316671380861" id="-4212">
		<tag k="name" v="Smådalane" />
		<tag k="natural" v="valley" />
		<tag k="place" v="locality" />
		<tag k="ssr:stedsnr" v="885153" />
	</node>
	<node lat="62.357944442889874" lon="6.784644445662534" id="-4216">
		<tag k="name" v="Nysæterlia" />
		<tag k="natural" v="slope" />
		<tag k="place" v="locality" />
		<tag k="ssr:stedsnr" v="885305" />
	</node>
	<node lat="62.34888332985772" lon="6.799286113115429" id="-4217">
		<tag k="name" v="Ørnehaugene" />
		<tag k="natural" v="hill" />
		<tag k="place" v="locality" />
		<tag k="ssr:stedsnr" v="885308" />
	</node>
	<node lat="62.365549997070204" lon="6.783897222431376" id="-4218">
		<tag k="name" v="Skinstøhaugen" />
		<tag k="natural" v="hill" />
		<tag k="place" v="locality" />
		<tag k="ssr:stedsnr" v="885313" />
	</node>
	<node lat="62.35129166969102" lon="6.829694435229111" id="-4219">
		<tag k="name" v="Gamsethaugen" />
		<tag k="natural" v="hill" />
		<tag k="place" v="locality" />
		<tag k="ssr:stedsnr" v="885315" />
	</node>
	<node lat="62.38993055735206" lon="6.686625006597551" id="-4220">
		<tag k="name" v="Setreberget" />
		<tag k="natural" v="slope" />
		<tag k="place" v="locality" />
		<tag k="ssr:stedsnr" v="885207" />
	</node>
	<node lat="62.30243888637951" lon="6.748424991437514" id="-4221">
		<tag k="name" v="Jørengjerdet" />
		<tag k="natural" v="slope" />
		<tag k="place" v="locality" />
		<tag k="ssr:stedsnr" v="885213" />
	</node>
	<node lat="62.30185833539594" lon="6.640694451911611" id="-4222">
		<tag k="name" v="Klinthammaren" />
		<tag k="natural" v="cliff" />
		<tag k="ssr:stedsnr" v="885226" />
	</node>
	<node lat="62.32016111348097" lon="6.663694448401988" id="-4226">
		<tag k="name" v="Storerabben" />
		<tag k="natural" v="ridge" />
		<tag k="place" v="locality" />
		<tag k="ssr:stedsnr" v="885251" />
	</node>
	<node lat="62.397441665415656" lon="6.459738884876557" id="-4228">
		<tag k="name" v="Beinskaret" />
		<tag k="natural" v="valley" />
		<tag k="place" v="locality" />
		<tag k="ssr:stedsnr" v="885258" />
	</node>
	<node lat="62.39828610685084" lon="6.453272218228211" id="-4229">
		<tag k="name" v="Norvikhammaren" />
		<tag k="natural" v="cliff" />
		<tag k="ssr:stedsnr" v="885259" />
	</node>
	<node lat="62.36195555690429" lon="6.540558325878242" id="-4231">
		<tag k="name" v="Reitefonna" />
		<tag k="natural" v="valley" />
		<tag k="place" v="locality" />
		<tag k="ssr:stedsnr" v="885347" />
	</node>
	<node lat="62.36689166652093" lon="6.763847220902178" id="-4233">
		<tag k="name" v="Revsdalen" />
		<tag k="natural" v="valley" />
		<tag k="place" v="locality" />
		<tag k="ssr:stedsnr" v="920703" />
	</node>
	<node lat="62.40781111101293" lon="6.628522212648228" id="-4237">
		<tag k="fixme" v="consider natural=peak for the most distinct mountains in the district" />
		<tag k="name" v="Hinakken" />
		<tag k="natural" v="hill" />
		<tag k="place" v="locality" />
		<tag k="ssr:stedsnr" v="921113" />
	</node>
	<node lat="62.35985000269382" lon="6.795855550574388" id="-4239">
		<tag k="fixme" v="consider natural=peak for the most distinct mountains in the district" />
		<tag k="name" v="Revanakken" />
		<tag k="natural" v="hill" />
		<tag k="place" v="locality" />
		<tag k="ssr:stedsnr" v="921705" />
	</node>
	<node lat="62.31159722051948" lon="6.839647217536162" id="-4240">
		<tag k="fixme" v="consider natural=peak for the most distinct mountains in the district" />
		<tag k="name" v="Roaldshornet" />
		<tag k="natural" v="hill" />
		<tag k="place" v="locality" />
		<tag k="ssr:stedsnr" v="921630" />
	</node>
	<node lat="62.32356111019193" lon="6.562324992173517" id="-4241">
		<tag k="name" v="Straumsheimhornet" />
		<tag k="natural" v="hill" />
		<tag k="place" v="locality" />
		<tag k="ssr:stedsnr" v="922429" />
	</node>
	<node lat="62.3260138864456" lon="6.793530553069434" id="-4242">
		<tag k="alt_name" v="Fetkollen" />
		<tag k="fixme" v="consider natural=peak for the most distinct mountains in the district" />
		<tag k="name" v="Fitjakollen" />
		<tag k="natural" v="hill" />
		<tag k="place" v="locality" />
		<tag k="ssr:stedsnr" v="922487" />
	</node>
	<node lat="62.36457778218318" lon="6.4523250023371865" id="-4246">
		<tag k="name" v="Skadegylet" />
		<tag k="natural" v="valley" />
		<tag k="place" v="locality" />
		<tag k="ssr:stedsnr" v="946103" />
	</node>
	<node lat="62.40750277499862" lon="6.678366661943397" id="-4247">
		<tag k="name" v="Skura" />
		<tag k="natural" v="valley" />
		<tag k="place" v="locality" />
		<tag k="ssr:stedsnr" v="946113" />
	</node>
	<node lat="62.27915277711898" lon="6.624288882113813" id="-4248">
		<tag k="name" v="Vadreset" />
		<tag k="natural" v="ridge" />
		<tag k="place" v="locality" />
		<tag k="ssr:stedsnr" v="946134" />
	</node>
	<node lat="62.2946861084031" lon="6.725549991675439" id="-4250">
		<tag k="name" v="Holebotnen" />
		<tag k="natural" v="valley" />
		<tag k="place" v="locality" />
		<tag k="ssr:stedsnr" v="946003" />
	</node>
	<node lat="62.41194721929699" lon="6.800133341070561" id="-4252">
		<tag k="name" v="Kråkenakken" />
		<tag k="natural" v="hill" />
		<tag k="place" v="locality" />
		<tag k="ssr:stedsnr" v="946009" />
	</node>
	<node lat="62.38792499704503" lon="6.80409999260525" id="-4253">
		<tag k="name" v="Bjørnenakken" />
		<tag k="natural" v="ridge" />
		<tag k="place" v="locality" />
		<tag k="ssr:stedsnr" v="946019" />
	</node>
	<node lat="62.30166944814675" lon="6.671786117887024" id="-4255">
		<tag k="name" v="Bytingshammaren" />
		<tag k="natural" v="hill" />
		<tag k="place" v="locality" />
		<tag k="ssr:stedsnr" v="946096" />
	</node>
	<node lat="62.30869721927732" lon="6.747497217573709" id="-4256">
		<tag k="name" v="Sætrehammaren" />
		<tag k="natural" v="hill" />
		<tag k="place" v="locality" />
		<tag k="ssr:stedsnr" v="946100" />
	</node>
	<node lat="62.43168888490808" lon="6.73273055398456" id="-4257">
		<tag k="name" v="Almeskarhaugen" />
		<tag k="natural" v="hill" />
		<tag k="place" v="locality" />
		<tag k="ssr:stedsnr" v="946101" />
	</node>
	<node lat="62.436236109192535" lon="6.71857777579794" id="-4260">
		<tag k="name" v="Haugseterdalen" />
		<tag k="natural" v="valley" />
		<tag k="place" v="locality" />
		<tag k="ssr:stedsnr" v="946216" />
	</node>
	<node lat="62.36730277830699" lon="6.509061106395937" id="-4266">
		<tag k="name" v="Tussaskjervane" />
		<tag k="natural" v="slope" />
		<tag k="place" v="locality" />
		<tag k="ssr:stedsnr" v="946303" />
	</node>
	<node lat="62.392777780336544" lon="6.486202774036501" id="-4267">
		<tag k="name" v="Våtmyrskaret" />
		<tag k="natural" v="valley" />
		<tag k="place" v="locality" />
		<tag k="ssr:stedsnr" v="946304" />
	</node>
	<node lat="62.346713884653255" lon="6.5346000056173015" id="-4268">
		<tag k="name" v="Kampferlia" />
		<tag k="natural" v="slope" />
		<tag k="place" v="locality" />
		<tag k="ssr:stedsnr" v="946309" />
	</node>
	<node lat="62.3762999970558" lon="6.4956305535900905" id="-4270">
		<tag k="name" v="Grønskreda" />
		<tag k="natural" v="slope" />
		<tag k="place" v="locality" />
		<tag k="ssr:stedsnr" v="946313" />
	</node>
	<node lat="62.378944445355756" lon="6.499513885634962" id="-4271">
		<tag k="name" v="Sætrenakken" />
		<tag k="natural" v="ridge" />
		<tag k="place" v="locality" />
		<tag k="ssr:stedsnr" v="946314" />
	</node>
	<node lat="62.41199166820082" lon="6.738505561316109" id="-4275">
		<tag k="alt_name" v="Blånibba" />
		<tag k="fixme" v="consider natural=peak for the most distinct mountains in the district" />
		<tag k="name" v="Blåfjellet" />
		<tag k="natural" v="hill" />
		<tag k="place" v="locality" />
		<tag k="ssr:stedsnr" v="10668" />
	</node>
	<node lat="62.24554999714239" lon="6.741474993152879" id="-4278">
		<tag k="fixme" v="consider natural=peak for the most distinct mountains in the district" />
		<tag k="name" v="Saurdalsnibba" />
		<tag k="natural" v="hill" />
		<tag k="place" v="locality" />
		<tag k="ssr:stedsnr" v="11255" />
	</node>
	<node lat="62.24683333489539" lon="6.697144446632104" id="-4279">
		<tag k="fixme" v="consider natural=peak for the most distinct mountains in the district" />
		<tag k="name" v="Brunstadhornet" />
		<tag k="natural" v="hill" />
		<tag k="place" v="locality" />
		<tag k="ssr:stedsnr" v="11559" />
	</node>
	<node lat="62.28578332902152" lon="6.581597216313852" id="-4280">
		<tag k="name" v="Litledalen" />
		<tag k="natural" v="valley" />
		<tag k="place" v="locality" />
		<tag k="ssr:stedsnr" v="11630" />
	</node>
	<node lat="62.37996666946469" lon="6.794244449963669" id="-4281">
		<tag k="fixme" v="consider natural=peak for the most distinct mountains in the district" />
		<tag k="name" v="Husnakkhornet" />
		<tag k="natural" v="hill" />
		<tag k="place" v="locality" />
		<tag k="ssr:stedsnr" v="11723" />
	</node>
	<node lat="62.31606944762845" lon="6.777041663127636" id="-4284">
		<tag k="name" v="Kleivdalen" />
		<tag k="natural" v="valley" />
		<tag k="place" v="locality" />
		<tag k="ssr:stedsnr" v="12491" />
	</node>
	<node lat="62.35058888661188" lon="6.420141662389366" id="-4285">
		<tag k="name" v="Klungregylet" />
		<tag k="natural" v="valley" />
		<tag k="place" v="locality" />
		<tag k="ssr:stedsnr" v="20168" />
	</node>
	<node lat="62.431936115385504" lon="6.746924997914419" id="-4289">
		<tag k="name" v="Søvikskaret" />
		<tag k="natural" v="valley" />
		<tag k="place" v="locality" />
		<tag k="ssr:stedsnr" v="35066" />
	</node>
	<node lat="62.41412222198796" lon="6.791363881127754" id="-4290">
		<tag k="name" v="Haughagarden" />
		<tag k="natural" v="slope" />
		<tag k="place" v="locality" />
		<tag k="ssr:stedsnr" v="35068" />
	</node>
	<node lat="62.4069527809404" lon="6.775441670978977" id="-4291">
		<tag k="name" v="Løkedalane" />
		<tag k="natural" v="valley" />
		<tag k="place" v="locality" />
		<tag k="ssr:stedsnr" v="35069" />
	</node>
	<node lat="62.33969722286939" lon="6.614216662162408" id="-4294">
		<tag k="name" v="Høghjellane" />
		<tag k="place" v="locality" />
		<tag k="ssr:stedsnr" v="35139" />
	</node>
	<node lat="62.348249997488715" lon="6.725599997250225" id="-4296">
		<tag k="name" v="Klipe" />
		<tag k="natural" v="valley" />
		<tag k="place" v="locality" />
		<tag k="ssr:stedsnr" v="35153" />
	</node>
	<node lat="62.32035833465936" lon="6.609961117601553" id="-4297">
		<tag k="name" v="Hagarden" />
		<tag k="natural" v="slope" />
		<tag k="place" v="locality" />
		<tag k="ssr:stedsnr" v="35185" />
	</node>
	<node lat="62.3501166642162" lon="6.6225972208076" id="-4299">
		<tag k="name" v="Neset" />
		<tag k="natural" v="slope" />
		<tag k="place" v="locality" />
		<tag k="ssr:stedsnr" v="35192" />
	</node>
	<node lat="62.30684722340681" lon="6.749916670122273" id="-4300">
		<tag k="name" v="Silarskogen" />
		<tag k="natural" v="slope" />
		<tag k="place" v="locality" />
		<tag k="ssr:stedsnr" v="35243" />
	</node>
	<node lat="62.31661666794233" lon="6.66970000042162" id="-4302">
		<tag k="name" v="Fonnarabben" />
		<tag k="natural" v="ridge" />
		<tag k="place" v="locality" />
		<tag k="ssr:stedsnr" v="35246" />
	</node>
	<node lat="62.402136114300596" lon="6.825536113904976" id="-4304">
		<tag k="name" v="Ferseegga" />
		<tag k="natural" v="ridge" />
		<tag k="place" v="locality" />
		<tag k="ssr:stedsnr" v="35034" />
	</node>
	<node lat="62.425494445446965" lon="6.695752769494079" id="-4305">
		<tag k="name" v="Sæbjørnhaugen" />
		<tag k="natural" v="hill" />
		<tag k="place" v="locality" />
		<tag k="ssr:stedsnr" v="35050" />
	</node>
	<node lat="62.43316111486145" lon="6.761802772033775" id="-4306">
		<tag k="name" v="Fantehammaren" />
		<tag k="natural" v="slope" />
		<tag k="place" v="locality" />
		<tag k="ssr:stedsnr" v="35058" />
	</node>
	<node lat="62.42822499586922" lon="6.788302779219972" id="-4307">
		<tag k="name" v="Lambedalane" />
		<tag k="natural" v="valley" />
		<tag k="place" v="locality" />
		<tag k="ssr:stedsnr" v="35059" />
	</node>
	<node lat="62.27860277428529" lon="6.654672228786206" id="-4308">
		<tag k="name" v="Kløvskreda" />
		<tag k="natural" v="valley" />
		<tag k="place" v="locality" />
		<tag k="ssr:stedsnr" v="35272" />
	</node>
	<node lat="62.28419167040103" lon="6.673277771762504" id="-4309">
		<tag k="name" v="Storgjerdet" />
		<tag k="natural" v="slope" />
		<tag k="place" v="locality" />
		<tag k="ssr:stedsnr" v="35274" />
	</node>
	<node lat="62.34877221995625" lon="6.556569450723254" id="-4310">
		<tag k="name" v="Kolda" />
		<tag k="natural" v="valley" />
		<tag k="place" v="locality" />
		<tag k="ssr:stedsnr" v="35275" />
	</node>
	<node lat="62.30994444032384" lon="6.624655561139666" id="-4312">
		<tag k="name" v="Armodsøyna" />
		<tag k="natural" v="slope" />
		<tag k="place" v="locality" />
		<tag k="ssr:stedsnr" v="35285" />
	</node>
	<node lat="62.3814638845671" lon="6.826861108371383" id="-4313">
		<tag k="name" v="Storheia" />
		<tag k="natural" v="slope" />
		<tag k="place" v="locality" />
		<tag k="ssr:stedsnr" v="35288" />
	</node>
	<node lat="62.35058610999351" lon="6.546166664467313" id="-4314">
		<tag k="name" v="Reset" />
		<tag k="natural" v="ridge" />
		<tag k="place" v="locality" />
		<tag k="ssr:stedsnr" v="35289" />
	</node>
	<node lat="62.306186112580086" lon="6.604688879371407" id="-4315">
		<tag k="name" v="Åragjerdet" />
		<tag k="natural" v="slope" />
		<tag k="place" v="locality" />
		<tag k="ssr:stedsnr" v="35291" />
	</node>
	<node lat="62.412027776477416" lon="6.595925005630078" id="-4321">
		<tag k="name" v="Elvanakkane" />
		<tag k="natural" v="ridge" />
		<tag k="place" v="locality" />
		<tag k="ssr:stedsnr" v="35399" />
	</node>
	<node lat="62.36367499661134" lon="6.531547219002427" id="-4323">
		<tag k="name" v="Klovslettene" />
		<tag k="natural" v="slope" />
		<tag k="place" v="locality" />
		<tag k="ssr:stedsnr" v="35409" />
	</node>
	<node lat="62.375058333574096" lon="6.458319435104671" id="-4326">
		<tag k="name" v="Småfallremen" />
		<tag k="natural" v="ridge" />
		<tag k="place" v="locality" />
		<tag k="ssr:stedsnr" v="35318" />
	</node>
	<node lat="62.37951944697277" lon="6.438627776610771" id="-4327">
		<tag k="name" v="Ulvsbakkane" />
		<tag k="natural" v="slope" />
		<tag k="place" v="locality" />
		<tag k="ssr:stedsnr" v="35319" />
	</node>
	<node lat="62.38680277858007" lon="6.4824055493795" id="-4329">
		<tag k="name" v="Lislehaugen" />
		<tag k="natural" v="hill" />
		<tag k="place" v="locality" />
		<tag k="ssr:stedsnr" v="35321" />
	</node>
	<node lat="62.367586110234434" lon="6.759166674910154" id="-4333">
		<tag k="name" v="Bjørkehammaren" />
		<tag k="natural" v="hill" />
		<tag k="place" v="locality" />
		<tag k="ssr:stedsnr" v="35358" />
	</node>
	<node lat="62.388108337190495" lon="6.539355562274527" id="-4334">
		<tag k="name" v="Myreryggen" />
		<tag k="natural" v="ridge" />
		<tag k="place" v="locality" />
		<tag k="ssr:stedsnr" v="35435" />
	</node>
	<node lat="62.292080556861485" lon="6.6525111055856625" id="-4337">
		<tag k="name" v="Tausahaugen" />
		<tag k="natural" v="hill" />
		<tag k="place" v="locality" />
		<tag k="ssr:stedsnr" v="35259" />
	</node>
	<node lat="62.27256944347881" lon="6.634563881807618" id="-4346">
		<tag k="fixme" v="consider natural=peak for the most distinct mountains in the district" />
		<tag k="name" v="Skjortehornet" />
		<tag k="natural" v="hill" />
		<tag k="place" v="locality" />
		<tag k="ssr:stedsnr" v="72255" />
	</node>
	<node lat="62.37251388710425" lon="6.52916666305556" id="-4347">
		<tag k="fixme" v="consider natural=peak for the most distinct mountains in the district" />
		<tag k="name" v="Stavekollen" />
		<tag k="natural" v="hill" />
		<tag k="place" v="locality" />
		<tag k="ssr:stedsnr" v="72353" />
	</node>
	<node lat="62.362819447683606" lon="6.527858340111696" id="-4350">
		<tag k="name" v="Stavefonna" />
		<tag k="natural" v="valley" />
		<tag k="place" v="locality" />
		<tag k="ssr:stedsnr" v="72371" />
	</node>
	<node lat="62.22942500187487" lon="6.70443888794855" id="-4353">
		<tag k="fixme" v="consider natural=peak for the most distinct mountains in the district" />
		<tag k="name" v="Brekketindane" />
		<tag k="natural" v="hill" />
		<tag k="place" v="locality" />
		<tag k="ssr:stedsnr" v="72502" />
	</node>
	<node lat="62.37738611364737" lon="6.774880555900649" id="-4355">
		<tag k="fixme" v="consider natural=peak for the most distinct mountains in the district" />
		<tag k="name" v="Auskjeret" />
		<tag k="natural" v="hill" />
		<tag k="place" v="locality" />
		<tag k="ssr:stedsnr" v="72698" />
	</node>
	<node lat="62.35816944133669" lon="6.448522216069738" id="-4356">
		<tag k="name" v="Ålhaugen" />
		<tag k="natural" v="hill" />
		<tag k="place" v="locality" />
		<tag k="ssr:stedsnr" v="81172" />
	</node>
	<node lat="62.32502500192944" lon="6.693322228834542" id="-4357">
		<tag k="fixme" v="consider natural=peak for the most distinct mountains in the district" />
		<tag k="name" v="Storfjellet" />
		<tag k="natural" v="hill" />
		<tag k="place" v="locality" />
		<tag k="ssr:stedsnr" v="81174" />
	</node>
	<node lat="62.43391666622037" lon="6.723019435816088" id="-4359">
		<tag k="name" v="Ringlehamrane" />
		<tag k="natural" v="cliff" />
		<tag k="ssr:stedsnr" v="91341" />
	</node>
	<node lat="62.431277776747386" lon="6.715622221881953" id="-4360">
		<tag k="name" v="Svabergane" />
		<tag k="natural" v="slope" />
		<tag k="place" v="locality" />
		<tag k="ssr:stedsnr" v="91347" />
	</node>
	<node lat="62.3054027808634" lon="6.714774995006477" id="-4363">
		<tag k="name" v="Storteigane" />
		<tag k="natural" v="slope" />
		<tag k="place" v="locality" />
		<tag k="ssr:stedsnr" v="96234" />
	</node>
	<node lat="62.31264444505514" lon="6.673186104359989" id="-4364">
		<tag k="name" v="Seljefonna" />
		<tag k="natural" v="slope" />
		<tag k="place" v="locality" />
		<tag k="ssr:stedsnr" v="96235" />
	</node>
	<node lat="62.43725833269564" lon="6.673525004807963" id="-4367">
		<tag k="name" v="Sætrehaugen" />
		<tag k="natural" v="hill" />
		<tag k="place" v="locality" />
		<tag k="ssr:stedsnr" v="95024" />
	</node>
	<node lat="62.42415277870323" lon="6.6851388830141705" id="-4368">
		<tag k="name" v="Byrkjeneshaugen" />
		<tag k="natural" v="hill" />
		<tag k="place" v="locality" />
		<tag k="ssr:stedsnr" v="95025" />
	</node>
	<node lat="62.42880555860304" lon="6.691874992730911" id="-4369">
		<tag k="name" v="Myrbærhola" />
		<tag k="natural" v="valley" />
		<tag k="place" v="locality" />
		<tag k="ssr:stedsnr" v="95029" />
	</node>
	<node lat="62.40311110916542" lon="6.7880972200668594" id="-4371">
		<tag k="name" v="Gjerdeteigane" />
		<tag k="natural" v="slope" />
		<tag k="place" v="locality" />
		<tag k="ssr:stedsnr" v="96089" />
	</node>
	<node lat="62.33634722428976" lon="6.779891668959643" id="-4373">
		<tag k="name" v="Pusken" />
		<tag k="natural" v="slope" />
		<tag k="place" v="locality" />
		<tag k="ssr:stedsnr" v="96117" />
	</node>
	<node lat="62.40993333187566" lon="6.6239972190991585" id="-4377">
		<tag k="name" v="Raudebergane" />
		<tag k="natural" v="slope" />
		<tag k="place" v="locality" />
		<tag k="ssr:stedsnr" v="96131" />
	</node>
	<node lat="62.33606389028941" lon="6.644330560614707" id="-4378">
		<tag k="name" v="Moseberget" />
		<tag k="natural" v="hill" />
		<tag k="place" v="locality" />
		<tag k="ssr:stedsnr" v="96134" />
	</node>
	<node lat="62.434836111964145" lon="6.803777782681002" id="-4379">
		<tag k="name" v="Kolda" />
		<tag k="natural" v="valley" />
		<tag k="place" v="locality" />
		<tag k="ssr:stedsnr" v="96138" />
	</node>
	<node lat="62.41831110822892" lon="6.712186109970408" id="-4380">
		<tag k="name" v="Bruarøra" />
		<tag k="natural" v="slope" />
		<tag k="place" v="locality" />
		<tag k="ssr:stedsnr" v="96139" />
	</node>
	<node lat="62.344927779861465" lon="6.5500527701579" id="-4381">
		<tag k="name" v="Litlekollen" />
		<tag k="natural" v="hill" />
		<tag k="place" v="locality" />
		<tag k="ssr:stedsnr" v="96152" />
	</node>
	<node lat="62.36068889297158" lon="6.617697230171238" id="-4382">
		<tag k="name" v="Syvergjerdet" />
		<tag k="natural" v="slope" />
		<tag k="place" v="locality" />
		<tag k="ssr:stedsnr" v="96185" />
	</node>
	<node lat="62.344588891272146" lon="6.597919450964773" id="-4386">
		<tag k="name" v="Kleiva" />
		<tag k="natural" v="slope" />
		<tag k="place" v="locality" />
		<tag k="ssr:stedsnr" v="96195" />
	</node>
	<node lat="62.36548055118767" lon="6.626363888342887" id="-4388">
		<tag k="name" v="Høyset" />
		<tag k="natural" v="hill" />
		<tag k="place" v="locality" />
		<tag k="ssr:stedsnr" v="96204" />
	</node>
	<node lat="62.34009166284983" lon="6.56014444380776" id="-4390">
		<tag k="name" v="Tungegylet" />
		<tag k="natural" v="gorge" />
		<tag k="ssr:stedsnr" v="96156" />
	</node>
	<node lat="62.35587221915363" lon="6.7887361017808825" id="-4392">
		<tag k="name" v="Svabakkane" />
		<tag k="natural" v="slope" />
		<tag k="place" v="locality" />
		<tag k="ssr:stedsnr" v="96300" />
	</node>
	<node lat="62.27347499846974" lon="6.616844435325403" id="-4394">
		<tag k="name" v="Regndalen" />
		<tag k="natural" v="valley" />
		<tag k="place" v="locality" />
		<tag k="ssr:stedsnr" v="96251" />
	</node>
	<node lat="62.42779444150014" lon="6.633297213491379" id="-4397">
		<tag k="name" v="Krokslættene" />
		<tag k="natural" v="slope" />
		<tag k="place" v="locality" />
		<tag k="ssr:stedsnr" v="96329" />
	</node>
	<node lat="62.413302775781474" lon="6.602236103950754" id="-4400">
		<tag k="name" v="Godfarnakken" />
		<tag k="natural" v="ridge" />
		<tag k="place" v="locality" />
		<tag k="ssr:stedsnr" v="96345" />
	</node>
	<node lat="62.42436389163703" lon="6.851274996469877" id="-4404">
		<tag k="fixme" v="consider natural=peak for the most distinct mountains in the district" />
		<tag k="name" v="Storfjellet" />
		<tag k="natural" v="hill" />
		<tag k="place" v="locality" />
		<tag k="ssr:stedsnr" v="131681" />
	</node>
	<node lat="62.28460833105082" lon="6.5962305553423155" id="-4413">
		<tag k="fixme" v="consider natural=peak for the most distinct mountains in the district" />
		<tag k="name" v="Vallanyken" />
		<tag k="natural" v="hill" />
		<tag k="place" v="locality" />
		<tag k="ssr:stedsnr" v="132251" />
	</node>
	<node lat="62.350536114278334" lon="6.7596916646297736" id="-4416">
		<tag k="name" v="Tuvdalen" />
		<tag k="natural" v="valley" />
		<tag k="old_name" v="Tudalen" />
		<tag k="place" v="locality" />
		<tag k="ssr:stedsnr" v="132549" />
	</node>
	<node lat="62.29764722505583" lon="6.664500001891931" id="-4417">
		<tag k="name" v="Velledalen" />
		<tag k="natural" v="valley" />
		<tag k="place" v="locality" />
		<tag k="ssr:stedsnr" v="133434" />
	</node>
	<node lat="62.42410555434256" lon="6.729497231280228" id="-4421">
		<tag k="name" v="Kråkehamrane" />
		<tag k="place" v="locality" />
		<tag k="ssr:stedsnr" v="156030" />
	</node>
	<node lat="62.42168610671982" lon="6.684969441520759" id="-4422">
		<tag k="name" v="Osphammaren" />
		<tag k="natural" v="slope" />
		<tag k="place" v="locality" />
		<tag k="ssr:stedsnr" v="156033" />
	</node>
	<node lat="62.43045833354525" lon="6.791666667009889" id="-4423">
		<tag k="name" v="Sjøteigane" />
		<tag k="natural" v="slope" />
		<tag k="place" v="locality" />
		<tag k="ssr:stedsnr" v="156046" />
	</node>
	<node lat="62.28901666448027" lon="6.688116672331379" id="-4424">
		<tag k="name" v="Evjehaugen" />
		<tag k="natural" v="hill" />
		<tag k="place" v="locality" />
		<tag k="ssr:stedsnr" v="157008" />
	</node>
	<node lat="62.3567833298337" lon="6.635661114272332" id="-4427">
		<tag k="name" v="Brekkevollane" />
		<tag k="natural" v="slope" />
		<tag k="place" v="locality" />
		<tag k="ssr:stedsnr" v="157131" />
	</node>
	<node lat="62.358297218141686" lon="6.612091674776473" id="-4429">
		<tag k="name" v="Tynesliene" />
		<tag k="natural" v="slope" />
		<tag k="place" v="locality" />
		<tag k="ssr:stedsnr" v="157139" />
	</node>
	<node lat="62.38268610909021" lon="6.635852771930851" id="-4430">
		<tag k="name" v="Fagrefjellenden" />
		<tag k="place" v="locality" />
		<tag k="ssr:stedsnr" v="157144" />
	</node>
	<node lat="62.36954722527532" lon="6.449124997388796" id="-4434">
		<tag k="name" v="Aksla" />
		<tag k="natural" v="ridge" />
		<tag k="place" v="locality" />
		<tag k="ssr:stedsnr" v="157075" />
	</node>
	<node lat="62.270747221946635" lon="6.67791388396602" id="-4435">
		<tag k="name" v="Trufthamrane" />
		<tag k="place" v="locality" />
		<tag k="ssr:stedsnr" v="157170" />
	</node>
	<node lat="62.3405166667339" lon="6.768219444353622" id="-4438">
		<tag k="name" v="Åsane" />
		<tag k="natural" v="slope" />
		<tag k="place" v="locality" />
		<tag k="ssr:stedsnr" v="157181" />
	</node>
	<node lat="62.28517778172956" lon="6.634072222404122" id="-4439">
		<tag k="name" v="Skinstøhammaren" />
		<tag k="place" v="locality" />
		<tag k="ssr:stedsnr" v="157184" />
	</node>
	<node lat="62.38537778067137" lon="6.8314694396711335" id="-4440">
		<tag k="name" v="Geiddane" />
		<tag k="place" v="locality" />
		<tag k="ssr:stedsnr" v="157188" />
	</node>
	<node lat="62.27934444616952" lon="6.6880305642595035" id="-4441">
		<tag k="name" v="Nygjerdsstykkja" />
		<tag k="natural" v="slope" />
		<tag k="place" v="locality" />
		<tag k="ssr:stedsnr" v="157190" />
	</node>
	<node lat="62.27814166964871" lon="6.681627780571547" id="-4442">
		<tag k="name" v="Slettenova" />
		<tag k="natural" v="ridge" />
		<tag k="place" v="locality" />
		<tag k="ssr:stedsnr" v="157191" />
	</node>
	<node lat="62.32007221821962" lon="6.6144500035069616" id="-4443">
		<tag k="name" v="Hjellane" />
		<tag k="natural" v="slope" />
		<tag k="place" v="locality" />
		<tag k="ssr:stedsnr" v="157192" />
	</node>
	<node lat="62.3090388921848" lon="6.597491666015129" id="-4444">
		<tag k="name" v="Langeremen" />
		<tag k="natural" v="ridge" />
		<tag k="place" v="locality" />
		<tag k="ssr:stedsnr" v="157193" />
	</node>
	<node lat="62.376416662693515" lon="6.526144445208299" id="-4448">
		<tag k="name" v="Kvitfonnhamrane" />
		<tag k="natural" v="cliff" />
		<tag k="ssr:stedsnr" v="157326" />
	</node>
	<node lat="62.37510833539245" lon="6.5118638916329346" id="-4449">
		<tag k="name" v="Kalddalen" />
		<tag k="natural" v="valley" />
		<tag k="place" v="locality" />
		<tag k="ssr:stedsnr" v="157330" />
	</node>
	<node lat="62.43445277944129" lon="6.662894444170495" id="-4451">
		<tag k="fixme" v="consider natural=peak for the most distinct mountains in the district" />
		<tag k="name" v="Veslehornet" />
		<tag k="natural" v="hill" />
		<tag k="place" v="locality" />
		<tag k="ssr:stedsnr" v="157275" />
	</node>
	<node lat="62.42815277461429" lon="6.652874994321829" id="-4452">
		<tag k="fixme" v="consider natural=peak for the most distinct mountains in the district" />
		<tag k="name" v="Middagshornet" />
		<tag k="natural" v="hill" />
		<tag k="place" v="locality" />
		<tag k="ssr:stedsnr" v="157277" />
	</node>
	<node lat="62.42305277969505" lon="6.668122213197296" id="-4453">
		<tag k="fixme" v="consider natural=peak for the most distinct mountains in the district" />
		<tag k="name" v="Kvitgeita" />
		<tag k="natural" v="hill" />
		<tag k="place" v="locality" />
		<tag k="ssr:stedsnr" v="157292" />
	</node>
	<node lat="62.42483055312584" lon="6.753749993397229" id="-4463">
		<tag k="name" v="Klokksnakken" />
		<tag k="natural" v="hill" />
		<tag k="place" v="locality" />
		<tag k="ssr:stedsnr" v="192718" />
	</node>
	<node lat="62.4015444434975" lon="6.701738885018056" id="-4466">
		<tag k="alt_name" v="Rømerhornet;Remerhorn" />
		<tag k="fixme" v="consider natural=peak for the most distinct mountains in the district" />
		<tag k="name" v="Remerhornet" />
		<tag k="natural" v="hill" />
		<tag k="place" v="locality" />
		<tag k="ssr:stedsnr" v="193091" />
	</node>
	<node lat="62.2364499980645" lon="6.722116657538801" id="-4467">
		<tag k="fixme" v="consider natural=peak for the most distinct mountains in the district" />
		<tag k="name" v="Skartinden" />
		<tag k="natural" v="hill" />
		<tag k="place" v="locality" />
		<tag k="ssr:stedsnr" v="193257" />
	</node>
	<node lat="62.26939444858247" lon="6.6049611095619785" id="-4468">
		<tag k="name" v="Regndalen" />
		<tag k="natural" v="valley" />
		<tag k="place" v="locality" />
		<tag k="ssr:stedsnr" v="193263" />
	</node>
	<node lat="62.37925277971655" lon="6.713216667767031" id="-4471">
		<tag k="fixme" v="consider natural=peak for the most distinct mountains in the district" />
		<tag k="name" v="Nibba" />
		<tag k="natural" v="hill" />
		<tag k="place" v="locality" />
		<tag k="ssr:stedsnr" v="193430" />
	</node>
	<node lat="62.383841668441704" lon="6.7652333311835955" id="-4475">
		<tag k="name" v="Litlehornet" />
		<tag k="natural" v="hill" />
		<tag k="place" v="locality" />
		<tag k="ssr:stedsnr" v="193705" />
	</node>
	<node lat="62.32137221975287" lon="6.582225002145096" id="-4483">
		<tag k="name" v="Inste Bjørkebakkane" />
		<tag k="natural" v="slope" />
		<tag k="place" v="locality" />
		<tag k="ssr:stedsnr" v="217136" />
	</node>
	<node lat="62.33102222615853" lon="6.5811583366827024" id="-4486">
		<tag k="name" v="Bjønnkinnholå" />
		<tag k="natural" v="valley" />
		<tag k="place" v="locality" />
		<tag k="ssr:stedsnr" v="217149" />
	</node>
	<node lat="62.33125555235903" lon="6.574158332105649" id="-4487">
		<tag k="name" v="Ytsteremen" />
		<tag k="natural" v="ridge" />
		<tag k="place" v="locality" />
		<tag k="ssr:stedsnr" v="217150" />
	</node>
	<node lat="62.369758336023565" lon="6.58616389238647" id="-4488">
		<tag k="name" v="Skarshammaren" />
		<tag k="natural" v="slope" />
		<tag k="place" v="locality" />
		<tag k="ssr:stedsnr" v="217156" />
	</node>
	<node lat="62.420019444997216" lon="6.6958694478957606" id="-4489">
		<tag k="name" v="Storfurneshaugen" />
		<tag k="natural" v="hill" />
		<tag k="place" v="locality" />
		<tag k="ssr:stedsnr" v="217045" />
	</node>
	<node lat="62.41393610968013" lon="6.674088891918084" id="-4490">
		<tag k="name" v="Aurdalskvamane" />
		<tag k="natural" v="slope" />
		<tag k="place" v="locality" />
		<tag k="ssr:stedsnr" v="217057" />
	</node>
	<node lat="62.43201110768166" lon="6.749694442096871" id="-4491">
		<tag k="name" v="Litle Kattåsen" />
		<tag k="natural" v="slope" />
		<tag k="place" v="locality" />
		<tag k="ssr:stedsnr" v="217058" />
	</node>
	<node lat="62.36054167028208" lon="6.547663893242669" id="-4494">
		<tag k="name" v="Barbrohammaren" />
		<tag k="natural" v="slope" />
		<tag k="place" v="locality" />
		<tag k="ssr:stedsnr" v="217178" />
	</node>
	<node lat="62.35446666367712" lon="6.7222805533028795" id="-4495">
		<tag k="name" v="Sitarhaugen" />
		<tag k="natural" v="hill" />
		<tag k="place" v="locality" />
		<tag k="ssr:stedsnr" v="217186" />
	</node>
	<node lat="62.39575000168796" lon="6.767613893002537" id="-4496">
		<tag k="name" v="Kråkeneset" />
		<tag k="natural" v="ridge" />
		<tag k="place" v="locality" />
		<tag k="ssr:stedsnr" v="217196" />
	</node>
	<node lat="62.39035000154314" lon="6.681144434704327" id="-4498">
		<tag k="name" v="Ullsdalen" />
		<tag k="natural" v="slope" />
		<tag k="place" v="locality" />
		<tag k="ssr:stedsnr" v="217201" />
	</node>
	<node lat="62.42622221861307" lon="6.623300008604088" id="-4500">
		<tag k="name" v="Sandvikegga" />
		<tag k="natural" v="ridge" />
		<tag k="place" v="locality" />
		<tag k="ssr:stedsnr" v="217317" />
	</node>
	<node lat="62.38194999954974" lon="6.614363886587539" id="-4503">
		<tag k="name" v="Breiskaret" />
		<tag k="natural" v="valley" />
		<tag k="place" v="locality" />
		<tag k="ssr:stedsnr" v="217169" />
	</node>
	<node lat="62.28031666572816" lon="6.675277772652472" id="-4505">
		<tag k="name" v="Volleteigane" />
		<tag k="natural" v="slope" />
		<tag k="place" v="locality" />
		<tag k="ssr:stedsnr" v="217233" />
	</node>
	<node lat="62.360555554120275" lon="6.43348055574012" id="-4507">
		<tag k="name" v="Raudhaugen" />
		<tag k="natural" v="hill" />
		<tag k="place" v="locality" />
		<tag k="ssr:stedsnr" v="217264" />
	</node>
	<node lat="62.39219444831404" lon="6.491588898002833" id="-4508">
		<tag k="name" v="Breinakken" />
		<tag k="natural" v="ridge" />
		<tag k="place" v="locality" />
		<tag k="ssr:stedsnr" v="217337" />
	</node>
	<node lat="62.35772222638953" lon="6.542769436407254" id="-4509">
		<tag k="name" v="Jottagjelet" />
		<tag k="natural" v="valley" />
		<tag k="place" v="locality" />
		<tag k="ssr:stedsnr" v="217339" />
	</node>
	<node lat="62.35345833782652" lon="6.468572227649211" id="-4511">
		<tag k="name" v="Seljefonna" />
		<tag k="natural" v="valley" />
		<tag k="place" v="locality" />
		<tag k="ssr:stedsnr" v="217342" />
	</node>
	<node lat="62.37957499993605" lon="6.520861116566737" id="-4512">
		<tag k="name" v="Lauvhaugane" />
		<tag k="natural" v="hill" />
		<tag k="place" v="locality" />
		<tag k="ssr:stedsnr" v="217357" />
	</node>
	<node lat="62.38185833676616" lon="6.584694446920857" id="-4514">
		<tag k="name" v="Husnakken" />
		<tag k="natural" v="ridge" />
		<tag k="place" v="locality" />
		<tag k="ssr:stedsnr" v="218011" />
	</node>
	<node lat="62.41113333222726" lon="6.571319438396136" id="-4515">
		<tag k="name" v="Timberhaugen" />
		<tag k="natural" v="hill" />
		<tag k="place" v="locality" />
		<tag k="ssr:stedsnr" v="218014" />
	</node>
	<node lat="62.357650000363584" lon="6.645313888151491" id="-4516">
		<tag k="name" v="Gimsdalshaugen" />
		<tag k="natural" v="hill" />
		<tag k="place" v="locality" />
		<tag k="ssr:stedsnr" v="218016" />
	</node>
	<node lat="62.293080552381866" lon="6.636441667460927" id="-4517">
		<tag k="name" v="Kvernhusnova" />
		<tag k="natural" v="ridge" />
		<tag k="place" v="locality" />
		<tag k="ssr:stedsnr" v="218018" />
	</node>
	<node lat="62.38762221933041" lon="6.460594440039826" id="-4518">
		<tag k="name" v="Goskardalen" />
		<tag k="natural" v="valley" />
		<tag k="place" v="locality" />
		<tag k="ssr:stedsnr" v="218019" />
	</node>
	<node lat="62.406194446263804" lon="6.559049992652215" id="-4521">
		<tag k="name" v="Sikane" />
		<tag k="natural" v="slope" />
		<tag k="place" v="locality" />
		<tag k="ssr:stedsnr" v="218221" />
	</node>
	<node lat="62.368325000722194" lon="6.603833337155845" id="-4523">
		<tag k="name" v="Kleiva" />
		<tag k="natural" v="slope" />
		<tag k="place" v="locality" />
		<tag k="ssr:stedsnr" v="218054" />
	</node>
	<node lat="62.36230277807673" lon="6.594761115511141" id="-4524">
		<tag k="name" v="Brøkene" />
		<tag k="natural" v="slope" />
		<tag k="place" v="locality" />
		<tag k="ssr:stedsnr" v="218056" />
	</node>
	<node lat="62.4137944447485" lon="6.638136108217722" id="-4525">
		<tag k="name" v="Liene" />
		<tag k="natural" v="slope" />
		<tag k="place" v="locality" />
		<tag k="ssr:stedsnr" v="218058" />
	</node>
	<node lat="62.306911106666774" lon="6.687449993571505" id="-4528">
		<tag k="name" v="Grønlia" />
		<tag k="natural" v="slope" />
		<tag k="place" v="locality" />
		<tag k="ssr:stedsnr" v="218148" />
	</node>
	<node lat="62.322016663427966" lon="6.651522223556663" id="-4530">
		<tag k="name" v="Aksla" />
		<tag k="natural" v="ridge" />
		<tag k="place" v="locality" />
		<tag k="ssr:stedsnr" v="218164" />
	</node>
	<node lat="62.327283331967365" lon="6.58755556356954" id="-4531">
		<tag k="name" v="Nova" />
		<tag k="natural" v="ridge" />
		<tag k="place" v="locality" />
		<tag k="ssr:stedsnr" v="218168" />
	</node>
	<node lat="62.348080558744215" lon="6.783425006071638" id="-4534">
		<tag k="name" v="Tausahaugen" />
		<tag k="natural" v="hill" />
		<tag k="place" v="locality" />
		<tag k="ssr:stedsnr" v="218267" />
	</node>
	<node lat="62.317516669089414" lon="6.768863882229847" id="-4535">
		<tag k="name" v="Sitarhaugen" />
		<tag k="natural" v="hill" />
		<tag k="place" v="locality" />
		<tag k="ssr:stedsnr" v="218269" />
	</node>
	<node lat="62.33915833138023" lon="6.529577768971466" id="-4536">
		<tag k="name" v="Gaddereset" />
		<tag k="natural" v="ridge" />
		<tag k="place" v="locality" />
		<tag k="ssr:stedsnr" v="218344" />
	</node>
	<node lat="62.36047777889683" lon="6.458449997103484" id="-4538">
		<tag k="loc_name" v="Mjågeremsgylet" />
		<tag k="name" v="Heimstølsgjelet" />
		<tag k="natural" v="valley" />
		<tag k="place" v="locality" />
		<tag k="ssr:stedsnr" v="273442" />
	</node>
	<node lat="62.31038055741562" lon="6.674238881520375" id="-4540">
		<tag k="name" v="Nøre Kroken" />
		<tag k="natural" v="slope" />
		<tag k="place" v="locality" />
		<tag k="ssr:stedsnr" v="278023" />
	</node>
	<node lat="62.365938884491136" lon="6.514622222074668" id="-4541">
		<tag k="name" v="Lisledalen" />
		<tag k="natural" v="valley" />
		<tag k="place" v="locality" />
		<tag k="ssr:stedsnr" v="278026" />
	</node>
	<node lat="62.40507222673979" lon="6.80210833837445" id="-4542">
		<tag k="name" v="Årsetberget" />
		<tag k="natural" v="slope" />
		<tag k="place" v="locality" />
		<tag k="ssr:stedsnr" v="278030" />
	</node>
	<node lat="62.38796388591333" lon="6.63595277282808" id="-4543">
		<tag k="name" v="Koppen" />
		<tag k="natural" v="valley" />
		<tag k="place" v="locality" />
		<tag k="ssr:stedsnr" v="278067" />
	</node>
	<node lat="62.36122778023873" lon="6.8370111142613075" id="-4544">
		<tag k="name" v="Kleivane" />
		<tag k="natural" v="slope" />
		<tag k="place" v="locality" />
		<tag k="ssr:stedsnr" v="278119" />
	</node>
	<node lat="62.35699166663607" lon="6.831552777107037" id="-4545">
		<tag k="name" v="Rishola" />
		<tag k="natural" v="valley" />
		<tag k="place" v="locality" />
		<tag k="ssr:stedsnr" v="278120" />
	</node>
	<node lat="62.39689722613808" lon="6.461588881331127" id="-4546">
		<tag k="fixme" v="consider natural=peak for the most distinct mountains in the district" />
		<tag k="name" v="Nakkehammaren" />
		<tag k="natural" v="hill" />
		<tag k="place" v="locality" />
		<tag k="ssr:stedsnr" v="278126" />
	</node>
	<node lat="62.34296111126457" lon="6.607580552404548" id="-4548">
		<tag k="name" v="Skarhammaren" />
		<tag k="natural" v="cliff" />
		<tag k="ssr:stedsnr" v="278157" />
	</node>
	<node lat="62.428386110202204" lon="6.790066660774545" id="-4549">
		<tag k="name" v="Bødalen" />
		<tag k="natural" v="valley" />
		<tag k="place" v="locality" />
		<tag k="ssr:stedsnr" v="278158" />
	</node>
	<node lat="62.32283333348104" lon="6.578469449552478" id="-4550">
		<tag k="name" v="Grønhaugen" />
		<tag k="natural" v="hill" />
		<tag k="place" v="locality" />
		<tag k="ssr:stedsnr" v="278164" />
	</node>
	<node lat="62.325461112879154" lon="6.603961115732149" id="-4556">
		<tag k="name" v="Seljehushammaren" />
		<tag k="natural" v="cliff" />
		<tag k="ssr:stedsnr" v="278253" />
	</node>
	<node lat="62.32560000103468" lon="6.618991660250541" id="-4558">
		<tag k="name" v="Kjøthjellane" />
		<tag k="natural" v="slope" />
		<tag k="place" v="locality" />
		<tag k="ssr:stedsnr" v="278262" />
	</node>
	<node lat="62.375833332889535" lon="6.627005550162262" id="-4559">
		<tag k="name" v="Åsæterryggen" />
		<tag k="natural" v="ridge" />
		<tag k="place" v="locality" />
		<tag k="ssr:stedsnr" v="278192" />
	</node>
	<node lat="62.35892777355962" lon="6.561966676000695" id="-4560">
		<tag k="name" v="Erstadbakkane" />
		<tag k="natural" v="slope" />
		<tag k="place" v="locality" />
		<tag k="ssr:stedsnr" v="278194" />
	</node>
	<node lat="62.42853888828282" lon="6.613433329214704" id="-4563">
		<tag k="name" v="Storehaugen" />
		<tag k="natural" v="hill" />
		<tag k="place" v="locality" />
		<tag k="ssr:stedsnr" v="278294" />
	</node>
	<node lat="62.383188891038905" lon="6.493391657829644" id="-4564">
		<tag k="name" v="Gamlestølskogen" />
		<tag k="natural" v="slope" />
		<tag k="place" v="locality" />
		<tag k="ssr:stedsnr" v="278402" />
	</node>
	<node lat="62.34729166593588" lon="6.786077769482305" id="-4565">
		<tag k="name" v="Bytehaugen" />
		<tag k="natural" v="hill" />
		<tag k="place" v="locality" />
		<tag k="ssr:stedsnr" v="278334" />
	</node>
	<node lat="62.42147777471649" lon="6.592688882945406" id="-4567">
		<tag k="name" v="Ørnenakken" />
		<tag k="natural" v="ridge" />
		<tag k="place" v="locality" />
		<tag k="ssr:stedsnr" v="278350" />
	</node>
	<node lat="62.38603888729703" lon="6.830980561292317" id="-4574">
		<tag k="name" v="Storheirøra" />
		<tag k="natural" v="hill" />
		<tag k="place" v="locality" />
		<tag k="ssr:stedsnr" v="314730" />
	</node>
	<node lat="62.251675001248444" lon="6.737702771667644" id="-4576">
		<tag k="name" v="Koppeskardet" />
		<tag k="natural" v="valley" />
		<tag k="place" v="locality" />
		<tag k="ssr:stedsnr" v="314883" />
	</node>
	<node lat="62.261019445934814" lon="6.734691661985424" id="-4577">
		<tag k="fixme" v="multiple name tags, choose one and add the other to alt_name; consider natural=peak for the most distinct mountains in the district" />
		<tag k="name" v="Dalmannshornet;Sætretindane" />
		<tag k="natural" v="hill" />
		<tag k="place" v="locality" />
		<tag k="ssr:stedsnr" v="314889" />
	</node>
	<node lat="62.33070277466674" lon="6.481888898161967" id="-4581">
		<tag k="name" v="Baklidalen" />
		<tag k="natural" v="valley" />
		<tag k="place" v="locality" />
		<tag k="ssr:stedsnr" v="315417" />
	</node>
	<node lat="62.33303754762043" lon="6.673175702303416" id="-4582">
		<tag k="fixme" v="consider natural=peak for the most distinct mountains in the district" />
		<tag k="name" v="Hammarsettindane" />
		<tag k="natural" v="hill" />
		<tag k="place" v="locality" />
		<tag k="ssr:stedsnr" v="315428" />
	</node>
	<node lat="62.32528055929747" lon="6.682838894124589" id="-4583">
		<tag k="fixme" v="consider natural=peak for the most distinct mountains in the district" />
		<tag k="name" v="Urfjellet" />
		<tag k="natural" v="hill" />
		<tag k="place" v="locality" />
		<tag k="ssr:stedsnr" v="315433" />
	</node>
	<node lat="62.30045277931181" lon="6.731511101871032" id="-4584">
		<tag k="alt_name" v="Ørnehaugen" />
		<tag k="fixme" v="consider natural=peak for the most distinct mountains in the district" />
		<tag k="name" v="Holenakken" />
		<tag k="natural" v="hill" />
		<tag k="place" v="locality" />
		<tag k="ssr:stedsnr" v="315581" />
	</node>
	<node lat="62.35596389036929" lon="6.59837499776493" id="-4591">
		<tag k="name" v="Nøsa" />
		<tag k="natural" v="hill" />
		<tag k="place" v="locality" />
		<tag k="ssr:stedsnr" v="339072" />
	</node>
	<node lat="62.43435000373323" lon="6.651547228882442" id="-4593">
		<tag k="name" v="Lia" />
		<tag k="natural" v="slope" />
		<tag k="place" v="locality" />
		<tag k="ssr:stedsnr" v="339088" />
	</node>
	<node lat="62.36318611424577" lon="6.535208339549615" id="-4594">
		<tag k="name" v="Tåa" />
		<tag k="natural" v="ridge" />
		<tag k="place" v="locality" />
		<tag k="ssr:stedsnr" v="339098" />
	</node>
	<node lat="62.326888890929" lon="6.582705558756476" id="-4595">
		<tag k="name" v="Remesletta" />
		<tag k="natural" v="slope" />
		<tag k="place" v="locality" />
		<tag k="ssr:stedsnr" v="339145" />
	</node>
	<node lat="62.342638891603315" lon="6.5626194463758765" id="-4597">
		<tag k="name" v="Storhammaren" />
		<tag k="place" v="locality" />
		<tag k="ssr:stedsnr" v="339154" />
	</node>
	<node lat="62.33321111319532" lon="6.567263880330444" id="-4598">
		<tag k="name" v="Kolagylet" />
		<tag k="natural" v="gorge" />
		<tag k="ssr:stedsnr" v="339164" />
	</node>
	<node lat="62.28826944114224" lon="6.656252773259674" id="-4599">
		<tag k="name" v="Haugane" />
		<tag k="natural" v="hill" />
		<tag k="place" v="locality" />
		<tag k="ssr:stedsnr" v="339167" />
	</node>
	<node lat="62.356047225966805" lon="6.59319999688249" id="-4600">
		<tag k="name" v="Ospaflåna" />
		<tag k="place" v="locality" />
		<tag k="ssr:stedsnr" v="339168" />
	</node>
	<node lat="62.327052773725626" lon="6.567719450466656" id="-4601">
		<tag k="name" v="Klipe" />
		<tag k="natural" v="gorge" />
		<tag k="ssr:stedsnr" v="339181" />
	</node>
	<node lat="62.33476944252207" lon="6.598938886655415" id="-4602">
		<tag k="name" v="Reitane" />
		<tag k="natural" v="slope" />
		<tag k="place" v="locality" />
		<tag k="ssr:stedsnr" v="339182" />
	</node>
	<node lat="62.39390555688223" lon="6.775730564713175" id="-4603">
		<tag k="name" v="Løsetdalen" />
		<tag k="natural" v="valley" />
		<tag k="place" v="locality" />
		<tag k="ssr:stedsnr" v="339207" />
	</node>
	<node lat="62.3430416635553" lon="6.5299472133518615" id="-4606">
		<tag k="name" v="Liene" />
		<tag k="natural" v="slope" />
		<tag k="place" v="locality" />
		<tag k="ssr:stedsnr" v="339101" />
	</node>
	<node lat="62.40843055254569" lon="6.706958324693418" id="-4608">
		<tag k="name" v="Benkane" />
		<tag k="place" v="locality" />
		<tag k="ssr:stedsnr" v="339137" />
	</node>
	<node lat="62.35665277361009" lon="6.793827775330212" id="-4611">
		<tag k="name" v="Nysæternakken" />
		<tag k="natural" v="hill" />
		<tag k="place" v="locality" />
		<tag k="ssr:stedsnr" v="339290" />
	</node>
	<node lat="62.31089166924284" lon="6.7113472306034225" id="-4612">
		<tag k="name" v="Husberget" />
		<tag k="natural" v="hill" />
		<tag k="place" v="locality" />
		<tag k="ssr:stedsnr" v="339218" />
	</node>
	<node lat="62.40422777505187" lon="6.758613884084278" id="-4613">
		<tag k="name" v="Verket" />
		<tag k="natural" v="slope" />
		<tag k="place" v="locality" />
		<tag k="ssr:stedsnr" v="339223" />
	</node>
	<node lat="62.430772222503826" lon="6.759366672294806" id="-4614">
		<tag k="name" v="Skurane" />
		<tag k="natural" v="slope" />
		<tag k="place" v="locality" />
		<tag k="ssr:stedsnr" v="339224" />
	</node>
	<node lat="62.323552773683275" lon="6.663938896414891" id="-4618">
		<tag k="name" v="Litlerabben" />
		<tag k="natural" v="ridge" />
		<tag k="place" v="locality" />
		<tag k="ssr:stedsnr" v="339236" />
	</node>
	<node lat="62.304480554007675" lon="6.588388881978947" id="-4619">
		<tag k="name" v="Kyrkjegarden" />
		<tag k="natural" v="slope" />
		<tag k="place" v="locality" />
		<tag k="ssr:stedsnr" v="339238" />
	</node>
	<node lat="62.41098888946635" lon="6.637424997501032" id="-4622">
		<tag k="name" v="Koparhola" />
		<tag k="natural" v="valley" />
		<tag k="place" v="locality" />
		<tag k="ssr:stedsnr" v="339333" />
	</node>
	<node lat="62.34022500124062" lon="6.596036119202704" id="-4623">
		<tag k="name" v="Eineskagane" />
		<tag k="natural" v="slope" />
		<tag k="place" v="locality" />
		<tag k="ssr:stedsnr" v="355509" />
	</node>
	<node lat="62.400977777349006" lon="6.742044439091247" id="-4627">
		<tag k="fixme" v="consider natural=peak for the most distinct mountains in the district" />
		<tag k="name" v="Vardefjellet" />
		<tag k="natural" v="hill" />
		<tag k="place" v="locality" />
		<tag k="ssr:stedsnr" v="374620" />
	</node>
	<node lat="62.38427778045498" lon="6.595794440043727" id="-4629">
		<tag k="fixme" v="consider natural=peak for the most distinct mountains in the district" />
		<tag k="name" v="Aurenakken" />
		<tag k="natural" v="hill" />
		<tag k="place" v="locality" />
		<tag k="ssr:stedsnr" v="375350" />
	</node>
	<node lat="62.347436112361294" lon="6.640111116725266" id="-4630">
		<tag k="name" v="Straumsdalen" />
		<tag k="natural" v="valley" />
		<tag k="place" v="locality" />
		<tag k="ssr:stedsnr" v="375355" />
	</node>
	<node lat="62.430647224365" lon="6.752594435821159" id="-4633">
		<tag k="fixme" v="consider natural=peak for the most distinct mountains in the district" />
		<tag k="name" v="Kattåsen" />
		<tag k="natural" v="hill" />
		<tag k="place" v="locality" />
		<tag k="ssr:stedsnr" v="375653" />
	</node>
	<node lat="62.37239167098052" lon="6.607575007734882" id="-4634">
		<tag k="name" v="Vikedalen" />
		<tag k="natural" v="valley" />
		<tag k="place" v="locality" />
		<tag k="ssr:stedsnr" v="384175" />
	</node>
	<node lat="62.41067500086629" lon="6.562025004799571" id="-4640">
		<tag k="name" v="Lassekamben" />
		<tag k="natural" v="ridge" />
		<tag k="place" v="locality" />
		<tag k="ssr:stedsnr" v="399346" />
	</node>
	<node lat="62.38604999857925" lon="6.818552769476081" id="-4641">
		<tag k="name" v="Svarthammaren" />
		<tag k="place" v="locality" />
		<tag k="ssr:stedsnr" v="399022" />
	</node>
	<node lat="62.39120555244673" lon="6.660069438753257" id="-4642">
		<tag k="name" v="Kvilebrauta" />
		<tag k="natural" v="slope" />
		<tag k="place" v="locality" />
		<tag k="ssr:stedsnr" v="399196" />
	</node>
	<node lat="62.3826777764699" lon="6.631733337495958" id="-4643">
		<tag k="name" v="Småskaret" />
		<tag k="natural" v="valley" />
		<tag k="place" v="locality" />
		<tag k="ssr:stedsnr" v="399201" />
	</node>
	<node lat="62.36639444066013" lon="6.717733340135008" id="-4644">
		<tag k="name" v="Brekkebrauta" />
		<tag k="natural" v="ridge" />
		<tag k="place" v="locality" />
		<tag k="ssr:stedsnr" v="399224" />
	</node>
	<node lat="62.33451111222655" lon="6.787955552570826" id="-4645">
		<tag k="name" v="Bjørnefurhaugen" />
		<tag k="natural" v="hill" />
		<tag k="place" v="locality" />
		<tag k="ssr:stedsnr" v="399318" />
	</node>
	<node lat="62.340986112834536" lon="6.748263887452768" id="-4646">
		<tag k="name" v="La-vesledalen" />
		<tag k="natural" v="valley" />
		<tag k="place" v="locality" />
		<tag k="ssr:stedsnr" v="399320" />
	</node>
	<node lat="62.377227775242574" lon="6.649738885515468" id="-4648">
		<tag k="name" v="Aksla" />
		<tag k="natural" v="ridge" />
		<tag k="place" v="locality" />
		<tag k="ssr:stedsnr" v="399064" />
	</node>
	<node lat="62.345938887333624" lon="6.634794443425684" id="-4650">
		<tag k="name" v="Skjervane" />
		<tag k="natural" v="hill" />
		<tag k="place" v="locality" />
		<tag k="ssr:stedsnr" v="399139" />
	</node>
	<node lat="62.329036114815565" lon="6.584866675604359" id="-4651">
		<tag k="name" v="Slettegjerde" />
		<tag k="natural" v="slope" />
		<tag k="place" v="locality" />
		<tag k="ssr:stedsnr" v="399145" />
	</node>
	<node lat="62.36951944356479" lon="6.7154666613016945" id="-4652">
		<tag k="name" v="Svodene" />
		<tag k="place" v="locality" />
		<tag k="ssr:stedsnr" v="399146" />
	</node>
	<node lat="62.29673333102038" lon="6.7663138830315415" id="-4654">
		<tag k="name" v="Klipe" />
		<tag k="natural" v="valley" />
		<tag k="place" v="locality" />
		<tag k="ssr:stedsnr" v="399159" />
	</node>
	<node lat="62.44004999980986" lon="6.661013886116119" id="-4655">
		<tag k="name" v="Byteberget" />
		<tag k="place" v="locality" />
		<tag k="ssr:stedsnr" v="399163" />
	</node>
	<node lat="62.305247226091105" lon="6.684447226763765" id="-4656">
		<tag k="name" v="Øvstebenkane" />
		<tag k="place" v="locality" />
		<tag k="ssr:stedsnr" v="399238" />
	</node>
	<node lat="62.35422778086444" lon="6.424575006458702" id="-4660">
		<tag k="fixme" v="consider natural=peak for the most distinct mountains in the district" />
		<tag k="name" v="Keipen" />
		<tag k="natural" v="hill" />
		<tag k="place" v="locality" />
		<tag k="ssr:stedsnr" v="399264" />
	</node>
	<node lat="62.408741666339125" lon="6.5481055647679405" id="-4661">
		<tag k="name" v="Meholen" />
		<tag k="natural" v="hill" />
		<tag k="place" v="locality" />
		<tag k="ssr:stedsnr" v="399265" />
	</node>
	<node lat="62.355947219152284" lon="6.415902783415136" id="-4662">
		<tag k="name" v="Høgeflåa" />
		<tag k="place" v="locality" />
		<tag k="ssr:stedsnr" v="399266" />
	</node>
	<node lat="62.43249444574667" lon="6.847572229836967" id="-4663">
		<tag k="name" v="Storflåa" />
		<tag k="place" v="locality" />
		<tag k="ssr:stedsnr" v="399275" />
	</node>
	<node lat="62.40931388625079" lon="6.585236106425393" id="-4666">
		<tag k="name" v="Tjørelddalen" />
		<tag k="natural" v="valley" />
		<tag k="place" v="locality" />
		<tag k="ssr:stedsnr" v="399363" />
	</node>
	<node lat="62.41570278068789" lon="6.606130555893243" id="-4667">
		<tag k="name" v="Sprengjaren" />
		<tag k="natural" v="hill" />
		<tag k="place" v="locality" />
		<tag k="ssr:stedsnr" v="399364" />
	</node>
	<node lat="62.36536944384375" lon="6.5369833416148255" id="-4668">
		<tag k="name" v="Svanakken" />
		<tag k="natural" v="ridge" />
		<tag k="place" v="locality" />
		<tag k="ssr:stedsnr" v="399368" />
	</node>
	<node lat="62.36976111269023" lon="6.535738884200199" id="-4669">
		<tag k="name" v="Svartgjelet" />
		<tag k="natural" v="valley" />
		<tag k="place" v="locality" />
		<tag k="ssr:stedsnr" v="399369" />
	</node>
	<node lat="62.42341944522377" lon="6.818180546467432" id="-4672">
		<tag k="fixme" v="consider natural=peak for the most distinct mountains in the district" />
		<tag k="name" v="Flåfjellet" />
		<tag k="natural" v="hill" />
		<tag k="old_name" v="Flafjellet" />
		<tag k="place" v="locality" />
		<tag k="ssr:stedsnr" v="435692" />
	</node>
	<node lat="62.33569166859019" lon="6.474208327242368" id="-4680">
		<tag k="alt_name" v="Hunatinden" />
		<tag k="fixme" v="consider natural=peak for the most distinct mountains in the district" />
		<tag k="name" v="Hundatinden" />
		<tag k="natural" v="hill" />
		<tag k="place" v="locality" />
		<tag k="ssr:stedsnr" v="436398" />
	</node>
	<node lat="62.450852774372336" lon="6.708886108165596" id="-4683">
		<tag k="name" v="Høgbergane" />
		<tag k="natural" v="hill" />
		<tag k="place" v="locality" />
		<tag k="ssr:stedsnr" v="448780" />
	</node>
	<node lat="62.24336111367181" lon="6.73287777224576" id="-4684">
		<tag k="name" v="Brunstaddalen" />
		<tag k="natural" v="valley" />
		<tag k="place" v="locality" />
		<tag k="ssr:stedsnr" v="496272" />
	</node>
	<node lat="62.38538055879894" lon="6.43075000290971" id="-4687">
		<tag k="fixme" v="consider natural=peak for the most distinct mountains in the district" />
		<tag k="name" v="Hovdeåsen" />
		<tag k="natural" v="hill" />
		<tag k="place" v="locality" />
		<tag k="ssr:stedsnr" v="496097" />
	</node>
	<node lat="62.388344443842314" lon="6.817694439685415" id="-4692">
		<tag k="name" v="Fasteindalen" />
		<tag k="natural" v="valley" />
		<tag k="place" v="locality" />
		<tag k="ssr:stedsnr" v="496732" />
	</node>
	<node lat="62.43842222326422" lon="6.6824944513635955" id="-4698">
		<tag k="name" v="Kuhjellnakken" />
		<tag k="natural" v="ridge" />
		<tag k="place" v="locality" />
		<tag k="ssr:stedsnr" v="520030" />
	</node>
	<node lat="62.4233749970304" lon="6.7873138900770025" id="-4700">
		<tag k="name" v="Kvernhusbakkane" />
		<tag k="natural" v="slope" />
		<tag k="place" v="locality" />
		<tag k="ssr:stedsnr" v="520048" />
	</node>
	<node lat="62.408494447810746" lon="6.716322213298763" id="-4701">
		<tag k="name" v="Sundagshaugen" />
		<tag k="natural" v="hill" />
		<tag k="place" v="locality" />
		<tag k="ssr:stedsnr" v="521048" />
	</node>
	<node lat="62.34970000304954" lon="6.634655551894458" id="-4703">
		<tag k="name" v="Sagebakkane" />
		<tag k="natural" v="slope" />
		<tag k="place" v="locality" />
		<tag k="ssr:stedsnr" v="521123" />
	</node>
	<node lat="62.36158333315765" lon="6.7011722317773215" id="-4704">
		<tag k="name" v="Benkene" />
		<tag k="natural" v="slope" />
		<tag k="place" v="locality" />
		<tag k="ssr:stedsnr" v="521125" />
	</node>
	<node lat="62.35225832983997" lon="6.722386109455944" id="-4705">
		<tag k="name" v="Klipe" />
		<tag k="natural" v="gorge" />
		<tag k="ssr:stedsnr" v="521129" />
	</node>
	<node lat="62.33258611526843" lon="6.561466674577326" id="-4706">
		<tag k="name" v="Kolahammaren" />
		<tag k="place" v="locality" />
		<tag k="ssr:stedsnr" v="521135" />
	</node>
	<node lat="62.303761114839226" lon="6.687347224247785" id="-4707">
		<tag k="name" v="Nyfonna" />
		<tag k="natural" v="slope" />
		<tag k="place" v="locality" />
		<tag k="ssr:stedsnr" v="521137" />
	</node>
	<node lat="62.34745555794957" lon="6.570613893103468" id="-4708">
		<tag k="name" v="Storegylet" />
		<tag k="natural" v="gorge" />
		<tag k="ssr:stedsnr" v="521147" />
	</node>
	<node lat="62.42149444603242" lon="6.7139694409125505" id="-4709">
		<tag k="name" v="Storegjerdet" />
		<tag k="natural" v="slope" />
		<tag k="place" v="locality" />
		<tag k="ssr:stedsnr" v="521001" />
	</node>
	<node lat="62.385794442842695" lon="6.424113888205648" id="-4710">
		<tag k="name" v="Skora" />
		<tag k="natural" v="valley" />
		<tag k="place" v="locality" />
		<tag k="ssr:stedsnr" v="521087" />
	</node>
	<node lat="62.377811115166544" lon="6.6918194361451935" id="-4711">
		<tag k="name" v="Bondeskreda" />
		<tag k="natural" v="slope" />
		<tag k="place" v="locality" />
		<tag k="ssr:stedsnr" v="521185" />
	</node>
	<node lat="62.36611944258394" lon="6.584552773157579" id="-4715">
		<tag k="name" v="Ospenakken" />
		<tag k="natural" v="ridge" />
		<tag k="place" v="locality" />
		<tag k="ssr:stedsnr" v="521150" />
	</node>
	<node lat="62.29786389199362" lon="6.612574992476843" id="-4716">
		<tag k="name" v="Teigane" />
		<tag k="natural" v="slope" />
		<tag k="place" v="locality" />
		<tag k="ssr:stedsnr" v="521151" />
	</node>
	<node lat="62.293911110807194" lon="6.65426388585409" id="-4717">
		<tag k="name" v="Nausene" />
		<tag k="natural" v="ridge" />
		<tag k="place" v="locality" />
		<tag k="ssr:stedsnr" v="521154" />
	</node>
	<node lat="62.39951666744037" lon="6.815780549414331" id="-4720">
		<tag k="name" v="Ferselia" />
		<tag k="natural" v="slope" />
		<tag k="place" v="locality" />
		<tag k="ssr:stedsnr" v="521226" />
	</node>
	<node lat="62.2858805582727" lon="6.626841669295287" id="-4721">
		<tag k="name" v="Fonna" />
		<tag k="natural" v="slope" />
		<tag k="place" v="locality" />
		<tag k="ssr:stedsnr" v="521232" />
	</node>
	<node lat="62.39496666560559" lon="6.4360583341888065" id="-4722">
		<tag k="name" v="Breivikhammaren" />
		<tag k="natural" v="cliff" />
		<tag k="ssr:stedsnr" v="521233" />
	</node>
	<node lat="62.360783336125884" lon="6.596222230105732" id="-4724">
		<tag k="name" v="Nedste Stigranda" />
		<tag k="natural" v="ridge" />
		<tag k="place" v="locality" />
		<tag k="ssr:stedsnr" v="521249" />
	</node>
	<node lat="62.372447224664036" lon="6.518913888617818" id="-4726">
		<tag k="name" v="Veslefjellet" />
		<tag k="natural" v="slope" />
		<tag k="place" v="locality" />
		<tag k="ssr:stedsnr" v="521340" />
	</node>
	<node lat="62.39025555395085" lon="6.519941670931653" id="-4727">
		<tag k="name" v="Ramskaret" />
		<tag k="natural" v="valley" />
		<tag k="place" v="locality" />
		<tag k="ssr:stedsnr" v="521368" />
	</node>
	<node lat="62.41939444809034" lon="6.78847499115384" id="-4729">
		<tag k="name" v="Ramstaddalen" />
		<tag k="natural" v="valley" />
		<tag k="place" v="locality" />
		<tag k="ssr:stedsnr" v="556701" />
	</node>
	<node lat="62.3417388883211" lon="6.815247223259102" id="-4737">
		<tag k="alt_name" v="Drabløs-storhaugen" />
		<tag k="name" v="Storhaugen" />
		<tag k="natural" v="hill" />
		<tag k="place" v="locality" />
		<tag k="ssr:stedsnr" v="557515" />
	</node>
	<node lat="62.28394999802175" lon="6.681433332020401" id="-4741">
		<tag k="name" v="Høgebrauta" />
		<tag k="natural" v="hill" />
		<tag k="place" v="locality" />
		<tag k="ssr:stedsnr" v="569742" />
	</node>
	<node lat="62.392569442714766" lon="6.816144448246576" id="-4747">
		<tag k="name" v="Espebergnyken" />
		<tag k="natural" v="ridge" />
		<tag k="place" v="locality" />
		<tag k="ssr:stedsnr" v="581026" />
	</node>
	<node lat="62.38633333614658" lon="6.630722224320065" id="-4749">
		<tag k="name" v="Nausene" />
		<tag k="natural" v="hill" />
		<tag k="place" v="locality" />
		<tag k="ssr:stedsnr" v="581078" />
	</node>
	<node lat="62.37550833080528" lon="6.650458339124914" id="-4750">
		<tag k="name" v="Grønholå" />
		<tag k="natural" v="valley" />
		<tag k="place" v="locality" />
		<tag k="ssr:stedsnr" v="581079" />
	</node>
	<node lat="62.36415832955706" lon="6.697094451967462" id="-4753">
		<tag k="name" v="Berget" />
		<tag k="natural" v="slope" />
		<tag k="place" v="locality" />
		<tag k="ssr:stedsnr" v="581159" />
	</node>
	<node lat="62.29250277863153" lon="6.686955548415814" id="-4754">
		<tag k="name" v="Nakken" />
		<tag k="natural" v="hill" />
		<tag k="place" v="locality" />
		<tag k="ssr:stedsnr" v="581164" />
	</node>
	<node lat="62.30062222429216" lon="6.745744441080086" id="-4755">
		<tag k="name" v="Eggane" />
		<tag k="natural" v="ridge" />
		<tag k="place" v="locality" />
		<tag k="ssr:stedsnr" v="581167" />
	</node>
	<node lat="62.26598611048624" lon="6.681319448412301" id="-4756">
		<tag k="name" v="Mælen" />
		<tag k="natural" v="ridge" />
		<tag k="place" v="locality" />
		<tag k="ssr:stedsnr" v="581170" />
	</node>
	<node lat="62.3478805557351" lon="6.600161106388435" id="-4757">
		<tag k="name" v="Hefsdalen" />
		<tag k="natural" v="valley" />
		<tag k="place" v="locality" />
		<tag k="ssr:stedsnr" v="581174" />
	</node>
	<node lat="62.29550000368425" lon="6.619988883999175" id="-4764">
		<tag k="name" v="Furebakkane" />
		<tag k="natural" v="slope" />
		<tag k="place" v="locality" />
		<tag k="ssr:stedsnr" v="581287" />
	</node>
	<node lat="62.39625000200028" lon="6.587636108927116" id="-4765">
		<tag k="name" v="Janbakkane" />
		<tag k="natural" v="slope" />
		<tag k="place" v="locality" />
		<tag k="ssr:stedsnr" v="581363" />
	</node>
	<node lat="62.36736666888451" lon="6.5297305634055665" id="-4766">
		<tag k="name" v="Sauehaugen" />
		<tag k="natural" v="hill" />
		<tag k="place" v="locality" />
		<tag k="ssr:stedsnr" v="581369" />
	</node>
	<node lat="62.36798332978146" lon="6.503505562444884" id="-4767">
		<tag k="name" v="Austmottdalen" />
		<tag k="natural" v="valley" />
		<tag k="place" v="locality" />
		<tag k="ssr:stedsnr" v="581373" />
	</node>
	<node lat="62.34894444821678" lon="6.5431861134938645" id="-4768">
		<tag k="name" v="Myrbærdalen" />
		<tag k="natural" v="valley" />
		<tag k="place" v="locality" />
		<tag k="ssr:stedsnr" v="581375" />
	</node>
	<node lat="62.31007777411293" lon="6.764933334314222" id="-4769">
		<tag k="name" v="Kamben" />
		<tag k="natural" v="ridge" />
		<tag k="place" v="locality" />
		<tag k="ssr:stedsnr" v="581118" />
	</node>
	<node lat="62.437563890536616" lon="6.66320833454502" id="-4771">
		<tag k="name" v="Skaret" />
		<tag k="natural" v="valley" />
		<tag k="place" v="locality" />
		<tag k="ssr:stedsnr" v="581206" />
	</node>
	<node lat="62.39226944012829" lon="6.693672219776801" id="-4774">
		<tag k="name" v="Remarhornskogen" />
		<tag k="natural" v="slope" />
		<tag k="place" v="locality" />
		<tag k="ssr:stedsnr" v="581223" />
	</node>
	<node lat="62.29082777564282" lon="6.769933336873401" id="-4775">
		<tag k="name" v="Tjøreveden" />
		<tag k="natural" v="slope" />
		<tag k="place" v="locality" />
		<tag k="ssr:stedsnr" v="581231" />
	</node>
	<node lat="62.29676944053411" lon="6.758663896725406" id="-4776">
		<tag k="fixme" v="consider natural=peak for the most distinct mountains in the district" />
		<tag k="name" v="Kleivåsane" />
		<tag k="natural" v="hill" />
		<tag k="place" v="locality" />
		<tag k="ssr:stedsnr" v="581234" />
	</node>
	<node lat="62.32423333138699" lon="6.788716665952482" id="-4777">
		<tag k="name" v="Kleivdalsbenken" />
		<tag k="natural" v="ridge" />
		<tag k="place" v="locality" />
		<tag k="ssr:stedsnr" v="581314" />
	</node>
	<node lat="62.33584166563382" lon="6.776241660481565" id="-4778">
		<tag k="name" v="Kolhaugen" />
		<tag k="natural" v="hill" />
		<tag k="place" v="locality" />
		<tag k="ssr:stedsnr" v="581321" />
	</node>
	<node lat="62.408913890811206" lon="6.843941670369223" id="-4780">
		<tag k="name" v="Brekka" />
		<tag k="natural" v="valley" />
		<tag k="place" v="locality" />
		<tag k="ssr:stedsnr" v="617650" />
	</node>
	<node lat="62.37916579927724" lon="6.821340515226481" id="-4781">
		<tag k="name" v="Leitet" />
		<tag k="natural" v="hill" />
		<tag k="place" v="locality" />
		<tag k="ssr:stedsnr" v="617728" />
	</node>
	<node lat="62.346170475673475" lon="6.52634427809434" id="-4782">
		<tag k="alt_name" v="Skaret;Riksheimskaret" />
		<tag k="name" v="Riksemskaret" />
		<tag k="natural" v="valley" />
		<tag k="place" v="locality" />
		<tag k="ssr:stedsnr" v="618416" />
	</node>
	<node lat="62.38535277702278" lon="6.793094440743826" id="-4783">
		<tag k="fixme" v="consider natural=peak for the most distinct mountains in the district" />
		<tag k="name" v="Kråfjellet" />
		<tag k="natural" v="hill" />
		<tag k="place" v="locality" />
		<tag k="ssr:stedsnr" v="617749" />
	</node>
	<node lat="62.42105555149357" lon="6.725577777357662" id="-4791">
		<tag k="name" v="Timbreskaret" />
		<tag k="natural" v="valley" />
		<tag k="place" v="locality" />
		<tag k="ssr:stedsnr" v="641028" />
	</node>
	<node lat="62.43368889123352" lon="6.685241669058368" id="-4792">
		<tag k="name" v="Grøturdalen" />
		<tag k="natural" v="valley" />
		<tag k="place" v="locality" />
		<tag k="ssr:stedsnr" v="641035" />
	</node>
	<node lat="62.43311666776551" lon="6.6482888973639644" id="-4793">
		<tag k="name" v="Liaskolten" />
		<tag k="natural" v="ridge" />
		<tag k="place" v="locality" />
		<tag k="ssr:stedsnr" v="642284" />
	</node>
	<node lat="62.305330559412496" lon="6.610033336886184" id="-4795">
		<tag k="name" v="Fremstebakkane" />
		<tag k="natural" v="slope" />
		<tag k="place" v="locality" />
		<tag k="ssr:stedsnr" v="642022" />
	</node>
	<node lat="62.42800277695222" lon="6.637424992519469" id="-4796">
		<tag k="name" v="Grønlia" />
		<tag k="natural" v="slope" />
		<tag k="place" v="locality" />
		<tag k="ssr:stedsnr" v="642075" />
	</node>
	<node lat="62.332455556886224" lon="6.744288894486432" id="-4799">
		<tag k="name" v="Lia" />
		<tag k="natural" v="slope" />
		<tag k="place" v="locality" />
		<tag k="ssr:stedsnr" v="642098" />
	</node>
	<node lat="62.348188888209194" lon="6.621980550515194" id="-4800">
		<tag k="name" v="Hindaholhaugen" />
		<tag k="natural" v="hill" />
		<tag k="place" v="locality" />
		<tag k="ssr:stedsnr" v="642100" />
	</node>
	<node lat="62.40544166795736" lon="6.776216661964439" id="-4802">
		<tag k="name" v="Reiten" />
		<tag k="natural" v="slope" />
		<tag k="place" v="locality" />
		<tag k="ssr:stedsnr" v="642122" />
	</node>
	<node lat="62.41078333175362" lon="6.7419861106164864" id="-4803">
		<tag k="name" v="Storsteinskaret" />
		<tag k="natural" v="valley" />
		<tag k="place" v="locality" />
		<tag k="ssr:stedsnr" v="642188" />
	</node>
	<node lat="62.272088892113864" lon="6.669063895582169" id="-4804">
		<tag k="name" v="Fonnateigane" />
		<tag k="natural" v="slope" />
		<tag k="place" v="locality" />
		<tag k="ssr:stedsnr" v="642191" />
	</node>
	<node lat="62.32412499561804" lon="6.728861102211541" id="-4806">
		<tag k="name" v="La-heiane" />
		<tag k="natural" v="slope" />
		<tag k="place" v="locality" />
		<tag k="ssr:stedsnr" v="642199" />
	</node>
	<node lat="62.38895000239686" lon="6.5210055547351" id="-4811">
		<tag k="name" v="Nakkane" />
		<tag k="natural" v="hill" />
		<tag k="place" v="locality" />
		<tag k="ssr:stedsnr" v="642071" />
	</node>
	<node lat="62.277508336210026" lon="6.683061106258824" id="-4814">
		<tag k="name" v="Monshola" />
		<tag k="natural" v="valley" />
		<tag k="place" v="locality" />
		<tag k="ssr:stedsnr" v="642143" />
	</node>
	<node lat="62.28610277631761" lon="6.622666676104608" id="-4816">
		<tag k="name" v="Skredene" />
		<tag k="natural" v="slope" />
		<tag k="place" v="locality" />
		<tag k="ssr:stedsnr" v="642145" />
	</node>
	<node lat="62.33481111287942" lon="6.571363889597607" id="-4817">
		<tag k="name" v="Gardenden" />
		<tag k="natural" v="slope" />
		<tag k="place" v="locality" />
		<tag k="ssr:stedsnr" v="642148" />
	</node>
	<node lat="62.357575001750924" lon="6.604197218942856" id="-4818">
		<tag k="name" v="Tjønesliene" />
		<tag k="natural" v="slope" />
		<tag k="place" v="locality" />
		<tag k="ssr:stedsnr" v="642151" />
	</node>
	<node lat="62.32630555583245" lon="6.603763890303313" id="-4819">
		<tag k="name" v="Kleiva" />
		<tag k="natural" v="slope" />
		<tag k="place" v="locality" />
		<tag k="ssr:stedsnr" v="642152" />
	</node>
	<node lat="62.31002499763629" lon="6.6070916694629815" id="-4820">
		<tag k="name" v="Stigen" />
		<tag k="natural" v="slope" />
		<tag k="place" v="locality" />
		<tag k="ssr:stedsnr" v="642155" />
	</node>
	<node lat="62.39218055397597" lon="6.636036116883654" id="-4822">
		<tag k="name" v="Storhaugen" />
		<tag k="natural" v="hill" />
		<tag k="place" v="locality" />
		<tag k="ssr:stedsnr" v="642161" />
	</node>
	<node lat="62.355716664174146" lon="6.407466669591436" id="-4825">
		<tag k="name" v="Gjevestranda" />
		<tag k="natural" v="slope" />
		<tag k="place" v="locality" />
		<tag k="ssr:stedsnr" v="642236" />
	</node>
	<node lat="62.395744446505454" lon="6.468997226050316" id="-4827">
		<tag k="fixme" v="consider natural=peak for the most distinct mountains in the district" />
		<tag k="name" v="Tuhammaren" />
		<tag k="natural" v="hill" />
		<tag k="place" v="locality" />
		<tag k="ssr:stedsnr" v="642238" />
	</node>
	<node lat="62.361925001964096" lon="6.441841670503241" id="-4828">
		<tag k="name" v="Langmyrhaugen" />
		<tag k="natural" v="hill" />
		<tag k="place" v="locality" />
		<tag k="ssr:stedsnr" v="642240" />
	</node>
	<node lat="62.35617500162419" lon="6.431397225886222" id="-4829">
		<tag k="name" v="Svarthamrane" />
		<tag k="natural" v="slope" />
		<tag k="place" v="locality" />
		<tag k="ssr:stedsnr" v="642241" />
	</node>
	<node lat="62.35674722502421" lon="6.463499999281482" id="-4830">
		<tag k="name" v="Storfonna" />
		<tag k="natural" v="valley" />
		<tag k="place" v="locality" />
		<tag k="ssr:stedsnr" v="642243" />
	</node>
	<node lat="62.337786111152816" lon="6.53708054815007" id="-4834">
		<tag k="name" v="Storeskreda" />
		<tag k="natural" v="slope" />
		<tag k="place" v="locality" />
		<tag k="ssr:stedsnr" v="642330" />
	</node>
	<node lat="62.37839166943619" lon="6.530891662276118" id="-4835">
		<tag k="name" v="Litlehaugen" />
		<tag k="natural" v="hill" />
		<tag k="place" v="locality" />
		<tag k="ssr:stedsnr" v="642336" />
	</node>
	<node lat="62.388716664605205" lon="6.529197227587181" id="-4838">
		<tag k="name" v="Høgebraut-tua" />
		<tag k="natural" v="ridge" />
		<tag k="place" v="locality" />
		<tag k="ssr:stedsnr" v="642346" />
	</node>
	<node lat="62.36674722290351" lon="6.479022221464701" id="-4845">
		<tag k="fixme" v="consider natural=peak for the most distinct mountains in the district" />
		<tag k="name" v="Storheia" />
		<tag k="natural" v="hill" />
		<tag k="place" v="locality" />
		<tag k="ssr:stedsnr" v="739386" />
	</node>
	<node lat="62.31793706526731" lon="6.554149422385462" id="-4849">
		<tag k="fixme" v="consider natural=peak for the most distinct mountains in the district" />
		<tag k="name" v="Trollkyrkjetindane" />
		<tag k="natural" v="hill" />
		<tag k="place" v="locality" />
		<tag k="ssr:stedsnr" v="739464" />
	</node>
	<node lat="62.24354444703668" lon="6.64359721360675" id="-4850">
		<tag k="fixme" v="consider natural=peak for the most distinct mountains in the district" />
		<tag k="name" v="Vellesæterhornet" />
		<tag k="natural" v="hill" />
		<tag k="place" v="locality" />
		<tag k="ssr:stedsnr" v="739538" />
	</node>
	<node lat="62.43324999822161" lon="6.745658324868266" id="-4855">
		<tag k="name" v="Søvikdalen" />
		<tag k="natural" v="valley" />
		<tag k="place" v="locality" />
		<tag k="ssr:stedsnr" v="760277" />
	</node>
	<node lat="62.38069722016512" lon="6.809833329356526" id="-4856">
		<tag k="name" v="Koppen" />
		<tag k="natural" v="valley" />
		<tag k="place" v="locality" />
		<tag k="ssr:stedsnr" v="763266" />
	</node>
	<node lat="62.399705554097906" lon="6.467700001824533" id="-4858">
		<tag k="name" v="Tusvikhaugen" />
		<tag k="natural" v="hill" />
		<tag k="place" v="locality" />
		<tag k="ssr:stedsnr" v="763274" />
	</node>
	<node lat="62.34076944337406" lon="6.601805559393372" id="-4860">
		<tag k="name" v="Veltegylet" />
		<tag k="natural" v="valley" />
		<tag k="place" v="locality" />
		<tag k="ssr:stedsnr" v="763020" />
	</node>
	<node lat="62.29311389252821" lon="6.643513885992734" id="-4861">
		<tag k="name" v="Tregardane" />
		<tag k="natural" v="slope" />
		<tag k="place" v="locality" />
		<tag k="ssr:stedsnr" v="763025" />
	</node>
	<node lat="62.43589444866994" lon="6.8107555640885415" id="-4862">
		<tag k="name" v="Raudflæene" />
		<tag k="natural" v="slope" />
		<tag k="place" v="locality" />
		<tag k="ssr:stedsnr" v="763035" />
	</node>
	<node lat="62.429602781913914" lon="6.698241667238357" id="-4863">
		<tag k="name" v="Gamlesæternakken" />
		<tag k="natural" v="ridge" />
		<tag k="place" v="locality" />
		<tag k="ssr:stedsnr" v="763040" />
	</node>
	<node lat="62.41029444406262" lon="6.7073472278201445" id="-4865">
		<tag k="name" v="Burmannholten" />
		<tag k="natural" v="slope" />
		<tag k="place" v="locality" />
		<tag k="ssr:stedsnr" v="763058" />
	</node>
	<node lat="62.38413610840869" lon="6.49162777910591" id="-4867">
		<tag k="name" v="Vargfurå" />
		<tag k="place" v="locality" />
		<tag k="ssr:stedsnr" v="763083" />
	</node>
	<node lat="62.41362777732001" lon="6.57343332390951" id="-4869">
		<tag k="name" v="Hammarsenden" />
		<tag k="place" v="locality" />
		<tag k="ssr:stedsnr" v="763320" />
	</node>
	<node lat="62.410438888211786" lon="6.577286105853934" id="-4870">
		<tag k="name" v="Jakobshaugen" />
		<tag k="natural" v="hill" />
		<tag k="place" v="locality" />
		<tag k="ssr:stedsnr" v="763323" />
	</node>
	<node lat="62.39021666979984" lon="6.549694439026041" id="-4873">
		<tag k="name" v="Jarneshaugen" />
		<tag k="natural" v="hill" />
		<tag k="place" v="locality" />
		<tag k="ssr:stedsnr" v="763330" />
	</node>
	<node lat="62.315375000506315" lon="6.578744453699976" id="-4874">
		<tag k="name" v="Langhammaren" />
		<tag k="natural" v="cliff" />
		<tag k="ssr:stedsnr" v="763137" />
	</node>
	<node lat="62.36717778207173" lon="6.570758324785405" id="-4876">
		<tag k="name" v="Bjønnbergane" />
		<tag k="natural" v="slope" />
		<tag k="place" v="locality" />
		<tag k="ssr:stedsnr" v="763171" />
	</node>
	<node lat="62.29071666814795" lon="6.626605563544193" id="-4877">
		<tag k="name" v="Koftene" />
		<tag k="natural" v="slope" />
		<tag k="place" v="locality" />
		<tag k="ssr:stedsnr" v="763172" />
	</node>
	<node lat="62.352108330656435" lon="6.602611102904468" id="-4878">
		<tag k="name" v="Vasshaugane" />
		<tag k="natural" v="hill" />
		<tag k="place" v="locality" />
		<tag k="ssr:stedsnr" v="763179" />
	</node>
	<node lat="62.36478333245283" lon="6.621463882996992" id="-4879">
		<tag k="name" v="Gamleseterbakkane" />
		<tag k="natural" v="slope" />
		<tag k="place" v="locality" />
		<tag k="ssr:stedsnr" v="763186" />
	</node>
	<node lat="62.42286110989865" lon="6.658188886304851" id="-4887">
		<tag k="alt_name" v="Blåfjellet" />
		<tag k="fixme" v="consider natural=peak for the most distinct mountains in the district" />
		<tag k="name" v="Tufjellet" />
		<tag k="natural" v="hill" />
		<tag k="place" v="locality" />
		<tag k="ssr:stedsnr" v="799079" />
	</node>
	<node lat="62.32336648996414" lon="6.5280008851218225" id="-4895">
		<tag k="fixme" v="consider natural=peak for the most distinct mountains in the district" />
		<tag k="name" v="Keipen" />
		<tag k="natural" v="hill" />
		<tag k="place" v="locality" />
		<tag k="ssr:stedsnr" v="800461" />
	</node>
	<node lat="62.318024997622196" lon="6.477602786839314" id="-4896">
		<tag k="fixme" v="consider natural=peak for the most distinct mountains in the district" />
		<tag k="name" v="Sunnavindsnipa" />
		<tag k="natural" v="hill" />
		<tag k="place" v="locality" />
		<tag k="ssr:stedsnr" v="800462" />
	</node>
	<node lat="62.38644166642617" lon="6.7819277732085785" id="-4897">
		<tag k="name" v="Blådalen" />
		<tag k="natural" v="valley" />
		<tag k="place" v="locality" />
		<tag k="ssr:stedsnr" v="800705" />
	</node>
	<node lat="62.2979777738437" lon="6.59298332893123" id="-4900">
		<tag k="fixme" v="consider natural=peak for the most distinct mountains in the district" />
		<tag k="name" v="Geita" />
		<tag k="natural" v="hill" />
		<tag k="place" v="locality" />
		<tag k="ssr:stedsnr" v="801464" />
	</node>
	<node lat="62.31009167066282" lon="6.684316666568556" id="-4902">
		<tag k="fixme" v="consider natural=peak for the most distinct mountains in the district" />
		<tag k="name" v="Svadfjellet" />
		<tag k="natural" v="hill" />
		<tag k="place" v="locality" />
		<tag k="ssr:stedsnr" v="801467" />
	</node>
	<node lat="62.440097223727875" lon="6.684891669454843" id="-4907">
		<tag k="name" v="Kuhjellane" />
		<tag k="place" v="locality" />
		<tag k="ssr:stedsnr" v="824044" />
	</node>
	<node lat="62.43802500214248" lon="6.6790194422554805" id="-4909">
		<tag k="name" v="Klipenakken" />
		<tag k="natural" v="hill" />
		<tag k="place" v="locality" />
		<tag k="ssr:stedsnr" v="824054" />
	</node>
	<node lat="62.40465000274467" lon="6.790475007930886" id="-4912">
		<tag k="name" v="hagardsbakkane" />
		<tag k="natural" v="slope" />
		<tag k="place" v="locality" />
		<tag k="ssr:stedsnr" v="824075" />
	</node>
	<node lat="62.328919443006335" lon="6.773222218152126" id="-4917">
		<tag k="name" v="Reset" />
		<tag k="natural" v="hill" />
		<tag k="place" v="locality" />
		<tag k="ssr:stedsnr" v="824135" />
	</node>
	<node lat="62.34211944791738" lon="6.636477774427544" id="-4918">
		<tag k="alt_name" v="Loffarholthaugane" />
		<tag k="name" v="Godfarholthaugane" />
		<tag k="natural" v="hill" />
		<tag k="place" v="locality" />
		<tag k="ssr:stedsnr" v="824146" />
	</node>
	<node lat="62.335430552323054" lon="6.626275001948219" id="-4919">
		<tag k="name" v="Svarthammaren" />
		<tag k="natural" v="cliff" />
		<tag k="ssr:stedsnr" v="824149" />
	</node>
	<node lat="62.3394805536679" lon="6.560500000615758" id="-4921">
		<tag k="name" v="Bjønnahammaren" />
		<tag k="natural" v="cliff" />
		<tag k="ssr:stedsnr" v="824163" />
	</node>
	<node lat="62.36263610874841" lon="6.6437305464411205" id="-4923">
		<tag k="name" v="Bjørnestigen" />
		<tag k="natural" v="slope" />
		<tag k="place" v="locality" />
		<tag k="ssr:stedsnr" v="824170" />
	</node>
	<node lat="62.283294444745835" lon="6.6357138913725136" id="-4924">
		<tag k="name" v="Trippe" />
		<tag k="place" v="locality" />
		<tag k="ssr:stedsnr" v="824176" />
	</node>
	<node lat="62.3616138923735" lon="6.598997216069495" id="-4926">
		<tag k="alt_name" v="Tyneskollen" />
		<tag k="name" v="Tjønesnakken" />
		<tag k="natural" v="ridge" />
		<tag k="place" v="locality" />
		<tag k="ssr:stedsnr" v="824189" />
	</node>
	<node lat="62.371450002785004" lon="6.707258335091423" id="-4928">
		<tag k="name" v="Kvekjekollen" />
		<tag k="natural" v="hill" />
		<tag k="place" v="locality" />
		<tag k="ssr:stedsnr" v="824220" />
	</node>
	<node lat="62.362297218586825" lon="6.698077769279894" id="-4929">
		<tag k="name" v="Bjørnestien" />
		<tag k="natural" v="slope" />
		<tag k="place" v="locality" />
		<tag k="ssr:stedsnr" v="824222" />
	</node>
	<node lat="62.36060555824036" lon="6.727727775447336" id="-4930">
		<tag k="name" v="Tudalskaret" />
		<tag k="natural" v="valley" />
		<tag k="place" v="locality" />
		<tag k="ssr:stedsnr" v="824227" />
	</node>
	<node lat="62.28738055806889" lon="6.658199997882962" id="-4932">
		<tag k="name" v="Gottskaret" />
		<tag k="natural" v="valley" />
		<tag k="place" v="locality" />
		<tag k="ssr:stedsnr" v="824257" />
	</node>
	<node lat="62.291127777917374" lon="6.650605560579183" id="-4933">
		<tag k="name" v="Admundnova" />
		<tag k="natural" v="ridge" />
		<tag k="place" v="locality" />
		<tag k="ssr:stedsnr" v="824258" />
	</node>
	<node lat="62.34306111148892" lon="6.542841674896106" id="-4936">
		<tag k="name" v="Bjørnehola" />
		<tag k="natural" v="valley" />
		<tag k="place" v="locality" />
		<tag k="ssr:stedsnr" v="824362" />
	</node>
	<node lat="62.30823889073263" lon="6.638274990695666" id="-4937">
		<tag k="name" v="Pallen" />
		<tag k="natural" v="slope" />
		<tag k="place" v="locality" />
		<tag k="ssr:stedsnr" v="825102" />
	</node>
	<node lat="62.41736111383397" lon="6.6020388922279105" id="-4939">
		<tag k="name" v="Nausa" />
		<tag k="natural" v="hill" />
		<tag k="place" v="locality" />
		<tag k="ssr:stedsnr" v="825056" />
	</node>
	<node lat="62.422536109655894" lon="6.827116658058748" id="-4943">
		<tag k="name" v="Trompen" />
		<tag k="natural" v="hill" />
		<tag k="place" v="locality" />
		<tag k="ssr:stedsnr" v="860712" />
	</node>
	<node lat="62.43080985196308" lon="6.661701407376043" id="-4947">
		<tag k="alt_name" v="Sandvikshornet;Sandvikhorn" />
		<tag k="fixme" v="consider natural=peak for the most distinct mountains in the district" />
		<tag k="name" v="Sandvikhornet" />
		<tag k="natural" v="hill" />
		<tag k="place" v="locality" />
		<tag k="ssr:stedsnr" v="860078" />
	</node>
	<node lat="62.41771111481992" lon="6.623516663138913" id="-4949">
		<tag k="fixme" v="consider natural=peak for the most distinct mountains in the district" />
		<tag k="name" v="Storevarden" />
		<tag k="natural" v="hill" />
		<tag k="place" v="locality" />
		<tag k="ssr:stedsnr" v="860090" />
	</node>
	<node lat="62.406744445144405" lon="6.79930000720407" id="-4950">
		<tag k="name" v="Dansarnakken" />
		<tag k="natural" v="ridge" />
		<tag k="old_name" v="Dansarnakkane" />
		<tag k="place" v="locality" />
		<tag k="ssr:stedsnr" v="860685" />
	</node>
	<node lat="62.37409166787541" lon="6.656755546556006" id="-4956">
		<tag k="alt_name" v="Tyssdalen" />
		<tag k="name" v="Tyssadalen" />
		<tag k="natural" v="valley" />
		<tag k="place" v="locality" />
		<tag k="ssr:stedsnr" v="861368" />
	</node>
	<node lat="62.33403611435745" lon="6.5437250050031395" id="-4957">
		<tag k="fixme" v="consider natural=peak for the most distinct mountains in the district" />
		<tag k="name" v="Storfjellet" />
		<tag k="natural" v="hill" />
		<tag k="place" v="locality" />
		<tag k="ssr:stedsnr" v="861389" />
	</node>
	<node lat="62.332516663527485" lon="6.618455550962904" id="-4958">
		<tag k="fixme" v="consider natural=peak for the most distinct mountains in the district" />
		<tag k="name" v="Straumshornet" />
		<tag k="natural" v="hill" />
		<tag k="place" v="locality" />
		<tag k="ssr:stedsnr" v="861402" />
	</node>
	<node lat="62.3621583306969" lon="6.45821945251382" id="-4963">
		<tag k="loc_name" v="Stølegylet" />
		<tag k="name" v="Skadegjelfonna" />
		<tag k="natural" v="valley" />
		<tag k="place" v="locality" />
		<tag k="ssr:stedsnr" v="880441" />
	</node>
	<node lat="62.42135277813353" lon="6.766844446131973" id="-4964">
		<tag k="name" v="Brunhaugen" />
		<tag k="natural" v="hill" />
		<tag k="place" v="locality" />
		<tag k="ssr:stedsnr" v="880324" />
	</node>
	<node lat="62.446780554108855" lon="6.707036103874042" id="-4968">
		<tag k="name" v="Tua" />
		<tag k="natural" v="hill" />
		<tag k="place" v="locality" />
		<tag k="ssr:stedsnr" v="885123" />
	</node>
	<node lat="62.420511114183356" lon="6.706077782146547" id="-4969">
		<tag k="name" v="Reitane" />
		<tag k="place" v="locality" />
		<tag k="ssr:stedsnr" v="885129" />
	</node>
	<node lat="62.37055278082767" lon="6.718811116241935" id="-4970">
		<tag k="name" v="Brekka" />
		<tag k="natural" v="slope" />
		<tag k="place" v="locality" />
		<tag k="ssr:stedsnr" v="885137" />
	</node>
	<node lat="62.37046389221041" lon="6.58196388421122" id="-4972">
		<tag k="name" v="Nausa" />
		<tag k="natural" v="hill" />
		<tag k="place" v="locality" />
		<tag k="ssr:stedsnr" v="885060" />
	</node>
	<node lat="62.37497500428958" lon="6.601441673538791" id="-4973">
		<tag k="name" v="Legene" />
		<tag k="place" v="locality" />
		<tag k="ssr:stedsnr" v="885063" />
	</node>
	<node lat="62.39398888621391" lon="6.497763883141001" id="-4974">
		<tag k="name" v="Klubbå" />
		<tag k="natural" v="hill" />
		<tag k="place" v="locality" />
		<tag k="ssr:stedsnr" v="885068" />
	</node>
	<node lat="62.310941665591905" lon="6.761569444317045" id="-4976">
		<tag k="name" v="Sætrelia" />
		<tag k="natural" v="slope" />
		<tag k="place" v="locality" />
		<tag k="ssr:stedsnr" v="885083" />
	</node>
	<node lat="62.316250002821846" lon="6.745227768044075" id="-4977">
		<tag k="name" v="Krutlane" />
		<tag k="natural" v="slope" />
		<tag k="place" v="locality" />
		<tag k="ssr:stedsnr" v="885092" />
	</node>
	<node lat="62.27874722130507" lon="6.6267083273804435" id="-4978">
		<tag k="name" v="Remehalsen" />
		<tag k="natural" v="ridge" />
		<tag k="place" v="locality" />
		<tag k="ssr:stedsnr" v="885234" />
	</node>
	<node lat="62.41985277352445" lon="6.6425694465188885" id="-4981">
		<tag k="name" v="Grøntgylet" />
		<tag k="natural" v="valley" />
		<tag k="place" v="locality" />
		<tag k="ssr:stedsnr" v="885331" />
	</node>
	<node lat="62.40674166603778" lon="6.605077772239262" id="-4982">
		<tag k="name" v="Høgreslia" />
		<tag k="natural" v="slope" />
		<tag k="place" v="locality" />
		<tag k="ssr:stedsnr" v="885339" />
	</node>
	<node lat="62.40997499844101" lon="6.597650001776564" id="-4983">
		<tag k="name" v="Hjellenausa" />
		<tag k="natural" v="hill" />
		<tag k="place" v="locality" />
		<tag k="ssr:stedsnr" v="885340" />
	</node>
	<node lat="62.29195277922707" lon="6.683419443610484" id="-4984">
		<tag k="name" v="Kolda" />
		<tag k="natural" v="valley" />
		<tag k="place" v="locality" />
		<tag k="ssr:stedsnr" v="885144" />
	</node>
	<node lat="62.36919999990026" lon="6.576647221894258" id="-4985">
		<tag k="name" v="Instekamben" />
		<tag k="natural" v="ridge" />
		<tag k="place" v="locality" />
		<tag k="ssr:stedsnr" v="885167" />
	</node>
	<node lat="62.35195555384282" lon="6.600427773762856" id="-4986">
		<tag k="name" v="Tandstadflåna" />
		<tag k="place" v="locality" />
		<tag k="ssr:stedsnr" v="885168" />
	</node>
	<node lat="62.33274166378947" lon="6.640466661885826" id="-4988">
		<tag k="name" v="Ferlia" />
		<tag k="natural" v="slope" />
		<tag k="place" v="locality" />
		<tag k="ssr:stedsnr" v="885174" />
	</node>
	<node lat="62.33480555273507" lon="6.5824777739222515" id="-4989">
		<tag k="name" v="Tuene" />
		<tag k="natural" v="hill" />
		<tag k="place" v="locality" />
		<tag k="ssr:stedsnr" v="885176" />
	</node>
	<node lat="62.36355833566906" lon="6.438519449285231" id="-4991">
		<tag k="name" v="Guttelhaugen" />
		<tag k="natural" v="hill" />
		<tag k="place" v="locality" />
		<tag k="ssr:stedsnr" v="885269" />
	</node>
	<node lat="62.31381666506245" lon="6.759961111493772" id="-4994">
		<tag k="name" v="Hjortdalsberga" />
		<tag k="natural" v="slope" />
		<tag k="place" v="locality" />
		<tag k="ssr:stedsnr" v="885293" />
	</node>
	<node lat="62.37657777467562" lon="6.501352768713148" id="-4995">
		<tag k="name" v="Litleheida" />
		<tag k="natural" v="slope" />
		<tag k="place" v="locality" />
		<tag k="ssr:stedsnr" v="885351" />
	</node>
	<node lat="62.3589638926272" lon="6.588097223662573" id="-5005">
		<tag k="name" v="Gamlefonna" />
		<tag k="natural" v="valley" />
		<tag k="place" v="locality" />
		<tag k="ssr:stedsnr" v="946140" />
	</node>
	<node lat="62.351133336400416" lon="6.651886102402896" id="-5006">
		<tag k="name" v="Dyrestallen" />
		<tag k="natural" v="slope" />
		<tag k="place" v="locality" />
		<tag k="ssr:stedsnr" v="946143" />
	</node>
	<node lat="62.438536111555166" lon="6.703624992224963" id="-5008">
		<tag k="name" v="Brensleryggen" />
		<tag k="natural" v="ridge" />
		<tag k="place" v="locality" />
		<tag k="ssr:stedsnr" v="946002" />
	</node>
	<node lat="62.40911111092324" lon="6.675866665342647" id="-5009">
		<tag k="name" v="Myrkedalsnakken" />
		<tag k="natural" v="ridge" />
		<tag k="place" v="locality" />
		<tag k="ssr:stedsnr" v="946046" />
	</node>
	<node lat="62.380458328885666" lon="6.50844722117331" id="-5012">
		<tag k="name" v="Remane" />
		<tag k="natural" v="ridge" />
		<tag k="place" v="locality" />
		<tag k="ssr:stedsnr" v="946062" />
	</node>
	<node lat="62.35767222316132" lon="6.431241659184601" id="-5013">
		<tag k="fixme" v="consider natural=peak for the most distinct mountains in the district" />
		<tag k="name" v="Nausa" />
		<tag k="natural" v="hill" />
		<tag k="place" v="locality" />
		<tag k="ssr:stedsnr" v="946069" />
	</node>
	<node lat="62.39262499896857" lon="6.477347229403836" id="-5014">
		<tag k="name" v="Tudalen" />
		<tag k="natural" v="valley" />
		<tag k="place" v="locality" />
		<tag k="ssr:stedsnr" v="946071" />
	</node>
	<node lat="62.30581388859463" lon="6.697936111005355" id="-5015">
		<tag k="name" v="Alnakken" />
		<tag k="natural" v="ridge" />
		<tag k="place" v="locality" />
		<tag k="ssr:stedsnr" v="946119" />
	</node>
	<node lat="62.33165555698174" lon="6.60534722285097" id="-5016">
		<tag k="name" v="Forsegylet" />
		<tag k="natural" v="valley" />
		<tag k="place" v="locality" />
		<tag k="ssr:stedsnr" v="946126" />
	</node>
	<node lat="62.3561027792377" lon="6.561958336095119" id="-5017">
		<tag k="name" v="Einhaugen" />
		<tag k="natural" v="hill" />
		<tag k="place" v="locality" />
		<tag k="ssr:stedsnr" v="946220" />
	</node>
	<node lat="62.38572222151612" lon="6.604519442673097" id="-5018">
		<tag k="name" v="Smiskaret" />
		<tag k="natural" v="valley" />
		<tag k="place" v="locality" />
		<tag k="ssr:stedsnr" v="946223" />
	</node>
	<node lat="62.42399999582986" lon="6.656566669958102" id="-5019">
		<tag k="name" v="Setredalen" />
		<tag k="natural" v="valley" />
		<tag k="place" v="locality" />
		<tag k="ssr:stedsnr" v="946291" />
	</node>
	<node lat="62.42285833307504" lon="6.58859167619891" id="-5020">
		<tag k="name" v="Svartesva" />
		<tag k="natural" v="slope" />
		<tag k="place" v="locality" />
		<tag k="ssr:stedsnr" v="946317" />
	</node>
	<node lat="62.377250002218645" lon="6.622413895924282" id="-5021">
		<tag k="name" v="Grønehaugen" />
		<tag k="natural" v="hill" />
		<tag k="place" v="locality" />
		<tag k="ssr:stedsnr" v="946153" />
	</node>
	<node lat="62.36316111068989" lon="6.633891665634983" id="-5022">
		<tag k="name" v="Brauta" />
		<tag k="natural" v="slope" />
		<tag k="place" v="locality" />
		<tag k="ssr:stedsnr" v="946159" />
	</node>
	<node lat="62.35754722572829" lon="6.546802784004206" id="-5023">
		<tag k="name" v="Jøttafonna" />
		<tag k="natural" v="valley" />
		<tag k="place" v="locality" />
		<tag k="ssr:stedsnr" v="946160" />
	</node>
	<node lat="62.26767222082846" lon="6.697105547558515" id="-5025">
		<tag k="name" v="Hjellemarka" />
		<tag k="natural" v="slope" />
		<tag k="place" v="locality" />
		<tag k="ssr:stedsnr" v="946171" />
	</node>
	<node lat="62.34509722550543" lon="6.77998888258239" id="-5027">
		<tag k="name" v="Tudalsbrekka" />
		<tag k="natural" v="slope" />
		<tag k="place" v="locality" />
		<tag k="ssr:stedsnr" v="946240" />
	</node>
	<node lat="62.32421111324682" lon="6.7404388801041755" id="-5028">
		<tag k="name" v="La-heiane" />
		<tag k="natural" v="slope" />
		<tag k="place" v="locality" />
		<tag k="ssr:stedsnr" v="946242" />
	</node>
	<node lat="62.31929444599928" lon="6.773372214677076" id="-5029">
		<tag k="name" v="Kleivdalen" />
		<tag k="natural" v="valley" />
		<tag k="place" v="locality" />
		<tag k="ssr:stedsnr" v="946250" />
	</node>
	<node lat="62.358311110536846" lon="6.8257944502275025" id="-5030">
		<tag k="name" v="Rishaugen" />
		<tag k="natural" v="hill" />
		<tag k="place" v="locality" />
		<tag k="ssr:stedsnr" v="946261" />
	</node>
	<node lat="62.318735444681316" lon="6.53093680022789" id="-5040">
		<tag k="fixme" v="consider natural=peak for the most distinct mountains in the district" />
		<tag k="name" v="Litlehornet" />
		<tag k="natural" v="hill" />
		<tag k="place" v="locality" />
		<tag k="ssr:stedsnr" v="1078495" />
	</node>
</osm>
