<?xml version="1.0" encoding="UTF-8"?>
<<<<<<< HEAD
<osm version="0.6" generator="osmapis">
	<node lat="62.39572778131884" lon="6.755002780982593" id="-7679">
		<tag k="historic" v="shieling" />
		<tag k="name" v="Finndalsstølane" />
		<tag k="place" v="locality" />
		<tag k="ssr:stedsnr" v="35006" />
	</node>
	<node lat="62.36583611062059" lon="6.712758335158718" id="-7684">
		<tag k="historic" v="shieling" />
		<tag k="name" v="Gamlestølen" />
		<tag k="place" v="locality" />
		<tag k="ssr:stedsnr" v="35208" />
	</node>
	<node lat="62.28298610704085" lon="6.692055555907108" id="-7691">
		<tag k="name" v="Daurmålsura" />
		<tag k="natural" v="scree" />
		<tag k="ssr:stedsnr" v="35232" />
	</node>
	<node lat="62.415247217699054" lon="6.758883324579076" id="-7708">
		<tag k="historic" v="shieling" />
		<tag k="loc_name" v="Gamlesætra" />
		<tag k="name" v="Gamlestølen" />
		<tag k="place" v="locality" />
		<tag k="ssr:stedsnr" v="91372" />
	</node>
	<node lat="62.40129721823824" lon="6.682191662059966" id="-7734">
		<tag k="alt_name" v="Aurdalsheiane" />
		<tag k="name" v="Heiane" />
		<tag k="natural" v="wetland" />
		<tag k="ssr:stedsnr" v="253098" />
	</node>
	<node lat="62.44071110985073" lon="6.693852783794095" id="-7749">
		<tag k="name" v="Jogardsmyrane" />
		<tag k="natural" v="wetland" />
		<tag k="ssr:stedsnr" v="156024" />
	</node>
	<node lat="62.34328333537329" lon="6.508988887556568" id="-7757">
		<tag k="name" v="Myrane" />
		<tag k="natural" v="wetland" />
		<tag k="ssr:stedsnr" v="157205" />
	</node>
	<node lat="62.32385555160442" lon="6.571388896275847" id="-7763">
		<tag k="name" v="Breiskreda" />
		<tag k="place" v="locality" />
		<tag k="ssr:stedsnr" v="157111" />
	</node>
	<node lat="62.28855000111613" lon="6.643127779137209" id="-7781">
		<tag k="name" v="Gåsmyra" />
		<tag k="natural" v="wetland" />
		<tag k="ssr:stedsnr" v="266768" />
	</node>
	<node lat="62.325550620898866" lon="6.587365331965648" id="-7785">
		<tag k="name" v="Andersgjerdet" />
		<tag k="place" v="locality" />
		<tag k="ssr:stedsnr" v="209808" />
	</node>
	<node lat="62.37501667039892" lon="6.613386112431182" id="-7800">
		<tag k="name" v="Tromyra" />
		<tag k="natural" v="wetland" />
		<tag k="ssr:stedsnr" v="218090" />
	</node>
	<node lat="62.350725001797386" lon="6.5673305497584735" id="-7806">
		<tag k="name" v="Stormyra" />
		<tag k="natural" v="wetland" />
		<tag k="ssr:stedsnr" v="218179" />
	</node>
	<node lat="62.36785833518669" lon="6.615494451273941" id="-7845">
		<tag k="name" v="Langemyra" />
		<tag k="natural" v="wetland" />
		<tag k="ssr:stedsnr" v="278187" />
	</node>
	<node lat="62.3110583309999" lon="6.7320027767009565" id="-7850">
		<tag k="name" v="Øyeteigane" />
		<tag k="place" v="locality" />
		<tag k="ssr:stedsnr" v="278317" />
	</node>
	<node lat="62.31836111114801" lon="6.750758340057258" id="-7851">
		<tag k="name" v="Kalvegjerde" />
		<tag k="place" v="locality" />
		<tag k="ssr:stedsnr" v="278319" />
	</node>
	<node lat="62.30498333213047" lon="6.749427785982676" id="-7871">
		<tag k="name" v="Myrane" />
		<tag k="natural" v="wetland" />
		<tag k="ssr:stedsnr" v="460177" />
	</node>
	<node lat="62.285255554433974" lon="6.641086104726432" id="-7875">
		<tag k="name" v="Kroken" />
		<tag k="natural" v="wetland" />
		<tag k="ssr:stedsnr" v="460190" />
	</node>
	<node lat="62.29575555408755" lon="6.646861119116978" id="-7876">
		<tag k="name" v="Svadet" />
		<tag k="place" v="locality" />
		<tag k="ssr:stedsnr" v="460199" />
	</node>
	<node lat="62.35203333293749" lon="6.625780560245555" id="-7933">
		<tag k="name" v="Klovnesteinane" />
		<tag k="natural" v="stone" />
		<tag k="ssr:stedsnr" v="399184" />
	</node>
	<node lat="62.357008329441285" lon="6.630819444525449" id="-7964">
		<tag k="name" v="Skålholtkrokane" />
		<tag k="natural" v="wetland" />
		<tag k="ssr:stedsnr" v="460210" />
	</node>
	<node lat="62.372098956879874" lon="6.82360553662455" id="-7979">
		<tag k="alt_name" v="Fastein" />
		<tag k="historic" v="shieling" />
		<tag k="name" v="Fasteinen" />
		<tag k="place" v="locality" />
		<tag k="ssr:stedsnr" v="678698" />
	</node>
	<node lat="62.2905722253894" lon="6.698733342491565" id="-8006">
		<tag k="name" v="Øvstemyrane" />
		<tag k="natural" v="wetland" />
		<tag k="ssr:stedsnr" v="521005" />
	</node>
	<node lat="62.34321944104562" lon="6.649588890778579" id="-8021">
		<tag k="name" v="Breiskrea" />
		<tag k="natural" v="glacier" />
		<tag k="ssr:stedsnr" v="521114" />
	</node>
	<node lat="62.35379722544811" lon="6.622027768024395" id="-8022">
		<tag k="name" v="Tynestorvet" />
		<tag k="natural" v="wetland" />
		<tag k="ssr:stedsnr" v="521160" />
	</node>
	<node lat="62.30236388835076" lon="6.643655553259956" id="-8056">
		<tag k="name" v="Klinthammarsfonna" />
		<tag k="place" v="locality" />
		<tag k="ssr:stedsnr" v="581248" />
	</node>
	<node lat="62.33598610820114" lon="6.56580277660653" id="-8057">
		<tag k="name" v="Hesfonna" />
		<tag k="place" v="locality" />
		<tag k="ssr:stedsnr" v="581255" />
	</node>
	<node lat="62.36438055437464" lon="6.625319450372333" id="-8060">
		<tag k="name" v="Høysetmyrane" />
		<tag k="natural" v="wetland" />
		<tag k="ssr:stedsnr" v="581195" />
	</node>
	<node lat="62.422241662225176" lon="6.682716664224546" id="-8074">
		<tag k="historic" v="shieling" />
		<tag k="name" v="Andestadsætra" />
		<tag k="place" v="locality" />
		<tag k="ssr:stedsnr" v="702040" />
	</node>
	<node lat="62.3201888911008" lon="6.584538891483993" id="-8079">
		<tag k="name" v="Straumsfonna" />
		<tag k="place" v="locality" />
		<tag k="ssr:stedsnr" v="703124" />
	</node>
	<node lat="62.33773055816778" lon="6.638458327812748" id="-8082">
		<tag k="historic" v="shieling" />
		<tag k="name" v="Hammarsetsetra" />
		<tag k="place" v="locality" />
		<tag k="ssr:stedsnr" v="703137" />
	</node>
	<node lat="62.421919440139895" lon="6.651841662001642" id="-8108">
		<tag k="name" v="Storsvaet" />
		<tag k="place" v="locality" />
		<tag k="ssr:stedsnr" v="703362" />
	</node>
	<node lat="62.406613887521765" lon="6.804352782539934" id="-8118">
		<tag k="historic" v="shieling" />
		<tag k="name" v="Gamlesetra" />
		<tag k="place" v="locality" />
		<tag k="ssr:stedsnr" v="642032" />
	</node>
	<node lat="62.32791388560094" lon="6.584597220413404" id="-8123">
		<tag k="name" v="Svartemyrane" />
		<tag k="natural" v="wetland" />
		<tag k="ssr:stedsnr" v="642126" />
	</node>
	<node lat="62.324836115186194" lon="6.570613896469587" id="-8125">
		<tag k="name" v="Kalaskreda" />
		<tag k="place" v="locality" />
		<tag k="ssr:stedsnr" v="642131" />
	</node>
	<node lat="62.27710555378996" lon="6.680780559370847" id="-8129">
		<tag k="name" v="Mørkjamyra" />
		<tag k="natural" v="wetland" />
		<tag k="ssr:stedsnr" v="642212" />
	</node>
	<node lat="62.43195555682318" lon="6.706986104145626" id="-8158">
		<tag k="name" v="Svemyra" />
		<tag k="natural" v="wetland" />
		<tag k="ssr:stedsnr" v="703118" />
	</node>
	<node lat="62.285977773971254" lon="6.640100005844072" id="-8184">
		<tag k="name" v="Vesle-Gåsmyra" />
		<tag k="natural" v="wetland" />
		<tag k="ssr:stedsnr" v="763246" />
	</node>
	<node lat="62.316075003795056" lon="6.735733337854285" id="-8186">
		<tag k="name" v="Svøda" />
		<tag k="place" v="locality" />
		<tag k="ssr:stedsnr" v="763104" />
	</node>
	<node lat="62.38461944791653" lon="6.674586114986918" id="-8196">
		<tag k="name" v="Nedsetermyrane" />
		<tag k="natural" v="wetland" />
		<tag k="ssr:stedsnr" v="764016" />
	</node>
	<node lat="62.37988888710987" lon="6.572252771672738" id="-8219">
		<tag k="name" v="Vikøyra" />
		<tag k="place" v="locality" />
		<tag k="ssr:stedsnr" v="921419" />
	</node>
	<node lat="62.38504721956595" lon="6.624861115267792" id="-8231">
		<tag k="historic" v="shieling" />
		<tag k="name" v="Mjølkesletta" />
		<tag k="place" v="locality" />
		<tag k="ssr:stedsnr" v="824210" />
	</node>
	<node lat="62.30631666491819" lon="6.691930556969352" id="-8247">
		<tag k="name" v="Stølen" />
		<tag k="place" v="locality" />
		<tag k="ssr:stedsnr" v="825089" />
	</node>
	<node lat="62.29179444655226" lon="6.690969448981081" id="-8248">
		<tag k="name" v="Myrane" />
		<tag k="natural" v="wetland" />
		<tag k="ssr:stedsnr" v="825091" />
	</node>
	<node lat="62.42069722468407" lon="6.765572217576611" id="-8268">
		<tag k="name" v="Kjøreld-myra" />
		<tag k="natural" v="wetland" />
		<tag k="ssr:stedsnr" v="884065" />
	</node>
	<node lat="62.298302780662446" lon="6.6429027818348025" id="-8276">
		<tag k="name" v="Gråura" />
		<tag k="natural" v="scree" />
		<tag k="ssr:stedsnr" v="885162" />
	</node>
	<node lat="62.292249999217184" lon="6.641936116764546" id="-8277">
		<tag k="name" v="Dalemyra" />
		<tag k="natural" v="wetland" />
		<tag k="ssr:stedsnr" v="885164" />
	</node>
	<node lat="62.315369442876836" lon="6.741202769683068" id="-8286">
		<tag k="name" v="Viotta" />
		<tag k="place" v="locality" />
		<tag k="ssr:stedsnr" v="885246" />
	</node>
	<node lat="62.30369722152031" lon="6.638416671167913" id="-8325">
		<tag k="name" v="Kallgeilfonna" />
		<tag k="place" v="locality" />
		<tag k="ssr:stedsnr" v="946186" />
	</node>
	<node lat="62.38184999712717" lon="6.589602784558236" id="-8355">
		<tag k="name" v="Gråura" />
		<tag k="natural" v="scree" />
		<tag k="ssr:stedsnr" v="35084" />
	</node>
	<node lat="62.414516670117976" lon="6.681086109597728" id="-8358">
		<tag k="name" v="Bu" />
=======
<osm generator="osmapis" version="0.6">
	<node id="-69629" lat="62.3152999999" lon="6.62576110472">
		<tag k="name" v="Strikja" />
		<tag k="natural" v="glacier" />
		<tag k="ssr:stedsnr" v="339227" />
	</node>
	<node id="-69112" lat="62.432469449" lon="6.61991389705">
		<tag k="name" v="Marbeitura" />
		<tag k="natural" v="scree" />
		<tag k="ssr:stedsnr" v="763327" />
	</node>
	<node id="-69108" lat="62.3160750038" lon="6.73573333785">
		<tag k="name" v="Svøda" />
		<tag k="place" v="locality" />
		<tag k="ssr:stedsnr" v="763104" />
	</node>
	<node id="-69107" lat="62.3925999963" lon="6.50839722366">
		<tag k="name" v="Stormyra" />
>>>>>>> e1d4bc35ff8a6074a6f2e91616a996b547c36f15
		<tag k="natural" v="wetland" />
		<tag k="ssr:stedsnr" v="35146" />
	</node>
<<<<<<< HEAD
	<node lat="62.374761111833976" lon="6.46513611408577" id="-8391">
		<tag k="name" v="Løftingsfonna" />
		<tag k="place" v="locality" />
		<tag k="ssr:stedsnr" v="35320" />
	</node>
	<node lat="62.37795555598711" lon="6.442472225213632" id="-8393">
		<tag k="name" v="Lilleholen" />
=======
	<node id="-69373" lat="62.3658361106" lon="6.71275833516">
		<tag k="historic" v="shieling" />
		<tag k="name" v="Gamlestølen" />
		<tag k="place" v="locality" />
		<tag k="ssr:stedsnr" v="35208" />
	</node>
	<node id="-69612" lat="62.3447555555" lon="6.62380832503">
		<tag k="name" v="Måsesteinen" />
		<tag k="natural" v="stone" />
		<tag k="ssr:stedsnr" v="339140" />
	</node>
	<node id="-69094" lat="62.3780361093" lon="6.52195556252">
		<tag k="name" v="Tungemyrane" />
>>>>>>> e1d4bc35ff8a6074a6f2e91616a996b547c36f15
		<tag k="natural" v="wetland" />
		<tag k="ssr:stedsnr" v="35327" />
	</node>
<<<<<<< HEAD
	<node lat="62.3698833301927" lon="6.80169444215225" id="-8408">
		<tag k="name" v="Auskjerfeltet" />
		<tag k="place" v="locality" />
		<tag k="ssr:stedsnr" v="71735" />
	</node>
	<node lat="62.36191389238218" lon="6.622955558162577" id="-8435">
		<tag k="name" v="Blindheimstorvet" />
=======
	<node id="-69601" lat="62.3797916711" lon="6.64559445123">
		<tag k="name" v="Deplane" />
>>>>>>> e1d4bc35ff8a6074a6f2e91616a996b547c36f15
		<tag k="natural" v="wetland" />
		<tag k="ssr:stedsnr" v="96028" />
	</node>
<<<<<<< HEAD
	<node lat="62.31702221793887" lon="6.745016663226614" id="-8437">
		<tag k="name" v="Bøen" />
=======
	<node id="-69597" lat="62.4319833355" lon="6.82694166545">
		<tag k="name" v="Storfonna" />
>>>>>>> e1d4bc35ff8a6074a6f2e91616a996b547c36f15
		<tag k="place" v="locality" />
		<tag k="ssr:stedsnr" v="96121" />
	</node>
<<<<<<< HEAD
	<node lat="62.34570833031627" lon="6.623130557604477" id="-8446">
		<tag k="historic" v="shieling" />
		<tag k="name" v="Trøna" />
		<tag k="place" v="locality" />
		<tag k="ssr:stedsnr" v="96190" />
	</node>
	<node lat="62.27949999606012" lon="6.680983342739911" id="-8459">
		<tag k="name" v="Gjerdeøyna" />
=======
	<node id="-69596" lat="62.3156333343" lon="6.62034167417">
		<tag k="loc_name" v="Liaura" />
		<tag k="name" v="Kroken" />
		<tag k="natural" v="scree" />
		<tag k="ssr:stedsnr" v="334470" />
	</node>
	<node id="-69079" lat="62.3280111134" lon="6.57769166395">
		<tag k="name" v="Fossemyrane" />
>>>>>>> e1d4bc35ff8a6074a6f2e91616a996b547c36f15
		<tag k="natural" v="wetland" />
		<tag k="ssr:stedsnr" v="96257" />
	</node>
<<<<<<< HEAD
	<node lat="62.36433055653169" lon="6.597136103373451" id="-8489">
		<tag k="name" v="Memorgosteinen" />
		<tag k="natural" v="stone" />
		<tag k="ssr:stedsnr" v="157128" />
	</node>
	<node lat="62.37530277819953" lon="6.441780565020927" id="-8495">
		<tag k="name" v="Gamlefonna" />
		<tag k="place" v="locality" />
		<tag k="ssr:stedsnr" v="157234" />
	</node>
	<node lat="62.32946388863065" lon="6.578063890538581" id="-8508">
		<tag k="historic" v="shieling" />
		<tag k="name" v="Øykjestølen" />
=======
	<node id="-69583" lat="62.2983805517" lon="6.56646666763">
		<tag k="name" v="Blåbreen" />
		<tag k="natural" v="glacier" />
		<tag k="ssr:stedsnr" v="314650" />
	</node>
	<node id="-69064" lat="62.4206972247" lon="6.76557221758">
		<tag k="name" v="Kjøreld-myra" />
		<tag k="natural" v="wetland" />
		<tag k="ssr:stedsnr" v="884065" />
	</node>
	<node id="-69038" lat="62.3100972185" lon="6.60300000581">
		<tag k="name" v="Moldmyra" />
		<tag k="natural" v="wetland" />
		<tag k="ssr:stedsnr" v="581261" />
	</node>
	<node id="-69037" lat="62.3359861082" lon="6.56580277661">
		<tag k="name" v="Hesfonna" />
>>>>>>> e1d4bc35ff8a6074a6f2e91616a996b547c36f15
		<tag k="place" v="locality" />
		<tag k="ssr:stedsnr" v="157196" />
	</node>
<<<<<<< HEAD
	<node lat="62.31407500403237" lon="6.7462833329655005" id="-8510">
=======
	<node id="-68850" lat="62.3049833321" lon="6.74942778598">
		<tag k="name" v="Myrane" />
		<tag k="natural" v="wetland" />
		<tag k="ssr:stedsnr" v="460177" />
	</node>
	<node id="-69546" lat="62.314075004" lon="6.74628333297">
>>>>>>> e1d4bc35ff8a6074a6f2e91616a996b547c36f15
		<tag k="name" v="Plantegjerde" />
		<tag k="place" v="locality" />
		<tag k="ssr:stedsnr" v="157245" />
	</node>
<<<<<<< HEAD
	<node lat="62.39046110892452" lon="6.6982166662246385" id="-8560">
		<tag k="historic" v="shieling" />
		<tag k="name" v="Gamlestølen" />
		<tag k="place" v="locality" />
		<tag k="ssr:stedsnr" v="217200" />
	</node>
	<node lat="62.32553611099484" lon="6.756694445031808" id="-8562">
=======
	<node id="-69033" lat="62.3131666663" lon="6.6315777707">
		<tag k="loc_name" v="Bonskrefonna" />
		<tag k="name" v="Løstaven" />
		<tag k="natural" v="glacier" />
		<tag k="ssr:stedsnr" v="576511" />
	</node>
	<node id="-69544" lat="62.3753027782" lon="6.44178056502">
		<tag k="name" v="Gamlefonna" />
		<tag k="place" v="locality" />
		<tag k="ssr:stedsnr" v="157234" />
	</node>
	<node id="-69030" lat="62.4219194401" lon="6.651841662">
		<tag k="name" v="Storsvaet" />
		<tag k="place" v="locality" />
		<tag k="ssr:stedsnr" v="703362" />
	</node>
	<node id="-69541" lat="62.3432833354" lon="6.50898888756">
		<tag k="name" v="Myrane" />
		<tag k="natural" v="wetland" />
		<tag k="ssr:stedsnr" v="157205" />
	</node>
	<node id="-70052" lat="62.2252524035" lon="6.70500704249">
		<tag k="name" v="Brekketindbreen" />
		<tag k="natural" v="glacier" />
		<tag k="ssr:stedsnr" v="861242" />
	</node>
	<node id="-69538" lat="62.3294638886" lon="6.57806389054">
>>>>>>> e1d4bc35ff8a6074a6f2e91616a996b547c36f15
		<tag k="historic" v="shieling" />
		<tag k="name" v="Gamlesætra" />
		<tag k="place" v="locality" />
		<tag k="ssr:stedsnr" v="217297" />
	</node>
<<<<<<< HEAD
	<node lat="62.35176111544474" lon="6.54400555211072" id="-8573">
		<tag k="name" v="Ljosemyrane" />
=======
	<node id="-69445" lat="62.3619138924" lon="6.62295555816">
		<tag k="name" v="Blindheimstorvet" />
		<tag k="natural" v="wetland" />
		<tag k="ssr:stedsnr" v="96028" />
	</node>
	<node id="-70039" lat="62.2917944466" lon="6.69096944898">
		<tag k="name" v="Myrane" />
>>>>>>> e1d4bc35ff8a6074a6f2e91616a996b547c36f15
		<tag k="natural" v="wetland" />
		<tag k="ssr:stedsnr" v="217340" />
	</node>
<<<<<<< HEAD
	<node lat="62.38905555600518" lon="6.6469750068444275" id="-8585">
		<tag k="name" v="Kambura" />
		<tag k="natural" v="scree" />
		<tag k="ssr:stedsnr" v="218052" />
	</node>
	<node lat="62.28199722302798" lon="6.680225005120479" id="-8592">
		<tag k="name" v="Skavøyna" />
=======
	<node id="-70038" lat="62.3063166649" lon="6.69193055697">
		<tag k="name" v="Stølen" />
		<tag k="place" v="locality" />
		<tag k="ssr:stedsnr" v="825089" />
	</node>
	<node id="-70037" lat="62.3843749986" lon="6.46331388404">
		<tag k="name" v="Holane" />
>>>>>>> e1d4bc35ff8a6074a6f2e91616a996b547c36f15
		<tag k="natural" v="wetland" />
		<tag k="ssr:stedsnr" v="218150" />
	</node>
<<<<<<< HEAD
	<node lat="62.397266664783636" lon="6.470219454027987" id="-8596">
		<tag k="name" v="Myrane" />
		<tag k="natural" v="wetland" />
		<tag k="ssr:stedsnr" v="218236" />
	</node>
	<node lat="62.369711109060155" lon="6.695261114559495" id="-8625">
		<tag k="name" v="Grønvollane" />
=======
	<node id="-69515" lat="62.3643305565" lon="6.59713610337">
		<tag k="name" v="Memorgosteinen" />
		<tag k="natural" v="stone" />
		<tag k="ssr:stedsnr" v="157128" />
	</node>
	<node id="-69514" lat="62.3238555516" lon="6.57138889628">
		<tag k="name" v="Breiskreda" />
>>>>>>> e1d4bc35ff8a6074a6f2e91616a996b547c36f15
		<tag k="place" v="locality" />
		<tag k="ssr:stedsnr" v="278201" />
	</node>
<<<<<<< HEAD
	<node lat="62.42108611252132" lon="6.663941666171266" id="-8631">
		<tag k="name" v="Rundesvadene" />
=======
	<node id="-70022" lat="62.3850472196" lon="6.62486111527">
		<tag k="historic" v="shieling" />
		<tag k="name" v="Mjølkesletta" />
>>>>>>> e1d4bc35ff8a6074a6f2e91616a996b547c36f15
		<tag k="place" v="locality" />
		<tag k="ssr:stedsnr" v="278356" />
	</node>
<<<<<<< HEAD
	<node lat="62.298380551731405" lon="6.566466667632148" id="-8636">
		<tag k="name" v="Blåbreen" />
		<tag k="natural" v="glacier" />
		<tag k="ssr:stedsnr" v="314650" />
	</node>
	<node lat="62.31563333430191" lon="6.620341674165424" id="-8651">
		<tag k="loc_name" v="Liaura" />
		<tag k="name" v="Kroken" />
		<tag k="natural" v="scree" />
		<tag k="ssr:stedsnr" v="334470" />
	</node>
	<node lat="62.43198333551822" lon="6.826941665446571" id="-8652">
		<tag k="name" v="Storfonna" />
=======
	<node id="-69355" lat="62.3818499971" lon="6.58960278456">
		<tag k="name" v="Gråura" />
		<tag k="natural" v="scree" />
		<tag k="ssr:stedsnr" v="35084" />
	</node>
	<node id="-69498" lat="62.4407111099" lon="6.69385278379">
		<tag k="name" v="Jogardsmyrane" />
		<tag k="natural" v="wetland" />
		<tag k="ssr:stedsnr" v="156024" />
	</node>
	<node id="-68983" lat="62.3201888911" lon="6.58453889148">
		<tag k="name" v="Straumsfonna" />
>>>>>>> e1d4bc35ff8a6074a6f2e91616a996b547c36f15
		<tag k="place" v="locality" />
		<tag k="ssr:stedsnr" v="338035" />
	</node>
<<<<<<< HEAD
	<node lat="62.37979167111592" lon="6.645594451233505" id="-8653">
		<tag k="name" v="Deplane" />
=======
	<node id="-68982" lat="62.4319555568" lon="6.70698610415">
		<tag k="name" v="Svemyra" />
>>>>>>> e1d4bc35ff8a6074a6f2e91616a996b547c36f15
		<tag k="natural" v="wetland" />
		<tag k="ssr:stedsnr" v="339069" />
	</node>
<<<<<<< HEAD
	<node lat="62.34475555551805" lon="6.6238083250335436" id="-8672">
		<tag k="name" v="Måsesteinen" />
		<tag k="natural" v="stone" />
		<tag k="ssr:stedsnr" v="339140" />
	</node>
	<node lat="62.31616443023605" lon="6.625540752830502" id="-8678">
		<tag k="name" v="Strikja" />
		<tag k="natural" v="glacier" />
		<tag k="ssr:stedsnr" v="339227" />
	</node>
	<node lat="62.38033611189061" lon="6.622050007410793" id="-8694">
		<tag k="name" v="Heiane" />
=======
	<node id="-68978" lat="62.4222416622" lon="6.68271666422">
		<tag k="historic" v="shieling" />
		<tag k="name" v="Andestadsætra" />
		<tag k="place" v="locality" />
		<tag k="ssr:stedsnr" v="702040" />
	</node>
	<node id="-69979" lat="62.3846194479" lon="6.67458611499">
		<tag k="name" v="Nedsetermyrane" />
		<tag k="natural" v="wetland" />
		<tag k="ssr:stedsnr" v="764016" />
	</node>
	<node id="-69972" lat="62.285977774" lon="6.64010000584">
		<tag k="name" v="Vesle-Gåsmyra" />
>>>>>>> e1d4bc35ff8a6074a6f2e91616a996b547c36f15
		<tag k="natural" v="wetland" />
		<tag k="ssr:stedsnr" v="375601" />
	</node>
<<<<<<< HEAD
	<node lat="62.29828055344566" lon="6.697138892452321" id="-8716">
		<tag k="name" v="Øyane" />
		<tag k="natural" v="wetland" />
		<tag k="ssr:stedsnr" v="399154" />
	</node>
	<node lat="62.28620833331989" lon="6.6360777810460565" id="-8721">
		<tag k="name" v="Regndalsøyane" />
		<tag k="natural" v="wetland" />
		<tag k="ssr:stedsnr" v="399255" />
	</node>
	<node lat="62.42744444893637" lon="6.7023611126851685" id="-8722">
		<tag k="name" v="Stormyra" />
=======
	<node id="-69454" lat="62.3457083303" lon="6.6231305576">
		<tag k="historic" v="shieling" />
		<tag k="name" v="Trøna" />
		<tag k="place" v="locality" />
		<tag k="ssr:stedsnr" v="96190" />
	</node>
	<node id="-69957" lat="62.3323472256" lon="6.64680555683">
		<tag k="name" v="Hammarsetmyrane" />
		<tag k="natural" v="wetland" />
		<tag k="ssr:stedsnr" v="763019" />
	</node>
	<node id="-68927" lat="62.3570083294" lon="6.63081944453">
		<tag k="name" v="Skålholtkrokane" />
>>>>>>> e1d4bc35ff8a6074a6f2e91616a996b547c36f15
		<tag k="natural" v="wetland" />
		<tag k="ssr:stedsnr" v="399258" />
	</node>
<<<<<<< HEAD
	<node lat="62.41831111338662" lon="6.595458331153346" id="-8727">
		<tag k="name" v="Dyrstimyra" />
		<tag k="natural" v="wetland" />
		<tag k="ssr:stedsnr" v="399349" />
	</node>
	<node lat="62.27461388836367" lon="6.679602770147319" id="-8741">
		<tag k="name" v="Morka" />
=======
	<node id="-69437" lat="62.4152472177" lon="6.75888332458">
		<tag k="historic" v="shieling" />
		<tag k="loc_name" v="Gamlesætra" />
		<tag k="name" v="Gamlestølen" />
		<tag k="place" v="locality" />
		<tag k="ssr:stedsnr" v="91372" />
	</node>
	<node id="-69422" lat="62.3698833302" lon="6.80169444215">
		<tag k="name" v="Auskjerfeltet" />
>>>>>>> e1d4bc35ff8a6074a6f2e91616a996b547c36f15
		<tag k="place" v="locality" />
		<tag k="ssr:stedsnr" v="436243" />
	</node>
<<<<<<< HEAD
	<node lat="62.43062221843477" lon="6.7025027875050975" id="-8762">
		<tag k="historic" v="shieling" />
		<tag k="name" v="Gamlesætra" />
		<tag k="place" v="locality" />
		<tag k="ssr:stedsnr" v="520043" />
	</node>
	<node lat="62.38628888707158" lon="6.683786104464132" id="-8775">
		<tag k="historic" v="shieling" />
		<tag k="name" v="Øvstesetra" />
=======
	<node id="-69085" lat="62.3153694429" lon="6.74120276968">
		<tag k="name" v="Viotta" />
		<tag k="place" v="locality" />
		<tag k="ssr:stedsnr" v="885246" />
	</node>
	<node id="-69927" lat="62.3894361144" lon="6.50707500002">
		<tag k="historic" v="shieling" />
		<tag k="name" v="Gamlesætra" />
		<tag k="place" v="locality" />
		<tag k="ssr:stedsnr" v="642343" />
	</node>
	<node id="-69919" lat="62.3174722217" lon="6.75058054765">
		<tag k="name" v="Holemyrane" />
		<tag k="natural" v="wetland" />
		<tag k="ssr:stedsnr" v="642261" />
	</node>
	<node id="-69404" lat="62.377955556" lon="6.44247222521">
		<tag k="name" v="Lilleholen" />
		<tag k="natural" v="wetland" />
		<tag k="ssr:stedsnr" v="35327" />
	</node>
	<node id="-69402" lat="62.3747611118" lon="6.46513611409">
		<tag k="name" v="Løftingsfonna" />
>>>>>>> e1d4bc35ff8a6074a6f2e91616a996b547c36f15
		<tag k="place" v="locality" />
		<tag k="ssr:stedsnr" v="521187" />
	</node>
<<<<<<< HEAD
	<node lat="62.30609167026234" lon="6.636286116685866" id="-8781">
		<tag k="name" v="Palfonna" />
=======
	<node id="-69911" lat="62.3746777737" lon="6.45326943541">
		<tag k="name" v="Nyfonna" />
>>>>>>> e1d4bc35ff8a6074a6f2e91616a996b547c36f15
		<tag k="place" v="locality" />
		<tag k="ssr:stedsnr" v="521155" />
	</node>
<<<<<<< HEAD
	<node lat="62.313166666274924" lon="6.631577770699095" id="-8809">
		<tag k="loc_name" v="Bonskrefonna" />
		<tag k="name" v="Løstaven" />
		<tag k="natural" v="glacier" />
		<tag k="ssr:stedsnr" v="576511" />
	</node>
	<node lat="62.34862499571157" lon="6.569824993385033" id="-8821">
		<tag k="name" v="Rundemyra" />
=======
	<node id="-69908" lat="62.2771055538" lon="6.68078055937">
		<tag k="name" v="Mørkjamyra" />
>>>>>>> e1d4bc35ff8a6074a6f2e91616a996b547c36f15
		<tag k="natural" v="wetland" />
		<tag k="ssr:stedsnr" v="581180" />
	</node>
<<<<<<< HEAD
	<node lat="62.287072220144175" lon="6.656825005989706" id="-8822">
		<tag k="name" v="Haugmyra" />
		<tag k="natural" v="wetland" />
		<tag k="ssr:stedsnr" v="581186" />
	</node>
	<node lat="62.310097218481694" lon="6.603000005810582" id="-8824">
		<tag k="name" v="Moldmyra" />
		<tag k="natural" v="wetland" />
		<tag k="ssr:stedsnr" v="581261" />
	</node>
	<node lat="62.37585278171786" lon="6.821036102270149" id="-8826">
		<tag k="name" v="Løkane" />
		<tag k="natural" v="wetland" />
		<tag k="ssr:stedsnr" v="581283" />
	</node>
	<node lat="62.33478888998475" lon="6.7411138936396515" id="-8833">
		<tag k="name" v="Svodene" />
=======
	<node id="-68993" lat="62.3377305582" lon="6.63845832781">
		<tag k="historic" v="shieling" />
		<tag k="name" v="Hammarsetsetra" />
		<tag k="place" v="locality" />
		<tag k="ssr:stedsnr" v="703137" />
	</node>
	<node id="-69675" lat="62.2982805534" lon="6.69713889245">
		<tag k="name" v="Øyane" />
		<tag k="natural" v="wetland" />
		<tag k="ssr:stedsnr" v="399154" />
	</node>
	<node id="-69376" lat="62.282986107" lon="6.69205555591">
		<tag k="name" v="Daurmålsura" />
		<tag k="natural" v="scree" />
		<tag k="ssr:stedsnr" v="35232" />
	</node>
	<node id="-69886" lat="62.4374111138" lon="6.65543610545">
		<tag k="name" v="Furhaugura" />
		<tag k="natural" v="scree" />
		<tag k="ssr:stedsnr" v="642141" />
	</node>
	<node id="-69885" lat="62.3289333346" lon="6.5765111154">
		<tag k="name" v="Fossemyra" />
		<tag k="natural" v="wetland" />
		<tag k="ssr:stedsnr" v="642132" />
	</node>
	<node id="-69884" lat="62.3248361152" lon="6.57061389647">
		<tag k="name" v="Kalaskreda" />
>>>>>>> e1d4bc35ff8a6074a6f2e91616a996b547c36f15
		<tag k="place" v="locality" />
		<tag k="ssr:stedsnr" v="581130" />
	</node>
<<<<<<< HEAD
	<node lat="62.31407222425984" lon="6.545800004795827" id="-8849">
		<tag k="name" v="Ljøsabreen" />
		<tag k="natural" v="glacier" />
		<tag k="ssr:stedsnr" v="618465" />
	</node>
	<node lat="62.353772224212854" lon="6.765480559832839" id="-8861">
		<tag k="name" v="Stølen" />
		<tag k="place" v="locality" />
		<tag k="ssr:stedsnr" v="642093" />
	</node>
	<node lat="62.314936108925416" lon="6.599275009139024" id="-8864">
=======
	<node id="-69882" lat="62.3279138856" lon="6.58459722041">
		<tag k="name" v="Svartemyrane" />
		<tag k="natural" v="wetland" />
		<tag k="ssr:stedsnr" v="642126" />
	</node>
	<node id="-69880" lat="62.3149361089" lon="6.59927500914">
>>>>>>> e1d4bc35ff8a6074a6f2e91616a996b547c36f15
		<tag k="name" v="Flatsteinen" />
		<tag k="natural" v="stone" />
		<tag k="ssr:stedsnr" v="642121" />
	</node>
<<<<<<< HEAD
	<node lat="62.374677773669575" lon="6.453269435411134" id="-8870">
		<tag k="name" v="Nyfonna" />
		<tag k="place" v="locality" />
		<tag k="ssr:stedsnr" v="642220" />
	</node>
	<node lat="62.38261111362344" lon="6.676613891974064" id="-8871">
=======
	<node id="-68855" lat="62.2957555541" lon="6.64686111912">
		<tag k="name" v="Svadet" />
		<tag k="place" v="locality" />
		<tag k="ssr:stedsnr" v="460199" />
	</node>
	<node id="-68854" lat="62.2852555544" lon="6.64108610473">
		<tag k="name" v="Kroken" />
		<tag k="natural" v="wetland" />
		<tag k="ssr:stedsnr" v="460190" />
	</node>
	<node id="-69874" lat="62.3537722242" lon="6.76548055983">
		<tag k="name" v="Stølen" />
		<tag k="place" v="locality" />
		<tag k="ssr:stedsnr" v="642093" />
	</node>
	<node id="-69361" lat="62.4145166701" lon="6.6810861096">
		<tag k="name" v="Bu" />
		<tag k="natural" v="wetland" />
		<tag k="ssr:stedsnr" v="35146" />
	</node>
	<node id="-69867" lat="62.4066138875" lon="6.80435278254">
		<tag k="historic" v="shieling" />
		<tag k="name" v="Gamlesetra" />
		<tag k="place" v="locality" />
		<tag k="ssr:stedsnr" v="642032" />
	</node>
	<node id="-69860" lat="62.3826111136" lon="6.67661389197">
>>>>>>> e1d4bc35ff8a6074a6f2e91616a996b547c36f15
		<tag k="historic" v="shieling" />
		<tag k="name" v="Nedsetra" />
		<tag k="place" v="locality" />
		<tag k="ssr:stedsnr" v="641972" />
	</node>
<<<<<<< HEAD
	<node lat="62.328933334616195" lon="6.576511115397348" id="-8875">
		<tag k="name" v="Fossemyra" />
		<tag k="natural" v="wetland" />
		<tag k="ssr:stedsnr" v="642132" />
	</node>
	<node lat="62.43741111376363" lon="6.655436105449206" id="-8876">
		<tag k="name" v="Furhaugura" />
		<tag k="natural" v="scree" />
		<tag k="ssr:stedsnr" v="642141" />
	</node>
	<node lat="62.31747222166477" lon="6.750580547646826" id="-8895">
		<tag k="name" v="Holemyrane" />
=======
	<node id="-69346" lat="62.3957277813" lon="6.75500278098">
		<tag k="historic" v="shieling" />
		<tag k="name" v="Finndalsstølane" />
		<tag k="place" v="locality" />
		<tag k="ssr:stedsnr" v="35006" />
	</node>
	<node id="-69851" lat="62.3140722243" lon="6.5458000048">
		<tag k="name" v="Ljøsabreen" />
		<tag k="natural" v="glacier" />
		<tag k="ssr:stedsnr" v="618465" />
	</node>
	<node id="-69837" lat="62.3023638884" lon="6.64365555326">
		<tag k="name" v="Klinthammarsfonna" />
		<tag k="place" v="locality" />
		<tag k="ssr:stedsnr" v="581248" />
	</node>
	<node id="-69320" lat="62.3517611154" lon="6.54400555211">
		<tag k="name" v="Ljosemyrane" />
>>>>>>> e1d4bc35ff8a6074a6f2e91616a996b547c36f15
		<tag k="natural" v="wetland" />
		<tag k="ssr:stedsnr" v="642261" />
	</node>
<<<<<<< HEAD
	<node lat="62.38943611439183" lon="6.507075000024889" id="-8900">
=======
	<node id="-69315" lat="62.3904611089" lon="6.69821666622">
>>>>>>> e1d4bc35ff8a6074a6f2e91616a996b547c36f15
		<tag k="historic" v="shieling" />
		<tag k="name" v="Gamlesætra" />
		<tag k="place" v="locality" />
		<tag k="ssr:stedsnr" v="642343" />
	</node>
<<<<<<< HEAD
	<node lat="62.332347225610796" lon="6.646805556829851" id="-8922">
		<tag k="name" v="Hammarsetmyrane" />
=======
	<node id="-69824" lat="62.3643805544" lon="6.62531945037">
		<tag k="name" v="Høysetmyrane" />
>>>>>>> e1d4bc35ff8a6074a6f2e91616a996b547c36f15
		<tag k="natural" v="wetland" />
		<tag k="ssr:stedsnr" v="763019" />
	</node>
<<<<<<< HEAD
	<node lat="62.392599996252656" lon="6.508397223659286" id="-8931">
		<tag k="name" v="Stormyra" />
=======
	<node id="-69822" lat="62.2870722201" lon="6.65682500599">
		<tag k="name" v="Haugmyra" />
>>>>>>> e1d4bc35ff8a6074a6f2e91616a996b547c36f15
		<tag k="natural" v="wetland" />
		<tag k="ssr:stedsnr" v="763084" />
	</node>
<<<<<<< HEAD
	<node lat="62.432469448991384" lon="6.6199138970535305" id="-8935">
		<tag k="name" v="Marbeitura" />
		<tag k="natural" v="scree" />
		<tag k="ssr:stedsnr" v="763327" />
	</node>
	<node lat="62.30023055968964" lon="6.645405561144626" id="-8997">
		<tag k="name" v="Heggebakkfonna" />
=======
	<node id="-69821" lat="62.3486249957" lon="6.56982499339">
		<tag k="name" v="Rundemyra" />
		<tag k="natural" v="wetland" />
		<tag k="ssr:stedsnr" v="581180" />
	</node>
	<node id="-69814" lat="62.33478889" lon="6.74111389364">
		<tag k="name" v="Svodene" />
>>>>>>> e1d4bc35ff8a6074a6f2e91616a996b547c36f15
		<tag k="place" v="locality" />
		<tag k="ssr:stedsnr" v="824261" />
	</node>
<<<<<<< HEAD
	<node lat="62.3843749985961" lon="6.4633138840368956" id="-9003">
		<tag k="name" v="Holane" />
=======
	<node id="-69811" lat="62.3758527817" lon="6.82103610227">
		<tag k="name" v="Løkane" />
>>>>>>> e1d4bc35ff8a6074a6f2e91616a996b547c36f15
		<tag k="natural" v="wetland" />
		<tag k="ssr:stedsnr" v="825060" />
	</node>
<<<<<<< HEAD
	<node lat="62.22525240354094" lon="6.705007042488343" id="-9015">
		<tag k="name" v="Brekketindbreen" />
		<tag k="natural" v="glacier" />
		<tag k="ssr:stedsnr" v="861242" />
	</node>
	<node lat="62.31283138340586" lon="6.630728243352619" id="-9030">
		<tag k="name" v="Bonskredfonna" />
=======
	<node id="-68785" lat="62.3255506209" lon="6.58736533197">
		<tag k="name" v="Andersgjerdet" />
		<tag k="place" v="locality" />
		<tag k="ssr:stedsnr" v="209808" />
	</node>
	<node id="-69295" lat="62.325536111" lon="6.75669444503">
		<tag k="historic" v="shieling" />
		<tag k="name" v="Gamlesætra" />
>>>>>>> e1d4bc35ff8a6074a6f2e91616a996b547c36f15
		<tag k="place" v="locality" />
		<tag k="ssr:stedsnr" v="885121" />
	</node>
	<node lat="62.32801111339966" lon="6.5776916639518115" id="-9034">
		<tag k="name" v="Fossemyrane" />
		<tag k="natural" v="wetland" />
		<tag k="ssr:stedsnr" v="885139" />
	</node>
	<node lat="62.42114166631624" lon="6.596688886085729" id="-9043">
		<tag k="name" v="Bjørnelimyra" />
		<tag k="natural" v="wetland" />
		<tag k="ssr:stedsnr" v="885326" />
	</node>
	<node lat="62.37803610928175" lon="6.521955562519981" id="-9059">
		<tag k="name" v="Tungemyrane" />
		<tag k="natural" v="wetland" />
		<tag k="ssr:stedsnr" v="885352" />
	</node>
	<node id="-68768" lat="62.4210861125" lon="6.66394166617">
		<tag k="name" v="Rundesvadene" />
		<tag k="place" v="locality" />
		<tag k="ssr:stedsnr" v="278356" />
	</node>
	<node id="-68764" lat="62.3183611111" lon="6.75075834006">
		<tag k="name" v="Kalvegjerde" />
		<tag k="place" v="locality" />
		<tag k="ssr:stedsnr" v="278319" />
	</node>
	<node id="-68763" lat="62.311058331" lon="6.7320027767">
		<tag k="name" v="Øyeteigane" />
		<tag k="place" v="locality" />
		<tag k="ssr:stedsnr" v="278317" />
	</node>
	<node id="-69269" lat="62.4211416663" lon="6.59668888609">
		<tag k="name" v="Bjørnelimyra" />
		<tag k="natural" v="wetland" />
		<tag k="ssr:stedsnr" v="885326" />
	</node>
	<node id="-68754" lat="62.3697111091" lon="6.69526111456">
		<tag k="name" v="Grønvollane" />
		<tag k="place" v="locality" />
		<tag k="ssr:stedsnr" v="278201" />
	</node>
	<node id="-68749" lat="62.3678583352" lon="6.61549445127">
		<tag k="name" v="Langemyra" />
		<tag k="natural" v="wetland" />
		<tag k="ssr:stedsnr" v="278187" />
	</node>
	<node id="-69257" lat="62.2922499992" lon="6.64193611676">
		<tag k="name" v="Dalemyra" />
		<tag k="natural" v="wetland" />
		<tag k="ssr:stedsnr" v="885164" />
	</node>
	<node id="-69256" lat="62.2983027807" lon="6.64290278183">
		<tag k="name" v="Gråura" />
		<tag k="natural" v="scree" />
		<tag k="ssr:stedsnr" v="885162" />
	</node>
	<node id="-69767" lat="62.3862888871" lon="6.68378610446">
		<tag k="historic" v="shieling" />
		<tag k="name" v="Øvstesetra" />
		<tag k="place" v="locality" />
		<tag k="ssr:stedsnr" v="521187" />
	</node>
	<node id="-69760" lat="62.3537972254" lon="6.62202776802">
		<tag k="name" v="Tynestorvet" />
		<tag k="natural" v="wetland" />
		<tag k="ssr:stedsnr" v="521160" />
	</node>
	<node id="-69758" lat="62.3060916703" lon="6.63628611669">
		<tag k="name" v="Palfonna" />
		<tag k="place" v="locality" />
		<tag k="ssr:stedsnr" v="521155" />
	</node>
	<node id="-69748" lat="62.343219441" lon="6.64958889078">
		<tag k="name" v="Breiskrea" />
		<tag k="natural" v="glacier" />
		<tag k="ssr:stedsnr" v="521114" />
	</node>
	<node id="-68715" lat="62.2885500011" lon="6.64312777914">
		<tag k="name" v="Gåsmyra" />
		<tag k="natural" v="wetland" />
		<tag k="ssr:stedsnr" v="266768" />
	</node>
	<node id="-69226" lat="62.3036972215" lon="6.63841667117">
		<tag k="name" v="Kallgeilfonna" />
		<tag k="place" v="locality" />
		<tag k="ssr:stedsnr" v="946186" />
	</node>
	<node id="-69735" lat="62.2905722254" lon="6.69873334249">
		<tag k="name" v="Øvstemyrane" />
		<tag k="natural" v="wetland" />
		<tag k="ssr:stedsnr" v="521005" />
	</node>
	<node id="-68708" lat="62.2794999961" lon="6.68098334274">
		<tag k="name" v="Gjerdeøyna" />
		<tag k="natural" v="wetland" />
		<tag k="ssr:stedsnr" v="96257" />
	</node>
	<node id="-69731" lat="62.4306222184" lon="6.70250278751">
		<tag k="historic" v="shieling" />
		<tag k="name" v="Gamlesætra" />
		<tag k="place" v="locality" />
		<tag k="ssr:stedsnr" v="520043" />
	</node>
	<node id="-69719" lat="62.2746138884" lon="6.67960277015">
		<tag k="name" v="Morka" />
		<tag k="place" v="locality" />
		<tag k="ssr:stedsnr" v="436243" />
	</node>
	<node id="-68694" lat="62.3170222179" lon="6.74501666323">
		<tag k="name" v="Bøen" />
		<tag k="place" v="locality" />
		<tag k="ssr:stedsnr" v="96121" />
	</node>
	<node id="-69705" lat="62.4183111134" lon="6.59545833115">
		<tag k="name" v="Dyrstimyra" />
		<tag k="natural" v="wetland" />
		<tag k="ssr:stedsnr" v="399349" />
	</node>
	<node id="-68680" lat="62.4012972182" lon="6.68219166206">
		<tag k="alt_name" v="Aurdalsheiane" />
		<tag k="name" v="Heiane" />
		<tag k="natural" v="wetland" />
		<tag k="ssr:stedsnr" v="253098" />
	</node>
	<node id="-69691" lat="62.4274444489" lon="6.70236111269">
		<tag k="name" v="Stormyra" />
		<tag k="natural" v="wetland" />
		<tag k="ssr:stedsnr" v="399258" />
	</node>
	<node id="-69690" lat="62.2862083333" lon="6.63607778105">
		<tag k="name" v="Regndalsøyane" />
		<tag k="natural" v="wetland" />
		<tag k="ssr:stedsnr" v="399255" />
	</node>
	<node id="-69678" lat="62.3520333329" lon="6.62578056025">
		<tag k="name" v="Klovnesteinane" />
		<tag k="natural" v="stone" />
		<tag k="ssr:stedsnr" v="399184" />
	</node>
	<node id="-68653" lat="62.3507250018" lon="6.56733054976">
		<tag k="name" v="Stormyra" />
		<tag k="natural" v="wetland" />
		<tag k="ssr:stedsnr" v="218179" />
	</node>
	<node id="-69163" lat="62.3002305597" lon="6.64540556114">
		<tag k="name" v="Heggebakkfonna" />
		<tag k="place" v="locality" />
		<tag k="ssr:stedsnr" v="824261" />
	</node>
	<node id="-68649" lat="62.281997223" lon="6.68022500512">
		<tag k="name" v="Skavøyna" />
		<tag k="natural" v="wetland" />
		<tag k="ssr:stedsnr" v="218150" />
	</node>
	<node id="-68642" lat="62.3972666648" lon="6.47021945403">
		<tag k="name" v="Myrane" />
		<tag k="natural" v="wetland" />
		<tag k="ssr:stedsnr" v="218236" />
	</node>
	<node id="-68636" lat="62.3750166704" lon="6.61338611243">
		<tag k="name" v="Tromyra" />
		<tag k="natural" v="wetland" />
		<tag k="ssr:stedsnr" v="218090" />
	</node>
	<node id="-69656" lat="62.3803361119" lon="6.62205000741">
		<tag k="name" v="Heiane" />
		<tag k="natural" v="wetland" />
		<tag k="ssr:stedsnr" v="375601" />
	</node>
	<node id="-68630" lat="62.389055556" lon="6.64697500684">
		<tag k="name" v="Kambura" />
		<tag k="natural" v="scree" />
		<tag k="ssr:stedsnr" v="218052" />
	</node>
	<node id="-69121" lat="62.3798888871" lon="6.57225277167">
		<tag k="name" v="Vikøyra" />
		<tag k="place" v="locality" />
		<tag k="ssr:stedsnr" v="921419" />
	</node>
</osm>
