<?xml version="1.0" encoding="UTF-8"?>
<<<<<<< HEAD
<osm version="0.6" generator="osmapis">
	<node lat="62.433102773851175" lon="6.854794435944985" id="-7665">
		<tag k="name" v="Kjeflåneset" />
		<tag k="natural" v="cape" />
		<tag k="ssr:stedsnr" v="10701" />
	</node>
	<node lat="62.39716388753282" lon="6.435044447703583" id="-7677">
		<tag k="name" v="Breivikskallen" />
		<tag k="natural" v="shoal" />
		<tag k="place" v="locality" />
		<tag k="ssr:stedsnr" v="232947" />
	</node>
	<node lat="62.437791662546395" lon="6.645902787454571" id="-7693">
		<tag k="name" v="Storbåtvika" />
		<tag k="natural" v="bay" />
		<tag k="ssr:stedsnr" v="35160" />
	</node>
	<node lat="62.39681944098678" lon="6.523833330788437" id="-7694">
		<tag k="name" v="Storvika" />
		<tag k="natural" v="bay" />
		<tag k="ssr:stedsnr" v="35115" />
	</node>
	<node lat="62.4163083329718" lon="6.567602786706054" id="-7710">
		<tag k="name" v="Hasselvika" />
		<tag k="natural" v="bay" />
		<tag k="ssr:stedsnr" v="91417" />
	</node>
	<node lat="62.37168888864158" lon="6.571241666152142" id="-7716">
		<tag k="name" v="Skjerholmen" />
		<tag k="natural" v="cape" />
		<tag k="ssr:stedsnr" v="96170" />
	</node>
	<node lat="62.43670833527912" lon="6.641158339245528" id="-7721">
		<tag k="name" v="Naustvika" />
		<tag k="natural" v="bay" />
		<tag k="ssr:stedsnr" v="96325" />
	</node>
	<node lat="62.39332777379322" lon="6.55325000671874" id="-7725">
		<tag k="name" v="Jarnesflua" />
		<tag k="natural" v="shoal" />
		<tag k="place" v="locality" />
		<tag k="ssr:stedsnr" v="113569" />
	</node>
	<node lat="62.36328333750916" lon="6.578761108258994" id="-7740">
		<tag k="name" v="Tjønesstranda" />
		<tag k="natural" v="beach" />
		<tag k="ssr:stedsnr" v="254367" />
	</node>
	<node lat="62.35819166407776" lon="6.5839694416735925" id="-7767">
		<tag k="name" v="Fonnaneset" />
		<tag k="natural" v="cape" />
		<tag k="ssr:stedsnr" v="157152" />
	</node>
	<node lat="62.35140555455671" lon="6.582227779672243" id="-7769">
		<tag k="name" v="Øygardsneset" />
		<tag k="natural" v="cape" />
		<tag k="ssr:stedsnr" v="157155" />
	</node>
	<node lat="62.41190833466903" lon="6.555236106970368" id="-7793">
		<tag k="name" v="Prestestøa" />
		<tag k="natural" v="bay" />
		<tag k="ssr:stedsnr" v="217313" />
	</node>
	<node lat="62.39455555852985" lon="6.532461111397374" id="-7796">
		<tag k="name" v="Kliningsbergane" />
		<tag k="natural" v="cape" />
		<tag k="ssr:stedsnr" v="217272" />
	</node>
	<node lat="62.39321944833034" lon="6.422444444372783" id="-7801">
		<tag k="name" v="Dekne" />
		<tag k="natural" v="cape" />
		<tag k="ssr:stedsnr" v="218095" />
	</node>
	<node lat="62.447911114377156" lon="6.695011120017482" id="-7805">
		<tag k="name" v="Snagen" />
		<tag k="natural" v="cape" />
		<tag k="ssr:stedsnr" v="218128" />
	</node>
	<node lat="62.40114722346475" lon="6.504605557127666" id="-7809">
		<tag k="name" v="Hallvardflua" />
		<tag k="natural" v="shoal" />
		<tag k="place" v="locality" />
		<tag k="ssr:stedsnr" v="234592" />
	</node>
	<node lat="62.39772222013962" lon="6.5196527714351635" id="-7849">
		<tag k="name" v="Krammarneset" />
		<tag k="natural" v="cape" />
		<tag k="ssr:stedsnr" v="278314" />
	</node>
	<node lat="62.395136113865334" lon="6.427399991672457" id="-7911">
		<tag k="name" v="Storvika" />
		<tag k="natural" v="bay" />
		<tag k="ssr:stedsnr" v="475962" />
	</node>
	<node lat="62.36312222110334" lon="6.560530563332368" id="-7930">
		<tag k="name" v="Ytstevika" />
		<tag k="natural" v="bay" />
		<tag k="ssr:stedsnr" v="399202" />
	</node>
	<node lat="62.39726111541909" lon="6.443938884877541" id="-7944">
		<tag k="name" v="Sandneset" />
		<tag k="natural" v="cape" />
		<tag k="ssr:stedsnr" v="399282" />
	</node>
	<node lat="62.21109444115943" lon="6.51450278346544" id="-7950">
		<tag k="bay" v="fjord" />
		<tag k="name" v="Hjørundfjorden" />
=======
<osm generator="osmapis" version="0.6">
	<node id="-69290" lat="62.4159611111" lon="6.56730277224">
		<tag k="alt_name" v="Hatlevika" />
		<tag k="name" v="Haslevika" />
		<tag k="natural" v="bay" />
		<tag k="ssr:stedsnr" v="901309" />
	</node>
	<node id="-70057" lat="62.4362888915" lon="6.81714722384">
		<tag k="name" v="Bugneset" />
		<tag k="natural" v="cape" />
		<tag k="ssr:stedsnr" v="861643" />
	</node>
	<node id="-69097" lat="62.3917388916" lon="6.57489723121">
		<tag k="name" v="Haugbukta" />
		<tag k="natural" v="bay" />
		<tag k="ssr:stedsnr" v="719589" />
	</node>
	<node id="-69603" lat="62.3970916694" lon="6.58041945178">
		<tag k="name" v="Aureøyra" />
		<tag k="natural" v="beach" />
		<tag k="place" v="locality" />
		<tag k="ssr:stedsnr" v="339077" />
	</node>
	<node id="-69087" lat="62.4353083368" lon="6.82121666088">
		<tag k="name" v="Bugane" />
		<tag k="natural" v="bay" />
		<tag k="ssr:stedsnr" v="885250" />
	</node>
	<node id="-69076" lat="62.3995138856" lon="6.49807777156">
		<tag k="name" v="Blægjevika" />
>>>>>>> e1d4bc35ff8a6074a6f2e91616a996b547c36f15
		<tag k="natural" v="bay" />
		<tag k="ssr:stedsnr" v="436508" />
	</node>
<<<<<<< HEAD
	<node lat="62.41789166485748" lon="6.570738889385352" id="-7970">
		<tag k="name" v="Skagevika" />
		<tag k="natural" v="bay" />
		<tag k="ssr:stedsnr" v="460406" />
	</node>
	<node lat="62.393530555312815" lon="6.543097229491523" id="-7971">
		<tag k="name" v="Jarnesvika" />
=======
	<node id="-69581" lat="62.3580222182" lon="6.40296389855">
		<tag k="alt_name" v="Gjevenes" />
		<tag k="name" v="Gjeveneset" />
		<tag k="natural" v="cape" />
		<tag k="ssr:stedsnr" v="314438" />
	</node>
	<node id="-69068" lat="62.4347750008" lon="6.63808054655">
		<tag k="name" v="Sandvika" />
>>>>>>> e1d4bc35ff8a6074a6f2e91616a996b547c36f15
		<tag k="natural" v="bay" />
		<tag k="ssr:stedsnr" v="460414" />
	</node>
<<<<<<< HEAD
	<node lat="62.38378888717502" lon="6.566602782324749" id="-7978">
		<tag k="name" v="Vikaflua" />
		<tag k="natural" v="shoal" />
=======
	<node id="-69574" lat="62.4335111105" lon="6.75920000213">
		<tag k="name" v="Klokksstranda" />
		<tag k="natural" v="beach" />
		<tag k="old_name" v="Klokkstranda" />
>>>>>>> e1d4bc35ff8a6074a6f2e91616a996b547c36f15
		<tag k="place" v="locality" />
		<tag k="ssr:stedsnr" v="476613" />
	</node>
<<<<<<< HEAD
	<node lat="62.41047246803009" lon="6.548217659778627" id="-7985">
=======
	<node id="-69057" lat="62.410472468" lon="6.54821765978">
>>>>>>> e1d4bc35ff8a6074a6f2e91616a996b547c36f15
		<tag k="alt_name" v="Hav-Hanslaupet" />
		<tag k="name" v="Havhanslaupet" />
		<tag k="natural" v="cape" />
		<tag k="ssr:stedsnr" v="678120" />
	</node>
<<<<<<< HEAD
	<node lat="62.40486944751155" lon="6.566861103890308" id="-8018">
		<tag k="name" v="Lånavika" />
=======
	<node id="-69052" lat="62.3724388888" lon="6.57245000706">
		<tag k="loc_name" v="Jaktevika" />
		<tag k="name" v="Hjartevika" />
>>>>>>> e1d4bc35ff8a6074a6f2e91616a996b547c36f15
		<tag k="natural" v="bay" />
		<tag k="ssr:stedsnr" v="521211" />
	</node>
<<<<<<< HEAD
	<node lat="62.441094440309385" lon="6.664752786315307" id="-8025">
		<tag k="fixme" v="consider seamark:type=rock or natural=shoal" />
		<tag k="name" v="Skjeret" />
		<tag k="place" v="islet" />
		<tag k="ssr:stedsnr" v="521173" />
	</node>
	<node lat="62.440316666793215" lon="6.7434194428884515" id="-8069">
		<tag k="name" v="Søvikstranda" />
		<tag k="natural" v="beach" />
		<tag k="ssr:stedsnr" v="699241" />
	</node>
	<node lat="62.44646110840714" lon="6.690313893064917" id="-8073">
		<tag k="name" v="Raudbergane" />
		<tag k="natural" v="cape" />
		<tag k="ssr:stedsnr" v="702034" />
	</node>
	<node lat="62.35918333507338" lon="6.572805561592356" id="-8132">
		<tag k="name" v="Bytingsneset" />
=======
	<node id="-69036" lat="62.4003222188" lon="6.58059166204">
		<tag k="name" v="Ullavika" />
		<tag k="natural" v="bay" />
		<tag k="ssr:stedsnr" v="581083" />
	</node>
	<node id="-70059" lat="62.438288889" lon="6.63467778451">
		<tag k="name" v="Sandvikflua" />
		<tag k="natural" v="shoal" />
		<tag k="place" v="locality" />
		<tag k="ssr:stedsnr" v="961342" />
	</node>
	<node id="-69545" lat="62.3993416649" lon="6.48995277349">
		<tag k="fixme" v="consider seamark:type=rock or natural=shoal" />
		<tag k="name" v="Kjerringflua" />
		<tag k="place" v="islet" />
		<tag k="ssr:stedsnr" v="157235" />
	</node>
	<node id="-68762" lat="62.3977222201" lon="6.51965277144">
		<tag k="name" v="Krammarneset" />
		<tag k="natural" v="cape" />
		<tag k="ssr:stedsnr" v="278314" />
	</node>
	<node id="-69525" lat="62.3514055546" lon="6.58222777967">
		<tag k="name" v="Øygardsneset" />
>>>>>>> e1d4bc35ff8a6074a6f2e91616a996b547c36f15
		<tag k="natural" v="cape" />
		<tag k="ssr:stedsnr" v="642173" />
	</node>
<<<<<<< HEAD
	<node lat="62.3924805533542" lon="6.4196138979846324" id="-8149">
		<tag k="alt_name" v="Vettingsneset" />
		<tag k="name" v="Vellingsneset" />
=======
	<node id="-69523" lat="62.3581916641" lon="6.58396944167">
		<tag k="name" v="Fonnaneset" />
>>>>>>> e1d4bc35ff8a6074a6f2e91616a996b547c36f15
		<tag k="natural" v="cape" />
		<tag k="ssr:stedsnr" v="703024" />
	</node>
<<<<<<< HEAD
	<node lat="62.368941668643544" lon="6.554716658887303" id="-8151">
=======
	<node id="-69007" lat="62.3689416686" lon="6.55471665889">
>>>>>>> e1d4bc35ff8a6074a6f2e91616a996b547c36f15
		<tag k="name" v="Fonnavika" />
		<tag k="natural" v="bay" />
		<tag k="ssr:stedsnr" v="703209" />
	</node>
<<<<<<< HEAD
	<node lat="62.39173889161346" lon="6.574897231209426" id="-8166">
		<tag k="name" v="Haugbukta" />
=======
	<node id="-70018" lat="62.4336916662" lon="6.84071110346">
		<tag k="name" v="Veslehamna" />
>>>>>>> e1d4bc35ff8a6074a6f2e91616a996b547c36f15
		<tag k="natural" v="bay" />
		<tag k="ssr:stedsnr" v="719589" />
	</node>
<<<<<<< HEAD
	<node lat="62.39456388996025" lon="6.433002786153462" id="-8213">
		<tag k="name" v="Breivika" />
		<tag k="natural" v="bay" />
		<tag k="ssr:stedsnr" v="921119" />
	</node>
	<node lat="62.36453888826737" lon="6.410038886774176" id="-8238">
		<tag k="name" v="Åsnes" />
=======
	<node id="-70016" lat="62.3545000024" lon="6.40930555754">
		<tag k="name" v="Lippehammaren" />
>>>>>>> e1d4bc35ff8a6074a6f2e91616a996b547c36f15
		<tag k="natural" v="cape" />
		<tag k="ssr:stedsnr" v="824282" />
	</node>
<<<<<<< HEAD
	<node lat="62.35517500153601" lon="6.407980564232808" id="-8241">
=======
	<node id="-70015" lat="62.3551750015" lon="6.40798056423">
>>>>>>> e1d4bc35ff8a6074a6f2e91616a996b547c36f15
		<tag k="fixme" v="consider seamark:type=rock or natural=shoal" />
		<tag k="name" v="Skarvesteinen" />
		<tag k="place" v="islet" />
		<tag k="ssr:stedsnr" v="824295" />
	</node>
<<<<<<< HEAD
	<node lat="62.354500002351294" lon="6.409305557536788" id="-8242">
		<tag k="name" v="Lippehammaren" />
=======
	<node id="-70012" lat="62.3645388883" lon="6.41003888677">
		<tag k="name" v="Åsnes" />
>>>>>>> e1d4bc35ff8a6074a6f2e91616a996b547c36f15
		<tag k="natural" v="cape" />
		<tag k="ssr:stedsnr" v="824296" />
	</node>
<<<<<<< HEAD
	<node lat="62.37243888876075" lon="6.5724500070639555" id="-8264">
		<tag k="loc_name" v="Jaktevika" />
		<tag k="name" v="Hjartevika" />
		<tag k="natural" v="bay" />
		<tag k="ssr:stedsnr" v="880364" />
	</node>
	<node lat="62.435308336788395" lon="6.821216660879087" id="-8288">
		<tag k="name" v="Bugane" />
=======
	<node id="-68987" lat="62.3924805534" lon="6.41961389798">
		<tag k="alt_name" v="Vettingsneset" />
		<tag k="name" v="Vellingsneset" />
		<tag k="natural" v="cape" />
		<tag k="ssr:stedsnr" v="703024" />
	</node>
	<node id="-70004" lat="62.3986500035" lon="6.47276945153">
		<tag k="name" v="Tusvika" />
>>>>>>> e1d4bc35ff8a6074a6f2e91616a996b547c36f15
		<tag k="natural" v="bay" />
		<tag k="ssr:stedsnr" v="885250" />
	</node>
<<<<<<< HEAD
	<node lat="62.400594446931116" lon="6.482350007021786" id="-8290">
		<tag k="name" v="Våtmyrholmen" />
		<tag k="place" v="islet" />
		<tag k="ssr:stedsnr" v="885257" />
	</node>
	<node lat="62.41596111110086" lon="6.567302772241929" id="-8295">
		<tag k="alt_name" v="Hatlevika" />
		<tag k="name" v="Haslevika" />
=======
	<node id="-70003" lat="62.3986666652" lon="6.4449444503">
		<tag k="name" v="Holmane" />
		<tag k="place" v="islet" />
		<tag k="ssr:stedsnr" v="824118" />
	</node>
	<node id="-70001" lat="62.400769445" lon="6.45643611016">
		<tag k="alt_name" v="Vardvika" />
		<tag k="name" v="Vardevika" />
		<tag k="natural" v="bay" />
		<tag k="ssr:stedsnr" v="809167" />
	</node>
	<node id="-69996" lat="62.4317777772" lon="6.78500277066">
		<tag k="fixme" v="multiple name tags, choose one and add the other to alt_name" />
		<tag k="name" v="Ramstadbukta;Ramstadvika" />
>>>>>>> e1d4bc35ff8a6074a6f2e91616a996b547c36f15
		<tag k="natural" v="bay" />
		<tag k="ssr:stedsnr" v="901309" />
	</node>
<<<<<<< HEAD
	<node lat="62.412822225420314" lon="6.558280551140967" id="-8299">
		<tag k="name" v="Buvika" />
		<tag k="natural" v="bay" />
		<tag k="ssr:stedsnr" v="921111" />
	</node>
	<node lat="62.4382888890471" lon="6.63467778451002" id="-8335">
		<tag k="name" v="Sandvikflua" />
		<tag k="natural" v="shoal" />
		<tag k="place" v="locality" />
		<tag k="ssr:stedsnr" v="961342" />
	</node>
	<node lat="62.41818055604582" lon="6.570027779968696" id="-8356">
		<tag k="alt_name" v="Skagane" />
		<tag k="name" v="Skagen" />
=======
	<node id="-69483" lat="62.4081305523" lon="6.54737499603">
		<tag k="alt_name" v="Ørsneset" />
		<tag k="name" v="Aursneset" />
		<tag k="natural" v="cape" />
		<tag k="ssr:stedsnr" v="132094" />
	</node>
	<node id="-69476" lat="62.3933277738" lon="6.55325000672">
		<tag k="name" v="Jarnesflua" />
		<tag k="natural" v="shoal" />
		<tag k="place" v="locality" />
		<tag k="ssr:stedsnr" v="113569" />
	</node>
	<node id="-69475" lat="62.395175003" lon="6.43776943829">
		<tag k="name" v="Brudaberget" />
>>>>>>> e1d4bc35ff8a6074a6f2e91616a996b547c36f15
		<tag k="natural" v="cape" />
		<tag k="ssr:stedsnr" v="35086" />
	</node>
<<<<<<< HEAD
	<node lat="62.437277776962695" lon="6.641999994080413" id="-8380">
		<tag k="name" v="Sandvikneset" />
		<tag k="natural" v="cape" />
		<tag k="ssr:stedsnr" v="35158" />
	</node>
	<node lat="62.40089444038863" lon="6.450541665510043" id="-8387">
		<tag k="name" v="Vardneset" />
=======
	<node id="-69472" lat="62.3910555591" lon="6.57060833897">
		<tag k="name" v="Haugneset" />
>>>>>>> e1d4bc35ff8a6074a6f2e91616a996b547c36f15
		<tag k="natural" v="cape" />
		<tag k="ssr:stedsnr" v="35299" />
	</node>
<<<<<<< HEAD
	<node lat="62.38495833662843" lon="6.407730561156762" id="-8388">
		<tag k="name" v="Kursetneset" />
		<tag k="natural" v="cape" />
		<tag k="ssr:stedsnr" v="35306" />
	</node>
	<node lat="62.400847224513335" lon="6.504769438958225" id="-8394">
		<tag k="name" v="Hallvardsberget" />
		<tag k="natural" v="cape" />
		<tag k="ssr:stedsnr" v="35329" />
	</node>
	<node lat="62.44288610756231" lon="6.677286114084197" id="-8401">
		<tag k="name" v="Bjørnavikbukta" />
=======
	<node id="-69983" lat="62.4167500007" lon="6.56878610605">
		<tag k="alt_name" v="Rullesteinsvika" />
		<tag k="loc_name" v="Rundsteinsvika" />
		<tag k="name" v="Rundesteinsvika" />
		<tag k="natural" v="bay" />
		<tag k="ssr:stedsnr" v="799076" />
	</node>
	<node id="-69468" lat="62.4367083353" lon="6.64115833925">
		<tag k="name" v="Naustvika" />
>>>>>>> e1d4bc35ff8a6074a6f2e91616a996b547c36f15
		<tag k="natural" v="bay" />
		<tag k="ssr:stedsnr" v="51391" />
	</node>
	<node lat="62.426516667374315" lon="6.597516660840614" id="-8404">
		<tag k="alt_name" v="Storesveneset;Sveneset" />
		<tag k="name" v="Storsveneset" />
		<tag k="natural" v="cape" />
		<tag k="ssr:stedsnr" v="71059" />
	</node>
	<node lat="62.389688646869544" lon="6.57426489861643" id="-8406">
		<tag k="name" v="Klokkarhaugen" />
		<tag k="natural" v="cape" />
		<tag k="ssr:stedsnr" v="71101" />
	</node>
<<<<<<< HEAD
	<node lat="62.350491668995474" lon="6.579508329940722" id="-8448">
=======
	<node id="-69456" lat="62.350491669" lon="6.57950832994">
>>>>>>> e1d4bc35ff8a6074a6f2e91616a996b547c36f15
		<tag k="fixme" v="consider seamark:type=rock or natural=shoal" />
		<tag k="name" v="Revet" />
		<tag k="place" v="islet" />
		<tag k="ssr:stedsnr" v="96193" />
	</node>
<<<<<<< HEAD
	<node lat="62.3544027804833" lon="6.586858328511582" id="-8450">
		<tag k="name" v="Øygardsvika" />
		<tag k="natural" v="bay" />
		<tag k="ssr:stedsnr" v="96202" />
	</node>
	<node lat="62.38326666827529" lon="6.55591943507522" id="-8461">
		<tag k="name" v="Ikornnesvika" />
=======
	<node id="-69455" lat="62.3466999966" lon="6.57838056034">
		<tag k="name" v="Hylen" />
		<tag k="place" v="locality" />
		<tag k="ssr:stedsnr" v="96192" />
	</node>
	<node id="-69440" lat="62.416308333" lon="6.56760278671">
		<tag k="name" v="Hasselvika" />
>>>>>>> e1d4bc35ff8a6074a6f2e91616a996b547c36f15
		<tag k="natural" v="bay" />
		<tag k="ssr:stedsnr" v="96340" />
	</node>
	<node lat="62.39105555911464" lon="6.5706083389727565" id="-8462">
		<tag k="name" v="Haugneset" />
		<tag k="natural" v="cape" />
		<tag k="ssr:stedsnr" v="96341" />
	</node>
<<<<<<< HEAD
	<node lat="62.395175003010664" lon="6.437769438286144" id="-8466">
		<tag k="name" v="Brudaberget" />
		<tag k="natural" v="cape" />
		<tag k="ssr:stedsnr" v="111947" />
	</node>
	<node lat="62.40813055228268" lon="6.54737499603493" id="-8471">
		<tag k="alt_name" v="Ørsneset" />
		<tag k="name" v="Aursneset" />
		<tag k="natural" v="cape" />
		<tag k="ssr:stedsnr" v="132094" />
	</node>
	<node lat="62.39934166494655" lon="6.4899527734898745" id="-8496">
=======
	<node id="-69950" lat="62.3997055589" lon="6.44536389255">
>>>>>>> e1d4bc35ff8a6074a6f2e91616a996b547c36f15
		<tag k="fixme" v="consider seamark:type=rock or natural=shoal" />
		<tag k="name" v="Kjerringflua" />
		<tag k="place" v="islet" />
		<tag k="ssr:stedsnr" v="157235" />
	</node>
<<<<<<< HEAD
	<node lat="62.37008055857755" lon="6.412083336648872" id="-8532">
		<tag k="name" v="Hundeidvika" />
		<tag k="natural" v="bay" />
		<tag k="ssr:stedsnr" v="193408" />
	</node>
	<node lat="62.43351111051376" lon="6.759200002133105" id="-8539">
		<tag k="name" v="Klokksstranda" />
		<tag k="natural" v="beach" />
		<tag k="old_name" v="Klokkstranda" />
		<tag k="ssr:stedsnr" v="193663" />
	</node>
	<node lat="62.43433055861203" lon="6.831397218957434" id="-8545">
		<tag k="name" v="Bugane" />
		<tag k="natural" v="bay" />
		<tag k="ssr:stedsnr" v="214221" />
	</node>
	<node lat="62.344091664389865" lon="6.58511110179939" id="-8547">
		<tag k="name" v="Sandneset" />
=======
	<node id="-68925" lat="62.4491027749" lon="6.70029999093">
		<tag k="name" v="Jogardsneset" />
		<tag k="natural" v="cape" />
		<tag k="ssr:stedsnr" v="658358" />
	</node>
	<node id="-68924" lat="62.3976777791" lon="6.44258888457">
		<tag k="name" v="Litleflua" />
		<tag k="natural" v="shoal" />
		<tag k="place" v="locality" />
		<tag k="ssr:stedsnr" v="657944" />
	</node>
	<node id="-69172" lat="62.4026916708" lon="6.44758055671">
		<tag k="name" v="Vardflua" />
		<tag k="natural" v="shoal" />
		<tag k="place" v="locality" />
		<tag k="ssr:stedsnr" v="839969" />
	</node>
	<node id="-69417" lat="62.4265166674" lon="6.59751666084">
		<tag k="alt_name" v="Storesveneset;Sveneset" />
		<tag k="name" v="Storsveneset" />
>>>>>>> e1d4bc35ff8a6074a6f2e91616a996b547c36f15
		<tag k="natural" v="cape" />
		<tag k="ssr:stedsnr" v="217147" />
	</node>
<<<<<<< HEAD
	<node lat="62.33500833444677" lon="6.590219440652263" id="-8548">
		<tag k="name" v="Gjerdehylen" />
=======
	<node id="-69416" lat="62.4428861076" lon="6.67728611408">
		<tag k="name" v="Bjørnavikbukta" />
>>>>>>> e1d4bc35ff8a6074a6f2e91616a996b547c36f15
		<tag k="natural" v="bay" />
		<tag k="ssr:stedsnr" v="217148" />
	</node>
<<<<<<< HEAD
	<node lat="62.43339444115748" lon="6.7670166742743945" id="-8589">
		<tag k="name" v="Håneset" />
		<tag k="natural" v="cape" />
		<tag k="ssr:stedsnr" v="218134" />
	</node>
	<node lat="62.44939722578563" lon="6.741069450317488" id="-8610">
		<tag k="name" v="Geitvika" />
=======
	<node id="-68899" lat="62.3695472236" lon="6.55752777878">
		<tag k="bay" v="fjord" />
		<tag k="name" v="Sykkylvsfjorden" />
>>>>>>> e1d4bc35ff8a6074a6f2e91616a996b547c36f15
		<tag k="natural" v="bay" />
		<tag k="ssr:stedsnr" v="278154" />
	</node>
<<<<<<< HEAD
	<node lat="62.35431111540845" lon="6.577452775736583" id="-8624">
		<tag k="name" v="Jekteholå" />
=======
	<node id="-69922" lat="62.4314749995" lon="6.61102778205">
		<tag k="name" v="Kyrkjesteinodden" />
>>>>>>> e1d4bc35ff8a6074a6f2e91616a996b547c36f15
		<tag k="natural" v="cape" />
		<tag k="ssr:stedsnr" v="278195" />
	</node>
<<<<<<< HEAD
	<node lat="62.358022218210685" lon="6.402963898546589" id="-8633">
		<tag k="alt_name" v="Gjevenes" />
		<tag k="name" v="Gjeveneset" />
=======
	<node id="-69405" lat="62.4008472245" lon="6.50476943896">
		<tag k="name" v="Hallvardsberget" />
>>>>>>> e1d4bc35ff8a6074a6f2e91616a996b547c36f15
		<tag k="natural" v="cape" />
		<tag k="ssr:stedsnr" v="314438" />
	</node>
<<<<<<< HEAD
	<node lat="62.39709166937082" lon="6.5804194517798384" id="-8655">
		<tag k="name" v="Aureøyra" />
		<tag k="natural" v="beach" />
		<tag k="ssr:stedsnr" v="339077" />
	</node>
	<node lat="62.39749166727773" lon="6.52159999868527" id="-8673">
		<tag k="name" v="Nesholmen" />
		<tag k="place" v="islet" />
		<tag k="ssr:stedsnr" v="339266" />
	</node>
	<node lat="62.39976389245142" lon="6.510091658466271" id="-8683">
		<tag k="name" v="Tangen" />
		<tag k="natural" v="cape" />
		<tag k="ssr:stedsnr" v="339240" />
	</node>
	<node lat="62.38103610843372" lon="6.557119438342153" id="-8684">
		<tag k="name" v="Helleneset" />
=======
	<node id="-68891" lat="62.3837888872" lon="6.56660278232">
		<tag k="name" v="Vikaflua" />
		<tag k="natural" v="shoal" />
		<tag k="place" v="locality" />
		<tag k="ssr:stedsnr" v="476613" />
	</node>
	<node id="-68890" lat="62.3951361139" lon="6.42739999167">
		<tag k="name" v="Storvika" />
		<tag k="natural" v="bay" />
		<tag k="ssr:stedsnr" v="475962" />
	</node>
	<node id="-69913" lat="62.4290416691" lon="6.60426665987">
		<tag k="name" v="Kyrkjesteinvika" />
		<tag k="natural" v="bay" />
		<tag k="ssr:stedsnr" v="642237" />
	</node>
	<node id="-69398" lat="62.3849583366" lon="6.40773056116">
		<tag k="name" v="Kursetneset" />
>>>>>>> e1d4bc35ff8a6074a6f2e91616a996b547c36f15
		<tag k="natural" v="cape" />
		<tag k="ssr:stedsnr" v="339323" />
	</node>
<<<<<<< HEAD
	<node lat="62.42531666346756" lon="6.593611105692131" id="-8728">
		<tag k="name" v="Veslesveneset" />
=======
	<node id="-69397" lat="62.4008944404" lon="6.45054166551">
		<tag k="name" v="Vardneset" />
>>>>>>> e1d4bc35ff8a6074a6f2e91616a996b547c36f15
		<tag k="natural" v="cape" />
		<tag k="ssr:stedsnr" v="399352" />
	</node>
<<<<<<< HEAD
	<node lat="62.40075555292379" lon="6.500105561287144" id="-8733">
		<tag k="alt_name" v="Bleieneset" />
		<tag k="name" v="Blægjeneset" />
		<tag k="natural" v="cape" />
		<tag k="ssr:stedsnr" v="448793" />
	</node>
	<node lat="62.36954722362857" lon="6.557527778784911" id="-8752">
		<tag k="bay" v="fjord" />
		<tag k="name" v="Sykkylvsfjorden" />
=======
	<node id="-68880" lat="62.3935305553" lon="6.54309722949">
		<tag k="name" v="Jarnesvika" />
>>>>>>> e1d4bc35ff8a6074a6f2e91616a996b547c36f15
		<tag k="natural" v="bay" />
		<tag k="ssr:stedsnr" v="496435" />
	</node>
<<<<<<< HEAD
	<node lat="62.36786389125311" lon="6.569477779997403" id="-8765">
		<tag k="name" v="Grønvika" />
=======
	<node id="-68879" lat="62.4178916649" lon="6.57073888939">
		<tag k="name" v="Skagevika" />
>>>>>>> e1d4bc35ff8a6074a6f2e91616a996b547c36f15
		<tag k="natural" v="bay" />
		<tag k="ssr:stedsnr" v="521053" />
	</node>
<<<<<<< HEAD
	<node lat="62.448080552704106" lon="6.7477777859452575" id="-8799">
		<tag k="alt_name" v="Velteneset" />
		<tag k="name" v="Vindsneset" />
		<tag k="natural" v="cape" />
		<tag k="ssr:stedsnr" v="557331" />
	</node>
	<node lat="62.40032221884664" lon="6.580591662042326" id="-8814">
		<tag k="name" v="Ullavika" />
=======
	<node id="-69898" lat="62.3591833351" lon="6.57280556159">
		<tag k="name" v="Bytingsneset" />
		<tag k="natural" v="cape" />
		<tag k="ssr:stedsnr" v="642173" />
	</node>
	<node id="-70035" lat="62.3624666686" lon="6.56364721592">
		<tag k="name" v="Åkrevika" />
		<tag k="natural" v="bay" />
		<tag k="ssr:stedsnr" v="825041" />
	</node>
	<node id="-69364" lat="62.4377916625" lon="6.64590278745">
		<tag k="name" v="Storbåtvika" />
>>>>>>> e1d4bc35ff8a6074a6f2e91616a996b547c36f15
		<tag k="natural" v="bay" />
		<tag k="ssr:stedsnr" v="581083" />
	</node>
<<<<<<< HEAD
	<node lat="62.372291670940896" lon="6.5533027783319024" id="-8835">
		<tag k="name" v="Stavestranda" />
		<tag k="natural" v="beach" />
		<tag k="ssr:stedsnr" v="581213" />
	</node>
	<node lat="62.431474999455354" lon="6.611027782053258" id="-8857">
		<tag k="name" v="Kyrkjesteinodden" />
		<tag k="natural" v="cape" />
		<tag k="ssr:stedsnr" v="642289" />
	</node>
	<node lat="62.3564972209315" lon="6.576119443900369" id="-8873">
=======
	<node id="-69363" lat="62.437277777" lon="6.64199999408">
		<tag k="name" v="Sandvikneset" />
		<tag k="natural" v="cape" />
		<tag k="ssr:stedsnr" v="35158" />
	</node>
	<node id="-69358" lat="62.396819441" lon="6.52383333079">
		<tag k="name" v="Storvika" />
		<tag k="natural" v="bay" />
		<tag k="ssr:stedsnr" v="35115" />
	</node>
	<node id="-69869" lat="62.3564972209" lon="6.5761194439">
>>>>>>> e1d4bc35ff8a6074a6f2e91616a996b547c36f15
		<tag k="name" v="Åkrevika" />
		<tag k="natural" v="bay" />
		<tag k="ssr:stedsnr" v="642065" />
	</node>
<<<<<<< HEAD
	<node lat="62.429041669108855" lon="6.60426665986867" id="-8889">
		<tag k="name" v="Kyrkjesteinvika" />
		<tag k="natural" v="bay" />
		<tag k="ssr:stedsnr" v="642237" />
	</node>
	<node lat="62.39767777913226" lon="6.442588884568888" id="-8902">
		<tag k="name" v="Litleflua" />
		<tag k="natural" v="shoal" />
		<tag k="place" v="locality" />
		<tag k="ssr:stedsnr" v="657944" />
	</node>
	<node lat="62.449102774898655" lon="6.700299990933764" id="-8903">
		<tag k="name" v="Jogardsneset" />
=======
	<node id="-69356" lat="62.418180556" lon="6.57002777997">
		<tag k="alt_name" v="Skagane" />
		<tag k="name" v="Skagen" />
>>>>>>> e1d4bc35ff8a6074a6f2e91616a996b547c36f15
		<tag k="natural" v="cape" />
		<tag k="ssr:stedsnr" v="658358" />
	</node>
<<<<<<< HEAD
	<node lat="62.39970555887762" lon="6.4453638925512085" id="-8927">
		<tag k="fixme" v="consider seamark:type=rock or natural=shoal" />
		<tag k="name" v="Kråka" />
		<tag k="place" v="islet" />
		<tag k="ssr:stedsnr" v="763101" />
	</node>
	<node lat="62.41675000067304" lon="6.568786106051325" id="-8948">
		<tag k="alt_name" v="Rullesteinsvika" />
		<tag k="loc_name" v="Rundsteinsvika" />
		<tag k="name" v="Rundesteinsvika" />
		<tag k="natural" v="bay" />
		<tag k="ssr:stedsnr" v="799076" />
	</node>
	<node lat="62.43177777723104" lon="6.785002770655281" id="-8962">
		<tag k="fixme" v="multiple name tags, choose one and add the other to alt_name" />
		<tag k="name" v="Ramstadbukta;Ramstadvika" />
		<tag k="natural" v="bay" />
		<tag k="ssr:stedsnr" v="800669" />
	</node>
	<node lat="62.400769444951585" lon="6.4564361101572" id="-8966">
		<tag k="alt_name" v="Vardvika" />
		<tag k="name" v="Vardevika" />
		<tag k="natural" v="bay" />
		<tag k="ssr:stedsnr" v="809167" />
	</node>
	<node lat="62.43369166619177" lon="6.840711103463554" id="-8969">
		<tag k="name" v="Veslehamna" />
		<tag k="natural" v="bay" />
		<tag k="ssr:stedsnr" v="824039" />
	</node>
	<node lat="62.43179722529041" lon="6.793211101371512" id="-8974">
		<tag k="name" v="Morteberget" />
		<tag k="natural" v="cape" />
		<tag k="ssr:stedsnr" v="824064" />
	</node>
	<node lat="62.39598611126428" lon="6.441447230896342" id="-8976">
		<tag k="name" v="Osneset" />
=======
	<node id="-68818" lat="62.3997527813" lon="6.51602778223">
		<tag k="name" v="Jodjupet" />
		<tag k="place" v="locality" />
		<tag k="ssr:stedsnr" v="278103" />
	</node>
	<node id="-68808" lat="62.3632833375" lon="6.57876110826">
		<tag k="name" v="Tjønesstranda" />
		<tag k="natural" v="beach" />
		<tag k="place" v="locality" />
		<tag k="ssr:stedsnr" v="254367" />
	</node>
	<node id="-68807" lat="62.4007555529" lon="6.50010556129">
		<tag k="alt_name" v="Bleieneset" />
		<tag k="name" v="Blægjeneset" />
>>>>>>> e1d4bc35ff8a6074a6f2e91616a996b547c36f15
		<tag k="natural" v="cape" />
		<tag k="ssr:stedsnr" v="824117" />
	</node>
<<<<<<< HEAD
	<node lat="62.39866666516563" lon="6.444944450298089" id="-8977">
		<tag k="name" v="Holmane" />
		<tag k="place" v="islet" />
		<tag k="ssr:stedsnr" v="824118" />
	</node>
	<node lat="62.39865000350346" lon="6.472769451533044" id="-8978">
		<tag k="name" v="Tusvika" />
		<tag k="natural" v="bay" />
		<tag k="ssr:stedsnr" v="824120" />
	</node>
	<node lat="62.36246666860246" lon="6.563647215922104" id="-9001">
		<tag k="name" v="Åkrevika" />
		<tag k="natural" v="bay" />
		<tag k="ssr:stedsnr" v="825041" />
	</node>
	<node lat="62.402691670761975" lon="6.447580556713142" id="-9004">
		<tag k="name" v="Vardflua" />
		<tag k="natural" v="shoal" />
=======
	<node id="-69829" lat="62.3722916709" lon="6.55330277833">
		<tag k="name" v="Stavestranda" />
		<tag k="natural" v="beach" />
>>>>>>> e1d4bc35ff8a6074a6f2e91616a996b547c36f15
		<tag k="place" v="locality" />
		<tag k="ssr:stedsnr" v="839969" />
	</node>
<<<<<<< HEAD
	<node lat="62.4014888922551" lon="6.467777773627823" id="-9005">
		<tag k="name" v="Litleflua" />
		<tag k="natural" v="shoal" />
		<tag k="place" v="locality" />
		<tag k="ssr:stedsnr" v="840964" />
	</node>
	<node lat="62.436288891530914" lon="6.8171472238395685" id="-9025">
		<tag k="name" v="Bugneset" />
		<tag k="natural" v="cape" />
		<tag k="ssr:stedsnr" v="861643" />
	</node>
	<node lat="62.434775000794474" lon="6.638080546547845" id="-9038">
		<tag k="name" v="Sandvika" />
=======
	<node id="-69302" lat="62.39456389" lon="6.43300278615">
		<tag k="name" v="Breivika" />
		<tag k="natural" v="bay" />
		<tag k="ssr:stedsnr" v="921119" />
	</node>
	<node id="-69299" lat="62.4128222254" lon="6.55828055114">
		<tag k="name" v="Buvika" />
		<tag k="natural" v="bay" />
		<tag k="ssr:stedsnr" v="921111" />
	</node>
	<node id="-69294" lat="62.3945555585" lon="6.5324611114">
		<tag k="name" v="Kliningsbergane" />
		<tag k="natural" v="cape" />
		<tag k="ssr:stedsnr" v="217272" />
	</node>
	<node id="-68778" lat="62.3700805586" lon="6.41208333665">
		<tag k="name" v="Hundeidvika" />
		<tag k="natural" v="bay" />
		<tag k="ssr:stedsnr" v="193408" />
	</node>
	<node id="-68977" lat="62.4464611084" lon="6.69031389306">
		<tag k="name" v="Raudbergane" />
		<tag k="natural" v="cape" />
		<tag k="ssr:stedsnr" v="702034" />
	</node>
	<node id="-69281" lat="62.3350083344" lon="6.59021944065">
		<tag k="name" v="Gjerdehylen" />
		<tag k="natural" v="bay" />
		<tag k="ssr:stedsnr" v="217148" />
	</node>
	<node id="-69280" lat="62.3440916644" lon="6.5851111018">
		<tag k="name" v="Sandneset" />
		<tag k="natural" v="cape" />
		<tag k="ssr:stedsnr" v="217147" />
	</node>
	<node id="-69790" lat="62.4480805527" lon="6.74777778595">
		<tag k="alt_name" v="Velteneset" />
		<tag k="name" v="Vindsneset" />
		<tag k="natural" v="cape" />
		<tag k="ssr:stedsnr" v="557331" />
	</node>
	<node id="-69274" lat="62.4005944469" lon="6.48235000702">
		<tag k="name" v="Våtmyrholmen" />
		<tag k="place" v="islet" />
		<tag k="ssr:stedsnr" v="885257" />
	</node>
	<node id="-69270" lat="62.3932083355" lon="6.54606944824">
		<tag k="name" v="Daveneset" />
		<tag k="natural" v="cape" />
		<tag k="ssr:stedsnr" v="885361" />
	</node>
	<node id="-68753" lat="62.3543111154" lon="6.57745277574">
		<tag k="name" v="Jekteholå" />
		<tag k="natural" v="cape" />
		<tag k="ssr:stedsnr" v="278195" />
	</node>
	<node id="-69773" lat="62.4048694475" lon="6.56686110389">
		<tag k="name" v="Lånavika" />
		<tag k="natural" v="bay" />
		<tag k="ssr:stedsnr" v="521211" />
	</node>
	<node id="-68740" lat="62.4493972258" lon="6.74106945032">
		<tag k="name" v="Geitvika" />
		<tag k="natural" v="bay" />
		<tag k="ssr:stedsnr" v="278154" />
	</node>
	<node id="-69763" lat="62.4410944403" lon="6.66475278632">
		<tag k="fixme" v="consider seamark:type=rock or natural=shoal" />
		<tag k="name" v="Skjeret" />
		<tag k="place" v="islet" />
		<tag k="ssr:stedsnr" v="521173" />
	</node>
	<node id="-69741" lat="62.3678638913" lon="6.56947778">
		<tag k="name" v="Grønvika" />
		<tag k="natural" v="bay" />
		<tag k="ssr:stedsnr" v="521053" />
	</node>
	<node id="-68704" lat="62.3544027805" lon="6.58685832851">
		<tag k="name" v="Øygardsvika" />
		<tag k="natural" v="bay" />
		<tag k="ssr:stedsnr" v="96202" />
	</node>
	<node id="-69727" lat="62.2110944412" lon="6.51450278347">
		<tag k="bay" v="fjord" />
		<tag k="name" v="Hjørundfjorden" />
		<tag k="natural" v="bay" />
		<tag k="ssr:stedsnr" v="436508" />
	</node>
	<node id="-68698" lat="62.3716888886" lon="6.57124166615">
		<tag k="name" v="Skjerholmen" />
		<tag k="natural" v="cape" />
		<tag k="ssr:stedsnr" v="96170" />
	</node>
	<node id="-68964" lat="62.4403166668" lon="6.74341944289">
		<tag k="name" v="Søvikstranda" />
		<tag k="natural" v="beach" />
		<tag k="place" v="locality" />
		<tag k="ssr:stedsnr" v="699241" />
	</node>
	<node id="-69199" lat="62.3518388877" lon="6.57870277828">
		<tag k="fixme" v="consider seamark:type=rock or natural=shoal" />
		<tag k="name" v="Revet" />
		<tag k="place" v="islet" />
		<tag k="ssr:stedsnr" v="946050" />
	</node>
	<node id="-69706" lat="62.4253166635" lon="6.59361110569">
		<tag k="name" v="Veslesveneset" />
		<tag k="natural" v="cape" />
		<tag k="ssr:stedsnr" v="399352" />
	</node>
	<node id="-68790" lat="62.4119083347" lon="6.55523610697">
		<tag k="name" v="Prestestøa" />
>>>>>>> e1d4bc35ff8a6074a6f2e91616a996b547c36f15
		<tag k="natural" v="bay" />
		<tag k="ssr:stedsnr" v="885073" />
	</node>
<<<<<<< HEAD
	<node lat="62.39951388556984" lon="6.498077771564087" id="-9056">
		<tag k="name" v="Blægjevika" />
=======
	<node id="-69696" lat="62.3972611154" lon="6.44393888488">
		<tag k="name" v="Sandneset" />
		<tag k="natural" v="cape" />
		<tag k="ssr:stedsnr" v="399282" />
	</node>
	<node id="-68671" lat="62.3896886469" lon="6.57426489862">
		<tag k="name" v="Klokkarhaugen" />
		<tag k="natural" v="cape" />
		<tag k="ssr:stedsnr" v="71101" />
	</node>
	<node id="-68669" lat="62.4011472235" lon="6.50460555713">
		<tag k="name" v="Hallvardflua" />
		<tag k="natural" v="shoal" />
		<tag k="place" v="locality" />
		<tag k="ssr:stedsnr" v="234592" />
	</node>
	<node id="-68668" lat="62.3971638875" lon="6.4350444477">
		<tag k="name" v="Breivikskallen" />
		<tag k="natural" v="shoal" />
		<tag k="place" v="locality" />
		<tag k="ssr:stedsnr" v="232947" />
	</node>
	<node id="-69179" lat="62.4355194452" lon="6.7494222162">
		<tag k="name" v="Søvikbukta" />
		<tag k="natural" v="bay" />
		<tag k="ssr:stedsnr" v="942235" />
	</node>
	<node id="-69471" lat="62.3832666683" lon="6.55591943508">
		<tag k="name" v="Ikornnesvika" />
		<tag k="natural" v="bay" />
		<tag k="ssr:stedsnr" v="96340" />
	</node>
	<node id="-69174" lat="62.4014888923" lon="6.46777777363">
		<tag k="name" v="Litleflua" />
		<tag k="natural" v="shoal" />
		<tag k="place" v="locality" />
		<tag k="ssr:stedsnr" v="840964" />
	</node>
	<node id="-69684" lat="62.3631222211" lon="6.56053056333">
		<tag k="name" v="Ytstevika" />
		<tag k="natural" v="bay" />
		<tag k="ssr:stedsnr" v="399202" />
	</node>
	<node id="-68659" lat="62.4331027739" lon="6.85479443594">
		<tag k="name" v="Kjeflåneset" />
		<tag k="natural" v="cape" />
		<tag k="ssr:stedsnr" v="10701" />
	</node>
	<node id="-68787" lat="62.4343305586" lon="6.83139721896">
		<tag k="name" v="Bugane" />
>>>>>>> e1d4bc35ff8a6074a6f2e91616a996b547c36f15
		<tag k="natural" v="bay" />
		<tag k="ssr:stedsnr" v="885280" />
	</node>
<<<<<<< HEAD
	<node lat="62.39320833545983" lon="6.546069448240046" id="-9060">
		<tag k="name" v="Daveneset" />
		<tag k="natural" v="cape" />
		<tag k="ssr:stedsnr" v="885361" />
	</node>
	<node lat="62.43551944518141" lon="6.749422216204217" id="-9066">
		<tag k="name" v="Søvikbukta" />
		<tag k="natural" v="bay" />
		<tag k="ssr:stedsnr" v="942235" />
	</node>
	<node lat="62.351838887721556" lon="6.578702778278641" id="-9073">
		<tag k="fixme" v="consider seamark:type=rock or natural=shoal" />
		<tag k="name" v="Revet" />
		<tag k="place" v="islet" />
		<tag k="ssr:stedsnr" v="946050" />
=======
	<node id="-68646" lat="62.4333944412" lon="6.76701667427">
		<tag k="name" v="Håneset" />
		<tag k="natural" v="cape" />
		<tag k="ssr:stedsnr" v="218134" />
	</node>
	<node id="-68645" lat="62.4479111144" lon="6.69501112002">
		<tag k="name" v="Snagen" />
		<tag k="natural" v="cape" />
		<tag k="ssr:stedsnr" v="218128" />
	</node>
	<node id="-69150" lat="62.3959861113" lon="6.4414472309">
		<tag k="name" v="Osneset" />
		<tag k="natural" v="cape" />
		<tag k="ssr:stedsnr" v="824117" />
	</node>
	<node id="-68637" lat="62.3932194483" lon="6.42244444437">
		<tag k="name" v="Dekne" />
		<tag k="natural" v="cape" />
		<tag k="ssr:stedsnr" v="218095" />
	</node>
	<node id="-69148" lat="62.4317972253" lon="6.79321110137">
		<tag k="name" v="Morteberget" />
		<tag k="natural" v="cape" />
		<tag k="ssr:stedsnr" v="824064" />
	</node>
	<node id="-69644" lat="62.3810361084" lon="6.55711943834">
		<tag k="name" v="Helleneset" />
		<tag k="natural" v="cape" />
		<tag k="ssr:stedsnr" v="339323" />
	</node>
	<node id="-69638" lat="62.3974916673" lon="6.52159999869">
		<tag k="name" v="Nesholmen" />
		<tag k="place" v="islet" />
		<tag k="ssr:stedsnr" v="339266" />
	</node>
	<node id="-69634" lat="62.3997638925" lon="6.51009165847">
		<tag k="name" v="Tangen" />
		<tag k="natural" v="cape" />
		<tag k="ssr:stedsnr" v="339240" />
>>>>>>> e1d4bc35ff8a6074a6f2e91616a996b547c36f15
	</node>
</osm>
