<?xml version="1.0" encoding="UTF-8"?>
<osm generator="osmapis" version="0.6">
	<node id="-35840" lat="60.009011114" lon="10.9171666611">
		<tag k="name" v="Høgda" />
		<tag k="place" v="locality" />
		<tag k="ssr:stedsnr" v="473577" />
	</node>
	<node id="-35838" lat="60.1346749991" lon="10.8073972287">
		<tag k="name" v="Slåttenhus" />
		<tag k="place" v="locality" />
		<tag k="ssr:stedsnr" v="405798" />
	</node>
	<node id="-36206" lat="60.0240111073" lon="10.8997111144">
		<tag k="name" v="Kjulsli" />
		<tag k="place" v="locality" />
		<tag k="ssr:stedsnr" v="595600" />
	</node>
	<node id="-36072" lat="60.0032694468" lon="10.982441671">
		<tag k="name" v="Flotten" />
		<tag k="place" v="locality" />
		<tag k="ssr:stedsnr" v="223378" />
	</node>
	<node id="-36191" lat="60.0624305598" lon="10.8868111064">
		<tag k="name" v="Nordbydalen" />
		<tag k="place" v="locality" />
		<tag k="ssr:stedsnr" v="587315" />
	</node>
	<node id="-36318" lat="60.0477472189" lon="10.9168444455">
		<tag k="name" v="Sleppen" />
		<tag k="place" v="locality" />
		<tag k="ssr:stedsnr" v="769285" />
	</node>
	<node id="-35931" lat="60.0189972264" lon="10.8979888847">
		<tag k="name" v="Sandbekken" />
		<tag k="place" v="locality" />
		<tag k="ssr:stedsnr" v="49657" />
	</node>
	<node id="-35927" lat="60.0143611078" lon="10.9186055611">
		<tag k="name" v="Kjonelia" />
		<tag k="place" v="locality" />
		<tag k="ssr:stedsnr" v="48550" />
	</node>
	<node id="-36309" lat="60.0434777742" lon="10.9027138955">
		<tag k="name" v="Høybråtan" />
		<tag k="place" v="locality" />
		<tag k="ssr:stedsnr" v="767303" />
	</node>
	<node id="-36308" lat="60.1056666651" lon="10.8768333289">
		<tag k="alt_name" v="Hakadal" />
		<tag k="amenity" v="place_of_worship" />
		<tag k="denomination" v="lutheran" />
		<tag k="name" v="Hakadal kirke" />
		<tag k="religion" v="christian" />
		<tag k="ssr:stedsnr" v="734637" />
	</node>
	<node id="-35920" lat="60.0772388925" lon="10.8751444429">
		<tag k="name" v="Bikkjehølet" />
		<tag k="place" v="locality" />
		<tag k="ssr:stedsnr" v="41414" />
	</node>
	<node id="-36024" lat="60.1339833293" lon="10.8119861129">
		<tag k="name" v="Vestre Mork" />
		<tag k="place" v="locality" />
		<tag k="ssr:stedsnr" v="162802" />
	</node>
	<node id="-36430" lat="60.0120194473" lon="10.9491305503">
		<tag k="name" v="Tajet" />
		<tag k="place" v="locality" />
		<tag k="ssr:stedsnr" v="951577" />
	</node>
	<node id="-36043" lat="60.0089999969" lon="10.9461361179">
		<tag k="alt_name" v="Nittedal" />
		<tag k="amenity" v="place_of_worship" />
		<tag k="denomination" v="lutheran" />
		<tag k="name" v="Nittedal kirke" />
		<tag k="religion" v="christian" />
		<tag k="ssr:stedsnr" v="188399" />
	</node>
	<node id="-35914" lat="60.1136638889" lon="10.8439611191">
		<tag k="name" v="Trebyen" />
		<tag k="place" v="locality" />
		<tag k="ssr:stedsnr" v="41158" />
	</node>
	<node id="-35783" lat="60.1082611153" lon="10.7881916609">
		<tag k="name" v="Karidalshytta" />
		<tag k="place" v="locality" />
		<tag k="ssr:stedsnr" v="344109" />
	</node>
	<node id="-35778" lat="60.0130914403" lon="10.867868884">
		<tag k="alt_name" v="Lillomarkkapellet;Lillokapellet" />
		<tag k="amenity" v="place_of_worship" />
		<tag k="denomination" v="lutheran" />
		<tag k="name" v="Lillomarkskapellet" />
		<tag k="religion" v="christian" />
		<tag k="ssr:stedsnr" v="126365" />
	</node>
	<node id="-36161" lat="60.0103222196" lon="10.9308750074">
		<tag k="name" v="Saga" />
		<tag k="place" v="locality" />
		<tag k="ssr:stedsnr" v="534597" />
	</node>
	<node id="-36288" lat="60.0183361129" lon="10.9097027844">
		<tag k="name" v="Steinrud" />
		<tag k="place" v="locality" />
		<tag k="ssr:stedsnr" v="716631" />
	</node>
	<node id="-35872" lat="60.0435297861" lon="10.8798550338">
		<tag k="amenity" v="place_of_worship" />
		<tag k="denomination" v="lutheran" />
		<tag k="name" v="Rotnes kirke" />
		<tag k="religion" v="christian" />
		<tag k="ssr:stedsnr" v="990998" />
	</node>
	<node id="-36286" lat="60.1172083367" lon="10.8558749979">
		<tag k="name" v="Glemberg" />
		<tag k="place" v="locality" />
		<tag k="ssr:stedsnr" v="708564" />
	</node>
	<node id="-36280" lat="60.0819250015" lon="10.9091722306">
		<tag k="name" v="Lykkebergskogen" />
		<tag k="place" v="locality" />
		<tag k="ssr:stedsnr" v="708138" />
	</node>
	<node id="-36275" lat="60.1163944488" lon="10.8278833335">
		<tag k="cemetery" v="grave" />
		<tag k="name" v="Widerbergs gravsted" />
		<tag k="place" v="locality" />
		<tag k="ssr:stedsnr" v="707024" />
	</node>
	<node id="-36271" lat="60.0224916693" lon="10.887366661">
		<tag k="name" v="Trøythaugen" />
		<tag k="place" v="locality" />
		<tag k="ssr:stedsnr" v="706875" />
	</node>
	<node id="-35979" lat="60.0176333314" lon="10.9111166666">
		<tag k="name" v="Haugli" />
		<tag k="place" v="locality" />
		<tag k="ssr:stedsnr" v="109544" />
	</node>
	<node id="-35752" lat="60.0380555567" lon="10.8479499991">
		<tag k="name" v="Vintermyrberget" />
		<tag k="place" v="locality" />
		<tag k="ssr:stedsnr" v="284743" />
	</node>
	<node id="-35747" lat="60.0655000017" lon="10.9319250062">
		<tag k="name" v="Mariholen" />
		<tag k="place" v="locality" />
		<tag k="ssr:stedsnr" v="284303" />
	</node>
	<node id="-36128" lat="59.9973333332" lon="10.918569448">
		<tag k="amenity" v="community_centre" />
		<tag k="name" v="Folkets hus" />
		<tag k="ssr:stedsnr" v="466362" />
	</node>
	<node id="-36249" lat="60.0124194478" lon="10.9162861027">
		<tag k="name" v="Ysteriet" />
		<tag k="place" v="locality" />
		<tag k="ssr:stedsnr" v="655607" />
	</node>
	<node id="-36248" lat="60.0103222196" lon="10.9308750074">
		<tag k="name" v="Brekka" />
		<tag k="place" v="locality" />
		<tag k="ssr:stedsnr" v="655594" />
	</node>
	<node id="-36114" lat="60.1176694426" lon="10.8546999984">
		<tag k="name" v="Hellerudhaugen" />
		<tag k="place" v="locality" />
		<tag k="ssr:stedsnr" v="430666" />
	</node>
	<node id="-36368" lat="60.0319055523" lon="10.8587527733">
		<tag k="name" v="Glanastad" />
		<tag k="ssr:stedsnr" v="830722" />
		<tag k="tourism" v="viewpoint" />
	</node>
	<node id="-36366" lat="60.0512277746" lon="10.9003222141">
		<tag k="name" v="Meninga" />
		<tag k="place" v="locality" />
		<tag k="ssr:stedsnr" v="830266" />
	</node>
	<node id="-35853" lat="60.0496916638" lon="10.8990500072">
		<tag k="name" v="Løkka" />
		<tag k="place" v="locality" />
		<tag k="ssr:stedsnr" v="891334" />
	</node>
	<node id="-36235" lat="60.0466666684" lon="10.8571749959">
		<tag k="name" v="Kruttverket" />
		<tag k="place" v="locality" />
		<tag k="ssr:stedsnr" v="632400" />
	</node>
	<node id="-35978" lat="60.0125333325" lon="10.911627782">
		<tag k="name" v="Sletta" />
		<tag k="place" v="locality" />
		<tag k="ssr:stedsnr" v="109543" />
	</node>
	<node id="-35845" lat="60.1100361137" lon="10.8472861067">
		<tag k="amenity" v="community_centre" />
		<tag k="name" v="Folkets hus" />
		<tag k="ssr:stedsnr" v="889009" />
	</node>
	<node id="-35969" lat="60.0528111083" lon="10.8937694504">
		<tag k="name" v="Brennmyra" />
		<tag k="place" v="locality" />
		<tag k="ssr:stedsnr" v="102353" />
	</node>
</osm>
