<?xml version="1.0" encoding="UTF-8"?>
<osm generator="osmapis" version="0.6">
	<node id="-36351" lat="60.1352944454" lon="10.7323944405">
		<tag k="alt_name" v="Aurtjernet" />
		<tag k="name" v="Aurtjern" />
		<tag k="natural" v="water" />
		<tag k="ssr:stedsnr" v="794632" />
	</node>
	<node id="-36350" lat="60.1424361088" lon="10.8979055533">
		<tag k="name" v="Gjermåa" />
		<tag k="ssr:stedsnr" v="794629" />
		<tag k="waterway" v="stream" />
	</node>
	<node id="-36349" lat="60.1397555534" lon="10.8775833392">
		<tag k="name" v="Raudputt" />
		<tag k="natural" v="water" />
		<tag k="ssr:stedsnr" v="794628" />
	</node>
	<node id="-36346" lat="60.0907138918" lon="10.7916611038">
		<tag k="name" v="Lille Hyttetjern" />
		<tag k="natural" v="water" />
		<tag k="ssr:stedsnr" v="794607" />
	</node>
	<node id="-36341" lat="60.0376444451" lon="10.9571194513">
		<tag k="name" v="Søndre Ryggevann" />
		<tag k="natural" v="water" />
		<tag k="ssr:stedsnr" v="794437" />
		<tag k="water" v="lake" />
	</node>
	<node id="-35827" lat="60.00580238" lon="10.8371378872">
		<tag k="name" v="Granbergsputtene" />
		<tag k="natural" v="water" />
		<tag k="ssr:stedsnr" v="403818" />
	</node>
	<node id="-36338" lat="60.02838611" lon="10.9386250007">
		<tag k="name" v="Søndre Ovann" />
		<tag k="natural" v="water" />
		<tag k="ssr:stedsnr" v="794388" />
	</node>
	<node id="-35821" lat="60.1507500005" lon="10.8474388806">
		<tag k="name" v="Guritjern" />
		<tag k="natural" v="water" />
		<tag k="ssr:stedsnr" v="369704" />
	</node>
	<node id="-36332" lat="60.1446555563" lon="10.6765333397">
		<tag k="alt_name" v="Daltjuven, l" />
		<tag k="name" v="Vesle Daltjuven" />
		<tag k="natural" v="water" />
		<tag k="ssr:stedsnr" v="794104" />
	</node>
	<node id="-36331" lat="59.9856999963" lon="10.937183338">
		<tag k="name" v="Morttjern" />
		<tag k="natural" v="water" />
		<tag k="ssr:stedsnr" v="793613" />
	</node>
	<node id="-35818" lat="60.1692944409" lon="10.8000833287">
		<tag k="name" v="Fiskeløysa" />
		<tag k="natural" v="water" />
		<tag k="ssr:stedsnr" v="369660" />
	</node>
	<node id="-35815" lat="60.132186114" lon="10.8477166616">
		<tag k="alt_name" v="Kloppetjerna, nordre" />
		<tag k="name" v="Nordre Klopptjern" />
		<tag k="natural" v="water" />
		<tag k="ssr:stedsnr" v="369620" />
	</node>
	<node id="-35813" lat="60.137575004" lon="10.8746166652">
		<tag k="name" v="Steintjern" />
		<tag k="natural" v="water" />
		<tag k="ssr:stedsnr" v="369575" />
	</node>
	<node id="-35811" lat="60.0930833367" lon="10.802955555">
		<tag k="name" v="Daviddalsputten" />
		<tag k="natural" v="water" />
		<tag k="ssr:stedsnr" v="369558" />
	</node>
	<node id="-36320" lat="59.9874305575" lon="10.9821749983">
		<tag k="name" v="Ramstadstranda" />
		<tag k="natural" v="beach" />
		<tag k="ssr:stedsnr" v="769333" />
	</node>
	<node id="-35806" lat="60.0752095006" lon="10.7817630257">
		<tag k="name" v="Store Svarttjern" />
		<tag k="natural" v="water" />
		<tag k="ssr:stedsnr" v="369475" />
	</node>
	<node id="-35801" lat="60.0317138864" lon="10.9402194491">
		<tag k="name" v="Nordre Ovann" />
		<tag k="natural" v="water" />
		<tag k="ssr:stedsnr" v="369365" />
	</node>
	<node id="-36312" lat="60.0067444419" lon="10.8711333316">
		<tag k="name" v="Kjulstjernsbekken" />
		<tag k="ssr:stedsnr" v="767808" />
		<tag k="waterway" v="stream" />
	</node>
	<node id="-35748" lat="60.0584500014" lon="10.8552694467">
		<tag k="name" v="Store Vassøytjern" />
		<tag k="natural" v="water" />
		<tag k="ssr:stedsnr" v="284322" />
	</node>
	<node id="-36310" lat="60.0655055571" lon="10.8028916596">
		<tag k="name" v="Langdalsbekken" />
		<tag k="ssr:stedsnr" v="767306" />
		<tag k="waterway" v="stream" />
	</node>
	<node id="-35789" lat="59.9876972226" lon="10.9774388929">
		<tag k="name" v="Grana" />
		<tag k="natural" v="beach" />
		<tag k="ssr:stedsnr" v="344356" />
	</node>
	<node id="-35788" lat="60.0586666696" lon="10.8570416638">
		<tag k="name" v="Lille Vassøytjern" />
		<tag k="natural" v="water" />
		<tag k="ssr:stedsnr" v="344322" />
	</node>
	<node id="-36299" lat="60.1256138889" lon="10.9121305626">
		<tag k="name" v="Kirkebygjermenningen" />
		<tag k="natural" v="water" />
		<tag k="ssr:stedsnr" v="733634" />
	</node>
	<node id="-36297" lat="59.9893833337" lon="10.9013777733">
		<tag k="name" v="Skyttaputten" />
		<tag k="natural" v="water" />
		<tag k="ssr:stedsnr" v="733559" />
	</node>
	<node id="-35784" lat="60.073100004" lon="10.8209555545">
		<tag k="name" v="Svenskevika" />
		<tag k="natural" v="bay" />
		<tag k="ssr:stedsnr" v="344282" />
	</node>
	<node id="-36294" lat="60.0853027764" lon="10.7732805504">
		<tag k="name" v="Holmetjern" />
		<tag k="natural" v="water" />
		<tag k="ssr:stedsnr" v="733472" />
	</node>
	<node id="-36292" lat="60.0454150965" lon="10.950670109">
		<tag k="name" v="Nordre Ryggevann" />
		<tag k="natural" v="water" />
		<tag k="ssr:stedsnr" v="733419" />
		<tag k="water" v="lake" />
	</node>
	<node id="-36289" lat="60.0111666626" lon="10.8686749928">
		<tag k="name" v="Staurputten" />
		<tag k="natural" v="water" />
		<tag k="ssr:stedsnr" v="733344" />
	</node>
	<node id="-35773" lat="60.1171666689" lon="10.7801749927">
		<tag k="name" v="Loppetjern" />
		<tag k="natural" v="water" />
		<tag k="ssr:stedsnr" v="309607" />
	</node>
	<node id="-35766" lat="60.1200777816" lon="10.8042027806">
		<tag k="name" v="Torsbekken" />
		<tag k="ssr:stedsnr" v="308653" />
		<tag k="waterway" v="stream" />
	</node>
	<node id="-36274" lat="60.1219972191" lon="10.8213722229">
		<tag k="name" v="Verkensdammen" />
		<tag k="natural" v="water" />
		<tag k="ssr:stedsnr" v="707021" />
	</node>
	<node id="-36272" lat="60.0949833366" lon="10.9123750019">
		<tag k="name" v="Midtre Ravndalstjern" />
		<tag k="natural" v="water" />
		<tag k="ssr:stedsnr" v="707009" />
	</node>
	<node id="-36269" lat="60.1670250028" lon="10.790063887">
		<tag k="alt_name" v="Vivangtjernet" />
		<tag k="name" v="Vivangstjernet" />
		<tag k="natural" v="water" />
		<tag k="ssr:stedsnr" v="673703" />
	</node>
	<node id="-36268" lat="60.1226416684" lon="10.7233416735">
		<tag k="alt_name" v="Nordre Anderstjern" />
		<tag k="name" v="Nordre Anderstjernet" />
		<tag k="natural" v="water" />
		<tag k="ssr:stedsnr" v="673687" />
	</node>
	<node id="-36260" lat="60.0354333321" lon="10.9653888821">
		<tag k="name" v="Svartputten" />
		<tag k="natural" v="water" />
		<tag k="ssr:stedsnr" v="673449" />
	</node>
	<node id="-35744" lat="60.1281722253" lon="10.8340611191">
		<tag k="name" v="Åsbekken" />
		<tag k="ssr:stedsnr" v="284160" />
		<tag k="waterway" v="stream" />
	</node>
	<node id="-35740" lat="59.9964250007" lon="10.8710361125">
		<tag k="name" v="Søndre Aurevannsputten" />
		<tag k="natural" v="water" />
		<tag k="ssr:stedsnr" v="282826" />
	</node>
	<node id="-36251" lat="60.0059888867" lon="10.8644500034">
		<tag k="name" v="Rudsputten" />
		<tag k="natural" v="water" />
		<tag k="ssr:stedsnr" v="672311" />
	</node>
	<node id="-35736" lat="60.0623249975" lon="10.8278916686">
		<tag k="name" v="Brattfoss" />
		<tag k="natural" v="waterfall" />
		<tag k="ssr:stedsnr" v="282289" />
	</node>
	<node id="-35734" lat="60.1039888882" lon="10.9117999983">
		<tag k="name" v="Nordre Ravndalstjern" />
		<tag k="natural" v="water" />
		<tag k="ssr:stedsnr" v="282011" />
		<tag k="water" v="lake" />
	</node>
	<node id="-35733" lat="60.0716444411" lon="10.8531499919">
		<tag k="alt_name" v="Høldippeldammen" />
		<tag k="name" v="Holnippeldammen" />
		<tag k="natural" v="water" />
		<tag k="ssr:stedsnr" v="269321" />
	</node>
	<node id="-36244" lat="60.1475444463" lon="10.8229999992">
		<tag k="name" v="Vesleelva" />
		<tag k="ssr:stedsnr" v="647781" />
		<tag k="waterway" v="stream" />
	</node>
	<node id="-36234" lat="60.1419194488" lon="10.7929916581">
		<tag k="name" v="Hakadalselva" />
		<tag k="ssr:stedsnr" v="612741" />
		<tag k="waterway" v="river" />
	</node>
	<node id="-36233" lat="60.1739277751" lon="10.7778916601">
		<tag k="name" v="Svarttjern" />
		<tag k="natural" v="water" />
		<tag k="ssr:stedsnr" v="612699" />
	</node>
	<node id="-36231" lat="60.0889666656" lon="10.7740527834">
		<tag k="name" v="Gryta" />
		<tag k="natural" v="water" />
		<tag k="ssr:stedsnr" v="612544" />
	</node>
	<node id="-35819" lat="60.1643749974" lon="10.8133527835">
		<tag k="name" v="Buvassbekken" />
		<tag k="ssr:stedsnr" v="369663" />
		<tag k="waterway" v="stream" />
	</node>
	<node id="-36223" lat="60.1675333301" lon="10.8579166637">
		<tag k="name" v="Hakkimbekken" />
		<tag k="ssr:stedsnr" v="611711" />
		<tag k="waterway" v="stream" />
	</node>
	<node id="-36222" lat="60.1691499961" lon="10.8517749917">
		<tag k="name" v="Hakkimtjernet" />
		<tag k="natural" v="water" />
		<tag k="ssr:stedsnr" v="611712" />
	</node>
	<node id="-36221" lat="60.1694444411" lon="10.8137583282">
		<tag k="name" v="Buvann" />
		<tag k="natural" v="water" />
		<tag k="ssr:stedsnr" v="611709" />
	</node>
	<node id="-36217" lat="60.1435444479" lon="10.8634111124">
		<tag k="name" v="Setertjernbekken" />
		<tag k="ssr:stedsnr" v="611639" />
		<tag k="waterway" v="stream" />
	</node>
	<node id="-36216" lat="60.0919000035" lon="10.9065638841">
		<tag k="alt_name" v="Bergstjern" />
		<tag k="name" v="Bergstjernet" />
		<tag k="natural" v="water" />
		<tag k="ssr:stedsnr" v="611627" />
	</node>
	<node id="-36214" lat="59.9967639852" lon="10.9414922151">
		<tag k="loc_name" v="Nittelva" />
		<tag k="name" v="Nitelva" />
		<tag k="ssr:stedsnr" v="611618" />
		<tag k="waterway" v="river" />
	</node>
	<node id="-36212" lat="59.9801476104" lon="10.9093503733">
		<tag k="name" v="Bamsetjern" />
		<tag k="natural" v="water" />
		<tag k="ssr:stedsnr" v="611548" />
	</node>
	<node id="-36211" lat="59.9774250007" lon="10.942525006">
		<tag k="name" v="Svarttjern" />
		<tag k="natural" v="water" />
		<tag k="ssr:stedsnr" v="611533" />
	</node>
	<node id="-36208" lat="60.011102782" lon="10.8858527811">
		<tag k="name" v="Skredderudtjernet" />
		<tag k="natural" v="water" />
		<tag k="ssr:stedsnr" v="611373" />
	</node>
	<node id="-35899" lat="60.0985083337" lon="10.7589166678">
		<tag k="name" v="Delebekken" />
		<tag k="ssr:stedsnr" v="5596" />
		<tag k="waterway" v="stream" />
	</node>
	<node id="-36188" lat="60.0001944477" lon="10.8844638914">
		<tag k="name" v="Bodalsputten" />
		<tag k="natural" v="water" />
		<tag k="ssr:stedsnr" v="585821" />
	</node>
	<node id="-36187" lat="60.0151972227" lon="10.8842416741">
		<tag k="name" v="Skredderudbekken" />
		<tag k="ssr:stedsnr" v="585805" />
		<tag k="waterway" v="stream" />
	</node>
	<node id="-36185" lat="60.0252805536" lon="10.8469861106">
		<tag k="name" v="Skrytabekken" />
		<tag k="ssr:stedsnr" v="584896" />
		<tag k="waterway" v="stream" />
	</node>
	<node id="-36182" lat="60.1700000028" lon="10.7969333255">
		<tag k="name" v="Nybonntjernet" />
		<tag k="natural" v="water" />
		<tag k="ssr:stedsnr" v="551712" />
	</node>
	<node id="-36181" lat="60.1746083334" lon="10.8084361067">
		<tag k="name" v="Vrangen" />
		<tag k="natural" v="water" />
		<tag k="ssr:stedsnr" v="551706" />
		<tag k="water" v="lake" />
	</node>
	<node id="-36176" lat="60.0921027783" lon="10.9131583271">
		<tag k="alt_name" v="Ravndalstjern" />
		<tag k="name" v="Ramndalstjerna" />
		<tag k="natural" v="water" />
		<tag k="ssr:stedsnr" v="551615" />
	</node>
	<node id="-36174" lat="60.0928805523" lon="10.7927138951">
		<tag k="name" v="Store Hyttetjern" />
		<tag k="natural" v="water" />
		<tag k="ssr:stedsnr" v="551605" />
	</node>
	<node id="-36169" lat="60.0793555586" lon="10.8409249926">
		<tag k="name" v="Lomtjern" />
		<tag k="natural" v="water" />
		<tag k="ssr:stedsnr" v="551519" />
	</node>
	<node id="-36165" lat="60.0311444466" lon="10.958027786">
		<tag k="alt_name" v="Rygga" />
		<tag k="name" v="Ryggebekken" />
		<tag k="ssr:stedsnr" v="551390" />
		<tag k="waterway" v="stream" />
	</node>
	<node id="-36164" lat="60.0182111079" lon="10.855827776">
		<tag k="alt_name" v="Nordskogtjerna" />
		<tag k="name" v="Nordskogtjernet" />
		<tag k="natural" v="water" />
		<tag k="ssr:stedsnr" v="551381" />
	</node>
	<node id="-36163" lat="59.9955416667" lon="10.8835111162">
		<tag k="name" v="Lomtjern" />
		<tag k="natural" v="water" />
		<tag k="ssr:stedsnr" v="550604" />
	</node>
	<node id="-36155" lat="60.0850833376" lon="10.7951333349">
		<tag k="name" v="Karlshaugputtene" />
		<tag k="natural" v="water" />
		<tag k="ssr:stedsnr" v="526267" />
	</node>
	<node id="-36154" lat="60.0709000004" lon="10.898886104">
		<tag k="name" v="Kasbekken" />
		<tag k="ssr:stedsnr" v="526117" />
		<tag k="waterway" v="stream" />
	</node>
	<node id="-36149" lat="60.1189277761" lon="10.8320583322">
		<tag k="name" v="Sagdammen" />
		<tag k="place" v="locality" />
		<tag k="ssr:stedsnr" v="511434" />
	</node>
	<node id="-36147" lat="60.1425777769" lon="10.8776750047">
		<tag k="alt_name" v="Rauddalsbekken" />
		<tag k="name" v="Raudalsbekken" />
		<tag k="ssr:stedsnr" v="491732" />
		<tag k="waterway" v="stream" />
	</node>
	<node id="-36144" lat="60.0787583292" lon="10.8343000082">
		<tag k="name" v="Svensketjernet" />
		<tag k="natural" v="water" />
		<tag k="ssr:stedsnr" v="491551" />
	</node>
	<node id="-36139" lat="60.0250499993" lon="10.9498361163">
		<tag k="fixme" v="multiple name tags, choose one and add the other to alt_name" />
		<tag k="name" v="Lintjern;Tysilltjernet" />
		<tag k="natural" v="water" />
		<tag k="ssr:stedsnr" v="491420" />
	</node>
	<node id="-36137" lat="60.1362638931" lon="10.708519439">
		<tag k="name" v="Huldretjernet" />
		<tag k="natural" v="water" />
		<tag k="ssr:stedsnr" v="491106" />
	</node>
	<node id="-36136" lat="60.1315361081" lon="10.7109555474">
		<tag k="name" v="Veslesjøen" />
		<tag k="natural" v="water" />
		<tag k="ssr:stedsnr" v="491097" />
	</node>
	<node id="-36135" lat="60.1672118487" lon="10.8374181689">
		<tag k="name" v="Damsortungen" />
		<tag k="natural" v="water" />
		<tag k="ssr:stedsnr" v="490706" />
		<tag k="water" v="lake" />
	</node>
	<node id="-36122" lat="60.0201222189" lon="10.889027778">
		<tag k="name" v="Brattfoss" />
		<tag k="natural" v="waterfall" />
		<tag k="ssr:stedsnr" v="463876" />
	</node>
	<node id="-36120" lat="60.1873027785" lon="10.7787055515">
		<tag k="name" v="Piperfløyta" />
		<tag k="natural" v="water" />
		<tag k="ssr:stedsnr" v="430793" />
	</node>
	<node id="-36119" lat="60.1812039909" lon="10.8419193971">
		<tag k="name" v="Bakkholtjerna" />
		<tag k="natural" v="water" />
		<tag k="ssr:stedsnr" v="430773" />
		<tag k="water" v="lake" />
	</node>
	<node id="-36117" lat="60.1729435287" lon="10.7838974706">
		<tag k="name" v="Blekketjerna" />
		<tag k="natural" v="water" />
		<tag k="ssr:stedsnr" v="430686" />
	</node>
	<node id="-36116" lat="60.1177555563" lon="10.8092222166">
		<tag k="name" v="Homannsbekken" />
		<tag k="ssr:stedsnr" v="430671" />
		<tag k="waterway" v="stream" />
	</node>
	<node id="-36113" lat="60.1089555515" lon="10.9150861106">
		<tag k="name" v="Svarttjern" />
		<tag k="natural" v="water" />
		<tag k="ssr:stedsnr" v="430591" />
	</node>
	<node id="-36111" lat="60.0695222255" lon="10.7856277802">
		<tag k="name" v="Fløyta" />
		<tag k="natural" v="water" />
		<tag k="ssr:stedsnr" v="430567" />
	</node>
	<node id="-36106" lat="60.060133331" lon="10.8377388938">
		<tag k="name" v="Ørfiskebekken" />
		<tag k="ssr:stedsnr" v="430461" />
		<tag k="waterway" v="stream" />
	</node>
	<node id="-36101" lat="60.0161361105" lon="10.8397611098">
		<tag k="alt_name" v="Kringla" />
		<tag k="name" v="Kringler" />
		<tag k="natural" v="water" />
		<tag k="ssr:stedsnr" v="430370" />
	</node>
	<node id="-36096" lat="59.9872777735" lon="10.8910555545">
		<tag k="name" v="Romstjern" />
		<tag k="natural" v="water" />
		<tag k="ssr:stedsnr" v="429579" />
	</node>
	<node id="-36095" lat="60.1327249968" lon="10.9040500015">
		<tag k="name" v="Aurtjern" />
		<tag k="natural" v="water" />
		<tag k="ssr:stedsnr" v="430657" />
	</node>
	<node id="-36089" lat="60.1298500042" lon="10.8808166714">
		<tag k="name" v="Toketjern" />
		<tag k="natural" v="water" />
		<tag k="ssr:stedsnr" v="248673" />
	</node>
	<node id="-35760" lat="60.0815250018" lon="10.8470888805">
		<tag k="name" v="Åbortjernet" />
		<tag k="natural" v="water" />
		<tag k="ssr:stedsnr" v="308469" />
	</node>
	<node id="-36079" lat="60.1473333291" lon="10.6898000057">
		<tag k="name" v="Daltjuvfløyta" />
		<tag k="natural" v="water" />
		<tag k="ssr:stedsnr" v="248119" />
	</node>
	<node id="-36076" lat="60.1714972259" lon="10.7835333249">
		<tag k="name" v="Øvre Blekketjern" />
		<tag k="natural" v="water" />
		<tag k="ssr:stedsnr" v="223863" />
	</node>
	<node id="-36075" lat="60.1736111139" lon="10.7839000012">
		<tag k="name" v="Nedre Blekketjern" />
		<tag k="natural" v="water" />
		<tag k="ssr:stedsnr" v="223864" />
	</node>
	<node id="-36058" lat="60.0303888902" lon="10.9465666719">
		<tag k="name" v="Svartputten" />
		<tag k="natural" v="water" />
		<tag k="ssr:stedsnr" v="221346" />
	</node>
	<node id="-36050" lat="60.1609694423" lon="10.7863333357">
		<tag k="alt_name" v="Nedre Kolltjerna" />
		<tag k="name" v="Nedre Kolltjern" />
		<tag k="natural" v="water" />
		<tag k="ssr:stedsnr" v="188745" />
	</node>
	<node id="-36049" lat="60.1397749994" lon="10.7400138927">
		<tag k="name" v="Henrikstjernet" />
		<tag k="natural" v="water" />
		<tag k="ssr:stedsnr" v="188679" />
	</node>
	<node id="-36048" lat="60.139463893" lon="10.7233027788">
		<tag k="alt_name" v="Purketjernet" />
		<tag k="name" v="Purktjern" />
		<tag k="natural" v="water" />
		<tag k="ssr:stedsnr" v="188677" />
	</node>
	<node id="-36045" lat="60.1055750025" lon="10.7680555499">
		<tag k="name" v="Vintertjernet" />
		<tag k="natural" v="water" />
		<tag k="ssr:stedsnr" v="188632" />
	</node>
	<node id="-36042" lat="60.0178333354" lon="10.8448083405">
		<tag k="alt_name" v="Åbortjern" />
		<tag k="name" v="Åbortjernet" />
		<tag k="natural" v="water" />
		<tag k="ssr:stedsnr" v="188434" />
	</node>
	<node id="-36040" lat="60.1489888893" lon="10.8342499949">
		<tag k="name" v="Sortungsbekken" />
		<tag k="ssr:stedsnr" v="187696" />
		<tag k="waterway" v="stream" />
	</node>
	<node id="-36034" lat="60.0038472212" lon="10.8477972143">
		<tag k="name" v="Vennervann" />
		<tag k="natural" v="water" />
		<tag k="ssr:stedsnr" v="187329" />
	</node>
	<node id="-36033" lat="60.0601250022" lon="10.9334361185">
		<tag k="name" v="Haugsputten" />
		<tag k="natural" v="water" />
		<tag k="ssr:stedsnr" v="187444" />
	</node>
	<node id="-36031" lat="60.039791667" lon="10.9446749998">
		<tag k="name" v="Gopletjern" />
		<tag k="natural" v="water" />
		<tag k="ssr:stedsnr" v="187407" />
	</node>
	<node id="-36029" lat="60.0270750044" lon="10.8360249965">
		<tag k="alt_name" v="Ormtjern" />
		<tag k="name" v="Ormetjern" />
		<tag k="natural" v="water" />
		<tag k="ssr:stedsnr" v="187390" />
	</node>
	<node id="-36018" lat="60.1396944422" lon="10.6898250006">
		<tag k="name" v="Stålputtene" />
		<tag k="natural" v="water" />
		<tag k="ssr:stedsnr" v="162279" />
	</node>
	<node id="-36017" lat="60.123472219" lon="10.8067833341">
		<tag k="name" v="Åbortjern" />
		<tag k="natural" v="water" />
		<tag k="ssr:stedsnr" v="162152" />
	</node>
	<node id="-35869" lat="59.9970979548" lon="10.841750424">
		<tag k="name" v="Griseputten" />
		<tag k="natural" v="water" />
		<tag k="ssr:stedsnr" v="489647" />
	</node>
	<node id="-36012" lat="59.9892805561" lon="10.8765111088">
		<tag k="name" v="Setertjern" />
		<tag k="natural" v="water" />
		<tag k="ssr:stedsnr" v="160828" />
	</node>
	<node id="-36009" lat="60.0447249959" lon="10.8764249957">
		<tag k="name" v="Ørfiskebekken" />
		<tag k="ssr:stedsnr" v="160653" />
		<tag k="waterway" v="stream" />
	</node>
	<node id="-36003" lat="60.1452111083" lon="10.8681361021">
		<tag k="name" v="Setertjernet" />
		<tag k="natural" v="water" />
		<tag k="ssr:stedsnr" v="127768" />
	</node>
	<node id="-36002" lat="60.1663749957" lon="10.7810583334">
		<tag k="alt_name" v="Øvre Kolltjerna" />
		<tag k="name" v="Øvre Kolltjern" />
		<tag k="natural" v="water" />
		<tag k="ssr:stedsnr" v="127749" />
	</node>
	<node id="-36000" lat="60.1064611087" lon="10.7581222162">
		<tag k="name" v="Langvann" />
		<tag k="natural" v="water" />
		<tag k="ssr:stedsnr" v="127627" />
		<tag k="water" v="lake" />
	</node>
	<node id="-35999" lat="60.0198055591" lon="10.8292194529">
		<tag k="name" v="Nordre Langvann" />
		<tag k="natural" v="water" />
		<tag k="ssr:stedsnr" v="127432" />
		<tag k="water" v="lake" />
	</node>
	<node id="-35998" lat="60.1355972265" lon="10.8355916718">
		<tag k="name" v="Åsbekken" />
		<tag k="ssr:stedsnr" v="126731" />
		<tag k="waterway" v="stream" />
	</node>
	<node id="-35997" lat="60.1810194412" lon="10.8301916598">
		<tag k="name" v="Svartvann" />
		<tag k="natural" v="water" />
		<tag k="ssr:stedsnr" v="126779" />
	</node>
	<node id="-35991" lat="60.0900000018" lon="10.7882583381">
		<tag k="name" v="Blekketjern" />
		<tag k="natural" v="water" />
		<tag k="ssr:stedsnr" v="126515" />
	</node>
	<node id="-35988" lat="60.0902000023" lon="10.8097944404">
		<tag k="name" v="Blendsølvputten" />
		<tag k="natural" v="water" />
		<tag k="ssr:stedsnr" v="126599" />
	</node>
	<node id="-35983" lat="59.9928480333" lon="10.8702406959">
		<tag k="name" v="Aurevann" />
		<tag k="natural" v="water" />
		<tag k="ssr:stedsnr" v="125636" />
		<tag k="water" v="lake" />
	</node>
	<node id="-35982" lat="59.9970083323" lon="10.8882583405">
		<tag k="name" v="Bleiktjern" />
		<tag k="natural" v="water" />
		<tag k="ssr:stedsnr" v="125631" />
	</node>
	<node id="-35970" lat="60.0645555514" lon="10.8970999945">
		<tag k="name" v="Kasbekken" />
		<tag k="ssr:stedsnr" v="102362" />
		<tag k="waterway" v="stream" />
	</node>
	<node id="-35966" lat="60.086883331" lon="10.9196555547">
		<tag k="name" v="Småvanna" />
		<tag k="natural" v="water" />
		<tag k="ssr:stedsnr" v="102135" />
		<tag k="water" v="lake" />
	</node>
	<node id="-35962" lat="59.9962694451" lon="10.9422305544">
		<tag k="name" v="Stranda" />
		<tag k="natural" v="beach" />
		<tag k="ssr:stedsnr" v="100253" />
	</node>
	<node id="-35960" lat="60.0184972246" lon="10.8419416662">
		<tag k="name" v="Staurputtene" />
		<tag k="natural" v="water" />
		<tag k="ssr:stedsnr" v="99889" />
	</node>
	<node id="-35958" lat="60.1289222202" lon="10.8492749911">
		<tag k="name" v="Søndre Klopptjern" />
		<tag k="natural" v="water" />
		<tag k="ssr:stedsnr" v="87327" />
	</node>
	<node id="-35954" lat="60.1847671876" lon="10.8466866219">
		<tag k="alt_name" v="Elsjøane, store" />
		<tag k="name" v="Store Elsjø" />
		<tag k="natural" v="water" />
		<tag k="ssr:stedsnr" v="66784" />
		<tag k="water" v="lake" />
	</node>
	<node id="-35953" lat="60.1553277773" lon="10.8553555582">
		<tag k="alt_name" v="Åbortjern" />
		<tag k="name" v="Åbortjernet" />
		<tag k="natural" v="water" />
		<tag k="ssr:stedsnr" v="66715" />
	</node>
	<node id="-35952" lat="60.1539444481" lon="10.8900888929">
		<tag k="name" v="Storodden" />
		<tag k="natural" v="cape" />
		<tag k="ssr:stedsnr" v="66713" />
	</node>
	<node id="-35950" lat="60.1698638896" lon="10.8260750087">
		<tag k="name" v="Lauvtangen" />
		<tag k="natural" v="water" />
		<tag k="ssr:stedsnr" v="66690" />
	</node>
	<node id="-35948" lat="60.1262666632" lon="10.7375777711">
		<tag k="name" v="Nordvannet" />
		<tag k="natural" v="water" />
		<tag k="ssr:stedsnr" v="66631" />
		<tag k="water" v="lake" />
	</node>
	<node id="-35943" lat="60.1154477725" lon="10.7607032311">
		<tag k="name" v="Elvannet" />
		<tag k="natural" v="water" />
		<tag k="ssr:stedsnr" v="66545" />
		<tag k="water" v="lake" />
	</node>
	<node id="-35935" lat="60.0102194415" lon="10.8503916725">
		<tag k="name" v="Kroktjern" />
		<tag k="natural" v="water" />
		<tag k="ssr:stedsnr" v="66355" />
	</node>
	<node id="-35934" lat="59.9928500018" lon="10.8909611145">
		<tag k="name" v="Lusevasan" />
		<tag k="natural" v="water" />
		<tag k="ssr:stedsnr" v="65601" />
	</node>
	<node id="-35924" lat="59.9946749965" lon="10.9932055474">
		<tag k="name" v="Tveitabekken" />
		<tag k="ssr:stedsnr" v="41349" />
		<tag k="waterway" v="stream" />
	</node>
	<node id="-35915" lat="60.1077083313" lon="10.8619805486">
		<tag k="name" v="Tøyenfossen" />
		<tag k="natural" v="waterfall" />
		<tag k="ssr:stedsnr" v="41087" />
	</node>
	<node id="-35913" lat="59.9988111069" lon="10.8732138961">
		<tag k="name" v="Nordre Aurevannsputten" />
		<tag k="natural" v="water" />
		<tag k="ssr:stedsnr" v="39827" />
	</node>
	<node id="-35912" lat="60.0142027773" lon="10.8458833415">
		<tag k="name" v="Tørrplanputten" />
		<tag k="natural" v="water" />
		<tag k="ssr:stedsnr" v="39796" />
	</node>
	<node id="-35911" lat="60.0055194427" lon="10.8561611076">
		<tag k="name" v="Langvassbekken" />
		<tag k="ssr:stedsnr" v="39783" />
		<tag k="waterway" v="stream" />
	</node>
	<node id="-36419" lat="60.1828194426" lon="10.8113194497">
		<tag k="alt_name" v="Tvekjellerne, søndre" />
		<tag k="name" v="Søndre Tvekjelleren" />
		<tag k="natural" v="water" />
		<tag k="ssr:stedsnr" v="916820" />
		<tag k="water" v="lake" />
	</node>
	<node id="-35905" lat="60.1831777754" lon="10.8059638844">
		<tag k="name" v="Sølvtjernet" />
		<tag k="natural" v="water" />
		<tag k="ssr:stedsnr" v="5779" />
	</node>
	<node id="-36416" lat="60.1772638886" lon="10.7997999983">
		<tag k="name" v="Toreren" />
		<tag k="natural" v="water" />
		<tag k="ssr:stedsnr" v="916726" />
	</node>
	<node id="-35903" lat="60.1556388868" lon="10.8922527773">
		<tag k="name" v="Storøyungen" />
		<tag k="natural" v="water" />
		<tag k="ssr:stedsnr" v="5700" />
		<tag k="water" v="lake" />
	</node>
	<node id="-35902" lat="60.1628305554" lon="10.8455583364">
		<tag k="name" v="Steinsortungen" />
		<tag k="natural" v="water" />
		<tag k="ssr:stedsnr" v="5681" />
	</node>
	<node id="-36413" lat="60.075299996" lon="10.9154333403">
		<tag k="name" v="Spenningsbybekken" />
		<tag k="ssr:stedsnr" v="916561" />
		<tag k="waterway" v="stream" />
	</node>
	<node id="-36412" lat="60.0744361137" lon="10.8146666631">
		<tag k="name" v="Ørfiske" />
		<tag k="natural" v="water" />
		<tag k="ssr:stedsnr" v="916551" />
		<tag k="water" v="lake" />
	</node>
	<node id="-36411" lat="60.0651259941" lon="10.9352237451">
		<tag k="fixme" v="multiple name tags, choose one and add the other to alt_name" />
		<tag k="name" v="Flabben;Mastutjern" />
		<tag k="natural" v="water" />
		<tag k="ssr:stedsnr" v="916527" />
	</node>
	<node id="-36404" lat="60.1442888847" lon="10.7037444399">
		<tag k="name" v="Søndre Djupdalstjernet" />
		<tag k="natural" v="water" />
		<tag k="ssr:stedsnr" v="916108" />
	</node>
	<node id="-36400" lat="60.128194448" lon="10.8960611133">
		<tag k="name" v="Storeputt" />
		<tag k="natural" v="water" />
		<tag k="ssr:stedsnr" v="915648" />
	</node>
	<node id="-35887" lat="60.0100083364" lon="10.8617000003">
		<tag k="alt_name" v="Kjulstjern" />
		<tag k="name" v="Kjulstjernet" />
		<tag k="natural" v="water" />
		<tag k="ssr:stedsnr" v="5351" />
	</node>
	<node id="-36398" lat="60.0457750025" lon="10.854591668">
		<tag k="name" v="Vågedammen" />
		<tag k="natural" v="water" />
		<tag k="ssr:stedsnr" v="915449" />
	</node>
	<node id="-35882" lat="60.1237146657" lon="10.704496806">
		<tag k="alt_name" v="Måsjøen, nordre" />
		<tag k="name" v="Nordre Måsjøen" />
		<tag k="natural" v="water" />
		<tag k="ssr:stedsnr" v="5071" />
		<tag k="water" v="lake" />
	</node>
	<node id="-36393" lat="60.1830638896" lon="10.7846999995">
		<tag k="alt_name" v="Pipern" />
		<tag k="name" v="Piperen" />
		<tag k="natural" v="water" />
		<tag k="ssr:stedsnr" v="855835" />
	</node>
	<node id="-36392" lat="60.1537166684" lon="10.8779999991">
		<tag k="name" v="Raudalslona" />
		<tag k="natural" v="water" />
		<tag k="ssr:stedsnr" v="855745" />
	</node>
	<node id="-36390" lat="60.1347666662" lon="10.7853277862">
		<tag k="name" v="Ela" />
		<tag k="ssr:stedsnr" v="855657" />
		<tag k="waterway" v="stream" />
	</node>
	<node id="-36385" lat="60.0711694419" lon="10.8345805569">
		<tag k="name" v="Skåltjern" />
		<tag k="natural" v="water" />
		<tag k="ssr:stedsnr" v="855528" />
	</node>
	<node id="-36383" lat="60.0692805562" lon="10.9287305541">
		<tag k="name" v="Svartkulp" />
		<tag k="natural" v="water" />
		<tag k="ssr:stedsnr" v="855481" />
		<tag k="water" v="pond" />
	</node>
	<node id="-35870" lat="60.036804039" lon="10.8144180267">
		<tag k="name" v="Søndre Movann" />
		<tag k="natural" v="water" />
		<tag k="ssr:stedsnr" v="66408" />
		<tag k="water" v="lake" />
	</node>
	<node id="-36381" lat="60.0425117382" lon="10.817851033">
		<tag k="name" v="Nordre Movann" />
		<tag k="natural" v="water" />
		<tag k="ssr:stedsnr" v="855422" />
		<tag k="water" v="lake" />
	</node>
	<node id="-36378" lat="60.0193083334" lon="10.8870527785">
		<tag k="name" v="Brattfossbekken" />
		<tag k="ssr:stedsnr" v="855388" />
		<tag k="waterway" v="stream" />
	</node>
	<node id="-35864" lat="60.092292498" lon="10.8240862943">
		<tag k="name" v="Krølltopptjernet" />
		<tag k="natural" v="water" />
		<tag k="ssr:stedsnr" v="981711" />
	</node>
	<node id="-36375" lat="60.0009749972" lon="10.8547222289">
		<tag k="name" v="Søndre Langvann" />
		<tag k="natural" v="water" />
		<tag k="ssr:stedsnr" v="855340" />
	</node>
	<node id="-36362" lat="60.12363611" lon="10.714813896">
		<tag k="name" v="Aurputten" />
		<tag k="natural" v="water" />
		<tag k="ssr:stedsnr" v="830146" />
	</node>
	<node id="-35841" lat="60.0253583313" lon="10.9220611045">
		<tag k="name" v="Ovannsbekken" />
		<tag k="ssr:stedsnr" v="473612" />
		<tag k="waterway" v="stream" />
	</node>
</osm>
