<?xml version="1.0" encoding="UTF-8"?>
<osm generator="osmapis" version="0.6">
	<node id="-36352" lat="60.1334944468" lon="10.7937916712">
		<tag k="name" v="Årnes" />
		<tag k="place" v="farm" />
		<tag k="ssr:stedsnr" v="794647" />
	</node>
	<node id="-35839" lat="60.0138361093" lon="10.9411277766">
		<tag k="alt_name" v="Dal østre" />
		<tag k="name" v="Østre Dal" />
		<tag k="place" v="farm" />
		<tag k="ssr:stedsnr" v="413612" />
	</node>
	<node id="-36348" lat="60.1359888881" lon="10.8095166664">
		<tag k="alt_name" v="Kapelsrud" />
		<tag k="name" v="Kapellsrud" />
		<tag k="place" v="isolated_dwelling" />
		<tag k="ssr:stedsnr" v="794625" />
	</node>
	<node id="-36347" lat="60.0924517848" lon="10.885115933">
		<tag k="fixme" v="consider place=hamlet" />
		<tag k="name" v="Myrer" />
		<tag k="place" v="farm" />
		<tag k="ssr:stedsnr" v="794613" />
	</node>
	<node id="-35834" lat="59.9942944483" lon="10.972347228">
		<tag k="name" v="Åroshagen" />
		<tag k="place" v="farm" />
		<tag k="ssr:stedsnr" v="405354" />
	</node>
	<node id="-35833" lat="60.0580336517" lon="10.8864088968">
		<tag k="fixme" v="consider place=hamlet" />
		<tag k="name" v="Haug" />
		<tag k="place" v="farm" />
		<tag k="ssr:stedsnr" v="405315" />
	</node>
	<node id="-35832" lat="60.0635638926" lon="10.889963882">
		<tag k="name" v="Nedre Nordby" />
		<tag k="place" v="farm" />
		<tag k="ssr:stedsnr" v="405297" />
	</node>
	<node id="-36343" lat="60.0800249973" lon="10.8775999918">
		<tag k="name" v="Brennløkka" />
		<tag k="place" v="farm" />
		<tag k="ssr:stedsnr" v="794504" />
	</node>
	<node id="-36342" lat="60.0564527772" lon="10.9250500086">
		<tag k="name" v="Sovaro" />
		<tag k="place" v="isolated_dwelling" />
		<tag k="ssr:stedsnr" v="794459" />
	</node>
	<node id="-35829" lat="60.0859194424" lon="10.8874861159">
		<tag k="name" v="Bergsenga" />
		<tag k="place" v="farm" />
		<tag k="ssr:stedsnr" v="405099" />
	</node>
	<node id="-36340" lat="60.039130556" lon="10.8800388853">
		<tag k="name" v="Skillebekk" />
		<tag k="place" v="farm" />
		<tag k="ssr:stedsnr" v="794416" />
	</node>
	<node id="-36339" lat="60.0328277749" lon="10.886608332">
		<tag k="alt_name" v="Skøyen nordre" />
		<tag k="name" v="Nordre Skøyen" />
		<tag k="place" v="farm" />
		<tag k="ssr:stedsnr" v="794398" />
	</node>
	<node id="-35826" lat="60.0329611112" lon="10.9088777826">
		<tag k="name" v="Gaustadløkka" />
		<tag k="place" v="farm" />
		<tag k="ssr:stedsnr" v="403339" />
	</node>
	<node id="-36337" lat="60.0246916669" lon="10.8400416577">
		<tag k="fixme" v="consider tourism=alpine_hut or tourism=chalet" />
		<tag k="name" v="Fjellvang" />
		<tag k="ssr:stedsnr" v="794381" />
		<tag k="tourism" v="wilderness_hut" />
	</node>
	<node id="-35824" lat="60.1223805568" lon="10.828808338">
		<tag k="name" v="Nes" />
		<tag k="place" v="farm" />
		<tag k="ssr:stedsnr" v="403024" />
	</node>
	<node id="-36335" lat="60.0228833308" lon="10.8981194503">
		<tag k="name" v="Kirkeby" />
		<tag k="place" v="farm" />
		<tag k="ssr:stedsnr" v="794370" />
	</node>
	<node id="-35820" lat="60.1481694451" lon="10.7566694397">
		<tag k="alt_name" v="Kongsvangskog" />
		<tag k="name" v="Kongsvangsskog" />
		<tag k="place" v="farm" />
		<tag k="ssr:stedsnr" v="369705" />
	</node>
	<node id="-36330" lat="59.9763666695" lon="10.9323194412">
		<tag k="name" v="Skillebekk" />
		<tag k="place" v="village" />
		<tag k="ssr:stedsnr" v="793561" />
	</node>
	<node id="-36329" lat="60.0102444412" lon="10.9354083311">
		<tag k="name" v="Dalhaug" />
		<tag k="place" v="farm" />
		<tag k="ssr:stedsnr" v="777601" />
	</node>
	<node id="-36328" lat="60.014788891" lon="10.9052111078">
		<tag k="name" v="Haugerud" />
		<tag k="place" v="isolated_dwelling" />
		<tag k="ssr:stedsnr" v="776564" />
	</node>
	<node id="-36326" lat="60.1411666685" lon="10.7842499985">
		<tag k="name" v="Sandbekken" />
		<tag k="place" v="locality" />
		<tag k="ssr:stedsnr" v="769762" />
	</node>
	<node id="-36325" lat="60.0382527763" lon="10.8823611085">
		<tag k="name" v="Myrene" />
		<tag k="place" v="farm" />
		<tag k="ssr:stedsnr" v="769723" />
	</node>
	<node id="-35812" lat="60.0912749988" lon="10.8790527815">
		<tag k="name" v="Rulse" />
		<tag k="place" v="farm" />
		<tag k="ssr:stedsnr" v="369564" />
	</node>
	<node id="-36322" lat="60.0017638886" lon="10.9749805502">
		<tag k="name" v="Gamle Glømmi" />
		<tag k="place" v="locality" />
		<tag k="ssr:stedsnr" v="769354" />
	</node>
	<node id="-35808" lat="60.0657266203" lon="10.8907173475">
		<tag k="fixme" v="consider place=hamlet" />
		<tag k="name" v="Nordby" />
		<tag k="place" v="farm" />
		<tag k="ssr:stedsnr" v="369498" />
	</node>
	<node id="-36319" lat="60.0566944474" lon="10.8752916727">
		<tag k="name" v="Bakken" />
		<tag k="place" v="isolated_dwelling" />
		<tag k="ssr:stedsnr" v="769309" />
	</node>
	<node id="-36317" lat="60.0718111122" lon="10.8226833297">
		<tag k="name" v="Smithogget" />
		<tag k="place" v="isolated_dwelling" />
		<tag k="ssr:stedsnr" v="769279" />
	</node>
	<node id="-36316" lat="60.0906027762" lon="10.8884194361">
		<tag k="name" v="Staven" />
		<tag k="place" v="farm" />
		<tag k="ssr:stedsnr" v="769114" />
	</node>
	<node id="-36315" lat="60.0930568366" lon="10.8875022119">
		<tag k="name" v="Nordre Myrer" />
		<tag k="place" v="farm" />
		<tag k="ssr:stedsnr" v="769065" />
	</node>
	<node id="-35802" lat="60.0303527759" lon="10.8786250047">
		<tag k="name" v="Østli" />
		<tag k="place" v="farm" />
		<tag k="ssr:stedsnr" v="369370" />
	</node>
	<node id="-35799" lat="60.0053499978" lon="10.9180805631">
		<tag k="name" v="Markerud" />
		<tag k="place" v="farm" />
		<tag k="ssr:stedsnr" v="369322" />
	</node>
	<node id="-35798" lat="59.9828972218" lon="10.9261499986">
		<tag k="name" v="Putten" />
		<tag k="place" v="isolated_dwelling" />
		<tag k="ssr:stedsnr" v="368623" />
	</node>
	<node id="-35797" lat="59.9870805532" lon="10.9330000009">
		<tag k="name" v="Gjelleråsen" />
		<tag k="place" v="village" />
		<tag k="ssr:stedsnr" v="368621" />
	</node>
	<node id="-35795" lat="60.0229611078" lon="10.9362777699">
		<tag k="name" v="Kløverstua" />
		<tag k="place" v="locality" />
		<tag k="ssr:stedsnr" v="352604" />
	</node>
	<node id="-35794" lat="60.0109694445" lon="10.9165805523">
		<tag k="amenity" v="school" />
		<tag k="name" v="Slattum skole" />
		<tag k="ssr:stedsnr" v="352580" />
	</node>
	<node id="-36305" lat="60.0677916691" lon="10.8831277728">
		<tag k="name" v="Strømsenga" />
		<tag k="place" v="isolated_dwelling" />
		<tag k="ssr:stedsnr" v="734604" />
	</node>
	<node id="-36304" lat="60.0689333327" lon="10.8969194425">
		<tag k="alt_name" v="Spenningsby, s" />
		<tag k="name" v="Søndre Spenningsby" />
		<tag k="place" v="farm" />
		<tag k="ssr:stedsnr" v="734591" />
	</node>
	<node id="-36303" lat="60.0738861123" lon="10.8941861082">
		<tag k="name" v="Nordre Spenningsby" />
		<tag k="place" v="farm" />
		<tag k="ssr:stedsnr" v="734590" />
	</node>
	<node id="-36302" lat="60.0166583296" lon="10.9412361143">
		<tag k="name" v="Stensrud" />
		<tag k="place" v="isolated_dwelling" />
		<tag k="ssr:stedsnr" v="734439" />
	</node>
	<node id="-36301" lat="60.0229055089" lon="10.8980674058">
		<tag k="name" v="Kjulslund" />
		<tag k="place" v="farm" />
		<tag k="ssr:stedsnr" v="734435" />
	</node>
	<node id="-35787" lat="60.0548055515" lon="10.8748055504">
		<tag k="name" v="Solli" />
		<tag k="place" v="farm" />
		<tag k="ssr:stedsnr" v="344317" />
	</node>
	<node id="-35786" lat="60.0558777755" lon="10.8841194424">
		<tag k="name" v="Møllerbakken" />
		<tag k="place" v="farm" />
		<tag k="ssr:stedsnr" v="344309" />
	</node>
	<node id="-36295" lat="59.9988555554" lon="10.9864333368">
		<tag k="fixme" v="consider place=hamlet" />
		<tag k="name" v="Ramstad" />
		<tag k="place" v="farm" />
		<tag k="ssr:stedsnr" v="733489" />
	</node>
	<node id="-36293" lat="60.0455666629" lon="10.8732888937">
		<tag k="name" v="Kvernstua" />
		<tag k="place" v="locality" />
		<tag k="ssr:stedsnr" v="733421" />
	</node>
	<node id="-35780" lat="60.0474194405" lon="10.8814444519">
		<tag k="name" v="Dambo" />
		<tag k="place" v="farm" />
		<tag k="ssr:stedsnr" v="342635" />
	</node>
	<node id="-36291" lat="60.0372194426" lon="10.9099305617">
		<tag k="name" v="Øvre Gaustad" />
		<tag k="place" v="farm" />
		<tag k="ssr:stedsnr" v="733404" />
	</node>
	<node id="-36290" lat="60.0371333327" lon="10.8878444462">
		<tag k="name" v="Lunde" />
		<tag k="place" v="farm" />
		<tag k="ssr:stedsnr" v="733405" />
	</node>
	<node id="-35777" lat="59.9999361072" lon="10.9301250013">
		<tag k="name" v="Nedre Skyset" />
		<tag k="place" v="farm" />
		<tag k="ssr:stedsnr" v="126331" />
	</node>
	<node id="-35776" lat="60.1159305533" lon="10.8566305634">
		<tag k="name" v="Grønvoll" />
		<tag k="place" v="isolated_dwelling" />
		<tag k="ssr:stedsnr" v="309689" />
	</node>
	<node id="-36287" lat="60.0105000029" lon="10.9456305551">
		<tag k="name" v="Nordre Dal" />
		<tag k="place" v="farm" />
		<tag k="ssr:stedsnr" v="716613" />
	</node>
	<node id="-35774" lat="60.1024555575" lon="10.861588881">
		<tag k="name" v="Fossen" />
		<tag k="place" v="farm" />
		<tag k="ssr:stedsnr" v="309624" />
	</node>
	<node id="-36284" lat="60.0488972263" lon="10.8803611064">
		<tag k="amenity" v="school" />
		<tag k="name" v="Bjertnes videregående skole" />
		<tag k="ssr:stedsnr" v="708336" />
	</node>
	<node id="-36283" lat="60.0588694453" lon="10.8795472308">
		<tag k="name" v="Nabbetorp" />
		<tag k="place" v="farm" />
		<tag k="ssr:stedsnr" v="708323" />
	</node>
	<node id="-36282" lat="60.0651972251" lon="10.9119805517">
		<tag k="name" v="Petterstua" />
		<tag k="place" v="isolated_dwelling" />
		<tag k="ssr:stedsnr" v="708300" />
	</node>
	<node id="-36281" lat="60.1290777807" lon="10.8022638878">
		<tag k="alt_name" v="Nøkleby søndre" />
		<tag k="name" v="Søndre Nøkleby" />
		<tag k="place" v="farm" />
		<tag k="ssr:stedsnr" v="708257" />
	</node>
	<node id="-35884" lat="60.0037166669" lon="10.9295527813">
		<tag k="name" v="Ås" />
		<tag k="place" v="isolated_dwelling" />
		<tag k="ssr:stedsnr" v="5338" />
	</node>
	<node id="-35765" lat="59.9874722201" lon="10.960091658">
		<tag k="name" v="Holum" />
		<tag k="place" v="farm" />
		<tag k="ssr:stedsnr" v="308562" />
	</node>
	<node id="-35764" lat="60.081233333" lon="10.8988499971">
		<tag k="name" v="Vinsrud" />
		<tag k="place" v="isolated_dwelling" />
		<tag k="ssr:stedsnr" v="308484" />
	</node>
	<node id="-35742" lat="60.1017166667" lon="10.8836777865">
		<tag k="amenity" v="school" />
		<tag k="name" v="Kirkeby skole" />
		<tag k="ssr:stedsnr" v="284060" />
	</node>
	<node id="-35762" lat="60.0877611084" lon="10.8867111079">
		<tag k="alt_name" v="Myrerenga" />
		<tag k="name" v="Myrenga" />
		<tag k="place" v="farm" />
		<tag k="ssr:stedsnr" v="308482" />
	</node>
	<node id="-35757" lat="60.0138027753" lon="10.9228944492">
		<tag k="fixme" v="consider place=hamlet" />
		<tag k="name" v="Slattum" />
		<tag k="place" v="farm" />
		<tag k="ssr:stedsnr" v="308331" />
	</node>
	<node id="-35756" lat="60.003200152" lon="10.9437948877">
		<tag k="fixme" v="consider place=hamlet" />
		<tag k="name" v="Holm" />
		<tag k="place" v="farm" />
		<tag k="ssr:stedsnr" v="308295" />
	</node>
	<node id="-36267" lat="60.1434555523" lon="10.7669416728">
		<tag k="name" v="Jenserud" />
		<tag k="place" v="farm" />
		<tag k="ssr:stedsnr" v="673644" />
	</node>
	<node id="-36266" lat="60.099702778" lon="10.8674388913">
		<tag k="name" v="Bliksrudhagan" />
		<tag k="place" v="farm" />
		<tag k="ssr:stedsnr" v="673611" />
	</node>
	<node id="-35753" lat="60.0181666654" lon="10.9329472172">
		<tag k="name" v="Andersbråtan" />
		<tag k="place" v="locality" />
		<tag k="ssr:stedsnr" v="291613" />
	</node>
	<node id="-36264" lat="60.0814277762" lon="10.8162916611">
		<tag k="name" v="Ørfiske" />
		<tag k="place" v="farm" />
		<tag k="ssr:stedsnr" v="673529" />
	</node>
	<node id="-35852" lat="60.100644447" lon="10.8605555614">
		<tag k="name" v="Fosshagan" />
		<tag k="place" v="farm" />
		<tag k="ssr:stedsnr" v="891087" />
	</node>
	<node id="-35750" lat="59.9982611098" lon="10.9845805622">
		<tag k="name" v="Ramstad" />
		<tag k="place" v="farm" />
		<tag k="ssr:stedsnr" v="284352" />
	</node>
	<node id="-35749" lat="60.0590444427" lon="10.8880888948">
		<tag k="name" v="Massebakken" />
		<tag k="place" v="farm" />
		<tag k="ssr:stedsnr" v="284331" />
	</node>
	<node id="-36259" lat="60.0233553934" lon="10.9307458111">
		<tag k="fixme" v="consider place=hamlet" />
		<tag k="name" v="Glosli" />
		<tag k="place" v="farm" />
		<tag k="ssr:stedsnr" v="673409" />
	</node>
	<node id="-35746" lat="60.1185250007" lon="10.8354694477">
		<tag k="name" v="Sagstua" />
		<tag k="place" v="isolated_dwelling" />
		<tag k="ssr:stedsnr" v="284163" />
	</node>
	<node id="-35745" lat="60.1216555556" lon="10.8428777865">
		<tag k="name" v="Hellerud" />
		<tag k="place" v="locality" />
		<tag k="ssr:stedsnr" v="284162" />
	</node>
	<node id="-36256" lat="60.1321694452" lon="10.8306472306">
		<tag k="name" v="Mork" />
		<tag k="place" v="isolated_dwelling" />
		<tag k="ssr:stedsnr" v="672649" />
	</node>
	<node id="-36254" lat="60.0551916705" lon="10.8793194432">
		<tag k="name" v="Rotnes" />
		<tag k="place" v="farm" />
		<tag k="ssr:stedsnr" v="672447" />
	</node>
	<node id="-36253" lat="60.0574025433" lon="10.8860473216">
		<tag k="name" v="Nedre Haug" />
		<tag k="place" v="farm" />
		<tag k="ssr:stedsnr" v="672444" />
	</node>
	<node id="-36252" lat="60.017808329" lon="10.9616361114">
		<tag k="name" v="Nordbråtan" />
		<tag k="place" v="locality" />
		<tag k="ssr:stedsnr" v="672367" />
	</node>
	<node id="-35739" lat="60.0268777762" lon="10.8965916663">
		<tag k="name" v="Vestre Kjul" />
		<tag k="place" v="farm" />
		<tag k="ssr:stedsnr" v="282667" />
	</node>
	<node id="-36250" lat="60.0227500003" lon="10.9304694428">
		<tag k="alt_name" v="Glosli øvre" />
		<tag k="name" v="Øvre Glosli" />
		<tag k="place" v="farm" />
		<tag k="ssr:stedsnr" v="655617" />
	</node>
	<node id="-35823" lat="60.1061777738" lon="10.8520722246">
		<tag k="amenity" v="nursing_home" />
		<tag k="name" v="Døli pleie- og omsorgssenter" />
		<tag k="ssr:stedsnr" v="403006" />
	</node>
	<node id="-36247" lat="60.0070361139" lon="10.9246194486">
		<tag k="amenity" v="school" />
		<tag k="name" v="Li skole" />
		<tag k="ssr:stedsnr" v="655591" />
	</node>
	<node id="-35737" lat="60.0463083358" lon="10.9007055559">
		<tag k="alt_name" v="Holter nedre" />
		<tag k="name" v="Nedre Holter" />
		<tag k="place" v="farm" />
		<tag k="ssr:stedsnr" v="282298" />
	</node>
	<node id="-36241" lat="60.057069447" lon="10.8741611134">
		<tag k="name" v="Tajet" />
		<tag k="place" v="isolated_dwelling" />
		<tag k="ssr:stedsnr" v="647336" />
	</node>
	<node id="-36240" lat="60.0545277796" lon="10.8999750089">
		<tag k="name" v="Haugsbråtan" />
		<tag k="place" v="locality" />
		<tag k="ssr:stedsnr" v="647311" />
	</node>
	<node id="-36238" lat="60.0799911301" lon="10.8926707318">
		<tag k="name" v="Søndre Berg" />
		<tag k="place" v="farm" />
		<tag k="ssr:stedsnr" v="647152" />
	</node>
	<node id="-36237" lat="60.0120055589" lon="10.8833083343">
		<tag k="name" v="Skredderud" />
		<tag k="place" v="farm" />
		<tag k="ssr:stedsnr" v="645805" />
	</node>
	<node id="-36236" lat="60.1070638932" lon="10.8465250013">
		<tag k="name" v="Dølibråten" />
		<tag k="place" v="locality" />
		<tag k="ssr:stedsnr" v="645002" />
	</node>
	<node id="-35735" lat="60.1200333297" lon="10.83285277">
		<tag k="name" v="Sagbakken" />
		<tag k="place" v="farm" />
		<tag k="ssr:stedsnr" v="282029" />
	</node>
	<node id="-35939" lat="60.0816194481" lon="10.8404777698">
		<tag k="name" v="Fossestua" />
		<tag k="place" v="isolated_dwelling" />
		<tag k="ssr:stedsnr" v="66480" />
	</node>
	<node id="-36230" lat="60.0502250025" lon="10.8806000021">
		<tag k="name" v="Bjertnes" />
		<tag k="place" v="farm" />
		<tag k="ssr:stedsnr" v="612484" />
	</node>
	<node id="-36229" lat="60.0402138922" lon="10.8735861183">
		<tag k="name" v="Vestenga" />
		<tag k="place" v="isolated_dwelling" />
		<tag k="ssr:stedsnr" v="612466" />
	</node>
	<node id="-36228" lat="60.0271055568" lon="10.8950972236">
		<tag k="fixme" v="consider place=suburb, village or hamlet" />
		<tag k="name" v="Kjul" />
		<tag k="place" v="quarter" />
		<tag k="ssr:stedsnr" v="612447" />
	</node>
	<node id="-36227" lat="60.0802319989" lon="10.8925897662">
		<tag k="fixme" v="consider place=hamlet" />
		<tag k="name" v="Berg" />
		<tag k="place" v="farm" />
		<tag k="ssr:stedsnr" v="612442" />
	</node>
	<node id="-36226" lat="60.0294527819" lon="10.8754333292">
		<tag k="name" v="Steinset" />
		<tag k="place" v="farm" />
		<tag k="ssr:stedsnr" v="612441" />
	</node>
	<node id="-36225" lat="60.0118194483" lon="10.9679527714">
		<tag k="name" v="Løken" />
		<tag k="place" v="farm" />
		<tag k="ssr:stedsnr" v="612390" />
	</node>
	<node id="-36224" lat="60.011886108" lon="10.9620027792">
		<tag k="name" v="Lønsvollbakken" />
		<tag k="place" v="farm" />
		<tag k="ssr:stedsnr" v="612391" />
	</node>
	<node id="-36220" lat="60.1312055587" lon="10.7959333249">
		<tag k="alt_name" v="Elstad" />
		<tag k="name" v="Elnes" />
		<tag k="place" v="farm" />
		<tag k="ssr:stedsnr" v="611662" />
	</node>
	<node id="-36219" lat="60.1257083377" lon="10.8029083403">
		<tag k="name" v="Lysaker" />
		<tag k="place" v="farm" />
		<tag k="ssr:stedsnr" v="611659" />
	</node>
	<node id="-36218" lat="60.1363916662" lon="10.8810638947">
		<tag k="name" v="Kirkebyvangen" />
		<tag k="place" v="isolated_dwelling" />
		<tag k="ssr:stedsnr" v="611644" />
	</node>
	<node id="-35754" lat="60.015894445" lon="10.9323472307">
		<tag k="name" v="Nordli" />
		<tag k="place" v="locality" />
		<tag k="ssr:stedsnr" v="291618" />
	</node>
	<node id="-35817" lat="60.1706055558" lon="10.8492611028">
		<tag k="name" v="Hakkim" />
		<tag k="old_name" v="Nakkim" />
		<tag k="place" v="farm" />
		<tag k="ssr:stedsnr" v="369654" />
	</node>
	<node id="-36210" lat="60.0556388911" lon="10.8369833294">
		<tag k="name" v="Svingbakken" />
		<tag k="place" v="isolated_dwelling" />
		<tag k="ssr:stedsnr" v="611483" />
	</node>
	<node id="-35816" lat="60.1209861113" lon="10.7530611051">
		<tag k="alt_name" v="Elviken" />
		<tag k="fixme" v="multiple name tags, choose one and add the other to alt_name" />
		<tag k="name" v="Elvika;Elvikløkka" />
		<tag k="place" v="farm" />
		<tag k="ssr:stedsnr" v="369633" />
	</node>
	<node id="-36205" lat="60.0109888926" lon="10.9386111201">
		<tag k="name" v="Klokkerstua" />
		<tag k="place" v="isolated_dwelling" />
		<tag k="ssr:stedsnr" v="595578" />
	</node>
	<node id="-36198" lat="60.0276888913" lon="10.9267555607">
		<tag k="name" v="Gloslimoen" />
		<tag k="place" v="isolated_dwelling" />
		<tag k="ssr:stedsnr" v="587719" />
	</node>
	<node id="-36196" lat="60.0159472196" lon="10.9496111159">
		<tag k="name" v="Ilangstua" />
		<tag k="place" v="isolated_dwelling" />
		<tag k="ssr:stedsnr" v="587584" />
	</node>
	<node id="-35814" lat="60.1271166667" lon="10.7582694426">
		<tag k="name" v="Bakken" />
		<tag k="place" v="isolated_dwelling" />
		<tag k="ssr:stedsnr" v="369595" />
	</node>
	<node id="-36194" lat="60.0021249974" lon="10.9419611196">
		<tag k="name" v="Nordre Holm" />
		<tag k="place" v="farm" />
		<tag k="ssr:stedsnr" v="587370" />
	</node>
	<node id="-35857" lat="59.993033332" lon="10.952691659">
		<tag k="name" v="Torud" />
		<tag k="place" v="locality" />
		<tag k="ssr:stedsnr" v="891388" />
	</node>
	<node id="-36190" lat="60.1329388922" lon="10.8140166716">
		<tag k="amenity" v="school" />
		<tag k="name" v="Hagen skole" />
		<tag k="ssr:stedsnr" v="587294" />
	</node>
	<node id="-36189" lat="60.1039944479" lon="10.8559249934">
		<tag k="name" v="Døli" />
		<tag k="place" v="farm" />
		<tag k="ssr:stedsnr" v="587068" />
	</node>
	<node id="-36184" lat="60.0254111129" lon="10.840261113">
		<tag k="amenity" v="cafe" />
		<tag k="name" v="Sinober sportsstue" />
		<tag k="old_name" v="Sinober" />
		<tag k="ssr:stedsnr" v="570806" />
	</node>
	<node id="-36180" lat="60.1244416709" lon="10.8031222143">
		<tag k="fixme" v="multiple name tags, choose one and add the other to alt_name" />
		<tag k="name" v="Holm;Steinerud" />
		<tag k="place" v="isolated_dwelling" />
		<tag k="ssr:stedsnr" v="551679" />
	</node>
	<node id="-36179" lat="60.1260137161" lon="10.8187487026">
		<tag k="fixme" v="consider place=hamlet" />
		<tag k="name" v="Haug" />
		<tag k="place" v="farm" />
		<tag k="ssr:stedsnr" v="551677" />
	</node>
	<node id="-36177" lat="60.1352833373" lon="10.9021583397">
		<tag k="name" v="Tjernslivangen" />
		<tag k="place" v="locality" />
		<tag k="ssr:stedsnr" v="551622" />
	</node>
	<node id="-36175" lat="60.0962277781" lon="10.8935055608">
		<tag k="name" v="Myrhaug" />
		<tag k="place" v="farm" />
		<tag k="ssr:stedsnr" v="551610" />
	</node>
	<node id="-36173" lat="60.1011638887" lon="10.8822083405">
		<tag k="name" v="Kirkebyhaugen" />
		<tag k="place" v="farm" />
		<tag k="ssr:stedsnr" v="551588" />
	</node>
	<node id="-35810" lat="60.1060373221" lon="10.8749447203">
		<tag k="alt_name" v="Kirkeby" />
		<tag k="name" v="Glitre" />
		<tag k="place" v="farm" />
		<tag k="ssr:stedsnr" v="369539" />
	</node>
	<node id="-35895" lat="60.038630554" lon="10.8593250055">
		<tag k="alt_name" v="Jenserud" />
		<tag k="name" v="Jensrud" />
		<tag k="place" v="isolated_dwelling" />
		<tag k="ssr:stedsnr" v="5420" />
	</node>
	<node id="-36168" lat="60.052469441" lon="10.8887916646">
		<tag k="name" v="Øvre Haug" />
		<tag k="place" v="farm" />
		<tag k="ssr:stedsnr" v="551469" />
	</node>
	<node id="-36166" lat="60.0278500034" lon="10.9244416744">
		<tag k="alt_name" v="Sagbråtan" />
		<tag k="name" v="Sagbråten" />
		<tag k="place" v="farm" />
		<tag k="ssr:stedsnr" v="551403" />
	</node>
	<node id="-35894" lat="60.0408250046" lon="10.9126111063">
		<tag k="name" v="Nybrott" />
		<tag k="place" v="isolated_dwelling" />
		<tag k="ssr:stedsnr" v="5416" />
	</node>
	<node id="-36162" lat="60.0182055527" lon="10.9161916689">
		<tag k="alt_name" v="Hauger nedre" />
		<tag k="name" v="Nedre Hauger" />
		<tag k="place" v="farm" />
		<tag k="ssr:stedsnr" v="534609" />
	</node>
	<node id="-36158" lat="60.008583333" lon="10.9495194455">
		<tag k="alt_name" v="Dal nedre" />
		<tag k="name" v="Nedre Dal" />
		<tag k="place" v="farm" />
		<tag k="ssr:stedsnr" v="526576" />
	</node>
	<node id="-36157" lat="60.1182500018" lon="10.8546027747">
		<tag k="name" v="Granly" />
		<tag k="place" v="isolated_dwelling" />
		<tag k="ssr:stedsnr" v="526573" />
	</node>
	<node id="-36156" lat="59.9939055512" lon="10.9870444424">
		<tag k="name" v="Store Ramstad" />
		<tag k="place" v="farm" />
		<tag k="ssr:stedsnr" v="526335" />
	</node>
	<node id="-36153" lat="60.1049527754" lon="10.8445722282">
		<tag k="landuse" v="winter_sports" />
		<tag k="name" v="Varingskollen skisenter" />
		<tag k="piste:type" v="downhill" />
		<tag k="ssr:stedsnr" v="525011" />
	</node>
	<node id="-36152" lat="60.0181166659" lon="10.8530972163">
		<tag k="name" v="Kølabonn" />
		<tag k="place" v="locality" />
		<tag k="ssr:stedsnr" v="524845" />
	</node>
	<node id="-36150" lat="60.0104181223" lon="10.958181848">
		<tag k="name" v="Nordenga" />
		<tag k="place" v="farm" />
		<tag k="ssr:stedsnr" v="524617" />
	</node>
	<node id="-36148" lat="60.0570722265" lon="10.8613527799">
		<tag k="name" v="Rotnes" />
		<tag k="place" v="village" />
		<tag k="ssr:stedsnr" v="510065" />
	</node>
	<node id="-35755" lat="60.0111138919" lon="10.9270111202">
		<tag k="name" v="Brenninghaugen" />
		<tag k="place" v="quarter" />
		<tag k="ssr:stedsnr" v="292593" />
	</node>
	<node id="-36143" lat="60.0985083362" lon="10.8858138972">
		<tag k="alt_name" v="Kirkeby, s" />
		<tag k="name" v="Søndre Kirkeby" />
		<tag k="place" v="farm" />
		<tag k="ssr:stedsnr" v="491612" />
	</node>
	<node id="-36142" lat="60.101402887" lon="10.8777440722">
		<tag k="alt_name" v="Jonstua" />
		<tag k="name" v="Solvang" />
		<tag k="place" v="farm" />
		<tag k="ssr:stedsnr" v="491609" />
	</node>
	<node id="-36141" lat="60.0099432829" lon="10.9574562268">
		<tag k="fixme" v="consider place=hamlet" />
		<tag k="name" v="Dal" />
		<tag k="place" v="farm" />
		<tag k="ssr:stedsnr" v="491392" />
	</node>
	<node id="-36140" lat="60.0291249992" lon="10.9096083378">
		<tag k="name" v="Holmerud" />
		<tag k="place" v="locality" />
		<tag k="ssr:stedsnr" v="491438" />
	</node>
	<node id="-35804" lat="60.0416805552" lon="10.9083944476">
		<tag k="alt_name" v="Holter, s;Holter søndre;Holterstua" />
		<tag k="name" v="Søndre Holter" />
		<tag k="place" v="farm" />
		<tag k="ssr:stedsnr" v="369385" />
	</node>
	<node id="-36133" lat="60.0846749967" lon="10.8751555604">
		<tag k="alt_name" v="Åneby, øvre" />
		<tag k="name" v="Åneby" />
		<tag k="place" v="farm" />
		<tag k="ssr:stedsnr" v="490493" />
	</node>
	<node id="-36132" lat="60.0442166688" lon="10.878924994">
		<tag k="name" v="Mo" />
		<tag k="place" v="farm" />
		<tag k="ssr:stedsnr" v="490438" />
	</node>
	<node id="-36131" lat="59.996758331" lon="10.9123500056">
		<tag k="name" v="Skytta" />
		<tag k="place" v="village" />
		<tag k="ssr:stedsnr" v="489645" />
	</node>
	<node id="-36129" lat="60.1250444473" lon="10.8252472191">
		<tag k="name" v="Nesberget" />
		<tag k="place" v="farm" />
		<tag k="ssr:stedsnr" v="466607" />
	</node>
	<node id="-36127" lat="60.1044106075" lon="10.8776163582">
		<tag k="alt_name" v="Gamle Glittre" />
		<tag k="name" v="Gamle Glitre" />
		<tag k="place" v="farm" />
		<tag k="ssr:stedsnr" v="466083" />
	</node>
	<node id="-36121" lat="60.0288888917" lon="10.9009416728">
		<tag k="name" v="Nordre Kjul" />
		<tag k="old_name" v="Kjul nordre" />
		<tag k="place" v="farm" />
		<tag k="ssr:stedsnr" v="464702" />
	</node>
	<node id="-36115" lat="60.1194416633" lon="10.8171972134">
		<tag k="name" v="Blåsås" />
		<tag k="place" v="isolated_dwelling" />
		<tag k="ssr:stedsnr" v="430668" />
	</node>
	<node id="-35885" lat="60.006977777" lon="10.933225006">
		<tag k="alt_name" v="Dalstua" />
		<tag k="name" v="Dalsbråtastua" />
		<tag k="place" v="farm" />
		<tag k="ssr:stedsnr" v="5339" />
	</node>
	<node id="-36108" lat="60.0799583292" lon="10.8817861055">
		<tag k="alt_name" v="Sørli" />
		<tag k="name" v="Sørlifallet" />
		<tag k="place" v="farm" />
		<tag k="ssr:stedsnr" v="430506" />
	</node>
	<node id="-36107" lat="60.0826527817" lon="10.8797638812">
		<tag k="name" v="Haugerud" />
		<tag k="place" v="farm" />
		<tag k="ssr:stedsnr" v="430491" />
	</node>
	<node id="-36105" lat="60.058425004" lon="10.8520333355">
		<tag k="name" v="Sørli" />
		<tag k="place" v="isolated_dwelling" />
		<tag k="ssr:stedsnr" v="430459" />
	</node>
	<node id="-36103" lat="60.0369694428" lon="10.8546888857">
		<tag k="name" v="Dalen" />
		<tag k="place" v="isolated_dwelling" />
		<tag k="ssr:stedsnr" v="430421" />
	</node>
	<node id="-36102" lat="60.0255388875" lon="10.9150333348">
		<tag k="name" v="Øgarden" />
		<tag k="place" v="farm" />
		<tag k="ssr:stedsnr" v="430401" />
	</node>
	<node id="-36100" lat="60.0132416656" lon="10.9332805546">
		<tag k="name" v="Solvang" />
		<tag k="place" v="farm" />
		<tag k="ssr:stedsnr" v="430351" />
	</node>
	<node id="-36099" lat="60.0041805564" lon="10.9282388855">
		<tag k="fixme" v="consider place=suburb, village or hamlet" />
		<tag k="name" v="Li" />
		<tag k="place" v="quarter" />
		<tag k="ssr:stedsnr" v="430343" />
	</node>
	<node id="-36098" lat="59.9985805513" lon="10.9291055559">
		<tag k="fixme" v="consider place=hamlet" />
		<tag k="name" v="Skyset" />
		<tag k="place" v="farm" />
		<tag k="ssr:stedsnr" v="429600" />
	</node>
	<node id="-36097" lat="59.9924333348" lon="10.9611194462">
		<tag k="fixme" v="consider place=hamlet" />
		<tag k="name" v="Nesgutu" />
		<tag k="place" v="farm" />
		<tag k="ssr:stedsnr" v="429598" />
	</node>
	<node id="-36094" lat="60.1277499995" lon="10.7306694427">
		<tag k="name" v="Mago" />
		<tag k="place" v="farm" />
		<tag k="ssr:stedsnr" v="430646" />
	</node>
	<node id="-36092" lat="60.1247416637" lon="10.7474833271">
		<tag k="name" v="Bråtan" />
		<tag k="place" v="farm" />
		<tag k="ssr:stedsnr" v="248694" />
	</node>
	<node id="-36091" lat="60.1217416645" lon="10.8119444486">
		<tag k="name" v="Ekra" />
		<tag k="place" v="isolated_dwelling" />
		<tag k="ssr:stedsnr" v="248691" />
	</node>
	<node id="-36090" lat="60.1297388921" lon="10.8113361068">
		<tag k="name" v="Nordre Haug" />
		<tag k="place" v="farm" />
		<tag k="ssr:stedsnr" v="248677" />
	</node>
	<node id="-35910" lat="60.0307666649" lon="10.9139749989">
		<tag k="name" v="Røa" />
		<tag k="place" v="isolated_dwelling" />
		<tag k="ssr:stedsnr" v="39597" />
	</node>
	<node id="-36087" lat="60.0648388885" lon="10.9108027855">
		<tag k="name" v="Askkroken" />
		<tag k="place" v="hamlet" />
		<tag k="ssr:stedsnr" v="248563" />
	</node>
	<node id="-36086" lat="60.0699499992" lon="10.9260944466">
		<tag k="name" v="Hulderbu" />
		<tag k="place" v="isolated_dwelling" />
		<tag k="ssr:stedsnr" v="248548" />
	</node>
	<node id="-36083" lat="60.0349833332" lon="10.83226389">
		<tag k="name" v="Burås" />
		<tag k="place" v="farm" />
		<tag k="ssr:stedsnr" v="248410" />
	</node>
	<node id="-36082" lat="60.0288361098" lon="10.9158722141">
		<tag k="alt_name" v="Krakoseter" />
		<tag k="name" v="Krakossæter" />
		<tag k="place" v="isolated_dwelling" />
		<tag k="ssr:stedsnr" v="248401" />
	</node>
	<node id="-36081" lat="60.0104027765" lon="10.9449388855">
		<tag k="fixme" v="consider place=hamlet" />
		<tag k="name" v="Dal" />
		<tag k="place" v="farm" />
		<tag k="ssr:stedsnr" v="248379" />
	</node>
	<node id="-36080" lat="60.0160361138" lon="10.9098333362">
		<tag k="name" v="Haugerud" />
		<tag k="place" v="farm" />
		<tag k="ssr:stedsnr" v="248339" />
	</node>
	<node id="-36078" lat="59.9751499956" lon="10.9624749987">
		<tag k="landuse" v="military" />
		<tag k="name" v="Lahaugmoen" />
		<tag k="ssr:stedsnr" v="247509" />
	</node>
	<node id="-35896" lat="60.0581388904" lon="10.8990500021">
		<tag k="name" v="Østby" />
		<tag k="place" v="farm" />
		<tag k="ssr:stedsnr" v="5460" />
	</node>
	<node id="-36074" lat="60.1363111123" lon="10.7913888961">
		<tag k="name" v="Nedre Elnes" />
		<tag k="place" v="farm" />
		<tag k="ssr:stedsnr" v="223814" />
	</node>
	<node id="-35879" lat="59.9915305581" lon="10.952961118">
		<tag k="alt_name" v="Øgarden" />
		<tag k="name" v="Øgården" />
		<tag k="place" v="farm" />
		<tag k="ssr:stedsnr" v="4614" />
	</node>
	<node id="-36070" lat="59.9904222264" lon="10.9851500005">
		<tag k="name" v="Jeppebakken" />
		<tag k="place" v="farm" />
		<tag k="ssr:stedsnr" v="223362" />
	</node>
	<node id="-35793" lat="60.0171499962" lon="10.9368722249">
		<tag k="name" v="Øvre Sørli" />
		<tag k="place" v="locality" />
		<tag k="ssr:stedsnr" v="351585" />
	</node>
	<node id="-36068" lat="60.0660472238" lon="10.8915277724">
		<tag k="name" v="Nedre Nordby" />
		<tag k="place" v="farm" />
		<tag k="ssr:stedsnr" v="223316" />
	</node>
	<node id="-36067" lat="60.0642861139" lon="10.9066277824">
		<tag k="name" v="Sletta" />
		<tag k="place" v="farm" />
		<tag k="ssr:stedsnr" v="223309" />
	</node>
	<node id="-36066" lat="60.1380416663" lon="10.8199166753">
		<tag k="name" v="Nordre Mork" />
		<tag k="place" v="farm" />
		<tag k="ssr:stedsnr" v="223258" />
	</node>
	<node id="-36065" lat="60.135277775" lon="10.8203416685">
		<tag k="name" v="Midtre Mork" />
		<tag k="place" v="farm" />
		<tag k="ssr:stedsnr" v="223232" />
	</node>
	<node id="-36063" lat="60.0822749994" lon="10.8765277755">
		<tag k="name" v="Bråten" />
		<tag k="place" v="farm" />
		<tag k="ssr:stedsnr" v="223102" />
	</node>
	<node id="-36062" lat="60.0089249985" lon="10.9483194504">
		<tag k="alt_name" v="Dal vestre" />
		<tag k="name" v="Vestre Dal" />
		<tag k="place" v="farm" />
		<tag k="ssr:stedsnr" v="223595" />
	</node>
	<node id="-36060" lat="60.0278916682" lon="10.9009749987">
		<tag k="alt_name" v="Kjul søndre" />
		<tag k="name" v="Søndre Kjul" />
		<tag k="place" v="farm" />
		<tag k="ssr:stedsnr" v="221639" />
	</node>
	<node id="-36056" lat="60.1252055594" lon="10.8172833267">
		<tag k="name" v="Søndre Haug" />
		<tag k="place" v="farm" />
		<tag k="ssr:stedsnr" v="221020" />
	</node>
	<node id="-36055" lat="60.1198138848" lon="10.8150416699">
		<tag k="name" v="Skansen" />
		<tag k="place" v="isolated_dwelling" />
		<tag k="ssr:stedsnr" v="221014" />
	</node>
	<node id="-36053" lat="60.1052583372" lon="10.8897638974">
		<tag k="name" v="Kirkebylia" />
		<tag k="place" v="hamlet" />
		<tag k="ssr:stedsnr" v="221005" />
	</node>
	<node id="-36052" lat="60.1437277738" lon="10.8066083262">
		<tag k="building" v="civic" />
		<tag k="name" v="Nittedal Jordstasjon" />
		<tag k="ssr:stedsnr" v="208315" />
	</node>
	<node id="-36051" lat="60.0386388861" lon="10.873491666">
		<tag k="name" v="Skøyenhagan" />
		<tag k="place" v="farm" />
		<tag k="ssr:stedsnr" v="208299" />
	</node>
	<node id="-35805" lat="60.0457000003" lon="10.9044166677">
		<tag k="fixme" v="consider place=hamlet" />
		<tag k="name" v="Holter" />
		<tag k="place" v="farm" />
		<tag k="ssr:stedsnr" v="369409" />
	</node>
	<node id="-36046" lat="60.1053222228" lon="10.8598500019">
		<tag k="name" v="Døli" />
		<tag k="place" v="farm" />
		<tag k="ssr:stedsnr" v="188633" />
	</node>
	<node id="-36044" lat="60.0625666655" lon="10.9030416749">
		<tag k="name" v="Ask" />
		<tag k="place" v="farm" />
		<tag k="ssr:stedsnr" v="188606" />
	</node>
	<node id="-36041" lat="60.015366663" lon="10.9608277806">
		<tag k="alt_name" v="Molstad" />
		<tag k="name" v="Moldstad" />
		<tag k="place" v="farm" />
		<tag k="ssr:stedsnr" v="188408" />
	</node>
	<node id="-36038" lat="60.114669446" lon="10.8304749991">
		<tag k="name" v="Burås" />
		<tag k="place" v="quarter" />
		<tag k="ssr:stedsnr" v="187537" />
	</node>
	<node id="-36035" lat="60.0919983718" lon="10.8890510387">
		<tag k="name" v="Breidablikk" />
		<tag k="place" v="farm" />
		<tag k="ssr:stedsnr" v="187571" />
	</node>
	<node id="-36032" lat="60.0483361123" lon="10.8713500055">
		<tag k="name" v="Nygård" />
		<tag k="place" v="isolated_dwelling" />
		<tag k="ssr:stedsnr" v="187428" />
	</node>
	<node id="-36030" lat="60.0318277734" lon="10.904325002">
		<tag k="name" v="Grønlund" />
		<tag k="place" v="farm" />
		<tag k="ssr:stedsnr" v="187396" />
	</node>
	<node id="-36028" lat="60.027533335" lon="10.8714472161">
		<tag k="name" v="Vollen" />
		<tag k="place" v="isolated_dwelling" />
		<tag k="ssr:stedsnr" v="187386" />
	</node>
	<node id="-36027" lat="59.9831527745" lon="10.9641722298">
		<tag k="name" v="Bøler" />
		<tag k="place" v="farm" />
		<tag k="ssr:stedsnr" v="186640" />
	</node>
	<node id="-36026" lat="59.9981305549" lon="10.9737166708">
		<tag k="name" v="Glømmi" />
		<tag k="place" v="locality" />
		<tag k="ssr:stedsnr" v="186660" />
	</node>
	<node id="-36025" lat="60.0133277796" lon="10.9050000018">
		<tag k="name" v="Haugersetra" />
		<tag k="place" v="locality" />
		<tag k="ssr:stedsnr" v="170614" />
	</node>
	<node id="-36023" lat="60.0332833288" lon="10.8895083414">
		<tag k="alt_name" v="Skøyen nedre" />
		<tag k="name" v="Nedre Skøyen" />
		<tag k="place" v="farm" />
		<tag k="ssr:stedsnr" v="162737" />
	</node>
	<node id="-36022" lat="60.1168555589" lon="10.8540749917">
		<tag k="name" v="Solvang" />
		<tag k="place" v="isolated_dwelling" />
		<tag k="ssr:stedsnr" v="162587" />
	</node>
	<node id="-36019" lat="60.0654833296" lon="10.9107222206">
		<tag k="name" v="Rusestua" />
		<tag k="place" v="farm" />
		<tag k="ssr:stedsnr" v="162291" />
	</node>
	<node id="-36016" lat="60.1135111098" lon="10.8633166754">
		<tag k="name" v="Tøyenberget" />
		<tag k="place" v="quarter" />
		<tag k="ssr:stedsnr" v="162141" />
	</node>
	<node id="-36015" lat="60.0975194414" lon="10.8629694494">
		<tag k="name" v="Bliksrudhagen" />
		<tag k="place" v="farm" />
		<tag k="ssr:stedsnr" v="162118" />
	</node>
	<node id="-36013" lat="60.091102774" lon="10.8867222138">
		<tag k="name" v="Søndre Myrer" />
		<tag k="place" v="farm" />
		<tag k="ssr:stedsnr" v="162066" />
	</node>
	<node id="-36010" lat="60.0087611148" lon="10.889061104">
		<tag k="historic" v="shieling" />
		<tag k="name" v="Rudsetra" />
		<tag k="place" v="locality" />
		<tag k="ssr:stedsnr" v="160797" />
	</node>
	<node id="-36008" lat="60.0471305535" lon="10.906069448">
		<tag k="name" v="Skredderud" />
		<tag k="place" v="locality" />
		<tag k="ssr:stedsnr" v="160283" />
	</node>
	<node id="-36006" lat="59.9926777734" lon="10.9334861122">
		<tag k="name" v="Skysetbråtan" />
		<tag k="place" v="locality" />
		<tag k="ssr:stedsnr" v="160239" />
	</node>
	<node id="-36005" lat="60.1272055556" lon="10.7985611098">
		<tag k="name" v="Nøklebybråten" />
		<tag k="place" v="farm" />
		<tag k="ssr:stedsnr" v="160018" />
	</node>
	<node id="-36004" lat="60.0084111087" lon="10.9167611088">
		<tag k="name" v="Slattum" />
		<tag k="place" v="village" />
		<tag k="ssr:stedsnr" v="145114" />
	</node>
	<node id="-35995" lat="60.1245750006" lon="10.8419250044">
		<tag k="name" v="Bjørnholt" />
		<tag k="place" v="farm" />
		<tag k="ssr:stedsnr" v="126666" />
	</node>
	<node id="-35994" lat="60.0755972221" lon="10.8849722188">
		<tag k="alt_name" v="Strøm, nordre" />
		<tag k="name" v="Nord-Strøm" />
		<tag k="place" v="farm" />
		<tag k="ssr:stedsnr" v="126546" />
	</node>
	<node id="-36207" lat="60.0087333345" lon="10.9337777703">
		<tag k="name" v="Høghaugen" />
		<tag k="place" v="farm" />
		<tag k="ssr:stedsnr" v="611366" />
	</node>
	<node id="-35990" lat="60.1329055541" lon="10.7980638897">
		<tag k="name" v="Enga" />
		<tag k="place" v="farm" />
		<tag k="ssr:stedsnr" v="126625" />
	</node>
	<node id="-35989" lat="60.1354916688" lon="10.8202500039">
		<tag k="fixme" v="consider place=hamlet" />
		<tag k="name" v="Mork" />
		<tag k="place" v="farm" />
		<tag k="ssr:stedsnr" v="126613" />
	</node>
	<node id="-35790" lat="60.1162527755" lon="10.8516472181">
		<tag k="amenity" v="nursing_home" />
		<tag k="name" v="MS-Senteret Hakadal" />
		<tag k="old_name" v="Multipelsklerosehjemmet;Multippel sklerose-hjemmet" />
		<tag k="ssr:stedsnr" v="344588" />
	</node>
	<node id="-35779" lat="60.0297833302" lon="10.9143833417">
		<tag k="name" v="Høybråten" />
		<tag k="place" v="farm" />
		<tag k="ssr:stedsnr" v="342602" />
	</node>
	<node id="-35984" lat="60.0456833377" lon="10.8696666665">
		<tag k="name" v="Mostua" />
		<tag k="place" v="farm" />
		<tag k="ssr:stedsnr" v="126465" />
	</node>
	<node id="-35981" lat="59.9986722257" lon="10.9190944501">
		<tag k="name" v="Hagan" />
		<tag k="place" v="village" />
		<tag k="ssr:stedsnr" v="125628" />
	</node>
	<node id="-35980" lat="59.989061109" lon="10.9768916639">
		<tag k="name" v="Åros" />
		<tag k="place" v="farm" />
		<tag k="ssr:stedsnr" v="125624" />
	</node>
	<node id="-35807" lat="60.0706388872" lon="10.8807361189">
		<tag k="name" v="Berger" />
		<tag k="place" v="farm" />
		<tag k="ssr:stedsnr" v="369487" />
	</node>
	<node id="-35974" lat="60.0062138899" lon="10.9493444521">
		<tag k="alt_name" v="Dal søndre" />
		<tag k="name" v="Søndre Dal" />
		<tag k="place" v="farm" />
		<tag k="ssr:stedsnr" v="102619" />
	</node>
	<node id="-35973" lat="59.9992083368" lon="10.9872722151">
		<tag k="name" v="Vesle Ramstad" />
		<tag k="place" v="farm" />
		<tag k="ssr:stedsnr" v="102409" />
	</node>
	<node id="-35972" lat="59.9980681728" lon="10.9221190294">
		<tag k="amenity" v="school" />
		<tag k="name" v="Ulverud skole" />
		<tag k="ssr:stedsnr" v="102393" />
	</node>
	<node id="-35862" lat="60.0151527796" lon="10.919747226">
		<tag k="name" v="Kjonelia" />
		<tag k="place" v="locality" />
		<tag k="ssr:stedsnr" v="898588" />
	</node>
	<node id="-35968" lat="60.0635066154" lon="10.890567086">
		<tag k="name" v="Øvre Nordby" />
		<tag k="place" v="farm" />
		<tag k="ssr:stedsnr" v="102350" />
	</node>
	<node id="-35967" lat="60.1262638928" lon="10.7012499966">
		<tag k="name" v="Måsjøhytta" />
		<tag k="place" v="isolated_dwelling" />
		<tag k="ssr:stedsnr" v="102174" />
	</node>
	<node id="-35965" lat="60.0895666665" lon="10.8816361183">
		<tag k="name" v="Hynne" />
		<tag k="place" v="farm" />
		<tag k="ssr:stedsnr" v="102126" />
	</node>
	<node id="-35963" lat="60.0229361107" lon="10.8738972226">
		<tag k="name" v="Brenna" />
		<tag k="place" v="farm" />
		<tag k="ssr:stedsnr" v="100846" />
	</node>
	<node id="-35961" lat="60.1169694454" lon="10.8212361154">
		<tag k="name" v="Bomstua" />
		<tag k="place" v="locality" />
		<tag k="ssr:stedsnr" v="100011" />
	</node>
	<node id="-35957" lat="60.0740805548" lon="10.9038111036">
		<tag k="name" v="Nytthus" />
		<tag k="place" v="isolated_dwelling" />
		<tag k="ssr:stedsnr" v="87286" />
	</node>
	<node id="-35956" lat="60.1144472219" lon="10.8599944395">
		<tag k="alt_name" v="Grønvoll" />
		<tag k="name" v="Tøyen" />
		<tag k="place" v="quarter" />
		<tag k="ssr:stedsnr" v="85873" />
	</node>
	<node id="-35949" lat="60.1211194481" lon="10.8232305584">
		<tag k="alt_name" v="Hakadal verk" />
		<tag k="name" v="Hakadals verk" />
		<tag k="place" v="hamlet" />
		<tag k="ssr:stedsnr" v="66669" />
	</node>
	<node id="-35947" lat="60.14158333" lon="10.8144583381">
		<tag k="name" v="Myra" />
		<tag k="place" v="farm" />
		<tag k="ssr:stedsnr" v="66608" />
	</node>
	<node id="-35945" lat="60.1133083362" lon="10.8604083293">
		<tag k="name" v="Tøyen" />
		<tag k="place" v="farm" />
		<tag k="ssr:stedsnr" v="66549" />
	</node>
	<node id="-35944" lat="60.1102666655" lon="10.8441666722">
		<tag k="name" v="Løvstad" />
		<tag k="place" v="farm" />
		<tag k="ssr:stedsnr" v="66550" />
	</node>
	<node id="-35772" lat="60.1500499995" lon="10.7733249937">
		<tag k="name" v="Varpet" />
		<tag k="place" v="farm" />
		<tag k="ssr:stedsnr" v="309732" />
	</node>
	<node id="-35941" lat="60.0667805568" lon="10.9052749995">
		<tag k="name" v="Øvre Rus" />
		<tag k="place" v="farm" />
		<tag k="ssr:stedsnr" v="66534" />
	</node>
	<node id="-35738" lat="60.0314777738" lon="10.8982916594">
		<tag k="alt_name" v="Fjelltun" />
		<tag k="name" v="Nedre Kjul" />
		<tag k="place" v="farm" />
		<tag k="ssr:stedsnr" v="282612" />
	</node>
	<node id="-35938" lat="60.0539083368" lon="10.8838555512">
		<tag k="name" v="Haugestad" />
		<tag k="place" v="farm" />
		<tag k="ssr:stedsnr" v="66444" />
	</node>
	<node id="-35937" lat="60.0159055566" lon="10.9668888929">
		<tag k="name" v="Lønsvoll" />
		<tag k="place" v="farm" />
		<tag k="ssr:stedsnr" v="66377" />
	</node>
	<node id="-35936" lat="60.0227222197" lon="10.9112111142">
		<tag k="name" v="Rud" />
		<tag k="place" v="farm" />
		<tag k="ssr:stedsnr" v="66375" />
	</node>
	<node id="-35933" lat="59.9989361073" lon="10.9519277797">
		<tag k="name" v="Søndre Holm" />
		<tag k="place" v="farm" />
		<tag k="ssr:stedsnr" v="65593" />
	</node>
	<node id="-35932" lat="60.0224277758" lon="10.9278833371">
		<tag k="alt_name" v="Glosli nedre" />
		<tag k="name" v="Nedre Glosli" />
		<tag k="place" v="farm" />
		<tag k="ssr:stedsnr" v="49665" />
	</node>
	<node id="-35770" lat="60.0311833313" lon="10.8906249961">
		<tag k="alt_name" v="Skøyen, s" />
		<tag k="name" v="Søndre Skøyen" />
		<tag k="place" v="farm" />
		<tag k="ssr:stedsnr" v="309461" />
	</node>
	<node id="-35930" lat="60.101547435" lon="10.8788191695">
		<tag k="name" v="Jonstua" />
		<tag k="place" v="farm" />
		<tag k="ssr:stedsnr" v="49646" />
	</node>
	<node id="-35929" lat="60.0150222185" lon="10.9325138922">
		<tag k="name" v="Ner-Sørli" />
		<tag k="place" v="locality" />
		<tag k="ssr:stedsnr" v="48556" />
	</node>
	<node id="-35926" lat="60.0165944418" lon="10.9133166613">
		<tag k="alt_name" v="Hauger øvre" />
		<tag k="name" v="Øvre Hauger" />
		<tag k="place" v="farm" />
		<tag k="ssr:stedsnr" v="48548" />
	</node>
	<node id="-35925" lat="60.0102555561" lon="10.9567027694">
		<tag k="alt_name" v="Dal østre" />
		<tag k="name" v="Østre Dal" />
		<tag k="place" v="farm" />
		<tag k="ssr:stedsnr" v="41570" />
	</node>
	<node id="-35923" lat="60.0532194472" lon="10.877769445">
		<tag k="amenity" v="school" />
		<tag k="name" v="Nittedal ungdomsskole" />
		<tag k="ssr:stedsnr" v="41345" />
	</node>
	<node id="-35922" lat="60.0677916661" lon="10.9100277695">
		<tag k="name" v="Gudbrandstua" />
		<tag k="place" v="isolated_dwelling" />
		<tag k="ssr:stedsnr" v="41311" />
	</node>
	<node id="-36433" lat="60.0310583325" lon="10.8736750001">
		<tag k="name" v="Stua" />
		<tag k="place" v="farm" />
		<tag k="ssr:stedsnr" v="951734" />
	</node>
	<node id="-36431" lat="60.0168166641" lon="10.9558361181">
		<tag k="name" v="Sandbråtan" />
		<tag k="place" v="locality" />
		<tag k="ssr:stedsnr" v="951579" />
	</node>
	<node id="-35918" lat="60.1330861126" lon="10.7907805562">
		<tag k="name" v="Kolonien" />
		<tag k="place" v="farm" />
		<tag k="ssr:stedsnr" v="41254" />
	</node>
	<node id="-35993" lat="60.0735194441" lon="10.8869555592">
		<tag k="alt_name" v="Strøm, s" />
		<tag k="name" v="Sø-Strøm" />
		<tag k="place" v="farm" />
		<tag k="ssr:stedsnr" v="126547" />
	</node>
	<node id="-36426" lat="60.1309472249" lon="10.8316250036">
		<tag k="name" v="Sø Mork" />
		<tag k="place" v="farm" />
		<tag k="ssr:stedsnr" v="951251" />
	</node>
	<node id="-36423" lat="60.0817833337" lon="10.8895527691">
		<tag k="name" v="Nordre Berg" />
		<tag k="place" v="farm" />
		<tag k="ssr:stedsnr" v="951100" />
	</node>
	<node id="-36422" lat="60.0946749996" lon="10.8837611026">
		<tag k="name" v="Gunhildstua" />
		<tag k="place" v="isolated_dwelling" />
		<tag k="ssr:stedsnr" v="951072" />
	</node>
	<node id="-35909" lat="60.0455111086" lon="10.904305564">
		<tag k="alt_name" v="Holter øvre" />
		<tag k="name" v="Øvre Holter" />
		<tag k="place" v="farm" />
		<tag k="ssr:stedsnr" v="39275" />
	</node>
	<node id="-35908" lat="59.9961416623" lon="10.9404833249">
		<tag k="name" v="Korperud" />
		<tag k="place" v="locality" />
		<tag k="ssr:stedsnr" v="39226" />
	</node>
	<node id="-35906" lat="60.0187861141" lon="10.9031027854">
		<tag k="name" v="Solli" />
		<tag k="place" v="isolated_dwelling" />
		<tag k="ssr:stedsnr" v="6427" />
	</node>
	<node id="-35847" lat="60.0250591762" lon="10.8401640118">
		<tag k="historic" v="shieling" />
		<tag k="name" v="Sinober" />
		<tag k="old_name" v="Fautvangen" />
		<tag k="place" v="locality" />
		<tag k="ssr:stedsnr" v="889179" />
	</node>
	<node id="-36415" lat="60.1093888898" lon="10.8668027739">
		<tag k="name" v="Kirkerud" />
		<tag k="place" v="farm" />
		<tag k="ssr:stedsnr" v="916604" />
	</node>
	<node id="-36414" lat="60.0663555593" lon="10.8115055484">
		<tag k="name" v="Fredrikstad" />
		<tag k="place" v="farm" />
		<tag k="ssr:stedsnr" v="916589" />
	</node>
	<node id="-35901" lat="60.1368568597" lon="10.7907428374">
		<tag k="fixme" v="consider place=hamlet" />
		<tag k="name" v="Elnes" />
		<tag k="place" v="farm" />
		<tag k="ssr:stedsnr" v="5615" />
	</node>
	<node id="-36409" lat="60.0176749997" lon="10.917677776">
		<tag k="fixme" v="consider place=hamlet" />
		<tag k="name" v="Hauger" />
		<tag k="place" v="farm" />
		<tag k="ssr:stedsnr" v="916424" />
	</node>
	<node id="-36408" lat="60.0244583362" lon="10.8872833404">
		<tag k="name" v="Kjulsbråtan" />
		<tag k="place" v="isolated_dwelling" />
		<tag k="ssr:stedsnr" v="916420" />
	</node>
	<node id="-36407" lat="60.0142277767" lon="10.9541388838">
		<tag k="name" v="Nordli" />
		<tag k="place" v="farm" />
		<tag k="ssr:stedsnr" v="916398" />
	</node>
	<node id="-36406" lat="60.0110888844" lon="10.9689527855">
		<tag k="name" v="Søndre Løken" />
		<tag k="place" v="farm" />
		<tag k="ssr:stedsnr" v="916395" />
	</node>
	<node id="-35893" lat="60.0409638922" lon="10.8859249952">
		<tag k="name" v="Sandum" />
		<tag k="place" v="farm" />
		<tag k="ssr:stedsnr" v="5414" />
	</node>
	<node id="-35892" lat="60.0977129691" lon="10.8633729787">
		<tag k="fixme" v="consider place=hamlet" />
		<tag k="name" v="Bliksrud" />
		<tag k="place" v="farm" />
		<tag k="ssr:stedsnr" v="5399" />
	</node>
	<node id="-35891" lat="60.0317083313" lon="10.8748749946">
		<tag k="name" v="Granli" />
		<tag k="place" v="farm" />
		<tag k="ssr:stedsnr" v="5398" />
	</node>
	<node id="-36402" lat="60.1302861152" lon="10.837691663">
		<tag k="name" v="Ås" />
		<tag k="place" v="farm" />
		<tag k="ssr:stedsnr" v="915651" />
	</node>
	<node id="-35889" lat="60.0150972194" lon="10.8610194395">
		<tag k="name" v="Sørskogen" />
		<tag k="place" v="farm" />
		<tag k="ssr:stedsnr" v="5352" />
	</node>
	<node id="-36399" lat="60.0586805523" lon="10.8254583377">
		<tag k="name" v="Laskerud" />
		<tag k="place" v="farm" />
		<tag k="ssr:stedsnr" v="915469" />
	</node>
	<node id="-35886" lat="60.008244445" lon="10.9263916605">
		<tag k="alt_name" v="Engen" />
		<tag k="name" v="Enga" />
		<tag k="place" v="farm" />
		<tag k="ssr:stedsnr" v="5345" />
	</node>
	<node id="-36397" lat="60.0500861112" lon="10.8528055555">
		<tag k="alt_name" v="Sagerud" />
		<tag k="name" v="Nordre Sagerud" />
		<tag k="place" v="isolated_dwelling" />
		<tag k="ssr:stedsnr" v="915447" />
	</node>
	<node id="-36396" lat="60.0137733263" lon="10.9426935497">
		<tag k="fixme" v="consider place=hamlet" />
		<tag k="name" v="Dal" />
		<tag k="place" v="farm" />
		<tag k="ssr:stedsnr" v="915336" />
	</node>
	<node id="-36395" lat="60.0018055739" lon="10.9837929997">
		<tag k="name" v="Hauger" />
		<tag k="place" v="farm" />
		<tag k="ssr:stedsnr" v="915312" />
	</node>
	<node id="-36394" lat="60.0863277804" lon="10.8660861154">
		<tag k="name" v="Åneby" />
		<tag k="place" v="village" />
		<tag k="ssr:stedsnr" v="876467" />
	</node>
	<node id="-35881" lat="59.9978888905" lon="10.8627805535">
		<tag k="amenity" v="cafe" />
		<tag k="fixme" v="multiple name tags, choose one and add the other to alt_name" />
		<tag k="name" v="Lilloseter Sportsstue;Lilloseter" />
		<tag k="old_name" v="Lillosæter" />
		<tag k="ssr:stedsnr" v="4620" />
	</node>
	<node id="-35880" lat="59.990361108" lon="10.9469944475">
		<tag k="name" v="Nygård" />
		<tag k="place" v="farm" />
		<tag k="ssr:stedsnr" v="4617" />
	</node>
	<node id="-36391" lat="60.1308749964" lon="10.8144249977">
		<tag k="alt_name" v="Hagen, s" />
		<tag k="name" v="Søndre Hagen" />
		<tag k="place" v="isolated_dwelling" />
		<tag k="ssr:stedsnr" v="855690" />
	</node>
	<node id="-35878" lat="59.9907444417" lon="10.9881638812">
		<tag k="name" v="Ramstad" />
		<tag k="place" v="farm" />
		<tag k="ssr:stedsnr" v="4607" />
	</node>
	<node id="-36389" lat="60.1010666662" lon="10.8931000058">
		<tag k="name" v="Sørbråtan" />
		<tag k="place" v="isolated_dwelling" />
		<tag k="ssr:stedsnr" v="855599" />
	</node>
	<node id="-36388" lat="60.1058944426" lon="10.8805333391">
		<tag k="name" v="Kirkeby" />
		<tag k="place" v="hamlet" />
		<tag k="ssr:stedsnr" v="855597" />
	</node>
	<node id="-36387" lat="60.0683361072" lon="10.9016499982">
		<tag k="name" v="Nedre Rus" />
		<tag k="place" v="farm" />
		<tag k="ssr:stedsnr" v="855554" />
	</node>
	<node id="-36384" lat="60.0883888929" lon="10.8743555492">
		<tag k="name" v="Nordre Åneby" />
		<tag k="place" v="farm" />
		<tag k="ssr:stedsnr" v="855492" />
	</node>
	<node id="-36380" lat="60.0370385025" lon="10.9010540626">
		<tag k="fixme" v="consider place=hamlet" />
		<tag k="name" v="Gaustad" />
		<tag k="place" v="farm" />
		<tag k="ssr:stedsnr" v="855414" />
	</node>
	<node id="-36379" lat="60.0266555563" lon="10.9203916646">
		<tag k="name" v="Fjelløkka" />
		<tag k="place" v="farm" />
		<tag k="ssr:stedsnr" v="855405" />
	</node>
	<node id="-36377" lat="60.0069611068" lon="10.9541888888">
		<tag k="fixme" v="multiple name tags, choose one and add the other to alt_name" />
		<tag k="name" v="Omsi;Prestegarden" />
		<tag k="place" v="farm" />
		<tag k="ssr:stedsnr" v="855367" />
	</node>
	<node id="-36376" lat="60.0066888852" lon="10.8758777764">
		<tag k="name" v="Dalbekk" />
		<tag k="place" v="isolated_dwelling" />
		<tag k="ssr:stedsnr" v="855343" />
	</node>
	<node id="-35844" lat="60.1111555541" lon="10.8499944425">
		<tag k="amenity" v="school" />
		<tag k="name" v="Hakadal ungdomsskole" />
		<tag k="ssr:stedsnr" v="889006" />
	</node>
	<node id="-36374" lat="60.0241472226" lon="10.8410055583">
		<tag k="fixme" v="consider tourism=alpine_hut or tourism=chalet" />
		<tag k="name" v="Nydalshytta" />
		<tag k="ssr:stedsnr" v="844884" />
		<tag k="tourism" v="wilderness_hut" />
	</node>
	<node id="-36373" lat="60.0130499982" lon="10.9340833398">
		<tag k="name" v="Smedstua" />
		<tag k="place" v="farm" />
		<tag k="ssr:stedsnr" v="838626" />
	</node>
	<node id="-35860" lat="60.0349138857" lon="10.8848444465">
		<tag k="name" v="Ulvestua" />
		<tag k="place" v="isolated_dwelling" />
		<tag k="ssr:stedsnr" v="891727" />
	</node>
	<node id="-35859" lat="60.0120750002" lon="10.9679166714">
		<tag k="name" v="Nordre Løken" />
		<tag k="place" v="farm" />
		<tag k="ssr:stedsnr" v="891578" />
	</node>
	<node id="-36369" lat="60.13691111" lon="10.7895666581">
		<tag k="name" v="Øvre Elnes" />
		<tag k="place" v="farm" />
		<tag k="ssr:stedsnr" v="830789" />
	</node>
	<node id="-35856" lat="60.0029111142" lon="10.9468722238">
		<tag k="amenity" v="school" />
		<tag k="name" v="Holm skole" />
		<tag k="ssr:stedsnr" v="891378" />
	</node>
	<node id="-35855" lat="59.9909694452" lon="10.9065472153">
		<tag k="amenity" v="nursing_home" />
		<tag k="name" v="Skytta bo- og servicesenter" />
		<tag k="ssr:stedsnr" v="891370" />
	</node>
	<node id="-35854" lat="60.0550500003" lon="10.8735444407">
		<tag k="amenity" v="school" />
		<tag k="name" v="Rotnes" />
		<tag k="ssr:stedsnr" v="891351" />
	</node>
	<node id="-36365" lat="60.078197221" lon="10.8219194381">
		<tag k="name" v="Tøystua" />
		<tag k="place" v="locality" />
		<tag k="ssr:stedsnr" v="830256" />
	</node>
	<node id="-36364" lat="60.1292416649" lon="10.8007805606">
		<tag k="alt_name" v="Nøkleby nordre" />
		<tag k="name" v="Nordre Nøkleby" />
		<tag k="place" v="farm" />
		<tag k="ssr:stedsnr" v="830223" />
	</node>
	<node id="-36363" lat="60.0013403226" lon="10.9803286134">
		<tag k="leisure" v="pitch" />
		<tag k="name" v="Hauger golfbane" />
		<tag k="ssr:stedsnr" v="830179" />
	</node>
	<node id="-35850" lat="60.0372356685" lon="10.9010172266">
		<tag k="name" v="Nedre Gaustad" />
		<tag k="place" v="farm" />
		<tag k="ssr:stedsnr" v="889325" />
	</node>
	<node id="-36361" lat="60.0937555535" lon="10.8668583274">
		<tag k="name" v="Nedre Bliksrud" />
		<tag k="place" v="farm" />
		<tag k="ssr:stedsnr" v="830110" />
	</node>
	<node id="-35830" lat="60.1146249957" lon="10.8342444374">
		<tag k="name" v="Burås" />
		<tag k="place" v="farm" />
		<tag k="ssr:stedsnr" v="405119" />
	</node>
	<node id="-36359" lat="60.0845000032" lon="10.8811861055">
		<tag k="name" v="Kvennstua" />
		<tag k="place" v="farm" />
		<tag k="ssr:stedsnr" v="830103" />
	</node>
	<node id="-35846" lat="60.1205861078" lon="10.8129944523">
		<tag k="name" v="Smedbakken" />
		<tag k="place" v="isolated_dwelling" />
		<tag k="ssr:stedsnr" v="889019" />
	</node>
	<node id="-36357" lat="60.124183333" lon="10.8060666642">
		<tag k="name" v="Tangen" />
		<tag k="place" v="isolated_dwelling" />
		<tag k="ssr:stedsnr" v="828011" />
	</node>
	<node id="-36356" lat="60.123472219" lon="10.8067833341">
		<tag k="name" v="Tors" />
		<tag k="place" v="farm" />
		<tag k="ssr:stedsnr" v="828012" />
	</node>
	<node id="-36355" lat="60.121458335" lon="10.8239861065">
		<tag k="fixme" v="consider place=hamlet" />
		<tag k="name" v="Hakadal" />
		<tag k="place" v="village" />
		<tag k="ssr:stedsnr" v="814755" />
	</node>
	<node id="-35842" lat="59.9795638907" lon="10.9322722213">
		<tag k="name" v="Ospelia" />
		<tag k="place" v="quarter" />
		<tag k="ssr:stedsnr" v="886257" />
	</node>
	<node id="-36353" lat="60.1292750311" lon="10.8014823252">
		<tag k="fixme" v="consider place=hamlet" />
		<tag k="name" v="Nøkleby" />
		<tag k="place" v="farm" />
		<tag k="ssr:stedsnr" v="794651" />
	</node>
</osm>
