<?xml version="1.0" encoding="UTF-8"?>
<osm generator="osmapis" version="0.6">
	<node id="-36435" lat="59.9952694486" lon="10.9187472167">
		<tag k="bridge" v="yes" />
		<tag k="layer" v="1" />
		<tag k="name" v="Hagan" />
		<tag k="ssr:stedsnr" v="956794" />
	</node>
	<node id="-36434" lat="60.119230556" lon="10.8350527777">
		<tag k="bridge" v="yes" />
		<tag k="layer" v="1" />
		<tag k="name" v="Sagstua" />
		<tag k="ssr:stedsnr" v="956790" />
	</node>
	<node id="-36433" lat="60.0310583325" lon="10.8736750001">
		<tag k="name" v="Stua" />
		<tag k="place" v="farm" />
		<tag k="ssr:stedsnr" v="951734" />
	</node>
	<node id="-36432" lat="60.0442333364" lon="10.8306777706">
		<tag k="fixme" v="consider boundary=protected_area and relevant protect_class if not nature reserve" />
		<tag k="leisure" v="nature_reserve" />
		<tag k="name" v="Slåttmyra naturreservat" />
		<tag k="ssr:stedsnr" v="951592" />
	</node>
	<node id="-36431" lat="60.0168166641" lon="10.9558361181">
		<tag k="name" v="Sandbråtan" />
		<tag k="place" v="locality" />
		<tag k="ssr:stedsnr" v="951579" />
	</node>
	<node id="-36430" lat="60.0120194473" lon="10.9491305503">
		<tag k="name" v="Tajet" />
		<tag k="place" v="locality" />
		<tag k="ssr:stedsnr" v="951577" />
	</node>
	<node id="-36429" lat="60.0016083306" lon="10.9497888903">
		<tag k="name" v="Gryta" />
		<tag k="place" v="locality" />
		<tag k="ssr:stedsnr" v="951348" />
	</node>
	<node id="-36428" lat="59.9902083348" lon="10.8850277788">
		<tag k="fixme" v="consider boundary=protected_area and relevant protect_class if not nature reserve" />
		<tag k="leisure" v="nature_reserve" />
		<tag k="name" v="Slattumsrøa naturreservat" />
		<tag k="ssr:stedsnr" v="951328" />
	</node>
	<node id="-36427" lat="60.0848333306" lon="10.8049361175">
		<tag k="name" v="Daviddalen" />
		<tag k="natural" v="valley" />
		<tag k="place" v="locality" />
		<tag k="ssr:stedsnr" v="951274" />
	</node>
	<node id="-36426" lat="60.1309472249" lon="10.8316250036">
		<tag k="name" v="Sø Mork" />
		<tag k="place" v="farm" />
		<tag k="ssr:stedsnr" v="951251" />
	</node>
	<node id="-36425" lat="60.0937138872" lon="10.8716749992">
		<tag k="name" v="Ånebymosen" />
		<tag k="natural" v="wetland" />
		<tag k="ssr:stedsnr" v="951126" />
	</node>
	<node id="-36424" lat="60.0747250036" lon="10.9349277867">
		<tag k="fixme" v="consider natural=peak for the most distinct mountains in the district" />
		<tag k="name" v="Ruskollen" />
		<tag k="natural" v="hill" />
		<tag k="place" v="locality" />
		<tag k="ssr:stedsnr" v="951116" />
	</node>
	<node id="-36423" lat="60.0817833337" lon="10.8895527691">
		<tag k="name" v="Nordre Berg" />
		<tag k="place" v="farm" />
		<tag k="ssr:stedsnr" v="951100" />
	</node>
	<node id="-36422" lat="60.0946749996" lon="10.8837611026">
		<tag k="name" v="Gunhildstua" />
		<tag k="place" v="isolated_dwelling" />
		<tag k="ssr:stedsnr" v="951072" />
	</node>
	<node id="-36421" lat="60.0233416628" lon="10.8450638803">
		<tag k="name" v="Skottmåsan" />
		<tag k="natural" v="wetland" />
		<tag k="ssr:stedsnr" v="949847" />
	</node>
	<node id="-36420" lat="59.980005559" lon="10.9384472139">
		<tag k="alt_name" v="Hollum skog" />
		<tag k="name" v="Holum skog" />
		<tag k="place" v="locality" />
		<tag k="ssr:stedsnr" v="949244" />
	</node>
	<node id="-36419" lat="60.1828194426" lon="10.8113194497">
		<tag k="alt_name" v="Tvekjellerne, søndre" />
		<tag k="name" v="Søndre Tvekjelleren" />
		<tag k="natural" v="water" />
		<tag k="ssr:stedsnr" v="916820" />
		<tag k="water" v="lake" />
	</node>
	<node id="-36418" lat="60.1511555523" lon="10.8152555548">
		<tag k="name" v="Langveggen" />
		<tag k="natural" v="valley" />
		<tag k="place" v="locality" />
		<tag k="ssr:stedsnr" v="916762" />
	</node>
	<node id="-36417" lat="60.1653666631" lon="10.7925555543">
		<tag k="fixme" v="consider natural=peak for the most distinct mountains in the district" />
		<tag k="name" v="Rundkollen" />
		<tag k="natural" v="hill" />
		<tag k="place" v="locality" />
		<tag k="ssr:stedsnr" v="916735" />
	</node>
	<node id="-36416" lat="60.1772638886" lon="10.7997999983">
		<tag k="name" v="Toreren" />
		<tag k="natural" v="water" />
		<tag k="ssr:stedsnr" v="916726" />
	</node>
	<node id="-36415" lat="60.1093888898" lon="10.8668027739">
		<tag k="name" v="Kirkerud" />
		<tag k="place" v="farm" />
		<tag k="ssr:stedsnr" v="916604" />
	</node>
	<node id="-36414" lat="60.0663555593" lon="10.8115055484">
		<tag k="name" v="Fredrikstad" />
		<tag k="place" v="farm" />
		<tag k="ssr:stedsnr" v="916589" />
	</node>
	<node id="-36413" lat="60.075299996" lon="10.9154333403">
		<tag k="name" v="Spenningsbybekken" />
		<tag k="ssr:stedsnr" v="916561" />
		<tag k="waterway" v="stream" />
	</node>
	<node id="-36412" lat="60.0744361137" lon="10.8146666631">
		<tag k="name" v="Ørfiske" />
		<tag k="natural" v="water" />
		<tag k="ssr:stedsnr" v="916551" />
		<tag k="water" v="lake" />
	</node>
	<node id="-36411" lat="60.0651259941" lon="10.9352237451">
		<tag k="fixme" v="multiple name tags, choose one and add the other to alt_name" />
		<tag k="name" v="Flabben;Mastutjern" />
		<tag k="natural" v="water" />
		<tag k="ssr:stedsnr" v="916527" />
	</node>
	<node id="-36410" lat="60.0276000033" lon="10.8558194471">
		<tag k="name" v="Svenskedalen" />
		<tag k="natural" v="valley" />
		<tag k="place" v="locality" />
		<tag k="ssr:stedsnr" v="916443" />
	</node>
	<node id="-36409" lat="60.0176749997" lon="10.917677776">
		<tag k="fixme" v="consider place=hamlet" />
		<tag k="name" v="Hauger" />
		<tag k="place" v="farm" />
		<tag k="ssr:stedsnr" v="916424" />
	</node>
	<node id="-36408" lat="60.0244583362" lon="10.8872833404">
		<tag k="name" v="Kjulsbråtan" />
		<tag k="place" v="isolated_dwelling" />
		<tag k="ssr:stedsnr" v="916420" />
	</node>
	<node id="-36407" lat="60.0142277767" lon="10.9541388838">
		<tag k="name" v="Nordli" />
		<tag k="place" v="farm" />
		<tag k="ssr:stedsnr" v="916398" />
	</node>
	<node id="-36406" lat="60.0110888844" lon="10.9689527855">
		<tag k="name" v="Søndre Løken" />
		<tag k="place" v="farm" />
		<tag k="ssr:stedsnr" v="916395" />
	</node>
	<node id="-36405" lat="60.1418777808" lon="10.6903138828">
		<tag k="name" v="Stålmyra" />
		<tag k="natural" v="wetland" />
		<tag k="ssr:stedsnr" v="916109" />
	</node>
	<node id="-36404" lat="60.1442888847" lon="10.7037444399">
		<tag k="name" v="Søndre Djupdalstjernet" />
		<tag k="natural" v="water" />
		<tag k="ssr:stedsnr" v="916108" />
	</node>
	<node id="-36403" lat="60.1174854389" lon="10.8294058448">
		<tag k="alt_name" v="Hakadal" />
		<tag k="name" v="Hakadal stasjon" />
		<tag k="railway" v="station" />
		<tag k="ssr:stedsnr" v="915664" />
		<tag k="train" v="yes" />
	</node>
	<node id="-36402" lat="60.1302861152" lon="10.837691663">
		<tag k="name" v="Ås" />
		<tag k="place" v="farm" />
		<tag k="ssr:stedsnr" v="915651" />
	</node>
	<node id="-36401" lat="60.1310444425" lon="10.8583999951">
		<tag k="fixme" v="consider natural=peak for the most distinct mountains in the district" />
		<tag k="name" v="Bjørnholthøgda" />
		<tag k="natural" v="hill" />
		<tag k="place" v="locality" />
		<tag k="ssr:stedsnr" v="915652" />
	</node>
	<node id="-36400" lat="60.128194448" lon="10.8960611133">
		<tag k="name" v="Storeputt" />
		<tag k="natural" v="water" />
		<tag k="ssr:stedsnr" v="915648" />
	</node>
	<node id="-36399" lat="60.0586805523" lon="10.8254583377">
		<tag k="name" v="Laskerud" />
		<tag k="place" v="farm" />
		<tag k="ssr:stedsnr" v="915469" />
	</node>
	<node id="-36398" lat="60.0457750025" lon="10.854591668">
		<tag k="name" v="Vågedammen" />
		<tag k="natural" v="water" />
		<tag k="ssr:stedsnr" v="915449" />
	</node>
	<node id="-36397" lat="60.0500861112" lon="10.8528055555">
		<tag k="alt_name" v="Sagerud" />
		<tag k="name" v="Nordre Sagerud" />
		<tag k="place" v="isolated_dwelling" />
		<tag k="ssr:stedsnr" v="915447" />
	</node>
	<node id="-36396" lat="60.0137733263" lon="10.9426935497">
		<tag k="fixme" v="consider place=hamlet" />
		<tag k="name" v="Dal" />
		<tag k="place" v="farm" />
		<tag k="ssr:stedsnr" v="915336" />
	</node>
	<node id="-36395" lat="60.0018055739" lon="10.9837929997">
		<tag k="name" v="Hauger" />
		<tag k="place" v="farm" />
		<tag k="ssr:stedsnr" v="915312" />
	</node>
	<node id="-36394" lat="60.0863277804" lon="10.8660861154">
		<tag k="name" v="Åneby" />
		<tag k="place" v="village" />
		<tag k="ssr:stedsnr" v="876467" />
	</node>
	<node id="-36393" lat="60.1830638896" lon="10.7846999995">
		<tag k="alt_name" v="Pipern" />
		<tag k="name" v="Piperen" />
		<tag k="natural" v="water" />
		<tag k="ssr:stedsnr" v="855835" />
	</node>
	<node id="-36392" lat="60.1537166684" lon="10.8779999991">
		<tag k="name" v="Raudalslona" />
		<tag k="natural" v="water" />
		<tag k="ssr:stedsnr" v="855745" />
	</node>
	<node id="-36391" lat="60.1308749964" lon="10.8144249977">
		<tag k="alt_name" v="Hagen, s" />
		<tag k="name" v="Søndre Hagen" />
		<tag k="place" v="isolated_dwelling" />
		<tag k="ssr:stedsnr" v="855690" />
	</node>
	<node id="-36390" lat="60.1347666662" lon="10.7853277862">
		<tag k="name" v="Ela" />
		<tag k="ssr:stedsnr" v="855657" />
		<tag k="waterway" v="stream" />
	</node>
	<node id="-36389" lat="60.1010666662" lon="10.8931000058">
		<tag k="name" v="Sørbråtan" />
		<tag k="place" v="isolated_dwelling" />
		<tag k="ssr:stedsnr" v="855599" />
	</node>
	<node id="-36388" lat="60.1058944426" lon="10.8805333391">
		<tag k="name" v="Kirkeby" />
		<tag k="place" v="hamlet" />
		<tag k="ssr:stedsnr" v="855597" />
	</node>
	<node id="-36387" lat="60.0683361072" lon="10.9016499982">
		<tag k="name" v="Nedre Rus" />
		<tag k="place" v="farm" />
		<tag k="ssr:stedsnr" v="855554" />
	</node>
	<node id="-36386" lat="60.0796055539" lon="10.8597611105">
		<tag k="fixme" v="consider natural=peak for the most distinct mountains in the district" />
		<tag k="name" v="Strømskollen" />
		<tag k="natural" v="hill" />
		<tag k="place" v="locality" />
		<tag k="ssr:stedsnr" v="855545" />
	</node>
	<node id="-36385" lat="60.0711694419" lon="10.8345805569">
		<tag k="name" v="Skåltjern" />
		<tag k="natural" v="water" />
		<tag k="ssr:stedsnr" v="855528" />
	</node>
	<node id="-36384" lat="60.0883888929" lon="10.8743555492">
		<tag k="name" v="Nordre Åneby" />
		<tag k="place" v="farm" />
		<tag k="ssr:stedsnr" v="855492" />
	</node>
	<node id="-36383" lat="60.0692805562" lon="10.9287305541">
		<tag k="name" v="Svartkulp" />
		<tag k="natural" v="water" />
		<tag k="ssr:stedsnr" v="855481" />
		<tag k="water" v="pond" />
	</node>
	<node id="-36382" lat="60.0561250034" lon="10.8193166659">
		<tag k="fixme" v="consider natural=peak for the most distinct mountains in the district" />
		<tag k="name" v="Laskerudåsen" />
		<tag k="natural" v="hill" />
		<tag k="place" v="locality" />
		<tag k="ssr:stedsnr" v="855465" />
	</node>
	<node id="-36381" lat="60.0425117382" lon="10.817851033">
		<tag k="name" v="Nordre Movann" />
		<tag k="natural" v="water" />
		<tag k="ssr:stedsnr" v="855422" />
		<tag k="water" v="lake" />
	</node>
	<node id="-36380" lat="60.0370385025" lon="10.9010540626">
		<tag k="fixme" v="consider place=hamlet" />
		<tag k="name" v="Gaustad" />
		<tag k="place" v="farm" />
		<tag k="ssr:stedsnr" v="855414" />
	</node>
	<node id="-36379" lat="60.0266555563" lon="10.9203916646">
		<tag k="name" v="Fjelløkka" />
		<tag k="place" v="farm" />
		<tag k="ssr:stedsnr" v="855405" />
	</node>
	<node id="-36378" lat="60.0193083334" lon="10.8870527785">
		<tag k="name" v="Brattfossbekken" />
		<tag k="ssr:stedsnr" v="855388" />
		<tag k="waterway" v="stream" />
	</node>
	<node id="-36377" lat="60.0069611068" lon="10.9541888888">
		<tag k="fixme" v="multiple name tags, choose one and add the other to alt_name" />
		<tag k="name" v="Omsi;Prestegarden" />
		<tag k="place" v="farm" />
		<tag k="ssr:stedsnr" v="855367" />
	</node>
	<node id="-36376" lat="60.0066888852" lon="10.8758777764">
		<tag k="name" v="Dalbekk" />
		<tag k="place" v="isolated_dwelling" />
		<tag k="ssr:stedsnr" v="855343" />
	</node>
	<node id="-36375" lat="60.0009749972" lon="10.8547222289">
		<tag k="name" v="Søndre Langvann" />
		<tag k="natural" v="water" />
		<tag k="ssr:stedsnr" v="855340" />
	</node>
	<node id="-36374" lat="60.0241472226" lon="10.8410055583">
		<tag k="fixme" v="consider tourism=alpine_hut or tourism=chalet" />
		<tag k="name" v="Nydalshytta" />
		<tag k="ssr:stedsnr" v="844884" />
		<tag k="tourism" v="wilderness_hut" />
	</node>
	<node id="-36373" lat="60.0130499982" lon="10.9340833398">
		<tag k="name" v="Smedstua" />
		<tag k="place" v="farm" />
		<tag k="ssr:stedsnr" v="838626" />
	</node>
	<node id="-36372" lat="59.9977805588" lon="10.9173250015">
		<tag k="bridge" v="yes" />
		<tag k="layer" v="1" />
		<tag k="name" v="Hagankrysset" />
		<tag k="ssr:stedsnr" v="835798" />
	</node>
	<node id="-36371" lat="60.0083361122" lon="10.9292916695">
		<tag k="bridge" v="yes" />
		<tag k="layer" v="1" />
		<tag k="name" v="Li" />
		<tag k="ssr:stedsnr" v="835795" />
	</node>
	<node id="-36370" lat="60.1245722234" lon="10.8359805549">
		<tag k="bridge" v="yes" />
		<tag k="layer" v="1" />
		<tag k="name" v="Ås" />
		<tag k="ssr:stedsnr" v="835794" />
	</node>
	<node id="-36369" lat="60.13691111" lon="10.7895666581">
		<tag k="name" v="Øvre Elnes" />
		<tag k="place" v="farm" />
		<tag k="ssr:stedsnr" v="830789" />
	</node>
	<node id="-36368" lat="60.0319055523" lon="10.8587527733">
		<tag k="name" v="Glanastad" />
		<tag k="ssr:stedsnr" v="830722" />
		<tag k="tourism" v="viewpoint" />
	</node>
	<node id="-36367" lat="60.0653000019" lon="10.8979694474">
		<tag k="name" v="Olabakka" />
		<tag k="place" v="locality" />
		<tag k="ssr:stedsnr" v="830281" />
	</node>
	<node id="-36366" lat="60.0512277746" lon="10.9003222141">
		<tag k="name" v="Meninga" />
		<tag k="place" v="locality" />
		<tag k="ssr:stedsnr" v="830266" />
	</node>
	<node id="-36365" lat="60.078197221" lon="10.8219194381">
		<tag k="name" v="Tøystua" />
		<tag k="place" v="locality" />
		<tag k="ssr:stedsnr" v="830256" />
	</node>
	<node id="-36364" lat="60.1292416649" lon="10.8007805606">
		<tag k="alt_name" v="Nøkleby nordre" />
		<tag k="name" v="Nordre Nøkleby" />
		<tag k="place" v="farm" />
		<tag k="ssr:stedsnr" v="830223" />
	</node>
	<node id="-36363" lat="60.0013403226" lon="10.9803286134">
		<tag k="leisure" v="pitch" />
		<tag k="name" v="Hauger golfbane" />
		<tag k="ssr:stedsnr" v="830179" />
	</node>
	<node id="-36362" lat="60.12363611" lon="10.714813896">
		<tag k="name" v="Aurputten" />
		<tag k="natural" v="water" />
		<tag k="ssr:stedsnr" v="830146" />
	</node>
	<node id="-36361" lat="60.0937555535" lon="10.8668583274">
		<tag k="name" v="Nedre Bliksrud" />
		<tag k="place" v="farm" />
		<tag k="ssr:stedsnr" v="830110" />
	</node>
	<node id="-36360" lat="60.0789749962" lon="10.9144138863">
		<tag k="name" v="Spenningsbymåsan" />
		<tag k="natural" v="wetland" />
		<tag k="ssr:stedsnr" v="830106" />
	</node>
	<node id="-36359" lat="60.0845000032" lon="10.8811861055">
		<tag k="name" v="Kvennstua" />
		<tag k="place" v="farm" />
		<tag k="ssr:stedsnr" v="830103" />
	</node>
	<node id="-36358" lat="60.0048833369" lon="10.8876361036">
		<tag k="name" v="Bjønndalsmyra" />
		<tag k="natural" v="wetland" />
		<tag k="ssr:stedsnr" v="828836" />
	</node>
	<node id="-36357" lat="60.124183333" lon="10.8060666642">
		<tag k="name" v="Tangen" />
		<tag k="place" v="isolated_dwelling" />
		<tag k="ssr:stedsnr" v="828011" />
	</node>
	<node id="-36356" lat="60.123472219" lon="10.8067833341">
		<tag k="name" v="Tors" />
		<tag k="place" v="farm" />
		<tag k="ssr:stedsnr" v="828012" />
	</node>
	<node id="-36355" lat="60.121458335" lon="10.8239861065">
		<tag k="fixme" v="consider place=hamlet" />
		<tag k="name" v="Hakadal" />
		<tag k="place" v="village" />
		<tag k="ssr:stedsnr" v="814755" />
	</node>
	<node id="-36354" lat="60.1203888888" lon="10.7764500022">
		<tag k="fixme" v="consider natural=peak for the most distinct mountains in the district" />
		<tag k="name" v="Elkollen" />
		<tag k="natural" v="hill" />
		<tag k="place" v="locality" />
		<tag k="ssr:stedsnr" v="794694" />
	</node>
	<node id="-36353" lat="60.1292750311" lon="10.8014823252">
		<tag k="fixme" v="consider place=hamlet" />
		<tag k="name" v="Nøkleby" />
		<tag k="place" v="farm" />
		<tag k="ssr:stedsnr" v="794651" />
	</node>
	<node id="-36352" lat="60.1334944468" lon="10.7937916712">
		<tag k="name" v="Årnes" />
		<tag k="place" v="farm" />
		<tag k="ssr:stedsnr" v="794647" />
	</node>
	<node id="-36351" lat="60.1352944454" lon="10.7323944405">
		<tag k="alt_name" v="Aurtjernet" />
		<tag k="name" v="Aurtjern" />
		<tag k="natural" v="water" />
		<tag k="ssr:stedsnr" v="794632" />
	</node>
	<node id="-36350" lat="60.1424361088" lon="10.8979055533">
		<tag k="name" v="Gjermåa" />
		<tag k="ssr:stedsnr" v="794629" />
		<tag k="waterway" v="stream" />
	</node>
	<node id="-36349" lat="60.1397555534" lon="10.8775833392">
		<tag k="name" v="Raudputt" />
		<tag k="natural" v="water" />
		<tag k="ssr:stedsnr" v="794628" />
	</node>
	<node id="-36348" lat="60.1359888881" lon="10.8095166664">
		<tag k="alt_name" v="Kapelsrud" />
		<tag k="name" v="Kapellsrud" />
		<tag k="place" v="isolated_dwelling" />
		<tag k="ssr:stedsnr" v="794625" />
	</node>
	<node id="-36347" lat="60.0924517848" lon="10.885115933">
		<tag k="fixme" v="consider place=hamlet" />
		<tag k="name" v="Myrer" />
		<tag k="place" v="farm" />
		<tag k="ssr:stedsnr" v="794613" />
	</node>
	<node id="-36346" lat="60.0907138918" lon="10.7916611038">
		<tag k="name" v="Lille Hyttetjern" />
		<tag k="natural" v="water" />
		<tag k="ssr:stedsnr" v="794607" />
	</node>
	<node id="-36345" lat="60.1075111082" lon="10.8076166631">
		<tag k="alt_name" v="Vinterveimyra" />
		<tag k="name" v="Vintervegmyra" />
		<tag k="natural" v="wetland" />
		<tag k="ssr:stedsnr" v="794588" />
	</node>
	<node id="-36344" lat="60.0747994073" lon="10.7995523173">
		<tag k="loc_name" v="Gråbeinmyra" />
		<tag k="name" v="Gravemyra" />
		<tag k="natural" v="wetland" />
		<tag k="ssr:stedsnr" v="794520" />
	</node>
	<node id="-36343" lat="60.0800249973" lon="10.8775999918">
		<tag k="name" v="Brennløkka" />
		<tag k="place" v="farm" />
		<tag k="ssr:stedsnr" v="794504" />
	</node>
	<node id="-36342" lat="60.0564527772" lon="10.9250500086">
		<tag k="name" v="Sovaro" />
		<tag k="place" v="isolated_dwelling" />
		<tag k="ssr:stedsnr" v="794459" />
	</node>
	<node id="-36341" lat="60.0376444451" lon="10.9571194513">
		<tag k="name" v="Søndre Ryggevann" />
		<tag k="natural" v="water" />
		<tag k="ssr:stedsnr" v="794437" />
		<tag k="water" v="lake" />
	</node>
	<node id="-36340" lat="60.039130556" lon="10.8800388853">
		<tag k="name" v="Skillebekk" />
		<tag k="place" v="farm" />
		<tag k="ssr:stedsnr" v="794416" />
	</node>
	<node id="-36339" lat="60.0328277749" lon="10.886608332">
		<tag k="alt_name" v="Skøyen nordre" />
		<tag k="name" v="Nordre Skøyen" />
		<tag k="place" v="farm" />
		<tag k="ssr:stedsnr" v="794398" />
	</node>
	<node id="-36338" lat="60.02838611" lon="10.9386250007">
		<tag k="name" v="Søndre Ovann" />
		<tag k="natural" v="water" />
		<tag k="ssr:stedsnr" v="794388" />
	</node>
	<node id="-36337" lat="60.0246916669" lon="10.8400416577">
		<tag k="fixme" v="consider tourism=alpine_hut or tourism=chalet" />
		<tag k="name" v="Fjellvang" />
		<tag k="ssr:stedsnr" v="794381" />
		<tag k="tourism" v="wilderness_hut" />
	</node>
	<node id="-36336" lat="60.0249694461" lon="10.8199750041">
		<tag k="name" v="Merrahaugen" />
		<tag k="natural" v="hill" />
		<tag k="place" v="locality" />
		<tag k="ssr:stedsnr" v="794380" />
	</node>
	<node id="-36335" lat="60.0228833308" lon="10.8981194503">
		<tag k="name" v="Kirkeby" />
		<tag k="place" v="farm" />
		<tag k="ssr:stedsnr" v="794370" />
	</node>
	<node id="-36334" lat="60.0066666705" lon="10.8941250027">
		<tag k="fixme" v="consider natural=peak for the most distinct mountains in the district" />
		<tag k="name" v="Massjørgenhøgda" />
		<tag k="natural" v="hill" />
		<tag k="place" v="locality" />
		<tag k="ssr:stedsnr" v="794342" />
	</node>
	<node id="-36333" lat="60.0091555569" lon="10.8344083409">
		<tag k="alt_name" v="Grytedalen" />
		<tag k="name" v="Gryta" />
		<tag k="natural" v="valley" />
		<tag k="place" v="locality" />
		<tag k="ssr:stedsnr" v="794335" />
	</node>
	<node id="-36332" lat="60.1446555563" lon="10.6765333397">
		<tag k="alt_name" v="Daltjuven, l" />
		<tag k="name" v="Vesle Daltjuven" />
		<tag k="natural" v="water" />
		<tag k="ssr:stedsnr" v="794104" />
	</node>
	<node id="-36331" lat="59.9856999963" lon="10.937183338">
		<tag k="name" v="Morttjern" />
		<tag k="natural" v="water" />
		<tag k="ssr:stedsnr" v="793613" />
	</node>
	<node id="-36330" lat="59.9763666695" lon="10.9323194412">
		<tag k="name" v="Skillebekk" />
		<tag k="place" v="village" />
		<tag k="ssr:stedsnr" v="793561" />
	</node>
	<node id="-36329" lat="60.0102444412" lon="10.9354083311">
		<tag k="name" v="Dalhaug" />
		<tag k="place" v="farm" />
		<tag k="ssr:stedsnr" v="777601" />
	</node>
	<node id="-36328" lat="60.014788891" lon="10.9052111078">
		<tag k="name" v="Haugerud" />
		<tag k="place" v="isolated_dwelling" />
		<tag k="ssr:stedsnr" v="776564" />
	</node>
	<node id="-36327" lat="60.0537861155" lon="10.8818111169">
		<tag k="bridge" v="yes" />
		<tag k="layer" v="1" />
		<tag k="name" v="Rotnes" />
		<tag k="ssr:stedsnr" v="774797" />
	</node>
	<node id="-36326" lat="60.1411666685" lon="10.7842499985">
		<tag k="name" v="Sandbekken" />
		<tag k="place" v="locality" />
		<tag k="ssr:stedsnr" v="769762" />
	</node>
	<node id="-36325" lat="60.0382527763" lon="10.8823611085">
		<tag k="name" v="Myrene" />
		<tag k="place" v="farm" />
		<tag k="ssr:stedsnr" v="769723" />
	</node>
	<node id="-36324" lat="60.0321472186" lon="10.840294442">
		<tag k="name" v="Momyra" />
		<tag k="natural" v="wetland" />
		<tag k="ssr:stedsnr" v="769720" />
	</node>
	<node id="-36323" lat="60.0735861117" lon="10.8805999957">
		<tag k="name" v="Kølleberget" />
		<tag k="natural" v="hill" />
		<tag k="place" v="locality" />
		<tag k="ssr:stedsnr" v="769419" />
	</node>
	<node id="-36322" lat="60.0017638886" lon="10.9749805502">
		<tag k="name" v="Gamle Glømmi" />
		<tag k="place" v="locality" />
		<tag k="ssr:stedsnr" v="769354" />
	</node>
	<node id="-36321" lat="59.999786114" lon="10.9552777795">
		<tag k="name" v="Sletta" />
		<tag k="place" v="locality" />
		<tag k="ssr:stedsnr" v="769350" />
	</node>
	<node id="-36320" lat="59.9874305575" lon="10.9821749983">
		<tag k="name" v="Ramstadstranda" />
		<tag k="natural" v="beach" />
		<tag k="ssr:stedsnr" v="769333" />
	</node>
	<node id="-36319" lat="60.0566944474" lon="10.8752916727">
		<tag k="name" v="Bakken" />
		<tag k="place" v="isolated_dwelling" />
		<tag k="ssr:stedsnr" v="769309" />
	</node>
	<node id="-36318" lat="60.0477472189" lon="10.9168444455">
		<tag k="name" v="Sleppen" />
		<tag k="place" v="locality" />
		<tag k="ssr:stedsnr" v="769285" />
	</node>
	<node id="-36317" lat="60.0718111122" lon="10.8226833297">
		<tag k="name" v="Smithogget" />
		<tag k="place" v="isolated_dwelling" />
		<tag k="ssr:stedsnr" v="769279" />
	</node>
	<node id="-36316" lat="60.0906027762" lon="10.8884194361">
		<tag k="name" v="Staven" />
		<tag k="place" v="farm" />
		<tag k="ssr:stedsnr" v="769114" />
	</node>
	<node id="-36315" lat="60.0930568366" lon="10.8875022119">
		<tag k="name" v="Nordre Myrer" />
		<tag k="place" v="farm" />
		<tag k="ssr:stedsnr" v="769065" />
	</node>
	<node id="-36314" lat="59.9997222193" lon="10.8583638816">
		<tag k="fixme" v="consider natural=peak for the most distinct mountains in the district" />
		<tag k="name" v="Seterhøgda" />
		<tag k="natural" v="hill" />
		<tag k="place" v="locality" />
		<tag k="ssr:stedsnr" v="767858" />
	</node>
	<node id="-36313" lat="60.0010222229" lon="10.8431583331">
		<tag k="name" v="Trangdalen" />
		<tag k="natural" v="valley" />
		<tag k="place" v="locality" />
		<tag k="ssr:stedsnr" v="767812" />
	</node>
	<node id="-36312" lat="60.0067444419" lon="10.8711333316">
		<tag k="name" v="Kjulstjernsbekken" />
		<tag k="ssr:stedsnr" v="767808" />
		<tag k="waterway" v="stream" />
	</node>
	<node id="-36311" lat="59.9886916675" lon="10.9296694368">
		<tag k="junction" v="yes" />
		<tag k="name" v="Gjelleråsen" />
		<tag k="place" v="locality" />
		<tag k="ssr:stedsnr" v="767264" />
	</node>
	<node id="-36310" lat="60.0655055571" lon="10.8028916596">
		<tag k="name" v="Langdalsbekken" />
		<tag k="ssr:stedsnr" v="767306" />
		<tag k="waterway" v="stream" />
	</node>
	<node id="-36309" lat="60.0434777742" lon="10.9027138955">
		<tag k="name" v="Høybråtan" />
		<tag k="place" v="locality" />
		<tag k="ssr:stedsnr" v="767303" />
	</node>
	<node id="-36308" lat="60.1056666651" lon="10.8768333289">
		<tag k="alt_name" v="Hakadal" />
		<tag k="amenity" v="place_of_worship" />
		<tag k="denomination" v="lutheran" />
		<tag k="name" v="Hakadal kirke" />
		<tag k="religion" v="christian" />
		<tag k="ssr:stedsnr" v="734637" />
	</node>
	<node id="-36307" lat="60.1105750046" lon="10.8012138821">
		<tag k="name" v="Rundmyra" />
		<tag k="natural" v="wetland" />
		<tag k="ssr:stedsnr" v="734617" />
	</node>
	<node id="-36306" lat="60.0636083358" lon="10.8411611134">
		<tag k="name" v="Lurslia" />
		<tag k="natural" v="slope" />
		<tag k="place" v="locality" />
		<tag k="ssr:stedsnr" v="734607" />
	</node>
	<node id="-36305" lat="60.0677916691" lon="10.8831277728">
		<tag k="name" v="Strømsenga" />
		<tag k="place" v="isolated_dwelling" />
		<tag k="ssr:stedsnr" v="734604" />
	</node>
	<node id="-36304" lat="60.0689333327" lon="10.8969194425">
		<tag k="alt_name" v="Spenningsby, s" />
		<tag k="name" v="Søndre Spenningsby" />
		<tag k="place" v="farm" />
		<tag k="ssr:stedsnr" v="734591" />
	</node>
	<node id="-36303" lat="60.0738861123" lon="10.8941861082">
		<tag k="name" v="Nordre Spenningsby" />
		<tag k="place" v="farm" />
		<tag k="ssr:stedsnr" v="734590" />
	</node>
	<node id="-36302" lat="60.0166583296" lon="10.9412361143">
		<tag k="name" v="Stensrud" />
		<tag k="place" v="isolated_dwelling" />
		<tag k="ssr:stedsnr" v="734439" />
	</node>
	<node id="-36301" lat="60.0229055089" lon="10.8980674058">
		<tag k="name" v="Kjulslund" />
		<tag k="place" v="farm" />
		<tag k="ssr:stedsnr" v="734435" />
	</node>
	<node id="-36300" lat="60.1284249994" lon="10.8744555503">
		<tag k="loc_name" v="Tøyinhøgda" />
		<tag k="name" v="Tøyenhøgda" />
		<tag k="natural" v="hill" />
		<tag k="place" v="locality" />
		<tag k="ssr:stedsnr" v="733640" />
	</node>
	<node id="-36299" lat="60.1256138889" lon="10.9121305626">
		<tag k="name" v="Kirkebygjermenningen" />
		<tag k="natural" v="water" />
		<tag k="ssr:stedsnr" v="733634" />
	</node>
	<node id="-36298" lat="60.0933138933" lon="10.8362055479">
		<tag k="fixme" v="consider natural=peak for the most distinct mountains in the district" />
		<tag k="name" v="Varingskollen" />
		<tag k="natural" v="hill" />
		<tag k="place" v="locality" />
		<tag k="ssr:stedsnr" v="733579" />
	</node>
	<node id="-36297" lat="59.9893833337" lon="10.9013777733">
		<tag k="name" v="Skyttaputten" />
		<tag k="natural" v="water" />
		<tag k="ssr:stedsnr" v="733559" />
	</node>
	<node id="-36296" lat="59.9788861139" lon="10.9418055629">
		<tag k="fixme" v="consider natural=peak for the most distinct mountains in the district" />
		<tag k="name" v="Karushøgda" />
		<tag k="natural" v="hill" />
		<tag k="place" v="locality" />
		<tag k="ssr:stedsnr" v="733552" />
	</node>
	<node id="-36295" lat="59.9988555554" lon="10.9864333368">
		<tag k="fixme" v="consider place=hamlet" />
		<tag k="name" v="Ramstad" />
		<tag k="place" v="farm" />
		<tag k="ssr:stedsnr" v="733489" />
	</node>
	<node id="-36294" lat="60.0853027764" lon="10.7732805504">
		<tag k="name" v="Holmetjern" />
		<tag k="natural" v="water" />
		<tag k="ssr:stedsnr" v="733472" />
	</node>
	<node id="-36293" lat="60.0455666629" lon="10.8732888937">
		<tag k="name" v="Kvernstua" />
		<tag k="place" v="locality" />
		<tag k="ssr:stedsnr" v="733421" />
	</node>
	<node id="-36292" lat="60.0454150965" lon="10.950670109">
		<tag k="name" v="Nordre Ryggevann" />
		<tag k="natural" v="water" />
		<tag k="ssr:stedsnr" v="733419" />
		<tag k="water" v="lake" />
	</node>
	<node id="-36291" lat="60.0372194426" lon="10.9099305617">
		<tag k="name" v="Øvre Gaustad" />
		<tag k="place" v="farm" />
		<tag k="ssr:stedsnr" v="733404" />
	</node>
	<node id="-36290" lat="60.0371333327" lon="10.8878444462">
		<tag k="name" v="Lunde" />
		<tag k="place" v="farm" />
		<tag k="ssr:stedsnr" v="733405" />
	</node>
	<node id="-36289" lat="60.0111666626" lon="10.8686749928">
		<tag k="name" v="Staurputten" />
		<tag k="natural" v="water" />
		<tag k="ssr:stedsnr" v="733344" />
	</node>
	<node id="-36288" lat="60.0183361129" lon="10.9097027844">
		<tag k="name" v="Steinrud" />
		<tag k="place" v="locality" />
		<tag k="ssr:stedsnr" v="716631" />
	</node>
	<node id="-36287" lat="60.0105000029" lon="10.9456305551">
		<tag k="name" v="Nordre Dal" />
		<tag k="place" v="farm" />
		<tag k="ssr:stedsnr" v="716613" />
	</node>
	<node id="-36286" lat="60.1172083367" lon="10.8558749979">
		<tag k="name" v="Glemberg" />
		<tag k="place" v="locality" />
		<tag k="ssr:stedsnr" v="708564" />
	</node>
	<node id="-36285" lat="59.986886107" lon="10.9873222159">
		<tag k="name" v="Lillesund" />
		<tag k="place" v="locality" />
		<tag k="ssr:stedsnr" v="708349" />
	</node>
	<node id="-36284" lat="60.0488972263" lon="10.8803611064">
		<tag k="amenity" v="school" />
		<tag k="name" v="Bjertnes videregående skole" />
		<tag k="ssr:stedsnr" v="708336" />
	</node>
	<node id="-36283" lat="60.0588694453" lon="10.8795472308">
		<tag k="name" v="Nabbetorp" />
		<tag k="place" v="farm" />
		<tag k="ssr:stedsnr" v="708323" />
	</node>
	<node id="-36282" lat="60.0651972251" lon="10.9119805517">
		<tag k="name" v="Petterstua" />
		<tag k="place" v="isolated_dwelling" />
		<tag k="ssr:stedsnr" v="708300" />
	</node>
	<node id="-36281" lat="60.1290777807" lon="10.8022638878">
		<tag k="alt_name" v="Nøkleby søndre" />
		<tag k="name" v="Søndre Nøkleby" />
		<tag k="place" v="farm" />
		<tag k="ssr:stedsnr" v="708257" />
	</node>
	<node id="-36280" lat="60.0819250015" lon="10.9091722306">
		<tag k="name" v="Lykkebergskogen" />
		<tag k="place" v="locality" />
		<tag k="ssr:stedsnr" v="708138" />
	</node>
	<node id="-36279" lat="60.0818833365" lon="10.8604333305">
		<tag k="name" v="Ånebydalen" />
		<tag k="natural" v="valley" />
		<tag k="place" v="locality" />
		<tag k="ssr:stedsnr" v="708128" />
	</node>
	<node id="-36278" lat="59.9984138882" lon="10.880850001">
		<tag k="name" v="Haugermåsan" />
		<tag k="natural" v="wetland" />
		<tag k="ssr:stedsnr" v="707842" />
	</node>
	<node id="-36277" lat="60.0086694457" lon="10.8796916649">
		<tag k="name" v="Hjulmakerhogget" />
		<tag k="place" v="locality" />
		<tag k="ssr:stedsnr" v="707831" />
	</node>
	<node id="-36276" lat="60.0425194423" lon="10.9656527768">
		<tag k="name" v="Langmåsan" />
		<tag k="natural" v="wetland" />
		<tag k="ssr:stedsnr" v="707328" />
	</node>
	<node id="-36275" lat="60.1163944488" lon="10.8278833335">
		<tag k="cemetery" v="grave" />
		<tag k="name" v="Widerbergs gravsted" />
		<tag k="place" v="locality" />
		<tag k="ssr:stedsnr" v="707024" />
	</node>
	<node id="-36274" lat="60.1219972191" lon="10.8213722229">
		<tag k="name" v="Verkensdammen" />
		<tag k="natural" v="water" />
		<tag k="ssr:stedsnr" v="707021" />
	</node>
	<node id="-36273" lat="60.0917583291" lon="10.9011833331">
		<tag k="fixme" v="consider natural=peak for the most distinct mountains in the district" />
		<tag k="name" v="Myrerkollen" />
		<tag k="natural" v="hill" />
		<tag k="place" v="locality" />
		<tag k="ssr:stedsnr" v="707012" />
	</node>
	<node id="-36272" lat="60.0949833366" lon="10.9123750019">
		<tag k="name" v="Midtre Ravndalstjern" />
		<tag k="natural" v="water" />
		<tag k="ssr:stedsnr" v="707009" />
	</node>
	<node id="-36271" lat="60.0224916693" lon="10.887366661">
		<tag k="name" v="Trøythaugen" />
		<tag k="place" v="locality" />
		<tag k="ssr:stedsnr" v="706875" />
	</node>
	<node id="-36270" lat="60.0205916688" lon="10.8514777852">
		<tag k="name" v="Nordskogen" />
		<tag k="place" v="locality" />
		<tag k="ssr:stedsnr" v="706872" />
	</node>
	<node id="-36269" lat="60.1670250028" lon="10.790063887">
		<tag k="alt_name" v="Vivangtjernet" />
		<tag k="name" v="Vivangstjernet" />
		<tag k="natural" v="water" />
		<tag k="ssr:stedsnr" v="673703" />
	</node>
	<node id="-36268" lat="60.1226416684" lon="10.7233416735">
		<tag k="alt_name" v="Nordre Anderstjern" />
		<tag k="name" v="Nordre Anderstjernet" />
		<tag k="natural" v="water" />
		<tag k="ssr:stedsnr" v="673687" />
	</node>
	<node id="-36267" lat="60.1434555523" lon="10.7669416728">
		<tag k="name" v="Jenserud" />
		<tag k="place" v="farm" />
		<tag k="ssr:stedsnr" v="673644" />
	</node>
	<node id="-36266" lat="60.099702778" lon="10.8674388913">
		<tag k="name" v="Bliksrudhagan" />
		<tag k="place" v="farm" />
		<tag k="ssr:stedsnr" v="673611" />
	</node>
	<node id="-36265" lat="60.082763886" lon="10.796441669">
		<tag k="name" v="Søndre Karlshaug" />
		<tag k="natural" v="hill" />
		<tag k="place" v="locality" />
		<tag k="ssr:stedsnr" v="673532" />
	</node>
	<node id="-36264" lat="60.0814277762" lon="10.8162916611">
		<tag k="name" v="Ørfiske" />
		<tag k="place" v="farm" />
		<tag k="ssr:stedsnr" v="673529" />
	</node>
	<node id="-36263" lat="60.043252777" lon="10.9458166644">
		<tag k="name" v="Gopledalen" />
		<tag k="natural" v="valley" />
		<tag k="place" v="locality" />
		<tag k="ssr:stedsnr" v="673473" />
	</node>
	<node id="-36262" lat="60.0472194416" lon="10.8903583349">
		<tag k="name" v="Haugsmåsan" />
		<tag k="natural" v="wetland" />
		<tag k="ssr:stedsnr" v="673472" />
	</node>
	<node id="-36261" lat="60.045336112" lon="10.8302555576">
		<tag k="alt_name" v="Slåttemyrene" />
		<tag k="name" v="Slåttemyra" />
		<tag k="natural" v="wetland" />
		<tag k="ssr:stedsnr" v="673451" />
	</node>
	<node id="-36260" lat="60.0354333321" lon="10.9653888821">
		<tag k="name" v="Svartputten" />
		<tag k="natural" v="water" />
		<tag k="ssr:stedsnr" v="673449" />
	</node>
	<node id="-36259" lat="60.0233553934" lon="10.9307458111">
		<tag k="fixme" v="consider place=hamlet" />
		<tag k="name" v="Glosli" />
		<tag k="place" v="farm" />
		<tag k="ssr:stedsnr" v="673409" />
	</node>
	<node id="-36258" lat="60.157033337" lon="10.7960972187">
		<tag k="name" v="Flåhellene" />
		<tag k="natural" v="slope" />
		<tag k="place" v="locality" />
		<tag k="ssr:stedsnr" v="672704" />
	</node>
	<node id="-36257" lat="60.1602305599" lon="10.7815138809">
		<tag k="alt_name" v="Varpskollen" />
		<tag k="fixme" v="consider natural=peak for the most distinct mountains in the district" />
		<tag k="name" v="Varpkollen" />
		<tag k="natural" v="hill" />
		<tag k="place" v="locality" />
		<tag k="ssr:stedsnr" v="672701" />
	</node>
	<node id="-36256" lat="60.1321694452" lon="10.8306472306">
		<tag k="name" v="Mork" />
		<tag k="place" v="isolated_dwelling" />
		<tag k="ssr:stedsnr" v="672649" />
	</node>
	<node id="-36255" lat="59.9914638888" lon="10.8822583392">
		<tag k="name" v="Slattumsrøa" />
		<tag k="natural" v="ridge" />
		<tag k="place" v="locality" />
		<tag k="ssr:stedsnr" v="672589" />
	</node>
	<node id="-36254" lat="60.0551916705" lon="10.8793194432">
		<tag k="name" v="Rotnes" />
		<tag k="place" v="farm" />
		<tag k="ssr:stedsnr" v="672447" />
	</node>
	<node id="-36253" lat="60.0574025433" lon="10.8860473216">
		<tag k="name" v="Nedre Haug" />
		<tag k="place" v="farm" />
		<tag k="ssr:stedsnr" v="672444" />
	</node>
	<node id="-36252" lat="60.017808329" lon="10.9616361114">
		<tag k="name" v="Nordbråtan" />
		<tag k="place" v="locality" />
		<tag k="ssr:stedsnr" v="672367" />
	</node>
	<node id="-36251" lat="60.0059888867" lon="10.8644500034">
		<tag k="name" v="Rudsputten" />
		<tag k="natural" v="water" />
		<tag k="ssr:stedsnr" v="672311" />
	</node>
	<node id="-36250" lat="60.0227500003" lon="10.9304694428">
		<tag k="alt_name" v="Glosli øvre" />
		<tag k="name" v="Øvre Glosli" />
		<tag k="place" v="farm" />
		<tag k="ssr:stedsnr" v="655617" />
	</node>
	<node id="-36249" lat="60.0124194478" lon="10.9162861027">
		<tag k="name" v="Ysteriet" />
		<tag k="place" v="locality" />
		<tag k="ssr:stedsnr" v="655607" />
	</node>
	<node id="-36248" lat="60.0103222196" lon="10.9308750074">
		<tag k="name" v="Brekka" />
		<tag k="place" v="locality" />
		<tag k="ssr:stedsnr" v="655594" />
	</node>
	<node id="-36247" lat="60.0070361139" lon="10.9246194486">
		<tag k="amenity" v="school" />
		<tag k="name" v="Li skole" />
		<tag k="ssr:stedsnr" v="655591" />
	</node>
	<node id="-36246" lat="60.0056527798" lon="10.9172333329">
		<tag k="bridge" v="yes" />
		<tag k="layer" v="1" />
		<tag k="name" v="Markerud" />
		<tag k="ssr:stedsnr" v="652771" />
	</node>
	<node id="-36245" lat="60.1656027753" lon="10.7857749988">
		<tag k="fixme" v="consider boundary=protected_area and relevant protect_class if not nature reserve" />
		<tag k="leisure" v="nature_reserve" />
		<tag k="name" v="Rundkollen og Sortungbekken naturreservat" />
		<tag k="ssr:stedsnr" v="647855" />
	</node>
	<node id="-36244" lat="60.1475444463" lon="10.8229999992">
		<tag k="name" v="Vesleelva" />
		<tag k="ssr:stedsnr" v="647781" />
		<tag k="waterway" v="stream" />
	</node>
	<node id="-36243" lat="60.0209777759" lon="10.8159888838">
		<tag k="name" v="Skillingsdalen" />
		<tag k="natural" v="valley" />
		<tag k="place" v="locality" />
		<tag k="ssr:stedsnr" v="647580" />
	</node>
	<node id="-36242" lat="59.993808335" lon="10.9664361051">
		<tag k="name" v="Nesgutuhagan" />
		<tag k="place" v="locality" />
		<tag k="ssr:stedsnr" v="647369" />
	</node>
	<node id="-36241" lat="60.057069447" lon="10.8741611134">
		<tag k="name" v="Tajet" />
		<tag k="place" v="isolated_dwelling" />
		<tag k="ssr:stedsnr" v="647336" />
	</node>
	<node id="-36240" lat="60.0545277796" lon="10.8999750089">
		<tag k="name" v="Haugsbråtan" />
		<tag k="place" v="locality" />
		<tag k="ssr:stedsnr" v="647311" />
	</node>
	<node id="-36239" lat="60.0833249973" lon="10.7924666581">
		<tag k="fixme" v="consider boundary=protected_area and relevant protect_class if not nature reserve" />
		<tag k="leisure" v="nature_reserve" />
		<tag k="name" v="Karlshaugen naturreservat" />
		<tag k="ssr:stedsnr" v="647294" />
	</node>
	<node id="-36238" lat="60.0799911301" lon="10.8926707318">
		<tag k="name" v="Søndre Berg" />
		<tag k="place" v="farm" />
		<tag k="ssr:stedsnr" v="647152" />
	</node>
	<node id="-36237" lat="60.0120055589" lon="10.8833083343">
		<tag k="name" v="Skredderud" />
		<tag k="place" v="farm" />
		<tag k="ssr:stedsnr" v="645805" />
	</node>
	<node id="-36236" lat="60.1070638932" lon="10.8465250013">
		<tag k="name" v="Dølibråten" />
		<tag k="place" v="locality" />
		<tag k="ssr:stedsnr" v="645002" />
	</node>
	<node id="-36235" lat="60.0466666684" lon="10.8571749959">
		<tag k="name" v="Kruttverket" />
		<tag k="place" v="locality" />
		<tag k="ssr:stedsnr" v="632400" />
	</node>
	<node id="-36234" lat="60.1419194488" lon="10.7929916581">
		<tag k="name" v="Hakadalselva" />
		<tag k="ssr:stedsnr" v="612741" />
		<tag k="waterway" v="river" />
	</node>
	<node id="-36233" lat="60.1739277751" lon="10.7778916601">
		<tag k="name" v="Svarttjern" />
		<tag k="natural" v="water" />
		<tag k="ssr:stedsnr" v="612699" />
	</node>
	<node id="-36232" lat="60.1168472178" lon="10.8934694489">
		<tag k="fixme" v="consider natural=peak for the most distinct mountains in the district" />
		<tag k="name" v="Oppegårdskollen" />
		<tag k="natural" v="hill" />
		<tag k="place" v="locality" />
		<tag k="ssr:stedsnr" v="612679" />
	</node>
	<node id="-36231" lat="60.0889666656" lon="10.7740527834">
		<tag k="name" v="Gryta" />
		<tag k="natural" v="water" />
		<tag k="ssr:stedsnr" v="612544" />
	</node>
	<node id="-36230" lat="60.0502250025" lon="10.8806000021">
		<tag k="name" v="Bjertnes" />
		<tag k="place" v="farm" />
		<tag k="ssr:stedsnr" v="612484" />
	</node>
	<node id="-36229" lat="60.0402138922" lon="10.8735861183">
		<tag k="name" v="Vestenga" />
		<tag k="place" v="isolated_dwelling" />
		<tag k="ssr:stedsnr" v="612466" />
	</node>
	<node id="-36228" lat="60.0271055568" lon="10.8950972236">
		<tag k="fixme" v="consider place=suburb, village or hamlet" />
		<tag k="name" v="Kjul" />
		<tag k="place" v="quarter" />
		<tag k="ssr:stedsnr" v="612447" />
	</node>
	<node id="-36227" lat="60.0802319989" lon="10.8925897662">
		<tag k="fixme" v="consider place=hamlet" />
		<tag k="name" v="Berg" />
		<tag k="place" v="farm" />
		<tag k="ssr:stedsnr" v="612442" />
	</node>
	<node id="-36226" lat="60.0294527819" lon="10.8754333292">
		<tag k="name" v="Steinset" />
		<tag k="place" v="farm" />
		<tag k="ssr:stedsnr" v="612441" />
	</node>
	<node id="-36225" lat="60.0118194483" lon="10.9679527714">
		<tag k="name" v="Løken" />
		<tag k="place" v="farm" />
		<tag k="ssr:stedsnr" v="612390" />
	</node>
	<node id="-36224" lat="60.011886108" lon="10.9620027792">
		<tag k="name" v="Lønsvollbakken" />
		<tag k="place" v="farm" />
		<tag k="ssr:stedsnr" v="612391" />
	</node>
	<node id="-36223" lat="60.1675333301" lon="10.8579166637">
		<tag k="name" v="Hakkimbekken" />
		<tag k="ssr:stedsnr" v="611711" />
		<tag k="waterway" v="stream" />
	</node>
	<node id="-36222" lat="60.1691499961" lon="10.8517749917">
		<tag k="name" v="Hakkimtjernet" />
		<tag k="natural" v="water" />
		<tag k="ssr:stedsnr" v="611712" />
	</node>
	<node id="-36221" lat="60.1694444411" lon="10.8137583282">
		<tag k="name" v="Buvann" />
		<tag k="natural" v="water" />
		<tag k="ssr:stedsnr" v="611709" />
	</node>
	<node id="-36220" lat="60.1312055587" lon="10.7959333249">
		<tag k="alt_name" v="Elstad" />
		<tag k="name" v="Elnes" />
		<tag k="place" v="farm" />
		<tag k="ssr:stedsnr" v="611662" />
	</node>
	<node id="-36219" lat="60.1257083377" lon="10.8029083403">
		<tag k="name" v="Lysaker" />
		<tag k="place" v="farm" />
		<tag k="ssr:stedsnr" v="611659" />
	</node>
	<node id="-36218" lat="60.1363916662" lon="10.8810638947">
		<tag k="name" v="Kirkebyvangen" />
		<tag k="place" v="isolated_dwelling" />
		<tag k="ssr:stedsnr" v="611644" />
	</node>
	<node id="-36217" lat="60.1435444479" lon="10.8634111124">
		<tag k="name" v="Setertjernbekken" />
		<tag k="ssr:stedsnr" v="611639" />
		<tag k="waterway" v="stream" />
	</node>
	<node id="-36216" lat="60.0919000035" lon="10.9065638841">
		<tag k="alt_name" v="Bergstjern" />
		<tag k="name" v="Bergstjernet" />
		<tag k="natural" v="water" />
		<tag k="ssr:stedsnr" v="611627" />
	</node>
	<node id="-36215" lat="60.089235603" lon="10.8274263864">
		<tag k="fixme" v="consider natural=peak for the most distinct mountains in the district" />
		<tag k="name" v="Heitåsen" />
		<tag k="natural" v="hill" />
		<tag k="place" v="locality" />
		<tag k="ssr:stedsnr" v="611621" />
	</node>
	<node id="-36214" lat="59.9967639852" lon="10.9414922151">
		<tag k="loc_name" v="Nittelva" />
		<tag k="name" v="Nitelva" />
		<tag k="ssr:stedsnr" v="611618" />
		<tag k="waterway" v="river" />
	</node>
	<node id="-36213" lat="59.9815750002" lon="10.9108750074">
		<tag k="fixme" v="consider natural=peak for the most distinct mountains in the district" />
		<tag k="name" v="Skysethøgda" />
		<tag k="natural" v="hill" />
		<tag k="place" v="locality" />
		<tag k="ssr:stedsnr" v="611598" />
	</node>
	<node id="-36212" lat="59.9801476104" lon="10.9093503733">
		<tag k="name" v="Bamsetjern" />
		<tag k="natural" v="water" />
		<tag k="ssr:stedsnr" v="611548" />
	</node>
	<node id="-36211" lat="59.9774250007" lon="10.942525006">
		<tag k="name" v="Svarttjern" />
		<tag k="natural" v="water" />
		<tag k="ssr:stedsnr" v="611533" />
	</node>
	<node id="-36210" lat="60.0556388911" lon="10.8369833294">
		<tag k="name" v="Svingbakken" />
		<tag k="place" v="isolated_dwelling" />
		<tag k="ssr:stedsnr" v="611483" />
	</node>
	<node id="-36209" lat="60.047083332" lon="10.8372444463">
		<tag k="name" v="Langmyra" />
		<tag k="natural" v="wetland" />
		<tag k="ssr:stedsnr" v="611462" />
	</node>
	<node id="-36208" lat="60.011102782" lon="10.8858527811">
		<tag k="name" v="Skredderudtjernet" />
		<tag k="natural" v="water" />
		<tag k="ssr:stedsnr" v="611373" />
	</node>
	<node id="-36207" lat="60.0087333345" lon="10.9337777703">
		<tag k="name" v="Høghaugen" />
		<tag k="place" v="farm" />
		<tag k="ssr:stedsnr" v="611366" />
	</node>
	<node id="-36206" lat="60.0240111073" lon="10.8997111144">
		<tag k="name" v="Kjulsli" />
		<tag k="place" v="locality" />
		<tag k="ssr:stedsnr" v="595600" />
	</node>
	<node id="-36205" lat="60.0109888926" lon="10.9386111201">
		<tag k="name" v="Klokkerstua" />
		<tag k="place" v="isolated_dwelling" />
		<tag k="ssr:stedsnr" v="595578" />
	</node>
	<node id="-36204" lat="60.0149083378" lon="10.8956555609">
		<tag k="name" v="Høyfjellsmyra" />
		<tag k="natural" v="wetland" />
		<tag k="ssr:stedsnr" v="594580" />
	</node>
	<node id="-36203" lat="60.0074805573" lon="10.9321972149">
		<tag k="bridge" v="yes" />
		<tag k="layer" v="1" />
		<tag k="name" v="Slattum" />
		<tag k="ssr:stedsnr" v="592596" />
	</node>
	<node id="-36202" lat="60.0337777754" lon="10.8915833267">
		<tag k="bridge" v="yes" />
		<tag k="layer" v="1" />
		<tag k="name" v="Måsasvingen" />
		<tag k="ssr:stedsnr" v="591770" />
	</node>
	<node id="-36201" lat="60.1471194402" lon="10.7825416651">
		<tag k="bridge" v="yes" />
		<tag k="layer" v="1" />
		<tag k="name" v="Varpet" />
		<tag k="ssr:stedsnr" v="591766" />
	</node>
	<node id="-36200" lat="60.0102250036" lon="10.9180138825">
		<tag k="bridge" v="yes" />
		<tag k="layer" v="1" />
		<tag k="name" v="Slattum" />
		<tag k="ssr:stedsnr" v="591763" />
	</node>
	<node id="-36199" lat="60.1415361081" lon="10.8006777717">
		<tag k="name" v="Slettmoen" />
		<tag k="place" v="locality" />
		<tag k="ssr:stedsnr" v="587784" />
	</node>
	<node id="-36198" lat="60.0276888913" lon="10.9267555607">
		<tag k="name" v="Gloslimoen" />
		<tag k="place" v="isolated_dwelling" />
		<tag k="ssr:stedsnr" v="587719" />
	</node>
	<node id="-36197" lat="60.0311194437" lon="10.8301138959">
		<tag k="name" v="Seterdalen" />
		<tag k="natural" v="valley" />
		<tag k="place" v="locality" />
		<tag k="ssr:stedsnr" v="587601" />
	</node>
	<node id="-36196" lat="60.0159472196" lon="10.9496111159">
		<tag k="name" v="Ilangstua" />
		<tag k="place" v="isolated_dwelling" />
		<tag k="ssr:stedsnr" v="587584" />
	</node>
	<node id="-36195" lat="59.9950055599" lon="10.9536500071">
		<tag k="name" v="Torudflaen" />
		<tag k="place" v="locality" />
		<tag k="ssr:stedsnr" v="587369" />
	</node>
	<node id="-36194" lat="60.0021249974" lon="10.9419611196">
		<tag k="name" v="Nordre Holm" />
		<tag k="place" v="farm" />
		<tag k="ssr:stedsnr" v="587370" />
	</node>
	<node id="-36193" lat="60.0015777753" lon="10.9020472308">
		<tag k="name" v="Småmyrene" />
		<tag k="natural" v="wetland" />
		<tag k="ssr:stedsnr" v="587361" />
	</node>
	<node id="-36192" lat="60.0671944484" lon="10.9109638928">
		<tag k="name" v="Rustajet" />
		<tag k="place" v="locality" />
		<tag k="ssr:stedsnr" v="587332" />
	</node>
	<node id="-36191" lat="60.0624305598" lon="10.8868111064">
		<tag k="name" v="Nordbydalen" />
		<tag k="place" v="locality" />
		<tag k="ssr:stedsnr" v="587315" />
	</node>
	<node id="-36190" lat="60.1329388922" lon="10.8140166716">
		<tag k="amenity" v="school" />
		<tag k="name" v="Hagen skole" />
		<tag k="ssr:stedsnr" v="587294" />
	</node>
	<node id="-36189" lat="60.1039944479" lon="10.8559249934">
		<tag k="name" v="Døli" />
		<tag k="place" v="farm" />
		<tag k="ssr:stedsnr" v="587068" />
	</node>
	<node id="-36188" lat="60.0001944477" lon="10.8844638914">
		<tag k="name" v="Bodalsputten" />
		<tag k="natural" v="water" />
		<tag k="ssr:stedsnr" v="585821" />
	</node>
	<node id="-36187" lat="60.0151972227" lon="10.8842416741">
		<tag k="name" v="Skredderudbekken" />
		<tag k="ssr:stedsnr" v="585805" />
		<tag k="waterway" v="stream" />
	</node>
	<node id="-36186" lat="60.0097111101" lon="10.8735444414">
		<tag k="name" v="Olsenhogget" />
		<tag k="place" v="locality" />
		<tag k="ssr:stedsnr" v="585778" />
	</node>
	<node id="-36185" lat="60.0252805536" lon="10.8469861106">
		<tag k="name" v="Skrytabekken" />
		<tag k="ssr:stedsnr" v="584896" />
		<tag k="waterway" v="stream" />
	</node>
	<node id="-36184" lat="60.0254111129" lon="10.840261113">
		<tag k="amenity" v="cafe" />
		<tag k="name" v="Sinober sportsstue" />
		<tag k="old_name" v="Sinober" />
		<tag k="ssr:stedsnr" v="570806" />
	</node>
	<node id="-36183" lat="60.1450805048" lon="10.8726072829">
		<tag k="alt_name" v="Århanamyra" />
		<tag k="name" v="Århanemyra" />
		<tag k="natural" v="wetland" />
		<tag k="ssr:stedsnr" v="551749" />
	</node>
	<node id="-36182" lat="60.1700000028" lon="10.7969333255">
		<tag k="name" v="Nybonntjernet" />
		<tag k="natural" v="water" />
		<tag k="ssr:stedsnr" v="551712" />
	</node>
	<node id="-36181" lat="60.1746083334" lon="10.8084361067">
		<tag k="name" v="Vrangen" />
		<tag k="natural" v="water" />
		<tag k="ssr:stedsnr" v="551706" />
		<tag k="water" v="lake" />
	</node>
	<node id="-36180" lat="60.1244416709" lon="10.8031222143">
		<tag k="fixme" v="multiple name tags, choose one and add the other to alt_name" />
		<tag k="name" v="Holm;Steinerud" />
		<tag k="place" v="isolated_dwelling" />
		<tag k="ssr:stedsnr" v="551679" />
	</node>
	<node id="-36179" lat="60.1260137161" lon="10.8187487026">
		<tag k="fixme" v="consider place=hamlet" />
		<tag k="name" v="Haug" />
		<tag k="place" v="farm" />
		<tag k="ssr:stedsnr" v="551677" />
	</node>
	<node id="-36178" lat="60.1343000006" lon="10.7186249913">
		<tag k="name" v="Lønnbakkmyra" />
		<tag k="natural" v="wetland" />
		<tag k="ssr:stedsnr" v="551646" />
	</node>
	<node id="-36177" lat="60.1352833373" lon="10.9021583397">
		<tag k="name" v="Tjernslivangen" />
		<tag k="place" v="locality" />
		<tag k="ssr:stedsnr" v="551622" />
	</node>
	<node id="-36176" lat="60.0921027783" lon="10.9131583271">
		<tag k="alt_name" v="Ravndalstjern" />
		<tag k="name" v="Ramndalstjerna" />
		<tag k="natural" v="water" />
		<tag k="ssr:stedsnr" v="551615" />
	</node>
	<node id="-36175" lat="60.0962277781" lon="10.8935055608">
		<tag k="name" v="Myrhaug" />
		<tag k="place" v="farm" />
		<tag k="ssr:stedsnr" v="551610" />
	</node>
	<node id="-36174" lat="60.0928805523" lon="10.7927138951">
		<tag k="name" v="Store Hyttetjern" />
		<tag k="natural" v="water" />
		<tag k="ssr:stedsnr" v="551605" />
	</node>
	<node id="-36173" lat="60.1011638887" lon="10.8822083405">
		<tag k="name" v="Kirkebyhaugen" />
		<tag k="place" v="farm" />
		<tag k="ssr:stedsnr" v="551588" />
	</node>
	<node id="-36172" lat="60.1061499969" lon="10.846741663">
		<tag k="name" v="Varingskollen holdeplass" />
		<tag k="railway" v="halt" />
		<tag k="ssr:stedsnr" v="551581" />
		<tag k="train" v="yes" />
	</node>
	<node id="-36171" lat="60.1108138895" lon="10.788722224">
		<tag k="name" v="Karimyr" />
		<tag k="natural" v="wetland" />
		<tag k="ssr:stedsnr" v="551565" />
	</node>
	<node id="-36170" lat="60.0770249992" lon="10.8557749932">
		<tag k="alt_name" v="Høldippeldalen" />
		<tag k="name" v="Holnippeldalen" />
		<tag k="natural" v="valley" />
		<tag k="place" v="locality" />
		<tag k="ssr:stedsnr" v="551540" />
	</node>
	<node id="-36169" lat="60.0793555586" lon="10.8409249926">
		<tag k="name" v="Lomtjern" />
		<tag k="natural" v="water" />
		<tag k="ssr:stedsnr" v="551519" />
	</node>
	<node id="-36168" lat="60.052469441" lon="10.8887916646">
		<tag k="name" v="Øvre Haug" />
		<tag k="place" v="farm" />
		<tag k="ssr:stedsnr" v="551469" />
	</node>
	<node id="-36167" lat="60.0386861152" lon="10.894844437">
		<tag k="name" v="Gaustadmåsan" />
		<tag k="natural" v="wetland" />
		<tag k="ssr:stedsnr" v="551416" />
	</node>
	<node id="-36166" lat="60.0278500034" lon="10.9244416744">
		<tag k="alt_name" v="Sagbråtan" />
		<tag k="name" v="Sagbråten" />
		<tag k="place" v="farm" />
		<tag k="ssr:stedsnr" v="551403" />
	</node>
	<node id="-36165" lat="60.0311444466" lon="10.958027786">
		<tag k="alt_name" v="Rygga" />
		<tag k="name" v="Ryggebekken" />
		<tag k="ssr:stedsnr" v="551390" />
		<tag k="waterway" v="stream" />
	</node>
	<node id="-36164" lat="60.0182111079" lon="10.855827776">
		<tag k="alt_name" v="Nordskogtjerna" />
		<tag k="name" v="Nordskogtjernet" />
		<tag k="natural" v="water" />
		<tag k="ssr:stedsnr" v="551381" />
	</node>
	<node id="-36163" lat="59.9955416667" lon="10.8835111162">
		<tag k="name" v="Lomtjern" />
		<tag k="natural" v="water" />
		<tag k="ssr:stedsnr" v="550604" />
	</node>
	<node id="-36162" lat="60.0182055527" lon="10.9161916689">
		<tag k="alt_name" v="Hauger nedre" />
		<tag k="name" v="Nedre Hauger" />
		<tag k="place" v="farm" />
		<tag k="ssr:stedsnr" v="534609" />
	</node>
	<node id="-36161" lat="60.0103222196" lon="10.9308750074">
		<tag k="name" v="Saga" />
		<tag k="place" v="locality" />
		<tag k="ssr:stedsnr" v="534597" />
	</node>
	<node id="-36160" lat="60.0539666647" lon="10.8824166716">
		<tag k="bridge" v="yes" />
		<tag k="layer" v="1" />
		<tag k="name" v="Haug" />
		<tag k="ssr:stedsnr" v="531801" />
	</node>
	<node id="-36158" lat="60.008583333" lon="10.9495194455">
		<tag k="alt_name" v="Dal nedre" />
		<tag k="name" v="Nedre Dal" />
		<tag k="place" v="farm" />
		<tag k="ssr:stedsnr" v="526576" />
	</node>
	<node id="-36157" lat="60.1182500018" lon="10.8546027747">
		<tag k="name" v="Granly" />
		<tag k="place" v="isolated_dwelling" />
		<tag k="ssr:stedsnr" v="526573" />
	</node>
	<node id="-36156" lat="59.9939055512" lon="10.9870444424">
		<tag k="name" v="Store Ramstad" />
		<tag k="place" v="farm" />
		<tag k="ssr:stedsnr" v="526335" />
	</node>
	<node id="-36155" lat="60.0850833376" lon="10.7951333349">
		<tag k="name" v="Karlshaugputtene" />
		<tag k="natural" v="water" />
		<tag k="ssr:stedsnr" v="526267" />
	</node>
	<node id="-36154" lat="60.0709000004" lon="10.898886104">
		<tag k="name" v="Kasbekken" />
		<tag k="ssr:stedsnr" v="526117" />
		<tag k="waterway" v="stream" />
	</node>
	<node id="-36153" lat="60.1049527754" lon="10.8445722282">
		<tag k="landuse" v="winter_sports" />
		<tag k="name" v="Varingskollen skisenter" />
		<tag k="piste:type" v="downhill" />
		<tag k="ssr:stedsnr" v="525011" />
	</node>
	<node id="-36152" lat="60.0181166659" lon="10.8530972163">
		<tag k="name" v="Kølabonn" />
		<tag k="place" v="locality" />
		<tag k="ssr:stedsnr" v="524845" />
	</node>
	<node id="-36151" lat="60.0066833344" lon="10.862736115">
		<tag k="name" v="Kjulstjernskollen" />
		<tag k="natural" v="hill" />
		<tag k="place" v="locality" />
		<tag k="ssr:stedsnr" v="524793" />
	</node>
	<node id="-36150" lat="60.0104181223" lon="10.958181848">
		<tag k="name" v="Nordenga" />
		<tag k="place" v="farm" />
		<tag k="ssr:stedsnr" v="524617" />
	</node>
	<node id="-36149" lat="60.1189277761" lon="10.8320583322">
		<tag k="name" v="Sagdammen" />
		<tag k="place" v="locality" />
		<tag k="ssr:stedsnr" v="511434" />
	</node>
	<node id="-36148" lat="60.0570722265" lon="10.8613527799">
		<tag k="name" v="Rotnes" />
		<tag k="place" v="village" />
		<tag k="ssr:stedsnr" v="510065" />
	</node>
	<node id="-36147" lat="60.1425777769" lon="10.8776750047">
		<tag k="alt_name" v="Rauddalsbekken" />
		<tag k="name" v="Raudalsbekken" />
		<tag k="ssr:stedsnr" v="491732" />
		<tag k="waterway" v="stream" />
	</node>
	<node id="-36146" lat="60.151144444" lon="10.855447224">
		<tag k="name" v="Guritjernkollen" />
		<tag k="natural" v="hill" />
		<tag k="place" v="locality" />
		<tag k="ssr:stedsnr" v="491726" />
	</node>
	<node id="-36145" lat="60.0766694456" lon="10.9320749977">
		<tag k="name" v="Gruvehøgda" />
		<tag k="natural" v="hill" />
		<tag k="place" v="locality" />
		<tag k="ssr:stedsnr" v="491567" />
	</node>
	<node id="-36144" lat="60.0787583292" lon="10.8343000082">
		<tag k="name" v="Svensketjernet" />
		<tag k="natural" v="water" />
		<tag k="ssr:stedsnr" v="491551" />
	</node>
	<node id="-36143" lat="60.0985083362" lon="10.8858138972">
		<tag k="alt_name" v="Kirkeby, s" />
		<tag k="name" v="Søndre Kirkeby" />
		<tag k="place" v="farm" />
		<tag k="ssr:stedsnr" v="491612" />
	</node>
	<node id="-36142" lat="60.101402887" lon="10.8777440722">
		<tag k="alt_name" v="Jonstua" />
		<tag k="name" v="Solvang" />
		<tag k="place" v="farm" />
		<tag k="ssr:stedsnr" v="491609" />
	</node>
	<node id="-36141" lat="60.0099432829" lon="10.9574562268">
		<tag k="fixme" v="consider place=hamlet" />
		<tag k="name" v="Dal" />
		<tag k="place" v="farm" />
		<tag k="ssr:stedsnr" v="491392" />
	</node>
	<node id="-36140" lat="60.0291249992" lon="10.9096083378">
		<tag k="name" v="Holmerud" />
		<tag k="place" v="locality" />
		<tag k="ssr:stedsnr" v="491438" />
	</node>
	<node id="-36139" lat="60.0250499993" lon="10.9498361163">
		<tag k="fixme" v="multiple name tags, choose one and add the other to alt_name" />
		<tag k="name" v="Lintjern;Tysilltjernet" />
		<tag k="natural" v="water" />
		<tag k="ssr:stedsnr" v="491420" />
	</node>
	<node id="-36138" lat="60.0214083296" lon="10.857638889">
		<tag k="fixme" v="consider natural=peak for the most distinct mountains in the district" />
		<tag k="name" v="Brennberget" />
		<tag k="natural" v="hill" />
		<tag k="place" v="locality" />
		<tag k="ssr:stedsnr" v="491414" />
	</node>
	<node id="-36137" lat="60.1362638931" lon="10.708519439">
		<tag k="name" v="Huldretjernet" />
		<tag k="natural" v="water" />
		<tag k="ssr:stedsnr" v="491106" />
	</node>
	<node id="-36136" lat="60.1315361081" lon="10.7109555474">
		<tag k="name" v="Veslesjøen" />
		<tag k="natural" v="water" />
		<tag k="ssr:stedsnr" v="491097" />
	</node>
	<node id="-36135" lat="60.1672118487" lon="10.8374181689">
		<tag k="name" v="Damsortungen" />
		<tag k="natural" v="water" />
		<tag k="ssr:stedsnr" v="490706" />
		<tag k="water" v="lake" />
	</node>
	<node id="-36134" lat="60.1290166623" lon="10.8191305531">
		<tag k="alt_name" v="Fuglåsen" />
		<tag k="fixme" v="consider natural=peak for the most distinct mountains in the district" />
		<tag k="name" v="Fugleåsen" />
		<tag k="natural" v="hill" />
		<tag k="place" v="locality" />
		<tag k="ssr:stedsnr" v="490675" />
	</node>
	<node id="-36133" lat="60.0846749967" lon="10.8751555604">
		<tag k="alt_name" v="Åneby, øvre" />
		<tag k="name" v="Åneby" />
		<tag k="place" v="farm" />
		<tag k="ssr:stedsnr" v="490493" />
	</node>
	<node id="-36132" lat="60.0442166688" lon="10.878924994">
		<tag k="name" v="Mo" />
		<tag k="place" v="farm" />
		<tag k="ssr:stedsnr" v="490438" />
	</node>
	<node id="-36131" lat="59.996758331" lon="10.9123500056">
		<tag k="name" v="Skytta" />
		<tag k="place" v="village" />
		<tag k="ssr:stedsnr" v="489645" />
	</node>
	<node id="-36130" lat="60.048344447" lon="10.8823277706">
		<tag k="bridge" v="yes" />
		<tag k="layer" v="1" />
		<tag k="name" v="Dam" />
		<tag k="ssr:stedsnr" v="470007" />
	</node>
	<node id="-36129" lat="60.1250444473" lon="10.8252472191">
		<tag k="name" v="Nesberget" />
		<tag k="place" v="farm" />
		<tag k="ssr:stedsnr" v="466607" />
	</node>
	<node id="-36128" lat="59.9973333332" lon="10.918569448">
		<tag k="amenity" v="community_centre" />
		<tag k="name" v="Folkets hus" />
		<tag k="ssr:stedsnr" v="466362" />
	</node>
	<node id="-36127" lat="60.1044106075" lon="10.8776163582">
		<tag k="alt_name" v="Gamle Glittre" />
		<tag k="name" v="Gamle Glitre" />
		<tag k="place" v="farm" />
		<tag k="ssr:stedsnr" v="466083" />
	</node>
	<node id="-36126" lat="59.9944222256" lon="10.8861277811">
		<tag k="fixme" v="consider natural=peak for the most distinct mountains in the district" />
		<tag k="name" v="Seterhaugen" />
		<tag k="natural" v="hill" />
		<tag k="place" v="locality" />
		<tag k="ssr:stedsnr" v="464853" />
	</node>
	<node id="-36125" lat="60.0133361114" lon="10.852113895">
		<tag k="fixme" v="consider natural=peak for the most distinct mountains in the district" />
		<tag k="name" v="Holåsen" />
		<tag k="natural" v="hill" />
		<tag k="place" v="locality" />
		<tag k="ssr:stedsnr" v="464839" />
	</node>
	<node id="-36124" lat="60.0394944428" lon="10.9606611193">
		<tag k="name" v="Breimåsan" />
		<tag k="natural" v="wetland" />
		<tag k="ssr:stedsnr" v="464316" />
	</node>
	<node id="-36123" lat="60.1422833371" lon="10.7049583366">
		<tag k="name" v="Djupdalen" />
		<tag k="natural" v="valley" />
		<tag k="place" v="locality" />
		<tag k="ssr:stedsnr" v="464017" />
	</node>
	<node id="-36122" lat="60.0201222189" lon="10.889027778">
		<tag k="name" v="Brattfoss" />
		<tag k="natural" v="waterfall" />
		<tag k="ssr:stedsnr" v="463876" />
	</node>
	<node id="-36121" lat="60.0288888917" lon="10.9009416728">
		<tag k="name" v="Nordre Kjul" />
		<tag k="old_name" v="Kjul nordre" />
		<tag k="place" v="farm" />
		<tag k="ssr:stedsnr" v="464702" />
	</node>
	<node id="-36120" lat="60.1873027785" lon="10.7787055515">
		<tag k="name" v="Piperfløyta" />
		<tag k="natural" v="water" />
		<tag k="ssr:stedsnr" v="430793" />
	</node>
	<node id="-36119" lat="60.1812039909" lon="10.8419193971">
		<tag k="name" v="Bakkholtjerna" />
		<tag k="natural" v="water" />
		<tag k="ssr:stedsnr" v="430773" />
		<tag k="water" v="lake" />
	</node>
	<node id="-36118" lat="60.1575502317" lon="10.8178791966">
		<tag k="fixme" v="consider natural=peak for the most distinct mountains in the district" />
		<tag k="name" v="Bukollen" />
		<tag k="natural" v="hill" />
		<tag k="place" v="locality" />
		<tag k="ssr:stedsnr" v="430714" />
	</node>
	<node id="-36117" lat="60.1729435287" lon="10.7838974706">
		<tag k="name" v="Blekketjerna" />
		<tag k="natural" v="water" />
		<tag k="ssr:stedsnr" v="430686" />
	</node>
	<node id="-36116" lat="60.1177555563" lon="10.8092222166">
		<tag k="name" v="Homannsbekken" />
		<tag k="ssr:stedsnr" v="430671" />
		<tag k="waterway" v="stream" />
	</node>
	<node id="-36115" lat="60.1194416633" lon="10.8171972134">
		<tag k="name" v="Blåsås" />
		<tag k="place" v="isolated_dwelling" />
		<tag k="ssr:stedsnr" v="430668" />
	</node>
	<node id="-36114" lat="60.1176694426" lon="10.8546999984">
		<tag k="name" v="Hellerudhaugen" />
		<tag k="place" v="locality" />
		<tag k="ssr:stedsnr" v="430666" />
	</node>
	<node id="-36113" lat="60.1089555515" lon="10.9150861106">
		<tag k="name" v="Svarttjern" />
		<tag k="natural" v="water" />
		<tag k="ssr:stedsnr" v="430591" />
	</node>
	<node id="-36112" lat="60.1115750001" lon="10.7734333261">
		<tag k="name" v="Elvassmyra" />
		<tag k="natural" v="wetland" />
		<tag k="ssr:stedsnr" v="430581" />
	</node>
	<node id="-36111" lat="60.0695222255" lon="10.7856277802">
		<tag k="name" v="Fløyta" />
		<tag k="natural" v="water" />
		<tag k="ssr:stedsnr" v="430567" />
	</node>
	<node id="-36110" lat="60.0711249969" lon="10.7972499939">
		<tag k="alt_name" v="Storbråtahaug" />
		<tag k="name" v="Storbråtahaugen" />
		<tag k="natural" v="hill" />
		<tag k="place" v="locality" />
		<tag k="ssr:stedsnr" v="430532" />
	</node>
	<node id="-36109" lat="60.0759638849" lon="10.8272027765">
		<tag k="name" v="Svenskemyra" />
		<tag k="natural" v="wetland" />
		<tag k="ssr:stedsnr" v="430528" />
	</node>
	<node id="-36108" lat="60.0799583292" lon="10.8817861055">
		<tag k="alt_name" v="Sørli" />
		<tag k="name" v="Sørlifallet" />
		<tag k="place" v="farm" />
		<tag k="ssr:stedsnr" v="430506" />
	</node>
	<node id="-36107" lat="60.0826527817" lon="10.8797638812">
		<tag k="name" v="Haugerud" />
		<tag k="place" v="farm" />
		<tag k="ssr:stedsnr" v="430491" />
	</node>
	<node id="-36106" lat="60.060133331" lon="10.8377388938">
		<tag k="name" v="Ørfiskebekken" />
		<tag k="ssr:stedsnr" v="430461" />
		<tag k="waterway" v="stream" />
	</node>
	<node id="-36105" lat="60.058425004" lon="10.8520333355">
		<tag k="name" v="Sørli" />
		<tag k="place" v="isolated_dwelling" />
		<tag k="ssr:stedsnr" v="430459" />
	</node>
	<node id="-36104" lat="60.0443472223" lon="10.8445472225">
		<tag k="name" v="Dammyrdalen" />
		<tag k="natural" v="valley" />
		<tag k="place" v="locality" />
		<tag k="ssr:stedsnr" v="430423" />
	</node>
	<node id="-36103" lat="60.0369694428" lon="10.8546888857">
		<tag k="name" v="Dalen" />
		<tag k="place" v="isolated_dwelling" />
		<tag k="ssr:stedsnr" v="430421" />
	</node>
	<node id="-36102" lat="60.0255388875" lon="10.9150333348">
		<tag k="name" v="Øgarden" />
		<tag k="place" v="farm" />
		<tag k="ssr:stedsnr" v="430401" />
	</node>
	<node id="-36101" lat="60.0161361105" lon="10.8397611098">
		<tag k="alt_name" v="Kringla" />
		<tag k="name" v="Kringler" />
		<tag k="natural" v="water" />
		<tag k="ssr:stedsnr" v="430370" />
	</node>
	<node id="-36100" lat="60.0132416656" lon="10.9332805546">
		<tag k="name" v="Solvang" />
		<tag k="place" v="farm" />
		<tag k="ssr:stedsnr" v="430351" />
	</node>
	<node id="-36099" lat="60.0041805564" lon="10.9282388855">
		<tag k="fixme" v="consider place=suburb, village or hamlet" />
		<tag k="name" v="Li" />
		<tag k="place" v="quarter" />
		<tag k="ssr:stedsnr" v="430343" />
	</node>
	<node id="-36098" lat="59.9985805513" lon="10.9291055559">
		<tag k="fixme" v="consider place=hamlet" />
		<tag k="name" v="Skyset" />
		<tag k="place" v="farm" />
		<tag k="ssr:stedsnr" v="429600" />
	</node>
	<node id="-36097" lat="59.9924333348" lon="10.9611194462">
		<tag k="fixme" v="consider place=hamlet" />
		<tag k="name" v="Nesgutu" />
		<tag k="place" v="farm" />
		<tag k="ssr:stedsnr" v="429598" />
	</node>
	<node id="-36096" lat="59.9872777735" lon="10.8910555545">
		<tag k="name" v="Romstjern" />
		<tag k="natural" v="water" />
		<tag k="ssr:stedsnr" v="429579" />
	</node>
	<node id="-36095" lat="60.1327249968" lon="10.9040500015">
		<tag k="name" v="Aurtjern" />
		<tag k="natural" v="water" />
		<tag k="ssr:stedsnr" v="430657" />
	</node>
	<node id="-36094" lat="60.1277499995" lon="10.7306694427">
		<tag k="name" v="Mago" />
		<tag k="place" v="farm" />
		<tag k="ssr:stedsnr" v="430646" />
	</node>
	<node id="-36093" lat="60.1626666708" lon="10.8079388956">
		<tag k="fixme" v="consider natural=peak for the most distinct mountains in the district" />
		<tag k="name" v="Fugleknattene" />
		<tag k="natural" v="hill" />
		<tag k="place" v="locality" />
		<tag k="ssr:stedsnr" v="248719" />
	</node>
	<node id="-36092" lat="60.1247416637" lon="10.7474833271">
		<tag k="name" v="Bråtan" />
		<tag k="place" v="farm" />
		<tag k="ssr:stedsnr" v="248694" />
	</node>
	<node id="-36091" lat="60.1217416645" lon="10.8119444486">
		<tag k="name" v="Ekra" />
		<tag k="place" v="isolated_dwelling" />
		<tag k="ssr:stedsnr" v="248691" />
	</node>
	<node id="-36090" lat="60.1297388921" lon="10.8113361068">
		<tag k="name" v="Nordre Haug" />
		<tag k="place" v="farm" />
		<tag k="ssr:stedsnr" v="248677" />
	</node>
	<node id="-36089" lat="60.1298500042" lon="10.8808166714">
		<tag k="name" v="Toketjern" />
		<tag k="natural" v="water" />
		<tag k="ssr:stedsnr" v="248673" />
	</node>
	<node id="-36088" lat="60.0920694429" lon="10.7792388893">
		<tag k="alt_name" v="Hytteberget" />
		<tag k="fixme" v="consider natural=peak for the most distinct mountains in the district" />
		<tag k="name" v="Hytteåsen" />
		<tag k="natural" v="hill" />
		<tag k="place" v="locality" />
		<tag k="ssr:stedsnr" v="248627" />
	</node>
	<node id="-36087" lat="60.0648388885" lon="10.9108027855">
		<tag k="name" v="Askkroken" />
		<tag k="place" v="hamlet" />
		<tag k="ssr:stedsnr" v="248563" />
	</node>
	<node id="-36086" lat="60.0699499992" lon="10.9260944466">
		<tag k="name" v="Hulderbu" />
		<tag k="place" v="isolated_dwelling" />
		<tag k="ssr:stedsnr" v="248548" />
	</node>
	<node id="-36085" lat="60.0583166668" lon="10.8648555513">
		<tag k="alt_name" v="Nittedal" />
		<tag k="name" v="Nittedal stasjon" />
		<tag k="railway" v="station" />
		<tag k="ssr:stedsnr" v="248451" />
		<tag k="train" v="yes" />
	</node>
	<node id="-36084" lat="60.0469611126" lon="10.9300166633">
		<tag k="fixme" v="consider natural=peak for the most distinct mountains in the district" />
		<tag k="name" v="Holterkollen" />
		<tag k="natural" v="hill" />
		<tag k="place" v="locality" />
		<tag k="ssr:stedsnr" v="248447" />
	</node>
	<node id="-36083" lat="60.0349833332" lon="10.83226389">
		<tag k="name" v="Burås" />
		<tag k="place" v="farm" />
		<tag k="ssr:stedsnr" v="248410" />
	</node>
	<node id="-36082" lat="60.0288361098" lon="10.9158722141">
		<tag k="alt_name" v="Krakoseter" />
		<tag k="name" v="Krakossæter" />
		<tag k="place" v="isolated_dwelling" />
		<tag k="ssr:stedsnr" v="248401" />
	</node>
	<node id="-36081" lat="60.0104027765" lon="10.9449388855">
		<tag k="fixme" v="consider place=hamlet" />
		<tag k="name" v="Dal" />
		<tag k="place" v="farm" />
		<tag k="ssr:stedsnr" v="248379" />
	</node>
	<node id="-36080" lat="60.0160361138" lon="10.9098333362">
		<tag k="name" v="Haugerud" />
		<tag k="place" v="farm" />
		<tag k="ssr:stedsnr" v="248339" />
	</node>
	<node id="-36079" lat="60.1473333291" lon="10.6898000057">
		<tag k="name" v="Daltjuvfløyta" />
		<tag k="natural" v="water" />
		<tag k="ssr:stedsnr" v="248119" />
	</node>
	<node id="-36078" lat="59.9751499956" lon="10.9624749987">
		<tag k="landuse" v="military" />
		<tag k="name" v="Lahaugmoen" />
		<tag k="ssr:stedsnr" v="247509" />
	</node>
	<node id="-36077" lat="60.0454777788" lon="10.8820750072">
		<tag k="bridge" v="yes" />
		<tag k="layer" v="1" />
		<tag k="name" v="Bjertnes" />
		<tag k="ssr:stedsnr" v="227006" />
	</node>
	<node id="-36076" lat="60.1714972259" lon="10.7835333249">
		<tag k="name" v="Øvre Blekketjern" />
		<tag k="natural" v="water" />
		<tag k="ssr:stedsnr" v="223863" />
	</node>
	<node id="-36075" lat="60.1736111139" lon="10.7839000012">
		<tag k="name" v="Nedre Blekketjern" />
		<tag k="natural" v="water" />
		<tag k="ssr:stedsnr" v="223864" />
	</node>
	<node id="-36074" lat="60.1363111123" lon="10.7913888961">
		<tag k="name" v="Nedre Elnes" />
		<tag k="place" v="farm" />
		<tag k="ssr:stedsnr" v="223814" />
	</node>
	<node id="-36073" lat="60.0426055571" lon="10.8770222181">
		<tag k="name" v="Motajet" />
		<tag k="place" v="locality" />
		<tag k="ssr:stedsnr" v="223747" />
	</node>
	<node id="-36072" lat="60.0032694468" lon="10.982441671">
		<tag k="name" v="Flotten" />
		<tag k="place" v="locality" />
		<tag k="ssr:stedsnr" v="223378" />
	</node>
	<node id="-36071" lat="60.0016083306" lon="10.9497888903">
		<tag k="name" v="Nordlykkja" />
		<tag k="place" v="locality" />
		<tag k="ssr:stedsnr" v="223375" />
	</node>
	<node id="-36070" lat="59.9904222264" lon="10.9851500005">
		<tag k="name" v="Jeppebakken" />
		<tag k="place" v="farm" />
		<tag k="ssr:stedsnr" v="223362" />
	</node>
	<node id="-36068" lat="60.0660472238" lon="10.8915277724">
		<tag k="name" v="Nedre Nordby" />
		<tag k="place" v="farm" />
		<tag k="ssr:stedsnr" v="223316" />
	</node>
	<node id="-36067" lat="60.0642861139" lon="10.9066277824">
		<tag k="name" v="Sletta" />
		<tag k="place" v="farm" />
		<tag k="ssr:stedsnr" v="223309" />
	</node>
	<node id="-36066" lat="60.1380416663" lon="10.8199166753">
		<tag k="name" v="Nordre Mork" />
		<tag k="place" v="farm" />
		<tag k="ssr:stedsnr" v="223258" />
	</node>
	<node id="-36065" lat="60.135277775" lon="10.8203416685">
		<tag k="name" v="Midtre Mork" />
		<tag k="place" v="farm" />
		<tag k="ssr:stedsnr" v="223232" />
	</node>
	<node id="-36064" lat="60.0037888892" lon="10.966994441">
		<tag k="name" v="Løkenbakken" />
		<tag k="place" v="locality" />
		<tag k="ssr:stedsnr" v="223201" />
	</node>
	<node id="-36063" lat="60.0822749994" lon="10.8765277755">
		<tag k="name" v="Bråten" />
		<tag k="place" v="farm" />
		<tag k="ssr:stedsnr" v="223102" />
	</node>
	<node id="-36062" lat="60.0089249985" lon="10.9483194504">
		<tag k="alt_name" v="Dal vestre" />
		<tag k="name" v="Vestre Dal" />
		<tag k="place" v="farm" />
		<tag k="ssr:stedsnr" v="223595" />
	</node>
	<node id="-36060" lat="60.0278916682" lon="10.9009749987">
		<tag k="alt_name" v="Kjul søndre" />
		<tag k="name" v="Søndre Kjul" />
		<tag k="place" v="farm" />
		<tag k="ssr:stedsnr" v="221639" />
	</node>
	<node id="-36059" lat="60.0319555556" lon="10.9112083392">
		<tag k="name" v="Berget" />
		<tag k="place" v="locality" />
		<tag k="ssr:stedsnr" v="221618" />
	</node>
	<node id="-36058" lat="60.0303888902" lon="10.9465666719">
		<tag k="name" v="Svartputten" />
		<tag k="natural" v="water" />
		<tag k="ssr:stedsnr" v="221346" />
	</node>
	<node id="-36057" lat="59.9938916664" lon="10.9278555579">
		<tag k="name" v="Snurefjellet" />
		<tag k="natural" v="hill" />
		<tag k="place" v="locality" />
		<tag k="ssr:stedsnr" v="221245" />
	</node>
	<node id="-36056" lat="60.1252055594" lon="10.8172833267">
		<tag k="name" v="Søndre Haug" />
		<tag k="place" v="farm" />
		<tag k="ssr:stedsnr" v="221020" />
	</node>
	<node id="-36055" lat="60.1198138848" lon="10.8150416699">
		<tag k="name" v="Skansen" />
		<tag k="place" v="isolated_dwelling" />
		<tag k="ssr:stedsnr" v="221014" />
	</node>
	<node id="-36054" lat="60.0934861097" lon="10.9208138927">
		<tag k="name" v="Høyfjellsvangen" />
		<tag k="place" v="locality" />
		<tag k="ssr:stedsnr" v="221008" />
	</node>
	<node id="-36053" lat="60.1052583372" lon="10.8897638974">
		<tag k="name" v="Kirkebylia" />
		<tag k="place" v="hamlet" />
		<tag k="ssr:stedsnr" v="221005" />
	</node>
	<node id="-36052" lat="60.1437277738" lon="10.8066083262">
		<tag k="building" v="civic" />
		<tag k="name" v="Nittedal Jordstasjon" />
		<tag k="ssr:stedsnr" v="208315" />
	</node>
	<node id="-36051" lat="60.0386388861" lon="10.873491666">
		<tag k="name" v="Skøyenhagan" />
		<tag k="place" v="farm" />
		<tag k="ssr:stedsnr" v="208299" />
	</node>
	<node id="-36050" lat="60.1609694423" lon="10.7863333357">
		<tag k="alt_name" v="Nedre Kolltjerna" />
		<tag k="name" v="Nedre Kolltjern" />
		<tag k="natural" v="water" />
		<tag k="ssr:stedsnr" v="188745" />
	</node>
	<node id="-36049" lat="60.1397749994" lon="10.7400138927">
		<tag k="name" v="Henrikstjernet" />
		<tag k="natural" v="water" />
		<tag k="ssr:stedsnr" v="188679" />
	</node>
	<node id="-36048" lat="60.139463893" lon="10.7233027788">
		<tag k="alt_name" v="Purketjernet" />
		<tag k="name" v="Purktjern" />
		<tag k="natural" v="water" />
		<tag k="ssr:stedsnr" v="188677" />
	</node>
	<node id="-36047" lat="60.0998472188" lon="10.9107499972">
		<tag k="alt_name" v="Ravndalen" />
		<tag k="name" v="Ramndalen" />
		<tag k="natural" v="valley" />
		<tag k="place" v="locality" />
		<tag k="ssr:stedsnr" v="188638" />
	</node>
	<node id="-36046" lat="60.1053222228" lon="10.8598500019">
		<tag k="name" v="Døli" />
		<tag k="place" v="farm" />
		<tag k="ssr:stedsnr" v="188633" />
	</node>
	<node id="-36045" lat="60.1055750025" lon="10.7680555499">
		<tag k="name" v="Vintertjernet" />
		<tag k="natural" v="water" />
		<tag k="ssr:stedsnr" v="188632" />
	</node>
	<node id="-36044" lat="60.0625666655" lon="10.9030416749">
		<tag k="name" v="Ask" />
		<tag k="place" v="farm" />
		<tag k="ssr:stedsnr" v="188606" />
	</node>
	<node id="-36043" lat="60.0089999969" lon="10.9461361179">
		<tag k="alt_name" v="Nittedal" />
		<tag k="amenity" v="place_of_worship" />
		<tag k="denomination" v="lutheran" />
		<tag k="name" v="Nittedal kirke" />
		<tag k="religion" v="christian" />
		<tag k="ssr:stedsnr" v="188399" />
	</node>
	<node id="-36042" lat="60.0178333354" lon="10.8448083405">
		<tag k="alt_name" v="Åbortjern" />
		<tag k="name" v="Åbortjernet" />
		<tag k="natural" v="water" />
		<tag k="ssr:stedsnr" v="188434" />
	</node>
	<node id="-36041" lat="60.015366663" lon="10.9608277806">
		<tag k="alt_name" v="Molstad" />
		<tag k="name" v="Moldstad" />
		<tag k="place" v="farm" />
		<tag k="ssr:stedsnr" v="188408" />
	</node>
	<node id="-36040" lat="60.1489888893" lon="10.8342499949">
		<tag k="name" v="Sortungsbekken" />
		<tag k="ssr:stedsnr" v="187696" />
		<tag k="waterway" v="stream" />
	</node>
	<node id="-36039" lat="60.1190666648" lon="10.8813222199">
		<tag k="name" v="Djupdalen" />
		<tag k="natural" v="valley" />
		<tag k="place" v="locality" />
		<tag k="ssr:stedsnr" v="187642" />
	</node>
	<node id="-36038" lat="60.114669446" lon="10.8304749991">
		<tag k="name" v="Burås" />
		<tag k="place" v="quarter" />
		<tag k="ssr:stedsnr" v="187537" />
	</node>
	<node id="-36037" lat="60.1134861092" lon="10.7996305579">
		<tag k="alt_name" v="Mattismyra" />
		<tag k="name" v="Mattismyr" />
		<tag k="natural" v="wetland" />
		<tag k="ssr:stedsnr" v="187533" />
	</node>
	<node id="-36036" lat="60.178022224" lon="10.7812388932">
		<tag k="alt_name" v="Blekktjernhøgda" />
		<tag k="fixme" v="consider natural=peak for the most distinct mountains in the district" />
		<tag k="name" v="Blekketjernshøgda" />
		<tag k="natural" v="hill" />
		<tag k="place" v="locality" />
		<tag k="ssr:stedsnr" v="187661" />
	</node>
	<node id="-36035" lat="60.0919983718" lon="10.8890510387">
		<tag k="name" v="Breidablikk" />
		<tag k="place" v="farm" />
		<tag k="ssr:stedsnr" v="187571" />
	</node>
	<node id="-36034" lat="60.0038472212" lon="10.8477972143">
		<tag k="name" v="Vennervann" />
		<tag k="natural" v="water" />
		<tag k="ssr:stedsnr" v="187329" />
	</node>
	<node id="-36033" lat="60.0601250022" lon="10.9334361185">
		<tag k="name" v="Haugsputten" />
		<tag k="natural" v="water" />
		<tag k="ssr:stedsnr" v="187444" />
	</node>
	<node id="-36032" lat="60.0483361123" lon="10.8713500055">
		<tag k="name" v="Nygård" />
		<tag k="place" v="isolated_dwelling" />
		<tag k="ssr:stedsnr" v="187428" />
	</node>
	<node id="-36031" lat="60.039791667" lon="10.9446749998">
		<tag k="name" v="Gopletjern" />
		<tag k="natural" v="water" />
		<tag k="ssr:stedsnr" v="187407" />
	</node>
	<node id="-36030" lat="60.0318277734" lon="10.904325002">
		<tag k="name" v="Grønlund" />
		<tag k="place" v="farm" />
		<tag k="ssr:stedsnr" v="187396" />
	</node>
	<node id="-36029" lat="60.0270750044" lon="10.8360249965">
		<tag k="alt_name" v="Ormtjern" />
		<tag k="name" v="Ormetjern" />
		<tag k="natural" v="water" />
		<tag k="ssr:stedsnr" v="187390" />
	</node>
	<node id="-36028" lat="60.027533335" lon="10.8714472161">
		<tag k="name" v="Vollen" />
		<tag k="place" v="isolated_dwelling" />
		<tag k="ssr:stedsnr" v="187386" />
	</node>
	<node id="-36027" lat="59.9831527745" lon="10.9641722298">
		<tag k="name" v="Bøler" />
		<tag k="place" v="farm" />
		<tag k="ssr:stedsnr" v="186640" />
	</node>
	<node id="-36026" lat="59.9981305549" lon="10.9737166708">
		<tag k="name" v="Glømmi" />
		<tag k="place" v="locality" />
		<tag k="ssr:stedsnr" v="186660" />
	</node>
	<node id="-36025" lat="60.0133277796" lon="10.9050000018">
		<tag k="name" v="Haugersetra" />
		<tag k="place" v="locality" />
		<tag k="ssr:stedsnr" v="170614" />
	</node>
	<node id="-36024" lat="60.1339833293" lon="10.8119861129">
		<tag k="name" v="Vestre Mork" />
		<tag k="place" v="locality" />
		<tag k="ssr:stedsnr" v="162802" />
	</node>
	<node id="-36023" lat="60.0332833288" lon="10.8895083414">
		<tag k="alt_name" v="Skøyen nedre" />
		<tag k="name" v="Nedre Skøyen" />
		<tag k="place" v="farm" />
		<tag k="ssr:stedsnr" v="162737" />
	</node>
	<node id="-36022" lat="60.1168555589" lon="10.8540749917">
		<tag k="name" v="Solvang" />
		<tag k="place" v="isolated_dwelling" />
		<tag k="ssr:stedsnr" v="162587" />
	</node>
	<node id="-36021" lat="60.0001111108" lon="10.9496305624">
		<tag k="name" v="Bjønn" />
		<tag k="place" v="locality" />
		<tag k="ssr:stedsnr" v="162364" />
	</node>
	<node id="-36020" lat="60.0023194447" lon="10.8941805511">
		<tag k="name" v="Bjønndalsmyra" />
		<tag k="natural" v="wetland" />
		<tag k="ssr:stedsnr" v="162346" />
	</node>
	<node id="-36019" lat="60.0654833296" lon="10.9107222206">
		<tag k="name" v="Rusestua" />
		<tag k="place" v="farm" />
		<tag k="ssr:stedsnr" v="162291" />
	</node>
	<node id="-36018" lat="60.1396944422" lon="10.6898250006">
		<tag k="name" v="Stålputtene" />
		<tag k="natural" v="water" />
		<tag k="ssr:stedsnr" v="162279" />
	</node>
	<node id="-36017" lat="60.123472219" lon="10.8067833341">
		<tag k="name" v="Åbortjern" />
		<tag k="natural" v="water" />
		<tag k="ssr:stedsnr" v="162152" />
	</node>
	<node id="-36016" lat="60.1135111098" lon="10.8633166754">
		<tag k="name" v="Tøyenberget" />
		<tag k="place" v="quarter" />
		<tag k="ssr:stedsnr" v="162141" />
	</node>
	<node id="-36015" lat="60.0975194414" lon="10.8629694494">
		<tag k="name" v="Bliksrudhagen" />
		<tag k="place" v="farm" />
		<tag k="ssr:stedsnr" v="162118" />
	</node>
	<node id="-36014" lat="60.1070083338" lon="10.7943305473">
		<tag k="name" v="Svenskemyra" />
		<tag k="natural" v="wetland" />
		<tag k="ssr:stedsnr" v="162114" />
	</node>
	<node id="-36013" lat="60.091102774" lon="10.8867222138">
		<tag k="name" v="Søndre Myrer" />
		<tag k="place" v="farm" />
		<tag k="ssr:stedsnr" v="162066" />
	</node>
	<node id="-36012" lat="59.9892805561" lon="10.8765111088">
		<tag k="name" v="Setertjern" />
		<tag k="natural" v="water" />
		<tag k="ssr:stedsnr" v="160828" />
	</node>
	<node id="-36011" lat="59.9859166676" lon="10.8831499976">
		<tag k="name" v="Romsmåsan" />
		<tag k="natural" v="wetland" />
		<tag k="ssr:stedsnr" v="160825" />
	</node>
	<node id="-36010" lat="60.0087611148" lon="10.889061104">
		<tag k="historic" v="shieling" />
		<tag k="name" v="Rudsetra" />
		<tag k="place" v="locality" />
		<tag k="ssr:stedsnr" v="160797" />
	</node>
	<node id="-36009" lat="60.0447249959" lon="10.8764249957">
		<tag k="name" v="Ørfiskebekken" />
		<tag k="ssr:stedsnr" v="160653" />
		<tag k="waterway" v="stream" />
	</node>
	<node id="-36008" lat="60.0471305535" lon="10.906069448">
		<tag k="name" v="Skredderud" />
		<tag k="place" v="locality" />
		<tag k="ssr:stedsnr" v="160283" />
	</node>
	<node id="-36007" lat="59.9951861153" lon="10.9031694367">
		<tag k="name" v="Skyttamyra" />
		<tag k="natural" v="wetland" />
		<tag k="ssr:stedsnr" v="160242" />
	</node>
	<node id="-36006" lat="59.9926777734" lon="10.9334861122">
		<tag k="name" v="Skysetbråtan" />
		<tag k="place" v="locality" />
		<tag k="ssr:stedsnr" v="160239" />
	</node>
	<node id="-36005" lat="60.1272055556" lon="10.7985611098">
		<tag k="name" v="Nøklebybråten" />
		<tag k="place" v="farm" />
		<tag k="ssr:stedsnr" v="160018" />
	</node>
	<node id="-36004" lat="60.0084111087" lon="10.9167611088">
		<tag k="name" v="Slattum" />
		<tag k="place" v="village" />
		<tag k="ssr:stedsnr" v="145114" />
	</node>
	<node id="-36003" lat="60.1452111083" lon="10.8681361021">
		<tag k="name" v="Setertjernet" />
		<tag k="natural" v="water" />
		<tag k="ssr:stedsnr" v="127768" />
	</node>
	<node id="-36002" lat="60.1663749957" lon="10.7810583334">
		<tag k="alt_name" v="Øvre Kolltjerna" />
		<tag k="name" v="Øvre Kolltjern" />
		<tag k="natural" v="water" />
		<tag k="ssr:stedsnr" v="127749" />
	</node>
	<node id="-36001" lat="60.1755361113" lon="10.8486722292">
		<tag k="fixme" v="consider natural=peak for the most distinct mountains in the district" />
		<tag k="name" v="Hakkimhøgda" />
		<tag k="natural" v="hill" />
		<tag k="place" v="locality" />
		<tag k="ssr:stedsnr" v="127732" />
	</node>
	<node id="-36000" lat="60.1064611087" lon="10.7581222162">
		<tag k="name" v="Langvann" />
		<tag k="natural" v="water" />
		<tag k="ssr:stedsnr" v="127627" />
		<tag k="water" v="lake" />
	</node>
	<node id="-35999" lat="60.0198055591" lon="10.8292194529">
		<tag k="name" v="Nordre Langvann" />
		<tag k="natural" v="water" />
		<tag k="ssr:stedsnr" v="127432" />
		<tag k="water" v="lake" />
	</node>
	<node id="-35998" lat="60.1355972265" lon="10.8355916718">
		<tag k="name" v="Åsbekken" />
		<tag k="ssr:stedsnr" v="126731" />
		<tag k="waterway" v="stream" />
	</node>
	<node id="-35997" lat="60.1810194412" lon="10.8301916598">
		<tag k="name" v="Svartvann" />
		<tag k="natural" v="water" />
		<tag k="ssr:stedsnr" v="126779" />
	</node>
	<node id="-35996" lat="60.1179611081" lon="10.8000027782">
		<tag k="alt_name" v="Bukkemyra" />
		<tag k="name" v="Bukkemyr" />
		<tag k="natural" v="wetland" />
		<tag k="ssr:stedsnr" v="126669" />
	</node>
	<node id="-35995" lat="60.1245750006" lon="10.8419250044">
		<tag k="name" v="Bjørnholt" />
		<tag k="place" v="farm" />
		<tag k="ssr:stedsnr" v="126666" />
	</node>
	<node id="-35994" lat="60.0755972221" lon="10.8849722188">
		<tag k="alt_name" v="Strøm, nordre" />
		<tag k="name" v="Nord-Strøm" />
		<tag k="place" v="farm" />
		<tag k="ssr:stedsnr" v="126546" />
	</node>
	<node id="-35993" lat="60.0735194441" lon="10.8869555592">
		<tag k="alt_name" v="Strøm, s" />
		<tag k="name" v="Sø-Strøm" />
		<tag k="place" v="farm" />
		<tag k="ssr:stedsnr" v="126547" />
	</node>
	<node id="-35992" lat="60.0887250034" lon="10.7955083269">
		<tag k="name" v="Nordre Karlshaug" />
		<tag k="natural" v="hill" />
		<tag k="place" v="locality" />
		<tag k="ssr:stedsnr" v="126518" />
	</node>
	<node id="-35991" lat="60.0900000018" lon="10.7882583381">
		<tag k="name" v="Blekketjern" />
		<tag k="natural" v="water" />
		<tag k="ssr:stedsnr" v="126515" />
	</node>
	<node id="-35990" lat="60.1329055541" lon="10.7980638897">
		<tag k="name" v="Enga" />
		<tag k="place" v="farm" />
		<tag k="ssr:stedsnr" v="126625" />
	</node>
	<node id="-35989" lat="60.1354916688" lon="10.8202500039">
		<tag k="fixme" v="consider place=hamlet" />
		<tag k="name" v="Mork" />
		<tag k="place" v="farm" />
		<tag k="ssr:stedsnr" v="126613" />
	</node>
	<node id="-35988" lat="60.0902000023" lon="10.8097944404">
		<tag k="name" v="Blendsølvputten" />
		<tag k="natural" v="water" />
		<tag k="ssr:stedsnr" v="126599" />
	</node>
	<node id="-35987" lat="60.0364527804" lon="10.9395250036">
		<tag k="name" v="Ovasshøgda" />
		<tag k="natural" v="hill" />
		<tag k="place" v="locality" />
		<tag k="ssr:stedsnr" v="126434" />
	</node>
	<node id="-35986" lat="60.0263861116" lon="10.8328805574">
		<tag k="alt_name" v="Østre Tørkelstuhaugen" />
		<tag k="name" v="Østre Torkilstuhøgda" />
		<tag k="natural" v="hill" />
		<tag k="place" v="locality" />
		<tag k="ssr:stedsnr" v="126426" />
	</node>
	<node id="-35985" lat="60.05461389" lon="10.9343055545">
		<tag k="name" v="Djupdalen" />
		<tag k="natural" v="valley" />
		<tag k="place" v="locality" />
		<tag k="ssr:stedsnr" v="126412" />
	</node>
	<node id="-35984" lat="60.0456833377" lon="10.8696666665">
		<tag k="name" v="Mostua" />
		<tag k="place" v="farm" />
		<tag k="ssr:stedsnr" v="126465" />
	</node>
	<node id="-35983" lat="59.9928480333" lon="10.8702406959">
		<tag k="name" v="Aurevann" />
		<tag k="natural" v="water" />
		<tag k="ssr:stedsnr" v="125636" />
		<tag k="water" v="lake" />
	</node>
	<node id="-35982" lat="59.9970083323" lon="10.8882583405">
		<tag k="name" v="Bleiktjern" />
		<tag k="natural" v="water" />
		<tag k="ssr:stedsnr" v="125631" />
	</node>
	<node id="-35981" lat="59.9986722257" lon="10.9190944501">
		<tag k="name" v="Hagan" />
		<tag k="place" v="village" />
		<tag k="ssr:stedsnr" v="125628" />
	</node>
	<node id="-35980" lat="59.989061109" lon="10.9768916639">
		<tag k="name" v="Åros" />
		<tag k="place" v="farm" />
		<tag k="ssr:stedsnr" v="125624" />
	</node>
	<node id="-35979" lat="60.0176333314" lon="10.9111166666">
		<tag k="name" v="Haugli" />
		<tag k="place" v="locality" />
		<tag k="ssr:stedsnr" v="109544" />
	</node>
	<node id="-35978" lat="60.0125333325" lon="10.911627782">
		<tag k="name" v="Sletta" />
		<tag k="place" v="locality" />
		<tag k="ssr:stedsnr" v="109543" />
	</node>
	<node id="-35977" lat="60.1107361132" lon="10.8468972264">
		<tag k="bridge" v="yes" />
		<tag k="layer" v="1" />
		<tag k="name" v="Løvstad" />
		<tag k="ssr:stedsnr" v="106800" />
	</node>
	<node id="-35976" lat="59.9853055541" lon="10.9522027759">
		<tag k="bridge" v="yes" />
		<tag k="layer" v="1" />
		<tag k="name" v="Olavsgård" />
		<tag k="ssr:stedsnr" v="106798" />
	</node>
	<node id="-35975" lat="60.1507722258" lon="10.7407805569">
		<tag k="name" v="Nerengberget" />
		<tag k="place" v="locality" />
		<tag k="ssr:stedsnr" v="102806" />
	</node>
	<node id="-35974" lat="60.0062138899" lon="10.9493444521">
		<tag k="alt_name" v="Dal søndre" />
		<tag k="name" v="Søndre Dal" />
		<tag k="place" v="farm" />
		<tag k="ssr:stedsnr" v="102619" />
	</node>
	<node id="-35973" lat="59.9992083368" lon="10.9872722151">
		<tag k="name" v="Vesle Ramstad" />
		<tag k="place" v="farm" />
		<tag k="ssr:stedsnr" v="102409" />
	</node>
	<node id="-35972" lat="59.9980681728" lon="10.9221190294">
		<tag k="amenity" v="school" />
		<tag k="name" v="Ulverud skole" />
		<tag k="ssr:stedsnr" v="102393" />
	</node>
	<node id="-35970" lat="60.0645555514" lon="10.8970999945">
		<tag k="name" v="Kasbekken" />
		<tag k="ssr:stedsnr" v="102362" />
		<tag k="waterway" v="stream" />
	</node>
	<node id="-35969" lat="60.0528111083" lon="10.8937694504">
		<tag k="name" v="Brennmyra" />
		<tag k="place" v="locality" />
		<tag k="ssr:stedsnr" v="102353" />
	</node>
	<node id="-35968" lat="60.0635066154" lon="10.890567086">
		<tag k="name" v="Øvre Nordby" />
		<tag k="place" v="farm" />
		<tag k="ssr:stedsnr" v="102350" />
	</node>
	<node id="-35967" lat="60.1262638928" lon="10.7012499966">
		<tag k="name" v="Måsjøhytta" />
		<tag k="place" v="isolated_dwelling" />
		<tag k="ssr:stedsnr" v="102174" />
	</node>
	<node id="-35966" lat="60.086883331" lon="10.9196555547">
		<tag k="name" v="Småvanna" />
		<tag k="natural" v="water" />
		<tag k="ssr:stedsnr" v="102135" />
		<tag k="water" v="lake" />
	</node>
	<node id="-35965" lat="60.0895666665" lon="10.8816361183">
		<tag k="name" v="Hynne" />
		<tag k="place" v="farm" />
		<tag k="ssr:stedsnr" v="102126" />
	</node>
	<node id="-35964" lat="60.074463891" lon="10.90085277">
		<tag k="name" v="Sengen" />
		<tag k="place" v="locality" />
		<tag k="ssr:stedsnr" v="102121" />
	</node>
	<node id="-35963" lat="60.0229361107" lon="10.8738972226">
		<tag k="name" v="Brenna" />
		<tag k="place" v="farm" />
		<tag k="ssr:stedsnr" v="100846" />
	</node>
	<node id="-35962" lat="59.9962694451" lon="10.9422305544">
		<tag k="name" v="Stranda" />
		<tag k="natural" v="beach" />
		<tag k="ssr:stedsnr" v="100253" />
	</node>
	<node id="-35961" lat="60.1169694454" lon="10.8212361154">
		<tag k="name" v="Bomstua" />
		<tag k="place" v="locality" />
		<tag k="ssr:stedsnr" v="100011" />
	</node>
	<node id="-35960" lat="60.0184972246" lon="10.8419416662">
		<tag k="name" v="Staurputtene" />
		<tag k="natural" v="water" />
		<tag k="ssr:stedsnr" v="99889" />
	</node>
	<node id="-35959" lat="60.1084527759" lon="10.9057972179">
		<tag k="fixme" v="consider natural=peak for the most distinct mountains in the district" />
		<tag k="name" v="Kirkebyhøgda" />
		<tag k="natural" v="hill" />
		<tag k="place" v="locality" />
		<tag k="ssr:stedsnr" v="87454" />
	</node>
	<node id="-35958" lat="60.1289222202" lon="10.8492749911">
		<tag k="name" v="Søndre Klopptjern" />
		<tag k="natural" v="water" />
		<tag k="ssr:stedsnr" v="87327" />
	</node>
	<node id="-35957" lat="60.0740805548" lon="10.9038111036">
		<tag k="name" v="Nytthus" />
		<tag k="place" v="isolated_dwelling" />
		<tag k="ssr:stedsnr" v="87286" />
	</node>
	<node id="-35956" lat="60.1144472219" lon="10.8599944395">
		<tag k="alt_name" v="Grønvoll" />
		<tag k="name" v="Tøyen" />
		<tag k="place" v="quarter" />
		<tag k="ssr:stedsnr" v="85873" />
	</node>
	<node id="-35954" lat="60.1847671876" lon="10.8466866219">
		<tag k="alt_name" v="Elsjøane, store" />
		<tag k="name" v="Store Elsjø" />
		<tag k="natural" v="water" />
		<tag k="ssr:stedsnr" v="66784" />
		<tag k="water" v="lake" />
	</node>
	<node id="-35953" lat="60.1553277773" lon="10.8553555582">
		<tag k="alt_name" v="Åbortjern" />
		<tag k="name" v="Åbortjernet" />
		<tag k="natural" v="water" />
		<tag k="ssr:stedsnr" v="66715" />
	</node>
	<node id="-35952" lat="60.1539444481" lon="10.8900888929">
		<tag k="name" v="Storodden" />
		<tag k="natural" v="cape" />
		<tag k="ssr:stedsnr" v="66713" />
	</node>
	<node id="-35951" lat="60.1789027739" lon="10.8373916737">
		<tag k="alt_name" v="Svartevannshøgda" />
		<tag k="name" v="Svartvasshøgda" />
		<tag k="natural" v="hill" />
		<tag k="place" v="locality" />
		<tag k="ssr:stedsnr" v="66691" />
	</node>
	<node id="-35950" lat="60.1698638896" lon="10.8260750087">
		<tag k="name" v="Lauvtangen" />
		<tag k="natural" v="water" />
		<tag k="ssr:stedsnr" v="66690" />
	</node>
	<node id="-35949" lat="60.1211194481" lon="10.8232305584">
		<tag k="alt_name" v="Hakadal verk" />
		<tag k="name" v="Hakadals verk" />
		<tag k="place" v="hamlet" />
		<tag k="ssr:stedsnr" v="66669" />
	</node>
	<node id="-35948" lat="60.1262666632" lon="10.7375777711">
		<tag k="name" v="Nordvannet" />
		<tag k="natural" v="water" />
		<tag k="ssr:stedsnr" v="66631" />
		<tag k="water" v="lake" />
	</node>
	<node id="-35947" lat="60.14158333" lon="10.8144583381">
		<tag k="name" v="Myra" />
		<tag k="place" v="farm" />
		<tag k="ssr:stedsnr" v="66608" />
	</node>
	<node id="-35946" lat="60.1379388855" lon="10.8428166616">
		<tag k="fixme" v="consider natural=peak for the most distinct mountains in the district" />
		<tag k="name" v="Åskastet" />
		<tag k="natural" v="hill" />
		<tag k="place" v="locality" />
		<tag k="ssr:stedsnr" v="66603" />
	</node>
	<node id="-35945" lat="60.1133083362" lon="10.8604083293">
		<tag k="name" v="Tøyen" />
		<tag k="place" v="farm" />
		<tag k="ssr:stedsnr" v="66549" />
	</node>
	<node id="-35944" lat="60.1102666655" lon="10.8441666722">
		<tag k="name" v="Løvstad" />
		<tag k="place" v="farm" />
		<tag k="ssr:stedsnr" v="66550" />
	</node>
	<node id="-35943" lat="60.1154477725" lon="10.7607032311">
		<tag k="name" v="Elvannet" />
		<tag k="natural" v="water" />
		<tag k="ssr:stedsnr" v="66545" />
		<tag k="water" v="lake" />
	</node>
	<node id="-35942" lat="60.0681416639" lon="10.829844453">
		<tag k="fixme" v="consider natural=peak for the most distinct mountains in the district" />
		<tag k="name" v="Sameiekollen" />
		<tag k="natural" v="hill" />
		<tag k="place" v="locality" />
		<tag k="ssr:stedsnr" v="66536" />
	</node>
	<node id="-35941" lat="60.0667805568" lon="10.9052749995">
		<tag k="name" v="Øvre Rus" />
		<tag k="place" v="farm" />
		<tag k="ssr:stedsnr" v="66534" />
	</node>
	<node id="-35940" lat="60.0781916627" lon="10.7909777788">
		<tag k="fixme" v="consider natural=peak for the most distinct mountains in the district" />
		<tag k="name" v="Gruvåsen" />
		<tag k="natural" v="hill" />
		<tag k="place" v="locality" />
		<tag k="ssr:stedsnr" v="66507" />
	</node>
	<node id="-35939" lat="60.0816194481" lon="10.8404777698">
		<tag k="name" v="Fossestua" />
		<tag k="place" v="isolated_dwelling" />
		<tag k="ssr:stedsnr" v="66480" />
	</node>
	<node id="-35938" lat="60.0539083368" lon="10.8838555512">
		<tag k="name" v="Haugestad" />
		<tag k="place" v="farm" />
		<tag k="ssr:stedsnr" v="66444" />
	</node>
	<node id="-35937" lat="60.0159055566" lon="10.9668888929">
		<tag k="name" v="Lønsvoll" />
		<tag k="place" v="farm" />
		<tag k="ssr:stedsnr" v="66377" />
	</node>
	<node id="-35936" lat="60.0227222197" lon="10.9112111142">
		<tag k="name" v="Rud" />
		<tag k="place" v="farm" />
		<tag k="ssr:stedsnr" v="66375" />
	</node>
	<node id="-35935" lat="60.0102194415" lon="10.8503916725">
		<tag k="name" v="Kroktjern" />
		<tag k="natural" v="water" />
		<tag k="ssr:stedsnr" v="66355" />
	</node>
	<node id="-35934" lat="59.9928500018" lon="10.8909611145">
		<tag k="name" v="Lusevasan" />
		<tag k="natural" v="water" />
		<tag k="ssr:stedsnr" v="65601" />
	</node>
	<node id="-35933" lat="59.9989361073" lon="10.9519277797">
		<tag k="name" v="Søndre Holm" />
		<tag k="place" v="farm" />
		<tag k="ssr:stedsnr" v="65593" />
	</node>
	<node id="-35932" lat="60.0224277758" lon="10.9278833371">
		<tag k="alt_name" v="Glosli nedre" />
		<tag k="name" v="Nedre Glosli" />
		<tag k="place" v="farm" />
		<tag k="ssr:stedsnr" v="49665" />
	</node>
	<node id="-35931" lat="60.0189972264" lon="10.8979888847">
		<tag k="name" v="Sandbekken" />
		<tag k="place" v="locality" />
		<tag k="ssr:stedsnr" v="49657" />
	</node>
	<node id="-35930" lat="60.101547435" lon="10.8788191695">
		<tag k="name" v="Jonstua" />
		<tag k="place" v="farm" />
		<tag k="ssr:stedsnr" v="49646" />
	</node>
	<node id="-35929" lat="60.0150222185" lon="10.9325138922">
		<tag k="name" v="Ner-Sørli" />
		<tag k="place" v="locality" />
		<tag k="ssr:stedsnr" v="48556" />
	</node>
	<node id="-35928" lat="60.0201138923" lon="10.9077777779">
		<tag k="junction" v="yes" />
		<tag k="name" v="Rudstein" />
		<tag k="place" v="locality" />
		<tag k="ssr:stedsnr" v="48552" />
	</node>
	<node id="-35927" lat="60.0143611078" lon="10.9186055611">
		<tag k="name" v="Kjonelia" />
		<tag k="place" v="locality" />
		<tag k="ssr:stedsnr" v="48550" />
	</node>
	<node id="-35926" lat="60.0165944418" lon="10.9133166613">
		<tag k="alt_name" v="Hauger øvre" />
		<tag k="name" v="Øvre Hauger" />
		<tag k="place" v="farm" />
		<tag k="ssr:stedsnr" v="48548" />
	</node>
	<node id="-35925" lat="60.0102555561" lon="10.9567027694">
		<tag k="alt_name" v="Dal østre" />
		<tag k="name" v="Østre Dal" />
		<tag k="place" v="farm" />
		<tag k="ssr:stedsnr" v="41570" />
	</node>
	<node id="-35924" lat="59.9946749965" lon="10.9932055474">
		<tag k="name" v="Tveitabekken" />
		<tag k="ssr:stedsnr" v="41349" />
		<tag k="waterway" v="stream" />
	</node>
	<node id="-35923" lat="60.0532194472" lon="10.877769445">
		<tag k="amenity" v="school" />
		<tag k="name" v="Nittedal ungdomsskole" />
		<tag k="ssr:stedsnr" v="41345" />
	</node>
	<node id="-35922" lat="60.0677916661" lon="10.9100277695">
		<tag k="name" v="Gudbrandstua" />
		<tag k="place" v="isolated_dwelling" />
		<tag k="ssr:stedsnr" v="41311" />
	</node>
	<node id="-35921" lat="60.0652833311" lon="10.8941249936">
		<tag k="name" v="Nordbyhaugen" />
		<tag k="natural" v="hill" />
		<tag k="place" v="locality" />
		<tag k="ssr:stedsnr" v="41305" />
	</node>
	<node id="-35920" lat="60.0772388925" lon="10.8751444429">
		<tag k="name" v="Bikkjehølet" />
		<tag k="place" v="locality" />
		<tag k="ssr:stedsnr" v="41414" />
	</node>
	<node id="-35919" lat="60.0915937603" lon="10.8253105927">
		<tag k="name" v="Krølltoppmyra" />
		<tag k="natural" v="wetland" />
		<tag k="ssr:stedsnr" v="41289" />
	</node>
	<node id="-35918" lat="60.1330861126" lon="10.7907805562">
		<tag k="name" v="Kolonien" />
		<tag k="place" v="farm" />
		<tag k="ssr:stedsnr" v="41254" />
	</node>
	<node id="-35917" lat="60.0932749974" lon="10.858863881">
		<tag k="name" v="Brannfjellet" />
		<tag k="natural" v="ridge" />
		<tag k="place" v="locality" />
		<tag k="ssr:stedsnr" v="41133" />
	</node>
	<node id="-35916" lat="60.078702774" lon="10.841236103">
		<tag k="name" v="Lomtjernsmyrene" />
		<tag k="natural" v="wetland" />
		<tag k="ssr:stedsnr" v="41114" />
	</node>
	<node id="-35915" lat="60.1077083313" lon="10.8619805486">
		<tag k="name" v="Tøyenfossen" />
		<tag k="natural" v="waterfall" />
		<tag k="ssr:stedsnr" v="41087" />
	</node>
	<node id="-35914" lat="60.1136638889" lon="10.8439611191">
		<tag k="name" v="Trebyen" />
		<tag k="place" v="locality" />
		<tag k="ssr:stedsnr" v="41158" />
	</node>
	<node id="-35913" lat="59.9988111069" lon="10.8732138961">
		<tag k="name" v="Nordre Aurevannsputten" />
		<tag k="natural" v="water" />
		<tag k="ssr:stedsnr" v="39827" />
	</node>
	<node id="-35912" lat="60.0142027773" lon="10.8458833415">
		<tag k="name" v="Tørrplanputten" />
		<tag k="natural" v="water" />
		<tag k="ssr:stedsnr" v="39796" />
	</node>
	<node id="-35911" lat="60.0055194427" lon="10.8561611076">
		<tag k="name" v="Langvassbekken" />
		<tag k="ssr:stedsnr" v="39783" />
		<tag k="waterway" v="stream" />
	</node>
	<node id="-35910" lat="60.0307666649" lon="10.9139749989">
		<tag k="name" v="Røa" />
		<tag k="place" v="isolated_dwelling" />
		<tag k="ssr:stedsnr" v="39597" />
	</node>
	<node id="-35909" lat="60.0455111086" lon="10.904305564">
		<tag k="alt_name" v="Holter øvre" />
		<tag k="name" v="Øvre Holter" />
		<tag k="place" v="farm" />
		<tag k="ssr:stedsnr" v="39275" />
	</node>
	<node id="-35908" lat="59.9961416623" lon="10.9404833249">
		<tag k="name" v="Korperud" />
		<tag k="place" v="locality" />
		<tag k="ssr:stedsnr" v="39226" />
	</node>
	<node id="-35907" lat="60.0649768183" lon="10.9301801091">
		<tag k="name" v="Langmyra" />
		<tag k="natural" v="wetland" />
		<tag k="ssr:stedsnr" v="6588" />
	</node>
	<node id="-35906" lat="60.0187861141" lon="10.9031027854">
		<tag k="name" v="Solli" />
		<tag k="place" v="isolated_dwelling" />
		<tag k="ssr:stedsnr" v="6427" />
	</node>
	<node id="-35905" lat="60.1831777754" lon="10.8059638844">
		<tag k="name" v="Sølvtjernet" />
		<tag k="natural" v="water" />
		<tag k="ssr:stedsnr" v="5779" />
	</node>
	<node id="-35904" lat="60.1617027804" lon="10.8396416641">
		<tag k="name" v="Sortungshøgda" />
		<tag k="natural" v="hill" />
		<tag k="place" v="locality" />
		<tag k="ssr:stedsnr" v="5704" />
	</node>
	<node id="-35903" lat="60.1556388868" lon="10.8922527773">
		<tag k="name" v="Storøyungen" />
		<tag k="natural" v="water" />
		<tag k="ssr:stedsnr" v="5700" />
		<tag k="water" v="lake" />
	</node>
	<node id="-35902" lat="60.1628305554" lon="10.8455583364">
		<tag k="name" v="Steinsortungen" />
		<tag k="natural" v="water" />
		<tag k="ssr:stedsnr" v="5681" />
	</node>
	<node id="-35901" lat="60.1368568597" lon="10.7907428374">
		<tag k="fixme" v="consider place=hamlet" />
		<tag k="name" v="Elnes" />
		<tag k="place" v="farm" />
		<tag k="ssr:stedsnr" v="5615" />
	</node>
	<node id="-35900" lat="60.0981898662" lon="10.7823631494">
		<tag k="loc_name" v="Flekkrosmyra" />
		<tag k="name" v="Flekkrasmyra" />
		<tag k="natural" v="wetland" />
		<tag k="ssr:stedsnr" v="5597" />
	</node>
	<node id="-35899" lat="60.0985083337" lon="10.7589166678">
		<tag k="name" v="Delebekken" />
		<tag k="ssr:stedsnr" v="5596" />
		<tag k="waterway" v="stream" />
	</node>
	<node id="-35898" lat="60.0963333353" lon="10.7977555636">
		<tag k="fixme" v="consider natural=peak for the most distinct mountains in the district" />
		<tag k="name" v="Eriksknatten" />
		<tag k="natural" v="hill" />
		<tag k="place" v="locality" />
		<tag k="ssr:stedsnr" v="5595" />
	</node>
	<node id="-35897" lat="60.0856315965" lon="10.8627328176">
		<tag k="name" v="Åneby stasjon" />
		<tag k="railway" v="station" />
		<tag k="ssr:stedsnr" v="5482" />
		<tag k="train" v="yes" />
	</node>
	<node id="-35896" lat="60.0581388904" lon="10.8990500021">
		<tag k="name" v="Østby" />
		<tag k="place" v="farm" />
		<tag k="ssr:stedsnr" v="5460" />
	</node>
	<node id="-35895" lat="60.038630554" lon="10.8593250055">
		<tag k="alt_name" v="Jenserud" />
		<tag k="name" v="Jensrud" />
		<tag k="place" v="isolated_dwelling" />
		<tag k="ssr:stedsnr" v="5420" />
	</node>
	<node id="-35894" lat="60.0408250046" lon="10.9126111063">
		<tag k="name" v="Nybrott" />
		<tag k="place" v="isolated_dwelling" />
		<tag k="ssr:stedsnr" v="5416" />
	</node>
	<node id="-35893" lat="60.0409638922" lon="10.8859249952">
		<tag k="name" v="Sandum" />
		<tag k="place" v="farm" />
		<tag k="ssr:stedsnr" v="5414" />
	</node>
	<node id="-35892" lat="60.0977129691" lon="10.8633729787">
		<tag k="fixme" v="consider place=hamlet" />
		<tag k="name" v="Bliksrud" />
		<tag k="place" v="farm" />
		<tag k="ssr:stedsnr" v="5399" />
	</node>
	<node id="-35891" lat="60.0317083313" lon="10.8748749946">
		<tag k="name" v="Granli" />
		<tag k="place" v="farm" />
		<tag k="ssr:stedsnr" v="5398" />
	</node>
	<node id="-35890" lat="60.0253444455" lon="10.9400583416">
		<tag k="alt_name" v="Tysillen" />
		<tag k="name" v="Tysilen" />
		<tag k="natural" v="hill" />
		<tag k="place" v="locality" />
		<tag k="ssr:stedsnr" v="5391" />
	</node>
	<node id="-35889" lat="60.0150972194" lon="10.8610194395">
		<tag k="name" v="Sørskogen" />
		<tag k="place" v="farm" />
		<tag k="ssr:stedsnr" v="5352" />
	</node>
	<node id="-35888" lat="60.0103305565" lon="10.8437055576">
		<tag k="fixme" v="consider natural=peak for the most distinct mountains in the district" />
		<tag k="name" v="Holåsen" />
		<tag k="natural" v="hill" />
		<tag k="place" v="locality" />
		<tag k="ssr:stedsnr" v="5353" />
	</node>
	<node id="-35887" lat="60.0100083364" lon="10.8617000003">
		<tag k="alt_name" v="Kjulstjern" />
		<tag k="name" v="Kjulstjernet" />
		<tag k="natural" v="water" />
		<tag k="ssr:stedsnr" v="5351" />
	</node>
	<node id="-35886" lat="60.008244445" lon="10.9263916605">
		<tag k="alt_name" v="Engen" />
		<tag k="name" v="Enga" />
		<tag k="place" v="farm" />
		<tag k="ssr:stedsnr" v="5345" />
	</node>
	<node id="-35885" lat="60.006977777" lon="10.933225006">
		<tag k="alt_name" v="Dalstua" />
		<tag k="name" v="Dalsbråtastua" />
		<tag k="place" v="farm" />
		<tag k="ssr:stedsnr" v="5339" />
	</node>
	<node id="-35884" lat="60.0037166669" lon="10.9295527813">
		<tag k="name" v="Ås" />
		<tag k="place" v="isolated_dwelling" />
		<tag k="ssr:stedsnr" v="5338" />
	</node>
	<node id="-35883" lat="60.1389500024" lon="10.7144166653">
		<tag k="alt_name" v="Høgbråten" />
		<tag k="fixme" v="consider natural=peak for the most distinct mountains in the district" />
		<tag k="name" v="Høgbråtan" />
		<tag k="natural" v="hill" />
		<tag k="place" v="locality" />
		<tag k="ssr:stedsnr" v="5096" />
	</node>
	<node id="-35882" lat="60.1237146657" lon="10.704496806">
		<tag k="alt_name" v="Måsjøen, nordre" />
		<tag k="name" v="Nordre Måsjøen" />
		<tag k="natural" v="water" />
		<tag k="ssr:stedsnr" v="5071" />
		<tag k="water" v="lake" />
	</node>
	<node id="-35881" lat="59.9978888905" lon="10.8627805535">
		<tag k="amenity" v="cafe" />
		<tag k="fixme" v="multiple name tags, choose one and add the other to alt_name" />
		<tag k="name" v="Lilloseter Sportsstue;Lilloseter" />
		<tag k="old_name" v="Lillosæter" />
		<tag k="ssr:stedsnr" v="4620" />
	</node>
	<node id="-35880" lat="59.990361108" lon="10.9469944475">
		<tag k="name" v="Nygård" />
		<tag k="place" v="farm" />
		<tag k="ssr:stedsnr" v="4617" />
	</node>
	<node id="-35879" lat="59.9915305581" lon="10.952961118">
		<tag k="alt_name" v="Øgarden" />
		<tag k="name" v="Øgården" />
		<tag k="place" v="farm" />
		<tag k="ssr:stedsnr" v="4614" />
	</node>
	<node id="-35878" lat="59.9907444417" lon="10.9881638812">
		<tag k="name" v="Ramstad" />
		<tag k="place" v="farm" />
		<tag k="ssr:stedsnr" v="4607" />
	</node>
	<node id="-35873" lat="60.1506965545" lon="10.8698396392">
		<tag k="fixme" v="consider boundary=protected_area and relevant protect_class if not nature reserve" />
		<tag k="leisure" v="nature_reserve" />
		<tag k="name" v="Århanemyra naturreservat" />
		<tag k="ssr:stedsnr" v="991087" />
	</node>
	<node id="-35872" lat="60.0435297861" lon="10.8798550338">
		<tag k="amenity" v="place_of_worship" />
		<tag k="denomination" v="lutheran" />
		<tag k="name" v="Rotnes kirke" />
		<tag k="religion" v="christian" />
		<tag k="ssr:stedsnr" v="990998" />
	</node>
	<node id="-35871" lat="60.1347222237" lon="10.5716611029">
		<tag k="name" v="Nordmarka" />
		<tag k="natural" v="wood" />
		<tag k="ssr:stedsnr" v="874528" />
	</node>
	<node id="-35870" lat="60.036804039" lon="10.8144180267">
		<tag k="name" v="Søndre Movann" />
		<tag k="natural" v="water" />
		<tag k="ssr:stedsnr" v="66408" />
		<tag k="water" v="lake" />
	</node>
	<node id="-35869" lat="59.9970979548" lon="10.841750424">
		<tag k="name" v="Griseputten" />
		<tag k="natural" v="water" />
		<tag k="ssr:stedsnr" v="489647" />
	</node>
	<node id="-35868" lat="60.1962732839" lon="10.784203618">
		<tag k="fixme" v="consider boundary=protected_area and relevant protect_class if not nature reserve" />
		<tag k="leisure" v="nature_reserve" />
		<tag k="name" v="Pipra og Storrsjøhøgda naturreservat" />
		<tag k="ssr:stedsnr" v="989152" />
	</node>
	<node id="-35867" lat="60.0427989809" lon="10.9531234654">
		<tag k="fixme" v="consider boundary=protected_area and relevant protect_class if not nature reserve" />
		<tag k="leisure" v="nature_reserve" />
		<tag k="name" v="Prekestolen og Ryggevanna naturreservat" />
		<tag k="ssr:stedsnr" v="545993" />
	</node>
	<node id="-35864" lat="60.092292498" lon="10.8240862943">
		<tag k="name" v="Krølltopptjernet" />
		<tag k="natural" v="water" />
		<tag k="ssr:stedsnr" v="981711" />
	</node>
	<node id="-35862" lat="60.0151527796" lon="10.919747226">
		<tag k="name" v="Kjonelia" />
		<tag k="place" v="locality" />
		<tag k="ssr:stedsnr" v="898588" />
	</node>
	<node id="-35860" lat="60.0349138857" lon="10.8848444465">
		<tag k="name" v="Ulvestua" />
		<tag k="place" v="isolated_dwelling" />
		<tag k="ssr:stedsnr" v="891727" />
	</node>
	<node id="-35859" lat="60.0120750002" lon="10.9679166714">
		<tag k="name" v="Nordre Løken" />
		<tag k="place" v="farm" />
		<tag k="ssr:stedsnr" v="891578" />
	</node>
	<node id="-35858" lat="60.0001361079" lon="10.9517111103">
		<tag k="name" v="Smieflotten" />
		<tag k="place" v="locality" />
		<tag k="ssr:stedsnr" v="891394" />
	</node>
	<node id="-35857" lat="59.993033332" lon="10.952691659">
		<tag k="name" v="Torud" />
		<tag k="place" v="locality" />
		<tag k="ssr:stedsnr" v="891388" />
	</node>
	<node id="-35856" lat="60.0029111142" lon="10.9468722238">
		<tag k="amenity" v="school" />
		<tag k="name" v="Holm skole" />
		<tag k="ssr:stedsnr" v="891378" />
	</node>
	<node id="-35855" lat="59.9909694452" lon="10.9065472153">
		<tag k="amenity" v="nursing_home" />
		<tag k="name" v="Skytta bo- og servicesenter" />
		<tag k="ssr:stedsnr" v="891370" />
	</node>
	<node id="-35854" lat="60.0550500003" lon="10.8735444407">
		<tag k="amenity" v="school" />
		<tag k="name" v="Rotnes" />
		<tag k="ssr:stedsnr" v="891351" />
	</node>
	<node id="-35853" lat="60.0496916638" lon="10.8990500072">
		<tag k="name" v="Løkka" />
		<tag k="place" v="locality" />
		<tag k="ssr:stedsnr" v="891334" />
	</node>
	<node id="-35852" lat="60.100644447" lon="10.8605555614">
		<tag k="name" v="Fosshagan" />
		<tag k="place" v="farm" />
		<tag k="ssr:stedsnr" v="891087" />
	</node>
	<node id="-35851" lat="60.0119083326" lon="10.8730222198">
		<tag k="name" v="Skøyenmåsan" />
		<tag k="natural" v="wetland" />
		<tag k="ssr:stedsnr" v="889825" />
	</node>
	<node id="-35850" lat="60.0372356685" lon="10.9010172266">
		<tag k="name" v="Nedre Gaustad" />
		<tag k="place" v="farm" />
		<tag k="ssr:stedsnr" v="889325" />
	</node>
	<node id="-35849" lat="59.9857916654" lon="10.9649222231">
		<tag k="landuse" v="meadow" />
		<tag k="name" v="Holumenga" />
		<tag k="ssr:stedsnr" v="889269" />
	</node>
	<node id="-35848" lat="59.9858555533" lon="10.9672916613">
		<tag k="name" v="Bølerstuflaen" />
		<tag k="place" v="locality" />
		<tag k="ssr:stedsnr" v="889268" />
	</node>
	<node id="-35847" lat="60.0250591762" lon="10.8401640118">
		<tag k="historic" v="shieling" />
		<tag k="name" v="Sinober" />
		<tag k="old_name" v="Fautvangen" />
		<tag k="place" v="locality" />
		<tag k="ssr:stedsnr" v="889179" />
	</node>
	<node id="-35846" lat="60.1205861078" lon="10.8129944523">
		<tag k="name" v="Smedbakken" />
		<tag k="place" v="isolated_dwelling" />
		<tag k="ssr:stedsnr" v="889019" />
	</node>
	<node id="-35845" lat="60.1100361137" lon="10.8472861067">
		<tag k="amenity" v="community_centre" />
		<tag k="name" v="Folkets hus" />
		<tag k="ssr:stedsnr" v="889009" />
	</node>
	<node id="-35844" lat="60.1111555541" lon="10.8499944425">
		<tag k="amenity" v="school" />
		<tag k="name" v="Hakadal ungdomsskole" />
		<tag k="ssr:stedsnr" v="889006" />
	</node>
	<node id="-35843" lat="60.0223305588" lon="10.851683331">
		<tag k="name" v="Nordskogmyra" />
		<tag k="natural" v="wetland" />
		<tag k="ssr:stedsnr" v="888863" />
	</node>
	<node id="-35842" lat="59.9795638907" lon="10.9322722213">
		<tag k="name" v="Ospelia" />
		<tag k="place" v="quarter" />
		<tag k="ssr:stedsnr" v="886257" />
	</node>
	<node id="-35841" lat="60.0253583313" lon="10.9220611045">
		<tag k="name" v="Ovannsbekken" />
		<tag k="ssr:stedsnr" v="473612" />
		<tag k="waterway" v="stream" />
	</node>
	<node id="-35840" lat="60.009011114" lon="10.9171666611">
		<tag k="name" v="Høgda" />
		<tag k="place" v="locality" />
		<tag k="ssr:stedsnr" v="473577" />
	</node>
	<node id="-35839" lat="60.0138361093" lon="10.9411277766">
		<tag k="alt_name" v="Dal østre" />
		<tag k="name" v="Østre Dal" />
		<tag k="place" v="farm" />
		<tag k="ssr:stedsnr" v="413612" />
	</node>
	<node id="-35838" lat="60.1346749991" lon="10.8073972287">
		<tag k="name" v="Slåttenhus" />
		<tag k="place" v="locality" />
		<tag k="ssr:stedsnr" v="405798" />
	</node>
	<node id="-35837" lat="59.9990638907" lon="10.966927772">
		<tag k="name" v="Omsibakken" />
		<tag k="place" v="locality" />
		<tag k="ssr:stedsnr" v="405366" />
	</node>
	<node id="-35836" lat="59.9998638865" lon="10.9778250075">
		<tag k="name" v="Storsletta" />
		<tag k="place" v="locality" />
		<tag k="ssr:stedsnr" v="405365" />
	</node>
	<node id="-35835" lat="60.0004583339" lon="10.9553888926">
		<tag k="name" v="Holmshagan" />
		<tag k="place" v="locality" />
		<tag k="ssr:stedsnr" v="405364" />
	</node>
	<node id="-35834" lat="59.9942944483" lon="10.972347228">
		<tag k="name" v="Åroshagen" />
		<tag k="place" v="farm" />
		<tag k="ssr:stedsnr" v="405354" />
	</node>
	<node id="-35833" lat="60.0580336517" lon="10.8864088968">
		<tag k="fixme" v="consider place=hamlet" />
		<tag k="name" v="Haug" />
		<tag k="place" v="farm" />
		<tag k="ssr:stedsnr" v="405315" />
	</node>
	<node id="-35832" lat="60.0635638926" lon="10.889963882">
		<tag k="name" v="Nedre Nordby" />
		<tag k="place" v="farm" />
		<tag k="ssr:stedsnr" v="405297" />
	</node>
	<node id="-35831" lat="60.1509166628" lon="10.7028472163">
		<tag k="name" v="Kongsskogmyra" />
		<tag k="natural" v="wetland" />
		<tag k="ssr:stedsnr" v="405288" />
	</node>
	<node id="-35830" lat="60.1146249957" lon="10.8342444374">
		<tag k="name" v="Burås" />
		<tag k="place" v="farm" />
		<tag k="ssr:stedsnr" v="405119" />
	</node>
	<node id="-35829" lat="60.0859194424" lon="10.8874861159">
		<tag k="name" v="Bergsenga" />
		<tag k="place" v="farm" />
		<tag k="ssr:stedsnr" v="405099" />
	</node>
	<node id="-35828" lat="60.0046861147" lon="10.9114277788">
		<tag k="landuse" v="quarry" />
		<tag k="name" v="Bjønndalen bruk" />
		<tag k="ssr:stedsnr" v="403889" />
	</node>
	<node id="-35827" lat="60.00580238" lon="10.8371378872">
		<tag k="name" v="Granbergsputtene" />
		<tag k="natural" v="water" />
		<tag k="ssr:stedsnr" v="403818" />
	</node>
	<node id="-35826" lat="60.0329611112" lon="10.9088777826">
		<tag k="name" v="Gaustadløkka" />
		<tag k="place" v="farm" />
		<tag k="ssr:stedsnr" v="403339" />
	</node>
	<node id="-35825" lat="60.0339472266" lon="10.962952782">
		<tag k="name" v="Pettersmyra" />
		<tag k="natural" v="wetland" />
		<tag k="ssr:stedsnr" v="403338" />
	</node>
	<node id="-35824" lat="60.1223805568" lon="10.828808338">
		<tag k="name" v="Nes" />
		<tag k="place" v="farm" />
		<tag k="ssr:stedsnr" v="403024" />
	</node>
	<node id="-35823" lat="60.1061777738" lon="10.8520722246">
		<tag k="amenity" v="nursing_home" />
		<tag k="name" v="Døli pleie- og omsorgssenter" />
		<tag k="ssr:stedsnr" v="403006" />
	</node>
	<node id="-35822" lat="60.1392472212" lon="10.7912972142">
		<tag k="name" v="Hakadalen" />
		<tag k="natural" v="valley" />
		<tag k="place" v="locality" />
		<tag k="ssr:stedsnr" v="388557" />
	</node>
	<node id="-35821" lat="60.1507500005" lon="10.8474388806">
		<tag k="name" v="Guritjern" />
		<tag k="natural" v="water" />
		<tag k="ssr:stedsnr" v="369704" />
	</node>
	<node id="-35820" lat="60.1481694451" lon="10.7566694397">
		<tag k="alt_name" v="Kongsvangskog" />
		<tag k="name" v="Kongsvangsskog" />
		<tag k="place" v="farm" />
		<tag k="ssr:stedsnr" v="369705" />
	</node>
	<node id="-35819" lat="60.1643749974" lon="10.8133527835">
		<tag k="name" v="Buvassbekken" />
		<tag k="ssr:stedsnr" v="369663" />
		<tag k="waterway" v="stream" />
	</node>
	<node id="-35818" lat="60.1692944409" lon="10.8000833287">
		<tag k="name" v="Fiskeløysa" />
		<tag k="natural" v="water" />
		<tag k="ssr:stedsnr" v="369660" />
	</node>
	<node id="-35817" lat="60.1706055558" lon="10.8492611028">
		<tag k="name" v="Hakkim" />
		<tag k="old_name" v="Nakkim" />
		<tag k="place" v="farm" />
		<tag k="ssr:stedsnr" v="369654" />
	</node>
	<node id="-35816" lat="60.1209861113" lon="10.7530611051">
		<tag k="alt_name" v="Elviken" />
		<tag k="fixme" v="multiple name tags, choose one and add the other to alt_name" />
		<tag k="name" v="Elvika;Elvikløkka" />
		<tag k="place" v="farm" />
		<tag k="ssr:stedsnr" v="369633" />
	</node>
	<node id="-35815" lat="60.132186114" lon="10.8477166616">
		<tag k="alt_name" v="Kloppetjerna, nordre" />
		<tag k="name" v="Nordre Klopptjern" />
		<tag k="natural" v="water" />
		<tag k="ssr:stedsnr" v="369620" />
	</node>
	<node id="-35814" lat="60.1271166667" lon="10.7582694426">
		<tag k="name" v="Bakken" />
		<tag k="place" v="isolated_dwelling" />
		<tag k="ssr:stedsnr" v="369595" />
	</node>
	<node id="-35813" lat="60.137575004" lon="10.8746166652">
		<tag k="name" v="Steintjern" />
		<tag k="natural" v="water" />
		<tag k="ssr:stedsnr" v="369575" />
	</node>
	<node id="-35812" lat="60.0912749988" lon="10.8790527815">
		<tag k="name" v="Rulse" />
		<tag k="place" v="farm" />
		<tag k="ssr:stedsnr" v="369564" />
	</node>
	<node id="-35811" lat="60.0930833367" lon="10.802955555">
		<tag k="name" v="Daviddalsputten" />
		<tag k="natural" v="water" />
		<tag k="ssr:stedsnr" v="369558" />
	</node>
	<node id="-35810" lat="60.1060373221" lon="10.8749447203">
		<tag k="alt_name" v="Kirkeby" />
		<tag k="name" v="Glitre" />
		<tag k="place" v="farm" />
		<tag k="ssr:stedsnr" v="369539" />
	</node>
	<node id="-35809" lat="60.110261111" lon="10.8264083333">
		<tag k="name" v="Buråsmyra" />
		<tag k="natural" v="wetland" />
		<tag k="ssr:stedsnr" v="369515" />
	</node>
	<node id="-35808" lat="60.0657266203" lon="10.8907173475">
		<tag k="fixme" v="consider place=hamlet" />
		<tag k="name" v="Nordby" />
		<tag k="place" v="farm" />
		<tag k="ssr:stedsnr" v="369498" />
	</node>
	<node id="-35807" lat="60.0706388872" lon="10.8807361189">
		<tag k="name" v="Berger" />
		<tag k="place" v="farm" />
		<tag k="ssr:stedsnr" v="369487" />
	</node>
	<node id="-35806" lat="60.0752095006" lon="10.7817630257">
		<tag k="name" v="Store Svarttjern" />
		<tag k="natural" v="water" />
		<tag k="ssr:stedsnr" v="369475" />
	</node>
	<node id="-35805" lat="60.0457000003" lon="10.9044166677">
		<tag k="fixme" v="consider place=hamlet" />
		<tag k="name" v="Holter" />
		<tag k="place" v="farm" />
		<tag k="ssr:stedsnr" v="369409" />
	</node>
	<node id="-35804" lat="60.0416805552" lon="10.9083944476">
		<tag k="alt_name" v="Holter, s;Holter søndre;Holterstua" />
		<tag k="name" v="Søndre Holter" />
		<tag k="place" v="farm" />
		<tag k="ssr:stedsnr" v="369385" />
	</node>
	<node id="-35803" lat="60.0287222263" lon="10.837933331">
		<tag k="alt_name" v="Ormtjernkollen" />
		<tag k="fixme" v="consider natural=peak for the most distinct mountains in the district" />
		<tag k="name" v="Ormetjernskollen" />
		<tag k="natural" v="hill" />
		<tag k="place" v="locality" />
		<tag k="ssr:stedsnr" v="369373" />
	</node>
	<node id="-35802" lat="60.0303527759" lon="10.8786250047">
		<tag k="name" v="Østli" />
		<tag k="place" v="farm" />
		<tag k="ssr:stedsnr" v="369370" />
	</node>
	<node id="-35801" lat="60.0317138864" lon="10.9402194491">
		<tag k="name" v="Nordre Ovann" />
		<tag k="natural" v="water" />
		<tag k="ssr:stedsnr" v="369365" />
	</node>
	<node id="-35800" lat="60.0096388869" lon="10.8995833387">
		<tag k="alt_name" v="Høyfjellet" />
		<tag k="fixme" v="consider natural=peak for the most distinct mountains in the district" />
		<tag k="name" v="Høgfjellet" />
		<tag k="natural" v="hill" />
		<tag k="place" v="locality" />
		<tag k="ssr:stedsnr" v="369335" />
	</node>
	<node id="-35799" lat="60.0053499978" lon="10.9180805631">
		<tag k="name" v="Markerud" />
		<tag k="place" v="farm" />
		<tag k="ssr:stedsnr" v="369322" />
	</node>
	<node id="-35798" lat="59.9828972218" lon="10.9261499986">
		<tag k="name" v="Putten" />
		<tag k="place" v="isolated_dwelling" />
		<tag k="ssr:stedsnr" v="368623" />
	</node>
	<node id="-35797" lat="59.9870805532" lon="10.9330000009">
		<tag k="name" v="Gjelleråsen" />
		<tag k="place" v="village" />
		<tag k="ssr:stedsnr" v="368621" />
	</node>
	<node id="-35796" lat="60.1189361113" lon="10.8830249948">
		<tag k="fixme" v="consider boundary=protected_area and relevant protect_class if not nature reserve" />
		<tag k="leisure" v="nature_reserve" />
		<tag k="name" v="Glitrelia naturreservat" />
		<tag k="ssr:stedsnr" v="363995" />
	</node>
	<node id="-35795" lat="60.0229611078" lon="10.9362777699">
		<tag k="name" v="Kløverstua" />
		<tag k="place" v="locality" />
		<tag k="ssr:stedsnr" v="352604" />
	</node>
	<node id="-35794" lat="60.0109694445" lon="10.9165805523">
		<tag k="amenity" v="school" />
		<tag k="name" v="Slattum skole" />
		<tag k="ssr:stedsnr" v="352580" />
	</node>
	<node id="-35793" lat="60.0171499962" lon="10.9368722249">
		<tag k="name" v="Øvre Sørli" />
		<tag k="place" v="locality" />
		<tag k="ssr:stedsnr" v="351585" />
	</node>
	<node id="-35792" lat="60.103133332" lon="10.8644944512">
		<tag k="bridge" v="yes" />
		<tag k="layer" v="1" />
		<tag k="name" v="Fossen" />
		<tag k="ssr:stedsnr" v="349007" />
	</node>
	<node id="-35791" lat="59.9858305535" lon="10.928111112">
		<tag k="bridge" v="yes" />
		<tag k="layer" v="1" />
		<tag k="name" v="Gjelleråsen" />
		<tag k="ssr:stedsnr" v="349005" />
	</node>
	<node id="-35790" lat="60.1162527755" lon="10.8516472181">
		<tag k="amenity" v="nursing_home" />
		<tag k="name" v="MS-Senteret Hakadal" />
		<tag k="old_name" v="Multipelsklerosehjemmet;Multippel sklerose-hjemmet" />
		<tag k="ssr:stedsnr" v="344588" />
	</node>
	<node id="-35789" lat="59.9876972226" lon="10.9774388929">
		<tag k="name" v="Grana" />
		<tag k="natural" v="beach" />
		<tag k="ssr:stedsnr" v="344356" />
	</node>
	<node id="-35788" lat="60.0586666696" lon="10.8570416638">
		<tag k="name" v="Lille Vassøytjern" />
		<tag k="natural" v="water" />
		<tag k="ssr:stedsnr" v="344322" />
	</node>
	<node id="-35787" lat="60.0548055515" lon="10.8748055504">
		<tag k="name" v="Solli" />
		<tag k="place" v="farm" />
		<tag k="ssr:stedsnr" v="344317" />
	</node>
	<node id="-35786" lat="60.0558777755" lon="10.8841194424">
		<tag k="name" v="Møllerbakken" />
		<tag k="place" v="farm" />
		<tag k="ssr:stedsnr" v="344309" />
	</node>
	<node id="-35785" lat="60.0900861074" lon="10.7805000063">
		<tag k="name" v="Snaukollen" />
		<tag k="natural" v="hill" />
		<tag k="place" v="locality" />
		<tag k="ssr:stedsnr" v="344290" />
	</node>
	<node id="-35784" lat="60.073100004" lon="10.8209555545">
		<tag k="name" v="Svenskevika" />
		<tag k="natural" v="bay" />
		<tag k="ssr:stedsnr" v="344282" />
	</node>
	<node id="-35783" lat="60.1082611153" lon="10.7881916609">
		<tag k="name" v="Karidalshytta" />
		<tag k="place" v="locality" />
		<tag k="ssr:stedsnr" v="344109" />
	</node>
	<node id="-35782" lat="60.0785444482" lon="10.9377583422">
		<tag k="name" v="Askkollen" />
		<tag k="natural" v="hill" />
		<tag k="place" v="locality" />
		<tag k="ssr:stedsnr" v="344102" />
	</node>
	<node id="-35781" lat="60.0083611112" lon="10.884427773">
		<tag k="name" v="Skjærmåsan" />
		<tag k="natural" v="wetland" />
		<tag k="ssr:stedsnr" v="342786" />
	</node>
	<node id="-35780" lat="60.0474194405" lon="10.8814444519">
		<tag k="name" v="Dambo" />
		<tag k="place" v="farm" />
		<tag k="ssr:stedsnr" v="342635" />
	</node>
	<node id="-35779" lat="60.0297833302" lon="10.9143833417">
		<tag k="name" v="Høybråten" />
		<tag k="place" v="farm" />
		<tag k="ssr:stedsnr" v="342602" />
	</node>
	<node id="-35778" lat="60.0130914403" lon="10.867868884">
		<tag k="alt_name" v="Lillomarkkapellet;Lillokapellet" />
		<tag k="amenity" v="place_of_worship" />
		<tag k="denomination" v="lutheran" />
		<tag k="name" v="Lillomarkskapellet" />
		<tag k="religion" v="christian" />
		<tag k="ssr:stedsnr" v="126365" />
	</node>
	<node id="-35777" lat="59.9999361072" lon="10.9301250013">
		<tag k="name" v="Nedre Skyset" />
		<tag k="place" v="farm" />
		<tag k="ssr:stedsnr" v="126331" />
	</node>
	<node id="-35776" lat="60.1159305533" lon="10.8566305634">
		<tag k="name" v="Grønvoll" />
		<tag k="place" v="isolated_dwelling" />
		<tag k="ssr:stedsnr" v="309689" />
	</node>
	<node id="-35775" lat="60.1392083296" lon="10.7499111149">
		<tag k="fixme" v="consider natural=peak for the most distinct mountains in the district" />
		<tag k="name" v="Elneshøgda" />
		<tag k="natural" v="hill" />
		<tag k="place" v="locality" />
		<tag k="ssr:stedsnr" v="309651" />
	</node>
	<node id="-35774" lat="60.1024555575" lon="10.861588881">
		<tag k="name" v="Fossen" />
		<tag k="place" v="farm" />
		<tag k="ssr:stedsnr" v="309624" />
	</node>
	<node id="-35773" lat="60.1171666689" lon="10.7801749927">
		<tag k="name" v="Loppetjern" />
		<tag k="natural" v="water" />
		<tag k="ssr:stedsnr" v="309607" />
	</node>
	<node id="-35772" lat="60.1500499995" lon="10.7733249937">
		<tag k="name" v="Varpet" />
		<tag k="place" v="farm" />
		<tag k="ssr:stedsnr" v="309732" />
	</node>
	<node id="-35771" lat="60.0281805552" lon="10.8235583301">
		<tag k="alt_name" v="Vestre Tørkelstuhaugen" />
		<tag k="fixme" v="consider natural=peak for the most distinct mountains in the district" />
		<tag k="name" v="Vestre Torkilstuhøgda" />
		<tag k="natural" v="hill" />
		<tag k="place" v="locality" />
		<tag k="ssr:stedsnr" v="309469" />
	</node>
	<node id="-35770" lat="60.0311833313" lon="10.8906249961">
		<tag k="alt_name" v="Skøyen, s" />
		<tag k="name" v="Søndre Skøyen" />
		<tag k="place" v="farm" />
		<tag k="ssr:stedsnr" v="309461" />
	</node>
	<node id="-35769" lat="60.0247027822" lon="10.8500888954">
		<tag k="fixme" v="consider natural=peak for the most distinct mountains in the district" />
		<tag k="name" v="Røvarkula" />
		<tag k="natural" v="hill" />
		<tag k="place" v="locality" />
		<tag k="ssr:stedsnr" v="309429" />
	</node>
	<node id="-35768" lat="60.0658305528" lon="10.8615194354">
		<tag k="name" v="Linfåningen" />
		<tag k="natural" v="wetland" />
		<tag k="ssr:stedsnr" v="309596" />
	</node>
	<node id="-35767" lat="60.0711166642" lon="10.859841661">
		<tag k="name" v="Linfåningshøgda" />
		<tag k="natural" v="hill" />
		<tag k="place" v="locality" />
		<tag k="ssr:stedsnr" v="309584" />
	</node>
	<node id="-35766" lat="60.1200777816" lon="10.8042027806">
		<tag k="name" v="Torsbekken" />
		<tag k="ssr:stedsnr" v="308653" />
		<tag k="waterway" v="stream" />
	</node>
	<node id="-35765" lat="59.9874722201" lon="10.960091658">
		<tag k="name" v="Holum" />
		<tag k="place" v="farm" />
		<tag k="ssr:stedsnr" v="308562" />
	</node>
	<node id="-35764" lat="60.081233333" lon="10.8988499971">
		<tag k="name" v="Vinsrud" />
		<tag k="place" v="isolated_dwelling" />
		<tag k="ssr:stedsnr" v="308484" />
	</node>
	<node id="-35763" lat="60.0877388933" lon="10.9107499934">
		<tag k="alt_name" v="Ravndalskollen" />
		<tag k="name" v="Ramndalskollen" />
		<tag k="natural" v="hill" />
		<tag k="place" v="locality" />
		<tag k="ssr:stedsnr" v="308483" />
	</node>
	<node id="-35762" lat="60.0877611084" lon="10.8867111079">
		<tag k="alt_name" v="Myrerenga" />
		<tag k="name" v="Myrenga" />
		<tag k="place" v="farm" />
		<tag k="ssr:stedsnr" v="308482" />
	</node>
	<node id="-35761" lat="60.0896083329" lon="10.8120444381">
		<tag k="name" v="Østre Karlshaug" />
		<tag k="natural" v="hill" />
		<tag k="place" v="locality" />
		<tag k="ssr:stedsnr" v="308476" />
	</node>
	<node id="-35760" lat="60.0815250018" lon="10.8470888805">
		<tag k="name" v="Åbortjernet" />
		<tag k="natural" v="water" />
		<tag k="ssr:stedsnr" v="308469" />
	</node>
	<node id="-35759" lat="60.0443444404" lon="10.958644452">
		<tag k="alt_name" v="Jakobsmyr" />
		<tag k="name" v="Jakobsmyra" />
		<tag k="natural" v="wetland" />
		<tag k="ssr:stedsnr" v="308406" />
	</node>
	<node id="-35758" lat="60.1093444469" lon="10.7784083311">
		<tag k="name" v="Stormyra" />
		<tag k="natural" v="wetland" />
		<tag k="ssr:stedsnr" v="308379" />
	</node>
	<node id="-35757" lat="60.0138027753" lon="10.9228944492">
		<tag k="fixme" v="consider place=hamlet" />
		<tag k="name" v="Slattum" />
		<tag k="place" v="farm" />
		<tag k="ssr:stedsnr" v="308331" />
	</node>
	<node id="-35756" lat="60.003200152" lon="10.9437948877">
		<tag k="fixme" v="consider place=hamlet" />
		<tag k="name" v="Holm" />
		<tag k="place" v="farm" />
		<tag k="ssr:stedsnr" v="308295" />
	</node>
	<node id="-35755" lat="60.0111138919" lon="10.9270111202">
		<tag k="name" v="Brenninghaugen" />
		<tag k="place" v="quarter" />
		<tag k="ssr:stedsnr" v="292593" />
	</node>
	<node id="-35754" lat="60.015894445" lon="10.9323472307">
		<tag k="name" v="Nordli" />
		<tag k="place" v="locality" />
		<tag k="ssr:stedsnr" v="291618" />
	</node>
	<node id="-35753" lat="60.0181666654" lon="10.9329472172">
		<tag k="name" v="Andersbråtan" />
		<tag k="place" v="locality" />
		<tag k="ssr:stedsnr" v="291613" />
	</node>
	<node id="-35752" lat="60.0380555567" lon="10.8479499991">
		<tag k="name" v="Vintermyrberget" />
		<tag k="place" v="locality" />
		<tag k="ssr:stedsnr" v="284743" />
	</node>
	<node id="-35751" lat="60.0338499969" lon="10.8243777691">
		<tag k="name" v="Brønnsdalen" />
		<tag k="natural" v="valley" />
		<tag k="place" v="locality" />
		<tag k="ssr:stedsnr" v="284571" />
	</node>
	<node id="-35750" lat="59.9982611098" lon="10.9845805622">
		<tag k="name" v="Ramstad" />
		<tag k="place" v="farm" />
		<tag k="ssr:stedsnr" v="284352" />
	</node>
	<node id="-35749" lat="60.0590444427" lon="10.8880888948">
		<tag k="name" v="Massebakken" />
		<tag k="place" v="farm" />
		<tag k="ssr:stedsnr" v="284331" />
	</node>
	<node id="-35748" lat="60.0584500014" lon="10.8552694467">
		<tag k="name" v="Store Vassøytjern" />
		<tag k="natural" v="water" />
		<tag k="ssr:stedsnr" v="284322" />
	</node>
	<node id="-35747" lat="60.0655000017" lon="10.9319250062">
		<tag k="name" v="Mariholen" />
		<tag k="place" v="locality" />
		<tag k="ssr:stedsnr" v="284303" />
	</node>
	<node id="-35746" lat="60.1185250007" lon="10.8354694477">
		<tag k="name" v="Sagstua" />
		<tag k="place" v="isolated_dwelling" />
		<tag k="ssr:stedsnr" v="284163" />
	</node>
	<node id="-35745" lat="60.1216555556" lon="10.8428777865">
		<tag k="name" v="Hellerud" />
		<tag k="place" v="locality" />
		<tag k="ssr:stedsnr" v="284162" />
	</node>
	<node id="-35744" lat="60.1281722253" lon="10.8340611191">
		<tag k="name" v="Åsbekken" />
		<tag k="ssr:stedsnr" v="284160" />
		<tag k="waterway" v="stream" />
	</node>
	<node id="-35743" lat="60.0849416633" lon="10.9097444433">
		<tag k="name" v="Spenningsbyhaugen" />
		<tag k="natural" v="hill" />
		<tag k="place" v="locality" />
		<tag k="ssr:stedsnr" v="284135" />
	</node>
	<node id="-35742" lat="60.1017166667" lon="10.8836777865">
		<tag k="amenity" v="school" />
		<tag k="name" v="Kirkeby skole" />
		<tag k="ssr:stedsnr" v="284060" />
	</node>
	<node id="-35741" lat="60.0217666665" lon="10.8549000051">
		<tag k="name" v="Svenskedalen" />
		<tag k="natural" v="valley" />
		<tag k="place" v="locality" />
		<tag k="ssr:stedsnr" v="282860" />
	</node>
	<node id="-35740" lat="59.9964250007" lon="10.8710361125">
		<tag k="name" v="Søndre Aurevannsputten" />
		<tag k="natural" v="water" />
		<tag k="ssr:stedsnr" v="282826" />
	</node>
	<node id="-35739" lat="60.0268777762" lon="10.8965916663">
		<tag k="name" v="Vestre Kjul" />
		<tag k="place" v="farm" />
		<tag k="ssr:stedsnr" v="282667" />
	</node>
	<node id="-35738" lat="60.0314777738" lon="10.8982916594">
		<tag k="alt_name" v="Fjelltun" />
		<tag k="name" v="Nedre Kjul" />
		<tag k="place" v="farm" />
		<tag k="ssr:stedsnr" v="282612" />
	</node>
	<node id="-35737" lat="60.0463083358" lon="10.9007055559">
		<tag k="alt_name" v="Holter nedre" />
		<tag k="name" v="Nedre Holter" />
		<tag k="place" v="farm" />
		<tag k="ssr:stedsnr" v="282298" />
	</node>
	<node id="-35736" lat="60.0623249975" lon="10.8278916686">
		<tag k="name" v="Brattfoss" />
		<tag k="natural" v="waterfall" />
		<tag k="ssr:stedsnr" v="282289" />
	</node>
	<node id="-35735" lat="60.1200333297" lon="10.83285277">
		<tag k="name" v="Sagbakken" />
		<tag k="place" v="farm" />
		<tag k="ssr:stedsnr" v="282029" />
	</node>
	<node id="-35734" lat="60.1039888882" lon="10.9117999983">
		<tag k="name" v="Nordre Ravndalstjern" />
		<tag k="natural" v="water" />
		<tag k="ssr:stedsnr" v="282011" />
		<tag k="water" v="lake" />
	</node>
	<node id="-35733" lat="60.0716444411" lon="10.8531499919">
		<tag k="alt_name" v="Høldippeldammen" />
		<tag k="name" v="Holnippeldammen" />
		<tag k="natural" v="water" />
		<tag k="ssr:stedsnr" v="269321" />
	</node>
</osm>
