<?xml version="1.0" encoding="UTF-8"?>
<<<<<<< HEAD
<osm version="0.6" generator="osmapis">
	<node lat="68.64468055904753" lon="16.581022231571126" id="-40858">
		<tag k="name" v="Brattland" />
		<tag k="place" v="farm" />
		<tag k="ssr:stedsnr" v="20042" />
	</node>
	<node lat="68.87435278216266" lon="16.361147225849177" id="-40862">
		<tag k="name" v="Inner-Aun" />
		<tag k="place" v="farm" />
		<tag k="ssr:stedsnr" v="22307" />
	</node>
	<node lat="68.79177221794833" lon="16.34217499671018" id="-40866">
		<tag k="historic" v="shieling" />
		<tag k="name" v="Asbjørnsætra" />
		<tag k="place" v="isolated_dwelling" />
		<tag k="ssr:stedsnr" v="234959" />
	</node>
	<node lat="69.01849722303834" lon="16.53320833722984" id="-40873">
		<tag k="name" v="Innersundsvoll" />
		<tag k="place" v="hamlet" />
		<tag k="ssr:stedsnr" v="238061" />
	</node>
	<node lat="68.81934199064783" lon="16.491700581112376" id="-40935">
		<tag k="fixme" v="consider place=hamlet" />
		<tag k="name" v="Gamnes" />
		<tag k="place" v="farm" />
		<tag k="ssr:stedsnr" v="240050" />
	</node>
	<node lat="68.77992777359016" lon="16.5590222322919" id="-40946">
		<tag k="amenity" v="school" />
		<tag k="name" v="Kanebogen skole" />
		<tag k="ssr:stedsnr" v="240084" />
	</node>
	<node lat="68.83563333794378" lon="16.345152772902207" id="-40986">
		<tag k="loc_name:se" v="Gásvierda" />
		<tag k="name" v="Kasfjord" />
		<tag k="name:no" v="Kasfjord" />
		<tag k="place" v="village" />
		<tag k="ssr:stedsnr" v="78408" />
	</node>
	<node lat="68.77201944425892" lon="16.437669448530514" id="-41003">
		<tag k="fixme" v="consider tourism=alpine_hut or tourism=chalet" />
		<tag k="name" v="Grønnkollen" />
		<tag k="ssr:stedsnr" v="248742" />
		<tag k="tourism" v="wilderness_hut" />
	</node>
	<node lat="68.81104868514521" lon="16.518450488353178" id="-41057">
		<tag k="alt_name" v="Kullseng" />
		<tag k="fixme" v="consider place=hamlet" />
		<tag k="name" v="Kulseng" />
=======
<osm generator="osmapis" version="0.6">
	<node id="-839680" lat="68.8333861124" lon="16.2996666545">
		<tag k="name" v="Jessevollen" />
>>>>>>> e1d4bc35ff8a6074a6f2e91616a996b547c36f15
		<tag k="place" v="farm" />
		<tag k="ssr:stedsnr" v="138399" />
	</node>
<<<<<<< HEAD
	<node lat="68.88362336874488" lon="16.3245887432766" id="-41065">
		<tag k="fixme" v="consider place=hamlet" />
		<tag k="name" v="Med-Aun" />
		<tag k="place" v="farm" />
		<tag k="ssr:stedsnr" v="139591" />
	</node>
	<node lat="68.7467027787315" lon="16.555858327556972" id="-41068">
		<tag k="alt_name" v="Breidvika" />
=======
	<node id="-839678" lat="68.8186164045" lon="16.5054051882">
		<tag k="fixme" v="consider place=hamlet" />
		<tag k="name" v="Vika" />
		<tag k="place" v="farm" />
		<tag k="ssr:stedsnr" v="442393" />
	</node>
	<node id="-839675" lat="69.0040416708" lon="16.5296861192">
		<tag k="alt_name" v="Ytre Sandvika" />
		<tag k="name" v="Sandvika" />
		<tag k="place" v="isolated_dwelling" />
		<tag k="ssr:stedsnr" v="442201" />
	</node>
	<node id="-841714" lat="68.7638222257" lon="16.558241661">
		<tag k="alt_name" v="Mekile;Midkila" />
>>>>>>> e1d4bc35ff8a6074a6f2e91616a996b547c36f15
		<tag k="fixme" v="consider place=suburb, village or hamlet" />
		<tag k="name" v="Breivika" />
		<tag k="place" v="quarter" />
<<<<<<< HEAD
		<tag k="ssr:stedsnr" v="139937" />
	</node>
	<node lat="68.67115277615167" lon="16.506791670461386" id="-41074">
		<tag k="alt_name" v="Elven" />
		<tag k="name" v="Elva" />
=======
		<tag k="ssr:stedsnr" v="381445" />
	</node>
	<node id="-841711" lat="68.833721035" lon="16.358018683">
		<tag k="alt_name" v="Harbakken" />
		<tag k="fixme" v="consider place=hamlet" />
		<tag k="name" v="Hardbakken" />
		<tag k="place" v="farm" />
		<tag k="ssr:stedsnr" v="381418" />
	</node>
	<node id="-841704" lat="69.0593731683" lon="16.5294681795">
		<tag k="alt_name" v="Krøttøy" />
		<tag k="fixme" v="consider place=hamlet" />
		<tag k="name" v="Krøttøya" />
		<tag k="place" v="farm" />
		<tag k="ssr:stedsnr" v="381141" />
	</node>
	<node id="-839653" lat="68.8018694458" lon="16.4045166785">
		<tag k="leisure" v="pitch" />
		<tag k="name" v="Sollifjellet alpinsenter" />
		<tag k="ssr:stedsnr" v="294956" />
	</node>
	<node id="-841698" lat="68.8177722261" lon="16.5504888851">
		<tag k="name" v="Trondenes" />
		<tag k="place" v="suburb" />
		<tag k="ssr:stedsnr" v="363468" />
	</node>
	<node id="-839649" lat="68.8869308975" lon="16.4631136783">
		<tag k="name" v="Varmedal" />
		<tag k="place" v="farm" />
		<tag k="ssr:stedsnr" v="200610" />
	</node>
	<node id="-839648" lat="68.8787546732" lon="16.5498810614">
		<tag k="alt_name" v="For-Øvre;For, øvre" />
		<tag k="fixme" v="consider place=hamlet" />
		<tag k="name" v="Øvre For" />
		<tag k="place" v="farm" />
		<tag k="ssr:stedsnr" v="200606" />
	</node>
	<node id="-841695" lat="68.8271027801" lon="16.3763194522">
		<tag k="name" v="Fagerhaug" />
>>>>>>> e1d4bc35ff8a6074a6f2e91616a996b547c36f15
		<tag k="place" v="farm" />
		<tag k="ssr:stedsnr" v="141087" />
	</node>
<<<<<<< HEAD
	<node lat="68.56648659986067" lon="16.499137912463883" id="-41084">
		<tag k="fixme" v="consider place=hamlet" />
		<tag k="name" v="Sandtorg" />
=======
	<node id="-839333" lat="68.8743527822" lon="16.3611472258">
		<tag k="name" v="Inner-Aun" />
		<tag k="place" v="farm" />
		<tag k="ssr:stedsnr" v="22307" />
	</node>
	<node id="-839640" lat="68.7991983679" lon="16.4801428142">
		<tag k="alt_name" v="Kjelhus, yt;Kjelhus ytre" />
		<tag k="fixme" v="consider place=hamlet" />
		<tag k="name" v="Ytre Kjelhus" />
>>>>>>> e1d4bc35ff8a6074a6f2e91616a996b547c36f15
		<tag k="place" v="farm" />
		<tag k="ssr:stedsnr" v="152705" />
	</node>
<<<<<<< HEAD
	<node lat="69.06051944227366" lon="16.53971943119748" id="-41085">
		<tag k="name" v="Haugen" />
=======
	<node id="-841677" lat="68.8407722244" lon="16.495605555">
		<tag k="name" v="Nervollen" />
>>>>>>> e1d4bc35ff8a6074a6f2e91616a996b547c36f15
		<tag k="place" v="farm" />
		<tag k="ssr:stedsnr" v="158717" />
	</node>
<<<<<<< HEAD
	<node lat="68.6615055560475" lon="16.578683325774072" id="-41169">
=======
	<node id="-839623" lat="68.661505556" lon="16.5786833258">
>>>>>>> e1d4bc35ff8a6074a6f2e91616a996b547c36f15
		<tag k="name" v="Fauskevåg Lille" />
		<tag k="place" v="farm" />
		<tag k="ssr:stedsnr" v="179660" />
	</node>
<<<<<<< HEAD
	<node lat="68.60399722551612" lon="16.49876666116502" id="-41183">
		<tag k="name" v="Steinset" />
=======
	<node id="-839622" lat="68.6517416678" lon="16.5915861153">
		<tag k="name" v="Bergvoll" />
>>>>>>> e1d4bc35ff8a6074a6f2e91616a996b547c36f15
		<tag k="place" v="farm" />
		<tag k="ssr:stedsnr" v="262224" />
	</node>
<<<<<<< HEAD
	<node lat="68.62888352488993" lon="16.554874420376784" id="-41185">
		<tag k="fixme" v="consider place=hamlet" />
		<tag k="name" v="Fjellet" />
=======
	<node id="-841646" lat="68.8849555558" lon="16.4642305567">
		<tag k="name" v="Øvre-Leite" />
>>>>>>> e1d4bc35ff8a6074a6f2e91616a996b547c36f15
		<tag k="place" v="farm" />
		<tag k="ssr:stedsnr" v="263012" />
	</node>
<<<<<<< HEAD
	<node lat="68.58307508807347" lon="16.49629729424075" id="-41191">
		<tag k="fixme" v="consider place=hamlet" />
		<tag k="name" v="Årbogen - Orbohki" />
		<tag k="name:no" v="Årbogen" />
		<tag k="name:se" v="Orbohki" />
		<tag k="place" v="farm" />
		<tag k="ssr:stedsnr" v="263184" />
	</node>
	<node lat="68.84280000448523" lon="16.283655553147216" id="-41196">
		<tag k="name" v="Myra" />
		<tag k="place" v="farm" />
		<tag k="ssr:stedsnr" v="199421" />
	</node>
	<node lat="68.72866858121994" lon="16.589608624350973" id="-41201">
		<tag k="fixme" v="consider place=hamlet" />
		<tag k="name" v="Forhamn" />
=======
	<node id="-839593" lat="69.0748666708" lon="16.5101833346">
		<tag k="amenity" v="school" />
		<tag k="name" v="Meløyvær skole" />
		<tag k="ssr:stedsnr" v="177168" />
	</node>
	<node id="-841640" lat="68.7843843589" lon="16.4737646694">
		<tag k="name" v="Kjelen" />
		<tag k="place" v="locality" />
		<tag k="ssr:stedsnr" v="359120" />
	</node>
	<node id="-839588" lat="68.8902972222" lon="16.2546805464">
		<tag k="name" v="Inner-Elgsnes" />
>>>>>>> e1d4bc35ff8a6074a6f2e91616a996b547c36f15
		<tag k="place" v="farm" />
		<tag k="ssr:stedsnr" v="199959" />
	</node>
<<<<<<< HEAD
	<node lat="68.79919836785466" lon="16.48014281416303" id="-41207">
		<tag k="alt_name" v="Kjelhus, yt;Kjelhus ytre" />
		<tag k="fixme" v="consider place=hamlet" />
		<tag k="name" v="Ytre Kjelhus" />
=======
	<node id="-839584" lat="68.8900416679" lon="16.2527750021">
		<tag k="name" v="Inner-Elgsnes" />
>>>>>>> e1d4bc35ff8a6074a6f2e91616a996b547c36f15
		<tag k="place" v="farm" />
		<tag k="ssr:stedsnr" v="200508" />
	</node>
<<<<<<< HEAD
	<node lat="68.99282415382652" lon="16.52439511278944" id="-41212">
		<tag k="alt_name" v="Øvergård" />
		<tag k="fixme" v="consider place=hamlet" />
		<tag k="name" v="Øvergården" />
=======
	<node id="-839583" lat="68.8487638872" lon="16.2802000092">
		<tag k="name" v="Skoglund" />
>>>>>>> e1d4bc35ff8a6074a6f2e91616a996b547c36f15
		<tag k="place" v="farm" />
		<tag k="ssr:stedsnr" v="200700" />
	</node>
<<<<<<< HEAD
	<node lat="68.69695277627012" lon="16.577461109068807" id="-41217">
		<tag k="name" v="Berglund" />
=======
	<node id="-839577" lat="68.5664865999" lon="16.4991379125">
		<tag k="fixme" v="consider place=hamlet" />
		<tag k="name" v="Sandtorg" />
>>>>>>> e1d4bc35ff8a6074a6f2e91616a996b547c36f15
		<tag k="place" v="farm" />
		<tag k="ssr:stedsnr" v="203192" />
	</node>
<<<<<<< HEAD
	<node lat="68.96346921234965" lon="16.50825525838746" id="-41225">
		<tag k="fixme" v="consider place=hamlet" />
		<tag k="name" v="Akkarnes" />
=======
	<node id="-841623" lat="68.5759222228" lon="16.5187944516">
		<tag k="name" v="Sandtorg" />
>>>>>>> e1d4bc35ff8a6074a6f2e91616a996b547c36f15
		<tag k="place" v="farm" />
		<tag k="ssr:stedsnr" v="450010" />
	</node>
<<<<<<< HEAD
	<node lat="69.00088610910234" lon="16.529316672778883" id="-41238">
		<tag k="name" v="Vollan" />
=======
	<node id="-841616" lat="68.8445750003" lon="16.280436106">
		<tag k="name" v="Skjærstad" />
>>>>>>> e1d4bc35ff8a6074a6f2e91616a996b547c36f15
		<tag k="place" v="hamlet" />
		<tag k="ssr:stedsnr" v="238033" />
	</node>
<<<<<<< HEAD
	<node lat="68.82127777818432" lon="16.385708339819768" id="-41267">
		<tag k="name" v="Knutheimen" />
		<tag k="place" v="locality" />
		<tag k="ssr:stedsnr" v="240988" />
	</node>
	<node lat="68.72548961036813" lon="16.641430638103945" id="-41269">
		<tag k="name" v="Rogla" />
=======
	<node id="-839567" lat="68.5830750881" lon="16.4962972942">
		<tag k="fixme" v="consider place=hamlet" />
		<tag k="name" v="Årbogen - Orbohki" />
		<tag k="name:no" v="Årbogen" />
		<tag k="name:se" v="Orbohki" />
>>>>>>> e1d4bc35ff8a6074a6f2e91616a996b547c36f15
		<tag k="place" v="farm" />
		<tag k="ssr:stedsnr" v="241907" />
	</node>
<<<<<<< HEAD
	<node lat="68.65875833467898" lon="16.493150010652077" id="-41296">
=======
	<node id="-839564" lat="68.6587583347" lon="16.4931500107">
>>>>>>> e1d4bc35ff8a6074a6f2e91616a996b547c36f15
		<tag k="loc_name:se" v="Vuovdesiida" />
		<tag k="name" v="Dalen" />
		<tag k="name:no" v="Dalen" />
		<tag k="place" v="farm" />
		<tag k="ssr:stedsnr" v="263092" />
	</node>
<<<<<<< HEAD
	<node lat="68.58901666396551" lon="16.501897208458445" id="-41298">
		<tag k="alt_name" v="Breidnesvika" />
		<tag k="name" v="Breinesvika" />
=======
	<node id="-841606" lat="68.7355777769" lon="16.5614638888">
		<tag k="name" v="Øverland" />
>>>>>>> e1d4bc35ff8a6074a6f2e91616a996b547c36f15
		<tag k="place" v="farm" />
		<tag k="ssr:stedsnr" v="263206" />
	</node>
<<<<<<< HEAD
	<node lat="68.83557221847751" lon="16.291758327600913" id="-41300">
		<tag k="name" v="Skjærstad" />
=======
	<node id="-839556" lat="68.6039972255" lon="16.4987666612">
		<tag k="name" v="Steinset" />
>>>>>>> e1d4bc35ff8a6074a6f2e91616a996b547c36f15
		<tag k="place" v="farm" />
		<tag k="ssr:stedsnr" v="267417" />
	</node>
<<<<<<< HEAD
	<node lat="68.83844999899836" lon="16.286397221773665" id="-41301">
		<tag k="name" v="Skjærstad" />
=======
	<node id="-841602" lat="68.7177722205" lon="16.5241000095">
		<tag k="name" v="Øverslett" />
>>>>>>> e1d4bc35ff8a6074a6f2e91616a996b547c36f15
		<tag k="place" v="farm" />
		<tag k="ssr:stedsnr" v="267437" />
	</node>
<<<<<<< HEAD
	<node lat="68.82244166929777" lon="16.47023334178756" id="-41309">
		<tag k="name" v="Myreng" />
=======
	<node id="-842797" lat="68.7719171718" lon="16.5388435269">
		<tag k="fixme" v="consider place=hamlet" />
		<tag k="name" v="Kanebogen" />
		<tag k="place" v="farm" />
		<tag k="ssr:stedsnr" v="1077052" />
	</node>
	<node id="-841595" lat="68.8833749987" lon="16.5001499889">
		<tag k="alt_name" v="Bjørnerå" />
		<tag k="name" v="Bjørnå" />
>>>>>>> e1d4bc35ff8a6074a6f2e91616a996b547c36f15
		<tag k="place" v="farm" />
		<tag k="ssr:stedsnr" v="462696" />
	</node>
<<<<<<< HEAD
	<node lat="68.72885833563646" lon="16.655886117957643" id="-41351">
		<tag k="name" v="Rogla" />
		<tag k="place" v="farm" />
		<tag k="ssr:stedsnr" v="301916" />
	</node>
	<node lat="68.56881944062032" lon="16.512102773760947" id="-41353">
		<tag k="name" v="Sandtorg" />
=======
	<node id="-841592" lat="68.9197249971" lon="16.2695583209">
		<tag k="name" v="Ytter-Elgsnes" />
		<tag k="old_name" v="Ytre Elgsnes" />
		<tag k="place" v="farm" />
		<tag k="ssr:stedsnr" v="321522" />
	</node>
	<node id="-841590" lat="68.9571388877" lon="16.7381166751">
		<tag k="name" v="Slakstad" />
		<tag k="place" v="hamlet" />
		<tag k="ssr:stedsnr" v="321484" />
	</node>
	<node id="-839541" lat="68.7921027741" lon="16.510172224">
		<tag k="name" v="Heggen" />
>>>>>>> e1d4bc35ff8a6074a6f2e91616a996b547c36f15
		<tag k="place" v="farm" />
		<tag k="ssr:stedsnr" v="464971" />
	</node>
<<<<<<< HEAD
	<node lat="68.91525833192841" lon="16.263547208891765" id="-41354">
		<tag k="fixme" v="consider place=hamlet" />
		<tag k="name" v="Ytter-Elgsnes" />
		<tag k="place" v="farm" />
		<tag k="ssr:stedsnr" v="465742" />
	</node>
	<node lat="68.75273127544521" lon="16.377063840446354" id="-41361">
=======
	<node id="-841585" lat="68.7724752351" lon="16.3729128256">
		<tag k="fixme" v="consider place=hamlet" />
		<tag k="name" v="Tennvassåsen" />
		<tag k="place" v="farm" />
		<tag k="ssr:stedsnr" v="321430" />
	</node>
	<node id="-839656" lat="68.874883333" lon="16.3586499904">
		<tag k="name" v="Inner-Aun" />
		<tag k="place" v="farm" />
		<tag k="ssr:stedsnr" v="204289" />
	</node>
	<node id="-841573" lat="68.7526138876" lon="16.3771194495">
>>>>>>> e1d4bc35ff8a6074a6f2e91616a996b547c36f15
		<tag k="alt_name" v="Munkhola" />
		<tag k="name" v="Munkholla" />
		<tag k="place" v="farm" />
		<tag k="ssr:stedsnr" v="321290" />
	</node>
<<<<<<< HEAD
	<node lat="68.95713888773867" lon="16.738116675121887" id="-41363">
		<tag k="name" v="Slakstad" />
		<tag k="place" v="hamlet" />
		<tag k="ssr:stedsnr" v="321484" />
	</node>
	<node lat="68.91972499707668" lon="16.2695583208949" id="-41365">
		<tag k="name" v="Ytter-Elgsnes" />
		<tag k="old_name" v="Ytre Elgsnes;Elgsnes ytre" />
=======
	<node id="-841558" lat="69.0416157638" lon="16.4916854204">
		<tag k="alt_name" v="Flatøy" />
		<tag k="fixme" v="consider place=hamlet" />
		<tag k="name" v="Flatøya" />
		<tag k="place" v="farm" />
		<tag k="ssr:stedsnr" v="321054" />
	</node>
	<node id="-839992" lat="68.7212805526" lon="16.5433027669">
		<tag k="name" v="Frydenlund" />
		<tag k="place" v="farm" />
		<tag k="ssr:stedsnr" v="503965" />
	</node>
	<node id="-841543" lat="68.9185222257" lon="16.2589750116">
		<tag k="name" v="Jonsborg" />
>>>>>>> e1d4bc35ff8a6074a6f2e91616a996b547c36f15
		<tag k="place" v="farm" />
		<tag k="ssr:stedsnr" v="321522" />
	</node>
<<<<<<< HEAD
	<node lat="68.88495555579314" lon="16.464230556651184" id="-41383">
		<tag k="name" v="Øvre-Leite" />
=======
	<node id="-841530" lat="68.8885805572" lon="16.6025805439">
		<tag k="name" v="Skjæret" />
>>>>>>> e1d4bc35ff8a6074a6f2e91616a996b547c36f15
		<tag k="place" v="farm" />
		<tag k="ssr:stedsnr" v="359424" />
	</node>
<<<<<<< HEAD
	<node lat="68.79147420329483" lon="16.589087993167716" id="-41389">
		<tag k="alt_name" v="Stangnes Nordre" />
		<tag k="fixme" v="consider place=hamlet" />
		<tag k="name" v="Nordre Stangnes" />
=======
	<node id="-841526" lat="68.8405027777" lon="16.3017999873">
		<tag k="name" v="Skjærstad" />
>>>>>>> e1d4bc35ff8a6074a6f2e91616a996b547c36f15
		<tag k="place" v="farm" />
		<tag k="ssr:stedsnr" v="359711" />
	</node>
<<<<<<< HEAD
	<node lat="68.89178333104378" lon="16.59026665684126" id="-41398">
		<tag k="historic" v="shieling" />
		<tag k="name" v="Snekkarstølen" />
		<tag k="place" v="isolated_dwelling" />
		<tag k="ssr:stedsnr" v="360506" />
	</node>
	<node lat="68.98992778040275" lon="16.51188055044087" id="-41404">
		<tag k="name" v="Stranda" />
		<tag k="place" v="hamlet" />
		<tag k="ssr:stedsnr" v="479426" />
	</node>
	<node lat="68.78708055727584" lon="16.5321000078718" id="-41414">
		<tag k="amenity" v="school" />
		<tag k="name" v="Seljestad skole" />
		<tag k="ssr:stedsnr" v="481182" />
	</node>
	<node lat="69.01278055740889" lon="16.473263885557987" id="-41425">
		<tag k="name" v="Stranda" />
		<tag k="place" v="hamlet" />
		<tag k="ssr:stedsnr" v="481391" />
	</node>
	<node lat="68.83372103499414" lon="16.358018683017427" id="-41452">
		<tag k="alt_name" v="Harbakken" />
		<tag k="fixme" v="consider place=hamlet" />
		<tag k="name" v="Hardbakken" />
		<tag k="place" v="farm" />
		<tag k="ssr:stedsnr" v="381418" />
	</node>
	<node lat="68.77362222057721" lon="16.55522777586397" id="-41469">
		<tag k="name" v="Øverlandet" />
		<tag k="place" v="suburb" />
		<tag k="ssr:stedsnr" v="482105" />
	</node>
	<node lat="68.66842222653479" lon="16.489877771591786" id="-41476">
		<tag k="alt_name" v="Aspeli" />
		<tag k="name" v="Asplia" />
		<tag k="place" v="farm" />
		<tag k="ssr:stedsnr" v="383109" />
	</node>
	<node lat="68.58991388739632" lon="16.500711099324718" id="-41484">
		<tag k="name" v="Nordheim" />
=======
	<node id="-841524" lat="68.6969527763" lon="16.5774611091">
		<tag k="name" v="Berglund" />
		<tag k="place" v="farm" />
		<tag k="ssr:stedsnr" v="203192" />
	</node>
	<node id="-841519" lat="68.6752250025" lon="16.5018750038">
		<tag k="name" v="Søreng" />
		<tag k="place" v="farm" />
		<tag k="ssr:stedsnr" v="202124" />
	</node>
	<node id="-841515" lat="68.6531881637" lon="16.5855070589">
		<tag k="alt_name" v="Voldstad" />
		<tag k="fixme" v="consider place=hamlet" />
		<tag k="name" v="Vollstad" />
		<tag k="place" v="farm" />
		<tag k="ssr:stedsnr" v="202054" />
	</node>
	<node id="-839463" lat="68.9166555582" lon="16.2626805541">
		<tag k="name" v="Elgsnes" />
		<tag k="place" v="hamlet" />
		<tag k="ssr:stedsnr" v="89931" />
	</node>
	<node id="-839461" lat="68.8794055519" lon="16.3456138807">
		<tag k="name" v="Inner-Aun" />
		<tag k="place" v="farm" />
		<tag k="ssr:stedsnr" v="82326" />
	</node>
	<node id="-839460" lat="68.7720194443" lon="16.4376694485">
		<tag k="fixme" v="consider tourism=alpine_hut or tourism=chalet" />
		<tag k="name" v="Grønnkollen" />
		<tag k="ssr:stedsnr" v="248742" />
		<tag k="tourism" v="wilderness_hut" />
	</node>
	<node id="-839458" lat="68.8212777782" lon="16.3857083398">
		<tag k="name" v="Knutheimen" />
		<tag k="place" v="locality" />
		<tag k="ssr:stedsnr" v="240988" />
	</node>
	<node id="-841489" lat="68.7286685812" lon="16.5896086244">
		<tag k="fixme" v="consider place=hamlet" />
		<tag k="name" v="Forhamn" />
		<tag k="place" v="farm" />
		<tag k="ssr:stedsnr" v="199959" />
	</node>
	<node id="-839440" lat="68.7799277736" lon="16.5590222323">
		<tag k="amenity" v="school" />
		<tag k="name" v="Kanebogen skole" />
		<tag k="ssr:stedsnr" v="240084" />
	</node>
	<node id="-839438" lat="68.8193419906" lon="16.4917005811">
		<tag k="fixme" v="consider place=hamlet" />
		<tag k="name" v="Gamnes" />
>>>>>>> e1d4bc35ff8a6074a6f2e91616a996b547c36f15
		<tag k="place" v="farm" />
		<tag k="ssr:stedsnr" v="384201" />
	</node>
<<<<<<< HEAD
	<node lat="68.8891131617968" lon="16.446151686290914" id="-41498">
		<tag k="fixme" v="consider place=hamlet" />
		<tag k="name" v="Vaskinn" />
=======
	<node id="-841476" lat="68.8428000045" lon="16.2836555531">
		<tag k="name" v="Myra" />
>>>>>>> e1d4bc35ff8a6074a6f2e91616a996b547c36f15
		<tag k="place" v="farm" />
		<tag k="ssr:stedsnr" v="392939" />
	</node>
<<<<<<< HEAD
	<node lat="69.0331364630111" lon="16.534222361291047" id="-41511">
		<tag k="name" v="Olsborg" />
		<tag k="place" v="farm" />
		<tag k="ssr:stedsnr" v="401725" />
	</node>
	<node lat="68.82397499903992" lon="16.44750833367286" id="-41512">
		<tag k="name" v="Nymo" />
=======
	<node id="-840163" lat="68.9549202866" lon="16.740652857">
		<tag k="fixme" v="consider place=hamlet" />
		<tag k="name" v="Slagstad" />
		<tag k="place" v="farm" />
		<tag k="ssr:stedsnr" v="481957" />
	</node>
	<node id="-841446" lat="68.7747666699" lon="16.5630166724">
		<tag k="name" v="Kleiva" />
		<tag k="place" v="quarter" />
		<tag k="ssr:stedsnr" v="179076" />
	</node>
	<node id="-841444" lat="68.8291962395" lon="16.487440594">
		<tag k="name" v="Undlandet" />
>>>>>>> e1d4bc35ff8a6074a6f2e91616a996b547c36f15
		<tag k="place" v="farm" />
		<tag k="ssr:stedsnr" v="401697" />
	</node>
<<<<<<< HEAD
	<node lat="68.80224352594009" lon="16.48681948461444" id="-41533">
		<tag k="name" v="Høgfors" />
		<tag k="place" v="farm" />
		<tag k="ssr:stedsnr" v="420840" />
	</node>
	<node lat="68.83471223497561" lon="16.360798783096733" id="-41535">
		<tag k="alt_name" v="Harebakken" />
		<tag k="name" v="Harbakken" />
		<tag k="place" v="farm" />
		<tag k="ssr:stedsnr" v="420994" />
	</node>
	<node lat="69.00410282372756" lon="16.529887028899044" id="-41551">
		<tag k="alt_name" v="Ytre Sandvika" />
		<tag k="name" v="Sandvika" />
=======
	<node id="-841437" lat="68.6697333342" lon="16.5070416634">
		<tag k="name" v="Buvoll" />
		<tag k="place" v="farm" />
		<tag k="ssr:stedsnr" v="178688" />
	</node>
	<node id="-841427" lat="68.7949833325" lon="16.5049166554">
		<tag k="leisure" v="park" />
		<tag k="name" v="Folkeparken" />
		<tag k="ssr:stedsnr" v="177833" />
	</node>
	<node id="-841426" lat="68.80126389" lon="16.5447777661">
		<tag k="name" v="Ottar Håløygs plass" />
		<tag k="place" v="square" />
		<tag k="ssr:stedsnr" v="177786" />
	</node>
	<node id="-839367" lat="69.018497223" lon="16.5332083372">
		<tag k="name" v="Innersundsvoll" />
		<tag k="place" v="hamlet" />
		<tag k="ssr:stedsnr" v="238061" />
	</node>
	<node id="-839366" lat="69.0008861091" lon="16.5293166728">
		<tag k="name" v="Vollan" />
		<tag k="place" v="hamlet" />
		<tag k="ssr:stedsnr" v="238033" />
	</node>
	<node id="-839359" lat="68.6733027788" lon="16.5594777772">
		<tag k="name" v="Anders-Persaheimen" />
		<tag k="place" v="locality" />
		<tag k="ssr:stedsnr" v="56753" />
	</node>
	<node id="-841401" lat="68.9998916709" lon="16.5650055572">
		<tag k="name" v="Nergårdshamn" />
		<tag k="place" v="hamlet" />
		<tag k="ssr:stedsnr" v="177031" />
	</node>
	<node id="-841400" lat="68.9918666655" lon="16.5266916682">
		<tag k="name" v="Vollen" />
		<tag k="place" v="hamlet" />
		<tag k="ssr:stedsnr" v="177029" />
	</node>
	<node id="-841387" lat="68.7549777774" lon="16.3711249879">
		<tag k="name" v="Sommerro" />
		<tag k="place" v="isolated_dwelling" />
		<tag k="ssr:stedsnr" v="173927" />
	</node>
	<node id="-839338" lat="68.7917722179" lon="16.3421749967">
		<tag k="historic" v="shieling" />
		<tag k="name" v="Asbjørnsætra" />
		<tag k="place" v="locality" />
		<tag k="ssr:stedsnr" v="234959" />
	</node>
	<node id="-841381" lat="68.918108334" lon="16.2601722133">
		<tag k="name" v="Ytter-Elgsnes" />
>>>>>>> e1d4bc35ff8a6074a6f2e91616a996b547c36f15
		<tag k="place" v="farm" />
		<tag k="ssr:stedsnr" v="442201" />
	</node>
<<<<<<< HEAD
	<node lat="68.81861640450478" lon="16.505405188161713" id="-41552">
		<tag k="fixme" v="consider place=hamlet" />
		<tag k="name" v="Vika" />
		<tag k="place" v="farm" />
		<tag k="ssr:stedsnr" v="442393" />
	</node>
	<node lat="68.80083505151902" lon="16.474227598758237" id="-41556">
		<tag k="fixme" v="consider place=hamlet" />
		<tag k="name" v="Øverby" />
=======
	<node id="-841380" lat="68.9580583334" lon="16.6868111153">
		<tag k="name" v="Sommarro" />
		<tag k="place" v="isolated_dwelling" />
		<tag k="ssr:stedsnr" v="158793" />
	</node>
	<node id="-841377" lat="69.0605194423" lon="16.5397194312">
		<tag k="name" v="Haugen" />
>>>>>>> e1d4bc35ff8a6074a6f2e91616a996b547c36f15
		<tag k="place" v="farm" />
		<tag k="ssr:stedsnr" v="442501" />
	</node>
<<<<<<< HEAD
	<node lat="68.96497382233525" lon="16.594979865711764" id="-41559">
		<tag k="alt_name" v="Horsevik" />
		<tag k="fixme" v="consider place=hamlet" />
		<tag k="name" v="Horsevika" />
=======
	<node id="-839324" lat="68.8524769754" lon="16.483640633">
		<tag k="fixme" v="consider place=hamlet" />
		<tag k="name" v="Stornes" />
>>>>>>> e1d4bc35ff8a6074a6f2e91616a996b547c36f15
		<tag k="place" v="farm" />
		<tag k="ssr:stedsnr" v="442785" />
	</node>
<<<<<<< HEAD
	<node lat="68.66400833615114" lon="16.497577766268098" id="-41567">
		<tag k="name" v="Storhaugen" />
=======
	<node id="-839962" lat="68.8194083374" lon="16.3930333312">
		<tag k="name" v="Moen" />
		<tag k="place" v="farm" />
		<tag k="ssr:stedsnr" v="503375" />
	</node>
	<node id="-841364" lat="68.9233777759" lon="16.6246194332">
		<tag k="name" v="Olsvik" />
>>>>>>> e1d4bc35ff8a6074a6f2e91616a996b547c36f15
		<tag k="place" v="farm" />
		<tag k="ssr:stedsnr" v="445078" />
	</node>
<<<<<<< HEAD
	<node lat="68.66478333494652" lon="16.502741656229595" id="-41568">
		<tag k="name" v="Myrlund" />
=======
	<node id="-841352" lat="68.6053694468" lon="16.494613882">
		<tag k="name" v="Brattli" />
>>>>>>> e1d4bc35ff8a6074a6f2e91616a996b547c36f15
		<tag k="place" v="farm" />
		<tag k="ssr:stedsnr" v="445085" />
	</node>
<<<<<<< HEAD
	<node lat="69.01810555409048" lon="16.506436112821543" id="-41589">
		<tag k="name" v="Yttersundsvoll" />
		<tag k="place" v="hamlet" />
		<tag k="ssr:stedsnr" v="481263" />
	</node>
	<node lat="68.9549202866285" lon="16.740652856997663" id="-41605">
		<tag k="fixme" v="consider place=hamlet" />
		<tag k="name" v="Slagstad" />
		<tag k="place" v="farm" />
		<tag k="ssr:stedsnr" v="481957" />
	</node>
	<node lat="68.99759999726516" lon="16.53566666510507" id="-41624">
		<tag k="alt_name" v="Nergård" />
		<tag k="fixme" v="consider place=hamlet" />
		<tag k="name" v="Nergården" />
		<tag k="place" v="farm" />
		<tag k="ssr:stedsnr" v="503121" />
	</node>
	<node lat="68.95258717694593" lon="16.28713985533399" id="-41632">
		<tag k="fixme" v="consider place=hamlet" />
		<tag k="name" v="Alvestad" />
=======
	<node id="-841350" lat="68.5953166653" lon="16.5009499954">
		<tag k="name" v="Skoglund" />
		<tag k="place" v="isolated_dwelling" />
		<tag k="ssr:stedsnr" v="141191" />
	</node>
	<node id="-841346" lat="68.6711527762" lon="16.5067916705">
		<tag k="alt_name" v="Elven" />
		<tag k="name" v="Elva" />
		<tag k="place" v="farm" />
		<tag k="ssr:stedsnr" v="141087" />
	</node>
	<node id="-841344" lat="68.6583194426" lon="16.3896944479">
		<tag k="fixme" v="consider tourism=alpine_hut or tourism=chalet" />
		<tag k="name" v="Bjørnhaugen" />
		<tag k="ssr:stedsnr" v="141065" />
		<tag k="tourism" v="wilderness_hut" />
	</node>
	<node id="-841340" lat="68.6313013188" lon="16.5651576692">
		<tag k="alt_name" v="Hamn" />
		<tag k="fixme" v="consider place=hamlet" />
		<tag k="name" v="Hamna" />
>>>>>>> e1d4bc35ff8a6074a6f2e91616a996b547c36f15
		<tag k="place" v="farm" />
		<tag k="ssr:stedsnr" v="503476" />
	</node>
<<<<<<< HEAD
	<node lat="68.9804129170569" lon="16.560887894482928" id="-41633">
		<tag k="fixme" v="consider place=hamlet" />
		<tag k="name" v="Austnes" />
		<tag k="place" v="farm" />
		<tag k="ssr:stedsnr" v="503671" />
	</node>
	<node lat="68.74745555437549" lon="16.54394722065248" id="-41637">
		<tag k="name" v="Bakkan" />
=======
	<node id="-841335" lat="68.7467027787" lon="16.5558583276">
		<tag k="alt_name" v="Breidvika" />
		<tag k="fixme" v="consider place=suburb, village or hamlet" />
		<tag k="name" v="Breivika" />
		<tag k="place" v="quarter" />
		<tag k="ssr:stedsnr" v="139937" />
	</node>
	<node id="-841325" lat="68.8836233687" lon="16.3245887433">
		<tag k="fixme" v="consider place=hamlet" />
		<tag k="name" v="Med-Aun" />
>>>>>>> e1d4bc35ff8a6074a6f2e91616a996b547c36f15
		<tag k="place" v="farm" />
		<tag k="ssr:stedsnr" v="503771" />
	</node>
<<<<<<< HEAD
	<node lat="68.62796667001611" lon="16.497613896572755" id="-41638">
		<tag k="name" v="Lauklia" />
		<tag k="place" v="isolated_dwelling" />
		<tag k="ssr:stedsnr" v="505011" />
	</node>
	<node lat="69.00700194725209" lon="16.531986706177424" id="-41656">
		<tag k="name" v="Vika" />
=======
	<node id="-841323" lat="68.7915888851" lon="16.3421444524">
		<tag k="name" v="Helgevallan" />
		<tag k="place" v="isolated_dwelling" />
		<tag k="ssr:stedsnr" v="139519" />
	</node>
	<node id="-841322" lat="68.8011166668" lon="16.5441444402">
		<tag k="name" v="Harstad - Hárstták" />
		<tag k="name:no" v="Harstad" />
		<tag k="name:se" v="Hárstták" />
		<tag k="place" v="town" />
		<tag k="ssr:stedsnr" v="139510" />
	</node>
	<node id="-840293" lat="68.6168838032" lon="16.5441947671">
		<tag k="alt_name" v="Lilleeng" />
		<tag k="name" v="Litlenga" />
		<tag k="place" v="farm" />
		<tag k="ssr:stedsnr" v="687237" />
	</node>
	<node id="-841305" lat="68.9390082658" lon="16.3547885628">
		<tag k="fixme" v="consider place=hamlet" />
		<tag k="name" v="Dale" />
		<tag k="place" v="farm" />
		<tag k="ssr:stedsnr" v="138545" />
	</node>
	<node id="-841292" lat="68.8110486851" lon="16.5184504884">
		<tag k="alt_name" v="Kullseng" />
		<tag k="fixme" v="consider place=hamlet" />
		<tag k="name" v="Kulseng" />
>>>>>>> e1d4bc35ff8a6074a6f2e91616a996b547c36f15
		<tag k="place" v="farm" />
		<tag k="ssr:stedsnr" v="685166" />
	</node>
<<<<<<< HEAD
	<node lat="69.01515937971725" lon="16.4898177581354" id="-41657">
		<tag k="alt_name" v="Leirvåg, nordre;Leirvåg nordre" />
		<tag k="fixme" v="consider place=hamlet" />
		<tag k="loc_name" v="Nord-Leirvåg" />
		<tag k="name" v="Nordre Leirvåg" />
		<tag k="place" v="farm" />
		<tag k="ssr:stedsnr" v="685167" />
	</node>
	<node lat="68.80443491629694" lon="16.489258630238886" id="-41659">
		<tag k="fixme" v="consider place=hamlet" />
		<tag k="name" v="Bergseng" />
		<tag k="place" v="farm" />
		<tag k="ssr:stedsnr" v="685351" />
	</node>
	<node lat="68.82161671092445" lon="16.4816441691511" id="-41662">
		<tag k="alt_name" v="Ervik" />
		<tag k="fixme" v="consider place=hamlet" />
		<tag k="name" v="Ervika" />
		<tag k="place" v="farm" />
		<tag k="ssr:stedsnr" v="685364" />
	</node>
	<node lat="68.78994166590758" lon="16.52353334164921" id="-41665">
		<tag k="name" v="Seljestad" />
		<tag k="place" v="suburb" />
		<tag k="ssr:stedsnr" v="685458" />
	</node>
	<node lat="68.8058666631928" lon="16.514752781293033" id="-41669">
		<tag k="name" v="Sama" />
		<tag k="place" v="suburb" />
		<tag k="ssr:stedsnr" v="685467" />
	</node>
	<node lat="68.80126944404257" lon="16.480927785670712" id="-41670">
		<tag k="alt_name" v="By øvre" />
		<tag k="name" v="By" />
		<tag k="place" v="farm" />
		<tag k="ssr:stedsnr" v="685469" />
	</node>
	<node lat="68.83091944661817" lon="16.3364499916783" id="-41672">
		<tag k="name" v="Auna" />
		<tag k="place" v="hamlet" />
		<tag k="ssr:stedsnr" v="685386" />
	</node>
	<node lat="68.9503481940951" lon="16.582840356169772" id="-41680">
		<tag k="fixme" v="consider place=hamlet" />
		<tag k="name" v="Dypingen" />
=======
	<node id="-841280" lat="68.8246638891" lon="16.3848111096">
		<tag k="name" v="Høgda" />
		<tag k="place" v="hamlet" />
		<tag k="ssr:stedsnr" v="119989" />
	</node>
	<node id="-841309" lat="68.9129568819" lon="16.6064336689">
		<tag k="fixme" v="consider place=hamlet" />
		<tag k="name" v="Skjellesvika" />
		<tag k="place" v="farm" />
		<tag k="ssr:stedsnr" v="138574" />
	</node>
	<node id="-841260" lat="68.7799916678" lon="16.5617138859">
		<tag k="name" v="Oldran" />
		<tag k="place" v="quarter" />
		<tag k="ssr:stedsnr" v="118062" />
	</node>
	<node id="-841252" lat="68.836777775" lon="16.2889416755">
		<tag k="name" v="Mikkelgamman" />
		<tag k="place" v="locality" />
		<tag k="ssr:stedsnr" v="117900" />
	</node>
	<node id="-841198" lat="68.9896694426" lon="16.5368638923">
		<tag k="name" v="Skogneset" />
		<tag k="place" v="locality" />
		<tag k="ssr:stedsnr" v="115446" />
	</node>
	<node id="-841188" lat="68.8459001128" lon="16.4889871524">
		<tag k="fixme" v="consider place=hamlet" />
		<tag k="name" v="Årnes" />
		<tag k="place" v="farm" />
		<tag k="ssr:stedsnr" v="99733" />
	</node>
	<node id="-841185" lat="68.6436305581" lon="16.5821750062">
		<tag k="name" v="Rysletta" />
		<tag k="place" v="isolated_dwelling" />
		<tag k="ssr:stedsnr" v="91828" />
	</node>
	<node id="-841177" lat="68.8376132355" lon="16.2821340369">
		<tag k="fixme" v="consider place=hamlet" />
		<tag k="name" v="Skjærstad" />
>>>>>>> e1d4bc35ff8a6074a6f2e91616a996b547c36f15
		<tag k="place" v="farm" />
		<tag k="ssr:stedsnr" v="685500" />
	</node>
<<<<<<< HEAD
	<node lat="68.95433639382219" lon="16.658715984536546" id="-41682">
		<tag k="fixme" v="consider place=hamlet" />
		<tag k="name" v="Nordsand" />
		<tag k="place" v="farm" />
		<tag k="ssr:stedsnr" v="685505" />
	</node>
	<node lat="68.87955535702692" lon="16.53084375014244" id="-41695">
		<tag k="alt_name" v="For-Nedre;For, nedre" />
		<tag k="fixme" v="consider place=hamlet" />
		<tag k="name" v="Nedre For" />
		<tag k="old_name" v="For" />
=======
	<node id="-841151" lat="68.8731414322" lon="16.6963042853">
		<tag k="fixme" v="consider place=hamlet" />
		<tag k="name" v="Kjøtta" />
		<tag k="place" v="farm" />
		<tag k="ssr:stedsnr" v="79582" />
	</node>
	<node id="-841144" lat="68.8037805589" lon="16.4903583267">
		<tag k="name" v="Tofta" />
>>>>>>> e1d4bc35ff8a6074a6f2e91616a996b547c36f15
		<tag k="place" v="farm" />
		<tag k="ssr:stedsnr" v="685587" />
	</node>
<<<<<<< HEAD
	<node lat="68.92740000123932" lon="16.511391673703177" id="-41700">
		<tag k="name" v="Jorda" />
		<tag k="place" v="locality" />
		<tag k="ssr:stedsnr" v="685536" />
	</node>
	<node lat="68.73083435103433" lon="16.397895958110716" id="-41710">
		<tag k="fixme" v="consider place=hamlet" />
		<tag k="name" v="Sørli" />
		<tag k="place" v="farm" />
		<tag k="ssr:stedsnr" v="685963" />
	</node>
	<node lat="68.73465277903293" lon="16.486183330049233" id="-41712">
		<tag k="name" v="Reingjerdan" />
		<tag k="place" v="locality" />
		<tag k="ssr:stedsnr" v="685968" />
	</node>
	<node lat="68.77235833643324" lon="16.452716658022528" id="-41726">
		<tag k="fixme" v="consider tourism=alpine_hut or tourism=chalet" />
		<tag k="name" v="Røde Kors hytta" />
		<tag k="ssr:stedsnr" v="541116" />
		<tag k="tourism" v="wilderness_hut" />
	</node>
	<node lat="68.65317777702077" lon="16.427900002534948" id="-41747">
		<tag k="name" v="Nergamsgården" />
=======
	<node id="-841141" lat="69.0316653369" lon="16.5317331211">
		<tag k="alt_name" v="Helløy" />
		<tag k="fixme" v="consider place=hamlet" />
		<tag k="name" v="Helløya" />
		<tag k="place" v="farm" />
		<tag k="ssr:stedsnr" v="79086" />
	</node>
	<node id="-841117" lat="68.772469443" lon="16.5522666694">
		<tag k="name" v="Kanebogen" />
		<tag k="place" v="suburb" />
		<tag k="ssr:stedsnr" v="78462" />
	</node>
	<node id="-841115" lat="68.8356333379" lon="16.3451527729">
		<tag k="loc_name:se" v="Gásvierda" />
		<tag k="name" v="Kasfjord" />
		<tag k="name:no" v="Kasfjord" />
		<tag k="place" v="village" />
		<tag k="ssr:stedsnr" v="78408" />
	</node>
	<node id="-841092" lat="68.8190666643" lon="16.3961388805">
		<tag k="name" v="Halvorsmo" />
>>>>>>> e1d4bc35ff8a6074a6f2e91616a996b547c36f15
		<tag k="place" v="farm" />
		<tag k="ssr:stedsnr" v="542704" />
	</node>
<<<<<<< HEAD
	<node lat="68.67235833238115" lon="16.498344442558384" id="-41752">
		<tag k="name" v="Østgård" />
=======
	<node id="-839568" lat="68.589016664" lon="16.5018972085">
		<tag k="alt_name" v="Breidnesvika" />
		<tag k="name" v="Breinesvika" />
		<tag k="place" v="farm" />
		<tag k="ssr:stedsnr" v="263206" />
	</node>
	<node id="-841050" lat="68.6509277803" lon="16.4299972185">
		<tag k="name" v="Gammelheimen" />
>>>>>>> e1d4bc35ff8a6074a6f2e91616a996b547c36f15
		<tag k="place" v="farm" />
		<tag k="ssr:stedsnr" v="687110" />
	</node>
<<<<<<< HEAD
	<node lat="68.64931388509915" lon="16.43958333448015" id="-41760">
		<tag k="name" v="Åkertun" />
=======
	<node id="-841036" lat="68.8859111094" lon="16.6968638933">
		<tag k="name" v="Åkerøya" />
>>>>>>> e1d4bc35ff8a6074a6f2e91616a996b547c36f15
		<tag k="place" v="farm" />
		<tag k="ssr:stedsnr" v="687059" />
	</node>
<<<<<<< HEAD
	<node lat="68.65074166309178" lon="16.44318055715305" id="-41761">
		<tag k="name" v="Nordli" />
		<tag k="place" v="farm" />
		<tag k="ssr:stedsnr" v="687060" />
	</node>
	<node lat="68.7215111117832" lon="16.577047222506685" id="-41763">
		<tag k="name" v="Knatten" />
=======
	<node id="-842293" lat="68.6696833302" lon="16.5916916691">
		<tag k="name" v="Fjellstad" />
		<tag k="place" v="farm" />
		<tag k="ssr:stedsnr" v="748089" />
	</node>
	<node id="-839558" lat="68.6288835249" lon="16.5548744204">
		<tag k="fixme" v="consider place=hamlet" />
		<tag k="name" v="Fjellet" />
		<tag k="place" v="farm" />
		<tag k="ssr:stedsnr" v="263012" />
	</node>
	<node id="-840991" lat="68.7588722232" lon="16.3837277779">
		<tag k="name" v="Einehaugen" />
>>>>>>> e1d4bc35ff8a6074a6f2e91616a996b547c36f15
		<tag k="place" v="isolated_dwelling" />
		<tag k="ssr:stedsnr" v="543622" />
	</node>
<<<<<<< HEAD
	<node lat="68.83817499650199" lon="16.287222223966463" id="-41780">
		<tag k="name" v="Skjærstad" />
		<tag k="place" v="farm" />
		<tag k="ssr:stedsnr" v="692463" />
	</node>
	<node lat="68.60272221855345" lon="16.503574993381473" id="-41784">
		<tag k="name" v="Holand" />
=======
	<node id="-840990" lat="68.7590666687" lon="16.3921666698">
		<tag k="name" v="Lykkja" />
		<tag k="place" v="isolated_dwelling" />
		<tag k="ssr:stedsnr" v="52938" />
	</node>
	<node id="-842287" lat="68.7038162425" lon="16.583086308">
		<tag k="name" v="Litlefor" />
		<tag k="place" v="farm" />
		<tag k="ssr:stedsnr" v="746878" />
	</node>
	<node id="-840977" lat="68.8900888911" lon="16.2563361149">
		<tag k="name" v="Inner-Elgsnes" />
>>>>>>> e1d4bc35ff8a6074a6f2e91616a996b547c36f15
		<tag k="place" v="farm" />
		<tag k="ssr:stedsnr" v="565211" />
	</node>
<<<<<<< HEAD
	<node lat="68.61115277617141" lon="16.51293889876187" id="-41789">
		<tag k="name" v="Sandtorgholmen" />
=======
	<node id="-840975" lat="68.8300888936" lon="16.5544277666">
		<tag k="name" v="Ringberg" />
>>>>>>> e1d4bc35ff8a6074a6f2e91616a996b547c36f15
		<tag k="place" v="farm" />
		<tag k="ssr:stedsnr" v="576599" />
	</node>
<<<<<<< HEAD
	<node lat="68.7144888859149" lon="16.529983333010534" id="-41834">
		<tag k="name" v="Engnes" />
		<tag k="place" v="farm" />
		<tag k="ssr:stedsnr" v="604613" />
	</node>
	<node lat="68.82607054954373" lon="16.38956773156443" id="-41840">
		<tag k="fixme" v="consider place=hamlet" />
		<tag k="name" v="Høgda" />
=======
	<node id="-840974" lat="69.0187361129" lon="16.5356388967">
		<tag k="name" v="Grønnvoll" />
		<tag k="place" v="isolated_dwelling" />
		<tag k="ssr:stedsnr" v="37737" />
	</node>
	<node id="-840963" lat="68.6076416701" lon="16.4933638788">
		<tag k="name" v="Elvelund" />
>>>>>>> e1d4bc35ff8a6074a6f2e91616a996b547c36f15
		<tag k="place" v="farm" />
		<tag k="ssr:stedsnr" v="624408" />
	</node>
<<<<<<< HEAD
	<node lat="68.82769167036834" lon="16.565605548082" id="-41842">
		<tag k="landuse" v="military" />
		<tag k="name" v="Trondenes" />
		<tag k="ssr:stedsnr" v="624414" />
	</node>
	<node lat="68.82776134223577" lon="16.488280959405923" id="-41845">
		<tag k="fixme" v="consider place=hamlet" />
		<tag k="name" v="Undlandet" />
=======
	<node id="-840961" lat="68.6651569325" lon="16.5827874526">
		<tag k="alt_name:no" v="Fauskevåg, store" />
		<tag k="fixme" v="multiple name tags, choose one and add the other to alt_name; consider place=hamlet" />
		<tag k="loc_name:se" v="Hosváhki" />
		<tag k="name" v="Fauskevåg;Store Fauskevåg" />
		<tag k="name:no" v="Fauskevåg;Store Fauskevåg" />
		<tag k="place" v="farm" />
		<tag k="ssr:stedsnr" v="20084" />
	</node>
	<node id="-840958" lat="68.644680559" lon="16.5810222316">
		<tag k="name" v="Brattland" />
>>>>>>> e1d4bc35ff8a6074a6f2e91616a996b547c36f15
		<tag k="place" v="farm" />
		<tag k="ssr:stedsnr" v="624420" />
	</node>
<<<<<<< HEAD
	<node lat="68.71184166547609" lon="16.59233612082961" id="-41858">
		<tag k="name" v="Solstad" />
=======
	<node id="-840957" lat="68.5818805528" lon="16.498091674">
		<tag k="name" v="Elvevoll" />
>>>>>>> e1d4bc35ff8a6074a6f2e91616a996b547c36f15
		<tag k="place" v="farm" />
		<tag k="ssr:stedsnr" v="624875" />
	</node>
<<<<<<< HEAD
	<node lat="68.68059166906126" lon="16.53585555692865" id="-41863">
		<tag k="name" v="Halsebø" />
=======
	<node id="-840955" lat="68.6796555519" lon="16.512824999">
		<tag k="name" v="Nyheim" />
>>>>>>> e1d4bc35ff8a6074a6f2e91616a996b547c36f15
		<tag k="place" v="farm" />
		<tag k="ssr:stedsnr" v="626154" />
	</node>
<<<<<<< HEAD
	<node lat="68.69093676926161" lon="16.546481815989726" id="-41864">
		<tag k="alt_name" v="Melvik" />
		<tag k="fixme" v="consider place=hamlet" />
		<tag k="name" v="Melvika" />
		<tag k="place" v="farm" />
		<tag k="ssr:stedsnr" v="627162" />
	</node>
	<node lat="68.56900833292148" lon="16.51797777609018" id="-41870">
		<tag k="name" v="Sandtorgholmen" />
=======
	<node id="-840935" lat="68.8853250042" lon="16.5387166621">
		<tag k="name" v="Litleheia" />
		<tag k="place" v="locality" />
		<tag k="ssr:stedsnr" v="18554" />
	</node>
	<node id="-840934" lat="68.8886297739" lon="16.3034109194">
		<tag k="fixme" v="consider place=hamlet" />
		<tag k="name" v="Ytter-Aun" />
>>>>>>> e1d4bc35ff8a6074a6f2e91616a996b547c36f15
		<tag k="place" v="farm" />
		<tag k="ssr:stedsnr" v="637640" />
	</node>
<<<<<<< HEAD
	<node lat="68.82348611087026" lon="16.43750277735626" id="-41874">
		<tag k="name" v="Hansvoll" />
=======
	<node id="-840904" lat="68.8376805545" lon="16.381094447">
		<tag k="name" v="Olderteigen" />
>>>>>>> e1d4bc35ff8a6074a6f2e91616a996b547c36f15
		<tag k="place" v="farm" />
		<tag k="ssr:stedsnr" v="643692" />
	</node>
<<<<<<< HEAD
	<node lat="68.89143055260882" lon="16.252977770318644" id="-41876">
		<tag k="fixme" v="consider place=hamlet" />
		<tag k="name" v="Inner-Elgsnes" />
=======
	<node id="-840878" lat="68.7578972217" lon="16.5693305488">
		<tag k="name" v="Hals" />
>>>>>>> e1d4bc35ff8a6074a6f2e91616a996b547c36f15
		<tag k="place" v="farm" />
		<tag k="ssr:stedsnr" v="707736" />
	</node>
<<<<<<< HEAD
	<node lat="68.83433257237691" lon="16.485947781816353" id="-41894">
		<tag k="fixme" v="consider place=hamlet" />
		<tag k="name" v="Røykenes" />
=======
	<node id="-840873" lat="68.6281083317" lon="16.5582055625">
		<tag k="name" v="Elvehøy" />
>>>>>>> e1d4bc35ff8a6074a6f2e91616a996b547c36f15
		<tag k="place" v="farm" />
		<tag k="ssr:stedsnr" v="664009" />
	</node>
<<<<<<< HEAD
	<node lat="68.7503000012839" lon="16.541802765883073" id="-41912">
		<tag k="name" v="Hamran" />
		<tag k="place" v="locality" />
		<tag k="ssr:stedsnr" v="685295" />
	</node>
	<node lat="68.87705928566437" lon="16.566464859753133" id="-41917">
		<tag k="fixme" v="consider place=hamlet" />
		<tag k="name" v="Lundenes" />
=======
	<node id="-840847" lat="68.7951527736" lon="16.4346805493">
		<tag k="landuse" v="military" />
		<tag k="name" v="Åsegarden" />
		<tag k="ssr:stedsnr" v="928446" />
	</node>
	<node id="-840845" lat="68.8444027814" lon="16.2755777716">
		<tag k="name" v="Skjærstad" />
>>>>>>> e1d4bc35ff8a6074a6f2e91616a996b547c36f15
		<tag k="place" v="farm" />
		<tag k="ssr:stedsnr" v="685596" />
	</node>
<<<<<<< HEAD
	<node lat="68.73932096428032" lon="16.428704546089126" id="-41922">
		<tag k="fixme" v="consider place=hamlet" />
		<tag k="name" v="Storvassbotn" />
		<tag k="place" v="farm" />
		<tag k="ssr:stedsnr" v="685941" />
	</node>
	<node lat="68.74221666984212" lon="16.557511100959044" id="-41923">
		<tag k="name" v="Ruggevika" />
		<tag k="place" v="village" />
		<tag k="ssr:stedsnr" v="685948" />
	</node>
	<node lat="68.61688380318157" lon="16.54419476712918" id="-41926">
		<tag k="alt_name" v="Lilleeng" />
		<tag k="name" v="Litlenga" />
=======
	<node id="-840816" lat="68.8462527745" lon="16.2744944386">
		<tag k="name" v="Skjærstad" />
		<tag k="place" v="farm" />
		<tag k="ssr:stedsnr" v="874512" />
	</node>
	<node id="-840814" lat="68.8746638916" lon="16.3603944352">
		<tag k="name" v="Inner-Aun" />
>>>>>>> e1d4bc35ff8a6074a6f2e91616a996b547c36f15
		<tag k="place" v="farm" />
		<tag k="ssr:stedsnr" v="687237" />
	</node>
<<<<<<< HEAD
	<node lat="68.57930277880207" lon="16.501397223808222" id="-41932">
		<tag k="name" v="Sandtorgholmen" />
=======
	<node id="-840813" lat="68.8833055565" lon="16.3308555546">
		<tag k="name" v="Med-Aun" />
>>>>>>> e1d4bc35ff8a6074a6f2e91616a996b547c36f15
		<tag k="place" v="farm" />
		<tag k="ssr:stedsnr" v="698565" />
	</node>
<<<<<<< HEAD
	<node lat="68.83727500072307" lon="16.367541657474515" id="-41947">
		<tag k="name" v="Nyvoll" />
=======
	<node id="-840812" lat="68.8752680505" lon="16.3524161543">
		<tag k="fixme" v="consider place=hamlet" />
		<tag k="name" v="Inner-Aun" />
>>>>>>> e1d4bc35ff8a6074a6f2e91616a996b547c36f15
		<tag k="place" v="farm" />
		<tag k="ssr:stedsnr" v="723986" />
	</node>
<<<<<<< HEAD
	<node lat="68.81373055970758" lon="16.54321387835118" id="-41971">
		<tag k="amenity" v="school" />
		<tag k="name" v="Hagebyen skole" />
		<tag k="ssr:stedsnr" v="725439" />
	</node>
	<node lat="68.7265277792393" lon="16.44511388238347" id="-41972">
		<tag k="name" v="Finnjonsgamma" />
		<tag k="place" v="locality" />
		<tag k="ssr:stedsnr" v="725927" />
	</node>
	<node lat="68.7268384328029" lon="16.64327707524351" id="-41978">
		<tag k="fixme" v="consider place=hamlet" />
		<tag k="name" v="Rogla" />
=======
	<node id="-840808" lat="68.8179277807" lon="16.5295138777">
		<tag k="name" v="Nygård" />
		<tag k="place" v="isolated_dwelling" />
		<tag k="ssr:stedsnr" v="947778" />
	</node>
	<node id="-840807" lat="68.8246805551" lon="16.4392416772">
		<tag k="name" v="Solbakken" />
		<tag k="place" v="farm" />
		<tag k="ssr:stedsnr" v="947676" />
	</node>
	<node id="-840786" lat="68.983656849" lon="16.4746084822">
		<tag k="fixme" v="consider place=hamlet" />
		<tag k="name" v="Vestnes" />
>>>>>>> e1d4bc35ff8a6074a6f2e91616a996b547c36f15
		<tag k="place" v="farm" />
		<tag k="ssr:stedsnr" v="726907" />
	</node>
<<<<<<< HEAD
	<node lat="68.75920052437311" lon="16.399495638073198" id="-41984">
		<tag k="fixme" v="consider place=hamlet" />
		<tag k="name" v="Steinneset" />
=======
	<node id="-840785" lat="68.8375305589" lon="16.2899194365">
		<tag k="name" v="Skjærstad" />
>>>>>>> e1d4bc35ff8a6074a6f2e91616a996b547c36f15
		<tag k="place" v="farm" />
		<tag k="ssr:stedsnr" v="901961" />
	</node>
<<<<<<< HEAD
	<node lat="69.07380556025132" lon="16.505905547663776" id="-41989">
		<tag k="fixme" v="consider place=hamlet" />
		<tag k="name" v="Meløyvær" />
		<tag k="place" v="village" />
		<tag k="ssr:stedsnr" v="745113" />
	</node>
	<node lat="68.81831944145969" lon="16.53177500824018" id="-42001">
		<tag k="name" v="Hagan" />
		<tag k="place" v="suburb" />
		<tag k="ssr:stedsnr" v="746378" />
	</node>
	<node lat="68.90583610704935" lon="16.60794444132591" id="-42004">
		<tag k="name" v="Stormyra" />
=======
	<node id="-840784" lat="68.6703111074" lon="16.4964083341">
		<tag k="name" v="Sørvikmarken" />
>>>>>>> e1d4bc35ff8a6074a6f2e91616a996b547c36f15
		<tag k="place" v="farm" />
		<tag k="ssr:stedsnr" v="746575" />
	</node>
<<<<<<< HEAD
	<node lat="68.70381624254065" lon="16.583086308048532" id="-42005">
		<tag k="name" v="Litlefor" />
=======
	<node id="-840783" lat="68.6842722242" lon="16.5449000034">
		<tag k="name" v="Nordeng" />
>>>>>>> e1d4bc35ff8a6074a6f2e91616a996b547c36f15
		<tag k="place" v="farm" />
		<tag k="ssr:stedsnr" v="746878" />
	</node>
<<<<<<< HEAD
	<node lat="68.62233333641484" lon="16.555100009184883" id="-42007">
		<tag k="name" v="Storenga" />
		<tag k="place" v="isolated_dwelling" />
		<tag k="ssr:stedsnr" v="748014" />
	</node>
	<node lat="68.88039722573293" lon="16.341611115818186" id="-42011">
		<tag k="fixme" v="consider place=hamlet" />
		<tag k="name" v="Aun" />
		<tag k="place" v="village" />
		<tag k="ssr:stedsnr" v="751567" />
	</node>
	<node lat="68.83804722572816" lon="16.284025011289884" id="-42014">
		<tag k="name" v="Skjærstad" />
=======
	<node id="-840782" lat="68.8797372365" lon="16.545212117">
		<tag k="name" v="For" />
		<tag k="place" v="hamlet" />
		<tag k="ssr:stedsnr" v="815462" />
	</node>
	<node id="-840780" lat="68.663007779" lon="16.5736064418">
		<tag k="alt_name" v="Fauskevåg, litle" />
		<tag k="fixme" v="consider place=hamlet" />
		<tag k="name" v="Litle Fauskevåg" />
		<tag k="place" v="farm" />
		<tag k="ssr:stedsnr" v="930088" />
	</node>
	<node id="-840778" lat="68.6670611144" lon="16.4908722293">
		<tag k="name" v="Jørnstad" />
>>>>>>> e1d4bc35ff8a6074a6f2e91616a996b547c36f15
		<tag k="place" v="farm" />
		<tag k="ssr:stedsnr" v="752461" />
	</node>
<<<<<<< HEAD
	<node lat="69.02720575905145" lon="16.49193434247336" id="-42023">
		<tag k="alt_name" v="Bornøy" />
		<tag k="fixme" v="consider place=hamlet" />
		<tag k="name" v="Bornøya" />
=======
	<node id="-840775" lat="68.6557249982" lon="16.589577768">
		<tag k="name" v="Nordheim" />
>>>>>>> e1d4bc35ff8a6074a6f2e91616a996b547c36f15
		<tag k="place" v="farm" />
		<tag k="ssr:stedsnr" v="906096" />
	</node>
<<<<<<< HEAD
	<node lat="68.91384722147045" lon="16.61071387618801" id="-42058">
		<tag k="name" v="Skjellesvik" />
		<tag k="place" v="farm" />
		<tag k="ssr:stedsnr" v="906799" />
	</node>
	<node lat="68.91821388942186" lon="16.267777767127406" id="-42079">
		<tag k="name" v="Ebergplassen" />
=======
	<node id="-840771" lat="68.6558833337" lon="16.4317416639">
		<tag k="name" v="Nygård" />
>>>>>>> e1d4bc35ff8a6074a6f2e91616a996b547c36f15
		<tag k="place" v="farm" />
		<tag k="ssr:stedsnr" v="908036" />
	</node>
<<<<<<< HEAD
	<node lat="68.82349032263069" lon="16.39619142000682" id="-42088">
=======
	<node id="-840770" lat="68.6470335182" lon="16.4314303102">
>>>>>>> e1d4bc35ff8a6074a6f2e91616a996b547c36f15
		<tag k="fixme" v="consider place=hamlet" />
		<tag k="name" v="Kaltdalen" />
		<tag k="place" v="farm" />
		<tag k="ssr:stedsnr" v="908992" />
	</node>
<<<<<<< HEAD
	<node lat="68.8905515435106" lon="16.253022979805213" id="-42100">
		<tag k="name" v="Indre Elgsnes" />
		<tag k="old_name" v="Elgsnes indre;Elgsness innre" />
=======
	<node id="-840769" lat="68.6390264078" lon="16.5726961079">
		<tag k="alt_name" v="Leikvik" />
		<tag k="fixme" v="consider place=hamlet" />
		<tag k="name" v="Leikvika" />
>>>>>>> e1d4bc35ff8a6074a6f2e91616a996b547c36f15
		<tag k="place" v="farm" />
		<tag k="ssr:stedsnr" v="784005" />
	</node>
<<<<<<< HEAD
	<node lat="68.76316388966201" lon="16.553838894178167" id="-42124">
		<tag k="name" v="Heggen" />
		<tag k="place" v="isolated_dwelling" />
		<tag k="ssr:stedsnr" v="784997" />
	</node>
	<node lat="68.81874444876587" lon="16.55601388972558" id="-42135">
		<tag k="amenity" v="school" />
		<tag k="name" v="Trondenes Folkehøgskole" />
		<tag k="ssr:stedsnr" v="786518" />
	</node>
	<node lat="68.72904722139052" lon="16.63833332326923" id="-42145">
		<tag k="name" v="Rogla" />
		<tag k="place" v="farm" />
		<tag k="ssr:stedsnr" v="787886" />
	</node>
	<node lat="68.77899722574728" lon="16.587755560192708" id="-42154">
		<tag k="name" v="Sør Stangnes" />
		<tag k="place" v="quarter" />
		<tag k="ssr:stedsnr" v="819784" />
	</node>
	<node lat="68.75002095561842" lon="16.382537972284254" id="-42157">
		<tag k="fixme" v="consider place=hamlet" />
		<tag k="name" v="Lyngmoen" />
		<tag k="place" v="farm" />
		<tag k="ssr:stedsnr" v="841928" />
	</node>
	<node lat="69.00901130711978" lon="16.530940453697937" id="-42162">
		<tag k="alt_name" v="Viken" />
		<tag k="fixme" v="consider place=hamlet" />
		<tag k="name" v="Vika" />
=======
	<node id="-840544" lat="68.8381749965" lon="16.287222224">
		<tag k="name" v="Skjærstad" />
		<tag k="place" v="farm" />
		<tag k="ssr:stedsnr" v="692463" />
	</node>
	<node id="-840766" lat="68.7132416639" lon="16.545922219">
		<tag k="alt_name" v="Asplia" />
		<tag k="name" v="Aspeli" />
		<tag k="place" v="farm" />
		<tag k="ssr:stedsnr" v="928886" />
	</node>
	<node id="-842803" lat="68.7915405473" lon="16.5144440208">
		<tag k="fixme" v="consider place=hamlet" />
		<tag k="name" v="Øvre Harstad" />
		<tag k="place" v="farm" />
		<tag k="ssr:stedsnr" v="1077065" />
	</node>
	<node id="-840754" lat="68.8830083313" lon="16.6852583385">
		<tag k="name" v="Åkerøya" />
>>>>>>> e1d4bc35ff8a6074a6f2e91616a996b547c36f15
		<tag k="place" v="farm" />
		<tag k="ssr:stedsnr" v="845281" />
	</node>
<<<<<<< HEAD
	<node lat="68.88366588566225" lon="16.495647095639733" id="-42191">
		<tag k="alt_name" v="Bjørnrå Ytre" />
		<tag k="fixme" v="consider place=hamlet" />
		<tag k="name" v="Ytre Bjørnrå" />
		<tag k="place" v="farm" />
		<tag k="ssr:stedsnr" v="847403" />
	</node>
	<node lat="68.72643055265199" lon="16.639005545021657" id="-42193">
		<tag k="name" v="Rogla" />
=======
	<node id="-842801" lat="68.7971069679" lon="16.5357354396">
		<tag k="name" v="Erikstad" />
		<tag k="place" v="locality" />
		<tag k="ssr:stedsnr" v="1077062" />
	</node>
	<node id="-842800" lat="68.7881610096" lon="16.5653664706">
		<tag k="fixme" v="consider place=hamlet" />
		<tag k="name" v="Gangsås" />
		<tag k="place" v="farm" />
		<tag k="ssr:stedsnr" v="1077059" />
	</node>
	<node id="-842799" lat="68.7832805673" lon="16.5780295254">
		<tag k="fixme" v="consider place=hamlet" />
		<tag k="name" v="Søndre Stangnes" />
		<tag k="place" v="farm" />
		<tag k="ssr:stedsnr" v="1077058" />
	</node>
	<node id="-842798" lat="68.775424016" lon="16.6115286217">
		<tag k="name" v="Arnøya" />
		<tag k="place" v="locality" />
		<tag k="ssr:stedsnr" v="1077055" />
	</node>
	<node id="-840749" lat="68.8345991091" lon="16.3530792848">
		<tag k="alt_name" v="Erikstad, øvre" />
		<tag k="name" v="Øvre Erikstad" />
		<tag k="place" v="hamlet" />
		<tag k="ssr:stedsnr" v="928391" />
	</node>
	<node id="-840748" lat="68.8294416692" lon="16.3800388894">
		<tag k="name" v="Fageråsen" />
>>>>>>> e1d4bc35ff8a6074a6f2e91616a996b547c36f15
		<tag k="place" v="farm" />
		<tag k="ssr:stedsnr" v="848889" />
	</node>
<<<<<<< HEAD
	<node lat="69.01896231699429" lon="16.537224988765452" id="-42202">
		<tag k="alt_name" v="Sundsvollen, in" />
		<tag k="name" v="Indre Sundsvollen" />
=======
	<node id="-842795" lat="68.7475972662" lon="16.5430040247">
		<tag k="fixme" v="consider place=hamlet" />
		<tag k="name" v="Breivika" />
		<tag k="place" v="farm" />
		<tag k="ssr:stedsnr" v="1077040" />
	</node>
	<node id="-842794" lat="68.7169790601" lon="16.5377338892">
		<tag k="fixme" v="consider place=hamlet" />
		<tag k="name" v="Kilbotn" />
		<tag k="place" v="farm" />
		<tag k="ssr:stedsnr" v="1077039" />
	</node>
	<node id="-842793" lat="68.6853436852" lon="16.5362959991">
		<tag k="fixme" v="consider place=hamlet" />
		<tag k="name" v="Sørvika" />
		<tag k="place" v="farm" />
		<tag k="ssr:stedsnr" v="1077037" />
	</node>
	<node id="-840744" lat="69.0004249995" lon="16.5286000069">
		<tag k="name" v="Vollan" />
>>>>>>> e1d4bc35ff8a6074a6f2e91616a996b547c36f15
		<tag k="place" v="isolated_dwelling" />
		<tag k="ssr:stedsnr" v="928083" />
	</node>
	<node lat="69.00030683706527" lon="16.528719312812523" id="-42207">
		<tag k="name" v="Vollan" />
		<tag k="place" v="farm" />
		<tag k="ssr:stedsnr" v="928148" />
	</node>
<<<<<<< HEAD
	<node lat="68.8294416692499" lon="16.38003888937428" id="-42208">
		<tag k="name" v="Fageråsen" />
=======
	<node id="-840540" lat="68.9138472215" lon="16.6107138762">
		<tag k="name" v="Skjellesvik" />
		<tag k="place" v="farm" />
		<tag k="ssr:stedsnr" v="906799" />
	</node>
	<node id="-842790" lat="69.1603962895" lon="16.6188211191">
		<tag k="name" v="Steine" />
		<tag k="place" v="locality" />
		<tag k="ssr:stedsnr" v="1077007" />
	</node>
	<node id="-842789" lat="69.0410829722" lon="16.3927709725">
		<tag k="name" v="Froholman" />
		<tag k="place" v="locality" />
		<tag k="ssr:stedsnr" v="1077006" />
	</node>
	<node id="-840740" lat="69.0197653184" lon="16.5201391164">
		<tag k="alt_name" v="Sundsvollen, yt" />
		<tag k="fixme" v="multiple name tags, choose one and add the other to alt_name" />
		<tag k="name" v="Sundsvoll;Ytre Sundsvollen" />
		<tag k="old_name" v="Sundsvollen" />
>>>>>>> e1d4bc35ff8a6074a6f2e91616a996b547c36f15
		<tag k="place" v="farm" />
		<tag k="ssr:stedsnr" v="928371" />
	</node>
	<node lat="68.83459910905911" lon="16.353079284829377" id="-42209">
		<tag k="alt_name" v="Erikstad, øvre" />
		<tag k="name" v="Øvre Erikstad" />
		<tag k="place" v="hamlet" />
		<tag k="ssr:stedsnr" v="928391" />
	</node>
<<<<<<< HEAD
	<node lat="68.79515277359333" lon="16.434680549310272" id="-42213">
		<tag k="landuse" v="military" />
		<tag k="name" v="Åsegarden" />
		<tag k="ssr:stedsnr" v="928446" />
	</node>
	<node lat="68.87640000347638" lon="16.35244999887183" id="-42216">
		<tag k="name" v="Inner-Aun" />
=======
	<node id="-842787" lat="68.8203710483" lon="16.3693278135">
		<tag k="fixme" v="consider place=hamlet" />
		<tag k="name" v="Sjurdalen" />
		<tag k="place" v="farm" />
		<tag k="ssr:stedsnr" v="1076992" />
	</node>
	<node id="-842786" lat="68.8244915407" lon="16.4308396258">
		<tag k="fixme" v="consider place=hamlet" />
		<tag k="name" v="Jensvoll" />
		<tag k="place" v="farm" />
		<tag k="ssr:stedsnr" v="1076991" />
	</node>
	<node id="-840737" lat="69.0188472231" lon="16.5373083278">
		<tag k="alt_name" v="Sundsvollen, in" />
		<tag k="name" v="Indre Sundsvollen" />
		<tag k="place" v="isolated_dwelling" />
		<tag k="ssr:stedsnr" v="928083" />
	</node>
	<node id="-842784" lat="68.8196161332" lon="16.5405111457">
		<tag k="fixme" v="consider place=hamlet" />
		<tag k="name" v="Hesthagen" />
		<tag k="place" v="farm" />
		<tag k="ssr:stedsnr" v="1076984" />
	</node>
	<node id="-842783" lat="68.8194010724" lon="16.5571311297">
		<tag k="fixme" v="consider place=hamlet" />
		<tag k="name" v="Trondenes" />
		<tag k="place" v="farm" />
		<tag k="ssr:stedsnr" v="1076982" />
	</node>
	<node id="-842782" lat="68.7815015293" lon="16.4463348409">
		<tag k="fixme" v="consider place=hamlet" />
		<tag k="name" v="Øvre Sama" />
		<tag k="place" v="farm" />
		<tag k="ssr:stedsnr" v="1076980" />
	</node>
	<node id="-842781" lat="68.7987498259" lon="16.5129020714">
		<tag k="name" v="Nordre Harstad" />
		<tag k="place" v="locality" />
		<tag k="ssr:stedsnr" v="1076977" />
	</node>
	<node id="-842780" lat="69.6807751959" lon="19.0868014399">
		<tag k="fixme" v="consider place=hamlet" />
		<tag k="name" v="Krokelv" />
		<tag k="place" v="farm" />
		<tag k="ssr:stedsnr" v="1076826" />
	</node>
	<node id="-840728" lat="68.7329499984" lon="16.5614416709">
		<tag k="name" v="Vollen" />
>>>>>>> e1d4bc35ff8a6074a6f2e91616a996b547c36f15
		<tag k="place" v="farm" />
		<tag k="ssr:stedsnr" v="928567" />
	</node>
<<<<<<< HEAD
	<node lat="68.88300833133202" lon="16.685258338513584" id="-42217">
		<tag k="name" v="Åkerøya" />
		<tag k="place" v="farm" />
		<tag k="ssr:stedsnr" v="928572" />
	</node>
	<node lat="68.71324166392145" lon="16.54592221897676" id="-42230">
		<tag k="alt_name" v="Asplia" />
		<tag k="name" v="Aspeli" />
=======
	<node id="-842774" lat="68.6356728565" lon="16.3155647662">
		<tag k="name" v="Kommelhågen" />
		<tag k="place" v="farm" />
		<tag k="ssr:stedsnr" v="1075697" />
	</node>
	<node id="-842773" lat="69.6548386171" lon="18.9540555979">
		<tag k="amenity" v="school" />
		<tag k="name" v="Ishavsbyen videregående skole" />
		<tag k="ssr:stedsnr" v="1075695" />
	</node>
	<node id="-842771" lat="68.6003473392" lon="16.5040554627">
		<tag k="name" v="Haukebø" />
>>>>>>> e1d4bc35ff8a6074a6f2e91616a996b547c36f15
		<tag k="place" v="farm" />
		<tag k="ssr:stedsnr" v="928886" />
	</node>
<<<<<<< HEAD
	<node lat="68.63902640784006" lon="16.572696107906335" id="-42234">
		<tag k="alt_name" v="Leikvik" />
=======
	<node id="-842768" lat="68.6135117571" lon="16.5183055764">
>>>>>>> e1d4bc35ff8a6074a6f2e91616a996b547c36f15
		<tag k="fixme" v="consider place=hamlet" />
		<tag k="name" v="Leikvika" />
		<tag k="place" v="farm" />
		<tag k="ssr:stedsnr" v="930021" />
	</node>
<<<<<<< HEAD
	<node lat="68.72351666471107" lon="16.546775007176485" id="-42236">
		<tag k="name" v="Vindheim" />
=======
	<node id="-842767" lat="68.6004104277" lon="16.5047240656">
		<tag k="name" v="Haukebø" />
>>>>>>> e1d4bc35ff8a6074a6f2e91616a996b547c36f15
		<tag k="place" v="farm" />
		<tag k="ssr:stedsnr" v="867975" />
	</node>
<<<<<<< HEAD
	<node lat="68.65572499815485" lon="16.589577767984487" id="-42241">
		<tag k="name" v="Nordheim" />
		<tag k="place" v="farm" />
		<tag k="ssr:stedsnr" v="930078" />
	</node>
	<node lat="68.66706111441327" lon="16.490872229277002" id="-42244">
		<tag k="name" v="Jørnstad" />
=======
	<node id="-842766" lat="68.5825001957" lon="16.4999857341">
		<tag k="name" v="Årbogen" />
		<tag k="place" v="farm" />
		<tag k="ssr:stedsnr" v="1073180" />
	</node>
	<node id="-840716" lat="68.8153499965" lon="16.3612583274">
		<tag k="name" v="Fjellheimen" />
		<tag k="place" v="locality" />
		<tag k="ssr:stedsnr" v="786977" />
	</node>
	<node id="-840710" lat="68.8764000035" lon="16.3524499989">
		<tag k="name" v="Inner-Aun" />
>>>>>>> e1d4bc35ff8a6074a6f2e91616a996b547c36f15
		<tag k="place" v="farm" />
		<tag k="ssr:stedsnr" v="930084" />
	</node>
<<<<<<< HEAD
	<node lat="68.66300777896058" lon="16.573606441781394" id="-42246">
		<tag k="alt_name" v="Fauskevåg, litle" />
		<tag k="fixme" v="consider place=hamlet" />
		<tag k="name" v="Litle Fauskevåg" />
		<tag k="place" v="farm" />
		<tag k="ssr:stedsnr" v="930088" />
	</node>
	<node lat="68.87526805049627" lon="16.352416154267093" id="-42256">
		<tag k="fixme" v="consider place=hamlet" />
		<tag k="name" v="Inner-Aun" />
=======
	<node id="-842504" lat="68.7500209556" lon="16.3825379723">
		<tag k="fixme" v="consider place=hamlet" />
		<tag k="name" v="Lyngmoen" />
		<tag k="place" v="farm" />
		<tag k="ssr:stedsnr" v="841928" />
	</node>
	<node id="-842750" lat="68.7279904715" lon="16.5575353815">
		<tag k="fixme" v="consider place=hamlet" />
		<tag k="loc_name:se" v="Leaibi" />
		<tag k="name" v="Oldra" />
		<tag k="name:no" v="Oldra" />
		<tag k="place" v="village" />
		<tag k="ssr:stedsnr" v="991031" />
	</node>
	<node id="-842749" lat="68.6593562404" lon="16.4918587958">
		<tag k="loc_name:se" v="Vuovdesiida" />
		<tag k="name" v="Dalen" />
		<tag k="name:no" v="Dalen" />
		<tag k="place" v="hamlet" />
		<tag k="ssr:stedsnr" v="991030" />
	</node>
	<node id="-842748" lat="68.6721411863" lon="16.6250185436">
		<tag k="fixme" v="consider place=hamlet" />
		<tag k="name" v="Grasholmen" />
>>>>>>> e1d4bc35ff8a6074a6f2e91616a996b547c36f15
		<tag k="place" v="farm" />
		<tag k="ssr:stedsnr" v="871315" />
	</node>
<<<<<<< HEAD
	<node lat="68.8833055565122" lon="16.330855554620513" id="-42257">
		<tag k="name" v="Med-Aun" />
=======
	<node id="-842747" lat="68.7569006849" lon="16.3972085735">
		<tag k="name" v="Sjurnesset" />
>>>>>>> e1d4bc35ff8a6074a6f2e91616a996b547c36f15
		<tag k="place" v="farm" />
		<tag k="ssr:stedsnr" v="871318" />
	</node>
<<<<<<< HEAD
	<node lat="68.87466389158699" lon="16.360394435228407" id="-42258">
		<tag k="name" v="Inner-Aun" />
=======
	<node id="-842745" lat="68.7869988967" lon="16.5589518547">
		<tag k="fixme" v="consider place=hamlet" />
		<tag k="name" v="Gansås" />
>>>>>>> e1d4bc35ff8a6074a6f2e91616a996b547c36f15
		<tag k="place" v="farm" />
		<tag k="ssr:stedsnr" v="871320" />
	</node>
<<<<<<< HEAD
	<node lat="68.68427222423605" lon="16.544900003449303" id="-42260">
		<tag k="name" v="Nordeng" />
=======
	<node id="-842744" lat="68.7845888867" lon="16.5376999904">
		<tag k="loc_name" v="Nerbotn" />
		<tag k="name" v="Nerbotten" />
>>>>>>> e1d4bc35ff8a6074a6f2e91616a996b547c36f15
		<tag k="place" v="farm" />
		<tag k="ssr:stedsnr" v="931162" />
	</node>
	<node lat="68.84427750891138" lon="16.28065949091704" id="-42261">
		<tag k="fixme" v="consider place=hamlet" />
		<tag k="name" v="Skjærstad" />
		<tag k="place" v="village" />
		<tag k="ssr:stedsnr" v="878416" />
	</node>
<<<<<<< HEAD
	<node lat="68.8036055540258" lon="16.53393333361859" id="-42306">
=======
	<node id="-840690" lat="68.803605554" lon="16.5339333336">
>>>>>>> e1d4bc35ff8a6074a6f2e91616a996b547c36f15
		<tag k="amenity" v="sports_centre" />
		<tag k="name" v="Harstadhallen" />
		<tag k="ssr:stedsnr" v="909314" />
	</node>
<<<<<<< HEAD
	<node lat="68.73294999835245" lon="16.561441670852897" id="-42311">
		<tag k="name" v="Vollen" />
		<tag k="place" v="farm" />
		<tag k="ssr:stedsnr" v="927969" />
	</node>
	<node lat="68.84440278138686" lon="16.275577771552936" id="-42318">
		<tag k="name" v="Skjærstad" />
=======
	<node id="-840689" lat="68.8234903226" lon="16.39619142">
		<tag k="fixme" v="consider place=hamlet" />
		<tag k="name" v="Kaltdalen" />
		<tag k="place" v="farm" />
		<tag k="ssr:stedsnr" v="908992" />
	</node>
	<node id="-840680" lat="68.8803972257" lon="16.3416111158">
		<tag k="fixme" v="consider place=hamlet" />
		<tag k="name" v="Aun" />
		<tag k="place" v="village" />
		<tag k="ssr:stedsnr" v="751567" />
	</node>
	<node id="-840676" lat="68.9182138894" lon="16.2677777671">
		<tag k="name" v="Ebergplassen" />
>>>>>>> e1d4bc35ff8a6074a6f2e91616a996b547c36f15
		<tag k="place" v="farm" />
		<tag k="ssr:stedsnr" v="928404" />
	</node>
<<<<<<< HEAD
	<node lat="68.64703351821704" lon="16.431430310224275" id="-42327">
		<tag k="fixme" v="consider place=hamlet" />
		<tag k="loc_name:se" v="Suguluokta" />
		<tag k="name" v="Kommelhågen" />
		<tag k="name:no" v="Kommelhågen" />
=======
	<node id="-842722" lat="68.8388051598" lon="16.3457337081">
		<tag k="fixme" v="consider place=hamlet" />
		<tag k="name" v="Erikstad" />
>>>>>>> e1d4bc35ff8a6074a6f2e91616a996b547c36f15
		<tag k="place" v="farm" />
		<tag k="ssr:stedsnr" v="930044" />
	</node>
<<<<<<< HEAD
	<node lat="68.65588333369756" lon="16.431741663941754" id="-42328">
		<tag k="name" v="Nygård" />
		<tag k="place" v="farm" />
		<tag k="ssr:stedsnr" v="930051" />
	</node>
	<node lat="68.67031110739319" lon="16.496408334132944" id="-42331">
		<tag k="name" v="Sørvikmarken" />
=======
	<node id="-842720" lat="68.9827055601" lon="16.5696138819">
		<tag k="name" v="Vollen" />
		<tag k="place" v="farm" />
		<tag k="ssr:stedsnr" v="966942" />
	</node>
	<node id="-840669" lat="68.6823944482" lon="16.519872234">
		<tag k="name" v="Olsrud" />
		<tag k="place" v="farm" />
		<tag k="ssr:stedsnr" v="749154" />
	</node>
	<node id="-842716" lat="68.7935861113" lon="16.5258833343">
		<tag k="amenity" v="school" />
		<tag k="name" v="Heggen videregående skole" />
		<tag k="ssr:stedsnr" v="966839" />
	</node>
	<node id="-840662" lat="68.6223333364" lon="16.5551000092">
		<tag k="name" v="Storenga" />
		<tag k="place" v="isolated_dwelling" />
		<tag k="ssr:stedsnr" v="748014" />
	</node>
	<node id="-842706" lat="68.6710250037" lon="16.5028889009">
		<tag k="name" v="Elvegård" />
>>>>>>> e1d4bc35ff8a6074a6f2e91616a996b547c36f15
		<tag k="place" v="farm" />
		<tag k="ssr:stedsnr" v="935470" />
	</node>
<<<<<<< HEAD
	<node lat="68.61195000125088" lon="16.517244444945696" id="-42353">
=======
	<node id="-842698" lat="68.6119500013" lon="16.5172444449">
>>>>>>> e1d4bc35ff8a6074a6f2e91616a996b547c36f15
		<tag k="amenity" v="school" />
		<tag k="name" v="Gausvik skole" />
		<tag k="ssr:stedsnr" v="966502" />
	</node>
<<<<<<< HEAD
	<node lat="68.98270556005038" lon="16.56961388189848" id="-42360">
		<tag k="name" v="Vollen" />
=======
	<node id="-840633" lat="69.0738055603" lon="16.5059055477">
		<tag k="fixme" v="consider place=hamlet" />
		<tag k="name" v="Meløyvær" />
		<tag k="place" v="village" />
		<tag k="ssr:stedsnr" v="745113" />
	</node>
	<node id="-840622" lat="69.0272057591" lon="16.4919343425">
		<tag k="alt_name" v="Bornøy" />
		<tag k="fixme" v="consider place=hamlet" />
		<tag k="name" v="Bornøya" />
		<tag k="place" v="farm" />
		<tag k="ssr:stedsnr" v="906096" />
	</node>
	<node id="-842669" lat="68.6107333352" lon="16.5001361041">
		<tag k="name" v="Smedbakken" />
		<tag k="place" v="farm" />
		<tag k="ssr:stedsnr" v="869246" />
	</node>
	<node id="-842667" lat="68.6771916626" lon="16.5073249982">
		<tag k="name" v="Brønnlund" />
>>>>>>> e1d4bc35ff8a6074a6f2e91616a996b547c36f15
		<tag k="place" v="farm" />
		<tag k="ssr:stedsnr" v="966942" />
	</node>
<<<<<<< HEAD
	<node lat="68.83880515984778" lon="16.345733708079834" id="-42361">
		<tag k="fixme" v="consider place=hamlet" />
		<tag k="name" v="Erikstad" />
=======
	<node id="-842666" lat="68.6687805564" lon="16.5103638848">
		<tag k="name" v="Vikevatnet" />
>>>>>>> e1d4bc35ff8a6074a6f2e91616a996b547c36f15
		<tag k="place" v="farm" />
		<tag k="ssr:stedsnr" v="966991" />
	</node>
<<<<<<< HEAD
	<node lat="68.78458888671747" lon="16.53769999040894" id="-42373">
		<tag k="loc_name" v="Nerbotn" />
		<tag k="name" v="Nerbotten" />
=======
	<node id="-842649" lat="68.7235166647" lon="16.5467750072">
		<tag k="name" v="Vindheim" />
>>>>>>> e1d4bc35ff8a6074a6f2e91616a996b547c36f15
		<tag k="place" v="farm" />
		<tag k="ssr:stedsnr" v="970658" />
	</node>
<<<<<<< HEAD
	<node lat="68.67214118628291" lon="16.62501854359889" id="-42375">
		<tag k="fixme" v="consider place=hamlet" />
		<tag k="name" v="Grasholmen" />
=======
	<node id="-842648" lat="68.7203722215" lon="16.5392639001">
		<tag k="name" v="Brannhaugen" />
>>>>>>> e1d4bc35ff8a6074a6f2e91616a996b547c36f15
		<tag k="place" v="farm" />
		<tag k="ssr:stedsnr" v="990971" />
	</node>
<<<<<<< HEAD
	<node lat="68.83768055450352" lon="16.381094446953508" id="-42394">
		<tag k="name" v="Olderteigen" />
=======
	<node id="-840598" lat="68.7592005244" lon="16.3994956381">
		<tag k="fixme" v="consider place=hamlet" />
		<tag k="name" v="Steinneset" />
>>>>>>> e1d4bc35ff8a6074a6f2e91616a996b547c36f15
		<tag k="place" v="farm" />
		<tag k="ssr:stedsnr" v="17442" />
	</node>
<<<<<<< HEAD
	<node lat="68.8853250042293" lon="16.538716662068857" id="-42400">
		<tag k="name" v="Litleheia" />
		<tag k="place" v="locality" />
		<tag k="ssr:stedsnr" v="18554" />
	</node>
	<node lat="68.8886297738573" lon="16.303410919443113" id="-42421">
		<tag k="fixme" v="consider place=hamlet" />
		<tag k="name" v="Ytter-Aun" />
=======
	<node id="-842644" lat="68.9612138916" lon="16.7028138806">
		<tag k="name" v="Hallevika" />
		<tag k="place" v="locality" />
		<tag k="ssr:stedsnr" v="867762" />
	</node>
	<node id="-842642" lat="68.991072218" lon="16.5292361052">
		<tag k="name" v="Vollen" />
		<tag k="place" v="farm" />
		<tag k="ssr:stedsnr" v="867734" />
	</node>
	<node id="-840593" lat="68.9657650276" lon="16.2595319158">
		<tag k="fixme" v="consider place=hamlet" />
		<tag k="name" v="Grøta" />
		<tag k="place" v="farm" />
		<tag k="ssr:stedsnr" v="726160" />
	</node>
	<node id="-842636" lat="68.8894343892" lon="16.5968464108">
		<tag k="fixme" v="consider place=hamlet" />
		<tag k="name" v="Bessebostad" />
		<tag k="place" v="farm" />
		<tag k="ssr:stedsnr" v="867592" />
	</node>
	<node id="-840587" lat="68.6648666641" lon="16.5866805537">
		<tag k="alt_name" v="Fauskevåg Store" />
		<tag k="name" v="Store Fauskevåg" />
>>>>>>> e1d4bc35ff8a6074a6f2e91616a996b547c36f15
		<tag k="place" v="farm" />
		<tag k="ssr:stedsnr" v="18546" />
	</node>
<<<<<<< HEAD
	<node lat="68.67965555190105" lon="16.512824998964994" id="-42434">
		<tag k="name" v="Nyheim" />
		<tag k="place" v="farm" />
		<tag k="ssr:stedsnr" v="20122" />
	</node>
	<node lat="68.66515693248543" lon="16.582787452640265" id="-42436">
		<tag k="alt_name:no" v="Fauskevåg, store" />
		<tag k="fixme" v="multiple name tags, choose one and add the other to alt_name; consider place=hamlet" />
		<tag k="loc_name:se" v="Hosváhki" />
		<tag k="name" v="Fauskevåg;Store Fauskevåg" />
		<tag k="name:no" v="Fauskevåg;Store Fauskevåg" />
=======
	<node id="-842631" lat="68.9439611107" lon="16.6734555633">
		<tag k="alt_name" v="Altevik" />
		<tag k="name" v="Altvika" />
		<tag k="place" v="farm" />
		<tag k="ssr:stedsnr" v="867544" />
	</node>
	<node id="-842622" lat="68.7615555574" lon="16.5196222235">
		<tag k="fixme" v="consider tourism=alpine_hut or tourism=chalet" />
		<tag k="name" v="Maistua" />
		<tag k="ssr:stedsnr" v="867458" />
		<tag k="tourism" v="wilderness_hut" />
	</node>
	<node id="-840572" lat="68.8372750007" lon="16.3675416575">
		<tag k="name" v="Nyvoll" />
>>>>>>> e1d4bc35ff8a6074a6f2e91616a996b547c36f15
		<tag k="place" v="farm" />
		<tag k="ssr:stedsnr" v="20084" />
	</node>
<<<<<<< HEAD
	<node lat="68.58188055277523" lon="16.498091673981452" id="-42438">
		<tag k="name" v="Elvevoll" />
=======
	<node id="-842791" lat="69.0750159663" lon="16.5062134229">
		<tag k="fixme" v="consider place=hamlet" />
		<tag k="name" v="Meløy" />
		<tag k="place" v="farm" />
		<tag k="ssr:stedsnr" v="1077008" />
	</node>
	<node id="-842604" lat="68.7255888922" lon="16.6370916626">
		<tag k="name" v="Rogla" />
>>>>>>> e1d4bc35ff8a6074a6f2e91616a996b547c36f15
		<tag k="place" v="farm" />
		<tag k="ssr:stedsnr" v="20172" />
	</node>
<<<<<<< HEAD
	<node lat="68.60764167007822" lon="16.49336387880652" id="-42439">
		<tag k="name" v="Elvelund" />
=======
	<node id="-842603" lat="68.7264305527" lon="16.639005545">
		<tag k="name" v="Rogla" />
>>>>>>> e1d4bc35ff8a6074a6f2e91616a996b547c36f15
		<tag k="place" v="farm" />
		<tag k="ssr:stedsnr" v="20220" />
	</node>
<<<<<<< HEAD
	<node lat="69.01961370338513" lon="16.528244347865325" id="-42448">
		<tag k="name" v="Grønnvoll" />
=======
	<node id="-840548" lat="68.5793027788" lon="16.5013972238">
		<tag k="name" v="Sandtorgholmen" />
>>>>>>> e1d4bc35ff8a6074a6f2e91616a996b547c36f15
		<tag k="place" v="farm" />
		<tag k="ssr:stedsnr" v="37737" />
	</node>
<<<<<<< HEAD
	<node lat="68.83008889362462" lon="16.554427766604185" id="-42449">
		<tag k="name" v="Ringberg" />
=======
	<node id="-842592" lat="68.8836658857" lon="16.4956470956">
		<tag k="alt_name" v="Bjørnrå Ytre" />
		<tag k="fixme" v="consider place=hamlet" />
		<tag k="name" v="Ytre Bjørnrå" />
>>>>>>> e1d4bc35ff8a6074a6f2e91616a996b547c36f15
		<tag k="place" v="farm" />
		<tag k="ssr:stedsnr" v="37827" />
	</node>
<<<<<<< HEAD
	<node lat="68.8900888911056" lon="16.256336114904386" id="-42451">
		<tag k="name" v="Inner-Elgsnes" />
		<tag k="old_name" v="Elgsnes, indre" />
		<tag k="place" v="farm" />
		<tag k="ssr:stedsnr" v="40783" />
	</node>
	<node lat="68.75906666866723" lon="16.392166669766183" id="-42459">
		<tag k="name" v="Lykkja" />
		<tag k="place" v="isolated_dwelling" />
		<tag k="ssr:stedsnr" v="52938" />
	</node>
	<node lat="68.75889006012716" lon="16.383535828675758" id="-42460">
		<tag k="name" v="Einehaugen" />
		<tag k="place" v="farm" />
		<tag k="ssr:stedsnr" v="52943" />
	</node>
	<node lat="68.88591110941637" lon="16.69686389329284" id="-42499">
		<tag k="name" v="Åkerøya" />
		<tag k="place" v="farm" />
		<tag k="ssr:stedsnr" v="56544" />
	</node>
	<node lat="68.65092778031328" lon="16.429997218549484" id="-42503">
		<tag k="name" v="Gammelheimen" />
		<tag k="place" v="farm" />
		<tag k="ssr:stedsnr" v="56743" />
	</node>
	<node lat="68.67330277876931" lon="16.55947777718314" id="-42505">
		<tag k="name" v="Anders-Persaheimen" />
		<tag k="place" v="locality" />
		<tag k="ssr:stedsnr" v="56753" />
	</node>
	<node lat="68.81906666426102" lon="16.396138880527825" id="-42537">
		<tag k="name" v="Halvorsmo" />
=======
	<node id="-842589" lat="68.8039027779" lon="16.5358138928">
		<tag k="leisure" v="pitch" />
		<tag k="name" v="Harstad stadion" />
		<tag k="ssr:stedsnr" v="847275" />
	</node>
	<node id="-842588" lat="68.5800861105" lon="16.499069437">
		<tag k="name" v="Rundholm plass" />
		<tag k="place" v="square" />
		<tag k="ssr:stedsnr" v="847238" />
	</node>
	<node id="-840537" lat="68.8323472213" lon="16.4855333397">
		<tag k="name" v="Røykenes" />
		<tag k="place" v="farm" />
		<tag k="ssr:stedsnr" v="888667" />
	</node>
	<node id="-840529" lat="68.7962555557" lon="16.5251750067">
		<tag k="amenity" v="hospital" />
		<tag k="name" v="Harstad sykehus" />
		<tag k="ssr:stedsnr" v="299830" />
	</node>
	<node id="-842570" lat="68.7996166623" lon="16.5443666652">
		<tag k="name" v="Torvet" />
		<tag k="place" v="square" />
		<tag k="ssr:stedsnr" v="845821" />
	</node>
	<node id="-840511" lat="68.8442775089" lon="16.2806594909">
		<tag k="fixme" v="consider place=hamlet" />
		<tag k="name" v="Skjærstad" />
		<tag k="place" v="village" />
		<tag k="ssr:stedsnr" v="878416" />
	</node>
	<node id="-840486" lat="68.7595111123" lon="16.3890249988">
		<tag k="name" v="Tømmeråsen" />
		<tag k="place" v="isolated_dwelling" />
		<tag k="ssr:stedsnr" v="658926" />
	</node>
	<node id="-842532" lat="69.0090113071" lon="16.5309404537">
		<tag k="alt_name" v="Viken" />
		<tag k="fixme" v="consider place=hamlet" />
		<tag k="name" v="Vika" />
		<tag k="place" v="farm" />
		<tag k="ssr:stedsnr" v="845281" />
	</node>
	<node id="-840483" lat="68.8271194406" lon="16.5613194325">
		<tag k="name" v="Altevåg" />
		<tag k="place" v="isolated_dwelling" />
		<tag k="ssr:stedsnr" v="652856" />
	</node>
	<node id="-840471" lat="68.8451305524" lon="16.2764111028">
		<tag k="name" v="Skjærstad" />
>>>>>>> e1d4bc35ff8a6074a6f2e91616a996b547c36f15
		<tag k="place" v="farm" />
		<tag k="ssr:stedsnr" v="58966" />
	</node>
<<<<<<< HEAD
	<node lat="68.7724694430225" lon="16.552266669377417" id="-42543">
		<tag k="name" v="Kanebogen" />
		<tag k="place" v="suburb" />
		<tag k="ssr:stedsnr" v="78462" />
	</node>
	<node lat="69.03166533689817" lon="16.531733121068054" id="-42566">
		<tag k="alt_name" v="Helløy" />
=======
	<node id="-840469" lat="68.6909367693" lon="16.546481816">
		<tag k="alt_name" v="Melvik" />
		<tag k="fixme" v="consider place=hamlet" />
		<tag k="name" v="Melvika" />
		<tag k="place" v="farm" />
		<tag k="ssr:stedsnr" v="627162" />
	</node>
	<node id="-840466" lat="68.7268384328" lon="16.6432770752">
>>>>>>> e1d4bc35ff8a6074a6f2e91616a996b547c36f15
		<tag k="fixme" v="consider place=hamlet" />
		<tag k="name" v="Helløya" />
		<tag k="place" v="farm" />
		<tag k="ssr:stedsnr" v="79086" />
	</node>
<<<<<<< HEAD
	<node lat="68.80378055887968" lon="16.49035832672738" id="-42569">
		<tag k="name" v="Tofta" />
=======
	<node id="-842509" lat="69.0154918588" lon="16.3814982677">
		<tag k="fixme" v="consider place=hamlet" />
		<tag k="name" v="Lyngøy" />
>>>>>>> e1d4bc35ff8a6074a6f2e91616a996b547c36f15
		<tag k="place" v="farm" />
		<tag k="ssr:stedsnr" v="79360" />
	</node>
<<<<<<< HEAD
	<node lat="68.87314143224691" lon="16.696304285334854" id="-42575">
		<tag k="fixme" v="consider place=hamlet" />
		<tag k="name" v="Kjøtta" />
		<tag k="place" v="farm" />
		<tag k="ssr:stedsnr" v="79582" />
	</node>
	<node lat="68.87940555190032" lon="16.345613880689914" id="-42597">
		<tag k="name" v="Inner-Aun" />
		<tag k="place" v="farm" />
		<tag k="ssr:stedsnr" v="82326" />
	</node>
	<node lat="68.83761323552795" lon="16.282134036916396" id="-42598">
		<tag k="fixme" v="consider place=hamlet" />
		<tag k="name" v="Skjærstad" />
=======
	<node id="-840456" lat="68.7265277792" lon="16.4451138824">
		<tag k="name" v="Finnjonsgamma" />
		<tag k="place" v="locality" />
		<tag k="ssr:stedsnr" v="725927" />
	</node>
	<node id="-840452" lat="68.8260705495" lon="16.3895677316">
		<tag k="fixme" v="consider place=hamlet" />
		<tag k="name" v="Høgda" />
		<tag k="place" v="farm" />
		<tag k="ssr:stedsnr" v="624408" />
	</node>
	<node id="-840451" lat="68.8137305597" lon="16.5432138784">
		<tag k="amenity" v="school" />
		<tag k="name" v="Hagebyen skole" />
		<tag k="ssr:stedsnr" v="725439" />
	</node>
	<node id="-842498" lat="68.8895363962" lon="16.2511447539">
		<tag k="name" v="Inner-Elgsnes" />
		<tag k="place" v="farm" />
		<tag k="ssr:stedsnr" v="829724" />
	</node>
	<node id="-842496" lat="69.0338027781" lon="16.5339138793">
		<tag k="name" v="Sjølund" />
		<tag k="place" v="isolated_dwelling" />
		<tag k="ssr:stedsnr" v="826732" />
	</node>
	<node id="-842493" lat="68.8235194419" lon="16.4480722303">
		<tag k="name" v="Sørvoll" />
>>>>>>> e1d4bc35ff8a6074a6f2e91616a996b547c36f15
		<tag k="place" v="farm" />
		<tag k="ssr:stedsnr" v="85401" />
	</node>
	<node lat="68.91665555816071" lon="16.26268055408653" id="-42602">
		<tag k="name" v="Elgsnes" />
		<tag k="place" v="hamlet" />
		<tag k="ssr:stedsnr" v="89931" />
	</node>
<<<<<<< HEAD
	<node lat="68.64363055808663" lon="16.582175006172292" id="-42606">
		<tag k="name" v="Rysletta" />
		<tag k="place" v="isolated_dwelling" />
		<tag k="ssr:stedsnr" v="91828" />
	</node>
	<node lat="68.84590011284128" lon="16.488987152365883" id="-42609">
		<tag k="fixme" v="consider place=hamlet" />
		<tag k="name" v="Årnes" />
=======
	<node id="-842487" lat="68.7789972257" lon="16.5877555602">
		<tag k="name" v="Sør Stangnes" />
		<tag k="place" v="quarter" />
		<tag k="ssr:stedsnr" v="819784" />
	</node>
	<node id="-842485" lat="68.8845750015" lon="16.5820861199">
		<tag k="name" v="Lunde" />
>>>>>>> e1d4bc35ff8a6074a6f2e91616a996b547c36f15
		<tag k="place" v="farm" />
		<tag k="ssr:stedsnr" v="99733" />
	</node>
<<<<<<< HEAD
	<node lat="68.98966944257552" lon="16.536863892261447" id="-42620">
		<tag k="name" v="Skogneset" />
		<tag k="place" v="locality" />
		<tag k="ssr:stedsnr" v="115446" />
	</node>
	<node lat="68.79210277414178" lon="16.510172224042073" id="-42662">
		<tag k="name" v="Heggen" />
=======
	<node id="-840434" lat="68.7290944416" lon="16.6391277657">
		<tag k="name" v="Flotta" />
		<tag k="place" v="isolated_dwelling" />
		<tag k="ssr:stedsnr" v="724700" />
	</node>
	<node id="-842456" lat="69.0072941647" lon="16.4792852543">
		<tag k="alt_name" v="Leirvåg søndre" />
		<tag k="fixme" v="consider place=hamlet" />
		<tag k="loc_name" v="Sør-Leirvåg" />
		<tag k="name" v="Søndre Leirvåg" />
		<tag k="old_name" v="Leirvåg" />
>>>>>>> e1d4bc35ff8a6074a6f2e91616a996b547c36f15
		<tag k="place" v="farm" />
		<tag k="ssr:stedsnr" v="117837" />
	</node>
<<<<<<< HEAD
	<node lat="68.8367777750228" lon="16.288941675455266" id="-42667">
		<tag k="name" v="Mikkelgamman" />
		<tag k="place" v="locality" />
		<tag k="ssr:stedsnr" v="117900" />
	</node>
	<node lat="68.77999166782013" lon="16.561713885921" id="-42670">
		<tag k="name" v="Oldran" />
		<tag k="place" v="quarter" />
		<tag k="ssr:stedsnr" v="118062" />
	</node>
	<node lat="68.82466388905628" lon="16.384811109550785" id="-42689">
		<tag k="name" v="Høgda" />
=======
	<node id="-841508" lat="68.9928241538" lon="16.5243951128">
		<tag k="alt_name" v="Øvergård" />
		<tag k="fixme" v="consider place=hamlet" />
		<tag k="name" v="Øvergården" />
		<tag k="place" v="farm" />
		<tag k="ssr:stedsnr" v="200700" />
	</node>
	<node id="-842449" lat="68.7179861077" lon="16.5354277637">
		<tag k="name" v="Kilbotn" />
		<tag k="place" v="village" />
		<tag k="ssr:stedsnr" v="806899" />
	</node>
	<node id="-842443" lat="68.9644305574" lon="16.2620638834">
		<tag k="fixme" v="consider place=hamlet" />
		<tag k="name" v="Grøtavær" />
		<tag k="place" v="village" />
		<tag k="ssr:stedsnr" v="806494" />
	</node>
	<node id="-842435" lat="68.807366669" lon="16.5357805624">
		<tag k="name" v="Sama" />
>>>>>>> e1d4bc35ff8a6074a6f2e91616a996b547c36f15
		<tag k="place" v="hamlet" />
		<tag k="ssr:stedsnr" v="119989" />
	</node>
<<<<<<< HEAD
	<node lat="68.93900826575543" lon="16.354788562836283" id="-42702">
		<tag k="fixme" v="consider place=hamlet" />
		<tag k="name" v="Dale" />
=======
	<node id="-842434" lat="68.7290472214" lon="16.6383333233">
		<tag k="name" v="Rogla" />
>>>>>>> e1d4bc35ff8a6074a6f2e91616a996b547c36f15
		<tag k="place" v="farm" />
		<tag k="ssr:stedsnr" v="138545" />
	</node>
<<<<<<< HEAD
	<node lat="68.91295688189547" lon="16.60643366888054" id="-42706">
		<tag k="fixme" v="consider place=hamlet" />
		<tag k="name" v="Skjellesvika" />
=======
	<node id="-840383" lat="68.7144888859" lon="16.529983333">
		<tag k="name" v="Engnes" />
>>>>>>> e1d4bc35ff8a6074a6f2e91616a996b547c36f15
		<tag k="place" v="farm" />
		<tag k="ssr:stedsnr" v="138574" />
	</node>
<<<<<<< HEAD
	<node lat="68.80111666676302" lon="16.544144440182013" id="-42715">
		<tag k="name" v="Harstad - Hárstták" />
		<tag k="name:no" v="Harstad" />
		<tag k="name:se" v="Hárstták" />
		<tag k="place" v="town" />
		<tag k="ssr:stedsnr" v="139510" />
	</node>
	<node lat="68.79158888508309" lon="16.34214445243771" id="-42716">
		<tag k="name" v="Helgevallan" />
		<tag k="place" v="isolated_dwelling" />
		<tag k="ssr:stedsnr" v="139519" />
	</node>
	<node lat="68.63130131880011" lon="16.56515766924618" id="-42726">
		<tag k="alt_name" v="Hamn" />
		<tag k="fixme" v="consider place=hamlet" />
		<tag k="name" v="Hamna" />
		<tag k="place" v="farm" />
		<tag k="ssr:stedsnr" v="141027" />
	</node>
	<node lat="68.59531666531004" lon="16.50094999543162" id="-42727">
=======
	<node id="-842427" lat="68.8187444488" lon="16.5560138897">
		<tag k="amenity" v="school" />
		<tag k="name" v="Trondenes Folkehøgskole" />
		<tag k="ssr:stedsnr" v="786518" />
	</node>
	<node id="-840378" lat="68.8326583323" lon="16.4165000036">
>>>>>>> e1d4bc35ff8a6074a6f2e91616a996b547c36f15
		<tag k="name" v="Skoglund" />
		<tag k="place" v="isolated_dwelling" />
		<tag k="ssr:stedsnr" v="141191" />
	</node>
<<<<<<< HEAD
	<node lat="68.65831944261572" lon="16.389694447870202" id="-42730">
		<tag k="fixme" v="consider tourism=alpine_hut or tourism=chalet" />
		<tag k="name" v="Bjørnhaugen" />
		<tag k="ssr:stedsnr" v="141065" />
		<tag k="tourism" v="wilderness_hut" />
	</node>
	<node lat="68.60536944680388" lon="16.4946138819684" id="-42734">
		<tag k="name" v="Brattli" />
=======
	<node id="-842422" lat="68.8778138913" lon="16.5486972259">
		<tag k="name" v="Aspen" />
>>>>>>> e1d4bc35ff8a6074a6f2e91616a996b547c36f15
		<tag k="place" v="farm" />
		<tag k="ssr:stedsnr" v="141225" />
	</node>
<<<<<<< HEAD
	<node lat="68.92337777589894" lon="16.624619433155683" id="-42741">
		<tag k="name" v="Olsvik" />
=======
	<node id="-842421" lat="68.8775444478" lon="16.5623083412">
		<tag k="name" v="Smihågen" />
>>>>>>> e1d4bc35ff8a6074a6f2e91616a996b547c36f15
		<tag k="place" v="farm" />
		<tag k="ssr:stedsnr" v="150391" />
	</node>
<<<<<<< HEAD
	<node lat="68.95805833342612" lon="16.686811115276846" id="-42753">
		<tag k="name" v="Sommarro" />
=======
	<node id="-842397" lat="68.7631638897" lon="16.5538388942">
		<tag k="name" v="Heggen" />
>>>>>>> e1d4bc35ff8a6074a6f2e91616a996b547c36f15
		<tag k="place" v="isolated_dwelling" />
		<tag k="ssr:stedsnr" v="158793" />
	</node>
<<<<<<< HEAD
	<node lat="68.91810833397261" lon="16.26017221327362" id="-42754">
		<tag k="name" v="Ytter-Elgsnes" />
		<tag k="old_name" v="Elgsnes ytre" />
		<tag k="place" v="farm" />
		<tag k="ssr:stedsnr" v="161690" />
	</node>
	<node lat="68.75497777735737" lon="16.37112498788739" id="-42759">
		<tag k="name" v="Sommerro" />
		<tag k="place" v="isolated_dwelling" />
		<tag k="ssr:stedsnr" v="173927" />
	</node>
	<node lat="68.99186666554361" lon="16.526691668225496" id="-42767">
		<tag k="name" v="Vollen" />
		<tag k="place" v="hamlet" />
		<tag k="ssr:stedsnr" v="177029" />
	</node>
	<node lat="68.99989167085813" lon="16.565005557214153" id="-42768">
		<tag k="name" v="Nergårdshamn" />
		<tag k="place" v="hamlet" />
		<tag k="ssr:stedsnr" v="177031" />
	</node>
	<node lat="69.07486667080556" lon="16.510183334610087" id="-42771">
		<tag k="amenity" v="school" />
		<tag k="name" v="Meløyvær skole" />
		<tag k="ssr:stedsnr" v="177168" />
	</node>
	<node lat="68.8012638900417" lon="16.544777766084824" id="-42790">
		<tag k="name" v="Ottar Håløygs plass" />
		<tag k="place" v="square" />
		<tag k="ssr:stedsnr" v="177786" />
	</node>
	<node lat="68.79498333246949" lon="16.50491665544041" id="-42793">
		<tag k="leisure" v="park" />
		<tag k="name" v="Folkeparken" />
		<tag k="ssr:stedsnr" v="177833" />
	</node>
	<node lat="68.66973333424914" lon="16.50704166337535" id="-42801">
		<tag k="name" v="Buvoll" />
		<tag k="place" v="farm" />
		<tag k="ssr:stedsnr" v="178688" />
	</node>
	<node lat="68.774766669917" lon="16.56301667237483" id="-42808">
		<tag k="name" v="Kleiva" />
		<tag k="place" v="quarter" />
		<tag k="ssr:stedsnr" v="179076" />
	</node>
	<node lat="68.82919623952813" lon="16.487440594032467" id="-42810">
		<tag k="name" v="Undlandet" />
=======
	<node id="-840344" lat="68.8914305526" lon="16.2529777703">
		<tag k="fixme" v="consider place=hamlet" />
		<tag k="name" v="Inner-Elgsnes" />
		<tag k="place" v="farm" />
		<tag k="ssr:stedsnr" v="707736" />
	</node>
	<node id="-840337" lat="68.8895750018" lon="16.300749997">
		<tag k="barrier" v="fence" />
		<tag k="name" v="Ytter-Aungjerdet" />
		<tag k="ssr:stedsnr" v="567316" />
	</node>
	<node id="-840320" lat="68.7215111118" lon="16.5770472225">
		<tag k="name" v="Knatten" />
		<tag k="place" v="isolated_dwelling" />
		<tag k="ssr:stedsnr" v="543622" />
	</node>
	<node id="-842341" lat="68.8669111128" lon="16.3142833356">
		<tag k="name" v="Inner-Elgsnes" />
		<tag k="place" v="farm" />
		<tag k="ssr:stedsnr" v="784005" />
	</node>
	<node id="-842337" lat="68.9506000009" lon="16.6605861158">
		<tag k="name" v="Sand" />
		<tag k="place" v="hamlet" />
		<tag k="ssr:stedsnr" v="782890" />
	</node>
	<node id="-840288" lat="68.6723583324" lon="16.4983444426">
		<tag k="name" v="Østgård" />
>>>>>>> e1d4bc35ff8a6074a6f2e91616a996b547c36f15
		<tag k="place" v="farm" />
		<tag k="ssr:stedsnr" v="179048" />
	</node>
<<<<<<< HEAD
	<node lat="68.65174166782487" lon="16.591586115328894" id="-42817">
		<tag k="name" v="Bergvoll" />
=======
	<node id="-840281" lat="68.6507416631" lon="16.4431805572">
		<tag k="name" v="Nordli" />
>>>>>>> e1d4bc35ff8a6074a6f2e91616a996b547c36f15
		<tag k="place" v="farm" />
		<tag k="ssr:stedsnr" v="179654" />
	</node>
<<<<<<< HEAD
	<node lat="68.87875467319664" lon="16.549881061359795" id="-42841">
		<tag k="alt_name" v="For-Øvre;For, øvre" />
		<tag k="fixme" v="consider place=hamlet" />
		<tag k="name" v="Øvre For" />
		<tag k="place" v="farm" />
		<tag k="ssr:stedsnr" v="200606" />
	</node>
	<node lat="68.88693089747217" lon="16.463113678274798" id="-42842">
		<tag k="name" v="Varmedal" />
		<tag k="place" v="farm" />
		<tag k="ssr:stedsnr" v="200610" />
	</node>
	<node lat="68.65318816371646" lon="16.585507058910213" id="-42867">
		<tag k="alt_name" v="Voldstad" />
		<tag k="fixme" v="consider place=hamlet" />
		<tag k="name" v="Vollstad" />
=======
	<node id="-840280" lat="68.6493138851" lon="16.4395833345">
		<tag k="name" v="Åkertun" />
		<tag k="place" v="farm" />
		<tag k="ssr:stedsnr" v="687059" />
	</node>
	<node id="-840276" lat="68.734652779" lon="16.48618333">
		<tag k="name" v="Reingjerdan" />
		<tag k="place" v="locality" />
		<tag k="ssr:stedsnr" v="685968" />
	</node>
	<node id="-840274" lat="68.730834351" lon="16.3978959581">
		<tag k="fixme" v="consider place=hamlet" />
		<tag k="name" v="Sørli" />
		<tag k="place" v="farm" />
		<tag k="ssr:stedsnr" v="685963" />
	</node>
	<node id="-840272" lat="68.7422166698" lon="16.557511101">
		<tag k="name" v="Ruggevika" />
		<tag k="place" v="village" />
		<tag k="ssr:stedsnr" v="685948" />
	</node>
	<node id="-840271" lat="68.7393209643" lon="16.4287045461">
		<tag k="fixme" v="consider place=hamlet" />
		<tag k="name" v="Storvassbotn" />
		<tag k="place" v="farm" />
		<tag k="ssr:stedsnr" v="685941" />
	</node>
	<node id="-842318" lat="68.8633777767" lon="16.3198916752">
		<tag k="name" v="Inner-Elgsnes" />
>>>>>>> e1d4bc35ff8a6074a6f2e91616a996b547c36f15
		<tag k="place" v="farm" />
		<tag k="ssr:stedsnr" v="202054" />
	</node>
<<<<<<< HEAD
	<node lat="68.67522500248862" lon="16.501875003798123" id="-42870">
		<tag k="name" v="Søreng" />
		<tag k="place" v="farm" />
		<tag k="ssr:stedsnr" v="202124" />
	</node>
	<node lat="68.87488333299588" lon="16.358649990428052" id="-42874">
		<tag k="name" v="Inner-Aun" />
=======
	<node id="-842317" lat="68.9168388894" lon="16.2645333291">
		<tag k="name" v="Ytter-Elgsnes" />
		<tag k="place" v="farm" />
		<tag k="ssr:stedsnr" v="768756" />
	</node>
	<node id="-840264" lat="68.8770592857" lon="16.5664648598">
		<tag k="fixme" v="consider place=hamlet" />
		<tag k="name" v="Lundenes" />
		<tag k="place" v="farm" />
		<tag k="ssr:stedsnr" v="685596" />
	</node>
	<node id="-840262" lat="68.879555357" lon="16.5308437501">
		<tag k="alt_name" v="For-Nedre;For, nedre" />
		<tag k="fixme" v="consider place=hamlet" />
		<tag k="name" v="Nedre For" />
		<tag k="old_name" v="For" />
>>>>>>> e1d4bc35ff8a6074a6f2e91616a996b547c36f15
		<tag k="place" v="farm" />
		<tag k="ssr:stedsnr" v="204289" />
	</node>
<<<<<<< HEAD
	<node lat="68.84050277773872" lon="16.301799987304076" id="-42876">
=======
	<node id="-839777" lat="68.838449999" lon="16.2863972218">
		<tag k="name" v="Skjærstad" />
		<tag k="place" v="farm" />
		<tag k="ssr:stedsnr" v="267437" />
	</node>
	<node id="-842302" lat="68.8380472257" lon="16.2840250113">
>>>>>>> e1d4bc35ff8a6074a6f2e91616a996b547c36f15
		<tag k="name" v="Skjærstad" />
		<tag k="place" v="farm" />
		<tag k="ssr:stedsnr" v="206461" />
	</node>
<<<<<<< HEAD
	<node lat="68.88858055722173" lon="16.602580543937403" id="-42879">
		<tag k="name" v="Skjæret" />
		<tag k="place" v="farm" />
		<tag k="ssr:stedsnr" v="212379" />
	</node>
	<node lat="68.85247697536256" lon="16.483640633044224" id="-42884">
		<tag k="fixme" v="consider place=hamlet" />
		<tag k="name" v="Stornes" />
=======
	<node id="-842301" lat="68.8357111138" lon="16.290366671">
		<tag k="name" v="Skjærstad" />
		<tag k="place" v="farm" />
		<tag k="ssr:stedsnr" v="752442" />
	</node>
	<node id="-840250" lat="68.9274000012" lon="16.5113916737">
		<tag k="name" v="Jorda" />
		<tag k="place" v="locality" />
		<tag k="ssr:stedsnr" v="685536" />
	</node>
	<node id="-842295" lat="68.5701888899" lon="16.5124611134">
		<tag k="name" v="Reistad" />
>>>>>>> e1d4bc35ff8a6074a6f2e91616a996b547c36f15
		<tag k="place" v="farm" />
		<tag k="ssr:stedsnr" v="220767" />
	</node>
<<<<<<< HEAD
	<node lat="68.56597222363996" lon="16.498955547129096" id="-42891">
		<tag k="name" v="Sandtorg" />
		<tag k="place" v="farm" />
		<tag k="ssr:stedsnr" v="273715" />
	</node>
	<node lat="68.89029722219068" lon="16.254680546438653" id="-42893">
		<tag k="name" v="Inner-Elgsnes" />
		<tag k="old_name" v="Elgsnes innre" />
=======
	<node id="-840245" lat="68.9543363938" lon="16.6587159845">
		<tag k="fixme" v="consider place=hamlet" />
		<tag k="name" v="Nordsand" />
>>>>>>> e1d4bc35ff8a6074a6f2e91616a996b547c36f15
		<tag k="place" v="farm" />
		<tag k="ssr:stedsnr" v="283740" />
	</node>
<<<<<<< HEAD
	<node lat="68.8018694457514" lon="16.404516678521755" id="-42898">
		<tag k="leisure" v="pitch" />
		<tag k="name" v="Sollifjellet alpinsenter" />
		<tag k="ssr:stedsnr" v="294956" />
	</node>
	<node lat="68.64193333040392" lon="16.579347210649725" id="-42904">
		<tag k="name" v="Skogly" />
		<tag k="place" v="farm" />
		<tag k="ssr:stedsnr" v="300660" />
	</node>
	<node lat="68.65845833059628" lon="16.582211118905708" id="-42906">
		<tag k="name" v="Jonsgård" />
		<tag k="place" v="farm" />
		<tag k="ssr:stedsnr" v="300663" />
	</node>
	<node lat="68.7962555556614" lon="16.525175006694084" id="-42933">
		<tag k="amenity" v="hospital" />
		<tag k="name" v="Harstad sykehus" />
		<tag k="ssr:stedsnr" v="299830" />
	</node>
	<node lat="68.8487638872352" lon="16.280200009173356" id="-42943">
		<tag k="name" v="Skoglund" />
		<tag k="place" v="farm" />
		<tag k="ssr:stedsnr" v="299887" />
	</node>
	<node lat="68.72954721887707" lon="16.64338611205304" id="-42949">
		<tag k="name" v="Rogla" />
=======
	<node id="-842292" lat="68.6412972246" lon="16.5756361126">
		<tag k="name" v="Solhaug" />
		<tag k="place" v="farm" />
		<tag k="ssr:stedsnr" v="748041" />
	</node>
	<node id="-840243" lat="68.9503481941" lon="16.5828403562">
		<tag k="fixme" v="consider place=hamlet" />
		<tag k="name" v="Dypingen" />
		<tag k="place" v="farm" />
		<tag k="ssr:stedsnr" v="685500" />
	</node>
	<node id="-842290" lat="68.67190823" lon="16.5886192705">
		<tag k="alt_name" v="Brokvik" />
		<tag k="fixme" v="consider place=hamlet" />
		<tag k="name" v="Brokvika" />
		<tag k="place" v="farm" />
		<tag k="ssr:stedsnr" v="747074" />
	</node>
	<node id="-840240" lat="68.801269444" lon="16.4809277857">
		<tag k="alt_name" v="By øvre" />
		<tag k="name" v="By" />
		<tag k="place" v="farm" />
		<tag k="ssr:stedsnr" v="685469" />
	</node>
	<node id="-840239" lat="68.8058666632" lon="16.5147527813">
		<tag k="name" v="Sama" />
		<tag k="place" v="suburb" />
		<tag k="ssr:stedsnr" v="685467" />
	</node>
	<node id="-840235" lat="68.7899416659" lon="16.5235333416">
		<tag k="name" v="Seljestad" />
		<tag k="place" v="suburb" />
		<tag k="ssr:stedsnr" v="685458" />
	</node>
	<node id="-842279" lat="68.905836107" lon="16.6079444413">
		<tag k="name" v="Stormyra" />
		<tag k="place" v="farm" />
		<tag k="ssr:stedsnr" v="746575" />
	</node>
	<node id="-842274" lat="68.7882305554" lon="16.5609638804">
		<tag k="alt_name" v="Gangsås" />
		<tag k="name" v="Gansås" />
		<tag k="place" v="suburb" />
		<tag k="ssr:stedsnr" v="746487" />
	</node>
	<node id="-842272" lat="68.8183194415" lon="16.5317750082">
		<tag k="name" v="Hagan" />
		<tag k="place" v="suburb" />
		<tag k="ssr:stedsnr" v="746378" />
	</node>
	<node id="-840222" lat="68.8309194466" lon="16.3364499917">
		<tag k="name" v="Auna" />
		<tag k="place" v="hamlet" />
		<tag k="ssr:stedsnr" v="685386" />
	</node>
	<node id="-840219" lat="68.8216167109" lon="16.4816441692">
		<tag k="alt_name" v="Ervik" />
		<tag k="fixme" v="consider place=hamlet" />
		<tag k="name" v="Ervika" />
		<tag k="place" v="farm" />
		<tag k="ssr:stedsnr" v="685364" />
	</node>
	<node id="-840216" lat="68.8044349163" lon="16.4892586302">
		<tag k="fixme" v="consider place=hamlet" />
		<tag k="name" v="Bergseng" />
		<tag k="place" v="farm" />
		<tag k="ssr:stedsnr" v="685351" />
	</node>
	<node id="-840215" lat="68.7503000013" lon="16.5418027659">
		<tag k="name" v="Hamran" />
		<tag k="place" v="locality" />
		<tag k="ssr:stedsnr" v="685295" />
	</node>
	<node id="-840213" lat="69.0151593797" lon="16.4898177581">
		<tag k="alt_name" v="Leirvåg, nordre;Leirvåg nordre" />
		<tag k="fixme" v="consider place=hamlet" />
		<tag k="loc_name" v="Nord-Leirvåg" />
		<tag k="name" v="Nordre Leirvåg" />
>>>>>>> e1d4bc35ff8a6074a6f2e91616a996b547c36f15
		<tag k="place" v="farm" />
		<tag k="ssr:stedsnr" v="301919" />
	</node>
<<<<<<< HEAD
	<node lat="68.91852222566085" lon="16.25897501158675" id="-42957">
		<tag k="name" v="Jonsborg" />
		<tag k="place" v="farm" />
		<tag k="ssr:stedsnr" v="301034" />
	</node>
	<node lat="69.04161576380672" lon="16.491685420382844" id="-42973">
		<tag k="alt_name" v="Flatøy" />
		<tag k="fixme" v="consider place=hamlet" />
		<tag k="name" v="Flatøya" />
=======
	<node id="-840212" lat="69.0074055552" lon="16.5317777808">
		<tag k="name" v="Vika" />
		<tag k="place" v="isolated_dwelling" />
		<tag k="ssr:stedsnr" v="685166" />
	</node>
	<node id="-840201" lat="68.8737333318" lon="16.3636472138">
		<tag k="name" v="Inner-Aun" />
>>>>>>> e1d4bc35ff8a6074a6f2e91616a996b547c36f15
		<tag k="place" v="farm" />
		<tag k="ssr:stedsnr" v="321054" />
	</node>
<<<<<<< HEAD
	<node lat="69.01260530219452" lon="16.531943399008856" id="-42980">
		<tag k="alt_name" v="Breidvika" />
		<tag k="name" v="Breivik" />
=======
	<node id="-840200" lat="68.878255557" lon="16.34812777">
		<tag k="name" v="Inner-Aun" />
>>>>>>> e1d4bc35ff8a6074a6f2e91616a996b547c36f15
		<tag k="place" v="farm" />
		<tag k="ssr:stedsnr" v="321152" />
	</node>
<<<<<<< HEAD
	<node lat="68.77247523506084" lon="16.372912825614378" id="-42989">
		<tag k="fixme" v="consider place=hamlet" />
		<tag k="name" v="Tennvassåsen" />
=======
	<node id="-840198" lat="68.6134249984" lon="16.5030166671">
		<tag k="name" v="Sandbakkan" />
>>>>>>> e1d4bc35ff8a6074a6f2e91616a996b547c36f15
		<tag k="place" v="farm" />
		<tag k="ssr:stedsnr" v="321430" />
	</node>
<<<<<<< HEAD
	<node lat="68.88337499869131" lon="16.500149988878" id="-42998">
		<tag k="alt_name" v="Bjørnerå" />
		<tag k="name" v="Bjørnå" />
=======
	<node id="-840197" lat="68.6737222221" lon="16.5723222334">
		<tag k="name" v="Soltun" />
>>>>>>> e1d4bc35ff8a6074a6f2e91616a996b547c36f15
		<tag k="place" v="farm" />
		<tag k="ssr:stedsnr" v="321567" />
	</node>
<<<<<<< HEAD
	<node lat="68.71777222052218" lon="16.52410000952601" id="-43003">
		<tag k="name" v="Øverslett" />
=======
	<node id="-842240" lat="68.8234861109" lon="16.4375027774">
		<tag k="name" v="Hansvoll" />
>>>>>>> e1d4bc35ff8a6074a6f2e91616a996b547c36f15
		<tag k="place" v="farm" />
		<tag k="ssr:stedsnr" v="321871" />
	</node>
<<<<<<< HEAD
	<node lat="68.7355777769489" lon="16.561463888837693" id="-43005">
		<tag k="name" v="Øverland" />
=======
	<node id="-840191" lat="68.7021166711" lon="16.5401472228">
		<tag k="name" v="Brustad" />
		<tag k="place" v="farm" />
		<tag k="ssr:stedsnr" v="503862" />
	</node>
	<node id="-842238" lat="68.5690083329" lon="16.5179777761">
		<tag k="name" v="Sandtorgholmen" />
>>>>>>> e1d4bc35ff8a6074a6f2e91616a996b547c36f15
		<tag k="place" v="farm" />
		<tag k="ssr:stedsnr" v="321937" />
	</node>
<<<<<<< HEAD
	<node lat="68.84457500034867" lon="16.28043610597428" id="-43017">
		<tag k="name" v="Skjærstad" />
		<tag k="place" v="hamlet" />
		<tag k="ssr:stedsnr" v="328499" />
	</node>
	<node lat="68.5759222228363" lon="16.518794451597415" id="-43023">
		<tag k="name" v="Sandtorg" />
=======
	<node id="-840188" lat="68.9525871769" lon="16.2871398553">
		<tag k="fixme" v="consider place=hamlet" />
		<tag k="name" v="Alvestad" />
		<tag k="place" v="farm" />
		<tag k="ssr:stedsnr" v="503476" />
	</node>
	<node id="-842232" lat="69.0200990955" lon="16.5174428582">
		<tag k="fixme" v="consider place=hamlet" />
		<tag k="name" v="Sundsvoll" />
		<tag k="place" v="farm" />
		<tag k="ssr:stedsnr" v="635974" />
	</node>
	<node id="-840181" lat="68.9975999973" lon="16.5356666651">
		<tag k="alt_name" v="Nergård" />
		<tag k="fixme" v="consider place=hamlet" />
		<tag k="name" v="Nergården" />
>>>>>>> e1d4bc35ff8a6074a6f2e91616a996b547c36f15
		<tag k="place" v="farm" />
		<tag k="ssr:stedsnr" v="334665" />
	</node>
<<<<<<< HEAD
	<node lat="68.82710278009564" lon="16.37631945221766" id="-43040">
		<tag k="name" v="Fagerhaug" />
=======
	<node id="-842224" lat="68.6805916691" lon="16.5358555569">
		<tag k="name" v="Halsebø" />
>>>>>>> e1d4bc35ff8a6074a6f2e91616a996b547c36f15
		<tag k="place" v="farm" />
		<tag k="ssr:stedsnr" v="361991" />
	</node>
<<<<<<< HEAD
	<node lat="68.78438435890415" lon="16.473764669422042" id="-43045">
		<tag k="name" v="Kjelen" />
		<tag k="place" v="locality" />
		<tag k="ssr:stedsnr" v="359120" />
	</node>
	<node lat="68.84077222436969" lon="16.495605555044854" id="-43075">
		<tag k="name" v="Nervollen" />
=======
	<node id="-842222" lat="68.6701250004" lon="16.4895472098">
		<tag k="name" v="Klatran" />
		<tag k="place" v="farm" />
		<tag k="ssr:stedsnr" v="626137" />
	</node>
	<node id="-842220" lat="68.6774722245" lon="16.5625055469">
		<tag k="name" v="Nyberg" />
>>>>>>> e1d4bc35ff8a6074a6f2e91616a996b547c36f15
		<tag k="place" v="farm" />
		<tag k="ssr:stedsnr" v="361015" />
	</node>
<<<<<<< HEAD
	<node lat="68.56490000427458" lon="16.50688611026747" id="-43092">
		<tag k="alt_name" v="Sandtorv" />
		<tag k="name" v="Sandtorg" />
		<tag k="place" v="farm" />
		<tag k="ssr:stedsnr" v="361253" />
	</node>
	<node lat="68.73617420918124" lon="16.567755225490032" id="-43102">
		<tag k="name" v="Kila" />
=======
	<node id="-842219" lat="68.6756472231" lon="16.5731416603">
		<tag k="name" v="Rydningen" />
		<tag k="place" v="farm" />
		<tag k="ssr:stedsnr" v="626119" />
	</node>
	<node id="-842216" lat="68.6504333313" lon="16.4338888851">
		<tag k="name" v="Hola" />
>>>>>>> e1d4bc35ff8a6074a6f2e91616a996b547c36f15
		<tag k="place" v="farm" />
		<tag k="ssr:stedsnr" v="361657" />
	</node>
<<<<<<< HEAD
	<node lat="68.81777222613005" lon="16.550488885122444" id="-43104">
		<tag k="name" v="Trondenes" />
		<tag k="place" v="suburb" />
		<tag k="ssr:stedsnr" v="363468" />
	</node>
	<node lat="69.0593731683389" lon="16.529468179537158" id="-43107">
		<tag k="alt_name" v="Krøttøy" />
		<tag k="fixme" v="consider place=hamlet" />
		<tag k="name" v="Krøttøya" />
		<tag k="place" v="farm" />
		<tag k="ssr:stedsnr" v="381141" />
	</node>
	<node lat="68.76382222574091" lon="16.55824166101768" id="-43113">
		<tag k="alt_name" v="Mekile;Midkila" />
		<tag k="fixme" v="consider place=suburb, village or hamlet" />
		<tag k="name" v="Medkila" />
		<tag k="place" v="quarter" />
		<tag k="ssr:stedsnr" v="381445" />
	</node>
	<node lat="68.72464027311378" lon="16.638533095736896" id="-43132">
		<tag k="name" v="Nygård" />
=======
	<node id="-840165" lat="68.7736222206" lon="16.5552277759">
		<tag k="name" v="Øverlandet" />
		<tag k="place" v="suburb" />
		<tag k="ssr:stedsnr" v="482105" />
	</node>
	<node id="-842212" lat="68.7253527755" lon="16.4702333351">
		<tag k="historic" v="shieling" />
		<tag k="name" v="Slettlia" />
		<tag k="place" v="locality" />
		<tag k="ssr:stedsnr" v="624971" />
	</node>
	<node id="-842211" lat="68.7286768772" lon="16.5529512154">
		<tag k="fixme" v="consider place=hamlet" />
		<tag k="loc_name:se" v="Leaibi" />
		<tag k="name" v="Oldra" />
		<tag k="name:no" v="Oldra" />
		<tag k="place" v="farm" />
		<tag k="ssr:stedsnr" v="624957" />
	</node>
	<node id="-842208" lat="68.7118416655" lon="16.5923361208">
		<tag k="name" v="Solstad" />
		<tag k="place" v="farm" />
		<tag k="ssr:stedsnr" v="624875" />
	</node>
	<node id="-840147" lat="69.0181055541" lon="16.5064361128">
		<tag k="name" v="Yttersundsvoll" />
		<tag k="place" v="hamlet" />
		<tag k="ssr:stedsnr" v="481263" />
	</node>
	<node id="-842194" lat="68.8896944429" lon="16.446180553">
		<tag k="alt_name" v="Vadskinn" />
		<tag k="name" v="Vaskinn" />
>>>>>>> e1d4bc35ff8a6074a6f2e91616a996b547c36f15
		<tag k="place" v="farm" />
		<tag k="ssr:stedsnr" v="381993" />
	</node>
<<<<<<< HEAD
	<node lat="68.79819830807986" lon="16.45982607461591" id="-43136">
		<tag k="alt_name" v="Kjelhus, in;Kjelhus indre" />
		<tag k="fixme" v="consider place=hamlet" />
		<tag k="name" v="Indre Kjelhus" />
=======
	<node id="-842189" lat="68.9378234305" lon="16.6766086231">
		<tag k="fixme" v="consider place=hamlet" />
		<tag k="name" v="Kolsland" />
>>>>>>> e1d4bc35ff8a6074a6f2e91616a996b547c36f15
		<tag k="place" v="farm" />
		<tag k="ssr:stedsnr" v="382478" />
	</node>
<<<<<<< HEAD
	<node lat="68.88974444540398" lon="16.25186388217892" id="-43140">
		<tag k="name" v="Inner-Elgsnes" />
		<tag k="old_name" v="Indre Elgsnes;Elgsness indre" />
=======
	<node id="-842188" lat="68.9334811072" lon="16.6230542507">
		<tag k="alt_name" v="Fenes nedre;Fenes, nedre;Fenes" />
		<tag k="fixme" v="consider place=hamlet" />
		<tag k="name" v="Nedre Fenes" />
>>>>>>> e1d4bc35ff8a6074a6f2e91616a996b547c36f15
		<tag k="place" v="farm" />
		<tag k="ssr:stedsnr" v="382576" />
	</node>
<<<<<<< HEAD
	<node lat="68.69815122857871" lon="16.570330880291998" id="-43159">
		<tag k="alt_name" v="Nordvik" />
		<tag k="fixme" v="consider place=hamlet" />
		<tag k="name" v="Nordvika" />
=======
	<node id="-840136" lat="68.6788629584" lon="16.5512227165">
		<tag k="fixme" v="consider place=hamlet" />
		<tag k="name" v="Halsebø" />
>>>>>>> e1d4bc35ff8a6074a6f2e91616a996b547c36f15
		<tag k="place" v="farm" />
		<tag k="ssr:stedsnr" v="385164" />
	</node>
<<<<<<< HEAD
	<node lat="68.71676775009223" lon="16.544282878045784" id="-43166">
		<tag k="name" v="Litleholtet" />
		<tag k="place" v="locality" />
		<tag k="ssr:stedsnr" v="394565" />
	</node>
	<node lat="68.60336389159008" lon="16.502291657773153" id="-43211">
		<tag k="name" v="Beian" />
=======
	<node id="-842179" lat="68.8475555593" lon="16.3951722123">
		<tag k="name" v="Djupingan" />
		<tag k="place" v="locality" />
		<tag k="ssr:stedsnr" v="624449" />
	</node>
	<node id="-842176" lat="68.8277613422" lon="16.4882809594">
		<tag k="fixme" v="consider place=hamlet" />
		<tag k="name" v="Undlandet" />
		<tag k="place" v="farm" />
		<tag k="ssr:stedsnr" v="624420" />
	</node>
	<node id="-842173" lat="68.8276916704" lon="16.5656055481">
		<tag k="landuse" v="military" />
		<tag k="name" v="Trondenes" />
		<tag k="ssr:stedsnr" v="624414" />
	</node>
	<node id="-840124" lat="68.8343325724" lon="16.4859477818">
		<tag k="fixme" v="consider place=hamlet" />
		<tag k="name" v="Røykenes" />
>>>>>>> e1d4bc35ff8a6074a6f2e91616a996b547c36f15
		<tag k="place" v="farm" />
		<tag k="ssr:stedsnr" v="420515" />
	</node>
<<<<<<< HEAD
	<node lat="68.67854722599314" lon="16.558019442295713" id="-43223">
		<tag k="name" v="Perhaugen" />
		<tag k="place" v="farm" />
		<tag k="ssr:stedsnr" v="421731" />
	</node>
	<node lat="68.80428333385612" lon="16.53427777737957" id="-43255">
		<tag k="amenity" v="sports_centre" />
		<tag k="name" v="Hålogalandshallen" />
		<tag k="ssr:stedsnr" v="424274" />
	</node>
	<node lat="68.83338611236321" lon="16.29966665451388" id="-43263">
		<tag k="name" v="Jessevollen" />
=======
	<node id="-842171" lat="68.807294443" lon="16.4457500045">
		<tag k="name" v="Vågen" />
		<tag k="place" v="locality" />
		<tag k="ssr:stedsnr" v="624390" />
	</node>
	<node id="-839742" lat="68.5650500037" lon="16.5092500086">
		<tag k="loc_name:se" v="Hoalbma" />
		<tag k="name" v="Sandtorg" />
		<tag k="name:no" v="Sandtorg" />
		<tag k="place" v="farm" />
		<tag k="ssr:stedsnr" v="445143" />
	</node>
	<node id="-842083" lat="68.7859694438" lon="16.5208527835">
		<tag k="leisure" v="pitch" />
		<tag k="name" v="Landsåsbanen" />
		<tag k="ssr:stedsnr" v="602125" />
	</node>
	<node id="-842074" lat="68.786661112" lon="16.5418305635">
		<tag k="amenity" v="school" />
		<tag k="name" v="Harstadbotn videregående skole" />
		<tag k="ssr:stedsnr" v="602166" />
	</node>
	<node id="-840025" lat="68.6033638916" lon="16.5022916578">
		<tag k="name" v="Beian" />
>>>>>>> e1d4bc35ff8a6074a6f2e91616a996b547c36f15
		<tag k="place" v="farm" />
		<tag k="ssr:stedsnr" v="442413" />
	</node>
<<<<<<< HEAD
	<node lat="68.92954271713056" lon="16.621082704385717" id="-43271">
		<tag k="alt_name" v="Fenes" />
		<tag k="fixme" v="consider place=hamlet" />
		<tag k="name" v="Øvre Fenes" />
=======
	<node id="-842071" lat="68.9512444438" lon="16.6614833446">
		<tag k="name" v="Kobbevollen" />
>>>>>>> e1d4bc35ff8a6074a6f2e91616a996b547c36f15
		<tag k="place" v="farm" />
		<tag k="ssr:stedsnr" v="442541" />
	</node>
<<<<<<< HEAD
	<node lat="68.720111112564" lon="16.522219456365903" id="-43289">
		<tag k="alt_name" v="Andsletta" />
		<tag k="name" v="Ansletta" />
=======
	<node id="-840019" lat="68.8469972208" lon="16.2814388795">
		<tag k="name" v="Skjærstad" />
>>>>>>> e1d4bc35ff8a6074a6f2e91616a996b547c36f15
		<tag k="place" v="farm" />
		<tag k="ssr:stedsnr" v="442974" />
	</node>
<<<<<<< HEAD
	<node lat="68.59976721294825" lon="16.50372531469488" id="-43309">
		<tag k="fixme" v="consider place=hamlet" />
		<tag k="loc_name:se" v="Hohkkabidja" />
		<tag k="name" v="Haukebø" />
		<tag k="name:no" v="Haukebø" />
		<tag k="place" v="farm" />
		<tag k="ssr:stedsnr" v="445199" />
	</node>
	<node lat="68.56505000373201" lon="16.50925000860011" id="-43311">
		<tag k="loc_name:se" v="Hoalbma" />
		<tag k="name" v="Sandtorg" />
		<tag k="name:no" v="Sandtorg" />
=======
	<node id="-842064" lat="68.7575869569" lon="16.3865994632">
		<tag k="fixme" v="consider place=hamlet" />
		<tag k="name" v="Nygård" />
		<tag k="place" v="farm" />
		<tag k="ssr:stedsnr" v="597954" />
	</node>
	<node id="-840015" lat="68.943288888" lon="16.6744805521">
		<tag k="alt_name" v="Altvika;Altevik" />
		<tag k="fixme" v="consider place=hamlet" />
		<tag k="name" v="Altevika" />
		<tag k="place" v="village" />
		<tag k="ssr:stedsnr" v="511121" />
	</node>
	<node id="-842062" lat="68.7075833352" lon="16.3784638937">
		<tag k="name" v="Vilhelmsætran" />
		<tag k="place" v="locality" />
		<tag k="ssr:stedsnr" v="597582" />
	</node>
	<node id="-840009" lat="68.6841333317" lon="16.535744438">
		<tag k="fixme" v="consider place=suburb, village or hamlet" />
		<tag k="name" v="Sørvika" />
		<tag k="place" v="quarter" />
		<tag k="ssr:stedsnr" v="506154" />
	</node>
	<node id="-842056" lat="68.9178999968" lon="16.2618277663">
		<tag k="name" v="Ytter-Elgsnes" />
>>>>>>> e1d4bc35ff8a6074a6f2e91616a996b547c36f15
		<tag k="place" v="farm" />
		<tag k="ssr:stedsnr" v="445143" />
	</node>
<<<<<<< HEAD
	<node lat="68.68634722666249" lon="16.51987222122983" id="-43312">
		<tag k="alt_name" v="Opdal" />
		<tag k="name" v="Oppdal" />
=======
	<node id="-840007" lat="68.6132166678" lon="16.5128333408">
		<tag k="alt_name" v="Gausvik" />
		<tag k="name" v="Gausvika" />
		<tag k="place" v="hamlet" />
		<tag k="ssr:stedsnr" v="505251" />
	</node>
	<node id="-842054" lat="68.6111527762" lon="16.5129388988">
		<tag k="name" v="Sandtorgholmen" />
>>>>>>> e1d4bc35ff8a6074a6f2e91616a996b547c36f15
		<tag k="place" v="farm" />
		<tag k="ssr:stedsnr" v="446171" />
	</node>
<<<<<<< HEAD
	<node lat="68.94848068634465" lon="16.661737940908274" id="-43321">
		<tag k="fixme" v="consider place=hamlet" />
		<tag k="name" v="Sørsand" />
=======
	<node id="-840000" lat="68.6527871238" lon="16.4306814222">
		<tag k="fixme" v="consider place=hamlet" />
		<tag k="loc_name:se" v="Jávreluokta" />
		<tag k="name" v="Storvatnet" />
		<tag k="name:no" v="Storvatnet" />
>>>>>>> e1d4bc35ff8a6074a6f2e91616a996b547c36f15
		<tag k="place" v="farm" />
		<tag k="ssr:stedsnr" v="502520" />
	</node>
<<<<<<< HEAD
	<node lat="68.81940833740155" lon="16.393033331180717" id="-43329">
		<tag k="name" v="Moen" />
=======
	<node id="-842045" lat="68.9441061142" lon="16.670596441">
		<tag k="alt_name" v="Altevik" />
		<tag k="fixme" v="consider place=hamlet" />
		<tag k="name" v="Altevika" />
>>>>>>> e1d4bc35ff8a6074a6f2e91616a996b547c36f15
		<tag k="place" v="farm" />
		<tag k="ssr:stedsnr" v="503375" />
	</node>
<<<<<<< HEAD
	<node lat="68.82368333199324" lon="16.425861108311782" id="-43330">
		<tag k="name" v="Møkkeland" />
		<tag k="place" v="hamlet" />
		<tag k="ssr:stedsnr" v="503376" />
	</node>
	<node lat="68.83307474452043" lon="16.405568295276083" id="-43334">
		<tag k="fixme" v="consider place=hamlet" />
		<tag k="name" v="Grunnvassbotn" />
=======
	<node id="-839996" lat="68.62796667" lon="16.4976138966">
		<tag k="name" v="Lauklia" />
		<tag k="place" v="isolated_dwelling" />
		<tag k="ssr:stedsnr" v="505011" />
	</node>
	<node id="-842040" lat="68.6453027822" lon="16.5812333279">
		<tag k="name" v="Steinheim" />
>>>>>>> e1d4bc35ff8a6074a6f2e91616a996b547c36f15
		<tag k="place" v="farm" />
		<tag k="ssr:stedsnr" v="503390" />
	</node>
<<<<<<< HEAD
	<node lat="68.83166944501451" lon="16.305111121002504" id="-43335">
		<tag k="name" v="Lavollen" />
		<tag k="place" v="farm" />
		<tag k="ssr:stedsnr" v="503392" />
	</node>
	<node lat="68.71320000245053" lon="16.526825005562745" id="-43345">
=======
	<node id="-839988" lat="68.7337222211" lon="16.5655583244">
>>>>>>> e1d4bc35ff8a6074a6f2e91616a996b547c36f15
		<tag k="name" v="Myrland" />
		<tag k="place" v="farm" />
		<tag k="ssr:stedsnr" v="503844" />
	</node>
<<<<<<< HEAD
	<node lat="68.70211667105036" lon="16.54014722278802" id="-43346">
		<tag k="name" v="Brustad" />
=======
	<node id="-842034" lat="68.6027222186" lon="16.5035749934">
		<tag k="name" v="Holand" />
>>>>>>> e1d4bc35ff8a6074a6f2e91616a996b547c36f15
		<tag k="place" v="farm" />
		<tag k="ssr:stedsnr" v="503862" />
	</node>
<<<<<<< HEAD
	<node lat="68.73794722255887" lon="16.557325010480408" id="-43349">
=======
	<node id="-839985" lat="68.7379472226" lon="16.5573250105">
>>>>>>> e1d4bc35ff8a6074a6f2e91616a996b547c36f15
		<tag k="fixme" v="multiple name tags, choose one and add the other to alt_name" />
		<tag k="name" v="Hamnskog;Øverland" />
		<tag k="place" v="farm" />
		<tag k="ssr:stedsnr" v="503934" />
	</node>
<<<<<<< HEAD
	<node lat="68.73372222112721" lon="16.565558324400016" id="-43352">
=======
	<node id="-842031" lat="68.6759638916" lon="16.5155944321">
		<tag k="name" v="Halsebø" />
		<tag k="place" v="farm" />
		<tag k="ssr:stedsnr" v="565110" />
	</node>
	<node id="-839982" lat="68.7132000025" lon="16.5268250056">
>>>>>>> e1d4bc35ff8a6074a6f2e91616a996b547c36f15
		<tag k="name" v="Myrland" />
		<tag k="place" v="farm" />
		<tag k="ssr:stedsnr" v="503942" />
	</node>
<<<<<<< HEAD
	<node lat="68.72128055257913" lon="16.543302766865455" id="-43356">
		<tag k="name" v="Frydenlund" />
=======
	<node id="-839981" lat="68.7474555544" lon="16.5439472207">
		<tag k="name" v="Bakkan" />
>>>>>>> e1d4bc35ff8a6074a6f2e91616a996b547c36f15
		<tag k="place" v="farm" />
		<tag k="ssr:stedsnr" v="503965" />
	</node>
<<<<<<< HEAD
	<node lat="68.67372222206828" lon="16.572322233382177" id="-43359">
		<tag k="name" v="Soltun" />
		<tag k="place" v="farm" />
		<tag k="ssr:stedsnr" v="505077" />
	</node>
	<node lat="68.65278712381533" lon="16.43068142215448" id="-43361">
=======
	<node id="-842802" lat="68.7798570729" lon="16.5081528094">
		<tag k="fixme" v="consider place=hamlet" />
		<tag k="name" v="Nedre Harstad" />
		<tag k="place" v="farm" />
		<tag k="ssr:stedsnr" v="1077064" />
	</node>
	<node id="-839973" lat="68.9804129171" lon="16.5608878945">
>>>>>>> e1d4bc35ff8a6074a6f2e91616a996b547c36f15
		<tag k="fixme" v="consider place=hamlet" />
		<tag k="loc_name:se" v="Jávreluokta" />
		<tag k="name" v="Storvatnet" />
		<tag k="name:no" v="Storvatnet" />
		<tag k="place" v="farm" />
		<tag k="ssr:stedsnr" v="505051" />
	</node>
<<<<<<< HEAD
	<node lat="68.61321666776216" lon="16.512833340789662" id="-43369">
		<tag k="alt_name" v="Gausvik" />
		<tag k="name" v="Gausvika" />
		<tag k="place" v="hamlet" />
		<tag k="ssr:stedsnr" v="505251" />
	</node>
	<node lat="68.61342499835118" lon="16.50301666708863" id="-43370">
		<tag k="name" v="Sandbakkan" />
=======
	<node id="-842018" lat="68.7019416628" lon="16.5793166673">
		<tag k="name" v="Furuly" />
>>>>>>> e1d4bc35ff8a6074a6f2e91616a996b547c36f15
		<tag k="place" v="farm" />
		<tag k="ssr:stedsnr" v="505252" />
	</node>
	<node lat="68.68413333165907" lon="16.535744437953312" id="-43374">
		<tag k="fixme" v="consider place=suburb, village or hamlet" />
		<tag k="name" v="Sørvika" />
		<tag k="place" v="quarter" />
		<tag k="ssr:stedsnr" v="506154" />
	</node>
	<node lat="68.87825555703847" lon="16.348127769962588" id="-43375">
		<tag k="name" v="Inner-Aun" />
		<tag k="place" v="farm" />
		<tag k="ssr:stedsnr" v="507310" />
	</node>
	<node lat="68.873733331788" lon="16.363647213795197" id="-43376">
		<tag k="name" v="Inner-Aun" />
		<tag k="place" v="farm" />
		<tag k="ssr:stedsnr" v="507313" />
	</node>
	<node lat="68.94328888800648" lon="16.674480552094753" id="-43377">
		<tag k="alt_name" v="Altvika;Altevik" />
		<tag k="fixme" v="consider place=hamlet" />
		<tag k="name" v="Altevika" />
		<tag k="place" v="village" />
		<tag k="ssr:stedsnr" v="511121" />
	</node>
<<<<<<< HEAD
	<node lat="68.84699722079135" lon="16.281438879522792" id="-43378">
		<tag k="name" v="Skjærstad" />
=======
	<node id="-839969" lat="68.831669445" lon="16.305111121">
		<tag k="name" v="Lavollen" />
		<tag k="place" v="farm" />
		<tag k="ssr:stedsnr" v="503392" />
	</node>
	<node id="-842016" lat="68.7137666694" lon="16.5364527855">
		<tag k="name" v="Haugan" />
>>>>>>> e1d4bc35ff8a6074a6f2e91616a996b547c36f15
		<tag k="place" v="farm" />
		<tag k="ssr:stedsnr" v="514379" />
	</node>
<<<<<<< HEAD
	<node lat="68.82460277483077" lon="16.463205555542277" id="-43386">
		<tag k="name" v="Kilen" />
		<tag k="place" v="farm" />
		<tag k="ssr:stedsnr" v="522685" />
	</node>
	<node lat="68.80830833520702" lon="16.50002501173641" id="-43412">
		<tag k="name" v="Bergseng" />
		<tag k="place" v="suburb" />
		<tag k="ssr:stedsnr" v="541876" />
	</node>
	<node lat="68.88307783043577" lon="16.50844379819311" id="-43423">
		<tag k="alt_name" v="Bjørnrå Indre" />
=======
	<node id="-839967" lat="68.8330747445" lon="16.4055682953">
		<tag k="fixme" v="consider place=hamlet" />
		<tag k="name" v="Grunnvassbotn" />
		<tag k="place" v="farm" />
		<tag k="ssr:stedsnr" v="503390" />
	</node>
	<node id="-839963" lat="68.823683332" lon="16.4258611083">
		<tag k="name" v="Møkkeland" />
		<tag k="place" v="hamlet" />
		<tag k="ssr:stedsnr" v="503376" />
	</node>
	<node id="-842010" lat="68.8556166701" lon="16.4847333337">
		<tag k="name" v="Vika" />
		<tag k="place" v="hamlet" />
		<tag k="ssr:stedsnr" v="563611" />
	</node>
	<node id="-839957" lat="68.6981512286" lon="16.5703308803">
		<tag k="alt_name" v="Nordvik" />
>>>>>>> e1d4bc35ff8a6074a6f2e91616a996b547c36f15
		<tag k="fixme" v="consider place=hamlet" />
		<tag k="name" v="Indre Bjørnrå" />
		<tag k="place" v="farm" />
		<tag k="ssr:stedsnr" v="543385" />
	</node>
	<node lat="68.78121944281862" lon="16.558838898527814" id="-43431">
		<tag k="leisure" v="pitch" />
		<tag k="name" v="Åsmyra" />
		<tag k="ssr:stedsnr" v="543093" />
	</node>
	<node lat="68.83932911771846" lon="16.342220488386086" id="-43460">
		<tag k="alt_name" v="Erikstad, nedre" />
		<tag k="name" v="Nedre Erikstad" />
		<tag k="place" v="hamlet" />
		<tag k="ssr:stedsnr" v="563408" />
	</node>
<<<<<<< HEAD
	<node lat="68.95376388517816" lon="16.683886118822752" id="-43478">
=======
	<node id="-841998" lat="68.9537638852" lon="16.6838861188">
>>>>>>> e1d4bc35ff8a6074a6f2e91616a996b547c36f15
		<tag k="name" v="Fjellbu" />
		<tag k="place" v="farm" />
		<tag k="ssr:stedsnr" v="563492" />
	</node>
<<<<<<< HEAD
	<node lat="68.79213055913584" lon="16.407924990902146" id="-43484">
=======
	<node id="-841997" lat="68.7921305591" lon="16.4079249909">
>>>>>>> e1d4bc35ff8a6074a6f2e91616a996b547c36f15
		<tag k="name" v="Sollia" />
		<tag k="place" v="farm" />
		<tag k="ssr:stedsnr" v="563469" />
	</node>
<<<<<<< HEAD
	<node lat="68.85561667009469" lon="16.4847333337491" id="-43492">
		<tag k="name" v="Vika" />
=======
	<node id="-842796" lat="68.764287494" lon="16.5408232223">
		<tag k="fixme" v="consider place=hamlet" />
		<tag k="name" v="Medkila" />
		<tag k="place" v="farm" />
		<tag k="ssr:stedsnr" v="1077050" />
	</node>
	<node id="-841990" lat="68.8393291177" lon="16.3422204884">
		<tag k="alt_name" v="Erikstad, nedre" />
		<tag k="name" v="Nedre Erikstad" />
>>>>>>> e1d4bc35ff8a6074a6f2e91616a996b547c36f15
		<tag k="place" v="hamlet" />
		<tag k="ssr:stedsnr" v="563611" />
	</node>
<<<<<<< HEAD
	<node lat="68.70194166276626" lon="16.579316667271968" id="-43498">
		<tag k="name" v="Furuly" />
=======
	<node id="-839940" lat="68.9484806863" lon="16.6617379409">
		<tag k="fixme" v="consider place=hamlet" />
		<tag k="name" v="Sørsand" />
>>>>>>> e1d4bc35ff8a6074a6f2e91616a996b547c36f15
		<tag k="place" v="farm" />
		<tag k="ssr:stedsnr" v="563928" />
	</node>
<<<<<<< HEAD
	<node lat="68.71376666944604" lon="16.53645278549158" id="-43500">
		<tag k="name" v="Haugan" />
		<tag k="place" v="farm" />
		<tag k="ssr:stedsnr" v="563911" />
	</node>
	<node lat="68.67596389160256" lon="16.51559443211149" id="-43513">
		<tag k="name" v="Halsebø" />
=======
	<node id="-839934" lat="68.7361742092" lon="16.5677552255">
		<tag k="name" v="Kila" />
>>>>>>> e1d4bc35ff8a6074a6f2e91616a996b547c36f15
		<tag k="place" v="farm" />
		<tag k="ssr:stedsnr" v="565110" />
	</node>
<<<<<<< HEAD
	<node lat="68.64530278217423" lon="16.58123332787885" id="-43520">
		<tag k="name" v="Steinheim" />
=======
	<node id="-839932" lat="68.5649000043" lon="16.5068861103">
		<tag k="alt_name" v="Sandtorv" />
		<tag k="name" v="Sandtorg" />
>>>>>>> e1d4bc35ff8a6074a6f2e91616a996b547c36f15
		<tag k="place" v="farm" />
		<tag k="ssr:stedsnr" v="566046" />
	</node>
<<<<<<< HEAD
	<node lat="68.88957500177834" lon="16.30074999698734" id="-43522">
		<tag k="barrier" v="fence" />
		<tag k="name" v="Ytter-Aungjerdet" />
		<tag k="ssr:stedsnr" v="567316" />
	</node>
	<node lat="68.94410611422244" lon="16.670596441023303" id="-43524">
		<tag k="alt_name" v="Altevik" />
		<tag k="fixme" v="consider place=hamlet" />
		<tag k="name" v="Altevika" />
		<tag k="place" v="farm" />
		<tag k="ssr:stedsnr" v="571369" />
	</node>
	<node lat="68.91789999682145" lon="16.261827766328516" id="-43538">
		<tag k="name" v="Ytter-Elgsnes" />
		<tag k="old_name" v="Elgsnes ytre" />
		<tag k="place" v="farm" />
		<tag k="ssr:stedsnr" v="586741" />
	</node>
	<node lat="68.70758333522653" lon="16.378463893673217" id="-43544">
		<tag k="name" v="Vilhelmsætran" />
=======
	<node id="-839923" lat="68.891783331" lon="16.5902666568">
		<tag k="historic" v="shieling" />
		<tag k="name" v="Snekkarstølen" />
>>>>>>> e1d4bc35ff8a6074a6f2e91616a996b547c36f15
		<tag k="place" v="locality" />
		<tag k="ssr:stedsnr" v="597582" />
	</node>
<<<<<<< HEAD
	<node lat="68.75758695691569" lon="16.386599463223547" id="-43546">
		<tag k="fixme" v="consider place=hamlet" />
		<tag k="name" v="Nygård" />
=======
	<node id="-842792" lat="68.9869739679" lon="16.3683963024">
		<tag k="name" v="Skarstein" />
		<tag k="place" v="locality" />
		<tag k="ssr:stedsnr" v="1077019" />
	</node>
	<node id="-841963" lat="68.8830778304" lon="16.5084437982">
		<tag k="alt_name" v="Bjørnrå Indre" />
		<tag k="fixme" v="consider place=hamlet" />
		<tag k="name" v="Indre Bjørnrå" />
>>>>>>> e1d4bc35ff8a6074a6f2e91616a996b547c36f15
		<tag k="place" v="farm" />
		<tag k="ssr:stedsnr" v="597954" />
	</node>
<<<<<<< HEAD
	<node lat="68.95124444379108" lon="16.661483344627843" id="-43551">
		<tag k="name" v="Kobbevollen" />
=======
	<node id="-839913" lat="68.7914742033" lon="16.5890879932">
		<tag k="alt_name" v="Stangnes Nordre" />
		<tag k="fixme" v="consider place=hamlet" />
		<tag k="name" v="Nordre Stangnes" />
>>>>>>> e1d4bc35ff8a6074a6f2e91616a996b547c36f15
		<tag k="place" v="farm" />
		<tag k="ssr:stedsnr" v="600914" />
	</node>
<<<<<<< HEAD
	<node lat="68.78596944377581" lon="16.520852783482546" id="-43563">
=======
	<node id="-841954" lat="68.7812194428" lon="16.5588388985">
>>>>>>> e1d4bc35ff8a6074a6f2e91616a996b547c36f15
		<tag k="leisure" v="pitch" />
		<tag k="name" v="Landsåsbanen" />
		<tag k="ssr:stedsnr" v="602125" />
	</node>
<<<<<<< HEAD
	<node lat="68.83265833232416" lon="16.41650000358124" id="-43606">
		<tag k="name" v="Skoglund" />
=======
	<node id="-841941" lat="68.653177777" lon="16.4279000025">
		<tag k="name" v="Nergamsgården" />
>>>>>>> e1d4bc35ff8a6074a6f2e91616a996b547c36f15
		<tag k="place" v="farm" />
		<tag k="ssr:stedsnr" v="603015" />
	</node>
<<<<<<< HEAD
	<node lat="68.88489011861657" lon="16.69050364991025" id="-43621">
		<tag k="fixme" v="consider place=hamlet" />
		<tag k="name" v="Åkerøya" />
		<tag k="place" v="farm" />
		<tag k="ssr:stedsnr" v="603585" />
	</node>
	<node lat="68.88969444289208" lon="16.446180553043806" id="-43641">
		<tag k="alt_name" v="Vadskinn" />
		<tag k="name" v="Vaskinn" />
		<tag k="place" v="farm" />
		<tag k="ssr:stedsnr" v="624576" />
	</node>
	<node lat="68.80729444298565" lon="16.445750004488833" id="-43648">
		<tag k="name" v="Vågen" />
		<tag k="place" v="locality" />
		<tag k="ssr:stedsnr" v="624390" />
	</node>
	<node lat="68.8475555593284" lon="16.39517221226347" id="-43653">
		<tag k="name" v="Djupingan" />
		<tag k="place" v="locality" />
		<tag k="ssr:stedsnr" v="624449" />
	</node>
	<node lat="68.93348110723977" lon="16.623054250654317" id="-43659">
		<tag k="alt_name" v="Fenes nedre;Fenes, nedre;Fenes" />
		<tag k="fixme" v="consider place=hamlet" />
		<tag k="name" v="Nedre Fenes" />
=======
	<node id="-842785" lat="68.8163509213" lon="16.5255005752">
		<tag k="fixme" v="consider place=hamlet" />
		<tag k="name" v="Nygård" />
		<tag k="place" v="farm" />
		<tag k="ssr:stedsnr" v="1076985" />
	</node>
	<node id="-841924" lat="68.8083083352" lon="16.5000250117">
		<tag k="name" v="Bergseng" />
		<tag k="place" v="suburb" />
		<tag k="ssr:stedsnr" v="541876" />
	</node>
	<node id="-841900" lat="68.7723583364" lon="16.452716658">
		<tag k="fixme" v="consider tourism=alpine_hut or tourism=chalet" />
		<tag k="name" v="Røde Kors hytta" />
		<tag k="ssr:stedsnr" v="541116" />
		<tag k="tourism" v="wilderness_hut" />
	</node>
	<node id="-839848" lat="69.0127805574" lon="16.4732638856">
		<tag k="name" v="Stranda" />
		<tag k="place" v="hamlet" />
		<tag k="ssr:stedsnr" v="481391" />
	</node>
	<node id="-839835" lat="68.7870805573" lon="16.5321000079">
		<tag k="amenity" v="school" />
		<tag k="name" v="Seljestad skole" />
		<tag k="ssr:stedsnr" v="481182" />
	</node>
	<node id="-841878" lat="68.8246027748" lon="16.4632055555">
		<tag k="name" v="Kilen" />
>>>>>>> e1d4bc35ff8a6074a6f2e91616a996b547c36f15
		<tag k="place" v="farm" />
		<tag k="ssr:stedsnr" v="624534" />
	</node>
<<<<<<< HEAD
	<node lat="68.93782343046506" lon="16.67660862310032" id="-43660">
		<tag k="fixme" v="consider place=hamlet" />
		<tag k="name" v="Kolsland" />
		<tag k="place" v="farm" />
		<tag k="ssr:stedsnr" v="624536" />
	</node>
	<node lat="68.72867687724779" lon="16.552951215443912" id="-43667">
		<tag k="fixme" v="consider place=hamlet" />
		<tag k="loc_name:se" v="Leaibi" />
		<tag k="name" v="Oldra" />
		<tag k="name:no" v="Oldra" />
		<tag k="place" v="farm" />
		<tag k="ssr:stedsnr" v="624957" />
	</node>
	<node lat="68.72535277554209" lon="16.470233335148983" id="-43668">
		<tag k="historic" v="shieling" />
		<tag k="name" v="Slettlia" />
		<tag k="place" v="isolated_dwelling" />
		<tag k="ssr:stedsnr" v="624971" />
	</node>
	<node lat="68.65043333129763" lon="16.433888885146793" id="-43670">
		<tag k="name" v="Hola" />
=======
	<node id="-839827" lat="68.9899277804" lon="16.5118805504">
		<tag k="name" v="Stranda" />
		<tag k="place" v="hamlet" />
		<tag k="ssr:stedsnr" v="479426" />
	</node>
	<node id="-841874" lat="68.8042833339" lon="16.5342777774">
		<tag k="amenity" v="sports_centre" />
		<tag k="name" v="Hålogalandshallen" />
		<tag k="ssr:stedsnr" v="424274" />
	</node>
	<node id="-839822" lat="69.0120277777" lon="16.5281888792">
		<tag k="alt_name" v="Breidvika" />
		<tag k="name" v="Breivik" />
		<tag k="place" v="isolated_dwelling" />
		<tag k="ssr:stedsnr" v="321152" />
	</node>
	<node id="-839819" lat="68.7295472189" lon="16.6433861121">
		<tag k="name" v="Rogla" />
		<tag k="place" v="farm" />
		<tag k="ssr:stedsnr" v="301919" />
	</node>
	<node id="-839818" lat="68.7288583356" lon="16.655886118">
		<tag k="name" v="Rogla" />
>>>>>>> e1d4bc35ff8a6074a6f2e91616a996b547c36f15
		<tag k="place" v="farm" />
		<tag k="ssr:stedsnr" v="626066" />
	</node>
<<<<<<< HEAD
	<node lat="68.67564722309473" lon="16.573141660281" id="-43674">
		<tag k="name" v="Rydningen" />
		<tag k="place" v="farm" />
		<tag k="ssr:stedsnr" v="626119" />
	</node>
	<node lat="68.67747222450923" lon="16.562505546941903" id="-43675">
		<tag k="name" v="Nyberg" />
=======
	<node id="-839814" lat="68.6584583306" lon="16.5822111189">
		<tag k="name" v="Jonsgård" />
>>>>>>> e1d4bc35ff8a6074a6f2e91616a996b547c36f15
		<tag k="place" v="farm" />
		<tag k="ssr:stedsnr" v="626120" />
	</node>
<<<<<<< HEAD
	<node lat="68.67012500042658" lon="16.489547209830594" id="-43677">
		<tag k="name" v="Klatran" />
=======
	<node id="-839812" lat="68.6419333304" lon="16.5793472106">
		<tag k="name" v="Skogly" />
>>>>>>> e1d4bc35ff8a6074a6f2e91616a996b547c36f15
		<tag k="place" v="farm" />
		<tag k="ssr:stedsnr" v="626137" />
	</node>
<<<<<<< HEAD
	<node lat="68.84513055237849" lon="16.27641110279544" id="-43683">
		<tag k="name" v="Skjærstad" />
=======
	<node id="-841853" lat="68.678547226" lon="16.5580194423">
		<tag k="name" v="Perhaugen" />
>>>>>>> e1d4bc35ff8a6074a6f2e91616a996b547c36f15
		<tag k="place" v="farm" />
		<tag k="ssr:stedsnr" v="631466" />
	</node>
<<<<<<< HEAD
	<node lat="69.02009909550857" lon="16.51744285816026" id="-43686">
		<tag k="fixme" v="consider place=hamlet" />
		<tag k="name" v="Sundsvoll" />
=======
	<node id="-841843" lat="68.834712235" lon="16.3607987831">
		<tag k="alt_name" v="Harebakken" />
		<tag k="name" v="Harbakken" />
>>>>>>> e1d4bc35ff8a6074a6f2e91616a996b547c36f15
		<tag k="place" v="farm" />
		<tag k="ssr:stedsnr" v="635974" />
	</node>
<<<<<<< HEAD
	<node lat="68.82711944060254" lon="16.561319432506092" id="-43695">
		<tag k="name" v="Altevåg" />
=======
	<node id="-841838" lat="68.8027722177" lon="16.4925055572">
		<tag k="name" v="Høgfors" />
>>>>>>> e1d4bc35ff8a6074a6f2e91616a996b547c36f15
		<tag k="place" v="isolated_dwelling" />
		<tag k="ssr:stedsnr" v="652856" />
	</node>
<<<<<<< HEAD
	<node lat="68.7595111122514" lon="16.389024998826223" id="-43699">
		<tag k="name" v="Tømmeråsen" />
=======
	<node id="-839786" lat="68.9152583319" lon="16.2635472089">
		<tag k="fixme" v="consider place=hamlet" />
		<tag k="name" v="Ytter-Elgsnes" />
>>>>>>> e1d4bc35ff8a6074a6f2e91616a996b547c36f15
		<tag k="place" v="farm" />
		<tag k="ssr:stedsnr" v="658926" />
	</node>
<<<<<<< HEAD
	<node lat="68.67886295837445" lon="16.55122271652776" id="-43760">
		<tag k="fixme" v="consider place=hamlet" />
		<tag k="name" v="Halsebø" />
=======
	<node id="-839785" lat="68.5688194406" lon="16.5121027738">
		<tag k="name" v="Sandtorg" />
>>>>>>> e1d4bc35ff8a6074a6f2e91616a996b547c36f15
		<tag k="place" v="farm" />
		<tag k="ssr:stedsnr" v="665552" />
	</node>
<<<<<<< HEAD
	<node lat="68.72909444161432" lon="16.639127765669816" id="-43811">
		<tag k="name" v="Flotta" />
		<tag k="place" v="isolated_dwelling" />
		<tag k="ssr:stedsnr" v="724700" />
	</node>
	<node lat="68.66486666408947" lon="16.586680553685667" id="-43831">
		<tag k="alt_name" v="Fauskevåg Store" />
		<tag k="name" v="Store Fauskevåg" />
=======
	<node id="-839783" lat="68.8224416693" lon="16.4702333418">
		<tag k="name" v="Myreng" />
>>>>>>> e1d4bc35ff8a6074a6f2e91616a996b547c36f15
		<tag k="place" v="farm" />
		<tag k="ssr:stedsnr" v="725626" />
	</node>
<<<<<<< HEAD
	<node lat="68.96576502759811" lon="16.25953191575588" id="-43843">
		<tag k="fixme" v="consider place=hamlet" />
		<tag k="name" v="Grøta" />
=======
	<node id="-839778" lat="68.5659722236" lon="16.4989555471">
		<tag k="name" v="Sandtorg" />
>>>>>>> e1d4bc35ff8a6074a6f2e91616a996b547c36f15
		<tag k="place" v="farm" />
		<tag k="ssr:stedsnr" v="726160" />
	</node>
<<<<<<< HEAD
	<node lat="68.78823055541106" lon="16.56096388036872" id="-43874">
		<tag k="alt_name" v="Gangsås" />
		<tag k="name" v="Gansås" />
		<tag k="place" v="suburb" />
		<tag k="ssr:stedsnr" v="746487" />
	</node>
	<node lat="68.6719082300498" lon="16.588619270512762" id="-43882">
		<tag k="alt_name" v="Brokvik" />
		<tag k="fixme" v="consider place=hamlet" />
		<tag k="name" v="Brokvika" />
		<tag k="place" v="farm" />
		<tag k="ssr:stedsnr" v="747074" />
	</node>
	<node lat="68.64129722455046" lon="16.575636112649626" id="-43885">
		<tag k="name" v="Solhaug" />
=======
	<node id="-840379" lat="68.8848901186" lon="16.6905036499">
		<tag k="fixme" v="consider place=hamlet" />
		<tag k="name" v="Åkerøya" />
		<tag k="place" v="farm" />
		<tag k="ssr:stedsnr" v="603585" />
	</node>
	<node id="-839776" lat="68.8355722185" lon="16.2917583276">
		<tag k="name" v="Skjærstad" />
>>>>>>> e1d4bc35ff8a6074a6f2e91616a996b547c36f15
		<tag k="place" v="farm" />
		<tag k="ssr:stedsnr" v="748041" />
	</node>
<<<<<<< HEAD
	<node lat="68.66968333021795" lon="16.591691669135212" id="-43887">
		<tag k="name" v="Fjellstad" />
=======
	<node id="-839760" lat="68.9634692123" lon="16.5082552584">
		<tag k="fixme" v="consider place=hamlet" />
		<tag k="name" v="Akkarnes" />
>>>>>>> e1d4bc35ff8a6074a6f2e91616a996b547c36f15
		<tag k="place" v="farm" />
		<tag k="ssr:stedsnr" v="748089" />
	</node>
<<<<<<< HEAD
	<node lat="68.57018888990639" lon="16.512461113354284" id="-43889">
		<tag k="name" v="Reistad" />
=======
	<node id="-839756" lat="68.7254896104" lon="16.6414306381">
		<tag k="name" v="Rogla" />
>>>>>>> e1d4bc35ff8a6074a6f2e91616a996b547c36f15
		<tag k="place" v="farm" />
		<tag k="ssr:stedsnr" v="748150" />
	</node>
<<<<<<< HEAD
	<node lat="68.68239444817841" lon="16.51987223398575" id="-43895">
		<tag k="name" v="Olsrud" />
=======
	<node id="-839748" lat="68.6863472267" lon="16.5198722212">
		<tag k="alt_name" v="Opdal" />
		<tag k="name" v="Oppdal" />
>>>>>>> e1d4bc35ff8a6074a6f2e91616a996b547c36f15
		<tag k="place" v="farm" />
		<tag k="ssr:stedsnr" v="749154" />
	</node>
<<<<<<< HEAD
	<node lat="68.83571111384775" lon="16.290366670984188" id="-43897">
		<tag k="name" v="Skjærstad" />
=======
	<node id="-839747" lat="68.5997672129" lon="16.5037253147">
		<tag k="fixme" v="consider place=hamlet" />
		<tag k="loc_name:se" v="Hohkkabidja" />
		<tag k="name" v="Haukebø" />
		<tag k="name:no" v="Haukebø" />
>>>>>>> e1d4bc35ff8a6074a6f2e91616a996b547c36f15
		<tag k="place" v="farm" />
		<tag k="ssr:stedsnr" v="752442" />
	</node>
<<<<<<< HEAD
	<node lat="68.91683888939278" lon="16.264533329106794" id="-43901">
		<tag k="name" v="Ytter-Elgsnes" />
		<tag k="old_name" v="Elgsness ytre" />
=======
	<node id="-839744" lat="68.6647833349" lon="16.5027416562">
		<tag k="name" v="Myrlund" />
>>>>>>> e1d4bc35ff8a6074a6f2e91616a996b547c36f15
		<tag k="place" v="farm" />
		<tag k="ssr:stedsnr" v="768756" />
	</node>
<<<<<<< HEAD
	<node lat="68.89007843540955" lon="16.25272033654632" id="-43902">
		<tag k="name" v="Indre Elgsnes" />
		<tag k="old_name" v="Elgsness indre" />
=======
	<node id="-839743" lat="68.6640083362" lon="16.4975777663">
		<tag k="name" v="Storhaugen" />
>>>>>>> e1d4bc35ff8a6074a6f2e91616a996b547c36f15
		<tag k="place" v="farm" />
		<tag k="ssr:stedsnr" v="768766" />
	</node>
<<<<<<< HEAD
	<node lat="68.9506000008962" lon="16.660586115806378" id="-43914">
		<tag k="name" v="Sand" />
		<tag k="place" v="hamlet" />
		<tag k="ssr:stedsnr" v="782890" />
	</node>
	<node lat="68.87754444782236" lon="16.56230834122559" id="-43968">
		<tag k="name" v="Smihågen" />
=======
	<node id="-841790" lat="69.032749998" lon="16.5333388907">
		<tag k="name" v="Olsborg" />
		<tag k="place" v="isolated_dwelling" />
		<tag k="ssr:stedsnr" v="401725" />
	</node>
	<node id="-841788" lat="68.823974999" lon="16.4475083337">
		<tag k="name" v="Nymo" />
>>>>>>> e1d4bc35ff8a6074a6f2e91616a996b547c36f15
		<tag k="place" v="farm" />
		<tag k="ssr:stedsnr" v="786385" />
	</node>
<<<<<<< HEAD
	<node lat="68.87781389125026" lon="16.548697225854088" id="-43969">
		<tag k="name" v="Aspen" />
		<tag k="place" v="farm" />
		<tag k="ssr:stedsnr" v="786390" />
	</node>
	<node lat="68.81534999645478" lon="16.36125832736693" id="-43978">
		<tag k="name" v="Fjellheimen" />
=======
	<node id="-841778" lat="68.7167677501" lon="16.544282878">
		<tag k="name" v="Litleholtet" />
>>>>>>> e1d4bc35ff8a6074a6f2e91616a996b547c36f15
		<tag k="place" v="locality" />
		<tag k="ssr:stedsnr" v="786977" />
	</node>
	<node lat="68.80822398906076" lon="16.531069442158515" id="-43980">
		<tag k="name" v="Sama" />
		<tag k="place" v="hamlet" />
		<tag k="ssr:stedsnr" v="788886" />
	</node>
	<node id="-841775" lat="68.8891131618" lon="16.4461516863">
		<tag k="fixme" v="consider place=hamlet" />
		<tag k="name" v="Vaskinn" />
		<tag k="place" v="farm" />
		<tag k="ssr:stedsnr" v="392939" />
	</node>
	<node id="-841769" lat="68.5899138874" lon="16.5007110993">
		<tag k="name" v="Nordheim" />
		<tag k="place" v="farm" />
		<tag k="ssr:stedsnr" v="384201" />
	</node>
	<node id="-839714" lat="68.7201111126" lon="16.5222194564">
		<tag k="alt_name" v="Andsletta" />
		<tag k="name" v="Ansletta" />
		<tag k="place" v="farm" />
		<tag k="ssr:stedsnr" v="442974" />
	</node>
	<node id="-841758" lat="68.6684222265" lon="16.4898777716">
		<tag k="alt_name" v="Aspeli" />
		<tag k="name" v="Asplia" />
		<tag k="place" v="farm" />
		<tag k="ssr:stedsnr" v="383109" />
	</node>
	<node id="-839704" lat="68.9649738223" lon="16.5949798657">
		<tag k="alt_name" v="Horsevik" />
		<tag k="fixme" v="consider place=hamlet" />
		<tag k="name" v="Horsevika" />
		<tag k="place" v="farm" />
		<tag k="ssr:stedsnr" v="442785" />
	</node>
	<node id="-839697" lat="68.9295427171" lon="16.6210827044">
		<tag k="alt_name" v="Fenes" />
		<tag k="fixme" v="consider place=hamlet" />
		<tag k="name" v="Øvre Fenes" />
		<tag k="place" v="farm" />
		<tag k="ssr:stedsnr" v="442541" />
	</node>
	<node id="-841744" lat="68.8897444454" lon="16.2518638822">
		<tag k="name" v="Inner-Elgsnes" />
		<tag k="old_name" v="Indre Elgsnes" />
		<tag k="place" v="farm" />
		<tag k="ssr:stedsnr" v="382576" />
	</node>
	<node id="-841740" lat="68.7981983081" lon="16.4598260746">
		<tag k="alt_name" v="Kjelhus, in;Kjelhus indre" />
		<tag k="fixme" v="consider place=hamlet" />
		<tag k="name" v="Indre Kjelhus" />
		<tag k="place" v="farm" />
		<tag k="ssr:stedsnr" v="382478" />
	</node>
	<node id="-839690" lat="68.8008350515" lon="16.4742275988">
		<tag k="fixme" v="consider place=hamlet" />
		<tag k="name" v="Øverby" />
		<tag k="place" v="farm" />
		<tag k="ssr:stedsnr" v="442501" />
	</node>
	<node id="-841734" lat="68.7246402731" lon="16.6385330957">
		<tag k="name" v="Nygård" />
		<tag k="place" v="farm" />
		<tag k="ssr:stedsnr" v="381993" />
	</node>
</osm>
