<?xml version="1.0" encoding="UTF-8"?>
<osm version="0.6" generator="osmapis">
	<node lat="68.70624444447907" lon="16.387027771501835" id="-33924">
		<tag k="alt_name" v="Småvatnan, inste" />
		<tag k="name" v="Innste Småvatnet" />
		<tag k="natural" v="water" />
		<tag k="ssr:stedsnr" v="18994" />
	</node>
	<node lat="68.6406833358892" lon="16.4359611216944" id="-33927">
		<tag k="name" v="Byggebukta" />
		<tag k="natural" v="bay" />
		<tag k="ssr:stedsnr" v="20045" />
	</node>
	<node lat="68.5884972262847" lon="16.43861943599071" id="-33928">
		<tag k="name" v="Årbogvatnet" />
		<tag k="natural" v="water" />
		<tag k="ssr:stedsnr" v="20188" />
	</node>
	<node lat="69.00640555968837" lon="16.511813890084568" id="-33947">
		<tag k="name" v="Vikaelva" />
		<tag k="ssr:stedsnr" v="238266" />
		<tag k="waterway" v="stream" />
	</node>
	<node lat="68.78884166310404" lon="16.434322215062522" id="-33974">
		<tag k="name" v="Rødmyrstilla" />
		<tag k="natural" v="water" />
		<tag k="ssr:stedsnr" v="238860" />
		<tag k="water" v="lake" />
	</node>
	<node lat="68.91910833165599" lon="16.604519442122303" id="-33986">
		<tag k="name" v="Mølnelva" />
		<tag k="ssr:stedsnr" v="56124" />
		<tag k="waterway" v="stream" />
	</node>
	<node lat="68.6364222245733" lon="16.546900007800854" id="-33992">
		<tag k="name" v="Leikvikvatnet" />
		<tag k="natural" v="water" />
		<tag k="ssr:stedsnr" v="56379" />
	</node>
	<node lat="68.63255278098696" lon="16.56461666326117" id="-33993">
		<tag k="name" v="Skjelelva" />
		<tag k="ssr:stedsnr" v="56383" />
		<tag k="waterway" v="stream" />
	</node>
	<node lat="68.79508332984922" lon="16.491494451523224" id="-34001">
		<tag k="name" v="Østenbekken" />
		<tag k="ssr:stedsnr" v="56826" />
		<tag k="waterway" v="stream" />
	</node>
	<node lat="68.68453889337982" lon="16.53044999130813" id="-34006">
		<tag k="name" v="Kleelva" />
		<tag k="ssr:stedsnr" v="56576" />
		<tag k="waterway" v="stream" />
	</node>
	<node lat="68.62032777733762" lon="16.38492220928073" id="-34012">
		<tag k="name" v="Skjetneskarelva" />
		<tag k="ssr:stedsnr" v="56920" />
		<tag k="waterway" v="stream" />
	</node>
	<node lat="68.91133611316967" lon="16.271194456715897" id="-34015">
		<tag k="name" v="Mølnelva" />
		<tag k="ssr:stedsnr" v="240118" />
		<tag k="waterway" v="stream" />
	</node>
	<node lat="68.93019166804426" lon="16.45843056624616" id="-34039">
		<tag k="name" v="Nedre Dalsvatnet" />
		<tag k="natural" v="water" />
		<tag k="ssr:stedsnr" v="240423" />
		<tag k="water" v="lake" />
	</node>
	<node lat="68.71129722410913" lon="16.429094444852495" id="-34041">
		<tag k="name" v="Sorglauskråa" />
		<tag k="ssr:stedsnr" v="240644" />
		<tag k="waterway" v="stream" />
	</node>
	<node lat="68.9146472228386" lon="16.41376665729035" id="-34057">
		<tag k="name" v="Toppskarvatnet" />
		<tag k="natural" v="water" />
		<tag k="ssr:stedsnr" v="78543" />
	</node>
	<node lat="68.71587222625399" lon="16.486163884170818" id="-34062">
		<tag k="name" v="Fjellelva" />
		<tag k="ssr:stedsnr" v="78904" />
		<tag k="waterway" v="stream" />
	</node>
	<node lat="68.94210555699816" lon="16.568349994835156" id="-34085">
		<tag k="name" v="Trielva" />
		<tag k="ssr:stedsnr" v="117388" />
		<tag k="waterway" v="stream" />
	</node>
	<node lat="68.99741944400022" lon="16.52269998858981" id="-34086">
		<tag k="name" v="Mellaelva" />
		<tag k="ssr:stedsnr" v="117511" />
		<tag k="waterway" v="stream" />
	</node>
	<node lat="68.94223055168946" lon="16.669711108452855" id="-34117">
		<tag k="name" v="Altevika" />
		<tag k="natural" v="bay" />
		<tag k="ssr:stedsnr" v="120645" />
	</node>
	<node lat="68.75996666318206" lon="16.561805551162514" id="-34121">
		<tag k="name" v="Osen" />
		<tag k="natural" v="bay" />
		<tag k="ssr:stedsnr" v="138443" />
	</node>
	<node lat="68.63632777679207" lon="16.404288879137233" id="-34140">
		<tag k="name" v="Storvatnet - Stuorjávri" />
		<tag k="name:no" v="Storvatnet" />
		<tag k="name:se" v="Stuorjávri" />
		<tag k="natural" v="water" />
		<tag k="ssr:stedsnr" v="141034" />
		<tag k="water" v="lake" />
	</node>
	<node lat="68.63597777968546" lon="16.375555559549163" id="-34141">
		<tag k="name" v="Skipsholmen" />
		<tag k="place" v="islet" />
		<tag k="ssr:stedsnr" v="141036" />
	</node>
	<node lat="68.6194444416586" lon="16.425163898234256" id="-34143">
		<tag k="name" v="Øverforsdammen" />
		<tag k="place" v="locality" />
		<tag k="ssr:stedsnr" v="141235" />
	</node>
	<node lat="68.83029166878225" lon="16.40893055158406" id="-34167">
		<tag k="fixme" v="multiple name tags, choose one and add the other to alt_name" />
		<tag k="name" v="Botnvatnet;Grunnvatnet" />
		<tag k="natural" v="water" />
		<tag k="ssr:stedsnr" v="260437" />
	</node>
	<node lat="68.83056111064587" lon="16.247111117232787" id="-34168">
		<tag k="name" v="Pipvatnet" />
		<tag k="natural" v="water" />
		<tag k="ssr:stedsnr" v="260445" />
	</node>
	<node lat="68.84160000217952" lon="16.478949987745306" id="-34171">
		<tag k="name" v="Mølnelva" />
		<tag k="ssr:stedsnr" v="260448" />
		<tag k="waterway" v="stream" />
	</node>
	<node lat="68.67331944743778" lon="16.457055550448825" id="-34197">
		<tag k="alt_name" v="Klatranelva" />
		<tag k="name" v="Klatreelva" />
		<tag k="ssr:stedsnr" v="262100" />
		<tag k="waterway" v="stream" />
	</node>
	<node lat="68.7819583327488" lon="16.42696944841042" id="-34205">
		<tag k="name" v="Skamostilla" />
		<tag k="natural" v="water" />
		<tag k="ssr:stedsnr" v="177124" />
		<tag k="water" v="lake" />
	</node>
	<node lat="68.94737222050307" lon="16.531894437188114" id="-34215">
		<tag k="name" v="Kobbeneselva" />
		<tag k="ssr:stedsnr" v="177357" />
		<tag k="waterway" v="stream" />
	</node>
	<node lat="68.70223611488412" lon="16.55342778668928" id="-34220">
		<tag k="name" v="Kilbottsbekken" />
		<tag k="ssr:stedsnr" v="177616" />
		<tag k="waterway" v="stream" />
	</node>
	<node lat="68.95491110919745" lon="16.392002772735296" id="-34239">
		<tag k="name" v="Skarelva" />
		<tag k="ssr:stedsnr" v="180206" />
		<tag k="waterway" v="stream" />
	</node>
	<node lat="68.64323332909754" lon="16.353133329416863" id="-34247">
		<tag k="fixme" v="multiple name tags, choose one and add the other to alt_name" />
		<tag k="name" v="Dagborelva;Aurvasselva;Kjoffaelva" />
		<tag k="ssr:stedsnr" v="262026" />
		<tag k="waterway" v="river" />
	</node>
	<node lat="68.64214999923821" lon="16.536513888781748" id="-34248">
		<tag k="name" v="Heivatnet" />
		<tag k="natural" v="water" />
		<tag k="ssr:stedsnr" v="262031" />
	</node>
	<node lat="68.64661666904937" lon="16.375941670521094" id="-34249">
		<tag k="name" v="Klubbelva" />
		<tag k="ssr:stedsnr" v="262040" />
		<tag k="waterway" v="stream" />
	</node>
	<node lat="68.66045277854165" lon="16.509266672142346" id="-34250">
		<tag k="name" v="Litleelva" />
		<tag k="ssr:stedsnr" v="262067" />
		<tag k="waterway" v="stream" />
	</node>
	<node lat="68.64305000382824" lon="16.554913877970733" id="-34257">
		<tag k="name" v="Kaupelva" />
		<tag k="ssr:stedsnr" v="263060" />
		<tag k="waterway" v="stream" />
	</node>
	<node lat="68.834877782157" lon="16.270711106316345" id="-34263">
		<tag k="name" v="Småbekkelva" />
		<tag k="ssr:stedsnr" v="199414" />
		<tag k="waterway" v="stream" />
	</node>
	<node lat="68.9210444438284" lon="16.58664166363091" id="-34267">
		<tag k="name" v="Skipsdalsvatnet" />
		<tag k="natural" v="water" />
		<tag k="ssr:stedsnr" v="199557" />
	</node>
	<node lat="68.91088055504736" lon="16.44968334293038" id="-34268">
		<tag k="name" v="Vadskinndalsvatnet" />
		<tag k="natural" v="water" />
		<tag k="ssr:stedsnr" v="199560" />
	</node>
	<node lat="68.8334944484311" lon="16.39893054755585" id="-34336">
		<tag k="name" v="Botnelva" />
		<tag k="ssr:stedsnr" v="240999" />
		<tag k="waterway" v="stream" />
	</node>
	<node lat="68.83876944163367" lon="16.268750009986064" id="-34346">
		<tag k="alt_name" v="Nestelva" />
		<tag k="name" v="Nedstelva" />
		<tag k="ssr:stedsnr" v="260451" />
		<tag k="waterway" v="stream" />
	</node>
	<node lat="68.84844166490876" lon="16.454269438259917" id="-34347">
		<tag k="name" v="Stornesvatnet" />
		<tag k="natural" v="water" />
		<tag k="ssr:stedsnr" v="260458" />
	</node>
	<node lat="68.79007500183953" lon="16.352736121908535" id="-34350">
		<tag k="name" v="Sæterelva" />
		<tag k="ssr:stedsnr" v="260501" />
		<tag k="waterway" v="stream" />
	</node>
	<node lat="68.7925500013108" lon="16.492141656229204" id="-34353">
		<tag k="name" v="Grunnvatnet" />
		<tag k="natural" v="water" />
		<tag k="ssr:stedsnr" v="260510" />
	</node>
	<node lat="68.64540833353448" lon="16.46192777691241" id="-34362">
		<tag k="fixme" v="multiple name tags, choose one and add the other to alt_name" />
		<tag k="name" v="Skjeftlielva;Svartvasselva" />
		<tag k="ssr:stedsnr" v="262043" />
		<tag k="waterway" v="stream" />
	</node>
	<node lat="68.69879722101332" lon="16.516080564833963" id="-34367">
		<tag k="alt_name" v="Svartetjørna" />
		<tag k="name" v="Svartetjønna" />
		<tag k="natural" v="water" />
		<tag k="ssr:stedsnr" v="263173" />
	</node>
	<node lat="68.69988610769536" lon="16.543591674719835" id="-34395">
		<tag k="name" v="Aspeneset" />
		<tag k="natural" v="cape" />
		<tag k="ssr:stedsnr" v="299576" />
	</node>
	<node lat="68.671352778018" lon="16.52449722524979" id="-34398">
		<tag k="name" v="Halsan" />
		<tag k="natural" v="strait" />
		<tag k="ssr:stedsnr" v="299726" />
	</node>
	<node lat="68.82644444850854" lon="16.44588055309631" id="-34408">
		<tag k="name" v="Kolmyrbekken" />
		<tag k="ssr:stedsnr" v="300002" />
		<tag k="waterway" v="stream" />
	</node>
	<node lat="68.92903611135735" lon="16.46869722946473" id="-34412">
		<tag k="name" v="Midtre Dalsvatnet" />
		<tag k="natural" v="water" />
		<tag k="ssr:stedsnr" v="300395" />
		<tag k="water" v="lake" />
	</node>
	<node lat="68.63735555444869" lon="16.442538891779193" id="-34449">
		<tag k="name" v="Kalkelva" />
		<tag k="ssr:stedsnr" v="359418" />
		<tag k="waterway" v="stream" />
	</node>
	<node lat="68.66026944585246" lon="16.530788900586977" id="-34456">
		<tag k="name" v="Skavelva" />
		<tag k="ssr:stedsnr" v="359709" />
		<tag k="waterway" v="stream" />
	</node>
	<node lat="68.94706944093303" lon="16.724297209534022" id="-34476">
		<tag k="name" v="Mølneelva" />
		<tag k="ssr:stedsnr" v="479933" />
		<tag k="waterway" v="stream" />
	</node>
	<node lat="68.93132499984158" lon="16.619891669232135" id="-34486">
		<tag k="name" v="Latruelva" />
		<tag k="ssr:stedsnr" v="481151" />
		<tag k="waterway" v="stream" />
	</node>
	<node lat="68.93020277414074" lon="16.618213896863843" id="-34487">
		<tag k="name" v="Gårdselva" />
		<tag k="ssr:stedsnr" v="481152" />
		<tag k="waterway" v="stream" />
	</node>
	<node lat="69.00098888638341" lon="16.461169453867377" id="-34489">
		<tag k="name" v="Skavlielva" />
		<tag k="ssr:stedsnr" v="481297" />
		<tag k="waterway" v="stream" />
	</node>
	<node lat="69.00570277527322" lon="16.523397208957803" id="-34490">
		<tag k="name" v="Sandvikelva" />
		<tag k="ssr:stedsnr" v="481298" />
		<tag k="waterway" v="stream" />
	</node>
	<node lat="68.61776666958853" lon="16.432577769646784" id="-34496">
		<tag k="name" v="Straumselva" />
		<tag k="ssr:stedsnr" v="481398" />
		<tag k="waterway" v="stream" />
	</node>
	<node lat="68.64747499913763" lon="16.49914443154987" id="-34501">
		<tag k="name" v="Reinjordvatnet" />
		<tag k="natural" v="water" />
		<tag k="ssr:stedsnr" v="481684" />
	</node>
	<node lat="68.70686667015755" lon="16.494488886412633" id="-34505">
		<tag k="name" v="Kvithammarelva" />
		<tag k="ssr:stedsnr" v="481593" />
		<tag k="waterway" v="stream" />
	</node>
	<node lat="68.8326499958702" lon="16.280733343034726" id="-34514">
		<tag k="name" v="Svartebekken" />
		<tag k="ssr:stedsnr" v="481898" />
		<tag k="waterway" v="stream" />
	</node>
	<node lat="68.75125555142316" lon="16.445652771948588" id="-34516">
		<tag k="name" v="Ålvatnet" />
		<tag k="natural" v="water" />
		<tag k="ssr:stedsnr" v="381307" />
	</node>
	<node lat="68.7544361105321" lon="16.540986120435576" id="-34517">
		<tag k="name" v="Oselva" />
		<tag k="ssr:stedsnr" v="381308" />
		<tag k="waterway" v="stream" />
	</node>
	<node lat="68.72475000037024" lon="16.44324444790872" id="-34533">
		<tag k="name" v="Pevatnet" />
		<tag k="natural" v="water" />
		<tag k="ssr:stedsnr" v="381974" />
	</node>
	<node lat="68.86541388932069" lon="16.682963886322614" id="-34538">
		<tag k="fixme" v="multiple name tags, choose one and add the other to alt_name" />
		<tag k="name" v="Storvatnet;Vatnet" />
		<tag k="natural" v="water" />
		<tag k="ssr:stedsnr" v="382607" />
	</node>
	<node lat="68.86019166515956" lon="16.36110277128634" id="-34561">
		<tag k="name" v="Storvatnet" />
		<tag k="natural" v="water" />
		<tag k="ssr:stedsnr" v="483022" />
	</node>
	<node lat="68.62899444558857" lon="16.415980552741235" id="-34572">
		<tag k="name" v="Langholmen" />
		<tag k="place" v="islet" />
		<tag k="ssr:stedsnr" v="394589" />
	</node>
	<node lat="68.60934166426483" lon="16.49069999264" id="-34575">
		<tag k="name" v="Storelva" />
		<tag k="ssr:stedsnr" v="394831" />
		<tag k="waterway" v="river" />
	</node>
	<node lat="68.60244444745197" lon="16.48648333677338" id="-34638">
		<tag k="name" v="Heimelva" />
		<tag k="ssr:stedsnr" v="445202" />
		<tag k="waterway" v="stream" />
	</node>
	<node lat="69.01504166365075" lon="16.509252781718857" id="-34659">
		<tag k="name" v="Russelva" />
		<tag k="ssr:stedsnr" v="481274" />
		<tag k="waterway" v="stream" />
	</node>
	<node lat="68.63095555473927" lon="16.558944453527133" id="-34660">
		<tag k="name" v="Mølnelva" />
		<tag k="ssr:stedsnr" v="481402" />
		<tag k="waterway" v="stream" />
	</node>
	<node lat="68.95740833513112" lon="16.49238054744562" id="-34665">
		<tag k="name" v="Mølnelva" />
		<tag k="ssr:stedsnr" v="481370" />
		<tag k="waterway" v="stream" />
	</node>
	<node lat="68.65655555314537" lon="16.530977774204878" id="-34672">
		<tag k="name" v="Grisebekken" />
		<tag k="ssr:stedsnr" v="481678" />
		<tag k="waterway" v="stream" />
	</node>
	<node lat="68.81905277755729" lon="16.371480563896462" id="-34682">
		<tag k="name" v="Storelva" />
		<tag k="ssr:stedsnr" v="483972" />
		<tag k="waterway" v="stream" />
	</node>
	<node lat="68.77523333180712" lon="16.395213885579402" id="-34685">
		<tag k="name" v="Tennvatnet" />
		<tag k="natural" v="water" />
		<tag k="ssr:stedsnr" v="502476" />
		<tag k="water" v="lake" />
	</node>
	<node lat="68.81915277390267" lon="16.42576111632537" id="-34695">
		<tag k="name" v="Møkkelandsvatnet" />
		<tag k="natural" v="water" />
		<tag k="ssr:stedsnr" v="503374" />
		<tag k="water" v="lake" />
	</node>
	<node lat="68.8246222261515" lon="16.329694449229432" id="-34731">
		<tag k="name" v="Nonelva" />
		<tag k="ssr:stedsnr" v="685369" />
		<tag k="waterway" v="stream" />
	</node>
	<node lat="68.76234444143384" lon="16.410852781803197" id="-34743">
		<tag k="name" v="Steinsåsvatnet" />
		<tag k="natural" v="water" />
		<tag k="ssr:stedsnr" v="685419" />
		<tag k="water" v="lake" />
	</node>
	<node lat="68.90330555674873" lon="16.47926667459267" id="-34753">
		<tag k="name" v="Storfjellvatnan" />
		<tag k="natural" v="water" />
		<tag k="ssr:stedsnr" v="685559" />
	</node>
	<node lat="68.89316389183567" lon="16.5502944414844" id="-34759">
		<tag k="name" v="Tverrelva" />
		<tag k="ssr:stedsnr" v="685574" />
		<tag k="waterway" v="stream" />
	</node>
	<node lat="68.93722222088186" lon="16.607230555677937" id="-34766">
		<tag k="name" v="Mølnelva" />
		<tag k="ssr:stedsnr" v="685524" />
		<tag k="waterway" v="stream" />
	</node>
	<node lat="68.93356944667961" lon="16.39217778414703" id="-34767">
		<tag k="name" v="Dalselva" />
		<tag k="ssr:stedsnr" v="685535" />
		<tag k="waterway" v="river" />
	</node>
	<node lat="68.70723888662444" lon="16.56458610302212" id="-34775">
		<tag k="alt_name" v="Forravatnet" />
		<tag k="name" v="Foravatnet" />
		<tag k="natural" v="water" />
		<tag k="ssr:stedsnr" v="685900" />
		<tag k="water" v="lake" />
	</node>
	<node lat="68.71722222477565" lon="16.380500004431383" id="-34783">
		<tag k="alt_name" v="Øl-hammarbekken" />
		<tag k="name" v="Ol-Hammarbekken" />
		<tag k="ssr:stedsnr" v="536578" />
		<tag k="waterway" v="stream" />
	</node>
	<node lat="69.00883333139083" lon="16.491938877108883" id="-34797">
		<tag k="name" v="Storelva" />
		<tag k="ssr:stedsnr" v="541285" />
		<tag k="waterway" v="stream" />
	</node>
	<node lat="68.69052777439298" lon="16.531822214475806" id="-34809">
		<tag k="name" v="Melvikelva" />
		<tag k="ssr:stedsnr" v="541582" />
		<tag k="waterway" v="stream" />
	</node>
	<node lat="68.65087500432713" lon="16.545952770499028" id="-34822">
		<tag k="name" v="Storlikollelva" />
		<tag k="ssr:stedsnr" v="542672" />
		<tag k="waterway" v="stream" />
	</node>
	<node lat="68.65346111525592" lon="16.399422210518235" id="-34823">
		<tag k="name" v="Bjørnvika" />
		<tag k="natural" v="bay" />
		<tag k="ssr:stedsnr" v="687045" />
	</node>
	<node lat="68.65591667051545" lon="16.425611103483227" id="-34824">
		<tag k="alt_name" v="Storvassbotn" />
		<tag k="name" v="Storvassbukta" />
		<tag k="natural" v="bay" />
		<tag k="ssr:stedsnr" v="687046" />
	</node>
	<node lat="68.57714722373846" lon="16.441205563965706" id="-34842">
		<tag k="alt_name" v="Sanoelva" />
		<tag k="name" v="Sandåelva" />
		<tag k="ssr:stedsnr" v="687163" />
		<tag k="waterway" v="stream" />
	</node>
	<node lat="68.69436111176671" lon="16.527572220195324" id="-34846">
		<tag k="name" v="Melvikvatnet" />
		<tag k="natural" v="water" />
		<tag k="ssr:stedsnr" v="688175" />
		<tag k="water" v="lake" />
	</node>
	<node lat="68.66366944123963" lon="16.53974167633916" id="-34849">
		<tag k="alt_name" v="Raudtjørna" />
		<tag k="name" v="Rødtjønna" />
		<tag k="place" v="locality" />
		<tag k="ssr:stedsnr" v="565069" />
	</node>
	<node lat="68.60740277992977" lon="16.46838333532888" id="-34851">
		<tag k="name" v="Heimetverrelva" />
		<tag k="ssr:stedsnr" v="565207" />
		<tag k="waterway" v="stream" />
	</node>
	<node lat="68.94326944678456" lon="16.603405550329636" id="-34869">
		<tag k="name" v="Litjesandvikelva" />
		<tag k="ssr:stedsnr" v="600908" />
		<tag k="waterway" v="stream" />
	</node>
	<node lat="68.8571722227623" lon="16.253452772067345" id="-34871">
		<tag k="name" v="Trondsebekken" />
		<tag k="ssr:stedsnr" v="602009" />
		<tag k="waterway" v="stream" />
	</node>
	<node lat="68.73529721813335" lon="16.508527780870065" id="-34886">
		<tag k="name" v="Rypåsvatnet" />
		<tag k="natural" v="water" />
		<tag k="ssr:stedsnr" v="602856" />
	</node>
	<node lat="68.97737777952806" lon="16.34553334483234" id="-34919">
		<tag k="name" v="Nøggesvikvatnet" />
		<tag k="natural" v="water" />
		<tag k="ssr:stedsnr" v="624711" />
	</node>
	<node lat="68.9762000023037" lon="16.275633343888504" id="-34920">
		<tag k="name" v="Storelva" />
		<tag k="ssr:stedsnr" v="624715" />
		<tag k="waterway" v="stream" />
	</node>
	<node lat="68.62345277634077" lon="16.37914167103247" id="-34929">
		<tag k="name" v="Rundkollvatnet" />
		<tag k="natural" v="water" />
		<tag k="ssr:stedsnr" v="626002" />
	</node>
	<node lat="68.84941944363962" lon="16.387663884689935" id="-34981">
		<tag k="name" v="Eldstengelva" />
		<tag k="ssr:stedsnr" v="685405" />
		<tag k="waterway" v="stream" />
	</node>
	<node lat="68.99356666955892" lon="16.455225007592738" id="-34989">
		<tag k="name" v="Nøkkevatnet" />
		<tag k="natural" v="water" />
		<tag k="ssr:stedsnr" v="685693" />
	</node>
	<node lat="68.5982749998168" lon="16.485700002199124" id="-34995">
		<tag k="name" v="Gårdselva" />
		<tag k="ssr:stedsnr" v="687196" />
		<tag k="waterway" v="stream" />
	</node>
	<node lat="68.69780277764151" lon="16.62795001081524" id="-34996">
		<tag k="name" v="Einholmgrunnen" />
		<tag k="natural" v="shoal" />
		<tag k="place" v="locality" />
		<tag k="ssr:stedsnr" v="688114" />
	</node>
	<node lat="68.99425833010321" lon="16.548108339814007" id="-35003">
		<tag k="name" v="Rehågtjønna" />
		<tag k="natural" v="water" />
		<tag k="ssr:stedsnr" v="722406" />
	</node>
	<node lat="68.9960388922322" lon="16.554511100394652" id="-35004">
		<tag k="name" v="Sevtjønna" />
		<tag k="natural" v="water" />
		<tag k="ssr:stedsnr" v="722408" />
		<tag k="water" v="pond" />
	</node>
	<node lat="68.61336111155414" lon="16.47653889546935" id="-35009">
		<tag k="name" v="Gausvikelva" />
		<tag k="ssr:stedsnr" v="723423" />
		<tag k="waterway" v="stream" />
	</node>
	<node lat="68.63711944207266" lon="16.559841667079517" id="-35010">
		<tag k="name" v="Matelva" />
		<tag k="ssr:stedsnr" v="723370" />
		<tag k="waterway" v="stream" />
	</node>
	<node lat="68.89129167027797" lon="16.440783338024083" id="-35020">
		<tag k="name" v="Neselva" />
		<tag k="ssr:stedsnr" v="724380" />
		<tag k="waterway" v="stream" />
	</node>
	<node lat="68.64014166940784" lon="16.562905551087713" id="-35027">
		<tag k="name" v="Mieelva" />
		<tag k="ssr:stedsnr" v="724670" />
		<tag k="waterway" v="stream" />
	</node>
	<node lat="68.81043055486019" lon="16.512980549069834" id="-35032">
		<tag k="name" v="Mølna" />
		<tag k="place" v="islet" />
		<tag k="ssr:stedsnr" v="725035" />
	</node>
	<node lat="68.8421416686104" lon="16.381524997578058" id="-35036">
		<tag k="name" v="Utnakkelva" />
		<tag k="ssr:stedsnr" v="724993" />
		<tag k="waterway" v="stream" />
	</node>
	<node lat="68.73982499803293" lon="16.40561110285406" id="-35049">
		<tag k="name" v="Mølnosen" />
		<tag k="natural" v="bay" />
		<tag k="ssr:stedsnr" v="901535" />
	</node>
	<node lat="68.62652500335875" lon="16.55189721260276" id="-35074">
		<tag k="name" v="Melkeroelva" />
		<tag k="ssr:stedsnr" v="748012" />
		<tag k="waterway" v="stream" />
	</node>
	<node lat="68.62676111425115" lon="16.433874992182552" id="-35076">
		<tag k="name" v="Gausvikstøa" />
		<tag k="natural" v="bay" />
		<tag k="ssr:stedsnr" v="748019" />
	</node>
	<node lat="68.91483889197123" lon="16.604458334358075" id="-35125">
		<tag k="name" v="Litjelva" />
		<tag k="ssr:stedsnr" v="906796" />
		<tag k="waterway" v="stream" />
	</node>
	<node lat="68.92849166254676" lon="16.475616676948203" id="-35144">
		<tag k="name" v="Øvre Dalsvatnet" />
		<tag k="natural" v="water" />
		<tag k="ssr:stedsnr" v="907345" />
		<tag k="water" v="lake" />
	</node>
	<node lat="68.94447499886529" lon="16.36572500435071" id="-35150">
		<tag k="name" v="Langrovelva" />
		<tag k="ssr:stedsnr" v="908221" />
		<tag k="waterway" v="stream" />
	</node>
	<node lat="68.57587500300708" lon="16.507474992251648" id="-35152">
		<tag k="name" v="Sandåa" />
		<tag k="ssr:stedsnr" v="908226" />
		<tag k="waterway" v="stream" />
	</node>
	<node lat="68.57806944752059" lon="16.481436108159446" id="-35153">
		<tag k="name" v="Tverrelv 1" />
		<tag k="ssr:stedsnr" v="908230" />
		<tag k="waterway" v="stream" />
	</node>
	<node lat="68.68766666788699" lon="16.54371111222994" id="-35178">
		<tag k="name" v="Melvikosen" />
		<tag k="natural" v="bay" />
		<tag k="ssr:stedsnr" v="784574" />
	</node>
	<node lat="68.943805555814" lon="16.5901222224686" id="-35188">
		<tag k="name" v="Sølvsteinvatnan" />
		<tag k="natural" v="water" />
		<tag k="ssr:stedsnr" v="784922" />
		<tag k="water" v="lake" />
	</node>
	<node lat="68.62342500072988" lon="16.35715555058636" id="-35214">
		<tag k="name" v="Lysvatnet" />
		<tag k="natural" v="water" />
		<tag k="ssr:stedsnr" v="809004" />
	</node>
	<node lat="68.62037777708618" lon="16.336469448673625" id="-35217">
		<tag k="name" v="Grønkollvatnet" />
		<tag k="natural" v="water" />
		<tag k="ssr:stedsnr" v="809247" />
	</node>
	<node lat="68.90044444121449" lon="16.50693334024876" id="-35289">
		<tag k="fixme" v="multiple name tags, choose one and add the other to alt_name" />
		<tag k="name" v="Bjørnåa;Bjørnråelva" />
		<tag k="ssr:stedsnr" v="928529" />
		<tag k="waterway" v="stream" />
	</node>
	<node lat="68.71743611556677" lon="16.46033055491813" id="-35301">
		<tag k="name" v="Nattmålsfjellvatnet" />
		<tag k="natural" v="water" />
		<tag k="ssr:stedsnr" v="928992" />
	</node>
	<node lat="68.65253332996011" lon="16.517186113201152" id="-35303">
		<tag k="name" v="Forselva" />
		<tag k="ssr:stedsnr" v="930063" />
		<tag k="waterway" v="stream" />
	</node>
	<node lat="68.72875833058791" lon="16.383802781508702" id="-35305">
		<tag k="name" v="Ramnskarelva" />
		<tag k="ssr:stedsnr" v="867980" />
		<tag k="waterway" v="stream" />
	</node>
	<node lat="68.65971111031057" lon="16.44040833003661" id="-35307">
		<tag k="name" v="Mågelva" />
		<tag k="ssr:stedsnr" v="930069" />
		<tag k="waterway" v="stream" />
	</node>
	<node lat="68.67011944878855" lon="16.51990554839342" id="-35310">
		<tag k="name" v="Vikevatnet" />
		<tag k="natural" v="water" />
		<tag k="ssr:stedsnr" v="930079" />
		<tag k="water" v="lake" />
	</node>
	<node lat="68.67011666583983" lon="16.559624990632127" id="-35311">
		<tag k="alt_name" v="Nøkketjørna" />
		<tag k="name" v="Nøkketjønna" />
		<tag k="natural" v="water" />
		<tag k="ssr:stedsnr" v="930082" />
	</node>
	<node lat="68.65714444448767" lon="16.558625009848267" id="-35319">
		<tag k="name" v="Mølnelva" />
		<tag k="ssr:stedsnr" v="869076" />
		<tag k="waterway" v="stream" />
	</node>
	<node lat="68.60657222076124" lon="16.366124998680757" id="-35321">
		<tag k="fixme" v="multiple name tags, choose one and add the other to alt_name" />
		<tag k="name" v="Langvatnan;Skitneskarvatnan" />
		<tag k="natural" v="water" />
		<tag k="ssr:stedsnr" v="930220" />
		<tag k="water" v="lake" />
	</node>
	<node lat="68.64184166385542" lon="16.3782333250774" id="-35327">
		<tag k="name" v="Klubbneset" />
		<tag k="natural" v="cape" />
		<tag k="ssr:stedsnr" v="930629" />
	</node>
	<node lat="68.78320000008691" lon="16.457138883709664" id="-35343">
		<tag k="name" v="Langmobekken" />
		<tag k="ssr:stedsnr" v="906108" />
		<tag k="waterway" v="stream" />
	</node>
	<node lat="68.96105000290733" lon="16.436202788847957" id="-35353">
		<tag k="name" v="Staupelva" />
		<tag k="ssr:stedsnr" v="906757" />
		<tag k="waterway" v="stream" />
	</node>
	<node lat="68.99332499806346" lon="16.57757221955195" id="-35357">
		<tag k="name" v="Horsevikvatnet" />
		<tag k="natural" v="water" />
		<tag k="ssr:stedsnr" v="906950" />
	</node>
	<node lat="68.77169722252422" lon="16.49673334345831" id="-35367">
		<tag k="name" v="Pevasselva" />
		<tag k="ssr:stedsnr" v="907115" />
		<tag k="waterway" v="stream" />
	</node>
	<node lat="68.95279444831775" lon="16.373302773903337" id="-35373">
		<tag k="name" v="Trollvasselva" />
		<tag k="ssr:stedsnr" v="908202" />
		<tag k="waterway" v="river" />
	</node>
	<node lat="68.70261667022837" lon="16.564805550094448" id="-35424">
		<tag k="name" v="Åsevatnet" />
		<tag k="natural" v="water" />
		<tag k="ssr:stedsnr" v="966609" />
	</node>
	<node lat="68.94201110743217" lon="16.57951667550283" id="-35427">
		<tag k="name" v="Botnelva" />
		<tag k="ssr:stedsnr" v="966917" />
		<tag k="waterway" v="stream" />
	</node>
	<node lat="68.83208888993892" lon="16.34647223041006" id="-35439">
		<tag k="name" v="Mølnelva" />
		<tag k="ssr:stedsnr" v="968996" />
		<tag k="waterway" v="stream" />
	</node>
	<node lat="68.8401444437057" lon="16.364341660136912" id="-35440">
		<tag k="name" v="Grovelva" />
		<tag k="ssr:stedsnr" v="968998" />
		<tag k="waterway" v="stream" />
	</node>
	<node lat="68.83627499786253" lon="16.45034443983635" id="-35459">
		<tag k="name" v="Trollvatnet" />
		<tag k="natural" v="water" />
		<tag k="ssr:stedsnr" v="17430" />
	</node>
	<node lat="68.82800555147983" lon="16.264883329919034" id="-35460">
		<tag k="name" v="Fiskåa" />
		<tag k="ssr:stedsnr" v="17436" />
		<tag k="waterway" v="stream" />
	</node>
	<node lat="68.85455555699164" lon="16.34021110451934" id="-35466">
		<tag k="name" v="Keipvatnet" />
		<tag k="natural" v="water" />
		<tag k="ssr:stedsnr" v="17456" />
	</node>
	<node lat="68.82120277456556" lon="16.55588888390291" id="-35482">
		<tag k="name" v="Laugen" />
		<tag k="natural" v="water" />
		<tag k="ssr:stedsnr" v="18345" />
	</node>
	<node lat="68.80245833264642" lon="16.502672220702568" id="-35483">
		<tag k="name" v="Bergselva" />
		<tag k="ssr:stedsnr" v="18453" />
		<tag k="waterway" v="river" />
	</node>
	<node lat="68.70540832993802" lon="16.483805563599415" id="-35495">
		<tag k="fixme" v="multiple name tags, choose one and add the other to alt_name" />
		<tag k="name" v="Tverrelva;Skarbekken" />
		<tag k="ssr:stedsnr" v="18845" />
		<tag k="waterway" v="stream" />
	</node>
	<node lat="68.74609444125419" lon="16.456616653879582" id="-35497">
		<tag k="name" v="Korsdalsvatnet" />
		<tag k="natural" v="water" />
		<tag k="ssr:stedsnr" v="18946" />
	</node>
	<node lat="68.62404722397972" lon="16.455627770146698" id="-35501">
		<tag k="alt_name" v="Svartvatnet, l" />
		<tag k="name" v="Litle Svartvatnet" />
		<tag k="natural" v="water" />
		<tag k="ssr:stedsnr" v="20015" />
	</node>
	<node lat="68.58256944815844" lon="16.474811118493943" id="-35505">
		<tag k="name" v="Årbogelva" />
		<tag k="ssr:stedsnr" v="20171" />
		<tag k="waterway" v="stream" />
	</node>
	<node lat="68.78830555724849" lon="16.392950010026166" id="-35529">
		<tag k="name" v="Sameneidet" />
		<tag k="place" v="locality" />
		<tag k="ssr:stedsnr" v="52947" />
	</node>
	<node lat="68.77974444592901" lon="16.387580551840795" id="-35531">
		<tag k="name" v="Skjellbekken" />
		<tag k="ssr:stedsnr" v="52954" />
		<tag k="waterway" v="stream" />
	</node>
	<node lat="68.79746111528154" lon="16.39010832771384" id="-35534">
		<tag k="name" v="Indre Finngamelva" />
		<tag k="ssr:stedsnr" v="52995" />
		<tag k="waterway" v="stream" />
	</node>
	<node lat="68.92713889017202" lon="16.62424722115296" id="-35541">
		<tag k="name" v="Langåkerselva" />
		<tag k="ssr:stedsnr" v="56133" />
		<tag k="waterway" v="stream" />
	</node>
	<node lat="68.70705555957507" lon="16.50656944002392" id="-35560">
		<tag k="name" v="Bukkeelva" />
		<tag k="ssr:stedsnr" v="56616" />
		<tag k="waterway" v="stream" />
	</node>
	<node lat="68.7258916657005" lon="16.497738890338947" id="-35576">
		<tag k="name" v="Kollevatnet" />
		<tag k="natural" v="water" />
		<tag k="ssr:stedsnr" v="56855" />
	</node>
	<node lat="68.9628249956916" lon="16.711722224416867" id="-35578">
		<tag k="name" v="Hallevikelva" />
		<tag k="ssr:stedsnr" v="56900" />
		<tag k="waterway" v="stream" />
	</node>
	<node lat="68.83514999786617" lon="16.391786103892553" id="-35603">
		<tag k="name" v="Botnsanden" />
		<tag k="natural" v="beach" />
		<tag k="ssr:stedsnr" v="58998" />
	</node>
	<node lat="68.76410277459392" lon="16.5463833208297" id="-35610">
		<tag k="alt_name" v="Midkilvatnet" />
		<tag k="name" v="Medkilvatnet" />
		<tag k="natural" v="water" />
		<tag k="ssr:stedsnr" v="78443" />
	</node>
	<node lat="68.87117222208651" lon="16.33390554929363" id="-35640">
		<tag k="name" v="Stordalsvatnet" />
		<tag k="natural" v="water" />
		<tag k="ssr:stedsnr" v="79575" />
	</node>
	<node lat="68.99437778083961" lon="16.492477776411935" id="-35648">
		<tag k="name" v="Mølnelva" />
		<tag k="ssr:stedsnr" v="79665" />
		<tag k="waterway" v="stream" />
	</node>
	<node lat="68.64690833589545" lon="16.56647777383016" id="-35653">
		<tag k="name" v="Bodilvatnet" />
		<tag k="natural" v="water" />
		<tag k="ssr:stedsnr" v="80059" />
	</node>
	<node lat="68.68909444342766" lon="16.423977770910138" id="-35660">
		<tag k="name" v="Langvatnet" />
		<tag k="natural" v="water" />
		<tag k="ssr:stedsnr" v="81149" />
		<tag k="water" v="lake" />
	</node>
	<node lat="68.62014166709933" lon="16.494933326754083" id="-35662">
		<tag k="name" v="Gausvikvatnet" />
		<tag k="natural" v="water" />
		<tag k="ssr:stedsnr" v="81260" />
		<tag k="water" v="lake" />
	</node>
	<node lat="68.93656388904719" lon="16.67217499396176" id="-35686">
		<tag k="name" v="Sørhøgdelva" />
		<tag k="ssr:stedsnr" v="115164" />
		<tag k="waterway" v="stream" />
	</node>
	<node lat="68.90964444233134" lon="16.59120278318608" id="-35694">
		<tag k="name" v="Storelva" />
		<tag k="ssr:stedsnr" v="116731" />
		<tag k="waterway" v="stream" />
	</node>
	<node lat="68.77720555698217" lon="16.4428083416267" id="-35698">
		<tag k="name" v="Musvasselva" />
		<tag k="ssr:stedsnr" v="117143" />
		<tag k="waterway" v="stream" />
	</node>
	<node lat="68.86479722050946" lon="16.67906388302638" id="-35709">
		<tag k="name" v="Mølnelva" />
		<tag k="ssr:stedsnr" v="117535" />
		<tag k="waterway" v="stream" />
	</node>
	<node lat="68.68090277662121" lon="16.445200006064393" id="-35721">
		<tag k="name" v="Nattmålsskarvatnet" />
		<tag k="natural" v="water" />
		<tag k="ssr:stedsnr" v="117594" />
	</node>
	<node lat="68.70236111266124" lon="16.49574165406391" id="-35723">
		<tag k="name" v="Dølmyrbekken" />
		<tag k="ssr:stedsnr" v="117598" />
		<tag k="waterway" v="stream" />
	</node>
	<node lat="68.80175555589094" lon="16.425016655610246" id="-35731">
		<tag k="name" v="Ervikeidet" />
		<tag k="place" v="locality" />
		<tag k="ssr:stedsnr" v="117870" />
	</node>
	<node lat="68.83266667058366" lon="16.3773610995191" id="-35758">
		<tag k="name" v="Vedneset" />
		<tag k="natural" v="cape" />
		<tag k="ssr:stedsnr" v="120000" />
	</node>
	<node lat="68.76827221819563" lon="16.462597226575625" id="-35765">
		<tag k="name" v="Musvatnet" />
		<tag k="natural" v="water" />
		<tag k="ssr:stedsnr" v="138458" />
	</node>
	<node lat="68.75053055454842" lon="16.364738884815026" id="-35767">
		<tag k="alt_name" v="Småvatnet, austre" />
		<tag k="name" v="Austre Småvatn" />
		<tag k="natural" v="water" />
		<tag k="ssr:stedsnr" v="138327" />
	</node>
	<node lat="68.72797500067156" lon="16.42480276892877" id="-35776">
		<tag k="alt_name" v="Forrevatnet" />
		<tag k="name" v="Furuvatnan" />
		<tag k="natural" v="water" />
		<tag k="ssr:stedsnr" v="138966" />
	</node>
	<node lat="68.72715833277624" lon="16.393416656900555" id="-35777">
		<tag k="name" v="Sørlielva" />
		<tag k="ssr:stedsnr" v="138980" />
		<tag k="waterway" v="stream" />
	</node>
	<node lat="68.71279721784376" lon="16.384708339957808" id="-35778">
		<tag k="alt_name" v="Småvatnan, fremste" />
		<tag k="name" v="Fremste Småvatnet" />
		<tag k="natural" v="water" />
		<tag k="ssr:stedsnr" v="138991" />
	</node>
	<node lat="68.79818055815943" lon="16.39614167103216" id="-35782">
		<tag k="alt_name" v="Finngamelva" />
		<tag k="name" v="Midtre Finngamelva" />
		<tag k="ssr:stedsnr" v="139506" />
		<tag k="waterway" v="stream" />
	</node>
	<node lat="68.74290833307181" lon="16.517991658850928" id="-35790">
		<tag k="alt_name" v="Breidvikelva" />
		<tag k="name" v="Breivikelva" />
		<tag k="ssr:stedsnr" v="139777" />
		<tag k="waterway" v="stream" />
	</node>
	<node lat="68.62378888442268" lon="16.434488888829968" id="-35793">
		<tag k="name" v="Langvatnet" />
		<tag k="natural" v="water" />
		<tag k="ssr:stedsnr" v="141016" />
	</node>
	<node lat="68.69539166896226" lon="16.440980549620182" id="-35800">
		<tag k="name" v="Skarvatnet" />
		<tag k="natural" v="water" />
		<tag k="ssr:stedsnr" v="141151" />
		<tag k="water" v="lake" />
	</node>
	<node lat="68.6845055576738" lon="16.479950009580485" id="-35801">
		<tag k="name" v="Kvithammarelva" />
		<tag k="ssr:stedsnr" v="141161" />
		<tag k="waterway" v="river" />
	</node>
	<node lat="68.92973611558472" lon="16.675000001225023" id="-35830">
		<tag k="name" v="Oternestjønna" />
		<tag k="natural" v="water" />
		<tag k="ssr:stedsnr" v="176153" />
	</node>
	<node lat="68.76305833024685" lon="16.434369445941698" id="-35852">
		<tag k="name" v="Kvannbekken" />
		<tag k="ssr:stedsnr" v="177584" />
		<tag k="waterway" v="stream" />
	</node>
	<node lat="68.70029444780143" lon="16.55001110388731" id="-35853">
		<tag k="name" v="Forravassbekken" />
		<tag k="ssr:stedsnr" v="177593" />
		<tag k="waterway" v="stream" />
	</node>
	<node lat="68.88530833356455" lon="16.561038879637056" id="-35879">
		<tag k="name" v="Slåka" />
		<tag k="ssr:stedsnr" v="179360" />
		<tag k="waterway" v="stream" />
	</node>
	<node lat="68.9535638884233" lon="16.383555566542686" id="-35890">
		<tag k="name" v="Litlevasselva" />
		<tag k="ssr:stedsnr" v="180201" />
		<tag k="waterway" v="stream" />
	</node>
	<node lat="68.76331388729055" lon="16.364355549497454" id="-35901">
		<tag k="name" v="Litlvatnet" />
		<tag k="natural" v="water" />
		<tag k="ssr:stedsnr" v="199434" />
	</node>
	<node lat="68.87420832981246" lon="16.351669444076208" id="-35911">
		<tag k="name" v="Storelva" />
		<tag k="ssr:stedsnr" v="200612" />
		<tag k="waterway" v="stream" />
	</node>
	<node lat="68.8020888849889" lon="16.43351666987658" id="-35917">
		<tag k="name" v="Sæterelva" />
		<tag k="ssr:stedsnr" v="200382" />
		<tag k="waterway" v="river" />
	</node>
	<node lat="68.81659444138754" lon="16.54090832519814" id="-35918">
		<tag k="loc_name" v="Revsvatnet" />
		<tag k="name" v="Hagavatnet" />
		<tag k="natural" v="water" />
		<tag k="ssr:stedsnr" v="200384" />
	</node>
	<node lat="68.8145111152762" lon="16.320783328663072" id="-35920">
		<tag k="name" v="Sjurfjellvatnet" />
		<tag k="natural" v="water" />
		<tag k="ssr:stedsnr" v="200388" />
	</node>
	<node lat="68.90296388919796" lon="16.595702765275615" id="-35923">
		<tag k="name" v="Mekkoelva" />
		<tag k="ssr:stedsnr" v="200582" />
		<tag k="waterway" v="stream" />
	</node>
	<node lat="68.74331666593874" lon="16.372483331312687" id="-35932">
		<tag k="name" v="Perstilla" />
		<tag k="natural" v="water" />
		<tag k="ssr:stedsnr" v="200941" />
	</node>
	<node lat="68.69361944593408" lon="16.412627774946596" id="-35964">
		<tag k="name" v="Tverelva" />
		<tag k="ssr:stedsnr" v="294558" />
		<tag k="waterway" v="stream" />
	</node>
	<node lat="68.70474166278262" lon="16.49545833488069" id="-35971">
		<tag k="name" v="Fjellkråa" />
		<tag k="ssr:stedsnr" v="299599" />
		<tag k="waterway" v="stream" />
	</node>
	<node lat="68.94407499774876" lon="16.66740555235179" id="-35976">
		<tag k="name" v="Altevikelva" />
		<tag k="ssr:stedsnr" v="297934" />
		<tag k="waterway" v="stream" />
	</node>
	<node lat="68.8937305566604" lon="16.56494445286719" id="-36016">
		<tag k="name" v="Lakselva" />
		<tag k="ssr:stedsnr" v="300354" />
		<tag k="waterway" v="stream" />
	</node>
	<node lat="68.84948055358673" lon="16.41526666334273" id="-36039">
		<tag k="name" v="Skjellelva" />
		<tag k="ssr:stedsnr" v="320430" />
		<tag k="waterway" v="stream" />
	</node>
	<node lat="68.82390833113463" lon="16.297430550824014" id="-36059">
		<tag k="name" v="Høgfjellvatnan" />
		<tag k="natural" v="water" />
		<tag k="ssr:stedsnr" v="321378" />
		<tag k="water" v="lake" />
	</node>
	<node lat="68.95766388779961" lon="16.321113897097376" id="-36064">
		<tag k="name" v="Elvedalsvatnet" />
		<tag k="natural" v="water" />
		<tag k="ssr:stedsnr" v="321468" />
	</node>
	<node lat="68.70557777414682" lon="16.51097776434938" id="-36069">
		<tag k="fixme" v="multiple name tags, choose one and add the other to alt_name" />
		<tag k="name" v="Nordvikvatnan;Fjellvatnet" />
		<tag k="natural" v="water" />
		<tag k="ssr:stedsnr" v="321859" />
	</node>
	<node lat="68.73363055829824" lon="16.411222215564052" id="-36074">
		<tag k="name" v="Buttelvatnet" />
		<tag k="natural" v="water" />
		<tag k="ssr:stedsnr" v="321956" />
	</node>
	<node lat="68.66297777671309" lon="16.555361120818187" id="-36079">
		<tag k="alt_name" v="Lomtjørna" />
		<tag k="name" v="Lomtjønna" />
		<tag k="natural" v="water" />
		<tag k="ssr:stedsnr" v="323082" />
	</node>
	<node lat="68.60897777546306" lon="16.435605550558858" id="-36082">
		<tag k="name" v="Krokelva" />
		<tag k="ssr:stedsnr" v="323231" />
		<tag k="waterway" v="stream" />
	</node>
	<node lat="68.73789166886336" lon="16.403583331238398" id="-36102">
		<tag k="name" v="Mølnelva" />
		<tag k="ssr:stedsnr" v="355487" />
		<tag k="waterway" v="river" />
	</node>
	<node lat="68.83167222065649" lon="16.360569447480962" id="-36135">
		<tag k="name" v="Brennaneset" />
		<tag k="natural" v="cape" />
		<tag k="ssr:stedsnr" v="359993" />
	</node>
	<node lat="68.75814166458211" lon="16.549605546587195" id="-36136">
		<tag k="name" v="Tverrelva" />
		<tag k="ssr:stedsnr" v="359996" />
		<tag k="waterway" v="stream" />
	</node>
	<node lat="68.83148889059332" lon="16.473833326757735" id="-36146">
		<tag k="name" v="Undlandsbekken" />
		<tag k="ssr:stedsnr" v="361035" />
		<tag k="waterway" v="stream" />
	</node>
	<node lat="68.83452499873147" lon="16.471355558412398" id="-36147">
		<tag k="name" v="Røkenesbekken" />
		<tag k="ssr:stedsnr" v="361036" />
		<tag k="waterway" v="stream" />
	</node>
	<node lat="68.88399166701461" lon="16.56065000960048" id="-36166">
		<tag k="name" v="Tverrbekken" />
		<tag k="ssr:stedsnr" v="361396" />
		<tag k="waterway" v="stream" />
	</node>
	<node lat="68.81618055390834" lon="16.4602999962234" id="-36177">
		<tag k="name" v="Ervikelva" />
		<tag k="ssr:stedsnr" v="381392" />
		<tag k="waterway" v="stream" />
	</node>
	<node lat="68.92952499778093" lon="16.46910555509532" id="-36183">
		<tag k="name" v="Dalsvatnan" />
		<tag k="natural" v="water" />
		<tag k="ssr:stedsnr" v="381534" />
		<tag k="water" v="lake" />
	</node>
	<node lat="68.90591389193376" lon="16.421638879342414" id="-36187">
		<tag k="name" v="Hallevikelva" />
		<tag k="ssr:stedsnr" v="381552" />
		<tag k="waterway" v="stream" />
	</node>
	<node lat="68.89926111389666" lon="16.44994166353879" id="-36192">
		<tag k="alt_name" v="Vadskinnelva" />
		<tag k="name" v="Vaskinnelva" />
		<tag k="ssr:stedsnr" v="381560" />
		<tag k="waterway" v="stream" />
	</node>
	<node lat="68.91239999941271" lon="16.55211665662705" id="-36193">
		<tag k="name" v="Skjellesvikvatnet" />
		<tag k="natural" v="water" />
		<tag k="ssr:stedsnr" v="381564" />
	</node>
	<node lat="68.86497499987792" lon="16.358563881350964" id="-36212">
		<tag k="name" v="Aunvatnan" />
		<tag k="natural" v="water" />
		<tag k="ssr:stedsnr" v="382598" />
		<tag k="water" v="lake" />
	</node>
	<node lat="68.67663055448655" lon="16.47415556160056" id="-36216">
		<tag k="name" v="Tverrelva" />
		<tag k="ssr:stedsnr" v="383119" />
		<tag k="waterway" v="stream" />
	</node>
	<node lat="68.60844444084746" lon="16.353499992960977" id="-36219">
		<tag k="name" v="Olavatnan" />
		<tag k="natural" v="water" />
		<tag k="ssr:stedsnr" v="383238" />
	</node>
	<node lat="68.62456389185176" lon="16.30877778511195" id="-36220">
		<tag k="name" v="Dalelva" />
		<tag k="ssr:stedsnr" v="383617" />
		<tag k="waterway" v="river" />
	</node>
	<node lat="68.63730555939871" lon="16.324922228636495" id="-36222">
		<tag k="name" v="Rundfjellvatnet - Beaibárjávri" />
		<tag k="name:no" v="Rundfjellvatnet" />
		<tag k="name:se" v="Beaibárjávri" />
		<tag k="natural" v="water" />
		<tag k="ssr:stedsnr" v="384037" />
	</node>
	<node lat="68.68502499929204" lon="16.610499987132325" id="-36223">
		<tag k="name" v="Tjørholmen" />
		<tag k="place" v="islet" />
		<tag k="ssr:stedsnr" v="384133" />
	</node>
	<node lat="68.6134000013839" lon="16.418733320635127" id="-36224">
		<tag k="name" v="Bekkelva" />
		<tag k="ssr:stedsnr" v="384245" />
		<tag k="waterway" v="stream" />
	</node>
	<node lat="68.6807638932062" lon="16.570966656985345" id="-36226">
		<tag k="name" v="Halsebøneset" />
		<tag k="natural" v="cape" />
		<tag k="ssr:stedsnr" v="384165" />
	</node>
	<node lat="68.7615555563656" lon="16.396436122982056" id="-36243">
		<tag k="name" v="Litleneset" />
		<tag k="natural" v="cape" />
		<tag k="ssr:stedsnr" v="416920" />
	</node>
	<node lat="68.99818333049745" lon="16.532605546565268" id="-36250">
		<tag k="name" v="Vadelva" />
		<tag k="ssr:stedsnr" v="418430" />
		<tag k="waterway" v="stream" />
	</node>
	<node lat="68.96324166227177" lon="16.428305555287785" id="-36254">
		<tag k="name" v="Tusselva" />
		<tag k="ssr:stedsnr" v="419732" />
		<tag k="waterway" v="stream" />
	</node>
	<node lat="68.60418889215461" lon="16.46760833933836" id="-36281">
		<tag k="name" v="Nordelva" />
		<tag k="ssr:stedsnr" v="420471" />
		<tag k="waterway" v="stream" />
	</node>
	<node lat="68.65053610873068" lon="16.52190000931808" id="-36292">
		<tag k="name" v="Stilkevatnet" />
		<tag k="natural" v="water" />
		<tag k="ssr:stedsnr" v="421679" />
	</node>
	<node lat="68.64445000241827" lon="16.53620555875548" id="-36293">
		<tag k="name" v="Smørlivatnet" />
		<tag k="natural" v="water" />
		<tag k="ssr:stedsnr" v="421681" />
	</node>
	<node lat="68.81714722277962" lon="16.472461114953838" id="-36303">
		<tag k="name" v="Elveneset" />
		<tag k="natural" v="cape" />
		<tag k="ssr:stedsnr" v="422065" />
	</node>
	<node lat="68.8160722250481" lon="16.369461100826737" id="-36317">
		<tag k="name" v="Skredbekken" />
		<tag k="ssr:stedsnr" v="422961" />
		<tag k="waterway" v="stream" />
	</node>
	<node lat="68.83489166461455" lon="16.37620834123052" id="-36332">
		<tag k="name" v="Kasfjordvatnet" />
		<tag k="natural" v="water" />
		<tag k="ssr:stedsnr" v="442417" />
		<tag k="water" v="lake" />
	</node>
	<node lat="68.83797777586827" lon="16.471436102938426" id="-36333">
		<tag k="alt_name" v="Skjellva" />
		<tag k="name" v="Skjellelva" />
		<tag k="ssr:stedsnr" v="442419" />
		<tag k="waterway" v="stream" />
	</node>
	<node lat="68.76768888502365" lon="16.515644439761587" id="-36336">
		<tag k="name" v="Kanebogelva" />
		<tag k="ssr:stedsnr" v="442458" />
		<tag k="waterway" v="stream" />
	</node>
	<node lat="68.74593888520579" lon="16.399055564793837" id="-36351">
		<tag k="name" v="Storvatnet" />
		<tag k="natural" v="water" />
		<tag k="ssr:stedsnr" v="442823" />
		<tag k="water" v="lake" />
	</node>
	<node lat="68.94893055425368" lon="16.38169443782062" id="-36366">
		<tag k="name" v="Storvatnet" />
		<tag k="natural" v="water" />
		<tag k="ssr:stedsnr" v="443523" />
		<tag k="water" v="lake" />
	</node>
	<node lat="68.78043611331225" lon="16.514400000651747" id="-36387">
		<tag k="name" v="Botnelva" />
		<tag k="ssr:stedsnr" v="502467" />
		<tag k="waterway" v="stream" />
	</node>
	<node lat="68.76594722188305" lon="16.489444439423576" id="-36405">
		<tag k="name" v="Pevatnet" />
		<tag k="natural" v="water" />
		<tag k="ssr:stedsnr" v="503438" />
	</node>
	<node lat="68.80353333177455" lon="16.35277498812253" id="-36406">
		<tag k="name" v="Treppedalsvatnet" />
		<tag k="natural" v="water" />
		<tag k="ssr:stedsnr" v="503355" />
	</node>
	<node lat="68.89971666738187" lon="16.568555560396668" id="-36409">
		<tag k="name" v="Svartdalselva" />
		<tag k="ssr:stedsnr" v="503545" />
		<tag k="waterway" v="stream" />
	</node>
	<node lat="68.89739444022655" lon="16.59156667263735" id="-36410">
		<tag k="name" v="Storelva" />
		<tag k="ssr:stedsnr" v="503547" />
		<tag k="waterway" v="river" />
	</node>
	<node lat="68.74286389155886" lon="16.39903611151708" id="-36415">
		<tag k="name" v="Gunnarneset" />
		<tag k="natural" v="cape" />
		<tag k="ssr:stedsnr" v="503922" />
	</node>
	<node lat="68.7402777801895" lon="16.540336105904032" id="-36416">
		<tag k="name" v="Vollaelva" />
		<tag k="ssr:stedsnr" v="503931" />
		<tag k="waterway" v="stream" />
	</node>
	<node lat="68.73423888665565" lon="16.535466657580024" id="-36418">
		<tag k="name" v="Trollvatnet" />
		<tag k="natural" v="water" />
		<tag k="ssr:stedsnr" v="503938" />
	</node>
	<node lat="68.62344166346854" lon="16.447794446278888" id="-36425">
		<tag k="name" v="Lysvatnet" />
		<tag k="natural" v="water" />
		<tag k="ssr:stedsnr" v="505014" />
	</node>
	<node lat="68.62181944364777" lon="16.408519446376385" id="-36426">
		<tag k="name" v="Steinvatnet" />
		<tag k="natural" v="water" />
		<tag k="ssr:stedsnr" v="505015" />
	</node>
	<node lat="68.64530000346363" lon="16.494519451662253" id="-36428">
		<tag k="name" v="Lysvatnet" />
		<tag k="natural" v="water" />
		<tag k="ssr:stedsnr" v="505044" />
	</node>
	<node lat="68.610311107108" lon="16.46203611856135" id="-36435">
		<tag k="name" v="Tverrelva" />
		<tag k="ssr:stedsnr" v="505237" />
		<tag k="waterway" v="stream" />
	</node>
	<node lat="68.61232221883847" lon="16.47957778270524" id="-36436">
		<tag k="name" v="Nydammen" />
		<tag k="place" v="locality" />
		<tag k="ssr:stedsnr" v="505248" />
	</node>
	<node lat="68.80074722566287" lon="16.400205546795636" id="-36457">
		<tag k="name" v="Ytre Finngamelva" />
		<tag k="ssr:stedsnr" v="537996" />
		<tag k="waterway" v="stream" />
	</node>
	<node lat="68.76549999932774" lon="16.362783322008404" id="-36458">
		<tag k="name" v="Langneset" />
		<tag k="natural" v="cape" />
		<tag k="ssr:stedsnr" v="537930" />
	</node>
	<node lat="68.77545833267052" lon="16.403230561762488" id="-36459">
		<tag k="name" v="Langneset" />
		<tag k="natural" v="cape" />
		<tag k="ssr:stedsnr" v="537943" />
	</node>
	<node lat="68.99461110793092" lon="16.531705560268083" id="-36463">
		<tag k="name" v="Svortebekken" />
		<tag k="ssr:stedsnr" v="540439" />
		<tag k="waterway" v="stream" />
	</node>
	<node lat="69.0009638930089" lon="16.520544448522784" id="-36465">
		<tag k="name" v="Vollanelva" />
		<tag k="ssr:stedsnr" v="541519" />
		<tag k="waterway" v="stream" />
	</node>
	<node lat="68.81619721871942" lon="16.44104722124026" id="-36505">
		<tag k="name" v="Sæterosen" />
		<tag k="natural" v="bay" />
		<tag k="ssr:stedsnr" v="543061" />
	</node>
	<node lat="68.88626944422191" lon="16.486536104843342" id="-36514">
		<tag k="name" v="Lomsvatnet" />
		<tag k="natural" v="water" />
		<tag k="ssr:stedsnr" v="543446" />
	</node>
	<node lat="68.90820833539163" lon="16.254875007595295" id="-36520">
		<tag k="name" v="Horsevikelva" />
		<tag k="ssr:stedsnr" v="544104" />
		<tag k="waterway" v="stream" />
	</node>
	<node lat="68.84453332971466" lon="16.351747216734115" id="-36529">
		<tag k="name" v="Nordelva" />
		<tag k="ssr:stedsnr" v="563409" />
		<tag k="waterway" v="stream" />
	</node>
	<node lat="68.70304999668714" lon="16.532088877113814" id="-36567">
		<tag k="name" v="Nordvikelva" />
		<tag k="ssr:stedsnr" v="563901" />
		<tag k="waterway" v="river" />
	</node>
	<node lat="68.71702499701489" lon="16.431708332523964" id="-36571">
		<tag k="name" v="Tennevatnet" />
		<tag k="natural" v="water" />
		<tag k="ssr:stedsnr" v="563992" />
	</node>
	<node lat="68.70239722292115" lon="16.439802778990067" id="-36584">
		<tag k="name" v="Magnusvatnet" />
		<tag k="natural" v="water" />
		<tag k="ssr:stedsnr" v="566155" />
		<tag k="water" v="lake" />
	</node>
	<node lat="68.62979166437613" lon="16.40877500318525" id="-36675">
		<tag k="name" v="Moltebærholmen" />
		<tag k="place" v="islet" />
		<tag k="ssr:stedsnr" v="602906" />
	</node>
	<node lat="68.88284722285373" lon="16.52362500031958" id="-36685">
		<tag k="name" v="Svartåa" />
		<tag k="ssr:stedsnr" v="603337" />
		<tag k="waterway" v="stream" />
	</node>
	<node lat="68.88614444566176" lon="16.55963055031539" id="-36686">
		<tag k="name" v="Laåsbekken" />
		<tag k="ssr:stedsnr" v="603348" />
		<tag k="waterway" v="stream" />
	</node>
	<node lat="68.57972500050784" lon="16.453224999823075" id="-36694">
		<tag k="name" v="Tverrelv 3" />
		<tag k="ssr:stedsnr" v="604235" />
		<tag k="waterway" v="stream" />
	</node>
	<node lat="68.81402500274558" lon="16.34614721200495" id="-36698">
		<tag k="name" v="Ørnskarbekken" />
		<tag k="ssr:stedsnr" v="604974" />
		<tag k="waterway" v="stream" />
	</node>
	<node lat="68.84277777718296" lon="16.435844433656754" id="-36715">
		<tag k="name" v="Hornvatnet" />
		<tag k="natural" v="water" />
		<tag k="ssr:stedsnr" v="624434" />
	</node>
	<node lat="68.80641666591912" lon="16.292711110142378" id="-36717">
		<tag k="name" v="Skjærstaddalsvatnet" />
		<tag k="natural" v="water" />
		<tag k="ssr:stedsnr" v="624396" />
	</node>
	<node lat="68.85451110879526" lon="16.369175007058214" id="-36720">
		<tag k="name" v="Småvatnan" />
		<tag k="natural" v="water" />
		<tag k="ssr:stedsnr" v="624444" />
	</node>
	<node lat="68.954858332038" lon="16.350669438730478" id="-36722">
		<tag k="name" v="Trollvatnet" />
		<tag k="natural" v="water" />
		<tag k="ssr:stedsnr" v="624507" />
		<tag k="water" v="lake" />
	</node>
	<node lat="68.92268611452785" lon="16.428011121110828" id="-36730">
		<tag k="name" v="Nonskarvatnan" />
		<tag k="natural" v="water" />
		<tag k="ssr:stedsnr" v="624549" />
		<tag k="water" v="lake" />
	</node>
	<node lat="68.647955555036" lon="16.57646388357132" id="-36739">
		<tag k="alt_name" v="Vaelva" />
		<tag k="name" v="Vadelva" />
		<tag k="ssr:stedsnr" v="626079" />
		<tag k="waterway" v="stream" />
	</node>
	<node lat="68.61089444048274" lon="16.397438886438636" id="-36747">
		<tag k="name" v="Musvatnet" />
		<tag k="natural" v="water" />
		<tag k="ssr:stedsnr" v="626234" />
	</node>
	<node lat="68.7932250017589" lon="16.39175555481628" id="-36765">
		<tag k="name" v="Øvre Tømmermyrelva" />
		<tag k="ssr:stedsnr" v="659000" />
		<tag k="waterway" v="stream" />
	</node>
	<node lat="68.8905416679219" lon="16.44479165961887" id="-36788">
		<tag k="name" v="Naustelva" />
		<tag k="ssr:stedsnr" v="663398" />
		<tag k="waterway" v="stream" />
	</node>
	<node lat="68.95729166572758" lon="16.515036115046936" id="-36791">
		<tag k="name" v="Sandelva" />
		<tag k="ssr:stedsnr" v="663345" />
		<tag k="waterway" v="stream" />
	</node>
	<node lat="68.98749722573248" lon="16.46422223260218" id="-36797">
		<tag k="name" v="Fugleskarelva" />
		<tag k="ssr:stedsnr" v="663454" />
		<tag k="waterway" v="stream" />
	</node>
	<node lat="68.73556666286042" lon="16.441497221179688" id="-36829">
		<tag k="name" v="Korsdalselva" />
		<tag k="ssr:stedsnr" v="664939" />
		<tag k="waterway" v="stream" />
	</node>
	<node lat="68.89724722249093" lon="16.29201389805331" id="-36832">
		<tag k="name" v="Skjellelva" />
		<tag k="ssr:stedsnr" v="665145" />
		<tag k="waterway" v="stream" />
	</node>
	<node lat="68.57808889223745" lon="16.453561109320425" id="-36835">
		<tag k="name" v="Tverrelv 2" />
		<tag k="ssr:stedsnr" v="665253" />
		<tag k="waterway" v="stream" />
	</node>
	<node lat="68.75909166623123" lon="16.39374722044974" id="-36842">
		<tag k="name" v="Tømmeråselva" />
		<tag k="ssr:stedsnr" v="719934" />
		<tag k="waterway" v="river" />
	</node>
	<node lat="68.9457416677603" lon="16.698394449712794" id="-36850">
		<tag k="name" v="Storvatnet" />
		<tag k="natural" v="water" />
		<tag k="ssr:stedsnr" v="722946" />
	</node>
	<node lat="68.59912500397262" lon="16.474325000061302" id="-36854">
		<tag k="name" v="Haukebøelva" />
		<tag k="ssr:stedsnr" v="723428" />
		<tag k="waterway" v="stream" />
	</node>
	<node lat="68.6962638924564" lon="16.548152782266943" id="-36859">
		<tag k="name" v="Litlelva" />
		<tag k="ssr:stedsnr" v="723561" />
		<tag k="waterway" v="stream" />
	</node>
	<node lat="68.99879166907186" lon="16.446294433062114" id="-36877">
		<tag k="name" v="Svartdalselva" />
		<tag k="ssr:stedsnr" v="724455" />
		<tag k="waterway" v="stream" />
	</node>
	<node lat="68.80080833537428" lon="16.510813883328932" id="-36883">
		<tag k="name" v="Trollvatnet" />
		<tag k="natural" v="water" />
		<tag k="ssr:stedsnr" v="724845" />
	</node>
	<node lat="68.67120277548021" lon="16.581805556652498" id="-36901">
		<tag k="name" v="Brokvikvatnet" />
		<tag k="natural" v="water" />
		<tag k="ssr:stedsnr" v="725631" />
	</node>
	<node lat="68.74111111399527" lon="16.41587777190809" id="-36904">
		<tag k="name" v="Storvassbotn" />
		<tag k="natural" v="bay" />
		<tag k="ssr:stedsnr" v="725929" />
	</node>
	<node lat="68.84676388703868" lon="16.474102765060085" id="-36922">
		<tag k="name" v="Falkelva" />
		<tag k="ssr:stedsnr" v="745429" />
		<tag k="waterway" v="stream" />
	</node>
	<node lat="68.76280555807132" lon="16.345144446982246" id="-36925">
		<tag k="name" v="Gåsvatnet" />
		<tag k="natural" v="water" />
		<tag k="ssr:stedsnr" v="745439" />
		<tag k="water" v="lake" />
	</node>
	<node lat="68.95536944543588" lon="16.383047215460557" id="-36927">
		<tag k="name" v="Litlevatnet" />
		<tag k="natural" v="water" />
		<tag k="ssr:stedsnr" v="745493" />
	</node>
	<node lat="68.95790555530303" lon="16.584799987461412" id="-36928">
		<tag k="name" v="Horsevikvatnet" />
		<tag k="natural" v="water" />
		<tag k="ssr:stedsnr" v="745497" />
	</node>
	<node lat="68.9190249956767" lon="16.479894449969223" id="-36930">
		<tag k="name" v="Trolltindvatnet" />
		<tag k="natural" v="water" />
		<tag k="ssr:stedsnr" v="745536" />
	</node>
	<node lat="68.62488333635923" lon="16.397008322831223" id="-36952">
		<tag k="name" v="Straumsvatnet" />
		<tag k="natural" v="water" />
		<tag k="ssr:stedsnr" v="748022" />
	</node>
	<node lat="68.65352222375964" lon="16.38260555820764" id="-36960">
		<tag k="name" v="Litleelva" />
		<tag k="ssr:stedsnr" v="748615" />
		<tag k="waterway" v="stream" />
	</node>
	<node lat="68.65492499952856" lon="16.409213892389175" id="-36975">
		<tag k="name" v="Hålgeneset" />
		<tag k="natural" v="cape" />
		<tag k="ssr:stedsnr" v="780546" />
	</node>
	<node lat="68.99524444571031" lon="16.539177786239538" id="-36980">
		<tag k="name" v="Sommerbekken" />
		<tag k="ssr:stedsnr" v="782411" />
		<tag k="waterway" v="stream" />
	</node>
	<node lat="68.7787000019844" lon="16.43067222882341" id="-36989">
		<tag k="name" v="Langmostilla" />
		<tag k="natural" v="water" />
		<tag k="ssr:stedsnr" v="784132" />
		<tag k="water" v="lake" />
	</node>
	<node lat="68.99107500444954" lon="16.488386105335664" id="-37011">
		<tag k="name" v="Ersdalselva" />
		<tag k="ssr:stedsnr" v="784512" />
		<tag k="waterway" v="stream" />
	</node>
	<node lat="68.96068610766572" lon="16.675977769889712" id="-37022">
		<tag k="name" v="Tortenelva" />
		<tag k="ssr:stedsnr" v="784890" />
		<tag k="waterway" v="stream" />
	</node>
	<node lat="68.75351944355637" lon="16.400427768627182" id="-37049">
		<tag k="name" v="Steinneset" />
		<tag k="natural" v="cape" />
		<tag k="ssr:stedsnr" v="806308" />
	</node>
</osm>
