<?xml version="1.0" encoding="UTF-8"?>
<<<<<<< HEAD
<osm version="0.6" generator="osmapis">
	<node lat="68.99537270538828" lon="16.543423231591408" id="-41290">
		<tag k="alt_name" v="Bjarkøy" />
		<tag k="amenity" v="place_of_worship" />
		<tag k="denomination" v="lutheran" />
		<tag k="name" v="Bjarkøy kirke" />
		<tag k="religion" v="christian" />
		<tag k="ssr:stedsnr" v="260747" />
	</node>
	<node lat="69.03359167092478" lon="16.5274111056254" id="-41509">
=======
<osm generator="osmapis" version="0.6">
	<node id="-839900" lat="69.0335916709" lon="16.5274111056">
>>>>>>> e1d4bc35ff8a6074a6f2e91616a996b547c36f15
		<tag k="cemetery" v="grave" />
		<tag k="name" v="Gråten" />
		<tag k="place" v="locality" />
		<tag k="ssr:stedsnr" v="484845" />
	</node>
<<<<<<< HEAD
	<node lat="68.68329605893214" lon="16.531591651028535" id="-41862">
		<tag k="amenity" v="place_of_worship" />
		<tag k="denomination" v="lutheran" />
		<tag k="name" v="Sandtorg" />
		<tag k="religion" v="christian" />
		<tag k="ssr:stedsnr" v="626153" />
	</node>
	<node lat="68.68339999585334" lon="16.53155556368681" id="-42111">
		<tag k="amenity" v="place_of_worship" />
		<tag k="fixme" v="specify religion=*, denomination=*, building=* etc" />
		<tag k="name" v="Sørvik kapell" />
		<tag k="ssr:stedsnr" v="784575" />
	</node>
	<node lat="68.91164166456822" lon="16.26981665875765" id="-42219">
		<tag k="name" v="Hans Egedes Minne" />
		<tag k="ssr:stedsnr" v="928522" />
		<tag k="tourism" v="attraction" />
	</node>
	<node lat="68.95283888881202" lon="16.658308343299762" id="-42396">
=======
	<node id="-841178" lat="68.8021666707" lon="16.5355499973">
		<tag k="amenity" v="place_of_worship" />
		<tag k="denomination" v="lutheran" />
		<tag k="name" v="Harstad kirke" />
		<tag k="religion" v="christian" />
		<tag k="ssr:stedsnr" v="90020" />
	</node>
	<node id="-842297" lat="68.6112527756" lon="16.4924194346">
		<tag k="amenity" v="place_of_worship" />
		<tag k="denomination" v="lutheran" />
		<tag k="name" v="Gausvik" />
		<tag k="religion" v="christian" />
		<tag k="ssr:stedsnr" v="748249" />
	</node>
	<node id="-842616" lat="68.821980551" lon="16.5621694501">
		<tag k="amenity" v="place_of_worship" />
		<tag k="denomination" v="lutheran" />
		<tag k="name" v="Trondenes" />
		<tag k="religion" v="christian" />
		<tag k="ssr:stedsnr" v="867407" />
	</node>
	<node id="-840915" lat="68.9528388888" lon="16.6583083433">
>>>>>>> e1d4bc35ff8a6074a6f2e91616a996b547c36f15
		<tag k="amenity" v="place_of_worship" />
		<tag k="denomination" v="lutheran" />
		<tag k="name" v="Sandsøy" />
		<tag k="religion" v="christian" />
		<tag k="ssr:stedsnr" v="17521" />
	</node>
<<<<<<< HEAD
	<node lat="68.80216667068862" lon="16.535549997309545" id="-42600">
=======
	<node id="-839506" lat="68.9953777741" lon="16.5434111147">
>>>>>>> e1d4bc35ff8a6074a6f2e91616a996b547c36f15
		<tag k="amenity" v="place_of_worship" />
		<tag k="denomination" v="lutheran" />
		<tag k="name" v="Harstad kirke" />
		<tag k="religion" v="christian" />
		<tag k="ssr:stedsnr" v="90020" />
	</node>
<<<<<<< HEAD
	<node lat="68.95423888643246" lon="16.386294430478678" id="-43837">
		<tag k="name" v="Finngammen" />
		<tag k="place" v="locality" />
		<tag k="ssr:stedsnr" v="726218" />
	</node>
	<node lat="68.61125277562283" lon="16.492419434586143" id="-43891">
		<tag k="amenity" v="place_of_worship" />
		<tag k="denomination" v="lutheran" />
		<tag k="name" v="Gausvik" />
		<tag k="religion" v="christian" />
		<tag k="ssr:stedsnr" v="748249" />
	</node>
	<node lat="68.78063610911188" lon="16.568852764089886" id="-43951">
=======
	<node id="-840849" lat="68.9116416646" lon="16.2698166588">
		<tag k="name" v="Hans Egedes Minne" />
		<tag k="ssr:stedsnr" v="928522" />
		<tag k="tourism" v="attraction" />
	</node>
	<node id="-842223" lat="68.6832960589" lon="16.531591651">
		<tag k="amenity" v="place_of_worship" />
		<tag k="denomination" v="lutheran" />
		<tag k="name" v="Sandtorg" />
		<tag k="religion" v="christian" />
		<tag k="ssr:stedsnr" v="626153" />
	</node>
	<node id="-842380" lat="68.7806361091" lon="16.5688527641">
>>>>>>> e1d4bc35ff8a6074a6f2e91616a996b547c36f15
		<tag k="alt_name" v="Fredly kapell" />
		<tag k="amenity" v="place_of_worship" />
		<tag k="denomination" v="lutheran" />
		<tag k="name" v="Kanebogen kirke" />
		<tag k="religion" v="christian" />
		<tag k="ssr:stedsnr" v="784586" />
<<<<<<< HEAD
=======
	</node>
	<node id="-842378" lat="68.6833999959" lon="16.5315555637">
		<tag k="amenity" v="place_of_worship" />
		<tag k="fixme" v="specify religion=*, denomination=*, building=* etc" />
		<tag k="name" v="Sørvik kapell" />
		<tag k="ssr:stedsnr" v="784575" />
	</node>
	<node id="-840455" lat="68.9542388864" lon="16.3862944305">
		<tag k="name" v="Finngammen" />
		<tag k="place" v="locality" />
		<tag k="ssr:stedsnr" v="726218" />
>>>>>>> e1d4bc35ff8a6074a6f2e91616a996b547c36f15
	</node>
</osm>
