<?xml version="1.0" encoding="UTF-8"?>
<<<<<<< HEAD
<osm version="0.6" generator="osmapis">
	<node lat="68.8234000023632" lon="16.378497227952035" id="-40967">
		<tag k="highway" v="path" />
		<tag k="name" v="Dalveien" />
		<tag k="ssr:stedsnr" v="58984" />
	</node>
	<node lat="68.88292778079837" lon="16.53748610654463" id="-41168">
		<tag k="highway" v="path" />
		<tag k="name" v="Bustigen" />
		<tag k="ssr:stedsnr" v="179343" />
	</node>
	<node lat="68.9108472222389" lon="16.60940000590311" id="-41255">
		<tag k="highway" v="path" />
		<tag k="name" v="Akselveien" />
		<tag k="ssr:stedsnr" v="238789" />
	</node>
	<node lat="68.70387778180651" lon="16.527777774378283" id="-41333">
		<tag k="ford" v="yes" />
		<tag k="name" v="Skarvaet" />
		<tag k="place" v="locality" />
		<tag k="ssr:stedsnr" v="299606" />
	</node>
	<node lat="68.78080000373929" lon="16.564630560504888" id="-41402">
		<tag k="layer" v="-1" />
		<tag k="name" v="Kanebogen undergang" />
		<tag k="ssr:stedsnr" v="485894" />
		<tag k="tunnel" v="yes" />
	</node>
	<node lat="68.7817972210049" lon="16.596719454270158" id="-41410">
		<tag k="man_made" v="quay" />
		<tag k="name" v="Kai II" />
		<tag k="place" v="locality" />
		<tag k="ssr:stedsnr" v="480680" />
	</node>
	<node lat="68.77666944350882" lon="16.513533320655664" id="-41823">
		<tag k="highway" v="path" />
		<tag k="name" v="Peder-Jonsaveien" />
		<tag k="ssr:stedsnr" v="603098" />
	</node>
	<node lat="69.02839999607266" lon="16.521163881398238" id="-41881">
		<tag k="highway" v="path" />
		<tag k="name" v="Klemmervegen" />
		<tag k="ssr:stedsnr" v="709143" />
	</node>
	<node lat="68.99936748738226" lon="16.56766863664105" id="-41911">
		<tag k="landuse" v="harbour" />
		<tag k="name" v="Nergårdshamn" />
		<tag k="seamark:type" v="harbour" />
		<tag k="ssr:stedsnr" v="685121" />
	</node>
	<node lat="68.76364721931803" lon="16.38541388427798" id="-41982">
=======
<osm generator="osmapis" version="0.6">
	<node id="-839422" lat="68.9108472222" lon="16.6094000059">
>>>>>>> e1d4bc35ff8a6074a6f2e91616a996b547c36f15
		<tag k="highway" v="path" />
		<tag k="name" v="Tømmeråsveien" />
		<tag k="ssr:stedsnr" v="901956" />
	</node>
<<<<<<< HEAD
	<node lat="68.78285555688284" lon="16.592844441354764" id="-42493">
		<tag k="man_made" v="quay" />
		<tag k="name" v="Kai I" />
=======
	<node id="-839803" lat="68.7038777818" lon="16.5277777744">
		<tag k="ford" v="yes" />
		<tag k="name" v="Skarvaet" />
>>>>>>> e1d4bc35ff8a6074a6f2e91616a996b547c36f15
		<tag k="place" v="locality" />
		<tag k="ssr:stedsnr" v="56696" />
	</node>
<<<<<<< HEAD
	<node lat="68.891636114197" lon="16.435233322668537" id="-42498">
=======
	<node id="-842516" lat="69.0565861087" lon="16.5231944494">
		<tag k="highway" v="path" />
		<tag k="name" v="Sankarveien" />
		<tag k="ssr:stedsnr" v="845400" />
	</node>
	<node id="-840818" lat="68.7636472193" lon="16.3854138843">
>>>>>>> e1d4bc35ff8a6074a6f2e91616a996b547c36f15
		<tag k="highway" v="path" />
		<tag k="name" v="Ramsterveien" />
		<tag k="ssr:stedsnr" v="56528" />
	</node>
<<<<<<< HEAD
	<node lat="68.90156944445955" lon="16.24909721158388" id="-42824">
=======
	<node id="-841456" lat="68.9015694445" lon="16.2490972116">
>>>>>>> e1d4bc35ff8a6074a6f2e91616a996b547c36f15
		<tag k="highway" v="path" />
		<tag k="name" v="Håmannstien" />
		<tag k="ssr:stedsnr" v="180143" />
	</node>
<<<<<<< HEAD
	<node lat="68.82602777971886" lon="16.465408338909338" id="-42947">
=======
	<node id="-841450" lat="68.8829277808" lon="16.5374861065">
>>>>>>> e1d4bc35ff8a6074a6f2e91616a996b547c36f15
		<tag k="highway" v="path" />
		<tag k="name" v="Sommerfjøsveien" />
		<tag k="ssr:stedsnr" v="300065" />
	</node>
	<node lat="68.93984444165693" lon="16.344661099264936" id="-43089">
		<tag k="man_made" v="quay" />
		<tag k="name" v="Dale kai" />
		<tag k="place" v="locality" />
		<tag k="ssr:stedsnr" v="361221" />
	</node>
	<node lat="68.58393333557044" lon="16.485111119140516" id="-43093">
		<tag k="highway" v="path" />
		<tag k="name" v="Stormyrveien" />
		<tag k="ssr:stedsnr" v="361245" />
	</node>
<<<<<<< HEAD
	<node lat="68.99943611048661" lon="16.55645278612548" id="-43108">
=======
	<node id="-841705" lat="68.9994361105" lon="16.5564527861">
>>>>>>> e1d4bc35ff8a6074a6f2e91616a996b547c36f15
		<tag k="landuse" v="harbour" />
		<tag k="name" v="Gammelhamn" />
		<tag k="old_name" v="Gammalhamn" />
		<tag k="seamark:type" v="harbour" />
		<tag k="ssr:stedsnr" v="381144" />
	</node>
<<<<<<< HEAD
	<node lat="68.79479444935552" lon="16.556741657006164" id="-43199">
=======
	<node id="-841958" lat="68.7719888935" lon="16.5214583312">
		<tag k="highway" v="path" />
		<tag k="name" v="Moldveien" />
		<tag k="ssr:stedsnr" v="543147" />
	</node>
	<node id="-840418" lat="68.8183611123" lon="16.5290972145">
		<tag k="man_made" v="quay" />
		<tag k="name" v="Hagan" />
		<tag k="place" v="locality" />
		<tag k="ssr:stedsnr" v="724464" />
	</node>
	<node id="-839902" lat="68.7808000037" lon="16.5646305605">
		<tag k="layer" v="-1" />
		<tag k="name" v="Kanebogen undergang" />
		<tag k="ssr:stedsnr" v="485894" />
		<tag k="tunnel" v="yes" />
	</node>
	<node id="-841821" lat="68.7947944494" lon="16.556741657">
>>>>>>> e1d4bc35ff8a6074a6f2e91616a996b547c36f15
		<tag k="man_made" v="quay" />
		<tag k="name" v="Mercur" />
		<tag k="place" v="locality" />
		<tag k="ssr:stedsnr" v="420149" />
	</node>
<<<<<<< HEAD
	<node lat="68.59983332899913" lon="16.491763891825425" id="-43210">
		<tag k="highway" v="path" />
		<tag k="name" v="Svinestien" />
		<tag k="ssr:stedsnr" v="420508" />
	</node>
	<node lat="68.87782777375831" lon="16.575511117248876" id="-43424">
=======
	<node id="-841689" lat="68.5839333356" lon="16.4851111191">
		<tag k="highway" v="path" />
		<tag k="name" v="Stormyrveien" />
		<tag k="ssr:stedsnr" v="361245" />
	</node>
	<node id="-841688" lat="68.9398444417" lon="16.3446610993">
		<tag k="man_made" v="quay" />
		<tag k="name" v="Dale kai" />
		<tag k="place" v="locality" />
		<tag k="ssr:stedsnr" v="361221" />
	</node>
	<node id="-841045" lat="68.7828555569" lon="16.5928444414">
		<tag k="man_made" v="quay" />
		<tag k="name" v="Kai I" />
		<tag k="place" v="locality" />
		<tag k="ssr:stedsnr" v="56696" />
	</node>
	<node id="-840403" lat="68.7809277773" lon="16.5955250026">
		<tag k="man_made" v="quay" />
		<tag k="name" v="Kai III" />
		<tag k="place" v="locality" />
		<tag k="ssr:stedsnr" v="723658" />
	</node>
	<node id="-841937" lat="68.8778277738" lon="16.5755111172">
>>>>>>> e1d4bc35ff8a6074a6f2e91616a996b547c36f15
		<tag k="man_made" v="breakwater" />
		<tag k="name" v="Hella" />
		<tag k="place" v="locality" />
		<tag k="ssr:stedsnr" v="542525" />
	</node>
<<<<<<< HEAD
	<node lat="68.77198889350825" lon="16.521458331207292" id="-43441">
		<tag k="highway" v="path" />
		<tag k="name" v="Moldveien" />
		<tag k="ssr:stedsnr" v="543147" />
	</node>
	<node lat="68.77214166633689" lon="16.414433321629335" id="-43562">
		<tag k="bridge" v="yes" />
		<tag k="layer" v="1" />
		<tag k="name" v="Klopp" />
		<tag k="ssr:stedsnr" v="602120" />
	</node>
	<node lat="68.8060628878289" lon="16.53216159403527" id="-43633">
		<tag k="layer" v="-1" />
		<tag k="name" v="Sama undergang" />
		<tag k="ssr:stedsnr" v="606886" />
		<tag k="tunnel" v="yes" />
	</node>
	<node lat="68.71708332983323" lon="16.540680561983923" id="-43768">
=======
	<node id="-842082" lat="68.7721416663" lon="16.4144333216">
		<tag k="bridge" v="yes" />
		<tag k="layer" v="1" />
		<tag k="name" v="Klopp" />
		<tag k="ssr:stedsnr" v="602120" />
	</node>
	<node id="-840138" lat="68.826572226" lon="16.3998611222">
		<tag k="highway" v="path" />
		<tag k="name" v="Deiligveien" />
		<tag k="ssr:stedsnr" v="665990" />
	</node>
	<node id="-840137" lat="68.7170833298" lon="16.540680562">
>>>>>>> e1d4bc35ff8a6074a6f2e91616a996b547c36f15
		<tag k="fixme" v="verify maritime location" />
		<tag k="mooring" v="yes" />
		<tag k="name" v="Tendringsstøa" />
		<tag k="place" v="locality" />
		<tag k="ssr:stedsnr" v="665646" />
	</node>
<<<<<<< HEAD
	<node lat="68.82657222600021" lon="16.399861122232924" id="-43772">
		<tag k="highway" v="path" />
		<tag k="name" v="Deiligveien" />
		<tag k="ssr:stedsnr" v="665990" />
	</node>
	<node lat="68.78092777733447" lon="16.59552500264031" id="-43794">
		<tag k="man_made" v="quay" />
		<tag k="name" v="Kai III" />
=======
	<node id="-841035" lat="68.8916361142" lon="16.4352333227">
		<tag k="highway" v="path" />
		<tag k="name" v="Ramsterveien" />
		<tag k="ssr:stedsnr" v="56528" />
	</node>
	<node id="-842676" lat="68.8172722238" lon="16.525377786">
		<tag k="man_made" v="pier" />
		<tag k="name" v="Hagan småbåthavn" />
>>>>>>> e1d4bc35ff8a6074a6f2e91616a996b547c36f15
		<tag k="place" v="locality" />
		<tag k="ssr:stedsnr" v="723658" />
	</node>
<<<<<<< HEAD
	<node lat="68.81836111228907" lon="16.52909721447858" id="-43810">
=======
	<node id="-842155" lat="68.8060628878" lon="16.532161594">
		<tag k="layer" v="-1" />
		<tag k="name" v="Sama undergang" />
		<tag k="ssr:stedsnr" v="606886" />
		<tag k="tunnel" v="yes" />
	</node>
	<node id="-842525" lat="68.9177722241" lon="16.5921611218">
		<tag k="highway" v="path" />
		<tag k="name" v="Urveien" />
		<tag k="ssr:stedsnr" v="845150" />
	</node>
	<node id="-839834" lat="68.781797221" lon="16.5967194543">
>>>>>>> e1d4bc35ff8a6074a6f2e91616a996b547c36f15
		<tag k="man_made" v="quay" />
		<tag k="name" v="Hagan" />
		<tag k="place" v="locality" />
		<tag k="ssr:stedsnr" v="724464" />
	</node>
	<node lat="68.98893889060591" lon="16.574683325935656" id="-43820">
		<tag k="highway" v="path" />
		<tag k="name" v="Nordveien" />
		<tag k="ssr:stedsnr" v="724960" />
	</node>
	<node id="-840346" lat="69.0283999961" lon="16.5211638814">
		<tag k="highway" v="path" />
		<tag k="name" v="Klemmervegen" />
		<tag k="ssr:stedsnr" v="709143" />
	</node>
	<node id="-842132" lat="68.7766694435" lon="16.5135333207">
		<tag k="highway" v="path" />
		<tag k="name" v="Peder-Jonsaveien" />
		<tag k="ssr:stedsnr" v="603098" />
	</node>
	<node id="-840024" lat="68.599833329" lon="16.4917638918">
		<tag k="highway" v="path" />
		<tag k="name" v="Svinestien" />
		<tag k="ssr:stedsnr" v="420508" />
	</node>
	<node id="-840202" lat="68.9993674874" lon="16.5676686366">
		<tag k="landuse" v="harbour" />
		<tag k="name" v="Nergårdshamn" />
		<tag k="seamark:type" v="harbour" />
		<tag k="ssr:stedsnr" v="685121" />
	</node>
	<node id="-840585" lat="68.9889388906" lon="16.5746833259">
		<tag k="highway" v="path" />
		<tag k="name" v="Nordveien" />
		<tag k="ssr:stedsnr" v="724960" />
	</node>
	<node id="-841096" lat="68.8234000024" lon="16.378497228">
		<tag k="highway" v="path" />
		<tag k="name" v="Dalveien" />
		<tag k="ssr:stedsnr" v="58984" />
	</node>
	<node id="-839809" lat="68.8260277797" lon="16.4654083389">
		<tag k="highway" v="path" />
		<tag k="name" v="Sommerfjøsveien" />
		<tag k="ssr:stedsnr" v="300065" />
	</node>
</osm>
