<?xml version="1.0" encoding="UTF-8"?>
<<<<<<< HEAD
<osm version="0.6" generator="osmapis">
	<node lat="68.77516944543225" lon="16.409574991742062" id="-40876">
		<tag k="name" v="Langmyran" />
		<tag k="natural" v="wetland" />
		<tag k="ssr:stedsnr" v="238122" />
	</node>
	<node lat="68.70294166502079" lon="16.499974990366443" id="-40895">
		<tag k="name" v="Dølmyra" />
		<tag k="natural" v="wetland" />
		<tag k="ssr:stedsnr" v="238612" />
	</node>
	<node lat="68.70789999608601" lon="16.549108331077854" id="-40896">
		<tag k="name" v="Gubben-Noasteinen" />
		<tag k="natural" v="stone" />
		<tag k="ssr:stedsnr" v="238613" />
	</node>
	<node lat="68.70344167053437" lon="16.522516663093956" id="-40897">
		<tag k="name" v="Skittmyra" />
		<tag k="natural" v="wetland" />
		<tag k="ssr:stedsnr" v="238615" />
	</node>
	<node lat="68.66278888557899" lon="16.508124992715143" id="-40903">
		<tag k="name" v="Lilleformyra" />
		<tag k="natural" v="wetland" />
		<tag k="ssr:stedsnr" v="238725" />
	</node>
	<node lat="68.95113333161251" lon="16.66928611411981" id="-40916">
		<tag k="name" v="Blåmannsmyra" />
		<tag k="natural" v="wetland" />
		<tag k="ssr:stedsnr" v="55911" />
	</node>
	<node lat="68.87668333408857" lon="16.35281388171177" id="-40919">
		<tag k="name" v="Hågesteinan" />
		<tag k="natural" v="stone" />
		<tag k="ssr:stedsnr" v="56002" />
	</node>
	<node lat="68.70127777598852" lon="16.55726110397234" id="-40940">
		<tag k="name" v="Geitvegmyra" />
		<tag k="natural" v="wetland" />
		<tag k="ssr:stedsnr" v="56580" />
	</node>
	<node lat="68.95223888539192" lon="16.28293334157796" id="-40952">
		<tag k="name" v="Banmyra" />
		<tag k="natural" v="wetland" />
		<tag k="ssr:stedsnr" v="58224" />
	</node>
	<node lat="68.8814277801436" lon="16.52387500397874" id="-40962">
		<tag k="name" v="Finnsteinen" />
		<tag k="natural" v="stone" />
		<tag k="ssr:stedsnr" v="58377" />
	</node>
	<node lat="68.89719166471298" lon="16.427302765055313" id="-40970">
		<tag k="name" v="Skitenkjerran" />
		<tag k="place" v="locality" />
		<tag k="ssr:stedsnr" v="240412" />
	</node>
	<node lat="69.03340000019662" lon="16.5259694481273" id="-40981">
		<tag k="name" v="Knutsåkeren" />
		<tag k="place" v="locality" />
		<tag k="ssr:stedsnr" v="241865" />
	</node>
	<node lat="69.04413888544917" lon="16.488047220108225" id="-41000">
		<tag k="name" v="Lysmyra" />
		<tag k="natural" v="wetland" />
		<tag k="ssr:stedsnr" v="84379" />
	</node>
	<node lat="68.91518611046534" lon="16.585822225578028" id="-41004">
		<tag k="name" v="Småskogan" />
=======
<osm generator="osmapis" version="0.6">
	<node id="-841213" lat="69.0292527769" lon="16.5411083409">
		<tag k="name" v="Grasveimyra" />
		<tag k="natural" v="wetland" />
		<tag k="ssr:stedsnr" v="117100" />
	</node>
	<node id="-841211" lat="68.928775003" lon="16.6267861216">
		<tag k="name" v="Langåkeren" />
>>>>>>> e1d4bc35ff8a6074a6f2e91616a996b547c36f15
		<tag k="place" v="locality" />
		<tag k="ssr:stedsnr" v="115720" />
	</node>
	<node lat="68.85909166437655" lon="16.32219444041707" id="-41006">
		<tag k="name" v="Klemningan" />
		<tag k="natural" v="stone" />
		<tag k="ssr:stedsnr" v="117026" />
	</node>
<<<<<<< HEAD
	<node lat="68.93175833756223" lon="16.603494449030286" id="-41009">
=======
	<node id="-841210" lat="68.9317583376" lon="16.603494449">
>>>>>>> e1d4bc35ff8a6074a6f2e91616a996b547c36f15
		<tag k="name" v="Storsteinen" />
		<tag k="natural" v="stone" />
		<tag k="ssr:stedsnr" v="117171" />
	</node>
<<<<<<< HEAD
	<node lat="68.92877500301356" lon="16.626786121613637" id="-41010">
		<tag k="name" v="Langåkeren" />
		<tag k="place" v="locality" />
		<tag k="ssr:stedsnr" v="117174" />
	</node>
	<node lat="68.88943055669927" lon="16.43491389160234" id="-41015">
		<tag k="landuse" v="meadow" />
		<tag k="name" v="Nessåkeren" />
		<tag k="ssr:stedsnr" v="117431" />
	</node>
	<node lat="68.7001305535013" lon="16.56376945512331" id="-41020">
		<tag k="name" v="Banmyra" />
=======
	<node id="-841204" lat="69.0261416692" lon="16.5351055539">
		<tag k="name" v="Vinterveimyra" />
		<tag k="natural" v="wetland" />
		<tag k="ssr:stedsnr" v="117130" />
	</node>
	<node id="-841203" lat="68.8590916644" lon="16.3221944404">
		<tag k="name" v="Klemningan" />
		<tag k="natural" v="stone" />
		<tag k="ssr:stedsnr" v="117026" />
	</node>
	<node id="-842579" lat="68.7650333326" lon="16.5268222295">
		<tag k="name" v="Vassfjellmyra" />
		<tag k="natural" v="wetland" />
		<tag k="ssr:stedsnr" v="845984" />
	</node>
	<node id="-842736" lat="68.7209555583" lon="16.5351694543">
		<tag k="name" v="Kalslettmyra" />
>>>>>>> e1d4bc35ff8a6074a6f2e91616a996b547c36f15
		<tag k="natural" v="wetland" />
		<tag k="ssr:stedsnr" v="117577" />
	</node>
<<<<<<< HEAD
	<node lat="68.69224999640096" lon="16.495755562936235" id="-41021">
		<tag k="name" v="Blåuran" />
		<tag k="natural" v="scree" />
		<tag k="ssr:stedsnr" v="117582" />
	</node>
	<node lat="68.69888888635039" lon="16.537799989986144" id="-41022">
		<tag k="name" v="Steinslettmyra" />
=======
	<node id="-841199" lat="68.9151861105" lon="16.5858222256">
		<tag k="name" v="Småskogan" />
		<tag k="place" v="locality" />
		<tag k="ssr:stedsnr" v="115720" />
	</node>
	<node id="-842731" lat="68.8921111111" lon="16.4616194347">
		<tag k="name" v="Stormyra" />
>>>>>>> e1d4bc35ff8a6074a6f2e91616a996b547c36f15
		<tag k="natural" v="wetland" />
		<tag k="ssr:stedsnr" v="117585" />
	</node>
<<<<<<< HEAD
	<node lat="68.67632499915914" lon="16.527227784579445" id="-41025">
		<tag k="name" v="Svennhågmyra" />
		<tag k="natural" v="wetland" />
		<tag k="ssr:stedsnr" v="117713" />
	</node>
	<node lat="68.88206944404078" lon="16.2898361101591" id="-41028">
		<tag k="name" v="Tremannsteinen" />
		<tag k="natural" v="stone" />
		<tag k="ssr:stedsnr" v="117941" />
	</node>
	<node lat="68.8485583302634" lon="16.385350008816246" id="-41030">
		<tag k="name" v="Tausemyra" />
=======
	<node id="-841191" lat="68.7595972247" lon="16.3786666735">
		<tag k="name" v="Slåttemyra" />
>>>>>>> e1d4bc35ff8a6074a6f2e91616a996b547c36f15
		<tag k="natural" v="wetland" />
		<tag k="ssr:stedsnr" v="117983" />
	</node>
<<<<<<< HEAD
	<node lat="68.77605833737081" lon="16.53379445300515" id="-41031">
		<tag k="name" v="Mundslettmyra" />
=======
	<node id="-840164" lat="68.8360333362" lon="16.4617249983">
		<tag k="name" v="Kristinamyra" />
>>>>>>> e1d4bc35ff8a6074a6f2e91616a996b547c36f15
		<tag k="natural" v="wetland" />
		<tag k="ssr:stedsnr" v="118105" />
	</node>
<<<<<<< HEAD
	<node lat="68.84560832995473" lon="16.41278332525874" id="-41033">
		<tag k="name" v="Djupingan" />
=======
	<node id="-842210" lat="68.7172027809" lon="16.5022888951">
		<tag k="name" v="Bjørnmyra" />
>>>>>>> e1d4bc35ff8a6074a6f2e91616a996b547c36f15
		<tag k="natural" v="wetland" />
		<tag k="ssr:stedsnr" v="118087" />
	</node>
<<<<<<< HEAD
	<node lat="68.89174166964087" lon="16.473241654965744" id="-41035">
		<tag k="name" v="Bollhågmyra" />
=======
	<node id="-840673" lat="68.884916668" lon="16.5059027678">
		<tag k="name" v="Storholmyra" />
>>>>>>> e1d4bc35ff8a6074a6f2e91616a996b547c36f15
		<tag k="natural" v="wetland" />
		<tag k="ssr:stedsnr" v="118402" />
	</node>
<<<<<<< HEAD
	<node lat="68.88678611359069" lon="16.50244722091363" id="-41038">
		<tag k="name" v="Torvholtmyra" />
		<tag k="natural" v="wetland" />
		<tag k="ssr:stedsnr" v="118413" />
	</node>
	<node lat="68.90809722253857" lon="16.26271387788173" id="-41042">
		<tag k="name" v="Skarmyra" />
=======
	<node id="-841696" lat="68.8117083338" lon="16.3430305544">
		<tag k="name" v="Svartskogen" />
		<tag k="natural" v="wetland" />
		<tag k="ssr:stedsnr" v="361992" />
	</node>
	<node id="-842207" lat="68.7095722202" lon="16.5065916608">
		<tag k="name" v="Nordvikmyran" />
		<tag k="natural" v="wetland" />
		<tag k="ssr:stedsnr" v="624862" />
	</node>
	<node id="-842715" lat="68.9067583356" lon="16.5976444487">
		<tag k="name" v="Heggeskogen" />
		<tag k="place" v="locality" />
		<tag k="ssr:stedsnr" v="966782" />
	</node>
	<node id="-842714" lat="68.7084166625" lon="16.49375277">
		<tag k="name" v="Stormyra" />
>>>>>>> e1d4bc35ff8a6074a6f2e91616a996b547c36f15
		<tag k="natural" v="wetland" />
		<tag k="ssr:stedsnr" v="119115" />
	</node>
<<<<<<< HEAD
	<node lat="68.66286110934855" lon="16.45588332225824" id="-41046">
		<tag k="name" v="Langmyra" />
=======
	<node id="-841551" lat="68.8273416657" lon="16.3811749916">
		<tag k="name" v="Stormyra" />
		<tag k="natural" v="wetland" />
		<tag k="ssr:stedsnr" v="301989" />
	</node>
	<node id="-841176" lat="69.0441388854" lon="16.4880472201">
		<tag k="name" v="Lysmyra" />
>>>>>>> e1d4bc35ff8a6074a6f2e91616a996b547c36f15
		<tag k="natural" v="wetland" />
		<tag k="ssr:stedsnr" v="119509" />
	</node>
<<<<<<< HEAD
	<node lat="68.83777777735986" lon="16.399622231909685" id="-41101">
		<tag k="name" v="Eldstenga" />
=======
	<node id="-841175" lat="68.8795500042" lon="16.3339360996">
		<tag k="name" v="Med-Aunskogen" />
>>>>>>> e1d4bc35ff8a6074a6f2e91616a996b547c36f15
		<tag k="place" v="locality" />
		<tag k="ssr:stedsnr" v="260446" />
	</node>
<<<<<<< HEAD
	<node lat="68.71570000139135" lon="16.580808334022922" id="-41126">
		<tag k="name" v="Tømmermyra" />
=======
	<node id="-841550" lat="68.8192583295" lon="16.3881138794">
		<tag k="name" v="Albrigtskogen" />
		<tag k="place" v="locality" />
		<tag k="ssr:stedsnr" v="301971" />
	</node>
	<node id="-841682" lat="68.8867916693" lon="16.5437777721">
		<tag k="name" v="Rødhammermyra" />
>>>>>>> e1d4bc35ff8a6074a6f2e91616a996b547c36f15
		<tag k="natural" v="wetland" />
		<tag k="ssr:stedsnr" v="260925" />
	</node>
<<<<<<< HEAD
	<node lat="68.99194444355668" lon="16.542247228686985" id="-41134">
		<tag k="name" v="Gråsteinmyra" />
=======
	<node id="-842704" lat="68.6580750026" lon="16.4667277783">
		<tag k="name" v="Tjuljaskallmyra" />
>>>>>>> e1d4bc35ff8a6074a6f2e91616a996b547c36f15
		<tag k="natural" v="wetland" />
		<tag k="ssr:stedsnr" v="176416" />
	</node>
<<<<<<< HEAD
	<node lat="69.02530277511532" lon="16.540630543896487" id="-41136">
		<tag k="name" v="Tepphågmyra" />
=======
	<node id="-841165" lat="68.5973055586" lon="16.4783083249">
		<tag k="name" v="Dalsmyra" />
>>>>>>> e1d4bc35ff8a6074a6f2e91616a996b547c36f15
		<tag k="natural" v="wetland" />
		<tag k="ssr:stedsnr" v="177120" />
	</node>
<<<<<<< HEAD
	<node lat="68.88664166849998" lon="16.460113882618906" id="-41145">
		<tag k="name" v="Øyra" />
		<tag k="place" v="locality" />
		<tag k="ssr:stedsnr" v="177419" />
	</node>
	<node lat="68.66410000382416" lon="16.513855551446134" id="-41157">
		<tag k="name" v="Forsmyra" />
		<tag k="natural" v="wetland" />
		<tag k="ssr:stedsnr" v="178673" />
	</node>
	<node lat="68.88802777686988" lon="16.550955561133307" id="-41165">
		<tag k="name" v="Lomsmyra" />
		<tag k="natural" v="wetland" />
		<tag k="ssr:stedsnr" v="179332" />
	</node>
	<node lat="68.88582778143954" lon="16.515294449473004" id="-41167">
		<tag k="name" v="Bretsenmyra" />
		<tag k="natural" v="wetland" />
		<tag k="ssr:stedsnr" v="179337" />
	</node>
	<node lat="69.0330027790382" lon="16.52110834252699" id="-41177">
		<tag k="name" v="Svennevikmyra" />
=======
	<node id="-840652" lat="68.8939083319" lon="16.5875833419">
		<tag k="name" v="Kvitholtet" />
		<tag k="place" v="locality" />
		<tag k="ssr:stedsnr" v="906544" />
	</node>
	<node id="-842699" lat="68.9993055587" lon="16.499172213">
		<tag k="name" v="Heigubben" />
		<tag k="natural" v="stone" />
		<tag k="ssr:stedsnr" v="966528" />
	</node>
	<node id="-841548" lat="68.7105416658" lon="16.5048555622">
		<tag k="name" v="Gassteinmyra" />
		<tag k="natural" v="wetland" />
		<tag k="ssr:stedsnr" v="301597" />
	</node>
	<node id="-840373" lat="68.6985527801" lon="16.5694805446">
		<tag k="landuse" v="meadow" />
		<tag k="name" v="Toftåker" />
		<tag k="ssr:stedsnr" v="602755" />
	</node>
	<node id="-841462" lat="69.033002779" lon="16.5211083425">
		<tag k="name" v="Svennevikmyra" />
		<tag k="natural" v="wetland" />
		<tag k="ssr:stedsnr" v="180863" />
	</node>
	<node id="-841665" lat="68.967227776" lon="16.5903888848">
		<tag k="name" v="Fagervikmyra" />
>>>>>>> e1d4bc35ff8a6074a6f2e91616a996b547c36f15
		<tag k="natural" v="wetland" />
		<tag k="ssr:stedsnr" v="180863" />
	</node>
<<<<<<< HEAD
	<node lat="68.6291027746217" lon="16.469433334729818" id="-41186">
		<tag k="name" v="Fuglemyra" />
		<tag k="natural" v="wetland" />
		<tag k="ssr:stedsnr" v="263018" />
	</node>
	<node lat="68.79427222546363" lon="16.51550001010489" id="-41252">
		<tag k="name" v="Kveldsteigen" />
		<tag k="place" v="locality" />
		<tag k="ssr:stedsnr" v="238829" />
	</node>
	<node lat="68.65980278104338" lon="16.499819447890633" id="-41254">
		<tag k="name" v="Stormyra" />
=======
	<node id="-842688" lat="68.9185638885" lon="16.5966805532">
		<tag k="name" v="Bjergemyra" />
		<tag k="natural" v="wetland" />
		<tag k="ssr:stedsnr" v="966137" />
	</node>
	<node id="-841145" lat="68.7903083341" lon="16.4228972201">
		<tag k="alt_name" v="Raudmyra" />
		<tag k="name" v="Rødmyra" />
>>>>>>> e1d4bc35ff8a6074a6f2e91616a996b547c36f15
		<tag k="natural" v="wetland" />
		<tag k="ssr:stedsnr" v="238729" />
	</node>
<<<<<<< HEAD
	<node lat="68.65876110939095" lon="16.43724444039387" id="-41263">
		<tag k="name" v="Fogdestein" />
=======
	<node id="-841655" lat="68.647936112" lon="16.4997888789">
		<tag k="name" v="Reinjordmyran" />
		<tag k="natural" v="wetland" />
		<tag k="ssr:stedsnr" v="359695" />
	</node>
	<node id="-842678" lat="68.7491750029" lon="16.3887861199">
		<tag k="name" v="Styrkemannsteinan" />
>>>>>>> e1d4bc35ff8a6074a6f2e91616a996b547c36f15
		<tag k="natural" v="stone" />
		<tag k="ssr:stedsnr" v="240502" />
	</node>
<<<<<<< HEAD
	<node lat="68.7082611145801" lon="16.514255562888497" id="-41265">
		<tag k="name" v="Ivarlimyra" />
		<tag k="natural" v="wetland" />
		<tag k="ssr:stedsnr" v="240610" />
	</node>
	<node lat="68.66468333381518" lon="16.45171665764632" id="-41297">
		<tag k="name" v="Stormyra" />
		<tag k="natural" v="wetland" />
		<tag k="ssr:stedsnr" v="263094" />
	</node>
	<node lat="68.99152222385834" lon="16.549016677652673" id="-41310">
		<tag k="name" v="Stokkemyra" />
		<tag k="natural" v="wetland" />
		<tag k="ssr:stedsnr" v="297431" />
	</node>
	<node lat="68.94973333434798" lon="16.711852777441415" id="-41312">
		<tag k="name" v="Stormyra" />
		<tag k="natural" v="wetland" />
		<tag k="ssr:stedsnr" v="297924" />
	</node>
	<node lat="69.0207138906354" lon="16.514975010584223" id="-41321">
		<tag k="name" v="Storkjerren" />
		<tag k="place" v="locality" />
		<tag k="ssr:stedsnr" v="299288" />
	</node>
	<node lat="68.62237221875324" lon="16.461494434937283" id="-41323">
		<tag k="name" v="Kjerrielmyra" />
=======
	<node id="-840116" lat="68.9075333339" lon="16.6031305483">
		<tag k="name" v="Stormyra" />
		<tag k="natural" v="wetland" />
		<tag k="ssr:stedsnr" v="663782" />
	</node>
	<node id="-841651" lat="68.8947666711" lon="16.5665111093">
		<tag k="name" v="Storskogmyran" />
		<tag k="natural" v="wetland" />
		<tag k="ssr:stedsnr" v="359549" />
	</node>
	<node id="-841647" lat="68.8857749983" lon="16.4617972329">
		<tag k="landuse" v="meadow" />
		<tag k="name" v="Gardsåkeren" />
		<tag k="ssr:stedsnr" v="359426" />
	</node>
	<node id="-839596" lat="69.0129972243" lon="16.5079361011">
		<tag k="name" v="Russmyra" />
		<tag k="natural" v="wetland" />
		<tag k="ssr:stedsnr" v="177252" />
	</node>
	<node id="-840618" lat="68.9536111096" lon="16.6772861142">
		<tag k="name" v="Sandsmyran" />
		<tag k="natural" v="wetland" />
		<tag k="ssr:stedsnr" v="904925" />
	</node>
	<node id="-840617" lat="68.9864166701" lon="16.3682999973">
		<tag k="name" v="Høysteinen" />
		<tag k="natural" v="stone" />
		<tag k="ssr:stedsnr" v="904725" />
	</node>
	<node id="-840101" lat="68.6628888865" lon="16.5358694396">
		<tag k="name" v="Rødtjønnmyra" />
		<tag k="natural" v="wetland" />
		<tag k="ssr:stedsnr" v="663699" />
	</node>
	<node id="-842147" lat="68.9148611134" lon="16.2651194565">
		<tag k="name" v="Stormyra" />
>>>>>>> e1d4bc35ff8a6074a6f2e91616a996b547c36f15
		<tag k="natural" v="wetland" />
		<tag k="ssr:stedsnr" v="299404" />
	</node>
<<<<<<< HEAD
	<node lat="69.04550832952498" lon="16.483277785233014" id="-41324">
		<tag k="name" v="Grønnvikmyra" />
		<tag k="natural" v="wetland" />
		<tag k="ssr:stedsnr" v="299405" />
	</node>
	<node lat="68.9053361134476" lon="16.267436123711086" id="-41349">
		<tag k="name" v="Maren Aasmyra" />
		<tag k="natural" v="wetland" />
		<tag k="ssr:stedsnr" v="301122" />
	</node>
	<node lat="68.9770944482986" lon="16.265041661863247" id="-41350">
		<tag k="name" v="Øyra" />
		<tag k="place" v="locality" />
		<tag k="ssr:stedsnr" v="301133" />
	</node>
	<node lat="68.81925832949793" lon="16.388113879445346" id="-41352">
		<tag k="name" v="Albrigtskogen" />
=======
	<node id="-839408" lat="68.702941665" lon="16.4999749904">
		<tag k="name" v="Dølmyra" />
		<tag k="natural" v="wetland" />
		<tag k="ssr:stedsnr" v="238612" />
	</node>
	<node id="-842142" lat="68.8876722216" lon="16.4758083365">
		<tag k="name" v="Skjellsteinmyra" />
		<tag k="natural" v="wetland" />
		<tag k="ssr:stedsnr" v="603431" />
	</node>
	<node id="-840605" lat="68.8905444445" lon="16.2575083392">
		<tag k="name" v="Pilsteinen" />
		<tag k="natural" v="stone" />
		<tag k="ssr:stedsnr" v="906947" />
	</node>
	<node id="-840883" lat="68.910091666" lon="16.6017972201">
		<tag k="name" v="Svennegardskogan" />
		<tag k="place" v="locality" />
		<tag k="ssr:stedsnr" v="966803" />
	</node>
	<node id="-842137" lat="68.893647219" lon="16.541616671">
		<tag k="name" v="Mellemgaltemyra" />
		<tag k="natural" v="wetland" />
		<tag k="ssr:stedsnr" v="603326" />
	</node>
	<node id="-842136" lat="68.8869777774" lon="16.5261472263">
		<tag k="name" v="Hellemyra" />
		<tag k="natural" v="wetland" />
		<tag k="ssr:stedsnr" v="603325" />
	</node>
	<node id="-842134" lat="68.8946222228" lon="16.5510194371">
		<tag k="name" v="Gammemyra" />
		<tag k="natural" v="wetland" />
		<tag k="ssr:stedsnr" v="603316" />
	</node>
	<node id="-840601" lat="68.7404361076" lon="16.5609583314">
		<tag k="name" v="Kilamyra" />
		<tag k="natural" v="wetland" />
		<tag k="ssr:stedsnr" v="906869" />
	</node>
	<node id="-840596" lat="68.8212194478" lon="16.3984555585">
		<tag k="name" v="Myrteigan" />
		<tag k="place" v="locality" />
		<tag k="ssr:stedsnr" v="726990" />
	</node>
	<node id="-842130" lat="68.960702777" lon="16.7354500077">
		<tag k="name" v="Yttermarka" />
		<tag k="place" v="locality" />
		<tag k="ssr:stedsnr" v="602948" />
	</node>
	<node id="-840515" lat="68.7025416653" lon="16.4639222313">
		<tag k="name" v="Skargotta" />
		<tag k="natural" v="wetland" />
		<tag k="ssr:stedsnr" v="665679" />
	</node>
	<node id="-840080" lat="69.0765583317" lon="16.5055583418">
		<tag k="name" v="Stormyra" />
		<tag k="natural" v="wetland" />
		<tag k="ssr:stedsnr" v="663165" />
	</node>
	<node id="-840591" lat="68.9184055522" lon="16.2623555566">
		<tag k="name" v="Oppsettåkran" />
>>>>>>> e1d4bc35ff8a6074a6f2e91616a996b547c36f15
		<tag k="place" v="locality" />
		<tag k="ssr:stedsnr" v="301971" />
	</node>
<<<<<<< HEAD
	<node lat="68.88577499833445" lon="16.46179723287044" id="-41384">
=======
	<node id="-840590" lat="68.6774777797" lon="16.5688888836">
>>>>>>> e1d4bc35ff8a6074a6f2e91616a996b547c36f15
		<tag k="landuse" v="meadow" />
		<tag k="name" v="Gardsåkeren" />
		<tag k="ssr:stedsnr" v="359426" />
	</node>
<<<<<<< HEAD
	<node lat="68.70259166411358" lon="16.53013334072507" id="-41385">
		<tag k="name" v="Nermyra" />
=======
	<node id="-839565" lat="68.6646833338" lon="16.4517166576">
		<tag k="name" v="Stormyra" />
>>>>>>> e1d4bc35ff8a6074a6f2e91616a996b547c36f15
		<tag k="natural" v="wetland" />
		<tag k="ssr:stedsnr" v="359604" />
	</node>
<<<<<<< HEAD
	<node lat="68.89476667105751" lon="16.566511109285177" id="-41386">
		<tag k="name" v="Storskogmyran" />
=======
	<node id="-842123" lat="68.9539583336" lon="16.6142416735">
		<tag k="name" v="Tjeldevikmyran" />
>>>>>>> e1d4bc35ff8a6074a6f2e91616a996b547c36f15
		<tag k="natural" v="wetland" />
		<tag k="ssr:stedsnr" v="359549" />
	</node>
<<<<<<< HEAD
	<node lat="68.76784444058461" lon="16.395233337172606" id="-41400">
		<tag k="name" v="Bjørnsteinen" />
		<tag k="natural" v="stone" />
		<tag k="ssr:stedsnr" v="476955" />
	</node>
	<node lat="68.98643889338078" lon="16.372424999779927" id="-41407">
		<tag k="name" v="Høysteinan" />
		<tag k="natural" v="stone" />
		<tag k="ssr:stedsnr" v="479748" />
	</node>
	<node lat="69.011722217563" lon="16.48560278675914" id="-41420">
		<tag k="name" v="Stuhågmyra" />
=======
	<node id="-840371" lat="68.667225002" lon="16.5157416775">
		<tag k="name" v="Vatnet" />
		<tag k="natural" v="wetland" />
		<tag k="ssr:stedsnr" v="602732" />
	</node>
	<node id="-839559" lat="68.6291027746" lon="16.4694333347">
		<tag k="name" v="Fuglemyra" />
		<tag k="natural" v="wetland" />
		<tag k="ssr:stedsnr" v="263018" />
	</node>
	<node id="-840582" lat="68.9085027783" lon="16.573936119">
		<tag k="name" v="Tindmyra" />
		<tag k="natural" v="wetland" />
		<tag k="ssr:stedsnr" v="724782" />
	</node>
	<node id="-840069" lat="68.9464277746" lon="16.7140916737">
		<tag k="name" v="Bjønnmyra" />
>>>>>>> e1d4bc35ff8a6074a6f2e91616a996b547c36f15
		<tag k="natural" v="wetland" />
		<tag k="ssr:stedsnr" v="481289" />
	</node>
<<<<<<< HEAD
	<node lat="68.79408889208263" lon="16.475097231810576" id="-41441">
		<tag k="name" v="Stormyra" />
=======
	<node id="-842626" lat="68.7824944412" lon="16.3713138959">
		<tag k="name" v="Nakkemyran" />
>>>>>>> e1d4bc35ff8a6074a6f2e91616a996b547c36f15
		<tag k="natural" v="wetland" />
		<tag k="ssr:stedsnr" v="481873" />
	</node>
<<<<<<< HEAD
	<node lat="68.99026111393947" lon="16.563452767407696" id="-41453">
		<tag k="name" v="Hestholla" />
		<tag k="natural" v="stone" />
		<tag k="ssr:stedsnr" v="481944" />
	</node>
	<node lat="68.89128333124262" lon="16.518330552863816" id="-41480">
		<tag k="name" v="Gallslåtten" />
=======
	<node id="-839659" lat="68.9915222239" lon="16.5490166777">
		<tag k="name" v="Stokkemyra" />
		<tag k="natural" v="wetland" />
		<tag k="ssr:stedsnr" v="297431" />
	</node>
	<node id="-840063" lat="69.0207138906" lon="16.5149750106">
		<tag k="name" v="Storkjerren" />
>>>>>>> e1d4bc35ff8a6074a6f2e91616a996b547c36f15
		<tag k="place" v="locality" />
		<tag k="ssr:stedsnr" v="482337" />
	</node>
<<<<<<< HEAD
	<node lat="68.88339722237683" lon="16.544211102956496" id="-41481">
		<tag k="name" v="Buteigen" />
		<tag k="place" v="locality" />
		<tag k="ssr:stedsnr" v="482348" />
	</node>
	<node lat="68.91141666432077" lon="16.267336117789544" id="-41495">
		<tag k="name" v="Botnbekkmyra" />
=======
	<node id="-839550" lat="68.8917416696" lon="16.473241655">
		<tag k="name" v="Bollhågmyra" />
>>>>>>> e1d4bc35ff8a6074a6f2e91616a996b547c36f15
		<tag k="natural" v="wetland" />
		<tag k="ssr:stedsnr" v="483127" />
	</node>
<<<<<<< HEAD
	<node lat="68.71576666612582" lon="16.520663884369192" id="-41497">
		<tag k="name" v="Kilbotnmyra" />
=======
	<node id="-842109" lat="68.6918833344" lon="16.5048583371">
		<tag k="name" v="Tortenmyra" />
		<tag k="natural" v="wetland" />
		<tag k="ssr:stedsnr" v="602590" />
	</node>
	<node id="-841084" lat="68.8911277813" lon="16.5044583291">
		<tag k="name" v="Justemyra" />
>>>>>>> e1d4bc35ff8a6074a6f2e91616a996b547c36f15
		<tag k="natural" v="wetland" />
		<tag k="ssr:stedsnr" v="483635" />
	</node>
<<<<<<< HEAD
	<node lat="68.95565277614512" lon="16.56636665993608" id="-41503">
		<tag k="name" v="Lensmannsteinen" />
		<tag k="natural" v="stone" />
		<tag k="ssr:stedsnr" v="393437" />
	</node>
	<node lat="69.02581666258432" lon="16.52010832904914" id="-41514">
=======
	<node id="-841081" lat="68.8814277801" lon="16.523875004">
		<tag k="name" v="Finnsteinen" />
		<tag k="natural" v="stone" />
		<tag k="ssr:stedsnr" v="58377" />
	</node>
	<node id="-842104" lat="68.8873222227" lon="16.5828055493">
		<tag k="name" v="Rånmyra" />
		<tag k="natural" v="wetland" />
		<tag k="ssr:stedsnr" v="602546" />
	</node>
	<node id="-840084" lat="69.0239944472" lon="16.531325011">
		<tag k="name" v="Stormyra" />
		<tag k="natural" v="wetland" />
		<tag k="ssr:stedsnr" v="663240" />
	</node>
	<node id="-839542" lat="68.8986361099" lon="16.4536111069">
>>>>>>> e1d4bc35ff8a6074a6f2e91616a996b547c36f15
		<tag k="name" v="Morskogen" />
		<tag k="place" v="locality" />
		<tag k="ssr:stedsnr" v="406149" />
	</node>
<<<<<<< HEAD
	<node lat="68.69681944839162" lon="16.54246667568614" id="-41532">
		<tag k="name" v="Bjørnhågmyra" />
=======
	<node id="-840425" lat="68.891519448" lon="16.5724277839">
		<tag k="name" v="Høgmyra" />
		<tag k="natural" v="wetland" />
		<tag k="ssr:stedsnr" v="724516" />
	</node>
	<node id="-842612" lat="69.0450694409" lon="16.4943749924">
		<tag k="name" v="Stormyra" />
>>>>>>> e1d4bc35ff8a6074a6f2e91616a996b547c36f15
		<tag k="natural" v="wetland" />
		<tag k="ssr:stedsnr" v="420601" />
	</node>
<<<<<<< HEAD
	<node lat="68.90635278236235" lon="16.591066663361296" id="-41602">
		<tag k="name" v="Lysmyra" />
=======
	<node id="-842099" lat="69.0013583301" lon="16.4807277791">
		<tag k="name" v="Leirvågmyra" />
>>>>>>> e1d4bc35ff8a6074a6f2e91616a996b547c36f15
		<tag k="natural" v="wetland" />
		<tag k="ssr:stedsnr" v="481772" />
	</node>
<<<<<<< HEAD
	<node lat="68.83603333619934" lon="16.46172499825653" id="-41606">
		<tag k="name" v="Kristinamyra" />
=======
	<node id="-842098" lat="68.9985777778" lon="16.4692611093">
		<tag k="name" v="Langmyra" />
>>>>>>> e1d4bc35ff8a6074a6f2e91616a996b547c36f15
		<tag k="natural" v="wetland" />
		<tag k="ssr:stedsnr" v="482019" />
	</node>
<<<<<<< HEAD
	<node lat="68.94984444550089" lon="16.713408341804193" id="-41697">
		<tag k="name" v="Stormyra" />
		<tag k="natural" v="wetland" />
		<tag k="ssr:stedsnr" v="685521" />
	</node>
	<node lat="68.7071166633037" lon="16.385363879006853" id="-41714">
		<tag k="name" v="Kvantomyran" />
		<tag k="natural" v="wetland" />
		<tag k="ssr:stedsnr" v="536571" />
	</node>
	<node lat="68.94140833729635" lon="16.699333333319334" id="-41720">
		<tag k="name" v="Molvikåsmyra" />
		<tag k="natural" v="wetland" />
		<tag k="ssr:stedsnr" v="540921" />
	</node>
	<node lat="68.94134999698038" lon="16.680694434102026" id="-41721">
		<tag k="name" v="Gongmyra" />
=======
	<node id="-839537" lat="68.882069444" lon="16.2898361102">
		<tag k="name" v="Tremannsteinen" />
		<tag k="natural" v="stone" />
		<tag k="ssr:stedsnr" v="117941" />
	</node>
	<node id="-841584" lat="68.7602888929" lon="16.3751777677">
		<tag k="name" v="Tømmeråsen" />
		<tag k="place" v="locality" />
		<tag k="ssr:stedsnr" v="321416" />
	</node>
	<node id="-840557" lat="68.9927027754" lon="16.5424750076">
		<tag k="name" v="Gråsteinen" />
		<tag k="natural" v="stone" />
		<tag k="ssr:stedsnr" v="722430" />
	</node>
	<node id="-840044" lat="68.8893305517" lon="16.556619443">
		<tag k="name" v="Myra" />
>>>>>>> e1d4bc35ff8a6074a6f2e91616a996b547c36f15
		<tag k="natural" v="wetland" />
		<tag k="ssr:stedsnr" v="540923" />
	</node>
<<<<<<< HEAD
	<node lat="69.02887221995385" lon="16.523400000944036" id="-41723">
		<tag k="name" v="Klemmerveimyra" />
=======
	<node id="-841574" lat="68.8015027769" lon="16.4059111093">
		<tag k="alt_name" v="Foramyra" />
		<tag k="name" v="Forramyra" />
>>>>>>> e1d4bc35ff8a6074a6f2e91616a996b547c36f15
		<tag k="natural" v="wetland" />
		<tag k="ssr:stedsnr" v="541110" />
	</node>
<<<<<<< HEAD
	<node lat="69.0261083358981" lon="16.523811109596643" id="-41724">
		<tag k="name" v="Nonshågmyra" />
=======
	<node id="-842594" lat="68.7206444447" lon="16.434558336">
		<tag k="name" v="Tennevassmyren" />
>>>>>>> e1d4bc35ff8a6074a6f2e91616a996b547c36f15
		<tag k="natural" v="wetland" />
		<tag k="ssr:stedsnr" v="541111" />
	</node>
<<<<<<< HEAD
	<node lat="68.95351389216599" lon="16.530049998994617" id="-41733">
		<tag k="name" v="Klubbholtet" />
		<tag k="place" v="locality" />
		<tag k="ssr:stedsnr" v="541368" />
	</node>
	<node lat="68.70351388722479" lon="16.552900008311465" id="-41737">
		<tag k="name" v="Helleveimyra" />
		<tag k="natural" v="wetland" />
		<tag k="ssr:stedsnr" v="541608" />
	</node>
	<node lat="68.67259166978377" lon="16.55398333773486" id="-41750">
		<tag k="name" v="Rødliverslet" />
=======
	<node id="-842593" lat="68.894566668" lon="16.5039944459">
		<tag k="name" v="Sjetten-myra" />
>>>>>>> e1d4bc35ff8a6074a6f2e91616a996b547c36f15
		<tag k="natural" v="wetland" />
		<tag k="ssr:stedsnr" v="542724" />
	</node>
<<<<<<< HEAD
	<node lat="68.98701944873659" lon="16.361613880132026" id="-41799">
		<tag k="name" v="Longesteinen" />
		<tag k="natural" v="stone" />
		<tag k="ssr:stedsnr" v="600668" />
	</node>
	<node lat="69.00135833005902" lon="16.48072777911119" id="-41807">
		<tag k="name" v="Leirvågmyra" />
		<tag k="natural" v="wetland" />
		<tag k="ssr:stedsnr" v="602499" />
	</node>
	<node lat="68.96070277700335" lon="16.735450007694894" id="-41819">
		<tag k="name" v="Yttermarka" />
		<tag k="place" v="locality" />
		<tag k="ssr:stedsnr" v="602948" />
	</node>
	<node lat="68.95395833357951" lon="16.614241673512453" id="-41821">
		<tag k="name" v="Tjeldevikmyran" />
=======
	<node id="-841056" lat="68.9464472247" lon="16.5867722185">
		<tag k="name" v="Sølvsteinen" />
		<tag k="natural" v="stone" />
		<tag k="ssr:stedsnr" v="56906" />
	</node>
	<node id="-839519" lat="68.9473555564" lon="16.6649583255">
		<tag k="name" v="Skogan" />
		<tag k="place" v="locality" />
		<tag k="ssr:stedsnr" v="115918" />
	</node>
	<node id="-842590" lat="68.8896222186" lon="16.5285444373">
		<tag k="name" v="Justemyra" />
		<tag k="natural" v="wetland" />
		<tag k="ssr:stedsnr" v="847359" />
	</node>
	<node id="-841049" lat="68.7329555524" lon="16.6582416735">
		<tag k="name" v="Finnevikmyra" />
>>>>>>> e1d4bc35ff8a6074a6f2e91616a996b547c36f15
		<tag k="natural" v="wetland" />
		<tag k="ssr:stedsnr" v="602899" />
	</node>
<<<<<<< HEAD
	<node lat="68.89462222282133" lon="16.551019437098766" id="-41824">
		<tag k="name" v="Gammemyra" />
=======
	<node id="-841048" lat="68.6603944482" lon="16.5300333341">
		<tag k="name" v="Follamyra" />
>>>>>>> e1d4bc35ff8a6074a6f2e91616a996b547c36f15
		<tag k="natural" v="wetland" />
		<tag k="ssr:stedsnr" v="603316" />
	</node>
<<<<<<< HEAD
	<node lat="68.71720278085134" lon="16.50228889506369" id="-41860">
		<tag k="name" v="Bjørnmyra" />
=======
	<node id="-840022" lat="69.0315555512" lon="16.5214083372">
		<tag k="name" v="Langmyra" />
>>>>>>> e1d4bc35ff8a6074a6f2e91616a996b547c36f15
		<tag k="natural" v="wetland" />
		<tag k="ssr:stedsnr" v="624879" />
	</node>
<<<<<<< HEAD
	<node lat="68.94642777455041" lon="16.714091673671344" id="-41885">
		<tag k="name" v="Bjønnmyra" />
		<tag k="natural" v="wetland" />
		<tag k="ssr:stedsnr" v="661933" />
	</node>
	<node lat="68.99270277544439" lon="16.54247500762099" id="-41937">
		<tag k="name" v="Gråsteinen" />
		<tag k="natural" v="stone" />
		<tag k="ssr:stedsnr" v="722430" />
	</node>
	<node lat="68.9912972250514" lon="16.54410277546425" id="-41939">
		<tag k="name" v="Porsemyra" />
		<tag k="natural" v="wetland" />
		<tag k="ssr:stedsnr" v="722446" />
	</node>
	<node lat="68.92242500116808" lon="16.60119445119726" id="-41951">
		<tag k="name" v="Langmyra" />
=======
	<node id="-842067" lat="68.9870194487" lon="16.3616138801">
		<tag k="name" v="Longesteinen" />
		<tag k="natural" v="stone" />
		<tag k="ssr:stedsnr" v="600668" />
	</node>
	<node id="-842415" lat="68.8984305561" lon="16.435797215">
		<tag k="name" v="Slåtten" />
		<tag k="place" v="locality" />
		<tag k="ssr:stedsnr" v="786261" />
	</node>
	<node id="-841041" lat="68.701277776" lon="16.557261104">
		<tag k="name" v="Geitvegmyra" />
>>>>>>> e1d4bc35ff8a6074a6f2e91616a996b547c36f15
		<tag k="natural" v="wetland" />
		<tag k="ssr:stedsnr" v="724122" />
	</node>
<<<<<<< HEAD
	<node lat="68.96312221806039" lon="16.586972215409546" id="-41961">
		<tag k="name" v="Austnesslåtta" />
		<tag k="place" v="locality" />
		<tag k="ssr:stedsnr" v="724897" />
	</node>
	<node lat="68.82121944782911" lon="16.39845555847694" id="-41980">
		<tag k="name" v="Myrteigan" />
		<tag k="place" v="locality" />
		<tag k="ssr:stedsnr" v="726990" />
	</node>
	<node lat="68.98641667010489" lon="16.368299997314633" id="-42012">
		<tag k="name" v="Høysteinen" />
		<tag k="natural" v="stone" />
		<tag k="ssr:stedsnr" v="904725" />
	</node>
	<node lat="68.95361110957289" lon="16.67728611423167" id="-42015">
		<tag k="name" v="Sandsmyran" />
		<tag k="natural" v="wetland" />
		<tag k="ssr:stedsnr" v="904925" />
	</node>
	<node lat="68.89390833185219" lon="16.587583341900803" id="-42043">
		<tag k="name" v="Kvitholtet" />
=======
	<node id="-840016" lat="68.9950666639" lon="16.5639194532">
		<tag k="name" v="Risnakkmyra" />
		<tag k="natural" v="wetland" />
		<tag k="ssr:stedsnr" v="418425" />
	</node>
	<node id="-842575" lat="68.8441555559" lon="16.2485944521">
		<tag k="name" v="Henrikslåtten" />
		<tag k="place" v="locality" />
		<tag k="ssr:stedsnr" v="845906" />
	</node>
	<node id="-842574" lat="68.8013750023" lon="16.4296527694">
		<tag k="name" v="Ol-Larsamyra" />
		<tag k="natural" v="wetland" />
		<tag k="ssr:stedsnr" v="845894" />
	</node>
	<node id="-841037" lat="68.893494445" lon="16.5932277795">
		<tag k="name" v="Tennsmyra" />
		<tag k="natural" v="wetland" />
		<tag k="ssr:stedsnr" v="56547" />
	</node>
	<node id="-842060" lat="68.8226527778" lon="16.5421388982">
		<tag k="name" v="Molla" />
		<tag k="natural" v="wetland" />
		<tag k="ssr:stedsnr" v="591874" />
	</node>
	<node id="-841547" lat="68.9770944483" lon="16.2650416619">
		<tag k="name" v="Øyra" />
>>>>>>> e1d4bc35ff8a6074a6f2e91616a996b547c36f15
		<tag k="place" v="locality" />
		<tag k="ssr:stedsnr" v="906544" />
	</node>
<<<<<<< HEAD
	<node lat="68.89054444454801" lon="16.257508339172514" id="-42064">
		<tag k="name" v="Pilsteinen" />
		<tag k="natural" v="stone" />
		<tag k="ssr:stedsnr" v="906947" />
	</node>
	<node lat="68.88491666800422" lon="16.505902767838457" id="-42077">
		<tag k="name" v="Storholmyra" />
		<tag k="natural" v="wetland" />
		<tag k="ssr:stedsnr" v="907399" />
	</node>
	<node lat="68.98641389287003" lon="16.363124995220367" id="-42093">
		<tag k="name" v="Oksen" />
		<tag k="natural" v="stone" />
		<tag k="ssr:stedsnr" v="782652" />
	</node>
	<node lat="68.98383888873823" lon="16.387883324877475" id="-42095">
		<tag k="name" v="Engvaldsteinen" />
		<tag k="natural" v="stone" />
		<tag k="ssr:stedsnr" v="782704" />
	</node>
	<node lat="68.98608611248045" lon="16.367155559244587" id="-42096">
		<tag k="name" v="Kjerka" />
		<tag k="natural" v="stone" />
		<tag k="ssr:stedsnr" v="782707" />
	</node>
	<node lat="68.95439166583076" lon="16.720800000762175" id="-42098">
		<tag k="name" v="Olsborgmyran" />
		<tag k="natural" v="wetland" />
		<tag k="ssr:stedsnr" v="782903" />
	</node>
	<node lat="68.87326666937231" lon="16.708827771520554" id="-42106">
=======
	<node id="-841546" lat="68.9053361134" lon="16.2674361237">
		<tag k="name" v="Maren Aasmyra" />
		<tag k="natural" v="wetland" />
		<tag k="ssr:stedsnr" v="301122" />
	</node>
	<node id="-842569" lat="68.9103083317" lon="16.5862444545">
		<tag k="name" v="Elvemyra" />
		<tag k="natural" v="wetland" />
		<tag k="ssr:stedsnr" v="845820" />
	</node>
	<node id="-842563" lat="68.7088777811" lon="16.5743527808">
		<tag k="name" v="Ramnfløymyra" />
		<tag k="natural" v="wetland" />
		<tag k="ssr:stedsnr" v="845790" />
	</node>
	<node id="-840514" lat="68.7130999955" lon="16.5207305605">
		<tag k="name" v="Bommyra" />
		<tag k="natural" v="wetland" />
		<tag k="ssr:stedsnr" v="665661" />
	</node>
	<node id="-840331" lat="68.892547223" lon="16.4417611177">
		<tag k="name" v="Liskogen" />
		<tag k="place" v="locality" />
		<tag k="ssr:stedsnr" v="299428" />
	</node>
	<node id="-840160" lat="68.7940888921" lon="16.4750972318">
		<tag k="name" v="Stormyra" />
		<tag k="natural" v="wetland" />
		<tag k="ssr:stedsnr" v="481873" />
	</node>
	<node id="-841525" lat="69.0408083367" lon="16.4873472242">
		<tag k="name" v="Erlandmyra" />
		<tag k="natural" v="wetland" />
		<tag k="ssr:stedsnr" v="205422" />
	</node>
	<node id="-842556" lat="68.7053305595" lon="16.5709944439">
>>>>>>> e1d4bc35ff8a6074a6f2e91616a996b547c36f15
		<tag k="name" v="Stimyra" />
		<tag k="natural" v="wetland" />
		<tag k="ssr:stedsnr" v="784547" />
	</node>
<<<<<<< HEAD
	<node lat="68.89191111425518" lon="16.56665834306504" id="-42108">
		<tag k="name" v="Trettemyra" />
		<tag k="natural" v="wetland" />
		<tag k="ssr:stedsnr" v="784560" />
	</node>
	<node lat="68.98771111121142" lon="16.574444442072245" id="-42121">
		<tag k="name" v="Støttersmyra" />
		<tag k="natural" v="wetland" />
		<tag k="ssr:stedsnr" v="784947" />
	</node>
	<node lat="68.90331666909974" lon="16.40583610850841" id="-42136">
		<tag k="name" v="Rakkura" />
		<tag k="natural" v="scree" />
		<tag k="ssr:stedsnr" v="786413" />
	</node>
	<node lat="68.66071389278008" lon="16.463675004755675" id="-42138">
		<tag k="name" v="Bukkelimyra" />
		<tag k="natural" v="wetland" />
		<tag k="ssr:stedsnr" v="786500" />
	</node>
	<node lat="68.70754722588165" lon="16.50265556518639" id="-42140">
		<tag k="name" v="Fjellvassmyra" />
=======
	<node id="-841527" lat="68.880191667" lon="16.3332805598">
		<tag k="name" v="Ytter-Aunskogen" />
		<tag k="place" v="locality" />
		<tag k="ssr:stedsnr" v="206498" />
	</node>
	<node id="-839478" lat="68.8377777774" lon="16.3996222319">
		<tag k="name" v="Eldstenga" />
		<tag k="place" v="locality" />
		<tag k="ssr:stedsnr" v="260446" />
	</node>
	<node id="-842549" lat="68.9948472215" lon="16.4669888786">
		<tag k="name" v="Lysmarkmyra" />
		<tag k="natural" v="wetland" />
		<tag k="ssr:stedsnr" v="845528" />
	</node>
	<node id="-842547" lat="68.9865527745" lon="16.4614861088">
		<tag k="name" v="Bjergemyra" />
>>>>>>> e1d4bc35ff8a6074a6f2e91616a996b547c36f15
		<tag k="natural" v="wetland" />
		<tag k="ssr:stedsnr" v="786603" />
	</node>
<<<<<<< HEAD
	<node lat="68.88541389024455" lon="16.315877775423235" id="-42150">
		<tag k="name" v="Ytter-Aunskogen" />
		<tag k="place" v="locality" />
		<tag k="ssr:stedsnr" v="811299" />
	</node>
	<node lat="68.98655277446541" lon="16.461486108773183" id="-42175">
		<tag k="name" v="Bjergemyra" />
=======
	<node id="-841009" lat="68.9379888916" lon="16.6191833338">
		<tag k="name" v="Stormyra" />
>>>>>>> e1d4bc35ff8a6074a6f2e91616a996b547c36f15
		<tag k="natural" v="wetland" />
		<tag k="ssr:stedsnr" v="845508" />
	</node>
<<<<<<< HEAD
	<node lat="68.9948472215098" lon="16.466988878571925" id="-42177">
		<tag k="name" v="Lysmarkmyra" />
		<tag k="natural" v="wetland" />
		<tag k="ssr:stedsnr" v="845528" />
	</node>
	<node lat="68.70887778114552" lon="16.57435278081775" id="-42181">
		<tag k="name" v="Ramnfløymyra" />
=======
	<node id="-842541" lat="68.8880638916" lon="16.4710305538">
		<tag k="name" v="Øverlandsmyra" />
>>>>>>> e1d4bc35ff8a6074a6f2e91616a996b547c36f15
		<tag k="natural" v="wetland" />
		<tag k="ssr:stedsnr" v="845790" />
	</node>
<<<<<<< HEAD
	<node lat="68.84415555592614" lon="16.24859445212503" id="-42183">
		<tag k="name" v="Henrikslåtten" />
		<tag k="place" v="locality" />
		<tag k="ssr:stedsnr" v="845906" />
	</node>
	<node lat="68.80137500234046" lon="16.429652769400647" id="-42187">
		<tag k="name" v="Ol-Larsamyra" />
=======
	<node id="-841004" lat="68.9511333316" lon="16.6692861141">
		<tag k="name" v="Blåmannsmyra" />
		<tag k="natural" v="wetland" />
		<tag k="ssr:stedsnr" v="55911" />
	</node>
	<node id="-842539" lat="68.8884972236" lon="16.4454805562">
		<tag k="landuse" v="meadow" />
		<tag k="name" v="Storåkeren" />
		<tag k="ssr:stedsnr" v="845439" />
	</node>
	<node id="-842024" lat="68.7870444424" lon="16.4702222138">
		<tag k="name" v="Langmobekkmyra" />
>>>>>>> e1d4bc35ff8a6074a6f2e91616a996b547c36f15
		<tag k="natural" v="wetland" />
		<tag k="ssr:stedsnr" v="845894" />
	</node>
<<<<<<< HEAD
	<node lat="68.89456666800346" lon="16.50399444589216" id="-42192">
		<tag k="name" v="Sjetten-myra" />
=======
	<node id="-842023" lat="68.7816750037" lon="16.440794449">
		<tag k="name" v="Myran" />
>>>>>>> e1d4bc35ff8a6074a6f2e91616a996b547c36f15
		<tag k="natural" v="wetland" />
		<tag k="ssr:stedsnr" v="847479" />
	</node>
<<<<<<< HEAD
	<node lat="68.80791389238574" lon="16.537677766154392" id="-42281">
		<tag k="name" v="Holstjordet" />
		<tag k="place" v="locality" />
		<tag k="ssr:stedsnr" v="906207" />
	</node>
	<node lat="68.83373333478299" lon="16.288144437696243" id="-42288">
		<tag k="name" v="Finmyra" />
		<tag k="natural" v="wetland" />
		<tag k="ssr:stedsnr" v="906912" />
	</node>
	<node lat="68.74043610758807" lon="16.560958331355387" id="-42294">
		<tag k="name" v="Kilamyra" />
		<tag k="natural" v="wetland" />
		<tag k="ssr:stedsnr" v="906869" />
	</node>
	<node lat="68.8890250024887" lon="16.54492777180158" id="-42300">
		<tag k="name" v="Storheimyra" />
=======
	<node id="-841505" lat="68.9868749984" lon="16.3648305668">
		<tag k="name" v="Skarstein" />
		<tag k="natural" v="stone" />
		<tag k="ssr:stedsnr" v="200688" />
	</node>
	<node id="-842373" lat="68.8732666694" lon="16.7088277715">
		<tag k="name" v="Stimyra" />
		<tag k="natural" v="wetland" />
		<tag k="ssr:stedsnr" v="784547" />
	</node>
	<node id="-839452" lat="68.7082611146" lon="16.5142555629">
		<tag k="name" v="Ivarlimyra" />
		<tag k="natural" v="wetland" />
		<tag k="ssr:stedsnr" v="240610" />
	</node>
	<node id="-842011" lat="68.9929055569" lon="16.5606916664">
		<tag k="name" v="Rundemyra" />
>>>>>>> e1d4bc35ff8a6074a6f2e91616a996b547c36f15
		<tag k="natural" v="wetland" />
		<tag k="ssr:stedsnr" v="907307" />
	</node>
<<<<<<< HEAD
	<node lat="68.89695277607177" lon="16.616225005897256" id="-42320">
		<tag k="name" v="Tingholtet" />
		<tag k="place" v="locality" />
		<tag k="ssr:stedsnr" v="928549" />
	</node>
	<node lat="68.65812222457501" lon="16.543916661911428" id="-42347">
		<tag k="name" v="Vestmyra" />
		<tag k="natural" v="wetland" />
		<tag k="ssr:stedsnr" v="966709" />
	</node>
	<node lat="68.65807500255617" lon="16.466727778342793" id="-42349">
		<tag k="name" v="Tjuljaskallmyra" />
=======
	<node id="-842520" lat="68.9934083362" lon="16.5657527828">
		<tag k="name" v="Åsemyra" />
>>>>>>> e1d4bc35ff8a6074a6f2e91616a996b547c36f15
		<tag k="natural" v="wetland" />
		<tag k="ssr:stedsnr" v="966722" />
	</node>
<<<<<<< HEAD
	<node lat="68.91009166601053" lon="16.60179722010463" id="-42357">
		<tag k="name" v="Svennegardskogan" />
		<tag k="place" v="locality" />
		<tag k="ssr:stedsnr" v="966803" />
	</node>
	<node lat="68.72095555834647" lon="16.535169454290465" id="-42368">
		<tag k="name" v="Kalslettmyra" />
=======
	<node id="-842518" lat="69.0129361103" lon="16.4872138976">
		<tag k="name" v="Myra" />
>>>>>>> e1d4bc35ff8a6074a6f2e91616a996b547c36f15
		<tag k="natural" v="wetland" />
		<tag k="ssr:stedsnr" v="968637" />
	</node>
<<<<<<< HEAD
	<node lat="68.85280277989945" lon="16.383255563026477" id="-42385">
		<tag k="alt_name" v="Grasmyra" />
		<tag k="name" v="Litlehornsmyra" />
		<tag k="natural" v="wetland" />
		<tag k="ssr:stedsnr" v="17452" />
	</node>
	<node lat="68.76987777679302" lon="16.51661110051127" id="-42399">
		<tag k="name" v="Landsåsmyra" />
		<tag k="natural" v="wetland" />
		<tag k="ssr:stedsnr" v="17477" />
	</node>
	<node lat="68.81089999958556" lon="16.41489165868719" id="-42412">
		<tag k="name" v="Tjørnmyra" />
		<tag k="natural" v="wetland" />
		<tag k="ssr:stedsnr" v="18340" />
	</node>
	<node lat="68.82083055134454" lon="16.539669443518246" id="-42447">
=======
	<node id="-840973" lat="68.8208305513" lon="16.5396694435">
>>>>>>> e1d4bc35ff8a6074a6f2e91616a996b547c36f15
		<tag k="landuse" v="landfill" />
		<tag k="name" v="Hesthagen" />
		<tag k="ssr:stedsnr" v="37799" />
	</node>
<<<<<<< HEAD
	<node lat="68.9379888915993" lon="16.619183333812458" id="-42474">
		<tag k="name" v="Stormyra" />
		<tag k="natural" v="wetland" />
		<tag k="ssr:stedsnr" v="56140" />
	</node>
	<node lat="69.004869443728" lon="16.50310278882988" id="-42487">
		<tag k="name" v="Beinsteinen" />
		<tag k="natural" v="stone" />
		<tag k="ssr:stedsnr" v="56253" />
	</node>
	<node lat="68.89349444497402" lon="16.59322777951162" id="-42500">
		<tag k="name" v="Tennsmyra" />
		<tag k="natural" v="wetland" />
		<tag k="ssr:stedsnr" v="56547" />
	</node>
	<node lat="68.66039444823456" lon="16.530033334104775" id="-42501">
		<tag k="name" v="Follamyra" />
=======
	<node id="-841987" lat="68.8197055514" lon="16.4621138878">
		<tag k="name" v="Stormyra" />
>>>>>>> e1d4bc35ff8a6074a6f2e91616a996b547c36f15
		<tag k="natural" v="wetland" />
		<tag k="ssr:stedsnr" v="56733" />
	</node>
<<<<<<< HEAD
	<node lat="68.73295555238276" lon="16.65824167350197" id="-42502">
		<tag k="name" v="Finnevikmyra" />
		<tag k="natural" v="wetland" />
		<tag k="ssr:stedsnr" v="56737" />
	</node>
	<node lat="68.67986111469679" lon="16.54092778525223" id="-42504">
		<tag k="name" v="Mersmyra" />
		<tag k="natural" v="wetland" />
		<tag k="ssr:stedsnr" v="56751" />
	</node>
	<node lat="68.69666666956867" lon="16.572555555280804" id="-42507">
		<tag k="landuse" v="meadow" />
		<tag k="name" v="Sjøåkran" />
		<tag k="ssr:stedsnr" v="56766" />
	</node>
	<node lat="68.94644722467068" lon="16.586772218479783" id="-42511">
		<tag k="name" v="Sølvsteinen" />
		<tag k="natural" v="stone" />
		<tag k="ssr:stedsnr" v="56906" />
	</node>
	<node lat="68.89112778134721" lon="16.504458329084308" id="-42532">
		<tag k="name" v="Justemyra" />
=======
	<node id="-840450" lat="68.8985249993" lon="16.4328416605">
		<tag k="name" v="Storskogen" />
		<tag k="place" v="locality" />
		<tag k="ssr:stedsnr" v="725351" />
	</node>
	<node id="-839424" lat="68.7942722255" lon="16.5155000101">
		<tag k="name" v="Kveldsteigen" />
		<tag k="place" v="locality" />
		<tag k="ssr:stedsnr" v="238829" />
	</node>
	<node id="-840446" lat="68.8483722262" lon="16.4748333247">
		<tag k="name" v="Heggeskogen" />
		<tag k="place" v="locality" />
		<tag k="ssr:stedsnr" v="725091" />
	</node>
	<node id="-839930" lat="68.9730055524" lon="16.2699027749">
		<tag k="name" v="Bringevollen" />
		<tag k="natural" v="wetland" />
		<tag k="ssr:stedsnr" v="361153" />
	</node>
	<node id="-839417" lat="68.659802781" lon="16.4998194479">
		<tag k="name" v="Stormyra" />
>>>>>>> e1d4bc35ff8a6074a6f2e91616a996b547c36f15
		<tag k="natural" v="wetland" />
		<tag k="ssr:stedsnr" v="58494" />
	</node>
<<<<<<< HEAD
	<node lat="68.79030833407367" lon="16.422897220088355" id="-42570">
		<tag k="alt_name" v="Raudmyra" />
		<tag k="name" v="Rødmyra" />
		<tag k="natural" v="wetland" />
		<tag k="ssr:stedsnr" v="79457" />
	</node>
	<node lat="68.59730555861444" lon="16.478308324862002" id="-42586">
		<tag k="name" v="Dalsmyra" />
		<tag k="natural" v="wetland" />
		<tag k="ssr:stedsnr" v="80217" />
	</node>
	<node lat="68.8795500042147" lon="16.333936099634" id="-42596">
		<tag k="name" v="Med-Aunskogen" />
		<tag k="place" v="locality" />
		<tag k="ssr:stedsnr" v="82299" />
	</node>
	<node lat="68.75959722467726" lon="16.378666673501165" id="-42612">
		<tag k="name" v="Slåttemyra" />
		<tag k="natural" v="wetland" />
		<tag k="ssr:stedsnr" v="112943" />
	</node>
	<node lat="68.94735555639203" lon="16.664958325540933" id="-42622">
		<tag k="name" v="Skogan" />
=======
	<node id="-839416" lat="68.6627888856" lon="16.5081249927">
		<tag k="name" v="Lilleformyra" />
		<tag k="natural" v="wetland" />
		<tag k="ssr:stedsnr" v="238725" />
	</node>
	<node id="-840470" lat="68.6791500029" lon="16.553722232">
		<tag k="name" v="Øverlandmyra" />
		<tag k="natural" v="wetland" />
		<tag k="ssr:stedsnr" v="631454" />
	</node>
	<node id="-841974" lat="69.0323611146" lon="16.5265222166">
		<tag k="name" v="Langåkeren" />
		<tag k="place" v="locality" />
		<tag k="ssr:stedsnr" v="544860" />
	</node>
	<node id="-839925" lat="68.7702916633" lon="16.5492138859">
		<tag k="name" v="Nordmarka" />
		<tag k="place" v="locality" />
		<tag k="ssr:stedsnr" v="361107" />
	</node>
	<node id="-842483" lat="68.8854138902" lon="16.3158777754">
		<tag k="name" v="Ytter-Aunskogen" />
		<tag k="place" v="locality" />
		<tag k="ssr:stedsnr" v="811299" />
	</node>
	<node id="-839410" lat="68.7034416705" lon="16.5225166631">
		<tag k="name" v="Skittmyra" />
		<tag k="natural" v="wetland" />
		<tag k="ssr:stedsnr" v="238615" />
	</node>
	<node id="-839409" lat="68.7078999961" lon="16.5491083311">
		<tag k="name" v="Gubben-Noasteinen" />
		<tag k="natural" v="stone" />
		<tag k="ssr:stedsnr" v="238613" />
	</node>
	<node id="-840432" lat="68.9631222181" lon="16.5869722154">
		<tag k="name" v="Austnesslåtta" />
>>>>>>> e1d4bc35ff8a6074a6f2e91616a996b547c36f15
		<tag k="place" v="locality" />
		<tag k="ssr:stedsnr" v="115918" />
	</node>
<<<<<<< HEAD
	<node lat="68.94329166307493" lon="16.707511106750005" id="-42623">
		<tag k="name" v="Langmyra" />
		<tag k="natural" v="wetland" />
		<tag k="ssr:stedsnr" v="115922" />
	</node>
	<node lat="69.02614166923436" lon="16.535105553879347" id="-42628">
		<tag k="name" v="Vinterveimyra" />
		<tag k="natural" v="wetland" />
		<tag k="ssr:stedsnr" v="117130" />
	</node>
	<node lat="69.02925277692177" lon="16.541108340880857" id="-42634">
		<tag k="name" v="Grasveimyra" />
=======
	<node id="-842404" lat="68.8099361078" lon="16.5103666714">
		<tag k="name" v="Hestemarka" />
		<tag k="place" v="locality" />
		<tag k="ssr:stedsnr" v="786043" />
	</node>
	<node id="-839916" lat="68.7025916641" lon="16.5301333407">
		<tag k="name" v="Nermyra" />
>>>>>>> e1d4bc35ff8a6074a6f2e91616a996b547c36f15
		<tag k="natural" v="wetland" />
		<tag k="ssr:stedsnr" v="117100" />
	</node>
<<<<<<< HEAD
	<node lat="68.70027778207826" lon="16.576880553277675" id="-42652">
		<tag k="name" v="Tuvmyra" />
=======
	<node id="-840427" lat="68.7751499964" lon="16.5712388842">
		<tag k="name" v="Limyra" />
>>>>>>> e1d4bc35ff8a6074a6f2e91616a996b547c36f15
		<tag k="natural" v="wetland" />
		<tag k="ssr:stedsnr" v="117751" />
	</node>
<<<<<<< HEAD
	<node lat="68.89803611552135" lon="16.572741654837937" id="-42657">
		<tag k="name" v="Storholtet" />
		<tag k="place" v="locality" />
		<tag k="ssr:stedsnr" v="117779" />
	</node>
	<node lat="68.91163333053223" lon="16.5906249913289" id="-42659">
		<tag k="name" v="Halvardsmyra" />
		<tag k="natural" v="wetland" />
		<tag k="ssr:stedsnr" v="117787" />
	</node>
	<node lat="68.89899722513948" lon="16.623325010449804" id="-42660">
		<tag k="name" v="Tingholtet" />
		<tag k="place" v="locality" />
		<tag k="ssr:stedsnr" v="117802" />
	</node>
	<node lat="68.89863610991434" lon="16.45361110687346" id="-42671">
		<tag k="name" v="Morskogen" />
		<tag k="place" v="locality" />
		<tag k="ssr:stedsnr" v="118239" />
	</node>
	<node lat="68.90233055859723" lon="16.413391664472346" id="-42680">
		<tag k="name" v="Roura" />
		<tag k="natural" v="scree" />
		<tag k="ssr:stedsnr" v="118361" />
	</node>
	<node lat="68.89192500467138" lon="16.441074988287827" id="-42763">
		<tag k="name" v="Trollmyra" />
=======
	<node id="-841449" lat="68.8858277814" lon="16.5152944495">
		<tag k="name" v="Bretsenmyra" />
		<tag k="natural" v="wetland" />
		<tag k="ssr:stedsnr" v="179337" />
	</node>
	<node id="-841447" lat="68.8880277769" lon="16.5509555611">
		<tag k="name" v="Lomsmyra" />
		<tag k="natural" v="wetland" />
		<tag k="ssr:stedsnr" v="179332" />
	</node>
	<node id="-840422" lat="68.8937388916" lon="16.5795555605">
		<tag k="name" v="Kattemyra" />
>>>>>>> e1d4bc35ff8a6074a6f2e91616a996b547c36f15
		<tag k="natural" v="wetland" />
		<tag k="ssr:stedsnr" v="177395" />
	</node>
<<<<<<< HEAD
	<node lat="69.01299722430493" lon="16.507936101135833" id="-42779">
		<tag k="name" v="Russmyra" />
		<tag k="natural" v="wetland" />
		<tag k="ssr:stedsnr" v="177252" />
	</node>
	<node lat="68.9965499985152" lon="16.519763883897586" id="-42781">
		<tag k="name" v="Oldermyra" />
=======
	<node id="-840928" lat="68.8108999996" lon="16.4148916587">
		<tag k="name" v="Tjørnmyra" />
>>>>>>> e1d4bc35ff8a6074a6f2e91616a996b547c36f15
		<tag k="natural" v="wetland" />
		<tag k="ssr:stedsnr" v="177526" />
	</node>
<<<<<<< HEAD
	<node lat="68.69961944553404" lon="16.57355277011299" id="-42802">
=======
	<node id="-841438" lat="68.6996194455" lon="16.5735527701">
>>>>>>> e1d4bc35ff8a6074a6f2e91616a996b547c36f15
		<tag k="name" v="Kjærran" />
		<tag k="place" v="locality" />
		<tag k="ssr:stedsnr" v="178730" />
	</node>
<<<<<<< HEAD
	<node lat="69.04080833673105" lon="16.48734722421168" id="-42875">
		<tag k="name" v="Erlandmyra" />
=======
	<node id="-841949" lat="68.9183972229" lon="16.2649222202">
		<tag k="name" v="Storåkran" />
		<tag k="place" v="locality" />
		<tag k="ssr:stedsnr" v="543042" />
	</node>
	<node id="-839899" lat="68.7157666661" lon="16.5206638844">
		<tag k="name" v="Kilbotnmyra" />
		<tag k="natural" v="wetland" />
		<tag k="ssr:stedsnr" v="483635" />
	</node>
	<node id="-841434" lat="68.6641000038" lon="16.5138555514">
		<tag k="name" v="Forsmyra" />
		<tag k="natural" v="wetland" />
		<tag k="ssr:stedsnr" v="178673" />
	</node>
	<node id="-841945" lat="68.6725916698" lon="16.5539833377">
		<tag k="name" v="Rødliverslet" />
>>>>>>> e1d4bc35ff8a6074a6f2e91616a996b547c36f15
		<tag k="natural" v="wetland" />
		<tag k="ssr:stedsnr" v="205422" />
	</node>
<<<<<<< HEAD
	<node lat="68.88019166702709" lon="16.333280559800983" id="-42877">
		<tag k="name" v="Ytter-Aunskogen" />
		<tag k="place" v="locality" />
		<tag k="ssr:stedsnr" v="206498" />
	</node>
	<node lat="69.02465000352773" lon="16.536352785434193" id="-42886">
		<tag k="name" v="Skarsemmyra" />
=======
	<node id="-839896" lat="68.9114166643" lon="16.2673361178">
		<tag k="name" v="Botnbekkmyra" />
		<tag k="natural" v="wetland" />
		<tag k="ssr:stedsnr" v="483127" />
	</node>
	<node id="-842063" lat="68.7557916642" lon="16.3782194375">
		<tag k="name" v="Galenkjerran" />
		<tag k="place" v="locality" />
		<tag k="ssr:stedsnr" v="597952" />
	</node>
	<node id="-840401" lat="68.6173111105" lon="16.4248805545">
		<tag k="name" v="Storsteinmyra" />
>>>>>>> e1d4bc35ff8a6074a6f2e91616a996b547c36f15
		<tag k="natural" v="wetland" />
		<tag k="ssr:stedsnr" v="224769" />
	</node>
<<<<<<< HEAD
	<node lat="69.00996389336939" lon="16.51923888103399" id="-42914">
		<tag k="name" v="Stormyra" />
		<tag k="natural" v="wetland" />
		<tag k="ssr:stedsnr" v="299304" />
	</node>
	<node lat="68.89254722302735" lon="16.441761117678517" id="-42921">
		<tag k="name" v="Liskogen" />
		<tag k="place" v="locality" />
		<tag k="ssr:stedsnr" v="299428" />
	</node>
	<node lat="68.91457222525771" lon="16.59477221852573" id="-42940">
		<tag k="name" v="Slåkemyra" />
=======
	<node id="-840907" lat="68.7698777768" lon="16.5166111005">
		<tag k="name" v="Landsåsmyra" />
>>>>>>> e1d4bc35ff8a6074a6f2e91616a996b547c36f15
		<tag k="natural" v="wetland" />
		<tag k="ssr:stedsnr" v="299790" />
	</node>
<<<<<<< HEAD
	<node lat="68.82734166565994" lon="16.381174991583272" id="-42950">
		<tag k="name" v="Stormyra" />
		<tag k="natural" v="wetland" />
		<tag k="ssr:stedsnr" v="301989" />
	</node>
	<node lat="68.7105416657974" lon="16.504855562202522" id="-42962">
		<tag k="name" v="Gassteinmyra" />
=======
	<node id="-839881" lat="68.8833972224" lon="16.544211103">
		<tag k="name" v="Buteigen" />
		<tag k="place" v="locality" />
		<tag k="ssr:stedsnr" v="482348" />
	</node>
	<node id="-839880" lat="68.8912833312" lon="16.5183305529">
		<tag k="name" v="Gallslåtten" />
		<tag k="place" v="locality" />
		<tag k="ssr:stedsnr" v="482337" />
	</node>
	<node id="-841926" lat="68.9694888851" lon="16.7102166623">
		<tag k="name" v="Langnesmyran" />
>>>>>>> e1d4bc35ff8a6074a6f2e91616a996b547c36f15
		<tag k="natural" v="wetland" />
		<tag k="ssr:stedsnr" v="301597" />
	</node>
<<<<<<< HEAD
	<node lat="68.80150277691143" lon="16.40591110925586" id="-42982">
		<tag k="alt_name" v="Foramyra" />
		<tag k="name" v="Forramyra" />
=======
	<node id="-841925" lat="68.7924805585" lon="16.4805666708">
		<tag k="name" v="Storbakkmyra" />
>>>>>>> e1d4bc35ff8a6074a6f2e91616a996b547c36f15
		<tag k="natural" v="wetland" />
		<tag k="ssr:stedsnr" v="321355" />
	</node>
<<<<<<< HEAD
	<node lat="68.76028889285956" lon="16.3751777676646" id="-42988">
		<tag k="name" v="Tømmeråsen" />
		<tag k="place" v="locality" />
		<tag k="ssr:stedsnr" v="321416" />
	</node>
	<node lat="68.81170833382036" lon="16.34303055444518" id="-43041">
		<tag k="name" v="Svartskogen" />
=======
	<node id="-839361" lat="68.6966666696" lon="16.5725555553">
		<tag k="landuse" v="meadow" />
		<tag k="name" v="Sjøåkran" />
		<tag k="ssr:stedsnr" v="56766" />
	</node>
	<node id="-839358" lat="68.6798611147" lon="16.5409277853">
		<tag k="name" v="Mersmyra" />
>>>>>>> e1d4bc35ff8a6074a6f2e91616a996b547c36f15
		<tag k="natural" v="wetland" />
		<tag k="ssr:stedsnr" v="361992" />
	</node>
<<<<<<< HEAD
	<node lat="68.64793611201208" lon="16.499788878864862" id="-43056">
		<tag k="name" v="Reinjordmyran" />
		<tag k="natural" v="wetland" />
		<tag k="ssr:stedsnr" v="359695" />
	</node>
	<node lat="68.96722777595015" lon="16.590388884790695" id="-43059">
		<tag k="name" v="Fagervikmyra" />
=======
	<node id="-839869" lat="68.9902611139" lon="16.5634527674">
		<tag k="name" v="Hestholla" />
		<tag k="natural" v="stone" />
		<tag k="ssr:stedsnr" v="481944" />
	</node>
	<node id="-841916" lat="69.0006916713" lon="16.5158972138">
		<tag k="name" v="Stongmyra" />
>>>>>>> e1d4bc35ff8a6074a6f2e91616a996b547c36f15
		<tag k="natural" v="wetland" />
		<tag k="ssr:stedsnr" v="359883" />
	</node>
<<<<<<< HEAD
	<node lat="68.77029166328632" lon="16.549213885895192" id="-43083">
		<tag k="name" v="Nordmarka" />
		<tag k="place" v="locality" />
		<tag k="ssr:stedsnr" v="361107" />
	</node>
	<node lat="68.97300555242566" lon="16.269902774882016" id="-43090">
		<tag k="name" v="Bringevollen" />
		<tag k="natural" v="wetland" />
		<tag k="ssr:stedsnr" v="361153" />
	</node>
	<node lat="68.88679166934479" lon="16.54377777205115" id="-43095">
		<tag k="name" v="Rødhammermyra" />
		<tag k="natural" v="wetland" />
		<tag k="ssr:stedsnr" v="361383" />
	</node>
	<node lat="69.03428611418683" lon="16.55090554331962" id="-43172">
		<tag k="name" v="Hallarsvikmyra" />
=======
	<node id="-841402" lat="69.0253027751" lon="16.5406305439">
		<tag k="name" v="Tepphågmyra" />
		<tag k="natural" v="wetland" />
		<tag k="ssr:stedsnr" v="177120" />
	</node>
	<node id="-842425" lat="68.6607138928" lon="16.4636750048">
		<tag k="name" v="Bukkelimyra" />
		<tag k="natural" v="wetland" />
		<tag k="ssr:stedsnr" v="786500" />
	</node>
	<node id="-842424" lat="68.8923638889" lon="16.4789833418">
		<tag k="name" v="Oksemyra" />
>>>>>>> e1d4bc35ff8a6074a6f2e91616a996b547c36f15
		<tag k="natural" v="wetland" />
		<tag k="ssr:stedsnr" v="786479" />
	</node>
<<<<<<< HEAD
	<node lat="68.99506666391218" lon="16.563919453229207" id="-43181">
		<tag k="name" v="Risnakkmyra" />
		<tag k="natural" v="wetland" />
		<tag k="ssr:stedsnr" v="418425" />
	</node>
	<node lat="69.05778055898654" lon="16.52382778332068" id="-43185">
		<tag k="name" v="Stormyra" />
		<tag k="natural" v="wetland" />
		<tag k="ssr:stedsnr" v="420453" />
	</node>
	<node lat="69.0315555511692" lon="16.521408337246474" id="-43190">
		<tag k="name" v="Langmyra" />
=======
	<node id="-839540" lat="68.8989972251" lon="16.6233250104">
		<tag k="name" v="Tingholtet" />
		<tag k="place" v="locality" />
		<tag k="ssr:stedsnr" v="117802" />
	</node>
	<node id="-839369" lat="68.7751694454" lon="16.4095749917">
		<tag k="name" v="Langmyran" />
		<tag k="natural" v="wetland" />
		<tag k="ssr:stedsnr" v="238122" />
	</node>
	<node id="-841395" lat="68.9919444436" lon="16.5422472287">
		<tag k="name" v="Gråsteinmyra" />
>>>>>>> e1d4bc35ff8a6074a6f2e91616a996b547c36f15
		<tag k="natural" v="wetland" />
		<tag k="ssr:stedsnr" v="420103" />
	</node>
<<<<<<< HEAD
	<node lat="69.02616944809631" lon="16.519883329471444" id="-43191">
		<tag k="name" v="Morskogmyra" />
		<tag k="natural" v="wetland" />
		<tag k="old_name" v="Moreskogmyra" />
		<tag k="ssr:stedsnr" v="420105" />
	</node>
	<node lat="69.02489444794483" lon="16.529911112255032" id="-43193">
		<tag k="name" v="Stokkemyra" />
=======
	<node id="-839539" lat="68.9145722253" lon="16.5947722185">
		<tag k="name" v="Slåkemyra" />
		<tag k="natural" v="wetland" />
		<tag k="ssr:stedsnr" v="299790" />
	</node>
	<node id="-840013" lat="69.0342861142" lon="16.5509055433">
		<tag k="name" v="Hallarsvikmyra" />
		<tag k="natural" v="wetland" />
		<tag k="ssr:stedsnr" v="406768" />
	</node>
	<node id="-841928" lat="68.763741664" lon="16.5591249891">
		<tag k="name" v="Kalvesteinan" />
		<tag k="natural" v="stone" />
		<tag k="ssr:stedsnr" v="541992" />
	</node>
	<node id="-840876" lat="68.6581222246" lon="16.5439166619">
		<tag k="name" v="Vestmyra" />
>>>>>>> e1d4bc35ff8a6074a6f2e91616a996b547c36f15
		<tag k="natural" v="wetland" />
		<tag k="ssr:stedsnr" v="420111" />
	</node>
<<<<<<< HEAD
	<node lat="68.61709722159307" lon="16.533399987850487" id="-43212">
		<tag k="name" v="Resmålsmyra" />
=======
	<node id="-841074" lat="68.9522388854" lon="16.2829333416">
		<tag k="name" v="Banmyra" />
		<tag k="natural" v="wetland" />
		<tag k="ssr:stedsnr" v="58224" />
	</node>
	<node id="-841898" lat="69.0261083359" lon="16.5238111096">
		<tag k="name" v="Nonshågmyra" />
>>>>>>> e1d4bc35ff8a6074a6f2e91616a996b547c36f15
		<tag k="natural" v="wetland" />
		<tag k="ssr:stedsnr" v="420468" />
	</node>
<<<<<<< HEAD
	<node lat="68.76346944596426" lon="16.50810832334902" id="-43219">
		<tag k="name" v="Ura" />
		<tag k="natural" v="scree" />
		<tag k="ssr:stedsnr" v="420978" />
	</node>
	<node lat="68.81376944437748" lon="16.46068055950429" id="-43237">
		<tag k="name" v="Grønnbakkmyra" />
=======
	<node id="-841897" lat="69.02887222" lon="16.5234000009">
		<tag k="name" v="Klemmerveimyra" />
		<tag k="natural" v="wetland" />
		<tag k="ssr:stedsnr" v="541110" />
	</node>
	<node id="-842408" lat="68.8432000042" lon="16.4620722135">
		<tag k="name" v="Bjørnmyra" />
>>>>>>> e1d4bc35ff8a6074a6f2e91616a996b547c36f15
		<tag k="natural" v="wetland" />
		<tag k="ssr:stedsnr" v="422073" />
	</node>
	<node lat="68.88933055172177" lon="16.556619442968028" id="-43241">
		<tag k="name" v="Myra" />
		<tag k="natural" v="wetland" />
		<tag k="ssr:stedsnr" v="422329" />
	</node>
	<node lat="68.88577499717533" lon="16.50203056094265" id="-43243">
		<tag k="name" v="Litlholtmyra" />
		<tag k="natural" v="wetland" />
		<tag k="ssr:stedsnr" v="422447" />
	</node>
	<node lat="68.67470555910407" lon="16.568891673621156" id="-43248">
		<tag k="name" v="Skogan" />
		<tag k="place" v="locality" />
		<tag k="ssr:stedsnr" v="422684" />
	</node>
<<<<<<< HEAD
	<node lat="68.8987638851155" lon="16.271716661364838" id="-43251">
		<tag k="name" v="Elgemyran" />
		<tag k="natural" v="wetland" />
		<tag k="ssr:stedsnr" v="423137" />
	</node>
	<node lat="68.78279444483464" lon="16.399927779410326" id="-43270">
		<tag k="fixme" v="multiple name tags, choose one and add the other to alt_name" />
		<tag k="name" v="Allmenningsmyra;Skamomyra" />
=======
	<node id="-841894" lat="68.941349997" lon="16.6806944341">
		<tag k="name" v="Gongmyra" />
>>>>>>> e1d4bc35ff8a6074a6f2e91616a996b547c36f15
		<tag k="natural" v="wetland" />
		<tag k="ssr:stedsnr" v="442480" />
	</node>
<<<<<<< HEAD
	<node lat="68.9963055520567" lon="16.462366672152225" id="-43279">
		<tag k="name" v="Lysmarka" />
		<tag k="place" v="locality" />
		<tag k="ssr:stedsnr" v="442744" />
	</node>
	<node lat="68.74191388562863" lon="16.512855557331406" id="-43304">
		<tag k="name" v="Hinnsteinsmyra" />
=======
	<node id="-841893" lat="68.9414083373" lon="16.6993333333">
		<tag k="name" v="Molvikåsmyra" />
		<tag k="natural" v="wetland" />
		<tag k="ssr:stedsnr" v="540921" />
	</node>
	<node id="-839844" lat="69.0117222176" lon="16.4856027868">
		<tag k="name" v="Stuhågmyra" />
>>>>>>> e1d4bc35ff8a6074a6f2e91616a996b547c36f15
		<tag k="natural" v="wetland" />
		<tag k="ssr:stedsnr" v="443951" />
	</node>
<<<<<<< HEAD
	<node lat="68.61879444806259" lon="16.52026109989124" id="-43307">
		<tag k="fixme" v="multiple name tags, choose one and add the other to alt_name" />
		<tag k="name" v="Stigmyra;Øvre Stimyra" />
		<tag k="natural" v="wetland" />
		<tag k="ssr:stedsnr" v="444218" />
	</node>
	<node lat="68.778883330776" lon="16.35673889171533" id="-43393">
		<tag k="name" v="Nakkemyra" />
		<tag k="natural" v="wetland" />
		<tag k="ssr:stedsnr" v="537952" />
	</node>
	<node lat="69.00069167128774" lon="16.515897213774426" id="-43396">
		<tag k="name" v="Stongmyra" />
		<tag k="natural" v="wetland" />
		<tag k="ssr:stedsnr" v="541518" />
	</node>
	<node lat="68.79248055851559" lon="16.480566670849374" id="-43413">
		<tag k="name" v="Storbakkmyra" />
=======
	<node id="-840866" lat="68.7701444417" lon="16.4195527884">
		<tag k="name" v="Hallsteinmyra" />
		<tag k="natural" v="wetland" />
		<tag k="ssr:stedsnr" v="966120" />
	</node>
	<node id="-839451" lat="68.6587611094" lon="16.4372444404">
		<tag k="name" v="Fogdestein" />
		<tag k="natural" v="stone" />
		<tag k="ssr:stedsnr" v="240502" />
	</node>
	<node id="-840050" lat="68.8987638851" lon="16.2717166614">
		<tag k="name" v="Elgemyran" />
		<tag k="natural" v="wetland" />
		<tag k="ssr:stedsnr" v="423137" />
	</node>
	<node id="-842393" lat="68.9877111112" lon="16.5744444421">
		<tag k="name" v="Støttersmyra" />
>>>>>>> e1d4bc35ff8a6074a6f2e91616a996b547c36f15
		<tag k="natural" v="wetland" />
		<tag k="ssr:stedsnr" v="541882" />
	</node>
<<<<<<< HEAD
	<node lat="68.96948888506289" lon="16.710216662261452" id="-43416">
		<tag k="name" v="Langnesmyran" />
		<tag k="natural" v="wetland" />
		<tag k="ssr:stedsnr" v="541911" />
	</node>
	<node lat="68.7637416640006" lon="16.559124989098176" id="-43418">
		<tag k="name" v="Kalvesteinan" />
		<tag k="natural" v="stone" />
		<tag k="ssr:stedsnr" v="541992" />
	</node>
	<node lat="68.91839722288616" lon="16.26492222015661" id="-43436">
		<tag k="name" v="Storåkran" />
		<tag k="place" v="locality" />
		<tag k="ssr:stedsnr" v="543042" />
	</node>
	<node lat="69.03236111459186" lon="16.526522216648832" id="-43456">
		<tag k="name" v="Langåkeren" />
		<tag k="place" v="locality" />
		<tag k="ssr:stedsnr" v="544860" />
	</node>
	<node lat="68.81970555136093" lon="16.462113887797802" id="-43457">
		<tag k="name" v="Stormyra" />
		<tag k="natural" v="wetland" />
		<tag k="ssr:stedsnr" v="563377" />
	</node>
	<node lat="68.99290555692924" lon="16.560691666355" id="-43493">
		<tag k="name" v="Rundemyra" />
=======
	<node id="-839830" lat="68.9864388934" lon="16.3724249998">
		<tag k="name" v="Høysteinan" />
		<tag k="natural" v="stone" />
		<tag k="ssr:stedsnr" v="479748" />
	</node>
	<node id="-842187" lat="68.951286115" lon="16.3683277741">
		<tag k="name" v="Bumarka" />
		<tag k="place" v="locality" />
		<tag k="ssr:stedsnr" v="624522" />
	</node>
	<node id="-839448" lat="68.8971916647" lon="16.4273027651">
		<tag k="name" v="Skitenkjerran" />
		<tag k="place" v="locality" />
		<tag k="ssr:stedsnr" v="240412" />
	</node>
	<node id="-841867" lat="68.6747055591" lon="16.5688916736">
		<tag k="name" v="Skogan" />
		<tag k="place" v="locality" />
		<tag k="ssr:stedsnr" v="422684" />
	</node>
	<node id="-840842" lat="68.8890250025" lon="16.5449277718">
		<tag k="name" v="Storheimyra" />
		<tag k="natural" v="wetland" />
		<tag k="ssr:stedsnr" v="907307" />
	</node>
	<node id="-842375" lat="68.8919111143" lon="16.5666583431">
		<tag k="name" v="Trettemyra" />
>>>>>>> e1d4bc35ff8a6074a6f2e91616a996b547c36f15
		<tag k="natural" v="wetland" />
		<tag k="ssr:stedsnr" v="563740" />
	</node>
<<<<<<< HEAD
	<node lat="68.78167500369358" lon="16.440794448977982" id="-43506">
		<tag k="name" v="Myran" />
		<tag k="natural" v="wetland" />
		<tag k="ssr:stedsnr" v="564497" />
	</node>
	<node lat="68.787044442434" lon="16.47022221383656" id="-43507">
		<tag k="name" v="Langmobekkmyra" />
=======
	<node id="-841861" lat="68.8857749972" lon="16.5020305609">
		<tag k="name" v="Litlholtmyra" />
>>>>>>> e1d4bc35ff8a6074a6f2e91616a996b547c36f15
		<tag k="natural" v="wetland" />
		<tag k="ssr:stedsnr" v="564498" />
	</node>
<<<<<<< HEAD
	<node lat="68.82265277784886" lon="16.542138898173523" id="-43543">
		<tag k="name" v="Molla" />
=======
	<node id="-840835" lat="68.8337333348" lon="16.2881444377">
		<tag k="name" v="Finmyra" />
>>>>>>> e1d4bc35ff8a6074a6f2e91616a996b547c36f15
		<tag k="natural" v="wetland" />
		<tag k="ssr:stedsnr" v="591874" />
	</node>
<<<<<<< HEAD
	<node lat="68.75579166417016" lon="16.378219437490966" id="-43545">
		<tag k="name" v="Galenkjerran" />
		<tag k="place" v="locality" />
		<tag k="ssr:stedsnr" v="597952" />
	</node>
	<node lat="69.02572222084387" lon="16.531622232751754" id="-43561">
		<tag k="name" v="Slåttemannmyra" />
		<tag k="natural" v="wetland" />
		<tag k="ssr:stedsnr" v="602117" />
	</node>
	<node lat="68.99857777783949" lon="16.46926110931829" id="-43578">
		<tag k="name" v="Langmyra" />
		<tag k="natural" v="wetland" />
		<tag k="ssr:stedsnr" v="602494" />
	</node>
	<node lat="68.88732222269763" lon="16.58280554931338" id="-43580">
		<tag k="name" v="Rånmyra" />
		<tag k="natural" v="wetland" />
		<tag k="ssr:stedsnr" v="602546" />
	</node>
	<node lat="68.69855278011525" lon="16.56948054455788" id="-43583">
=======
	<node id="-841852" lat="68.8137694444" lon="16.4606805595">
		<tag k="name" v="Grønnbakkmyra" />
		<tag k="natural" v="wetland" />
		<tag k="ssr:stedsnr" v="422073" />
	</node>
	<node id="-840298" lat="68.7071166633" lon="16.385363879">
		<tag k="name" v="Kvantomyran" />
		<tag k="natural" v="wetland" />
		<tag k="ssr:stedsnr" v="536571" />
	</node>
	<node id="-840826" lat="68.8079138924" lon="16.5376777662">
		<tag k="name" v="Holstjordet" />
		<tag k="place" v="locality" />
		<tag k="ssr:stedsnr" v="906207" />
	</node>
	<node id="-842359" lat="68.8897222212" lon="16.4398611015">
>>>>>>> e1d4bc35ff8a6074a6f2e91616a996b547c36f15
		<tag k="landuse" v="meadow" />
		<tag k="name" v="Toftåker" />
		<tag k="ssr:stedsnr" v="602755" />
	</node>
<<<<<<< HEAD
	<node lat="68.6918833343865" lon="16.50485833710054" id="-43592">
		<tag k="name" v="Tortenmyra" />
		<tag k="natural" v="wetland" />
		<tag k="ssr:stedsnr" v="602590" />
	</node>
	<node lat="68.88767222161343" lon="16.475808336463057" id="-43593">
		<tag k="name" v="Skjellsteinmyra" />
=======
	<node id="-839798" lat="69.0455083295" lon="16.4832777852">
		<tag k="name" v="Grønnvikmyra" />
>>>>>>> e1d4bc35ff8a6074a6f2e91616a996b547c36f15
		<tag k="natural" v="wetland" />
		<tag k="ssr:stedsnr" v="603431" />
	</node>
<<<<<<< HEAD
	<node lat="68.66722500204128" lon="16.515741677451654" id="-43598">
		<tag k="name" v="Vatnet" />
=======
	<node id="-839797" lat="68.6223722188" lon="16.4614944349">
		<tag k="name" v="Kjerrielmyra" />
>>>>>>> e1d4bc35ff8a6074a6f2e91616a996b547c36f15
		<tag k="natural" v="wetland" />
		<tag k="ssr:stedsnr" v="602732" />
	</node>
<<<<<<< HEAD
	<node lat="68.88697777740258" lon="16.52614722633829" id="-43614">
		<tag k="name" v="Hellemyra" />
=======
	<node id="-839796" lat="69.0099638934" lon="16.519238881">
		<tag k="name" v="Stormyra" />
>>>>>>> e1d4bc35ff8a6074a6f2e91616a996b547c36f15
		<tag k="natural" v="wetland" />
		<tag k="ssr:stedsnr" v="603325" />
	</node>
<<<<<<< HEAD
	<node lat="68.8936472190379" lon="16.541616670963467" id="-43615">
		<tag k="name" v="Mellemgaltemyra" />
=======
	<node id="-840307" lat="68.7035138872" lon="16.5529000083">
		<tag k="name" v="Helleveimyra" />
>>>>>>> e1d4bc35ff8a6074a6f2e91616a996b547c36f15
		<tag k="natural" v="wetland" />
		<tag k="ssr:stedsnr" v="603326" />
	</node>
<<<<<<< HEAD
	<node lat="68.91486111342356" lon="16.265119456470636" id="-43623">
		<tag k="name" v="Stormyra" />
		<tag k="natural" v="wetland" />
		<tag k="ssr:stedsnr" v="604132" />
	</node>
	<node lat="68.95128611496982" lon="16.368327774071727" id="-43658">
		<tag k="name" v="Bumarka" />
=======
	<node id="-841841" lat="68.763469446" lon="16.5081083233">
		<tag k="name" v="Ura" />
		<tag k="natural" v="scree" />
		<tag k="ssr:stedsnr" v="420978" />
	</node>
	<node id="-841417" lat="68.8919250047" lon="16.4410749883">
		<tag k="name" v="Trollmyra" />
		<tag k="natural" v="wetland" />
		<tag k="ssr:stedsnr" v="177395" />
	</node>
	<node id="-840302" lat="68.9535138922" lon="16.530049999">
		<tag k="name" v="Klubbholtet" />
>>>>>>> e1d4bc35ff8a6074a6f2e91616a996b547c36f15
		<tag k="place" v="locality" />
		<tag k="ssr:stedsnr" v="624522" />
	</node>
<<<<<<< HEAD
	<node lat="68.70957222017599" lon="16.506591660809008" id="-43665">
		<tag k="name" v="Nordvikmyran" />
=======
	<node id="-841837" lat="68.6968194484" lon="16.5424666757">
		<tag k="name" v="Bjørnhågmyra" />
>>>>>>> e1d4bc35ff8a6074a6f2e91616a996b547c36f15
		<tag k="natural" v="wetland" />
		<tag k="ssr:stedsnr" v="624862" />
	</node>
<<<<<<< HEAD
	<node lat="68.6791500029038" lon="16.553722232018334" id="-43682">
		<tag k="name" v="Øverlandmyra" />
=======
	<node id="-840300" lat="68.7788833308" lon="16.3567388917">
		<tag k="name" v="Nakkemyra" />
>>>>>>> e1d4bc35ff8a6074a6f2e91616a996b547c36f15
		<tag k="natural" v="wetland" />
		<tag k="ssr:stedsnr" v="631454" />
	</node>
<<<<<<< HEAD
	<node lat="69.0765583317326" lon="16.505558341760032" id="-43712">
		<tag k="name" v="Stormyra" />
=======
	<node id="-841834" lat="68.6170972216" lon="16.5333999879">
		<tag k="name" v="Resmålsmyra" />
>>>>>>> e1d4bc35ff8a6074a6f2e91616a996b547c36f15
		<tag k="natural" v="wetland" />
		<tag k="ssr:stedsnr" v="663165" />
	</node>
<<<<<<< HEAD
	<node lat="69.023994447168" lon="16.531325011001393" id="-43714">
=======
	<node id="-841833" lat="69.057780559" lon="16.5238277833">
>>>>>>> e1d4bc35ff8a6074a6f2e91616a996b547c36f15
		<tag k="name" v="Stormyra" />
		<tag k="natural" v="wetland" />
		<tag k="ssr:stedsnr" v="663240" />
	</node>
<<<<<<< HEAD
	<node lat="68.66288888653122" lon="16.53586943955871" id="-43743">
		<tag k="name" v="Rødtjønnmyra" />
=======
	<node id="-839543" lat="68.7760583374" lon="16.533794453">
		<tag k="name" v="Mundslettmyra" />
		<tag k="natural" v="wetland" />
		<tag k="ssr:stedsnr" v="118105" />
	</node>
	<node id="-839356" lat="69.0048694437" lon="16.5031027888">
		<tag k="name" v="Beinsteinen" />
		<tag k="natural" v="stone" />
		<tag k="ssr:stedsnr" v="56253" />
	</node>
	<node id="-842257" lat="68.8427111118" lon="16.2334277831">
		<tag k="name" v="Åsmyra" />
		<tag k="natural" v="wetland" />
		<tag k="ssr:stedsnr" v="745431" />
	</node>
	<node id="-842339" lat="68.9543916658" lon="16.7208000008">
		<tag k="name" v="Olsborgmyran" />
>>>>>>> e1d4bc35ff8a6074a6f2e91616a996b547c36f15
		<tag k="natural" v="wetland" />
		<tag k="ssr:stedsnr" v="663699" />
	</node>
<<<<<<< HEAD
	<node lat="68.90753333386799" lon="16.603130548302822" id="-43748">
		<tag k="name" v="Stormyra" />
=======
	<node id="-842338" lat="68.9588444444" lon="16.7059444387">
		<tag k="name" v="Hallevikmyra" />
>>>>>>> e1d4bc35ff8a6074a6f2e91616a996b547c36f15
		<tag k="natural" v="wetland" />
		<tag k="ssr:stedsnr" v="663782" />
	</node>
<<<<<<< HEAD
	<node lat="68.71309999547488" lon="16.52073056049545" id="-43770">
		<tag k="name" v="Bommyra" />
		<tag k="natural" v="wetland" />
		<tag k="ssr:stedsnr" v="665661" />
	</node>
	<node lat="68.70254166532696" lon="16.463922231344274" id="-43771">
		<tag k="name" v="Skargotta" />
=======
	<node id="-842334" lat="68.9860861125" lon="16.3671555592">
		<tag k="name" v="Kjerka" />
		<tag k="natural" v="stone" />
		<tag k="ssr:stedsnr" v="782707" />
	</node>
	<node id="-842333" lat="68.9838388887" lon="16.3878833249">
		<tag k="name" v="Engvaldsteinen" />
		<tag k="natural" v="stone" />
		<tag k="ssr:stedsnr" v="782704" />
	</node>
	<node id="-842331" lat="68.9864138929" lon="16.3631249952">
		<tag k="name" v="Oksen" />
		<tag k="natural" v="stone" />
		<tag k="ssr:stedsnr" v="782652" />
	</node>
	<node id="-841817" lat="69.0248944479" lon="16.5299111123">
		<tag k="name" v="Stokkemyra" />
>>>>>>> e1d4bc35ff8a6074a6f2e91616a996b547c36f15
		<tag k="natural" v="wetland" />
		<tag k="ssr:stedsnr" v="665679" />
	</node>
<<<<<<< HEAD
	<node lat="68.61731111048208" lon="16.424880554476285" id="-43785">
		<tag k="name" v="Storsteinmyra" />
		<tag k="natural" v="wetland" />
		<tag k="ssr:stedsnr" v="723397" />
	</node>
	<node lat="68.89373889160657" lon="16.579555560452665" id="-43806">
		<tag k="name" v="Kattemyra" />
		<tag k="natural" v="wetland" />
		<tag k="ssr:stedsnr" v="724502" />
	</node>
	<node lat="68.89151944802663" lon="16.572427783896178" id="-43808">
		<tag k="name" v="Høgmyra" />
		<tag k="natural" v="wetland" />
		<tag k="ssr:stedsnr" v="724516" />
	</node>
	<node lat="68.77514999642909" lon="16.571238884248203" id="-43813">
		<tag k="name" v="Limyra" />
		<tag k="natural" v="wetland" />
		<tag k="ssr:stedsnr" v="724548" />
	</node>
	<node lat="68.90850277833373" lon="16.573936119041853" id="-43822">
		<tag k="name" v="Tindmyra" />
		<tag k="natural" v="wetland" />
		<tag k="ssr:stedsnr" v="724782" />
	</node>
	<node lat="68.84837222615423" lon="16.47483332469602" id="-43825">
		<tag k="name" v="Heggeskogen" />
		<tag k="place" v="locality" />
		<tag k="ssr:stedsnr" v="725091" />
	</node>
	<node lat="68.89852499934356" lon="16.432841660476434" id="-43830">
		<tag k="name" v="Storskogen" />
		<tag k="place" v="locality" />
		<tag k="ssr:stedsnr" v="725351" />
	</node>
	<node lat="68.67747777966916" lon="16.568888883592685" id="-43834">
		<tag k="landuse" v="meadow" />
		<tag k="name" v="Lislettåkran" />
		<tag k="ssr:stedsnr" v="725639" />
	</node>
	<node lat="68.91840555218965" lon="16.262355556562504" id="-43838">
		<tag k="name" v="Oppsettåkran" />
		<tag k="place" v="locality" />
		<tag k="ssr:stedsnr" v="726041" />
	</node>
	<node lat="68.84271111177402" lon="16.2334277830846" id="-43855">
		<tag k="name" v="Åsmyra" />
=======
	<node id="-841814" lat="69.0261694481" lon="16.5198833295">
		<tag k="name" v="Morskogmyra" />
		<tag k="natural" v="wetland" />
		<tag k="old_name" v="Moreskogmyra" />
		<tag k="ssr:stedsnr" v="420105" />
	</node>
	<node id="-840139" lat="68.7678444406" lon="16.3952333372">
		<tag k="name" v="Bjørnsteinen" />
		<tag k="natural" v="stone" />
		<tag k="ssr:stedsnr" v="476955" />
	</node>
	<node id="-839330" lat="69.0246500035" lon="16.5363527854">
		<tag k="name" v="Skarsemmyra" />
		<tag k="natural" v="wetland" />
		<tag k="ssr:stedsnr" v="224769" />
	</node>
	<node id="-839757" lat="69.0334000002" lon="16.5259694481">
		<tag k="name" v="Knutsåkeren" />
		<tag k="place" v="locality" />
		<tag k="ssr:stedsnr" v="241865" />
	</node>
	<node id="-842081" lat="69.0257222208" lon="16.5316222328">
		<tag k="name" v="Slåttemannmyra" />
		<tag k="natural" v="wetland" />
		<tag k="ssr:stedsnr" v="602117" />
	</node>
	<node id="-839606" lat="68.9965499985" lon="16.5197638839">
		<tag k="name" v="Oldermyra" />
		<tag k="natural" v="wetland" />
		<tag k="ssr:stedsnr" v="177526" />
	</node>
	<node id="-841792" lat="69.0258166626" lon="16.520108329">
		<tag k="name" v="Morskogen" />
		<tag k="place" v="locality" />
		<tag k="ssr:stedsnr" v="406149" />
	</node>
	<node id="-839520" lat="68.9432916631" lon="16.7075111068">
		<tag k="name" v="Langmyra" />
		<tag k="natural" v="wetland" />
		<tag k="ssr:stedsnr" v="115922" />
	</node>
	<node id="-839861" lat="68.9063527824" lon="16.5910666634">
		<tag k="name" v="Lysmyra" />
		<tag k="natural" v="wetland" />
		<tag k="ssr:stedsnr" v="481772" />
	</node>
	<node id="-839354" lat="68.8766833341" lon="16.3528138817">
		<tag k="name" v="Hågesteinan" />
		<tag k="natural" v="stone" />
		<tag k="ssr:stedsnr" v="56002" />
	</node>
	<node id="-841275" lat="68.6628611093" lon="16.4558833223">
		<tag k="name" v="Langmyra" />
>>>>>>> e1d4bc35ff8a6074a6f2e91616a996b547c36f15
		<tag k="natural" v="wetland" />
		<tag k="ssr:stedsnr" v="745431" />
	</node>
<<<<<<< HEAD
	<node lat="68.95884444438029" lon="16.70594443865364" id="-43915">
		<tag k="name" v="Hallevikmyra" />
=======
	<node id="-839603" lat="68.8866416685" lon="16.4601138826">
		<tag k="name" v="Øyra" />
		<tag k="place" v="locality" />
		<tag k="ssr:stedsnr" v="177419" />
	</node>
	<node id="-839737" lat="68.6187944481" lon="16.5202610999">
		<tag k="fixme" v="multiple name tags, choose one and add the other to alt_name" />
		<tag k="name" v="Stigmyra;Øvre Stimyra" />
>>>>>>> e1d4bc35ff8a6074a6f2e91616a996b547c36f15
		<tag k="natural" v="wetland" />
		<tag k="ssr:stedsnr" v="782900" />
	</node>
<<<<<<< HEAD
	<node lat="68.88972222124607" lon="16.439861101544047" id="-43936">
		<tag k="landuse" v="meadow" />
		<tag k="name" v="Nauståkeren" />
		<tag k="ssr:stedsnr" v="784445" />
	</node>
	<node lat="68.84320000416277" lon="16.462072213499326" id="-43958">
		<tag k="name" v="Bjørnmyra" />
=======
	<node id="-841271" lat="68.9080972225" lon="16.2627138779">
		<tag k="name" v="Skarmyra" />
		<tag k="natural" v="wetland" />
		<tag k="ssr:stedsnr" v="119115" />
	</node>
	<node id="-839734" lat="68.7419138856" lon="16.5128555573">
		<tag k="name" v="Hinnsteinsmyra" />
>>>>>>> e1d4bc35ff8a6074a6f2e91616a996b547c36f15
		<tag k="natural" v="wetland" />
		<tag k="ssr:stedsnr" v="786094" />
	</node>
<<<<<<< HEAD
	<node lat="68.809936107792" lon="16.510366671390255" id="-43962">
		<tag k="name" v="Hestemarka" />
		<tag k="place" v="locality" />
		<tag k="ssr:stedsnr" v="786043" />
	</node>
	<node lat="68.89843055606799" lon="16.435797215004857" id="-43965">
		<tag k="name" v="Slåtten" />
		<tag k="place" v="locality" />
		<tag k="ssr:stedsnr" v="786261" />
	</node>
	<node lat="68.89236388886818" lon="16.47898334177344" id="-43971">
		<tag k="name" v="Oksemyra" />
		<tag k="natural" v="wetland" />
		<tag k="ssr:stedsnr" v="786479" />
=======
	<node id="-841777" lat="68.9556527761" lon="16.5663666599">
		<tag k="name" v="Lensmannsteinen" />
		<tag k="natural" v="stone" />
		<tag k="ssr:stedsnr" v="393437" />
	</node>
	<node id="-841264" lat="68.9023305586" lon="16.4133916645">
		<tag k="name" v="Roura" />
		<tag k="natural" v="scree" />
		<tag k="ssr:stedsnr" v="118361" />
>>>>>>> e1d4bc35ff8a6074a6f2e91616a996b547c36f15
	</node>
	<node id="-841263" lat="68.8867861136" lon="16.5024472209">
		<tag k="name" v="Torvholtmyra" />
		<tag k="natural" v="wetland" />
		<tag k="ssr:stedsnr" v="118413" />
	</node>
	<node id="-841261" lat="68.84560833" lon="16.4127833253">
		<tag k="name" v="Djupingan" />
		<tag k="natural" v="wetland" />
		<tag k="ssr:stedsnr" v="118087" />
	</node>
	<node id="-840247" lat="68.9498444455" lon="16.7134083418">
		<tag k="name" v="Stormyra" />
		<tag k="natural" v="wetland" />
		<tag k="ssr:stedsnr" v="685521" />
	</node>
	<node id="-841255" lat="68.8485583303" lon="16.3853500088">
		<tag k="name" v="Tausemyra" />
		<tag k="natural" v="wetland" />
		<tag k="ssr:stedsnr" v="117983" />
	</node>
	<node id="-840905" lat="68.8528027799" lon="16.383255563">
		<tag k="alt_name" v="Grasmyra" />
		<tag k="name" v="Litlehornsmyra" />
		<tag k="natural" v="wetland" />
		<tag k="ssr:stedsnr" v="17452" />
	</node>
	<node id="-839790" lat="68.9497333343" lon="16.7118527774">
		<tag k="name" v="Stormyra" />
		<tag k="natural" v="wetland" />
		<tag k="ssr:stedsnr" v="297924" />
	</node>
	<node id="-840410" lat="68.9224250012" lon="16.6011944512">
		<tag k="name" v="Langmyra" />
		<tag k="natural" v="wetland" />
		<tag k="ssr:stedsnr" v="724122" />
	</node>
	<node id="-841244" lat="68.8980361155" lon="16.5727416548">
		<tag k="name" v="Storholtet" />
		<tag k="place" v="locality" />
		<tag k="ssr:stedsnr" v="117779" />
	</node>
	<node id="-841241" lat="68.7002777821" lon="16.5768805533">
		<tag k="name" v="Tuvmyra" />
		<tag k="natural" v="wetland" />
		<tag k="ssr:stedsnr" v="117751" />
	</node>
	<node id="-840708" lat="68.8969527761" lon="16.6162250059">
		<tag k="name" v="Tingholtet" />
		<tag k="place" v="locality" />
		<tag k="ssr:stedsnr" v="928549" />
	</node>
	<node id="-839701" lat="68.9963055521" lon="16.4623666722">
		<tag k="name" v="Lysmarka" />
		<tag k="place" v="locality" />
		<tag k="ssr:stedsnr" v="442744" />
	</node>
	<node id="-841246" lat="68.9116333305" lon="16.5906249913">
		<tag k="name" v="Halvardsmyra" />
		<tag k="natural" v="wetland" />
		<tag k="ssr:stedsnr" v="117787" />
	</node>
	<node id="-841232" lat="68.6763249992" lon="16.5272277846">
		<tag k="name" v="Svennhågmyra" />
		<tag k="natural" v="wetland" />
		<tag k="ssr:stedsnr" v="117713" />
	</node>
	<node id="-839512" lat="68.7157000014" lon="16.580808334">
		<tag k="name" v="Tømmermyra" />
		<tag k="natural" v="wetland" />
		<tag k="ssr:stedsnr" v="260925" />
	</node>
	<node id="-841228" lat="68.6988888864" lon="16.53779999">
		<tag k="name" v="Steinslettmyra" />
		<tag k="natural" v="wetland" />
		<tag k="ssr:stedsnr" v="117585" />
	</node>
	<node id="-841227" lat="68.6922499964" lon="16.4957555629">
		<tag k="name" v="Blåuran" />
		<tag k="natural" v="scree" />
		<tag k="ssr:stedsnr" v="117582" />
	</node>
	<node id="-841226" lat="68.7001305535" lon="16.5637694551">
		<tag k="name" v="Banmyra" />
		<tag k="natural" v="wetland" />
		<tag k="ssr:stedsnr" v="117577" />
	</node>
	<node id="-840713" lat="68.7075472259" lon="16.5026555652">
		<tag k="name" v="Fjellvassmyra" />
		<tag k="natural" v="wetland" />
		<tag k="ssr:stedsnr" v="786603" />
	</node>
	<node id="-839688" lat="68.7827944448" lon="16.3999277794">
		<tag k="fixme" v="multiple name tags, choose one and add the other to alt_name" />
		<tag k="name" v="Allmenningsmyra;Skamomyra" />
		<tag k="natural" v="wetland" />
		<tag k="ssr:stedsnr" v="442480" />
	</node>
	<node id="-840711" lat="68.9033166691" lon="16.4058361085">
		<tag k="name" v="Rakkura" />
		<tag k="natural" v="scree" />
		<tag k="ssr:stedsnr" v="786413" />
	</node>
	<node id="-841220" lat="68.8894305567" lon="16.4349138916">
		<tag k="landuse" v="meadow" />
		<tag k="name" v="Nessåkeren" />
		<tag k="ssr:stedsnr" v="117431" />
	</node>
	<node id="-840392" lat="68.9912972251" lon="16.5441027755">
		<tag k="name" v="Porsemyra" />
		<tag k="natural" v="wetland" />
		<tag k="ssr:stedsnr" v="722446" />
	</node>
</osm>
