<?xml version="1.0" encoding="UTF-8"?>
<osm generator="osmapis" version="0.6">
	<node id="-697937" lat="68.4193416634" lon="16.7237472087">
		<tag k="name" v="Lønset" />
		<tag k="place" v="farm" />
		<tag k="ssr:stedsnr" v="198465" />
	</node>
	<node id="-697855" lat="68.2195194432" lon="16.642597218">
		<tag k="name" v="Bukta" />
		<tag k="place" v="isolated_dwelling" />
		<tag k="ssr:stedsnr" v="138521" />
	</node>
	<node id="-697941" lat="68.2923972196" lon="16.4385333219">
		<tag k="name" v="Pollan" />
		<tag k="place" v="isolated_dwelling" />
		<tag k="ssr:stedsnr" v="199609" />
	</node>
	<node id="-698876" lat="68.3705416672" lon="16.5596500111">
		<tag k="alt_name" v="Løvdalen" />
		<tag k="name" v="Lauvdalen" />
		<tag k="place" v="farm" />
		<tag k="ssr:stedsnr" v="867733" />
	</node>
	<node id="-698361" lat="68.3447416631" lon="16.7731388775">
		<tag k="alt_name" v="Storfjeld" />
		<tag k="name" v="Storfjell" />
		<tag k="place" v="farm" />
		<tag k="ssr:stedsnr" v="563711" />
	</node>
	<node id="-697845" lat="68.2865333308" lon="16.6215277686">
		<tag k="name" v="Skogvoll" />
		<tag k="place" v="farm" />
		<tag k="ssr:stedsnr" v="137551" />
	</node>
	<node id="-698354" lat="68.3407888887" lon="16.565819442">
		<tag k="name" v="Høgli" />
		<tag k="place" v="farm" />
		<tag k="ssr:stedsnr" v="563672" />
	</node>
	<node id="-698353" lat="68.3237555585" lon="16.6392444479">
		<tag k="alt_name" v="Håfjell" />
		<tag k="name" v="Håfjellet" />
		<tag k="place" v="farm" />
		<tag k="ssr:stedsnr" v="563666" />
	</node>
	<node id="-697840" lat="68.4181638889" lon="16.6291055516">
		<tag k="name" v="Kjelde" />
		<tag k="place" v="farm" />
		<tag k="ssr:stedsnr" v="121146" />
	</node>
	<node id="-698351" lat="68.3350222179" lon="16.3470833347">
		<tag k="name" v="Kobbvika" />
		<tag k="place" v="hamlet" />
		<tag k="ssr:stedsnr" v="563657" />
	</node>
	<node id="-697838" lat="68.3325916656" lon="16.8094361086">
		<tag k="name" v="Kiselva" />
		<tag k="place" v="quarter" />
		<tag k="ssr:stedsnr" v="116605" />
	</node>
	<node id="-698861" lat="68.398383332" lon="16.5943805593">
		<tag k="name" v="Furuholt" />
		<tag k="place" v="farm" />
		<tag k="ssr:stedsnr" v="866726" />
	</node>
	<node id="-698347" lat="68.3222027734" lon="16.6555861174">
		<tag k="name" v="Brattbakken" />
		<tag k="place" v="farm" />
		<tag k="ssr:stedsnr" v="563623" />
	</node>
	<node id="-698346" lat="68.3195805579" lon="16.6754611109">
		<tag k="name" v="Langbakken" />
		<tag k="place" v="farm" />
		<tag k="ssr:stedsnr" v="563622" />
	</node>
	<node id="-698535" lat="68.4188083336" lon="16.7432527879">
		<tag k="name" v="Aspemoen" />
		<tag k="place" v="farm" />
		<tag k="ssr:stedsnr" v="684470" />
	</node>
	<node id="-698344" lat="68.2999888883" lon="16.6706249883">
		<tag k="name" v="Ramstad" />
		<tag k="place" v="isolated_dwelling" />
		<tag k="ssr:stedsnr" v="563592" />
	</node>
	<node id="-698364" lat="68.2494527788" lon="16.8741944477">
		<tag k="name" v="Kvannmoen" />
		<tag k="place" v="isolated_dwelling" />
		<tag k="ssr:stedsnr" v="563779" />
	</node>
	<node id="-697829" lat="68.2307472209" lon="16.6480999883">
		<tag k="name" v="Sommarset" />
		<tag k="place" v="locality" />
		<tag k="ssr:stedsnr" v="100597" />
	</node>
	<node id="-698340" lat="68.4191972242" lon="16.6304861003">
		<tag k="fixme" v="consider place=hamlet" />
		<tag k="name" v="Kjelde - Gáldu" />
		<tag k="name:no" v="Kjelde" />
		<tag k="name:se" v="Gáldu" />
		<tag k="place" v="village" />
		<tag k="ssr:stedsnr" v="563460" />
	</node>
	<node id="-698850" lat="68.4142277825" lon="16.7581277689">
		<tag k="name" v="Pundsvika" />
		<tag k="place" v="farm" />
		<tag k="ssr:stedsnr" v="849794" />
	</node>
	<node id="-698849" lat="68.3827472194" lon="16.6065444385">
		<tag k="name" v="Kjelde" />
		<tag k="place" v="farm" />
		<tag k="ssr:stedsnr" v="849173" />
	</node>
	<node id="-698848" lat="68.4055638911" lon="16.6560138822">
		<tag k="name" v="Kjeldebotn" />
		<tag k="place" v="farm" />
		<tag k="ssr:stedsnr" v="849219" />
	</node>
	<node id="-698847" lat="68.3336444429" lon="16.8141305511">
		<tag k="name" v="Stormyra" />
		<tag k="place" v="quarter" />
		<tag k="ssr:stedsnr" v="845643" />
	</node>
	<node id="-698846" lat="68.3951611145" lon="16.8480166783">
		<tag k="name" v="Karvevika" />
		<tag k="place" v="quarter" />
		<tag k="ssr:stedsnr" v="845641" />
	</node>
	<node id="-698845" lat="68.3443749967" lon="16.8280305567">
		<tag k="name" v="Sentrum Nord" />
		<tag k="place" v="quarter" />
		<tag k="ssr:stedsnr" v="845639" />
	</node>
	<node id="-698844" lat="68.3114222246" lon="17.0652444333">
		<tag k="name" v="Elvestad" />
		<tag k="place" v="farm" />
		<tag k="ssr:stedsnr" v="828914" />
	</node>
	<node id="-698842" lat="68.3555444481" lon="16.5822666754">
		<tag k="name" v="Slåttli" />
		<tag k="place" v="farm" />
		<tag k="ssr:stedsnr" v="828699" />
	</node>
	<node id="-697935" lat="68.4115277767" lon="16.7785777659">
		<tag k="name" v="Djupvikåsen" />
		<tag k="place" v="neighbourhood" />
		<tag k="ssr:stedsnr" v="177604" />
	</node>
	<node id="-697816" lat="68.3089083302" lon="17.0637055493">
		<tag k="name" v="Gammelgården" />
		<tag k="place" v="farm" />
		<tag k="ssr:stedsnr" v="99945" />
	</node>
	<node id="-698020" lat="68.4013972257" lon="16.634477779">
		<tag k="name" v="Kjelde" />
		<tag k="place" v="farm" />
		<tag k="ssr:stedsnr" v="242131" />
	</node>
	<node id="-698325" lat="68.2688444409" lon="16.7316333314">
		<tag k="name" v="Grunnstad" />
		<tag k="place" v="isolated_dwelling" />
		<tag k="ssr:stedsnr" v="562565" />
	</node>
	<node id="-698320" lat="68.4141861092" lon="16.7586833263">
		<tag k="name" v="Pundsvika" />
		<tag k="place" v="hamlet" />
		<tag k="ssr:stedsnr" v="545723" />
	</node>
	<node id="-698319" lat="68.4040333373" lon="16.6663750093">
		<tag k="name" v="Kjeldebotn" />
		<tag k="place" v="farm" />
		<tag k="ssr:stedsnr" v="545186" />
	</node>
	<node id="-698318" lat="68.3501972239" lon="16.2902222292">
		<tag k="name" v="Straumen" />
		<tag k="place" v="neighbourhood" />
		<tag k="ssr:stedsnr" v="541628" />
	</node>
	<node id="-698317" lat="68.3150444473" lon="16.4317055497">
		<tag k="name" v="Håkonsethavn" />
		<tag k="place" v="quarter" />
		<tag k="ssr:stedsnr" v="541625" />
	</node>
	<node id="-698316" lat="68.411658332" lon="16.7829722248">
		<tag k="name" v="Djupvikneset" />
		<tag k="place" v="neighbourhood" />
		<tag k="ssr:stedsnr" v="541593" />
	</node>
	<node id="-698314" lat="68.3166222193" lon="16.6483888982">
		<tag k="name" v="Åsen Gård" />
		<tag k="place" v="farm" />
		<tag k="ssr:stedsnr" v="524710" />
	</node>
	<node id="-698132" lat="68.3412583334" lon="16.7831500073">
		<tag k="name" v="Utheim" />
		<tag k="place" v="farm" />
		<tag k="ssr:stedsnr" v="442700" />
	</node>
	<node id="-697798" lat="68.4141222242" lon="16.6924027794">
		<tag k="name" v="Busthaugen" />
		<tag k="place" v="farm" />
		<tag k="ssr:stedsnr" v="85165" />
	</node>
	<node id="-698816" lat="68.4079805558" lon="16.6089916742">
		<tag k="name" v="Bjørnkammeret" />
		<tag k="place" v="isolated_dwelling" />
		<tag k="ssr:stedsnr" v="813404" />
	</node>
	<node id="-697791" lat="68.2372138887" lon="16.6032694377">
		<tag k="name" v="Kobbeneset" />
		<tag k="place" v="farm" />
		<tag k="ssr:stedsnr" v="82962" />
	</node>
	<node id="-698814" lat="68.3885111114" lon="16.6281722272">
		<tag k="name" v="Jakobheimen" />
		<tag k="place" v="locality" />
		<tag k="ssr:stedsnr" v="813181" />
	</node>
	<node id="-698813" lat="68.4065638914" lon="16.6576666611">
		<tag k="amenity" v="school" />
		<tag k="name" v="Kjeldebotn skole" />
		<tag k="ssr:stedsnr" v="813165" />
	</node>
	<node id="-698297" lat="68.4200250036" lon="16.7274444413">
		<tag k="name" v="Lenset" />
		<tag k="place" v="farm" />
		<tag k="ssr:stedsnr" v="512326" />
	</node>
	<node id="-698806" lat="68.3255000034" lon="16.3531500114">
		<tag k="name" v="Pålsneset" />
		<tag k="place" v="farm" />
		<tag k="ssr:stedsnr" v="810560" />
	</node>
	<node id="-697417" lat="68.3509305534" lon="16.9441472238">
		<tag k="fixme" v="consider place=hamlet" />
		<tag k="name" v="Arnes" />
		<tag k="place" v="village" />
		<tag k="ssr:stedsnr" v="321868" />
	</node>
	<node id="-698804" lat="68.3366916671" lon="16.2814888831">
		<tag k="name" v="Strandneset" />
		<tag k="place" v="farm" />
		<tag k="ssr:stedsnr" v="810539" />
	</node>
	<node id="-697779" lat="68.3887277787" lon="16.8569138889">
		<tag k="name" v="Nordgård" />
		<tag k="place" v="farm" />
		<tag k="ssr:stedsnr" v="79929" />
	</node>
	<node id="-698124" lat="68.304986111" lon="16.7824138957">
		<tag k="name" v="Hestnes" />
		<tag k="place" v="farm" />
		<tag k="ssr:stedsnr" v="442632" />
	</node>
	<node id="-698287" lat="68.3153916673" lon="16.7312888934">
		<tag k="name" v="Bruksåsmoen" />
		<tag k="place" v="farm" />
		<tag k="ssr:stedsnr" v="510411" />
	</node>
	<node id="-698798" lat="68.3626555596" lon="16.8857083424">
		<tag k="name" v="Sandbakk" />
		<tag k="place" v="farm" />
		<tag k="ssr:stedsnr" v="806939" />
	</node>
	<node id="-698797" lat="68.3588222246" lon="16.8409805565">
		<tag k="name" v="Vinterhesjan" />
		<tag k="place" v="farm" />
		<tag k="ssr:stedsnr" v="806928" />
	</node>
	<node id="-697842" lat="68.4152555591" lon="16.7576222175">
		<tag k="name" v="Pundsvika" />
		<tag k="place" v="farm" />
		<tag k="ssr:stedsnr" v="121763" />
	</node>
	<node id="-697769" lat="68.35359017" lon="16.8649157927">
		<tag k="fixme" v="multiple name tags, choose one and add the other to alt_name" />
		<tag k="name" v="Hamn;Hamnvik" />
		<tag k="place" v="farm" />
		<tag k="ssr:stedsnr" v="78906" />
	</node>
	<node id="-698790" lat="68.3847888913" lon="16.7108083279">
		<tag k="name" v="Storhaugen" />
		<tag k="place" v="farm" />
		<tag k="ssr:stedsnr" v="806757" />
	</node>
	<node id="-698789" lat="68.3828972228" lon="16.3950833377">
		<tag k="name" v="Krokneset" />
		<tag k="place" v="farm" />
		<tag k="ssr:stedsnr" v="806750" />
	</node>
	<node id="-698783" lat="68.3452305593" lon="16.5790249984">
		<tag k="name" v="Kvitfors" />
		<tag k="place" v="farm" />
		<tag k="ssr:stedsnr" v="806689" />
	</node>
	<node id="-698781" lat="68.3314472256" lon="16.3505694542">
		<tag k="name" v="Kjørsneset" />
		<tag k="place" v="farm" />
		<tag k="ssr:stedsnr" v="806655" />
	</node>
	<node id="-697755" lat="68.3367083349" lon="16.7592749913">
		<tag k="name" v="Solheim" />
		<tag k="place" v="farm" />
		<tag k="ssr:stedsnr" v="78671" />
	</node>
	<node id="-698777" lat="68.3173666698" lon="16.7698916554">
		<tag k="name" v="Brattåsen" />
		<tag k="place" v="farm" />
		<tag k="ssr:stedsnr" v="806639" />
	</node>
	<node id="-698264" lat="68.3948055553" lon="16.8470138904">
		<tag k="alt_name" v="Karvevika" />
		<tag k="name" v="Karvevik" />
		<tag k="place" v="farm" />
		<tag k="ssr:stedsnr" v="503998" />
	</node>
	<node id="-697751" lat="68.3063166654" lon="16.450166677">
		<tag k="name" v="Ytter-Sandvika" />
		<tag k="place" v="isolated_dwelling" />
		<tag k="ssr:stedsnr" v="78618" />
	</node>
	<node id="-698262" lat="68.3668611082" lon="17.0423611012">
		<tag k="fixme" v="consider place=hamlet" />
		<tag k="name" v="Rånbogen" />
		<tag k="place" v="village" />
		<tag k="ssr:stedsnr" v="503879" />
	</node>
	<node id="-697753" lat="68.3238750022" lon="16.604230544">
		<tag k="name" v="Grindhaugen" />
		<tag k="place" v="farm" />
		<tag k="ssr:stedsnr" v="78644" />
	</node>
	<node id="-697747" lat="68.2960027783" lon="17.025722224">
		<tag k="alt_name" v="Gamnesholmen" />
		<tag k="name" v="Nesan" />
		<tag k="place" v="farm" />
		<tag k="ssr:stedsnr" v="78452" />
	</node>
	<node id="-697744" lat="68.4063749966" lon="16.6560722296">
		<tag k="fixme" v="consider place=hamlet" />
		<tag k="name" v="Kjeldebotn - Gáldovuotna" />
		<tag k="name:no" v="Kjeldebotn" />
		<tag k="name:se" v="Gáldovuotna" />
		<tag k="place" v="village" />
		<tag k="ssr:stedsnr" v="77749" />
	</node>
	<node id="-697743" lat="68.1831194406" lon="16.736622217">
		<tag k="name" v="Langstranda" />
		<tag k="place" v="locality" />
		<tag k="ssr:stedsnr" v="77625" />
	</node>
	<node id="-698098" lat="68.3577638867" lon="16.2755611106">
		<tag k="name" v="Finkonhalden" />
		<tag k="place" v="neighbourhood" />
		<tag k="ssr:stedsnr" v="420642" />
	</node>
	<node id="-698765" lat="68.4024666698" lon="16.60348612">
		<tag k="name" v="Harvollen" />
		<tag k="place" v="farm" />
		<tag k="ssr:stedsnr" v="805732" />
	</node>
	<node id="-698764" lat="68.4020166682" lon="16.5350277893">
		<tag k="name" v="Sæterteigen" />
		<tag k="place" v="farm" />
		<tag k="ssr:stedsnr" v="805730" />
	</node>
	<node id="-698251" lat="68.3644416678" lon="16.5818722169">
		<tag k="name" v="Henrikhaugen" />
		<tag k="place" v="farm" />
		<tag k="ssr:stedsnr" v="502732" />
	</node>
	<node id="-698249" lat="68.3428861118" lon="16.8314333238">
		<tag k="name" v="Ballangen - Bálák" />
		<tag k="name:no" v="Ballangen" />
		<tag k="name:se" v="Bálák" />
		<tag k="place" v="village" />
		<tag k="ssr:stedsnr" v="502692" />
	</node>
	<node id="-698760" lat="68.2462222188" lon="16.7156722254">
		<tag k="name" v="Furuhaug" />
		<tag k="place" v="farm" />
		<tag k="ssr:stedsnr" v="805561" />
	</node>
	<node id="-697735" lat="68.2317777753" lon="16.7381111181">
		<tag k="name" v="Rognstad" />
		<tag k="place" v="isolated_dwelling" />
		<tag k="ssr:stedsnr" v="77519" />
	</node>
	<node id="-698244" lat="68.3382249963" lon="16.7680305459">
		<tag k="name" v="Kvannmoen" />
		<tag k="place" v="farm" />
		<tag k="ssr:stedsnr" v="502684" />
	</node>
	<node id="-698754" lat="68.3373388923" lon="16.3441944384">
		<tag k="name" v="Kobbvik" />
		<tag k="place" v="neighbourhood" />
		<tag k="ssr:stedsnr" v="784631" />
	</node>
	<node id="-698753" lat="68.4189361078" lon="16.6094222284">
		<tag k="name" v="Storskarhaugen" />
		<tag k="place" v="neighbourhood" />
		<tag k="ssr:stedsnr" v="784627" />
	</node>
	<node id="-698752" lat="68.4014305599" lon="16.7864777778">
		<tag k="name" v="Djupvik" />
		<tag k="place" v="neighbourhood" />
		<tag k="ssr:stedsnr" v="784593" />
	</node>
	<node id="-698239" lat="68.3245888934" lon="16.7488305492">
		<tag k="alt_name" v="Reinvadhøgda" />
		<tag k="name" v="Reinveghøgda" />
		<tag k="place" v="farm" />
		<tag k="ssr:stedsnr" v="502660" />
	</node>
	<node id="-697726" lat="68.2945416629" lon="16.4288694531">
		<tag k="name" v="Leirpollen" />
		<tag k="place" v="neighbourhood" />
		<tag k="ssr:stedsnr" v="56620" />
	</node>
	<node id="-698746" lat="68.416613889" lon="16.7036055602">
		<tag k="name" v="Skårnes" />
		<tag k="place" v="farm" />
		<tag k="ssr:stedsnr" v="767512" />
	</node>
	<node id="-698431" lat="68.3430111081" lon="16.3111138909">
		<tag k="name" v="Lomtjern" />
		<tag k="place" v="neighbourhood" />
		<tag k="ssr:stedsnr" v="601594" />
	</node>
	<node id="-698232" lat="68.310977774" lon="16.7169583387">
		<tag k="name" v="Elvenes" />
		<tag k="place" v="farm" />
		<tag k="ssr:stedsnr" v="502624" />
	</node>
	<node id="-698231" lat="68.3135166674" lon="16.7127666705">
		<tag k="name" v="Skogvoll" />
		<tag k="place" v="farm" />
		<tag k="ssr:stedsnr" v="502625" />
	</node>
	<node id="-698259" lat="68.3078333332" lon="17.0831083407">
		<tag k="name" v="Daleng" />
		<tag k="place" v="isolated_dwelling" />
		<tag k="ssr:stedsnr" v="503817" />
	</node>
	<node id="-698735" lat="68.3358000027" lon="16.5446194423">
		<tag k="name" v="Rundhaug Vestre" />
		<tag k="place" v="farm" />
		<tag k="ssr:stedsnr" v="767352" />
	</node>
	<node id="-698734" lat="68.4005333324" lon="16.799097227">
		<tag k="name" v="Silsandmoen" />
		<tag k="place" v="farm" />
		<tag k="ssr:stedsnr" v="755318" />
	</node>
	<node id="-698220" lat="68.2834694466" lon="16.6852388792">
		<tag k="name" v="Kjølstad" />
		<tag k="place" v="farm" />
		<tag k="ssr:stedsnr" v="502568" />
	</node>
	<node id="-697841" lat="68.4180444428" lon="16.6348500019">
		<tag k="name" v="Kjelde" />
		<tag k="place" v="farm" />
		<tag k="ssr:stedsnr" v="121178" />
	</node>
	<node id="-697916" lat="68.2587111087" lon="16.6246361098">
		<tag k="name" v="Lappnes" />
		<tag k="place" v="isolated_dwelling" />
		<tag k="ssr:stedsnr" v="158536" />
	</node>
	<node id="-697534" lat="68.3197138851" lon="17.058308331">
		<tag k="alt_name" v="Nordmoen, nedre" />
		<tag k="name" v="Nedre Nordmoen" />
		<tag k="place" v="farm" />
		<tag k="ssr:stedsnr" v="382833" />
	</node>
	<node id="-698721" lat="68.3493055532" lon="16.9341138859">
		<tag k="name" v="Skjellneset" />
		<tag k="place" v="farm" />
		<tag k="ssr:stedsnr" v="753317" />
	</node>
	<node id="-698720" lat="68.3443611081" lon="16.9049527854">
		<tag k="name" v="Krokdalen" />
		<tag k="place" v="farm" />
		<tag k="ssr:stedsnr" v="753315" />
	</node>
	<node id="-698207" lat="68.2760111082" lon="16.6280194452">
		<tag k="name" v="Øvre Forså" />
		<tag k="place" v="farm" />
		<tag k="ssr:stedsnr" v="485698" />
	</node>
	<node id="-698206" lat="68.2758388854" lon="16.6254416726">
		<tag k="name" v="Forsa - Fuorsu" />
		<tag k="name:no" v="Forsa" />
		<tag k="name:se" v="Fuorsu" />
		<tag k="place" v="hamlet" />
		<tag k="ssr:stedsnr" v="485696" />
	</node>
	<node id="-698205" lat="68.4181638892" lon="16.6291555479">
		<tag k="name" v="Kjelde" />
		<tag k="place" v="farm" />
		<tag k="ssr:stedsnr" v="485145" />
	</node>
	<node id="-697692" lat="68.362086111" lon="16.8704222236">
		<tag k="name" v="Einhaugen" />
		<tag k="place" v="farm" />
		<tag k="ssr:stedsnr" v="25280" />
	</node>
	<node id="-697914" lat="68.3834055519" lon="16.8965444503">
		<tag k="name" v="Ytterbø" />
		<tag k="place" v="farm" />
		<tag k="ssr:stedsnr" v="148073" />
	</node>
	<node id="-698201" lat="68.3825249982" lon="17.0586638854">
		<tag k="name" v="Sildvikneset" />
		<tag k="place" v="neighbourhood" />
		<tag k="ssr:stedsnr" v="480604" />
	</node>
	<node id="-697401" lat="68.319305559" lon="16.7384722226">
		<tag k="name" v="Bakkan" />
		<tag k="place" v="farm" />
		<tag k="ssr:stedsnr" v="320620" />
	</node>
	<node id="-698195" lat="68.3681638883" lon="16.6033722242">
		<tag k="name" v="Karihaugen" />
		<tag k="place" v="farm" />
		<tag k="ssr:stedsnr" v="464351" />
	</node>
	<node id="-698795" lat="68.3733194449" lon="16.8924777734">
		<tag k="name" v="Sletta" />
		<tag k="place" v="farm" />
		<tag k="ssr:stedsnr" v="806916" />
	</node>
	<node id="-697654" lat="68.3466138918" lon="16.5673361081">
		<tag k="name" v="Haugen" />
		<tag k="place" v="farm" />
		<tag k="ssr:stedsnr" v="17710" />
	</node>
	<node id="-697666" lat="68.3668777786" lon="16.885191675">
		<tag k="name" v="Jonsvollen" />
		<tag k="place" v="farm" />
		<tag k="ssr:stedsnr" v="17920" />
	</node>
	<node id="-698689" lat="68.3344305517" lon="16.8365972231">
		<tag k="alt_name" v="Ballangen, store" />
		<tag k="name" v="Storballangen" />
		<tag k="place" v="farm" />
		<tag k="ssr:stedsnr" v="746817" />
	</node>
	<node id="-698686" lat="68.3651194483" lon="17.0438361205">
		<tag k="name" v="Ranset" />
		<tag k="place" v="farm" />
		<tag k="ssr:stedsnr" v="745929" />
	</node>
	<node id="-698682" lat="68.2976111101" lon="17.1337638973">
		<tag k="name" v="Sætran" />
		<tag k="place" v="locality" />
		<tag k="ssr:stedsnr" v="745839" />
	</node>
	<node id="-698678" lat="68.4031555589" lon="16.7683500032">
		<tag k="alt_name" v="Djupvik" />
		<tag k="fixme" v="consider place=hamlet" />
		<tag k="name" v="Djupvika" />
		<tag k="place" v="farm" />
		<tag k="ssr:stedsnr" v="745789" />
	</node>
	<node id="-698677" lat="68.4101638906" lon="16.6867000034">
		<tag k="fixme" v="consider place=hamlet" />
		<tag k="name" v="Skårnes" />
		<tag k="place" v="village" />
		<tag k="ssr:stedsnr" v="745786" />
	</node>
	<node id="-698674" lat="68.3843861123" lon="16.3797500107">
		<tag k="name" v="Løneset" />
		<tag k="place" v="farm" />
		<tag k="ssr:stedsnr" v="745773" />
	</node>
	<node id="-698673" lat="68.3914888865" lon="16.583480549">
		<tag k="alt_name" v="Forshaug" />
		<tag k="name" v="Fosshaugen" />
		<tag k="place" v="farm" />
		<tag k="ssr:stedsnr" v="745759" />
	</node>
	<node id="-698669" lat="68.3771694462" lon="16.5726666551">
		<tag k="name" v="Fagerli" />
		<tag k="place" v="farm" />
		<tag k="ssr:stedsnr" v="745742" />
	</node>
	<node id="-697839" lat="68.408894992" lon="16.6149113882">
		<tag k="fixme" v="consider place=hamlet" />
		<tag k="name" v="Kjelde - Gáldu" />
		<tag k="name:no" v="Kjelde" />
		<tag k="name:se" v="Gáldu" />
		<tag k="place" v="farm" />
		<tag k="ssr:stedsnr" v="121133" />
	</node>
	<node id="-698154" lat="68.3767027816" lon="17.0438805547">
		<tag k="name" v="Saltvika" />
		<tag k="place" v="farm" />
		<tag k="ssr:stedsnr" v="443965" />
	</node>
	<node id="-698152" lat="68.3129388883" lon="17.0659138971">
		<tag k="name" v="Eiterelvmoen" />
		<tag k="place" v="farm" />
		<tag k="ssr:stedsnr" v="443826" />
	</node>
	<node id="-697820" lat="68.354211115" lon="16.1538777803">
		<tag k="name" v="Barøygården" />
		<tag k="place" v="farm" />
		<tag k="ssr:stedsnr" v="100252" />
	</node>
	<node id="-698150" lat="68.3585138865" lon="16.8781194457">
		<tag k="name" v="Skjønnvika" />
		<tag k="place" v="farm" />
		<tag k="ssr:stedsnr" v="442943" />
	</node>
	<node id="-698660" lat="68.3445944463" lon="16.772033328">
		<tag k="name" v="Brattland" />
		<tag k="place" v="farm" />
		<tag k="ssr:stedsnr" v="745703" />
	</node>
	<node id="-698659" lat="68.3390500039" lon="16.7451916713">
		<tag k="name" v="Granlia" />
		<tag k="place" v="farm" />
		<tag k="ssr:stedsnr" v="745690" />
	</node>
	<node id="-697773" lat="68.360474999" lon="16.8464610978">
		<tag k="name" v="Molund" />
		<tag k="place" v="farm" />
		<tag k="ssr:stedsnr" v="78937" />
	</node>
	<node id="-698655" lat="68.3321527779" lon="16.7827194547">
		<tag k="name" v="Storkroken" />
		<tag k="place" v="farm" />
		<tag k="ssr:stedsnr" v="745679" />
	</node>
	<node id="-698141" lat="68.383669443" lon="16.5774999916">
		<tag k="name" v="Grønli" />
		<tag k="place" v="farm" />
		<tag k="ssr:stedsnr" v="442765" />
	</node>
	<node id="-698652" lat="68.3178527818" lon="16.6286027685">
		<tag k="alt_name" v="Djupdalåsen" />
		<tag k="fixme" v="consider place=hamlet" />
		<tag k="name" v="Djupdalsåsen" />
		<tag k="place" v="village" />
		<tag k="ssr:stedsnr" v="745626" />
	</node>
	<node id="-698139" lat="68.3622638911" lon="16.5593972277">
		<tag k="name" v="Klippenborg" />
		<tag k="place" v="farm" />
		<tag k="ssr:stedsnr" v="442750" />
	</node>
	<node id="-698650" lat="68.2958527801" lon="16.6922472178">
		<tag k="name" v="Neset" />
		<tag k="place" v="farm" />
		<tag k="ssr:stedsnr" v="745601" />
	</node>
	<node id="-697361" lat="68.351983338" lon="16.8685416597">
		<tag k="name" v="Ytre Ballangen" />
		<tag k="place" v="farm" />
		<tag k="ssr:stedsnr" v="279667" />
	</node>
	<node id="-698648" lat="68.2926861099" lon="16.4723666603">
		<tag k="name" v="Hallvardøya" />
		<tag k="place" v="farm" />
		<tag k="ssr:stedsnr" v="745594" />
	</node>
	<node id="-698647" lat="68.2959083302" lon="16.8041583431">
		<tag k="name" v="Vika" />
		<tag k="place" v="isolated_dwelling" />
		<tag k="ssr:stedsnr" v="745590" />
	</node>
	<node id="-698134" lat="68.3513000009" lon="16.8158805507">
		<tag k="name" v="Haugen" />
		<tag k="place" v="farm" />
		<tag k="ssr:stedsnr" v="442721" />
	</node>
	<node id="-698644" lat="68.2661972241" lon="16.6372916634">
		<tag k="name" v="Sommarset" />
		<tag k="place" v="farm" />
		<tag k="ssr:stedsnr" v="745544" />
	</node>
	<node id="-697475" lat="68.3050000004" lon="16.6351083324">
		<tag k="name" v="Nordmo" />
		<tag k="place" v="farm" />
		<tag k="ssr:stedsnr" v="342665" />
	</node>
	<node id="-698128" lat="68.3364194478" lon="16.5466277799">
		<tag k="alt_name" v="Rundhaug" />
		<tag k="name" v="Rundhaugen" />
		<tag k="place" v="farm" />
		<tag k="ssr:stedsnr" v="442662" />
	</node>
	<node id="-698125" lat="68.3192888867" lon="16.6643027666">
		<tag k="name" v="Ertsås" />
		<tag k="place" v="farm" />
		<tag k="ssr:stedsnr" v="442634" />
	</node>
	<node id="-698636" lat="68.2790805535" lon="16.7218833295">
		<tag k="name" v="Skjåfjellet" />
		<tag k="place" v="farm" />
		<tag k="ssr:stedsnr" v="744537" />
	</node>
	<node id="-697730" lat="68.3739111088" lon="16.6167666558">
		<tag k="name" v="Kjeldebotn" />
		<tag k="place" v="farm" />
		<tag k="ssr:stedsnr" v="60199" />
	</node>
	<node id="-698634" lat="68.4153607665" lon="16.7582086201">
		<tag k="fixme" v="consider place=hamlet" />
		<tag k="name" v="Pundsvika" />
		<tag k="place" v="farm" />
		<tag k="ssr:stedsnr" v="744440" />
	</node>
	<node id="-698633" lat="68.4166916623" lon="16.6134805535">
		<tag k="fixme" v="multiple name tags, choose one and add the other to alt_name" />
		<tag k="name" v="Austvika;Løkke" />
		<tag k="place" v="farm" />
		<tag k="ssr:stedsnr" v="745466" />
	</node>
	<node id="-698631" lat="68.2723861118" lon="16.6342277709">
		<tag k="name" v="Forsaelva" />
		<tag k="place" v="farm" />
		<tag k="ssr:stedsnr" v="728117" />
	</node>
	<node id="-698629" lat="68.3801611085" lon="16.3414249899">
		<tag k="name" v="Lyngvika" />
		<tag k="place" v="neighbourhood" />
		<tag k="ssr:stedsnr" v="723595" />
	</node>
	<node id="-697602" lat="68.397464223" lon="16.8167838077">
		<tag k="fixme" v="consider place=hamlet" />
		<tag k="loc_name" v="Hekkelstranda" />
		<tag k="name" v="Hekkelstrand" />
		<tag k="place" v="farm" />
		<tag k="ssr:stedsnr" v="989486" />
	</node>
	<node id="-697601" lat="68.3537633961" lon="16.8197224731">
		<tag k="name" v="Langsett" />
		<tag k="place" v="farm" />
		<tag k="ssr:stedsnr" v="989483" />
	</node>
	<node id="-697600" lat="68.3501531366" lon="16.8002539809">
		<tag k="name" v="Solvoll" />
		<tag k="place" v="farm" />
		<tag k="ssr:stedsnr" v="989480" />
	</node>
	<node id="-697728" lat="68.3919333346" lon="16.5876472309">
		<tag k="name" v="Kjelde" />
		<tag k="place" v="farm" />
		<tag k="ssr:stedsnr" v="60184" />
	</node>
	<node id="-697598" lat="68.1537666712" lon="16.8198222147">
		<tag k="loc_name" v="Efjordbotnen" />
		<tag k="name" v="Skogstue" />
		<tag k="place" v="isolated_dwelling" />
		<tag k="ssr:stedsnr" v="892392" />
	</node>
	<node id="-697596" lat="68.296388886" lon="16.6350000016">
		<tag k="name" v="Ivarhaug" />
		<tag k="place" v="farm" />
		<tag k="ssr:stedsnr" v="889706" />
	</node>
	<node id="-697386" lat="68.4215000029" lon="16.6365361001">
		<tag k="name" v="Kjelde" />
		<tag k="place" v="farm" />
		<tag k="ssr:stedsnr" v="303187" />
	</node>
	<node id="-698904" lat="68.3703583329" lon="16.5782138852">
		<tag k="name" v="Myrslett" />
		<tag k="place" v="farm" />
		<tag k="ssr:stedsnr" v="874177" />
	</node>
	<node id="-697727" lat="68.2815055602" lon="16.5084166583">
		<tag k="name" v="Halvarøy i Efjord" />
		<tag k="place" v="neighbourhood" />
		<tag k="ssr:stedsnr" v="56621" />
	</node>
	<node id="-697385" lat="68.4156861084" lon="16.5872638862">
		<tag k="name" v="Porsøya" />
		<tag k="place" v="neighbourhood" />
		<tag k="ssr:stedsnr" v="298592" />
	</node>
	<node id="-698099" lat="68.3455111124" lon="16.3228916571">
		<tag k="name" v="Sæterosen" />
		<tag k="place" v="neighbourhood" />
		<tag k="ssr:stedsnr" v="420643" />
	</node>
	<node id="-698610" lat="68.3134527748" lon="16.7343416603">
		<tag k="name" v="Bruksjorda" />
		<tag k="place" v="farm" />
		<tag k="ssr:stedsnr" v="706493" />
	</node>
	<node id="-698097" lat="68.3219416675" lon="16.6797833359">
		<tag k="name" v="Pippira sijda" />
		<tag k="name:smj" v="Pippira sijda" />
		<tag k="place" v="hamlet" />
		<tag k="ssr:stedsnr" v="420620" />
	</node>
	<node id="-697837" lat="68.3545166672" lon="17.0117722313">
		<tag k="name" v="Råna" />
		<tag k="place" v="neighbourhood" />
		<tag k="ssr:stedsnr" v="116546" />
	</node>
	<node id="-697582" lat="68.2976333374" lon="16.6351638867">
		<tag k="name" v="Ivarjord nedre" />
		<tag k="place" v="farm" />
		<tag k="ssr:stedsnr" v="888703" />
	</node>
	<node id="-697581" lat="68.3342861096" lon="16.761186102">
		<tag k="name" v="Bjerke" />
		<tag k="old_name" v="Mørkhola" />
		<tag k="place" v="farm" />
		<tag k="ssr:stedsnr" v="477373" />
	</node>
	<node id="-698598" lat="68.3472277827" lon="16.7865138787">
		<tag k="name" v="Kråfjellet" />
		<tag k="place" v="farm" />
		<tag k="ssr:stedsnr" v="692419" />
	</node>
	<node id="-697571" lat="68.3927805551" lon="16.8533250093">
		<tag k="name" v="Heggåa" />
		<tag k="place" v="farm" />
		<tag k="ssr:stedsnr" v="403561" />
	</node>
	<node id="-697565" lat="68.1005797675" lon="17.2347677606">
		<tag k="fixme" v="consider tourism=alpine_hut or tourism=chalet" />
		<tag k="name" v="Sitashytta" />
		<tag k="old_name" v="Sitashyttene" />
		<tag k="ssr:stedsnr" v="390552" />
		<tag k="tourism" v="wilderness_hut" />
	</node>
	<node id="-698073" lat="68.3084833296" lon="17.0682999863">
		<tag k="name" v="Bakkeli" />
		<tag k="place" v="farm" />
		<tag k="ssr:stedsnr" v="261839" />
	</node>
	<node id="-697465" lat="68.4021583323" lon="16.545749988">
		<tag k="name" v="Skogmo" />
		<tag k="place" v="farm" />
		<tag k="ssr:stedsnr" v="342576" />
	</node>
	<node id="-698068" lat="68.3613138914" lon="16.8501527863">
		<tag k="name" v="Ålund" />
		<tag k="place" v="farm" />
		<tag k="ssr:stedsnr" v="260954" />
	</node>
	<node id="-698579" lat="68.3918861134" lon="16.8603111093">
		<tag k="alt_name" v="Aspelund" />
		<tag k="name" v="Asplund" />
		<tag k="place" v="farm" />
		<tag k="ssr:stedsnr" v="685999" />
	</node>
	<node id="-698403" lat="68.4150666677" lon="16.6277499967">
		<tag k="name" v="Magretjorda" />
		<tag k="place" v="farm" />
		<tag k="ssr:stedsnr" v="571480" />
	</node>
	<node id="-697720" lat="68.3089888868" lon="16.6399777677">
		<tag k="leisure" v="pitch" />
		<tag k="name" v="Sportsplassen" />
		<tag k="ssr:stedsnr" v="39654" />
	</node>
	<node id="-698062" lat="68.2643277746" lon="17.051619438">
		<tag k="name" v="Solli" />
		<tag k="place" v="farm" />
		<tag k="ssr:stedsnr" v="260830" />
	</node>
	<node id="-698057" lat="68.382736111" lon="16.3916610982">
		<tag k="name" v="Finnvika" />
		<tag k="place" v="farm" />
		<tag k="ssr:stedsnr" v="260767" />
	</node>
	<node id="-698568" lat="68.3360749992" lon="17.0172916662">
		<tag k="name" v="Lasseheimen" />
		<tag k="place" v="farm" />
		<tag k="ssr:stedsnr" v="685853" />
	</node>
	<node id="-698055" lat="68.3462411909" lon="16.807184641">
		<tag k="name" v="Vårtun" />
		<tag k="place" v="farm" />
		<tag k="ssr:stedsnr" v="260734" />
	</node>
	<node id="-697974" lat="68.3846499992" lon="16.8869722116">
		<tag k="name" v="Bømoen" />
		<tag k="place" v="farm" />
		<tag k="ssr:stedsnr" v="200936" />
	</node>
	<node id="-697538" lat="68.3978555529" lon="16.8199694387">
		<tag k="name" v="Hekkelstrand" />
		<tag k="place" v="farm" />
		<tag k="ssr:stedsnr" v="382992" />
	</node>
	<node id="-698049" lat="68.330263888" lon="16.3614222223">
		<tag k="name" v="Langvågen" />
		<tag k="place" v="farm" />
		<tag k="ssr:stedsnr" v="260668" />
	</node>
	<node id="-698047" lat="68.3137472239" lon="16.4489416701">
		<tag k="name" v="Reppvika" />
		<tag k="place" v="farm" />
		<tag k="ssr:stedsnr" v="260651" />
	</node>
	<node id="-698558" lat="68.4117000017" lon="16.5693611079">
		<tag k="name" v="Hamnes" />
		<tag k="place" v="farm" />
		<tag k="ssr:stedsnr" v="684731" />
	</node>
	<node id="-697533" lat="68.3616555556" lon="16.8532250017">
		<tag k="name" v="Vassbotn" />
		<tag k="place" v="farm" />
		<tag k="ssr:stedsnr" v="381946" />
	</node>
	<node id="-698143" lat="68.261469444" lon="17.0472722306">
		<tag k="name" v="Rånvassbotn - Ránuvuopmi" />
		<tag k="name:no" v="Rånvassbotn" />
		<tag k="name:se" v="Ránuvuopmi" />
		<tag k="old_name:se" v="Ranovuobmi" />
		<tag k="place" v="hamlet" />
		<tag k="ssr:stedsnr" v="442809" />
	</node>
	<node id="-697527" lat="68.3880527788" lon="16.6437888762">
		<tag k="alt_name" v="Lauvslett" />
		<tag k="name" v="Løvslett" />
		<tag k="place" v="farm" />
		<tag k="ssr:stedsnr" v="381759" />
	</node>
	<node id="-698549" lat="68.3262138864" lon="16.6973305644">
		<tag k="fixme" v="consider place=hamlet" />
		<tag k="name" v="Kalvåsen" />
		<tag k="place" v="farm" />
		<tag k="ssr:stedsnr" v="684628" />
	</node>
	<node id="-697522" lat="68.367550004" lon="16.2794888875">
		<tag k="name" v="Skarstad" />
		<tag k="place" v="hamlet" />
		<tag k="ssr:stedsnr" v="381743" />
	</node>
	<node id="-698545" lat="68.1581083377" lon="16.7375472173">
		<tag k="name" v="Tauselva" />
		<tag k="place" v="isolated_dwelling" />
		<tag k="ssr:stedsnr" v="684591" />
	</node>
	<node id="-698032" lat="68.2848277756" lon="16.6570166577">
		<tag k="name" v="Aspenes" />
		<tag k="place" v="isolated_dwelling" />
		<tag k="ssr:stedsnr" v="259557" />
	</node>
	<node id="-698543" lat="68.2964722198" lon="16.6974444401">
		<tag k="name" v="Brattli" />
		<tag k="place" v="farm" />
		<tag k="ssr:stedsnr" v="684586" />
	</node>
	<node id="-697517" lat="68.3452499991" lon="16.8162555638">
		<tag k="name" v="Utland" />
		<tag k="place" v="farm" />
		<tag k="ssr:stedsnr" v="381709" />
	</node>
	<node id="-697920" lat="68.3443583305" lon="16.1913611128">
		<tag k="name" v="Olaheimen" />
		<tag k="place" v="locality" />
		<tag k="ssr:stedsnr" v="160237" />
	</node>
	<node id="-698539" lat="68.2761111147" lon="16.6251222187">
		<tag k="fixme" v="consider place=hamlet" />
		<tag k="name" v="Forsa - Fuorsu" />
		<tag k="name:no" v="Forsa" />
		<tag k="name:se" v="Fuorsu" />
		<tag k="place" v="farm" />
		<tag k="ssr:stedsnr" v="684557" />
	</node>
	<node id="-697513" lat="68.3327333354" lon="16.7200666674">
		<tag k="name" v="Hesjelia" />
		<tag k="place" v="farm" />
		<tag k="ssr:stedsnr" v="381689" />
	</node>
	<node id="-697511" lat="68.3251027733" lon="16.229897224">
		<tag k="fixme" v="consider place=hamlet" />
		<tag k="name" v="Valle" />
		<tag k="place" v="village" />
		<tag k="ssr:stedsnr" v="381664" />
	</node>
	<node id="-698022" lat="68.4180240153" lon="16.634818296">
		<tag k="name" v="Kjelde" />
		<tag k="place" v="farm" />
		<tag k="ssr:stedsnr" v="242167" />
	</node>
	<node id="-698021" lat="68.3888944473" lon="16.5989472313">
		<tag k="name" v="Kjelde" />
		<tag k="place" v="farm" />
		<tag k="ssr:stedsnr" v="242141" />
	</node>
	<node id="-698532" lat="68.2929888903" lon="16.4712750094">
		<tag k="name" v="Halvarøy" />
		<tag k="place" v="neighbourhood" />
		<tag k="ssr:stedsnr" v="662628" />
	</node>
	<node id="-698019" lat="68.3770861139" lon="17.0382944436">
		<tag k="name" v="Saltviknes" />
		<tag k="place" v="neighbourhood" />
		<tag k="ssr:stedsnr" v="237598" />
	</node>
	<node id="-698530" lat="68.3075916657" lon="17.0635611127">
		<tag k="name" v="Elveseter Råndalen" />
		<tag k="place" v="neighbourhood" />
		<tag k="ssr:stedsnr" v="662613" />
	</node>
	<node id="-698529" lat="68.3485027774" lon="16.8940333261">
		<tag k="name" v="Fornes" />
		<tag k="place" v="quarter" />
		<tag k="ssr:stedsnr" v="662608" />
	</node>
	<node id="-698528" lat="68.3365833303" lon="16.832336111">
		<tag k="name" v="Ballangsleira" />
		<tag k="place" v="quarter" />
		<tag k="ssr:stedsnr" v="662609" />
	</node>
	<node id="-697503" lat="68.3024111116" lon="16.7097416729">
		<tag k="name" v="Djupåsen" />
		<tag k="place" v="farm" />
		<tag k="ssr:stedsnr" v="381608" />
	</node>
	<node id="-697502" lat="68.2991444432" lon="16.7070972088">
		<tag k="name" v="Sørli" />
		<tag k="place" v="farm" />
		<tag k="ssr:stedsnr" v="381606" />
	</node>
	<node id="-698525" lat="68.314105558" lon="17.0651222315">
		<tag k="name" v="Eiterdalmo" />
		<tag k="place" v="farm" />
		<tag k="ssr:stedsnr" v="645927" />
	</node>
	<node id="-697500" lat="68.2974638874" lon="16.6305694479">
		<tag k="alt_name" v="Ivarjord" />
		<tag k="name" v="Ivarjorda" />
		<tag k="place" v="isolated_dwelling" />
		<tag k="ssr:stedsnr" v="381588" />
	</node>
	<node id="-697626" lat="68.2867611076" lon="16.4758555628">
		<tag k="name" v="Sætran" />
		<tag k="place" v="neighbourhood" />
		<tag k="ssr:stedsnr" v="16555" />
	</node>
	<node id="-698520" lat="68.3014555554" lon="16.643363884">
		<tag k="name" v="Djupvatn" />
		<tag k="place" v="farm" />
		<tag k="ssr:stedsnr" v="645700" />
	</node>
	<node id="-697495" lat="68.2848111116" lon="16.5915360987">
		<tag k="name" v="Storvika" />
		<tag k="place" v="isolated_dwelling" />
		<tag k="ssr:stedsnr" v="380611" />
	</node>
	<node id="-697494" lat="68.2815416713" lon="16.6656333278">
		<tag k="fixme" v="multiple name tags, choose one and add the other to alt_name" />
		<tag k="name" v="Sørelv;Venes" />
		<tag k="place" v="isolated_dwelling" />
		<tag k="ssr:stedsnr" v="380608" />
	</node>
	<node id="-698004" lat="68.3337499983" lon="16.0658916772">
		<tag k="name" v="Barøyodden" />
		<tag k="place" v="isolated_dwelling" />
		<tag k="ssr:stedsnr" v="218108" />
	</node>
	<node id="-699025" lat="68.3672425889" lon="16.279809629">
		<tag k="fixme" v="consider place=hamlet" />
		<tag k="name" v="Skarstad" />
		<tag k="place" v="farm" />
		<tag k="ssr:stedsnr" v="974346" />
	</node>
	<node id="-698000" lat="68.3546555545" lon="16.9651138828">
		<tag k="fixme" v="consider place=hamlet" />
		<tag k="name" v="Hamn" />
		<tag k="place" v="village" />
		<tag k="ssr:stedsnr" v="207432" />
	</node>
	<node id="-699023" lat="68.3701143805" lon="16.8893545888">
		<tag k="fixme" v="consider place=hamlet" />
		<tag k="name" v="Balsnes" />
		<tag k="place" v="farm" />
		<tag k="ssr:stedsnr" v="972869" />
	</node>
	<node id="-699022" lat="68.3712159206" lon="16.8955686683">
		<tag k="name" v="Balsnes" />
		<tag k="place" v="farm" />
		<tag k="ssr:stedsnr" v="972868" />
	</node>
	<node id="-697485" lat="68.4145333377" lon="16.6508000005">
		<tag k="alt_name" v="Rognan" />
		<tag k="name" v="Rognmo" />
		<tag k="place" v="farm" />
		<tag k="ssr:stedsnr" v="380495" />
	</node>
	<node id="-699020" lat="68.3274888927" lon="16.7982777711">
		<tag k="name" v="Sjåhaugen" />
		<tag k="place" v="quarter" />
		<tag k="ssr:stedsnr" v="965606" />
	</node>
	<node id="-697483" lat="68.413316665" lon="16.7569833393">
		<tag k="name" v="Pundsvika" />
		<tag k="place" v="farm" />
		<tag k="ssr:stedsnr" v="363728" />
	</node>
	<node id="-697482" lat="68.2753527803" lon="16.6255027748">
		<tag k="name" v="Nedre Forsa" />
		<tag k="place" v="farm" />
		<tag k="ssr:stedsnr" v="363124" />
	</node>
	<node id="-697480" lat="68.3116722218" lon="16.4222527659">
		<tag k="name" v="Håkonset" />
		<tag k="place" v="quarter" />
		<tag k="ssr:stedsnr" v="359621" />
	</node>
	<node id="-697479" lat="68.4010388905" lon="16.6472611191">
		<tag k="name" v="Skavåsen" />
		<tag k="place" v="quarter" />
		<tag k="ssr:stedsnr" v="359616" />
	</node>
	<node id="-697478" lat="68.3456611069" lon="16.8335277757">
		<tag k="name" v="Husvannet" />
		<tag k="place" v="quarter" />
		<tag k="ssr:stedsnr" v="359612" />
	</node>
	<node id="-698646" lat="68.182816664" lon="16.6814138963">
		<tag k="name" v="Råna - Rávnno" />
		<tag k="name:no" v="Råna" />
		<tag k="name:smj" v="Rávnno" />
		<tag k="old_name:smj" v="Rátnu" />
		<tag k="place" v="isolated_dwelling" />
		<tag k="ssr:stedsnr" v="745591" />
	</node>
	<node id="-698140" lat="68.3879555547" lon="16.6282527704">
		<tag k="name" v="Brattli" />
		<tag k="place" v="farm" />
		<tag k="ssr:stedsnr" v="442762" />
	</node>
	<node id="-698559" lat="68.4112194453" lon="16.5806749951">
		<tag k="fixme" v="consider place=hamlet" />
		<tag k="name" v="Hamnesstranda" />
		<tag k="place" v="village" />
		<tag k="ssr:stedsnr" v="684733" />
	</node>
	<node id="-697975" lat="68.3433222192" lon="16.8856361014">
		<tag k="name" v="Nybø" />
		<tag k="place" v="farm" />
		<tag k="ssr:stedsnr" v="200881" />
	</node>
	<node id="-697509" lat="68.3168000023" lon="16.7133444452">
		<tag k="name" v="Tuva" />
		<tag k="place" v="farm" />
		<tag k="ssr:stedsnr" v="381652" />
	</node>
	<node id="-697972" lat="68.3108777776" lon="17.0755583376">
		<tag k="name" v="Elverum" />
		<tag k="place" v="farm" />
		<tag k="ssr:stedsnr" v="200831" />
	</node>
	<node id="-698023" lat="68.3675694463" lon="16.6404583369">
		<tag k="name" v="Kjeldebotn" />
		<tag k="place" v="farm" />
		<tag k="ssr:stedsnr" v="242177" />
	</node>
	<node id="-697458" lat="68.392669448" lon="16.8526333301">
		<tag k="name" v="Heggemoen" />
		<tag k="place" v="farm" />
		<tag k="ssr:stedsnr" v="339696" />
	</node>
	<node id="-697448" lat="68.3200722197" lon="16.7820416684">
		<tag k="name" v="Midtsynken" />
		<tag k="place" v="farm" />
		<tag k="ssr:stedsnr" v="328397" />
	</node>
	<node id="-698241" lat="68.3370805521" lon="16.5503027839">
		<tag k="name" v="Elvebakken" />
		<tag k="place" v="farm" />
		<tag k="ssr:stedsnr" v="502665" />
	</node>
	<node id="-698473" lat="68.386800003" lon="16.888905545">
		<tag k="fixme" v="consider place=hamlet" />
		<tag k="name" v="Bøstrand" />
		<tag k="place" v="village" />
		<tag k="ssr:stedsnr" v="624936" />
	</node>
	<node id="-698472" lat="68.386397225" lon="16.8720555646">
		<tag k="name" v="Myrlund" />
		<tag k="place" v="farm" />
		<tag k="ssr:stedsnr" v="624931" />
	</node>
	<node id="-698982" lat="68.2417333292" lon="16.5870305611">
		<tag k="name" v="Nymo" />
		<tag k="place" v="farm" />
		<tag k="ssr:stedsnr" v="932964" />
	</node>
	<node id="-697873" lat="68.3588000023" lon="16.8567611192">
		<tag k="alt_name" v="Sørslett" />
		<tag k="name" v="Sørsletta" />
		<tag k="place" v="farm" />
		<tag k="ssr:stedsnr" v="138938" />
	</node>
	<node id="-697955" lat="68.2908805551" lon="16.5523860999">
		<tag k="name" v="Vårset" />
		<tag k="place" v="farm" />
		<tag k="ssr:stedsnr" v="199598" />
	</node>
	<node id="-697954" lat="68.2614666685" lon="16.7077944475">
		<tag k="name" v="Nerdal" />
		<tag k="place" v="isolated_dwelling" />
		<tag k="ssr:stedsnr" v="199555" />
	</node>
	<node id="-698976" lat="68.3747083339" lon="16.8855638852">
		<tag k="name" v="Øversletta" />
		<tag k="place" v="farm" />
		<tag k="ssr:stedsnr" v="928963" />
	</node>
	<node id="-698463" lat="68.3121250037" lon="16.3717555611">
		<tag k="name" v="Forneset" />
		<tag k="place" v="isolated_dwelling" />
		<tag k="ssr:stedsnr" v="624466" />
	</node>
	<node id="-698974" lat="68.3918861134" lon="16.8603111093">
		<tag k="alt_name" v="Norheim" />
		<tag k="name" v="Nordheim" />
		<tag k="place" v="farm" />
		<tag k="ssr:stedsnr" v="928943" />
	</node>
	<node id="-698973" lat="68.3625499986" lon="16.8743833394">
		<tag k="name" v="Brenna" />
		<tag k="place" v="farm" />
		<tag k="ssr:stedsnr" v="928940" />
	</node>
	<node id="-698972" lat="68.3569055567" lon="17.0093583239">
		<tag k="name" v="Råna" />
		<tag k="place" v="farm" />
		<tag k="ssr:stedsnr" v="928930" />
	</node>
	<node id="-697947" lat="68.3305388889" lon="16.7899249981">
		<tag k="fixme" v="consider place=hamlet" />
		<tag k="name" v="Bjørkåsen" />
		<tag k="place" v="village" />
		<tag k="ssr:stedsnr" v="199666" />
	</node>
	<node id="-697832" lat="68.2852499965" lon="16.7156777782">
		<tag k="name" v="Sjåfjell" />
		<tag k="place" v="farm" />
		<tag k="ssr:stedsnr" v="100628" />
	</node>
	<node id="-698969" lat="68.3464611125" lon="16.8896611177">
		<tag k="alt_name" v="Fornes" />
		<tag k="name" v="Forrnes" />
		<tag k="place" v="farm" />
		<tag k="ssr:stedsnr" v="928889" />
	</node>
	<node id="-697508" lat="68.3114749984" lon="16.4492277665">
		<tag k="name" v="Skjåvika" />
		<tag k="place" v="isolated_dwelling" />
		<tag k="ssr:stedsnr" v="381645" />
	</node>
	<node id="-697942" lat="68.1760222193" lon="16.7020083349">
		<tag k="name" v="Stonga" />
		<tag k="place" v="isolated_dwelling" />
		<tag k="ssr:stedsnr" v="199617" />
	</node>
	<node id="-697429" lat="68.3611194482" lon="16.2727972298">
		<tag k="name" v="Hamn" />
		<tag k="place" v="farm" />
		<tag k="ssr:stedsnr" v="325534" />
	</node>
	<node id="-698016" lat="68.3169277817" lon="17.0626611036">
		<tag k="name" v="Øvre Stemnes" />
		<tag k="place" v="farm" />
		<tag k="ssr:stedsnr" v="221895" />
	</node>
	<node id="-697938" lat="68.2798388903" lon="16.639191673">
		<tag k="alt_name" v="Slottli" />
		<tag k="name" v="Slåttlia" />
		<tag k="place" v="isolated_dwelling" />
		<tag k="ssr:stedsnr" v="198569" />
	</node>
	<node id="-698449" lat="68.3385361116" lon="16.7736361023">
		<tag k="name" v="Slettås" />
		<tag k="place" v="farm" />
		<tag k="ssr:stedsnr" v="623680" />
	</node>
	<node id="-698447" lat="68.3380972225" lon="16.5590527805">
		<tag k="alt_name" v="Elveslett" />
		<tag k="name" v="Elvesletta" />
		<tag k="place" v="farm" />
		<tag k="ssr:stedsnr" v="623672" />
	</node>
	<node id="-697934" lat="68.4189083321" lon="16.7197166558">
		<tag k="name" v="Kjeldebotn" />
		<tag k="place" v="neighbourhood" />
		<tag k="ssr:stedsnr" v="177602" />
	</node>
	<node id="-697421" lat="68.3582472248" lon="16.867550009">
		<tag k="name" v="Fagerli" />
		<tag k="place" v="farm" />
		<tag k="ssr:stedsnr" v="321919" />
	</node>
	<node id="-697420" lat="68.3450166695" lon="16.8374499878">
		<tag k="name" v="Bakkehaug" />
		<tag k="place" v="farm" />
		<tag k="ssr:stedsnr" v="321880" />
	</node>
	<node id="-697419" lat="68.3548361103" lon="16.8657305493">
		<tag k="alt_name" v="Slåttstranda" />
		<tag k="name" v="Slåttstrand" />
		<tag k="place" v="hamlet" />
		<tag k="ssr:stedsnr" v="321872" />
	</node>
	<node id="-698953" lat="68.352300001" lon="16.8104916667">
		<tag k="name" v="Fjellheim" />
		<tag k="place" v="farm" />
		<tag k="ssr:stedsnr" v="927699" />
	</node>
	<node id="-697416" lat="68.315680551" lon="17.0625972302">
		<tag k="alt_name" v="Nordmoen, øvre" />
		<tag k="name" v="Øvre Nordmoen" />
		<tag k="place" v="farm" />
		<tag k="ssr:stedsnr" v="321828" />
	</node>
	<node id="-698439" lat="68.2980194429" lon="16.629736118">
		<tag k="alt_name" v="Fagermo" />
		<tag k="name" v="Fagermoen" />
		<tag k="place" v="farm" />
		<tag k="ssr:stedsnr" v="623623" />
	</node>
	<node id="-698209" lat="68.3550499969" lon="16.1564777655">
		<tag k="name" v="Barøya" />
		<tag k="place" v="farm" />
		<tag k="ssr:stedsnr" v="502331" />
	</node>
	<node id="-698333" lat="68.3726277771" lon="16.6075055529">
		<tag k="name" v="Karihaugen" />
		<tag k="place" v="farm" />
		<tag k="ssr:stedsnr" v="562695" />
	</node>
	<node id="-697411" lat="68.3735722254" lon="16.8376027897">
		<tag k="name" v="Bødalen" />
		<tag k="place" v="farm" />
		<tag k="ssr:stedsnr" v="320916" />
	</node>
	<node id="-698945" lat="68.3102472247" lon="16.7880999942">
		<tag k="name" v="Storvika" />
		<tag k="place" v="farm" />
		<tag k="ssr:stedsnr" v="927621" />
	</node>
	<node id="-698432" lat="68.3686194473" lon="16.609047222">
		<tag k="fixme" v="consider place=hamlet" />
		<tag k="name" v="Kjeldemarka - Gáldovuopmi" />
		<tag k="name:no" v="Kjeldemarka" />
		<tag k="name:se" v="Gáldovuopmi" />
		<tag k="place" v="farm" />
		<tag k="ssr:stedsnr" v="606184" />
	</node>
	<node id="-698943" lat="68.1890194441" lon="16.715305545">
		<tag k="name" v="Sommarbakk" />
		<tag k="place" v="locality" />
		<tag k="ssr:stedsnr" v="927602" />
	</node>
	<node id="-698430" lat="68.3367833363" lon="16.325127779">
		<tag k="name" v="Storkobbvik" />
		<tag k="place" v="neighbourhood" />
		<tag k="ssr:stedsnr" v="601593" />
	</node>
	<node id="-698428" lat="68.3343055568" lon="16.9455194537">
		<tag k="name" v="Arneslia-Bruavann" />
		<tag k="place" v="quarter" />
		<tag k="ssr:stedsnr" v="601560" />
	</node>
	<node id="-698427" lat="68.3672249972" lon="16.6461722152">
		<tag k="name" v="Håfjellet" />
		<tag k="place" v="neighbourhood" />
		<tag k="ssr:stedsnr" v="601556" />
	</node>
	<node id="-698426" lat="68.41892778" lon="16.7590749949">
		<tag k="name" v="Pundsvikneset" />
		<tag k="place" v="neighbourhood" />
		<tag k="ssr:stedsnr" v="601544" />
	</node>
	<node id="-698975" lat="68.3815611104" lon="16.8896360999">
		<tag k="name" v="Bø" />
		<tag k="place" v="farm" />
		<tag k="ssr:stedsnr" v="928959" />
	</node>
	<node id="-698935" lat="68.4054833334" lon="16.5209916691">
		<tag k="name" v="Jevika" />
		<tag k="place" v="farm" />
		<tag k="ssr:stedsnr" v="927494" />
	</node>
	<node id="-698939" lat="68.1933000001" lon="16.7032277671">
		<tag k="name" v="Allmenningen" />
		<tag k="place" v="isolated_dwelling" />
		<tag k="ssr:stedsnr" v="927530" />
	</node>
	<node id="-698121" lat="68.3001611135" lon="16.5102861111">
		<tag k="name" v="Kjerringvika" />
		<tag k="place" v="farm" />
		<tag k="ssr:stedsnr" v="442623" />
	</node>
	<node id="-698420" lat="68.2460083336" lon="16.7266638914">
		<tag k="name" v="Nymo" />
		<tag k="place" v="farm" />
		<tag k="ssr:stedsnr" v="585589" />
	</node>
	<node id="-697933" lat="68.2010111093" lon="16.6761361101">
		<tag k="name" v="Aspvik" />
		<tag k="place" v="isolated_dwelling" />
		<tag k="ssr:stedsnr" v="164552" />
	</node>
	<node id="-697394" lat="68.2452194403" lon="16.7531277787">
		<tag k="name" v="Skogheim" />
		<tag k="place" v="isolated_dwelling" />
		<tag k="ssr:stedsnr" v="320542" />
	</node>
	<node id="-698411" lat="68.3422861065" lon="16.1963055607">
		<tag k="name" v="Løbukta" />
		<tag k="place" v="isolated_dwelling" />
		<tag k="ssr:stedsnr" v="585236" />
	</node>
	<node id="-698922" lat="68.3845638896" lon="16.6276860985">
		<tag k="name" v="Henrikheimen" />
		<tag k="place" v="farm" />
		<tag k="ssr:stedsnr" v="875240" />
	</node>
	<node id="-697897" lat="68.2850444452" lon="17.0421361185">
		<tag k="name" v="Skogly" />
		<tag k="place" v="isolated_dwelling" />
		<tag k="ssr:stedsnr" v="143362" />
	</node>
	<node id="-697384" lat="68.3430333339" lon="16.8202472325">
		<tag k="name" v="Langåsen" />
		<tag k="place" v="quarter" />
		<tag k="ssr:stedsnr" v="298583" />
	</node>
	<node id="-697383" lat="68.3086777776" lon="17.0714944399">
		<tag k="name" v="Haugen" />
		<tag k="place" v="farm" />
		<tag k="ssr:stedsnr" v="282936" />
	</node>
	<node id="-697894" lat="68.313163889" lon="16.4139944453">
		<tag k="fixme" v="consider place=hamlet" />
		<tag k="name" v="Håkonset" />
		<tag k="place" v="farm" />
		<tag k="ssr:stedsnr" v="142535" />
	</node>
	<node id="-698915" lat="68.3435111148" lon="16.8355111025">
		<tag k="name" v="Gammelgården" />
		<tag k="place" v="farm" />
		<tag k="ssr:stedsnr" v="874437" />
	</node>
	<node id="-697729" lat="68.4004194481" lon="16.6663055575">
		<tag k="fixme" v="consider place=hamlet" />
		<tag k="name" v="Kjeldebotn - Gáldovuotna" />
		<tag k="name:no" v="Kjeldebotn" />
		<tag k="name:se" v="Gáldovuotna" />
		<tag k="place" v="farm" />
		<tag k="ssr:stedsnr" v="60197" />
	</node>
	<node id="-698908" lat="68.4198194408" lon="16.7195305623">
		<tag k="name" v="Eidet" />
		<tag k="place" v="farm" />
		<tag k="ssr:stedsnr" v="874232" />
	</node>
	<node id="-697883" lat="68.277086115" lon="16.8538777708">
		<tag k="name" v="Stokkedalen" />
		<tag k="place" v="farm" />
		<tag k="ssr:stedsnr" v="138850" />
	</node>
	<node id="-697775" lat="68.3099305555" lon="17.0646472132">
		<tag k="name" v="Elvesæter" />
		<tag k="place" v="farm" />
		<tag k="ssr:stedsnr" v="79856" />
	</node>
	<node id="-698938" lat="68.1936250034" lon="16.7038472129">
		<tag k="name" v="Strand" />
		<tag k="place" v="isolated_dwelling" />
		<tag k="ssr:stedsnr" v="927528" />
	</node>
	<node id="-697945" lat="68.3202555594" lon="16.3773888904">
		<tag k="name" v="Lillevågen" />
		<tag k="place" v="farm" />
		<tag k="ssr:stedsnr" v="199649" />
	</node>
	<node id="-697876" lat="68.3479249975" lon="16.2997361009">
		<tag k="name" v="Slåttvika" />
		<tag k="place" v="farm" />
		<tag k="ssr:stedsnr" v="138698" />
	</node>
	<node id="-697875" lat="68.3488749977" lon="16.5852999994">
		<tag k="alt_name" v="Fjellfoss" />
		<tag k="name" v="Fjellfors" />
		<tag k="place" v="farm" />
		<tag k="ssr:stedsnr" v="138692" />
	</node>
	<node id="-697362" lat="68.3602777804" lon="16.8888416583">
		<tag k="name" v="Murstrand" />
		<tag k="place" v="isolated_dwelling" />
		<tag k="ssr:stedsnr" v="279750" />
	</node>
	<node id="-698897" lat="68.3215750026" lon="16.3608249922">
		<tag k="name" v="Soleng" />
		<tag k="place" v="farm" />
		<tag k="ssr:stedsnr" v="871543" />
	</node>
	<node id="-698533" lat="68.3696083287" lon="16.61636112">
		<tag k="name" v="Kjeldemarka" />
		<tag k="place" v="farm" />
		<tag k="ssr:stedsnr" v="667202" />
	</node>
	<node id="-697867" lat="68.3536999988" lon="16.5920750018">
		<tag k="name" v="Bakken" />
		<tag k="place" v="farm" />
		<tag k="ssr:stedsnr" v="138714" />
	</node>
	<node id="-698890" lat="68.3899916625" lon="16.8731499989">
		<tag k="name" v="Hestvika" />
		<tag k="place" v="farm" />
		<tag k="ssr:stedsnr" v="867946" />
	</node>
	<node id="-698377" lat="68.3377388923" lon="16.3382416748">
		<tag k="name" v="Stor-Kobbvika" />
		<tag k="place" v="farm" />
		<tag k="ssr:stedsnr" v="567528" />
	</node>
	<node id="-698374" lat="68.3762583358" lon="16.8856916691">
		<tag k="name" v="Åsheim" />
		<tag k="place" v="farm" />
		<tag k="ssr:stedsnr" v="564955" />
	</node>
	<node id="-697861" lat="68.300272219" lon="16.6458500075">
		<tag k="name" v="Vassli" />
		<tag k="place" v="farm" />
		<tag k="ssr:stedsnr" v="138604" />
	</node>
	<node id="-697862" lat="68.3046583349" lon="16.7426000063">
		<tag k="name" v="Haugen" />
		<tag k="place" v="farm" />
		<tag k="ssr:stedsnr" v="138609" />
	</node>
	<node id="-698883" lat="68.3213166706" lon="17.0566027785">
		<tag k="fixme" v="multiple name tags, choose one and add the other to alt_name" />
		<tag k="name" v="Nedre Stemnes;Stemnes" />
		<tag k="place" v="farm" />
		<tag k="ssr:stedsnr" v="867865" />
	</node>
	<node id="-697858" lat="68.2904888897" lon="16.6253277878">
		<tag k="name" v="Hestvika" />
		<tag k="place" v="farm" />
		<tag k="ssr:stedsnr" v="138591" />
	</node>
	<node id="-697771" lat="68.3699805597" lon="16.8185999987">
		<tag k="name" v="Forsheim" />
		<tag k="place" v="farm" />
		<tag k="ssr:stedsnr" v="78923" />
	</node>
</osm>
