<?xml version="1.0" encoding="UTF-8"?>
<osm generator="osmapis" version="0.6">
	<node id="-698846" lat="68.2714888906" lon="16.635325001">
		<tag k="name" v="Forsaforsen laksetrapp" />
		<tag k="place" v="locality" />
		<tag k="ssr:stedsnr" v="889648" />
	</node>
	<node id="-699517" lat="68.3751666699" lon="16.2868138951">
		<tag k="name" v="Himmel på jord" />
		<tag k="place" v="locality" />
		<tag k="ssr:stedsnr" v="507516" />
	</node>
	<node id="-700025" lat="68.30011111" lon="16.4310888809">
		<tag k="name" v="Haugen" />
		<tag k="place" v="locality" />
		<tag k="ssr:stedsnr" v="806601" />
	</node>
	<node id="-698841" lat="68.3356083313" lon="16.8183194449">
		<tag k="cemetery" v="grave" />
		<tag k="name" v="Ballangen kirkegård" />
		<tag k="place" v="locality" />
		<tag k="ssr:stedsnr" v="889532" />
	</node>
	<node id="-699662" lat="68.3819444412" lon="17.0473916637">
		<tag k="name" v="Salttønna" />
		<tag k="place" v="locality" />
		<tag k="ssr:stedsnr" v="582704" />
	</node>
	<node id="-698858" lat="68.4054260299" lon="16.6604377802">
		<tag k="amenity" v="place_of_worship" />
		<tag k="denomination" v="lutheran" />
		<tag k="name" v="Kjeldebotn kirke" />
		<tag k="religion" v="christian" />
		<tag k="ssr:stedsnr" v="990268" />
	</node>
	<node id="-698857" lat="68.3395697469" lon="16.8204849387">
		<tag k="amenity" v="place_of_worship" />
		<tag k="denomination" v="lutheran" />
		<tag k="name" v="Ballangen kirke" />
		<tag k="religion" v="christian" />
		<tag k="ssr:stedsnr" v="990267" />
	</node>
	<node id="-699240" lat="68.4172861092" lon="16.6178361018">
		<tag k="cemetery" v="grave" />
		<tag k="name" v="Kjelde kirkegård" />
		<tag k="place" v="locality" />
		<tag k="ssr:stedsnr" v="206426" />
	</node>
</osm>
