<?xml version="1.0" encoding="UTF-8"?>
<osm generator="osmapis" version="0.6">
	<node id="-698367" lat="68.348577777" lon="16.9773055563">
		<tag k="name" v="Raudsandhaugen" />
		<tag k="natural" v="hill" />
		<tag k="place" v="locality" />
		<tag k="ssr:stedsnr" v="563908" />
	</node>
	<node id="-698365" lat="68.292374999" lon="16.8230194432">
		<tag k="fixme" v="consider natural=peak for the most distinct mountains in the district" />
		<tag k="name" v="Vikafjellet" />
		<tag k="natural" v="hill" />
		<tag k="place" v="locality" />
		<tag k="ssr:stedsnr" v="563833" />
	</node>
	<node id="-698363" lat="68.210998174" lon="16.9120828433">
		<tag k="fixme" v="consider natural=peak for the most distinct mountains in the district" />
		<tag k="name" v="Røvasshammaren" />
		<tag k="natural" v="hill" />
		<tag k="place" v="locality" />
		<tag k="ssr:stedsnr" v="563770" />
	</node>
	<node id="-698359" lat="68.3457000004" lon="16.7066472172">
		<tag k="name" v="Bruna" />
		<tag k="place" v="locality" />
		<tag k="ssr:stedsnr" v="563706" />
	</node>
	<node id="-698358" lat="68.334680556" lon="16.7489250108">
		<tag k="alt_name" v="Dyrhagen" />
		<tag k="name" v="Dyrhaugen" />
		<tag k="natural" v="hill" />
		<tag k="place" v="locality" />
		<tag k="ssr:stedsnr" v="563693" />
	</node>
	<node id="-698355" lat="68.3335277742" lon="16.4737249879">
		<tag k="fixme" v="consider natural=peak for the most distinct mountains in the district" />
		<tag k="name" v="Tortenlikollen" />
		<tag k="natural" v="hill" />
		<tag k="place" v="locality" />
		<tag k="ssr:stedsnr" v="563673" />
	</node>
	<node id="-698349" lat="68.3315222255" lon="16.4013249929">
		<tag k="name" v="Lakshaugen" />
		<tag k="natural" v="hill" />
		<tag k="place" v="locality" />
		<tag k="ssr:stedsnr" v="563653" />
	</node>
	<node id="-698342" lat="68.1363333346" lon="16.6787138911">
		<tag k="fixme" v="consider natural=peak for the most distinct mountains in the district" />
		<tag k="name" v="Kopptinden - Gáhpetjåhkkå" />
		<tag k="name:no" v="Kopptinden" />
		<tag k="name:smj" v="Gáhpetjåhkkå" />
		<tag k="natural" v="hill" />
		<tag k="place" v="locality" />
		<tag k="ssr:stedsnr" v="563547" />
	</node>
	<node id="-698337" lat="68.4008749959" lon="16.7009166734">
		<tag k="name" v="Kleiva" />
		<tag k="natural" v="valley" />
		<tag k="place" v="locality" />
		<tag k="ssr:stedsnr" v="562726" />
	</node>
	<node id="-698331" lat="68.110886109" lon="17.1356388834">
		<tag k="fixme" v="consider natural=peak for the most distinct mountains in the district" />
		<tag k="name" v="Filtinden" />
		<tag k="natural" v="hill" />
		<tag k="place" v="locality" />
		<tag k="ssr:stedsnr" v="562692" />
	</node>
	<node id="-698329" lat="68.1422277786" lon="16.7375277838">
		<tag k="name" v="Tauselvdalen" />
		<tag k="natural" v="valley" />
		<tag k="place" v="locality" />
		<tag k="ssr:stedsnr" v="562621" />
	</node>
	<node id="-698327" lat="68.277877775" lon="16.3634055516">
		<tag k="name" v="Storbakken" />
		<tag k="natural" v="slope" />
		<tag k="place" v="locality" />
		<tag k="ssr:stedsnr" v="562570" />
	</node>
	<node id="-698313" lat="68.3232222255" lon="16.6756305675">
		<tag k="name" v="Brattbakken" />
		<tag k="natural" v="slope" />
		<tag k="place" v="locality" />
		<tag k="ssr:stedsnr" v="524711" />
	</node>
	<node id="-698311" lat="68.3558055583" lon="16.6624527664">
		<tag k="name" v="Fuglevassbakken" />
		<tag k="natural" v="slope" />
		<tag k="place" v="locality" />
		<tag k="ssr:stedsnr" v="524686" />
	</node>
	<node id="-698310" lat="68.3447111112" lon="16.5790111043">
		<tag k="name" v="Haugen" />
		<tag k="natural" v="hill" />
		<tag k="place" v="locality" />
		<tag k="ssr:stedsnr" v="524685" />
	</node>
	<node id="-698309" lat="68.2797638872" lon="16.6736527799">
		<tag k="fixme" v="consider natural=peak for the most distinct mountains in the district" />
		<tag k="name" v="Neråsen" />
		<tag k="natural" v="hill" />
		<tag k="place" v="locality" />
		<tag k="ssr:stedsnr" v="524606" />
	</node>
	<node id="-698308" lat="68.3544611115" lon="16.5398611022">
		<tag k="name" v="Høghaugen" />
		<tag k="natural" v="hill" />
		<tag k="place" v="locality" />
		<tag k="ssr:stedsnr" v="524590" />
	</node>
	<node id="-698307" lat="68.2355472188" lon="16.6909444531">
		<tag k="name" v="Lapplægeret" />
		<tag k="natural" v="slope" />
		<tag k="place" v="locality" />
		<tag k="ssr:stedsnr" v="524581" />
	</node>
	<node id="-698306" lat="68.238255559" lon="16.7146194487">
		<tag k="name" v="Melkelvsmoa" />
		<tag k="place" v="locality" />
		<tag k="ssr:stedsnr" v="524577" />
	</node>
	<node id="-698304" lat="68.3220027787" lon="16.2186777807">
		<tag k="name" v="Nakkan" />
		<tag k="natural" v="ridge" />
		<tag k="place" v="locality" />
		<tag k="ssr:stedsnr" v="524330" />
	</node>
	<node id="-698301" lat="68.281947225" lon="16.4589861001">
		<tag k="name" v="Ospdalen" />
		<tag k="natural" v="valley" />
		<tag k="place" v="locality" />
		<tag k="ssr:stedsnr" v="524318" />
	</node>
	<node id="-698300" lat="68.3432499973" lon="16.1209027877">
		<tag k="name" v="Skaret" />
		<tag k="natural" v="valley" />
		<tag k="place" v="locality" />
		<tag k="ssr:stedsnr" v="524248" />
	</node>
	<node id="-698299" lat="68.3090250001" lon="16.2665777838">
		<tag k="name" v="Instådalen" />
		<tag k="natural" v="valley" />
		<tag k="place" v="locality" />
		<tag k="ssr:stedsnr" v="524237" />
	</node>
	<node id="-698296" lat="68.4162777746" lon="16.7474861089">
		<tag k="name" v="Holtan" />
		<tag k="natural" v="hill" />
		<tag k="place" v="locality" />
		<tag k="ssr:stedsnr" v="512307" />
	</node>
	<node id="-698295" lat="68.4145333331" lon="16.7545333264">
		<tag k="name" v="Skårneshaugen" />
		<tag k="natural" v="hill" />
		<tag k="place" v="locality" />
		<tag k="ssr:stedsnr" v="512304" />
	</node>
	<node id="-698293" lat="68.3880666627" lon="16.7320250085">
		<tag k="name" v="Djupvikmoan" />
		<tag k="place" v="locality" />
		<tag k="ssr:stedsnr" v="512256" />
	</node>
	<node id="-698292" lat="68.3881944487" lon="16.8755583298">
		<tag k="fixme" v="consider natural=peak for the most distinct mountains in the district" />
		<tag k="name" v="Nattmålsholtet" />
		<tag k="natural" v="hill" />
		<tag k="place" v="locality" />
		<tag k="ssr:stedsnr" v="512253" />
	</node>
	<node id="-698291" lat="68.3518722211" lon="16.8254388815">
		<tag k="fixme" v="consider natural=peak for the most distinct mountains in the district" />
		<tag k="name" v="Vassåsen" />
		<tag k="natural" v="hill" />
		<tag k="place" v="locality" />
		<tag k="ssr:stedsnr" v="510441" />
	</node>
	<node id="-698289" lat="68.3339277742" lon="16.7953583424">
		<tag k="name" v="Kirkelia" />
		<tag k="natural" v="slope" />
		<tag k="place" v="locality" />
		<tag k="ssr:stedsnr" v="510426" />
	</node>
	<node id="-698286" lat="68.3451166642" lon="17.0219499863">
		<tag k="name" v="Trondbakkan" />
		<tag k="natural" v="slope" />
		<tag k="place" v="locality" />
		<tag k="ssr:stedsnr" v="510367" />
	</node>
	<node id="-698279" lat="68.3931277753" lon="16.6649027657">
		<tag k="name" v="Nesseboren" />
		<tag k="natural" v="valley" />
		<tag k="place" v="locality" />
		<tag k="ssr:stedsnr" v="510176" />
	</node>
	<node id="-698276" lat="68.32907778" lon="16.7001944469">
		<tag k="name" v="Storhaugen" />
		<tag k="natural" v="hill" />
		<tag k="place" v="locality" />
		<tag k="ssr:stedsnr" v="510123" />
	</node>
	<node id="-698275" lat="68.4042777738" lon="16.7255611044">
		<tag k="name" v="Heiaksla" />
		<tag k="natural" v="hill" />
		<tag k="place" v="locality" />
		<tag k="ssr:stedsnr" v="510021" />
	</node>
	<node id="-698271" lat="68.3974000031" lon="16.4486416704">
		<tag k="name" v="Merrvik-Migan" />
		<tag k="natural" v="hill" />
		<tag k="place" v="locality" />
		<tag k="ssr:stedsnr" v="507942" />
	</node>
	<node id="-698270" lat="68.3156722264" lon="16.4082166558">
		<tag k="name" v="Håkonsetheia" />
		<tag k="natural" v="hill" />
		<tag k="place" v="locality" />
		<tag k="ssr:stedsnr" v="507558" />
	</node>
	<node id="-698266" lat="68.3405472227" lon="16.3467361173">
		<tag k="name" v="Puffhaugen" />
		<tag k="natural" v="hill" />
		<tag k="place" v="locality" />
		<tag k="ssr:stedsnr" v="507527" />
	</node>
	<node id="-698263" lat="68.3704944482" lon="17.0468472196">
		<tag k="name" v="Storbakknausen" />
		<tag k="natural" v="hill" />
		<tag k="place" v="locality" />
		<tag k="ssr:stedsnr" v="503882" />
	</node>
	<node id="-698261" lat="68.3556083366" lon="16.852338881">
		<tag k="alt_name" v="Alfonåsen" />
		<tag k="fixme" v="consider natural=peak for the most distinct mountains in the district" />
		<tag k="name" v="Alfanåsen" />
		<tag k="natural" v="hill" />
		<tag k="place" v="locality" />
		<tag k="ssr:stedsnr" v="503842" />
	</node>
	<node id="-698260" lat="68.3511361079" lon="16.9645555411">
		<tag k="name" v="Svartberget" />
		<tag k="natural" v="hill" />
		<tag k="place" v="locality" />
		<tag k="ssr:stedsnr" v="503837" />
	</node>
	<node id="-698257" lat="68.2677138934" lon="16.8754916587">
		<tag k="name" v="Brattlia" />
		<tag k="natural" v="slope" />
		<tag k="place" v="locality" />
		<tag k="ssr:stedsnr" v="503750" />
	</node>
	<node id="-698255" lat="68.3151638851" lon="17.0969499994">
		<tag k="name" v="Keiploftet" />
		<tag k="natural" v="hill" />
		<tag k="place" v="locality" />
		<tag k="ssr:stedsnr" v="502864" />
	</node>
	<node id="-698254" lat="68.2963361079" lon="16.9574861055">
		<tag k="fixme" v="consider natural=peak for the most distinct mountains in the district" />
		<tag k="loc_name:se" v="Sebmulvárre" />
		<tag k="name" v="Sipmolvárri" />
		<tag k="name:se" v="Sipmolvárri" />
		<tag k="natural" v="hill" />
		<tag k="old_name:se" v="Sibmulvarri" />
		<tag k="place" v="locality" />
		<tag k="ssr:stedsnr" v="502837" />
	</node>
	<node id="-698252" lat="68.4053138927" lon="16.4713833308">
		<tag k="name" v="Daudmannshella" />
		<tag k="natural" v="hill" />
		<tag k="place" v="locality" />
		<tag k="ssr:stedsnr" v="502734" />
	</node>
	<node id="-698243" lat="68.3379749967" lon="16.4300750098">
		<tag k="name" v="Oksaksla" />
		<tag k="natural" v="hill" />
		<tag k="place" v="locality" />
		<tag k="ssr:stedsnr" v="502670" />
	</node>
	<node id="-698242" lat="68.3345472174" lon="16.625991676">
		<tag k="fixme" v="consider natural=peak for the most distinct mountains in the district" />
		<tag k="name" v="Linken" />
		<tag k="natural" v="hill" />
		<tag k="place" v="locality" />
		<tag k="ssr:stedsnr" v="502667" />
	</node>
	<node id="-698237" lat="68.3277527804" lon="16.5307611078">
		<tag k="name" v="Rundhaugdalen" />
		<tag k="natural" v="valley" />
		<tag k="place" v="locality" />
		<tag k="ssr:stedsnr" v="502644" />
	</node>
	<node id="-698236" lat="68.3323388879" lon="16.5250861189">
		<tag k="alt_name" v="Bukkdalen" />
		<tag k="name" v="Bukkedalen" />
		<tag k="natural" v="valley" />
		<tag k="place" v="locality" />
		<tag k="ssr:stedsnr" v="502643" />
	</node>
	<node id="-698233" lat="68.3157833362" lon="16.4632138968">
		<tag k="name" v="Svartdalen" />
		<tag k="natural" v="valley" />
		<tag k="place" v="locality" />
		<tag k="ssr:stedsnr" v="502633" />
	</node>
	<node id="-698230" lat="68.3013777798" lon="16.583791666">
		<tag k="fixme" v="consider natural=peak for the most distinct mountains in the district" />
		<tag k="name" v="Gulliklikollen" />
		<tag k="natural" v="hill" />
		<tag k="place" v="locality" />
		<tag k="ssr:stedsnr" v="502620" />
	</node>
	<node id="-698226" lat="68.1849555525" lon="16.7693222081">
		<tag k="name" v="Høgskaret" />
		<tag k="natural" v="valley" />
		<tag k="place" v="locality" />
		<tag k="ssr:stedsnr" v="502601" />
	</node>
	<node id="-698222" lat="68.287877778" lon="16.3049027744">
		<tag k="name" v="Buskaret" />
		<tag k="natural" v="valley" />
		<tag k="place" v="locality" />
		<tag k="ssr:stedsnr" v="502573" />
	</node>
	<node id="-698221" lat="68.2903472189" lon="16.3152249949">
		<tag k="fixme" v="consider natural=peak for the most distinct mountains in the district" />
		<tag k="name" v="Teppkiltinden" />
		<tag k="natural" v="hill" />
		<tag k="place" v="locality" />
		<tag k="ssr:stedsnr" v="502571" />
	</node>
	<node id="-698197" lat="68.335147224" lon="16.1024694537">
		<tag k="name" v="Sæterdalen" />
		<tag k="natural" v="valley" />
		<tag k="place" v="locality" />
		<tag k="ssr:stedsnr" v="464421" />
	</node>
	<node id="-698194" lat="68.3120972228" lon="16.3111777823">
		<tag k="name" v="Gåsjenesheian" />
		<tag k="natural" v="hill" />
		<tag k="place" v="locality" />
		<tag k="ssr:stedsnr" v="464264" />
	</node>
	<node id="-698193" lat="68.312338889" lon="17.0714388866">
		<tag k="fixme" v="consider natural=peak for the most distinct mountains in the district" />
		<tag k="name" v="Eiterelvkollen" />
		<tag k="natural" v="hill" />
		<tag k="place" v="locality" />
		<tag k="ssr:stedsnr" v="463939" />
	</node>
	<node id="-698192" lat="68.3285222196" lon="17.0538527648">
		<tag k="name" v="Rabben" />
		<tag k="natural" v="ridge" />
		<tag k="place" v="locality" />
		<tag k="ssr:stedsnr" v="463935" />
	</node>
	<node id="-698191" lat="68.3245555564" lon="16.5963499984">
		<tag k="name" v="Skavhaugbakkan" />
		<tag k="natural" v="slope" />
		<tag k="place" v="locality" />
		<tag k="ssr:stedsnr" v="463758" />
	</node>
	<node id="-698190" lat="68.3302750045" lon="16.6219694405">
		<tag k="name" v="Øvre Stordalen" />
		<tag k="natural" v="valley" />
		<tag k="place" v="locality" />
		<tag k="ssr:stedsnr" v="463744" />
	</node>
	<node id="-698189" lat="68.3564805581" lon="16.678249992">
		<tag k="fixme" v="consider natural=peak for the most distinct mountains in the district" />
		<tag k="name" v="Lille Håfjell" />
		<tag k="natural" v="hill" />
		<tag k="place" v="locality" />
		<tag k="ssr:stedsnr" v="463733" />
	</node>
	<node id="-698188" lat="68.39936389" lon="16.7102972101">
		<tag k="name" v="Kleiva" />
		<tag k="natural" v="slope" />
		<tag k="place" v="locality" />
		<tag k="ssr:stedsnr" v="463489" />
	</node>
	<node id="-698185" lat="68.3869638938" lon="16.7887444372">
		<tag k="name" v="Kvanndalshøgda" />
		<tag k="natural" v="hill" />
		<tag k="place" v="locality" />
		<tag k="ssr:stedsnr" v="451327" />
	</node>
	<node id="-698183" lat="68.3760500005" lon="17.0505222253">
		<tag k="fixme" v="consider natural=peak for the most distinct mountains in the district" />
		<tag k="name" v="Trobakk-Kollen" />
		<tag k="natural" v="hill" />
		<tag k="place" v="locality" />
		<tag k="ssr:stedsnr" v="450744" />
	</node>
	<node id="-698182" lat="68.4121666677" lon="16.6434861047">
		<tag k="fixme" v="consider natural=peak for the most distinct mountains in the district" />
		<tag k="name" v="Rognmokollen" />
		<tag k="natural" v="hill" />
		<tag k="place" v="locality" />
		<tag k="ssr:stedsnr" v="450478" />
	</node>
	<node id="-698181" lat="68.3525861139" lon="16.981808326">
		<tag k="name" v="Lenkan" />
		<tag k="natural" v="hill" />
		<tag k="place" v="locality" />
		<tag k="ssr:stedsnr" v="450470" />
	</node>
	<node id="-698180" lat="68.3389444434" lon="16.824722223">
		<tag k="name" v="Storhaugen" />
		<tag k="natural" v="hill" />
		<tag k="place" v="locality" />
		<tag k="ssr:stedsnr" v="450428" />
	</node>
	<node id="-698179" lat="68.3446250001" lon="16.8392472319">
		<tag k="fixme" v="consider natural=peak for the most distinct mountains in the district" />
		<tag k="name" v="Bratthammaren" />
		<tag k="natural" v="hill" />
		<tag k="place" v="locality" />
		<tag k="ssr:stedsnr" v="450425" />
	</node>
	<node id="-698178" lat="68.3279333377" lon="16.7299166622">
		<tag k="name" v="Knuthaugen" />
		<tag k="natural" v="hill" />
		<tag k="place" v="locality" />
		<tag k="ssr:stedsnr" v="450423" />
	</node>
	<node id="-698175" lat="68.3410888903" lon="16.8909222277">
		<tag k="name" v="Svartberget" />
		<tag k="natural" v="hill" />
		<tag k="place" v="locality" />
		<tag k="ssr:stedsnr" v="450361" />
	</node>
	<node id="-698173" lat="68.378350003" lon="16.8733527663">
		<tag k="name" v="Tjærmilholtet" />
		<tag k="natural" v="hill" />
		<tag k="place" v="locality" />
		<tag k="ssr:stedsnr" v="450255" />
	</node>
	<node id="-698171" lat="68.3077111115" lon="16.6912861181">
		<tag k="name" v="Rundhaugen" />
		<tag k="natural" v="hill" />
		<tag k="place" v="locality" />
		<tag k="ssr:stedsnr" v="450139" />
	</node>
	<node id="-698169" lat="68.3947666665" lon="16.6262805663">
		<tag k="name" v="Aspestokkhola" />
		<tag k="natural" v="valley" />
		<tag k="place" v="locality" />
		<tag k="ssr:stedsnr" v="449227" />
	</node>
	<node id="-698168" lat="68.3990416646" lon="16.723094433">
		<tag k="fixme" v="consider natural=peak for the most distinct mountains in the district" />
		<tag k="name" v="Lillefjellet" />
		<tag k="natural" v="hill" />
		<tag k="place" v="locality" />
		<tag k="ssr:stedsnr" v="449218" />
	</node>
	<node id="-698167" lat="68.3967249986" lon="16.6608527775">
		<tag k="fixme" v="consider natural=peak for the most distinct mountains in the district" />
		<tag k="name" v="Høgåsen" />
		<tag k="natural" v="hill" />
		<tag k="place" v="locality" />
		<tag k="ssr:stedsnr" v="449184" />
	</node>
	<node id="-698165" lat="68.3601861151" lon="16.5992083251">
		<tag k="name" v="Skavlia" />
		<tag k="natural" v="slope" />
		<tag k="place" v="locality" />
		<tag k="ssr:stedsnr" v="449139" />
	</node>
	<node id="-698159" lat="68.31065833" lon="16.3596999881">
		<tag k="name" v="Geitpina" />
		<tag k="natural" v="hill" />
		<tag k="place" v="locality" />
		<tag k="ssr:stedsnr" v="446553" />
	</node>
	<node id="-698158" lat="68.3381944438" lon="16.2797805634">
		<tag k="name" v="Strandneshallen" />
		<tag k="natural" v="slope" />
		<tag k="place" v="locality" />
		<tag k="ssr:stedsnr" v="446544" />
	</node>
	<node id="-698157" lat="68.3508888912" lon="16.3718777826">
		<tag k="fixme" v="consider natural=peak for the most distinct mountains in the district" />
		<tag k="name" v="Rødøyfjellet" />
		<tag k="natural" v="hill" />
		<tag k="place" v="locality" />
		<tag k="ssr:stedsnr" v="446545" />
	</node>
	<node id="-698156" lat="68.3706361132" lon="16.3336138962">
		<tag k="name" v="Russviktinden" />
		<tag k="natural" v="hill" />
		<tag k="place" v="locality" />
		<tag k="ssr:stedsnr" v="446536" />
	</node>
	<node id="-698148" lat="68.3155388921" lon="17.1397861198">
		<tag k="name" v="Jo Larsaskaret" />
		<tag k="natural" v="valley" />
		<tag k="place" v="locality" />
		<tag k="ssr:stedsnr" v="442884" />
	</node>
	<node id="-698147" lat="68.2792611133" lon="16.9727111042">
		<tag k="name" v="Nordbotnen" />
		<tag k="natural" v="valley" />
		<tag k="place" v="locality" />
		<tag k="ssr:stedsnr" v="442861" />
	</node>
	<node id="-698146" lat="68.2777638879" lon="16.9786472267">
		<tag k="fixme" v="consider natural=peak for the most distinct mountains in the district" />
		<tag k="name" v="Kvannåkertinden" />
		<tag k="natural" v="hill" />
		<tag k="place" v="locality" />
		<tag k="ssr:stedsnr" v="442858" />
	</node>
	<node id="-698138" lat="68.3647694422" lon="16.5274361186">
		<tag k="name" v="Gunnardalen - Govdariehppi" />
		<tag k="name:no" v="Gunnardalen" />
		<tag k="name:se" v="Govdariehppi" />
		<tag k="natural" v="valley" />
		<tag k="old_name:se" v="Gåvdarieppi" />
		<tag k="place" v="locality" />
		<tag k="ssr:stedsnr" v="442749" />
	</node>
	<node id="-698137" lat="68.365761111" lon="16.4281888834">
		<tag k="fixme" v="consider natural=peak for the most distinct mountains in the district" />
		<tag k="name" v="Kufjellet" />
		<tag k="natural" v="hill" />
		<tag k="place" v="locality" />
		<tag k="ssr:stedsnr" v="442739" />
	</node>
	<node id="-698133" lat="68.3593527771" lon="16.5730527828">
		<tag k="name" v="Slåtthaugen" />
		<tag k="natural" v="hill" />
		<tag k="place" v="locality" />
		<tag k="ssr:stedsnr" v="442716" />
	</node>
	<node id="-698130" lat="68.3419722228" lon="16.4869916628">
		<tag k="fixme" v="consider natural=peak for the most distinct mountains in the district" />
		<tag k="name" v="Langvågtuva" />
		<tag k="natural" v="hill" />
		<tag k="place" v="locality" />
		<tag k="ssr:stedsnr" v="442688" />
	</node>
	<node id="-698129" lat="68.3456333343" lon="16.4330694449">
		<tag k="fixme" v="consider natural=peak for the most distinct mountains in the district" />
		<tag k="name" v="Tverrfjellet" />
		<tag k="natural" v="hill" />
		<tag k="place" v="locality" />
		<tag k="ssr:stedsnr" v="442687" />
	</node>
	<node id="-698126" lat="68.3098722235" lon="16.4745861199">
		<tag k="name" v="Vassdalen" />
		<tag k="natural" v="valley" />
		<tag k="place" v="locality" />
		<tag k="ssr:stedsnr" v="442637" />
	</node>
	<node id="-698122" lat="68.3113277752" lon="16.5859250019">
		<tag k="alt_name" v="Olalemman" />
		<tag k="name" v="Olalemmen" />
		<tag k="natural" v="valley" />
		<tag k="place" v="locality" />
		<tag k="ssr:stedsnr" v="442626" />
	</node>
	<node id="-698114" lat="68.4133777753" lon="16.6051027869">
		<tag k="fixme" v="consider natural=peak for the most distinct mountains in the district" />
		<tag k="name" v="Nonsfjellet" />
		<tag k="natural" v="hill" />
		<tag k="place" v="locality" />
		<tag k="ssr:stedsnr" v="442481" />
	</node>
	<node id="-698113" lat="68.3352777741" lon="16.6094833264">
		<tag k="fixme" v="consider natural=peak for the most distinct mountains in the district" />
		<tag k="name" v="Håfjellet" />
		<tag k="natural" v="hill" />
		<tag k="place" v="locality" />
		<tag k="ssr:stedsnr" v="442450" />
	</node>
	<node id="-698110" lat="68.4055972192" lon="16.7221749907">
		<tag k="fixme" v="consider natural=peak for the most distinct mountains in the district" />
		<tag k="name" v="Tømmerfjellet" />
		<tag k="natural" v="hill" />
		<tag k="place" v="locality" />
		<tag k="ssr:stedsnr" v="441750" />
	</node>
	<node id="-698109" lat="68.4065944434" lon="16.5433499987">
		<tag k="alt_name" v="Jøvikfjell" />
		<tag k="fixme" v="consider natural=peak for the most distinct mountains in the district" />
		<tag k="name" v="Jevikfjellet" />
		<tag k="natural" v="hill" />
		<tag k="place" v="locality" />
		<tag k="ssr:stedsnr" v="441744" />
	</node>
	<node id="-698104" lat="68.2852749965" lon="16.7683638846">
		<tag k="fixme" v="consider natural=peak for the most distinct mountains in the district" />
		<tag k="name" v="Kvannvikkollen" />
		<tag k="natural" v="hill" />
		<tag k="place" v="locality" />
		<tag k="ssr:stedsnr" v="441581" />
	</node>
	<node id="-698101" lat="68.3525138898" lon="16.0912111053">
		<tag k="name" v="Planan" />
		<tag k="natural" v="hill" />
		<tag k="place" v="locality" />
		<tag k="ssr:stedsnr" v="441318" />
	</node>
	<node id="-698095" lat="68.3572555547" lon="16.7806166755">
		<tag k="name" v="Senken" />
		<tag k="natural" v="slope" />
		<tag k="place" v="locality" />
		<tag k="ssr:stedsnr" v="268435" />
	</node>
	<node id="-698093" lat="68.3594472187" lon="16.825297228">
		<tag k="name" v="Fjellmyrbakken" />
		<tag k="natural" v="slope" />
		<tag k="place" v="locality" />
		<tag k="ssr:stedsnr" v="268268" />
	</node>
	<node id="-698091" lat="68.3940576632" lon="16.8430596335">
		<tag k="loc_name" v="Orrhågen" />
		<tag k="name" v="Skjellberget" />
		<tag k="natural" v="hill" />
		<tag k="place" v="locality" />
		<tag k="ssr:stedsnr" v="268239" />
	</node>
	<node id="-698090" lat="68.3874583314" lon="16.6371638927">
		<tag k="fixme" v="consider natural=peak for the most distinct mountains in the district" />
		<tag k="name" v="Brattåsen" />
		<tag k="natural" v="hill" />
		<tag k="place" v="locality" />
		<tag k="ssr:stedsnr" v="267193" />
	</node>
	<node id="-698089" lat="68.4070750026" lon="16.6830944368">
		<tag k="fixme" v="consider natural=peak for the most distinct mountains in the district" />
		<tag k="name" v="Langåsen" />
		<tag k="natural" v="hill" />
		<tag k="place" v="locality" />
		<tag k="ssr:stedsnr" v="267171" />
	</node>
	<node id="-698088" lat="68.4102749992" lon="16.6841111204">
		<tag k="name" v="Orrehaugen" />
		<tag k="natural" v="hill" />
		<tag k="place" v="locality" />
		<tag k="ssr:stedsnr" v="267166" />
	</node>
	<node id="-698087" lat="68.3163277825" lon="16.7254166552">
		<tag k="name" v="Smibakkan" />
		<tag k="natural" v="slope" />
		<tag k="place" v="locality" />
		<tag k="ssr:stedsnr" v="267121" />
	</node>
	<node id="-698086" lat="68.3263999984" lon="16.660199994">
		<tag k="name" v="Syrgrasskaret" />
		<tag k="natural" v="valley" />
		<tag k="place" v="locality" />
		<tag k="ssr:stedsnr" v="267103" />
	</node>
	<node id="-698085" lat="68.4033555579" lon="16.7084611061">
		<tag k="name" v="Karidalen" />
		<tag k="natural" v="valley" />
		<tag k="place" v="locality" />
		<tag k="ssr:stedsnr" v="267013" />
	</node>
	<node id="-698083" lat="68.3227638905" lon="16.4358250066">
		<tag k="name" v="Skavhaugen" />
		<tag k="natural" v="hill" />
		<tag k="place" v="locality" />
		<tag k="ssr:stedsnr" v="264948" />
	</node>
	<node id="-698078" lat="68.3696805577" lon="16.4077111037">
		<tag k="fixme" v="consider natural=peak for the most distinct mountains in the district" />
		<tag k="name" v="Middagslia" />
		<tag k="natural" v="hill" />
		<tag k="place" v="locality" />
		<tag k="ssr:stedsnr" v="264530" />
	</node>
	<node id="-698077" lat="68.2720694453" lon="17.0144666765">
		<tag k="name" v="Osperanen" />
		<tag k="natural" v="slope" />
		<tag k="place" v="locality" />
		<tag k="ssr:stedsnr" v="264402" />
	</node>
	<node id="-698076" lat="68.2712555569" lon="17.0151583423">
		<tag k="name" v="Vedskjolranen" />
		<tag k="natural" v="slope" />
		<tag k="place" v="locality" />
		<tag k="ssr:stedsnr" v="264394" />
	</node>
	<node id="-698065" lat="68.3447583318" lon="16.9579027713">
		<tag k="name" v="Geitholtet" />
		<tag k="natural" v="hill" />
		<tag k="place" v="locality" />
		<tag k="ssr:stedsnr" v="260941" />
	</node>
	<node id="-698063" lat="68.2911777799" lon="16.8212138919">
		<tag k="name" v="Trollbergan" />
		<tag k="natural" v="hill" />
		<tag k="place" v="locality" />
		<tag k="ssr:stedsnr" v="260853" />
	</node>
	<node id="-698061" lat="68.2633250027" lon="16.9387555439">
		<tag k="fixme" v="consider natural=peak for the most distinct mountains in the district" />
		<tag k="name" v="Langnestinden" />
		<tag k="natural" v="hill" />
		<tag k="place" v="locality" />
		<tag k="ssr:stedsnr" v="260825" />
	</node>
	<node id="-698059" lat="68.3818166689" lon="16.7830138923">
		<tag k="fixme" v="consider natural=peak for the most distinct mountains in the district" />
		<tag k="name" v="Storfjellet" />
		<tag k="natural" v="hill" />
		<tag k="place" v="locality" />
		<tag k="ssr:stedsnr" v="260772" />
	</node>
	<node id="-698053" lat="68.3557361082" lon="16.711533333">
		<tag k="name" v="Håfjelldalen" />
		<tag k="natural" v="valley" />
		<tag k="place" v="locality" />
		<tag k="ssr:stedsnr" v="260725" />
	</node>
	<node id="-698042" lat="68.3043777812" lon="16.4854611126">
		<tag k="fixme" v="consider natural=peak for the most distinct mountains in the district" />
		<tag k="name" v="Strandfjellet" />
		<tag k="natural" v="hill" />
		<tag k="place" v="locality" />
		<tag k="ssr:stedsnr" v="260628" />
	</node>
	<node id="-698041" lat="68.2524805515" lon="16.7932444451">
		<tag k="fixme" v="consider natural=peak for the most distinct mountains in the district" />
		<tag k="name" v="Njallavárdu" />
		<tag k="name:se" v="Njallavárdu" />
		<tag k="natural" v="hill" />
		<tag k="old_name:se" v="Njallavardo" />
		<tag k="place" v="locality" />
		<tag k="ssr:stedsnr" v="260561" />
	</node>
	<node id="-698039" lat="68.4082722243" lon="16.6387722334">
		<tag k="fixme" v="consider natural=peak for the most distinct mountains in the district" />
		<tag k="name" v="Kjeldåsen" />
		<tag k="natural" v="hill" />
		<tag k="place" v="locality" />
		<tag k="ssr:stedsnr" v="259743" />
	</node>
	<node id="-698034" lat="68.1929861151" lon="16.7416083286">
		<tag k="fixme" v="consider natural=peak for the most distinct mountains in the district" />
		<tag k="name" v="Langstrandkollen" />
		<tag k="natural" v="hill" />
		<tag k="place" v="locality" />
		<tag k="ssr:stedsnr" v="259574" />
	</node>
	<node id="-698033" lat="68.2733638887" lon="16.6806111199">
		<tag k="fixme" v="consider natural=peak for the most distinct mountains in the district" />
		<tag k="name" v="Åsen" />
		<tag k="natural" v="hill" />
		<tag k="place" v="locality" />
		<tag k="ssr:stedsnr" v="259561" />
	</node>
	<node id="-698031" lat="68.2706333303" lon="16.6549833389">
		<tag k="fixme" v="consider natural=peak for the most distinct mountains in the district" />
		<tag k="name" v="Slåttlikollen" />
		<tag k="natural" v="hill" />
		<tag k="place" v="locality" />
		<tag k="ssr:stedsnr" v="259549" />
	</node>
	<node id="-698030" lat="68.1496888856" lon="16.7685083294">
		<tag k="name" v="Storfloget" />
		<tag k="natural" v="cliff" />
		<tag k="ssr:stedsnr" v="259607" />
	</node>
	<node id="-698027" lat="68.3396888867" lon="16.1072527708">
		<tag k="fixme" v="consider natural=peak for the most distinct mountains in the district" />
		<tag k="name" v="Sørfjellet" />
		<tag k="natural" v="hill" />
		<tag k="place" v="locality" />
		<tag k="ssr:stedsnr" v="259292" />
	</node>
	<node id="-698024" lat="68.3832140556" lon="16.8807048107">
		<tag k="name" v="Tømmerholtet" />
		<tag k="natural" v="hill" />
		<tag k="place" v="locality" />
		<tag k="ssr:stedsnr" v="269081" />
	</node>
	<node id="-698015" lat="68.3272000033" lon="16.6217277722">
		<tag k="name" v="Lilledalen" />
		<tag k="natural" v="valley" />
		<tag k="place" v="locality" />
		<tag k="ssr:stedsnr" v="221695" />
	</node>
	<node id="-698014" lat="68.3681527756" lon="16.6658610971">
		<tag k="name" v="Småvassbakkan" />
		<tag k="natural" v="slope" />
		<tag k="place" v="locality" />
		<tag k="ssr:stedsnr" v="221677" />
	</node>
	<node id="-698013" lat="68.3460555592" lon="16.6277083273">
		<tag k="fixme" v="consider natural=peak for the most distinct mountains in the district" />
		<tag k="name" v="Håfjell" />
		<tag k="natural" v="hill" />
		<tag k="place" v="locality" />
		<tag k="ssr:stedsnr" v="221672" />
	</node>
	<node id="-698012" lat="68.344147222" lon="16.700222216">
		<tag k="fixme" v="consider natural=peak for the most distinct mountains in the district" />
		<tag k="name" v="Store Håfjell" />
		<tag k="natural" v="hill" />
		<tag k="place" v="locality" />
		<tag k="ssr:stedsnr" v="221669" />
	</node>
	<node id="-698010" lat="68.3534055545" lon="16.0920555646">
		<tag k="name" v="Akselhamnhågen" />
		<tag k="natural" v="hill" />
		<tag k="place" v="locality" />
		<tag k="ssr:stedsnr" v="221379" />
	</node>
	<node id="-698007" lat="68.3348416672" lon="16.5366166678">
		<tag k="name" v="Lille Skaidi" />
		<tag k="natural" v="hill" />
		<tag k="place" v="locality" />
		<tag k="ssr:stedsnr" v="221342" />
	</node>
	<node id="-698006" lat="68.3094111096" lon="16.3092777807">
		<tag k="name" v="Moldforvikdalen" />
		<tag k="natural" v="valley" />
		<tag k="place" v="locality" />
		<tag k="ssr:stedsnr" v="221337" />
	</node>
	<node id="-698002" lat="68.3899055545" lon="16.7906999955">
		<tag k="name" v="Ytterhøgda" />
		<tag k="natural" v="hill" />
		<tag k="place" v="locality" />
		<tag k="ssr:stedsnr" v="209324" />
	</node>
	<node id="-698001" lat="68.4171638933" lon="16.6061277748">
		<tag k="name" v="Storskaret" />
		<tag k="natural" v="valley" />
		<tag k="place" v="locality" />
		<tag k="ssr:stedsnr" v="207439" />
	</node>
	<node id="-697998" lat="68.3568555566" lon="16.8233361019">
		<tag k="name" v="Langblåhaugan" />
		<tag k="natural" v="hill" />
		<tag k="place" v="locality" />
		<tag k="ssr:stedsnr" v="207420" />
	</node>
	<node id="-697997" lat="68.3463472184" lon="16.7287194385">
		<tag k="name" v="Kalvåsdalen" />
		<tag k="natural" v="valley" />
		<tag k="place" v="locality" />
		<tag k="ssr:stedsnr" v="207412" />
	</node>
	<node id="-697994" lat="68.3558888875" lon="16.9558138807">
		<tag k="name" v="Hågen" />
		<tag k="natural" v="hill" />
		<tag k="place" v="locality" />
		<tag k="ssr:stedsnr" v="207352" />
	</node>
	<node id="-697993" lat="68.373311114" lon="16.8686166628">
		<tag k="fixme" v="consider natural=peak for the most distinct mountains in the district" />
		<tag k="loc_name" v="Solliåsen" />
		<tag k="name" v="Sollåsen" />
		<tag k="natural" v="hill" />
		<tag k="place" v="locality" />
		<tag k="ssr:stedsnr" v="207268" />
	</node>
	<node id="-697990" lat="68.3221777754" lon="16.712572214">
		<tag k="name" v="Vinterholahaugen" />
		<tag k="natural" v="hill" />
		<tag k="place" v="locality" />
		<tag k="ssr:stedsnr" v="207157" />
	</node>
	<node id="-697989" lat="68.3047861104" lon="16.6968583304">
		<tag k="name" v="Leirhaugen" />
		<tag k="natural" v="hill" />
		<tag k="place" v="locality" />
		<tag k="ssr:stedsnr" v="207154" />
	</node>
	<node id="-697986" lat="68.386324997" lon="16.4676055516">
		<tag k="fixme" v="consider natural=peak for the most distinct mountains in the district" />
		<tag k="name" v="Kvanntokollen" />
		<tag k="natural" v="hill" />
		<tag k="place" v="locality" />
		<tag k="ssr:stedsnr" v="204944" />
	</node>
	<node id="-697985" lat="68.3312027734" lon="16.3114888888">
		<tag k="name" v="Gonghaugen" />
		<tag k="natural" v="hill" />
		<tag k="place" v="locality" />
		<tag k="ssr:stedsnr" v="204514" />
	</node>
	<node id="-697984" lat="68.2017972242" lon="16.6021444413">
		<tag k="name" v="Gijssamåhkke" />
		<tag k="name:smj" v="Gijssamåhkke" />
		<tag k="natural" v="valley" />
		<tag k="old_name:smj" v="Giisamohkki" />
		<tag k="place" v="locality" />
		<tag k="ssr:stedsnr" v="204512" />
	</node>
	<node id="-697983" lat="68.3381694413" lon="16.3198861043">
		<tag k="name" v="Lomfjellet" />
		<tag k="natural" v="hill" />
		<tag k="place" v="locality" />
		<tag k="ssr:stedsnr" v="204494" />
	</node>
	<node id="-697980" lat="68.2737888902" lon="17.0457777787">
		<tag k="name" v="Bringebærskreda" />
		<tag k="place" v="locality" />
		<tag k="ssr:stedsnr" v="204337" />
	</node>
	<node id="-697979" lat="68.3675249971" lon="16.3793972278">
		<tag k="fixme" v="consider natural=peak for the most distinct mountains in the district" />
		<tag k="name" v="Lyngviktinden" />
		<tag k="natural" v="hill" />
		<tag k="place" v="locality" />
		<tag k="ssr:stedsnr" v="204472" />
	</node>
	<node id="-697977" lat="68.3753611142" lon="17.0656250053">
		<tag k="fixme" v="consider natural=peak for the most distinct mountains in the district" />
		<tag k="name" v="Saltvikåsen" />
		<tag k="natural" v="hill" />
		<tag k="place" v="locality" />
		<tag k="ssr:stedsnr" v="200959" />
	</node>
	<node id="-697973" lat="68.3334583299" lon="17.0441000069">
		<tag k="name" v="Telgelandet" />
		<tag k="natural" v="hill" />
		<tag k="place" v="locality" />
		<tag k="ssr:stedsnr" v="200838" />
	</node>
	<node id="-697970" lat="68.3638472247" lon="17.0575055523">
		<tag k="name" v="Kanndalen" />
		<tag k="natural" v="valley" />
		<tag k="place" v="locality" />
		<tag k="ssr:stedsnr" v="199914" />
	</node>
	<node id="-697969" lat="68.3057833301" lon="16.8841749996">
		<tag k="fixme" v="consider natural=peak for the most distinct mountains in the district" />
		<tag k="name" v="Blåfjellet" />
		<tag k="natural" v="hill" />
		<tag k="place" v="locality" />
		<tag k="ssr:stedsnr" v="199867" />
	</node>
	<node id="-697966" lat="68.381308336" lon="16.6079000031">
		<tag k="name" v="Storhaugen" />
		<tag k="natural" v="hill" />
		<tag k="place" v="locality" />
		<tag k="ssr:stedsnr" v="199750" />
	</node>
	<node id="-697961" lat="68.3651500036" lon="16.6942888879">
		<tag k="fixme" v="consider natural=peak for the most distinct mountains in the district" />
		<tag k="name" v="Håfjelltuva - Vuopmegeaščohkka" />
		<tag k="name:no" v="Håfjelltuva" />
		<tag k="name:se" v="Vuopmegeaščohkka" />
		<tag k="natural" v="hill" />
		<tag k="old_name:se" v="Vuobmegæščåkka" />
		<tag k="place" v="locality" />
		<tag k="ssr:stedsnr" v="199724" />
	</node>
	<node id="-697952" lat="68.3052250002" lon="17.0016416594">
		<tag k="name" v="Djupdalen" />
		<tag k="natural" v="valley" />
		<tag k="place" v="locality" />
		<tag k="ssr:stedsnr" v="199439" />
	</node>
	<node id="-697930" lat="68.2643749986" lon="16.6944555447">
		<tag k="name" v="Ramnhaugen" />
		<tag k="natural" v="hill" />
		<tag k="place" v="locality" />
		<tag k="ssr:stedsnr" v="160664" />
	</node>
	<node id="-697927" lat="68.2822888888" lon="16.621758334">
		<tag k="name" v="Larshallaren" />
		<tag k="place" v="locality" />
		<tag k="ssr:stedsnr" v="160628" />
	</node>
	<node id="-697926" lat="68.2873499988" lon="16.6049388783">
		<tag k="name" v="Storskaret" />
		<tag k="natural" v="valley" />
		<tag k="place" v="locality" />
		<tag k="ssr:stedsnr" v="160622" />
	</node>
	<node id="-697925" lat="68.2875916644" lon="16.7217888963">
		<tag k="fixme" v="consider natural=peak for the most distinct mountains in the district" />
		<tag k="name" v="Durmålsfjellet" />
		<tag k="natural" v="hill" />
		<tag k="place" v="locality" />
		<tag k="ssr:stedsnr" v="160607" />
	</node>
	<node id="-697923" lat="68.4134861119" lon="16.5693000027">
		<tag k="fixme" v="consider natural=peak for the most distinct mountains in the district" />
		<tag k="name" v="Korshamnhøgda" />
		<tag k="natural" v="hill" />
		<tag k="place" v="locality" />
		<tag k="ssr:stedsnr" v="160592" />
	</node>
	<node id="-697913" lat="68.3812722231" lon="16.8950611157">
		<tag k="name" v="Kollholtet" />
		<tag k="natural" v="hill" />
		<tag k="place" v="locality" />
		<tag k="ssr:stedsnr" v="148067" />
	</node>
	<node id="-697909" lat="68.3448333327" lon="16.9319944415">
		<tag k="name" v="Gammelhågen" />
		<tag k="natural" v="hill" />
		<tag k="place" v="locality" />
		<tag k="ssr:stedsnr" v="146342" />
	</node>
	<node id="-697908" lat="68.4123805541" lon="16.7645055489">
		<tag k="fixme" v="consider natural=peak for the most distinct mountains in the district" />
		<tag k="name" v="Åsen" />
		<tag k="natural" v="hill" />
		<tag k="place" v="locality" />
		<tag k="ssr:stedsnr" v="146254" />
	</node>
	<node id="-697906" lat="68.3939499994" lon="16.8337638796">
		<tag k="name" v="Slåttbakkan" />
		<tag k="natural" v="slope" />
		<tag k="place" v="locality" />
		<tag k="ssr:stedsnr" v="146227" />
	</node>
	<node id="-697905" lat="68.3189000031" lon="16.6768333434">
		<tag k="name" v="Kvanndalhaugen" />
		<tag k="natural" v="hill" />
		<tag k="place" v="locality" />
		<tag k="ssr:stedsnr" v="146115" />
	</node>
	<node id="-697901" lat="68.3768611074" lon="16.5971027674">
		<tag k="name" v="Storhaugen" />
		<tag k="natural" v="hill" />
		<tag k="place" v="locality" />
		<tag k="ssr:stedsnr" v="145170" />
	</node>
	<node id="-697900" lat="68.3271444424" lon="16.6542972263">
		<tag k="name" v="Syrgrasberget" />
		<tag k="natural" v="hill" />
		<tag k="place" v="locality" />
		<tag k="ssr:stedsnr" v="145147" />
	</node>
	<node id="-697898" lat="68.2662416637" lon="17.0172833299">
		<tag k="name" v="Bjørnbåsen" />
		<tag k="natural" v="valley" />
		<tag k="place" v="locality" />
		<tag k="ssr:stedsnr" v="143364" />
	</node>
	<node id="-697896" lat="68.258433332" lon="17.0484083425">
		<tag k="name" v="Floen" />
		<tag k="place" v="locality" />
		<tag k="ssr:stedsnr" v="143357" />
	</node>
	<node id="-697895" lat="68.2552861138" lon="17.0448111157">
		<tag k="name" v="Veggen" />
		<tag k="natural" v="hill" />
		<tag k="place" v="locality" />
		<tag k="ssr:stedsnr" v="143355" />
	</node>
	<node id="-697884" lat="68.3539391755" lon="16.8072169453">
		<tag k="name" v="Langblå" />
		<tag k="natural" v="hill" />
		<tag k="place" v="locality" />
		<tag k="ssr:stedsnr" v="138886" />
	</node>
	<node id="-697882" lat="68.2799694469" lon="16.8814000083">
		<tag k="name" v="Småtuva" />
		<tag k="natural" v="hill" />
		<tag k="place" v="locality" />
		<tag k="ssr:stedsnr" v="138835" />
	</node>
	<node id="-697881" lat="68.2999749977" lon="16.8269833279">
		<tag k="name" v="Bálatvuopmi" />
		<tag k="name:se" v="Bálatvuopmi" />
		<tag k="natural" v="valley" />
		<tag k="old_name:se" v="Balagvuobmi" />
		<tag k="place" v="locality" />
		<tag k="ssr:stedsnr" v="138830" />
	</node>
	<node id="-697880" lat="68.3001694406" lon="17.0833638793">
		<tag k="fixme" v="consider natural=peak for the most distinct mountains in the district" />
		<tag k="name" v="Mataloftet" />
		<tag k="natural" v="hill" />
		<tag k="place" v="locality" />
		<tag k="ssr:stedsnr" v="138821" />
	</node>
	<node id="-697877" lat="68.2595388884" lon="16.9916416539">
		<tag k="name" v="Botneidet" />
		<tag k="natural" v="valley" />
		<tag k="place" v="locality" />
		<tag k="ssr:stedsnr" v="138796" />
	</node>
	<node id="-697871" lat="68.3809694468" lon="16.6527388934">
		<tag k="fixme" v="consider natural=peak for the most distinct mountains in the district" />
		<tag k="name" v="Snaua" />
		<tag k="natural" v="hill" />
		<tag k="place" v="locality" />
		<tag k="ssr:stedsnr" v="138745" />
	</node>
	<node id="-697864" lat="68.1382972204" lon="16.7858361083">
		<tag k="name" v="Saltelvdalen" />
		<tag k="natural" v="valley" />
		<tag k="place" v="locality" />
		<tag k="ssr:stedsnr" v="138628" />
	</node>
	<node id="-697856" lat="68.2145222224" lon="16.6681888854">
		<tag k="fixme" v="consider natural=peak for the most distinct mountains in the district" />
		<tag k="name" v="Karikollen" />
		<tag k="natural" v="hill" />
		<tag k="place" v="locality" />
		<tag k="ssr:stedsnr" v="138523" />
	</node>
	<node id="-697847" lat="68.1631666652" lon="16.8935388874">
		<tag k="fixme" v="multiple name tags, choose one and add the other to alt_name; consider natural=peak for the most distinct mountains in the district" />
		<tag k="name" v="Botnfjellet;Skårvassfjellet" />
		<tag k="natural" v="hill" />
		<tag k="place" v="locality" />
		<tag k="ssr:stedsnr" v="137773" />
	</node>
	<node id="-697836" lat="68.3209055522" lon="16.6009444428">
		<tag k="name" v="Fosshaugen" />
		<tag k="natural" v="hill" />
		<tag k="place" v="locality" />
		<tag k="ssr:stedsnr" v="100696" />
	</node>
	<node id="-697835" lat="68.3471027793" lon="16.5765777827">
		<tag k="name" v="Skjellhaugen" />
		<tag k="natural" v="hill" />
		<tag k="place" v="locality" />
		<tag k="ssr:stedsnr" v="100685" />
	</node>
	<node id="-697834" lat="68.3341342229" lon="16.706295738">
		<tag k="name" v="Ellenhaugen" />
		<tag k="natural" v="hill" />
		<tag k="place" v="locality" />
		<tag k="ssr:stedsnr" v="100682" />
	</node>
	<node id="-697833" lat="68.2753527733" lon="16.658097231">
		<tag k="fixme" v="consider natural=peak for the most distinct mountains in the district" />
		<tag k="name" v="Sørfjell" />
		<tag k="natural" v="hill" />
		<tag k="place" v="locality" />
		<tag k="ssr:stedsnr" v="100643" />
	</node>
	<node id="-697830" lat="68.2466027779" lon="16.7247500043">
		<tag k="name" v="Forrhaugen" />
		<tag k="natural" v="hill" />
		<tag k="place" v="locality" />
		<tag k="ssr:stedsnr" v="100604" />
	</node>
	<node id="-697828" lat="68.3795851493" lon="16.7805053072">
		<tag k="fixme" v="consider natural=peak for the most distinct mountains in the district" />
		<tag k="name" v="Vassåshøgda" />
		<tag k="natural" v="hill" />
		<tag k="place" v="locality" />
		<tag k="ssr:stedsnr" v="100573" />
	</node>
	<node id="-697826" lat="68.3300611105" lon="16.2488638892">
		<tag k="fixme" v="consider natural=peak for the most distinct mountains in the district" />
		<tag k="name" v="Resmålsheia" />
		<tag k="natural" v="hill" />
		<tag k="place" v="locality" />
		<tag k="ssr:stedsnr" v="100360" />
	</node>
	<node id="-697825" lat="68.3164416709" lon="16.2368888955">
		<tag k="name" v="Vedhøggan" />
		<tag k="natural" v="slope" />
		<tag k="place" v="locality" />
		<tag k="ssr:stedsnr" v="100355" />
	</node>
	<node id="-697817" lat="68.3570027742" lon="16.1086055644">
		<tag k="name" v="Sjyhågen" />
		<tag k="natural" v="hill" />
		<tag k="place" v="locality" />
		<tag k="ssr:stedsnr" v="100218" />
	</node>
	<node id="-697815" lat="68.131530552" lon="16.7651027856">
		<tag k="fixme" v="consider natural=peak for the most distinct mountains in the district" />
		<tag k="name" v="Tauselvtinden - Niejddatjåhkkå" />
		<tag k="name:no" v="Tauselvtinden" />
		<tag k="name:smj" v="Niejddatjåhkkå" />
		<tag k="natural" v="hill" />
		<tag k="old_name:smj" v="Nieidačohkka" />
		<tag k="place" v="locality" />
		<tag k="ssr:stedsnr" v="88525" />
	</node>
	<node id="-697814" lat="68.3469931568" lon="16.8028555138">
		<tag k="fixme" v="consider natural=peak for the most distinct mountains in the district" />
		<tag k="name" v="Rundåsen" />
		<tag k="natural" v="hill" />
		<tag k="place" v="locality" />
		<tag k="ssr:stedsnr" v="86449" />
	</node>
	<node id="-697812" lat="68.3551249983" lon="16.7866972323">
		<tag k="name" v="Trolldalen" />
		<tag k="natural" v="valley" />
		<tag k="place" v="locality" />
		<tag k="ssr:stedsnr" v="86435" />
	</node>
	<node id="-697810" lat="68.4073944487" lon="16.7495861138">
		<tag k="name" v="Tuva" />
		<tag k="natural" v="hill" />
		<tag k="place" v="locality" />
		<tag k="ssr:stedsnr" v="86311" />
	</node>
	<node id="-697809" lat="68.3749333363" lon="16.8629750005">
		<tag k="name" v="Hallaren" />
		<tag k="place" v="locality" />
		<tag k="ssr:stedsnr" v="86293" />
	</node>
	<node id="-697807" lat="68.3949791846" lon="16.8124301631">
		<tag k="name" v="Langhola" />
		<tag k="natural" v="valley" />
		<tag k="place" v="locality" />
		<tag k="ssr:stedsnr" v="86272" />
	</node>
	<node id="-697806" lat="68.3856633919" lon="16.8219102291">
		<tag k="name" v="Ringsletta" />
		<tag k="place" v="locality" />
		<tag k="ssr:stedsnr" v="86263" />
	</node>
	<node id="-697805" lat="68.40279722" lon="16.6564361176">
		<tag k="name" v="Trolldalsbakken" />
		<tag k="natural" v="slope" />
		<tag k="place" v="locality" />
		<tag k="ssr:stedsnr" v="86242" />
	</node>
	<node id="-697804" lat="68.3212055545" lon="16.7158027827">
		<tag k="name" v="Vinterhola" />
		<tag k="natural" v="valley" />
		<tag k="place" v="locality" />
		<tag k="ssr:stedsnr" v="86175" />
	</node>
	<node id="-697803" lat="68.3268472191" lon="16.7994611052">
		<tag k="name" v="Skjåhaugen" />
		<tag k="natural" v="hill" />
		<tag k="place" v="locality" />
		<tag k="ssr:stedsnr" v="85350" />
	</node>
	<node id="-697802" lat="68.3920666677" lon="16.6100388855">
		<tag k="name" v="Tjærmilåsmoen" />
		<tag k="place" v="locality" />
		<tag k="ssr:stedsnr" v="85179" />
	</node>
	<node id="-697801" lat="68.3848722239" lon="16.5922305599">
		<tag k="fixme" v="consider natural=peak for the most distinct mountains in the district" />
		<tag k="name" v="Tjærmilåsen" />
		<tag k="natural" v="hill" />
		<tag k="place" v="locality" />
		<tag k="ssr:stedsnr" v="85180" />
	</node>
	<node id="-697800" lat="68.4024499997" lon="16.6927722191">
		<tag k="name" v="Skjellmoen" />
		<tag k="place" v="locality" />
		<tag k="ssr:stedsnr" v="85174" />
	</node>
	<node id="-697790" lat="68.3441444427" lon="16.4177583338">
		<tag k="fixme" v="consider natural=peak for the most distinct mountains in the district" />
		<tag k="name" v="Framfjellet" />
		<tag k="natural" v="hill" />
		<tag k="place" v="locality" />
		<tag k="ssr:stedsnr" v="82940" />
	</node>
	<node id="-697788" lat="68.3857194465" lon="16.4337166752">
		<tag k="name" v="Nordfjellet" />
		<tag k="natural" v="hill" />
		<tag k="place" v="locality" />
		<tag k="ssr:stedsnr" v="82934" />
	</node>
	<node id="-697784" lat="68.2507638918" lon="17.0510388967">
		<tag k="name" v="Humpen" />
		<tag k="natural" v="hill" />
		<tag k="place" v="locality" />
		<tag k="ssr:stedsnr" v="82338" />
	</node>
	<node id="-697781" lat="68.3805666689" lon="16.8347861194">
		<tag k="name" v="Skoghøgda" />
		<tag k="natural" v="hill" />
		<tag k="place" v="locality" />
		<tag k="ssr:stedsnr" v="79954" />
	</node>
	<node id="-697778" lat="68.3387444462" lon="16.9527138883">
		<tag k="name" v="Steinheia" />
		<tag k="natural" v="slope" />
		<tag k="place" v="locality" />
		<tag k="ssr:stedsnr" v="79893" />
	</node>
	<node id="-697765" lat="68.2823527781" lon="16.9711388947">
		<tag k="fixme" v="consider natural=peak for the most distinct mountains in the district" />
		<tag k="name" v="Eilertinden" />
		<tag k="natural" v="hill" />
		<tag k="place" v="locality" />
		<tag k="ssr:stedsnr" v="78849" />
	</node>
	<node id="-697764" lat="68.2780999972" lon="16.8863805529">
		<tag k="fixme" v="consider natural=peak for the most distinct mountains in the district" />
		<tag k="name" v="Durmålsfjellet" />
		<tag k="natural" v="hill" />
		<tag k="place" v="locality" />
		<tag k="ssr:stedsnr" v="78847" />
	</node>
	<node id="-697763" lat="68.2765166708" lon="16.8649166678">
		<tag k="name" v="Forhaugen" />
		<tag k="natural" v="hill" />
		<tag k="place" v="locality" />
		<tag k="ssr:stedsnr" v="78843" />
	</node>
	<node id="-697762" lat="68.2562055526" lon="16.9167805601">
		<tag k="name" v="Storlia" />
		<tag k="natural" v="slope" />
		<tag k="place" v="locality" />
		<tag k="ssr:stedsnr" v="78822" />
	</node>
	<node id="-697761" lat="68.2621027824" lon="16.8387083226">
		<tag k="name" v="Middagsbergan" />
		<tag k="natural" v="hill" />
		<tag k="place" v="locality" />
		<tag k="ssr:stedsnr" v="78797" />
	</node>
	<node id="-697750" lat="68.3214138866" lon="16.3867722214">
		<tag k="name" v="Mobakken" />
		<tag k="natural" v="hill" />
		<tag k="place" v="locality" />
		<tag k="ssr:stedsnr" v="78613" />
	</node>
	<node id="-697740" lat="68.2580250005" lon="16.7254444496">
		<tag k="name" v="Melkedalen" />
		<tag k="natural" v="valley" />
		<tag k="place" v="locality" />
		<tag k="ssr:stedsnr" v="77580" />
	</node>
	<node id="-697739" lat="68.2013000001" lon="16.7024583315">
		<tag k="fixme" v="consider natural=peak for the most distinct mountains in the district" />
		<tag k="name" v="Lavfjellet" />
		<tag k="natural" v="hill" />
		<tag k="place" v="locality" />
		<tag k="ssr:stedsnr" v="77542" />
	</node>
	<node id="-697737" lat="68.2151555577" lon="16.7904638877">
		<tag k="alt_name" v="Hjerthaugen, litle" />
		<tag k="fixme" v="consider natural=peak for the most distinct mountains in the district" />
		<tag k="name" v="Litle Hjerthaugen" />
		<tag k="natural" v="hill" />
		<tag k="place" v="locality" />
		<tag k="ssr:stedsnr" v="77525" />
	</node>
	<node id="-697734" lat="68.2358638916" lon="16.6582777869">
		<tag k="name" v="Jernlia" />
		<tag k="natural" v="slope" />
		<tag k="place" v="locality" />
		<tag k="ssr:stedsnr" v="77514" />
	</node>
	<node id="-697732" lat="68.3418166681" lon="16.1480055544">
		<tag k="fixme" v="consider natural=peak for the most distinct mountains in the district" />
		<tag k="name" v="Nordfjellet" />
		<tag k="natural" v="hill" />
		<tag k="place" v="locality" />
		<tag k="ssr:stedsnr" v="77326" />
	</node>
	<node id="-697718" lat="68.2967777796" lon="16.5976055629">
		<tag k="name" v="Kuberget" />
		<tag k="natural" v="hill" />
		<tag k="place" v="locality" />
		<tag k="ssr:stedsnr" v="39651" />
	</node>
	<node id="-697717" lat="68.3028972236" lon="16.6113666545">
		<tag k="fixme" v="consider natural=peak for the most distinct mountains in the district" />
		<tag k="name" v="Tverråsen" />
		<tag k="natural" v="hill" />
		<tag k="place" v="locality" />
		<tag k="ssr:stedsnr" v="39650" />
	</node>
	<node id="-697716" lat="68.2606999976" lon="16.6465583248">
		<tag k="fixme" v="consider natural=peak for the most distinct mountains in the district" />
		<tag k="name" v="Sørfjellet" />
		<tag k="natural" v="hill" />
		<tag k="place" v="locality" />
		<tag k="ssr:stedsnr" v="39605" />
	</node>
	<node id="-697714" lat="68.4125333314" lon="16.5638027653">
		<tag k="name" v="Korshamnhalsen" />
		<tag k="natural" v="valley" />
		<tag k="place" v="locality" />
		<tag k="ssr:stedsnr" v="39579" />
	</node>
	<node id="-697712" lat="68.2338694456" lon="16.6864694432">
		<tag k="fixme" v="consider natural=peak for the most distinct mountains in the district" />
		<tag k="name" v="Sørfjellet" />
		<tag k="natural" v="hill" />
		<tag k="place" v="locality" />
		<tag k="ssr:stedsnr" v="39550" />
	</node>
	<node id="-697711" lat="68.264438891" lon="16.7564249884">
		<tag k="fixme" v="consider natural=peak for the most distinct mountains in the district" />
		<tag k="name" v="Resmaskollen" />
		<tag k="natural" v="hill" />
		<tag k="place" v="locality" />
		<tag k="ssr:stedsnr" v="39459" />
	</node>
	<node id="-697708" lat="68.271694444" lon="16.4338805639">
		<tag k="name" v="Orhågen" />
		<tag k="natural" v="hill" />
		<tag k="place" v="locality" />
		<tag k="ssr:stedsnr" v="39309" />
	</node>
	<node id="-697707" lat="68.2848444448" lon="16.4206055528">
		<tag k="name" v="Storhågen" />
		<tag k="natural" v="hill" />
		<tag k="place" v="locality" />
		<tag k="ssr:stedsnr" v="39280" />
	</node>
	<node id="-697705" lat="68.3408944433" lon="16.2038333251">
		<tag k="fixme" v="consider natural=peak for the most distinct mountains in the district" />
		<tag k="name" v="Revelsøyfjellet" />
		<tag k="natural" v="hill" />
		<tag k="place" v="locality" />
		<tag k="ssr:stedsnr" v="39214" />
	</node>
	<node id="-697704" lat="68.3933194408" lon="16.8642916662">
		<tag k="name" v="Flatberget" />
		<tag k="natural" v="hill" />
		<tag k="place" v="locality" />
		<tag k="ssr:stedsnr" v="27284" />
	</node>
	<node id="-697703" lat="68.389266671" lon="16.8547638893">
		<tag k="name" v="Olmoshesjemoen" />
		<tag k="place" v="locality" />
		<tag k="ssr:stedsnr" v="27283" />
	</node>
	<node id="-697700" lat="68.3222583367" lon="16.7311444533">
		<tag k="name" v="Mellomhøgda" />
		<tag k="natural" v="hill" />
		<tag k="place" v="locality" />
		<tag k="ssr:stedsnr" v="25414" />
	</node>
	<node id="-697695" lat="68.4060916668" lon="16.7564583353">
		<tag k="fixme" v="consider natural=peak for the most distinct mountains in the district" />
		<tag k="name" v="Høgkruna" />
		<tag k="natural" v="hill" />
		<tag k="ssr:stedsnr" v="25293" />
	</node>
	<node id="-697690" lat="68.3940055578" lon="16.8148861055">
		<tag k="fixme" v="consider natural=peak for the most distinct mountains in the district" />
		<tag k="name" v="Middagstuva" />
		<tag k="natural" v="hill" />
		<tag k="place" v="locality" />
		<tag k="ssr:stedsnr" v="25267" />
	</node>
	<node id="-697688" lat="68.3185555588" lon="16.6892750029">
		<tag k="fixme" v="consider natural=peak for the most distinct mountains in the district" />
		<tag k="name" v="Tverråskollen" />
		<tag k="natural" v="hill" />
		<tag k="place" v="locality" />
		<tag k="ssr:stedsnr" v="25161" />
	</node>
	<node id="-697684" lat="68.3922166659" lon="16.7221222205">
		<tag k="name" v="Moan" />
		<tag k="place" v="locality" />
		<tag k="ssr:stedsnr" v="24195" />
	</node>
	<node id="-697683" lat="68.3979638907" lon="16.6967027699">
		<tag k="loc_name" v="Skavlihøgda" />
		<tag k="name" v="Skavikhøgda" />
		<tag k="natural" v="hill" />
		<tag k="place" v="locality" />
		<tag k="ssr:stedsnr" v="24163" />
	</node>
	<node id="-697682" lat="68.3971000006" lon="16.6528944484">
		<tag k="fixme" v="consider natural=peak for the most distinct mountains in the district" />
		<tag k="name" v="Mikkelåsen" />
		<tag k="natural" v="hill" />
		<tag k="place" v="locality" />
		<tag k="ssr:stedsnr" v="24157" />
	</node>
	<node id="-697681" lat="68.3635777731" lon="16.6462694526">
		<tag k="name" v="Gambakken" />
		<tag k="natural" v="slope" />
		<tag k="place" v="locality" />
		<tag k="ssr:stedsnr" v="24123" />
	</node>
	<node id="-697680" lat="68.3712194429" lon="16.6414499877">
		<tag k="fixme" v="consider natural=peak for the most distinct mountains in the district" />
		<tag k="name" v="Ørntuva" />
		<tag k="natural" v="hill" />
		<tag k="place" v="locality" />
		<tag k="ssr:stedsnr" v="24121" />
	</node>
	<node id="-697679" lat="68.3239666651" lon="16.6704583401">
		<tag k="name" v="Furuholthaugen" />
		<tag k="natural" v="hill" />
		<tag k="place" v="locality" />
		<tag k="ssr:stedsnr" v="24103" />
	</node>
	<node id="-697675" lat="68.3567361071" lon="16.2760972111">
		<tag k="name" v="Finnkorhallen" />
		<tag k="natural" v="hill" />
		<tag k="place" v="locality" />
		<tag k="ssr:stedsnr" v="22533" />
	</node>
	<node id="-697674" lat="68.365366663" lon="16.3501944318">
		<tag k="fixme" v="consider natural=peak for the most distinct mountains in the district" />
		<tag k="name" v="Litletinden" />
		<tag k="natural" v="hill" />
		<tag k="ssr:stedsnr" v="22525" />
	</node>
	<node id="-697673" lat="68.2562777732" lon="17.0270250045">
		<tag k="name" v="Storegga" />
		<tag k="natural" v="ridge" />
		<tag k="place" v="locality" />
		<tag k="ssr:stedsnr" v="22384" />
	</node>
	<node id="-697668" lat="68.3557416667" lon="17.0666166674">
		<tag k="name" v="Malmhaugen" />
		<tag k="natural" v="hill" />
		<tag k="place" v="locality" />
		<tag k="ssr:stedsnr" v="17948" />
	</node>
	<node id="-697665" lat="68.3042361152" lon="17.1277194379">
		<tag k="alt_name" v="Eiterdalen" />
		<tag k="name" v="Eiterelvdalen" />
		<tag k="natural" v="valley" />
		<tag k="place" v="locality" />
		<tag k="ssr:stedsnr" v="17842" />
	</node>
	<node id="-697664" lat="68.278602778" lon="17.109974992">
		<tag k="fixme" v="consider natural=peak for the most distinct mountains in the district" />
		<tag k="loc_name" v="Doaresoaivve" />
		<tag k="name" v="Tverrfjellet" />
		<tag k="natural" v="hill" />
		<tag k="place" v="locality" />
		<tag k="ssr:stedsnr" v="17840" />
	</node>
	<node id="-697661" lat="68.4040638929" lon="16.4780361075">
		<tag k="name" v="Inner-Migan" />
		<tag k="place" v="locality" />
		<tag k="ssr:stedsnr" v="17772" />
	</node>
	<node id="-697660" lat="68.4077102232" lon="16.7602414574">
		<tag k="fixme" v="consider natural=peak for the most distinct mountains in the district" />
		<tag k="name" v="Djupvikåsen" />
		<tag k="natural" v="hill" />
		<tag k="place" v="locality" />
		<tag k="ssr:stedsnr" v="17769" />
	</node>
	<node id="-697657" lat="68.2145083368" lon="17.0004444384">
		<tag k="fixme" v="consider natural=peak for the most distinct mountains in the district" />
		<tag k="name" v="Botnfjellet" />
		<tag k="natural" v="hill" />
		<tag k="place" v="locality" />
		<tag k="ssr:stedsnr" v="17735" />
	</node>
	<node id="-697653" lat="68.3343055524" lon="16.2568166709">
		<tag k="alt_name" v="Straumøykollen" />
		<tag k="name" v="Straumsøykollen" />
		<tag k="natural" v="hill" />
		<tag k="place" v="locality" />
		<tag k="ssr:stedsnr" v="17700" />
	</node>
	<node id="-697650" lat="68.3316500038" lon="16.6365361086">
		<tag k="name" v="Kvitbergan" />
		<tag k="natural" v="hill" />
		<tag k="place" v="locality" />
		<tag k="ssr:stedsnr" v="17683" />
	</node>
	<node id="-697649" lat="68.325158329" lon="16.7714388923">
		<tag k="fixme" v="consider natural=peak for the most distinct mountains in the district" />
		<tag k="name" v="Høgbakkan" />
		<tag k="natural" v="hill" />
		<tag k="place" v="locality" />
		<tag k="ssr:stedsnr" v="17677" />
	</node>
	<node id="-697648" lat="68.317569444" lon="16.5180277864">
		<tag k="fixme" v="consider natural=peak for the most distinct mountains in the district" />
		<tag k="name" v="Kufjellet - Gussaoajvve" />
		<tag k="name:no" v="Kufjellet" />
		<tag k="name:smj" v="Gussaoajvve" />
		<tag k="natural" v="hill" />
		<tag k="old_name:smj" v="Gussoaivi" />
		<tag k="place" v="locality" />
		<tag k="ssr:stedsnr" v="17655" />
	</node>
	<node id="-697646" lat="68.3019000028" lon="16.7249666658">
		<tag k="name" v="Trangdalen" />
		<tag k="natural" v="valley" />
		<tag k="place" v="locality" />
		<tag k="ssr:stedsnr" v="17625" />
	</node>
	<node id="-697639" lat="68.2017972242" lon="16.6021444413">
		<tag k="name" v="Kistbotn" />
		<tag k="natural" v="valley" />
		<tag k="place" v="locality" />
		<tag k="ssr:stedsnr" v="17535" />
	</node>
	<node id="-697632" lat="68.3017138876" lon="16.202491656">
		<tag k="fixme" v="consider natural=peak for the most distinct mountains in the district" />
		<tag k="loc_name" v="Vallasa" />
		<tag k="name" v="Valletinden" />
		<tag k="natural" v="hill" />
		<tag k="place" v="locality" />
		<tag k="ssr:stedsnr" v="17377" />
	</node>
	<node id="-697623" lat="68.2655305521" lon="16.4779750024">
		<tag k="fixme" v="consider natural=peak for the most distinct mountains in the district" />
		<tag k="name" v="Henriknesfjellet" />
		<tag k="natural" v="hill" />
		<tag k="place" v="locality" />
		<tag k="ssr:stedsnr" v="16528" />
	</node>
	<node id="-697614" lat="68.3751933472" lon="16.8342229361">
		<tag k="name" v="Lomvassbakkan" />
		<tag k="natural" v="slope" />
		<tag k="place" v="locality" />
		<tag k="ssr:stedsnr" v="991019" />
	</node>
	<node id="-697612" lat="68.3852404071" lon="16.7770494365">
		<tag k="name" v="Kvanndalen" />
		<tag k="natural" v="valley" />
		<tag k="place" v="locality" />
		<tag k="ssr:stedsnr" v="991008" />
	</node>
	<node id="-697597" lat="68.3584111121" lon="17.0020555523">
		<tag k="name" v="Rånkleiva" />
		<tag k="natural" v="slope" />
		<tag k="place" v="locality" />
		<tag k="ssr:stedsnr" v="889894" />
	</node>
	<node id="-697594" lat="68.2929583332" lon="16.6215722295">
		<tag k="name" v="Hestberget" />
		<tag k="natural" v="hill" />
		<tag k="place" v="locality" />
		<tag k="ssr:stedsnr" v="889655" />
	</node>
	<node id="-697590" lat="68.4039361144" lon="16.5340611121">
		<tag k="name" v="Jøvikeidet" />
		<tag k="natural" v="slope" />
		<tag k="place" v="locality" />
		<tag k="ssr:stedsnr" v="889621" />
	</node>
	<node id="-697583" lat="68.3174138896" lon="17.0661249904">
		<tag k="name" v="Aspehågen" />
		<tag k="natural" v="hill" />
		<tag k="place" v="locality" />
		<tag k="ssr:stedsnr" v="888931" />
	</node>
	<node id="-697579" lat="68.324380559" lon="17.0570972322">
		<tag k="name" v="Josvadalen" />
		<tag k="natural" v="valley" />
		<tag k="place" v="locality" />
		<tag k="ssr:stedsnr" v="403931" />
	</node>
	<node id="-697577" lat="68.3170916705" lon="16.6381110996">
		<tag k="fixme" v="consider natural=peak for the most distinct mountains in the district" />
		<tag k="name" v="Djupdalåsen" />
		<tag k="natural" v="hill" />
		<tag k="place" v="locality" />
		<tag k="ssr:stedsnr" v="403724" />
	</node>
	<node id="-697575" lat="68.2851361136" lon="16.6784333299">
		<tag k="fixme" v="consider natural=peak for the most distinct mountains in the district" />
		<tag k="name" v="Langåsen" />
		<tag k="natural" v="hill" />
		<tag k="place" v="locality" />
		<tag k="ssr:stedsnr" v="403622" />
	</node>
	<node id="-697573" lat="68.3527777803" lon="16.5296388931">
		<tag k="name" v="Steinhaugen" />
		<tag k="natural" v="hill" />
		<tag k="place" v="locality" />
		<tag k="ssr:stedsnr" v="403612" />
	</node>
	<node id="-697566" lat="68.3287250026" lon="16.7768444399">
		<tag k="fixme" v="consider natural=peak for the most distinct mountains in the district" />
		<tag k="name" v="Bjørkåsen" />
		<tag k="natural" v="hill" />
		<tag k="place" v="locality" />
		<tag k="ssr:stedsnr" v="391127" />
	</node>
	<node id="-697564" lat="68.389200998" lon="16.7914224904">
		<tag k="name" v="Kvanndalsskaret" />
		<tag k="natural" v="valley" />
		<tag k="place" v="locality" />
		<tag k="ssr:stedsnr" v="390302" />
	</node>
	<node id="-697562" lat="68.3554722202" lon="16.9976777863">
		<tag k="name" v="Rånkleivaksla" />
		<tag k="natural" v="ridge" />
		<tag k="place" v="locality" />
		<tag k="ssr:stedsnr" v="389483" />
	</node>
	<node id="-697561" lat="68.3347805586" lon="16.7563638963">
		<tag k="name" v="Blombakkan" />
		<tag k="natural" v="slope" />
		<tag k="place" v="locality" />
		<tag k="ssr:stedsnr" v="389448" />
	</node>
	<node id="-697557" lat="68.3676972253" lon="16.8707111151">
		<tag k="name" v="Steinvegmoen" />
		<tag k="place" v="locality" />
		<tag k="ssr:stedsnr" v="389289" />
	</node>
	<node id="-697556" lat="68.362144446" lon="16.8436527719">
		<tag k="name" v="Arvekollhøgda" />
		<tag k="natural" v="hill" />
		<tag k="place" v="locality" />
		<tag k="ssr:stedsnr" v="389288" />
	</node>
	<node id="-697555" lat="68.3657527804" lon="16.8935972302">
		<tag k="name" v="Famnvedberget" />
		<tag k="natural" v="hill" />
		<tag k="place" v="locality" />
		<tag k="ssr:stedsnr" v="389272" />
	</node>
	<node id="-697554" lat="68.3990937378" lon="16.8167708323">
		<tag k="loc_name" v="Fordehågen" />
		<tag k="name" v="Fordehaugen" />
		<tag k="natural" v="hill" />
		<tag k="place" v="locality" />
		<tag k="ssr:stedsnr" v="389260" />
	</node>
	<node id="-697553" lat="68.384448755" lon="16.8103791073">
		<tag k="name" v="Trivassbakkan" />
		<tag k="natural" v="slope" />
		<tag k="place" v="locality" />
		<tag k="ssr:stedsnr" v="389249" />
	</node>
	<node id="-697549" lat="68.3856722199" lon="16.631152787">
		<tag k="name" v="Brønnen" />
		<tag k="place" v="locality" />
		<tag k="ssr:stedsnr" v="388195" />
	</node>
	<node id="-697548" lat="68.3906916702" lon="16.6241638933">
		<tag k="name" v="Steikarhola" />
		<tag k="natural" v="valley" />
		<tag k="place" v="locality" />
		<tag k="ssr:stedsnr" v="388188" />
	</node>
	<node id="-697547" lat="68.3284611125" lon="16.6668972324">
		<tag k="name" v="Muskubakkhaugen" />
		<tag k="natural" v="hill" />
		<tag k="place" v="locality" />
		<tag k="ssr:stedsnr" v="388120" />
	</node>
	<node id="-697543" lat="68.3836444472" lon="16.3898972125">
		<tag k="name" v="Varden" />
		<tag k="natural" v="hill" />
		<tag k="place" v="locality" />
		<tag k="ssr:stedsnr" v="385958" />
	</node>
	<node id="-697540" lat="68.3285027802" lon="16.3580527678">
		<tag k="name" v="Nausthaugen" />
		<tag k="natural" v="hill" />
		<tag k="place" v="locality" />
		<tag k="ssr:stedsnr" v="385555" />
	</node>
	<node id="-697535" lat="68.3348055528" lon="16.9606416531">
		<tag k="fixme" v="consider natural=peak for the most distinct mountains in the district" />
		<tag k="name" v="Arnesfjellet" />
		<tag k="natural" v="hill" />
		<tag k="place" v="locality" />
		<tag k="ssr:stedsnr" v="382843" />
	</node>
	<node id="-697532" lat="68.3698416647" lon="16.844038883">
		<tag k="name" v="Rundmyrhaugen" />
		<tag k="natural" v="hill" />
		<tag k="place" v="locality" />
		<tag k="ssr:stedsnr" v="381918" />
	</node>
	<node id="-697530" lat="68.3126527765" lon="17.0928749966">
		<tag k="name" v="Kvartsfjellet" />
		<tag k="natural" v="hill" />
		<tag k="place" v="locality" />
		<tag k="ssr:stedsnr" v="381881" />
	</node>
	<node id="-697529" lat="68.3782277736" lon="16.7509388923">
		<tag k="name" v="Nilsheimen" />
		<tag k="place" v="locality" />
		<tag k="ssr:stedsnr" v="381768" />
	</node>
	<node id="-697526" lat="68.3932999975" lon="16.5344916689">
		<tag k="name" v="Bjørnbakken" />
		<tag k="natural" v="slope" />
		<tag k="place" v="locality" />
		<tag k="ssr:stedsnr" v="381757" />
	</node>
	<node id="-697525" lat="68.3625305565" lon="16.6391750077">
		<tag k="fixme" v="consider natural=peak for the most distinct mountains in the district" />
		<tag k="name" v="Jojensafjellet" />
		<tag k="natural" v="hill" />
		<tag k="place" v="locality" />
		<tag k="ssr:stedsnr" v="381746" />
	</node>
	<node id="-697524" lat="68.363233334" lon="16.6115222104">
		<tag k="fixme" v="consider natural=peak for the most distinct mountains in the district" />
		<tag k="name" v="Durmålsfjellet" />
		<tag k="natural" v="hill" />
		<tag k="place" v="locality" />
		<tag k="ssr:stedsnr" v="381745" />
	</node>
	<node id="-697514" lat="68.3314972265" lon="16.7554777686">
		<tag k="name" v="Mørkhola" />
		<tag k="natural" v="valley" />
		<tag k="place" v="locality" />
		<tag k="ssr:stedsnr" v="381691" />
	</node>
	<node id="-697512" lat="68.3401916666" lon="16.4586027814">
		<tag k="name" v="Ringvassbotn" />
		<tag k="natural" v="valley" />
		<tag k="place" v="locality" />
		<tag k="ssr:stedsnr" v="381684" />
	</node>
	<node id="-697510" lat="68.3285027799" lon="16.4892777812">
		<tag k="name" v="Andersskaret" />
		<tag k="natural" v="valley" />
		<tag k="place" v="locality" />
		<tag k="ssr:stedsnr" v="381658" />
	</node>
	<node id="-697507" lat="68.3209527797" lon="16.4997472136">
		<tag k="fixme" v="consider natural=peak for the most distinct mountains in the district" />
		<tag k="name" v="Høghumpen" />
		<tag k="natural" v="hill" />
		<tag k="place" v="locality" />
		<tag k="ssr:stedsnr" v="381643" />
	</node>
	<node id="-697501" lat="68.2911250028" lon="16.2280416559">
		<tag k="name" v="Skardalen" />
		<tag k="natural" v="valley" />
		<tag k="place" v="locality" />
		<tag k="ssr:stedsnr" v="381595" />
	</node>
	<node id="-697497" lat="68.3960675022" lon="16.7273703916">
		<tag k="alt_name" v="Lauvsletta" />
		<tag k="loc_name" v="Løsletta" />
		<tag k="name" v="Løvsletta" />
		<tag k="place" v="locality" />
		<tag k="ssr:stedsnr" v="380765" />
	</node>
	<node id="-697496" lat="68.1912194457" lon="16.9846666665">
		<tag k="fixme" v="consider natural=peak for the most distinct mountains in the district" />
		<tag k="name" v="Røvasstinden" />
		<tag k="natural" v="hill" />
		<tag k="place" v="locality" />
		<tag k="ssr:stedsnr" v="380714" />
	</node>
	<node id="-697477" lat="68.3091555562" lon="17.0742055532">
		<tag k="name" v="Moen" />
		<tag k="place" v="locality" />
		<tag k="ssr:stedsnr" v="342894" />
	</node>
	<node id="-697476" lat="68.3286444402" lon="16.6190861129">
		<tag k="name" v="Stordalen" />
		<tag k="natural" v="valley" />
		<tag k="place" v="locality" />
		<tag k="ssr:stedsnr" v="342687" />
	</node>
	<node id="-697474" lat="68.2985694435" lon="16.6385749945">
		<tag k="name" v="Svartberget" />
		<tag k="natural" v="hill" />
		<tag k="place" v="locality" />
		<tag k="ssr:stedsnr" v="342659" />
	</node>
	<node id="-697473" lat="68.3720027753" lon="16.659480559">
		<tag k="name" v="Holmvassbakkan" />
		<tag k="natural" v="slope" />
		<tag k="place" v="locality" />
		<tag k="ssr:stedsnr" v="342655" />
	</node>
	<node id="-697470" lat="68.2690111125" lon="16.7024972184">
		<tag k="fixme" v="consider natural=peak for the most distinct mountains in the district" />
		<tag k="name" v="Langåsen" />
		<tag k="natural" v="hill" />
		<tag k="place" v="locality" />
		<tag k="ssr:stedsnr" v="342607" />
	</node>
	<node id="-697469" lat="68.2786111121" lon="16.7034805463">
		<tag k="fixme" v="consider natural=peak for the most distinct mountains in the district" />
		<tag k="name" v="Grunnkollen" />
		<tag k="natural" v="hill" />
		<tag k="place" v="locality" />
		<tag k="ssr:stedsnr" v="342604" />
	</node>
	<node id="-697467" lat="68.3831944424" lon="16.5563333323">
		<tag k="fixme" v="consider natural=peak for the most distinct mountains in the district" />
		<tag k="name" v="Grønlifjellet" />
		<tag k="natural" v="hill" />
		<tag k="place" v="locality" />
		<tag k="ssr:stedsnr" v="342585" />
	</node>
	<node id="-697462" lat="68.3201305527" lon="16.2110083301">
		<tag k="name" v="Kaldelvdalen" />
		<tag k="natural" v="valley" />
		<tag k="place" v="locality" />
		<tag k="ssr:stedsnr" v="342353" />
	</node>
	<node id="-697454" lat="68.4086694401" lon="16.6257777817">
		<tag k="name" v="Gamhaugan" />
		<tag k="natural" v="hill" />
		<tag k="place" v="locality" />
		<tag k="ssr:stedsnr" v="328431" />
	</node>
	<node id="-697453" lat="68.3565472264" lon="16.811583324">
		<tag k="name" v="Ellinghøgda" />
		<tag k="natural" v="hill" />
		<tag k="place" v="locality" />
		<tag k="ssr:stedsnr" v="328415" />
	</node>
	<node id="-697452" lat="68.3404194408" lon="16.7682472208">
		<tag k="fixme" v="consider natural=peak for the most distinct mountains in the district" />
		<tag k="name" v="Reingjerdåsen" />
		<tag k="natural" v="hill" />
		<tag k="place" v="locality" />
		<tag k="ssr:stedsnr" v="328413" />
	</node>
	<node id="-697449" lat="68.3281611099" lon="16.7780138988">
		<tag k="name" v="Høgbakktippen" />
		<tag k="natural" v="hill" />
		<tag k="place" v="locality" />
		<tag k="ssr:stedsnr" v="328402" />
	</node>
	<node id="-697443" lat="68.4134361089" lon="16.7505472266">
		<tag k="name" v="Aspelia" />
		<tag k="natural" v="slope" />
		<tag k="place" v="locality" />
		<tag k="ssr:stedsnr" v="328247" />
	</node>
	<node id="-697442" lat="68.395613886" lon="16.7122916598">
		<tag k="name" v="Furuhaugmoen" />
		<tag k="place" v="locality" />
		<tag k="ssr:stedsnr" v="328202" />
	</node>
	<node id="-697441" lat="68.3047666657" lon="16.7369555568">
		<tag k="name" v="Hågen" />
		<tag k="natural" v="hill" />
		<tag k="place" v="locality" />
		<tag k="ssr:stedsnr" v="328159" />
	</node>
	<node id="-697440" lat="68.3017472246" lon="16.7055333449">
		<tag k="fixme" v="consider natural=peak for the most distinct mountains in the district" />
		<tag k="name" v="Djupåsfjellet" />
		<tag k="natural" v="hill" />
		<tag k="place" v="locality" />
		<tag k="ssr:stedsnr" v="328160" />
	</node>
	<node id="-697438" lat="68.3120166667" lon="16.700263878">
		<tag k="name" v="Sørkoppan" />
		<tag k="natural" v="hill" />
		<tag k="place" v="locality" />
		<tag k="ssr:stedsnr" v="328154" />
	</node>
	<node id="-697436" lat="68.3308111078" lon="16.6957166766">
		<tag k="name" v="Vellpusheimen" />
		<tag k="natural" v="hill" />
		<tag k="place" v="locality" />
		<tag k="ssr:stedsnr" v="328115" />
	</node>
	<node id="-697433" lat="68.2992111119" lon="16.431608344">
		<tag k="name" v="Haugen" />
		<tag k="natural" v="hill" />
		<tag k="place" v="locality" />
		<tag k="ssr:stedsnr" v="325938" />
	</node>
	<node id="-697430" lat="68.3681277766" lon="16.2958805578">
		<tag k="name" v="Halsåkeren" />
		<tag k="place" v="locality" />
		<tag k="ssr:stedsnr" v="325541" />
	</node>
	<node id="-697428" lat="68.376824998" lon="16.2996777807">
		<tag k="name" v="Oterhågen" />
		<tag k="natural" v="hill" />
		<tag k="place" v="locality" />
		<tag k="ssr:stedsnr" v="325526" />
	</node>
	<node id="-697427" lat="68.3599277776" lon="16.3268083372">
		<tag k="name" v="Geitbergan" />
		<tag k="natural" v="hill" />
		<tag k="place" v="locality" />
		<tag k="ssr:stedsnr" v="325524" />
	</node>
	<node id="-697426" lat="68.2678250026" lon="17.0180111158">
		<tag k="name" v="Breiranen" />
		<tag k="natural" v="slope" />
		<tag k="place" v="locality" />
		<tag k="ssr:stedsnr" v="325404" />
	</node>
	<node id="-697410" lat="68.3016416644" lon="16.9121416615">
		<tag k="fixme" v="consider natural=peak for the most distinct mountains in the district" />
		<tag k="name" v="Simlefjellet" />
		<tag k="natural" v="hill" />
		<tag k="place" v="locality" />
		<tag k="ssr:stedsnr" v="320839" />
	</node>
	<node id="-697408" lat="68.1347111145" lon="16.9041722102">
		<tag k="fixme" v="consider natural=peak for the most distinct mountains in the district" />
		<tag k="name" v="Isfjellet - Jietnjavárre" />
		<tag k="name:no" v="Isfjellet" />
		<tag k="name:smj" v="Jietnjavárre" />
		<tag k="natural" v="hill" />
		<tag k="place" v="locality" />
		<tag k="ssr:stedsnr" v="320716" />
	</node>
	<node id="-697404" lat="68.3498666662" lon="16.3992305543">
		<tag k="name" v="Kobbvikdalen" />
		<tag k="natural" v="valley" />
		<tag k="place" v="locality" />
		<tag k="ssr:stedsnr" v="320688" />
	</node>
	<node id="-697399" lat="68.1615750001" lon="16.6796277834">
		<tag k="fixme" v="consider natural=peak for the most distinct mountains in the district" />
		<tag k="name" v="Rånafjell" />
		<tag k="natural" v="hill" />
		<tag k="place" v="locality" />
		<tag k="ssr:stedsnr" v="320597" />
	</node>
	<node id="-697397" lat="68.2924888925" lon="16.7364583333">
		<tag k="alt_name" v="Grubeåsen" />
		<tag k="fixme" v="consider natural=peak for the most distinct mountains in the district" />
		<tag k="name" v="Gruvåsen" />
		<tag k="natural" v="hill" />
		<tag k="place" v="locality" />
		<tag k="ssr:stedsnr" v="320583" />
	</node>
	<node id="-697382" lat="68.3316083336" lon="17.0486694538">
		<tag k="name" v="Perskrea" />
		<tag k="natural" v="slope" />
		<tag k="place" v="locality" />
		<tag k="ssr:stedsnr" v="282933" />
	</node>
	<node id="-697378" lat="68.3270444477" lon="16.6183916702">
		<tag k="name" v="Vissenhaugen" />
		<tag k="natural" v="hill" />
		<tag k="place" v="locality" />
		<tag k="ssr:stedsnr" v="282710" />
	</node>
	<node id="-697377" lat="68.3266527748" lon="16.5768138884">
		<tag k="name" v="Rundhaugen" />
		<tag k="natural" v="hill" />
		<tag k="place" v="locality" />
		<tag k="ssr:stedsnr" v="282701" />
	</node>
	<node id="-697375" lat="68.2652694456" lon="16.6937972194">
		<tag k="name" v="Ramnfloget" />
		<tag k="natural" v="hill" />
		<tag k="place" v="locality" />
		<tag k="ssr:stedsnr" v="282673" />
	</node>
	<node id="-697371" lat="68.3129333334" lon="16.7478861129">
		<tag k="name" v="Skanshaugen" />
		<tag k="natural" v="hill" />
		<tag k="place" v="locality" />
		<tag k="ssr:stedsnr" v="282528" />
	</node>
	<node id="-697367" lat="68.3074138873" lon="16.1779166601">
		<tag k="name" v="Bremvikaksla" />
		<tag k="place" v="locality" />
		<tag k="ssr:stedsnr" v="282366" />
	</node>
	<node id="-697366" lat="68.2934499979" lon="16.1799583275">
		<tag k="name" v="Bremvikdalen" />
		<tag k="natural" v="valley" />
		<tag k="place" v="locality" />
		<tag k="ssr:stedsnr" v="282353" />
	</node>
	<node id="-697363" lat="68.3052500015" lon="16.2978861169">
		<tag k="name" v="Finnhågen" />
		<tag k="natural" v="hill" />
		<tag k="place" v="locality" />
		<tag k="ssr:stedsnr" v="282233" />
	</node>
	<node id="-697360" lat="68.345130554" lon="16.9524083413">
		<tag k="name" v="Flåget" />
		<tag k="natural" v="hill" />
		<tag k="place" v="locality" />
		<tag k="ssr:stedsnr" v="269421" />
	</node>
	<node id="-697359" lat="68.344713888" lon="16.9375527759">
		<tag k="name" v="Lemmen" />
		<tag k="natural" v="valley" />
		<tag k="place" v="locality" />
		<tag k="ssr:stedsnr" v="269402" />
	</node>
	<node id="-697358" lat="68.3893848919" lon="16.7544311939">
		<tag k="name" v="Bordalsheian" />
		<tag k="natural" v="hill" />
		<tag k="place" v="locality" />
		<tag k="ssr:stedsnr" v="269320" />
	</node>
	<node id="-697357" lat="68.3921555552" lon="16.8641722128">
		<tag k="fixme" v="consider natural=peak for the most distinct mountains in the district" />
		<tag k="name" v="Hestvikåsen" />
		<tag k="natural" v="hill" />
		<tag k="place" v="locality" />
		<tag k="ssr:stedsnr" v="269291" />
	</node>
	<node id="-697356" lat="68.3930583375" lon="16.7736833258">
		<tag k="name" v="Bordalen" />
		<tag k="natural" v="valley" />
		<tag k="place" v="locality" />
		<tag k="ssr:stedsnr" v="269279" />
	</node>
	<node id="-697355" lat="68.3983944428" lon="16.7365444522">
		<tag k="name" v="Brattlia" />
		<tag k="natural" v="slope" />
		<tag k="place" v="locality" />
		<tag k="ssr:stedsnr" v="269278" />
	</node>
	<node id="-699021" lat="68.3484861153" lon="16.5444083366">
		<tag k="fixme" v="consider natural=peak for the most distinct mountains in the district" />
		<tag k="name" v="Kjeldlia - Gáldorápma" />
		<tag k="name:no" v="Kjeldlia" />
		<tag k="name:se" v="Gáldorápma" />
		<tag k="natural" v="hill" />
		<tag k="place" v="locality" />
		<tag k="ssr:stedsnr" v="970104" />
	</node>
	<node id="-699019" lat="68.4019472209" lon="16.4605611018">
		<tag k="name" v="Migan" />
		<tag k="natural" v="hill" />
		<tag k="place" v="locality" />
		<tag k="ssr:stedsnr" v="962766" />
	</node>
	<node id="-699017" lat="68.3277833368" lon="16.5824972206">
		<tag k="name" v="Stordalen" />
		<tag k="natural" v="valley" />
		<tag k="place" v="locality" />
		<tag k="ssr:stedsnr" v="949701" />
	</node>
	<node id="-699012" lat="68.3948444475" lon="16.72412501">
		<tag k="fixme" v="consider natural=peak for the most distinct mountains in the district" />
		<tag k="name" v="Storfjellet" />
		<tag k="natural" v="hill" />
		<tag k="place" v="locality" />
		<tag k="ssr:stedsnr" v="949468" />
	</node>
	<node id="-699004" lat="68.3807361105" lon="16.8899555481">
		<tag k="name" v="Langholtet" />
		<tag k="natural" v="hill" />
		<tag k="place" v="locality" />
		<tag k="ssr:stedsnr" v="937097" />
	</node>
	<node id="-699003" lat="68.41770278" lon="16.6067305586">
		<tag k="name" v="Storskarhaugen" />
		<tag k="natural" v="hill" />
		<tag k="place" v="locality" />
		<tag k="ssr:stedsnr" v="936485" />
	</node>
	<node id="-699002" lat="68.3602388858" lon="16.8833222195">
		<tag k="fixme" v="consider natural=peak for the most distinct mountains in the district" />
		<tag k="name" v="Mellomåsan" />
		<tag k="natural" v="hill" />
		<tag k="place" v="locality" />
		<tag k="ssr:stedsnr" v="936242" />
	</node>
	<node id="-699001" lat="68.3420472247" lon="16.8097638845">
		<tag k="fixme" v="consider natural=peak for the most distinct mountains in the district" />
		<tag k="name" v="Langåsen" />
		<tag k="natural" v="hill" />
		<tag k="place" v="locality" />
		<tag k="ssr:stedsnr" v="935462" />
	</node>
	<node id="-699000" lat="68.35634722" lon="16.8723944498">
		<tag k="name" v="Leirvikbergan" />
		<tag k="natural" v="hill" />
		<tag k="place" v="locality" />
		<tag k="ssr:stedsnr" v="935458" />
	</node>
	<node id="-698999" lat="68.3285750039" lon="16.8132305579">
		<tag k="name" v="Soppmoen" />
		<tag k="place" v="locality" />
		<tag k="ssr:stedsnr" v="935444" />
	</node>
	<node id="-698996" lat="68.3741916661" lon="16.8857972131">
		<tag k="name" v="Hesjebakkan" />
		<tag k="natural" v="slope" />
		<tag k="place" v="locality" />
		<tag k="ssr:stedsnr" v="935308" />
	</node>
	<node id="-698995" lat="68.4046138883" lon="16.7297444309">
		<tag k="name" v="Hestdalen" />
		<tag k="natural" v="valley" />
		<tag k="place" v="locality" />
		<tag k="ssr:stedsnr" v="935266" />
	</node>
	<node id="-698994" lat="68.4098972203" lon="16.7421000007">
		<tag k="name" v="Mørkdalen" />
		<tag k="natural" v="valley" />
		<tag k="place" v="locality" />
		<tag k="ssr:stedsnr" v="935259" />
	</node>
	<node id="-698992" lat="68.3821388859" lon="16.624480546">
		<tag k="name" v="Moan" />
		<tag k="place" v="locality" />
		<tag k="ssr:stedsnr" v="935207" />
	</node>
	<node id="-698991" lat="68.3908194485" lon="16.6433777731">
		<tag k="fixme" v="consider natural=peak for the most distinct mountains in the district" />
		<tag k="name" v="Klubbvassåsen" />
		<tag k="natural" v="hill" />
		<tag k="place" v="locality" />
		<tag k="ssr:stedsnr" v="935205" />
	</node>
	<node id="-698989" lat="68.3913972185" lon="16.633033327">
		<tag k="fixme" v="consider natural=peak for the most distinct mountains in the district" />
		<tag k="name" v="Pilåsen" />
		<tag k="natural" v="hill" />
		<tag k="place" v="locality" />
		<tag k="ssr:stedsnr" v="935200" />
	</node>
	<node id="-698987" lat="68.395616667" lon="16.6503805538">
		<tag k="fixme" v="consider natural=peak for the most distinct mountains in the district" />
		<tag k="name" v="Mikkelåsmoen" />
		<tag k="natural" v="hill" />
		<tag k="place" v="locality" />
		<tag k="ssr:stedsnr" v="935165" />
	</node>
	<node id="-698986" lat="68.3213777794" lon="16.7191472243">
		<tag k="name" v="Storhaugen" />
		<tag k="natural" v="hill" />
		<tag k="place" v="locality" />
		<tag k="ssr:stedsnr" v="935154" />
	</node>
	<node id="-698983" lat="68.3254277793" lon="16.6710750032">
		<tag k="name" v="Pippira" />
		<tag k="natural" v="hill" />
		<tag k="place" v="locality" />
		<tag k="ssr:stedsnr" v="935113" />
	</node>
	<node id="-698979" lat="68.3265277736" lon="16.383208343">
		<tag k="name" v="Holmen" />
		<tag k="natural" v="hill" />
		<tag k="place" v="locality" />
		<tag k="ssr:stedsnr" v="932520" />
	</node>
	<node id="-698978" lat="68.3245805551" lon="17.0183833273">
		<tag k="name" v="Mørkhola" />
		<tag k="place" v="locality" />
		<tag k="ssr:stedsnr" v="932386" />
	</node>
	<node id="-698977" lat="68.2959083337" lon="17.1766305458">
		<tag k="fixme" v="consider natural=peak for the most distinct mountains in the district" />
		<tag k="name" v="Klubbviktinden - Jorbesčohkka" />
		<tag k="name:no" v="Klubbviktinden" />
		<tag k="name:se" v="Jorbesčohkka" />
		<tag k="natural" v="hill" />
		<tag k="old_name:se" v="Jårbesčåkka" />
		<tag k="place" v="locality" />
		<tag k="ssr:stedsnr" v="931836" />
	</node>
	<node id="-698965" lat="68.2623027805" lon="16.9058499978">
		<tag k="name" v="Tortendalen" />
		<tag k="natural" v="valley" />
		<tag k="place" v="locality" />
		<tag k="ssr:stedsnr" v="928773" />
	</node>
	<node id="-698962" lat="68.3934611137" lon="16.7145750068">
		<tag k="name" v="Skårnesdalen" />
		<tag k="natural" v="valley" />
		<tag k="place" v="locality" />
		<tag k="ssr:stedsnr" v="927758" />
	</node>
	<node id="-698955" lat="68.3644722219" lon="16.3511694361">
		<tag k="fixme" v="consider natural=peak for the most distinct mountains in the district" />
		<tag k="name" v="Skarstadfjellet" />
		<tag k="natural" v="hill" />
		<tag k="place" v="locality" />
		<tag k="ssr:stedsnr" v="927707" />
	</node>
	<node id="-698952" lat="68.1990555517" lon="16.9244555419">
		<tag k="name" v="Røvassdalen" />
		<tag k="natural" v="valley" />
		<tag k="place" v="locality" />
		<tag k="ssr:stedsnr" v="927698" />
	</node>
	<node id="-698951" lat="68.3509722232" lon="16.5095499919">
		<tag k="name" v="Stordalen" />
		<tag k="natural" v="valley" />
		<tag k="place" v="locality" />
		<tag k="ssr:stedsnr" v="927688" />
	</node>
	<node id="-698948" lat="68.3302888915" lon="16.4489999891">
		<tag k="name" v="Sørelvdalen" />
		<tag k="natural" v="valley" />
		<tag k="place" v="locality" />
		<tag k="ssr:stedsnr" v="927639" />
	</node>
	<node id="-698944" lat="68.3075999969" lon="16.7003805448">
		<tag k="name" v="Salvodalen" />
		<tag k="natural" v="valley" />
		<tag k="place" v="locality" />
		<tag k="ssr:stedsnr" v="927617" />
	</node>
	<node id="-698942" lat="68.2958527814" lon="16.2310833401">
		<tag k="name" v="Breiskaret" />
		<tag k="natural" v="valley" />
		<tag k="place" v="locality" />
		<tag k="ssr:stedsnr" v="927599" />
	</node>
	<node id="-698937" lat="68.2224750038" lon="16.7592444408">
		<tag k="alt_name" v="Hjerthaugen, store" />
		<tag k="fixme" v="consider natural=peak for the most distinct mountains in the district" />
		<tag k="loc_name" v="Hjerthaugen" />
		<tag k="name" v="Store Hjerthaugen" />
		<tag k="natural" v="hill" />
		<tag k="place" v="locality" />
		<tag k="ssr:stedsnr" v="927518" />
	</node>
	<node id="-698936" lat="68.4089749986" lon="16.5393583331">
		<tag k="name" v="Korshamnhøgda" />
		<tag k="natural" v="hill" />
		<tag k="place" v="locality" />
		<tag k="ssr:stedsnr" v="927495" />
	</node>
	<node id="-698929" lat="68.3885473066" lon="16.7468173952">
		<tag k="name" v="Jennatuva" />
		<tag k="natural" v="hill" />
		<tag k="place" v="locality" />
		<tag k="ssr:stedsnr" v="876257" />
	</node>
	<node id="-698926" lat="68.3593333325" lon="16.7963472287">
		<tag k="name" v="Tremundsletta" />
		<tag k="place" v="locality" />
		<tag k="ssr:stedsnr" v="875296" />
	</node>
	<node id="-698923" lat="68.3649999967" lon="16.8934999887">
		<tag k="name" v="Munkhaugen" />
		<tag k="natural" v="hill" />
		<tag k="place" v="locality" />
		<tag k="ssr:stedsnr" v="875279" />
	</node>
	<node id="-698919" lat="68.3523916653" lon="16.8561777745">
		<tag k="name" v="Hammarhaugan" />
		<tag k="natural" v="hill" />
		<tag k="place" v="locality" />
		<tag k="ssr:stedsnr" v="874454" />
	</node>
	<node id="-698917" lat="68.3318027787" lon="16.7795972116">
		<tag k="name" v="Bjørkåshøgda" />
		<tag k="natural" v="hill" />
		<tag k="place" v="locality" />
		<tag k="ssr:stedsnr" v="874442" />
	</node>
	<node id="-698914" lat="68.3262055579" lon="16.7923583353">
		<tag k="name" v="Syllmoen" />
		<tag k="place" v="locality" />
		<tag k="ssr:stedsnr" v="874438" />
	</node>
	<node id="-698912" lat="68.3875444467" lon="16.6356527785">
		<tag k="name" v="Lappheimsletta" />
		<tag k="place" v="locality" />
		<tag k="ssr:stedsnr" v="874250" />
	</node>
	<node id="-698910" lat="68.3927027796" lon="16.6200527708">
		<tag k="fixme" v="consider natural=peak for the most distinct mountains in the district" />
		<tag k="name" v="Tjærmilåsen" />
		<tag k="natural" v="hill" />
		<tag k="place" v="locality" />
		<tag k="ssr:stedsnr" v="874242" />
	</node>
	<node id="-698907" lat="68.408886111" lon="16.679574988">
		<tag k="name" v="Antonhaugen" />
		<tag k="natural" v="hill" />
		<tag k="place" v="locality" />
		<tag k="ssr:stedsnr" v="874220" />
	</node>
	<node id="-698906" lat="68.3984638857" lon="16.6873305418">
		<tag k="name" v="Durmålshaugen" />
		<tag k="natural" v="hill" />
		<tag k="place" v="locality" />
		<tag k="ssr:stedsnr" v="874198" />
	</node>
	<node id="-698905" lat="68.3985638849" lon="16.6551888958">
		<tag k="name" v="Rødsandbakken" />
		<tag k="natural" v="slope" />
		<tag k="place" v="locality" />
		<tag k="ssr:stedsnr" v="874193" />
	</node>
	<node id="-698903" lat="68.3267638876" lon="16.7247833295">
		<tag k="fixme" v="consider natural=peak for the most distinct mountains in the district" />
		<tag k="name" v="Bruksåsfjellet" />
		<tag k="natural" v="hill" />
		<tag k="place" v="locality" />
		<tag k="ssr:stedsnr" v="874175" />
	</node>
	<node id="-698902" lat="68.3146972201" lon="16.6525583296">
		<tag k="fixme" v="consider natural=peak for the most distinct mountains in the district" />
		<tag k="name" v="Djupdalåskollen" />
		<tag k="natural" v="hill" />
		<tag k="place" v="locality" />
		<tag k="ssr:stedsnr" v="874171" />
	</node>
	<node id="-698901" lat="68.375674998" lon="16.6307055648">
		<tag k="name" v="Bukkepallen" />
		<tag k="natural" v="hill" />
		<tag k="place" v="locality" />
		<tag k="ssr:stedsnr" v="874161" />
	</node>
	<node id="-698899" lat="68.346311111" lon="16.4418361107">
		<tag k="fixme" v="consider natural=peak for the most distinct mountains in the district" />
		<tag k="name" v="Kobbvikdalhøgda" />
		<tag k="natural" v="hill" />
		<tag k="place" v="locality" />
		<tag k="ssr:stedsnr" v="871935" />
	</node>
	<node id="-698896" lat="68.320877781" lon="16.3537694476">
		<tag k="name" v="Brattbergan" />
		<tag k="natural" v="hill" />
		<tag k="place" v="locality" />
		<tag k="ssr:stedsnr" v="871530" />
	</node>
	<node id="-698895" lat="68.3470888844" lon="16.3750333405">
		<tag k="name" v="Rødhallen" />
		<tag k="place" v="locality" />
		<tag k="ssr:stedsnr" v="871515" />
	</node>
	<node id="-698892" lat="68.3769916709" lon="16.3410749974">
		<tag k="name" v="Russvikstien" />
		<tag k="natural" v="hill" />
		<tag k="place" v="locality" />
		<tag k="ssr:stedsnr" v="871505" />
	</node>
	<node id="-698891" lat="68.3207249985" lon="16.8909361071">
		<tag k="name" v="Kaldådalen" />
		<tag k="natural" v="valley" />
		<tag k="place" v="locality" />
		<tag k="ssr:stedsnr" v="868836" />
	</node>
	<node id="-698888" lat="68.3660072913" lon="16.8312047958">
		<tag k="name" v="Trollberget" />
		<tag k="natural" v="hill" />
		<tag k="place" v="locality" />
		<tag k="ssr:stedsnr" v="867920" />
	</node>
	<node id="-698886" lat="68.3461777804" lon="16.8304111057">
		<tag k="fixme" v="consider natural=peak for the most distinct mountains in the district" />
		<tag k="name" v="Stavåsen" />
		<tag k="natural" v="hill" />
		<tag k="place" v="locality" />
		<tag k="ssr:stedsnr" v="867906" />
	</node>
	<node id="-698885" lat="68.3083250025" lon="16.8413361122">
		<tag k="name" v="Rundtuvdalen" />
		<tag k="natural" v="valley" />
		<tag k="place" v="locality" />
		<tag k="ssr:stedsnr" v="867882" />
	</node>
	<node id="-698882" lat="68.2722555539" lon="17.1875194508">
		<tag k="fixme" v="consider natural=peak for the most distinct mountains in the district" />
		<tag k="name" v="Lássesvárri" />
		<tag k="name:se" v="Lássesvárri" />
		<tag k="natural" v="hill" />
		<tag k="old_name:se" v="Lassesvarri" />
		<tag k="place" v="locality" />
		<tag k="ssr:stedsnr" v="867846" />
	</node>
	<node id="-698881" lat="68.2856694454" lon="16.8804805577">
		<tag k="name" v="Čoskagohpi" />
		<tag k="name:se" v="Čoskagohpi" />
		<tag k="natural" v="valley" />
		<tag k="old_name:se" v="Čåskagåppi" />
		<tag k="place" v="locality" />
		<tag k="ssr:stedsnr" v="867837" />
	</node>
	<node id="-698880" lat="68.2521861151" lon="17.0776944545">
		<tag k="fixme" v="consider natural=peak for the most distinct mountains in the district" />
		<tag k="name" v="Klettan" />
		<tag k="natural" v="hill" />
		<tag k="place" v="locality" />
		<tag k="ssr:stedsnr" v="867827" />
	</node>
	<node id="-698879" lat="68.2707750011" lon="16.8816444332">
		<tag k="name" v="Tippen" />
		<tag k="natural" v="hill" />
		<tag k="place" v="locality" />
		<tag k="ssr:stedsnr" v="867816" />
	</node>
	<node id="-698875" lat="68.2122638861" lon="16.9654249864">
		<tag k="fixme" v="consider natural=peak for the most distinct mountains in the district" />
		<tag k="name" v="Røvassaksla" />
		<tag k="natural" v="hill" />
		<tag k="place" v="locality" />
		<tag k="ssr:stedsnr" v="867718" />
	</node>
	<node id="-698874" lat="68.3488277781" lon="16.6858805597">
		<tag k="name" v="Fuglevassbotn" />
		<tag k="natural" v="valley" />
		<tag k="place" v="locality" />
		<tag k="ssr:stedsnr" v="867715" />
	</node>
	<node id="-698868" lat="68.3194111082" lon="16.7657555516">
		<tag k="fixme" v="multiple name tags, choose one and add the other to alt_name; consider natural=peak for the most distinct mountains in the district" />
		<tag k="name" v="Brattåsen;Brattåskollen" />
		<tag k="natural" v="hill" />
		<tag k="place" v="locality" />
		<tag k="ssr:stedsnr" v="867648" />
	</node>
	<node id="-698859" lat="68.2869611148" lon="16.3986861091">
		<tag k="name" v="Storhøgda" />
		<tag k="natural" v="hill" />
		<tag k="place" v="locality" />
		<tag k="ssr:stedsnr" v="866556" />
	</node>
	<node id="-698858" lat="68.285424996" lon="16.3532527766">
		<tag k="name" v="Ivarmoen" />
		<tag k="place" v="locality" />
		<tag k="ssr:stedsnr" v="866557" />
	</node>
	<node id="-698851" lat="68.4193138885" lon="16.7333722195">
		<tag k="fixme" v="consider natural=peak for the most distinct mountains in the district" />
		<tag k="name" v="Skorstein" />
		<tag k="natural" v="hill" />
		<tag k="place" v="locality" />
		<tag k="ssr:stedsnr" v="866457" />
	</node>
	<node id="-698843" lat="68.3098777744" lon="16.6095583367">
		<tag k="name" v="Blombakkan" />
		<tag k="natural" v="slope" />
		<tag k="place" v="locality" />
		<tag k="ssr:stedsnr" v="828709" />
	</node>
	<node id="-698840" lat="68.4096749974" lon="16.5651888938">
		<tag k="name" v="Finnhaugen" />
		<tag k="natural" v="hill" />
		<tag k="place" v="locality" />
		<tag k="ssr:stedsnr" v="828606" />
	</node>
	<node id="-698838" lat="68.3297444412" lon="16.2380472088">
		<tag k="name" v="Ura" />
		<tag k="natural" v="hill" />
		<tag k="place" v="locality" />
		<tag k="ssr:stedsnr" v="828373" />
	</node>
	<node id="-698837" lat="68.3140388891" lon="16.2378972236">
		<tag k="name" v="Aksla" />
		<tag k="place" v="locality" />
		<tag k="ssr:stedsnr" v="828371" />
	</node>
	<node id="-698835" lat="68.3208333366" lon="16.1880472228">
		<tag k="name" v="Øya" />
		<tag k="natural" v="hill" />
		<tag k="place" v="locality" />
		<tag k="ssr:stedsnr" v="828364" />
	</node>
	<node id="-698828" lat="68.3523499955" lon="16.9670444444">
		<tag k="name" v="Durmålshågen" />
		<tag k="natural" v="hill" />
		<tag k="place" v="locality" />
		<tag k="ssr:stedsnr" v="814488" />
	</node>
	<node id="-698826" lat="68.3380055561" lon="16.7338999986">
		<tag k="name" v="Hesjelia" />
		<tag k="natural" v="slope" />
		<tag k="place" v="locality" />
		<tag k="ssr:stedsnr" v="814467" />
	</node>
	<node id="-698825" lat="68.3173472175" lon="16.7324166756">
		<tag k="name" v="Slettbakkan" />
		<tag k="natural" v="slope" />
		<tag k="place" v="locality" />
		<tag k="ssr:stedsnr" v="814448" />
	</node>
	<node id="-698823" lat="68.4013999973" lon="16.7335888862">
		<tag k="fixme" v="consider natural=peak for the most distinct mountains in the district" />
		<tag k="name" v="Klokkarfjellet" />
		<tag k="natural" v="hill" />
		<tag k="place" v="locality" />
		<tag k="ssr:stedsnr" v="814334" />
	</node>
	<node id="-698822" lat="68.3647888903" lon="16.8414861096">
		<tag k="name" v="Mølnbakkan" />
		<tag k="natural" v="slope" />
		<tag k="place" v="locality" />
		<tag k="ssr:stedsnr" v="814318" />
	</node>
	<node id="-698820" lat="68.3835666683" lon="16.8328388961">
		<tag k="name" v="Innerheidalen" />
		<tag k="natural" v="valley" />
		<tag k="place" v="locality" />
		<tag k="ssr:stedsnr" v="814299" />
	</node>
	<node id="-698818" lat="68.3212249957" lon="16.6946833359">
		<tag k="name" v="Botnlaushaugen" />
		<tag k="natural" v="hill" />
		<tag k="place" v="locality" />
		<tag k="ssr:stedsnr" v="814154" />
	</node>
	<node id="-698817" lat="68.3176666686" lon="16.6668333406">
		<tag k="name" v="Rundhaugen" />
		<tag k="natural" v="hill" />
		<tag k="place" v="locality" />
		<tag k="ssr:stedsnr" v="814147" />
	</node>
	<node id="-698815" lat="68.3314027793" lon="16.8001222264">
		<tag k="name" v="Syllelvmo" />
		<tag k="place" v="locality" />
		<tag k="ssr:stedsnr" v="813383" />
	</node>
	<node id="-698812" lat="68.3975666682" lon="16.6735944455">
		<tag k="name" v="Nesseborkråa" />
		<tag k="natural" v="valley" />
		<tag k="place" v="locality" />
		<tag k="ssr:stedsnr" v="813157" />
	</node>
	<node id="-698811" lat="68.3967555537" lon="16.650125">
		<tag k="name" v="Dybakken" />
		<tag k="natural" v="slope" />
		<tag k="place" v="locality" />
		<tag k="ssr:stedsnr" v="813150" />
	</node>
	<node id="-698809" lat="68.4050444476" lon="16.7206888981">
		<tag k="name" v="Heia" />
		<tag k="natural" v="hill" />
		<tag k="place" v="locality" />
		<tag k="ssr:stedsnr" v="813032" />
	</node>
	<node id="-698807" lat="68.2101972192" lon="16.6881111061">
		<tag k="name" v="Sørfjellet" />
		<tag k="natural" v="mountain_range" />
		<tag k="ssr:stedsnr" v="810970" />
	</node>
	<node id="-698803" lat="68.2758361114" lon="17.0130555661">
		<tag k="name" v="Kvannåkeren" />
		<tag k="natural" v="slope" />
		<tag k="place" v="locality" />
		<tag k="ssr:stedsnr" v="810396" />
	</node>
	<node id="-698796" lat="68.3720944465" lon="16.8563138837">
		<tag k="name" v="Høgholtet" />
		<tag k="natural" v="hill" />
		<tag k="place" v="locality" />
		<tag k="ssr:stedsnr" v="806919" />
	</node>
	<node id="-698793" lat="68.2838583317" lon="16.8554638848">
		<tag k="fixme" v="consider natural=peak for the most distinct mountains in the district" />
		<tag k="name" v="Stokkedalsfjellet" />
		<tag k="natural" v="hill" />
		<tag k="place" v="locality" />
		<tag k="ssr:stedsnr" v="806841" />
	</node>
	<node id="-698788" lat="68.3914277778" lon="16.7364689274">
		<tag k="fixme" v="consider natural=peak for the most distinct mountains in the district" />
		<tag k="name" v="Ivarsteintuva" />
		<tag k="natural" v="hill" />
		<tag k="place" v="locality" />
		<tag k="ssr:stedsnr" v="806749" />
	</node>
	<node id="-698787" lat="68.3906111068" lon="16.4908611193">
		<tag k="fixme" v="consider natural=peak for the most distinct mountains in the district" />
		<tag k="name" v="Grønnlikollen" />
		<tag k="natural" v="hill" />
		<tag k="place" v="locality" />
		<tag k="ssr:stedsnr" v="806746" />
	</node>
	<node id="-698785" lat="68.3635000022" lon="16.7541527792">
		<tag k="name" v="Langvassdalen" />
		<tag k="natural" v="valley" />
		<tag k="place" v="locality" />
		<tag k="ssr:stedsnr" v="806706" />
	</node>
	<node id="-698782" lat="68.3288944443" lon="16.416094447">
		<tag k="name" v="Storhågen" />
		<tag k="natural" v="hill" />
		<tag k="place" v="locality" />
		<tag k="ssr:stedsnr" v="806654" />
	</node>
	<node id="-698779" lat="68.3293888886" lon="16.5826083395">
		<tag k="name" v="Grindhaugkollen" />
		<tag k="natural" v="hill" />
		<tag k="place" v="locality" />
		<tag k="ssr:stedsnr" v="806649" />
	</node>
	<node id="-698778" lat="68.3302833367" lon="16.5523055679">
		<tag k="name" v="Musken" />
		<tag k="natural" v="hill" />
		<tag k="place" v="locality" />
		<tag k="ssr:stedsnr" v="806647" />
	</node>
	<node id="-698774" lat="68.3083277752" lon="16.6667805594">
		<tag k="name" v="Skjellhaugen" />
		<tag k="natural" v="hill" />
		<tag k="place" v="locality" />
		<tag k="ssr:stedsnr" v="806615" />
	</node>
	<node id="-698772" lat="68.3043111097" lon="16.3783000016">
		<tag k="fixme" v="consider natural=peak for the most distinct mountains in the district" />
		<tag k="name" v="Forrnesaksla" />
		<tag k="natural" v="hill" />
		<tag k="place" v="locality" />
		<tag k="ssr:stedsnr" v="806596" />
	</node>
	<node id="-698771" lat="68.3014833371" lon="16.6937000077">
		<tag k="fixme" v="consider natural=peak for the most distinct mountains in the district" />
		<tag k="name" v="Djupåsen" />
		<tag k="natural" v="hill" />
		<tag k="place" v="locality" />
		<tag k="ssr:stedsnr" v="806592" />
	</node>
	<node id="-698761" lat="68.2444499977" lon="16.6585916601">
		<tag k="fixme" v="consider natural=peak for the most distinct mountains in the district" />
		<tag k="name" v="Stornesaksla" />
		<tag k="natural" v="hill" />
		<tag k="place" v="locality" />
		<tag k="ssr:stedsnr" v="805563" />
	</node>
	<node id="-698759" lat="68.2565777785" lon="16.6607305603">
		<tag k="fixme" v="consider natural=peak for the most distinct mountains in the district" />
		<tag k="name" v="Sommarsetfjellet" />
		<tag k="natural" v="hill" />
		<tag k="place" v="locality" />
		<tag k="ssr:stedsnr" v="805560" />
	</node>
	<node id="-698758" lat="68.2652666647" lon="16.7096861098">
		<tag k="name" v="Dalhøgda" />
		<tag k="natural" v="hill" />
		<tag k="place" v="locality" />
		<tag k="ssr:stedsnr" v="805557" />
	</node>
	<node id="-698751" lat="68.3307222205" lon="17.0521333331">
		<tag k="name" v="Mosshågen" />
		<tag k="natural" v="hill" />
		<tag k="place" v="locality" />
		<tag k="ssr:stedsnr" v="767934" />
	</node>
	<node id="-698744" lat="68.3380833355" lon="16.0715833282">
		<tag k="name" v="Stihågen" />
		<tag k="natural" v="hill" />
		<tag k="place" v="locality" />
		<tag k="ssr:stedsnr" v="767407" />
	</node>
	<node id="-698740" lat="68.3123388896" lon="16.2871583409">
		<tag k="name" v="Moldforvikhågen" />
		<tag k="natural" v="hill" />
		<tag k="place" v="locality" />
		<tag k="ssr:stedsnr" v="767247" />
	</node>
	<node id="-698733" lat="68.3939111148" lon="16.766872216">
		<tag k="name" v="Middagshaugen" />
		<tag k="natural" v="hill" />
		<tag k="place" v="locality" />
		<tag k="ssr:stedsnr" v="755281" />
	</node>
	<node id="-698731" lat="68.3815638927" lon="16.8512250073">
		<tag k="fixme" v="consider natural=peak for the most distinct mountains in the district" />
		<tag k="name" v="Bjerkåsen" />
		<tag k="natural" v="hill" />
		<tag k="place" v="locality" />
		<tag k="ssr:stedsnr" v="755271" />
	</node>
	<node id="-698730" lat="68.38591667" lon="16.8855777776">
		<tag k="name" v="Skjørringholtet" />
		<tag k="natural" v="hill" />
		<tag k="place" v="locality" />
		<tag k="ssr:stedsnr" v="755088" />
	</node>
	<node id="-698729" lat="68.3559416662" lon="16.8055638975">
		<tag k="name" v="Mikkelgamhøgda" />
		<tag k="natural" v="hill" />
		<tag k="place" v="locality" />
		<tag k="ssr:stedsnr" v="753392" />
	</node>
	<node id="-698728" lat="68.3579000006" lon="16.8681194432">
		<tag k="fixme" v="consider natural=peak for the most distinct mountains in the district" />
		<tag k="name" v="Toppåsen" />
		<tag k="natural" v="hill" />
		<tag k="place" v="locality" />
		<tag k="ssr:stedsnr" v="753389" />
	</node>
	<node id="-698724" lat="68.3253805547" lon="16.7417944445">
		<tag k="name" v="Trollhaugberget" />
		<tag k="natural" v="hill" />
		<tag k="place" v="locality" />
		<tag k="ssr:stedsnr" v="753369" />
	</node>
	<node id="-698722" lat="68.345105553" lon="16.8960694489">
		<tag k="name" v="Forrneshaugen" />
		<tag k="natural" v="hill" />
		<tag k="place" v="locality" />
		<tag k="ssr:stedsnr" v="753316" />
	</node>
	<node id="-698719" lat="68.3730055526" lon="16.8909027641">
		<tag k="name" v="Elvesletta" />
		<tag k="place" v="locality" />
		<tag k="ssr:stedsnr" v="753282" />
	</node>
	<node id="-698718" lat="68.4046083358" lon="16.7321777697">
		<tag k="fixme" v="consider natural=peak for the most distinct mountains in the district" />
		<tag k="name" v="Hagfjellet" />
		<tag k="natural" v="hill" />
		<tag k="place" v="locality" />
		<tag k="ssr:stedsnr" v="753243" />
	</node>
	<node id="-698717" lat="68.411138891" lon="16.7682361082">
		<tag k="name" v="Kvaldalen" />
		<tag k="natural" v="valley" />
		<tag k="place" v="locality" />
		<tag k="ssr:stedsnr" v="753234" />
	</node>
	<node id="-698716" lat="68.4030555567" lon="16.7508555441">
		<tag k="fixme" v="consider natural=peak for the most distinct mountains in the district" />
		<tag k="name" v="Himmelfarfjellet" />
		<tag k="natural" v="hill" />
		<tag k="place" v="locality" />
		<tag k="ssr:stedsnr" v="753230" />
	</node>
	<node id="-698715" lat="68.3944055539" lon="16.8271694367">
		<tag k="name" v="Knaussletta" />
		<tag k="place" v="locality" />
		<tag k="ssr:stedsnr" v="753212" />
	</node>
	<node id="-698713" lat="68.3992583344" lon="16.6455972266">
		<tag k="fixme" v="consider natural=peak for the most distinct mountains in the district" />
		<tag k="name" v="Skavåsen" />
		<tag k="natural" v="hill" />
		<tag k="place" v="locality" />
		<tag k="ssr:stedsnr" v="752198" />
	</node>
	<node id="-698712" lat="68.3936222219" lon="16.7190694321">
		<tag k="name" v="Furuhaugen" />
		<tag k="natural" v="hill" />
		<tag k="place" v="locality" />
		<tag k="ssr:stedsnr" v="752196" />
	</node>
	<node id="-698708" lat="68.3221416635" lon="16.6660388903">
		<tag k="name" v="Brennvinshaugen" />
		<tag k="natural" v="hill" />
		<tag k="place" v="locality" />
		<tag k="ssr:stedsnr" v="752108" />
	</node>
	<node id="-698707" lat="68.405722225" lon="16.716036103">
		<tag k="name" v="Storhøymoen" />
		<tag k="place" v="locality" />
		<tag k="ssr:stedsnr" v="752034" />
	</node>
	<node id="-698706" lat="68.2627388857" lon="17.0346083236">
		<tag k="name" v="Eksingranen" />
		<tag k="natural" v="slope" />
		<tag k="place" v="locality" />
		<tag k="ssr:stedsnr" v="750378" />
	</node>
	<node id="-698705" lat="68.2917472209" lon="17.0490666661">
		<tag k="name" v="Slåttbakken" />
		<tag k="natural" v="slope" />
		<tag k="place" v="locality" />
		<tag k="ssr:stedsnr" v="750373" />
	</node>
	<node id="-698704" lat="68.2718388872" lon="17.0441916558">
		<tag k="name" v="Moldforrotrabben" />
		<tag k="natural" v="ridge" />
		<tag k="place" v="locality" />
		<tag k="ssr:stedsnr" v="750368" />
	</node>
	<node id="-698702" lat="68.3816944421" lon="16.3445694547">
		<tag k="name" v="Bakaromnen" />
		<tag k="natural" v="hill" />
		<tag k="place" v="locality" />
		<tag k="ssr:stedsnr" v="749969" />
	</node>
	<node id="-698700" lat="68.3375388849" lon="16.4217222298">
		<tag k="name" v="Oksskolten" />
		<tag k="natural" v="hill" />
		<tag k="place" v="locality" />
		<tag k="ssr:stedsnr" v="749957" />
	</node>
	<node id="-698698" lat="68.3286194404" lon="16.299819442">
		<tag k="name" v="Rødøyklubben" />
		<tag k="natural" v="hill" />
		<tag k="place" v="locality" />
		<tag k="ssr:stedsnr" v="749549" />
	</node>
	<node id="-698696" lat="68.3506972214" lon="16.3561499874">
		<tag k="name" v="Bjørnhola" />
		<tag k="place" v="locality" />
		<tag k="ssr:stedsnr" v="749541" />
	</node>
	<node id="-698694" lat="68.3656111149" lon="16.3010749915">
		<tag k="name" v="Pollstøen" />
		<tag k="natural" v="hill" />
		<tag k="place" v="locality" />
		<tag k="ssr:stedsnr" v="749530" />
	</node>
	<node id="-698684" lat="68.2757861104" lon="17.1829388869">
		<tag k="name" v="Sommarskaret" />
		<tag k="natural" v="valley" />
		<tag k="place" v="locality" />
		<tag k="ssr:stedsnr" v="745859" />
	</node>
	<node id="-698683" lat="68.3045777821" lon="16.9460972189">
		<tag k="name" v="Snøgropa - Muohtaroggi" />
		<tag k="name:no" v="Snøgropa" />
		<tag k="name:se" v="Muohtaroggi" />
		<tag k="natural" v="valley" />
		<tag k="old_name:se" v="Muottaråggi" />
		<tag k="place" v="locality" />
		<tag k="ssr:stedsnr" v="745844" />
	</node>
	<node id="-698680" lat="68.3946003858" lon="16.7306987008">
		<tag k="fixme" v="consider natural=peak for the most distinct mountains in the district" />
		<tag k="name" v="Bjørntuva" />
		<tag k="natural" v="hill" />
		<tag k="place" v="locality" />
		<tag k="ssr:stedsnr" v="745798" />
	</node>
	<node id="-698679" lat="68.2427666706" lon="16.9230777861">
		<tag k="name" v="Botnmoen" />
		<tag k="place" v="locality" />
		<tag k="ssr:stedsnr" v="745795" />
	</node>
	<node id="-698676" lat="68.4071361088" lon="16.5900583349">
		<tag k="fixme" v="consider natural=peak for the most distinct mountains in the district" />
		<tag k="name" v="Harvollkollen" />
		<tag k="natural" v="hill" />
		<tag k="place" v="locality" />
		<tag k="ssr:stedsnr" v="745784" />
	</node>
	<node id="-698675" lat="68.3787333372" lon="16.5411166774">
		<tag k="fixme" v="consider natural=peak for the most distinct mountains in the district" />
		<tag k="name" v="Fagerfjellet" />
		<tag k="natural" v="hill" />
		<tag k="place" v="locality" />
		<tag k="ssr:stedsnr" v="745774" />
	</node>
	<node id="-698672" lat="68.3615444412" lon="16.4836388834">
		<tag k="alt_name" v="Vargfjordfjellet" />
		<tag k="fixme" v="consider natural=peak for the most distinct mountains in the district" />
		<tag k="name" v="Vargfjordtinden" />
		<tag k="natural" v="hill" />
		<tag k="place" v="locality" />
		<tag k="ssr:stedsnr" v="745753" />
	</node>
	<node id="-698670" lat="68.3687138874" lon="16.7945861072">
		<tag k="name" v="Trolldalen" />
		<tag k="natural" v="valley" />
		<tag k="place" v="locality" />
		<tag k="ssr:stedsnr" v="745749" />
	</node>
	<node id="-698668" lat="68.3672805565" lon="16.7349000019">
		<tag k="name" v="Håfjellmarka" />
		<tag k="natural" v="mountain_range" />
		<tag k="ssr:stedsnr" v="745741" />
	</node>
	<node id="-698667" lat="68.1301638872" lon="17.2530611074">
		<tag k="name" v="Kringelkrokan" />
		<tag k="place" v="locality" />
		<tag k="ssr:stedsnr" v="745739" />
	</node>
	<node id="-698666" lat="68.1186277761" lon="17.2813610974">
		<tag k="fixme" v="consider natural=peak for the most distinct mountains in the district" />
		<tag k="name" v="Storriten - Stuorrarijdda" />
		<tag k="name:no" v="Storriten" />
		<tag k="name:smj" v="Stuorrarijdda" />
		<tag k="natural" v="hill" />
		<tag k="old_name:smj" v="Stuorariida;Stuorrarijjda" />
		<tag k="place" v="locality" />
		<tag k="ssr:stedsnr" v="745735" />
	</node>
	<node id="-698665" lat="68.3586305552" lon="16.7879805465">
		<tag k="name" v="Sinklia" />
		<tag k="natural" v="slope" />
		<tag k="place" v="locality" />
		<tag k="ssr:stedsnr" v="745733" />
	</node>
	<node id="-698661" lat="68.3621722186" lon="16.6712611191">
		<tag k="fixme" v="consider natural=peak for the most distinct mountains in the district" />
		<tag k="name" v="Håfjellet - Áivevárri" />
		<tag k="name:no" v="Håfjellet" />
		<tag k="name:se" v="Áivevárri" />
		<tag k="natural" v="hill" />
		<tag k="old_name:se" v="Aivevarri" />
		<tag k="place" v="locality" />
		<tag k="ssr:stedsnr" v="745711" />
	</node>
	<node id="-698653" lat="68.3367777797" lon="16.59215001">
		<tag k="fixme" v="consider natural=peak for the most distinct mountains in the district" />
		<tag k="name" v="Aksla" />
		<tag k="natural" v="hill" />
		<tag k="place" v="locality" />
		<tag k="ssr:stedsnr" v="745664" />
	</node>
	<node id="-698649" lat="68.3008249968" lon="16.6345666637">
		<tag k="alt_name" v="Djupvatnåsen" />
		<tag k="fixme" v="consider natural=peak for the most distinct mountains in the district" />
		<tag k="name" v="Djupvassåsen" />
		<tag k="natural" v="hill" />
		<tag k="place" v="locality" />
		<tag k="ssr:stedsnr" v="745595" />
	</node>
	<node id="-698645" lat="68.2663805544" lon="16.8000361106">
		<tag k="fixme" v="consider natural=peak for the most distinct mountains in the district" />
		<tag k="name" v="Skjåfjellet" />
		<tag k="natural" v="hill" />
		<tag k="place" v="locality" />
		<tag k="ssr:stedsnr" v="745547" />
	</node>
	<node id="-698643" lat="68.2627416642" lon="16.7550360973">
		<tag k="fixme" v="consider natural=peak for the most distinct mountains in the district" />
		<tag k="name" v="Grunnstadåsen" />
		<tag k="natural" v="hill" />
		<tag k="place" v="locality" />
		<tag k="ssr:stedsnr" v="745538" />
	</node>
	<node id="-698642" lat="68.2583638876" lon="16.4208777674">
		<tag k="name" v="Efjorddalen" />
		<tag k="natural" v="valley" />
		<tag k="place" v="locality" />
		<tag k="ssr:stedsnr" v="745532" />
	</node>
	<node id="-698630" lat="68.1317027799" lon="16.8402666749">
		<tag k="fixme" v="multiple name tags, choose one and add the other to alt_name; consider natural=peak for the most distinct mountains in the district" />
		<tag k="name" v="Sørbotnfjellet;Telttinden" />
		<tag k="natural" v="hill" />
		<tag k="place" v="locality" />
		<tag k="ssr:stedsnr" v="727873" />
	</node>
	<node id="-698627" lat="68.3218250032" lon="17.0627888834">
		<tag k="name" v="Lemmen" />
		<tag k="natural" v="hill" />
		<tag k="place" v="locality" />
		<tag k="ssr:stedsnr" v="706937" />
	</node>
	<node id="-698626" lat="68.3559472257" lon="16.5757083262">
		<tag k="name" v="Slåtthaugen" />
		<tag k="natural" v="hill" />
		<tag k="place" v="locality" />
		<tag k="ssr:stedsnr" v="706717" />
	</node>
	<node id="-698625" lat="68.2625333368" lon="16.7174583237">
		<tag k="name" v="Dalbakkan" />
		<tag k="natural" v="slope" />
		<tag k="place" v="locality" />
		<tag k="ssr:stedsnr" v="706686" />
	</node>
	<node id="-698624" lat="68.2767499966" lon="16.6276861123">
		<tag k="name" v="Forsaskaret" />
		<tag k="natural" v="valley" />
		<tag k="place" v="locality" />
		<tag k="ssr:stedsnr" v="706655" />
	</node>
	<node id="-698620" lat="68.2660179427" lon="16.7077496321">
		<tag k="alt_name" v="Eggvikhaugen" />
		<tag k="name" v="Eggevikhaugen" />
		<tag k="natural" v="hill" />
		<tag k="place" v="locality" />
		<tag k="ssr:stedsnr" v="706634" />
	</node>
	<node id="-698617" lat="68.3547416634" lon="16.5373777763">
		<tag k="name" v="Kobbedalen" />
		<tag k="natural" v="valley" />
		<tag k="place" v="locality" />
		<tag k="ssr:stedsnr" v="706613" />
	</node>
	<node id="-698616" lat="68.3598055587" lon="16.5697777865">
		<tag k="name" v="Atterbakken" />
		<tag k="natural" v="slope" />
		<tag k="place" v="locality" />
		<tag k="ssr:stedsnr" v="706607" />
	</node>
	<node id="-698615" lat="68.2372027793" lon="16.6825555651">
		<tag k="name" v="Buktaskaret" />
		<tag k="natural" v="valley" />
		<tag k="place" v="locality" />
		<tag k="ssr:stedsnr" v="706602" />
	</node>
	<node id="-698614" lat="68.2497999965" lon="16.7097527807">
		<tag k="name" v="Kaukarhaugen" />
		<tag k="natural" v="hill" />
		<tag k="place" v="locality" />
		<tag k="ssr:stedsnr" v="706592" />
	</node>
	<node id="-698613" lat="68.3789440259" lon="16.7864918801">
		<tag k="fixme" v="consider natural=peak for the most distinct mountains in the district" />
		<tag k="name" v="Vassåsen" />
		<tag k="natural" v="hill" />
		<tag k="place" v="locality" />
		<tag k="ssr:stedsnr" v="706552" />
	</node>
	<node id="-698612" lat="68.3810770295" lon="16.763264881">
		<tag k="fixme" v="consider natural=peak for the most distinct mountains in the district" />
		<tag k="name" v="Nilsheimhøgda" />
		<tag k="natural" v="hill" />
		<tag k="place" v="locality" />
		<tag k="ssr:stedsnr" v="706550" />
	</node>
	<node id="-698611" lat="68.3726527779" lon="16.8322749984">
		<tag k="name" v="Bødalen" />
		<tag k="natural" v="valley" />
		<tag k="place" v="locality" />
		<tag k="ssr:stedsnr" v="706544" />
	</node>
	<node id="-698607" lat="68.3014916684" lon="16.3105194526">
		<tag k="name" v="Butinddalen" />
		<tag k="natural" v="valley" />
		<tag k="place" v="locality" />
		<tag k="ssr:stedsnr" v="706332" />
	</node>
	<node id="-698606" lat="68.2869416672" lon="16.3985944335">
		<tag k="name" v="Storhågen" />
		<tag k="natural" v="hill" />
		<tag k="place" v="locality" />
		<tag k="ssr:stedsnr" v="706327" />
	</node>
	<node id="-698600" lat="68.3940722255" lon="16.8229611099">
		<tag k="name" v="Knausen" />
		<tag k="natural" v="hill" />
		<tag k="place" v="locality" />
		<tag k="ssr:stedsnr" v="693313" />
	</node>
	<node id="-698594" lat="68.3767805563" lon="16.8884722153">
		<tag k="fixme" v="consider natural=peak for the most distinct mountains in the district" />
		<tag k="name" v="Bøåsen" />
		<tag k="natural" v="hill" />
		<tag k="place" v="locality" />
		<tag k="ssr:stedsnr" v="692283" />
	</node>
	<node id="-698591" lat="68.3288944478" lon="16.714677786">
		<tag k="name" v="Høgda" />
		<tag k="natural" v="hill" />
		<tag k="place" v="locality" />
		<tag k="ssr:stedsnr" v="692159" />
	</node>
	<node id="-698590" lat="68.4094611106" lon="16.7180277743">
		<tag k="name" v="Dallan" />
		<tag k="natural" v="valley" />
		<tag k="place" v="locality" />
		<tag k="ssr:stedsnr" v="692024" />
	</node>
	<node id="-698589" lat="68.2125305595" lon="16.6437389011">
		<tag k="name" v="Seglberget" />
		<tag k="natural" v="hill" />
		<tag k="place" v="locality" />
		<tag k="ssr:stedsnr" v="689968" />
	</node>
	<node id="-698585" lat="68.3399027804" lon="17.0717361174">
		<tag k="fixme" v="consider natural=peak for the most distinct mountains in the district" />
		<tag k="loc_name:no" v="Råntinden" />
		<tag k="name" v="Rånkeipen - Ránusággi" />
		<tag k="name:no" v="Rånkeipen" />
		<tag k="name:se" v="Ránusággi" />
		<tag k="natural" v="hill" />
		<tag k="old_name:se" v="Ranosaggi" />
		<tag k="place" v="locality" />
		<tag k="ssr:stedsnr" v="689892" />
	</node>
	<node id="-698583" lat="68.2787611114" lon="17.0127222247">
		<tag k="name" v="Mikkelteigen" />
		<tag k="natural" v="slope" />
		<tag k="place" v="locality" />
		<tag k="ssr:stedsnr" v="689390" />
	</node>
	<node id="-698580" lat="68.2542833344" lon="17.0579083209">
		<tag k="name" v="Holtan" />
		<tag k="natural" v="hill" />
		<tag k="place" v="locality" />
		<tag k="ssr:stedsnr" v="689378" />
	</node>
	<node id="-698578" lat="68.3815055523" lon="16.8610583365">
		<tag k="fixme" v="consider natural=peak for the most distinct mountains in the district" />
		<tag k="name" v="Skavåsen" />
		<tag k="natural" v="hill" />
		<tag k="place" v="locality" />
		<tag k="ssr:stedsnr" v="685935" />
	</node>
	<node id="-698576" lat="68.3702494863" lon="16.8647637431">
		<tag k="name" v="Ramnflåget" />
		<tag k="natural" v="hill" />
		<tag k="place" v="locality" />
		<tag k="ssr:stedsnr" v="685906" />
	</node>
	<node id="-698574" lat="68.3440083312" lon="16.9801666584">
		<tag k="name" v="Ellingdalen" />
		<tag k="natural" v="valley" />
		<tag k="place" v="locality" />
		<tag k="ssr:stedsnr" v="685885" />
	</node>
	<node id="-698572" lat="68.3055611094" lon="16.8279749913">
		<tag k="name" v="Rundtuva" />
		<tag k="natural" v="hill" />
		<tag k="place" v="locality" />
		<tag k="ssr:stedsnr" v="685875" />
	</node>
	<node id="-698565" lat="68.2555500016" lon="17.1521833343">
		<tag k="fixme" v="consider natural=peak for the most distinct mountains in the district" />
		<tag k="name" v="Čáhppesčohkka" />
		<tag k="name:se" v="Čáhppesčohkka" />
		<tag k="natural" v="hill" />
		<tag k="old_name:se" v="Čappesčåkka" />
		<tag k="place" v="locality" />
		<tag k="ssr:stedsnr" v="685766" />
	</node>
	<node id="-698562" lat="68.3914000016" lon="16.6773472295">
		<tag k="alt_name" v="Berfjellryggen" />
		<tag k="fixme" v="consider natural=peak for the most distinct mountains in the district" />
		<tag k="name" v="Bærfjellryggen" />
		<tag k="natural" v="hill" />
		<tag k="place" v="locality" />
		<tag k="ssr:stedsnr" v="684743" />
	</node>
	<node id="-698557" lat="68.1712777744" lon="16.9672305591">
		<tag k="fixme" v="consider natural=peak for the most distinct mountains in the district" />
		<tag k="name" v="Mellomfjellet" />
		<tag k="natural" v="hill" />
		<tag k="place" v="locality" />
		<tag k="ssr:stedsnr" v="684704" />
	</node>
	<node id="-698555" lat="68.3708305515" lon="16.5488472251">
		<tag k="name" v="Snøgropdalen" />
		<tag k="natural" v="valley" />
		<tag k="place" v="locality" />
		<tag k="ssr:stedsnr" v="684690" />
	</node>
	<node id="-698553" lat="68.2085444412" lon="16.9855860999">
		<tag k="name" v="Stubbedalen" />
		<tag k="natural" v="valley" />
		<tag k="place" v="locality" />
		<tag k="ssr:stedsnr" v="684684" />
	</node>
	<node id="-698550" lat="68.3321972222" lon="16.6903972324">
		<tag k="name" v="Kalvåsdalen" />
		<tag k="natural" v="valley" />
		<tag k="place" v="locality" />
		<tag k="ssr:stedsnr" v="684635" />
	</node>
	<node id="-698548" lat="68.3245166687" lon="16.4553472146">
		<tag k="name" v="Storsteindalen" />
		<tag k="natural" v="valley" />
		<tag k="place" v="locality" />
		<tag k="ssr:stedsnr" v="684622" />
	</node>
	<node id="-698538" lat="68.2666305595" lon="16.447608326">
		<tag k="name" v="Svadet" />
		<tag k="natural" v="slope" />
		<tag k="place" v="locality" />
		<tag k="ssr:stedsnr" v="684547" />
	</node>
	<node id="-698527" lat="68.3503527766" lon="16.363449993">
		<tag k="fixme" v="consider natural=peak for the most distinct mountains in the district" />
		<tag k="name" v="Tverrfjellet" />
		<tag k="natural" v="hill" />
		<tag k="place" v="locality" />
		<tag k="ssr:stedsnr" v="659787" />
	</node>
	<node id="-698524" lat="68.3269333298" lon="17.0553361112">
		<tag k="name" v="Rantholla" />
		<tag k="natural" v="valley" />
		<tag k="place" v="locality" />
		<tag k="ssr:stedsnr" v="645922" />
	</node>
	<node id="-698519" lat="68.2798111074" lon="16.6256527678">
		<tag k="name" v="Grønnbakkan" />
		<tag k="natural" v="slope" />
		<tag k="place" v="locality" />
		<tag k="ssr:stedsnr" v="645655" />
	</node>
	<node id="-698517" lat="68.4046777787" lon="16.5644555551">
		<tag k="name" v="Steinbakkan" />
		<tag k="natural" v="slope" />
		<tag k="place" v="locality" />
		<tag k="ssr:stedsnr" v="645617" />
	</node>
	<node id="-698516" lat="68.402677776" lon="16.506630561">
		<tag k="fixme" v="consider natural=peak for the most distinct mountains in the district" />
		<tag k="name" v="Grønnlikollen" />
		<tag k="natural" v="hill" />
		<tag k="place" v="locality" />
		<tag k="ssr:stedsnr" v="645611" />
	</node>
	<node id="-698515" lat="68.2440722217" lon="16.7267111114">
		<tag k="name" v="Tomashaugen" />
		<tag k="natural" v="hill" />
		<tag k="place" v="locality" />
		<tag k="ssr:stedsnr" v="645592" />
	</node>
	<node id="-698513" lat="68.2490833324" lon="16.6937583311">
		<tag k="name" v="Storskaret" />
		<tag k="natural" v="valley" />
		<tag k="place" v="locality" />
		<tag k="ssr:stedsnr" v="645581" />
	</node>
	<node id="-698512" lat="68.2777694421" lon="16.7431861102">
		<tag k="name" v="Reinarhaugen" />
		<tag k="natural" v="hill" />
		<tag k="place" v="locality" />
		<tag k="ssr:stedsnr" v="645495" />
	</node>
	<node id="-698510" lat="68.2519444475" lon="16.7544972108">
		<tag k="fixme" v="consider natural=peak for the most distinct mountains in the district" />
		<tag k="name" v="Kampen" />
		<tag k="natural" v="hill" />
		<tag k="place" v="locality" />
		<tag k="ssr:stedsnr" v="645478" />
	</node>
	<node id="-698509" lat="68.3381277799" lon="16.0590333441">
		<tag k="name" v="Kvitbergan" />
		<tag k="natural" v="hill" />
		<tag k="place" v="locality" />
		<tag k="ssr:stedsnr" v="645387" />
	</node>
	<node id="-698508" lat="68.3241694404" lon="16.220419439">
		<tag k="name" v="Trollhågen" />
		<tag k="natural" v="hill" />
		<tag k="place" v="locality" />
		<tag k="ssr:stedsnr" v="645357" />
	</node>
	<node id="-698506" lat="68.3338138878" lon="16.5382694488">
		<tag k="name" v="Store Skaidi" />
		<tag k="natural" v="hill" />
		<tag k="place" v="locality" />
		<tag k="ssr:stedsnr" v="645332" />
	</node>
	<node id="-698502" lat="68.3136666666" lon="16.3114388965">
		<tag k="name" v="Gåsjenesdalen" />
		<tag k="natural" v="valley" />
		<tag k="place" v="locality" />
		<tag k="ssr:stedsnr" v="645235" />
	</node>
	<node id="-698500" lat="68.3374972239" lon="16.9324416612">
		<tag k="name" v="Brekken" />
		<tag k="natural" v="slope" />
		<tag k="place" v="locality" />
		<tag k="ssr:stedsnr" v="633440" />
	</node>
	<node id="-698499" lat="68.3891750038" lon="16.8452777712">
		<tag k="fixme" v="consider natural=peak for the most distinct mountains in the district" />
		<tag k="name" v="Toppåsen" />
		<tag k="natural" v="hill" />
		<tag k="place" v="locality" />
		<tag k="ssr:stedsnr" v="633296" />
	</node>
	<node id="-698497" lat="68.3934459408" lon="16.7336869096">
		<tag k="name" v="Mellomtuva" />
		<tag k="natural" v="hill" />
		<tag k="place" v="locality" />
		<tag k="ssr:stedsnr" v="633288" />
	</node>
	<node id="-698495" lat="68.398619445" lon="16.832000011">
		<tag k="name" v="Famnvedberget" />
		<tag k="natural" v="hill" />
		<tag k="place" v="locality" />
		<tag k="ssr:stedsnr" v="632274" />
	</node>
	<node id="-698494" lat="68.3550111079" lon="16.7917000049">
		<tag k="name" v="Trolldalshaugen" />
		<tag k="natural" v="hill" />
		<tag k="place" v="locality" />
		<tag k="ssr:stedsnr" v="631413" />
	</node>
	<node id="-698493" lat="68.3281500025" lon="16.7903833357">
		<tag k="name" v="Sylla" />
		<tag k="place" v="locality" />
		<tag k="ssr:stedsnr" v="631412" />
	</node>
	<node id="-698492" lat="68.3333111101" lon="16.7375694522">
		<tag k="name" v="Høgland" />
		<tag k="natural" v="hill" />
		<tag k="place" v="locality" />
		<tag k="ssr:stedsnr" v="631405" />
	</node>
	<node id="-698487" lat="68.2980805585" lon="16.7063388948">
		<tag k="name" v="Håkonhola" />
		<tag k="natural" v="valley" />
		<tag k="place" v="locality" />
		<tag k="ssr:stedsnr" v="631154" />
	</node>
	<node id="-698486" lat="68.3825555561" lon="16.3735333302">
		<tag k="name" v="Skjærlægda" />
		<tag k="natural" v="hill" />
		<tag k="place" v="locality" />
		<tag k="ssr:stedsnr" v="628936" />
	</node>
	<node id="-698482" lat="68.3715555537" lon="16.3117333429">
		<tag k="name" v="Stongfjellet" />
		<tag k="natural" v="hill" />
		<tag k="place" v="locality" />
		<tag k="ssr:stedsnr" v="628515" />
	</node>
	<node id="-698480" lat="68.3034472225" lon="17.0148444381">
		<tag k="name" v="Gjerdskreda" />
		<tag k="place" v="locality" />
		<tag k="ssr:stedsnr" v="628381" />
	</node>
	<node id="-698479" lat="68.3205777775" lon="17.0157360995">
		<tag k="name" v="Hundbergan" />
		<tag k="natural" v="hill" />
		<tag k="place" v="locality" />
		<tag k="ssr:stedsnr" v="628380" />
	</node>
	<node id="-698477" lat="68.2627333371" lon="17.0553833231">
		<tag k="name" v="Eggebakken" />
		<tag k="natural" v="slope" />
		<tag k="place" v="locality" />
		<tag k="ssr:stedsnr" v="628331" />
	</node>
	<node id="-698474" lat="68.3774499986" lon="16.8494833336">
		<tag k="fixme" v="consider natural=peak for the most distinct mountains in the district" />
		<tag k="name" v="Rapet" />
		<tag k="natural" v="hill" />
		<tag k="place" v="locality" />
		<tag k="ssr:stedsnr" v="624956" />
	</node>
	<node id="-698468" lat="68.3444194433" lon="17.0598805586">
		<tag k="fixme" v="consider natural=peak for the most distinct mountains in the district" />
		<tag k="name" v="Råntindaksla" />
		<tag k="natural" v="hill" />
		<tag k="place" v="locality" />
		<tag k="ssr:stedsnr" v="624889" />
	</node>
	<node id="-698465" lat="68.294725" lon="16.8812555446">
		<tag k="fixme" v="consider natural=peak for the most distinct mountains in the district" />
		<tag k="name" v="Harenesa" />
		<tag k="natural" v="hill" />
		<tag k="place" v="locality" />
		<tag k="ssr:stedsnr" v="624817" />
	</node>
	<node id="-698464" lat="68.2688055527" lon="16.9169333274">
		<tag k="fixme" v="consider natural=peak for the most distinct mountains in the district" />
		<tag k="name" v="Surgrasfjellet" />
		<tag k="natural" v="hill" />
		<tag k="place" v="locality" />
		<tag k="ssr:stedsnr" v="624787" />
	</node>
	<node id="-698460" lat="68.4084138895" lon="16.6995805593">
		<tag k="fixme" v="consider natural=peak for the most distinct mountains in the district" />
		<tag k="name" v="Åsen" />
		<tag k="natural" v="hill" />
		<tag k="place" v="locality" />
		<tag k="ssr:stedsnr" v="623760" />
	</node>
	<node id="-698459" lat="68.372508337" lon="16.5150611013">
		<tag k="fixme" v="consider natural=peak for the most distinct mountains in the district" />
		<tag k="name" v="Vargfjellet" />
		<tag k="natural" v="hill" />
		<tag k="place" v="locality" />
		<tag k="ssr:stedsnr" v="623755" />
	</node>
	<node id="-698456" lat="68.3616611101" lon="16.623599991">
		<tag k="fixme" v="consider natural=peak for the most distinct mountains in the district" />
		<tag k="name" v="Fuglefjellet" />
		<tag k="natural" v="hill" />
		<tag k="place" v="locality" />
		<tag k="ssr:stedsnr" v="623731" />
	</node>
	<node id="-698455" lat="68.1096388911" lon="17.2393861046">
		<tag k="name" v="Sijdasbuollda" />
		<tag k="name:smj" v="Sijdasbuollda" />
		<tag k="natural" v="slope" />
		<tag k="old_name:smj" v="Siidasbuolda" />
		<tag k="place" v="locality" />
		<tag k="ssr:stedsnr" v="623723" />
	</node>
	<node id="-698454" lat="68.3563222199" lon="16.3628611191">
		<tag k="name" v="Skarstaddalen" />
		<tag k="natural" v="valley" />
		<tag k="place" v="locality" />
		<tag k="ssr:stedsnr" v="623711" />
	</node>
	<node id="-698452" lat="68.365166663" lon="16.8037611053">
		<tag k="fixme" v="consider natural=peak for the most distinct mountains in the district" />
		<tag k="name" v="Bøkollen" />
		<tag k="natural" v="hill" />
		<tag k="place" v="locality" />
		<tag k="ssr:stedsnr" v="623704" />
	</node>
	<node id="-698451" lat="68.3482333309" lon="16.7423027794">
		<tag k="name" v="Storjorda" />
		<tag k="place" v="locality" />
		<tag k="ssr:stedsnr" v="623697" />
	</node>
	<node id="-698448" lat="68.3332499962" lon="16.4469861166">
		<tag k="name" v="Tortenlia" />
		<tag k="natural" v="slope" />
		<tag k="place" v="locality" />
		<tag k="ssr:stedsnr" v="623674" />
	</node>
	<node id="-698446" lat="68.3227833298" lon="16.7221916688">
		<tag k="fixme" v="consider natural=peak for the most distinct mountains in the district" />
		<tag k="name" v="Bruksåsen" />
		<tag k="natural" v="hill" />
		<tag k="place" v="locality" />
		<tag k="ssr:stedsnr" v="623664" />
	</node>
	<node id="-698444" lat="68.313569442" lon="16.7221999884">
		<tag k="name" v="Bruksåsmoen" />
		<tag k="place" v="locality" />
		<tag k="ssr:stedsnr" v="623650" />
	</node>
	<node id="-698442" lat="68.298602776" lon="16.5726638815">
		<tag k="name" v="Gulliklia" />
		<tag k="natural" v="slope" />
		<tag k="place" v="locality" />
		<tag k="ssr:stedsnr" v="623634" />
	</node>
	<node id="-698436" lat="68.2915027768" lon="16.7645499876">
		<tag k="name" v="Kvannvikdalen" />
		<tag k="natural" v="valley" />
		<tag k="place" v="locality" />
		<tag k="ssr:stedsnr" v="623608" />
	</node>
	<node id="-698422" lat="68.3944277825" lon="16.527966659">
		<tag k="name" v="Løbakken" />
		<tag k="natural" v="slope" />
		<tag k="place" v="locality" />
		<tag k="ssr:stedsnr" v="585623" />
	</node>
	<node id="-698421" lat="68.4088749979" lon="16.5090138949">
		<tag k="name" v="Daumannshella" />
		<tag k="place" v="locality" />
		<tag k="ssr:stedsnr" v="585609" />
	</node>
	<node id="-698417" lat="68.3600583329" lon="16.8016305657">
		<tag k="name" v="Furuhauglemman" />
		<tag k="natural" v="hill" />
		<tag k="place" v="locality" />
		<tag k="ssr:stedsnr" v="585552" />
	</node>
	<node id="-698416" lat="68.2752500019" lon="16.7582027691">
		<tag k="fixme" v="consider natural=peak for the most distinct mountains in the district" />
		<tag k="name" v="Skjåfjellhammaren" />
		<tag k="natural" v="hill" />
		<tag k="place" v="locality" />
		<tag k="ssr:stedsnr" v="585476" />
	</node>
	<node id="-698415" lat="68.2452194448" lon="16.7430499946">
		<tag k="name" v="Einhaugen" />
		<tag k="natural" v="hill" />
		<tag k="place" v="locality" />
		<tag k="ssr:stedsnr" v="585474" />
	</node>
	<node id="-698414" lat="68.3224749967" lon="16.205722231">
		<tag k="name" v="Storhågen" />
		<tag k="natural" v="hill" />
		<tag k="place" v="locality" />
		<tag k="ssr:stedsnr" v="585336" />
	</node>
	<node id="-698413" lat="68.3205611119" lon="16.2366499916">
		<tag k="name" v="Storhågen" />
		<tag k="natural" v="hill" />
		<tag k="place" v="locality" />
		<tag k="ssr:stedsnr" v="585331" />
	</node>
	<node id="-698405" lat="68.397522218" lon="16.7996694389">
		<tag k="name" v="Forrahågen" />
		<tag k="natural" v="hill" />
		<tag k="place" v="locality" />
		<tag k="ssr:stedsnr" v="572327" />
	</node>
	<node id="-698404" lat="68.4191749957" lon="16.7311527811">
		<tag k="name" v="Ramnkleiva" />
		<tag k="natural" v="ridge" />
		<tag k="place" v="locality" />
		<tag k="ssr:stedsnr" v="572322" />
	</node>
	<node id="-698401" lat="68.3577055595" lon="16.7703888888">
		<tag k="name" v="Enighetsflåget" />
		<tag k="natural" v="cliff" />
		<tag k="ssr:stedsnr" v="571454" />
	</node>
	<node id="-698400" lat="68.3469194445" lon="16.7813694457">
		<tag k="name" v="Storhaugen" />
		<tag k="natural" v="hill" />
		<tag k="place" v="locality" />
		<tag k="ssr:stedsnr" v="571453" />
	</node>
	<node id="-698396" lat="68.4082750034" lon="16.7331999968">
		<tag k="name" v="Storlia" />
		<tag k="natural" v="slope" />
		<tag k="place" v="locality" />
		<tag k="ssr:stedsnr" v="571280" />
	</node>
	<node id="-698395" lat="68.3754611082" lon="16.8575555511">
		<tag k="name" v="Skabakken" />
		<tag k="natural" v="slope" />
		<tag k="place" v="locality" />
		<tag k="ssr:stedsnr" v="571260" />
	</node>
	<node id="-698393" lat="68.3660194418" lon="16.8540444418">
		<tag k="name" v="Moltforrhøgda" />
		<tag k="natural" v="hill" />
		<tag k="place" v="locality" />
		<tag k="ssr:stedsnr" v="571255" />
	</node>
	<node id="-698391" lat="68.3707944432" lon="16.8913861055">
		<tag k="name" v="Andhaugen" />
		<tag k="natural" v="hill" />
		<tag k="place" v="locality" />
		<tag k="ssr:stedsnr" v="571247" />
	</node>
	<node id="-698390" lat="68.3796749971" lon="16.6202805447">
		<tag k="name" v="Brennhaugen" />
		<tag k="natural" v="hill" />
		<tag k="place" v="locality" />
		<tag k="ssr:stedsnr" v="571232" />
	</node>
	<node id="-698388" lat="68.4202416656" lon="16.6360444458">
		<tag k="name" v="Nordneshaugen" />
		<tag k="natural" v="hill" />
		<tag k="place" v="locality" />
		<tag k="ssr:stedsnr" v="570400" />
	</node>
	<node id="-698387" lat="68.3885111102" lon="16.6335027876">
		<tag k="name" v="Lappheimbakkan" />
		<tag k="natural" v="slope" />
		<tag k="place" v="locality" />
		<tag k="ssr:stedsnr" v="570192" />
	</node>
	<node id="-698384" lat="68.4023722199" lon="16.7208555561">
		<tag k="fixme" v="consider natural=peak for the most distinct mountains in the district" />
		<tag k="name" v="Nævan" />
		<tag k="natural" v="hill" />
		<tag k="place" v="locality" />
		<tag k="ssr:stedsnr" v="570022" />
	</node>
	<node id="-698381" lat="68.3970361114" lon="16.4619750025">
		<tag k="name" v="Merrviklemmen" />
		<tag k="natural" v="hill" />
		<tag k="place" v="locality" />
		<tag k="ssr:stedsnr" v="567949" />
	</node>
	<node id="-698376" lat="68.2692138888" lon="17.017633321">
		<tag k="name" v="Kjellarranen" />
		<tag k="natural" v="slope" />
		<tag k="place" v="locality" />
		<tag k="ssr:stedsnr" v="567381" />
	</node>
	<node id="-698375" lat="68.3170499963" lon="17.013061118">
		<tag k="name" v="Skjellskreda" />
		<tag k="place" v="locality" />
		<tag k="ssr:stedsnr" v="567380" />
	</node>
	<node id="-698371" lat="68.3602749996" lon="17.0744194307">
		<tag k="fixme" v="consider natural=peak for the most distinct mountains in the district" />
		<tag k="name" v="Saltvikryggen" />
		<tag k="natural" v="hill" />
		<tag k="place" v="locality" />
		<tag k="ssr:stedsnr" v="563948" />
	</node>
	<node id="-698370" lat="68.3672055571" lon="16.8217222226">
		<tag k="fixme" v="consider natural=peak for the most distinct mountains in the district" />
		<tag k="name" v="Tortenåsen" />
		<tag k="natural" v="hill" />
		<tag k="place" v="locality" />
		<tag k="ssr:stedsnr" v="563945" />
	</node>
</osm>
