<?xml version="1.0" encoding="UTF-8"?>
<osm generator="osmapis" version="0.6">
	<node id="-699903" lat="68.3097833339" lon="16.6694055528">
		<tag k="name" v="Ballangsmarka" />
		<tag k="place" v="locality" />
		<tag k="ssr:stedsnr" v="745615" />
	</node>
	<node id="-698622" lat="68.3480361137" lon="16.0996916738">
		<tag k="name" v="Akselhamnmyra" />
		<tag k="natural" v="wetland" />
		<tag k="ssr:stedsnr" v="282387" />
	</node>
	<node id="-698845" lat="68.3780722229" lon="16.6652749955">
		<tag k="name" v="Storjorda" />
		<tag k="natural" v="wetland" />
		<tag k="ssr:stedsnr" v="889638" />
	</node>
	<node id="-698842" lat="68.2440694436" lon="16.7137972113">
		<tag k="name" v="Forrhaugmyra" />
		<tag k="natural" v="wetland" />
		<tag k="ssr:stedsnr" v="889594" />
	</node>
	<node id="-699348" lat="68.3455611092" lon="16.7529027781">
		<tag k="name" v="Botnmyra" />
		<tag k="natural" v="wetland" />
		<tag k="ssr:stedsnr" v="268440" />
	</node>
	<node id="-699854" lat="68.3664083346" lon="16.8956138835">
		<tag k="name" v="Flotta" />
		<tag k="place" v="locality" />
		<tag k="ssr:stedsnr" v="693317" />
	</node>
	<node id="-699853" lat="68.3924305562" lon="16.8211916589">
		<tag k="name" v="Bjørnbåsmyra" />
		<tag k="natural" v="wetland" />
		<tag k="ssr:stedsnr" v="693314" />
	</node>
	<node id="-698825" lat="68.244116669" lon="16.7031361082">
		<tag k="name" v="Storfjellmyra" />
		<tag k="natural" v="wetland" />
		<tag k="ssr:stedsnr" v="403590" />
	</node>
	<node id="-698823" lat="68.3187083357" lon="16.2335416769">
		<tag k="name" v="Topphågmyra" />
		<tag k="natural" v="wetland" />
		<tag k="ssr:stedsnr" v="403352" />
	</node>
	<node id="-699845" lat="68.3942361084" lon="16.6315888846">
		<tag k="name" v="Vassbotn" />
		<tag k="natural" v="wetland" />
		<tag k="ssr:stedsnr" v="692208" />
	</node>
	<node id="-699844" lat="68.3837666659" lon="16.6931027777">
		<tag k="name" v="Lappsteinen" />
		<tag k="natural" v="stone" />
		<tag k="ssr:stedsnr" v="692166" />
	</node>
	<node id="-698816" lat="68.3745055586" lon="17.0434138868">
		<tag k="name" v="Bautastein" />
		<tag k="natural" v="stone" />
		<tag k="ssr:stedsnr" v="389742" />
	</node>
	<node id="-699327" lat="68.2673416673" lon="17.0543666625">
		<tag k="name" v="Dikan" />
		<tag k="natural" v="scree" />
		<tag k="ssr:stedsnr" v="264343" />
	</node>
	<node id="-698813" lat="68.3388027788" lon="16.8902916543">
		<tag k="name" v="Lillemyra" />
		<tag k="natural" v="wetland" />
		<tag k="ssr:stedsnr" v="389385" />
	</node>
	<node id="-698812" lat="68.3585527767" lon="16.8265860998">
		<tag k="name" v="Fjellmyra" />
		<tag k="natural" v="wetland" />
		<tag k="ssr:stedsnr" v="389298" />
	</node>
	<node id="-698954" lat="68.3388111114" lon="16.8101166731">
		<tag k="name" v="Langåsmyra" />
		<tag k="natural" v="wetland" />
		<tag k="ssr:stedsnr" v="25442" />
	</node>
	<node id="-699833" lat="68.2600777817" lon="17.0349750101">
		<tag k="name" v="Kvolvet" />
		<tag k="place" v="locality" />
		<tag k="ssr:stedsnr" v="689384" />
	</node>
	<node id="-699316" lat="68.3254416664" lon="17.0560999929">
		<tag k="name" v="Åkran" />
		<tag k="place" v="locality" />
		<tag k="ssr:stedsnr" v="260883" />
	</node>
	<node id="-698803" lat="68.3765916707" lon="16.8940611085">
		<tag k="name" v="Kalvegarden" />
		<tag k="place" v="locality" />
		<tag k="ssr:stedsnr" v="388289" />
	</node>
	<node id="-698794" lat="68.3320972211" lon="16.3850861191">
		<tag k="name" v="Stortuva" />
		<tag k="natural" v="wetland" />
		<tag k="ssr:stedsnr" v="385559" />
	</node>
	<node id="-699808" lat="68.1371888918" lon="16.9232666676">
		<tag k="fixme" v="multiple name tags, choose one and add the other to alt_name" />
		<tag k="name" v="Botnisen;Skårisen" />
		<tag k="natural" v="glacier" />
		<tag k="ssr:stedsnr" v="684694" />
	</node>
	<node id="-699269" lat="68.1530750024" lon="16.7885722302">
		<tag k="name" v="Mannstein" />
		<tag k="natural" v="stone" />
		<tag k="ssr:stedsnr" v="225437" />
	</node>
	<node id="-700054" lat="68.2855944479" lon="17.0101388955">
		<tag k="name" v="Metallskreda" />
		<tag k="natural" v="scree" />
		<tag k="ssr:stedsnr" v="810394" />
	</node>
	<node id="-699248" lat="68.3482527753" lon="17.0107305638">
		<tag k="name" v="Plantefeltet" />
		<tag k="place" v="locality" />
		<tag k="ssr:stedsnr" v="207365" />
	</node>
	<node id="-700136" lat="68.3057888895" lon="17.1114916598">
		<tag k="name" v="Bjørnsteinmyra" />
		<tag k="natural" v="wetland" />
		<tag k="ssr:stedsnr" v="867880" />
	</node>
	<node id="-700270" lat="68.1559583378" lon="16.762297215">
		<tag k="name" v="Kirkestein" />
		<tag k="natural" v="stone" />
		<tag k="ssr:stedsnr" v="953437" />
	</node>
	<node id="-700268" lat="68.3003944406" lon="16.6123305648">
		<tag k="name" v="Storforsmyra" />
		<tag k="natural" v="wetland" />
		<tag k="ssr:stedsnr" v="949690" />
	</node>
	<node id="-699239" lat="68.3268611088" lon="16.6633472085">
		<tag k="name" v="Muskmyra vest" />
		<tag k="natural" v="wetland" />
		<tag k="ssr:stedsnr" v="206159" />
	</node>
	<node id="-700262" lat="68.3489777738" lon="16.1199472205">
		<tag k="name" v="Trollmyra" />
		<tag k="natural" v="wetland" />
		<tag k="ssr:stedsnr" v="949258" />
	</node>
	<node id="-699963" lat="68.4019666672" lon="16.6846250004">
		<tag k="name" v="Skjellmyra" />
		<tag k="natural" v="wetland" />
		<tag k="ssr:stedsnr" v="752193" />
	</node>
	<node id="-699743" lat="68.3487055596" lon="16.9552333345">
		<tag k="name" v="Forraholtet" />
		<tag k="place" v="locality" />
		<tag k="ssr:stedsnr" v="631345" />
	</node>
	<node id="-699735" lat="68.3668861152" lon="16.3172888964">
		<tag k="name" v="Uran" />
		<tag k="natural" v="scree" />
		<tag k="ssr:stedsnr" v="628534" />
	</node>
	<node id="-699733" lat="68.2896055566" lon="17.0121527661">
		<tag k="name" v="Bjørnsteinen" />
		<tag k="natural" v="stone" />
		<tag k="ssr:stedsnr" v="628390" />
	</node>
	<node id="-700242" lat="68.3904777755" lon="16.6418722183">
		<tag k="name" v="Bergvassmyra" />
		<tag k="natural" v="wetland" />
		<tag k="ssr:stedsnr" v="935202" />
	</node>
	<node id="-698704" lat="68.3474083329" lon="16.82838888">
		<tag k="name" v="Åsmyran" />
		<tag k="natural" v="wetland" />
		<tag k="ssr:stedsnr" v="328411" />
	</node>
	<node id="-698703" lat="68.3603638885" lon="16.8699138955">
		<tag k="name" v="Husvassmyra" />
		<tag k="natural" v="wetland" />
		<tag k="ssr:stedsnr" v="328407" />
	</node>
	<node id="-699722" lat="68.3747805566" lon="16.8250305626">
		<tag k="name" v="Sikan" />
		<tag k="natural" v="wetland" />
		<tag k="ssr:stedsnr" v="624904" />
	</node>
	<node id="-699719" lat="68.3479111088" lon="16.8233388774">
		<tag k="fixme" v="multiple name tags, choose one and add the other to alt_name" />
		<tag k="name" v="Ivarmyra;Åsmyra" />
		<tag k="natural" v="wetland" />
		<tag k="ssr:stedsnr" v="624880" />
	</node>
	<node id="-698690" lat="68.3322444485" lon="16.686583338">
		<tag k="name" v="Trollsteinen" />
		<tag k="natural" v="stone" />
		<tag k="ssr:stedsnr" v="328116" />
	</node>
	<node id="-699196" lat="68.3177833327" lon="16.6121000056">
		<tag k="alt_name" v="Skogelvmyrene" />
		<tag k="name" v="Skogelvmyran" />
		<tag k="natural" v="wetland" />
		<tag k="ssr:stedsnr" v="199645" />
	</node>
	<node id="-698677" lat="68.2733194457" lon="17.045569445">
		<tag k="name" v="Holsmedura" />
		<tag k="natural" v="scree" />
		<tag k="ssr:stedsnr" v="325393" />
	</node>
	<node id="-699183" lat="68.3748777777" lon="16.7113249945">
		<tag k="name" v="Håfjellmarka" />
		<tag k="place" v="locality" />
		<tag k="ssr:stedsnr" v="160688" />
	</node>
	<node id="-698659" lat="68.3772134074" lon="16.8122340098">
		<tag k="alt_name" v="Daulappen" />
		<tag k="name" v="Daudlappen" />
		<tag k="place" v="locality" />
		<tag k="ssr:stedsnr" v="320703" />
	</node>
	<node id="-698757" lat="68.2955472251" lon="16.7149249954">
		<tag k="name" v="Ivarmyra" />
		<tag k="natural" v="wetland" />
		<tag k="ssr:stedsnr" v="381613" />
	</node>
	<node id="-698648" lat="68.2834361074" lon="16.6734861047">
		<tag k="name" v="Langåsmyra" />
		<tag k="natural" v="wetland" />
		<tag k="ssr:stedsnr" v="320555" />
	</node>
	<node id="-699159" lat="68.3617083353" lon="16.8314611223">
		<tag k="name" v="Striteigen" />
		<tag k="place" v="locality" />
		<tag k="ssr:stedsnr" v="146249" />
	</node>
	<node id="-699155" lat="68.4053500007" lon="16.6884138873">
		<tag k="name" v="Bjennmyra" />
		<tag k="natural" v="wetland" />
		<tag k="ssr:stedsnr" v="145211" />
	</node>
	<node id="-699664" lat="68.3482583325" lon="16.150736111">
		<tag k="name" v="Fjellmyra" />
		<tag k="natural" v="wetland" />
		<tag k="ssr:stedsnr" v="585239" />
	</node>
	<node id="-699151" lat="68.3271222177" lon="16.6708166725">
		<tag k="name" v="Muskmyra øst" />
		<tag k="natural" v="wetland" />
		<tag k="ssr:stedsnr" v="145146" />
	</node>
	<node id="-699654" lat="68.3563916659" lon="16.8636277854">
		<tag k="name" v="Leirvikmyra" />
		<tag k="natural" v="wetland" />
		<tag k="ssr:stedsnr" v="571458" />
	</node>
	<node id="-699139" lat="68.2586305584" lon="17.0430000101">
		<tag k="name" v="Slåttlemmen" />
		<tag k="place" v="locality" />
		<tag k="ssr:stedsnr" v="139761" />
	</node>
	<node id="-699650" lat="68.3406000025" lon="17.0286472206">
		<tag k="name" v="Steinan" />
		<tag k="natural" v="stone" />
		<tag k="ssr:stedsnr" v="571392" />
	</node>
	<node id="-699646" lat="68.3613666668" lon="16.8641083341">
		<tag k="name" v="Saltvassmyra" />
		<tag k="natural" v="wetland" />
		<tag k="ssr:stedsnr" v="571258" />
	</node>
	<node id="-699638" lat="68.3692111134" lon="16.6297833247">
		<tag k="name" v="Stormyra" />
		<tag k="natural" v="wetland" />
		<tag k="ssr:stedsnr" v="570129" />
	</node>
	<node id="-699632" lat="68.3231416638" lon="16.4034860999">
		<tag k="name" v="Brennmyran" />
		<tag k="natural" v="wetland" />
		<tag k="ssr:stedsnr" v="567543" />
	</node>
	<node id="-699624" lat="68.3743111094" lon="17.0691083343">
		<tag k="name" v="Stormyra" />
		<tag k="natural" v="wetland" />
		<tag k="ssr:stedsnr" v="563973" />
	</node>
	<node id="-699614" lat="68.2343083296" lon="17.1847888781">
		<tag k="name" v="Frostisen - Ruostajiekŋa" />
		<tag k="name:no" v="Frostisen" />
		<tag k="name:se" v="Ruostajiekŋa" />
		<tag k="natural" v="glacier" />
		<tag k="old_name:se" v="Ruostajiekńa;Ruostajiekna;Ruosstajiegńa" />
		<tag k="ssr:stedsnr" v="563767" />
	</node>
	<node id="-699604" lat="68.323566665" lon="16.5938527804">
		<tag k="name" v="Storsteinmyra" />
		<tag k="natural" v="wetland" />
		<tag k="ssr:stedsnr" v="563662" />
	</node>
	<node id="-699076" lat="68.309077782" lon="16.1837722189">
		<tag k="name" v="Brennskogen" />
		<tag k="place" v="locality" />
		<tag k="ssr:stedsnr" v="100354" />
	</node>
	<node id="-699071" lat="68.3440833319" lon="16.1626916763">
		<tag k="name" v="Fortkråa" />
		<tag k="natural" v="wetland" />
		<tag k="ssr:stedsnr" v="100250" />
	</node>
	<node id="-699060" lat="68.3631083365" lon="16.885411106">
		<tag k="name" v="Sjurkjerran" />
		<tag k="place" v="locality" />
		<tag k="ssr:stedsnr" v="86282" />
	</node>
	<node id="-699564" lat="68.3304083375" lon="16.6044055489">
		<tag k="name" v="Sumpvassmyra" />
		<tag k="natural" v="wetland" />
		<tag k="ssr:stedsnr" v="524695" />
	</node>
	<node id="-699051" lat="68.4062083307" lon="16.6927888831">
		<tag k="name" v="Sveet" />
		<tag k="place" v="locality" />
		<tag k="ssr:stedsnr" v="85164" />
	</node>
	<node id="-699047" lat="68.3581111123" lon="16.5923861106">
		<tag k="name" v="Kattvassmyra" />
		<tag k="natural" v="wetland" />
		<tag k="ssr:stedsnr" v="85131" />
	</node>
	<node id="-700062" lat="68.3778166634" lon="16.617800003">
		<tag k="name" v="Holmvassmyra" />
		<tag k="natural" v="wetland" />
		<tag k="ssr:stedsnr" v="813118" />
	</node>
	<node id="-699546" lat="68.3901749967" lon="16.8793750075">
		<tag k="name" v="Kvennes" />
		<tag k="place" v="locality" />
		<tag k="ssr:stedsnr" v="512265" />
	</node>
	<node id="-699332" lat="68.3245166692" lon="16.3693166616">
		<tag k="name" v="Strykmyra" />
		<tag k="natural" v="wetland" />
		<tag k="ssr:stedsnr" v="264550" />
	</node>
	<node id="-699542" lat="68.3494055594" lon="16.845719434">
		<tag k="name" v="Tranmyra" />
		<tag k="natural" v="wetland" />
		<tag k="ssr:stedsnr" v="510438" />
	</node>
	<node id="-699540" lat="68.3330305569" lon="16.8142611047">
		<tag k="name" v="Stormyra" />
		<tag k="natural" v="wetland" />
		<tag k="ssr:stedsnr" v="510424" />
	</node>
	<node id="-699536" lat="68.3540777817" lon="16.9503194414">
		<tag k="name" v="Legda" />
		<tag k="place" v="locality" />
		<tag k="ssr:stedsnr" v="510357" />
	</node>
	<node id="-699022" lat="68.338355555" lon="16.9054916553">
		<tag k="name" v="Dommarka" />
		<tag k="place" v="locality" />
		<tag k="ssr:stedsnr" v="78916" />
	</node>
	<node id="-699533" lat="68.3654305524" lon="16.8890777634">
		<tag k="name" v="Hesteloftet" />
		<tag k="place" v="locality" />
		<tag k="ssr:stedsnr" v="510242" />
	</node>
	<node id="-699530" lat="68.3160194401" lon="16.7208138866">
		<tag k="name" v="Gresmyra" />
		<tag k="natural" v="wetland" />
		<tag k="ssr:stedsnr" v="510151" />
	</node>
	<node id="-699244" lat="68.367849997" lon="16.9026138969">
		<tag k="name" v="Neita" />
		<tag k="place" v="locality" />
		<tag k="ssr:stedsnr" v="207252" />
	</node>
	<node id="-700027" lat="68.322441664" lon="16.5989916759">
		<tag k="alt_name" v="Fosshaugmyra" />
		<tag k="name" v="Forshaugmyra" />
		<tag k="natural" v="wetland" />
		<tag k="ssr:stedsnr" v="806628" />
	</node>
	<node id="-699750" lat="68.3943583296" lon="16.7621694419">
		<tag k="name" v="Ura" />
		<tag k="natural" v="scree" />
		<tag k="ssr:stedsnr" v="633290" />
	</node>
	<node id="-700176" lat="68.3778555554" lon="16.8677861156">
		<tag k="name" v="Mølnmyrbakkmyra" />
		<tag k="natural" v="wetland" />
		<tag k="ssr:stedsnr" v="875291" />
	</node>
	<node id="-698974" lat="68.3209222212" lon="16.6262055661">
		<tag k="name" v="Klubbnesmyra" />
		<tag k="natural" v="wetland" />
		<tag k="ssr:stedsnr" v="39670" />
	</node>
	<node id="-698971" lat="68.3088333356" lon="16.6476555541">
		<tag k="name" v="Nasmyra" />
		<tag k="natural" v="wetland" />
		<tag k="ssr:stedsnr" v="39652" />
	</node>
	<node id="-699479" lat="68.1676472233" lon="16.7702749891">
		<tag k="alt_name" v="Skarstein" />
		<tag k="name" v="Skorsteinen" />
		<tag k="natural" v="stone" />
		<tag k="ssr:stedsnr" v="502612" />
	</node>
	<node id="-699984" lat="68.3879111114" lon="16.7371583263">
		<tag k="name" v="Djupvikbakmarka" />
		<tag k="place" v="locality" />
		<tag k="ssr:stedsnr" v="755276" />
	</node>
	<node id="-699471" lat="68.2690944451" lon="16.4299333242">
		<tag k="name" v="Leirpollmarka" />
		<tag k="place" v="locality" />
		<tag k="ssr:stedsnr" v="502554" />
	</node>
	<node id="-699978" lat="68.3383972209" lon="16.8248944535">
		<tag k="name" v="Finnjord" />
		<tag k="place" v="locality" />
		<tag k="ssr:stedsnr" v="753375" />
	</node>
	<node id="-699975" lat="68.3426916676" lon="17.0281027816">
		<tag k="name" v="Storskreden" />
		<tag k="natural" v="scree" />
		<tag k="ssr:stedsnr" v="753333" />
	</node>
	<node id="-698950" lat="68.3417444426" lon="17.034722226">
		<tag k="name" v="Småskreden" />
		<tag k="natural" v="scree" />
		<tag k="ssr:stedsnr" v="25381" />
	</node>
	<node id="-698948" lat="68.3749694429" lon="16.8899305451">
		<tag k="name" v="Løhammaren" />
		<tag k="place" v="locality" />
		<tag k="ssr:stedsnr" v="25344" />
	</node>
	<node id="-699455" lat="68.2852194421" lon="16.6834333352">
		<tag k="name" v="Fuorsovuopmi" />
		<tag k="name:se" v="Fuorsovuopmi" />
		<tag k="place" v="locality" />
		<tag k="ssr:stedsnr" v="485051" />
	</node>
	<node id="-698939" lat="68.3284527753" lon="16.7198000085">
		<tag k="name" v="Siedjorda" />
		<tag k="place" v="locality" />
		<tag k="ssr:stedsnr" v="25159" />
	</node>
	<node id="-699450" lat="68.2410749989" lon="16.7223027821">
		<tag k="name" v="Melkeplassen" />
		<tag k="natural" v="wetland" />
		<tag k="ssr:stedsnr" v="464632" />
	</node>
	<node id="-698924" lat="68.2758666629" lon="17.0413972254">
		<tag k="name" v="Gruvsteinan" />
		<tag k="natural" v="stone" />
		<tag k="ssr:stedsnr" v="22379" />
	</node>
	<node id="-699944" lat="68.3387305549" lon="17.0400083234">
		<tag k="name" v="Trongvegurda" />
		<tag k="natural" v="scree" />
		<tag k="ssr:stedsnr" v="746873" />
	</node>
	<node id="-699429" lat="68.3409249998" lon="17.0056166695">
		<tag k="name" v="Kringelskogen" />
		<tag k="place" v="locality" />
		<tag k="ssr:stedsnr" v="450376" />
	</node>
	<node id="-699426" lat="68.4063166686" lon="16.7476472276">
		<tag k="name" v="Tuvmyra" />
		<tag k="natural" v="wetland" />
		<tag k="ssr:stedsnr" v="450274" />
	</node>
	<node id="-699422" lat="68.3939083289" lon="16.6400333427">
		<tag k="name" v="Vintervegmyra" />
		<tag k="natural" v="wetland" />
		<tag k="ssr:stedsnr" v="449231" />
	</node>
	<node id="-699414" lat="68.3202999996" lon="16.4234416568">
		<tag k="name" v="Flatmarka" />
		<tag k="natural" v="wetland" />
		<tag k="ssr:stedsnr" v="446954" />
	</node>
	<node id="-700163" lat="68.3969638898" lon="16.6456944423">
		<tag k="name" v="Skavåsmyra" />
		<tag k="natural" v="wetland" />
		<tag k="ssr:stedsnr" v="874245" />
	</node>
</osm>
