<?xml version="1.0" encoding="UTF-8"?>
<osm generator="osmapis" version="0.6">
	<node id="-698877" lat="68.2780083325" lon="16.5184805578">
		<tag k="name" v="Henrikneset" />
		<tag k="natural" v="cape" />
		<tag k="ssr:stedsnr" v="16540" />
	</node>
	<node id="-699144" lat="68.2922027743" lon="16.4769444421">
		<tag k="name" v="Hallvardøya" />
		<tag k="place" v="island" />
		<tag k="ssr:stedsnr" v="142530" />
	</node>
	<node id="-699383" lat="68.3524777763" lon="16.328933332">
		<tag k="name" v="Tømmerosen" />
		<tag k="natural" v="bay" />
		<tag k="ssr:stedsnr" v="442691" />
	</node>
	<node id="-699890" lat="68.2876277764" lon="16.5654916686">
		<tag k="name" v="Inner-Sandvika" />
		<tag k="natural" v="bay" />
		<tag k="ssr:stedsnr" v="744547" />
	</node>
	<node id="-699304" lat="68.3557499984" lon="16.2432249975">
		<tag k="fixme" v="consider seamark:type=rock or natural=shoal" />
		<tag k="name" v="Engelsøyskjæran" />
		<tag k="place" v="islet" />
		<tag k="ssr:stedsnr" v="260719" />
	</node>
	<node id="-699884" lat="68.3316611139" lon="16.2135305677">
		<tag k="fixme" v="consider seamark:type=rock or natural=shoal" />
		<tag k="name" v="Sandskjæran" />
		<tag k="place" v="islet" />
		<tag k="ssr:stedsnr" v="745404" />
	</node>
	<node id="-699371" lat="68.3050249988" lon="16.4479166768">
		<tag k="name" v="Sandvikneset" />
		<tag k="natural" v="cape" />
		<tag k="ssr:stedsnr" v="442618" />
	</node>
	<node id="-699370" lat="68.3067250032" lon="16.356041662">
		<tag k="alt_name" v="Teppkilen, yt;Ytre Teppkilen" />
		<tag k="name" v="Ytter-Teppkilen" />
		<tag k="natural" v="bay" />
		<tag k="ssr:stedsnr" v="442616" />
	</node>
	<node id="-699369" lat="68.300152775" lon="16.3619777682">
		<tag k="alt_name" v="Teppkilen, in;Indre Teppkilen" />
		<tag k="fixme" v="multiple name tags, choose one and add the other to alt_name" />
		<tag k="name" v="Teppkilen;Inner-Teppkilen" />
		<tag k="natural" v="bay" />
		<tag k="ssr:stedsnr" v="442614" />
	</node>
	<node id="-699364" lat="68.3369361125" lon="16.2528583267">
		<tag k="alt_name" v="Straumøya" />
		<tag k="name" v="Straumsøya" />
		<tag k="place" v="island" />
		<tag k="ssr:stedsnr" v="442449" />
	</node>
	<node id="-699875" lat="68.2721138878" lon="16.6291000061">
		<tag k="name" v="Mølnhola" />
		<tag k="natural" v="bay" />
		<tag k="ssr:stedsnr" v="706654" />
	</node>
	<node id="-699216" lat="68.3904055535" lon="16.416005548">
		<tag k="name" v="Finnvikklubben" />
		<tag k="natural" v="cape" />
		<tag k="ssr:stedsnr" v="199737" />
	</node>
	<node id="-698789" lat="68.3335861081" lon="16.8228861073">
		<tag k="name" v="Tømmernes" />
		<tag k="natural" v="cape" />
		<tag k="ssr:stedsnr" v="382845" />
	</node>
	<node id="-698929" lat="68.3449305546" lon="16.2964888886">
		<tag k="name" v="Lappvika" />
		<tag k="natural" v="bay" />
		<tag k="ssr:stedsnr" v="22535" />
	</node>
	<node id="-699354" lat="68.4157555569" lon="16.655924996">
		<tag k="name" v="Rognodden" />
		<tag k="natural" v="cape" />
		<tag k="ssr:stedsnr" v="441465" />
	</node>
	<node id="-699352" lat="68.3397555566" lon="16.1836416579">
		<tag k="alt_name" v="Littjholmen" />
		<tag k="name" v="Litleholmen" />
		<tag k="place" v="islet" />
		<tag k="ssr:stedsnr" v="441305" />
	</node>
	<node id="-698839" lat="68.3489416704" lon="16.0639805528">
		<tag k="name" v="Strætvikran" />
		<tag k="natural" v="bay" />
		<tag k="ssr:stedsnr" v="889398" />
	</node>
	<node id="-698838" lat="68.3582805518" lon="16.1187777816">
		<tag k="fixme" v="consider seamark:type=rock or natural=shoal" />
		<tag k="name" v="Hestvikskjæran" />
		<tag k="place" v="islet" />
		<tag k="ssr:stedsnr" v="889278" />
	</node>
	<node id="-699861" lat="68.3334055519" lon="16.0723083235">
		<tag k="name" v="Storvika" />
		<tag k="natural" v="bay" />
		<tag k="ssr:stedsnr" v="706379" />
	</node>
	<node id="-699857" lat="68.3361472236" lon="16.1352888805">
		<tag k="name" v="Sortvika" />
		<tag k="natural" v="bay" />
		<tag k="ssr:stedsnr" v="706270" />
	</node>
	<node id="-699856" lat="68.4222777822" lon="16.7421166661">
		<tag k="fixme" v="consider seamark:type=rock or natural=shoal" />
		<tag k="name" v="Kalvskjæret" />
		<tag k="place" v="islet" />
		<tag k="ssr:stedsnr" v="694282" />
	</node>
	<node id="-699106" lat="68.4204083315" lon="16.7195138973">
		<tag k="name" v="Hestekjelda" />
		<tag k="natural" v="cape" />
		<tag k="ssr:stedsnr" v="138489" />
	</node>
	<node id="-699848" lat="68.3421388877" lon="16.8362805547">
		<tag k="name" v="Finnvika" />
		<tag k="natural" v="bay" />
		<tag k="ssr:stedsnr" v="692406" />
	</node>
	<node id="-699847" lat="68.3521083378" lon="16.900880548">
		<tag k="fixme" v="consider seamark:type=rock or natural=shoal" />
		<tag k="name" v="Forrnesskjærran" />
		<tag k="place" v="islet" />
		<tag k="ssr:stedsnr" v="692363" />
	</node>
	<node id="-699334" lat="68.3105611093" lon="16.4263972119">
		<tag k="name" v="Hamnpollodden" />
		<tag k="natural" v="cape" />
		<tag k="ssr:stedsnr" v="264946" />
	</node>
	<node id="-699333" lat="68.3250194427" lon="16.3430083225">
		<tag k="alt_name" v="Pålsnessnaget" />
		<tag k="name" v="Pollsnessnaget" />
		<tag k="natural" v="shoal" />
		<tag k="place" v="locality" />
		<tag k="ssr:stedsnr" v="264553" />
	</node>
	<node id="-698820" lat="68.4104166625" lon="16.8159333414">
		<tag k="name" v="Framskjærgrunnen" />
		<tag k="natural" v="shoal" />
		<tag k="place" v="locality" />
		<tag k="ssr:stedsnr" v="400653" />
	</node>
	<node id="-699331" lat="68.3272694422" lon="16.376955545">
		<tag k="fixme" v="consider seamark:type=rock or natural=shoal" />
		<tag k="name" v="Finnhamnskjæret" />
		<tag k="place" v="islet" />
		<tag k="ssr:stedsnr" v="264547" />
	</node>
	<node id="-698699" lat="68.3533500009" lon="16.9429194542">
		<tag k="name" v="Ennerneset" />
		<tag k="natural" v="cape" />
		<tag k="ssr:stedsnr" v="328339" />
	</node>
	<node id="-699840" lat="68.2999750004" lon="16.4215861213">
		<tag k="name" v="Grindvika" />
		<tag k="natural" v="bay" />
		<tag k="ssr:stedsnr" v="689942" />
	</node>
	<node id="-699326" lat="68.3809277757" lon="17.044016669">
		<tag k="name" v="Otervika" />
		<tag k="natural" v="bay" />
		<tag k="ssr:stedsnr" v="261950" />
	</node>
	<node id="-699836" lat="68.3515027795" lon="16.3232499914">
		<tag k="name" v="Tømmeråsneset" />
		<tag k="natural" v="cape" />
		<tag k="ssr:stedsnr" v="689499" />
	</node>
	<node id="-699323" lat="68.390805559" lon="16.8845388842">
		<tag k="name" v="Kvernneset" />
		<tag k="natural" v="cape" />
		<tag k="ssr:stedsnr" v="260963" />
	</node>
	<node id="-699322" lat="68.3589472225" lon="16.9653472118">
		<tag k="fixme" v="multiple name tags, choose one and add the other to alt_name; consider seamark:type=rock or natural=shoal" />
		<tag k="name" v="Arnesklubben;Klubben;Åklubben" />
		<tag k="place" v="islet" />
		<tag k="ssr:stedsnr" v="260959" />
	</node>
	<node id="-699319" lat="68.3691055542" lon="16.9008083409">
		<tag k="name" v="Ballsnes" />
		<tag k="natural" v="cape" />
		<tag k="ssr:stedsnr" v="260943" />
	</node>
	<node id="-699827" lat="68.3530388927" lon="16.8860027692">
		<tag k="alt_name" v="Ballangsfjorden" />
		<tag k="bay" v="fjord" />
		<tag k="name" v="Ballangen" />
		<tag k="natural" v="bay" />
		<tag k="ssr:stedsnr" v="685887" />
	</node>
	<node id="-699825" lat="68.3473888931" lon="16.9189194461">
		<tag k="name" v="Bruaneset" />
		<tag k="natural" v="cape" />
		<tag k="ssr:stedsnr" v="685881" />
	</node>
	<node id="-699308" lat="68.3788499994" lon="16.3142527658">
		<tag k="fixme" v="consider seamark:type=rock or natural=shoal" />
		<tag k="name" v="Sandvikskjæret" />
		<tag k="place" v="islet" />
		<tag k="ssr:stedsnr" v="260737" />
	</node>
	<node id="-700146" lat="68.3692055562" lon="16.2789694514">
		<tag k="name" v="Osen" />
		<tag k="natural" v="bay" />
		<tag k="ssr:stedsnr" v="871511" />
	</node>
	<node id="-699306" lat="68.3534861106" lon="16.241186119">
		<tag k="alt_name" v="Løngøya" />
		<tag k="name" v="Lyngøya" />
		<tag k="place" v="islet" />
		<tag k="ssr:stedsnr" v="260732" />
	</node>
	<node id="-699463" lat="68.3132527752" lon="16.0704277753">
		<tag k="fixme" v="consider seamark:type=rock or natural=shoal" />
		<tag k="name" v="Skarvskjæret" />
		<tag k="place" v="islet" />
		<tag k="ssr:stedsnr" v="502348" />
	</node>
	<node id="-698792" lat="68.4007222254" lon="16.8594999938">
		<tag k="name" v="Lysgrunna" />
		<tag k="natural" v="shoal" />
		<tag k="place" v="locality" />
		<tag k="ssr:stedsnr" v="383000" />
	</node>
	<node id="-699302" lat="68.3294972251" lon="16.2386388781">
		<tag k="name" v="Hestneset" />
		<tag k="natural" v="cape" />
		<tag k="ssr:stedsnr" v="260683" />
	</node>
	<node id="-699813" lat="68.4040250037" lon="16.8020277719">
		<tag k="alt_name" v="Framvik" />
		<tag k="name" v="Framvika" />
		<tag k="natural" v="bay" />
		<tag k="ssr:stedsnr" v="684736" />
	</node>
	<node id="-699300" lat="68.3125027809" lon="16.4246583424">
		<tag k="name" v="Håkonsethamna" />
		<tag k="natural" v="bay" />
		<tag k="ssr:stedsnr" v="260653" />
	</node>
	<node id="-698784" lat="68.3535000046" lon="16.9464277677">
		<tag k="name" v="Krokleira" />
		<tag k="natural" v="bay" />
		<tag k="ssr:stedsnr" v="381902" />
	</node>
	<node id="-699295" lat="68.2972416632" lon="16.4975805417">
		<tag k="name" v="Kjerringvikstraumen" />
		<tag k="natural" v="strait" />
		<tag k="ssr:stedsnr" v="260632" />
	</node>
	<node id="-699803" lat="68.3479972211" lon="16.2765916682">
		<tag k="name" v="Stor-Buholmen" />
		<tag k="place" v="islet" />
		<tag k="ssr:stedsnr" v="684656" />
	</node>
	<node id="-699287" lat="68.1723472254" lon="16.7473222171">
		<tag k="name" v="Kjårneset" />
		<tag k="natural" v="cape" />
		<tag k="ssr:stedsnr" v="259580" />
	</node>
	<node id="-698772" lat="68.3781833345" lon="16.3148916661">
		<tag k="name" v="Sandvika" />
		<tag k="natural" v="bay" />
		<tag k="ssr:stedsnr" v="381728" />
	</node>
	<node id="-699793" lat="68.2956916676" lon="16.4849610994">
		<tag k="name" v="Storøya" />
		<tag k="place" v="island" />
		<tag k="ssr:stedsnr" v="684582" />
	</node>
	<node id="-699280" lat="68.2018611155" lon="16.6708499886">
		<tag k="name" v="Aspenes" />
		<tag k="natural" v="cape" />
		<tag k="ssr:stedsnr" v="259504" />
	</node>
	<node id="-699278" lat="68.3583138865" lon="16.1826166719">
		<tag k="fixme" v="consider seamark:type=rock or natural=shoal" />
		<tag k="name" v="Svartskjæret" />
		<tag k="place" v="islet" />
		<tag k="ssr:stedsnr" v="259320" />
	</node>
	<node id="-699789" lat="68.2589638894" lon="16.6255860992">
		<tag k="name" v="Myrnes" />
		<tag k="natural" v="cape" />
		<tag k="ssr:stedsnr" v="684536" />
	</node>
	<node id="-699788" lat="68.4134750016" lon="16.7827249872">
		<tag k="name" v="Djupvikneset" />
		<tag k="natural" v="cape" />
		<tag k="ssr:stedsnr" v="684471" />
	</node>
	<node id="-699202" lat="68.3179722188" lon="16.1416861169">
		<tag k="name" v="Svartholmen" />
		<tag k="place" v="islet" />
		<tag k="ssr:stedsnr" v="199361" />
	</node>
	<node id="-699786" lat="68.3548888921" lon="16.2074388776">
		<tag k="name" v="Engelsøya" />
		<tag k="place" v="island" />
		<tag k="ssr:stedsnr" v="684329" />
	</node>
	<node id="-699799" lat="68.3106999965" lon="16.3469666606">
		<tag k="name" v="Teppkilneset" />
		<tag k="natural" v="cape" />
		<tag k="ssr:stedsnr" v="684613" />
	</node>
	<node id="-699778" lat="68.3120999985" lon="16.4086027699">
		<tag k="name" v="Halvpundneset" />
		<tag k="natural" v="cape" />
		<tag k="ssr:stedsnr" v="659782" />
	</node>
	<node id="-698752" lat="68.3075222191" lon="16.0377555463">
		<tag k="name" v="Storbåen" />
		<tag k="natural" v="shoal" />
		<tag k="place" v="locality" />
		<tag k="ssr:stedsnr" v="381348" />
	</node>
	<node id="-699263" lat="68.401949999" lon="16.5577888975">
		<tag k="name" v="Klubbreite" />
		<tag k="natural" v="bay" />
		<tag k="ssr:stedsnr" v="221602" />
	</node>
	<node id="-699774" lat="68.373622224" lon="16.9123500047">
		<tag k="name" v="Kårholmen" />
		<tag k="place" v="islet" />
		<tag k="ssr:stedsnr" v="645886" />
	</node>
	<node id="-699261" lat="68.3323749991" lon="16.2184305648">
		<tag k="fixme" v="consider seamark:type=rock or natural=shoal" />
		<tag k="name" v="Sandskjæret" />
		<tag k="place" v="islet" />
		<tag k="ssr:stedsnr" v="221359" />
	</node>
	<node id="-699260" lat="68.3302055522" lon="16.1629777878">
		<tag k="name" v="Gulføttingen" />
		<tag k="place" v="islet" />
		<tag k="ssr:stedsnr" v="221355" />
	</node>
	<node id="-698746" lat="68.2729749985" lon="16.5273638761">
		<tag k="name" v="Henrikbukta" />
		<tag k="natural" v="bay" />
		<tag k="ssr:stedsnr" v="380606" />
	</node>
	<node id="-699257" lat="68.3069583351" lon="16.1243805521">
		<tag k="name" v="Fallan" />
		<tag k="natural" v="shoal" />
		<tag k="place" v="locality" />
		<tag k="ssr:stedsnr" v="218110" />
	</node>
	<node id="-699255" lat="68.3038666675" lon="16.0555027729">
		<tag k="name" v="Breifallet" />
		<tag k="natural" v="shoal" />
		<tag k="place" v="locality" />
		<tag k="ssr:stedsnr" v="218106" />
	</node>
	<node id="-698740" lat="68.2021777803" lon="16.6046750012">
		<tag k="name" v="Kistbotnhavet" />
		<tag k="natural" v="bay" />
		<tag k="ssr:stedsnr" v="380554" />
	</node>
	<node id="-699251" lat="68.3863833292" lon="17.0417333292">
		<tag k="name" v="Salttønna" />
		<tag k="natural" v="shoal" />
		<tag k="place" v="locality" />
		<tag k="ssr:stedsnr" v="207429" />
	</node>
	<node id="-698737" lat="68.3306416691" lon="16.0472277691">
		<tag k="name" v="Vikodden" />
		<tag k="natural" v="cape" />
		<tag k="ssr:stedsnr" v="380380" />
	</node>
	<node id="-699210" lat="68.3612972202" lon="16.3142472146">
		<tag k="name" v="Storpollen" />
		<tag k="natural" v="bay" />
		<tag k="ssr:stedsnr" v="199712" />
	</node>
	<node id="-699247" lat="68.3552000043" lon="16.9497166618">
		<tag k="name" v="Holmodden" />
		<tag k="natural" v="cape" />
		<tag k="ssr:stedsnr" v="207354" />
	</node>
	<node id="-698734" lat="68.4092805584" lon="16.6660805513">
		<tag k="bay" v="fjord" />
		<tag k="name" v="Gáldovuotna" />
		<tag k="name:se" v="Gáldovuotna" />
		<tag k="natural" v="bay" />
		<tag k="ssr:stedsnr" v="363056" />
	</node>
	<node id="-699757" lat="68.3448999962" lon="16.1792972291">
		<tag k="name" v="Valneset" />
		<tag k="natural" v="cape" />
		<tag k="ssr:stedsnr" v="645260" />
	</node>
	<node id="-699756" lat="68.3392749985" lon="16.2497083302">
		<tag k="name" v="Jettavika" />
		<tag k="natural" v="bay" />
		<tag k="ssr:stedsnr" v="645254" />
	</node>
	<node id="-699755" lat="68.3418555587" lon="16.2160972108">
		<tag k="name" v="Revelsøyhamn" />
		<tag k="natural" v="bay" />
		<tag k="ssr:stedsnr" v="645245" />
	</node>
	<node id="-699753" lat="68.2839361113" lon="16.5743472174">
		<tag k="name" v="Skjellgrunnen" />
		<tag k="natural" v="shoal" />
		<tag k="place" v="locality" />
		<tag k="ssr:stedsnr" v="643522" />
	</node>
	<node id="-700261" lat="68.3351861115" lon="16.1637666702">
		<tag k="name" v="Sandværan" />
		<tag k="place" v="islet" />
		<tag k="ssr:stedsnr" v="949256" />
	</node>
	<node id="-699748" lat="68.3997972181" lon="16.8142833394">
		<tag k="name" v="Mølnvika" />
		<tag k="natural" v="bay" />
		<tag k="ssr:stedsnr" v="632289" />
	</node>
	<node id="-700259" lat="68.3650138889" lon="16.9103861096">
		<tag k="name" v="Steingrunnen" />
		<tag k="natural" v="shoal" />
		<tag k="place" v="locality" />
		<tag k="ssr:stedsnr" v="946694" />
	</node>
	<node id="-700258" lat="68.3230361067" lon="16.0943611211">
		<tag k="name" v="Laukvikbåan" />
		<tag k="natural" v="shoal" />
		<tag k="place" v="locality" />
		<tag k="ssr:stedsnr" v="946091" />
	</node>
	<node id="-700257" lat="68.3311138869" lon="16.037613882">
		<tag k="name" v="Langosholmen" />
		<tag k="place" v="islet" />
		<tag k="ssr:stedsnr" v="946087" />
	</node>
	<node id="-699324" lat="68.3979472195" lon="16.8561500074">
		<tag k="name" v="Hesjeholmen" />
		<tag k="place" v="islet" />
		<tag k="ssr:stedsnr" v="261000" />
	</node>
	<node id="-699792" lat="68.2874694453" lon="16.4368083358">
		<tag k="name" v="Leirpollen" />
		<tag k="natural" v="bay" />
		<tag k="ssr:stedsnr" v="684581" />
	</node>
	<node id="-699742" lat="68.3529861106" lon="16.9475749879">
		<tag k="name" v="Åkerneset" />
		<tag k="natural" v="cape" />
		<tag k="ssr:stedsnr" v="631341" />
	</node>
	<node id="-698717" lat="68.4093611088" lon="16.5027861168">
		<tag k="name" v="Merrvika" />
		<tag k="natural" v="bay" />
		<tag k="ssr:stedsnr" v="342574" />
	</node>
	<node id="-698714" lat="68.3181138859" lon="16.319530549">
		<tag k="name" v="Svenskholman" />
		<tag k="place" v="islet" />
		<tag k="ssr:stedsnr" v="342235" />
	</node>
	<node id="-699737" lat="68.3285972237" lon="16.341975005">
		<tag k="name" v="Langvågsteinen" />
		<tag k="place" v="locality" />
		<tag k="seamark:type" v="rock" />
		<tag k="ssr:stedsnr" v="628547" />
	</node>
	<node id="-699736" lat="68.3316638896" lon="16.2949972145">
		<tag k="name" v="Langneset" />
		<tag k="natural" v="cape" />
		<tag k="ssr:stedsnr" v="628540" />
	</node>
	<node id="-698710" lat="68.3270277743" lon="16.12250832">
		<tag k="fixme" v="consider seamark:type=rock or natural=shoal" />
		<tag k="name" v="Ørnskjæret" />
		<tag k="place" v="islet" />
		<tag k="ssr:stedsnr" v="339117" />
	</node>
	<node id="-699220" lat="68.402708333" lon="16.5533110997">
		<tag k="alt_name" v="Vargfjord" />
		<tag k="bay" v="fjord" />
		<tag k="name" v="Vargfjorden" />
		<tag k="natural" v="bay" />
		<tag k="ssr:stedsnr" v="199764" />
	</node>
	<node id="-699728" lat="68.4055000026" lon="16.8338000033">
		<tag k="loc_name" v="Reinskjærgrunnen" />
		<tag k="name" v="Reinskjærgrunna" />
		<tag k="natural" v="shoal" />
		<tag k="place" v="locality" />
		<tag k="ssr:stedsnr" v="624991" />
	</node>
	<node id="-699727" lat="68.3827194475" lon="16.9036055641">
		<tag k="name" v="Bøholmen" />
		<tag k="place" v="islet" />
		<tag k="ssr:stedsnr" v="624959" />
	</node>
	<node id="-699214" lat="68.3671222256" lon="16.2721833416">
		<tag k="fixme" v="consider seamark:type=rock or natural=shoal" />
		<tag k="name" v="Kvannvikskjæret" />
		<tag k="place" v="islet" />
		<tag k="ssr:stedsnr" v="199730" />
	</node>
	<node id="-699277" lat="68.3485305595" lon="16.1075611011">
		<tag k="loc_name:se" v="Bárka" />
		<tag k="name" v="Barøya" />
		<tag k="name:no" v="Barøya" />
		<tag k="place" v="island" />
		<tag k="ssr:stedsnr" v="259305" />
	</node>
	<node id="-699723" lat="68.3567999988" lon="16.9574249963">
		<tag k="name" v="Arnes" />
		<tag k="natural" v="cape" />
		<tag k="ssr:stedsnr" v="624927" />
	</node>
	<node id="-698698" lat="68.3461722241" lon="16.8860194318">
		<tag k="name" v="Tyttebærneset" />
		<tag k="natural" v="cape" />
		<tag k="ssr:stedsnr" v="328331" />
	</node>
	<node id="-699208" lat="68.3376666647" lon="16.227091677">
		<tag k="alt_name" v="Refsholmen" />
		<tag k="name" v="Revsholmen" />
		<tag k="place" v="islet" />
		<tag k="ssr:stedsnr" v="199700" />
	</node>
	<node id="-699205" lat="68.4207861112" lon="16.6129916765">
		<tag k="fixme" v="multiple name tags, choose one and add the other to alt_name; consider seamark:type=rock or natural=shoal" />
		<tag k="name" v="Bondeskjæret;Bonskjæret" />
		<tag k="place" v="islet" />
		<tag k="ssr:stedsnr" v="199457" />
	</node>
	<node id="-699203" lat="68.3339222179" lon="16.0385916689">
		<tag k="name" v="Langosodden" />
		<tag k="natural" v="cape" />
		<tag k="ssr:stedsnr" v="199375" />
	</node>
	<node id="-699714" lat="68.4063305553" lon="16.8045472266">
		<tag k="fixme" v="consider seamark:type=rock or natural=shoal" />
		<tag k="name" v="Framskjæret" />
		<tag k="place" v="islet" />
		<tag k="ssr:stedsnr" v="623766" />
	</node>
	<node id="-699200" lat="68.3479833369" lon="16.272583336">
		<tag k="name" v="Litle-Buholmen" />
		<tag k="place" v="islet" />
		<tag k="ssr:stedsnr" v="199694" />
	</node>
	<node id="-698687" lat="68.3839861139" lon="16.3644638809">
		<tag k="fixme" v="consider seamark:type=rock or natural=shoal" />
		<tag k="name" v="Storskjæret" />
		<tag k="place" v="islet" />
		<tag k="ssr:stedsnr" v="325945" />
	</node>
	<node id="-699710" lat="68.3815361138" lon="16.4033194486">
		<tag k="name" v="Finnvika" />
		<tag k="natural" v="bay" />
		<tag k="ssr:stedsnr" v="623753" />
	</node>
	<node id="-698685" lat="68.3103694401" lon="16.450344453">
		<tag k="name" v="Skjåvika" />
		<tag k="natural" v="bay" />
		<tag k="ssr:stedsnr" v="325937" />
	</node>
	<node id="-698684" lat="68.3320722208" lon="16.3084999978">
		<tag k="name" v="Valosen" />
		<tag k="natural" v="bay" />
		<tag k="ssr:stedsnr" v="325544" />
	</node>
	<node id="-700216" lat="68.3700305568" lon="16.9011027868">
		<tag k="name" v="Tranhalsen" />
		<tag k="natural" v="cape" />
		<tag k="ssr:stedsnr" v="927934" />
	</node>
	<node id="-698676" lat="68.4042500031" lon="16.8903111207">
		<tag k="name" v="Hesjeholmskallen" />
		<tag k="natural" v="shoal" />
		<tag k="place" v="locality" />
		<tag k="ssr:stedsnr" v="321986" />
	</node>
	<node id="-700211" lat="68.4018444448" lon="16.5459472242">
		<tag k="name" v="Skognes" />
		<tag k="natural" v="cape" />
		<tag k="ssr:stedsnr" v="927747" />
	</node>
	<node id="-700210" lat="68.3984638846" lon="16.4578138911">
		<tag k="name" v="Merrvika" />
		<tag k="natural" v="bay" />
		<tag k="ssr:stedsnr" v="927744" />
	</node>
	<node id="-699697" lat="68.3276611114" lon="16.3238250065">
		<tag k="name" v="Litle-Rødøya" />
		<tag k="place" v="island" />
		<tag k="ssr:stedsnr" v="623660" />
	</node>
	<node id="-699184" lat="68.2432944456" lon="16.5839555497">
		<tag k="name" v="Kobbnesgrunnen" />
		<tag k="natural" v="shoal" />
		<tag k="place" v="locality" />
		<tag k="ssr:stedsnr" v="164504" />
	</node>
	<node id="-699695" lat="68.3197722203" lon="16.2866249881">
		<tag k="name" v="Gåsneset" />
		<tag k="natural" v="cape" />
		<tag k="ssr:stedsnr" v="623647" />
	</node>
	<node id="-700206" lat="68.3776999983" lon="16.3019916705">
		<tag k="fixme" v="consider seamark:type=rock or natural=shoal" />
		<tag k="name" v="Oterhaugskjæret" />
		<tag k="place" v="islet" />
		<tag k="ssr:stedsnr" v="927702" />
	</node>
	<node id="-699692" lat="68.3022222233" lon="16.4804333407">
		<tag k="name" v="Strandlandet" />
		<tag k="natural" v="beach" />
		<tag k="place" v="locality" />
		<tag k="ssr:stedsnr" v="623630" />
	</node>
	<node id="-700202" lat="68.3612333329" lon="16.2700083424">
		<tag k="name" v="Hamnes" />
		<tag k="natural" v="cape" />
		<tag k="ssr:stedsnr" v="927684" />
	</node>
	<node id="-700201" lat="68.3361777792" lon="16.3298027698">
		<tag k="name" v="Stor-Kobbvika" />
		<tag k="natural" v="bay" />
		<tag k="ssr:stedsnr" v="927676" />
	</node>
	<node id="-699687" lat="68.2853055544" lon="16.4925055478">
		<tag k="name" v="Brandsholmen" />
		<tag k="place" v="islet" />
		<tag k="ssr:stedsnr" v="623601" />
	</node>
	<node id="-699686" lat="68.3315638926" lon="16.1518833391">
		<tag k="alt_name" v="Vestreværet" />
		<tag k="name" v="Vesterværet" />
		<tag k="place" v="island" />
		<tag k="ssr:stedsnr" v="623378" />
	</node>
	<node id="-699173" lat="68.2868527821" lon="16.4874750029">
		<tag k="name" v="Silsandvika" />
		<tag k="natural" v="bay" />
		<tag k="ssr:stedsnr" v="160321" />
	</node>
	<node id="-699171" lat="68.357055558" lon="16.2118555656">
		<tag k="name" v="Skarstadneset" />
		<tag k="natural" v="cape" />
		<tag k="ssr:stedsnr" v="160228" />
	</node>
	<node id="-699451" lat="68.395955558" lon="16.5325222165">
		<tag k="name" v="Breineset" />
		<tag k="natural" v="cape" />
		<tag k="ssr:stedsnr" v="464653" />
	</node>
	<node id="-699169" lat="68.3151888861" lon="16.2908111007">
		<tag k="name" v="Moldforvika" />
		<tag k="natural" v="bay" />
		<tag k="ssr:stedsnr" v="160216" />
	</node>
	<node id="-700192" lat="68.2729555533" lon="16.7169249914">
		<tag k="name" v="Grunnvassbotn" />
		<tag k="natural" v="bay" />
		<tag k="ssr:stedsnr" v="927559" />
	</node>
	<node id="-699167" lat="68.3046416692" lon="16.1599777751">
		<tag k="name" v="Store Bremvikneset" />
		<tag k="natural" v="cape" />
		<tag k="ssr:stedsnr" v="157573" />
	</node>
	<node id="-699083" lat="68.4083944429" lon="16.5231583258">
		<tag k="name" v="Jøvik" />
		<tag k="natural" v="bay" />
		<tag k="ssr:stedsnr" v="100617" />
	</node>
	<node id="-700186" lat="68.4196388872" lon="16.7634055424">
		<tag k="name" v="Pundsvikneset" />
		<tag k="natural" v="cape" />
		<tag k="ssr:stedsnr" v="927487" />
	</node>
	<node id="-699951" lat="68.3235250002" lon="16.3458861149">
		<tag k="name" v="Kufiskvika" />
		<tag k="natural" v="bay" />
		<tag k="ssr:stedsnr" v="749554" />
	</node>
	<node id="-700184" lat="68.3314333299" lon="16.173308339">
		<tag k="name" v="Kråkholmen" />
		<tag k="place" v="islet" />
		<tag k="ssr:stedsnr" v="927390" />
	</node>
	<node id="-699524" lat="68.2931805604" lon="16.4535055487">
		<tag k="name" v="Pollan" />
		<tag k="natural" v="bay" />
		<tag k="ssr:stedsnr" v="507947" />
	</node>
	<node id="-700182" lat="68.3881416715" lon="16.8928499884">
		<tag k="name" v="Måsdraget" />
		<tag k="natural" v="cape" />
		<tag k="ssr:stedsnr" v="876426" />
	</node>
	<node id="-698645" lat="68.192008331" lon="16.6435027838">
		<tag k="name" v="Borddiskan" />
		<tag k="natural" v="cape" />
		<tag k="ssr:stedsnr" v="320508" />
	</node>
	<node id="-700180" lat="68.3839777741" lon="17.0559277691">
		<tag k="name" v="Sildvikneset" />
		<tag k="natural" v="cape" />
		<tag k="ssr:stedsnr" v="875747" />
	</node>
	<node id="-698643" lat="68.417097222" lon="16.6444805567">
		<tag k="name" v="Storvika" />
		<tag k="natural" v="bay" />
		<tag k="ssr:stedsnr" v="320467" />
	</node>
	<node id="-698641" lat="68.3251583337" lon="16.2140888776">
		<tag k="name" v="Kobbhola" />
		<tag k="natural" v="bay" />
		<tag k="ssr:stedsnr" v="320366" />
	</node>
	<node id="-698640" lat="68.3414138864" lon="16.2029361094">
		<tag k="alt_name" v="Revelsøy" />
		<tag k="name" v="Revelsøya" />
		<tag k="place" v="island" />
		<tag k="ssr:stedsnr" v="320329" />
	</node>
	<node id="-700173" lat="68.3777944453" lon="16.897636122">
		<tag k="name" v="Elveberget" />
		<tag k="natural" v="cape" />
		<tag k="ssr:stedsnr" v="875351" />
	</node>
	<node id="-700172" lat="68.4146166633" lon="16.5747499873">
		<tag k="name" v="Hamnnes" />
		<tag k="natural" v="cape" />
		<tag k="ssr:stedsnr" v="874476" />
	</node>
	<node id="-699659" lat="68.3332444441" lon="16.0338055606">
		<tag k="name" v="Prestbåen" />
		<tag k="place" v="locality" />
		<tag k="seamark:type" v="rock" />
		<tag k="ssr:stedsnr" v="581119" />
	</node>
	<node id="-700170" lat="68.3421833349" lon="16.83400001">
		<tag k="name" v="Finneset" />
		<tag k="natural" v="cape" />
		<tag k="ssr:stedsnr" v="874453" />
	</node>
	<node id="-699145" lat="68.3250111091" lon="16.3762277791">
		<tag k="name" v="Finnhamna" />
		<tag k="natural" v="bay" />
		<tag k="ssr:stedsnr" v="142532" />
	</node>
	<node id="-698632" lat="68.3924583302" lon="16.8725777639">
		<tag k="name" v="Hestvika" />
		<tag k="natural" v="bay" />
		<tag k="ssr:stedsnr" v="282880" />
	</node>
	<node id="-699838" lat="68.3943944457" lon="16.4413194417">
		<tag k="name" v="Steinvika" />
		<tag k="natural" v="bay" />
		<tag k="ssr:stedsnr" v="689938" />
	</node>
	<node id="-698890" lat="68.2045166653" lon="16.6315749948">
		<tag k="bay" v="fjord" />
		<tag k="name" v="Efjorden - Áhtávuodna" />
		<tag k="name:no" v="Efjorden" />
		<tag k="name:smj" v="Áhtávuodna" />
		<tag k="natural" v="bay" />
		<tag k="old_name:smj" v="Átavuotna" />
		<tag k="ssr:stedsnr" v="17533" />
	</node>
	<node id="-700165" lat="68.3565777788" lon="16.9538472186">
		<tag k="name" v="Rugevika" />
		<tag k="natural" v="bay" />
		<tag k="ssr:stedsnr" v="874376" />
	</node>
	<node id="-699137" lat="68.322352779" lon="16.1717027684">
		<tag k="name" v="Korsneset" />
		<tag k="natural" v="cape" />
		<tag k="ssr:stedsnr" v="139473" />
	</node>
	<node id="-699520" lat="68.3296722243" lon="16.3324805614">
		<tag k="fixme" v="consider seamark:type=rock or natural=shoal" />
		<tag k="name" v="Draget" />
		<tag k="place" v="islet" />
		<tag k="ssr:stedsnr" v="507548" />
	</node>
	<node id="-698837" lat="68.3201833344" lon="16.2992472187">
		<tag k="name" v="Gåsjenesøyan" />
		<tag k="place" v="islet" />
		<tag k="ssr:stedsnr" v="889272" />
	</node>
	<node id="-698666" lat="68.3489527796" lon="16.8952861056">
		<tag k="name" v="Forneset" />
		<tag k="natural" v="cape" />
		<tag k="ssr:stedsnr" v="321427" />
	</node>
	<node id="-698618" lat="68.3283749993" lon="16.1590027825">
		<tag k="name" v="Hundlorten" />
		<tag k="place" v="islet" />
		<tag k="ssr:stedsnr" v="282339" />
	</node>
	<node id="-698751" lat="68.301533336" lon="16.1594305552">
		<tag k="alt_name" v="Bremvika, store;Stor-Bremvika" />
		<tag k="name" v="Store Bremvika" />
		<tag k="natural" v="bay" />
		<tag k="ssr:stedsnr" v="381349" />
	</node>
	<node id="-700152" lat="68.2073444492" lon="16.6067861028">
		<tag k="name" v="Forrneset" />
		<tag k="natural" v="cape" />
		<tag k="ssr:stedsnr" v="871963" />
	</node>
	<node id="-700150" lat="68.2446027791" lon="16.5784361065">
		<tag k="name" v="Sludderbukta" />
		<tag k="natural" v="bay" />
		<tag k="ssr:stedsnr" v="871930" />
	</node>
	<node id="-698921" lat="68.3514305568" lon="16.9140749998">
		<tag k="name" v="Arnesholmen" />
		<tag k="place" v="islet" />
		<tag k="ssr:stedsnr" v="18858" />
	</node>
	<node id="-699124" lat="68.365236111" lon="16.9873861099">
		<tag k="fixme" v="consider seamark:type=rock or natural=shoal" />
		<tag k="name" v="Basken" />
		<tag k="place" v="islet" />
		<tag k="ssr:stedsnr" v="138923" />
	</node>
	<node id="-699122" lat="68.3771638894" lon="16.3303027704">
		<tag k="name" v="Skarstad-Russvika" />
		<tag k="natural" v="bay" />
		<tag k="ssr:stedsnr" v="138740" />
	</node>
	<node id="-700145" lat="68.348549998" lon="16.2886805571">
		<tag k="name" v="Geitvika" />
		<tag k="natural" v="bay" />
		<tag k="ssr:stedsnr" v="871510" />
	</node>
	<node id="-699120" lat="68.3503805567" lon="16.2399194344">
		<tag k="fixme" v="consider seamark:type=rock or natural=shoal" />
		<tag k="name" v="Rundskjæret" />
		<tag k="place" v="islet" />
		<tag k="ssr:stedsnr" v="138717" />
	</node>
	<node id="-699631" lat="68.3195138926" lon="16.379030547">
		<tag k="name" v="Lillevågosen" />
		<tag k="natural" v="bay" />
		<tag k="ssr:stedsnr" v="567537" />
	</node>
	<node id="-699630" lat="68.3148250019" lon="16.3944222233">
		<tag k="name" v="Lappvika" />
		<tag k="natural" v="bay" />
		<tag k="ssr:stedsnr" v="567536" />
	</node>
	<node id="-699625" lat="68.4029444491" lon="16.82636666">
		<tag k="fixme" v="consider seamark:type=rock or natural=shoal" />
		<tag k="name" v="Reinskjæret" />
		<tag k="place" v="islet" />
		<tag k="ssr:stedsnr" v="563995" />
	</node>
	<node id="-699111" lat="68.2932805568" lon="16.5419249913">
		<tag k="name" v="Mølnosen" />
		<tag k="natural" v="bay" />
		<tag k="ssr:stedsnr" v="138593" />
	</node>
	<node id="-700053" lat="68.3876805532" lon="16.9020361097">
		<tag k="fixme" v="consider seamark:type=rock or natural=shoal" />
		<tag k="name" v="Buskjæret" />
		<tag k="place" v="islet" />
		<tag k="ssr:stedsnr" v="807941" />
	</node>
	<node id="-699620" lat="68.3539666665" lon="16.9160360999">
		<tag k="name" v="Hattholmen" />
		<tag k="place" v="islet" />
		<tag k="ssr:stedsnr" v="563912" />
	</node>
	<node id="-699174" lat="68.3333111072" lon="16.095122225">
		<tag k="name" v="Bjørnhola" />
		<tag k="natural" v="bay" />
		<tag k="ssr:stedsnr" v="160358" />
	</node>
	<node id="-699634" lat="68.384969446" lon="16.410636103">
		<tag k="name" v="Heimklakkneset" />
		<tag k="natural" v="cape" />
		<tag k="ssr:stedsnr" v="567960" />
	</node>
	<node id="-699105" lat="68.3333055518" lon="16.1621888782">
		<tag k="fixme" v="multiple name tags, choose one and add the other to alt_name" />
		<tag k="name" v="Sandværet;Storværet" />
		<tag k="place" v="island" />
		<tag k="ssr:stedsnr" v="138392" />
	</node>
	<node id="-699104" lat="68.3339277741" lon="16.0579138789">
		<tag k="name" v="Barøyodden" />
		<tag k="natural" v="cape" />
		<tag k="ssr:stedsnr" v="138390" />
	</node>
	<node id="-699582" lat="68.3715527768" lon="16.2768472166">
		<tag k="name" v="Skarstadfoten" />
		<tag k="natural" v="cape" />
		<tag k="ssr:stedsnr" v="562686" />
	</node>
	<node id="-699102" lat="68.3097027819" lon="16.1636527728">
		<tag k="alt_name" v="Bremvika, litle;Littj-Bremvika" />
		<tag k="name" v="Litle Bremvika" />
		<tag k="natural" v="bay" />
		<tag k="ssr:stedsnr" v="138378" />
	</node>
	<node id="-699101" lat="68.3515722215" lon="16.0745500043">
		<tag k="alt_name" v="Akselhamn" />
		<tag k="name" v="Akselhamna" />
		<tag k="natural" v="bay" />
		<tag k="ssr:stedsnr" v="138351" />
	</node>
	<node id="-699100" lat="68.3410777776" lon="16.1786555549">
		<tag k="name" v="Valen" />
		<tag k="natural" v="strait" />
		<tag k="ssr:stedsnr" v="138338" />
	</node>
	<node id="-700123" lat="68.3558277781" lon="16.2240500036">
		<tag k="fixme" v="consider seamark:type=rock or natural=shoal" />
		<tag k="name" v="Engelsøyvarden" />
		<tag k="place" v="islet" />
		<tag k="ssr:stedsnr" v="867700" />
	</node>
	<node id="-699098" lat="68.2888055523" lon="16.4500249874">
		<tag k="name" v="Leirpollneset" />
		<tag k="natural" v="cape" />
		<tag k="ssr:stedsnr" v="137561" />
	</node>
	<node id="-700121" lat="68.3495250024" lon="16.2570138963">
		<tag k="name" v="Godmorholmen" />
		<tag k="place" v="islet" />
		<tag k="ssr:stedsnr" v="867685" />
	</node>
	<node id="-699095" lat="68.3557583347" lon="16.0914638907">
		<tag k="alt_name" v="Sjøvika, yt" />
		<tag k="fixme" v="multiple name tags, choose one and add the other to alt_name" />
		<tag k="name" v="Hestvikosen;Ytre Sjøvika" />
		<tag k="natural" v="bay" />
		<tag k="ssr:stedsnr" v="137311" />
	</node>
	<node id="-700117" lat="68.4221500016" lon="16.6381527692">
		<tag k="name" v="Kjeldneset" />
		<tag k="natural" v="cape" />
		<tag k="ssr:stedsnr" v="867509" />
	</node>
	<node id="-700116" lat="68.2508416712" lon="16.6032972108">
		<tag k="name" v="Storneset" />
		<tag k="natural" v="cape" />
		<tag k="ssr:stedsnr" v="867473" />
	</node>
	<node id="-700115" lat="68.3255583352" lon="16.1821527761">
		<tag k="name" v="Tynnholmen" />
		<tag k="place" v="islet" />
		<tag k="ssr:stedsnr" v="867381" />
	</node>
	<node id="-700114" lat="68.3142833345" lon="16.1704361104">
		<tag k="name" v="Bubergvika" />
		<tag k="natural" v="bay" />
		<tag k="ssr:stedsnr" v="867375" />
	</node>
	<node id="-699609" lat="68.3283249958" lon="16.3059972272">
		<tag k="name" v="Rødøya" />
		<tag k="natural" v="cape" />
		<tag k="ssr:stedsnr" v="563690" />
	</node>
	<node id="-700108" lat="68.269761107" lon="16.5430805551">
		<tag k="name" v="Ospeneset" />
		<tag k="natural" v="cape" />
		<tag k="ssr:stedsnr" v="866537" />
	</node>
	<node id="-699660" lat="68.2970388881" lon="16.4493833292">
		<tag k="name" v="Rettneset" />
		<tag k="natural" v="cape" />
		<tag k="ssr:stedsnr" v="582510" />
	</node>
	<node id="-700106" lat="68.2074833316" lon="16.6547416706">
		<tag k="name" v="Sveingamvika" />
		<tag k="natural" v="bay" />
		<tag k="ssr:stedsnr" v="866496" />
	</node>
	<node id="-698743" lat="68.2625000008" lon="16.5596138937">
		<tag k="name" v="Sandholmen" />
		<tag k="place" v="islet" />
		<tag k="ssr:stedsnr" v="380593" />
	</node>
	<node id="-699075" lat="68.3308222256" lon="16.1848527706">
		<tag k="fixme" v="consider seamark:type=rock or natural=shoal" />
		<tag k="name" v="Tjeldskjæret" />
		<tag k="place" v="islet" />
		<tag k="ssr:stedsnr" v="100346" />
	</node>
	<node id="-699074" lat="68.2917361099" lon="16.4370027706">
		<tag k="name" v="Innerodden" />
		<tag k="natural" v="cape" />
		<tag k="ssr:stedsnr" v="100345" />
	</node>
	<node id="-699595" lat="68.2897111097" lon="16.4777750077">
		<tag k="name" v="Sørstraumen" />
		<tag k="natural" v="strait" />
		<tag k="ssr:stedsnr" v="563590" />
	</node>
	<node id="-699070" lat="68.3563722187" lon="16.1985027683">
		<tag k="name" v="Fuglneset" />
		<tag k="natural" v="cape" />
		<tag k="ssr:stedsnr" v="100244" />
	</node>
	<node id="-700093" lat="68.4083777807" lon="16.5697749965">
		<tag k="name" v="Strømsnes" />
		<tag k="natural" v="cape" />
		<tag k="ssr:stedsnr" v="828609" />
	</node>
	<node id="-700091" lat="68.3324555548" lon="16.2329999971">
		<tag k="name" v="Hamn" />
		<tag k="natural" v="cape" />
		<tag k="ssr:stedsnr" v="828374" />
	</node>
	<node id="-700088" lat="68.3327972193" lon="16.1490083196">
		<tag k="name" v="Elenholmen" />
		<tag k="place" v="islet" />
		<tag k="ssr:stedsnr" v="828367" />
	</node>
	<node id="-699575" lat="68.3342083368" lon="16.2119750103">
		<tag k="name" v="Ingeborgholmen" />
		<tag k="place" v="islet" />
		<tag k="ssr:stedsnr" v="562357" />
	</node>
	<node id="-700086" lat="68.3419694442" lon="16.1879583209">
		<tag k="name" v="Storvika" />
		<tag k="natural" v="bay" />
		<tag k="ssr:stedsnr" v="828246" />
	</node>
	<node id="-699593" lat="68.4211999992" lon="16.7470916766">
		<tag k="name" v="Skavika" />
		<tag k="natural" v="bay" />
		<tag k="ssr:stedsnr" v="563483" />
	</node>
	<node id="-700084" lat="68.3281361102" lon="16.1165694544">
		<tag k="name" v="Ørnskjærskallan" />
		<tag k="natural" v="shoal" />
		<tag k="place" v="locality" />
		<tag k="ssr:stedsnr" v="825067" />
	</node>
	<node id="-698739" lat="68.2389277794" lon="16.6024638977">
		<tag k="name" v="Kobbeneset" />
		<tag k="natural" v="cape" />
		<tag k="ssr:stedsnr" v="380518" />
	</node>
	<node id="-700079" lat="68.3556055587" lon="16.9648722121">
		<tag k="name" v="Rånlynen" />
		<tag k="natural" v="cape" />
		<tag k="ssr:stedsnr" v="814489" />
	</node>
	<node id="-698977" lat="68.3756499973" lon="17.0330333262">
		<tag k="name" v="Rundholmen" />
		<tag k="place" v="islet" />
		<tag k="ssr:stedsnr" v="39885" />
	</node>
	<node id="-699049" lat="68.4052805535" lon="16.669163893">
		<tag k="name" v="Åneset" />
		<tag k="natural" v="cape" />
		<tag k="ssr:stedsnr" v="85160" />
	</node>
	<node id="-698993" lat="68.2849750033" lon="16.5610027842">
		<tag k="name" v="Vårsetholmen" />
		<tag k="place" v="islet" />
		<tag k="ssr:stedsnr" v="77609" />
	</node>
	<node id="-698822" lat="68.3181416657" lon="16.1690083302">
		<tag k="name" v="Mastervika" />
		<tag k="natural" v="bay" />
		<tag k="ssr:stedsnr" v="403348" />
	</node>
	<node id="-699554" lat="68.3231416672" lon="16.2441416641">
		<tag k="fixme" v="consider seamark:type=rock or natural=shoal" />
		<tag k="name" v="Fløskjæret" />
		<tag k="place" v="islet" />
		<tag k="ssr:stedsnr" v="524328" />
	</node>
	<node id="-699041" lat="68.4073944436" lon="16.4810638832">
		<tag k="name" v="Inner-Steinvika" />
		<tag k="natural" v="bay" />
		<tag k="ssr:stedsnr" v="82938" />
	</node>
	<node id="-699039" lat="68.3148666668" lon="16.3618610991">
		<tag k="name" v="Forrneset" />
		<tag k="natural" v="cape" />
		<tag k="ssr:stedsnr" v="82548" />
	</node>
	<node id="-699038" lat="68.3338333314" lon="16.2914166759">
		<tag k="name" v="Heimstranda" />
		<tag k="natural" v="beach" />
		<tag k="place" v="locality" />
		<tag k="ssr:stedsnr" v="82542" />
	</node>
	<node id="-700060" lat="68.2338277773" lon="16.6101111023">
		<tag k="name" v="Kjerringneset" />
		<tag k="natural" v="cape" />
		<tag k="ssr:stedsnr" v="810973" />
	</node>
	<node id="-700057" lat="68.3326666668" lon="16.3220166577">
		<tag k="fixme" v="consider seamark:type=rock or natural=shoal" />
		<tag k="name" v="Gonghaugskjæret" />
		<tag k="place" v="islet" />
		<tag k="ssr:stedsnr" v="810555" />
	</node>
	<node id="-699198" lat="68.3259055548" lon="16.2652166666">
		<tag k="name" v="Hestnesodden" />
		<tag k="natural" v="cape" />
		<tag k="ssr:stedsnr" v="199664" />
	</node>
	<node id="-700185" lat="68.285277776" lon="16.500488887">
		<tag k="name" v="Ånepollen" />
		<tag k="natural" v="bay" />
		<tag k="ssr:stedsnr" v="927452" />
	</node>
	<node id="-698990" lat="68.2199305554" lon="16.6378249973">
		<tag k="name" v="Karineset" />
		<tag k="natural" v="cape" />
		<tag k="ssr:stedsnr" v="77528" />
	</node>
	<node id="-699024" lat="68.3717972214" lon="17.0274833426">
		<tag k="name" v="Saltvikøya" />
		<tag k="place" v="island" />
		<tag k="ssr:stedsnr" v="78933" />
	</node>
	<node id="-698904" lat="68.3345111148" lon="16.3345527816">
		<tag k="name" v="Tennholmen" />
		<tag k="place" v="islet" />
		<tag k="ssr:stedsnr" v="17699" />
	</node>
	<node id="-699020" lat="68.3514055601" lon="16.9404194395">
		<tag k="name" v="Einerneset" />
		<tag k="natural" v="cape" />
		<tag k="ssr:stedsnr" v="78901" />
	</node>
	<node id="-699019" lat="68.3514111069" lon="16.9205250074">
		<tag k="name" v="Måseholmen" />
		<tag k="place" v="islet" />
		<tag k="ssr:stedsnr" v="78900" />
	</node>
	<node id="-698988" lat="68.2301333378" lon="16.8081166652">
		<tag k="name" v="Langneset" />
		<tag k="natural" v="cape" />
		<tag k="ssr:stedsnr" v="77521" />
	</node>
	<node id="-699526" lat="68.2186666677" lon="16.6134138938">
		<tag k="name" v="Keipelvneset" />
		<tag k="natural" v="cape" />
		<tag k="ssr:stedsnr" v="507967" />
	</node>
	<node id="-700036" lat="68.3582666691" lon="16.2757749974">
		<tag k="name" v="Skarstadøya" />
		<tag k="natural" v="cape" />
		<tag k="ssr:stedsnr" v="806704" />
	</node>
	<node id="-699011" lat="68.361130557" lon="16.2911222307">
		<tag k="name" v="Litlepollen" />
		<tag k="natural" v="bay" />
		<tag k="ssr:stedsnr" v="78698" />
	</node>
	<node id="-699243" lat="68.3645444458" lon="16.897947218">
		<tag k="name" v="Kobberstranda" />
		<tag k="natural" v="beach" />
		<tag k="place" v="locality" />
		<tag k="ssr:stedsnr" v="207248" />
	</node>
	<node id="-700032" lat="68.3287250045" lon="16.3732083338">
		<tag k="name" v="Langvågpollen" />
		<tag k="natural" v="bay" />
		<tag k="ssr:stedsnr" v="806653" />
	</node>
	<node id="-699521" lat="68.3269277766" lon="16.3154833219">
		<tag k="name" v="Grønnstrandholmen" />
		<tag k="place" v="islet" />
		<tag k="ssr:stedsnr" v="507550" />
	</node>
	<node id="-700028" lat="68.3255336092" lon="16.3459151601">
		<tag k="alt_name" v="Pollneset" />
		<tag k="name" v="Pollsnes" />
		<tag k="natural" v="cape" />
		<tag k="old_name" v="Pålsnesodden" />
		<tag k="ssr:stedsnr" v="806631" />
	</node>
	<node id="-699555" lat="68.3266333322" lon="16.2427055528">
		<tag k="name" v="Rishågosen" />
		<tag k="natural" v="bay" />
		<tag k="ssr:stedsnr" v="524329" />
	</node>
	<node id="-699000" lat="68.4184555524" lon="16.6023749897">
		<tag k="name" v="Porsøybogen" />
		<tag k="natural" v="bay" />
		<tag k="ssr:stedsnr" v="78472" />
	</node>
	<node id="-699156" lat="68.4206666688" lon="16.6253972107">
		<tag k="name" v="Elvenes" />
		<tag k="natural" v="cape" />
		<tag k="ssr:stedsnr" v="145450" />
	</node>
	<node id="-700020" lat="68.419200002" lon="16.5937277744">
		<tag k="name" v="Porsøya" />
		<tag k="place" v="island" />
		<tag k="ssr:stedsnr" v="806456" />
	</node>
	<node id="-700019" lat="68.2536250037" lon="16.5694666565">
		<tag k="name" v="Skjellneset" />
		<tag k="natural" v="cape" />
		<tag k="ssr:stedsnr" v="806445" />
	</node>
	<node id="-698994" lat="68.2863944474" lon="16.4692527804">
		<tag k="name" v="Ånepollen" />
		<tag k="natural" v="bay" />
		<tag k="ssr:stedsnr" v="77612" />
	</node>
	<node id="-699505" lat="68.3986277756" lon="16.5420249982">
		<tag k="fixme" v="multiple name tags, choose one and add the other to alt_name" />
		<tag k="name" v="Kalvneset;Kvalnes" />
		<tag k="natural" v="cape" />
		<tag k="ssr:stedsnr" v="502762" />
	</node>
	<node id="-698617" lat="68.2889249976" lon="16.4237194373">
		<tag k="fixme" v="consider seamark:type=rock or natural=shoal" />
		<tag k="name" v="Kobbskjæret" />
		<tag k="place" v="islet" />
		<tag k="ssr:stedsnr" v="282318" />
	</node>
	<node id="-700014" lat="68.2745000002" lon="16.5754250095">
		<tag k="bay" v="fjord" />
		<tag k="name" v="Forsahavet" />
		<tag k="natural" v="bay" />
		<tag k="ssr:stedsnr" v="805577" />
	</node>
	<node id="-699009" lat="68.3386333342" lon="16.2795305666">
		<tag k="fixme" v="multiple name tags, choose one and add the other to alt_name" />
		<tag k="name" v="Hellarneset;Strandneset" />
		<tag k="natural" v="cape" />
		<tag k="ssr:stedsnr" v="78683" />
	</node>
	<node id="-699500" lat="68.3509861096" lon="16.2997416534">
		<tag k="name" v="Slåttvikstraumen" />
		<tag k="natural" v="strait" />
		<tag k="ssr:stedsnr" v="502690" />
	</node>
	<node id="-699499" lat="68.3522083364" lon="16.2890027682">
		<tag k="name" v="Storvika" />
		<tag k="natural" v="bay" />
		<tag k="ssr:stedsnr" v="502689" />
	</node>
	<node id="-699759" lat="68.3224833293" lon="16.1782583265">
		<tag k="name" v="Vallekorsnes" />
		<tag k="natural" v="cape" />
		<tag k="ssr:stedsnr" v="645351" />
	</node>
	<node id="-700007" lat="68.3569722195" lon="16.1394888755">
		<tag k="alt_name" v="Sjyvika" />
		<tag k="name" v="Sjøvika" />
		<tag k="natural" v="bay" />
		<tag k="ssr:stedsnr" v="805325" />
	</node>
	<node id="-699490" lat="68.3198388912" lon="16.2551944552">
		<tag k="name" v="Ungsmaløya" />
		<tag k="place" v="island" />
		<tag k="ssr:stedsnr" v="502658" />
	</node>
	<node id="-698811" lat="68.3490861156" lon="16.8620361051">
		<tag k="name" v="Slåttstranda" />
		<tag k="natural" v="beach" />
		<tag k="place" v="locality" />
		<tag k="ssr:stedsnr" v="389296" />
	</node>
	<node id="-698976" lat="68.3750638877" lon="17.0326888906">
		<tag k="name" v="Kuholmen" />
		<tag k="place" v="islet" />
		<tag k="ssr:stedsnr" v="39884" />
	</node>
	<node id="-699487" lat="68.3099083343" lon="16.4057250067">
		<tag k="name" v="Håkonsetholmen" />
		<tag k="place" v="islet" />
		<tag k="ssr:stedsnr" v="502637" />
	</node>
	<node id="-699486" lat="68.3194999996" lon="16.3050527653">
		<tag k="fixme" v="consider seamark:type=rock or natural=shoal" />
		<tag k="name" v="Gåsøyan" />
		<tag k="place" v="islet" />
		<tag k="ssr:stedsnr" v="502635" />
	</node>
	<node id="-698725" lat="68.2838222263" lon="16.5995333372">
		<tag k="name" v="Storvika" />
		<tag k="natural" v="bay" />
		<tag k="ssr:stedsnr" v="342614" />
	</node>
	<node id="-699994" lat="68.318972221" lon="16.2865388877">
		<tag k="name" v="Falkneset" />
		<tag k="natural" v="cape" />
		<tag k="ssr:stedsnr" v="767257" />
	</node>
	<node id="-699993" lat="68.3453611147" lon="16.2076388974">
		<tag k="name" v="Kalvneset" />
		<tag k="natural" v="cape" />
		<tag k="ssr:stedsnr" v="767253" />
	</node>
	<node id="-699480" lat="68.1653722196" lon="16.7422138762">
		<tag k="bay" v="fjord" />
		<tag k="name" v="Tauselvhavet" />
		<tag k="natural" v="bay" />
		<tag k="ssr:stedsnr" v="502613" />
	</node>
	<node id="-699991" lat="68.3196027818" lon="16.1171444404">
		<tag k="name" v="Vallebøen" />
		<tag k="natural" v="shoal" />
		<tag k="place" v="locality" />
		<tag k="ssr:stedsnr" v="767376" />
	</node>
	<node id="-698923" lat="68.3838333329" lon="17.0339555628">
		<tag k="alt_name" v="Klubben" />
		<tag k="fixme" v="consider seamark:type=rock or natural=shoal" />
		<tag k="name" v="Saltvikklubben" />
		<tag k="place" v="islet" />
		<tag k="ssr:stedsnr" v="18932" />
	</node>
	<node id="-699476" lat="68.2922888863" lon="16.5131166751">
		<tag k="name" v="Småholman" />
		<tag k="place" v="islet" />
		<tag k="ssr:stedsnr" v="502586" />
	</node>
	<node id="-699475" lat="68.2937694399" lon="16.5339222301">
		<tag k="name" v="Mølnosholmen" />
		<tag k="place" v="islet" />
		<tag k="ssr:stedsnr" v="502584" />
	</node>
	<node id="-698962" lat="68.3313694476" lon="16.0468750012">
		<tag k="name" v="Breiosen" />
		<tag k="natural" v="bay" />
		<tag k="ssr:stedsnr" v="39336" />
	</node>
	<node id="-698961" lat="68.3322166656" lon="16.0825444475">
		<tag k="fixme" v="consider seamark:type=rock or natural=shoal" />
		<tag k="name" v="Skarvskiten" />
		<tag k="place" v="islet" />
		<tag k="ssr:stedsnr" v="39335" />
	</node>
	<node id="-699576" lat="68.2069527808" lon="16.7730805603">
		<tag k="name" v="Tomasneset" />
		<tag k="natural" v="cape" />
		<tag k="ssr:stedsnr" v="562513" />
	</node>
	<node id="-698958" lat="68.3398444449" lon="16.1725749958">
		<tag k="name" v="Lyngsnes" />
		<tag k="natural" v="cape" />
		<tag k="ssr:stedsnr" v="39217" />
	</node>
	<node id="-699661" lat="68.4203916679" lon="16.7079861099">
		<tag k="name" v="Skårnesgrunnen" />
		<tag k="natural" v="shoal" />
		<tag k="place" v="locality" />
		<tag k="ssr:stedsnr" v="582665" />
	</node>
	<node id="-699979" lat="68.3344972215" lon="16.8235472093">
		<tag k="name" v="Ballangsvika" />
		<tag k="natural" v="bay" />
		<tag k="ssr:stedsnr" v="753378" />
	</node>
	<node id="-699466" lat="68.3347000035" lon="16.1519555452">
		<tag k="name" v="Leia" />
		<tag k="natural" v="strait" />
		<tag k="ssr:stedsnr" v="502363" />
	</node>
	<node id="-699465" lat="68.3299000012" lon="16.0517027849">
		<tag k="fixme" v="consider seamark:type=rock or natural=shoal" />
		<tag k="name" v="Vikskjæran" />
		<tag k="place" v="islet" />
		<tag k="ssr:stedsnr" v="502362" />
	</node>
	<node id="-699464" lat="68.3327611103" lon="16.0747055593">
		<tag k="fixme" v="consider seamark:type=rock or natural=shoal" />
		<tag k="name" v="Skarvskiten" />
		<tag k="place" v="islet" />
		<tag k="ssr:stedsnr" v="502361" />
	</node>
	<node id="-698951" lat="68.3500194409" lon="16.8945972121">
		<tag k="name" v="Forrnesodden" />
		<tag k="natural" v="cape" />
		<tag k="ssr:stedsnr" v="25386" />
	</node>
	<node id="-699462" lat="68.3113638932" lon="16.0836138791">
		<tag k="fixme" v="consider seamark:type=rock or natural=shoal" />
		<tag k="name" v="Vallebåan" />
		<tag k="place" v="islet" />
		<tag k="ssr:stedsnr" v="502347" />
	</node>
	<node id="-698949" lat="68.3495805571" lon="16.8906083402">
		<tag k="name" v="Anutvika" />
		<tag k="natural" v="bay" />
		<tag k="ssr:stedsnr" v="25365" />
	</node>
	<node id="-699460" lat="68.3532388917" lon="16.1797777755">
		<tag k="name" v="Buholmen" />
		<tag k="place" v="islet" />
		<tag k="ssr:stedsnr" v="502303" />
	</node>
	<node id="-699574" lat="68.3231388926" lon="16.1379666744">
		<tag k="fixme" v="multiple name tags, choose one and add the other to alt_name" />
		<tag k="name" v="Flatholmen;Valle" />
		<tag k="place" v="islet" />
		<tag k="ssr:stedsnr" v="562349" />
	</node>
	<node id="-698946" lat="68.4140611103" lon="16.7833166597">
		<tag k="fixme" v="consider seamark:type=rock or natural=shoal" />
		<tag k="name" v="Kvalbaken" />
		<tag k="place" v="islet" />
		<tag k="ssr:stedsnr" v="25288" />
	</node>
	<node id="-698633" lat="68.3736055533" lon="17.0309277872">
		<tag k="name" v="Geitholmen" />
		<tag k="place" v="islet" />
		<tag k="ssr:stedsnr" v="282894" />
	</node>
	<node id="-699966" lat="68.400283335" lon="16.8173722128">
		<tag k="name" v="Jonsholmen" />
		<tag k="place" v="islet" />
		<tag k="ssr:stedsnr" v="753210" />
	</node>
	<node id="-700085" lat="68.4219888929" lon="16.6516083274">
		<tag k="name" v="Kjeldegrunnen" />
		<tag k="natural" v="shoal" />
		<tag k="place" v="locality" />
		<tag k="ssr:stedsnr" v="825621" />
	</node>
	<node id="-698634" lat="68.3594083356" lon="17.0220277765">
		<tag k="name" v="Rånbogen" />
		<tag k="natural" v="bay" />
		<tag k="ssr:stedsnr" v="282896" />
	</node>
	<node id="-699962" lat="68.4185833377" lon="16.705344438">
		<tag k="name" v="Neset" />
		<tag k="natural" v="cape" />
		<tag k="ssr:stedsnr" v="752183" />
	</node>
	<node id="-699448" lat="68.3334749961" lon="16.2077361081">
		<tag k="fixme" v="consider seamark:type=rock or natural=shoal" />
		<tag k="name" v="Langskjæret" />
		<tag k="place" v="islet" />
		<tag k="ssr:stedsnr" v="464389" />
	</node>
	<node id="-698889" lat="68.4091416706" lon="16.5130999995">
		<tag k="alt_name" v="Moltforrvika" />
		<tag k="name" v="Moltforvika" />
		<tag k="natural" v="bay" />
		<tag k="ssr:stedsnr" v="17498" />
	</node>
	<node id="-699230" lat="68.392519449" lon="16.8917416575">
		<tag k="name" v="Kvernnesbåen" />
		<tag k="natural" v="shoal" />
		<tag k="place" v="locality" />
		<tag k="ssr:stedsnr" v="201000" />
	</node>
	<node id="-699953" lat="68.2955138902" lon="16.5064277848">
		<tag k="fixme" v="consider seamark:type=rock or natural=shoal" />
		<tag k="name" v="Stabben" />
		<tag k="place" v="islet" />
		<tag k="ssr:stedsnr" v="749962" />
	</node>
	<node id="-698928" lat="68.3358138908" lon="16.3228805496">
		<tag k="name" v="Flyndervika" />
		<tag k="natural" v="bay" />
		<tag k="ssr:stedsnr" v="22532" />
	</node>
	<node id="-699439" lat="68.2978277808" lon="16.5010138983">
		<tag k="name" v="Hella" />
		<tag k="natural" v="shoal" />
		<tag k="place" v="locality" />
		<tag k="ssr:stedsnr" v="461546" />
	</node>
	<node id="-699949" lat="68.3620777782" lon="16.3068527704">
		<tag k="name" v="Tømmergota" />
		<tag k="natural" v="bay" />
		<tag k="ssr:stedsnr" v="749546" />
	</node>
	<node id="-699947" lat="68.3783916669" lon="16.3248111184">
		<tag k="name" v="Russvikneset" />
		<tag k="natural" v="cape" />
		<tag k="ssr:stedsnr" v="749539" />
	</node>
	<node id="-698922" lat="68.3470944468" lon="16.9074500096">
		<tag k="name" v="Leirosen" />
		<tag k="natural" v="bay" />
		<tag k="ssr:stedsnr" v="18876" />
	</node>
	<node id="-699945" lat="68.3840666685" lon="17.0648749998">
		<tag k="alt_name" v="Sildvika, yt" />
		<tag k="name" v="Ytter-Sildvik" />
		<tag k="natural" v="bay" />
		<tag k="ssr:stedsnr" v="746935" />
	</node>
	<node id="-699126" lat="68.3258749954" lon="16.2449277857">
		<tag k="name" v="Vallebukta" />
		<tag k="natural" v="bay" />
		<tag k="ssr:stedsnr" v="138661" />
	</node>
	<node id="-700081" lat="68.3020083298" lon="17.0622583403">
		<tag k="name" v="Jensskrea" />
		<tag k="place" v="locality" />
		<tag k="ssr:stedsnr" v="814767" />
	</node>
	<node id="-699428" lat="68.3558805556" lon="16.9171027881">
		<tag k="name" v="Hattholmgrunnen" />
		<tag k="natural" v="shoal" />
		<tag k="place" v="locality" />
		<tag k="ssr:stedsnr" v="450364" />
	</node>
	<node id="-699939" lat="68.3638388934" lon="16.8960166617">
		<tag k="name" v="Munken" />
		<tag k="natural" v="cape" />
		<tag k="ssr:stedsnr" v="745945" />
	</node>
	<node id="-699424" lat="68.3590666671" lon="16.8858249936">
		<tag k="name" v="Torrungstranda" />
		<tag k="natural" v="beach" />
		<tag k="place" v="locality" />
		<tag k="ssr:stedsnr" v="450245" />
	</node>
	<node id="-698885" lat="68.314302781" lon="16.094408324">
		<tag k="fixme" v="consider seamark:type=rock or natural=shoal" />
		<tag k="name" v="Linveitskjæran" />
		<tag k="place" v="islet" />
		<tag k="ssr:stedsnr" v="17386" />
	</node>
	<node id="-698907" lat="68.3482694473" lon="16.322249993">
		<tag k="name" v="Sæterosen" />
		<tag k="natural" v="bay" />
		<tag k="ssr:stedsnr" v="17716" />
	</node>
	<node id="-699416" lat="68.2275777788" lon="16.6155166746">
		<tag k="name" v="Slabåtneset" />
		<tag k="natural" v="cape" />
		<tag k="ssr:stedsnr" v="446977" />
	</node>
	<node id="-698713" lat="68.3227000019" lon="16.3463388867">
		<tag k="name" v="Kufiskneset" />
		<tag k="natural" v="cape" />
		<tag k="ssr:stedsnr" v="340531" />
	</node>
	<node id="-698897" lat="68.2924388867" lon="16.4868694345">
		<tag k="name" v="Mellastraumen" />
		<tag k="natural" v="strait" />
		<tag k="ssr:stedsnr" v="17621" />
	</node>
	<node id="-699405" lat="68.3831277777" lon="17.0440194483">
		<tag k="name" v="Saltvikneset" />
		<tag k="natural" v="cape" />
		<tag k="ssr:stedsnr" v="443944" />
	</node>
	<node id="-699916" lat="68.349174997" lon="16.2438333362">
		<tag k="fixme" v="consider seamark:type=rock or natural=shoal" />
		<tag k="name" v="Langskjæret" />
		<tag k="place" v="islet" />
		<tag k="ssr:stedsnr" v="745723" />
	</node>
	<node id="-699914" lat="68.3550611097" lon="16.3287527886">
		<tag k="name" v="Mølnosen" />
		<tag k="natural" v="bay" />
		<tag k="ssr:stedsnr" v="745715" />
	</node>
	<node id="-699401" lat="68.3667722234" lon="16.9946916757">
		<tag k="alt_name" v="Grønholmen" />
		<tag k="name" v="Grønnholmen" />
		<tag k="place" v="islet" />
		<tag k="ssr:stedsnr" v="442934" />
	</node>
	<node id="-698888" lat="68.4151638896" lon="16.5655444522">
		<tag k="name" v="Korshamn" />
		<tag k="natural" v="cape" />
		<tag k="ssr:stedsnr" v="17486" />
	</node>
	<node id="-699910" lat="68.3329222186" lon="16.251061104">
		<tag k="name" v="Straumsøysundet" />
		<tag k="natural" v="strait" />
		<tag k="ssr:stedsnr" v="745687" />
	</node>
	<node id="-699649" lat="68.3554138897" lon="17.0230861192">
		<tag k="name" v="Sandvika" />
		<tag k="natural" v="bay" />
		<tag k="ssr:stedsnr" v="571387" />
	</node>
	<node id="-698883" lat="68.3398916643" lon="16.1948444421">
		<tag k="alt_name" v="Vallevika" />
		<tag k="name" v="Valbukta" />
		<tag k="natural" v="bay" />
		<tag k="ssr:stedsnr" v="17361" />
	</node>
	<node id="-698882" lat="68.3341333335" lon="16.0792583248">
		<tag k="name" v="Barøyodden" />
		<tag k="natural" v="cape" />
		<tag k="ssr:stedsnr" v="18415" />
	</node>
	<node id="-698795" lat="68.2985333374" lon="16.4981166667">
		<tag k="name" v="Straumneset" />
		<tag k="natural" v="cape" />
		<tag k="ssr:stedsnr" v="385952" />
	</node>
</osm>
