<?xml version="1.0" encoding="UTF-8"?>
<osm generator="osmapis" version="0.6">
	<node id="-699008" lat="68.3487555555" lon="16.1797861137">
		<tag k="fixme" v="verify maritime location" />
		<tag k="mooring" v="yes" />
		<tag k="name" v="Gangstøa" />
		<tag k="place" v="locality" />
		<tag k="ssr:stedsnr" v="949254" />
	</node>
	<node id="-698240" lat="68.3292083317" lon="16.7526777848">
		<tag k="junction" v="yes" />
		<tag k="name" v="Melkedalskrysset" />
		<tag k="place" v="locality" />
		<tag k="ssr:stedsnr" v="502661" />
	</node>
	<node id="-698621" lat="68.2563750015" lon="16.6193638971">
		<tag k="highway" v="path" />
		<tag k="name" v="Gangstien" />
		<tag k="ssr:stedsnr" v="706637" />
	</node>
	<node id="-697723" lat="68.3229916689" lon="16.6375166737">
		<tag k="highway" v="path" />
		<tag k="name" v="Molandvegen" />
		<tag k="ssr:stedsnr" v="39673" />
	</node>
	<node id="-697813" lat="68.3511361153" lon="16.7506361186">
		<tag k="highway" v="path" />
		<tag k="name" v="Storjordvegen" />
		<tag k="ssr:stedsnr" v="86445" />
	</node>
	<node id="-697936" lat="68.3400916642" lon="16.861591657">
		<tag k="landuse" v="harbour" />
		<tag k="name" v="Kaldåosen Marina" />
		<tag k="seamark:type" v="harbour" />
		<tag k="ssr:stedsnr" v="177614" />
	</node>
	<node id="-698927" lat="68.3714583337" lon="17.0419111154">
		<tag k="highway" v="path" />
		<tag k="name" v="Saltvikstien" />
		<tag k="ssr:stedsnr" v="875744" />
	</node>
	<node id="-697902" lat="68.3993972202" lon="16.6814111103">
		<tag k="highway" v="path" />
		<tag k="name" v="Lappvegen" />
		<tag k="ssr:stedsnr" v="145185" />
	</node>
	<node id="-698824" lat="68.3516250009" lon="17.0106999875">
		<tag k="highway" v="path" />
		<tag k="name" v="Geitstien" />
		<tag k="ssr:stedsnr" v="814415" />
	</node>
	<node id="-697796" lat="68.3818250035" lon="16.6736444539">
		<tag k="highway" v="path" />
		<tag k="name" v="Håfjellvegen" />
		<tag k="ssr:stedsnr" v="85142" />
	</node>
	<node id="-698531" lat="68.3535583374" lon="16.86801389">
		<tag k="leisure" v="marina" />
		<tag k="name" v="Hamn" />
		<tag k="ssr:stedsnr" v="662623" />
	</node>
</osm>
