<?xml version="1.0" encoding="UTF-8"?>
<osm generator="osmapis" version="0.6">
	<node id="-700276" lat="68.3282209854" lon="16.5795761667">
		<tag k="loc_name:no" v="Kjeldmarkeidet" />
		<tag k="name" v="Čahca" />
		<tag k="name:se" v="Čahca" />
		<tag k="natural" v="strait" />
		<tag k="ssr:stedsnr" v="973800" />
	</node>
	<node id="-700267" lat="68.2877504928" lon="16.6928960854">
		<tag k="name" v="Åsvatnet" />
		<tag k="natural" v="water" />
		<tag k="ssr:stedsnr" v="949595" />
		<tag k="water" v="lake" />
	</node>
	<node id="-700266" lat="68.296283331" lon="16.800083332">
		<tag k="name" v="Vika" />
		<tag k="natural" v="bay" />
		<tag k="ssr:stedsnr" v="949531" />
	</node>
	<node id="-700265" lat="68.3141694446" lon="16.7524944376">
		<tag k="name" v="Nilsvika" />
		<tag k="natural" v="bay" />
		<tag k="ssr:stedsnr" v="949470" />
	</node>
	<node id="-700263" lat="68.2818583361" lon="16.4161083343">
		<tag k="name" v="Holmen" />
		<tag k="place" v="islet" />
		<tag k="ssr:stedsnr" v="949308" />
	</node>
	<node id="-700250" lat="68.3327222243" lon="16.7625611193">
		<tag k="name" v="Mørkholbekken" />
		<tag k="ssr:stedsnr" v="935440" />
		<tag k="waterway" v="stream" />
	</node>
	<node id="-700249" lat="68.3519583294" lon="16.9396083219">
		<tag k="name" v="Fineosen" />
		<tag k="natural" v="bay" />
		<tag k="ssr:stedsnr" v="935364" />
	</node>
	<node id="-700245" lat="68.401519447" lon="16.7694055459">
		<tag k="name" v="Mølnelva" />
		<tag k="ssr:stedsnr" v="935256" />
		<tag k="waterway" v="river" />
	</node>
	<node id="-700240" lat="68.3878388856" lon="16.6114277702">
		<tag k="name" v="Tjærmilåsbekken" />
		<tag k="ssr:stedsnr" v="935195" />
		<tag k="waterway" v="stream" />
	</node>
	<node id="-700237" lat="68.3745277813" lon="16.6303805579">
		<tag k="name" v="Bruelva" />
		<tag k="ssr:stedsnr" v="935140" />
		<tag k="waterway" v="river" />
	</node>
	<node id="-700236" lat="68.3226805555" lon="16.6953749978">
		<tag k="name" v="Botnlausvatnet" />
		<tag k="natural" v="water" />
		<tag k="ssr:stedsnr" v="935120" />
		<tag k="water" v="lake" />
	</node>
	<node id="-700233" lat="68.2674472238" lon="16.8746277681">
		<tag k="name" v="Skavneset" />
		<tag k="natural" v="cape" />
		<tag k="ssr:stedsnr" v="932956" />
	</node>
	<node id="-700232" lat="68.3822944456" lon="16.4696250045">
		<tag k="name" v="Litlevatnet" />
		<tag k="natural" v="water" />
		<tag k="ssr:stedsnr" v="932932" />
	</node>
	<node id="-700223" lat="68.3598333285" lon="16.8369555633">
		<tag k="name" v="Stria" />
		<tag k="ssr:stedsnr" v="928920" />
		<tag k="waterway" v="stream" />
	</node>
	<node id="-700222" lat="68.3443555552" lon="17.0153111031">
		<tag k="name" v="Vassneset" />
		<tag k="natural" v="cape" />
		<tag k="ssr:stedsnr" v="928898" />
	</node>
	<node id="-700220" lat="68.2766750034" lon="17.010272218">
		<tag k="name" v="Kvannåkerelva" />
		<tag k="ssr:stedsnr" v="928819" />
		<tag k="waterway" v="stream" />
	</node>
	<node id="-700219" lat="68.250058335" lon="16.9412777871">
		<tag k="name" v="Skredelva" />
		<tag k="ssr:stedsnr" v="928790" />
		<tag k="waterway" v="stream" />
	</node>
	<node id="-700218" lat="68.2737916686" lon="17.01222777">
		<tag k="name" v="Skårdalsbekken" />
		<tag k="ssr:stedsnr" v="928779" />
		<tag k="waterway" v="stream" />
	</node>
	<node id="-700215" lat="68.311291665" lon="17.1057666627">
		<tag k="name" v="Lasselva" />
		<tag k="ssr:stedsnr" v="927872" />
		<tag k="waterway" v="stream" />
	</node>
	<node id="-700212" lat="68.3980666642" lon="16.6385027729">
		<tag k="name" v="Svartvatnet" />
		<tag k="natural" v="water" />
		<tag k="ssr:stedsnr" v="927752" />
	</node>
	<node id="-700209" lat="68.2251777742" lon="16.8415111201">
		<tag k="name" v="Ørretvatnet" />
		<tag k="natural" v="water" />
		<tag k="ssr:stedsnr" v="927742" />
	</node>
	<node id="-700208" lat="68.3805194425" lon="16.665308324">
		<tag k="name" v="Storjordvatnan" />
		<tag k="natural" v="water" />
		<tag k="ssr:stedsnr" v="927727" />
		<tag k="water" v="lake" />
	</node>
	<node id="-700199" lat="68.325738886" lon="16.4176166533">
		<tag k="name" v="Brennelva" />
		<tag k="ssr:stedsnr" v="927637" />
		<tag k="waterway" v="stream" />
	</node>
	<node id="-700198" lat="68.3151972268" lon="16.7578861034">
		<tag k="name" v="Brattåsvika" />
		<tag k="natural" v="bay" />
		<tag k="ssr:stedsnr" v="927634" />
	</node>
	<node id="-700193" lat="68.2823916707" lon="16.7145166729">
		<tag k="name" v="Mellomneset" />
		<tag k="natural" v="cape" />
		<tag k="ssr:stedsnr" v="927580" />
	</node>
	<node id="-700177" lat="68.3692500012" lon="16.8105694407">
		<tag k="name" v="Trolldalselva" />
		<tag k="ssr:stedsnr" v="875297" />
		<tag k="waterway" v="stream" />
	</node>
	<node id="-700168" lat="68.3256388884" lon="16.7894249888">
		<tag k="name" v="Syllmoelva" />
		<tag k="ssr:stedsnr" v="874439" />
		<tag k="waterway" v="river" />
	</node>
	<node id="-700161" lat="68.400005551" lon="16.7025250077">
		<tag k="name" v="Stilla" />
		<tag k="natural" v="water" />
		<tag k="ssr:stedsnr" v="874234" />
		<tag k="water" v="lake" />
	</node>
	<node id="-700141" lat="68.3609527761" lon="16.8575138917">
		<tag k="alt_name" v="Åga" />
		<tag k="name" v="Åa" />
		<tag k="ssr:stedsnr" v="867944" />
		<tag k="waterway" v="stream" />
	</node>
	<node id="-700139" lat="68.3509777806" lon="17.0084222179">
		<tag k="name" v="Støvelhøla" />
		<tag k="place" v="locality" />
		<tag k="ssr:stedsnr" v="867909" />
	</node>
	<node id="-700130" lat="68.2367722191" lon="16.9340583235">
		<tag k="name" v="Botnelva" />
		<tag k="ssr:stedsnr" v="867761" />
		<tag k="waterway" v="stream" />
	</node>
	<node id="-700129" lat="68.3913611097" lon="16.695455566">
		<tag k="name" v="Kvannelva" />
		<tag k="ssr:stedsnr" v="867745" />
		<tag k="waterway" v="stream" />
	</node>
	<node id="-700125" lat="68.352527774" lon="16.6562611179">
		<tag k="name" v="Fuglevatnet" />
		<tag k="natural" v="water" />
		<tag k="ssr:stedsnr" v="867714" />
		<tag k="water" v="lake" />
	</node>
	<node id="-700124" lat="68.3647633486" lon="16.7775850743">
		<tag k="name" v="Myrvatnet" />
		<tag k="natural" v="water" />
		<tag k="ssr:stedsnr" v="867702" />
	</node>
	<node id="-700122" lat="68.341969448" lon="16.7537111079">
		<tag k="name" v="Botnelva" />
		<tag k="ssr:stedsnr" v="867697" />
		<tag k="waterway" v="stream" />
	</node>
	<node id="-700118" lat="68.2987638881" lon="16.6655250063">
		<tag k="name" v="Djupvatnet" />
		<tag k="natural" v="water" />
		<tag k="ssr:stedsnr" v="867613" />
		<tag k="water" v="lake" />
	</node>
	<node id="-700112" lat="68.2944638843" lon="16.7989777862">
		<tag k="name" v="Storholmen" />
		<tag k="place" v="islet" />
		<tag k="ssr:stedsnr" v="866565" />
	</node>
	<node id="-700109" lat="68.2799861134" lon="16.7144333261">
		<tag k="name" v="Vadholmen" />
		<tag k="place" v="islet" />
		<tag k="ssr:stedsnr" v="866554" />
	</node>
	<node id="-700107" lat="68.2618999971" lon="16.7547555613">
		<tag k="alt_name" v="Tunnelelva" />
		<tag k="name" v="Tunelva" />
		<tag k="ssr:stedsnr" v="866530" />
		<tag k="waterway" v="stream" />
	</node>
	<node id="-700105" lat="68.2200916643" lon="16.6038499929">
		<tag k="name" v="Keipelva" />
		<tag k="ssr:stedsnr" v="866493" />
		<tag k="waterway" v="stream" />
	</node>
	<node id="-700104" lat="68.4138277796" lon="16.7303194344">
		<tag k="name" v="Skavikelva" />
		<tag k="ssr:stedsnr" v="866459" />
		<tag k="waterway" v="stream" />
	</node>
	<node id="-700083" lat="68.3920555588" lon="16.7881861084">
		<tag k="name" v="Kvitforsen" />
		<tag k="natural" v="waterfall" />
		<tag k="ssr:stedsnr" v="815301" />
	</node>
	<node id="-700082" lat="68.3997249978" lon="16.7445000052">
		<tag k="name" v="Bjørntuvelva" />
		<tag k="ssr:stedsnr" v="815243" />
		<tag k="waterway" v="river" />
	</node>
	<node id="-700073" lat="68.368436114" lon="16.8480500078">
		<tag k="name" v="Kjørbekkdalelva" />
		<tag k="ssr:stedsnr" v="814315" />
		<tag k="waterway" v="stream" />
	</node>
	<node id="-700071" lat="68.3864648467" lon="16.8136151355">
		<tag k="name" v="Trivatnet" />
		<tag k="natural" v="water" />
		<tag k="ssr:stedsnr" v="814298" />
		<tag k="water" v="lake" />
	</node>
	<node id="-700052" lat="68.3836972262" lon="16.8348083353">
		<tag k="fixme" v="multiple name tags, choose one and add the other to alt_name" />
		<tag k="name" v="Heggåelv;Heggåga" />
		<tag k="ssr:stedsnr" v="807937" />
		<tag k="waterway" v="river" />
	</node>
	<node id="-700051" lat="68.3273694404" lon="16.9401944535">
		<tag k="name" v="Bruavatnet" />
		<tag k="natural" v="water" />
		<tag k="ssr:stedsnr" v="807827" />
		<tag k="water" v="lake" />
	</node>
	<node id="-700046" lat="68.3653972193" lon="16.8702277824">
		<tag k="name" v="Saltvatnet" />
		<tag k="natural" v="water" />
		<tag k="ssr:stedsnr" v="806914" />
		<tag k="water" v="lake" />
	</node>
	<node id="-700044" lat="68.2707611113" lon="16.8667027836">
		<tag k="name" v="Ørntuvneset" />
		<tag k="natural" v="cape" />
		<tag k="ssr:stedsnr" v="806811" />
	</node>
	<node id="-700043" lat="68.2585055541" lon="17.0572333423">
		<tag k="name" v="Holtelva" />
		<tag k="ssr:stedsnr" v="806800" />
		<tag k="waterway" v="stream" />
	</node>
	<node id="-700038" lat="68.3701666669" lon="16.7817611035">
		<tag k="name" v="Bøvatnet" />
		<tag k="natural" v="water" />
		<tag k="ssr:stedsnr" v="806740" />
		<tag k="water" v="lake" />
	</node>
	<node id="-700022" lat="68.1926444464" lon="16.793894449">
		<tag k="name" v="Skårvasselva" />
		<tag k="ssr:stedsnr" v="806577" />
		<tag k="waterway" v="river" />
	</node>
	<node id="-700021" lat="68.2868499983" lon="16.6322833354">
		<tag k="name" v="Forsavatnet - Fuorsojávri" />
		<tag k="name:no" v="Forsavatnet" />
		<tag k="name:se" v="Fuorsojávri" />
		<tag k="natural" v="water" />
		<tag k="ssr:stedsnr" v="806571" />
		<tag k="water" v="lake" />
	</node>
	<node id="-700018" lat="68.3182638908" lon="16.8268749927">
		<tag k="name" v="Tverrelva" />
		<tag k="ssr:stedsnr" v="806441" />
		<tag k="waterway" v="river" />
	</node>
	<node id="-700015" lat="68.2834527803" lon="16.375177767">
		<tag k="name" v="Tindelva" />
		<tag k="ssr:stedsnr" v="805590" />
		<tag k="waterway" v="stream" />
	</node>
	<node id="-700009" lat="68.2258972231" lon="16.8081777854">
		<tag k="name" v="Hjertvatnet - Vájmmojávrre" />
		<tag k="name:no" v="Hjertvatnet" />
		<tag k="name:smj" v="Vájmmojávrre" />
		<tag k="natural" v="water" />
		<tag k="old_name:smj" v="Vájmmojávvre" />
		<tag k="ssr:stedsnr" v="805518" />
		<tag k="water" v="lake" />
	</node>
	<node id="-700008" lat="68.2307055531" lon="16.7297888841">
		<tag k="name" v="Botnelva" />
		<tag k="ssr:stedsnr" v="805512" />
		<tag k="waterway" v="stream" />
	</node>
	<node id="-700002" lat="68.319541663" lon="16.6397416568">
		<tag k="name" v="Klubbnesodden" />
		<tag k="natural" v="cape" />
		<tag k="ssr:stedsnr" v="767725" />
	</node>
	<node id="-700001" lat="68.2921166688" lon="16.7145694437">
		<tag k="name" v="Durmålselvbukta" />
		<tag k="natural" v="bay" />
		<tag k="ssr:stedsnr" v="767640" />
	</node>
	<node id="-700000" lat="68.3957805583" lon="16.5310500114">
		<tag k="name" v="Revnes" />
		<tag k="natural" v="cape" />
		<tag k="ssr:stedsnr" v="767631" />
	</node>
	<node id="-699999" lat="68.2381861096" lon="16.7256888811">
		<tag k="name" v="Melkelvneset" />
		<tag k="natural" v="cape" />
		<tag k="ssr:stedsnr" v="767613" />
	</node>
	<node id="-699997" lat="68.2476138921" lon="16.7508999999">
		<tag k="name" v="Kampelva" />
		<tag k="ssr:stedsnr" v="767504" />
		<tag k="waterway" v="stream" />
	</node>
	<node id="-699995" lat="68.3445722257" lon="16.7042138781">
		<tag k="name" v="Grytvatnet" />
		<tag k="natural" v="water" />
		<tag k="ssr:stedsnr" v="767707" />
	</node>
	<node id="-699990" lat="68.3193527743" lon="16.1956583352">
		<tag k="name" v="Øyosen" />
		<tag k="natural" v="bay" />
		<tag k="ssr:stedsnr" v="767370" />
	</node>
	<node id="-699989" lat="68.3153583348" lon="16.1949166598">
		<tag k="name" v="Brennskogosen" />
		<tag k="natural" v="bay" />
		<tag k="ssr:stedsnr" v="767368" />
	</node>
	<node id="-699988" lat="68.3323027816" lon="16.542538884">
		<tag k="name" v="Rundhaugelva" />
		<tag k="ssr:stedsnr" v="767355" />
		<tag k="waterway" v="stream" />
	</node>
	<node id="-699977" lat="68.3443972228" lon="16.8315055444">
		<tag k="name" v="Husvatnet" />
		<tag k="natural" v="water" />
		<tag k="ssr:stedsnr" v="753372" />
		<tag k="water" v="lake" />
	</node>
	<node id="-699961" lat="68.3591333372" lon="16.64519722">
		<tag k="name" v="Storvatnet" />
		<tag k="natural" v="water" />
		<tag k="ssr:stedsnr" v="752173" />
		<tag k="water" v="lake" />
	</node>
	<node id="-699955" lat="68.2535444449" lon="16.8677944522">
		<tag k="name" v="Hellneset" />
		<tag k="natural" v="cape" />
		<tag k="ssr:stedsnr" v="749980" />
	</node>
	<node id="-699943" lat="68.3377722245" lon="17.0008222235">
		<tag k="name" v="Strielva" />
		<tag k="ssr:stedsnr" v="746871" />
		<tag k="waterway" v="stream" />
	</node>
	<node id="-699942" lat="68.3460638862" lon="17.0118027723">
		<tag k="alt_name" v="Trombakkhøla" />
		<tag k="name" v="Trondbakkhølla" />
		<tag k="natural" v="water" />
		<tag k="ssr:stedsnr" v="746867" />
	</node>
	<node id="-699940" lat="68.2625444434" lon="17.0265027782">
		<tag k="name" v="Storeggelva" />
		<tag k="ssr:stedsnr" v="746738" />
		<tag k="waterway" v="stream" />
	</node>
	<node id="-699937" lat="68.2818111086" lon="16.8336638798">
		<tag k="name" v="Forrusken" />
		<tag k="natural" v="cape" />
		<tag k="ssr:stedsnr" v="745870" />
	</node>
	<node id="-699933" lat="68.2687833326" lon="16.8486166552">
		<tag k="name" v="Middagsvika" />
		<tag k="natural" v="bay" />
		<tag k="ssr:stedsnr" v="745828" />
	</node>
	<node id="-699923" lat="68.1504555522" lon="17.1049583356">
		<tag k="name" v="Kobbvatnet" />
		<tag k="natural" v="water" />
		<tag k="ssr:stedsnr" v="745752" />
		<tag k="water" v="lake" />
	</node>
	<node id="-699915" lat="68.352202779" lon="16.5759333449">
		<tag k="name" v="Bakkevatnet" />
		<tag k="natural" v="water" />
		<tag k="ssr:stedsnr" v="745719" />
	</node>
	<node id="-699909" lat="68.3375111104" lon="16.7806638969">
		<tag k="name" v="Djupåa" />
		<tag k="ssr:stedsnr" v="745682" />
		<tag k="waterway" v="stream" />
	</node>
	<node id="-699908" lat="68.3353638883" lon="16.7842083276">
		<tag k="name" v="Lomtjønna" />
		<tag k="natural" v="water" />
		<tag k="ssr:stedsnr" v="745681" />
	</node>
	<node id="-699906" lat="68.3376083359" lon="16.4018750119">
		<tag k="name" v="Rundvatnet" />
		<tag k="natural" v="water" />
		<tag k="ssr:stedsnr" v="745670" />
	</node>
	<node id="-699893" lat="68.2900499973" lon="16.1875500049">
		<tag k="name" v="Bremvikvatnan" />
		<tag k="natural" v="water" />
		<tag k="ssr:stedsnr" v="745383" />
	</node>
	<node id="-699892" lat="68.3473027738" lon="16.103688881">
		<tag k="name" v="Lomtjønna" />
		<tag k="natural" v="water" />
		<tag k="ssr:stedsnr" v="745351" />
	</node>
	<node id="-699891" lat="68.2815999994" lon="16.4819472144">
		<tag k="name" v="Sæterelva" />
		<tag k="ssr:stedsnr" v="744548" />
		<tag k="waterway" v="stream" />
	</node>
	<node id="-699889" lat="68.2908277804" lon="16.7973360999">
		<tag k="name" v="Kariholmen" />
		<tag k="place" v="islet" />
		<tag k="ssr:stedsnr" v="744543" />
	</node>
	<node id="-699887" lat="68.2823499989" lon="16.8166833277">
		<tag k="name" v="Stokkedalholmen" />
		<tag k="place" v="islet" />
		<tag k="ssr:stedsnr" v="744538" />
	</node>
	<node id="-699880" lat="68.2475694452" lon="16.94989722">
		<tag k="name" v="Skredmoelva" />
		<tag k="ssr:stedsnr" v="720802" />
		<tag k="waterway" v="stream" />
	</node>
	<node id="-699871" lat="68.2926222217" lon="16.6815749918">
		<tag k="name" v="Neset" />
		<tag k="natural" v="cape" />
		<tag k="ssr:stedsnr" v="706622" />
	</node>
	<node id="-699870" lat="68.4070972196" lon="16.4981805599">
		<tag k="name" v="Merrvikelva" />
		<tag k="ssr:stedsnr" v="706615" />
		<tag k="waterway" v="stream" />
	</node>
	<node id="-699860" lat="68.2839611143" lon="16.4314527752">
		<tag k="name" v="Leirpollelva" />
		<tag k="ssr:stedsnr" v="706348" />
		<tag k="waterway" v="river" />
	</node>
	<node id="-699851" lat="68.3965527735" lon="16.8422861173">
		<tag k="name" v="Merkingsåa" />
		<tag k="ssr:stedsnr" v="693295" />
		<tag k="waterway" v="stream" />
	</node>
	<node id="-699849" lat="68.3496277769" lon="16.7979388856">
		<tag k="name" v="Tøstebrynnelva" />
		<tag k="ssr:stedsnr" v="692417" />
		<tag k="waterway" v="stream" />
	</node>
	<node id="-699839" lat="68.3105194424" lon="16.4679638914">
		<tag k="name" v="Vassdalsvatnet" />
		<tag k="natural" v="water" />
		<tag k="ssr:stedsnr" v="689941" />
	</node>
	<node id="-699834" lat="68.2461500037" lon="16.9066444356">
		<tag k="name" v="Skjellneset" />
		<tag k="natural" v="cape" />
		<tag k="ssr:stedsnr" v="689387" />
	</node>
	<node id="-699829" lat="68.3559638908" lon="17.0072888791">
		<tag k="name" v="Saltvatnet" />
		<tag k="natural" v="water" />
		<tag k="ssr:stedsnr" v="685929" />
	</node>
	<node id="-699823" lat="68.3036861082" lon="17.0566638926">
		<tag k="name" v="Kvitsteinneset" />
		<tag k="natural" v="cape" />
		<tag k="ssr:stedsnr" v="685862" />
	</node>
	<node id="-699822" lat="68.3061083366" lon="17.0594027806">
		<tag k="name" v="Støttingsneset" />
		<tag k="natural" v="cape" />
		<tag k="ssr:stedsnr" v="685859" />
	</node>
	<node id="-699821" lat="68.33549722" lon="16.8775583384">
		<tag k="alt_name" v="Kaldåga" />
		<tag k="name" v="Kaldåa" />
		<tag k="ssr:stedsnr" v="685854" />
		<tag k="waterway" v="stream" />
	</node>
	<node id="-699819" lat="68.2966305535" lon="17.0171888758">
		<tag k="fixme" v="multiple name tags, choose one and add the other to alt_name" />
		<tag k="name" v="Eilertelva;Iselva" />
		<tag k="ssr:stedsnr" v="685820" />
		<tag k="waterway" v="stream" />
	</node>
	<node id="-699818" lat="68.3041249997" lon="17.1172250043">
		<tag k="name" v="Eiterelva" />
		<tag k="ssr:stedsnr" v="685816" />
		<tag k="waterway" v="river" />
	</node>
	<node id="-699816" lat="68.2636194471" lon="17.0831500011">
		<tag k="name" v="Iselva" />
		<tag k="ssr:stedsnr" v="685767" />
		<tag k="waterway" v="river" />
	</node>
	<node id="-699815" lat="68.245458331" lon="17.027963884">
		<tag k="name" v="Storeggvatnet" />
		<tag k="natural" v="water" />
		<tag k="ssr:stedsnr" v="684746" />
	</node>
	<node id="-699812" lat="68.2307083304" lon="16.86117222">
		<tag k="alt_name" v="Sennvatnet, l" />
		<tag k="name" v="Litle Sennvatnet" />
		<tag k="natural" v="water" />
		<tag k="ssr:stedsnr" v="684735" />
	</node>
	<node id="-699806" lat="68.3511472208" lon="16.5353916699">
		<tag k="name" v="Stordalselva" />
		<tag k="ssr:stedsnr" v="684685" />
		<tag k="waterway" v="stream" />
	</node>
	<node id="-699804" lat="68.1872499967" lon="17.1764388911">
		<tag k="name" v="Kjelvatnet" />
		<tag k="natural" v="water" />
		<tag k="ssr:stedsnr" v="684673" />
		<tag k="water" v="lake" />
	</node>
	<node id="-699798" lat="68.1493416638" lon="16.7363472293">
		<tag k="name" v="Tauselva" />
		<tag k="ssr:stedsnr" v="684597" />
		<tag k="waterway" v="stream" />
	</node>
	<node id="-699796" lat="68.3011777786" lon="16.737455562">
		<tag k="name" v="Haugvika" />
		<tag k="natural" v="bay" />
		<tag k="ssr:stedsnr" v="684587" />
	</node>
	<node id="-699794" lat="68.1756333335" lon="16.8020638893">
		<tag k="name" v="Skårvasseidet" />
		<tag k="natural" v="strait" />
		<tag k="ssr:stedsnr" v="684584" />
	</node>
	<node id="-699775" lat="68.3218111151" lon="17.0557722188">
		<tag k="name" v="Nesodden" />
		<tag k="natural" v="cape" />
		<tag k="ssr:stedsnr" v="645923" />
	</node>
	<node id="-699773" lat="68.3283083358" lon="16.6092805451">
		<tag k="name" v="Kringlabekken" />
		<tag k="ssr:stedsnr" v="645714" />
		<tag k="waterway" v="stream" />
	</node>
	<node id="-699770" lat="68.2884944469" lon="16.6773472104">
		<tag k="name" v="Åselva" />
		<tag k="ssr:stedsnr" v="645627" />
		<tag k="waterway" v="river" />
	</node>
	<node id="-699766" lat="68.2467583296" lon="16.7217888867">
		<tag k="name" v="Tomashaugelva" />
		<tag k="ssr:stedsnr" v="645590" />
		<tag k="waterway" v="stream" />
	</node>
	<node id="-699763" lat="68.2365944455" lon="16.7304027737">
		<tag k="name" v="Teltholmen" />
		<tag k="place" v="islet" />
		<tag k="ssr:stedsnr" v="645494" />
	</node>
	<node id="-699741" lat="68.3531027738" lon="16.9503666744">
		<tag k="name" v="Osen" />
		<tag k="natural" v="bay" />
		<tag k="ssr:stedsnr" v="631340" />
	</node>
	<node id="-699740" lat="68.372930555" lon="16.8520166712">
		<tag k="name" v="Bjørnbåselva" />
		<tag k="ssr:stedsnr" v="631233" />
		<tag k="waterway" v="stream" />
	</node>
	<node id="-699730" lat="68.2462472252" lon="16.8871111155">
		<tag k="name" v="Garnelva" />
		<tag k="ssr:stedsnr" v="628367" />
		<tag k="waterway" v="river" />
	</node>
	<node id="-699721" lat="68.3376083334" lon="16.8955999935">
		<tag k="name" v="Krokelva" />
		<tag k="ssr:stedsnr" v="624894" />
		<tag k="waterway" v="stream" />
	</node>
	<node id="-699718" lat="68.3136333298" lon="17.0009249918">
		<tag k="name" v="Seljenesskreda" />
		<tag k="natural" v="cape" />
		<tag k="ssr:stedsnr" v="624856" />
	</node>
	<node id="-699713" lat="68.4095583327" lon="16.7440000008">
		<tag k="name" v="Gardselva" />
		<tag k="ssr:stedsnr" v="623763" />
		<tag k="waterway" v="stream" />
	</node>
	<node id="-699709" lat="68.3916805546" lon="16.6389638819">
		<tag k="name" v="Lysvatnet" />
		<tag k="natural" v="water" />
		<tag k="ssr:stedsnr" v="623749" />
	</node>
	<node id="-699705" lat="68.1764944435" lon="17.1091194523">
		<tag k="alt_name" v="Bukkevatnet, s" />
		<tag k="name" v="Søndre Bukkevatnet" />
		<tag k="natural" v="water" />
		<tag k="ssr:stedsnr" v="623710" />
		<tag k="water" v="lake" />
	</node>
	<node id="-699702" lat="68.3418250012" lon="16.3418860991">
		<tag k="name" v="Rødøyvatnet" />
		<tag k="natural" v="water" />
		<tag k="ssr:stedsnr" v="623690" />
	</node>
	<node id="-699693" lat="68.2985861151" lon="16.6220694512">
		<tag k="name" v="Dalelva" />
		<tag k="ssr:stedsnr" v="623633" />
		<tag k="waterway" v="stream" />
	</node>
	<node id="-699690" lat="68.3048083343" lon="16.7808138993">
		<tag k="name" v="Hestneset" />
		<tag k="natural" v="cape" />
		<tag k="ssr:stedsnr" v="623613" />
	</node>
	<node id="-699689" lat="68.2912138869" lon="16.7255972321">
		<tag k="name" v="Durmålselva" />
		<tag k="ssr:stedsnr" v="623611" />
		<tag k="waterway" v="stream" />
	</node>
	<node id="-699685" lat="68.3336083336" lon="16.0430749974">
		<tag k="name" v="Langosen" />
		<tag k="natural" v="bay" />
		<tag k="ssr:stedsnr" v="623376" />
	</node>
	<node id="-699677" lat="68.36829167" lon="16.6607638927">
		<tag k="name" v="Småvatnan" />
		<tag k="natural" v="water" />
		<tag k="ssr:stedsnr" v="585697" />
		<tag k="water" v="lake" />
	</node>
	<node id="-699676" lat="68.37934167" lon="16.6647583445">
		<tag k="name" v="Storjordvatnet" />
		<tag k="natural" v="water" />
		<tag k="ssr:stedsnr" v="585684" />
	</node>
	<node id="-699675" lat="68.2931027742" lon="16.6738555598">
		<tag k="name" v="Storholmen" />
		<tag k="place" v="islet" />
		<tag k="ssr:stedsnr" v="585625" />
	</node>
	<node id="-699671" lat="68.2493138903" lon="16.7264055526">
		<tag k="name" v="Vedneset" />
		<tag k="natural" v="cape" />
		<tag k="ssr:stedsnr" v="585587" />
	</node>
	<node id="-699670" lat="68.3110055581" lon="16.7478860996">
		<tag k="name" v="Skanshaugvika" />
		<tag k="natural" v="bay" />
		<tag k="ssr:stedsnr" v="585554" />
	</node>
	<node id="-699658" lat="68.2414722265" lon="16.7598611143">
		<tag k="loc_name" v="Sagelva" />
		<tag k="name" v="Storelva" />
		<tag k="ssr:stedsnr" v="573763" />
		<tag k="waterway" v="stream" />
	</node>
	<node id="-699651" lat="68.3545361147" lon="16.7892500048">
		<tag k="name" v="Kvantoelva" />
		<tag k="ssr:stedsnr" v="571448" />
		<tag k="waterway" v="stream" />
	</node>
	<node id="-699644" lat="68.3692333343" lon="16.8945222292">
		<tag k="name" v="Husvatnet" />
		<tag k="natural" v="water" />
		<tag k="ssr:stedsnr" v="571248" />
	</node>
	<node id="-699641" lat="68.2985083368" lon="16.6593638835">
		<tag k="name" v="Svanholmen" />
		<tag k="place" v="islet" />
		<tag k="ssr:stedsnr" v="571160" />
	</node>
	<node id="-699637" lat="68.3689805525" lon="16.6376833345">
		<tag k="name" v="Holmvasselva" />
		<tag k="ssr:stedsnr" v="570124" />
		<tag k="waterway" v="river" />
	</node>
	<node id="-699635" lat="68.2361777739" lon="16.5870888844">
		<tag k="name" v="Heimelva" />
		<tag k="ssr:stedsnr" v="567980" />
		<tag k="waterway" v="stream" />
	</node>
	<node id="-699621" lat="68.3684694405" lon="16.821116658">
		<tag k="name" v="Slettbakkelva" />
		<tag k="ssr:stedsnr" v="563934" />
		<tag k="waterway" v="stream" />
	</node>
	<node id="-699618" lat="68.2807611121" lon="17.0404500025">
		<tag k="name" v="Vidnesodden" />
		<tag k="natural" v="cape" />
		<tag k="ssr:stedsnr" v="563848" />
	</node>
	<node id="-699612" lat="68.3486249994" lon="16.5938583251">
		<tag k="name" v="Kvitforsen" />
		<tag k="natural" v="waterfall" />
		<tag k="ssr:stedsnr" v="563708" />
	</node>
	<node id="-699608" lat="68.3413166635" lon="16.384424997">
		<tag k="name" v="Kobbvikelva" />
		<tag k="ssr:stedsnr" v="563679" />
		<tag k="waterway" v="stream" />
	</node>
	<node id="-699602" lat="68.33159444" lon="16.4125750003">
		<tag k="name" v="Laksvatnet" />
		<tag k="natural" v="water" />
		<tag k="ssr:stedsnr" v="563654" />
	</node>
	<node id="-699600" lat="68.3199861097" lon="16.6391333197">
		<tag k="name" v="Storelva" />
		<tag k="ssr:stedsnr" v="563625" />
		<tag k="waterway" v="stream" />
	</node>
	<node id="-699597" lat="68.3112500001" lon="16.8010249949">
		<tag k="name" v="Storvikelva" />
		<tag k="ssr:stedsnr" v="563618" />
		<tag k="waterway" v="stream" />
	</node>
	<node id="-699591" lat="68.2812500025" lon="17.0103166676">
		<tag k="name" v="Skjellelva" />
		<tag k="ssr:stedsnr" v="563440" />
		<tag k="waterway" v="stream" />
	</node>
	<node id="-699590" lat="68.2995277799" lon="16.7488472238">
		<tag k="alt_name" v="Langnes" />
		<tag k="name" v="Langneset" />
		<tag k="natural" v="cape" />
		<tag k="ssr:stedsnr" v="563431" />
	</node>
	<node id="-699588" lat="68.3994750008" lon="16.6068999985">
		<tag k="name" v="Kjeldelva - Gáldojohka" />
		<tag k="name:no" v="Kjeldelva" />
		<tag k="name:se" v="Gáldojohka" />
		<tag k="ssr:stedsnr" v="562725" />
		<tag k="waterway" v="river" />
	</node>
	<node id="-699587" lat="68.4053222191" lon="16.581213896">
		<tag k="name" v="Sivertvatnet" />
		<tag k="natural" v="water" />
		<tag k="ssr:stedsnr" v="562716" />
	</node>
	<node id="-699586" lat="68.3951194477" lon="16.7569083335">
		<tag k="fixme" v="multiple name tags, choose one and add the other to alt_name" />
		<tag k="name" v="Kjerringelva;Kjerringvikelva" />
		<tag k="ssr:stedsnr" v="562702" />
		<tag k="waterway" v="stream" />
	</node>
	<node id="-699584" lat="68.3713194484" lon="16.6238027885">
		<tag k="name" v="Okselva" />
		<tag k="ssr:stedsnr" v="562694" />
		<tag k="waterway" v="stream" />
	</node>
	<node id="-699580" lat="68.2867694423" lon="16.6431555454">
		<tag k="alt_name" v="Skjelnes" />
		<tag k="name" v="Skjellnes" />
		<tag k="natural" v="cape" />
		<tag k="ssr:stedsnr" v="562576" />
	</node>
	<node id="-699578" lat="68.2754138861" lon="16.4270305658">
		<tag k="name" v="Sørelva" />
		<tag k="ssr:stedsnr" v="562571" />
		<tag k="waterway" v="stream" />
	</node>
	<node id="-699557" lat="68.3013000037" lon="16.7899805511">
		<tag k="name" v="Gammel-hestnes" />
		<tag k="natural" v="cape" />
		<tag k="ssr:stedsnr" v="524536" />
	</node>
	<node id="-699550" lat="68.2375499958" lon="16.7657750078">
		<tag k="name" v="Lillevatnet" />
		<tag k="natural" v="water" />
		<tag k="ssr:stedsnr" v="513778" />
	</node>
	<node id="-699537" lat="68.3505194424" lon="16.9492416712">
		<tag k="name" v="Lundelva" />
		<tag k="ssr:stedsnr" v="510358" />
		<tag k="waterway" v="stream" />
	</node>
	<node id="-699535" lat="68.370994441" lon="16.8876888878">
		<tag k="name" v="Storelva" />
		<tag k="ssr:stedsnr" v="510306" />
		<tag k="waterway" v="stream" />
	</node>
	<node id="-699534" lat="68.4017638892" lon="16.7304944511">
		<tag k="name" v="Olmostjønna" />
		<tag k="natural" v="water" />
		<tag k="ssr:stedsnr" v="510264" />
	</node>
	<node id="-699532" lat="68.3931055513" lon="16.7139666666">
		<tag k="name" v="Furuhaugfossen" />
		<tag k="natural" v="waterfall" />
		<tag k="ssr:stedsnr" v="510213" />
	</node>
	<node id="-699529" lat="68.3733361121" lon="16.648597228">
		<tag k="name" v="Langvatnet" />
		<tag k="natural" v="water" />
		<tag k="ssr:stedsnr" v="510141" />
		<tag k="water" v="lake" />
	</node>
	<node id="-699525" lat="68.2564055545" lon="16.5611388782">
		<tag k="name" v="Sandholmelva" />
		<tag k="ssr:stedsnr" v="507951" />
		<tag k="waterway" v="river" />
	</node>
	<node id="-699519" lat="68.3361805524" lon="16.3741750052">
		<tag k="name" v="Ørnskarvatnet" />
		<tag k="natural" v="water" />
		<tag k="ssr:stedsnr" v="507529" />
	</node>
	<node id="-699510" lat="68.2726944457" lon="16.8426944557">
		<tag k="name" v="Måsskjæran" />
		<tag k="place" v="islet" />
		<tag k="ssr:stedsnr" v="503753" />
	</node>
	<node id="-699508" lat="68.3301194431" lon="16.83616112">
		<tag k="name" v="Stria" />
		<tag k="ssr:stedsnr" v="503437" />
		<tag k="waterway" v="stream" />
	</node>
	<node id="-699502" lat="68.3773027772" lon="16.3485277776">
		<tag k="name" v="Lyngvikvatnet" />
		<tag k="natural" v="water" />
		<tag k="ssr:stedsnr" v="502711" />
	</node>
	<node id="-699498" lat="68.349080557" lon="16.5925333232">
		<tag k="name" v="Kvitforselva" />
		<tag k="ssr:stedsnr" v="502688" />
		<tag k="waterway" v="stream" />
	</node>
	<node id="-699497" lat="68.3429861137" lon="16.5405416587">
		<tag k="name" v="Jernelva" />
		<tag k="ssr:stedsnr" v="502686" />
		<tag k="waterway" v="stream" />
	</node>
	<node id="-699481" lat="68.1566694449" lon="16.7143194508">
		<tag k="alt_name" v="Koppelva" />
		<tag k="name" v="Koppvasselva" />
		<tag k="ssr:stedsnr" v="502616" />
		<tag k="waterway" v="stream" />
	</node>
	<node id="-699477" lat="68.2907333371" lon="16.392333327">
		<tag k="name" v="Rundvatnet" />
		<tag k="natural" v="water" />
		<tag k="ssr:stedsnr" v="502598" />
	</node>
	<node id="-699470" lat="68.2625666657" lon="16.6912722136">
		<tag k="name" v="Storskarelva" />
		<tag k="ssr:stedsnr" v="502541" />
		<tag k="waterway" v="stream" />
	</node>
	<node id="-699469" lat="68.2250583314" lon="16.7213138901">
		<tag k="name" v="Melkevasseidet" />
		<tag k="natural" v="strait" />
		<tag k="ssr:stedsnr" v="502498" />
	</node>
	<node id="-699468" lat="68.2383305563" lon="16.7377388942">
		<tag k="name" v="Sjurvatnet" />
		<tag k="natural" v="water" />
		<tag k="ssr:stedsnr" v="502496" />
		<tag k="water" v="lake" />
	</node>
	<node id="-699467" lat="68.377894442" lon="16.8638861047">
		<tag k="name" v="Bøelva" />
		<tag k="ssr:stedsnr" v="502459" />
		<tag k="waterway" v="river" />
	</node>
	<node id="-699456" lat="68.3347083378" lon="16.5751638828">
		<tag k="name" v="Haloš" />
		<tag k="name:se" v="Haloš" />
		<tag k="natural" v="strait" />
		<tag k="ssr:stedsnr" v="485056" />
	</node>
	<node id="-699452" lat="68.2759805539" lon="16.7061166582">
		<tag k="name" v="Sommarsetlandet" />
		<tag k="natural" v="cape" />
		<tag k="ssr:stedsnr" v="464664" />
	</node>
	<node id="-699438" lat="68.3865888866" lon="16.8946194377">
		<tag k="alt_name" v="Jektnes" />
		<tag k="name" v="Jektneset" />
		<tag k="natural" v="cape" />
		<tag k="ssr:stedsnr" v="451433" />
	</node>
	<node id="-699418" lat="68.3043055558" lon="16.7157611099">
		<tag k="name" v="Djupvika" />
		<tag k="natural" v="bay" />
		<tag k="ssr:stedsnr" v="449162" />
	</node>
	<node id="-699415" lat="68.2711027764" lon="16.5271027824">
		<tag k="name" v="Henrikelva" />
		<tag k="ssr:stedsnr" v="446961" />
		<tag k="waterway" v="stream" />
	</node>
	<node id="-699413" lat="68.36358056" lon="16.4569527756">
		<tag k="name" v="Kufjellvatnet" />
		<tag k="natural" v="water" />
		<tag k="ssr:stedsnr" v="446950" />
	</node>
	<node id="-699412" lat="68.3855138929" lon="16.4541749894">
		<tag k="name" v="Kvanntokollvatnet" />
		<tag k="natural" v="water" />
		<tag k="ssr:stedsnr" v="446944" />
	</node>
	<node id="-699407" lat="68.2723194463" lon="17.0497638843">
		<tag k="name" v="Stubbelva" />
		<tag k="ssr:stedsnr" v="446409" />
		<tag k="waterway" v="stream" />
	</node>
	<node id="-699403" lat="68.3212555521" lon="16.9414666667">
		<tag k="name" v="Småvatnan" />
		<tag k="natural" v="water" />
		<tag k="ssr:stedsnr" v="443820" />
	</node>
	<node id="-699397" lat="68.2585777804" lon="17.0281111165">
		<tag k="name" v="Kakforsen" />
		<tag k="natural" v="waterfall" />
		<tag k="ssr:stedsnr" v="442811" />
	</node>
	<node id="-699396" lat="68.2638972247" lon="17.0215138878">
		<tag k="name" v="Småelven" />
		<tag k="ssr:stedsnr" v="442812" />
		<tag k="waterway" v="stream" />
	</node>
	<node id="-699394" lat="68.3800972236" lon="16.7436861063">
		<tag k="name" v="Nilsheimforsen" />
		<tag k="natural" v="waterfall" />
		<tag k="ssr:stedsnr" v="442768" />
	</node>
	<node id="-699388" lat="68.375372221" lon="16.751958341">
		<tag k="name" v="Nilsheimelva" />
		<tag k="ssr:stedsnr" v="442732" />
		<tag k="waterway" v="stream" />
	</node>
	<node id="-699387" lat="68.3713083322" lon="16.6543694536">
		<tag k="name" v="Holmvatnet" />
		<tag k="natural" v="water" />
		<tag k="ssr:stedsnr" v="442730" />
		<tag k="water" v="lake" />
	</node>
	<node id="-699379" lat="68.3285166704" lon="16.5741749889">
		<tag k="name" v="Dalvatnet" />
		<tag k="natural" v="water" />
		<tag k="ssr:stedsnr" v="442658" />
	</node>
	<node id="-699375" lat="68.3075222231" lon="16.5093805458">
		<tag k="name" v="Kjerringvikelva" />
		<tag k="ssr:stedsnr" v="442627" />
		<tag k="waterway" v="stream" />
	</node>
	<node id="-699372" lat="68.3024333301" lon="16.5200861088">
		<tag k="name" v="Litleelva" />
		<tag k="ssr:stedsnr" v="442620" />
		<tag k="waterway" v="stream" />
	</node>
	<node id="-699368" lat="68.298894445" lon="16.7597805518">
		<tag k="name" v="Klubben" />
		<tag k="place" v="islet" />
		<tag k="ssr:stedsnr" v="442612" />
	</node>
	<node id="-699367" lat="68.2935786288" lon="16.6946443647">
		<tag k="name" v="Knutvatnet" />
		<tag k="natural" v="water" />
		<tag k="ssr:stedsnr" v="442588" />
	</node>
	<node id="-699363" lat="68.2678527805" lon="16.7356749991">
		<tag k="name" v="Botnelva" />
		<tag k="ssr:stedsnr" v="442446" />
		<tag k="waterway" v="stream" />
	</node>
	<node id="-699360" lat="68.0968416632" lon="17.2286833403">
		<tag k="name" v="Sijdasjávrre" />
		<tag k="name:smj" v="Sijdasjávrre" />
		<tag k="natural" v="water" />
		<tag k="old_name:smj" v="Siidasjávri;Siiddasjávri" />
		<tag k="ssr:stedsnr" v="441718" />
	</node>
	<node id="-699359" lat="68.1970861139" lon="17.1058416564">
		<tag k="alt_name" v="Bukkevatnet, nordre" />
		<tag k="name" v="Nordre Bukkevatnet" />
		<tag k="natural" v="water" />
		<tag k="ssr:stedsnr" v="441710" />
		<tag k="water" v="lake" />
	</node>
	<node id="-699358" lat="68.2871083349" lon="16.7962055598">
		<tag k="name" v="Tømmervika" />
		<tag k="natural" v="bay" />
		<tag k="ssr:stedsnr" v="441599" />
	</node>
	<node id="-699357" lat="68.2929916698" lon="16.7985722215">
		<tag k="name" v="Sjuriholmen" />
		<tag k="place" v="islet" />
		<tag k="ssr:stedsnr" v="441596" />
	</node>
	<node id="-699355" lat="68.2728444403" lon="16.6296583314">
		<tag k="name" v="Forsaforsen" />
		<tag k="natural" v="waterfall" />
		<tag k="ssr:stedsnr" v="441569" />
	</node>
	<node id="-699346" lat="68.4013333377" lon="16.7628611042">
		<tag k="name" v="Stabburselva" />
		<tag k="ssr:stedsnr" v="268279" />
		<tag k="waterway" v="river" />
	</node>
	<node id="-699344" lat="68.365430554" lon="16.8854111006">
		<tag k="name" v="Husvatnet" />
		<tag k="natural" v="water" />
		<tag k="ssr:stedsnr" v="268256" />
	</node>
	<node id="-699336" lat="68.2706472231" lon="16.834072222">
		<tag k="name" v="Bjørnvika" />
		<tag k="natural" v="bay" />
		<tag k="ssr:stedsnr" v="264968" />
	</node>
	<node id="-699321" lat="68.3582527779" lon="17.0440694338">
		<tag k="name" v="Rånbogelva" />
		<tag k="ssr:stedsnr" v="260958" />
		<tag k="waterway" v="stream" />
	</node>
	<node id="-699318" lat="68.3420416667" lon="16.9317444355">
		<tag k="name" v="Arneselva" />
		<tag k="ssr:stedsnr" v="260942" />
		<tag k="waterway" v="stream" />
	</node>
	<node id="-699312" lat="68.2244750011" lon="17.0958138827">
		<tag k="name" v="Isvatnet" />
		<tag k="natural" v="water" />
		<tag k="ssr:stedsnr" v="260781" />
		<tag k="water" v="lake" />
	</node>
	<node id="-699310" lat="68.3801027748" lon="16.3473555511">
		<tag k="name" v="Lomtjønna" />
		<tag k="natural" v="water" />
		<tag k="ssr:stedsnr" v="260769" />
	</node>
	<node id="-699303" lat="68.3347027752" lon="16.7365916695">
		<tag k="name" v="Nøkkelelva" />
		<tag k="ssr:stedsnr" v="260690" />
		<tag k="waterway" v="stream" />
	</node>
	<node id="-699298" lat="68.2621805556" lon="16.8705888792">
		<tag k="name" v="Børsvatnet - Bođatjávri" />
		<tag k="name:no" v="Børsvatnet" />
		<tag k="name:se" v="Bođatjávri" />
		<tag k="natural" v="water" />
		<tag k="old_name:se" v="Bådatjavri" />
		<tag k="ssr:stedsnr" v="260639" />
		<tag k="water" v="lake" />
	</node>
	<node id="-699297" lat="68.2982499994" lon="16.5928833252">
		<tag k="alt_name" v="Gullikvatnet" />
		<tag k="name" v="Gulliklivatnet" />
		<tag k="natural" v="water" />
		<tag k="ssr:stedsnr" v="260634" />
	</node>
	<node id="-699296" lat="68.3139305515" lon="16.602580562">
		<tag k="name" v="Skogelva" />
		<tag k="ssr:stedsnr" v="260635" />
		<tag k="waterway" v="stream" />
	</node>
	<node id="-699292" lat="68.3953388931" lon="16.7100916602">
		<tag k="fixme" v="multiple name tags, choose one and add the other to alt_name" />
		<tag k="name" v="Skarnesdalelva;Skårneselva" />
		<tag k="ssr:stedsnr" v="259747" />
		<tag k="waterway" v="river" />
	</node>
	<node id="-699290" lat="68.1580305564" lon="17.1743249896">
		<tag k="name" v="Snøvatnet" />
		<tag k="natural" v="water" />
		<tag k="ssr:stedsnr" v="259703" />
		<tag k="water" v="lake" />
	</node>
	<node id="-699289" lat="68.1160583364" lon="17.2145694387">
		<tag k="name" v="Forsvatnet" />
		<tag k="natural" v="water" />
		<tag k="ssr:stedsnr" v="259694" />
		<tag k="water" v="lake" />
	</node>
	<node id="-699288" lat="68.1879083306" lon="16.8701694535">
		<tag k="name" v="Skårvatnet" />
		<tag k="natural" v="water" />
		<tag k="ssr:stedsnr" v="259679" />
		<tag k="water" v="lake" />
	</node>
	<node id="-699281" lat="68.2089777806" lon="16.7670972208">
		<tag k="name" v="Melkevatnet" />
		<tag k="natural" v="water" />
		<tag k="ssr:stedsnr" v="259503" />
		<tag k="water" v="lake" />
	</node>
	<node id="-699234" lat="68.2610805582" lon="17.0205305442">
		<tag k="name" v="Savløypsranbekken" />
		<tag k="ssr:stedsnr" v="204346" />
		<tag k="waterway" v="stream" />
	</node>
	<node id="-699233" lat="68.2880694405" lon="17.0501500066">
		<tag k="name" v="Slåttbakkelva" />
		<tag k="ssr:stedsnr" v="204342" />
		<tag k="waterway" v="stream" />
	</node>
	<node id="-699228" lat="68.3383583288" lon="16.9243666741">
		<tag k="name" v="Tverrvegelva" />
		<tag k="ssr:stedsnr" v="200893" />
		<tag k="waterway" v="stream" />
	</node>
	<node id="-699219" lat="68.2224055576" lon="16.8690333406">
		<tag k="name" v="Sennvatnet" />
		<tag k="natural" v="water" />
		<tag k="ssr:stedsnr" v="199759" />
	</node>
	<node id="-699217" lat="68.396725003" lon="16.7868861018">
		<tag k="name" v="Silsandelva" />
		<tag k="ssr:stedsnr" v="199738" />
		<tag k="waterway" v="stream" />
	</node>
	<node id="-699215" lat="68.3718611103" lon="16.801908329">
		<tag k="alt_name" v="Lillevatnet" />
		<tag k="name" v="Litlevatnet" />
		<tag k="natural" v="water" />
		<tag k="ssr:stedsnr" v="199733" />
	</node>
	<node id="-699212" lat="68.1312722262" lon="17.0503888945">
		<tag k="name" v="Langvatnet - Guovddelisjávrre" />
		<tag k="name:no" v="Langvatnet" />
		<tag k="name:se" v="Guovddelisjávrre" />
		<tag k="natural" v="water" />
		<tag k="old_name:se" v="Guovdelasjávri;Guovddelasjávrre" />
		<tag k="ssr:stedsnr" v="199722" />
		<tag k="water" v="lake" />
	</node>
	<node id="-699211" lat="68.3551805575" lon="16.7339889003">
		<tag k="name" v="Langvatnet" />
		<tag k="natural" v="water" />
		<tag k="ssr:stedsnr" v="199719" />
	</node>
	<node id="-699209" lat="68.3543055559" lon="16.5355388946">
		<tag k="alt_name" v="Kobbedalselva" />
		<tag k="name" v="Kobbdalselva" />
		<tag k="ssr:stedsnr" v="199709" />
		<tag k="waterway" v="stream" />
	</node>
	<node id="-699195" lat="68.3190000006" lon="16.6849166608">
		<tag k="name" v="Tverråselva" />
		<tag k="ssr:stedsnr" v="199643" />
		<tag k="waterway" v="stream" />
	</node>
	<node id="-699192" lat="68.2825916641" lon="16.3981416603">
		<tag k="fixme" v="multiple name tags, choose one and add the other to alt_name" />
		<tag k="name" v="Leirpollvatnet;Storvatnet" />
		<tag k="natural" v="water" />
		<tag k="ssr:stedsnr" v="198584" />
		<tag k="water" v="lake" />
	</node>
	<node id="-699191" lat="68.2786194434" lon="16.7114500087">
		<tag k="name" v="Grunnvatnet" />
		<tag k="natural" v="water" />
		<tag k="ssr:stedsnr" v="198572" />
		<tag k="water" v="lake" />
	</node>
	<node id="-699181" lat="68.2671805517" lon="16.6965027776">
		<tag k="name" v="Ruonkaelva" />
		<tag k="ssr:stedsnr" v="160662" />
		<tag k="waterway" v="stream" />
	</node>
	<node id="-699180" lat="68.2926611094" lon="16.6671110983">
		<tag k="name" v="Søndagsneset" />
		<tag k="natural" v="cape" />
		<tag k="ssr:stedsnr" v="160631" />
	</node>
	<node id="-699176" lat="68.2870638864" lon="16.7119611135">
		<tag k="name" v="Rundvatnet" />
		<tag k="natural" v="bay" />
		<tag k="ssr:stedsnr" v="160608" />
	</node>
	<node id="-699170" lat="68.3102611071" lon="16.277316672">
		<tag k="name" v="Inståa" />
		<tag k="natural" v="bay" />
		<tag k="ssr:stedsnr" v="160220" />
	</node>
	<node id="-699164" lat="68.3310249962" lon="16.8239500022">
		<tag k="name" v="Kiselva" />
		<tag k="ssr:stedsnr" v="146428" />
		<tag k="waterway" v="river" />
	</node>
	<node id="-699163" lat="68.3504722233" lon="16.8248861033">
		<tag k="name" v="Langblåelva" />
		<tag k="ssr:stedsnr" v="146404" />
		<tag k="waterway" v="river" />
	</node>
	<node id="-699162" lat="68.3378944463" lon="17.018294448">
		<tag k="name" v="Lassheimelva" />
		<tag k="ssr:stedsnr" v="146355" />
		<tag k="waterway" v="stream" />
	</node>
	<node id="-699143" lat="68.2052722203" lon="16.5943166536">
		<tag k="name" v="Forrhaugelva" />
		<tag k="ssr:stedsnr" v="142493" />
		<tag k="waterway" v="river" />
	</node>
	<node id="-699142" lat="68.353858333" lon="16.985174992">
		<tag k="name" v="Storelva" />
		<tag k="ssr:stedsnr" v="139880" />
		<tag k="waterway" v="stream" />
	</node>
	<node id="-699141" lat="68.3488194422" lon="17.0073333329">
		<tag k="name" v="Eidet" />
		<tag k="natural" v="strait" />
		<tag k="ssr:stedsnr" v="139879" />
	</node>
	<node id="-699140" lat="68.2551027793" lon="16.9894749953">
		<tag k="name" v="Botneidvatnan" />
		<tag k="natural" v="water" />
		<tag k="ssr:stedsnr" v="139787" />
	</node>
	<node id="-699138" lat="68.2592444413" lon="17.197502763">
		<tag k="name" v="Čáhppesjávri" />
		<tag k="name:se" v="Čáhppesjávri" />
		<tag k="natural" v="water" />
		<tag k="old_name:se" v="Čappesjavri" />
		<tag k="ssr:stedsnr" v="139756" />
	</node>
	<node id="-699131" lat="68.2715833337" lon="16.8443472257">
		<tag k="name" v="Havellholmen" />
		<tag k="place" v="islet" />
		<tag k="ssr:stedsnr" v="138804" />
	</node>
	<node id="-699130" lat="68.2706916658" lon="16.8474750006">
		<tag k="name" v="Middagsneset" />
		<tag k="natural" v="cape" />
		<tag k="ssr:stedsnr" v="138805" />
	</node>
	<node id="-699121" lat="68.1468111072" lon="16.822905563">
		<tag k="name" v="Sørbotnelva" />
		<tag k="ssr:stedsnr" v="138733" />
		<tag k="waterway" v="stream" />
	</node>
	<node id="-699118" lat="68.3197750027" lon="16.7031305468">
		<tag k="alt_name" v="Holbekken" />
		<tag k="name" v="Hulbekken" />
		<tag k="ssr:stedsnr" v="138647" />
		<tag k="waterway" v="stream" />
	</node>
	<node id="-699117" lat="68.1477444458" lon="16.7974388841">
		<tag k="name" v="Saltelva" />
		<tag k="ssr:stedsnr" v="138630" />
		<tag k="waterway" v="stream" />
	</node>
	<node id="-699115" lat="68.3013111146" lon="16.5380333298">
		<tag k="name" v="Gjertrudholelva" />
		<tag k="ssr:stedsnr" v="138615" />
		<tag k="waterway" v="stream" />
	</node>
	<node id="-699112" lat="68.2966222212" lon="16.7717250071">
		<tag k="name" v="Skogneset" />
		<tag k="natural" v="cape" />
		<tag k="ssr:stedsnr" v="138599" />
	</node>
	<node id="-699109" lat="68.2559916663" lon="16.749341662">
		<tag k="name" v="Lomvatnet" />
		<tag k="natural" v="water" />
		<tag k="ssr:stedsnr" v="138549" />
	</node>
	<node id="-699103" lat="68.3193805598" lon="16.203252784">
		<tag k="name" v="Osen" />
		<tag k="natural" v="bay" />
		<tag k="ssr:stedsnr" v="138383" />
	</node>
	<node id="-699096" lat="68.2382388875" lon="16.5597916638">
		<tag k="name" v="Storelva" />
		<tag k="ssr:stedsnr" v="137489" />
		<tag k="waterway" v="stream" />
	</node>
	<node id="-699079" lat="68.3127611122" lon="16.7846222326">
		<tag k="name" v="Storvika" />
		<tag k="natural" v="bay" />
		<tag k="ssr:stedsnr" v="100572" />
	</node>
	<node id="-699073" lat="68.3747583372" lon="16.5606666552">
		<tag k="name" v="Skredelva" />
		<tag k="ssr:stedsnr" v="100302" />
		<tag k="waterway" v="stream" />
	</node>
	<node id="-699063" lat="68.3507805544" lon="16.9531722174">
		<tag k="name" v="Åkerneselva" />
		<tag k="ssr:stedsnr" v="86387" />
		<tag k="waterway" v="stream" />
	</node>
	<node id="-699046" lat="68.3583000042" lon="16.6366833391">
		<tag k="name" v="Ottarvatnet" />
		<tag k="natural" v="water" />
		<tag k="ssr:stedsnr" v="85120" />
		<tag k="water" v="lake" />
	</node>
	<node id="-699045" lat="68.3246611126" lon="16.6812916742">
		<tag k="name" v="Mellomelva" />
		<tag k="ssr:stedsnr" v="85114" />
		<tag k="waterway" v="river" />
	</node>
	<node id="-699044" lat="68.3223388925" lon="16.6739166752">
		<tag k="name" v="Pippirabekken" />
		<tag k="ssr:stedsnr" v="85096" />
		<tag k="waterway" v="stream" />
	</node>
	<node id="-699037" lat="68.359455554" lon="16.3778249881">
		<tag k="name" v="Skarstaddalvatnet" />
		<tag k="natural" v="water" />
		<tag k="ssr:stedsnr" v="82540" />
	</node>
	<node id="-699035" lat="68.2456333308" lon="16.9418749936">
		<tag k="name" v="Børsvassbotn" />
		<tag k="natural" v="bay" />
		<tag k="ssr:stedsnr" v="82385" />
	</node>
	<node id="-699034" lat="68.3123611096" lon="17.0244944524">
		<tag k="name" v="Seljeneset" />
		<tag k="natural" v="cape" />
		<tag k="ssr:stedsnr" v="82378" />
	</node>
	<node id="-699032" lat="68.375672227" lon="16.8401333264">
		<tag k="name" v="Lomvatnet" />
		<tag k="natural" v="water" />
		<tag k="ssr:stedsnr" v="79951" />
	</node>
	<node id="-699029" lat="68.3420027759" lon="17.0175416766">
		<tag k="alt_name:no" v="Kringlevatnet" />
		<tag k="name" v="Kringelvatnet - Riŋggaljávri" />
		<tag k="name:no" v="Kringelvatnet" />
		<tag k="name:se" v="Riŋggaljávri" />
		<tag k="natural" v="water" />
		<tag k="old_name:se" v="Riŋgaljavri" />
		<tag k="ssr:stedsnr" v="79888" />
		<tag k="water" v="lake" />
	</node>
	<node id="-699028" lat="68.338366667" lon="17.0338555481">
		<tag k="name" v="Oldervika" />
		<tag k="natural" v="bay" />
		<tag k="ssr:stedsnr" v="79885" />
	</node>
	<node id="-699026" lat="68.3095749975" lon="17.0438999907">
		<tag k="loc_name:se" v="Ráhajávrre" />
		<tag k="name" v="Storvatnet - Ránujávri" />
		<tag k="name:no" v="Storvatnet" />
		<tag k="name:se" v="Ránujávri" />
		<tag k="natural" v="water" />
		<tag k="old_name:se" v="Ranojavri" />
		<tag k="ssr:stedsnr" v="79854" />
		<tag k="water" v="lake" />
	</node>
	<node id="-699018" lat="68.2832805516" lon="16.8187833384">
		<tag k="name" v="Forruskholman" />
		<tag k="place" v="islet" />
		<tag k="ssr:stedsnr" v="78864" />
	</node>
	<node id="-699012" lat="68.388127782" lon="16.51396388">
		<tag k="fixme" v="multiple name tags, choose one and add the other to alt_name" />
		<tag k="name" v="Botnelva;Vargfjordelva" />
		<tag k="ssr:stedsnr" v="78725" />
		<tag k="waterway" v="river" />
	</node>
	<node id="-699010" lat="68.3431638904" lon="16.3714222249">
		<tag k="name" v="Svanvatnet" />
		<tag k="natural" v="water" />
		<tag k="ssr:stedsnr" v="78685" />
	</node>
	<node id="-699008" lat="68.3403555585" lon="16.3108361061">
		<tag k="name" v="Lomtjønnan" />
		<tag k="natural" v="water" />
		<tag k="ssr:stedsnr" v="78682" />
		<tag k="water" v="lake" />
	</node>
	<node id="-699006" lat="68.3333388876" lon="16.4333416611">
		<tag k="name" v="Langvågelva" />
		<tag k="ssr:stedsnr" v="78656" />
		<tag k="waterway" v="stream" />
	</node>
	<node id="-699004" lat="68.3142555553" lon="16.77651667">
		<tag k="name" v="Lendinga" />
		<tag k="natural" v="cape" />
		<tag k="ssr:stedsnr" v="78623" />
	</node>
	<node id="-699001" lat="68.1713333303" lon="16.6955249876">
		<tag k="name" v="Fjellelva" />
		<tag k="ssr:stedsnr" v="78584" />
		<tag k="waterway" v="stream" />
	</node>
	<node id="-698998" lat="68.2598972248" lon="16.8924027663">
		<tag k="name" v="Langneset" />
		<tag k="natural" v="cape" />
		<tag k="ssr:stedsnr" v="78449" />
	</node>
	<node id="-698997" lat="68.2871888855" lon="16.8062249947">
		<tag k="name" v="Forrneset" />
		<tag k="natural" v="cape" />
		<tag k="ssr:stedsnr" v="78444" />
	</node>
	<node id="-698983" lat="68.345527774" lon="16.0545916664">
		<tag k="alt_name" v="Løngosen" />
		<tag k="name" v="Lyngosen" />
		<tag k="natural" v="bay" />
		<tag k="ssr:stedsnr" v="77327" />
	</node>
	<node id="-698973" lat="68.3095444455" lon="16.6419111124">
		<tag k="name" v="Kjorlsjokka" />
		<tag k="ssr:stedsnr" v="39653" />
		<tag k="waterway" v="stream" />
	</node>
	<node id="-698967" lat="68.2755916709" lon="16.7238388858">
		<tag k="name" v="Moelva" />
		<tag k="ssr:stedsnr" v="39596" />
		<tag k="waterway" v="stream" />
	</node>
	<node id="-698965" lat="68.3698027782" lon="16.555027786">
		<tag k="name" v="Snøgropelva" />
		<tag k="ssr:stedsnr" v="39569" />
		<tag k="waterway" v="stream" />
	</node>
	<node id="-698945" lat="68.4068861145" lon="16.7636583432">
		<tag k="name" v="Bekkelva" />
		<tag k="ssr:stedsnr" v="25286" />
		<tag k="waterway" v="river" />
	</node>
	<node id="-698943" lat="68.3677611147" lon="16.8816194325">
		<tag k="name" v="Saltvassodden" />
		<tag k="natural" v="cape" />
		<tag k="ssr:stedsnr" v="25279" />
	</node>
	<node id="-698941" lat="68.386952779" lon="16.8199916559">
		<tag k="name" v="Annervatnet" />
		<tag k="natural" v="water" />
		<tag k="ssr:stedsnr" v="25253" />
	</node>
	<node id="-698938" lat="68.2958027765" lon="16.6689361094">
		<tag k="name" v="Lilleholmen" />
		<tag k="place" v="islet" />
		<tag k="ssr:stedsnr" v="25157" />
	</node>
	<node id="-698937" lat="68.315749999" lon="16.6736388825">
		<tag k="name" v="Kvannhollbekken" />
		<tag k="ssr:stedsnr" v="25125" />
		<tag k="waterway" v="stream" />
	</node>
	<node id="-698930" lat="68.3577055511" lon="16.3012777845">
		<tag k="name" v="Lomtjønnan" />
		<tag k="natural" v="water" />
		<tag k="ssr:stedsnr" v="22543" />
		<tag k="water" v="lake" />
	</node>
	<node id="-698919" lat="68.3658555603" lon="17.0532388825">
		<tag k="name" v="Sandbakkelva" />
		<tag k="ssr:stedsnr" v="17937" />
		<tag k="waterway" v="stream" />
	</node>
	<node id="-698915" lat="68.2904777759" lon="17.0458749971">
		<tag k="name" v="Slåttbakkbukta" />
		<tag k="natural" v="bay" />
		<tag k="ssr:stedsnr" v="17839" />
	</node>
	<node id="-698914" lat="68.255005553" lon="17.0474555458">
		<tag k="name" v="Mølnelva" />
		<tag k="ssr:stedsnr" v="17777" />
		<tag k="waterway" v="stream" />
	</node>
	<node id="-698911" lat="68.4070111129" lon="16.5767444333">
		<tag k="alt_name" v="Skjellelva" />
		<tag k="name" v="Skjelelva" />
		<tag k="ssr:stedsnr" v="17768" />
		<tag k="waterway" v="stream" />
	</node>
	<node id="-698910" lat="68.3882416629" lon="16.7862388963">
		<tag k="name" v="Mølnvikelva" />
		<tag k="ssr:stedsnr" v="17756" />
		<tag k="waterway" v="stream" />
	</node>
	<node id="-698908" lat="68.3500888931" lon="16.7114416641">
		<tag k="name" v="Grytvatnet" />
		<tag k="natural" v="water" />
		<tag k="ssr:stedsnr" v="17731" />
	</node>
	<node id="-698903" lat="68.336213889" lon="16.3747722248">
		<tag k="name" v="Kobbvikvatnan" />
		<tag k="natural" v="water" />
		<tag k="ssr:stedsnr" v="17691" />
		<tag k="water" v="lake" />
	</node>
	<node id="-698899" lat="68.308255555" lon="16.7209861134">
		<tag k="fixme" v="multiple name tags, choose one and add the other to alt_name" />
		<tag k="name" v="Børselva;Børsvatnelva" />
		<tag k="ssr:stedsnr" v="17646" />
		<tag k="waterway" v="river" />
	</node>
	<node id="-698896" lat="68.2976777809" lon="16.4312666787">
		<tag k="name" v="Haugvatnet" />
		<tag k="natural" v="water" />
		<tag k="ssr:stedsnr" v="17618" />
	</node>
	<node id="-698895" lat="68.3014861127" lon="16.7942638821">
		<tag k="name" v="Hestneselva" />
		<tag k="ssr:stedsnr" v="17612" />
		<tag k="waterway" v="stream" />
	</node>
	<node id="-698894" lat="68.2963416638" lon="16.7660555635">
		<tag k="name" v="Kvannvika" />
		<tag k="natural" v="bay" />
		<tag k="ssr:stedsnr" v="17609" />
	</node>
	<node id="-698893" lat="68.2893638865" lon="16.7376749871">
		<tag k="name" v="Durmålsvatnet" />
		<tag k="natural" v="water" />
		<tag k="ssr:stedsnr" v="17607" />
	</node>
	<node id="-698892" lat="68.2926388887" lon="16.6444833209">
		<tag k="name" v="Skaforsen - Billágorži" />
		<tag k="name:no" v="Skaforsen" />
		<tag k="name:se" v="Billágorži" />
		<tag k="natural" v="waterfall" />
		<tag k="old_name:se" v="Billagårži" />
		<tag k="ssr:stedsnr" v="17599" />
	</node>
	<node id="-698887" lat="68.2613138851" lon="16.8556833237">
		<tag k="name" v="Klubben" />
		<tag k="natural" v="cape" />
		<tag k="ssr:stedsnr" v="17476" />
	</node>
	<node id="-698886" lat="68.2762138911" lon="16.6708749908">
		<tag k="name" v="Sørelva" />
		<tag k="ssr:stedsnr" v="17467" />
		<tag k="waterway" v="river" />
	</node>
	<node id="-698881" lat="68.1543361131" lon="16.8227833356">
		<tag k="alt_name" v="Botnelva" />
		<tag k="name" v="Nordbotnelva" />
		<tag k="ssr:stedsnr" v="16692" />
		<tag k="waterway" v="stream" />
	</node>
	<node id="-698880" lat="68.2075777761" lon="16.8928333262">
		<tag k="name" v="Røvatnet" />
		<tag k="natural" v="water" />
		<tag k="ssr:stedsnr" v="16665" />
		<tag k="water" v="lake" />
	</node>
	<node id="-698879" lat="68.1867361133" lon="16.82899999">
		<tag k="name" v="Lensmannsneset" />
		<tag k="natural" v="cape" />
		<tag k="ssr:stedsnr" v="16655" />
	</node>
	<node id="-698876" lat="68.276861109" lon="16.7000555529">
		<tag k="name" v="Langosen" />
		<tag k="natural" v="bay" />
		<tag k="ssr:stedsnr" v="16538" />
	</node>
	<node id="-698861" lat="68.3640435227" lon="16.7783946296">
		<tag k="name" v="Trolldalvatnet" />
		<tag k="natural" v="water" />
		<tag k="ssr:stedsnr" v="990999" />
	</node>
	<node id="-698848" lat="68.2882972186" lon="16.6283638818">
		<tag k="name" v="Hestvika" />
		<tag k="natural" v="bay" />
		<tag k="ssr:stedsnr" v="889661" />
	</node>
	<node id="-698844" lat="68.3969166708" lon="16.5528666719">
		<tag k="name" v="Mikkelelva" />
		<tag k="ssr:stedsnr" v="889630" />
		<tag k="waterway" v="stream" />
	</node>
	<node id="-698840" lat="68.252038889" lon="16.7463777739">
		<tag k="name" v="Lomvasselva" />
		<tag k="ssr:stedsnr" v="889506" />
		<tag k="waterway" v="stream" />
	</node>
	<node id="-698833" lat="68.3169499989" lon="17.059313899">
		<tag k="name" v="Åskenes" />
		<tag k="natural" v="cape" />
		<tag k="ssr:stedsnr" v="403934" />
	</node>
	<node id="-698831" lat="68.3335500041" lon="17.0499611118">
		<tag k="name" v="Telgelandskilda" />
		<tag k="ssr:stedsnr" v="403929" />
		<tag k="waterway" v="stream" />
	</node>
	<node id="-698829" lat="68.32954167" lon="16.5974999981">
		<tag k="name" v="Rundhaugbekken" />
		<tag k="ssr:stedsnr" v="403708" />
		<tag k="waterway" v="stream" />
	</node>
	<node id="-698805" lat="68.164369443" lon="16.8167333217">
		<tag k="alt_name" v="Okselva" />
		<tag k="name" v="Økselva" />
		<tag k="ssr:stedsnr" v="388843" />
		<tag k="waterway" v="stream" />
	</node>
	<node id="-698804" lat="68.3339444445" lon="16.8366027871">
		<tag k="name" v="Steinabekken" />
		<tag k="ssr:stedsnr" v="388421" />
		<tag k="waterway" v="stream" />
	</node>
	<node id="-698799" lat="68.3187194418" lon="16.6665416527">
		<tag k="name" v="Fiskedammen" />
		<tag k="natural" v="water" />
		<tag k="ssr:stedsnr" v="389131" />
	</node>
	<node id="-698798" lat="68.199474999" lon="16.5973166537">
		<tag k="name" v="Kistbotnelva" />
		<tag k="ssr:stedsnr" v="385974" />
		<tag k="waterway" v="stream" />
	</node>
	<node id="-698797" lat="68.2892694428" lon="16.8264249925">
		<tag k="name" v="Raselva" />
		<tag k="ssr:stedsnr" v="385970" />
		<tag k="waterway" v="stream" />
	</node>
	<node id="-698790" lat="68.3438333318" lon="16.9425444449">
		<tag k="alt_name" v="Skjelelva" />
		<tag k="name" v="Skjellelva" />
		<tag k="ssr:stedsnr" v="382904" />
		<tag k="waterway" v="stream" />
	</node>
	<node id="-698781" lat="68.3780499956" lon="16.6131305646">
		<tag k="fixme" v="multiple name tags, choose one and add the other to alt_name" />
		<tag k="name" v="Holmvatnet;Store Holmvatnet" />
		<tag k="natural" v="water" />
		<tag k="ssr:stedsnr" v="381767" />
		<tag k="water" v="lake" />
	</node>
	<node id="-698776" lat="68.3632611077" lon="16.5912083351">
		<tag k="name" v="Stopålvatnet" />
		<tag k="natural" v="water" />
		<tag k="ssr:stedsnr" v="381744" />
		<tag k="water" v="lake" />
	</node>
	<node id="-698773" lat="68.3766444435" lon="16.4662055447">
		<tag k="name" v="Vargfjordvatnan" />
		<tag k="natural" v="water" />
		<tag k="ssr:stedsnr" v="381730" />
		<tag k="water" v="lake" />
	</node>
	<node id="-698771" lat="68.3566750034" lon="16.5456472159">
		<tag k="name" v="Tirholelva" />
		<tag k="ssr:stedsnr" v="381716" />
		<tag k="waterway" v="stream" />
	</node>
	<node id="-698769" lat="68.3387694493" lon="16.3511805475">
		<tag k="name" v="Kutjønna" />
		<tag k="natural" v="water" />
		<tag k="ssr:stedsnr" v="381704" />
	</node>
	<node id="-698768" lat="68.3395861114" lon="16.556169435">
		<tag k="name" v="Botnelva" />
		<tag k="ssr:stedsnr" v="381695" />
		<tag k="waterway" v="stream" />
	</node>
	<node id="-698759" lat="68.3102916667" lon="16.7391027775">
		<tag k="fixme" v="multiple name tags, choose one and add the other to alt_name" />
		<tag k="name" v="Bruksjordforsen;Børsvassforsen" />
		<tag k="natural" v="waterfall" />
		<tag k="ssr:stedsnr" v="381637" />
	</node>
	<node id="-698758" lat="68.306291665" lon="16.611050008">
		<tag k="name" v="Olaelva" />
		<tag k="ssr:stedsnr" v="381628" />
		<tag k="waterway" v="stream" />
	</node>
	<node id="-698745" lat="68.2775722232" lon="16.7119027659">
		<tag k="name" v="Hestholmen" />
		<tag k="place" v="islet" />
		<tag k="ssr:stedsnr" v="380605" />
	</node>
	<node id="-698744" lat="68.2787166675" lon="16.8087305645">
		<tag k="name" v="Djupvika" />
		<tag k="natural" v="bay" />
		<tag k="ssr:stedsnr" v="380602" />
	</node>
	<node id="-698742" lat="68.2495277754" lon="16.7202972091">
		<tag k="alt_name" v="Lillevatnet" />
		<tag k="fixme" v="multiple name tags, choose one and add the other to alt_name" />
		<tag k="name" v="Lille Sjurvatnet;Litlevatnet" />
		<tag k="natural" v="water" />
		<tag k="ssr:stedsnr" v="380590" />
	</node>
	<node id="-698741" lat="68.2632861152" lon="16.8031333311">
		<tag k="name" v="Hesteskovatnet" />
		<tag k="natural" v="water" />
		<tag k="ssr:stedsnr" v="380585" />
	</node>
	<node id="-698724" lat="68.2700250015" lon="16.7131305516">
		<tag k="name" v="Skogholmen" />
		<tag k="natural" v="cape" />
		<tag k="ssr:stedsnr" v="342610" />
	</node>
	<node id="-698721" lat="68.2757888876" lon="16.7214083237">
		<tag k="name" v="Vassvika" />
		<tag k="natural" v="bay" />
		<tag k="ssr:stedsnr" v="342601" />
	</node>
	<node id="-698719" lat="68.3817944433" lon="16.5661388912">
		<tag k="name" v="Grønlibekkelva" />
		<tag k="ssr:stedsnr" v="342584" />
		<tag k="waterway" v="stream" />
	</node>
	<node id="-698716" lat="68.2348222193" lon="16.7436360985">
		<tag k="name" v="Brattmålelva" />
		<tag k="ssr:stedsnr" v="342449" />
		<tag k="waterway" v="stream" />
	</node>
	<node id="-698709" lat="68.3893916679" lon="16.8260888872">
		<tag k="name" v="Lillevatnet" />
		<tag k="natural" v="water" />
		<tag k="ssr:stedsnr" v="329263" />
	</node>
	<node id="-698708" lat="68.3780972185" lon="17.0467694479">
		<tag k="name" v="Oterelva" />
		<tag k="ssr:stedsnr" v="328731" />
		<tag k="waterway" v="stream" />
	</node>
	<node id="-698700" lat="68.3391027809" lon="17.0196833425">
		<tag k="name" v="Kringelneset" />
		<tag k="natural" v="cape" />
		<tag k="ssr:stedsnr" v="328358" />
	</node>
	<node id="-698697" lat="68.343305554" lon="16.8884472131">
		<tag k="name" v="Kjelkebekken" />
		<tag k="ssr:stedsnr" v="328327" />
		<tag k="waterway" v="stream" />
	</node>
	<node id="-698692" lat="68.3788194433" lon="16.6167166763">
		<tag k="name" v="Lille Holmvatnet" />
		<tag k="natural" v="water" />
		<tag k="ssr:stedsnr" v="328158" />
		<tag k="water" v="lake" />
	</node>
	<node id="-698688" lat="68.2482000042" lon="16.8786000038">
		<tag k="name" v="Kvannmoelva" />
		<tag k="ssr:stedsnr" v="325956" />
		<tag k="waterway" v="river" />
	</node>
	<node id="-698678" lat="68.2884777746" lon="17.0420277712">
		<tag k="name" v="Skjellet" />
		<tag k="natural" v="cape" />
		<tag k="ssr:stedsnr" v="325399" />
	</node>
	<node id="-698675" lat="68.374549997" lon="17.0463000069">
		<tag k="name" v="Mølnelva" />
		<tag k="ssr:stedsnr" v="321944" />
		<tag k="waterway" v="stream" />
	</node>
	<node id="-698671" lat="68.3525944444" lon="16.8386555485">
		<tag k="alt_name" v="Alfonvatnet" />
		<tag k="name" v="Alfanvatnet" />
		<tag k="natural" v="water" />
		<tag k="ssr:stedsnr" v="321870" />
	</node>
	<node id="-698668" lat="68.2787361136" lon="16.8622999999">
		<tag k="name" v="Stokkedalelva" />
		<tag k="ssr:stedsnr" v="321821" />
		<tag k="waterway" v="river" />
	</node>
	<node id="-698667" lat="68.2541416632" lon="16.9194360985">
		<tag k="name" v="Telgeneset" />
		<tag k="natural" v="cape" />
		<tag k="ssr:stedsnr" v="321798" />
	</node>
	<node id="-698665" lat="68.3976638919" lon="16.657338879">
		<tag k="name" v="Dalelva" />
		<tag k="ssr:stedsnr" v="321423" />
		<tag k="waterway" v="river" />
	</node>
	<node id="-698662" lat="68.2417972209" lon="16.9508055574">
		<tag k="name" v="Tjuvelva" />
		<tag k="ssr:stedsnr" v="320751" />
		<tag k="waterway" v="stream" />
	</node>
	<node id="-698660" lat="68.12457222" lon="17.2340805589">
		<tag k="name" v="Vadbakkvatnet" />
		<tag k="natural" v="water" />
		<tag k="ssr:stedsnr" v="320706" />
	</node>
	<node id="-698658" lat="68.2113833355" lon="17.0985777681">
		<tag k="name" v="Straumvatnet" />
		<tag k="natural" v="water" />
		<tag k="ssr:stedsnr" v="320696" />
	</node>
	<node id="-698656" lat="68.1873499995" lon="17.042161116">
		<tag k="name" v="Geitvatnet" />
		<tag k="natural" v="water" />
		<tag k="ssr:stedsnr" v="320680" />
		<tag k="water" v="lake" />
	</node>
	<node id="-698655" lat="68.34034167" lon="16.4494694456">
		<tag k="name" v="Ringvatnet" />
		<tag k="natural" v="water" />
		<tag k="ssr:stedsnr" v="320643" />
	</node>
	<node id="-698653" lat="68.1547277792" lon="16.6903444485">
		<tag k="alt_name" v="Koppvatnet, l" />
		<tag k="name" v="Litle Koppvatnet" />
		<tag k="natural" v="water" />
		<tag k="ssr:stedsnr" v="320602" />
	</node>
	<node id="-698651" lat="68.3049000023" lon="16.752605546">
		<tag k="name" v="Høgholman" />
		<tag k="place" v="islet" />
		<tag k="ssr:stedsnr" v="320594" />
	</node>
	<node id="-698649" lat="68.2844000024" lon="16.711811108">
		<tag k="name" v="Vinterneset" />
		<tag k="natural" v="cape" />
		<tag k="ssr:stedsnr" v="320563" />
	</node>
	<node id="-698646" lat="68.2577333377" lon="16.5455638911">
		<tag k="name" v="Sandholmvatnet" />
		<tag k="natural" v="water" />
		<tag k="ssr:stedsnr" v="320529" />
		<tag k="water" v="lake" />
	</node>
	<node id="-698644" lat="68.2324388855" lon="16.7054583358">
		<tag k="name" v="Melkevasselva" />
		<tag k="ssr:stedsnr" v="320490" />
		<tag k="waterway" v="river" />
	</node>
	<node id="-698629" lat="68.3514055539" lon="16.5873222096">
		<tag k="name" v="Mølnelva" />
		<tag k="ssr:stedsnr" v="282697" />
		<tag k="waterway" v="stream" />
	</node>
	<node id="-698627" lat="68.292724996" lon="16.6470499943">
		<tag k="name" v="Maurnes" />
		<tag k="natural" v="cape" />
		<tag k="ssr:stedsnr" v="282639" />
	</node>
	<node id="-698626" lat="68.2837277815" lon="16.6340944329">
		<tag k="name" v="Slåttlines" />
		<tag k="natural" v="cape" />
		<tag k="ssr:stedsnr" v="282640" />
	</node>
	<node id="-698625" lat="68.2692666662" lon="16.7134360983">
		<tag k="name" v="Eggevika" />
		<tag k="natural" v="bay" />
		<tag k="ssr:stedsnr" v="282624" />
	</node>
	<node id="-698623" lat="68.2471444469" lon="16.731369445">
		<tag k="name" v="Dammen" />
		<tag k="natural" v="strait" />
		<tag k="ssr:stedsnr" v="282492" />
	</node>
	<node id="-698621" lat="68.3444611114" lon="16.0769833394">
		<tag k="name" v="Diket" />
		<tag k="natural" v="water" />
		<tag k="ssr:stedsnr" v="282386" />
	</node>
</osm>
