<?xml version="1.0" encoding="UTF-8"?>
<<<<<<< HEAD
<osm version="0.6" generator="osmapis">
	<node lat="68.1131694406146" lon="13.344311121402239" id="-9992">
		<tag k="name" v="Beringen" />
=======
<osm generator="osmapis" version="0.6">
	<node id="-187904" lat="68.09595278" lon="13.4195166742">
		<tag k="barrier" v="fence" />
		<tag k="name" v="Sørgjerdet" />
		<tag k="ssr:stedsnr" v="97741" />
	</node>
	<node id="-187387" lat="68.0018999976" lon="13.176202781">
		<tag k="name" v="Soløyvika" />
		<tag k="place" v="farm" />
		<tag k="ssr:stedsnr" v="290475" />
	</node>
	<node id="-187889" lat="68.005183336" lon="13.2078944479">
		<tag k="fixme" v="consider place=suburb, village or hamlet" />
		<tag k="name" v="Sund" />
		<tag k="place" v="quarter" />
		<tag k="ssr:stedsnr" v="78061" />
	</node>
	<node id="-187368" lat="68.1133750008" lon="13.3449805437">
		<tag k="name" v="Vollan" />
		<tag k="place" v="farm" />
		<tag k="ssr:stedsnr" v="260880" />
	</node>
	<node id="-187729" lat="68.0840555541" lon="13.1666861058">
		<tag k="name" v="Fredvang" />
		<tag k="place" v="village" />
		<tag k="ssr:stedsnr" v="927265" />
	</node>
	<node id="-187363" lat="68.060955607" lon="13.2466618672">
		<tag k="fixme" v="consider place=hamlet" />
		<tag k="name" v="Ytre Skjelfjord" />
		<tag k="old_name" v="Skjelfjord, yt" />
		<tag k="place" v="farm" />
		<tag k="ssr:stedsnr" v="260746" />
	</node>
	<node id="-187361" lat="68.0959583341" lon="13.416866655">
		<tag k="name" v="Moneset" />
		<tag k="place" v="isolated_dwelling" />
		<tag k="ssr:stedsnr" v="260695" />
	</node>
	<node id="-187356" lat="68.0446726583" lon="13.1686411858">
		<tag k="alt_name" v="Strømsnes" />
		<tag k="fixme" v="consider place=hamlet" />
		<tag k="name" v="Straumsnes" />
		<tag k="place" v="farm" />
		<tag k="ssr:stedsnr" v="260040" />
	</node>
	<node id="-188377" lat="68.1454638863" lon="13.3158833254">
		<tag k="name" v="Nordjorda" />
		<tag k="place" v="locality" />
		<tag k="ssr:stedsnr" v="806945" />
	</node>
	<node id="-188370" lat="68.0842888912" lon="13.3427638974">
		<tag k="fixme" v="multiple name tags, choose one and add the other to alt_name" />
		<tag k="name" v="Klokkergården;Nordgård" />
		<tag k="place" v="farm" />
		<tag k="ssr:stedsnr" v="806638" />
	</node>
	<node id="-188369" lat="68.0875749978" lon="13.3401666689">
		<tag k="name" v="Trauan" />
		<tag k="place" v="isolated_dwelling" />
		<tag k="ssr:stedsnr" v="806637" />
	</node>
	<node id="-187344" lat="68.0258666626" lon="13.1821472159">
		<tag k="name" v="Mørkveden" />
		<tag k="place" v="farm" />
		<tag k="ssr:stedsnr" v="259032" />
	</node>
	<node id="-188493" lat="68.0041778973" lon="13.2872026693">
		<tag k="fixme" v="consider place=hamlet" />
		<tag k="name" v="Nesland" />
		<tag k="place" v="farm" />
		<tag k="ssr:stedsnr" v="1075925" />
	</node>
	<node id="-187337" lat="68.0900166654" lon="13.1559666596">
		<tag k="name" v="Landalen" />
		<tag k="place" v="farm" />
		<tag k="ssr:stedsnr" v="50804" />
	</node>
	<node id="-187848" lat="68.0304361105" lon="13.178786111">
		<tag k="name" v="Lyshaugen" />
		<tag k="place" v="farm" />
		<tag k="ssr:stedsnr" v="49184" />
	</node>
	<node id="-188358" lat="68.090710898" lon="13.1636128081">
		<tag k="alt_name" v="Øvrevalle" />
		<tag k="fixme" v="consider place=hamlet" />
		<tag k="name" v="Øvervalle" />
		<tag k="place" v="farm" />
		<tag k="ssr:stedsnr" v="806251" />
	</node>
	<node id="-187332" lat="68.0988416642" lon="13.2454166546">
		<tag k="name" v="Leitet" />
		<tag k="place" v="farm" />
		<tag k="ssr:stedsnr" v="232794" />
	</node>
	<node id="-188355" lat="68.0441279693" lon="13.1620148734">
		<tag k="alt_name" v="Andopsneset" />
		<tag k="fixme" v="consider place=hamlet" />
		<tag k="name" v="Andopsnes" />
		<tag k="place" v="farm" />
		<tag k="ssr:stedsnr" v="806031" />
	</node>
	<node id="-188491" lat="68.0611441479" lon="13.3993740343">
		<tag k="fixme" v="consider place=hamlet" />
		<tag k="name" v="Straumøya" />
		<tag k="place" v="farm" />
		<tag k="ssr:stedsnr" v="1075923" />
	</node>
	<node id="-188320" lat="68.0698861113" lon="13.1320166749">
		<tag k="name" v="Torsfjord" />
		<tag k="place" v="farm" />
		<tag k="ssr:stedsnr" v="775770" />
	</node>
	<node id="-188349" lat="68.0977611091" lon="13.1355083427">
		<tag k="name" v="Kramvan" />
		<tag k="place" v="farm" />
		<tag k="ssr:stedsnr" v="778955" />
	</node>
	<node id="-187320" lat="68.1131694406" lon="13.3443111214">
		<tag k="name" v="Beringen" />
		<tag k="place" v="farm" />
		<tag k="ssr:stedsnr" v="231272" />
	</node>
	<node id="-187828" lat="68.0968500029" lon="13.4184444438">
		<tag k="name" v="Skarlaget" />
		<tag k="place" v="locality" />
		<tag k="ssr:stedsnr" v="37728" />
	</node>
	<node id="-187823" lat="68.085178853" lon="13.3066484727">
		<tag k="fixme" v="consider place=hamlet" />
		<tag k="name" v="Bø" />
		<tag k="place" v="farm" />
		<tag k="ssr:stedsnr" v="17659" />
	</node>
	<node id="-187304" lat="68.1027805531" lon="13.3249694467">
		<tag k="name" v="Silsandneset" />
		<tag k="place" v="farm" />
		<tag k="ssr:stedsnr" v="17836" />
	</node>
	<node id="-187302" lat="68.1289416693" lon="13.3861888837">
		<tag k="name" v="Vareidskaret" />
		<tag k="place" v="hamlet" />
		<tag k="ssr:stedsnr" v="17804" />
	</node>
	<node id="-187808" lat="68.1000305563" lon="13.1843222105">
		<tag k="alt_name" v="Korshamn" />
		<tag k="name" v="Korshavn" />
		<tag k="place" v="farm" />
		<tag k="ssr:stedsnr" v="17265" />
	</node>
	<node id="-188485" lat="68.0917833313" lon="13.1567055537">
		<tag k="name" v="Reinan" />
		<tag k="place" v="farm" />
		<tag k="ssr:stedsnr" v="960830" />
	</node>
	<node id="-188313" lat="68.1028444462" lon="13.3231722222">
		<tag k="name" v="Midtsundstad" />
		<tag k="place" v="farm" />
		<tag k="ssr:stedsnr" v="745850" />
	</node>
	<node id="-187799" lat="68.0839402755" lon="13.1707876142">
		<tag k="name" v="Gardshovdan" />
		<tag k="place" v="farm" />
		<tag k="ssr:stedsnr" v="960817" />
	</node>
	<node id="-187792" lat="68.1014277757" lon="13.2371861182">
		<tag k="name" v="Jusneset" />
		<tag k="place" v="farm" />
		<tag k="ssr:stedsnr" v="909646" />
	</node>
	<node id="-188311" lat="68.1402848941" lon="13.3157858005">
		<tag k="fixme" v="consider place=hamlet" />
		<tag k="name" v="Vikten" />
		<tag k="place" v="farm" />
		<tag k="ssr:stedsnr" v="745831" />
	</node>
	<node id="-188290" lat="68.1635641944" lon="13.3660593354">
		<tag k="fixme" v="consider place=hamlet" />
		<tag k="name" v="Myrland" />
		<tag k="place" v="farm" />
		<tag k="ssr:stedsnr" v="623996" />
	</node>
	<node id="-188287" lat="68.1437000006" lon="13.3163972203">
		<tag k="name" v="Nordgården" />
		<tag k="place" v="farm" />
		<tag k="ssr:stedsnr" v="623947" />
	</node>
	<node id="-188283" lat="68.1393333342" lon="13.3139694498">
		<tag k="alt_name" v="Heimegården" />
		<tag k="name" v="Heimergården" />
		<tag k="place" v="farm" />
		<tag k="ssr:stedsnr" v="623815" />
	</node>
	<node id="-188266" lat="68.0502499974" lon="13.1330749956">
		<tag k="alt_name" v="Litlekrystad" />
		<tag k="name" v="Litlkrystad" />
		<tag k="place" v="farm" />
		<tag k="ssr:stedsnr" v="623034" />
	</node>
	<node id="-188255" lat="68.0429555512" lon="13.2596138847">
		<tag k="name" v="Innergården" />
		<tag k="place" v="farm" />
		<tag k="ssr:stedsnr" v="595491" />
	</node>
	<node id="-187737" lat="68.1130388907" lon="13.1346361195">
		<tag k="name" v="Mulstøa" />
		<tag k="place" v="isolated_dwelling" />
		<tag k="ssr:stedsnr" v="805182" />
	</node>
	<node id="-188241" lat="68.0781361099" lon="13.102011103">
		<tag k="name" v="Kvalvika" />
		<tag k="place" v="locality" />
		<tag k="ssr:stedsnr" v="593715" />
	</node>
	<node id="-187726" lat="68.0213555568" lon="13.1839027879">
		<tag k="name" v="Kåkeren" />
		<tag k="place" v="farm" />
		<tag k="ssr:stedsnr" v="927052" />
	</node>
	<node id="-188230" lat="68.0899055517" lon="13.2298916598">
		<tag k="name" v="Ramberg" />
		<tag k="place" v="village" />
		<tag k="ssr:stedsnr" v="563688" />
	</node>
	<node id="-187715" lat="68.1292583318" lon="13.4034083377">
		<tag k="name" v="Nerleitet" />
		<tag k="place" v="hamlet" />
		<tag k="ssr:stedsnr" v="778225" />
	</node>
	<node id="-188225" lat="68.0554861134" lon="13.1517694419">
		<tag k="name" v="Langneset" />
		<tag k="place" v="farm" />
		<tag k="ssr:stedsnr" v="563002" />
	</node>
	<node id="-188221" lat="68.0803778503" lon="13.3466948348">
		<tag k="fixme" v="consider place=hamlet" />
		<tag k="name" v="Kilan" />
		<tag k="place" v="farm" />
		<tag k="ssr:stedsnr" v="562705" />
	</node>
	<node id="-188218" lat="68.0054027759" lon="13.2926305632">
		<tag k="name" v="Auster Nesland" />
		<tag k="old_name" v="Nesland, austre;Austre Nesland" />
		<tag k="place" v="farm" />
		<tag k="ssr:stedsnr" v="562498" />
	</node>
	<node id="-188210" lat="68.0051222219" lon="13.0546833354">
		<tag k="name" v="Grønnes" />
		<tag k="place" v="farm" />
		<tag k="ssr:stedsnr" v="562044" />
	</node>
	<node id="-188208" lat="68.028202779" lon="13.1703638941">
		<tag k="name" v="Fagernes" />
		<tag k="place" v="farm" />
		<tag k="ssr:stedsnr" v="562024" />
	</node>
	<node id="-187690" lat="68.07446389" lon="13.1448805482">
		<tag k="name" v="Stien" />
		<tag k="place" v="farm" />
		<tag k="ssr:stedsnr" v="899695" />
	</node>
	<node id="-187689" lat="68.0461666645" lon="13.252025002">
		<tag k="name" v="Solbakken" />
		<tag k="place" v="isolated_dwelling" />
		<tag k="ssr:stedsnr" v="899446" />
	</node>
	<node id="-188197" lat="68.1463250003" lon="13.3139250101">
		<tag k="name" v="Plassen" />
		<tag k="place" v="locality" />
		<tag k="ssr:stedsnr" v="535448" />
	</node>
	<node id="-187675" lat="68.1070805531" lon="13.1040027664">
		<tag k="name" v="Stokkvika" />
		<tag k="place" v="locality" />
		<tag k="ssr:stedsnr" v="897745" />
	</node>
	<node id="-187670" lat="68.0482361073" lon="13.1215833362">
		<tag k="name" v="Markjorda" />
>>>>>>> e1d4bc35ff8a6074a6f2e91616a996b547c36f15
		<tag k="place" v="farm" />
		<tag k="ssr:stedsnr" v="231272" />
	</node>
<<<<<<< HEAD
	<node lat="68.06173333013035" lon="13.23425555396241" id="-9997">
		<tag k="name" v="Vestgård" />
=======
	<node id="-187669" lat="68.0423333345" lon="13.1698999951">
		<tag k="name" v="Jekthaugen" />
>>>>>>> e1d4bc35ff8a6074a6f2e91616a996b547c36f15
		<tag k="place" v="farm" />
		<tag k="ssr:stedsnr" v="231675" />
	</node>
<<<<<<< HEAD
	<node lat="68.08517885295576" lon="13.306648472699907" id="-10004">
		<tag k="fixme" v="consider place=hamlet" />
		<tag k="name" v="Bø" />
=======
	<node id="-187666" lat="68.0403833287" lon="13.1638444534">
		<tag k="name" v="Straumshaugen" />
>>>>>>> e1d4bc35ff8a6074a6f2e91616a996b547c36f15
		<tag k="place" v="farm" />
		<tag k="ssr:stedsnr" v="17659" />
	</node>
<<<<<<< HEAD
	<node lat="68.12894166931655" lon="13.386188883658306" id="-10009">
		<tag k="name" v="Vareidskaret" />
		<tag k="place" v="hamlet" />
		<tag k="ssr:stedsnr" v="17804" />
	</node>
	<node lat="68.09001666544029" lon="13.155966659628103" id="-10027">
		<tag k="name" v="Landalen" />
=======
	<node id="-187660" lat="68.0352972228" lon="13.3477638793">
		<tag k="name" v="Nusfjord" />
		<tag k="place" v="village" />
		<tag k="ssr:stedsnr" v="684549" />
	</node>
	<node id="-188157" lat="68.061266665" lon="13.2431250005">
		<tag k="name" v="Nordheim" />
>>>>>>> e1d4bc35ff8a6074a6f2e91616a996b547c36f15
		<tag k="place" v="farm" />
		<tag k="ssr:stedsnr" v="50804" />
	</node>
<<<<<<< HEAD
	<node lat="68.00518333598521" lon="13.207894447906241" id="-10034">
		<tag k="fixme" v="consider place=suburb, village or hamlet" />
		<tag k="name" v="Sund" />
		<tag k="place" v="quarter" />
		<tag k="ssr:stedsnr" v="78061" />
	</node>
	<node lat="68.11695555447422" lon="13.3507222111524" id="-10045">
		<tag k="name" v="Taen" />
		<tag k="place" v="farm" />
		<tag k="ssr:stedsnr" v="110221" />
	</node>
	<node lat="68.03592816243491" lon="13.07516143570652" id="-10056">
		<tag k="fixme" v="consider tourism=alpine_hut or tourism=chalet" />
		<tag k="name" v="Selfjordhytta" />
		<tag k="ssr:stedsnr" v="115279" />
		<tag k="tourism" v="wilderness_hut" />
	</node>
	<node lat="68.02586666260204" lon="13.18214721586511" id="-10062">
		<tag k="name" v="Mørkveden" />
		<tag k="place" v="farm" />
		<tag k="ssr:stedsnr" v="259032" />
	</node>
	<node lat="68.04467265830375" lon="13.168641185759483" id="-10074">
		<tag k="alt_name" v="Strømsnes" />
		<tag k="fixme" v="consider place=hamlet" />
		<tag k="name" v="Straumsnes" />
		<tag k="place" v="farm" />
		<tag k="ssr:stedsnr" v="260040" />
	</node>
	<node lat="68.09595833409274" lon="13.416866655021801" id="-10078">
		<tag k="name" v="Moneset" />
=======
	<node id="-187643" lat="68.0449361082" lon="13.2568388905">
		<tag k="name" v="Innerfjorden" />
		<tag k="place" v="hamlet" />
		<tag k="ssr:stedsnr" v="656525" />
	</node>
	<node id="-188152" lat="68.021752781" lon="13.1608055488">
		<tag k="name" v="Valen" />
		<tag k="place" v="hamlet" />
		<tag k="ssr:stedsnr" v="413179" />
	</node>
	<node id="-187634" lat="68.0227194406" lon="13.154349994">
		<tag k="fixme" v="consider place=hamlet" />
		<tag k="name" v="Vareid" />
		<tag k="place" v="village" />
		<tag k="ssr:stedsnr" v="632560" />
	</node>
	<node id="-187625" lat="68.046911111" lon="13.2502999901">
		<tag k="name" v="Nesan" />
		<tag k="place" v="quarter" />
		<tag k="ssr:stedsnr" v="717465" />
	</node>
	<node id="-188129" lat="68.1217833356" lon="13.4412777812">
		<tag k="name" v="Hårberget" />
>>>>>>> e1d4bc35ff8a6074a6f2e91616a996b547c36f15
		<tag k="place" v="isolated_dwelling" />
		<tag k="ssr:stedsnr" v="260695" />
	</node>
<<<<<<< HEAD
	<node lat="68.0609556069755" lon="13.24666186719258" id="-10081">
		<tag k="fixme" v="consider place=hamlet" />
		<tag k="name" v="Ytre Skjelfjord" />
		<tag k="old_name" v="Skjelfjord, yt" />
=======
	<node id="-188128" lat="68.1084249996" lon="13.3016666737">
		<tag k="name" v="Skagen" />
>>>>>>> e1d4bc35ff8a6074a6f2e91616a996b547c36f15
		<tag k="place" v="farm" />
		<tag k="ssr:stedsnr" v="260746" />
	</node>
<<<<<<< HEAD
	<node lat="68.11337500076375" lon="13.344980543660247" id="-10084">
		<tag k="name" v="Vollan" />
=======
	<node id="-188123" lat="68.1007138932" lon="13.2400277714">
		<tag k="name" v="Jusneset" />
>>>>>>> e1d4bc35ff8a6074a6f2e91616a996b547c36f15
		<tag k="place" v="farm" />
		<tag k="ssr:stedsnr" v="260880" />
	</node>
<<<<<<< HEAD
	<node lat="68.11942778090854" lon="13.354822233335746" id="-10092">
		<tag k="name" v="Halsen" />
=======
	<node id="-188110" lat="68.0456944848" lon="13.1166492633">
		<tag k="fixme" v="consider place=hamlet" />
		<tag k="name" v="Marka" />
>>>>>>> e1d4bc35ff8a6074a6f2e91616a996b547c36f15
		<tag k="place" v="farm" />
		<tag k="ssr:stedsnr" v="171209" />
	</node>
<<<<<<< HEAD
	<node lat="68.14633611073774" lon="13.450583344167631" id="-10110">
		<tag k="alt_name" v="Sandnes, l;Litle Sandnes" />
		<tag k="name" v="Litlsandnes" />
=======
	<node id="-188109" lat="68.0688583348" lon="13.1968694537">
		<tag k="name" v="Finnbyen" />
>>>>>>> e1d4bc35ff8a6074a6f2e91616a996b547c36f15
		<tag k="place" v="farm" />
		<tag k="ssr:stedsnr" v="199953" />
	</node>
<<<<<<< HEAD
	<node lat="68.09884166421118" lon="13.245416654613537" id="-10127">
		<tag k="name" v="Leitet" />
=======
	<node id="-187590" lat="68.0587027818" lon="13.2318805461">
		<tag k="name" v="Fossmo" />
>>>>>>> e1d4bc35ff8a6074a6f2e91616a996b547c36f15
		<tag k="place" v="farm" />
		<tag k="ssr:stedsnr" v="232794" />
	</node>
<<<<<<< HEAD
	<node lat="68.08505085232869" lon="13.170220493119928" id="-10133">
=======
	<node id="-188098" lat="68.0959961918" lon="13.1332547841">
		<tag k="alt_name" v="Ytresand" />
>>>>>>> e1d4bc35ff8a6074a6f2e91616a996b547c36f15
		<tag k="fixme" v="consider place=hamlet" />
		<tag k="name" v="Hovdan" />
		<tag k="place" v="farm" />
		<tag k="ssr:stedsnr" v="259223" />
	</node>
<<<<<<< HEAD
	<node lat="68.10235823610097" lon="13.415279781511149" id="-10135">
		<tag k="fixme" v="consider place=hamlet" />
		<tag k="name" v="Andopen" />
=======
	<node id="-188097" lat="68.0931555595" lon="13.1592944567">
		<tag k="name" v="Nordvalle" />
>>>>>>> e1d4bc35ff8a6074a6f2e91616a996b547c36f15
		<tag k="place" v="farm" />
		<tag k="ssr:stedsnr" v="259829" />
	</node>
<<<<<<< HEAD
	<node lat="68.01981667030313" lon="13.202261110048685" id="-10144">
		<tag k="name" v="Skjenfjorden" />
		<tag k="place" v="hamlet" />
		<tag k="ssr:stedsnr" v="292128" />
	</node>
	<node lat="68.05775620604128" lon="13.154544441696785" id="-10159">
		<tag k="fixme" v="consider place=hamlet" />
		<tag k="name" v="Krystad" />
=======
	<node id="-188096" lat="68.0913317316" lon="13.1534470711">
		<tag k="alt_name" v="Volden" />
		<tag k="name" v="Vollen" />
		<tag k="place" v="farm" />
		<tag k="ssr:stedsnr" v="380225" />
	</node>
	<node id="-187583" lat="68.1559138876" lon="13.421924999">
		<tag k="alt_name" v="Sandnes, store;Store Sandnes" />
		<tag k="fixme" v="consider place=hamlet" />
		<tag k="name" v="Storsandnes" />
		<tag k="place" v="farm" />
		<tag k="ssr:stedsnr" v="684962" />
	</node>
	<node id="-188092" lat="68.074616665" lon="13.1422638826">
		<tag k="name" v="Bergland" />
>>>>>>> e1d4bc35ff8a6074a6f2e91616a996b547c36f15
		<tag k="place" v="farm" />
		<tag k="ssr:stedsnr" v="320006" />
	</node>
<<<<<<< HEAD
	<node lat="68.05455000019414" lon="13.250188885280108" id="-10175">
		<tag k="name" v="Yttergård" />
		<tag k="place" v="locality" />
		<tag k="ssr:stedsnr" v="473474" />
	</node>
	<node lat="68.0312138891925" lon="13.344022233043411" id="-10203">
		<tag k="name" v="Vika" />
		<tag k="place" v="hamlet" />
		<tag k="ssr:stedsnr" v="474930" />
	</node>
	<node lat="68.07461666498911" lon="13.142263882620856" id="-10207">
		<tag k="name" v="Bergland" />
=======
	<node id="-187577" lat="68.1331694448" lon="13.4319333236">
		<tag k="fixme" v="consider place=suburb, village or hamlet" />
		<tag k="name" v="Napp" />
		<tag k="place" v="quarter" />
		<tag k="ssr:stedsnr" v="684794" />
	</node>
	<node id="-188020" lat="68.057756206" lon="13.1545444417">
		<tag k="fixme" v="consider place=hamlet" />
		<tag k="name" v="Krystad" />
		<tag k="place" v="farm" />
		<tag k="ssr:stedsnr" v="320006" />
	</node>
	<node id="-187568" lat="68.0563055576" lon="13.1234166578">
		<tag k="name" v="Hella" />
>>>>>>> e1d4bc35ff8a6074a6f2e91616a996b547c36f15
		<tag k="place" v="farm" />
		<tag k="ssr:stedsnr" v="380005" />
	</node>
<<<<<<< HEAD
	<node lat="68.09133173161223" lon="13.153447071141093" id="-10211">
		<tag k="alt_name" v="Volden" />
		<tag k="name" v="Vollen" />
=======
	<node id="-187560" lat="68.1038638932" lon="13.3184583266">
		<tag k="name" v="Sørjord" />
>>>>>>> e1d4bc35ff8a6074a6f2e91616a996b547c36f15
		<tag k="place" v="farm" />
		<tag k="ssr:stedsnr" v="380225" />
	</node>
	<node lat="68.09315555952233" lon="13.159294456679941" id="-10212">
		<tag k="name" v="Nordvalle" />
		<tag k="place" v="farm" />
		<tag k="ssr:stedsnr" v="380227" />
	</node>
<<<<<<< HEAD
	<node lat="68.12953611347449" lon="13.40501388320016" id="-10240">
=======
	<node id="-187556" lat="68.1295361135" lon="13.4050138832">
>>>>>>> e1d4bc35ff8a6074a6f2e91616a996b547c36f15
		<tag k="alt_name" v="Nappsskardet" />
		<tag k="name" v="Nappskaret" />
		<tag k="place" v="hamlet" />
		<tag k="ssr:stedsnr" v="441789" />
	</node>
<<<<<<< HEAD
	<node lat="68.05640833727486" lon="13.098002777999799" id="-10242">
		<tag k="alt_name" v="Marka, øvre" />
		<tag k="name" v="Øvre Marka" />
		<tag k="place" v="locality" />
		<tag k="ssr:stedsnr" v="442003" />
	</node>
	<node lat="68.09194868937564" lon="13.149106849021537" id="-10260">
		<tag k="alt_name" v="Medvollen;Mevold" />
		<tag k="name" v="Medvoll" />
		<tag k="place" v="hamlet" />
		<tag k="ssr:stedsnr" v="502226" />
	</node>
	<node lat="68.08936744682465" lon="13.141433717120902" id="-10261">
=======
	<node id="-188063" lat="68.0364027758" lon="13.0741416586">
		<tag k="name" v="Myran" />
		<tag k="place" v="farm" />
		<tag k="ssr:stedsnr" v="352385" />
	</node>
	<node id="-188055" lat="68.0422750001" lon="13.2608277779">
		<tag k="name" v="Kvalvik" />
		<tag k="place" v="farm" />
		<tag k="ssr:stedsnr" v="350980" />
	</node>
	<node id="-187521" lat="68.0893674468" lon="13.1414337171">
>>>>>>> e1d4bc35ff8a6074a6f2e91616a996b547c36f15
		<tag k="alt_name" v="Indresand" />
		<tag k="fixme" v="consider place=hamlet" />
		<tag k="name" v="Innersand" />
		<tag k="place" v="farm" />
		<tag k="ssr:stedsnr" v="502229" />
	</node>
<<<<<<< HEAD
	<node lat="68.13316944480697" lon="13.431933323599221" id="-10284">
		<tag k="fixme" v="consider place=suburb, village or hamlet" />
		<tag k="name" v="Napp" />
		<tag k="place" v="quarter" />
		<tag k="ssr:stedsnr" v="684794" />
	</node>
	<node lat="68.155913887559" lon="13.42192499898503" id="-10289">
		<tag k="alt_name" v="Sandnes, store;Store Sandnes" />
=======
	<node id="-187520" lat="68.0919486894" lon="13.149106849">
		<tag k="alt_name" v="Medvollen;Mevold" />
		<tag k="name" v="Medvoll" />
		<tag k="place" v="hamlet" />
		<tag k="ssr:stedsnr" v="502226" />
	</node>
	<node id="-187519" lat="68.0909249969" lon="13.1888138907">
		<tag k="name" v="Øyan" />
		<tag k="place" v="farm" />
		<tag k="ssr:stedsnr" v="502221" />
	</node>
	<node id="-188024" lat="68.0378366829" lon="13.0853041959">
		<tag k="alt_name" v="Selfjord" />
>>>>>>> e1d4bc35ff8a6074a6f2e91616a996b547c36f15
		<tag k="fixme" v="consider place=hamlet" />
		<tag k="name" v="Storsandnes" />
		<tag k="place" v="farm" />
		<tag k="ssr:stedsnr" v="684962" />
	</node>
<<<<<<< HEAD
	<node lat="68.05870278176083" lon="13.231880546081216" id="-10294">
		<tag k="name" v="Fossmo" />
		<tag k="place" v="farm" />
		<tag k="ssr:stedsnr" v="534614" />
	</node>
	<node lat="68.07813610990989" lon="13.1020111029885" id="-10311">
		<tag k="name" v="Kvalvika" />
		<tag k="place" v="locality" />
		<tag k="ssr:stedsnr" v="593715" />
	</node>
	<node lat="68.13933333423735" lon="13.313969449774326" id="-10332">
		<tag k="alt_name" v="Heimegården" />
		<tag k="name" v="Heimergården" />
=======
	<node id="-187508" lat="68.0312138892" lon="13.344022233">
		<tag k="name" v="Vika" />
		<tag k="place" v="hamlet" />
		<tag k="ssr:stedsnr" v="474930" />
	</node>
	<node id="-188013" lat="68.1463361107" lon="13.4505833442">
		<tag k="alt_name" v="Sandnes, l;Litle Sandnes" />
		<tag k="name" v="Litlsandnes" />
>>>>>>> e1d4bc35ff8a6074a6f2e91616a996b547c36f15
		<tag k="place" v="farm" />
		<tag k="ssr:stedsnr" v="623815" />
	</node>
<<<<<<< HEAD
	<node lat="68.05630555759302" lon="13.12341665781576" id="-10353">
		<tag k="name" v="Hella" />
		<tag k="place" v="farm" />
		<tag k="ssr:stedsnr" v="684002" />
	</node>
	<node lat="68.03529722282957" lon="13.347763879286402" id="-10361">
		<tag k="name" v="Nusfjord" />
=======
	<node id="-187488" lat="68.0545500002" lon="13.2501888853">
		<tag k="name" v="Yttergård" />
		<tag k="place" v="locality" />
		<tag k="ssr:stedsnr" v="473474" />
	</node>
	<node id="-187994" lat="68.0082083293" lon="13.1682361078">
		<tag k="fixme" v="consider place=hamlet" />
		<tag k="name" v="Mølnarodden" />
>>>>>>> e1d4bc35ff8a6074a6f2e91616a996b547c36f15
		<tag k="place" v="village" />
		<tag k="ssr:stedsnr" v="684549" />
	</node>
<<<<<<< HEAD
	<node lat="68.10708055311343" lon="13.104002766384518" id="-10367">
		<tag k="name" v="Stokkvika" />
		<tag k="place" v="locality" />
		<tag k="ssr:stedsnr" v="897745" />
	</node>
	<node lat="68.04233333445968" lon="13.169899995108112" id="-10374">
		<tag k="name" v="Jekthaugen" />
=======
	<node id="-187985" lat="68.1194277809" lon="13.3548222333">
		<tag k="name" v="Halsen" />
		<tag k="place" v="farm" />
		<tag k="ssr:stedsnr" v="171209" />
	</node>
	<node id="-187470" lat="68.1023582361" lon="13.4152797815">
		<tag k="fixme" v="consider place=hamlet" />
		<tag k="name" v="Andopen" />
>>>>>>> e1d4bc35ff8a6074a6f2e91616a996b547c36f15
		<tag k="place" v="farm" />
		<tag k="ssr:stedsnr" v="716449" />
	</node>
<<<<<<< HEAD
	<node lat="68.04823610734967" lon="13.121583336244091" id="-10378">
		<tag k="name" v="Markjorda" />
		<tag k="place" v="farm" />
		<tag k="ssr:stedsnr" v="716573" />
	</node>
	<node lat="68.04616666445138" lon="13.252025001983345" id="-10401">
		<tag k="name" v="Solbakken" />
		<tag k="place" v="isolated_dwelling" />
		<tag k="ssr:stedsnr" v="899446" />
	</node>
	<node lat="68.07446389002281" lon="13.14488054820581" id="-10406">
		<tag k="name" v="Stien" />
		<tag k="place" v="farm" />
		<tag k="ssr:stedsnr" v="899695" />
	</node>
	<node lat="68.0698861112797" lon="13.132016674853272" id="-10422">
		<tag k="name" v="Torsfjord" />
		<tag k="place" v="farm" />
		<tag k="ssr:stedsnr" v="775770" />
	</node>
	<node lat="68.09789489684994" lon="13.135765113629937" id="-10435">
		<tag k="name" v="Krampan" />
		<tag k="place" v="locality" />
		<tag k="ssr:stedsnr" v="778955" />
	</node>
	<node lat="68.02135555679752" lon="13.183902787945334" id="-10453">
		<tag k="name" v="Kåkeren" />
		<tag k="place" v="farm" />
		<tag k="ssr:stedsnr" v="927052" />
	</node>
	<node lat="68.10142777571174" lon="13.237186118215298" id="-10481">
		<tag k="name" v="Jusneset" />
=======
	<node id="-187981" lat="68.0053277748" lon="13.0647972141">
		<tag k="historic" v="shieling" />
		<tag k="name" v="Sæteren" />
		<tag k="place" v="locality" />
		<tag k="ssr:stedsnr" v="170930" />
	</node>
	<node id="-188492" lat="68.0351192071" lon="13.3457181989">
		<tag k="fixme" v="consider place=hamlet" />
		<tag k="name" v="Nusfjord" />
		<tag k="place" v="farm" />
		<tag k="ssr:stedsnr" v="1075924" />
	</node>
	<node id="-187467" lat="68.0850508523" lon="13.1702204931">
		<tag k="fixme" v="consider place=hamlet" />
		<tag k="name" v="Hovdan" />
		<tag k="place" v="farm" />
		<tag k="ssr:stedsnr" v="259223" />
	</node>
	<node id="-188490" lat="68.1333100801" lon="13.4411780501">
		<tag k="name" v="Napp" />
		<tag k="place" v="locality" />
		<tag k="ssr:stedsnr" v="1075922" />
	</node>
	<node id="-188489" lat="68.0903619307" lon="13.2359454761">
		<tag k="name" v="Ramberg" />
		<tag k="place" v="locality" />
		<tag k="ssr:stedsnr" v="1075919" />
	</node>
	<node id="-188488" lat="68.0055665498" lon="13.2135118618">
		<tag k="fixme" v="consider place=hamlet" />
		<tag k="name" v="Sund" />
		<tag k="place" v="farm" />
		<tag k="ssr:stedsnr" v="1075916" />
	</node>
	<node id="-187461" lat="68.0617333301" lon="13.234255554">
		<tag k="name" v="Vestgård" />
		<tag k="place" v="farm" />
		<tag k="ssr:stedsnr" v="231675" />
	</node>
	<node id="-188482" lat="68.0893222188" lon="13.1743083376">
		<tag k="amenity" v="school" />
		<tag k="name" v="Fredvang skole" />
		<tag k="ssr:stedsnr" v="960823" />
	</node>
	<node id="-187966" lat="68.0780305601" lon="13.2390611021">
		<tag k="name" v="Lundgård" />
>>>>>>> e1d4bc35ff8a6074a6f2e91616a996b547c36f15
		<tag k="place" v="farm" />
		<tag k="ssr:stedsnr" v="909646" />
	</node>
<<<<<<< HEAD
	<node lat="68.08405555412666" lon="13.166686105812472" id="-10490">
		<tag k="name" v="Fredvang" />
		<tag k="place" v="village" />
		<tag k="ssr:stedsnr" v="927265" />
	</node>
	<node lat="68.08394027554864" lon="13.170787614196936" id="-10519">
		<tag k="name" v="Gardshovdan" />
=======
	<node id="-187440" lat="68.0564083373" lon="13.098002778">
		<tag k="alt_name" v="Marka, øvre" />
		<tag k="name" v="Øvre Marka" />
		<tag k="place" v="locality" />
		<tag k="ssr:stedsnr" v="442003" />
	</node>
	<node id="-188424" lat="68.0195916667" lon="13.1735749936">
		<tag k="name" v="Revsal" />
		<tag k="place" v="farm" />
		<tag k="ssr:stedsnr" v="866033" />
	</node>
	<node id="-187438" lat="68.1195160009" lon="13.3451097617">
		<tag k="fixme" v="consider place=hamlet" />
		<tag k="name" v="Vareid" />
>>>>>>> e1d4bc35ff8a6074a6f2e91616a996b547c36f15
		<tag k="place" v="farm" />
		<tag k="ssr:stedsnr" v="960817" />
	</node>
<<<<<<< HEAD
	<node lat="68.10278055308386" lon="13.324969446729837" id="-10524">
		<tag k="name" v="Silsandneset" />
=======
	<node id="-187949" lat="68.1059786913" lon="13.3008485307">
		<tag k="fixme" v="consider place=hamlet" />
		<tag k="name" v="Flakstad" />
>>>>>>> e1d4bc35ff8a6074a6f2e91616a996b547c36f15
		<tag k="place" v="farm" />
		<tag k="ssr:stedsnr" v="17836" />
	</node>
<<<<<<< HEAD
	<node lat="68.10003055630455" lon="13.184322210473633" id="-10529">
		<tag k="alt_name" v="Korshamn" />
		<tag k="name" v="Korshavn" />
=======
	<node id="-187936" lat="68.0897187498" lon="13.1600878284">
		<tag k="fixme" v="consider place=hamlet" />
		<tag k="name" v="Sørvalle" />
>>>>>>> e1d4bc35ff8a6074a6f2e91616a996b547c36f15
		<tag k="place" v="farm" />
		<tag k="ssr:stedsnr" v="17265" />
	</node>
<<<<<<< HEAD
	<node lat="68.09685000292903" lon="13.418444443752943" id="-10548">
		<tag k="name" v="Skarlaget" />
		<tag k="place" v="locality" />
		<tag k="ssr:stedsnr" v="37728" />
	</node>
	<node lat="68.03043611052203" lon="13.17878611102263" id="-10551">
		<tag k="name" v="Lyshaugen" />
=======
	<node id="-187931" lat="68.0359281624" lon="13.0751614357">
		<tag k="fixme" v="consider tourism=alpine_hut or tourism=chalet" />
		<tag k="name" v="Selfjordhytta" />
		<tag k="ssr:stedsnr" v="115279" />
		<tag k="tourism" v="wilderness_hut" />
	</node>
	<node id="-188439" lat="68.0626000007" lon="13.1931111093">
		<tag k="alt_name" v="Bjørnmyra" />
		<tag k="name" v="Bjønnmyra" />
>>>>>>> e1d4bc35ff8a6074a6f2e91616a996b547c36f15
		<tag k="place" v="farm" />
		<tag k="ssr:stedsnr" v="49184" />
	</node>
	<node lat="68.09595278000201" lon="13.419516674191753" id="-10605">
		<tag k="barrier" v="fence" />
		<tag k="name" v="Sørgjerdet" />
		<tag k="ssr:stedsnr" v="97741" />
	</node>
<<<<<<< HEAD
	<node lat="68.075458330506" lon="13.33259444180049" id="-10619">
=======
	<node id="-187922" lat="68.0754583305" lon="13.3325944418">
>>>>>>> e1d4bc35ff8a6074a6f2e91616a996b547c36f15
		<tag k="name" v="Djupvika" />
		<tag k="place" v="locality" />
		<tag k="ssr:stedsnr" v="110636" />
	</node>
<<<<<<< HEAD
	<node lat="68.08971874982092" lon="13.16008782839244" id="-10637">
=======
	<node id="-188431" lat="68.0453175911" lon="13.2612377065">
>>>>>>> e1d4bc35ff8a6074a6f2e91616a996b547c36f15
		<tag k="fixme" v="consider place=hamlet" />
		<tag k="name" v="Sørvalle" />
		<tag k="place" v="farm" />
		<tag k="ssr:stedsnr" v="138265" />
	</node>
<<<<<<< HEAD
	<node lat="68.1059786912776" lon="13.30084853065577" id="-10646">
		<tag k="fixme" v="consider place=hamlet" />
		<tag k="name" v="Flakstad" />
=======
	<node id="-188426" lat="68.002480554" lon="13.275091673">
		<tag k="name" v="Vester Nesland" />
		<tag k="old_name" v="Nesland, vestre;Vestre Nesland" />
>>>>>>> e1d4bc35ff8a6074a6f2e91616a996b547c36f15
		<tag k="place" v="farm" />
		<tag k="ssr:stedsnr" v="138833" />
	</node>
<<<<<<< HEAD
	<node lat="68.07803056008589" lon="13.239061102064307" id="-10657">
		<tag k="name" v="Lundgård" />
		<tag k="place" v="farm" />
		<tag k="ssr:stedsnr" v="169790" />
	</node>
	<node lat="68.00532777482617" lon="13.06479721413936" id="-10668">
		<tag k="historic" v="shieling" />
		<tag k="name" v="Sæteren" />
		<tag k="place" v="isolated_dwelling" />
		<tag k="ssr:stedsnr" v="170930" />
	</node>
	<node lat="68.00820832929332" lon="13.168236107802537" id="-10678">
		<tag k="fixme" v="consider place=hamlet" />
		<tag k="name" v="Mølnarodden" />
		<tag k="place" v="village" />
		<tag k="ssr:stedsnr" v="199058" />
	</node>
	<node lat="68.09959166856423" lon="13.24645277195555" id="-10706">
=======
	<node id="-187912" lat="68.1169555545" lon="13.3507222112">
		<tag k="name" v="Taen" />
		<tag k="place" v="farm" />
		<tag k="ssr:stedsnr" v="110221" />
	</node>
	<node id="-187398" lat="68.0995916686" lon="13.246452772">
>>>>>>> e1d4bc35ff8a6074a6f2e91616a996b547c36f15
		<tag k="name" v="Øverleitet" />
		<tag k="place" v="hamlet" />
		<tag k="ssr:stedsnr" v="292204" />
	</node>
<<<<<<< HEAD
	<node lat="68.03783668292184" lon="13.085304195866248" id="-10723">
		<tag k="alt_name" v="Selfjord" />
		<tag k="fixme" v="consider place=hamlet" />
		<tag k="name" v="Selfjorden" />
		<tag k="place" v="farm" />
		<tag k="ssr:stedsnr" v="320027" />
	</node>
	<node lat="68.04227500007649" lon="13.260827777874582" id="-10747">
		<tag k="name" v="Kvalvik" />
		<tag k="place" v="farm" />
		<tag k="ssr:stedsnr" v="350980" />
	</node>
	<node lat="68.03640277583396" lon="13.07414165855371" id="-10754">
		<tag k="name" v="Myran" />
		<tag k="place" v="farm" />
		<tag k="ssr:stedsnr" v="352385" />
	</node>
	<node lat="68.09599619181996" lon="13.133254784051067" id="-10776">
		<tag k="alt_name" v="Ytresand" />
		<tag k="fixme" v="consider place=hamlet" />
		<tag k="name" v="Yttersand" />
		<tag k="place" v="farm" />
		<tag k="ssr:stedsnr" v="380229" />
	</node>
	<node lat="68.0688583347884" lon="13.196869453668254" id="-10782">
		<tag k="name" v="Finnbyen" />
		<tag k="place" v="farm" />
		<tag k="ssr:stedsnr" v="381027" />
	</node>
	<node lat="68.04569448481111" lon="13.116649263330222" id="-10783">
		<tag k="fixme" v="consider place=hamlet" />
		<tag k="name" v="Marka" />
		<tag k="place" v="farm" />
		<tag k="ssr:stedsnr" v="381032" />
	</node>
	<node lat="68.10071389322555" lon="13.240027771365565" id="-10793">
		<tag k="name" v="Jusneset" />
		<tag k="place" v="farm" />
		<tag k="ssr:stedsnr" v="381843" />
	</node>
	<node lat="68.10842499960417" lon="13.301666673742728" id="-10797">
		<tag k="name" v="Skagen" />
		<tag k="place" v="farm" />
		<tag k="ssr:stedsnr" v="381873" />
	</node>
	<node lat="68.12178333560016" lon="13.441277781215552" id="-10798">
		<tag k="name" v="Hårberget" />
		<tag k="place" v="isolated_dwelling" />
		<tag k="ssr:stedsnr" v="381892" />
	</node>
	<node lat="68.02175278101872" lon="13.160805548781223" id="-10814">
		<tag k="name" v="Valen" />
		<tag k="place" v="hamlet" />
		<tag k="ssr:stedsnr" v="413179" />
	</node>
	<node lat="68.06126666502507" lon="13.243125000454965" id="-10817">
		<tag k="name" v="Nordheim" />
		<tag k="place" v="farm" />
		<tag k="ssr:stedsnr" v="413622" />
	</node>
	<node lat="68.1195160008559" lon="13.34510976166947" id="-10835">
		<tag k="fixme" v="consider place=hamlet" />
		<tag k="name" v="Vareid" />
		<tag k="place" v="farm" />
		<tag k="ssr:stedsnr" v="441881" />
	</node>
	<node lat="68.09092499693368" lon="13.188813890710296" id="-10849">
		<tag k="name" v="Øyan" />
		<tag k="place" v="farm" />
		<tag k="ssr:stedsnr" v="502221" />
	</node>
	<node lat="68.1463250002801" lon="13.31392501013205" id="-10881">
		<tag k="name" v="Plassen" />
		<tag k="place" v="locality" />
		<tag k="ssr:stedsnr" v="535448" />
	</node>
	<node lat="68.08990555167" lon="13.229891659793052" id="-10888">
		<tag k="name" v="Ramberg" />
		<tag k="place" v="village" />
		<tag k="ssr:stedsnr" v="563688" />
	</node>
	<node lat="68.00512222190645" lon="13.054683335425125" id="-10890">
		<tag k="name" v="Grønnes" />
		<tag k="place" v="farm" />
		<tag k="ssr:stedsnr" v="562044" />
	</node>
	<node lat="68.02820277895488" lon="13.170363894114189" id="-10891">
		<tag k="name" v="Fagernes" />
		<tag k="place" v="farm" />
		<tag k="ssr:stedsnr" v="562024" />
	</node>
	<node lat="68.00540277590119" lon="13.292630563178426" id="-10900">
		<tag k="name" v="Auster Nesland" />
		<tag k="old_name" v="Nesland, austre;Austre Nesland" />
		<tag k="place" v="farm" />
		<tag k="ssr:stedsnr" v="562498" />
	</node>
	<node lat="68.08037785029184" lon="13.346694834794077" id="-10903">
		<tag k="fixme" v="consider place=hamlet" />
		<tag k="name" v="Kilan" />
		<tag k="place" v="farm" />
		<tag k="ssr:stedsnr" v="562705" />
	</node>
	<node lat="68.05548611341418" lon="13.151769441913055" id="-10908">
		<tag k="name" v="Langneset" />
		<tag k="place" v="farm" />
		<tag k="ssr:stedsnr" v="563002" />
	</node>
	<node lat="68.04295555121283" lon="13.259613884688921" id="-10933">
		<tag k="name" v="Innergården" />
		<tag k="place" v="farm" />
		<tag k="ssr:stedsnr" v="595491" />
	</node>
	<node lat="68.05024999742555" lon="13.133074995580902" id="-10937">
		<tag k="alt_name" v="Litlekrystad" />
		<tag k="name" v="Litlkrystad" />
		<tag k="place" v="farm" />
		<tag k="ssr:stedsnr" v="623034" />
	</node>
	<node lat="68.14370000055516" lon="13.31639722026899" id="-10940">
		<tag k="name" v="Nordgården" />
		<tag k="place" v="farm" />
		<tag k="ssr:stedsnr" v="623947" />
	</node>
	<node lat="68.16356419436653" lon="13.366059335397116" id="-10948">
		<tag k="fixme" v="consider place=hamlet" />
		<tag k="name" v="Myrland" />
		<tag k="place" v="farm" />
		<tag k="ssr:stedsnr" v="623996" />
	</node>
	<node lat="68.02271944056045" lon="13.154349993974504" id="-10952">
		<tag k="fixme" v="consider place=hamlet" />
		<tag k="name" v="Vareid" />
		<tag k="place" v="village" />
		<tag k="ssr:stedsnr" v="632560" />
	</node>
	<node lat="68.0449361082471" lon="13.256838890471087" id="-10970">
		<tag k="name" v="Innerfjorden" />
		<tag k="place" v="hamlet" />
		<tag k="ssr:stedsnr" v="656525" />
	</node>
	<node lat="68.10386389321143" lon="13.318458326628926" id="-10975">
		<tag k="name" v="Sørjord" />
		<tag k="place" v="farm" />
		<tag k="ssr:stedsnr" v="666953" />
	</node>
	<node lat="68.04038332873283" lon="13.163844453353441" id="-10977">
		<tag k="name" v="Straumshaugen" />
		<tag k="place" v="farm" />
		<tag k="ssr:stedsnr" v="716403" />
	</node>
	<node lat="68.04691111095596" lon="13.250299990097696" id="-10987">
		<tag k="name" v="Nesan" />
		<tag k="place" v="quarter" />
		<tag k="ssr:stedsnr" v="717465" />
	</node>
	<node lat="68.14028489412314" lon="13.315785800512412" id="-11005">
		<tag k="fixme" v="consider place=hamlet" />
		<tag k="name" v="Vikten" />
		<tag k="place" v="farm" />
		<tag k="ssr:stedsnr" v="745831" />
	</node>
	<node lat="68.1028444461782" lon="13.323172222200263" id="-11007">
		<tag k="name" v="Midtsundstad" />
		<tag k="place" v="farm" />
		<tag k="ssr:stedsnr" v="745850" />
	</node>
	<node lat="68.12925833175886" lon="13.403408337662837" id="-11034">
		<tag k="name" v="Nerleitet" />
		<tag k="place" v="hamlet" />
		<tag k="ssr:stedsnr" v="778225" />
	</node>
	<node lat="68.11303889065294" lon="13.134636119523341" id="-11041">
		<tag k="name" v="Mulstøa" />
		<tag k="place" v="isolated_dwelling" />
		<tag k="ssr:stedsnr" v="805182" />
	</node>
	<node lat="68.04412796931413" lon="13.162014873405507" id="-11049">
		<tag k="alt_name" v="Andopsneset" />
		<tag k="fixme" v="consider place=hamlet" />
		<tag k="name" v="Andopsnes" />
		<tag k="place" v="farm" />
		<tag k="ssr:stedsnr" v="806031" />
	</node>
	<node lat="68.09071089799512" lon="13.16361280808217" id="-11055">
		<tag k="alt_name" v="Øvrevalle" />
		<tag k="fixme" v="consider place=hamlet" />
		<tag k="name" v="Øvervalle" />
		<tag k="place" v="farm" />
		<tag k="ssr:stedsnr" v="806251" />
	</node>
	<node lat="68.14546388633478" lon="13.315883325422506" id="-11060">
		<tag k="name" v="Nordjorda" />
		<tag k="place" v="locality" />
		<tag k="ssr:stedsnr" v="806945" />
	</node>
	<node lat="68.08757499781237" lon="13.340166668895263" id="-11068">
		<tag k="name" v="Trauan" />
		<tag k="place" v="isolated_dwelling" />
		<tag k="ssr:stedsnr" v="806637" />
	</node>
	<node lat="68.08446701637737" lon="13.34288361710098" id="-11069">
		<tag k="name" v="Klokkergården" />
		<tag k="place" v="farm" />
		<tag k="ssr:stedsnr" v="806638" />
	</node>
	<node lat="68.0195916667442" lon="13.173574993570623" id="-11115">
		<tag k="name" v="Revsal" />
		<tag k="place" v="farm" />
		<tag k="ssr:stedsnr" v="866033" />
	</node>
	<node lat="68.0024805540134" lon="13.275091673024829" id="-11124">
		<tag k="name" v="Vester Nesland" />
		<tag k="old_name" v="Nesland, vestre;Vestre Nesland" />
		<tag k="place" v="farm" />
		<tag k="ssr:stedsnr" v="866475" />
	</node>
	<node lat="68.04531759105832" lon="13.261237706463152" id="-11127">
		<tag k="fixme" v="consider place=hamlet" />
		<tag k="name" v="Indre Skjelfjord" />
		<tag k="old_name" v="Skjelfjord, in" />
		<tag k="place" v="farm" />
		<tag k="ssr:stedsnr" v="866730" />
	</node>
	<node lat="68.06260000071057" lon="13.19311110928401" id="-11138">
		<tag k="alt_name" v="Bjørnmyra" />
		<tag k="name" v="Bjønnmyra" />
		<tag k="place" v="farm" />
		<tag k="ssr:stedsnr" v="867019" />
	</node>
	<node lat="68.08932221879512" lon="13.174308337597726" id="-11171">
		<tag k="amenity" v="school" />
		<tag k="name" v="Fredvang skole" />
		<tag k="ssr:stedsnr" v="960823" />
	</node>
	<node lat="68.09178333125894" lon="13.15670555369142" id="-11174">
		<tag k="name" v="Reinan" />
		<tag k="place" v="farm" />
		<tag k="ssr:stedsnr" v="960830" />
	</node>
	<node lat="68.00556654984543" lon="13.213511861809875" id="-11179">
		<tag k="fixme" v="consider place=hamlet" />
		<tag k="name" v="Sund" />
		<tag k="place" v="farm" />
		<tag k="ssr:stedsnr" v="1075916" />
	</node>
	<node lat="68.09036193070582" lon="13.235945476147313" id="-11180">
		<tag k="name" v="Ramberg" />
		<tag k="place" v="locality" />
		<tag k="ssr:stedsnr" v="1075919" />
	</node>
	<node lat="68.13331008005554" lon="13.441178050119065" id="-11181">
		<tag k="name" v="Napp" />
		<tag k="place" v="locality" />
		<tag k="ssr:stedsnr" v="1075922" />
	</node>
	<node lat="68.0611441479108" lon="13.399374034320855" id="-11182">
		<tag k="fixme" v="consider place=hamlet" />
		<tag k="name" v="Straumøya" />
		<tag k="place" v="farm" />
		<tag k="ssr:stedsnr" v="1075923" />
	</node>
	<node lat="68.0351192071209" lon="13.345718198894602" id="-11183">
		<tag k="fixme" v="consider place=hamlet" />
		<tag k="name" v="Nusfjord" />
		<tag k="place" v="farm" />
		<tag k="ssr:stedsnr" v="1075924" />
	</node>
	<node lat="68.00417789730955" lon="13.28720266934084" id="-11184">
		<tag k="fixme" v="consider place=hamlet" />
		<tag k="name" v="Nesland" />
		<tag k="place" v="farm" />
		<tag k="ssr:stedsnr" v="1075925" />
	</node>
	<node lat="68.08303721966966" lon="13.342815897771409" id="-11185">
		<tag k="name" v="Nordgård" />
		<tag k="place" v="farm" />
		<tag k="ssr:stedsnr" v="1080826" />
=======
	<node id="-187394" lat="68.0198166703" lon="13.20226111">
		<tag k="name" v="Skjenfjorden" />
		<tag k="place" v="hamlet" />
		<tag k="ssr:stedsnr" v="292128" />
>>>>>>> e1d4bc35ff8a6074a6f2e91616a996b547c36f15
	</node>
</osm>
