<?xml version="1.0" encoding="UTF-8"?>
<<<<<<< HEAD
<osm version="0.6" generator="osmapis">
	<node lat="68.09123332916829" lon="13.310680559373338" id="-10126">
		<tag k="highway" v="path" />
		<tag k="name" v="Stien" />
		<tag k="ssr:stedsnr" v="231803" />
	</node>
	<node lat="68.06096944611711" lon="13.1393638883594" id="-10188">
=======
<osm generator="osmapis" version="0.6">
	<node id="-188056" lat="68.1007916684" lon="13.3242861009">
>>>>>>> e1d4bc35ff8a6074a6f2e91616a996b547c36f15
		<tag k="fixme" v="verify maritime location" />
		<tag k="mooring" v="yes" />
		<tag k="name" v="Båtstøa" />
		<tag k="place" v="locality" />
<<<<<<< HEAD
		<tag k="ssr:stedsnr" v="352670" />
	</node>
	<node lat="68.16491666217873" lon="13.36664445206809" id="-10313">
=======
		<tag k="ssr:stedsnr" v="351133" />
	</node>
	<node id="-187462" lat="68.0912333292" lon="13.3106805594">
		<tag k="highway" v="path" />
		<tag k="name" v="Stien" />
		<tag k="ssr:stedsnr" v="231803" />
	</node>
	<node id="-188245" lat="68.1649166622" lon="13.3666444521">
>>>>>>> e1d4bc35ff8a6074a6f2e91616a996b547c36f15
		<tag k="man_made" v="quay" />
		<tag k="name" v="Lendinga" />
		<tag k="place" v="locality" />
		<tag k="ssr:stedsnr" v="595067" />
	</node>
<<<<<<< HEAD
	<node lat="68.10079166835601" lon="13.32428610093897" id="-10748">
=======
	<node id="-188076" lat="68.0609694461" lon="13.1393638884">
>>>>>>> e1d4bc35ff8a6074a6f2e91616a996b547c36f15
		<tag k="fixme" v="verify maritime location" />
		<tag k="mooring" v="yes" />
		<tag k="name" v="Kjerkstøa" />
		<tag k="place" v="locality" />
		<tag k="ssr:stedsnr" v="351133" />
	</node>
	<node lat="68.13492500252731" lon="13.305727782066672" id="-11109">
		<tag k="fixme" v="verify maritime location" />
		<tag k="mooring" v="yes" />
		<tag k="name" v="Sandnesstøa" />
		<tag k="place" v="locality" />
		<tag k="ssr:stedsnr" v="839324" />
	</node>
	<node id="-188411" lat="68.1349250025" lon="13.3057277821">
		<tag k="fixme" v="verify maritime location" />
		<tag k="mooring" v="yes" />
		<tag k="name" v="Sandnesstøa" />
		<tag k="place" v="locality" />
		<tag k="ssr:stedsnr" v="839324" />
	</node>
</osm>
