<?xml version="1.0" encoding="UTF-8"?>
<<<<<<< HEAD
<osm version="0.6" generator="osmapis">
	<node lat="68.13745277393103" lon="13.324547223758918" id="-10022">
		<tag k="name" v="Kinnsteinen" />
		<tag k="natural" v="stone" />
		<tag k="ssr:stedsnr" v="49368" />
	</node>
	<node lat="68.02616944488695" lon="13.264158334578225" id="-10042">
		<tag k="name" v="Storura" />
		<tag k="natural" v="scree" />
		<tag k="ssr:stedsnr" v="110113" />
	</node>
	<node lat="68.10328055308906" lon="13.274050010522853" id="-10044">
		<tag k="name" v="Hombåren" />
		<tag k="place" v="locality" />
		<tag k="ssr:stedsnr" v="110215" />
	</node>
	<node lat="68.06746944004584" lon="13.331886119277153" id="-10087">
		<tag k="name" v="Pottan" />
		<tag k="natural" v="wetland" />
		<tag k="ssr:stedsnr" v="170575" />
	</node>
	<node lat="68.05711388437082" lon="13.017222226895539" id="-10094">
		<tag k="alt_name" v="Ulvurda" />
		<tag k="name" v="Ulvura" />
		<tag k="natural" v="scree" />
		<tag k="ssr:stedsnr" v="199002" />
	</node>
	<node lat="68.13871666508612" lon="13.456516666814542" id="-10112">
		<tag k="name" v="Holmjorda" />
		<tag k="place" v="locality" />
		<tag k="ssr:stedsnr" v="203012" />
	</node>
	<node lat="68.02363888998684" lon="13.225377787470999" id="-10121">
		<tag k="name" v="Ingerura" />
		<tag k="natural" v="scree" />
		<tag k="ssr:stedsnr" v="231144" />
	</node>
	<node lat="67.9848000008265" lon="13.1505083438239" id="-10153">
		<tag k="name" v="Solbjørnura" />
		<tag k="natural" v="scree" />
		<tag k="ssr:stedsnr" v="292942" />
	</node>
	<node lat="67.97253610979408" lon="13.176030558355516" id="-10154">
		<tag k="name" v="Børsura" />
		<tag k="natural" v="scree" />
		<tag k="ssr:stedsnr" v="292944" />
	</node>
	<node lat="68.00890833314938" lon="13.295391674229347" id="-10155">
		<tag k="name" v="Øvremarka" />
		<tag k="place" v="locality" />
		<tag k="ssr:stedsnr" v="292977" />
	</node>
	<node lat="68.03476666233291" lon="13.133925007559538" id="-10228">
		<tag k="name" v="Bryggsteinen" />
		<tag k="natural" v="stone" />
		<tag k="ssr:stedsnr" v="412316" />
	</node>
	<node lat="68.09274722333363" lon="13.311719441514056" id="-10229">
		<tag k="name" v="Storura" />
		<tag k="natural" v="scree" />
		<tag k="ssr:stedsnr" v="412736" />
	</node>
	<node lat="68.08583333651617" lon="13.233138896310052" id="-10230">
		<tag k="name" v="Lagardsura" />
		<tag k="natural" v="scree" />
		<tag k="ssr:stedsnr" v="412739" />
	</node>
	<node lat="68.14616388570599" lon="13.452072209718763" id="-10254">
		<tag k="name" v="Bettyjorda" />
		<tag k="place" v="locality" />
		<tag k="ssr:stedsnr" v="474304" />
	</node>
	<node lat="68.12492222423742" lon="13.432530555819213" id="-10268">
		<tag k="name" v="Middagssteinen" />
		<tag k="natural" v="stone" />
		<tag k="ssr:stedsnr" v="502878" />
	</node>
	<node lat="68.05946944846593" lon="13.084230557589054" id="-10298">
		<tag k="name" v="Øvermarka" />
		<tag k="place" v="locality" />
		<tag k="ssr:stedsnr" v="534685" />
	</node>
	<node lat="68.16120555159844" lon="13.367586109464632" id="-10301">
		<tag k="name" v="Grindsteinan" />
		<tag k="natural" v="stone" />
		<tag k="ssr:stedsnr" v="535068" />
	</node>
	<node lat="68.02664721881143" lon="13.075377767681596" id="-10369">
		<tag k="name" v="Roparsteinen" />
		<tag k="natural" v="stone" />
		<tag k="ssr:stedsnr" v="898341" />
	</node>
	<node lat="68.02082777789327" lon="13.26173334133574" id="-10384">
		<tag k="name" v="Litlura" />
		<tag k="natural" v="scree" />
		<tag k="ssr:stedsnr" v="717110" />
	</node>
	<node lat="68.16643332982821" lon="13.343291672881556" id="-10391">
		<tag k="name" v="Hornura" />
		<tag k="natural" v="scree" />
		<tag k="ssr:stedsnr" v="899091" />
	</node>
	<node lat="68.03994722308272" lon="13.146672218464033" id="-10398">
		<tag k="name" v="Saltkaret" />
		<tag k="natural" v="stone" />
		<tag k="ssr:stedsnr" v="899390" />
	</node>
	<node lat="68.0601805568167" lon="13.142866673209873" id="-10404">
		<tag k="name" v="Krystadmyran" />
		<tag k="natural" v="wetland" />
		<tag k="ssr:stedsnr" v="899642" />
	</node>
	<node lat="68.01522222453703" lon="13.262130560318752" id="-10426">
		<tag k="name" v="Geitura" />
		<tag k="natural" v="scree" />
		<tag k="ssr:stedsnr" v="777121" />
	</node>
	<node lat="68.15796944022956" lon="13.31731945129635" id="-10428">
		<tag k="name" v="Mjånesura" />
		<tag k="natural" v="scree" />
		<tag k="ssr:stedsnr" v="777457" />
	</node>
	<node lat="68.16334166330182" lon="13.328611104694899" id="-10444">
		<tag k="name" v="Kvitura" />
		<tag k="natural" v="scree" />
		<tag k="ssr:stedsnr" v="838132" />
	</node>
	<node lat="68.05304444067" lon="13.222866656642767" id="-10502">
		<tag k="name" v="Blåura" />
		<tag k="natural" v="scree" />
		<tag k="ssr:stedsnr" v="947453" />
	</node>
	<node lat="68.14630833425197" lon="13.445552788125678" id="-10508">
		<tag k="name" v="Litlsandnesjorda" />
		<tag k="natural" v="wetland" />
		<tag k="ssr:stedsnr" v="959286" />
	</node>
	<node lat="68.13732500172915" lon="13.36728055639256" id="-10523">
		<tag k="name" v="Skardmyra" />
		<tag k="natural" v="wetland" />
		<tag k="ssr:stedsnr" v="17818" />
	</node>
	<node lat="68.1192916645551" lon="13.36554166843569" id="-10543">
		<tag k="alt_name" v="Storurda" />
		<tag k="name" v="Storura" />
		<tag k="natural" v="scree" />
		<tag k="ssr:stedsnr" v="17883" />
	</node>
	<node lat="68.08311388712126" lon="13.284350004932252" id="-10557">
		<tag k="name" v="Langnesura" />
		<tag k="natural" v="scree" />
		<tag k="ssr:stedsnr" v="48773" />
	</node>
	<node lat="68.00480277598496" lon="13.269716671342" id="-10574">
		<tag k="name" v="Harvollen" />
=======
<osm generator="osmapis" version="0.6">
	<node id="-188159" lat="68.0597138861" lon="13.1647805478">
		<tag k="name" v="Tussan" />
>>>>>>> e1d4bc35ff8a6074a6f2e91616a996b547c36f15
		<tag k="place" v="locality" />
		<tag k="ssr:stedsnr" v="49873" />
	</node>
<<<<<<< HEAD
	<node lat="68.05390833571464" lon="13.35240832180608" id="-10583">
		<tag k="name" v="Klokkarura" />
=======
	<node id="-187389" lat="68.0713972229" lon="13.0463694481">
		<tag k="name" v="Tussnøstan" />
>>>>>>> e1d4bc35ff8a6074a6f2e91616a996b547c36f15
		<tag k="natural" v="scree" />
		<tag k="ssr:stedsnr" v="50464" />
	</node>
<<<<<<< HEAD
	<node lat="68.09360555553916" lon="13.086980555579476" id="-10588">
		<tag k="name" v="Mikkjelskarura" />
		<tag k="natural" v="scree" />
		<tag k="ssr:stedsnr" v="50981" />
	</node>
	<node lat="68.02304722282854" lon="13.328491658496558" id="-10591">
		<tag k="alt_name" v="Hessurda" />
		<tag k="name" v="Hessura" />
=======
	<node id="-187647" lat="68.0824305564" lon="13.1216000025">
		<tag k="name" v="Skjettendikan" />
		<tag k="natural" v="wetland" />
		<tag k="ssr:stedsnr" v="656873" />
	</node>
	<node id="-187766" lat="68.1369861147" lon="13.4225944346">
		<tag k="name" v="Sanduran" />
>>>>>>> e1d4bc35ff8a6074a6f2e91616a996b547c36f15
		<tag k="natural" v="scree" />
		<tag k="ssr:stedsnr" v="810025" />
	</node>
<<<<<<< HEAD
	<node lat="68.12044721863849" lon="13.358552772626384" id="-10614">
		<tag k="name" v="Leitet" />
=======
	<node id="-188405" lat="68.0038166713" lon="13.2670861063">
		<tag k="name" v="Hellmyra" />
		<tag k="natural" v="wetland" />
		<tag k="ssr:stedsnr" v="838994" />
	</node>
	<node id="-188146" lat="68.0843888909" lon="13.2234444336">
		<tag k="name" v="Skjelholmøyra" />
>>>>>>> e1d4bc35ff8a6074a6f2e91616a996b547c36f15
		<tag k="place" v="locality" />
		<tag k="ssr:stedsnr" v="110218" />
	</node>
<<<<<<< HEAD
	<node lat="68.04299721863978" lon="13.09316944714858" id="-10616">
		<tag k="name" v="Selfjordura" />
=======
	<node id="-188145" lat="68.0858333365" lon="13.2331388963">
		<tag k="name" v="Lagardsura" />
>>>>>>> e1d4bc35ff8a6074a6f2e91616a996b547c36f15
		<tag k="natural" v="scree" />
		<tag k="ssr:stedsnr" v="110401" />
	</node>
<<<<<<< HEAD
	<node lat="68.09106389040271" lon="13.1362555538094" id="-10625">
		<tag k="name" v="Toftan" />
		<tag k="place" v="locality" />
		<tag k="ssr:stedsnr" v="110868" />
	</node>
	<node lat="68.10178333483955" lon="13.231611109554144" id="-10670">
		<tag k="name" v="Skarvsteinen" />
		<tag k="natural" v="stone" />
		<tag k="ssr:stedsnr" v="171189" />
	</node>
	<node lat="68.13322777676191" lon="13.383858336299001" id="-10692">
		<tag k="name" v="Okstindmyran" />
		<tag k="natural" v="wetland" />
		<tag k="ssr:stedsnr" v="199786" />
	</node>
	<node lat="68.07139722292887" lon="13.046369448117234" id="-10700">
		<tag k="name" v="Tussnøstan" />
=======
	<node id="-188144" lat="68.0927472233" lon="13.3117194415">
		<tag k="name" v="Storura" />
		<tag k="natural" v="scree" />
		<tag k="ssr:stedsnr" v="412736" />
	</node>
	<node id="-188398" lat="68.0904916636" lon="13.3373472178">
		<tag k="name" v="Båtsteinen" />
		<tag k="natural" v="stone" />
		<tag k="ssr:stedsnr" v="838795" />
	</node>
	<node id="-187709" lat="68.0152222245" lon="13.2621305603">
		<tag k="name" v="Geitura" />
		<tag k="natural" v="scree" />
		<tag k="ssr:stedsnr" v="777121" />
	</node>
	<node id="-187500" lat="68.1461638857" lon="13.4520722097">
		<tag k="name" v="Bettyjorda" />
		<tag k="place" v="locality" />
		<tag k="ssr:stedsnr" v="474304" />
	</node>
	<node id="-187371" lat="68.0261694449" lon="13.2641583346">
		<tag k="name" v="Storura" />
>>>>>>> e1d4bc35ff8a6074a6f2e91616a996b547c36f15
		<tag k="natural" v="scree" />
		<tag k="ssr:stedsnr" v="290736" />
	</node>
<<<<<<< HEAD
	<node lat="68.04026944516353" lon="13.14463610683392" id="-10714">
		<tag k="name" v="Litlbåtsteinen" />
		<tag k="natural" v="stone" />
		<tag k="ssr:stedsnr" v="292359" />
	</node>
	<node lat="68.066497224807" lon="13.350802780169262" id="-10716">
		<tag k="name" v="Pustarsteinen" />
=======
	<node id="-188137" lat="68.0347666623" lon="13.1339250076">
		<tag k="name" v="Bryggsteinen" />
>>>>>>> e1d4bc35ff8a6074a6f2e91616a996b547c36f15
		<tag k="natural" v="stone" />
		<tag k="ssr:stedsnr" v="292563" />
	</node>
<<<<<<< HEAD
	<node lat="68.01031944686353" lon="13.26042221951981" id="-10734">
		<tag k="alt_name" v="Sætrene" />
		<tag k="historic" v="shieling" />
		<tag k="name" v="Sætern" />
		<tag k="place" v="locality" />
		<tag k="ssr:stedsnr" v="320495" />
	</node>
	<node lat="68.06932222092783" lon="13.405763890364765" id="-10737">
		<tag k="name" v="Myran" />
=======
	<node id="-187624" lat="68.1434527793" lon="13.32115556">
		<tag k="name" v="Blåura" />
		<tag k="natural" v="scree" />
		<tag k="ssr:stedsnr" v="717456" />
	</node>
	<node id="-188007" lat="68.1332277768" lon="13.3838583363">
		<tag k="name" v="Okstindmyran" />
>>>>>>> e1d4bc35ff8a6074a6f2e91616a996b547c36f15
		<tag k="natural" v="wetland" />
		<tag k="ssr:stedsnr" v="320681" />
	</node>
<<<<<<< HEAD
	<node lat="68.14077221941862" lon="13.321119455142215" id="-10751">
		<tag k="name" v="Larsmarka" />
		<tag k="place" v="locality" />
		<tag k="ssr:stedsnr" v="352302" />
	</node>
	<node lat="68.16045000358044" lon="13.360283330073361" id="-10757">
		<tag k="name" v="Storjorda" />
		<tag k="place" v="locality" />
		<tag k="ssr:stedsnr" v="352436" />
	</node>
	<node lat="68.08438889091462" lon="13.223444433630407" id="-10807">
		<tag k="name" v="Skjelholmøyra" />
		<tag k="place" v="locality" />
		<tag k="ssr:stedsnr" v="412750" />
	</node>
	<node lat="68.05971388610087" lon="13.164780547759218" id="-10819">
		<tag k="name" v="Tussan" />
		<tag k="place" v="locality" />
		<tag k="ssr:stedsnr" v="413660" />
	</node>
	<node lat="68.1649416683841" lon="13.322861110923203" id="-10923">
		<tag k="name" v="Moltmyra" />
		<tag k="natural" v="wetland" />
		<tag k="ssr:stedsnr" v="595087" />
	</node>
	<node lat="68.03921944207406" lon="13.143083322977967" id="-10928">
=======
	<node id="-187876" lat="68.0936055555" lon="13.0869805556">
		<tag k="name" v="Mikkjelskarura" />
		<tag k="natural" v="scree" />
		<tag k="ssr:stedsnr" v="50981" />
	</node>
	<node id="-188258" lat="68.0689944469" lon="13.2318138985">
		<tag k="name" v="Brottakselmyra" />
		<tag k="natural" v="wetland" />
		<tag k="ssr:stedsnr" v="595632" />
	</node>
	<node id="-187617" lat="68.0208277779" lon="13.2617333413">
		<tag k="name" v="Litlura" />
		<tag k="natural" v="scree" />
		<tag k="ssr:stedsnr" v="717110" />
	</node>
	<node id="-188383" lat="68.101908337" lon="13.2962888822">
		<tag k="name" v="Flakstadura" />
		<tag k="natural" v="scree" />
		<tag k="ssr:stedsnr" v="837248" />
	</node>
	<node id="-188253" lat="68.0392194421" lon="13.143083323">
>>>>>>> e1d4bc35ff8a6074a6f2e91616a996b547c36f15
		<tag k="name" v="Storbåtsteinen" />
		<tag k="natural" v="stone" />
		<tag k="ssr:stedsnr" v="595363" />
	</node>
<<<<<<< HEAD
	<node lat="68.06899444692723" lon="13.231813898476819" id="-10932">
		<tag k="name" v="Brottakselmyra" />
		<tag k="natural" v="wetland" />
		<tag k="ssr:stedsnr" v="595632" />
	</node>
	<node lat="68.10841389231811" lon="13.074591674072988" id="-10966">
		<tag k="name" v="Skarvura" />
		<tag k="natural" v="scree" />
		<tag k="ssr:stedsnr" v="656180" />
	</node>
	<node lat="68.08243055636838" lon="13.121600002496285" id="-10972">
		<tag k="name" v="Skjettendikan" />
		<tag k="natural" v="wetland" />
		<tag k="ssr:stedsnr" v="656873" />
	</node>
	<node lat="68.14345277933948" lon="13.32115555999894" id="-10986">
		<tag k="name" v="Blåura" />
		<tag k="natural" v="scree" />
		<tag k="ssr:stedsnr" v="717456" />
	</node>
	<node lat="68.0755055549527" lon="13.223011100170975" id="-11030">
		<tag k="name" v="Brottmyra" />
		<tag k="natural" v="wetland" />
		<tag k="ssr:stedsnr" v="777649" />
	</node>
	<node lat="68.12756110683732" lon="13.440094451108132" id="-11078">
		<tag k="name" v="Skjellsteinen" />
		<tag k="natural" v="stone" />
		<tag k="ssr:stedsnr" v="810001" />
	</node>
	<node lat="68.13698611467372" lon="13.422594434604013" id="-11080">
		<tag k="name" v="Sanduran" />
		<tag k="natural" v="scree" />
		<tag k="ssr:stedsnr" v="810025" />
	</node>
	<node lat="68.10190833697382" lon="13.296288882160491" id="-11084">
		<tag k="name" v="Flakstadura" />
=======
	<node id="-188380" lat="68.1275611068" lon="13.4400944511">
		<tag k="name" v="Skjellsteinen" />
		<tag k="natural" v="stone" />
		<tag k="ssr:stedsnr" v="810001" />
	</node>
	<node id="-187529" lat="68.1249222242" lon="13.4325305558">
		<tag k="name" v="Middagssteinen" />
		<tag k="natural" v="stone" />
		<tag k="ssr:stedsnr" v="502878" />
	</node>
	<node id="-188388" lat="68.1633416633" lon="13.3286111047">
		<tag k="name" v="Kvitura" />
		<tag k="natural" v="scree" />
		<tag k="ssr:stedsnr" v="838132" />
	</node>
	<node id="-188246" lat="68.1649416684" lon="13.3228611109">
		<tag k="name" v="Moltmyra" />
		<tag k="natural" v="wetland" />
		<tag k="ssr:stedsnr" v="595087" />
	</node>
	<node id="-187477" lat="68.0402694452" lon="13.1446361068">
		<tag k="name" v="Litlbåtsteinen" />
		<tag k="natural" v="stone" />
		<tag k="ssr:stedsnr" v="292359" />
	</node>
	<node id="-187860" lat="68.004802776" lon="13.2697166713">
		<tag k="name" v="Harvollen" />
		<tag k="place" v="locality" />
		<tag k="ssr:stedsnr" v="49873" />
	</node>
	<node id="-187984" lat="68.1017833348" lon="13.2316111096">
		<tag k="name" v="Skarvsteinen" />
		<tag k="natural" v="stone" />
		<tag k="ssr:stedsnr" v="171189" />
	</node>
	<node id="-187850" lat="68.1374527739" lon="13.3245472238">
		<tag k="name" v="Kinnsteinen" />
		<tag k="natural" v="stone" />
		<tag k="ssr:stedsnr" v="49368" />
	</node>
	<node id="-187336" lat="68.0539083357" lon="13.3524083218">
		<tag k="name" v="Klokkarura" />
		<tag k="natural" v="scree" />
		<tag k="ssr:stedsnr" v="50464" />
	</node>
	<node id="-187970" lat="68.06746944" lon="13.3318861193">
		<tag k="name" v="Pottan" />
		<tag k="natural" v="wetland" />
		<tag k="ssr:stedsnr" v="170575" />
	</node>
	<node id="-187710" lat="68.1579694402" lon="13.3173194513">
		<tag k="name" v="Mjånesura" />
		<tag k="natural" v="scree" />
		<tag k="ssr:stedsnr" v="777457" />
	</node>
	<node id="-187837" lat="68.0831138871" lon="13.2843500049">
		<tag k="name" v="Langnesura" />
>>>>>>> e1d4bc35ff8a6074a6f2e91616a996b547c36f15
		<tag k="natural" v="scree" />
		<tag k="ssr:stedsnr" v="837248" />
	</node>
<<<<<<< HEAD
	<node lat="68.09049166364005" lon="13.33734721781001" id="-11103">
		<tag k="name" v="Båtsteinen" />
		<tag k="natural" v="stone" />
		<tag k="ssr:stedsnr" v="838795" />
	</node>
	<node lat="68.00381667127266" lon="13.267086106250206" id="-11106">
		<tag k="name" v="Hellmyra" />
=======
	<node id="-187418" lat="67.9725361098" lon="13.1760305584">
		<tag k="name" v="Børsura" />
		<tag k="natural" v="scree" />
		<tag k="ssr:stedsnr" v="292944" />
	</node>
	<node id="-187881" lat="68.0230472228" lon="13.3284916585">
		<tag k="alt_name" v="Hessurda" />
		<tag k="name" v="Hessura" />
		<tag k="natural" v="scree" />
		<tag k="ssr:stedsnr" v="77577" />
	</node>
	<node id="-188341" lat="68.075505555" lon="13.2230111002">
		<tag k="name" v="Brottmyra" />
>>>>>>> e1d4bc35ff8a6074a6f2e91616a996b547c36f15
		<tag k="natural" v="wetland" />
		<tag k="ssr:stedsnr" v="838994" />
	</node>
<<<<<<< HEAD
	<node lat="68.08711944038845" lon="13.138141675110552" id="-11113">
		<tag k="name" v="Olaneset" />
		<tag k="place" v="locality" />
		<tag k="ssr:stedsnr" v="839848" />
	</node>
	<node lat="68.03495277735882" lon="13.066872233680972" id="-11155">
		<tag k="name" v="Skarsteinen" />
		<tag k="natural" v="stone" />
		<tag k="ssr:stedsnr" v="958374" />
=======
	<node id="-187316" lat="68.02363889" lon="13.2253777875">
		<tag k="name" v="Ingerura" />
		<tag k="natural" v="scree" />
		<tag k="ssr:stedsnr" v="231144" />
>>>>>>> e1d4bc35ff8a6074a6f2e91616a996b547c36f15
	</node>
	<node id="-188464" lat="68.1463083343" lon="13.4455527881">
		<tag k="name" v="Litlsandnesjorda" />
		<tag k="natural" v="wetland" />
		<tag k="ssr:stedsnr" v="959286" />
	</node>
	<node id="-187694" lat="68.0601805568" lon="13.1428666732">
		<tag k="name" v="Krystadmyran" />
		<tag k="natural" v="wetland" />
		<tag k="ssr:stedsnr" v="899642" />
	</node>
	<node id="-187421" lat="68.0571138844" lon="13.0172222269">
		<tag k="alt_name" v="Ulvurda" />
		<tag k="name" v="Ulvura" />
		<tag k="natural" v="scree" />
		<tag k="ssr:stedsnr" v="199002" />
	</node>
	<node id="-188457" lat="68.0349527774" lon="13.0668722337">
		<tag k="name" v="Skarsteinen" />
		<tag k="natural" v="stone" />
		<tag k="ssr:stedsnr" v="958374" />
	</node>
	<node id="-187303" lat="68.1373250017" lon="13.3672805564">
		<tag k="name" v="Skardmyra" />
		<tag k="natural" v="wetland" />
		<tag k="ssr:stedsnr" v="17818" />
	</node>
	<node id="-187814" lat="68.1192916646" lon="13.3655416684">
		<tag k="alt_name" v="Storurda" />
		<tag k="name" v="Storura" />
		<tag k="natural" v="scree" />
		<tag k="ssr:stedsnr" v="17883" />
	</node>
	<node id="-188067" lat="68.1604500036" lon="13.3602833301">
		<tag k="name" v="Storjorda" />
		<tag k="place" v="locality" />
		<tag k="ssr:stedsnr" v="352436" />
	</node>
	<node id="-187681" lat="68.1664333298" lon="13.3432916729">
		<tag k="name" v="Hornura" />
		<tag k="natural" v="scree" />
		<tag k="ssr:stedsnr" v="899091" />
	</node>
	<node id="-188192" lat="68.1612055516" lon="13.3675861095">
		<tag k="name" v="Grindsteinan" />
		<tag k="natural" v="stone" />
		<tag k="ssr:stedsnr" v="535068" />
	</node>
	<node id="-188016" lat="68.1387166651" lon="13.4565166668">
		<tag k="name" v="Holmjorda" />
		<tag k="place" v="locality" />
		<tag k="ssr:stedsnr" v="203012" />
	</node>
	<node id="-187678" lat="68.0266472188" lon="13.0753777677">
		<tag k="name" v="Roparsteinen" />
		<tag k="natural" v="stone" />
		<tag k="ssr:stedsnr" v="898341" />
	</node>
	<node id="-188061" lat="68.1407722194" lon="13.3211194551">
		<tag k="name" v="Larsmarka" />
		<tag k="place" v="locality" />
		<tag k="ssr:stedsnr" v="352302" />
	</node>
	<node id="-187547" lat="68.1084138923" lon="13.0745916741">
		<tag k="name" v="Skarvura" />
		<tag k="natural" v="scree" />
		<tag k="ssr:stedsnr" v="656180" />
	</node>
	<node id="-188186" lat="68.0594694485" lon="13.0842305576">
		<tag k="name" v="Øvermarka" />
		<tag k="place" v="locality" />
		<tag k="ssr:stedsnr" v="534685" />
	</node>
	<node id="-187417" lat="67.9848000008" lon="13.1505083438">
		<tag k="name" v="Solbjørnura" />
		<tag k="natural" v="scree" />
		<tag k="ssr:stedsnr" v="292942" />
	</node>
	<node id="-187927" lat="68.0910638904" lon="13.1362555538">
		<tag k="name" v="Toftan" />
		<tag k="place" v="locality" />
		<tag k="ssr:stedsnr" v="110868" />
	</node>
	<node id="-187794" lat="68.0530444407" lon="13.2228666566">
		<tag k="name" v="Blåura" />
		<tag k="natural" v="scree" />
		<tag k="ssr:stedsnr" v="947453" />
	</node>
	<node id="-187921" lat="68.0429972186" lon="13.0931694471">
		<tag k="name" v="Selfjordura" />
		<tag k="natural" v="scree" />
		<tag k="ssr:stedsnr" v="110401" />
	</node>
	<node id="-187373" lat="68.1032805531" lon="13.2740500105">
		<tag k="name" v="Hombåren" />
		<tag k="place" v="locality" />
		<tag k="ssr:stedsnr" v="110215" />
	</node>
	<node id="-187404" lat="68.0664972248" lon="13.3508027802">
		<tag k="name" v="Pustarsteinen" />
		<tag k="natural" v="stone" />
		<tag k="ssr:stedsnr" v="292563" />
	</node>
	<node id="-188041" lat="68.0693222209" lon="13.4057638904">
		<tag k="name" v="Myran" />
		<tag k="natural" v="wetland" />
		<tag k="ssr:stedsnr" v="320681" />
	</node>
	<node id="-187911" lat="68.1204472186" lon="13.3585527726">
		<tag k="name" v="Leitet" />
		<tag k="place" v="locality" />
		<tag k="ssr:stedsnr" v="110218" />
	</node>
	<node id="-187687" lat="68.0399472231" lon="13.1466722185">
		<tag k="name" v="Saltkaret" />
		<tag k="natural" v="stone" />
		<tag k="ssr:stedsnr" v="899390" />
	</node>
	<node id="-188036" lat="68.0103194469" lon="13.2604222195">
		<tag k="alt_name" v="Sætrene" />
		<tag k="historic" v="shieling" />
		<tag k="name" v="Sætern" />
		<tag k="place" v="locality" />
		<tag k="ssr:stedsnr" v="320495" />
	</node>
	<node id="-187478" lat="68.0089083331" lon="13.2953916742">
		<tag k="name" v="Øvremarka" />
		<tag k="place" v="locality" />
		<tag k="ssr:stedsnr" v="292977" />
	</node>
	<node id="-188417" lat="68.0871194404" lon="13.1381416751">
		<tag k="name" v="Olaneset" />
		<tag k="place" v="locality" />
		<tag k="ssr:stedsnr" v="839848" />
	</node>
</osm>
