<?xml version="1.0" encoding="UTF-8"?>
<osm generator="osmapis" version="0.6">
	<node id="-23828" lat="68.0934166692" lon="13.1430166765">
		<tag k="name" v="Revvan" />
		<tag k="place" v="locality" />
		<tag k="ssr:stedsnr" v="960834" />
	</node>
	<node id="-23825" lat="68.0958222182" lon="13.1690833287">
		<tag k="fixme" v="consider natural=peak for the most distinct mountains in the district" />
		<tag k="name" v="Kjellsberget" />
		<tag k="natural" v="hill" />
		<tag k="place" v="locality" />
		<tag k="ssr:stedsnr" v="960829" />
	</node>
	<node id="-23824" lat="68.0878111146" lon="13.1856388809">
		<tag k="name" v="Pattmoan" />
		<tag k="place" v="locality" />
		<tag k="ssr:stedsnr" v="960825" />
	</node>
	<node id="-23822" lat="68.046675002" lon="13.2653944545">
		<tag k="name" v="Tåfallen" />
		<tag k="natural" v="slope" />
		<tag k="place" v="locality" />
		<tag k="ssr:stedsnr" v="960450" />
	</node>
	<node id="-23819" lat="68.134633334" lon="13.3165250085">
		<tag k="name" v="Litlheia" />
		<tag k="natural" v="hill" />
		<tag k="place" v="locality" />
		<tag k="ssr:stedsnr" v="960292" />
	</node>
	<node id="-23816" lat="68.0087250018" lon="13.3057972294">
		<tag k="name" v="Risegryten" />
		<tag k="natural" v="valley" />
		<tag k="place" v="locality" />
		<tag k="ssr:stedsnr" v="959975" />
	</node>
	<node id="-23815" lat="68.0074944452" lon="13.2665888834">
		<tag k="name" v="Neslandsaksla" />
		<tag k="natural" v="ridge" />
		<tag k="place" v="locality" />
		<tag k="ssr:stedsnr" v="959873" />
	</node>
	<node id="-23813" lat="68.0750444484" lon="13.2483194485">
		<tag k="name" v="Småliskogen" />
		<tag k="natural" v="slope" />
		<tag k="place" v="locality" />
		<tag k="ssr:stedsnr" v="959623" />
	</node>
	<node id="-23811" lat="68.0717916646" lon="13.385561105">
		<tag k="name" v="Svaen" />
		<tag k="natural" v="cliff" />
		<tag k="ssr:stedsnr" v="959578" />
	</node>
	<node id="-23810" lat="68.0690166687" lon="13.3395194407">
		<tag k="name" v="Himmelvasshågen" />
		<tag k="natural" v="hill" />
		<tag k="place" v="locality" />
		<tag k="ssr:stedsnr" v="959552" />
	</node>
	<node id="-23809" lat="68.0678527785" lon="13.3083360997">
		<tag k="name" v="Aksla" />
		<tag k="natural" v="ridge" />
		<tag k="place" v="locality" />
		<tag k="ssr:stedsnr" v="959547" />
	</node>
	<node id="-23807" lat="68.0427916694" lon="13.0699333426">
		<tag k="name" v="Sanaksla" />
		<tag k="natural" v="ridge" />
		<tag k="place" v="locality" />
		<tag k="ssr:stedsnr" v="959354" />
	</node>
	<node id="-23806" lat="68.1548555519" lon="13.4130416649">
		<tag k="name" v="Huldkjerkbergan" />
		<tag k="natural" v="cliff" />
		<tag k="ssr:stedsnr" v="959288" />
	</node>
	<node id="-23804" lat="68.1367750043" lon="13.3154750043">
		<tag k="name" v="Vasshalsen" />
		<tag k="natural" v="ridge" />
		<tag k="place" v="locality" />
		<tag k="ssr:stedsnr" v="959274" />
	</node>
	<node id="-23802" lat="68.0272666669" lon="13.1948083399">
		<tag k="name" v="Laukhammarheia" />
		<tag k="natural" v="hill" />
		<tag k="place" v="locality" />
		<tag k="ssr:stedsnr" v="959142" />
	</node>
	<node id="-23801" lat="68.0291416676" lon="13.208691659">
		<tag k="name" v="Stjerndalskneet" />
		<tag k="natural" v="ridge" />
		<tag k="place" v="locality" />
		<tag k="ssr:stedsnr" v="959136" />
	</node>
	<node id="-23797" lat="68.1060027736" lon="13.4059583318">
		<tag k="name" v="Andopsdalen" />
		<tag k="natural" v="valley" />
		<tag k="place" v="locality" />
		<tag k="ssr:stedsnr" v="958146" />
	</node>
	<node id="-23794" lat="68.0681611152" lon="13.1138444464">
		<tag k="name" v="Trollhauet" />
		<tag k="natural" v="hill" />
		<tag k="place" v="locality" />
		<tag k="ssr:stedsnr" v="957776" />
	</node>
	<node id="-23788" lat="68.1362305598" lon="13.3468500096">
		<tag k="fixme" v="consider natural=peak for the most distinct mountains in the district" />
		<tag k="name" v="Tindliheia" />
		<tag k="natural" v="hill" />
		<tag k="place" v="locality" />
		<tag k="ssr:stedsnr" v="867820" />
	</node>
	<node id="-23786" lat="68.0597250005" lon="13.3303027829">
		<tag k="fixme" v="consider natural=peak for the most distinct mountains in the district" />
		<tag k="name" v="Vasshalsen" />
		<tag k="natural" v="hill" />
		<tag k="place" v="locality" />
		<tag k="ssr:stedsnr" v="867723" />
	</node>
	<node id="-23785" lat="68.0596888933" lon="13.3764638813">
		<tag k="fixme" v="consider natural=peak for the most distinct mountains in the district" />
		<tag k="name" v="Klokka fem" />
		<tag k="natural" v="hill" />
		<tag k="place" v="locality" />
		<tag k="ssr:stedsnr" v="867720" />
	</node>
	<node id="-23781" lat="68.0460361125" lon="13.0636722113">
		<tag k="name" v="Stormarkdalen" />
		<tag k="natural" v="valley" />
		<tag k="place" v="locality" />
		<tag k="ssr:stedsnr" v="867032" />
	</node>
	<node id="-23777" lat="68.1197500033" lon="13.4203750124">
		<tag k="name" v="Sivassfloget" />
		<tag k="natural" v="hill" />
		<tag k="place" v="locality" />
		<tag k="ssr:stedsnr" v="866863" />
	</node>
	<node id="-23776" lat="68.1249805541" lon="13.3498500079">
		<tag k="fixme" v="consider natural=peak for the most distinct mountains in the district" />
		<tag k="name" v="Rishammarknubben" />
		<tag k="natural" v="hill" />
		<tag k="place" v="locality" />
		<tag k="ssr:stedsnr" v="866858" />
	</node>
	<node id="-23775" lat="68.0997583352" lon="13.3721444493">
		<tag k="fixme" v="consider natural=peak for the most distinct mountains in the district" />
		<tag k="name" v="Andopshesten" />
		<tag k="natural" v="hill" />
		<tag k="place" v="locality" />
		<tag k="ssr:stedsnr" v="866822" />
	</node>
	<node id="-23774" lat="68.1343083351" lon="13.4120527744">
		<tag k="fixme" v="consider natural=peak for the most distinct mountains in the district" />
		<tag k="name" v="Sihamra" />
		<tag k="natural" v="hill" />
		<tag k="place" v="locality" />
		<tag k="ssr:stedsnr" v="866764" />
	</node>
	<node id="-23769" lat="68.0656555528" lon="13.3699333284">
		<tag k="fixme" v="consider natural=peak for the most distinct mountains in the district" />
		<tag k="name" v="Klokka åtte" />
		<tag k="natural" v="hill" />
		<tag k="place" v="locality" />
		<tag k="ssr:stedsnr" v="866669" />
	</node>
	<node id="-23764" lat="68.0148194437" lon="13.0717194514">
		<tag k="alt_name" v="Laukvikskardet" />
		<tag k="name" v="Laukvikskaret" />
		<tag k="natural" v="valley" />
		<tag k="place" v="locality" />
		<tag k="ssr:stedsnr" v="866029" />
	</node>
	<node id="-23763" lat="68.014383336" lon="13.1452500081">
		<tag k="fixme" v="consider natural=peak for the most distinct mountains in the district" />
		<tag k="name" v="Tekoppstetten" />
		<tag k="natural" v="hill" />
		<tag k="place" v="locality" />
		<tag k="ssr:stedsnr" v="866027" />
	</node>
	<node id="-23761" lat="68.1033888859" lon="13.1286111039">
		<tag k="fixme" v="consider natural=peak for the most distinct mountains in the district" />
		<tag k="name" v="Røren" />
		<tag k="natural" v="hill" />
		<tag k="place" v="locality" />
		<tag k="ssr:stedsnr" v="866200" />
	</node>
	<node id="-23753" lat="68.0472611125" lon="13.3468138991">
		<tag k="name" v="Litljokken" />
		<tag k="natural" v="hill" />
		<tag k="place" v="locality" />
		<tag k="ssr:stedsnr" v="839496" />
	</node>
	<node id="-23751" lat="68.1055861084" lon="13.3104972228">
		<tag k="name" v="Likhammaren" />
		<tag k="natural" v="hill" />
		<tag k="place" v="locality" />
		<tag k="ssr:stedsnr" v="839244" />
	</node>
	<node id="-23750" lat="68.1047583298" lon="13.235047223">
		<tag k="name" v="Sauskjulet" />
		<tag k="natural" v="valley" />
		<tag k="place" v="locality" />
		<tag k="ssr:stedsnr" v="839217" />
	</node>
	<node id="-23748" lat="68.1012805584" lon="13.1284583307">
		<tag k="name" v="Rannifallet" />
		<tag k="natural" v="cliff" />
		<tag k="ssr:stedsnr" v="839187" />
	</node>
	<node id="-23744" lat="68.0102000045" lon="13.3121666613">
		<tag k="name" v="Brattbergan" />
		<tag k="natural" v="cliff" />
		<tag k="ssr:stedsnr" v="838976" />
	</node>
	<node id="-23743" lat="67.9803472226" lon="13.0735444363">
		<tag k="fixme" v="consider natural=peak for the most distinct mountains in the district" />
		<tag k="name" v="Litlklokktinden" />
		<tag k="natural" v="hill" />
		<tag k="ssr:stedsnr" v="838960" />
	</node>
	<node id="-23742" lat="68.0131750043" lon="13.2723916635">
		<tag k="fixme" v="consider natural=peak for the most distinct mountains in the district" />
		<tag k="name" v="Puktinden" />
		<tag k="natural" v="hill" />
		<tag k="ssr:stedsnr" v="838899" />
	</node>
	<node id="-23740" lat="68.0735000011" lon="13.1044166566">
		<tag k="fixme" v="consider natural=peak for the most distinct mountains in the district" />
		<tag k="name" v="Risebåten" />
		<tag k="natural" v="hill" />
		<tag k="ssr:stedsnr" v="838676" />
	</node>
	<node id="-23738" lat="68.0713944483" lon="13.3379722295">
		<tag k="name" v="Rishågen" />
		<tag k="natural" v="hill" />
		<tag k="place" v="locality" />
		<tag k="ssr:stedsnr" v="838606" />
	</node>
	<node id="-23736" lat="68.0523277792" lon="13.1144472128">
		<tag k="name" v="Halsan" />
		<tag k="natural" v="hill" />
		<tag k="place" v="locality" />
		<tag k="ssr:stedsnr" v="838595" />
	</node>
	<node id="-23735" lat="68.0652472257" lon="13.2257444424">
		<tag k="name" v="Brottaksla" />
		<tag k="natural" v="ridge" />
		<tag k="place" v="locality" />
		<tag k="ssr:stedsnr" v="838674" />
	</node>
	<node id="-23734" lat="68.0631583332" lon="13.222411113">
		<tag k="name" v="Torvdalen" />
		<tag k="natural" v="valley" />
		<tag k="place" v="locality" />
		<tag k="ssr:stedsnr" v="838672" />
	</node>
	<node id="-23733" lat="68.0376749959" lon="13.3368944526">
		<tag k="name" v="Sommarfjøsbakkan" />
		<tag k="natural" v="slope" />
		<tag k="place" v="locality" />
		<tag k="ssr:stedsnr" v="838520" />
	</node>
	<node id="-23732" lat="68.0365555587" lon="13.1629694402">
		<tag k="name" v="Telsbergan" />
		<tag k="natural" v="cliff" />
		<tag k="ssr:stedsnr" v="838468" />
	</node>
	<node id="-23731" lat="68.1398499989" lon="13.3174833361">
		<tag k="name" v="Bakkan" />
		<tag k="natural" v="slope" />
		<tag k="place" v="locality" />
		<tag k="ssr:stedsnr" v="838347" />
	</node>
	<node id="-23730" lat="68.0252694481" lon="13.2725611098">
		<tag k="name" v="Ramnlidalen" />
		<tag k="natural" v="valley" />
		<tag k="place" v="locality" />
		<tag k="ssr:stedsnr" v="838146" />
	</node>
	<node id="-23728" lat="68.1636361131" lon="13.3444805599">
		<tag k="name" v="Stigelhågen" />
		<tag k="natural" v="ridge" />
		<tag k="place" v="locality" />
		<tag k="ssr:stedsnr" v="838093" />
	</node>
	<node id="-23727" lat="68.0814194442" lon="13.2405027771">
		<tag k="name" v="Nyskreda" />
		<tag k="natural" v="cliff" />
		<tag k="ssr:stedsnr" v="837794" />
	</node>
	<node id="-23726" lat="68.022091664" lon="13.1071666746">
		<tag k="name" v="Snydalslia" />
		<tag k="natural" v="slope" />
		<tag k="place" v="locality" />
		<tag k="ssr:stedsnr" v="837348" />
	</node>
	<node id="-23719" lat="68.1462805581" lon="13.3630805445">
		<tag k="name" v="Middagsdalen" />
		<tag k="natural" v="valley" />
		<tag k="place" v="locality" />
		<tag k="ssr:stedsnr" v="806948" />
	</node>
	<node id="-23716" lat="68.071247218" lon="13.2696861214">
		<tag k="fixme" v="consider natural=peak for the most distinct mountains in the district" />
		<tag k="name" v="Stabben" />
		<tag k="natural" v="hill" />
		<tag k="place" v="locality" />
		<tag k="ssr:stedsnr" v="806744" />
	</node>
	<node id="-23715" lat="68.0500416708" lon="13.2726611205">
		<tag k="alt_name" v="Perhansadalen" />
		<tag k="name" v="Per-Hansadalen" />
		<tag k="natural" v="valley" />
		<tag k="place" v="locality" />
		<tag k="ssr:stedsnr" v="806739" />
	</node>
	<node id="-23714" lat="68.0929499973" lon="13.3134999921">
		<tag k="name" v="Piltbenkan" />
		<tag k="natural" v="slope" />
		<tag k="place" v="locality" />
		<tag k="ssr:stedsnr" v="806693" />
	</node>
	<node id="-23713" lat="68.0869888865" lon="13.2900750004">
		<tag k="name" v="Slettan" />
		<tag k="place" v="locality" />
		<tag k="ssr:stedsnr" v="806643" />
	</node>
	<node id="-23709" lat="68.0861805529" lon="13.2364277697">
		<tag k="name" v="Nubben" />
		<tag k="natural" v="hill" />
		<tag k="place" v="locality" />
		<tag k="ssr:stedsnr" v="806625" />
	</node>
	<node id="-23707" lat="68.0309333335" lon="13.3060694535">
		<tag k="fixme" v="consider natural=peak for the most distinct mountains in the district" />
		<tag k="name" v="Mosestinden" />
		<tag k="natural" v="hill" />
		<tag k="place" v="locality" />
		<tag k="ssr:stedsnr" v="806539" />
	</node>
	<node id="-23706" lat="68.0193027775" lon="13.2624472212">
		<tag k="name" v="Trollhamran" />
		<tag k="natural" v="hill" />
		<tag k="place" v="locality" />
		<tag k="ssr:stedsnr" v="806532" />
	</node>
	<node id="-23704" lat="67.9990083349" lon="13.2341027891">
		<tag k="name" v="Nilsberget" />
		<tag k="natural" v="hill" />
		<tag k="place" v="locality" />
		<tag k="ssr:stedsnr" v="806495" />
	</node>
	<node id="-23702" lat="67.9844772293" lon="13.1203043667">
		<tag k="alt_name" v="Målhøgtinden" />
		<tag k="fixme" v="consider natural=peak for the most distinct mountains in the district" />
		<tag k="name" v="Molhøgtinden" />
		<tag k="natural" v="hill" />
		<tag k="place" v="locality" />
		<tag k="ssr:stedsnr" v="806428" />
	</node>
	<node id="-23697" lat="68.0470000041" lon="13.2176055618">
		<tag k="fixme" v="multiple name tags, choose one and add the other to alt_name" />
		<tag k="name" v="Blåfjellkammen;Blåmannen" />
		<tag k="natural" v="hill" />
		<tag k="place" v="locality" />
		<tag k="ssr:stedsnr" v="806033" />
	</node>
	<node id="-23695" lat="68.0706805591" lon="13.2110416678">
		<tag k="fixme" v="consider natural=peak for the most distinct mountains in the district" />
		<tag k="name" v="Volandstinden" />
		<tag k="natural" v="hill" />
		<tag k="place" v="locality" />
		<tag k="ssr:stedsnr" v="806014" />
	</node>
	<node id="-23692" lat="68.1336527769" lon="13.4276138851">
		<tag k="name" v="Kjølberget" />
		<tag k="natural" v="hill" />
		<tag k="place" v="locality" />
		<tag k="ssr:stedsnr" v="805749" />
	</node>
	<node id="-23691" lat="68.0877472176" lon="13.1549888953">
		<tag k="name" v="Børsnova" />
		<tag k="natural" v="ridge" />
		<tag k="place" v="locality" />
		<tag k="ssr:stedsnr" v="778831" />
	</node>
	<node id="-23689" lat="68.1099472185" lon="13.1372416604">
		<tag k="name" v="Storlia" />
		<tag k="natural" v="slope" />
		<tag k="place" v="locality" />
		<tag k="ssr:stedsnr" v="778289" />
	</node>
	<node id="-23688" lat="68.1043611119" lon="13.12174445">
		<tag k="name" v="Durmålstuva" />
		<tag k="natural" v="ridge" />
		<tag k="place" v="locality" />
		<tag k="ssr:stedsnr" v="778288" />
	</node>
	<node id="-23687" lat="68.1084722242" lon="13.1285749895">
		<tag k="name" v="Mulstøheia" />
		<tag k="natural" v="hill" />
		<tag k="place" v="locality" />
		<tag k="ssr:stedsnr" v="778285" />
	</node>
	<node id="-23685" lat="67.9923111091" lon="13.2234638773">
		<tag k="name" v="Skarvhågen" />
		<tag k="natural" v="hill" />
		<tag k="place" v="locality" />
		<tag k="ssr:stedsnr" v="777995" />
	</node>
	<node id="-23684" lat="67.9886472231" lon="13.1533416641">
		<tag k="name" v="Litlsolbjørn" />
		<tag k="natural" v="hill" />
		<tag k="place" v="locality" />
		<tag k="ssr:stedsnr" v="777962" />
	</node>
	<node id="-23679" lat="68.0735083324" lon="13.3245249966">
		<tag k="name" v="Holthågen" />
		<tag k="natural" v="hill" />
		<tag k="place" v="locality" />
		<tag k="ssr:stedsnr" v="777600" />
	</node>
	<node id="-23678" lat="68.0575777792" lon="13.3968250047">
		<tag k="name" v="Notbergan" />
		<tag k="natural" v="cliff" />
		<tag k="ssr:stedsnr" v="777591" />
	</node>
	<node id="-23677" lat="68.1505555557" lon="13.3171444528">
		<tag k="name" v="Skreda" />
		<tag k="natural" v="cliff" />
		<tag k="ssr:stedsnr" v="777434" />
	</node>
	<node id="-23676" lat="68.0360138929" lon="13.1743472342">
		<tag k="name" v="Hesthellaren" />
		<tag k="place" v="locality" />
		<tag k="ssr:stedsnr" v="777429" />
	</node>
	<node id="-23675" lat="68.1430111141" lon="13.362105546">
		<tag k="name" v="Hestvollheia" />
		<tag k="natural" v="hill" />
		<tag k="place" v="locality" />
		<tag k="ssr:stedsnr" v="777428" />
	</node>
	<node id="-23674" lat="68.0561027779" lon="13.2134472223">
		<tag k="name" v="Svartdalsheia" />
		<tag k="natural" v="hill" />
		<tag k="place" v="locality" />
		<tag k="ssr:stedsnr" v="777381" />
	</node>
	<node id="-23672" lat="68.0556055554" lon="13.184972213">
		<tag k="name" v="Heimerdalen" />
		<tag k="natural" v="valley" />
		<tag k="place" v="locality" />
		<tag k="ssr:stedsnr" v="777373" />
	</node>
	<node id="-23671" lat="68.0474555602" lon="13.1867111051">
		<tag k="name" v="Vardeheia" />
		<tag k="natural" v="hill" />
		<tag k="place" v="locality" />
		<tag k="ssr:stedsnr" v="777370" />
	</node>
	<node id="-23670" lat="68.0777277747" lon="13.3566472113">
		<tag k="name" v="Svartberget" />
		<tag k="natural" v="cliff" />
		<tag k="ssr:stedsnr" v="777581" />
	</node>
	<node id="-23669" lat="68.0599666688" lon="13.3321611195">
		<tag k="name" v="Vinterveien" />
		<tag k="natural" v="ridge" />
		<tag k="place" v="locality" />
		<tag k="ssr:stedsnr" v="777573" />
	</node>
	<node id="-23667" lat="68.1471000042" lon="13.3886722135">
		<tag k="name" v="Skarbrekka" />
		<tag k="natural" v="ridge" />
		<tag k="place" v="locality" />
		<tag k="ssr:stedsnr" v="777314" />
	</node>
	<node id="-23665" lat="68.094813892" lon="13.25403333">
		<tag k="name" v="Øvertuva" />
		<tag k="natural" v="ridge" />
		<tag k="place" v="locality" />
		<tag k="ssr:stedsnr" v="776798" />
	</node>
	<node id="-23664" lat="68.0037694477" lon="13.0418277767">
		<tag k="name" v="Grønnesdalen" />
		<tag k="natural" v="valley" />
		<tag k="place" v="locality" />
		<tag k="ssr:stedsnr" v="776353" />
	</node>
	<node id="-23663" lat="68.0322722235" lon="13.0329361132">
		<tag k="name" v="Naklemannsdalen" />
		<tag k="natural" v="valley" />
		<tag k="place" v="locality" />
		<tag k="ssr:stedsnr" v="776338" />
	</node>
	<node id="-23662" lat="68.0382472264" lon="13.3892527765">
		<tag k="name" v="Dalen" />
		<tag k="natural" v="valley" />
		<tag k="place" v="locality" />
		<tag k="ssr:stedsnr" v="776336" />
	</node>
	<node id="-23660" lat="68.0560027749" lon="13.2483944528">
		<tag k="name" v="Bråten" />
		<tag k="natural" v="slope" />
		<tag k="place" v="locality" />
		<tag k="ssr:stedsnr" v="765449" />
	</node>
	<node id="-23658" lat="68.1632138892" lon="13.339211117">
		<tag k="name" v="Myrlandsheia" />
		<tag k="natural" v="valley" />
		<tag k="place" v="locality" />
		<tag k="ssr:stedsnr" v="745991" />
	</node>
	<node id="-23656" lat="68.1479249972" lon="13.3159361077">
		<tag k="name" v="Finnkonbakken" />
		<tag k="natural" v="slope" />
		<tag k="place" v="locality" />
		<tag k="ssr:stedsnr" v="745952" />
	</node>
	<node id="-23651" lat="68.0574861089" lon="13.2686027698">
		<tag k="name" v="Nordfjorddalen" />
		<tag k="natural" v="valley" />
		<tag k="place" v="locality" />
		<tag k="ssr:stedsnr" v="745794" />
	</node>
	<node id="-23650" lat="68.08342778" lon="13.3572305586">
		<tag k="name" v="Litltinden" />
		<tag k="natural" v="hill" />
		<tag k="place" v="locality" />
		<tag k="ssr:stedsnr" v="745632" />
	</node>
	<node id="-23649" lat="68.0333555594" lon="13.366374991">
		<tag k="name" v="Sula" />
		<tag k="natural" v="valley" />
		<tag k="place" v="locality" />
		<tag k="ssr:stedsnr" v="745543" />
	</node>
	<node id="-23648" lat="68.0310166695" lon="13.2914361216">
		<tag k="fixme" v="consider natural=peak for the most distinct mountains in the district" />
		<tag k="name" v="Tønsåsheia" />
		<tag k="natural" v="hill" />
		<tag k="place" v="locality" />
		<tag k="ssr:stedsnr" v="745542" />
	</node>
	<node id="-23646" lat="68.110763886" lon="13.3679750069">
		<tag k="fixme" v="multiple name tags, choose one and add the other to alt_name" />
		<tag k="name" v="Andopsbudalen;Budalen" />
		<tag k="natural" v="valley" />
		<tag k="place" v="locality" />
		<tag k="ssr:stedsnr" v="745877" />
	</node>
	<node id="-23645" lat="68.0980722245" lon="13.2930111082">
		<tag k="alt_name" v="Flakstadtindan" />
		<tag k="fixme" v="consider natural=peak for the most distinct mountains in the district" />
		<tag k="name" v="Flakstadtinden" />
		<tag k="natural" v="hill" />
		<tag k="place" v="locality" />
		<tag k="ssr:stedsnr" v="745698" />
	</node>
	<node id="-23639" lat="68.0468138889" lon="13.2092583267">
		<tag k="name" v="Blåfjellet" />
		<tag k="natural" v="hill" />
		<tag k="place" v="locality" />
		<tag k="ssr:stedsnr" v="655381" />
	</node>
	<node id="-23637" lat="68.0905388875" lon="13.238447211">
		<tag k="name" v="Fjellteigen" />
		<tag k="natural" v="cliff" />
		<tag k="ssr:stedsnr" v="643803" />
	</node>
	<node id="-23632" lat="68.0403166634" lon="13.3715916597">
		<tag k="fixme" v="consider natural=peak for the most distinct mountains in the district" />
		<tag k="name" v="Nesheia" />
		<tag k="natural" v="hill" />
		<tag k="place" v="locality" />
		<tag k="ssr:stedsnr" v="624532" />
	</node>
	<node id="-23629" lat="68.1541833331" lon="13.3695861226">
		<tag k="fixme" v="consider natural=peak for the most distinct mountains in the district" />
		<tag k="name" v="Tverrfjellet" />
		<tag k="natural" v="hill" />
		<tag k="place" v="locality" />
		<tag k="ssr:stedsnr" v="623957" />
	</node>
	<node id="-23627" lat="68.0853916663" lon="13.3787000104">
		<tag k="fixme" v="multiple name tags, choose one and add the other to alt_name; consider natural=peak for the most distinct mountains in the district" />
		<tag k="name" v="Hestræva;Moltinden" />
		<tag k="natural" v="hill" />
		<tag k="place" v="locality" />
		<tag k="ssr:stedsnr" v="623883" />
	</node>
	<node id="-23625" lat="68.058777774" lon="13.2196833415">
		<tag k="fixme" v="consider natural=peak for the most distinct mountains in the district" />
		<tag k="name" v="Nesheia" />
		<tag k="natural" v="hill" />
		<tag k="place" v="locality" />
		<tag k="ssr:stedsnr" v="623873" />
	</node>
	<node id="-23623" lat="68.1311805563" lon="13.3453194384">
		<tag k="fixme" v="consider natural=peak for the most distinct mountains in the district" />
		<tag k="name" v="Hustinden" />
		<tag k="natural" v="hill" />
		<tag k="place" v="locality" />
		<tag k="ssr:stedsnr" v="623797" />
	</node>
	<node id="-23619" lat="68.0704916625" lon="13.2791916638">
		<tag k="fixme" v="multiple name tags, choose one and add the other to alt_name; consider natural=peak for the most distinct mountains in the district" />
		<tag k="name" v="Litltinden;Nonstinden" />
		<tag k="natural" v="hill" />
		<tag k="place" v="locality" />
		<tag k="ssr:stedsnr" v="623745" />
	</node>
	<node id="-23618" lat="68.0772388918" lon="13.3077722199">
		<tag k="name" v="Paradiset" />
		<tag k="natural" v="slope" />
		<tag k="place" v="locality" />
		<tag k="ssr:stedsnr" v="623743" />
	</node>
	<node id="-23616" lat="68.0601638896" lon="13.3441722144">
		<tag k="name" v="Sommartuva" />
		<tag k="natural" v="hill" />
		<tag k="place" v="locality" />
		<tag k="ssr:stedsnr" v="623718" />
	</node>
	<node id="-23613" lat="68.0007750012" lon="13.2355361097">
		<tag k="name" v="Kunndalen" />
		<tag k="natural" v="valley" />
		<tag k="place" v="locality" />
		<tag k="ssr:stedsnr" v="623525" />
	</node>
	<node id="-23611" lat="67.9752222253" lon="13.1697444335">
		<tag k="fixme" v="consider natural=peak for the most distinct mountains in the district" />
		<tag k="name" v="Solbjørnaksla" />
		<tag k="natural" v="hill" />
		<tag k="place" v="locality" />
		<tag k="ssr:stedsnr" v="623471" />
	</node>
	<node id="-23603" lat="67.9892583305" lon="13.0948555639">
		<tag k="name" v="Forsandklubben" />
		<tag k="natural" v="ridge" />
		<tag k="place" v="locality" />
		<tag k="ssr:stedsnr" v="595971" />
	</node>
	<node id="-23602" lat="67.9836249969" lon="13.1749555605">
		<tag k="name" v="Storlia" />
		<tag k="natural" v="slope" />
		<tag k="place" v="locality" />
		<tag k="ssr:stedsnr" v="595964" />
	</node>
	<node id="-23601" lat="68.094925001" lon="13.1287250079">
		<tag k="name" v="Brekka" />
		<tag k="natural" v="ridge" />
		<tag k="place" v="locality" />
		<tag k="ssr:stedsnr" v="595962" />
	</node>
	<node id="-23598" lat="68.0593777772" lon="13.1512361181">
		<tag k="name" v="Skaret" />
		<tag k="natural" v="valley" />
		<tag k="place" v="locality" />
		<tag k="ssr:stedsnr" v="595614" />
	</node>
	<node id="-23595" lat="68.0463361097" lon="13.0980138934">
		<tag k="name" v="Kinnan" />
		<tag k="natural" v="slope" />
		<tag k="place" v="locality" />
		<tag k="ssr:stedsnr" v="595377" />
	</node>
	<node id="-23592" lat="68.1375944481" lon="13.363852779">
		<tag k="name" v="Viktendalen" />
		<tag k="natural" v="valley" />
		<tag k="place" v="locality" />
		<tag k="ssr:stedsnr" v="595280" />
	</node>
	<node id="-23591" lat="68.1353222262" lon="13.3198472196">
		<tag k="name" v="Geitellajorda" />
		<tag k="natural" v="slope" />
		<tag k="place" v="locality" />
		<tag k="ssr:stedsnr" v="595278" />
	</node>
	<node id="-23589" lat="68.0249805551" lon="13.1884916758">
		<tag k="name" v="Laukhammaren" />
		<tag k="natural" v="cliff" />
		<tag k="ssr:stedsnr" v="595134" />
	</node>
	<node id="-23588" lat="68.0190083364" lon="13.2814722185">
		<tag k="name" v="Øverlia" />
		<tag k="natural" v="slope" />
		<tag k="place" v="locality" />
		<tag k="ssr:stedsnr" v="595103" />
	</node>
	<node id="-23583" lat="68.099975004" lon="13.3111000088">
		<tag k="name" v="Bromlia" />
		<tag k="natural" v="slope" />
		<tag k="place" v="locality" />
		<tag k="ssr:stedsnr" v="594257" />
	</node>
	<node id="-23581" lat="68.0857138897" lon="13.2471305592">
		<tag k="name" v="Moltindlia" />
		<tag k="natural" v="cliff" />
		<tag k="ssr:stedsnr" v="583819" />
	</node>
	<node id="-23580" lat="68.0881555594" lon="13.2323249918">
		<tag k="name" v="Nausthaugen" />
		<tag k="natural" v="ridge" />
		<tag k="place" v="locality" />
		<tag k="ssr:stedsnr" v="583815" />
	</node>
	<node id="-23579" lat="68.0957833312" lon="13.402708337">
		<tag k="name" v="Svaet" />
		<tag k="place" v="locality" />
		<tag k="ssr:stedsnr" v="582750" />
	</node>
	<node id="-23578" lat="68.0946805552" lon="13.4112694362">
		<tag k="name" v="Moneshammaren" />
		<tag k="natural" v="hill" />
		<tag k="place" v="locality" />
		<tag k="ssr:stedsnr" v="582745" />
	</node>
	<node id="-23577" lat="68.1311305544" lon="13.3825500096">
		<tag k="name" v="Stastuvbakkan" />
		<tag k="natural" v="slope" />
		<tag k="place" v="locality" />
		<tag k="ssr:stedsnr" v="567010" />
	</node>
	<node id="-23576" lat="68.1419638885" lon="13.4485749957">
		<tag k="name" v="Litlsandnesdalen" />
		<tag k="natural" v="valley" />
		<tag k="place" v="locality" />
		<tag k="ssr:stedsnr" v="567002" />
	</node>
	<node id="-23574" lat="68.1100750014" lon="13.3784861061">
		<tag k="name" v="Budalsskardet" />
		<tag k="natural" v="valley" />
		<tag k="place" v="locality" />
		<tag k="ssr:stedsnr" v="563866" />
	</node>
	<node id="-23573" lat="68.1413166673" lon="13.4297416556">
		<tag k="name" v="Djupdalen" />
		<tag k="natural" v="valley" />
		<tag k="place" v="locality" />
		<tag k="ssr:stedsnr" v="563813" />
	</node>
	<node id="-23569" lat="67.9799884324" lon="13.1288654491">
		<tag k="fixme" v="consider natural=peak for the most distinct mountains in the district" />
		<tag k="name" v="Bukkskinntinden" />
		<tag k="natural" v="hill" />
		<tag k="place" v="locality" />
		<tag k="ssr:stedsnr" v="563434" />
	</node>
	<node id="-23564" lat="68.1301166627" lon="13.3263888999">
		<tag k="alt_name" v="Rødliheia" />
		<tag k="fixme" v="consider natural=peak for the most distinct mountains in the district" />
		<tag k="name" v="Rørliheia" />
		<tag k="natural" v="hill" />
		<tag k="place" v="locality" />
		<tag k="ssr:stedsnr" v="562769" />
	</node>
	<node id="-23561" lat="68.0665555535" lon="13.397313885">
		<tag k="name" v="Landet" />
		<tag k="natural" v="hill" />
		<tag k="place" v="locality" />
		<tag k="ssr:stedsnr" v="562674" />
	</node>
	<node id="-23552" lat="68.1481777742" lon="13.3919194348">
		<tag k="name" v="Sandnesskaret" />
		<tag k="natural" v="valley" />
		<tag k="place" v="locality" />
		<tag k="ssr:stedsnr" v="562943" />
	</node>
	<node id="-23548" lat="68.0090138881" lon="13.087330551">
		<tag k="name" v="Floget" />
		<tag k="natural" v="cliff" />
		<tag k="ssr:stedsnr" v="535919" />
	</node>
	<node id="-23547" lat="68.0050750029" lon="13.286411118">
		<tag k="name" v="Storaksla" />
		<tag k="natural" v="ridge" />
		<tag k="place" v="locality" />
		<tag k="ssr:stedsnr" v="535873" />
	</node>
	<node id="-23544" lat="68.0805305532" lon="13.1561139">
		<tag k="name" v="Storhågen" />
		<tag k="natural" v="hill" />
		<tag k="place" v="locality" />
		<tag k="ssr:stedsnr" v="535826" />
	</node>
	<node id="-23542" lat="68.1393000002" lon="13.3601583376">
		<tag k="name" v="Viktenskaret" />
		<tag k="natural" v="valley" />
		<tag k="place" v="locality" />
		<tag k="ssr:stedsnr" v="535325" />
	</node>
	<node id="-23541" lat="68.1337027781" lon="13.4305194336">
		<tag k="name" v="Husberget" />
		<tag k="natural" v="cliff" />
		<tag k="ssr:stedsnr" v="535305" />
	</node>
	<node id="-23537" lat="68.159530555" lon="13.4021972334">
		<tag k="name" v="Kleiva" />
		<tag k="natural" v="slope" />
		<tag k="place" v="locality" />
		<tag k="ssr:stedsnr" v="535415" />
	</node>
	<node id="-23535" lat="68.0322388912" lon="13.2617999885">
		<tag k="name" v="Burslia" />
		<tag k="natural" v="slope" />
		<tag k="place" v="locality" />
		<tag k="ssr:stedsnr" v="535101" />
	</node>
	<node id="-23534" lat="68.1628944438" lon="13.3262250085">
		<tag k="name" v="Kviturhågen" />
		<tag k="natural" v="hill" />
		<tag k="place" v="locality" />
		<tag k="ssr:stedsnr" v="535089" />
	</node>
	<node id="-23532" lat="68.1115499963" lon="13.3498027742">
		<tag k="name" v="Kjerringhågen" />
		<tag k="natural" v="hill" />
		<tag k="place" v="locality" />
		<tag k="ssr:stedsnr" v="535235" />
	</node>
	<node id="-23528" lat="68.0609027735" lon="13.0351944417">
		<tag k="name" v="Litj-jorda" />
		<tag k="natural" v="valley" />
		<tag k="place" v="locality" />
		<tag k="ssr:stedsnr" v="534746" />
	</node>
	<node id="-23525" lat="68.0723138917" lon="13.1309750073">
		<tag k="name" v="Skjålistrupen" />
		<tag k="natural" v="valley" />
		<tag k="place" v="locality" />
		<tag k="ssr:stedsnr" v="534680" />
	</node>
	<node id="-23524" lat="68.077344448" lon="13.129491661">
		<tag k="name" v="Tortenlia" />
		<tag k="natural" v="slope" />
		<tag k="place" v="locality" />
		<tag k="ssr:stedsnr" v="534679" />
	</node>
	<node id="-23523" lat="68.03851667" lon="13.3347194403">
		<tag k="name" v="Saudalen" />
		<tag k="natural" v="valley" />
		<tag k="place" v="locality" />
		<tag k="ssr:stedsnr" v="534490" />
	</node>
	<node id="-23522" lat="68.0724805561" lon="13.2814666718">
		<tag k="name" v="Legden" />
		<tag k="natural" v="slope" />
		<tag k="place" v="locality" />
		<tag k="ssr:stedsnr" v="534658" />
	</node>
	<node id="-23521" lat="68.0443305513" lon="13.0876027722">
		<tag k="fixme" v="consider natural=peak for the most distinct mountains in the district" />
		<tag k="name" v="Langbenkan" />
		<tag k="natural" v="hill" />
		<tag k="place" v="locality" />
		<tag k="ssr:stedsnr" v="534392" />
	</node>
	<node id="-23520" lat="68.0404722254" lon="13.0738527873">
		<tag k="name" v="Slåttbenkan" />
		<tag k="place" v="locality" />
		<tag k="ssr:stedsnr" v="534389" />
	</node>
	<node id="-23519" lat="68.0970611089" lon="13.3120249951">
		<tag k="name" v="Bønakken" />
		<tag k="natural" v="ridge" />
		<tag k="place" v="locality" />
		<tag k="ssr:stedsnr" v="533785" />
	</node>
	<node id="-23517" lat="68.0873555569" lon="13.2365722229">
		<tag k="name" v="Nubblia" />
		<tag k="natural" v="slope" />
		<tag k="place" v="locality" />
		<tag k="ssr:stedsnr" v="522794" />
	</node>
	<node id="-23516" lat="68.0893972236" lon="13.1224111009">
		<tag k="name" v="Drukkendalshumpen" />
		<tag k="natural" v="hill" />
		<tag k="place" v="locality" />
		<tag k="ssr:stedsnr" v="414858" />
	</node>
	<node id="-23514" lat="68.0915916643" lon="13.1514972128">
		<tag k="name" v="Vollberget" />
		<tag k="natural" v="hill" />
		<tag k="place" v="locality" />
		<tag k="ssr:stedsnr" v="414824" />
	</node>
	<node id="-23513" lat="68.0923666681" lon="13.2424805644">
		<tag k="name" v="Dalen" />
		<tag k="natural" v="valley" />
		<tag k="place" v="locality" />
		<tag k="ssr:stedsnr" v="414799" />
	</node>
	<node id="-23512" lat="68.0488249991" lon="13.2654944396">
		<tag k="name" v="Kvitsvaan" />
		<tag k="natural" v="cliff" />
		<tag k="ssr:stedsnr" v="414439" />
	</node>
	<node id="-23511" lat="68.0427000005" lon="13.1141555466">
		<tag k="name" v="Nakken" />
		<tag k="natural" v="ridge" />
		<tag k="place" v="locality" />
		<tag k="ssr:stedsnr" v="414401" />
	</node>
	<node id="-23510" lat="68.1169166627" lon="13.3644222309">
		<tag k="name" v="Vedhågen" />
		<tag k="natural" v="hill" />
		<tag k="place" v="locality" />
		<tag k="ssr:stedsnr" v="414245" />
	</node>
	<node id="-23509" lat="68.1173388855" lon="13.3436583285">
		<tag k="name" v="Rabben" />
		<tag k="natural" v="hill" />
		<tag k="place" v="locality" />
		<tag k="ssr:stedsnr" v="414242" />
	</node>
	<node id="-23508" lat="68.0085916708" lon="13.301824995">
		<tag k="name" v="Klømran" />
		<tag k="natural" v="valley" />
		<tag k="place" v="locality" />
		<tag k="ssr:stedsnr" v="413978" />
	</node>
	<node id="-23506" lat="68.0050611123" lon="13.2289388881">
		<tag k="name" v="Kunnjorda" />
		<tag k="natural" v="slope" />
		<tag k="place" v="locality" />
		<tag k="ssr:stedsnr" v="413919" />
	</node>
	<node id="-23505" lat="68.0065250024" lon="13.266875009">
		<tag k="name" v="Kråkhammaren" />
		<tag k="natural" v="cliff" />
		<tag k="ssr:stedsnr" v="413915" />
	</node>
	<node id="-23504" lat="68.0744999959" lon="13.1278722298">
		<tag k="name" v="Torteinliheia" />
		<tag k="natural" v="hill" />
		<tag k="place" v="locality" />
		<tag k="ssr:stedsnr" v="413698" />
	</node>
	<node id="-23502" lat="68.0624944414" lon="13.2253833314">
		<tag k="name" v="Dalbrekka" />
		<tag k="natural" v="valley" />
		<tag k="place" v="locality" />
		<tag k="ssr:stedsnr" v="413674" />
	</node>
	<node id="-23501" lat="68.0598194438" lon="13.1904555529">
		<tag k="name" v="Veggen" />
		<tag k="natural" v="cliff" />
		<tag k="ssr:stedsnr" v="413664" />
	</node>
	<node id="-23496" lat="68.0514416675" lon="13.1301944528">
		<tag k="fixme" v="consider natural=peak for the most distinct mountains in the district" />
		<tag k="name" v="Litlkrystadåsen" />
		<tag k="natural" v="hill" />
		<tag k="place" v="locality" />
		<tag k="ssr:stedsnr" v="413580" />
	</node>
	<node id="-23495" lat="68.0437194481" lon="13.3452138931">
		<tag k="name" v="Svaen" />
		<tag k="natural" v="cliff" />
		<tag k="ssr:stedsnr" v="413512" />
	</node>
	<node id="-23494" lat="68.1490222249" lon="13.3189416598">
		<tag k="name" v="Bjørntindlia" />
		<tag k="natural" v="slope" />
		<tag k="place" v="locality" />
		<tag k="ssr:stedsnr" v="413464" />
	</node>
	<node id="-23490" lat="68.0313555581" lon="13.2321083446">
		<tag k="name" v="Finnhola" />
		<tag k="place" v="locality" />
		<tag k="ssr:stedsnr" v="413106" />
	</node>
	<node id="-23489" lat="68.0340722238" lon="13.2346944449">
		<tag k="name" v="Storlia" />
		<tag k="natural" v="slope" />
		<tag k="place" v="locality" />
		<tag k="ssr:stedsnr" v="413105" />
	</node>
	<node id="-23488" lat="68.161333333" lon="13.3653472159">
		<tag k="name" v="Litltaen" />
		<tag k="place" v="locality" />
		<tag k="ssr:stedsnr" v="413081" />
	</node>
	<node id="-23483" lat="68.1196805599" lon="13.3929194337">
		<tag k="fixme" v="consider natural=peak for the most distinct mountains in the district" />
		<tag k="name" v="Småklauvan" />
		<tag k="natural" v="hill" />
		<tag k="place" v="locality" />
		<tag k="ssr:stedsnr" v="412117" />
	</node>
	<node id="-23477" lat="68.1260888862" lon="13.3743666639">
		<tag k="name" v="Ramnfloget" />
		<tag k="natural" v="hill" />
		<tag k="place" v="locality" />
		<tag k="ssr:stedsnr" v="385020" />
	</node>
	<node id="-23476" lat="68.1274722196" lon="13.3966694358">
		<tag k="name" v="Skarryggen" />
		<tag k="natural" v="ridge" />
		<tag k="place" v="locality" />
		<tag k="ssr:stedsnr" v="385019" />
	</node>
	<node id="-23475" lat="68.1343194426" lon="13.3829444518">
		<tag k="name" v="Kråkreiret" />
		<tag k="place" v="locality" />
		<tag k="ssr:stedsnr" v="385011" />
	</node>
	<node id="-23474" lat="68.1443222215" lon="13.4423083217">
		<tag k="name" v="Skredkollen" />
		<tag k="natural" v="hill" />
		<tag k="place" v="locality" />
		<tag k="ssr:stedsnr" v="381956" />
	</node>
	<node id="-23472" lat="68.1462666686" lon="13.3321527827">
		<tag k="name" v="Tverrfjellet" />
		<tag k="natural" v="slope" />
		<tag k="place" v="locality" />
		<tag k="ssr:stedsnr" v="381951" />
	</node>
	<node id="-23468" lat="68.0424749978" lon="13.2776527877">
		<tag k="name" v="Durmålsdalen" />
		<tag k="natural" v="valley" />
		<tag k="place" v="locality" />
		<tag k="ssr:stedsnr" v="381868" />
	</node>
	<node id="-23462" lat="68.1345499968" lon="13.3594083234">
		<tag k="name" v="Staurdalen" />
		<tag k="natural" v="valley" />
		<tag k="place" v="locality" />
		<tag k="ssr:stedsnr" v="381826" />
	</node>
	<node id="-23460" lat="68.0534777745" lon="13.3818138939">
		<tag k="name" v="Rørvikdalen" />
		<tag k="natural" v="valley" />
		<tag k="place" v="locality" />
		<tag k="ssr:stedsnr" v="381722" />
	</node>
	<node id="-23459" lat="68.0879277805" lon="13.2588">
		<tag k="fixme" v="consider natural=peak for the most distinct mountains in the district" />
		<tag k="name" v="Moltinden" />
		<tag k="natural" v="hill" />
		<tag k="place" v="locality" />
		<tag k="ssr:stedsnr" v="381698" />
	</node>
	<node id="-23458" lat="68.0858000034" lon="13.3986999968">
		<tag k="fixme" v="consider natural=peak for the most distinct mountains in the district" />
		<tag k="name" v="Ørnheia" />
		<tag k="natural" v="hill" />
		<tag k="place" v="locality" />
		<tag k="ssr:stedsnr" v="381646" />
	</node>
	<node id="-23457" lat="68.0215361132" lon="13.3057722288">
		<tag k="name" v="Vedvikdalen" />
		<tag k="natural" v="valley" />
		<tag k="place" v="locality" />
		<tag k="ssr:stedsnr" v="381547" />
	</node>
	<node id="-23456" lat="67.9824361108" lon="13.086436121">
		<tag k="fixme" v="consider natural=peak for the most distinct mountains in the district" />
		<tag k="name" v="Klokktinden" />
		<tag k="natural" v="hill" />
		<tag k="place" v="locality" />
		<tag k="ssr:stedsnr" v="381450" />
	</node>
	<node id="-23454" lat="68.0176888859" lon="13.0599333438">
		<tag k="fixme" v="consider natural=peak for the most distinct mountains in the district" />
		<tag k="name" v="Nonstinden" />
		<tag k="natural" v="hill" />
		<tag k="place" v="locality" />
		<tag k="ssr:stedsnr" v="381056" />
	</node>
	<node id="-23453" lat="68.013388891" lon="13.2186555578">
		<tag k="fixme" v="consider natural=peak for the most distinct mountains in the district" />
		<tag k="name" v="Sundmannen" />
		<tag k="natural" v="hill" />
		<tag k="place" v="locality" />
		<tag k="ssr:stedsnr" v="381046" />
	</node>
	<node id="-23448" lat="68.0649444427" lon="13.1569083385">
		<tag k="name" v="Moberget" />
		<tag k="natural" v="hill" />
		<tag k="place" v="locality" />
		<tag k="ssr:stedsnr" v="381019" />
	</node>
	<node id="-23447" lat="68.063983331" lon="13.2096583441">
		<tag k="fixme" v="multiple name tags, choose one and add the other to alt_name" />
		<tag k="name" v="Geitedalen;Geitøydalen" />
		<tag k="natural" v="valley" />
		<tag k="place" v="locality" />
		<tag k="ssr:stedsnr" v="381001" />
	</node>
	<node id="-23446" lat="68.1266333369" lon="13.4266805678">
		<tag k="name" v="Gjurdalen" />
		<tag k="natural" v="valley" />
		<tag k="place" v="locality" />
		<tag k="ssr:stedsnr" v="380789" />
	</node>
	<node id="-23436" lat="68.0994277809" lon="13.1180805619">
		<tag k="fixme" v="multiple name tags, choose one and add the other to alt_name; consider natural=peak for the most distinct mountains in the district" />
		<tag k="name" v="Stokkvikheia;Ytresandheia" />
		<tag k="natural" v="hill" />
		<tag k="place" v="locality" />
		<tag k="ssr:stedsnr" v="380220" />
	</node>
	<node id="-23432" lat="68.0839722243" lon="13.1351055592">
		<tag k="name" v="Litlberget" />
		<tag k="natural" v="hill" />
		<tag k="place" v="locality" />
		<tag k="ssr:stedsnr" v="353854" />
	</node>
	<node id="-23431" lat="68.0840138892" lon="13.1282666662">
		<tag k="fixme" v="consider natural=peak for the most distinct mountains in the district" />
		<tag k="name" v="Benken" />
		<tag k="natural" v="hill" />
		<tag k="place" v="locality" />
		<tag k="ssr:stedsnr" v="353850" />
	</node>
	<node id="-23430" lat="68.0869944454" lon="13.1827611075">
		<tag k="name" v="Storhågen" />
		<tag k="natural" v="hill" />
		<tag k="place" v="locality" />
		<tag k="ssr:stedsnr" v="353838" />
	</node>
	<node id="-23429" lat="68.0905750024" lon="13.1683027722">
		<tag k="name" v="Kråktuva" />
		<tag k="natural" v="hill" />
		<tag k="place" v="locality" />
		<tag k="ssr:stedsnr" v="353833" />
	</node>
	<node id="-23427" lat="68.045119442" lon="13.2733472128">
		<tag k="name" v="Storsvaet" />
		<tag k="natural" v="cliff" />
		<tag k="ssr:stedsnr" v="353465" />
	</node>
	<node id="-23426" lat="68.0481027788" lon="13.2798222149">
		<tag k="name" v="Stjerntindlia" />
		<tag k="natural" v="slope" />
		<tag k="place" v="locality" />
		<tag k="ssr:stedsnr" v="353462" />
	</node>
	<node id="-23425" lat="68.0454361136" lon="13.2646499995">
		<tag k="name" v="Storlia" />
		<tag k="natural" v="slope" />
		<tag k="place" v="locality" />
		<tag k="ssr:stedsnr" v="353455" />
	</node>
	<node id="-23420" lat="67.9948972222" lon="13.1519833248">
		<tag k="name" v="Fjøsdalskaret" />
		<tag k="natural" v="valley" />
		<tag k="place" v="locality" />
		<tag k="ssr:stedsnr" v="352892" />
	</node>
	<node id="-23418" lat="68.0047750011" lon="13.2732083306">
		<tag k="name" v="Bjønntaen" />
		<tag k="natural" v="slope" />
		<tag k="place" v="locality" />
		<tag k="ssr:stedsnr" v="352861" />
	</node>
	<node id="-23410" lat="68.0379111069" lon="13.3311694485">
		<tag k="name" v="Røssmannskulten" />
		<tag k="natural" v="ridge" />
		<tag k="place" v="locality" />
		<tag k="ssr:stedsnr" v="352481" />
	</node>
	<node id="-23409" lat="68.0519833304" lon="13.2630555578">
		<tag k="name" v="Bjørntindlia" />
		<tag k="natural" v="slope" />
		<tag k="place" v="locality" />
		<tag k="ssr:stedsnr" v="352450" />
	</node>
	<node id="-23407" lat="68.0374750038" lon="13.179277767">
		<tag k="name" v="Mølnknubben" />
		<tag k="natural" v="hill" />
		<tag k="place" v="locality" />
		<tag k="ssr:stedsnr" v="352417" />
	</node>
	<node id="-23406" lat="68.0369333316" lon="13.07739722">
		<tag k="name" v="Aksla" />
		<tag k="natural" v="ridge" />
		<tag k="place" v="locality" />
		<tag k="ssr:stedsnr" v="352391" />
	</node>
	<node id="-23405" lat="68.0411916686" lon="13.0870472266">
		<tag k="name" v="Ryggen" />
		<tag k="natural" v="ridge" />
		<tag k="place" v="locality" />
		<tag k="ssr:stedsnr" v="352388" />
	</node>
	<node id="-23403" lat="68.0443027815" lon="13.1947416596">
		<tag k="name" v="Nesfjellet" />
		<tag k="natural" v="hill" />
		<tag k="place" v="locality" />
		<tag k="ssr:stedsnr" v="352379" />
	</node>
	<node id="-23401" lat="68.1594500004" lon="13.3533916598">
		<tag k="name" v="Ternhågen" />
		<tag k="natural" v="hill" />
		<tag k="place" v="locality" />
		<tag k="ssr:stedsnr" v="352085" />
	</node>
	<node id="-23399" lat="68.0129805572" lon="13.3085638952">
		<tag k="name" v="Skraphalsen" />
		<tag k="natural" v="ridge" />
		<tag k="place" v="locality" />
		<tag k="ssr:stedsnr" v="352989" />
	</node>
	<node id="-23398" lat="68.0255750026" lon="13.1146194517">
		<tag k="name" v="Sirilian" />
		<tag k="natural" v="slope" />
		<tag k="place" v="locality" />
		<tag k="ssr:stedsnr" v="351345" />
	</node>
	<node id="-23395" lat="68.1448888925" lon="13.428700007">
		<tag k="name" v="Litlsandnesdalen" />
		<tag k="natural" v="valley" />
		<tag k="place" v="locality" />
		<tag k="ssr:stedsnr" v="320955" />
	</node>
	<node id="-23394" lat="68.1484888887" lon="13.4225333326">
		<tag k="fixme" v="consider natural=peak for the most distinct mountains in the district" />
		<tag k="name" v="Ramntinden" />
		<tag k="natural" v="hill" />
		<tag k="place" v="locality" />
		<tag k="ssr:stedsnr" v="320953" />
	</node>
	<node id="-23393" lat="68.116033331" lon="13.4103138827">
		<tag k="fixme" v="multiple name tags, choose one and add the other to alt_name" />
		<tag k="name" v="Hårbergsdalen;Renneldalen" />
		<tag k="natural" v="valley" />
		<tag k="place" v="locality" />
		<tag k="ssr:stedsnr" v="320880" />
	</node>
	<node id="-23391" lat="68.1023861089" lon="13.3507361017">
		<tag k="name" v="Kvanndalen" />
		<tag k="natural" v="valley" />
		<tag k="place" v="locality" />
		<tag k="ssr:stedsnr" v="320826" />
	</node>
	<node id="-23387" lat="68.0439888886" lon="13.3396749949">
		<tag k="fixme" v="multiple name tags, choose one and add the other to alt_name" />
		<tag k="name" v="Storjokken;Svadet" />
		<tag k="natural" v="hill" />
		<tag k="place" v="locality" />
		<tag k="ssr:stedsnr" v="320719" />
	</node>
	<node id="-23386" lat="68.0562305584" lon="13.3993055504">
		<tag k="name" v="Hamnhaugen" />
		<tag k="natural" v="hill" />
		<tag k="place" v="locality" />
		<tag k="ssr:stedsnr" v="320697" />
	</node>
	<node id="-23385" lat="68.0541749989" lon="13.2778472229">
		<tag k="fixme" v="consider natural=peak for the most distinct mountains in the district" />
		<tag k="name" v="Bjørntinden" />
		<tag k="natural" v="hill" />
		<tag k="place" v="locality" />
		<tag k="ssr:stedsnr" v="320691" />
	</node>
	<node id="-23384" lat="68.0637305591" lon="13.3559638957">
		<tag k="fixme" v="consider natural=peak for the most distinct mountains in the district" />
		<tag k="name" v="Kilheia" />
		<tag k="natural" v="hill" />
		<tag k="place" v="locality" />
		<tag k="ssr:stedsnr" v="320685" />
	</node>
	<node id="-23381" lat="68.0830027787" lon="13.2823333283">
		<tag k="name" v="Nonstindbenken" />
		<tag k="natural" v="slope" />
		<tag k="place" v="locality" />
		<tag k="ssr:stedsnr" v="320621" />
	</node>
	<node id="-23375" lat="68.0809861116" lon="13.1464555499">
		<tag k="fixme" v="multiple name tags, choose one and add the other to alt_name; consider natural=peak for the most distinct mountains in the district" />
		<tag k="name" v="Børa;Storhesten" />
		<tag k="natural" v="hill" />
		<tag k="place" v="locality" />
		<tag k="ssr:stedsnr" v="320263" />
	</node>
	<node id="-23374" lat="68.0766916638" lon="13.1145194392">
		<tag k="fixme" v="multiple name tags, choose one and add the other to alt_name; consider natural=peak for the most distinct mountains in the district" />
		<tag k="name" v="Kollfjellet;Torsfjordtinden" />
		<tag k="natural" v="hill" />
		<tag k="place" v="locality" />
		<tag k="ssr:stedsnr" v="320256" />
	</node>
	<node id="-23373" lat="68.0912472247" lon="13.1070416694">
		<tag k="fixme" v="consider natural=peak for the most distinct mountains in the district" />
		<tag k="name" v="Middagstinden" />
		<tag k="natural" v="hill" />
		<tag k="place" v="locality" />
		<tag k="ssr:stedsnr" v="320238" />
	</node>
	<node id="-23363" lat="68.0608805575" lon="13.0661472262">
		<tag k="alt_name" v="Litljordtindan" />
		<tag k="fixme" v="consider natural=peak for the most distinct mountains in the district" />
		<tag k="name" v="Litljordtinden" />
		<tag k="natural" v="hill" />
		<tag k="place" v="locality" />
		<tag k="ssr:stedsnr" v="320011" />
	</node>
	<node id="-23353" lat="68.148030553" lon="13.3405249935">
		<tag k="fixme" v="consider natural=peak for the most distinct mountains in the district" />
		<tag k="name" v="Gauktinden" />
		<tag k="natural" v="hill" />
		<tag k="place" v="locality" />
		<tag k="ssr:stedsnr" v="199949" />
	</node>
	<node id="-23351" lat="68.0924472253" lon="13.3939055455">
		<tag k="name" v="Sørdalen" />
		<tag k="natural" v="valley" />
		<tag k="place" v="locality" />
		<tag k="ssr:stedsnr" v="199697" />
	</node>
	<node id="-23349" lat="68.0931527797" lon="13.2502166749">
		<tag k="name" v="Tossendalen" />
		<tag k="natural" v="valley" />
		<tag k="place" v="locality" />
		<tag k="ssr:stedsnr" v="199682" />
	</node>
	<node id="-23345" lat="68.0320305572" lon="13.2772972284">
		<tag k="fixme" v="multiple name tags, choose one and add the other to alt_name; consider natural=peak for the most distinct mountains in the district" />
		<tag k="name" v="Storurddalstinden;Storurtinden" />
		<tag k="natural" v="hill" />
		<tag k="place" v="locality" />
		<tag k="ssr:stedsnr" v="199561" />
	</node>
	<node id="-23342" lat="67.9873833311" lon="13.0931083296">
		<tag k="fixme" v="consider natural=peak for the most distinct mountains in the district" />
		<tag k="name" v="Klokktindryggen" />
		<tag k="natural" v="hill" />
		<tag k="place" v="locality" />
		<tag k="ssr:stedsnr" v="199435" />
	</node>
	<node id="-23341" lat="67.9904055533" lon="13.0738305434">
		<tag k="fixme" v="multiple name tags, choose one and add the other to alt_name" />
		<tag k="name" v="Forsanddalen;Forsdalen" />
		<tag k="natural" v="valley" />
		<tag k="place" v="locality" />
		<tag k="ssr:stedsnr" v="199430" />
	</node>
	<node id="-23338" lat="68.0746777745" lon="13.1098583228">
		<tag k="name" v="Skoren" />
		<tag k="natural" v="valley" />
		<tag k="place" v="locality" />
		<tag k="ssr:stedsnr" v="199268" />
	</node>
	<node id="-23337" lat="68.1043777783" lon="13.0806722201">
		<tag k="alt_name" v="Fuglhuk" />
		<tag k="fixme" v="consider natural=peak for the most distinct mountains in the district" />
		<tag k="name" v="Fuglhuken" />
		<tag k="natural" v="hill" />
		<tag k="place" v="locality" />
		<tag k="ssr:stedsnr" v="199260" />
	</node>
	<node id="-23332" lat="68.0498361111" lon="13.0792333214">
		<tag k="fixme" v="consider natural=peak for the most distinct mountains in the district" />
		<tag k="name" v="Kitinden" />
		<tag k="natural" v="hill" />
		<tag k="place" v="locality" />
		<tag k="ssr:stedsnr" v="199035" />
	</node>
	<node id="-23330" lat="68.0673972195" lon="13.0974944438">
		<tag k="alt_name" v="Måltinden" />
		<tag k="fixme" v="consider natural=peak for the most distinct mountains in the district" />
		<tag k="name" v="Moltinden" />
		<tag k="natural" v="hill" />
		<tag k="place" v="locality" />
		<tag k="ssr:stedsnr" v="199015" />
	</node>
	<node id="-23329" lat="68.0971249993" lon="13.0947388966">
		<tag k="name" v="Humplian" />
		<tag k="natural" v="slope" />
		<tag k="place" v="locality" />
		<tag k="ssr:stedsnr" v="171962" />
	</node>
	<node id="-23328" lat="68.047408335" lon="13.1039499902">
		<tag k="name" v="Aksla" />
		<tag k="natural" v="ridge" />
		<tag k="place" v="locality" />
		<tag k="ssr:stedsnr" v="171403" />
	</node>
	<node id="-23323" lat="68.0194611115" lon="13.2962888823">
		<tag k="fixme" v="consider natural=peak for the most distinct mountains in the district" />
		<tag k="name" v="Småtindan" />
		<tag k="natural" v="hill" />
		<tag k="ssr:stedsnr" v="170938" />
	</node>
	<node id="-23321" lat="67.9992972244" lon="13.1685888888">
		<tag k="name" v="Ørnehamaren" />
		<tag k="natural" v="cliff" />
		<tag k="ssr:stedsnr" v="170922" />
	</node>
	<node id="-23320" lat="68.0051111076" lon="13.2833027661">
		<tag k="name" v="Litldalen" />
		<tag k="natural" v="valley" />
		<tag k="place" v="locality" />
		<tag k="ssr:stedsnr" v="170901" />
	</node>
	<node id="-23319" lat="68.0857083363" lon="13.2952027765">
		<tag k="name" v="Haugkjerringgropa" />
		<tag k="natural" v="valley" />
		<tag k="place" v="locality" />
		<tag k="ssr:stedsnr" v="170789" />
	</node>
	<node id="-23317" lat="68.0723222184" lon="13.0993388899">
		<tag k="name" v="Moltindsvelta" />
		<tag k="natural" v="ridge" />
		<tag k="place" v="locality" />
		<tag k="ssr:stedsnr" v="170660" />
	</node>
	<node id="-23309" lat="68.0544444437" lon="13.0670277716">
		<tag k="fixme" v="consider natural=peak for the most distinct mountains in the district" />
		<tag k="name" v="Litljortinden" />
		<tag k="natural" v="hill" />
		<tag k="ssr:stedsnr" v="170537" />
	</node>
	<node id="-23308" lat="68.0240805594" lon="13.2636777675">
		<tag k="name" v="Breilia" />
		<tag k="natural" v="slope" />
		<tag k="place" v="locality" />
		<tag k="ssr:stedsnr" v="170134" />
	</node>
	<node id="-23303" lat="68.0163194434" lon="13.1110722124">
		<tag k="fixme" v="consider natural=peak for the most distinct mountains in the district" />
		<tag k="name" v="Småtindan" />
		<tag k="natural" v="hill" />
		<tag k="ssr:stedsnr" v="169113" />
	</node>
	<node id="-23300" lat="68.0867833288" lon="13.3751555629">
		<tag k="name" v="Hestræva" />
		<tag k="natural" v="ridge" />
		<tag k="place" v="locality" />
		<tag k="ssr:stedsnr" v="158733" />
	</node>
	<node id="-23299" lat="68.0820499992" lon="13.4021694525">
		<tag k="name" v="Segelsteinheia" />
		<tag k="natural" v="hill" />
		<tag k="place" v="locality" />
		<tag k="ssr:stedsnr" v="158732" />
	</node>
	<node id="-23298" lat="68.1346138914" lon="13.4315722122">
		<tag k="name" v="Husberget" />
		<tag k="natural" v="hill" />
		<tag k="place" v="locality" />
		<tag k="ssr:stedsnr" v="142025" />
	</node>
	<node id="-23292" lat="68.1227777752" lon="13.4380472328">
		<tag k="alt_name" v="Hårberget" />
		<tag k="name" v="Storhårberget" />
		<tag k="natural" v="hill" />
		<tag k="place" v="locality" />
		<tag k="ssr:stedsnr" v="138880" />
	</node>
	<node id="-23282" lat="68.012683333" lon="13.0842055662">
		<tag k="fixme" v="consider natural=peak for the most distinct mountains in the district" />
		<tag k="name" v="Middagstinden" />
		<tag k="natural" v="hill" />
		<tag k="place" v="locality" />
		<tag k="ssr:stedsnr" v="138045" />
	</node>
	<node id="-23280" lat="68.0582138877" lon="13.2032694385">
		<tag k="fixme" v="multiple name tags, choose one and add the other to alt_name; consider natural=peak for the most distinct mountains in the district" />
		<tag k="name" v="Geiteknubben;Nesfjellet" />
		<tag k="natural" v="hill" />
		<tag k="place" v="locality" />
		<tag k="ssr:stedsnr" v="138011" />
	</node>
	<node id="-23278" lat="68.0733833378" lon="13.0903222112">
		<tag k="name" v="Kuhella" />
		<tag k="place" v="locality" />
		<tag k="ssr:stedsnr" v="138277" />
	</node>
	<node id="-23271" lat="67.9905361068" lon="13.166122221">
		<tag k="name" v="Rognan" />
		<tag k="natural" v="slope" />
		<tag k="place" v="locality" />
		<tag k="ssr:stedsnr" v="110966" />
	</node>
	<node id="-23270" lat="68.0103361114" lon="13.288700009">
		<tag k="name" v="Svaen" />
		<tag k="natural" v="cliff" />
		<tag k="ssr:stedsnr" v="110880" />
	</node>
	<node id="-23267" lat="68.0779583365" lon="13.1243305538">
		<tag k="name" v="Tverrdalen" />
		<tag k="natural" v="valley" />
		<tag k="place" v="locality" />
		<tag k="ssr:stedsnr" v="110864" />
	</node>
	<node id="-23265" lat="68.0665583304" lon="13.1018611165">
		<tag k="fixme" v="consider natural=peak for the most distinct mountains in the district" />
		<tag k="name" v="Kista" />
		<tag k="natural" v="hill" />
		<tag k="ssr:stedsnr" v="110701" />
	</node>
	<node id="-23264" lat="68.0671305562" lon="13.2749305622">
		<tag k="name" v="Storurskaret" />
		<tag k="natural" v="valley" />
		<tag k="place" v="locality" />
		<tag k="ssr:stedsnr" v="110666" />
	</node>
	<node id="-23259" lat="68.1507305568" lon="13.3613805621">
		<tag k="name" v="Trolldalen" />
		<tag k="natural" v="valley" />
		<tag k="place" v="locality" />
		<tag k="ssr:stedsnr" v="110460" />
	</node>
	<node id="-23258" lat="68.1081416631" lon="13.0793999946">
		<tag k="name" v="Berget" />
		<tag k="natural" v="ridge" />
		<tag k="place" v="locality" />
		<tag k="ssr:stedsnr" v="110170" />
	</node>
	<node id="-23255" lat="68.1120444446" lon="13.1387222119">
		<tag k="name" v="Hundsslåka" />
		<tag k="natural" v="valley" />
		<tag k="place" v="locality" />
		<tag k="ssr:stedsnr" v="110275" />
	</node>
	<node id="-23250" lat="68.09899167" lon="13.2545416737">
		<tag k="name" v="Kråktuva" />
		<tag k="natural" v="ridge" />
		<tag k="place" v="locality" />
		<tag k="ssr:stedsnr" v="109794" />
	</node>
	<node id="-23249" lat="68.098177781" lon="13.3159416722">
		<tag k="name" v="Kuhammaren" />
		<tag k="natural" v="hill" />
		<tag k="place" v="locality" />
		<tag k="ssr:stedsnr" v="109746" />
	</node>
	<node id="-23248" lat="68.0289833355" lon="13.0347333296">
		<tag k="name" v="Einhågen" />
		<tag k="natural" v="ridge" />
		<tag k="place" v="locality" />
		<tag k="ssr:stedsnr" v="109352" />
	</node>
	<node id="-23239" lat="68.0405861125" lon="13.2275222306">
		<tag k="name" v="Nonsdalen" />
		<tag k="natural" v="valley" />
		<tag k="place" v="locality" />
		<tag k="ssr:stedsnr" v="78868" />
	</node>
	<node id="-23238" lat="68.0978694463" lon="13.3069361157">
		<tag k="alt_name" v="Middagsskardet" />
		<tag k="name" v="Middagsskaret" />
		<tag k="natural" v="valley" />
		<tag k="place" v="locality" />
		<tag k="ssr:stedsnr" v="78833" />
	</node>
	<node id="-23237" lat="68.0973888882" lon="13.3547916607">
		<tag k="fixme" v="consider natural=peak for the most distinct mountains in the district" />
		<tag k="name" v="Blekktinden" />
		<tag k="natural" v="hill" />
		<tag k="place" v="locality" />
		<tag k="ssr:stedsnr" v="78825" />
	</node>
	<node id="-23234" lat="68.0808583297" lon="13.2704249919">
		<tag k="fixme" v="consider natural=peak for the most distinct mountains in the district" />
		<tag k="name" v="Stortinden" />
		<tag k="natural" v="hill" />
		<tag k="place" v="locality" />
		<tag k="ssr:stedsnr" v="78625" />
	</node>
	<node id="-23233" lat="68.0416277766" lon="13.2874000072">
		<tag k="name" v="Rusta" />
		<tag k="natural" v="valley" />
		<tag k="place" v="locality" />
		<tag k="ssr:stedsnr" v="78526" />
	</node>
	<node id="-23232" lat="67.9821694439" lon="13.1622722254">
		<tag k="fixme" v="consider natural=peak for the most distinct mountains in the district" />
		<tag k="name" v="Solbjørn" />
		<tag k="natural" v="hill" />
		<tag k="place" v="locality" />
		<tag k="ssr:stedsnr" v="78446" />
	</node>
	<node id="-23229" lat="68.012049996" lon="13.1361972199">
		<tag k="name" v="Skoglia" />
		<tag k="natural" v="slope" />
		<tag k="place" v="locality" />
		<tag k="ssr:stedsnr" v="78038" />
	</node>
	<node id="-23227" lat="68.1594416687" lon="13.3286166601">
		<tag k="fixme" v="consider natural=peak for the most distinct mountains in the district" />
		<tag k="name" v="Møntinden" />
		<tag k="natural" v="hill" />
		<tag k="place" v="locality" />
		<tag k="ssr:stedsnr" v="77984" />
	</node>
	<node id="-23225" lat="68.1320083322" lon="13.3713444355">
		<tag k="name" v="Mørkedalen" />
		<tag k="natural" v="valley" />
		<tag k="place" v="locality" />
		<tag k="ssr:stedsnr" v="77774" />
	</node>
	<node id="-23223" lat="68.0748027801" lon="13.2810888986">
		<tag k="name" v="Nonsdalen" />
		<tag k="natural" v="valley" />
		<tag k="place" v="locality" />
		<tag k="ssr:stedsnr" v="77727" />
	</node>
	<node id="-23221" lat="68.1104138899" lon="13.1214666649">
		<tag k="fixme" v="consider natural=peak for the most distinct mountains in the district" />
		<tag k="name" v="Litlberget" />
		<tag k="natural" v="hill" />
		<tag k="place" v="locality" />
		<tag k="ssr:stedsnr" v="77219" />
	</node>
	<node id="-23216" lat="68.082002776" lon="13.1400555614">
		<tag k="name" v="Einangen" />
		<tag k="natural" v="valley" />
		<tag k="place" v="locality" />
		<tag k="ssr:stedsnr" v="50794" />
	</node>
	<node id="-23215" lat="68.0912472196" lon="13.1005333325">
		<tag k="name" v="Trolldalen" />
		<tag k="natural" v="valley" />
		<tag k="place" v="locality" />
		<tag k="ssr:stedsnr" v="50838" />
	</node>
	<node id="-23214" lat="68.0893944399" lon="13.1172250104">
		<tag k="name" v="Drukkendalen" />
		<tag k="natural" v="valley" />
		<tag k="place" v="locality" />
		<tag k="ssr:stedsnr" v="50833" />
	</node>
	<node id="-23213" lat="68.0837916674" lon="13.1323472246">
		<tag k="name" v="Litlbergdalen" />
		<tag k="natural" v="valley" />
		<tag k="place" v="locality" />
		<tag k="ssr:stedsnr" v="50832" />
	</node>
	<node id="-23211" lat="68.1349388918" lon="13.3116194424">
		<tag k="name" v="Sandneshågen" />
		<tag k="natural" v="ridge" />
		<tag k="place" v="locality" />
		<tag k="ssr:stedsnr" v="50298" />
	</node>
	<node id="-23206" lat="67.9852472263" lon="13.1720611133">
		<tag k="name" v="Svaet" />
		<tag k="natural" v="cliff" />
		<tag k="ssr:stedsnr" v="49964" />
	</node>
	<node id="-23205" lat="67.9804888921" lon="13.1790722208">
		<tag k="name" v="Striket" />
		<tag k="natural" v="slope" />
		<tag k="place" v="locality" />
		<tag k="ssr:stedsnr" v="49963" />
	</node>
	<node id="-23199" lat="68.001672221" lon="13.272797225">
		<tag k="name" v="Storhågen" />
		<tag k="natural" v="hill" />
		<tag k="place" v="locality" />
		<tag k="ssr:stedsnr" v="49868" />
	</node>
	<node id="-23198" lat="68.051711107" lon="13.0425305566">
		<tag k="fixme" v="consider natural=peak for the most distinct mountains in the district" />
		<tag k="name" v="Bjønnmyrbakktinden" />
		<tag k="natural" v="hill" />
		<tag k="ssr:stedsnr" v="49757" />
	</node>
	<node id="-23196" lat="68.0573999984" lon="13.1862138823">
		<tag k="name" v="Melladalen" />
		<tag k="natural" v="valley" />
		<tag k="place" v="locality" />
		<tag k="ssr:stedsnr" v="49675" />
	</node>
	<node id="-23195" lat="68.0596555564" lon="13.2938750047">
		<tag k="name" v="Trollbenken" />
		<tag k="place" v="locality" />
		<tag k="ssr:stedsnr" v="49654" />
	</node>
	<node id="-23193" lat="68.0352222189" lon="13.3404750059">
		<tag k="name" v="Sankthanshella" />
		<tag k="place" v="locality" />
		<tag k="ssr:stedsnr" v="49513" />
	</node>
	<node id="-23192" lat="68.051124996" lon="13.2023527805">
		<tag k="name" v="Elvdalen" />
		<tag k="natural" v="valley" />
		<tag k="place" v="locality" />
		<tag k="ssr:stedsnr" v="49435" />
	</node>
	<node id="-23190" lat="68.0147777747" lon="13.2014749988">
		<tag k="name" v="Halsan" />
		<tag k="natural" v="ridge" />
		<tag k="place" v="locality" />
		<tag k="ssr:stedsnr" v="49198" />
	</node>
	<node id="-23187" lat="68.0227722177" lon="13.2628138937">
		<tag k="name" v="Skjellia" />
		<tag k="natural" v="slope" />
		<tag k="place" v="locality" />
		<tag k="ssr:stedsnr" v="49159" />
	</node>
	<node id="-23186" lat="68.01754722" lon="13.28357499">
		<tag k="name" v="Moan" />
		<tag k="natural" v="valley" />
		<tag k="place" v="locality" />
		<tag k="ssr:stedsnr" v="49154" />
	</node>
	<node id="-23183" lat="68.0134694431" lon="13.1658999902">
		<tag k="name" v="Kollen" />
		<tag k="natural" v="hill" />
		<tag k="place" v="locality" />
		<tag k="ssr:stedsnr" v="48930" />
	</node>
	<node id="-23181" lat="68.0950194457" lon="13.2593861018">
		<tag k="name" v="Øver-Vassdalen" />
		<tag k="natural" v="valley" />
		<tag k="place" v="locality" />
		<tag k="ssr:stedsnr" v="48808" />
	</node>
	<node id="-23180" lat="68.0831777759" lon="13.2424722223">
		<tag k="name" v="Ryggan" />
		<tag k="natural" v="ridge" />
		<tag k="place" v="locality" />
		<tag k="ssr:stedsnr" v="48776" />
	</node>
	<node id="-23179" lat="68.0804972232" lon="13.2467888969">
		<tag k="fixme" v="consider natural=peak for the most distinct mountains in the district" />
		<tag k="name" v="Kvanndalshamran" />
		<tag k="natural" v="hill" />
		<tag k="place" v="locality" />
		<tag k="ssr:stedsnr" v="48775" />
	</node>
	<node id="-23176" lat="68.0535861068" lon="13.0601305627">
		<tag k="name" v="Litj-jordskaret" />
		<tag k="natural" v="valley" />
		<tag k="place" v="locality" />
		<tag k="ssr:stedsnr" v="48726" />
	</node>
	<node id="-23172" lat="68.0296055536" lon="13.1239861147">
		<tag k="name" v="Mellalia" />
		<tag k="natural" v="slope" />
		<tag k="place" v="locality" />
		<tag k="ssr:stedsnr" v="48317" />
	</node>
	<node id="-23167" lat="68.1543083363" lon="13.3344139013">
		<tag k="name" v="Krykkjedalen" />
		<tag k="natural" v="valley" />
		<tag k="place" v="locality" />
		<tag k="ssr:stedsnr" v="17984" />
	</node>
	<node id="-23165" lat="68.1567277751" lon="13.3898750036">
		<tag k="fixme" v="multiple name tags, choose one and add the other to alt_name; consider natural=peak for the most distinct mountains in the district" />
		<tag k="name" v="Slettinden;Storsandnestinden" />
		<tag k="natural" v="hill" />
		<tag k="place" v="locality" />
		<tag k="ssr:stedsnr" v="17962" />
	</node>
	<node id="-23160" lat="68.0389222204" lon="13.2853805497">
		<tag k="fixme" v="consider natural=peak for the most distinct mountains in the district" />
		<tag k="name" v="Masstinden" />
		<tag k="natural" v="hill" />
		<tag k="place" v="locality" />
		<tag k="ssr:stedsnr" v="17550" />
	</node>
	<node id="-23159" lat="68.0365138928" lon="13.2719611013">
		<tag k="alt_name" v="Storurddalen" />
		<tag k="name" v="Storurdalen" />
		<tag k="natural" v="valley" />
		<tag k="place" v="locality" />
		<tag k="ssr:stedsnr" v="17549" />
	</node>
	<node id="-23152" lat="68.0711944464" lon="13.0618777859">
		<tag k="fixme" v="consider natural=peak for the most distinct mountains in the district" />
		<tag k="name" v="Kjerringa" />
		<tag k="natural" v="hill" />
		<tag k="place" v="locality" />
		<tag k="ssr:stedsnr" v="17288" />
	</node>
	<node id="-23146" lat="67.9947999974" lon="13.1615222231">
		<tag k="name" v="Fjøsdalen" />
		<tag k="natural" v="valley" />
		<tag k="place" v="locality" />
		<tag k="ssr:stedsnr" v="17462" />
	</node>
	<node id="-23142" lat="68.0965472201" lon="13.1262222132">
		<tag k="name" v="Skakk-kollen" />
		<tag k="natural" v="ridge" />
		<tag k="place" v="locality" />
		<tag k="ssr:stedsnr" v="960955" />
	</node>
	<node id="-23141" lat="68.099344445" lon="13.1272194467">
		<tag k="name" v="Storhammaren" />
		<tag k="natural" v="ridge" />
		<tag k="place" v="locality" />
		<tag k="ssr:stedsnr" v="960954" />
	</node>
	<node id="-23138" lat="68.0990833305" lon="13.2790361134">
		<tag k="name" v="Øver-Hombåren" />
		<tag k="natural" v="slope" />
		<tag k="place" v="locality" />
		<tag k="ssr:stedsnr" v="960220" />
	</node>
	<node id="-23137" lat="68.1041555531" lon="13.2577694455">
		<tag k="name" v="Brattbakkan" />
		<tag k="natural" v="slope" />
		<tag k="place" v="locality" />
		<tag k="ssr:stedsnr" v="960215" />
	</node>
	<node id="-23136" lat="68.1013499982" lon="13.2465972125">
		<tag k="name" v="Leitebakkan" />
		<tag k="natural" v="slope" />
		<tag k="place" v="locality" />
		<tag k="ssr:stedsnr" v="960206" />
	</node>
	<node id="-23134" lat="68.1220249969" lon="13.4305944465">
		<tag k="name" v="Hårbergsdalen" />
		<tag k="natural" v="valley" />
		<tag k="place" v="locality" />
		<tag k="ssr:stedsnr" v="931003" />
	</node>
	<node id="-23132" lat="68.0855777812" lon="13.1365388999">
		<tag k="name" v="Olahågen" />
		<tag k="natural" v="ridge" />
		<tag k="place" v="locality" />
		<tag k="ssr:stedsnr" v="899872" />
	</node>
	<node id="-23126" lat="68.1386527819" lon="13.3257527683">
		<tag k="name" v="Kråkhammaren" />
		<tag k="natural" v="cliff" />
		<tag k="ssr:stedsnr" v="899320" />
	</node>
	<node id="-23125" lat="68.0171194443" lon="13.1691444345">
		<tag k="name" v="Revsal" />
		<tag k="natural" v="ridge" />
		<tag k="place" v="locality" />
		<tag k="ssr:stedsnr" v="899161" />
	</node>
	<node id="-23123" lat="68.0119416668" lon="13.0375527782">
		<tag k="name" v="Fageråskaret" />
		<tag k="natural" v="valley" />
		<tag k="place" v="locality" />
		<tag k="ssr:stedsnr" v="898360" />
	</node>
	<node id="-23121" lat="68.0974194409" lon="13.2676749968">
		<tag k="fixme" v="consider natural=peak for the most distinct mountains in the district" />
		<tag k="name" v="Vassdalstinden" />
		<tag k="natural" v="hill" />
		<tag k="ssr:stedsnr" v="887809" />
	</node>
	<node id="-23114" lat="68.0483611104" lon="13.0286583407">
		<tag k="name" v="Rypdalen" />
		<tag k="natural" v="valley" />
		<tag k="place" v="locality" />
		<tag k="ssr:stedsnr" v="838720" />
	</node>
	<node id="-23113" lat="68.1566777773" lon="13.4050388956">
		<tag k="name" v="Kvitbergan" />
		<tag k="natural" v="cliff" />
		<tag k="ssr:stedsnr" v="838359" />
	</node>
	<node id="-23111" lat="68.0268666633" lon="13.2215722193">
		<tag k="name" v="Sørdalen" />
		<tag k="natural" v="valley" />
		<tag k="place" v="locality" />
		<tag k="ssr:stedsnr" v="838159" />
	</node>
	<node id="-23110" lat="68.0164750006" lon="13.274191677">
		<tag k="fixme" v="consider natural=peak for the most distinct mountains in the district" />
		<tag k="name" v="Keipen" />
		<tag k="natural" v="hill" />
		<tag k="ssr:stedsnr" v="838155" />
	</node>
	<node id="-23109" lat="68.0141388864" lon="13.1391249948">
		<tag k="name" v="Bjønnskaret" />
		<tag k="natural" v="valley" />
		<tag k="place" v="locality" />
		<tag k="ssr:stedsnr" v="837115" />
	</node>
	<node id="-23108" lat="68.1025166626" lon="13.3448777879">
		<tag k="name" v="Finnhammaren" />
		<tag k="natural" v="cliff" />
		<tag k="ssr:stedsnr" v="837109" />
	</node>
	<node id="-23105" lat="68.1370777797" lon="13.4498361056">
		<tag k="name" v="Hauan" />
		<tag k="place" v="locality" />
		<tag k="ssr:stedsnr" v="810011" />
	</node>
	<node id="-23104" lat="68.1049500003" lon="13.4009638778">
		<tag k="name" v="Buhammaren" />
		<tag k="natural" v="hill" />
		<tag k="place" v="locality" />
		<tag k="ssr:stedsnr" v="806838" />
	</node>
	<node id="-23102" lat="68.140027776" lon="13.3862638963">
		<tag k="fixme" v="consider natural=peak for the most distinct mountains in the district" />
		<tag k="name" v="Okstinden" />
		<tag k="natural" v="hill" />
		<tag k="place" v="locality" />
		<tag k="ssr:stedsnr" v="806809" />
	</node>
	<node id="-23101" lat="68.1659916696" lon="13.3330305559">
		<tag k="fixme" v="consider natural=peak for the most distinct mountains in the district" />
		<tag k="name" v="Hornet" />
		<tag k="natural" v="hill" />
		<tag k="place" v="locality" />
		<tag k="ssr:stedsnr" v="927996" />
	</node>
	<node id="-23094" lat="68.121322224" lon="13.4088222221">
		<tag k="name" v="Litldalen" />
		<tag k="natural" v="valley" />
		<tag k="place" v="locality" />
		<tag k="ssr:stedsnr" v="927887" />
	</node>
	<node id="-23091" lat="68.1140527816" lon="13.381799994">
		<tag k="alt_name" v="Klauva, l" />
		<tag k="fixme" v="multiple name tags, choose one and add the other to alt_name; consider natural=peak for the most distinct mountains in the district" />
		<tag k="name" v="Småklauvan;Litle Klauva" />
		<tag k="natural" v="hill" />
		<tag k="place" v="locality" />
		<tag k="ssr:stedsnr" v="927880" />
	</node>
	<node id="-23087" lat="68.1424916692" lon="13.3830750065">
		<tag k="name" v="Jofinnskardet" />
		<tag k="natural" v="valley" />
		<tag k="place" v="locality" />
		<tag k="ssr:stedsnr" v="927799" />
	</node>
	<node id="-23086" lat="68.132252779" lon="13.3927916749">
		<tag k="name" v="Hanspettersletta" />
		<tag k="place" v="locality" />
		<tag k="ssr:stedsnr" v="927774" />
	</node>
	<node id="-23085" lat="68.0645222234" lon="13.2699111115">
		<tag k="fixme" v="consider natural=peak for the most distinct mountains in the district" />
		<tag k="name" v="Sautinden" />
		<tag k="natural" v="hill" />
		<tag k="place" v="locality" />
		<tag k="ssr:stedsnr" v="927755" />
	</node>
	<node id="-23084" lat="68.1633388852" lon="13.3286138877">
		<tag k="name" v="Horndalen" />
		<tag k="natural" v="valley" />
		<tag k="place" v="locality" />
		<tag k="ssr:stedsnr" v="805986" />
	</node>
	<node id="-23083" lat="68.0765027785" lon="13.2663833224">
		<tag k="fixme" v="consider natural=peak for the most distinct mountains in the district" />
		<tag k="name" v="Pilten" />
		<tag k="natural" v="hill" />
		<tag k="place" v="locality" />
		<tag k="ssr:stedsnr" v="927719" />
	</node>
	<node id="-23081" lat="68.0450833371" lon="13.0033388878">
		<tag k="fixme" v="consider natural=peak for the most distinct mountains in the district" />
		<tag k="name" v="Hjellberget" />
		<tag k="natural" v="hill" />
		<tag k="place" v="locality" />
		<tag k="ssr:stedsnr" v="806010" />
	</node>
	<node id="-23080" lat="68.0920361087" lon="13.300769446">
		<tag k="alt_name" v="Bøheia" />
		<tag k="fixme" v="consider natural=peak for the most distinct mountains in the district" />
		<tag k="name" v="Heia" />
		<tag k="natural" v="hill" />
		<tag k="place" v="locality" />
		<tag k="ssr:stedsnr" v="927670" />
	</node>
	<node id="-23072" lat="68.0417361113" lon="13.3893972314">
		<tag k="alt_name" v="Vinhamrane" />
		<tag k="name" v="Vinhamran" />
		<tag k="natural" v="hill" />
		<tag k="place" v="locality" />
		<tag k="ssr:stedsnr" v="927540" />
	</node>
	<node id="-23069" lat="68.1004944454" lon="13.1044055549">
		<tag k="name" v="Stokkvikdalen" />
		<tag k="natural" v="valley" />
		<tag k="place" v="locality" />
		<tag k="ssr:stedsnr" v="927248" />
	</node>
	<node id="-23068" lat="68.0163416675" lon="13.1166000106">
		<tag k="alt_name" v="Daudmannsdalen" />
		<tag k="name" v="Daumannsdalen" />
		<tag k="natural" v="valley" />
		<tag k="place" v="locality" />
		<tag k="ssr:stedsnr" v="927054" />
	</node>
	<node id="-23066" lat="68.0151805556" lon="13.0383666579">
		<tag k="name" v="Fagerådalen" />
		<tag k="natural" v="valley" />
		<tag k="place" v="locality" />
		<tag k="ssr:stedsnr" v="927048" />
	</node>
	<node id="-23064" lat="68.0516416634" lon="13.093480557">
		<tag k="fixme" v="consider natural=peak for the most distinct mountains in the district" />
		<tag k="name" v="Markvasstindan" />
		<tag k="natural" v="hill" />
		<tag k="place" v="locality" />
		<tag k="ssr:stedsnr" v="927026" />
	</node>
	<node id="-23063" lat="68.0239611102" lon="13.0715416586">
		<tag k="fixme" v="consider natural=peak for the most distinct mountains in the district" />
		<tag k="name" v="Tverrfjellet" />
		<tag k="natural" v="hill" />
		<tag k="place" v="locality" />
		<tag k="ssr:stedsnr" v="927023" />
	</node>
	<node id="-23062" lat="68.0367083303" lon="13.157705559">
		<tag k="fixme" v="multiple name tags, choose one and add the other to alt_name; consider natural=peak for the most distinct mountains in the district" />
		<tag k="name" v="Andopsheia;Nesheia" />
		<tag k="natural" v="hill" />
		<tag k="place" v="locality" />
		<tag k="ssr:stedsnr" v="927019" />
	</node>
	<node id="-23058" lat="68.0518138891" lon="13.0469861049">
		<tag k="fixme" v="consider natural=peak for the most distinct mountains in the district" />
		<tag k="name" v="Ulvstinden" />
		<tag k="natural" v="hill" />
		<tag k="place" v="locality" />
		<tag k="ssr:stedsnr" v="927003" />
	</node>
	<node id="-23054" lat="68.0291861137" lon="13.3656055577">
		<tag k="name" v="Skarvberget" />
		<tag k="natural" v="cliff" />
		<tag k="ssr:stedsnr" v="777916" />
	</node>
	<node id="-23053" lat="68.024455556" lon="13.3112389002">
		<tag k="name" v="Hessurkammen" />
		<tag k="natural" v="ridge" />
		<tag k="place" v="locality" />
		<tag k="ssr:stedsnr" v="777912" />
	</node>
	<node id="-23052" lat="68.0685555531" lon="13.0880138803">
		<tag k="name" v="Revva" />
		<tag k="natural" v="valley" />
		<tag k="place" v="locality" />
		<tag k="ssr:stedsnr" v="777678" />
	</node>
	<node id="-23048" lat="68.0293694426" lon="13.2673749913">
		<tag k="name" v="Svalia" />
		<tag k="natural" v="slope" />
		<tag k="place" v="locality" />
		<tag k="ssr:stedsnr" v="777115" />
	</node>
	<node id="-23044" lat="68.0357194419" lon="13.2258444419">
		<tag k="alt_name" v="Stelltinden" />
		<tag k="fixme" v="consider natural=peak for the most distinct mountains in the district" />
		<tag k="name" v="Steiltinden" />
		<tag k="natural" v="hill" />
		<tag k="place" v="locality" />
		<tag k="ssr:stedsnr" v="745523" />
	</node>
	<node id="-23043" lat="68.0960666694" lon="13.11196666">
		<tag k="fixme" v="consider natural=peak for the most distinct mountains in the district" />
		<tag k="name" v="Småtindan" />
		<tag k="natural" v="hill" />
		<tag k="place" v="locality" />
		<tag k="ssr:stedsnr" v="745273" />
	</node>
	<node id="-23034" lat="68.0584805589" lon="13.1492249942">
		<tag k="fixme" v="consider natural=peak for the most distinct mountains in the district" />
		<tag k="name" v="Krystadåsen" />
		<tag k="natural" v="hill" />
		<tag k="place" v="locality" />
		<tag k="ssr:stedsnr" v="899640" />
	</node>
	<node id="-23032" lat="68.0364805566" lon="13.2861888983">
		<tag k="fixme" v="consider natural=peak for the most distinct mountains in the district" />
		<tag k="name" v="Haken" />
		<tag k="natural" v="hill" />
		<tag k="ssr:stedsnr" v="899505" />
	</node>
	<node id="-23029" lat="68.0402583358" lon="13.0670027874">
		<tag k="name" v="Dalrøstan" />
		<tag k="natural" v="slope" />
		<tag k="place" v="locality" />
		<tag k="ssr:stedsnr" v="899400" />
	</node>
	<node id="-23026" lat="68.1081666685" lon="13.0882166758">
		<tag k="name" v="Kvanndalen" />
		<tag k="natural" v="valley" />
		<tag k="place" v="locality" />
		<tag k="ssr:stedsnr" v="899188" />
	</node>
	<node id="-23025" lat="68.1102722221" lon="13.111436103">
		<tag k="name" v="Hyllberget" />
		<tag k="natural" v="cliff" />
		<tag k="ssr:stedsnr" v="899274" />
	</node>
	<node id="-23024" lat="68.0170861076" lon="13.2723999985">
		<tag k="fixme" v="consider natural=peak for the most distinct mountains in the district" />
		<tag k="name" v="Litlkeipen" />
		<tag k="natural" v="hill" />
		<tag k="ssr:stedsnr" v="899129" />
	</node>
	<node id="-23023" lat="68.0193083313" lon="13.2746527818">
		<tag k="fixme" v="consider natural=peak for the most distinct mountains in the district" />
		<tag k="name" v="Skjeltinden" />
		<tag k="natural" v="hill" />
		<tag k="ssr:stedsnr" v="899122" />
	</node>
	<node id="-23021" lat="67.9943777753" lon="13.0828750079">
		<tag k="name" v="Forsandheia" />
		<tag k="natural" v="hill" />
		<tag k="place" v="locality" />
		<tag k="ssr:stedsnr" v="898927" />
	</node>
	<node id="-23020" lat="68.0977583294" lon="13.29641944">
		<tag k="name" v="Flakstadveggen" />
		<tag k="natural" v="cliff" />
		<tag k="ssr:stedsnr" v="898774" />
	</node>
	<node id="-23014" lat="68.0910138856" lon="13.3573944523">
		<tag k="name" v="Djupdalen" />
		<tag k="natural" v="valley" />
		<tag k="place" v="locality" />
		<tag k="ssr:stedsnr" v="717764" />
	</node>
	<node id="-23012" lat="68.0598916678" lon="13.3488472196">
		<tag k="name" v="Høgheia" />
		<tag k="natural" v="hill" />
		<tag k="place" v="locality" />
		<tag k="ssr:stedsnr" v="716579" />
	</node>
	<node id="-23006" lat="68.0223888859" lon="13.2853416558">
		<tag k="fixme" v="multiple name tags, choose one and add the other to alt_name" />
		<tag k="name" v="Neslandstinden;Vassdalstinden" />
		<tag k="natural" v="hill" />
		<tag k="place" v="locality" />
		<tag k="ssr:stedsnr" v="714981" />
	</node>
	<node id="-23003" lat="68.0859944406" lon="13.4174388872">
		<tag k="name" v="Litlbåthellaren" />
		<tag k="natural" v="hill" />
		<tag k="place" v="locality" />
		<tag k="ssr:stedsnr" v="685620" />
	</node>
	<node id="-23000" lat="68.0124555516" lon="13.2782027655">
		<tag k="fixme" v="consider natural=peak for the most distinct mountains in the district" />
		<tag k="name" v="Neslandsheia" />
		<tag k="natural" v="hill" />
		<tag k="place" v="locality" />
		<tag k="ssr:stedsnr" v="684505" />
	</node>
	<node id="-22997" lat="68.110911111" lon="13.1338611179">
		<tag k="fixme" v="consider natural=peak for the most distinct mountains in the district" />
		<tag k="name" v="Mulstøtinden" />
		<tag k="natural" v="hill" />
		<tag k="place" v="locality" />
		<tag k="ssr:stedsnr" v="684230" />
	</node>
	<node id="-22987" lat="68.0933861084" lon="13.135694452">
		<tag k="name" v="Hundtuva" />
		<tag k="natural" v="hill" />
		<tag k="place" v="locality" />
		<tag k="ssr:stedsnr" v="656870" />
	</node>
	<node id="-22986" lat="68.0281833322" lon="13.3768027664">
		<tag k="name" v="Bakarovnen" />
		<tag k="place" v="locality" />
		<tag k="ssr:stedsnr" v="656928" />
	</node>
	<node id="-22985" lat="68.1557277794" lon="13.3172611066">
		<tag k="name" v="Finnkonbakkan" />
		<tag k="natural" v="slope" />
		<tag k="place" v="locality" />
		<tag k="ssr:stedsnr" v="656460" />
	</node>
	<node id="-22980" lat="68.005969449" lon="13.1531222118">
		<tag k="name" v="Hellan" />
		<tag k="natural" v="hill" />
		<tag k="place" v="locality" />
		<tag k="ssr:stedsnr" v="655907" />
	</node>
	<node id="-22978" lat="68.0708027761" lon="13.1059166639">
		<tag k="name" v="Kvantoet" />
		<tag k="natural" v="slope" />
		<tag k="place" v="locality" />
		<tag k="ssr:stedsnr" v="655657" />
	</node>
	<node id="-22977" lat="68.0465361142" lon="13.3181055619">
		<tag k="fixme" v="consider natural=peak for the most distinct mountains in the district" />
		<tag k="name" v="Stabben" />
		<tag k="natural" v="hill" />
		<tag k="ssr:stedsnr" v="655467" />
	</node>
	<node id="-22973" lat="68.0116277739" lon="13.3086083283">
		<tag k="name" v="Slåka" />
		<tag k="natural" v="valley" />
		<tag k="place" v="locality" />
		<tag k="ssr:stedsnr" v="717978" />
	</node>
	<node id="-22970" lat="68.085430551" lon="13.1159250057">
		<tag k="name" v="Storberget" />
		<tag k="place" v="locality" />
		<tag k="ssr:stedsnr" v="717861" />
	</node>
	<node id="-22968" lat="68.0923138857" lon="13.1403555522">
		<tag k="name" v="Harvollen" />
		<tag k="place" v="locality" />
		<tag k="ssr:stedsnr" v="717856" />
	</node>
	<node id="-22961" lat="68.1100222252" lon="13.3418416625">
		<tag k="name" v="Vareidhalsen" />
		<tag k="natural" v="ridge" />
		<tag k="place" v="locality" />
		<tag k="ssr:stedsnr" v="717235" />
	</node>
	<node id="-22957" lat="68.0209666662" lon="13.2750388973">
		<tag k="name" v="Vassdalsheia" />
		<tag k="natural" v="hill" />
		<tag k="place" v="locality" />
		<tag k="ssr:stedsnr" v="717098" />
	</node>
	<node id="-22956" lat="68.1633194429" lon="13.3338833294">
		<tag k="name" v="Hornheia" />
		<tag k="natural" v="hill" />
		<tag k="place" v="locality" />
		<tag k="ssr:stedsnr" v="717085" />
	</node>
	<node id="-22951" lat="68.0591277734" lon="13.1178416767">
		<tag k="name" v="Hellkjeften" />
		<tag k="natural" v="cliff" />
		<tag k="ssr:stedsnr" v="716703" />
	</node>
	<node id="-22950" lat="68.0706166691" lon="13.1260888858">
		<tag k="fixme" v="consider natural=peak for the most distinct mountains in the district" />
		<tag k="name" v="Høgåsen" />
		<tag k="natural" v="hill" />
		<tag k="place" v="locality" />
		<tag k="ssr:stedsnr" v="716699" />
	</node>
	<node id="-22949" lat="68.0531055538" lon="13.2532555654">
		<tag k="name" v="Steinryggen" />
		<tag k="natural" v="ridge" />
		<tag k="place" v="locality" />
		<tag k="ssr:stedsnr" v="716474" />
	</node>
	<node id="-22948" lat="68.0330888915" lon="13.0420527702">
		<tag k="name" v="Geithellaren" />
		<tag k="place" v="locality" />
		<tag k="ssr:stedsnr" v="716381" />
	</node>
	<node id="-22947" lat="68.0327444423" lon="13.0385583387">
		<tag k="name" v="Ørnreiret" />
		<tag k="natural" v="cliff" />
		<tag k="ssr:stedsnr" v="716378" />
	</node>
	<node id="-22944" lat="68.0344805596" lon="13.3721027703">
		<tag k="fixme" v="consider natural=peak for the most distinct mountains in the district" />
		<tag k="name" v="Sultinden" />
		<tag k="natural" v="hill" />
		<tag k="ssr:stedsnr" v="595916" />
	</node>
	<node id="-22943" lat="68.0909388906" lon="13.1185388796">
		<tag k="name" v="Trollhestan" />
		<tag k="natural" v="ridge" />
		<tag k="place" v="locality" />
		<tag k="ssr:stedsnr" v="595855" />
	</node>
	<node id="-22942" lat="68.0854861148" lon="13.1489222212">
		<tag k="fixme" v="consider natural=peak for the most distinct mountains in the district" />
		<tag k="name" v="Børhesten" />
		<tag k="natural" v="hill" />
		<tag k="place" v="locality" />
		<tag k="ssr:stedsnr" v="595834" />
	</node>
	<node id="-22940" lat="68.0915694492" lon="13.251436102">
		<tag k="name" v="Øverdalen" />
		<tag k="natural" v="valley" />
		<tag k="place" v="locality" />
		<tag k="ssr:stedsnr" v="704788" />
	</node>
	<node id="-22939" lat="68.0927305533" lon="13.3715472195">
		<tag k="fixme" v="consider natural=peak for the most distinct mountains in the district" />
		<tag k="name" v="Hestmanken" />
		<tag k="natural" v="hill" />
		<tag k="place" v="locality" />
		<tag k="ssr:stedsnr" v="562812" />
	</node>
	<node id="-22936" lat="68.0931388916" lon="13.1107500084">
		<tag k="name" v="Kvanntoet" />
		<tag k="natural" v="slope" />
		<tag k="place" v="locality" />
		<tag k="ssr:stedsnr" v="535955" />
	</node>
	<node id="-22933" lat="68.0645805521" lon="13.3079666711">
		<tag k="name" v="Storlia" />
		<tag k="natural" v="slope" />
		<tag k="place" v="locality" />
		<tag k="ssr:stedsnr" v="534580" />
	</node>
	<node id="-22932" lat="68.066652774" lon="13.1568499921">
		<tag k="name" v="Storhammaren" />
		<tag k="natural" v="cliff" />
		<tag k="ssr:stedsnr" v="534636" />
	</node>
	<node id="-22930" lat="68.0608694415" lon="13.2562638825">
		<tag k="name" v="Bålryggen" />
		<tag k="natural" v="ridge" />
		<tag k="place" v="locality" />
		<tag k="ssr:stedsnr" v="534612" />
	</node>
	<node id="-22929" lat="68.0127305518" lon="13.0213000011">
		<tag k="name" v="Marskan" />
		<tag k="natural" v="slope" />
		<tag k="place" v="locality" />
		<tag k="ssr:stedsnr" v="534361" />
	</node>
	<node id="-22926" lat="68.1621361113" lon="13.3760611144">
		<tag k="name" v="Tjeldsnesfloget" />
		<tag k="natural" v="slope" />
		<tag k="place" v="locality" />
		<tag k="ssr:stedsnr" v="684996" />
	</node>
	<node id="-22923" lat="68.1517222245" lon="13.4019194564">
		<tag k="name" v="Storsandnesdalen" />
		<tag k="natural" v="valley" />
		<tag k="place" v="locality" />
		<tag k="ssr:stedsnr" v="684961" />
	</node>
	<node id="-22921" lat="68.1074249959" lon="13.355561114">
		<tag k="fixme" v="consider natural=peak for the most distinct mountains in the district" />
		<tag k="name" v="Digertinden" />
		<tag k="natural" v="hill" />
		<tag k="place" v="locality" />
		<tag k="ssr:stedsnr" v="684858" />
	</node>
	<node id="-22920" lat="68.0160027741" lon="13.2901277849">
		<tag k="name" v="Vassdalen" />
		<tag k="natural" v="valley" />
		<tag k="place" v="locality" />
		<tag k="ssr:stedsnr" v="684857" />
	</node>
	<node id="-22919" lat="68.0986861116" lon="13.2590333329">
		<tag k="name" v="Vassdalen" />
		<tag k="natural" v="valley" />
		<tag k="place" v="locality" />
		<tag k="ssr:stedsnr" v="684836" />
	</node>
	<node id="-22917" lat="68.1267805575" lon="13.3536638817">
		<tag k="name" v="Trolldalen" />
		<tag k="natural" v="valley" />
		<tag k="place" v="locality" />
		<tag k="ssr:stedsnr" v="684777" />
	</node>
	<node id="-22916" lat="68.1314583345" lon="13.3149249984">
		<tag k="fixme" v="consider natural=peak for the most distinct mountains in the district" />
		<tag k="name" v="Knubban" />
		<tag k="natural" v="hill" />
		<tag k="place" v="locality" />
		<tag k="ssr:stedsnr" v="684776" />
	</node>
	<node id="-22914" lat="68.0943388891" lon="13.3617972197">
		<tag k="name" v="Kildalen" />
		<tag k="natural" v="valley" />
		<tag k="place" v="locality" />
		<tag k="ssr:stedsnr" v="684659" />
	</node>
	<node id="-22913" lat="68.0940666658" lon="13.1766499926">
		<tag k="name" v="Austberget" />
		<tag k="natural" v="hill" />
		<tag k="place" v="locality" />
		<tag k="ssr:stedsnr" v="684248" />
	</node>
	<node id="-22910" lat="68.0113361101" lon="13.1069611047">
		<tag k="name" v="Storlia" />
		<tag k="natural" v="slope" />
		<tag k="place" v="locality" />
		<tag k="ssr:stedsnr" v="684035" />
	</node>
	<node id="-22906" lat="68.071755556" lon="13.3001972144">
		<tag k="fixme" v="consider natural=peak for the most distinct mountains in the district" />
		<tag k="name" v="Kollfjellet" />
		<tag k="natural" v="hill" />
		<tag k="place" v="locality" />
		<tag k="ssr:stedsnr" v="502736" />
	</node>
	<node id="-22903" lat="68.0586361075" lon="13.0423944517">
		<tag k="name" v="Litljorddalen" />
		<tag k="natural" v="valley" />
		<tag k="place" v="locality" />
		<tag k="ssr:stedsnr" v="502004" />
	</node>
	<node id="-22900" lat="68.1396611082" lon="13.3765861017">
		<tag k="name" v="Fagerdalen" />
		<tag k="natural" v="valley" />
		<tag k="place" v="locality" />
		<tag k="ssr:stedsnr" v="446024" />
	</node>
	<node id="-22899" lat="68.1382583322" lon="13.4554916605">
		<tag k="name" v="Arntbergan" />
		<tag k="place" v="locality" />
		<tag k="ssr:stedsnr" v="446018" />
	</node>
	<node id="-22893" lat="68.0944888903" lon="13.1189305516">
		<tag k="name" v="Litljorda" />
		<tag k="natural" v="valley" />
		<tag k="place" v="locality" />
		<tag k="ssr:stedsnr" v="656954" />
	</node>
	<node id="-22892" lat="68.0084388895" lon="13.2846749904">
		<tag k="name" v="Svarøra" />
		<tag k="natural" v="cliff" />
		<tag k="ssr:stedsnr" v="656892" />
	</node>
	<node id="-22891" lat="68.048988889" lon="13.2559333406">
		<tag k="name" v="Småliskogen" />
		<tag k="natural" v="slope" />
		<tag k="place" v="locality" />
		<tag k="ssr:stedsnr" v="656449" />
	</node>
	<node id="-22889" lat="68.1150416649" lon="13.3453277766">
		<tag k="name" v="Elvbakken" />
		<tag k="natural" v="slope" />
		<tag k="place" v="locality" />
		<tag k="ssr:stedsnr" v="656219" />
	</node>
	<node id="-22887" lat="68.1328944453" lon="13.3140638995">
		<tag k="name" v="Mannen" />
		<tag k="natural" v="ridge" />
		<tag k="place" v="locality" />
		<tag k="ssr:stedsnr" v="656299" />
	</node>
	<node id="-22885" lat="68.1178722217" lon="13.4292694369">
		<tag k="name" v="Klokkarberget" />
		<tag k="natural" v="hill" />
		<tag k="place" v="locality" />
		<tag k="ssr:stedsnr" v="655830" />
	</node>
	<node id="-22882" lat="68.1354972182" lon="13.3075083294">
		<tag k="name" v="Sandnesskolten" />
		<tag k="natural" v="hill" />
		<tag k="place" v="locality" />
		<tag k="ssr:stedsnr" v="413327" />
	</node>
	<node id="-22877" lat="68.1440305532" lon="13.4149861011">
		<tag k="alt_name" v="Stornapptinden" />
		<tag k="fixme" v="consider natural=peak for the most distinct mountains in the district" />
		<tag k="name" v="Stornappstinden" />
		<tag k="natural" v="hill" />
		<tag k="old_name" v="Stornappstiden" />
		<tag k="place" v="locality" />
		<tag k="ssr:stedsnr" v="502948" />
	</node>
	<node id="-22876" lat="68.144125001" lon="13.3776777846">
		<tag k="fixme" v="consider natural=peak for the most distinct mountains in the district" />
		<tag k="name" v="Middagstinden" />
		<tag k="natural" v="hill" />
		<tag k="place" v="locality" />
		<tag k="ssr:stedsnr" v="502947" />
	</node>
	<node id="-22871" lat="68.1159166662" lon="13.3878166555">
		<tag k="alt_name" v="Klauva, store" />
		<tag k="fixme" v="consider natural=peak for the most distinct mountains in the district" />
		<tag k="name" v="Store Klauva" />
		<tag k="natural" v="hill" />
		<tag k="place" v="locality" />
		<tag k="ssr:stedsnr" v="502880" />
	</node>
	<node id="-22867" lat="68.1064000012" lon="13.3806277835">
		<tag k="fixme" v="consider natural=peak for the most distinct mountains in the district" />
		<tag k="name" v="Merra" />
		<tag k="natural" v="hill" />
		<tag k="place" v="locality" />
		<tag k="ssr:stedsnr" v="502827" />
	</node>
	<node id="-22866" lat="68.037566666" lon="13.3072916779">
		<tag k="name" v="Skjådalen" />
		<tag k="natural" v="valley" />
		<tag k="place" v="locality" />
		<tag k="ssr:stedsnr" v="502536" />
	</node>
	<node id="-22859" lat="68.0890833323" lon="13.0929833396">
		<tag k="fixme" v="consider natural=peak for the most distinct mountains in the district" />
		<tag k="name" v="Ryten" />
		<tag k="natural" v="hill" />
		<tag k="place" v="locality" />
		<tag k="ssr:stedsnr" v="502211" />
	</node>
	<node id="-22856" lat="68.0197027779" lon="13.1291500027">
		<tag k="fixme" v="consider natural=peak for the most distinct mountains in the district" />
		<tag k="name" v="Narvtinden" />
		<tag k="natural" v="hill" />
		<tag k="place" v="locality" />
		<tag k="ssr:stedsnr" v="502047" />
	</node>
	<node id="-22854" lat="68.0280555595" lon="13.3190333305">
		<tag k="name" v="Mosedalen" />
		<tag k="natural" v="valley" />
		<tag k="place" v="locality" />
		<tag k="ssr:stedsnr" v="352928" />
	</node>
	<node id="-22853" lat="68.0245583347" lon="13.2836888875">
		<tag k="name" v="Ramnlidalsheia" />
		<tag k="natural" v="hill" />
		<tag k="place" v="locality" />
		<tag k="ssr:stedsnr" v="352117" />
	</node>
	<node id="-22852" lat="68.0102444478" lon="13.2953250029">
		<tag k="name" v="Grønnbakkan" />
		<tag k="natural" v="slope" />
		<tag k="place" v="locality" />
		<tag k="ssr:stedsnr" v="474989" />
	</node>
	<node id="-22851" lat="67.9876472221" lon="13.124999995">
		<tag k="name" v="Svartvassheia" />
		<tag k="natural" v="hill" />
		<tag k="place" v="locality" />
		<tag k="ssr:stedsnr" v="474973" />
	</node>
	<node id="-22844" lat="68.0816361096" lon="13.1615333318">
		<tag k="name" v="Bruan" />
		<tag k="natural" v="slope" />
		<tag k="place" v="locality" />
		<tag k="ssr:stedsnr" v="474830" />
	</node>
	<node id="-22839" lat="68.0228027778" lon="13.2772222309">
		<tag k="name" v="Kjølen" />
		<tag k="natural" v="ridge" />
		<tag k="place" v="locality" />
		<tag k="ssr:stedsnr" v="474100" />
	</node>
	<node id="-22838" lat="68.167088889" lon="13.3425500024">
		<tag k="name" v="Hornmoa" />
		<tag k="natural" v="slope" />
		<tag k="place" v="locality" />
		<tag k="ssr:stedsnr" v="474094" />
	</node>
	<node id="-22837" lat="68.0090944459" lon="13.1449805598">
		<tag k="name" v="Svaet" />
		<tag k="natural" v="cliff" />
		<tag k="ssr:stedsnr" v="473927" />
	</node>
	<node id="-22835" lat="68.0775027775" lon="13.0991194432">
		<tag k="name" v="Rørholmen" />
		<tag k="natural" v="ridge" />
		<tag k="place" v="locality" />
		<tag k="ssr:stedsnr" v="473652" />
	</node>
	<node id="-22834" lat="68.0754027765" lon="13.3060638851">
		<tag k="name" v="Bukkhammaren" />
		<tag k="natural" v="cliff" />
		<tag k="ssr:stedsnr" v="473596" />
	</node>
	<node id="-22833" lat="68.0736916656" lon="13.3779000103">
		<tag k="name" v="Hellen" />
		<tag k="natural" v="slope" />
		<tag k="place" v="locality" />
		<tag k="ssr:stedsnr" v="473584" />
	</node>
	<node id="-22830" lat="68.0645972215" lon="13.3259722248">
		<tag k="name" v="Tåa" />
		<tag k="natural" v="ridge" />
		<tag k="place" v="locality" />
		<tag k="ssr:stedsnr" v="473564" />
	</node>
	<node id="-22828" lat="68.0556805599" lon="13.2067361107">
		<tag k="name" v="Svartdalen" />
		<tag k="natural" v="valley" />
		<tag k="place" v="locality" />
		<tag k="ssr:stedsnr" v="473416" />
	</node>
	<node id="-22827" lat="68.022669448" lon="13.1265055635">
		<tag k="name" v="Trolldalen" />
		<tag k="natural" v="valley" />
		<tag k="place" v="locality" />
		<tag k="ssr:stedsnr" v="473388" />
	</node>
	<node id="-22825" lat="68.0198805556" lon="13.076497233">
		<tag k="name" v="Svarthammaren" />
		<tag k="natural" v="cliff" />
		<tag k="ssr:stedsnr" v="473380" />
	</node>
	<node id="-22824" lat="68.0272194435" lon="13.154566662">
		<tag k="name" v="Vidalen" />
		<tag k="natural" v="valley" />
		<tag k="place" v="locality" />
		<tag k="ssr:stedsnr" v="473180" />
	</node>
	<node id="-22823" lat="68.104391668" lon="13.4173305563">
		<tag k="name" v="Kuberget" />
		<tag k="natural" v="hill" />
		<tag k="place" v="locality" />
		<tag k="ssr:stedsnr" v="473161" />
	</node>
	<node id="-22821" lat="68.0275083294" lon="13.2197972206">
		<tag k="name" v="Stjerndalen" />
		<tag k="natural" v="valley" />
		<tag k="place" v="locality" />
		<tag k="ssr:stedsnr" v="471980" />
	</node>
	<node id="-22820" lat="68.0954666655" lon="13.0940999956">
		<tag k="name" v="Mikkjelskaret" />
		<tag k="natural" v="valley" />
		<tag k="place" v="locality" />
		<tag k="ssr:stedsnr" v="292979" />
	</node>
	<node id="-22817" lat="68.0429527732" lon="13.1747138923">
		<tag k="name" v="Breiskaret" />
		<tag k="natural" v="valley" />
		<tag k="place" v="locality" />
		<tag k="ssr:stedsnr" v="292355" />
	</node>
	<node id="-22814" lat="68.1102138926" lon="13.371227776">
		<tag k="name" v="Budalen" />
		<tag k="natural" v="valley" />
		<tag k="place" v="locality" />
		<tag k="ssr:stedsnr" v="291152" />
	</node>
	<node id="-22813" lat="68.091883337" lon="13.2402972184">
		<tag k="name" v="Dalbrekka" />
		<tag k="natural" v="ridge" />
		<tag k="place" v="locality" />
		<tag k="ssr:stedsnr" v="462810" />
	</node>
	<node id="-22812" lat="68.0869138855" lon="13.3897972197">
		<tag k="name" v="Ørnheia" />
		<tag k="natural" v="hill" />
		<tag k="place" v="locality" />
		<tag k="ssr:stedsnr" v="461739" />
	</node>
	<node id="-22810" lat="68.0730944461" lon="13.3641500118">
		<tag k="fixme" v="consider natural=peak for the most distinct mountains in the district" />
		<tag k="name" v="Kamman" />
		<tag k="natural" v="hill" />
		<tag k="place" v="locality" />
		<tag k="ssr:stedsnr" v="259720" />
	</node>
	<node id="-22801" lat="68.0601555579" lon="13.2249527725">
		<tag k="name" v="Kvanndalen" />
		<tag k="natural" v="valley" />
		<tag k="place" v="locality" />
		<tag k="ssr:stedsnr" v="231709" />
	</node>
	<node id="-22799" lat="68.141358335" lon="13.3287722182">
		<tag k="name" v="Magro Skjellrop" />
		<tag k="natural" v="slope" />
		<tag k="place" v="locality" />
		<tag k="ssr:stedsnr" v="231353" />
	</node>
	<node id="-22798" lat="68.0072555592" lon="13.2026305542">
		<tag k="name" v="Fugleberget" />
		<tag k="natural" v="cliff" />
		<tag k="ssr:stedsnr" v="230909" />
	</node>
	<node id="-22797" lat="68.0301750015" lon="13.2224583425">
		<tag k="name" v="Norddalen" />
		<tag k="natural" v="valley" />
		<tag k="place" v="locality" />
		<tag k="ssr:stedsnr" v="230111" />
	</node>
	<node id="-22796" lat="68.1497777734" lon="13.327725002">
		<tag k="fixme" v="consider natural=peak for the most distinct mountains in the district" />
		<tag k="name" v="Bjørntinden" />
		<tag k="natural" v="hill" />
		<tag k="place" v="locality" />
		<tag k="ssr:stedsnr" v="442950" />
	</node>
	<node id="-22792" lat="68.1353888895" lon="13.4073416558">
		<tag k="alt_name" v="Nattmålstinden" />
		<tag k="fixme" v="consider natural=peak for the most distinct mountains in the district" />
		<tag k="name" v="Litlnappstinden" />
		<tag k="natural" v="hill" />
		<tag k="place" v="locality" />
		<tag k="ssr:stedsnr" v="442815" />
	</node>
	<node id="-22790" lat="68.0435361125" lon="13.31095277">
		<tag k="alt_name" v="Stjernhovudet" />
		<tag k="fixme" v="consider natural=peak for the most distinct mountains in the district" />
		<tag k="name" v="Stjernhauet" />
		<tag k="natural" v="hill" />
		<tag k="place" v="locality" />
		<tag k="ssr:stedsnr" v="442748" />
	</node>
	<node id="-22789" lat="68.0469777809" lon="13.2949861186">
		<tag k="fixme" v="consider natural=peak for the most distinct mountains in the district" />
		<tag k="name" v="Stjerntinden" />
		<tag k="natural" v="hill" />
		<tag k="place" v="locality" />
		<tag k="ssr:stedsnr" v="442738" />
	</node>
	<node id="-22788" lat="67.9889277736" lon="13.1576722214">
		<tag k="fixme" v="consider natural=peak for the most distinct mountains in the district" />
		<tag k="name" v="Fjøsdalstinden" />
		<tag k="natural" v="hill" />
		<tag k="place" v="locality" />
		<tag k="ssr:stedsnr" v="442453" />
	</node>
	<node id="-22782" lat="68.0136027778" lon="13.1195222174">
		<tag k="fixme" v="consider natural=peak for the most distinct mountains in the district" />
		<tag k="name" v="Nuten" />
		<tag k="natural" v="hill" />
		<tag k="place" v="locality" />
		<tag k="ssr:stedsnr" v="442049" />
	</node>
	<node id="-22780" lat="68.1629194469" lon="13.386427779">
		<tag k="name" v="Gjurryggen" />
		<tag k="natural" v="ridge" />
		<tag k="place" v="locality" />
		<tag k="ssr:stedsnr" v="441997" />
	</node>
	<node id="-22772" lat="68.1397638861" lon="13.4232083241">
		<tag k="alt_name" v="Litl-Nappstinden" />
		<tag k="fixme" v="consider natural=peak for the most distinct mountains in the district" />
		<tag k="name" v="Perklubben" />
		<tag k="natural" v="hill" />
		<tag k="place" v="locality" />
		<tag k="ssr:stedsnr" v="199809" />
	</node>
	<node id="-22771" lat="68.1391916661" lon="13.434880559">
		<tag k="fixme" v="consider natural=peak for the most distinct mountains in the district" />
		<tag k="name" v="Bakkehammaren" />
		<tag k="natural" v="hill" />
		<tag k="place" v="locality" />
		<tag k="ssr:stedsnr" v="199808" />
	</node>
	<node id="-22768" lat="68.0590194485" lon="13.3635611216">
		<tag k="fixme" v="consider natural=peak for the most distinct mountains in the district" />
		<tag k="name" v="Fisken" />
		<tag k="natural" v="hill" />
		<tag k="place" v="locality" />
		<tag k="ssr:stedsnr" v="199718" />
	</node>
	<node id="-22766" lat="68.0113249973" lon="13.305208336">
		<tag k="alt_name" v="Skardslaghaugen" />
		<tag k="name" v="Skarslagshaugen" />
		<tag k="natural" v="hill" />
		<tag k="place" v="locality" />
		<tag k="ssr:stedsnr" v="199502" />
	</node>
	<node id="-22765" lat="67.9995277747" lon="13.1638916779">
		<tag k="fixme" v="multiple name tags, choose one and add the other to alt_name; consider natural=peak for the most distinct mountains in the district" />
		<tag k="name" v="Okstinden;Solheia" />
		<tag k="natural" v="hill" />
		<tag k="place" v="locality" />
		<tag k="ssr:stedsnr" v="199307" />
	</node>
	<node id="-22760" lat="67.9751388882" lon="13.1863916551">
		<tag k="name" v="Tallerkenan" />
		<tag k="place" v="locality" />
		<tag k="ssr:stedsnr" v="292950" />
	</node>
	<node id="-22757" lat="68.0319583308" lon="13.3647360987">
		<tag k="name" v="Fjellet" />
		<tag k="natural" v="cliff" />
		<tag k="ssr:stedsnr" v="292927" />
	</node>
	<node id="-22755" lat="68.0105694419" lon="13.1192583375">
		<tag k="name" v="Smålia" />
		<tag k="natural" v="slope" />
		<tag k="place" v="locality" />
		<tag k="ssr:stedsnr" v="292916" />
	</node>
	<node id="-22753" lat="68.0086611108" lon="13.2611861144">
		<tag k="name" v="Båthellaren" />
		<tag k="place" v="locality" />
		<tag k="ssr:stedsnr" v="292906" />
	</node>
	<node id="-22752" lat="68.0093222188" lon="13.2679083214">
		<tag k="name" v="Puken" />
		<tag k="natural" v="cliff" />
		<tag k="ssr:stedsnr" v="292874" />
	</node>
	<node id="-22751" lat="68.0082777737" lon="13.2790055596">
		<tag k="name" v="Svartflogan" />
		<tag k="natural" v="cliff" />
		<tag k="ssr:stedsnr" v="292872" />
	</node>
	<node id="-22750" lat="68.0913222263" lon="13.115297219">
		<tag k="name" v="Falkvengen" />
		<tag k="natural" v="ridge" />
		<tag k="place" v="locality" />
		<tag k="ssr:stedsnr" v="292863" />
	</node>
	<node id="-22746" lat="68.0657388886" lon="13.2386222194">
		<tag k="name" v="Leitet" />
		<tag k="place" v="locality" />
		<tag k="ssr:stedsnr" v="292640" />
	</node>
	<node id="-22744" lat="68.0533638898" lon="13.119355546">
		<tag k="name" v="Rishågen" />
		<tag k="natural" v="hill" />
		<tag k="place" v="locality" />
		<tag k="ssr:stedsnr" v="292541" />
	</node>
	<node id="-22743" lat="68.0438305562" lon="13.2949749983">
		<tag k="name" v="Seglet" />
		<tag k="natural" v="ridge" />
		<tag k="place" v="locality" />
		<tag k="ssr:stedsnr" v="292477" />
	</node>
	<node id="-22738" lat="68.1110611072" lon="13.1409611181">
		<tag k="name" v="Lundhalsen" />
		<tag k="natural" v="valley" />
		<tag k="place" v="locality" />
		<tag k="ssr:stedsnr" v="292168" />
	</node>
	<node id="-22734" lat="68.1654472196" lon="13.3439138825">
		<tag k="name" v="Rumplia" />
		<tag k="natural" v="slope" />
		<tag k="place" v="locality" />
		<tag k="ssr:stedsnr" v="292068" />
	</node>
	<node id="-22733" lat="68.0779416643" lon="13.2507222131">
		<tag k="name" v="Kvanndalen" />
		<tag k="natural" v="valley" />
		<tag k="place" v="locality" />
		<tag k="ssr:stedsnr" v="291784" />
	</node>
	<node id="-22729" lat="68.0147777805" lon="13.3051555638">
		<tag k="name" v="Brattberget" />
		<tag k="natural" v="hill" />
		<tag k="place" v="locality" />
		<tag k="ssr:stedsnr" v="290506" />
	</node>
	<node id="-22726" lat="68.08720833" lon="13.1501194408">
		<tag k="name" v="Børdalen" />
		<tag k="natural" v="valley" />
		<tag k="place" v="locality" />
		<tag k="ssr:stedsnr" v="171844" />
	</node>
	<node id="-22719" lat="68.010130551" lon="13.0937361156">
		<tag k="name" v="Bukklia" />
		<tag k="natural" v="slope" />
		<tag k="place" v="locality" />
		<tag k="ssr:stedsnr" v="110925" />
	</node>
	<node id="-22718" lat="68.0416666697" lon="13.0313027715">
		<tag k="name" v="Hjellbergskaret" />
		<tag k="natural" v="valley" />
		<tag k="place" v="locality" />
		<tag k="ssr:stedsnr" v="110711" />
	</node>
	<node id="-22715" lat="68.039750001" lon="13.0802527758">
		<tag k="name" v="Jakobhelleren" />
		<tag k="place" v="locality" />
		<tag k="ssr:stedsnr" v="110409" />
	</node>
	<node id="-22713" lat="68.1405500008" lon="13.3175583454">
		<tag k="name" v="Sørtaen" />
		<tag k="natural" v="slope" />
		<tag k="place" v="locality" />
		<tag k="ssr:stedsnr" v="110322" />
	</node>
	<node id="-22708" lat="68.1377777763" lon="13.3217805586">
		<tag k="alt_name" v="Kinnene" />
		<tag k="name" v="Kinnen" />
		<tag k="natural" v="hill" />
		<tag k="place" v="locality" />
		<tag k="ssr:stedsnr" v="260836" />
	</node>
	<node id="-22707" lat="68.1349499978" lon="13.3271083378">
		<tag k="name" v="Laurdalen" />
		<tag k="natural" v="valley" />
		<tag k="place" v="locality" />
		<tag k="ssr:stedsnr" v="260834" />
	</node>
	<node id="-22705" lat="68.0497555556" lon="13.2319472296">
		<tag k="alt_name" v="Vestresida" />
		<tag k="name" v="Vestersida" />
		<tag k="natural" v="slope" />
		<tag k="place" v="locality" />
		<tag k="ssr:stedsnr" v="260748" />
	</node>
	<node id="-22700" lat="68.0292888932" lon="13.2783972274">
		<tag k="alt_name" v="Svalidalen" />
		<tag k="name" v="Svadlidalen" />
		<tag k="natural" v="valley" />
		<tag k="place" v="locality" />
		<tag k="ssr:stedsnr" v="260577" />
	</node>
	<node id="-22699" lat="67.9805277796" lon="13.0757333314">
		<tag k="fixme" v="consider natural=peak for the most distinct mountains in the district" />
		<tag k="name" v="Litlklokktinden" />
		<tag k="natural" v="hill" />
		<tag k="place" v="locality" />
		<tag k="ssr:stedsnr" v="260469" />
	</node>
	<node id="-22698" lat="68.0394777769" lon="13.0280472128">
		<tag k="fixme" v="consider natural=peak for the most distinct mountains in the district" />
		<tag k="name" v="Ryptinden" />
		<tag k="natural" v="hill" />
		<tag k="place" v="locality" />
		<tag k="ssr:stedsnr" v="260047" />
	</node>
	<node id="-22683" lat="68.0260861117" lon="13.1618888897">
		<tag k="name" v="Knubben" />
		<tag k="natural" v="hill" />
		<tag k="place" v="locality" />
		<tag k="ssr:stedsnr" v="259014" />
	</node>
	<node id="-22681" lat="68.0918638847" lon="13.1241055536">
		<tag k="fixme" v="consider natural=peak for the most distinct mountains in the district" />
		<tag k="name" v="Tinden" />
		<tag k="natural" v="hill" />
		<tag k="ssr:stedsnr" v="50954" />
	</node>
	<node id="-22679" lat="68.088561108" lon="13.1713555588">
		<tag k="name" v="Solhaug" />
		<tag k="natural" v="slope" />
		<tag k="place" v="locality" />
		<tag k="ssr:stedsnr" v="50812" />
	</node>
	<node id="-22672" lat="68.0895055548" lon="13.25949723">
		<tag k="name" v="Snydronninga" />
		<tag k="natural" v="valley" />
		<tag k="place" v="locality" />
		<tag k="ssr:stedsnr" v="37825" />
	</node>
	<node id="-22668" lat="68.0696777787" lon="13.3288027814">
		<tag k="name" v="Torvhågen" />
		<tag k="natural" v="hill" />
		<tag k="place" v="locality" />
		<tag k="ssr:stedsnr" v="231645" />
	</node>
	<node id="-22666" lat="68.0498333324" lon="13.0982833223">
		<tag k="name" v="Heia" />
		<tag k="natural" v="hill" />
		<tag k="place" v="locality" />
		<tag k="ssr:stedsnr" v="231612" />
	</node>
	<node id="-22660" lat="68.0141888927" lon="13.1682194408">
		<tag k="name" v="Kinnhola" />
		<tag k="natural" v="valley" />
		<tag k="place" v="locality" />
		<tag k="ssr:stedsnr" v="231180" />
	</node>
	<node id="-22659" lat="68.1652361089" lon="13.3515222291">
		<tag k="name" v="Raen" />
		<tag k="natural" v="ridge" />
		<tag k="place" v="locality" />
		<tag k="ssr:stedsnr" v="231092" />
	</node>
	<node id="-22658" lat="68.028325002" lon="13.1619138792">
		<tag k="name" v="Dalen" />
		<tag k="natural" v="valley" />
		<tag k="place" v="locality" />
		<tag k="ssr:stedsnr" v="231150" />
	</node>
	<node id="-22656" lat="68.0341333315" lon="13.2871388909">
		<tag k="fixme" v="consider natural=peak for the most distinct mountains in the district" />
		<tag k="name" v="Spinntinden" />
		<tag k="natural" v="hill" />
		<tag k="ssr:stedsnr" v="231135" />
	</node>
	<node id="-22654" lat="68.0158611155" lon="13.0835583292">
		<tag k="name" v="Vollan" />
		<tag k="natural" v="slope" />
		<tag k="place" v="locality" />
		<tag k="ssr:stedsnr" v="230340" />
	</node>
	<node id="-22653" lat="68.0237583309" lon="13.0369777709">
		<tag k="name" v="Fageråbrekka" />
		<tag k="natural" v="ridge" />
		<tag k="place" v="locality" />
		<tag k="ssr:stedsnr" v="230361" />
	</node>
	<node id="-22652" lat="68.1157138862" lon="13.3880360994">
		<tag k="fixme" v="consider natural=peak for the most distinct mountains in the district" />
		<tag k="name" v="Storklauvan" />
		<tag k="natural" v="hill" />
		<tag k="place" v="locality" />
		<tag k="ssr:stedsnr" v="230145" />
	</node>
	<node id="-22649" lat="68.1266388899" lon="13.3725361145">
		<tag k="name" v="Ramnflogheia" />
		<tag k="natural" v="hill" />
		<tag k="place" v="locality" />
		<tag k="ssr:stedsnr" v="21014" />
	</node>
	<node id="-22642" lat="68.0475194428" lon="13.3796638907">
		<tag k="name" v="Rakvikdalen" />
		<tag k="natural" v="valley" />
		<tag k="place" v="locality" />
		<tag k="ssr:stedsnr" v="17748" />
	</node>
	<node id="-22640" lat="68.0914388884" lon="13.2675416681">
		<tag k="alt_name" v="Dreviskardet" />
		<tag k="name" v="Dreviskaret" />
		<tag k="natural" v="valley" />
		<tag k="place" v="locality" />
		<tag k="ssr:stedsnr" v="17713" />
	</node>
	<node id="-22639" lat="68.0908777792" lon="13.4192083373">
		<tag k="name" v="Storbåthellaren" />
		<tag k="natural" v="hill" />
		<tag k="place" v="locality" />
		<tag k="ssr:stedsnr" v="17708" />
	</node>
	<node id="-22638" lat="68.0984888914" lon="13.4134138817">
		<tag k="name" v="Storhågen" />
		<tag k="natural" v="hill" />
		<tag k="place" v="locality" />
		<tag k="ssr:stedsnr" v="219743" />
	</node>
</osm>
