<?xml version="1.0" encoding="UTF-8"?>
<<<<<<< HEAD
<osm version="0.6" generator="osmapis">
	<node lat="68.09920555135385" lon="13.322311107237638" id="-9989">
		<tag k="name" v="Silsandnes" />
		<tag k="natural" v="cape" />
		<tag k="ssr:stedsnr" v="230750" />
	</node>
	<node lat="68.10464166660098" lon="13.278258335203294" id="-9991">
		<tag k="name" v="Brunstranda" />
		<tag k="natural" v="beach" />
		<tag k="ssr:stedsnr" v="231263" />
	</node>
	<node lat="68.0371611136288" lon="13.349608327493302" id="-9995">
		<tag k="name" v="Skjeret" />
		<tag k="natural" v="cape" />
		<tag k="ssr:stedsnr" v="231542" />
	</node>
	<node lat="68.05946388693826" lon="13.168399992419033" id="-9999">
		<tag k="name" v="Tussodden" />
		<tag k="natural" v="cape" />
		<tag k="ssr:stedsnr" v="231698" />
	</node>
	<node lat="68.04129444002159" lon="13.261122226709784" id="-10003">
		<tag k="name" v="Berget" />
		<tag k="natural" v="cape" />
		<tag k="ssr:stedsnr" v="232457" />
	</node>
	<node lat="68.06884166924618" lon="13.41070000985042" id="-10007">
		<tag k="fixme" v="consider seamark:type=rock or natural=shoal" />
		<tag k="name" v="Myrskjeran" />
		<tag k="place" v="islet" />
		<tag k="ssr:stedsnr" v="17727" />
	</node>
	<node lat="68.15257499588444" lon="13.429650010474267" id="-10011">
		<tag k="name" v="Oterneset" />
		<tag k="natural" v="cape" />
		<tag k="ssr:stedsnr" v="17964" />
	</node>
	<node lat="68.12579722296437" lon="13.390097230764104" id="-10012">
		<tag k="name" v="Rødsanden" />
		<tag k="natural" v="beach" />
		<tag k="ssr:stedsnr" v="21006" />
	</node>
	<node lat="68.15865833490142" lon="13.43320277138533" id="-10014">
		<tag k="name" v="Langroa" />
		<tag k="natural" v="shoal" />
		<tag k="place" v="locality" />
		<tag k="ssr:stedsnr" v="44018" />
	</node>
	<node lat="68.1616555525676" lon="13.44005833284095" id="-10015">
		<tag k="name" v="Hundholmen" />
		<tag k="place" v="islet" />
		<tag k="ssr:stedsnr" v="44020" />
	</node>
	<node lat="68.02085278167631" lon="13.094322230820405" id="-10017">
		<tag k="name" v="Holman" />
		<tag k="natural" v="cape" />
		<tag k="ssr:stedsnr" v="48326" />
	</node>
	<node lat="68.05397222263323" lon="13.399313885826597" id="-10018">
		<tag k="fixme" v="consider seamark:type=rock or natural=shoal" />
		<tag k="name" v="Hamnhaugskjeran" />
		<tag k="place" v="islet" />
		<tag k="ssr:stedsnr" v="48329" />
	</node>
	<node lat="68.03890555858341" lon="13.394647215853592" id="-10019">
		<tag k="name" v="Dalvika" />
		<tag k="natural" v="bay" />
		<tag k="ssr:stedsnr" v="48331" />
	</node>
	<node lat="68.0577527821127" lon="13.167422214540386" id="-10024">
		<tag k="name" v="Krystadvika" />
		<tag k="natural" v="bay" />
		<tag k="ssr:stedsnr" v="49677" />
	</node>
	<node lat="68.04186110754517" lon="13.26057221421041" id="-10026">
		<tag k="name" v="Innersanden" />
		<tag k="natural" v="beach" />
		<tag k="ssr:stedsnr" v="50473" />
	</node>
	<node lat="68.15549444288301" lon="13.045769437389323" id="-10029">
		<tag k="name" v="Bentskallen" />
		<tag k="natural" v="shoal" />
		<tag k="place" v="locality" />
		<tag k="ssr:stedsnr" v="77202" />
	</node>
	<node lat="68.14756388736093" lon="13.108044435294312" id="-10030">
		<tag k="name" v="Lysbåen" />
		<tag k="natural" v="shoal" />
		<tag k="place" v="locality" />
		<tag k="ssr:stedsnr" v="77214" />
	</node>
	<node lat="68.10656667022634" lon="13.187122215786317" id="-10031">
		<tag k="alt_name" v="Litllamholmen" />
		<tag k="name" v="Litl-Lamholmen" />
		<tag k="place" v="islet" />
		<tag k="ssr:stedsnr" v="77216" />
	</node>
	<node lat="68.13855555969116" lon="13.45863332522358" id="-10037">
		<tag k="alt_name" v="Nappholmen" />
		<tag k="name" v="Nappsholmen" />
		<tag k="natural" v="cape" />
		<tag k="ssr:stedsnr" v="78802" />
	</node>
	<node lat="68.1886416651275" lon="13.323075000959374" id="-10039">
		<tag k="fixme" v="consider seamark:type=rock or natural=shoal" />
		<tag k="name" v="Einsteinen" />
		<tag k="place" v="islet" />
		<tag k="ssr:stedsnr" v="78911" />
	</node>
	<node lat="68.17732499682671" lon="13.332002773192427" id="-10040">
		<tag k="name" v="Hornskallen" />
		<tag k="natural" v="shoal" />
		<tag k="place" v="locality" />
		<tag k="ssr:stedsnr" v="78898" />
	</node>
	<node lat="68.11464444699159" lon="13.136022211720702" id="-10047">
		<tag k="name" v="Kruna" />
		<tag k="place" v="islet" />
		<tag k="ssr:stedsnr" v="110279" />
	</node>
	<node lat="68.1139805518784" lon="13.119733337860662" id="-10048">
		<tag k="name" v="Gjerdsundnakken" />
		<tag k="place" v="islet" />
		<tag k="ssr:stedsnr" v="110288" />
	</node>
	<node lat="68.0021694437313" lon="13.28855555120953" id="-10054">
		<tag k="fixme" v="consider seamark:type=rock or natural=shoal" />
		<tag k="name" v="Langnesskjeran" />
		<tag k="place" v="islet" />
		<tag k="ssr:stedsnr" v="110876" />
	</node>
	<node lat="68.17341666772931" lon="13.155558326286062" id="-10057">
		<tag k="name" v="Holmflesa" />
		<tag k="place" v="islet" />
		<tag k="ssr:stedsnr" v="138227" />
	</node>
	<node lat="67.98888055705964" lon="13.173869435984107" id="-10058">
		<tag k="name" v="Skjåholman" />
		<tag k="place" v="islet" />
		<tag k="ssr:stedsnr" v="138448" />
	</node>
	<node lat="68.14442222662959" lon="13.307872226536023" id="-10060">
		<tag k="name" v="Erlyhatten" />
		<tag k="natural" v="shoal" />
		<tag k="place" v="locality" />
		<tag k="ssr:stedsnr" v="138944" />
	</node>
	<node lat="68.14621110877258" lon="13.460813896308586" id="-10061">
		<tag k="name" v="Gapet" />
		<tag k="natural" v="strait" />
		<tag k="ssr:stedsnr" v="138950" />
	</node>
	<node lat="68.20188333406516" lon="13.2702249960472" id="-10063">
		<tag k="name" v="Middagsbåen" />
		<tag k="natural" v="shoal" />
		<tag k="place" v="locality" />
		<tag k="ssr:stedsnr" v="259093" />
	</node>
	<node lat="68.15318333068745" lon="13.04041666850744" id="-10064">
		<tag k="name" v="Seiskallen" />
		<tag k="natural" v="shoal" />
		<tag k="place" v="locality" />
		<tag k="ssr:stedsnr" v="259185" />
	</node>
	<node lat="68.12755000347016" lon="12.977669445725128" id="-10065">
		<tag k="alt_name" v="Bragrunnskallen" />
		<tag k="name" v="Bragrunnan" />
		<tag k="natural" v="shoal" />
		<tag k="place" v="locality" />
		<tag k="ssr:stedsnr" v="259192" />
	</node>
	<node lat="68.12057499652866" lon="13.04039444558768" id="-10066">
		<tag k="alt_name" v="Skeiegrunnan" />
		<tag k="name" v="Skeiegrunnpallan" />
		<tag k="natural" v="shoal" />
		<tag k="place" v="locality" />
		<tag k="ssr:stedsnr" v="259193" />
	</node>
	<node lat="68.12166111195879" lon="12.963644440636063" id="-10067">
		<tag k="name" v="Vestreskallen" />
		<tag k="natural" v="shoal" />
=======
<osm generator="osmapis" version="0.6">
	<node id="-188416" lat="68.0851694436" lon="13.2185472248">
		<tag k="name" v="Rambergsvika" />
		<tag k="place" v="locality" />
		<tag k="ssr:stedsnr" v="839833" />
	</node>
	<node id="-188415" lat="68.0843111126" lon="13.1797416588">
		<tag k="name" v="Skjeppholmen" />
		<tag k="place" v="islet" />
		<tag k="ssr:stedsnr" v="839828" />
	</node>
	<node id="-188414" lat="68.0433583343" lon="13.2577222306">
		<tag k="name" v="Nordsanden" />
		<tag k="natural" v="beach" />
		<tag k="place" v="locality" />
		<tag k="ssr:stedsnr" v="839509" />
	</node>
	<node id="-188413" lat="68.0417388931" lon="13.0986611024">
		<tag k="name" v="Kinnbukta" />
		<tag k="natural" v="bay" />
		<tag k="ssr:stedsnr" v="839411" />
	</node>
	<node id="-188408" lat="68.1184833298" lon="13.2435861031">
		<tag k="name" v="Grunnen" />
		<tag k="natural" v="shoal" />
		<tag k="place" v="locality" />
		<tag k="ssr:stedsnr" v="839195" />
	</node>
	<node id="-188400" lat="68.0019666672" lon="13.2761916646">
		<tag k="name" v="Keila" />
		<tag k="natural" v="bay" />
		<tag k="ssr:stedsnr" v="838897" />
	</node>
	<node id="-188396" lat="68.0491000025" lon="13.1287194529">
		<tag k="name" v="Kroa" />
		<tag k="natural" v="bay" />
		<tag k="ssr:stedsnr" v="838596" />
	</node>
	<node id="-188382" lat="68.0061527769" lon="13.3023166592">
		<tag k="name" v="Storflua" />
>>>>>>> e1d4bc35ff8a6074a6f2e91616a996b547c36f15
		<tag k="place" v="locality" />
		<tag k="ssr:stedsnr" v="259196" />
	</node>
<<<<<<< HEAD
	<node lat="67.99756944600696" lon="13.181358344579856" id="-10069">
		<tag k="alt_name" v="Storsoløya, store" />
		<tag k="fixme" v="multiple name tags, choose one and add the other to alt_name" />
		<tag k="name" v="Soløya;Store Soløya;Store Storsoløya" />
=======
	<node id="-188376" lat="68.0572666701" lon="13.2331027683">
		<tag k="fixme" v="multiple name tags, choose one and add the other to alt_name; consider seamark:type=rock or natural=shoal" />
		<tag k="name" v="Drangan;Gammskjeret" />
>>>>>>> e1d4bc35ff8a6074a6f2e91616a996b547c36f15
		<tag k="place" v="islet" />
		<tag k="ssr:stedsnr" v="259439" />
	</node>
<<<<<<< HEAD
	<node lat="68.00719444880572" lon="13.218249990462505" id="-10070">
		<tag k="name" v="Torvvika" />
		<tag k="natural" v="strait" />
		<tag k="ssr:stedsnr" v="259493" />
	</node>
	<node lat="68.0591366405553" lon="13.237648491887988" id="-10072">
		<tag k="alt_name" v="Osen" />
		<tag k="name" v="Nordfjorden" />
=======
	<node id="-188371" lat="68.0809972221" lon="13.3032750046">
		<tag k="name" v="Bøosen" />
>>>>>>> e1d4bc35ff8a6074a6f2e91616a996b547c36f15
		<tag k="natural" v="bay" />
		<tag k="ssr:stedsnr" v="259745" />
	</node>
	<node lat="68.07850000343561" lon="13.34081667292796" id="-10089">
		<tag k="name" v="Breineset" />
		<tag k="natural" v="cape" />
		<tag k="ssr:stedsnr" v="170766" />
	</node>
<<<<<<< HEAD
	<node lat="68.10255277667376" lon="13.164961098883794" id="-10090">
=======
	<node id="-188367" lat="68.0312555527" lon="13.2565305513">
>>>>>>> e1d4bc35ff8a6074a6f2e91616a996b547c36f15
		<tag k="fixme" v="consider seamark:type=rock or natural=shoal" />
		<tag k="name" v="Kurraskjeret" />
		<tag k="place" v="islet" />
<<<<<<< HEAD
		<tag k="ssr:stedsnr" v="171171" />
	</node>
	<node lat="68.14786944253116" lon="13.446858325876203" id="-10091">
		<tag k="name" v="Drogstolen" />
=======
		<tag k="ssr:stedsnr" v="806542" />
	</node>
	<node id="-188364" lat="68.0526138933" lon="13.2414388802">
		<tag k="alt_name" v="Skjellfjorden" />
		<tag k="bay" v="fjord" />
		<tag k="name" v="Skjelfjorden" />
		<tag k="natural" v="bay" />
		<tag k="ssr:stedsnr" v="806531" />
	</node>
	<node id="-188359" lat="68.0849444444" lon="13.1993472218">
		<tag k="name" v="Torvøya" />
		<tag k="place" v="island" />
		<tag k="ssr:stedsnr" v="806265" />
	</node>
	<node id="-188357" lat="68.0051666675" lon="13.1989722146">
		<tag k="name" v="Blomsterøya" />
>>>>>>> e1d4bc35ff8a6074a6f2e91616a996b547c36f15
		<tag k="place" v="islet" />
		<tag k="ssr:stedsnr" v="260968" />
	</node>
<<<<<<< HEAD
	<node lat="68.06320833071327" lon="13.185822213115268" id="-10096">
		<tag k="name" v="Revsholmen" />
=======
	<node id="-188353" lat="68.0754388899" lon="13.1890888996">
		<tag k="alt_name" v="Løngøya" />
		<tag k="name" v="Lyngøya" />
>>>>>>> e1d4bc35ff8a6074a6f2e91616a996b547c36f15
		<tag k="place" v="islet" />
		<tag k="ssr:stedsnr" v="199018" />
	</node>
<<<<<<< HEAD
	<node lat="68.00945000028106" lon="13.119716666936224" id="-10098">
		<tag k="alt_name" v="Neset" />
		<tag k="name" v="Nesan" />
		<tag k="natural" v="cape" />
		<tag k="ssr:stedsnr" v="199055" />
	</node>
	<node lat="68.17924166577482" lon="13.153691664837355" id="-10099">
		<tag k="name" v="Skarvholman" />
		<tag k="place" v="islet" />
		<tag k="ssr:stedsnr" v="199224" />
	</node>
	<node lat="68.08053333614653" lon="13.022477782095567" id="-10102">
		<tag k="name" v="Kvalvikbåan" />
=======
	<node id="-188352" lat="68.1350583292" lon="13.4460361001">
		<tag k="alt_name" v="Øyra" />
		<tag k="name" v="Øra" />
		<tag k="natural" v="beach" />
		<tag k="place" v="locality" />
		<tag k="ssr:stedsnr" v="805752" />
	</node>
	<node id="-188345" lat="68.0023444484" lon="13.2170055679">
		<tag k="name" v="Dynan" />
>>>>>>> e1d4bc35ff8a6074a6f2e91616a996b547c36f15
		<tag k="natural" v="shoal" />
		<tag k="place" v="locality" />
		<tag k="ssr:stedsnr" v="199277" />
	</node>
<<<<<<< HEAD
	<node lat="68.02480555864685" lon="13.341424992598192" id="-10103">
		<tag k="alt_name" v="Tennholmen" />
		<tag k="name" v="Ternholmen" />
		<tag k="place" v="islet" />
		<tag k="ssr:stedsnr" v="199509" />
	</node>
	<node lat="68.08191389038952" lon="13.320616656873042" id="-10107">
		<tag k="bay" v="fjord" />
		<tag k="fixme" v="multiple name tags, choose one and add the other to alt_name" />
		<tag k="name" v="Flakstadpollen;Kilpollen" />
=======
	<node id="-188342" lat="68.0047277746" lon="13.2103333218">
		<tag k="name" v="Sundvågen" />
>>>>>>> e1d4bc35ff8a6074a6f2e91616a996b547c36f15
		<tag k="natural" v="bay" />
		<tag k="ssr:stedsnr" v="199654" />
	</node>
<<<<<<< HEAD
	<node lat="68.12376110777026" lon="13.377619449218386" id="-10114">
		<tag k="name" v="Bogneset" />
=======
	<node id="-188332" lat="68.0533527807" lon="13.1520694473">
		<tag k="name" v="Langnesodden" />
>>>>>>> e1d4bc35ff8a6074a6f2e91616a996b547c36f15
		<tag k="natural" v="cape" />
		<tag k="ssr:stedsnr" v="203019" />
	</node>
<<<<<<< HEAD
	<node lat="68.00180555617946" lon="13.280327783582834" id="-10115">
		<tag k="name" v="Trollungan" />
		<tag k="place" v="locality" />
		<tag k="seamark:type" v="rock" />
		<tag k="ssr:stedsnr" v="229591" />
	</node>
	<node lat="68.12958610953824" lon="13.296858323153751" id="-10125">
		<tag k="name" v="Hestneskeila" />
		<tag k="natural" v="cape" />
		<tag k="ssr:stedsnr" v="231338" />
	</node>
	<node lat="68.16975277514295" lon="13.321474995852558" id="-10128">
		<tag k="name" v="Hornneset" />
		<tag k="natural" v="cape" />
		<tag k="ssr:stedsnr" v="450430" />
	</node>
	<node lat="68.04957221923767" lon="13.16044443659162" id="-10129">
		<tag k="bay" v="fjord" />
		<tag k="name" v="Selfjorden" />
		<tag k="natural" v="bay" />
		<tag k="ssr:stedsnr" v="259011" />
	</node>
	<node lat="68.20783610721095" lon="13.23435833458814" id="-10131">
		<tag k="alt_name" v="Fallet" />
		<tag k="name" v="Myrlandsfallet" />
		<tag k="natural" v="shoal" />
		<tag k="place" v="locality" />
		<tag k="ssr:stedsnr" v="259080" />
	</node>
	<node lat="68.08765000204502" lon="13.189025005305034" id="-10132">
		<tag k="name" v="Røssøystraumen" />
		<tag k="natural" v="strait" />
		<tag k="ssr:stedsnr" v="259215" />
	</node>
	<node lat="68.07836388643257" lon="13.078336105183773" id="-10134">
		<tag k="name" v="Kvalvika" />
=======
	<node id="-188327" lat="68.0466555522" lon="13.1182333357">
		<tag k="name" v="Leira" />
		<tag k="natural" v="bay" />
		<tag k="ssr:stedsnr" v="777567" />
	</node>
	<node id="-188325" lat="68.1470194403" lon="13.4556416701">
		<tag k="name" v="Litlsandnesflua" />
		<tag k="natural" v="shoal" />
		<tag k="place" v="locality" />
		<tag k="ssr:stedsnr" v="777300" />
	</node>
	<node id="-188316" lat="68.1566722184" lon="13.2827805653">
		<tag k="name" v="Mjånesskallen" />
		<tag k="natural" v="shoal" />
		<tag k="place" v="locality" />
		<tag k="ssr:stedsnr" v="745984" />
	</node>
	<node id="-188314" lat="68.1183416675" lon="13.2898555521">
		<tag k="name" v="Vareidsundet" />
		<tag k="natural" v="strait" />
		<tag k="ssr:stedsnr" v="745897" />
	</node>
	<node id="-188306" lat="67.992588887" lon="13.2320694487">
		<tag k="name" v="Kunnhamna" />
		<tag k="natural" v="bay" />
		<tag k="ssr:stedsnr" v="745496" />
	</node>
	<node id="-188302" lat="68.0391138846" lon="13.1160166684">
		<tag k="name" v="Krystadøya" />
		<tag k="place" v="island" />
		<tag k="ssr:stedsnr" v="745044" />
	</node>
	<node id="-188301" lat="68.0041833335" lon="13.1160222234">
		<tag k="name" v="Bjørkneset" />
		<tag k="natural" v="cape" />
		<tag k="ssr:stedsnr" v="745077" />
	</node>
	<node id="-188300" lat="68.1521388885" lon="13.1393083352">
		<tag k="name" v="Vadskiten" />
		<tag k="natural" v="shoal" />
		<tag k="place" v="locality" />
		<tag k="ssr:stedsnr" v="744159" />
	</node>
	<node id="-188299" lat="68.0449611106" lon="13.1184111142">
		<tag k="name" v="Nakkleira" />
		<tag k="natural" v="bay" />
		<tag k="ssr:stedsnr" v="655539" />
	</node>
	<node id="-188297" lat="68.0346250018" lon="13.0524583344">
		<tag k="name" v="Vika" />
		<tag k="natural" v="bay" />
		<tag k="ssr:stedsnr" v="655358" />
	</node>
	<node id="-188293" lat="68.0815888927" lon="13.3334888778">
		<tag k="name" v="Kilanleira" />
		<tag k="natural" v="bay" />
		<tag k="ssr:stedsnr" v="624634" />
	</node>
	<node id="-188292" lat="68.0399611092" lon="13.2595138782">
		<tag k="name" v="Holmen" />
		<tag k="place" v="islet" />
		<tag k="ssr:stedsnr" v="624537" />
	</node>
	<node id="-188289" lat="68.1700277774" lon="13.3658555562">
		<tag k="name" v="Litlflua" />
		<tag k="natural" v="shoal" />
		<tag k="place" v="locality" />
		<tag k="ssr:stedsnr" v="623994" />
	</node>
	<node id="-188285" lat="68.1093305517" lon="13.3019000015">
		<tag k="name" v="Flakstadsanden" />
		<tag k="natural" v="beach" />
		<tag k="place" v="locality" />
		<tag k="ssr:stedsnr" v="623877" />
	</node>
	<node id="-188280" lat="68.0765500023" lon="13.3300527774">
		<tag k="name" v="Djupvika" />
		<tag k="natural" v="bay" />
		<tag k="ssr:stedsnr" v="623750" />
	</node>
	<node id="-188276" lat="68.0522611066" lon="13.396880562">
		<tag k="name" v="Rørvika" />
>>>>>>> e1d4bc35ff8a6074a6f2e91616a996b547c36f15
		<tag k="natural" v="bay" />
		<tag k="ssr:stedsnr" v="259225" />
	</node>
<<<<<<< HEAD
	<node lat="68.13095832940829" lon="13.297272223439652" id="-10136">
		<tag k="name" v="Hestneset" />
=======
	<node id="-188273" lat="68.0278722223" lon="13.3701722257">
		<tag k="name" v="Tangen" />
>>>>>>> e1d4bc35ff8a6074a6f2e91616a996b547c36f15
		<tag k="natural" v="cape" />
		<tag k="ssr:stedsnr" v="259873" />
	</node>
<<<<<<< HEAD
	<node lat="68.05688333570748" lon="13.015158330420652" id="-10137">
		<tag k="name" v="Ulvsneset" />
=======
	<node id="-188271" lat="67.999911114" lon="13.2637083445">
		<tag k="fixme" v="multiple name tags, choose one and add the other to alt_name" />
		<tag k="name" v="Oterstokkodden;Vindnesskaftet" />
>>>>>>> e1d4bc35ff8a6074a6f2e91616a996b547c36f15
		<tag k="natural" v="cape" />
		<tag k="ssr:stedsnr" v="260003" />
	</node>
<<<<<<< HEAD
	<node lat="68.1257277798952" lon="13.31200833661114" id="-10139">
		<tag k="name" v="Vedvika" />
		<tag k="natural" v="bay" />
		<tag k="ssr:stedsnr" v="260811" />
	</node>
	<node lat="68.03491944868118" lon="13.238208323342349" id="-10141">
		<tag k="fixme" v="consider seamark:type=rock or natural=shoal" />
		<tag k="name" v="Nordre Hysskjeret" />
=======
	<node id="-188269" lat="67.9760527772" lon="13.1845749998">
		<tag k="name" v="Solbjørnneset" />
		<tag k="natural" v="cape" />
		<tag k="ssr:stedsnr" v="623469" />
	</node>
	<node id="-188267" lat="68.10095556" lon="13.1785055498">
		<tag k="fixme" v="multiple name tags, choose one and add the other to alt_name" />
		<tag k="name" v="Lamholmen;Steinøya" />
>>>>>>> e1d4bc35ff8a6074a6f2e91616a996b547c36f15
		<tag k="place" v="islet" />
		<tag k="ssr:stedsnr" v="289990" />
	</node>
<<<<<<< HEAD
	<node lat="68.07887221970233" lon="13.19652223102968" id="-10147">
		<tag k="name" v="Kubbholmleia" />
		<tag k="natural" v="strait" />
		<tag k="ssr:stedsnr" v="292835" />
	</node>
	<node lat="68.00258055555007" lon="13.260266669855167" id="-10157">
		<tag k="name" v="Bjønnvika" />
=======
	<node id="-188265" lat="68.0561027817" lon="13.1298639004">
		<tag k="bay" v="fjord" />
		<tag k="name" v="Torsfjorden" />
		<tag k="natural" v="bay" />
		<tag k="ssr:stedsnr" v="623016" />
	</node>
	<node id="-188264" lat="68.0586416636" lon="13.1638222234">
		<tag k="name" v="Sandvika" />
>>>>>>> e1d4bc35ff8a6074a6f2e91616a996b547c36f15
		<tag k="natural" v="bay" />
		<tag k="ssr:stedsnr" v="292988" />
	</node>
<<<<<<< HEAD
	<node lat="68.06790000357272" lon="13.190922222930071" id="-10160">
		<tag k="name" v="Geitøya" />
		<tag k="place" v="island" />
		<tag k="ssr:stedsnr" v="320008" />
	</node>
	<node lat="68.02801388470776" lon="13.354752775055708" id="-10164">
		<tag k="alt_name" v="Bonesoddan;Boneset" />
		<tag k="name" v="Bonesodden" />
		<tag k="natural" v="cape" />
		<tag k="ssr:stedsnr" v="320538" />
	</node>
	<node lat="68.02672221977944" lon="13.225883328484294" id="-10165">
		<tag k="name" v="Dalholmen" />
		<tag k="place" v="islet" />
		<tag k="ssr:stedsnr" v="320539" />
	</node>
	<node lat="68.0676416653754" lon="13.402511107100311" id="-10177">
		<tag k="name" v="Sandvika" />
		<tag k="natural" v="bay" />
		<tag k="ssr:stedsnr" v="473582" />
	</node>
	<node lat="68.1467472265147" lon="13.31371111835497" id="-10190">
		<tag k="name" v="Øyra" />
=======
	<node id="-188263" lat="68.0316388915" lon="13.1787138946">
		<tag k="name" v="Purka" />
		<tag k="natural" v="cape" />
		<tag k="ssr:stedsnr" v="655166" />
	</node>
	<node id="-188259" lat="68.0736999997" lon="13.1390777831">
		<tag k="name" v="Melkarneset" />
		<tag k="natural" v="cape" />
		<tag k="ssr:stedsnr" v="595653" />
	</node>
	<node id="-188244" lat="68.1051833361" lon="13.2329916554">
		<tag k="name" v="Jusholmsundet" />
		<tag k="natural" v="strait" />
		<tag k="ssr:stedsnr" v="594585" />
	</node>
	<node id="-188234" lat="68.1649305602" lon="13.3075999931">
		<tag k="name" v="Melsskallen" />
		<tag k="natural" v="shoal" />
		<tag k="place" v="locality" />
		<tag k="ssr:stedsnr" v="563993" />
	</node>
	<node id="-188231" lat="68.1287666646" lon="13.2940416592">
		<tag k="name" v="Hestnesbåen" />
		<tag k="natural" v="shoal" />
		<tag k="place" v="locality" />
		<tag k="ssr:stedsnr" v="563799" />
	</node>
	<node id="-188226" lat="68.1607694473" lon="13.0425249971">
		<tag k="name" v="Martnesbakken" />
		<tag k="natural" v="shoal" />
		<tag k="place" v="locality" />
		<tag k="ssr:stedsnr" v="563216" />
	</node>
	<node id="-188222" lat="68.1323916667" lon="13.4403444562">
		<tag k="name" v="Øya" />
>>>>>>> e1d4bc35ff8a6074a6f2e91616a996b547c36f15
		<tag k="natural" v="cape" />
		<tag k="ssr:stedsnr" v="474441" />
	</node>
<<<<<<< HEAD
	<node lat="68.15653610891907" lon="13.314013892847198" id="-10191">
		<tag k="name" v="Heimerbukta" />
		<tag k="natural" v="bay" />
		<tag k="ssr:stedsnr" v="474461" />
	</node>
	<node lat="68.09919999539935" lon="13.230119452236723" id="-10195">
		<tag k="fixme" v="consider seamark:type=rock or natural=shoal" />
		<tag k="name" v="Litlfallet" />
=======
	<node id="-188219" lat="68.0296749964" lon="13.3866138923">
		<tag k="fixme" v="multiple name tags, choose one and add the other to alt_name; consider seamark:type=rock or natural=shoal" />
		<tag k="name" v="Låglandsskjeran;Ålandsskjeran" />
>>>>>>> e1d4bc35ff8a6074a6f2e91616a996b547c36f15
		<tag k="place" v="islet" />
		<tag k="ssr:stedsnr" v="353809" />
	</node>
<<<<<<< HEAD
	<node lat="68.07081666603656" lon="13.16971666957985" id="-10196">
		<tag k="name" v="Hovdanvika" />
=======
	<node id="-188217" lat="68.0966611064" lon="13.1488694552">
		<tag k="name" v="Sandbotnen" />
>>>>>>> e1d4bc35ff8a6074a6f2e91616a996b547c36f15
		<tag k="natural" v="bay" />
		<tag k="ssr:stedsnr" v="353814" />
	</node>
<<<<<<< HEAD
	<node lat="68.08139444241122" lon="13.166358341991629" id="-10199">
		<tag k="name" v="Skjåneset" />
		<tag k="natural" v="cape" />
		<tag k="ssr:stedsnr" v="474831" />
	</node>
	<node lat="68.08330277671213" lon="13.18946388849175" id="-10200">
		<tag k="name" v="Avløysinga" />
		<tag k="natural" v="cape" />
		<tag k="ssr:stedsnr" v="474847" />
	</node>
	<node lat="68.09931666959497" lon="13.167275001153312" id="-10201">
		<tag k="name" v="Kolbeinsanden" />
		<tag k="natural" v="beach" />
		<tag k="ssr:stedsnr" v="474850" />
	</node>
	<node lat="68.00229444783344" lon="13.286188882734212" id="-10202">
		<tag k="name" v="Langnesodden" />
=======
	<node id="-188216" lat="68.1056527767" lon="13.1559444467">
		<tag k="name" v="Sandøya" />
		<tag k="place" v="island" />
		<tag k="ssr:stedsnr" v="562198" />
	</node>
	<node id="-188215" lat="68.1199583368" lon="13.1143222134">
		<tag k="alt_name" v="Fiskfatskjeran" />
		<tag k="name" v="Feskfatskjeran" />
		<tag k="place" v="islet" />
		<tag k="ssr:stedsnr" v="562196" />
	</node>
	<node id="-188214" lat="68.1080722247" lon="13.104841658">
		<tag k="name" v="Stokkvika" />
		<tag k="natural" v="bay" />
		<tag k="ssr:stedsnr" v="562194" />
	</node>
	<node id="-188213" lat="68.1108555528" lon="13.0721083368">
		<tag k="name" v="Bergsneset" />
>>>>>>> e1d4bc35ff8a6074a6f2e91616a996b547c36f15
		<tag k="natural" v="cape" />
		<tag k="ssr:stedsnr" v="474869" />
	</node>
<<<<<<< HEAD
	<node lat="68.13579166683763" lon="13.030969449399281" id="-10208">
		<tag k="name" v="Trollhovudskallen" />
=======
	<node id="-188212" lat="68.1398944408" lon="13.0576083362">
		<tag k="name" v="Djupnsteinskallen" />
>>>>>>> e1d4bc35ff8a6074a6f2e91616a996b547c36f15
		<tag k="natural" v="shoal" />
		<tag k="place" v="locality" />
		<tag k="ssr:stedsnr" v="380204" />
	</node>
<<<<<<< HEAD
	<node lat="68.1250111078138" lon="13.139938887841941" id="-10209">
		<tag k="fixme" v="consider seamark:type=rock or natural=shoal" />
		<tag k="name" v="Triningan" />
		<tag k="place" v="islet" />
		<tag k="ssr:stedsnr" v="380205" />
	</node>
	<node lat="68.09318889316594" lon="13.100097218799524" id="-10213">
		<tag k="alt_name" v="Moskenesøy" />
		<tag k="name" v="Moskenesøya" />
		<tag k="place" v="island" />
		<tag k="ssr:stedsnr" v="380514" />
	</node>
	<node lat="68.00386666235484" lon="13.236113894421" id="-10214">
		<tag k="alt_name" v="Gammnesvågen" />
		<tag k="name" v="Gamnesvågen" />
=======
	<node id="-188209" lat="68.0185499971" lon="13.0849055493">
		<tag k="name" v="Laukvika" />
		<tag k="natural" v="bay" />
		<tag k="ssr:stedsnr" v="562035" />
	</node>
	<node id="-188199" lat="68.1132972241" lon="13.1187277791">
		<tag k="name" v="Gjerdsundet" />
		<tag k="natural" v="strait" />
		<tag k="ssr:stedsnr" v="535289" />
	</node>
	<node id="-188198" lat="68.1589388877" lon="13.3149861127">
		<tag k="name" v="Mjånesbukta" />
>>>>>>> e1d4bc35ff8a6074a6f2e91616a996b547c36f15
		<tag k="natural" v="bay" />
		<tag k="ssr:stedsnr" v="380531" />
	</node>
<<<<<<< HEAD
	<node lat="68.014583330462" lon="13.315819442303091" id="-10215">
		<tag k="name" v="Vedvika" />
=======
	<node id="-188195" lat="68.0339888867" lon="13.2602222297">
		<tag k="name" v="Kvalvika" />
>>>>>>> e1d4bc35ff8a6074a6f2e91616a996b547c36f15
		<tag k="natural" v="bay" />
		<tag k="ssr:stedsnr" v="380535" />
	</node>
<<<<<<< HEAD
	<node lat="68.01897500173774" lon="13.329213896508316" id="-10216">
		<tag k="alt_name" v="Hessurdholman" />
		<tag k="name" v="Hessurholman" />
		<tag k="place" v="islet" />
		<tag k="ssr:stedsnr" v="380579" />
	</node>
	<node lat="68.06862222295192" lon="13.181258341919563" id="-10218">
		<tag k="name" v="Flatholmen" />
=======
	<node id="-188190" lat="68.1130000025" lon="13.1732500002">
		<tag k="fixme" v="consider seamark:type=rock or natural=shoal" />
		<tag k="name" v="Sildskjeret" />
		<tag k="place" v="islet" />
		<tag k="ssr:stedsnr" v="535191" />
	</node>
	<node id="-188189" lat="68.0062027737" lon="13.1750305631">
		<tag k="name" v="Mølnvågodden" />
		<tag k="natural" v="cape" />
		<tag k="ssr:stedsnr" v="534910" />
	</node>
	<node id="-188188" lat="67.9968805532" lon="13.1859500024">
		<tag k="name" v="Soløysundet" />
		<tag k="natural" v="strait" />
		<tag k="ssr:stedsnr" v="534905" />
	</node>
	<node id="-188185" lat="68.064927775" lon="13.13395278">
		<tag k="name" v="Holman" />
>>>>>>> e1d4bc35ff8a6074a6f2e91616a996b547c36f15
		<tag k="place" v="islet" />
		<tag k="ssr:stedsnr" v="381022" />
	</node>
<<<<<<< HEAD
	<node lat="68.10883888561813" lon="13.298055560311699" id="-10221">
		<tag k="name" v="Skagsanden" />
		<tag k="natural" v="beach" />
		<tag k="ssr:stedsnr" v="381863" />
	</node>
	<node lat="68.11558611372668" lon="13.301866656676433" id="-10222">
=======
	<node id="-188177" lat="67.989427774" lon="13.2314777732">
		<tag k="fixme" v="consider seamark:type=rock or natural=shoal" />
		<tag k="name" v="Truvalen" />
		<tag k="place" v="islet" />
		<tag k="ssr:stedsnr" v="532528" />
	</node>
	<node id="-188174" lat="68.0899472182" lon="13.2157388828">
>>>>>>> e1d4bc35ff8a6074a6f2e91616a996b547c36f15
		<tag k="fixme" v="consider seamark:type=rock or natural=shoal" />
		<tag k="name" v="Skata" />
		<tag k="place" v="islet" />
<<<<<<< HEAD
		<tag k="ssr:stedsnr" v="381866" />
	</node>
	<node lat="68.10321389189008" lon="13.222100009188072" id="-10226">
		<tag k="name" v="Småfallet" />
		<tag k="natural" v="shoal" />
		<tag k="place" v="locality" />
		<tag k="ssr:stedsnr" v="411989" />
	</node>
	<node lat="68.1117888920483" lon="13.206169444163539" id="-10227">
=======
		<tag k="ssr:stedsnr" v="414845" />
	</node>
	<node id="-188166" lat="68.0058777813" lon="13.1679499998">
		<tag k="name" v="Mølnvågen" />
		<tag k="natural" v="bay" />
		<tag k="ssr:stedsnr" v="413926" />
	</node>
	<node id="-188151" lat="68.0159138898" lon="13.1904666591">
		<tag k="name" v="Skjettenbærøya" />
		<tag k="place" v="island" />
		<tag k="ssr:stedsnr" v="413177" />
	</node>
	<node id="-188150" lat="68.0997750028" lon="13.4167888882">
		<tag k="name" v="Moneset" />
		<tag k="natural" v="cape" />
		<tag k="ssr:stedsnr" v="413156" />
	</node>
	<node id="-188141" lat="68.111788892" lon="13.2061694442">
>>>>>>> e1d4bc35ff8a6074a6f2e91616a996b547c36f15
		<tag k="name" v="Steinen" />
		<tag k="natural" v="shoal" />
		<tag k="place" v="locality" />
		<tag k="ssr:stedsnr" v="411993" />
	</node>
<<<<<<< HEAD
	<node lat="68.0759249963778" lon="13.197724994777293" id="-10238">
		<tag k="alt_name" v="Buøya" />
		<tag k="name" v="Stor-Buøya" />
		<tag k="place" v="islet" />
		<tag k="ssr:stedsnr" v="441005" />
	</node>
	<node lat="68.11872500207346" lon="13.041130563331757" id="-10239">
		<tag k="name" v="Øyskallen" />
=======
	<node id="-188140" lat="68.1032138919" lon="13.2221000092">
		<tag k="name" v="Småfallet" />
>>>>>>> e1d4bc35ff8a6074a6f2e91616a996b547c36f15
		<tag k="natural" v="shoal" />
		<tag k="place" v="locality" />
		<tag k="ssr:stedsnr" v="441210" />
	</node>
<<<<<<< HEAD
	<node lat="67.98722500345535" lon="13.194236106393753" id="-10244">
		<tag k="alt_name" v="Sundbåen" />
		<tag k="name" v="Sundbøen" />
		<tag k="natural" v="shoal" />
=======
	<node id="-188139" lat="68.030413885" lon="13.3608166682">
		<tag k="fixme" v="multiple name tags, choose one and add the other to alt_name" />
		<tag k="name" v="Nusbåen;Skata" />
>>>>>>> e1d4bc35ff8a6074a6f2e91616a996b547c36f15
		<tag k="place" v="locality" />
		<tag k="ssr:stedsnr" v="442440" />
	</node>
<<<<<<< HEAD
	<node lat="68.10112500238327" lon="13.415908329503297" id="-10245">
		<tag k="name" v="Andopsvika" />
		<tag k="natural" v="bay" />
		<tag k="ssr:stedsnr" v="442841" />
	</node>
	<node lat="68.17534722382214" lon="13.33689999637156" id="-10246">
		<tag k="alt_name" v="Gauktindflua" />
		<tag k="name" v="Gauktindfallan" />
=======
	<node id="-188138" lat="68.0008833344" lon="13.2605861161">
		<tag k="name" v="Vester Neslandsodden" />
		<tag k="natural" v="cape" />
		<tag k="ssr:stedsnr" v="411570" />
	</node>
	<node id="-188130" lat="68.1929861135" lon="13.3171277894">
		<tag k="alt_name" v="Myrlandsflesene" />
		<tag k="name" v="Myrlandsflesan" />
>>>>>>> e1d4bc35ff8a6074a6f2e91616a996b547c36f15
		<tag k="natural" v="shoal" />
		<tag k="place" v="locality" />
		<tag k="ssr:stedsnr" v="442896" />
	</node>
<<<<<<< HEAD
	<node lat="68.12165555214946" lon="13.442213881010117" id="-10247">
		<tag k="name" v="Hårbergsodden" />
		<tag k="natural" v="cape" />
		<tag k="ssr:stedsnr" v="446008" />
	</node>
	<node lat="68.01187222550122" lon="13.252627772584166" id="-10250">
		<tag k="alt_name" v="Sæterbåen" />
		<tag k="name" v="Sæterbøen" />
=======
	<node id="-188126" lat="68.1155861137" lon="13.3018666567">
		<tag k="fixme" v="consider seamark:type=rock or natural=shoal" />
		<tag k="name" v="Skata" />
		<tag k="place" v="islet" />
		<tag k="ssr:stedsnr" v="381866" />
	</node>
	<node id="-188125" lat="68.1088388856" lon="13.2980555603">
		<tag k="name" v="Skagsanden" />
		<tag k="natural" v="beach" />
>>>>>>> e1d4bc35ff8a6074a6f2e91616a996b547c36f15
		<tag k="place" v="locality" />
		<tag k="seamark:type" v="rock" />
		<tag k="ssr:stedsnr" v="472563" />
	</node>
<<<<<<< HEAD
	<node lat="68.0306500024843" lon="13.06783333197915" id="-10256">
		<tag k="name" v="Stormarkpollen" />
=======
	<node id="-188124" lat="68.0979500043" lon="13.2367111123">
		<tag k="fixme" v="multiple name tags, choose one and add the other to alt_name" />
		<tag k="name" v="Sandbukta;Jusnesvika" />
>>>>>>> e1d4bc35ff8a6074a6f2e91616a996b547c36f15
		<tag k="natural" v="bay" />
		<tag k="ssr:stedsnr" v="502026" />
	</node>
<<<<<<< HEAD
	<node lat="68.21787777987682" lon="13.343336100163244" id="-10257">
		<tag k="name" v="Hellbåen" />
=======
	<node id="-188122" lat="68.1351527777" lon="13.2975749957">
		<tag k="alt_name" v="Sandnesbøen" />
		<tag k="name" v="Sandnesbåen" />
>>>>>>> e1d4bc35ff8a6074a6f2e91616a996b547c36f15
		<tag k="natural" v="shoal" />
		<tag k="place" v="locality" />
		<tag k="ssr:stedsnr" v="502075" />
	</node>
<<<<<<< HEAD
	<node lat="68.11806110796869" lon="13.122119445411512" id="-10258">
		<tag k="name" v="Moholman" />
=======
	<node id="-188114" lat="67.999455558" lon="13.2049333226">
		<tag k="alt_name" v="Litle Grimsholmen" />
		<tag k="fixme" v="multiple name tags, choose one and add the other to alt_name" />
		<tag k="name" v="Grimsholmen;Litl-Grimsholmen" />
>>>>>>> e1d4bc35ff8a6074a6f2e91616a996b547c36f15
		<tag k="place" v="islet" />
		<tag k="ssr:stedsnr" v="502208" />
	</node>
<<<<<<< HEAD
	<node lat="68.17296944857338" lon="13.121311102562192" id="-10262">
		<tag k="name" v="Øyskallen" />
		<tag k="natural" v="shoal" />
		<tag k="place" v="locality" />
		<tag k="ssr:stedsnr" v="502188" />
	</node>
	<node lat="68.13725555420031" lon="13.455847215894535" id="-10263">
		<tag k="name" v="Senholmen" />
=======
	<node id="-188111" lat="68.0439777778" lon="13.1204999956">
		<tag k="name" v="Øysundnakken" />
		<tag k="natural" v="cape" />
		<tag k="ssr:stedsnr" v="381036" />
	</node>
	<node id="-188108" lat="68.068622223" lon="13.1812583419">
		<tag k="name" v="Flatholmen" />
>>>>>>> e1d4bc35ff8a6074a6f2e91616a996b547c36f15
		<tag k="place" v="islet" />
		<tag k="ssr:stedsnr" v="502802" />
	</node>
<<<<<<< HEAD
	<node lat="68.16447499601881" lon="13.318880554214328" id="-10266">
		<tag k="name" v="Hornesøyra" />
		<tag k="natural" v="beach" />
		<tag k="ssr:stedsnr" v="502994" />
	</node>
	<node lat="68.13075833139959" lon="13.421572233374611" id="-10272">
		<tag k="name" v="Osen" />
=======
	<node id="-188104" lat="68.0189750017" lon="13.3292138965">
		<tag k="alt_name" v="Hessurdholman" />
		<tag k="name" v="Hessurholman" />
		<tag k="place" v="islet" />
		<tag k="ssr:stedsnr" v="380579" />
	</node>
	<node id="-188103" lat="68.0145833305" lon="13.3158194423">
		<tag k="name" v="Vedvika" />
>>>>>>> e1d4bc35ff8a6074a6f2e91616a996b547c36f15
		<tag k="natural" v="bay" />
		<tag k="ssr:stedsnr" v="506020" />
	</node>
<<<<<<< HEAD
	<node lat="68.20595277974948" lon="13.358002784863416" id="-10275">
		<tag k="name" v="Glasbåen" />
		<tag k="natural" v="shoal" />
		<tag k="place" v="locality" />
		<tag k="ssr:stedsnr" v="684088" />
	</node>
	<node lat="68.1508500040469" lon="13.078697217755593" id="-10276">
		<tag k="fixme" v="consider seamark:type=rock or natural=shoal" />
		<tag k="name" v="Øyskallen" />
		<tag k="place" v="islet" />
		<tag k="ssr:stedsnr" v="684220" />
	</node>
	<node lat="68.11353610703092" lon="13.195894454320229" id="-10277">
		<tag k="name" v="Storfallet" />
		<tag k="natural" v="shoal" />
		<tag k="place" v="locality" />
		<tag k="ssr:stedsnr" v="684223" />
	</node>
	<node lat="68.1090000037818" lon="13.186975008363184" id="-10278">
=======
	<node id="-188102" lat="68.0038666624" lon="13.2361138944">
		<tag k="alt_name" v="Gammnesvågen" />
		<tag k="name" v="Gamnesvågen" />
		<tag k="natural" v="bay" />
		<tag k="ssr:stedsnr" v="380531" />
	</node>
	<node id="-188101" lat="68.0931888932" lon="13.1000972188">
		<tag k="alt_name" v="Moskenesøy" />
		<tag k="name" v="Moskenesøya" />
		<tag k="place" v="island" />
		<tag k="ssr:stedsnr" v="380514" />
	</node>
	<node id="-188094" lat="68.1250111078" lon="13.1399388878">
>>>>>>> e1d4bc35ff8a6074a6f2e91616a996b547c36f15
		<tag k="fixme" v="consider seamark:type=rock or natural=shoal" />
		<tag k="name" v="Storskjeret" />
		<tag k="place" v="islet" />
		<tag k="ssr:stedsnr" v="684225" />
	</node>
<<<<<<< HEAD
	<node lat="68.05850555846133" lon="13.402655562759442" id="-10281">
		<tag k="alt_name" v="Teistholman" />
		<tag k="name" v="Teistholmen" />
		<tag k="place" v="islet" />
		<tag k="ssr:stedsnr" v="684687" />
	</node>
	<node lat="68.16246111410581" lon="13.253280550448771" id="-10290">
		<tag k="name" v="Melsgrunnen" />
=======
	<node id="-188093" lat="68.1357916668" lon="13.0309694494">
		<tag k="name" v="Trollhovudskallen" />
>>>>>>> e1d4bc35ff8a6074a6f2e91616a996b547c36f15
		<tag k="natural" v="shoal" />
		<tag k="place" v="locality" />
		<tag k="ssr:stedsnr" v="684993" />
	</node>
	<node lat="68.06492777502766" lon="13.13395278002808" id="-10297">
		<tag k="name" v="Holman" />
		<tag k="place" v="islet" />
		<tag k="ssr:stedsnr" v="534681" />
	</node>
	<node lat="67.99688055315985" lon="13.185950002400315" id="-10299">
		<tag k="name" v="Soløysundet" />
		<tag k="natural" v="strait" />
		<tag k="ssr:stedsnr" v="534905" />
	</node>
<<<<<<< HEAD
	<node lat="68.03398888672136" lon="13.260222229704292" id="-10300">
		<tag k="name" v="Kvalvika" />
=======
	<node id="-188087" lat="68.070816666" lon="13.1697166696">
		<tag k="name" v="Hovdanvika" />
>>>>>>> e1d4bc35ff8a6074a6f2e91616a996b547c36f15
		<tag k="natural" v="bay" />
		<tag k="ssr:stedsnr" v="535104" />
	</node>
<<<<<<< HEAD
	<node lat="68.04495000133502" lon="13.354011105385235" id="-10304">
		<tag k="name" v="Kjerkstøa" />
		<tag k="natural" v="cape" />
		<tag k="ssr:stedsnr" v="535512" />
	</node>
	<node lat="68.0381222177264" lon="13.260469449329568" id="-10305">
		<tag k="name" v="Steinsjorda" />
		<tag k="natural" v="cape" />
		<tag k="ssr:stedsnr" v="535514" />
	</node>
	<node lat="68.07369999965933" lon="13.139077783067231" id="-10316">
		<tag k="name" v="Melkarneset" />
=======
	<node id="-188083" lat="68.11050278" lon="13.3084499944">
		<tag k="fixme" v="consider seamark:type=rock or natural=shoal" />
		<tag k="name" v="Stabben" />
		<tag k="place" v="islet" />
		<tag k="ssr:stedsnr" v="353268" />
	</node>
	<node id="-188082" lat="68.104138887" lon="13.2431416641">
		<tag k="name" v="Trollskjerbukta" />
		<tag k="natural" v="bay" />
		<tag k="ssr:stedsnr" v="353237" />
	</node>
	<node id="-188081" lat="68.1009194453" lon="13.1897249899">
		<tag k="name" v="Korshavnøya" />
>>>>>>> e1d4bc35ff8a6074a6f2e91616a996b547c36f15
		<tag k="natural" v="cape" />
		<tag k="ssr:stedsnr" v="595653" />
	</node>
<<<<<<< HEAD
	<node lat="68.09561388930523" lon="13.241547228751136" id="-10317">
		<tag k="name" v="Sanden" />
		<tag k="natural" v="beach" />
		<tag k="ssr:stedsnr" v="595811" />
	</node>
	<node lat="68.02882499949493" lon="13.349850001964326" id="-10320">
		<tag k="name" v="Rekkartsanden" />
		<tag k="natural" v="beach" />
		<tag k="ssr:stedsnr" v="595922" />
	</node>
	<node lat="68.05864166360482" lon="13.163822223405909" id="-10324">
		<tag k="name" v="Sandvika" />
=======
	<node id="-188080" lat="68.0991999954" lon="13.2301194522">
		<tag k="fixme" v="consider seamark:type=rock or natural=shoal" />
		<tag k="name" v="Litlfallet" />
		<tag k="place" v="islet" />
		<tag k="ssr:stedsnr" v="353809" />
	</node>
	<node id="-188074" lat="68.078352775" lon="13.096594438">
		<tag k="name" v="Nordvika" />
>>>>>>> e1d4bc35ff8a6074a6f2e91616a996b547c36f15
		<tag k="natural" v="bay" />
		<tag k="ssr:stedsnr" v="623008" />
	</node>
<<<<<<< HEAD
	<node lat="67.97605277716194" lon="13.18457499982024" id="-10325">
		<tag k="name" v="Solbjørnneset" />
		<tag k="natural" v="cape" />
		<tag k="ssr:stedsnr" v="623469" />
	</node>
	<node lat="67.99991111396926" lon="13.263708344533073" id="-10327">
		<tag k="fixme" v="multiple name tags, choose one and add the other to alt_name" />
		<tag k="name" v="Vindnesskaftet;Oterstokkodden" />
=======
	<node id="-188072" lat="68.0612583322" lon="13.1661666767">
		<tag k="name" v="Skjåvikstolen" />
		<tag k="natural" v="cape" />
		<tag k="ssr:stedsnr" v="352626" />
	</node>
	<node id="-188059" lat="67.9992777807" lon="13.2221000104">
		<tag k="fixme" v="consider seamark:type=rock or natural=shoal" />
		<tag k="name" v="Kunnskjeret" />
		<tag k="place" v="islet" />
		<tag k="ssr:stedsnr" v="352999" />
	</node>
	<node id="-188051" lat="68.1061472181" lon="13.249363884">
		<tag k="fixme" v="consider seamark:type=rock or natural=shoal" />
		<tag k="name" v="Trollskjeran" />
		<tag k="place" v="islet" />
		<tag k="ssr:stedsnr" v="320857" />
	</node>
	<node id="-188049" lat="68.0778166679" lon="13.3195777857">
		<tag k="name" v="Saltholmen" />
>>>>>>> e1d4bc35ff8a6074a6f2e91616a996b547c36f15
		<tag k="natural" v="cape" />
		<tag k="ssr:stedsnr" v="623524" />
	</node>
<<<<<<< HEAD
	<node lat="68.02787222231187" lon="13.370172225725" id="-10329">
		<tag k="name" v="Tangen" />
=======
	<node id="-188048" lat="68.0768055524" lon="13.3271805621">
		<tag k="alt_name" v="Båtnesoddan" />
		<tag k="name" v="Båtnesodden" />
>>>>>>> e1d4bc35ff8a6074a6f2e91616a996b547c36f15
		<tag k="natural" v="cape" />
		<tag k="ssr:stedsnr" v="623564" />
	</node>
<<<<<<< HEAD
	<node lat="68.10933055172421" lon="13.301900001510061" id="-10334">
		<tag k="name" v="Flakstadsanden" />
		<tag k="natural" v="beach" />
		<tag k="ssr:stedsnr" v="623877" />
	</node>
	<node lat="68.04496111055617" lon="13.118411114154954" id="-10341">
		<tag k="name" v="Nakkleira" />
=======
	<node id="-188047" lat="68.0760250044" lon="13.2333277733">
		<tag k="name" v="Spengerleira" />
>>>>>>> e1d4bc35ff8a6074a6f2e91616a996b547c36f15
		<tag k="natural" v="bay" />
		<tag k="ssr:stedsnr" v="655539" />
	</node>
<<<<<<< HEAD
	<node lat="68.01172777657143" lon="13.193055544281433" id="-10343">
		<tag k="name" v="Buøya" />
		<tag k="natural" v="cape" />
		<tag k="ssr:stedsnr" v="655904" />
	</node>
	<node lat="68.11556666567245" lon="13.118933339849503" id="-10347">
		<tag k="name" v="Breileia" />
		<tag k="natural" v="bay" />
		<tag k="ssr:stedsnr" v="656287" />
	</node>
	<node lat="68.09329166775214" lon="13.219650011183363" id="-10348">
		<tag k="name" v="Amholmen" />
=======
	<node id="-188039" lat="68.0820666665" lon="13.2277638869">
		<tag k="name" v="Skjelholmen" />
		<tag k="place" v="islet" />
		<tag k="ssr:stedsnr" v="320614" />
	</node>
	<node id="-188038" lat="68.0267222198" lon="13.2258833285">
		<tag k="name" v="Dalholmen" />
		<tag k="place" v="islet" />
		<tag k="ssr:stedsnr" v="320539" />
	</node>
	<node id="-188037" lat="68.0280138847" lon="13.3547527751">
		<tag k="alt_name" v="Bonesoddan;Boneset" />
		<tag k="name" v="Bonesodden" />
>>>>>>> e1d4bc35ff8a6074a6f2e91616a996b547c36f15
		<tag k="natural" v="cape" />
		<tag k="ssr:stedsnr" v="656841" />
	</node>
<<<<<<< HEAD
	<node lat="68.09603611121975" lon="13.21789722280517" id="-10349">
=======
	<node id="-188030" lat="68.1137583319" lon="13.1631305611">
>>>>>>> e1d4bc35ff8a6074a6f2e91616a996b547c36f15
		<tag k="fixme" v="consider seamark:type=rock or natural=shoal" />
		<tag k="name" v="Rundskjeran" />
		<tag k="place" v="islet" />
		<tag k="ssr:stedsnr" v="656843" />
	</node>
<<<<<<< HEAD
	<node lat="68.00239166760619" lon="13.176727776955591" id="-10352">
		<tag k="name" v="Soløyvika" />
		<tag k="natural" v="bay" />
		<tag k="ssr:stedsnr" v="684051" />
	</node>
	<node lat="68.1691388884113" lon="13.209952785076021" id="-10354">
		<tag k="name" v="Fjærleitgrunnen" />
=======
	<node id="-188029" lat="68.144388893" lon="13.062308346">
		<tag k="name" v="Strandflesa" />
		<tag k="place" v="islet" />
		<tag k="ssr:stedsnr" v="320226" />
	</node>
	<node id="-188028" lat="68.149700001" lon="13.0387916677">
		<tag k="name" v="Gryskallan" />
>>>>>>> e1d4bc35ff8a6074a6f2e91616a996b547c36f15
		<tag k="natural" v="shoal" />
		<tag k="place" v="locality" />
		<tag k="ssr:stedsnr" v="684205" />
	</node>
<<<<<<< HEAD
	<node lat="68.14193889235301" lon="13.038341663276581" id="-10355">
		<tag k="name" v="Flesskallan" />
=======
	<node id="-188027" lat="68.127055556" lon="13.1602138865">
		<tag k="name" v="Danielflua" />
>>>>>>> e1d4bc35ff8a6074a6f2e91616a996b547c36f15
		<tag k="natural" v="shoal" />
		<tag k="place" v="locality" />
		<tag k="ssr:stedsnr" v="684215" />
	</node>
<<<<<<< HEAD
	<node lat="68.15487222026503" lon="13.163252780486982" id="-10356">
		<tag k="name" v="Brørne" />
=======
	<node id="-188026" lat="68.169752782" lon="13.157888899">
		<tag k="name" v="Seibåen" />
>>>>>>> e1d4bc35ff8a6074a6f2e91616a996b547c36f15
		<tag k="natural" v="shoal" />
		<tag k="place" v="locality" />
		<tag k="ssr:stedsnr" v="684216" />
	</node>
<<<<<<< HEAD
	<node lat="68.14997777970345" lon="13.052058332584597" id="-10357">
		<tag k="name" v="Sjurdskallan" />
		<tag k="natural" v="shoal" />
		<tag k="place" v="locality" />
		<tag k="ssr:stedsnr" v="684217" />
	</node>
	<node lat="68.01679444390358" lon="13.321333323119534" id="-10359">
		<tag k="name" v="Kvalkeila" />
		<tag k="natural" v="bay" />
		<tag k="ssr:stedsnr" v="684503" />
	</node>
	<node lat="68.07958889211288" lon="13.430997216852479" id="-10363">
		<tag k="alt_name" v="Nappstraumen" />
=======
	<node id="-188025" lat="68.1607749958" lon="13.0729805502">
		<tag k="name" v="Snabbskallan" />
		<tag k="natural" v="shoal" />
		<tag k="place" v="locality" />
		<tag k="ssr:stedsnr" v="320207" />
	</node>
	<node id="-188021" lat="68.0679000036" lon="13.1909222229">
		<tag k="name" v="Geitøya" />
		<tag k="place" v="island" />
		<tag k="ssr:stedsnr" v="320008" />
	</node>
	<node id="-188018" lat="68.1237611078" lon="13.3776194492">
		<tag k="name" v="Bogneset" />
		<tag k="natural" v="cape" />
		<tag k="ssr:stedsnr" v="203019" />
	</node>
	<node id="-188015" lat="68.1579222247" lon="13.3083083314">
		<tag k="fixme" v="multiple name tags, choose one and add the other to alt_name; consider seamark:type=rock or natural=shoal" />
		<tag k="name" v="Mjånessteinen;Skarvsteinen" />
		<tag k="place" v="islet" />
		<tag k="ssr:stedsnr" v="199988" />
	</node>
	<node id="-188005" lat="68.0819138904" lon="13.3206166569">
>>>>>>> e1d4bc35ff8a6074a6f2e91616a996b547c36f15
		<tag k="bay" v="fjord" />
		<tag k="name" v="Nappsstraumen" />
		<tag k="natural" v="bay" />
		<tag k="ssr:stedsnr" v="684826" />
	</node>
<<<<<<< HEAD
	<node lat="68.02976111236697" lon="13.23754166495483" id="-10366">
		<tag k="alt_name" v="Søre Hysskjeret" />
		<tag k="fixme" v="consider seamark:type=rock or natural=shoal" />
		<tag k="name" v="Hysskjeret" />
=======
	<node id="-188003" lat="68.0377416688" lon="13.3535388845">
		<tag k="name" v="Brattholmen" />
>>>>>>> e1d4bc35ff8a6074a6f2e91616a996b547c36f15
		<tag k="place" v="islet" />
		<tag k="ssr:stedsnr" v="896991" />
	</node>
<<<<<<< HEAD
	<node lat="68.02296388862285" lon="13.10007776991375" id="-10368">
		<tag k="name" v="Rolineset" />
		<tag k="natural" v="cape" />
		<tag k="ssr:stedsnr" v="898337" />
	</node>
	<node lat="68.02320833033556" lon="13.353961109215813" id="-10370">
		<tag k="fixme" v="consider seamark:type=rock or natural=shoal" />
		<tag k="name" v="Skarvsteinan" />
=======
	<node id="-187999" lat="67.995794448" lon="13.1888444418">
		<tag k="alt_name" v="Storsoløya, l;Litle Soløya" />
		<tag k="name" v="Litlsoløya" />
>>>>>>> e1d4bc35ff8a6074a6f2e91616a996b547c36f15
		<tag k="place" v="islet" />
		<tag k="ssr:stedsnr" v="714980" />
	</node>
<<<<<<< HEAD
	<node lat="67.99548332929598" lon="13.204719443942857" id="-10372">
		<tag k="name" v="Sundflaget" />
		<tag k="natural" v="shoal" />
		<tag k="place" v="locality" />
		<tag k="ssr:stedsnr" v="898911" />
	</node>
	<node lat="68.07553610792368" lon="13.157663886186867" id="-10381">
		<tag k="name" v="Tjeldsneset" />
		<tag k="natural" v="cape" />
		<tag k="ssr:stedsnr" v="716705" />
	</node>
	<node lat="67.9930805577321" lon="13.236061109260651" id="-10383">
		<tag k="name" v="Munken" />
=======
	<node id="-187998" lat="68.0805333361" lon="13.0224777821">
		<tag k="name" v="Kvalvikbåan" />
		<tag k="natural" v="shoal" />
		<tag k="place" v="locality" />
		<tag k="ssr:stedsnr" v="199277" />
	</node>
	<node id="-187995" lat="68.0056472208" lon="13.0611611097">
		<tag k="alt_name" v="Sæterneset" />
		<tag k="name" v="Seterneset" />
		<tag k="natural" v="cape" />
		<tag k="ssr:stedsnr" v="199081" />
	</node>
	<node id="-187993" lat="68.0094500003" lon="13.1197166669">
		<tag k="alt_name" v="Neset" />
		<tag k="name" v="Nesan" />
		<tag k="natural" v="cape" />
		<tag k="ssr:stedsnr" v="199055" />
	</node>
	<node id="-187992" lat="68.066961112" lon="13.2988305574">
		<tag k="alt_name" v="Flakstadøy" />
		<tag k="name" v="Flakstadøya" />
		<tag k="place" v="island" />
		<tag k="ssr:stedsnr" v="199044" />
	</node>
	<node id="-187990" lat="68.0632083307" lon="13.1858222131">
		<tag k="name" v="Revsholmen" />
>>>>>>> e1d4bc35ff8a6074a6f2e91616a996b547c36f15
		<tag k="place" v="islet" />
		<tag k="ssr:stedsnr" v="716930" />
	</node>
	<node lat="68.11280833450965" lon="13.084030567790887" id="-10388">
		<tag k="name" v="Nøsset" />
		<tag k="natural" v="cape" />
		<tag k="ssr:stedsnr" v="717187" />
	</node>
<<<<<<< HEAD
	<node lat="68.10522777645221" lon="13.172999996100955" id="-10389">
=======
	<node id="-187983" lat="68.1025527767" lon="13.1649610989">
>>>>>>> e1d4bc35ff8a6074a6f2e91616a996b547c36f15
		<tag k="fixme" v="consider seamark:type=rock or natural=shoal" />
		<tag k="name" v="Lamholmskjeran" />
		<tag k="place" v="islet" />
		<tag k="ssr:stedsnr" v="717195" />
	</node>
<<<<<<< HEAD
	<node lat="68.09907222082539" lon="13.156661109892017" id="-10393">
		<tag k="name" v="Vallneset" />
=======
	<node id="-187977" lat="68.0785000034" lon="13.3408166729">
		<tag k="name" v="Breineset" />
>>>>>>> e1d4bc35ff8a6074a6f2e91616a996b547c36f15
		<tag k="natural" v="cape" />
		<tag k="ssr:stedsnr" v="899201" />
	</node>
<<<<<<< HEAD
	<node lat="68.00489444122334" lon="13.259936105009716" id="-10395">
=======
	<node id="-187974" lat="68.0633972247" lon="13.396869443">
>>>>>>> e1d4bc35ff8a6074a6f2e91616a996b547c36f15
		<tag k="fixme" v="consider seamark:type=rock or natural=shoal" />
		<tag k="name" v="Geitskjeret" />
		<tag k="place" v="islet" />
		<tag k="ssr:stedsnr" v="717904" />
	</node>
<<<<<<< HEAD
	<node lat="67.9998027763792" lon="13.261002779796431" id="-10396">
		<tag k="name" v="Veineskaftodden" />
		<tag k="natural" v="cape" />
		<tag k="ssr:stedsnr" v="717994" />
	</node>
	<node lat="68.15540833569975" lon="13.416994439164965" id="-10397">
		<tag k="name" v="Storsandnessanden" />
		<tag k="natural" v="beach" />
		<tag k="ssr:stedsnr" v="899326" />
	</node>
	<node lat="68.0605944409896" lon="13.393969440381138" id="-10402">
		<tag k="name" v="Mattiasvika" />
=======
	<node id="-187973" lat="68.0651944488" lon="13.3922777673">
		<tag k="name" v="Osen" />
		<tag k="natural" v="bay" />
		<tag k="ssr:stedsnr" v="170599" />
	</node>
	<node id="-187972" lat="68.0628861154" lon="13.3888083332">
		<tag k="name" v="Sommarfjøsvika" />
>>>>>>> e1d4bc35ff8a6074a6f2e91616a996b547c36f15
		<tag k="natural" v="bay" />
		<tag k="ssr:stedsnr" v="899599" />
	</node>
<<<<<<< HEAD
	<node lat="68.07507500249095" lon="13.089055545810544" id="-10405">
		<tag k="name" v="Hellan" />
=======
	<node id="-187965" lat="68.092575" lon="13.2254360997">
		<tag k="name" v="Likholmen" />
>>>>>>> e1d4bc35ff8a6074a6f2e91616a996b547c36f15
		<tag k="natural" v="cape" />
		<tag k="ssr:stedsnr" v="899723" />
	</node>
<<<<<<< HEAD
	<node lat="68.0280111104987" lon="13.371447227313757" id="-10408">
		<tag k="name" v="Kunta" />
		<tag k="natural" v="strait" />
		<tag k="ssr:stedsnr" v="899929" />
	</node>
	<node lat="68.02644999626982" lon="13.334036109187885" id="-10409">
		<tag k="name" v="Tennholmvika" />
		<tag k="natural" v="bay" />
		<tag k="ssr:stedsnr" v="899932" />
	</node>
	<node lat="68.00623333188516" lon="13.301147221504728" id="-10410">
		<tag k="fixme" v="consider seamark:type=rock or natural=shoal" />
		<tag k="name" v="Litlskjeret" />
		<tag k="place" v="islet" />
		<tag k="ssr:stedsnr" v="899980" />
	</node>
	<node lat="68.05868055270747" lon="12.958294449615845" id="-10411">
		<tag k="name" v="Småskallan" />
		<tag k="natural" v="shoal" />
		<tag k="place" v="locality" />
		<tag k="ssr:stedsnr" v="745012" />
	</node>
	<node lat="68.00418333353166" lon="13.116022223429836" id="-10413">
		<tag k="name" v="Bjørkneset" />
		<tag k="natural" v="cape" />
		<tag k="ssr:stedsnr" v="745077" />
	</node>
	<node lat="68.06421389294994" lon="13.399555562337554" id="-10417">
		<tag k="name" v="Nordsundet" />
		<tag k="natural" v="strait" />
		<tag k="ssr:stedsnr" v="745705" />
	</node>
	<node lat="68.07661388676452" lon="13.419975003289691" id="-10419">
		<tag k="fixme" v="consider seamark:type=rock or natural=shoal" />
		<tag k="name" v="Seglsteinen" />
=======
	<node id="-187964" lat="68.0297694429" lon="13.0571861072">
		<tag k="name" v="Kresnesbukta" />
		<tag k="natural" v="bay" />
		<tag k="ssr:stedsnr" v="169358" />
	</node>
	<node id="-187963" lat="68.0518944423" lon="13.3973805477">
		<tag k="name" v="Rørviksanden" />
		<tag k="natural" v="beach" />
		<tag k="place" v="locality" />
		<tag k="ssr:stedsnr" v="169349" />
	</node>
	<node id="-187961" lat="68.0400888904" lon="13.2390833318">
		<tag k="name" v="Lineset" />
		<tag k="natural" v="cape" />
		<tag k="ssr:stedsnr" v="168988" />
	</node>
	<node id="-187960" lat="68.2206277814" lon="13.3196027675">
		<tag k="name" v="Hellbåflua" />
		<tag k="natural" v="shoal" />
		<tag k="place" v="locality" />
		<tag k="ssr:stedsnr" v="168451" />
	</node>
	<node id="-187956" lat="68.1319000029" lon="13.4347944338">
		<tag k="name" v="Nappsvågen" />
		<tag k="natural" v="bay" />
		<tag k="ssr:stedsnr" v="142022" />
	</node>
	<node id="-187955" lat="68.1579638897" lon="13.3125527818">
		<tag k="name" v="Mjåneset" />
		<tag k="natural" v="cape" />
		<tag k="ssr:stedsnr" v="138978" />
	</node>
	<node id="-187954" lat="68.1534444483" lon="13.3150611193">
		<tag k="alt_name" v="Raet" />
		<tag k="name" v="Raen" />
		<tag k="natural" v="beach" />
		<tag k="place" v="locality" />
		<tag k="ssr:stedsnr" v="138977" />
	</node>
	<node id="-187953" lat="68.1462111088" lon="13.4608138963">
		<tag k="name" v="Gapet" />
		<tag k="natural" v="strait" />
		<tag k="ssr:stedsnr" v="138950" />
	</node>
	<node id="-187952" lat="68.1444222266" lon="13.3078722265">
		<tag k="name" v="Erlyhatten" />
		<tag k="natural" v="shoal" />
		<tag k="place" v="locality" />
		<tag k="ssr:stedsnr" v="138944" />
	</node>
	<node id="-187950" lat="68.1137000004" lon="13.300747212">
		<tag k="fixme" v="consider seamark:type=rock or natural=shoal" />
		<tag k="name" v="Skagskjeran" />
		<tag k="place" v="islet" />
		<tag k="ssr:stedsnr" v="138854" />
	</node>
	<node id="-187946" lat="67.9888805571" lon="13.173869436">
		<tag k="name" v="Skjåholman" />
>>>>>>> e1d4bc35ff8a6074a6f2e91616a996b547c36f15
		<tag k="place" v="islet" />
		<tag k="ssr:stedsnr" v="745771" />
	</node>
<<<<<<< HEAD
	<node lat="68.15667221837862" lon="13.282780565316012" id="-10420">
		<tag k="name" v="Mjånesskallen" />
=======
	<node id="-187944" lat="68.2259333305" lon="13.2859000047">
		<tag k="name" v="Ofsan" />
>>>>>>> e1d4bc35ff8a6074a6f2e91616a996b547c36f15
		<tag k="natural" v="shoal" />
		<tag k="place" v="locality" />
		<tag k="ssr:stedsnr" v="745984" />
	</node>
<<<<<<< HEAD
	<node lat="68.0132833329584" lon="13.225472210948242" id="-10421">
		<tag k="alt_name" v="Arveneset" />
		<tag k="name" v="Arvedsneset" />
		<tag k="natural" v="cape" />
		<tag k="ssr:stedsnr" v="775505" />
	</node>
	<node lat="68.02794166865738" lon="13.233544439061967" id="-10425">
		<tag k="name" v="Dalgrunnen" />
		<tag k="natural" v="shoal" />
		<tag k="place" v="locality" />
		<tag k="ssr:stedsnr" v="777117" />
	</node>
	<node lat="68.04665555217787" lon="13.118233335734015" id="-10429">
		<tag k="name" v="Leira" />
		<tag k="natural" v="bay" />
		<tag k="ssr:stedsnr" v="777567" />
	</node>
	<node lat="68.00234444839012" lon="13.2170055678971" id="-10434">
		<tag k="name" v="Dynan" />
=======
	<node id="-187943" lat="68.0018583332" lon="13.2020833352">
		<tag k="alt_name" v="Leiholman;Leiskjeran" />
		<tag k="name" v="Leiholmen" />
		<tag k="place" v="islet" />
		<tag k="ssr:stedsnr" v="138073" />
	</node>
	<node id="-187940" lat="68.0308111136" lon="13.171172228">
		<tag k="name" v="Grøtholmen" />
		<tag k="place" v="islet" />
		<tag k="ssr:stedsnr" v="138032" />
	</node>
	<node id="-187938" lat="68.0748027786" lon="13.0477722122">
		<tag k="name" v="Kjerringneset" />
		<tag k="natural" v="cape" />
		<tag k="ssr:stedsnr" v="138281" />
	</node>
	<node id="-187935" lat="68.1003111138" lon="13.2003916739">
		<tag k="name" v="Hella" />
>>>>>>> e1d4bc35ff8a6074a6f2e91616a996b547c36f15
		<tag k="natural" v="shoal" />
		<tag k="place" v="locality" />
		<tag k="ssr:stedsnr" v="778000" />
	</node>
<<<<<<< HEAD
	<node lat="68.15158333690745" lon="13.018619445424026" id="-10436">
		<tag k="alt_name" v="Råsene" />
		<tag k="name" v="Råsen" />
=======
	<node id="-187934" lat="68.0953444432" lon="13.0542777886">
		<tag k="name" v="Nonstindskallen" />
>>>>>>> e1d4bc35ff8a6074a6f2e91616a996b547c36f15
		<tag k="natural" v="shoal" />
		<tag k="place" v="locality" />
		<tag k="ssr:stedsnr" v="805170" />
	</node>
<<<<<<< HEAD
	<node lat="68.15189721864583" lon="13.08836389940254" id="-10437">
		<tag k="name" v="Grunnryggen" />
=======
	<node id="-187933" lat="68.089858329" lon="13.0585555664">
		<tag k="name" v="Kvalvikgrunnen" />
>>>>>>> e1d4bc35ff8a6074a6f2e91616a996b547c36f15
		<tag k="natural" v="shoal" />
		<tag k="place" v="locality" />
		<tag k="ssr:stedsnr" v="805171" />
	</node>
<<<<<<< HEAD
	<node lat="68.12516666637318" lon="12.966247227661245" id="-10438">
		<tag k="name" v="Medskallen" />
		<tag k="natural" v="shoal" />
		<tag k="place" v="locality" />
		<tag k="ssr:stedsnr" v="805175" />
	</node>
	<node lat="68.11848332982778" lon="13.243586103061753" id="-10447">
		<tag k="name" v="Grunnen" />
		<tag k="natural" v="shoal" />
		<tag k="place" v="locality" />
		<tag k="ssr:stedsnr" v="839195" />
	</node>
	<node lat="68.04173889314424" lon="13.098661102378593" id="-10449">
		<tag k="name" v="Kinnbukta" />
=======
	<node id="-187932" lat="68.1073999978" lon="13.1804666559">
		<tag k="alt_name" v="Storlamholmen" />
		<tag k="name" v="Stor-Lamholmen" />
		<tag k="place" v="islet" />
		<tag k="ssr:stedsnr" v="137189" />
	</node>
	<node id="-187928" lat="68.0021694437" lon="13.2885555512">
		<tag k="fixme" v="consider seamark:type=rock or natural=shoal" />
		<tag k="name" v="Langnesskjeran" />
		<tag k="place" v="islet" />
		<tag k="ssr:stedsnr" v="110876" />
	</node>
	<node id="-187920" lat="68.0738222222" lon="13.0805222222">
		<tag k="name" v="Vestervika" />
>>>>>>> e1d4bc35ff8a6074a6f2e91616a996b547c36f15
		<tag k="natural" v="bay" />
		<tag k="ssr:stedsnr" v="839411" />
	</node>
<<<<<<< HEAD
	<node lat="68.04335833432104" lon="13.257722230622868" id="-10450">
		<tag k="name" v="Nordsanden" />
		<tag k="natural" v="beach" />
		<tag k="ssr:stedsnr" v="839509" />
	</node>
	<node lat="68.01053611509758" lon="13.181197225966631" id="-10451">
		<tag k="bay" v="fjord" />
		<tag k="name" v="Islendingen" />
		<tag k="natural" v="bay" />
		<tag k="ssr:stedsnr" v="927038" />
	</node>
	<node lat="68.05140833749243" lon="13.398094437912736" id="-10456">
		<tag k="fixme" v="consider seamark:type=rock or natural=shoal" />
		<tag k="name" v="Rørvikskjeran" />
=======
	<node id="-187916" lat="68.1139805519" lon="13.1197333379">
		<tag k="name" v="Gjerdsundnakken" />
		<tag k="place" v="islet" />
		<tag k="ssr:stedsnr" v="110288" />
	</node>
	<node id="-187915" lat="68.114644447" lon="13.1360222117">
		<tag k="name" v="Kruna" />
>>>>>>> e1d4bc35ff8a6074a6f2e91616a996b547c36f15
		<tag k="place" v="islet" />
		<tag k="ssr:stedsnr" v="927711" />
	</node>
<<<<<<< HEAD
	<node lat="68.03397222632397" lon="13.085652789420818" id="-10460">
		<tag k="alt_name" v="Veineset" />
		<tag k="name" v="Vegneset" />
		<tag k="natural" v="cape" />
		<tag k="ssr:stedsnr" v="927883" />
	</node>
	<node lat="68.08207777772296" lon="13.294905554800849" id="-10461">
		<tag k="name" v="Langneset" />
		<tag k="natural" v="cape" />
		<tag k="ssr:stedsnr" v="927885" />
	</node>
	<node lat="68.10569722529436" lon="13.320922233364492" id="-10462">
=======
	<node id="-187910" lat="68.1634916632" lon="13.3182333263">
		<tag k="name" v="Kveithella" />
		<tag k="natural" v="cape" />
		<tag k="ssr:stedsnr" v="110094" />
	</node>
	<node id="-187906" lat="68.1102722177" lon="13.1701000087">
		<tag k="name" v="Leiholmen" />
		<tag k="place" v="islet" />
		<tag k="ssr:stedsnr" v="108981" />
	</node>
	<node id="-187903" lat="68.1394111114" lon="13.4582583312">
		<tag k="name" v="Holmsanden" />
		<tag k="natural" v="shoal" />
		<tag k="place" v="locality" />
		<tag k="ssr:stedsnr" v="82001" />
	</node>
	<node id="-187902" lat="68.1886416651" lon="13.323075001">
>>>>>>> e1d4bc35ff8a6074a6f2e91616a996b547c36f15
		<tag k="fixme" v="consider seamark:type=rock or natural=shoal" />
		<tag k="name" v="Skolskjeran" />
		<tag k="place" v="islet" />
		<tag k="ssr:stedsnr" v="927842" />
	</node>
<<<<<<< HEAD
	<node lat="68.17335555469288" lon="13.335672223770827" id="-10464">
		<tag k="alt_name" v="Våtflua" />
		<tag k="name" v="Vottflua" />
=======
	<node id="-187901" lat="68.1773249968" lon="13.3320027732">
		<tag k="name" v="Hornskallen" />
>>>>>>> e1d4bc35ff8a6074a6f2e91616a996b547c36f15
		<tag k="natural" v="shoal" />
		<tag k="place" v="locality" />
		<tag k="ssr:stedsnr" v="927895" />
	</node>
<<<<<<< HEAD
	<node lat="68.20137777675565" lon="13.337086106591887" id="-10465">
		<tag k="name" v="Lysbåen" />
=======
	<node id="-187899" lat="68.11463611" lon="13.2716027811">
		<tag k="name" v="Kjerkfallet" />
>>>>>>> e1d4bc35ff8a6074a6f2e91616a996b547c36f15
		<tag k="natural" v="shoal" />
		<tag k="place" v="locality" />
		<tag k="ssr:stedsnr" v="927943" />
	</node>
<<<<<<< HEAD
	<node lat="68.12636111324039" lon="13.440916670874993" id="-10467">
		<tag k="name" v="Skjellsteinvika" />
		<tag k="natural" v="bay" />
		<tag k="ssr:stedsnr" v="871004" />
	</node>
	<node lat="68.08459999629095" lon="13.183724996865017" id="-10478">
		<tag k="name" v="Oddan" />
=======
	<node id="-187894" lat="68.1385555597" lon="13.4586333252">
		<tag k="alt_name" v="Nappholmen" />
		<tag k="name" v="Nappsholmen" />
>>>>>>> e1d4bc35ff8a6074a6f2e91616a996b547c36f15
		<tag k="natural" v="cape" />
		<tag k="ssr:stedsnr" v="899865" />
	</node>
<<<<<<< HEAD
	<node lat="68.09685833297976" lon="13.196094442741385" id="-10479">
		<tag k="fixme" v="consider seamark:type=rock or natural=shoal" />
		<tag k="name" v="Rengan" />
=======
	<node id="-187879" lat="68.1065666702" lon="13.1871222158">
		<tag k="alt_name" v="Litllamholmen" />
		<tag k="name" v="Litl-Lamholmen" />
>>>>>>> e1d4bc35ff8a6074a6f2e91616a996b547c36f15
		<tag k="place" v="islet" />
		<tag k="ssr:stedsnr" v="899868" />
	</node>
<<<<<<< HEAD
	<node lat="68.05312777882524" lon="13.171433343876739" id="-10483">
		<tag k="name" v="Prestholmen" />
		<tag k="place" v="islet" />
		<tag k="ssr:stedsnr" v="927007" />
	</node>
	<node lat="68.04638055534674" lon="13.009338885366587" id="-10484">
		<tag k="name" v="Hjellbergsvika" />
		<tag k="natural" v="bay" />
		<tag k="ssr:stedsnr" v="927009" />
	</node>
	<node lat="68.06397222519827" lon="13.145511102979322" id="-10485">
		<tag k="name" v="Sauvika" />
		<tag k="natural" v="bay" />
		<tag k="ssr:stedsnr" v="927015" />
	</node>
	<node lat="68.0248444406477" lon="13.358302780010613" id="-10491">
		<tag k="alt_name" v="Storskjeran" />
		<tag k="name" v="Storskjeret" />
		<tag k="place" v="islet" />
		<tag k="ssr:stedsnr" v="927516" />
	</node>
	<node lat="68.02826666267777" lon="13.381161100844485" id="-10492">
		<tag k="name" v="Nusneset" />
		<tag k="natural" v="cape" />
		<tag k="ssr:stedsnr" v="927554" />
	</node>
	<node lat="68.19472777368048" lon="13.2940055489317" id="-10496">
		<tag k="name" v="Ongelsbryten" />
		<tag k="natural" v="shoal" />
=======
	<node id="-187878" lat="68.1475638874" lon="13.1080444353">
		<tag k="name" v="Lysbåen" />
		<tag k="natural" v="shoal" />
		<tag k="place" v="locality" />
		<tag k="ssr:stedsnr" v="77214" />
	</node>
	<node id="-187877" lat="68.1554944429" lon="13.0457694374">
		<tag k="name" v="Bentskallen" />
		<tag k="natural" v="shoal" />
		<tag k="place" v="locality" />
		<tag k="ssr:stedsnr" v="77202" />
	</node>
	<node id="-187871" lat="68.0418611075" lon="13.2605722142">
		<tag k="name" v="Innersanden" />
		<tag k="natural" v="beach" />
		<tag k="place" v="locality" />
		<tag k="ssr:stedsnr" v="50473" />
	</node>
	<node id="-187868" lat="68.1075333355" lon="13.1496944438">
		<tag k="name" v="Manndrapet" />
>>>>>>> e1d4bc35ff8a6074a6f2e91616a996b547c36f15
		<tag k="place" v="locality" />
		<tag k="ssr:stedsnr" v="927926" />
	</node>
<<<<<<< HEAD
	<node lat="68.15029999823183" lon="13.446913891842835" id="-10497">
		<tag k="fixme" v="consider seamark:type=rock or natural=shoal" />
		<tag k="name" v="Geitungen" />
		<tag k="place" v="islet" />
		<tag k="ssr:stedsnr" v="927967" />
	</node>
	<node lat="68.0944000021283" lon="13.420702768934166" id="-10503">
		<tag k="name" v="Monesodden" />
=======
	<node id="-187867" lat="68.110894443" lon="13.0913944499">
		<tag k="name" v="Oterneset" />
>>>>>>> e1d4bc35ff8a6074a6f2e91616a996b547c36f15
		<tag k="natural" v="cape" />
		<tag k="ssr:stedsnr" v="947701" />
	</node>
<<<<<<< HEAD
	<node lat="68.04121666421732" lon="13.349263884746605" id="-10504">
		<tag k="name" v="Bottelen" />
=======
	<node id="-187866" lat="68.0012444421" lon="13.2618916602">
		<tag k="name" v="Neslandsodden" />
>>>>>>> e1d4bc35ff8a6074a6f2e91616a996b547c36f15
		<tag k="natural" v="cape" />
		<tag k="ssr:stedsnr" v="957988" />
	</node>
<<<<<<< HEAD
	<node lat="68.08384999635135" lon="13.230019437062332" id="-10506">
		<tag k="name" v="Skjelholmleira" />
=======
	<node id="-187862" lat="67.9779694418" lon="13.1847138987">
		<tag k="name" v="Spellmannsbukta" />
>>>>>>> e1d4bc35ff8a6074a6f2e91616a996b547c36f15
		<tag k="natural" v="bay" />
		<tag k="ssr:stedsnr" v="958811" />
	</node>
<<<<<<< HEAD
	<node lat="68.0766333295846" lon="13.200363896635476" id="-10510">
		<tag k="fixme" v="consider seamark:type=rock or natural=shoal" />
		<tag k="name" v="Kobbskjeran" />
		<tag k="place" v="islet" />
		<tag k="ssr:stedsnr" v="959611" />
	</node>
	<node lat="68.11439444103726" lon="13.136744445571122" id="-10514">
		<tag k="fixme" v="consider seamark:type=rock or natural=shoal" />
		<tag k="name" v="Rasmushella" />
		<tag k="place" v="islet" />
		<tag k="ssr:stedsnr" v="960277" />
	</node>
	<node lat="68.0386888890582" lon="13.347963884587394" id="-10517">
		<tag k="name" v="Skamkråa" />
=======
	<node id="-187861" lat="67.9957722244" lon="13.2776611072">
		<tag k="bay" v="fjord" />
		<tag k="name" v="Vestfjorden" />
>>>>>>> e1d4bc35ff8a6074a6f2e91616a996b547c36f15
		<tag k="natural" v="bay" />
		<tag k="ssr:stedsnr" v="960489" />
	</node>
<<<<<<< HEAD
	<node lat="68.16234166870252" lon="13.160336122985738" id="-10520">
		<tag k="name" v="Stabben" />
		<tag k="place" v="islet" />
		<tag k="ssr:stedsnr" v="16183" />
	</node>
	<node lat="68.04058888477752" lon="13.167288879110135" id="-10521">
		<tag k="fixme" v="multiple name tags, choose one and add the other to alt_name" />
		<tag k="name" v="Sundstraumen;Nesstraumen" />
		<tag k="natural" v="strait" />
		<tag k="ssr:stedsnr" v="17016" />
	</node>
	<node lat="68.01751388861669" lon="13.198047224564247" id="-10522">
		<tag k="bay" v="fjord" />
		<tag k="name" v="Stjernfjorden" />
=======
	<node id="-187859" lat="67.9997083327" lon="13.2743694462">
		<tag k="name" v="Smørbøen" />
		<tag k="place" v="locality" />
		<tag k="seamark:type" v="rock" />
		<tag k="ssr:stedsnr" v="49871" />
	</node>
	<node id="-187856" lat="68.0577527821" lon="13.1674222145">
		<tag k="name" v="Krystadvika" />
		<tag k="place" v="locality" />
		<tag k="ssr:stedsnr" v="49677" />
	</node>
	<node id="-187844" lat="68.1686972258" lon="13.3222777886">
		<tag k="name" v="Merrgrevet" />
>>>>>>> e1d4bc35ff8a6074a6f2e91616a996b547c36f15
		<tag k="natural" v="bay" />
		<tag k="ssr:stedsnr" v="17041" />
	</node>
<<<<<<< HEAD
	<node lat="68.10362499767325" lon="13.236938882242642" id="-10525">
		<tag k="name" v="Jusneset" />
=======
	<node id="-187836" lat="68.0982805522" lon="13.3380361205">
		<tag k="name" v="Prestneset" />
>>>>>>> e1d4bc35ff8a6074a6f2e91616a996b547c36f15
		<tag k="natural" v="cape" />
		<tag k="ssr:stedsnr" v="17843" />
	</node>
<<<<<<< HEAD
	<node lat="68.11734999926459" lon="13.433863890621279" id="-10526">
		<tag k="name" v="Mola" />
		<tag k="natural" v="bay" />
		<tag k="ssr:stedsnr" v="17847" />
	</node>
	<node lat="68.19039444555341" lon="13.149625002161635" id="-10527">
		<tag k="name" v="Bjørntindskallen" />
=======
	<node id="-187834" lat="68.0389055586" lon="13.3946472159">
		<tag k="name" v="Dalvika" />
		<tag k="natural" v="bay" />
		<tag k="ssr:stedsnr" v="48331" />
	</node>
	<node id="-187833" lat="68.0539722226" lon="13.3993138858">
		<tag k="fixme" v="consider seamark:type=rock or natural=shoal" />
		<tag k="name" v="Hamnhaugskjeran" />
		<tag k="place" v="islet" />
		<tag k="ssr:stedsnr" v="48329" />
	</node>
	<node id="-187832" lat="68.0208527817" lon="13.0943222308">
		<tag k="name" v="Holman" />
		<tag k="natural" v="cape" />
		<tag k="ssr:stedsnr" v="48326" />
	</node>
	<node id="-187829" lat="68.1142000036" lon="13.1452277873">
		<tag k="alt_name" v="Gjeltbåen" />
		<tag k="name" v="Gjeltbøen" />
>>>>>>> e1d4bc35ff8a6074a6f2e91616a996b547c36f15
		<tag k="natural" v="shoal" />
		<tag k="place" v="locality" />
		<tag k="ssr:stedsnr" v="17243" />
	</node>
<<<<<<< HEAD
	<node lat="68.12188888957108" lon="13.135177773431028" id="-10528">
		<tag k="name" v="Svartoksen" />
		<tag k="place" v="islet" />
		<tag k="ssr:stedsnr" v="17262" />
	</node>
	<node lat="68.09393332926633" lon="13.18964998885213" id="-10530">
		<tag k="name" v="Frilløya" />
		<tag k="place" v="islet" />
		<tag k="ssr:stedsnr" v="17272" />
	</node>
	<node lat="68.09252222236839" lon="13.217752782032479" id="-10531">
		<tag k="name" v="Gullrosøya" />
		<tag k="place" v="island" />
		<tag k="ssr:stedsnr" v="17274" />
	</node>
	<node lat="68.03640833322974" lon="13.391325008068527" id="-10533">
		<tag k="name" v="Rishaugbukta" />
=======
	<node id="-187825" lat="68.1525749959" lon="13.4296500105">
		<tag k="name" v="Oterneset" />
		<tag k="natural" v="cape" />
		<tag k="ssr:stedsnr" v="17964" />
	</node>
	<node id="-187822" lat="68.0317472181" lon="13.258375003">
		<tag k="alt_name" v="Veidneset" />
		<tag k="name" v="Veineset" />
		<tag k="natural" v="cape" />
		<tag k="ssr:stedsnr" v="17565" />
	</node>
	<node id="-187821" lat="68.028391668" lon="13.3742444412">
		<tag k="name" v="Hyshola" />
>>>>>>> e1d4bc35ff8a6074a6f2e91616a996b547c36f15
		<tag k="natural" v="bay" />
		<tag k="ssr:stedsnr" v="17541" />
	</node>
	<node lat="68.0439055585873" lon="13.34947778812146" id="-10535">
		<tag k="name" v="Bottelvika" />
		<tag k="natural" v="bay" />
		<tag k="ssr:stedsnr" v="17547" />
	</node>
<<<<<<< HEAD
	<node lat="68.02539166382785" lon="13.336249999390818" id="-10538">
=======
	<node id="-187820" lat="68.0253916638" lon="13.3362499994">
>>>>>>> e1d4bc35ff8a6074a6f2e91616a996b547c36f15
		<tag k="name" v="Lyrvika" />
		<tag k="natural" v="bay" />
		<tag k="ssr:stedsnr" v="17559" />
	</node>
<<<<<<< HEAD
	<node lat="68.02839166800469" lon="13.374244441172099" id="-10539">
		<tag k="name" v="Hyshola" />
=======
	<node id="-187817" lat="68.0439055586" lon="13.3494777881">
		<tag k="name" v="Bottelvika" />
>>>>>>> e1d4bc35ff8a6074a6f2e91616a996b547c36f15
		<tag k="natural" v="bay" />
		<tag k="ssr:stedsnr" v="17562" />
	</node>
<<<<<<< HEAD
	<node lat="68.03174721810863" lon="13.2583750029672" id="-10540">
		<tag k="alt_name" v="Veidneset" />
		<tag k="name" v="Veineset" />
		<tag k="natural" v="cape" />
		<tag k="ssr:stedsnr" v="17565" />
	</node>
	<node lat="68.16537499623739" lon="13.378305555389808" id="-10542">
=======
	<node id="-187815" lat="68.0364083332" lon="13.3913250081">
		<tag k="name" v="Rishaugbukta" />
		<tag k="natural" v="bay" />
		<tag k="ssr:stedsnr" v="17541" />
	</node>
	<node id="-187813" lat="68.1653749962" lon="13.3783055554">
>>>>>>> e1d4bc35ff8a6074a6f2e91616a996b547c36f15
		<tag k="alt_name" v="Tjeldsneset" />
		<tag k="name" v="Tjeldneset" />
		<tag k="natural" v="cape" />
		<tag k="ssr:stedsnr" v="17882" />
	</node>
<<<<<<< HEAD
	<node lat="68.16869722578775" lon="13.322277788564728" id="-10549">
		<tag k="name" v="Merrgrevet" />
		<tag k="natural" v="bay" />
		<tag k="ssr:stedsnr" v="49092" />
	</node>
	<node lat="67.98848055406962" lon="13.222508323814887" id="-10553">
		<tag k="name" v="Kunskallen" />
		<tag k="place" v="locality" />
		<tag k="seamark:type" v="rock" />
		<tag k="ssr:stedsnr" v="47531" />
	</node>
	<node lat="68.11420000363938" lon="13.145227787304542" id="-10554">
		<tag k="alt_name" v="Gjeltbåen" />
		<tag k="name" v="Gjeltbøen" />
=======
	<node id="-187810" lat="68.0925222224" lon="13.217752782">
		<tag k="name" v="Gullrosøya" />
		<tag k="place" v="island" />
		<tag k="ssr:stedsnr" v="17274" />
	</node>
	<node id="-187809" lat="68.0939333293" lon="13.1896499889">
		<tag k="name" v="Frilløya" />
		<tag k="place" v="islet" />
		<tag k="ssr:stedsnr" v="17272" />
	</node>
	<node id="-187807" lat="68.1218888896" lon="13.1351777734">
		<tag k="name" v="Svartoksen" />
		<tag k="place" v="islet" />
		<tag k="ssr:stedsnr" v="17262" />
	</node>
	<node id="-187806" lat="68.1903944456" lon="13.1496250022">
		<tag k="name" v="Bjørntindskallen" />
>>>>>>> e1d4bc35ff8a6074a6f2e91616a996b547c36f15
		<tag k="natural" v="shoal" />
		<tag k="place" v="locality" />
		<tag k="ssr:stedsnr" v="47985" />
	</node>
	<node lat="68.09828055224314" lon="13.33803612046734" id="-10556">
		<tag k="name" v="Prestneset" />
		<tag k="natural" v="cape" />
		<tag k="ssr:stedsnr" v="48768" />
	</node>
<<<<<<< HEAD
	<node lat="67.9957722244067" lon="13.27766110724333" id="-10568">
=======
	<node id="-187804" lat="68.0175138886" lon="13.1980472246">
>>>>>>> e1d4bc35ff8a6074a6f2e91616a996b547c36f15
		<tag k="bay" v="fjord" />
		<tag k="name" v="Vestfjorden" />
		<tag k="natural" v="bay" />
<<<<<<< HEAD
		<tag k="ssr:stedsnr" v="49930" />
	</node>
	<node lat="67.9779694417514" lon="13.18471389872355" id="-10569">
		<tag k="name" v="Spellmannsbukta" />
		<tag k="natural" v="bay" />
		<tag k="ssr:stedsnr" v="49956" />
	</node>
	<node lat="67.99970833273599" lon="13.274369446167084" id="-10573">
		<tag k="name" v="Smørbøen" />
		<tag k="place" v="locality" />
		<tag k="seamark:type" v="rock" />
		<tag k="ssr:stedsnr" v="49871" />
	</node>
	<node lat="68.00124444210682" lon="13.261891660159424" id="-10575">
		<tag k="name" v="Neslandsodden" />
		<tag k="natural" v="cape" />
		<tag k="ssr:stedsnr" v="49995" />
	</node>
	<node lat="68.11089444297926" lon="13.09139444992482" id="-10578">
		<tag k="name" v="Oterneset" />
		<tag k="natural" v="cape" />
		<tag k="ssr:stedsnr" v="50187" />
	</node>
	<node lat="68.10753333553379" lon="13.149694443750644" id="-10579">
		<tag k="name" v="Manndrapet" />
=======
		<tag k="ssr:stedsnr" v="17041" />
	</node>
	<node id="-187803" lat="68.0405888848" lon="13.1672888791">
		<tag k="fixme" v="multiple name tags, choose one and add the other to alt_name" />
		<tag k="name" v="Nesstraumen;Sundstraumen" />
		<tag k="natural" v="strait" />
		<tag k="ssr:stedsnr" v="17016" />
	</node>
	<node id="-187802" lat="68.1623416687" lon="13.160336123">
		<tag k="name" v="Stabben" />
		<tag k="place" v="islet" />
		<tag k="ssr:stedsnr" v="16183" />
	</node>
	<node id="-187790" lat="68.096858333" lon="13.1960944427">
		<tag k="fixme" v="consider seamark:type=rock or natural=shoal" />
		<tag k="name" v="Rengan" />
		<tag k="place" v="islet" />
		<tag k="ssr:stedsnr" v="899868" />
	</node>
	<node id="-187789" lat="68.0845999963" lon="13.1837249969">
		<tag k="name" v="Oddan" />
		<tag k="natural" v="cape" />
		<tag k="ssr:stedsnr" v="899865" />
	</node>
	<node id="-187786" lat="68.1554083357" lon="13.4169944392">
		<tag k="name" v="Storsandnessanden" />
		<tag k="natural" v="beach" />
		<tag k="place" v="locality" />
		<tag k="ssr:stedsnr" v="899326" />
	</node>
	<node id="-187783" lat="67.9954833293" lon="13.2047194439">
		<tag k="name" v="Sundflaget" />
		<tag k="natural" v="shoal" />
		<tag k="place" v="locality" />
		<tag k="ssr:stedsnr" v="898911" />
	</node>
	<node id="-187779" lat="68.1263611132" lon="13.4409166709">
		<tag k="name" v="Skjellsteinvika" />
>>>>>>> e1d4bc35ff8a6074a6f2e91616a996b547c36f15
		<tag k="natural" v="bay" />
		<tag k="ssr:stedsnr" v="50193" />
	</node>
<<<<<<< HEAD
	<node lat="68.09322777494606" lon="13.20231667776816" id="-10587">
		<tag k="name" v="Blindmannsholmen" />
		<tag k="place" v="islet" />
		<tag k="ssr:stedsnr" v="50817" />
	</node>
	<node lat="68.13941111142175" lon="13.45825833119401" id="-10590">
		<tag k="name" v="Holmsanden" />
		<tag k="natural" v="shoal" />
		<tag k="place" v="locality" />
		<tag k="ssr:stedsnr" v="82001" />
	</node>
	<node lat="68.11463611000289" lon="13.271602781064098" id="-10603">
		<tag k="name" v="Kjerkfallet" />
=======
	<node id="-187778" lat="68.0951722253" lon="13.4204222265">
		<tag k="name" v="Langvika" />
		<tag k="natural" v="bay" />
		<tag k="ssr:stedsnr" v="947702" />
	</node>
	<node id="-187777" lat="68.0944000021" lon="13.4207027689">
		<tag k="name" v="Monesodden" />
		<tag k="natural" v="cape" />
		<tag k="ssr:stedsnr" v="947701" />
	</node>
	<node id="-187776" lat="68.2190083374" lon="13.2693805523">
		<tag k="name" v="Grunnbåen" />
>>>>>>> e1d4bc35ff8a6074a6f2e91616a996b547c36f15
		<tag k="natural" v="shoal" />
		<tag k="place" v="locality" />
		<tag k="ssr:stedsnr" v="78870" />
	</node>
<<<<<<< HEAD
	<node lat="68.11027221772262" lon="13.170100008696727" id="-10608">
		<tag k="name" v="Leiholmen" />
		<tag k="place" v="islet" />
		<tag k="ssr:stedsnr" v="108981" />
	</node>
	<node lat="68.0738222221691" lon="13.080522222223044" id="-10611">
		<tag k="name" v="Vestervika" />
		<tag k="natural" v="bay" />
		<tag k="ssr:stedsnr" v="110728" />
	</node>
	<node lat="68.16349166321332" lon="13.318233326255047" id="-10612">
		<tag k="name" v="Kveithella" />
		<tag k="natural" v="cape" />
		<tag k="ssr:stedsnr" v="110094" />
	</node>
	<node lat="68.0777416647197" lon="13.33627777901208" id="-10622">
=======
	<node id="-187774" lat="68.0969499961" lon="13.2061083352">
		<tag k="name" v="Leiholmen" />
		<tag k="place" v="islet" />
		<tag k="ssr:stedsnr" v="866203" />
	</node>
	<node id="-187771" lat="68.0342194424" lon="13.1752611081">
		<tag k="name" v="Henrikkaholmen" />
		<tag k="place" v="islet" />
		<tag k="ssr:stedsnr" v="838168" />
	</node>
	<node id="-187762" lat="68.1426583302" lon="13.3097361043">
		<tag k="fixme" v="consider seamark:type=rock or natural=shoal" />
		<tag k="name" v="Løysteinen" />
		<tag k="place" v="islet" />
		<tag k="ssr:stedsnr" v="806815" />
	</node>
	<node id="-187759" lat="68.0619754439" lon="13.400645397">
		<tag k="name" v="Straumøya" />
		<tag k="place" v="island" />
		<tag k="ssr:stedsnr" v="806711" />
	</node>
	<node id="-187757" lat="68.1502999982" lon="13.4469138918">
>>>>>>> e1d4bc35ff8a6074a6f2e91616a996b547c36f15
		<tag k="fixme" v="consider seamark:type=rock or natural=shoal" />
		<tag k="name" v="Breinessteinan" />
		<tag k="place" v="islet" />
<<<<<<< HEAD
		<tag k="ssr:stedsnr" v="110610" />
	</node>
	<node lat="68.016511112616" lon="13.195358344846902" id="-10626">
		<tag k="bay" v="fjord" />
		<tag k="name" v="Skjenfjorden" />
		<tag k="natural" v="bay" />
		<tag k="ssr:stedsnr" v="118527" />
	</node>
	<node lat="68.1073999977561" lon="13.180466655869077" id="-10627">
		<tag k="alt_name" v="Storlamholmen" />
		<tag k="name" v="Stor-Lamholmen" />
		<tag k="place" v="islet" />
		<tag k="ssr:stedsnr" v="137189" />
	</node>
	<node lat="68.030811113633" lon="13.171172227980472" id="-10629">
		<tag k="name" v="Grøtholmen" />
=======
		<tag k="ssr:stedsnr" v="927967" />
	</node>
	<node id="-187756" lat="68.2013777768" lon="13.3370861066">
		<tag k="name" v="Lysbåen" />
		<tag k="natural" v="shoal" />
		<tag k="place" v="locality" />
		<tag k="ssr:stedsnr" v="927943" />
	</node>
	<node id="-187755" lat="68.1947277737" lon="13.2940055489">
		<tag k="name" v="Ongelsbryten" />
		<tag k="natural" v="shoal" />
		<tag k="place" v="locality" />
		<tag k="ssr:stedsnr" v="927926" />
	</node>
	<node id="-187754" lat="68.1733555547" lon="13.3356722238">
		<tag k="alt_name" v="Våtflua" />
		<tag k="name" v="Vottflua" />
		<tag k="natural" v="shoal" />
		<tag k="place" v="locality" />
		<tag k="ssr:stedsnr" v="927895" />
	</node>
	<node id="-187752" lat="68.0820777777" lon="13.2949055548">
		<tag k="name" v="Langneset" />
		<tag k="natural" v="cape" />
		<tag k="ssr:stedsnr" v="927885" />
	</node>
	<node id="-187751" lat="68.0339722263" lon="13.0856527894">
		<tag k="alt_name" v="Veineset" />
		<tag k="name" v="Vegneset" />
		<tag k="natural" v="cape" />
		<tag k="ssr:stedsnr" v="927883" />
	</node>
	<node id="-187747" lat="68.1056972253" lon="13.3209222334">
		<tag k="fixme" v="consider seamark:type=rock or natural=shoal" />
		<tag k="name" v="Skolskjeran" />
>>>>>>> e1d4bc35ff8a6074a6f2e91616a996b547c36f15
		<tag k="place" v="islet" />
		<tag k="ssr:stedsnr" v="138032" />
	</node>
<<<<<<< HEAD
	<node lat="68.00185833319487" lon="13.202083335243975" id="-10632">
		<tag k="alt_name" v="Leiholman;Leiskjeran" />
		<tag k="name" v="Leiholmen" />
=======
	<node id="-187741" lat="68.0514083375" lon="13.3980944379">
		<tag k="fixme" v="consider seamark:type=rock or natural=shoal" />
		<tag k="name" v="Rørvikskjeran" />
>>>>>>> e1d4bc35ff8a6074a6f2e91616a996b547c36f15
		<tag k="place" v="islet" />
		<tag k="ssr:stedsnr" v="138073" />
	</node>
<<<<<<< HEAD
	<node lat="68.22593333049873" lon="13.285900004719032" id="-10633">
		<tag k="name" v="Ofsan" />
=======
	<node id="-187736" lat="68.141938893" lon="13.1093999992">
		<tag k="name" v="Mulskallen" />
>>>>>>> e1d4bc35ff8a6074a6f2e91616a996b547c36f15
		<tag k="natural" v="shoal" />
		<tag k="place" v="locality" />
		<tag k="ssr:stedsnr" v="138085" />
	</node>
<<<<<<< HEAD
	<node lat="68.08985832896865" lon="13.058555566409503" id="-10634">
		<tag k="name" v="Kvalvikgrunnen" />
=======
	<node id="-187735" lat="68.1251666664" lon="12.9662472277">
		<tag k="name" v="Medskallen" />
>>>>>>> e1d4bc35ff8a6074a6f2e91616a996b547c36f15
		<tag k="natural" v="shoal" />
		<tag k="place" v="locality" />
		<tag k="ssr:stedsnr" v="138251" />
	</node>
<<<<<<< HEAD
	<node lat="68.09534444315622" lon="13.054277788599906" id="-10635">
		<tag k="name" v="Nonstindskallen" />
=======
	<node id="-187734" lat="68.1518972186" lon="13.0883638994">
		<tag k="name" v="Grunnryggen" />
>>>>>>> e1d4bc35ff8a6074a6f2e91616a996b547c36f15
		<tag k="natural" v="shoal" />
		<tag k="place" v="locality" />
		<tag k="ssr:stedsnr" v="138252" />
	</node>
<<<<<<< HEAD
	<node lat="68.10031111383134" lon="13.200391673865761" id="-10636">
		<tag k="name" v="Hella" />
=======
	<node id="-187733" lat="68.1515833369" lon="13.0186194454">
		<tag k="alt_name" v="Råsene" />
		<tag k="name" v="Råsen" />
>>>>>>> e1d4bc35ff8a6074a6f2e91616a996b547c36f15
		<tag k="natural" v="shoal" />
		<tag k="place" v="locality" />
		<tag k="ssr:stedsnr" v="138254" />
	</node>
<<<<<<< HEAD
	<node lat="68.07480277855014" lon="13.047772212210983" id="-10639">
		<tag k="name" v="Kjerringneset" />
=======
	<node id="-187732" lat="68.0282666627" lon="13.3811611008">
		<tag k="name" v="Nusneset" />
>>>>>>> e1d4bc35ff8a6074a6f2e91616a996b547c36f15
		<tag k="natural" v="cape" />
		<tag k="ssr:stedsnr" v="138281" />
	</node>
<<<<<<< HEAD
	<node lat="68.11370000035322" lon="13.300747212005467" id="-10641">
		<tag k="fixme" v="consider seamark:type=rock or natural=shoal" />
		<tag k="name" v="Skagskjeran" />
=======
	<node id="-187730" lat="68.0248444406" lon="13.35830278">
		<tag k="alt_name" v="Storskjeran" />
		<tag k="name" v="Storskjeret" />
>>>>>>> e1d4bc35ff8a6074a6f2e91616a996b547c36f15
		<tag k="place" v="islet" />
		<tag k="ssr:stedsnr" v="138854" />
	</node>
<<<<<<< HEAD
	<node lat="68.15344444830589" lon="13.315061119340346" id="-10643">
		<tag k="alt_name" v="Raet" />
		<tag k="name" v="Raen" />
		<tag k="natural" v="beach" />
		<tag k="ssr:stedsnr" v="138977" />
	</node>
	<node lat="68.15796388972171" lon="13.312552781783598" id="-10644">
		<tag k="name" v="Mjåneset" />
		<tag k="natural" v="cape" />
		<tag k="ssr:stedsnr" v="138978" />
	</node>
	<node lat="68.13190000291367" lon="13.434794433785004" id="-10647">
		<tag k="name" v="Nappsvågen" />
		<tag k="natural" v="bay" />
		<tag k="ssr:stedsnr" v="142022" />
	</node>
	<node lat="68.22062778142144" lon="13.319602767511395" id="-10651">
		<tag k="name" v="Hellbåflua" />
=======
	<node id="-187724" lat="68.0105361151" lon="13.181197226">
		<tag k="bay" v="fjord" />
		<tag k="name" v="Islendingen" />
		<tag k="natural" v="bay" />
		<tag k="ssr:stedsnr" v="927038" />
	</node>
	<node id="-187720" lat="68.0639722252" lon="13.145511103">
		<tag k="name" v="Sauvika" />
		<tag k="natural" v="bay" />
		<tag k="ssr:stedsnr" v="927015" />
	</node>
	<node id="-187719" lat="68.0463805553" lon="13.0093388854">
		<tag k="name" v="Hjellbergsvika" />
		<tag k="natural" v="bay" />
		<tag k="ssr:stedsnr" v="927009" />
	</node>
	<node id="-187718" lat="68.0531277788" lon="13.1714333439">
		<tag k="name" v="Prestholmen" />
		<tag k="place" v="islet" />
		<tag k="ssr:stedsnr" v="927007" />
	</node>
	<node id="-187708" lat="68.0279416687" lon="13.2335444391">
		<tag k="name" v="Dalgrunnen" />
>>>>>>> e1d4bc35ff8a6074a6f2e91616a996b547c36f15
		<tag k="natural" v="shoal" />
		<tag k="place" v="locality" />
		<tag k="ssr:stedsnr" v="168451" />
	</node>
<<<<<<< HEAD
	<node lat="68.04062778106405" lon="13.114572217819624" id="-10652">
		<tag k="name" v="Øysundet" />
		<tag k="natural" v="strait" />
		<tag k="ssr:stedsnr" v="170416" />
	</node>
	<node lat="68.04008889041931" lon="13.239083331840247" id="-10653">
		<tag k="name" v="Lineset" />
=======
	<node id="-187706" lat="68.013283333" lon="13.2254722109">
		<tag k="alt_name" v="Arveneset" />
		<tag k="name" v="Arvedsneset" />
>>>>>>> e1d4bc35ff8a6074a6f2e91616a996b547c36f15
		<tag k="natural" v="cape" />
		<tag k="ssr:stedsnr" v="168988" />
	</node>
<<<<<<< HEAD
	<node lat="68.02976944288406" lon="13.057186107150986" id="-10654">
		<tag k="name" v="Kresnesbukta" />
		<tag k="natural" v="bay" />
		<tag k="ssr:stedsnr" v="169358" />
	</node>
	<node lat="68.05189444229329" lon="13.397380547660099" id="-10655">
		<tag k="name" v="Rørviksanden" />
		<tag k="natural" v="beach" />
		<tag k="ssr:stedsnr" v="169349" />
	</node>
	<node lat="68.09257499999154" lon="13.225436099653544" id="-10656">
		<tag k="name" v="Likholmen" />
		<tag k="natural" v="cape" />
		<tag k="ssr:stedsnr" v="169784" />
	</node>
	<node lat="68.06288611542678" lon="13.388808333201117" id="-10661">
		<tag k="name" v="Sommarfjøsvika" />
=======
	<node id="-187705" lat="68.0766138868" lon="13.4199750033">
		<tag k="fixme" v="consider seamark:type=rock or natural=shoal" />
		<tag k="name" v="Seglsteinen" />
		<tag k="place" v="islet" />
		<tag k="ssr:stedsnr" v="745771" />
	</node>
	<node id="-187704" lat="68.0642138929" lon="13.3995555623">
		<tag k="name" v="Nordsundet" />
		<tag k="natural" v="strait" />
		<tag k="ssr:stedsnr" v="745705" />
	</node>
	<node id="-187700" lat="68.0586805527" lon="12.9582944496">
		<tag k="name" v="Småskallan" />
		<tag k="natural" v="shoal" />
		<tag k="place" v="locality" />
		<tag k="ssr:stedsnr" v="745012" />
	</node>
	<node id="-187699" lat="68.0264499963" lon="13.3340361092">
		<tag k="name" v="Tennholmvika" />
>>>>>>> e1d4bc35ff8a6074a6f2e91616a996b547c36f15
		<tag k="natural" v="bay" />
		<tag k="ssr:stedsnr" v="170595" />
	</node>
<<<<<<< HEAD
	<node lat="68.06519444882932" lon="13.392277767308052" id="-10662">
		<tag k="name" v="Osen" />
		<tag k="natural" v="bay" />
		<tag k="ssr:stedsnr" v="170599" />
	</node>
	<node lat="68.06339722468546" lon="13.396869442952484" id="-10663">
		<tag k="fixme" v="consider seamark:type=rock or natural=shoal" />
		<tag k="name" v="Skjeret" />
		<tag k="place" v="islet" />
		<tag k="ssr:stedsnr" v="170600" />
	</node>
	<node lat="68.09374166972782" lon="13.225291677930224" id="-10672">
		<tag k="name" v="Sandneset" />
=======
	<node id="-187698" lat="68.0280111105" lon="13.3714472273">
		<tag k="name" v="Kunta" />
		<tag k="natural" v="strait" />
		<tag k="ssr:stedsnr" v="899929" />
	</node>
	<node id="-187696" lat="68.0750750025" lon="13.0890555458">
		<tag k="name" v="Hellan" />
>>>>>>> e1d4bc35ff8a6074a6f2e91616a996b547c36f15
		<tag k="natural" v="cape" />
		<tag k="ssr:stedsnr" v="171826" />
	</node>
<<<<<<< HEAD
	<node lat="68.1579222247412" lon="13.308308331361218" id="-10675">
		<tag k="fixme" v="multiple name tags, choose one and add the other to alt_name; consider seamark:type=rock or natural=shoal" />
		<tag k="name" v="Mjånessteinen;Skarvsteinen" />
=======
	<node id="-187695" lat="68.0062333319" lon="13.3011472215">
		<tag k="fixme" v="consider seamark:type=rock or natural=shoal" />
		<tag k="name" v="Litlskjeret" />
>>>>>>> e1d4bc35ff8a6074a6f2e91616a996b547c36f15
		<tag k="place" v="islet" />
		<tag k="ssr:stedsnr" v="199988" />
	</node>
<<<<<<< HEAD
	<node lat="68.06696111204315" lon="13.298830557369117" id="-10677">
		<tag k="alt_name" v="Flakstadøy" />
		<tag k="name" v="Flakstadøya" />
		<tag k="place" v="island" />
		<tag k="ssr:stedsnr" v="199044" />
	</node>
	<node lat="68.00564722082946" lon="13.061161109695295" id="-10679">
		<tag k="alt_name" v="Sæterneset" />
		<tag k="name" v="Seterneset" />
=======
	<node id="-187692" lat="68.060594441" lon="13.3939694404">
		<tag k="name" v="Mattiasvika" />
		<tag k="natural" v="bay" />
		<tag k="ssr:stedsnr" v="899599" />
	</node>
	<node id="-187686" lat="68.0990722208" lon="13.1566611099">
		<tag k="name" v="Vallneset" />
>>>>>>> e1d4bc35ff8a6074a6f2e91616a996b547c36f15
		<tag k="natural" v="cape" />
		<tag k="ssr:stedsnr" v="199081" />
	</node>
<<<<<<< HEAD
	<node lat="68.16432778118201" lon="13.015877767187703" id="-10680">
		<tag k="name" v="Haraldskallen" />
		<tag k="natural" v="shoal" />
		<tag k="place" v="locality" />
		<tag k="ssr:stedsnr" v="199227" />
	</node>
	<node lat="67.99579444802144" lon="13.188844441766081" id="-10681">
		<tag k="alt_name" v="Storsoløya, l;Litle Soløya" />
		<tag k="name" v="Litlsoløya" />
=======
	<node id="-187677" lat="68.0229638886" lon="13.1000777699">
		<tag k="name" v="Rolineset" />
		<tag k="natural" v="cape" />
		<tag k="ssr:stedsnr" v="898337" />
	</node>
	<node id="-187676" lat="68.1080583321" lon="13.2278361053">
		<tag k="name" v="Jusholmen" />
>>>>>>> e1d4bc35ff8a6074a6f2e91616a996b547c36f15
		<tag k="place" v="islet" />
		<tag k="ssr:stedsnr" v="199428" />
	</node>
<<<<<<< HEAD
	<node lat="68.03774166875631" lon="13.353538884457159" id="-10685">
		<tag k="name" v="Brattholmen" />
=======
	<node id="-187674" lat="68.0297611124" lon="13.237541665">
		<tag k="alt_name" v="Søre Hysskjeret" />
		<tag k="fixme" v="consider seamark:type=rock or natural=shoal" />
		<tag k="name" v="Hysskjeret" />
>>>>>>> e1d4bc35ff8a6074a6f2e91616a996b547c36f15
		<tag k="place" v="islet" />
		<tag k="ssr:stedsnr" v="199543" />
	</node>
<<<<<<< HEAD
	<node lat="68.07621388660571" lon="13.416038893277141" id="-10687">
		<tag k="name" v="Seglsteinneset" />
		<tag k="natural" v="cape" />
		<tag k="ssr:stedsnr" v="199744" />
	</node>
	<node lat="68.07727499991869" lon="13.184147216513345" id="-10697">
		<tag k="name" v="Kubbholmsundet" />
		<tag k="natural" v="strait" />
		<tag k="ssr:stedsnr" v="226020" />
	</node>
	<node lat="68.05471111291709" lon="13.23456388320648" id="-10698">
		<tag k="name" v="Storholmen" />
=======
	<node id="-187667" lat="68.0523222244" lon="13.1518083255">
		<tag k="name" v="Langnesgrunnen" />
		<tag k="natural" v="shoal" />
		<tag k="place" v="locality" />
		<tag k="ssr:stedsnr" v="716409" />
	</node>
	<node id="-187664" lat="68.0232083303" lon="13.3539611092">
		<tag k="fixme" v="consider seamark:type=rock or natural=shoal" />
		<tag k="name" v="Skarvsteinan" />
>>>>>>> e1d4bc35ff8a6074a6f2e91616a996b547c36f15
		<tag k="place" v="islet" />
		<tag k="ssr:stedsnr" v="280477" />
	</node>
<<<<<<< HEAD
	<node lat="68.07934722075113" lon="13.190636112010221" id="-10701">
		<tag k="name" v="Kubbholmen" />
		<tag k="place" v="islet" />
		<tag k="ssr:stedsnr" v="290744" />
	</node>
	<node lat="68.0159388929493" lon="13.174961120011094" id="-10707">
		<tag k="name" v="Hildrumdammen" />
=======
	<node id="-187661" lat="68.0795888921" lon="13.4309972169">
		<tag k="alt_name" v="Nappstraumen" />
		<tag k="bay" v="fjord" />
		<tag k="name" v="Nappsstraumen" />
		<tag k="natural" v="bay" />
		<tag k="ssr:stedsnr" v="684826" />
	</node>
	<node id="-187658" lat="68.0167944439" lon="13.3213333231">
		<tag k="name" v="Kvalkeila" />
>>>>>>> e1d4bc35ff8a6074a6f2e91616a996b547c36f15
		<tag k="natural" v="bay" />
		<tag k="ssr:stedsnr" v="292139" />
	</node>
<<<<<<< HEAD
	<node lat="68.01929166239685" lon="13.174308331792831" id="-10708">
		<tag k="name" v="Steinsvika" />
		<tag k="natural" v="bay" />
		<tag k="ssr:stedsnr" v="292146" />
	</node>
	<node lat="68.1409277741933" lon="13.31207500582222" id="-10710">
		<tag k="name" v="Elvøyra" />
=======
	<node id="-187655" lat="68.1090000038" lon="13.1869750084">
		<tag k="fixme" v="consider seamark:type=rock or natural=shoal" />
		<tag k="name" v="Storskjeret" />
		<tag k="place" v="islet" />
		<tag k="ssr:stedsnr" v="684225" />
	</node>
	<node id="-187654" lat="68.113536107" lon="13.1958944543">
		<tag k="name" v="Storfallet" />
>>>>>>> e1d4bc35ff8a6074a6f2e91616a996b547c36f15
		<tag k="natural" v="shoal" />
		<tag k="place" v="locality" />
		<tag k="ssr:stedsnr" v="292291" />
	</node>
<<<<<<< HEAD
	<node lat="68.1352305543692" lon="13.306472229148348" id="-10711">
		<tag k="name" v="Sandneset" />
		<tag k="natural" v="beach" />
		<tag k="ssr:stedsnr" v="292298" />
	</node>
	<node lat="68.03571111489518" lon="13.349194435270828" id="-10715">
		<tag k="name" v="Nordstøa" />
		<tag k="natural" v="bay" />
		<tag k="ssr:stedsnr" v="292465" />
	</node>
	<node lat="68.16077499578458" lon="13.07298055022004" id="-10724">
		<tag k="name" v="Snabbskallan" />
=======
	<node id="-187653" lat="68.150850004" lon="13.0786972178">
		<tag k="fixme" v="consider seamark:type=rock or natural=shoal" />
		<tag k="name" v="Øyskallen" />
		<tag k="place" v="islet" />
		<tag k="ssr:stedsnr" v="684220" />
	</node>
	<node id="-187652" lat="68.1499777797" lon="13.0520583326">
		<tag k="name" v="Sjurdskallan" />
>>>>>>> e1d4bc35ff8a6074a6f2e91616a996b547c36f15
		<tag k="natural" v="shoal" />
		<tag k="place" v="locality" />
		<tag k="ssr:stedsnr" v="320207" />
	</node>
<<<<<<< HEAD
	<node lat="68.16975278203718" lon="13.15788889900893" id="-10725">
		<tag k="name" v="Seibåen" />
=======
	<node id="-187651" lat="68.1548722203" lon="13.1632527805">
		<tag k="name" v="Brørne" />
>>>>>>> e1d4bc35ff8a6074a6f2e91616a996b547c36f15
		<tag k="natural" v="shoal" />
		<tag k="place" v="locality" />
		<tag k="ssr:stedsnr" v="320214" />
	</node>
<<<<<<< HEAD
	<node lat="68.12705555596608" lon="13.160213886509398" id="-10726">
		<tag k="name" v="Danielflua" />
=======
	<node id="-187650" lat="68.1419388924" lon="13.0383416633">
		<tag k="name" v="Flesskallan" />
>>>>>>> e1d4bc35ff8a6074a6f2e91616a996b547c36f15
		<tag k="natural" v="shoal" />
		<tag k="place" v="locality" />
		<tag k="ssr:stedsnr" v="320221" />
	</node>
<<<<<<< HEAD
	<node lat="68.14970000096228" lon="13.038791667695866" id="-10727">
		<tag k="name" v="Gryskallan" />
=======
	<node id="-187649" lat="68.1691388884" lon="13.2099527851">
		<tag k="name" v="Fjærleitgrunnen" />
>>>>>>> e1d4bc35ff8a6074a6f2e91616a996b547c36f15
		<tag k="natural" v="shoal" />
		<tag k="place" v="locality" />
		<tag k="ssr:stedsnr" v="320225" />
	</node>
<<<<<<< HEAD
	<node lat="68.14438889295872" lon="13.062308346036936" id="-10728">
		<tag k="name" v="Strandflesa" />
		<tag k="place" v="islet" />
		<tag k="ssr:stedsnr" v="320226" />
	</node>
	<node lat="68.11375833192425" lon="13.163130561144467" id="-10729">
=======
	<node id="-187642" lat="68.1155666657" lon="13.1189333398">
		<tag k="name" v="Breileia" />
		<tag k="place" v="locality" />
		<tag k="ssr:stedsnr" v="656287" />
	</node>
	<node id="-187640" lat="68.1692916707" lon="13.3212444466">
>>>>>>> e1d4bc35ff8a6074a6f2e91616a996b547c36f15
		<tag k="fixme" v="consider seamark:type=rock or natural=shoal" />
		<tag k="name" v="Henrikskjeran" />
		<tag k="place" v="islet" />
		<tag k="ssr:stedsnr" v="320235" />
	</node>
<<<<<<< HEAD
	<node lat="68.0820666664713" lon="13.22776388690692" id="-10735">
		<tag k="name" v="Skjelholmen" />
		<tag k="place" v="islet" />
		<tag k="ssr:stedsnr" v="320614" />
	</node>
	<node lat="68.07602500442948" lon="13.233327773256688" id="-10739">
		<tag k="name" v="Spengerleira" />
		<tag k="natural" v="bay" />
		<tag k="ssr:stedsnr" v="320720" />
	</node>
	<node lat="68.07680555237748" lon="13.327180562073254" id="-10740">
		<tag k="alt_name" v="Båtnesoddan" />
		<tag k="name" v="Båtnesodden" />
=======
	<node id="-187638" lat="68.0117277766" lon="13.1930555443">
		<tag k="name" v="Buøya" />
		<tag k="natural" v="cape" />
		<tag k="ssr:stedsnr" v="655904" />
	</node>
	<node id="-187633" lat="67.9998027764" lon="13.2610027798">
		<tag k="name" v="Veineskaftodden" />
		<tag k="natural" v="cape" />
		<tag k="ssr:stedsnr" v="717994" />
	</node>
	<node id="-187631" lat="68.0340777822" lon="13.3506222122">
		<tag k="name" v="Snøsen" />
>>>>>>> e1d4bc35ff8a6074a6f2e91616a996b547c36f15
		<tag k="natural" v="cape" />
		<tag k="ssr:stedsnr" v="320726" />
	</node>
<<<<<<< HEAD
	<node lat="68.0778166678714" lon="13.31957778573969" id="-10741">
		<tag k="name" v="Saltholmen" />
		<tag k="natural" v="cape" />
		<tag k="ssr:stedsnr" v="320728" />
	</node>
	<node lat="68.10614721805246" lon="13.24936388400421" id="-10743">
=======
	<node id="-187630" lat="68.0048944412" lon="13.259936105">
		<tag k="fixme" v="consider seamark:type=rock or natural=shoal" />
		<tag k="name" v="Geitskjeret" />
		<tag k="place" v="islet" />
		<tag k="ssr:stedsnr" v="717904" />
	</node>
	<node id="-187628" lat="68.0975555572" lon="13.1383194482">
>>>>>>> e1d4bc35ff8a6074a6f2e91616a996b547c36f15
		<tag k="fixme" v="consider seamark:type=rock or natural=shoal" />
		<tag k="name" v="Trollskjeran" />
		<tag k="place" v="islet" />
		<tag k="ssr:stedsnr" v="320857" />
	</node>
<<<<<<< HEAD
	<node lat="68.06125833219518" lon="13.16616667673893" id="-10761">
		<tag k="name" v="Skjåvikstolen" />
		<tag k="natural" v="cape" />
		<tag k="ssr:stedsnr" v="352626" />
	</node>
	<node lat="68.0783527750403" lon="13.096594437995691" id="-10763">
		<tag k="name" v="Nordvika" />
		<tag k="natural" v="bay" />
		<tag k="ssr:stedsnr" v="352645" />
	</node>
	<node lat="67.99927778070006" lon="13.222100010426049" id="-10766">
		<tag k="fixme" v="consider seamark:type=rock or natural=shoal" />
		<tag k="name" v="Kunnskjeret" />
=======
	<node id="-187623" lat="68.1469638917" lon="13.3103416762">
		<tag k="fixme" v="consider seamark:type=rock or natural=shoal" />
		<tag k="name" v="Storskarvsteinen" />
		<tag k="place" v="islet" />
		<tag k="ssr:stedsnr" v="717454" />
	</node>
	<node id="-187621" lat="68.120522223" lon="13.1294638783">
		<tag k="name" v="Svartoksleia" />
		<tag k="place" v="locality" />
		<tag k="ssr:stedsnr" v="717289" />
	</node>
	<node id="-187619" lat="68.1052277765" lon="13.1729999961">
		<tag k="fixme" v="consider seamark:type=rock or natural=shoal" />
		<tag k="name" v="Lamholmskjeran" />
		<tag k="place" v="islet" />
		<tag k="ssr:stedsnr" v="717195" />
	</node>
	<node id="-187618" lat="68.1128083345" lon="13.0840305678">
		<tag k="name" v="Nøsset" />
		<tag k="natural" v="cape" />
		<tag k="ssr:stedsnr" v="717187" />
	</node>
	<node id="-187614" lat="67.9930805577" lon="13.2360611093">
		<tag k="name" v="Munken" />
>>>>>>> e1d4bc35ff8a6074a6f2e91616a996b547c36f15
		<tag k="place" v="islet" />
		<tag k="ssr:stedsnr" v="352999" />
	</node>
<<<<<<< HEAD
	<node lat="68.10091944533201" lon="13.189724989888715" id="-10770">
		<tag k="name" v="Korshavnøya" />
		<tag k="natural" v="cape" />
		<tag k="ssr:stedsnr" v="353223" />
	</node>
	<node lat="68.10413888696247" lon="13.2431416641219" id="-10771">
		<tag k="name" v="Trollskjerbukta" />
		<tag k="natural" v="bay" />
		<tag k="ssr:stedsnr" v="353237" />
	</node>
	<node lat="68.11050278004981" lon="13.308449994410031" id="-10772">
=======
	<node id="-187611" lat="68.0755361079" lon="13.1576638862">
		<tag k="name" v="Tjeldsneset" />
		<tag k="natural" v="cape" />
		<tag k="ssr:stedsnr" v="716705" />
	</node>
	<node id="-187604" lat="68.0288249995" lon="13.349850002">
		<tag k="name" v="Rekkartsanden" />
		<tag k="natural" v="beach" />
		<tag k="place" v="locality" />
		<tag k="ssr:stedsnr" v="595922" />
	</node>
	<node id="-187600" lat="68.0956138893" lon="13.2415472288">
		<tag k="name" v="Sanden" />
		<tag k="natural" v="beach" />
		<tag k="place" v="locality" />
		<tag k="ssr:stedsnr" v="595811" />
	</node>
	<node id="-187597" lat="68.070294441" lon="12.9314000055">
>>>>>>> e1d4bc35ff8a6074a6f2e91616a996b547c36f15
		<tag k="fixme" v="consider seamark:type=rock or natural=shoal" />
		<tag k="name" v="Stabben" />
		<tag k="place" v="islet" />
		<tag k="ssr:stedsnr" v="353268" />
	</node>
<<<<<<< HEAD
	<node lat="68.04397777781352" lon="13.120499995633871" id="-10784">
		<tag k="name" v="Øysundnakken" />
=======
	<node id="-187594" lat="68.0381222177" lon="13.2604694493">
		<tag k="name" v="Steinsjorda" />
>>>>>>> e1d4bc35ff8a6074a6f2e91616a996b547c36f15
		<tag k="natural" v="cape" />
		<tag k="ssr:stedsnr" v="381036" />
	</node>
<<<<<<< HEAD
	<node lat="67.99945555797828" lon="13.204933322618391" id="-10787">
		<tag k="alt_name" v="Litle Grimsholmen" />
		<tag k="fixme" v="multiple name tags, choose one and add the other to alt_name" />
		<tag k="name" v="Grimsholmen;Litl-Grimsholmen" />
		<tag k="place" v="islet" />
		<tag k="ssr:stedsnr" v="381444" />
	</node>
	<node lat="68.13515277773476" lon="13.297574995656433" id="-10792">
		<tag k="alt_name" v="Sandnesbøen" />
		<tag k="name" v="Sandnesbåen" />
=======
	<node id="-187593" lat="68.0449500013" lon="13.3540111054">
		<tag k="name" v="Kjerkstøa" />
		<tag k="natural" v="cape" />
		<tag k="ssr:stedsnr" v="535512" />
	</node>
	<node id="-187584" lat="68.1624611141" lon="13.2532805504">
		<tag k="name" v="Melsgrunnen" />
>>>>>>> e1d4bc35ff8a6074a6f2e91616a996b547c36f15
		<tag k="natural" v="shoal" />
		<tag k="place" v="locality" />
		<tag k="ssr:stedsnr" v="381827" />
	</node>
<<<<<<< HEAD
	<node lat="68.09795000428501" lon="13.236711112256804" id="-10794">
		<tag k="fixme" v="multiple name tags, choose one and add the other to alt_name" />
		<tag k="name" v="Sandbukta;Jusnesvika" />
		<tag k="natural" v="bay" />
		<tag k="ssr:stedsnr" v="381845" />
	</node>
	<node lat="68.19298611347551" lon="13.317127789419498" id="-10795">
		<tag k="alt_name" v="Myrlandsflesene" />
		<tag k="name" v="Myrlandsflesan" />
=======
	<node id="-187574" lat="68.0585055585" lon="13.4026555628">
		<tag k="alt_name" v="Teistholman" />
		<tag k="name" v="Teistholmen" />
		<tag k="place" v="islet" />
		<tag k="ssr:stedsnr" v="684687" />
	</node>
	<node id="-187571" lat="68.2059527797" lon="13.3580027849">
		<tag k="name" v="Glasbåen" />
>>>>>>> e1d4bc35ff8a6074a6f2e91616a996b547c36f15
		<tag k="natural" v="shoal" />
		<tag k="place" v="locality" />
		<tag k="ssr:stedsnr" v="381924" />
	</node>
<<<<<<< HEAD
	<node lat="68.00088333437134" lon="13.260586116137631" id="-10803">
		<tag k="name" v="Vester Neslandsodden" />
		<tag k="natural" v="cape" />
		<tag k="ssr:stedsnr" v="411570" />
	</node>
	<node lat="68.03041388498032" lon="13.360816668207177" id="-10805">
		<tag k="fixme" v="multiple name tags, choose one and add the other to alt_name" />
		<tag k="name" v="Nusbåen;Skata" />
		<tag k="place" v="locality" />
		<tag k="seamark:type" v="rock" />
		<tag k="ssr:stedsnr" v="411972" />
	</node>
	<node lat="68.09977500277223" lon="13.416788888243678" id="-10812">
		<tag k="name" v="Moneset" />
=======
	<node id="-187570" lat="68.0023916676" lon="13.176727777">
		<tag k="name" v="Soløyvika" />
		<tag k="natural" v="bay" />
		<tag k="ssr:stedsnr" v="684051" />
	</node>
	<node id="-187567" lat="68.111330553" lon="13.2996333325">
		<tag k="alt_name" v="Skagen" />
		<tag k="name" v="Nerskagen" />
>>>>>>> e1d4bc35ff8a6074a6f2e91616a996b547c36f15
		<tag k="natural" v="cape" />
		<tag k="ssr:stedsnr" v="413156" />
	</node>
<<<<<<< HEAD
	<node lat="68.01591388980982" lon="13.190466659100984" id="-10813">
		<tag k="name" v="Skjettenbærøya" />
		<tag k="place" v="island" />
		<tag k="ssr:stedsnr" v="413177" />
	</node>
	<node lat="68.00587778133595" lon="13.167949999788522" id="-10825">
		<tag k="name" v="Mølnvågen" />
		<tag k="natural" v="bay" />
		<tag k="ssr:stedsnr" v="413926" />
	</node>
	<node lat="68.08994721820697" lon="13.215738882772381" id="-10827">
		<tag k="fixme" v="consider seamark:type=rock or natural=shoal" />
		<tag k="name" v="Tjeldskjeret" />
		<tag k="place" v="islet" />
		<tag k="ssr:stedsnr" v="414845" />
	</node>
	<node lat="68.06904722231997" lon="13.005283339643606" id="-10831">
		<tag k="name" v="Leirbukskallen" />
		<tag k="natural" v="shoal" />
		<tag k="place" v="locality" />
		<tag k="ssr:stedsnr" v="441227" />
	</node>
	<node lat="68.00591111362365" lon="13.299497228576879" id="-10832">
		<tag k="alt_name" v="Auster Neslandskjeret" />
=======
	<node id="-187566" lat="68.1372555542" lon="13.4558472159">
		<tag k="name" v="Senholmen" />
		<tag k="place" v="islet" />
		<tag k="ssr:stedsnr" v="502802" />
	</node>
	<node id="-187563" lat="68.2178777799" lon="13.3433361002">
		<tag k="name" v="Hellbåen" />
		<tag k="natural" v="shoal" />
		<tag k="place" v="locality" />
		<tag k="ssr:stedsnr" v="502075" />
	</node>
	<node id="-187561" lat="67.9813805515" lon="13.2214750067">
		<tag k="name" v="Marbakken" />
		<tag k="place" v="locality" />
		<tag k="ssr:stedsnr" v="472520" />
	</node>
	<node id="-187557" lat="68.1216555521" lon="13.442213881">
		<tag k="name" v="Hårbergsodden" />
		<tag k="natural" v="cape" />
		<tag k="ssr:stedsnr" v="446008" />
	</node>
	<node id="-187555" lat="68.0960361112" lon="13.2178972228">
>>>>>>> e1d4bc35ff8a6074a6f2e91616a996b547c36f15
		<tag k="fixme" v="consider seamark:type=rock or natural=shoal" />
		<tag k="name" v="Langskjeret" />
		<tag k="place" v="islet" />
<<<<<<< HEAD
		<tag k="ssr:stedsnr" v="441502" />
	</node>
	<node lat="68.00425277892941" lon="13.29630555760174" id="-10833">
		<tag k="alt_name" v="Vester Neslandskjeran" />
		<tag k="fixme" v="consider seamark:type=rock or natural=shoal" />
		<tag k="name" v="Storskjeret" />
		<tag k="place" v="islet" />
		<tag k="ssr:stedsnr" v="441505" />
	</node>
	<node lat="68.01021110955173" lon="13.314022232246183" id="-10834">
		<tag k="fixme" v="multiple name tags, choose one and add the other to alt_name; consider seamark:type=rock or natural=shoal" />
		<tag k="name" v="Sloka;Slåkskjeret" />
=======
		<tag k="ssr:stedsnr" v="656843" />
	</node>
	<node id="-187554" lat="68.0932916678" lon="13.2196500112">
		<tag k="name" v="Amholmen" />
		<tag k="natural" v="cape" />
		<tag k="ssr:stedsnr" v="656841" />
	</node>
	<node id="-187543" lat="68.0911416622" lon="13.2235166741">
		<tag k="name" v="Leira" />
		<tag k="natural" v="bay" />
		<tag k="ssr:stedsnr" v="655769" />
	</node>
	<node id="-187542" lat="68.0778777736" lon="13.1979861164">
		<tag k="name" v="Litl-Buøya" />
>>>>>>> e1d4bc35ff8a6074a6f2e91616a996b547c36f15
		<tag k="place" v="islet" />
		<tag k="ssr:stedsnr" v="441509" />
	</node>
<<<<<<< HEAD
	<node lat="68.02299166513997" lon="13.163530564140505" id="-10836">
		<tag k="name" v="Andopen" />
=======
	<node id="-187539" lat="68.1307583314" lon="13.4215722334">
		<tag k="name" v="Osen" />
>>>>>>> e1d4bc35ff8a6074a6f2e91616a996b547c36f15
		<tag k="natural" v="bay" />
		<tag k="ssr:stedsnr" v="442059" />
	</node>
<<<<<<< HEAD
	<node lat="68.16557222269128" lon="13.069461107126418" id="-10838">
		<tag k="name" v="Perskallen" />
		<tag k="natural" v="shoal" />
=======
	<node id="-187538" lat="68.164474996" lon="13.3188805542">
		<tag k="name" v="Hornesøyra" />
		<tag k="natural" v="beach" />
>>>>>>> e1d4bc35ff8a6074a6f2e91616a996b547c36f15
		<tag k="place" v="locality" />
		<tag k="ssr:stedsnr" v="442251" />
	</node>
<<<<<<< HEAD
	<node lat="68.18219999676121" lon="13.428749988589436" id="-10845">
		<tag k="name" v="Flesskallen" />
		<tag k="natural" v="shoal" />
=======
	<node id="-187537" lat="68.1688333332" lon="13.333669446">
		<tag k="alt_name" v="Stigen" />
		<tag k="name" v="Stien" />
>>>>>>> e1d4bc35ff8a6074a6f2e91616a996b547c36f15
		<tag k="place" v="locality" />
		<tag k="ssr:stedsnr" v="442913" />
	</node>
	<node lat="68.00137499946376" lon="13.231211114303445" id="-10850">
		<tag k="name" v="Kunna" />
		<tag k="place" v="island" />
		<tag k="ssr:stedsnr" v="502500" />
	</node>
<<<<<<< HEAD
	<node lat="68.19364166373862" lon="13.412927775279899" id="-10855">
=======
	<node id="-187533" lat="68.1936416637" lon="13.4129277753">
>>>>>>> e1d4bc35ff8a6074a6f2e91616a996b547c36f15
		<tag k="bay" v="fjord" />
		<tag k="name" v="Flaget" />
		<tag k="natural" v="bay" />
		<tag k="ssr:stedsnr" v="502917" />
	</node>
<<<<<<< HEAD
	<node lat="68.11133055301302" lon="13.29963333245309" id="-10859">
		<tag k="alt_name" v="Skagen" />
		<tag k="name" v="Nerskagen" />
		<tag k="natural" v="cape" />
		<tag k="ssr:stedsnr" v="502858" />
	</node>
	<node lat="67.9894277740168" lon="13.23147777321272" id="-10865">
		<tag k="fixme" v="consider seamark:type=rock or natural=shoal" />
		<tag k="name" v="Truvalen" />
		<tag k="place" v="islet" />
		<tag k="ssr:stedsnr" v="532528" />
	</node>
	<node lat="68.00620277367592" lon="13.17503056310403" id="-10867">
		<tag k="name" v="Mølnvågodden" />
=======
	<node id="-187522" lat="68.0013749995" lon="13.2312111143">
		<tag k="name" v="Kunna" />
		<tag k="place" v="island" />
		<tag k="ssr:stedsnr" v="502500" />
	</node>
	<node id="-187517" lat="68.118061108" lon="13.1221194454">
		<tag k="name" v="Moholman" />
		<tag k="place" v="islet" />
		<tag k="ssr:stedsnr" v="502208" />
	</node>
	<node id="-187516" lat="68.1729694486" lon="13.1213111026">
		<tag k="name" v="Øyskallen" />
		<tag k="natural" v="shoal" />
		<tag k="place" v="locality" />
		<tag k="ssr:stedsnr" v="502188" />
	</node>
	<node id="-187514" lat="68.0306500025" lon="13.067833332">
		<tag k="name" v="Stormarkpollen" />
		<tag k="natural" v="bay" />
		<tag k="ssr:stedsnr" v="502026" />
	</node>
	<node id="-187507" lat="68.0022944478" lon="13.2861888827">
		<tag k="name" v="Langnesodden" />
>>>>>>> e1d4bc35ff8a6074a6f2e91616a996b547c36f15
		<tag k="natural" v="cape" />
		<tag k="ssr:stedsnr" v="534910" />
	</node>
<<<<<<< HEAD
	<node lat="68.1130000025319" lon="13.173250000200557" id="-10877">
		<tag k="fixme" v="consider seamark:type=rock or natural=shoal" />
		<tag k="name" v="Sildskjeret" />
		<tag k="place" v="islet" />
		<tag k="ssr:stedsnr" v="535191" />
	</node>
	<node lat="68.11329722412275" lon="13.11872777914103" id="-10879">
		<tag k="name" v="Gjerdsundet" />
		<tag k="natural" v="strait" />
		<tag k="ssr:stedsnr" v="535289" />
	</node>
	<node lat="68.15893888767016" lon="13.31498611267344" id="-10882">
		<tag k="name" v="Mjånesbukta" />
		<tag k="natural" v="bay" />
		<tag k="ssr:stedsnr" v="535463" />
	</node>
	<node lat="68.01854999707247" lon="13.084905549258162" id="-10889">
		<tag k="name" v="Laukvika" />
=======
	<node id="-187506" lat="68.0993166696" lon="13.1672750012">
		<tag k="name" v="Kolbeinsanden" />
		<tag k="natural" v="beach" />
		<tag k="place" v="locality" />
		<tag k="ssr:stedsnr" v="474850" />
	</node>
	<node id="-187505" lat="68.0833027767" lon="13.1894638885">
		<tag k="name" v="Avløysinga" />
		<tag k="natural" v="cape" />
		<tag k="ssr:stedsnr" v="474847" />
	</node>
	<node id="-187504" lat="68.0813944424" lon="13.166358342">
		<tag k="name" v="Skjåneset" />
		<tag k="natural" v="cape" />
		<tag k="ssr:stedsnr" v="474831" />
	</node>
	<node id="-187502" lat="68.1565361089" lon="13.3140138928">
		<tag k="name" v="Heimerbukta" />
>>>>>>> e1d4bc35ff8a6074a6f2e91616a996b547c36f15
		<tag k="natural" v="bay" />
		<tag k="ssr:stedsnr" v="562035" />
	</node>
<<<<<<< HEAD
	<node lat="68.13989444079192" lon="13.057608336241897" id="-10892">
		<tag k="name" v="Djupnsteinskallen" />
		<tag k="natural" v="shoal" />
		<tag k="place" v="locality" />
		<tag k="ssr:stedsnr" v="562187" />
	</node>
	<node lat="68.11085555281068" lon="13.072108336797099" id="-10893">
		<tag k="name" v="Bergsneset" />
=======
	<node id="-187501" lat="68.1467472265" lon="13.3137111184">
		<tag k="name" v="Øyra" />
>>>>>>> e1d4bc35ff8a6074a6f2e91616a996b547c36f15
		<tag k="natural" v="cape" />
		<tag k="ssr:stedsnr" v="562193" />
	</node>
<<<<<<< HEAD
	<node lat="68.10807222474114" lon="13.104841658013305" id="-10894">
		<tag k="name" v="Stokkvika" />
=======
	<node id="-187491" lat="68.0676416654" lon="13.4025111071">
		<tag k="name" v="Sandvika" />
>>>>>>> e1d4bc35ff8a6074a6f2e91616a996b547c36f15
		<tag k="natural" v="bay" />
		<tag k="ssr:stedsnr" v="562194" />
	</node>
<<<<<<< HEAD
	<node lat="68.11995833681468" lon="13.114322213375683" id="-10895">
		<tag k="alt_name" v="Fiskfatskjeran" />
		<tag k="name" v="Feskfatskjeran" />
		<tag k="place" v="islet" />
		<tag k="ssr:stedsnr" v="562196" />
	</node>
	<node lat="68.10565277667884" lon="13.15594444671839" id="-10896">
		<tag k="name" v="Sandøya" />
		<tag k="place" v="island" />
		<tag k="ssr:stedsnr" v="562198" />
	</node>
	<node lat="68.0966611064189" lon="13.14886945518743" id="-10897">
		<tag k="name" v="Sandbotnen" />
=======
	<node id="-187481" lat="68.0118722255" lon="13.2526277726">
		<tag k="alt_name" v="Sæterbåen" />
		<tag k="name" v="Sæterbøen" />
		<tag k="place" v="locality" />
		<tag k="seamark:type" v="rock" />
		<tag k="ssr:stedsnr" v="472563" />
	</node>
	<node id="-187468" lat="68.0783638864" lon="13.0783361052">
		<tag k="name" v="Kvalvika" />
>>>>>>> e1d4bc35ff8a6074a6f2e91616a996b547c36f15
		<tag k="natural" v="bay" />
		<tag k="ssr:stedsnr" v="562200" />
	</node>
<<<<<<< HEAD
	<node lat="68.07029444104789" lon="12.93140000546864" id="-10899">
		<tag k="fixme" v="consider seamark:type=rock or natural=shoal" />
		<tag k="name" v="Kalsgrunnen" />
		<tag k="place" v="islet" />
		<tag k="ssr:stedsnr" v="562215" />
	</node>
	<node lat="68.02967499636573" lon="13.386613892297385" id="-10901">
		<tag k="fixme" v="multiple name tags, choose one and add the other to alt_name; consider seamark:type=rock or natural=shoal" />
		<tag k="name" v="Låglandsskjeran;Ålandsskjeran" />
		<tag k="place" v="islet" />
		<tag k="ssr:stedsnr" v="562551" />
	</node>
	<node lat="68.13239166670608" lon="13.440344456163327" id="-10905">
		<tag k="name" v="Øya" />
=======
	<node id="-187466" lat="68.087650002" lon="13.1890250053">
		<tag k="name" v="Røssøystraumen" />
		<tag k="natural" v="strait" />
		<tag k="ssr:stedsnr" v="259215" />
	</node>
	<node id="-187465" lat="68.2078361072" lon="13.2343583346">
		<tag k="alt_name" v="Fallet" />
		<tag k="name" v="Myrlandsfallet" />
		<tag k="natural" v="shoal" />
		<tag k="place" v="locality" />
		<tag k="ssr:stedsnr" v="259080" />
	</node>
	<node id="-187464" lat="68.1697527751" lon="13.3214749959">
		<tag k="name" v="Hornneset" />
>>>>>>> e1d4bc35ff8a6074a6f2e91616a996b547c36f15
		<tag k="natural" v="cape" />
		<tag k="ssr:stedsnr" v="562755" />
	</node>
<<<<<<< HEAD
	<node lat="68.16076944731671" lon="13.042524997050705" id="-10910">
		<tag k="name" v="Martnesbakken" />
		<tag k="natural" v="shoal" />
=======
	<node id="-187459" lat="68.1046416666" lon="13.2782583352">
		<tag k="name" v="Brunstranda" />
		<tag k="natural" v="beach" />
>>>>>>> e1d4bc35ff8a6074a6f2e91616a996b547c36f15
		<tag k="place" v="locality" />
		<tag k="ssr:stedsnr" v="563216" />
	</node>
<<<<<<< HEAD
	<node lat="68.1287666645912" lon="13.294041659184204" id="-10913">
		<tag k="name" v="Hestnesbåen" />
=======
	<node id="-187454" lat="68.1821999968" lon="13.4287499886">
		<tag k="name" v="Flesskallen" />
>>>>>>> e1d4bc35ff8a6074a6f2e91616a996b547c36f15
		<tag k="natural" v="shoal" />
		<tag k="place" v="locality" />
		<tag k="ssr:stedsnr" v="563799" />
	</node>
<<<<<<< HEAD
	<node lat="68.16493056021447" lon="13.30759999313451" id="-10916">
		<tag k="name" v="Melsskallen" />
=======
	<node id="-187453" lat="68.1753472238" lon="13.3368999964">
		<tag k="alt_name" v="Gauktindflua" />
		<tag k="name" v="Gauktindfallan" />
>>>>>>> e1d4bc35ff8a6074a6f2e91616a996b547c36f15
		<tag k="natural" v="shoal" />
		<tag k="place" v="locality" />
		<tag k="ssr:stedsnr" v="563993" />
	</node>
<<<<<<< HEAD
	<node lat="68.10518333611854" lon="13.232991655416297" id="-10922">
		<tag k="name" v="Jusholmsundet" />
		<tag k="natural" v="strait" />
		<tag k="ssr:stedsnr" v="594585" />
	</node>
	<node lat="68.10095555996881" lon="13.17850554982633" id="-10935">
		<tag k="fixme" v="multiple name tags, choose one and add the other to alt_name" />
		<tag k="name" v="Lamholmen;Steinøya" />
		<tag k="place" v="islet" />
		<tag k="ssr:stedsnr" v="623235" />
	</node>
	<node lat="68.05610278171913" lon="13.129863900398844" id="-10936">
		<tag k="bay" v="fjord" />
		<tag k="name" v="Torsfjorden" />
=======
	<node id="-187452" lat="68.1011250024" lon="13.4159083295">
		<tag k="name" v="Andopsvika" />
>>>>>>> e1d4bc35ff8a6074a6f2e91616a996b547c36f15
		<tag k="natural" v="bay" />
		<tag k="ssr:stedsnr" v="623016" />
	</node>
<<<<<<< HEAD
	<node lat="68.05226110662251" lon="13.396880562007807" id="-10941">
		<tag k="name" v="Rørvika" />
		<tag k="natural" v="bay" />
		<tag k="ssr:stedsnr" v="623736" />
	</node>
	<node lat="68.07655000232769" lon="13.33005277740509" id="-10945">
		<tag k="name" v="Djupvika" />
		<tag k="natural" v="bay" />
		<tag k="ssr:stedsnr" v="623750" />
	</node>
	<node lat="68.17002777737025" lon="13.365855556205643" id="-10947">
		<tag k="name" v="Litlflua" />
=======
	<node id="-187445" lat="67.9872250035" lon="13.1942361064">
		<tag k="alt_name" v="Sundbåen" />
		<tag k="name" v="Sundbøen" />
		<tag k="natural" v="shoal" />
		<tag k="place" v="locality" />
		<tag k="ssr:stedsnr" v="442440" />
	</node>
	<node id="-187444" lat="68.1655722227" lon="13.0694611071">
		<tag k="name" v="Perskallen" />
>>>>>>> e1d4bc35ff8a6074a6f2e91616a996b547c36f15
		<tag k="natural" v="shoal" />
		<tag k="place" v="locality" />
		<tag k="ssr:stedsnr" v="623994" />
	</node>
<<<<<<< HEAD
	<node lat="68.03996110917974" lon="13.259513878247166" id="-10950">
		<tag k="name" v="Holmen" />
		<tag k="place" v="islet" />
		<tag k="ssr:stedsnr" v="624537" />
	</node>
	<node lat="68.08158889273415" lon="13.333488877792417" id="-10951">
		<tag k="name" v="Kilanleira" />
=======
	<node id="-187442" lat="68.0229916651" lon="13.1635305641">
		<tag k="name" v="Andopen" />
>>>>>>> e1d4bc35ff8a6074a6f2e91616a996b547c36f15
		<tag k="natural" v="bay" />
		<tag k="ssr:stedsnr" v="624634" />
	</node>
<<<<<<< HEAD
	<node lat="68.03163889146873" lon="13.17871389459674" id="-10955">
		<tag k="name" v="Purka" />
		<tag k="natural" v="cape" />
		<tag k="ssr:stedsnr" v="655166" />
	</node>
	<node lat="68.03462500175675" lon="13.05245833440882" id="-10956">
		<tag k="name" v="Vika" />
		<tag k="natural" v="bay" />
		<tag k="ssr:stedsnr" v="655358" />
	</node>
	<node lat="68.0778777736171" lon="13.197986116356516" id="-10962">
		<tag k="name" v="Litl-Buøya" />
=======
	<node id="-187437" lat="68.0102111096" lon="13.3140222322">
		<tag k="fixme" v="multiple name tags, choose one and add the other to alt_name; consider seamark:type=rock or natural=shoal" />
		<tag k="name" v="Sloka;Slåkskjeret" />
		<tag k="place" v="islet" />
		<tag k="ssr:stedsnr" v="441509" />
	</node>
	<node id="-187436" lat="68.0042527789" lon="13.2963055576">
		<tag k="alt_name" v="Vester Neslandskjeran" />
		<tag k="fixme" v="consider seamark:type=rock or natural=shoal" />
		<tag k="name" v="Storskjeret" />
>>>>>>> e1d4bc35ff8a6074a6f2e91616a996b547c36f15
		<tag k="place" v="islet" />
		<tag k="ssr:stedsnr" v="655677" />
	</node>
<<<<<<< HEAD
	<node lat="68.09114166217022" lon="13.223516674122173" id="-10963">
		<tag k="name" v="Leira" />
		<tag k="natural" v="bay" />
		<tag k="ssr:stedsnr" v="655769" />
	</node>
	<node lat="68.16929167065624" lon="13.321244446589196" id="-10964">
=======
	<node id="-187435" lat="68.0059111136" lon="13.2994972286">
		<tag k="alt_name" v="Auster Neslandskjeret" />
>>>>>>> e1d4bc35ff8a6074a6f2e91616a996b547c36f15
		<tag k="fixme" v="consider seamark:type=rock or natural=shoal" />
		<tag k="name" v="Purka" />
		<tag k="place" v="islet" />
		<tag k="ssr:stedsnr" v="656065" />
	</node>
<<<<<<< HEAD
	<node lat="68.05232222438538" lon="13.151808325494335" id="-10978">
		<tag k="name" v="Langnesgrunnen" />
=======
	<node id="-187434" lat="68.0690472223" lon="13.0052833396">
		<tag k="name" v="Leirbukskallen" />
>>>>>>> e1d4bc35ff8a6074a6f2e91616a996b547c36f15
		<tag k="natural" v="shoal" />
		<tag k="place" v="locality" />
		<tag k="ssr:stedsnr" v="716409" />
	</node>
<<<<<<< HEAD
	<node lat="68.12052222295375" lon="13.129463878263833" id="-10981">
		<tag k="name" v="Svartoksleia" />
		<tag k="natural" v="bay" />
		<tag k="ssr:stedsnr" v="717289" />
	</node>
	<node lat="68.14696389166926" lon="13.3103416762254" id="-10985">
		<tag k="fixme" v="consider seamark:type=rock or natural=shoal" />
		<tag k="name" v="Storskarvsteinen" />
=======
	<node id="-187433" lat="68.1187250021" lon="13.0411305633">
		<tag k="name" v="Øyskallen" />
		<tag k="natural" v="shoal" />
		<tag k="place" v="locality" />
		<tag k="ssr:stedsnr" v="441210" />
	</node>
	<node id="-187432" lat="68.0759249964" lon="13.1977249948">
		<tag k="alt_name" v="Buøya" />
		<tag k="name" v="Stor-Buøya" />
>>>>>>> e1d4bc35ff8a6074a6f2e91616a996b547c36f15
		<tag k="place" v="islet" />
		<tag k="ssr:stedsnr" v="717454" />
	</node>
<<<<<<< HEAD
	<node lat="68.03407778221157" lon="13.350622212183575" id="-10990">
		<tag k="name" v="Snøsen" />
=======
	<node id="-187429" lat="68.0762138866" lon="13.4160388933">
		<tag k="name" v="Seglsteinneset" />
>>>>>>> e1d4bc35ff8a6074a6f2e91616a996b547c36f15
		<tag k="natural" v="cape" />
		<tag k="ssr:stedsnr" v="717934" />
	</node>
<<<<<<< HEAD
	<node lat="68.09755555724325" lon="13.138319448182438" id="-10992">
		<tag k="fixme" v="consider seamark:type=rock or natural=shoal" />
		<tag k="name" v="Låtran" />
=======
	<node id="-187426" lat="68.0248055586" lon="13.3414249926">
		<tag k="alt_name" v="Tennholmen" />
		<tag k="name" v="Ternholmen" />
>>>>>>> e1d4bc35ff8a6074a6f2e91616a996b547c36f15
		<tag k="place" v="islet" />
		<tag k="ssr:stedsnr" v="717857" />
	</node>
<<<<<<< HEAD
	<node lat="68.1080583321268" lon="13.227836105325595" id="-10995">
		<tag k="name" v="Jusholmen" />
		<tag k="place" v="islet" />
		<tag k="ssr:stedsnr" v="724762" />
	</node>
	<node lat="68.15213888851213" lon="13.139308335181868" id="-10996">
		<tag k="name" v="Vadskiten" />
=======
	<node id="-187423" lat="68.1643277812" lon="13.0158777672">
		<tag k="name" v="Haraldskallen" />
>>>>>>> e1d4bc35ff8a6074a6f2e91616a996b547c36f15
		<tag k="natural" v="shoal" />
		<tag k="place" v="locality" />
		<tag k="ssr:stedsnr" v="744159" />
	</node>
<<<<<<< HEAD
	<node lat="68.03911388457895" lon="13.116016668378323" id="-10997">
		<tag k="name" v="Krystadøya" />
		<tag k="place" v="island" />
		<tag k="ssr:stedsnr" v="745044" />
	</node>
	<node lat="67.99258888700405" lon="13.232069448670094" id="-10999">
		<tag k="name" v="Kunnhamna" />
=======
	<node id="-187422" lat="68.1792416658" lon="13.1536916648">
		<tag k="name" v="Skarvholman" />
		<tag k="place" v="islet" />
		<tag k="ssr:stedsnr" v="199224" />
	</node>
	<node id="-187420" lat="68.0025805556" lon="13.2602666699">
		<tag k="name" v="Bjønnvika" />
>>>>>>> e1d4bc35ff8a6074a6f2e91616a996b547c36f15
		<tag k="natural" v="bay" />
		<tag k="ssr:stedsnr" v="745496" />
	</node>
<<<<<<< HEAD
	<node lat="68.11834166746334" lon="13.289855552053872" id="-11008">
		<tag k="name" v="Vareidsundet" />
		<tag k="natural" v="strait" />
		<tag k="ssr:stedsnr" v="745897" />
	</node>
	<node lat="68.14701944028842" lon="13.455641670139732" id="-11016">
		<tag k="name" v="Litlsandnesflua" />
=======
	<node id="-187408" lat="68.0788722197" lon="13.196522231">
		<tag k="name" v="Kubbholmleia" />
		<tag k="natural" v="strait" />
		<tag k="ssr:stedsnr" v="292835" />
	</node>
	<node id="-187401" lat="68.0357111149" lon="13.3491944353">
		<tag k="name" v="Nordstøa" />
		<tag k="natural" v="bay" />
		<tag k="ssr:stedsnr" v="292465" />
	</node>
	<node id="-187400" lat="68.1352305544" lon="13.3064722291">
		<tag k="name" v="Sandneset" />
		<tag k="natural" v="beach" />
		<tag k="place" v="locality" />
		<tag k="ssr:stedsnr" v="292298" />
	</node>
	<node id="-187399" lat="68.1409277742" lon="13.3120750058">
		<tag k="name" v="Elvøyra" />
>>>>>>> e1d4bc35ff8a6074a6f2e91616a996b547c36f15
		<tag k="natural" v="shoal" />
		<tag k="place" v="locality" />
		<tag k="ssr:stedsnr" v="777300" />
	</node>
<<<<<<< HEAD
	<node lat="68.05335278066775" lon="13.152069447314775" id="-11019">
		<tag k="name" v="Langnesodden" />
		<tag k="natural" v="cape" />
		<tag k="ssr:stedsnr" v="777377" />
	</node>
	<node lat="68.00472777459274" lon="13.210333321848285" id="-11033">
		<tag k="name" v="Sundvågen" />
		<tag k="natural" v="bay" />
		<tag k="ssr:stedsnr" v="777890" />
	</node>
	<node lat="68.14193889301174" lon="13.109399999183642" id="-11040">
		<tag k="name" v="Mulskallen" />
		<tag k="natural" v="shoal" />
		<tag k="place" v="locality" />
		<tag k="ssr:stedsnr" v="805180" />
	</node>
	<node lat="68.1350583292149" lon="13.446036100107376" id="-11044">
		<tag k="alt_name" v="Øyra" />
		<tag k="name" v="Øra" />
		<tag k="natural" v="beach" />
		<tag k="ssr:stedsnr" v="805752" />
	</node>
	<node lat="68.07543888993197" lon="13.189088899591798" id="-11047">
		<tag k="alt_name" v="Løngøya" />
		<tag k="name" v="Lyngøya" />
		<tag k="place" v="islet" />
		<tag k="ssr:stedsnr" v="806012" />
	</node>
	<node lat="68.00516666746823" lon="13.198972214583229" id="-11051">
		<tag k="name" v="Blomsterøya" />
=======
	<node id="-187396" lat="68.0192916624" lon="13.1743083318">
		<tag k="name" v="Steinsvika" />
		<tag k="natural" v="bay" />
		<tag k="ssr:stedsnr" v="292146" />
	</node>
	<node id="-187395" lat="68.0159388929" lon="13.17496112">
		<tag k="name" v="Hildrumdammen" />
		<tag k="natural" v="bay" />
		<tag k="ssr:stedsnr" v="292139" />
	</node>
	<node id="-187390" lat="68.0793472208" lon="13.190636112">
		<tag k="name" v="Kubbholmen" />
		<tag k="place" v="islet" />
		<tag k="ssr:stedsnr" v="290744" />
	</node>
	<node id="-187386" lat="68.0349194487" lon="13.2382083233">
		<tag k="fixme" v="consider seamark:type=rock or natural=shoal" />
		<tag k="name" v="Nordre Hysskjeret" />
		<tag k="place" v="islet" />
		<tag k="ssr:stedsnr" v="289990" />
	</node>
	<node id="-187384" lat="68.0937416697" lon="13.2252916779">
		<tag k="name" v="Sandneset" />
		<tag k="natural" v="cape" />
		<tag k="ssr:stedsnr" v="171826" />
	</node>
	<node id="-187382" lat="68.0406277811" lon="13.1145722178">
		<tag k="name" v="Øysundet" />
		<tag k="natural" v="strait" />
		<tag k="ssr:stedsnr" v="170416" />
	</node>
	<node id="-187381" lat="68.0547111129" lon="13.2345638832">
		<tag k="name" v="Storholmen" />
>>>>>>> e1d4bc35ff8a6074a6f2e91616a996b547c36f15
		<tag k="place" v="islet" />
		<tag k="ssr:stedsnr" v="806062" />
	</node>
<<<<<<< HEAD
	<node lat="68.05726667010529" lon="13.233102768276362" id="-11054">
		<tag k="fixme" v="multiple name tags, choose one and add the other to alt_name; consider seamark:type=rock or natural=shoal" />
		<tag k="name" v="Gammskjeret;Drangan" />
=======
	<node id="-187380" lat="68.1734166677" lon="13.1555583263">
		<tag k="name" v="Holmflesa" />
>>>>>>> e1d4bc35ff8a6074a6f2e91616a996b547c36f15
		<tag k="place" v="islet" />
		<tag k="ssr:stedsnr" v="806771" />
	</node>
	<node lat="68.08494444440367" lon="13.199347221769928" id="-11056">
		<tag k="name" v="Torvøya" />
		<tag k="place" v="island" />
		<tag k="ssr:stedsnr" v="806265" />
	</node>
<<<<<<< HEAD
	<node lat="68.05261389325388" lon="13.241438880164546" id="-11063">
		<tag k="alt_name" v="Skjellfjorden" />
=======
	<node id="-187379" lat="68.0165111126" lon="13.1953583448">
>>>>>>> e1d4bc35ff8a6074a6f2e91616a996b547c36f15
		<tag k="bay" v="fjord" />
		<tag k="name" v="Skjelfjorden" />
		<tag k="natural" v="bay" />
		<tag k="ssr:stedsnr" v="806531" />
	</node>
<<<<<<< HEAD
	<node lat="68.0312555526848" lon="13.256530551267076" id="-11066">
=======
	<node id="-187375" lat="68.0777416647" lon="13.336277779">
>>>>>>> e1d4bc35ff8a6074a6f2e91616a996b547c36f15
		<tag k="fixme" v="consider seamark:type=rock or natural=shoal" />
		<tag k="name" v="Middagssteinen" />
		<tag k="place" v="islet" />
		<tag k="ssr:stedsnr" v="806542" />
	</node>
<<<<<<< HEAD
	<node lat="68.08099722207521" lon="13.303275004642904" id="-11070">
		<tag k="name" v="Bøosen" />
		<tag k="natural" v="bay" />
		<tag k="ssr:stedsnr" v="806640" />
	</node>
	<node lat="68.06197544393507" lon="13.400645396997344" id="-11072">
		<tag k="name" v="Straumøya" />
		<tag k="place" v="island" />
		<tag k="ssr:stedsnr" v="806711" />
	</node>
	<node lat="68.1426583302336" lon="13.309736104278427" id="-11075">
		<tag k="fixme" v="consider seamark:type=rock or natural=shoal" />
		<tag k="name" v="Løysteinen" />
=======
	<node id="-187370" lat="68.1478694425" lon="13.4468583259">
		<tag k="name" v="Drogstolen" />
>>>>>>> e1d4bc35ff8a6074a6f2e91616a996b547c36f15
		<tag k="place" v="islet" />
		<tag k="ssr:stedsnr" v="806815" />
	</node>
<<<<<<< HEAD
	<node lat="68.00615277686013" lon="13.302316659236014" id="-11081">
		<tag k="name" v="Storflua" />
		<tag k="place" v="locality" />
		<tag k="seamark:type" v="rock" />
		<tag k="ssr:stedsnr" v="836536" />
	</node>
	<node lat="68.00196666718219" lon="13.27619166456743" id="-11086">
		<tag k="name" v="Keila" />
=======
	<node id="-187365" lat="68.1257277799" lon="13.3120083366">
		<tag k="name" v="Vedvika" />
>>>>>>> e1d4bc35ff8a6074a6f2e91616a996b547c36f15
		<tag k="natural" v="bay" />
		<tag k="ssr:stedsnr" v="838897" />
	</node>
<<<<<<< HEAD
	<node lat="68.03421944242747" lon="13.17526110808753" id="-11092">
		<tag k="name" v="Henrikkaholmen" />
		<tag k="place" v="islet" />
		<tag k="ssr:stedsnr" v="838168" />
	</node>
	<node lat="68.04910000251326" lon="13.128719452913845" id="-11097">
		<tag k="name" v="Kroa" />
		<tag k="natural" v="bay" />
		<tag k="ssr:stedsnr" v="838596" />
	</node>
	<node lat="68.08431111256681" lon="13.179741658806854" id="-11111">
		<tag k="name" v="Skjeppholmen" />
		<tag k="place" v="islet" />
		<tag k="ssr:stedsnr" v="839828" />
	</node>
	<node lat="68.0851694436219" lon="13.218547224777598" id="-11112">
		<tag k="name" v="Rambergsvika" />
=======
	<node id="-187355" lat="68.0568833357" lon="13.0151583304">
		<tag k="name" v="Ulvsneset" />
		<tag k="natural" v="cape" />
		<tag k="ssr:stedsnr" v="260003" />
	</node>
	<node id="-187354" lat="68.1309583294" lon="13.2972722234">
		<tag k="name" v="Hestneset" />
		<tag k="natural" v="cape" />
		<tag k="ssr:stedsnr" v="259873" />
	</node>
	<node id="-187352" lat="68.0591366406" lon="13.2376484919">
		<tag k="alt_name" v="Osen" />
		<tag k="name" v="Nordfjorden" />
>>>>>>> e1d4bc35ff8a6074a6f2e91616a996b547c36f15
		<tag k="natural" v="bay" />
		<tag k="ssr:stedsnr" v="839833" />
	</node>
<<<<<<< HEAD
	<node lat="68.01815555105328" lon="13.180341676732873" id="-11116">
		<tag k="name" v="Kåkersundet" />
		<tag k="natural" v="strait" />
		<tag k="ssr:stedsnr" v="866036" />
	</node>
	<node lat="68.08715833538719" lon="12.99683887839205" id="-11117">
		<tag k="name" v="Lofotskallan" />
=======
	<node id="-187351" lat="68.0071944488" lon="13.2182499905">
		<tag k="name" v="Torvvika" />
		<tag k="natural" v="strait" />
		<tag k="ssr:stedsnr" v="259493" />
	</node>
	<node id="-187350" lat="67.997569446" lon="13.1813583446">
		<tag k="alt_name" v="Storsoløya, store" />
		<tag k="fixme" v="multiple name tags, choose one and add the other to alt_name" />
		<tag k="name" v="Soløya;Store Soløya;Store Storsoløya" />
		<tag k="place" v="islet" />
		<tag k="ssr:stedsnr" v="259439" />
	</node>
	<node id="-187348" lat="68.121661112" lon="12.9636444406">
		<tag k="name" v="Vestreskallen" />
>>>>>>> e1d4bc35ff8a6074a6f2e91616a996b547c36f15
		<tag k="natural" v="shoal" />
		<tag k="place" v="locality" />
		<tag k="ssr:stedsnr" v="866197" />
	</node>
<<<<<<< HEAD
	<node lat="68.1033944482018" lon="13.19144445239064" id="-11118">
		<tag k="alt_name" v="Kråkbåen" />
		<tag k="name" v="Kråka" />
		<tag k="place" v="islet" />
		<tag k="ssr:stedsnr" v="866199" />
	</node>
	<node lat="68.09694999607157" lon="13.206108335234962" id="-11120">
		<tag k="name" v="Leiholmen" />
		<tag k="place" v="islet" />
		<tag k="ssr:stedsnr" v="866203" />
	</node>
	<node lat="68.0113777781888" lon="13.315897217686686" id="-11125">
		<tag k="name" v="Slokneset" />
		<tag k="natural" v="cape" />
		<tag k="ssr:stedsnr" v="866487" />
	</node>
	<node lat="68.21900833744823" lon="13.269380552329174" id="-11126">
		<tag k="name" v="Grunnbåen" />
=======
	<node id="-187347" lat="68.1205749965" lon="13.0403944456">
		<tag k="alt_name" v="Skeiegrunnan" />
		<tag k="name" v="Skeiegrunnpallan" />
		<tag k="natural" v="shoal" />
		<tag k="place" v="locality" />
		<tag k="ssr:stedsnr" v="259193" />
	</node>
	<node id="-187346" lat="68.1275500035" lon="12.9776694457">
		<tag k="alt_name" v="Bragrunnskallen" />
		<tag k="name" v="Bragrunnan" />
>>>>>>> e1d4bc35ff8a6074a6f2e91616a996b547c36f15
		<tag k="natural" v="shoal" />
		<tag k="place" v="locality" />
		<tag k="ssr:stedsnr" v="867108" />
	</node>
<<<<<<< HEAD
	<node lat="68.07285555499604" lon="13.415947221080934" id="-11131">
		<tag k="name" v="Seglsteingrunnen" />
=======
	<node id="-187345" lat="68.1531833307" lon="13.0404166685">
		<tag k="name" v="Seiskallen" />
>>>>>>> e1d4bc35ff8a6074a6f2e91616a996b547c36f15
		<tag k="natural" v="shoal" />
		<tag k="place" v="locality" />
		<tag k="ssr:stedsnr" v="866709" />
	</node>
<<<<<<< HEAD
	<node lat="68.17872777704576" lon="13.415347222173672" id="-11140">
		<tag k="name" v="Vågsflesa" />
=======
	<node id="-187343" lat="68.2018833341" lon="13.270224996">
		<tag k="name" v="Middagsbåen" />
>>>>>>> e1d4bc35ff8a6074a6f2e91616a996b547c36f15
		<tag k="natural" v="shoal" />
		<tag k="place" v="locality" />
		<tag k="ssr:stedsnr" v="867892" />
	</node>
<<<<<<< HEAD
	<node lat="68.04427500258271" lon="13.395069447203866" id="-11142">
		<tag k="name" v="Rakvika" />
		<tag k="natural" v="bay" />
		<tag k="ssr:stedsnr" v="867551" />
	</node>
	<node lat="68.11232499996652" lon="13.426997230890102" id="-11146">
		<tag k="fixme" v="consider seamark:type=rock or natural=shoal" />
		<tag k="name" v="Geitryggen" />
		<tag k="place" v="islet" />
		<tag k="ssr:stedsnr" v="867854" />
	</node>
	<node lat="68.14077500209207" lon="13.458147227435038" id="-11149">
		<tag k="name" v="Nordholmen" />
=======
	<node id="-187341" lat="68.0495722192" lon="13.1604444366">
		<tag k="bay" v="fjord" />
		<tag k="name" v="Selfjorden" />
		<tag k="natural" v="bay" />
		<tag k="ssr:stedsnr" v="259011" />
	</node>
	<node id="-187339" lat="68.0932277749" lon="13.2023166778">
		<tag k="name" v="Blindmannsholmen" />
		<tag k="place" v="islet" />
		<tag k="ssr:stedsnr" v="50817" />
	</node>
	<node id="-187335" lat="67.9884805541" lon="13.2225083238">
		<tag k="name" v="Kunskallen" />
		<tag k="place" v="locality" />
		<tag k="seamark:type" v="rock" />
		<tag k="ssr:stedsnr" v="47531" />
	</node>
	<node id="-187334" lat="68.1616555526" lon="13.4400583328">
		<tag k="name" v="Hundholmen" />
		<tag k="place" v="islet" />
		<tag k="ssr:stedsnr" v="44020" />
	</node>
	<node id="-187333" lat="68.1586583349" lon="13.4332027714">
		<tag k="name" v="Langroa" />
		<tag k="natural" v="shoal" />
		<tag k="place" v="locality" />
		<tag k="ssr:stedsnr" v="44018" />
	</node>
	<node id="-187330" lat="68.04129444" lon="13.2611222267">
		<tag k="name" v="Berget" />
		<tag k="natural" v="cape" />
		<tag k="ssr:stedsnr" v="232457" />
	</node>
	<node id="-187326" lat="68.0594638869" lon="13.1683999924">
		<tag k="name" v="Tussodden" />
		<tag k="natural" v="cape" />
		<tag k="ssr:stedsnr" v="231698" />
	</node>
	<node id="-187324" lat="68.0371611136" lon="13.3496083275">
		<tag k="name" v="Skjeret" />
		<tag k="natural" v="cape" />
		<tag k="ssr:stedsnr" v="231542" />
	</node>
	<node id="-187321" lat="68.1295861095" lon="13.2968583232">
		<tag k="name" v="Hestneskeila" />
>>>>>>> e1d4bc35ff8a6074a6f2e91616a996b547c36f15
		<tag k="natural" v="cape" />
		<tag k="ssr:stedsnr" v="871001" />
	</node>
<<<<<<< HEAD
	<node lat="68.09517222531852" lon="13.4204222265392" id="-11150">
		<tag k="name" v="Langvika" />
		<tag k="natural" v="bay" />
		<tag k="ssr:stedsnr" v="947702" />
	</node>
	<node lat="68.02103888508148" lon="13.239194439067253" id="-11152">
		<tag k="name" v="Farveskallen" />
		<tag k="natural" v="shoal" />
		<tag k="place" v="locality" />
		<tag k="ssr:stedsnr" v="957569" />
	</node>
	<node lat="68.00023611434611" lon="13.209808323725328" id="-11153">
		<tag k="alt_name" v="Store Grimsholmen" />
		<tag k="name" v="Stor-Grimsholmen" />
		<tag k="place" v="islet" />
		<tag k="ssr:stedsnr" v="957532" />
	</node>
	<node lat="68.02148888819399" lon="13.173130555454495" id="-11158">
		<tag k="name" v="Skjelvika" />
=======
	<node id="-187314" lat="68.0992055514" lon="13.3223111072">
		<tag k="name" v="Silsandnes" />
		<tag k="natural" v="cape" />
		<tag k="ssr:stedsnr" v="230750" />
	</node>
	<node id="-187310" lat="68.0018055562" lon="13.2803277836">
		<tag k="name" v="Trollungan" />
		<tag k="place" v="locality" />
		<tag k="seamark:type" v="rock" />
		<tag k="ssr:stedsnr" v="229591" />
	</node>
	<node id="-187309" lat="68.0772749999" lon="13.1841472165">
		<tag k="name" v="Kubbholmsundet" />
		<tag k="natural" v="strait" />
		<tag k="ssr:stedsnr" v="226020" />
	</node>
	<node id="-187307" lat="68.125797223" lon="13.3900972308">
		<tag k="name" v="Rødsanden" />
		<tag k="natural" v="beach" />
		<tag k="place" v="locality" />
		<tag k="ssr:stedsnr" v="21006" />
	</node>
	<node id="-187306" lat="68.1173499993" lon="13.4338638906">
		<tag k="name" v="Mola" />
>>>>>>> e1d4bc35ff8a6074a6f2e91616a996b547c36f15
		<tag k="natural" v="bay" />
		<tag k="ssr:stedsnr" v="959152" />
	</node>
<<<<<<< HEAD
	<node lat="68.14802777412015" lon="13.314316659126748" id="-11161">
		<tag k="name" v="Advanna" />
		<tag k="natural" v="bay" />
		<tag k="ssr:stedsnr" v="959384" />
	</node>
	<node lat="67.99451666477506" lon="13.237613898327293" id="-11165">
=======
	<node id="-187305" lat="68.1036249977" lon="13.2369388822">
		<tag k="name" v="Jusneset" />
		<tag k="natural" v="cape" />
		<tag k="ssr:stedsnr" v="17843" />
	</node>
	<node id="-187300" lat="68.0688416692" lon="13.4107000099">
>>>>>>> e1d4bc35ff8a6074a6f2e91616a996b547c36f15
		<tag k="fixme" v="consider seamark:type=rock or natural=shoal" />
		<tag k="name" v="Munkskjeret" />
		<tag k="place" v="islet" />
		<tag k="ssr:stedsnr" v="959999" />
	</node>
	<node lat="68.09436111504344" lon="13.151416677401075" id="-11175">
		<tag k="name" v="Tunga" />
		<tag k="natural" v="cape" />
		<tag k="ssr:stedsnr" v="960833" />
	</node>
	<node id="-188486" lat="68.094361115" lon="13.1514166774">
		<tag k="name" v="Tunga" />
		<tag k="natural" v="cape" />
		<tag k="ssr:stedsnr" v="960833" />
	</node>
	<node id="-188479" lat="68.0386888891" lon="13.3479638846">
		<tag k="name" v="Skamkråa" />
		<tag k="natural" v="bay" />
		<tag k="ssr:stedsnr" v="960489" />
	</node>
	<node id="-188477" lat="68.114394441" lon="13.1367444456">
		<tag k="fixme" v="consider seamark:type=rock or natural=shoal" />
		<tag k="name" v="Rasmushella" />
		<tag k="place" v="islet" />
		<tag k="ssr:stedsnr" v="960277" />
	</node>
	<node id="-188476" lat="67.9945166648" lon="13.2376138983">
		<tag k="fixme" v="consider seamark:type=rock or natural=shoal" />
		<tag k="name" v="Munkskjeret" />
		<tag k="place" v="islet" />
		<tag k="ssr:stedsnr" v="959999" />
	</node>
	<node id="-188471" lat="68.0766333296" lon="13.2003638966">
		<tag k="fixme" v="consider seamark:type=rock or natural=shoal" />
		<tag k="name" v="Kobbskjeran" />
		<tag k="place" v="islet" />
		<tag k="ssr:stedsnr" v="959611" />
	</node>
	<node id="-188467" lat="68.1480277741" lon="13.3143166591">
		<tag k="name" v="Advanna" />
		<tag k="natural" v="bay" />
		<tag k="ssr:stedsnr" v="959384" />
	</node>
	<node id="-188462" lat="68.0214888882" lon="13.1731305555">
		<tag k="name" v="Skjelvika" />
		<tag k="natural" v="bay" />
		<tag k="ssr:stedsnr" v="959152" />
	</node>
	<node id="-188458" lat="68.0838499964" lon="13.2300194371">
		<tag k="name" v="Skjelholmleira" />
		<tag k="natural" v="bay" />
		<tag k="ssr:stedsnr" v="958811" />
	</node>
	<node id="-188454" lat="68.0412166642" lon="13.3492638847">
		<tag k="name" v="Bottelen" />
		<tag k="natural" v="cape" />
		<tag k="ssr:stedsnr" v="957988" />
	</node>
	<node id="-188452" lat="68.0210388851" lon="13.2391944391">
		<tag k="name" v="Farveskallen" />
		<tag k="natural" v="shoal" />
		<tag k="place" v="locality" />
		<tag k="ssr:stedsnr" v="957569" />
	</node>
	<node id="-188451" lat="68.0002361143" lon="13.2098083237">
		<tag k="alt_name" v="Store Grimsholmen" />
		<tag k="name" v="Stor-Grimsholmen" />
		<tag k="place" v="islet" />
		<tag k="ssr:stedsnr" v="957532" />
	</node>
	<node id="-188450" lat="68.1407750021" lon="13.4581472274">
		<tag k="name" v="Nordholmen" />
		<tag k="natural" v="cape" />
		<tag k="ssr:stedsnr" v="871001" />
	</node>
	<node id="-188449" lat="68.178727777" lon="13.4153472222">
		<tag k="name" v="Vågsflesa" />
		<tag k="natural" v="shoal" />
		<tag k="place" v="locality" />
		<tag k="ssr:stedsnr" v="867892" />
	</node>
	<node id="-188448" lat="68.112325" lon="13.4269972309">
		<tag k="fixme" v="consider seamark:type=rock or natural=shoal" />
		<tag k="name" v="Geitryggen" />
		<tag k="place" v="islet" />
		<tag k="ssr:stedsnr" v="867854" />
	</node>
	<node id="-188442" lat="68.0442750026" lon="13.3950694472">
		<tag k="name" v="Rakvika" />
		<tag k="natural" v="bay" />
		<tag k="ssr:stedsnr" v="867551" />
	</node>
	<node id="-188429" lat="68.072855555" lon="13.4159472211">
		<tag k="name" v="Seglsteingrunnen" />
		<tag k="natural" v="shoal" />
		<tag k="place" v="locality" />
		<tag k="ssr:stedsnr" v="866709" />
	</node>
	<node id="-188427" lat="68.0113777782" lon="13.3158972177">
		<tag k="name" v="Slokneset" />
		<tag k="natural" v="cape" />
		<tag k="ssr:stedsnr" v="866487" />
	</node>
	<node id="-188425" lat="68.0181555511" lon="13.1803416767">
		<tag k="name" v="Kåkersundet" />
		<tag k="natural" v="strait" />
		<tag k="ssr:stedsnr" v="866036" />
	</node>
	<node id="-188419" lat="68.1033944482" lon="13.1914444524">
		<tag k="alt_name" v="Kråkbåen" />
		<tag k="name" v="Kråka" />
		<tag k="place" v="islet" />
		<tag k="ssr:stedsnr" v="866199" />
	</node>
	<node id="-188418" lat="68.0871583354" lon="12.9968388784">
		<tag k="name" v="Lofotskallan" />
		<tag k="natural" v="shoal" />
		<tag k="place" v="locality" />
		<tag k="ssr:stedsnr" v="866197" />
	</node>
</osm>
