<?xml version="1.0" encoding="UTF-8"?>
<<<<<<< HEAD
<osm version="0.6" generator="osmapis">
	<node lat="68.04525555572447" lon="13.354277788197882" id="-9994">
		<tag k="name" v="Pollen" />
		<tag k="natural" v="bay" />
		<tag k="ssr:stedsnr" v="232446" />
	</node>
	<node lat="68.08087221933994" lon="13.140491671910173" id="-10001">
		<tag k="name" v="Einangsvatnet" />
		<tag k="natural" v="water" />
		<tag k="ssr:stedsnr" v="231860" />
	</node>
	<node lat="68.05240277935256" lon="13.352902774399324" id="-10002">
		<tag k="name" v="Åltjønna" />
		<tag k="natural" v="water" />
		<tag k="ssr:stedsnr" v="232448" />
	</node>
	<node lat="67.99828055125607" lon="13.12201666449378" id="-10035">
		<tag k="fixme" v="multiple name tags, choose one and add the other to alt_name" />
		<tag k="name" v="Bjørkneskroken;Bjørknesdalen" />
		<tag k="natural" v="bay" />
		<tag k="ssr:stedsnr" v="78304" />
	</node>
	<node lat="68.13561944437224" lon="13.316377783408823" id="-10038">
		<tag k="alt_name" v="Vasskroken" />
		<tag k="name" v="Vasskrokvatnet" />
		<tag k="natural" v="water" />
		<tag k="ssr:stedsnr" v="78808" />
	</node>
	<node lat="68.1033666698299" lon="13.413358324858422" id="-10041">
		<tag k="name" v="Klesvatnet" />
		<tag k="natural" v="water" />
		<tag k="ssr:stedsnr" v="109143" />
		<tag k="water" v="lake" />
	</node>
	<node lat="68.07183888595735" lon="13.375369446252327" id="-10051">
		<tag k="name" v="Sildnebben" />
		<tag k="natural" v="cape" />
		<tag k="ssr:stedsnr" v="110621" />
	</node>
	<node lat="68.09803610757058" lon="13.383130561163854" id="-10052">
		<tag k="name" v="Storvatnet" />
		<tag k="natural" v="water" />
		<tag k="ssr:stedsnr" v="110769" />
		<tag k="water" v="lake" />
	</node>
	<node lat="68.0711055537755" lon="13.373158324618561" id="-10059">
		<tag k="alt_name" v="Straumsøyvatnet" />
		<tag k="name" v="Straumøyvatnet" />
=======
<osm generator="osmapis" version="0.6">
	<node id="-187391" lat="68.0802944439" lon="13.2917305655">
		<tag k="name" v="Litlroselva" />
		<tag k="ssr:stedsnr" v="291771" />
		<tag k="waterway" v="stream" />
	</node>
	<node id="-187895" lat="68.1356194444" lon="13.3163777834">
		<tag k="alt_name" v="Vasskroken" />
		<tag k="name" v="Vasskrokvatnet" />
		<tag k="natural" v="water" />
		<tag k="ssr:stedsnr" v="78808" />
	</node>
	<node id="-188406" lat="68.0105638861" lon="13.1625805552">
		<tag k="name" v="Rakelvatnet" />
		<tag k="natural" v="water" />
		<tag k="ssr:stedsnr" v="838924" />
		<tag k="water" v="lake" />
	</node>
	<node id="-188404" lat="67.9822138881" lon="13.0575722216">
		<tag k="name" v="Forsan" />
		<tag k="natural" v="waterfall" />
		<tag k="ssr:stedsnr" v="838982" />
	</node>
	<node id="-187890" lat="67.9982805513" lon="13.1220166645">
		<tag k="fixme" v="multiple name tags, choose one and add the other to alt_name" />
		<tag k="name" v="Bjørknesdalen;Bjørkneskroken" />
		<tag k="natural" v="bay" />
		<tag k="ssr:stedsnr" v="78304" />
	</node>
	<node id="-187376" lat="68.071838886" lon="13.3753694463">
		<tag k="name" v="Sildnebben" />
		<tag k="natural" v="cape" />
		<tag k="ssr:stedsnr" v="110621" />
	</node>
	<node id="-187885" lat="68.1314055511" lon="13.3666027867">
		<tag k="alt_name" v="Mørkedalsvatnet" />
		<tag k="name" v="Mørkdalsvatnet" />
		<tag k="natural" v="water" />
		<tag k="ssr:stedsnr" v="77775" />
	</node>
	<node id="-187883" lat="68.0761055561" lon="13.3742694326">
		<tag k="alt_name" v="Ølkona" />
		<tag k="name" v="Ølkonvatnet" />
		<tag k="natural" v="water" />
		<tag k="ssr:stedsnr" v="77730" />
	</node>
	<node id="-187369" lat="68.1033666698" lon="13.4133583249">
		<tag k="name" v="Klesvatnet" />
		<tag k="natural" v="water" />
		<tag k="ssr:stedsnr" v="109143" />
		<tag k="water" v="lake" />
	</node>
	<node id="-187362" lat="68.0960027775" lon="13.4066722124">
		<tag k="name" v="Sørdalsvatnet" />
		<tag k="natural" v="water" />
		<tag k="ssr:stedsnr" v="260698" />
	</node>
	<node id="-188384" lat="68.1005249996" lon="13.3068027826">
		<tag k="name" v="Middagselva" />
		<tag k="ssr:stedsnr" v="837249" />
		<tag k="waterway" v="stream" />
	</node>
	<node id="-188381" lat="68.0845388891" lon="13.3973388835">
		<tag k="name" v="Tjønnen" />
		<tag k="natural" v="water" />
		<tag k="ssr:stedsnr" v="825712" />
	</node>
	<node id="-188379" lat="68.1595888912" lon="13.3486500067">
		<tag k="name" v="Hornvatnet" />
>>>>>>> e1d4bc35ff8a6074a6f2e91616a996b547c36f15
		<tag k="natural" v="water" />
		<tag k="ssr:stedsnr" v="806953" />
	</node>
<<<<<<< HEAD
	<node lat="68.0618777765769" lon="13.314499997514845" id="-10073">
		<tag k="alt_name" v="Medvatnet" />
		<tag k="name" v="Mevatnet" />
		<tag k="natural" v="water" />
		<tag k="ssr:stedsnr" v="259748" />
	</node>
	<node lat="68.04868055436513" lon="13.114991664774946" id="-10086">
		<tag k="name" v="Markelva" />
		<tag k="ssr:stedsnr" v="170562" />
		<tag k="waterway" v="river" />
	</node>
	<node lat="68.07503055118606" lon="13.352552775045442" id="-10088">
		<tag k="name" v="Grønleikelva" />
		<tag k="ssr:stedsnr" v="170577" />
		<tag k="waterway" v="stream" />
	</node>
	<node lat="68.06850555288396" lon="13.287738886067562" id="-10106">
		<tag k="name" v="Svartvatnet" />
		<tag k="natural" v="water" />
		<tag k="ssr:stedsnr" v="199767" />
	</node>
	<node lat="68.15886666249686" lon="13.367377775132406" id="-10111">
		<tag k="alt_name" v="Sevtjørna" />
		<tag k="name" v="Sevtjønna" />
		<tag k="natural" v="water" />
		<tag k="ssr:stedsnr" v="199960" />
	</node>
	<node lat="68.13795555775668" lon="13.398358328640288" id="-10113">
		<tag k="name" v="Myrlandselva" />
		<tag k="ssr:stedsnr" v="203015" />
		<tag k="waterway" v="stream" />
	</node>
	<node lat="68.15013055494259" lon="13.369777769352346" id="-10123">
		<tag k="name" v="Holmvatnet" />
		<tag k="natural" v="water" />
		<tag k="ssr:stedsnr" v="231480" />
	</node>
	<node lat="68.03815833770287" lon="13.181408322157306" id="-10124">
		<tag k="name" v="Tusskogvatnet" />
		<tag k="natural" v="water" />
		<tag k="ssr:stedsnr" v="231481" />
		<tag k="water" v="lake" />
	</node>
	<node lat="68.09600277748405" lon="13.406672212447022" id="-10138">
		<tag k="name" v="Sørdalsvatnet" />
		<tag k="natural" v="water" />
		<tag k="ssr:stedsnr" v="260698" />
	</node>
	<node lat="68.0773388924873" lon="13.158786103384243" id="-10146">
		<tag k="name" v="Lomstjønna" />
		<tag k="natural" v="water" />
		<tag k="ssr:stedsnr" v="292679" />
	</node>
	<node lat="67.99815833323056" lon="13.130886122101735" id="-10149">
		<tag k="name" v="Bjørknesvatnet" />
		<tag k="natural" v="water" />
		<tag k="ssr:stedsnr" v="292914" />
		<tag k="water" v="lake" />
	</node>
	<node lat="68.02002777534594" lon="13.309619436106363" id="-10151">
		<tag k="name" v="Vedvikvatnet" />
		<tag k="natural" v="water" />
		<tag k="ssr:stedsnr" v="292922" />
		<tag k="water" v="lake" />
	</node>
	<node lat="68.05420555667986" lon="13.105905565241043" id="-10158">
		<tag k="name" v="Markvatnet" />
		<tag k="natural" v="water" />
		<tag k="ssr:stedsnr" v="320002" />
	</node>
	<node lat="68.0294527770699" lon="13.046286108564695" id="-10162">
		<tag k="name" v="Fageråa" />
		<tag k="ssr:stedsnr" v="320015" />
		<tag k="waterway" v="stream" />
	</node>
	<node lat="68.0697916631683" lon="13.335630553130985" id="-10166">
		<tag k="alt_name" v="Rishågelva" />
		<tag k="name" v="Rishaugelva" />
		<tag k="ssr:stedsnr" v="320683" />
		<tag k="waterway" v="stream" />
	</node>
	<node lat="68.02390833114565" lon="13.132938892352442" id="-10173">
		<tag k="alt_name" v="Kalsteindalselva" />
		<tag k="name" v="Kalsteindalselv" />
		<tag k="ssr:stedsnr" v="473384" />
		<tag k="waterway" v="stream" />
	</node>
	<node lat="68.06717777469385" lon="13.39063889818246" id="-10176">
		<tag k="name" v="Tjønna" />
		<tag k="natural" v="water" />
		<tag k="ssr:stedsnr" v="473578" />
	</node>
	<node lat="68.11354722074972" lon="13.354933322712842" id="-10186">
		<tag k="name" v="Mølnelva" />
		<tag k="ssr:stedsnr" v="474236" />
		<tag k="waterway" v="stream" />
	</node>
	<node lat="68.05865278240161" lon="13.308327768098478" id="-10189">
		<tag k="name" v="Tennvasselva" />
		<tag k="ssr:stedsnr" v="352558" />
		<tag k="waterway" v="river" />
	</node>
	<node lat="68.0942055539167" lon="13.124766665594366" id="-10206">
		<tag k="name" v="Dalvatnet" />
		<tag k="natural" v="water" />
		<tag k="ssr:stedsnr" v="474955" />
	</node>
	<node lat="68.05468888861691" lon="13.327366672108486" id="-10220">
		<tag k="name" v="Storvatnet" />
		<tag k="natural" v="water" />
		<tag k="ssr:stedsnr" v="381726" />
		<tag k="water" v="lake" />
	</node>
	<node lat="68.05679999604591" lon="13.141608324388747" id="-10232">
		<tag k="name" v="Krystadvatnet" />
		<tag k="natural" v="water" />
		<tag k="ssr:stedsnr" v="413648" />
		<tag k="water" v="lake" />
	</node>
	<node lat="68.06452777557149" lon="13.301777780121995" id="-10233">
		<tag k="name" v="Svartvasselva" />
		<tag k="ssr:stedsnr" v="413589" />
		<tag k="waterway" v="river" />
	</node>
	<node lat="68.03473055320725" lon="13.325791667805232" id="-10264">
		<tag k="alt_name" v="Øvervatnet" />
		<tag k="name" v="Øvrevatnet" />
=======
	<node id="-187353" lat="68.0618777766" lon="13.3144999975">
		<tag k="alt_name" v="Medvatnet" />
		<tag k="name" v="Mevatnet" />
		<tag k="natural" v="water" />
		<tag k="ssr:stedsnr" v="259748" />
	</node>
	<node id="-187863" lat="67.9707499975" lon="13.1680583373">
		<tag k="name" v="Ølkonvatnet" />
		<tag k="natural" v="water" />
		<tag k="ssr:stedsnr" v="49957" />
		<tag k="water" v="lake" />
	</node>
	<node id="-187853" lat="68.0774611155" lon="13.3732944388">
		<tag k="name" v="Ølkona" />
		<tag k="ssr:stedsnr" v="49599" />
		<tag k="waterway" v="stream" />
	</node>
	<node id="-188362" lat="67.9723722221" lon="13.1652333245">
		<tag k="name" v="Ølkona" />
		<tag k="ssr:stedsnr" v="806442" />
		<tag k="waterway" v="stream" />
	</node>
	<node id="-187383" lat="68.0363277792" lon="13.1808111045">
		<tag k="name" v="Mølnelva" />
		<tag k="ssr:stedsnr" v="170444" />
		<tag k="waterway" v="stream" />
	</node>
	<node id="-188360" lat="68.0822888903" lon="13.1120083339">
		<tag k="name" v="Forsvatnet" />
		<tag k="natural" v="water" />
		<tag k="ssr:stedsnr" v="806267" />
	</node>
	<node id="-187847" lat="68.032652779" lon="13.1794777714">
		<tag k="name" v="Fløvatnet" />
		<tag k="natural" v="water" />
		<tag k="ssr:stedsnr" v="49183" />
	</node>
	<node id="-187843" lat="68.0073500023" lon="13.151202779">
		<tag k="name" v="Lomtjønna" />
		<tag k="natural" v="water" />
		<tag k="ssr:stedsnr" v="48932" />
	</node>
	<node id="-187841" lat="68.0110027824" lon="13.2038472155">
		<tag k="name" v="Bulivatnet" />
		<tag k="natural" v="water" />
		<tag k="ssr:stedsnr" v="48928" />
		<tag k="water" v="lake" />
	</node>
	<node id="-187328" lat="68.0452555557" lon="13.3542777882">
		<tag k="name" v="Pollen" />
		<tag k="natural" v="bay" />
		<tag k="ssr:stedsnr" v="232446" />
	</node>
	<node id="-187323" lat="68.0381583377" lon="13.1814083222">
		<tag k="name" v="Tusskogvatnet" />
		<tag k="natural" v="water" />
		<tag k="ssr:stedsnr" v="231481" />
		<tag k="water" v="lake" />
	</node>
	<node id="-187322" lat="68.1501305549" lon="13.3697777694">
		<tag k="name" v="Holmvatnet" />
		<tag k="natural" v="water" />
		<tag k="ssr:stedsnr" v="231480" />
	</node>
	<node id="-187830" lat="68.1639055522" lon="13.3551027794">
		<tag k="name" v="Hornelva" />
		<tag k="ssr:stedsnr" v="48116" />
		<tag k="waterway" v="stream" />
	</node>
	<node id="-188340" lat="68.0584833372" lon="13.1526277728">
		<tag k="name" v="Mølnelva" />
		<tag k="ssr:stedsnr" v="777645" />
		<tag k="waterway" v="stream" />
	</node>
	<node id="-188339" lat="68.0654527748" lon="13.1999194396">
		<tag k="name" v="Geitelva" />
		<tag k="ssr:stedsnr" v="777635" />
		<tag k="waterway" v="stream" />
	</node>
	<node id="-187463" lat="68.0808722193" lon="13.1404916719">
		<tag k="name" v="Einangsvatnet" />
		<tag k="natural" v="water" />
		<tag k="ssr:stedsnr" v="231860" />
	</node>
	<node id="-187816" lat="68.0365722194" lon="13.3339416599">
		<tag k="alt_name" v="Mellavatnet" />
		<tag k="name" v="Mellomvatnet" />
		<tag k="natural" v="water" />
		<tag k="ssr:stedsnr" v="17546" />
	</node>
	<node id="-187812" lat="68.0610583319" lon="13.3046472201">
		<tag k="fixme" v="multiple name tags, choose one and add the other to alt_name" />
		<tag k="name" v="Tennvatnet;Tindvatnet" />
		<tag k="natural" v="water" />
		<tag k="ssr:stedsnr" v="17776" />
	</node>
	<node id="-187296" lat="68.0974083353" lon="13.4166472262">
		<tag k="name" v="Sivtjønna" />
		<tag k="natural" v="water" />
		<tag k="ssr:stedsnr" v="219741" />
	</node>
	<node id="-188312" lat="68.1023138902" lon="13.2398027899">
		<tag k="name" v="Lomtjønna" />
		<tag k="natural" v="water" />
		<tag k="ssr:stedsnr" v="745848" />
	</node>
	<node id="-187798" lat="68.083402774" lon="13.164024988">
		<tag k="name" v="Mølnelva" />
		<tag k="ssr:stedsnr" v="960811" />
		<tag k="waterway" v="stream" />
	</node>
	<node id="-188303" lat="68.0126055591" lon="13.0674555493">
		<tag k="name" v="Laukvikvatnet" />
		<tag k="natural" v="water" />
		<tag k="ssr:stedsnr" v="745049" />
	</node>
	<node id="-187788" lat="68.07302778" lon="13.3949749976">
		<tag k="name" v="Ørnheivatnet" />
		<tag k="natural" v="water" />
		<tag k="ssr:stedsnr" v="899606" />
	</node>
	<node id="-187787" lat="68.0446638848" lon="13.2682166743">
		<tag k="name" v="Åfarelva" />
		<tag k="ssr:stedsnr" v="899455" />
		<tag k="waterway" v="stream" />
	</node>
	<node id="-188295" lat="68.0982888888" lon="13.3999666548">
		<tag k="name" v="Heggurelva" />
		<tag k="ssr:stedsnr" v="643756" />
		<tag k="waterway" v="stream" />
	</node>
	<node id="-188294" lat="68.1273194487" lon="13.3860222246">
		<tag k="name" v="Skarelva" />
		<tag k="ssr:stedsnr" v="627010" />
		<tag k="waterway" v="river" />
	</node>
	<node id="-187775" lat="68.0923861125" lon="13.1484360994">
		<tag k="name" v="Sandelva" />
		<tag k="ssr:stedsnr" v="866207" />
		<tag k="waterway" v="river" />
	</node>
	<node id="-188281" lat="68.0618055583" lon="13.3274472195">
		<tag k="alt_name" v="Bjørnvatnet" />
		<tag k="name" v="Bjønnvatnet" />
		<tag k="natural" v="water" />
		<tag k="ssr:stedsnr" v="623771" />
	</node>
	<node id="-188279" lat="68.0710055554" lon="13.3275361221">
		<tag k="name" v="Bøvatnet" />
		<tag k="natural" v="water" />
		<tag k="ssr:stedsnr" v="623748" />
	</node>
	<node id="-187765" lat="68.1322388864" lon="13.3787333445">
		<tag k="name" v="Mørkedalselva" />
		<tag k="ssr:stedsnr" v="810018" />
		<tag k="waterway" v="river" />
	</node>
	<node id="-188274" lat="68.0657361108" lon="13.3817555521">
		<tag k="name" v="Vassvikvatnet" />
		<tag k="natural" v="water" />
		<tag k="ssr:stedsnr" v="623706" />
	</node>
	<node id="-188437" lat="68.1558666669" lon="13.3254916702">
		<tag k="fixme" v="multiple name tags, choose one and add the other to alt_name" />
		<tag k="name" v="Krykkjevatnet;Møntindvatnet" />
>>>>>>> e1d4bc35ff8a6074a6f2e91616a996b547c36f15
		<tag k="natural" v="water" />
		<tag k="ssr:stedsnr" v="502528" />
	</node>
<<<<<<< HEAD
	<node lat="68.12207499763784" lon="13.372458342373646" id="-10267">
		<tag k="alt_name" v="Vareidvatnet" />
		<tag k="name" v="Storvatnet" />
		<tag k="natural" v="water" />
		<tag k="ssr:stedsnr" v="502872" />
	</node>
	<node lat="68.11855555744759" lon="13.39725555759893" id="-10270">
		<tag k="name" v="Rennevatnet" />
=======
	<node id="-187758" lat="68.1516749992" lon="13.3562111211">
		<tag k="name" v="Buskvatnet" />
>>>>>>> e1d4bc35ff8a6074a6f2e91616a996b547c36f15
		<tag k="natural" v="water" />
		<tag k="ssr:stedsnr" v="927970" />
	</node>
<<<<<<< HEAD
	<node lat="68.10327499995172" lon="13.1082472230215" id="-10280">
		<tag k="name" v="Stokkvikelva" />
		<tag k="ssr:stedsnr" v="684240" />
		<tag k="waterway" v="stream" />
	</node>
	<node lat="68.1547638855831" lon="13.350911111542445" id="-10287">
		<tag k="name" v="Litlvatnet" />
		<tag k="natural" v="water" />
		<tag k="ssr:stedsnr" v="684956" />
	</node>
	<node lat="68.01886944456344" lon="13.147769443382074" id="-10315">
		<tag k="name" v="Bjønnskarelva" />
		<tag k="ssr:stedsnr" v="595154" />
		<tag k="waterway" v="stream" />
	</node>
	<node lat="68.0657361108236" lon="13.381755552064986" id="-10330">
		<tag k="name" v="Vassvikvatnet" />
		<tag k="natural" v="water" />
		<tag k="ssr:stedsnr" v="623706" />
	</node>
	<node lat="68.1273194486795" lon="13.386022224605059" id="-10337">
		<tag k="name" v="Skarelva" />
		<tag k="ssr:stedsnr" v="627010" />
		<tag k="waterway" v="river" />
	</node>
	<node lat="68.01029722285567" lon="13.216908340687727" id="-10342">
		<tag k="name" v="Mannvatnet" />
		<tag k="natural" v="water" />
		<tag k="ssr:stedsnr" v="655900" />
	</node>
	<node lat="68.1030666640379" lon="13.296052782692863" id="-10346">
		<tag k="name" v="Kjerkegårdstjønna" />
		<tag k="natural" v="water" />
		<tag k="ssr:stedsnr" v="656225" />
	</node>
	<node lat="68.03668055325332" lon="13.152272217561439" id="-10351">
		<tag k="alt_name" v="Tennvatnan" />
		<tag k="name" v="Ternvatna" />
		<tag k="natural" v="water" />
		<tag k="ssr:stedsnr" v="684016" />
	</node>
	<node lat="68.03270277714157" lon="13.3299499922834" id="-10365">
		<tag k="name" v="Eliasvatnet" />
		<tag k="natural" v="water" />
		<tag k="ssr:stedsnr" v="685546" />
	</node>
	<node lat="68.03996389363024" lon="13.058716658083242" id="-10382">
		<tag k="name" v="Stormarkdalselva" />
		<tag k="ssr:stedsnr" v="716712" />
		<tag k="waterway" v="stream" />
	</node>
	<node lat="68.10258610828929" lon="13.257549993237745" id="-10386">
		<tag k="name" v="Jarbruelva" />
		<tag k="ssr:stedsnr" v="717223" />
		<tag k="waterway" v="stream" />
	</node>
	<node lat="68.12617222052518" lon="13.349861120519051" id="-10390">
		<tag k="name" v="Trolldalsvatnet" />
		<tag k="natural" v="water" />
		<tag k="ssr:stedsnr" v="717308" />
	</node>
	<node lat="68.04466388481208" lon="13.268216674260714" id="-10400">
		<tag k="name" v="Åfarelva" />
		<tag k="ssr:stedsnr" v="899455" />
		<tag k="waterway" v="stream" />
	</node>
	<node lat="68.08968333438139" lon="13.120177789787286" id="-10407">
		<tag k="name" v="Drukkendalsvatnet" />
		<tag k="natural" v="water" />
		<tag k="ssr:stedsnr" v="899875" />
	</node>
	<node lat="68.06200277720767" lon="13.08436110705191" id="-10412">
		<tag k="name" v="Ågotvatnet" />
		<tag k="natural" v="water" />
		<tag k="ssr:stedsnr" v="745015" />
	</node>
	<node lat="68.06993889191945" lon="13.08037778154439" id="-10431">
		<tag k="name" v="Lomstjønna" />
		<tag k="natural" v="water" />
		<tag k="ssr:stedsnr" v="777714" />
	</node>
	<node lat="68.084538889118" lon="13.397338883528553" id="-10440">
		<tag k="name" v="Tjønnen" />
		<tag k="natural" v="water" />
		<tag k="ssr:stedsnr" v="825712" />
	</node>
	<node lat="68.07302777997445" lon="13.394974997584681" id="-10477">
		<tag k="name" v="Ørnheivatnet" />
		<tag k="natural" v="water" />
		<tag k="ssr:stedsnr" v="899606" />
	</node>
	<node lat="68.15167499916282" lon="13.356211121051508" id="-10498">
		<tag k="name" v="Buskvatnet" />
		<tag k="natural" v="water" />
		<tag k="ssr:stedsnr" v="927970" />
	</node>
	<node lat="68.11212500297731" lon="13.413033345503605" id="-10499">
		<tag k="name" v="Litlrennla" />
		<tag k="ssr:stedsnr" v="927864" />
		<tag k="waterway" v="stream" />
	</node>
	<node lat="68.11540278025942" lon="13.35237221241348" id="-10500">
		<tag k="name" v="Litlvatnet" />
		<tag k="natural" v="water" />
		<tag k="ssr:stedsnr" v="927866" />
	</node>
	<node lat="68.02163333694662" lon="13.266902783732728" id="-10507">
		<tag k="name" v="Skjelelva" />
		<tag k="ssr:stedsnr" v="959107" />
		<tag k="waterway" v="stream" />
	</node>
	<node lat="68.15006388539763" lon="13.36467501091999" id="-10516">
		<tag k="name" v="Trolldalsvatnet" />
		<tag k="natural" v="water" />
		<tag k="ssr:stedsnr" v="960444" />
	</node>
	<node lat="68.08340277403035" lon="13.164024987990137" id="-10518">
		<tag k="name" v="Mølnelva" />
		<tag k="ssr:stedsnr" v="960811" />
		<tag k="waterway" v="stream" />
	</node>
	<node lat="68.03657221935659" lon="13.333941659918537" id="-10534">
		<tag k="alt_name" v="Mellavatnet" />
		<tag k="name" v="Mellomvatnet" />
		<tag k="natural" v="water" />
		<tag k="ssr:stedsnr" v="17546" />
	</node>
	<node lat="68.06105833185546" lon="13.304647220142812" id="-10544">
		<tag k="fixme" v="multiple name tags, choose one and add the other to alt_name" />
		<tag k="name" v="Tindvatnet;Tennvatnet" />
		<tag k="natural" v="water" />
		<tag k="ssr:stedsnr" v="17776" />
	</node>
	<node lat="68.03265277897549" lon="13.179477771446598" id="-10550">
		<tag k="name" v="Fløvatnet" />
		<tag k="natural" v="water" />
		<tag k="ssr:stedsnr" v="49183" />
	</node>
	<node lat="68.16390555219131" lon="13.35510277943683" id="-10555">
		<tag k="name" v="Hornelva" />
		<tag k="ssr:stedsnr" v="48116" />
		<tag k="waterway" v="stream" />
	</node>
	<node lat="68.01100278244022" lon="13.20384721545569" id="-10560">
		<tag k="name" v="Bulivatnet" />
		<tag k="natural" v="water" />
		<tag k="ssr:stedsnr" v="48928" />
		<tag k="water" v="lake" />
	</node>
	<node lat="68.0073500023102" lon="13.151202778969314" id="-10562">
		<tag k="name" v="Lomtjønna" />
		<tag k="natural" v="water" />
		<tag k="ssr:stedsnr" v="48932" />
	</node>
	<node lat="68.07746111546139" lon="13.373294438782793" id="-10567">
		<tag k="name" v="Ølkona" />
		<tag k="ssr:stedsnr" v="49599" />
		<tag k="waterway" v="stream" />
	</node>
	<node lat="67.97074999749837" lon="13.168058337254774" id="-10570">
		<tag k="name" v="Ølkonvatnet" />
		<tag k="natural" v="water" />
		<tag k="ssr:stedsnr" v="49957" />
		<tag k="water" v="lake" />
	</node>
	<node lat="68.1224555597437" lon="13.368613888650405" id="-10580">
		<tag k="name" v="Vasskroken" />
		<tag k="natural" v="bay" />
		<tag k="ssr:stedsnr" v="50292" />
	</node>
	<node lat="68.13140555107923" lon="13.3666027866963" id="-10593">
		<tag k="alt_name" v="Mørkedalsvatnet" />
		<tag k="name" v="Mørkdalsvatnet" />
		<tag k="natural" v="water" />
		<tag k="ssr:stedsnr" v="77775" />
	</node>
	<node lat="68.07610555606767" lon="13.374269432617666" id="-10595">
		<tag k="alt_name" v="Ølkona" />
		<tag k="name" v="Ølkonvatnet" />
		<tag k="natural" v="water" />
		<tag k="ssr:stedsnr" v="77730" />
	</node>
	<node lat="68.03353333365705" lon="13.146125008252383" id="-10606">
		<tag k="name" v="Nesvatnet" />
		<tag k="natural" v="water" />
		<tag k="ssr:stedsnr" v="102844" />
	</node>
	<node lat="68.11763889107073" lon="13.36098888567583" id="-10615">
		<tag k="name" v="Storurelva" />
		<tag k="ssr:stedsnr" v="110228" />
		<tag k="waterway" v="river" />
	</node>
	<node lat="68.04179722387937" lon="13.180250006702318" id="-10618">
		<tag k="name" v="Breiskarvatnet" />
		<tag k="natural" v="water" />
		<tag k="ssr:stedsnr" v="110461" />
		<tag k="water" v="lake" />
	</node>
	<node lat="68.02066388830168" lon="13.045044436943488" id="-10631">
		<tag k="name" v="Fageråvatnet" />
		<tag k="natural" v="water" />
		<tag k="ssr:stedsnr" v="138052" />
	</node>
	<node lat="67.9950805543526" lon="13.141736114109522" id="-10640">
		<tag k="name" v="Fjøsdalskroken" />
		<tag k="natural" v="bay" />
		<tag k="ssr:stedsnr" v="138436" />
	</node>
	<node lat="68.09959166610552" lon="13.259897212553282" id="-10645">
		<tag k="name" v="Vassdalsvatnet" />
		<tag k="natural" v="water" />
		<tag k="ssr:stedsnr" v="138831" />
	</node>
	<node lat="68.03632777923374" lon="13.18081110448477" id="-10659">
		<tag k="name" v="Mølnelva" />
		<tag k="ssr:stedsnr" v="170444" />
		<tag k="waterway" v="stream" />
	</node>
	<node lat="68.07575278187778" lon="13.285841671353731" id="-10665">
		<tag k="name" v="Nonsdalselva" />
		<tag k="ssr:stedsnr" v="170654" />
		<tag k="waterway" v="stream" />
	</node>
	<node lat="68.13311666581843" lon="13.35754721047424" id="-10671">
		<tag k="name" v="Staurdalsvatnet" />
		<tag k="natural" v="water" />
		<tag k="ssr:stedsnr" v="171296" />
	</node>
	<node lat="68.03616389228719" lon="13.3414194483577" id="-10684">
		<tag k="name" v="Nervatnet" />
		<tag k="natural" v="water" />
		<tag k="ssr:stedsnr" v="199541" />
	</node>
	<node lat="68.07257499912141" lon="13.238536117801893" id="-10686">
		<tag k="fixme" v="multiple name tags, choose one and add the other to alt_name" />
		<tag k="name" v="Spengervatnet;Spengern" />
		<tag k="natural" v="water" />
		<tag k="ssr:stedsnr" v="199739" />
	</node>
	<node lat="68.09352500266425" lon="13.304458333829423" id="-10690">
		<tag k="name" v="Lomtjørna" />
		<tag k="natural" v="water" />
		<tag k="ssr:stedsnr" v="199695" />
	</node>
	<node lat="68.09740833532977" lon="13.416647226230829" id="-10695">
		<tag k="name" v="Sivtjønna" />
		<tag k="natural" v="water" />
		<tag k="ssr:stedsnr" v="219741" />
	</node>
	<node lat="68.08029444394087" lon="13.291730565528594" id="-10703">
		<tag k="name" v="Litlroselva" />
		<tag k="ssr:stedsnr" v="291771" />
		<tag k="waterway" v="stream" />
	</node>
	<node lat="68.00234722206712" lon="13.154233328711687" id="-10704">
		<tag k="name" v="Litlvatnet" />
		<tag k="natural" v="water" />
		<tag k="ssr:stedsnr" v="291907" />
	</node>
	<node lat="67.99820833229657" lon="13.074172231983338" id="-10705">
		<tag k="name" v="Forsandodden" />
		<tag k="natural" v="cape" />
		<tag k="ssr:stedsnr" v="291918" />
	</node>
	<node lat="68.07734444797427" lon="13.129491660964906" id="-10718">
		<tag k="name" v="Tverrdalselva" />
		<tag k="ssr:stedsnr" v="292660" />
		<tag k="waterway" v="stream" />
	</node>
	<node lat="68.05820000135806" lon="13.384747230015103" id="-10760">
		<tag k="name" v="Tjønnen" />
		<tag k="natural" v="water" />
		<tag k="ssr:stedsnr" v="352577" />
	</node>
	<node lat="68.07002499911007" lon="13.23368334113097" id="-10762">
		<tag k="name" v="Spengerelva" />
		<tag k="ssr:stedsnr" v="352639" />
		<tag k="waterway" v="stream" />
	</node>
	<node lat="68.07126388547016" lon="13.115294434992158" id="-10764">
		<tag k="name" v="Moltindselva" />
		<tag k="ssr:stedsnr" v="352649" />
		<tag k="waterway" v="stream" />
	</node>
	<node lat="68.00068055779718" lon="13.152708322653783" id="-10768">
		<tag k="name" v="Mølnkroken" />
		<tag k="natural" v="bay" />
		<tag k="ssr:stedsnr" v="352890" />
	</node>
	<node lat="68.07073055256365" lon="13.075547228288283" id="-10777">
		<tag k="fixme" v="multiple name tags, choose one and add the other to alt_name" />
		<tag k="name" v="Kvalvikvatnet;Vestervikvatnet" />
		<tag k="natural" v="water" />
		<tag k="ssr:stedsnr" v="380233" />
	</node>
	<node lat="68.14264722162326" lon="13.343502786077725" id="-10801">
		<tag k="alt_name" v="Gauktindsvatnet" />
		<tag k="name" v="Gauktindvatnet" />
		<tag k="natural" v="water" />
		<tag k="ssr:stedsnr" v="381954" />
	</node>
	<node lat="68.08406944328463" lon="13.290877784790066" id="-10806">
		<tag k="name" v="Mølnelva" />
		<tag k="ssr:stedsnr" v="412732" />
		<tag k="waterway" v="stream" />
	</node>
	<node lat="68.06116944446131" lon="13.22795000720162" id="-10822">
		<tag k="name" v="Mølnelva" />
		<tag k="ssr:stedsnr" v="413676" />
		<tag k="waterway" v="stream" />
	</node>
	<node lat="68.01870277336414" lon="13.154994453730877" id="-10837">
		<tag k="name" v="Rusvatnet" />
		<tag k="natural" v="water" />
		<tag k="ssr:stedsnr" v="442061" />
	</node>
	<node lat="67.98451388736675" lon="13.140236099876189" id="-10839">
		<tag k="name" v="Svartvatnet" />
		<tag k="natural" v="water" />
		<tag k="ssr:stedsnr" v="442448" />
	</node>
	<node lat="68.01508610966907" lon="13.294574992244328" id="-10851">
		<tag k="name" v="Vassdalsvatnet" />
		<tag k="natural" v="water" />
		<tag k="ssr:stedsnr" v="502506" />
	</node>
	<node lat="68.06919999674612" lon="13.244644453775278" id="-10854">
		<tag k="alt_name" v="Storurda" />
		<tag k="name" v="Storura" />
		<tag k="place" v="locality" />
		<tag k="ssr:stedsnr" v="502765" />
	</node>
	<node lat="68.11394722142312" lon="13.419813878790206" id="-10858">
=======
	<node id="-188268" lat="67.9943305579" lon="13.0604833426">
		<tag k="fixme" v="multiple name tags, choose one and add the other to alt_name" />
		<tag k="name" v="Forssanden;Forsskroken" />
		<tag k="natural" v="bay" />
		<tag k="ssr:stedsnr" v="623448" />
	</node>
	<node id="-187749" lat="68.1154027803" lon="13.3523722124">
		<tag k="name" v="Litlvatnet" />
		<tag k="natural" v="water" />
		<tag k="ssr:stedsnr" v="927866" />
	</node>
	<node id="-187748" lat="68.112125003" lon="13.4130333455">
		<tag k="name" v="Litlrennla" />
		<tag k="ssr:stedsnr" v="927864" />
		<tag k="waterway" v="stream" />
	</node>
	<node id="-188256" lat="68.0641361121" lon="13.2061555465">
		<tag k="name" v="Geitedalsvatnet" />
		<tag k="natural" v="water" />
		<tag k="ssr:stedsnr" v="595607" />
		<tag k="water" v="lake" />
	</node>
	<node id="-188252" lat="68.0408888917" lon="13.1501666589">
		<tag k="name" v="Tennelva" />
		<tag k="ssr:stedsnr" v="595360" />
		<tag k="waterway" v="stream" />
	</node>
	<node id="-188249" lat="68.0188694446" lon="13.1477694434">
		<tag k="name" v="Bjønnskarelva" />
		<tag k="ssr:stedsnr" v="595154" />
		<tag k="waterway" v="stream" />
	</node>
	<node id="-188243" lat="68.0196583307" lon="13.0415361093">
		<tag k="name" v="Holmen" />
		<tag k="natural" v="cape" />
		<tag k="ssr:stedsnr" v="594376" />
	</node>
	<node id="-188229" lat="68.0422138892" lon="13.3297527686">
		<tag k="name" v="Heivatnet" />
		<tag k="natural" v="water" />
		<tag k="ssr:stedsnr" v="563513" />
	</node>
	<node id="-187716" lat="68.1024027752" lon="13.2734000093">
		<tag k="name" v="Hombårvatnet" />
		<tag k="natural" v="water" />
		<tag k="ssr:stedsnr" v="778228" />
		<tag k="water" v="lake" />
	</node>
	<node id="-187714" lat="68.0699388919" lon="13.0803777815">
		<tag k="name" v="Lomstjønna" />
		<tag k="natural" v="water" />
		<tag k="ssr:stedsnr" v="777714" />
	</node>
	<node id="-188224" lat="68.1505361123" lon="13.3788055631">
		<tag k="name" v="Storvatnet" />
		<tag k="natural" v="water" />
		<tag k="ssr:stedsnr" v="562952" />
	</node>
	<node id="-187701" lat="68.0620027772" lon="13.0843611071">
		<tag k="name" v="Ågotvatnet" />
		<tag k="natural" v="water" />
		<tag k="ssr:stedsnr" v="745015" />
	</node>
	<node id="-187697" lat="68.0896833344" lon="13.1201777898">
		<tag k="name" v="Drukkendalsvatnet" />
		<tag k="natural" v="water" />
		<tag k="ssr:stedsnr" v="899875" />
	</node>
	<node id="-187869" lat="68.1224555597" lon="13.3686138887">
		<tag k="name" v="Vasskroken" />
		<tag k="natural" v="bay" />
		<tag k="ssr:stedsnr" v="50292" />
	</node>
	<node id="-188204" lat="68.0971499988" lon="13.3918888996">
		<tag k="name" v="Langvatnet" />
		<tag k="natural" v="water" />
		<tag k="ssr:stedsnr" v="535739" />
	</node>
	<node id="-188202" lat="68.0823222263" lon="13.1553166748">
		<tag k="name" v="Børvatnet" />
		<tag k="natural" v="water" />
		<tag k="ssr:stedsnr" v="535825" />
		<tag k="water" v="lake" />
	</node>
	<node id="-187672" lat="68.1025861083" lon="13.2575499932">
		<tag k="name" v="Jarbruelva" />
		<tag k="ssr:stedsnr" v="717223" />
		<tag k="waterway" v="stream" />
	</node>
	<node id="-187668" lat="68.042402778" lon="13.0883805676">
		<tag k="name" v="Hammarteigelva" />
		<tag k="ssr:stedsnr" v="716417" />
		<tag k="waterway" v="stream" />
	</node>
	<node id="-188205" lat="68.0815416629" lon="13.1027194335">
		<tag k="name" v="Forsen" />
		<tag k="natural" v="waterfall" />
		<tag k="ssr:stedsnr" v="535850" />
	</node>
	<node id="-187657" lat="68.103275" lon="13.108247223">
		<tag k="name" v="Stokkvikelva" />
		<tag k="ssr:stedsnr" v="684240" />
		<tag k="waterway" v="stream" />
	</node>
	<node id="-188162" lat="68.0611694445" lon="13.2279500072">
		<tag k="name" v="Mølnelva" />
		<tag k="ssr:stedsnr" v="413676" />
		<tag k="waterway" v="stream" />
	</node>
	<node id="-188459" lat="68.0216333369" lon="13.2669027837">
		<tag k="name" v="Skjelelva" />
		<tag k="ssr:stedsnr" v="959107" />
		<tag k="waterway" v="stream" />
	</node>
	<node id="-187648" lat="68.0366805533" lon="13.1522722176">
		<tag k="alt_name" v="Tennvatnan" />
		<tag k="name" v="Ternvatna" />
		<tag k="natural" v="water" />
		<tag k="ssr:stedsnr" v="684016" />
	</node>
	<node id="-188158" lat="68.056799996" lon="13.1416083244">
		<tag k="name" v="Krystadvatnet" />
		<tag k="natural" v="water" />
		<tag k="ssr:stedsnr" v="413648" />
		<tag k="water" v="lake" />
	</node>
	<node id="-188156" lat="68.0645277756" lon="13.3017777801">
		<tag k="name" v="Svartvasselva" />
		<tag k="ssr:stedsnr" v="413589" />
		<tag k="waterway" v="river" />
	</node>
	<node id="-187641" lat="68.1638055576" lon="13.3680833456">
		<tag k="name" v="Brattforsen" />
		<tag k="natural" v="waterfall" />
		<tag k="ssr:stedsnr" v="656066" />
	</node>
	<node id="-187635" lat="68.0406388921" lon="13.3414833423">
		<tag k="name" v="Lomtjønna" />
		<tag k="natural" v="water" />
		<tag k="ssr:stedsnr" v="655465" />
	</node>
	<node id="-188143" lat="68.0840694433" lon="13.2908777848">
		<tag k="name" v="Mølnelva" />
		<tag k="ssr:stedsnr" v="412732" />
		<tag k="waterway" v="stream" />
	</node>
	<node id="-187626" lat="68.0489750011" lon="13.3541777668">
		<tag k="name" v="Pollen" />
		<tag k="natural" v="water" />
		<tag k="ssr:stedsnr" v="717521" />
	</node>
	<node id="-187622" lat="68.1261722205" lon="13.3498611205">
		<tag k="name" v="Trolldalsvatnet" />
		<tag k="natural" v="water" />
		<tag k="ssr:stedsnr" v="717308" />
	</node>
	<node id="-188132" lat="68.1426472216" lon="13.3435027861">
		<tag k="alt_name" v="Gauktindsvatnet" />
		<tag k="name" v="Gauktindvatnet" />
		<tag k="natural" v="water" />
		<tag k="ssr:stedsnr" v="381954" />
	</node>
	<node id="-187613" lat="68.0033472204" lon="13.1610944338">
		<tag k="name" v="Mølnelva" />
		<tag k="ssr:stedsnr" v="716891" />
		<tag k="waterway" v="stream" />
	</node>
	<node id="-187612" lat="68.0399638936" lon="13.0587166581">
		<tag k="name" v="Stormarkdalselva" />
		<tag k="ssr:stedsnr" v="716712" />
		<tag k="waterway" v="stream" />
	</node>
	<node id="-188120" lat="68.0546888886" lon="13.3273666721">
		<tag k="name" v="Storvatnet" />
		<tag k="natural" v="water" />
		<tag k="ssr:stedsnr" v="381726" />
		<tag k="water" v="lake" />
	</node>
	<node id="-187605" lat="68.0216972199" lon="13.156138894">
		<tag k="name" v="Fløvatnet" />
		<tag k="natural" v="water" />
		<tag k="ssr:stedsnr" v="716193" />
		<tag k="water" v="lake" />
	</node>
	<node id="-187596" lat="68.0935527814" lon="13.1330777834">
		<tag k="fixme" v="multiple name tags, choose one and add the other to alt_name" />
		<tag k="name" v="Dalelva;Møllelva" />
		<tag k="ssr:stedsnr" v="562210" />
		<tag k="waterway" v="stream" />
	</node>
	<node id="-188099" lat="68.0707305526" lon="13.0755472283">
		<tag k="fixme" v="multiple name tags, choose one and add the other to alt_name" />
		<tag k="name" v="Kvalvikvatnet;Vestervikvatnet" />
		<tag k="natural" v="water" />
		<tag k="ssr:stedsnr" v="380233" />
	</node>
	<node id="-187586" lat="68.0327027771" lon="13.3299499923">
		<tag k="name" v="Eliasvatnet" />
		<tag k="natural" v="water" />
		<tag k="ssr:stedsnr" v="685546" />
	</node>
	<node id="-187581" lat="68.1547638856" lon="13.3509111115">
		<tag k="name" v="Litlvatnet" />
		<tag k="natural" v="water" />
		<tag k="ssr:stedsnr" v="684956" />
	</node>
	<node id="-188078" lat="68.0006805578" lon="13.1527083227">
		<tag k="name" v="Mølnkroken" />
		<tag k="natural" v="bay" />
		<tag k="ssr:stedsnr" v="352890" />
	</node>
	<node id="-187564" lat="68.0150861097" lon="13.2945749922">
		<tag k="name" v="Vassdalsvatnet" />
		<tag k="natural" v="water" />
		<tag k="ssr:stedsnr" v="502506" />
	</node>
	<node id="-188075" lat="68.0712638855" lon="13.115294435">
		<tag k="name" v="Moltindselva" />
		<tag k="ssr:stedsnr" v="352649" />
		<tag k="waterway" v="stream" />
	</node>
	<node id="-188073" lat="68.0700249991" lon="13.2336833411">
		<tag k="name" v="Spengerelva" />
		<tag k="ssr:stedsnr" v="352639" />
		<tag k="waterway" v="stream" />
	</node>
	<node id="-188071" lat="68.0582000014" lon="13.38474723">
		<tag k="name" v="Tjønnen" />
		<tag k="natural" v="water" />
		<tag k="ssr:stedsnr" v="352577" />
	</node>
	<node id="-188070" lat="68.0586527824" lon="13.3083277681">
		<tag k="name" v="Tennvasselva" />
		<tag k="ssr:stedsnr" v="352558" />
		<tag k="waterway" v="river" />
	</node>
	<node id="-187553" lat="68.0871027821" lon="13.3471250002">
		<tag k="name" v="Klokkarelva" />
		<tag k="ssr:stedsnr" v="656786" />
		<tag k="waterway" v="stream" />
	</node>
	<node id="-188430" lat="68.0668999981" lon="13.235927777">
		<tag k="name" v="Skjelfjordeidet" />
		<tag k="natural" v="strait" />
		<tag k="ssr:stedsnr" v="866725" />
	</node>
	<node id="-187549" lat="68.103066664" lon="13.2960527827">
		<tag k="name" v="Kjerkegårdstjønna" />
		<tag k="natural" v="water" />
		<tag k="ssr:stedsnr" v="656225" />
	</node>
	<node id="-187545" lat="68.0102972229" lon="13.2169083407">
		<tag k="name" v="Mannvatnet" />
		<tag k="natural" v="water" />
		<tag k="ssr:stedsnr" v="655900" />
	</node>
	<node id="-187587" lat="68.0302694475" lon="13.1881972326">
		<tag k="name" v="Mørkvedelva" />
		<tag k="ssr:stedsnr" v="534156" />
		<tag k="waterway" v="stream" />
	</node>
	<node id="-187534" lat="68.1509944465" lon="13.3423583384">
		<tag k="name" v="Øvredalsvatnet" />
		<tag k="natural" v="water" />
		<tag k="ssr:stedsnr" v="502945" />
	</node>
	<node id="-187531" lat="68.1185555574" lon="13.3972555576">
		<tag k="name" v="Rennevatnet" />
		<tag k="natural" v="water" />
		<tag k="ssr:stedsnr" v="502881" />
	</node>
	<node id="-188042" lat="68.0697916632" lon="13.3356305531">
		<tag k="alt_name" v="Rishågelva" />
		<tag k="name" v="Rishaugelva" />
		<tag k="ssr:stedsnr" v="320683" />
		<tag k="waterway" v="stream" />
	</node>
	<node id="-187528" lat="68.1220749976" lon="13.3724583424">
		<tag k="alt_name" v="Vareidvatnet" />
		<tag k="name" v="Storvatnet" />
		<tag k="natural" v="water" />
		<tag k="ssr:stedsnr" v="502872" />
	</node>
	<node id="-187527" lat="68.1139472214" lon="13.4198138788">
>>>>>>> e1d4bc35ff8a6074a6f2e91616a996b547c36f15
		<tag k="name" v="Rennla" />
		<tag k="ssr:stedsnr" v="502850" />
		<tag k="waterway" v="stream" />
	</node>
<<<<<<< HEAD
	<node lat="68.15099444648996" lon="13.34235833839784" id="-10860">
		<tag k="name" v="Øvredalsvatnet" />
		<tag k="natural" v="water" />
		<tag k="ssr:stedsnr" v="502945" />
	</node>
	<node lat="68.03026944754437" lon="13.188197232558306" id="-10868">
		<tag k="name" v="Mørkvedelva" />
		<tag k="ssr:stedsnr" v="534156" />
		<tag k="waterway" v="stream" />
	</node>
	<node lat="68.09714999881221" lon="13.391888899571445" id="-10883">
		<tag k="name" v="Langvatnet" />
		<tag k="natural" v="water" />
		<tag k="ssr:stedsnr" v="535739" />
	</node>
	<node lat="68.08232222631487" lon="13.15531667481098" id="-10884">
		<tag k="name" v="Børvatnet" />
		<tag k="natural" v="water" />
		<tag k="ssr:stedsnr" v="535825" />
		<tag k="water" v="lake" />
	</node>
	<node lat="68.08154166287291" lon="13.102719433497517" id="-10886">
		<tag k="name" v="Forsen" />
		<tag k="natural" v="waterfall" />
		<tag k="ssr:stedsnr" v="535850" />
	</node>
	<node lat="68.09355278137218" lon="13.133077783403207" id="-10898">
		<tag k="fixme" v="multiple name tags, choose one and add the other to alt_name" />
		<tag k="name" v="Møllelva;Dalelva" />
		<tag k="ssr:stedsnr" v="562210" />
		<tag k="waterway" v="stream" />
	</node>
	<node lat="68.1505361122838" lon="13.378805563109449" id="-10909">
		<tag k="name" v="Storvatnet" />
		<tag k="natural" v="water" />
		<tag k="ssr:stedsnr" v="562952" />
	</node>
	<node lat="68.04221388916248" lon="13.329752768557594" id="-10912">
		<tag k="name" v="Heivatnet" />
		<tag k="natural" v="water" />
		<tag k="ssr:stedsnr" v="563513" />
	</node>
	<node lat="68.01965833065938" lon="13.041536109299665" id="-10921">
		<tag k="name" v="Holmen" />
		<tag k="natural" v="cape" />
		<tag k="ssr:stedsnr" v="594376" />
	</node>
	<node lat="68.04088889174106" lon="13.150166658921517" id="-10927">
		<tag k="name" v="Tennelva" />
		<tag k="ssr:stedsnr" v="595360" />
		<tag k="waterway" v="stream" />
	</node>
	<node lat="68.06413611207898" lon="13.206155546503883" id="-10930">
		<tag k="name" v="Geitedalsvatnet" />
		<tag k="natural" v="water" />
		<tag k="ssr:stedsnr" v="595607" />
		<tag k="water" v="lake" />
	</node>
	<node lat="68.06180555827629" lon="13.327447219533134" id="-10938">
		<tag k="alt_name" v="Bjørnvatnet" />
		<tag k="name" v="Bjønnvatnet" />
		<tag k="natural" v="water" />
		<tag k="ssr:stedsnr" v="623771" />
	</node>
	<node lat="68.07100555544007" lon="13.327536122083185" id="-10944">
		<tag k="name" v="Bøvatnet" />
		<tag k="natural" v="water" />
		<tag k="ssr:stedsnr" v="623748" />
	</node>
	<node lat="67.99433055786685" lon="13.060483342551397" id="-10946">
		<tag k="fixme" v="multiple name tags, choose one and add the other to alt_name" />
		<tag k="name" v="Forssanden;Forsskroken" />
		<tag k="natural" v="bay" />
		<tag k="ssr:stedsnr" v="623448" />
	</node>
	<node lat="68.09828888879969" lon="13.399966654840437" id="-10953">
		<tag k="name" v="Heggurelva" />
		<tag k="ssr:stedsnr" v="643756" />
		<tag k="waterway" v="stream" />
	</node>
	<node lat="68.04063889205328" lon="13.341483342337783" id="-10957">
		<tag k="name" v="Lomtjønna" />
		<tag k="natural" v="water" />
		<tag k="ssr:stedsnr" v="655465" />
	</node>
	<node lat="68.08710278214907" lon="13.347125000177225" id="-10960">
		<tag k="name" v="Klokkarelva" />
		<tag k="ssr:stedsnr" v="656786" />
		<tag k="waterway" v="stream" />
	</node>
	<node lat="68.16380555761172" lon="13.368083345557208" id="-10965">
		<tag k="name" v="Brattforsen" />
		<tag k="natural" v="waterfall" />
		<tag k="ssr:stedsnr" v="656066" />
	</node>
	<node lat="68.02169721993543" lon="13.156138894025615" id="-10976">
		<tag k="name" v="Fløvatnet" />
		<tag k="natural" v="water" />
		<tag k="ssr:stedsnr" v="716193" />
		<tag k="water" v="lake" />
	</node>
	<node lat="68.04240277804413" lon="13.088380567585412" id="-10979">
		<tag k="name" v="Hammarteigelva" />
		<tag k="ssr:stedsnr" v="716417" />
		<tag k="waterway" v="stream" />
	</node>
	<node lat="68.00334722036709" lon="13.161094433767332" id="-10982">
		<tag k="name" v="Mølnelva" />
		<tag k="ssr:stedsnr" v="716891" />
		<tag k="waterway" v="stream" />
	</node>
	<node lat="68.04897500114426" lon="13.354177766755031" id="-10988">
		<tag k="name" v="Pollen" />
		<tag k="natural" v="water" />
		<tag k="ssr:stedsnr" v="717521" />
	</node>
	<node lat="68.01260555914617" lon="13.067455549303903" id="-10998">
		<tag k="name" v="Laukvikvatnet" />
=======
	<node id="-187329" lat="68.0524027794" lon="13.3529027744">
		<tag k="name" v="Åltjønna" />
		<tag k="natural" v="water" />
		<tag k="ssr:stedsnr" v="232448" />
	</node>
	<node id="-187524" lat="68.0347305532" lon="13.3257916678">
		<tag k="alt_name" v="Øvervatnet" />
		<tag k="name" v="Øvrevatnet" />
		<tag k="natural" v="water" />
		<tag k="ssr:stedsnr" v="502528" />
	</node>
	<node id="-187523" lat="68.0691999967" lon="13.2446444538">
		<tag k="alt_name" v="Storurda" />
		<tag k="name" v="Storura" />
		<tag k="natural" v="strait" />
		<tag k="ssr:stedsnr" v="502765" />
	</node>
	<node id="-187413" lat="67.9981583332" lon="13.1308861221">
		<tag k="name" v="Bjørknesvatnet" />
		<tag k="natural" v="water" />
		<tag k="ssr:stedsnr" v="292914" />
		<tag k="water" v="lake" />
	</node>
	<node id="-187474" lat="68.0023472221" lon="13.1542333287">
		<tag k="name" v="Litlvatnet" />
		<tag k="natural" v="water" />
		<tag k="ssr:stedsnr" v="291907" />
	</node>
	<node id="-188023" lat="68.0294527771" lon="13.0462861086">
		<tag k="name" v="Fageråa" />
		<tag k="ssr:stedsnr" v="320015" />
		<tag k="waterway" v="stream" />
	</node>
	<node id="-187509" lat="68.0942055539" lon="13.1247666656">
		<tag k="name" v="Dalvatnet" />
		<tag k="natural" v="water" />
		<tag k="ssr:stedsnr" v="474955" />
	</node>
	<node id="-188019" lat="68.0542055567" lon="13.1059055652">
		<tag k="name" v="Markvatnet" />
		<tag k="natural" v="water" />
		<tag k="ssr:stedsnr" v="320002" />
	</node>
	<node id="-188017" lat="68.1379555578" lon="13.3983583286">
		<tag k="name" v="Myrlandselva" />
		<tag k="ssr:stedsnr" v="203015" />
		<tag k="waterway" v="stream" />
	</node>
	<node id="-188014" lat="68.1588666625" lon="13.3673777751">
		<tag k="alt_name" v="Sevtjørna" />
		<tag k="name" v="Sevtjønna" />
		<tag k="natural" v="water" />
		<tag k="ssr:stedsnr" v="199960" />
	</node>
	<node id="-187499" lat="68.1135472207" lon="13.3549333227">
		<tag k="name" v="Mølnelva" />
		<tag k="ssr:stedsnr" v="474236" />
		<tag k="waterway" v="stream" />
	</node>
	<node id="-188009" lat="68.0935250027" lon="13.3044583338">
		<tag k="name" v="Lomtjørna" />
		<tag k="natural" v="water" />
		<tag k="ssr:stedsnr" v="199695" />
	</node>
	<node id="-188006" lat="68.0685055529" lon="13.2877388861">
		<tag k="name" v="Svartvatnet" />
		<tag k="natural" v="water" />
		<tag k="ssr:stedsnr" v="199767" />
	</node>
	<node id="-188002" lat="68.0361638923" lon="13.3414194484">
		<tag k="name" v="Nervatnet" />
		<tag k="natural" v="water" />
		<tag k="ssr:stedsnr" v="199541" />
	</node>
	<node id="-187485" lat="68.0239083311" lon="13.1329388924">
		<tag k="alt_name" v="Kalsteindalselva" />
		<tag k="name" v="Kalsteindalselv" />
		<tag k="ssr:stedsnr" v="473384" />
		<tag k="waterway" v="stream" />
	</node>
	<node id="-187407" lat="68.0773388925" lon="13.1587861034">
		<tag k="name" v="Lomstjønna" />
		<tag k="natural" v="water" />
		<tag k="ssr:stedsnr" v="292679" />
	</node>
	<node id="-187475" lat="67.9982083323" lon="13.074172232">
		<tag k="name" v="Forsandodden" />
		<tag k="natural" v="cape" />
		<tag k="ssr:stedsnr" v="291918" />
	</node>
	<node id="-187986" lat="68.1331166658" lon="13.3575472105">
		<tag k="name" v="Staurdalsvatnet" />
>>>>>>> e1d4bc35ff8a6074a6f2e91616a996b547c36f15
		<tag k="natural" v="water" />
		<tag k="ssr:stedsnr" v="171296" />
	</node>
<<<<<<< HEAD
	<node lat="68.10231389015154" lon="13.239802789871217" id="-11006">
		<tag k="name" v="Lomtjønna" />
		<tag k="natural" v="water" />
		<tag k="ssr:stedsnr" v="745848" />
	</node>
	<node lat="68.06545277483214" lon="13.19991943956259" id="-11024">
		<tag k="name" v="Geitelva" />
		<tag k="ssr:stedsnr" v="777635" />
		<tag k="waterway" v="stream" />
	</node>
	<node lat="68.0584833371583" lon="13.152627772830598" id="-11029">
		<tag k="name" v="Mølnelva" />
		<tag k="ssr:stedsnr" v="777645" />
		<tag k="waterway" v="stream" />
	</node>
	<node lat="68.1024027751928" lon="13.273400009265888" id="-11035">
		<tag k="name" v="Hombårvatnet" />
		<tag k="natural" v="water" />
		<tag k="ssr:stedsnr" v="778228" />
		<tag k="water" v="lake" />
	</node>
	<node lat="68.08228889026822" lon="13.112008333851213" id="-11057">
		<tag k="name" v="Forsvatnet" />
		<tag k="natural" v="water" />
		<tag k="ssr:stedsnr" v="806267" />
	</node>
	<node lat="67.97237222212406" lon="13.165233324538924" id="-11059">
		<tag k="name" v="Ølkona" />
		<tag k="ssr:stedsnr" v="806442" />
		<tag k="waterway" v="stream" />
	</node>
	<node lat="68.1595888912219" lon="13.348650006682595" id="-11077">
		<tag k="name" v="Hornvatnet" />
		<tag k="natural" v="water" />
		<tag k="ssr:stedsnr" v="806953" />
	</node>
	<node lat="68.13223888644167" lon="13.378733344486308" id="-11079">
		<tag k="name" v="Mørkedalselva" />
		<tag k="ssr:stedsnr" v="810018" />
		<tag k="waterway" v="river" />
	</node>
	<node lat="68.10052499957382" lon="13.306802782594882" id="-11085">
		<tag k="name" v="Middagselva" />
		<tag k="ssr:stedsnr" v="837249" />
		<tag k="waterway" v="stream" />
	</node>
	<node lat="68.0105638860511" lon="13.16258055516152" id="-11088">
		<tag k="name" v="Rakelvatnet" />
		<tag k="natural" v="water" />
		<tag k="ssr:stedsnr" v="838924" />
		<tag k="water" v="lake" />
	</node>
	<node lat="67.98221388807889" lon="13.057572221640665" id="-11105">
		<tag k="name" v="Forsan" />
		<tag k="natural" v="waterfall" />
		<tag k="ssr:stedsnr" v="838982" />
	</node>
	<node lat="68.0297527792027" lon="13.216038887927862" id="-11114">
		<tag k="name" v="Stjerndalsvatnet" />
		<tag k="natural" v="water" />
		<tag k="ssr:stedsnr" v="866015" />
	</node>
	<node lat="68.09238611245391" lon="13.148436099385023" id="-11121">
		<tag k="name" v="Sandelva" />
		<tag k="ssr:stedsnr" v="866207" />
		<tag k="waterway" v="river" />
	</node>
	<node lat="68.06702499720927" lon="13.339269435086278" id="-11128">
		<tag k="name" v="Himmelvatnet" />
		<tag k="natural" v="water" />
		<tag k="ssr:stedsnr" v="866734" />
	</node>
	<node lat="68.06689999805317" lon="13.235927776987994" id="-11132">
		<tag k="name" v="Skjelfjordeidet" />
		<tag k="place" v="locality" />
		<tag k="ssr:stedsnr" v="866725" />
	</node>
	<node lat="68.15586666690668" lon="13.325491670206748" id="-11136">
		<tag k="fixme" v="multiple name tags, choose one and add the other to alt_name" />
		<tag k="name" v="Krykkjevatnet;Møntindvatnet" />
		<tag k="natural" v="water" />
		<tag k="ssr:stedsnr" v="866963" />
	</node>
	<node lat="68.00256944582648" lon="13.145144443406636" id="-11141">
		<tag k="name" v="Solbjørnvatnet" />
		<tag k="natural" v="water" />
		<tag k="ssr:stedsnr" v="867451" />
		<tag k="water" v="lake" />
	</node>
	<node lat="68.08676666686581" lon="13.276463889698167" id="-11143">
		<tag k="name" v="Molelva" />
		<tag k="ssr:stedsnr" v="867650" />
		<tag k="waterway" v="stream" />
	</node>
	<node lat="68.14291666593179" lon="13.393574997063945" id="-11147">
		<tag k="alt_name" v="Skardvatnet" />
		<tag k="name" v="Skarvatnet" />
		<tag k="natural" v="water" />
		<tag k="ssr:stedsnr" v="867815" />
	</node>
	<node lat="68.10295555209537" lon="13.34574444456039" id="-11151">
		<tag k="name" v="Kvanndalselva" />
		<tag k="ssr:stedsnr" v="958128" />
		<tag k="waterway" v="stream" />
	</node>
	<node lat="68.06098888647946" lon="13.099852786999026" id="-11164">
		<tag k="name" v="Høydalselva" />
		<tag k="ssr:stedsnr" v="959662" />
		<tag k="waterway" v="stream" />
=======
	<node id="-187490" lat="68.0671777747" lon="13.3906388982">
		<tag k="name" v="Tjønna" />
		<tag k="natural" v="water" />
		<tag k="ssr:stedsnr" v="473578" />
	</node>
	<node id="-187975" lat="68.0757527819" lon="13.2858416714">
		<tag k="name" v="Nonsdalselva" />
		<tag k="ssr:stedsnr" v="170654" />
		<tag k="waterway" v="stream" />
	</node>
	<node id="-187971" lat="68.0750305512" lon="13.352552775">
		<tag k="name" v="Grønleikelva" />
		<tag k="ssr:stedsnr" v="170577" />
		<tag k="waterway" v="stream" />
	</node>
	<node id="-187969" lat="68.0486805544" lon="13.1149916648">
		<tag k="name" v="Markelva" />
		<tag k="ssr:stedsnr" v="170562" />
		<tag k="waterway" v="river" />
	</node>
	<node id="-188480" lat="68.1500638854" lon="13.3646750109">
		<tag k="name" v="Trolldalsvatnet" />
		<tag k="natural" v="water" />
		<tag k="ssr:stedsnr" v="960444" />
	</node>
	<node id="-188473" lat="68.0609888865" lon="13.099852787">
		<tag k="name" v="Høydalselva" />
		<tag k="ssr:stedsnr" v="959662" />
		<tag k="waterway" v="stream" />
	</node>
	<node id="-187446" lat="67.9845138874" lon="13.1402360999">
		<tag k="name" v="Svartvatnet" />
		<tag k="natural" v="water" />
		<tag k="ssr:stedsnr" v="442448" />
	</node>
	<node id="-187443" lat="68.0187027734" lon="13.1549944537">
		<tag k="name" v="Rusvatnet" />
		<tag k="natural" v="water" />
		<tag k="ssr:stedsnr" v="442061" />
	</node>
	<node id="-187948" lat="68.0995916661" lon="13.2598972126">
		<tag k="name" v="Vassdalsvatnet" />
		<tag k="natural" v="water" />
		<tag k="ssr:stedsnr" v="138831" />
	</node>
	<node id="-187947" lat="68.0711055538" lon="13.3731583246">
		<tag k="alt_name" v="Straumsøyvatnet" />
		<tag k="name" v="Straumøyvatnet" />
		<tag k="natural" v="water" />
		<tag k="ssr:stedsnr" v="138741" />
	</node>
	<node id="-187945" lat="67.9950805544" lon="13.1417361141">
		<tag k="name" v="Fjøsdalskroken" />
		<tag k="natural" v="bay" />
		<tag k="ssr:stedsnr" v="138436" />
	</node>
	<node id="-188455" lat="68.1029555521" lon="13.3457444446">
		<tag k="name" v="Kvanndalselva" />
		<tag k="ssr:stedsnr" v="958128" />
		<tag k="waterway" v="stream" />
	</node>
	<node id="-187942" lat="68.0206638883" lon="13.0450444369">
		<tag k="name" v="Fageråvatnet" />
		<tag k="natural" v="water" />
		<tag k="ssr:stedsnr" v="138052" />
	</node>
	<node id="-187428" lat="68.0725749991" lon="13.2385361178">
		<tag k="fixme" v="multiple name tags, choose one and add the other to alt_name" />
		<tag k="name" v="Spengern;Spengervatnet" />
		<tag k="natural" v="water" />
		<tag k="ssr:stedsnr" v="199739" />
	</node>
	<node id="-188446" lat="68.1429166659" lon="13.3935749971">
		<tag k="alt_name" v="Skardvatnet" />
		<tag k="name" v="Skarvatnet" />
		<tag k="natural" v="water" />
		<tag k="ssr:stedsnr" v="867815" />
	</node>
	<node id="-188443" lat="68.0867666669" lon="13.2764638897">
		<tag k="name" v="Molelva" />
		<tag k="ssr:stedsnr" v="867650" />
		<tag k="waterway" v="stream" />
	</node>
	<node id="-188441" lat="68.0025694458" lon="13.1451444434">
		<tag k="name" v="Solbjørnvatnet" />
		<tag k="natural" v="water" />
		<tag k="ssr:stedsnr" v="867451" />
		<tag k="water" v="lake" />
	</node>
	<node id="-187415" lat="68.0200277753" lon="13.3096194361">
		<tag k="name" v="Vedvikvatnet" />
		<tag k="natural" v="water" />
		<tag k="ssr:stedsnr" v="292922" />
		<tag k="water" v="lake" />
	</node>
	<node id="-187925" lat="68.0980361076" lon="13.3831305612">
		<tag k="name" v="Storvatnet" />
		<tag k="natural" v="water" />
		<tag k="ssr:stedsnr" v="110769" />
		<tag k="water" v="lake" />
	</node>
	<node id="-188432" lat="68.0670249972" lon="13.3392694351">
		<tag k="name" v="Himmelvatnet" />
		<tag k="natural" v="water" />
		<tag k="ssr:stedsnr" v="866734" />
	</node>
	<node id="-187919" lat="68.0417972239" lon="13.1802500067">
		<tag k="name" v="Breiskarvatnet" />
		<tag k="natural" v="water" />
		<tag k="ssr:stedsnr" v="110461" />
		<tag k="water" v="lake" />
	</node>
	<node id="-187406" lat="68.077344448" lon="13.129491661">
		<tag k="name" v="Tverrdalselva" />
		<tag k="ssr:stedsnr" v="292660" />
		<tag k="waterway" v="stream" />
	</node>
	<node id="-187913" lat="68.1176388911" lon="13.3609888857">
		<tag k="name" v="Storurelva" />
		<tag k="ssr:stedsnr" v="110228" />
		<tag k="waterway" v="river" />
	</node>
	<node id="-188421" lat="68.0297527792" lon="13.2160388879">
		<tag k="name" v="Stjerndalsvatnet" />
		<tag k="natural" v="water" />
		<tag k="ssr:stedsnr" v="866015" />
	</node>
	<node id="-187905" lat="68.0335333337" lon="13.1461250083">
		<tag k="name" v="Nesvatnet" />
		<tag k="natural" v="water" />
		<tag k="ssr:stedsnr" v="102844" />
>>>>>>> e1d4bc35ff8a6074a6f2e91616a996b547c36f15
	</node>
</osm>
