<?xml version="1.0" encoding="UTF-8"?>
<osm version="0.6" generator="osmapis">
	<node id="135637288" lat="62.9735828" lon="8.726186" version="11" timestamp="2022-08-02T15:29:44Z" changeset="124397377" uid="3497659" user="NKA">
		<tag k="alt_name" v="Surnadal" />
		<tag k="name" v="Skei" />
		<tag k="place" v="village" />
		<tag k="population" v="2556" />
		<tag k="population:date" v="2021-01-01" />
		<tag k="ref:ssb_tettsted" v="6291" />
		<tag k="source:population" v="SSB - befolkning i tettstedet" />
		<tag k="ssr:stedsnr" v="901944" />
	</node>
	<node id="203208711" lat="62.9928014" lon="8.9366657" version="4" timestamp="2022-08-02T15:29:44Z" changeset="124397377" uid="3497659" user="NKA">
		<tag k="alt_name" v="Vindøla" />
		<tag k="name" v="Røv" />
		<tag k="place" v="hamlet" />
		<tag k="ssr:stedsnr" v="376868" />
	</node>
	<node id="203208725" lat="62.9756044" lon="8.7649006" version="4" timestamp="2022-08-02T15:29:44Z" changeset="124397377" uid="3497659" user="NKA">
		<tag k="name" v="Ranes" />
		<tag k="place" v="hamlet" />
		<tag k="ssr:stedsnr" v="376450" />
	</node>
	<node id="203208739" lat="62.9807312" lon="8.7165339" version="3" timestamp="2022-08-02T15:29:44Z" changeset="124397377" uid="3497659" user="NKA">
		<tag k="name" v="Øye" />
		<tag k="place" v="quarter" />
		<tag k="ssr:stedsnr" v="328502" />
	</node>
	<node id="203218627" lat="63.0246081" lon="8.5923386" version="2" timestamp="2022-08-02T15:29:44Z" changeset="124397377" uid="3497659" user="NKA">
		<tag k="name" v="Bøverfjorden" />
		<tag k="place" v="village" />
		<tag k="ssr:stedsnr" v="740834" />
	</node>
	<node id="203218632" lat="63.0199221" lon="8.3821014" version="2" timestamp="2022-08-02T15:29:44Z" changeset="124397377" uid="3497659" user="NKA">
		<tag k="name" v="Settem" />
		<tag k="place" v="farm" />
		<tag k="ssr:stedsnr" v="376859" />
	</node>
	<node id="203218637" lat="63.0217155" lon="8.3580333" version="3" timestamp="2022-08-02T15:29:44Z" changeset="124397377" uid="3497659" user="NKA">
		<tag k="name" v="Skrøvset" />
		<tag k="place" v="farm" />
		<tag k="ssr:stedsnr" v="315849" />
	</node>
	<node id="253272452" lat="62.9831192" lon="8.4749276" version="2" timestamp="2022-08-02T15:29:44Z" changeset="124397377" uid="3497659" user="NKA">
		<tag k="name" v="Hamnes" />
		<tag k="place" v="farm" />
		<tag k="ssr:stedsnr" v="278920" />
	</node>
	<node id="258674900" lat="62.8900787" lon="8.5270938" version="4" timestamp="2022-08-02T15:29:44Z" changeset="124397377" uid="3497659" user="NKA">
		<tag k="name" v="Kvanne" />
		<tag k="place" v="village" />
		<tag k="ssr:stedsnr" v="12277" />
	</node>
	<node id="258791320" lat="62.9954903" lon="8.8680502" version="4" timestamp="2022-08-02T15:29:44Z" changeset="124397377" uid="3497659" user="NKA">
		<tag k="name" v="Gulla" />
		<tag k="place" v="hamlet" />
		<tag k="ssr:stedsnr" v="133411" />
	</node>
	<node id="263257597" lat="62.9568142" lon="8.4897687" version="3" timestamp="2022-08-02T15:29:44Z" changeset="124397377" uid="3497659" user="NKA">
		<tag k="name" v="Torvika" />
		<tag k="place" v="hamlet" />
		<tag k="ssr:stedsnr" v="740675" />
	</node>
	<node id="263564183" lat="63.0184397" lon="8.4969878" version="2" timestamp="2022-08-02T15:29:44Z" changeset="124397377" uid="3497659" user="NKA">
		<tag k="name" v="Åsskard" />
		<tag k="place" v="hamlet" />
		<tag k="ssr:stedsnr" v="255876" />
	</node>
	<node id="263564184" lat="63.0162787" lon="8.271528" version="3" timestamp="2022-08-02T15:29:44Z" changeset="124397377" uid="3497659" user="NKA">
		<tag k="name" v="Kallset" />
		<tag k="place" v="farm" />
		<tag k="ssr:stedsnr" v="922830" />
	</node>
	<node id="263564186" lat="63.0143137" lon="8.3242163" version="2" timestamp="2022-08-02T15:29:44Z" changeset="124397377" uid="3497659" user="NKA">
		<tag k="name" v="Heggem" />
		<tag k="place" v="hamlet" />
		<tag k="ssr:stedsnr" v="255859" />
	</node>
	<node id="263564188" lat="63.0384429" lon="8.436549" version="3" timestamp="2022-08-02T15:29:44Z" changeset="124397377" uid="3497659" user="NKA">
		<tag k="loc_name" v="Settemsdalen" />
		<tag k="name" v="Settemsdal" />
		<tag k="place" v="hamlet" />
		<tag k="ssr:stedsnr" v="801787" />
	</node>
	<node id="263564194" lat="63.0166656" lon="8.54745" version="3" timestamp="2022-08-02T15:29:44Z" changeset="124397377" uid="3497659" user="NKA">
		<tag k="name" v="Hakstad" />
		<tag k="place" v="farm" />
		<tag k="ssr:stedsnr" v="12837" />
	</node>
	<node id="263700955" lat="63.0101396" lon="8.3059225" version="2" timestamp="2022-08-02T15:29:44Z" changeset="124397377" uid="3497659" user="NKA">
		<tag k="loc_name" v="Heggemsneset" />
		<tag k="name" v="Heggemsnes" />
		<tag k="place" v="farm" />
		<tag k="ssr:stedsnr" v="977511" />
	</node>
	<node id="264098010" lat="62.8756354" lon="8.6199684" version="2" timestamp="2022-08-02T15:29:44Z" changeset="124397377" uid="3497659" user="NKA">
		<tag k="name" v="Nordvik" />
		<tag k="place" v="hamlet" />
		<tag k="ssr:stedsnr" v="316290" />
	</node>
	<node id="264098017" lat="62.8196031" lon="8.7038127" version="2" timestamp="2022-08-02T15:29:44Z" changeset="124397377" uid="3497659" user="NKA">
		<tag k="name" v="Todalen" />
		<tag k="natural" v="valley" />
		<tag k="place" v="village" />
		<tag k="ssr:stedsnr" v="656464" />
	</node>
	<node id="264098030" lat="62.8184019" lon="8.6900001" version="2" timestamp="2022-08-02T15:29:44Z" changeset="124397377" uid="3497659" user="NKA">
		<tag k="name" v="Todalsøra" />
		<tag k="place" v="hamlet" />
		<tag k="ssr:stedsnr" v="558451" />
	</node>
	<node id="264098051" lat="62.9220532" lon="8.6962831" version="2" timestamp="2022-08-02T15:29:44Z" changeset="124397377" uid="3497659" user="NKA">
		<tag k="name" v="Kvennbøen" />
		<tag k="place" v="farm" />
		<tag k="ssr:stedsnr" v="861710" />
	</node>
	<node id="264100998" lat="62.8161238" lon="8.7098897" version="3" timestamp="2022-08-02T15:29:44Z" changeset="124397377" uid="3497659" user="NKA">
		<tag k="name" v="Kvennset" />
		<tag k="place" v="hamlet" />
		<tag k="ssr:stedsnr" v="862409" />
	</node>
	<node id="264100999" lat="62.8179571" lon="8.6886319" version="2" timestamp="2022-08-02T15:29:44Z" changeset="124397377" uid="3497659" user="NKA">
		<tag k="name" v="Hallset" />
		<tag k="place" v="farm" />
		<tag k="ssr:stedsnr" v="12415" />
	</node>
	<node id="296499537" lat="62.9930647" lon="8.3298243" version="2" timestamp="2022-08-02T15:29:44Z" changeset="124397377" uid="3497659" user="NKA">
		<tag k="name" v="Bøkleppen" />
		<tag k="place" v="farm" />
		<tag k="ssr:stedsnr" v="679596" />
	</node>
	<node id="296499546" lat="63.0071597" lon="8.3622222" version="2" timestamp="2022-08-02T15:29:44Z" changeset="124397377" uid="3497659" user="NKA">
		<tag k="name" v="Bølandet" />
		<tag k="place" v="hamlet" />
		<tag k="ssr:stedsnr" v="801818" />
	</node>
	<node id="296499578" lat="62.9735696" lon="8.4011373" version="3" timestamp="2022-08-02T15:29:44Z" changeset="124397377" uid="3497659" user="NKA">
		<tag k="name" v="Flesa" />
		<tag k="place" v="hamlet" />
		<tag k="ssr:stedsnr" v="254637" />
	</node>
	<node id="508454855" lat="62.9183569" lon="8.4604848" version="3" timestamp="2022-08-02T15:29:44Z" changeset="124397377" uid="3497659" user="NKA">
		<tag k="name" v="Stangvik" />
		<tag k="place" v="village" />
		<tag k="ssr:stedsnr" v="557689" />
	</node>
	<node id="508492574" lat="62.94358" lon="8.4262299" version="2" timestamp="2022-08-02T15:29:44Z" changeset="124397377" uid="3497659" user="NKA">
		<tag k="name" v="Brøskjahagan" />
		<tag k="place" v="hamlet" />
		<tag k="ssr:stedsnr" v="618672" />
	</node>
	<node id="599679454" lat="63.0160005" lon="8.5302189" version="2" timestamp="2022-08-02T15:29:44Z" changeset="124397377" uid="3497659" user="NKA">
		<tag k="name" v="Bele" />
		<tag k="place" v="hamlet" />
		<tag k="ssr:stedsnr" v="73839" />
	</node>
	<node id="745958660" lat="62.9705186" lon="8.5052287" version="2" timestamp="2022-08-02T15:29:44Z" changeset="124397377" uid="3497659" user="NKA">
		<tag k="name" v="Årnes" />
		<tag k="place" v="hamlet" />
		<tag k="ssr:stedsnr" v="801644" />
	</node>
	<node id="1324379476" lat="63.0213005" lon="8.3492536" version="2" timestamp="2022-08-02T15:29:44Z" changeset="124397377" uid="3497659" user="NKA">
		<tag k="name" v="Solbakken" />
		<tag k="place" v="farm" />
		<tag k="ssr:stedsnr" v="35856" />
	</node>
	<node id="1372636656" lat="62.9915702" lon="8.8244362" version="2" timestamp="2022-08-02T15:29:44Z" changeset="124397377" uid="3497659" user="NKA">
		<tag k="name" v="Mogstad" />
		<tag k="place" v="hamlet" />
		<tag k="ssr:stedsnr" v="12473" />
	</node>
	<node id="1372636660" lat="63.0100052" lon="8.8454224" version="2" timestamp="2022-08-02T15:29:44Z" changeset="124397377" uid="3497659" user="NKA">
		<tag k="historic" v="shieling" />
		<tag k="name" v="Mogstadsetra" />
		<tag k="place" v="isolated_dwelling" />
		<tag k="ssr:stedsnr" v="297905" />
	</node>
	<node id="1372641722" lat="62.9885426" lon="8.8350421" version="2" timestamp="2022-08-02T15:29:44Z" changeset="124397377" uid="3497659" user="NKA">
		<tag k="name" v="Honnstad" />
		<tag k="place" v="hamlet" />
		<tag k="ssr:stedsnr" v="133427" />
	</node>
	<node id="2485830386" lat="63.0301054" lon="8.8401896" version="2" timestamp="2022-08-02T15:29:44Z" changeset="124397377" uid="3497659" user="NKA">
		<tag k="historic" v="shieling" />
		<tag k="name" v="Telesbøsetra" />
		<tag k="place" v="isolated_dwelling" />
		<tag k="ssr:stedsnr" v="862670" />
	</node>
	<node id="2485835091" lat="63.0370092" lon="8.9018695" version="2" timestamp="2022-08-02T15:29:44Z" changeset="124397377" uid="3497659" user="NKA">
		<tag k="historic" v="shieling" />
		<tag k="name" v="Erkgarden" />
		<tag k="place" v="isolated_dwelling" />
		<tag k="ssr:stedsnr" v="194595" />
	</node>
	<node id="3729646307" lat="62.7799305" lon="8.8843667" version="2" timestamp="2022-08-02T15:29:44Z" changeset="124397377" uid="3497659" user="NKA">
		<tag k="name" v="Myrvang" />
		<tag k="place" v="farm" />
		<tag k="ssr:stedsnr" v="376085" />
	</node>
	<node id="3730335292" lat="63.0422635" lon="8.6556162" version="2" timestamp="2022-08-02T15:29:44Z" changeset="124397377" uid="3497659" user="NKA">
		<tag k="name" v="Seterbøen" />
		<tag k="place" v="hamlet" />
		<tag k="ssr:stedsnr" v="254821" />
	</node>
	<node id="3730335293" lat="63.0512184" lon="8.6393191" version="2" timestamp="2022-08-02T15:29:44Z" changeset="124397377" uid="3497659" user="NKA">
		<tag k="historic" v="shieling" />
		<tag k="name" v="Seterbøsetrin" />
		<tag k="place" v="isolated_dwelling" />
		<tag k="ssr:stedsnr" v="12815" />
	</node>
	<node id="3730374629" lat="63.0640648" lon="8.7518266" version="2" timestamp="2022-08-02T15:29:44Z" changeset="124397377" uid="3497659" user="NKA">
		<tag k="name" v="Myrholten" />
		<tag k="place" v="farm" />
		<tag k="ssr:stedsnr" v="316687" />
	</node>
	<node id="3730374630" lat="63.0825177" lon="8.7503067" version="2" timestamp="2022-08-02T15:29:44Z" changeset="124397377" uid="3497659" user="NKA">
		<tag k="historic" v="shieling" />
		<tag k="name" v="Myrholtsetra" />
		<tag k="place" v="isolated_dwelling" />
		<tag k="ssr:stedsnr" v="619787" />
	</node>
	<node id="3730406652" lat="63.0966149" lon="8.8977677" version="3" timestamp="2022-08-02T15:29:44Z" changeset="124397377" uid="3497659" user="NKA">
		<tag k="name" v="Øygarden" />
		<tag k="place" v="hamlet" />
		<tag k="ssr:stedsnr" v="376765" />
	</node>
	<node id="3730935924" lat="63.0045658" lon="9.0088111" version="2" timestamp="2022-08-02T15:29:44Z" changeset="124397377" uid="3497659" user="NKA">
		<tag k="name" v="Solem" />
		<tag k="place" v="farm" />
		<tag k="ssr:stedsnr" v="255668" />
	</node>
	<node id="3730964125" lat="62.9986809" lon="8.9998008" version="2" timestamp="2022-08-02T15:29:44Z" changeset="124397377" uid="3497659" user="NKA">
		<tag k="name" v="Seterøya" />
		<tag k="place" v="farm" />
		<tag k="ssr:stedsnr" v="497451" />
	</node>
	<node id="3730964126" lat="63.0048739" lon="8.9922092" version="2" timestamp="2022-08-02T15:29:44Z" changeset="124397377" uid="3497659" user="NKA">
		<tag k="name" v="Skjermoen" />
		<tag k="place" v="hamlet" />
		<tag k="ssr:stedsnr" v="809680" />
	</node>
	<node id="4301333393" lat="62.9701424" lon="8.6601507" version="2" timestamp="2022-08-02T15:29:44Z" changeset="124397377" uid="3497659" user="NKA">
		<tag k="name" v="Surnadalsøra" />
		<tag k="place" v="village" />
		<tag k="ssr:stedsnr" v="922654" />
	</node>
	<node id="4326005721" lat="62.9146729" lon="8.8363847" version="2" timestamp="2022-08-02T15:29:44Z" changeset="124397377" uid="3497659" user="NKA">
		<tag k="alt_name" v="Østbøen" />
		<tag k="name" v="Mellingsetra" />
		<tag k="place" v="isolated_dwelling" />
		<tag k="ssr:stedsnr" v="619049" />
	</node>
	<node id="4326005722" lat="62.9127362" lon="8.8352676" version="2" timestamp="2022-08-02T15:29:44Z" changeset="124397377" uid="3497659" user="NKA">
		<tag k="name" v="Vassendsetra" />
		<tag k="place" v="isolated_dwelling" />
		<tag k="ssr:stedsnr" v="497018" />
	</node>
	<node id="5165050778" lat="62.8337634" lon="8.7127287" version="2" timestamp="2022-08-02T15:29:44Z" changeset="124397377" uid="3497659" user="NKA">
		<tag k="alt_name" v="Todalshaugsetra" />
		<tag k="name" v="Todalshaugsetra" />
		<tag k="place" v="isolated_dwelling" />
		<tag k="ssr:stedsnr" v="801311" />
	</node>
	<node id="5602969042" lat="63.0175056" lon="8.3294345" version="2" timestamp="2022-08-02T15:29:44Z" changeset="124397377" uid="3497659" user="NKA">
		<tag k="name" v="Dragset" />
		<tag k="place" v="hamlet" />
		<tag k="ssr:stedsnr" v="801802" />
	</node>
	<node id="5607489658" lat="62.993008" lon="8.8367899" version="2" timestamp="2022-01-26T07:34:57Z" changeset="116611763" uid="3497659" user="NKA">
		<tag k="junction" v="yes" />
		<tag k="name" v="Korsen" />
		<tag k="ssr:stedsnr" v="824031" />
	</node>
	<node id="6214191491" lat="63.0167077" lon="9.0750046" version="3" timestamp="2022-08-02T15:29:44Z" changeset="124397377" uid="3497659" user="NKA">
		<tag k="alt_name" v="Øvre Surnadal" />
		<tag k="name" v="Sande" />
		<tag k="place" v="hamlet" />
		<tag k="ssr:stedsnr" v="619678" />
	</node>
	<node id="6216710676" lat="63.0199759" lon="8.365019" version="2" timestamp="2022-08-02T15:29:44Z" changeset="124397377" uid="3497659" user="NKA">
		<tag k="name" v="Bøfjorden" />
		<tag k="place" v="hamlet" />
		<tag k="ssr:stedsnr" v="595943" />
	</node>
	<node id="7985335307" lat="62.9900094" lon="8.6361355" version="3" timestamp="2022-08-02T15:29:44Z" changeset="124397377" uid="3497659" user="NKA">
		<tag k="name" v="Glærem" />
		<tag k="place" v="village" />
		<tag k="population" v="252" />
		<tag k="population:date" v="2021-01-01" />
		<tag k="ref:ssb_tettsted" v="6292" />
		<tag k="source:population" v="SSB - befolkning i tettstedet" />
		<tag k="ssr:stedsnr" v="52899" />
	</node>
	<node id="9927323303" lat="63.0170333" lon="8.3830851" version="1" timestamp="2022-08-02T15:29:44Z" changeset="124397377" uid="3497659" user="NKA">
		<tag k="name" v="Settemsøran" />
		<tag k="place" v="village" />
		<tag k="ssr:stedsnr" v="801817" />
	</node>
	<node id="9927323304" lat="62.9906055" lon="8.9261331" version="1" timestamp="2022-08-02T15:29:44Z" changeset="124397377" uid="3497659" user="NKA">
		<tag k="alt_name" v="Høgmo bustadfelt" />
		<tag k="name" v="Høgmoen bustadfelt" />
		<tag k="place" v="neighbourhood" />
		<tag k="ssr:stedsnr" v="484159" />
	</node>
	<node id="9927323305" lat="62.8121167" lon="8.8185333" version="1" timestamp="2022-08-02T15:29:44Z" changeset="124397377" uid="3497659" user="NKA">
		<tag k="name" v="Pestusetra" />
		<tag k="place" v="isolated_dwelling" />
		<tag k="ssr:stedsnr" v="216269" />
	</node>
	<node id="9927323306" lat="62.9847723" lon="8.7365221" version="1" timestamp="2022-08-02T15:29:44Z" changeset="124397377" uid="3497659" user="NKA">
		<tag k="name" v="Oppestua Bergem" />
		<tag k="place" v="farm" />
		<tag k="ssr:stedsnr" v="204873" />
	</node>
	<node id="9927323307" lat="62.7816681" lon="8.8461918" version="1" timestamp="2022-08-02T15:29:44Z" changeset="124397377" uid="3497659" user="NKA">
		<tag k="name" v="Kokkhuset" />
		<tag k="place" v="isolated_dwelling" />
		<tag k="ssr:stedsnr" v="156263" />
	</node>
	<node id="9927323308" lat="62.9811388" lon="8.6734916" version="1" timestamp="2022-08-02T15:29:44Z" changeset="124397377" uid="3497659" user="NKA">
		<tag k="name" v="Nytrøa" />
		<tag k="place" v="farm" />
		<tag k="ssr:stedsnr" v="375632" />
	</node>
	<node id="9927323309" lat="62.9949306" lon="8.6883" version="1" timestamp="2022-08-02T15:29:44Z" changeset="124397377" uid="3497659" user="NKA">
		<tag k="name" v="Råa" />
		<tag k="place" v="farm" />
		<tag k="ssr:stedsnr" v="84007" />
	</node>
	<node id="9927323310" lat="62.9840549" lon="8.795743" version="1" timestamp="2022-08-02T15:29:44Z" changeset="124397377" uid="3497659" user="NKA">
		<tag k="name" v="Krangnes" />
		<tag k="place" v="farm" />
		<tag k="ssr:stedsnr" v="680535" />
	</node>
	<node id="9927323311" lat="62.98618" lon="8.7662766" version="1" timestamp="2022-08-02T15:29:44Z" changeset="124397377" uid="3497659" user="NKA">
		<tag k="name" v="Telstad" />
		<tag k="place" v="hamlet" />
		<tag k="ssr:stedsnr" v="680529" />
	</node>
	<node id="9927323312" lat="62.8124052" lon="8.819725" version="1" timestamp="2022-08-02T15:29:44Z" changeset="124397377" uid="3497659" user="NKA">
		<tag k="name" v="Ytre Halasetrin" />
		<tag k="place" v="isolated_dwelling" />
		<tag k="ssr:stedsnr" v="862084" />
	</node>
	<node id="9927323313" lat="63.010725" lon="8.5279" version="1" timestamp="2022-08-02T15:29:44Z" changeset="124397377" uid="3497659" user="NKA">
		<tag k="name" v="Sjøheim" />
		<tag k="place" v="farm" />
		<tag k="ssr:stedsnr" v="12835" />
	</node>
	<node id="9927323314" lat="62.9039334" lon="8.5827667" version="1" timestamp="2022-08-02T15:29:44Z" changeset="124397377" uid="3497659" user="NKA">
		<tag k="name" v="Steinbergsbakkan" />
		<tag k="place" v="farm" />
		<tag k="ssr:stedsnr" v="762093" />
	</node>
	<node id="9927323315" lat="63.0255166" lon="8.3432027" version="1" timestamp="2022-08-02T15:29:44Z" changeset="124397377" uid="3497659" user="NKA">
		<tag k="name" v="Faksvågen hyttefelt" />
		<tag k="place" v="neighbourhood" />
		<tag k="ssr:stedsnr" v="483312" />
	</node>
	<node id="9927323316" lat="62.8126778" lon="8.8204333" version="1" timestamp="2022-08-02T15:29:44Z" changeset="124397377" uid="3497659" user="NKA">
		<tag k="name" v="Ramsøysetra" />
		<tag k="place" v="isolated_dwelling" />
		<tag k="ssr:stedsnr" v="459290" />
	</node>
	<node id="9927361717" lat="62.8194145" lon="8.656258" version="1" timestamp="2022-08-02T15:29:44Z" changeset="124397377" uid="3497659" user="NKA">
		<tag k="historic" v="shieling" />
		<tag k="name" v="Ansnessetra" />
		<tag k="place" v="isolated_dwelling" />
		<tag k="ssr:stedsnr" v="558457" />
	</node>
	<node id="9927361718" lat="62.8385695" lon="8.6960584" version="1" timestamp="2022-08-02T15:29:44Z" changeset="124397377" uid="3497659" user="NKA">
		<tag k="name" v="Innerløa" />
		<tag k="place" v="locality" />
		<tag k="ssr:stedsnr" v="460147" />
	</node>
	<node id="9927361719" lat="62.9392722" lon="8.8173416" version="1" timestamp="2022-08-02T15:29:44Z" changeset="124397377" uid="3497659" user="NKA">
		<tag k="name" v="Gammelseterdalen" />
		<tag k="place" v="isolated_dwelling" />
		<tag k="ssr:stedsnr" v="315029" />
	</node>
	<node id="9927361720" lat="62.9028028" lon="8.5471501" version="1" timestamp="2022-08-02T15:29:44Z" changeset="124397377" uid="3497659" user="NKA">
		<tag k="name" v="Røøya" />
		<tag k="place" v="farm" />
		<tag k="ssr:stedsnr" v="801299" />
	</node>
	<node id="9927361721" lat="63.025887" lon="8.4006146" version="1" timestamp="2022-08-02T15:29:44Z" changeset="124397377" uid="3497659" user="NKA">
		<tag k="name" v="Bytengen" />
		<tag k="place" v="farm" />
		<tag k="ssr:stedsnr" v="217757" />
	</node>
	<node id="9927361722" lat="63.0636778" lon="8.4890166" version="1" timestamp="2022-08-02T15:29:44Z" changeset="124397377" uid="3497659" user="NKA">
		<tag k="name" v="Tundra" />
		<tag k="place" v="locality" />
		<tag k="ssr:stedsnr" v="862924" />
	</node>
	<node id="9927361723" lat="62.8786403" lon="8.6144677" version="1" timestamp="2022-08-02T15:29:44Z" changeset="124397377" uid="3497659" user="NKA">
		<tag k="name" v="Plassen" />
		<tag k="place" v="farm" />
		<tag k="ssr:stedsnr" v="156824" />
	</node>
	<node id="9927361724" lat="62.8833179" lon="8.6038321" version="1" timestamp="2022-08-02T15:29:44Z" changeset="124397377" uid="3497659" user="NKA">
		<tag k="name" v="Åsbøhagan" />
		<tag k="place" v="farm" />
		<tag k="ssr:stedsnr" v="801244" />
	</node>
	<node id="9927361725" lat="62.9040139" lon="8.5962805" version="1" timestamp="2022-08-02T15:29:44Z" changeset="124397377" uid="3497659" user="NKA">
		<tag k="alt_name" v="Melhus indre" />
		<tag k="name" v="Indre Melhus" />
		<tag k="place" v="farm" />
		<tag k="ssr:stedsnr" v="763828" />
	</node>
	<node id="9927361726" lat="62.8254778" lon="8.6702916" version="1" timestamp="2022-08-02T15:29:44Z" changeset="124397377" uid="3497659" user="NKA">
		<tag k="name" v="Hyllneset" />
		<tag k="place" v="farm" />
		<tag k="ssr:stedsnr" v="680465" />
	</node>
	<node id="9927361727" lat="62.8581773" lon="8.6845898" version="1" timestamp="2022-08-02T15:29:44Z" changeset="124397377" uid="3497659" user="NKA">
		<tag k="name" v="Botnløa" />
		<tag k="place" v="locality" />
		<tag k="ssr:stedsnr" v="35108" />
	</node>
	<node id="9927361728" lat="62.8890969" lon="8.533511" version="1" timestamp="2022-08-02T15:29:44Z" changeset="124397377" uid="3497659" user="NKA">
		<tag k="name" v="Leitet" />
		<tag k="place" v="farm" />
		<tag k="ssr:stedsnr" v="581837" />
	</node>
	<node id="9927361729" lat="63.0214695" lon="9.0758749" version="1" timestamp="2022-08-02T15:29:44Z" changeset="124397377" uid="3497659" user="NKA">
		<tag k="name" v="Grytneset" />
		<tag k="place" v="farm" />
		<tag k="ssr:stedsnr" v="945828" />
	</node>
	<node id="9927361730" lat="62.9084583" lon="8.5310417" version="1" timestamp="2022-08-02T15:29:44Z" changeset="124397377" uid="3497659" user="NKA">
		<tag k="name" v="Vang" />
		<tag k="place" v="farm" />
		<tag k="ssr:stedsnr" v="618273" />
	</node>
	<node id="9927361731" lat="63.0483427" lon="9.0638402" version="1" timestamp="2022-08-02T15:29:44Z" changeset="124397377" uid="3497659" user="NKA">
		<tag k="name" v="Gammelsetra" />
		<tag k="place" v="isolated_dwelling" />
		<tag k="ssr:stedsnr" v="581861" />
	</node>
	<node id="9927361732" lat="63.0317752" lon="9.0972243" version="1" timestamp="2022-08-02T15:29:44Z" changeset="124397377" uid="3497659" user="NKA">
		<tag k="name" v="Ner Dalsegga" />
		<tag k="place" v="farm" />
		<tag k="ssr:stedsnr" v="459688" />
	</node>
	<node id="9927361733" lat="62.9834" lon="8.7099779" version="1" timestamp="2022-08-02T15:29:44Z" changeset="124397377" uid="3497659" user="NKA">
		<tag k="name" v="Øyagardsgeilen" />
		<tag k="place" v="farm" />
		<tag k="ssr:stedsnr" v="933075" />
	</node>
	<node id="9927361734" lat="63.0568167" lon="9.089475" version="1" timestamp="2022-08-02T15:29:44Z" changeset="124397377" uid="3497659" user="NKA">
		<tag k="name" v="Gammelsetra" />
		<tag k="place" v="locality" />
		<tag k="ssr:stedsnr" v="277739" />
	</node>
	<node id="9927361735" lat="62.8897655" lon="8.5505009" version="1" timestamp="2022-08-02T15:29:44Z" changeset="124397377" uid="3497659" user="NKA">
		<tag k="name" v="Fagerøya" />
		<tag k="place" v="farm" />
		<tag k="ssr:stedsnr" v="581832" />
	</node>
	<node id="9927361736" lat="63.0639666" lon="8.8345084" version="1" timestamp="2022-08-02T15:29:44Z" changeset="124397377" uid="3497659" user="NKA">
		<tag k="historic" v="shieling" />
		<tag k="name" v="Bergemsetra" />
		<tag k="place" v="isolated_dwelling" />
		<tag k="ssr:stedsnr" v="338849" />
	</node>
	<node id="9927361737" lat="62.8412027" lon="8.6472611" version="1" timestamp="2022-08-02T15:29:44Z" changeset="124397377" uid="3497659" user="NKA">
		<tag k="name" v="Gjengstøa" />
		<tag k="place" v="farm" />
		<tag k="ssr:stedsnr" v="922312" />
	</node>
	<node id="9927361738" lat="62.8701195" lon="8.6587001" version="1" timestamp="2022-08-02T15:29:44Z" changeset="124397377" uid="3497659" user="NKA">
		<tag k="historic" v="shieling" />
		<tag k="name" v="Nordviksetra" />
		<tag k="place" v="isolated_dwelling" />
		<tag k="ssr:stedsnr" v="437273" />
	</node>
	<node id="9927361739" lat="63.0283682" lon="9.0929466" version="1" timestamp="2022-08-02T15:29:44Z" changeset="124397377" uid="3497659" user="NKA">
		<tag k="name" v="Slettvoll" />
		<tag k="place" v="farm" />
		<tag k="ssr:stedsnr" v="459703" />
	</node>
	<node id="9927361740" lat="62.859878" lon="8.6410719" version="1" timestamp="2022-08-02T15:29:44Z" changeset="124397377" uid="3497659" user="NKA">
		<tag k="historic" v="shieling" />
		<tag k="name" v="Gammelsetra" />
		<tag k="place" v="isolated_dwelling" />
		<tag k="ssr:stedsnr" v="884412" />
	</node>
	<node id="9927361741" lat="62.9061838" lon="8.594834" version="1" timestamp="2022-08-02T15:29:44Z" changeset="124397377" uid="3497659" user="NKA">
		<tag k="alt_name" v="Stenberg indre" />
		<tag k="name" v="Indre Stenberg" />
		<tag k="place" v="farm" />
		<tag k="ssr:stedsnr" v="338829" />
	</node>
	<node id="9927361742" lat="62.9272556" lon="8.4755001" version="1" timestamp="2022-08-02T15:29:44Z" changeset="124397377" uid="3497659" user="NKA">
		<tag k="name" v="Nistusetra" />
		<tag k="place" v="locality" />
		<tag k="ssr:stedsnr" v="133717" />
	</node>
	<node id="9927361743" lat="62.9178319" lon="8.6528048" version="1" timestamp="2022-08-02T15:29:44Z" changeset="124397377" uid="3497659" user="NKA">
		<tag k="name" v="Tretta" />
		<tag k="place" v="farm" />
		<tag k="ssr:stedsnr" v="194728" />
	</node>
	<node id="9927361744" lat="62.927425" lon="8.4502001" version="1" timestamp="2022-08-02T15:29:44Z" changeset="124397377" uid="3497659" user="NKA">
		<tag k="name" v="Rønnan" />
		<tag k="place" v="farm" />
		<tag k="ssr:stedsnr" v="96817" />
	</node>
	<node id="9927361745" lat="62.9832722" lon="8.7406528" version="1" timestamp="2022-08-02T15:29:44Z" changeset="124397377" uid="3497659" user="NKA">
		<tag k="name" v="Bergheim" />
		<tag k="place" v="farm" />
		<tag k="ssr:stedsnr" v="316901" />
	</node>
	<node id="9927361746" lat="62.8897254" lon="8.5262981" version="1" timestamp="2022-08-02T15:29:44Z" changeset="124397377" uid="3497659" user="NKA">
		<tag k="name" v="Pestua" />
		<tag k="place" v="farm" />
		<tag k="ssr:stedsnr" v="96815" />
	</node>
	<node id="9927361747" lat="62.9975289" lon="8.9076828" version="1" timestamp="2022-08-02T15:29:44Z" changeset="124397377" uid="3497659" user="NKA">
		<tag k="name" v="Svean" />
		<tag k="place" v="hamlet" />
		<tag k="ssr:stedsnr" v="316528" />
	</node>
	<node id="9927361748" lat="63.0083805" lon="8.4157056" version="1" timestamp="2022-08-02T15:29:44Z" changeset="124397377" uid="3497659" user="NKA">
		<tag k="name" v="Osen" />
		<tag k="place" v="isolated_dwelling" />
		<tag k="ssr:stedsnr" v="338841" />
	</node>
	<node id="9927361749" lat="63.0273333" lon="9.1082467" version="1" timestamp="2022-08-02T15:29:44Z" changeset="124397377" uid="3497659" user="NKA">
		<tag k="name" v="Ormset" />
		<tag k="place" v="farm" />
		<tag k="ssr:stedsnr" v="520873" />
	</node>
	<node id="9927361750" lat="62.9165872" lon="8.4611791" version="1" timestamp="2022-08-02T15:29:44Z" changeset="124397377" uid="3497659" user="NKA">
		<tag k="name" v="Stangvik prestegard" />
		<tag k="place" v="farm" />
		<tag k="ssr:stedsnr" v="35851" />
	</node>
	<node id="9927361751" lat="62.9192473" lon="8.4795417" version="1" timestamp="2022-08-02T15:29:44Z" changeset="124397377" uid="3497659" user="NKA">
		<tag k="name" v="Myrledet" />
		<tag k="place" v="farm" />
		<tag k="ssr:stedsnr" v="12730" />
	</node>
	<node id="9927361752" lat="62.8403278" lon="8.6911501" version="1" timestamp="2022-08-02T15:29:44Z" changeset="124397377" uid="3497659" user="NKA">
		<tag k="name" v="Midtløa" />
		<tag k="place" v="locality" />
		<tag k="ssr:stedsnr" v="520103" />
	</node>
	<node id="9927361753" lat="62.9348813" lon="8.4340586" version="1" timestamp="2022-08-02T15:29:44Z" changeset="124397377" uid="3497659" user="NKA">
		<tag k="name" v="Brøskja" />
		<tag k="place" v="hamlet" />
		<tag k="ssr:stedsnr" v="12708" />
	</node>
	<node id="9927361754" lat="62.9301639" lon="8.4437473" version="1" timestamp="2022-08-02T15:29:44Z" changeset="124397377" uid="3497659" user="NKA">
		<tag k="name" v="Geilberget" />
		<tag k="place" v="farm" />
		<tag k="ssr:stedsnr" v="884090" />
	</node>
	<node id="9927361755" lat="62.8920558" lon="8.54851" version="1" timestamp="2022-08-02T15:29:44Z" changeset="124397377" uid="3497659" user="NKA">
		<tag k="name" v="Bakkan" />
		<tag k="place" v="farm" />
		<tag k="ssr:stedsnr" v="641801" />
	</node>
	<node id="9927361756" lat="62.9042806" lon="8.5664333" version="1" timestamp="2022-08-02T15:29:44Z" changeset="124397377" uid="3497659" user="NKA">
		<tag k="name" v="Motrøa" />
		<tag k="place" v="farm" />
		<tag k="ssr:stedsnr" v="618266" />
	</node>
	<node id="9927361757" lat="63.021925" lon="8.4940527" version="1" timestamp="2022-08-02T15:29:44Z" changeset="124397377" uid="3497659" user="NKA">
		<tag k="name" v="Åsskardtrøa" />
		<tag k="place" v="farm" />
		<tag k="ssr:stedsnr" v="133849" />
	</node>
	<node id="9927361758" lat="62.9542473" lon="8.488225" version="1" timestamp="2022-08-02T15:29:44Z" changeset="124397377" uid="3497659" user="NKA">
		<tag k="name" v="Oppigard" />
		<tag k="place" v="farm" />
		<tag k="ssr:stedsnr" v="801670" />
	</node>
	<node id="9927361759" lat="63.0217944" lon="8.467975" version="1" timestamp="2022-08-02T15:29:44Z" changeset="124397377" uid="3497659" user="NKA">
		<tag k="name" v="Setervika" />
		<tag k="place" v="farm" />
		<tag k="ssr:stedsnr" v="133839" />
	</node>
	<node id="9927361760" lat="62.8857752" lon="8.7824361" version="1" timestamp="2022-08-02T15:29:44Z" changeset="124397377" uid="3497659" user="NKA">
		<tag k="historic" v="shieling" />
		<tag k="name" v="Trettsetra" />
		<tag k="place" v="isolated_dwelling" />
		<tag k="ssr:stedsnr" v="194005" />
	</node>
	<node id="9927361761" lat="62.8309388" lon="8.8689389" version="1" timestamp="2022-08-02T15:29:44Z" changeset="124397377" uid="3497659" user="NKA">
		<tag k="name" v="Indre Halasetrin" />
		<tag k="place" v="isolated_dwelling" />
		<tag k="ssr:stedsnr" v="437129" />
	</node>
	<node id="9927361762" lat="62.8965472" lon="8.5584222" version="1" timestamp="2022-08-02T15:29:44Z" changeset="124397377" uid="3497659" user="NKA">
		<tag k="name" v="Åsly" />
		<tag k="place" v="farm" />
		<tag k="ssr:stedsnr" v="557272" />
	</node>
	<node id="9927361763" lat="62.9851167" lon="8.7417528" version="1" timestamp="2022-08-02T15:29:44Z" changeset="124397377" uid="3497659" user="NKA">
		<tag k="name" v="Austestua Bergem" />
		<tag k="place" v="farm" />
		<tag k="ssr:stedsnr" v="811852" />
	</node>
	<node id="9927361764" lat="62.9304334" lon="8.7042888" version="1" timestamp="2022-08-02T15:29:44Z" changeset="124397377" uid="3497659" user="NKA">
		<tag k="name" v="Langhaugen" />
		<tag k="place" v="farm" />
		<tag k="ssr:stedsnr" v="436706" />
	</node>
	<node id="9927361765" lat="62.9655804" lon="8.6067181" version="1" timestamp="2022-08-02T15:29:44Z" changeset="124397377" uid="3497659" user="NKA">
		<tag k="name" v="Karlvika" />
		<tag k="place" v="farm" />
		<tag k="ssr:stedsnr" v="399786" />
	</node>
	<node id="9927361766" lat="63.0019667" lon="8.4694666" version="1" timestamp="2022-08-02T15:29:44Z" changeset="124397377" uid="3497659" user="NKA">
		<tag k="name" v="Gammelsetra" />
		<tag k="place" v="locality" />
		<tag k="ssr:stedsnr" v="96338" />
	</node>
	<node id="9927361767" lat="62.9336395" lon="8.7198596" version="1" timestamp="2022-08-02T15:29:44Z" changeset="124397377" uid="3497659" user="NKA">
		<tag k="name" v="Austerholten" />
		<tag k="place" v="farm" />
		<tag k="ssr:stedsnr" v="801035" />
	</node>
	<node id="9927361768" lat="62.9026611" lon="9.1662695" version="1" timestamp="2022-08-02T15:29:44Z" changeset="124397377" uid="3497659" user="NKA">
		<tag k="historic" v="shieling" />
		<tag k="name" v="Aunsetra" />
		<tag k="place" v="isolated_dwelling" />
		<tag k="ssr:stedsnr" v="25454" />
	</node>
	<node id="9927361769" lat="62.8902699" lon="8.5594633" version="1" timestamp="2022-08-02T15:29:44Z" changeset="124397377" uid="3497659" user="NKA">
		<tag k="name" v="Bjerkely" />
		<tag k="place" v="farm" />
		<tag k="ssr:stedsnr" v="399807" />
	</node>
	<node id="9927361770" lat="62.9918528" lon="8.6355453" version="1" timestamp="2022-08-02T15:29:44Z" changeset="124397377" uid="3497659" user="NKA">
		<tag k="name" v="Glæremstrøa bustadfelt" />
		<tag k="place" v="neighbourhood" />
		<tag k="ssr:stedsnr" v="780884" />
	</node>
	<node id="9927361771" lat="63.0066578" lon="9.0292816" version="1" timestamp="2022-08-02T15:29:44Z" changeset="124397377" uid="3497659" user="NKA">
		<tag k="name" v="Harangen" />
		<tag k="place" v="hamlet" />
		<tag k="ssr:stedsnr" v="255670" />
	</node>
	<node id="9927361772" lat="62.8820472" lon="9.2430139" version="1" timestamp="2022-08-02T15:29:44Z" changeset="124397377" uid="3497659" user="NKA">
		<tag k="name" v="Liagarden" />
		<tag k="place" v="isolated_dwelling" />
		<tag k="ssr:stedsnr" v="73189" />
	</node>
	<node id="9927361773" lat="62.8905063" lon="8.5172752" version="1" timestamp="2022-08-02T15:29:44Z" changeset="124397377" uid="3497659" user="NKA">
		<tag k="name" v="Nergeilen" />
		<tag k="place" v="farm" />
		<tag k="ssr:stedsnr" v="459085" />
	</node>
	<node id="9927361774" lat="63.0222416" lon="8.5735917" version="1" timestamp="2022-08-02T15:29:44Z" changeset="124397377" uid="3497659" user="NKA">
		<tag k="name" v="Rønningen" />
		<tag k="place" v="farm" />
		<tag k="ssr:stedsnr" v="73845" />
	</node>
	<node id="9927361775" lat="62.8270611" lon="9.1860004" version="1" timestamp="2022-08-02T15:29:44Z" changeset="124397377" uid="3497659" user="NKA">
		<tag k="historic" v="shieling" />
		<tag k="name" v="Fuglsøysetra" />
		<tag k="place" v="isolated_dwelling" />
		<tag k="ssr:stedsnr" v="12132" />
	</node>
	<node id="9927361776" lat="62.9759694" lon="8.4079528" version="1" timestamp="2022-08-02T15:29:44Z" changeset="124397377" uid="3497659" user="NKA">
		<tag k="name" v="Flesavika" />
		<tag k="place" v="farm" />
		<tag k="ssr:stedsnr" v="72638" />
	</node>
	<node id="9927361777" lat="62.9249098" lon="8.4553558" version="1" timestamp="2022-08-02T15:29:44Z" changeset="124397377" uid="3497659" user="NKA">
		<tag k="name" v="Årvak" />
		<tag k="place" v="farm" />
		<tag k="ssr:stedsnr" v="278836" />
	</node>
	<node id="9927361778" lat="62.896968" lon="8.5630637" version="1" timestamp="2022-08-02T15:29:44Z" changeset="124397377" uid="3497659" user="NKA">
		<tag k="name" v="Mo" />
		<tag k="place" v="farm" />
		<tag k="ssr:stedsnr" v="254266" />
	</node>
	<node id="9927361779" lat="62.9352875" lon="8.4337212" version="1" timestamp="2022-08-02T15:29:44Z" changeset="124397377" uid="3497659" user="NKA">
		<tag k="name" v="Oppistua" />
		<tag k="place" v="farm" />
		<tag k="ssr:stedsnr" v="217801" />
	</node>
	<node id="9927361780" lat="62.9040139" lon="8.546739" version="1" timestamp="2022-08-02T15:29:44Z" changeset="124397377" uid="3497659" user="NKA">
		<tag k="name" v="Lyngstad" />
		<tag k="place" v="farm" />
		<tag k="ssr:stedsnr" v="194280" />
	</node>
	<node id="9927361781" lat="62.9113981" lon="9.1642104" version="1" timestamp="2022-08-02T15:29:44Z" changeset="124397377" uid="3497659" user="NKA">
		<tag k="alt_name" v="Kvenndalen" />
		<tag k="name" v="Garden" />
		<tag k="place" v="isolated_dwelling" />
		<tag k="ssr:stedsnr" v="875451" />
	</node>
	<node id="9927361782" lat="63.0159704" lon="8.406549" version="1" timestamp="2022-08-02T15:29:44Z" changeset="124397377" uid="3497659" user="NKA">
		<tag k="name" v="Fjordgløtt" />
		<tag k="old_name" v="GRETHE-BO" />
		<tag k="place" v="farm" />
		<tag k="ssr:stedsnr" v="1075857" />
	</node>
	<node id="9927361783" lat="62.9635028" lon="8.5722805" version="1" timestamp="2022-08-02T15:29:44Z" changeset="124397377" uid="3497659" user="NKA">
		<tag k="name" v="Follerø" />
		<tag k="place" v="farm" />
		<tag k="ssr:stedsnr" v="945763" />
	</node>
	<node id="9927361784" lat="62.9605641" lon="8.6991223" version="1" timestamp="2022-08-02T15:29:44Z" changeset="124397377" uid="3497659" user="NKA">
		<tag k="name" v="Stormyra" />
		<tag k="place" v="neighbourhood" />
		<tag k="ssr:stedsnr" v="727184" />
	</node>
	<node id="9927361785" lat="62.8018723" lon="9.1457778" version="1" timestamp="2022-08-02T15:29:44Z" changeset="124397377" uid="3497659" user="NKA">
		<tag k="historic" v="shieling" />
		<tag k="name" v="Herbrandstølen" />
		<tag k="place" v="isolated_dwelling" />
		<tag k="ssr:stedsnr" v="570098" />
	</node>
	<node id="9927361786" lat="62.8287647" lon="9.2347296" version="1" timestamp="2022-08-02T15:29:44Z" changeset="124397377" uid="3497659" user="NKA">
		<tag k="historic" v="shieling" />
		<tag k="name" v="Langlisetra" />
		<tag k="place" v="isolated_dwelling" />
		<tag k="ssr:stedsnr" v="558853" />
	</node>
	<node id="9927361787" lat="62.9865277" lon="8.5701668" version="1" timestamp="2022-08-02T15:29:44Z" changeset="124397377" uid="3497659" user="NKA">
		<tag k="name" v="Øya" />
		<tag k="place" v="farm" />
		<tag k="ssr:stedsnr" v="557609" />
	</node>
	<node id="9927361788" lat="62.9884194" lon="8.4016805" version="1" timestamp="2022-08-02T15:29:44Z" changeset="124397377" uid="3497659" user="NKA">
		<tag k="name" v="Vikasetra" />
		<tag k="place" v="isolated_dwelling" />
		<tag k="ssr:stedsnr" v="739650" />
	</node>
	<node id="9927361789" lat="62.9987811" lon="8.4869602" version="1" timestamp="2022-08-02T15:29:44Z" changeset="124397377" uid="3497659" user="NKA">
		<tag k="name" v="Snekkvika" />
		<tag k="place" v="hamlet" />
		<tag k="ssr:stedsnr" v="861602" />
	</node>
	<node id="9927361790" lat="62.9922" lon="8.4394" version="1" timestamp="2022-08-02T15:29:44Z" changeset="124397377" uid="3497659" user="NKA">
		<tag k="name" v="Solemssetra" />
		<tag k="place" v="isolated_dwelling" />
		<tag k="ssr:stedsnr" v="861606" />
	</node>
	<node id="9927361791" lat="63.0186" lon="8.5923527" version="1" timestamp="2022-08-02T15:29:44Z" changeset="124397377" uid="3497659" user="NKA">
		<tag k="name" v="Naustan" />
		<tag k="place" v="farm" />
		<tag k="ssr:stedsnr" v="376879" />
	</node>
	<node id="9927361792" lat="62.8967667" lon="8.5718557" version="1" timestamp="2022-08-02T15:29:44Z" changeset="124397377" uid="3497659" user="NKA">
		<tag k="name" v="Ranheim" />
		<tag k="place" v="farm" />
		<tag k="ssr:stedsnr" v="254268" />
	</node>
	<node id="9927361793" lat="63.0377611" lon="8.3795" version="1" timestamp="2022-08-02T15:29:44Z" changeset="124397377" uid="3497659" user="NKA">
		<tag k="name" v="Moasetra" />
		<tag k="place" v="locality" />
		<tag k="ssr:stedsnr" v="399153" />
	</node>
	<node id="9927361794" lat="62.8269361" lon="9.1872556" version="1" timestamp="2022-08-02T15:29:44Z" changeset="124397377" uid="3497659" user="NKA">
		<tag k="historic" v="shieling" />
		<tag k="name" v="Dønnynsetra" />
		<tag k="place" v="isolated_dwelling" />
		<tag k="ssr:stedsnr" v="267096" />
	</node>
	<node id="9927361795" lat="62.988978" lon="8.585434" version="1" timestamp="2022-08-02T15:29:44Z" changeset="124397377" uid="3497659" user="NKA">
		<tag k="name" v="Garte" />
		<tag k="place" v="farm" />
		<tag k="ssr:stedsnr" v="132660" />
	</node>
	<node id="9927361796" lat="63.0354303" lon="8.4238742" version="1" timestamp="2022-08-02T15:29:44Z" changeset="124397377" uid="3497659" user="NKA">
		<tag k="name" v="Storslettet" />
		<tag k="place" v="farm" />
		<tag k="ssr:stedsnr" v="641292" />
	</node>
	<node id="9927361797" lat="62.9027784" lon="9.21161" version="1" timestamp="2022-08-02T15:29:44Z" changeset="124397377" uid="3497659" user="NKA">
		<tag k="name" v="Ringbekkhytta" />
		<tag k="place" v="isolated_dwelling" />
		<tag k="ssr:stedsnr" v="277488" />
	</node>
	<node id="9927361798" lat="63.02145" lon="8.6077055" version="1" timestamp="2022-08-02T15:29:44Z" changeset="124397377" uid="3497659" user="NKA">
		<tag k="name" v="Sørlia" />
		<tag k="place" v="farm" />
		<tag k="ssr:stedsnr" v="862860" />
	</node>
	<node id="9927361799" lat="62.9866972" lon="9.123575" version="1" timestamp="2022-08-02T15:29:44Z" changeset="124397377" uid="3497659" user="NKA">
		<tag k="name" v="Utistusetra" />
		<tag k="place" v="locality" />
		<tag k="ssr:stedsnr" v="945490" />
	</node>
	<node id="9927361800" lat="63.0250982" lon="9.105691" version="1" timestamp="2022-08-02T15:29:44Z" changeset="124397377" uid="3497659" user="NKA">
		<tag k="name" v="Kvammen" />
		<tag k="place" v="farm" />
		<tag k="ssr:stedsnr" v="922671" />
	</node>
	<node id="9927361801" lat="62.9016429" lon="8.5772278" version="1" timestamp="2022-08-02T15:29:44Z" changeset="124397377" uid="3497659" user="NKA">
		<tag k="name" v="Grytskogan" />
		<tag k="place" v="farm" />
		<tag k="ssr:stedsnr" v="194260" />
	</node>
	<node id="9927361802" lat="63.0131048" lon="8.6396959" version="1" timestamp="2022-08-02T15:29:44Z" changeset="124397377" uid="3497659" user="NKA">
		<tag k="name" v="Pointe Noire" />
		<tag k="place" v="isolated_dwelling" />
		<tag k="ssr:stedsnr" v="399811" />
	</node>
	<node id="9927361803" lat="62.9033376" lon="8.5961571" version="1" timestamp="2022-08-02T15:29:44Z" changeset="124397377" uid="3497659" user="NKA">
		<tag k="name" v="Melhus" />
		<tag k="place" v="village" />
		<tag k="ssr:stedsnr" v="861256" />
	</node>
	<node id="9927361804" lat="62.9669333" lon="8.792725" version="1" timestamp="2022-08-02T15:29:44Z" changeset="124397377" uid="3497659" user="NKA">
		<tag k="name" v="Soggsetra" />
		<tag k="place" v="locality" />
		<tag k="ssr:stedsnr" v="398753" />
	</node>
	<node id="9927361805" lat="62.9895804" lon="8.3367322" version="1" timestamp="2022-08-02T15:29:44Z" changeset="124397377" uid="3497659" user="NKA">
		<tag k="name" v="Naustan" />
		<tag k="place" v="locality" />
		<tag k="ssr:stedsnr" v="338116" />
	</node>
	<node id="9927361806" lat="63.0447333" lon="8.6074722" version="1" timestamp="2022-08-02T15:29:44Z" changeset="124397377" uid="3497659" user="NKA">
		<tag k="historic" v="shieling" />
		<tag k="name" v="Bøverfjordsetra" />
		<tag k="place" v="isolated_dwelling" />
		<tag k="ssr:stedsnr" v="557807" />
	</node>
	<node id="9927361807" lat="62.98295" lon="8.786825" version="1" timestamp="2022-08-02T15:29:44Z" changeset="124397377" uid="3497659" user="NKA">
		<tag k="name" v="Pellan" />
		<tag k="place" v="farm" />
		<tag k="ssr:stedsnr" v="376480" />
	</node>
	<node id="9927361808" lat="63.0308361" lon="9.0970556" version="1" timestamp="2022-08-02T15:29:44Z" changeset="124397377" uid="3497659" user="NKA">
		<tag k="name" v="Slåa" />
		<tag k="place" v="farm" />
		<tag k="ssr:stedsnr" v="763835" />
	</node>
	<node id="9927361809" lat="62.8697928" lon="8.6294684" version="1" timestamp="2022-08-02T15:29:44Z" changeset="124397377" uid="3497659" user="NKA">
		<tag k="name" v="Øygarn" />
		<tag k="place" v="farm" />
		<tag k="ssr:stedsnr" v="581841" />
	</node>
	<node id="9927361810" lat="62.9590945" lon="8.4852833" version="1" timestamp="2022-08-02T15:29:44Z" changeset="124397377" uid="3497659" user="NKA">
		<tag k="name" v="Vollan" />
		<tag k="place" v="farm" />
		<tag k="ssr:stedsnr" v="534804" />
	</node>
	<node id="9927361811" lat="62.9044505" lon="8.5967472" version="1" timestamp="2022-08-02T15:29:44Z" changeset="124397377" uid="3497659" user="NKA">
		<tag k="name" v="Stenbergsgeilin bustadfelt" />
		<tag k="place" v="neighbourhood" />
		<tag k="ssr:stedsnr" v="302205" />
	</node>
	<node id="9927361812" lat="63.0332134" lon="8.5294397" version="1" timestamp="2022-08-02T15:29:44Z" changeset="124397377" uid="3497659" user="NKA">
		<tag k="name" v="Navarhaugen" />
		<tag k="place" v="isolated_dwelling" />
		<tag k="ssr:stedsnr" v="278918" />
	</node>
	<node id="9927361813" lat="62.913418" lon="8.6587953" version="1" timestamp="2022-08-02T15:29:44Z" changeset="124397377" uid="3497659" user="NKA">
		<tag k="name" v="Engan" />
		<tag k="place" v="locality" />
		<tag k="ssr:stedsnr" v="581394" />
	</node>
	<node id="9927361814" lat="62.8907338" lon="8.605492" version="1" timestamp="2022-08-02T15:29:44Z" changeset="124397377" uid="3497659" user="NKA">
		<tag k="name" v="Åsbøen" />
		<tag k="place" v="farm" />
		<tag k="ssr:stedsnr" v="195311" />
	</node>
	<node id="9927361815" lat="62.8860897" lon="8.5955877" version="1" timestamp="2022-08-02T15:29:44Z" changeset="124397377" uid="3497659" user="NKA">
		<tag k="name" v="Sjøtrøa" />
		<tag k="place" v="farm" />
		<tag k="ssr:stedsnr" v="217795" />
	</node>
	<node id="9927361816" lat="63.046725" lon="8.5673556" version="1" timestamp="2022-08-02T15:29:44Z" changeset="124397377" uid="3497659" user="NKA">
		<tag k="name" v="Slettfjellhytta" />
		<tag k="place" v="isolated_dwelling" />
		<tag k="ssr:stedsnr" v="278318" />
	</node>
	<node id="9927361817" lat="63.0238388" lon="9.0951166" version="1" timestamp="2022-08-02T15:29:44Z" changeset="124397377" uid="3497659" user="NKA">
		<tag k="name" v="Holten" />
		<tag k="place" v="farm" />
		<tag k="ssr:stedsnr" v="740686" />
	</node>
	<node id="9927361818" lat="62.9822528" lon="8.7010888" version="1" timestamp="2022-08-02T15:29:44Z" changeset="124397377" uid="3497659" user="NKA">
		<tag k="name" v="Skogan" />
		<tag k="place" v="farm" />
		<tag k="ssr:stedsnr" v="326940" />
	</node>
	<node id="9927361819" lat="62.9845778" lon="8.6829666" version="1" timestamp="2022-08-02T15:29:44Z" changeset="124397377" uid="3497659" user="NKA">
		<tag k="name" v="Stevret" />
		<tag k="place" v="farm" />
		<tag k="ssr:stedsnr" v="265921" />
	</node>
	<node id="9927361820" lat="62.9911667" lon="8.6125028" version="1" timestamp="2022-08-02T15:29:44Z" changeset="124397377" uid="3497659" user="NKA">
		<tag k="name" v="Utigard Glærem" />
		<tag k="place" v="farm" />
		<tag k="ssr:stedsnr" v="933455" />
	</node>
	<node id="9927361821" lat="62.9597472" lon="8.7340778" version="1" timestamp="2022-08-02T15:29:44Z" changeset="124397377" uid="3497659" user="NKA">
		<tag k="name" v="Kolbotnen" />
		<tag k="place" v="isolated_dwelling" />
		<tag k="ssr:stedsnr" v="156918" />
	</node>
	<node id="9927361822" lat="63.0154744" lon="8.4916037" version="1" timestamp="2022-08-02T15:29:44Z" changeset="124397377" uid="3497659" user="NKA">
		<tag k="name" v="Dreierstua" />
		<tag k="place" v="farm" />
		<tag k="ssr:stedsnr" v="217323" />
	</node>
	<node id="9927361823" lat="62.8818327" lon="8.619349" version="1" timestamp="2022-08-02T15:29:44Z" changeset="124397377" uid="3497659" user="NKA">
		<tag k="name" v="Sollia bustadfelt" />
		<tag k="place" v="neighbourhood" />
		<tag k="ssr:stedsnr" v="605196" />
	</node>
	<node id="9927361824" lat="62.9891333" lon="8.62235" version="1" timestamp="2022-08-02T15:29:44Z" changeset="124397377" uid="3497659" user="NKA">
		<tag k="name" v="Oppigard Glærem" />
		<tag k="place" v="farm" />
		<tag k="ssr:stedsnr" v="751446" />
	</node>
	<node id="9927361825" lat="62.9516694" lon="8.6238389" version="1" timestamp="2022-08-02T15:29:44Z" changeset="124397377" uid="3497659" user="NKA">
		<tag k="name" v="Pappenheim" />
		<tag k="place" v="isolated_dwelling" />
		<tag k="ssr:stedsnr" v="581481" />
	</node>
	<node id="9927361826" lat="62.9864145" lon="8.6555514" version="1" timestamp="2022-08-02T15:29:44Z" changeset="124397377" uid="3497659" user="NKA">
		<tag k="name" v="Røtet" />
		<tag k="place" v="neighbourhood" />
		<tag k="ssr:stedsnr" v="96878" />
	</node>
	<node id="9927361827" lat="62.9952527" lon="8.7044834" version="1" timestamp="2022-08-02T15:29:44Z" changeset="124397377" uid="3497659" user="NKA">
		<tag k="name" v="Auster-Berseten" />
		<tag k="place" v="farm" />
		<tag k="ssr:stedsnr" v="448444" />
	</node>
	<node id="9927361828" lat="62.9802234" lon="8.7120679" version="1" timestamp="2022-08-02T15:29:44Z" changeset="124397377" uid="3497659" user="NKA">
		<tag k="name" v="Klokkargarden" />
		<tag k="place" v="farm" />
		<tag k="ssr:stedsnr" v="96856" />
	</node>
	<node id="9927361829" lat="62.8797831" lon="8.619752" version="1" timestamp="2022-08-02T15:29:44Z" changeset="124397377" uid="3497659" user="NKA">
		<tag k="name" v="Nordgård" />
		<tag k="place" v="farm" />
		<tag k="ssr:stedsnr" v="520834" />
	</node>
	<node id="9927361830" lat="62.9892194" lon="8.6236333" version="1" timestamp="2022-08-02T15:29:44Z" changeset="124397377" uid="3497659" user="NKA">
		<tag k="name" v="Austigard Glærem" />
		<tag k="place" v="farm" />
		<tag k="ssr:stedsnr" v="933465" />
	</node>
	<node id="9927361831" lat="62.9548803" lon="8.6912846" version="1" timestamp="2022-08-02T15:29:44Z" changeset="124397377" uid="3497659" user="NKA">
		<tag k="name" v="Karlhaugen" />
		<tag k="place" v="farm" />
		<tag k="ssr:stedsnr" v="436676" />
	</node>
	<node id="9927361832" lat="63.0433889" lon="8.5259501" version="1" timestamp="2022-08-02T15:29:44Z" changeset="124397377" uid="3497659" user="NKA">
		<tag k="name" v="Belesetra" />
		<tag k="place" v="isolated_dwelling" />
		<tag k="ssr:stedsnr" v="437810" />
	</node>
	<node id="9927361833" lat="63.0170367" lon="8.6643948" version="1" timestamp="2022-08-02T15:29:44Z" changeset="124397377" uid="3497659" user="NKA">
		<tag k="name" v="Bjørnheia" />
		<tag k="place" v="isolated_dwelling" />
		<tag k="ssr:stedsnr" v="399810" />
	</node>
	<node id="9927361834" lat="63.0461069" lon="8.7100712" version="1" timestamp="2022-08-02T15:29:44Z" changeset="124397377" uid="3497659" user="NKA">
		<tag k="name" v="Svorka" />
		<tag k="place" v="farm" />
		<tag k="ssr:stedsnr" v="801795" />
	</node>
	<node id="9927361835" lat="62.9848722" lon="8.6923389" version="1" timestamp="2022-08-02T15:29:44Z" changeset="124397377" uid="3497659" user="NKA">
		<tag k="name" v="Austigard" />
		<tag k="place" v="farm" />
		<tag k="ssr:stedsnr" v="811924" />
	</node>
	<node id="9927361836" lat="62.9678617" lon="8.6968706" version="1" timestamp="2022-08-02T15:29:44Z" changeset="124397377" uid="3497659" user="NKA">
		<tag k="name" v="Vassenden" />
		<tag k="place" v="farm" />
		<tag k="ssr:stedsnr" v="679649" />
	</node>
	<node id="9927361837" lat="63.0221583" lon="8.6038987" version="1" timestamp="2022-08-02T15:29:44Z" changeset="124397377" uid="3497659" user="NKA">
		<tag k="name" v="Gjerdahaugen" />
		<tag k="old_name" v="Jerahaugen" />
		<tag k="place" v="neighbourhood" />
		<tag k="ssr:stedsnr" v="727170" />
	</node>
	<node id="9927361838" lat="62.9843" lon="8.6874028" version="1" timestamp="2022-08-02T15:29:44Z" changeset="124397377" uid="3497659" user="NKA">
		<tag k="name" v="Jogarden" />
		<tag k="place" v="farm" />
		<tag k="ssr:stedsnr" v="386927" />
	</node>
	<node id="9927361839" lat="62.9959444" lon="8.6792527" version="1" timestamp="2022-08-02T15:29:44Z" changeset="124397377" uid="3497659" user="NKA">
		<tag k="name" v="Rønningen" />
		<tag k="place" v="farm" />
		<tag k="ssr:stedsnr" v="35929" />
	</node>
	<node id="9927361840" lat="62.9903906" lon="8.6357085" version="1" timestamp="2022-08-02T15:29:44Z" changeset="124397377" uid="3497659" user="NKA">
		<tag k="name" v="Oppistua" />
		<tag k="place" v="farm" />
		<tag k="ssr:stedsnr" v="1081198" />
	</node>
	<node id="9927361841" lat="62.905705" lon="8.6141058" version="1" timestamp="2022-08-02T15:29:44Z" changeset="124397377" uid="3497659" user="NKA">
		<tag k="name" v="Gjerstad" />
		<tag k="place" v="hamlet" />
		<tag k="ssr:stedsnr" v="254283" />
	</node>
	<node id="9927361842" lat="62.9069556" lon="8.5959916" version="1" timestamp="2022-08-02T15:29:44Z" changeset="124397377" uid="3497659" user="NKA">
		<tag k="name" v="Steinberget" />
		<tag k="place" v="farm" />
		<tag k="ssr:stedsnr" v="375263" />
	</node>
	<node id="9927361843" lat="62.8794539" lon="8.6188771" version="1" timestamp="2022-08-02T15:29:44Z" changeset="124397377" uid="3497659" user="NKA">
		<tag k="name" v="Hagavoll" />
		<tag k="place" v="farm" />
		<tag k="ssr:stedsnr" v="96812" />
	</node>
	<node id="9927361844" lat="63.0469066" lon="8.7464516" version="1" timestamp="2022-08-02T15:29:44Z" changeset="124397377" uid="3497659" user="NKA">
		<tag k="name" v="Holøyløa" />
		<tag k="place" v="locality" />
		<tag k="ssr:stedsnr" v="581422" />
	</node>
	<node id="9927361845" lat="63.0233793" lon="9.0947443" version="1" timestamp="2022-08-02T15:29:44Z" changeset="124397377" uid="3497659" user="NKA">
		<tag k="name" v="Kvamsgjerdet" />
		<tag k="place" v="farm" />
		<tag k="ssr:stedsnr" v="155689" />
	</node>
	<node id="9927361846" lat="62.9925579" lon="8.6620857" version="1" timestamp="2022-08-02T15:29:44Z" changeset="124397377" uid="3497659" user="NKA">
		<tag k="name" v="Utistua Bøvra" />
		<tag k="place" v="farm" />
		<tag k="ssr:stedsnr" v="23653" />
	</node>
	<node id="9927361847" lat="62.8713113" lon="8.6249134" version="1" timestamp="2022-08-02T15:29:44Z" changeset="124397377" uid="3497659" user="NKA">
		<tag k="name" v="Bakkan" />
		<tag k="place" v="farm" />
		<tag k="ssr:stedsnr" v="338823" />
	</node>
	<node id="9927361848" lat="62.8706445" lon="9.2417611" version="1" timestamp="2022-08-02T15:29:44Z" changeset="124397377" uid="3497659" user="NKA">
		<tag k="name" v="Haugagarden" />
		<tag k="place" v="locality" />
		<tag k="ssr:stedsnr" v="875414" />
	</node>
	<node id="9927361849" lat="62.9554334" lon="8.7568278" version="1" timestamp="2022-08-02T15:29:44Z" changeset="124397377" uid="3497659" user="NKA">
		<tag k="historic" v="shieling" />
		<tag k="name" v="Ranessetra" />
		<tag k="place" v="isolated_dwelling" />
		<tag k="ssr:stedsnr" v="509112" />
	</node>
	<node id="9927361850" lat="63.024725" lon="9.0872166" version="1" timestamp="2022-08-02T15:29:44Z" changeset="124397377" uid="3497659" user="NKA">
		<tag k="name" v="Nyset" />
		<tag k="place" v="farm" />
		<tag k="ssr:stedsnr" v="646343" />
	</node>
	<node id="9927361851" lat="62.9471028" lon="8.6967306" version="1" timestamp="2022-08-02T15:29:44Z" changeset="124397377" uid="3497659" user="NKA">
		<tag k="name" v="Myrholten" />
		<tag k="place" v="farm" />
		<tag k="ssr:stedsnr" v="12700" />
	</node>
	<node id="9927361852" lat="62.8770889" lon="8.6235528" version="1" timestamp="2022-08-02T15:29:44Z" changeset="124397377" uid="3497659" user="NKA">
		<tag k="name" v="Bjørneng" />
		<tag k="place" v="farm" />
		<tag k="ssr:stedsnr" v="862281" />
	</node>
	<node id="9927361853" lat="62.9778717" lon="8.7761782" version="1" timestamp="2022-08-02T15:29:44Z" changeset="124397377" uid="3497659" user="NKA">
		<tag k="name" v="Øyan" />
		<tag k="place" v="farm" />
		<tag k="ssr:stedsnr" v="923506" />
	</node>
	<node id="9927361854" lat="62.9934389" lon="8.6724028" version="1" timestamp="2022-08-02T15:29:44Z" changeset="124397377" uid="3497659" user="NKA">
		<tag k="name" v="Oppigard" />
		<tag k="place" v="farm" />
		<tag k="ssr:stedsnr" v="509917" />
	</node>
	<node id="9927361855" lat="62.9372139" lon="8.6931501" version="1" timestamp="2022-08-02T15:29:44Z" changeset="124397377" uid="3497659" user="NKA">
		<tag k="name" v="Åshaugen bustadfelt" />
		<tag k="place" v="neighbourhood" />
		<tag k="ssr:stedsnr" v="824405" />
	</node>
	<node id="9927361856" lat="62.9858305" lon="8.7319862" version="1" timestamp="2022-08-02T15:29:44Z" changeset="124397377" uid="3497659" user="NKA">
		<tag k="name" v="Bergheim" />
		<tag k="place" v="farm" />
		<tag k="ssr:stedsnr" v="12469" />
	</node>
	<node id="9927361857" lat="62.944575" lon="8.6986112" version="1" timestamp="2022-08-02T15:29:44Z" changeset="124397377" uid="3497659" user="NKA">
		<tag k="name" v="Fuglleiken" />
		<tag k="place" v="farm" />
		<tag k="ssr:stedsnr" v="497677" />
	</node>
	<node id="9927361858" lat="62.9597166" lon="8.6205973" version="1" timestamp="2022-08-02T15:29:44Z" changeset="124397377" uid="3497659" user="NKA">
		<tag k="name" v="Sjøasetersetra" />
		<tag k="place" v="isolated_dwelling" />
		<tag k="ssr:stedsnr" v="497659" />
	</node>
	<node id="9927361859" lat="62.9728962" lon="8.6810503" version="1" timestamp="2022-08-02T15:29:44Z" changeset="124397377" uid="3497659" user="NKA">
		<tag k="name" v="Nedre Setra" />
		<tag k="place" v="farm" />
		<tag k="ssr:stedsnr" v="497648" />
	</node>
	<node id="9927361860" lat="63.0225028" lon="8.2682" version="1" timestamp="2022-08-02T15:29:44Z" changeset="124397377" uid="3497659" user="NKA">
		<tag k="historic" v="shieling" />
		<tag k="name" v="Kallsetsetra" />
		<tag k="place" v="isolated_dwelling" />
		<tag k="ssr:stedsnr" v="156631" />
	</node>
	<node id="9927361861" lat="62.976625" lon="8.6680972" version="1" timestamp="2022-08-02T15:29:44Z" changeset="124397377" uid="3497659" user="NKA">
		<tag k="name" v="Øyskog" />
		<tag k="place" v="farm" />
		<tag k="ssr:stedsnr" v="933196" />
	</node>
	<node id="9927361862" lat="62.9954745" lon="8.5200951" version="1" timestamp="2022-08-02T15:29:44Z" changeset="124397377" uid="3497659" user="NKA">
		<tag k="historic" v="shieling" />
		<tag k="name" v="Hamnessetra" />
		<tag k="place" v="isolated_dwelling" />
		<tag k="ssr:stedsnr" v="156463" />
	</node>
	<node id="9927361863" lat="62.8333888" lon="8.8785694" version="1" timestamp="2022-08-02T15:29:44Z" changeset="124397377" uid="3497659" user="NKA">
		<tag k="name" v="Øyasetra" />
		<tag k="place" v="isolated_dwelling" />
		<tag k="ssr:stedsnr" v="945030" />
	</node>
	<node id="9927361864" lat="63.0141037" lon="8.6274834" version="1" timestamp="2022-08-02T15:29:44Z" changeset="124397377" uid="3497659" user="NKA">
		<tag k="name" v="Fokkstua" />
		<tag k="place" v="locality" />
		<tag k="ssr:stedsnr" v="218911" />
	</node>
	<node id="9927361865" lat="62.9921973" lon="8.6807083" version="1" timestamp="2022-08-02T15:29:44Z" changeset="124397377" uid="3497659" user="NKA">
		<tag k="name" v="Bøvrasvollen" />
		<tag k="place" v="farm" />
		<tag k="ssr:stedsnr" v="385622" />
	</node>
	<node id="9927361866" lat="62.8922972" lon="8.7837861" version="1" timestamp="2022-08-02T15:29:44Z" changeset="124397377" uid="3497659" user="NKA">
		<tag k="name" v="Haugasetra" />
		<tag k="old_name" v="Syltesetra;Syltesætra" />
		<tag k="place" v="isolated_dwelling" />
		<tag k="ssr:stedsnr" v="923001" />
	</node>
	<node id="9927361867" lat="62.9866484" lon="8.6530318" version="1" timestamp="2022-08-02T15:29:44Z" changeset="124397377" uid="3497659" user="NKA">
		<tag k="name" v="Bøvrashamna" />
		<tag k="place" v="neighbourhood" />
		<tag k="ssr:stedsnr" v="872849" />
	</node>
	<node id="9927361868" lat="62.9830111" lon="8.7406416" version="1" timestamp="2022-08-02T15:29:44Z" changeset="124397377" uid="3497659" user="NKA">
		<tag k="name" v="Nestua Bergem" />
		<tag k="place" v="farm" />
		<tag k="ssr:stedsnr" v="872886" />
	</node>
	<node id="9927361869" lat="62.9828695" lon="8.662536" version="1" timestamp="2022-08-02T15:29:44Z" changeset="124397377" uid="3497659" user="NKA">
		<tag k="name" v="Kortmoen" />
		<tag k="place" v="farm" />
		<tag k="ssr:stedsnr" v="872851" />
	</node>
	<node id="9927361870" lat="62.9818195" lon="8.7265805" version="1" timestamp="2022-08-02T15:29:44Z" changeset="124397377" uid="3497659" user="NKA">
		<tag k="name" v="Nedre Buhagan" />
		<tag k="place" v="hamlet" />
		<tag k="ssr:stedsnr" v="326945" />
	</node>
	<node id="9927361871" lat="62.9919472" lon="8.6407055" version="1" timestamp="2022-08-02T15:29:44Z" changeset="124397377" uid="3497659" user="NKA">
		<tag k="loc_name" v="Glæremstrøa" />
		<tag k="name" v="Trøa" />
		<tag k="place" v="farm" />
		<tag k="ssr:stedsnr" v="315645" />
	</node>
	<node id="9927361872" lat="62.9845911" lon="8.6907779" version="1" timestamp="2022-08-02T15:29:44Z" changeset="124397377" uid="3497659" user="NKA">
		<tag k="name" v="Sylte" />
		<tag k="place" v="quarter" />
		<tag k="ssr:stedsnr" v="326946" />
	</node>
	<node id="9927361873" lat="62.9794685" lon="8.6677304" version="1" timestamp="2022-08-02T15:29:44Z" changeset="124397377" uid="3497659" user="NKA">
		<tag k="name" v="Teigen" />
		<tag k="place" v="farm" />
		<tag k="ssr:stedsnr" v="315661" />
	</node>
	<node id="9927361874" lat="62.9911195" lon="8.665475" version="1" timestamp="2022-08-02T15:29:44Z" changeset="124397377" uid="3497659" user="NKA">
		<tag k="name" v="Yttervollan" />
		<tag k="place" v="farm" />
		<tag k="ssr:stedsnr" v="266346" />
	</node>
	<node id="9927361875" lat="62.9969969" lon="8.6872548" version="1" timestamp="2022-08-02T15:29:44Z" changeset="124397377" uid="3497659" user="NKA">
		<tag k="name" v="Aunet" />
		<tag k="place" v="farm" />
		<tag k="ssr:stedsnr" v="751004" />
	</node>
	<node id="9927361876" lat="62.9928909" lon="8.6748744" version="1" timestamp="2022-08-02T15:29:44Z" changeset="124397377" uid="3497659" user="NKA">
		<tag k="name" v="Bøvra" />
		<tag k="place" v="hamlet" />
		<tag k="ssr:stedsnr" v="315627" />
	</node>
	<node id="9927361877" lat="62.9790187" lon="8.6678492" version="1" timestamp="2022-08-02T15:29:44Z" changeset="124397377" uid="3497659" user="NKA">
		<tag k="name" v="Teigan" />
		<tag k="place" v="farm" />
		<tag k="ssr:stedsnr" v="872213" />
	</node>
	<node id="9927361878" lat="62.9776932" lon="8.4710387" version="1" timestamp="2022-08-02T15:29:44Z" changeset="124397377" uid="3497659" user="NKA">
		<tag k="name" v="Hamnesvikan" />
		<tag k="place" v="farm" />
		<tag k="ssr:stedsnr" v="399335" />
	</node>
	<node id="9927361879" lat="62.934011" lon="8.7272479" version="1" timestamp="2022-08-02T15:29:44Z" changeset="124397377" uid="3497659" user="NKA">
		<tag k="name" v="Mellingan" />
		<tag k="place" v="hamlet" />
		<tag k="ssr:stedsnr" v="740027" />
	</node>
	<node id="9927361880" lat="62.9784012" lon="8.6645002" version="1" timestamp="2022-08-02T15:29:44Z" changeset="124397377" uid="3497659" user="NKA">
		<tag k="name" v="Syltøran" />
		<tag k="place" v="quarter" />
		<tag k="ssr:stedsnr" v="263500" />
	</node>
	<node id="9927361881" lat="62.9976053" lon="8.7015782" version="1" timestamp="2022-08-02T15:29:44Z" changeset="124397377" uid="3497659" user="NKA">
		<tag k="name" v="Berset" />
		<tag k="place" v="hamlet" />
		<tag k="ssr:stedsnr" v="739647" />
	</node>
	<node id="9927361882" lat="62.9565421" lon="8.5931916" version="1" timestamp="2022-08-02T15:29:44Z" changeset="124397377" uid="3497659" user="NKA">
		<tag k="name" v="Strandasetra" />
		<tag k="place" v="isolated_dwelling" />
		<tag k="ssr:stedsnr" v="133654" />
	</node>
	<node id="9927361883" lat="62.8899361" lon="8.5991556" version="1" timestamp="2022-08-02T15:29:44Z" changeset="124397377" uid="3497659" user="NKA">
		<tag k="name" v="Ytterbøen" />
		<tag k="place" v="farm" />
		<tag k="ssr:stedsnr" v="680305" />
	</node>
	<node id="9927361884" lat="62.9874777" lon="8.3943834" version="1" timestamp="2022-08-02T15:29:44Z" changeset="124397377" uid="3497659" user="NKA">
		<tag k="name" v="Trodalsetra" />
		<tag k="place" v="isolated_dwelling" />
		<tag k="ssr:stedsnr" v="338886" />
	</node>
	<node id="9927361885" lat="62.9876561" lon="8.7693026" version="1" timestamp="2022-08-02T15:29:44Z" changeset="124397377" uid="3497659" user="NKA">
		<tag k="name" v="Øver Telstad" />
		<tag k="place" v="farm" />
		<tag k="ssr:stedsnr" v="96858" />
	</node>
	<node id="9927361886" lat="62.9711829" lon="8.3903176" version="1" timestamp="2022-08-02T15:29:44Z" changeset="124397377" uid="3497659" user="NKA">
		<tag k="name" v="Jutvika" />
		<tag k="place" v="locality" />
		<tag k="ssr:stedsnr" v="977567" />
	</node>
	<node id="9927361887" lat="62.911325" lon="8.4600639" version="1" timestamp="2022-08-02T15:29:44Z" changeset="124397377" uid="3497659" user="NKA">
		<tag k="name" v="Bukta" />
		<tag k="place" v="farm" />
		<tag k="ssr:stedsnr" v="945374" />
	</node>
	<node id="9927361888" lat="62.904825" lon="8.5450333" version="1" timestamp="2022-08-02T15:29:44Z" changeset="124397377" uid="3497659" user="NKA">
		<tag k="name" v="Utheim" />
		<tag k="place" v="farm" />
		<tag k="ssr:stedsnr" v="679268" />
	</node>
	<node id="9927361889" lat="63.0367893" lon="8.4413733" version="1" timestamp="2022-08-02T15:29:44Z" changeset="124397377" uid="3497659" user="NKA">
		<tag k="name" v="Asplia" />
		<tag k="place" v="farm" />
		<tag k="ssr:stedsnr" v="156851" />
	</node>
	<node id="9927361890" lat="62.968223" lon="8.6287406" version="1" timestamp="2022-08-02T15:29:44Z" changeset="124397377" uid="3497659" user="NKA">
		<tag k="name" v="Skralthaugen" />
		<tag k="place" v="farm" />
		<tag k="ssr:stedsnr" v="641377" />
	</node>
	<node id="9927361891" lat="62.9475944" lon="8.4313861" version="1" timestamp="2022-08-02T15:29:44Z" changeset="124397377" uid="3497659" user="NKA">
		<tag k="name" v="Gammelsetra" />
		<tag k="place" v="locality" />
		<tag k="ssr:stedsnr" v="133677" />
	</node>
	<node id="9927361892" lat="63.0611866" lon="8.4681327" version="1" timestamp="2022-08-02T15:29:44Z" changeset="124397377" uid="3497659" user="NKA">
		<tag k="name" v="Solvang" />
		<tag k="place" v="farm" />
		<tag k="ssr:stedsnr" v="96852" />
	</node>
	<node id="9927361893" lat="62.9348833" lon="8.7439223" version="1" timestamp="2022-08-02T15:29:44Z" changeset="124397377" uid="3497659" user="NKA">
		<tag k="name" v="Snipøya" />
		<tag k="place" v="isolated_dwelling" />
		<tag k="ssr:stedsnr" v="520343" />
	</node>
	<node id="9927361894" lat="63.0137861" lon="8.4741556" version="1" timestamp="2022-08-02T15:29:44Z" changeset="124397377" uid="3497659" user="NKA">
		<tag k="name" v="Nesset" />
		<tag k="place" v="isolated_dwelling" />
		<tag k="ssr:stedsnr" v="96774" />
	</node>
	<node id="9927361895" lat="62.8845862" lon="8.5777639" version="1" timestamp="2022-08-02T15:29:44Z" changeset="124397377" uid="3497659" user="NKA">
		<tag k="alt_name" v="Haltbakkan ytre" />
		<tag k="name" v="Ytre Haltbakkan" />
		<tag k="place" v="farm" />
		<tag k="ssr:stedsnr" v="520864" />
	</node>
	<node id="9927361896" lat="62.906682" lon="8.5905223" version="1" timestamp="2022-08-02T15:29:44Z" changeset="124397377" uid="3497659" user="NKA">
		<tag k="alt_name" v="Stenberg ytre" />
		<tag k="name" v="Ytre Stenberg" />
		<tag k="place" v="farm" />
		<tag k="ssr:stedsnr" v="519052" />
	</node>
	<node id="9927361897" lat="62.9128612" lon="8.5841778" version="1" timestamp="2022-08-02T15:29:44Z" changeset="124397377" uid="3497659" user="NKA">
		<tag k="name" v="Steinbergsetra" />
		<tag k="place" v="isolated_dwelling" />
		<tag k="ssr:stedsnr" v="497746" />
	</node>
	<node id="9927361898" lat="62.933125" lon="8.6918529" version="1" timestamp="2022-08-02T15:29:44Z" changeset="124397377" uid="3497659" user="NKA">
		<tag k="name" v="Storsletta" />
		<tag k="place" v="farm" />
		<tag k="ssr:stedsnr" v="497700" />
	</node>
	<node id="9927361899" lat="62.9471194" lon="8.4228416" version="1" timestamp="2022-08-02T15:29:44Z" changeset="124397377" uid="3497659" user="NKA">
		<tag k="name" v="Tromsen" />
		<tag k="place" v="isolated_dwelling" />
		<tag k="ssr:stedsnr" v="72668" />
	</node>
	<node id="9927361900" lat="62.9057631" lon="8.606946" version="1" timestamp="2022-08-02T15:29:44Z" changeset="124397377" uid="3497659" user="NKA">
		<tag k="name" v="Utigard" />
		<tag k="place" v="farm" />
		<tag k="ssr:stedsnr" v="460845" />
	</node>
	<node id="9927361901" lat="62.9894055" lon="8.711425" version="1" timestamp="2022-08-02T15:29:44Z" changeset="124397377" uid="3497659" user="NKA">
		<tag k="name" v="Nistua Heggset" />
		<tag k="place" v="farm" />
		<tag k="ssr:stedsnr" v="568073" />
	</node>
	<node id="9927361902" lat="63.0592604" lon="8.4638059" version="1" timestamp="2022-08-02T15:29:44Z" changeset="124397377" uid="3497659" user="NKA">
		<tag k="name" v="Mitt-tun" />
		<tag k="place" v="farm" />
		<tag k="ssr:stedsnr" v="763842" />
	</node>
	<node id="9927361903" lat="63.0509326" lon="8.4430715" version="1" timestamp="2022-08-02T15:29:44Z" changeset="124397377" uid="3497659" user="NKA">
		<tag k="name" v="Sølå" />
		<tag k="place" v="farm" />
		<tag k="ssr:stedsnr" v="73820" />
	</node>
	<node id="9927361904" lat="62.9618611" lon="8.6514223" version="1" timestamp="2022-08-02T15:29:44Z" changeset="124397377" uid="3497659" user="NKA">
		<tag k="name" v="Setersetra" />
		<tag k="place" v="isolated_dwelling" />
		<tag k="ssr:stedsnr" v="72660" />
	</node>
	<node id="9927361905" lat="63.0187694" lon="8.789175" version="1" timestamp="2022-08-02T15:29:44Z" changeset="124397377" uid="3497659" user="NKA">
		<tag k="historic" v="shieling" />
		<tag k="name" v="Bergemsgammelsetra" />
		<tag k="place" v="isolated_dwelling" />
		<tag k="ssr:stedsnr" v="510162" />
	</node>
	<node id="9927361906" lat="62.8969556" lon="8.628786" version="1" timestamp="2022-08-02T15:29:44Z" changeset="124397377" uid="3497659" user="NKA">
		<tag k="name" v="Åsbøsetra" />
		<tag k="place" v="locality" />
		<tag k="ssr:stedsnr" v="316319" />
	</node>
	<node id="9927361907" lat="62.9883389" lon="8.7070722" version="1" timestamp="2022-08-02T15:29:44Z" changeset="124397377" uid="3497659" user="NKA">
		<tag k="name" v="Snipen" />
		<tag k="place" v="farm" />
		<tag k="ssr:stedsnr" v="568070" />
	</node>
	<node id="9927361908" lat="62.9332884" lon="8.7174495" version="1" timestamp="2022-08-02T15:29:44Z" changeset="124397377" uid="3497659" user="NKA">
		<tag k="name" v="Holten" />
		<tag k="place" v="farm" />
		<tag k="ssr:stedsnr" v="96372" />
	</node>
	<node id="9927361909" lat="62.9381153" lon="8.7654799" version="1" timestamp="2022-08-02T15:29:44Z" changeset="124397377" uid="3497659" user="NKA">
		<tag k="name" v="Østbøen" />
		<tag k="place" v="hamlet" />
		<tag k="ssr:stedsnr" v="558040" />
	</node>
	<node id="9927361910" lat="62.9171239" lon="8.6525324" version="1" timestamp="2022-08-02T15:29:44Z" changeset="124397377" uid="3497659" user="NKA">
		<tag k="name" v="Holten" />
		<tag k="place" v="farm" />
		<tag k="ssr:stedsnr" v="35452" />
	</node>
	<node id="9927361911" lat="62.9985389" lon="8.6996833" version="1" timestamp="2022-08-02T15:29:44Z" changeset="124397377" uid="3497659" user="NKA">
		<tag k="name" v="Ner-Berseten" />
		<tag k="place" v="farm" />
		<tag k="ssr:stedsnr" v="205555" />
	</node>
	<node id="9927361912" lat="63.0172806" lon="8.7405668" version="1" timestamp="2022-08-02T15:29:44Z" changeset="124397377" uid="3497659" user="NKA">
		<tag k="historic" v="shieling" />
		<tag k="name" v="Heggsetsetra" />
		<tag k="place" v="isolated_dwelling" />
		<tag k="ssr:stedsnr" v="627649" />
	</node>
	<node id="9927361913" lat="62.9664416" lon="8.7579889" version="1" timestamp="2022-08-02T15:29:44Z" changeset="124397377" uid="3497659" user="NKA">
		<tag k="historic" v="shieling" />
		<tag k="name" v="Gammelsetra" />
		<tag k="place" v="isolated_dwelling" />
		<tag k="ssr:stedsnr" v="885906" />
	</node>
	<node id="9927361914" lat="63.0467239" lon="8.7376418" version="1" timestamp="2022-08-02T15:29:44Z" changeset="124397377" uid="3497659" user="NKA">
		<tag k="name" v="Bjørvolløa" />
		<tag k="place" v="locality" />
		<tag k="ssr:stedsnr" v="884123" />
	</node>
	<node id="9927361915" lat="62.9160149" lon="8.6694233" version="1" timestamp="2022-08-02T15:29:44Z" changeset="124397377" uid="3497659" user="NKA">
		<tag k="name" v="Engslættet" />
		<tag k="place" v="locality" />
		<tag k="ssr:stedsnr" v="762405" />
	</node>
	<node id="9927361916" lat="62.9809243" lon="8.4257885" version="1" timestamp="2022-08-02T15:29:44Z" changeset="124397377" uid="3497659" user="NKA">
		<tag k="name" v="Bergesvika" />
		<tag k="place" v="farm" />
		<tag k="ssr:stedsnr" v="861622" />
	</node>
	<node id="9927361917" lat="62.9817444" lon="8.7071973" version="1" timestamp="2022-08-02T15:29:44Z" changeset="124397377" uid="3497659" user="NKA">
		<tag k="name" v="Øverlandet" />
		<tag k="place" v="farm" />
		<tag k="ssr:stedsnr" v="872941" />
	</node>
	<node id="9927361918" lat="63.0603805" lon="8.4658219" version="1" timestamp="2022-08-02T15:29:44Z" changeset="124397377" uid="3497659" user="NKA">
		<tag k="name" v="Storli" />
		<tag k="place" v="farm" />
		<tag k="ssr:stedsnr" v="641830" />
	</node>
	<node id="9927361919" lat="62.9916194" lon="8.6115389" version="1" timestamp="2022-08-02T15:29:44Z" changeset="124397377" uid="3497659" user="NKA">
		<tag k="alt_name" v="Rønningen" />
		<tag k="name" v="Gartrønningan" />
		<tag k="place" v="farm" />
		<tag k="ssr:stedsnr" v="739648" />
	</node>
	<node id="9927361920" lat="62.9863167" lon="8.7152391" version="1" timestamp="2022-08-02T15:29:44Z" changeset="124397377" uid="3497659" user="NKA">
		<tag k="name" v="Øyagardslia bustadfelt" />
		<tag k="place" v="neighbourhood" />
		<tag k="ssr:stedsnr" v="363154" />
	</node>
	<node id="9927361921" lat="62.9879584" lon="8.418425" version="1" timestamp="2022-08-02T15:29:44Z" changeset="124397377" uid="3497659" user="NKA">
		<tag k="name" v="Bergesviksetra" />
		<tag k="place" v="isolated_dwelling" />
		<tag k="ssr:stedsnr" v="618629" />
	</node>
	<node id="9927361922" lat="62.9373071" lon="8.431751" version="1" timestamp="2022-08-02T15:29:44Z" changeset="124397377" uid="3497659" user="NKA">
		<tag k="name" v="Skaråkeren" />
		<tag k="place" v="farm" />
		<tag k="ssr:stedsnr" v="679686" />
	</node>
	<node id="9927361923" lat="62.9072054" lon="8.4702999" version="1" timestamp="2022-08-02T15:29:44Z" changeset="124397377" uid="3497659" user="NKA">
		<tag k="name" v="Ora" />
		<tag k="old_name" v="OHREN" />
		<tag k="place" v="farm" />
		<tag k="ssr:stedsnr" v="557289" />
	</node>
	<node id="9927361924" lat="62.9815056" lon="8.6962973" version="1" timestamp="2022-08-02T15:29:44Z" changeset="124397377" uid="3497659" user="NKA">
		<tag k="name" v="Syltbakken bustadfelt" />
		<tag k="place" v="neighbourhood" />
		<tag k="ssr:stedsnr" v="278941" />
	</node>
	<node id="9927361925" lat="62.9931722" lon="8.670425" version="1" timestamp="2022-08-02T15:29:44Z" changeset="124397377" uid="3497659" user="NKA">
		<tag k="name" v="Utigard" />
		<tag k="place" v="farm" />
		<tag k="ssr:stedsnr" v="508007" />
	</node>
	<node id="9927361926" lat="62.9848167" lon="8.4149056" version="1" timestamp="2022-08-02T15:29:44Z" changeset="124397377" uid="3497659" user="NKA">
		<tag k="name" v="Gammelsetra" />
		<tag k="place" v="locality" />
		<tag k="ssr:stedsnr" v="278340" />
	</node>
	<node id="9927361927" lat="62.9042361" lon="8.7367279" version="1" timestamp="2022-08-02T15:29:44Z" changeset="124397377" uid="3497659" user="NKA">
		<tag k="historic" v="shieling" />
		<tag k="name" v="Kvennbøsetrin" />
		<tag k="place" v="hamlet" />
		<tag k="ssr:stedsnr" v="133009" />
	</node>
	<node id="9927361928" lat="62.9955423" lon="8.4736511" version="1" timestamp="2022-08-02T15:29:44Z" changeset="124397377" uid="3497659" user="NKA">
		<tag k="name" v="Liset" />
		<tag k="place" v="farm" />
		<tag k="ssr:stedsnr" v="156900" />
	</node>
	<node id="9927361929" lat="62.9082167" lon="8.8334222" version="1" timestamp="2022-08-02T15:29:44Z" changeset="124397377" uid="3497659" user="NKA">
		<tag k="alt_name" v="Østbøen" />
		<tag k="historic" v="shieling" />
		<tag k="name" v="Mosetra" />
		<tag k="place" v="isolated_dwelling" />
		<tag k="ssr:stedsnr" v="85065" />
	</node>
	<node id="9927361930" lat="62.9773889" lon="8.7021806" version="1" timestamp="2022-08-02T15:29:44Z" changeset="124397377" uid="3497659" user="NKA">
		<tag k="name" v="Øye" />
		<tag k="place" v="hamlet" />
		<tag k="ssr:stedsnr" v="217882" />
	</node>
	<node id="9927361931" lat="62.9512639" lon="8.7041388" version="1" timestamp="2022-08-02T15:29:44Z" changeset="124397377" uid="3497659" user="NKA">
		<tag k="alt_name" v="Nord-Holten" />
		<tag k="name" v="Nordhalten" />
		<tag k="place" v="farm" />
		<tag k="ssr:stedsnr" v="557654" />
	</node>
	<node id="9927361932" lat="62.9760666" lon="8.6987167" version="1" timestamp="2022-08-02T15:29:44Z" changeset="124397377" uid="3497659" user="NKA">
		<tag k="name" v="Nistua" />
		<tag k="place" v="farm" />
		<tag k="ssr:stedsnr" v="217883" />
	</node>
	<node id="9927361933" lat="63.056761" lon="8.4568908" version="1" timestamp="2022-08-02T15:29:44Z" changeset="124397377" uid="3497659" user="NKA">
		<tag k="name" v="Bjørkås" />
		<tag k="place" v="farm" />
		<tag k="ssr:stedsnr" v="217834" />
	</node>
	<node id="9927361934" lat="62.9886583" lon="8.4983972" version="1" timestamp="2022-08-02T15:29:44Z" changeset="124397377" uid="3497659" user="NKA">
		<tag k="name" v="Øversetra" />
		<tag k="place" v="locality" />
		<tag k="ssr:stedsnr" v="763314" />
	</node>
	<node id="9927361935" lat="63.0576942" lon="8.4594397" version="1" timestamp="2022-08-02T15:29:44Z" changeset="124397377" uid="3497659" user="NKA">
		<tag k="name" v="Hjelmset" />
		<tag k="place" v="farm" />
		<tag k="ssr:stedsnr" v="945853" />
	</node>
	<node id="9927361936" lat="62.9705361" lon="8.6874401" version="1" timestamp="2022-08-02T15:29:44Z" changeset="124397377" uid="3497659" user="NKA">
		<tag k="name" v="Setra" />
		<tag k="place" v="farm" />
		<tag k="ssr:stedsnr" v="977451" />
	</node>
	<node id="9927361937" lat="62.9826237" lon="8.7411292" version="1" timestamp="2022-08-02T15:29:44Z" changeset="124397377" uid="3497659" user="NKA">
		<tag k="name" v="Bergem" />
		<tag k="place" v="farm" />
		<tag k="ssr:stedsnr" v="977490" />
	</node>
	<node id="9927361938" lat="62.9643695" lon="8.5833003" version="1" timestamp="2022-08-02T15:29:44Z" changeset="124397377" uid="3497659" user="NKA">
		<tag k="name" v="Stranda" />
		<tag k="place" v="farm" />
		<tag k="ssr:stedsnr" v="740678" />
	</node>
	<node id="9927361939" lat="63.0622368" lon="8.4712976" version="1" timestamp="2022-08-02T15:29:44Z" changeset="124397377" uid="3497659" user="NKA">
		<tag k="name" v="Fjellbu" />
		<tag k="place" v="farm" />
		<tag k="ssr:stedsnr" v="702857" />
	</node>
	<node id="9927361940" lat="63.0360002" lon="8.4469625" version="1" timestamp="2022-08-02T15:29:44Z" changeset="124397377" uid="3497659" user="NKA">
		<tag k="name" v="Lia" />
		<tag k="place" v="farm" />
		<tag k="ssr:stedsnr" v="618799" />
	</node>
	<node id="9927361941" lat="63.0575111" lon="8.4776639" version="1" timestamp="2022-08-02T15:29:44Z" changeset="124397377" uid="3497659" user="NKA">
		<tag k="name" v="Oppigardsetra" />
		<tag k="place" v="isolated_dwelling" />
		<tag k="ssr:stedsnr" v="581378" />
	</node>
	<node id="9927361942" lat="62.9758343" lon="8.5308457" version="1" timestamp="2022-08-02T15:29:44Z" changeset="124397377" uid="3497659" user="NKA">
		<tag k="name" v="Åsheim" />
		<tag k="place" v="farm" />
		<tag k="ssr:stedsnr" v="581916" />
	</node>
	<node id="9927361943" lat="62.8879251" lon="8.5485338" version="1" timestamp="2022-08-02T15:29:44Z" changeset="124397377" uid="3497659" user="NKA">
		<tag k="name" v="Rabben" />
		<tag k="place" v="farm" />
		<tag k="ssr:stedsnr" v="460846" />
	</node>
	<node id="9927361944" lat="62.9051449" lon="8.8394238" version="1" timestamp="2022-08-02T15:29:44Z" changeset="124397377" uid="3497659" user="NKA">
		<tag k="name" v="Klokkargardssetra" />
		<tag k="place" v="isolated_dwelling" />
		<tag k="ssr:stedsnr" v="801013" />
	</node>
	<node id="9927361945" lat="63.0586532" lon="8.4623322" version="1" timestamp="2022-08-02T15:29:44Z" changeset="124397377" uid="3497659" user="NKA">
		<tag k="loc_name" v="Sletta" />
		<tag k="name" v="Slætta" />
		<tag k="old_name" v="Sollislett" />
		<tag k="place" v="hamlet" />
		<tag k="ssr:stedsnr" v="437920" />
	</node>
	<node id="9927361946" lat="63.0458916" lon="8.5992278" version="1" timestamp="2022-08-02T15:29:44Z" changeset="124397377" uid="3497659" user="NKA">
		<tag k="name" v="Gammelsetra" />
		<tag k="place" v="locality" />
		<tag k="ssr:stedsnr" v="217268" />
	</node>
	<node id="9927361947" lat="62.9915055" lon="8.651075" version="1" timestamp="2022-08-02T15:29:44Z" changeset="124397377" uid="3497659" user="NKA">
		<tag k="name" v="Osen" />
		<tag k="place" v="farm" />
		<tag k="ssr:stedsnr" v="144936" />
	</node>
	<node id="9927361948" lat="62.9850611" lon="8.6883972" version="1" timestamp="2022-08-02T15:29:44Z" changeset="124397377" uid="3497659" user="NKA">
		<tag k="name" v="Oppigard" />
		<tag k="place" v="farm" />
		<tag k="ssr:stedsnr" v="143926" />
	</node>
	<node id="9927361949" lat="62.9763083" lon="8.5321055" version="1" timestamp="2022-08-02T15:29:44Z" changeset="124397377" uid="3497659" user="NKA">
		<tag k="name" v="Tussvika" />
		<tag k="place" v="farm" />
		<tag k="ssr:stedsnr" v="315657" />
	</node>
	<node id="9927361950" lat="62.9918" lon="8.7039527" version="1" timestamp="2022-08-02T15:29:44Z" changeset="124397377" uid="3497659" user="NKA">
		<tag k="name" v="Heggsetgjerdet" />
		<tag k="place" v="farm" />
		<tag k="ssr:stedsnr" v="811074" />
	</node>
	<node id="9927361951" lat="62.9829215" lon="8.5595075" version="1" timestamp="2022-08-02T15:29:44Z" changeset="124397377" uid="3497659" user="NKA">
		<tag k="name" v="Sjøflottbaugen" />
		<tag k="place" v="farm" />
		<tag k="ssr:stedsnr" v="338381" />
	</node>
	<node id="9927361952" lat="62.9871586" lon="8.5654011" version="1" timestamp="2022-08-02T15:29:44Z" changeset="124397377" uid="3497659" user="NKA">
		<tag k="name" v="Møkkelgjerdet" />
		<tag k="place" v="farm" />
		<tag k="ssr:stedsnr" v="254624" />
	</node>
	<node id="9927361953" lat="62.9896039" lon="8.6723844" version="1" timestamp="2022-08-02T15:29:44Z" changeset="124397377" uid="3497659" user="NKA">
		<tag k="name" v="Nergjerdet" />
		<tag k="place" v="hamlet" />
		<tag k="ssr:stedsnr" v="690065" />
	</node>
	<node id="9927361954" lat="62.9912473" lon="8.6452528" version="1" timestamp="2022-08-02T15:29:44Z" changeset="124397377" uid="3497659" user="NKA">
		<tag k="name" v="Naustan" />
		<tag k="place" v="farm" />
		<tag k="ssr:stedsnr" v="84343" />
	</node>
	<node id="9927361955" lat="62.9246028" lon="8.7053334" version="1" timestamp="2022-08-02T15:29:44Z" changeset="124397377" uid="3497659" user="NKA">
		<tag k="alt_name" v="Kvennbømyra" />
		<tag k="name" v="Myra" />
		<tag k="place" v="farm" />
		<tag k="ssr:stedsnr" v="801715" />
	</node>
	<node id="9927361956" lat="62.9624667" lon="8.5715639" version="1" timestamp="2022-08-02T15:29:44Z" changeset="124397377" uid="3497659" user="NKA">
		<tag k="name" v="Holten" />
		<tag k="place" v="hamlet" />
		<tag k="ssr:stedsnr" v="133653" />
	</node>
	<node id="9927361957" lat="62.9958528" lon="8.8279" version="1" timestamp="2022-08-02T15:29:44Z" changeset="124397377" uid="3497659" user="NKA">
		<tag k="name" v="Arntrøa" />
		<tag k="place" v="farm" />
		<tag k="ssr:stedsnr" v="763849" />
	</node>
	<node id="9927361958" lat="63.0462278" lon="8.7367139" version="1" timestamp="2022-08-02T15:29:44Z" changeset="124397377" uid="3497659" user="NKA">
		<tag k="historic" v="shieling" />
		<tag k="name" v="Bjonvollen" />
		<tag k="place" v="isolated_dwelling" />
		<tag k="ssr:stedsnr" v="23238" />
	</node>
	<node id="9927361959" lat="62.9493666" lon="8.5012389" version="1" timestamp="2022-08-02T15:29:44Z" changeset="124397377" uid="3497659" user="NKA">
		<tag k="name" v="Liabu" />
		<tag k="place" v="isolated_dwelling" />
		<tag k="ssr:stedsnr" v="133675" />
	</node>
	<node id="9927361960" lat="62.8898424" lon="8.5214927" version="1" timestamp="2022-08-02T15:29:44Z" changeset="124397377" uid="3497659" user="NKA">
		<tag k="name" v="Skrivarstua" />
		<tag k="place" v="farm" />
		<tag k="ssr:stedsnr" v="762070" />
	</node>
	<node id="9927361961" lat="63.0027861" lon="8.4983527" version="1" timestamp="2022-08-02T15:29:44Z" changeset="124397377" uid="3497659" user="NKA">
		<tag k="alt_name" v="Saga" />
		<tag k="name" v="Snekkviksaga" />
		<tag k="place" v="farm" />
		<tag k="ssr:stedsnr" v="73865" />
	</node>
	<node id="9927361962" lat="62.8924876" lon="8.5133501" version="1" timestamp="2022-08-02T15:29:44Z" changeset="124397377" uid="3497659" user="NKA">
		<tag k="name" v="Steinen" />
		<tag k="place" v="farm" />
		<tag k="ssr:stedsnr" v="520862" />
	</node>
	<node id="9927361963" lat="62.9962746" lon="8.833766" version="1" timestamp="2022-08-02T15:29:44Z" changeset="124397377" uid="3497659" user="NKA">
		<tag k="name" v="Leikaren" />
		<tag k="place" v="farm" />
		<tag k="ssr:stedsnr" v="156857" />
	</node>
	<node id="9927361964" lat="62.8898032" lon="8.5187495" version="1" timestamp="2022-08-02T15:29:44Z" changeset="124397377" uid="3497659" user="NKA">
		<tag k="name" v="Vårtun" />
		<tag k="place" v="farm" />
		<tag k="ssr:stedsnr" v="156812" />
	</node>
	<node id="9927361965" lat="63.0307584" lon="8.5649695" version="1" timestamp="2022-08-02T15:29:44Z" changeset="124397377" uid="3497659" user="NKA">
		<tag k="historic" v="shieling" />
		<tag k="name" v="Hakstadsetra" />
		<tag k="place" v="isolated_dwelling" />
		<tag k="ssr:stedsnr" v="922810" />
	</node>
	<node id="9927361966" lat="63.0291612" lon="8.5100334" version="1" timestamp="2022-08-02T15:29:44Z" changeset="124397377" uid="3497659" user="NKA">
		<tag k="name" v="Åsskardsetra" />
		<tag k="place" v="isolated_dwelling" />
		<tag k="ssr:stedsnr" v="922814" />
	</node>
	<node id="9927361967" lat="63.0439695" lon="8.3953555" version="1" timestamp="2022-08-02T15:29:44Z" changeset="124397377" uid="3497659" user="NKA">
		<tag k="name" v="Settemsetra" />
		<tag k="place" v="isolated_dwelling" />
		<tag k="ssr:stedsnr" v="156855" />
	</node>
	<node id="9927361968" lat="62.7922756" lon="8.9043178" version="1" timestamp="2022-08-02T15:29:44Z" changeset="124397377" uid="3497659" user="NKA">
		<tag k="historic" v="shieling" />
		<tag k="name" v="Naustådalssetra" />
		<tag k="place" v="isolated_dwelling" />
		<tag k="ssr:stedsnr" v="740094" />
	</node>
	<node id="9927361969" lat="63.0185268" lon="8.4952708" version="1" timestamp="2022-08-02T15:29:44Z" changeset="124397377" uid="3497659" user="NKA">
		<tag k="name" v="Olastua" />
		<tag k="place" v="farm" />
		<tag k="ssr:stedsnr" v="885830" />
	</node>
	<node id="9927361970" lat="62.7869028" lon="8.7792527" version="1" timestamp="2022-08-02T15:29:44Z" changeset="124397377" uid="3497659" user="NKA">
		<tag k="name" v="Brekkliløa" />
		<tag k="place" v="locality" />
		<tag k="ssr:stedsnr" v="762310" />
	</node>
	<node id="9927361971" lat="63.0000256" lon="8.4923686" version="1" timestamp="2022-08-02T15:29:44Z" changeset="124397377" uid="3497659" user="NKA">
		<tag k="name" v="Bergheim" />
		<tag k="place" v="farm" />
		<tag k="ssr:stedsnr" v="885828" />
	</node>
	<node id="9927361972" lat="62.9838139" lon="8.5637944" version="1" timestamp="2022-08-02T15:29:44Z" changeset="124397377" uid="3497659" user="NKA">
		<tag k="name" v="Øyan" />
		<tag k="place" v="farm" />
		<tag k="ssr:stedsnr" v="194623" />
	</node>
	<node id="9927361973" lat="62.8028976" lon="8.7543682" version="1" timestamp="2022-08-02T15:29:44Z" changeset="124397377" uid="3497659" user="NKA">
		<tag k="name" v="Ramsøya" />
		<tag k="place" v="farm" />
		<tag k="ssr:stedsnr" v="740056" />
	</node>
	<node id="9927361974" lat="62.9578344" lon="8.5490654" version="1" timestamp="2022-08-02T15:29:44Z" changeset="124397377" uid="3497659" user="NKA">
		<tag k="name" v="Engellia" />
		<tag k="place" v="farm" />
		<tag k="ssr:stedsnr" v="861641" />
	</node>
	<node id="9927361975" lat="62.8028837" lon="8.7424331" version="1" timestamp="2022-08-02T15:29:44Z" changeset="124397377" uid="3497659" user="NKA">
		<tag k="name" v="Høgtun" />
		<tag k="place" v="farm" />
		<tag k="ssr:stedsnr" v="581077" />
	</node>
	<node id="9927361976" lat="63.0346666" lon="8.5034833" version="1" timestamp="2022-08-02T15:29:44Z" changeset="124397377" uid="3497659" user="NKA">
		<tag k="historic" v="shieling" />
		<tag k="name" v="Dreierstusetra" />
		<tag k="place" v="isolated_dwelling" />
		<tag k="ssr:stedsnr" v="520875" />
	</node>
	<node id="9927361977" lat="62.9561389" lon="8.5158889" version="1" timestamp="2022-08-02T15:29:44Z" changeset="124397377" uid="3497659" user="NKA">
		<tag k="name" v="Hallvardtrøin" />
		<tag k="place" v="isolated_dwelling" />
		<tag k="ssr:stedsnr" v="861667" />
	</node>
	<node id="9927361978" lat="62.9020087" lon="8.5770117" version="1" timestamp="2022-08-02T15:29:44Z" changeset="124397377" uid="3497659" user="NKA">
		<tag k="name" v="Bortigarden" />
		<tag k="place" v="farm" />
		<tag k="ssr:stedsnr" v="945056" />
	</node>
	<node id="9927361979" lat="62.9935222" lon="8.6753612" version="1" timestamp="2022-08-02T15:29:44Z" changeset="124397377" uid="3497659" user="NKA">
		<tag k="name" v="Jostua" />
		<tag k="place" v="farm" />
		<tag k="ssr:stedsnr" v="934947" />
	</node>
	<node id="9927361980" lat="62.8113563" lon="9.1933071" version="1" timestamp="2022-08-02T15:29:44Z" changeset="124397377" uid="3497659" user="NKA">
		<tag k="name" v="Storsetra" />
		<tag k="place" v="isolated_dwelling" />
		<tag k="ssr:stedsnr" v="580444" />
	</node>
	<node id="9927361981" lat="62.9824398" lon="8.5517417" version="1" timestamp="2022-08-02T15:29:44Z" changeset="124397377" uid="3497659" user="NKA">
		<tag k="name" v="Sjøflottan" />
		<tag k="place" v="farm" />
		<tag k="ssr:stedsnr" v="557622" />
	</node>
	<node id="9927361982" lat="63.0138593" lon="8.3201663" version="1" timestamp="2022-08-02T15:29:44Z" changeset="124397377" uid="3497659" user="NKA">
		<tag k="name" v="Teigen" />
		<tag k="place" v="farm" />
		<tag k="ssr:stedsnr" v="922831" />
	</node>
	<node id="9927361983" lat="62.9908168" lon="8.4924934" version="1" timestamp="2022-08-02T15:29:44Z" changeset="124397377" uid="3497659" user="NKA">
		<tag k="name" v="Sandheim" />
		<tag k="place" v="farm" />
		<tag k="ssr:stedsnr" v="399890" />
	</node>
	<node id="9927361984" lat="62.9194528" lon="8.99685" version="1" timestamp="2022-08-02T15:29:44Z" changeset="124397377" uid="3497659" user="NKA">
		<tag k="historic" v="shieling" />
		<tag k="name" v="Stølssetra" />
		<tag k="place" v="isolated_dwelling" />
		<tag k="ssr:stedsnr" v="692853" />
	</node>
	<node id="9927361985" lat="62.7990361" lon="8.7634112" version="1" timestamp="2022-08-02T15:29:44Z" changeset="124397377" uid="3497659" user="NKA">
		<tag k="name" v="Heggøya" />
		<tag k="place" v="farm" />
		<tag k="ssr:stedsnr" v="437078" />
	</node>
	<node id="9927361986" lat="62.9727775" lon="8.5233444" version="1" timestamp="2022-08-02T15:29:44Z" changeset="124397377" uid="3497659" user="NKA">
		<tag k="name" v="Lyngmo" />
		<tag k="place" v="farm" />
		<tag k="ssr:stedsnr" v="278927" />
	</node>
	<node id="9927361987" lat="62.8076682" lon="8.7175533" version="1" timestamp="2022-08-02T15:29:44Z" changeset="124397377" uid="3497659" user="NKA">
		<tag k="alt_name" v="Øyen" />
		<tag k="name" v="Øya" />
		<tag k="place" v="hamlet" />
		<tag k="ssr:stedsnr" v="399076" />
	</node>
	<node id="9927361988" lat="62.8275417" lon="8.8488666" version="1" timestamp="2022-08-02T15:29:44Z" changeset="124397377" uid="3497659" user="NKA">
		<tag k="name" v="Stølen" />
		<tag k="place" v="locality" />
		<tag k="ssr:stedsnr" v="520029" />
	</node>
	<node id="9927361989" lat="62.8324215" lon="8.8751753" version="1" timestamp="2022-08-02T15:29:44Z" changeset="124397377" uid="3497659" user="NKA">
		<tag k="name" v="Steinarstusetra" />
		<tag k="place" v="isolated_dwelling" />
		<tag k="ssr:stedsnr" v="520300" />
	</node>
	<node id="9927361990" lat="62.7717417" lon="9.0153194" version="1" timestamp="2022-08-02T15:29:44Z" changeset="124397377" uid="3497659" user="NKA">
		<tag k="historic" v="shieling" />
		<tag k="name" v="Stangarvollen" />
		<tag k="place" v="isolated_dwelling" />
		<tag k="ssr:stedsnr" v="509294" />
	</node>
	<node id="9927361991" lat="62.978308" lon="8.5218556" version="1" timestamp="2022-08-02T15:29:44Z" changeset="124397377" uid="3497659" user="NKA">
		<tag k="name" v="Øvre Trøene" />
		<tag k="place" v="farm" />
		<tag k="ssr:stedsnr" v="156906" />
	</node>
	<node id="9927361992" lat="62.7750778" lon="8.7012028" version="1" timestamp="2022-08-02T15:29:44Z" changeset="124397377" uid="3497659" user="NKA">
		<tag k="name" v="Øyasetra" />
		<tag k="place" v="isolated_dwelling" />
		<tag k="ssr:stedsnr" v="497383" />
	</node>
	<node id="9927361993" lat="62.8882845" lon="8.5460434" version="1" timestamp="2022-08-02T15:29:44Z" changeset="124397377" uid="3497659" user="NKA">
		<tag k="name" v="Skogly" />
		<tag k="place" v="farm" />
		<tag k="ssr:stedsnr" v="460847" />
	</node>
	<node id="9927361994" lat="62.8005834" lon="8.7579222" version="1" timestamp="2022-08-02T15:29:44Z" changeset="124397377" uid="3497659" user="NKA">
		<tag k="alt_name" v="Øvre Bruset" />
		<tag k="name" v="Bruset" />
		<tag k="place" v="farm" />
		<tag k="ssr:stedsnr" v="255086" />
	</node>
	<node id="9927361995" lat="62.902175" lon="8.4869083" version="1" timestamp="2022-08-02T15:29:44Z" changeset="124397377" uid="3497659" user="NKA">
		<tag k="name" v="Heimdal" />
		<tag k="place" v="farm" />
		<tag k="ssr:stedsnr" v="315278" />
	</node>
	<node id="9927361996" lat="62.8949508" lon="8.5565424" version="1" timestamp="2022-08-02T15:29:44Z" changeset="124397377" uid="3497659" user="NKA">
		<tag k="name" v="Øvrebø" />
		<tag k="place" v="farm" />
		<tag k="ssr:stedsnr" v="35850" />
	</node>
	<node id="9927361997" lat="62.9029843" lon="8.4857556" version="1" timestamp="2022-08-02T15:29:44Z" changeset="124397377" uid="3497659" user="NKA">
		<tag k="name" v="Finnviktrøa" />
		<tag k="place" v="farm" />
		<tag k="ssr:stedsnr" v="640094" />
	</node>
	<node id="9927361998" lat="62.8878572" lon="8.5554017" version="1" timestamp="2022-08-02T15:29:44Z" changeset="124397377" uid="3497659" user="NKA">
		<tag k="name" v="Søyset" />
		<tag k="place" v="farm" />
		<tag k="ssr:stedsnr" v="195315" />
	</node>
	<node id="9927361999" lat="63.0199804" lon="9.0620742" version="1" timestamp="2022-08-02T15:29:44Z" changeset="124397377" uid="3497659" user="NKA">
		<tag k="name" v="Flotten" />
		<tag k="place" v="farm" />
		<tag k="ssr:stedsnr" v="641826" />
	</node>
	<node id="9927362000" lat="62.9061666" lon="8.5353889" version="1" timestamp="2022-08-02T15:29:44Z" changeset="124397377" uid="3497659" user="NKA">
		<tag k="name" v="Myrset" />
		<tag k="place" v="farm" />
		<tag k="ssr:stedsnr" v="740302" />
	</node>
	<node id="9927362001" lat="62.8089119" lon="8.7338937" version="1" timestamp="2022-08-02T15:29:44Z" changeset="124397377" uid="3497659" user="NKA">
		<tag k="name" v="Flathauan bustadfelt" />
		<tag k="place" v="neighbourhood" />
		<tag k="ssr:stedsnr" v="60175" />
	</node>
	<node id="9927362002" lat="62.9125342" lon="8.5548017" version="1" timestamp="2022-08-02T15:29:44Z" changeset="124397377" uid="3497659" user="NKA">
		<tag k="historic" v="shieling" />
		<tag k="name" v="Røsetra" />
		<tag k="place" v="isolated_dwelling" />
		<tag k="ssr:stedsnr" v="35909" />
	</node>
	<node id="9927362003" lat="62.9215513" lon="8.6627128" version="1" timestamp="2022-08-02T15:29:44Z" changeset="124397377" uid="3497659" user="NKA">
		<tag k="name" v="Pollen" />
		<tag k="place" v="farm" />
		<tag k="ssr:stedsnr" v="922717" />
	</node>
	<node id="9927362004" lat="62.9949861" lon="8.8486668" version="1" timestamp="2022-08-02T15:29:44Z" changeset="124397377" uid="3497659" user="NKA">
		<tag k="name" v="Liatrøa" />
		<tag k="place" v="locality" />
		<tag k="ssr:stedsnr" v="945021" />
	</node>
	<node id="9927362005" lat="62.9896189" lon="8.8800095" version="1" timestamp="2022-08-02T15:29:44Z" changeset="124397377" uid="3497659" user="NKA">
		<tag k="name" v="Mausettrøa" />
		<tag k="place" v="farm" />
		<tag k="ssr:stedsnr" v="763848" />
	</node>
	<node id="9927362006" lat="63.0061361" lon="8.8235056" version="1" timestamp="2022-08-02T15:29:44Z" changeset="124397377" uid="3497659" user="NKA">
		<tag k="name" v="Gammelsetra" />
		<tag k="place" v="locality" />
		<tag k="ssr:stedsnr" v="823760" />
	</node>
	<node id="9927362007" lat="62.8112679" lon="8.7296554" version="1" timestamp="2022-08-02T15:29:44Z" changeset="124397377" uid="3497659" user="NKA">
		<tag k="name" v="Husby" />
		<tag k="place" v="hamlet" />
		<tag k="ssr:stedsnr" v="862140" />
	</node>
	<node id="9927362008" lat="62.8258183" lon="8.7039514" version="1" timestamp="2022-08-02T15:29:44Z" changeset="124397377" uid="3497659" user="NKA">
		<tag k="name" v="Todalshaugen" />
		<tag k="place" v="farm" />
		<tag k="ssr:stedsnr" v="740396" />
	</node>
	<node id="9927362009" lat="62.8286944" lon="8.8639694" version="1" timestamp="2022-08-02T15:29:44Z" changeset="124397377" uid="3497659" user="NKA">
		<tag k="name" v="Steinarstugammelsetra" />
		<tag k="place" v="locality" />
		<tag k="ssr:stedsnr" v="762278" />
	</node>
	<node id="9927362010" lat="62.8286389" lon="8.7577388" version="1" timestamp="2022-08-02T15:29:44Z" changeset="124397377" uid="3497659" user="NKA">
		<tag k="name" v="Markastua" />
		<tag k="place" v="isolated_dwelling" />
		<tag k="ssr:stedsnr" v="206093" />
	</node>
	<node id="9927362011" lat="62.9750056" lon="8.8411416" version="1" timestamp="2022-08-02T15:29:44Z" changeset="124397377" uid="3497659" user="NKA">
		<tag k="name" v="Knyksetra" />
		<tag k="place" v="locality" />
		<tag k="ssr:stedsnr" v="702735" />
	</node>
	<node id="9927362012" lat="62.7819387" lon="8.8376599" version="1" timestamp="2022-08-02T15:29:44Z" changeset="124397377" uid="3497659" user="NKA">
		<tag k="name" v="Sommarfjøset" />
		<tag k="place" v="locality" />
		<tag k="ssr:stedsnr" v="762267" />
	</node>
	<node id="9927362013" lat="62.8067077" lon="8.713434" version="1" timestamp="2022-08-02T15:29:44Z" changeset="124397377" uid="3497659" user="NKA">
		<tag k="name" v="Hjellan" />
		<tag k="place" v="farm" />
		<tag k="ssr:stedsnr" v="558436" />
	</node>
	<node id="9927362014" lat="62.8078226" lon="8.7282915" version="1" timestamp="2022-08-02T15:29:44Z" changeset="124397377" uid="3497659" user="NKA">
		<tag k="name" v="Hala" />
		<tag k="place" v="farm" />
		<tag k="ssr:stedsnr" v="862137" />
	</node>
	<node id="9927362015" lat="62.8058435" lon="8.731583" version="1" timestamp="2022-08-02T15:29:44Z" changeset="124397377" uid="3497659" user="NKA">
		<tag k="name" v="Haugabu" />
		<tag k="place" v="farm" />
		<tag k="ssr:stedsnr" v="315112" />
	</node>
	<node id="9927362016" lat="62.8191058" lon="9.2165635" version="1" timestamp="2022-08-02T15:29:44Z" changeset="124397377" uid="3497659" user="NKA">
		<tag k="historic" v="shieling" />
		<tag k="name" v="Litlsetra" />
		<tag k="place" v="isolated_dwelling" />
		<tag k="ssr:stedsnr" v="874384" />
	</node>
	<node id="9927362017" lat="62.8146077" lon="8.6981638" version="1" timestamp="2022-08-02T15:29:44Z" changeset="124397377" uid="3497659" user="NKA">
		<tag k="name" v="Holmen" />
		<tag k="place" v="farm" />
		<tag k="ssr:stedsnr" v="255406" />
	</node>
	<node id="9927362018" lat="63.0278526" lon="9.0959133" version="1" timestamp="2022-08-02T15:29:44Z" changeset="124397377" uid="3497659" user="NKA">
		<tag k="name" v="Fuglsøya" />
		<tag k="place" v="hamlet" />
		<tag k="ssr:stedsnr" v="497664" />
	</node>
	<node id="9927362019" lat="62.7806325" lon="8.8748218" version="1" timestamp="2022-08-02T15:29:44Z" changeset="124397377" uid="3497659" user="NKA">
		<tag k="name" v="Kårvatn" />
		<tag k="place" v="farm" />
		<tag k="ssr:stedsnr" v="977573" />
	</node>
	<node id="9927362020" lat="62.7643111" lon="8.9037777" version="1" timestamp="2022-08-02T15:29:44Z" changeset="124397377" uid="3497659" user="NKA">
		<tag k="name" v="Gammelsetra" />
		<tag k="place" v="locality" />
		<tag k="ssr:stedsnr" v="459333" />
	</node>
	<node id="9927362021" lat="63.0501199" lon="8.8713531" version="1" timestamp="2022-08-02T15:29:44Z" changeset="124397377" uid="3497659" user="NKA">
		<tag k="name" v="Solvasshytta" />
		<tag k="place" v="isolated_dwelling" />
		<tag k="ssr:stedsnr" v="641838" />
	</node>
	<node id="9927362022" lat="63.0078111" lon="8.5579445" version="1" timestamp="2022-08-02T15:29:44Z" changeset="124397377" uid="3497659" user="NKA">
		<tag k="name" v="Baklisetra" />
		<tag k="place" v="locality" />
		<tag k="ssr:stedsnr" v="824917" />
	</node>
	<node id="9927362023" lat="62.9967278" lon="8.8936173" version="1" timestamp="2022-08-02T15:29:44Z" changeset="124397377" uid="3497659" user="NKA">
		<tag k="name" v="Sveahaugen" />
		<tag k="place" v="farm" />
		<tag k="ssr:stedsnr" v="361577" />
	</node>
	<node id="9927362024" lat="63.0120361" lon="8.8604805" version="1" timestamp="2022-08-02T15:29:44Z" changeset="124397377" uid="3497659" user="NKA">
		<tag k="historic" v="shieling" />
		<tag k="name" v="Mogstadsetrin" />
		<tag k="place" v="isolated_dwelling" />
		<tag k="ssr:stedsnr" v="619701" />
	</node>
	<node id="9927362025" lat="62.9905528" lon="8.9446583" version="1" timestamp="2022-08-02T15:29:44Z" changeset="124397377" uid="3497659" user="NKA">
		<tag k="name" v="Auster Nyvegtrøa" />
		<tag k="place" v="farm" />
		<tag k="ssr:stedsnr" v="945867" />
	</node>
	<node id="9927362026" lat="62.9828472" lon="8.7347222" version="1" timestamp="2022-08-02T15:29:44Z" changeset="124397377" uid="3497659" user="NKA">
		<tag k="name" v="Tuvteigen" />
		<tag k="place" v="farm" />
		<tag k="ssr:stedsnr" v="811849" />
	</node>
	<node id="9927362027" lat="63.1029412" lon="8.8957074" version="1" timestamp="2022-08-02T15:29:44Z" changeset="124397377" uid="3497659" user="NKA">
		<tag k="historic" v="shieling" />
		<tag k="name" v="Snøstua" />
		<tag k="place" v="isolated_dwelling" />
		<tag k="ssr:stedsnr" v="581881" />
	</node>
	<node id="9927362028" lat="62.8031528" lon="8.7223527" version="1" timestamp="2022-08-02T15:29:44Z" changeset="124397377" uid="3497659" user="NKA">
		<tag k="name" v="Reitan" />
		<tag k="place" v="farm" />
		<tag k="ssr:stedsnr" v="497075" />
	</node>
	<node id="9927362029" lat="62.9890587" lon="8.8680377" version="1" timestamp="2022-08-02T15:29:44Z" changeset="124397377" uid="3497659" user="NKA">
		<tag k="name" v="Honnstadøyan" />
		<tag k="place" v="farm" />
		<tag k="ssr:stedsnr" v="34819" />
	</node>
	<node id="9927362030" lat="62.9972001" lon="8.9264332" version="1" timestamp="2022-08-02T15:29:44Z" changeset="124397377" uid="3497659" user="NKA">
		<tag k="name" v="Holten" />
		<tag k="place" v="farm" />
		<tag k="ssr:stedsnr" v="497446" />
	</node>
	<node id="9927362031" lat="63.0102944" lon="8.7556195" version="1" timestamp="2022-08-02T15:29:44Z" changeset="124397377" uid="3497659" user="NKA">
		<tag k="name" v="Prestsetra" />
		<tag k="place" v="isolated_dwelling" />
		<tag k="ssr:stedsnr" v="922667" />
	</node>
	<node id="9927362032" lat="63.0287894" lon="9.1010044" version="1" timestamp="2022-08-02T15:29:44Z" changeset="124397377" uid="3497659" user="NKA">
		<tag k="name" v="Evja" />
		<tag k="place" v="farm" />
		<tag k="ssr:stedsnr" v="399831" />
	</node>
	<node id="9927362033" lat="62.9573277" lon="8.4965499" version="1" timestamp="2022-08-02T15:29:44Z" changeset="124397377" uid="3497659" user="NKA">
		<tag k="name" v="Nyheim" />
		<tag k="place" v="farm" />
		<tag k="ssr:stedsnr" v="801655" />
	</node>
	<node id="9927362034" lat="63.0219295" lon="9.0357061" version="1" timestamp="2022-08-02T15:29:44Z" changeset="124397377" uid="3497659" user="NKA">
		<tag k="name" v="Storslættsetra" />
		<tag k="place" v="isolated_dwelling" />
		<tag k="ssr:stedsnr" v="399833" />
	</node>
	<node id="9927362035" lat="62.8929972" lon="8.5629388" version="1" timestamp="2022-08-02T15:29:44Z" changeset="124397377" uid="3497659" user="NKA">
		<tag k="name" v="Storøya" />
		<tag k="place" v="farm" />
		<tag k="ssr:stedsnr" v="801261" />
	</node>
	<node id="9927362036" lat="62.9907917" lon="8.6293389" version="1" timestamp="2022-08-02T15:29:44Z" changeset="124397377" uid="3497659" user="NKA">
		<tag k="name" v="Rønningan" />
		<tag k="place" v="farm" />
		<tag k="ssr:stedsnr" v="702909" />
	</node>
	<node id="9927362037" lat="62.9792611" lon="8.6615388" version="1" timestamp="2022-08-02T15:29:44Z" changeset="124397377" uid="3497659" user="NKA">
		<tag k="name" v="Tangen" />
		<tag k="place" v="farm" />
		<tag k="ssr:stedsnr" v="922642" />
	</node>
	<node id="9927362038" lat="62.9808932" lon="8.8088238" version="1" timestamp="2022-08-02T15:29:44Z" changeset="124397377" uid="3497659" user="NKA">
		<tag k="name" v="Sogge" />
		<tag k="place" v="hamlet" />
		<tag k="ssr:stedsnr" v="680507" />
	</node>
	<node id="9927362039" lat="62.7915999" lon="8.7956106" version="1" timestamp="2022-08-02T15:29:44Z" changeset="124397377" uid="3497659" user="NKA">
		<tag k="alt_name" v="Talgø" />
		<tag k="name" v="Taløyan" />
		<tag k="place" v="hamlet" />
		<tag k="ssr:stedsnr" v="922091" />
	</node>
	<node id="9927362040" lat="62.941075" lon="8.8613195" version="1" timestamp="2022-08-02T15:29:44Z" changeset="124397377" uid="3497659" user="NKA">
		<tag k="name" v="Ellevsetsetra" />
		<tag k="place" v="isolated_dwelling" />
		<tag k="ssr:stedsnr" v="580827" />
	</node>
	<node id="9927362041" lat="62.993325" lon="8.8434139" version="1" timestamp="2022-08-02T15:29:44Z" changeset="124397377" uid="3497659" user="NKA">
		<tag k="name" v="Mogstad" />
		<tag k="place" v="isolated_dwelling" />
		<tag k="ssr:stedsnr" v="680515" />
	</node>
	<node id="9927362042" lat="62.9988717" lon="8.9900372" version="1" timestamp="2022-08-02T15:29:44Z" changeset="124397377" uid="3497659" user="NKA">
		<tag k="name" v="Setra" />
		<tag k="place" v="hamlet" />
		<tag k="ssr:stedsnr" v="376491" />
	</node>
	<node id="9927362043" lat="63.0185423" lon="9.07662" version="1" timestamp="2022-08-02T15:29:44Z" changeset="124397377" uid="3497659" user="NKA">
		<tag k="name" v="Austistua Sande" />
		<tag k="place" v="farm" />
		<tag k="ssr:stedsnr" v="580735" />
	</node>
	<node id="9927362044" lat="62.811125" lon="8.8098833" version="1" timestamp="2022-08-02T15:29:44Z" changeset="124397377" uid="3497659" user="NKA">
		<tag k="name" v="Gammelsetra" />
		<tag k="place" v="locality" />
		<tag k="ssr:stedsnr" v="813057" />
	</node>
	<node id="9927362045" lat="62.9225305" lon="8.4627085" version="1" timestamp="2022-08-02T15:29:44Z" changeset="124397377" uid="3497659" user="NKA">
		<tag k="name" v="Jaren" />
		<tag k="place" v="farm" />
		<tag k="ssr:stedsnr" v="618698" />
	</node>
	<node id="9927362046" lat="63.0327605" lon="9.0972827" version="1" timestamp="2022-08-02T15:29:44Z" changeset="124397377" uid="3497659" user="NKA">
		<tag k="name" v="Dalsegga" />
		<tag k="place" v="farm" />
		<tag k="ssr:stedsnr" v="255696" />
	</node>
	<node id="9927362047" lat="63.0785734" lon="8.8243668" version="1" timestamp="2022-08-02T15:29:44Z" changeset="124397377" uid="3497659" user="NKA">
		<tag k="name" v="Skogmo" />
		<tag k="place" v="hamlet" />
		<tag k="ssr:stedsnr" v="801714" />
	</node>
	<node id="9927362048" lat="63.0334056" lon="8.6206889" version="1" timestamp="2022-08-02T15:29:44Z" changeset="124397377" uid="3497659" user="NKA">
		<tag k="name" v="Saga" />
		<tag k="place" v="farm" />
		<tag k="ssr:stedsnr" v="557820" />
	</node>
	<node id="9927362049" lat="62.9279807" lon="8.4474457" version="1" timestamp="2022-08-02T15:29:44Z" changeset="124397377" uid="3497659" user="NKA">
		<tag k="name" v="Ruta" />
		<tag k="place" v="farm" />
		<tag k="ssr:stedsnr" v="520847" />
	</node>
	<node id="9927362050" lat="62.8246722" lon="8.8513945" version="1" timestamp="2022-08-02T15:29:44Z" changeset="124397377" uid="3497659" user="NKA">
		<tag k="name" v="Husbygammelsetra" />
		<tag k="place" v="locality" />
		<tag k="ssr:stedsnr" v="459300" />
	</node>
	<node id="9927362051" lat="62.9881722" lon="8.8680694" version="1" timestamp="2022-08-02T15:29:44Z" changeset="124397377" uid="3497659" user="NKA">
		<tag k="name" v="Honnstad" />
		<tag k="place" v="farm" />
		<tag k="ssr:stedsnr" v="680539" />
	</node>
	<node id="9927362052" lat="62.8856139" lon="9.0259971" version="1" timestamp="2022-08-02T15:29:44Z" changeset="124397377" uid="3497659" user="NKA">
		<tag k="historic" v="shieling" />
		<tag k="name" v="Nedre Kløftsetra" />
		<tag k="place" v="isolated_dwelling" />
		<tag k="ssr:stedsnr" v="449073" />
	</node>
	<node id="9927362053" lat="62.9674878" lon="8.6166039" version="1" timestamp="2022-08-02T15:29:44Z" changeset="124397377" uid="3497659" user="NKA">
		<tag k="name" v="Sjøasetra" />
		<tag k="place" v="farm" />
		<tag k="ssr:stedsnr" v="497645" />
	</node>
	<node id="9927362054" lat="62.9886055" lon="8.3968611" version="1" timestamp="2022-08-02T15:29:44Z" changeset="124397377" uid="3497659" user="NKA">
		<tag k="name" v="Flesasetra" />
		<tag k="place" v="isolated_dwelling" />
		<tag k="ssr:stedsnr" v="497621" />
	</node>
	<node id="9927362055" lat="62.9066111" lon="8.6043194" version="1" timestamp="2022-08-02T15:29:44Z" changeset="124397377" uid="3497659" user="NKA">
		<tag k="name" v="Holtan" />
		<tag k="place" v="farm" />
		<tag k="ssr:stedsnr" v="497299" />
	</node>
	<node id="9927362056" lat="62.9076951" lon="8.6246893" version="1" timestamp="2022-08-02T15:29:44Z" changeset="124397377" uid="3497659" user="NKA">
		<tag k="name" v="Haugen" />
		<tag k="place" v="farm" />
		<tag k="ssr:stedsnr" v="497297" />
	</node>
	<node id="9927362057" lat="62.8738027" lon="8.6197027" version="1" timestamp="2022-08-02T15:29:44Z" changeset="124397377" uid="3497659" user="NKA">
		<tag k="name" v="Nistua" />
		<tag k="place" v="farm" />
		<tag k="ssr:stedsnr" v="497241" />
	</node>
	<node id="9927362058" lat="62.988303" lon="8.9230783" version="1" timestamp="2022-08-02T15:29:44Z" changeset="124397377" uid="3497659" user="NKA">
		<tag k="name" v="Sagatrøa" />
		<tag k="place" v="farm" />
		<tag k="ssr:stedsnr" v="156866" />
	</node>
	<node id="9927362059" lat="63.0020626" lon="8.9694345" version="1" timestamp="2022-08-02T15:29:44Z" changeset="124397377" uid="3497659" user="NKA">
		<tag k="name" v="Moen" />
		<tag k="place" v="farm" />
		<tag k="ssr:stedsnr" v="101733" />
	</node>
	<node id="9927362060" lat="63.010537" lon="8.5251719" version="1" timestamp="2022-08-02T15:29:44Z" changeset="124397377" uid="3497659" user="NKA">
		<tag k="name" v="Skoglund" />
		<tag k="place" v="farm" />
		<tag k="ssr:stedsnr" v="460927" />
	</node>
	<node id="9927362061" lat="62.8905083" lon="8.5230083" version="1" timestamp="2022-08-02T15:29:44Z" changeset="124397377" uid="3497659" user="NKA">
		<tag k="name" v="Låna" />
		<tag k="place" v="farm" />
		<tag k="ssr:stedsnr" v="437300" />
	</node>
	<node id="9927362062" lat="62.8282906" lon="9.0122634" version="1" timestamp="2022-08-02T15:29:44Z" changeset="124397377" uid="3497659" user="NKA">
		<tag k="name" v="Telhytta" />
		<tag k="place" v="locality" />
		<tag k="ssr:stedsnr" v="376125" />
	</node>
	<node id="9927362063" lat="62.9404434" lon="8.6403747" version="1" timestamp="2022-08-02T15:29:44Z" changeset="124397377" uid="3497659" user="NKA">
		<tag k="name" v="Olastua" />
		<tag k="place" v="isolated_dwelling" />
		<tag k="ssr:stedsnr" v="338850" />
	</node>
	<node id="9927362064" lat="63.0204077" lon="9.0902915" version="1" timestamp="2022-08-02T15:29:44Z" changeset="124397377" uid="3497659" user="NKA">
		<tag k="name" v="Follasaga" />
		<tag k="place" v="farm" />
		<tag k="ssr:stedsnr" v="96838" />
	</node>
	<node id="9927362065" lat="62.9633917" lon="8.9717834" version="1" timestamp="2022-08-02T15:29:44Z" changeset="124397377" uid="3497659" user="NKA">
		<tag k="name" v="Holtasetra" />
		<tag k="place" v="isolated_dwelling" />
		<tag k="ssr:stedsnr" v="255443" />
	</node>
	<node id="9927362066" lat="62.8689211" lon="8.6283117" version="1" timestamp="2022-08-02T15:29:44Z" changeset="124397377" uid="3497659" user="NKA">
		<tag k="name" v="Øygarden" />
		<tag k="place" v="farm" />
		<tag k="ssr:stedsnr" v="376369" />
	</node>
	<node id="9927362067" lat="62.9170833" lon="8.47265" version="1" timestamp="2022-08-02T15:29:44Z" changeset="124397377" uid="3497659" user="NKA">
		<tag k="name" v="Bruvollen" />
		<tag k="place" v="farm" />
		<tag k="ssr:stedsnr" v="315737" />
	</node>
	<node id="9927362068" lat="62.9905727" lon="8.4587247" version="1" timestamp="2022-08-02T15:29:44Z" changeset="124397377" uid="3497659" user="NKA">
		<tag k="name" v="Solem" />
		<tag k="place" v="hamlet" />
		<tag k="ssr:stedsnr" v="315639" />
	</node>
	<node id="9927362069" lat="63.0349984" lon="9.0967811" version="1" timestamp="2022-08-02T15:29:44Z" changeset="124397377" uid="3497659" user="NKA">
		<tag k="name" v="Øver Dalsegga" />
		<tag k="place" v="farm" />
		<tag k="ssr:stedsnr" v="35864" />
	</node>
	<node id="9927362070" lat="62.9217833" lon="8.4710696" version="1" timestamp="2022-08-02T15:29:44Z" changeset="124397377" uid="3497659" user="NKA">
		<tag k="name" v="Trøin" />
		<tag k="place" v="farm" />
		<tag k="ssr:stedsnr" v="315734" />
	</node>
	<node id="9927362071" lat="62.9829944" lon="8.7261139" version="1" timestamp="2022-08-02T15:29:44Z" changeset="124397377" uid="3497659" user="NKA">
		<tag k="name" v="Øvre Buhagan bustadfelt" />
		<tag k="place" v="neighbourhood" />
		<tag k="ssr:stedsnr" v="933950" />
	</node>
	<node id="9927362072" lat="62.9958333" lon="8.9449583" version="1" timestamp="2022-08-02T15:29:44Z" changeset="124397377" uid="3497659" user="NKA">
		<tag k="name" v="Moen" />
		<tag k="place" v="farm" />
		<tag k="ssr:stedsnr" v="133417" />
	</node>
	<node id="9927362073" lat="62.9394407" lon="8.6951225" version="1" timestamp="2022-08-02T15:29:44Z" changeset="124397377" uid="3497659" user="NKA">
		<tag k="name" v="Åsen" />
		<tag k="place" v="hamlet" />
		<tag k="ssr:stedsnr" v="922701" />
	</node>
	<node id="9927362074" lat="62.9844195" lon="8.6948001" version="1" timestamp="2022-08-02T15:29:44Z" changeset="124397377" uid="3497659" user="NKA">
		<tag k="name" v="Stuevold" />
		<tag k="place" v="farm" />
		<tag k="ssr:stedsnr" v="933954" />
	</node>
	<node id="9927362075" lat="63.0020859" lon="8.9832622" version="1" timestamp="2022-08-02T15:29:44Z" changeset="124397377" uid="3497659" user="NKA">
		<tag k="name" v="Moøyan" />
		<tag k="place" v="farm" />
		<tag k="ssr:stedsnr" v="96867" />
	</node>
	<node id="9927362076" lat="62.9341027" lon="8.4872778" version="1" timestamp="2022-08-02T15:29:44Z" changeset="124397377" uid="3497659" user="NKA">
		<tag k="name" v="Glenna" />
		<tag k="place" v="isolated_dwelling" />
		<tag k="ssr:stedsnr" v="254695" />
	</node>
	<node id="9927362077" lat="63.008773" lon="8.3726778" version="1" timestamp="2022-08-02T15:29:44Z" changeset="124397377" uid="3497659" user="NKA">
		<tag k="name" v="Bø" />
		<tag k="place" v="farm" />
		<tag k="ssr:stedsnr" v="255892" />
	</node>
	<node id="9927362078" lat="62.8931752" lon="8.555755" version="1" timestamp="2022-08-02T15:29:44Z" changeset="124397377" uid="3497659" user="NKA">
		<tag k="name" v="Grinda" />
		<tag k="place" v="farm" />
		<tag k="ssr:stedsnr" v="156838" />
	</node>
	<node id="9927362079" lat="63.0261888" lon="9.0805631" version="1" timestamp="2022-08-02T15:29:44Z" changeset="124397377" uid="3497659" user="NKA">
		<tag k="name" v="Dønnyn" />
		<tag k="place" v="farm" />
		<tag k="ssr:stedsnr" v="862682" />
	</node>
	<node id="9927362080" lat="62.9860667" lon="8.3913139" version="1" timestamp="2022-08-02T15:29:44Z" changeset="124397377" uid="3497659" user="NKA">
		<tag k="name" v="Båtviksetra" />
		<tag k="place" v="locality" />
		<tag k="ssr:stedsnr" v="156287" />
	</node>
	<node id="9927362081" lat="62.9441528" lon="8.7060028" version="1" timestamp="2022-08-02T15:29:44Z" changeset="124397377" uid="3497659" user="NKA">
		<tag k="name" v="Austeråsen" />
		<tag k="place" v="farm" />
		<tag k="ssr:stedsnr" v="618685" />
	</node>
	<node id="9927362082" lat="62.9697223" lon="8.6457167" version="1" timestamp="2022-08-02T15:29:44Z" changeset="124397377" uid="3497659" user="NKA">
		<tag k="name" v="Nygarden" />
		<tag k="place" v="farm" />
		<tag k="ssr:stedsnr" v="520904" />
	</node>
	<node id="9927362083" lat="62.904025" lon="8.6983195" version="1" timestamp="2022-08-02T15:29:44Z" changeset="124397377" uid="3497659" user="NKA">
		<tag k="name" v="Kvennbøsetra" />
		<tag k="place" v="isolated_dwelling" />
		<tag k="ssr:stedsnr" v="679262" />
	</node>
	<node id="9927362084" lat="62.9769006" lon="8.7323528" version="1" timestamp="2022-08-02T15:29:44Z" changeset="124397377" uid="3497659" user="NKA">
		<tag k="name" v="Røssmoen" />
		<tag k="place" v="farm" />
		<tag k="ssr:stedsnr" v="520928" />
	</node>
	<node id="9927362085" lat="62.9033084" lon="8.4879529" version="1" timestamp="2022-08-02T15:29:44Z" changeset="124397377" uid="3497659" user="NKA">
		<tag k="name" v="Høgset" />
		<tag k="place" v="farm" />
		<tag k="ssr:stedsnr" v="133269" />
	</node>
	<node id="9927362086" lat="63.0364755" lon="8.9166048" version="1" timestamp="2022-08-02T15:29:44Z" changeset="124397377" uid="3497659" user="NKA">
		<tag k="historic" v="shieling" />
		<tag k="name" v="Sveasetra" />
		<tag k="place" v="isolated_dwelling" />
		<tag k="ssr:stedsnr" v="870082" />
	</node>
	<node id="9927362087" lat="62.9032162" lon="8.5899245" version="1" timestamp="2022-08-02T15:29:44Z" changeset="124397377" uid="3497659" user="NKA">
		<tag k="alt_name" v="Melhus ytre" />
		<tag k="name" v="Ytre Melhus" />
		<tag k="place" v="farm" />
		<tag k="ssr:stedsnr" v="96833" />
	</node>
	<node id="9927362088" lat="62.9419361" lon="8.6985778" version="1" timestamp="2022-08-02T15:29:44Z" changeset="124397377" uid="3497659" user="NKA">
		<tag k="name" v="Åsmyran" />
		<tag k="place" v="farm" />
		<tag k="ssr:stedsnr" v="497675" />
	</node>
	<node id="9927362089" lat="62.9056926" lon="8.5503004" version="1" timestamp="2022-08-02T15:29:44Z" changeset="124397377" uid="3497659" user="NKA">
		<tag k="name" v="Røen" />
		<tag k="place" v="hamlet" />
		<tag k="ssr:stedsnr" v="72299" />
	</node>
	<node id="9927362090" lat="62.8859024" lon="8.5455775" version="1" timestamp="2022-08-02T15:29:44Z" changeset="124397377" uid="3497659" user="NKA">
		<tag k="name" v="Bergset" />
		<tag k="place" v="farm" />
		<tag k="ssr:stedsnr" v="35828" />
	</node>
	<node id="9927362091" lat="62.9002323" lon="8.4939327" version="1" timestamp="2022-08-02T15:29:44Z" changeset="124397377" uid="3497659" user="NKA">
		<tag k="name" v="Finnvikan" />
		<tag k="place" v="hamlet" />
		<tag k="ssr:stedsnr" v="72283" />
	</node>
	<node id="9927362092" lat="62.9997167" lon="8.6947639" version="1" timestamp="2022-08-02T15:29:44Z" changeset="124397377" uid="3497659" user="NKA">
		<tag k="name" v="Øver-Berseten" />
		<tag k="place" v="farm" />
		<tag k="ssr:stedsnr" v="448431" />
	</node>
	<node id="9927362093" lat="62.9820972" lon="8.4337778" version="1" timestamp="2022-08-02T15:29:44Z" changeset="124397377" uid="3497659" user="NKA">
		<tag k="name" v="Båtskjelvika" />
		<tag k="place" v="farm" />
		<tag k="ssr:stedsnr" v="945286" />
	</node>
	<node id="9927362094" lat="62.9817694" lon="8.7429972" version="1" timestamp="2022-08-02T15:29:44Z" changeset="124397377" uid="3497659" user="NKA">
		<tag k="name" v="Linsletta bustadfelt" />
		<tag k="place" v="neighbourhood" />
		<tag k="ssr:stedsnr" v="326878" />
	</node>
	<node id="9927362095" lat="62.9981068" lon="8.9623618" version="1" timestamp="2022-08-02T15:29:44Z" changeset="124397377" uid="3497659" user="NKA">
		<tag k="name" v="Moen" />
		<tag k="place" v="village" />
		<tag k="ssr:stedsnr" v="12658" />
	</node>
	<node id="9927362096" lat="62.9408138" lon="8.4464722" version="1" timestamp="2022-08-02T15:29:44Z" changeset="124397377" uid="3497659" user="NKA">
		<tag k="name" v="Skaråkersetra" />
		<tag k="place" v="isolated_dwelling" />
		<tag k="ssr:stedsnr" v="202233" />
	</node>
	<node id="9927362097" lat="62.9284972" lon="8.4984833" version="1" timestamp="2022-08-02T15:29:44Z" changeset="124397377" uid="3497659" user="NKA">
		<tag k="name" v="Fonnsetra" />
		<tag k="place" v="isolated_dwelling" />
		<tag k="ssr:stedsnr" v="922708" />
	</node>
	<node id="9927362098" lat="63.0379732" lon="8.4256197" version="1" timestamp="2022-08-02T15:29:44Z" changeset="124397377" uid="3497659" user="NKA">
		<tag k="name" v="Dalebakken" />
		<tag k="place" v="farm" />
		<tag k="ssr:stedsnr" v="885827" />
	</node>
	<node id="9927362099" lat="62.9908772" lon="8.6456657" version="1" timestamp="2022-08-02T15:29:44Z" changeset="124397377" uid="3497659" user="NKA">
		<tag k="name" v="Nausta" />
		<tag k="place" v="locality" />
		<tag k="ssr:stedsnr" v="156889" />
	</node>
	<node id="9927362100" lat="62.9090728" lon="8.4692537" version="1" timestamp="2022-08-02T15:29:44Z" changeset="124397377" uid="3497659" user="NKA">
		<tag k="name" v="Orahaugen" />
		<tag k="old_name" v="ORAHAUG" />
		<tag k="place" v="farm" />
		<tag k="ssr:stedsnr" v="1075721" />
	</node>
	<node id="9927362101" lat="62.970466" lon="8.7154966" version="1" timestamp="2022-08-02T15:29:44Z" changeset="124397377" uid="3497659" user="NKA">
		<tag k="name" v="Grimsmoen" />
		<tag k="place" v="farm" />
		<tag k="ssr:stedsnr" v="133645" />
	</node>
	<node id="9927362102" lat="62.8709306" lon="8.6207083" version="1" timestamp="2022-08-02T15:29:44Z" changeset="124397377" uid="3497659" user="NKA">
		<tag k="name" v="Sagavoll" />
		<tag k="place" v="farm" />
		<tag k="ssr:stedsnr" v="885796" />
	</node>
	<node id="9927362103" lat="63.0804223" lon="8.9475167" version="1" timestamp="2022-08-02T15:29:44Z" changeset="124397377" uid="3497659" user="NKA">
		<tag k="name" v="Almbergsetra" />
		<tag k="place" v="isolated_dwelling" />
		<tag k="ssr:stedsnr" v="558764" />
	</node>
	<node id="9927362104" lat="62.8957776" lon="8.5586231" version="1" timestamp="2022-08-02T15:29:44Z" changeset="124397377" uid="3497659" user="NKA">
		<tag k="name" v="Saghaugen" />
		<tag k="place" v="farm" />
		<tag k="ssr:stedsnr" v="885820" />
	</node>
	<node id="9927362105" lat="62.9305153" lon="8.9996039" version="1" timestamp="2022-08-02T15:29:44Z" changeset="124397377" uid="3497659" user="NKA">
		<tag k="name" v="Røsta" />
		<tag k="place" v="isolated_dwelling" />
		<tag k="ssr:stedsnr" v="862067" />
	</node>
	<node id="9927362106" lat="62.9782444" lon="9.0440916" version="1" timestamp="2022-08-02T15:29:44Z" changeset="124397377" uid="3497659" user="NKA">
		<tag k="historic" v="shieling" />
		<tag k="name" v="Skarpdalssetra" />
		<tag k="place" v="isolated_dwelling" />
		<tag k="ssr:stedsnr" v="813105" />
	</node>
	<node id="9927362107" lat="62.9009274" lon="8.5763506" version="1" timestamp="2022-08-02T15:29:44Z" changeset="124397377" uid="3497659" user="NKA">
		<tag k="name" v="Nestua" />
		<tag k="place" v="farm" />
		<tag k="ssr:stedsnr" v="885791" />
	</node>
	<node id="9927362108" lat="62.934241" lon="8.4351402" version="1" timestamp="2022-08-02T15:29:44Z" changeset="124397377" uid="3497659" user="NKA">
		<tag k="name" v="Nestua" />
		<tag k="place" v="farm" />
		<tag k="ssr:stedsnr" v="885807" />
	</node>
	<node id="9927362109" lat="62.9151806" lon="8.6519611" version="1" timestamp="2022-08-02T15:29:44Z" changeset="124397377" uid="3497659" user="NKA">
		<tag k="name" v="Austre Lia" />
		<tag k="place" v="farm" />
		<tag k="ssr:stedsnr" v="72722" />
	</node>
	<node id="9927362110" lat="62.9191809" lon="8.6576243" version="1" timestamp="2022-08-02T15:29:44Z" changeset="124397377" uid="3497659" user="NKA">
		<tag k="name" v="Hyllbakkan" />
		<tag k="place" v="farm" />
		<tag k="ssr:stedsnr" v="861729" />
	</node>
	<node id="9927362111" lat="62.9910694" lon="8.7105555" version="1" timestamp="2022-08-02T15:29:44Z" changeset="124397377" uid="3497659" user="NKA">
		<tag k="name" v="Nyhusan" />
		<tag k="place" v="farm" />
		<tag k="ssr:stedsnr" v="83071" />
	</node>
	<node id="9927362112" lat="62.9398103" lon="8.4493453" version="1" timestamp="2022-08-02T15:29:44Z" changeset="124397377" uid="3497659" user="NKA">
		<tag k="name" v="Storsetra" />
		<tag k="place" v="isolated_dwelling" />
		<tag k="ssr:stedsnr" v="885297" />
	</node>
	<node id="9927362113" lat="62.9575389" lon="8.7229556" version="1" timestamp="2022-08-02T15:29:44Z" changeset="124397377" uid="3497659" user="NKA">
		<tag k="historic" v="shieling" />
		<tag k="name" v="Skeissetra" />
		<tag k="place" v="isolated_dwelling" />
		<tag k="ssr:stedsnr" v="885859" />
	</node>
	<node id="9927362114" lat="62.9122812" lon="8.5723701" version="1" timestamp="2022-08-02T15:29:44Z" changeset="124397377" uid="3497659" user="NKA">
		<tag k="name" v="Grytskogsetra" />
		<tag k="place" v="isolated_dwelling" />
		<tag k="ssr:stedsnr" v="194712" />
	</node>
	<node id="9927362115" lat="62.9813416" lon="8.6649861" version="1" timestamp="2022-08-02T15:29:44Z" changeset="124397377" uid="3497659" user="NKA">
		<tag k="name" v="Kortøra" />
		<tag k="place" v="farm" />
		<tag k="ssr:stedsnr" v="629200" />
	</node>
	<node id="9927362116" lat="62.8934556" lon="8.5540223" version="1" timestamp="2022-08-02T15:29:44Z" changeset="124397377" uid="3497659" user="NKA">
		<tag k="alt_name" v="Rønningen" />
		<tag k="name" v="Rønningan" />
		<tag k="place" v="farm" />
		<tag k="ssr:stedsnr" v="194258" />
	</node>
	<node id="9927362117" lat="62.9074742" lon="8.6255343" version="1" timestamp="2022-08-02T15:29:44Z" changeset="124397377" uid="3497659" user="NKA">
		<tag k="name" v="Nistua" />
		<tag k="place" v="farm" />
		<tag k="ssr:stedsnr" v="763800" />
	</node>
	<node id="9927362118" lat="62.9821207" lon="8.959201" version="1" timestamp="2022-08-02T15:29:44Z" changeset="124397377" uid="3497659" user="NKA">
		<tag k="historic" v="shieling" />
		<tag k="name" v="Gammelsetra" />
		<tag k="place" v="isolated_dwelling" />
		<tag k="ssr:stedsnr" v="376484" />
	</node>
	<node id="9927362119" lat="62.9203528" lon="8.4732806" version="1" timestamp="2022-08-02T15:29:44Z" changeset="124397377" uid="3497659" user="NKA">
		<tag k="name" v="Vollen" />
		<tag k="place" v="farm" />
		<tag k="ssr:stedsnr" v="861711" />
	</node>
	<node id="9927362120" lat="62.9025765" lon="8.483769" version="1" timestamp="2022-08-02T15:29:44Z" changeset="124397377" uid="3497659" user="NKA">
		<tag k="name" v="Torslett" />
		<tag k="place" v="farm" />
		<tag k="ssr:stedsnr" v="641810" />
	</node>
	<node id="9927362121" lat="62.9049899" lon="9.0331521" version="1" timestamp="2022-08-02T15:29:44Z" changeset="124397377" uid="3497659" user="NKA">
		<tag k="name" v="Indre Breiskarsetra" />
		<tag k="place" v="isolated_dwelling" />
		<tag k="ssr:stedsnr" v="884452" />
	</node>
	<node id="9927362122" lat="62.7817639" lon="8.7316862" version="1" timestamp="2022-08-02T15:29:44Z" changeset="124397377" uid="3497659" user="NKA">
		<tag k="name" v="Brusetsetra" />
		<tag k="place" v="isolated_dwelling" />
		<tag k="ssr:stedsnr" v="376080" />
	</node>
	<node id="9927362123" lat="62.9920491" lon="8.4943287" version="1" timestamp="2022-08-02T15:29:44Z" changeset="124397377" uid="3497659" user="NKA">
		<tag k="name" v="Sandneset" />
		<tag k="place" v="farm" />
		<tag k="ssr:stedsnr" v="702904" />
	</node>
	<node id="9927362124" lat="62.9918424" lon="8.8855282" version="1" timestamp="2022-08-02T15:29:44Z" changeset="124397377" uid="3497659" user="NKA">
		<tag k="name" v="Mauset" />
		<tag k="place" v="hamlet" />
		<tag k="ssr:stedsnr" v="194423" />
	</node>
	<node id="9927362125" lat="62.7835028" lon="8.7930917" version="1" timestamp="2022-08-02T15:29:44Z" changeset="124397377" uid="3497659" user="NKA">
		<tag k="name" v="Taløysetra" />
		<tag k="place" v="locality" />
		<tag k="ssr:stedsnr" v="315076" />
	</node>
	<node id="9927362126" lat="62.8256834" lon="8.8470972" version="1" timestamp="2022-08-02T15:29:44Z" changeset="124397377" uid="3497659" user="NKA">
		<tag k="historic" v="shieling" />
		<tag k="name" v="Husbysetrin" />
		<tag k="place" v="isolated_dwelling" />
		<tag k="ssr:stedsnr" v="862141" />
	</node>
	<node id="9927362127" lat="62.9850833" lon="8.5578722" version="1" timestamp="2022-08-02T15:29:44Z" changeset="124397377" uid="3497659" user="NKA">
		<tag k="name" v="Skiftet" />
		<tag k="place" v="farm" />
		<tag k="ssr:stedsnr" v="278930" />
	</node>
	<node id="9927362128" lat="62.9037943" lon="8.572024" version="1" timestamp="2022-08-02T15:29:44Z" changeset="124397377" uid="3497659" user="NKA">
		<tag k="name" v="Grytskoggeilen" />
		<tag k="place" v="farm" />
		<tag k="ssr:stedsnr" v="278849" />
	</node>
	<node id="9927362129" lat="62.9962889" lon="8.3430083" version="1" timestamp="2022-08-02T15:29:44Z" changeset="124397377" uid="3497659" user="NKA">
		<tag k="name" v="Nedre Bøsetra" />
		<tag k="place" v="locality" />
		<tag k="ssr:stedsnr" v="278701" />
	</node>
	<node id="9927362130" lat="62.9902259" lon="9.0175911" version="1" timestamp="2022-08-02T15:29:44Z" changeset="124397377" uid="3497659" user="NKA">
		<tag k="name" v="Harangssetrin" />
		<tag k="place" v="isolated_dwelling" />
		<tag k="ssr:stedsnr" v="156499" />
	</node>
	<node id="9927362131" lat="63.0025457" lon="9.0121805" version="1" timestamp="2022-08-02T15:29:44Z" changeset="124397377" uid="3497659" user="NKA">
		<tag k="name" v="Solemsøya" />
		<tag k="place" v="farm" />
		<tag k="ssr:stedsnr" v="885841" />
	</node>
	<node id="9927362132" lat="62.8040529" lon="8.738221" version="1" timestamp="2022-08-02T15:29:44Z" changeset="124397377" uid="3497659" user="NKA">
		<tag k="name" v="Bruset" />
		<tag k="place" v="hamlet" />
		<tag k="ssr:stedsnr" v="315115" />
	</node>
	<node id="9927362133" lat="62.7989838" lon="8.7593529" version="1" timestamp="2022-08-02T15:29:44Z" changeset="124397377" uid="3497659" user="NKA">
		<tag k="name" v="Liatun" />
		<tag k="place" v="farm" />
		<tag k="ssr:stedsnr" v="278095" />
	</node>
	<node id="9927362134" lat="62.9747639" lon="8.5022251" version="1" timestamp="2022-08-02T15:29:44Z" changeset="124397377" uid="3497659" user="NKA">
		<tag k="name" v="Gjøristuløa" />
		<tag k="place" v="locality" />
		<tag k="ssr:stedsnr" v="217298" />
	</node>
	<node id="9927362135" lat="62.919803" lon="8.5207658" version="1" timestamp="2022-08-02T15:29:44Z" changeset="124397377" uid="3497659" user="NKA">
		<tag k="name" v="Fagerlia" />
		<tag k="place" v="isolated_dwelling" />
		<tag k="ssr:stedsnr" v="194709" />
	</node>
	<node id="9927362136" lat="62.9253169" lon="8.4581368" version="1" timestamp="2022-08-02T15:29:44Z" changeset="124397377" uid="3497659" user="NKA">
		<tag k="name" v="Røslia" />
		<tag k="place" v="farm" />
		<tag k="ssr:stedsnr" v="72701" />
	</node>
	<node id="9927362137" lat="63.0477536" lon="9.0183976" version="1" timestamp="2022-08-02T15:29:44Z" changeset="124397377" uid="3497659" user="NKA">
		<tag k="historic" v="shieling" />
		<tag k="name" v="Austergarden" />
		<tag k="place" v="hamlet" />
		<tag k="ssr:stedsnr" v="141638" />
	</node>
	<node id="9927362138" lat="62.9049528" lon="9.0334528" version="1" timestamp="2022-08-02T15:29:44Z" changeset="124397377" uid="3497659" user="NKA">
		<tag k="name" v="Øvre Breiskaret" />
		<tag k="place" v="isolated_dwelling" />
		<tag k="ssr:stedsnr" v="631860" />
	</node>
	<node id="9927362139" lat="63.0445556" lon="8.8005362" version="1" timestamp="2022-08-02T15:29:44Z" changeset="124397377" uid="3497659" user="NKA">
		<tag k="historic" v="shieling" />
		<tag k="name" v="Austistusetra" />
		<tag k="place" v="isolated_dwelling" />
		<tag k="ssr:stedsnr" v="631246" />
	</node>
	<node id="9927362140" lat="63.0507659" lon="9.0088448" version="1" timestamp="2022-08-02T15:29:44Z" changeset="124397377" uid="3497659" user="NKA">
		<tag k="name" v="Krokvassdalen" />
		<tag k="place" v="farm" />
		<tag k="ssr:stedsnr" v="977430" />
	</node>
	<node id="9927362141" lat="62.9780648" lon="8.7975013" version="1" timestamp="2022-08-02T15:29:44Z" changeset="124397377" uid="3497659" user="NKA">
		<tag k="name" v="Storøya" />
		<tag k="place" v="farm" />
		<tag k="ssr:stedsnr" v="824874" />
	</node>
	<node id="9927362142" lat="63.0218465" lon="9.0695536" version="1" timestamp="2022-08-02T15:29:44Z" changeset="124397377" uid="3497659" user="NKA">
		<tag k="name" v="Grytlia" />
		<tag k="place" v="farm" />
		<tag k="ssr:stedsnr" v="945841" />
	</node>
	<node id="9927362143" lat="62.9059111" lon="9.02315" version="1" timestamp="2022-08-02T15:29:44Z" changeset="124397377" uid="3497659" user="NKA">
		<tag k="name" v="Heimer Breiskarsetra" />
		<tag k="place" v="isolated_dwelling" />
		<tag k="ssr:stedsnr" v="459457" />
	</node>
	<node id="9927362144" lat="63.0079389" lon="9.0161722" version="1" timestamp="2022-08-02T15:29:44Z" changeset="124397377" uid="3497659" user="NKA">
		<tag k="name" v="Øya" />
		<tag k="place" v="farm" />
		<tag k="ssr:stedsnr" v="619674" />
	</node>
	<node id="9927362145" lat="62.9917341" lon="8.8971045" version="1" timestamp="2022-08-02T15:29:44Z" changeset="124397377" uid="3497659" user="NKA">
		<tag k="name" v="Mausetvollen" />
		<tag k="place" v="farm" />
		<tag k="ssr:stedsnr" v="278888" />
	</node>
	<node id="9927362146" lat="62.8952139" lon="8.9632305" version="1" timestamp="2022-08-02T15:29:44Z" changeset="124397377" uid="3497659" user="NKA">
		<tag k="name" v="Eiterdalssetrin" />
		<tag k="place" v="isolated_dwelling" />
		<tag k="ssr:stedsnr" v="73010" />
	</node>
	<node id="9927362147" lat="62.9361278" lon="8.9855001" version="1" timestamp="2022-08-02T15:29:44Z" changeset="124397377" uid="3497659" user="NKA">
		<tag k="historic" v="shieling" />
		<tag k="name" v="Dompfjellsetra" />
		<tag k="place" v="isolated_dwelling" />
		<tag k="ssr:stedsnr" v="691160" />
	</node>
	<node id="9927362148" lat="62.9902282" lon="9.0175963" version="1" timestamp="2022-08-02T15:29:44Z" changeset="124397377" uid="3497659" user="NKA">
		<tag k="historic" v="shieling" />
		<tag k="name" v="Harangssetra" />
		<tag k="place" v="isolated_dwelling" />
		<tag k="ssr:stedsnr" v="923497" />
	</node>
	<node id="9927362149" lat="63.0122528" lon="8.8607388" version="1" timestamp="2022-08-02T15:29:44Z" changeset="124397377" uid="3497659" user="NKA">
		<tag k="historic" v="shieling" />
		<tag k="name" v="Mogstadsetra" />
		<tag k="place" v="isolated_dwelling" />
		<tag k="ssr:stedsnr" v="600913" />
	</node>
	<node id="9927362150" lat="62.9323668" lon="8.8342001" version="1" timestamp="2022-08-02T15:29:44Z" changeset="124397377" uid="3497659" user="NKA">
		<tag k="name" v="Gammelsetra" />
		<tag k="place" v="isolated_dwelling" />
		<tag k="ssr:stedsnr" v="580271" />
	</node>
	<node id="9927362151" lat="62.7738167" lon="8.9462806" version="1" timestamp="2022-08-02T15:29:44Z" changeset="124397377" uid="3497659" user="NKA">
		<tag k="historic" v="shieling" />
		<tag k="name" v="Neådalssetra" />
		<tag k="place" v="isolated_dwelling" />
		<tag k="ssr:stedsnr" v="934082" />
	</node>
	<node id="9927362152" lat="62.9783553" lon="9.0444842" version="1" timestamp="2022-08-02T15:29:44Z" changeset="124397377" uid="3497659" user="NKA">
		<tag k="name" v="Skarpdalsetra" />
		<tag k="place" v="isolated_dwelling" />
		<tag k="ssr:stedsnr" v="277475" />
	</node>
	<node id="9927362153" lat="63.0807139" lon="8.7947832" version="1" timestamp="2022-08-02T15:29:44Z" changeset="124397377" uid="3497659" user="NKA">
		<tag k="historic" v="shieling" />
		<tag k="name" v="Neverholtsetra" />
		<tag k="place" v="isolated_dwelling" />
		<tag k="ssr:stedsnr" v="801713" />
	</node>
	<node id="9927362154" lat="63.04435" lon="9.0303694" version="1" timestamp="2022-08-02T15:29:44Z" changeset="124397377" uid="3497659" user="NKA">
		<tag k="historic" v="shieling" />
		<tag k="name" v="Fiskjassetra" />
		<tag k="place" v="isolated_dwelling" />
		<tag k="ssr:stedsnr" v="801622" />
	</node>
	<node id="9927362155" lat="62.9911472" lon="8.9254249" version="1" timestamp="2022-08-02T15:29:44Z" changeset="124397377" uid="3497659" user="NKA">
		<tag k="name" v="Høgmo" />
		<tag k="place" v="farm" />
		<tag k="ssr:stedsnr" v="217850" />
	</node>
	<node id="9927362156" lat="63.0072169" lon="9.0027828" version="1" timestamp="2022-08-02T15:29:44Z" changeset="124397377" uid="3497659" user="NKA">
		<tag k="name" v="Solemshaugen" />
		<tag k="place" v="farm" />
		<tag k="ssr:stedsnr" v="217843" />
	</node>
	<node id="9927362157" lat="62.938475" lon="8.8158583" version="1" timestamp="2022-08-02T15:29:44Z" changeset="124397377" uid="3497659" user="NKA">
		<tag k="alt_name" v="Østbøen" />
		<tag k="name" v="Gammelsetra" />
		<tag k="place" v="isolated_dwelling" />
		<tag k="ssr:stedsnr" v="155802" />
	</node>
	<node id="9927362158" lat="63.0692722" lon="8.7515666" version="1" timestamp="2022-08-02T15:29:44Z" changeset="124397377" uid="3497659" user="NKA">
		<tag k="name" v="Bronaløa" />
		<tag k="place" v="locality" />
		<tag k="ssr:stedsnr" v="702349" />
	</node>
	<node id="9927362159" lat="62.9068527" lon="9.0236138" version="1" timestamp="2022-08-02T15:29:44Z" changeset="124397377" uid="3497659" user="NKA">
		<tag k="historic" v="shieling" />
		<tag k="name" v="Breiskarsetran" />
		<tag k="place" v="isolated_dwelling" />
		<tag k="ssr:stedsnr" v="146825" />
	</node>
	<node id="9927362160" lat="62.9941907" lon="8.9106143" version="1" timestamp="2022-08-02T15:29:44Z" changeset="124397377" uid="3497659" user="NKA">
		<tag k="name" v="Mausetmoan" />
		<tag k="place" v="farm" />
		<tag k="ssr:stedsnr" v="762555" />
	</node>
	<node id="9927362161" lat="62.9089084" lon="8.8336944" version="1" timestamp="2022-08-02T15:29:44Z" changeset="124397377" uid="3497659" user="NKA">
		<tag k="historic" v="shieling" />
		<tag k="name" v="Grimsmosetra" />
		<tag k="place" v="isolated_dwelling" />
		<tag k="ssr:stedsnr" v="145107" />
	</node>
	<node id="9927362162" lat="63.0618581" lon="8.7430544" version="1" timestamp="2022-08-02T15:29:44Z" changeset="124397377" uid="3497659" user="NKA">
		<tag k="name" v="Nordheim" />
		<tag k="place" v="farm" />
		<tag k="ssr:stedsnr" v="520839" />
	</node>
	<node id="9927362163" lat="63.0772056" lon="8.9063111" version="1" timestamp="2022-08-02T15:29:44Z" changeset="124397377" uid="3497659" user="NKA">
		<tag k="name" v="Solåssetra" />
		<tag k="place" v="locality" />
		<tag k="ssr:stedsnr" v="740726" />
	</node>
	<node id="9927362164" lat="63.0158408" lon="9.0449535" version="1" timestamp="2022-08-02T15:29:44Z" changeset="124397377" uid="3497659" user="NKA">
		<tag k="name" v="Fiskja" />
		<tag k="place" v="hamlet" />
		<tag k="ssr:stedsnr" v="437682" />
	</node>
	<node id="9927362165" lat="63.0371111" lon="8.878864" version="1" timestamp="2022-08-02T15:29:44Z" changeset="124397377" uid="3497659" user="NKA">
		<tag k="historic" v="shieling" />
		<tag k="name" v="Andersgarden" />
		<tag k="place" v="isolated_dwelling" />
		<tag k="ssr:stedsnr" v="679651" />
	</node>
	<node id="9927362166" lat="63.0824069" lon="8.8463744" version="1" timestamp="2022-08-02T15:29:44Z" changeset="124397377" uid="3497659" user="NKA">
		<tag k="name" v="Toresetra" />
		<tag k="place" v="farm" />
		<tag k="ssr:stedsnr" v="255737" />
	</node>
	<node id="9927362167" lat="62.9058527" lon="9.0236138" version="1" timestamp="2022-08-02T15:29:44Z" changeset="124397377" uid="3497659" user="NKA">
		<tag k="name" v="Nedre Breiskaret" />
		<tag k="place" v="isolated_dwelling" />
		<tag k="ssr:stedsnr" v="389008" />
	</node>
	<node id="9927362168" lat="63.0499536" lon="8.6866873" version="1" timestamp="2022-08-02T15:29:44Z" changeset="124397377" uid="3497659" user="NKA">
		<tag k="name" v="Holten" />
		<tag k="place" v="farm" />
		<tag k="ssr:stedsnr" v="133814" />
	</node>
	<node id="9927362169" lat="63.0842916" lon="8.8565723" version="1" timestamp="2022-08-02T15:29:44Z" changeset="124397377" uid="3497659" user="NKA">
		<tag k="name" v="Nergarden" />
		<tag k="place" v="farm" />
		<tag k="ssr:stedsnr" v="194696" />
	</node>
	<node id="9927362170" lat="63.061284" lon="8.7433177" version="1" timestamp="2022-08-02T15:29:44Z" changeset="124397377" uid="3497659" user="NKA">
		<tag k="name" v="Elverhøy" />
		<tag k="place" v="farm" />
		<tag k="ssr:stedsnr" v="641789" />
	</node>
	<node id="9927362171" lat="62.9814833" lon="8.9847999" version="1" timestamp="2022-08-02T15:29:44Z" changeset="124397377" uid="3497659" user="NKA">
		<tag k="name" v="Langslåa" />
		<tag k="place" v="locality" />
		<tag k="ssr:stedsnr" v="316523" />
	</node>
	<node id="9927362172" lat="63.0128" lon="8.9204612" version="1" timestamp="2022-08-02T15:29:44Z" changeset="124397377" uid="3497659" user="NKA">
		<tag k="name" v="Setra" />
		<tag k="place" v="farm" />
		<tag k="ssr:stedsnr" v="315687" />
	</node>
	<node id="9927362173" lat="63.1091096" lon="8.947871" version="1" timestamp="2022-08-02T15:29:44Z" changeset="124397377" uid="3497659" user="NKA">
		<tag k="historic" v="shieling" />
		<tag k="name" v="Grytbakksetra" />
		<tag k="place" v="isolated_dwelling" />
		<tag k="ssr:stedsnr" v="923724" />
	</node>
	<node id="9927362174" lat="63.0658417" lon="8.8336111" version="1" timestamp="2022-08-02T15:29:44Z" changeset="124397377" uid="3497659" user="NKA">
		<tag k="alt_name" v="Stoltjønna" />
		<tag k="historic" v="shieling" />
		<tag k="name" v="Bergemssetertjønna" />
		<tag k="place" v="isolated_dwelling" />
		<tag k="ssr:stedsnr" v="510163" />
	</node>
	<node id="9927362175" lat="63.0879382" lon="8.8644646" version="1" timestamp="2022-08-02T15:29:44Z" changeset="124397377" uid="3497659" user="NKA">
		<tag k="name" v="Brattset" />
		<tag k="place" v="farm" />
		<tag k="ssr:stedsnr" v="316761" />
	</node>
	<node id="9927362176" lat="62.9263445" lon="8.9893444" version="1" timestamp="2022-08-02T15:29:44Z" changeset="124397377" uid="3497659" user="NKA">
		<tag k="name" v="Langøya" />
		<tag k="place" v="isolated_dwelling" />
		<tag k="ssr:stedsnr" v="315053" />
	</node>
	<node id="9927362177" lat="63.0797223" lon="8.8325417" version="1" timestamp="2022-08-02T15:29:44Z" changeset="124397377" uid="3497659" user="NKA">
		<tag k="name" v="Hallmyra" />
		<tag k="place" v="farm" />
		<tag k="ssr:stedsnr" v="619764" />
	</node>
	<node id="9927362178" lat="63.0728473" lon="9.0196334" version="1" timestamp="2022-08-02T15:29:44Z" changeset="124397377" uid="3497659" user="NKA">
		<tag k="historic" v="shieling" />
		<tag k="name" v="Holmvassetra" />
		<tag k="place" v="isolated_dwelling" />
		<tag k="ssr:stedsnr" v="740729" />
	</node>
	<node id="9927362179" lat="62.994214" lon="8.9251577" version="1" timestamp="2022-08-02T15:29:44Z" changeset="124397377" uid="3497659" user="NKA">
		<tag k="name" v="Myrmo" />
		<tag k="place" v="farm" />
		<tag k="ssr:stedsnr" v="156865" />
	</node>
	<node id="9927362180" lat="62.9073753" lon="8.6241323" version="1" timestamp="2022-08-02T15:29:44Z" changeset="124397377" uid="3497659" user="NKA">
		<tag k="name" v="Oppistua" />
		<tag k="place" v="farm" />
		<tag k="ssr:stedsnr" v="824826" />
	</node>
	<node id="9927362181" lat="63.0805139" lon="9.0704555" version="1" timestamp="2022-08-02T15:29:44Z" changeset="124397377" uid="3497659" user="NKA">
		<tag k="historic" v="shieling" />
		<tag k="name" v="Dalseggsetra" />
		<tag k="place" v="isolated_dwelling" />
		<tag k="ssr:stedsnr" v="133611" />
	</node>
	<node id="9927362182" lat="62.9129194" lon="8.6443306" version="1" timestamp="2022-08-02T15:29:44Z" changeset="124397377" uid="3497659" user="NKA">
		<tag k="name" v="Rabben" />
		<tag k="place" v="farm" />
		<tag k="ssr:stedsnr" v="801729" />
	</node>
	<node id="9927362183" lat="62.8593695" lon="8.6734694" version="1" timestamp="2022-08-02T15:29:44Z" changeset="124397377" uid="3497659" user="NKA">
		<tag k="name" v="Svinviksetra" />
		<tag k="place" v="isolated_dwelling" />
		<tag k="ssr:stedsnr" v="740349" />
	</node>
	<node id="9927362184" lat="62.8804041" lon="8.6146643" version="1" timestamp="2022-08-02T15:29:44Z" changeset="124397377" uid="3497659" user="NKA">
		<tag k="name" v="Hagan" />
		<tag k="place" v="farm" />
		<tag k="ssr:stedsnr" v="702797" />
	</node>
	<node id="9927362185" lat="63.1057639" lon="8.9563473" version="1" timestamp="2022-08-02T15:29:44Z" changeset="124397377" uid="3497659" user="NKA">
		<tag k="historic" v="shieling" />
		<tag k="name" v="Bjørnåssetra" />
		<tag k="place" v="isolated_dwelling" />
		<tag k="ssr:stedsnr" v="801725" />
	</node>
	<node id="9927362186" lat="62.9770195" lon="8.7727666" version="1" timestamp="2022-08-02T15:29:44Z" changeset="124397377" uid="3497659" user="NKA">
		<tag k="name" v="Ranesbakken" />
		<tag k="place" v="farm" />
		<tag k="ssr:stedsnr" v="60515" />
	</node>
	<node id="9927362187" lat="63.0506763" lon="8.9996236" version="1" timestamp="2022-08-02T15:29:44Z" changeset="124397377" uid="3497659" user="NKA">
		<tag k="historic" v="shieling" />
		<tag k="name" v="Midtgarden" />
		<tag k="place" v="isolated_dwelling" />
		<tag k="ssr:stedsnr" v="449078" />
	</node>
	<node id="9927362188" lat="63.0195611" lon="9.0582" version="1" timestamp="2022-08-02T15:29:44Z" changeset="124397377" uid="3497659" user="NKA">
		<tag k="name" v="Almlia bustadfelt" />
		<tag k="place" v="neighbourhood" />
		<tag k="ssr:stedsnr" v="60178" />
	</node>
	<node id="9927362189" lat="62.9757445" lon="8.9092972" version="1" timestamp="2022-08-02T15:29:44Z" changeset="124397377" uid="3497659" user="NKA">
		<tag k="name" v="Mausetsetra" />
		<tag k="place" v="isolated_dwelling" />
		<tag k="ssr:stedsnr" v="73485" />
	</node>
	<node id="9927362190" lat="63.0497564" lon="8.7585586" version="1" timestamp="2022-08-02T15:29:44Z" changeset="124397377" uid="3497659" user="NKA">
		<tag k="historic" v="shieling" />
		<tag k="name" v="Holasetra" />
		<tag k="old_name" v="Svorkabogen;Svorkbagen" />
		<tag k="place" v="isolated_dwelling" />
		<tag k="ssr:stedsnr" v="566636" />
	</node>
	<node id="9927362191" lat="62.9148278" lon="9.0128528" version="1" timestamp="2022-08-02T15:29:44Z" changeset="124397377" uid="3497659" user="NKA">
		<tag k="name" v="Kontrabakkan" />
		<tag k="place" v="isolated_dwelling" />
		<tag k="ssr:stedsnr" v="73050" />
	</node>
	<node id="9927362192" lat="62.9473555" lon="8.9791695" version="1" timestamp="2022-08-02T15:29:44Z" changeset="124397377" uid="3497659" user="NKA">
		<tag k="name" v="Bjørkøya" />
		<tag k="place" v="isolated_dwelling" />
		<tag k="ssr:stedsnr" v="73046" />
	</node>
	<node id="9927362193" lat="63.0993167" lon="8.9522362" version="1" timestamp="2022-08-02T15:29:44Z" changeset="124397377" uid="3497659" user="NKA">
		<tag k="historic" v="shieling" />
		<tag k="name" v="Kråkhaugsetra" />
		<tag k="place" v="isolated_dwelling" />
		<tag k="ssr:stedsnr" v="24030" />
	</node>
	<node id="9927362194" lat="62.8811111" lon="8.6116471" version="1" timestamp="2022-08-02T15:29:44Z" changeset="124397377" uid="3497659" user="NKA">
		<tag k="name" v="Slettnes øvre" />
		<tag k="place" v="farm" />
		<tag k="ssr:stedsnr" v="520865" />
	</node>
	<node id="9927362195" lat="62.7939972" lon="8.6803112" version="1" timestamp="2022-08-02T15:29:44Z" changeset="124397377" uid="3497659" user="NKA">
		<tag k="name" v="Ørsalsetra" />
		<tag k="place" v="isolated_dwelling" />
		<tag k="ssr:stedsnr" v="558424" />
	</node>
	<node id="9927362196" lat="62.9927861" lon="8.9544778" version="1" timestamp="2022-08-02T15:29:44Z" changeset="124397377" uid="3497659" user="NKA">
		<tag k="name" v="Røv" />
		<tag k="place" v="farm" />
		<tag k="ssr:stedsnr" v="923504" />
	</node>
	<node id="9927362197" lat="62.9879804" lon="9.0006522" version="1" timestamp="2022-08-02T15:29:44Z" changeset="124397377" uid="3497659" user="NKA">
		<tag k="historic" v="shieling" />
		<tag k="name" v="Setersetra" />
		<tag k="place" v="isolated_dwelling" />
		<tag k="ssr:stedsnr" v="12438" />
	</node>
	<node id="9927362198" lat="62.8877838" lon="9.0306648" version="1" timestamp="2022-08-02T15:29:44Z" changeset="124397377" uid="3497659" user="NKA">
		<tag k="historic" v="shieling" />
		<tag k="name" v="Øvre Kløftsetra" />
		<tag k="place" v="isolated_dwelling" />
		<tag k="ssr:stedsnr" v="12036" />
	</node>
	<node id="9927362199" lat="62.8408361" lon="8.6374084" version="1" timestamp="2022-08-02T15:29:44Z" changeset="124397377" uid="3497659" user="NKA">
		<tag k="name" v="Nausta" />
		<tag k="place" v="farm" />
		<tag k="ssr:stedsnr" v="497336" />
	</node>
	<node id="9927362200" lat="62.938074" lon="8.8108106" version="1" timestamp="2022-08-02T15:29:44Z" changeset="124397377" uid="3497659" user="NKA">
		<tag k="name" v="Østbøen" />
		<tag k="place" v="locality" />
		<tag k="ssr:stedsnr" v="1071955" />
	</node>
	<node id="9927362201" lat="62.8433583" lon="8.6668918" version="1" timestamp="2022-08-02T15:29:44Z" changeset="124397377" uid="3497659" user="NKA">
		<tag k="name" v="Hjellnessetra" />
		<tag k="place" v="isolated_dwelling" />
		<tag k="ssr:stedsnr" v="497334" />
	</node>
	<node id="9927362202" lat="63.0537543" lon="8.7038363" version="1" timestamp="2022-08-02T15:29:44Z" changeset="124397377" uid="3497659" user="NKA">
		<tag k="name" v="Granli" />
		<tag k="place" v="farm" />
		<tag k="ssr:stedsnr" v="520840" />
	</node>
	<node id="9927362203" lat="63.0418776" lon="8.9750749" version="1" timestamp="2022-08-02T15:29:44Z" changeset="124397377" uid="3497659" user="NKA">
		<tag k="historic" v="shieling" />
		<tag k="name" v="Skjermosetra" />
		<tag k="place" v="isolated_dwelling" />
		<tag k="ssr:stedsnr" v="885849" />
	</node>
	<node id="9927362204" lat="62.9896333" lon="9.1285555" version="1" timestamp="2022-08-02T15:29:44Z" changeset="124397377" uid="3497659" user="NKA">
		<tag k="name" v="Sandsetra" />
		<tag k="place" v="isolated_dwelling" />
		<tag k="ssr:stedsnr" v="73477" />
	</node>
	<node id="9927362205" lat="62.9989329" lon="9.1322289" version="1" timestamp="2022-08-02T15:29:44Z" changeset="124397377" uid="3497659" user="NKA">
		<tag k="historic" v="shieling" />
		<tag k="name" v="Sandsetra" />
		<tag k="place" v="isolated_dwelling" />
		<tag k="ssr:stedsnr" v="73499" />
	</node>
	<node id="9927362206" lat="63.0721195" lon="8.7471584" version="1" timestamp="2022-08-02T15:29:44Z" changeset="124397377" uid="3497659" user="NKA">
		<tag k="name" v="Slettfjelløa" />
		<tag k="place" v="locality" />
		<tag k="ssr:stedsnr" v="337100" />
	</node>
	<node id="9927362207" lat="62.8879112" lon="8.6030972" version="1" timestamp="2022-08-02T15:29:44Z" changeset="124397377" uid="3497659" user="NKA">
		<tag k="name" v="Sjøledet" />
		<tag k="place" v="farm" />
		<tag k="ssr:stedsnr" v="316308" />
	</node>
	<node id="9927362208" lat="63.0955292" lon="8.820388" version="1" timestamp="2022-08-02T15:29:44Z" changeset="124397377" uid="3497659" user="NKA">
		<tag k="name" v="Hansnaustet" />
		<tag k="place" v="locality" />
		<tag k="ssr:stedsnr" v="155988" />
	</node>
	<node id="9927362209" lat="63.0558089" lon="8.9089652" version="1" timestamp="2022-08-02T15:29:44Z" changeset="124397377" uid="3497659" user="NKA">
		<tag k="name" v="Solåsen" />
		<tag k="place" v="farm" />
		<tag k="ssr:stedsnr" v="315640" />
	</node>
	<node id="9927362210" lat="62.8693445" lon="9.2070806" version="1" timestamp="2022-08-02T15:29:44Z" changeset="124397377" uid="3497659" user="NKA">
		<tag k="name" v="Utiton" />
		<tag k="place" v="isolated_dwelling" />
		<tag k="ssr:stedsnr" v="570237" />
	</node>
	<node id="9927362211" lat="62.9979472" lon="8.944903" version="1" timestamp="2022-08-02T15:29:44Z" changeset="124397377" uid="3497659" user="NKA">
		<tag k="name" v="Vollbu" />
		<tag k="place" v="farm" />
		<tag k="ssr:stedsnr" v="862465" />
	</node>
	<node id="9927362212" lat="62.8110472" lon="9.1946832" version="1" timestamp="2022-08-02T15:29:44Z" changeset="124397377" uid="3497659" user="NKA">
		<tag k="name" v="Løsetsetra" />
		<tag k="place" v="isolated_dwelling" />
		<tag k="ssr:stedsnr" v="12082" />
	</node>
	<node id="9927362213" lat="63.0697444" lon="8.7430362" version="1" timestamp="2022-08-02T15:29:44Z" changeset="124397377" uid="3497659" user="NKA">
		<tag k="name" v="Nyløå" />
		<tag k="place" v="locality" />
		<tag k="ssr:stedsnr" v="96397" />
	</node>
	<node id="9927362214" lat="62.8134389" lon="8.6577944" version="1" timestamp="2022-08-02T15:29:44Z" changeset="124397377" uid="3497659" user="NKA">
		<tag k="name" v="Hallsetsetra" />
		<tag k="place" v="isolated_dwelling" />
		<tag k="ssr:stedsnr" v="133387" />
	</node>
	<node id="9927362215" lat="63.0536412" lon="8.8843428" version="1" timestamp="2022-08-02T15:29:44Z" changeset="124397377" uid="3497659" user="NKA">
		<tag k="name" v="Solvassbo" />
		<tag k="place" v="isolated_dwelling" />
		<tag k="ssr:stedsnr" v="95969" />
	</node>
	<node id="9927362216" lat="62.8104986" lon="8.7011749" version="1" timestamp="2022-08-02T15:29:44Z" changeset="124397377" uid="3497659" user="NKA">
		<tag k="name" v="Ørsalen" />
		<tag k="place" v="farm" />
		<tag k="ssr:stedsnr" v="133370" />
	</node>
	<node id="9927362217" lat="63.0739083" lon="8.8118333" version="1" timestamp="2022-08-02T15:29:44Z" changeset="124397377" uid="3497659" user="NKA">
		<tag k="name" v="Furuhaugen" />
		<tag k="place" v="farm" />
		<tag k="ssr:stedsnr" v="73736" />
	</node>
	<node id="9927362218" lat="62.8210758" lon="8.6812646" version="1" timestamp="2022-08-02T15:29:44Z" changeset="124397377" uid="3497659" user="NKA">
		<tag k="name" v="Baugen" />
		<tag k="place" v="farm" />
		<tag k="ssr:stedsnr" v="520092" />
	</node>
	<node id="9927362219" lat="63.0716" lon="8.7056473" version="1" timestamp="2022-08-02T15:29:44Z" changeset="124397377" uid="3497659" user="NKA">
		<tag k="name" v="Hallarløa" />
		<tag k="place" v="locality" />
		<tag k="ssr:stedsnr" v="34119" />
	</node>
	<node id="9927362220" lat="62.8792282" lon="8.6175668" version="1" timestamp="2022-08-02T15:29:44Z" changeset="124397377" uid="3497659" user="NKA">
		<tag k="name" v="Myra" />
		<tag k="place" v="farm" />
		<tag k="ssr:stedsnr" v="12257" />
	</node>
	<node id="9927362221" lat="63.0639555" lon="8.8343306" version="1" timestamp="2022-08-02T15:29:44Z" changeset="124397377" uid="3497659" user="NKA">
		<tag k="historic" v="shieling" />
		<tag k="name" v="Bergemssetra" />
		<tag k="place" v="isolated_dwelling" />
		<tag k="ssr:stedsnr" v="24166" />
	</node>
	<node id="9927362222" lat="62.8928805" lon="8.7843333" version="1" timestamp="2022-08-02T15:29:44Z" changeset="124397377" uid="3497659" user="NKA">
		<tag k="name" v="Hopsetra" />
		<tag k="place" v="isolated_dwelling" />
		<tag k="ssr:stedsnr" v="862001" />
	</node>
	<node id="9927362223" lat="63.0661556" lon="8.7290528" version="1" timestamp="2022-08-02T15:29:44Z" changeset="124397377" uid="3497659" user="NKA">
		<tag k="historic" v="shieling" />
		<tag k="name" v="Flottasetra" />
		<tag k="place" v="isolated_dwelling" />
		<tag k="ssr:stedsnr" v="12644" />
	</node>
	<node id="9927362224" lat="63.0572409" lon="8.9579062" version="1" timestamp="2022-08-02T15:29:44Z" changeset="124397377" uid="3497659" user="NKA">
		<tag k="name" v="Vaulen" />
		<tag k="place" v="farm" />
		<tag k="ssr:stedsnr" v="922626" />
	</node>
	<node id="9927362225" lat="62.8084717" lon="8.7257107" version="1" timestamp="2022-08-02T15:29:44Z" changeset="124397377" uid="3497659" user="NKA">
		<tag k="name" v="Pestua" />
		<tag k="old_name" v="Hala" />
		<tag k="place" v="farm" />
		<tag k="ssr:stedsnr" v="1073009" />
	</node>
	<node id="9927362226" lat="62.8294972" lon="8.7684279" version="1" timestamp="2022-08-02T15:29:44Z" changeset="124397377" uid="3497659" user="NKA">
		<tag k="name" v="Kvennsetsetrin" />
		<tag k="place" v="isolated_dwelling" />
		<tag k="ssr:stedsnr" v="195112" />
	</node>
	<node id="9927362227" lat="63.0733778" lon="8.7532861" version="1" timestamp="2022-08-02T15:29:44Z" changeset="124397377" uid="3497659" user="NKA">
		<tag k="name" v="Storslættløa" />
		<tag k="place" v="locality" />
		<tag k="ssr:stedsnr" v="277085" />
	</node>
	<node id="9927362228" lat="62.8852532" lon="8.5847844" version="1" timestamp="2022-08-02T15:29:44Z" changeset="124397377" uid="3497659" user="NKA">
		<tag k="name" v="Skoglund" />
		<tag k="place" v="farm" />
		<tag k="ssr:stedsnr" v="641804" />
	</node>
	<node id="9927362229" lat="62.9922139" lon="8.6807306" version="1" timestamp="2022-08-02T15:29:44Z" changeset="124397377" uid="3497659" user="NKA">
		<tag k="name" v="Bøvravollen" />
		<tag k="place" v="farm" />
		<tag k="ssr:stedsnr" v="739655" />
	</node>
	<node id="9927362230" lat="63.0169583" lon="8.7004139" version="1" timestamp="2022-08-02T15:29:44Z" changeset="124397377" uid="3497659" user="NKA">
		<tag k="name" v="Furuhaugen" />
		<tag k="place" v="isolated_dwelling" />
		<tag k="ssr:stedsnr" v="726027" />
	</node>
	<node id="9927362231" lat="63.0921916" lon="8.8256167" version="1" timestamp="2022-08-02T15:29:44Z" changeset="124397377" uid="3497659" user="NKA">
		<tag k="historic" v="shieling" />
		<tag k="name" v="Vassdalssetra" />
		<tag k="place" v="isolated_dwelling" />
		<tag k="ssr:stedsnr" v="862745" />
	</node>
	<node id="9927362232" lat="63.0622" lon="8.7441471" version="1" timestamp="2022-08-02T15:29:44Z" changeset="124397377" uid="3497659" user="NKA">
		<tag k="alt_name" v="Nordheim" />
		<tag k="name" v="Flotten" />
		<tag k="place" v="farm" />
		<tag k="ssr:stedsnr" v="195663" />
	</node>
	<node id="9927362233" lat="63.0992917" lon="8.9523555" version="1" timestamp="2022-08-02T15:29:44Z" changeset="124397377" uid="3497659" user="NKA">
		<tag k="historic" v="shieling" />
		<tag k="name" v="Kråkhaugen" />
		<tag k="place" v="isolated_dwelling" />
		<tag k="ssr:stedsnr" v="194711" />
	</node>
	<node id="9927362234" lat="63.0669835" lon="8.7726091" version="1" timestamp="2022-08-02T15:29:44Z" changeset="124397377" uid="3497659" user="NKA">
		<tag k="name" v="Neverholten" />
		<tag k="place" v="farm" />
		<tag k="ssr:stedsnr" v="498677" />
	</node>
	<node id="9927362235" lat="63.0094917" lon="8.7222139" version="1" timestamp="2022-08-02T15:29:44Z" changeset="124397377" uid="3497659" user="NKA">
		<tag k="historic" v="shieling" />
		<tag k="name" v="Heggsetsetra" />
		<tag k="place" v="isolated_dwelling" />
		<tag k="ssr:stedsnr" v="813093" />
	</node>
	<node id="9927362236" lat="63.0627583" lon="8.9199888" version="1" timestamp="2022-08-02T15:29:44Z" changeset="124397377" uid="3497659" user="NKA">
		<tag k="name" v="Soggsolåssetra" />
		<tag k="place" v="locality" />
		<tag k="ssr:stedsnr" v="631277" />
	</node>
	<node id="9927362237" lat="62.9943806" lon="8.6770472" version="1" timestamp="2022-08-02T15:29:44Z" changeset="124397377" uid="3497659" user="NKA">
		<tag k="name" v="Austigard" />
		<tag k="place" v="farm" />
		<tag k="ssr:stedsnr" v="509935" />
	</node>
	<node id="9927362238" lat="62.9357389" lon="8.7712861" version="1" timestamp="2022-08-02T15:29:44Z" changeset="124397377" uid="3497659" user="NKA">
		<tag k="name" v="Vollen" />
		<tag k="place" v="locality" />
		<tag k="ssr:stedsnr" v="460056" />
	</node>
	<node id="9927362239" lat="62.8106889" lon="8.6677056" version="1" timestamp="2022-08-02T15:29:44Z" changeset="124397377" uid="3497659" user="NKA">
		<tag k="name" v="Nestusetra" />
		<tag k="place" v="isolated_dwelling" />
		<tag k="ssr:stedsnr" v="459408" />
	</node>
	<node id="9927362240" lat="63.0669958" lon="8.767157" version="1" timestamp="2022-08-02T15:29:44Z" changeset="124397377" uid="3497659" user="NKA">
		<tag k="name" v="Bakken" />
		<tag k="place" v="farm" />
		<tag k="ssr:stedsnr" v="278878" />
	</node>
	<node id="9927362241" lat="62.8415667" lon="8.6534417" version="1" timestamp="2022-08-02T15:29:44Z" changeset="124397377" uid="3497659" user="NKA">
		<tag k="name" v="Snøyå" />
		<tag k="place" v="farm" />
		<tag k="ssr:stedsnr" v="376339" />
	</node>
	<node id="9927362242" lat="62.8806899" lon="8.6137552" version="1" timestamp="2022-08-02T15:29:44Z" changeset="124397377" uid="3497659" user="NKA">
		<tag k="name" v="Slettnes indre" />
		<tag k="place" v="farm" />
		<tag k="ssr:stedsnr" v="278840" />
	</node>
	<node id="9927362243" lat="62.8856667" lon="8.5846417" version="1" timestamp="2022-08-02T15:29:44Z" changeset="124397377" uid="3497659" user="NKA">
		<tag k="name" v="Haltbakkan" />
		<tag k="place" v="hamlet" />
		<tag k="ssr:stedsnr" v="316312" />
	</node>
	<node id="9927362244" lat="62.8510185" lon="8.6323008" version="1" timestamp="2022-08-02T15:29:44Z" changeset="124397377" uid="3497659" user="NKA">
		<tag k="name" v="Svinvika" />
		<tag k="place" v="farm" />
		<tag k="ssr:stedsnr" v="437382" />
	</node>
	<node id="9927362245" lat="62.8466643" lon="8.6474337" version="1" timestamp="2022-08-02T15:29:44Z" changeset="124397377" uid="3497659" user="NKA">
		<tag k="name" v="Hjellnes" />
		<tag k="place" v="hamlet" />
		<tag k="ssr:stedsnr" v="315306" />
	</node>
	<node id="9927362246" lat="62.8040458" lon="8.7447598" version="1" timestamp="2022-08-02T15:29:44Z" changeset="124397377" uid="3497659" user="NKA">
		<tag k="name" v="Høyem" />
		<tag k="place" v="farm" />
		<tag k="ssr:stedsnr" v="278071" />
	</node>
	<node id="9927362247" lat="62.9999447" lon="9.0017023" version="1" timestamp="2022-08-02T15:29:44Z" changeset="124397377" uid="3497659" user="NKA">
		<tag k="name" v="Øyasetra" />
		<tag k="place" v="farm" />
		<tag k="ssr:stedsnr" v="399856" />
	</node>
	<node id="9927362248" lat="62.9044695" lon="8.7301666" version="1" timestamp="2022-08-02T15:29:44Z" changeset="124397377" uid="3497659" user="NKA">
		<tag k="historic" v="shieling" />
		<tag k="name" v="Gardsetrin" />
		<tag k="place" v="isolated_dwelling" />
		<tag k="ssr:stedsnr" v="277383" />
	</node>
	<node id="9927362249" lat="62.843625" lon="8.6813027" version="1" timestamp="2022-08-02T15:29:44Z" changeset="124397377" uid="3497659" user="NKA">
		<tag k="name" v="Karthaugløa" />
		<tag k="place" v="locality" />
		<tag k="ssr:stedsnr" v="277436" />
	</node>
	<node id="9927362250" lat="62.8528797" lon="8.6309537" version="1" timestamp="2022-08-02T15:29:44Z" changeset="124397377" uid="3497659" user="NKA">
		<tag k="name" v="Gjengstøa" />
		<tag k="place" v="farm" />
		<tag k="ssr:stedsnr" v="277075" />
	</node>
	<node id="9927362251" lat="63.0739308" lon="8.8052045" version="1" timestamp="2022-08-02T15:29:44Z" changeset="124397377" uid="3497659" user="NKA">
		<tag k="name" v="Bøvertun" />
		<tag k="place" v="farm" />
		<tag k="ssr:stedsnr" v="156869" />
	</node>
	<node id="9927362252" lat="62.9779682" lon="8.364446" version="1" timestamp="2022-08-02T15:29:44Z" changeset="124397377" uid="3497659" user="NKA">
		<tag k="name" v="Trodalen" />
		<tag k="place" v="farm" />
		<tag k="ssr:stedsnr" v="922637" />
	</node>
	<node id="9927362253" lat="62.9873722" lon="8.8112" version="1" timestamp="2022-08-02T15:29:44Z" changeset="124397377" uid="3497659" user="NKA">
		<tag k="name" v="Krangnes" />
		<tag k="place" v="farm" />
		<tag k="ssr:stedsnr" v="680533" />
	</node>
	<node id="9927362254" lat="63.0364918" lon="8.3659147" version="1" timestamp="2022-08-02T15:29:44Z" changeset="124397377" uid="3497659" user="NKA">
		<tag k="historic" v="shieling" />
		<tag k="name" v="Gammelsetra" />
		<tag k="place" v="isolated_dwelling" />
		<tag k="ssr:stedsnr" v="702832" />
	</node>
	<node id="9927362255" lat="62.9905123" lon="8.7102912" version="1" timestamp="2022-08-02T15:29:44Z" changeset="124397377" uid="3497659" user="NKA">
		<tag k="name" v="Heggset" />
		<tag k="place" v="farm" />
		<tag k="ssr:stedsnr" v="679625" />
	</node>
	<node id="9927362256" lat="62.8288519" lon="8.6614962" version="1" timestamp="2022-08-02T15:29:44Z" changeset="124397377" uid="3497659" user="NKA">
		<tag k="name" v="Ansneset" />
		<tag k="place" v="farm" />
		<tag k="ssr:stedsnr" v="194379" />
	</node>
	<node id="9927362257" lat="62.9834294" lon="8.8140671" version="1" timestamp="2022-08-02T15:29:44Z" changeset="124397377" uid="3497659" user="NKA">
		<tag k="name" v="Teigan" />
		<tag k="place" v="farm" />
		<tag k="ssr:stedsnr" v="581879" />
	</node>
	<node id="9927362258" lat="62.985056" lon="8.7807679" version="1" timestamp="2022-08-02T15:29:44Z" changeset="124397377" uid="3497659" user="NKA">
		<tag k="name" v="Hommelstad" />
		<tag k="place" v="farm" />
		<tag k="ssr:stedsnr" v="155847" />
	</node>
	<node id="9927362259" lat="62.9135996" lon="8.6483229" version="1" timestamp="2022-08-02T15:29:44Z" changeset="124397377" uid="3497659" user="NKA">
		<tag k="name" v="Lia" />
		<tag k="place" v="hamlet" />
		<tag k="ssr:stedsnr" v="217362" />
	</node>
	<node id="9927362260" lat="62.7812083" lon="8.8302277" version="1" timestamp="2022-08-02T15:29:44Z" changeset="124397377" uid="3497659" user="NKA">
		<tag k="name" v="Gammelsetra" />
		<tag k="place" v="isolated_dwelling" />
		<tag k="ssr:stedsnr" v="945275" />
	</node>
	<node id="9927362261" lat="62.9514694" lon="8.5671138" version="1" timestamp="2022-08-02T15:29:44Z" changeset="124397377" uid="3497659" user="NKA">
		<tag k="name" v="Holtasetra" />
		<tag k="place" v="isolated_dwelling" />
		<tag k="ssr:stedsnr" v="497671" />
	</node>
	<node id="9927362262" lat="62.8270917" lon="8.736989" version="1" timestamp="2022-08-02T15:29:44Z" changeset="124397377" uid="3497659" user="NKA">
		<tag k="name" v="Gammelsetra" />
		<tag k="place" v="locality" />
		<tag k="ssr:stedsnr" v="823437" />
	</node>
	<node id="9927362263" lat="63.0285138" lon="8.5098888" version="1" timestamp="2022-08-02T15:29:44Z" changeset="124397377" uid="3497659" user="NKA">
		<tag k="historic" v="shieling" />
		<tag k="name" v="Olastusetra" />
		<tag k="place" v="isolated_dwelling" />
		<tag k="ssr:stedsnr" v="581866" />
	</node>
	<node id="9927362264" lat="63.0562657" lon="8.7150982" version="1" timestamp="2022-08-02T15:29:44Z" changeset="124397377" uid="3497659" user="NKA">
		<tag k="name" v="Bakkebu" />
		<tag k="place" v="farm" />
		<tag k="ssr:stedsnr" v="460854" />
	</node>
	<node id="9927362265" lat="62.7866196" lon="8.7135055" version="1" timestamp="2022-08-02T15:29:44Z" changeset="124397377" uid="3497659" user="NKA">
		<tag k="name" v="Øver Gammelsetra" />
		<tag k="place" v="isolated_dwelling" />
		<tag k="ssr:stedsnr" v="34266" />
	</node>
	<node id="9927362266" lat="62.7965111" lon="8.7764638" version="1" timestamp="2022-08-02T15:29:44Z" changeset="124397377" uid="3497659" user="NKA">
		<tag k="name" v="Falløya" />
		<tag k="place" v="farm" />
		<tag k="ssr:stedsnr" v="376066" />
	</node>
	<node id="9927362267" lat="63.0542555" lon="8.7037278" version="1" timestamp="2022-08-02T15:29:44Z" changeset="124397377" uid="3497659" user="NKA">
		<tag k="name" v="Merket" />
		<tag k="place" v="farm" />
		<tag k="ssr:stedsnr" v="437813" />
	</node>
	<node id="9927362268" lat="62.7738112" lon="8.8406027" version="1" timestamp="2022-08-02T15:29:44Z" changeset="124397377" uid="3497659" user="NKA">
		<tag k="name" v="Hanshaugsetra" />
		<tag k="place" v="isolated_dwelling" />
		<tag k="ssr:stedsnr" v="338235" />
	</node>
	<node id="9927362269" lat="62.9941473" lon="9.1559722" version="1" timestamp="2022-08-02T15:29:44Z" changeset="124397377" uid="3497659" user="NKA">
		<tag k="name" v="Børsetsetra" />
		<tag k="place" v="isolated_dwelling" />
		<tag k="ssr:stedsnr" v="680525" />
	</node>
	<node id="9927362270" lat="62.999525" lon="9.1383083" version="1" timestamp="2022-08-02T15:29:44Z" changeset="124397377" uid="3497659" user="NKA">
		<tag k="name" v="Gammelstølen" />
		<tag k="place" v="locality" />
		<tag k="ssr:stedsnr" v="338467" />
	</node>
	<node id="9927362271" lat="62.9694823" lon="8.3714771" version="1" timestamp="2022-08-02T15:29:44Z" changeset="124397377" uid="3497659" user="NKA">
		<tag k="name" v="Båtvik" />
		<tag k="place" v="locality" />
		<tag k="ssr:stedsnr" v="977569" />
	</node>
	<node id="9927362272" lat="63.008839" lon="8.3743701" version="1" timestamp="2022-08-02T15:29:44Z" changeset="124397377" uid="3497659" user="NKA">
		<tag k="name" v="Olastua" />
		<tag k="place" v="farm" />
		<tag k="ssr:stedsnr" v="156846" />
	</node>
	<node id="9927362273" lat="63.0252892" lon="8.5394016" version="1" timestamp="2022-08-02T15:29:44Z" changeset="124397377" uid="3497659" user="NKA">
		<tag k="name" v="Heimsetra" />
		<tag k="place" v="isolated_dwelling" />
		<tag k="ssr:stedsnr" v="376864" />
	</node>
	<node id="9927362274" lat="62.9788422" lon="8.8846701" version="1" timestamp="2022-08-02T15:29:44Z" changeset="124397377" uid="3497659" user="NKA">
		<tag k="historic" v="shieling" />
		<tag k="name" v="Honnstadsetra" />
		<tag k="place" v="isolated_dwelling" />
		<tag k="ssr:stedsnr" v="680512" />
	</node>
	<node id="9927362275" lat="62.9924615" lon="8.3262975" version="1" timestamp="2022-08-02T15:29:44Z" changeset="124397377" uid="3497659" user="NKA">
		<tag k="name" v="Lykkja" />
		<tag k="place" v="isolated_dwelling" />
		<tag k="ssr:stedsnr" v="763844" />
	</node>
	<node id="9927362276" lat="62.9943028" lon="8.3472999" version="1" timestamp="2022-08-02T15:29:44Z" changeset="124397377" uid="3497659" user="NKA">
		<tag k="name" v="Øvre Bøsetra" />
		<tag k="place" v="locality" />
		<tag k="ssr:stedsnr" v="156659" />
	</node>
	<node id="9927362277" lat="63.0024084" lon="8.485039" version="1" timestamp="2022-08-02T15:29:44Z" changeset="124397377" uid="3497659" user="NKA">
		<tag k="name" v="Snekkviksetra" />
		<tag k="place" v="isolated_dwelling" />
		<tag k="ssr:stedsnr" v="763839" />
	</node>
	<node id="9927362278" lat="62.9289611" lon="8.4461277" version="1" timestamp="2022-08-02T15:29:44Z" changeset="124397377" uid="3497659" user="NKA">
		<tag k="name" v="Terassen" />
		<tag k="place" v="farm" />
		<tag k="ssr:stedsnr" v="824836" />
	</node>
	<node id="9927362279" lat="62.9805012" lon="8.3543044" version="1" timestamp="2022-08-02T15:29:44Z" changeset="124397377" uid="3497659" user="NKA">
		<tag k="name" v="Grava" />
		<tag k="place" v="farm" />
		<tag k="ssr:stedsnr" v="739659" />
	</node>
	<node id="9927362280" lat="62.8036185" lon="8.7460445" version="1" timestamp="2022-08-02T15:29:44Z" changeset="124397377" uid="3497659" user="NKA">
		<tag k="name" v="Brusethaugen" />
		<tag k="place" v="farm" />
		<tag k="ssr:stedsnr" v="945247" />
	</node>
	<node id="9927362281" lat="62.9907307" lon="8.6545185" version="1" timestamp="2022-08-02T15:29:44Z" changeset="124397377" uid="3497659" user="NKA">
		<tag k="name" v="Naustbakkan" />
		<tag k="place" v="farm" />
		<tag k="ssr:stedsnr" v="49700" />
	</node>
	<node id="9927362282" lat="63.0567007" lon="8.721233" version="1" timestamp="2022-08-02T15:29:44Z" changeset="124397377" uid="3497659" user="NKA">
		<tag k="name" v="Gravvollen" />
		<tag k="place" v="farm" />
		<tag k="ssr:stedsnr" v="12652" />
	</node>
	<node id="9927362283" lat="63.0346333" lon="8.3603111" version="1" timestamp="2022-08-02T15:29:44Z" changeset="124397377" uid="3497659" user="NKA">
		<tag k="historic" v="shieling" />
		<tag k="name" v="Skrøvsetsetra" />
		<tag k="place" v="isolated_dwelling" />
		<tag k="ssr:stedsnr" v="12828" />
	</node>
	<node id="9927362284" lat="62.9825379" lon="8.7859066" version="1" timestamp="2022-08-02T15:29:44Z" changeset="124397377" uid="3497659" user="NKA">
		<tag k="name" v="Litlenga" />
		<tag k="place" v="farm" />
		<tag k="ssr:stedsnr" v="520889" />
	</node>
	<node id="9927362285" lat="62.9072978" lon="8.6017364" version="1" timestamp="2022-08-02T15:29:44Z" changeset="124397377" uid="3497659" user="NKA">
		<tag k="name" v="Hollen" />
		<tag k="place" v="farm" />
		<tag k="ssr:stedsnr" v="922281" />
	</node>
	<node id="9927362286" lat="62.9283419" lon="8.446298" version="1" timestamp="2022-08-02T15:29:44Z" changeset="124397377" uid="3497659" user="NKA">
		<tag k="name" v="Solbakken" />
		<tag k="place" v="farm" />
		<tag k="ssr:stedsnr" v="702087" />
	</node>
	<node id="9927362287" lat="62.9818194" lon="8.7265611" version="1" timestamp="2022-08-02T15:29:44Z" changeset="124397377" uid="3497659" user="NKA">
		<tag k="name" v="Buhagan bustadfelt" />
		<tag k="place" v="neighbourhood" />
		<tag k="ssr:stedsnr" v="872883" />
	</node>
	<node id="9927362288" lat="62.9995777" lon="8.3417278" version="1" timestamp="2022-08-02T15:29:44Z" changeset="124397377" uid="3497659" user="NKA">
		<tag k="historic" v="shieling" />
		<tag k="name" v="Stakknessetra" />
		<tag k="place" v="isolated_dwelling" />
		<tag k="ssr:stedsnr" v="581862" />
	</node>
	<node id="9927362289" lat="62.9201955" lon="8.4689203" version="1" timestamp="2022-08-02T15:29:44Z" changeset="124397377" uid="3497659" user="NKA">
		<tag k="name" v="Fredly" />
		<tag k="place" v="farm" />
		<tag k="ssr:stedsnr" v="466194" />
	</node>
	<node id="9927362290" lat="63.0276777" lon="8.3167638" version="1" timestamp="2022-08-02T15:29:44Z" changeset="124397377" uid="3497659" user="NKA">
		<tag k="name" v="Heggemsetra" />
		<tag k="place" v="locality" />
		<tag k="ssr:stedsnr" v="641588" />
	</node>
	<node id="9927362291" lat="62.9817111" lon="8.7216944" version="1" timestamp="2022-08-02T15:29:44Z" changeset="124397377" uid="3497659" user="NKA">
		<tag k="name" v="Prestgarden" />
		<tag k="place" v="farm" />
		<tag k="ssr:stedsnr" v="872949" />
	</node>
	<node id="9927362292" lat="62.9269501" lon="8.685623" version="1" timestamp="2022-08-02T15:29:44Z" changeset="124397377" uid="3497659" user="NKA">
		<tag k="name" v="Ellevset" />
		<tag k="place" v="farm" />
		<tag k="ssr:stedsnr" v="740723" />
	</node>
	<node id="9927362293" lat="63.0039166" lon="8.3421666" version="1" timestamp="2022-08-02T15:29:44Z" changeset="124397377" uid="3497659" user="NKA">
		<tag k="alt_name" v="Urda" />
		<tag k="name" v="Ora" />
		<tag k="place" v="farm" />
		<tag k="ssr:stedsnr" v="520871" />
	</node>
	<node id="9927362294" lat="62.9704455" lon="8.7270649" version="1" timestamp="2022-08-02T15:29:44Z" changeset="124397377" uid="3497659" user="NKA">
		<tag k="name" v="Kleiva" />
		<tag k="place" v="farm" />
		<tag k="ssr:stedsnr" v="641868" />
	</node>
	<node id="9927362295" lat="62.9907471" lon="8.6311197" version="1" timestamp="2022-08-02T15:29:44Z" changeset="124397377" uid="3497659" user="NKA">
		<tag k="name" v="Glæremsrønningan bustadfelt" />
		<tag k="place" v="neighbourhood" />
		<tag k="ssr:stedsnr" v="872464" />
	</node>
	<node id="9927362296" lat="63.0574278" lon="8.7972027" version="1" timestamp="2022-08-02T15:29:44Z" changeset="124397377" uid="3497659" user="NKA">
		<tag k="historic" v="shieling" />
		<tag k="name" v="Øyagardssetra" />
		<tag k="place" v="isolated_dwelling" />
		<tag k="ssr:stedsnr" v="509413" />
	</node>
	<node id="9927362297" lat="62.9468584" lon="8.5055" version="1" timestamp="2022-08-02T15:29:44Z" changeset="124397377" uid="3497659" user="NKA">
		<tag k="name" v="Torviksetra" />
		<tag k="place" v="isolated_dwelling" />
		<tag k="ssr:stedsnr" v="436678" />
	</node>
	<node id="9927362298" lat="62.8976409" lon="8.5033063" version="1" timestamp="2022-08-02T15:29:44Z" changeset="124397377" uid="3497659" user="NKA">
		<tag k="name" v="Grønneset" />
		<tag k="place" v="farm" />
		<tag k="ssr:stedsnr" v="437317" />
	</node>
	<node id="9927362299" lat="62.9955425" lon="8.6778607" version="1" timestamp="2022-08-02T15:29:44Z" changeset="124397377" uid="3497659" user="NKA">
		<tag k="name" v="Hammaren" />
		<tag k="place" v="farm" />
		<tag k="ssr:stedsnr" v="194604" />
	</node>
	<node id="9927362300" lat="62.8917551" lon="8.5145555" version="1" timestamp="2022-08-02T15:29:44Z" changeset="124397377" uid="3497659" user="NKA">
		<tag k="name" v="Overgeilen" />
		<tag k="place" v="farm" />
		<tag k="ssr:stedsnr" v="703850" />
	</node>
	<node id="9927362301" lat="62.9932517" lon="8.8343179" version="1" timestamp="2022-08-02T15:29:44Z" changeset="124397377" uid="3497659" user="NKA">
		<tag k="name" v="Pellen" />
		<tag k="place" v="farm" />
		<tag k="ssr:stedsnr" v="945855" />
	</node>
	<node id="9927362302" lat="62.9056655" lon="8.8394665" version="1" timestamp="2022-08-02T15:29:44Z" changeset="124397377" uid="3497659" user="NKA">
		<tag k="name" v="Holtasetra" />
		<tag k="place" v="isolated_dwelling" />
		<tag k="ssr:stedsnr" v="740010" />
	</node>
	<node id="9927362303" lat="63.0073701" lon="8.3683975" version="1" timestamp="2022-08-02T15:29:44Z" changeset="124397377" uid="3497659" user="NKA">
		<tag k="name" v="Sørgarden" />
		<tag k="place" v="farm" />
		<tag k="ssr:stedsnr" v="217820" />
	</node>
	<node id="9927362304" lat="62.7830166" lon="8.8738083" version="1" timestamp="2022-08-02T15:29:44Z" changeset="124397377" uid="3497659" user="NKA">
		<tag k="name" v="Dalahaugen" />
		<tag k="place" v="farm" />
		<tag k="ssr:stedsnr" v="801071" />
	</node>
	<node id="9927362305" lat="63.0254361" lon="8.8435055" version="1" timestamp="2022-08-02T15:29:44Z" changeset="124397377" uid="3497659" user="NKA">
		<tag k="historic" v="shieling" />
		<tag k="name" v="Krangnessetra" />
		<tag k="place" v="isolated_dwelling" />
		<tag k="ssr:stedsnr" v="509036" />
	</node>
	<node id="9927362306" lat="62.980634" lon="8.7619107" version="1" timestamp="2022-08-02T15:29:44Z" changeset="124397377" uid="3497659" user="NKA">
		<tag k="name" v="Telesbø" />
		<tag k="place" v="hamlet" />
		<tag k="ssr:stedsnr" v="740430" />
	</node>
	<node id="9927362307" lat="63.0260518" lon="8.6089984" version="1" timestamp="2022-08-02T15:29:44Z" changeset="124397377" uid="3497659" user="NKA">
		<tag k="name" v="Bøverfjorden" />
		<tag k="place" v="farm" />
		<tag k="ssr:stedsnr" v="558879" />
	</node>
	<node id="9927362308" lat="62.9934991" lon="8.83923" version="1" timestamp="2022-08-02T15:29:44Z" changeset="124397377" uid="3497659" user="NKA">
		<tag k="name" v="Austistua Mogstad" />
		<tag k="place" v="farm" />
		<tag k="ssr:stedsnr" v="399842" />
	</node>
	<node id="9927362309" lat="62.9820777" lon="8.6988195" version="1" timestamp="2022-08-02T15:29:44Z" changeset="124397377" uid="3497659" user="NKA">
		<tag k="name" v="Syltbakken" />
		<tag k="place" v="farm" />
		<tag k="ssr:stedsnr" v="933955" />
	</node>
	<node id="9927362310" lat="62.9900717" lon="8.9409935" version="1" timestamp="2022-08-02T15:29:44Z" changeset="124397377" uid="3497659" user="NKA">
		<tag k="name" v="Vester Nyvegtrøa" />
		<tag k="place" v="farm" />
		<tag k="ssr:stedsnr" v="702870" />
	</node>
	<node id="9927362311" lat="63.0053723" lon="8.806625" version="1" timestamp="2022-08-02T15:29:44Z" changeset="124397377" uid="3497659" user="NKA">
		<tag k="name" v="Gammelsetra" />
		<tag k="place" v="locality" />
		<tag k="ssr:stedsnr" v="398793" />
	</node>
	<node id="9927362312" lat="63.0102694" lon="8.9775999" version="1" timestamp="2022-08-02T15:29:44Z" changeset="124397377" uid="3497659" user="NKA">
		<tag k="name" v="Gammelsetra" />
		<tag k="place" v="locality" />
		<tag k="ssr:stedsnr" v="823547" />
	</node>
	<node id="9927362313" lat="62.8295028" lon="9.2343167" version="1" timestamp="2022-08-02T15:29:44Z" changeset="124397377" uid="3497659" user="NKA">
		<tag k="alt_name" v="Fiskjasetra" />
		<tag k="historic" v="shieling" />
		<tag k="name" v="Fiskjassetra" />
		<tag k="place" v="isolated_dwelling" />
		<tag k="ssr:stedsnr" v="580471" />
	</node>
	<node id="9927362314" lat="62.9753072" lon="8.7391717" version="1" timestamp="2022-08-02T15:29:44Z" changeset="124397377" uid="3497659" user="NKA">
		<tag k="name" v="Skei" />
		<tag k="place" v="hamlet" />
		<tag k="ssr:stedsnr" v="376473" />
	</node>
	<node id="9927362315" lat="62.9843695" lon="9.1091805" version="1" timestamp="2022-08-02T15:29:44Z" changeset="124397377" uid="3497659" user="NKA">
		<tag k="name" v="Trollhaughytta" />
		<tag k="place" v="isolated_dwelling" />
		<tag k="ssr:stedsnr" v="702521" />
	</node>
	<node id="9927362316" lat="62.7936625" lon="8.7933791" version="1" timestamp="2022-08-02T15:29:44Z" changeset="124397377" uid="3497659" user="NKA">
		<tag k="name" v="Vestrum" />
		<tag k="place" v="farm" />
		<tag k="ssr:stedsnr" v="520039" />
	</node>
	<node id="9927362317" lat="63.0165157" lon="9.0503443" version="1" timestamp="2022-08-02T15:29:44Z" changeset="124397377" uid="3497659" user="NKA">
		<tag k="alt_name" v="Fiskja" />
		<tag k="name" v="Alvstua" />
		<tag k="place" v="farm" />
		<tag k="ssr:stedsnr" v="585315" />
	</node>
	<node id="9927362318" lat="62.984764" lon="8.7641278" version="1" timestamp="2022-08-02T15:29:44Z" changeset="124397377" uid="3497659" user="NKA">
		<tag k="name" v="Ner Telstad" />
		<tag k="place" v="farm" />
		<tag k="ssr:stedsnr" v="581875" />
	</node>
	<node id="9927362319" lat="63.0726556" lon="8.8009139" version="1" timestamp="2022-08-02T15:29:44Z" changeset="124397377" uid="3497659" user="NKA">
		<tag k="name" v="Stormyra" />
		<tag k="place" v="farm" />
		<tag k="ssr:stedsnr" v="376751" />
	</node>
	<node id="9927362320" lat="62.9753963" lon="8.7837066" version="1" timestamp="2022-08-02T15:29:44Z" changeset="124397377" uid="3497659" user="NKA">
		<tag k="name" v="Einmoen" />
		<tag k="place" v="farm" />
		<tag k="ssr:stedsnr" v="278034" />
	</node>
	<node id="9927362321" lat="62.9831584" lon="8.6753583" version="1" timestamp="2022-08-02T15:29:44Z" changeset="124397377" uid="3497659" user="NKA">
		<tag k="name" v="Haugan" />
		<tag k="place" v="farm" />
		<tag k="ssr:stedsnr" v="568924" />
	</node>
	<node id="9927362322" lat="62.8096055" lon="8.708761" version="1" timestamp="2022-08-02T15:29:44Z" changeset="124397377" uid="3497659" user="NKA">
		<tag k="name" v="Sagtrøa" />
		<tag k="place" v="farm" />
		<tag k="ssr:stedsnr" v="315388" />
	</node>
	<node id="9927362323" lat="63.0468056" lon="9.0452417" version="1" timestamp="2022-08-02T15:29:44Z" changeset="124397377" uid="3497659" user="NKA">
		<tag k="historic" v="shieling" />
		<tag k="name" v="Alfstusetra" />
		<tag k="place" v="isolated_dwelling" />
		<tag k="ssr:stedsnr" v="267231" />
	</node>
	<node id="9927362324" lat="62.9832611" lon="8.69035" version="1" timestamp="2022-08-02T15:29:44Z" changeset="124397377" uid="3497659" user="NKA">
		<tag k="name" v="Hemigard" />
		<tag k="place" v="farm" />
		<tag k="ssr:stedsnr" v="447924" />
	</node>
	<node id="9927362325" lat="62.8442861" lon="9.2277445" version="1" timestamp="2022-08-02T15:29:44Z" changeset="124397377" uid="3497659" user="NKA">
		<tag k="name" v="Skjermosetra" />
		<tag k="place" v="isolated_dwelling" />
		<tag k="ssr:stedsnr" v="216509" />
	</node>
</osm>
