<?xml version="1.0" encoding="UTF-8"?>
<osm generator="osmapis" version="0.6">
	<node changeset="58620907" id="2354931787" lat="64.039972" lon="11.351708" timestamp="2018-05-02T17:04:06Z" uid="3497659" user="NKA" version="2">
		<tag k="name" v="Viset" />
		<tag k="place" v="farm" />
		<tag k="source" v="Kartverket" />
		<tag k="ssr:stedsnr" v="924104" />
	</node>
	<node changeset="58620907" id="2354937775" lat="64.129542" lon="11.4937" timestamp="2018-05-02T17:04:06Z" uid="3497659" user="NKA" version="2">
		<tag k="name" v="Pikhaugen" />
		<tag k="natural" v="peak" />
		<tag k="source" v="Kartverket" />
		<tag k="ssr:stedsnr" v="83536" />
	</node>
	<node changeset="58620907" id="2354931768" lat="64.078928" lon="11.679481" timestamp="2018-05-02T17:04:06Z" uid="3497659" user="NKA" version="2">
		<tag k="name" v="Myra" />
		<tag k="place" v="farm" />
		<tag k="source" v="Kartverket" />
		<tag k="ssr:stedsnr" v="378201" />
	</node>
	<node changeset="58620907" id="2354938778" lat="64.002389" lon="11.853117" timestamp="2018-05-02T17:04:07Z" uid="3497659" user="NKA" version="2">
		<tag k="name" v="Bogen" />
		<tag k="place" v="locality" />
		<tag k="source" v="Kartverket" />
		<tag k="ssr:stedsnr" v="878050" />
	</node>
	<node changeset="58620907" id="2354938479" lat="64.077211" lon="11.626189" timestamp="2018-05-02T17:04:07Z" uid="3497659" user="NKA" version="2">
		<tag k="name" v="Sundan" />
		<tag k="place" v="farm" />
		<tag k="source" v="Kartverket" />
		<tag k="ssr:stedsnr" v="574440" />
	</node>
	<node changeset="58620907" id="2354953756" lat="63.9838106" lon="11.8877228" timestamp="2018-05-02T17:04:09Z" uid="3497659" user="NKA" version="3">
		<tag k="name" v="Kjesbua" />
		<tag k="place" v="farm" />
		<tag k="source" v="Kartverket" />
		<tag k="ssr:stedsnr" v="232108" />
	</node>
</osm>
