<?xml version="1.0" encoding="UTF-8"?>
<osm version="0.6" generator="osmapis">
	<node lat="63.52884444378049" lon="10.158366661841187" id="-96559">
		<tag k="fixme" v="consider boundary=protected_area and relevant protect_class if not nature reserve" />
		<tag k="leisure" v="nature_reserve" />
		<tag k="name" v="Øver-Ekset" />
		<tag k="ssr:stedsnr" v="485494" />
	</node>
	<node lat="63.52770214752866" lon="10.16157421713547" id="-98540">
		<tag k="fixme" v="consider boundary=protected_area and relevant protect_class if not nature reserve" />
		<tag k="leisure" v="nature_reserve" />
		<tag k="name" v="Vikalian naturreservat" />
		<tag k="ssr:stedsnr" v="976005" />
	</node>
	<node lat="63.78958578772133" lon="10.165078908183371" id="-98542">
		<tag k="fixme" v="consider boundary=protected_area and relevant protect_class if not nature reserve" />
		<tag k="leisure" v="nature_reserve" />
		<tag k="name" v="Nordelva naturreservat" />
		<tag k="ssr:stedsnr" v="989133" />
	</node>
	<node lat="63.6707950459761" lon="9.975538464137019" id="-98543">
		<tag k="fixme" v="consider boundary=protected_area and relevant protect_class if not nature reserve" />
		<tag k="leisure" v="nature_reserve" />
		<tag k="name" v="Storlidalen naturreservat" />
		<tag k="ssr:stedsnr" v="989134" />
	</node>
	<node lat="63.66041110962253" lon="10.481900002326464" id="-99729">
		<tag k="name" v="Leksvik bygdeallmenning" />
		<tag k="place" v="locality" />
		<tag k="ssr:stedsnr" v="290924" />
	</node>
	<node lat="63.49420623146924" lon="10.042243579335848" id="-102401">
		<tag k="fixme" v="consider boundary=protected_area and relevant protect_class if not nature reserve" />
		<tag k="leisure" v="nature_reserve" />
		<tag k="name" v="Berga naturreservat" />
		<tag k="ssr:stedsnr" v="989159" />
	</node>
	<node lat="63.71088994651947" lon="10.793464442891793" id="-102804">
		<tag k="fixme" v="consider boundary=protected_area and relevant protect_class if not nature reserve" />
		<tag k="leisure" v="nature_reserve" />
		<tag k="name" v="Raudkamlia naturreservat" />
		<tag k="ssr:stedsnr" v="1074685" />
	</node>
	<node lat="63.67887506243583" lon="10.304660196492653" id="-102805">
		<tag k="fixme" v="consider boundary=protected_area and relevant protect_class if not nature reserve" />
		<tag k="leisure" v="nature_reserve" />
		<tag k="name" v="Skjettenberglia naturreservat" />
		<tag k="ssr:stedsnr" v="1074687" />
	</node>
	<node lat="63.736152183973594" lon="10.826747648179776" id="-102807">
		<tag k="fixme" v="consider boundary=protected_area and relevant protect_class if not nature reserve" />
		<tag k="leisure" v="nature_reserve" />
		<tag k="name" v="Bårvassåsen naturreservat" />
		<tag k="ssr:stedsnr" v="1077516" />
	</node>
	<node lat="63.70451062056393" lon="10.362945068638322" id="-102808">
		<tag k="fixme" v="consider boundary=protected_area and relevant protect_class if not nature reserve" />
		<tag k="leisure" v="nature_reserve" />
		<tag k="name" v="Vargøylia naturreservat" />
		<tag k="ssr:stedsnr" v="1077517" />
	</node>
</osm>
