<?xml version="1.0" encoding="UTF-8"?>
<osm generator="osmapis" version="0.6">
	<node id="-940544" lat="63.7503722244" lon="10.123730562">
		<tag k="name" v="Øra" />
		<tag k="natural" v="cape" />
		<tag k="ssr:stedsnr" v="341851" />
	</node>
	<node id="-943103" lat="63.6154055513" lon="10.5176194485">
		<tag k="fixme" v="consider seamark:type=rock or natural=shoal" />
		<tag k="name" v="Sveskjæra" />
		<tag k="place" v="islet" />
		<tag k="ssr:stedsnr" v="352084" />
	</node>
	<node id="-938581" lat="63.4966583362" lon="9.97579999362">
		<tag k="name" v="Grønningsbukta" />
		<tag k="natural" v="bay" />
		<tag k="ssr:stedsnr" v="13044" />
	</node>
	<node id="-937979" lat="63.7779555598" lon="10.1141416696">
		<tag k="name" v="Breivikneset" />
		<tag k="natural" v="cape" />
		<tag k="ssr:stedsnr" v="644862" />
	</node>
	<node id="-940026" lat="63.6486222218" lon="9.82809443573">
		<tag k="name" v="Matneset" />
		<tag k="natural" v="cape" />
		<tag k="ssr:stedsnr" v="558858" />
	</node>
	<node id="-938998" lat="63.6987305575" lon="9.86508054758">
		<tag k="fixme" v="consider seamark:type=rock or natural=shoal" />
		<tag k="name" v="Flesaskjæret" />
		<tag k="place" v="islet" />
		<tag k="ssr:stedsnr" v="759696" />
	</node>
	<node id="-937984" lat="63.7196027767" lon="9.99942778081">
		<tag k="bay" v="fjord" />
		<tag k="name" v="Sørfjorden" />
		<tag k="natural" v="bay" />
		<tag k="ssr:stedsnr" v="523321" />
	</node>
	<node id="-943092" lat="63.6163388925" lon="10.518300001">
		<tag k="name" v="Veaberget" />
		<tag k="natural" v="beach" />
		<tag k="place" v="locality" />
		<tag k="ssr:stedsnr" v="717066" />
	</node>
	<node id="-936945" lat="63.7186861083" lon="10.0142750084">
		<tag k="name" v="Kråkholmen" />
		<tag k="place" v="islet" />
		<tag k="ssr:stedsnr" v="438226" />
	</node>
	<node id="-937967" lat="63.5548083348" lon="9.90251943911">
		<tag k="name" v="Kvithyllnesbåen" />
		<tag k="natural" v="shoal" />
		<tag k="place" v="locality" />
		<tag k="ssr:stedsnr" v="651943" />
	</node>
	<node id="-939502" lat="63.7315999983" lon="10.0727805487">
		<tag k="name" v="Stabbvika" />
		<tag k="natural" v="bay" />
		<tag k="ssr:stedsnr" v="256225" />
	</node>
	<node id="-939773" lat="63.5280472184" lon="9.91448054645">
		<tag k="name" v="Vikanneset" />
		<tag k="natural" v="cape" />
		<tag k="ssr:stedsnr" v="863653" />
	</node>
	<node id="-938475" lat="63.7665488973" lon="10.0665117769">
		<tag k="fixme" v="multiple name tags, choose one and add the other to alt_name" />
		<tag k="name" v="Hardbakneset;Hardbaktangen" />
		<tag k="natural" v="cape" />
		<tag k="ssr:stedsnr" v="821189" />
	</node>
	<node id="-942056" lat="63.5438277769" lon="10.2113083334">
		<tag k="fixme" v="consider seamark:type=rock or natural=shoal" />
		<tag k="name" v="Buvikskjæret" />
		<tag k="place" v="islet" />
		<tag k="ssr:stedsnr" v="105902" />
	</node>
	<node id="-938470" lat="63.727930553" lon="10.0457111034">
		<tag k="fixme" v="consider seamark:type=rock or natural=shoal" />
		<tag k="name" v="Grønnskjæra" />
		<tag k="place" v="islet" />
		<tag k="ssr:stedsnr" v="923256" />
	</node>
	<node id="-937445" lat="63.6048638917" lon="9.83533054836">
		<tag k="name" v="Årlottvika" />
		<tag k="natural" v="bay" />
		<tag k="ssr:stedsnr" v="13974" />
	</node>
	<node id="-940515" lat="63.6268638875" lon="9.80385833784">
		<tag k="name" v="Hysneståa" />
		<tag k="natural" v="cape" />
		<tag k="ssr:stedsnr" v="463160" />
	</node>
	<node id="-941538" lat="63.7084277756" lon="10.7949416632">
		<tag k="name" v="Langtangbukta" />
		<tag k="natural" v="bay" />
		<tag k="ssr:stedsnr" v="169291" />
	</node>
	<node id="-939488" lat="63.6981444431" lon="9.9390111164">
		<tag k="name" v="Skoddneset" />
		<tag k="natural" v="cape" />
		<tag k="ssr:stedsnr" v="163080" />
	</node>
	<node id="-939856" lat="63.5869916704" lon="9.87381667521">
		<tag k="name" v="Aunbukta" />
		<tag k="natural" v="bay" />
		<tag k="ssr:stedsnr" v="772965" />
	</node>
	<node id="-938917" lat="63.5456722199" lon="9.90552500822">
		<tag k="name" v="Esvikgrunnen" />
		<tag k="natural" v="shoal" />
		<tag k="place" v="locality" />
		<tag k="ssr:stedsnr" v="377671" />
	</node>
	<node id="-939484" lat="63.7332277738" lon="9.97084444119">
		<tag k="name" v="Bessholmen" />
		<tag k="place" v="islet" />
		<tag k="ssr:stedsnr" v="256228" />
	</node>
	<node id="-939993" lat="63.7384388903" lon="10.0072472257">
		<tag k="name" v="Tobakksvika" />
		<tag k="natural" v="bay" />
		<tag k="ssr:stedsnr" v="42943" />
	</node>
	<node id="-942040" lat="63.5504805558" lon="10.2256388929">
		<tag k="name" v="Vanvikbukta" />
		<tag k="natural" v="bay" />
		<tag k="old_name" v="Vannvikbukta" />
		<tag k="ssr:stedsnr" v="105903" />
	</node>
	<node id="-941527" lat="63.6199583356" lon="10.52640001">
		<tag k="name" v="Litlfjæra" />
		<tag k="natural" v="bay" />
		<tag k="ssr:stedsnr" v="838912" />
	</node>
	<node id="-936915" lat="63.5473611097" lon="9.91894444571">
		<tag k="name" v="Reinsbukta" />
		<tag k="natural" v="bay" />
		<tag k="ssr:stedsnr" v="287924" />
	</node>
	<node id="-942033" lat="63.6575444482" lon="10.6094861113">
		<tag k="name" v="Varpberget" />
		<tag k="natural" v="cape" />
		<tag k="ssr:stedsnr" v="716807" />
	</node>
	<node id="-940495" lat="63.5227944463" lon="9.9165861204">
		<tag k="name" v="Småvikneset" />
		<tag k="natural" v="cape" />
		<tag k="ssr:stedsnr" v="348913" />
	</node>
	<node id="-940877" lat="63.4959416684" lon="9.95531110867">
		<tag k="fixme" v="consider seamark:type=rock or natural=shoal" />
		<tag k="name" v="Vorpskjeret" />
		<tag k="place" v="islet" />
		<tag k="ssr:stedsnr" v="103088" />
	</node>
	<node id="-939980" lat="63.7343333291" lon="10.0695638862">
		<tag k="name" v="Furuøya" />
		<tag k="place" v="islet" />
		<tag k="ssr:stedsnr" v="13225" />
	</node>
	<node id="-937931" lat="63.5920861133" lon="9.90895833982">
		<tag k="name" v="Bestvollbukta" />
		<tag k="natural" v="bay" />
		<tag k="ssr:stedsnr" v="104968" />
	</node>
	<node id="-937929" lat="63.5778916656" lon="9.94039165882">
		<tag k="name" v="Strømmen" />
		<tag k="natural" v="strait" />
		<tag k="ssr:stedsnr" v="802576" />
	</node>
	<node id="-942024" lat="63.5735277824" lon="10.3726388804">
		<tag k="name" v="Bekkaneset" />
		<tag k="natural" v="cape" />
		<tag k="ssr:stedsnr" v="899222" />
	</node>
	<node id="-937718" lat="63.584152775" lon="9.92157778628">
		<tag k="name" v="Hammarberget" />
		<tag k="natural" v="cape" />
		<tag k="ssr:stedsnr" v="680601" />
	</node>
	<node id="-937407" lat="63.7488944435" lon="10.0884750084">
		<tag k="name" v="Ramsvikbukta" />
		<tag k="natural" v="bay" />
		<tag k="ssr:stedsnr" v="827857" />
	</node>
	<node id="-940990" lat="63.6722916704" lon="10.6314055628">
		<tag k="name" v="Lunnaneset" />
		<tag k="natural" v="cape" />
		<tag k="ssr:stedsnr" v="170708" />
	</node>
	<node id="-940477" lat="63.7264333368" lon="10.0425027824">
		<tag k="fixme" v="consider seamark:type=rock or natural=shoal" />
		<tag k="name" v="Grønskjera" />
		<tag k="place" v="islet" />
		<tag k="ssr:stedsnr" v="164030" />
	</node>
	<node id="-940988" lat="63.5849833332" lon="10.4233583309">
		<tag k="name" v="Hindremsbukta" />
		<tag k="natural" v="bay" />
		<tag k="ssr:stedsnr" v="195245" />
	</node>
	<node id="-943365" lat="63.679666666" lon="10.672197232">
		<tag k="name" v="Smiberget" />
		<tag k="natural" v="cape" />
		<tag k="ssr:stedsnr" v="899552" />
	</node>
	<node id="-937912" lat="63.7780444438" lon="10.1101249996">
		<tag k="name" v="Gammelbreivika" />
		<tag k="natural" v="bay" />
		<tag k="ssr:stedsnr" v="644850" />
	</node>
	<node id="-939252" lat="63.7598416701" lon="10.0647222322">
		<tag k="name" v="Ytterstranda" />
		<tag k="natural" v="beach" />
		<tag k="place" v="locality" />
		<tag k="ssr:stedsnr" v="952968" />
	</node>
	<node id="-942006" lat="63.5561222178" lon="10.239830562">
		<tag k="name" v="Akjørja" />
		<tag k="natural" v="bay" />
		<tag k="ssr:stedsnr" v="390383" />
	</node>
	<node id="-940467" lat="63.5619444433" lon="9.89934165857">
		<tag k="alt_name" v="Nord Kvithyllneset" />
		<tag k="name" v="Nordre Kvithyllneset" />
		<tag k="natural" v="cape" />
		<tag k="ssr:stedsnr" v="42235" />
	</node>
	<node id="-941694" lat="63.5455444402" lon="10.2107027695">
		<tag k="name" v="Maltkallen" />
		<tag k="natural" v="cape" />
		<tag k="ssr:stedsnr" v="947209" />
	</node>
	<node id="-942323" lat="63.6221194433" lon="10.5364722277">
		<tag k="name" v="Nebben" />
		<tag k="natural" v="cape" />
		<tag k="ssr:stedsnr" v="923302" />
	</node>
	<node id="-939438" lat="63.5891750025" lon="9.91374167315">
		<tag k="name" v="Langsæterbukta" />
		<tag k="natural" v="bay" />
		<tag k="ssr:stedsnr" v="226979" />
	</node>
	<node id="-940461" lat="63.7033416708" lon="9.95640000774">
		<tag k="name" v="Gangstøbukta" />
		<tag k="natural" v="bay" />
		<tag k="ssr:stedsnr" v="43047" />
	</node>
	<node id="-938412" lat="63.5821111095" lon="9.88948333258">
		<tag k="name" v="Sundsbukta" />
		<tag k="natural" v="bay" />
		<tag k="ssr:stedsnr" v="13549" />
	</node>
	<node id="-939947" lat="63.7347749989" lon="9.98521944621">
		<tag k="fixme" v="consider seamark:type=rock or natural=shoal" />
		<tag k="name" v="Grønnskjæra" />
		<tag k="place" v="islet" />
		<tag k="ssr:stedsnr" v="334847" />
	</node>
	<node id="-938921" lat="63.4963638846" lon="9.96744444221">
		<tag k="name" v="Haukberggrunnen" />
		<tag k="natural" v="shoal" />
		<tag k="place" v="locality" />
		<tag k="ssr:stedsnr" v="831094" />
	</node>
	<node id="-943014" lat="63.7111361109" lon="10.5036527838">
		<tag k="name" v="Sloppabukta" />
		<tag k="natural" v="bay" />
		<tag k="ssr:stedsnr" v="26466" />
	</node>
	<node id="-939941" lat="63.7470444472" lon="10.0313222126">
		<tag k="fixme" v="consider seamark:type=rock or natural=shoal" />
		<tag k="name" v="Bjørkvikskjæret" />
		<tag k="place" v="islet" />
		<tag k="ssr:stedsnr" v="699890" />
	</node>
	<node id="-941986" lat="63.620974997" lon="10.5287722197">
		<tag k="name" v="Steinsnebben" />
		<tag k="natural" v="cape" />
		<tag k="ssr:stedsnr" v="49903" />
	</node>
	<node id="-940449" lat="63.7275527787" lon="9.9780833274">
		<tag k="name" v="Karvikgrunnen" />
		<tag k="natural" v="shoal" />
		<tag k="place" v="locality" />
		<tag k="ssr:stedsnr" v="274686" />
	</node>
	<node id="-937374" lat="63.7360583349" lon="10.0747722191">
		<tag k="name" v="Vikaneset" />
		<tag k="natural" v="cape" />
		<tag k="ssr:stedsnr" v="827856" />
	</node>
	<node id="-938397" lat="63.5635111075" lon="9.89898054653">
		<tag k="name" v="Rassmussteinen" />
		<tag k="natural" v="shoal" />
		<tag k="place" v="locality" />
		<tag k="ssr:stedsnr" v="134647" />
	</node>
	<node id="-938392" lat="63.5137611083" lon="9.92417500822">
		<tag k="name" v="Jutulbåten" />
		<tag k="natural" v="cape" />
		<tag k="ssr:stedsnr" v="345254" />
	</node>
	<node id="-939415" lat="63.7402722216" lon="10.0821277758">
		<tag k="name" v="Årnestangen" />
		<tag k="natural" v="cape" />
		<tag k="ssr:stedsnr" v="463815" />
	</node>
	<node id="-940436" lat="63.6216055573" lon="9.81215555452">
		<tag k="name" v="Tinnvika" />
		<tag k="natural" v="bay" />
		<tag k="ssr:stedsnr" v="99216" />
	</node>
	<node id="-938899" lat="63.5376861149" lon="9.91350278178">
		<tag k="name" v="Smørholet" />
		<tag k="natural" v="bay" />
		<tag k="ssr:stedsnr" v="281213" />
	</node>
	<node id="-940329" lat="63.6548444428" lon="9.82167222392">
		<tag k="name" v="Røytvika" />
		<tag k="natural" v="bay" />
		<tag k="ssr:stedsnr" v="820698" />
	</node>
	<node id="-938011" lat="63.7486027793" lon="10.0384694481">
		<tag k="name" v="Bjørkvika" />
		<tag k="natural" v="bay" />
		<tag k="ssr:stedsnr" v="345921" />
	</node>
	<node id="-938607" lat="63.598994447" lon="9.83521944239">
		<tag k="name" v="Årlottneset" />
		<tag k="natural" v="cape" />
		<tag k="ssr:stedsnr" v="438949" />
	</node>
	<node id="-942989" lat="63.6981277781" lon="10.7325388902">
		<tag k="loc_name" v="Jakophølet" />
		<tag k="name" v="Jakopholet" />
		<tag k="natural" v="bay" />
		<tag k="ssr:stedsnr" v="533275" />
	</node>
	<node id="-942988" lat="63.6748388885" lon="10.6459444379">
		<tag k="name" v="Saltbuberget" />
		<tag k="natural" v="cape" />
		<tag k="ssr:stedsnr" v="231740" />
	</node>
	<node id="-938890" lat="63.7300916623" lon="10.0225805491">
		<tag k="name" v="Slåttavika" />
		<tag k="natural" v="bay" />
		<tag k="ssr:stedsnr" v="281211" />
	</node>
	<node id="-937862" lat="63.7316861121" lon="10.060088898">
		<tag k="name" v="Sagøya" />
		<tag k="place" v="islet" />
		<tag k="ssr:stedsnr" v="741271" />
	</node>
	<node id="-939397" lat="63.6561222194" lon="9.81383612044">
		<tag k="name" v="Laksvorpe" />
		<tag k="natural" v="cape" />
		<tag k="ssr:stedsnr" v="163060" />
	</node>
	<node id="-937860" lat="63.5867972252" lon="9.85372222032">
		<tag k="alt_name" v="Galgneset" />
		<tag k="name" v="Galgeneset" />
		<tag k="natural" v="cape" />
		<tag k="ssr:stedsnr" v="377527" />
	</node>
	<node id="-940931" lat="63.6137472218" lon="10.5117472289">
		<tag k="name" v="Gjøråsvikbukta" />
		<tag k="natural" v="bay" />
		<tag k="ssr:stedsnr" v="413069" />
	</node>
	<node id="-938219" lat="63.7299777755" lon="10.0142222169">
		<tag k="name" v="Sauvika" />
		<tag k="natural" v="bay" />
		<tag k="ssr:stedsnr" v="527959" />
	</node>
	<node id="-942464" lat="63.6676083329" lon="10.6266472242">
		<tag k="name" v="Leksvikbukta" />
		<tag k="natural" v="bay" />
		<tag k="ssr:stedsnr" v="876438" />
	</node>
	<node id="-939840" lat="63.5100138901" lon="10.1414083415">
		<tag k="name" v="Kleivneset" />
		<tag k="natural" v="cape" />
		<tag k="ssr:stedsnr" v="42909" />
	</node>
	<node id="-938366" lat="63.7758694463" lon="10.0880333236">
		<tag k="name" v="Torkjevollbukta" />
		<tag k="natural" v="bay" />
		<tag k="ssr:stedsnr" v="38863" />
	</node>
	<node id="-939900" lat="63.7189750005" lon="9.92173056212">
		<tag k="name" v="Medfjordgrunnen" />
		<tag k="natural" v="shoal" />
		<tag k="place" v="locality" />
		<tag k="ssr:stedsnr" v="134285" />
	</node>
	<node id="-942455" lat="63.6834999989" lon="10.6799305634">
		<tag k="name" v="Graberget" />
		<tag k="natural" v="cape" />
		<tag k="ssr:stedsnr" v="959508" />
	</node>
	<node id="-939892" lat="63.6915027819" lon="9.87672777153">
		<tag k="name" v="Flåtabuvika" />
		<tag k="natural" v="bay" />
		<tag k="ssr:stedsnr" v="649036" />
	</node>
	<node id="-939378" lat="63.6998638929" lon="9.92369445042">
		<tag k="name" v="Frengsbukta" />
		<tag k="natural" v="bay" />
		<tag k="ssr:stedsnr" v="285099" />
	</node>
	<node id="-937841" lat="63.7038638924" lon="9.92257500084">
		<tag k="fixme" v="consider seamark:type=rock or natural=shoal" />
		<tag k="name" v="Frengsskjæret" />
		<tag k="place" v="islet" />
		<tag k="ssr:stedsnr" v="73793" />
	</node>
	<node id="-940399" lat="63.7159805539" lon="9.98122500583">
		<tag k="name" v="Refsnesbukta" />
		<tag k="natural" v="bay" />
		<tag k="ssr:stedsnr" v="941719" />
	</node>
	<node id="-942958" lat="63.7730694457" lon="10.7293222269">
		<tag k="name" v="Furuøya" />
		<tag k="place" v="islet" />
		<tag k="ssr:stedsnr" v="533285" />
	</node>
	<node id="-937325" lat="63.6305722234" lon="9.81390555653">
		<tag k="name" v="Maurhaugvika" />
		<tag k="natural" v="bay" />
		<tag k="ssr:stedsnr" v="345018" />
	</node>
	<node id="-940395" lat="63.5508249981" lon="10.2128527709">
		<tag k="name" v="Arnfjæra" />
		<tag k="natural" v="beach" />
		<tag k="place" v="locality" />
		<tag k="ssr:stedsnr" v="894906" />
	</node>
	<node id="-937833" lat="63.5189472184" lon="10.152166657">
		<tag k="name" v="Kuppulvika" />
		<tag k="natural" v="bay" />
		<tag k="ssr:stedsnr" v="770911" />
	</node>
	<node id="-939368" lat="63.6982500019" lon="9.92851388601">
		<tag k="name" v="Sandvika" />
		<tag k="natural" v="bay" />
		<tag k="ssr:stedsnr" v="285098" />
	</node>
	<node id="-937788" lat="63.6591972267" lon="9.8037027754">
		<tag k="name" v="Kvalbukta" />
		<tag k="natural" v="bay" />
		<tag k="ssr:stedsnr" v="341210" />
	</node>
	<node id="-940390" lat="63.6261861073" lon="10.557011107">
		<tag k="name" v="Høgberget" />
		<tag k="natural" v="cape" />
		<tag k="ssr:stedsnr" v="959890" />
	</node>
	<node id="-938336" lat="63.751005553" lon="10.0359000011">
		<tag k="name" v="Kariviktangen" />
		<tag k="natural" v="cape" />
		<tag k="ssr:stedsnr" v="527965" />
	</node>
	<node id="-937823" lat="63.5162194479" lon="10.1473388853">
		<tag k="fixme" v="consider seamark:type=rock or natural=shoal" />
		<tag k="name" v="Gammelstøa" />
		<tag k="place" v="islet" />
		<tag k="ssr:stedsnr" v="345890" />
	</node>
	<node id="-940382" lat="63.7782500022" lon="10.1165277812">
		<tag k="name" v="Rotvikneset" />
		<tag k="natural" v="cape" />
		<tag k="ssr:stedsnr" v="706844" />
	</node>
	<node id="-940941" lat="63.6105083377" lon="10.5058638949">
		<tag k="name" v="Tangtåa" />
		<tag k="natural" v="cape" />
		<tag k="ssr:stedsnr" v="413061" />
	</node>
	<node id="-940602" lat="63.6660027744" lon="9.81025554941">
		<tag k="name" v="Mikkelholmen" />
		<tag k="natural" v="cape" />
		<tag k="ssr:stedsnr" v="13850" />
	</node>
	<node id="-942938" lat="63.7137499974" lon="10.8184416688">
		<tag k="name" v="Svartfjellbukta" />
		<tag k="natural" v="bay" />
		<tag k="ssr:stedsnr" v="836216" />
	</node>
	<node id="-937817" lat="63.6704527808" lon="9.82295278678">
		<tag k="name" v="Gammelstøa" />
		<tag k="natural" v="beach" />
		<tag k="place" v="locality" />
		<tag k="ssr:stedsnr" v="710008" />
	</node>
	<node id="-937303" lat="63.7792333323" lon="10.1172166664">
		<tag k="name" v="Kvernhusvika" />
		<tag k="natural" v="bay" />
		<tag k="ssr:stedsnr" v="584860" />
	</node>
	<node id="-939287" lat="63.7632972231" lon="10.0691638945">
		<tag k="name" v="Prangneset" />
		<tag k="natural" v="cape" />
		<tag k="ssr:stedsnr" v="42814" />
	</node>
	<node id="-943442" lat="63.5896055543" lon="10.4370333394">
		<tag k="name" v="Skålhåmmåren" />
		<tag k="natural" v="cape" />
		<tag k="ssr:stedsnr" v="680329" />
	</node>
	<node id="-940368" lat="63.6721416701" lon="9.80063055506">
		<tag k="fixme" v="consider seamark:type=rock or natural=shoal" />
		<tag k="name" v="Vestvikskjæra" />
		<tag k="place" v="islet" />
		<tag k="ssr:stedsnr" v="802902" />
	</node>
	<node id="-942926" lat="63.6498999989" lon="10.6081027754">
		<tag k="name" v="Veaberget" />
		<tag k="natural" v="cape" />
		<tag k="ssr:stedsnr" v="777793" />
	</node>
	<node id="-943437" lat="63.5852333348" lon="10.5241055619">
		<tag k="name" v="Rylgrunnen" />
		<tag k="natural" v="shoal" />
		<tag k="place" v="locality" />
		<tag k="ssr:stedsnr" v="954046" />
	</node>
	<node id="-943436" lat="63.6000888912" lon="10.5087527782">
		<tag k="name" v="Selligrunnen" />
		<tag k="natural" v="shoal" />
		<tag k="place" v="locality" />
		<tag k="ssr:stedsnr" v="680326" />
	</node>
	<node id="-940136" lat="63.5145388875" lon="9.92335555794">
		<tag k="name" v="Jutulfatet" />
		<tag k="natural" v="cape" />
		<tag k="ssr:stedsnr" v="285250" />
	</node>
	<node id="-938311" lat="63.7343027819" lon="10.0543111035">
		<tag k="bay" v="fjord" />
		<tag k="name" v="Sørfjorden" />
		<tag k="natural" v="bay" />
		<tag k="ssr:stedsnr" v="619244" />
	</node>
	<node id="-939133" lat="63.7385416668" lon="10.019030562">
		<tag k="name" v="Holatangen" />
		<tag k="natural" v="cape" />
		<tag k="ssr:stedsnr" v="285887" />
	</node>
	<node id="-939843" lat="63.6421277804" lon="9.82786667142">
		<tag k="fixme" v="consider seamark:type=rock or natural=shoal" />
		<tag k="name" v="Blindskjæret" />
		<tag k="place" v="islet" />
		<tag k="ssr:stedsnr" v="577676" />
	</node>
	<node id="-939329" lat="63.7537111141" lon="10.0390138862">
		<tag k="name" v="Kuppelvika" />
		<tag k="natural" v="bay" />
		<tag k="ssr:stedsnr" v="588965" />
	</node>
	<node id="-941376" lat="63.6533999969" lon="10.6091194539">
		<tag k="name" v="Saltbuberget" />
		<tag k="natural" v="cape" />
		<tag k="ssr:stedsnr" v="170810" />
	</node>
	<node id="-939917" lat="63.738647219" lon="9.97781666819">
		<tag k="bay" v="fjord" />
		<tag k="name" v="Nordfjorden" />
		<tag k="natural" v="bay" />
		<tag k="ssr:stedsnr" v="13216" />
	</node>
	<node id="-938812" lat="63.6171555514" lon="9.81300000066">
		<tag k="name" v="Sjursvikgrunnen" />
		<tag k="natural" v="shoal" />
		<tag k="place" v="locality" />
		<tag k="ssr:stedsnr" v="516662" />
	</node>
	<node id="-937274" lat="63.6894611154" lon="9.87482776941">
		<tag k="name" v="Killingneset" />
		<tag k="natural" v="cape" />
		<tag k="ssr:stedsnr" v="498792" />
	</node>
	<node id="-939321" lat="63.5169444418" lon="10.1512916653">
		<tag k="alt_name" v="Varpneset" />
		<tag k="name" v="Vorpneset" />
		<tag k="natural" v="cape" />
		<tag k="ssr:stedsnr" v="558783" />
	</node>
	<node id="-937103" lat="63.7376250005" lon="9.98588610266">
		<tag k="name" v="Grønnskjærflua" />
		<tag k="natural" v="shoal" />
		<tag k="place" v="locality" />
		<tag k="ssr:stedsnr" v="274841" />
	</node>
	<node id="-938293" lat="63.4932277786" lon="10.0211333347">
		<tag k="name" v="Prestbukta" />
		<tag k="natural" v="bay" />
		<tag k="ssr:stedsnr" v="256059" />
	</node>
	<node id="-940850" lat="63.7377436422" lon="10.01277378">
		<tag k="name" v="Voknøya" />
		<tag k="place" v="island" />
		<tag k="ssr:stedsnr" v="438204" />
	</node>
	<node id="-940337" lat="63.67411111" lon="9.82392778149">
		<tag k="alt_name" v="Vestvikan" />
		<tag k="name" v="Vestvika" />
		<tag k="natural" v="bay" />
		<tag k="ssr:stedsnr" v="274660" />
	</node>
	<node id="-941356" lat="63.708630553" lon="10.7806000042">
		<tag k="name" v="Sandvikbukta" />
		<tag k="natural" v="bay" />
		<tag k="ssr:stedsnr" v="898264" />
	</node>
	<node id="-940843" lat="63.4935444433" lon="10.0307583361">
		<tag k="name" v="Reinssjøen" />
		<tag k="natural" v="bay" />
		<tag k="ssr:stedsnr" v="103082" />
	</node>
	<node id="-938793" lat="63.6330888849" lon="9.81915277842">
		<tag k="fixme" v="consider seamark:type=rock or natural=shoal" />
		<tag k="name" v="Laksskjeret" />
		<tag k="place" v="islet" />
		<tag k="ssr:stedsnr" v="710258" />
	</node>
	<node id="-938044" lat="63.4942472235" lon="10.0279083294">
		<tag k="name" v="Mortenbakken" />
		<tag k="natural" v="beach" />
		<tag k="place" v="locality" />
		<tag k="ssr:stedsnr" v="710081" />
	</node>
	<node id="-942885" lat="63.6665277822" lon="10.6134472253">
		<tag k="alt_name" v="Lassøra" />
		<tag k="name" v="Lastøra" />
		<tag k="natural" v="cape" />
		<tag k="ssr:stedsnr" v="363811" />
	</node>
	<node id="-939299" lat="63.5099972209" lon="10.1410444393">
		<tag k="name" v="Kleiva" />
		<tag k="natural" v="cape" />
		<tag k="ssr:stedsnr" v="558785" />
	</node>
	<node id="-937179" lat="63.740275" lon="10.0210333337">
		<tag k="name" v="Nessafjæra" />
		<tag k="natural" v="beach" />
		<tag k="place" v="locality" />
		<tag k="ssr:stedsnr" v="709924" />
	</node>
	<node id="-939296" lat="63.496074998" lon="9.94884999543">
		<tag k="name" v="Storneset" />
		<tag k="natural" v="cape" />
		<tag k="ssr:stedsnr" v="195024" />
	</node>
	<node id="-940592" lat="63.7783083353" lon="10.1085999994">
		<tag k="name" v="Litlvika" />
		<tag k="natural" v="bay" />
		<tag k="ssr:stedsnr" v="341863" />
	</node>
	<node id="-939293" lat="63.6360416669" lon="9.83810555101">
		<tag k="fixme" v="consider seamark:type=rock or natural=shoal" />
		<tag k="name" v="Buskjeret" />
		<tag k="place" v="islet" />
		<tag k="ssr:stedsnr" v="42014" />
	</node>
	<node id="-937756" lat="63.5354388877" lon="9.91107500843">
		<tag k="name" v="Esvikneset" />
		<tag k="natural" v="cape" />
		<tag k="ssr:stedsnr" v="619700" />
	</node>
	<node id="-941851" lat="63.6821888899" lon="10.6751833386">
		<tag k="name" v="Hjelopsanden" />
		<tag k="natural" v="beach" />
		<tag k="place" v="locality" />
		<tag k="ssr:stedsnr" v="534541" />
	</node>
	<node id="-939800" lat="63.4879000016" lon="9.98928055598">
		<tag k="name" v="Rødbergsneset" />
		<tag k="natural" v="cape" />
		<tag k="ssr:stedsnr" v="74056" />
	</node>
	<node id="-938263" lat="63.7638555582" lon="10.0655833377">
		<tag k="name" v="Notholmen" />
		<tag k="place" v="islet" />
		<tag k="ssr:stedsnr" v="770963" />
	</node>
	<node id="-937750" lat="63.6353222202" lon="9.83475832664">
		<tag k="name" v="Aunbukta" />
		<tag k="natural" v="bay" />
		<tag k="ssr:stedsnr" v="224036" />
	</node>
	<node id="-939285" lat="63.7131444428" lon="9.93807777442">
		<tag k="name" v="Oterurdsflua" />
		<tag k="natural" v="shoal" />
		<tag k="place" v="locality" />
		<tag k="ssr:stedsnr" v="334705" />
	</node>
	<node id="-938095" lat="63.7615027782" lon="10.0614416684">
		<tag k="fixme" v="consider seamark:type=rock or natural=shoal" />
		<tag k="name" v="Øykskjeret" />
		<tag k="place" v="islet" />
		<tag k="ssr:stedsnr" v="220238" />
	</node>
	<node id="-939283" lat="63.7418416686" lon="10.0257138972">
		<tag k="name" v="Neset" />
		<tag k="natural" v="cape" />
		<tag k="ssr:stedsnr" v="588930" />
	</node>
	<node id="-938258" lat="63.7593861119" lon="10.0515416751">
		<tag k="name" v="Arnvika" />
		<tag k="natural" v="bay" />
		<tag k="ssr:stedsnr" v="770964" />
	</node>
	<node id="-940419" lat="63.7029277805" lon="9.86395555433">
		<tag k="fixme" v="consider seamark:type=rock or natural=shoal" />
		<tag k="name" v="Flesagalten" />
		<tag k="old_name" v="Galten" />
		<tag k="place" v="islet" />
		<tag k="ssr:stedsnr" v="457172" />
	</node>
	<node id="-942352" lat="63.5913416658" lon="10.4403638837">
		<tag k="name" v="Oterstokken" />
		<tag k="natural" v="beach" />
		<tag k="place" v="locality" />
		<tag k="ssr:stedsnr" v="230039" />
	</node>
	<node id="-940504" lat="63.6807861098" lon="9.81543333122">
		<tag k="name" v="Nordvikan" />
		<tag k="natural" v="bay" />
		<tag k="ssr:stedsnr" v="103005" />
	</node>
	<node id="-942348" lat="63.5670444421" lon="10.3420861193">
		<tag k="name" v="Dalsneset" />
		<tag k="natural" v="cape" />
		<tag k="ssr:stedsnr" v="656210" />
	</node>
	<node id="-941834" lat="63.5502583349" lon="10.2121277833">
		<tag k="name" v="Knubben" />
		<tag k="natural" v="cape" />
		<tag k="ssr:stedsnr" v="947219" />
	</node>
	<node id="-937222" lat="63.7490805568" lon="10.0796000009">
		<tag k="name" v="Djupvikbukta" />
		<tag k="natural" v="bay" />
		<tag k="ssr:stedsnr" v="584825" />
	</node>
	<node id="-938757" lat="63.6083944467" lon="9.82744166917">
		<tag k="fixme" v="consider seamark:type=rock or natural=shoal" />
		<tag k="name" v="Kattskjeret" />
		<tag k="place" v="islet" />
		<tag k="ssr:stedsnr" v="224242" />
	</node>
	<node id="-942852" lat="63.6935888879" lon="10.7091083339">
		<tag k="name" v="Steinvika" />
		<tag k="natural" v="bay" />
		<tag k="ssr:stedsnr" v="413566" />
	</node>
	<node id="-939265" lat="63.6198944433" lon="9.81678610314">
		<tag k="name" v="Vorpvika" />
		<tag k="natural" v="bay" />
		<tag k="ssr:stedsnr" v="892013" />
	</node>
	<node id="-939648" lat="63.7146249999" lon="9.99561110619">
		<tag k="name" v="Dalaøra" />
		<tag k="natural" v="shoal" />
		<tag k="place" v="locality" />
		<tag k="ssr:stedsnr" v="377760" />
	</node>
	<node id="-940285" lat="63.5726166676" lon="9.89212499711">
		<tag k="name" v="Rognen" />
		<tag k="natural" v="shoal" />
		<tag k="place" v="locality" />
		<tag k="ssr:stedsnr" v="810242" />
	</node>
	<node id="-940281" lat="63.7008194434" lon="9.86672221988">
		<tag k="name" v="Flesa" />
		<tag k="place" v="islet" />
		<tag k="ssr:stedsnr" v="395725" />
	</node>
	<node id="-941711" lat="63.6102416698" lon="10.50201666">
		<tag k="name" v="Trappfjæra" />
		<tag k="natural" v="beach" />
		<tag k="place" v="locality" />
		<tag k="ssr:stedsnr" v="49071" />
	</node>
	<node id="-940571" lat="63.6996444489" lon="9.95207500431">
		<tag k="name" v="Hafellflua" />
		<tag k="natural" v="shoal" />
		<tag k="place" v="locality" />
		<tag k="ssr:stedsnr" v="941729" />
	</node>
	<node id="-939254" lat="63.7218833375" lon="10.0428333407">
		<tag k="name" v="Tånnårvikøya" />
		<tag k="place" v="islet" />
		<tag k="ssr:stedsnr" v="681228" />
	</node>
	<node id="-939253" lat="63.7776250043" lon="10.1170277834">
		<tag k="name" v="Sandvika" />
		<tag k="natural" v="bay" />
		<tag k="ssr:stedsnr" v="99870" />
	</node>
	<node id="-939764" lat="63.4865361093" lon="9.99680277973">
		<tag k="name" v="Bekkjaneset" />
		<tag k="natural" v="cape" />
		<tag k="ssr:stedsnr" v="892126" />
	</node>
	<node id="-939763" lat="63.727572223" lon="10.0016944521">
		<tag k="name" v="Harøya" />
		<tag k="place" v="islet" />
		<tag k="ssr:stedsnr" v="134266" />
	</node>
	<node id="-938226" lat="63.7308111129" lon="10.0121972242">
		<tag k="name" v="Holsundvika" />
		<tag k="natural" v="bay" />
		<tag k="ssr:stedsnr" v="770950" />
	</node>
	<node id="-938005" lat="63.7477527789" lon="10.0353111122">
		<tag k="fixme" v="consider seamark:type=rock or natural=shoal" />
		<tag k="name" v="Bjørkvikskjeret" />
		<tag k="place" v="islet" />
		<tag k="ssr:stedsnr" v="345922" />
	</node>
	<node id="-943855" lat="63.5328027744" lon="10.1901861097">
		<tag k="name" v="Stallvika" />
		<tag k="natural" v="bay" />
		<tag k="ssr:stedsnr" v="287897" />
	</node>
	<node id="-941294" lat="63.6618416678" lon="10.6084805553">
		<tag k="name" v="Grandfjæra" />
		<tag k="natural" v="beach" />
		<tag k="place" v="locality" />
		<tag k="ssr:stedsnr" v="899799" />
	</node>
	<node id="-943341" lat="63.6847916675" lon="10.6835472195">
		<tag k="fixme" v="consider seamark:type=rock or natural=shoal" />
		<tag k="name" v="Skjæra" />
		<tag k="place" v="islet" />
		<tag k="ssr:stedsnr" v="899546" />
	</node>
	<node id="-943852" lat="63.5514749998" lon="10.2162083273">
		<tag k="name" v="Ratvika" />
		<tag k="natural" v="bay" />
		<tag k="ssr:stedsnr" v="765195" />
	</node>
	<node id="-939243" lat="63.6370083373" lon="9.83916389002">
		<tag k="name" v="Skjerbukta" />
		<tag k="natural" v="bay" />
		<tag k="ssr:stedsnr" v="892003" />
	</node>
	<node id="-937703" lat="63.6340083359" lon="9.82279443825">
		<tag k="name" v="Digerneset" />
		<tag k="natural" v="cape" />
		<tag k="ssr:stedsnr" v="952041" />
	</node>
	<node id="-939985" lat="63.7395472247" lon="10.056933339">
		<tag k="name" v="Pevika" />
		<tag k="natural" v="bay" />
		<tag k="ssr:stedsnr" v="163928" />
	</node>
	<node id="-942710" lat="63.5690027808" lon="10.4098888881">
		<tag k="name" v="Skogneset" />
		<tag k="natural" v="cape" />
		<tag k="ssr:stedsnr" v="534010" />
	</node>
	<node id="-939233" lat="63.739052782" lon="10.0186527773">
		<tag k="name" v="Sørhamna" />
		<tag k="natural" v="bay" />
		<tag k="ssr:stedsnr" v="406963" />
	</node>
	<node id="-940768" lat="63.7282749963" lon="10.0628583336">
		<tag k="name" v="Stavvikstranda" />
		<tag k="natural" v="beach" />
		<tag k="place" v="locality" />
		<tag k="ssr:stedsnr" v="99303" />
	</node>
	<node id="-938207" lat="63.7296194417" lon="10.0177138904">
		<tag k="name" v="Arnvika" />
		<tag k="natural" v="bay" />
		<tag k="ssr:stedsnr" v="345953" />
	</node>
	<node id="-938206" lat="63.7019388892" lon="9.94434444235">
		<tag k="name" v="Frengsbukta" />
		<tag k="natural" v="bay" />
		<tag k="ssr:stedsnr" v="92741" />
	</node>
	<node id="-940764" lat="63.7209749997" lon="9.97963333766">
		<tag k="name" v="Nesholman" />
		<tag k="place" v="islet" />
		<tag k="ssr:stedsnr" v="103069" />
	</node>
	<node id="-941787" lat="63.6123527773" lon="10.5088750084">
		<tag k="name" v="Tynnberget" />
		<tag k="natural" v="beach" />
		<tag k="place" v="locality" />
		<tag k="ssr:stedsnr" v="49089" />
	</node>
	<node id="-940761" lat="63.6450583357" lon="9.84071111473">
		<tag k="alt_name" v="Kolvorpa" />
		<tag k="name" v="Kålvarpa" />
		<tag k="natural" v="cape" />
		<tag k="ssr:stedsnr" v="802942" />
	</node>
	<node id="-941782" lat="63.5702555584" lon="10.3639972151">
		<tag k="name" v="Seterbukta" />
		<tag k="natural" v="bay" />
		<tag k="ssr:stedsnr" v="741302" />
	</node>
	<node id="-937987" lat="63.7741861136" lon="10.0950444435">
		<tag k="name" v="Ellingmølnarneset" />
		<tag k="natural" v="cape" />
		<tag k="ssr:stedsnr" v="220227" />
	</node>
	<node id="-938195" lat="63.5810249991" lon="9.91227222271">
		<tag k="name" v="Jomfruskjæra" />
		<tag k="natural" v="shoal" />
		<tag k="place" v="locality" />
		<tag k="ssr:stedsnr" v="468962" />
	</node>
	<node id="-940754" lat="63.7747944405" lon="10.0966333328">
		<tag k="name" v="Nordvika" />
		<tag k="natural" v="bay" />
		<tag k="ssr:stedsnr" v="220860" />
	</node>
	<node id="-937681" lat="63.6388472205" lon="9.8405805633">
		<tag k="name" v="Staursetvorpa" />
		<tag k="natural" v="cape" />
		<tag k="ssr:stedsnr" v="406003" />
	</node>
	<node id="-940135" lat="63.6362611153" lon="9.82591944209">
		<tag k="name" v="Nebbesflua" />
		<tag k="natural" v="shoal" />
		<tag k="place" v="locality" />
		<tag k="ssr:stedsnr" v="941661" />
	</node>
	<node id="-936909" lat="63.712516663" lon="9.98908054615">
		<tag k="name" v="Bergøra" />
		<tag k="place" v="islet" />
		<tag k="ssr:stedsnr" v="467065" />
	</node>
	<node id="-940235" lat="63.5593166702" lon="9.89829165698">
		<tag k="name" v="Kvithyllbukta" />
		<tag k="natural" v="bay" />
		<tag k="ssr:stedsnr" v="163221" />
	</node>
	<node id="-940743" lat="63.7150972229" lon="9.99948611313">
		<tag k="name" v="Dalaøra" />
		<tag k="place" v="islet" />
		<tag k="ssr:stedsnr" v="103064" />
	</node>
	<node id="-943302" lat="63.5725888882" lon="10.3815666591">
		<tag k="name" v="Trøaneset" />
		<tag k="natural" v="cape" />
		<tag k="ssr:stedsnr" v="474245" />
	</node>
	<node id="-940741" lat="63.6382361068" lon="9.83178888005">
		<tag k="name" v="Hasselvika" />
		<tag k="natural" v="bay" />
		<tag k="ssr:stedsnr" v="802943" />
	</node>
	<node id="-943300" lat="63.6923138855" lon="10.7045000078">
		<tag k="name" v="Øksberget" />
		<tag k="natural" v="cape" />
		<tag k="ssr:stedsnr" v="899559" />
	</node>
	<node id="-943811" lat="63.592794443" lon="10.4502999913">
		<tag k="name" v="Spranget" />
		<tag k="natural" v="cape" />
		<tag k="ssr:stedsnr" v="655038" />
	</node>
	<node id="-938688" lat="63.6117666642" lon="9.82296944995">
		<tag k="name" v="Sørvikneset" />
		<tag k="natural" v="cape" />
		<tag k="ssr:stedsnr" v="74982" />
	</node>
	<node id="-941797" lat="63.6041083369" lon="10.4856194516">
		<tag k="name" v="Banvika" />
		<tag k="natural" v="bay" />
		<tag k="ssr:stedsnr" v="656050" />
	</node>
	<node id="-943292" lat="63.5890861093" lon="10.439297213">
		<tag k="name" v="Smørbukta" />
		<tag k="natural" v="bay" />
		<tag k="ssr:stedsnr" v="898026" />
	</node>
	<node id="-940730" lat="63.5861999973" lon="9.85783611103">
		<tag k="name" v="Klungervikneset" />
		<tag k="natural" v="cape" />
		<tag k="ssr:stedsnr" v="954973" />
	</node>
	<node id="-942776" lat="63.7141500008" lon="10.4940083381">
		<tag k="name" v="Pevika" />
		<tag k="natural" v="bay" />
		<tag k="ssr:stedsnr" v="411186" />
	</node>
	<node id="-938167" lat="63.6351166634" lon="9.83058610796">
		<tag k="name" v="Klokkshylla" />
		<tag k="natural" v="cape" />
		<tag k="ssr:stedsnr" v="220253" />
	</node>
	<node id="-940723" lat="63.6647638909" lon="9.81209999156">
		<tag k="name" v="Lusvågen" />
		<tag k="natural" v="bay" />
		<tag k="ssr:stedsnr" v="637716" />
	</node>
	<node id="-941233" lat="63.5400222196" lon="10.2048694478">
		<tag k="name" v="Saltbuvika" />
		<tag k="natural" v="bay" />
		<tag k="ssr:stedsnr" v="165908" />
	</node>
	<node id="-942299" lat="63.5474472253" lon="10.2110583404">
		<tag k="alt_name" v="Buvika" />
		<tag k="name" v="Bustvika" />
		<tag k="natural" v="bay" />
		<tag k="ssr:stedsnr" v="376602" />
	</node>
	<node id="-937082" lat="63.6331694457" lon="9.82616944804">
		<tag k="name" v="Junkersbukta" />
		<tag k="natural" v="bay" />
		<tag k="ssr:stedsnr" v="527020" />
	</node>
	<node id="-940711" lat="63.7050944477" lon="9.95193611761">
		<tag k="name" v="Gangstøstranda" />
		<tag k="natural" v="beach" />
		<tag k="place" v="locality" />
		<tag k="ssr:stedsnr" v="103053" />
	</node>
	<node id="-942246" lat="63.6423333372" lon="10.2383444539">
		<tag k="name" v="Åkerøya" />
		<tag k="place" v="island" />
		<tag k="ssr:stedsnr" v="533874" />
	</node>
	<node id="-940709" lat="63.7441638845" lon="10.021125006">
		<tag k="name" v="Skinnfjellflua" />
		<tag k="natural" v="shoal" />
		<tag k="place" v="locality" />
		<tag k="ssr:stedsnr" v="74187" />
	</node>
	<node id="-940708" lat="63.7673583356" lon="10.0744611117">
		<tag k="name" v="Naustvika" />
		<tag k="natural" v="bay" />
		<tag k="ssr:stedsnr" v="467868" />
	</node>
	<node id="-943779" lat="63.5551916639" lon="10.2467138974">
		<tag k="alt_name" v="Loddeberget" />
		<tag k="name" v="Løddjberget" />
		<tag k="natural" v="cape" />
		<tag k="ssr:stedsnr" v="287893" />
	</node>
	<node id="-942754" lat="63.7147694451" lon="10.4733666654">
		<tag k="name" v="Dørdirholet" />
		<tag k="natural" v="bay" />
		<tag k="ssr:stedsnr" v="776183" />
	</node>
	<node id="-940705" lat="63.758772222" lon="10.0586694469">
		<tag k="name" v="Vorpvikan" />
		<tag k="natural" v="cape" />
		<tag k="ssr:stedsnr" v="74188" />
	</node>
	<node id="-942237" lat="63.6807249957" lon="10.4167444392">
		<tag k="name" v="Sandbukta" />
		<tag k="natural" v="bay" />
		<tag k="ssr:stedsnr" v="351074" />
	</node>
	<node id="-941724" lat="63.5434527759" lon="10.2099972203">
		<tag k="name" v="Storberget" />
		<tag k="natural" v="cape" />
		<tag k="ssr:stedsnr" v="280146" />
	</node>
	<node id="-943770" lat="63.5925555565" lon="10.4472000018">
		<tag k="name" v="Sandvika" />
		<tag k="natural" v="bay" />
		<tag k="ssr:stedsnr" v="655030" />
	</node>
	<node id="-939887" lat="63.7773055566" lon="10.1152527779">
		<tag k="name" v="Svartvika" />
		<tag k="natural" v="bay" />
		<tag k="ssr:stedsnr" v="820624" />
	</node>
	<node id="-940184" lat="63.65981111" lon="9.80819999705">
		<tag k="name" v="Brettingsneset" />
		<tag k="natural" v="cape" />
		<tag k="ssr:stedsnr" v="802866" />
	</node>
	<node id="-943812" lat="63.555974997" lon="10.2437527829">
		<tag k="name" v="Lyngbukta" />
		<tag k="natural" v="bay" />
		<tag k="ssr:stedsnr" v="582196" />
	</node>
	<node id="-939158" lat="63.6203111069" lon="9.81879166028">
		<tag k="name" v="Sjursvikbukta" />
		<tag k="natural" v="bay" />
		<tag k="ssr:stedsnr" v="892020" />
	</node>
	<node id="-937620" lat="63.732055558" lon="10.0741944361">
		<tag k="name" v="Oterneset" />
		<tag k="natural" v="cape" />
		<tag k="ssr:stedsnr" v="644837" />
	</node>
	<node id="-937106" lat="63.6141666701" lon="9.8237055577">
		<tag k="alt_name" v="Sørvikbukta" />
		<tag k="name" v="Sørvika" />
		<tag k="natural" v="bay" />
		<tag k="ssr:stedsnr" v="802992" />
	</node>
	<node id="-938428" lat="63.5029305543" lon="9.93451111506">
		<tag k="name" v="Rosshålån" />
		<tag k="natural" v="cape" />
		<tag k="ssr:stedsnr" v="923756" />
	</node>
	<node id="-939288" lat="63.5861361111" lon="9.86087499224">
		<tag k="name" v="Klungervika" />
		<tag k="natural" v="bay" />
		<tag k="ssr:stedsnr" v="590570" />
	</node>
	<node id="-938093" lat="63.7455361074" lon="10.036822232">
		<tag k="name" v="Bjørkvikfjæra" />
		<tag k="natural" v="beach" />
		<tag k="place" v="locality" />
		<tag k="ssr:stedsnr" v="770927" />
	</node>
	<node id="-938684" lat="63.6509555591" lon="9.8269944439">
		<tag k="fixme" v="consider seamark:type=rock or natural=shoal" />
		<tag k="name" v="Geitskjæret" />
		<tag k="place" v="islet" />
		<tag k="ssr:stedsnr" v="316867" />
	</node>
	<node id="-942359" lat="63.7103416685" lon="10.8092027781">
		<tag k="fixme" v="consider seamark:type=rock or natural=shoal" />
		<tag k="name" v="Skurvholmen" />
		<tag k="place" v="islet" />
		<tag k="ssr:stedsnr" v="256167" />
	</node>
	<node id="-942721" lat="63.5720065062" lon="10.4215903153">
		<tag k="alt_name" v="Ambornesset" />
		<tag k="name" v="Amborneset" />
		<tag k="natural" v="cape" />
		<tag k="ssr:stedsnr" v="134237" />
	</node>
	<node id="-940672" lat="63.5257611112" lon="10.1699250095">
		<tag k="alt_name" v="Mønskjeret" />
		<tag k="name" v="Mønskjæret" />
		<tag k="natural" v="cape" />
		<tag k="ssr:stedsnr" v="103882" />
	</node>
	<node id="-940224" lat="63.5910472241" lon="9.92293055241">
		<tag k="name" v="Langsanden" />
		<tag k="natural" v="cape" />
		<tag k="ssr:stedsnr" v="931250" />
	</node>
	<node id="-943230" lat="63.591477777" lon="10.5191999956">
		<tag k="name" v="Rørvikgrunnen" />
		<tag k="natural" v="shoal" />
		<tag k="place" v="locality" />
		<tag k="ssr:stedsnr" v="802343" />
	</node>
	<node id="-940669" lat="63.550077782" lon="9.9178694465">
		<tag k="name" v="Koisjøen" />
		<tag k="natural" v="bay" />
		<tag k="ssr:stedsnr" v="463216" />
	</node>
	<node id="-937578" lat="63.7733138865" lon="10.0763111202">
		<tag k="name" v="Sundvika" />
		<tag k="natural" v="bay" />
		<tag k="ssr:stedsnr" v="827865" />
	</node>
	<node id="-943226" lat="63.7166611073" lon="10.8376111147">
		<tag k="name" v="Kambukta" />
		<tag k="natural" v="bay" />
		<tag k="ssr:stedsnr" v="290248" />
	</node>
	<node id="-941689" lat="63.5741749968" lon="10.3591833287">
		<tag k="name" v="Stæggan" />
		<tag k="natural" v="cape" />
		<tag k="ssr:stedsnr" v="595197" />
	</node>
	<node id="-940152" lat="63.730441668" lon="10.0610138975">
		<tag k="fixme" v="consider seamark:type=rock or natural=shoal" />
		<tag k="name" v="Sagskjeret" />
		<tag k="place" v="islet" />
		<tag k="ssr:stedsnr" v="163965" />
	</node>
	<node id="-943734" lat="63.6450499977" lon="10.6000305502">
		<tag k="name" v="Steffasteinbukta" />
		<tag k="natural" v="bay" />
		<tag k="ssr:stedsnr" v="959798" />
	</node>
	<node id="-943287" lat="63.5934583331" lon="10.3072861044">
		<tag k="name" v="Vargbukta" />
		<tag k="natural" v="bay" />
		<tag k="ssr:stedsnr" v="108790" />
	</node>
	<node id="-937585" lat="63.684708337" lon="9.81655554958">
		<tag k="name" v="Baksteinen" />
		<tag k="natural" v="cape" />
		<tag k="ssr:stedsnr" v="345058" />
	</node>
	<node id="-938856" lat="63.7238805573" lon="10.0497944508">
		<tag k="name" v="Sagneset" />
		<tag k="natural" v="cape" />
		<tag k="ssr:stedsnr" v="588041" />
	</node>
	<node id="-938094" lat="63.4932805519" lon="10.0671305529">
		<tag k="alt_name" v="Oksvikfjurru" />
		<tag k="name" v="Oksvikfjæra" />
		<tag k="natural" v="beach" />
		<tag k="place" v="locality" />
		<tag k="ssr:stedsnr" v="224089" />
	</node>
	<node id="-941677" lat="63.5994805582" lon="10.4604305559">
		<tag k="name" v="Hestdalsbukta" />
		<tag k="natural" v="bay" />
		<tag k="ssr:stedsnr" v="49061" />
	</node>
	<node id="-938092" lat="63.7069138906" lon="9.93688055969">
		<tag k="fixme" v="consider seamark:type=rock or natural=shoal" />
		<tag k="name" v="Kubergskjæret" />
		<tag k="place" v="islet" />
		<tag k="ssr:stedsnr" v="92724" />
	</node>
	<node id="-941074" lat="63.5555083305" lon="10.2328777718">
		<tag k="alt_name" v="Langneset" />
		<tag k="name" v="Langnesberget" />
		<tag k="natural" v="cape" />
		<tag k="ssr:stedsnr" v="894907" />
	</node>
	<node id="-938602" lat="63.6198805534" lon="9.81430834277">
		<tag k="name" v="Sjursvikneset" />
		<tag k="natural" v="cape" />
		<tag k="ssr:stedsnr" v="831020" />
	</node>
	<node id="-941673" lat="63.6283555526" lon="10.5636138904">
		<tag k="name" v="Urskjerringa" />
		<tag k="natural" v="beach" />
		<tag k="place" v="locality" />
		<tag k="ssr:stedsnr" v="899895" />
	</node>
	<node id="-940648" lat="63.6471638888" lon="9.83081944068">
		<tag k="alt_name" v="Skogan" />
		<tag k="name" v="Skagan" />
		<tag k="natural" v="cape" />
		<tag k="ssr:stedsnr" v="680866" />
	</node>
	<node id="-940647" lat="63.7192194448" lon="10.0427111017">
		<tag k="name" v="Tånnårvikbukta" />
		<tag k="natural" v="bay" />
		<tag k="ssr:stedsnr" v="103038" />
	</node>
	<node id="-940133" lat="63.6428277758" lon="9.82637221289">
		<tag k="fixme" v="consider seamark:type=rock or natural=shoal" />
		<tag k="name" v="Hårbergsskjæret" />
		<tag k="place" v="islet" />
		<tag k="ssr:stedsnr" v="395694" />
	</node>
	<node id="-943204" lat="63.5909638897" lon="10.437444453">
		<tag k="fixme" v="multiple name tags, choose one and add the other to alt_name" />
		<tag k="name" v="Skålvika;Vikabukta" />
		<tag k="natural" v="bay" />
		<tag k="ssr:stedsnr" v="802338" />
	</node>
	<node id="-943201" lat="63.7169250034" lon="10.8408027872">
		<tag k="name" v="Kamneset" />
		<tag k="natural" v="cape" />
		<tag k="ssr:stedsnr" v="863169" />
	</node>
	<node id="-940639" lat="63.7173916698" lon="10.0199750039">
		<tag k="name" v="Stranda" />
		<tag k="natural" v="beach" />
		<tag k="place" v="locality" />
		<tag k="ssr:stedsnr" v="103037" />
	</node>
	<node id="-941662" lat="63.5696194421" lon="10.3452305533">
		<tag k="name" v="Kvernavika" />
		<tag k="natural" v="bay" />
		<tag k="ssr:stedsnr" v="838237" />
	</node>
	<node id="-941733" lat="63.5519666639" lon="10.2176277752">
		<tag k="name" v="Ratvikberget" />
		<tag k="natural" v="cape" />
		<tag k="ssr:stedsnr" v="826201" />
	</node>
	<node id="-938076" lat="63.5437583371" lon="9.91859167074">
		<tag k="name" v="Skardsbukta" />
		<tag k="natural" v="bay" />
		<tag k="ssr:stedsnr" v="220241" />
	</node>
	<node id="-936977" lat="63.6975777736" lon="9.94830555435">
		<tag k="name" v="Djupvorpa" />
		<tag k="natural" v="bay" />
		<tag k="ssr:stedsnr" v="467055" />
	</node>
	<node id="-939096" lat="63.6985583303" lon="9.93260834087">
		<tag k="name" v="Tågrunnen" />
		<tag k="natural" v="cape" />
		<tag k="ssr:stedsnr" v="831100" />
	</node>
	<node id="-938071" lat="63.7331166653" lon="10.04199167">
		<tag k="name" v="Rylstranda" />
		<tag k="natural" v="beach" />
		<tag k="place" v="locality" />
		<tag k="ssr:stedsnr" v="741275" />
	</node>
	<node id="-943701" lat="63.6857722225" lon="10.6868611206">
		<tag k="name" v="Hylla" />
		<tag k="natural" v="cape" />
		<tag k="ssr:stedsnr" v="656550" />
	</node>
	<node id="-940293" lat="63.7331999962" lon="9.97809443947">
		<tag k="name" v="Purkholmen" />
		<tag k="place" v="islet" />
		<tag k="ssr:stedsnr" v="103797" />
	</node>
	<node id="-938477" lat="63.7345833354" lon="9.98564999472">
		<tag k="fixme" v="consider seamark:type=rock or natural=shoal" />
		<tag k="name" v="Grønnskjera" />
		<tag k="place" v="islet" />
		<tag k="ssr:stedsnr" v="225808" />
	</node>
	<node id="-939087" lat="63.6421472204" lon="9.85199167233">
		<tag k="name" v="Leira" />
		<tag k="natural" v="bay" />
		<tag k="ssr:stedsnr" v="741947" />
	</node>
	<node id="-938573" lat="63.5560611153" lon="9.90308055262">
		<tag k="alt_name" v="Sør Kvithyllneset" />
		<tag k="name" v="Kvithyllneset" />
		<tag k="natural" v="cape" />
		<tag k="ssr:stedsnr" v="134646" />
	</node>
	<node id="-940608" lat="63.7727388898" lon="10.09455">
		<tag k="name" v="Innerråkvågen" />
		<tag k="natural" v="bay" />
		<tag k="ssr:stedsnr" v="341865" />
	</node>
	<node id="-938528" lat="63.6993361087" lon="9.95677499612">
		<tag k="name" v="Selneshammaren" />
		<tag k="natural" v="cape" />
		<tag k="ssr:stedsnr" v="771033" />
	</node>
	<node id="-937546" lat="63.6940722255" lon="9.88031111745">
		<tag k="name" v="Bjørnvika" />
		<tag k="natural" v="bay" />
		<tag k="ssr:stedsnr" v="345049" />
	</node>
	<node id="-939593" lat="63.7220527757" lon="9.98965554837">
		<tag k="name" v="Stikkelsteinan" />
		<tag k="place" v="islet" />
		<tag k="ssr:stedsnr" v="377219" />
	</node>
	<node id="-937740" lat="63.5041722252" lon="10.1286166644">
		<tag k="name" v="Langfjurru" />
		<tag k="natural" v="beach" />
		<tag k="place" v="locality" />
		<tag k="ssr:stedsnr" v="316733" />
	</node>
	<node id="-939078" lat="63.7649388932" lon="10.0709666641">
		<tag k="name" v="Råkvågen" />
		<tag k="natural" v="bay" />
		<tag k="ssr:stedsnr" v="92957" />
	</node>
	<node id="-937541" lat="63.6834944456" lon="9.81247499501">
		<tag k="fixme" v="consider seamark:type=rock or natural=shoal" />
		<tag k="name" v="Baksteinskjeret" />
		<tag k="place" v="islet" />
		<tag k="ssr:stedsnr" v="224013" />
	</node>
	<node id="-937398" lat="63.6531861092" lon="9.82443055809">
		<tag k="name" v="Aunfjæra" />
		<tag k="natural" v="bay" />
		<tag k="ssr:stedsnr" v="195822" />
	</node>
	<node id="-941634" lat="63.5892777743" lon="10.4273305479">
		<tag k="name" v="Laberget" />
		<tag k="natural" v="cape" />
		<tag k="ssr:stedsnr" v="473032" />
	</node>
	<node id="-937483" lat="63.511241665" lon="10.1416972203">
		<tag k="alt_name" v="Hjellarvika" />
		<tag k="name" v="Gjellarvika" />
		<tag k="natural" v="bay" />
		<tag k="ssr:stedsnr" v="766189" />
	</node>
	<node id="-941120" lat="63.57456111" lon="10.3630222263">
		<tag k="name" v="Grøtvikberget" />
		<tag k="natural" v="cape" />
		<tag k="ssr:stedsnr" v="231249" />
	</node>
	<node id="-941628" lat="63.5557444415" lon="10.3067222291">
		<tag k="name" v="Aksnestangen" />
		<tag k="natural" v="cape" />
		<tag k="ssr:stedsnr" v="894230" />
	</node>
	<node id="-937738" lat="63.7317944432" lon="10.020172231">
		<tag k="name" v="Sjåframviktangen" />
		<tag k="natural" v="cape" />
		<tag k="ssr:stedsnr" v="31859" />
	</node>
	<node id="-941114" lat="63.7092861106" lon="10.4985972185">
		<tag k="name" v="Myrabukta" />
		<tag k="natural" v="bay" />
		<tag k="ssr:stedsnr" v="169180" />
	</node>
	<node id="-938842" lat="63.7645222229" lon="10.0741388973">
		<tag k="name" v="Eilervika" />
		<tag k="natural" v="bay" />
		<tag k="ssr:stedsnr" v="285839" />
	</node>
	<node id="-939064" lat="63.6888527807" lon="9.87161110937">
		<tag k="name" v="Killingneståa" />
		<tag k="natural" v="cape" />
		<tag k="ssr:stedsnr" v="285039" />
	</node>
	<node id="-938039" lat="63.7303111156" lon="9.98556943807">
		<tag k="name" v="Sandøya" />
		<tag k="place" v="islet" />
		<tag k="ssr:stedsnr" v="316245" />
	</node>
	<node id="-937012" lat="63.4945527744" lon="10.0224805531">
		<tag k="alt_name" v="Myrsjøen" />
		<tag k="name" v="Myrssjøen" />
		<tag k="natural" v="beach" />
		<tag k="place" v="locality" />
		<tag k="ssr:stedsnr" v="159554" />
	</node>
	<node id="-937566" lat="63.700644447" lon="9.86587778718">
		<tag k="name" v="Flessa" />
		<tag k="place" v="islet" />
		<tag k="ssr:stedsnr" v="766206" />
	</node>
	<node id="-941617" lat="63.5729138855" lon="10.3531388865">
		<tag k="name" v="Andersvika" />
		<tag k="natural" v="bay" />
		<tag k="ssr:stedsnr" v="535224" />
	</node>
	<node id="-941616" lat="63.7539055538" lon="10.7557166606">
		<tag k="name" v="Sauholmen" />
		<tag k="place" v="islet" />
		<tag k="ssr:stedsnr" v="108305" />
	</node>
	<node id="-938868" lat="63.578375" lon="9.9290305648">
		<tag k="name" v="Litlstrømmen" />
		<tag k="natural" v="strait" />
		<tag k="ssr:stedsnr" v="710244" />
	</node>
	<node id="-937517" lat="63.6117666642" lon="9.82296944995">
		<tag k="name" v="Sørvikbakken" />
		<tag k="place" v="locality" />
		<tag k="ssr:stedsnr" v="529521" />
	</node>
	<node id="-938544" lat="63.701155555" lon="9.95595000781">
		<tag k="fixme" v="consider seamark:type=rock or natural=shoal" />
		<tag k="name" v="Båtvikskjeret" />
		<tag k="place" v="islet" />
		<tag k="ssr:stedsnr" v="346036" />
	</node>
	<node id="-938203" lat="63.6270222238" lon="9.80636665991">
		<tag k="name" v="Hysneset" />
		<tag k="natural" v="cape" />
		<tag k="ssr:stedsnr" v="942091" />
	</node>
	<node id="-938537" lat="63.6976722197" lon="9.93301667131">
		<tag k="name" v="Langskipnesbukta" />
		<tag k="natural" v="bay" />
		<tag k="ssr:stedsnr" v="406039" />
	</node>
	<node id="-938536" lat="63.7391055547" lon="10.0192194523">
		<tag k="name" v="Holsundet" />
		<tag k="natural" v="strait" />
		<tag k="ssr:stedsnr" v="559197" />
	</node>
	<node id="-941425" lat="63.5660305562" lon="10.3388999927">
		<tag k="name" v="Orsand" />
		<tag k="natural" v="beach" />
		<tag k="place" v="locality" />
		<tag k="ssr:stedsnr" v="535198" />
	</node>
	<node id="-941088" lat="63.6036111142" lon="10.4834666665">
		<tag k="name" v="Kuppelvikfjæra" />
		<tag k="natural" v="beach" />
		<tag k="place" v="locality" />
		<tag k="ssr:stedsnr" v="838068" />
	</node>
	<node id="-942111" lat="63.702880552" lon="10.7502944343">
		<tag k="name" v="Dretvikvågen" />
		<tag k="natural" v="bay" />
		<tag k="ssr:stedsnr" v="109258" />
	</node>
	<node id="-940062" lat="63.697855556" lon="9.96044999727">
		<tag k="name" v="Skjærvika" />
		<tag k="natural" v="bay" />
		<tag k="ssr:stedsnr" v="649045" />
	</node>
	<node id="-938525" lat="63.695563889" lon="9.83901388307">
		<tag k="name" v="Sjøflua" />
		<tag k="natural" v="shoal" />
		<tag k="place" v="locality" />
		<tag k="ssr:stedsnr" v="619818" />
	</node>
	<node id="-941402" lat="63.6256833316" lon="10.5493305587">
		<tag k="name" v="Langfjæra" />
		<tag k="natural" v="beach" />
		<tag k="place" v="locality" />
		<tag k="ssr:stedsnr" v="838906" />
	</node>
	<node id="-939544" lat="63.5074000036" lon="9.92923334045">
		<tag k="name" v="Seinebben" />
		<tag k="natural" v="cape" />
		<tag k="ssr:stedsnr" v="38219" />
	</node>
	<node id="-940804" lat="63.7414499993" lon="10.066588879">
		<tag k="name" v="Kobbhyllstranda" />
		<tag k="natural" v="beach" />
		<tag k="place" v="locality" />
		<tag k="ssr:stedsnr" v="103911" />
	</node>
	<node id="-939541" lat="63.7329000011" lon="10.0155055642">
		<tag k="name" v="Holsundfjæra" />
		<tag k="natural" v="beach" />
		<tag k="place" v="locality" />
		<tag k="ssr:stedsnr" v="648970" />
	</node>
	<node id="-940787" lat="63.5965777794" lon="9.83766944909">
		<tag k="name" v="Langstranda" />
		<tag k="natural" v="beach" />
		<tag k="place" v="locality" />
		<tag k="ssr:stedsnr" v="954993" />
	</node>
	<node id="-943633" lat="63.7083055585" lon="10.7917888826">
		<tag k="name" v="Langtangen" />
		<tag k="natural" v="cape" />
		<tag k="ssr:stedsnr" v="316081" />
	</node>
	<node id="-937487" lat="63.4907111068" lon="10.0484361198">
		<tag k="name" v="Slakken" />
		<tag k="natural" v="cape" />
		<tag k="old_name" v="Stakken" />
		<tag k="ssr:stedsnr" v="559057" />
	</node>
	<node id="-943630" lat="63.6358972225" lon="10.5792277745">
		<tag k="name" v="Kuberga" />
		<tag k="natural" v="cape" />
		<tag k="ssr:stedsnr" v="231896" />
	</node>
	<node id="-939437" lat="63.6873416699" lon="9.86796943707">
		<tag k="alt_name" v="Fevågbukta" />
		<tag k="name" v="Fevågen" />
		<tag k="natural" v="bay" />
		<tag k="ssr:stedsnr" v="820676" />
	</node>
	<node id="-940556" lat="63.7691472241" lon="10.0691888831">
		<tag k="name" v="Rossmalvika" />
		<tag k="natural" v="bay" />
		<tag k="ssr:stedsnr" v="103846" />
	</node>
	<node id="-940555" lat="63.6193555576" lon="9.82034723027">
		<tag k="name" v="Sjursvika" />
		<tag k="natural" v="bay" />
		<tag k="ssr:stedsnr" v="559987" />
	</node>
	<node id="-937993" lat="63.6742944444" lon="9.77963056097">
		<tag k="name" v="Vestvikflua" />
		<tag k="natural" v="shoal" />
		<tag k="place" v="locality" />
		<tag k="ssr:stedsnr" v="92714" />
	</node>
	<node id="-940547" lat="63.7463861141" lon="10.0752861182">
		<tag k="name" v="Kobbhyllneset" />
		<tag k="natural" v="cape" />
		<tag k="ssr:stedsnr" v="341850" />
	</node>
	<node id="-943617" lat="63.5742972265" lon="10.3688249933">
		<tag k="name" v="Veaberget" />
		<tag k="natural" v="cape" />
		<tag k="ssr:stedsnr" v="717216" />
	</node>
</osm>
