<?xml version="1.0" encoding="UTF-8"?>
<osm version="0.6" generator="osmapis">
	<node lat="63.64737499822975" lon="10.241547221033652" id="-39034">
		<tag k="name" v="Heggen" />
		<tag k="place" v="isolated_dwelling" />
		<tag k="ssr:stedsnr" v="231292" />
	</node>
	<node lat="63.593225530941865" lon="10.207330394376223" id="-39035">
		<tag k="alt_name" v="Roten" />
		<tag k="name" v="Rota" />
		<tag k="place" v="farm" />
		<tag k="ssr:stedsnr" v="231296" />
	</node>
	<node lat="63.489855555555025" lon="9.989327780871186" id="-39053">
		<tag k="fixme" v="consider place=hamlet" />
		<tag k="name" v="Rødberget" />
		<tag k="place" v="farm" />
		<tag k="ssr:stedsnr" v="13065" />
	</node>
	<node lat="63.59535833431669" lon="10.218436104719952" id="-39059">
		<tag k="name" v="Myrvang" />
		<tag k="place" v="farm" />
		<tag k="ssr:stedsnr" v="13320" />
	</node>
	<node lat="63.68518611336753" lon="10.599138895577639" id="-39061">
		<tag k="name" v="Yttermyran" />
		<tag k="place" v="farm" />
		<tag k="ssr:stedsnr" v="13460" />
	</node>
	<node lat="63.69045555362872" lon="10.621766664895704" id="-39062">
		<tag k="name" v="Langroa" />
		<tag k="place" v="farm" />
		<tag k="ssr:stedsnr" v="13462" />
	</node>
	<node lat="63.68665166818195" lon="10.621516403644566" id="-39063">
		<tag k="name" v="Rosvoll" />
		<tag k="place" v="hamlet" />
		<tag k="ssr:stedsnr" v="13463" />
	</node>
	<node lat="63.68584166756208" lon="10.60160278466111" id="-39064">
		<tag k="alt_name" v="Myran, midtre" />
		<tag k="loc_name" v="Myran mellom" />
		<tag k="name" v="Midtre Myran" />
		<tag k="place" v="farm" />
		<tag k="ssr:stedsnr" v="13467" />
	</node>
	<node lat="63.56430277791484" lon="10.091069444773511" id="-39069">
		<tag k="name" v="Norgard" />
		<tag k="place" v="farm" />
		<tag k="ssr:stedsnr" v="13616" />
	</node>
	<node lat="63.67765295300373" lon="10.646958842294719" id="-39070">
		<tag k="name" v="Vigtil" />
		<tag k="place" v="hamlet" />
		<tag k="ssr:stedsnr" v="13362" />
	</node>
	<node lat="63.728058330082845" lon="10.597591663918738" id="-39071">
		<tag k="historic" v="shieling" />
		<tag k="name" v="Melhussetran" />
		<tag k="place" v="isolated_dwelling" />
		<tag k="ssr:stedsnr" v="13509" />
	</node>
	<node lat="63.50849708663423" lon="10.030392909461668" id="-39074">
		<tag k="fixme" v="consider place=hamlet" />
		<tag k="name" v="Håssåker" />
		<tag k="place" v="farm" />
		<tag k="ssr:stedsnr" v="13705" />
	</node>
	<node lat="63.50120278094345" lon="10.0686916619671" id="-39075">
		<tag k="alt_name" v="Steina" />
		<tag k="name" v="Stein" />
		<tag k="place" v="farm" />
		<tag k="ssr:stedsnr" v="13706" />
	</node>
	<node lat="63.502463885320026" lon="10.012405551996414" id="-39076">
		<tag k="name" v="Solheim" />
		<tag k="place" v="farm" />
		<tag k="ssr:stedsnr" v="13712" />
	</node>
	<node lat="63.74540159226924" lon="10.409632059234989" id="-39077">
		<tag k="fixme" v="consider place=hamlet" />
		<tag k="name" v="Berget" />
		<tag k="place" v="farm" />
		<tag k="ssr:stedsnr" v="13718" />
	</node>
	<node lat="63.624224995673096" lon="9.831925008322653" id="-39078">
		<tag k="name" v="Myrvang" />
		<tag k="place" v="farm" />
		<tag k="ssr:stedsnr" v="13874" />
	</node>
	<node lat="63.64883170363296" lon="10.122215993710277" id="-39083">
		<tag k="fixme" v="consider place=hamlet" />
		<tag k="name" v="Grenne" />
		<tag k="place" v="farm" />
		<tag k="ssr:stedsnr" v="13928" />
	</node>
	<node lat="63.771472218474294" lon="10.57685833812715" id="-39085">
		<tag k="name" v="Gullhaugen" />
		<tag k="place" v="isolated_dwelling" />
		<tag k="ssr:stedsnr" v="14302" />
	</node>
	<node lat="63.764838886754944" lon="10.472297221895982" id="-39086">
		<tag k="name" v="Vassbakken" />
		<tag k="place" v="farm" />
		<tag k="ssr:stedsnr" v="14310" />
	</node>
	<node lat="63.79187222284415" lon="10.355288880222634" id="-39087">
		<tag k="name" v="Agnetlia" />
		<tag k="place" v="locality" />
		<tag k="ssr:stedsnr" v="14329" />
	</node>
	<node lat="63.75177499824379" lon="10.080438888018412" id="-39094">
		<tag k="name" v="Nedre Djupvika" />
		<tag k="place" v="farm" />
		<tag k="ssr:stedsnr" v="32081" />
	</node>
	<node lat="63.56706944862213" lon="9.994738892896633" id="-39100">
		<tag k="name" v="Rød" />
		<tag k="place" v="farm" />
		<tag k="ssr:stedsnr" v="38393" />
	</node>
	<node lat="63.56730833582254" lon="9.971605549016653" id="-39101">
		<tag k="name" v="Hamren" />
		<tag k="place" v="isolated_dwelling" />
		<tag k="ssr:stedsnr" v="38398" />
	</node>
	<node lat="63.74254166525104" lon="10.029563882707746" id="-39102">
		<tag k="name" v="Plassen" />
		<tag k="place" v="farm" />
		<tag k="ssr:stedsnr" v="38414" />
	</node>
	<node lat="63.60663055741468" lon="10.010761113205874" id="-39103">
		<tag k="name" v="Følsanden" />
		<tag k="place" v="farm" />
		<tag k="ssr:stedsnr" v="38416" />
	</node>
	<node lat="63.63030000005359" lon="10.148936108919246" id="-39115">
		<tag k="fixme" v="consider place=hamlet" />
		<tag k="name" v="Øvlandet" />
		<tag k="place" v="farm" />
		<tag k="ssr:stedsnr" v="237274" />
	</node>
	<node lat="63.75588055460996" lon="10.437855552466655" id="-39122">
		<tag k="name" v="Bergsmyr" />
		<tag k="place" v="farm" />
		<tag k="ssr:stedsnr" v="42328" />
	</node>
	<node lat="63.6371638881086" lon="10.027791656723064" id="-39130">
		<tag k="historic" v="shieling" />
		<tag k="name" v="Gammelsetra" />
		<tag k="place" v="isolated_dwelling" />
		<tag k="ssr:stedsnr" v="42384" />
	</node>
	<node lat="63.53729999800679" lon="10.045255559803737" id="-39166">
		<tag k="name" v="Vollan" />
		<tag k="place" v="farm" />
		<tag k="ssr:stedsnr" v="43585" />
	</node>
	<node lat="63.70826666683325" lon="9.986988886550115" id="-39167">
		<tag k="name" v="Lægda" />
		<tag k="place" v="farm" />
		<tag k="ssr:stedsnr" v="43594" />
	</node>
	<node lat="63.834866667299295" lon="10.234811108716409" id="-39168">
		<tag k="alt_name" v="Nyklett" />
		<tag k="name" v="Kletten" />
		<tag k="place" v="farm" />
		<tag k="ssr:stedsnr" v="43673" />
	</node>
	<node lat="63.62665833707777" lon="10.413752786643554" id="-39177">
		<tag k="historic" v="shieling" />
		<tag k="name" v="Grandalstufta" />
		<tag k="place" v="isolated_dwelling" />
		<tag k="ssr:stedsnr" v="47925" />
	</node>
	<node lat="63.58280833631909" lon="10.418458337523193" id="-39186">
		<tag k="name" v="Ormhylla" />
		<tag k="place" v="isolated_dwelling" />
		<tag k="ssr:stedsnr" v="49024" />
	</node>
	<node lat="63.67436944126062" lon="10.582752780096175" id="-39201">
		<tag k="name" v="Brannåsen" />
		<tag k="place" v="farm" />
		<tag k="ssr:stedsnr" v="49705" />
	</node>
	<node lat="63.70990833128277" lon="10.58049443868844" id="-39205">
		<tag k="historic" v="shieling" />
		<tag k="name" v="Finnbuan" />
		<tag k="place" v="isolated_dwelling" />
		<tag k="ssr:stedsnr" v="49601" />
	</node>
	<node lat="63.560136113939805" lon="10.091616660009468" id="-39230">
		<tag k="name" v="Gjerdet" />
		<tag k="place" v="farm" />
		<tag k="ssr:stedsnr" v="241320" />
	</node>
	<node lat="63.685727775958036" lon="10.620708341832222" id="-39243">
		<tag k="name" v="Rosvold vestre" />
		<tag k="place" v="farm" />
		<tag k="ssr:stedsnr" v="242989" />
	</node>
	<node lat="63.716152779387485" lon="10.662086104755899" id="-39246">
		<tag k="name" v="Myrheim" />
		<tag k="place" v="farm" />
		<tag k="ssr:stedsnr" v="73508" />
	</node>
	<node lat="63.718889410360305" lon="10.47119431616313" id="-39248">
		<tag k="historic" v="shieling" />
		<tag k="name" v="Høgåsen" />
		<tag k="place" v="isolated_dwelling" />
		<tag k="ssr:stedsnr" v="73514" />
	</node>
	<node lat="63.512424999698624" lon="10.037858328166024" id="-39249">
		<tag k="name" v="Neraunet" />
		<tag k="old_name" v="Nedreaunet" />
		<tag k="place" v="farm" />
		<tag k="ssr:stedsnr" v="73728" />
	</node>
	<node lat="63.60474721936473" lon="9.967047213015954" id="-39254">
		<tag k="name" v="Lia" />
		<tag k="place" v="farm" />
		<tag k="ssr:stedsnr" v="73963" />
	</node>
	<node lat="63.74984822913244" lon="10.04279453056958" id="-39258">
		<tag k="fixme" v="consider place=hamlet" />
		<tag k="name" v="Bjørkvika" />
		<tag k="place" v="farm" />
		<tag k="ssr:stedsnr" v="74172" />
	</node>
	<node lat="63.58184390218183" lon="10.415828722836121" id="-39259">
		<tag k="fixme" v="consider place=hamlet" />
		<tag k="name" v="Hågån" />
		<tag k="place" v="farm" />
		<tag k="ssr:stedsnr" v="74203" />
	</node>
	<node lat="63.62507561178767" lon="10.535028879420961" id="-39260">
		<tag k="name" v="Hoven" />
		<tag k="place" v="hamlet" />
		<tag k="ssr:stedsnr" v="74266" />
	</node>
	<node lat="63.62093333035365" lon="10.241261109952909" id="-39261">
		<tag k="name" v="Nordgjerdet" />
		<tag k="place" v="farm" />
		<tag k="ssr:stedsnr" v="74267" />
	</node>
	<node lat="63.70857222645476" lon="10.684736116864773" id="-39262">
		<tag k="name" v="Klokkarsetran" />
		<tag k="place" v="farm" />
		<tag k="ssr:stedsnr" v="74402" />
	</node>
	<node lat="63.693864654498924" lon="10.278825683732867" id="-39264">
		<tag k="fixme" v="consider place=hamlet" />
		<tag k="name" v="Skalmeråsen" />
		<tag k="place" v="farm" />
		<tag k="ssr:stedsnr" v="74409" />
	</node>
	<node lat="63.69966666281997" lon="10.707008334276553" id="-39265">
		<tag k="name" v="Rognlia" />
		<tag k="place" v="farm" />
		<tag k="ssr:stedsnr" v="74412" />
	</node>
	<node lat="63.697002774253875" lon="10.584269441657558" id="-39266">
		<tag k="alt_name" v="Haugsbakktrø" />
		<tag k="name" v="Haugsbakktrøa" />
		<tag k="place" v="farm" />
		<tag k="ssr:stedsnr" v="74415" />
	</node>
	<node lat="63.70937888038471" lon="10.635363998875388" id="-39267">
		<tag k="fixme" v="consider place=hamlet" />
		<tag k="name" v="Aunet" />
		<tag k="place" v="farm" />
		<tag k="ssr:stedsnr" v="74370" />
	</node>
	<node lat="63.580336130611165" lon="9.956809134898103" id="-39269">
		<tag k="name" v="Strømmen" />
		<tag k="place" v="farm" />
		<tag k="ssr:stedsnr" v="74508" />
	</node>
	<node lat="63.588072225671624" lon="10.1338333402187" id="-39270">
		<tag k="name" v="Nygård" />
		<tag k="place" v="farm" />
		<tag k="ssr:stedsnr" v="74554" />
	</node>
	<node lat="63.56015833057561" lon="10.186194445445732" id="-39271">
		<tag k="name" v="Balstadlia" />
		<tag k="place" v="farm" />
		<tag k="ssr:stedsnr" v="74563" />
	</node>
	<node lat="63.565113888840045" lon="10.139444438366807" id="-39272">
		<tag k="alt_name" v="Borgen" />
		<tag k="name" v="Borga" />
		<tag k="place" v="farm" />
		<tag k="ssr:stedsnr" v="74602" />
	</node>
	<node lat="63.54129721812536" lon="10.015652779056445" id="-39273">
		<tag k="name" v="Kjerkøymyran" />
		<tag k="place" v="farm" />
		<tag k="ssr:stedsnr" v="74665" />
	</node>
	<node lat="63.710316663245735" lon="9.99827222031563" id="-39275">
		<tag k="name" v="Dalen" />
		<tag k="place" v="farm" />
		<tag k="ssr:stedsnr" v="74756" />
	</node>
	<node lat="63.791880557329186" lon="10.536547226488972" id="-39287">
		<tag k="name" v="Brennfjellia" />
		<tag k="place" v="locality" />
		<tag k="ssr:stedsnr" v="89008" />
	</node>
	<node lat="63.77741389057555" lon="10.545172223659645" id="-39288">
		<tag k="historic" v="shieling" />
		<tag k="name" v="Vågaseteren" />
		<tag k="place" v="isolated_dwelling" />
		<tag k="ssr:stedsnr" v="89012" />
	</node>
	<node lat="63.59138333325976" lon="10.433413883557535" id="-39293">
		<tag k="name" v="Skålvika" />
		<tag k="place" v="farm" />
		<tag k="ssr:stedsnr" v="97212" />
	</node>
	<node lat="63.70739545560862" lon="9.973325242771212" id="-39296">
		<tag k="name" v="Selnes" />
		<tag k="place" v="hamlet" />
		<tag k="ssr:stedsnr" v="99305" />
	</node>
	<node lat="63.506447223249204" lon="9.992988883885733" id="-39300">
		<tag k="name" v="Utigarda" />
		<tag k="place" v="farm" />
		<tag k="ssr:stedsnr" v="99466" />
	</node>
	<node lat="63.530122222485545" lon="9.994613890800538" id="-39301">
		<tag k="name" v="Oksvoll" />
		<tag k="place" v="farm" />
		<tag k="ssr:stedsnr" v="99482" />
	</node>
	<node lat="63.704208334201915" lon="10.295472224294377" id="-39328">
		<tag k="name" v="Haugen" />
		<tag k="place" v="farm" />
		<tag k="ssr:stedsnr" v="103320" />
	</node>
	<node lat="63.71364444780296" lon="10.320497212624549" id="-39329">
		<tag k="name" v="Alset" />
		<tag k="place" v="farm" />
		<tag k="ssr:stedsnr" v="103322" />
	</node>
	<node lat="63.74818611487921" lon="10.412025000468644" id="-39330">
		<tag k="name" v="Tomasplassen" />
		<tag k="place" v="farm" />
		<tag k="ssr:stedsnr" v="103326" />
	</node>
	<node lat="63.66078889122254" lon="10.066552775297911" id="-39331">
		<tag k="name" v="Bakøysetra" />
		<tag k="place" v="isolated_dwelling" />
		<tag k="ssr:stedsnr" v="103331" />
	</node>
	<node lat="63.545322222879534" lon="9.924219451327406" id="-39333">
		<tag k="name" v="Fætten" />
		<tag k="place" v="farm" />
		<tag k="ssr:stedsnr" v="103475" />
	</node>
	<node lat="63.68299444831447" lon="9.87427223031094" id="-39334">
		<tag k="name" v="Flessen" />
		<tag k="place" v="farm" />
		<tag k="ssr:stedsnr" v="103482" />
	</node>
	<node lat="63.6507916652132" lon="9.846749996819634" id="-39335">
		<tag k="name" v="Røbakken" />
		<tag k="place" v="isolated_dwelling" />
		<tag k="ssr:stedsnr" v="103484" />
	</node>
	<node lat="63.67361666233912" lon="9.850247212067842" id="-39336">
		<tag k="name" v="Bakken" />
		<tag k="place" v="farm" />
		<tag k="ssr:stedsnr" v="103485" />
	</node>
	<node lat="63.57828611468348" lon="10.010833329605617" id="-39373">
		<tag k="alt_name" v="Sollia nordre" />
		<tag k="name" v="Nordre Sollia" />
		<tag k="place" v="farm" />
		<tag k="ssr:stedsnr" v="104612" />
	</node>
	<node lat="63.78299444550623" lon="10.24430277406723" id="-39374">
		<tag k="name" v="Fjøsneset" />
		<tag k="place" v="farm" />
		<tag k="ssr:stedsnr" v="104677" />
	</node>
	<node lat="63.66562072811529" lon="10.608578721922719" id="-39376">
		<tag k="alt_name" v="Grandan, ytre" />
		<tag k="name" v="Ytre Grandan" />
		<tag k="place" v="farm" />
		<tag k="ssr:stedsnr" v="105815" />
	</node>
	<node lat="63.67012222235939" lon="10.610669452236266" id="-39403">
		<tag k="name" v="Oppistu" />
		<tag k="place" v="farm" />
		<tag k="ssr:stedsnr" v="110703" />
	</node>
	<node lat="63.69252777764783" lon="10.53010278682773" id="-39406">
		<tag k="historic" v="shieling" />
		<tag k="name" v="Storlisetran" />
		<tag k="place" v="isolated_dwelling" />
		<tag k="ssr:stedsnr" v="110630" />
	</node>
	<node lat="63.58333889054855" lon="9.942280556497746" id="-39413">
		<tag k="alt_name" v="Sund nordre" />
		<tag k="name" v="Nordre Sund" />
		<tag k="place" v="farm" />
		<tag k="ssr:stedsnr" v="118174" />
	</node>
	<node lat="63.620150001828634" lon="10.13439722006223" id="-39419">
		<tag k="historic" v="shieling" />
		<tag k="name" v="Sniptåa" />
		<tag k="place" v="isolated_dwelling" />
		<tag k="ssr:stedsnr" v="119219" />
	</node>
	<node lat="63.49346944040746" lon="9.996861109421598" id="-39424">
		<tag k="name" v="Buheim" />
		<tag k="place" v="farm" />
		<tag k="ssr:stedsnr" v="134053" />
	</node>
	<node lat="63.49483366635382" lon="10.007593159248257" id="-39425">
		<tag k="fixme" v="consider place=hamlet" />
		<tag k="name" v="Fenstad" />
		<tag k="place" v="farm" />
		<tag k="ssr:stedsnr" v="134054" />
	</node>
	<node lat="63.49648777741939" lon="10.088191118876358" id="-39426">
		<tag k="fixme" v="consider place=hamlet" />
		<tag k="name" v="Trongen" />
		<tag k="place" v="farm" />
		<tag k="ssr:stedsnr" v="134065" />
	</node>
	<node lat="63.73129722635544" lon="10.34722222117308" id="-39430">
		<tag k="name" v="Skredheim" />
		<tag k="place" v="farm" />
		<tag k="ssr:stedsnr" v="134503" />
	</node>
	<node lat="63.72362777775032" lon="10.331186116993381" id="-39431">
		<tag k="alt_name" v="Sætervang" />
		<tag k="name" v="Setervang" />
		<tag k="place" v="farm" />
		<tag k="ssr:stedsnr" v="134505" />
	</node>
	<node lat="63.72881389076016" lon="10.59338056358799" id="-39432">
		<tag k="historic" v="shieling" />
		<tag k="name" v="Fossetran" />
		<tag k="place" v="isolated_dwelling" />
		<tag k="ssr:stedsnr" v="134509" />
	</node>
	<node lat="63.65611111444065" lon="10.269802770714138" id="-39435">
		<tag k="name" v="Rundhaugen" />
		<tag k="place" v="farm" />
		<tag k="ssr:stedsnr" v="134404" />
	</node>
	<node lat="63.65378889160286" lon="10.304622220785895" id="-39436">
		<tag k="name" v="Riaunet" />
		<tag k="place" v="farm" />
		<tag k="ssr:stedsnr" v="134408" />
	</node>
	<node lat="63.63206944708869" lon="9.84266944934515" id="-39442">
		<tag k="alt_name" v="Buøy" />
		<tag k="name" v="Buøya" />
		<tag k="place" v="farm" />
		<tag k="ssr:stedsnr" v="134915" />
	</node>
	<node lat="63.59317539663561" lon="10.014301675987074" id="-39443">
		<tag k="fixme" v="consider place=hamlet" />
		<tag k="name" v="Flyta" />
		<tag k="place" v="farm" />
		<tag k="ssr:stedsnr" v="134956" />
	</node>
	<node lat="63.66293055138964" lon="10.171430564911013" id="-39446">
		<tag k="name" v="Pallaunet" />
		<tag k="place" v="farm" />
		<tag k="ssr:stedsnr" v="134854" />
	</node>
	<node lat="63.66088888602821" lon="10.05845277723493" id="-39449">
		<tag k="alt_name" v="Roksetsetra" />
		<tag k="name" v="Roksetsetran" />
		<tag k="place" v="isolated_dwelling" />
		<tag k="ssr:stedsnr" v="134864" />
	</node>
	<node lat="63.70813888880524" lon="10.640791669706735" id="-39455">
		<tag k="name" v="Dalen" />
		<tag k="place" v="farm" />
		<tag k="ssr:stedsnr" v="255375" />
	</node>
	<node lat="63.708837360737625" lon="10.600761742451123" id="-39456">
		<tag k="name" v="Kruka" />
		<tag k="place" v="hamlet" />
		<tag k="ssr:stedsnr" v="255376" />
	</node>
	<node lat="63.54073404261883" lon="10.202279140959824" id="-39459">
		<tag k="fixme" v="consider place=hamlet" />
		<tag k="name" v="Breivika" />
		<tag k="place" v="farm" />
		<tag k="ssr:stedsnr" v="255701" />
	</node>
	<node lat="63.659965486065275" lon="10.163946426422852" id="-39462">
		<tag k="fixme" v="consider place=hamlet" />
		<tag k="name" v="Pallin" />
		<tag k="place" v="farm" />
		<tag k="ssr:stedsnr" v="255845" />
	</node>
	<node lat="63.498872219016086" lon="10.086608338622579" id="-39465">
		<tag k="name" v="Vålen" />
		<tag k="place" v="farm" />
		<tag k="ssr:stedsnr" v="256055" />
	</node>
	<node lat="63.720637041295745" lon="10.836634971688497" id="-39469">
		<tag k="name" v="Kammen" />
		<tag k="place" v="farm" />
		<tag k="ssr:stedsnr" v="256185" />
	</node>
	<node lat="63.57460683164898" lon="10.352488675132184" id="-39470">
		<tag k="fixme" v="consider place=hamlet" />
		<tag k="name" v="Steggavika" />
		<tag k="place" v="farm" />
		<tag k="ssr:stedsnr" v="256193" />
	</node>
	<node lat="63.57311111230441" lon="10.402083342623333" id="-39471">
		<tag k="fixme" v="consider place=hamlet" />
		<tag k="name" v="Seter" />
		<tag k="place" v="village" />
		<tag k="ssr:stedsnr" v="256196" />
	</node>
	<node lat="63.77319166232933" lon="10.484194443922124" id="-39475">
		<tag k="name" v="Ørsjødalen" />
		<tag k="place" v="hamlet" />
		<tag k="ssr:stedsnr" v="149010" />
	</node>
	<node lat="63.69999436057538" lon="10.713314471751335" id="-39481">
		<tag k="fixme" v="consider place=hamlet" />
		<tag k="name" v="Sellia" />
		<tag k="place" v="farm" />
		<tag k="ssr:stedsnr" v="256377" />
	</node>
	<node lat="63.787320352510854" lon="10.265075069049097" id="-39482">
		<tag k="loc_name" v="Litjlia" />
		<tag k="name" v="Litllia" />
		<tag k="place" v="farm" />
		<tag k="ssr:stedsnr" v="256378" />
	</node>
	<node lat="63.77988611000114" lon="10.502458336671106" id="-39484">
		<tag k="name" v="Buenget" />
		<tag k="place" v="isolated_dwelling" />
		<tag k="ssr:stedsnr" v="256388" />
	</node>
	<node lat="63.689263889295816" lon="10.676205560679021" id="-39485">
		<tag k="name" v="Talmoaunet" />
		<tag k="place" v="farm" />
		<tag k="ssr:stedsnr" v="256389" />
	</node>
	<node lat="63.68803458798649" lon="10.541207012875528" id="-39486">
		<tag k="alt_name" v="Buhaug" />
		<tag k="fixme" v="consider place=hamlet" />
		<tag k="name" v="Buhaugen" />
		<tag k="place" v="farm" />
		<tag k="ssr:stedsnr" v="256397" />
	</node>
	<node lat="63.73882500344033" lon="10.699988890622802" id="-39487">
		<tag k="historic" v="shieling" />
		<tag k="loc_name" v="Ramdalssetran" />
		<tag k="name" v="Prestslættåsen" />
		<tag k="place" v="isolated_dwelling" />
		<tag k="ssr:stedsnr" v="256399" />
	</node>
	<node lat="63.67030400449288" lon="10.585871713136351" id="-39491">
		<tag k="alt_name" v="Oksås" />
		<tag k="fixme" v="consider place=hamlet" />
		<tag k="name" v="Oksåsen" />
		<tag k="place" v="farm" />
		<tag k="ssr:stedsnr" v="256322" />
	</node>
	<node lat="63.66909328609528" lon="10.611174976400033" id="-39492">
		<tag k="alt_name" v="Grande" />
		<tag k="name" v="Grandan" />
		<tag k="place" v="hamlet" />
		<tag k="ssr:stedsnr" v="256324" />
	</node>
	<node lat="63.673755553657664" lon="10.63479999796566" id="-39493">
		<tag k="fixme" v="consider place=suburb, village or hamlet" />
		<tag k="name" v="Kroa" />
		<tag k="place" v="quarter" />
		<tag k="ssr:stedsnr" v="256325" />
	</node>
	<node lat="63.698279978824964" lon="10.531442464592196" id="-39494">
		<tag k="historic" v="shieling" />
		<tag k="name" v="Langåssetran" />
		<tag k="place" v="isolated_dwelling" />
		<tag k="ssr:stedsnr" v="256356" />
	</node>
	<node lat="63.55618611230896" lon="9.952980546287051" id="-39495">
		<tag k="name" v="Fossan" />
		<tag k="place" v="farm" />
		<tag k="ssr:stedsnr" v="256581" />
	</node>
	<node lat="63.58905278067311" lon="10.048508339612013" id="-39496">
		<tag k="name" v="Neslia" />
		<tag k="place" v="farm" />
		<tag k="ssr:stedsnr" v="256518" />
	</node>
	<node lat="63.52330277577919" lon="10.037752772880435" id="-39500">
		<tag k="name" v="Bæling" />
		<tag k="place" v="farm" />
		<tag k="ssr:stedsnr" v="256626" />
	</node>
	<node lat="63.55730123444067" lon="9.995660919904257" id="-39501">
		<tag k="fixme" v="consider place=hamlet" />
		<tag k="name" v="Lefætten" />
		<tag k="place" v="farm" />
		<tag k="ssr:stedsnr" v="256590" />
	</node>
	<node lat="63.74848055271137" lon="10.412408326784515" id="-39505">
		<tag k="name" v="Brannås" />
		<tag k="place" v="farm" />
		<tag k="ssr:stedsnr" v="256670" />
	</node>
	<node lat="63.67404999795699" lon="10.190261113961078" id="-39507">
		<tag k="name" v="Staursetsetra" />
		<tag k="place" v="locality" />
		<tag k="ssr:stedsnr" v="256822" />
	</node>
	<node lat="63.69215277969225" lon="9.898591663799154" id="-39512">
		<tag k="alt_name" v="Nygården" />
		<tag k="name" v="Nyjord" />
		<tag k="place" v="farm" />
		<tag k="ssr:stedsnr" v="256738" />
	</node>
	<node lat="63.59154722525302" lon="9.930719452934483" id="-39513">
		<tag k="loc_name" v="Vangsflata" />
		<tag k="name" v="Vangsflaten" />
		<tag k="place" v="farm" />
		<tag k="ssr:stedsnr" v="256923" />
	</node>
	<node lat="63.59811666972759" lon="10.00455554686676" id="-39514">
		<tag k="name" v="Flytsandan" />
		<tag k="old_name" v="Flyta nordre;Nordre Flyta" />
		<tag k="place" v="farm" />
		<tag k="ssr:stedsnr" v="256933" />
	</node>
	<node lat="63.619291670660225" lon="10.02462778020639" id="-39516">
		<tag k="name" v="Solemsdal" />
		<tag k="place" v="farm" />
		<tag k="ssr:stedsnr" v="256993" />
	</node>
	<node lat="63.76702777753306" lon="10.623825002836659" id="-39517">
		<tag k="name" v="Gangstadaunet" />
		<tag k="place" v="farm" />
		<tag k="ssr:stedsnr" v="257430" />
	</node>
	<node lat="63.75947500224945" lon="10.454091665925171" id="-39518">
		<tag k="name" v="Brubakk" />
		<tag k="place" v="farm" />
		<tag k="ssr:stedsnr" v="257445" />
	</node>
	<node lat="63.77402003486901" lon="10.483290813322679" id="-39520">
		<tag k="name" v="Midtre Ørsjødalen" />
		<tag k="place" v="farm" />
		<tag k="ssr:stedsnr" v="257485" />
	</node>
	<node lat="63.773085079275596" lon="10.481261791831342" id="-39521">
		<tag k="name" v="Vestre Ørsjødalen" />
		<tag k="place" v="farm" />
		<tag k="ssr:stedsnr" v="257487" />
	</node>
	<node lat="63.56616944723649" lon="9.992466668850964" id="-39524">
		<tag k="name" v="Trøa" />
		<tag k="place" v="farm" />
		<tag k="ssr:stedsnr" v="159412" />
	</node>
	<node lat="63.5168555590671" lon="10.038672217671637" id="-39525">
		<tag k="name" v="Bæling" />
		<tag k="place" v="farm" />
		<tag k="ssr:stedsnr" v="159420" />
	</node>
	<node lat="63.51279722051612" lon="10.019383336413002" id="-39527">
		<tag k="name" v="Tung" />
		<tag k="place" v="farm" />
		<tag k="ssr:stedsnr" v="159520" />
	</node>
	<node lat="63.55673333100314" lon="9.942086113386056" id="-39538">
		<tag k="name" v="Rabben" />
		<tag k="place" v="farm" />
		<tag k="ssr:stedsnr" v="163410" />
	</node>
	<node lat="63.550126299728504" lon="9.92302089076884" id="-39539">
		<tag k="alt_name" v="Myran nedre" />
		<tag k="name" v="Nedre Myran" />
		<tag k="place" v="farm" />
		<tag k="ssr:stedsnr" v="163414" />
	</node>
	<node lat="63.70302499733422" lon="10.331099999537406" id="-39578">
		<tag k="historic" v="shieling" />
		<tag k="name" v="Henriksetra" />
		<tag k="place" v="isolated_dwelling" />
		<tag k="ssr:stedsnr" v="164378" />
	</node>
	<node lat="63.7512277822203" lon="10.41728055550793" id="-39579">
		<tag k="name" v="Steffenplassen" />
		<tag k="place" v="farm" />
		<tag k="ssr:stedsnr" v="164383" />
	</node>
	<node lat="63.504686111662785" lon="10.107605561628182" id="-39580">
		<tag k="name" v="Trongsetra" />
		<tag k="place" v="farm" />
		<tag k="ssr:stedsnr" v="164471" />
	</node>
	<node lat="63.52724721817929" lon="10.088066670344743" id="-39581">
		<tag k="name" v="Hafella" />
		<tag k="place" v="farm" />
		<tag k="ssr:stedsnr" v="164472" />
	</node>
	<node lat="63.586225000593565" lon="10.0787611123112" id="-39582">
		<tag k="name" v="Slættet" />
		<tag k="place" v="farm" />
		<tag k="ssr:stedsnr" v="164663" />
	</node>
	<node lat="63.58630000412089" lon="10.095338898908237" id="-39583">
		<tag k="name" v="Østpå" />
		<tag k="place" v="farm" />
		<tag k="ssr:stedsnr" v="164665" />
	</node>
	<node lat="63.65200555193033" lon="9.882588882873748" id="-39585">
		<tag k="name" v="Sve" />
		<tag k="place" v="farm" />
		<tag k="ssr:stedsnr" v="164681" />
	</node>
	<node lat="63.61242778077935" lon="10.126733335836445" id="-39590">
		<tag k="name" v="Skogheim" />
		<tag k="place" v="farm" />
		<tag k="ssr:stedsnr" v="164715" />
	</node>
	<node lat="63.775858337619646" lon="10.644536118972537" id="-39592">
		<tag k="name" v="Fjellheim" />
		<tag k="place" v="farm" />
		<tag k="ssr:stedsnr" v="168410" />
	</node>
	<node lat="63.57509167043665" lon="10.40144722498409" id="-39602">
		<tag k="name" v="Ytterskalen" />
		<tag k="place" v="farm" />
		<tag k="ssr:stedsnr" v="170007" />
	</node>
	<node lat="63.67668055584587" lon="10.644955560079605" id="-39620">
		<tag k="name" v="Ner-Viktil" />
		<tag k="place" v="farm" />
		<tag k="ssr:stedsnr" v="261667" />
	</node>
	<node lat="63.73309444687245" lon="10.019958329015598" id="-39622">
		<tag k="name" v="Holsundet hytteområde" />
		<tag k="place" v="neighbourhood" />
		<tag k="ssr:stedsnr" v="178767" />
	</node>
	<node lat="63.756580552047694" lon="10.07999444323373" id="-39623">
		<tag k="name" v="Djupvikhaugen hyttefelt" />
		<tag k="place" v="neighbourhood" />
		<tag k="ssr:stedsnr" v="178768" />
	</node>
	<node lat="63.74736388943392" lon="10.11036388197078" id="-39625">
		<tag k="name" v="Husbysjøen" />
		<tag k="place" v="quarter" />
		<tag k="ssr:stedsnr" v="179308" />
	</node>
	<node lat="63.62510833736125" lon="9.83881389226768" id="-39627">
		<tag k="fixme" v="multiple name tags, choose one and add the other to alt_name" />
		<tag k="name" v="Hybo;Hasselvika" />
		<tag k="place" v="quarter" />
		<tag k="ssr:stedsnr" v="179758" />
	</node>
	<node lat="63.73135555383744" lon="10.68416945291696" id="-39629">
		<tag k="name" v="Vestre Gåsvatnet hyttefelt" />
		<tag k="place" v="neighbourhood" />
		<tag k="ssr:stedsnr" v="180273" />
	</node>
	<node lat="63.61488333628348" lon="10.327611114110448" id="-39639">
		<tag k="historic" v="shieling" />
		<tag k="name" v="Setersetran" />
		<tag k="place" v="isolated_dwelling" />
		<tag k="ssr:stedsnr" v="195338" />
	</node>
	<node lat="63.56125555991723" lon="10.1704138956605" id="-39643">
		<tag k="name" v="Fagerbakken" />
		<tag k="place" v="farm" />
		<tag k="ssr:stedsnr" v="195581" />
	</node>
	<node lat="63.55253888936641" lon="9.938327767834444" id="-39644">
		<tag k="name" v="Åslund" />
		<tag k="place" v="farm" />
		<tag k="ssr:stedsnr" v="195587" />
	</node>
	<node lat="63.70100555638366" lon="10.594002770293823" id="-39647">
		<tag k="name" v="Haugan" />
		<tag k="place" v="farm" />
		<tag k="ssr:stedsnr" v="195438" />
	</node>
	<node lat="63.73167222601278" lon="10.698466670772882" id="-39650">
		<tag k="alt_name" v="Reinaseter" />
		<tag k="fixme" v="multiple name tags, choose one and add the other to alt_name" />
		<tag k="historic" v="shieling" />
		<tag k="loc_name" v="Reinasetran" />
		<tag k="name" v="Dalssetra;Reinasetra" />
		<tag k="place" v="isolated_dwelling" />
		<tag k="ssr:stedsnr" v="195484" />
	</node>
	<node lat="63.73161944138002" lon="10.543405550995185" id="-39651">
		<tag k="fixme" v="multiple name tags, choose one and add the other to alt_name" />
		<tag k="historic" v="shieling" />
		<tag k="name" v="Sjursslættet;Svetrøseter" />
		<tag k="old_name" v="Svetrøsætra" />
		<tag k="place" v="isolated_dwelling" />
		<tag k="ssr:stedsnr" v="195491" />
	</node>
	<node lat="63.71873333007398" lon="10.349825006328302" id="-39653">
		<tag k="name" v="Åsheim" />
		<tag k="place" v="farm" />
		<tag k="ssr:stedsnr" v="195499" />
	</node>
	<node lat="63.51854627024947" lon="9.96604026501723" id="-39654">
		<tag k="fixme" v="consider place=hamlet" />
		<tag k="name" v="Helset" />
		<tag k="place" v="farm" />
		<tag k="ssr:stedsnr" v="195633" />
	</node>
	<node lat="63.64220833028012" lon="10.148952785968568" id="-39658">
		<tag k="name" v="Rotås" />
		<tag k="place" v="farm" />
		<tag k="ssr:stedsnr" v="195905" />
	</node>
	<node lat="63.558007716701276" lon="9.910389376788691" id="-39660">
		<tag k="fixme" v="consider place=hamlet" />
		<tag k="name" v="Kvithylla" />
		<tag k="place" v="farm" />
		<tag k="ssr:stedsnr" v="203034" />
	</node>
	<node lat="63.60899444850428" lon="10.212930549464085" id="-39661">
		<tag k="name" v="Kjerkneset" />
		<tag k="place" v="farm" />
		<tag k="ssr:stedsnr" v="205052" />
	</node>
	<node lat="63.755630551803236" lon="10.474155564071477" id="-39668">
		<tag k="historic" v="shieling" />
		<tag k="name" v="Laupheimen" />
		<tag k="place" v="isolated_dwelling" />
		<tag k="ssr:stedsnr" v="210256" />
	</node>
	<node lat="63.65336666409083" lon="9.85087499803793" id="-39671">
		<tag k="name" v="Indre Hasselvollen" />
		<tag k="place" v="farm" />
		<tag k="ssr:stedsnr" v="214929" />
	</node>
	<node lat="63.645775001823026" lon="9.868822222352755" id="-39676">
		<tag k="name" v="Løssestu" />
		<tag k="place" v="farm" />
		<tag k="ssr:stedsnr" v="220517" />
	</node>
	<node lat="63.57412777836659" lon="9.987452768386257" id="-39677">
		<tag k="name" v="Nordgjerdet" />
		<tag k="place" v="farm" />
		<tag k="ssr:stedsnr" v="220424" />
	</node>
	<node lat="63.60174444491518" lon="9.955141671983977" id="-39678">
		<tag k="name" v="Haugen" />
		<tag k="place" v="farm" />
		<tag k="ssr:stedsnr" v="220425" />
	</node>
	<node lat="63.79824722302019" lon="10.56706388217869" id="-39681">
		<tag k="alt_name" v="Hestli" />
		<tag k="name" v="Hestlia" />
		<tag k="place" v="farm" />
		<tag k="ssr:stedsnr" v="271034" />
	</node>
	<node lat="63.77091388611993" lon="10.481086102992155" id="-39692">
		<tag k="name" v="Sandvoll" />
		<tag k="place" v="farm" />
		<tag k="ssr:stedsnr" v="271258" />
	</node>
	<node lat="63.696161112980406" lon="10.28032777499908" id="-39697">
		<tag k="name" v="Skalmerås" />
		<tag k="place" v="farm" />
		<tag k="ssr:stedsnr" v="224418" />
	</node>
	<node lat="63.548691666303704" lon="9.9266777790763" id="-39698">
		<tag k="alt_name" v="Rønning ytre" />
		<tag k="name" v="Ytre Rønning" />
		<tag k="place" v="farm" />
		<tag k="ssr:stedsnr" v="224437" />
	</node>
	<node lat="63.78328333082881" lon="10.133749992972417" id="-39741">
		<tag k="historic" v="shieling" />
		<tag k="name" v="Innerråksetra" />
		<tag k="place" v="isolated_dwelling" />
		<tag k="ssr:stedsnr" v="225705" />
	</node>
	<node lat="63.65298611356904" lon="9.94332499686544" id="-39742">
		<tag k="historic" v="shieling" />
		<tag k="name" v="Hasselsetra" />
		<tag k="place" v="isolated_dwelling" />
		<tag k="ssr:stedsnr" v="225618" />
	</node>
	<node lat="63.646227779626244" lon="9.990786116405689" id="-39743">
		<tag k="historic" v="shieling" />
		<tag k="name" v="Vollasetra" />
		<tag k="place" v="isolated_dwelling" />
		<tag k="ssr:stedsnr" v="225620" />
	</node>
	<node lat="63.605038892523154" lon="10.222211109431894" id="-39761">
		<tag k="name" v="Furuhaugen" />
		<tag k="place" v="isolated_dwelling" />
		<tag k="ssr:stedsnr" v="231307" />
	</node>
	<node lat="63.51076666747658" lon="10.020591658956082" id="-39773">
		<tag k="name" v="Pertrøa" />
		<tag k="place" v="quarter" />
		<tag k="ssr:stedsnr" v="239188" />
	</node>
	<node lat="63.59368333604644" lon="10.138747222248442" id="-39778">
		<tag k="name" v="Vargurda hyttefelt" />
		<tag k="place" v="neighbourhood" />
		<tag k="ssr:stedsnr" v="239811" />
	</node>
	<node lat="63.68137777568118" lon="10.611502779692252" id="-39784">
		<tag k="name" v="Lillehaug" />
		<tag k="place" v="quarter" />
		<tag k="ssr:stedsnr" v="241481" />
	</node>
	<node lat="63.6639722254729" lon="10.609180559595593" id="-39789">
		<tag k="fixme" v="consider natural=beach + surface=sand" />
		<tag k="leisure" v="swimming_area" />
		<tag k="name" v="Grandfjæra friområde" />
		<tag k="place" v="locality" />
		<tag k="ssr:stedsnr" v="451439" />
	</node>
	<node lat="63.51471462810517" lon="10.03538985780679" id="-39791">
		<tag k="name" v="Auna" />
		<tag k="place" v="hamlet" />
		<tag k="ssr:stedsnr" v="452760" />
	</node>
	<node lat="63.80133611196277" lon="10.579444448564475" id="-39792">
		<tag k="name" v="Fineshaugen" />
		<tag k="place" v="farm" />
		<tag k="ssr:stedsnr" v="453030" />
	</node>
	<node lat="63.714361109668985" lon="10.333463888560741" id="-39797">
		<tag k="name" v="Alsetaunet" />
		<tag k="place" v="farm" />
		<tag k="ssr:stedsnr" v="255470" />
	</node>
	<node lat="63.71332777597461" lon="10.604897228081205" id="-39799">
		<tag k="name" v="Åsen" />
		<tag k="place" v="farm" />
		<tag k="ssr:stedsnr" v="255482" />
	</node>
	<node lat="63.716894444248496" lon="10.637452776530473" id="-39800">
		<tag k="name" v="Nordre Brannåstrøa" />
		<tag k="place" v="farm" />
		<tag k="ssr:stedsnr" v="255484" />
	</node>
	<node lat="63.504277777834" lon="10.036438882684676" id="-39804">
		<tag k="name" v="Reinkinn" />
		<tag k="place" v="farm" />
		<tag k="ssr:stedsnr" v="255707" />
	</node>
	<node lat="63.506022220294675" lon="10.026155560882462" id="-39805">
		<tag k="name" v="Halten" />
		<tag k="place" v="farm" />
		<tag k="ssr:stedsnr" v="255717" />
	</node>
	<node lat="63.5433055571112" lon="10.058255560906336" id="-39807">
		<tag k="name" v="Nordset" />
		<tag k="place" v="farm" />
		<tag k="ssr:stedsnr" v="255674" />
	</node>
	<node lat="63.544888892134985" lon="9.92801665907486" id="-39809">
		<tag k="name" v="Skardet" />
		<tag k="place" v="farm" />
		<tag k="ssr:stedsnr" v="255678" />
	</node>
	<node lat="63.60214722515268" lon="9.978408323821549" id="-39813">
		<tag k="name" v="Nordli" />
		<tag k="place" v="farm" />
		<tag k="ssr:stedsnr" v="255966" />
	</node>
	<node lat="63.48810277584546" lon="9.99179444749556" id="-39815">
		<tag k="name" v="Søreng" />
		<tag k="place" v="farm" />
		<tag k="ssr:stedsnr" v="256060" />
	</node>
	<node lat="63.740766244746816" lon="10.060282188386044" id="-39818">
		<tag k="fixme" v="consider place=hamlet" />
		<tag k="name" v="Pevika" />
		<tag k="place" v="farm" />
		<tag k="ssr:stedsnr" v="256216" />
	</node>
	<node lat="63.728816667300414" lon="10.139463886289843" id="-39819">
		<tag k="name" v="Vikasetra" />
		<tag k="place" v="isolated_dwelling" />
		<tag k="ssr:stedsnr" v="256222" />
	</node>
	<node lat="63.713130554730434" lon="10.78041387877945" id="-39821">
		<tag k="name" v="Myrenget" />
		<tag k="place" v="farm" />
		<tag k="ssr:stedsnr" v="256169" />
	</node>
	<node lat="63.680675003133715" lon="10.353694436456417" id="-39824">
		<tag k="alt_name" v="Ramsli seter" />
		<tag k="historic" v="shieling" />
		<tag k="loc_name" v="Ramsli setran" />
		<tag k="name" v="Ramslia" />
		<tag k="place" v="isolated_dwelling" />
		<tag k="ssr:stedsnr" v="256302" />
	</node>
	<node lat="63.74601388948929" lon="10.626266673558193" id="-39829">
		<tag k="historic" v="shieling" />
		<tag k="name" v="Røstadsetran" />
		<tag k="place" v="isolated_dwelling" />
		<tag k="ssr:stedsnr" v="256409" />
	</node>
	<node lat="63.522425000576014" lon="9.941441666050475" id="-39831">
		<tag k="name" v="Nyrø" />
		<tag k="place" v="farm" />
		<tag k="ssr:stedsnr" v="256605" />
	</node>
	<node lat="63.52938419639162" lon="10.092313171766444" id="-39832">
		<tag k="fixme" v="consider place=hamlet" />
		<tag k="name" v="Tørstad" />
		<tag k="place" v="farm" />
		<tag k="ssr:stedsnr" v="256614" />
	</node>
	<node lat="63.59606219842953" lon="10.047030221805327" id="-39833">
		<tag k="fixme" v="consider place=hamlet" />
		<tag k="name" v="Åsen" />
		<tag k="place" v="farm" />
		<tag k="ssr:stedsnr" v="256503" />
	</node>
	<node lat="63.58939166594913" lon="9.930194442919214" id="-39834">
		<tag k="alt_name" v="Vangen, austre;Vestre Vangen;Vangen" />
		<tag k="name" v="Austre Vangen" />
		<tag k="place" v="farm" />
		<tag k="ssr:stedsnr" v="256506" />
	</node>
	<node lat="63.558202773584746" lon="9.93821387936225" id="-39836">
		<tag k="name" v="Fagerheim" />
		<tag k="place" v="farm" />
		<tag k="ssr:stedsnr" v="256578" />
	</node>
	<node lat="63.60692222455378" lon="10.086127778136655" id="-39845">
		<tag k="name" v="Holten" />
		<tag k="place" v="farm" />
		<tag k="ssr:stedsnr" v="256956" />
	</node>
	<node lat="63.583677779145724" lon="9.95988610781187" id="-39847">
		<tag k="name" v="Rissa" />
		<tag k="place" v="village" />
		<tag k="ssr:stedsnr" v="264688" />
	</node>
	<node lat="63.56373611180804" lon="10.034755557530843" id="-39859">
		<tag k="fixme" v="consider place=hamlet" />
		<tag k="name" v="Jonslia" />
		<tag k="place" v="farm" />
		<tag k="ssr:stedsnr" v="281323" />
	</node>
	<node lat="63.60024444200822" lon="9.956736114860542" id="-39860">
		<tag k="name" v="Arnstun" />
		<tag k="place" v="farm" />
		<tag k="ssr:stedsnr" v="281405" />
	</node>
	<node lat="63.52792778092486" lon="10.045038897534274" id="-39861">
		<tag k="fixme" v="consider place=hamlet" />
		<tag k="name" v="Håggåmoen" />
		<tag k="place" v="farm" />
		<tag k="ssr:stedsnr" v="281410" />
	</node>
	<node lat="63.497730558900415" lon="10.090236114717873" id="-39862">
		<tag k="name" v="Tronghaugen" />
		<tag k="place" v="farm" />
		<tag k="ssr:stedsnr" v="281424" />
	</node>
	<node lat="63.519841667920666" lon="9.987983328419189" id="-39863">
		<tag k="name" v="Bliksåssanden" />
		<tag k="place" v="farm" />
		<tag k="ssr:stedsnr" v="281502" />
	</node>
	<node lat="63.50013332937868" lon="10.0241527681464" id="-39864">
		<tag k="fixme" v="consider place=hamlet" />
		<tag k="name" v="Myr" />
		<tag k="place" v="farm" />
		<tag k="ssr:stedsnr" v="281511" />
	</node>
	<node lat="63.74242500066316" lon="10.561138879384004" id="-39873">
		<tag k="name" v="Blankheia hyttefelt" />
		<tag k="place" v="neighbourhood" />
		<tag k="ssr:stedsnr" v="283222" />
	</node>
	<node lat="63.49867500154627" lon="10.094583343327333" id="-39896">
		<tag k="name" v="Håkkåstun" />
		<tag k="place" v="farm" />
		<tag k="ssr:stedsnr" v="285403" />
	</node>
	<node lat="63.54646111096943" lon="10.105672222001514" id="-39939">
		<tag k="name" v="Østigard" />
		<tag k="place" v="farm" />
		<tag k="ssr:stedsnr" v="286614" />
	</node>
	<node lat="63.6172194488117" lon="10.087805554220342" id="-39943">
		<tag k="name" v="Groven" />
		<tag k="place" v="farm" />
		<tag k="ssr:stedsnr" v="286691" />
	</node>
	<node lat="63.6481055556406" lon="10.407688880126488" id="-39952">
		<tag k="historic" v="shieling" />
		<tag k="name" v="Hallartufta" />
		<tag k="old_name" v="Haraldtufta" />
		<tag k="place" v="isolated_dwelling" />
		<tag k="ssr:stedsnr" v="290080" />
	</node>
	<node lat="63.756394448866864" lon="10.622200002050274" id="-39953">
		<tag k="historic" v="shieling" />
		<tag k="name" v="Undsellisetra" />
		<tag k="place" v="isolated_dwelling" />
		<tag k="ssr:stedsnr" v="290232" />
	</node>
	<node lat="63.649250003944964" lon="10.508516668204736" id="-39956">
		<tag k="historic" v="shieling" />
		<tag k="name" v="Koppreitsetran" />
		<tag k="place" v="isolated_dwelling" />
		<tag k="ssr:stedsnr" v="290128" />
	</node>
	<node lat="63.504194442986126" lon="10.063494453297288" id="-39974">
		<tag k="name" v="Myrvang" />
		<tag k="place" v="farm" />
		<tag k="ssr:stedsnr" v="463461" />
	</node>
	<node lat="63.52279166385103" lon="10.001311116173772" id="-39975">
		<tag k="name" v="Utigarda" />
		<tag k="place" v="farm" />
		<tag k="ssr:stedsnr" v="463464" />
	</node>
	<node lat="63.714436107635734" lon="10.010099998614951" id="-39977">
		<tag k="name" v="Revlia" />
		<tag k="place" v="isolated_dwelling" />
		<tag k="ssr:stedsnr" v="463282" />
	</node>
	<node lat="63.573619026652324" lon="9.995057052243574" id="-39979">
		<tag k="fixme" v="consider place=hamlet" />
		<tag k="name" v="Berg" />
		<tag k="place" v="farm" />
		<tag k="ssr:stedsnr" v="463355" />
	</node>
	<node lat="63.5151333317386" lon="10.023786112898868" id="-39980">
		<tag k="alt_name" v="Kasset  øvre" />
		<tag k="name" v="Øvre Kasset" />
		<tag k="place" v="farm" />
		<tag k="ssr:stedsnr" v="463366" />
	</node>
	<node lat="63.5043222184394" lon="10.077650004661617" id="-39981">
		<tag k="name" v="Brannmyra" />
		<tag k="place" v="farm" />
		<tag k="ssr:stedsnr" v="463375" />
	</node>
	<node lat="63.49934722070035" lon="9.992186112579331" id="-39982">
		<tag k="name" v="Buan" />
		<tag k="place" v="farm" />
		<tag k="ssr:stedsnr" v="463442" />
	</node>
	<node lat="63.50123333454923" lon="10.00882499134585" id="-39983">
		<tag k="name" v="Bjørklund" />
		<tag k="place" v="farm" />
		<tag k="ssr:stedsnr" v="463449" />
	</node>
	<node lat="63.49479166941796" lon="10.019505556684347" id="-39984">
		<tag k="name" v="Øra" />
		<tag k="place" v="farm" />
		<tag k="ssr:stedsnr" v="463475" />
	</node>
	<node lat="63.72792555748109" lon="10.003970359406336" id="-39985">
		<tag k="fixme" v="consider place=hamlet" />
		<tag k="name" v="Harøya" />
		<tag k="place" v="farm" />
		<tag k="ssr:stedsnr" v="300332" />
	</node>
	<node lat="63.589169443251855" lon="9.92734445244156" id="-39987">
		<tag k="name" v="Vangsflata" />
		<tag k="place" v="quarter" />
		<tag k="ssr:stedsnr" v="300773" />
	</node>
	<node lat="63.7193722231311" lon="10.805630548047786" id="-40046">
		<tag k="name" v="Holmsetran" />
		<tag k="place" v="farm" />
		<tag k="ssr:stedsnr" v="316204" />
	</node>
	<node lat="63.66092420530049" lon="10.599942490013309" id="-40049">
		<tag k="fixme" v="consider place=hamlet" />
		<tag k="name" v="Skjerset" />
		<tag k="place" v="farm" />
		<tag k="ssr:stedsnr" v="316415" />
	</node>
	<node lat="63.6565324690425" lon="10.323625682981323" id="-40050">
		<tag k="fixme" v="consider place=hamlet" />
		<tag k="name" v="Rian" />
		<tag k="place" v="farm" />
		<tag k="ssr:stedsnr" v="316418" />
	</node>
	<node lat="63.59048610683119" lon="10.423249990698201" id="-40054">
		<tag k="alt_name" v="Hindrem, øvre" />
		<tag k="fixme" v="multiple name tags, choose one and add the other to alt_name" />
		<tag k="name" v="Ellingstu;Øvre Hindrem" />
		<tag k="place" v="farm" />
		<tag k="ssr:stedsnr" v="316349" />
	</node>
	<node lat="63.726971642492984" lon="10.367416068538253" id="-40057">
		<tag k="alt_name" v="Finnli" />
		<tag k="fixme" v="consider place=hamlet" />
		<tag k="name" v="Finnlian" />
		<tag k="place" v="farm" />
		<tag k="ssr:stedsnr" v="316519" />
	</node>
	<node lat="63.7780333349063" lon="10.105197227638222" id="-40058">
		<tag k="name" v="Berget" />
		<tag k="place" v="farm" />
		<tag k="ssr:stedsnr" v="467435" />
	</node>
	<node lat="63.75873611112095" lon="10.1553833261412" id="-40059">
		<tag k="name" v="Moholt" />
		<tag k="place" v="farm" />
		<tag k="ssr:stedsnr" v="467439" />
	</node>
	<node lat="63.75221944740701" lon="10.141333337558747" id="-40060">
		<tag k="name" v="Haugen" />
		<tag k="place" v="farm" />
		<tag k="ssr:stedsnr" v="467440" />
	</node>
	<node lat="63.55846388814623" lon="10.101494452827625" id="-40062">
		<tag k="name" v="Hermstad" />
		<tag k="place" v="farm" />
		<tag k="ssr:stedsnr" v="316611" />
	</node>
	<node lat="63.55921666611896" lon="9.913263893549493" id="-40063">
		<tag k="alt_name" v="Rognhaugen" />
		<tag k="name" v="Rognhaug" />
		<tag k="place" v="farm" />
		<tag k="ssr:stedsnr" v="316654" />
	</node>
	<node lat="63.559013889301966" lon="9.942044448239129" id="-40064">
		<tag k="name" v="Fessaunet" />
		<tag k="place" v="farm" />
		<tag k="ssr:stedsnr" v="316655" />
	</node>
	<node lat="63.52329177063338" lon="10.005098247818314" id="-40067">
		<tag k="fixme" v="consider place=hamlet" />
		<tag k="name" v="Foss" />
		<tag k="place" v="farm" />
		<tag k="ssr:stedsnr" v="316701" />
	</node>
	<node lat="63.68771944489933" lon="10.249516675853112" id="-40068">
		<tag k="name" v="Haugen" />
		<tag k="place" v="farm" />
		<tag k="ssr:stedsnr" v="467453" />
	</node>
	<node lat="63.68777499834722" lon="10.255638895896261" id="-40069">
		<tag k="name" v="Flataunet" />
		<tag k="place" v="farm" />
		<tag k="ssr:stedsnr" v="467455" />
	</node>
	<node lat="63.650352779007704" lon="10.136897225634147" id="-40070">
		<tag k="name" v="Dælitrøa" />
		<tag k="place" v="farm" />
		<tag k="ssr:stedsnr" v="467459" />
	</node>
	<node lat="63.8307194467093" lon="10.227663887127505" id="-40071">
		<tag k="name" v="Nordset" />
		<tag k="place" v="farm" />
		<tag k="ssr:stedsnr" v="316552" />
	</node>
	<node lat="63.533066668516824" lon="9.93083055737058" id="-40075">
		<tag k="name" v="Haugen" />
		<tag k="place" v="farm" />
		<tag k="ssr:stedsnr" v="316716" />
	</node>
	<node lat="63.50454444276225" lon="10.017841657739885" id="-40076">
		<tag k="name" v="Midtland" />
		<tag k="place" v="farm" />
		<tag k="ssr:stedsnr" v="316744" />
	</node>
	<node lat="63.51175277430046" lon="10.026541667242808" id="-40077">
		<tag k="name" v="Sandtrøa" />
		<tag k="place" v="farm" />
		<tag k="ssr:stedsnr" v="316760" />
	</node>
	<node lat="63.67353611493233" lon="9.845313894326663" id="-40078">
		<tag k="name" v="Brannan" />
		<tag k="place" v="farm" />
		<tag k="ssr:stedsnr" v="316908" />
	</node>
	<node lat="63.67902778049204" lon="9.866572229257317" id="-40079">
		<tag k="name" v="Øra" />
		<tag k="place" v="farm" />
		<tag k="ssr:stedsnr" v="467481" />
	</node>
	<node lat="63.68216944120247" lon="9.852127786986577" id="-40080">
		<tag k="name" v="Nergård" />
		<tag k="place" v="farm" />
		<tag k="ssr:stedsnr" v="467499" />
	</node>
	<node lat="63.644516666313095" lon="9.870133325222941" id="-40085">
		<tag k="name" v="Lian" />
		<tag k="place" v="farm" />
		<tag k="ssr:stedsnr" v="316952" />
	</node>
	<node lat="63.632027777136145" lon="9.900494452148061" id="-40099">
		<tag k="name" v="Kolhytta" />
		<tag k="place" v="isolated_dwelling" />
		<tag k="ssr:stedsnr" v="467627" />
	</node>
	<node lat="63.614397222511" lon="9.827255554481665" id="-40100">
		<tag k="name" v="Øra" />
		<tag k="place" v="farm" />
		<tag k="ssr:stedsnr" v="467629" />
	</node>
	<node lat="63.79270833062302" lon="10.54993332572378" id="-40101">
		<tag k="name" v="Øvre Tangstad" />
		<tag k="place" v="farm" />
		<tag k="ssr:stedsnr" v="317408" />
	</node>
	<node lat="63.59369444280643" lon="10.042074995939059" id="-40107">
		<tag k="name" v="Øveråsen" />
		<tag k="place" v="farm" />
		<tag k="ssr:stedsnr" v="467584" />
	</node>
	<node lat="63.5771916706542" lon="10.04120556378557" id="-40108">
		<tag k="fixme" v="consider place=hamlet" />
		<tag k="name" v="Bårlia" />
		<tag k="place" v="farm" />
		<tag k="ssr:stedsnr" v="467593" />
	</node>
	<node lat="63.54649721857401" lon="10.012297224085426" id="-40110">
		<tag k="fixme" v="consider place=hamlet" />
		<tag k="name" v="Bælingsli" />
		<tag k="place" v="farm" />
		<tag k="ssr:stedsnr" v="467596" />
	</node>
	<node lat="63.548669445154715" lon="10.105372213455704" id="-40112">
		<tag k="name" v="Nestu" />
		<tag k="place" v="farm" />
		<tag k="ssr:stedsnr" v="467600" />
	</node>
	<node lat="63.61275000027135" lon="9.88165554640005" id="-40115">
		<tag k="name" v="Svartholet" />
		<tag k="place" v="isolated_dwelling" />
		<tag k="ssr:stedsnr" v="467638" />
	</node>
	<node lat="63.7032500044329" lon="10.286344446610615" id="-40117">
		<tag k="name" v="Skånøya" />
		<tag k="place" v="hamlet" />
		<tag k="ssr:stedsnr" v="467654" />
	</node>
	<node lat="63.61745267342382" lon="10.087565228555823" id="-40121">
		<tag k="fixme" v="consider place=hamlet" />
		<tag k="name" v="Groven" />
		<tag k="place" v="farm" />
		<tag k="ssr:stedsnr" v="317997" />
	</node>
	<node lat="63.763938888086834" lon="10.4634527789418" id="-40156">
		<tag k="name" v="Aursjømyr" />
		<tag k="place" v="farm" />
		<tag k="ssr:stedsnr" v="332014" />
	</node>
	<node lat="63.72518487821453" lon="10.485795536416111" id="-40171">
		<tag k="historic" v="shieling" />
		<tag k="name" v="Båvasshaugen" />
		<tag k="place" v="isolated_dwelling" />
		<tag k="ssr:stedsnr" v="472152" />
	</node>
	<node lat="63.687677788159526" lon="9.88968638358754" id="-40177">
		<tag k="name" v="Leirfall" />
		<tag k="place" v="farm" />
		<tag k="ssr:stedsnr" v="341213" />
	</node>
	<node lat="63.509930559333135" lon="10.02236667375844" id="-40179">
		<tag k="name" v="Hafella" />
		<tag k="place" v="farm" />
		<tag k="ssr:stedsnr" v="341553" />
	</node>
	<node lat="63.68389166848196" lon="10.252424992324443" id="-40196">
		<tag k="name" v="Stoen" />
		<tag k="place" v="farm" />
		<tag k="ssr:stedsnr" v="345415" />
	</node>
	<node lat="63.613536110439455" lon="9.845833326750043" id="-40197">
		<tag k="name" v="Fagerdalen" />
		<tag k="place" v="hamlet" />
		<tag k="ssr:stedsnr" v="345171" />
	</node>
	<node lat="63.6774500020464" lon="9.850291667681297" id="-40198">
		<tag k="name" v="Øvergård" />
		<tag k="place" v="farm" />
		<tag k="ssr:stedsnr" v="345459" />
	</node>
	<node lat="63.792233330384214" lon="10.355352776766397" id="-40249">
		<tag k="name" v="Agnetligården" />
		<tag k="place" v="locality" />
		<tag k="ssr:stedsnr" v="346556" />
	</node>
	<node lat="63.73588055162414" lon="10.22796388853507" id="-40253">
		<tag k="historic" v="shieling" />
		<tag k="name" v="Gammel Hogsdalssetra" />
		<tag k="place" v="isolated_dwelling" />
		<tag k="ssr:stedsnr" v="346705" />
	</node>
	<node lat="63.68897500392361" lon="10.262458335919389" id="-40255">
		<tag k="name" v="Litlstoen" />
		<tag k="place" v="farm" />
		<tag k="ssr:stedsnr" v="347164" />
	</node>
	<node lat="63.68486110839549" lon="10.588905545900186" id="-40257">
		<tag k="name" v="Lerstadgrind" />
		<tag k="place" v="farm" />
		<tag k="ssr:stedsnr" v="474718" />
	</node>
	<node lat="63.613391669354705" lon="10.50836111452039" id="-40264">
		<tag k="name" v="Gammelgården" />
		<tag k="place" v="locality" />
		<tag k="ssr:stedsnr" v="474056" />
	</node>
	<node lat="63.552011115655496" lon="10.197491663551313" id="-40301">
		<tag k="name" v="Korpan" />
		<tag k="place" v="farm" />
		<tag k="ssr:stedsnr" v="352507" />
	</node>
	<node lat="63.53712499602382" lon="10.199936106079178" id="-40303">
		<tag k="name" v="Saltbuvik" />
		<tag k="place" v="isolated_dwelling" />
		<tag k="ssr:stedsnr" v="352513" />
	</node>
	<node lat="63.67266389008153" lon="10.581852768543495" id="-40307">
		<tag k="name" v="Bjørnbutrøa" />
		<tag k="place" v="isolated_dwelling" />
		<tag k="ssr:stedsnr" v="352655" />
	</node>
	<node lat="63.6923555544485" lon="10.686749992245623" id="-40316">
		<tag k="name" v="Ytterberg" />
		<tag k="place" v="isolated_dwelling" />
		<tag k="ssr:stedsnr" v="474561" />
	</node>
	<node lat="63.706219445436766" lon="10.710738886632143" id="-40318">
		<tag k="historic" v="shieling" />
		<tag k="name" v="Hjelopsetra" />
		<tag k="place" v="isolated_dwelling" />
		<tag k="ssr:stedsnr" v="474531" />
	</node>
	<node lat="63.708688888683554" lon="10.656047227818645" id="-40320">
		<tag k="name" v="Høgsve" />
		<tag k="place" v="farm" />
		<tag k="ssr:stedsnr" v="474537" />
	</node>
	<node lat="63.725625004468334" lon="10.562402770521027" id="-40322">
		<tag k="historic" v="shieling" />
		<tag k="name" v="Kruksveseter" />
		<tag k="place" v="isolated_dwelling" />
		<tag k="ssr:stedsnr" v="474640" />
	</node>
	<node lat="63.62361111158055" lon="10.533816672170861" id="-40327">
		<tag k="name" v="Sjøvolden" />
		<tag k="place" v="isolated_dwelling" />
		<tag k="ssr:stedsnr" v="474885" />
	</node>
	<node lat="63.495827777286024" lon="10.094125003267306" id="-40346">
		<tag k="name" v="Trongen" />
		<tag k="place" v="farm" />
		<tag k="ssr:stedsnr" v="384319" />
	</node>
	<node lat="63.56435833128494" lon="9.897947223202932" id="-40355">
		<tag k="name" v="Kvithylla industriområde" />
		<tag k="place" v="quarter" />
		<tag k="ssr:stedsnr" v="482754" />
	</node>
	<node lat="63.6798112754821" lon="10.578124686928811" id="-40366">
		<tag k="name" v="Fagerkinna" />
		<tag k="old_name" v="Fagerkinnan" />
		<tag k="place" v="locality" />
		<tag k="ssr:stedsnr" v="390387" />
	</node>
	<node lat="63.59395726572674" lon="10.205068149049108" id="-40380">
		<tag k="fixme" v="consider place=hamlet" />
		<tag k="name" v="Rota" />
		<tag k="place" v="farm" />
		<tag k="ssr:stedsnr" v="484838" />
	</node>
	<node lat="63.50732500169235" lon="10.014113892663458" id="-40385">
		<tag k="name" v="Dålån" />
		<tag k="place" v="farm" />
		<tag k="ssr:stedsnr" v="402527" />
	</node>
	<node lat="63.50335381673855" lon="10.105176459547028" id="-40387">
		<tag k="name" v="Gomo" />
		<tag k="place" v="farm" />
		<tag k="ssr:stedsnr" v="404695" />
	</node>
	<node lat="63.64691944339266" lon="9.88686667632883" id="-40400">
		<tag k="name" v="Ratet" />
		<tag k="place" v="hamlet" />
		<tag k="ssr:stedsnr" v="406199" />
	</node>
	<node lat="63.74998889216264" lon="10.096552785568548" id="-40402">
		<tag k="name" v="Kleiva" />
		<tag k="place" v="farm" />
		<tag k="ssr:stedsnr" v="406443" />
	</node>
	<node lat="63.756158335459745" lon="10.144905558529763" id="-40403">
		<tag k="fixme" v="consider place=hamlet" />
		<tag k="name" v="Stormoen" />
		<tag k="place" v="farm" />
		<tag k="ssr:stedsnr" v="406446" />
	</node>
	<node lat="63.75324166577219" lon="10.147613891607524" id="-40404">
		<tag k="name" v="Brannmoen" />
		<tag k="place" v="farm" />
		<tag k="ssr:stedsnr" v="406448" />
	</node>
	<node lat="63.58263055207739" lon="9.928066671373475" id="-40405">
		<tag k="name" v="Uddu" />
		<tag k="place" v="farm" />
		<tag k="ssr:stedsnr" v="406491" />
	</node>
	<node lat="63.67901666841214" lon="9.85739723001553" id="-40409">
		<tag k="name" v="Rabben" />
		<tag k="place" v="farm" />
		<tag k="ssr:stedsnr" v="406508" />
	</node>
	<node lat="63.71131389064684" lon="9.97605833465941" id="-40436">
		<tag k="name" v="Refsnes" />
		<tag k="place" v="farm" />
		<tag k="ssr:stedsnr" v="407643" />
	</node>
	<node lat="63.58997499740783" lon="10.083605550248834" id="-40437">
		<tag k="name" v="Trøa" />
		<tag k="place" v="farm" />
		<tag k="ssr:stedsnr" v="407650" />
	</node>
	<node lat="63.58954166896615" lon="10.328847222604798" id="-40445">
		<tag k="alt_name" v="Mevasseter" />
		<tag k="historic" v="shieling" />
		<tag k="name" v="Mevassetran" />
		<tag k="place" v="isolated_dwelling" />
		<tag k="ssr:stedsnr" v="411787" />
	</node>
	<node lat="63.59953333538049" lon="10.233975000287472" id="-40452">
		<tag k="name" v="Øvre Dalsaunet" />
		<tag k="place" v="farm" />
		<tag k="ssr:stedsnr" v="413497" />
	</node>
	<node lat="63.71138333760058" lon="10.61410556503507" id="-40458">
		<tag k="name" v="Opphaug" />
		<tag k="place" v="farm" />
		<tag k="ssr:stedsnr" v="413594" />
	</node>
	<node lat="63.688086110969294" lon="9.891500009242904" id="-40472">
		<tag k="name" v="Bymyra" />
		<tag k="place" v="quarter" />
		<tag k="ssr:stedsnr" v="423803" />
	</node>
	<node lat="63.60143611239802" lon="10.064811119628502" id="-40474">
		<tag k="alt_name" v="Momyr" />
		<tag k="name" v="Momyra" />
		<tag k="place" v="farm" />
		<tag k="ssr:stedsnr" v="437954" />
	</node>
	<node lat="63.66214989645881" lon="10.58540614049447" id="-40479">
		<tag k="fixme" v="consider place=hamlet" />
		<tag k="name" v="Brekka" />
		<tag k="place" v="farm" />
		<tag k="ssr:stedsnr" v="438350" />
	</node>
	<node lat="63.70914339798007" lon="10.625699765629335" id="-40481">
		<tag k="fixme" v="consider place=hamlet" />
		<tag k="name" v="Tetlia" />
		<tag k="place" v="farm" />
		<tag k="ssr:stedsnr" v="438370" />
	</node>
	<node lat="63.695875001744874" lon="10.624988891179079" id="-40482">
		<tag k="name" v="Åsvang" />
		<tag k="place" v="farm" />
		<tag k="ssr:stedsnr" v="438410" />
	</node>
	<node lat="63.70156944787739" lon="10.615055561184832" id="-40483">
		<tag k="name" v="Rosvollsvean" />
		<tag k="place" v="farm" />
		<tag k="ssr:stedsnr" v="438412" />
	</node>
	<node lat="63.692564200492605" lon="10.59327586308355" id="-40484">
		<tag k="alt_name" v="Bårdssveet" />
		<tag k="name" v="Vårtun" />
		<tag k="place" v="farm" />
		<tag k="ssr:stedsnr" v="438416" />
	</node>
	<node lat="63.728241665265045" lon="10.58413333137873" id="-40485">
		<tag k="historic" v="shieling" />
		<tag k="name" v="Seteråsen" />
		<tag k="place" v="isolated_dwelling" />
		<tag k="ssr:stedsnr" v="438464" />
	</node>
	<node lat="63.8272972222994" lon="10.363169437137598" id="-40486">
		<tag k="name" v="Holvassgården" />
		<tag k="place" v="farm" />
		<tag k="ssr:stedsnr" v="438477" />
	</node>
	<node lat="63.556038891427086" lon="9.926286117813362" id="-40488">
		<tag k="name" v="Myrvoll" />
		<tag k="place" v="farm" />
		<tag k="ssr:stedsnr" v="438611" />
	</node>
	<node lat="63.560311112271606" lon="9.959036117032424" id="-40489">
		<tag k="alt_name" v="Fissøya" />
		<tag k="name" v="Fessøya" />
		<tag k="place" v="farm" />
		<tag k="ssr:stedsnr" v="438618" />
	</node>
</osm>
