<?xml version="1.0" encoding="UTF-8"?>
<osm generator="osmapis" version="0.6">
	<node id="-776094" lat="63.7515469766" lon="10.0865116162">
		<tag k="amenity" v="place_of_worship" />
		<tag k="denomination" v="lutheran" />
		<tag k="name" v="Ramsvik kirke" />
		<tag k="religion" v="christian" />
		<tag k="ssr:stedsnr" v="974898" />
	</node>
	<node id="-770459" lat="63.5645833346" lon="9.92567222248">
		<tag k="alt_name" v="Reins kirke" />
		<tag k="amenity" v="place_of_worship" />
		<tag k="denomination" v="lutheran" />
		<tag k="name" v="Rein kirke" />
		<tag k="religion" v="christian" />
		<tag k="ssr:stedsnr" v="406261" />
	</node>
	<node id="-772695" lat="63.4983388859" lon="10.009438881">
		<tag k="amenity" v="place_of_worship" />
		<tag k="denomination" v="lutheran" />
		<tag k="name" v="Stadsbygd kirke" />
		<tag k="religion" v="christian" />
		<tag k="ssr:stedsnr" v="103085" />
	</node>
	<node id="-771446" lat="63.7783583322" lon="10.4912638903">
		<tag k="name" v="Seterbakken" />
		<tag k="place" v="locality" />
		<tag k="ssr:stedsnr" v="696013" />
	</node>
	<node id="-769449" lat="63.7858500016" lon="10.5117305623">
		<tag k="name" v="Ã˜ver-Rolsliseteren" />
		<tag k="place" v="locality" />
		<tag k="ssr:stedsnr" v="149004" />
	</node>
	<node id="-774418" lat="63.7835527773" lon="10.5127638817">
		<tag k="name" v="Ner-Rolsliseteren" />
		<tag k="place" v="locality" />
		<tag k="ssr:stedsnr" v="574009" />
	</node>
	<node id="-773713" lat="63.8018911395" lon="10.5812078908">
		<tag k="amenity" v="place_of_worship" />
		<tag k="denomination" v="lutheran" />
		<tag k="loc_name" v="Fines kapel" />
		<tag k="name" v="Fines kirke" />
		<tag k="religion" v="christian" />
		<tag k="ssr:stedsnr" v="377441" />
	</node>
	<node id="-770376" lat="63.5535417051" lon="10.2203509572">
		<tag k="alt_name" v="Stranda" />
		<tag k="amenity" v="place_of_worship" />
		<tag k="denomination" v="lutheran" />
		<tag k="name" v="Stranda kirke" />
		<tag k="religion" v="christian" />
		<tag k="ssr:stedsnr" v="377213" />
	</node>
	<node id="-769262" lat="63.6058761749" lon="10.012415035">
		<tag k="amenity" v="place_of_worship" />
		<tag k="denomination" v="lutheran" />
		<tag k="name" v="Rissa kirke" />
		<tag k="religion" v="christian" />
		<tag k="ssr:stedsnr" v="73968" />
	</node>
	<node id="-775010" lat="63.6313620755" lon="9.8401713484">
		<tag k="amenity" v="place_of_worship" />
		<tag k="denomination" v="lutheran" />
		<tag k="name" v="Hasselvika kirke" />
		<tag k="religion" v="christian" />
		<tag k="ssr:stedsnr" v="741925" />
	</node>
	<node id="-771305" lat="63.5957666636" lon="10.0070750083">
		<tag k="amenity" v="community_centre" />
		<tag k="name" v="Heimtun" />
		<tag k="ssr:stedsnr" v="647319" />
	</node>
	<node id="-772552" lat="63.6781555552" lon="10.6322222237">
		<tag k="alt_name" v="Leksvik" />
		<tag k="amenity" v="place_of_worship" />
		<tag k="denomination" v="lutheran" />
		<tag k="name" v="Leksvik kirke" />
		<tag k="religion" v="christian" />
		<tag k="ssr:stedsnr" v="74335" />
	</node>
	<node id="-774306" lat="63.6267638871" lon="10.5377083361">
		<tag k="name" v="Gammelsmia" />
		<tag k="place" v="locality" />
		<tag k="ssr:stedsnr" v="535897" />
	</node>
	<node id="-770711" lat="63.5647388923" lon="9.92181945101">
		<tag k="alt_name" v="Reinskloster;Reinsklosteret" />
		<tag k="name" v="Reinsklostret" />
		<tag k="ssr:stedsnr" v="680592" />
		<tag k="tourism" v="attraction" />
	</node>
</osm>
