<?xml version="1.0" encoding="UTF-8"?>
<osm version="0.6" generator="osmapis">
	<node lat="63.691372224859876" lon="10.425502784851536" id="-39023">
		<tag k="name" v="Liasetertjønna" />
		<tag k="natural" v="water" />
		<tag k="ssr:stedsnr" v="229923" />
	</node>
	<node lat="63.64824444601852" lon="10.346086102114311" id="-39026">
		<tag k="name" v="Perslettbekken" />
		<tag k="ssr:stedsnr" v="230911" />
		<tag k="waterway" v="stream" />
	</node>
	<node lat="63.64944166332632" lon="10.231177771556698" id="-39033">
		<tag k="name" v="Småholman" />
		<tag k="place" v="islet" />
		<tag k="ssr:stedsnr" v="231290" />
	</node>
	<node lat="63.606711112085875" lon="10.221194435059175" id="-39037">
		<tag k="name" v="Kjeholmen" />
		<tag k="place" v="islet" />
		<tag k="ssr:stedsnr" v="231300" />
	</node>
	<node lat="63.619175001048546" lon="10.245311112076246" id="-39039">
		<tag k="name" v="Hafellbekken" />
		<tag k="ssr:stedsnr" v="231351" />
		<tag k="waterway" v="stream" />
	</node>
	<node lat="63.645627778301574" lon="10.2668055547962" id="-39040">
		<tag k="name" v="Trongholet" />
		<tag k="natural" v="strait" />
		<tag k="ssr:stedsnr" v="231363" />
	</node>
	<node lat="63.72113888742526" lon="10.650574991422403" id="-39046">
		<tag k="name" v="Litl-Måvatnet" />
		<tag k="natural" v="water" />
		<tag k="ssr:stedsnr" v="231652" />
	</node>
	<node lat="63.643358333554225" lon="10.306527778041174" id="-39060">
		<tag k="name" v="Kråkmotjønnin" />
		<tag k="natural" v="water" />
		<tag k="ssr:stedsnr" v="13403" />
	</node>
	<node lat="63.739344447983704" lon="10.518358328780149" id="-39066">
		<tag k="name" v="Lauvhaugtjønna" />
		<tag k="natural" v="water" />
		<tag k="ssr:stedsnr" v="13477" />
	</node>
	<node lat="63.63915833026012" lon="10.003786115896645" id="-39081">
		<tag k="alt_name" v="Damvatna" />
		<tag k="fixme" v="multiple name tags, choose one and add the other to alt_name" />
		<tag k="name" v="Storvatnet;Damvatnet" />
		<tag k="natural" v="water" />
		<tag k="ssr:stedsnr" v="13906" />
		<tag k="water" v="lake" />
	</node>
	<node lat="63.75410833316075" lon="10.819444442656913" id="-39089">
		<tag k="name" v="Godkartjønna" />
		<tag k="natural" v="water" />
		<tag k="ssr:stedsnr" v="14772" />
	</node>
	<node lat="63.588180556644645" lon="10.056944434514687" id="-39098">
		<tag k="name" v="Sagfossen" />
		<tag k="natural" v="waterfall" />
		<tag k="ssr:stedsnr" v="38315" />
	</node>
	<node lat="63.51986944688261" lon="10.061969452011745" id="-39117">
		<tag k="name" v="Trollmyrbekken" />
		<tag k="ssr:stedsnr" v="42106" />
		<tag k="waterway" v="stream" />
	</node>
	<node lat="63.70705833725372" lon="10.319880555061513" id="-39136">
		<tag k="name" v="Dalabekken" />
		<tag k="ssr:stedsnr" v="42583" />
		<tag k="waterway" v="stream" />
	</node>
	<node lat="63.72748333412478" lon="10.30009999480505" id="-39138">
		<tag k="name" v="Lomtjønna" />
		<tag k="natural" v="water" />
		<tag k="ssr:stedsnr" v="42593" />
	</node>
	<node lat="63.785688890561204" lon="10.239736113117841" id="-39157">
		<tag k="name" v="Krestenneset" />
		<tag k="natural" v="cape" />
		<tag k="ssr:stedsnr" v="42930" />
	</node>
	<node lat="63.78966944064667" lon="10.235497225977257" id="-39158">
		<tag k="name" v="Trongsundet" />
		<tag k="natural" v="strait" />
		<tag k="ssr:stedsnr" v="42932" />
	</node>
	<node lat="63.72993055616815" lon="10.29341943520104" id="-39160">
		<tag k="name" v="Oksbåsen" />
		<tag k="natural" v="cape" />
		<tag k="ssr:stedsnr" v="42986" />
	</node>
	<node lat="63.67685277994628" lon="10.381872229915583" id="-39181">
		<tag k="name" v="Nordbekken" />
		<tag k="ssr:stedsnr" v="48913" />
		<tag k="waterway" v="stream" />
	</node>
	<node lat="63.61648889074218" lon="10.509086117115087" id="-39190">
		<tag k="name" v="Råbekken" />
		<tag k="ssr:stedsnr" v="49118" />
		<tag k="waterway" v="stream" />
	</node>
	<node lat="63.60801111107423" lon="10.249630555578095" id="-39193">
		<tag k="name" v="Breilielva" />
		<tag k="ssr:stedsnr" v="49377" />
		<tag k="waterway" v="stream" />
	</node>
	<node lat="63.684036107536194" lon="10.674919448506989" id="-39197">
		<tag k="name" v="Sagbekken" />
		<tag k="ssr:stedsnr" v="49576" />
		<tag k="waterway" v="stream" />
	</node>
	<node lat="63.53405555327331" lon="10.194444438894958" id="-39198">
		<tag k="name" v="Versteinfjurru" />
		<tag k="natural" v="beach" />
		<tag k="ssr:stedsnr" v="49584" />
	</node>
	<node lat="63.667838887757846" lon="10.604961114462773" id="-39202">
		<tag k="name" v="Jerikobekken" />
		<tag k="ssr:stedsnr" v="49708" />
		<tag k="waterway" v="stream" />
	</node>
	<node lat="63.71016666477552" lon="10.714077780535815" id="-39247">
		<tag k="name" v="Hustjønna" />
		<tag k="natural" v="water" />
		<tag k="ssr:stedsnr" v="73509" />
	</node>
	<node lat="63.688594447497955" lon="10.365783334824755" id="-39263">
		<tag k="name" v="Gulløybekken" />
		<tag k="ssr:stedsnr" v="74404" />
		<tag k="waterway" v="stream" />
	</node>
	<node lat="63.81596944198328" lon="10.236327782247239" id="-39268">
		<tag k="name" v="Krinsluna" />
		<tag k="place" v="locality" />
		<tag k="ssr:stedsnr" v="74503" />
	</node>
	<node lat="63.66871389104174" lon="10.041466672441839" id="-39274">
		<tag k="name" v="Måsevatnet" />
		<tag k="natural" v="water" />
		<tag k="ssr:stedsnr" v="74809" />
	</node>
	<node lat="63.77141944233406" lon="10.725805548772884" id="-39277">
		<tag k="name" v="Sagfjorden" />
		<tag k="natural" v="strait" />
		<tag k="ssr:stedsnr" v="74761" />
	</node>
	<node lat="63.757891666005015" lon="10.630052768390069" id="-39279">
		<tag k="name" v="Storøya" />
		<tag k="place" v="island" />
		<tag k="ssr:stedsnr" v="75399" />
	</node>
	<node lat="63.763838889168134" lon="10.515377774000283" id="-39281">
		<tag k="name" v="Taskvatnet" />
		<tag k="natural" v="water" />
		<tag k="ssr:stedsnr" v="84131" />
	</node>
	<node lat="63.59865277577988" lon="10.15776943642119" id="-39302">
		<tag k="name" v="Knutseterlibekken" />
		<tag k="ssr:stedsnr" v="99803" />
		<tag k="waterway" v="stream" />
	</node>
	<node lat="63.69255555489983" lon="10.28661111697869" id="-39338">
		<tag k="name" v="Skalmeråsbekken" />
		<tag k="ssr:stedsnr" v="103626" />
		<tag k="waterway" v="stream" />
	</node>
	<node lat="63.6465416623545" lon="10.011680562537029" id="-39345">
		<tag k="name" v="Fiskløysbekken" />
		<tag k="ssr:stedsnr" v="103575" />
		<tag k="waterway" v="stream" />
	</node>
	<node lat="63.60627777824224" lon="10.15933333145096" id="-39358">
		<tag k="name" v="Litl-Ålmodalsbukta" />
		<tag k="natural" v="bay" />
		<tag k="old_name" v="Litl-Åmodalsbukta" />
		<tag k="ssr:stedsnr" v="103826" />
	</node>
	<node lat="63.79192222017356" lon="10.214572228086165" id="-39375">
		<tag k="name" v="Sørlomtjønna" />
		<tag k="natural" v="water" />
		<tag k="old_name" v="Svarttjørna;Svarttjønna" />
		<tag k="ssr:stedsnr" v="104779" />
	</node>
	<node lat="63.72206389284711" lon="10.518469437443414" id="-39381">
		<tag k="name" v="Markhussetertjønna" />
		<tag k="natural" v="water" />
		<tag k="ssr:stedsnr" v="108172" />
	</node>
	<node lat="63.59102778009244" lon="10.31352500292005" id="-39385">
		<tag k="name" v="Rundholmen" />
		<tag k="place" v="islet" />
		<tag k="ssr:stedsnr" v="108781" />
	</node>
	<node lat="63.72986111198141" lon="10.681522215464257" id="-39393">
		<tag k="name" v="Nordbutjønna" />
		<tag k="natural" v="water" />
		<tag k="ssr:stedsnr" v="110309" />
	</node>
	<node lat="63.67745277406591" lon="10.654180545492872" id="-39402">
		<tag k="name" v="Gravabekken" />
		<tag k="ssr:stedsnr" v="110569" />
		<tag k="waterway" v="stream" />
	</node>
	<node lat="63.714547218426674" lon="10.735741676004064" id="-39427">
		<tag k="name" v="Medkartjønna" />
		<tag k="natural" v="water" />
		<tag k="ssr:stedsnr" v="134205" />
	</node>
	<node lat="63.738236107205864" lon="10.75306111946923" id="-39428">
		<tag k="name" v="Midtre Svellestjønna" />
		<tag k="natural" v="water" />
		<tag k="ssr:stedsnr" v="134166" />
	</node>
	<node lat="63.74439166562436" lon="10.730033342449602" id="-39429">
		<tag k="alt_name" v="Skråsvatn" />
		<tag k="name" v="Midtre Skråsvatnet" />
		<tag k="natural" v="water" />
		<tag k="old_name" v="Skråsvatna, midtre" />
		<tag k="ssr:stedsnr" v="134169" />
		<tag k="water" v="lake" />
	</node>
	<node lat="63.72038055128533" lon="10.367619441198281" id="-39434">
		<tag k="name" v="Lomtjønnan" />
		<tag k="natural" v="water" />
		<tag k="old_name" v="Lomtjørna;Lomtjønna" />
		<tag k="ssr:stedsnr" v="134522" />
	</node>
	<node lat="63.69244444086404" lon="10.07324166370194" id="-39439">
		<tag k="name" v="Nordre Fessdalsvatnet" />
		<tag k="natural" v="water" />
		<tag k="ssr:stedsnr" v="134768" />
		<tag k="water" v="lake" />
	</node>
	<node lat="63.68528889320721" lon="9.895038892805095" id="-39440">
		<tag k="name" v="Kvernbekken" />
		<tag k="ssr:stedsnr" v="134769" />
		<tag k="waterway" v="stream" />
	</node>
	<node lat="63.56040000285971" lon="10.011258337731276" id="-39444">
		<tag k="name" v="Lefættjønna" />
		<tag k="natural" v="water" />
		<tag k="ssr:stedsnr" v="134652" />
	</node>
	<node lat="63.66550277865496" lon="10.121424990230965" id="-39447">
		<tag k="name" v="Damtjønna" />
		<tag k="natural" v="water" />
		<tag k="ssr:stedsnr" v="134855" />
	</node>
	<node lat="63.65787778065436" lon="10.071391660074903" id="-39448">
		<tag k="name" v="Øyabekken" />
		<tag k="ssr:stedsnr" v="134861" />
		<tag k="waterway" v="stream" />
	</node>
	<node lat="63.78780277526177" lon="10.273916662210949" id="-39451">
		<tag k="name" v="Holvasselva" />
		<tag k="ssr:stedsnr" v="135407" />
		<tag k="waterway" v="river" />
	</node>
	<node lat="63.71144166826517" lon="10.277525000514226" id="-39457">
		<tag k="name" v="Aunvatnet" />
		<tag k="natural" v="water" />
		<tag k="ssr:stedsnr" v="255493" />
	</node>
	<node lat="63.71225555392459" lon="10.213380565074415" id="-39461">
		<tag k="name" v="Inner Fiskløysa" />
		<tag k="natural" v="water" />
		<tag k="ssr:stedsnr" v="255832" />
	</node>
	<node lat="63.73578055585026" lon="10.817049992540555" id="-39466">
		<tag k="name" v="Litlbårvatnet" />
		<tag k="natural" v="water" />
		<tag k="ssr:stedsnr" v="256136" />
		<tag k="water" v="lake" />
	</node>
	<node lat="63.74123888669547" lon="10.742972229414473" id="-39467">
		<tag k="name" v="Ryptjønna" />
		<tag k="natural" v="water" />
		<tag k="ssr:stedsnr" v="256141" />
	</node>
	<node lat="63.788499998057645" lon="10.510616663028706" id="-39474">
		<tag k="name" v="Rolsbekken" />
		<tag k="ssr:stedsnr" v="149005" />
		<tag k="waterway" v="stream" />
	</node>
	<node lat="63.67590277759482" lon="10.286738880588056" id="-39480">
		<tag k="name" v="Svarttjønna" />
		<tag k="natural" v="water" />
		<tag k="ssr:stedsnr" v="256311" />
	</node>
	<node lat="63.519147222421296" lon="10.082872216711417" id="-39499">
		<tag k="name" v="Vålvatnet" />
		<tag k="natural" v="water" />
		<tag k="ssr:stedsnr" v="256623" />
		<tag k="water" v="lake" />
	</node>
	<node lat="63.62368333475992" lon="9.945616671193449" id="-39510">
		<tag k="name" v="Lomtjønna" />
		<tag k="natural" v="water" />
		<tag k="ssr:stedsnr" v="256843" />
	</node>
	<node lat="63.77231944203586" lon="10.434591658949826" id="-39519">
		<tag k="name" v="Litjtjønna" />
		<tag k="natural" v="water" />
		<tag k="ssr:stedsnr" v="257483" />
	</node>
	<node lat="63.575541664576164" lon="10.342436116792168" id="-39523">
		<tag k="name" v="Stegavikelva" />
		<tag k="ssr:stedsnr" v="158223" />
		<tag k="waterway" v="stream" />
	</node>
	<node lat="63.591461108657626" lon="10.013294453583326" id="-39526">
		<tag k="loc_name" v="Flyta" />
		<tag k="name" v="Flytelva" />
		<tag k="ssr:stedsnr" v="159302" />
		<tag k="waterway" v="river" />
	</node>
	<node lat="63.628449998869186" lon="9.876544439994255" id="-39532">
		<tag k="name" v="Breivika" />
		<tag k="natural" v="bay" />
		<tag k="ssr:stedsnr" v="163020" />
	</node>
	<node lat="63.645208337215784" lon="10.109797229972134" id="-39544">
		<tag k="name" v="Grennebekken" />
		<tag k="ssr:stedsnr" v="163726" />
		<tag k="waterway" v="stream" />
	</node>
	<node lat="63.627547225166026" lon="10.154630545747995" id="-39547">
		<tag k="name" v="Kastvika" />
		<tag k="natural" v="bay" />
		<tag k="ssr:stedsnr" v="163769" />
	</node>
	<node lat="63.63988055450403" lon="10.184550008766495" id="-39549">
		<tag k="name" v="Sliperhauet" />
		<tag k="natural" v="cape" />
		<tag k="ssr:stedsnr" v="163777" />
	</node>
	<node lat="63.696277776879" lon="10.233461103031956" id="-39551">
		<tag k="name" v="Joslættbekken" />
		<tag k="ssr:stedsnr" v="163615" />
		<tag k="waterway" v="stream" />
	</node>
	<node lat="63.643238889610444" lon="10.166647217969775" id="-39554">
		<tag k="name" v="Svartelva" />
		<tag k="ssr:stedsnr" v="163660" />
		<tag k="waterway" v="river" />
	</node>
	<node lat="63.80710278160315" lon="10.289399991548082" id="-39566">
		<tag k="name" v="Svanavasselva" />
		<tag k="ssr:stedsnr" v="163964" />
		<tag k="waterway" v="river" />
	</node>
	<node lat="63.78107777468508" lon="10.628786118946236" id="-39593">
		<tag k="name" v="Sørenfossen" />
		<tag k="natural" v="waterfall" />
		<tag k="ssr:stedsnr" v="168419" />
	</node>
	<node lat="63.7497055542563" lon="10.591861108923757" id="-39596">
		<tag k="name" v="Snekkarslættbekken" />
		<tag k="ssr:stedsnr" v="169202" />
		<tag k="waterway" v="stream" />
	</node>
	<node lat="63.74024444639871" lon="10.825194454264219" id="-39598">
		<tag k="name" v="Kasserollen" />
		<tag k="natural" v="water" />
		<tag k="ssr:stedsnr" v="169316" />
	</node>
	<node lat="63.68590277454337" lon="10.373600004934602" id="-39601">
		<tag k="name" v="Hundtjønna" />
		<tag k="natural" v="water" />
		<tag k="ssr:stedsnr" v="169900" />
	</node>
	<node lat="63.68740277515871" lon="10.04383334003254" id="-39636">
		<tag k="name" v="Salsvatnet" />
		<tag k="natural" v="water" />
		<tag k="ssr:stedsnr" v="263123" />
		<tag k="water" v="lake" />
	</node>
	<node lat="63.71714722219702" lon="10.559338880608484" id="-39642">
		<tag k="name" v="Innerelva" />
		<tag k="ssr:stedsnr" v="195531" />
		<tag k="waterway" v="river" />
	</node>
	<node lat="63.5087555576492" lon="10.00121389353105" id="-39645">
		<tag k="name" v="Prestelva" />
		<tag k="ssr:stedsnr" v="195702" />
		<tag k="waterway" v="stream" />
	</node>
	<node lat="63.742905552555136" lon="10.58853889554577" id="-39648">
		<tag k="name" v="Imtjønna" />
		<tag k="natural" v="water" />
		<tag k="ssr:stedsnr" v="195480" />
	</node>
	<node lat="63.71942499913254" lon="10.17576945289631" id="-39657">
		<tag k="name" v="Fiskløysa" />
		<tag k="natural" v="water" />
		<tag k="ssr:stedsnr" v="195808" />
	</node>
	<node lat="63.73335000203059" lon="10.525088897265906" id="-39662">
		<tag k="name" v="Bjørnatjønna" />
		<tag k="natural" v="water" />
		<tag k="ssr:stedsnr" v="208409" />
	</node>
	<node lat="63.78524444693737" lon="10.13696389567145" id="-39670">
		<tag k="name" v="Teinøya" />
		<tag k="place" v="island" />
		<tag k="ssr:stedsnr" v="212608" />
	</node>
	<node lat="63.57415000297468" lon="10.325544451001694" id="-39672">
		<tag k="name" v="Kvernavikbekken" />
		<tag k="ssr:stedsnr" v="219186" />
		<tag k="waterway" v="stream" />
	</node>
	<node lat="63.76058333367557" lon="10.480030555889593" id="-39682">
		<tag k="name" v="Lauparbekken" />
		<tag k="ssr:stedsnr" v="271019" />
		<tag k="waterway" v="stream" />
	</node>
	<node lat="63.83905833656757" lon="10.618536102452277" id="-39684">
		<tag k="alt_name" v="Raudtindelva" />
		<tag k="name" v="Raudtinnelva" />
		<tag k="ssr:stedsnr" v="271066" />
		<tag k="waterway" v="river" />
	</node>
	<node lat="63.52177778050189" lon="10.006844447544985" id="-39696">
		<tag k="name" v="Fossbekken" />
		<tag k="ssr:stedsnr" v="224139" />
		<tag k="waterway" v="stream" />
	</node>
	<node lat="63.72812222079297" lon="10.24311388742867" id="-39699">
		<tag k="name" v="Nilslibekken" />
		<tag k="ssr:stedsnr" v="224483" />
		<tag k="waterway" v="stream" />
	</node>
	<node lat="63.678872218303695" lon="10.235661104403393" id="-39712">
		<tag k="name" v="Supabekken" />
		<tag k="ssr:stedsnr" v="224707" />
		<tag k="waterway" v="stream" />
	</node>
	<node lat="63.71245555323439" lon="10.081644454132856" id="-39716">
		<tag k="name" v="Lauvlibekken" />
		<tag k="ssr:stedsnr" v="224917" />
		<tag k="waterway" v="stream" />
	</node>
	<node lat="63.610963885026315" lon="10.045686111169498" id="-39719">
		<tag k="alt_name" v="Revsåa" />
		<tag k="name" v="Refsåa" />
		<tag k="ssr:stedsnr" v="224945" />
		<tag k="waterway" v="river" />
	</node>
	<node lat="63.5234416706662" lon="10.102119439935569" id="-39731">
		<tag k="name" v="Tørstadvassdemningen" />
		<tag k="ssr:stedsnr" v="224897" />
		<tag k="waterway" v="dam" />
	</node>
	<node lat="63.53977500127692" lon="10.013225000288147" id="-39733">
		<tag k="name" v="Kjerkmyrbekken" />
		<tag k="ssr:stedsnr" v="225137" />
		<tag k="waterway" v="stream" />
	</node>
	<node lat="63.81774444362449" lon="10.31368611267395" id="-39740">
		<tag k="name" v="Storholmen" />
		<tag k="place" v="islet" />
		<tag k="ssr:stedsnr" v="225599" />
	</node>
	<node lat="63.67456667052421" lon="10.491841666597455" id="-39747">
		<tag k="name" v="Bantjønna" />
		<tag k="natural" v="water" />
		<tag k="ssr:stedsnr" v="229086" />
	</node>
	<node lat="63.751599999002316" lon="10.660363884282445" id="-39748">
		<tag k="name" v="Kjerkneset" />
		<tag k="natural" v="cape" />
		<tag k="ssr:stedsnr" v="229283" />
	</node>
	<node lat="63.76639722272317" lon="10.728227769825738" id="-39749">
		<tag k="name" v="Kvennbekken" />
		<tag k="ssr:stedsnr" v="229284" />
		<tag k="waterway" v="stream" />
	</node>
	<node lat="63.718619445069" lon="10.430680558960352" id="-39752">
		<tag k="name" v="Rørtjønna" />
		<tag k="natural" v="water" />
		<tag k="ssr:stedsnr" v="229936" />
	</node>
	<node lat="63.77112222251066" lon="10.696180550240218" id="-39756">
		<tag k="name" v="Svarttjønna" />
		<tag k="natural" v="water" />
		<tag k="ssr:stedsnr" v="230203" />
	</node>
	<node lat="63.65246944419132" lon="10.346555545519935" id="-39757">
		<tag k="name" v="Langlibekken" />
		<tag k="ssr:stedsnr" v="230908" />
		<tag k="waterway" v="stream" />
	</node>
	<node lat="63.6028277760439" lon="10.203386118942209" id="-39760">
		<tag k="name" v="Lyngholmen" />
		<tag k="place" v="islet" />
		<tag k="ssr:stedsnr" v="231304" />
	</node>
	<node lat="63.60234167090167" lon="10.477738883924834" id="-39788">
		<tag k="name" v="Hardbaken" />
		<tag k="natural" v="cape" />
		<tag k="ssr:stedsnr" v="451435" />
	</node>
	<node lat="63.80121944742207" lon="10.555011110459247" id="-39793">
		<tag k="name" v="Langskogbekken" />
		<tag k="ssr:stedsnr" v="453031" />
		<tag k="waterway" v="stream" />
	</node>
	<node lat="63.814600002484504" lon="10.210427781683611" id="-39794">
		<tag k="alt_name" v="Hammeldalstjønna" />
		<tag k="name" v="Hammardalstjønna" />
		<tag k="natural" v="water" />
		<tag k="ssr:stedsnr" v="255021" />
	</node>
	<node lat="63.635241667664545" lon="10.22753332456707" id="-39795">
		<tag k="name" v="Hegerneset" />
		<tag k="natural" v="cape" />
		<tag k="ssr:stedsnr" v="255264" />
	</node>
	<node lat="63.71940555602244" lon="10.219152777061948" id="-39796">
		<tag k="name" v="Gåslona" />
		<tag k="place" v="locality" />
		<tag k="ssr:stedsnr" v="255464" />
	</node>
	<node lat="63.646905559494094" lon="10.412972232142678" id="-39801">
		<tag k="name" v="Kvennbølet" />
		<tag k="natural" v="water" />
		<tag k="ssr:stedsnr" v="255371" />
	</node>
	<node lat="63.70479722313256" lon="10.108591667558068" id="-39812">
		<tag k="name" v="Fessdalselva" />
		<tag k="ssr:stedsnr" v="255818" />
		<tag k="waterway" v="river" />
	</node>
	<node lat="63.73892222647171" lon="10.143113898853157" id="-39816">
		<tag k="name" v="Tverrelva" />
		<tag k="ssr:stedsnr" v="256211" />
		<tag k="waterway" v="stream" />
	</node>
	<node lat="63.717761111798424" lon="10.739522226009719" id="-39823">
		<tag k="name" v="Storkartjønna" />
		<tag k="natural" v="water" />
		<tag k="ssr:stedsnr" v="256179" />
	</node>
	<node lat="63.68283611316938" lon="10.56214444694381" id="-39826">
		<tag k="name" v="Ytterelva" />
		<tag k="ssr:stedsnr" v="256308" />
		<tag k="waterway" v="river" />
	</node>
	<node lat="63.7173694412685" lon="10.199794446971167" id="-39837">
		<tag k="name" v="Ospdalstjønna" />
		<tag k="natural" v="water" />
		<tag k="ssr:stedsnr" v="256756" />
	</node>
	<node lat="63.654786112220364" lon="10.057416676548625" id="-39840">
		<tag k="name" v="Roksetvatnet" />
		<tag k="natural" v="water" />
		<tag k="ssr:stedsnr" v="256805" />
		<tag k="water" v="lake" />
	</node>
	<node lat="63.676908337423185" lon="10.035380565558789" id="-39841">
		<tag k="alt_name" v="Amerikatjønna" />
		<tag k="name" v="Amerikavatnet" />
		<tag k="natural" v="water" />
		<tag k="ssr:stedsnr" v="256817" />
	</node>
	<node lat="63.60608611075811" lon="9.988950010048054" id="-39843">
		<tag k="name" v="Skauga" />
		<tag k="ssr:stedsnr" v="256859" />
		<tag k="waterway" v="river" />
	</node>
	<node lat="63.60492500456478" lon="10.11936110187048" id="-39846">
		<tag k="name" v="Holbekken" />
		<tag k="ssr:stedsnr" v="256958" />
		<tag k="waterway" v="stream" />
	</node>
	<node lat="63.79360277771082" lon="10.20896666188334" id="-39895">
		<tag k="name" v="Nordlomtjønna" />
		<tag k="natural" v="water" />
		<tag k="ssr:stedsnr" v="285230" />
	</node>
	<node lat="63.69687499751898" lon="10.306177783288263" id="-39900">
		<tag k="name" v="Trobekken" />
		<tag k="ssr:stedsnr" v="285608" />
		<tag k="waterway" v="stream" />
	</node>
	<node lat="63.692191666998276" lon="10.267858331095841" id="-39901">
		<tag k="name" v="Øya" />
		<tag k="place" v="islet" />
		<tag k="ssr:stedsnr" v="285619" />
	</node>
	<node lat="63.702999999107725" lon="10.253083335483929" id="-39902">
		<tag k="name" v="Trolltjønnbekken" />
		<tag k="ssr:stedsnr" v="285625" />
		<tag k="waterway" v="stream" />
	</node>
	<node lat="63.69452499599497" lon="10.224413884187173" id="-39903">
		<tag k="name" v="Skorvskardbekken" />
		<tag k="ssr:stedsnr" v="285634" />
		<tag k="waterway" v="stream" />
	</node>
	<node lat="63.64361944165646" lon="10.090902769682774" id="-39905">
		<tag k="name" v="Dalabekken" />
		<tag k="ssr:stedsnr" v="285709" />
		<tag k="waterway" v="stream" />
	</node>
	<node lat="63.64764721798871" lon="10.116083325612953" id="-39907">
		<tag k="name" v="Trobekken" />
		<tag k="ssr:stedsnr" v="285726" />
		<tag k="waterway" v="stream" />
	</node>
	<node lat="63.711663884609436" lon="10.127900006826136" id="-39916">
		<tag k="name" v="Grønnlitjønna" />
		<tag k="natural" v="water" />
		<tag k="ssr:stedsnr" v="285891" />
	</node>
	<node lat="63.49836944311823" lon="10.103183323553584" id="-39918">
		<tag k="name" v="Kvernhusbekken" />
		<tag k="ssr:stedsnr" v="285896" />
		<tag k="waterway" v="stream" />
	</node>
	<node lat="63.66164999986178" lon="9.943772220165037" id="-39919">
		<tag k="name" v="Nordelva" />
		<tag k="ssr:stedsnr" v="286002" />
		<tag k="waterway" v="river" />
	</node>
	<node lat="63.668663892554136" lon="10.041102773176595" id="-39920">
		<tag k="name" v="Kimotjønna" />
		<tag k="natural" v="water" />
		<tag k="ssr:stedsnr" v="286011" />
	</node>
	<node lat="63.601827777472316" lon="10.058697222823685" id="-39922">
		<tag k="name" v="Mobekken" />
		<tag k="ssr:stedsnr" v="285928" />
		<tag k="waterway" v="stream" />
	</node>
	<node lat="63.529930556844675" lon="10.072630560918602" id="-39923">
		<tag k="name" v="Brunnslibekken" />
		<tag k="ssr:stedsnr" v="285982" />
		<tag k="waterway" v="stream" />
	</node>
	<node lat="63.59547222000346" lon="10.050172218454643" id="-39930">
		<tag k="name" v="Moelva" />
		<tag k="ssr:stedsnr" v="286106" />
		<tag k="waterway" v="river" />
	</node>
	<node lat="63.80751110979246" lon="10.357880559765835" id="-39933">
		<tag k="name" v="Holvatnet" />
		<tag k="natural" v="water" />
		<tag k="ssr:stedsnr" v="286521" />
		<tag k="water" v="lake" />
	</node>
	<node lat="63.77980277935853" lon="10.334611111008803" id="-39936">
		<tag k="name" v="Vakkerlitjønna" />
		<tag k="natural" v="water" />
		<tag k="ssr:stedsnr" v="286549" />
	</node>
	<node lat="63.82258611534477" lon="10.360119443390742" id="-39940">
		<tag k="name" v="Telltangen" />
		<tag k="natural" v="cape" />
		<tag k="ssr:stedsnr" v="286633" />
	</node>
	<node lat="63.554605552652944" lon="10.13749444060137" id="-39944">
		<tag k="name" v="Kvernsjøen" />
		<tag k="natural" v="water" />
		<tag k="ssr:stedsnr" v="286805" />
		<tag k="water" v="lake" />
	</node>
	<node lat="63.55623889145264" lon="10.078311111880224" id="-39946">
		<tag k="name" v="Skardbekken" />
		<tag k="ssr:stedsnr" v="286832" />
		<tag k="waterway" v="stream" />
	</node>
	<node lat="63.7305861082512" lon="10.654780564512025" id="-39954">
		<tag k="loc_name" v="Nord Måvatnet" />
		<tag k="name" v="Måvatnet" />
		<tag k="natural" v="water" />
		<tag k="ssr:stedsnr" v="290276" />
		<tag k="water" v="lake" />
	</node>
	<node lat="63.74455277592994" lon="10.716455553511635" id="-39955">
		<tag k="name" v="Lomtjønna" />
		<tag k="natural" v="water" />
		<tag k="ssr:stedsnr" v="290282" />
	</node>
	<node lat="63.72668610698175" lon="10.455288889841858" id="-39957">
		<tag k="name" v="Svarttjønna" />
		<tag k="natural" v="water" />
		<tag k="ssr:stedsnr" v="290932" />
	</node>
	<node lat="63.54769444360773" lon="10.194855557682668" id="-39963">
		<tag k="name" v="Ramdalsbekken" />
		<tag k="ssr:stedsnr" v="292494" />
		<tag k="waterway" v="stream" />
	</node>
	<node lat="63.707875002249445" lon="10.550205562502795" id="-39964">
		<tag k="name" v="Greibekken" />
		<tag k="ssr:stedsnr" v="292612" />
		<tag k="waterway" v="stream" />
	</node>
	<node lat="63.639347222041316" lon="10.574105553136661" id="-39971">
		<tag k="name" v="Lifossen" />
		<tag k="natural" v="waterfall" />
		<tag k="ssr:stedsnr" v="292941" />
	</node>
	<node lat="63.71470555487061" lon="10.735488889489934" id="-39976">
		<tag k="name" v="Kartjønnin" />
		<tag k="natural" v="water" />
		<tag k="ssr:stedsnr" v="296452" />
	</node>
	<node lat="63.64085555301399" lon="10.064852772201812" id="-39989">
		<tag k="name" v="Roksetbekken" />
		<tag k="ssr:stedsnr" v="463800" />
		<tag k="waterway" v="stream" />
	</node>
	<node lat="63.60287142861089" lon="10.169858600675765" id="-39998">
		<tag k="name" v="Litlholmen" />
		<tag k="place" v="islet" />
		<tag k="ssr:stedsnr" v="301305" />
	</node>
	<node lat="63.54548610900652" lon="10.01629445218428" id="-40022">
		<tag k="name" v="Bælingslibekken" />
		<tag k="ssr:stedsnr" v="467116" />
		<tag k="waterway" v="stream" />
	</node>
	<node lat="63.5520416663233" lon="10.030063889457438" id="-40025">
		<tag k="name" v="Husbotnen" />
		<tag k="natural" v="water" />
		<tag k="ssr:stedsnr" v="467129" />
		<tag k="water" v="lake" />
	</node>
	<node lat="63.6049111066934" lon="9.915025006455007" id="-40029">
		<tag k="name" v="Sørlaugen" />
		<tag k="natural" v="bay" />
		<tag k="ssr:stedsnr" v="467144" />
	</node>
	<node lat="63.53608888516936" lon="10.040480546580797" id="-40031">
		<tag k="name" v="Kårlibekken" />
		<tag k="ssr:stedsnr" v="467100" />
		<tag k="waterway" v="stream" />
	</node>
	<node lat="63.61952500123549" lon="9.891055555551382" id="-40036">
		<tag k="name" v="Drengkallholet" />
		<tag k="natural" v="bay" />
		<tag k="ssr:stedsnr" v="467155" />
	</node>
	<node lat="63.72810833591853" lon="10.817611103039754" id="-40044">
		<tag k="name" v="Frosktjønna" />
		<tag k="natural" v="water" />
		<tag k="ssr:stedsnr" v="316148" />
	</node>
	<node lat="63.7824333296583" lon="10.180055548493321" id="-40047">
		<tag k="name" v="Nordelvtjønna" />
		<tag k="natural" v="water" />
		<tag k="ssr:stedsnr" v="316252" />
	</node>
	<node lat="63.704066667632006" lon="10.427961102336278" id="-40052">
		<tag k="name" v="Sollitjønna" />
		<tag k="natural" v="water" />
		<tag k="ssr:stedsnr" v="316451" />
	</node>
	<node lat="63.6999222177936" lon="10.392994450854827" id="-40053">
		<tag k="fixme" v="multiple name tags, choose one and add the other to alt_name" />
		<tag k="name" v="Kaspertjønna;Langåstjønna" />
		<tag k="natural" v="water" />
		<tag k="ssr:stedsnr" v="316455" />
	</node>
	<node lat="63.66903610705825" lon="10.551644452780735" id="-40055">
		<tag k="name" v="Lomtjønnin" />
		<tag k="natural" v="water" />
		<tag k="ssr:stedsnr" v="316401" />
	</node>
	<node lat="63.745113891861365" lon="10.542986108561509" id="-40056">
		<tag k="name" v="Julvatnet" />
		<tag k="natural" v="water" />
		<tag k="ssr:stedsnr" v="316506" />
	</node>
	<node lat="63.81394444479151" lon="10.404166669285408" id="-40061">
		<tag k="name" v="Juvvasselva" />
		<tag k="ssr:stedsnr" v="316496" />
		<tag k="waterway" v="river" />
	</node>
	<node lat="63.53429721931343" lon="9.93746666215111" id="-40074">
		<tag k="name" v="Skogabekken" />
		<tag k="ssr:stedsnr" v="316715" />
		<tag k="waterway" v="stream" />
	</node>
	<node lat="63.76201388489844" lon="10.436211105159567" id="-40081">
		<tag k="name" v="Stoffelibekken" />
		<tag k="ssr:stedsnr" v="467568" />
		<tag k="waterway" v="stream" />
	</node>
	<node lat="63.83211666293961" lon="10.231452784703803" id="-40082">
		<tag k="name" v="Juvvasselva" />
		<tag k="ssr:stedsnr" v="467569" />
		<tag k="waterway" v="river" />
	</node>
	<node lat="63.83604722074065" lon="10.218261104816076" id="-40083">
		<tag k="name" v="Høgseterbekken" />
		<tag k="ssr:stedsnr" v="467572" />
		<tag k="waterway" v="stream" />
	</node>
	<node lat="63.72138611186966" lon="10.225338879877487" id="-40087">
		<tag k="name" v="Gåslonelva" />
		<tag k="ssr:stedsnr" v="467545" />
		<tag k="waterway" v="river" />
	</node>
	<node lat="63.6530861145106" lon="10.05001389728258" id="-40088">
		<tag k="name" v="Grønneset" />
		<tag k="natural" v="cape" />
		<tag k="ssr:stedsnr" v="467548" />
	</node>
	<node lat="63.8082222257626" lon="10.276808334153728" id="-40089">
		<tag k="name" v="Svanavasstjønna" />
		<tag k="natural" v="water" />
		<tag k="ssr:stedsnr" v="317394" />
	</node>
	<node lat="63.79412500177507" lon="10.258994448247922" id="-40092">
		<tag k="name" v="Kernavassluna" />
		<tag k="natural" v="water" />
		<tag k="ssr:stedsnr" v="467552" />
		<tag k="water" v="lake" />
	</node>
	<node lat="63.786486115568415" lon="10.261011116731124" id="-40094">
		<tag k="name" v="Rødsjøelva" />
		<tag k="ssr:stedsnr" v="467555" />
		<tag k="waterway" v="river" />
	</node>
	<node lat="63.729541664896644" lon="10.292986109503998" id="-40097">
		<tag k="name" v="Oksbåsen" />
		<tag k="natural" v="strait" />
		<tag k="ssr:stedsnr" v="467624" />
	</node>
	<node lat="63.7731750034772" lon="10.784261104702754" id="-40105">
		<tag k="alt_name" v="Meltingen" />
		<tag k="name" v="Meltingvatnet" />
		<tag k="natural" v="water" />
		<tag k="ssr:stedsnr" v="317709" />
		<tag k="water" v="lake" />
	</node>
	<node lat="63.72462222419968" lon="10.297491668735507" id="-40116">
		<tag k="name" v="Damråa" />
		<tag k="natural" v="bay" />
		<tag k="ssr:stedsnr" v="467646" />
	</node>
	<node lat="63.67441944555322" lon="10.248405559226175" id="-40123">
		<tag k="name" v="Skolabekken" />
		<tag k="ssr:stedsnr" v="467733" />
		<tag k="waterway" v="stream" />
	</node>
	<node lat="63.60481388796218" lon="10.163249997640117" id="-40130">
		<tag k="name" v="Eggenkastet" />
		<tag k="natural" v="cape" />
		<tag k="ssr:stedsnr" v="467856" />
	</node>
	<node lat="63.80332499828085" lon="10.235099999276903" id="-40139">
		<tag k="name" v="Krinsvatnet" />
		<tag k="natural" v="water" />
		<tag k="ssr:stedsnr" v="467977" />
		<tag k="water" v="lake" />
	</node>
	<node lat="63.78755555121078" lon="10.225399989707368" id="-40149">
		<tag k="name" v="Lakshaugbekken" />
		<tag k="ssr:stedsnr" v="467952" />
		<tag k="waterway" v="stream" />
	</node>
	<node lat="63.782894448513495" lon="10.226644443400115" id="-40150">
		<tag k="name" v="Granhaugbukta" />
		<tag k="natural" v="bay" />
		<tag k="ssr:stedsnr" v="467954" />
	</node>
	<node lat="63.796977782271476" lon="10.201652768043344" id="-40153">
		<tag k="name" v="Lomtjønnbekken" />
		<tag k="ssr:stedsnr" v="467988" />
		<tag k="waterway" v="stream" />
	</node>
	<node lat="63.834930195012035" lon="10.410751526829955" id="-40160">
		<tag k="name" v="Løsvassenden" />
		<tag k="natural" v="bay" />
		<tag k="ssr:stedsnr" v="334215" />
	</node>
	<node lat="63.672552780092126" lon="10.477897218082745" id="-40168">
		<tag k="name" v="Østre Løsvatnet" />
		<tag k="natural" v="water" />
		<tag k="ssr:stedsnr" v="472095" />
		<tag k="water" v="lake" />
	</node>
	<node lat="63.65216944710571" lon="10.462469438792652" id="-40169">
		<tag k="loc_name" v="Ner Forårstjønna" />
		<tag k="name" v="Forårstjønna" />
		<tag k="natural" v="water" />
		<tag k="ssr:stedsnr" v="472121" />
	</node>
	<node lat="63.71448611478057" lon="10.829711116830813" id="-40173">
		<tag k="name" v="Småvolltangen" />
		<tag k="natural" v="cape" />
		<tag k="ssr:stedsnr" v="472254" />
	</node>
	<node lat="63.77774444428493" lon="10.711683330231244" id="-40175">
		<tag k="name" v="Solliness" />
		<tag k="natural" v="cape" />
		<tag k="ssr:stedsnr" v="472357" />
	</node>
	<node lat="63.721330551163014" lon="10.419077785900965" id="-40185">
		<tag k="name" v="Kampenogentjønna" />
		<tag k="natural" v="water" />
		<tag k="ssr:stedsnr" v="472944" />
	</node>
	<node lat="63.73493055895376" lon="10.450172229792493" id="-40186">
		<tag k="alt_name" v="Ytter-Fjellvatnet" />
		<tag k="name" v="Ytterfjellvatnet" />
		<tag k="natural" v="water" />
		<tag k="ssr:stedsnr" v="472957" />
		<tag k="water" v="lake" />
	</node>
	<node lat="63.65494166496071" lon="10.19840000123817" id="-40204">
		<tag k="name" v="Kvitlantjønna" />
		<tag k="natural" v="water" />
		<tag k="ssr:stedsnr" v="345662" />
	</node>
	<node lat="63.736388886422816" lon="10.340824997346544" id="-40215">
		<tag k="name" v="Skredbekken" />
		<tag k="ssr:stedsnr" v="345579" />
		<tag k="waterway" v="stream" />
	</node>
	<node lat="63.64778055324737" lon="10.121952778468206" id="-40219">
		<tag k="name" v="Kvernhusfossen" />
		<tag k="natural" v="waterfall" />
		<tag k="ssr:stedsnr" v="345726" />
	</node>
	<node lat="63.64623055657655" lon="10.097322221416137" id="-40221">
		<tag k="name" v="Marikollbekken" />
		<tag k="ssr:stedsnr" v="345763" />
		<tag k="waterway" v="stream" />
	</node>
	<node lat="63.79469721985126" lon="10.236213879172992" id="-40223">
		<tag k="name" v="Sørhalsmarkbukta" />
		<tag k="natural" v="bay" />
		<tag k="ssr:stedsnr" v="345960" />
	</node>
	<node lat="63.74873333196623" lon="10.286036110245922" id="-40228">
		<tag k="name" v="Jøvra" />
		<tag k="place" v="islet" />
		<tag k="ssr:stedsnr" v="345977" />
	</node>
	<node lat="63.54666111365858" lon="10.043427782426972" id="-40229">
		<tag k="name" v="Geitholmen" />
		<tag k="place" v="islet" />
		<tag k="ssr:stedsnr" v="346103" />
	</node>
	<node lat="63.551872223669115" lon="10.011697214736719" id="-40230">
		<tag k="name" v="Grønlibekken" />
		<tag k="ssr:stedsnr" v="346113" />
		<tag k="waterway" v="stream" />
	</node>
	<node lat="63.7557083339061" lon="10.173213883068989" id="-40237">
		<tag k="name" v="Gammelsagfossen" />
		<tag k="natural" v="waterfall" />
		<tag k="ssr:stedsnr" v="345870" />
	</node>
	<node lat="63.55827777703655" lon="10.041555555433641" id="-40242">
		<tag k="name" v="Storslætt-tjønna" />
		<tag k="natural" v="water" />
		<tag k="ssr:stedsnr" v="346055" />
	</node>
	<node lat="63.5684166659762" lon="10.068413892080937" id="-40245">
		<tag k="name" v="Hermstadelva" />
		<tag k="ssr:stedsnr" v="346067" />
		<tag k="waterway" v="river" />
	</node>
	<node lat="63.79194721884531" lon="10.359372221443271" id="-40250">
		<tag k="name" v="Agnetlielva" />
		<tag k="ssr:stedsnr" v="346557" />
		<tag k="waterway" v="river" />
	</node>
	<node lat="63.536475001146705" lon="10.100891660659325" id="-40254">
		<tag k="name" v="Bjørnadalsbekken" />
		<tag k="ssr:stedsnr" v="346776" />
		<tag k="waterway" v="stream" />
	</node>
	<node lat="63.60280000012143" lon="10.437147226108179" id="-40258">
		<tag k="name" v="Bjønnaskotbekken" />
		<tag k="ssr:stedsnr" v="473899" />
		<tag k="waterway" v="stream" />
	</node>
	<node lat="63.61451666436787" lon="10.504524996733867" id="-40263">
		<tag k="name" v="Gjøråsvikbekken" />
		<tag k="ssr:stedsnr" v="474055" />
		<tag k="waterway" v="stream" />
	</node>
	<node lat="63.75504444851072" lon="10.80172499734696" id="-40272">
		<tag k="name" v="Kvitsandbekken" />
		<tag k="ssr:stedsnr" v="351361" />
		<tag k="waterway" v="stream" />
	</node>
	<node lat="63.647683336237" lon="10.42509167463642" id="-40273">
		<tag k="loc_name" v="Årleklompbekken" />
		<tag k="name" v="Årliklompbekken" />
		<tag k="ssr:stedsnr" v="351065" />
		<tag k="waterway" v="stream" />
	</node>
	<node lat="63.65214444866804" lon="10.331661120171757" id="-40282">
		<tag k="name" v="Øybekken" />
		<tag k="ssr:stedsnr" v="351906" />
		<tag k="waterway" v="stream" />
	</node>
	<node lat="63.68821666959651" lon="10.409305565641887" id="-40288">
		<tag k="name" v="Sagelva" />
		<tag k="ssr:stedsnr" v="351952" />
		<tag k="waterway" v="river" />
	</node>
	<node lat="63.60043333455062" lon="10.208549994844141" id="-40294">
		<tag k="name" v="Langsandvika" />
		<tag k="natural" v="bay" />
		<tag k="ssr:stedsnr" v="352253" />
	</node>
	<node lat="63.57377500283995" lon="10.15083056535188" id="-40295">
		<tag k="name" v="Keiseråsbekken" />
		<tag k="ssr:stedsnr" v="352408" />
		<tag k="waterway" v="stream" />
	</node>
	<node lat="63.56223055506294" lon="10.205394435504683" id="-40299">
		<tag k="name" v="Litlstubekken" />
		<tag k="ssr:stedsnr" v="474315" />
		<tag k="waterway" v="stream" />
	</node>
	<node lat="63.7255083367728" lon="10.63668056027206" id="-40312">
		<tag k="name" v="Litl-Tømmertjønna" />
		<tag k="natural" v="water" />
		<tag k="ssr:stedsnr" v="352571" />
	</node>
	<node lat="63.700902774649826" lon="10.68184722539702" id="-40319">
		<tag k="name" v="Litl-Landsemtjønna" />
		<tag k="natural" v="water" />
		<tag k="ssr:stedsnr" v="474535" />
	</node>
	<node lat="63.66114166637262" lon="10.538413893846592" id="-40323">
		<tag k="alt_name" v="Sør-Oksåsvatnet" />
		<tag k="name" v="Søroksåsvatnet" />
		<tag k="natural" v="water" />
		<tag k="ssr:stedsnr" v="474851" />
	</node>
	<node lat="63.63801944681166" lon="10.574294437018258" id="-40333">
		<tag k="name" v="Johøla" />
		<tag k="place" v="locality" />
		<tag k="ssr:stedsnr" v="474948" />
	</node>
	<node lat="63.72527777470612" lon="10.13948334107301" id="-40362">
		<tag k="name" v="Ørnebekken" />
		<tag k="ssr:stedsnr" v="483255" />
		<tag k="waterway" v="stream" />
	</node>
	<node lat="63.723702777790045" lon="10.587341676476147" id="-40365">
		<tag k="name" v="Svarthølen" />
		<tag k="place" v="locality" />
		<tag k="ssr:stedsnr" v="390437" />
	</node>
	<node lat="63.83809166246283" lon="10.226088897554215" id="-40374">
		<tag k="name" v="Høgsterbekken" />
		<tag k="ssr:stedsnr" v="395704" />
		<tag k="waterway" v="stream" />
	</node>
	<node lat="63.629663889873704" lon="10.4394777820674" id="-40388">
		<tag k="alt_name" v="Brennheitjønna" />
		<tag k="name" v="Smålitjønna" />
		<tag k="natural" v="water" />
		<tag k="ssr:stedsnr" v="404918" />
	</node>
	<node lat="63.79816666299119" lon="10.322836101545569" id="-40394">
		<tag k="name" v="Nedre Småkallona" />
		<tag k="natural" v="water" />
		<tag k="ssr:stedsnr" v="406217" />
		<tag k="water" v="lake" />
	</node>
	<node lat="63.615480554712605" lon="9.832374998858313" id="-40395">
		<tag k="name" v="Sørvikelva" />
		<tag k="ssr:stedsnr" v="406254" />
		<tag k="waterway" v="river" />
	</node>
	<node lat="63.704655555904615" lon="10.3199749989251" id="-40407">
		<tag k="name" v="Svartbekken" />
		<tag k="ssr:stedsnr" v="406609" />
		<tag k="waterway" v="stream" />
	</node>
	<node lat="63.74732222074394" lon="10.383941657415667" id="-40413">
		<tag k="name" v="Nordlitjønna" />
		<tag k="natural" v="water" />
		<tag k="ssr:stedsnr" v="406595" />
	</node>
	<node lat="63.6800666647022" lon="10.220647217688763" id="-40415">
		<tag k="name" v="Kvernbekken" />
		<tag k="ssr:stedsnr" v="406717" />
		<tag k="waterway" v="stream" />
	</node>
	<node lat="63.660094442857634" lon="10.15246666685441" id="-40416">
		<tag k="name" v="Klemmentdammen" />
		<tag k="ssr:stedsnr" v="406695" />
		<tag k="waterway" v="dam" />
	</node>
	<node lat="63.737233333525815" lon="10.199958330415024" id="-40428">
		<tag k="name" v="Langvatnet" />
		<tag k="natural" v="water" />
		<tag k="ssr:stedsnr" v="406996" />
		<tag k="water" v="lake" />
	</node>
	<node lat="63.82865833637163" lon="10.215074997091671" id="-40434">
		<tag k="name" v="Grøndalsbekken" />
		<tag k="ssr:stedsnr" v="407618" />
		<tag k="waterway" v="stream" />
	</node>
	<node lat="63.738533332892494" lon="10.488283326573539" id="-40449">
		<tag k="alt_name" v="Inner Fjellvatnet;Stor-Fjellvatnet" />
		<tag k="fixme" v="multiple name tags, choose one and add the other to alt_name" />
		<tag k="name" v="Storfjellvatnet;Innerfjellvatnet" />
		<tag k="natural" v="water" />
		<tag k="ssr:stedsnr" v="412989" />
		<tag k="water" v="lake" />
	</node>
	<node lat="63.59553611076604" lon="10.16091111775477" id="-40454">
		<tag k="name" v="Heilsundtangen" />
		<tag k="natural" v="cape" />
		<tag k="ssr:stedsnr" v="413507" />
	</node>
	<node lat="63.70360555563276" lon="10.6634194426768" id="-40455">
		<tag k="name" v="Tømmertjønna" />
		<tag k="natural" v="water" />
		<tag k="ssr:stedsnr" v="413537" />
	</node>
	<node lat="63.64230277441147" lon="10.554436109854535" id="-40463">
		<tag k="name" v="Oterbekken" />
		<tag k="ssr:stedsnr" v="413960" />
		<tag k="waterway" v="stream" />
	</node>
	<node lat="63.74663333430026" lon="10.75343611937037" id="-40478">
		<tag k="name" v="Heitjønna" />
		<tag k="natural" v="water" />
		<tag k="ssr:stedsnr" v="438211" />
	</node>
	<node lat="63.65924444162572" lon="10.22309444395543" id="-40480">
		<tag k="alt_name" v="Gortjønna" />
		<tag k="name" v="Gorrtjønna" />
		<tag k="natural" v="water" />
		<tag k="ssr:stedsnr" v="438354" />
	</node>
	<node lat="63.55418055457964" lon="10.156155556826631" id="-40491">
		<tag k="name" v="Litlkvernsjøen" />
		<tag k="natural" v="water" />
		<tag k="ssr:stedsnr" v="438551" />
	</node>
	<node lat="63.560133334704155" lon="10.14353333601082" id="-40493">
		<tag k="name" v="Kvernsjøen" />
		<tag k="natural" v="water" />
		<tag k="ssr:stedsnr" v="438555" />
		<tag k="water" v="lake" />
	</node>
</osm>
