<?xml version="1.0" encoding="UTF-8"?>
<osm version="0.6" generator="osmapis">
	<node lat="63.66158611164943" lon="9.886530552331568" id="-90846">
		<tag k="highway" v="path" />
		<tag k="name" v="Oksekleiva" />
		<tag k="ssr:stedsnr" v="42193" />
	</node>
	<node lat="63.76249999689951" lon="10.073458339051511" id="-90866">
		<tag k="man_made" v="quay" />
		<tag k="name" v="Vervet" />
		<tag k="place" v="locality" />
		<tag k="ssr:stedsnr" v="42813" />
	</node>
	<node lat="63.6959611086337" lon="10.353338898775265" id="-90903">
		<tag k="man_made" v="cairn" />
		<tag k="name" v="Fauterikssteinen" />
		<tag k="place" v="locality" />
		<tag k="ssr:stedsnr" v="47916" />
	</node>
	<node lat="63.54922777530649" lon="10.199805545509241" id="-90970">
		<tag k="highway" v="path" />
		<tag k="name" v="Brattstien" />
		<tag k="ssr:stedsnr" v="241843" />
	</node>
	<node lat="63.561294440322065" lon="10.110947229186861" id="-91036">
		<tag k="highway" v="path" />
		<tag k="name" v="Hermstadkleiva" />
		<tag k="ssr:stedsnr" v="99871" />
	</node>
	<node lat="63.652922223090094" lon="10.334719442730472" id="-91046">
		<tag k="highway" v="path" />
		<tag k="name" v="Kamstien" />
		<tag k="ssr:stedsnr" v="102728" />
	</node>
	<node lat="63.71615277427639" lon="10.15157221286956" id="-91086">
		<tag k="highway" v="path" />
		<tag k="name" v="Langvasskleiva" />
		<tag k="ssr:stedsnr" v="103908" />
	</node>
	<node lat="63.51231388471523" lon="10.131047228573436" id="-91089">
		<tag k="highway" v="path" />
		<tag k="name" v="Åsvegen" />
		<tag k="ssr:stedsnr" v="103915" />
	</node>
	<node lat="63.76078888787796" lon="10.136883325834855" id="-91311">
		<tag k="highway" v="path" />
		<tag k="name" v="Bjørnastien" />
		<tag k="ssr:stedsnr" v="163869" />
	</node>
	<node lat="63.61943056001726" lon="10.52079721405773" id="-91498">
		<tag k="highway" v="path" />
		<tag k="name" v="Raumollstien" />
		<tag k="ssr:stedsnr" v="231090" />
	</node>
	<node lat="63.494463888319196" lon="10.015216663084791" id="-91596">
		<tag k="leisure" v="marina" />
		<tag k="name" v="Museum" />
		<tag k="ssr:stedsnr" v="281222" />
	</node>
	<node lat="63.495591662652004" lon="10.059477784218696" id="-91630">
		<tag k="highway" v="path" />
		<tag k="name" v="Dragdalsvegen" />
		<tag k="ssr:stedsnr" v="285078" />
	</node>
	<node lat="63.525797223840186" lon="10.057308327141358" id="-91776">
		<tag k="highway" v="path" />
		<tag k="name" v="Steinvegen" />
		<tag k="ssr:stedsnr" v="467101" />
	</node>
	<node lat="63.64315555929359" lon="9.911166669786569" id="-91778">
		<tag k="highway" v="path" />
		<tag k="name" v="Høykleivan" />
		<tag k="ssr:stedsnr" v="467189" />
	</node>
	<node lat="63.68065833354385" lon="10.212291673809636" id="-91868">
		<tag k="highway" v="path" />
		<tag k="name" v="Steinstien" />
		<tag k="ssr:stedsnr" v="467740" />
	</node>
	<node lat="63.69618673448547" lon="10.276563852007506" id="-91947">
		<tag k="bridge" v="yes" />
		<tag k="layer" v="1" />
		<tag k="name" v="Hjørundhølen bru" />
		<tag k="ssr:stedsnr" v="345608" />
	</node>
	<node lat="63.57771111164299" lon="10.363366675636486" id="-92022">
		<tag k="ford" v="yes" />
		<tag k="name" v="Kinnavadet" />
		<tag k="place" v="locality" />
		<tag k="ssr:stedsnr" v="474219" />
	</node>
	<node lat="63.55159722146371" lon="10.185449999727048" id="-92769">
		<tag k="ford" v="yes" />
		<tag k="name" v="Langdalsvadet" />
		<tag k="place" v="locality" />
		<tag k="ssr:stedsnr" v="595513" />
	</node>
	<node lat="63.697824998598996" lon="9.913561101928622" id="-92885">
		<tag k="highway" v="path" />
		<tag k="name" v="Lisbetstien" />
		<tag k="ssr:stedsnr" v="648101" />
	</node>
	<node lat="63.703263892915544" lon="10.277522226988749" id="-92902">
		<tag k="fixme" v="consider highway=path" />
		<tag k="highway" v="track" />
		<tag k="name" v="Langveien" />
		<tag k="ssr:stedsnr" v="648654" />
	</node>
	<node lat="63.55060278042802" lon="10.11163333927969" id="-93182">
		<tag k="highway" v="path" />
		<tag k="name" v="Trollkleiva" />
		<tag k="ssr:stedsnr" v="892738" />
	</node>
	<node lat="63.63741666458813" lon="10.072377775849468" id="-93467">
		<tag k="highway" v="path" />
		<tag k="name" v="Kleivan" />
		<tag k="ssr:stedsnr" v="766815" />
	</node>
	<node lat="63.63457777385715" lon="10.101936119811798" id="-93468">
		<tag k="highway" v="path" />
		<tag k="name" v="Tråppen" />
		<tag k="ssr:stedsnr" v="766822" />
	</node>
	<node lat="63.68173611308371" lon="10.222880563413339" id="-93686">
		<tag k="highway" v="path" />
		<tag k="name" v="Korsvegen" />
		<tag k="ssr:stedsnr" v="831689" />
	</node>
	<node lat="63.76261666436532" lon="10.071305552375375" id="-93688">
		<tag k="man_made" v="quay" />
		<tag k="name" v="Hustadbryggan" />
		<tag k="place" v="locality" />
		<tag k="ssr:stedsnr" v="831810" />
	</node>
	<node lat="63.64538943868089" lon="9.863430088527563" id="-93773">
		<tag k="bridge" v="yes" />
		<tag k="layer" v="1" />
		<tag k="name" v="Steinbrua" />
		<tag k="ssr:stedsnr" v="923848" />
	</node>
	<node lat="63.70227777796671" lon="10.000236106663973" id="-94061">
		<tag k="highway" v="path" />
		<tag k="name" v="Løfta" />
		<tag k="ssr:stedsnr" v="953812" />
	</node>
	<node lat="63.662911110682316" lon="10.468752781077969" id="-94068">
		<tag k="man_made" v="cairn" />
		<tag k="name" v="Trivalan" />
		<tag k="place" v="locality" />
		<tag k="ssr:stedsnr" v="958115" />
	</node>
	<node lat="63.6599333323128" lon="10.595536101652147" id="-94110">
		<tag k="bridge" v="yes" />
		<tag k="layer" v="1" />
		<tag k="name" v="Stokkåkerbrua" />
		<tag k="ssr:stedsnr" v="969844" />
	</node>
	<node lat="63.76754444250746" lon="10.183341667500002" id="-94483">
		<tag k="fixme" v="consider highway=path" />
		<tag k="highway" v="track" />
		<tag k="name" v="Gamle Rødsjøvegen" />
		<tag k="ssr:stedsnr" v="99194" />
	</node>
	<node lat="63.566049997634515" lon="10.120552775583517" id="-94661">
		<tag k="fixme" v="consider highway=path" />
		<tag k="highway" v="track" />
		<tag k="name" v="Svahylla" />
		<tag k="ssr:stedsnr" v="119337" />
	</node>
	<node lat="63.641616662943626" lon="9.9141999998414" id="-94767">
		<tag k="highway" v="path" />
		<tag k="name" v="Høykleivan" />
		<tag k="ssr:stedsnr" v="159295" />
	</node>
	<node lat="63.64113551005247" lon="10.095046993154853" id="-94783">
		<tag k="bridge" v="yes" />
		<tag k="layer" v="1" />
		<tag k="name" v="Seterbrua" />
		<tag k="ssr:stedsnr" v="159809" />
	</node>
	<node lat="63.58268888837664" lon="9.924219440554891" id="-94809">
		<tag k="man_made" v="pier" />
		<tag k="name" v="Gammelstøa" />
		<tag k="place" v="locality" />
		<tag k="ssr:stedsnr" v="163230" />
	</node>
	<node lat="63.71079999600304" lon="10.30763333646705" id="-94839">
		<tag k="ford" v="yes" />
		<tag k="name" v="Larsvadet" />
		<tag k="place" v="locality" />
		<tag k="ssr:stedsnr" v="163600" />
	</node>
	<node lat="63.54209722384532" lon="10.10602777867634" id="-94856">
		<tag k="highway" v="path" />
		<tag k="name" v="Tømmerkleiva" />
		<tag k="ssr:stedsnr" v="164787" />
	</node>
	<node lat="63.487172221340906" lon="9.990430548083783" id="-95077">
		<tag k="man_made" v="quay" />
		<tag k="name" v="Rødberget havn" />
		<tag k="old_name" v="Røberg havn" />
		<tag k="place" v="locality" />
		<tag k="ssr:stedsnr" v="220266" />
	</node>
	<node lat="63.71165000320295" lon="10.306849999961246" id="-95134">
		<tag k="ford" v="yes" />
		<tag k="name" v="Kattvadet" />
		<tag k="place" v="locality" />
		<tag k="ssr:stedsnr" v="224592" />
	</node>
	<node lat="63.6527305535861" lon="10.123888885673994" id="-95139">
		<tag k="highway" v="path" />
		<tag k="name" v="Slettvegen" />
		<tag k="ssr:stedsnr" v="224722" />
	</node>
	<node lat="63.62477778095614" lon="10.542055558520788" id="-95339">
		<tag k="man_made" v="quay" />
		<tag k="name" v="Sandkaia" />
		<tag k="place" v="locality" />
		<tag k="ssr:stedsnr" v="292883" />
	</node>
	<node lat="63.75459999634816" lon="10.06470276994175" id="-95853">
		<tag k="fixme" v="consider highway=path" />
		<tag k="highway" v="track" />
		<tag k="name" v="Merrakleiva" />
		<tag k="ssr:stedsnr" v="406966" />
	</node>
	<node lat="63.572958336041665" lon="10.382649992388526" id="-95932">
		<tag k="fixme" v="verify maritime location" />
		<tag k="mooring" v="yes" />
		<tag k="name" v="Gammelstøet" />
		<tag k="place" v="locality" />
		<tag k="ssr:stedsnr" v="413274" />
	</node>
	<node lat="63.70556944056507" lon="10.601550009842903" id="-95936">
		<tag k="ford" v="yes" />
		<tag k="name" v="Vålebrua" />
		<tag k="place" v="locality" />
		<tag k="ssr:stedsnr" v="413552" />
	</node>
	<node lat="63.65797499666003" lon="9.870091662354767" id="-96148">
		<tag k="highway" v="path" />
		<tag k="name" v="Steinvegen" />
		<tag k="ssr:stedsnr" v="527045" />
	</node>
	<node lat="63.63226666552752" lon="10.562544449121868" id="-96299">
		<tag k="highway" v="path" />
		<tag k="name" v="Kvitsteinveien" />
		<tag k="ssr:stedsnr" v="535890" />
	</node>
	<node lat="63.56913611176917" lon="10.035125009949269" id="-96539">
		<tag k="highway" v="path" />
		<tag k="name" v="Tjønnbakken" />
		<tag k="ssr:stedsnr" v="589120" />
	</node>
	<node lat="63.76619721954562" lon="10.161902771136665" id="-96542">
		<tag k="highway" v="path" />
		<tag k="name" v="Seterstian" />
		<tag k="ssr:stedsnr" v="588893" />
	</node>
	<node lat="63.50954166981311" lon="10.13990278395203" id="-96737">
		<tag k="alt_name" v="Rørvik fergeleie" />
		<tag k="amenity" v="ferry_terminal" />
		<tag k="name" v="Rørvik ferjekai" />
		<tag k="ssr:stedsnr" v="642554" />
	</node>
	<node lat="63.71113020041363" lon="10.316599745672065" id="-96774">
		<tag k="bridge" v="yes" />
		<tag k="layer" v="1" />
		<tag k="name" v="Alsetbrua" />
		<tag k="ssr:stedsnr" v="648631" />
	</node>
	<node lat="63.653144444920834" lon="10.122102780130263" id="-96803">
		<tag k="highway" v="path" />
		<tag k="name" v="Djupvegen" />
		<tag k="ssr:stedsnr" v="649754" />
	</node>
	<node lat="63.58307777735188" lon="10.346805547509563" id="-96961">
		<tag k="highway" v="path" />
		<tag k="name" v="Fulstien" />
		<tag k="ssr:stedsnr" v="717025" />
	</node>
	<node lat="63.69135555628246" lon="9.888133323256492" id="-97139">
		<tag k="highway" v="path" />
		<tag k="name" v="Strandastien" />
		<tag k="ssr:stedsnr" v="770047" />
	</node>
	<node lat="63.657458332814166" lon="9.864777776846417" id="-97140">
		<tag k="highway" v="path" />
		<tag k="name" v="Litlkleiva" />
		<tag k="ssr:stedsnr" v="770050" />
	</node>
	<node lat="63.65044166502408" lon="10.100499992449823" id="-97164">
		<tag k="highway" v="path" />
		<tag k="name" v="Marikollstien" />
		<tag k="ssr:stedsnr" v="770737" />
	</node>
	<node lat="63.58790833259611" lon="10.376530545562348" id="-97234">
		<tag k="ford" v="yes" />
		<tag k="name" v="Kummurvaet" />
		<tag k="place" v="locality" />
		<tag k="ssr:stedsnr" v="777050" />
	</node>
	<node lat="63.6425833290912" lon="10.563475002053792" id="-97242">
		<tag k="ford" v="yes" />
		<tag k="name" v="Vaet" />
		<tag k="place" v="locality" />
		<tag k="ssr:stedsnr" v="777942" />
	</node>
	<node lat="63.59353611389612" lon="9.87069167283015" id="-97498">
		<tag k="highway" v="path" />
		<tag k="name" v="Råkivegen" />
		<tag k="ssr:stedsnr" v="833519" />
	</node>
	<node lat="63.59210232205792" lon="10.4407343486312" id="-97847">
		<tag k="alt_name" v="Sprangakseltunnelen" />
		<tag k="layer" v="-1" />
		<tag k="name" v="Sprangakslatunnelen" />
		<tag k="ssr:stedsnr" v="954728" />
		<tag k="tunnel" v="yes" />
	</node>
	<node lat="63.56559444314061" lon="9.895752781003294" id="-97849">
		<tag k="man_made" v="quay" />
		<tag k="name" v="Kvithyllhamna" />
		<tag k="place" v="locality" />
		<tag k="ssr:stedsnr" v="955922" />
	</node>
	<node lat="63.7309743144194" lon="10.620647636087142" id="-97870">
		<tag k="bridge" v="yes" />
		<tag k="layer" v="1" />
		<tag k="name" v="Ålvassbrua" />
		<tag k="ssr:stedsnr" v="958268" />
	</node>
	<node lat="63.56969444153908" lon="10.41431110843697" id="-97873">
		<tag k="fixme" v="verify maritime location" />
		<tag k="mooring" v="yes" />
		<tag k="name" v="Flodderstøet" />
		<tag k="place" v="locality" />
		<tag k="ssr:stedsnr" v="959012" />
	</node>
	<node lat="63.54895018181234" lon="9.919502277379175" id="-98383">
		<tag k="leisure" v="marina" />
		<tag k="name" v="Petterhavna" />
		<tag k="ssr:stedsnr" v="1076698" />
	</node>
</osm>
