<?xml version="1.0" encoding="UTF-8"?>
<osm version="0.6" generator="osmapis">
	<node lat="63.71492500273684" lon="10.397477774526658" id="-39022">
		<tag k="fixme" v="consider natural=peak for the most distinct mountains in the district" />
		<tag k="name" v="Sagåsen" />
		<tag k="natural" v="hill" />
		<tag k="place" v="locality" />
		<tag k="ssr:stedsnr" v="229952" />
	</node>
	<node lat="63.6619055588742" lon="10.430455553082881" id="-39024">
		<tag k="name" v="Smålian" />
		<tag k="natural" v="slope" />
		<tag k="place" v="locality" />
		<tag k="ssr:stedsnr" v="230072" />
	</node>
	<node lat="63.68528610713565" lon="10.322819434696827" id="-39025">
		<tag k="name" v="Korpheia" />
		<tag k="natural" v="hill" />
		<tag k="place" v="locality" />
		<tag k="ssr:stedsnr" v="230887" />
	</node>
	<node lat="63.62553333030939" lon="10.34400555851605" id="-39027">
		<tag k="name" v="Høgslia" />
		<tag k="natural" v="slope" />
		<tag k="place" v="locality" />
		<tag k="ssr:stedsnr" v="230949" />
	</node>
	<node lat="63.60843333083667" lon="10.299247222854776" id="-39028">
		<tag k="name" v="Bjønndalen" />
		<tag k="natural" v="valley" />
		<tag k="place" v="locality" />
		<tag k="ssr:stedsnr" v="230968" />
	</node>
	<node lat="63.59535555572755" lon="10.337738896571917" id="-39029">
		<tag k="name" v="Langtjønnlia" />
		<tag k="natural" v="slope" />
		<tag k="place" v="locality" />
		<tag k="ssr:stedsnr" v="231055" />
	</node>
	<node lat="63.60447777776983" lon="10.247591673713142" id="-39041">
		<tag k="name" v="Granåsen" />
		<tag k="natural" v="hill" />
		<tag k="place" v="locality" />
		<tag k="ssr:stedsnr" v="231366" />
	</node>
	<node lat="63.65041944134376" lon="10.287438880968809" id="-39042">
		<tag k="name" v="Storbakkan" />
		<tag k="natural" v="slope" />
		<tag k="place" v="locality" />
		<tag k="ssr:stedsnr" v="231370" />
	</node>
	<node lat="63.6523027801121" lon="10.28161667055822" id="-39043">
		<tag k="name" v="Bjørkhaugen" />
		<tag k="natural" v="hill" />
		<tag k="place" v="locality" />
		<tag k="ssr:stedsnr" v="231400" />
	</node>
	<node lat="63.70439721976338" lon="10.692741666491584" id="-39044">
		<tag k="name" v="Gammeltofta" />
		<tag k="place" v="locality" />
		<tag k="ssr:stedsnr" v="231592" />
	</node>
	<node lat="63.70518611480402" lon="10.691627774106175" id="-39045">
		<tag k="name" v="Hallin" />
		<tag k="natural" v="slope" />
		<tag k="place" v="locality" />
		<tag k="ssr:stedsnr" v="231593" />
	</node>
	<node lat="63.530391669268674" lon="10.172241664461898" id="-39048">
		<tag k="name" v="Lian" />
		<tag k="natural" v="slope" />
		<tag k="place" v="locality" />
		<tag k="ssr:stedsnr" v="231626" />
	</node>
	<node lat="63.678363885740204" lon="10.5522833343944" id="-39050">
		<tag k="name" v="Litl-Bjørshølåsen" />
		<tag k="natural" v="hill" />
		<tag k="place" v="locality" />
		<tag k="ssr:stedsnr" v="231718" />
	</node>
	<node lat="63.636230552006566" lon="10.580155556475404" id="-39052">
		<tag k="name" v="Sveberget" />
		<tag k="natural" v="hill" />
		<tag k="place" v="locality" />
		<tag k="ssr:stedsnr" v="231942" />
	</node>
	<node lat="63.76115555270739" lon="10.197191668245539" id="-39054">
		<tag k="fixme" v="consider natural=peak for the most distinct mountains in the district" />
		<tag k="name" v="Svartvikklumpen" />
		<tag k="natural" v="hill" />
		<tag k="place" v="locality" />
		<tag k="ssr:stedsnr" v="13204" />
	</node>
	<node lat="63.743230551228514" lon="10.133886116297568" id="-39055">
		<tag k="fixme" v="consider natural=peak for the most distinct mountains in the district" />
		<tag k="name" v="Marislættkammen" />
		<tag k="natural" v="hill" />
		<tag k="place" v="locality" />
		<tag k="ssr:stedsnr" v="13209" />
	</node>
	<node lat="63.610712488318924" lon="10.361829671004601" id="-39057">
		<tag k="fixme" v="consider natural=peak for the most distinct mountains in the district" />
		<tag k="name" v="Kjerringklumpen" />
		<tag k="natural" v="hill" />
		<tag k="place" v="locality" />
		<tag k="ssr:stedsnr" v="13303" />
	</node>
	<node lat="63.59964444185775" lon="10.265772231868823" id="-39058">
		<tag k="fixme" v="consider natural=peak for the most distinct mountains in the district" />
		<tag k="name" v="Randa" />
		<tag k="natural" v="hill" />
		<tag k="place" v="locality" />
		<tag k="ssr:stedsnr" v="13307" />
	</node>
	<node lat="63.73741388686784" lon="10.311658326080266" id="-39065">
		<tag k="fixme" v="consider natural=peak for the most distinct mountains in the district" />
		<tag k="name" v="Vollaskurven" />
		<tag k="natural" v="hill" />
		<tag k="place" v="locality" />
		<tag k="ssr:stedsnr" v="13476" />
	</node>
	<node lat="63.551108332938185" lon="10.050436103685543" id="-39067">
		<tag k="name" v="Karivikheia" />
		<tag k="natural" v="hill" />
		<tag k="place" v="locality" />
		<tag k="ssr:stedsnr" v="13602" />
	</node>
	<node lat="63.54815833132462" lon="10.06950277504712" id="-39068">
		<tag k="name" v="Korthaugen" />
		<tag k="natural" v="hill" />
		<tag k="place" v="locality" />
		<tag k="ssr:stedsnr" v="13603" />
	</node>
	<node lat="63.71225277950999" lon="10.700216662129035" id="-39072">
		<tag k="fixme" v="consider natural=peak for the most distinct mountains in the district" />
		<tag k="name" v="Varglia" />
		<tag k="natural" v="hill" />
		<tag k="place" v="locality" />
		<tag k="ssr:stedsnr" v="13519" />
	</node>
	<node lat="63.58506944267844" lon="10.106833337631473" id="-39073">
		<tag k="fixme" v="consider natural=peak for the most distinct mountains in the district" />
		<tag k="name" v="Bjørneråsen" />
		<tag k="natural" v="hill" />
		<tag k="place" v="locality" />
		<tag k="ssr:stedsnr" v="13572" />
	</node>
	<node lat="63.62943611525766" lon="9.996280554476764" id="-39079">
		<tag k="fixme" v="consider natural=peak for the most distinct mountains in the district" />
		<tag k="loc_name" v="Rofjellet" />
		<tag k="name" v="Rafjellet" />
		<tag k="natural" v="hill" />
		<tag k="place" v="locality" />
		<tag k="ssr:stedsnr" v="13887" />
	</node>
	<node lat="63.63291667042816" lon="9.929597216558944" id="-39080">
		<tag k="name" v="Skurvheia" />
		<tag k="natural" v="hill" />
		<tag k="place" v="locality" />
		<tag k="ssr:stedsnr" v="13890" />
	</node>
	<node lat="63.63794166349524" lon="9.856163879519997" id="-39082">
		<tag k="alt_name" v="Holaheia" />
		<tag k="fixme" v="consider natural=peak for the most distinct mountains in the district" />
		<tag k="name" v="Buåsen" />
		<tag k="natural" v="hill" />
		<tag k="place" v="locality" />
		<tag k="ssr:stedsnr" v="13916" />
	</node>
	<node lat="63.61192222620403" lon="9.831605550327922" id="-39084">
		<tag k="name" v="Lia" />
		<tag k="natural" v="hill" />
		<tag k="place" v="locality" />
		<tag k="ssr:stedsnr" v="13992" />
	</node>
	<node lat="63.76008888490127" lon="10.75929999979013" id="-39090">
		<tag k="name" v="Rotheia" />
		<tag k="natural" v="hill" />
		<tag k="place" v="locality" />
		<tag k="ssr:stedsnr" v="14776" />
	</node>
	<node lat="63.724308329993164" lon="10.613702772371264" id="-39091">
		<tag k="name" v="Høglendet" />
		<tag k="natural" v="hill" />
		<tag k="place" v="locality" />
		<tag k="ssr:stedsnr" v="26408" />
	</node>
	<node lat="63.783841668945584" lon="10.584355565350688" id="-39092">
		<tag k="name" v="Ytterliskaret" />
		<tag k="natural" v="valley" />
		<tag k="place" v="locality" />
		<tag k="ssr:stedsnr" v="28019" />
	</node>
	<node lat="63.773694446697064" lon="10.551477777037942" id="-39093">
		<tag k="name" v="Farbekkskaret" />
		<tag k="natural" v="valley" />
		<tag k="place" v="locality" />
		<tag k="ssr:stedsnr" v="28024" />
	</node>
	<node lat="63.537713888904534" lon="9.914558325521535" id="-39096">
		<tag k="fixme" v="consider natural=peak for the most distinct mountains in the district" />
		<tag k="name" v="Esvikberga" />
		<tag k="natural" v="hill" />
		<tag k="place" v="locality" />
		<tag k="ssr:stedsnr" v="38213" />
	</node>
	<node lat="63.588280556329515" lon="10.017211108845359" id="-39099">
		<tag k="fixme" v="consider natural=peak for the most distinct mountains in the district" />
		<tag k="name" v="Våtskodalsåsen" />
		<tag k="natural" v="hill" />
		<tag k="place" v="locality" />
		<tag k="ssr:stedsnr" v="38317" />
	</node>
	<node lat="63.5959083294526" lon="10.090874997545445" id="-39104">
		<tag k="name" v="Styggheia" />
		<tag k="natural" v="hill" />
		<tag k="place" v="locality" />
		<tag k="ssr:stedsnr" v="38805" />
	</node>
	<node lat="63.59595000058889" lon="10.13024445104905" id="-39105">
		<tag k="fixme" v="consider natural=peak for the most distinct mountains in the district" />
		<tag k="name" v="Raudfjellet" />
		<tag k="natural" v="hill" />
		<tag k="place" v="locality" />
		<tag k="ssr:stedsnr" v="38810" />
	</node>
	<node lat="63.58035555791212" lon="10.124125000256143" id="-39106">
		<tag k="name" v="Strandahaugan" />
		<tag k="natural" v="hill" />
		<tag k="place" v="locality" />
		<tag k="ssr:stedsnr" v="38813" />
	</node>
	<node lat="63.610269443233456" lon="10.138069450150493" id="-39107">
		<tag k="name" v="Storlia" />
		<tag k="natural" v="slope" />
		<tag k="place" v="locality" />
		<tag k="ssr:stedsnr" v="38861" />
	</node>
	<node lat="63.7759194417959" lon="10.114833326699237" id="-39110">
		<tag k="name" v="Svarthol-lia" />
		<tag k="natural" v="slope" />
		<tag k="place" v="locality" />
		<tag k="ssr:stedsnr" v="38875" />
	</node>
	<node lat="63.69440833236036" lon="9.907694436448914" id="-39116">
		<tag k="name" v="Gangarhaugen" />
		<tag k="natural" v="hill" />
		<tag k="place" v="locality" />
		<tag k="ssr:stedsnr" v="42103" />
	</node>
	<node lat="63.52213055436564" lon="10.048433328397234" id="-39118">
		<tag k="name" v="Geilhaugen" />
		<tag k="natural" v="hill" />
		<tag k="place" v="locality" />
		<tag k="ssr:stedsnr" v="42122" />
	</node>
	<node lat="63.51915277419343" lon="10.020613890024189" id="-39119">
		<tag k="name" v="Kvidalshaugen" />
		<tag k="natural" v="slope" />
		<tag k="place" v="locality" />
		<tag k="ssr:stedsnr" v="42126" />
	</node>
	<node lat="63.495522226340725" lon="10.063916658785821" id="-39123">
		<tag k="name" v="Dragdalen" />
		<tag k="natural" v="valley" />
		<tag k="place" v="locality" />
		<tag k="ssr:stedsnr" v="42079" />
	</node>
	<node lat="63.49507777878018" lon="10.042044451974965" id="-39125">
		<tag k="name" v="Ramnflauget" />
		<tag k="natural" v="valley" />
		<tag k="place" v="locality" />
		<tag k="ssr:stedsnr" v="42088" />
	</node>
	<node lat="63.692266667466164" lon="10.227930560273919" id="-39126">
		<tag k="name" v="Høvelen" />
		<tag k="place" v="locality" />
		<tag k="ssr:stedsnr" v="42604" />
	</node>
	<node lat="63.663816669617006" lon="10.214108334844434" id="-39128">
		<tag k="fixme" v="consider natural=peak for the most distinct mountains in the district" />
		<tag k="name" v="Isakåsen" />
		<tag k="natural" v="hill" />
		<tag k="place" v="locality" />
		<tag k="ssr:stedsnr" v="42615" />
	</node>
	<node lat="63.628869442446394" lon="9.98160278715647" id="-39131">
		<tag k="name" v="Bjørndalen" />
		<tag k="natural" v="valley" />
		<tag k="place" v="locality" />
		<tag k="ssr:stedsnr" v="42509" />
	</node>
	<node lat="63.72115833143801" lon="10.234611119958467" id="-39132">
		<tag k="name" v="Granlimoen" />
		<tag k="place" v="locality" />
		<tag k="ssr:stedsnr" v="42523" />
	</node>
	<node lat="63.791186106801824" lon="10.30428610319326" id="-39133">
		<tag k="name" v="Seterskaret" />
		<tag k="natural" v="valley" />
		<tag k="place" v="locality" />
		<tag k="ssr:stedsnr" v="42524" />
	</node>
	<node lat="63.64149166915512" lon="9.9711416614743" id="-39134">
		<tag k="name" v="Møssmørheia" />
		<tag k="natural" v="hill" />
		<tag k="place" v="locality" />
		<tag k="ssr:stedsnr" v="42528" />
	</node>
	<node lat="63.71361666749898" lon="10.346211109749992" id="-39135">
		<tag k="fixme" v="consider natural=peak for the most distinct mountains in the district" />
		<tag k="name" v="Resdalsåsen" />
		<tag k="natural" v="hill" />
		<tag k="place" v="locality" />
		<tag k="ssr:stedsnr" v="42575" />
	</node>
	<node lat="63.69520277922849" lon="10.314652770603816" id="-39137">
		<tag k="name" v="Vargskardet" />
		<tag k="natural" v="valley" />
		<tag k="place" v="locality" />
		<tag k="ssr:stedsnr" v="42585" />
	</node>
	<node lat="63.52992499626507" lon="10.155605556299463" id="-39142">
		<tag k="name" v="Aunaheian" />
		<tag k="natural" v="hill" />
		<tag k="place" v="locality" />
		<tag k="ssr:stedsnr" v="42879" />
	</node>
	<node lat="63.53147221975513" lon="10.161324992594126" id="-39143">
		<tag k="name" v="Bjørnslættet" />
		<tag k="place" v="locality" />
		<tag k="ssr:stedsnr" v="42881" />
	</node>
	<node lat="63.51816944674535" lon="10.148205546157145" id="-39144">
		<tag k="name" v="Linåkervollan" />
		<tag k="place" v="locality" />
		<tag k="ssr:stedsnr" v="42883" />
	</node>
	<node lat="63.518161113053424" lon="10.122324991099484" id="-39145">
		<tag k="name" v="Grindbakken" />
		<tag k="natural" v="slope" />
		<tag k="place" v="locality" />
		<tag k="ssr:stedsnr" v="42887" />
	</node>
	<node lat="63.649119440435186" lon="9.969766668613634" id="-39149">
		<tag k="name" v="Grøndalsskardet" />
		<tag k="natural" v="valley" />
		<tag k="place" v="locality" />
		<tag k="ssr:stedsnr" v="43013" />
	</node>
	<node lat="63.60186389104992" lon="10.0760944348435" id="-39150">
		<tag k="fixme" v="consider natural=peak for the most distinct mountains in the district" />
		<tag k="name" v="Svartåsen" />
		<tag k="natural" v="hill" />
		<tag k="place" v="locality" />
		<tag k="ssr:stedsnr" v="42785" />
	</node>
	<node lat="63.50853055134963" lon="10.077897220457382" id="-39154">
		<tag k="name" v="Kamskardet" />
		<tag k="natural" v="valley" />
		<tag k="place" v="locality" />
		<tag k="ssr:stedsnr" v="42907" />
	</node>
	<node lat="63.78167499753659" lon="10.249272213841472" id="-39156">
		<tag k="name" v="Sørlia" />
		<tag k="natural" v="slope" />
		<tag k="place" v="locality" />
		<tag k="ssr:stedsnr" v="42929" />
	</node>
	<node lat="63.61999722406205" lon="9.97525832670755" id="-39161">
		<tag k="name" v="Svartlia" />
		<tag k="natural" v="slope" />
		<tag k="place" v="locality" />
		<tag k="ssr:stedsnr" v="42990" />
	</node>
	<node lat="63.737677781221926" lon="10.301680560834612" id="-39162">
		<tag k="name" v="Granlidalen" />
		<tag k="natural" v="valley" />
		<tag k="place" v="locality" />
		<tag k="ssr:stedsnr" v="42991" />
	</node>
	<node lat="63.683913889650796" lon="9.929027770886051" id="-39163">
		<tag k="name" v="Frengslia" />
		<tag k="natural" v="slope" />
		<tag k="place" v="locality" />
		<tag k="ssr:stedsnr" v="43177" />
	</node>
	<node lat="63.78128055371924" lon="10.353400006244687" id="-39165">
		<tag k="name" v="Vesterlia" />
		<tag k="natural" v="slope" />
		<tag k="place" v="locality" />
		<tag k="ssr:stedsnr" v="43527" />
	</node>
	<node lat="63.544352779839485" lon="10.105663896667053" id="-39169">
		<tag k="name" v="Sjurahaugen" />
		<tag k="natural" v="hill" />
		<tag k="place" v="locality" />
		<tag k="ssr:stedsnr" v="43807" />
	</node>
	<node lat="63.684872221922284" lon="10.513322223658056" id="-39171">
		<tag k="name" v="Halvardslettet" />
		<tag k="place" v="locality" />
		<tag k="ssr:stedsnr" v="47079" />
	</node>
	<node lat="63.78131944007736" lon="10.685747227447001" id="-39174">
		<tag k="name" v="Styggdalen" />
		<tag k="natural" v="valley" />
		<tag k="place" v="locality" />
		<tag k="ssr:stedsnr" v="47385" />
	</node>
	<node lat="63.616580559070954" lon="10.451686116651663" id="-39175">
		<tag k="name" v="Skjertoliheia" />
		<tag k="natural" v="hill" />
		<tag k="place" v="locality" />
		<tag k="ssr:stedsnr" v="47913" />
	</node>
	<node lat="63.66540833110302" lon="10.310677770400481" id="-39178">
		<tag k="fixme" v="consider natural=peak for the most distinct mountains in the district" />
		<tag k="name" v="Bjørktjønnåsen" />
		<tag k="natural" v="hill" />
		<tag k="place" v="locality" />
		<tag k="ssr:stedsnr" v="47881" />
	</node>
	<node lat="63.740230556904805" lon="10.444105548085767" id="-39179">
		<tag k="fixme" v="consider natural=peak for the most distinct mountains in the district" />
		<tag k="name" v="Storhåmmåren" />
		<tag k="natural" v="hill" />
		<tag k="place" v="locality" />
		<tag k="ssr:stedsnr" v="47969" />
	</node>
	<node lat="63.76173611462333" lon="10.687777776663125" id="-39180">
		<tag k="name" v="Langdalen" />
		<tag k="natural" v="valley" />
		<tag k="place" v="locality" />
		<tag k="ssr:stedsnr" v="48171" />
	</node>
	<node lat="63.62107222215036" lon="10.503141667076644" id="-39182">
		<tag k="name" v="Hevlan" />
		<tag k="place" v="locality" />
		<tag k="ssr:stedsnr" v="49102" />
	</node>
	<node lat="63.62213333163235" lon="10.516502785211054" id="-39183">
		<tag k="name" v="Flatamarka" />
		<tag k="natural" v="slope" />
		<tag k="place" v="locality" />
		<tag k="ssr:stedsnr" v="49103" />
	</node>
	<node lat="63.6219861078677" lon="10.519791659387833" id="-39184">
		<tag k="name" v="Selbygghøgget" />
		<tag k="natural" v="slope" />
		<tag k="place" v="locality" />
		<tag k="ssr:stedsnr" v="49105" />
	</node>
	<node lat="63.584627780407615" lon="10.409558329526382" id="-39185">
		<tag k="name" v="Hommelhølet" />
		<tag k="natural" v="valley" />
		<tag k="place" v="locality" />
		<tag k="ssr:stedsnr" v="49022" />
	</node>
	<node lat="63.58826944781309" lon="10.413263895409433" id="-39188">
		<tag k="name" v="Bårhaugen" />
		<tag k="natural" v="hill" />
		<tag k="place" v="locality" />
		<tag k="ssr:stedsnr" v="49028" />
	</node>
	<node lat="63.59537222003035" lon="10.403797215323003" id="-39189">
		<tag k="name" v="Almlia" />
		<tag k="natural" v="slope" />
		<tag k="place" v="locality" />
		<tag k="ssr:stedsnr" v="49029" />
	</node>
	<node lat="63.56189444006209" lon="10.21473610802733" id="-39191">
		<tag k="name" v="Bortistuåsen" />
		<tag k="natural" v="ridge" />
		<tag k="place" v="locality" />
		<tag k="ssr:stedsnr" v="49372" />
	</node>
	<node lat="63.55147777981906" lon="10.172880557572201" id="-39196">
		<tag k="name" v="Vester Langdalen" />
		<tag k="natural" v="valley" />
		<tag k="place" v="locality" />
		<tag k="ssr:stedsnr" v="49568" />
	</node>
	<node lat="63.67713888784509" lon="10.562291676249762" id="-39200">
		<tag k="name" v="Korkelhaugen" />
		<tag k="natural" v="hill" />
		<tag k="place" v="locality" />
		<tag k="ssr:stedsnr" v="49703" />
	</node>
	<node lat="63.646816667709025" lon="10.547849998081604" id="-39204">
		<tag k="name" v="Sagmyrhaugen" />
		<tag k="natural" v="hill" />
		<tag k="place" v="locality" />
		<tag k="ssr:stedsnr" v="49773" />
	</node>
	<node lat="63.62978611506227" lon="10.529236118781599" id="-39208">
		<tag k="name" v="Kjerringsvedalen" />
		<tag k="natural" v="valley" />
		<tag k="place" v="locality" />
		<tag k="ssr:stedsnr" v="49971" />
	</node>
	<node lat="63.633158329225466" lon="10.528608339570656" id="-39209">
		<tag k="name" v="Kopplikammen" />
		<tag k="place" v="locality" />
		<tag k="ssr:stedsnr" v="49976" />
	</node>
	<node lat="63.63563889005743" lon="10.554958331883153" id="-39210">
		<tag k="name" v="Seteråsen" />
		<tag k="natural" v="hill" />
		<tag k="place" v="locality" />
		<tag k="ssr:stedsnr" v="49984" />
	</node>
	<node lat="63.644236110677326" lon="10.479936109548785" id="-39244">
		<tag k="name" v="Svartberga" />
		<tag k="natural" v="hill" />
		<tag k="place" v="locality" />
		<tag k="ssr:stedsnr" v="73382" />
	</node>
	<node lat="63.64094722175354" lon="10.573288893033734" id="-39245">
		<tag k="name" v="Tømmerdalslia" />
		<tag k="natural" v="slope" />
		<tag k="place" v="locality" />
		<tag k="ssr:stedsnr" v="73383" />
	</node>
	<node lat="63.70455277460635" lon="10.057533331097774" id="-39250">
		<tag k="fixme" v="consider natural=peak for the most distinct mountains in the district" />
		<tag k="name" v="Kammen" />
		<tag k="natural" v="hill" />
		<tag k="place" v="locality" />
		<tag k="ssr:stedsnr" v="73773" />
	</node>
	<node lat="63.69917190089319" lon="9.975055875364621" id="-39251">
		<tag k="fixme" v="consider natural=peak for the most distinct mountains in the district" />
		<tag k="name" v="Hafellheia" />
		<tag k="natural" v="hill" />
		<tag k="place" v="locality" />
		<tag k="ssr:stedsnr" v="73775" />
	</node>
	<node lat="63.49558333428511" lon="10.051505557954519" id="-39252">
		<tag k="fixme" v="consider natural=peak for the most distinct mountains in the district" />
		<tag k="name" v="Skyråsen" />
		<tag k="natural" v="hill" />
		<tag k="place" v="locality" />
		<tag k="ssr:stedsnr" v="74033" />
	</node>
	<node lat="63.751586113172536" lon="10.19169999029787" id="-39256">
		<tag k="name" v="Harkurdklumpen" />
		<tag k="natural" v="hill" />
		<tag k="place" v="locality" />
		<tag k="ssr:stedsnr" v="74162" />
	</node>
	<node lat="63.72311110877592" lon="10.813786112246069" id="-39257">
		<tag k="fixme" v="consider natural=peak for the most distinct mountains in the district" />
		<tag k="name" v="Holmhøgåsen" />
		<tag k="natural" v="hill" />
		<tag k="place" v="locality" />
		<tag k="ssr:stedsnr" v="74168" />
	</node>
	<node lat="63.71083888675568" lon="10.05212222951387" id="-39276">
		<tag k="fixme" v="consider natural=peak for the most distinct mountains in the district" />
		<tag k="name" v="Slettheia" />
		<tag k="natural" v="hill" />
		<tag k="place" v="locality" />
		<tag k="ssr:stedsnr" v="74758" />
	</node>
	<node lat="63.64100555623567" lon="10.05292778352185" id="-39278">
		<tag k="name" v="Husvegglia" />
		<tag k="natural" v="hill" />
		<tag k="place" v="locality" />
		<tag k="ssr:stedsnr" v="74905" />
	</node>
	<node lat="63.676238887078156" lon="9.884063889393849" id="-39280">
		<tag k="fixme" v="consider natural=peak for the most distinct mountains in the district" />
		<tag k="name" v="Litjoksen" />
		<tag k="natural" v="hill" />
		<tag k="place" v="locality" />
		<tag k="ssr:stedsnr" v="82226" />
	</node>
	<node lat="63.711494447031804" lon="10.554272218503284" id="-39283">
		<tag k="name" v="Jølla" />
		<tag k="place" v="locality" />
		<tag k="ssr:stedsnr" v="87402" />
	</node>
	<node lat="63.57682222663908" lon="10.408933334901848" id="-39284">
		<tag k="fixme" v="consider natural=peak for the most distinct mountains in the district" />
		<tag k="name" v="Borgåsen" />
		<tag k="natural" v="hill" />
		<tag k="place" v="locality" />
		<tag k="ssr:stedsnr" v="87416" />
	</node>
	<node lat="63.62892499638883" lon="10.566091669097226" id="-39285">
		<tag k="name" v="Uren" />
		<tag k="place" v="locality" />
		<tag k="ssr:stedsnr" v="87424" />
	</node>
	<node lat="63.77494999793914" lon="10.513380545459016" id="-39286">
		<tag k="name" v="Stordalen" />
		<tag k="natural" v="valley" />
		<tag k="place" v="locality" />
		<tag k="ssr:stedsnr" v="89005" />
	</node>
	<node lat="63.78483888665398" lon="10.547411105282773" id="-39289">
		<tag k="fixme" v="consider natural=peak for the most distinct mountains in the district" />
		<tag k="name" v="Forsellhøgda" />
		<tag k="natural" v="hill" />
		<tag k="place" v="locality" />
		<tag k="ssr:stedsnr" v="89013" />
	</node>
	<node lat="63.833519446738315" lon="10.598852774200921" id="-39290">
		<tag k="name" v="Orvasslia" />
		<tag k="natural" v="slope" />
		<tag k="place" v="locality" />
		<tag k="ssr:stedsnr" v="89070" />
	</node>
	<node lat="63.66909166478891" lon="9.948627770133884" id="-39297">
		<tag k="name" v="Ryggan" />
		<tag k="natural" v="ridge" />
		<tag k="place" v="locality" />
		<tag k="ssr:stedsnr" v="99306" />
	</node>
	<node lat="63.60706944409493" lon="9.964613897157413" id="-39299">
		<tag k="fixme" v="consider natural=peak for the most distinct mountains in the district" />
		<tag k="name" v="Brøliberget" />
		<tag k="natural" v="hill" />
		<tag k="place" v="locality" />
		<tag k="ssr:stedsnr" v="99222" />
	</node>
	<node lat="63.56763889061823" lon="10.14478054892593" id="-39305">
		<tag k="fixme" v="consider natural=peak for the most distinct mountains in the district" />
		<tag k="name" v="Kvernsjøliåsen" />
		<tag k="natural" v="hill" />
		<tag k="place" v="locality" />
		<tag k="ssr:stedsnr" v="99883" />
	</node>
	<node lat="63.67761666510805" lon="9.822222218411719" id="-39314">
		<tag k="name" v="Galthammarhaugen" />
		<tag k="natural" v="hill" />
		<tag k="place" v="locality" />
		<tag k="ssr:stedsnr" v="103002" />
	</node>
	<node lat="63.63229444439243" lon="9.835700007551" id="-39316">
		<tag k="name" v="Buåsen" />
		<tag k="natural" v="hill" />
		<tag k="place" v="locality" />
		<tag k="ssr:stedsnr" v="103027" />
	</node>
	<node lat="63.52255555539634" lon="10.064458333036875" id="-39319">
		<tag k="fixme" v="consider natural=peak for the most distinct mountains in the district" />
		<tag k="name" v="Kallfjella" />
		<tag k="natural" v="hill" />
		<tag k="place" v="locality" />
		<tag k="ssr:stedsnr" v="103102" />
	</node>
	<node lat="63.50317222400717" lon="9.953408327474436" id="-39324">
		<tag k="name" v="Trastrabben" />
		<tag k="natural" v="slope" />
		<tag k="place" v="locality" />
		<tag k="ssr:stedsnr" v="103091" />
	</node>
	<node lat="63.69581667071465" lon="9.936424992416363" id="-39325">
		<tag k="name" v="Brennsvea" />
		<tag k="natural" v="slope" />
		<tag k="place" v="locality" />
		<tag k="ssr:stedsnr" v="103092" />
	</node>
	<node lat="63.70128333100668" lon="9.90945832594504" id="-39326">
		<tag k="fixme" v="consider natural=peak for the most distinct mountains in the district" />
		<tag k="name" v="Joberget" />
		<tag k="natural" v="hill" />
		<tag k="place" v="locality" />
		<tag k="ssr:stedsnr" v="103094" />
	</node>
	<node lat="63.77031388954807" lon="10.357030545639407" id="-39332">
		<tag k="name" v="Vesterlia" />
		<tag k="natural" v="slope" />
		<tag k="place" v="locality" />
		<tag k="ssr:stedsnr" v="103526" />
	</node>
	<node lat="63.73390000119426" lon="10.342802771857741" id="-39337">
		<tag k="name" v="Kveldheia" />
		<tag k="natural" v="hill" />
		<tag k="place" v="locality" />
		<tag k="ssr:stedsnr" v="103607" />
	</node>
	<node lat="63.68847499842251" lon="10.31143334209222" id="-39339">
		<tag k="name" v="Hjørdisskardet" />
		<tag k="natural" v="valley" />
		<tag k="place" v="locality" />
		<tag k="ssr:stedsnr" v="103629" />
	</node>
	<node lat="63.69050833354235" lon="10.310433329064686" id="-39340">
		<tag k="name" v="Langleitlia" />
		<tag k="natural" v="slope" />
		<tag k="place" v="locality" />
		<tag k="ssr:stedsnr" v="103631" />
	</node>
	<node lat="63.671352779511345" lon="10.24294167149426" id="-39341">
		<tag k="fixme" v="consider natural=peak for the most distinct mountains in the district" />
		<tag k="name" v="Hyllvegåsen" />
		<tag k="natural" v="hill" />
		<tag k="place" v="locality" />
		<tag k="ssr:stedsnr" v="103688" />
	</node>
	<node lat="63.67235277715693" lon="10.247388879237304" id="-39342">
		<tag k="name" v="Skolaskardet" />
		<tag k="natural" v="valley" />
		<tag k="place" v="locality" />
		<tag k="ssr:stedsnr" v="103694" />
	</node>
	<node lat="63.64781388674381" lon="10.017036104002095" id="-39344">
		<tag k="name" v="Fiskløyslia" />
		<tag k="natural" v="slope" />
		<tag k="place" v="locality" />
		<tag k="ssr:stedsnr" v="103574" />
	</node>
	<node lat="63.65550277478321" lon="10.047050006286275" id="-39346">
		<tag k="name" v="Roksetvasslia" />
		<tag k="natural" v="slope" />
		<tag k="place" v="locality" />
		<tag k="ssr:stedsnr" v="103582" />
	</node>
	<node lat="63.7062027772406" lon="10.046747225251648" id="-39349">
		<tag k="name" v="Slettheia" />
		<tag k="natural" v="hill" />
		<tag k="place" v="locality" />
		<tag k="ssr:stedsnr" v="103791" />
	</node>
	<node lat="63.72677778017061" lon="10.161036110039417" id="-39352">
		<tag k="name" v="Langvasslia" />
		<tag k="natural" v="slope" />
		<tag k="place" v="locality" />
		<tag k="ssr:stedsnr" v="103910" />
	</node>
	<node lat="63.528005551688715" lon="10.085516676137711" id="-39355">
		<tag k="name" v="Nonshaugen" />
		<tag k="natural" v="hill" />
		<tag k="place" v="locality" />
		<tag k="ssr:stedsnr" v="103919" />
	</node>
	<node lat="63.6923305564671" lon="10.051238879345545" id="-39357">
		<tag k="name" v="Vidslettheia" />
		<tag k="natural" v="hill" />
		<tag k="place" v="locality" />
		<tag k="ssr:stedsnr" v="103802" />
	</node>
	<node lat="63.612302781745605" lon="10.151680564088867" id="-39359">
		<tag k="name" v="Sauberget" />
		<tag k="natural" v="hill" />
		<tag k="place" v="locality" />
		<tag k="ssr:stedsnr" v="103829" />
	</node>
	<node lat="63.52058055549297" lon="10.127638893049832" id="-39361">
		<tag k="name" v="Prekstolhaugen" />
		<tag k="natural" v="hill" />
		<tag k="place" v="locality" />
		<tag k="ssr:stedsnr" v="103889" />
	</node>
	<node lat="63.51683055670058" lon="10.136277777641421" id="-39362">
		<tag k="name" v="Nonshaugen" />
		<tag k="natural" v="hill" />
		<tag k="place" v="locality" />
		<tag k="ssr:stedsnr" v="103897" />
	</node>
	<node lat="63.65592777503573" lon="9.944791672960731" id="-39363">
		<tag k="name" v="Vargstien" />
		<tag k="natural" v="valley" />
		<tag k="place" v="locality" />
		<tag k="ssr:stedsnr" v="104002" />
	</node>
	<node lat="63.56963888993631" lon="10.038938893120198" id="-39365">
		<tag k="name" v="Grinddalen" />
		<tag k="natural" v="valley" />
		<tag k="place" v="locality" />
		<tag k="ssr:stedsnr" v="104108" />
	</node>
	<node lat="63.53780832936622" lon="10.049469449377392" id="-39366">
		<tag k="name" v="Storoppskardet" />
		<tag k="natural" v="valley" />
		<tag k="place" v="locality" />
		<tag k="ssr:stedsnr" v="104120" />
	</node>
	<node lat="63.55474999993511" lon="9.97353055646028" id="-39367">
		<tag k="name" v="Åsalia" />
		<tag k="natural" v="slope" />
		<tag k="place" v="locality" />
		<tag k="ssr:stedsnr" v="104175" />
	</node>
	<node lat="63.64683333316282" lon="9.936772226440509" id="-39368">
		<tag k="name" v="Lia" />
		<tag k="natural" v="slope" />
		<tag k="place" v="locality" />
		<tag k="ssr:stedsnr" v="104184" />
	</node>
	<node lat="63.550247225039485" lon="10.012374996735543" id="-39369">
		<tag k="name" v="Heia" />
		<tag k="natural" v="hill" />
		<tag k="place" v="locality" />
		<tag k="ssr:stedsnr" v="104128" />
	</node>
	<node lat="63.54773333165667" lon="10.01219443468666" id="-39370">
		<tag k="name" v="Pilatusdalen" />
		<tag k="natural" v="valley" />
		<tag k="place" v="locality" />
		<tag k="ssr:stedsnr" v="104131" />
	</node>
	<node lat="63.83151111002122" lon="10.375122213158445" id="-39371">
		<tag k="name" v="Nordbakken" />
		<tag k="natural" v="slope" />
		<tag k="place" v="locality" />
		<tag k="ssr:stedsnr" v="104602" />
	</node>
	<node lat="63.83385833572348" lon="10.378680556366062" id="-39372">
		<tag k="name" v="Mellomelvlia" />
		<tag k="natural" v="slope" />
		<tag k="place" v="locality" />
		<tag k="ssr:stedsnr" v="104603" />
	</node>
	<node lat="63.66258333365059" lon="10.516736110510205" id="-39379">
		<tag k="name" v="Tronstadlangdalen" />
		<tag k="natural" v="valley" />
		<tag k="place" v="locality" />
		<tag k="ssr:stedsnr" v="108010" />
	</node>
	<node lat="63.68018333713085" lon="10.419355559409901" id="-39380">
		<tag k="loc_name" v="Langslia" />
		<tag k="name" v="Landslia" />
		<tag k="natural" v="slope" />
		<tag k="place" v="locality" />
		<tag k="ssr:stedsnr" v="108079" />
	</node>
	<node lat="63.727911113852535" lon="10.775883324745575" id="-39383">
		<tag k="name" v="Spelholtheia" />
		<tag k="natural" v="hill" />
		<tag k="place" v="locality" />
		<tag k="ssr:stedsnr" v="108278" />
	</node>
	<node lat="63.594863890089684" lon="10.288508324620892" id="-39386">
		<tag k="name" v="Rådberget" />
		<tag k="natural" v="hill" />
		<tag k="place" v="locality" />
		<tag k="ssr:stedsnr" v="108788" />
	</node>
	<node lat="63.68470555512151" lon="10.3271500026301" id="-39388">
		<tag k="name" v="Bjørsjølia" />
		<tag k="natural" v="slope" />
		<tag k="place" v="locality" />
		<tag k="ssr:stedsnr" v="108869" />
	</node>
	<node lat="63.67566388842188" lon="10.331013884758459" id="-39389">
		<tag k="name" v="Nordlian" />
		<tag k="natural" v="slope" />
		<tag k="place" v="locality" />
		<tag k="ssr:stedsnr" v="108875" />
	</node>
	<node lat="63.66075833335439" lon="10.367263884853541" id="-39390">
		<tag k="name" v="Klompdalen" />
		<tag k="natural" v="valley" />
		<tag k="place" v="locality" />
		<tag k="ssr:stedsnr" v="109903" />
	</node>
	<node lat="63.571533336508" lon="10.40664167072488" id="-39391">
		<tag k="name" v="Tinghaugen" />
		<tag k="natural" v="hill" />
		<tag k="place" v="locality" />
		<tag k="ssr:stedsnr" v="110008" />
	</node>
	<node lat="63.57751389283721" lon="10.400736112467706" id="-39392">
		<tag k="name" v="Smådalan" />
		<tag k="natural" v="valley" />
		<tag k="place" v="locality" />
		<tag k="ssr:stedsnr" v="110010" />
	</node>
	<node lat="63.56826944017194" lon="10.247430553377056" id="-39394">
		<tag k="fixme" v="consider natural=peak for the most distinct mountains in the district" />
		<tag k="name" v="Maritåsen" />
		<tag k="natural" v="hill" />
		<tag k="place" v="locality" />
		<tag k="ssr:stedsnr" v="110313" />
	</node>
	<node lat="63.64403333765148" lon="10.28174444850529" id="-39395">
		<tag k="name" v="Seteråsen" />
		<tag k="natural" v="hill" />
		<tag k="place" v="locality" />
		<tag k="ssr:stedsnr" v="110333" />
	</node>
	<node lat="63.64903333760797" lon="10.277388883511255" id="-39397">
		<tag k="name" v="Kuspeln" />
		<tag k="natural" v="slope" />
		<tag k="place" v="locality" />
		<tag k="ssr:stedsnr" v="110339" />
	</node>
	<node lat="63.5571138904672" lon="10.166413883890039" id="-39399">
		<tag k="loc_name" v="Bjynndalåsen" />
		<tag k="name" v="Bjønndalåsen" />
		<tag k="natural" v="hill" />
		<tag k="place" v="locality" />
		<tag k="ssr:stedsnr" v="110414" />
	</node>
	<node lat="63.661758330520385" lon="10.293425008181638" id="-39400">
		<tag k="name" v="Gammelsagåsen" />
		<tag k="natural" v="hill" />
		<tag k="place" v="locality" />
		<tag k="ssr:stedsnr" v="110370" />
	</node>
	<node lat="63.54721111163614" lon="10.176461112905757" id="-39401">
		<tag k="name" v="Ludduhaugan" />
		<tag k="natural" v="hill" />
		<tag k="place" v="locality" />
		<tag k="ssr:stedsnr" v="110532" />
	</node>
	<node lat="63.68195555538209" lon="10.59979166412407" id="-39404">
		<tag k="name" v="Løshaugen" />
		<tag k="natural" v="hill" />
		<tag k="place" v="locality" />
		<tag k="ssr:stedsnr" v="110720" />
	</node>
	<node lat="63.68891389111734" lon="10.568613894676075" id="-39405">
		<tag k="name" v="Båsmyrhaugen" />
		<tag k="natural" v="hill" />
		<tag k="place" v="locality" />
		<tag k="ssr:stedsnr" v="110624" />
	</node>
	<node lat="63.681266663074446" lon="10.572755556509653" id="-39407">
		<tag k="name" v="Krabsetrabben" />
		<tag k="natural" v="slope" />
		<tag k="place" v="locality" />
		<tag k="ssr:stedsnr" v="110677" />
	</node>
	<node lat="63.67367222385893" lon="10.552372215677543" id="-39408">
		<tag k="name" v="Våtvasslia" />
		<tag k="natural" v="slope" />
		<tag k="place" v="locality" />
		<tag k="ssr:stedsnr" v="110680" />
	</node>
	<node lat="63.62420833251316" lon="10.538488888873104" id="-39410">
		<tag k="name" v="Kråkhaugen" />
		<tag k="natural" v="hill" />
		<tag k="place" v="locality" />
		<tag k="ssr:stedsnr" v="110906" />
	</node>
	<node lat="63.67846944356522" lon="10.576844445886222" id="-39422">
		<tag k="name" v="Hesttrøa" />
		<tag k="natural" v="slope" />
		<tag k="place" v="locality" />
		<tag k="ssr:stedsnr" v="120026" />
	</node>
	<node lat="63.72213333311579" lon="10.34231388491398" id="-39433">
		<tag k="name" v="Alsethaugen" />
		<tag k="natural" v="hill" />
		<tag k="place" v="locality" />
		<tag k="ssr:stedsnr" v="134518" />
	</node>
	<node lat="63.64964721978595" lon="10.3892944350679" id="-39437">
		<tag k="name" v="Gammelseterdalen" />
		<tag k="natural" v="valley" />
		<tag k="place" v="locality" />
		<tag k="ssr:stedsnr" v="134418" />
	</node>
	<node lat="63.69147967950522" lon="9.984158076459481" id="-39438">
		<tag k="fixme" v="consider natural=peak for the most distinct mountains in the district" />
		<tag k="name" v="Selnesheia" />
		<tag k="natural" v="hill" />
		<tag k="place" v="locality" />
		<tag k="ssr:stedsnr" v="134764" />
	</node>
	<node lat="63.63146944470603" lon="10.147227774129059" id="-39441">
		<tag k="fixme" v="consider natural=peak for the most distinct mountains in the district" />
		<tag k="name" v="Urda" />
		<tag k="natural" v="hill" />
		<tag k="place" v="locality" />
		<tag k="ssr:stedsnr" v="134911" />
	</node>
	<node lat="63.755562809427715" lon="10.71971133247055" id="-39445">
		<tag k="alt_name" v="Kjerringklompen" />
		<tag k="fixme" v="consider natural=peak for the most distinct mountains in the district" />
		<tag k="name" v="Årliklumpen" />
		<tag k="natural" v="hill" />
		<tag k="place" v="locality" />
		<tag k="ssr:stedsnr" v="134815" />
	</node>
	<node lat="63.67518333192167" lon="10.005180558201333" id="-39450">
		<tag k="fixme" v="consider natural=peak for the most distinct mountains in the district" />
		<tag k="name" v="Storliheia" />
		<tag k="natural" v="hill" />
		<tag k="place" v="locality" />
		<tag k="ssr:stedsnr" v="134869" />
	</node>
	<node lat="63.60541388580041" lon="10.45353888672691" id="-39453">
		<tag k="fixme" v="consider natural=peak for the most distinct mountains in the district" />
		<tag k="name" v="Ramnfjellet" />
		<tag k="natural" v="hill" />
		<tag k="place" v="locality" />
		<tag k="ssr:stedsnr" v="255289" />
	</node>
	<node lat="63.64793055551841" lon="10.577594436033651" id="-39454">
		<tag k="name" v="Nonshaugen" />
		<tag k="natural" v="hill" />
		<tag k="place" v="locality" />
		<tag k="ssr:stedsnr" v="255362" />
	</node>
	<node lat="63.549108336229835" lon="10.040419443169906" id="-39458">
		<tag k="fixme" v="consider natural=peak for the most distinct mountains in the district" />
		<tag k="name" v="Hågååsen" />
		<tag k="natural" v="hill" />
		<tag k="place" v="locality" />
		<tag k="ssr:stedsnr" v="255592" />
	</node>
	<node lat="63.699077778922835" lon="10.093499997558613" id="-39460">
		<tag k="fixme" v="consider natural=peak for the most distinct mountains in the district" />
		<tag k="name" v="Vardheia" />
		<tag k="natural" v="hill" />
		<tag k="place" v="locality" />
		<tag k="ssr:stedsnr" v="255797" />
	</node>
	<node lat="63.653236111028335" lon="10.16497221473825" id="-39463">
		<tag k="name" v="Svartberglia" />
		<tag k="natural" v="slope" />
		<tag k="place" v="locality" />
		<tag k="ssr:stedsnr" v="255847" />
	</node>
	<node lat="63.651719446671095" lon="10.103652778634103" id="-39464">
		<tag k="name" v="Marikollheia" />
		<tag k="natural" v="hill" />
		<tag k="place" v="locality" />
		<tag k="ssr:stedsnr" v="255943" />
	</node>
	<node lat="63.593986107303934" lon="10.296219443647946" id="-39472">
		<tag k="fixme" v="consider natural=peak for the most distinct mountains in the district" />
		<tag k="name" v="Løssihattan" />
		<tag k="natural" v="hill" />
		<tag k="place" v="locality" />
		<tag k="ssr:stedsnr" v="256277" />
	</node>
	<node lat="63.75595555737891" lon="10.50848332712435" id="-39476">
		<tag k="name" v="Bjørkåsen" />
		<tag k="natural" v="hill" />
		<tag k="place" v="locality" />
		<tag k="ssr:stedsnr" v="149019" />
	</node>
	<node lat="63.813850000606045" lon="10.584711111952759" id="-39477">
		<tag k="name" v="Vardalen" />
		<tag k="natural" v="valley" />
		<tag k="place" v="locality" />
		<tag k="ssr:stedsnr" v="149021" />
	</node>
	<node lat="63.69683333286953" lon="10.663016663794135" id="-39483">
		<tag k="name" v="Langdalen" />
		<tag k="natural" v="valley" />
		<tag k="place" v="locality" />
		<tag k="ssr:stedsnr" v="256384" />
	</node>
	<node lat="63.72801667030402" lon="10.488122219331808" id="-39488">
		<tag k="name" v="Båvasshaugen" />
		<tag k="natural" v="hill" />
		<tag k="place" v="locality" />
		<tag k="ssr:stedsnr" v="256433" />
	</node>
	<node lat="63.82005277406636" lon="10.614641675135527" id="-39489">
		<tag k="fixme" v="consider natural=peak for the most distinct mountains in the district" />
		<tag k="name" v="Raudtindkammen" />
		<tag k="natural" v="hill" />
		<tag k="place" v="locality" />
		<tag k="ssr:stedsnr" v="256454" />
	</node>
	<node lat="63.669650001536866" lon="10.371091671242569" id="-39490">
		<tag k="alt_name" v="Bjønnåsheia" />
		<tag k="fixme" v="consider natural=peak for the most distinct mountains in the district" />
		<tag k="name" v="Heiskardheia" />
		<tag k="natural" v="hill" />
		<tag k="place" v="locality" />
		<tag k="ssr:stedsnr" v="256319" />
	</node>
	<node lat="63.567122224244955" lon="10.11218056277392" id="-39497">
		<tag k="name" v="Børstinglia" />
		<tag k="natural" v="slope" />
		<tag k="place" v="locality" />
		<tag k="ssr:stedsnr" v="256530" />
	</node>
	<node lat="63.55568889055082" lon="10.116483333012404" id="-39498">
		<tag k="fixme" v="consider natural=peak for the most distinct mountains in the district" />
		<tag k="name" v="Templet" />
		<tag k="natural" v="hill" />
		<tag k="place" v="locality" />
		<tag k="ssr:stedsnr" v="256532" />
	</node>
	<node lat="63.56113055164167" lon="10.0211305616766" id="-39502">
		<tag k="name" v="Guritrøa" />
		<tag k="natural" v="hill" />
		<tag k="place" v="locality" />
		<tag k="ssr:stedsnr" v="256592" />
	</node>
	<node lat="63.56210555934312" lon="10.04641111649462" id="-39503">
		<tag k="name" v="Trellhaugen" />
		<tag k="natural" v="hill" />
		<tag k="place" v="locality" />
		<tag k="ssr:stedsnr" v="256600" />
	</node>
	<node lat="63.53206110857564" lon="10.002855561578007" id="-39504">
		<tag k="name" v="Øyklia" />
		<tag k="natural" v="hill" />
		<tag k="place" v="locality" />
		<tag k="ssr:stedsnr" v="256648" />
	</node>
	<node lat="63.66787777665882" lon="10.106827780037145" id="-39506">
		<tag k="name" v="Djupholet" />
		<tag k="natural" v="valley" />
		<tag k="place" v="locality" />
		<tag k="ssr:stedsnr" v="256789" />
	</node>
	<node lat="63.662986111869785" lon="9.835624997111553" id="-39508">
		<tag k="alt_name" v="Brettingsfjellet" />
		<tag k="fixme" v="consider natural=peak for the most distinct mountains in the district" />
		<tag k="name" v="Brettingen" />
		<tag k="natural" v="hill" />
		<tag k="place" v="locality" />
		<tag k="ssr:stedsnr" v="256826" />
	</node>
	<node lat="63.61934166263858" lon="9.856433339353881" id="-39509">
		<tag k="name" v="Vassdalen" />
		<tag k="natural" v="valley" />
		<tag k="place" v="locality" />
		<tag k="ssr:stedsnr" v="256842" />
	</node>
	<node lat="63.628983335736905" lon="10.161777767995106" id="-39511">
		<tag k="name" v="Tomlingen" />
		<tag k="natural" v="hill" />
		<tag k="place" v="locality" />
		<tag k="ssr:stedsnr" v="256853" />
	</node>
	<node lat="63.604077773989076" lon="10.133602771668205" id="-39515">
		<tag k="name" v="Almodalen" />
		<tag k="natural" v="valley" />
		<tag k="place" v="locality" />
		<tag k="ssr:stedsnr" v="256935" />
	</node>
	<node lat="63.77035278181699" lon="10.222000005254701" id="-39522">
		<tag k="fixme" v="consider natural=peak for the most distinct mountains in the district" />
		<tag k="name" v="Seterheia" />
		<tag k="natural" v="hill" />
		<tag k="place" v="locality" />
		<tag k="ssr:stedsnr" v="257489" />
	</node>
	<node lat="63.726263893057876" lon="10.360027774840928" id="-39540">
		<tag k="name" v="Styggdalen" />
		<tag k="natural" v="valley" />
		<tag k="place" v="locality" />
		<tag k="ssr:stedsnr" v="163557" />
	</node>
	<node lat="63.724630555093576" lon="10.35658888579092" id="-39541">
		<tag k="name" v="Lovdalen" />
		<tag k="natural" v="valley" />
		<tag k="place" v="locality" />
		<tag k="ssr:stedsnr" v="163558" />
	</node>
	<node lat="63.694305551171816" lon="10.340763893161993" id="-39542">
		<tag k="name" v="Sørheia" />
		<tag k="natural" v="mountain_range" />
		<tag k="ssr:stedsnr" v="163570" />
	</node>
	<node lat="63.74551667080023" lon="10.360044448503496" id="-39543">
		<tag k="fixme" v="consider natural=peak for the most distinct mountains in the district" />
		<tag k="name" v="Holvasslikammen" />
		<tag k="natural" v="hill" />
		<tag k="place" v="locality" />
		<tag k="ssr:stedsnr" v="163577" />
	</node>
	<node lat="63.642391668863205" lon="10.138211107717918" id="-39545">
		<tag k="fixme" v="consider natural=peak for the most distinct mountains in the district" />
		<tag k="name" v="Kvitlauna" />
		<tag k="natural" v="hill" />
		<tag k="place" v="locality" />
		<tag k="ssr:stedsnr" v="163766" />
	</node>
	<node lat="63.698241669586615" lon="10.292224994866157" id="-39550">
		<tag k="fixme" v="consider natural=peak for the most distinct mountains in the district" />
		<tag k="name" v="Høgaksla" />
		<tag k="natural" v="hill" />
		<tag k="place" v="locality" />
		<tag k="ssr:stedsnr" v="163608" />
	</node>
	<node lat="63.68796388680389" lon="10.221033334289222" id="-39552">
		<tag k="name" v="Råddet" />
		<tag k="natural" v="slope" />
		<tag k="place" v="locality" />
		<tag k="ssr:stedsnr" v="163628" />
	</node>
	<node lat="63.673211109625626" lon="10.195172223551069" id="-39553">
		<tag k="name" v="Balsterlia" />
		<tag k="natural" v="slope" />
		<tag k="place" v="locality" />
		<tag k="ssr:stedsnr" v="163659" />
	</node>
	<node lat="63.666838887807906" lon="10.144938881576236" id="-39555">
		<tag k="fixme" v="consider natural=peak for the most distinct mountains in the district" />
		<tag k="name" v="Rålikammen" />
		<tag k="natural" v="hill" />
		<tag k="place" v="locality" />
		<tag k="ssr:stedsnr" v="163662" />
	</node>
	<node lat="63.71210833230235" lon="10.790633339625249" id="-39559">
		<tag k="loc_name" v="Raukammen" />
		<tag k="name" v="Raudkammen" />
		<tag k="natural" v="hill" />
		<tag k="place" v="locality" />
		<tag k="ssr:stedsnr" v="163813" />
	</node>
	<node lat="63.5166388930606" lon="10.116069447541967" id="-39561">
		<tag k="name" v="Middagsskardet" />
		<tag k="natural" v="valley" />
		<tag k="place" v="locality" />
		<tag k="ssr:stedsnr" v="163910" />
	</node>
	<node lat="63.527627778193335" lon="10.14425555389623" id="-39562">
		<tag k="name" v="Tømmerhaugen" />
		<tag k="natural" v="hill" />
		<tag k="place" v="locality" />
		<tag k="ssr:stedsnr" v="163913" />
	</node>
	<node lat="63.528052778470844" lon="10.147261107895254" id="-39563">
		<tag k="name" v="Kvitkammen" />
		<tag k="natural" v="ridge" />
		<tag k="place" v="locality" />
		<tag k="ssr:stedsnr" v="163914" />
	</node>
	<node lat="63.53385833004285" lon="10.150038886368453" id="-39564">
		<tag k="name" v="Vikastorhaugen" />
		<tag k="natural" v="hill" />
		<tag k="place" v="locality" />
		<tag k="ssr:stedsnr" v="163915" />
	</node>
	<node lat="63.61276388525979" lon="9.98667777797939" id="-39565">
		<tag k="name" v="Gjøtåsen" />
		<tag k="natural" v="cliff" />
		<tag k="ssr:stedsnr" v="163960" />
	</node>
	<node lat="63.56103888882804" lon="10.03459999764481" id="-39570">
		<tag k="name" v="Heggdalen" />
		<tag k="natural" v="valley" />
		<tag k="place" v="locality" />
		<tag k="ssr:stedsnr" v="164106" />
	</node>
	<node lat="63.552011112710424" lon="10.05476111673127" id="-39571">
		<tag k="name" v="Storskardet" />
		<tag k="natural" v="valley" />
		<tag k="place" v="locality" />
		<tag k="ssr:stedsnr" v="164110" />
	</node>
	<node lat="63.547283331146794" lon="10.013899998924556" id="-39572">
		<tag k="name" v="Bekkalia" />
		<tag k="natural" v="slope" />
		<tag k="place" v="locality" />
		<tag k="ssr:stedsnr" v="164122" />
	</node>
	<node lat="63.64760277793776" lon="9.957822231513699" id="-39575">
		<tag k="name" v="Styggdalen" />
		<tag k="natural" v="valley" />
		<tag k="place" v="locality" />
		<tag k="ssr:stedsnr" v="164015" />
	</node>
	<node lat="63.65207221851997" lon="9.982544437549311" id="-39576">
		<tag k="name" v="Båtheia" />
		<tag k="natural" v="hill" />
		<tag k="place" v="locality" />
		<tag k="ssr:stedsnr" v="164059" />
	</node>
	<node lat="63.55950555487089" lon="10.06165000586529" id="-39577">
		<tag k="name" v="Svartberget" />
		<tag k="natural" v="hill" />
		<tag k="place" v="locality" />
		<tag k="ssr:stedsnr" v="164080" />
	</node>
	<node lat="63.82291111457163" lon="10.367338891428155" id="-39584">
		<tag k="name" v="Sørlia" />
		<tag k="natural" v="slope" />
		<tag k="place" v="locality" />
		<tag k="ssr:stedsnr" v="164672" />
	</node>
	<node lat="63.54118888996322" lon="10.083241662966405" id="-39586">
		<tag k="fixme" v="consider natural=peak for the most distinct mountains in the district" />
		<tag k="name" v="Brunnåsan" />
		<tag k="natural" v="hill" />
		<tag k="place" v="locality" />
		<tag k="ssr:stedsnr" v="164805" />
	</node>
	<node lat="63.53861388650983" lon="10.105072231313374" id="-39588">
		<tag k="name" v="Bjørnadalen" />
		<tag k="natural" v="valley" />
		<tag k="place" v="locality" />
		<tag k="ssr:stedsnr" v="164809" />
	</node>
	<node lat="63.77821388451517" lon="10.590494450303762" id="-39594">
		<tag k="fixme" v="consider natural=peak for the most distinct mountains in the district" />
		<tag k="name" v="Solliheian" />
		<tag k="natural" v="hill" />
		<tag k="place" v="locality" />
		<tag k="ssr:stedsnr" v="168424" />
	</node>
	<node lat="63.66564444443773" lon="10.430416670906942" id="-39595">
		<tag k="name" v="Aunbulian" />
		<tag k="natural" v="slope" />
		<tag k="place" v="locality" />
		<tag k="ssr:stedsnr" v="169069" />
	</node>
	<node lat="63.59974167068859" lon="10.314688883629803" id="-39599">
		<tag k="name" v="Fliskleiva" />
		<tag k="place" v="locality" />
		<tag k="ssr:stedsnr" v="169802" />
	</node>
	<node lat="63.66875000112942" lon="10.259224991171655" id="-39600">
		<tag k="name" v="Storlia" />
		<tag k="natural" v="slope" />
		<tag k="place" v="locality" />
		<tag k="ssr:stedsnr" v="169809" />
	</node>
	<node lat="63.65820833715042" lon="10.355786118204193" id="-39603">
		<tag k="name" v="Fjellia" />
		<tag k="natural" v="slope" />
		<tag k="place" v="locality" />
		<tag k="ssr:stedsnr" v="169908" />
	</node>
	<node lat="63.60644444375356" lon="10.29097222691159" id="-39604">
		<tag k="name" v="Fiskløyshaugen" />
		<tag k="natural" v="hill" />
		<tag k="place" v="locality" />
		<tag k="ssr:stedsnr" v="169961" />
	</node>
	<node lat="63.60848888590673" lon="10.270402787391737" id="-39605">
		<tag k="name" v="Brattkneppet" />
		<tag k="natural" v="slope" />
		<tag k="place" v="locality" />
		<tag k="ssr:stedsnr" v="169965" />
	</node>
	<node lat="63.69937500052182" lon="10.538649991815882" id="-39610">
		<tag k="name" v="Styggdalen" />
		<tag k="natural" v="valley" />
		<tag k="place" v="locality" />
		<tag k="ssr:stedsnr" v="170613" />
	</node>
	<node lat="63.70315000026786" lon="10.544855556661076" id="-39611">
		<tag k="name" v="Mebakken" />
		<tag k="natural" v="slope" />
		<tag k="place" v="locality" />
		<tag k="ssr:stedsnr" v="170616" />
	</node>
	<node lat="63.70652777601479" lon="10.572399990845954" id="-39612">
		<tag k="name" v="Hestdalsbakkan" />
		<tag k="natural" v="slope" />
		<tag k="place" v="locality" />
		<tag k="ssr:stedsnr" v="170621" />
	</node>
	<node lat="63.68454166647443" lon="10.556208327718105" id="-39613">
		<tag k="name" v="Heitlfjellet" />
		<tag k="natural" v="hill" />
		<tag k="place" v="locality" />
		<tag k="ssr:stedsnr" v="170661" />
	</node>
	<node lat="63.66390555757322" lon="10.55424722251867" id="-39616">
		<tag k="name" v="Tjønnlia" />
		<tag k="natural" v="slope" />
		<tag k="place" v="locality" />
		<tag k="ssr:stedsnr" v="170875" />
	</node>
	<node lat="63.640147220319754" lon="10.55184721413463" id="-39617">
		<tag k="name" v="Kusdalen" />
		<tag k="natural" v="valley" />
		<tag k="place" v="locality" />
		<tag k="ssr:stedsnr" v="170955" />
	</node>
	<node lat="63.56964444677451" lon="10.16137778268981" id="-39618">
		<tag k="name" v="Djupdalen" />
		<tag k="natural" v="valley" />
		<tag k="place" v="locality" />
		<tag k="ssr:stedsnr" v="171404" />
	</node>
	<node lat="63.6278833353008" lon="10.55167777532726" id="-39619">
		<tag k="name" v="Litlfjellet" />
		<tag k="natural" v="hill" />
		<tag k="place" v="locality" />
		<tag k="ssr:stedsnr" v="171902" />
	</node>
	<node lat="63.540497225945316" lon="10.156202768268239" id="-39631">
		<tag k="name" v="Storhaugaksla" />
		<tag k="natural" v="ridge" />
		<tag k="place" v="locality" />
		<tag k="ssr:stedsnr" v="180324" />
	</node>
	<node lat="63.604272217989475" lon="10.439711117699417" id="-39637">
		<tag k="name" v="Hestdalen" />
		<tag k="natural" v="valley" />
		<tag k="place" v="locality" />
		<tag k="ssr:stedsnr" v="195332" />
	</node>
	<node lat="63.58781388789351" lon="10.358872220722786" id="-39638">
		<tag k="fixme" v="consider natural=peak for the most distinct mountains in the district" />
		<tag k="name" v="Brattliklumpen" />
		<tag k="natural" v="hill" />
		<tag k="place" v="locality" />
		<tag k="ssr:stedsnr" v="195337" />
	</node>
	<node lat="63.680483332126954" lon="10.299483323971474" id="-39640">
		<tag k="fixme" v="consider natural=peak for the most distinct mountains in the district" />
		<tag k="name" v="Benkheia" />
		<tag k="natural" v="hill" />
		<tag k="place" v="locality" />
		<tag k="ssr:stedsnr" v="195350" />
	</node>
	<node lat="63.66514444195159" lon="10.330888898628197" id="-39641">
		<tag k="fixme" v="consider natural=peak for the most distinct mountains in the district" />
		<tag k="name" v="Merrakråa" />
		<tag k="natural" v="hill" />
		<tag k="place" v="locality" />
		<tag k="ssr:stedsnr" v="195376" />
	</node>
	<node lat="63.72176666826147" lon="10.23812499659423" id="-39649">
		<tag k="name" v="Hogsdalen" />
		<tag k="natural" v="valley" />
		<tag k="place" v="locality" />
		<tag k="ssr:stedsnr" v="195482" />
	</node>
	<node lat="63.732580557982665" lon="10.599244448462175" id="-39652">
		<tag k="fixme" v="consider natural=peak for the most distinct mountains in the district" />
		<tag k="name" v="Fosskamman" />
		<tag k="natural" v="hill" />
		<tag k="place" v="locality" />
		<tag k="ssr:stedsnr" v="195492" />
	</node>
	<node lat="63.539380555359934" lon="9.977705552428233" id="-39655">
		<tag k="name" v="Tullgrava" />
		<tag k="natural" v="hill" />
		<tag k="place" v="locality" />
		<tag k="ssr:stedsnr" v="195678" />
	</node>
	<node lat="63.5435750027042" lon="9.983744437050282" id="-39656">
		<tag k="name" v="Gunnarheia" />
		<tag k="natural" v="hill" />
		<tag k="place" v="locality" />
		<tag k="ssr:stedsnr" v="195680" />
	</node>
	<node lat="63.618475003962274" lon="10.522961118383245" id="-39663">
		<tag k="name" v="Jamsøya" />
		<tag k="place" v="locality" />
		<tag k="ssr:stedsnr" v="208416" />
	</node>
	<node lat="63.781572223570905" lon="10.481163882537905" id="-39664">
		<tag k="name" v="Kamberga" />
		<tag k="natural" v="hill" />
		<tag k="place" v="locality" />
		<tag k="ssr:stedsnr" v="210006" />
	</node>
	<node lat="63.77656111145501" lon="10.564080547061572" id="-39666">
		<tag k="name" v="Lauvliheia" />
		<tag k="natural" v="hill" />
		<tag k="place" v="locality" />
		<tag k="ssr:stedsnr" v="210022" />
	</node>
	<node lat="63.75702222012686" lon="10.471124997103427" id="-39667">
		<tag k="name" v="Vannbakklia" />
		<tag k="natural" v="slope" />
		<tag k="place" v="locality" />
		<tag k="ssr:stedsnr" v="210025" />
	</node>
	<node lat="63.592069443484654" lon="10.382477784186928" id="-39669">
		<tag k="name" v="Skarda" />
		<tag k="natural" v="valley" />
		<tag k="place" v="locality" />
		<tag k="ssr:stedsnr" v="269435" />
	</node>
	<node lat="63.5562916678024" lon="10.205863888037548" id="-39673">
		<tag k="fixme" v="consider natural=peak for the most distinct mountains in the district" />
		<tag k="name" v="Ratvikåsen" />
		<tag k="natural" v="hill" />
		<tag k="place" v="locality" />
		<tag k="ssr:stedsnr" v="219203" />
	</node>
	<node lat="63.55630555875624" lon="10.212241660944338" id="-39674">
		<tag k="name" v="Kristibithaugen" />
		<tag k="natural" v="hill" />
		<tag k="place" v="locality" />
		<tag k="ssr:stedsnr" v="219211" />
	</node>
	<node lat="63.61564444226552" lon="9.864308330375053" id="-39675">
		<tag k="name" v="Gryta" />
		<tag k="natural" v="valley" />
		<tag k="place" v="locality" />
		<tag k="ssr:stedsnr" v="220327" />
	</node>
	<node lat="63.77483610874714" lon="10.45976944055569" id="-39679">
		<tag k="name" v="Blankheia" />
		<tag k="natural" v="hill" />
		<tag k="place" v="locality" />
		<tag k="ssr:stedsnr" v="271010" />
	</node>
	<node lat="63.80058610906795" lon="10.543024999109424" id="-39680">
		<tag k="name" v="Hestliskaret" />
		<tag k="natural" v="valley" />
		<tag k="place" v="locality" />
		<tag k="ssr:stedsnr" v="271033" />
	</node>
	<node lat="63.76017499786901" lon="10.499388893596162" id="-39683">
		<tag k="fixme" v="consider natural=peak for the most distinct mountains in the district" />
		<tag k="name" v="Småkallrådet" />
		<tag k="natural" v="hill" />
		<tag k="place" v="locality" />
		<tag k="ssr:stedsnr" v="271020" />
	</node>
	<node lat="63.821527725474354" lon="10.32186781617478" id="-39687">
		<tag k="name" v="Indre Svanavassholet" />
		<tag k="natural" v="valley" />
		<tag k="place" v="locality" />
		<tag k="ssr:stedsnr" v="224205" />
	</node>
	<node lat="63.790688887118655" lon="10.263477773970815" id="-39688">
		<tag k="fixme" v="consider natural=peak for the most distinct mountains in the district" />
		<tag k="name" v="Storhaugfjellet" />
		<tag k="natural" v="hill" />
		<tag k="place" v="locality" />
		<tag k="ssr:stedsnr" v="224217" />
	</node>
	<node lat="63.616891664623004" lon="9.826069436474677" id="-39689">
		<tag k="fixme" v="consider natural=peak for the most distinct mountains in the district" />
		<tag k="name" v="Johanpynten" />
		<tag k="natural" v="hill" />
		<tag k="place" v="locality" />
		<tag k="ssr:stedsnr" v="224240" />
	</node>
	<node lat="63.626366663110744" lon="9.911430555242793" id="-39691">
		<tag k="name" v="Lofthaugen" />
		<tag k="natural" v="hill" />
		<tag k="place" v="locality" />
		<tag k="ssr:stedsnr" v="224245" />
	</node>
	<node lat="63.51921110905009" lon="10.070763887617485" id="-39693">
		<tag k="name" v="Lauvlia" />
		<tag k="natural" v="slope" />
		<tag k="place" v="locality" />
		<tag k="ssr:stedsnr" v="224120" />
	</node>
	<node lat="63.76957500423866" lon="10.349461103629624" id="-39700">
		<tag k="name" v="Tverrlia" />
		<tag k="natural" v="slope" />
		<tag k="place" v="locality" />
		<tag k="ssr:stedsnr" v="224488" />
	</node>
	<node lat="63.790202778961095" lon="10.288216674415635" id="-39705">
		<tag k="name" v="Storfossdalen" />
		<tag k="natural" v="valley" />
		<tag k="place" v="locality" />
		<tag k="ssr:stedsnr" v="224509" />
	</node>
	<node lat="63.634594445269485" lon="9.946086108815873" id="-39706">
		<tag k="name" v="Follodalen" />
		<tag k="natural" v="valley" />
		<tag k="place" v="locality" />
		<tag k="ssr:stedsnr" v="224513" />
	</node>
	<node lat="63.79358611511864" lon="10.263305550969804" id="-39707">
		<tag k="name" v="Tjuvskardet" />
		<tag k="natural" v="valley" />
		<tag k="place" v="locality" />
		<tag k="ssr:stedsnr" v="224516" />
	</node>
	<node lat="63.6617499955755" lon="10.00861389838846" id="-39708">
		<tag k="name" v="Foss-Grøndalen" />
		<tag k="natural" v="valley" />
		<tag k="place" v="locality" />
		<tag k="ssr:stedsnr" v="224533" />
	</node>
	<node lat="63.70920833319036" lon="10.341413895803434" id="-39710">
		<tag k="name" v="Rånne" />
		<tag k="natural" v="hill" />
		<tag k="place" v="locality" />
		<tag k="ssr:stedsnr" v="224584" />
	</node>
	<node lat="63.72772222618295" lon="10.334466674124553" id="-39711">
		<tag k="name" v="Seterlia" />
		<tag k="natural" v="slope" />
		<tag k="place" v="locality" />
		<tag k="ssr:stedsnr" v="224585" />
	</node>
	<node lat="63.686197220360945" lon="10.234261115881077" id="-39713">
		<tag k="name" v="Sørhaugen" />
		<tag k="natural" v="hill" />
		<tag k="place" v="locality" />
		<tag k="ssr:stedsnr" v="224709" />
	</node>
	<node lat="63.508408334189554" lon="10.090794435362604" id="-39715">
		<tag k="name" v="Geithaugen" />
		<tag k="natural" v="hill" />
		<tag k="place" v="locality" />
		<tag k="ssr:stedsnr" v="224915" />
	</node>
	<node lat="63.60749444574331" lon="10.048569448023432" id="-39720">
		<tag k="name" v="Råa" />
		<tag k="natural" v="ridge" />
		<tag k="place" v="locality" />
		<tag k="ssr:stedsnr" v="224946" />
	</node>
	<node lat="63.67304166986664" lon="10.230913897274206" id="-39722">
		<tag k="name" v="Slættet" />
		<tag k="place" v="locality" />
		<tag k="ssr:stedsnr" v="224688" />
	</node>
	<node lat="63.67426110853179" lon="10.249052781502959" id="-39723">
		<tag k="name" v="Flauget" />
		<tag k="natural" v="slope" />
		<tag k="place" v="locality" />
		<tag k="ssr:stedsnr" v="224696" />
	</node>
	<node lat="63.75977777886411" lon="10.3075111049385" id="-39726">
		<tag k="name" v="Krokvassholet" />
		<tag k="place" v="locality" />
		<tag k="ssr:stedsnr" v="224886" />
	</node>
	<node lat="63.5162388879569" lon="10.111113883757007" id="-39730">
		<tag k="name" v="Storhaugen" />
		<tag k="natural" v="hill" />
		<tag k="place" v="locality" />
		<tag k="ssr:stedsnr" v="224896" />
	</node>
	<node lat="63.73779166837391" lon="10.298083330541637" id="-39732">
		<tag k="name" v="Storslættheia" />
		<tag k="natural" v="hill" />
		<tag k="place" v="locality" />
		<tag k="ssr:stedsnr" v="224984" />
	</node>
	<node lat="63.54384166250499" lon="10.019622226847533" id="-39734">
		<tag k="name" v="Bjørkmoen" />
		<tag k="place" v="locality" />
		<tag k="ssr:stedsnr" v="225139" />
	</node>
	<node lat="63.64346666746526" lon="9.937263884456367" id="-39735">
		<tag k="name" v="Erikgjøtan" />
		<tag k="place" v="locality" />
		<tag k="ssr:stedsnr" v="225193" />
	</node>
	<node lat="63.66714999777089" lon="10.02742221541546" id="-39736">
		<tag k="name" v="Kimodalen" />
		<tag k="natural" v="valley" />
		<tag k="place" v="locality" />
		<tag k="ssr:stedsnr" v="225034" />
	</node>
	<node lat="63.673122226690666" lon="10.023858329848647" id="-39737">
		<tag k="fixme" v="consider natural=peak for the most distinct mountains in the district" />
		<tag k="name" v="Mosaloftet" />
		<tag k="natural" v="hill" />
		<tag k="place" v="locality" />
		<tag k="ssr:stedsnr" v="225036" />
	</node>
	<node lat="63.832833784924986" lon="10.215576887744017" id="-39739">
		<tag k="name" v="Nordseterheia" />
		<tag k="natural" v="hill" />
		<tag k="old_name" v="Nordsæterheia" />
		<tag k="place" v="locality" />
		<tag k="ssr:stedsnr" v="225596" />
	</node>
	<node lat="63.69970555893007" lon="10.020080545832853" id="-39744">
		<tag k="fixme" v="consider natural=peak for the most distinct mountains in the district" />
		<tag k="name" v="Blåfjellet" />
		<tag k="natural" v="hill" />
		<tag k="place" v="locality" />
		<tag k="ssr:stedsnr" v="225802" />
	</node>
	<node lat="63.73072777862254" lon="10.793802787381637" id="-39746">
		<tag k="loc_name" v="Holmsvarttjønndalen" />
		<tag k="name" v="Svarttjønndalen" />
		<tag k="natural" v="valley" />
		<tag k="place" v="locality" />
		<tag k="ssr:stedsnr" v="229307" />
	</node>
	<node lat="63.76065277358247" lon="10.753433336307305" id="-39750">
		<tag k="name" v="Skitporten" />
		<tag k="natural" v="valley" />
		<tag k="place" v="locality" />
		<tag k="ssr:stedsnr" v="229286" />
	</node>
	<node lat="63.54241944549298" lon="10.183330546240297" id="-39753">
		<tag k="name" v="Haukhaugen" />
		<tag k="natural" v="hill" />
		<tag k="place" v="locality" />
		<tag k="ssr:stedsnr" v="230112" />
	</node>
	<node lat="63.66544166530017" lon="10.316188879042588" id="-39754">
		<tag k="name" v="Damtjønnskaret" />
		<tag k="natural" v="valley" />
		<tag k="place" v="locality" />
		<tag k="ssr:stedsnr" v="229884" />
	</node>
	<node lat="63.617305557753305" lon="10.509058341514452" id="-39758">
		<tag k="name" v="Banerslåtten" />
		<tag k="natural" v="slope" />
		<tag k="place" v="locality" />
		<tag k="ssr:stedsnr" v="231084" />
	</node>
	<node lat="63.53295833633559" lon="10.181941669298263" id="-39762">
		<tag k="name" v="Ytter Selvikdalen" />
		<tag k="natural" v="valley" />
		<tag k="place" v="locality" />
		<tag k="ssr:stedsnr" v="231633" />
	</node>
	<node lat="63.65819166710784" lon="10.282475003358707" id="-39763">
		<tag k="name" v="Sagdammhaugen" />
		<tag k="natural" v="hill" />
		<tag k="place" v="locality" />
		<tag k="ssr:stedsnr" v="231393" />
	</node>
	<node lat="63.58386388603752" lon="10.209050008461249" id="-39764">
		<tag k="name" v="Svartberget" />
		<tag k="natural" v="hill" />
		<tag k="place" v="locality" />
		<tag k="ssr:stedsnr" v="231528" />
	</node>
	<node lat="63.57990832976838" lon="10.238013885507282" id="-39765">
		<tag k="name" v="Tjønnskaret" />
		<tag k="natural" v="valley" />
		<tag k="place" v="locality" />
		<tag k="ssr:stedsnr" v="231536" />
	</node>
	<node lat="63.58055277938852" lon="10.216216661107566" id="-39766">
		<tag k="name" v="Nord-Seterdalen" />
		<tag k="natural" v="valley" />
		<tag k="place" v="locality" />
		<tag k="ssr:stedsnr" v="231537" />
	</node>
	<node lat="63.62915277643148" lon="10.547755553482595" id="-39768">
		<tag k="name" v="Dalen" />
		<tag k="natural" v="valley" />
		<tag k="place" v="locality" />
		<tag k="ssr:stedsnr" v="231905" />
	</node>
	<node lat="63.62816666312933" lon="10.525999998640666" id="-39769">
		<tag k="name" v="Sjåbakken" />
		<tag k="natural" v="slope" />
		<tag k="place" v="locality" />
		<tag k="ssr:stedsnr" v="231907" />
	</node>
	<node lat="63.64999999594834" lon="10.597405548267538" id="-39770">
		<tag k="name" v="Geitlia" />
		<tag k="natural" v="slope" />
		<tag k="place" v="locality" />
		<tag k="ssr:stedsnr" v="231829" />
	</node>
	<node lat="63.65866944876775" lon="10.601586120491294" id="-39771">
		<tag k="name" v="Smååsan" />
		<tag k="natural" v="hill" />
		<tag k="place" v="locality" />
		<tag k="ssr:stedsnr" v="231837" />
	</node>
	<node lat="63.607091662847075" lon="10.427066663483027" id="-39787">
		<tag k="name" v="Skjettenskardet" />
		<tag k="natural" v="valley" />
		<tag k="place" v="locality" />
		<tag k="ssr:stedsnr" v="241784" />
	</node>
	<node lat="63.69097222050681" lon="10.36504722756061" id="-39790">
		<tag k="name" v="Skjettenberglia" />
		<tag k="natural" v="slope" />
		<tag k="place" v="locality" />
		<tag k="ssr:stedsnr" v="451450" />
	</node>
	<node lat="63.838941666762445" lon="10.341755557199226" id="-39798">
		<tag k="fixme" v="consider natural=peak for the most distinct mountains in the district" />
		<tag k="name" v="Bjørndalsheia" />
		<tag k="natural" v="hill" />
		<tag k="place" v="locality" />
		<tag k="ssr:stedsnr" v="255474" />
	</node>
	<node lat="63.55100555228661" lon="9.955766675906524" id="-39802">
		<tag k="name" v="Nonslia" />
		<tag k="natural" v="hill" />
		<tag k="place" v="locality" />
		<tag k="ssr:stedsnr" v="255574" />
	</node>
	<node lat="63.543247219910455" lon="10.178266659316735" id="-39803">
		<tag k="name" v="Bjørnastihaugen" />
		<tag k="natural" v="hill" />
		<tag k="place" v="locality" />
		<tag k="ssr:stedsnr" v="255703" />
	</node>
	<node lat="63.53603888695801" lon="10.137497222536664" id="-39806">
		<tag k="fixme" v="consider natural=peak for the most distinct mountains in the district" />
		<tag k="name" v="Mannfjellet" />
		<tag k="natural" v="hill" />
		<tag k="place" v="locality" />
		<tag k="ssr:stedsnr" v="255666" />
	</node>
	<node lat="63.53690277362192" lon="10.056188880050852" id="-39808">
		<tag k="name" v="Høgskjæret" />
		<tag k="natural" v="hill" />
		<tag k="place" v="locality" />
		<tag k="ssr:stedsnr" v="255676" />
	</node>
	<node lat="63.69937222664543" lon="10.021858336903444" id="-39811">
		<tag k="fixme" v="consider natural=peak for the most distinct mountains in the district" />
		<tag k="name" v="Blåfjellet" />
		<tag k="natural" v="hill" />
		<tag k="place" v="locality" />
		<tag k="ssr:stedsnr" v="255807" />
	</node>
	<node lat="63.58289722401304" lon="10.371050006276107" id="-39817">
		<tag k="name" v="Rundhaugen" />
		<tag k="natural" v="hill" />
		<tag k="place" v="locality" />
		<tag k="ssr:stedsnr" v="256215" />
	</node>
	<node lat="63.735341669742596" lon="10.116555562386228" id="-39822">
		<tag k="fixme" v="consider natural=peak for the most distinct mountains in the district" />
		<tag k="name" v="Vardheia" />
		<tag k="natural" v="hill" />
		<tag k="place" v="locality" />
		<tag k="ssr:stedsnr" v="256175" />
	</node>
	<node lat="63.67814722458353" lon="10.46880834318485" id="-39825">
		<tag k="name" v="Tronstadseterlia" />
		<tag k="natural" v="slope" />
		<tag k="place" v="locality" />
		<tag k="ssr:stedsnr" v="256304" />
	</node>
	<node lat="63.81033007046255" lon="10.226493252169977" id="-39827">
		<tag k="name" v="Krinsliheia" />
		<tag k="natural" v="hill" />
		<tag k="place" v="locality" />
		<tag k="ssr:stedsnr" v="256403" />
	</node>
	<node lat="63.817527774950065" lon="10.606313884194364" id="-39828">
		<tag k="name" v="Raudtinddalen" />
		<tag k="natural" v="valley" />
		<tag k="place" v="locality" />
		<tag k="ssr:stedsnr" v="256404" />
	</node>
	<node lat="63.728000000207125" lon="10.21836944958929" id="-39830">
		<tag k="alt_name" v="Nonsetåa" />
		<tag k="fixme" v="consider natural=peak for the most distinct mountains in the district" />
		<tag k="name" v="Nonsheiklumpen" />
		<tag k="natural" v="hill" />
		<tag k="place" v="locality" />
		<tag k="ssr:stedsnr" v="256413" />
	</node>
	<node lat="63.571305559764966" lon="10.030013887878356" id="-39835">
		<tag k="name" v="Tjønnbakken" />
		<tag k="natural" v="hill" />
		<tag k="place" v="locality" />
		<tag k="ssr:stedsnr" v="256557" />
	</node>
	<node lat="63.721894446747875" lon="10.16325832730742" id="-39838">
		<tag k="fixme" v="consider natural=peak for the most distinct mountains in the district" />
		<tag k="name" v="Sørlia" />
		<tag k="natural" v="hill" />
		<tag k="place" v="locality" />
		<tag k="ssr:stedsnr" v="256757" />
	</node>
	<node lat="63.71021389034786" lon="9.954030552288371" id="-39839">
		<tag k="name" v="Kuberget" />
		<tag k="natural" v="hill" />
		<tag k="place" v="locality" />
		<tag k="ssr:stedsnr" v="256761" />
	</node>
	<node lat="63.63289166775063" lon="9.889455556713276" id="-39844">
		<tag k="name" v="Guruheia" />
		<tag k="natural" v="hill" />
		<tag k="place" v="locality" />
		<tag k="ssr:stedsnr" v="256867" />
	</node>
	<node lat="63.73661389119679" lon="10.55565276986351" id="-39848">
		<tag k="name" v="Litldalsheian" />
		<tag k="natural" v="hill" />
		<tag k="place" v="locality" />
		<tag k="ssr:stedsnr" v="269475" />
	</node>
	<node lat="63.786469440333136" lon="10.493905547402552" id="-39849">
		<tag k="name" v="Buengheia" />
		<tag k="natural" v="hill" />
		<tag k="place" v="locality" />
		<tag k="ssr:stedsnr" v="271002" />
	</node>
	<node lat="63.81318889112926" lon="10.567575008385912" id="-39850">
		<tag k="name" v="Rognåsberga" />
		<tag k="natural" v="hill" />
		<tag k="place" v="locality" />
		<tag k="ssr:stedsnr" v="271027" />
	</node>
	<node lat="63.80343889220567" lon="10.563024998816692" id="-39851">
		<tag k="fixme" v="consider natural=peak for the most distinct mountains in the district" />
		<tag k="name" v="Rognåsen" />
		<tag k="natural" v="hill" />
		<tag k="place" v="locality" />
		<tag k="ssr:stedsnr" v="271031" />
	</node>
	<node lat="63.605294441279156" lon="10.24187499739971" id="-39852">
		<tag k="name" v="Trolldalslia" />
		<tag k="natural" v="slope" />
		<tag k="place" v="locality" />
		<tag k="ssr:stedsnr" v="279305" />
	</node>
	<node lat="63.58348333395477" lon="10.193449993424293" id="-39853">
		<tag k="name" v="Furuåsen" />
		<tag k="natural" v="hill" />
		<tag k="place" v="locality" />
		<tag k="ssr:stedsnr" v="279390" />
	</node>
	<node lat="63.505669440619194" lon="9.932616673724498" id="-39856">
		<tag k="name" v="Einslætta" />
		<tag k="natural" v="slope" />
		<tag k="place" v="locality" />
		<tag k="ssr:stedsnr" v="281217" />
	</node>
	<node lat="63.54203333054303" lon="9.926480565370305" id="-39858">
		<tag k="name" v="Øverskardet" />
		<tag k="natural" v="slope" />
		<tag k="place" v="locality" />
		<tag k="ssr:stedsnr" v="281228" />
	</node>
	<node lat="63.58466389246147" lon="10.122191661385088" id="-39865">
		<tag k="name" v="Templet" />
		<tag k="place" v="locality" />
		<tag k="ssr:stedsnr" v="281806" />
	</node>
	<node lat="63.58649444127409" lon="10.10773611551031" id="-39866">
		<tag k="fixme" v="consider natural=peak for the most distinct mountains in the district" />
		<tag k="name" v="Bjørneråskammen" />
		<tag k="natural" v="hill" />
		<tag k="place" v="locality" />
		<tag k="ssr:stedsnr" v="281809" />
	</node>
	<node lat="63.63010555805216" lon="10.019069452952026" id="-39867">
		<tag k="name" v="Merklian" />
		<tag k="natural" v="slope" />
		<tag k="place" v="locality" />
		<tag k="ssr:stedsnr" v="281823" />
	</node>
	<node lat="63.621663892691664" lon="10.010000005419332" id="-39868">
		<tag k="fixme" v="consider natural=peak for the most distinct mountains in the district" />
		<tag k="name" v="Kammen" />
		<tag k="natural" v="hill" />
		<tag k="place" v="locality" />
		<tag k="ssr:stedsnr" v="281826" />
	</node>
	<node lat="63.609288892038386" lon="10.144033325952188" id="-39869">
		<tag k="name" v="Skulplia" />
		<tag k="natural" v="slope" />
		<tag k="place" v="locality" />
		<tag k="ssr:stedsnr" v="281870" />
	</node>
	<node lat="63.57079444132495" lon="10.13049723028212" id="-39870">
		<tag k="name" v="Blomdalen" />
		<tag k="natural" v="valley" />
		<tag k="place" v="locality" />
		<tag k="ssr:stedsnr" v="281885" />
	</node>
	<node lat="63.56760555348194" lon="10.094694440057292" id="-39871">
		<tag k="name" v="Smistaddalen" />
		<tag k="natural" v="valley" />
		<tag k="place" v="locality" />
		<tag k="ssr:stedsnr" v="281907" />
	</node>
	<node lat="63.55724722204781" lon="10.110580565301635" id="-39872">
		<tag k="name" v="Sjåberget" />
		<tag k="natural" v="hill" />
		<tag k="place" v="locality" />
		<tag k="ssr:stedsnr" v="281911" />
	</node>
	<node lat="63.691361111679434" lon="9.932080561334004" id="-39884">
		<tag k="name" v="Innerlia" />
		<tag k="natural" v="slope" />
		<tag k="place" v="locality" />
		<tag k="ssr:stedsnr" v="285103" />
	</node>
	<node lat="63.6890250035912" lon="9.912236105783165" id="-39885">
		<tag k="name" v="Sandrusdalen" />
		<tag k="natural" v="valley" />
		<tag k="place" v="locality" />
		<tag k="ssr:stedsnr" v="285105" />
	</node>
	<node lat="63.68809444137625" lon="9.911230564494273" id="-39886">
		<tag k="name" v="Hanshola" />
		<tag k="natural" v="valley" />
		<tag k="place" v="locality" />
		<tag k="ssr:stedsnr" v="285107" />
	</node>
	<node lat="63.530933332343075" lon="10.013369439569518" id="-39888">
		<tag k="name" v="Svartflauget" />
		<tag k="natural" v="hill" />
		<tag k="place" v="locality" />
		<tag k="ssr:stedsnr" v="285128" />
	</node>
	<node lat="63.528447224079436" lon="9.99313056345867" id="-39890">
		<tag k="name" v="Kvernhushaugen" />
		<tag k="natural" v="hill" />
		<tag k="place" v="locality" />
		<tag k="ssr:stedsnr" v="285134" />
	</node>
	<node lat="63.49699167110918" lon="9.962127770069195" id="-39892">
		<tag k="fixme" v="consider natural=peak for the most distinct mountains in the district" />
		<tag k="name" v="Festberget" />
		<tag k="natural" v="hill" />
		<tag k="place" v="locality" />
		<tag k="ssr:stedsnr" v="285092" />
	</node>
	<node lat="63.64393333149158" lon="9.899163894259406" id="-39894">
		<tag k="name" v="Vasslia" />
		<tag k="natural" v="slope" />
		<tag k="place" v="locality" />
		<tag k="ssr:stedsnr" v="285205" />
	</node>
	<node lat="63.61331389230216" lon="9.836988886082333" id="-39897">
		<tag k="fixme" v="consider natural=peak for the most distinct mountains in the district" />
		<tag k="name" v="Tverrhallaren" />
		<tag k="natural" v="hill" />
		<tag k="place" v="locality" />
		<tag k="ssr:stedsnr" v="285177" />
	</node>
	<node lat="63.61977222578754" lon="9.835083326833958" id="-39898">
		<tag k="name" v="Sørvikskardet" />
		<tag k="natural" v="valley" />
		<tag k="place" v="locality" />
		<tag k="ssr:stedsnr" v="285179" />
	</node>
	<node lat="63.70025833501832" lon="10.316216668383314" id="-39899">
		<tag k="name" v="Litl-lia" />
		<tag k="natural" v="slope" />
		<tag k="place" v="locality" />
		<tag k="ssr:stedsnr" v="285602" />
	</node>
	<node lat="63.67199166950313" lon="10.269069443761179" id="-39904">
		<tag k="loc_name" v="Middagsskaret" />
		<tag k="name" v="Middagsskardet" />
		<tag k="natural" v="valley" />
		<tag k="place" v="locality" />
		<tag k="ssr:stedsnr" v="285641" />
	</node>
	<node lat="63.64968889305082" lon="10.127969447127457" id="-39906">
		<tag k="name" v="Dælihaugen" />
		<tag k="natural" v="hill" />
		<tag k="place" v="locality" />
		<tag k="ssr:stedsnr" v="285722" />
	</node>
	<node lat="63.54397222513939" lon="10.101152775058738" id="-39908">
		<tag k="name" v="Grandalen" />
		<tag k="natural" v="valley" />
		<tag k="place" v="locality" />
		<tag k="ssr:stedsnr" v="285789" />
	</node>
	<node lat="63.74692499962923" lon="10.04420278381353" id="-39910">
		<tag k="name" v="Bjørkviklia" />
		<tag k="natural" v="slope" />
		<tag k="place" v="locality" />
		<tag k="ssr:stedsnr" v="285904" />
	</node>
	<node lat="63.50125833032912" lon="10.088805562098052" id="-39911">
		<tag k="name" v="Trølia" />
		<tag k="natural" v="slope" />
		<tag k="place" v="locality" />
		<tag k="ssr:stedsnr" v="285906" />
	</node>
	<node lat="63.60491389055869" lon="10.145208342071918" id="-39912">
		<tag k="fixme" v="consider natural=peak for the most distinct mountains in the district" />
		<tag k="name" v="Raudåsan" />
		<tag k="natural" v="hill" />
		<tag k="place" v="locality" />
		<tag k="ssr:stedsnr" v="285831" />
	</node>
	<node lat="63.506266668906676" lon="10.082949993377687" id="-39917">
		<tag k="name" v="Bjørnaskardet" />
		<tag k="natural" v="valley" />
		<tag k="place" v="locality" />
		<tag k="ssr:stedsnr" v="285892" />
	</node>
	<node lat="63.733658330657406" lon="10.255702771355276" id="-39924">
		<tag k="name" v="Nilsliheia" />
		<tag k="natural" v="hill" />
		<tag k="place" v="locality" />
		<tag k="ssr:stedsnr" v="285985" />
	</node>
	<node lat="63.60097222342794" lon="9.981016664331403" id="-39925">
		<tag k="name" v="Meskardet" />
		<tag k="natural" v="valley" />
		<tag k="place" v="locality" />
		<tag k="ssr:stedsnr" v="285990" />
	</node>
	<node lat="63.74269722252691" lon="10.203202777077035" id="-39926">
		<tag k="name" v="Henningheia" />
		<tag k="natural" v="hill" />
		<tag k="place" v="locality" />
		<tag k="ssr:stedsnr" v="285992" />
	</node>
	<node lat="63.74274166938158" lon="10.223263898919097" id="-39928">
		<tag k="name" v="Buskardklumpen" />
		<tag k="natural" v="hill" />
		<tag k="place" v="locality" />
		<tag k="ssr:stedsnr" v="285994" />
	</node>
	<node lat="63.61885833606919" lon="9.961638882253242" id="-39929">
		<tag k="name" v="Seterheia" />
		<tag k="natural" v="hill" />
		<tag k="place" v="locality" />
		<tag k="ssr:stedsnr" v="285996" />
	</node>
	<node lat="63.54268055737659" lon="10.02983332681271" id="-39931">
		<tag k="name" v="Grønlia" />
		<tag k="natural" v="slope" />
		<tag k="place" v="locality" />
		<tag k="ssr:stedsnr" v="286137" />
	</node>
	<node lat="63.5538750035394" lon="10.038563879774255" id="-39932">
		<tag k="name" v="Rabbaheia" />
		<tag k="natural" v="hill" />
		<tag k="place" v="locality" />
		<tag k="ssr:stedsnr" v="286139" />
	</node>
	<node lat="63.815419446496065" lon="10.396286107130198" id="-39934">
		<tag k="name" v="Hølalia" />
		<tag k="natural" v="slope" />
		<tag k="place" v="locality" />
		<tag k="ssr:stedsnr" v="286532" />
	</node>
	<node lat="63.81329444573135" lon="10.39355833804439" id="-39935">
		<tag k="name" v="Ner Hølagjerdet" />
		<tag k="place" v="locality" />
		<tag k="ssr:stedsnr" v="286539" />
	</node>
	<node lat="63.57944722648949" lon="10.198236117321516" id="-39937">
		<tag k="name" v="Hårråholet" />
		<tag k="natural" v="valley" />
		<tag k="place" v="locality" />
		<tag k="ssr:stedsnr" v="461396" />
	</node>
	<node lat="63.58629444406401" lon="10.199116657068114" id="-39938">
		<tag k="name" v="Damåsen" />
		<tag k="natural" v="hill" />
		<tag k="place" v="locality" />
		<tag k="ssr:stedsnr" v="461398" />
	</node>
	<node lat="63.82005277619304" lon="10.370555558459474" id="-39941">
		<tag k="name" v="Sørliheia" />
		<tag k="natural" v="hill" />
		<tag k="place" v="locality" />
		<tag k="ssr:stedsnr" v="286634" />
	</node>
	<node lat="63.82154166992087" lon="10.354213890838908" id="-39942">
		<tag k="name" v="Grøndalen" />
		<tag k="natural" v="valley" />
		<tag k="place" v="locality" />
		<tag k="ssr:stedsnr" v="286636" />
	</node>
	<node lat="63.70446388904434" lon="10.057158325679758" id="-39947">
		<tag k="name" v="Kammen" />
		<tag k="natural" v="ridge" />
		<tag k="place" v="locality" />
		<tag k="ssr:stedsnr" v="286833" />
	</node>
	<node lat="63.53599444069499" lon="10.162963880249876" id="-39948">
		<tag k="name" v="Brannkollen" />
		<tag k="natural" v="hill" />
		<tag k="place" v="locality" />
		<tag k="ssr:stedsnr" v="286789" />
	</node>
	<node lat="63.67056944024848" lon="10.438888880111872" id="-39951">
		<tag k="name" v="Storvalheia" />
		<tag k="natural" v="hill" />
		<tag k="place" v="locality" />
		<tag k="ssr:stedsnr" v="290076" />
	</node>
	<node lat="63.59013888534506" lon="10.304111112724721" id="-39958">
		<tag k="name" v="Svartholet" />
		<tag k="natural" v="valley" />
		<tag k="place" v="locality" />
		<tag k="ssr:stedsnr" v="291795" />
	</node>
	<node lat="63.621872223182955" lon="10.509388893440576" id="-39960">
		<tag k="name" v="Stugguflata" />
		<tag k="natural" v="slope" />
		<tag k="place" v="locality" />
		<tag k="ssr:stedsnr" v="292076" />
	</node>
	<node lat="63.60148333312864" lon="10.258786119129311" id="-39961">
		<tag k="name" v="Kamberga" />
		<tag k="natural" v="hill" />
		<tag k="place" v="locality" />
		<tag k="ssr:stedsnr" v="292313" />
	</node>
	<node lat="63.549772223019175" lon="10.194013893158495" id="-39962">
		<tag k="alt_name" v="Bjillkudalen" />
		<tag k="name" v="Bjøllkudalen" />
		<tag k="natural" v="valley" />
		<tag k="place" v="locality" />
		<tag k="ssr:stedsnr" v="292491" />
	</node>
	<node lat="63.69745000243777" lon="10.582902777043254" id="-39965">
		<tag k="name" v="Kjerringrauva" />
		<tag k="place" v="locality" />
		<tag k="ssr:stedsnr" v="292613" />
	</node>
	<node lat="63.66937500388075" lon="10.604369437496878" id="-39970">
		<tag k="name" v="Klengra" />
		<tag k="natural" v="slope" />
		<tag k="place" v="locality" />
		<tag k="ssr:stedsnr" v="292674" />
	</node>
	<node lat="63.633655556195606" lon="10.526286103761333" id="-39972">
		<tag k="name" v="Skaret" />
		<tag k="natural" v="valley" />
		<tag k="place" v="locality" />
		<tag k="ssr:stedsnr" v="292976" />
	</node>
	<node lat="63.51467499712884" lon="9.979136108450382" id="-39978">
		<tag k="name" v="Brannberget" />
		<tag k="natural" v="slope" />
		<tag k="place" v="locality" />
		<tag k="ssr:stedsnr" v="463200" />
	</node>
	<node lat="63.63866111276543" lon="10.08374723226368" id="-39990">
		<tag k="fixme" v="consider natural=peak for the most distinct mountains in the district" />
		<tag k="name" v="Trøåsen" />
		<tag k="natural" v="hill" />
		<tag k="place" v="locality" />
		<tag k="ssr:stedsnr" v="463801" />
	</node>
	<node lat="63.62723611284371" lon="10.128838891623218" id="-39991">
		<tag k="fixme" v="consider natural=peak for the most distinct mountains in the district" />
		<tag k="name" v="Øvlandsurda" />
		<tag k="natural" v="hill" />
		<tag k="place" v="locality" />
		<tag k="ssr:stedsnr" v="463814" />
	</node>
	<node lat="63.74205277443559" lon="10.114630561903017" id="-39993">
		<tag k="name" v="Hans-Hansadalen" />
		<tag k="natural" v="valley" />
		<tag k="place" v="locality" />
		<tag k="ssr:stedsnr" v="463827" />
	</node>
	<node lat="63.74220555255429" lon="10.112236111725238" id="-39994">
		<tag k="name" v="Åsen" />
		<tag k="natural" v="cliff" />
		<tag k="ssr:stedsnr" v="463829" />
	</node>
	<node lat="63.63189721912699" lon="10.010997212833836" id="-39995">
		<tag k="name" v="Julaftan" />
		<tag k="place" v="locality" />
		<tag k="ssr:stedsnr" v="463845" />
	</node>
	<node lat="63.57220278223177" lon="10.088799993663875" id="-39996">
		<tag k="name" v="Perslættet" />
		<tag k="place" v="locality" />
		<tag k="ssr:stedsnr" v="463881" />
	</node>
	<node lat="63.57431111003615" lon="10.097400003632437" id="-39997">
		<tag k="name" v="Karlslættet" />
		<tag k="place" v="locality" />
		<tag k="ssr:stedsnr" v="463882" />
	</node>
	<node lat="63.682155555895854" lon="9.830727767700834" id="-40014">
		<tag k="name" v="Kuskardhaugen" />
		<tag k="natural" v="hill" />
		<tag k="place" v="locality" />
		<tag k="ssr:stedsnr" v="467001" />
	</node>
	<node lat="63.708408336190594" lon="10.019919434755765" id="-40016">
		<tag k="name" v="Dalaheia" />
		<tag k="natural" v="hill" />
		<tag k="place" v="locality" />
		<tag k="ssr:stedsnr" v="467040" />
	</node>
	<node lat="63.65368888813151" lon="9.87221945077984" id="-40018">
		<tag k="name" v="Storholtkammen" />
		<tag k="natural" v="ridge" />
		<tag k="place" v="locality" />
		<tag k="ssr:stedsnr" v="467046" />
	</node>
	<node lat="63.70263611347672" lon="9.969647213979052" id="-40019">
		<tag k="name" v="Åsahøgda" />
		<tag k="natural" v="hill" />
		<tag k="place" v="locality" />
		<tag k="ssr:stedsnr" v="467047" />
	</node>
	<node lat="63.689536113462225" lon="9.828555564547457" id="-40020">
		<tag k="name" v="Storbrøhylla" />
		<tag k="place" v="locality" />
		<tag k="ssr:stedsnr" v="467051" />
	</node>
	<node lat="63.526894440794955" lon="9.99308888900594" id="-40023">
		<tag k="name" v="Mehaugen" />
		<tag k="natural" v="hill" />
		<tag k="place" v="locality" />
		<tag k="ssr:stedsnr" v="467120" />
	</node>
	<node lat="63.5221083368795" lon="9.983566668528866" id="-40024">
		<tag k="name" v="Bliksåskammen" />
		<tag k="natural" v="ridge" />
		<tag k="place" v="locality" />
		<tag k="ssr:stedsnr" v="467123" />
	</node>
	<node lat="63.67924444446351" lon="9.877988890653375" id="-40026">
		<tag k="fixme" v="consider natural=peak for the most distinct mountains in the district" />
		<tag k="name" v="Knubban" />
		<tag k="natural" v="hill" />
		<tag k="place" v="locality" />
		<tag k="ssr:stedsnr" v="467131" />
	</node>
	<node lat="63.61581944441215" lon="9.919286120261425" id="-40027">
		<tag k="name" v="Nordslættet" />
		<tag k="place" v="locality" />
		<tag k="ssr:stedsnr" v="467139" />
	</node>
	<node lat="63.61308333353848" lon="9.91639999951586" id="-40028">
		<tag k="name" v="Halsen" />
		<tag k="natural" v="valley" />
		<tag k="place" v="locality" />
		<tag k="ssr:stedsnr" v="467141" />
	</node>
	<node lat="63.531308334089" lon="10.06972501000319" id="-40030">
		<tag k="name" v="Brunnslia" />
		<tag k="natural" v="slope" />
		<tag k="place" v="locality" />
		<tag k="ssr:stedsnr" v="467098" />
	</node>
	<node lat="63.65721110776345" lon="9.896019443619542" id="-40033">
		<tag k="fixme" v="consider natural=peak for the most distinct mountains in the district" />
		<tag k="name" v="Storholtkammen" />
		<tag k="natural" v="hill" />
		<tag k="place" v="locality" />
		<tag k="ssr:stedsnr" v="467187" />
	</node>
	<node lat="63.58612818776243" lon="9.923901074325299" id="-40038">
		<tag k="alt_name" v="Hammarberget" />
		<tag k="fixme" v="consider natural=peak for the most distinct mountains in the district" />
		<tag k="name" v="Håmmårberget" />
		<tag k="natural" v="hill" />
		<tag k="place" v="locality" />
		<tag k="ssr:stedsnr" v="467235" />
	</node>
	<node lat="63.56664444477617" lon="9.909150002172577" id="-40039">
		<tag k="name" v="Hanehaugen" />
		<tag k="natural" v="hill" />
		<tag k="place" v="locality" />
		<tag k="ssr:stedsnr" v="467242" />
	</node>
	<node lat="63.56352221877099" lon="9.915577775247645" id="-40040">
		<tag k="name" v="Reinshaugen" />
		<tag k="natural" v="hill" />
		<tag k="place" v="locality" />
		<tag k="ssr:stedsnr" v="467244" />
	</node>
	<node lat="63.636950000316666" lon="9.931897217316447" id="-40041">
		<tag k="name" v="Håvårskardet" />
		<tag k="natural" v="valley" />
		<tag k="place" v="locality" />
		<tag k="ssr:stedsnr" v="467248" />
	</node>
	<node lat="63.63340833759653" lon="9.894477779689339" id="-40042">
		<tag k="name" v="Råheia" />
		<tag k="natural" v="hill" />
		<tag k="place" v="locality" />
		<tag k="ssr:stedsnr" v="467251" />
	</node>
	<node lat="63.63741389217796" lon="9.90090833662011" id="-40043">
		<tag k="name" v="Morralia" />
		<tag k="natural" v="slope" />
		<tag k="place" v="locality" />
		<tag k="ssr:stedsnr" v="467254" />
	</node>
	<node lat="63.54197499819406" lon="9.941219443016198" id="-40045">
		<tag k="name" v="Fagerlia" />
		<tag k="natural" v="slope" />
		<tag k="place" v="locality" />
		<tag k="ssr:stedsnr" v="316203" />
	</node>
	<node lat="63.523633331057724" lon="10.134050004685983" id="-40065">
		<tag k="fixme" v="consider natural=peak for the most distinct mountains in the district" />
		<tag k="name" v="Vikaåsen" />
		<tag k="natural" v="hill" />
		<tag k="place" v="locality" />
		<tag k="ssr:stedsnr" v="316694" />
	</node>
	<node lat="63.5204444431485" lon="10.12750833814905" id="-40066">
		<tag k="name" v="Trøinhaugen" />
		<tag k="natural" v="hill" />
		<tag k="place" v="locality" />
		<tag k="ssr:stedsnr" v="316695" />
	</node>
	<node lat="63.53993333364956" lon="10.09613054594887" id="-40072">
		<tag k="fixme" v="consider natural=peak for the most distinct mountains in the district" />
		<tag k="name" v="Skurvheia" />
		<tag k="natural" v="hill" />
		<tag k="place" v="locality" />
		<tag k="ssr:stedsnr" v="316703" />
	</node>
	<node lat="63.53382499815216" lon="10.012249996418419" id="-40073">
		<tag k="name" v="Kjerkmyrlia" />
		<tag k="natural" v="hill" />
		<tag k="place" v="locality" />
		<tag k="ssr:stedsnr" v="316714" />
	</node>
	<node lat="63.639183332627965" lon="9.960747214079468" id="-40084">
		<tag k="fixme" v="consider natural=peak for the most distinct mountains in the district" />
		<tag k="name" v="Tjærravassheia" />
		<tag k="natural" v="hill" />
		<tag k="place" v="locality" />
		<tag k="ssr:stedsnr" v="316946" />
	</node>
	<node lat="63.641944448584375" lon="9.993086106753417" id="-40086">
		<tag k="name" v="Bokken" />
		<tag k="natural" v="hill" />
		<tag k="place" v="locality" />
		<tag k="ssr:stedsnr" v="467538" />
	</node>
	<node lat="63.813772225497566" lon="10.31953333309157" id="-40090">
		<tag k="fixme" v="consider natural=peak for the most distinct mountains in the district" />
		<tag k="name" v="Mefjellsheia" />
		<tag k="natural" v="hill" />
		<tag k="place" v="locality" />
		<tag k="ssr:stedsnr" v="317400" />
	</node>
	<node lat="63.6476638876083" lon="10.068630552129855" id="-40091">
		<tag k="name" v="Slettheidalen" />
		<tag k="natural" v="valley" />
		<tag k="place" v="locality" />
		<tag k="ssr:stedsnr" v="467550" />
	</node>
	<node lat="63.62663055761889" lon="9.963869454514686" id="-40093">
		<tag k="name" v="Malmhaugen" />
		<tag k="natural" v="hill" />
		<tag k="place" v="locality" />
		<tag k="ssr:stedsnr" v="467554" />
	</node>
	<node lat="63.629550000296234" lon="9.967908327308216" id="-40095">
		<tag k="name" v="Syllmørbakken" />
		<tag k="natural" v="slope" />
		<tag k="place" v="locality" />
		<tag k="ssr:stedsnr" v="467560" />
	</node>
	<node lat="63.72166667065136" lon="10.341427785374846" id="-40096">
		<tag k="name" v="Høgda" />
		<tag k="natural" v="hill" />
		<tag k="place" v="locality" />
		<tag k="ssr:stedsnr" v="467623" />
	</node>
	<node lat="63.820858329072855" lon="10.396127770265887" id="-40098">
		<tag k="name" v="Svarttjønnlia" />
		<tag k="natural" v="slope" />
		<tag k="place" v="locality" />
		<tag k="ssr:stedsnr" v="467626" />
	</node>
	<node lat="63.79217777749476" lon="10.650869445583263" id="-40102">
		<tag k="fixme" v="consider natural=peak for the most distinct mountains in the district" />
		<tag k="name" v="Tuva" />
		<tag k="natural" v="hill" />
		<tag k="place" v="locality" />
		<tag k="ssr:stedsnr" v="317416" />
	</node>
	<node lat="63.66277221930668" lon="10.068624996904537" id="-40103">
		<tag k="fixme" v="consider natural=peak for the most distinct mountains in the district" />
		<tag k="name" v="Bergurden" />
		<tag k="natural" v="hill" />
		<tag k="place" v="locality" />
		<tag k="ssr:stedsnr" v="467581" />
	</node>
	<node lat="63.74063332937204" lon="10.421383336997646" id="-40104">
		<tag k="name" v="Holtan" />
		<tag k="natural" v="slope" />
		<tag k="place" v="locality" />
		<tag k="ssr:stedsnr" v="467583" />
	</node>
	<node lat="63.75803888913329" lon="10.40589999796118" id="-40109">
		<tag k="name" v="Solandskardet" />
		<tag k="natural" v="valley" />
		<tag k="place" v="locality" />
		<tag k="ssr:stedsnr" v="467595" />
	</node>
	<node lat="63.71512500125987" lon="10.391044443634586" id="-40111">
		<tag k="fixme" v="consider natural=peak for the most distinct mountains in the district" />
		<tag k="name" v="Inner Høvelen" />
		<tag k="natural" v="hill" />
		<tag k="place" v="locality" />
		<tag k="ssr:stedsnr" v="467598" />
	</node>
	<node lat="63.69006944555579" lon="10.323963889746848" id="-40113">
		<tag k="fixme" v="consider natural=peak for the most distinct mountains in the district" />
		<tag k="name" v="Rundheia" />
		<tag k="natural" v="hill" />
		<tag k="place" v="locality" />
		<tag k="ssr:stedsnr" v="467634" />
	</node>
	<node lat="63.70161110905799" lon="10.261780555259758" id="-40118">
		<tag k="fixme" v="consider natural=peak for the most distinct mountains in the district" />
		<tag k="name" v="Flataunkammen" />
		<tag k="natural" v="hill" />
		<tag k="place" v="locality" />
		<tag k="ssr:stedsnr" v="467655" />
	</node>
	<node lat="63.68975833589952" lon="10.247277784085242" id="-40119">
		<tag k="name" v="Granhaugen" />
		<tag k="natural" v="hill" />
		<tag k="place" v="locality" />
		<tag k="ssr:stedsnr" v="467660" />
	</node>
	<node lat="63.645838890649955" lon="10.09826110521136" id="-40125">
		<tag k="name" v="Trongskardet" />
		<tag k="natural" v="valley" />
		<tag k="place" v="locality" />
		<tag k="ssr:stedsnr" v="467792" />
	</node>
	<node lat="63.55177222454655" lon="10.078377772831477" id="-40127">
		<tag k="name" v="Klokkarslættet" />
		<tag k="place" v="locality" />
		<tag k="ssr:stedsnr" v="467800" />
	</node>
	<node lat="63.76270555433161" lon="10.151738881211042" id="-40131">
		<tag k="name" v="Rathaugen" />
		<tag k="natural" v="hill" />
		<tag k="place" v="locality" />
		<tag k="ssr:stedsnr" v="467882" />
	</node>
	<node lat="63.762194440102654" lon="10.128541670490554" id="-40132">
		<tag k="name" v="Turrbekkskardet" />
		<tag k="natural" v="valley" />
		<tag k="place" v="locality" />
		<tag k="ssr:stedsnr" v="467885" />
	</node>
	<node lat="63.7550277734252" lon="10.325955545927943" id="-40133">
		<tag k="fixme" v="consider natural=peak for the most distinct mountains in the district" />
		<tag k="name" v="Vollaskurven" />
		<tag k="natural" v="hill" />
		<tag k="place" v="locality" />
		<tag k="ssr:stedsnr" v="467890" />
	</node>
	<node lat="63.523777780671594" lon="10.117666669104509" id="-40134">
		<tag k="name" v="Kjerringhaugen" />
		<tag k="natural" v="hill" />
		<tag k="place" v="locality" />
		<tag k="ssr:stedsnr" v="467891" />
	</node>
	<node lat="63.760361107547" lon="10.312058323695256" id="-40135">
		<tag k="name" v="Fyrhovlia" />
		<tag k="natural" v="slope" />
		<tag k="place" v="locality" />
		<tag k="ssr:stedsnr" v="467893" />
	</node>
	<node lat="63.76993610939797" lon="10.222138884078264" id="-40136">
		<tag k="name" v="Storslættliheia" />
		<tag k="natural" v="hill" />
		<tag k="place" v="locality" />
		<tag k="ssr:stedsnr" v="467897" />
	</node>
	<node lat="63.75392499853641" lon="10.220180561206634" id="-40137">
		<tag k="name" v="Estendalen" />
		<tag k="natural" v="valley" />
		<tag k="place" v="locality" />
		<tag k="ssr:stedsnr" v="467899" />
	</node>
	<node lat="63.52911388838337" lon="10.088147224176073" id="-40138">
		<tag k="name" v="Litlhaugen" />
		<tag k="natural" v="hill" />
		<tag k="place" v="locality" />
		<tag k="ssr:stedsnr" v="467901" />
	</node>
	<node lat="63.563474995643524" lon="9.966052786115165" id="-40141">
		<tag k="name" v="Fallhaugen" />
		<tag k="natural" v="hill" />
		<tag k="place" v="locality" />
		<tag k="ssr:stedsnr" v="467982" />
	</node>
	<node lat="63.700161114052015" lon="10.098927768539452" id="-40143">
		<tag k="name" v="Vardheia" />
		<tag k="natural" v="hill" />
		<tag k="place" v="locality" />
		<tag k="ssr:stedsnr" v="467922" />
	</node>
	<node lat="63.615738890601165" lon="10.116816673696235" id="-40144">
		<tag k="name" v="Gjerpskardet" />
		<tag k="natural" v="valley" />
		<tag k="place" v="locality" />
		<tag k="ssr:stedsnr" v="467933" />
	</node>
	<node lat="63.60036666802945" lon="10.13199999801731" id="-40145">
		<tag k="fixme" v="consider natural=peak for the most distinct mountains in the district" />
		<tag k="name" v="Raudåsan" />
		<tag k="natural" v="hill" />
		<tag k="place" v="locality" />
		<tag k="ssr:stedsnr" v="467936" />
	</node>
	<node lat="63.75830833260738" lon="10.047697216275251" id="-40146">
		<tag k="fixme" v="consider natural=peak for the most distinct mountains in the district" />
		<tag k="name" v="Sprengberga" />
		<tag k="natural" v="hill" />
		<tag k="place" v="locality" />
		<tag k="ssr:stedsnr" v="467938" />
	</node>
	<node lat="63.61799166560312" lon="10.065683334877578" id="-40147">
		<tag k="name" v="Bjørnaholet" />
		<tag k="natural" v="valley" />
		<tag k="place" v="locality" />
		<tag k="ssr:stedsnr" v="467944" />
	</node>
	<node lat="63.60087500293998" lon="10.002480550287041" id="-40154">
		<tag k="name" v="Sveåshaugen" />
		<tag k="natural" v="hill" />
		<tag k="place" v="locality" />
		<tag k="ssr:stedsnr" v="468000" />
	</node>
	<node lat="63.78408333463889" lon="10.645486115493252" id="-40155">
		<tag k="name" v="Kjerringliberga" />
		<tag k="natural" v="slope" />
		<tag k="place" v="locality" />
		<tag k="ssr:stedsnr" v="471427" />
	</node>
	<node lat="63.75299444123879" lon="10.478927785798264" id="-40157">
		<tag k="name" v="Osvasslia" />
		<tag k="natural" v="slope" />
		<tag k="place" v="locality" />
		<tag k="ssr:stedsnr" v="332020" />
	</node>
	<node lat="63.806936111532266" lon="10.622202779042485" id="-40159">
		<tag k="name" v="Kalvtrøberget" />
		<tag k="natural" v="hill" />
		<tag k="place" v="locality" />
		<tag k="ssr:stedsnr" v="332053" />
	</node>
	<node lat="63.74930000126713" lon="10.598852777717108" id="-40164">
		<tag k="fixme" v="consider natural=peak for the most distinct mountains in the district" />
		<tag k="name" v="Snekkarslættåsen" />
		<tag k="natural" v="hill" />
		<tag k="place" v="locality" />
		<tag k="ssr:stedsnr" v="472243" />
	</node>
	<node lat="63.78957222039309" lon="10.626952775270793" id="-40165">
		<tag k="name" v="Seterdalen" />
		<tag k="natural" v="valley" />
		<tag k="place" v="locality" />
		<tag k="ssr:stedsnr" v="471442" />
	</node>
	<node lat="63.668877774180146" lon="10.475405552673875" id="-40167">
		<tag k="name" v="Lauvhaugen" />
		<tag k="natural" v="hill" />
		<tag k="place" v="locality" />
		<tag k="ssr:stedsnr" v="472093" />
	</node>
	<node lat="63.73808889244969" lon="10.548200004418772" id="-40170">
		<tag k="name" v="Bjønnadalen" />
		<tag k="natural" v="valley" />
		<tag k="place" v="locality" />
		<tag k="ssr:stedsnr" v="472133" />
	</node>
	<node lat="63.722336113238704" lon="10.491716666199592" id="-40172">
		<tag k="fixme" v="consider natural=peak for the most distinct mountains in the district" />
		<tag k="name" v="Nordgjardåsen" />
		<tag k="natural" v="hill" />
		<tag k="place" v="locality" />
		<tag k="ssr:stedsnr" v="472154" />
	</node>
	<node lat="63.75505833720296" lon="10.773969453091105" id="-40174">
		<tag k="name" v="Røyskattdalen" />
		<tag k="natural" v="valley" />
		<tag k="place" v="locality" />
		<tag k="ssr:stedsnr" v="472283" />
	</node>
	<node lat="63.54808055897982" lon="9.942369434960451" id="-40178">
		<tag k="name" v="Fessakampen" />
		<tag k="natural" v="hill" />
		<tag k="place" v="locality" />
		<tag k="ssr:stedsnr" v="341219" />
	</node>
	<node lat="63.73945555532344" lon="10.106586104499515" id="-40182">
		<tag k="name" v="Øverholan" />
		<tag k="natural" v="valley" />
		<tag k="place" v="locality" />
		<tag k="ssr:stedsnr" v="341857" />
	</node>
	<node lat="63.57134166859062" lon="10.09941945259787" id="-40183">
		<tag k="fixme" v="consider natural=peak for the most distinct mountains in the district" />
		<tag k="name" v="Lensvikåsen" />
		<tag k="natural" v="hill" />
		<tag k="place" v="locality" />
		<tag k="ssr:stedsnr" v="341899" />
	</node>
	<node lat="63.74409444731928" lon="10.51831111654651" id="-40184">
		<tag k="name" v="Rypvasslia" />
		<tag k="natural" v="slope" />
		<tag k="place" v="locality" />
		<tag k="ssr:stedsnr" v="472982" />
	</node>
	<node lat="63.70774166381037" lon="10.464933339924626" id="-40188">
		<tag k="name" v="Bjønnalia" />
		<tag k="natural" v="slope" />
		<tag k="place" v="locality" />
		<tag k="ssr:stedsnr" v="473086" />
	</node>
	<node lat="63.69594722032912" lon="10.488533327960292" id="-40189">
		<tag k="fixme" v="consider natural=peak for the most distinct mountains in the district" />
		<tag k="name" v="Kolmilåsen" />
		<tag k="natural" v="hill" />
		<tag k="place" v="locality" />
		<tag k="ssr:stedsnr" v="473088" />
	</node>
	<node lat="63.68070555370167" lon="9.8353999975916" id="-40190">
		<tag k="name" v="Bjørnahihaugen" />
		<tag k="natural" v="hill" />
		<tag k="place" v="locality" />
		<tag k="ssr:stedsnr" v="345004" />
	</node>
	<node lat="63.62352500179715" lon="9.856805554897901" id="-40191">
		<tag k="name" v="Lauvgjøthaugen" />
		<tag k="natural" v="hill" />
		<tag k="place" v="locality" />
		<tag k="ssr:stedsnr" v="345015" />
	</node>
	<node lat="63.69681110972194" lon="9.923013889196023" id="-40193">
		<tag k="name" v="Buktahaugan" />
		<tag k="natural" v="hill" />
		<tag k="place" v="locality" />
		<tag k="ssr:stedsnr" v="345105" />
	</node>
	<node lat="63.66798055345328" lon="9.939550004923603" id="-40194">
		<tag k="name" v="Vardheia" />
		<tag k="natural" v="hill" />
		<tag k="place" v="locality" />
		<tag k="ssr:stedsnr" v="345202" />
	</node>
	<node lat="63.70458888758225" lon="10.276336105317652" id="-40202">
		<tag k="name" v="Langreksteren" />
		<tag k="natural" v="slope" />
		<tag k="place" v="locality" />
		<tag k="ssr:stedsnr" v="345619" />
	</node>
	<node lat="63.66665278198593" lon="10.152577776325955" id="-40203">
		<tag k="name" v="Folådalen" />
		<tag k="natural" v="valley" />
		<tag k="place" v="locality" />
		<tag k="ssr:stedsnr" v="345660" />
	</node>
	<node lat="63.61550555812197" lon="10.098411106019418" id="-40208">
		<tag k="name" v="Sleadalen" />
		<tag k="natural" v="valley" />
		<tag k="place" v="locality" />
		<tag k="ssr:stedsnr" v="345806" />
	</node>
	<node lat="63.60369166626389" lon="10.104591662929424" id="-40210">
		<tag k="name" v="Rundhaugen" />
		<tag k="natural" v="hill" />
		<tag k="place" v="locality" />
		<tag k="ssr:stedsnr" v="345810" />
	</node>
	<node lat="63.744911114836825" lon="10.376416659313731" id="-40211">
		<tag k="name" v="Kokkliskardet" />
		<tag k="natural" v="valley" />
		<tag k="place" v="locality" />
		<tag k="ssr:stedsnr" v="345561" />
	</node>
	<node lat="63.71627777688492" lon="10.359447224602391" id="-40213">
		<tag k="fixme" v="consider natural=peak for the most distinct mountains in the district" />
		<tag k="name" v="Litlslættåsen" />
		<tag k="natural" v="hill" />
		<tag k="place" v="locality" />
		<tag k="ssr:stedsnr" v="345569" />
	</node>
	<node lat="63.71242777586948" lon="10.369975006683479" id="-40214">
		<tag k="name" v="Grønskardet" />
		<tag k="natural" v="valley" />
		<tag k="place" v="locality" />
		<tag k="ssr:stedsnr" v="345577" />
	</node>
	<node lat="63.643066662365165" lon="10.075799997562239" id="-40216">
		<tag k="name" v="Okshåggådalen" />
		<tag k="natural" v="valley" />
		<tag k="place" v="locality" />
		<tag k="ssr:stedsnr" v="345713" />
	</node>
	<node lat="63.51766944600398" lon="10.118458337212381" id="-40222">
		<tag k="name" v="Stigan" />
		<tag k="natural" v="slope" />
		<tag k="place" v="locality" />
		<tag k="ssr:stedsnr" v="345908" />
	</node>
	<node lat="63.811425001440895" lon="10.213013897288922" id="-40227">
		<tag k="name" v="Hammeldalsheia" />
		<tag k="natural" v="hill" />
		<tag k="place" v="locality" />
		<tag k="ssr:stedsnr" v="345974" />
	</node>
	<node lat="63.54357222602552" lon="10.031766663893732" id="-40232">
		<tag k="name" v="Litlloppskardet" />
		<tag k="natural" v="valley" />
		<tag k="place" v="locality" />
		<tag k="ssr:stedsnr" v="346120" />
	</node>
	<node lat="63.54492500278282" lon="10.027919439087315" id="-40233">
		<tag k="name" v="Damhaugen" />
		<tag k="natural" v="hill" />
		<tag k="place" v="locality" />
		<tag k="ssr:stedsnr" v="346122" />
	</node>
	<node lat="63.55021388808051" lon="9.9560972179239" id="-40234">
		<tag k="name" v="Nonslia" />
		<tag k="natural" v="slope" />
		<tag k="place" v="locality" />
		<tag k="ssr:stedsnr" v="346165" />
	</node>
	<node lat="63.76191111383213" lon="10.19554722788313" id="-40235">
		<tag k="name" v="Solrenningsklumpen" />
		<tag k="natural" v="hill" />
		<tag k="place" v="locality" />
		<tag k="ssr:stedsnr" v="345866" />
	</node>
	<node lat="63.676363893046506" lon="10.021575000175114" id="-40238">
		<tag k="name" v="Salen" />
		<tag k="natural" v="hill" />
		<tag k="place" v="locality" />
		<tag k="ssr:stedsnr" v="346006" />
	</node>
	<node lat="63.665752781575165" lon="9.97441111928255" id="-40239">
		<tag k="fixme" v="consider natural=peak for the most distinct mountains in the district" />
		<tag k="name" v="Sørslættklumpen" />
		<tag k="natural" v="hill" />
		<tag k="place" v="locality" />
		<tag k="ssr:stedsnr" v="346013" />
	</node>
	<node lat="63.6672499973577" lon="9.963558334726628" id="-40240">
		<tag k="name" v="Sør Kallseterlia" />
		<tag k="natural" v="slope" />
		<tag k="place" v="locality" />
		<tag k="ssr:stedsnr" v="346014" />
	</node>
	<node lat="63.66789999826217" lon="9.962269439806393" id="-40241">
		<tag k="name" v="Nord Kallseterlia" />
		<tag k="natural" v="slope" />
		<tag k="place" v="locality" />
		<tag k="ssr:stedsnr" v="346015" />
	</node>
	<node lat="63.572213885748056" lon="10.05632500065044" id="-40243">
		<tag k="name" v="Granskardet" />
		<tag k="natural" v="valley" />
		<tag k="place" v="locality" />
		<tag k="ssr:stedsnr" v="346058" />
	</node>
	<node lat="63.56657500016733" lon="10.057977787135451" id="-40244">
		<tag k="name" v="Tretthaugan" />
		<tag k="natural" v="hill" />
		<tag k="place" v="locality" />
		<tag k="ssr:stedsnr" v="346060" />
	</node>
	<node lat="63.567674996654354" lon="10.066327780187219" id="-40246">
		<tag k="name" v="Buslættet" />
		<tag k="place" v="locality" />
		<tag k="ssr:stedsnr" v="346069" />
	</node>
	<node lat="63.553608329954386" lon="10.011424993411604" id="-40247">
		<tag k="name" v="Grønlia" />
		<tag k="natural" v="slope" />
		<tag k="place" v="locality" />
		<tag k="ssr:stedsnr" v="346076" />
	</node>
	<node lat="63.85825277795474" lon="10.349427778176267" id="-40248">
		<tag k="name" v="Tverrliheia" />
		<tag k="natural" v="hill" />
		<tag k="place" v="locality" />
		<tag k="ssr:stedsnr" v="346555" />
	</node>
	<node lat="63.561944445695524" lon="10.190930552000824" id="-40251">
		<tag k="name" v="Høglia" />
		<tag k="natural" v="slope" />
		<tag k="place" v="locality" />
		<tag k="ssr:stedsnr" v="473429" />
	</node>
	<node lat="63.77099167123969" lon="10.126922212755739" id="-40252">
		<tag k="name" v="Dommulskardet" />
		<tag k="natural" v="valley" />
		<tag k="place" v="locality" />
		<tag k="ssr:stedsnr" v="346854" />
	</node>
	<node lat="63.656261108815166" lon="10.373094440670267" id="-40261">
		<tag k="name" v="Stakkstånglia" />
		<tag k="natural" v="slope" />
		<tag k="place" v="locality" />
		<tag k="ssr:stedsnr" v="473920" />
	</node>
	<node lat="63.61851111262232" lon="10.288269439510133" id="-40262">
		<tag k="name" v="Bjønnahiet" />
		<tag k="place" v="locality" />
		<tag k="ssr:stedsnr" v="473955" />
	</node>
	<node lat="63.6185361130708" lon="10.511044449650672" id="-40265">
		<tag k="name" v="Luddubakken" />
		<tag k="natural" v="slope" />
		<tag k="place" v="locality" />
		<tag k="ssr:stedsnr" v="474061" />
	</node>
	<node lat="63.61939166988911" lon="10.50154165705331" id="-40268">
		<tag k="name" v="Fengerbårdalen" />
		<tag k="natural" v="valley" />
		<tag k="place" v="locality" />
		<tag k="ssr:stedsnr" v="474075" />
	</node>
	<node lat="63.6191333377633" lon="10.486161114837289" id="-40269">
		<tag k="name" v="Bjørklihølet" />
		<tag k="natural" v="valley" />
		<tag k="place" v="locality" />
		<tag k="ssr:stedsnr" v="474076" />
	</node>
	<node lat="63.61084167054098" lon="10.41340000786977" id="-40270">
		<tag k="name" v="Seterlia" />
		<tag k="natural" v="slope" />
		<tag k="place" v="locality" />
		<tag k="ssr:stedsnr" v="350869" />
	</node>
	<node lat="63.61120277851631" lon="10.427627776171072" id="-40271">
		<tag k="name" v="Klingerlia" />
		<tag k="natural" v="slope" />
		<tag k="place" v="locality" />
		<tag k="ssr:stedsnr" v="350871" />
	</node>
	<node lat="63.68786666526849" lon="10.489508337958453" id="-40274">
		<tag k="name" v="Osdalen" />
		<tag k="natural" v="valley" />
		<tag k="place" v="locality" />
		<tag k="ssr:stedsnr" v="351069" />
	</node>
	<node lat="63.599874998944685" lon="10.236244449097656" id="-40276">
		<tag k="name" v="Svean" />
		<tag k="place" v="locality" />
		<tag k="ssr:stedsnr" v="474260" />
	</node>
	<node lat="63.61498889091361" lon="10.36101945256654" id="-40277">
		<tag k="name" v="Kjerringklampdalen" />
		<tag k="natural" v="valley" />
		<tag k="place" v="locality" />
		<tag k="ssr:stedsnr" v="351806" />
	</node>
	<node lat="63.57017777888123" lon="10.409855557092866" id="-40278">
		<tag k="name" v="Geitberget" />
		<tag k="natural" v="hill" />
		<tag k="place" v="locality" />
		<tag k="ssr:stedsnr" v="352008" />
	</node>
	<node lat="63.60377778132108" lon="10.470427786961721" id="-40279">
		<tag k="name" v="Råddårenna" />
		<tag k="natural" v="valley" />
		<tag k="place" v="locality" />
		<tag k="ssr:stedsnr" v="352052" />
	</node>
	<node lat="63.61780277339465" lon="10.488630554842565" id="-40280">
		<tag k="name" v="Ombufaret" />
		<tag k="place" v="locality" />
		<tag k="ssr:stedsnr" v="352055" />
	</node>
	<node lat="63.61325555120143" lon="10.494694439658902" id="-40281">
		<tag k="fixme" v="consider natural=peak for the most distinct mountains in the district" />
		<tag k="name" v="Sagåsen" />
		<tag k="natural" v="hill" />
		<tag k="place" v="locality" />
		<tag k="ssr:stedsnr" v="352061" />
	</node>
	<node lat="63.658694445556435" lon="10.39008610197209" id="-40283">
		<tag k="name" v="Grøndalen" />
		<tag k="natural" v="valley" />
		<tag k="place" v="locality" />
		<tag k="ssr:stedsnr" v="351909" />
	</node>
	<node lat="63.6554055576244" lon="10.350472223577958" id="-40284">
		<tag k="name" v="Fluren" />
		<tag k="natural" v="hill" />
		<tag k="place" v="locality" />
		<tag k="ssr:stedsnr" v="351912" />
	</node>
	<node lat="63.6906861100186" lon="10.356924996696268" id="-40285">
		<tag k="name" v="Godromdalen" />
		<tag k="natural" v="valley" />
		<tag k="place" v="locality" />
		<tag k="ssr:stedsnr" v="351915" />
	</node>
	<node lat="63.689113889264846" lon="10.335216660827616" id="-40286">
		<tag k="loc_name" v="Sør Rundheia" />
		<tag k="name" v="Søndre Rundheia" />
		<tag k="natural" v="hill" />
		<tag k="place" v="locality" />
		<tag k="ssr:stedsnr" v="351919" />
	</node>
	<node lat="63.69973888822492" lon="10.410533332199018" id="-40289">
		<tag k="fixme" v="consider natural=peak for the most distinct mountains in the district" />
		<tag k="name" v="Bjørsjølkammen" />
		<tag k="natural" v="hill" />
		<tag k="place" v="locality" />
		<tag k="ssr:stedsnr" v="351953" />
	</node>
	<node lat="63.70932778123069" lon="10.40571389061325" id="-40291">
		<tag k="name" v="Slettheia" />
		<tag k="natural" v="hill" />
		<tag k="place" v="locality" />
		<tag k="ssr:stedsnr" v="351955" />
	</node>
	<node lat="63.6297472241485" lon="10.333261113439642" id="-40292">
		<tag k="name" v="Grønhaugan" />
		<tag k="natural" v="hill" />
		<tag k="place" v="locality" />
		<tag k="ssr:stedsnr" v="351958" />
	</node>
	<node lat="63.71733889030767" lon="10.423105552105568" id="-40293">
		<tag k="fixme" v="consider natural=peak for the most distinct mountains in the district" />
		<tag k="name" v="Breibekkåsen" />
		<tag k="natural" v="hill" />
		<tag k="place" v="locality" />
		<tag k="ssr:stedsnr" v="351967" />
	</node>
	<node lat="63.71555555666423" lon="10.696513898394224" id="-40296">
		<tag k="name" v="Litl-Bursbakken" />
		<tag k="natural" v="slope" />
		<tag k="place" v="locality" />
		<tag k="ssr:stedsnr" v="474307" />
	</node>
	<node lat="63.71047778051397" lon="10.688872223957485" id="-40297">
		<tag k="name" v="Båstigan" />
		<tag k="natural" v="slope" />
		<tag k="place" v="locality" />
		<tag k="ssr:stedsnr" v="474312" />
	</node>
	<node lat="63.55910832944749" lon="10.218347217936547" id="-40298">
		<tag k="name" v="Rotåsen" />
		<tag k="natural" v="ridge" />
		<tag k="place" v="locality" />
		<tag k="ssr:stedsnr" v="474314" />
	</node>
	<node lat="63.707838884939704" lon="10.660558341390729" id="-40304">
		<tag k="name" v="Ramdalen" />
		<tag k="natural" v="valley" />
		<tag k="place" v="locality" />
		<tag k="ssr:stedsnr" v="352514" />
	</node>
	<node lat="63.67617777904642" lon="10.580580562893932" id="-40306">
		<tag k="name" v="Blåbærhaugen" />
		<tag k="natural" v="hill" />
		<tag k="place" v="locality" />
		<tag k="ssr:stedsnr" v="352654" />
	</node>
	<node lat="63.67135833543145" lon="10.567597224185915" id="-40308">
		<tag k="name" v="Almåshaugen" />
		<tag k="natural" v="hill" />
		<tag k="place" v="locality" />
		<tag k="ssr:stedsnr" v="352811" />
	</node>
	<node lat="63.643969447859014" lon="10.290666676769339" id="-40309">
		<tag k="name" v="Troskaret" />
		<tag k="natural" v="slope" />
		<tag k="place" v="locality" />
		<tag k="ssr:stedsnr" v="474330" />
	</node>
	<node lat="63.66007777590047" lon="10.601847228148342" id="-40313">
		<tag k="name" v="Kvernhuslia" />
		<tag k="natural" v="slope" />
		<tag k="place" v="locality" />
		<tag k="ssr:stedsnr" v="352770" />
	</node>
	<node lat="63.6580666648858" lon="10.322616656929704" id="-40314">
		<tag k="fixme" v="consider natural=peak for the most distinct mountains in the district" />
		<tag k="name" v="Rianåsen" />
		<tag k="natural" v="hill" />
		<tag k="place" v="locality" />
		<tag k="ssr:stedsnr" v="474342" />
	</node>
	<node lat="63.652438888193515" lon="10.270169439745642" id="-40315">
		<tag k="name" v="Litlkråkmolia" />
		<tag k="natural" v="slope" />
		<tag k="place" v="locality" />
		<tag k="ssr:stedsnr" v="474369" />
	</node>
	<node lat="63.69154722463689" lon="10.68381945164101" id="-40317">
		<tag k="name" v="Asplia" />
		<tag k="natural" v="slope" />
		<tag k="place" v="locality" />
		<tag k="ssr:stedsnr" v="474562" />
	</node>
	<node lat="63.69996389290232" lon="10.68526389118471" id="-40321">
		<tag k="name" v="Rundtomen" />
		<tag k="natural" v="hill" />
		<tag k="place" v="locality" />
		<tag k="ssr:stedsnr" v="474557" />
	</node>
	<node lat="63.65788333423534" lon="10.55923055677565" id="-40324">
		<tag k="name" v="Varghaugen" />
		<tag k="natural" v="hill" />
		<tag k="place" v="locality" />
		<tag k="ssr:stedsnr" v="474860" />
	</node>
	<node lat="63.6368388898219" lon="10.576519452972788" id="-40326">
		<tag k="name" v="Regnbakken" />
		<tag k="natural" v="slope" />
		<tag k="place" v="locality" />
		<tag k="ssr:stedsnr" v="474877" />
	</node>
	<node lat="63.62351666465051" lon="10.537566662137044" id="-40329">
		<tag k="name" v="Tjærehaugen" />
		<tag k="natural" v="hill" />
		<tag k="place" v="locality" />
		<tag k="ssr:stedsnr" v="474893" />
	</node>
	<node lat="63.648919445500404" lon="10.57561111676831" id="-40331">
		<tag k="name" v="Litlbrattbakken" />
		<tag k="natural" v="slope" />
		<tag k="place" v="locality" />
		<tag k="ssr:stedsnr" v="474790" />
	</node>
	<node lat="63.638783336127794" lon="10.576672220340319" id="-40332">
		<tag k="name" v="Legda" />
		<tag k="place" v="locality" />
		<tag k="ssr:stedsnr" v="474939" />
	</node>
	<node lat="63.640063887674636" lon="10.556991674346822" id="-40334">
		<tag k="name" v="Krokbakken" />
		<tag k="natural" v="slope" />
		<tag k="place" v="locality" />
		<tag k="ssr:stedsnr" v="474957" />
	</node>
	<node lat="63.76771111487951" lon="10.432086112551035" id="-40341">
		<tag k="name" v="Bergheian" />
		<tag k="natural" v="hill" />
		<tag k="place" v="locality" />
		<tag k="ssr:stedsnr" v="378409" />
	</node>
	<node lat="63.64527500041921" lon="10.150833324042939" id="-40351">
		<tag k="name" v="Varggjøta" />
		<tag k="natural" v="valley" />
		<tag k="place" v="locality" />
		<tag k="ssr:stedsnr" v="385255" />
	</node>
	<node lat="63.716822221544156" lon="10.773274991324898" id="-40376">
		<tag k="name" v="Tømmerbakken" />
		<tag k="natural" v="slope" />
		<tag k="place" v="locality" />
		<tag k="ssr:stedsnr" v="484749" />
	</node>
	<node lat="63.59186666791943" lon="10.191461105150179" id="-40379">
		<tag k="name" v="Koppråhaugen" />
		<tag k="natural" v="hill" />
		<tag k="place" v="locality" />
		<tag k="ssr:stedsnr" v="484835" />
	</node>
	<node lat="63.62775277426594" lon="9.935805552950884" id="-40383">
		<tag k="name" v="Nebbesheia" />
		<tag k="natural" v="hill" />
		<tag k="place" v="locality" />
		<tag k="ssr:stedsnr" v="402302" />
	</node>
	<node lat="63.672391666941245" lon="9.837680562583346" id="-40390">
		<tag k="name" v="Kuhaugen" />
		<tag k="natural" v="hill" />
		<tag k="place" v="locality" />
		<tag k="ssr:stedsnr" v="406008" />
	</node>
	<node lat="63.68979999761888" lon="9.8892111072713" id="-40392">
		<tag k="name" v="Haltahaugen" />
		<tag k="natural" v="hill" />
		<tag k="place" v="locality" />
		<tag k="ssr:stedsnr" v="406040" />
	</node>
	<node lat="63.69254444213583" lon="9.922083342695636" id="-40393">
		<tag k="name" v="Bruhaugen" />
		<tag k="natural" v="hill" />
		<tag k="place" v="locality" />
		<tag k="ssr:stedsnr" v="406100" />
	</node>
	<node lat="63.61828055433107" lon="9.927313882278435" id="-40398">
		<tag k="name" v="Nordslettheian" />
		<tag k="natural" v="hill" />
		<tag k="place" v="locality" />
		<tag k="ssr:stedsnr" v="406153" />
	</node>
	<node lat="63.67977499811203" lon="9.935522219891935" id="-40399">
		<tag k="name" v="Frengsheia" />
		<tag k="natural" v="hill" />
		<tag k="place" v="locality" />
		<tag k="ssr:stedsnr" v="406196" />
	</node>
	<node lat="63.711588886913766" lon="10.360052784169097" id="-40406">
		<tag k="name" v="Grønskardlia" />
		<tag k="natural" v="slope" />
		<tag k="place" v="locality" />
		<tag k="ssr:stedsnr" v="406605" />
	</node>
	<node lat="63.74662500071568" lon="10.3415388898977" id="-40408">
		<tag k="fixme" v="consider natural=peak for the most distinct mountains in the district" />
		<tag k="name" v="Skredbekkdalen" />
		<tag k="natural" v="hill" />
		<tag k="place" v="locality" />
		<tag k="ssr:stedsnr" v="406615" />
	</node>
	<node lat="63.650463885747705" lon="10.017697220928877" id="-40411">
		<tag k="fixme" v="consider natural=peak for the most distinct mountains in the district" />
		<tag k="name" v="Melhus-setra" />
		<tag k="natural" v="hill" />
		<tag k="place" v="locality" />
		<tag k="ssr:stedsnr" v="406566" />
	</node>
	<node lat="63.73660555706624" lon="10.384980549809953" id="-40412">
		<tag k="name" v="Britkollbakken" />
		<tag k="natural" v="slope" />
		<tag k="place" v="locality" />
		<tag k="ssr:stedsnr" v="406594" />
	</node>
	<node lat="63.67086666615186" lon="10.218749998192036" id="-40414">
		<tag k="name" v="Revhaugen" />
		<tag k="natural" v="hill" />
		<tag k="place" v="locality" />
		<tag k="ssr:stedsnr" v="406705" />
	</node>
	<node lat="63.77089722031187" lon="10.246849994840558" id="-40421">
		<tag k="name" v="Sør Kalhola" />
		<tag k="place" v="locality" />
		<tag k="ssr:stedsnr" v="406900" />
	</node>
	<node lat="63.65985555282101" lon="9.960130562786635" id="-40422">
		<tag k="name" v="Nygårdsheia" />
		<tag k="natural" v="hill" />
		<tag k="place" v="locality" />
		<tag k="ssr:stedsnr" v="407012" />
	</node>
	<node lat="63.60939722624294" lon="10.128819451237934" id="-40423">
		<tag k="name" v="Storlidalen" />
		<tag k="natural" v="valley" />
		<tag k="place" v="locality" />
		<tag k="ssr:stedsnr" v="406940" />
	</node>
	<node lat="63.51976666344889" lon="10.103302778766608" id="-40424">
		<tag k="name" v="Tjuvhaugen" />
		<tag k="natural" v="hill" />
		<tag k="place" v="locality" />
		<tag k="ssr:stedsnr" v="406905" />
	</node>
	<node lat="63.61719166661964" lon="9.973819440886261" id="-40427">
		<tag k="name" v="Hestbakken" />
		<tag k="natural" v="slope" />
		<tag k="place" v="locality" />
		<tag k="ssr:stedsnr" v="406993" />
	</node>
	<node lat="63.74279722577321" lon="10.245269449691916" id="-40429">
		<tag k="fixme" v="consider natural=peak for the most distinct mountains in the district" />
		<tag k="name" v="Bjørkaunklumpen" />
		<tag k="natural" v="hill" />
		<tag k="place" v="locality" />
		<tag k="ssr:stedsnr" v="407000" />
	</node>
	<node lat="63.64599444212773" lon="9.952283335926648" id="-40430">
		<tag k="name" v="Svana" />
		<tag k="natural" v="hill" />
		<tag k="place" v="locality" />
		<tag k="ssr:stedsnr" v="407001" />
	</node>
	<node lat="63.66057221880174" lon="9.934841664059006" id="-40431">
		<tag k="name" v="Penghaugen" />
		<tag k="natural" v="hill" />
		<tag k="place" v="locality" />
		<tag k="ssr:stedsnr" v="407190" />
	</node>
	<node lat="63.84259166748575" lon="10.229227767983438" id="-40432">
		<tag k="name" v="Kleiva" />
		<tag k="natural" v="slope" />
		<tag k="place" v="locality" />
		<tag k="ssr:stedsnr" v="407603" />
	</node>
	<node lat="63.547941665695454" lon="10.109083339617838" id="-40438">
		<tag k="name" v="Trøaberget" />
		<tag k="natural" v="hill" />
		<tag k="place" v="locality" />
		<tag k="ssr:stedsnr" v="407805" />
	</node>
	<node lat="63.53769166840579" lon="10.111938890596969" id="-40439">
		<tag k="name" v="Skorvheislættet" />
		<tag k="place" v="locality" />
		<tag k="ssr:stedsnr" v="407810" />
	</node>
	<node lat="63.68181666377342" lon="10.461652772719754" id="-40440">
		<tag k="fixme" v="consider natural=peak for the most distinct mountains in the district" />
		<tag k="name" v="Knektåsen" />
		<tag k="natural" v="hill" />
		<tag k="place" v="locality" />
		<tag k="ssr:stedsnr" v="411106" />
	</node>
	<node lat="63.7722861073849" lon="10.613347226992385" id="-40441">
		<tag k="name" v="Liakammen" />
		<tag k="natural" v="ridge" />
		<tag k="place" v="locality" />
		<tag k="ssr:stedsnr" v="411238" />
	</node>
	<node lat="63.76937222328803" lon="10.645363879606677" id="-40442">
		<tag k="fixme" v="consider natural=peak for the most distinct mountains in the district" />
		<tag k="name" v="Grennfjella" />
		<tag k="natural" v="hill" />
		<tag k="place" v="locality" />
		<tag k="ssr:stedsnr" v="411241" />
	</node>
	<node lat="63.7923611087302" lon="10.600347214519225" id="-40444">
		<tag k="name" v="Middagsskaret" />
		<tag k="natural" v="valley" />
		<tag k="place" v="locality" />
		<tag k="ssr:stedsnr" v="411350" />
	</node>
	<node lat="63.59902500385561" lon="10.281716669868182" id="-40446">
		<tag k="name" v="Randa" />
		<tag k="natural" v="slope" />
		<tag k="place" v="locality" />
		<tag k="ssr:stedsnr" v="411800" />
	</node>
	<node lat="63.66519166419959" lon="10.260191665886863" id="-40447">
		<tag k="name" v="Brattlia" />
		<tag k="natural" v="slope" />
		<tag k="place" v="locality" />
		<tag k="ssr:stedsnr" v="412806" />
	</node>
	<node lat="63.62934166735608" lon="10.377841672013782" id="-40448">
		<tag k="name" v="Vassdalen" />
		<tag k="natural" v="valley" />
		<tag k="place" v="locality" />
		<tag k="ssr:stedsnr" v="412936" />
	</node>
	<node lat="63.595188893222456" lon="10.397333338387346" id="-40450">
		<tag k="name" v="Bjørnadalen" />
		<tag k="natural" v="valley" />
		<tag k="place" v="locality" />
		<tag k="ssr:stedsnr" v="413039" />
	</node>
	<node lat="63.59824999956406" lon="10.350474995570636" id="-40451">
		<tag k="name" v="Hallvardshøgda" />
		<tag k="natural" v="hill" />
		<tag k="place" v="locality" />
		<tag k="ssr:stedsnr" v="413044" />
	</node>
	<node lat="63.723630556311015" lon="10.552497231253476" id="-40453">
		<tag k="name" v="Seterlia" />
		<tag k="natural" v="slope" />
		<tag k="place" v="locality" />
		<tag k="ssr:stedsnr" v="413635" />
	</node>
	<node lat="63.55319444860207" lon="10.178077778644342" id="-40456">
		<tag k="name" v="Kreitjmyråsen" />
		<tag k="natural" v="hill" />
		<tag k="place" v="locality" />
		<tag k="ssr:stedsnr" v="413542" />
	</node>
	<node lat="63.691725000243856" lon="10.621477783190603" id="-40457">
		<tag k="name" v="Skiksteinhaugen" />
		<tag k="natural" v="hill" />
		<tag k="place" v="locality" />
		<tag k="ssr:stedsnr" v="413548" />
	</node>
	<node lat="63.63481944588882" lon="10.568763889491368" id="-40459">
		<tag k="name" v="Mastuberget" />
		<tag k="natural" v="hill" />
		<tag k="place" v="locality" />
		<tag k="ssr:stedsnr" v="413900" />
	</node>
	<node lat="63.628350004494024" lon="10.543888883601529" id="-40462">
		<tag k="name" v="Blåkkåfuru" />
		<tag k="natural" v="hill" />
		<tag k="place" v="locality" />
		<tag k="ssr:stedsnr" v="413902" />
	</node>
	<node lat="63.73174999707963" lon="10.100494451001284" id="-40476">
		<tag k="alt_name" v="Leirfallheia" />
		<tag k="fixme" v="consider natural=peak for the most distinct mountains in the district" />
		<tag k="name" v="Leirfalliheia" />
		<tag k="natural" v="hill" />
		<tag k="place" v="locality" />
		<tag k="ssr:stedsnr" v="438205" />
	</node>
	<node lat="63.7299277765469" lon="10.089872213519534" id="-40477">
		<tag k="name" v="Durmålheia" />
		<tag k="natural" v="hill" />
		<tag k="place" v="locality" />
		<tag k="ssr:stedsnr" v="438206" />
	</node>
	<node lat="63.82551666599557" lon="10.377552779889024" id="-40487">
		<tag k="fixme" v="consider natural=peak for the most distinct mountains in the district" />
		<tag k="name" v="Sørlia" />
		<tag k="natural" v="hill" />
		<tag k="place" v="locality" />
		<tag k="ssr:stedsnr" v="438479" />
	</node>
	<node lat="63.57561249971597" lon="10.088660117925748" id="-40490">
		<tag k="name" v="Brannhaugan" />
		<tag k="natural" v="hill" />
		<tag k="place" v="locality" />
		<tag k="ssr:stedsnr" v="438502" />
	</node>
</osm>
