<?xml version="1.0" encoding="UTF-8"?>
<osm version="0.6" generator="osmapis">
	<node lat="63.61717777776939" lon="10.496780554993542" id="-37046">
		<tag k="name" v="Langmyra" />
		<tag k="natural" v="wetland" />
		<tag k="ssr:stedsnr" v="231069" />
	</node>
	<node lat="63.659886113744015" lon="10.267466666109382" id="-37048">
		<tag k="name" v="Bekkøyan" />
		<tag k="place" v="locality" />
		<tag k="ssr:stedsnr" v="231288" />
	</node>
	<node lat="63.59339166824643" lon="10.214175007752104" id="-37052">
		<tag k="name" v="Rotamyran" />
		<tag k="natural" v="wetland" />
		<tag k="ssr:stedsnr" v="231298" />
	</node>
	<node lat="63.56624722604506" lon="10.238408325879377" id="-37054">
		<tag k="name" v="Geilmyra" />
		<tag k="natural" v="wetland" />
		<tag k="ssr:stedsnr" v="231346" />
	</node>
	<node lat="63.69595278165849" lon="10.534386118812908" id="-37063">
		<tag k="name" v="Langåstofta" />
		<tag k="place" v="locality" />
		<tag k="ssr:stedsnr" v="231676" />
	</node>
	<node lat="63.648380551962525" lon="10.583183332243037" id="-37067">
		<tag k="name" v="Nonshaugmyra" />
		<tag k="natural" v="wetland" />
		<tag k="ssr:stedsnr" v="231817" />
	</node>
	<node lat="63.50755278150673" lon="10.133816666965213" id="-37110">
		<tag k="name" v="Sandan" />
		<tag k="place" v="locality" />
		<tag k="ssr:stedsnr" v="38210" />
	</node>
	<node lat="63.77537500351004" lon="10.088144450205233" id="-37124">
		<tag k="historic" v="shieling" />
		<tag k="name" v="Torkjevollen" />
		<tag k="place" v="locality" />
		<tag k="ssr:stedsnr" v="38864" />
	</node>
	<node lat="63.60734999611024" lon="9.852463887718605" id="-37135">
		<tag k="name" v="Årlottmyra" />
		<tag k="natural" v="wetland" />
		<tag k="ssr:stedsnr" v="42175" />
	</node>
	<node lat="63.49383333038225" lon="10.053777773354145" id="-37139">
		<tag k="name" v="Reinsskogen" />
		<tag k="place" v="locality" />
		<tag k="ssr:stedsnr" v="42083" />
	</node>
	<node lat="63.69374722347666" lon="10.244016674877836" id="-37142">
		<tag k="name" v="Halsen" />
		<tag k="natural" v="wetland" />
		<tag k="ssr:stedsnr" v="42605" />
	</node>
	<node lat="63.66508055485842" lon="10.196516676517227" id="-37144">
		<tag k="name" v="Haktorholet" />
		<tag k="place" v="locality" />
		<tag k="ssr:stedsnr" v="42631" />
	</node>
	<node lat="63.65597499772052" lon="10.125011112511126" id="-37154">
		<tag k="name" v="Blautholet" />
		<tag k="place" v="locality" />
		<tag k="ssr:stedsnr" v="42703" />
	</node>
	<node lat="63.51478055775067" lon="10.135716668692986" id="-37162">
		<tag k="name" v="Brannan" />
		<tag k="place" v="locality" />
		<tag k="ssr:stedsnr" v="42893" />
	</node>
	<node lat="63.645222217870526" lon="9.9480861011091" id="-37163">
		<tag k="name" v="Fallmyra" />
		<tag k="natural" v="wetland" />
		<tag k="ssr:stedsnr" v="43002" />
	</node>
	<node lat="63.60746944428922" lon="10.107549996540229" id="-37167">
		<tag k="name" v="Rogndalsmyra" />
		<tag k="natural" v="wetland" />
		<tag k="ssr:stedsnr" v="42796" />
	</node>
	<node lat="63.61656388584259" lon="9.99998612044549" id="-37174">
		<tag k="name" v="Kleivan" />
		<tag k="natural" v="stone" />
		<tag k="ssr:stedsnr" v="42982" />
	</node>
	<node lat="63.67818610889192" lon="9.895255547270045" id="-37179">
		<tag k="name" v="Litlråa" />
		<tag k="natural" v="wetland" />
		<tag k="ssr:stedsnr" v="43185" />
	</node>
	<node lat="63.67030555359929" lon="10.450708329720445" id="-37185">
		<tag k="name" v="Sørbuslettet" />
		<tag k="natural" v="wetland" />
		<tag k="ssr:stedsnr" v="47075" />
	</node>
	<node lat="63.680647219019235" lon="10.50870555025142" id="-37187">
		<tag k="name" v="Stormyra" />
		<tag k="natural" v="wetland" />
		<tag k="ssr:stedsnr" v="47086" />
	</node>
	<node lat="63.720441669040355" lon="10.821277769607752" id="-37188">
		<tag k="name" v="Svartfjellslettet" />
		<tag k="natural" v="wetland" />
		<tag k="ssr:stedsnr" v="47269" />
	</node>
	<node lat="63.644586107463695" lon="10.27459167390505" id="-37207">
		<tag k="name" v="Grasbakken" />
		<tag k="place" v="locality" />
		<tag k="ssr:stedsnr" v="49376" />
	</node>
	<node lat="63.648150002728585" lon="10.269952779529884" id="-37209">
		<tag k="name" v="Blomøya" />
		<tag k="place" v="locality" />
		<tag k="ssr:stedsnr" v="49378" />
	</node>
	<node lat="63.64693611076033" lon="10.269005555244226" id="-37210">
		<tag k="name" v="Nyøya" />
		<tag k="place" v="locality" />
		<tag k="ssr:stedsnr" v="49380" />
	</node>
	<node lat="63.679813888656795" lon="10.566036103288099" id="-37214">
		<tag k="name" v="Tullskogan" />
		<tag k="place" v="locality" />
		<tag k="ssr:stedsnr" v="49702" />
	</node>
	<node lat="63.66640832976074" lon="10.608097224428294" id="-37218">
		<tag k="name" v="Reina" />
		<tag k="place" v="locality" />
		<tag k="ssr:stedsnr" v="49709" />
	</node>
	<node lat="63.64183055416149" lon="10.54949444775047" id="-37222">
		<tag k="name" v="Djupmyra" />
		<tag k="natural" v="wetland" />
		<tag k="ssr:stedsnr" v="49969" />
	</node>
	<node lat="63.6735527767087" lon="10.319480547854981" id="-37242">
		<tag k="historic" v="shieling" />
		<tag k="name" v="Nedre Kråkmoseteren" />
		<tag k="place" v="locality" />
		<tag k="ssr:stedsnr" v="60788" />
	</node>
	<node lat="63.55366666778588" lon="10.185380554583935" id="-37297">
		<tag k="name" v="Skavlmyra" />
		<tag k="natural" v="wetland" />
		<tag k="ssr:stedsnr" v="84141" />
	</node>
	<node lat="63.57320833107586" lon="10.342063895978322" id="-37309">
		<tag k="name" v="Stegavikmarka" />
		<tag k="place" v="locality" />
		<tag k="ssr:stedsnr" v="98181" />
	</node>
	<node lat="63.52983611187817" lon="10.06959721873963" id="-37335">
		<tag k="name" v="Brunnslimyra" />
		<tag k="natural" v="wetland" />
		<tag k="ssr:stedsnr" v="103107" />
	</node>
	<node lat="63.80236666605692" lon="10.365794439265434" id="-37342">
		<tag k="name" v="Skorvholet" />
		<tag k="place" v="locality" />
		<tag k="ssr:stedsnr" v="103203" />
	</node>
	<node lat="63.67395000424844" lon="10.225686102544831" id="-37358">
		<tag k="name" v="Nyøya" />
		<tag k="place" v="locality" />
		<tag k="ssr:stedsnr" v="103697" />
	</node>
	<node lat="63.65964166609651" lon="10.130930562276207" id="-37362">
		<tag k="name" v="Merragjøta" />
		<tag k="natural" v="wetland" />
		<tag k="ssr:stedsnr" v="103712" />
	</node>
	<node lat="63.64440555972699" lon="10.128361103711764" id="-37363">
		<tag k="name" v="Mevollan" />
		<tag k="place" v="locality" />
		<tag k="ssr:stedsnr" v="103726" />
	</node>
	<node lat="63.60897500331796" lon="10.133708342165109" id="-37371">
		<tag k="name" v="Fagerskog" />
		<tag k="place" v="locality" />
		<tag k="ssr:stedsnr" v="103920" />
	</node>
	<node lat="63.55945278041055" lon="10.055222220442605" id="-37379">
		<tag k="name" v="Ballvollen" />
		<tag k="natural" v="wetland" />
		<tag k="ssr:stedsnr" v="104077" />
	</node>
	<node lat="63.72087777605463" lon="10.811383332073989" id="-37399">
		<tag k="name" v="Høgåsmyra" />
		<tag k="natural" v="wetland" />
		<tag k="ssr:stedsnr" v="108289" />
	</node>
	<node lat="63.608013888879135" lon="10.2644027869797" id="-37411">
		<tag k="name" v="Langmyra" />
		<tag k="natural" v="wetland" />
		<tag k="ssr:stedsnr" v="110337" />
	</node>
	<node lat="63.6204083339148" lon="10.502441673860655" id="-37413">
		<tag k="name" v="Rundmyra" />
		<tag k="natural" v="wetland" />
		<tag k="ssr:stedsnr" v="110076" />
	</node>
	<node lat="63.64750000078787" lon="10.540741667103049" id="-37424">
		<tag k="name" v="Hestmyra" />
		<tag k="natural" v="wetland" />
		<tag k="ssr:stedsnr" v="110773" />
	</node>
	<node lat="63.63737222283937" lon="10.549702787255027" id="-37426">
		<tag k="name" v="Rognåsmyra" />
		<tag k="natural" v="wetland" />
		<tag k="ssr:stedsnr" v="110979" />
	</node>
	<node lat="63.651672219905144" lon="10.528663891556494" id="-37427">
		<tag k="name" v="Halmmyran" />
		<tag k="natural" v="wetland" />
		<tag k="ssr:stedsnr" v="110870" />
	</node>
	<node lat="63.78272222598509" lon="10.140624990019797" id="-37494">
		<tag k="name" v="Høgsetmarka" />
		<tag k="place" v="locality" />
		<tag k="ssr:stedsnr" v="256230" />
	</node>
	<node lat="63.619550000172985" lon="9.83208612041428" id="-37550">
		<tag k="name" v="Holten" />
		<tag k="place" v="locality" />
		<tag k="ssr:stedsnr" v="163222" />
	</node>
	<node lat="63.62447222455241" lon="10.155297228373746" id="-37561">
		<tag k="name" v="Malemyra" />
		<tag k="natural" v="wetland" />
		<tag k="ssr:stedsnr" v="163768" />
	</node>
	<node lat="63.63741667008279" lon="10.17093611476131" id="-37563">
		<tag k="name" v="Halslimyra" />
		<tag k="natural" v="wetland" />
		<tag k="ssr:stedsnr" v="163771" />
	</node>
	<node lat="63.66030833561025" lon="10.19395833555769" id="-37572">
		<tag k="name" v="Vidskogan" />
		<tag k="place" v="locality" />
		<tag k="ssr:stedsnr" v="163675" />
	</node>
	<node lat="63.62009444830448" lon="10.0918750086622" id="-37575">
		<tag k="name" v="Grovaurda" />
		<tag k="natural" v="scree" />
		<tag k="ssr:stedsnr" v="163814" />
	</node>
	<node lat="63.75547222319549" lon="10.066911104528213" id="-37583">
		<tag k="name" v="Svartdalen" />
		<tag k="natural" v="stone" />
		<tag k="ssr:stedsnr" v="163972" />
	</node>
	<node lat="63.795519444688466" lon="10.232858325400398" id="-37584">
		<tag k="name" v="Halsmarka" />
		<tag k="place" v="locality" />
		<tag k="ssr:stedsnr" v="163978" />
	</node>
	<node lat="63.543877780282166" lon="10.012088890705192" id="-37589">
		<tag k="name" v="Kjerkmyrhåggån" />
		<tag k="place" v="locality" />
		<tag k="ssr:stedsnr" v="164124" />
	</node>
	<node lat="63.75173055388862" lon="10.0746972258736" id="-37603">
		<tag k="name" v="Nygården" />
		<tag k="place" v="locality" />
		<tag k="ssr:stedsnr" v="164867" />
	</node>
	<node lat="63.554633333669386" lon="10.09129444345129" id="-37605">
		<tag k="name" v="Håmmårmyra" />
		<tag k="natural" v="wetland" />
		<tag k="ssr:stedsnr" v="164812" />
	</node>
	<node lat="63.75035000144031" lon="10.821666673894388" id="-37613">
		<tag k="name" v="Stormyra" />
		<tag k="natural" v="wetland" />
		<tag k="ssr:stedsnr" v="169305" />
	</node>
	<node lat="63.578458331596224" lon="10.146508323768316" id="-37622">
		<tag k="name" v="Nerslettet" />
		<tag k="natural" v="wetland" />
		<tag k="ssr:stedsnr" v="170112" />
	</node>
	<node lat="63.617808330597434" lon="10.491675006232201" id="-37623">
		<tag k="name" v="Småmyran" />
		<tag k="natural" v="wetland" />
		<tag k="ssr:stedsnr" v="170056" />
	</node>
	<node lat="63.71677777865847" lon="10.619691672148244" id="-37624">
		<tag k="name" v="Vidvolltrøa" />
		<tag k="place" v="locality" />
		<tag k="ssr:stedsnr" v="170603" />
	</node>
	<node lat="63.70173889095365" lon="10.527250006224872" id="-37625">
		<tag k="name" v="Tjønnmyra" />
		<tag k="natural" v="wetland" />
		<tag k="ssr:stedsnr" v="170612" />
	</node>
	<node lat="63.66336944744959" lon="10.573597218639256" id="-37631">
		<tag k="name" v="Seglmyra" />
		<tag k="natural" v="wetland" />
		<tag k="ssr:stedsnr" v="170873" />
	</node>
	<node lat="63.60776111526639" lon="10.119308338323748" id="-37644">
		<tag k="name" v="Kværnamyra" />
		<tag k="natural" v="wetland" />
		<tag k="ssr:stedsnr" v="180219" />
	</node>
	<node lat="63.51117778176511" lon="9.990869446995227" id="-37662">
		<tag k="alt_name" v="Askjemsmyra" />
		<tag k="name" v="Askjemmyra" />
		<tag k="natural" v="wetland" />
		<tag k="ssr:stedsnr" v="195738" />
	</node>
	<node lat="63.78400555319559" lon="10.557827770254505" id="-37681">
		<tag k="name" v="Tjønnmyra" />
		<tag k="natural" v="wetland" />
		<tag k="ssr:stedsnr" v="210018" />
	</node>
	<node lat="63.51435000427112" lon="10.04204721765935" id="-37710">
		<tag k="name" v="Bælingshåggån" />
		<tag k="place" v="locality" />
		<tag k="ssr:stedsnr" v="224125" />
	</node>
	<node lat="63.51600277731543" lon="9.984286108694537" id="-37711">
		<tag k="name" v="Dråttengsmyra" />
		<tag k="natural" v="wetland" />
		<tag k="ssr:stedsnr" v="224136" />
	</node>
	<node lat="63.69211666777415" lon="10.284030553473803" id="-37717">
		<tag k="name" v="Smedplassen" />
		<tag k="place" v="locality" />
		<tag k="ssr:stedsnr" v="224602" />
	</node>
	<node lat="63.64554444876461" lon="10.109125007226517" id="-37730">
		<tag k="name" v="Jakobplassen" />
		<tag k="place" v="locality" />
		<tag k="ssr:stedsnr" v="224742" />
	</node>
	<node lat="63.50723888591742" lon="10.096041662150304" id="-37733">
		<tag k="name" v="Strupmyra" />
		<tag k="natural" v="wetland" />
		<tag k="ssr:stedsnr" v="224936" />
	</node>
	<node lat="63.60969721892206" lon="10.047491669120852" id="-37734">
		<tag k="name" v="Nevergjøta" />
		<tag k="natural" v="wetland" />
		<tag k="ssr:stedsnr" v="224943" />
	</node>
	<node lat="63.67115555963508" lon="10.234963883563356" id="-37737">
		<tag k="name" v="Mårdstokkmyra" />
		<tag k="natural" v="wetland" />
		<tag k="ssr:stedsnr" v="224686" />
	</node>
	<node lat="63.6700000017465" lon="10.202463888172597" id="-37740">
		<tag k="name" v="Plassen" />
		<tag k="place" v="locality" />
		<tag k="ssr:stedsnr" v="224699" />
	</node>
	<node lat="63.61479722128569" lon="10.103480555425993" id="-37741">
		<tag k="name" v="Ballvollen" />
		<tag k="place" v="locality" />
		<tag k="ssr:stedsnr" v="224812" />
	</node>
	<node lat="63.533022220164376" lon="10.091880563516021" id="-37744">
		<tag k="name" v="Klengråtmyra" />
		<tag k="natural" v="wetland" />
		<tag k="ssr:stedsnr" v="224891" />
	</node>
	<node lat="63.830638886014526" lon="10.229138882167904" id="-37754">
		<tag k="name" v="Mælasetra" />
		<tag k="place" v="locality" />
		<tag k="ssr:stedsnr" v="225592" />
	</node>
	<node lat="63.733244446261374" lon="10.757572219523048" id="-37767">
		<tag k="name" v="Langmyra" />
		<tag k="natural" v="wetland" />
		<tag k="ssr:stedsnr" v="229296" />
	</node>
	<node lat="63.55443888512324" lon="10.179844448449577" id="-37783">
		<tag k="name" v="Kreitjmyra" />
		<tag k="natural" v="wetland" />
		<tag k="ssr:stedsnr" v="231589" />
	</node>
	<node lat="63.70214722505619" lon="10.002291666424341" id="-37826">
		<tag k="name" v="Hyllmyra" />
		<tag k="natural" v="wetland" />
		<tag k="ssr:stedsnr" v="255802" />
	</node>
	<node lat="63.67044444139034" lon="10.149086104311985" id="-37858">
		<tag k="name" v="Jutulmyran" />
		<tag k="natural" v="wetland" />
		<tag k="ssr:stedsnr" v="256820" />
	</node>
	<node lat="63.624780555287515" lon="9.855336117789033" id="-37895">
		<tag k="name" v="Nordlauvgjøta" />
		<tag k="natural" v="stone" />
		<tag k="ssr:stedsnr" v="285015" />
	</node>
	<node lat="63.694550003411194" lon="9.90079722057228" id="-37903">
		<tag k="name" v="Raudmoldurda" />
		<tag k="natural" v="scree" />
		<tag k="ssr:stedsnr" v="285112" />
	</node>
	<node lat="63.51792221842563" lon="10.016425004079627" id="-37905">
		<tag k="name" v="Råddet" />
		<tag k="place" v="locality" />
		<tag k="ssr:stedsnr" v="285129" />
	</node>
	<node lat="63.55369166414645" lon="10.097705560851002" id="-37925">
		<tag k="name" v="Granen" />
		<tag k="place" v="locality" />
		<tag k="ssr:stedsnr" v="285790" />
	</node>
	<node lat="63.73877222561189" lon="10.012666673619602" id="-37931">
		<tag k="name" v="Tobakksvika" />
		<tag k="place" v="locality" />
		<tag k="ssr:stedsnr" v="285889" />
	</node>
	<node lat="63.67891993233764" lon="9.997201070027112" id="-37937">
		<tag k="historic" v="shieling" />
		<tag k="name" v="Dalasetra " />
		<tag k="place" v="locality" />
		<tag k="ssr:stedsnr" v="286039" />
	</node>
	<node lat="63.600025002639654" lon="9.993655547385215" id="-37943">
		<tag k="name" v="Søråsmyra" />
		<tag k="natural" v="wetland" />
		<tag k="ssr:stedsnr" v="285993" />
	</node>
	<node lat="63.54078055127605" lon="10.127863884925345" id="-37961">
		<tag k="landuse" v="meadow" />
		<tag k="name" v="Tjønnslættet" />
		<tag k="ssr:stedsnr" v="286812" />
	</node>
	<node lat="63.786905554177736" lon="10.590291657606398" id="-37966">
		<tag k="name" v="Gjøversteinmyra" />
		<tag k="natural" v="wetland" />
		<tag k="ssr:stedsnr" v="289385" />
	</node>
	<node lat="63.61996111025959" lon="10.504702768525808" id="-37975">
		<tag k="name" v="Øver-Luddumyra" />
		<tag k="natural" v="wetland" />
		<tag k="ssr:stedsnr" v="292067" />
	</node>
	<node lat="63.542597226334856" lon="10.175525009681333" id="-37982">
		<tag k="name" v="Sveslættet" />
		<tag k="natural" v="wetland" />
		<tag k="ssr:stedsnr" v="292503" />
	</node>
	<node lat="63.70300833247425" lon="10.618669452440264" id="-37983">
		<tag k="name" v="Vollan" />
		<tag k="place" v="locality" />
		<tag k="ssr:stedsnr" v="292504" />
	</node>
	<node lat="63.555111109155476" lon="10.163655553483647" id="-37984">
		<tag k="name" v="Bjønnmyra" />
		<tag k="natural" v="wetland" />
		<tag k="ssr:stedsnr" v="292505" />
	</node>
	<node lat="63.68282777356478" lon="10.601283338936875" id="-37985">
		<tag k="name" v="Sandgrind" />
		<tag k="place" v="locality" />
		<tag k="ssr:stedsnr" v="292703" />
	</node>
	<node lat="63.63246666741443" lon="10.543358340132766" id="-37989">
		<tag k="name" v="Fjellmyra" />
		<tag k="natural" v="wetland" />
		<tag k="ssr:stedsnr" v="292983" />
	</node>
	<node lat="63.51859166852511" lon="10.06700000930558" id="-38031">
		<tag k="name" v="Lauvlimyra" />
		<tag k="natural" v="wetland" />
		<tag k="ssr:stedsnr" v="467096" />
	</node>
	<node lat="63.65433055570411" lon="9.865497217043211" id="-38033">
		<tag k="name" v="Langmyran" />
		<tag k="natural" v="wetland" />
		<tag k="ssr:stedsnr" v="467045" />
	</node>
	<node lat="63.6659888858609" lon="9.905972228667709" id="-38051">
		<tag k="historic" v="shieling" />
		<tag k="name" v="Gammelsetra" />
		<tag k="place" v="locality" />
		<tag k="ssr:stedsnr" v="467192" />
	</node>
	<node lat="63.63989721901976" lon="9.938238882245392" id="-38053">
		<tag k="name" v="Sør Tjøravassholet" />
		<tag k="natural" v="wetland" />
		<tag k="ssr:stedsnr" v="467226" />
	</node>
	<node lat="63.61397221869931" lon="10.251988898017995" id="-38064">
		<tag k="name" v="Stormyra" />
		<tag k="natural" v="wetland" />
		<tag k="ssr:stedsnr" v="316299" />
	</node>
	<node lat="63.70172777670346" lon="10.551691676431417" id="-38067">
		<tag k="name" v="Reidalsmyran" />
		<tag k="natural" v="wetland" />
		<tag k="ssr:stedsnr" v="316446" />
	</node>
	<node lat="63.65864999578" lon="10.141175007852988" id="-38122">
		<tag k="name" v="Rålimyra" />
		<tag k="natural" v="wetland" />
		<tag k="ssr:stedsnr" v="317753" />
	</node>
	<node lat="63.709697222758585" lon="10.326541666946525" id="-38130">
		<tag k="name" v="Bålfossøya" />
		<tag k="place" v="locality" />
		<tag k="ssr:stedsnr" v="467637" />
	</node>
	<node lat="63.67405555719" lon="10.233419454344682" id="-38136">
		<tag k="name" v="Stoholmen" />
		<tag k="place" v="locality" />
		<tag k="ssr:stedsnr" v="467725" />
	</node>
	<node lat="63.66598055253265" lon="10.166424990256148" id="-38138">
		<tag k="name" v="Fluren" />
		<tag k="place" v="locality" />
		<tag k="ssr:stedsnr" v="467695" />
	</node>
	<node lat="63.549483336195856" lon="10.082541658390157" id="-38142">
		<tag k="name" v="Nerslættet" />
		<tag k="natural" v="wetland" />
		<tag k="ssr:stedsnr" v="467799" />
	</node>
	<node lat="63.60931111164501" lon="10.10287221443695" id="-38145">
		<tag k="name" v="Fagerlimyra" />
		<tag k="natural" v="wetland" />
		<tag k="ssr:stedsnr" v="467841" />
	</node>
	<node lat="63.80786388718139" lon="10.24230277771842" id="-38156">
		<tag k="historic" v="shieling" />
		<tag k="name" v="Litlsetra" />
		<tag k="place" v="locality" />
		<tag k="ssr:stedsnr" v="467980" />
	</node>
	<node lat="63.583697218479685" lon="9.966341670010433" id="-38158">
		<tag k="name" v="Fallet" />
		<tag k="place" v="locality" />
		<tag k="ssr:stedsnr" v="467985" />
	</node>
	<node lat="63.613094447448354" lon="10.052813879045502" id="-38164">
		<tag k="name" v="Skjenholmyra" />
		<tag k="natural" v="wetland" />
		<tag k="ssr:stedsnr" v="467945" />
	</node>
	<node lat="63.73807500104058" lon="10.022747215293336" id="-38167">
		<tag k="name" v="Holadalen" />
		<tag k="natural" v="stone" />
		<tag k="ssr:stedsnr" v="467956" />
	</node>
	<node lat="63.74087777694615" lon="10.019316663754525" id="-38168">
		<tag k="name" v="Vorpa" />
		<tag k="natural" v="scree" />
		<tag k="ssr:stedsnr" v="467959" />
	</node>
	<node lat="63.73519166223592" lon="10.80296667338322" id="-38177">
		<tag k="name" v="Kornkvenhusmyra" />
		<tag k="natural" v="wetland" />
		<tag k="ssr:stedsnr" v="471301" />
	</node>
	<node lat="63.67623611375053" lon="10.516858341633752" id="-38182">
		<tag k="name" v="Meierimyra" />
		<tag k="natural" v="wetland" />
		<tag k="ssr:stedsnr" v="472085" />
	</node>
	<node lat="63.69810833714337" lon="10.23854723190261" id="-38217">
		<tag k="name" v="Joslættet" />
		<tag k="natural" v="wetland" />
		<tag k="ssr:stedsnr" v="345615" />
	</node>
	<node lat="63.73308610787902" lon="10.34761110317189" id="-38228">
		<tag k="name" v="Alsetsetra" />
		<tag k="place" v="locality" />
		<tag k="ssr:stedsnr" v="345567" />
	</node>
	<node lat="63.64376666912293" lon="10.132391660661616" id="-38233">
		<tag k="name" v="Stormelen" />
		<tag k="place" v="locality" />
		<tag k="ssr:stedsnr" v="345721" />
	</node>
	<node lat="63.64340000039357" lon="10.134700008699951" id="-38234">
		<tag k="name" v="Desmalen" />
		<tag k="place" v="locality" />
		<tag k="ssr:stedsnr" v="345722" />
	</node>
	<node lat="63.55786944854112" lon="9.962922228782608" id="-38240">
		<tag k="name" v="Dålån" />
		<tag k="natural" v="stone" />
		<tag k="ssr:stedsnr" v="345963" />
	</node>
	<node lat="63.51642500145451" lon="10.059958332534714" id="-38242">
		<tag k="name" v="Vakkerbekkmyra" />
		<tag k="natural" v="wetland" />
		<tag k="ssr:stedsnr" v="345968" />
	</node>
	<node lat="63.54475000378225" lon="10.023263889497839" id="-38247">
		<tag k="name" v="Dammyra" />
		<tag k="natural" v="wetland" />
		<tag k="ssr:stedsnr" v="346114" />
	</node>
	<node lat="63.76989999873624" lon="10.170566668829583" id="-38252">
		<tag k="name" v="Hansdalen" />
		<tag k="natural" v="stone" />
		<tag k="ssr:stedsnr" v="345867" />
	</node>
	<node lat="63.67870555601935" lon="10.376758342697038" id="-38275">
		<tag k="name" v="Landsslettet" />
		<tag k="natural" v="wetland" />
		<tag k="ssr:stedsnr" v="473916" />
	</node>
	<node lat="63.682255552314075" lon="10.382816657260756" id="-38276">
		<tag k="name" v="Liaslettet" />
		<tag k="natural" v="wetland" />
		<tag k="ssr:stedsnr" v="473917" />
	</node>
	<node lat="63.61578611025286" lon="10.507880549389526" id="-38282">
		<tag k="historic" v="shieling" />
		<tag k="name" v="Ludduvollan" />
		<tag k="place" v="locality" />
		<tag k="ssr:stedsnr" v="474065" />
	</node>
	<node lat="63.620141669805015" lon="10.523233336880786" id="-38283">
		<tag k="name" v="Nylandet" />
		<tag k="place" v="locality" />
		<tag k="ssr:stedsnr" v="474066" />
	</node>
	<node lat="63.69583055330538" lon="10.368866676119024" id="-38303">
		<tag k="name" v="Elmyra" />
		<tag k="natural" v="wetland" />
		<tag k="ssr:stedsnr" v="351922" />
	</node>
	<node lat="63.62775278205818" lon="10.297727768006508" id="-38306">
		<tag k="loc_name" v="Søldammyra" />
		<tag k="name" v="Soldammyra" />
		<tag k="natural" v="wetland" />
		<tag k="ssr:stedsnr" v="351954" />
	</node>
	<node lat="63.65760277636643" lon="10.26919722769454" id="-38316">
		<tag k="name" v="Rundhaugtrøa" />
		<tag k="place" v="locality" />
		<tag k="ssr:stedsnr" v="352364" />
	</node>
	<node lat="63.543436111119206" lon="10.191233341287326" id="-38318">
		<tag k="name" v="Storsveaunet" />
		<tag k="place" v="locality" />
		<tag k="ssr:stedsnr" v="352509" />
	</node>
	<node lat="63.651905554044276" lon="10.319836108466037" id="-38326">
		<tag k="name" v="Riaøya" />
		<tag k="place" v="locality" />
		<tag k="ssr:stedsnr" v="474335" />
	</node>
	<node lat="63.655902780893754" lon="10.312852781132277" id="-38327">
		<tag k="name" v="Riarønningen" />
		<tag k="place" v="locality" />
		<tag k="ssr:stedsnr" v="474339" />
	</node>
	<node lat="63.65226666851354" lon="10.584394442209302" id="-38341">
		<tag k="name" v="Tjurrulamyra" />
		<tag k="natural" v="wetland" />
		<tag k="ssr:stedsnr" v="474866" />
	</node>
	<node lat="63.627608334874715" lon="10.524288897131441" id="-38344">
		<tag k="name" v="Klævesmyra" />
		<tag k="place" v="locality" />
		<tag k="ssr:stedsnr" v="474890" />
	</node>
	<node lat="63.66194722418002" lon="10.605491672763742" id="-38346">
		<tag k="name" v="Hafellekra" />
		<tag k="place" v="locality" />
		<tag k="ssr:stedsnr" v="474782" />
	</node>
	<node lat="63.69859721808386" lon="10.496675009371492" id="-38351">
		<tag k="name" v="Langåsseterbråtta" />
		<tag k="place" v="locality" />
		<tag k="ssr:stedsnr" v="360353" />
	</node>
	<node lat="63.54233055440704" lon="10.076619452160253" id="-38400">
		<tag k="historic" v="shieling" />
		<tag k="name" v="Litlsetra" />
		<tag k="place" v="locality" />
		<tag k="ssr:stedsnr" v="402333" />
	</node>
	<node lat="63.532683329258084" lon="9.959269443110562" id="-38412">
		<tag k="name" v="Almlimyra" />
		<tag k="natural" v="wetland" />
		<tag k="ssr:stedsnr" v="406142" />
	</node>
	<node lat="63.60144444823506" lon="9.930261112584034" id="-38413">
		<tag k="name" v="Gammelsetermyran" />
		<tag k="natural" v="wetland" />
		<tag k="ssr:stedsnr" v="406151" />
	</node>
	<node lat="63.76055833160381" lon="10.434808337109374" id="-38426">
		<tag k="name" v="Joslåtten" />
		<tag k="place" v="locality" />
		<tag k="ssr:stedsnr" v="406559" />
	</node>
	<node lat="63.71124444308853" lon="10.787986113253872" id="-38433">
		<tag k="loc_name" v="Raukamsveet" />
		<tag k="name" v="Raudkamsveet" />
		<tag k="place" v="locality" />
		<tag k="ssr:stedsnr" v="406812" />
	</node>
	<node lat="63.77016111363897" lon="10.083863880023339" id="-38434">
		<tag k="name" v="Innerråkmyra" />
		<tag k="natural" v="wetland" />
		<tag k="ssr:stedsnr" v="406863" />
	</node>
	<node lat="63.63794444146572" lon="10.249352775259453" id="-38441">
		<tag k="name" v="Kleiva" />
		<tag k="place" v="locality" />
		<tag k="ssr:stedsnr" v="406906" />
	</node>
	<node lat="63.507444445866454" lon="10.087844443974861" id="-38442">
		<tag k="name" v="Tuvåtmyra" />
		<tag k="natural" v="wetland" />
		<tag k="ssr:stedsnr" v="406944" />
	</node>
	<node lat="63.825286112233556" lon="10.225972220390478" id="-38449">
		<tag k="name" v="Krokan" />
		<tag k="natural" v="wetland" />
		<tag k="ssr:stedsnr" v="407611" />
	</node>
	<node lat="63.65743610748067" lon="9.993294446722352" id="-38451">
		<tag k="historic" v="shieling" />
		<tag k="name" v="Følsetra " />
		<tag k="place" v="locality" />
		<tag k="ssr:stedsnr" v="407642" />
	</node>
	<node lat="63.750430551555354" lon="10.806655553377341" id="-38459">
		<tag k="loc_name" v="Føggellangsmyra" />
		<tag k="name" v="Fugllangsmyra" />
		<tag k="natural" v="wetland" />
		<tag k="ssr:stedsnr" v="411290" />
	</node>
	<node lat="63.64755833302269" lon="10.54439444688807" id="-38476">
		<tag k="name" v="Nord-Litlbuslættet" />
		<tag k="natural" v="wetland" />
		<tag k="ssr:stedsnr" v="413785" />
	</node>
	<node lat="63.64493611312068" lon="10.564591674288485" id="-38477">
		<tag k="name" v="Nedre-Brannhaugmyra" />
		<tag k="natural" v="wetland" />
		<tag k="ssr:stedsnr" v="413791" />
	</node>
	<node lat="63.55974722468036" lon="10.166063894279652" id="-38508">
		<tag k="name" v="Korsmyra" />
		<tag k="natural" v="wetland" />
		<tag k="ssr:stedsnr" v="438553" />
	</node>
	<node lat="63.50589166583292" lon="9.983011118437531" id="-38512">
		<tag k="name" v="Grønningsmyra" />
		<tag k="natural" v="wetland" />
		<tag k="ssr:stedsnr" v="438696" />
	</node>
	<node lat="63.76589164636123" lon="10.088101305755586" id="-38524">
		<tag k="name" v="Grønskardmyra" />
		<tag k="natural" v="wetland" />
		<tag k="ssr:stedsnr" v="447530" />
	</node>
	<node lat="63.747676622240306" lon="10.62366426674194" id="-38527">
		<tag k="name" v="Meskogen" />
		<tag k="place" v="locality" />
		<tag k="ssr:stedsnr" v="451472" />
	</node>
	<node lat="63.56891944829561" lon="10.116677785486813" id="-38540">
		<tag k="name" v="Stakkenget" />
		<tag k="place" v="locality" />
		<tag k="ssr:stedsnr" v="463854" />
	</node>
	<node lat="63.565897220739544" lon="10.109147222715125" id="-38541">
		<tag k="name" v="Skogtrøa" />
		<tag k="place" v="locality" />
		<tag k="ssr:stedsnr" v="463855" />
	</node>
	<node lat="63.66088888991739" lon="9.952897217595167" id="-38551">
		<tag k="name" v="Nygården" />
		<tag k="place" v="locality" />
		<tag k="ssr:stedsnr" v="467007" />
	</node>
	<node lat="63.542827774205186" lon="10.061794441756744" id="-38562">
		<tag k="name" v="Arnskjegget" />
		<tag k="place" v="locality" />
		<tag k="ssr:stedsnr" v="467110" />
	</node>
	<node lat="63.593480555756" lon="9.8890055496175" id="-38565">
		<tag k="name" v="Jensholet" />
		<tag k="natural" v="wetland" />
		<tag k="ssr:stedsnr" v="467269" />
	</node>
	<node lat="63.54021944840178" lon="10.10039721809031" id="-38575">
		<tag k="name" v="Postmyra" />
		<tag k="natural" v="wetland" />
		<tag k="ssr:stedsnr" v="467806" />
	</node>
	<node lat="63.55423332931659" lon="10.078111115773725" id="-38577">
		<tag k="name" v="Skardmyra" />
		<tag k="natural" v="wetland" />
		<tag k="ssr:stedsnr" v="467822" />
	</node>
	<node lat="63.64636944033752" lon="10.170744446278428" id="-38578">
		<tag k="name" v="Råslættet" />
		<tag k="natural" v="wetland" />
		<tag k="ssr:stedsnr" v="467704" />
	</node>
	<node lat="63.64069721999449" lon="10.131688882351279" id="-38580">
		<tag k="name" v="Snipen" />
		<tag k="place" v="locality" />
		<tag k="ssr:stedsnr" v="467763" />
	</node>
	<node lat="63.545099998116186" lon="10.106419436213649" id="-38583">
		<tag k="name" v="Rønningan" />
		<tag k="place" v="locality" />
		<tag k="ssr:stedsnr" v="467780" />
	</node>
	<node lat="63.640463889544804" lon="10.167730554703434" id="-38584">
		<tag k="name" v="Raudmyra" />
		<tag k="natural" v="wetland" />
		<tag k="ssr:stedsnr" v="467781" />
	</node>
	<node lat="63.6903083310593" lon="10.378516658137922" id="-38597">
		<tag k="name" v="Gulløyan" />
		<tag k="natural" v="wetland" />
		<tag k="ssr:stedsnr" v="472912" />
	</node>
	<node lat="63.565224999924546" lon="10.205258333277333" id="-38599">
		<tag k="name" v="Stormyra" />
		<tag k="natural" v="wetland" />
		<tag k="ssr:stedsnr" v="474302" />
	</node>
	<node lat="63.68544444705749" lon="10.533022213311742" id="-38604">
		<tag k="name" v="Hovmyra" />
		<tag k="natural" v="wetland" />
		<tag k="ssr:stedsnr" v="474672" />
	</node>
	<node lat="63.61752222614565" lon="10.117450008591504" id="-38616">
		<tag k="name" v="Bjørndalsmyra" />
		<tag k="natural" v="wetland" />
		<tag k="ssr:stedsnr" v="483244" />
	</node>
	<node lat="63.517597224942016" lon="9.945463894844726" id="-38702">
		<tag k="name" v="Stormyra" />
		<tag k="natural" v="wetland" />
		<tag k="ssr:stedsnr" v="498674" />
	</node>
	<node lat="63.7650805567047" lon="10.487141662629032" id="-38744">
		<tag k="name" v="Tjurumyrin" />
		<tag k="natural" v="wetland" />
		<tag k="ssr:stedsnr" v="514019" />
	</node>
	<node lat="63.75353611441139" lon="10.500708334763123" id="-38745">
		<tag k="name" v="Butjønnslættet" />
		<tag k="natural" v="wetland" />
		<tag k="ssr:stedsnr" v="514023" />
	</node>
	<node lat="63.74021388618502" lon="10.099563880766784" id="-38758">
		<tag k="name" v="Råmyra" />
		<tag k="natural" v="wetland" />
		<tag k="ssr:stedsnr" v="524810" />
	</node>
	<node lat="63.628925003492334" lon="10.133847230183715" id="-38759">
		<tag k="name" v="Tjønnskardmyra" />
		<tag k="natural" v="wetland" />
		<tag k="ssr:stedsnr" v="524790" />
	</node>
	<node lat="63.83083889037219" lon="10.232416661606822" id="-38766">
		<tag k="name" v="Litlbuenget" />
		<tag k="place" v="locality" />
		<tag k="ssr:stedsnr" v="527212" />
	</node>
	<node lat="63.6876499965785" lon="10.272355565245098" id="-38778">
		<tag k="name" v="Skalmeråsmyra" />
		<tag k="natural" v="wetland" />
		<tag k="ssr:stedsnr" v="527634" />
	</node>
	<node lat="63.70041388611827" lon="10.238608342524456" id="-38779">
		<tag k="name" v="Valbekken" />
		<tag k="natural" v="wetland" />
		<tag k="ssr:stedsnr" v="527642" />
	</node>
	<node lat="63.7213416634426" lon="10.125216664533824" id="-38787">
		<tag k="name" v="Merraholsmyran" />
		<tag k="natural" v="wetland" />
		<tag k="ssr:stedsnr" v="527909" />
	</node>
	<node lat="63.513150001358895" lon="10.085266673040282" id="-38789">
		<tag k="name" v="Stormyra" />
		<tag k="natural" v="wetland" />
		<tag k="ssr:stedsnr" v="527912" />
	</node>
	<node lat="63.58906388779539" lon="9.98372500377476" id="-38796">
		<tag k="name" v="Vama" />
		<tag k="place" v="locality" />
		<tag k="ssr:stedsnr" v="527978" />
	</node>
	<node lat="63.598261113273225" lon="9.963497220709542" id="-38797">
		<tag k="name" v="Øran" />
		<tag k="place" v="locality" />
		<tag k="ssr:stedsnr" v="527979" />
	</node>
	<node lat="63.60996667001315" lon="9.98029999043163" id="-38799">
		<tag k="name" v="Grytdalen" />
		<tag k="natural" v="stone" />
		<tag k="ssr:stedsnr" v="527986" />
	</node>
	<node lat="63.536680551674834" lon="10.013497213264653" id="-38800">
		<tag k="name" v="Kjerkmyrlimyra" />
		<tag k="natural" v="wetland" />
		<tag k="ssr:stedsnr" v="528126" />
	</node>
	<node lat="63.5450638901439" lon="10.034083331921531" id="-38801">
		<tag k="name" v="Penningmyra" />
		<tag k="natural" v="wetland" />
		<tag k="ssr:stedsnr" v="528130" />
	</node>
	<node lat="63.668405556858914" lon="10.2335972274698" id="-38823">
		<tag k="name" v="Langmyra" />
		<tag k="natural" v="wetland" />
		<tag k="ssr:stedsnr" v="528707" />
	</node>
	<node lat="63.67798055267398" lon="10.206480560699758" id="-38826">
		<tag k="historic" v="shieling" />
		<tag k="name" v="Nesdalsetra" />
		<tag k="place" v="locality" />
		<tag k="ssr:stedsnr" v="528722" />
	</node>
	<node lat="63.66151666898692" lon="10.126952774170324" id="-38827">
		<tag k="name" v="Fjellmyran" />
		<tag k="natural" v="wetland" />
		<tag k="ssr:stedsnr" v="528727" />
	</node>
	<node lat="63.649886109891426" lon="10.502133326929236" id="-38836">
		<tag k="name" v="Storslettet" />
		<tag k="natural" v="wetland" />
		<tag k="ssr:stedsnr" v="533108" />
	</node>
	<node lat="63.742122219508815" lon="10.769450009141579" id="-38839">
		<tag k="name" v="Tolvdalersmyra" />
		<tag k="natural" v="wetland" />
		<tag k="ssr:stedsnr" v="533310" />
	</node>
	<node lat="63.60755833512706" lon="10.23746388025622" id="-38852">
		<tag k="name" v="Brumyra" />
		<tag k="natural" v="wetland" />
		<tag k="ssr:stedsnr" v="534321" />
	</node>
	<node lat="63.72385833140493" lon="10.609788882319352" id="-38855">
		<tag k="name" v="Steinmyra" />
		<tag k="natural" v="wetland" />
		<tag k="ssr:stedsnr" v="534582" />
	</node>
	<node lat="63.658888892470465" lon="10.605786103613116" id="-38860">
		<tag k="name" v="Ytterjalet" />
		<tag k="place" v="locality" />
		<tag k="ssr:stedsnr" v="534805" />
	</node>
	<node lat="63.61889444046875" lon="10.505277781322771" id="-38861">
		<tag k="name" v="Ner-Luddumyra" />
		<tag k="natural" v="wetland" />
		<tag k="ssr:stedsnr" v="535071" />
	</node>
	<node lat="63.60138611111872" lon="10.237972228913065" id="-38864">
		<tag k="name" v="Kartmyra" />
		<tag k="natural" v="wetland" />
		<tag k="ssr:stedsnr" v="535277" />
	</node>
	<node lat="63.661844445231424" lon="10.57291944804799" id="-38868">
		<tag k="name" v="Kjerringmyra" />
		<tag k="natural" v="wetland" />
		<tag k="ssr:stedsnr" v="535868" />
	</node>
	<node lat="63.692330560015705" lon="10.295369447927687" id="-38891">
		<tag k="name" v="Kallslåttan" />
		<tag k="place" v="locality" />
		<tag k="ssr:stedsnr" v="710649" />
	</node>
	<node lat="63.592308337338274" lon="10.171930547265504" id="-38912">
		<tag k="name" v="Stormyra" />
		<tag k="natural" v="wetland" />
		<tag k="ssr:stedsnr" v="559537" />
	</node>
	<node lat="63.70367778085109" lon="10.690436108503524" id="-38936">
		<tag k="name" v="Vålåsmyra" />
		<tag k="natural" v="wetland" />
		<tag k="ssr:stedsnr" v="572465" />
	</node>
	<node lat="63.5057277771619" lon="9.944966664400063" id="-38950">
		<tag k="name" v="Trøa" />
		<tag k="place" v="locality" />
		<tag k="ssr:stedsnr" v="584213" />
	</node>
	<node lat="63.5111472209755" lon="10.069080560748867" id="-38968">
		<tag k="name" v="Skolmyra" />
		<tag k="natural" v="wetland" />
		<tag k="ssr:stedsnr" v="588127" />
	</node>
	<node lat="63.642027776815226" lon="9.988302782955222" id="-38982">
		<tag k="name" v="Mulen" />
		<tag k="natural" v="wetland" />
		<tag k="ssr:stedsnr" v="588522" />
	</node>
	<node lat="63.73760555935677" lon="10.406938888127206" id="-38984">
		<tag k="name" v="Langgjøta" />
		<tag k="natural" v="wetland" />
		<tag k="ssr:stedsnr" v="588575" />
	</node>
	<node lat="63.66732777550611" lon="10.175811109765872" id="-38991">
		<tag k="name" v="Krita" />
		<tag k="place" v="locality" />
		<tag k="ssr:stedsnr" v="588667" />
	</node>
	<node lat="63.66627499904406" lon="10.182336110486784" id="-38992">
		<tag k="name" v="Saga" />
		<tag k="place" v="locality" />
		<tag k="ssr:stedsnr" v="588668" />
	</node>
	<node lat="63.55513888762625" lon="10.099111102212596" id="-38995">
		<tag k="name" v="Saumyra" />
		<tag k="natural" v="wetland" />
		<tag k="ssr:stedsnr" v="588810" />
	</node>
	<node lat="63.529547222504924" lon="10.139936111990748" id="-38997">
		<tag k="name" v="Langmyra" />
		<tag k="natural" v="wetland" />
		<tag k="ssr:stedsnr" v="588921" />
	</node>
	<node lat="63.58063055375443" lon="10.398605545795197" id="-39017">
		<tag k="name" v="Almstadmyra" />
		<tag k="place" v="locality" />
		<tag k="ssr:stedsnr" v="595014" />
	</node>
	<node lat="63.59098888601178" lon="10.409769437548242" id="-39018">
		<tag k="name" v="Kvernhustrøa" />
		<tag k="place" v="locality" />
		<tag k="ssr:stedsnr" v="595022" />
	</node>
	<node lat="63.65393888442727" lon="10.32271389469027" id="-39022">
		<tag k="name" v="Grønlimyra" />
		<tag k="natural" v="wetland" />
		<tag k="ssr:stedsnr" v="595316" />
	</node>
	<node lat="63.5513777765963" lon="10.16087221268211" id="-39026">
		<tag k="name" v="Merramessmyra" />
		<tag k="natural" v="wetland" />
		<tag k="ssr:stedsnr" v="595511" />
	</node>
	<node lat="63.55005277565278" lon="10.173027783972735" id="-39030">
		<tag k="name" v="Bekkøyan" />
		<tag k="natural" v="wetland" />
		<tag k="ssr:stedsnr" v="595521" />
	</node>
	<node lat="63.66994166862794" lon="10.553627770739359" id="-39035">
		<tag k="name" v="Lomtjønnmyran" />
		<tag k="natural" v="wetland" />
		<tag k="ssr:stedsnr" v="595850" />
	</node>
	<node lat="63.64537500363522" lon="10.550483334944728" id="-39036">
		<tag k="name" v="Fremre-Litlbuslættet" />
		<tag k="natural" v="wetland" />
		<tag k="ssr:stedsnr" v="595756" />
	</node>
	<node lat="63.63998333791329" lon="10.564638882650161" id="-39037">
		<tag k="name" v="Svenskmyra" />
		<tag k="natural" v="wetland" />
		<tag k="ssr:stedsnr" v="595959" />
	</node>
	<node lat="63.5379222254128" lon="10.007908340225322" id="-39081">
		<tag k="name" v="Moldråsmyra" />
		<tag k="natural" v="wetland" />
		<tag k="ssr:stedsnr" v="619677" />
	</node>
	<node lat="63.580655558188894" lon="10.099977785581657" id="-39118">
		<tag k="name" v="Aunet" />
		<tag k="place" v="locality" />
		<tag k="ssr:stedsnr" v="705802" />
	</node>
	<node lat="63.642219443581865" lon="10.08675555610775" id="-39127">
		<tag k="name" v="Sørmyra" />
		<tag k="natural" v="wetland" />
		<tag k="ssr:stedsnr" v="644822" />
	</node>
	<node lat="63.632152776397554" lon="10.107558335260919" id="-39128">
		<tag k="name" v="Granskardmyra" />
		<tag k="natural" v="wetland" />
		<tag k="ssr:stedsnr" v="644825" />
	</node>
	<node lat="63.569191669380416" lon="10.075286117916345" id="-39132">
		<tag k="name" v="Finnmyra" />
		<tag k="natural" v="wetland" />
		<tag k="ssr:stedsnr" v="644883" />
	</node>
	<node lat="63.57002222191968" lon="10.090602767973923" id="-39133">
		<tag k="name" v="Klingermyra" />
		<tag k="natural" v="wetland" />
		<tag k="ssr:stedsnr" v="644890" />
	</node>
	<node lat="63.62304444552164" lon="10.125761120595191" id="-39137">
		<tag k="name" v="Lian" />
		<tag k="place" v="locality" />
		<tag k="ssr:stedsnr" v="706798" />
	</node>
	<node lat="63.52265555127859" lon="10.068574993333263" id="-39139">
		<tag k="name" v="Oppgangsmyra" />
		<tag k="natural" v="wetland" />
		<tag k="ssr:stedsnr" v="648108" />
	</node>
	<node lat="63.73855555373032" lon="10.390263896602162" id="-39154">
		<tag k="name" v="Storhaugmyra" />
		<tag k="natural" v="wetland" />
		<tag k="ssr:stedsnr" v="648615" />
	</node>
	<node lat="63.709211115466964" lon="10.345783326939213" id="-39155">
		<tag k="name" v="Kvebekk" />
		<tag k="place" v="locality" />
		<tag k="ssr:stedsnr" v="648622" />
	</node>
	<node lat="63.61626388497502" lon="10.092747219816733" id="-39159">
		<tag k="name" v="Grovamyra" />
		<tag k="natural" v="wetland" />
		<tag k="ssr:stedsnr" v="648804" />
	</node>
	<node lat="63.7268444465869" lon="10.239372222182963" id="-39161">
		<tag k="name" v="Larsmyrhola" />
		<tag k="natural" v="wetland" />
		<tag k="ssr:stedsnr" v="648539" />
	</node>
	<node lat="63.664038891827786" lon="9.815763892247643" id="-39176">
		<tag k="name" v="Aunskogen" />
		<tag k="place" v="locality" />
		<tag k="ssr:stedsnr" v="649006" />
	</node>
	<node lat="63.52543333701282" lon="9.933838888556359" id="-39194">
		<tag k="name" v="Halvvei" />
		<tag k="place" v="locality" />
		<tag k="ssr:stedsnr" v="649242" />
	</node>
	<node lat="63.663627774595824" lon="10.201994436103092" id="-39198">
		<tag k="name" v="Gammeltofta" />
		<tag k="place" v="locality" />
		<tag k="ssr:stedsnr" v="649685" />
	</node>
	<node lat="63.6956305556909" lon="10.387044439157412" id="-39219">
		<tag k="loc_name" v="Johøla" />
		<tag k="name" v="Johola" />
		<tag k="natural" v="wetland" />
		<tag k="ssr:stedsnr" v="654934" />
	</node>
	<node lat="63.54337222363994" lon="10.171669452797117" id="-39223">
		<tag k="name" v="Storsveslåtten" />
		<tag k="place" v="locality" />
		<tag k="ssr:stedsnr" v="655496" />
	</node>
	<node lat="63.651127778989874" lon="10.269602783067258" id="-39231">
		<tag k="name" v="Bjørnamyra" />
		<tag k="natural" v="wetland" />
		<tag k="ssr:stedsnr" v="656329" />
	</node>
	<node lat="63.64026388770296" lon="9.907247228584252" id="-39245">
		<tag k="name" v="Tjærravassmyra" />
		<tag k="natural" v="wetland" />
		<tag k="ssr:stedsnr" v="709277" />
	</node>
	<node lat="63.641905559518214" lon="9.9361694509211" id="-39246">
		<tag k="name" v="Nord Tjøravassholet" />
		<tag k="natural" v="wetland" />
		<tag k="ssr:stedsnr" v="709260" />
	</node>
	<node lat="63.74923888715262" lon="10.363622223188736" id="-39261">
		<tag k="name" v="Haktorslættet" />
		<tag k="place" v="locality" />
		<tag k="ssr:stedsnr" v="710618" />
	</node>
	<node lat="63.53248333255511" lon="10.085397212205882" id="-39268">
		<tag k="name" v="Heisjettlimyra" />
		<tag k="natural" v="wetland" />
		<tag k="ssr:stedsnr" v="709894" />
	</node>
	<node lat="63.51738055400689" lon="10.10536389527958" id="-39269">
		<tag k="name" v="Klemmetsmyra" />
		<tag k="natural" v="wetland" />
		<tag k="ssr:stedsnr" v="709897" />
	</node>
	<node lat="63.75100277694981" lon="10.438255554914361" id="-39275">
		<tag k="name" v="Ørsjødalsmyran" />
		<tag k="natural" v="wetland" />
		<tag k="ssr:stedsnr" v="666203" />
	</node>
	<node lat="63.79986389119365" lon="10.269422225566519" id="-39279">
		<tag k="name" v="Kvernavassmyran" />
		<tag k="natural" v="wetland" />
		<tag k="ssr:stedsnr" v="709964" />
	</node>
	<node lat="63.67047777399547" lon="9.833902778407037" id="-39283">
		<tag k="name" v="Langmyran" />
		<tag k="natural" v="wetland" />
		<tag k="ssr:stedsnr" v="710010" />
	</node>
	<node lat="63.67583888605017" lon="9.985544437893829" id="-39289">
		<tag k="historic" v="shieling" />
		<tag k="name" v="Selnessetra " />
		<tag k="place" v="locality" />
		<tag k="ssr:stedsnr" v="710034" />
	</node>
	<node lat="63.62735000271672" lon="9.836983342789825" id="-39290">
		<tag k="name" v="Vargurda" />
		<tag k="natural" v="scree" />
		<tag k="ssr:stedsnr" v="710036" />
	</node>
	<node lat="63.52541111525949" lon="10.001749996222532" id="-39305">
		<tag k="name" v="Velta" />
		<tag k="place" v="locality" />
		<tag k="ssr:stedsnr" v="710117" />
	</node>
	<node lat="63.51436944784433" lon="9.960119446266336" id="-39308">
		<tag k="name" v="Travaleholet" />
		<tag k="place" v="locality" />
		<tag k="ssr:stedsnr" v="710124" />
	</node>
	<node lat="63.64437222004115" lon="9.945158340884424" id="-39339">
		<tag k="name" v="Fallskogen" />
		<tag k="place" v="locality" />
		<tag k="ssr:stedsnr" v="892002" />
	</node>
	<node lat="63.63072777642305" lon="9.980505549577462" id="-39397">
		<tag k="name" v="Sønnmyra" />
		<tag k="natural" v="wetland" />
		<tag k="ssr:stedsnr" v="892530" />
	</node>
	<node lat="63.753511115669774" lon="10.415047216699314" id="-39399">
		<tag k="name" v="Berggruva" />
		<tag k="place" v="locality" />
		<tag k="ssr:stedsnr" v="892536" />
	</node>
	<node lat="63.848611113124214" lon="10.378705563610893" id="-39408">
		<tag k="name" v="Finnrommet" />
		<tag k="place" v="locality" />
		<tag k="ssr:stedsnr" v="892576" />
	</node>
	<node lat="63.65178611447548" lon="10.182347225407389" id="-39419">
		<tag k="name" v="Storstumyra" />
		<tag k="natural" v="wetland" />
		<tag k="ssr:stedsnr" v="892675" />
	</node>
	<node lat="63.64362222328956" lon="10.158669452837465" id="-39420">
		<tag k="name" v="Svea" />
		<tag k="place" v="locality" />
		<tag k="ssr:stedsnr" v="892693" />
	</node>
	<node lat="63.60920000082591" lon="10.16663332644374" id="-39424">
		<tag k="name" v="Kalmyra" />
		<tag k="natural" v="wetland" />
		<tag k="ssr:stedsnr" v="892832" />
	</node>
	<node lat="63.6518416638061" lon="10.112763898197413" id="-39427">
		<tag k="name" v="Ratet" />
		<tag k="place" v="locality" />
		<tag k="ssr:stedsnr" v="892727" />
	</node>
	<node lat="63.51482500190463" lon="10.061402776881607" id="-39443">
		<tag k="name" v="Tjønnmyra" />
		<tag k="natural" v="wetland" />
		<tag k="ssr:stedsnr" v="892973" />
	</node>
	<node lat="63.61359721822881" lon="9.986716672313616" id="-39444">
		<tag k="name" v="Råbandsdalen" />
		<tag k="natural" v="stone" />
		<tag k="ssr:stedsnr" v="892978" />
	</node>
	<node lat="63.60771666765204" lon="9.963386102423296" id="-39445">
		<tag k="name" v="Fuggelmyra" />
		<tag k="natural" v="wetland" />
		<tag k="ssr:stedsnr" v="892982" />
	</node>
	<node lat="63.73199999659663" lon="10.202505565044191" id="-39447">
		<tag k="name" v="Syllmyran" />
		<tag k="natural" v="wetland" />
		<tag k="ssr:stedsnr" v="892985" />
	</node>
	<node lat="63.74101667028805" lon="10.232883326322924" id="-39448">
		<tag k="name" v="Vidvollmyran" />
		<tag k="natural" v="wetland" />
		<tag k="ssr:stedsnr" v="892994" />
	</node>
	<node lat="63.56290833764771" lon="10.049991662318574" id="-39451">
		<tag k="name" v="Lensvika" />
		<tag k="natural" v="wetland" />
		<tag k="ssr:stedsnr" v="893075" />
	</node>
	<node lat="63.55594721824666" lon="10.018911120451103" id="-39452">
		<tag k="name" v="Vatngårdsslættet" />
		<tag k="natural" v="wetland" />
		<tag k="ssr:stedsnr" v="893085" />
	</node>
	<node lat="63.83446666550315" lon="10.232166675703226" id="-39457">
		<tag k="name" v="Mælasetra" />
		<tag k="place" v="locality" />
		<tag k="ssr:stedsnr" v="893548" />
	</node>
	<node lat="63.743486112252576" lon="10.09933055731705" id="-39481">
		<tag k="name" v="Trøa" />
		<tag k="place" v="locality" />
		<tag k="ssr:stedsnr" v="706803" />
	</node>
	<node lat="63.76234999594719" lon="10.141733327566376" id="-39483">
		<tag k="name" v="Aunurda" />
		<tag k="natural" v="scree" />
		<tag k="ssr:stedsnr" v="706806" />
	</node>
	<node lat="63.72012222596248" lon="10.797580559661679" id="-39493">
		<tag k="loc_name" v="Svarthølslettet" />
		<tag k="name" v="Svartholslettet" />
		<tag k="natural" v="wetland" />
		<tag k="ssr:stedsnr" v="897247" />
	</node>
	<node lat="63.72443611434528" lon="10.80289445339224" id="-39494">
		<tag k="name" v="Svartdikan" />
		<tag k="natural" v="wetland" />
		<tag k="ssr:stedsnr" v="897250" />
	</node>
	<node lat="63.75676666728216" lon="10.175502784858503" id="-39506">
		<tag k="name" v="Osaplassen" />
		<tag k="place" v="locality" />
		<tag k="ssr:stedsnr" v="709885" />
	</node>
	<node lat="63.50508610885487" lon="10.10044721729981" id="-39509">
		<tag k="name" v="Bjørnamyra" />
		<tag k="natural" v="wetland" />
		<tag k="ssr:stedsnr" v="709935" />
	</node>
	<node lat="63.578375003498905" lon="9.930683336407844" id="-39519">
		<tag k="name" v="Øra" />
		<tag k="place" v="locality" />
		<tag k="ssr:stedsnr" v="710250" />
	</node>
	<node lat="63.55586111550767" lon="10.042963889859283" id="-39521">
		<tag k="name" v="Rabben" />
		<tag k="place" v="locality" />
		<tag k="ssr:stedsnr" v="710129" />
	</node>
	<node lat="63.744800001476584" lon="10.398452768175375" id="-39529">
		<tag k="name" v="Plassrommet" />
		<tag k="place" v="locality" />
		<tag k="ssr:stedsnr" v="710611" />
	</node>
	<node lat="63.748169444501784" lon="10.426022230828055" id="-39530">
		<tag k="name" v="Furumo" />
		<tag k="place" v="locality" />
		<tag k="ssr:stedsnr" v="710612" />
	</node>
	<node lat="63.7173222251461" lon="10.350836103874347" id="-39531">
		<tag k="historic" v="shieling" />
		<tag k="name" v="Resdalsvollen" />
		<tag k="place" v="locality" />
		<tag k="ssr:stedsnr" v="710626" />
	</node>
	<node lat="63.82168889216945" lon="10.29330277614908" id="-39534">
		<tag k="name" v="Svanavassholan" />
		<tag k="natural" v="wetland" />
		<tag k="ssr:stedsnr" v="710582" />
	</node>
	<node lat="63.682991667394305" lon="10.225263896254624" id="-39541">
		<tag k="name" v="Dålåmyra" />
		<tag k="natural" v="wetland" />
		<tag k="ssr:stedsnr" v="710729" />
	</node>
	<node lat="63.67966666764629" lon="10.218936110775706" id="-39543">
		<tag k="name" v="Hesttrøa" />
		<tag k="place" v="locality" />
		<tag k="ssr:stedsnr" v="710732" />
	</node>
	<node lat="63.64666944484943" lon="10.560505561312137" id="-39551">
		<tag k="name" v="Øver-Brannhaugmyra" />
		<tag k="natural" v="wetland" />
		<tag k="ssr:stedsnr" v="899785" />
	</node>
	<node lat="63.54418610981344" lon="10.164333330210113" id="-39561">
		<tag k="name" v="Ramdalsmyra" />
		<tag k="natural" v="wetland" />
		<tag k="ssr:stedsnr" v="716529" />
	</node>
	<node lat="63.55613611064398" lon="10.150499994727113" id="-39562">
		<tag k="name" v="Langmyra" />
		<tag k="natural" v="wetland" />
		<tag k="ssr:stedsnr" v="716536" />
	</node>
	<node lat="63.620491666268265" lon="10.493811115535713" id="-39585">
		<tag k="name" v="Rennibjørka" />
		<tag k="place" v="locality" />
		<tag k="ssr:stedsnr" v="899092" />
	</node>
	<node lat="63.69296944591013" lon="10.58642222929432" id="-39586">
		<tag k="name" v="Tjæremyra" />
		<tag k="natural" v="wetland" />
		<tag k="ssr:stedsnr" v="717604" />
	</node>
	<node lat="63.659477779247055" lon="10.289905555473595" id="-39592">
		<tag k="name" v="Liamarka" />
		<tag k="place" v="locality" />
		<tag k="ssr:stedsnr" v="899374" />
	</node>
	<node lat="63.668338890181396" lon="10.57082499666001" id="-39616">
		<tag k="name" v="Setermyra" />
		<tag k="natural" v="wetland" />
		<tag k="ssr:stedsnr" v="899849" />
	</node>
	<node lat="63.55946388741249" lon="10.054002779087462" id="-39660">
		<tag k="name" v="Storsletta" />
		<tag k="natural" v="wetland" />
		<tag k="ssr:stedsnr" v="741693" />
	</node>
	<node lat="63.79320833431561" lon="10.564466657289177" id="-39684">
		<tag k="name" v="Stormyra" />
		<tag k="natural" v="wetland" />
		<tag k="ssr:stedsnr" v="756012" />
	</node>
	<node lat="63.615836112922985" lon="10.02325277648267" id="-39697">
		<tag k="name" v="Garmoaunet" />
		<tag k="place" v="locality" />
		<tag k="ssr:stedsnr" v="766216" />
	</node>
	<node lat="63.625750001763684" lon="9.879869449062689" id="-39719">
		<tag k="name" v="Litlslætturda" />
		<tag k="natural" v="scree" />
		<tag k="ssr:stedsnr" v="770238" />
	</node>
	<node lat="63.63968333473203" lon="10.00218610806642" id="-39737">
		<tag k="name" v="Munken" />
		<tag k="place" v="locality" />
		<tag k="ssr:stedsnr" v="770515" />
	</node>
	<node lat="63.63961944145124" lon="9.989211107125751" id="-39738">
		<tag k="historic" v="shieling" />
		<tag k="name" v="Solemssetra" />
		<tag k="place" v="locality" />
		<tag k="ssr:stedsnr" v="770516" />
	</node>
	<node lat="63.724047222666805" lon="10.363011113516636" id="-39743">
		<tag k="name" v="Pervollan" />
		<tag k="place" v="locality" />
		<tag k="ssr:stedsnr" v="770563" />
	</node>
	<node lat="63.52719167058552" lon="10.167999993077046" id="-39752">
		<tag k="name" v="Gaupdalen" />
		<tag k="natural" v="stone" />
		<tag k="ssr:stedsnr" v="770909" />
	</node>
	<node lat="63.49838332984547" lon="10.087863889008819" id="-39755">
		<tag k="name" v="Snørvollen" />
		<tag k="place" v="locality" />
		<tag k="ssr:stedsnr" v="770925" />
	</node>
	<node lat="63.541033334916" lon="10.076963894751248" id="-39772">
		<tag k="name" v="Litlsetertjønna" />
		<tag k="natural" v="wetland" />
		<tag k="ssr:stedsnr" v="771805" />
	</node>
	<node lat="63.69456111363177" lon="10.474149992529867" id="-39782">
		<tag k="name" v="Pipsetermyra" />
		<tag k="natural" v="wetland" />
		<tag k="ssr:stedsnr" v="775162" />
	</node>
	<node lat="63.58170056533503" lon="10.147921333247456" id="-39790">
		<tag k="historic" v="shieling" />
		<tag k="name" v="Trøan" />
		<tag k="place" v="locality" />
		<tag k="ssr:stedsnr" v="777108" />
	</node>
	<node lat="63.67740555490009" lon="10.5467333298414" id="-39797">
		<tag k="name" v="Bjørshølmyra" />
		<tag k="natural" v="wetland" />
		<tag k="ssr:stedsnr" v="777665" />
	</node>
	<node lat="63.6841555570754" lon="10.626397230753351" id="-39799">
		<tag k="name" v="Håggån" />
		<tag k="place" v="locality" />
		<tag k="ssr:stedsnr" v="777703" />
	</node>
	<node lat="63.70449167103049" lon="10.655672213431048" id="-39804">
		<tag k="name" v="Talmomyra" />
		<tag k="natural" v="wetland" />
		<tag k="ssr:stedsnr" v="778260" />
	</node>
	<node lat="63.584950003437434" lon="10.203222216220627" id="-39828">
		<tag k="alt_name" v="Dammyran" />
		<tag k="name" v="Dammyra" />
		<tag k="natural" v="wetland" />
		<tag k="ssr:stedsnr" v="802611" />
	</node>
	<node lat="63.653333330128035" lon="9.918530555537538" id="-39863">
		<tag k="name" v="Rånnårsmyra" />
		<tag k="natural" v="wetland" />
		<tag k="ssr:stedsnr" v="827320" />
	</node>
	<node lat="63.64013055896159" lon="10.101452787139692" id="-39868">
		<tag k="name" v="Skauleiret" />
		<tag k="place" v="locality" />
		<tag k="ssr:stedsnr" v="827807" />
	</node>
	<node lat="63.525102777213775" lon="9.983024990885447" id="-39880">
		<tag k="name" v="Gråmyra" />
		<tag k="natural" v="wetland" />
		<tag k="ssr:stedsnr" v="831132" />
	</node>
	<node lat="63.801533337292604" lon="10.347022214410961" id="-39885">
		<tag k="name" v="Joenget" />
		<tag k="place" v="locality" />
		<tag k="ssr:stedsnr" v="831206" />
	</node>
	<node lat="63.58223333399526" lon="9.934138895504518" id="-39886">
		<tag k="name" v="Bekkadalen" />
		<tag k="natural" v="stone" />
		<tag k="ssr:stedsnr" v="831235" />
	</node>
	<node lat="63.65783611478328" lon="10.068677771108682" id="-39889">
		<tag k="name" v="Øyan" />
		<tag k="natural" v="wetland" />
		<tag k="ssr:stedsnr" v="831530" />
	</node>
	<node lat="63.74005555961528" lon="10.398994448151178" id="-39891">
		<tag k="name" v="Sagmyra" />
		<tag k="natural" v="wetland" />
		<tag k="ssr:stedsnr" v="831533" />
	</node>
	<node lat="63.70840555779114" lon="10.232747216376422" id="-39894">
		<tag k="historic" v="shieling" />
		<tag k="name" v="Haugasetra" />
		<tag k="place" v="locality" />
		<tag k="ssr:stedsnr" v="831487" />
	</node>
	<node lat="63.679144441790044" lon="10.192980548564671" id="-39902">
		<tag k="name" v="Svartmyra" />
		<tag k="natural" v="wetland" />
		<tag k="ssr:stedsnr" v="831636" />
	</node>
	<node lat="63.6754305579588" lon="10.193394453791397" id="-39903">
		<tag k="historic" v="shieling" />
		<tag k="name" v="Fagervollan" />
		<tag k="place" v="locality" />
		<tag k="ssr:stedsnr" v="831637" />
	</node>
	<node lat="63.606227775645806" lon="10.038402769011057" id="-39919">
		<tag k="name" v="Råmyra" />
		<tag k="natural" v="wetland" />
		<tag k="ssr:stedsnr" v="831937" />
	</node>
	<node lat="63.78754999944676" lon="10.245802778619582" id="-39920">
		<tag k="name" v="Haugen" />
		<tag k="place" v="locality" />
		<tag k="ssr:stedsnr" v="831938" />
	</node>
	<node lat="63.53308333273946" lon="10.105647212662381" id="-39926">
		<tag k="name" v="Grashola" />
		<tag k="place" v="locality" />
		<tag k="ssr:stedsnr" v="831880" />
	</node>
	<node lat="63.583399997773306" lon="9.945847217963573" id="-39935">
		<tag k="name" v="Sundsmyran" />
		<tag k="natural" v="wetland" />
		<tag k="ssr:stedsnr" v="831980" />
	</node>
	<node lat="63.734980555107555" lon="10.29743889110405" id="-39937">
		<tag k="historic" v="shieling" />
		<tag k="name" v="Gammelsetertomta" />
		<tag k="place" v="locality" />
		<tag k="ssr:stedsnr" v="831985" />
	</node>
	<node lat="63.73410277366678" lon="10.598594442874433" id="-40015">
		<tag k="name" v="Hælaslettet" />
		<tag k="natural" v="wetland" />
		<tag k="ssr:stedsnr" v="836198" />
	</node>
	<node lat="63.68826111091667" lon="10.385030560638736" id="-40026">
		<tag k="name" v="Skjettenbergmyra" />
		<tag k="natural" v="wetland" />
		<tag k="ssr:stedsnr" v="837929" />
	</node>
	<node lat="63.6591305598368" lon="10.31222221649888" id="-40030">
		<tag k="name" v="Bekkøyan" />
		<tag k="natural" v="wetland" />
		<tag k="ssr:stedsnr" v="838381" />
	</node>
	<node lat="63.69858333408016" lon="10.542883327421826" id="-40032">
		<tag k="name" v="Hønnåstofta" />
		<tag k="place" v="locality" />
		<tag k="ssr:stedsnr" v="838633" />
	</node>
	<node lat="63.70674999803739" lon="10.587405546882936" id="-40033">
		<tag k="name" v="Uthallmyra" />
		<tag k="natural" v="wetland" />
		<tag k="ssr:stedsnr" v="838638" />
	</node>
	<node lat="63.64987222426701" lon="10.544825000899952" id="-40036">
		<tag k="name" v="Gørrtjønnmyra" />
		<tag k="natural" v="wetland" />
		<tag k="ssr:stedsnr" v="838783" />
	</node>
	<node lat="63.65751944884678" lon="10.533044445851536" id="-40040">
		<tag k="name" v="Gaupmyra" />
		<tag k="natural" v="wetland" />
		<tag k="ssr:stedsnr" v="838891" />
	</node>
	<node lat="63.65834444511415" lon="10.570049992653304" id="-40041">
		<tag k="name" v="Åsan" />
		<tag k="place" v="locality" />
		<tag k="ssr:stedsnr" v="838893" />
	</node>
	<node lat="63.53912500428211" lon="9.971602781525496" id="-40067">
		<tag k="alt_name" v="Fesslettet" />
		<tag k="name" v="Fesslættet" />
		<tag k="natural" v="wetland" />
		<tag k="ssr:stedsnr" v="862649" />
	</node>
	<node lat="63.639144444176836" lon="9.888397226973282" id="-40097">
		<tag k="name" v="Råmyran" />
		<tag k="natural" v="wetland" />
		<tag k="ssr:stedsnr" v="863909" />
	</node>
	<node lat="63.52006110986704" lon="9.984783331866154" id="-40120">
		<tag k="name" v="Svahylla" />
		<tag k="place" v="locality" />
		<tag k="ssr:stedsnr" v="892116" />
	</node>
	<node lat="63.61118611198936" lon="9.915211117484558" id="-40122">
		<tag k="historic" v="shieling" />
		<tag k="name" v="Oppistusetra" />
		<tag k="place" v="locality" />
		<tag k="ssr:stedsnr" v="892140" />
	</node>
	<node lat="63.62391111185524" lon="9.856933334102308" id="-40127">
		<tag k="name" v="Sørlauvgjøta" />
		<tag k="natural" v="stone" />
		<tag k="ssr:stedsnr" v="892011" />
	</node>
	<node lat="63.5072888899744" lon="9.968541676683797" id="-40135">
		<tag k="name" v="Kilen" />
		<tag k="place" v="locality" />
		<tag k="ssr:stedsnr" v="892074" />
	</node>
	<node lat="63.663186110738565" lon="10.057205557226332" id="-40142">
		<tag k="name" v="Neråa" />
		<tag k="natural" v="wetland" />
		<tag k="ssr:stedsnr" v="892521" />
	</node>
	<node lat="63.74685833054538" lon="10.050988888105358" id="-40151">
		<tag k="name" v="Råkadalen" />
		<tag k="natural" v="stone" />
		<tag k="ssr:stedsnr" v="892904" />
	</node>
	<node lat="63.70234999837214" lon="10.12486110468234" id="-40152">
		<tag k="name" v="Storkjølmyra" />
		<tag k="natural" v="wetland" />
		<tag k="ssr:stedsnr" v="892909" />
	</node>
	<node lat="63.799841664782896" lon="10.321033325498657" id="-40156">
		<tag k="name" v="Litl Avlsgården" />
		<tag k="place" v="locality" />
		<tag k="ssr:stedsnr" v="892928" />
	</node>
	<node lat="63.52613333025662" lon="10.110741669466583" id="-40160">
		<tag k="name" v="Vasslimyra" />
		<tag k="natural" v="wetland" />
		<tag k="ssr:stedsnr" v="892867" />
	</node>
	<node lat="63.65685277787555" lon="9.926016675258882" id="-40165">
		<tag k="name" v="Granholet" />
		<tag k="place" v="locality" />
		<tag k="ssr:stedsnr" v="893178" />
	</node>
	<node lat="63.603049996281854" lon="10.481758341448355" id="-40177">
		<tag k="name" v="Bjørnasteinan" />
		<tag k="natural" v="stone" />
		<tag k="ssr:stedsnr" v="899057" />
	</node>
	<node lat="63.58201389066449" lon="10.208519438630853" id="-40184">
		<tag k="name" v="Skråstadmyra" />
		<tag k="natural" v="wetland" />
		<tag k="ssr:stedsnr" v="899491" />
	</node>
	<node lat="63.666747225527565" lon="10.610691659442452" id="-40196">
		<tag k="name" v="Melen" />
		<tag k="place" v="locality" />
		<tag k="ssr:stedsnr" v="909850" />
	</node>
	<node lat="63.737325002587674" lon="10.613430552273192" id="-40239">
		<tag k="name" v="Korsmyra" />
		<tag k="natural" v="wetland" />
		<tag k="ssr:stedsnr" v="936451" />
	</node>
	<node lat="63.79504722201183" lon="10.56891665689316" id="-40241">
		<tag k="name" v="Stormyra" />
		<tag k="natural" v="wetland" />
		<tag k="ssr:stedsnr" v="939033" />
	</node>
	<node lat="63.51043889295782" lon="10.04794445061742" id="-40252">
		<tag k="name" v="Gråsteinslimyra" />
		<tag k="natural" v="wetland" />
		<tag k="ssr:stedsnr" v="952096" />
	</node>
	<node lat="63.675874998617445" lon="9.9317333396623" id="-40255">
		<tag k="name" v="Knutslætta" />
		<tag k="natural" v="wetland" />
		<tag k="ssr:stedsnr" v="952213" />
	</node>
	<node lat="63.692633334769255" lon="9.904713894186225" id="-40257">
		<tag k="name" v="Frengsmyran" />
		<tag k="natural" v="wetland" />
		<tag k="ssr:stedsnr" v="952117" />
	</node>
	<node lat="63.52060555301609" lon="10.060083323495563" id="-40258">
		<tag k="name" v="Trollmyra" />
		<tag k="natural" v="wetland" />
		<tag k="ssr:stedsnr" v="952118" />
	</node>
	<node lat="63.758791663876856" lon="10.436083340568514" id="-40266">
		<tag k="name" v="Joplassen" />
		<tag k="place" v="locality" />
		<tag k="ssr:stedsnr" v="952542" />
	</node>
	<node lat="63.741794440254935" lon="10.402719450596097" id="-40268">
		<tag k="name" v="Buøya" />
		<tag k="place" v="locality" />
		<tag k="ssr:stedsnr" v="952563" />
	</node>
	<node lat="63.7430666682258" lon="10.036577768402726" id="-40273">
		<tag k="name" v="Endlausmyra" />
		<tag k="natural" v="wetland" />
		<tag k="ssr:stedsnr" v="952920" />
	</node>
	<node lat="63.60875833524763" lon="10.1158416669386" id="-40277">
		<tag k="name" v="Følslættet" />
		<tag k="natural" v="wetland" />
		<tag k="ssr:stedsnr" v="952945" />
	</node>
	<node lat="63.61039999960458" lon="10.010888895292993" id="-40279">
		<tag k="name" v="Følaunet" />
		<tag k="place" v="locality" />
		<tag k="ssr:stedsnr" v="952952" />
	</node>
	<node lat="63.55514722528992" lon="10.069202773568579" id="-40285">
		<tag k="name" v="Kamman" />
		<tag k="place" v="locality" />
		<tag k="ssr:stedsnr" v="953018" />
	</node>
	<node lat="63.788036111132065" lon="10.232047226021058" id="-40296">
		<tag k="historic" v="shieling" />
		<tag k="name" v="Åsasetra" />
		<tag k="place" v="locality" />
		<tag k="ssr:stedsnr" v="953939" />
	</node>
	<node lat="63.76558333681209" lon="10.658122216539818" id="-40304">
		<tag k="name" v="Moaslettet" />
		<tag k="natural" v="wetland" />
		<tag k="ssr:stedsnr" v="958213" />
	</node>
	<node lat="63.694624996460156" lon="10.460402769478227" id="-40305">
		<tag k="name" v="Tjurrumyra" />
		<tag k="natural" v="wetland" />
		<tag k="ssr:stedsnr" v="958189" />
	</node>
	<node lat="63.66104167044661" lon="10.278936120402552" id="-40313">
		<tag k="name" v="Sjefslættet" />
		<tag k="natural" v="wetland" />
		<tag k="ssr:stedsnr" v="959226" />
	</node>
	<node lat="63.64492777500676" lon="10.280722221825044" id="-40314">
		<tag k="name" v="Buhaugsetran" />
		<tag k="place" v="locality" />
		<tag k="ssr:stedsnr" v="959285" />
	</node>
	<node lat="63.70693889250262" lon="10.634166676254237" id="-40316">
		<tag k="name" v="Hårråskogan" />
		<tag k="place" v="locality" />
		<tag k="ssr:stedsnr" v="959492" />
	</node>
	<node lat="63.71493055225136" lon="10.560158327206901" id="-40324">
		<tag k="name" v="Fagodtet" />
		<tag k="place" v="locality" />
		<tag k="ssr:stedsnr" v="959597" />
	</node>
	<node lat="63.62448055945728" lon="10.528363890890544" id="-40327">
		<tag k="name" v="Svean" />
		<tag k="place" v="locality" />
		<tag k="ssr:stedsnr" v="959892" />
	</node>
	<node lat="63.65284999615146" lon="10.298827779880174" id="-40333">
		<tag k="name" v="Aunsvean" />
		<tag k="place" v="locality" />
		<tag k="ssr:stedsnr" v="960358" />
	</node>
	<node lat="63.668236114105675" lon="10.412172223597599" id="-40353">
		<tag k="name" v="Krestanslettet" />
		<tag k="natural" v="wetland" />
		<tag k="ssr:stedsnr" v="229076" />
	</node>
	<node lat="63.71679721946764" lon="10.75679444087392" id="-40359">
		<tag k="name" v="Stormyrslættet" />
		<tag k="natural" v="wetland" />
		<tag k="ssr:stedsnr" v="13189" />
	</node>
	<node lat="63.56826388870161" lon="10.128733341376972" id="-40448">
		<tag k="name" v="Saumyra" />
		<tag k="natural" v="wetland" />
		<tag k="ssr:stedsnr" v="38885" />
	</node>
	<node lat="63.632597223078086" lon="10.03911943608703" id="-40450">
		<tag k="name" v="Klumpmyra" />
		<tag k="natural" v="wetland" />
		<tag k="ssr:stedsnr" v="38831" />
	</node>
	<node lat="63.63101389314041" lon="10.097313897167453" id="-40451">
		<tag k="name" v="Barkhusmyra" />
		<tag k="natural" v="wetland" />
		<tag k="ssr:stedsnr" v="38842" />
	</node>
	<node lat="63.6429499986504" lon="9.855547229343452" id="-40472">
		<tag k="name" v="Tinnøra" />
		<tag k="place" v="locality" />
		<tag k="ssr:stedsnr" v="42055" />
	</node>
	<node lat="63.57044722568766" lon="9.905741657013484" id="-40480">
		<tag k="name" v="Kråknesmyra" />
		<tag k="natural" v="wetland" />
		<tag k="ssr:stedsnr" v="42248" />
	</node>
	<node lat="63.73904166492318" lon="10.3994083372855" id="-40492">
		<tag k="name" v="Øyan" />
		<tag k="place" v="locality" />
		<tag k="ssr:stedsnr" v="42547" />
	</node>
	<node lat="63.676544447138184" lon="10.206183325982774" id="-40495">
		<tag k="name" v="Smalmyra" />
		<tag k="natural" v="wetland" />
		<tag k="ssr:stedsnr" v="42683" />
	</node>
	<node lat="63.64393055963076" lon="10.17135554638179" id="-40504">
		<tag k="name" v="Hafellkverna" />
		<tag k="place" v="locality" />
		<tag k="ssr:stedsnr" v="42643" />
	</node>
	<node lat="63.64012222633464" lon="10.11043055857847" id="-40506">
		<tag k="name" v="Stibakkøya" />
		<tag k="place" v="locality" />
		<tag k="ssr:stedsnr" v="42730" />
	</node>
	<node lat="63.624391666704774" lon="10.171169446729955" id="-40507">
		<tag k="name" v="Kvernhusmyra" />
		<tag k="natural" v="wetland" />
		<tag k="ssr:stedsnr" v="42736" />
	</node>
	<node lat="63.662716665503176" lon="9.9805777874863" id="-40519">
		<tag k="name" v="Sørslættet" />
		<tag k="natural" v="wetland" />
		<tag k="ssr:stedsnr" v="43059" />
	</node>
	<node lat="63.744997220340935" lon="10.818224996535978" id="-40539">
		<tag k="name" v="Jåggåmyra" />
		<tag k="natural" v="wetland" />
		<tag k="ssr:stedsnr" v="47316" />
	</node>
	<node lat="63.718494440211494" lon="10.792255547951646" id="-40545">
		<tag k="name" v="Ivermyra" />
		<tag k="natural" v="wetland" />
		<tag k="ssr:stedsnr" v="47264" />
	</node>
	<node lat="63.729272225121036" lon="10.826469443647387" id="-40546">
		<tag k="loc_name" v="Tørvmyra" />
		<tag k="name" v="Torvmyra" />
		<tag k="natural" v="wetland" />
		<tag k="ssr:stedsnr" v="47267" />
	</node>
	<node lat="63.751419447485866" lon="10.445961120987558" id="-40551">
		<tag k="name" v="Orsjødalsmyra" />
		<tag k="natural" v="wetland" />
		<tag k="ssr:stedsnr" v="47973" />
	</node>
	<node lat="63.61201110849529" lon="10.503394446204037" id="-40564">
		<tag k="name" v="Tangmarka" />
		<tag k="place" v="locality" />
		<tag k="ssr:stedsnr" v="49067" />
	</node>
	<node lat="63.65357221921352" lon="10.309838893801961" id="-40571">
		<tag k="name" v="Vierholmyran" />
		<tag k="natural" v="wetland" />
		<tag k="ssr:stedsnr" v="49400" />
	</node>
	<node lat="63.663594443114484" lon="10.26825556161612" id="-40572">
		<tag k="name" v="Øver-Bekkøyan" />
		<tag k="place" v="locality" />
		<tag k="ssr:stedsnr" v="49298" />
	</node>
	<node lat="63.56835833378255" lon="10.208141670541774" id="-40574">
		<tag k="name" v="Djupmyra" />
		<tag k="natural" v="wetland" />
		<tag k="ssr:stedsnr" v="49356" />
	</node>
	<node lat="63.61884166517306" lon="10.25071943433782" id="-40575">
		<tag k="name" v="Olaskogen" />
		<tag k="place" v="locality" />
		<tag k="ssr:stedsnr" v="49360" />
	</node>
	<node lat="63.55098889293983" lon="10.166916666707886" id="-40580">
		<tag k="name" v="Krokåtmyra" />
		<tag k="natural" v="wetland" />
		<tag k="ssr:stedsnr" v="49549" />
	</node>
	<node lat="63.553655552502704" lon="10.155900007407944" id="-40581">
		<tag k="name" v="Mikkjelslættet" />
		<tag k="natural" v="wetland" />
		<tag k="ssr:stedsnr" v="49555" />
	</node>
	<node lat="63.69419444086933" lon="10.624705560545666" id="-40584">
		<tag k="name" v="Lågmyra" />
		<tag k="natural" v="wetland" />
		<tag k="ssr:stedsnr" v="49562" />
	</node>
	<node lat="63.70370833543066" lon="10.537833336038442" id="-40589">
		<tag k="name" v="Våtmyra" />
		<tag k="natural" v="wetland" />
		<tag k="ssr:stedsnr" v="49656" />
	</node>
	<node lat="63.63653333395444" lon="10.560602787888042" id="-40593">
		<tag k="name" v="Småkaillstu" />
		<tag k="place" v="locality" />
		<tag k="ssr:stedsnr" v="49876" />
	</node>
	<node lat="63.640888887110854" lon="10.528050005859846" id="-40596">
		<tag k="name" v="Middagsmyra" />
		<tag k="natural" v="wetland" />
		<tag k="ssr:stedsnr" v="49967" />
	</node>
	<node lat="63.57018055316039" lon="10.071416657310412" id="-40651">
		<tag k="alt_name" v="Fenstadslætta" />
		<tag k="name" v="Fenstadslettet" />
		<tag k="natural" v="wetland" />
		<tag k="ssr:stedsnr" v="74598" />
	</node>
	<node lat="63.676108335689214" lon="9.93161667069617" id="-40660">
		<tag k="name" v="Knutslettet" />
		<tag k="natural" v="wetland" />
		<tag k="ssr:stedsnr" v="74860" />
	</node>
	<node lat="63.60207500238602" lon="10.368849996263046" id="-40699">
		<tag k="name" v="Svean" />
		<tag k="natural" v="wetland" />
		<tag k="ssr:stedsnr" v="87459" />
	</node>
	<node lat="63.62451944824911" lon="10.086849993289471" id="-40712">
		<tag k="name" v="Langmyra" />
		<tag k="natural" v="wetland" />
		<tag k="ssr:stedsnr" v="99833" />
	</node>
	<node lat="63.62940278155871" lon="10.112577775995351" id="-40713">
		<tag k="name" v="Setertrøa" />
		<tag k="place" v="locality" />
		<tag k="ssr:stedsnr" v="99840" />
	</node>
	<node lat="63.56229722344838" lon="10.082038892642828" id="-40717">
		<tag k="name" v="Stormyra" />
		<tag k="natural" v="wetland" />
		<tag k="ssr:stedsnr" v="99892" />
	</node>
	<node lat="63.682033332833996" lon="9.841238881750511" id="-40739">
		<tag k="name" v="Bjørnhimyra" />
		<tag k="natural" v="wetland" />
		<tag k="ssr:stedsnr" v="103065" />
	</node>
	<node lat="63.610002775987695" lon="9.856924992904133" id="-40747">
		<tag k="name" v="Sørvikmyran" />
		<tag k="natural" v="wetland" />
		<tag k="ssr:stedsnr" v="103165" />
	</node>
	<node lat="63.63841666236562" lon="9.944772222858953" id="-40757">
		<tag k="name" v="Tjærravassholet" />
		<tag k="natural" v="wetland" />
		<tag k="ssr:stedsnr" v="103544" />
	</node>
	<node lat="63.75616388637776" lon="10.422211110756367" id="-40762">
		<tag k="name" v="Svingen" />
		<tag k="place" v="locality" />
		<tag k="ssr:stedsnr" v="103563" />
	</node>
	<node lat="63.71477777775334" lon="10.233669447864132" id="-40763">
		<tag k="name" v="Blankmyra" />
		<tag k="natural" v="wetland" />
		<tag k="ssr:stedsnr" v="103518" />
	</node>
	<node lat="63.75705277752444" lon="10.414541674969795" id="-40774">
		<tag k="name" v="Stormyra" />
		<tag k="natural" v="wetland" />
		<tag k="ssr:stedsnr" v="103568" />
	</node>
	<node lat="63.701644443315935" lon="10.250416662701188" id="-40777">
		<tag k="name" v="Bekkøyan" />
		<tag k="place" v="locality" />
		<tag k="ssr:stedsnr" v="103644" />
	</node>
	<node lat="63.670752780633094" lon="10.189725007076314" id="-40779">
		<tag k="name" v="Kartmyra" />
		<tag k="natural" v="wetland" />
		<tag k="ssr:stedsnr" v="103661" />
	</node>
	<node lat="63.62884999688982" lon="10.07456944608387" id="-40780">
		<tag k="name" v="Ringsetmyran" />
		<tag k="place" v="locality" />
		<tag k="ssr:stedsnr" v="103733" />
	</node>
	<node lat="63.5294805519165" lon="10.090227772433895" id="-40790">
		<tag k="name" v="Plassen" />
		<tag k="place" v="locality" />
		<tag k="ssr:stedsnr" v="103872" />
	</node>
	<node lat="63.60437777602569" lon="10.026980548444028" id="-40796">
		<tag k="name" v="Stubbsvemyra" />
		<tag k="natural" v="wetland" />
		<tag k="ssr:stedsnr" v="103941" />
	</node>
	<node lat="63.737133331644735" lon="10.811919441072774" id="-40823">
		<tag k="name" v="Holtbekkmyra" />
		<tag k="natural" v="wetland" />
		<tag k="ssr:stedsnr" v="107309" />
	</node>
	<node lat="63.76847777654456" lon="10.56998610223323" id="-40827">
		<tag k="name" v="Svartheimyra" />
		<tag k="natural" v="wetland" />
		<tag k="ssr:stedsnr" v="108160" />
	</node>
	<node lat="63.6396555548674" lon="10.27902778390646" id="-40843">
		<tag k="name" v="Tamburmyran" />
		<tag k="natural" v="wetland" />
		<tag k="ssr:stedsnr" v="109931" />
	</node>
	<node lat="63.63361944710586" lon="10.27615555797282" id="-40844">
		<tag k="name" v="Fossmyra" />
		<tag k="natural" v="wetland" />
		<tag k="ssr:stedsnr" v="109933" />
	</node>
	<node lat="63.65595277835381" lon="10.278250006311309" id="-40853">
		<tag k="name" v="Ospnåva" />
		<tag k="place" v="locality" />
		<tag k="ssr:stedsnr" v="110382" />
	</node>
	<node lat="63.57009999982511" lon="10.151466669494729" id="-40854">
		<tag k="name" v="Teinmyra" />
		<tag k="natural" v="wetland" />
		<tag k="ssr:stedsnr" v="110418" />
	</node>
	<node lat="63.598358329229264" lon="10.258030554082064" id="-40855">
		<tag k="name" v="Holbekkmyra" />
		<tag k="natural" v="wetland" />
		<tag k="ssr:stedsnr" v="110497" />
	</node>
	<node lat="63.60191111358261" lon="10.220533339869887" id="-40858">
		<tag k="name" v="Øyan" />
		<tag k="place" v="locality" />
		<tag k="ssr:stedsnr" v="110260" />
	</node>
	<node lat="63.5478027807733" lon="10.171302784243727" id="-40862">
		<tag k="name" v="Heståsmyra" />
		<tag k="natural" v="wetland" />
		<tag k="ssr:stedsnr" v="110535" />
	</node>
	<node lat="63.6949999969932" lon="10.639055546373505" id="-40863">
		<tag k="name" v="Talmomyra" />
		<tag k="natural" v="wetland" />
		<tag k="ssr:stedsnr" v="110542" />
	</node>
	<node lat="63.55542222225293" lon="10.176827774279671" id="-40866">
		<tag k="name" v="Høgmyra" />
		<tag k="natural" v="wetland" />
		<tag k="ssr:stedsnr" v="110555" />
	</node>
	<node lat="63.64316666360285" lon="10.548377772260979" id="-40874">
		<tag k="name" v="Tjurrumyran" />
		<tag k="natural" v="wetland" />
		<tag k="ssr:stedsnr" v="110967" />
	</node>
	<node lat="63.49262777522222" lon="10.05855000549434" id="-40899">
		<tag k="historic" v="shieling" />
		<tag k="name" v="Haltvollen" />
		<tag k="place" v="locality" />
		<tag k="ssr:stedsnr" v="134047" />
	</node>
	<node lat="63.51069444138676" lon="10.068102785491236" id="-40956">
		<tag k="alt_name" v="Breimyra" />
		<tag k="name" v="Breidmyra" />
		<tag k="natural" v="wetland" />
		<tag k="ssr:stedsnr" v="134744" />
	</node>
	<node lat="63.515111109322724" lon="10.118555563427558" id="-40957">
		<tag k="name" v="Stigmyra" />
		<tag k="natural" v="wetland" />
		<tag k="ssr:stedsnr" v="134745" />
	</node>
	<node lat="63.802319444010315" lon="10.62750278418356" id="-40985">
		<tag k="landuse" v="quarry" />
		<tag k="name" v="Finesgruva" />
		<tag k="ssr:stedsnr" v="149045" />
	</node>
	<node lat="63.63158888565964" lon="10.114347218967767" id="-40996">
		<tag k="name" v="Setermyra" />
		<tag k="natural" v="wetland" />
		<tag k="ssr:stedsnr" v="159848" />
	</node>
	<node lat="63.62465277582605" lon="10.133430551392532" id="-40997">
		<tag k="name" v="Slættet" />
		<tag k="place" v="locality" />
		<tag k="ssr:stedsnr" v="159849" />
	</node>
	<node lat="63.75063333762166" lon="10.10616666673269" id="-41000">
		<tag k="historic" v="shieling" />
		<tag k="name" v="Melkvollen" />
		<tag k="place" v="locality" />
		<tag k="ssr:stedsnr" v="159861" />
	</node>
	<node lat="63.571908335472955" lon="10.12348889460755" id="-41001">
		<tag k="landuse" v="meadow" />
		<tag k="name" v="Børstingslættet" />
		<tag k="ssr:stedsnr" v="159873" />
	</node>
	<node lat="63.622327776381226" lon="10.054752785427484" id="-41005">
		<tag k="name" v="Stormyra" />
		<tag k="natural" v="wetland" />
		<tag k="ssr:stedsnr" v="159837" />
	</node>
	<node lat="63.740830556526554" lon="10.045197227337253" id="-41009">
		<tag k="name" v="Gråmyra" />
		<tag k="natural" v="wetland" />
		<tag k="ssr:stedsnr" v="163925" />
	</node>
	<node lat="63.502966663180324" lon="10.057638892882105" id="-41014">
		<tag k="name" v="Tjurrumyra" />
		<tag k="natural" v="wetland" />
		<tag k="ssr:stedsnr" v="163064" />
	</node>
	<node lat="63.69216111250935" lon="9.912975006117229" id="-41019">
		<tag k="name" v="Revgjøtmyra" />
		<tag k="natural" v="wetland" />
		<tag k="ssr:stedsnr" v="163087" />
	</node>
	<node lat="63.80484444400354" lon="10.285216667598696" id="-41023">
		<tag k="historic" v="shieling" />
		<tag k="name" v="Kvernavassetra" />
		<tag k="place" v="locality" />
		<tag k="ssr:stedsnr" v="163201" />
	</node>
	<node lat="63.68826389327415" lon="9.891780545902447" id="-41025">
		<tag k="name" v="Jamtfallmyran" />
		<tag k="natural" v="wetland" />
		<tag k="ssr:stedsnr" v="163038" />
	</node>
	<node lat="63.63896111532079" lon="9.888166663558202" id="-41030">
		<tag k="name" v="Råmyra" />
		<tag k="natural" v="wetland" />
		<tag k="ssr:stedsnr" v="163249" />
	</node>
	<node lat="63.69384166660362" lon="10.25895556437497" id="-41041">
		<tag k="name" v="Flataunmyra" />
		<tag k="natural" v="wetland" />
		<tag k="ssr:stedsnr" v="163635" />
	</node>
	<node lat="63.66010555557813" lon="10.22568333887669" id="-41044">
		<tag k="name" v="Setermyran" />
		<tag k="natural" v="wetland" />
		<tag k="ssr:stedsnr" v="163643" />
	</node>
	<node lat="63.616883333009675" lon="10.107302781642437" id="-41061">
		<tag k="name" v="Setermyra" />
		<tag k="natural" v="wetland" />
		<tag k="ssr:stedsnr" v="163824" />
	</node>
	<node lat="63.77831110854632" lon="10.16457222067295" id="-41072">
		<tag k="historic" v="shieling" />
		<tag k="name" v="Aunsetra" />
		<tag k="place" v="locality" />
		<tag k="ssr:stedsnr" v="163899" />
	</node>
	<node lat="63.70648610718815" lon="10.081488879968028" id="-41086">
		<tag k="name" v="Kvisthaugmyra" />
		<tag k="natural" v="wetland" />
		<tag k="ssr:stedsnr" v="163939" />
	</node>
	<node lat="63.75483056002972" lon="10.046686117414446" id="-41090">
		<tag k="alt_name" v="Kuppelmyra" />
		<tag k="name" v="Kuppelvikmyra" />
		<tag k="natural" v="wetland" />
		<tag k="ssr:stedsnr" v="163952" />
	</node>
	<node lat="63.68319444269965" lon="9.886797222715579" id="-41099">
		<tag k="name" v="Storskardsmyra" />
		<tag k="natural" v="wetland" />
		<tag k="ssr:stedsnr" v="164142" />
	</node>
	<node lat="63.66738888789768" lon="9.922697217788562" id="-41102">
		<tag k="name" v="Sørråa" />
		<tag k="natural" v="wetland" />
		<tag k="ssr:stedsnr" v="164217" />
	</node>
	<node lat="63.6702444420696" lon="9.887905553519003" id="-41103">
		<tag k="name" v="Vassmyra" />
		<tag k="natural" v="wetland" />
		<tag k="ssr:stedsnr" v="164225" />
	</node>
	<node lat="63.602408329266915" lon="10.408797217537257" id="-41113">
		<tag k="name" v="Borklimyra" />
		<tag k="natural" v="wetland" />
		<tag k="ssr:stedsnr" v="168890" />
	</node>
	<node lat="63.73994721793027" lon="10.60306389742207" id="-41129">
		<tag k="name" v="Korsmyra" />
		<tag k="natural" v="wetland" />
		<tag k="ssr:stedsnr" v="169228" />
	</node>
	<node lat="63.783058334391654" lon="10.658347213040432" id="-41135">
		<tag k="name" v="Prestmyra" />
		<tag k="natural" v="wetland" />
		<tag k="ssr:stedsnr" v="169382" />
	</node>
	<node lat="63.718686109007486" lon="10.829608330150355" id="-41136">
		<tag k="name" v="Merramyra" />
		<tag k="natural" v="wetland" />
		<tag k="ssr:stedsnr" v="169243" />
	</node>
	<node lat="63.661544440792824" lon="10.242377784246068" id="-41144">
		<tag k="name" v="Stosletta" />
		<tag k="natural" v="wetland" />
		<tag k="ssr:stedsnr" v="170295" />
	</node>
	<node lat="63.540894443620296" lon="10.178472212544815" id="-41148">
		<tag k="name" v="Østerslættet" />
		<tag k="natural" v="wetland" />
		<tag k="ssr:stedsnr" v="170519" />
	</node>
	<node lat="63.65300000044242" lon="10.60128888054824" id="-41156">
		<tag k="name" v="Nesaunmyra" />
		<tag k="natural" v="wetland" />
		<tag k="ssr:stedsnr" v="170811" />
	</node>
	<node lat="63.64819444786205" lon="10.551091657480459" id="-41158">
		<tag k="name" v="Sagmyra" />
		<tag k="natural" v="wetland" />
		<tag k="ssr:stedsnr" v="170792" />
	</node>
	<node lat="63.568247224749356" lon="10.17563611816691" id="-41165">
		<tag k="name" v="Sagdammen" />
		<tag k="natural" v="wetland" />
		<tag k="ssr:stedsnr" v="171397" />
	</node>
	<node lat="63.63675000148817" lon="10.568975001499197" id="-41169">
		<tag k="name" v="Rompa" />
		<tag k="place" v="locality" />
		<tag k="ssr:stedsnr" v="171899" />
	</node>
	<node lat="63.59067777879464" lon="10.066805558159219" id="-41200">
		<tag k="name" v="Stormyra" />
		<tag k="natural" v="wetland" />
		<tag k="ssr:stedsnr" v="195565" />
	</node>
	<node lat="63.58973055659351" lon="9.963069448263314" id="-41202">
		<tag k="name" v="Høgåsmyra" />
		<tag k="natural" v="wetland" />
		<tag k="ssr:stedsnr" v="195573" />
	</node>
	<node lat="63.52243055751361" lon="10.11351389491651" id="-41247">
		<tag k="name" v="Holbekkmyra" />
		<tag k="natural" v="wetland" />
		<tag k="ssr:stedsnr" v="195659" />
	</node>
	<node lat="63.61105277642411" lon="9.852733328236893" id="-41276">
		<tag k="name" v="Søkkmyra" />
		<tag k="natural" v="wetland" />
		<tag k="ssr:stedsnr" v="195995" />
	</node>
	<node lat="63.51126110686711" lon="9.928341672205558" id="-41293">
		<tag k="name" v="Hulu" />
		<tag k="place" v="locality" />
		<tag k="ssr:stedsnr" v="220250" />
	</node>
	<node lat="63.69290555683326" lon="9.972175007848842" id="-41296">
		<tag k="name" v="Granholet" />
		<tag k="natural" v="wetland" />
		<tag k="ssr:stedsnr" v="220344" />
	</node>
	<node lat="63.62456111478954" lon="10.098563882587182" id="-41310">
		<tag k="name" v="Bjørnamyra" />
		<tag k="natural" v="wetland" />
		<tag k="ssr:stedsnr" v="220848" />
	</node>
	<node lat="63.60591111150652" lon="9.91245278627096" id="-41323">
		<tag k="historic" v="shieling" />
		<tag k="name" v="Nestusetra" />
		<tag k="place" v="locality" />
		<tag k="ssr:stedsnr" v="224170" />
	</node>
	<node lat="63.637566663063154" lon="9.85861666925147" id="-41328">
		<tag k="name" v="Holamyra" />
		<tag k="natural" v="wetland" />
		<tag k="ssr:stedsnr" v="224032" />
	</node>
	<node lat="63.69612500030428" lon="10.330005556722435" id="-41338">
		<tag k="name" v="Buenget" />
		<tag k="place" v="locality" />
		<tag k="ssr:stedsnr" v="224563" />
	</node>
	<node lat="63.747208334974985" lon="10.42078611326008" id="-41339">
		<tag k="name" v="Bergmyran" />
		<tag k="natural" v="wetland" />
		<tag k="ssr:stedsnr" v="224566" />
	</node>
	<node lat="63.66165277385797" lon="10.19415555687818" id="-41342">
		<tag k="name" v="Stormyra" />
		<tag k="natural" v="wetland" />
		<tag k="ssr:stedsnr" v="224663" />
	</node>
	<node lat="63.6598638853202" lon="10.218216663110386" id="-41349">
		<tag k="name" v="Trettmyra" />
		<tag k="natural" v="wetland" />
		<tag k="ssr:stedsnr" v="224626" />
	</node>
	<node lat="63.68479999622036" lon="10.226950007010519" id="-41351">
		<tag k="historic" v="shieling" />
		<tag k="name" v="Gammelsetra" />
		<tag k="place" v="locality" />
		<tag k="ssr:stedsnr" v="224710" />
	</node>
	<node lat="63.75092500154198" lon="10.161011119487094" id="-41360">
		<tag k="name" v="Stormyra" />
		<tag k="natural" v="wetland" />
		<tag k="ssr:stedsnr" v="224864" />
	</node>
	<node lat="63.7057000025223" lon="10.108594439569595" id="-41371">
		<tag k="name" v="Fager-råmyra" />
		<tag k="natural" v="wetland" />
		<tag k="ssr:stedsnr" v="224925" />
	</node>
	<node lat="63.6006416644951" lon="9.969077779673247" id="-41376">
		<tag k="name" v="Øran" />
		<tag k="place" v="locality" />
		<tag k="ssr:stedsnr" v="224990" />
	</node>
	<node lat="63.79375833152792" lon="10.355124995747087" id="-41388">
		<tag k="name" v="Gammelgården" />
		<tag k="place" v="locality" />
		<tag k="ssr:stedsnr" v="225571" />
	</node>
	<node lat="63.576777778510994" lon="10.35238333463242" id="-41402">
		<tag k="name" v="Storosplegda" />
		<tag k="place" v="locality" />
		<tag k="ssr:stedsnr" v="280143" />
	</node>
	<node lat="63.59998888587754" lon="10.000930555762844" id="-41406">
		<tag k="name" v="Leira" />
		<tag k="place" v="locality" />
		<tag k="ssr:stedsnr" v="281238" />
	</node>
	<node lat="63.7706861137024" lon="10.193783338672016" id="-41416">
		<tag k="name" v="Haugaplassen" />
		<tag k="place" v="locality" />
		<tag k="ssr:stedsnr" v="281858" />
	</node>
	<node lat="63.56559722030903" lon="10.080877769233597" id="-41420">
		<tag k="name" v="Åsan" />
		<tag k="place" v="locality" />
		<tag k="ssr:stedsnr" v="281899" />
	</node>
	<node lat="63.56801944084832" lon="10.080950006571886" id="-41421">
		<tag k="name" v="Smistad" />
		<tag k="place" v="locality" />
		<tag k="ssr:stedsnr" v="281900" />
	</node>
	<node lat="63.62620277387437" lon="9.9087500005355" id="-41437">
		<tag k="name" v="Luddumyra" />
		<tag k="natural" v="wetland" />
		<tag k="ssr:stedsnr" v="285246" />
	</node>
	<node lat="63.74946388635069" lon="10.398277785371592" id="-41443">
		<tag k="name" v="Nordmyran" />
		<tag k="natural" v="wetland" />
		<tag k="ssr:stedsnr" v="285577" />
	</node>
	<node lat="63.72492777721543" lon="10.234891658701368" id="-41451">
		<tag k="name" v="Bukkspelen" />
		<tag k="natural" v="wetland" />
		<tag k="ssr:stedsnr" v="285534" />
	</node>
	<node lat="63.62241944538966" lon="9.978280549816546" id="-41452">
		<tag k="name" v="Geitklauva" />
		<tag k="place" v="locality" />
		<tag k="ssr:stedsnr" v="285537" />
	</node>
	<node lat="63.64140833420068" lon="9.98488611440226" id="-41454">
		<tag k="name" v="Gullgruva" />
		<tag k="place" v="locality" />
		<tag k="ssr:stedsnr" v="285547" />
	</node>
	<node lat="63.75784999989414" lon="10.43165555991216" id="-41455">
		<tag k="name" v="Bergan" />
		<tag k="place" v="locality" />
		<tag k="ssr:stedsnr" v="285550" />
	</node>
	<node lat="63.659291669765715" lon="10.23131110808298" id="-41459">
		<tag k="historic" v="shieling" />
		<tag k="name" v="Espenessetra" />
		<tag k="place" v="locality" />
		<tag k="ssr:stedsnr" v="285644" />
	</node>
	<node lat="63.66580555588234" lon="10.179091672586873" id="-41461">
		<tag k="name" v="Trøan" />
		<tag k="place" v="locality" />
		<tag k="ssr:stedsnr" v="285652" />
	</node>
	<node lat="63.67056111456172" lon="10.181608332760051" id="-41462">
		<tag k="name" v="Holbekkåsmyra" />
		<tag k="natural" v="wetland" />
		<tag k="ssr:stedsnr" v="285653" />
	</node>
	<node lat="63.651080555764224" lon="10.176163887372587" id="-41464">
		<tag k="name" v="Klingeråsmyra" />
		<tag k="natural" v="wetland" />
		<tag k="ssr:stedsnr" v="285672" />
	</node>
	<node lat="63.632708337469225" lon="10.072544441365745" id="-41468">
		<tag k="name" v="Roksetaunet" />
		<tag k="place" v="locality" />
		<tag k="ssr:stedsnr" v="285744" />
	</node>
	<node lat="63.602947222377296" lon="9.952388882989938" id="-41474">
		<tag k="name" v="Svaberga" />
		<tag k="place" v="locality" />
		<tag k="ssr:stedsnr" v="285935" />
	</node>
	<node lat="63.81217222215676" lon="10.275625009154469" id="-41476">
		<tag k="historic" v="shieling" />
		<tag k="name" v="Øversetra" />
		<tag k="place" v="locality" />
		<tag k="ssr:stedsnr" v="285939" />
	</node>
	<node lat="63.55052499630997" lon="10.090883328517277" id="-41499">
		<tag k="name" v="Sørøyan" />
		<tag k="natural" v="wetland" />
		<tag k="ssr:stedsnr" v="286822" />
	</node>
	<node lat="63.74786388899777" lon="10.63436388660689" id="-41509">
		<tag k="name" v="Storslættet" />
		<tag k="natural" v="wetland" />
		<tag k="ssr:stedsnr" v="290239" />
	</node>
	<node lat="63.728111110075375" lon="10.804686109032147" id="-41512">
		<tag k="name" v="Stamnmyra" />
		<tag k="natural" v="wetland" />
		<tag k="ssr:stedsnr" v="290255" />
	</node>
	<node lat="63.77608055532679" lon="10.658261105288435" id="-41516">
		<tag k="name" v="Almlia" />
		<tag k="natural" v="wetland" />
		<tag k="ssr:stedsnr" v="290366" />
	</node>
	<node lat="63.655950002349606" lon="10.58964722308149" id="-41522">
		<tag k="name" v="Bjørnekra" />
		<tag k="place" v="locality" />
		<tag k="ssr:stedsnr" v="292810" />
	</node>
	<node lat="63.64172500316642" lon="10.289588880673845" id="-41524">
		<tag k="loc_name" v="Øver Svartåsmyra" />
		<tag k="name" v="Øvre Svartåsmyra" />
		<tag k="natural" v="wetland" />
		<tag k="ssr:stedsnr" v="291938" />
	</node>
	<node lat="63.655025000293456" lon="10.270833341506291" id="-41540">
		<tag k="name" v="Kråa" />
		<tag k="place" v="locality" />
		<tag k="ssr:stedsnr" v="292351" />
	</node>
	<node lat="63.59186666791943" lon="10.191461105150179" id="-41541">
		<tag k="alt_name" v="Kopråmyra" />
		<tag k="name" v="Koppråmyra" />
		<tag k="natural" v="wetland" />
		<tag k="ssr:stedsnr" v="292472" />
	</node>
	<node lat="63.69226388895154" lon="10.571586118864863" id="-41542">
		<tag k="name" v="Båsmyra" />
		<tag k="natural" v="wetland" />
		<tag k="ssr:stedsnr" v="292599" />
	</node>
	<node lat="63.67589444017244" lon="10.575350003782468" id="-41545">
		<tag k="name" v="Balvollen" />
		<tag k="place" v="locality" />
		<tag k="ssr:stedsnr" v="292659" />
	</node>
	<node lat="63.67570833754926" lon="10.61735277248625" id="-41546">
		<tag k="name" v="Svean" />
		<tag k="place" v="locality" />
		<tag k="ssr:stedsnr" v="292671" />
	</node>
	<node lat="63.66275000178101" lon="10.547974997518029" id="-41548">
		<tag k="name" v="Kaldslættet" />
		<tag k="natural" v="wetland" />
		<tag k="ssr:stedsnr" v="292849" />
	</node>
	<node lat="63.65887500443284" lon="10.563969441318278" id="-41549">
		<tag k="name" v="Gullmyra" />
		<tag k="natural" v="wetland" />
		<tag k="ssr:stedsnr" v="292853" />
	</node>
	<node lat="63.590749996345174" lon="10.130038882307696" id="-41566">
		<tag k="name" v="Vargurdmyra" />
		<tag k="natural" v="wetland" />
		<tag k="ssr:stedsnr" v="301309" />
	</node>
	<node lat="63.77794444414383" lon="10.694794452657035" id="-41630">
		<tag k="alt_name" v="Prestslettet" />
		<tag k="name" v="Fjellmyra" />
		<tag k="natural" v="wetland" />
		<tag k="ssr:stedsnr" v="317383" />
	</node>
	<node lat="63.6217861134048" lon="10.093605546468886" id="-41655">
		<tag k="name" v="Djupmarka" />
		<tag k="place" v="locality" />
		<tag k="ssr:stedsnr" v="341837" />
	</node>
	<node lat="63.63540555477744" lon="10.014841658250397" id="-41659">
		<tag k="name" v="Lass-staden" />
		<tag k="place" v="locality" />
		<tag k="ssr:stedsnr" v="341870" />
	</node>
	<node lat="63.63423610782628" lon="9.871811104096318" id="-41671">
		<tag k="name" v="Gurilimyra" />
		<tag k="natural" v="wetland" />
		<tag k="ssr:stedsnr" v="345033" />
	</node>
	<node lat="63.52495555211435" lon="10.067497222803167" id="-41676">
		<tag k="name" v="Lomstjønnsmyra" />
		<tag k="natural" v="wetland" />
		<tag k="ssr:stedsnr" v="345122" />
	</node>
	<node lat="63.500572226252196" lon="10.059824999206208" id="-41680">
		<tag k="name" v="Bjørnmyra" />
		<tag k="natural" v="wetland" />
		<tag k="ssr:stedsnr" v="345085" />
	</node>
	<node lat="63.61679444582563" lon="9.928930561258383" id="-41685">
		<tag k="name" v="Rasmusholet" />
		<tag k="place" v="locality" />
		<tag k="ssr:stedsnr" v="345155" />
	</node>
	<node lat="63.61916944717032" lon="9.858180546635252" id="-41687">
		<tag k="name" v="Lavaslåtten" />
		<tag k="place" v="locality" />
		<tag k="ssr:stedsnr" v="345167" />
	</node>
	<node lat="63.713255551175855" lon="10.313099995301966" id="-41701">
		<tag k="name" v="Stormyra" />
		<tag k="natural" v="wetland" />
		<tag k="ssr:stedsnr" v="345599" />
	</node>
	<node lat="63.65514721894892" lon="10.15369721793697" id="-41703">
		<tag k="name" v="Iverplassen" />
		<tag k="place" v="locality" />
		<tag k="ssr:stedsnr" v="345682" />
	</node>
	<node lat="63.67582499783707" lon="10.17886111913669" id="-41713">
		<tag k="landuse" v="meadow" />
		<tag k="name" v="Slått" />
		<tag k="ssr:stedsnr" v="345653" />
	</node>
	<node lat="63.53027500142618" lon="10.12249444944456" id="-41724">
		<tag k="name" v="Gråsteinsmyra" />
		<tag k="natural" v="wetland" />
		<tag k="ssr:stedsnr" v="345881" />
	</node>
	<node lat="63.77120000370232" lon="10.201341660018153" id="-41725">
		<tag k="name" v="Haugamyran" />
		<tag k="natural" v="wetland" />
		<tag k="ssr:stedsnr" v="345887" />
	</node>
	<node lat="63.522261114465174" lon="10.139238885060994" id="-41729">
		<tag k="name" v="Husmyra" />
		<tag k="natural" v="wetland" />
		<tag k="ssr:stedsnr" v="345895" />
	</node>
	<node lat="63.610833334823376" lon="9.955705550107929" id="-41736">
		<tag k="name" v="Bjørnadalen" />
		<tag k="natural" v="stone" />
		<tag k="ssr:stedsnr" v="345998" />
	</node>
	<node lat="63.605108328964064" lon="10.038833324517244" id="-41751">
		<tag k="name" v="Skardrød" />
		<tag k="place" v="locality" />
		<tag k="ssr:stedsnr" v="345940" />
	</node>
	<node lat="63.59128611430912" lon="10.401105552865541" id="-41789">
		<tag k="name" v="Brekka" />
		<tag k="place" v="locality" />
		<tag k="ssr:stedsnr" v="352026" />
	</node>
	<node lat="63.61598055618682" lon="10.504874996088237" id="-41797">
		<tag k="historic" v="shieling" />
		<tag k="name" v="Buvollen" />
		<tag k="place" v="locality" />
		<tag k="ssr:stedsnr" v="352072" />
	</node>
	<node lat="63.618755557871694" lon="10.513483342573787" id="-41798">
		<tag k="name" v="Bjørnaekra" />
		<tag k="place" v="locality" />
		<tag k="ssr:stedsnr" v="352074" />
	</node>
	<node lat="63.66249166752179" lon="10.271886115966723" id="-41801">
		<tag k="name" v="Grasdalen" />
		<tag k="place" v="locality" />
		<tag k="ssr:stedsnr" v="352233" />
	</node>
	<node lat="63.60460555332797" lon="10.25891666659327" id="-41812">
		<tag k="name" v="Nordmyran" />
		<tag k="natural" v="wetland" />
		<tag k="ssr:stedsnr" v="352312" />
	</node>
	<node lat="63.71461388502072" lon="10.57462499396261" id="-41817">
		<tag k="name" v="Hesttrømyra" />
		<tag k="natural" v="wetland" />
		<tag k="ssr:stedsnr" v="352557" />
	</node>
	<node lat="63.65431388768298" lon="10.567750008996976" id="-41825">
		<tag k="name" v="Søkkmyra" />
		<tag k="natural" v="wetland" />
		<tag k="ssr:stedsnr" v="352852" />
	</node>
	<node lat="63.78116110951216" lon="10.142797230638653" id="-41843">
		<tag k="name" v="Høgsetmarka" />
		<tag k="place" v="locality" />
		<tag k="ssr:stedsnr" v="362236" />
	</node>
	<node lat="63.66685555744936" lon="10.166761114576264" id="-41956">
		<tag k="name" v="Setermyran" />
		<tag k="natural" v="wetland" />
		<tag k="ssr:stedsnr" v="377817" />
	</node>
	<node lat="63.66434721787306" lon="9.89567221614248" id="-41958">
		<tag k="name" v="Vassmyran" />
		<tag k="natural" v="wetland" />
		<tag k="ssr:stedsnr" v="377850" />
	</node>
	<node lat="63.63916388997369" lon="10.029277774201823" id="-41995">
		<tag k="name" v="Litlvassråa" />
		<tag k="natural" v="wetland" />
		<tag k="ssr:stedsnr" v="402824" />
	</node>
	<node lat="63.636033333378734" lon="10.110841667950334" id="-41996">
		<tag k="name" v="Mørkret" />
		<tag k="place" v="locality" />
		<tag k="ssr:stedsnr" v="402844" />
	</node>
	<node lat="63.561258330364915" lon="10.136422230140523" id="-42003">
		<tag k="name" v="Stormyra" />
		<tag k="natural" v="wetland" />
		<tag k="ssr:stedsnr" v="402882" />
	</node>
	<node lat="63.6215722266752" lon="9.85732777138165" id="-42015">
		<tag k="name" v="Vassdalen" />
		<tag k="natural" v="stone" />
		<tag k="ssr:stedsnr" v="406013" />
	</node>
	<node lat="63.71091944486339" lon="10.23140832605605" id="-42028">
		<tag k="name" v="Stormyra" />
		<tag k="natural" v="wetland" />
		<tag k="ssr:stedsnr" v="406527" />
	</node>
	<node lat="63.69028889298467" lon="10.226591666055143" id="-42030">
		<tag k="name" v="Litlråa" />
		<tag k="natural" v="wetland" />
		<tag k="ssr:stedsnr" v="406638" />
	</node>
	<node lat="63.60526110672952" lon="10.102975001622697" id="-42034">
		<tag k="name" v="Ålmoplassen" />
		<tag k="place" v="locality" />
		<tag k="ssr:stedsnr" v="406825" />
	</node>
	<node lat="63.729083332910534" lon="10.402297231503553" id="-42040">
		<tag k="name" v="Olamyran" />
		<tag k="natural" v="wetland" />
		<tag k="ssr:stedsnr" v="406582" />
	</node>
	<node lat="63.671538887207966" lon="10.169994437457289" id="-42053">
		<tag k="name" v="Klungertjønnmyra" />
		<tag k="natural" v="wetland" />
		<tag k="ssr:stedsnr" v="406680" />
	</node>
	<node lat="63.78529722169572" lon="10.254988886224425" id="-42056">
		<tag k="name" v="Hansmyra" />
		<tag k="natural" v="wetland" />
		<tag k="ssr:stedsnr" v="406951" />
	</node>
	<node lat="63.801099995964755" lon="10.221588896490722" id="-42060">
		<tag k="name" v="Lunmyra" />
		<tag k="natural" v="wetland" />
		<tag k="ssr:stedsnr" v="406974" />
	</node>
	<node lat="63.55999166887091" lon="9.995361104975865" id="-42063">
		<tag k="name" v="Fallmyra" />
		<tag k="natural" v="wetland" />
		<tag k="ssr:stedsnr" v="406978" />
	</node>
	<node lat="63.597588886935206" lon="10.003388890506404" id="-42064">
		<tag k="name" v="Flytsanden" />
		<tag k="place" v="locality" />
		<tag k="ssr:stedsnr" v="406979" />
	</node>
	<node lat="63.55175000086809" lon="10.038386118529342" id="-42084">
		<tag k="name" v="Botnan" />
		<tag k="natural" v="wetland" />
		<tag k="ssr:stedsnr" v="407150" />
	</node>
	<node lat="63.5376416664089" lon="10.100988880048899" id="-42091">
		<tag k="name" v="Brekka" />
		<tag k="place" v="locality" />
		<tag k="ssr:stedsnr" v="407825" />
	</node>
	<node lat="63.76003888687051" lon="10.088772225230517" id="-42093">
		<tag k="name" v="Djupvikdalen" />
		<tag k="natural" v="stone" />
		<tag k="ssr:stedsnr" v="407871" />
	</node>
	<node lat="63.62360277631133" lon="10.515080561343158" id="-42095">
		<tag k="name" v="Stormyra" />
		<tag k="natural" v="wetland" />
		<tag k="ssr:stedsnr" v="411061" />
	</node>
	<node lat="63.66852500107273" lon="10.449111107867799" id="-42097">
		<tag k="name" v="Stormyra" />
		<tag k="natural" v="wetland" />
		<tag k="ssr:stedsnr" v="411088" />
	</node>
	<node lat="63.68345000031649" lon="10.395736106264701" id="-42098">
		<tag k="name" v="Liaslettet" />
		<tag k="natural" v="wetland" />
		<tag k="ssr:stedsnr" v="411092" />
	</node>
	<node lat="63.72726944255523" lon="10.765419453034069" id="-42108">
		<tag k="name" v="Krokan" />
		<tag k="natural" v="wetland" />
		<tag k="ssr:stedsnr" v="412247" />
	</node>
	<node lat="63.61991389077105" lon="10.336680563715154" id="-42111">
		<tag k="name" v="Holbekkholtan" />
		<tag k="place" v="locality" />
		<tag k="ssr:stedsnr" v="412772" />
	</node>
	<node lat="63.63768333630165" lon="10.288722224453227" id="-42120">
		<tag k="loc_name" v="Ner Svartåsmyra" />
		<tag k="name" v="Nedre Svartåsmyra" />
		<tag k="natural" v="wetland" />
		<tag k="ssr:stedsnr" v="412930" />
	</node>
	<node lat="63.65396111484761" lon="10.266752787296651" id="-42122">
		<tag k="name" v="Kårret" />
		<tag k="place" v="locality" />
		<tag k="ssr:stedsnr" v="413393" />
	</node>
	<node lat="63.66832499896857" lon="10.290316675944455" id="-42123">
		<tag k="name" v="Brannmyra" />
		<tag k="natural" v="wetland" />
		<tag k="ssr:stedsnr" v="412857" />
	</node>
	<node lat="63.61407777623474" lon="10.49976943834788" id="-42127">
		<tag k="name" v="Setermyra" />
		<tag k="natural" v="wetland" />
		<tag k="ssr:stedsnr" v="413058" />
	</node>
	<node lat="63.611380551140876" lon="10.507027776089021" id="-42136">
		<tag k="name" v="Kobbstein" />
		<tag k="natural" v="stone" />
		<tag k="ssr:stedsnr" v="413071" />
	</node>
	<node lat="63.55000278082278" lon="10.183266657262251" id="-42143">
		<tag k="name" v="Terremyra" />
		<tag k="natural" v="wetland" />
		<tag k="ssr:stedsnr" v="413555" />
	</node>
	<node lat="63.70456944395216" lon="10.560702772530936" id="-42149">
		<tag k="name" v="Myrasetran" />
		<tag k="place" v="locality" />
		<tag k="ssr:stedsnr" v="413632" />
	</node>
	<node lat="63.66266944278269" lon="10.582244452992134" id="-42155">
		<tag k="name" v="Brekkahåggån" />
		<tag k="place" v="locality" />
		<tag k="ssr:stedsnr" v="413880" />
	</node>
	<node lat="63.638608335203905" lon="10.562608326330281" id="-42156">
		<tag k="name" v="Porkmyra" />
		<tag k="natural" v="wetland" />
		<tag k="ssr:stedsnr" v="413957" />
	</node>
	<node lat="63.61684722541602" lon="10.513091676403258" id="-42183">
		<tag k="name" v="Kalvtrøa" />
		<tag k="place" v="locality" />
		<tag k="ssr:stedsnr" v="424838" />
	</node>
	<node lat="63.56647222371469" lon="10.043350001860308" id="-42226">
		<tag k="name" v="Søkkmyra" />
		<tag k="natural" v="wetland" />
		<tag k="ssr:stedsnr" v="438584" />
	</node>
	<node lat="63.57177222561648" lon="10.123616673704984" id="-42227">
		<tag k="name" v="Plattmyr" />
		<tag k="natural" v="wetland" />
		<tag k="ssr:stedsnr" v="438593" />
	</node>
	<node lat="63.57017500166728" lon="10.111955551925897" id="-42228">
		<tag k="name" v="Maritmyr" />
		<tag k="natural" v="wetland" />
		<tag k="ssr:stedsnr" v="438594" />
	</node>
	<node lat="63.67899722638099" lon="10.24653055041231" id="-42259">
		<tag k="name" v="Titøya" />
		<tag k="place" v="locality" />
		<tag k="ssr:stedsnr" v="710724" />
	</node>
	<node lat="63.68004167058983" lon="10.249663897012288" id="-42260">
		<tag k="name" v="Holmen" />
		<tag k="place" v="locality" />
		<tag k="ssr:stedsnr" v="710725" />
	</node>
	<node lat="63.61274444758372" lon="10.087963898635685" id="-42267">
		<tag k="name" v="Gjøtan" />
		<tag k="place" v="locality" />
		<tag k="ssr:stedsnr" v="710817" />
	</node>
	<node lat="63.54515833511074" lon="9.943047224205708" id="-42335">
		<tag k="name" v="Knutsdalen" />
		<tag k="natural" v="stone" />
		<tag k="ssr:stedsnr" v="523254" />
	</node>
	<node lat="63.61648888669058" lon="10.138822228117892" id="-42340">
		<tag k="name" v="Vollkamman" />
		<tag k="natural" v="wetland" />
		<tag k="ssr:stedsnr" v="523847" />
	</node>
	<node lat="63.515850002243226" lon="10.049905556532064" id="-42359">
		<tag k="name" v="Bælingsmyran" />
		<tag k="natural" v="wetland" />
		<tag k="ssr:stedsnr" v="527118" />
	</node>
	<node lat="63.712572218361046" lon="10.229338880755478" id="-42365">
		<tag k="historic" v="shieling" />
		<tag k="name" v="Litlstosetra" />
		<tag k="place" v="locality" />
		<tag k="ssr:stedsnr" v="527512" />
	</node>
	<node lat="63.74016944215482" lon="10.413894438367393" id="-42368">
		<tag k="name" v="Grønmyra" />
		<tag k="natural" v="wetland" />
		<tag k="ssr:stedsnr" v="527584" />
	</node>
	<node lat="63.62977222057847" lon="9.88365000183401" id="-42370">
		<tag k="name" v="Gurruliurda" />
		<tag k="natural" v="scree" />
		<tag k="ssr:stedsnr" v="527260" />
	</node>
</osm>
