<?xml version="1.0" encoding="UTF-8"?>
<osm generator="osmapis" version="0.6">
	<node changeset="41893319" id="1797376013" lat="58.2137137" lon="6.7786308" timestamp="2016-09-03T17:40:44Z" uid="2569034" user="kche_import" version="2" />
	<node changeset="68617029" id="3069335572" lat="58.3104283" lon="6.9636058" timestamp="2019-03-28T08:54:43Z" uid="633013" user="Honning" version="5" />
	<node changeset="41984772" id="4390116635" lat="58.2192693" lon="6.8926673" timestamp="2016-09-07T17:33:52Z" uid="2569034" user="kche_import" version="1" />
	<node changeset="11971488" id="1797376031" lat="58.2137622" lon="6.7782854" timestamp="2012-06-21T18:25:51Z" uid="164049" user="kche" version="1" />
	<node changeset="41893319" id="4382451377" lat="58.2131407" lon="6.7771108" timestamp="2016-09-03T17:40:06Z" uid="2569034" user="kche_import" version="1" />
	<node changeset="58861043" id="5610209321" lat="58.6276278" lon="6.9232694" timestamp="2018-05-10T20:38:13Z" uid="3842253" user="NKA_import" version="1">
		<tag k="name" v="Straumland" />
		<tag k="place" v="farm" />
		<tag k="ssr:stedsnr" v="763877" />
		<tag k="ssr:type" v="bruk" />
	</node>
	<node changeset="58861043" id="5610209322" lat="58.35805" lon="7.0497444" timestamp="2018-05-10T20:38:13Z" uid="3842253" user="NKA_import" version="1">
		<tag k="name" v="Stokkeland" />
		<tag k="place" v="farm" />
		<tag k="ssr:stedsnr" v="667679" />
		<tag k="ssr:type" v="gard" />
	</node>
	<node changeset="58861043" id="5610209323" lat="58.3795806" lon="7.1034056" timestamp="2018-05-10T20:38:13Z" uid="3842253" user="NKA_import" version="1">
		<tag k="name" v="Gløvre" />
		<tag k="place" v="farm" />
		<tag k="ssr:stedsnr" v="667692" />
		<tag k="ssr:type" v="gard" />
	</node>
	<node changeset="58861043" id="5610209324" lat="58.4898879" lon="7.0161678" timestamp="2018-05-10T20:38:13Z" uid="3842253" user="NKA_import" version="1">
		<tag k="alt_name" v="Valdrio" />
		<tag k="name" v="Valdro" />
		<tag k="place" v="farm" />
		<tag k="ssr:stedsnr" v="460510" />
		<tag k="ssr:type" v="gard" />
	</node>
	<node changeset="58861043" id="5610209325" lat="58.3979083" lon="6.9478" timestamp="2018-05-10T20:38:13Z" uid="3842253" user="NKA_import" version="1">
		<tag k="name" v="Sørhom" />
		<tag k="place" v="farm" />
		<tag k="ssr:stedsnr" v="213213" />
		<tag k="ssr:type" v="bruk" />
	</node>
	<node changeset="58861043" id="5610209326" lat="58.6370167" lon="6.9828028" timestamp="2018-05-10T20:38:13Z" uid="3842253" user="NKA_import" version="1">
		<tag k="name" v="Håland" />
		<tag k="place" v="farm" />
		<tag k="ssr:stedsnr" v="668485" />
		<tag k="ssr:type" v="gard" />
	</node>
	<node changeset="58861043" id="5610209327" lat="58.3341444" lon="7.0334972" timestamp="2018-05-10T20:38:13Z" uid="3842253" user="NKA_import" version="1">
		<tag k="alt_name" v="Maurlia" />
		<tag k="name" v="Teigen" />
		<tag k="place" v="farm" />
		<tag k="ssr:stedsnr" v="910686" />
		<tag k="ssr:type" v="bruk" />
	</node>
	<node changeset="58861043" id="5610209328" lat="58.5441917" lon="6.9159861" timestamp="2018-05-10T20:38:13Z" uid="3842253" user="NKA_import" version="1">
		<tag k="name" v="Åsheim" />
		<tag k="place" v="farm" />
		<tag k="ssr:stedsnr" v="460719" />
		<tag k="ssr:type" v="bruk" />
	</node>
	<node changeset="58861043" id="5610209329" lat="58.2479" lon="6.7759361" timestamp="2018-05-10T20:38:13Z" uid="3842253" user="NKA_import" version="1">
		<tag k="name" v="Haugeland" />
		<tag k="place" v="locality" />
		<tag k="ssr:stedsnr" v="131" />
		<tag k="ssr:type" v="gammelBosettingsplass" />
	</node>
	<node changeset="58861043" id="5610209330" lat="58.3429694" lon="6.9678111" timestamp="2018-05-10T20:38:13Z" uid="3842253" user="NKA_import" version="1">
		<tag k="name" v="Svindland" />
		<tag k="place" v="farm" />
		<tag k="ssr:stedsnr" v="213457" />
		<tag k="ssr:type" v="gard" />
	</node>
	<node changeset="58861043" id="5610209331" lat="58.2930444" lon="6.8760694" timestamp="2018-05-10T20:38:14Z" uid="3842253" user="NKA_import" version="1">
		<tag k="name" v="Øygarden" />
		<tag k="place" v="locality" />
		<tag k="ssr:stedsnr" v="941017" />
		<tag k="ssr:type" v="gammelBosettingsplass" />
	</node>
	<node changeset="58861043" id="5610209332" lat="58.2766889" lon="6.8250889" timestamp="2018-05-10T20:38:14Z" uid="3842253" user="NKA_import" version="1">
		<tag k="alt_name" v="Revstien" />
		<tag k="name" v="Refsti" />
		<tag k="place" v="farm" />
		<tag k="ssr:stedsnr" v="304" />
		<tag k="ssr:type" v="gard" />
	</node>
	<node changeset="58861043" id="5610209333" lat="58.5881" lon="7.0260778" timestamp="2018-05-10T20:38:14Z" uid="3842253" user="NKA_import" version="1">
		<tag k="historic" v="shieling" />
		<tag k="name" v="Listølen" />
		<tag k="place" v="locality" />
		<tag k="ssr:stedsnr" v="764757" />
		<tag k="ssr:type" v="gammelBosettingsplass" />
	</node>
	<node changeset="58861043" id="5610209334" lat="58.3497917" lon="7.0290611" timestamp="2018-05-10T20:38:14Z" uid="3842253" user="NKA_import" version="1">
		<tag k="name" v="Evja" />
		<tag k="place" v="farm" />
		<tag k="ssr:stedsnr" v="213483" />
		<tag k="ssr:type" v="bruk" />
	</node>
	<node changeset="58861043" id="5610209335" lat="58.2729194" lon="6.8006556" timestamp="2018-05-10T20:38:14Z" uid="3842253" user="NKA_import" version="1">
		<tag k="name" v="Tveita" />
		<tag k="place" v="farm" />
		<tag k="ssr:stedsnr" v="698130" />
		<tag k="ssr:type" v="bruk" />
	</node>
	<node changeset="58861043" id="5610209336" lat="58.48375" lon="7.02325" timestamp="2018-05-10T20:38:14Z" uid="3842253" user="NKA_import" version="1">
		<tag k="alt_name" v="Halleland" />
		<tag k="name" v="Haddeland" />
		<tag k="place" v="hamlet" />
		<tag k="ssr:stedsnr" v="322" />
		<tag k="ssr:type" v="gard" />
	</node>
	<node changeset="58861043" id="5610209337" lat="58.399075" lon="6.9375" timestamp="2018-05-10T20:38:14Z" uid="3842253" user="NKA_import" version="1">
		<tag k="name" v="Stormonen" />
		<tag k="place" v="farm" />
		<tag k="ssr:stedsnr" v="698178" />
		<tag k="ssr:type" v="bruk" />
	</node>
	<node changeset="58861043" id="5610209338" lat="58.415375" lon="7.0117" timestamp="2018-05-10T20:38:14Z" uid="3842253" user="NKA_import" version="1">
		<tag k="alt_name" v="Under fjellet" />
		<tag k="name" v="Fjellet" />
		<tag k="place" v="farm" />
		<tag k="ssr:stedsnr" v="667" />
		<tag k="ssr:type" v="bruk" />
	</node>
	<node changeset="58861043" id="5610209339" lat="58.5774694" lon="6.8823556" timestamp="2018-05-10T20:38:14Z" uid="3842253" user="NKA_import" version="1">
		<tag k="name" v="Hoskuldsbakken" />
		<tag k="place" v="farm" />
		<tag k="ssr:stedsnr" v="339641" />
		<tag k="ssr:type" v="bruk" />
	</node>
	<node changeset="58861043" id="5610209340" lat="58.5065798" lon="6.8628407" timestamp="2018-05-10T20:38:14Z" uid="3842253" user="NKA_import" version="1">
		<tag k="building" v="hotel" />
		<tag k="name" v="Alfarheim" />
		<tag k="ssr:stedsnr" v="362" />
		<tag k="ssr:type" v="hotell" />
		<tag k="tourism" v="hotel" />
	</node>
	<node changeset="58861043" id="5610209341" lat="58.7460139" lon="6.9753028" timestamp="2018-05-10T20:38:14Z" uid="3842253" user="NKA_import" version="1">
		<tag k="name" v="Solhom" />
		<tag k="place" v="isolated_dwelling" />
		<tag k="ssr:stedsnr" v="366" />
		<tag k="ssr:type" v="eneboligMindreBoligbygg" />
	</node>
	<node changeset="58861043" id="5610209342" lat="58.558132" lon="6.9868844" timestamp="2018-05-10T20:38:15Z" uid="3842253" user="NKA_import" version="1">
		<tag k="building" v="cabin" />
		<tag k="name" v="Kleivan" />
		<tag k="place" v="isolated_dwelling" />
		<tag k="ssr:stedsnr" v="397" />
		<tag k="ssr:type" v="fritidsbolig" />
	</node>
	<node changeset="58861043" id="5610209343" lat="58.6383833" lon="6.9407056" timestamp="2018-05-10T20:38:15Z" uid="3842253" user="NKA_import" version="1">
		<tag k="name" v="Fosseli" />
		<tag k="place" v="farm" />
		<tag k="ssr:stedsnr" v="96964" />
		<tag k="ssr:type" v="bruk" />
	</node>
	<node changeset="58861043" id="5610209344" lat="58.6969833" lon="7.0393861" timestamp="2018-05-10T20:38:15Z" uid="3842253" user="NKA_import" version="1">
		<tag k="name" v="Persbu" />
		<tag k="place" v="locality" />
		<tag k="ssr:stedsnr" v="461039" />
		<tag k="ssr:type" v="gammelBosettingsplass" />
	</node>
	<node changeset="75019063" id="5610209345" lat="58.3808417" lon="6.9572139" timestamp="2019-09-27T17:01:22Z" uid="7596226" user="elias17" version="2">
		<tag k="name" v="Storekvina" />
		<tag k="place" v="village" />
		<tag k="ssr:stedsnr" v="427" />
		<tag k="ssr:type" v="tettsted" />
		<tag k="wikidata" v="Q20963606" />
		<tag k="wikipedia" v="en:Storekvina" />
	</node>
	<node changeset="58861043" id="5610209346" lat="58.5581889" lon="6.8429361" timestamp="2018-05-10T20:38:15Z" uid="3842253" user="NKA_import" version="1">
		<tag k="historic" v="shieling" />
		<tag k="name" v="Selandsstølen" />
		<tag k="place" v="locality" />
		<tag k="ssr:stedsnr" v="581295" />
		<tag k="ssr:type" v="byggForJordbrukFiskeOgFangst" />
	</node>
	<node changeset="58861043" id="5610209347" lat="58.3168806" lon="6.7937972" timestamp="2018-05-10T20:38:15Z" uid="3842253" user="NKA_import" version="1">
		<tag k="alt_name" v="Meland lille;Meland, l" />
		<tag k="name" v="Lille Meland" />
		<tag k="place" v="farm" />
		<tag k="ssr:stedsnr" v="788471" />
		<tag k="ssr:type" v="gard" />
	</node>
	<node changeset="58861043" id="5610209348" lat="58.2507778" lon="7.0452833" timestamp="2018-05-10T20:38:15Z" uid="3842253" user="NKA_import" version="1">
		<tag k="alt_name" v="Trælskor" />
		<tag k="name" v="Trælsgård" />
		<tag k="place" v="farm" />
		<tag k="ssr:stedsnr" v="604" />
		<tag k="ssr:type" v="gard" />
	</node>
	<node changeset="58861043" id="5610209349" lat="58.477425" lon="6.9324028" timestamp="2018-05-10T20:38:15Z" uid="3842253" user="NKA_import" version="1">
		<tag k="building" v="yes" />
		<tag k="disused:amenity" v="school" />
		<tag k="name" v="Helle skule" />
		<tag k="ssr:stedsnr" v="339876" />
		<tag k="ssr:type" v="skole" />
	</node>
	<node changeset="58861043" id="5610209350" lat="58.78195" lon="6.9354861" timestamp="2018-05-10T20:38:15Z" uid="3842253" user="NKA_import" version="1">
		<tag k="historic" v="shieling" />
		<tag k="name" v="Meljestøl" />
		<tag k="place" v="locality" />
		<tag k="ssr:stedsnr" v="789054" />
		<tag k="ssr:type" v="seterStøl" />
	</node>
	<node changeset="58861043" id="5610209351" lat="58.6524056" lon="6.9460028" timestamp="2018-05-10T20:38:15Z" uid="3842253" user="NKA_import" version="1">
		<tag k="alt_name" v="Storneset" />
		<tag k="name" v="Stornes" />
		<tag k="place" v="farm" />
		<tag k="ssr:stedsnr" v="633" />
		<tag k="ssr:type" v="bruk" />
	</node>
	<node changeset="58861043" id="5610209352" lat="58.5973389" lon="6.8933667" timestamp="2018-05-10T20:38:15Z" uid="3842253" user="NKA_import" version="1">
		<tag k="alt_name" v="Grunnsteinsli;Gunstensli" />
		<tag k="name" v="Gunsteinsli" />
		<tag k="place" v="farm" />
		<tag k="ssr:stedsnr" v="645" />
		<tag k="ssr:type" v="gard" />
	</node>
	<node changeset="58861043" id="5610209353" lat="58.5058694" lon="6.9930417" timestamp="2018-05-10T20:38:16Z" uid="3842253" user="NKA_import" version="1">
		<tag k="name" v="Rusteli" />
		<tag k="place" v="farm" />
		<tag k="ssr:stedsnr" v="789074" />
		<tag k="ssr:type" v="bruk" />
	</node>
	<node changeset="58861043" id="5610209354" lat="58.6023083" lon="6.9103778" timestamp="2018-05-10T20:38:16Z" uid="3842253" user="NKA_import" version="1">
		<tag k="name" v="Moland" />
		<tag k="place" v="farm" />
		<tag k="ssr:stedsnr" v="650" />
		<tag k="ssr:type" v="gard" />
	</node>
	<node changeset="58861043" id="5610209355" lat="58.4874833" lon="6.9593639" timestamp="2018-05-10T20:38:16Z" uid="3842253" user="NKA_import" version="1">
		<tag k="alt_name" v="Hommo" />
		<tag k="name" v="Homme" />
		<tag k="place" v="farm" />
		<tag k="ssr:stedsnr" v="789086" />
		<tag k="ssr:type" v="bruk" />
	</node>
	<node changeset="58861043" id="5610209356" lat="58.5932833" lon="6.8955389" timestamp="2018-05-10T20:38:16Z" uid="3842253" user="NKA_import" version="1">
		<tag k="name" v="Limoen" />
		<tag k="place" v="farm" />
		<tag k="ssr:stedsnr" v="709" />
		<tag k="ssr:type" v="bruk" />
	</node>
	<node changeset="58861043" id="750864461" lat="58.3309512" lon="7.0194613" timestamp="2018-05-10T20:38:47Z" uid="3842253" user="NKA_import" version="2">
		<tag k="alt_name" v="Hunsbedt" />
		<tag k="name" v="Hundsbit" />
		<tag k="place" v="hamlet" />
		<tag k="ssr:stedsnr" v="121698" />
		<tag k="ssr:type" v="grend" />
	</node>
	<node changeset="58861043" id="5610209358" lat="58.3064" lon="6.8767361" timestamp="2018-05-10T20:38:16Z" uid="3842253" user="NKA_import" version="1">
		<tag k="name" v="Litlaløa" />
		<tag k="place" v="locality" />
		<tag k="ssr:stedsnr" v="698533" />
		<tag k="ssr:type" v="byggForJordbrukFiskeOgFangst" />
	</node>
	<node changeset="58861043" id="5610209359" lat="58.3042148" lon="6.926379" timestamp="2018-05-10T20:38:16Z" uid="3842253" user="NKA_import" version="1">
		<tag k="alt_name" v="Linland" />
		<tag k="name" v="Lindland" />
		<tag k="place" v="farm" />
		<tag k="ssr:stedsnr" v="789256" />
		<tag k="ssr:type" v="gard" />
	</node>
	<node changeset="58861043" id="5610209360" lat="58.5507861" lon="6.886725" timestamp="2018-05-10T20:38:16Z" uid="3842253" user="NKA_import" version="1">
		<tag k="name" v="Lindhommen" />
		<tag k="place" v="farm" />
		<tag k="ssr:stedsnr" v="739" />
		<tag k="ssr:type" v="gard" />
	</node>
	<node changeset="58861043" id="5610209361" lat="58.3766278" lon="7.0384306" timestamp="2018-05-10T20:38:16Z" uid="3842253" user="NKA_import" version="1">
		<tag k="alt_name" v="Dukan;Duken" />
		<tag k="name" v="Dugan" />
		<tag k="place" v="farm" />
		<tag k="ssr:stedsnr" v="742" />
		<tag k="ssr:type" v="gard" />
	</node>
	<node changeset="58861043" id="5610209362" lat="58.2870056" lon="6.8997417" timestamp="2018-05-10T20:38:16Z" uid="3842253" user="NKA_import" version="1">
		<tag k="name" v="Lia" />
		<tag k="place" v="farm" />
		<tag k="ssr:stedsnr" v="789281" />
		<tag k="ssr:type" v="bruk" />
	</node>
	<node changeset="58861043" id="5610209363" lat="58.5003582" lon="6.9366205" timestamp="2018-05-10T20:38:16Z" uid="3842253" user="NKA_import" version="1">
		<tag k="name" v="Engedal" />
		<tag k="place" v="hamlet" />
		<tag k="ssr:stedsnr" v="364043" />
		<tag k="ssr:type" v="gard" />
	</node>
	<node changeset="58861043" id="5610209364" lat="58.4748972" lon="6.9159361" timestamp="2018-05-10T20:38:17Z" uid="3842253" user="NKA_import" version="1">
		<tag k="alt_name" v="Kvinlog, nedre;Kvinlaug, nedre;Nedre Kvinlaug" />
		<tag k="name" v="Nedre Kvinlog" />
		<tag k="place" v="farm" />
		<tag k="ssr:stedsnr" v="485064" />
		<tag k="ssr:type" v="gard" />
	</node>
	<node changeset="58861043" id="5610209365" lat="58.5097701" lon="7.0185346" timestamp="2018-05-10T20:38:17Z" uid="3842253" user="NKA_import" version="1">
		<tag k="name" v="Mygland" />
		<tag k="place" v="hamlet" />
		<tag k="ssr:stedsnr" v="485074" />
		<tag k="ssr:type" v="gard" />
	</node>
	<node changeset="58861043" id="5610209366" lat="58.6667281" lon="6.9826637" timestamp="2018-05-10T20:38:17Z" uid="3842253" user="NKA_import" version="1">
		<tag k="alt_name" v="Knaben" />
		<tag k="name" v="Knaben gard" />
		<tag k="place" v="hamlet" />
		<tag k="ssr:stedsnr" v="789315" />
		<tag k="ssr:type" v="gard" />
	</node>
	<node changeset="58861043" id="5610209367" lat="58.5304972" lon="6.9831667" timestamp="2018-05-10T20:38:17Z" uid="3842253" user="NKA_import" version="1">
		<tag k="alt_name" v="Vikje" />
		<tag k="name" v="Viga" />
		<tag k="place" v="farm" />
		<tag k="ssr:stedsnr" v="364118" />
		<tag k="ssr:type" v="bruk" />
	</node>
	<node changeset="58861043" id="5610209368" lat="58.4903028" lon="7.0277111" timestamp="2018-05-10T20:38:17Z" uid="3842253" user="NKA_import" version="1">
		<tag k="name" v="Grønnes" />
		<tag k="place" v="farm" />
		<tag k="ssr:stedsnr" v="485267" />
		<tag k="ssr:type" v="bruk" />
	</node>
	<node changeset="58861043" id="5610209369" lat="58.5404667" lon="6.9434361" timestamp="2018-05-10T20:38:17Z" uid="3842253" user="NKA_import" version="1">
		<tag k="alt_name" v="Røynebu;Røynebuen" />
		<tag k="name" v="Røynebuin" />
		<tag k="place" v="farm" />
		<tag k="ssr:stedsnr" v="789375" />
		<tag k="ssr:type" v="gard" />
	</node>
	<node changeset="58861043" id="5610209370" lat="58.2328639" lon="6.733425" timestamp="2018-05-10T20:38:17Z" uid="3842253" user="NKA_import" version="1">
		<tag k="name" v="Sveigenes" />
		<tag k="place" v="locality" />
		<tag k="ssr:stedsnr" v="364153" />
		<tag k="ssr:type" v="gammelBosettingsplass" />
	</node>
	<node changeset="58861043" id="5610209371" lat="58.7006222" lon="6.9754333" timestamp="2018-05-10T20:38:17Z" uid="3842253" user="NKA_import" version="1">
		<tag k="historic" v="shieling" />
		<tag k="name" v="Myrstøl" />
		<tag k="place" v="locality" />
		<tag k="ssr:stedsnr" v="364299" />
		<tag k="ssr:type" v="gammelBosettingsplass" />
	</node>
	<node changeset="58861043" id="5610209372" lat="58.544375" lon="7.0587861" timestamp="2018-05-10T20:38:17Z" uid="3842253" user="NKA_import" version="1">
		<tag k="name" v="Mjåvatn" />
		<tag k="place" v="locality" />
		<tag k="ssr:stedsnr" v="485328" />
		<tag k="ssr:type" v="gammelBosettingsplass" />
	</node>
	<node changeset="58861043" id="5610209373" lat="58.4385556" lon="7.1262111" timestamp="2018-05-10T20:38:17Z" uid="3842253" user="NKA_import" version="1">
		<tag k="historic" v="shieling" />
		<tag k="name" v="Herestøl" />
		<tag k="place" v="farm" />
		<tag k="ssr:stedsnr" v="119236" />
		<tag k="ssr:type" v="bruk" />
	</node>
	<node changeset="58861043" id="5610209374" lat="58.4086917" lon="6.9679528" timestamp="2018-05-10T20:38:17Z" uid="3842253" user="NKA_import" version="1">
		<tag k="name" v="Kleiva" />
		<tag k="place" v="farm" />
		<tag k="ssr:stedsnr" v="273132" />
		<tag k="ssr:type" v="bruk" />
	</node>
	<node changeset="58861043" id="5610209375" lat="58.3835925" lon="6.9498408" timestamp="2018-05-10T20:38:17Z" uid="3842253" user="NKA_import" version="1">
		<tag k="name" v="Røynestad" />
		<tag k="place" v="hamlet" />
		<tag k="ssr:stedsnr" v="120759" />
		<tag k="ssr:type" v="navnegard" />
	</node>
	<node changeset="58861043" id="5610209376" lat="58.4011139" lon="7.0738694" timestamp="2018-05-10T20:38:18Z" uid="3842253" user="NKA_import" version="1">
		<tag k="name" v="Fjellbakken" />
		<tag k="place" v="farm" />
		<tag k="ssr:stedsnr" v="273220" />
		<tag k="ssr:type" v="bruk" />
	</node>
	<node changeset="58861043" id="5610209377" lat="58.2646361" lon="7.022475" timestamp="2018-05-10T20:38:18Z" uid="3842253" user="NKA_import" version="1">
		<tag k="alt_name" v="Førland, austre;Østre Førland" />
		<tag k="name" v="Austre Førland" />
		<tag k="place" v="farm" />
		<tag k="ssr:stedsnr" v="789503" />
		<tag k="ssr:type" v="gard" />
	</node>
	<node changeset="58861043" id="5610209378" lat="58.4643972" lon="6.9895111" timestamp="2018-05-10T20:38:18Z" uid="3842253" user="NKA_import" version="1">
		<tag k="alt_name" v="Knipestøl" />
		<tag k="historic" v="shieling" />
		<tag k="name" v="Knibestøl" />
		<tag k="place" v="farm" />
		<tag k="ssr:stedsnr" v="364339" />
		<tag k="ssr:type" v="gard" />
	</node>
	<node changeset="58861043" id="5610209379" lat="58.5264889" lon="6.9998306" timestamp="2018-05-10T20:38:18Z" uid="3842253" user="NKA_import" version="1">
		<tag k="name" v="Karsvoll" />
		<tag k="place" v="farm" />
		<tag k="ssr:stedsnr" v="217075" />
		<tag k="ssr:type" v="bruk" />
	</node>
	<node changeset="58861043" id="5610209380" lat="58.4955972" lon="6.9582694" timestamp="2018-05-10T20:38:18Z" uid="3842253" user="NKA_import" version="1">
		<tag k="alt_name" v="Saurfiti" />
		<tag k="name" v="Saurfid" />
		<tag k="place" v="locality" />
		<tag k="ssr:stedsnr" v="121102" />
		<tag k="ssr:type" v="gammelBosettingsplass" />
	</node>
	<node changeset="58861043" id="5610209381" lat="58.4533444" lon="7.0152139" timestamp="2018-05-10T20:38:18Z" uid="3842253" user="NKA_import" version="1">
		<tag k="alt_name" v="Bruli, nedre;Nedre Brulien" />
		<tag k="name" v="Nedre Bruli" />
		<tag k="place" v="farm" />
		<tag k="ssr:stedsnr" v="364362" />
		<tag k="ssr:type" v="gard" />
	</node>
	<node changeset="58861043" id="5610209382" lat="58.3511333" lon="7.0759305" timestamp="2018-05-10T20:38:18Z" uid="3842253" user="NKA_import" version="1">
		<tag k="name" v="Fredheim" />
		<tag k="place" v="locality" />
		<tag k="ssr:stedsnr" v="273290" />
		<tag k="ssr:type" v="gammelBosettingsplass" />
	</node>
	<node changeset="58861043" id="5610209383" lat="58.3269861" lon="6.9965333" timestamp="2018-05-10T20:38:18Z" uid="3842253" user="NKA_import" version="1">
		<tag k="alt_name" v="Tørråsen" />
		<tag k="name" v="Tvøråsen" />
		<tag k="place" v="farm" />
		<tag k="ssr:stedsnr" v="789557" />
		<tag k="ssr:type" v="bruk" />
	</node>
	<node changeset="58861043" id="5610209384" lat="58.3475083" lon="7.067425" timestamp="2018-05-10T20:38:18Z" uid="3842253" user="NKA_import" version="1">
		<tag k="name" v="Stolpan" />
		<tag k="place" v="farm" />
		<tag k="ssr:stedsnr" v="273309" />
		<tag k="ssr:type" v="bruk" />
	</node>
	<node changeset="58861043" id="5610209385" lat="58.3162776" lon="6.9621338" timestamp="2018-05-10T20:38:18Z" uid="3842253" user="NKA_import" version="1">
		<tag k="name" v="Åmot" />
		<tag k="place" v="neighbourhood" />
		<tag k="ssr:stedsnr" v="485504" />
		<tag k="ssr:type" v="tettsted" />
	</node>
	<node changeset="58861043" id="5610209386" lat="58.7624278" lon="6.9514778" timestamp="2018-05-10T20:38:18Z" uid="3842253" user="NKA_import" version="1">
		<tag k="historic" v="shieling" />
		<tag k="name" v="Tjodnestøl" />
		<tag k="place" v="locality" />
		<tag k="ssr:stedsnr" v="217212" />
		<tag k="ssr:type" v="gammelBosettingsplass" />
	</node>
	<node changeset="58861043" id="5610209387" lat="58.3925111" lon="7.0040944" timestamp="2018-05-10T20:38:19Z" uid="3842253" user="NKA_import" version="1">
		<tag k="name" v="Solbjørg" />
		<tag k="place" v="farm" />
		<tag k="ssr:stedsnr" v="789647" />
		<tag k="ssr:type" v="gard" />
	</node>
	<node changeset="58861043" id="5610209388" lat="58.6658" lon="6.9209611" timestamp="2018-05-10T20:38:19Z" uid="3842253" user="NKA_import" version="1">
		<tag k="historic" v="shieling" />
		<tag k="name" v="Dyrlistølen" />
		<tag k="place" v="locality" />
		<tag k="ssr:stedsnr" v="485550" />
		<tag k="ssr:type" v="gammelBosettingsplass" />
	</node>
	<node changeset="58861043" id="5610209389" lat="58.3089806" lon="6.9541889" timestamp="2018-05-10T20:38:19Z" uid="3842253" user="NKA_import" version="1">
		<tag k="name" v="Faret" />
		<tag k="place" v="neighbourhood" />
		<tag k="ssr:stedsnr" v="364501" />
		<tag k="ssr:type" v="gard" />
	</node>
	<node changeset="58861043" id="5610209390" lat="58.3867778" lon="7.0847833" timestamp="2018-05-10T20:38:19Z" uid="3842253" user="NKA_import" version="1">
		<tag k="name" v="Nekkland" />
		<tag k="place" v="locality" />
		<tag k="ssr:stedsnr" v="485590" />
		<tag k="ssr:type" v="gammelBosettingsplass" />
	</node>
	<node changeset="58861043" id="5610209391" lat="58.5576361" lon="6.8497111" timestamp="2018-05-10T20:38:19Z" uid="3842253" user="NKA_import" version="1">
		<tag k="historic" v="shieling" />
		<tag k="name" v="Heimre stølen" />
		<tag k="place" v="locality" />
		<tag k="ssr:stedsnr" v="217257" />
		<tag k="ssr:type" v="byggForJordbrukFiskeOgFangst" />
	</node>
	<node changeset="58861043" id="5610209392" lat="58.3367278" lon="7.0455194" timestamp="2018-05-10T20:38:19Z" uid="3842253" user="NKA_import" version="1">
		<tag k="name" v="Kleivan" />
		<tag k="place" v="farm" />
		<tag k="ssr:stedsnr" v="789723" />
		<tag k="ssr:type" v="bruk" />
	</node>
	<node changeset="58861043" id="5610209393" lat="58.7550444" lon="7.0028333" timestamp="2018-05-10T20:38:19Z" uid="3842253" user="NKA_import" version="1">
		<tag k="historic" v="shieling" />
		<tag k="name" v="Øysteinsetet" />
		<tag k="place" v="locality" />
		<tag k="ssr:stedsnr" v="121341" />
		<tag k="ssr:type" v="seterStøl" />
	</node>
	<node changeset="58861043" id="5610209394" lat="58.6898095" lon="6.9458413" timestamp="2018-05-10T20:38:19Z" uid="3842253" user="NKA_import" version="1">
		<tag k="alt_name" v="Grådalsslåtta" />
		<tag k="historic" v="shieling" />
		<tag k="name" v="Grådalstøl" />
		<tag k="place" v="locality" />
		<tag k="ssr:stedsnr" v="364622" />
		<tag k="ssr:type" v="byggForJordbrukFiskeOgFangst" />
	</node>
	<node changeset="58861043" id="5610209395" lat="58.3596056" lon="7.0887694" timestamp="2018-05-10T20:38:19Z" uid="3842253" user="NKA_import" version="1">
		<tag k="historic" v="shieling" />
		<tag k="name" v="Heiestøl" />
		<tag k="place" v="farm" />
		<tag k="ssr:stedsnr" v="485676" />
		<tag k="ssr:type" v="bruk" />
	</node>
	<node changeset="58861043" id="5610209396" lat="58.4527214" lon="7.0223402" timestamp="2018-05-10T20:38:19Z" uid="3842253" user="NKA_import" version="1">
		<tag k="alt_name" v="Bruli, øvre;Brulien" />
		<tag k="name" v="Bruli" />
		<tag k="place" v="hamlet" />
		<tag k="ssr:stedsnr" v="121350" />
		<tag k="ssr:type" v="bruk" />
	</node>
	<node changeset="58861043" id="5610209397" lat="58.6371222" lon="6.9405694" timestamp="2018-05-10T20:38:19Z" uid="3842253" user="NKA_import" version="1">
		<tag k="name" v="Nordbø" />
		<tag k="place" v="hamlet" />
		<tag k="ssr:stedsnr" v="364637" />
		<tag k="ssr:type" v="bruk" />
	</node>
	<node changeset="58861043" id="5610209398" lat="58.4576583" lon="6.970625" timestamp="2018-05-10T20:38:20Z" uid="3842253" user="NKA_import" version="1">
		<tag k="historic" v="shieling" />
		<tag k="name" v="Årstøl" />
		<tag k="place" v="farm" />
		<tag k="ssr:stedsnr" v="121353" />
		<tag k="ssr:type" v="gard" />
	</node>
	<node changeset="58861043" id="5610209399" lat="58.438325" lon="7.0323" timestamp="2018-05-10T20:38:20Z" uid="3842253" user="NKA_import" version="1">
		<tag k="name" v="Steintland" />
		<tag k="place" v="farm" />
		<tag k="ssr:stedsnr" v="121366" />
		<tag k="ssr:type" v="gard" />
	</node>
	<node changeset="58861043" id="5610209400" lat="58.4184" lon="7.0770389" timestamp="2018-05-10T20:38:20Z" uid="3842253" user="NKA_import" version="1">
		<tag k="historic" v="shieling" />
		<tag k="loc_name" v="Audnestøl" />
		<tag k="name" v="Audalstøl" />
		<tag k="place" v="farm" />
		<tag k="ssr:stedsnr" v="364675" />
		<tag k="ssr:type" v="gard" />
	</node>
	<node changeset="58861043" id="5610209401" lat="58.5160528" lon="6.9001028" timestamp="2018-05-10T20:38:20Z" uid="3842253" user="NKA_import" version="1">
		<tag k="name" v="Stakkeland" />
		<tag k="place" v="farm" />
		<tag k="ssr:stedsnr" v="121369" />
		<tag k="ssr:type" v="gard" />
	</node>
	<node changeset="58861043" id="5610209402" lat="58.4255056" lon="6.9966583" timestamp="2018-05-10T20:38:20Z" uid="3842253" user="NKA_import" version="1">
		<tag k="name" v="Lauen" />
		<tag k="place" v="farm" />
		<tag k="ssr:stedsnr" v="364690" />
		<tag k="ssr:type" v="bruk" />
	</node>
	<node changeset="58861043" id="5610209403" lat="58.2895278" lon="6.9057389" timestamp="2018-05-10T20:38:20Z" uid="3842253" user="NKA_import" version="1">
		<tag k="name" v="Mølle" />
		<tag k="place" v="farm" />
		<tag k="ssr:stedsnr" v="31012" />
		<tag k="ssr:type" v="bruk" />
	</node>
	<node changeset="58861043" id="5610209404" lat="58.5620361" lon="7.0679694" timestamp="2018-05-10T20:38:20Z" uid="3842253" user="NKA_import" version="1">
		<tag k="alt_name" v="Mjåvassstølen" />
		<tag k="historic" v="shieling" />
		<tag k="name" v="Mjåvass-stølen" />
		<tag k="place" v="locality" />
		<tag k="ssr:stedsnr" v="121416" />
		<tag k="ssr:type" v="seterStøl" />
	</node>
	<node changeset="58861043" id="5610209405" lat="58.7693111" lon="6.9986" timestamp="2018-05-10T20:38:20Z" uid="3842253" user="NKA_import" version="1">
		<tag k="historic" v="shieling" />
		<tag k="name" v="Steinulvsstøl" />
		<tag k="old_name" v="Steinulvstøl" />
		<tag k="place" v="locality" />
		<tag k="ssr:stedsnr" v="486361" />
		<tag k="ssr:type" v="gammelBosettingsplass" />
	</node>
	<node changeset="58861043" id="5610209406" lat="58.5775768" lon="6.8756629" timestamp="2018-05-10T20:38:20Z" uid="3842253" user="NKA_import" version="1">
		<tag k="alt_name" v="Lindefjell" />
		<tag k="name" v="Lindefjeld" />
		<tag k="place" v="hamlet" />
		<tag k="ssr:stedsnr" v="364711" />
		<tag k="ssr:type" v="grend" />
	</node>
	<node changeset="58861043" id="5610209407" lat="58.77375" lon="6.9912611" timestamp="2018-05-10T20:38:20Z" uid="3842253" user="NKA_import" version="1">
		<tag k="historic" v="shieling" />
		<tag k="name" v="Snarbeinstøl" />
		<tag k="place" v="locality" />
		<tag k="ssr:stedsnr" v="486373" />
		<tag k="ssr:type" v="seterStøl" />
	</node>
	<node changeset="58861043" id="5610209408" lat="58.3464973" lon="6.9626661" timestamp="2018-05-10T20:38:21Z" uid="3842253" user="NKA_import" version="1">
		<tag k="name" v="Egenes" />
		<tag k="place" v="farm" />
		<tag k="ssr:stedsnr" v="121444" />
		<tag k="ssr:type" v="gard" />
	</node>
	<node changeset="58861043" id="5610209409" lat="58.33165" lon="7.0284806" timestamp="2018-05-10T20:38:21Z" uid="3842253" user="NKA_import" version="1">
		<tag k="name" v="Lian" />
		<tag k="place" v="farm" />
		<tag k="ssr:stedsnr" v="364714" />
		<tag k="ssr:type" v="bruk" />
	</node>
	<node changeset="58861043" id="5610209410" lat="58.3794333" lon="6.9951" timestamp="2018-05-10T20:38:21Z" uid="3842253" user="NKA_import" version="1">
		<tag k="alt_name" v="Egebrok" />
		<tag k="name" v="Eikebrokk" />
		<tag k="place" v="farm" />
		<tag k="ssr:stedsnr" v="364748" />
		<tag k="ssr:type" v="gard" />
	</node>
	<node changeset="58861043" id="5610209411" lat="58.3262917" lon="6.8788667" timestamp="2018-05-10T20:38:21Z" uid="3842253" user="NKA_import" version="1">
		<tag k="name" v="Rudlend" />
		<tag k="place" v="locality" />
		<tag k="ssr:stedsnr" v="121465" />
		<tag k="ssr:type" v="gammelBosettingsplass" />
	</node>
	<node changeset="58861043" id="5610209412" lat="58.2840972" lon="6.9109611" timestamp="2018-05-10T20:38:21Z" uid="3842253" user="NKA_import" version="1">
		<tag k="name" v="Stranda" />
		<tag k="place" v="farm" />
		<tag k="ssr:stedsnr" v="31125" />
		<tag k="ssr:type" v="bruk" />
	</node>
	<node changeset="58861043" id="5610209413" lat="58.2911377" lon="6.9176831" timestamp="2018-05-10T20:38:21Z" uid="3842253" user="NKA_import" version="1">
		<tag k="name" v="Øye skole" />
		<tag k="place" v="locality" />
		<tag k="ssr:stedsnr" v="274008" />
		<tag k="ssr:type" v="skole" />
	</node>
	<node changeset="58861043" id="5610209414" lat="58.3135139" lon="6.8928195" timestamp="2018-05-10T20:38:21Z" uid="3842253" user="NKA_import" version="1">
		<tag k="alt_name" v="Tonnåsen" />
		<tag k="name" v="Tunnåsen" />
		<tag k="place" v="locality" />
		<tag k="ssr:stedsnr" v="121494" />
		<tag k="ssr:type" v="gammelBosettingsplass" />
	</node>
	<node changeset="58861043" id="5610209415" lat="58.2717495" lon="6.8150364" timestamp="2018-05-10T20:38:21Z" uid="3842253" user="NKA_import" version="1">
		<tag k="name" v="Birkelandsstranda" />
		<tag k="place" v="neighbourhood" />
		<tag k="ssr:stedsnr" v="699879" />
		<tag k="ssr:type" v="boligfelt" />
	</node>
	<node changeset="58861043" id="5610209416" lat="58.3477889" lon="7.0227806" timestamp="2018-05-10T20:38:21Z" uid="3842253" user="NKA_import" version="1">
		<tag k="name" v="Mjelkebakkan" />
		<tag k="place" v="farm" />
		<tag k="ssr:stedsnr" v="121704" />
		<tag k="ssr:type" v="bruk" />
	</node>
	<node changeset="58861043" id="5610209417" lat="58.5609722" lon="6.8531694" timestamp="2018-05-10T20:38:21Z" uid="3842253" user="NKA_import" version="1">
		<tag k="historic" v="shieling" />
		<tag k="name" v="Selandstølen" />
		<tag k="place" v="locality" />
		<tag k="ssr:stedsnr" v="121729" />
		<tag k="ssr:type" v="gammelBosettingsplass" />
	</node>
	<node changeset="58861043" id="5610209418" lat="58.2701917" lon="6.8185583" timestamp="2018-05-10T20:38:22Z" uid="3842253" user="NKA_import" version="1">
		<tag k="amenity" v="nursing_home" />
		<tag k="name" v="Fedaheimen" />
		<tag k="ssr:stedsnr" v="942916" />
		<tag k="ssr:type" v="helseinstitusjon" />
	</node>
	<node changeset="58861043" id="5610209419" lat="58.4803139" lon="6.9596417" timestamp="2018-05-10T20:38:22Z" uid="3842253" user="NKA_import" version="1">
		<tag k="name" v="Årland" />
		<tag k="place" v="farm" />
		<tag k="ssr:stedsnr" v="606079" />
		<tag k="ssr:type" v="bruk" />
	</node>
	<node changeset="58861043" id="5610209420" lat="58.3955139" lon="6.9472278" timestamp="2018-05-10T20:38:22Z" uid="3842253" user="NKA_import" version="1">
		<tag k="name" v="Hagan" />
		<tag k="place" v="farm" />
		<tag k="ssr:stedsnr" v="516217" />
		<tag k="ssr:type" v="bruk" />
	</node>
	<node changeset="41893319" id="4382451395" lat="58.2133842" lon="6.7756144" timestamp="2016-09-03T17:40:06Z" uid="2569034" user="kche_import" version="1" />
	<node changeset="23985428" id="2951026848" lat="58.273108" lon="6.8888387" timestamp="2014-07-06T14:55:21Z" uid="1710144" user="rubund" version="1" />
	<node changeset="23985428" id="2951026849" lat="58.273186" lon="6.8894958" timestamp="2014-07-06T14:55:21Z" uid="1710144" user="rubund" version="1" />
	<node changeset="23985428" id="2951026850" lat="58.2732362" lon="6.8877788" timestamp="2014-07-06T14:55:21Z" uid="1710144" user="rubund" version="1" />
	<node changeset="23985428" id="2951026851" lat="58.2734257" lon="6.8875881" timestamp="2014-07-06T14:55:21Z" uid="1710144" user="rubund" version="1" />
	<node changeset="23985428" id="2951026852" lat="58.2737434" lon="6.8914036" timestamp="2014-07-06T14:55:21Z" uid="1710144" user="rubund" version="1" />
	<node changeset="23985428" id="2951026853" lat="58.27461" lon="6.8859672" timestamp="2014-07-06T14:55:21Z" uid="1710144" user="rubund" version="1" />
	<node changeset="23985428" id="2951026855" lat="58.2748649" lon="6.8855439" timestamp="2014-07-06T14:55:21Z" uid="1710144" user="rubund" version="1" />
	<node changeset="11971488" id="1797376168" lat="58.2143576" lon="6.7777163" timestamp="2012-06-21T18:25:53Z" uid="164049" user="kche" version="1" />
	<node changeset="23985428" id="2951026857" lat="58.2753039" lon="6.889729" timestamp="2014-07-06T14:55:22Z" uid="1710144" user="rubund" version="1" />
	<node changeset="23985428" id="2951026859" lat="58.2754042" lon="6.8949011" timestamp="2014-07-06T14:55:22Z" uid="1710144" user="rubund" version="1" />
	<node changeset="23985428" id="2951026860" lat="58.2755421" lon="6.8874941" timestamp="2014-07-06T14:55:22Z" uid="1710144" user="rubund" version="1" />
	<node changeset="58861043" id="5610207408" lat="58.2674528" lon="6.8861778" timestamp="2018-05-10T20:38:11Z" uid="3842253" user="NKA_import" version="1">
		<tag k="name" v="Guse" />
		<tag k="place" v="farm" />
		<tag k="ssr:stedsnr" v="335982" />
		<tag k="ssr:type" v="bruk" />
	</node>
	<node changeset="58861043" id="5610207409" lat="58.3189565" lon="6.9678803" timestamp="2018-05-10T20:38:12Z" uid="3842253" user="NKA_import" version="1">
		<tag k="name" v="Nedre Hetleskeid" />
		<tag k="place" v="neighbourhood" />
		<tag k="ssr:stedsnr" v="95539" />
		<tag k="ssr:type" v="boligfelt" />
	</node>
	<node changeset="58861043" id="5610207410" lat="58.3280194" lon="6.7939778" timestamp="2018-05-10T20:38:12Z" uid="3842253" user="NKA_import" version="1">
		<tag k="alt_name" v="Meland, store" />
		<tag k="name" v="Store Meland" />
		<tag k="place" v="farm" />
		<tag k="ssr:stedsnr" v="667429" />
		<tag k="ssr:type" v="gard" />
	</node>
	<node changeset="58861043" id="5610207411" lat="58.52865" lon="6.9781222" timestamp="2018-05-10T20:38:12Z" uid="3842253" user="NKA_import" version="1">
		<tag k="name" v="Vigebakken" />
		<tag k="place" v="farm" />
		<tag k="ssr:stedsnr" v="96045" />
		<tag k="ssr:type" v="bruk" />
	</node>
	<node changeset="58861043" id="5610207412" lat="58.2872694" lon="7.0913611" timestamp="2018-05-10T20:38:12Z" uid="3842253" user="NKA_import" version="1">
		<tag k="alt_name" v="Gauksdal" />
		<tag k="name" v="Gaustad" />
		<tag k="place" v="farm" />
		<tag k="ssr:stedsnr" v="667489" />
		<tag k="ssr:type" v="gard" />
	</node>
	<node changeset="58861043" id="5610207413" lat="58.349625" lon="6.966275" timestamp="2018-05-10T20:38:12Z" uid="3842253" user="NKA_import" version="1">
		<tag k="name" v="Bergan" />
		<tag k="place" v="farm" />
		<tag k="ssr:stedsnr" v="213108" />
		<tag k="ssr:type" v="bruk" />
	</node>
	<node changeset="58861043" id="5610207414" lat="58.3077528" lon="6.9729167" timestamp="2018-05-10T20:38:12Z" uid="3842253" user="NKA_import" version="1">
		<tag k="name" v="Husefjell" />
		<tag k="place" v="farm" />
		<tag k="ssr:stedsnr" v="667508" />
		<tag k="ssr:type" v="bruk" />
	</node>
	<node changeset="58861043" id="5610207415" lat="58.3202333" lon="7.0622806" timestamp="2018-05-10T20:38:12Z" uid="3842253" user="NKA_import" version="1">
		<tag k="alt_name" v="Sandvatn" />
		<tag k="name" v="Austre Sandvatn" />
		<tag k="place" v="locality" />
		<tag k="ssr:stedsnr" v="667520" />
		<tag k="ssr:type" v="gammelBosettingsplass" />
	</node>
	<node changeset="58861043" id="5610207416" lat="58.3129503" lon="6.9614519" timestamp="2018-05-10T20:38:12Z" uid="3842253" user="NKA_import" version="1">
		<tag k="name" v="Lunden" />
		<tag k="place" v="neighbourhood" />
		<tag k="ssr:stedsnr" v="763615" />
		<tag k="ssr:type" v="boligfelt" />
	</node>
	<node changeset="58861043" id="5610207417" lat="58.452575" lon="7.0103333" timestamp="2018-05-10T20:38:12Z" uid="3842253" user="NKA_import" version="1">
		<tag k="name" v="Furøyna" />
		<tag k="place" v="farm" />
		<tag k="ssr:stedsnr" v="460443" />
		<tag k="ssr:type" v="bruk" />
	</node>
	<node changeset="58861043" id="5610207418" lat="58.3872261" lon="7.0347985" timestamp="2018-05-10T20:38:12Z" uid="3842253" user="NKA_import" version="1">
		<tag k="name" v="Haugland" />
		<tag k="place" v="hamlet" />
		<tag k="ssr:stedsnr" v="907114" />
		<tag k="ssr:type" v="grend" />
	</node>
	<node changeset="58861043" id="5610207419" lat="58.5141944" lon="7.0178222" timestamp="2018-05-10T20:38:12Z" uid="3842253" user="NKA_import" version="1">
		<tag k="alt_name" v="Fossdal" />
		<tag k="name" v="Fossdalen" />
		<tag k="place" v="farm" />
		<tag k="ssr:stedsnr" v="910092" />
		<tag k="ssr:type" v="bruk" />
	</node>
	<node changeset="58861043" id="5610207420" lat="58.4106528" lon="7.0056667" timestamp="2018-05-10T20:38:12Z" uid="3842253" user="NKA_import" version="1">
		<tag k="name" v="Vatland" />
		<tag k="place" v="farm" />
		<tag k="ssr:stedsnr" v="667624" />
		<tag k="ssr:type" v="gard" />
	</node>
	<node changeset="23985428" id="2951026879" lat="58.275995" lon="6.8945831" timestamp="2014-07-06T14:55:22Z" uid="1710144" user="rubund" version="1" />
	<node changeset="23985428" id="2951026880" lat="58.2760186" lon="6.8854114" timestamp="2014-07-06T14:55:22Z" uid="1710144" user="rubund" version="1" />
	<node changeset="11971488" id="1797376196" lat="58.2144806" lon="6.7775893" timestamp="2012-06-21T18:25:54Z" uid="164049" user="kche" version="1" />
	<node changeset="23985428" id="2951026889" lat="58.2761969" lon="6.8840813" timestamp="2014-07-06T14:55:22Z" uid="1710144" user="rubund" version="1" />
	<node changeset="23985428" id="2951026907" lat="58.2764811" lon="6.8849292" timestamp="2014-07-06T14:55:23Z" uid="1710144" user="rubund" version="1" />
	<node changeset="23985428" id="2951026908" lat="58.2765034" lon="6.882889" timestamp="2014-07-06T14:55:23Z" uid="1710144" user="rubund" version="1" />
	<node changeset="23985428" id="2951026918" lat="58.2767139" lon="6.8957596" timestamp="2014-07-06T14:55:23Z" uid="1710144" user="rubund" version="1" />
	<node changeset="11971488" id="1797376231" lat="58.2146196" lon="6.7774457" timestamp="2012-06-21T18:25:55Z" uid="164049" user="kche" version="1" />
	<node changeset="58992693" id="5485758847" lat="58.2274494" lon="6.8218124" timestamp="2018-05-15T17:54:02Z" uid="2569034" user="kche_import" version="3">
		<tag k="name" v="Stønulvsknuden" />
		<tag k="natural" v="hill" />
		<tag k="place" v="locality" />
		<tag k="ssr:stedsnr" v="820354" />
	</node>
	<node changeset="11971488" id="1797376255" lat="58.2146951" lon="6.7772347" timestamp="2012-06-21T18:25:56Z" uid="164049" user="kche" version="1" />
	<node changeset="41893319" id="1797376258" lat="58.2147211" lon="6.7760246" timestamp="2016-09-03T17:40:45Z" uid="2569034" user="kche_import" version="2" />
	<node changeset="58861043" id="566669575" lat="58.2365892" lon="6.7988897" timestamp="2018-05-10T20:38:46Z" uid="3842253" user="NKA_import" version="5">
		<tag k="name" v="Dalen" />
		<tag k="place" v="farm" />
		<tag k="ssr:stedsnr" v="979674" />
		<tag k="ssr:type" v="navnegard" />
	</node>
	<node changeset="58861043" id="5610209357" lat="58.6424417" lon="6.9393444" timestamp="2018-05-10T20:38:16Z" uid="3842253" user="NKA_import" version="1">
		<tag k="name" v="Smisnes" />
		<tag k="place" v="farm" />
		<tag k="ssr:stedsnr" v="339953" />
		<tag k="ssr:type" v="bruk" />
	</node>
	<node changeset="11971488" id="1797376272" lat="58.2148712" lon="6.7768725" timestamp="2012-06-21T18:25:56Z" uid="164049" user="kche" version="1" />
	<node changeset="62995960" id="549326896" lat="58.2335588" lon="6.8620499" timestamp="2018-09-28T03:51:09Z" uid="164049" user="kche" version="6">
		<tag k="alt_name" v="Opofte" />
		<tag k="name" v="Oppofte" />
		<tag k="official_name" v="Oppofte" />
		<tag k="old_name" v="Oppåpta" />
		<tag k="place" v="hamlet" />
		<tag k="ssr:stedsnr" v="363044" />
		<tag k="ssr:type" v="gard" />
	</node>
	<node changeset="11971488" id="1797376296" lat="58.2150075" lon="6.7766536" timestamp="2012-06-21T18:25:56Z" uid="164049" user="kche" version="1" />
	<node changeset="11971488" id="1797376297" lat="58.2150159" lon="6.7764268" timestamp="2012-06-21T18:25:56Z" uid="164049" user="kche" version="1" />
	<node changeset="11971488" id="1797376299" lat="58.2150368" lon="6.7765502" timestamp="2012-06-21T18:25:56Z" uid="164049" user="kche" version="1" />
	<node changeset="58861043" id="522944874" lat="58.6239056" lon="6.9147778" timestamp="2018-05-10T20:38:45Z" uid="3842253" user="NKA_import" version="2">
		<tag k="alt_name" v="Neset" />
		<tag k="name" v="Netlandsnes" />
		<tag k="place" v="farm" />
		<tag k="ssr:stedsnr" v="61676" />
		<tag k="ssr:type" v="gard" />
	</node>
	<node changeset="58861043" id="522944875" lat="58.6560265" lon="6.9427577" timestamp="2018-05-10T20:38:45Z" uid="3842253" user="NKA_import" version="2">
		<tag k="name" v="Risnes" />
		<tag k="place" v="hamlet" />
		<tag k="ssr:stedsnr" v="789639" />
		<tag k="ssr:type" v="grend" />
	</node>
	<node changeset="58861043" id="522944876" lat="58.6654917" lon="7.0640349" timestamp="2018-05-10T20:38:45Z" uid="3842253" user="NKA_import" version="2">
		<tag k="name" v="Knaben" />
		<tag k="place" v="village" />
		<tag k="ssr:stedsnr" v="547285" />
		<tag k="ssr:type" v="bygdelagBygd" />
	</node>
	<node changeset="58917044" id="5485758844" lat="58.2263251" lon="6.8426478" timestamp="2018-05-13T07:00:30Z" uid="2569034" user="kche_import" version="2">
		<tag k="name" v="Fuglevika" />
		<tag k="natural" v="bay" />
		<tag k="ssr:stedsnr" v="335398" />
	</node>
	<node changeset="68617029" id="6367108373" lat="58.3104639" lon="6.9631911" timestamp="2019-03-28T08:54:40Z" uid="633013" user="Honning" version="1" />
	<node changeset="58861043" id="566675839" lat="58.2453472" lon="6.839125" timestamp="2018-05-10T20:38:46Z" uid="3842253" user="NKA_import" version="3">
		<tag k="alt_name" v="Rørvik, øvre" />
		<tag k="name" v="Øvre Rørvik" />
		<tag k="place" v="farm" />
		<tag k="ssr:stedsnr" v="121129" />
		<tag k="ssr:type" v="gard" />
	</node>
	<node changeset="41893319" id="1797375471" lat="58.2123191" lon="6.7779112" timestamp="2016-09-03T17:40:44Z" uid="2569034" user="kche_import" version="2" />
	<node changeset="41893319" id="1797376065" lat="58.2138897" lon="6.775753" timestamp="2016-09-03T17:40:45Z" uid="2569034" user="kche_import" version="2" />
	<node changeset="58861043" id="566669706" lat="58.2391557" lon="6.8102672" timestamp="2018-05-10T20:38:46Z" uid="3842253" user="NKA_import" version="2">
		<tag k="name" v="Skranefjell" />
		<tag k="place" v="hamlet" />
		<tag k="ssr:stedsnr" v="425117" />
		<tag k="ssr:type" v="gard" />
	</node>
	<node changeset="58861043" id="894728588" lat="58.2428395" lon="6.9438696" timestamp="2018-05-10T20:38:48Z" uid="3842253" user="NKA_import" version="2">
		<tag k="alt_name" v="Londal, øvre" />
		<tag k="name" v="Londal" />
		<tag k="place" v="locality" />
		<tag k="ssr:stedsnr" v="364144" />
		<tag k="ssr:type" v="gammelBosettingsplass" />
	</node>
	<node changeset="58861043" id="2150836631" lat="58.2551251" lon="6.8739274" timestamp="2018-05-10T20:38:49Z" uid="3842253" user="NKA_import" version="2">
		<tag k="name" v="Guse" />
		<tag k="place" v="farm" />
		<tag k="ssr:stedsnr" v="61290" />
		<tag k="ssr:type" v="bruk" />
	</node>
	<node changeset="58861043" id="566675869" lat="58.2478778" lon="6.8320528" timestamp="2018-05-10T20:38:46Z" uid="3842253" user="NKA_import" version="3">
		<tag k="alt_name" v="Rørvik, nedre;Lille Rørvik" />
		<tag k="name" v="Nedre Rørvik" />
		<tag k="place" v="farm" />
		<tag k="ssr:stedsnr" v="606123" />
		<tag k="ssr:type" v="gard" />
	</node>
	<node changeset="11971488" id="1797376425" lat="58.2162607" lon="6.7751886" timestamp="2012-06-21T18:25:59Z" uid="164049" user="kche" version="1" />
	<node changeset="15700323" id="2264401182" lat="58.2255054" lon="6.826003" timestamp="2013-04-12T11:58:12Z" uid="164049" user="kche" version="1" />
	<node changeset="58861043" id="5610209721" lat="58.2877833" lon="6.9235472" timestamp="2018-05-10T20:38:22Z" uid="3842253" user="NKA_import" version="1">
		<tag k="name" v="Rob" />
		<tag k="place" v="farm" />
		<tag k="ssr:stedsnr" v="820008" />
		<tag k="ssr:type" v="bruk" />
	</node>
	<node changeset="58861043" id="5610209722" lat="58.2359333" lon="6.7994889" timestamp="2018-05-10T20:38:22Z" uid="3842253" user="NKA_import" version="1">
		<tag k="alt_name" v="Dalen øvre;Dalen" />
		<tag k="name" v="Øvre Dalen" />
		<tag k="place" v="farm" />
		<tag k="ssr:stedsnr" v="606128" />
		<tag k="ssr:type" v="gard" />
	</node>
	<node changeset="58861043" id="5610209723" lat="58.288275" lon="6.9408667" timestamp="2018-05-10T20:38:22Z" uid="3842253" user="NKA_import" version="1">
		<tag k="name" v="Åse" />
		<tag k="place" v="farm" />
		<tag k="ssr:stedsnr" v="606260" />
		<tag k="ssr:type" v="bruk" />
	</node>
	<node changeset="58861043" id="5610209724" lat="58.6702361" lon="6.9035944" timestamp="2018-05-10T20:38:22Z" uid="3842253" user="NKA_import" version="1">
		<tag k="historic" v="shieling" />
		<tag k="name" v="Sandtjødnstøl" />
		<tag k="place" v="locality" />
		<tag k="ssr:stedsnr" v="945186" />
		<tag k="ssr:type" v="gammelBosettingsplass" />
	</node>
	<node changeset="58861043" id="5610209725" lat="58.2939167" lon="6.941425" timestamp="2018-05-10T20:38:22Z" uid="3842253" user="NKA_import" version="1">
		<tag k="name" v="Kloster" />
		<tag k="place" v="farm" />
		<tag k="ssr:stedsnr" v="606266" />
		<tag k="ssr:type" v="gard" />
	</node>
	<node changeset="58861043" id="5610209726" lat="58.2804104" lon="6.9977467" timestamp="2018-05-10T20:38:22Z" uid="3842253" user="NKA_import" version="1">
		<tag k="alt_name" v="Tågås" />
		<tag k="name" v="Tågåsen" />
		<tag k="place" v="farm" />
		<tag k="ssr:stedsnr" v="820068" />
		<tag k="ssr:type" v="gard" />
	</node>
	<node changeset="58861043" id="5610209727" lat="58.3123778" lon="6.9455083" timestamp="2018-05-10T20:38:22Z" uid="3842253" user="NKA_import" version="1">
		<tag k="alt_name" v="Jonsmyren" />
		<tag k="name" v="Jomyr" />
		<tag k="place" v="farm" />
		<tag k="ssr:stedsnr" v="274637" />
		<tag k="ssr:type" v="gard" />
	</node>
	<node changeset="58861043" id="5610209728" lat="58.2561528" lon="6.8964055" timestamp="2018-05-10T20:38:22Z" uid="3842253" user="NKA_import" version="1">
		<tag k="alt_name" v="Dyrstøl" />
		<tag k="historic" v="shieling" />
		<tag k="name" v="Dyrstad" />
		<tag k="place" v="farm" />
		<tag k="ssr:stedsnr" v="606289" />
		<tag k="ssr:type" v="gard" />
	</node>
	<node changeset="58861043" id="5610209729" lat="58.3076972" lon="6.9647694" timestamp="2018-05-10T20:38:23Z" uid="3842253" user="NKA_import" version="1">
		<tag k="name" v="Kjelve" />
		<tag k="place" v="neighbourhood" />
		<tag k="ssr:stedsnr" v="274652" />
		<tag k="ssr:type" v="bruk" />
	</node>
	<node changeset="58861043" id="5610209730" lat="58.5911861" lon="7.067125" timestamp="2018-05-10T20:38:23Z" uid="3842253" user="NKA_import" version="1">
		<tag k="historic" v="shieling" />
		<tag k="name" v="Åkrokstølen" />
		<tag k="place" v="locality" />
		<tag k="ssr:stedsnr" v="218571" />
		<tag k="ssr:type" v="gammelBosettingsplass" />
	</node>
	<node changeset="58861043" id="5610209731" lat="58.3286011" lon="6.9871895" timestamp="2018-05-10T20:38:23Z" uid="3842253" user="NKA_import" version="1">
		<tag k="name" v="Hamrelia" />
		<tag k="place" v="neighbourhood" />
		<tag k="ssr:stedsnr" v="152049" />
		<tag k="ssr:type" v="boligfelt" />
	</node>
	<node changeset="58861043" id="5610209732" lat="58.5534722" lon="6.96995" timestamp="2018-05-10T20:38:23Z" uid="3842253" user="NKA_import" version="1">
		<tag k="alt_name" v="Bergesti" />
		<tag k="loc_name" v="Bergsli" />
		<tag k="name" v="Bergesli" />
		<tag k="place" v="farm" />
		<tag k="ssr:stedsnr" v="606362" />
		<tag k="ssr:type" v="bruk" />
	</node>
	<node changeset="58861043" id="5610209733" lat="58.2359444" lon="6.8558889" timestamp="2018-05-10T20:38:23Z" uid="3842253" user="NKA_import" version="1">
		<tag k="name" v="Broddevollen" />
		<tag k="place" v="farm" />
		<tag k="ssr:stedsnr" v="32405" />
		<tag k="ssr:type" v="bruk" />
	</node>
	<node changeset="58861043" id="5610209734" lat="58.3222417" lon="6.8617556" timestamp="2018-05-10T20:38:23Z" uid="3842253" user="NKA_import" version="1">
		<tag k="name" v="Fondal" />
		<tag k="place" v="locality" />
		<tag k="ssr:stedsnr" v="606474" />
		<tag k="ssr:type" v="gammelBosettingsplass" />
	</node>
	<node changeset="58861043" id="5610209735" lat="58.3084056" lon="6.8988028" timestamp="2018-05-10T20:38:23Z" uid="3842253" user="NKA_import" version="1">
		<tag k="name" v="Store Solbjørg" />
		<tag k="place" v="farm" />
		<tag k="ssr:stedsnr" v="606484" />
		<tag k="ssr:type" v="gard" />
	</node>
	<node changeset="58861043" id="5610209736" lat="58.651525" lon="6.9472722" timestamp="2018-05-10T20:38:23Z" uid="3842253" user="NKA_import" version="1">
		<tag k="name" v="Fredheim" />
		<tag k="place" v="farm" />
		<tag k="ssr:stedsnr" v="702792" />
		<tag k="ssr:type" v="bruk" />
	</node>
	<node changeset="58861043" id="5610209737" lat="58.6676611" lon="6.9662806" timestamp="2018-05-10T20:38:23Z" uid="3842253" user="NKA_import" version="1">
		<tag k="alt_name" v="Brulund" />
		<tag k="name" v="Brulunden" />
		<tag k="place" v="farm" />
		<tag k="ssr:stedsnr" v="606591" />
		<tag k="ssr:type" v="bruk" />
	</node>
	<node changeset="58861043" id="5610209738" lat="58.2550139" lon="7.044125" timestamp="2018-05-10T20:38:23Z" uid="3842253" user="NKA_import" version="1">
		<tag k="name" v="Himaløa" />
		<tag k="place" v="locality" />
		<tag k="ssr:stedsnr" v="275119" />
		<tag k="ssr:type" v="gammelBosettingsplass" />
	</node>
	<node changeset="58861043" id="5610209739" lat="58.2852167" lon="6.8978611" timestamp="2018-05-10T20:38:23Z" uid="3842253" user="NKA_import" version="1">
		<tag k="name" v="Livollen" />
		<tag k="place" v="farm" />
		<tag k="ssr:stedsnr" v="152137" />
		<tag k="ssr:type" v="bruk" />
	</node>
	<node changeset="58861043" id="5610209740" lat="58.3977694" lon="7.0471778" timestamp="2018-05-10T20:38:24Z" uid="3842253" user="NKA_import" version="1">
		<tag k="name" v="Gåseland" />
		<tag k="place" v="farm" />
		<tag k="ssr:stedsnr" v="606630" />
		<tag k="ssr:type" v="gard" />
	</node>
	<node changeset="58861043" id="5610209741" lat="58.57265" lon="6.912425" timestamp="2018-05-10T20:38:24Z" uid="3842253" user="NKA_import" version="1">
		<tag k="name" v="Solli" />
		<tag k="place" v="farm" />
		<tag k="ssr:stedsnr" v="606689" />
		<tag k="ssr:type" v="gard" />
	</node>
	<node changeset="58861043" id="5610209742" lat="58.52685" lon="7.0079945" timestamp="2018-05-10T20:38:24Z" uid="3842253" user="NKA_import" version="1">
		<tag k="name" v="Midbø" />
		<tag k="place" v="farm" />
		<tag k="ssr:stedsnr" v="35081" />
		<tag k="ssr:type" v="bruk" />
	</node>
	<node changeset="58861043" id="5610209743" lat="58.3477041" lon="6.9716108" timestamp="2018-05-10T20:38:24Z" uid="3842253" user="NKA_import" version="1">
		<tag k="alt_name" v="Trælland" />
		<tag k="name" v="Træland" />
		<tag k="place" v="hamlet" />
		<tag k="ssr:stedsnr" v="606695" />
		<tag k="ssr:type" v="gard" />
	</node>
	<node changeset="58861043" id="5610209744" lat="58.7904556" lon="7.01045" timestamp="2018-05-10T20:38:24Z" uid="3842253" user="NKA_import" version="1">
		<tag k="historic" v="shieling" />
		<tag k="name" v="Steinulvstølstølen" />
		<tag k="place" v="locality" />
		<tag k="ssr:stedsnr" v="703008" />
		<tag k="ssr:type" v="gammelBosettingsplass" />
	</node>
	<node changeset="58861043" id="5610209745" lat="58.3602944" lon="6.983125" timestamp="2018-05-10T20:38:24Z" uid="3842253" user="NKA_import" version="1">
		<tag k="name" v="Solbarm" />
		<tag k="place" v="farm" />
		<tag k="ssr:stedsnr" v="606715" />
		<tag k="ssr:type" v="gard" />
	</node>
	<node changeset="58861043" id="5610209746" lat="58.6043667" lon="7.0565667" timestamp="2018-05-10T20:38:24Z" uid="3842253" user="NKA_import" version="1">
		<tag k="name" v="Botneløå" />
		<tag k="place" v="locality" />
		<tag k="ssr:stedsnr" v="35136" />
		<tag k="ssr:type" v="gammelBosettingsplass" />
	</node>
	<node changeset="70279990" id="5610209747" lat="58.270544" lon="6.817146" timestamp="2019-05-15T14:57:22Z" uid="3497659" user="NKA" version="6">
		<tag k="amenity" v="school" />
		<tag k="capacity" v="46" />
		<tag k="email" v="feda.skole@kvinesdal.kommune.no" />
		<tag k="fee" v="no" />
		<tag k="grades" v="1-7" />
		<tag k="isced:level" v="1" />
		<tag k="name" v="Feda skole" />
		<tag k="operator" v="Kvinesdal kommune" />
		<tag k="operator:type" v="public" />
		<tag k="phone" v="+47 38 35 41 20" />
		<tag k="ref:gsi" v="10076" />
		<tag k="ref:udir_nsr" v="1006474" />
		<tag k="ssr:stedsnr" v="275908" />
		<tag k="ssr:type" v="skole" />
		<tag k="website" v="http://feda.skole.no" />
	</node>
	<node changeset="58861043" id="5610209748" lat="58.3212778" lon="6.934675" timestamp="2018-05-10T20:38:24Z" uid="3842253" user="NKA_import" version="1">
		<tag k="historic" v="shieling" />
		<tag k="name" v="Knarvestøl" />
		<tag k="place" v="locality" />
		<tag k="ssr:stedsnr" v="152357" />
		<tag k="ssr:type" v="gammelBosettingsplass" />
	</node>
	<node changeset="58861043" id="5610209749" lat="58.5130583" lon="6.9088583" timestamp="2018-05-10T20:38:24Z" uid="3842253" user="NKA_import" version="1">
		<tag k="name" v="Hagen" />
		<tag k="place" v="farm" />
		<tag k="ssr:stedsnr" v="703187" />
		<tag k="ssr:type" v="bruk" />
	</node>
	<node changeset="58861043" id="5610209750" lat="58.2843667" lon="7.0859583" timestamp="2018-05-10T20:38:24Z" uid="3842253" user="NKA_import" version="1">
		<tag k="name" v="Nylende" />
		<tag k="place" v="locality" />
		<tag k="ssr:stedsnr" v="516960" />
		<tag k="ssr:type" v="gammelBosettingsplass" />
	</node>
	<node changeset="58861043" id="5610209751" lat="58.2678417" lon="6.9041361" timestamp="2018-05-10T20:38:24Z" uid="3842253" user="NKA_import" version="1">
		<tag k="name" v="Dyrli" />
		<tag k="place" v="locality" />
		<tag k="ssr:stedsnr" v="242292" />
		<tag k="ssr:type" v="gammelBosettingsplass" />
	</node>
	<node changeset="70279990" id="5610209752" lat="58.356411" lon="7.034078" timestamp="2019-05-15T14:57:22Z" uid="3497659" user="NKA" version="6">
		<tag k="amenity" v="school" />
		<tag k="capacity" v="64" />
		<tag k="email" v="austerdalen.skole@kvinesdal.kommune.no" />
		<tag k="fee" v="no" />
		<tag k="grades" v="1-7" />
		<tag k="isced:level" v="1" />
		<tag k="name" v="Austerdalen skole" />
		<tag k="operator" v="Kvinesdal kommune" />
		<tag k="operator:type" v="public" />
		<tag k="phone" v="+47 38 35 78 21" />
		<tag k="ref:gsi" v="10095" />
		<tag k="ref:udir_nsr" v="1008361" />
		<tag k="ssr:stedsnr" v="242492" />
		<tag k="ssr:type" v="skole" />
		<tag k="website" v="http://austerdalen.skole.no" />
	</node>
	<node changeset="58861043" id="5610209753" lat="58.5190778" lon="7.0387583" timestamp="2018-05-10T20:38:25Z" uid="3842253" user="NKA_import" version="1">
		<tag k="alt_name" v="Vordalen" />
		<tag k="name" v="Vordal" />
		<tag k="place" v="farm" />
		<tag k="ssr:stedsnr" v="243097" />
		<tag k="ssr:type" v="gard" />
	</node>
	<node changeset="58861043" id="5610209754" lat="58.23825" lon="6.7965056" timestamp="2018-05-10T20:38:25Z" uid="3842253" user="NKA_import" version="1">
		<tag k="alt_name" v="Dalen nedre" />
		<tag k="name" v="Nedre Dalen" />
		<tag k="place" v="farm" />
		<tag k="ssr:stedsnr" v="821272" />
		<tag k="ssr:type" v="gard" />
	</node>
	<node changeset="58861043" id="5610209755" lat="58.296175" lon="6.9521305" timestamp="2018-05-10T20:38:25Z" uid="3842253" user="NKA_import" version="1">
		<tag k="name" v="Liland" />
		<tag k="place" v="farm" />
		<tag k="ssr:stedsnr" v="243263" />
		<tag k="ssr:type" v="gard" />
	</node>
	<node changeset="58861043" id="5610209756" lat="58.2788861" lon="6.9181139" timestamp="2018-05-10T20:38:25Z" uid="3842253" user="NKA_import" version="1">
		<tag k="name" v="Skjerli" />
		<tag k="place" v="farm" />
		<tag k="ssr:stedsnr" v="243282" />
		<tag k="ssr:type" v="bruk" />
	</node>
	<node changeset="58861043" id="5610209757" lat="58.5811861" lon="7.0680417" timestamp="2018-05-10T20:38:25Z" uid="3842253" user="NKA_import" version="1">
		<tag k="alt_name" v="Gurostolan" />
		<tag k="historic" v="shieling" />
		<tag k="name" v="Gurostølen" />
		<tag k="place" v="locality" />
		<tag k="ssr:stedsnr" v="243409" />
		<tag k="ssr:type" v="gammelBosettingsplass" />
	</node>
	<node changeset="58861043" id="5610209758" lat="58.3587111" lon="6.9651306" timestamp="2018-05-10T20:38:25Z" uid="3842253" user="NKA_import" version="1">
		<tag k="name" v="Lyding" />
		<tag k="place" v="hamlet" />
		<tag k="ssr:stedsnr" v="243450" />
		<tag k="ssr:type" v="grend" />
	</node>
	<node changeset="58861043" id="5610209759" lat="58.3113889" lon="6.8251111" timestamp="2018-05-10T20:38:25Z" uid="3842253" user="NKA_import" version="1">
		<tag k="alt_name" v="Lone" />
		<tag k="name" v="Lona" />
		<tag k="place" v="farm" />
		<tag k="ssr:stedsnr" v="243497" />
		<tag k="ssr:type" v="gard" />
	</node>
	<node changeset="58861043" id="5610209760" lat="58.3098028" lon="7.0578278" timestamp="2018-05-10T20:38:25Z" uid="3842253" user="NKA_import" version="1">
		<tag k="name" v="Stronda" />
		<tag k="place" v="locality" />
		<tag k="ssr:stedsnr" v="243550" />
		<tag k="ssr:type" v="gammelBosettingsplass" />
	</node>
	<node changeset="58861043" id="5610209761" lat="58.3094972" lon="6.9591028" timestamp="2018-05-10T20:38:25Z" uid="3842253" user="NKA_import" version="1">
		<tag k="amenity" v="nursing_home" />
		<tag k="name" v="Kvinesdal omsorgsenter" />
		<tag k="ssr:stedsnr" v="152682" />
		<tag k="ssr:type" v="helseinstitusjon" />
	</node>
	<node changeset="58861043" id="5610209762" lat="58.3110056" lon="7.0065167" timestamp="2018-05-10T20:38:25Z" uid="3842253" user="NKA_import" version="1">
		<tag k="name" v="Solås" />
		<tag k="place" v="farm" />
		<tag k="ssr:stedsnr" v="243561" />
		<tag k="ssr:type" v="gard" />
	</node>
	<node changeset="58861043" id="5610209763" lat="58.2602417" lon="6.986775" timestamp="2018-05-10T20:38:25Z" uid="3842253" user="NKA_import" version="1">
		<tag k="alt_name" v="Nordhelle, litle" />
		<tag k="name" v="Lille Nordhelle" />
		<tag k="place" v="farm" />
		<tag k="ssr:stedsnr" v="243613" />
		<tag k="ssr:type" v="gard" />
	</node>
	<node changeset="58861043" id="5610209764" lat="58.5353833" lon="6.9410083" timestamp="2018-05-10T20:38:25Z" uid="3842253" user="NKA_import" version="1">
		<tag k="name" v="Plassen" />
		<tag k="place" v="farm" />
		<tag k="ssr:stedsnr" v="399028" />
		<tag k="ssr:type" v="bruk" />
	</node>
	<node changeset="58861043" id="5610209765" lat="58.3933917" lon="7.0398694" timestamp="2018-05-10T20:38:26Z" uid="3842253" user="NKA_import" version="1">
		<tag k="alt_name" v="Hola" />
		<tag k="name" v="Kleivan" />
		<tag k="place" v="farm" />
		<tag k="ssr:stedsnr" v="243660" />
		<tag k="ssr:type" v="bruk" />
	</node>
	<node changeset="58861043" id="5610209766" lat="58.4238972" lon="6.9732667" timestamp="2018-05-10T20:38:26Z" uid="3842253" user="NKA_import" version="1">
		<tag k="name" v="Versland" />
		<tag k="place" v="farm" />
		<tag k="ssr:stedsnr" v="243692" />
		<tag k="ssr:type" v="gard" />
	</node>
	<node changeset="58861043" id="5610209767" lat="58.4201821" lon="7.0409699" timestamp="2018-05-10T20:38:26Z" uid="3842253" user="NKA_import" version="1">
		<tag k="building" v="cabin" />
		<tag k="historic" v="shieling" />
		<tag k="name" v="Ytstestøl" />
		<tag k="place" v="isolated_dwelling" />
		<tag k="ssr:stedsnr" v="243694" />
		<tag k="ssr:type" v="fritidsbolig" />
	</node>
	<node changeset="58861043" id="5610209768" lat="58.5019056" lon="7.0626694" timestamp="2018-05-10T20:38:26Z" uid="3842253" user="NKA_import" version="1">
		<tag k="name" v="Åsen, indre" />
		<tag k="place" v="farm" />
		<tag k="ssr:stedsnr" v="35821" />
		<tag k="ssr:type" v="gard" />
	</node>
	<node changeset="58861043" id="5610209769" lat="58.3777" lon="6.9721556" timestamp="2018-05-10T20:38:26Z" uid="3842253" user="NKA_import" version="1">
		<tag k="name" v="Skjekkeland" />
		<tag k="place" v="farm" />
		<tag k="ssr:stedsnr" v="243746" />
		<tag k="ssr:type" v="gard" />
	</node>
	<node changeset="58861043" id="5610209770" lat="58.3781972" lon="7.0366278" timestamp="2018-05-10T20:38:26Z" uid="3842253" user="NKA_import" version="1">
		<tag k="alt_name" v="Haugland, ytre" />
		<tag k="name" v="Ytre Haugland" />
		<tag k="place" v="farm" />
		<tag k="ssr:stedsnr" v="243751" />
		<tag k="ssr:type" v="gard" />
	</node>
	<node changeset="58861043" id="5610209771" lat="58.3428861" lon="6.9555833" timestamp="2018-05-10T20:38:26Z" uid="3842253" user="NKA_import" version="1">
		<tag k="name" v="Øygarden" />
		<tag k="place" v="locality" />
		<tag k="ssr:stedsnr" v="637407" />
		<tag k="ssr:type" v="gammelBosettingsplass" />
	</node>
	<node changeset="58861043" id="5610209772" lat="58.3703028" lon="6.9788722" timestamp="2018-05-10T20:38:26Z" uid="3842253" user="NKA_import" version="1">
		<tag k="name" v="Slettevollen" />
		<tag k="place" v="farm" />
		<tag k="ssr:stedsnr" v="418203" />
		<tag k="ssr:type" v="bruk" />
	</node>
	<node changeset="58861043" id="5610209773" lat="58.4687111" lon="6.93125" timestamp="2018-05-10T20:38:26Z" uid="3842253" user="NKA_import" version="1">
		<tag k="name" v="Helle" />
		<tag k="place" v="hamlet" />
		<tag k="ssr:stedsnr" v="425057" />
		<tag k="ssr:type" v="gard" />
	</node>
	<node changeset="58861043" id="5610209774" lat="58.2421167" lon="6.766925" timestamp="2018-05-10T20:38:26Z" uid="3842253" user="NKA_import" version="1">
		<tag k="alt_name" v="Litlehamn" />
		<tag k="name" v="Lillehavn" />
		<tag k="place" v="locality" />
		<tag k="ssr:stedsnr" v="728104" />
		<tag k="ssr:type" v="gammelBosettingsplass" />
	</node>
	<node changeset="58861043" id="5610209775" lat="58.4316028" lon="6.9242083" timestamp="2018-05-10T20:38:26Z" uid="3842253" user="NKA_import" version="1">
		<tag k="alt_name" v="Saga" />
		<tag k="name" v="Sagen" />
		<tag k="place" v="farm" />
		<tag k="ssr:stedsnr" v="425085" />
		<tag k="ssr:type" v="bruk" />
	</node>
	<node changeset="58861043" id="5610209776" lat="58.4435806" lon="6.9129361" timestamp="2018-05-10T20:38:26Z" uid="3842253" user="NKA_import" version="1">
		<tag k="name" v="Narvestad" />
		<tag k="place" v="farm" />
		<tag k="ssr:stedsnr" v="425098" />
		<tag k="ssr:type" v="gard" />
	</node>
	<node changeset="58861043" id="5610209777" lat="58.2827278" lon="6.8286278" timestamp="2018-05-10T20:38:27Z" uid="3842253" user="NKA_import" version="1">
		<tag k="alt_name" v="Høiland" />
		<tag k="name" v="Høyland" />
		<tag k="place" v="farm" />
		<tag k="ssr:stedsnr" v="728236" />
		<tag k="ssr:type" v="gard" />
	</node>
	<node changeset="58861043" id="5610209778" lat="58.3013787" lon="6.96315" timestamp="2018-05-10T20:38:27Z" uid="3842253" user="NKA_import" version="1">
		<tag k="name" v="Ytre Rebbåsen" />
		<tag k="place" v="farm" />
		<tag k="ssr:stedsnr" v="973282" />
		<tag k="ssr:type" v="bruk" />
	</node>
	<node changeset="58861043" id="5610209779" lat="58.3019327" lon="6.967083" timestamp="2018-05-10T20:38:27Z" uid="3842253" user="NKA_import" version="1">
		<tag k="name" v="Indre Rebbåsen" />
		<tag k="place" v="farm" />
		<tag k="ssr:stedsnr" v="973284" />
		<tag k="ssr:type" v="bruk" />
	</node>
	<node changeset="58861043" id="5610209780" lat="58.5568417" lon="6.9541083" timestamp="2018-05-10T20:38:27Z" uid="3842253" user="NKA_import" version="1">
		<tag k="historic" v="shieling" />
		<tag k="name" v="Røynebustølen" />
		<tag k="place" v="locality" />
		<tag k="ssr:stedsnr" v="399361" />
		<tag k="ssr:type" v="byggForJordbrukFiskeOgFangst" />
	</node>
	<node changeset="58861043" id="5610209781" lat="58.2975667" lon="7.0530528" timestamp="2018-05-10T20:38:27Z" uid="3842253" user="NKA_import" version="1">
		<tag k="name" v="Hidreskog" />
		<tag k="place" v="farm" />
		<tag k="ssr:stedsnr" v="728520" />
		<tag k="ssr:type" v="gard" />
	</node>
	<node changeset="58861043" id="5610209782" lat="58.2582889" lon="7.0459417" timestamp="2018-05-10T20:38:27Z" uid="3842253" user="NKA_import" version="1">
		<tag k="alt_name" v="Slettås" />
		<tag k="name" v="Steindør" />
		<tag k="place" v="farm" />
		<tag k="ssr:stedsnr" v="728599" />
		<tag k="ssr:type" v="bruk" />
	</node>
	<node changeset="58861043" id="5610209783" lat="58.2746362" lon="6.8768594" timestamp="2018-05-10T20:38:27Z" uid="3842253" user="NKA_import" version="1">
		<tag k="building" v="industrial" />
		<tag k="industrial" v="factory" />
		<tag k="name" v="Trælandsfos" />
		<tag k="ssr:stedsnr" v="153966" />
		<tag k="ssr:type" v="fabrikk" />
	</node>
	<node changeset="58861043" id="5610209784" lat="58.4019889" lon="7.0556694" timestamp="2018-05-10T20:38:27Z" uid="3842253" user="NKA_import" version="1">
		<tag k="historic" v="shieling" />
		<tag k="name" v="Kalvstøl" />
		<tag k="place" v="farm" />
		<tag k="ssr:stedsnr" v="728619" />
		<tag k="ssr:type" v="gard" />
	</node>
	<node changeset="58861043" id="5610209785" lat="58.3182167" lon="6.8960028" timestamp="2018-05-10T20:38:27Z" uid="3842253" user="NKA_import" version="1">
		<tag k="name" v="Lauvås" />
		<tag k="place" v="locality" />
		<tag k="ssr:stedsnr" v="637565" />
		<tag k="ssr:type" v="gammelBosettingsplass" />
	</node>
	<node changeset="58861043" id="5610209786" lat="58.5735665" lon="6.9898292" timestamp="2018-05-10T20:38:27Z" uid="3842253" user="NKA_import" version="1">
		<tag k="name" v="Førlandsås" />
		<tag k="place" v="farm" />
		<tag k="ssr:stedsnr" v="425412" />
		<tag k="ssr:type" v="fritidsbolig" />
	</node>
	<node changeset="58861043" id="5610209787" lat="58.2978278" lon="7.0837583" timestamp="2018-05-10T20:38:27Z" uid="3842253" user="NKA_import" version="1">
		<tag k="alt_name" v="Haugan;Heien" />
		<tag k="name" v="Hauan" />
		<tag k="place" v="farm" />
		<tag k="ssr:stedsnr" v="60498" />
		<tag k="ssr:type" v="gard" />
	</node>
	<node changeset="58861043" id="5610209788" lat="58.4223833" lon="6.9147056" timestamp="2018-05-10T20:38:28Z" uid="3842253" user="NKA_import" version="1">
		<tag k="name" v="Plassen" />
		<tag k="place" v="locality" />
		<tag k="ssr:stedsnr" v="637676" />
		<tag k="ssr:type" v="gammelBosettingsplass" />
	</node>
	<node changeset="70162877" id="5610209789" lat="58.315192" lon="6.957439" timestamp="2019-05-12T15:05:17Z" uid="3497659" user="NKA" version="5">
		<tag k="alt_name" v="Kvinesdal videregående skole" />
		<tag k="amenity" v="school" />
		<tag k="email" v="flekkefjord.vgs@vaf.no" />
		<tag k="fee" v="no" />
		<tag k="grades" v="11-14" />
		<tag k="isced:level" v="3" />
		<tag k="name" v="Flekkefjord videregående skole, Kvinesdal" />
		<tag k="operator" v="Vest-Agder fylkeskommune" />
		<tag k="operator:type" v="public" />
		<tag k="phone" v="+47 38 60 91 00" />
		<tag k="ref:udir_nsr" v="1005602" />
		<tag k="ref:vgs" v="10082" />
		<tag k="ssr:stedsnr" v="637686" />
		<tag k="ssr:type" v="skole" />
		<tag k="website" v="http://flekkefjord.vgs.no" />
	</node>
	<node changeset="58861043" id="5610209790" lat="58.7267167" lon="6.9653722" timestamp="2018-05-10T20:38:28Z" uid="3842253" user="NKA_import" version="1">
		<tag k="historic" v="shieling" />
		<tag k="name" v="Kodåstølen" />
		<tag k="place" v="locality" />
		<tag k="ssr:stedsnr" v="521365" />
		<tag k="ssr:type" v="gammelBosettingsplass" />
	</node>
	<node changeset="58861043" id="5610209791" lat="58.2963528" lon="7.0750528" timestamp="2018-05-10T20:38:28Z" uid="3842253" user="NKA_import" version="1">
		<tag k="alt_name" v="Hitra" />
		<tag k="name" v="Hidra" />
		<tag k="place" v="farm" />
		<tag k="ssr:stedsnr" v="425508" />
		<tag k="ssr:type" v="gard" />
	</node>
	<node changeset="58861043" id="5610209792" lat="58.3224528" lon="7.0515333" timestamp="2018-05-10T20:38:28Z" uid="3842253" user="NKA_import" version="1">
		<tag k="name" v="Haddeland" />
		<tag k="place" v="locality" />
		<tag k="ssr:stedsnr" v="425530" />
		<tag k="ssr:type" v="gammelBosettingsplass" />
	</node>
	<node changeset="58861043" id="5610209793" lat="58.25165" lon="6.9917667" timestamp="2018-05-10T20:38:28Z" uid="3842253" user="NKA_import" version="1">
		<tag k="name" v="Nordhelle" />
		<tag k="place" v="farm" />
		<tag k="ssr:stedsnr" v="425601" />
		<tag k="ssr:type" v="gard" />
	</node>
	<node changeset="58861043" id="5610209794" lat="58.2818845" lon="6.8491221" timestamp="2018-05-10T20:38:28Z" uid="3842253" user="NKA_import" version="1">
		<tag k="name" v="Raustad" />
		<tag k="place" v="hamlet" />
		<tag k="ssr:stedsnr" v="61252" />
		<tag k="ssr:type" v="gard" />
	</node>
	<node changeset="58861043" id="5610209795" lat="58.3124722" lon="6.9024028" timestamp="2018-05-10T20:38:28Z" uid="3842253" user="NKA_import" version="1">
		<tag k="name" v="Lille Solbjørg" />
		<tag k="place" v="farm" />
		<tag k="ssr:stedsnr" v="297029" />
		<tag k="ssr:type" v="bruk" />
	</node>
	<node changeset="58861043" id="5610209796" lat="58.4902025" lon="6.9730493" timestamp="2018-05-10T20:38:28Z" uid="3842253" user="NKA_import" version="1">
		<tag k="name" v="Åmland" />
		<tag k="place" v="farm" />
		<tag k="ssr:stedsnr" v="973363" />
		<tag k="ssr:type" v="bruk" />
	</node>
	<node changeset="58861043" id="5610209797" lat="58.2712111" lon="6.8895889" timestamp="2018-05-10T20:38:28Z" uid="3842253" user="NKA_import" version="1">
		<tag k="alt_name" v="Gusevik" />
		<tag k="name" v="Gusevika" />
		<tag k="place" v="farm" />
		<tag k="ssr:stedsnr" v="61282" />
		<tag k="ssr:type" v="bruk" />
	</node>
	<node changeset="58861043" id="5610209798" lat="58.2776389" lon="6.9465667" timestamp="2018-05-10T20:38:28Z" uid="3842253" user="NKA_import" version="1">
		<tag k="name" v="Braudeland" />
		<tag k="place" v="farm" />
		<tag k="ssr:stedsnr" v="61284" />
		<tag k="ssr:type" v="gard" />
	</node>
	<node changeset="58861043" id="5610209799" lat="58.5074619" lon="6.9710843" timestamp="2018-05-10T20:38:29Z" uid="3842253" user="NKA_import" version="1">
		<tag k="building" v="cabin" />
		<tag k="name" v="Åsen" />
		<tag k="place" v="isolated_dwelling" />
		<tag k="ssr:stedsnr" v="303074" />
		<tag k="ssr:type" v="fritidsbolig" />
	</node>
	<node changeset="58861043" id="5610209800" lat="58.5149367" lon="6.984664" timestamp="2018-05-10T20:38:29Z" uid="3842253" user="NKA_import" version="1">
		<tag k="name" v="Åsemoen" />
		<tag k="place" v="hamlet" />
		<tag k="ssr:stedsnr" v="303076" />
		<tag k="ssr:type" v="bruk" />
	</node>
	<node changeset="58861043" id="5610209801" lat="58.5111847" lon="7.0389314" timestamp="2018-05-10T20:38:29Z" uid="3842253" user="NKA_import" version="1">
		<tag k="alt_name" v="Spillebrok, Øygarden" />
		<tag k="name" v="Spillebrok" />
		<tag k="place" v="farm" />
		<tag k="ssr:stedsnr" v="303077" />
		<tag k="ssr:type" v="gard" />
	</node>
	<node changeset="58861043" id="5610209802" lat="58.4676611" lon="7.02555" timestamp="2018-05-10T20:38:29Z" uid="3842253" user="NKA_import" version="1">
		<tag k="alt_name" v="Veggjeland" />
		<tag k="name" v="Veggeland" />
		<tag k="place" v="farm" />
		<tag k="ssr:stedsnr" v="61322" />
		<tag k="ssr:type" v="gard" />
	</node>
	<node changeset="58861043" id="5610209803" lat="58.3417056" lon="7.0256833" timestamp="2018-05-10T20:38:29Z" uid="3842253" user="NKA_import" version="1">
		<tag k="name" v="Litlemoen" />
		<tag k="place" v="farm" />
		<tag k="ssr:stedsnr" v="425731" />
		<tag k="ssr:type" v="bruk" />
	</node>
	<node changeset="58861043" id="5610209804" lat="58.35495" lon="7.0551611" timestamp="2018-05-10T20:38:29Z" uid="3842253" user="NKA_import" version="1">
		<tag k="name" v="Øyrutle" />
		<tag k="place" v="farm" />
		<tag k="ssr:stedsnr" v="425739" />
		<tag k="ssr:type" v="gard" />
	</node>
	<node changeset="58861043" id="5610209805" lat="58.4913667" lon="6.9739028" timestamp="2018-05-10T20:38:29Z" uid="3842253" user="NKA_import" version="1">
		<tag k="alt_name" v="Sandviki" />
		<tag k="name" v="Sandvik" />
		<tag k="place" v="farm" />
		<tag k="ssr:stedsnr" v="303325" />
		<tag k="ssr:type" v="bruk" />
	</node>
	<node changeset="58861043" id="5610209806" lat="58.5476278" lon="6.8665055" timestamp="2018-05-10T20:38:29Z" uid="3842253" user="NKA_import" version="1">
		<tag k="name" v="Seland" />
		<tag k="place" v="farm" />
		<tag k="ssr:stedsnr" v="425740" />
		<tag k="ssr:type" v="gard" />
	</node>
	<node changeset="58861043" id="5610209807" lat="58.5244083" lon="6.9585306" timestamp="2018-05-10T20:38:29Z" uid="3842253" user="NKA_import" version="1">
		<tag k="alt_name" v="Dalen" />
		<tag k="name" v="Daland" />
		<tag k="place" v="isolated_dwelling" />
		<tag k="ssr:stedsnr" v="61338" />
		<tag k="ssr:type" v="eneboligMindreBoligbygg" />
	</node>
	<node changeset="58861043" id="5610209808" lat="58.4148806" lon="6.9103361" timestamp="2018-05-10T20:38:29Z" uid="3842253" user="NKA_import" version="1">
		<tag k="name" v="Røyseland" />
		<tag k="place" v="farm" />
		<tag k="ssr:stedsnr" v="61367" />
		<tag k="ssr:type" v="gard" />
	</node>
	<node changeset="58861043" id="5610209809" lat="58.3950028" lon="6.9601111" timestamp="2018-05-10T20:38:29Z" uid="3842253" user="NKA_import" version="1">
		<tag k="alt_name" v="Hellestøl" />
		<tag k="historic" v="shieling" />
		<tag k="name" v="Heddestøl" />
		<tag k="place" v="farm" />
		<tag k="ssr:stedsnr" v="303408" />
		<tag k="ssr:type" v="bruk" />
	</node>
	<node changeset="58861043" id="5610209810" lat="58.5288417" lon="6.9696056" timestamp="2018-05-10T20:38:30Z" uid="3842253" user="NKA_import" version="1">
		<tag k="name" v="Solhom" />
		<tag k="place" v="farm" />
		<tag k="ssr:stedsnr" v="849133" />
		<tag k="ssr:type" v="bruk" />
	</node>
	<node changeset="58861043" id="5610209811" lat="58.4755417" lon="6.89775" timestamp="2018-05-10T20:38:30Z" uid="3842253" user="NKA_import" version="1">
		<tag k="name" v="Spikkeland" />
		<tag k="place" v="farm" />
		<tag k="ssr:stedsnr" v="850075" />
		<tag k="ssr:type" v="gard" />
	</node>
	<node changeset="58861043" id="1701267988" lat="58.3521229" lon="7.0239117" timestamp="2018-05-10T20:38:49Z" uid="3842253" user="NKA_import" version="2">
		<tag k="name" v="Gjemlestad" />
		<tag k="place" v="hamlet" />
		<tag k="ssr:stedsnr" v="606696" />
		<tag k="ssr:type" v="gard" />
	</node>
	<node changeset="58861043" id="5610209813" lat="58.4005403" lon="7.0813741" timestamp="2018-05-10T20:38:30Z" uid="3842253" user="NKA_import" version="1">
		<tag k="alt_name" v="Myggedalen;Møgedal" />
		<tag k="name" v="Møgjedalen" />
		<tag k="place" v="farm" />
		<tag k="ssr:stedsnr" v="303648" />
		<tag k="ssr:type" v="gard" />
	</node>
	<node changeset="58861043" id="5610209814" lat="58.4399912" lon="6.9406576" timestamp="2018-05-10T20:38:30Z" uid="3842253" user="NKA_import" version="1">
		<tag k="name" v="Borhommen" />
		<tag k="place" v="farm" />
		<tag k="ssr:stedsnr" v="973402" />
		<tag k="ssr:type" v="gard" />
	</node>
	<node changeset="58861043" id="5610209815" lat="58.386475" lon="7.033975" timestamp="2018-05-10T20:38:30Z" uid="3842253" user="NKA_import" version="1">
		<tag k="alt_name" v="Haugland, øvre" />
		<tag k="name" v="Øvre Haugland" />
		<tag k="place" v="farm" />
		<tag k="ssr:stedsnr" v="61629" />
		<tag k="ssr:type" v="gard" />
	</node>
	<node changeset="58861043" id="5610209816" lat="58.3217852" lon="6.9751037" timestamp="2018-05-10T20:38:30Z" uid="3842253" user="NKA_import" version="1">
		<tag k="name" v="Øvre Hetleskeid" />
		<tag k="place" v="neighbourhood" />
		<tag k="ssr:stedsnr" v="974226" />
		<tag k="ssr:type" v="boligfelt" />
	</node>
	<node changeset="58861043" id="5610209817" lat="58.4052335" lon="6.9736885" timestamp="2018-05-10T20:38:30Z" uid="3842253" user="NKA_import" version="1">
		<tag k="alt_name" v="Biktjønn" />
		<tag k="name" v="Biktjør" />
		<tag k="place" v="farm" />
		<tag k="ssr:stedsnr" v="61650" />
		<tag k="ssr:type" v="gard" />
	</node>
	<node changeset="58861043" id="5610209818" lat="58.6870186" lon="7.0799459" timestamp="2018-05-10T20:38:30Z" uid="3842253" user="NKA_import" version="1">
		<tag k="name" v="Knaben 1" />
		<tag k="place" v="locality" />
		<tag k="ssr:stedsnr" v="850294" />
		<tag k="ssr:type" v="fabrikk" />
	</node>
	<node changeset="58861043" id="5610209819" lat="58.2873833" lon="6.9399556" timestamp="2018-05-10T20:38:30Z" uid="3842253" user="NKA_import" version="1">
		<tag k="building" v="yes" />
		<tag k="disused:amenity" v="school" />
		<tag k="name" v="Åse skole" />
		<tag k="ssr:stedsnr" v="759031" />
		<tag k="ssr:type" v="skole" />
	</node>
	<node changeset="58861043" id="5610209820" lat="58.4818" lon="7.0039611" timestamp="2018-05-10T20:38:30Z" uid="3842253" user="NKA_import" version="1">
		<tag k="alt_name" v="Høydal" />
		<tag k="name" v="Høydalen" />
		<tag k="place" v="farm" />
		<tag k="ssr:stedsnr" v="850308" />
		<tag k="ssr:type" v="gard" />
	</node>
	<node changeset="58861043" id="566669854" lat="58.2349575" lon="6.8207285" timestamp="2018-05-10T20:38:46Z" uid="3842253" user="NKA_import" version="5">
		<tag k="name" v="Vindskei" />
		<tag k="place" v="farm" />
		<tag k="ssr:stedsnr" v="303131" />
		<tag k="ssr:type" v="gard" />
	</node>
	<node changeset="11971488" id="1797376546" lat="58.2169575" lon="6.7767719" timestamp="2012-06-21T18:26:01Z" uid="164049" user="kche" version="1" />
	<node changeset="41893319" id="1797376548" lat="58.2169346" lon="6.7741493" timestamp="2016-09-03T17:40:45Z" uid="2569034" user="kche_import" version="2" />
	<node changeset="23985428" id="2951029285" lat="58.2778799" lon="6.8838481" timestamp="2014-07-06T14:55:24Z" uid="1710144" user="rubund" version="1" />
	<node changeset="11971488" id="1797376552" lat="58.2170425" lon="6.7761938" timestamp="2012-06-21T18:26:01Z" uid="164049" user="kche" version="1" />
	<node changeset="11971488" id="1797376554" lat="58.2170425" lon="6.7763552" timestamp="2012-06-21T18:26:01Z" uid="164049" user="kche" version="1" />
	<node changeset="11971488" id="1797376555" lat="58.2170974" lon="6.7766052" timestamp="2012-06-21T18:26:01Z" uid="164049" user="kche" version="1" />
	<node changeset="11971488" id="1797376557" lat="58.2171138" lon="6.7764907" timestamp="2012-06-21T18:26:01Z" uid="164049" user="kche" version="1" />
	<node changeset="11971488" id="1797376558" lat="58.2171193" lon="6.7761573" timestamp="2012-06-21T18:26:01Z" uid="164049" user="kche" version="1" />
	<node changeset="23985428" id="2951029295" lat="58.2781295" lon="6.8932822" timestamp="2014-07-06T14:55:24Z" uid="1710144" user="rubund" version="1" />
	<node changeset="11971488" id="1797376562" lat="58.2171769" lon="6.7761521" timestamp="2012-06-21T18:26:01Z" uid="164049" user="kche" version="1" />
	<node changeset="41893319" id="1797376563" lat="58.2172427" lon="6.7743002" timestamp="2016-09-03T17:40:45Z" uid="2569034" user="kche_import" version="2" />
	<node changeset="41893319" id="1797376572" lat="58.217272" lon="6.7744348" timestamp="2016-09-03T17:40:45Z" uid="2569034" user="kche_import" version="2" />
	<node changeset="11971488" id="1797376573" lat="58.2173004" lon="6.7762615" timestamp="2012-06-21T18:26:02Z" uid="164049" user="kche" version="1" />
	<node changeset="11971488" id="1797376574" lat="58.2173141" lon="6.7759438" timestamp="2012-06-21T18:26:02Z" uid="164049" user="kche" version="1" />
	<node changeset="41893319" id="1797376576" lat="58.2173472" lon="6.7745672" timestamp="2016-09-03T17:40:45Z" uid="2569034" user="kche_import" version="2" />
	<node changeset="58861043" id="601592387" lat="58.5065079" lon="6.8588382" timestamp="2018-05-10T20:38:46Z" uid="3842253" user="NKA_import" version="2">
		<tag k="alt_name" v="Kråkeland" />
		<tag k="name" v="Krågeland" />
		<tag k="place" v="village" />
		<tag k="ssr:stedsnr" v="425364" />
		<tag k="ssr:type" v="gard" />
	</node>
	<node changeset="11971488" id="1797376583" lat="58.2176707" lon="6.775449" timestamp="2012-06-21T18:26:02Z" uid="164049" user="kche" version="1" />
	<node changeset="11971488" id="1797376588" lat="58.2177969" lon="6.7745532" timestamp="2012-06-21T18:26:02Z" uid="164049" user="kche" version="1" />
	<node changeset="11971488" id="1797376591" lat="58.2177996" lon="6.7751417" timestamp="2012-06-21T18:26:02Z" uid="164049" user="kche" version="1" />
	<node changeset="23985428" id="2951029332" lat="58.278827" lon="6.8933572" timestamp="2014-07-06T14:55:25Z" uid="1710144" user="rubund" version="1" />
	<node changeset="11971488" id="1797376598" lat="58.217849" lon="6.774798" timestamp="2012-06-21T18:26:02Z" uid="164049" user="kche" version="1" />
	<node changeset="58861043" id="894726743" lat="58.2485722" lon="6.9184861" timestamp="2018-05-10T20:38:47Z" uid="3842253" user="NKA_import" version="2">
		<tag k="alt_name" v="Stalleland" />
		<tag k="name" v="Staddeland" />
		<tag k="place" v="locality" />
		<tag k="ssr:stedsnr" v="121127" />
		<tag k="ssr:type" v="gammelBosettingsplass" />
	</node>
	<node changeset="23985428" id="2951029347" lat="58.2790168" lon="6.8928887" timestamp="2014-07-06T14:55:25Z" uid="1710144" user="rubund" version="1" />
	<node changeset="23985428" id="2951029348" lat="58.2790477" lon="6.8930574" timestamp="2014-07-06T14:55:25Z" uid="1710144" user="rubund" version="1" />
	<node changeset="58861043" id="566669931" lat="58.2305116" lon="6.8349093" timestamp="2018-05-10T20:38:46Z" uid="3842253" user="NKA_import" version="2">
		<tag k="alt_name" v="Ulleland" />
		<tag k="name" v="Ulland" />
		<tag k="place" v="farm" />
		<tag k="ssr:stedsnr" v="243142" />
		<tag k="ssr:type" v="gard" />
	</node>
	<node changeset="58861043" id="897864301" lat="58.2262597" lon="6.8940143" timestamp="2018-05-10T20:38:48Z" uid="3842253" user="NKA_import" version="3">
		<tag k="name" v="Vatland" />
		<tag k="place" v="farm" />
		<tag k="ssr:stedsnr" v="364165" />
		<tag k="ssr:type" v="gard" />
	</node>
	<node changeset="41893319" id="1797376105" lat="58.2142332" lon="6.7758677" timestamp="2016-09-03T17:40:45Z" uid="2569034" user="kche_import" version="2" />
	<node changeset="58861043" id="5610209921" lat="58.3267916" lon="6.782583" timestamp="2018-05-10T20:38:31Z" uid="3842253" user="NKA_import" version="1">
		<tag k="name" v="Gjeiskeli" />
		<tag k="place" v="farm" />
		<tag k="ssr:stedsnr" v="979660" />
		<tag k="ssr:type" v="gard" />
	</node>
	<node changeset="58861043" id="5610209922" lat="58.3224563" lon="6.7979877" timestamp="2018-05-10T20:38:31Z" uid="3842253" user="NKA_import" version="1">
		<tag k="name" v="Meland" />
		<tag k="place" v="hamlet" />
		<tag k="ssr:stedsnr" v="979661" />
		<tag k="ssr:type" v="navnegard" />
	</node>
	<node changeset="58861043" id="5610209923" lat="58.3489889" lon="6.9849167" timestamp="2018-05-10T20:38:31Z" uid="3842253" user="NKA_import" version="1">
		<tag k="alt_name" v="Trællandsheia" />
		<tag k="name" v="Trælandshei" />
		<tag k="place" v="farm" />
		<tag k="ssr:stedsnr" v="61693" />
		<tag k="ssr:type" v="gard" />
	</node>
	<node changeset="58861043" id="5610209924" lat="58.4988806" lon="7.0631306" timestamp="2018-05-10T20:38:31Z" uid="3842253" user="NKA_import" version="1">
		<tag k="alt_name" v="Åsen, yt" />
		<tag k="name" v="Ytre Åsen" />
		<tag k="place" v="farm" />
		<tag k="ssr:stedsnr" v="850319" />
		<tag k="ssr:type" v="gard" />
	</node>
	<node changeset="58861043" id="5610209925" lat="58.3527556" lon="7.0669917" timestamp="2018-05-10T20:38:31Z" uid="3842253" user="NKA_import" version="1">
		<tag k="alt_name" v="Eikeli" />
		<tag k="name" v="Eikelia" />
		<tag k="place" v="locality" />
		<tag k="ssr:stedsnr" v="61699" />
		<tag k="ssr:type" v="gammelBosettingsplass" />
	</node>
	<node changeset="58861043" id="5610209926" lat="58.4970124" lon="6.9708426" timestamp="2018-05-10T20:38:31Z" uid="3842253" user="NKA_import" version="1">
		<tag k="name" v="Åmland" />
		<tag k="place" v="hamlet" />
		<tag k="ssr:stedsnr" v="850324" />
		<tag k="ssr:type" v="gard" />
	</node>
	<node changeset="58861043" id="5610209927" lat="58.2699144" lon="6.8123531" timestamp="2018-05-10T20:38:31Z" uid="3842253" user="NKA_import" version="1">
		<tag k="name" v="Lindlandsstrand" />
		<tag k="place" v="neighbourhood" />
		<tag k="ssr:stedsnr" v="979664" />
		<tag k="ssr:type" v="gard" />
	</node>
	<node changeset="58861043" id="5610209928" lat="58.4783528" lon="7.0965167" timestamp="2018-05-10T20:38:31Z" uid="3842253" user="NKA_import" version="1">
		<tag k="alt_name" v="Hallelandsstølen" />
		<tag k="historic" v="shieling" />
		<tag k="name" v="Haddelandstølen" />
		<tag k="place" v="locality" />
		<tag k="ssr:stedsnr" v="850335" />
		<tag k="ssr:type" v="gammelBosettingsplass" />
	</node>
	<node changeset="58861043" id="5610209929" lat="58.2688" lon="6.77645" timestamp="2018-05-10T20:38:31Z" uid="3842253" user="NKA_import" version="1">
		<tag k="name" v="Fosseland" />
		<tag k="place" v="farm" />
		<tag k="ssr:stedsnr" v="304276" />
		<tag k="ssr:type" v="gard" />
	</node>
	<node changeset="58861043" id="5610209930" lat="58.3400472" lon="7.0584167" timestamp="2018-05-10T20:38:31Z" uid="3842253" user="NKA_import" version="1">
		<tag k="alt_name" v="Bjørkeli" />
		<tag k="name" v="Bjørkelia" />
		<tag k="place" v="farm" />
		<tag k="ssr:stedsnr" v="61706" />
		<tag k="ssr:type" v="gard" />
	</node>
	<node changeset="58861043" id="5610209931" lat="58.55755" lon="6.8345556" timestamp="2018-05-10T20:38:31Z" uid="3842253" user="NKA_import" version="1">
		<tag k="historic" v="shieling" />
		<tag k="name" v="Ingeborgstølen" />
		<tag k="place" v="locality" />
		<tag k="ssr:stedsnr" v="641244" />
		<tag k="ssr:type" v="byggForJordbrukFiskeOgFangst" />
	</node>
	<node changeset="58861043" id="5610209932" lat="58.2757796" lon="6.8122004" timestamp="2018-05-10T20:38:32Z" uid="3842253" user="NKA_import" version="1">
		<tag k="name" v="Birkeland" />
		<tag k="place" v="farm" />
		<tag k="ssr:stedsnr" v="304282" />
		<tag k="ssr:type" v="gard" />
	</node>
	<node changeset="58861043" id="5610209933" lat="58.2768997" lon="6.7958244" timestamp="2018-05-10T20:38:32Z" uid="3842253" user="NKA_import" version="1">
		<tag k="name" v="Lien" />
		<tag k="place" v="farm" />
		<tag k="ssr:stedsnr" v="979666" />
		<tag k="ssr:type" v="gard" />
	</node>
	<node changeset="58861043" id="5610209934" lat="58.2903809" lon="6.7764285" timestamp="2018-05-10T20:38:32Z" uid="3842253" user="NKA_import" version="1">
		<tag k="name" v="Løgen" />
		<tag k="place" v="farm" />
		<tag k="ssr:stedsnr" v="979667" />
		<tag k="ssr:type" v="gard" />
	</node>
	<node changeset="58861043" id="5610209935" lat="58.4548111" lon="6.9978556" timestamp="2018-05-10T20:38:32Z" uid="3842253" user="NKA_import" version="1">
		<tag k="name" v="Ytreland" />
		<tag k="place" v="farm" />
		<tag k="ssr:stedsnr" v="641330" />
		<tag k="ssr:type" v="bruk" />
	</node>
	<node changeset="58861043" id="5610209936" lat="58.3063" lon="6.8866222" timestamp="2018-05-10T20:38:32Z" uid="3842253" user="NKA_import" version="1">
		<tag k="name" v="Solbjørg" />
		<tag k="place" v="farm" />
		<tag k="ssr:stedsnr" v="540015" />
		<tag k="ssr:type" v="bruk" />
	</node>
	<node changeset="58861043" id="5610209937" lat="58.2485301" lon="6.7782699" timestamp="2018-05-10T20:38:32Z" uid="3842253" user="NKA_import" version="1">
		<tag k="name" v="Haukeland" />
		<tag k="place" v="farm" />
		<tag k="ssr:stedsnr" v="979668" />
		<tag k="ssr:type" v="gard" />
	</node>
	<node changeset="58861043" id="5610209938" lat="58.3589457" lon="6.9951288" timestamp="2018-05-10T20:38:32Z" uid="3842253" user="NKA_import" version="1">
		<tag k="alt_name" v="Rafossheia" />
		<tag k="building" v="cabin" />
		<tag k="name" v="Rafosshei" />
		<tag k="place" v="isolated_dwelling" />
		<tag k="ssr:stedsnr" v="61719" />
		<tag k="ssr:type" v="fritidsbolig" />
	</node>
	<node changeset="58861043" id="5610209939" lat="58.5173694" lon="6.9231195" timestamp="2018-05-10T20:38:32Z" uid="3842253" user="NKA_import" version="1">
		<tag k="alt_name" v="Kvinlog, øvre" />
		<tag k="name" v="Øvre Kvinlaug" />
		<tag k="place" v="farm" />
		<tag k="ssr:stedsnr" v="850380" />
		<tag k="ssr:type" v="gard" />
	</node>
	<node changeset="58861043" id="5610209940" lat="58.5263222" lon="7.0282361" timestamp="2018-05-10T20:38:32Z" uid="3842253" user="NKA_import" version="1">
		<tag k="name" v="Kleivan" />
		<tag k="place" v="farm" />
		<tag k="ssr:stedsnr" v="546108" />
		<tag k="ssr:type" v="bruk" />
	</node>
	<node changeset="58861043" id="5610209941" lat="58.7077583" lon="6.9984889" timestamp="2018-05-10T20:38:32Z" uid="3842253" user="NKA_import" version="1">
		<tag k="historic" v="shieling" />
		<tag k="name" v="Nystøl" />
		<tag k="place" v="locality" />
		<tag k="ssr:stedsnr" v="304328" />
		<tag k="ssr:type" v="seterStøl" />
	</node>
	<node changeset="58861043" id="5610209942" lat="58.2431185" lon="6.7655714" timestamp="2018-05-10T20:38:32Z" uid="3842253" user="NKA_import" version="1">
		<tag k="name" v="Lillehavn" />
		<tag k="place" v="farm" />
		<tag k="ssr:stedsnr" v="979669" />
		<tag k="ssr:type" v="gard" />
	</node>
	<node changeset="58861043" id="5610209943" lat="58.2365631" lon="6.7536175" timestamp="2018-05-10T20:38:33Z" uid="3842253" user="NKA_import" version="1">
		<tag k="name" v="Lunkenskår" />
		<tag k="place" v="farm" />
		<tag k="ssr:stedsnr" v="979670" />
		<tag k="ssr:type" v="gard" />
	</node>
	<node changeset="58861043" id="5610209944" lat="58.5181889" lon="6.9680306" timestamp="2018-05-10T20:38:33Z" uid="3842253" user="NKA_import" version="1">
		<tag k="alt_name" v="Norås" />
		<tag k="name" v="Nordås" />
		<tag k="place" v="farm" />
		<tag k="ssr:stedsnr" v="850382" />
		<tag k="ssr:type" v="bruk" />
	</node>
	<node changeset="58861043" id="5610209945" lat="58.2337833" lon="6.7447444" timestamp="2018-05-10T20:38:33Z" uid="3842253" user="NKA_import" version="1">
		<tag k="name" v="Lia" />
		<tag k="place" v="farm" />
		<tag k="ssr:stedsnr" v="546147" />
		<tag k="ssr:type" v="bruk" />
	</node>
	<node changeset="58861043" id="5610209946" lat="58.2368455" lon="6.7418645" timestamp="2018-05-10T20:38:33Z" uid="3842253" user="NKA_import" version="1">
		<tag k="name" v="Titland" />
		<tag k="place" v="farm" />
		<tag k="ssr:stedsnr" v="979671" />
		<tag k="ssr:type" v="gard" />
	</node>
	<node changeset="58861043" id="5610209947" lat="58.2812" lon="6.8899944" timestamp="2018-05-10T20:38:33Z" uid="3842253" user="NKA_import" version="1">
		<tag k="name" v="Ledål" />
		<tag k="place" v="farm" />
		<tag k="ssr:stedsnr" v="759122" />
		<tag k="ssr:type" v="bruk" />
	</node>
	<node changeset="58861043" id="5610209948" lat="58.4210639" lon="6.9396583" timestamp="2018-05-10T20:38:33Z" uid="3842253" user="NKA_import" version="1">
		<tag k="alt_name" v="Sinland" />
		<tag k="name" v="Sindland" />
		<tag k="place" v="farm" />
		<tag k="ssr:stedsnr" v="850394" />
		<tag k="ssr:type" v="gard" />
	</node>
	<node changeset="58861043" id="5610209949" lat="58.2663028" lon="6.883375" timestamp="2018-05-10T20:38:33Z" uid="3842253" user="NKA_import" version="1">
		<tag k="alt_name" v="Dytte" />
		<tag k="name" v="Rullen" />
		<tag k="place" v="locality" />
		<tag k="ssr:stedsnr" v="546285" />
		<tag k="ssr:type" v="gammelBosettingsplass" />
	</node>
	<node changeset="58861043" id="5610209950" lat="58.4079528" lon="6.9458528" timestamp="2018-05-10T20:38:33Z" uid="3842253" user="NKA_import" version="1">
		<tag k="name" v="Tjørnhom" />
		<tag k="place" v="farm" />
		<tag k="ssr:stedsnr" v="850406" />
		<tag k="ssr:type" v="gard" />
	</node>
	<node changeset="58861043" id="5610209951" lat="58.2891111" lon="6.9222333" timestamp="2018-05-10T20:38:33Z" uid="3842253" user="NKA_import" version="1">
		<tag k="name" v="Vollan" />
		<tag k="place" v="farm" />
		<tag k="ssr:stedsnr" v="334008" />
		<tag k="ssr:type" v="bruk" />
	</node>
	<node changeset="58861043" id="5610209952" lat="58.4006917" lon="6.956925" timestamp="2018-05-10T20:38:33Z" uid="3842253" user="NKA_import" version="1">
		<tag k="name" v="Hompland" />
		<tag k="place" v="farm" />
		<tag k="ssr:stedsnr" v="850423" />
		<tag k="ssr:type" v="gard" />
	</node>
	<node changeset="58861043" id="5610209953" lat="58.2471081" lon="6.8365037" timestamp="2018-05-10T20:38:33Z" uid="3842253" user="NKA_import" version="1">
		<tag k="name" v="Rørvik" />
		<tag k="place" v="hamlet" />
		<tag k="ssr:stedsnr" v="979675" />
		<tag k="ssr:type" v="navnegard" />
	</node>
	<node changeset="58861043" id="5610209954" lat="58.3158361" lon="6.95185" timestamp="2018-05-10T20:38:33Z" uid="3842253" user="NKA_import" version="1">
		<tag k="name" v="Gullestad" />
		<tag k="place" v="farm" />
		<tag k="ssr:stedsnr" v="850507" />
		<tag k="ssr:type" v="gard" />
	</node>
	<node changeset="58861043" id="5610209955" lat="58.2308984" lon="6.8861254" timestamp="2018-05-10T20:38:33Z" uid="3842253" user="NKA_import" version="1">
		<tag k="name" v="Lande" />
		<tag k="place" v="hamlet" />
		<tag k="ssr:stedsnr" v="979677" />
		<tag k="ssr:type" v="navnegard" />
	</node>
	<node changeset="58861043" id="5610209956" lat="58.2709722" lon="7.0011667" timestamp="2018-05-10T20:38:34Z" uid="3842253" user="NKA_import" version="1">
		<tag k="alt_name" v="Førland, øvre" />
		<tag k="name" v="Vestre Førland" />
		<tag k="place" v="farm" />
		<tag k="ssr:stedsnr" v="850513" />
		<tag k="ssr:type" v="gard" />
	</node>
	<node changeset="58861043" id="5610209957" lat="58.7421528" lon="6.9748194" timestamp="2018-05-10T20:38:34Z" uid="3842253" user="NKA_import" version="1">
		<tag k="name" v="Knabeneset" />
		<tag k="place" v="isolated_dwelling" />
		<tag k="ssr:stedsnr" v="546333" />
		<tag k="ssr:type" v="eneboligMindreBoligbygg" />
	</node>
	<node changeset="58861043" id="5610209958" lat="58.39915" lon="6.9298917" timestamp="2018-05-10T20:38:34Z" uid="3842253" user="NKA_import" version="1">
		<tag k="name" v="Øvre Røynestad" />
		<tag k="place" v="farm" />
		<tag k="ssr:stedsnr" v="546369" />
		<tag k="ssr:type" v="gard" />
	</node>
	<node changeset="58861043" id="5610209959" lat="58.2667882" lon="6.9022239" timestamp="2018-05-10T20:38:34Z" uid="3842253" user="NKA_import" version="1">
		<tag k="name" v="Dyrli" />
		<tag k="place" v="farm" />
		<tag k="ssr:stedsnr" v="979679" />
		<tag k="ssr:type" v="gard" />
	</node>
	<node changeset="58861043" id="5610209960" lat="58.686422" lon="6.9113639" timestamp="2018-05-10T20:38:34Z" uid="3842253" user="NKA_import" version="1">
		<tag k="building" v="cabin" />
		<tag k="historic" v="shieling" />
		<tag k="name" v="Ausdalstølen" />
		<tag k="place" v="isolated_dwelling" />
		<tag k="ssr:stedsnr" v="850602" />
		<tag k="ssr:type" v="fritidsbolig" />
	</node>
	<node changeset="58861043" id="5610209961" lat="58.2377031" lon="6.9335312" timestamp="2018-05-10T20:38:34Z" uid="3842253" user="NKA_import" version="1">
		<tag k="name" v="Nedre Londal" />
		<tag k="place" v="farm" />
		<tag k="ssr:stedsnr" v="979682" />
		<tag k="ssr:type" v="gard" />
	</node>
	<node changeset="58861043" id="5610209962" lat="58.3524111" lon="7.0628667" timestamp="2018-05-10T20:38:34Z" uid="3842253" user="NKA_import" version="1">
		<tag k="name" v="Holevollen" />
		<tag k="place" v="locality" />
		<tag k="ssr:stedsnr" v="759262" />
		<tag k="ssr:type" v="gammelBosettingsplass" />
	</node>
	<node changeset="58861043" id="5610209963" lat="58.2662822" lon="6.9390055" timestamp="2018-05-10T20:38:34Z" uid="3842253" user="NKA_import" version="1">
		<tag k="name" v="Åseland" />
		<tag k="place" v="farm" />
		<tag k="ssr:stedsnr" v="979684" />
		<tag k="ssr:type" v="gard" />
	</node>
	<node changeset="58861043" id="5610209964" lat="58.5632528" lon="7.0362167" timestamp="2018-05-10T20:38:34Z" uid="3842253" user="NKA_import" version="1">
		<tag k="alt_name" v="Eptestøl" />
		<tag k="historic" v="shieling" />
		<tag k="name" v="Eftestøl" />
		<tag k="place" v="farm" />
		<tag k="ssr:stedsnr" v="546402" />
		<tag k="ssr:type" v="gard" />
	</node>
	<node changeset="58861043" id="5610209965" lat="58.2841699" lon="7.1049355" timestamp="2018-05-10T20:38:34Z" uid="3842253" user="NKA_import" version="1">
		<tag k="name" v="Eieland" />
		<tag k="place" v="farm" />
		<tag k="ssr:stedsnr" v="979685" />
		<tag k="ssr:type" v="gard" />
	</node>
	<node changeset="58861043" id="5610209966" lat="58.6115933" lon="6.8564732" timestamp="2018-05-10T20:38:34Z" uid="3842253" user="NKA_import" version="1">
		<tag k="historic" v="shieling" />
		<tag k="name" v="Hisvasstølen" />
		<tag k="place" v="locality" />
		<tag k="ssr:stedsnr" v="850665" />
		<tag k="ssr:type" v="byggForJordbrukFiskeOgFangst" />
	</node>
	<node changeset="58861043" id="5610209967" lat="58.3104067" lon="7.0580971" timestamp="2018-05-10T20:38:35Z" uid="3842253" user="NKA_import" version="1">
		<tag k="name" v="Stranden" />
		<tag k="place" v="farm" />
		<tag k="ssr:stedsnr" v="979696" />
		<tag k="ssr:type" v="gard" />
	</node>
	<node changeset="58861043" id="5610209968" lat="58.3199492" lon="7.0648734" timestamp="2018-05-10T20:38:35Z" uid="3842253" user="NKA_import" version="1">
		<tag k="name" v="Østre Sandvann" />
		<tag k="place" v="farm" />
		<tag k="ssr:stedsnr" v="979697" />
		<tag k="ssr:type" v="gard" />
	</node>
	<node changeset="58861043" id="5610209969" lat="58.3215439" lon="7.0498309" timestamp="2018-05-10T20:38:35Z" uid="3842253" user="NKA_import" version="1">
		<tag k="name" v="Haddeland" />
		<tag k="place" v="farm" />
		<tag k="ssr:stedsnr" v="979698" />
		<tag k="ssr:type" v="gard" />
	</node>
	<node changeset="58861043" id="5610209970" lat="58.3244729" lon="7.082444" timestamp="2018-05-10T20:38:35Z" uid="3842253" user="NKA_import" version="1">
		<tag k="name" v="Stakkeland" />
		<tag k="place" v="farm" />
		<tag k="ssr:stedsnr" v="979699" />
		<tag k="ssr:type" v="gard" />
	</node>
	<node changeset="58861043" id="5610209971" lat="58.347225" lon="7.0599944" timestamp="2018-05-10T20:38:35Z" uid="3842253" user="NKA_import" version="1">
		<tag k="name" v="Lauvlia" />
		<tag k="place" v="farm" />
		<tag k="ssr:stedsnr" v="850692" />
		<tag k="ssr:type" v="bruk" />
	</node>
	<node changeset="58861043" id="5610209972" lat="58.3524069" lon="7.0681185" timestamp="2018-05-10T20:38:35Z" uid="3842253" user="NKA_import" version="1">
		<tag k="name" v="Eikelia" />
		<tag k="place" v="farm" />
		<tag k="ssr:stedsnr" v="979700" />
		<tag k="ssr:type" v="gard" />
	</node>
	<node changeset="58861043" id="5610209973" lat="58.3436278" lon="7.0244833" timestamp="2018-05-10T20:38:35Z" uid="3842253" user="NKA_import" version="1">
		<tag k="name" v="Slettebakk" />
		<tag k="place" v="farm" />
		<tag k="ssr:stedsnr" v="850699" />
		<tag k="ssr:type" v="bruk" />
	</node>
	<node changeset="58861043" id="5610209974" lat="58.3769047" lon="7.0799074" timestamp="2018-05-10T20:38:35Z" uid="3842253" user="NKA_import" version="1">
		<tag k="historic" v="shieling" />
		<tag k="name" v="Berstøl" />
		<tag k="place" v="farm" />
		<tag k="ssr:stedsnr" v="979701" />
		<tag k="ssr:type" v="gard" />
	</node>
	<node changeset="58861043" id="5610209975" lat="58.3558667" lon="6.9718022" timestamp="2018-05-10T20:38:35Z" uid="3842253" user="NKA_import" version="1">
		<tag k="name" v="Rafoss" />
		<tag k="place" v="hamlet" />
		<tag k="ssr:stedsnr" v="850710" />
		<tag k="ssr:type" v="gard" />
	</node>
	<node changeset="58861043" id="5610209976" lat="58.285025" lon="6.9035694" timestamp="2018-05-10T20:38:35Z" uid="3842253" user="NKA_import" version="1">
		<tag k="name" v="Tua" />
		<tag k="place" v="farm" />
		<tag k="ssr:stedsnr" v="334112" />
		<tag k="ssr:type" v="bruk" />
	</node>
	<node changeset="58861043" id="5610209977" lat="58.3870161" lon="7.0818834" timestamp="2018-05-10T20:38:35Z" uid="3842253" user="NKA_import" version="1">
		<tag k="name" v="Nekland" />
		<tag k="place" v="farm" />
		<tag k="ssr:stedsnr" v="979756" />
		<tag k="ssr:type" v="gard" />
	</node>
	<node changeset="58861043" id="5610209978" lat="58.5453" lon="6.9008306" timestamp="2018-05-10T20:38:35Z" uid="3842253" user="NKA_import" version="1">
		<tag k="name" v="Lindeland" />
		<tag k="place" v="farm" />
		<tag k="ssr:stedsnr" v="850715" />
		<tag k="ssr:type" v="gard" />
	</node>
	<node changeset="58861043" id="5610209979" lat="58.3146611" lon="6.9240528" timestamp="2018-05-10T20:38:35Z" uid="3842253" user="NKA_import" version="1">
		<tag k="alt_name" v="Kleiva" />
		<tag k="name" v="Kleiven" />
		<tag k="place" v="locality" />
		<tag k="ssr:stedsnr" v="546461" />
		<tag k="ssr:type" v="gammelBosettingsplass" />
	</node>
	<node changeset="58861043" id="5610209980" lat="58.3670603" lon="7.0422255" timestamp="2018-05-10T20:38:36Z" uid="3842253" user="NKA_import" version="1">
		<tag k="name" v="Nedre Jerstad" />
		<tag k="place" v="farm" />
		<tag k="ssr:stedsnr" v="979789" />
		<tag k="ssr:type" v="gard" />
	</node>
	<node changeset="58861043" id="5610209981" lat="58.27515" lon="7.0448889" timestamp="2018-05-10T20:38:36Z" uid="3842253" user="NKA_import" version="1">
		<tag k="name" v="Ågedal" />
		<tag k="place" v="farm" />
		<tag k="ssr:stedsnr" v="546478" />
		<tag k="ssr:type" v="gard" />
	</node>
	<node changeset="58861043" id="5610209982" lat="58.3658471" lon="7.0483565" timestamp="2018-05-10T20:38:36Z" uid="3842253" user="NKA_import" version="1">
		<tag k="name" v="Øvre Jerstad" />
		<tag k="place" v="farm" />
		<tag k="ssr:stedsnr" v="979790" />
		<tag k="ssr:type" v="gard" />
	</node>
	<node changeset="58861043" id="5610209983" lat="58.3606774" lon="7.0415572" timestamp="2018-05-10T20:38:36Z" uid="3842253" user="NKA_import" version="1">
		<tag k="name" v="Lille Jerstad" />
		<tag k="place" v="farm" />
		<tag k="ssr:stedsnr" v="979791" />
		<tag k="ssr:type" v="gard" />
	</node>
	<node changeset="58861043" id="5610209984" lat="58.2846944" lon="7.1077833" timestamp="2018-05-10T20:38:36Z" uid="3842253" user="NKA_import" version="1">
		<tag k="name" v="Eieland" />
		<tag k="place" v="locality" />
		<tag k="ssr:stedsnr" v="546484" />
		<tag k="ssr:type" v="gammelBosettingsplass" />
	</node>
	<node changeset="58861043" id="5610209985" lat="58.3639023" lon="7.0429114" timestamp="2018-05-10T20:38:36Z" uid="3842253" user="NKA_import" version="1">
		<tag k="name" v="Jerstad" />
		<tag k="place" v="hamlet" />
		<tag k="ssr:stedsnr" v="979792" />
		<tag k="ssr:type" v="navnegard" />
	</node>
	<node changeset="58861043" id="5610209986" lat="58.3122806" lon="6.9769333" timestamp="2018-05-10T20:38:36Z" uid="3842253" user="NKA_import" version="1">
		<tag k="alt_name" v="Røydland" />
		<tag k="name" v="Rødland" />
		<tag k="place" v="hamlet" />
		<tag k="ssr:stedsnr" v="546508" />
		<tag k="ssr:type" v="gard" />
	</node>
	<node changeset="58861043" id="5610209987" lat="58.4068194" lon="6.9698361" timestamp="2018-05-10T20:38:36Z" uid="3842253" user="NKA_import" version="1">
		<tag k="name" v="Tupten" />
		<tag k="place" v="locality" />
		<tag k="ssr:stedsnr" v="334172" />
		<tag k="ssr:type" v="gammelBosettingsplass" />
	</node>
	<node changeset="58861043" id="5610209988" lat="58.3574101" lon="7.0432878" timestamp="2018-05-10T20:38:36Z" uid="3842253" user="NKA_import" version="1">
		<tag k="name" v="Nordre Espeland" />
		<tag k="place" v="farm" />
		<tag k="ssr:stedsnr" v="979794" />
		<tag k="ssr:type" v="gard" />
	</node>
	<node changeset="58861043" id="5610209989" lat="58.3501302" lon="7.0401492" timestamp="2018-05-10T20:38:36Z" uid="3842253" user="NKA_import" version="1">
		<tag k="name" v="Søndre Espeland" />
		<tag k="place" v="farm" />
		<tag k="ssr:stedsnr" v="979795" />
		<tag k="ssr:type" v="gard" />
	</node>
	<node changeset="58861043" id="5610209990" lat="58.3539729" lon="7.0418601" timestamp="2018-05-10T20:38:36Z" uid="3842253" user="NKA_import" version="1">
		<tag k="name" v="Espeland" />
		<tag k="place" v="hamlet" />
		<tag k="ssr:stedsnr" v="979797" />
		<tag k="ssr:type" v="navnegard" />
	</node>
	<node changeset="58861043" id="5610209991" lat="58.3604444" lon="7.0284667" timestamp="2018-05-10T20:38:36Z" uid="3842253" user="NKA_import" version="1">
		<tag k="name" v="Voran" />
		<tag k="place" v="farm" />
		<tag k="ssr:stedsnr" v="91292" />
		<tag k="ssr:type" v="bruk" />
	</node>
	<node changeset="58861043" id="5610209992" lat="58.3453552" lon="7.0366431" timestamp="2018-05-10T20:38:37Z" uid="3842253" user="NKA_import" version="1">
		<tag k="name" v="Øvre Moi" />
		<tag k="place" v="farm" />
		<tag k="ssr:stedsnr" v="979798" />
		<tag k="ssr:type" v="gard" />
	</node>
	<node changeset="58861043" id="5610209993" lat="58.3413059" lon="7.0393189" timestamp="2018-05-10T20:38:37Z" uid="3842253" user="NKA_import" version="1">
		<tag k="name" v="Nedre Moi" />
		<tag k="place" v="farm" />
		<tag k="ssr:stedsnr" v="979799" />
		<tag k="ssr:type" v="gard" />
	</node>
	<node changeset="58861043" id="5610209994" lat="58.4035833" lon="7.0439972" timestamp="2018-05-10T20:38:37Z" uid="3842253" user="NKA_import" version="1">
		<tag k="name" v="Løland" />
		<tag k="place" v="farm" />
		<tag k="ssr:stedsnr" v="546607" />
		<tag k="ssr:type" v="gard" />
	</node>
	<node changeset="58861043" id="5610209995" lat="58.3916778" lon="7.0253028" timestamp="2018-05-10T20:38:37Z" uid="3842253" user="NKA_import" version="1">
		<tag k="alt_name" v="Haugland, nedre" />
		<tag k="name" v="Nedre Haugland" />
		<tag k="place" v="farm" />
		<tag k="ssr:stedsnr" v="546612" />
		<tag k="ssr:type" v="gard" />
	</node>
	<node changeset="58861043" id="5610209996" lat="58.335944" lon="7.0422028" timestamp="2018-05-10T20:38:37Z" uid="3842253" user="NKA_import" version="1">
		<tag k="name" v="Østre Teigen" />
		<tag k="place" v="farm" />
		<tag k="ssr:stedsnr" v="979801" />
		<tag k="ssr:type" v="gard" />
	</node>
	<node changeset="58861043" id="5610209997" lat="58.238875" lon="6.8733889" timestamp="2018-05-10T20:38:37Z" uid="3842253" user="NKA_import" version="1">
		<tag k="name" v="Avkom" />
		<tag k="place" v="farm" />
		<tag k="ssr:stedsnr" v="456108" />
		<tag k="ssr:type" v="bruk" />
	</node>
	<node changeset="58861043" id="5610209998" lat="58.333037" lon="7.0353184" timestamp="2018-05-10T20:38:37Z" uid="3842253" user="NKA_import" version="1">
		<tag k="name" v="Ytre Teigen" />
		<tag k="place" v="farm" />
		<tag k="ssr:stedsnr" v="979802" />
		<tag k="ssr:type" v="gard" />
	</node>
	<node changeset="58861043" id="5610209999" lat="58.6255238" lon="6.9071718" timestamp="2018-05-10T20:38:37Z" uid="3842253" user="NKA_import" version="1">
		<tag k="name" v="Netland" />
		<tag k="place" v="hamlet" />
		<tag k="ssr:stedsnr" v="546654" />
		<tag k="ssr:type" v="gard" />
	</node>
	<node changeset="58861043" id="5610210000" lat="58.3305897" lon="7.0287378" timestamp="2018-05-10T20:38:37Z" uid="3842253" user="NKA_import" version="1">
		<tag k="name" v="Teigeli" />
		<tag k="place" v="farm" />
		<tag k="ssr:stedsnr" v="979805" />
		<tag k="ssr:type" v="gard" />
	</node>
	<node changeset="58861043" id="5610210001" lat="58.343475" lon="7.0621" timestamp="2018-05-10T20:38:37Z" uid="3842253" user="NKA_import" version="1">
		<tag k="alt_name" v="Moisrudlend;Mois-Rudlend" />
		<tag k="name" v="Moisrudland" />
		<tag k="place" v="farm" />
		<tag k="ssr:stedsnr" v="546659" />
		<tag k="ssr:type" v="gard" />
	</node>
	<node changeset="58861043" id="5610210002" lat="58.3292962" lon="7.0105593" timestamp="2018-05-10T20:38:37Z" uid="3842253" user="NKA_import" version="1">
		<tag k="name" v="Hunsbedt" />
		<tag k="place" v="farm" />
		<tag k="ssr:stedsnr" v="979806" />
		<tag k="ssr:type" v="gard" />
	</node>
	<node changeset="58861043" id="5610210003" lat="58.3159945" lon="6.985369" timestamp="2018-05-10T20:38:37Z" uid="3842253" user="NKA_import" version="1">
		<tag k="name" v="Øvre Skaren" />
		<tag k="place" v="farm" />
		<tag k="ssr:stedsnr" v="979807" />
		<tag k="ssr:type" v="gard" />
	</node>
	<node changeset="58861043" id="5610210004" lat="58.3759389" lon="7.0829361" timestamp="2018-05-10T20:38:38Z" uid="3842253" user="NKA_import" version="1">
		<tag k="historic" v="shieling" />
		<tag k="name" v="Berstøl" />
		<tag k="place" v="locality" />
		<tag k="ssr:stedsnr" v="334288" />
		<tag k="ssr:type" v="gammelBosettingsplass" />
	</node>
	<node changeset="58861043" id="5610210005" lat="58.312381" lon="6.98573" timestamp="2018-05-10T20:38:38Z" uid="3842253" user="NKA_import" version="1">
		<tag k="name" v="Nedre Skaren" />
		<tag k="place" v="farm" />
		<tag k="ssr:stedsnr" v="979808" />
		<tag k="ssr:type" v="gard" />
	</node>
	<node changeset="58861043" id="5610210006" lat="58.3139193" lon="6.9860311" timestamp="2018-05-10T20:38:38Z" uid="3842253" user="NKA_import" version="1">
		<tag k="name" v="Skaren" />
		<tag k="place" v="hamlet" />
		<tag k="ssr:stedsnr" v="979809" />
		<tag k="ssr:type" v="navnegard" />
	</node>
	<node changeset="58861043" id="5610210007" lat="58.345" lon="7.0274083" timestamp="2018-05-10T20:38:38Z" uid="3842253" user="NKA_import" version="1">
		<tag k="alt_name" v="Fjell" />
		<tag k="name" v="Slettebø" />
		<tag k="place" v="farm" />
		<tag k="ssr:stedsnr" v="546678" />
		<tag k="ssr:type" v="bruk" />
	</node>
	<node changeset="58861043" id="5610210008" lat="58.3383389" lon="7.0241278" timestamp="2018-05-10T20:38:38Z" uid="3842253" user="NKA_import" version="1">
		<tag k="name" v="Monan" />
		<tag k="place" v="farm" />
		<tag k="ssr:stedsnr" v="546685" />
		<tag k="ssr:type" v="bruk" />
	</node>
	<node changeset="58861043" id="5610210009" lat="58.3166335" lon="6.962134" timestamp="2018-05-10T20:38:38Z" uid="3842253" user="NKA_import" version="1">
		<tag k="name" v="Eljestrøm" />
		<tag k="place" v="farm" />
		<tag k="ssr:stedsnr" v="979810" />
		<tag k="ssr:type" v="gard" />
	</node>
	<node changeset="58861043" id="5610210010" lat="58.5507" lon="6.9345583" timestamp="2018-05-10T20:38:38Z" uid="3842253" user="NKA_import" version="1">
		<tag k="alt_name" v="Eikjeland" />
		<tag k="name" v="Eikeland" />
		<tag k="place" v="farm" />
		<tag k="ssr:stedsnr" v="546698" />
		<tag k="ssr:type" v="gard" />
	</node>
	<node changeset="58861043" id="5610210011" lat="58.2869869" lon="6.9358444" timestamp="2018-05-10T20:38:38Z" uid="3842253" user="NKA_import" version="1">
		<tag k="name" v="Store Åse" />
		<tag k="place" v="farm" />
		<tag k="ssr:stedsnr" v="979811" />
		<tag k="ssr:type" v="gard" />
	</node>
	<node changeset="58861043" id="5610210012" lat="58.2798096" lon="6.9169303" timestamp="2018-05-10T20:38:38Z" uid="3842253" user="NKA_import" version="1">
		<tag k="name" v="Store Åse" />
		<tag k="place" v="farm" />
		<tag k="ssr:stedsnr" v="979812" />
		<tag k="ssr:type" v="gard" />
	</node>
	<node changeset="58861043" id="5610210013" lat="58.4136111" lon="7.0738694" timestamp="2018-05-10T20:38:38Z" uid="3842253" user="NKA_import" version="1">
		<tag k="building" v="cabin" />
		<tag k="name" v="Lyngbakken" />
		<tag k="place" v="isolated_dwelling" />
		<tag k="ssr:stedsnr" v="334338" />
		<tag k="ssr:type" v="fritidsbolig" />
	</node>
	<node changeset="58861043" id="5610210014" lat="58.2765326" lon="6.8737658" timestamp="2018-05-10T20:38:38Z" uid="3842253" user="NKA_import" version="1">
		<tag k="name" v="Lervik" />
		<tag k="place" v="farm" />
		<tag k="ssr:stedsnr" v="979813" />
		<tag k="ssr:type" v="gard" />
	</node>
	<node changeset="58861043" id="5610210015" lat="58.283348" lon="6.8550082" timestamp="2018-05-10T20:38:39Z" uid="3842253" user="NKA_import" version="1">
		<tag k="name" v="Indre Raustad" />
		<tag k="place" v="farm" />
		<tag k="ssr:stedsnr" v="979814" />
		<tag k="ssr:type" v="gard" />
	</node>
	<node changeset="58861043" id="5610210016" lat="58.2815052" lon="6.8979395" timestamp="2018-05-10T20:38:39Z" uid="3842253" user="NKA_import" version="1">
		<tag k="name" v="Ytre Øye" />
		<tag k="place" v="farm" />
		<tag k="ssr:stedsnr" v="979815" />
		<tag k="ssr:type" v="gard" />
	</node>
	<node changeset="58861043" id="5610210017" lat="58.2875579" lon="6.9057345" timestamp="2018-05-10T20:38:39Z" uid="3842253" user="NKA_import" version="1">
		<tag k="name" v="Øvre Øye" />
		<tag k="place" v="farm" />
		<tag k="ssr:stedsnr" v="979816" />
		<tag k="ssr:type" v="gard" />
	</node>
	<node changeset="58861043" id="5610210018" lat="58.3807972" lon="6.9666667" timestamp="2018-05-10T20:38:39Z" uid="3842253" user="NKA_import" version="1">
		<tag k="name" v="Kvivollen" />
		<tag k="place" v="farm" />
		<tag k="ssr:stedsnr" v="759622" />
		<tag k="ssr:type" v="bruk" />
	</node>
	<node changeset="58861043" id="5610210019" lat="58.2905608" lon="6.8632311" timestamp="2018-05-10T20:38:39Z" uid="3842253" user="NKA_import" version="1">
		<tag k="name" v="Ytre Øyeheia" />
		<tag k="place" v="farm" />
		<tag k="ssr:stedsnr" v="979817" />
		<tag k="ssr:type" v="gard" />
	</node>
	<node changeset="58861043" id="5610210020" lat="58.2947008" lon="6.8810014" timestamp="2018-05-10T20:38:39Z" uid="3842253" user="NKA_import" version="1">
		<tag k="historic" v="shieling" />
		<tag k="name" v="Hetlestøl" />
		<tag k="place" v="farm" />
		<tag k="ssr:stedsnr" v="979818" />
		<tag k="ssr:type" v="gard" />
	</node>
	<node changeset="58861043" id="491481846" lat="58.525764" lon="6.9925606" timestamp="2018-05-10T20:38:44Z" uid="3842253" user="NKA_import" version="2">
		<tag k="name" v="Fjotland" />
		<tag k="place" v="hamlet" />
		<tag k="ssr:stedsnr" v="121117" />
		<tag k="ssr:type" v="bygdelagBygd" />
	</node>
	<node changeset="58861043" id="908479240" lat="58.3728324" lon="6.9406106" timestamp="2018-05-10T20:38:48Z" uid="3842253" user="NKA_import" version="2">
		<tag k="historic" v="shieling" />
		<tag k="name" v="Bjåstøl" />
		<tag k="place" v="farm" />
		<tag k="ssr:stedsnr" v="910424" />
		<tag k="ssr:type" v="gard" />
	</node>
	<node changeset="15700799" id="2264431063" lat="58.2599646" lon="6.8392088" timestamp="2013-04-12T12:39:39Z" uid="164049" user="kche" version="1" />
	<node changeset="58861043" id="1276207888" lat="58.3354771" lon="7.0104894" timestamp="2018-05-10T20:38:48Z" uid="3842253" user="NKA_import" version="2">
		<tag k="name" v="Jerdal" />
		<tag k="place" v="farm" />
		<tag k="ssr:stedsnr" v="979843" />
		<tag k="ssr:type" v="gard" />
	</node>
	<node changeset="15700799" id="2264431066" lat="58.2602573" lon="6.8402584" timestamp="2013-04-12T12:39:39Z" uid="164049" user="kche" version="1" />
	<node changeset="41893319" id="1797375792" lat="58.213071" lon="6.7761958" timestamp="2016-09-03T17:40:44Z" uid="2569034" user="kche_import" version="2" />
	<node changeset="15700799" id="2264431068" lat="58.2603608" lon="6.8400905" timestamp="2013-04-12T12:39:39Z" uid="164049" user="kche" version="1" />
	<node changeset="15700799" id="2264431070" lat="58.2604795" lon="6.838714" timestamp="2013-04-12T12:39:39Z" uid="164049" user="kche" version="1" />
	<node changeset="58861043" id="553067319" lat="58.2271472" lon="6.8842583" timestamp="2018-05-10T20:38:45Z" uid="3842253" user="NKA_import" version="3">
		<tag k="alt_name" v="Lande, nedre;Lande" />
		<tag k="name" v="Nedre Lande" />
		<tag k="place" v="farm" />
		<tag k="ssr:stedsnr" v="182140" />
		<tag k="ssr:type" v="gard" />
	</node>
	<node changeset="58861043" id="2904822239" lat="58.387231" lon="6.9769483" timestamp="2018-05-10T20:38:49Z" uid="3842253" user="NKA_import" version="3">
		<tag k="loc_name" v="Basgård" />
		<tag k="name" v="Basskor" />
		<tag k="note:no" v="http://www.kartverket.no/om-kartverket/Kristiansand/Nyheter/kartverket-omgjor-stedsnavnvedtak/" />
		<tag k="official_name" v="Basskor" />
		<tag k="place" v="farm" />
		<tag k="source:official_name" v="Kartverket" />
		<tag k="ssr:stedsnr" v="425631" />
		<tag k="ssr:type" v="gard" />
	</node>
	<node changeset="41893319" id="4382451510" lat="58.2162271" lon="6.7722185" timestamp="2016-09-03T17:40:07Z" uid="2569034" user="kche_import" version="1" />
	<node changeset="58861043" id="2904822241" lat="58.3933144" lon="6.9800858" timestamp="2018-05-10T20:38:49Z" uid="3842253" user="NKA_import" version="2">
		<tag k="alt_name" v="Rudlen" />
		<tag k="name" v="Rudlend" />
		<tag k="place" v="farm" />
		<tag k="ssr:stedsnr" v="61634" />
		<tag k="ssr:type" v="bruk" />
	</node>
	<node changeset="15700799" id="2264431074" lat="58.260644" lon="6.8390801" timestamp="2013-04-12T12:39:39Z" uid="164049" user="kche" version="1" />
	<node changeset="41930145" id="1250388815" lat="58.2243838" lon="6.8344453" timestamp="2016-09-05T12:51:38Z" uid="2569034" user="kche_import" version="3" />
	<node changeset="15700799" id="2264431075" lat="58.2606519" lon="6.8411366" timestamp="2013-04-12T12:39:39Z" uid="164049" user="kche" version="1" />
	<node changeset="58861043" id="908479318" lat="58.3745798" lon="6.9494897" timestamp="2018-05-10T20:38:48Z" uid="3842253" user="NKA_import" version="2">
		<tag k="name" v="Ytre Røynestad" />
		<tag k="place" v="farm" />
		<tag k="ssr:stedsnr" v="485363" />
		<tag k="ssr:type" v="gard" />
	</node>
	<node changeset="15700323" id="1250388824" lat="58.2250075" lon="6.8324169" timestamp="2013-04-12T11:58:20Z" uid="164049" user="kche" version="2" />
	<node changeset="7900872" id="1250388825" lat="58.2254136" lon="6.8268094" timestamp="2011-04-18T20:01:01Z" uid="164049" user="kche" version="1" />
	<node changeset="58861043" id="908479322" lat="58.3851222" lon="6.948675" timestamp="2018-05-10T20:38:48Z" uid="3842253" user="NKA_import" version="2">
		<tag k="name" v="Midtre Røynestad" />
		<tag k="place" v="farm" />
		<tag k="ssr:stedsnr" v="61404" />
		<tag k="ssr:type" v="gard" />
	</node>
	<node changeset="15700323" id="1250388829" lat="58.2248673" lon="6.8264482" timestamp="2013-04-12T11:58:20Z" uid="164049" user="kche" version="2" />
	<node changeset="15700799" id="2264431077" lat="58.2607481" lon="6.8389111" timestamp="2013-04-12T12:39:39Z" uid="164049" user="kche" version="1" />
	<node changeset="15700323" id="1250388835" lat="58.2249478" lon="6.8317899" timestamp="2013-04-12T11:58:20Z" uid="164049" user="kche" version="2" />
	<node changeset="41930145" id="1250388836" lat="58.2244778" lon="6.8340015" timestamp="2016-09-05T12:51:38Z" uid="2569034" user="kche_import" version="3" />
	<node changeset="11971488" id="1797376486" lat="58.2164939" lon="6.7757875" timestamp="2012-06-21T18:26:00Z" uid="164049" user="kche" version="1" />
	<node changeset="15700323" id="1250388840" lat="58.2251667" lon="6.8351648" timestamp="2013-04-12T11:58:20Z" uid="164049" user="kche" version="2" />
	<node changeset="15700323" id="1250388842" lat="58.2251218" lon="6.8271165" timestamp="2013-04-12T11:58:20Z" uid="164049" user="kche" version="2" />
	<node changeset="11971488" id="1797376487" lat="58.2164993" lon="6.7765063" timestamp="2012-06-21T18:26:00Z" uid="164049" user="kche" version="1" />
	<node changeset="15700323" id="1250388847" lat="58.2253211" lon="6.8337471" timestamp="2013-04-12T11:58:20Z" uid="164049" user="kche" version="2" />
	<node changeset="15700323" id="1250388849" lat="58.2248887" lon="6.8267334" timestamp="2013-04-12T11:58:20Z" uid="164049" user="kche" version="2" />
	<node changeset="15700799" id="2264431081" lat="58.2609717" lon="6.8394089" timestamp="2013-04-12T12:39:39Z" uid="164049" user="kche" version="1" />
	<node changeset="41930145" id="1250388856" lat="58.2245991" lon="6.8330689" timestamp="2016-09-05T12:51:38Z" uid="2569034" user="kche_import" version="3" />
	<node changeset="15700323" id="1250388861" lat="58.2249326" lon="6.8252814" timestamp="2013-04-12T11:58:20Z" uid="164049" user="kche" version="2" />
	<node changeset="41893319" id="1797376491" lat="58.2165533" lon="6.7739178" timestamp="2016-09-03T17:40:45Z" uid="2569034" user="kche_import" version="2" />
	<node changeset="41930145" id="1250388868" lat="58.2244969" lon="6.8351223" timestamp="2016-09-05T12:51:38Z" uid="2569034" user="kche_import" version="3" />
	<node changeset="77447902" id="2534839175" lat="58.3068186" lon="6.958" timestamp="2019-11-22T23:04:39Z" uid="7596226" user="elias17" version="2" />
	<node changeset="41893319" id="1797376454" lat="58.2164779" lon="6.7737182" timestamp="2016-09-03T17:40:45Z" uid="2569034" user="kche_import" version="2" />
	<node changeset="15700323" id="1250388873" lat="58.2248963" lon="6.8270985" timestamp="2013-04-12T11:58:20Z" uid="164049" user="kche" version="2" />
	<node changeset="77447902" id="2534839178" lat="58.307278" lon="6.9572149" timestamp="2019-11-22T23:04:39Z" uid="7596226" user="elias17" version="2" />
	<node changeset="41930145" id="1250388875" lat="58.2244007" lon="6.8348608" timestamp="2016-09-05T12:51:38Z" uid="2569034" user="kche_import" version="2" />
	<node changeset="77447902" id="2534839180" lat="58.3074492" lon="6.9593369" timestamp="2019-11-22T23:04:39Z" uid="7596226" user="elias17" version="2" />
	<node changeset="41930145" id="1250388877" lat="58.2247959" lon="6.8324226" timestamp="2016-09-05T12:51:38Z" uid="2569034" user="kche_import" version="3" />
	<node changeset="15700323" id="1250388878" lat="58.2248693" lon="6.825768" timestamp="2013-04-12T11:58:20Z" uid="164049" user="kche" version="2" />
	<node changeset="41893319" id="4382451524" lat="58.2167434" lon="6.7709092" timestamp="2016-09-03T17:40:07Z" uid="2569034" user="kche_import" version="1" />
	<node changeset="15700799" id="2264431087" lat="58.261155" lon="6.8402229" timestamp="2013-04-12T12:39:39Z" uid="164049" user="kche" version="1" />
	<node changeset="58861043" id="1489556153" lat="58.2432639" lon="6.9825" timestamp="2018-05-10T20:38:49Z" uid="3842253" user="NKA_import" version="2">
		<tag k="name" v="Sørhelle" />
		<tag k="place" v="farm" />
		<tag k="ssr:stedsnr" v="910387" />
		<tag k="ssr:type" v="gard" />
	</node>
	<node changeset="11971488" id="1797376497" lat="58.2165954" lon="6.77685" timestamp="2012-06-21T18:26:00Z" uid="164049" user="kche" version="1" />
	<node changeset="58861043" id="5610210221" lat="58.3208579" lon="6.861751" timestamp="2018-05-10T20:38:39Z" uid="3842253" user="NKA_import" version="1">
		<tag k="name" v="Fundal" />
		<tag k="place" v="farm" />
		<tag k="ssr:stedsnr" v="979819" />
		<tag k="ssr:type" v="gard" />
	</node>
	<node changeset="58861043" id="5610210222" lat="58.3273158" lon="6.8792553" timestamp="2018-05-10T20:38:39Z" uid="3842253" user="NKA_import" version="1">
		<tag k="name" v="Rudlend" />
		<tag k="place" v="farm" />
		<tag k="ssr:stedsnr" v="979820" />
		<tag k="ssr:type" v="gard" />
	</node>
	<node changeset="58861043" id="5610210223" lat="58.3188494" lon="6.8976426" timestamp="2018-05-10T20:38:39Z" uid="3842253" user="NKA_import" version="1">
		<tag k="name" v="Lauvås" />
		<tag k="place" v="farm" />
		<tag k="ssr:stedsnr" v="979821" />
		<tag k="ssr:type" v="gard" />
	</node>
	<node changeset="58861043" id="5610210224" lat="58.3157077" lon="6.9222197" timestamp="2018-05-10T20:38:39Z" uid="3842253" user="NKA_import" version="1">
		<tag k="name" v="Kleven" />
		<tag k="place" v="farm" />
		<tag k="ssr:stedsnr" v="979822" />
		<tag k="ssr:type" v="gard" />
	</node>
	<node changeset="58861043" id="5610210225" lat="58.3365336" lon="6.9038027" timestamp="2018-05-10T20:38:39Z" uid="3842253" user="NKA_import" version="1">
		<tag k="name" v="Våskeland" />
		<tag k="place" v="farm" />
		<tag k="ssr:stedsnr" v="979825" />
		<tag k="ssr:type" v="gard" />
	</node>
	<node changeset="58861043" id="5610210226" lat="58.3323043" lon="6.9192024" timestamp="2018-05-10T20:38:39Z" uid="3842253" user="NKA_import" version="1">
		<tag k="historic" v="shieling" />
		<tag k="name" v="Knarvestøl" />
		<tag k="place" v="farm" />
		<tag k="ssr:stedsnr" v="979826" />
		<tag k="ssr:type" v="gard" />
	</node>
	<node changeset="58861043" id="5610210227" lat="58.3342755" lon="6.9407899" timestamp="2018-05-10T20:38:40Z" uid="3842253" user="NKA_import" version="1">
		<tag k="name" v="Røynås" />
		<tag k="place" v="farm" />
		<tag k="ssr:stedsnr" v="979827" />
		<tag k="ssr:type" v="gard" />
	</node>
	<node changeset="58861043" id="5610210228" lat="58.3594744" lon="6.9634899" timestamp="2018-05-10T20:38:40Z" uid="3842253" user="NKA_import" version="1">
		<tag k="name" v="Lille Rafoss" />
		<tag k="place" v="farm" />
		<tag k="ssr:stedsnr" v="979829" />
		<tag k="ssr:type" v="gard" />
	</node>
	<node changeset="58861043" id="5610210229" lat="58.4260394" lon="6.9132581" timestamp="2018-05-10T20:38:40Z" uid="3842253" user="NKA_import" version="1">
		<tag k="name" v="Ryggesås" />
		<tag k="place" v="farm" />
		<tag k="ssr:stedsnr" v="979832" />
		<tag k="ssr:type" v="gard" />
	</node>
	<node changeset="58861043" id="5610210230" lat="58.3950943" lon="6.9594071" timestamp="2018-05-10T20:38:40Z" uid="3842253" user="NKA_import" version="1">
		<tag k="historic" v="shieling" />
		<tag k="name" v="Homplands-Hellestøl" />
		<tag k="place" v="farm" />
		<tag k="ssr:stedsnr" v="979835" />
		<tag k="ssr:type" v="gard" />
	</node>
	<node changeset="58861043" id="5610210231" lat="58.3928874" lon="6.9824582" timestamp="2018-05-10T20:38:40Z" uid="3842253" user="NKA_import" version="1">
		<tag k="name" v="Solbjørum" />
		<tag k="place" v="farm" />
		<tag k="ssr:stedsnr" v="979836" />
		<tag k="ssr:type" v="gard" />
	</node>
	<node changeset="58861043" id="5610210232" lat="58.3482083" lon="6.9812333" timestamp="2018-05-10T20:38:40Z" uid="3842253" user="NKA_import" version="1">
		<tag k="name" v="Øygarden" />
		<tag k="place" v="locality" />
		<tag k="ssr:stedsnr" v="880466" />
		<tag k="ssr:type" v="gammelBosettingsplass" />
	</node>
	<node changeset="11971488" id="1797376500" lat="58.2166639" lon="6.776923" timestamp="2012-06-21T18:26:00Z" uid="164049" user="kche" version="1" />
	<node changeset="58861043" id="5610210234" lat="58.3189191" lon="6.9579412" timestamp="2018-05-10T20:38:40Z" uid="3842253" user="NKA_import" version="1">
		<tag k="name" v="Åmot" />
		<tag k="place" v="neighbourhood" />
		<tag k="ssr:stedsnr" v="979838" />
		<tag k="ssr:type" v="gard" />
	</node>
	<node changeset="58861043" id="5610210235" lat="58.2935611" lon="6.8277222" timestamp="2018-05-10T20:38:40Z" uid="3842253" user="NKA_import" version="1">
		<tag k="building" v="yes" />
		<tag k="disused:amenity" v="school" />
		<tag k="name" v="Frøitland skole" />
		<tag k="ssr:stedsnr" v="92085" />
		<tag k="ssr:type" v="skole" />
	</node>
	<node changeset="58861043" id="5610210236" lat="58.379325" lon="6.9510417" timestamp="2018-05-10T20:38:40Z" uid="3842253" user="NKA_import" version="1">
		<tag k="name" v="Dyblan" />
		<tag k="place" v="farm" />
		<tag k="ssr:stedsnr" v="880641" />
		<tag k="ssr:type" v="bruk" />
	</node>
	<node changeset="58861043" id="5610210237" lat="58.3775627" lon="7.0115724" timestamp="2018-05-10T20:38:40Z" uid="3842253" user="NKA_import" version="1">
		<tag k="name" v="Vestre Sandvann" />
		<tag k="place" v="farm" />
		<tag k="ssr:stedsnr" v="979845" />
		<tag k="ssr:type" v="gard" />
	</node>
	<node changeset="58861043" id="5610210238" lat="58.4969833" lon="6.9196117" timestamp="2018-05-10T20:38:40Z" uid="3842253" user="NKA_import" version="1">
		<tag k="name" v="Risøya" />
		<tag k="place" v="farm" />
		<tag k="ssr:stedsnr" v="979846" />
		<tag k="ssr:type" v="gard" />
	</node>
	<node changeset="58861043" id="5610210239" lat="58.3637111" lon="6.9663639" timestamp="2018-05-10T20:38:41Z" uid="3842253" user="NKA_import" version="1">
		<tag k="name" v="Rahommen" />
		<tag k="place" v="farm" />
		<tag k="ssr:stedsnr" v="334489" />
		<tag k="ssr:type" v="bruk" />
	</node>
	<node changeset="58861043" id="5610210240" lat="58.3575944" lon="7.0430111" timestamp="2018-05-10T20:38:41Z" uid="3842253" user="NKA_import" version="1">
		<tag k="name" v="Espeland indre" />
		<tag k="place" v="locality" />
		<tag k="ssr:stedsnr" v="576267" />
		<tag k="ssr:type" v="gammelBosettingsplass" />
	</node>
	<node changeset="58861043" id="5610210241" lat="58.4881403" lon="6.9602969" timestamp="2018-05-10T20:38:41Z" uid="3842253" user="NKA_import" version="1">
		<tag k="name" v="Ytre Homme" />
		<tag k="place" v="farm" />
		<tag k="ssr:stedsnr" v="979847" />
		<tag k="ssr:type" v="gard" />
	</node>
	<node changeset="58861043" id="5610210242" lat="58.5463235" lon="7.0575648" timestamp="2018-05-10T20:38:41Z" uid="3842253" user="NKA_import" version="1">
		<tag k="name" v="Mjåvatn" />
		<tag k="place" v="farm" />
		<tag k="ssr:stedsnr" v="979853" />
		<tag k="ssr:type" v="gard" />
	</node>
	<node changeset="58861043" id="5610210243" lat="58.2645138" lon="6.939083" timestamp="2018-05-10T20:38:41Z" uid="3842253" user="NKA_import" version="1">
		<tag k="building" v="cabin" />
		<tag k="historic" v="shieling" />
		<tag k="name" v="Båstøl" />
		<tag k="place" v="isolated_dwelling" />
		<tag k="ssr:stedsnr" v="182301" />
		<tag k="ssr:type" v="fritidsbolig" />
	</node>
	<node changeset="58861043" id="5610210244" lat="58.5528693" lon="6.9689742" timestamp="2018-05-10T20:38:41Z" uid="3842253" user="NKA_import" version="1">
		<tag k="name" v="Lien" />
		<tag k="place" v="farm" />
		<tag k="ssr:stedsnr" v="979854" />
		<tag k="ssr:type" v="gard" />
	</node>
	<node changeset="58861043" id="5610210245" lat="58.54311" lon="6.9709879" timestamp="2018-05-10T20:38:41Z" uid="3842253" user="NKA_import" version="1">
		<tag k="name" v="Øvre Harbakk" />
		<tag k="place" v="farm" />
		<tag k="ssr:stedsnr" v="979855" />
		<tag k="ssr:type" v="gard" />
	</node>
	<node changeset="58861043" id="5610210246" lat="58.5419347" lon="6.9613482" timestamp="2018-05-10T20:38:41Z" uid="3842253" user="NKA_import" version="1">
		<tag k="name" v="Nedre Harbakk" />
		<tag k="place" v="farm" />
		<tag k="ssr:stedsnr" v="979857" />
		<tag k="ssr:type" v="gard" />
	</node>
	<node changeset="58861043" id="5610210247" lat="58.7268611" lon="6.9273278" timestamp="2018-05-10T20:38:41Z" uid="3842253" user="NKA_import" version="1">
		<tag k="alt_name" v="Hoomstøl (neddemt)" />
		<tag k="historic" v="shieling" />
		<tag k="name" v="Homstøl (neddemt)" />
		<tag k="place" v="locality" />
		<tag k="ssr:stedsnr" v="885156" />
		<tag k="ssr:type" v="gammelBosettingsplass" />
	</node>
	<node changeset="58861043" id="5610210248" lat="58.3450694" lon="6.9705806" timestamp="2018-05-10T20:38:41Z" uid="3842253" user="NKA_import" version="1">
		<tag k="name" v="Deilda" />
		<tag k="place" v="farm" />
		<tag k="ssr:stedsnr" v="576315" />
		<tag k="ssr:type" v="bruk" />
	</node>
	<node changeset="58861043" id="5610210249" lat="58.5421265" lon="6.9662758" timestamp="2018-05-10T20:38:41Z" uid="3842253" user="NKA_import" version="1">
		<tag k="name" v="Harbakk" />
		<tag k="place" v="hamlet" />
		<tag k="ssr:stedsnr" v="979858" />
		<tag k="ssr:type" v="navnegard" />
	</node>
	<node changeset="58861043" id="5610210250" lat="58.5150471" lon="6.981431" timestamp="2018-05-10T20:38:41Z" uid="3842253" user="NKA_import" version="1">
		<tag k="name" v="Åsen" />
		<tag k="place" v="farm" />
		<tag k="ssr:stedsnr" v="979860" />
		<tag k="ssr:type" v="gard" />
	</node>
	<node changeset="41893319" id="1797376503" lat="58.216654" lon="6.7740306" timestamp="2016-09-03T17:40:45Z" uid="2569034" user="kche_import" version="2" />
	<node changeset="58861043" id="5610210252" lat="58.5004769" lon="7.0620789" timestamp="2018-05-10T20:38:42Z" uid="3842253" user="NKA_import" version="1">
		<tag k="name" v="Åsen" />
		<tag k="place" v="hamlet" />
		<tag k="ssr:stedsnr" v="979862" />
		<tag k="ssr:type" v="navnegard" />
	</node>
	<node changeset="58861043" id="5610210253" lat="58.4539072" lon="7.0244751" timestamp="2018-05-10T20:38:42Z" uid="3842253" user="NKA_import" version="1">
		<tag k="name" v="Øvre Brulien" />
		<tag k="place" v="farm" />
		<tag k="ssr:stedsnr" v="979868" />
		<tag k="ssr:type" v="gard" />
	</node>
	<node changeset="58861043" id="5610210255" lat="58.40775" lon="6.9185278" timestamp="2018-05-10T20:38:42Z" uid="3842253" user="NKA_import" version="1">
		<tag k="name" v="Oksefjell" />
		<tag k="place" v="farm" />
		<tag k="ssr:stedsnr" v="182379" />
		<tag k="ssr:type" v="gard" />
	</node>
	<node changeset="58861043" id="5610210256" lat="58.460881" lon="6.9982078" timestamp="2018-05-10T20:38:42Z" uid="3842253" user="NKA_import" version="1">
		<tag k="name" v="Galdal" />
		<tag k="place" v="hamlet" />
		<tag k="ssr:stedsnr" v="979869" />
		<tag k="ssr:type" v="gard" />
	</node>
	<node changeset="58861043" id="5610210257" lat="58.5445778" lon="6.9832" timestamp="2018-05-10T20:38:42Z" uid="3842253" user="NKA_import" version="1">
		<tag k="name" v="Røyland" />
		<tag k="place" v="farm" />
		<tag k="ssr:stedsnr" v="182384" />
		<tag k="ssr:type" v="gard" />
	</node>
	<node changeset="58861043" id="5610210258" lat="58.7304324" lon="6.9257535" timestamp="2018-05-10T20:38:42Z" uid="3842253" user="NKA_import" version="1">
		<tag k="historic" v="shieling" />
		<tag k="name" v="Homstøl" />
		<tag k="place" v="farm" />
		<tag k="ssr:stedsnr" v="979874" />
		<tag k="ssr:type" v="gard" />
	</node>
	<node changeset="58861043" id="5610210261" lat="58.3433583" lon="6.9490897" timestamp="2018-05-10T20:38:42Z" uid="3842253" user="NKA_import" version="1">
		<tag k="alt_name" v="Kjeldås" />
		<tag k="building" v="cabin" />
		<tag k="name" v="Tjellås" />
		<tag k="place" v="isolated_dwelling" />
		<tag k="ssr:stedsnr" v="182459" />
		<tag k="ssr:type" v="fritidsbolig" />
	</node>
	<node changeset="58861043" id="5610210262" lat="58.5284344" lon="6.9888447" timestamp="2018-05-10T20:38:42Z" uid="3842253" user="NKA_import" version="1">
		<tag k="name" v="Fjotland prestegård" />
		<tag k="place" v="farm" />
		<tag k="ssr:stedsnr" v="979859" />
		<tag k="ssr:type" v="gard" />
	</node>
	<node changeset="58861043" id="5610210263" lat="58.3402502" lon="7.041764" timestamp="2018-05-10T20:38:43Z" uid="3842253" user="NKA_import" version="1">
		<tag k="name" v="Ytregarden" />
		<tag k="place" v="hamlet" />
		<tag k="ssr:stedsnr" v="881125" />
		<tag k="ssr:type" v="grend" />
	</node>
	<node changeset="58861043" id="5610210264" lat="58.33535" lon="6.9021528" timestamp="2018-05-10T20:38:43Z" uid="3842253" user="NKA_import" version="1">
		<tag k="name" v="Våskeland" />
		<tag k="place" v="locality" />
		<tag k="ssr:stedsnr" v="182463" />
		<tag k="ssr:type" v="gammelBosettingsplass" />
	</node>
	<node changeset="58861043" id="5610210265" lat="58.3727099" lon="6.9790772" timestamp="2018-05-10T20:38:43Z" uid="3842253" user="NKA_import" version="1">
		<tag k="name" v="Øvre Omland" />
		<tag k="place" v="hamlet" />
		<tag k="ssr:stedsnr" v="576604" />
		<tag k="ssr:type" v="grend" />
	</node>
	<node changeset="58861043" id="5610210266" lat="58.3101111" lon="7.0380778" timestamp="2018-05-10T20:38:43Z" uid="3842253" user="NKA_import" version="1">
		<tag k="name" v="Espeland" />
		<tag k="place" v="farm" />
		<tag k="ssr:stedsnr" v="182538" />
		<tag k="ssr:type" v="gard" />
	</node>
	<node changeset="58861043" id="5610210267" lat="58.2569028" lon="6.8749445" timestamp="2018-05-10T20:38:43Z" uid="3842253" user="NKA_import" version="1">
		<tag k="name" v="Ytre Guse" />
		<tag k="place" v="locality" />
		<tag k="ssr:stedsnr" v="457974" />
		<tag k="ssr:type" v="gammelBosettingsplass" />
	</node>
	<node changeset="58861043" id="5610210268" lat="58.5256722" lon="7.0130945" timestamp="2018-05-10T20:38:43Z" uid="3842253" user="NKA_import" version="1">
		<tag k="name" v="Kjølnes" />
		<tag k="place" v="farm" />
		<tag k="ssr:stedsnr" v="763077" />
		<tag k="ssr:type" v="bruk" />
	</node>
	<node changeset="58861043" id="5610210269" lat="58.4832778" lon="7.0871667" timestamp="2018-05-10T20:38:43Z" uid="3842253" user="NKA_import" version="1">
		<tag k="historic" v="shieling" />
		<tag k="name" v="Valdrostølen" />
		<tag k="place" v="locality" />
		<tag k="ssr:stedsnr" v="885397" />
		<tag k="ssr:type" v="gammelBosettingsplass" />
	</node>
	<node changeset="58861043" id="5610210270" lat="58.353525" lon="7.0761583" timestamp="2018-05-10T20:38:43Z" uid="3842253" user="NKA_import" version="1">
		<tag k="name" v="Bø" />
		<tag k="place" v="locality" />
		<tag k="ssr:stedsnr" v="182702" />
		<tag k="ssr:type" v="gammelBosettingsplass" />
	</node>
	<node changeset="58861043" id="5610210271" lat="58.2339361" lon="6.7443611" timestamp="2018-05-10T20:38:43Z" uid="3842253" user="NKA_import" version="1">
		<tag k="name" v="Lien" />
		<tag k="place" v="locality" />
		<tag k="ssr:stedsnr" v="335264" />
		<tag k="ssr:type" v="gammelBosettingsplass" />
	</node>
	<node changeset="58861043" id="5610210272" lat="58.7766556" lon="6.964325" timestamp="2018-05-10T20:38:43Z" uid="3842253" user="NKA_import" version="1">
		<tag k="historic" v="shieling" />
		<tag k="name" v="Svoldalsstøl" />
		<tag k="place" v="locality" />
		<tag k="ssr:stedsnr" v="183059" />
		<tag k="ssr:type" v="seterStøl" />
	</node>
	<node changeset="58861043" id="5610210273" lat="58.7169194" lon="6.913325" timestamp="2018-05-10T20:38:43Z" uid="3842253" user="NKA_import" version="1">
		<tag k="historic" v="shieling" />
		<tag k="name" v="Skrøylestøl" />
		<tag k="place" v="locality" />
		<tag k="ssr:stedsnr" v="763245" />
		<tag k="ssr:type" v="gammelBosettingsplass" />
	</node>
	<node changeset="58861043" id="5610210274" lat="58.3240083" lon="6.7812" timestamp="2018-05-10T20:38:43Z" uid="3842253" user="NKA_import" version="1">
		<tag k="name" v="Geiskeli" />
		<tag k="place" v="locality" />
		<tag k="ssr:stedsnr" v="881445" />
		<tag k="ssr:type" v="gammelBosettingsplass" />
	</node>
	<node changeset="58861043" id="5610210275" lat="58.3136278" lon="6.8924667" timestamp="2018-05-10T20:38:44Z" uid="3842253" user="NKA_import" version="1">
		<tag k="name" v="Lille Solbjørg" />
		<tag k="place" v="farm" />
		<tag k="ssr:stedsnr" v="661026" />
		<tag k="ssr:type" v="bruk" />
	</node>
	<node changeset="58861043" id="5610210276" lat="58.5049306" lon="7.0156333" timestamp="2018-05-10T20:38:44Z" uid="3842253" user="NKA_import" version="1">
		<tag k="name" v="Gamle Mygland" />
		<tag k="place" v="locality" />
		<tag k="ssr:stedsnr" v="460289" />
		<tag k="ssr:type" v="gammelBosettingsplass" />
	</node>
	<node changeset="58861043" id="5610210277" lat="58.2376389" lon="6.7429" timestamp="2018-05-10T20:38:44Z" uid="3842253" user="NKA_import" version="1">
		<tag k="name" v="Titland" />
		<tag k="place" v="locality" />
		<tag k="ssr:stedsnr" v="667161" />
		<tag k="ssr:type" v="gammelBosettingsplass" />
	</node>
	<node changeset="58861043" id="5610210278" lat="58.2739944" lon="6.8086194" timestamp="2018-05-10T20:38:44Z" uid="3842253" user="NKA_import" version="1">
		<tag k="name" v="Ravnevollen" />
		<tag k="place" v="farm" />
		<tag k="ssr:stedsnr" v="577153" />
		<tag k="ssr:type" v="bruk" />
	</node>
	<node changeset="58861043" id="5610210279" lat="58.2519528" lon="6.7771194" timestamp="2018-05-10T20:38:44Z" uid="3842253" user="NKA_import" version="1">
		<tag k="alt_name" v="Slåtta;Slåtten" />
		<tag k="name" v="Slåta" />
		<tag k="place" v="farm" />
		<tag k="ssr:stedsnr" v="667303" />
		<tag k="ssr:type" v="gard" />
	</node>
	<node changeset="58861043" id="894727144" lat="58.2371582" lon="6.9315731" timestamp="2018-05-10T20:38:48Z" uid="3842253" user="NKA_import" version="2">
		<tag k="name" v="Busund" />
		<tag k="place" v="locality" />
		<tag k="ssr:stedsnr" v="728112" />
		<tag k="ssr:type" v="gammelBosettingsplass" />
	</node>
	<node changeset="15700799" id="2264431071" lat="58.2605647" lon="6.8382345" timestamp="2013-04-12T12:39:39Z" uid="164049" user="kche" version="1" />
	<node changeset="41984772" id="4390116636" lat="58.2192778" lon="6.8801518" timestamp="2016-09-07T17:33:52Z" uid="2569034" user="kche_import" version="1" />
	<node changeset="23985428" id="2951029239" lat="58.277097" lon="6.8828148" timestamp="2014-07-06T14:55:23Z" uid="1710144" user="rubund" version="1" />
	<node changeset="41893319" id="4382451386" lat="58.2132771" lon="6.7756551" timestamp="2016-09-03T17:40:06Z" uid="2569034" user="kche_import" version="1" />
	<node changeset="58861043" id="491482149" lat="58.5231747" lon="6.935795" timestamp="2018-05-10T20:38:44Z" uid="3842253" user="NKA_import" version="2">
		<tag k="name" v="Kvinlog" />
		<tag k="place" v="village" />
		<tag k="ssr:stedsnr" v="121347" />
		<tag k="ssr:type" v="bygdelagBygd" />
	</node>
	<node changeset="58861043" id="491482150" lat="58.5031" lon="7.0487056" timestamp="2018-05-10T20:38:44Z" uid="3842253" user="NKA_import" version="2">
		<tag k="alt_name" v="Eiåsland" />
		<tag k="name" v="Eiesland" />
		<tag k="place" v="hamlet" />
		<tag k="ssr:stedsnr" v="303057" />
		<tag k="ssr:type" v="gard" />
	</node>
	<node changeset="23985428" id="2951026865" lat="58.275655" lon="6.8896442" timestamp="2014-07-06T14:55:22Z" uid="1710144" user="rubund" version="1" />
	<node changeset="23985428" id="2951026866" lat="58.2756773" lon="6.8945831" timestamp="2014-07-06T14:55:22Z" uid="1710144" user="rubund" version="1" />
	<node changeset="23985428" id="2951026867" lat="58.2756953" lon="6.8861798" timestamp="2014-07-06T14:55:22Z" uid="1710144" user="rubund" version="1" />
	<node changeset="23985428" id="2951026868" lat="58.2757455" lon="6.8859414" timestamp="2014-07-06T14:55:22Z" uid="1710144" user="rubund" version="1" />
	<node changeset="23985428" id="2951026869" lat="58.275772" lon="6.8891779" timestamp="2014-07-06T14:55:22Z" uid="1710144" user="rubund" version="1" />
	<node changeset="23985428" id="2951029261" lat="58.2774954" lon="6.8850988" timestamp="2014-07-06T14:55:24Z" uid="1710144" user="rubund" version="1" />
	<node changeset="23985428" id="2951026873" lat="58.2758737" lon="6.8871655" timestamp="2014-07-06T14:55:22Z" uid="1710144" user="rubund" version="1" />
	<node changeset="15700323" id="1250388837" lat="58.2256699" lon="6.8252155" timestamp="2013-04-12T11:58:20Z" uid="164049" user="kche" version="2" />
	<node changeset="23985428" id="2951029267" lat="58.2775567" lon="6.886466" timestamp="2014-07-06T14:55:24Z" uid="1710144" user="rubund" version="1" />
	<node changeset="58861043" id="5610209812" lat="58.325275" lon="7.0824417" timestamp="2018-05-10T20:38:30Z" uid="3842253" user="NKA_import" version="1">
		<tag k="name" v="Stakkeland" />
		<tag k="place" v="locality" />
		<tag k="ssr:stedsnr" v="303565" />
		<tag k="ssr:type" v="gammelBosettingsplass" />
	</node>
	<node changeset="11971488" id="1797376533" lat="58.2168038" lon="6.7767875" timestamp="2012-06-21T18:26:01Z" uid="164049" user="kche" version="1" />
	<node changeset="23985428" id="2951029271" lat="58.277678" lon="6.8952721" timestamp="2014-07-06T14:55:24Z" uid="1710144" user="rubund" version="1" />
	<node changeset="15700799" id="2264431076" lat="58.2606533" lon="6.8384318" timestamp="2013-04-12T12:39:39Z" uid="164049" user="kche" version="1" />
	<node changeset="68617029" id="6367108383" lat="58.3102444" lon="6.9636814" timestamp="2019-03-28T08:54:40Z" uid="633013" user="Honning" version="1" />
	<node changeset="23985428" id="2951029272" lat="58.277678" lon="6.8957172" timestamp="2014-07-06T14:55:24Z" uid="1710144" user="rubund" version="1" />
	<node changeset="23985428" id="2951026884" lat="58.2761523" lon="6.8833871" timestamp="2014-07-06T14:55:22Z" uid="1710144" user="rubund" version="1" />
	<node changeset="58861043" id="3585288049" lat="58.2913079" lon="6.9558984" timestamp="2018-05-10T20:38:50Z" uid="3842253" user="NKA_import" version="2">
		<tag k="name" v="Motland" />
		<tag k="place" v="farm" />
		<tag k="source:name" v="Road sign" />
		<tag k="ssr:stedsnr" v="789291" />
		<tag k="ssr:type" v="gard" />
	</node>
	<node changeset="41893319" id="2185122998" lat="58.2129039" lon="6.779509" timestamp="2016-09-03T17:40:46Z" uid="2569034" user="kche_import" version="2" />
	<node changeset="41893319" id="1797375519" lat="58.2123457" lon="6.7778925" timestamp="2016-09-03T17:40:44Z" uid="2569034" user="kche_import" version="2" />
	<node changeset="15700799" id="2264431078" lat="58.2608199" lon="6.8408638" timestamp="2013-04-12T12:39:39Z" uid="164049" user="kche" version="1" />
	<node changeset="58861043" id="1684397260" lat="58.2800493" lon="6.7961661" timestamp="2018-05-10T20:38:49Z" uid="3842253" user="NKA_import" version="2">
		<tag k="alt_name" v="Svindland" />
		<tag k="name" v="Svinland" />
		<tag k="place" v="hamlet" />
		<tag k="ssr:stedsnr" v="850261" />
		<tag k="ssr:type" v="gard" />
	</node>
	<node changeset="58861043" id="495514834" lat="58.2665247" lon="6.8186187" timestamp="2018-05-10T20:38:45Z" uid="3842253" user="NKA_import" version="3">
		<tag k="name" v="Feda" />
		<tag k="place" v="village" />
		<tag k="population" v="390" />
		<tag k="ssr:stedsnr" v="242290" />
		<tag k="ssr:type" v="tettsted" />
	</node>
	<node changeset="15700323" id="2264401109" lat="58.2247683" lon="6.8355627" timestamp="2013-04-12T11:58:12Z" uid="164049" user="kche" version="1" />
	<node changeset="41893319" id="2185123033" lat="58.2132223" lon="6.7792168" timestamp="2016-09-03T17:40:46Z" uid="2569034" user="kche_import" version="2" />
	<node changeset="15700799" id="2264431079" lat="58.2608662" lon="6.8395802" timestamp="2013-04-12T12:39:39Z" uid="164049" user="kche" version="1" />
	<node changeset="58861043" id="1276208363" lat="58.3337015" lon="6.9802766" timestamp="2018-05-10T20:38:48Z" uid="3842253" user="NKA_import" version="2">
		<tag k="name" v="Hamre" />
		<tag k="place" v="hamlet" />
		<tag k="ssr:stedsnr" v="61700" />
		<tag k="ssr:type" v="grend" />
	</node>
	<node changeset="23985428" id="2951029288" lat="58.2779245" lon="6.8883313" timestamp="2014-07-06T14:55:24Z" uid="1710144" user="rubund" version="1" />
	<node changeset="15700323" id="2264401139" lat="58.2249787" lon="6.8271103" timestamp="2013-04-12T11:58:12Z" uid="164049" user="kche" version="1" />
	<node changeset="41984772" id="4390116597" lat="58.219073" lon="6.8911124" timestamp="2016-09-07T17:33:51Z" uid="2569034" user="kche_import" version="1" />
	<node changeset="41984772" id="4390116599" lat="58.2190807" lon="6.8911522" timestamp="2016-09-07T17:33:51Z" uid="2569034" user="kche_import" version="1" />
	<node changeset="58861043" id="746769657" lat="58.3475639" lon="7.070925" timestamp="2018-05-10T20:38:46Z" uid="3842253" user="NKA_import" version="2">
		<tag k="alt_name" v="Årlia" />
		<tag k="name" v="Årli" />
		<tag k="place" v="farm" />
		<tag k="ssr:stedsnr" v="710" />
		<tag k="ssr:type" v="gard" />
	</node>
	<node changeset="41984772" id="4390116605" lat="58.2191318" lon="6.8908707" timestamp="2016-09-07T17:33:51Z" uid="2569034" user="kche_import" version="1" />
	<node changeset="41984772" id="4390116606" lat="58.2191385" lon="6.8905636" timestamp="2016-09-07T17:33:51Z" uid="2569034" user="kche_import" version="1" />
	<node changeset="41984772" id="4390116608" lat="58.2191444" lon="6.8905463" timestamp="2016-09-07T17:33:51Z" uid="2569034" user="kche_import" version="1" />
	<node changeset="41984772" id="4390116609" lat="58.2191452" lon="6.8905972" timestamp="2016-09-07T17:33:51Z" uid="2569034" user="kche_import" version="1" />
	<node changeset="41984772" id="4390116610" lat="58.2191593" lon="6.8898133" timestamp="2016-09-07T17:33:51Z" uid="2569034" user="kche_import" version="1" />
	<node changeset="23985428" id="2951029291" lat="58.277983" lon="6.883562" timestamp="2014-07-06T14:55:24Z" uid="1710144" user="rubund" version="1" />
	<node changeset="41984772" id="4390116612" lat="58.2191674" lon="6.8897617" timestamp="2016-09-07T17:33:51Z" uid="2569034" user="kche_import" version="1" />
	<node changeset="15700799" id="2264431080" lat="58.2609716" lon="6.8406176" timestamp="2013-04-12T12:39:39Z" uid="164049" user="kche" version="1" />
	<node changeset="41984772" id="4390116617" lat="58.2191955" lon="6.8912536" timestamp="2016-09-07T17:33:51Z" uid="2569034" user="kche_import" version="1" />
	<node changeset="15700323" id="2264401162" lat="58.2251844" lon="6.8247607" timestamp="2013-04-12T11:58:12Z" uid="164049" user="kche" version="1" />
	<node changeset="41984772" id="4390116620" lat="58.2192049" lon="6.8919027" timestamp="2016-09-07T17:33:52Z" uid="2569034" user="kche_import" version="1" />
	<node changeset="41984772" id="4390116621" lat="58.2192196" lon="6.8928867" timestamp="2016-09-07T17:33:52Z" uid="2569034" user="kche_import" version="1" />
	<node changeset="41984772" id="4390116622" lat="58.2192197" lon="6.8804447" timestamp="2016-09-07T17:33:52Z" uid="2569034" user="kche_import" version="1" />
	<node changeset="41984772" id="4390116623" lat="58.2192271" lon="6.8922952" timestamp="2016-09-07T17:33:52Z" uid="2569034" user="kche_import" version="1" />
	<node changeset="41984772" id="4390116624" lat="58.2192294" lon="6.8907966" timestamp="2016-09-07T17:33:52Z" uid="2569034" user="kche_import" version="1" />
	<node changeset="68617029" id="6367108369" lat="58.3107262" lon="6.963128" timestamp="2019-03-28T08:54:40Z" uid="633013" user="Honning" version="1" />
	<node changeset="68617029" id="6367108370" lat="58.3106607" lon="6.9632263" timestamp="2019-03-28T08:54:40Z" uid="633013" user="Honning" version="1" />
	<node changeset="68617029" id="6367108371" lat="58.3106417" lon="6.9629241" timestamp="2019-03-28T08:54:40Z" uid="633013" user="Honning" version="1" />
	<node changeset="68617029" id="6367108372" lat="58.3107073" lon="6.9633388" timestamp="2019-03-28T08:54:40Z" uid="633013" user="Honning" version="1" />
	<node changeset="58861043" id="495514901" lat="58.2881854" lon="6.8335077" timestamp="2018-05-10T20:38:45Z" uid="3842253" user="NKA_import" version="2">
		<tag k="alt_name" v="Frøitland" />
		<tag k="name" v="Frøytland" />
		<tag k="place" v="hamlet" />
		<tag k="ssr:stedsnr" v="606267" />
		<tag k="ssr:type" v="gard" />
	</node>
	<node changeset="68617029" id="6367108374" lat="58.3105973" lon="6.9635127" timestamp="2019-03-28T08:54:40Z" uid="633013" user="Honning" version="1" />
	<node changeset="68617029" id="6367108375" lat="58.3109279" lon="6.9630074" timestamp="2019-03-28T08:54:40Z" uid="633013" user="Honning" version="1" />
	<node changeset="68617029" id="6367108376" lat="58.3105055" lon="6.9636505" timestamp="2019-03-28T08:54:40Z" uid="633013" user="Honning" version="1" />
	<node changeset="68617029" id="6367108377" lat="58.3105228" lon="6.9638338" timestamp="2019-03-28T08:54:40Z" uid="633013" user="Honning" version="1" />
	<node changeset="41984772" id="4390116634" lat="58.2192676" lon="6.8914756" timestamp="2016-09-07T17:33:52Z" uid="2569034" user="kche_import" version="1" />
	<node changeset="68617029" id="6367108379" lat="58.3104644" lon="6.9635514" timestamp="2019-03-28T08:54:40Z" uid="633013" user="Honning" version="1" />
	<node changeset="68617029" id="6367108380" lat="58.3104876" lon="6.9635166" timestamp="2019-03-28T08:54:40Z" uid="633013" user="Honning" version="1" />
	<node changeset="15700323" id="2264401181" lat="58.2254947" lon="6.8336383" timestamp="2013-04-12T11:58:12Z" uid="164049" user="kche" version="1" />
	<node changeset="68617029" id="6367108382" lat="58.3102178" lon="6.9636173" timestamp="2019-03-28T08:54:40Z" uid="633013" user="Honning" version="1" />
	<node changeset="15700323" id="2264401183" lat="58.2255103" lon="6.8248259" timestamp="2013-04-12T11:58:13Z" uid="164049" user="kche" version="1" />
	<node changeset="68617029" id="6367108384" lat="58.3102325" lon="6.9636992" timestamp="2019-03-28T08:54:40Z" uid="633013" user="Honning" version="1" />
	<node changeset="15700323" id="2264401185" lat="58.2255372" lon="6.8333826" timestamp="2013-04-12T11:58:13Z" uid="164049" user="kche" version="1" />
	<node changeset="41984772" id="4390116642" lat="58.2193021" lon="6.8920613" timestamp="2016-09-07T17:33:52Z" uid="2569034" user="kche_import" version="1" />
	<node changeset="15700323" id="2264401187" lat="58.225601" lon="6.8328375" timestamp="2013-04-12T11:58:13Z" uid="164049" user="kche" version="1" />
	<node changeset="15700323" id="2264401188" lat="58.2256254" lon="6.8255144" timestamp="2013-04-12T11:58:13Z" uid="164049" user="kche" version="1" />
	<node changeset="58861043" id="566676773" lat="58.2535556" lon="6.8475639" timestamp="2018-05-10T20:38:46Z" uid="3842253" user="NKA_import" version="3">
		<tag k="name" v="Teistedal" />
		<tag k="place" v="farm" />
		<tag k="ssr:stedsnr" v="364305" />
		<tag k="ssr:type" v="gard" />
	</node>
	<node changeset="15700323" id="2264401190" lat="58.2256548" lon="6.8256959" timestamp="2013-04-12T11:58:13Z" uid="164049" user="kche" version="1" />
	<node changeset="15700323" id="2264401192" lat="58.2256646" lon="6.8260634" timestamp="2013-04-12T11:58:13Z" uid="164049" user="kche" version="1" />
	<node changeset="15700323" id="2264401194" lat="58.2257651" lon="6.8257517" timestamp="2013-04-12T11:58:13Z" uid="164049" user="kche" version="1" />
	<node changeset="41984772" id="4390116654" lat="58.2193689" lon="6.8916228" timestamp="2016-09-07T17:33:52Z" uid="2569034" user="kche_import" version="1" />
	<node changeset="15700323" id="1250388872" lat="58.2254814" lon="6.8345215" timestamp="2013-04-12T11:58:20Z" uid="164049" user="kche" version="2" />
	<node changeset="41984772" id="4390116638" lat="58.219286" lon="6.8904187" timestamp="2016-09-07T17:33:52Z" uid="2569034" user="kche_import" version="1" />
	<node changeset="23985428" id="2951029299" lat="58.2782185" lon="6.8946149" timestamp="2014-07-06T14:55:24Z" uid="1710144" user="rubund" version="1" />
	<node changeset="58861043" id="909366581" lat="58.3698958" lon="6.9256006" timestamp="2018-05-10T20:38:48Z" uid="3842253" user="NKA_import" version="2">
		<tag k="historic" v="shieling" />
		<tag k="name" v="Solbjørstøl" />
		<tag k="place" v="locality" />
		<tag k="ssr:stedsnr" v="789440" />
		<tag k="ssr:type" v="gard" />
	</node>
	<node changeset="41984772" id="4390116665" lat="58.2194342" lon="6.8895898" timestamp="2016-09-07T17:33:52Z" uid="2569034" user="kche_import" version="1" />
	<node changeset="15700799" id="2264431082" lat="58.2609779" lon="6.8405105" timestamp="2013-04-12T12:39:39Z" uid="164049" user="kche" version="1" />
	<node changeset="41984772" id="4390116682" lat="58.2195531" lon="6.8913563" timestamp="2016-09-07T17:33:52Z" uid="2569034" user="kche_import" version="1" />
	<node changeset="41984772" id="4390116684" lat="58.2195659" lon="6.8801856" timestamp="2016-09-07T17:33:52Z" uid="2569034" user="kche_import" version="1" />
	<node changeset="41984772" id="4390116685" lat="58.2195715" lon="6.8810707" timestamp="2016-09-07T17:33:52Z" uid="2569034" user="kche_import" version="1" />
	<node changeset="41984772" id="4390116686" lat="58.2195859" lon="6.8811047" timestamp="2016-09-07T17:33:52Z" uid="2569034" user="kche_import" version="1" />
	<node changeset="58861043" id="486020434" lat="58.2306084" lon="6.7822674" timestamp="2018-05-10T20:38:44Z" uid="3842253" user="NKA_import" version="4">
		<tag k="name" v="Håland" />
		<tag k="place" v="hamlet" />
		<tag k="ssr:stedsnr" v="546152" />
		<tag k="ssr:type" v="gard" />
	</node>
	<node changeset="77447902" id="2534839182" lat="58.3079086" lon="6.9585519" timestamp="2019-11-22T23:04:39Z" uid="7596226" user="elias17" version="2" />
	<node changeset="58861043" id="1276208475" lat="58.3682806" lon="7.0069833" timestamp="2018-05-10T20:38:48Z" uid="3842253" user="NKA_import" version="2">
		<tag k="name" v="Li" />
		<tag k="place" v="farm" />
		<tag k="ssr:stedsnr" v="728712" />
		<tag k="ssr:type" v="gard" />
	</node>
	<node changeset="15700799" id="2264431084" lat="58.261003" lon="6.8405665" timestamp="2013-04-12T12:39:39Z" uid="164049" user="kche" version="1" />
	<node changeset="58861043" id="746769800" lat="58.3432698" lon="7.0380463" timestamp="2018-05-10T20:38:47Z" uid="3842253" user="NKA_import" version="2">
		<tag k="name" v="Moi" />
		<tag k="place" v="hamlet" />
		<tag k="ssr:stedsnr" v="121714" />
		<tag k="ssr:type" v="bygdelagBygd" />
	</node>
	<node changeset="66515222" id="527787409" lat="58.3168479" lon="6.9624335" timestamp="2019-01-21T19:22:13Z" uid="3497659" user="NKA" version="5">
		<tag k="name" v="Kvinesdal" />
		<tag k="note:no" v="Tettstedsnavn iflg SSB er Liknes, men stedsnavnskiltet viser 'Kvinesdal'." />
		<tag k="place" v="hamlet" />
		<tag k="population" v="2224" />
		<tag k="ssr:stedsnr" v="606249" />
		<tag k="ssr:type" v="tettsted" />
	</node>
	<node changeset="11971488" id="1797376579" lat="58.2175473" lon="6.7756469" timestamp="2012-06-21T18:26:02Z" uid="164049" user="kche" version="1" />
	<node changeset="58861043" id="1803112270" lat="58.3779271" lon="7.0136518" timestamp="2018-05-10T20:38:49Z" uid="3842253" user="NKA_import" version="2">
		<tag k="name" v="Sandvatn" />
		<tag k="place" v="farm" />
		<tag k="ssr:stedsnr" v="425746" />
		<tag k="ssr:type" v="bruk" />
	</node>
	<node changeset="41893319" id="1797375669" lat="58.2128051" lon="6.7774382" timestamp="2016-09-03T17:40:44Z" uid="2569034" user="kche_import" version="2" />
	<node changeset="42022255" id="4393305512" lat="58.2198075" lon="6.8895126" timestamp="2016-09-09T11:02:15Z" uid="164049" user="kche" version="1" />
	<node changeset="42022255" id="4393305513" lat="58.2202257" lon="6.8901993" timestamp="2016-09-09T11:02:15Z" uid="164049" user="kche" version="1" />
	<node changeset="41893319" id="1797375413" lat="58.2122506" lon="6.7781027" timestamp="2016-09-03T17:40:44Z" uid="2569034" user="kche_import" version="2" />
	<node changeset="41893319" id="1797375415" lat="58.2122749" lon="6.777948" timestamp="2016-09-03T17:40:44Z" uid="2569034" user="kche_import" version="2" />
	<node changeset="41984772" id="4390116792" lat="58.219642" lon="6.8913" timestamp="2016-09-07T17:33:53Z" uid="2569034" user="kche_import" version="1" />
	<node changeset="41984772" id="4390116793" lat="58.2196432" lon="6.880979" timestamp="2016-09-07T17:33:53Z" uid="2569034" user="kche_import" version="1" />
	<node changeset="41893319" id="1797375421" lat="58.2122541" lon="6.7798929" timestamp="2016-09-03T17:40:44Z" uid="2569034" user="kche_import" version="2" />
	<node changeset="41984772" id="4390116798" lat="58.2197216" lon="6.8912679" timestamp="2016-09-07T17:33:53Z" uid="2569034" user="kche_import" version="1" />
	<node changeset="58861043" id="746769859" lat="58.3210417" lon="6.9788583" timestamp="2018-05-10T20:38:47Z" uid="3842253" user="NKA_import" version="2">
		<tag k="alt_name" v="Egeland øvre;Eikeland, øvre;Eikeland;Egeland" />
		<tag k="name" v="Øvre Egeland" />
		<tag k="place" v="neighbourhood" />
		<tag k="ssr:stedsnr" v="546517" />
		<tag k="ssr:type" v="gard" />
	</node>
	<node changeset="58861043" id="485221828" lat="58.2466639" lon="6.8384" timestamp="2018-05-10T20:38:44Z" uid="3842253" user="NKA_import" version="3">
		<tag k="alt_name" v="Rørvik, midtre;Rørvik" />
		<tag k="name" v="Midtre Rørvik" />
		<tag k="place" v="farm" />
		<tag k="ssr:stedsnr" v="121128" />
		<tag k="ssr:type" v="gard" />
	</node>
	<node changeset="41984772" id="4390116807" lat="58.2197947" lon="6.8804445" timestamp="2016-09-07T17:33:53Z" uid="2569034" user="kche_import" version="1" />
	<node changeset="41984772" id="4390116808" lat="58.2197967" lon="6.8807936" timestamp="2016-09-07T17:33:53Z" uid="2569034" user="kche_import" version="1" />
	<node changeset="41984772" id="4390116809" lat="58.2197992" lon="6.8807168" timestamp="2016-09-07T17:33:53Z" uid="2569034" user="kche_import" version="1" />
	<node changeset="23985428" id="2951029254" lat="58.2773659" lon="6.8958444" timestamp="2014-07-06T14:55:23Z" uid="1710144" user="rubund" version="1" />
	<node changeset="15700323" id="2264401145" lat="58.2250553" lon="6.8319762" timestamp="2013-04-12T11:58:12Z" uid="164049" user="kche" version="1" />
	<node changeset="15700323" id="2264401149" lat="58.2250889" lon="6.8249654" timestamp="2013-04-12T11:58:12Z" uid="164049" user="kche" version="1" />
	<node changeset="76257621" id="6919497837" lat="58.3341921" lon="6.9472432" timestamp="2019-10-27T05:52:56Z" uid="164049" user="kche" version="1">
		<tag k="name" v="Kyretødnan" />
		<tag k="place" v="locality" />
		<tag k="ssr:stedsnr" v="759323" />
	</node>
	<node changeset="41984772" id="4390116613" lat="58.2191704" lon="6.88988" timestamp="2016-09-07T17:33:51Z" uid="2569034" user="kche_import" version="1" />
	<node changeset="58861043" id="524588588" lat="58.2644833" lon="6.8084833" timestamp="2018-05-10T20:38:45Z" uid="3842253" user="NKA_import" version="2">
		<tag k="name" v="Nygård" />
		<tag k="place" v="farm" />
		<tag k="ssr:stedsnr" v="242276" />
		<tag k="ssr:type" v="bruk" />
	</node>
	<node changeset="58861043" id="524588600" lat="58.2681232" lon="6.8068981" timestamp="2018-05-10T20:38:45Z" uid="3842253" user="NKA_import" version="3">
		<tag k="name" v="Lindland" />
		<tag k="place" v="neighbourhood" />
		<tag k="ssr:stedsnr" v="979665" />
		<tag k="ssr:type" v="gard" />
	</node>
	<node changeset="41893319" id="1797375547" lat="58.2124684" lon="6.7777145" timestamp="2016-09-03T17:40:44Z" uid="2569034" user="kche_import" version="2" />
	<node changeset="41984772" id="4390116618" lat="58.2192022" lon="6.891871" timestamp="2016-09-07T17:33:52Z" uid="2569034" user="kche_import" version="1" />
	<node changeset="23985634" id="2951042634" lat="58.2762357" lon="6.8852205" timestamp="2014-07-06T15:06:14Z" uid="1710144" user="rubund" version="1" />
	<node changeset="23985634" id="2951042635" lat="58.2764113" lon="6.8852541" timestamp="2014-07-06T15:06:14Z" uid="1710144" user="rubund" version="1" />
	<node changeset="23985634" id="2951042636" lat="58.2764441" lon="6.8852181" timestamp="2014-07-06T15:06:14Z" uid="1710144" user="rubund" version="1" />
	<node changeset="23985634" id="2951042637" lat="58.2764808" lon="6.8850836" timestamp="2014-07-06T15:06:14Z" uid="1710144" user="rubund" version="1" />
	<node changeset="58861043" id="5610210233" lat="58.4777444" lon="7.0252444" timestamp="2018-05-10T20:38:40Z" uid="3842253" user="NKA_import" version="1">
		<tag k="name" v="Nesan" />
		<tag k="place" v="farm" />
		<tag k="ssr:stedsnr" v="642482" />
		<tag k="ssr:type" v="bruk" />
	</node>
	<node changeset="41893319" id="1797375578" lat="58.212537" lon="6.7775231" timestamp="2016-09-03T17:40:44Z" uid="2569034" user="kche_import" version="2" />
	<node changeset="15700323" id="2264401169" lat="58.2252751" lon="6.8267287" timestamp="2013-04-12T11:58:12Z" uid="164049" user="kche" version="1" />
	<node changeset="41893319" id="4382451311" lat="58.2122177" lon="6.7793135" timestamp="2016-09-03T17:40:05Z" uid="2569034" user="kche_import" version="1" />
	<node changeset="41893319" id="4382451312" lat="58.2122241" lon="6.7786492" timestamp="2016-09-03T17:40:05Z" uid="2569034" user="kche_import" version="1" />
	<node changeset="41984772" id="4390116629" lat="58.2192466" lon="6.8929241" timestamp="2016-09-07T17:33:52Z" uid="2569034" user="kche_import" version="1" />
	<node changeset="15700323" id="2264401175" lat="58.2253388" lon="6.8340151" timestamp="2013-04-12T11:58:12Z" uid="164049" user="kche" version="1" />
	<node changeset="41893319" id="4382451342" lat="58.212607" lon="6.7800043" timestamp="2016-09-03T17:40:05Z" uid="2569034" user="kche_import" version="1" />
	<node changeset="41893319" id="4382451343" lat="58.212624" lon="6.7773644" timestamp="2016-09-03T17:40:05Z" uid="2569034" user="kche_import" version="1" />
	<node changeset="41984772" id="4390116632" lat="58.2192525" lon="6.8916466" timestamp="2016-09-07T17:33:52Z" uid="2569034" user="kche_import" version="1" />
	<node changeset="41893319" id="4382451346" lat="58.2126603" lon="6.7799668" timestamp="2016-09-03T17:40:05Z" uid="2569034" user="kche_import" version="1" />
	<node changeset="41893319" id="1797375638" lat="58.2126863" lon="6.7773265" timestamp="2016-09-03T17:40:44Z" uid="2569034" user="kche_import" version="2" />
	<node changeset="58861043" id="808382106" lat="58.2337933" lon="6.7348404" timestamp="2018-05-10T20:38:47Z" uid="3842253" user="NKA_import" version="2">
		<tag k="description:no" v="Hytte/fritidsbolig." />
		<tag k="name" v="Sveigenes" />
		<tag k="place" v="isolated_dwelling" />
		<tag k="ssr:stedsnr" v="979672" />
		<tag k="ssr:type" v="gard" />
	</node>
	<node changeset="68617029" id="6367108378" lat="58.3109835" lon="6.9631416" timestamp="2019-03-28T08:54:40Z" uid="633013" user="Honning" version="1" />
	<node changeset="15700323" id="2264401179" lat="58.2253633" lon="6.8264636" timestamp="2013-04-12T11:58:12Z" uid="164049" user="kche" version="1" />
	<node changeset="15700323" id="2264401180" lat="58.2253955" lon="6.8326222" timestamp="2013-04-12T11:58:12Z" uid="164049" user="kche" version="1" />
	<node changeset="68617029" id="6367108381" lat="58.3103538" lon="6.9637176" timestamp="2019-03-28T08:54:40Z" uid="633013" user="Honning" version="1" />
	<node changeset="68617029" id="6367108785" lat="58.3102737" lon="6.9637986" timestamp="2019-03-28T08:54:40Z" uid="633013" user="Honning" version="1" />
	<node changeset="68617029" id="6367108786" lat="58.3104098" lon="6.9633289" timestamp="2019-03-28T08:54:40Z" uid="633013" user="Honning" version="1" />
	<node changeset="68617029" id="6367108787" lat="58.310182" lon="6.9639363" timestamp="2019-03-28T08:54:40Z" uid="633013" user="Honning" version="1" />
	<node changeset="68617029" id="6367108788" lat="58.3103674" lon="6.9637504" timestamp="2019-03-28T08:54:40Z" uid="633013" user="Honning" version="1" />
	<node changeset="68617029" id="6367108789" lat="58.3101145" lon="6.9641303" timestamp="2019-03-28T08:54:40Z" uid="633013" user="Honning" version="1" />
	<node changeset="68617029" id="6367108790" lat="58.3098758" lon="6.9636716" timestamp="2019-03-28T08:54:40Z" uid="633013" user="Honning" version="1" />
	<node changeset="68617029" id="6367108791" lat="58.3100697" lon="6.9641394" timestamp="2019-03-28T08:54:40Z" uid="633013" user="Honning" version="1" />
	<node changeset="68617029" id="6367108792" lat="58.3098842" lon="6.9644182" timestamp="2019-03-28T08:54:40Z" uid="633013" user="Honning" version="1" />
	<node changeset="68617029" id="6367108793" lat="58.3099001" lon="6.9644567" timestamp="2019-03-28T08:54:40Z" uid="633013" user="Honning" version="1" />
	<node changeset="68617029" id="6367108794" lat="58.3099969" lon="6.9634897" timestamp="2019-03-28T08:54:40Z" uid="633013" user="Honning" version="1" />
	<node changeset="68617029" id="6367108795" lat="58.309855" lon="6.9645245" timestamp="2019-03-28T08:54:40Z" uid="633013" user="Honning" version="1" />
	<node changeset="68617029" id="6367108796" lat="58.3099362" lon="6.9647205" timestamp="2019-03-28T08:54:40Z" uid="633013" user="Honning" version="1" />
	<node changeset="68617029" id="6367108797" lat="58.3101969" lon="6.9643289" timestamp="2019-03-28T08:54:40Z" uid="633013" user="Honning" version="1" />
	<node changeset="41984772" id="4390116640" lat="58.2192877" lon="6.8921554" timestamp="2016-09-07T17:33:52Z" uid="2569034" user="kche_import" version="1" />
	<node changeset="58861043" id="5610210251" lat="58.4792889" lon="7.0282778" timestamp="2018-05-10T20:38:41Z" uid="3842253" user="NKA_import" version="1">
		<tag k="name" v="Nyland" />
		<tag k="place" v="farm" />
		<tag k="ssr:stedsnr" v="182332" />
		<tag k="ssr:type" v="bruk" />
	</node>
	<node changeset="58861043" id="5168785094" lat="58.6669417" lon="6.8584667" timestamp="2018-05-10T20:38:50Z" uid="3842253" user="NKA_import" version="2">
		<tag k="name" v="Falkefjell" />
		<tag k="place" v="locality" />
		<tag k="ssr:stedsnr" v="582701" />
		<tag k="ssr:type" v="gammelBosettingsplass" />
	</node>
	<node changeset="41893319" id="4382451400" lat="58.2134378" lon="6.7755941" timestamp="2016-09-03T17:40:06Z" uid="2569034" user="kche_import" version="1" />
	<node changeset="41984772" id="4390116643" lat="58.2193036" lon="6.880627" timestamp="2016-09-07T17:33:52Z" uid="2569034" user="kche_import" version="1" />
	<node changeset="41903554" id="4382451414" lat="58.2137429" lon="6.7756968" timestamp="2016-09-04T09:38:50Z" uid="2569034" user="kche_import" version="2" />
	<node changeset="15700323" id="2264401189" lat="58.2256293" lon="6.8333893" timestamp="2013-04-12T11:58:13Z" uid="164049" user="kche" version="1" />
	<node changeset="58861043" id="3781338857" lat="58.7524663" lon="6.9571314" timestamp="2018-05-10T20:38:50Z" uid="3842253" user="NKA_import" version="2">
		<tag k="name" v="Salmeli" />
		<tag k="place" v="hamlet" />
		<tag k="source" v="N50 map" />
		<tag k="ssr:stedsnr" v="183017" />
		<tag k="ssr:type" v="gard" />
	</node>
	<node changeset="41984772" id="4390116625" lat="58.2192308" lon="6.8919715" timestamp="2016-09-07T17:33:52Z" uid="2569034" user="kche_import" version="1" />
	<node changeset="41893319" id="1797375726" lat="58.2129928" lon="6.7773924" timestamp="2016-09-03T17:40:44Z" uid="2569034" user="kche_import" version="2" />
	<node changeset="41893319" id="4382451441" lat="58.2144225" lon="6.7759069" timestamp="2016-09-03T17:40:06Z" uid="2569034" user="kche_import" version="1" />
	<node changeset="41893319" id="1797375731" lat="58.21305" lon="6.7765376" timestamp="2016-09-03T17:40:44Z" uid="2569034" user="kche_import" version="2" />
	<node changeset="41893319" id="4382451465" lat="58.2148775" lon="6.7762361" timestamp="2016-09-03T17:40:07Z" uid="2569034" user="kche_import" version="1" />
	<node changeset="41893319" id="4382451469" lat="58.2149476" lon="6.7763144" timestamp="2016-09-03T17:40:07Z" uid="2569034" user="kche_import" version="1" />
	<node changeset="58861043" id="566683408" lat="58.232883" lon="6.8906634" timestamp="2018-05-10T20:38:46Z" uid="3842253" user="NKA_import" version="3">
		<tag k="name" v="Øvre Lande" />
		<tag k="place" v="farm" />
		<tag k="ssr:stedsnr" v="979676" />
		<tag k="ssr:type" v="gard" />
	</node>
	<node changeset="41893319" id="1797375772" lat="58.2130992" lon="6.7767899" timestamp="2016-09-03T17:40:44Z" uid="2569034" user="kche_import" version="2" />
	<node changeset="41893319" id="4382451491" lat="58.2157038" lon="6.7705488" timestamp="2016-09-03T17:40:07Z" uid="2569034" user="kche_import" version="1" />
	<node changeset="41893319" id="4382451492" lat="58.215707" lon="6.7707358" timestamp="2016-09-03T17:40:07Z" uid="2569034" user="kche_import" version="1" />
	<node changeset="41893319" id="4382451494" lat="58.2157459" lon="6.7703878" timestamp="2016-09-03T17:40:07Z" uid="2569034" user="kche_import" version="1" />
	<node changeset="41984772" id="4390116657" lat="58.2193754" lon="6.8800779" timestamp="2016-09-07T17:33:52Z" uid="2569034" user="kche_import" version="1" />
	<node changeset="41893319" id="4382451496" lat="58.2157745" lon="6.7720257" timestamp="2016-09-03T17:40:07Z" uid="2569034" user="kche_import" version="1" />
	<node changeset="41893319" id="4382451497" lat="58.2157772" lon="6.772332" timestamp="2016-09-03T17:40:07Z" uid="2569034" user="kche_import" version="1" />
	<node changeset="41893319" id="4382451498" lat="58.2157842" lon="6.7725868" timestamp="2016-09-03T17:40:07Z" uid="2569034" user="kche_import" version="1" />
	<node changeset="41893319" id="4382451499" lat="58.2157998" lon="6.7703895" timestamp="2016-09-03T17:40:07Z" uid="2569034" user="kche_import" version="1" />
	<node changeset="41893319" id="4382451500" lat="58.2158222" lon="6.7732142" timestamp="2016-09-03T17:40:07Z" uid="2569034" user="kche_import" version="1" />
	<node changeset="41893319" id="4382451501" lat="58.2158254" lon="6.771852" timestamp="2016-09-03T17:40:07Z" uid="2569034" user="kche_import" version="1" />
	<node changeset="41893319" id="4382451502" lat="58.2158392" lon="6.7711021" timestamp="2016-09-03T17:40:07Z" uid="2569034" user="kche_import" version="1" />
	<node changeset="41893319" id="4382451503" lat="58.215872" lon="6.7735007" timestamp="2016-09-03T17:40:07Z" uid="2569034" user="kche_import" version="1" />
	<node changeset="41893319" id="4382451504" lat="58.2159361" lon="6.7715046" timestamp="2016-09-03T17:40:07Z" uid="2569034" user="kche_import" version="1" />
	<node changeset="41893319" id="4382451505" lat="58.216026" lon="6.7740871" timestamp="2016-09-03T17:40:07Z" uid="2569034" user="kche_import" version="1" />
	<node changeset="41903554" id="4382451506" lat="58.2161032" lon="6.7705476" timestamp="2016-09-04T09:38:50Z" uid="2569034" user="kche_import" version="2" />
	<node changeset="41893319" id="4382451507" lat="58.2161879" lon="6.7748293" timestamp="2016-09-03T17:40:07Z" uid="2569034" user="kche_import" version="1" />
	<node changeset="41893319" id="4382451508" lat="58.2161959" lon="6.7747886" timestamp="2016-09-03T17:40:07Z" uid="2569034" user="kche_import" version="1" />
	<node changeset="41893319" id="4382451509" lat="58.2162028" lon="6.7723734" timestamp="2016-09-03T17:40:07Z" uid="2569034" user="kche_import" version="1" />
	<node changeset="41893319" id="1797375798" lat="58.2130719" lon="6.7772853" timestamp="2016-09-03T17:40:44Z" uid="2569034" user="kche_import" version="2" />
	<node changeset="41893319" id="4382451511" lat="58.2162877" lon="6.7731171" timestamp="2016-09-03T17:40:07Z" uid="2569034" user="kche_import" version="1" />
	<node changeset="41903554" id="4382451512" lat="58.2162898" lon="6.7729648" timestamp="2016-09-04T09:38:50Z" uid="2569034" user="kche_import" version="2" />
	<node changeset="41893319" id="4382451513" lat="58.2162916" lon="6.7728274" timestamp="2016-09-03T17:40:07Z" uid="2569034" user="kche_import" version="1" />
	<node changeset="41893319" id="4382451514" lat="58.2163361" lon="6.7733184" timestamp="2016-09-03T17:40:07Z" uid="2569034" user="kche_import" version="1" />
	<node changeset="41893319" id="4382451515" lat="58.2163396" lon="6.772484" timestamp="2016-09-03T17:40:07Z" uid="2569034" user="kche_import" version="1" />
	<node changeset="41893319" id="4382451516" lat="58.2163764" lon="6.7720219" timestamp="2016-09-03T17:40:07Z" uid="2569034" user="kche_import" version="1" />
	<node changeset="41893319" id="4382451517" lat="58.2163808" lon="6.772277" timestamp="2016-09-03T17:40:07Z" uid="2569034" user="kche_import" version="1" />
	<node changeset="41893319" id="4382451518" lat="58.2164073" lon="6.7707089" timestamp="2016-09-03T17:40:07Z" uid="2569034" user="kche_import" version="1" />
	<node changeset="41893319" id="4382451519" lat="58.2164399" lon="6.7736116" timestamp="2016-09-03T17:40:07Z" uid="2569034" user="kche_import" version="1" />
	<node changeset="41903554" id="4382451521" lat="58.2165614" lon="6.7708006" timestamp="2016-09-04T09:38:50Z" uid="2569034" user="kche_import" version="2" />
	<node changeset="41893319" id="4382451522" lat="58.2166844" lon="6.7716451" timestamp="2016-09-03T17:40:07Z" uid="2569034" user="kche_import" version="1" />
	<node changeset="41893319" id="4382451523" lat="58.2167095" lon="6.7715413" timestamp="2016-09-03T17:40:07Z" uid="2569034" user="kche_import" version="1" />
	<node changeset="41893319" id="1797375812" lat="58.213165" lon="6.776956" timestamp="2016-09-03T17:40:44Z" uid="2569034" user="kche_import" version="2" />
	<node changeset="41893319" id="4382451525" lat="58.216752" lon="6.7714024" timestamp="2016-09-03T17:40:07Z" uid="2569034" user="kche_import" version="1" />
	<node changeset="41893319" id="4382451527" lat="58.2168171" lon="6.7710237" timestamp="2016-09-03T17:40:07Z" uid="2569034" user="kche_import" version="1" />
	<node changeset="41893319" id="4382451528" lat="58.2168291" lon="6.7711933" timestamp="2016-09-03T17:40:07Z" uid="2569034" user="kche_import" version="1" />
	<node changeset="41903554" id="4382451531" lat="58.2173895" lon="6.7745758" timestamp="2016-09-04T09:38:50Z" uid="2569034" user="kche_import" version="2" />
	<node changeset="41893319" id="4382451532" lat="58.2174994" lon="6.7745908" timestamp="2016-09-03T17:40:07Z" uid="2569034" user="kche_import" version="1" />
	<node changeset="41893319" id="4382451533" lat="58.21759" lon="6.774636" timestamp="2016-09-03T17:40:07Z" uid="2569034" user="kche_import" version="1" />
	<node changeset="41893319" id="4382451534" lat="58.2176523" lon="6.7745983" timestamp="2016-09-03T17:40:07Z" uid="2569034" user="kche_import" version="1" />
	<node changeset="41893319" id="4382451536" lat="58.2177309" lon="6.7744741" timestamp="2016-09-03T17:40:07Z" uid="2569034" user="kche_import" version="1" />
	<node changeset="41893319" id="4382451537" lat="58.2177524" lon="6.7744727" timestamp="2016-09-03T17:40:07Z" uid="2569034" user="kche_import" version="1" />
	<node changeset="41893319" id="1797375828" lat="58.2130179" lon="6.7793486" timestamp="2016-09-03T17:40:44Z" uid="2569034" user="kche_import" version="2" />
	<node changeset="58861043" id="860155734" lat="58.2963017" lon="6.9256544" timestamp="2018-05-10T20:38:47Z" uid="3842253" user="NKA_import" version="2">
		<tag k="name" v="Slimestad" />
		<tag k="place" v="hamlet" />
		<tag k="ssr:stedsnr" v="667277" />
		<tag k="ssr:type" v="gard" />
	</node>
	<node changeset="66515222" id="860155737" lat="58.2837876" lon="6.8995158" timestamp="2019-01-21T19:22:14Z" uid="3497659" user="NKA" version="3">
		<tag k="alt_name" v="Øyestranda" />
		<tag k="name" v="Øye" />
		<tag k="place" v="village" />
		<tag k="ssr:stedsnr" v="121272" />
		<tag k="ssr:type" v="bygdelagBygd" />
	</node>
	<node changeset="58861043" id="860155740" lat="58.3041361" lon="6.9435898" timestamp="2018-05-10T20:38:47Z" uid="3842253" user="NKA_import" version="2">
		<tag k="alt_name" v="Eikeland, yt;Ytre Eikeland" />
		<tag k="name" v="Ytre Egeland" />
		<tag k="place" v="hamlet" />
		<tag k="ssr:stedsnr" v="61247" />
		<tag k="ssr:type" v="gard" />
	</node>
	<node changeset="41893319" id="4382451345" lat="58.2126358" lon="6.7800159" timestamp="2016-09-03T17:40:05Z" uid="2569034" user="kche_import" version="1" />
	<node changeset="58861043" id="5610210280" lat="58.2653917" lon="6.8395917" timestamp="2018-05-10T20:38:44Z" uid="3842253" user="NKA_import" version="1">
		<tag k="name" v="Hangeland" />
		<tag k="place" v="farm" />
		<tag k="ssr:stedsnr" v="667306" />
		<tag k="ssr:type" v="gard" />
	</node>
	<node changeset="41893319" id="1797375874" lat="58.2131194" lon="6.7758864" timestamp="2016-09-03T17:40:44Z" uid="2569034" user="kche_import" version="2" />
	<node changeset="58861043" id="897853338" lat="58.263604" lon="7.0217029" timestamp="2018-05-10T20:38:48Z" uid="3842253" user="NKA_import" version="2">
		<tag k="name" v="Førland" />
		<tag k="place" v="hamlet" />
		<tag k="ssr:stedsnr" v="118042" />
		<tag k="ssr:type" v="grend" />
	</node>
	<node changeset="58861043" id="524588698" lat="58.2607984" lon="6.8127977" timestamp="2018-05-10T20:38:45Z" uid="3842253" user="NKA_import" version="2">
		<tag k="name" v="Sande" />
		<tag k="place" v="hamlet" />
		<tag k="ssr:stedsnr" v="425289" />
		<tag k="ssr:type" v="gard" />
	</node>
	<node changeset="41984772" id="4390116631" lat="58.2192497" lon="6.8925663" timestamp="2016-09-07T17:33:52Z" uid="2569034" user="kche_import" version="1" />
	<node changeset="41893319" id="1797375919" lat="58.213427" lon="6.7791018" timestamp="2016-09-03T17:40:44Z" uid="2569034" user="kche_import" version="2" />
	<node changeset="41893319" id="1797375931" lat="58.2136379" lon="6.7788333" timestamp="2016-09-03T17:40:44Z" uid="2569034" user="kche_import" version="2" />
	<node changeset="41893319" id="1797375935" lat="58.213546" lon="6.7756212" timestamp="2016-09-03T17:40:44Z" uid="2569034" user="kche_import" version="2" />
	<node changeset="58917577" id="5614677959" lat="58.2153918" lon="6.7763275" timestamp="2018-05-13T07:37:14Z" uid="2569034" user="kche_import" version="1" />
	<node changeset="58917577" id="5614677960" lat="58.2162564" lon="6.7757213" timestamp="2018-05-13T07:37:14Z" uid="2569034" user="kche_import" version="1" />
	<node changeset="58861043" id="1291372512" lat="58.3116822" lon="6.9617919" timestamp="2018-05-10T20:38:49Z" uid="3842253" user="NKA_import" version="2">
		<tag k="description:no" v="Kvinesdal sentrum Liknes" />
		<tag k="name" v="Liknes" />
		<tag k="place" v="village" />
		<tag k="ssr:stedsnr" v="121480" />
		<tag k="ssr:type" v="tettsted" />
	</node>
	<node changeset="41903554" id="1797375980" lat="58.2137089" lon="6.7786024" timestamp="2016-09-04T09:38:49Z" uid="2569034" user="kche_import" version="3" />
	<node changeset="11971488" id="1797375983" lat="58.213693" lon="6.7783889" timestamp="2012-06-21T18:25:50Z" uid="164049" user="kche" version="1" />
	<node changeset="11971488" id="1797375985" lat="58.2136972" lon="6.7785242" timestamp="2012-06-21T18:25:50Z" uid="164049" user="kche" version="1" />
	<node changeset="58861043" id="821936124" lat="58.234908" lon="6.7800087" timestamp="2018-05-10T20:38:47Z" uid="3842253" user="NKA_import" version="2">
		<tag k="name" v="Hålandstrand" />
		<tag k="place" v="locality" />
		<tag k="ssr:stedsnr" v="213272" />
		<tag k="ssr:type" v="byggForJordbrukFiskeOgFangst" />
	</node>
	<way changeset="41893319" id="168475271" timestamp="2016-09-03T17:40:18Z" uid="2569034" user="kche_import" version="4">
		<tag k="natural" v="water" />
		<tag k="source" v="Kartverket N50" />
		<tag k="source:date" v="1991-07-01" />
		<nd ref="4382451400" />
		<nd ref="4382451395" />
		<nd ref="4382451386" />
		<nd ref="1797375874" />
		<nd ref="1797375792" />
		<nd ref="1797375731" />
		<nd ref="1797375772" />
		<nd ref="1797375812" />
		<nd ref="4382451377" />
		<nd ref="1797375798" />
		<nd ref="1797375726" />
		<nd ref="1797375669" />
		<nd ref="1797375638" />
		<nd ref="4382451343" />
		<nd ref="1797375578" />
		<nd ref="1797375547" />
		<nd ref="1797375519" />
		<nd ref="1797375471" />
		<nd ref="1797375415" />
		<nd ref="1797375413" />
		<nd ref="4382451312" />
		<nd ref="4382451311" />
		<nd ref="1797375421" />
		<nd ref="4382451342" />
		<nd ref="4382451345" />
		<nd ref="4382451346" />
		<nd ref="2185122998" />
		<nd ref="1797375828" />
		<nd ref="2185123033" />
		<nd ref="1797375919" />
		<nd ref="1797375931" />
		<nd ref="1797376013" />
		<nd ref="1797375980" />
	</way>
	<way changeset="41984772" id="441246090" timestamp="2016-09-07T17:33:58Z" uid="2569034" user="kche_import" version="1">
		<tag k="source" v="Kartverket N50" />
		<tag k="source:date" v="1991-07-01" />
		<nd ref="4390116686" />
		<nd ref="4390116685" />
		<nd ref="4390116643" />
		<nd ref="4390116622" />
		<nd ref="4390116636" />
		<nd ref="4390116657" />
		<nd ref="4390116684" />
		<nd ref="4390116807" />
		<nd ref="4390116809" />
		<nd ref="4390116808" />
	</way>
	<way changeset="41893319" id="168475278" timestamp="2016-09-03T17:40:18Z" uid="2569034" user="kche_import" version="3">
		<tag k="source" v="Kartverket N50" />
		<tag k="source:date" v="1991-07-01" />
		<nd ref="4382451519" />
		<nd ref="1797376454" />
		<nd ref="1797376491" />
		<nd ref="1797376503" />
		<nd ref="1797376548" />
		<nd ref="1797376563" />
		<nd ref="1797376572" />
		<nd ref="1797376576" />
		<nd ref="4382451531" />
	</way>
	<way changeset="70279990" id="680013456" timestamp="2019-05-15T15:05:16Z" uid="3497659" user="NKA" version="4">
		<tag k="amenity" v="school" />
		<tag k="building" v="yes" />
		<tag k="capacity" v="222" />
		<tag k="email" v="kvinesdal.ungdomsskole@kvinesdal.kommune.no" />
		<tag k="fee" v="no" />
		<tag k="grades" v="8-10" />
		<tag k="isced:level" v="2" />
		<tag k="name" v="Kvinesdal ungdomsskole" />
		<tag k="operator" v="Kvinesdal kommune" />
		<tag k="operator:type" v="public" />
		<tag k="phone" v="+47 38 35 41 50" />
		<tag k="ref:gsi" v="10077" />
		<tag k="ref:udir_nsr" v="1007837" />
		<tag k="ssr:stedsnr" v="31671" />
		<tag k="ssr:type" v="skole" />
		<tag k="website" v="http://kvinesdal.ungdomsskole.no" />
		<nd ref="6367108797" />
		<nd ref="6367108796" />
		<nd ref="6367108795" />
		<nd ref="6367108793" />
		<nd ref="6367108792" />
		<nd ref="6367108791" />
		<nd ref="6367108790" />
		<nd ref="6367108794" />
		<nd ref="6367108787" />
		<nd ref="6367108785" />
		<nd ref="6367108384" />
		<nd ref="6367108383" />
		<nd ref="6367108382" />
		<nd ref="6367108786" />
		<nd ref="6367108380" />
		<nd ref="6367108379" />
		<nd ref="6367108376" />
		<nd ref="6367108374" />
		<nd ref="6367108373" />
		<nd ref="6367108371" />
		<nd ref="6367108369" />
		<nd ref="6367108370" />
		<nd ref="6367108372" />
		<nd ref="6367108375" />
		<nd ref="6367108378" />
		<nd ref="6367108377" />
		<nd ref="3069335572" />
		<nd ref="6367108381" />
		<nd ref="6367108788" />
		<nd ref="6367108789" />
		<nd ref="6367108797" />
	</way>
	<way changeset="41984772" id="441246356" timestamp="2016-09-07T17:34:24Z" uid="2569034" user="kche_import" version="1">
		<tag k="source" v="Kartverket N50" />
		<tag k="source:date" v="1991-07-01" />
		<nd ref="4390116642" />
		<nd ref="4390116654" />
		<nd ref="4390116682" />
		<nd ref="4390116792" />
		<nd ref="4390116798" />
	</way>
	<way changeset="58861043" id="246438681" timestamp="2018-05-10T20:38:50Z" uid="3842253" user="NKA_import" version="2">
		<tag k="leisure" v="pitch" />
		<tag k="name" v="Kvinesdal stadion" />
		<tag k="sport" v="soccer" />
		<tag k="ssr:stedsnr" v="941653" />
		<tag k="ssr:type" v="idrettsanlegg" />
		<nd ref="2534839178" />
		<nd ref="2534839175" />
		<nd ref="2534839180" />
		<nd ref="2534839182" />
		<nd ref="2534839178" />
	</way>
	<way changeset="41893319" id="440292207" timestamp="2016-09-03T17:40:39Z" uid="2569034" user="kche_import" version="2">
		<tag k="natural" v="water" />
		<tag k="source" v="Kartverket N50" />
		<tag k="source:date" v="1991-07-01" />
		<nd ref="4382451414" />
		<nd ref="1797375935" />
		<nd ref="4382451400" />
	</way>
	<way changeset="41984772" id="441246110" timestamp="2016-09-07T17:33:59Z" uid="2569034" user="kche_import" version="1">
		<tag k="source" v="Kartverket N50" />
		<tag k="source:date" v="1991-07-01" />
		<nd ref="4390116606" />
		<nd ref="4390116609" />
		<nd ref="4390116624" />
		<nd ref="4390116605" />
		<nd ref="4390116597" />
		<nd ref="4390116599" />
		<nd ref="4390116617" />
		<nd ref="4390116634" />
		<nd ref="4390116632" />
		<nd ref="4390116618" />
		<nd ref="4390116620" />
	</way>
	<way changeset="58917044" id="109157796" timestamp="2018-05-13T07:00:35Z" uid="2569034" user="kche_import" version="4">
		<tag k="name" v="Båskartjødn" />
		<tag k="natural" v="water" />
		<tag k="source" v="Bing" />
		<tag k="ssr:stedsnr" v="203774" />
		<nd ref="1250388872" />
		<nd ref="1250388840" />
		<nd ref="2264401109" />
		<nd ref="1250388868" />
		<nd ref="1250388875" />
		<nd ref="1250388815" />
		<nd ref="1250388836" />
		<nd ref="1250388856" />
		<nd ref="1250388877" />
		<nd ref="1250388835" />
		<nd ref="2264401145" />
		<nd ref="1250388824" />
		<nd ref="2264401180" />
		<nd ref="2264401187" />
		<nd ref="2264401189" />
		<nd ref="2264401185" />
		<nd ref="2264401181" />
		<nd ref="1250388847" />
		<nd ref="2264401175" />
		<nd ref="1250388872" />
	</way>
	<way changeset="58917044" id="109157804" timestamp="2018-05-13T07:00:36Z" uid="2569034" user="kche_import" version="4">
		<tag k="name" v="Volletjødn" />
		<tag k="natural" v="water" />
		<tag k="source" v="Bing" />
		<tag k="ssr:stedsnr" v="810781" />
		<nd ref="1250388873" />
		<nd ref="2264401139" />
		<nd ref="1250388842" />
		<nd ref="2264401169" />
		<nd ref="1250388825" />
		<nd ref="2264401179" />
		<nd ref="2264401182" />
		<nd ref="2264401192" />
		<nd ref="2264401194" />
		<nd ref="2264401190" />
		<nd ref="2264401188" />
		<nd ref="1250388837" />
		<nd ref="2264401183" />
		<nd ref="2264401162" />
		<nd ref="2264401149" />
		<nd ref="1250388861" />
		<nd ref="1250388878" />
		<nd ref="1250388829" />
		<nd ref="1250388849" />
		<nd ref="1250388873" />
	</way>
	<way changeset="58917577" id="587814452" timestamp="2018-05-13T07:37:14Z" uid="2569034" user="kche_import" version="1">
		<tag k="name" v="Eide" />
		<tag k="natural" v="valley" />
		<tag k="ssr:stedsnr" v="324845" />
		<nd ref="5614677960" />
		<nd ref="5614677959" />
	</way>
	<way changeset="58861043" id="291633859" timestamp="2018-05-10T20:38:50Z" uid="3842253" user="NKA_import" version="4">
		<tag k="industrial" v="factory" />
		<tag k="landuse" v="industrial" />
		<tag k="name" v="Tinfos jernverk (Øye Smelteverk)" />
		<tag k="ssr:stedsnr" v="517965" />
		<tag k="ssr:type" v="fabrikk" />
		<nd ref="2951029347" />
		<nd ref="2951029288" />
		<nd ref="2951029267" />
		<nd ref="2951029261" />
		<nd ref="2951029285" />
		<nd ref="2951029291" />
		<nd ref="2951029239" />
		<nd ref="2951026908" />
		<nd ref="2951026884" />
		<nd ref="2951026889" />
		<nd ref="2951026907" />
		<nd ref="2951042637" />
		<nd ref="2951042636" />
		<nd ref="2951042635" />
		<nd ref="2951042634" />
		<nd ref="2951026880" />
		<nd ref="2951026868" />
		<nd ref="2951026867" />
		<nd ref="2951026873" />
		<nd ref="2951026860" />
		<nd ref="2951026855" />
		<nd ref="2951026853" />
		<nd ref="2951026869" />
		<nd ref="2951026865" />
		<nd ref="2951026857" />
		<nd ref="2951026851" />
		<nd ref="2951026850" />
		<nd ref="2951026848" />
		<nd ref="2951026849" />
		<nd ref="2951026852" />
		<nd ref="2951026859" />
		<nd ref="2951026866" />
		<nd ref="2951026879" />
		<nd ref="2951026918" />
		<nd ref="2951029254" />
		<nd ref="2951029272" />
		<nd ref="2951029271" />
		<nd ref="2951029299" />
		<nd ref="2951029295" />
		<nd ref="2951029332" />
		<nd ref="2951029348" />
		<nd ref="2951029347" />
	</way>
	<way changeset="41893319" id="440506308" timestamp="2016-09-03T17:40:08Z" uid="2569034" user="kche_import" version="1">
		<tag k="source" v="Kartverket N50" />
		<tag k="source:date" v="1991-07-01" />
		<nd ref="4382451497" />
		<nd ref="4382451496" />
		<nd ref="4382451501" />
		<nd ref="4382451504" />
		<nd ref="4382451502" />
		<nd ref="4382451492" />
		<nd ref="4382451491" />
		<nd ref="4382451494" />
		<nd ref="4382451499" />
		<nd ref="4382451506" />
	</way>
	<way changeset="41893319" id="440506311" timestamp="2016-09-03T17:40:08Z" uid="2569034" user="kche_import" version="1">
		<tag k="source" v="Kartverket N50" />
		<tag k="source:date" v="1991-07-01" />
		<nd ref="4382451521" />
		<nd ref="4382451524" />
		<nd ref="4382451527" />
		<nd ref="4382451528" />
		<nd ref="4382451525" />
		<nd ref="4382451523" />
		<nd ref="4382451522" />
		<nd ref="4382451516" />
		<nd ref="4382451510" />
		<nd ref="4382451509" />
		<nd ref="4382451517" />
		<nd ref="4382451515" />
		<nd ref="4382451513" />
		<nd ref="4382451512" />
	</way>
	<way changeset="41984772" id="441246281" timestamp="2016-09-07T17:34:18Z" uid="2569034" user="kche_import" version="1">
		<nd ref="4390116686" />
		<nd ref="4390116793" />
		<nd ref="4390116808" />
	</way>
	<way changeset="42022255" id="441592138" timestamp="2016-09-09T11:02:15Z" uid="164049" user="kche" version="1">
		<nd ref="4390116665" />
		<nd ref="4393305512" />
		<nd ref="4393305513" />
		<nd ref="4390116798" />
	</way>
	<way changeset="41893319" id="440506315" timestamp="2016-09-03T17:40:09Z" uid="2569034" user="kche_import" version="1">
		<tag k="source" v="Bing" />
		<nd ref="4382451508" />
		<nd ref="4382451507" />
		<nd ref="1797376425" />
		<nd ref="1797376486" />
		<nd ref="1797376487" />
		<nd ref="1797376497" />
		<nd ref="1797376500" />
		<nd ref="1797376533" />
		<nd ref="1797376546" />
		<nd ref="1797376555" />
		<nd ref="1797376557" />
		<nd ref="1797376554" />
		<nd ref="1797376552" />
		<nd ref="1797376558" />
		<nd ref="1797376562" />
		<nd ref="1797376573" />
		<nd ref="1797376574" />
		<nd ref="1797376579" />
		<nd ref="1797376583" />
		<nd ref="1797376591" />
		<nd ref="1797376598" />
		<nd ref="1797376588" />
	</way>
	<way changeset="41893319" id="440506317" timestamp="2016-09-03T17:40:09Z" uid="2569034" user="kche_import" version="1">
		<tag k="source" v="Kartverket N50" />
		<tag k="source:date" v="1991-07-01" />
		<nd ref="4382451506" />
		<nd ref="4382451518" />
		<nd ref="4382451521" />
	</way>
	<way changeset="41893319" id="440506320" timestamp="2016-09-03T17:40:09Z" uid="2569034" user="kche_import" version="1">
		<tag k="natural" v="water" />
		<tag k="source" v="Bing" />
		<nd ref="1797376272" />
		<nd ref="1797376296" />
		<nd ref="1797376299" />
		<nd ref="1797376297" />
	</way>
	<way changeset="41893319" id="440506322" timestamp="2016-09-03T17:40:09Z" uid="2569034" user="kche_import" version="1">
		<tag k="source" v="Kartverket N50" />
		<tag k="source:date" v="1991-07-01" />
		<nd ref="4382451512" />
		<nd ref="4382451511" />
		<nd ref="4382451514" />
		<nd ref="4382451519" />
	</way>
	<way changeset="41984772" id="441246430" timestamp="2016-09-07T17:34:29Z" uid="2569034" user="kche_import" version="1">
		<tag k="source" v="Kartverket N50" />
		<tag k="source:date" v="1991-07-01" />
		<nd ref="4390116620" />
		<nd ref="4390116625" />
		<nd ref="4390116623" />
		<nd ref="4390116631" />
		<nd ref="4390116621" />
		<nd ref="4390116629" />
		<nd ref="4390116635" />
		<nd ref="4390116640" />
		<nd ref="4390116642" />
	</way>
	<way changeset="41893319" id="440506335" timestamp="2016-09-03T17:40:09Z" uid="2569034" user="kche_import" version="1">
		<tag k="source" v="Kartverket N50" />
		<tag k="source:date" v="1991-07-01" />
		<nd ref="4382451497" />
		<nd ref="4382451498" />
		<nd ref="4382451500" />
		<nd ref="4382451503" />
		<nd ref="4382451505" />
		<nd ref="4382451508" />
	</way>
	<way changeset="58861043" id="217140576" timestamp="2018-05-10T20:38:50Z" uid="3842253" user="NKA_import" version="2">
		<tag k="building" v="industrial" />
		<tag k="name" v="Kvina verft" />
		<tag k="source" v="Bing" />
		<tag k="ssr:stedsnr" v="638914" />
		<tag k="ssr:type" v="annenIndustri-OgLagerbygning" />
		<nd ref="2264431079" />
		<nd ref="2264431087" />
		<nd ref="2264431082" />
		<nd ref="2264431084" />
		<nd ref="2264431080" />
		<nd ref="2264431078" />
		<nd ref="2264431075" />
		<nd ref="2264431066" />
		<nd ref="2264431068" />
		<nd ref="2264431063" />
		<nd ref="2264431071" />
		<nd ref="2264431076" />
		<nd ref="2264431070" />
		<nd ref="2264431074" />
		<nd ref="2264431077" />
		<nd ref="2264431081" />
		<nd ref="2264431079" />
	</way>
	<way changeset="41893319" id="440506337" timestamp="2016-09-03T17:40:10Z" uid="2569034" user="kche_import" version="1">
		<tag k="source" v="Kartverket N50" />
		<tag k="source:date" v="1991-07-01" />
		<nd ref="4382451531" />
		<nd ref="4382451532" />
		<nd ref="4382451533" />
		<nd ref="4382451534" />
		<nd ref="4382451536" />
		<nd ref="4382451537" />
		<nd ref="1797376588" />
	</way>
	<way changeset="41903554" id="440563043" timestamp="2016-09-04T09:38:35Z" uid="2569034" user="kche_import" version="1">
		<tag k="natural" v="water" />
		<tag k="source" v="Kartverket N50" />
		<tag k="source:date" v="1991-07-01" />
		<nd ref="1797376297" />
		<nd ref="4382451469" />
	</way>
	<way changeset="41893319" id="440506342" timestamp="2016-09-03T17:40:10Z" uid="2569034" user="kche_import" version="1">
		<tag k="natural" v="water" />
		<tag k="source" v="Bing" />
		<nd ref="1797375980" />
		<nd ref="1797375985" />
		<nd ref="1797375983" />
		<nd ref="1797376031" />
		<nd ref="1797376168" />
		<nd ref="1797376196" />
		<nd ref="1797376231" />
		<nd ref="1797376255" />
		<nd ref="1797376272" />
	</way>
	<way changeset="41984772" id="441246319" timestamp="2016-09-07T17:34:21Z" uid="2569034" user="kche_import" version="1">
		<tag k="source" v="Kartverket N50" />
		<tag k="source:date" v="1991-07-01" />
		<nd ref="4390116613" />
		<nd ref="4390116638" />
		<nd ref="4390116608" />
		<nd ref="4390116606" />
	</way>
	<way changeset="41903554" id="440292209" timestamp="2016-09-04T09:38:48Z" uid="2569034" user="kche_import" version="3">
		<tag k="natural" v="water" />
		<tag k="source" v="Kartverket N50" />
		<tag k="source:date" v="1991-07-01" />
		<nd ref="4382451469" />
		<nd ref="4382451465" />
		<nd ref="1797376258" />
		<nd ref="4382451441" />
		<nd ref="1797376105" />
		<nd ref="1797376065" />
		<nd ref="4382451414" />
	</way>
	<way changeset="41984772" id="441246327" timestamp="2016-09-07T17:34:21Z" uid="2569034" user="kche_import" version="1">
		<tag k="source" v="Kartverket N50" />
		<tag k="source:date" v="1991-07-01" />
		<nd ref="4390116665" />
		<nd ref="4390116612" />
		<nd ref="4390116610" />
		<nd ref="4390116613" />
	</way>
	<relation changeset="58917044" id="6567573" timestamp="2018-05-13T07:01:39Z" uid="2569034" user="kche_import" version="3">
		<tag k="name" v="Dyblemyr" />
		<tag k="natural" v="wetland" />
		<tag k="ssr:stedsnr" v="325749" />
		<tag k="type" v="multipolygon" />
		<tag k="wetland" v="bog" />
		<member ref="441246090" role="outer" type="way" />
		<member ref="441246281" role="outer" type="way" />
	</relation>
	<relation changeset="58917577" id="6553380" timestamp="2018-05-13T07:37:15Z" uid="2569034" user="kche_import" version="2">
		<tag k="name" v="Tvitjødn" />
		<tag k="natural" v="water" />
		<tag k="ssr:stedsnr" v="689817" />
		<tag k="type" v="multipolygon" />
		<member ref="440506308" role="outer" type="way" />
		<member ref="440506317" role="outer" type="way" />
		<member ref="440506311" role="outer" type="way" />
		<member ref="440506322" role="outer" type="way" />
		<member ref="168475278" role="outer" type="way" />
		<member ref="440506335" role="outer" type="way" />
		<member ref="440506337" role="outer" type="way" />
		<member ref="440506315" role="outer" type="way" />
	</relation>
	<relation changeset="58917044" id="6574853" timestamp="2018-05-13T07:01:40Z" uid="2569034" user="kche_import" version="3">
		<tag k="name" v="Heptetjødn" />
		<tag k="natural" v="water" />
		<tag k="ssr:stedsnr" v="385780" />
		<tag k="type" v="multipolygon" />
		<member ref="441592138" role="outer" type="way" />
		<member ref="441246327" role="outer" type="way" />
		<member ref="441246319" role="outer" type="way" />
		<member ref="441246110" role="outer" type="way" />
		<member ref="441246430" role="outer" type="way" />
		<member ref="441246356" role="outer" type="way" />
	</relation>
	<relation changeset="58917577" id="6550541" timestamp="2018-05-13T07:37:15Z" uid="2569034" user="kche_import" version="4">
		<tag k="alt_name" v="Urdevatnet" />
		<tag k="name" v="Urevannet" />
		<tag k="natural" v="water" />
		<tag k="ssr:stedsnr" v="303176" />
		<tag k="type" v="multipolygon" />
		<member ref="440292207" role="outer" type="way" />
		<member ref="168475271" role="outer" type="way" />
		<member ref="440506320" role="outer" type="way" />
		<member ref="440563043" role="outer" type="way" />
		<member ref="440292209" role="outer" type="way" />
		<member ref="440506342" role="outer" type="way" />
	</relation>
</osm>
