<?xml version="1.0" encoding="UTF-8"?>
<osm version="0.6" generator="osmapis">
	<node lat="59.49579444779542" lon="8.430980557806855" id="-28582">
		<tag k="name" v="Ordalsvegen" />
		<tag k="ssr:date" v="2019-12-27" />
		<tag k="ssr:gruppe" v="veg" />
		<tag k="ssr:hovedgruppe" v="infrastruktur" />
		<tag k="ssr:stedsnr" v="110122" />
		<tag k="ssr:type" v="vegstrekning" />
	</node>
	<node lat="59.334352778356305" lon="8.470524991214111" id="-28836">
		<tag k="name" v="Vidsjåvegen" />
		<tag k="old_name" v="Vidsåvegen" />
		<tag k="ssr:date" v="2019-12-27" />
		<tag k="ssr:gruppe" v="veg" />
		<tag k="ssr:hovedgruppe" v="infrastruktur" />
		<tag k="ssr:stedsnr" v="231085" />
		<tag k="ssr:type" v="vegstrekning" />
	</node>
	<node lat="59.465402773657196" lon="8.495841658775538" id="-29551">
		<tag k="name" v="Dambakken" />
		<tag k="ssr:date" v="2019-12-27" />
		<tag k="ssr:gruppe" v="veg" />
		<tag k="ssr:hovedgruppe" v="infrastruktur" />
		<tag k="ssr:stedsnr" v="473708" />
		<tag k="ssr:type" v="vegstrekning" />
	</node>
	<node lat="59.32753888458931" lon="8.414219439052887" id="-29557">
		<tag k="name" v="Sanden" />
		<tag k="ssr:date" v="2019-12-27" />
		<tag k="ssr:gruppe" v="veg" />
		<tag k="ssr:hovedgruppe" v="infrastruktur" />
		<tag k="ssr:stedsnr" v="474126" />
		<tag k="ssr:type" v="vegstrekning" />
	</node>
	<node lat="59.350783334661706" lon="8.322358330841057" id="-30186">
		<tag k="name" v="Storkørvegen" />
		<tag k="ssr:date" v="2019-12-27" />
		<tag k="ssr:gruppe" v="veg" />
		<tag k="ssr:hovedgruppe" v="infrastruktur" />
		<tag k="ssr:stedsnr" v="899670" />
		<tag k="ssr:type" v="vegstrekning" />
	</node>
	<node lat="59.350927777542964" lon="8.513377773361688" id="-30722">
		<tag k="alt_name" v="Kviteseid-kleivane" />
		<tag k="name" v="Kviteseidkleivan" />
		<tag k="ssr:date" v="2019-12-27" />
		<tag k="ssr:gruppe" v="veg" />
		<tag k="ssr:hovedgruppe" v="infrastruktur" />
		<tag k="ssr:stedsnr" v="912822" />
		<tag k="ssr:type" v="vegstrekning" />
	</node>
	<node lat="59.40195277517383" lon="8.494580557180038" id="-30901">
		<tag k="name" v="Kviteseid kommune" />
		<tag k="ssr:date" v="2019-12-27" />
		<tag k="ssr:gruppe" v="administrativeIndelinger" />
		<tag k="ssr:hovedgruppe" v="offentligAdministrasjon" />
		<tag k="ssr:stedsnr" v="24520" />
		<tag k="ssr:type" v="kommune" />
	</node>
	<node lat="59.498761106960906" lon="8.333080551302704" id="-31350">
		<tag k="name" v="Tjønnstaulkleivan" />
		<tag k="ssr:date" v="2019-12-27" />
		<tag k="ssr:gruppe" v="veg" />
		<tag k="ssr:hovedgruppe" v="infrastruktur" />
		<tag k="ssr:stedsnr" v="171136" />
		<tag k="ssr:type" v="vegstrekning" />
	</node>
	<node lat="59.290846621977224" lon="8.67686773449159" id="-31451">
		<tag k="name" v="Kollingdalvegen" />
		<tag k="ssr:date" v="2019-12-27" />
		<tag k="ssr:gruppe" v="veg" />
		<tag k="ssr:hovedgruppe" v="infrastruktur" />
		<tag k="ssr:stedsnr" v="172291" />
		<tag k="ssr:type" v="vegstrekning" />
	</node>
	<node lat="59.34835413184832" lon="8.506598831752534" id="-31465">
		<tag k="name" v="Timmersvingen" />
		<tag k="ssr:date" v="2019-12-27" />
		<tag k="ssr:gruppe" v="veg" />
		<tag k="ssr:hovedgruppe" v="infrastruktur" />
		<tag k="ssr:stedsnr" v="172621" />
		<tag k="ssr:type" v="vegstrekning" />
	</node>
	<node lat="59.354011107725036" lon="8.314588882000407" id="-31870">
		<tag k="name" v="Støylsvegen" />
		<tag k="ssr:date" v="2019-12-27" />
		<tag k="ssr:gruppe" v="veg" />
		<tag k="ssr:hovedgruppe" v="infrastruktur" />
		<tag k="ssr:stedsnr" v="353827" />
		<tag k="ssr:type" v="vegstrekning" />
	</node>
	<node lat="59.32839999773785" lon="8.438825006452937" id="-32065">
		<tag k="name" v="Prestestøylvegen" />
		<tag k="ssr:date" v="2019-12-27" />
		<tag k="ssr:gruppe" v="veg" />
		<tag k="ssr:hovedgruppe" v="infrastruktur" />
		<tag k="ssr:stedsnr" v="414121" />
		<tag k="ssr:type" v="vegstrekning" />
	</node>
</osm>
