<?xml version="1.0" encoding="UTF-8"?>
<osm generator="osmapis" version="0.6">
	<node id="-186857" lat="67.5166568469" lon="12.0886441302">
		<tag k="name" v="Kongsjorda" />
		<tag k="place" v="locality" />
		<tag k="ssr:stedsnr" v="1075876" />
	</node>
	<node id="-186856" lat="67.4104540014" lon="11.8772294925">
		<tag k="name" v="Skomvær" />
		<tag k="place" v="locality" />
		<tag k="ssr:stedsnr" v="1075871" />
	</node>
	<node id="-186855" lat="67.5133888894" lon="11.9723999905">
		<tag k="fixme" v="consider seamark:type=rock or natural=shoal" />
		<tag k="name" v="Alka" />
		<tag k="place" v="islet" />
		<tag k="ssr:stedsnr" v="960749" />
	</node>
	<node id="-186854" lat="67.5227972215" lon="12.006844445">
		<tag k="name" v="Ramnnakken" />
		<tag k="place" v="islet" />
		<tag k="ssr:stedsnr" v="867717" />
	</node>
	<node id="-186853" lat="67.4823972217" lon="11.8871499889">
		<tag k="alt_name" v="Bremholmen" />
		<tag k="name" v="Brimholmen" />
		<tag k="place" v="islet" />
		<tag k="ssr:stedsnr" v="867391" />
	</node>
	<node id="-186852" lat="67.4703055592" lon="12.0302555498">
		<tag k="fixme" v="consider seamark:type=rock or natural=shoal" />
		<tag k="name" v="Leiskjeret" />
		<tag k="place" v="islet" />
		<tag k="ssr:stedsnr" v="867304" />
	</node>
	<node id="-186851" lat="67.463297223" lon="11.8807305646">
		<tag k="alt_name" v="Sandskjerdrætten" />
		<tag k="fixme" v="consider seamark:type=rock or natural=shoal" />
		<tag k="name" v="Sandskjerdretten" />
		<tag k="place" v="islet" />
		<tag k="ssr:stedsnr" v="867300" />
	</node>
	<node id="-186850" lat="67.4642999968" lon="11.9325777748">
		<tag k="alt_name" v="Svadene" />
		<tag k="name" v="Svaen" />
		<tag k="natural" v="slope" />
		<tag k="place" v="locality" />
		<tag k="ssr:stedsnr" v="867295" />
	</node>
	<node id="-186849" lat="67.511138889" lon="12.2888750015">
		<tag k="name" v="Seiskallen" />
		<tag k="natural" v="shoal" />
		<tag k="place" v="locality" />
		<tag k="ssr:stedsnr" v="866425" />
	</node>
	<node id="-186848" lat="67.5078833374" lon="12.3088972262">
		<tag k="bay" v="fjord" />
		<tag k="name" v="Brattklakkleia" />
		<tag k="natural" v="bay" />
		<tag k="ssr:stedsnr" v="866421" />
	</node>
	<node id="-186847" lat="67.5032805526" lon="12.0170916605">
		<tag k="name" v="Oterholmen" />
		<tag k="place" v="islet" />
		<tag k="ssr:stedsnr" v="866328" />
	</node>
	<node id="-186846" lat="67.5152635466" lon="12.0983908909">
		<tag k="fixme" v="consider place=hamlet" />
		<tag k="name" v="Klakken" />
		<tag k="place" v="farm" />
		<tag k="ssr:stedsnr" v="866312" />
	</node>
	<node id="-186845" lat="67.5214416706" lon="12.1903972238">
		<tag k="fixme" v="multiple name tags, choose one and add the other to alt_name" />
		<tag k="name" v="Stor-Låtra;Sørlåtra" />
		<tag k="place" v="islet" />
		<tag k="ssr:stedsnr" v="866283" />
	</node>
	<node id="-186844" lat="67.5119166638" lon="11.9677694373">
		<tag k="name" v="Steinlåtra" />
		<tag k="place" v="islet" />
		<tag k="ssr:stedsnr" v="866281" />
	</node>
	<node id="-186843" lat="67.4072499979" lon="11.929786116">
		<tag k="alt_name" v="Austskardholman" />
		<tag k="name" v="Austskarholmen" />
		<tag k="place" v="islet" />
		<tag k="ssr:stedsnr" v="866252" />
	</node>
	<node id="-186842" lat="67.4466361111" lon="11.8564555578">
		<tag k="name" v="Seifluan" />
		<tag k="natural" v="shoal" />
		<tag k="place" v="locality" />
		<tag k="ssr:stedsnr" v="866243" />
	</node>
	<node id="-186841" lat="67.5015083343" lon="12.1234249925">
		<tag k="name" v="Grytøya" />
		<tag k="place" v="islet" />
		<tag k="ssr:stedsnr" v="839840" />
	</node>
	<node id="-186840" lat="67.52414167" lon="12.1447805446">
		<tag k="name" v="Torvholmen" />
		<tag k="place" v="islet" />
		<tag k="ssr:stedsnr" v="839732" />
	</node>
	<node id="-186839" lat="67.5303250034" lon="12.0889694412">
		<tag k="fixme" v="consider seamark:type=rock or natural=shoal" />
		<tag k="name" v="Heimstørspengeren" />
		<tag k="place" v="islet" />
		<tag k="ssr:stedsnr" v="839730" />
	</node>
	<node id="-186838" lat="67.5273694415" lon="12.1219694495">
		<tag k="name" v="Kvalvåg" />
		<tag k="place" v="farm" />
		<tag k="ssr:stedsnr" v="839547" />
	</node>
	<node id="-186837" lat="67.5218166684" lon="12.1310611208">
		<tag k="name" v="Klokkargården" />
		<tag k="place" v="farm" />
		<tag k="ssr:stedsnr" v="839559" />
	</node>
	<node id="-186836" lat="67.5223722264" lon="12.1073444449">
		<tag k="name" v="Badetjønna" />
		<tag k="natural" v="water" />
		<tag k="ssr:stedsnr" v="839555" />
	</node>
	<node id="-186835" lat="67.4803416691" lon="12.0183722166">
		<tag k="name" v="Nonstuva" />
		<tag k="natural" v="ridge" />
		<tag k="place" v="locality" />
		<tag k="ssr:stedsnr" v="839087" />
	</node>
	<node id="-186834" lat="67.4655055519" lon="11.8876638989">
		<tag k="fixme" v="consider seamark:type=rock or natural=shoal" />
		<tag k="name" v="Sandskjernakkan" />
		<tag k="place" v="islet" />
		<tag k="ssr:stedsnr" v="839071" />
	</node>
	<node id="-186833" lat="67.4797888873" lon="12.0248805514">
		<tag k="name" v="Dalteigen" />
		<tag k="place" v="locality" />
		<tag k="ssr:stedsnr" v="839057" />
	</node>
	<node id="-186832" lat="67.407638888" lon="11.8948999957">
		<tag k="fixme" v="consider seamark:type=rock or natural=shoal" />
		<tag k="name" v="Svartskjeret" />
		<tag k="place" v="islet" />
		<tag k="ssr:stedsnr" v="838634" />
	</node>
	<node id="-186831" lat="67.4801916677" lon="12.0371388855">
		<tag k="alt_name" v="Nordre Tennholmen" />
		<tag k="name" v="Nord Teinholmen" />
		<tag k="place" v="islet" />
		<tag k="ssr:stedsnr" v="836314" />
	</node>
	<node id="-186830" lat="67.5037611136" lon="12.0480083227">
		<tag k="name" v="Tjeldingsholmen" />
		<tag k="place" v="islet" />
		<tag k="ssr:stedsnr" v="806350" />
	</node>
	<node id="-186829" lat="67.5155305581" lon="12.1663305584">
		<tag k="name" v="Eggeløysa" />
		<tag k="place" v="islet" />
		<tag k="ssr:stedsnr" v="806329" />
	</node>
	<node id="-186828" lat="67.4634472224" lon="11.9554138851">
		<tag k="alt_name" v="Skarvskjeran" />
		<tag k="fixme" v="consider seamark:type=rock or natural=shoal" />
		<tag k="name" v="Skarvskjeret" />
		<tag k="place" v="islet" />
		<tag k="ssr:stedsnr" v="806311" />
	</node>
	<node id="-186827" lat="67.404841668" lon="11.8778055602">
		<tag k="alt_name" v="Smellbåen" />
		<tag k="fixme" v="consider seamark:type=rock or natural=shoal" />
		<tag k="name" v="Smellbåskjeret" />
		<tag k="place" v="islet" />
		<tag k="ssr:stedsnr" v="806294" />
	</node>
	<node id="-186826" lat="67.4713611135" lon="11.9504888871">
		<tag k="alt_name" v="Indre Trollet" />
		<tag k="name" v="Trollet" />
		<tag k="natural" v="shoal" />
		<tag k="place" v="locality" />
		<tag k="ssr:stedsnr" v="806281" />
	</node>
	<node id="-186825" lat="67.5327527814" lon="12.1285166742">
		<tag k="name" v="Sveinskallen" />
		<tag k="natural" v="shoal" />
		<tag k="place" v="locality" />
		<tag k="ssr:stedsnr" v="805696" />
	</node>
	<node id="-186824" lat="67.5168194416" lon="11.9893916633">
		<tag k="alt_name" v="Litlsvarvøya" />
		<tag k="name" v="Littjsvarvøya" />
		<tag k="place" v="islet" />
		<tag k="ssr:stedsnr" v="805687" />
	</node>
	<node id="-186823" lat="67.5226916671" lon="12.134788878">
		<tag k="name" v="Demma" />
		<tag k="place" v="locality" />
		<tag k="ssr:stedsnr" v="805309" />
	</node>
	<node id="-186822" lat="67.5251416691" lon="12.0864972207">
		<tag k="alt_name" v="Ånnhammaren" />
		<tag k="fixme" v="consider natural=peak for the most distinct mountains in the district" />
		<tag k="name" v="Ånghammaren" />
		<tag k="natural" v="hill" />
		<tag k="place" v="locality" />
		<tag k="ssr:stedsnr" v="805306" />
	</node>
	<node id="-186821" lat="67.4290583338" lon="11.9096500073">
		<tag k="alt_name" v="Grautdalen" />
		<tag k="name" v="Grautdallen" />
		<tag k="natural" v="shoal" />
		<tag k="place" v="locality" />
		<tag k="ssr:stedsnr" v="805270" />
	</node>
	<node id="-186820" lat="67.4235138904" lon="11.8790805465">
		<tag k="fixme" v="consider seamark:type=rock or natural=shoal" />
		<tag k="name" v="Olmassastøskjeran" />
		<tag k="place" v="islet" />
		<tag k="ssr:stedsnr" v="805265" />
	</node>
	<node id="-186819" lat="67.4215222213" lon="11.8653583421">
		<tag k="fixme" v="consider seamark:type=rock or natural=shoal" />
		<tag k="name" v="Hærnykflesan" />
		<tag k="place" v="islet" />
		<tag k="ssr:stedsnr" v="805261" />
	</node>
	<node id="-186818" lat="67.5110861085" lon="12.1261444521">
		<tag k="fixme" v="consider seamark:type=rock or natural=shoal" />
		<tag k="name" v="Måsklubban" />
		<tag k="place" v="islet" />
		<tag k="ssr:stedsnr" v="778842" />
	</node>
	<node id="-186817" lat="67.5084638919" lon="11.9618861021">
		<tag k="name" v="Storlåtran" />
		<tag k="place" v="islet" />
		<tag k="ssr:stedsnr" v="778763" />
	</node>
	<node id="-186816" lat="67.4698833344" lon="11.9493194414">
		<tag k="fixme" v="consider seamark:type=rock or natural=shoal" />
		<tag k="name" v="Trollskjeran" />
		<tag k="place" v="islet" />
		<tag k="ssr:stedsnr" v="778593" />
	</node>
	<node id="-186815" lat="67.4825638925" lon="12.0281555587">
		<tag k="name" v="Skarvsteinan" />
		<tag k="natural" v="stone" />
		<tag k="ssr:stedsnr" v="778070" />
	</node>
	<node id="-186814" lat="67.4902944449" lon="12.0451305441">
		<tag k="fixme" v="consider seamark:type=rock or natural=shoal" />
		<tag k="name" v="Kariskjeret" />
		<tag k="place" v="islet" />
		<tag k="ssr:stedsnr" v="778069" />
	</node>
	<node id="-186813" lat="67.5320333376" lon="12.1102666611">
		<tag k="name" v="Klubben" />
		<tag k="natural" v="cape" />
		<tag k="ssr:stedsnr" v="745732" />
	</node>
	<node id="-186812" lat="67.5299972253" lon="12.1396527676">
		<tag k="alt_name" v="Grindskjeret" />
		<tag k="fixme" v="consider seamark:type=rock or natural=shoal" />
		<tag k="name" v="Nesendskjeret" />
		<tag k="place" v="islet" />
		<tag k="ssr:stedsnr" v="745728" />
	</node>
	<node id="-186811" lat="67.497486111" lon="12.2339777804">
		<tag k="alt_name" v="Froan" />
		<tag k="fixme" v="consider seamark:type=rock or natural=shoal" />
		<tag k="name" v="Froen" />
		<tag k="place" v="islet" />
		<tag k="ssr:stedsnr" v="745402" />
	</node>
	<node id="-186810" lat="67.5220638852" lon="12.1876416546">
		<tag k="alt_name" v="Låtra" />
		<tag k="fixme" v="multiple name tags, choose one and add the other to alt_name" />
		<tag k="name" v="Littj-Låtra;Nordlåtra" />
		<tag k="place" v="islet" />
		<tag k="ssr:stedsnr" v="745345" />
	</node>
	<node id="-186809" lat="67.518330556" lon="12.1930250096">
		<tag k="fixme" v="consider seamark:type=rock or natural=shoal" />
		<tag k="name" v="Langskjeret" />
		<tag k="place" v="islet" />
		<tag k="ssr:stedsnr" v="745343" />
	</node>
	<node id="-186808" lat="67.3707888903" lon="11.7419805665">
		<tag k="name" v="Sørskallen" />
		<tag k="natural" v="shoal" />
		<tag k="place" v="locality" />
		<tag k="ssr:stedsnr" v="745333" />
	</node>
	<node id="-186807" lat="67.4262388896" lon="11.8797194531">
		<tag k="alt_name" v="Hærnyken" />
		<tag k="name" v="Hernyken" />
		<tag k="place" v="island" />
		<tag k="ssr:stedsnr" v="745322" />
	</node>
	<node id="-186806" lat="67.4246361081" lon="11.8954472129">
		<tag k="fixme" v="consider seamark:type=rock or natural=shoal" />
		<tag k="name" v="Spikarskjeran" />
		<tag k="place" v="islet" />
		<tag k="ssr:stedsnr" v="745319" />
	</node>
	<node id="-186805" lat="67.4062583307" lon="11.8718583306">
		<tag k="name" v="Smellbåleia" />
		<tag k="natural" v="strait" />
		<tag k="ssr:stedsnr" v="745315" />
	</node>
	<node id="-186804" lat="67.4647388856" lon="11.978277766">
		<tag k="bay" v="fjord" />
		<tag k="name" v="Åfjorden" />
		<tag k="natural" v="bay" />
		<tag k="ssr:stedsnr" v="745306" />
	</node>
	<node id="-186803" lat="67.4576444408" lon="11.9459555574">
		<tag k="name" v="Eidsholmen" />
		<tag k="place" v="islet" />
		<tag k="ssr:stedsnr" v="745305" />
	</node>
	<node id="-186802" lat="67.4782111126" lon="11.9510722339">
		<tag k="fixme" v="consider seamark:type=rock or natural=shoal" />
		<tag k="name" v="Olaskjeran" />
		<tag k="place" v="islet" />
		<tag k="ssr:stedsnr" v="745295" />
	</node>
	<node id="-186801" lat="67.4651305554" lon="11.9313166727">
		<tag k="name" v="Tussen" />
		<tag k="natural" v="cape" />
		<tag k="ssr:stedsnr" v="745285" />
	</node>
	<node id="-186800" lat="67.4627416639" lon="11.9475500104">
		<tag k="alt_name" v="Sørskarvhella" />
		<tag k="name" v="Sør-Skarvhella" />
		<tag k="natural" v="shoal" />
		<tag k="ssr:stedsnr" v="745281" />
	</node>
	<node id="-186799" lat="67.4785666686" lon="11.8429888899">
		<tag k="name" v="Steinan" />
		<tag k="natural" v="shoal" />
		<tag k="place" v="locality" />
		<tag k="ssr:stedsnr" v="745395" />
	</node>
	<node id="-186798" lat="67.483552774" lon="12.0119194533">
		<tag k="fixme" v="consider natural=peak for the most distinct mountains in the district" />
		<tag k="name" v="Nordveggen" />
		<tag k="natural" v="hill" />
		<tag k="place" v="locality" />
		<tag k="ssr:stedsnr" v="745390" />
	</node>
	<node id="-186797" lat="67.4893111081" lon="12.0056333435">
		<tag k="name" v="Blodgrunnen" />
		<tag k="natural" v="shoal" />
		<tag k="place" v="locality" />
		<tag k="ssr:stedsnr" v="745380" />
	</node>
	<node id="-186796" lat="67.4093777774" lon="11.8712694412">
		<tag k="name" v="Keila" />
		<tag k="natural" v="bay" />
		<tag k="ssr:stedsnr" v="655613" />
	</node>
	<node id="-186795" lat="67.5734388899" lon="12.1891249979">
		<tag k="name" v="Nordbakken" />
		<tag k="natural" v="shoal" />
		<tag k="place" v="locality" />
		<tag k="ssr:stedsnr" v="623737" />
	</node>
	<node id="-186794" lat="67.5412749979" lon="12.1589250006">
		<tag k="fixme" v="consider seamark:type=rock or natural=shoal" />
		<tag k="name" v="Litlflesa" />
		<tag k="place" v="islet" />
		<tag k="ssr:stedsnr" v="623724" />
	</node>
	<node id="-186793" lat="67.533161112" lon="12.0162055505">
		<tag k="alt_name" v="Skarvholman" />
		<tag k="name" v="Skarvholmen" />
		<tag k="place" v="islet" />
		<tag k="ssr:stedsnr" v="623722" />
	</node>
	<node id="-186792" lat="67.5254111132" lon="12.0613166605">
		<tag k="alt_name" v="Ytstøyran;Øyran" />
		<tag k="name" v="Ystøran" />
		<tag k="natural" v="cape" />
		<tag k="ssr:stedsnr" v="623715" />
	</node>
	<node id="-186790" lat="67.4934750003" lon="12.0850166717">
		<tag k="alt_name" v="Tjuvøya" />
		<tag k="name" v="Tjyvøya" />
		<tag k="place" v="islet" />
		<tag k="ssr:stedsnr" v="623374" />
	</node>
	<node id="-186789" lat="67.4834833359" lon="12.0010888979">
		<tag k="fixme" v="consider seamark:type=rock or natural=shoal" />
		<tag k="name" v="Veggskjeran" />
		<tag k="place" v="islet" />
		<tag k="ssr:stedsnr" v="623368" />
	</node>
	<node id="-186788" lat="67.5046083293" lon="12.0276722176">
		<tag k="name" v="Ryggholmen" />
		<tag k="place" v="islet" />
		<tag k="ssr:stedsnr" v="623358" />
	</node>
	<node id="-186787" lat="67.4933472235" lon="11.8335611064">
		<tag k="alt_name" v="Torvestbåen" />
		<tag k="name" v="Torsvestbåen" />
		<tag k="natural" v="shoal" />
		<tag k="place" v="locality" />
		<tag k="ssr:stedsnr" v="623354" />
	</node>
	<node id="-186786" lat="67.5080694442" lon="12.1648055501">
		<tag k="alt_name" v="Kyrhaugen" />
		<tag k="name" v="Kyrrhaugen" />
		<tag k="place" v="islet" />
		<tag k="ssr:stedsnr" v="623351" />
	</node>
	<node id="-186785" lat="67.5102638879" lon="12.0748249955">
		<tag k="name" v="Bursholmen" />
		<tag k="place" v="islet" />
		<tag k="ssr:stedsnr" v="623341" />
	</node>
	<node id="-186784" lat="67.5126500043" lon="12.1927083318">
		<tag k="name" v="Stavøyneset" />
		<tag k="natural" v="cape" />
		<tag k="ssr:stedsnr" v="623338" />
	</node>
	<node id="-186783" lat="67.4199027786" lon="11.8954527787">
		<tag k="alt_name" v="Gjellfruværet" />
		<tag k="name" v="Gjelfruvær" />
		<tag k="place" v="islet" />
		<tag k="ssr:stedsnr" v="623286" />
	</node>
	<node id="-186782" lat="67.4610027758" lon="11.8901222275">
		<tag k="name" v="Melholmen" />
		<tag k="place" v="islet" />
		<tag k="ssr:stedsnr" v="623276" />
	</node>
	<node id="-186781" lat="67.4467999964" lon="11.9437083229">
		<tag k="alt_name" v="Littjlangflesa" />
		<tag k="fixme" v="consider seamark:type=rock or natural=shoal" />
		<tag k="name" v="Litllangflesa" />
		<tag k="place" v="islet" />
		<tag k="ssr:stedsnr" v="623270" />
	</node>
	<node id="-186780" lat="67.478269441" lon="12.0346444395">
		<tag k="alt_name" v="Søre Tennholmen" />
		<tag k="name" v="Ternholman" />
		<tag k="place" v="islet" />
		<tag k="ssr:stedsnr" v="623259" />
	</node>
	<node id="-186779" lat="67.474733337" lon="12.0847694467">
		<tag k="name" v="Ramnskjerleia" />
		<tag k="natural" v="strait" />
		<tag k="ssr:stedsnr" v="623257" />
	</node>
	<node id="-186778" lat="67.4667999988" lon="11.9490583353">
		<tag k="name" v="Moslia" />
		<tag k="natural" v="slope" />
		<tag k="place" v="locality" />
		<tag k="ssr:stedsnr" v="623250" />
	</node>
	<node id="-186777" lat="67.5657972227" lon="12.3259805672">
		<tag k="name" v="Hausen" />
		<tag k="natural" v="shoal" />
		<tag k="place" v="locality" />
		<tag k="ssr:stedsnr" v="622450" />
	</node>
	<node id="-186776" lat="67.5206361076" lon="12.2231944353">
		<tag k="fixme" v="consider seamark:type=rock or natural=shoal" />
		<tag k="name" v="Blomskjeret" />
		<tag k="place" v="islet" />
		<tag k="ssr:stedsnr" v="622444" />
	</node>
	<node id="-186775" lat="67.515491664" lon="12.0585916599">
		<tag k="name" v="Hansøyflaget" />
		<tag k="place" v="locality" />
		<tag k="ssr:stedsnr" v="596693" />
	</node>
	<node id="-186774" lat="67.5174888923" lon="12.0009999926">
		<tag k="fixme" v="consider seamark:type=rock or natural=shoal" />
		<tag k="name" v="Svarvungan" />
		<tag k="place" v="islet" />
		<tag k="ssr:stedsnr" v="596692" />
	</node>
	<node id="-186773" lat="67.522350002" lon="12.1385333421">
		<tag k="name" v="Demma" />
		<tag k="place" v="islet" />
		<tag k="ssr:stedsnr" v="596686" />
	</node>
	<node id="-186772" lat="67.5197638854" lon="12.1245472204">
		<tag k="name" v="Sverrebakkan" />
		<tag k="natural" v="slope" />
		<tag k="place" v="locality" />
		<tag k="ssr:stedsnr" v="596502" />
	</node>
	<node id="-186771" lat="67.4782805577" lon="12.0223833264">
		<tag k="name" v="Surteigen" />
		<tag k="place" v="locality" />
		<tag k="ssr:stedsnr" v="596071" />
	</node>
	<node id="-186770" lat="67.4820916647" lon="12.0320611221">
		<tag k="fixme" v="consider seamark:type=rock or natural=shoal" />
		<tag k="name" v="Langskjeret" />
		<tag k="place" v="islet" />
		<tag k="ssr:stedsnr" v="596068" />
	</node>
	<node id="-186769" lat="67.4581333329" lon="11.9341500099">
		<tag k="name" v="Tufter" />
		<tag k="place" v="locality" />
		<tag k="ssr:stedsnr" v="596049" />
	</node>
	<node id="-186768" lat="67.5235888869" lon="12.0048805596">
		<tag k="fixme" v="consider seamark:type=rock or natural=shoal" />
		<tag k="name" v="Steinan" />
		<tag k="place" v="islet" />
		<tag k="ssr:stedsnr" v="595725" />
	</node>
	<node id="-186767" lat="67.5205722266" lon="12.0092305588">
		<tag k="fixme" v="consider seamark:type=rock or natural=shoal" />
		<tag k="name" v="Sandøydretten" />
		<tag k="place" v="islet" />
		<tag k="ssr:stedsnr" v="595723" />
	</node>
	<node id="-186766" lat="67.409338888" lon="11.8621999968">
		<tag k="fixme" v="consider seamark:type=rock or natural=shoal" />
		<tag k="name" v="Flesjan" />
		<tag k="place" v="islet" />
		<tag k="ssr:stedsnr" v="595588" />
	</node>
	<node id="-186765" lat="67.5628666648" lon="12.2427333277">
		<tag k="name" v="Vestre Grunnskallen" />
		<tag k="natural" v="shoal" />
		<tag k="place" v="locality" />
		<tag k="ssr:stedsnr" v="594619" />
	</node>
	<node id="-186764" lat="67.4913388886" lon="12.04852778">
		<tag k="name" v="Røst" />
		<tag k="place" v="island" />
		<tag k="ssr:stedsnr" v="594391" />
	</node>
	<node id="-186763" lat="67.4077000009" lon="11.977491668">
		<tag k="name" v="Seiflesa" />
		<tag k="natural" v="shoal" />
		<tag k="place" v="locality" />
		<tag k="ssr:stedsnr" v="594336" />
	</node>
	<node id="-186762" lat="67.4977972218" lon="12.0492222252">
		<tag k="name" v="Stabben" />
		<tag k="natural" v="shoal" />
		<tag k="place" v="locality" />
		<tag k="ssr:stedsnr" v="593320" />
	</node>
	<node id="-186761" lat="67.5005694454" lon="12.0511055613">
		<tag k="name" v="Brødran" />
		<tag k="natural" v="shoal" />
		<tag k="place" v="locality" />
		<tag k="ssr:stedsnr" v="593318" />
	</node>
	<node id="-186760" lat="67.5529805583" lon="12.0590194461">
		<tag k="name" v="Ørbogskallen" />
		<tag k="natural" v="shoal" />
		<tag k="place" v="locality" />
		<tag k="ssr:stedsnr" v="563748" />
	</node>
	<node id="-186759" lat="67.4854944441" lon="11.8882277814">
		<tag k="fixme" v="consider seamark:type=rock or natural=shoal" />
		<tag k="name" v="Ytrelåtra" />
		<tag k="place" v="islet" />
		<tag k="ssr:stedsnr" v="563355" />
	</node>
	<node id="-186758" lat="67.4650972219" lon="11.9518194475">
		<tag k="name" v="Skarvhella" />
		<tag k="natural" v="shoal" />
		<tag k="ssr:stedsnr" v="563256" />
	</node>
	<node id="-186757" lat="67.4701277768" lon="12.0151750107">
		<tag k="name" v="Røstholmen" />
		<tag k="place" v="islet" />
		<tag k="ssr:stedsnr" v="563255" />
	</node>
	<node id="-186756" lat="67.4950388868" lon="12.1089666764">
		<tag k="fixme" v="consider seamark:type=rock or natural=shoal" />
		<tag k="name" v="Kvalbaken" />
		<tag k="place" v="islet" />
		<tag k="ssr:stedsnr" v="563351" />
	</node>
	<node id="-186755" lat="67.4910666679" lon="12.073852771">
		<tag k="alt_name" v="Storkvaløya;Kvaløyan" />
		<tag k="name" v="Stor Kvaløya" />
		<tag k="place" v="islet" />
		<tag k="ssr:stedsnr" v="563349" />
	</node>
	<node id="-186754" lat="67.5290638933" lon="12.0818555616">
		<tag k="alt_name" v="Heimstøyran" />
		<tag k="name" v="Heimstøran" />
		<tag k="natural" v="cape" />
		<tag k="ssr:stedsnr" v="562681" />
	</node>
	<node id="-186753" lat="67.5271305589" lon="12.2019222312">
		<tag k="fixme" v="consider seamark:type=rock or natural=shoal" />
		<tag k="name" v="Slumpskjeret" />
		<tag k="place" v="islet" />
		<tag k="ssr:stedsnr" v="562680" />
	</node>
	<node id="-186752" lat="67.5334472233" lon="12.16764444">
		<tag k="name" v="Raudbåen" />
		<tag k="natural" v="shoal" />
		<tag k="place" v="locality" />
		<tag k="ssr:stedsnr" v="562676" />
	</node>
	<node id="-186751" lat="67.5356055536" lon="12.2075861197">
		<tag k="name" v="Langtaren" />
		<tag k="natural" v="shoal" />
		<tag k="place" v="locality" />
		<tag k="ssr:stedsnr" v="562673" />
	</node>
	<node id="-186750" lat="67.5247305552" lon="12.15416111">
		<tag k="name" v="Sørråkholmen" />
		<tag k="place" v="islet" />
		<tag k="ssr:stedsnr" v="562307" />
	</node>
	<node id="-186749" lat="67.5175944424" lon="12.118608341">
		<tag k="amenity" v="place_of_worship" />
		<tag k="denomination" v="lutheran" />
		<tag k="name" v="Røst" />
		<tag k="religion" v="christian" />
		<tag k="ssr:stedsnr" v="562299" />
	</node>
	<node id="-186748" lat="67.5138666648" lon="11.9880472256">
		<tag k="name" v="Brunsøya" />
		<tag k="place" v="islet" />
		<tag k="ssr:stedsnr" v="562298" />
	</node>
	<node id="-186747" lat="67.383638888" lon="11.8012694491">
		<tag k="name" v="Notskallen" />
		<tag k="natural" v="shoal" />
		<tag k="place" v="locality" />
		<tag k="ssr:stedsnr" v="562289" />
	</node>
	<node id="-186746" lat="67.5127750038" lon="12.1385277886">
		<tag k="name" v="Bursholmen" />
		<tag k="place" v="islet" />
		<tag k="ssr:stedsnr" v="562283" />
	</node>
	<node id="-186744" lat="67.4574527791" lon="11.9366444518">
		<tag k="name" v="Eidet" />
		<tag k="place" v="locality" />
		<tag k="ssr:stedsnr" v="562250" />
	</node>
	<node id="-186743" lat="67.5273055521" lon="12.124666677">
		<tag k="name" v="Gammelkjerka" />
		<tag k="place" v="locality" />
		<tag k="ssr:stedsnr" v="536523" />
	</node>
	<node id="-186742" lat="67.5260055521" lon="12.111508328">
		<tag k="cemetery" v="grave" />
		<tag k="name" v="Kjerkgården" />
		<tag k="place" v="locality" />
		<tag k="ssr:stedsnr" v="536518" />
	</node>
	<node id="-186741" lat="67.5114638854" lon="12.176505562">
		<tag k="name" v="Stavøyhamna" />
		<tag k="natural" v="bay" />
		<tag k="ssr:stedsnr" v="535854" />
	</node>
	<node id="-186740" lat="67.4822972212" lon="12.0079805558">
		<tag k="name" v="Vestveggen" />
		<tag k="natural" v="cliff" />
		<tag k="ssr:stedsnr" v="535082" />
	</node>
	<node id="-186739" lat="67.4762722234" lon="12.0320027737">
		<tag k="name" v="Sør-Teinholmen" />
		<tag k="place" v="islet" />
		<tag k="ssr:stedsnr" v="535067" />
	</node>
	<node id="-186738" lat="67.517302782" lon="12.2339611121">
		<tag k="fixme" v="consider seamark:type=rock or natural=shoal" />
		<tag k="name" v="Store Brattklakken" />
		<tag k="place" v="islet" />
		<tag k="ssr:stedsnr" v="533683" />
	</node>
	<node id="-186737" lat="67.5120166698" lon="12.1829916568">
		<tag k="name" v="Littj-Stavøya" />
		<tag k="place" v="islet" />
		<tag k="ssr:stedsnr" v="414861" />
	</node>
	<node id="-186736" lat="67.514524999" lon="12.1164972115">
		<tag k="name" v="Grav" />
		<tag k="place" v="locality" />
		<tag k="ssr:stedsnr" v="414842" />
	</node>
	<node id="-186735" lat="67.5101250039" lon="11.9644694365">
		<tag k="fixme" v="consider seamark:type=rock or natural=shoal" />
		<tag k="name" v="Steinen" />
		<tag k="place" v="islet" />
		<tag k="ssr:stedsnr" v="414766" />
	</node>
	<node id="-186734" lat="67.518358329" lon="12.1853333287">
		<tag k="fixme" v="consider seamark:type=rock or natural=shoal" />
		<tag k="name" v="Store Brattskjeret" />
		<tag k="place" v="islet" />
		<tag k="ssr:stedsnr" v="412588" />
	</node>
	<node id="-186732" lat="67.5480916668" lon="12.1640611111">
		<tag k="name" v="Kumannsskallen" />
		<tag k="natural" v="shoal" />
		<tag k="place" v="locality" />
		<tag k="ssr:stedsnr" v="381731" />
	</node>
	<node id="-186731" lat="67.498030552" lon="12.2146027885">
		<tag k="name" v="Austrenupsbåen" />
		<tag k="natural" v="shoal" />
		<tag k="place" v="locality" />
		<tag k="ssr:stedsnr" v="381377" />
	</node>
	<node id="-186730" lat="67.4904055571" lon="12.0690888795">
		<tag k="alt_name" v="Litlkvaløya" />
		<tag k="name" v="Littj Kvaløya" />
		<tag k="place" v="islet" />
		<tag k="ssr:stedsnr" v="381376" />
	</node>
	<node id="-186729" lat="67.4990805573" lon="12.0860111041">
		<tag k="name" v="Skruvholmen" />
		<tag k="place" v="islet" />
		<tag k="ssr:stedsnr" v="381365" />
	</node>
	<node id="-186728" lat="67.5017249995" lon="12.1802194441">
		<tag k="fixme" v="consider seamark:type=rock or natural=shoal" />
		<tag k="name" v="Masteskjeret" />
		<tag k="place" v="islet" />
		<tag k="ssr:stedsnr" v="381350" />
	</node>
	<node id="-186727" lat="67.5067555517" lon="12.0813333354">
		<tag k="name" v="Tjuvøya" />
		<tag k="place" v="island" />
		<tag k="ssr:stedsnr" v="381342" />
	</node>
	<node id="-186726" lat="67.5141861087" lon="12.1726249921">
		<tag k="fixme" v="multiple name tags, choose one and add the other to alt_name" />
		<tag k="name" v="Litlhamklakken;Måsklubben" />
		<tag k="place" v="islet" />
		<tag k="ssr:stedsnr" v="381333" />
	</node>
	<node id="-186725" lat="67.4724111116" lon="11.9997833412">
		<tag k="name" v="Eidgavlsbåen" />
		<tag k="natural" v="shoal" />
		<tag k="place" v="locality" />
		<tag k="ssr:stedsnr" v="381290" />
	</node>
	<node id="-186724" lat="67.4769694457" lon="12.1068138846">
		<tag k="name" v="Tindskjertaran" />
		<tag k="natural" v="shoal" />
		<tag k="place" v="locality" />
		<tag k="ssr:stedsnr" v="381288" />
	</node>
	<node id="-186722" lat="67.4639861079" lon="12.0056888981">
		<tag k="fixme" v="consider seamark:type=rock or natural=shoal" />
		<tag k="name" v="Slantra" />
		<tag k="place" v="islet" />
		<tag k="ssr:stedsnr" v="381279" />
	</node>
	<node id="-186721" lat="67.5278388847" lon="12.1402805439">
		<tag k="name" v="Nedreneset" />
		<tag k="place" v="farm" />
		<tag k="ssr:stedsnr" v="380728" />
	</node>
	<node id="-186720" lat="67.572197225" lon="12.2460583427">
		<tag k="name" v="Breidnykskallen" />
		<tag k="natural" v="shoal" />
		<tag k="place" v="locality" />
		<tag k="ssr:stedsnr" v="380469" />
	</node>
	<node id="-186719" lat="67.5659111103" lon="12.3072583407">
		<tag k="name" v="Klavestindskallen" />
		<tag k="natural" v="shoal" />
		<tag k="place" v="locality" />
		<tag k="ssr:stedsnr" v="380468" />
	</node>
	<node id="-186718" lat="67.5879694473" lon="12.2881333414">
		<tag k="name" v="Flua" />
		<tag k="natural" v="shoal" />
		<tag k="place" v="locality" />
		<tag k="ssr:stedsnr" v="380448" />
	</node>
	<node id="-186717" lat="67.5064916663" lon="12.0690305562">
		<tag k="alt_name" v="Gleda" />
		<tag k="name" v="Stor-Glea" />
		<tag k="place" v="islet" />
		<tag k="ssr:stedsnr" v="380344" />
	</node>
	<node id="-186716" lat="67.5120888879" lon="12.0672527867">
		<tag k="name" v="Grimsøya" />
		<tag k="place" v="island" />
		<tag k="ssr:stedsnr" v="380343" />
	</node>
	<node id="-186715" lat="67.5160305592" lon="12.1272944368">
		<tag k="name" v="Brygga" />
		<tag k="place" v="isolated_dwelling" />
		<tag k="ssr:stedsnr" v="380328" />
	</node>
	<node id="-186713" lat="67.411333334" lon="11.8418833279">
		<tag k="name" v="Vestskjerholmen" />
		<tag k="place" v="islet" />
		<tag k="ssr:stedsnr" v="380277" />
	</node>
	<node id="-186712" lat="67.4095805529" lon="11.8485833407">
		<tag k="fixme" v="consider seamark:type=rock or natural=shoal" />
		<tag k="name" v="Ormen" />
		<tag k="place" v="islet" />
		<tag k="ssr:stedsnr" v="380275" />
	</node>
	<node id="-186711" lat="67.5197361099" lon="12.1324694453">
		<tag k="name" v="Inndyr" />
		<tag k="natural" v="cape" />
		<tag k="ssr:stedsnr" v="353722" />
	</node>
	<node id="-186710" lat="67.5253083349" lon="12.1407416741">
		<tag k="name" v="Nesvågen" />
		<tag k="natural" v="bay" />
		<tag k="ssr:stedsnr" v="353719" />
	</node>
	<node id="-186709" lat="67.5188861113" lon="12.1151916705">
		<tag k="name" v="Golan" />
		<tag k="place" v="quarter" />
		<tag k="ssr:stedsnr" v="353549" />
	</node>
	<node id="-186708" lat="67.4273361125" lon="11.8759694349">
		<tag k="name" v="Johannes" />
		<tag k="natural" v="slope" />
		<tag k="place" v="locality" />
		<tag k="ssr:stedsnr" v="352593" />
	</node>
	<node id="-186707" lat="67.4367166624" lon="11.8811611199">
		<tag k="fixme" v="consider seamark:type=rock or natural=shoal" />
		<tag k="name" v="Breinykskjeran" />
		<tag k="place" v="islet" />
		<tag k="ssr:stedsnr" v="352589" />
	</node>
	<node id="-186706" lat="67.4363750017" lon="11.8964750006">
		<tag k="name" v="Helvete" />
		<tag k="natural" v="valley" />
		<tag k="place" v="locality" />
		<tag k="ssr:stedsnr" v="352586" />
	</node>
	<node id="-186705" lat="67.4178083373" lon="11.6827750082">
		<tag k="name" v="Hanshansaskallen" />
		<tag k="natural" v="shoal" />
		<tag k="place" v="locality" />
		<tag k="ssr:stedsnr" v="351333" />
	</node>
	<node id="-186704" lat="67.5675777769" lon="12.1676777837">
		<tag k="name" v="Ånnhammarbakken" />
		<tag k="natural" v="shoal" />
		<tag k="place" v="locality" />
		<tag k="ssr:stedsnr" v="320718" />
	</node>
	<node id="-186703" lat="67.499561109" lon="12.114269442">
		<tag k="alt_name" v="Stongholmen" />
		<tag k="name" v="Stangholmen" />
		<tag k="place" v="islet" />
		<tag k="ssr:stedsnr" v="320347" />
	</node>
	<node id="-186702" lat="67.51288611" lon="12.1788555552">
		<tag k="alt_name" v="Hamklakken" />
		<tag k="name" v="Hamholmen" />
		<tag k="place" v="islet" />
		<tag k="ssr:stedsnr" v="320336" />
	</node>
	<node id="-186701" lat="67.5102861153" lon="12.143372222">
		<tag k="alt_name" v="Ramnnakken" />
		<tag k="name" v="Ramnnakkan" />
		<tag k="place" v="islet" />
		<tag k="ssr:stedsnr" v="320333" />
	</node>
	<node id="-186700" lat="67.5240555597" lon="12.1507583344">
		<tag k="name" v="Monsholmen" />
		<tag k="place" v="islet" />
		<tag k="ssr:stedsnr" v="320326" />
	</node>
	<node id="-186699" lat="67.5114222202" lon="12.0550194355">
		<tag k="name" v="Ytresteinsøya" />
		<tag k="place" v="islet" />
		<tag k="ssr:stedsnr" v="320318" />
	</node>
	<node id="-186698" lat="67.4047972252" lon="11.9777361011">
		<tag k="name" v="Oddbåen" />
		<tag k="natural" v="shoal" />
		<tag k="place" v="locality" />
		<tag k="ssr:stedsnr" v="320310" />
	</node>
	<node id="-186697" lat="67.5036388885" lon="12.0567361099">
		<tag k="name" v="Prestholmen" />
		<tag k="place" v="islet" />
		<tag k="ssr:stedsnr" v="320307" />
	</node>
	<node id="-186696" lat="67.4346444444" lon="11.9029666745">
		<tag k="fixme" v="consider seamark:type=rock or natural=shoal" />
		<tag k="name" v="Spjutskjeret" />
		<tag k="place" v="islet" />
		<tag k="ssr:stedsnr" v="320292" />
	</node>
	<node id="-186695" lat="67.4674694447" lon="12.0838499952">
		<tag k="name" v="Sandøyskallen" />
		<tag k="natural" v="shoal" />
		<tag k="place" v="locality" />
		<tag k="ssr:stedsnr" v="320280" />
	</node>
	<node id="-186694" lat="67.4763944427" lon="12.0160472165">
		<tag k="alt_name" v="Litlvedøya" />
		<tag k="name" v="Littjvedøya" />
		<tag k="place" v="islet" />
		<tag k="ssr:stedsnr" v="320272" />
	</node>
	<node id="-186693" lat="67.5778361067" lon="12.2270999974">
		<tag k="name" v="Hærnykskallen" />
		<tag k="natural" v="shoal" />
		<tag k="place" v="locality" />
		<tag k="ssr:stedsnr" v="319437" />
	</node>
	<node id="-186692" lat="67.4844944409" lon="11.9599777735">
		<tag k="name" v="Vannesholmen" />
		<tag k="place" v="islet" />
		<tag k="ssr:stedsnr" v="199379" />
	</node>
	<node id="-186691" lat="67.4923250027" lon="12.1314361191">
		<tag k="fixme" v="consider seamark:type=rock or natural=shoal" />
		<tag k="name" v="Vestremyrflesa" />
		<tag k="place" v="islet" />
		<tag k="ssr:stedsnr" v="199376" />
	</node>
	<node id="-186690" lat="67.493369442" lon="12.0660194458">
		<tag k="alt_name" v="Værholmen" />
		<tag k="name" v="Verholmen" />
		<tag k="place" v="islet" />
		<tag k="ssr:stedsnr" v="199372" />
	</node>
	<node id="-186689" lat="67.48770278" lon="12.1234222222">
		<tag k="name" v="Stongholmbåen" />
		<tag k="natural" v="shoal" />
		<tag k="place" v="locality" />
		<tag k="ssr:stedsnr" v="199369" />
	</node>
	<node id="-186688" lat="67.4867416639" lon="12.0398555638">
		<tag k="fixme" v="consider seamark:type=rock or natural=shoal" />
		<tag k="name" v="Skarvskjeret" />
		<tag k="place" v="islet" />
		<tag k="ssr:stedsnr" v="199365" />
	</node>
	<node id="-186687" lat="67.5050055591" lon="12.0203138796">
		<tag k="fixme" v="consider seamark:type=rock or natural=shoal" />
		<tag k="name" v="Flatskjeret" />
		<tag k="place" v="islet" />
		<tag k="ssr:stedsnr" v="199354" />
	</node>
	<node id="-186685" lat="67.4966722262" lon="12.065388881">
		<tag k="name" v="Svinøya" />
		<tag k="place" v="island" />
		<tag k="ssr:stedsnr" v="199352" />
	</node>
	<node id="-186684" lat="67.5086277755" lon="12.0914027716">
		<tag k="name" v="Korsholmen" />
		<tag k="place" v="islet" />
		<tag k="ssr:stedsnr" v="199343" />
	</node>
	<node id="-186683" lat="67.4990722235" lon="11.9989055612">
		<tag k="fixme" v="consider seamark:type=rock or natural=shoal" />
		<tag k="name" v="Langskjeret" />
		<tag k="place" v="islet" />
		<tag k="ssr:stedsnr" v="199337" />
	</node>
	<node id="-186682" lat="67.4693500044" lon="11.9543972221">
		<tag k="alt_name" v="Marisneset" />
		<tag k="name" v="Maisneset" />
		<tag k="natural" v="cape" />
		<tag k="ssr:stedsnr" v="199281" />
	</node>
	<node id="-186681" lat="67.5750500024" lon="12.4399861089">
		<tag k="name" v="Røsthavet" />
		<tag k="place" v="sea" />
		<tag k="ssr:stedsnr" v="198400" />
	</node>
	<node id="-186680" lat="67.5119444439" lon="12.1689416591">
		<tag k="name" v="Ramnnakkan" />
		<tag k="place" v="islet" />
		<tag k="ssr:stedsnr" v="171870" />
	</node>
	<node id="-186679" lat="67.5282833373" lon="12.1260750035">
		<tag k="name" v="Sandbergan" />
		<tag k="place" v="locality" />
		<tag k="ssr:stedsnr" v="171756" />
	</node>
	<node id="-186678" lat="67.5144111072" lon="11.992491655">
		<tag k="fixme" v="consider seamark:type=rock or natural=shoal" />
		<tag k="name" v="Brunsøynakkan" />
		<tag k="place" v="islet" />
		<tag k="ssr:stedsnr" v="171755" />
	</node>
	<node id="-186677" lat="67.4070305584" lon="11.9427861084">
		<tag k="fixme" v="consider seamark:type=rock or natural=shoal" />
		<tag k="name" v="Austskjeret" />
		<tag k="place" v="islet" />
		<tag k="ssr:stedsnr" v="170618" />
	</node>
	<node id="-186676" lat="67.5705722256" lon="12.1999250061">
		<tag k="name" v="Lyngmorsøyskallen" />
		<tag k="natural" v="shoal" />
		<tag k="place" v="locality" />
		<tag k="ssr:stedsnr" v="169385" />
	</node>
	<node id="-186675" lat="67.5113055542" lon="12.0038722187">
		<tag k="fixme" v="consider seamark:type=rock or natural=shoal" />
		<tag k="name" v="Måsskjeret" />
		<tag k="place" v="islet" />
		<tag k="ssr:stedsnr" v="171792" />
	</node>
	<node id="-186674" lat="67.5408638894" lon="11.9972972227">
		<tag k="bay" v="fjord" />
		<tag k="name" v="Skarvholmleia" />
		<tag k="natural" v="bay" />
		<tag k="ssr:stedsnr" v="138734" />
	</node>
	<node id="-186673" lat="67.5286111073" lon="12.0092194393">
		<tag k="name" v="Sandvadet" />
		<tag k="natural" v="shoal" />
		<tag k="place" v="locality" />
		<tag k="ssr:stedsnr" v="138726" />
	</node>
	<node id="-186672" lat="67.5449333338" lon="12.0534472298">
		<tag k="name" v="Josefstaren" />
		<tag k="natural" v="shoal" />
		<tag k="place" v="locality" />
		<tag k="ssr:stedsnr" v="138724" />
	</node>
	<node id="-186671" lat="67.5343388887" lon="11.9928333269">
		<tag k="name" v="Steingrunnen" />
		<tag k="natural" v="shoal" />
		<tag k="place" v="locality" />
		<tag k="ssr:stedsnr" v="138721" />
	</node>
	<node id="-186670" lat="67.5235250028" lon="12.0501972187">
		<tag k="name" v="Litlraudøya" />
		<tag k="place" v="islet" />
		<tag k="ssr:stedsnr" v="138715" />
	</node>
	<node id="-186669" lat="67.4954833355" lon="12.2166972189">
		<tag k="name" v="Vestrenupsbåen" />
		<tag k="natural" v="shoal" />
		<tag k="place" v="locality" />
		<tag k="ssr:stedsnr" v="138391" />
	</node>
	<node id="-186668" lat="67.4798555553" lon="12.0220000074">
		<tag k="name" v="Vedøya" />
		<tag k="place" v="island" />
		<tag k="ssr:stedsnr" v="138380" />
	</node>
	<node id="-186667" lat="67.5121111091" lon="12.1122777746">
		<tag k="alt_name" v="Vassneset" />
		<tag k="name" v="Vasnes" />
		<tag k="place" v="farm" />
		<tag k="ssr:stedsnr" v="138365" />
	</node>
	<node id="-186666" lat="67.5090166676" lon="12.146794443">
		<tag k="fixme" v="multiple name tags, choose one and add the other to alt_name" />
		<tag k="name" v="Neshelløya;Skauhelløya" />
		<tag k="place" v="islet" />
		<tag k="ssr:stedsnr" v="138356" />
	</node>
	<node id="-186665" lat="67.425127778" lon="11.9595527834">
		<tag k="name" v="Engelskmannsgrunnen" />
		<tag k="natural" v="shoal" />
		<tag k="place" v="locality" />
		<tag k="ssr:stedsnr" v="138318" />
	</node>
	<node id="-186664" lat="67.4320000036" lon="11.8838444551">
		<tag k="name" v="Hærnykflaget" />
		<tag k="natural" v="bay" />
		<tag k="ssr:stedsnr" v="138316" />
	</node>
	<node id="-186663" lat="67.4270888907" lon="12.0021138816">
		<tag k="fixme" v="consider seamark:type=rock or natural=shoal" />
		<tag k="name" v="Fiskflesa" />
		<tag k="place" v="islet" />
		<tag k="ssr:stedsnr" v="138315" />
	</node>
	<node id="-186662" lat="67.4559083332" lon="11.9308638987">
		<tag k="name" v="Austdalsbukta" />
		<tag k="natural" v="bay" />
		<tag k="ssr:stedsnr" v="138300" />
	</node>
	<node id="-186661" lat="67.4610055521" lon="11.9346250101">
		<tag k="name" v="Storfjellet" />
		<tag k="place" v="island" />
		<tag k="ssr:stedsnr" v="138286" />
	</node>
	<node id="-186660" lat="67.5322499972" lon="12.0977472197">
		<tag k="name" v="Langneset" />
		<tag k="natural" v="cape" />
		<tag k="ssr:stedsnr" v="137657" />
	</node>
	<node id="-186659" lat="67.5133499967" lon="12.1125249925">
		<tag k="name" v="Kårklakken" />
		<tag k="natural" v="shoal" />
		<tag k="place" v="locality" />
		<tag k="ssr:stedsnr" v="111827" />
	</node>
	<node id="-186658" lat="67.5281472254" lon="12.1390416572">
		<tag k="barrier" v="fence" />
		<tag k="name" v="Bakk-gjerdet" />
		<tag k="ssr:stedsnr" v="111688" />
	</node>
	<node id="-186657" lat="67.5233944468" lon="12.1416277818">
		<tag k="name" v="Skausundskjeret" />
		<tag k="place" v="islet" />
		<tag k="ssr:stedsnr" v="111683" />
	</node>
	<node id="-186656" lat="67.4621055516" lon="11.9195583267">
		<tag k="alt_name" v="Ytre Husskjeret" />
		<tag k="fixme" v="consider seamark:type=rock or natural=shoal" />
		<tag k="name" v="Ytter Husskjeret" />
		<tag k="place" v="islet" />
		<tag k="ssr:stedsnr" v="109326" />
	</node>
	<node id="-186655" lat="67.5261222218" lon="12.1269277811">
		<tag k="man_made" v="tower" />
		<tag k="name" v="Røsttårnet" />
		<tag k="ssr:stedsnr" v="108348" />
		<tag k="tower:type" v="communications" />
	</node>
	<node id="-186654" lat="67.5461083294" lon="12.1059527761">
		<tag k="name" v="Pålskallen" />
		<tag k="natural" v="shoal" />
		<tag k="place" v="locality" />
		<tag k="ssr:stedsnr" v="108347" />
	</node>
	<node id="-186653" lat="67.5311916643" lon="11.9578888816">
		<tag k="name" v="Brunsøyskallen" />
		<tag k="natural" v="shoal" />
		<tag k="place" v="locality" />
		<tag k="ssr:stedsnr" v="78714" />
	</node>
	<node id="-186652" lat="67.4948277775" lon="12.1504694419">
		<tag k="fixme" v="consider seamark:type=rock or natural=shoal" />
		<tag k="name" v="Austremyrflesa" />
		<tag k="place" v="islet" />
		<tag k="ssr:stedsnr" v="78363" />
	</node>
	<node id="-186651" lat="67.4879888878" lon="12.0780805653">
		<tag k="alt_name" v="Æskjeret" />
		<tag k="fixme" v="consider seamark:type=rock or natural=shoal" />
		<tag k="name" v="Eskjeret" />
		<tag k="place" v="islet" />
		<tag k="ssr:stedsnr" v="78361" />
	</node>
	<node id="-186650" lat="67.4829250003" lon="12.0465944336">
		<tag k="alt_name" v="Hæssholmen" />
		<tag k="name" v="Hesholmen" />
		<tag k="place" v="islet" />
		<tag k="ssr:stedsnr" v="78360" />
	</node>
	<node id="-186649" lat="67.4981305576" lon="12.0903083318">
		<tag k="alt_name" v="Røstlyngværet" />
		<tag k="name" v="Røstlyngvær" />
		<tag k="place" v="islet" />
		<tag k="ssr:stedsnr" v="78354" />
	</node>
	<node id="-186648" lat="67.4977166623" lon="12.1003805666">
		<tag k="alt_name" v="Sandøya;Sandøyan" />
		<tag k="name" v="Stor-Sandøya" />
		<tag k="place" v="islet" />
		<tag k="ssr:stedsnr" v="78353" />
	</node>
	<node id="-186647" lat="67.5047111072" lon="12.0808111148">
		<tag k="name" v="Kårøya" />
		<tag k="place" v="island" />
		<tag k="ssr:stedsnr" v="78352" />
	</node>
	<node id="-186646" lat="67.5092749956" lon="12.1799888945">
		<tag k="name" v="Karivika" />
		<tag k="natural" v="bay" />
		<tag k="ssr:stedsnr" v="78345" />
	</node>
	<node id="-186645" lat="67.514843862" lon="12.113908018">
		<tag k="fixme" v="consider place=hamlet" />
		<tag k="loc_name" v="Hammar" />
		<tag k="name" v="Hammer" />
		<tag k="place" v="farm" />
		<tag k="ssr:stedsnr" v="78337" />
	</node>
	<node id="-186644" lat="67.5090444467" lon="12.1110611181">
		<tag k="name" v="Færøya" />
		<tag k="place" v="islet" />
		<tag k="ssr:stedsnr" v="78336" />
	</node>
	<node id="-186643" lat="67.488730558" lon="12.0844555549">
		<tag k="name" v="Prestholmen" />
		<tag k="place" v="islet" />
		<tag k="ssr:stedsnr" v="78332" />
	</node>
	<node id="-186642" lat="67.5075944446" lon="12.1492555563">
		<tag k="alt_name" v="Helløyan" />
		<tag k="name" v="Helløya" />
		<tag k="place" v="islet" />
		<tag k="ssr:stedsnr" v="78325" />
	</node>
	<node id="-186641" lat="67.5064861138" lon="12.0116611197">
		<tag k="alt_name" v="Kjerringholmen" />
		<tag k="name" v="Kjerringskjeret" />
		<tag k="place" v="islet" />
		<tag k="ssr:stedsnr" v="78315" />
	</node>
	<node id="-186640" lat="67.3991944475" lon="11.8460833376">
		<tag k="name" v="Flesbåan" />
		<tag k="natural" v="shoal" />
		<tag k="place" v="locality" />
		<tag k="ssr:stedsnr" v="78310" />
	</node>
	<node id="-186639" lat="67.4743472214" lon="12.004925006">
		<tag k="alt_name" v="Eidgavlen" />
		<tag k="name" v="Eigavlen" />
		<tag k="natural" v="cape" />
		<tag k="ssr:stedsnr" v="78290" />
	</node>
	<node id="-186638" lat="67.4741527794" lon="12.0161138992">
		<tag k="fixme" v="multiple name tags, choose one and add the other to alt_name; consider seamark:type=rock or natural=shoal" />
		<tag k="name" v="Leinner;Lendersponga" />
		<tag k="place" v="islet" />
		<tag k="ssr:stedsnr" v="78289" />
	</node>
	<node id="-186637" lat="67.4716111155" lon="12.0506861074">
		<tag k="fixme" v="consider seamark:type=rock or natural=shoal" />
		<tag k="name" v="Steinskjeret" />
		<tag k="place" v="islet" />
		<tag k="ssr:stedsnr" v="78288" />
	</node>
	<node id="-186636" lat="67.5270975339" lon="12.1322783813">
		<tag k="alt_name" v="Nordneset;Nesset" />
		<tag k="name" v="Neset" />
		<tag k="place" v="hamlet" />
		<tag k="ssr:stedsnr" v="77709" />
	</node>
	<node id="-186635" lat="67.5821055563" lon="12.2454194412">
		<tag k="name" v="Spjutskallen" />
		<tag k="natural" v="shoal" />
		<tag k="place" v="locality" />
		<tag k="ssr:stedsnr" v="77459" />
	</node>
	<node id="-186634" lat="67.4192222222" lon="11.9056861228">
		<tag k="alt_name" v="Buværet" />
		<tag k="name" v="Buvær" />
		<tag k="place" v="islet" />
		<tag k="ssr:stedsnr" v="77291" />
	</node>
	<node id="-186633" lat="67.4166999971" lon="11.8790249967">
		<tag k="name" v="Skomværflaget" />
		<tag k="natural" v="strait" />
		<tag k="ssr:stedsnr" v="77288" />
	</node>
	<node id="-186632" lat="67.4046694467" lon="11.8153888842">
		<tag k="name" v="Flatskallan" />
		<tag k="natural" v="shoal" />
		<tag k="place" v="locality" />
		<tag k="ssr:stedsnr" v="77280" />
	</node>
	<node id="-186631" lat="67.5279749979" lon="12.0772444546">
		<tag k="fixme" v="consider seamark:type=rock or natural=shoal" />
		<tag k="name" v="Ørspengeren" />
		<tag k="place" v="islet" />
		<tag k="ssr:stedsnr" v="50677" />
	</node>
	<node id="-186630" lat="67.5232166625" lon="12.1339027761">
		<tag k="name" v="Vangen" />
		<tag k="natural" v="cape" />
		<tag k="ssr:stedsnr" v="50667" />
	</node>
	<node id="-186629" lat="67.5259147267" lon="12.1264815278">
		<tag k="name" v="Sankthanshågen" />
		<tag k="natural" v="hill" />
		<tag k="place" v="locality" />
		<tag k="ssr:stedsnr" v="50497" />
	</node>
	<node id="-186628" lat="67.4815388846" lon="12.0105916706">
		<tag k="name" v="Melandsfloget" />
		<tag k="natural" v="cliff" />
		<tag k="ssr:stedsnr" v="50088" />
	</node>
	<node id="-186627" lat="67.4922222267" lon="12.0451527712">
		<tag k="fixme" v="consider seamark:type=rock or natural=shoal" />
		<tag k="name" v="Veiskjeret" />
		<tag k="place" v="islet" />
		<tag k="ssr:stedsnr" v="50057" />
	</node>
	<node id="-186626" lat="67.4682027781" lon="11.9429805643">
		<tag k="name" v="Skjåberghola" />
		<tag k="natural" v="bay" />
		<tag k="ssr:stedsnr" v="50048" />
	</node>
	<node id="-186625" lat="67.4600527776" lon="11.9297222301">
		<tag k="name" v="Vestdalen" />
		<tag k="natural" v="valley" />
		<tag k="place" v="locality" />
		<tag k="ssr:stedsnr" v="50006" />
	</node>
	<node id="-186624" lat="67.5227333292" lon="12.1845611152">
		<tag k="fixme" v="consider seamark:type=rock or natural=shoal" />
		<tag k="name" v="Målskjeret" />
		<tag k="place" v="islet" />
		<tag k="ssr:stedsnr" v="49795" />
	</node>
	<node id="-186623" lat="67.3896027786" lon="11.8945527716">
		<tag k="name" v="Seitaren" />
		<tag k="natural" v="shoal" />
		<tag k="place" v="locality" />
		<tag k="ssr:stedsnr" v="48309" />
	</node>
	<node id="-186622" lat="67.4847027814" lon="12.0687694458">
		<tag k="fixme" v="consider seamark:type=rock or natural=shoal" />
		<tag k="name" v="Ramnungan" />
		<tag k="place" v="islet" />
		<tag k="ssr:stedsnr" v="47361" />
	</node>
	<node id="-186621" lat="67.4810138898" lon="12.0288944372">
		<tag k="fixme" v="multiple name tags, choose one and add the other to alt_name" />
		<tag k="name" v="Gullholmen;Rødtoppen" />
		<tag k="place" v="islet" />
		<tag k="ssr:stedsnr" v="47355" />
	</node>
	<node id="-186620" lat="67.4993194404" lon="12.0668222329">
		<tag k="fixme" v="multiple name tags, choose one and add the other to alt_name" />
		<tag k="name" v="Skavholmen;Yokohama" />
		<tag k="place" v="islet" />
		<tag k="ssr:stedsnr" v="17387" />
	</node>
	<node id="-186619" lat="67.4889388934" lon="12.036188884">
		<tag k="fixme" v="consider seamark:type=rock or natural=shoal" />
		<tag k="name" v="Skulskjeret" />
		<tag k="place" v="islet" />
		<tag k="ssr:stedsnr" v="17380" />
	</node>
	<node id="-186618" lat="67.5014916642" lon="12.1342166673">
		<tag k="alt_name" v="Store Kårklakken" />
		<tag k="name" v="Kårklakken" />
		<tag k="place" v="islet" />
		<tag k="ssr:stedsnr" v="17374" />
	</node>
	<node id="-186617" lat="67.5162805568" lon="12.1407694429">
		<tag k="fixme" v="consider seamark:type=rock or natural=shoal" />
		<tag k="name" v="Katta" />
		<tag k="place" v="islet" />
		<tag k="ssr:stedsnr" v="17365" />
	</node>
	<node id="-186616" lat="67.5152422321" lon="12.087170498">
		<tag k="fixme" v="consider place=hamlet" />
		<tag k="name" v="Brasen" />
		<tag k="place" v="farm" />
		<tag k="ssr:stedsnr" v="17362" />
	</node>
	<node id="-186615" lat="67.5270694449" lon="12.1783944496">
		<tag k="alt_name" v="Måsklubben" />
		<tag k="name" v="Måsklubban" />
		<tag k="place" v="islet" />
		<tag k="ssr:stedsnr" v="17355" />
	</node>
	<node id="-186614" lat="67.5049222203" lon="12.0869277816">
		<tag k="name" v="Holmen" />
		<tag k="place" v="islet" />
		<tag k="ssr:stedsnr" v="960768" />
	</node>
	<node id="-186613" lat="67.5245861105" lon="12.1359472239">
		<tag k="man_made" v="cairn" />
		<tag k="name" v="Skauvarden" />
		<tag k="place" v="locality" />
		<tag k="ssr:stedsnr" v="960705" />
	</node>
	<node id="-186612" lat="67.5041666623" lon="12.0340222328">
		<tag k="name" v="Lamholmen" />
		<tag k="place" v="islet" />
		<tag k="ssr:stedsnr" v="957346" />
	</node>
	<node id="-186611" lat="67.4081250011" lon="11.8832111025">
		<tag k="fixme" v="consider seamark:type=rock or natural=shoal" />
		<tag k="name" v="Smubøskjeret" />
		<tag k="place" v="islet" />
		<tag k="ssr:stedsnr" v="899622" />
	</node>
	<node id="-186610" lat="67.4858999999" lon="11.9501916659">
		<tag k="name" v="Kobbelvan" />
		<tag k="natural" v="shoal" />
		<tag k="place" v="locality" />
		<tag k="ssr:stedsnr" v="839858" />
	</node>
	<node id="-186609" lat="67.483069447" lon="12.0252305625">
		<tag k="name" v="Hertna" />
		<tag k="natural" v="cape" />
		<tag k="ssr:stedsnr" v="806361" />
	</node>
	<node id="-186608" lat="67.5002416662" lon="12.0839583406">
		<tag k="name" v="Marøya" />
		<tag k="place" v="islet" />
		<tag k="ssr:stedsnr" v="806355" />
	</node>
	<node id="-186607" lat="67.5482388888" lon="12.0188055639">
		<tag k="name" v="Perlarsaskallen" />
		<tag k="natural" v="shoal" />
		<tag k="place" v="locality" />
		<tag k="ssr:stedsnr" v="927713" />
	</node>
	<node id="-186606" lat="67.5543805549" lon="12.1770722311">
		<tag k="name" v="Flesskallan" />
		<tag k="natural" v="shoal" />
		<tag k="place" v="locality" />
		<tag k="ssr:stedsnr" v="927709" />
	</node>
	<node id="-186605" lat="67.5384916643" lon="12.016741673">
		<tag k="name" v="Hombåen" />
		<tag k="natural" v="shoal" />
		<tag k="place" v="locality" />
		<tag k="ssr:stedsnr" v="927700" />
	</node>
	<node id="-186604" lat="67.5194805557" lon="12.0010000021">
		<tag k="name" v="Storsvarvøya" />
		<tag k="place" v="islet" />
		<tag k="ssr:stedsnr" v="927689" />
	</node>
	<node id="-186603" lat="67.5305083362" lon="12.1664083233">
		<tag k="fixme" v="consider seamark:type=rock or natural=shoal" />
		<tag k="name" v="Ytreleiskjeret" />
		<tag k="place" v="islet" />
		<tag k="ssr:stedsnr" v="927687" />
	</node>
	<node id="-186602" lat="67.4360888908" lon="11.9994611077">
		<tag k="name" v="Flesskallan" />
		<tag k="natural" v="shoal" />
		<tag k="place" v="locality" />
		<tag k="ssr:stedsnr" v="805229" />
	</node>
	<node id="-186601" lat="67.4801138848" lon="12.0075250062">
		<tag k="name" v="Bunesbukta" />
		<tag k="natural" v="bay" />
		<tag k="ssr:stedsnr" v="927374" />
	</node>
	<node id="-186600" lat="67.4970916667" lon="12.0588138817">
		<tag k="alt_name" v="Svinøynakken" />
		<tag k="fixme" v="consider seamark:type=rock or natural=shoal" />
		<tag k="name" v="Svinøynakkan" />
		<tag k="place" v="islet" />
		<tag k="ssr:stedsnr" v="927369" />
	</node>
	<node id="-186599" lat="67.5081888854" lon="11.9588333341">
		<tag k="alt_name" v="Synstvestlåtra" />
		<tag k="name" v="Synstvestlåtran" />
		<tag k="place" v="islet" />
		<tag k="ssr:stedsnr" v="927334" />
	</node>
	<node id="-186598" lat="67.5217833314" lon="12.1732611079">
		<tag k="name" v="Kobbholmen" />
		<tag k="place" v="islet" />
		<tag k="ssr:stedsnr" v="927328" />
	</node>
	<node id="-186597" lat="67.4137777753" lon="11.784052775">
		<tag k="name" v="Småskallan" />
		<tag k="natural" v="shoal" />
		<tag k="place" v="locality" />
		<tag k="ssr:stedsnr" v="927307" />
	</node>
	<node id="-186596" lat="67.4074944488" lon="11.962919443">
		<tag k="fixme" v="consider seamark:type=rock or natural=shoal" />
		<tag k="name" v="Austskjeran" />
		<tag k="place" v="islet" />
		<tag k="ssr:stedsnr" v="927302" />
	</node>
	<node id="-186595" lat="67.4024527776" lon="11.7947500024">
		<tag k="name" v="Mortensgrunnen" />
		<tag k="natural" v="shoal" />
		<tag k="place" v="locality" />
		<tag k="ssr:stedsnr" v="927300" />
	</node>
	<node id="-186594" lat="67.4692500005" lon="12.0491527866">
		<tag k="fixme" v="consider seamark:type=rock or natural=shoal" />
		<tag k="name" v="Snopskjeret" />
		<tag k="place" v="islet" />
		<tag k="ssr:stedsnr" v="927299" />
	</node>
	<node id="-186593" lat="67.4584250043" lon="11.9345194474">
		<tag k="name" v="Austdalen" />
		<tag k="natural" v="valley" />
		<tag k="place" v="locality" />
		<tag k="ssr:stedsnr" v="927293" />
	</node>
	<node id="-186592" lat="67.4580805577" lon="12.053477778">
		<tag k="name" v="Snopskjertaran" />
		<tag k="natural" v="shoal" />
		<tag k="place" v="locality" />
		<tag k="ssr:stedsnr" v="927292" />
	</node>
	<node id="-186591" lat="67.4472000044" lon="11.9118249904">
		<tag k="name" v="Ellevsnyken" />
		<tag k="place" v="island" />
		<tag k="ssr:stedsnr" v="927291" />
	</node>
	<node id="-186590" lat="67.4390583316" lon="11.8652250095">
		<tag k="name" v="Valværan" />
		<tag k="place" v="islet" />
		<tag k="ssr:stedsnr" v="927289" />
	</node>
	<node id="-186589" lat="67.469225003" lon="11.9431805495">
		<tag k="alt_name" v="Skjåskjeret" />
		<tag k="fixme" v="consider seamark:type=rock or natural=shoal" />
		<tag k="name" v="Skjåskjeran" />
		<tag k="place" v="islet" />
		<tag k="ssr:stedsnr" v="927278" />
	</node>
	<node id="-186588" lat="67.4684166632" lon="11.9498638937">
		<tag k="name" v="Sanden" />
		<tag k="place" v="farm" />
		<tag k="ssr:stedsnr" v="927275" />
	</node>
	<node id="-186587" lat="67.6406666625" lon="12.9191972312">
		<tag k="name" v="Vestfjorden" />
		<tag k="place" v="sea" />
		<tag k="ssr:stedsnr" v="926139" />
	</node>
	<node id="-186586" lat="67.4486222204" lon="11.9036166563">
		<tag k="fixme" v="consider seamark:type=rock or natural=shoal" />
		<tag k="name" v="Sør-Sandøyskjeran" />
		<tag k="place" v="islet" />
		<tag k="ssr:stedsnr" v="778007" />
	</node>
	<node id="-186585" lat="67.522616671" lon="12.0103222166">
		<tag k="name" v="Sandøya" />
		<tag k="place" v="islet" />
		<tag k="ssr:stedsnr" v="745712" />
	</node>
	<node id="-186584" lat="67.5265277779" lon="12.1701000089">
		<tag k="fixme" v="multiple name tags, choose one and add the other to alt_name" />
		<tag k="name" v="Andholmen;Stor-Sandholmen" />
		<tag k="place" v="islet" />
		<tag k="ssr:stedsnr" v="745707" />
	</node>
	<node id="-186583" lat="67.5157722211" lon="12.1270055593">
		<tag k="fixme" v="consider seamark:type=rock or natural=shoal" />
		<tag k="name" v="Vardan" />
		<tag k="place" v="islet" />
		<tag k="ssr:stedsnr" v="745370" />
	</node>
	<node id="-186582" lat="67.5120055512" lon="12.0824388925">
		<tag k="name" v="Kalvøya" />
		<tag k="place" v="islet" />
		<tag k="ssr:stedsnr" v="745368" />
	</node>
	<node id="-186581" lat="67.4954749995" lon="11.9788666581">
		<tag k="fixme" v="consider seamark:type=rock or natural=shoal" />
		<tag k="name" v="Småskjeran" />
		<tag k="place" v="islet" />
		<tag k="ssr:stedsnr" v="745366" />
	</node>
	<node id="-186580" lat="67.5101833338" lon="12.1852972118">
		<tag k="alt_name" v="Staven" />
		<tag k="name" v="Stavøya" />
		<tag k="place" v="island" />
		<tag k="ssr:stedsnr" v="745365" />
	</node>
	<node id="-186578" lat="67.524327781" lon="12.1152027823">
		<tag k="fixme" v="consider place=hamlet" />
		<tag k="name" v="Røstlandet" />
		<tag k="place" v="village" />
		<tag k="ssr:stedsnr" v="745353" />
	</node>
	<node id="-186576" lat="67.5160722232" lon="12.2638722311">
		<tag k="name" v="Brattklakkskallan" />
		<tag k="natural" v="shoal" />
		<tag k="place" v="locality" />
		<tag k="ssr:stedsnr" v="744409" />
	</node>
	<node id="-186575" lat="67.5078527807" lon="12.1838083224">
		<tag k="name" v="Fallet" />
		<tag k="place" v="locality" />
		<tag k="ssr:stedsnr" v="900868" />
	</node>
	<node id="-186574" lat="67.5178194482" lon="12.1298388883">
		<tag k="man_made" v="quay" />
		<tag k="name" v="Brygga" />
		<tag k="place" v="locality" />
		<tag k="ssr:stedsnr" v="900548" />
	</node>
	<node id="-186573" lat="67.518283329" lon="12.1801638893">
		<tag k="alt_name" v="Litle Brattskjeret" />
		<tag k="fixme" v="consider seamark:type=rock or natural=shoal" />
		<tag k="name" v="Littj-Brattskjeret" />
		<tag k="place" v="islet" />
		<tag k="ssr:stedsnr" v="898628" />
	</node>
	<node id="-186572" lat="67.5277555516" lon="12.1958500086">
		<tag k="fixme" v="consider seamark:type=rock or natural=shoal" />
		<tag k="name" v="Andbakkskjeret" />
		<tag k="place" v="islet" />
		<tag k="ssr:stedsnr" v="898388" />
	</node>
	<node id="-186571" lat="67.4521111136" lon="11.8774194437">
		<tag k="fixme" v="consider seamark:type=rock or natural=shoal" />
		<tag k="name" v="Littjhudfatan" />
		<tag k="place" v="islet" />
		<tag k="ssr:stedsnr" v="718005" />
	</node>
	<node id="-186570" lat="67.5134166637" lon="12.0883000078">
		<tag k="name" v="Øver-Kalvøya" />
		<tag k="natural" v="cape" />
		<tag k="ssr:stedsnr" v="717795" />
	</node>
	<node id="-186569" lat="67.4001944478" lon="11.9023722142">
		<tag k="fixme" v="consider seamark:type=rock or natural=shoal" />
		<tag k="name" v="Bollen" />
		<tag k="place" v="islet" />
		<tag k="ssr:stedsnr" v="715357" />
	</node>
	<node id="-186568" lat="67.5284583353" lon="12.2472472135">
		<tag k="bay" v="fjord" />
		<tag k="name" v="Blomskjerleia" />
		<tag k="natural" v="bay" />
		<tag k="ssr:stedsnr" v="683419" />
	</node>
	<node id="-186567" lat="67.5018277748" lon="12.2505888894">
		<tag k="name" v="Skamlaustaren" />
		<tag k="natural" v="shoal" />
		<tag k="place" v="locality" />
		<tag k="ssr:stedsnr" v="683416" />
	</node>
	<node id="-186566" lat="67.5199111117" lon="12.1449944451">
		<tag k="name" v="Ramnholmen" />
		<tag k="place" v="islet" />
		<tag k="ssr:stedsnr" v="623328" />
	</node>
	<node id="-186565" lat="67.4864333339" lon="11.962516658">
		<tag k="fixme" v="consider seamark:type=rock or natural=shoal" />
		<tag k="name" v="Svartskjeret" />
		<tag k="place" v="islet" />
		<tag k="ssr:stedsnr" v="718858" />
	</node>
	<node id="-186564" lat="67.5292138911" lon="12.1644944375">
		<tag k="fixme" v="consider seamark:type=rock or natural=shoal" />
		<tag k="name" v="Råsa" />
		<tag k="place" v="islet" />
		<tag k="ssr:stedsnr" v="718718" />
	</node>
	<node id="-186563" lat="67.4801722226" lon="12.0114333275">
		<tag k="name" v="Bunesan" />
		<tag k="natural" v="slope" />
		<tag k="place" v="locality" />
		<tag k="ssr:stedsnr" v="718105" />
	</node>
	<node id="-186562" lat="67.4535166705" lon="11.9355222277">
		<tag k="fixme" v="consider seamark:type=rock or natural=shoal" />
		<tag k="name" v="Rokknesfluan" />
		<tag k="place" v="islet" />
		<tag k="ssr:stedsnr" v="718060" />
	</node>
	<node id="-186561" lat="67.4612527786" lon="11.9251222302">
		<tag k="name" v="Husan" />
		<tag k="place" v="locality" />
		<tag k="ssr:stedsnr" v="718009" />
	</node>
	<node id="-186560" lat="67.4343055513" lon="11.8901916563">
		<tag k="fixme" v="consider seamark:type=rock or natural=shoal" />
		<tag k="name" v="Steigfluan" />
		<tag k="place" v="islet" />
		<tag k="ssr:stedsnr" v="716622" />
	</node>
	<node id="-186559" lat="67.6396499966" lon="11.7789416775">
		<tag k="name" v="Høgstubakken" />
		<tag k="place" v="locality" />
		<tag k="ssr:stedsnr" v="708985" />
	</node>
	<node id="-186558" lat="67.4362916667" lon="11.8933611165">
		<tag k="name" v="Steigen" />
		<tag k="natural" v="hill" />
		<tag k="place" v="locality" />
		<tag k="ssr:stedsnr" v="562245" />
	</node>
	<node id="-186557" lat="67.5629888915" lon="12.2653388949">
		<tag k="name" v="Austregrunnskallen" />
		<tag k="natural" v="shoal" />
		<tag k="place" v="locality" />
		<tag k="ssr:stedsnr" v="561452" />
	</node>
	<node id="-186556" lat="67.5082027796" lon="12.081594443">
		<tag k="name" v="Nord-Tjyvsøya" />
		<tag k="natural" v="cape" />
		<tag k="ssr:stedsnr" v="535793" />
	</node>
	<node id="-186555" lat="67.5062333354" lon="12.0753916747">
		<tag k="name" v="Sør-Tjyvsøya" />
		<tag k="natural" v="cape" />
		<tag k="ssr:stedsnr" v="535789" />
	</node>
	<node id="-186554" lat="67.5073777754" lon="12.0662944521">
		<tag k="name" v="Littj-Glea" />
		<tag k="place" v="islet" />
		<tag k="ssr:stedsnr" v="535783" />
	</node>
	<node id="-186553" lat="67.5110611113" lon="11.9696888833">
		<tag k="fixme" v="consider seamark:type=rock or natural=shoal" />
		<tag k="name" v="Alkungan" />
		<tag k="place" v="islet" />
		<tag k="ssr:stedsnr" v="535765" />
	</node>
	<node id="-186552" lat="67.5009722233" lon="12.0177722216">
		<tag k="fixme" v="consider seamark:type=rock or natural=shoal" />
		<tag k="name" v="Måsbakken" />
		<tag k="place" v="islet" />
		<tag k="ssr:stedsnr" v="535760" />
	</node>
	<node id="-186551" lat="67.5388027785" lon="12.112291661">
		<tag k="name" v="Nattvikbåen" />
		<tag k="natural" v="shoal" />
		<tag k="place" v="locality" />
		<tag k="ssr:stedsnr" v="684699" />
	</node>
	<node id="-186550" lat="67.5283777823" lon="11.9962111028">
		<tag k="name" v="Seiflesa" />
		<tag k="natural" v="shoal" />
		<tag k="place" v="locality" />
		<tag k="ssr:stedsnr" v="684698" />
	</node>
	<node id="-186549" lat="67.5338527753" lon="11.9924222115">
		<tag k="name" v="Einsteinen" />
		<tag k="natural" v="shoal" />
		<tag k="place" v="locality" />
		<tag k="ssr:stedsnr" v="684695" />
	</node>
	<node id="-186548" lat="67.5406750038" lon="12.0942944414">
		<tag k="alt_name" v="Nattvikskjeran" />
		<tag k="name" v="Nattvika" />
		<tag k="place" v="islet" />
		<tag k="ssr:stedsnr" v="684692" />
	</node>
	<node id="-186547" lat="67.5172527794" lon="11.8764527799">
		<tag k="name" v="Foteggbakken" />
		<tag k="natural" v="shoal" />
		<tag k="place" v="locality" />
		<tag k="ssr:stedsnr" v="684681" />
	</node>
	<node id="-186546" lat="67.5287611112" lon="12.1784972251">
		<tag k="alt_name" v="Nordre Leiskjeret" />
		<tag k="fixme" v="consider seamark:type=rock or natural=shoal" />
		<tag k="name" v="Leiskjeret" />
		<tag k="place" v="islet" />
		<tag k="ssr:stedsnr" v="684677" />
	</node>
	<node id="-186545" lat="67.553291671" lon="12.0804611118">
		<tag k="name" v="Nykskallen" />
		<tag k="natural" v="shoal" />
		<tag k="place" v="locality" />
		<tag k="ssr:stedsnr" v="684710" />
	</node>
	<node id="-186544" lat="67.498263887" lon="12.1213527794">
		<tag k="alt_name" v="Daudmannsskjeret" />
		<tag k="fixme" v="consider seamark:type=rock or natural=shoal" />
		<tag k="name" v="Daumannskjeret" />
		<tag k="place" v="islet" />
		<tag k="ssr:stedsnr" v="684367" />
	</node>
	<node id="-186543" lat="67.4828305584" lon="12.0647055471">
		<tag k="fixme" v="consider seamark:type=rock or natural=shoal" />
		<tag k="name" v="Ramnskjeret" />
		<tag k="place" v="islet" />
		<tag k="ssr:stedsnr" v="684362" />
	</node>
	<node id="-186542" lat="67.5043722187" lon="12.0592138972">
		<tag k="fixme" v="multiple name tags, choose one and add the other to alt_name" />
		<tag k="name" v="Kveldsbeita;Prestholmen" />
		<tag k="place" v="islet" />
		<tag k="ssr:stedsnr" v="684353" />
	</node>
	<node id="-186540" lat="67.4943694432" lon="12.0347472123">
		<tag k="alt_name" v="Veiskjeran" />
		<tag k="fixme" v="consider seamark:type=rock or natural=shoal" />
		<tag k="name" v="Veidskjeran" />
		<tag k="place" v="islet" />
		<tag k="ssr:stedsnr" v="684350" />
	</node>
	<node id="-186539" lat="67.4940861131" lon="11.9400277772">
		<tag k="fixme" v="consider seamark:type=rock or natural=shoal" />
		<tag k="name" v="Øyra" />
		<tag k="place" v="islet" />
		<tag k="ssr:stedsnr" v="684345" />
	</node>
	<node id="-186538" lat="67.5011583327" lon="12.1688444424">
		<tag k="name" v="Kråka" />
		<tag k="place" v="islet" />
		<tag k="ssr:stedsnr" v="684343" />
	</node>
	<node id="-186537" lat="67.5074499974" lon="12.125469442">
		<tag k="name" v="Nordholmen" />
		<tag k="place" v="islet" />
		<tag k="ssr:stedsnr" v="684342" />
	</node>
	<node id="-186536" lat="67.5070555542" lon="12.1204527804">
		<tag k="name" v="Sørholmen" />
		<tag k="place" v="islet" />
		<tag k="ssr:stedsnr" v="684341" />
	</node>
	<node id="-186535" lat="67.5163960344" lon="12.0836576575">
		<tag k="alt_name" v="Ytstneset" />
		<tag k="fixme" v="consider place=hamlet" />
		<tag k="name" v="Ystneset" />
		<tag k="place" v="farm" />
		<tag k="ssr:stedsnr" v="684337" />
	</node>
	<node id="-186534" lat="67.4305472191" lon="11.8212972149">
		<tag k="fixme" v="consider seamark:type=rock or natural=shoal" />
		<tag k="name" v="Havbåen" />
		<tag k="place" v="islet" />
		<tag k="ssr:stedsnr" v="684291" />
	</node>
	<node id="-186533" lat="67.4068138854" lon="11.8649000017">
		<tag k="fixme" v="consider seamark:type=rock or natural=shoal" />
		<tag k="name" v="Steinen" />
		<tag k="place" v="islet" />
		<tag k="ssr:stedsnr" v="684288" />
	</node>
	<node id="-186532" lat="67.4669666641" lon="12.0965888914">
		<tag k="name" v="Korsbakkbåen" />
		<tag k="natural" v="shoal" />
		<tag k="place" v="locality" />
		<tag k="ssr:stedsnr" v="684284" />
	</node>
	<node id="-186531" lat="67.4558138857" lon="11.8816027665">
		<tag k="alt_name" v="Hufatleia" />
		<tag k="name" v="Nord-Hudfatleia" />
		<tag k="natural" v="strait" />
		<tag k="ssr:stedsnr" v="684283" />
	</node>
	<node id="-186530" lat="67.4632111133" lon="11.7650333363">
		<tag k="name" v="Sandskjerskallen" />
		<tag k="natural" v="shoal" />
		<tag k="place" v="locality" />
		<tag k="ssr:stedsnr" v="684280" />
	</node>
	<node id="-186529" lat="67.4451027818" lon="11.9151888984">
		<tag k="alt_name" v="Nasborskjeret" />
		<tag k="fixme" v="consider seamark:type=rock or natural=shoal" />
		<tag k="name" v="Sør-Nasborskjeret" />
		<tag k="place" v="islet" />
		<tag k="ssr:stedsnr" v="684275" />
	</node>
	<node id="-186528" lat="67.4766749962" lon="11.9217861201">
		<tag k="fixme" v="consider seamark:type=rock or natural=shoal" />
		<tag k="name" v="Skarvskjeret" />
		<tag k="place" v="islet" />
		<tag k="ssr:stedsnr" v="684274" />
	</node>
	<node id="-186527" lat="67.4699861152" lon="11.927147216">
		<tag k="fixme" v="consider seamark:type=rock or natural=shoal" />
		<tag k="name" v="Slottet" />
		<tag k="place" v="islet" />
		<tag k="ssr:stedsnr" v="684273" />
	</node>
	<node id="-186526" lat="67.5379083326" lon="11.9847638871">
		<tag k="name" v="Helløybakken" />
		<tag k="natural" v="shoal" />
		<tag k="place" v="locality" />
		<tag k="ssr:stedsnr" v="502714" />
	</node>
	<node id="-186525" lat="67.5344805532" lon="12.1601999946">
		<tag k="name" v="Dragan" />
		<tag k="natural" v="shoal" />
		<tag k="place" v="locality" />
		<tag k="ssr:stedsnr" v="502707" />
	</node>
	<node id="-186524" lat="67.5246666707" lon="12.0396194502">
		<tag k="fixme" v="multiple name tags, choose one and add the other to alt_name" />
		<tag k="name" v="Rødøya;Storraudøya" />
		<tag k="place" v="island" />
		<tag k="ssr:stedsnr" v="502705" />
	</node>
	<node id="-186523" lat="67.5217972209" lon="11.9506888825">
		<tag k="bay" v="fjord" />
		<tag k="name" v="Alkskjerleia" />
		<tag k="natural" v="bay" />
		<tag k="ssr:stedsnr" v="502702" />
	</node>
	<node id="-186522" lat="67.5129444463" lon="12.0011888838">
		<tag k="name" v="Lyngmorsøyan" />
		<tag k="place" v="islet" />
		<tag k="ssr:stedsnr" v="502300" />
	</node>
	<node id="-186521" lat="67.5077972195" lon="12.0311722267">
		<tag k="name" v="Måøya" />
		<tag k="place" v="island" />
		<tag k="ssr:stedsnr" v="502298" />
	</node>
	<node id="-186519" lat="67.3991944472" lon="11.8758388955">
		<tag k="name" v="Våtbåan" />
		<tag k="natural" v="shoal" />
		<tag k="place" v="locality" />
		<tag k="ssr:stedsnr" v="502285" />
	</node>
	<node id="-186518" lat="67.5175055574" lon="12.1174277774">
		<tag k="name" v="Røst" />
		<tag k="place" v="village" />
		<tag k="ssr:stedsnr" v="502282" />
	</node>
	<node id="-186517" lat="67.4299138873" lon="11.8618805487">
		<tag k="fixme" v="consider seamark:type=rock or natural=shoal" />
		<tag k="name" v="Æflatskjeran" />
		<tag k="place" v="islet" />
		<tag k="ssr:stedsnr" v="502272" />
	</node>
	<node id="-186516" lat="67.4020000003" lon="11.8451805479">
		<tag k="fixme" v="consider seamark:type=rock or natural=shoal" />
		<tag k="name" v="Flesjan" />
		<tag k="place" v="islet" />
		<tag k="ssr:stedsnr" v="502261" />
	</node>
	<node id="-186515" lat="67.4541277795" lon="11.8818388883">
		<tag k="alt_name" v="Hufatan" />
		<tag k="fixme" v="consider seamark:type=rock or natural=shoal" />
		<tag k="name" v="Hudfatan" />
		<tag k="place" v="islet" />
		<tag k="ssr:stedsnr" v="502259" />
	</node>
	<node id="-186514" lat="67.4525166695" lon="11.9061111123">
		<tag k="alt_name" v="Sandøydrætten" />
		<tag k="name" v="Sandøydretten" />
		<tag k="place" v="islet" />
		<tag k="ssr:stedsnr" v="502258" />
	</node>
	<node id="-186513" lat="67.4580027812" lon="11.8883749935">
		<tag k="alt_name" v="Melholmdrætten" />
		<tag k="name" v="Melholmdretten" />
		<tag k="place" v="islet" />
		<tag k="ssr:stedsnr" v="502256" />
	</node>
	<node id="-186512" lat="67.4507361139" lon="11.9111166657">
		<tag k="name" v="Sandøya" />
		<tag k="place" v="island" />
		<tag k="ssr:stedsnr" v="502252" />
	</node>
	<node id="-186511" lat="67.5128944424" lon="12.1739305624">
		<tag k="name" v="Skauholmen" />
		<tag k="place" v="islet" />
		<tag k="ssr:stedsnr" v="502329" />
	</node>
	<node id="-186510" lat="67.5106416671" lon="12.1965194531">
		<tag k="name" v="Blodskiten" />
		<tag k="natural" v="shoal" />
		<tag k="place" v="locality" />
		<tag k="ssr:stedsnr" v="502324" />
	</node>
	<node id="-186509" lat="67.5250386121" lon="12.1361486369">
		<tag k="fixme" v="consider place=hamlet" />
		<tag k="name" v="Skau" />
		<tag k="place" v="farm" />
		<tag k="ssr:stedsnr" v="502314" />
	</node>
	<node id="-186508" lat="67.5234853487" lon="12.1290897291">
		<tag k="fixme" v="consider place=hamlet" />
		<tag k="name" v="Meland" />
		<tag k="place" v="farm" />
		<tag k="ssr:stedsnr" v="502305" />
	</node>
	<node id="-186507" lat="67.505969442" lon="12.0916777737">
		<tag k="name" v="Kankholmen" />
		<tag k="place" v="islet" />
		<tag k="ssr:stedsnr" v="474802" />
	</node>
	<node id="-186506" lat="67.5069000008" lon="12.099127781">
		<tag k="fixme" v="consider seamark:type=rock or natural=shoal" />
		<tag k="name" v="Vallbeinet" />
		<tag k="place" v="islet" />
		<tag k="ssr:stedsnr" v="657831" />
	</node>
	<node id="-186505" lat="67.5245888921" lon="12.1340027758">
		<tag k="name" v="Skaudungan" />
		<tag k="place" v="locality" />
		<tag k="ssr:stedsnr" v="657691" />
	</node>
	<node id="-186504" lat="67.5215083341" lon="12.1263638834">
		<tag k="man_made" v="cairn" />
		<tag k="name" v="Middagsvarden" />
		<tag k="place" v="locality" />
		<tag k="ssr:stedsnr" v="657550" />
	</node>
	<node id="-186503" lat="67.4551999991" lon="11.9318777755">
		<tag k="name" v="Rokkneset" />
		<tag k="natural" v="cape" />
		<tag k="ssr:stedsnr" v="657009" />
	</node>
	<node id="-186502" lat="67.4823222178" lon="12.0146222233">
		<tag k="name" v="Nesfloget" />
		<tag k="natural" v="cliff" />
		<tag k="ssr:stedsnr" v="657101" />
	</node>
	<node id="-186501" lat="67.4835583297" lon="12.0156361036">
		<tag k="name" v="Grindteigen" />
		<tag k="natural" v="slope" />
		<tag k="place" v="locality" />
		<tag k="ssr:stedsnr" v="657098" />
	</node>
	<node id="-186500" lat="67.4827583375" lon="12.0011499918">
		<tag k="fixme" v="consider seamark:type=rock or natural=shoal" />
		<tag k="name" v="Sørveggskjeret" />
		<tag k="place" v="islet" />
		<tag k="ssr:stedsnr" v="657096" />
	</node>
	<node id="-186499" lat="67.5082611112" lon="12.0631611185">
		<tag k="fixme" v="consider seamark:type=rock or natural=shoal" />
		<tag k="name" v="Kveldsbeita" />
		<tag k="place" v="islet" />
		<tag k="ssr:stedsnr" v="656824" />
	</node>
	<node id="-186498" lat="67.5139361087" lon="12.0768222121">
		<tag k="name" v="Ystnes" />
		<tag k="natural" v="cape" />
		<tag k="ssr:stedsnr" v="656821" />
	</node>
	<node id="-186497" lat="67.5033916638" lon="12.0104138867">
		<tag k="fixme" v="consider seamark:type=rock or natural=shoal" />
		<tag k="name" v="Kvitungan" />
		<tag k="place" v="islet" />
		<tag k="ssr:stedsnr" v="656819" />
	</node>
	<node id="-186496" lat="67.4641666707" lon="11.9465166597">
		<tag k="name" v="Gurilian" />
		<tag k="natural" v="slope" />
		<tag k="place" v="locality" />
		<tag k="ssr:stedsnr" v="414605" />
	</node>
	<node id="-186495" lat="67.526744443" lon="12.1173333338">
		<tag k="name" v="Kvalvågsletta" />
		<tag k="place" v="locality" />
		<tag k="ssr:stedsnr" v="414519" />
	</node>
	<node id="-186494" lat="67.3896055594" lon="11.6716916563">
		<tag k="name" v="Ytterskallan" />
		<tag k="natural" v="shoal" />
		<tag k="place" v="locality" />
		<tag k="ssr:stedsnr" v="412302" />
	</node>
	<node id="-186493" lat="67.5164422891" lon="12.1242884808">
		<tag k="fixme" v="consider place=hamlet" />
		<tag k="name" v="Grav" />
		<tag k="place" v="farm" />
		<tag k="ssr:stedsnr" v="562323" />
	</node>
	<node id="-186492" lat="67.5141832925" lon="12.105849484">
		<tag k="alt_name" v="Stamneset" />
		<tag k="fixme" v="consider place=hamlet" />
		<tag k="name" v="Stamnes" />
		<tag k="place" v="farm" />
		<tag k="ssr:stedsnr" v="562318" />
	</node>
	<node id="-186491" lat="67.4373499964" lon="11.90031944">
		<tag k="alt_name" v="Austnestuva" />
		<tag k="name" v="Austnestua" />
		<tag k="natural" v="cape" />
		<tag k="ssr:stedsnr" v="502248" />
	</node>
	<node id="-186490" lat="67.4701416697" lon="12.0399722167">
		<tag k="name" v="Seksringmannen" />
		<tag k="place" v="islet" />
		<tag k="ssr:stedsnr" v="502246" />
	</node>
	<node id="-186489" lat="67.4643666708" lon="11.8938500098">
		<tag k="fixme" v="consider seamark:type=rock or natural=shoal" />
		<tag k="name" v="Sandskjeret" />
		<tag k="place" v="islet" />
		<tag k="ssr:stedsnr" v="502243" />
	</node>
	<node id="-186488" lat="67.4785972251" lon="12.0059750111">
		<tag k="name" v="Hundneset" />
		<tag k="natural" v="cape" />
		<tag k="ssr:stedsnr" v="502355" />
	</node>
	<node id="-186486" lat="67.495727777" lon="12.0562777876">
		<tag k="name" v="Galten" />
		<tag k="natural" v="shoal" />
		<tag k="place" v="locality" />
		<tag k="ssr:stedsnr" v="350318" />
	</node>
	<node id="-186485" lat="67.5139194457" lon="12.0998472219">
		<tag k="name" v="Tenderhågen" />
		<tag k="natural" v="hill" />
		<tag k="place" v="locality" />
		<tag k="ssr:stedsnr" v="475847" />
	</node>
	<node id="-186484" lat="67.5215861107" lon="12.0043277692">
		<tag k="fixme" v="consider seamark:type=rock or natural=shoal" />
		<tag k="name" v="Ravnungen" />
		<tag k="place" v="islet" />
		<tag k="ssr:stedsnr" v="475718" />
	</node>
	<node id="-186483" lat="67.5266194405" lon="12.1426749886">
		<tag k="name" v="Nes-Sundskjeret" />
		<tag k="place" v="islet" />
		<tag k="ssr:stedsnr" v="475708" />
	</node>
	<node id="-186482" lat="67.4461499995" lon="11.9171166779">
		<tag k="fixme" v="consider seamark:type=rock or natural=shoal" />
		<tag k="name" v="Nord-Nasborskjeret" />
		<tag k="place" v="islet" />
		<tag k="ssr:stedsnr" v="475607" />
	</node>
	<node id="-186481" lat="67.5171638931" lon="12.12330834">
		<tag k="name" v="Vardhågen" />
		<tag k="natural" v="hill" />
		<tag k="place" v="locality" />
		<tag k="ssr:stedsnr" v="475542" />
	</node>
	<node id="-186480" lat="67.4794194436" lon="11.8647750037">
		<tag k="name" v="Sørskjortbaken" />
		<tag k="natural" v="shoal" />
		<tag k="place" v="locality" />
		<tag k="ssr:stedsnr" v="320368" />
	</node>
	<node id="-186479" lat="67.4801611105" lon="12.0241833339">
		<tag k="name" v="Vedøyhamna" />
		<tag k="natural" v="bay" />
		<tag k="ssr:stedsnr" v="320362" />
	</node>
	<node id="-186478" lat="67.4736611112" lon="12.0380722232">
		<tag k="fixme" v="consider seamark:type=rock or natural=shoal" />
		<tag k="name" v="Rundskjeret" />
		<tag k="place" v="islet" />
		<tag k="ssr:stedsnr" v="475082" />
	</node>
	<node id="-186477" lat="67.4811277754" lon="12.0193138828">
		<tag k="name" v="Vishellaren" />
		<tag k="place" v="locality" />
		<tag k="ssr:stedsnr" v="475081" />
	</node>
	<node id="-186476" lat="67.4807416631" lon="12.0242694392">
		<tag k="name" v="Smålian" />
		<tag k="natural" v="slope" />
		<tag k="place" v="locality" />
		<tag k="ssr:stedsnr" v="475076" />
	</node>
	<node id="-186475" lat="67.457324997" lon="11.9272305631">
		<tag k="name" v="Austdalsskjeret" />
		<tag k="natural" v="cape" />
		<tag k="ssr:stedsnr" v="475007" />
	</node>
	<node id="-186474" lat="67.504386115" lon="12.0754805495">
		<tag k="fixme" v="consider seamark:type=rock or natural=shoal" />
		<tag k="name" v="Kårøyskjeret" />
		<tag k="place" v="islet" />
		<tag k="ssr:stedsnr" v="474799" />
	</node>
	<node id="-186473" lat="67.5087916628" lon="11.9602083238">
		<tag k="name" v="Låterskolten" />
		<tag k="place" v="islet" />
		<tag k="ssr:stedsnr" v="474778" />
	</node>
	<node id="-186472" lat="67.5047999958" lon="11.9519666776">
		<tag k="fixme" v="consider seamark:type=rock or natural=shoal" />
		<tag k="name" v="Låterungan" />
		<tag k="place" v="islet" />
		<tag k="ssr:stedsnr" v="474775" />
	</node>
	<node id="-186471" lat="67.4092027743" lon="11.8694611126">
		<tag k="name" v="Littjskomvær" />
		<tag k="natural" v="cape" />
		<tag k="ssr:stedsnr" v="474624" />
	</node>
	<node id="-186470" lat="67.4504999996" lon="11.8823472293">
		<tag k="name" v="Sør-Hudfatleia" />
		<tag k="place" v="locality" />
		<tag k="ssr:stedsnr" v="293018" />
	</node>
	<node id="-186469" lat="67.4593722208" lon="11.9231694386">
		<tag k="fixme" v="consider seamark:type=rock or natural=shoal" />
		<tag k="name" v="Vestdalsflua" />
		<tag k="place" v="islet" />
		<tag k="ssr:stedsnr" v="293008" />
	</node>
	<node id="-186468" lat="67.4816083304" lon="12.0455833305">
		<tag k="fixme" v="consider seamark:type=rock or natural=shoal" />
		<tag k="name" v="Draggan" />
		<tag k="place" v="islet" />
		<tag k="ssr:stedsnr" v="232059" />
	</node>
	<node id="-186467" lat="67.503208331" lon="11.9805000034">
		<tag k="fixme" v="consider seamark:type=rock or natural=shoal" />
		<tag k="name" v="Kvittingen" />
		<tag k="place" v="islet" />
		<tag k="ssr:stedsnr" v="231815" />
	</node>
	<node id="-186466" lat="67.4930166709" lon="12.0505194486">
		<tag k="name" v="Hella" />
		<tag k="natural" v="shoal" />
		<tag k="place" v="locality" />
		<tag k="ssr:stedsnr" v="229356" />
	</node>
	<node id="-186465" lat="67.5260749956" lon="12.0085277825">
		<tag k="name" v="Heggelvær" />
		<tag k="place" v="islet" />
		<tag k="ssr:stedsnr" v="442733" />
	</node>
	<node id="-186464" lat="67.4856555536" lon="12.0902388898">
		<tag k="fixme" v="consider seamark:type=rock or natural=shoal" />
		<tag k="name" v="Tindskjeran" />
		<tag k="place" v="islet" />
		<tag k="ssr:stedsnr" v="442376" />
	</node>
	<node id="-186463" lat="67.5015027749" lon="12.0760861094">
		<tag k="alt_name" v="Lyngværet" />
		<tag k="name" v="Lyngvær" />
		<tag k="place" v="island" />
		<tag k="ssr:stedsnr" v="442367" />
	</node>
	<node id="-186462" lat="67.4807249959" lon="12.1919999959">
		<tag k="name" v="Skolhusbakken" />
		<tag k="natural" v="shoal" />
		<tag k="place" v="locality" />
		<tag k="ssr:stedsnr" v="442303" />
	</node>
	<node id="-186461" lat="67.5276472256" lon="12.1134777681">
		<tag k="name" v="Valvågen" />
		<tag k="natural" v="cape" />
		<tag k="ssr:stedsnr" v="441712" />
	</node>
	<node id="-186460" lat="67.5285361106" lon="12.1570944384">
		<tag k="name" v="Sandholmen" />
		<tag k="place" v="islet" />
		<tag k="ssr:stedsnr" v="441709" />
	</node>
	<node id="-186459" lat="67.5215555591" lon="12.1045138901">
		<tag k="name" v="Røst" />
		<tag k="place" v="island" />
		<tag k="ssr:stedsnr" v="441706" />
	</node>
	<node id="-186458" lat="67.5161944404" lon="12.2442194484">
		<tag k="alt_name" v="Brattklakken" />
		<tag k="fixme" v="consider seamark:type=rock or natural=shoal" />
		<tag k="name" v="Litle Brattklakken" />
		<tag k="place" v="islet" />
		<tag k="ssr:stedsnr" v="441441" />
	</node>
	<node id="-186457" lat="67.5115055543" lon="12.1522138879">
		<tag k="name" v="Kalvholmen" />
		<tag k="place" v="islet" />
		<tag k="ssr:stedsnr" v="441332" />
	</node>
	<node id="-186456" lat="67.5199500035" lon="12.1377583331">
		<tag k="fixme" v="consider seamark:type=rock or natural=shoal" />
		<tag k="name" v="Pålskjeret" />
		<tag k="place" v="islet" />
		<tag k="ssr:stedsnr" v="441326" />
	</node>
	<node id="-186455" lat="67.5170361143" lon="12.0533722167">
		<tag k="alt_name" v="Hansøyan" />
		<tag k="name" v="Storhansøya" />
		<tag k="place" v="islet" />
		<tag k="ssr:stedsnr" v="441319" />
	</node>
	<node id="-186454" lat="67.3857638882" lon="11.7217999992">
		<tag k="name" v="Nilspersaskallen" />
		<tag k="natural" v="shoal" />
		<tag k="place" v="locality" />
		<tag k="ssr:stedsnr" v="441303" />
	</node>
	<node id="-186453" lat="67.3777138896" lon="11.7644361023">
		<tag k="name" v="Seiskallen" />
		<tag k="natural" v="shoal" />
		<tag k="place" v="locality" />
		<tag k="ssr:stedsnr" v="441290" />
	</node>
	<node id="-186452" lat="67.4257305545" lon="11.888827769">
		<tag k="alt_name" v="Værholmen" />
		<tag k="name" v="Verholmen" />
		<tag k="place" v="islet" />
		<tag k="ssr:stedsnr" v="441275" />
	</node>
	<node id="-186451" lat="67.4110305536" lon="11.8874333334">
		<tag k="fixme" v="consider seamark:type=rock or natural=shoal" />
		<tag k="name" v="Skulskjeret" />
		<tag k="place" v="islet" />
		<tag k="ssr:stedsnr" v="441274" />
	</node>
	<node id="-186450" lat="67.5272111117" lon="12.0727305518">
		<tag k="name" v="Sandøyra" />
		<tag k="place" v="island" />
		<tag k="ssr:stedsnr" v="199714" />
	</node>
	<node id="-186449" lat="67.5333305589" lon="12.192230549">
		<tag k="bay" v="fjord" />
		<tag k="name" v="Ytreråsa" />
		<tag k="natural" v="bay" />
		<tag k="ssr:stedsnr" v="199706" />
	</node>
	<node id="-186448" lat="67.5306916624" lon="12.1954916686">
		<tag k="bay" v="fjord" />
		<tag k="name" v="Indreråsa" />
		<tag k="natural" v="bay" />
		<tag k="ssr:stedsnr" v="199704" />
	</node>
	<node id="-186447" lat="67.518866666" lon="12.0525444478">
		<tag k="alt_name" v="Ytrehansøya" />
		<tag k="name" v="Hansøyan" />
		<tag k="place" v="islet" />
		<tag k="ssr:stedsnr" v="199326" />
	</node>
	<node id="-186446" lat="67.5168416651" lon="12.0337138875">
		<tag k="fixme" v="consider seamark:type=rock or natural=shoal" />
		<tag k="name" v="Leiskjeret" />
		<tag k="place" v="islet" />
		<tag k="ssr:stedsnr" v="199325" />
	</node>
	<node id="-186445" lat="67.5192055533" lon="12.2080277666">
		<tag k="fixme" v="consider seamark:type=rock or natural=shoal" />
		<tag k="name" v="Svartskjeret" />
		<tag k="place" v="islet" />
		<tag k="ssr:stedsnr" v="199315" />
	</node>
	<node id="-186444" lat="67.5240722219" lon="12.2231333401">
		<tag k="name" v="Skipbåan" />
		<tag k="natural" v="shoal" />
		<tag k="place" v="locality" />
		<tag k="ssr:stedsnr" v="198429" />
	</node>
	<node id="-186443" lat="67.512327775" lon="12.0712555575">
		<tag k="fixme" v="consider seamark:type=rock or natural=shoal" />
		<tag k="name" v="Pisselen" />
		<tag k="place" v="islet" />
		<tag k="ssr:stedsnr" v="292804" />
	</node>
	<node id="-186442" lat="67.509275003" lon="12.0783805521">
		<tag k="name" v="Ner-Kalvøya" />
		<tag k="natural" v="cape" />
		<tag k="ssr:stedsnr" v="292800" />
	</node>
	<node id="-186441" lat="67.5323694414" lon="12.1426944558">
		<tag k="name" v="Leibåen" />
		<tag k="natural" v="shoal" />
		<tag k="place" v="locality" />
		<tag k="ssr:stedsnr" v="291377" />
	</node>
	<node id="-186440" lat="67.4605055595" lon="11.9215388934">
		<tag k="alt_name" v="Indre Husskjeret" />
		<tag k="fixme" v="consider seamark:type=rock or natural=shoal" />
		<tag k="name" v="Inner Husskjeret" />
		<tag k="place" v="islet" />
		<tag k="ssr:stedsnr" v="291351" />
	</node>
	<node id="-186439" lat="67.5265305556" lon="12.101927769">
		<tag k="aeroway" v="aerodrome" />
		<tag k="alt_name" v="Røst" />
		<tag k="name" v="Røst lufthavn" />
		<tag k="ssr:stedsnr" v="284080" />
	</node>
	<node id="-186438" lat="67.5072527755" lon="12.0726944547">
		<tag k="fixme" v="consider seamark:type=rock or natural=shoal" />
		<tag k="name" v="Gleaskjeret" />
		<tag k="place" v="islet" />
		<tag k="ssr:stedsnr" v="171807" />
	</node>
	<node id="-186437" lat="67.4584472196" lon="11.9308833341">
		<tag k="name" v="Austdalsberget" />
		<tag k="natural" v="cliff" />
		<tag k="ssr:stedsnr" v="171005" />
	</node>
	<node id="-186436" lat="67.4730250035" lon="11.9432916561">
		<tag k="name" v="Ytre Trollet" />
		<tag k="natural" v="shoal" />
		<tag k="place" v="locality" />
		<tag k="ssr:stedsnr" v="169327" />
	</node>
	<node id="-186435" lat="67.5131416633" lon="11.9812916674">
		<tag k="fixme" v="consider seamark:type=rock or natural=shoal" />
		<tag k="name" v="Alkskjeret" />
		<tag k="place" v="islet" />
		<tag k="ssr:stedsnr" v="168352" />
	</node>
	<node id="-186434" lat="67.521713887" lon="12.1180972207">
		<tag k="name" v="Gråsonen" />
		<tag k="place" v="quarter" />
		<tag k="ssr:stedsnr" v="111520" />
	</node>
	<node id="-186433" lat="67.4528722223" lon="11.9109583327">
		<tag k="name" v="Nord-Sandøyholman" />
		<tag k="place" v="islet" />
		<tag k="ssr:stedsnr" v="111003" />
	</node>
	<node id="-186432" lat="67.5093194422" lon="12.0556166747">
		<tag k="name" v="Steinsøya" />
		<tag k="place" v="islet" />
		<tag k="ssr:stedsnr" v="110803" />
	</node>
	<node id="-186431" lat="67.4918749977" lon="12.2840805567">
		<tag k="name" v="Søre Årnhansaskallen" />
		<tag k="natural" v="shoal" />
		<tag k="place" v="locality" />
		<tag k="ssr:stedsnr" v="109622" />
	</node>
	<node id="-186430" lat="67.5406499998" lon="12.1688666619">
		<tag k="fixme" v="consider seamark:type=rock or natural=shoal" />
		<tag k="name" v="Storflesa" />
		<tag k="place" v="islet" />
		<tag k="ssr:stedsnr" v="260744" />
	</node>
	<node id="-186429" lat="67.5248555547" lon="11.9757333306">
		<tag k="alt_name" v="Tørrbåen" />
		<tag k="name" v="Tørrbøen" />
		<tag k="natural" v="shoal" />
		<tag k="place" v="locality" />
		<tag k="ssr:stedsnr" v="260738" />
	</node>
	<node id="-186428" lat="67.4846472221" lon="11.9129999982">
		<tag k="name" v="Indrelåtra" />
		<tag k="place" v="islet" />
		<tag k="ssr:stedsnr" v="260412" />
	</node>
	<node id="-186427" lat="67.4857194473" lon="12.0192694384">
		<tag k="alt_name" v="Grindskjeret" />
		<tag k="fixme" v="consider seamark:type=rock or natural=shoal" />
		<tag k="name" v="Grindskjeran" />
		<tag k="place" v="islet" />
		<tag k="ssr:stedsnr" v="260393" />
	</node>
	<node id="-186426" lat="67.5025083357" lon="12.0912166633">
		<tag k="name" v="Lamholmen" />
		<tag k="place" v="islet" />
		<tag k="ssr:stedsnr" v="260386" />
	</node>
	<node id="-186425" lat="67.50253611" lon="12.1402111066">
		<tag k="alt_name" v="Litlkårklakken" />
		<tag k="name" v="Littj-Kårklakken" />
		<tag k="place" v="islet" />
		<tag k="ssr:stedsnr" v="260379" />
	</node>
	<node id="-186424" lat="67.4708277746" lon="12.1512666754">
		<tag k="name" v="Hæssholmbelan" />
		<tag k="natural" v="shoal" />
		<tag k="place" v="locality" />
		<tag k="ssr:stedsnr" v="260329" />
	</node>
	<node id="-186423" lat="67.501436111" lon="12.0611638855">
		<tag k="fixme" v="consider seamark:type=rock or natural=shoal" />
		<tag k="name" v="Trettskjeret" />
		<tag k="place" v="islet" />
		<tag k="ssr:stedsnr" v="259347" />
	</node>
	<node id="-186422" lat="67.5068444409" lon="12.1132583218">
		<tag k="fixme" v="multiple name tags, choose one and add the other to alt_name; consider seamark:type=rock or natural=shoal" />
		<tag k="name" v="Marskjerløkta;Sandskjeret" />
		<tag k="place" v="islet" />
		<tag k="ssr:stedsnr" v="259338" />
	</node>
	<node id="-186420" lat="67.5131444459" lon="12.0627361188">
		<tag k="alt_name" v="Medøya" />
		<tag k="name" v="Meøya" />
		<tag k="place" v="islet" />
		<tag k="ssr:stedsnr" v="259297" />
	</node>
	<node id="-186419" lat="67.4030805517" lon="11.9519833262">
		<tag k="fixme" v="consider seamark:type=rock or natural=shoal" />
		<tag k="name" v="Oddskjeret" />
		<tag k="place" v="islet" />
		<tag k="ssr:stedsnr" v="259289" />
	</node>
	<node id="-186418" lat="67.4009388892" lon="11.9271416764">
		<tag k="fixme" v="consider seamark:type=rock or natural=shoal" />
		<tag k="name" v="Kolbeinskjeret" />
		<tag k="place" v="islet" />
		<tag k="ssr:stedsnr" v="259285" />
	</node>
	<node id="-186417" lat="67.5163499987" lon="12.1570110996">
		<tag k="fixme" v="consider seamark:type=rock or natural=shoal" />
		<tag k="name" v="Leiskjeret" />
		<tag k="place" v="islet" />
		<tag k="ssr:stedsnr" v="259284" />
	</node>
	<node id="-186416" lat="67.4286472226" lon="11.8859805461">
		<tag k="fixme" v="consider seamark:type=rock or natural=shoal" />
		<tag k="name" v="Flata" />
		<tag k="place" v="islet" />
		<tag k="ssr:stedsnr" v="259269" />
	</node>
	<node id="-186415" lat="67.4218388875" lon="11.933563882">
		<tag k="name" v="Buværflesa" />
		<tag k="natural" v="shoal" />
		<tag k="place" v="locality" />
		<tag k="ssr:stedsnr" v="259262" />
	</node>
	<node id="-186413" lat="67.4353166623" lon="11.8920722262">
		<tag k="name" v="Trenyken" />
		<tag k="place" v="island" />
		<tag k="ssr:stedsnr" v="259242" />
	</node>
	<node id="-186412" lat="67.4382555576" lon="11.9440055492">
		<tag k="name" v="Langflesa" />
		<tag k="place" v="islet" />
		<tag k="ssr:stedsnr" v="259240" />
	</node>
	<node id="-186411" lat="67.520333329" lon="12.2502416761">
		<tag k="name" v="Persbåan" />
		<tag k="natural" v="shoal" />
		<tag k="place" v="locality" />
		<tag k="ssr:stedsnr" v="258439" />
	</node>
	<node id="-186410" lat="67.4669499992" lon="12.1933805599">
		<tag k="name" v="Hæssholmbakken" />
		<tag k="natural" v="shoal" />
		<tag k="place" v="locality" />
		<tag k="ssr:stedsnr" v="77273" />
	</node>
	<node id="-186409" lat="67.5190583306" lon="12.1516416611">
		<tag k="alt_name" v="Daudmannsskjeret" />
		<tag k="fixme" v="consider seamark:type=rock or natural=shoal" />
		<tag k="name" v="Daumannskjeret" />
		<tag k="place" v="islet" />
		<tag k="ssr:stedsnr" v="77347" />
	</node>
	<node id="-186408" lat="67.5109944411" lon="12.0986277715">
		<tag k="name" v="Omundholmen" />
		<tag k="place" v="islet" />
		<tag k="ssr:stedsnr" v="50818" />
	</node>
	<node id="-186407" lat="67.4350888895" lon="11.9014027678">
		<tag k="name" v="Båtleia" />
		<tag k="natural" v="strait" />
		<tag k="ssr:stedsnr" v="50566" />
	</node>
	<node id="-186406" lat="67.4840833375" lon="12.0008694539">
		<tag k="fixme" v="consider seamark:type=rock or natural=shoal" />
		<tag k="name" v="Nordveggskjeret" />
		<tag k="place" v="islet" />
		<tag k="ssr:stedsnr" v="232869" />
	</node>
	<node id="-186405" lat="67.4978083346" lon="12.104330553">
		<tag k="name" v="Littj-Sandøya" />
		<tag k="place" v="islet" />
		<tag k="ssr:stedsnr" v="232836" />
	</node>
	<node id="-186404" lat="67.4664333357" lon="11.9416944451">
		<tag k="name" v="Nord-Måslia" />
		<tag k="natural" v="slope" />
		<tag k="place" v="locality" />
		<tag k="ssr:stedsnr" v="232047" />
	</node>
	<node id="-186403" lat="67.4759750037" lon="12.0066194376">
		<tag k="name" v="Måsfloget" />
		<tag k="natural" v="cliff" />
		<tag k="ssr:stedsnr" v="231128" />
	</node>
	<node id="-186402" lat="67.5006694427" lon="12.2844333309">
		<tag k="name" v="Nordre Årnhansaskallen" />
		<tag k="natural" v="shoal" />
		<tag k="place" v="locality" />
		<tag k="ssr:stedsnr" v="230641" />
	</node>
	<node id="-186401" lat="67.5212416643" lon="12.0037361184">
		<tag k="alt_name" v="Havsauget" />
		<tag k="name" v="Havsøyet" />
		<tag k="natural" v="strait" />
		<tag k="ssr:stedsnr" v="17729" />
	</node>
	<node id="-186400" lat="67.4844388911" lon="11.860744437">
		<tag k="name" v="Nordskjortbaken" />
		<tag k="natural" v="shoal" />
		<tag k="place" v="locality" />
		<tag k="ssr:stedsnr" v="17404" />
	</node>
	<node id="-186399" lat="67.4061999963" lon="11.9085972179">
		<tag k="alt_name" v="Leiskjeret" />
		<tag k="fixme" v="consider seamark:type=rock or natural=shoal" />
		<tag k="name" v="Leiskjeran" />
		<tag k="place" v="islet" />
		<tag k="ssr:stedsnr" v="17348" />
	</node>
	<node id="-186398" lat="67.3902416675" lon="11.8414944426">
		<tag k="name" v="Vippstøskallan" />
		<tag k="natural" v="shoal" />
		<tag k="place" v="locality" />
		<tag k="ssr:stedsnr" v="17342" />
	</node>
	<node id="-186397" lat="67.4100207001" lon="11.8746323543">
		<tag k="name" v="Skomvær" />
		<tag k="place" v="island" />
		<tag k="ssr:stedsnr" v="17326" />
	</node>
	<node id="-186396" lat="67.4101916661" lon="11.8655083378">
		<tag k="alt_name" v="Rundskjeret" />
		<tag k="fixme" v="consider seamark:type=rock or natural=shoal" />
		<tag k="name" v="Rundskjerholmen" />
		<tag k="place" v="islet" />
		<tag k="ssr:stedsnr" v="17325" />
	</node>
	<node id="-186395" lat="67.4535249983" lon="11.9289305523">
		<tag k="alt_name" v="Råknesodden;Råkneset" />
		<tag k="name" v="Rokknesodden" />
		<tag k="natural" v="cape" />
		<tag k="ssr:stedsnr" v="17315" />
	</node>
	<node id="-186394" lat="67.4364361144" lon="11.8873499965">
		<tag k="fixme" v="multiple name tags, choose one and add the other to alt_name" />
		<tag k="name" v="Breidnyken;Breien" />
		<tag k="natural" v="hill" />
		<tag k="place" v="locality" />
		<tag k="ssr:stedsnr" v="17311" />
	</node>
	<node id="-186393" lat="67.4359944405" lon="11.8985138999">
		<tag k="name" v="Spjuten" />
		<tag k="natural" v="hill" />
		<tag k="place" v="locality" />
		<tag k="ssr:stedsnr" v="17308" />
	</node>
	<node id="-186392" lat="67.4781583345" lon="12.0544777828">
		<tag k="fixme" v="consider seamark:type=rock or natural=shoal" />
		<tag k="name" v="Djupskjeret" />
		<tag k="place" v="islet" />
		<tag k="ssr:stedsnr" v="17305" />
	</node>
	<node id="-186391" lat="67.4797194425" lon="12.2317055545">
		<tag k="name" v="Tørrfallan" />
		<tag k="natural" v="shoal" />
		<tag k="place" v="locality" />
		<tag k="ssr:stedsnr" v="17301" />
	</node>
</osm>
