<?xml version="1.0" encoding="UTF-8"?>
<osm generator="osmapis" version="0.6">
	<node id="-699133" lat="67.5269277808" lon="12.1334972253">
		<tag k="alt_name" v="Nordneset;Neset" />
		<tag k="name" v="Nesset" />
		<tag k="place" v="farm" />
		<tag k="ssr:stedsnr" v="77709" />
	</node>
	<node id="-699386" lat="67.4612527786" lon="11.9251222302">
		<tag k="name" v="Husan" />
		<tag k="place" v="locality" />
		<tag k="ssr:stedsnr" v="718009" />
	</node>
	<node id="-699261" lat="67.5175055574" lon="12.1174277774">
		<tag k="name" v="Røst" />
		<tag k="place" v="village" />
		<tag k="ssr:stedsnr" v="502282" />
	</node>
	<node id="-699364" lat="67.5165416709" lon="12.079858323">
		<tag k="alt_name" v="Ytstneset" />
		<tag k="name" v="Ystneset" />
		<tag k="place" v="farm" />
		<tag k="ssr:stedsnr" v="684337" />
	</node>
	<node id="-699107" lat="67.5145611134" lon="12.0866527769">
		<tag k="name" v="Brasen" />
		<tag k="place" v="farm" />
		<tag k="ssr:stedsnr" v="17362" />
	</node>
	<node id="-699467" lat="67.4684166632" lon="11.9498638937">
		<tag k="name" v="Sanden" />
		<tag k="place" v="farm" />
		<tag k="ssr:stedsnr" v="927275" />
	</node>
	<node id="-699455" lat="67.5147999973" lon="12.0924500093">
		<tag k="name" v="Klakken" />
		<tag k="place" v="farm" />
		<tag k="ssr:stedsnr" v="866312" />
	</node>
	<node id="-699066" lat="67.5278388847" lon="12.1402805439">
		<tag k="name" v="Nedreneset" />
		<tag k="place" v="farm" />
		<tag k="ssr:stedsnr" v="380728" />
	</node>
	<node id="-699446" lat="67.5218166684" lon="12.1310611208">
		<tag k="name" v="Klokkargården" />
		<tag k="place" v="farm" />
		<tag k="ssr:stedsnr" v="839559" />
	</node>
	<node id="-699444" lat="67.5273694415" lon="12.1219694495">
		<tag k="name" v="Kvalvåg" />
		<tag k="place" v="farm" />
		<tag k="ssr:stedsnr" v="839547" />
	</node>
	<node id="-699315" lat="67.4581333329" lon="11.9341500099">
		<tag k="name" v="Tufter" />
		<tag k="place" v="locality" />
		<tag k="ssr:stedsnr" v="596049" />
	</node>
	<node id="-699059" lat="67.5160305592" lon="12.1272944368">
		<tag k="name" v="Brygga" />
		<tag k="place" v="isolated_dwelling" />
		<tag k="ssr:stedsnr" v="380328" />
	</node>
	<node id="-699053" lat="67.5188861113" lon="12.1151916705">
		<tag k="name" v="Golan" />
		<tag k="place" v="quarter" />
		<tag k="ssr:stedsnr" v="353549" />
	</node>
	<node id="-699429" lat="67.5226916671" lon="12.134788878">
		<tag k="name" v="Demma" />
		<tag k="place" v="locality" />
		<tag k="ssr:stedsnr" v="805309" />
	</node>
	<node id="-699296" lat="67.5161694459" lon="12.1247083253">
		<tag k="name" v="Grav" />
		<tag k="place" v="farm" />
		<tag k="ssr:stedsnr" v="562323" />
	</node>
	<node id="-699295" lat="67.5140999995" lon="12.1066555472">
		<tag k="alt_name" v="Stamneset" />
		<tag k="name" v="Stamnes" />
		<tag k="place" v="farm" />
		<tag k="ssr:stedsnr" v="562318" />
	</node>
	<node id="-699159" lat="67.5281472254" lon="12.1390416572">
		<tag k="barrier" v="fence" />
		<tag k="name" v="Bakk-gjerdet" />
		<tag k="ssr:stedsnr" v="111688" />
	</node>
	<node id="-699157" lat="67.521713887" lon="12.1180972207">
		<tag k="name" v="Gråsonen" />
		<tag k="place" v="quarter" />
		<tag k="ssr:stedsnr" v="111520" />
	</node>
	<node id="-699168" lat="67.5121111091" lon="12.1122777746">
		<tag k="alt_name" v="Vassneset" />
		<tag k="name" v="Vasnes" />
		<tag k="place" v="farm" />
		<tag k="ssr:stedsnr" v="138365" />
	</node>
	<node id="-699404" lat="67.524327781" lon="12.1152027823">
		<tag k="fixme" v="consider place=hamlet" />
		<tag k="name" v="Røstlandet" />
		<tag k="place" v="village" />
		<tag k="ssr:stedsnr" v="745353" />
	</node>
	<node id="-699141" lat="67.5147583296" lon="12.114938887">
		<tag k="name" v="Hammer" />
		<tag k="place" v="farm" />
		<tag k="ssr:stedsnr" v="78337" />
	</node>
	<node id="-699267" lat="67.5250999987" lon="12.1380111115">
		<tag k="name" v="Skau" />
		<tag k="place" v="farm" />
		<tag k="ssr:stedsnr" v="502314" />
	</node>
	<node id="-699266" lat="67.5234138884" lon="12.1297916602">
		<tag k="name" v="Meland" />
		<tag k="place" v="farm" />
		<tag k="ssr:stedsnr" v="502305" />
	</node>
</osm>
