<?xml version="1.0" encoding="UTF-8"?>
<<<<<<< HEAD
<osm version="0.6" generator="osmapis">
	<node lat="67.47597500374388" lon="12.006619437641735" id="-8605">
		<tag k="name" v="Måsfloget" />
		<tag k="natural" v="cliff" />
		<tag k="ssr:stedsnr" v="231128" />
	</node>
	<node lat="67.46643333569159" lon="11.94169444508695" id="-8607">
		<tag k="name" v="Nord-Måslia" />
		<tag k="natural" v="slope" />
=======
<osm generator="osmapis" version="0.6">
	<node id="-186496" lat="67.4641666707" lon="11.9465166597">
		<tag k="name" v="Gurilian" />
		<tag k="natural" v="slope" />
		<tag k="place" v="locality" />
		<tag k="ssr:stedsnr" v="414605" />
	</node>
	<node id="-186495" lat="67.526744443" lon="12.1173333338">
		<tag k="name" v="Kvalvågsletta" />
		<tag k="place" v="locality" />
		<tag k="ssr:stedsnr" v="414519" />
	</node>
	<node id="-186485" lat="67.5139194457" lon="12.0998472219">
		<tag k="name" v="Tenderhågen" />
		<tag k="natural" v="hill" />
>>>>>>> e1d4bc35ff8a6074a6f2e91616a996b547c36f15
		<tag k="place" v="locality" />
		<tag k="ssr:stedsnr" v="232047" />
	</node>
<<<<<<< HEAD
	<node lat="67.43599444049033" lon="11.898513899922357" id="-8612">
		<tag k="name" v="Spjuten" />
		<tag k="natural" v="hill" />
		<tag k="place" v="locality" />
		<tag k="ssr:stedsnr" v="17308" />
	</node>
	<node lat="67.43643611436941" lon="11.887349996531595" id="-8613">
		<tag k="alt_name" v="Breidnyken" />
		<tag k="fixme" v="multiple name tags, choose one and add the other to alt_name" />
		<tag k="name" v="Breien;Breinykskjeran" />
=======
	<node id="-186740" lat="67.4822972212" lon="12.0079805558">
		<tag k="name" v="Vestveggen" />
		<tag k="natural" v="cliff" />
		<tag k="ssr:stedsnr" v="535082" />
	</node>
	<node id="-186481" lat="67.5171638931" lon="12.12330834">
		<tag k="name" v="Vardhågen" />
>>>>>>> e1d4bc35ff8a6074a6f2e91616a996b547c36f15
		<tag k="natural" v="hill" />
		<tag k="place" v="locality" />
		<tag k="ssr:stedsnr" v="17311" />
	</node>
<<<<<<< HEAD
	<node lat="67.46005277759721" lon="11.92972223014212" id="-8623">
		<tag k="name" v="Vestdalen" />
		<tag k="natural" v="valley" />
=======
	<node id="-186736" lat="67.514524999" lon="12.1164972115">
		<tag k="name" v="Grav" />
>>>>>>> e1d4bc35ff8a6074a6f2e91616a996b547c36f15
		<tag k="place" v="locality" />
		<tag k="ssr:stedsnr" v="50006" />
	</node>
	<node lat="67.48153888464083" lon="12.010591670637629" id="-8624">
		<tag k="name" v="Melandsfloget" />
		<tag k="natural" v="cliff" />
		<tag k="ssr:stedsnr" v="50088" />
	</node>
<<<<<<< HEAD
	<node lat="67.45844721960675" lon="11.930883334091396" id="-8656">
		<tag k="name" v="Austdalsberget" />
		<tag k="natural" v="cliff" />
		<tag k="ssr:stedsnr" v="171005" />
	</node>
	<node lat="67.48112777537384" lon="12.019313882766411" id="-8696">
=======
	<node id="-186477" lat="67.4811277754" lon="12.0193138828">
>>>>>>> e1d4bc35ff8a6074a6f2e91616a996b547c36f15
		<tag k="name" v="Vishellaren" />
		<tag k="place" v="locality" />
		<tag k="ssr:stedsnr" v="475081" />
	</node>
<<<<<<< HEAD
	<node lat="67.51716389305778" lon="12.12330833996656" id="-8698">
		<tag k="name" v="Vardhågen" />
		<tag k="natural" v="hill" />
=======
	<node id="-186476" lat="67.4807416631" lon="12.0242694392">
		<tag k="name" v="Smålian" />
		<tag k="natural" v="slope" />
>>>>>>> e1d4bc35ff8a6074a6f2e91616a996b547c36f15
		<tag k="place" v="locality" />
		<tag k="ssr:stedsnr" v="475542" />
	</node>
<<<<<<< HEAD
	<node lat="67.51391944573541" lon="12.099847221925728" id="-8699">
		<tag k="name" v="Tenderhågen" />
		<tag k="natural" v="hill" />
=======
	<node id="-186850" lat="67.4642999968" lon="11.9325777748">
		<tag k="alt_name" v="Svadene" />
		<tag k="name" v="Svaen" />
		<tag k="natural" v="slope" />
>>>>>>> e1d4bc35ff8a6074a6f2e91616a996b547c36f15
		<tag k="place" v="locality" />
		<tag k="ssr:stedsnr" v="475847" />
	</node>
<<<<<<< HEAD
	<node lat="67.52674444301506" lon="12.11733333382781" id="-8709">
		<tag k="name" v="Kvalvågsletta" />
=======
	<node id="-186593" lat="67.4584250043" lon="11.9345194474">
		<tag k="name" v="Austdalen" />
		<tag k="natural" v="valley" />
>>>>>>> e1d4bc35ff8a6074a6f2e91616a996b547c36f15
		<tag k="place" v="locality" />
		<tag k="ssr:stedsnr" v="414519" />
	</node>
<<<<<<< HEAD
	<node lat="67.46416667073183" lon="11.94651665969095" id="-8710">
		<tag k="name" v="Gurilian" />
=======
	<node id="-186708" lat="67.4273361125" lon="11.8759694349">
		<tag k="name" v="Johannes" />
>>>>>>> e1d4bc35ff8a6074a6f2e91616a996b547c36f15
		<tag k="natural" v="slope" />
		<tag k="place" v="locality" />
		<tag k="ssr:stedsnr" v="414605" />
	</node>
<<<<<<< HEAD
	<node lat="67.51452499901096" lon="12.116497211455158" id="-8711">
		<tag k="name" v="Grav" />
=======
	<node id="-186835" lat="67.4803416691" lon="12.0183722166">
		<tag k="name" v="Nonstuva" />
		<tag k="natural" v="ridge" />
>>>>>>> e1d4bc35ff8a6074a6f2e91616a996b547c36f15
		<tag k="place" v="locality" />
		<tag k="ssr:stedsnr" v="414842" />
	</node>
<<<<<<< HEAD
	<node lat="67.48074166314237" lon="12.0242694392104" id="-8720">
		<tag k="name" v="Smålian" />
		<tag k="natural" v="slope" />
=======
	<node id="-186706" lat="67.4363750017" lon="11.8964750006">
		<tag k="name" v="Helvete" />
		<tag k="natural" v="valley" />
>>>>>>> e1d4bc35ff8a6074a6f2e91616a996b547c36f15
		<tag k="place" v="locality" />
		<tag k="ssr:stedsnr" v="475076" />
	</node>
<<<<<<< HEAD
	<node lat="67.48229722118906" lon="12.007980555849167" id="-8756">
		<tag k="name" v="Vestveggen" />
		<tag k="natural" v="cliff" />
		<tag k="ssr:stedsnr" v="535082" />
	</node>
	<node lat="67.51976388539425" lon="12.124547220351028" id="-8766">
		<tag k="name" v="Sverrebakkan" />
		<tag k="natural" v="slope" />
=======
	<node id="-186822" lat="67.5251416691" lon="12.0864972207">
		<tag k="alt_name" v="Ånnhammaren" />
		<tag k="fixme" v="consider natural=peak for the most distinct mountains in the district" />
		<tag k="name" v="Ånghammaren" />
		<tag k="natural" v="hill" />
>>>>>>> e1d4bc35ff8a6074a6f2e91616a996b547c36f15
		<tag k="place" v="locality" />
		<tag k="ssr:stedsnr" v="596502" />
	</node>
<<<<<<< HEAD
	<node lat="67.52458889208194" lon="12.134002775815675" id="-8776">
		<tag k="name" v="Skaudungan" />
		<tag k="place" v="locality" />
		<tag k="ssr:stedsnr" v="657691" />
	</node>
	<node lat="67.48017222257423" lon="12.01143332749367" id="-8792">
=======
	<node id="-186437" lat="67.4584472196" lon="11.9308833341">
		<tag k="name" v="Austdalsberget" />
		<tag k="natural" v="cliff" />
		<tag k="ssr:stedsnr" v="171005" />
	</node>
	<node id="-186563" lat="67.4801722226" lon="12.0114333275">
>>>>>>> e1d4bc35ff8a6074a6f2e91616a996b547c36f15
		<tag k="name" v="Bunesan" />
		<tag k="natural" v="slope" />
		<tag k="place" v="locality" />
		<tag k="ssr:stedsnr" v="718105" />
	</node>
<<<<<<< HEAD
	<node lat="67.45842500426919" lon="11.93451944736253" id="-8820">
		<tag k="name" v="Austdalen" />
		<tag k="natural" v="valley" />
=======
	<node id="-186558" lat="67.4362916667" lon="11.8933611165">
		<tag k="name" v="Steigen" />
		<tag k="natural" v="hill" />
		<tag k="place" v="locality" />
		<tag k="ssr:stedsnr" v="562245" />
	</node>
	<node id="-186798" lat="67.483552774" lon="12.0119194533">
		<tag k="fixme" v="consider natural=peak for the most distinct mountains in the district" />
		<tag k="name" v="Nordveggen" />
		<tag k="natural" v="hill" />
>>>>>>> e1d4bc35ff8a6074a6f2e91616a996b547c36f15
		<tag k="place" v="locality" />
		<tag k="ssr:stedsnr" v="927293" />
	</node>
<<<<<<< HEAD
	<node lat="67.5259147267399" lon="12.1264815278133" id="-8846">
		<tag k="name" v="Sankthanshågen" />
		<tag k="natural" v="hill" />
		<tag k="place" v="locality" />
		<tag k="ssr:stedsnr" v="50497" />
	</node>
	<node lat="67.43637500173003" lon="11.896475000644267" id="-8909">
		<tag k="name" v="Helvete" />
		<tag k="natural" v="valley" />
		<tag k="place" v="locality" />
		<tag k="ssr:stedsnr" v="352586" />
	</node>
	<node lat="67.42733611245224" lon="11.875969434917115" id="-8911">
		<tag k="name" v="Johannes" />
		<tag k="natural" v="slope" />
		<tag k="place" v="locality" />
		<tag k="ssr:stedsnr" v="352593" />
	</node>
	<node lat="67.43629166669677" lon="11.893361116537609" id="-8959">
		<tag k="name" v="Steigen" />
=======
	<node id="-186404" lat="67.4664333357" lon="11.9416944451">
		<tag k="name" v="Nord-Måslia" />
		<tag k="natural" v="slope" />
		<tag k="place" v="locality" />
		<tag k="ssr:stedsnr" v="232047" />
	</node>
	<node id="-186403" lat="67.4759750037" lon="12.0066194376">
		<tag k="name" v="Måsfloget" />
		<tag k="natural" v="cliff" />
		<tag k="ssr:stedsnr" v="231128" />
	</node>
	<node id="-186629" lat="67.5259147267" lon="12.1264815278">
		<tag k="name" v="Sankthanshågen" />
		<tag k="natural" v="hill" />
		<tag k="place" v="locality" />
		<tag k="ssr:stedsnr" v="50497" />
	</node>
	<node id="-186394" lat="67.4364361144" lon="11.8873499965">
		<tag k="fixme" v="multiple name tags, choose one and add the other to alt_name" />
		<tag k="name" v="Breidnyken;Breien" />
		<tag k="natural" v="hill" />
		<tag k="place" v="locality" />
		<tag k="ssr:stedsnr" v="17311" />
	</node>
	<node id="-186778" lat="67.4667999988" lon="11.9490583353">
		<tag k="name" v="Moslia" />
		<tag k="natural" v="slope" />
		<tag k="place" v="locality" />
		<tag k="ssr:stedsnr" v="623250" />
	</node>
	<node id="-186393" lat="67.4359944405" lon="11.8985138999">
		<tag k="name" v="Spjuten" />
>>>>>>> e1d4bc35ff8a6074a6f2e91616a996b547c36f15
		<tag k="natural" v="hill" />
		<tag k="place" v="locality" />
		<tag k="ssr:stedsnr" v="562245" />
	</node>
<<<<<<< HEAD
	<node lat="67.4667999987756" lon="11.949058335328733" id="-8997">
		<tag k="name" v="Moslia" />
=======
	<node id="-186772" lat="67.5197638854" lon="12.1245472204">
		<tag k="name" v="Sverrebakkan" />
>>>>>>> e1d4bc35ff8a6074a6f2e91616a996b547c36f15
		<tag k="natural" v="slope" />
		<tag k="place" v="locality" />
		<tag k="ssr:stedsnr" v="623250" />
	</node>
<<<<<<< HEAD
	<node lat="67.48355832969102" lon="12.015636103629127" id="-9005">
		<tag k="name" v="Grindteigen" />
		<tag k="natural" v="slope" />
=======
	<node id="-186505" lat="67.5245888921" lon="12.1340027758">
		<tag k="name" v="Skaudungan" />
>>>>>>> e1d4bc35ff8a6074a6f2e91616a996b547c36f15
		<tag k="place" v="locality" />
		<tag k="ssr:stedsnr" v="657098" />
	</node>
<<<<<<< HEAD
	<node lat="67.48232221775723" lon="12.014622223341261" id="-9006">
=======
	<node id="-186502" lat="67.4823222178" lon="12.0146222233">
>>>>>>> e1d4bc35ff8a6074a6f2e91616a996b547c36f15
		<tag k="name" v="Nesfloget" />
		<tag k="natural" v="cliff" />
		<tag k="ssr:stedsnr" v="657101" />
	</node>
<<<<<<< HEAD
	<node lat="67.48355277404596" lon="12.011919453293755" id="-9024">
		<tag k="fixme" v="consider natural=peak for the most distinct mountains in the district" />
		<tag k="name" v="Nordveggen" />
		<tag k="natural" v="hill" />
		<tag k="place" v="locality" />
		<tag k="ssr:stedsnr" v="745390" />
	</node>
	<node lat="67.52514166909083" lon="12.086497220682825" id="-9036">
		<tag k="alt_name" v="Ånnhammaren" />
		<tag k="fixme" v="consider natural=peak for the most distinct mountains in the district" />
		<tag k="name" v="Ånghammaren" />
		<tag k="natural" v="hill" />
=======
	<node id="-186501" lat="67.4835583297" lon="12.0156361036">
		<tag k="name" v="Grindteigen" />
		<tag k="natural" v="slope" />
		<tag k="place" v="locality" />
		<tag k="ssr:stedsnr" v="657098" />
	</node>
	<node id="-186628" lat="67.4815388846" lon="12.0105916706">
		<tag k="name" v="Melandsfloget" />
		<tag k="natural" v="cliff" />
		<tag k="ssr:stedsnr" v="50088" />
	</node>
	<node id="-186625" lat="67.4600527776" lon="11.9297222301">
		<tag k="name" v="Vestdalen" />
		<tag k="natural" v="valley" />
>>>>>>> e1d4bc35ff8a6074a6f2e91616a996b547c36f15
		<tag k="place" v="locality" />
		<tag k="ssr:stedsnr" v="805306" />
	</node>
<<<<<<< HEAD
	<node lat="67.48034166908091" lon="12.01837221663527" id="-9049">
		<tag k="name" v="Nonstuva" />
		<tag k="natural" v="ridge" />
		<tag k="place" v="locality" />
		<tag k="ssr:stedsnr" v="839087" />
	</node>
	<node lat="67.46429999680592" lon="11.932577774784024" id="-9063">
		<tag k="alt_name" v="Svadene" />
		<tag k="name" v="Svaen" />
		<tag k="natural" v="slope" />
		<tag k="place" v="locality" />
		<tag k="ssr:stedsnr" v="867295" />
	</node>
=======
>>>>>>> e1d4bc35ff8a6074a6f2e91616a996b547c36f15
</osm>
