<?xml version="1.0" encoding="UTF-8"?>
<<<<<<< HEAD
<osm version="0.6" generator="osmapis">
	<node lat="67.52653055558523" lon="12.101927768995385" id="-8680">
		<tag k="aeroway" v="aerodrome" />
		<tag k="alt_name" v="Røst" />
		<tag k="name" v="Røst lufthavn" />
		<tag k="ssr:stedsnr" v="284080" />
	</node>
	<node lat="67.517819448215" lon="12.12983888826404" id="-8794">
		<tag k="man_made" v="quay" />
		<tag k="name" v="Brygga" />
		<tag k="place" v="locality" />
		<tag k="ssr:stedsnr" v="900548" />
	</node>
	<node lat="67.52458611047332" lon="12.135947223893847" id="-8835">
=======
<osm generator="osmapis" version="0.6">
	<node id="-186504" lat="67.5215083341" lon="12.1263638834">
>>>>>>> e1d4bc35ff8a6074a6f2e91616a996b547c36f15
		<tag k="man_made" v="cairn" />
		<tag k="name" v="Skauvarden" />
		<tag k="place" v="locality" />
		<tag k="ssr:stedsnr" v="960705" />
	</node>
<<<<<<< HEAD
	<node lat="67.52612222176678" lon="12.126927781128973" id="-8870">
=======
	<node id="-186655" lat="67.5261222218" lon="12.1269277811">
>>>>>>> e1d4bc35ff8a6074a6f2e91616a996b547c36f15
		<tag k="man_made" v="tower" />
		<tag k="name" v="Røsttårnet" />
		<tag k="ssr:stedsnr" v="108348" />
		<tag k="tower:type" v="communications" />
	</node>
<<<<<<< HEAD
	<node lat="67.52150833412902" lon="12.126363883390537" id="-9007">
		<tag k="man_made" v="cairn" />
		<tag k="name" v="Middagsvarden" />
=======
	<node id="-186574" lat="67.5178194482" lon="12.1298388883">
		<tag k="man_made" v="quay" />
		<tag k="name" v="Brygga" />
>>>>>>> e1d4bc35ff8a6074a6f2e91616a996b547c36f15
		<tag k="place" v="locality" />
		<tag k="ssr:stedsnr" v="657550" />
	</node>
	<node id="-186613" lat="67.5245861105" lon="12.1359472239">
		<tag k="man_made" v="cairn" />
		<tag k="name" v="Skauvarden" />
		<tag k="place" v="locality" />
		<tag k="ssr:stedsnr" v="960705" />
	</node>
	<node id="-186439" lat="67.5265305556" lon="12.101927769">
		<tag k="aeroway" v="aerodrome" />
		<tag k="alt_name" v="Røst" />
		<tag k="name" v="Røst lufthavn" />
		<tag k="ssr:stedsnr" v="284080" />
	</node>
</osm>
