<?xml version="1.0" encoding="UTF-8"?>
<osm generator="osmapis" version="0.6">
	<node id="-319479" lat="61.2171305546" lon="12.627183325">
		<tag k="loc_name" v="Tannheimstjønna" />
		<tag k="name" v="Tannheimtjønna" />
		<tag k="natural" v="water" />
		<tag k="ssr:stedsnr" v="251644" />
	</node>
	<node id="-319477" lat="61.2211694438" lon="12.7465694434">
		<tag k="name" v="Dulpbekken" />
		<tag k="ssr:stedsnr" v="251641" />
		<tag k="waterway" v="stream" />
	</node>
	<node id="-319476" lat="61.3286138896" lon="11.9451638942">
		<tag k="name" v="Østre Tenåstjønna" />
		<tag k="natural" v="water" />
		<tag k="ssr:stedsnr" v="251614" />
	</node>
	<node id="-319473" lat="61.352155553" lon="12.0034277735">
		<tag k="name" v="Muruåsbekken" />
		<tag k="ssr:stedsnr" v="251584" />
		<tag k="waterway" v="stream" />
	</node>
	<node id="-319470" lat="61.4858638867" lon="12.3860805575">
		<tag k="name" v="Drevja" />
		<tag k="ssr:stedsnr" v="251574" />
		<tag k="waterway" v="river" />
	</node>
	<node id="-319462" lat="61.3499927979" lon="12.6647242454">
		<tag k="name" v="Sætertjønna" />
		<tag k="natural" v="water" />
		<tag k="ssr:stedsnr" v="251451" />
	</node>
	<node id="-319459" lat="61.2870805548" lon="12.6616888813">
		<tag k="name" v="Gjervollbekken" />
		<tag k="ssr:stedsnr" v="251415" />
		<tag k="waterway" v="stream" />
	</node>
	<node id="-319453" lat="61.4520805594" lon="12.7294083262">
		<tag k="name" v="Gira" />
		<tag k="ssr:stedsnr" v="251375" />
		<tag k="waterway" v="river" />
	</node>
	<node id="-319448" lat="61.300730552" lon="12.442591669">
		<tag k="name" v="Kjeldbekken" />
		<tag k="ssr:stedsnr" v="251330" />
		<tag k="waterway" v="stream" />
	</node>
	<node id="-319446" lat="61.4378944412" lon="11.7367444535">
		<tag k="alt_name" v="Blekua" />
		<tag k="name" v="Blikua" />
		<tag k="ssr:stedsnr" v="251186" />
		<tag k="waterway" v="river" />
	</node>
	<node id="-319442" lat="61.4083027734" lon="11.9908138907">
		<tag k="name" v="Eltbogen" />
		<tag k="place" v="locality" />
		<tag k="ssr:stedsnr" v="87711" />
	</node>
	<node id="-319434" lat="61.0709944474" lon="12.160636119">
		<tag k="name" v="Bommersotjønna" />
		<tag k="natural" v="water" />
		<tag k="ssr:stedsnr" v="250917" />
	</node>
	<node id="-319430" lat="61.2385083313" lon="12.5445833411">
		<tag k="name" v="Abbortjønna" />
		<tag k="natural" v="water" />
		<tag k="ssr:stedsnr" v="250851" />
	</node>
	<node id="-319422" lat="61.2220444402" lon="12.4606555528">
		<tag k="name" v="Myrsjøen" />
		<tag k="natural" v="water" />
		<tag k="ssr:stedsnr" v="250811" />
	</node>
	<node id="-319421" lat="61.2352277817" lon="12.5742833427">
		<tag k="name" v="Storfloen" />
		<tag k="place" v="locality" />
		<tag k="ssr:stedsnr" v="250802" />
	</node>
	<node id="-319410" lat="61.1760333368" lon="12.4196500051">
		<tag k="name" v="Sagbekken" />
		<tag k="ssr:stedsnr" v="250748" />
		<tag k="waterway" v="stream" />
	</node>
	<node id="-319407" lat="61.288513889" lon="12.208975001">
		<tag k="name" v="Håvibekken" />
		<tag k="ssr:stedsnr" v="87012" />
		<tag k="waterway" v="stream" />
	</node>
	<node id="-319399" lat="61.1815722253" lon="12.6939083259">
		<tag k="name" v="Røtoset" />
		<tag k="place" v="locality" />
		<tag k="ssr:stedsnr" v="250598" />
	</node>
	<node id="-319398" lat="61.1889888917" lon="12.6363638952">
		<tag k="name" v="Båthustjønna" />
		<tag k="natural" v="water" />
		<tag k="ssr:stedsnr" v="250594" />
	</node>
	<node id="-319397" lat="61.1375722195" lon="12.5994027686">
		<tag k="name" v="Fiskløstjønna" />
		<tag k="natural" v="water" />
		<tag k="ssr:stedsnr" v="250582" />
	</node>
	<node id="-319393" lat="61.0902444451" lon="12.6910944435">
		<tag k="name" v="Nevertjønna" />
		<tag k="natural" v="water" />
		<tag k="ssr:stedsnr" v="250544" />
	</node>
	<node id="-319392" lat="61.0870444469" lon="12.6635861204">
		<tag k="name" v="Rundsjøen" />
		<tag k="natural" v="water" />
		<tag k="ssr:stedsnr" v="250541" />
	</node>
	<node id="-319130" lat="61.4477166678" lon="11.9658666619">
		<tag k="name" v="Bjørholmen" />
		<tag k="place" v="islet" />
		<tag k="ssr:stedsnr" v="235527" />
	</node>
	<node id="-319379" lat="61.1910361119" lon="11.9435416669">
		<tag k="name" v="Bjørnbekken" />
		<tag k="ssr:stedsnr" v="250084" />
		<tag k="waterway" v="stream" />
	</node>
	<node id="-319375" lat="61.2294999974" lon="12.187122221">
		<tag k="name" v="Storbekken" />
		<tag k="ssr:stedsnr" v="250045" />
		<tag k="waterway" v="stream" />
	</node>
	<node id="-319374" lat="61.2281666674" lon="12.1502750068">
		<tag k="name" v="Fisketjønna" />
		<tag k="natural" v="water" />
		<tag k="ssr:stedsnr" v="250044" />
	</node>
	<node id="-319372" lat="61.5769416694" lon="12.0851555467">
		<tag k="name" v="Trefjerdungstjønna" />
		<tag k="natural" v="water" />
		<tag k="ssr:stedsnr" v="71614" />
	</node>
	<node id="-319371" lat="61.6580972223" lon="11.9055000064">
		<tag k="alt_name" v="Lekjenna, østre" />
		<tag k="name" v="Østre Lekjenna" />
		<tag k="ssr:stedsnr" v="70628" />
		<tag k="waterway" v="stream" />
	</node>
	<node id="-319366" lat="61.0563111106" lon="12.2592000004">
		<tag k="name" v="Ørtjønn" />
		<tag k="natural" v="water" />
		<tag k="ssr:stedsnr" v="69700" />
	</node>
	<node id="-319365" lat="61.3670027813" lon="12.5049694409">
		<tag k="alt_name" v="Vordkjelda" />
		<tag k="name" v="Volkjelda" />
		<tag k="ssr:stedsnr" v="69698" />
		<tag k="waterway" v="stream" />
	</node>
	<node id="-319364" lat="61.376594442" lon="12.2243500032">
		<tag k="name" v="Flenøyene" />
		<tag k="old_name" v="Flenøya" />
		<tag k="place" v="islet" />
		<tag k="ssr:stedsnr" v="69675" />
	</node>
	<node id="-319352" lat="61.3409833316" lon="12.5711666727">
		<tag k="name" v="Kvannbekken" />
		<tag k="ssr:stedsnr" v="69716" />
		<tag k="waterway" v="stream" />
	</node>
	<node id="-319349" lat="61.3021277775" lon="12.0350111058">
		<tag k="alt_name" v="Fjellbekken" />
		<tag k="name" v="Fjellsbekken" />
		<tag k="ssr:stedsnr" v="69652" />
		<tag k="waterway" v="stream" />
	</node>
	<node id="-319338" lat="61.224230556" lon="11.7949277842">
		<tag k="name" v="Skinnaråa" />
		<tag k="ssr:stedsnr" v="69334" />
		<tag k="waterway" v="stream" />
	</node>
	<node id="-319336" lat="61.3153861134" lon="12.5128833317">
		<tag k="alt_name" v="Turtbekken" />
		<tag k="name" v="Tortbekken" />
		<tag k="old_name" v="Totbekken" />
		<tag k="ssr:stedsnr" v="69328" />
		<tag k="waterway" v="stream" />
	</node>
	<node id="-319328" lat="61.185800002" lon="12.6768250075">
		<tag k="name" v="Røtostjønna" />
		<tag k="natural" v="water" />
		<tag k="ssr:stedsnr" v="68613" />
	</node>
	<node id="-319327" lat="61.1939361096" lon="12.5995611151">
		<tag k="name" v="Folkestrandtjønnen" />
		<tag k="natural" v="water" />
		<tag k="ssr:stedsnr" v="68610" />
	</node>
	<node id="-319322" lat="61.3168055538" lon="12.6340916612">
		<tag k="name" v="Snurugrovkjelda" />
		<tag k="ssr:stedsnr" v="241925" />
		<tag k="waterway" v="stream" />
	</node>
	<node id="-319316" lat="61.0976611098" lon="12.4202972224">
		<tag k="name" v="Gammelsagfloen" />
		<tag k="natural" v="water" />
		<tag k="ssr:stedsnr" v="241470" />
		<tag k="water" v="lake" />
	</node>
	<node id="-319312" lat="61.1709049792" lon="12.6202716131">
		<tag k="name" v="Nygardstjønna" />
		<tag k="natural" v="water" />
		<tag k="ssr:stedsnr" v="241394" />
	</node>
	<node id="-319307" lat="61.2541750039" lon="11.9513361056">
		<tag k="name" v="Granåskulpen" />
		<tag k="natural" v="water" />
		<tag k="ssr:stedsnr" v="241190" />
	</node>
	<node id="-319305" lat="61.0713333313" lon="12.3103583335">
		<tag k="name" v="Smedåsbekken" />
		<tag k="ssr:stedsnr" v="241040" />
		<tag k="waterway" v="stream" />
	</node>
	<node id="-319304" lat="61.2178777805" lon="12.5905194482">
		<tag k="name" v="Skjærfallet" />
		<tag k="ssr:stedsnr" v="240844" />
		<tag k="waterway" v="rapids" />
	</node>
	<node id="-319301" lat="61.0611972183" lon="12.5883499967">
		<tag k="name" v="Kanalen" />
		<tag k="ssr:stedsnr" v="240237" />
		<tag k="waterway" v="drain" />
	</node>
	<node id="-319300" lat="61.0680194483" lon="12.6153111058">
		<tag k="name" v="Lutukroken" />
		<tag k="natural" v="bay" />
		<tag k="ssr:stedsnr" v="240188" />
	</node>
	<node id="-319299" lat="61.0648388933" lon="12.6068250001">
		<tag k="name" v="Kverndammen" />
		<tag k="natural" v="water" />
		<tag k="ssr:stedsnr" v="240175" />
		<tag k="water" v="pond" />
	</node>
	<node id="-319293" lat="61.1784365305" lon="12.3241316774">
		<tag k="name" v="Spørropervika" />
		<tag k="natural" v="bay" />
		<tag k="ssr:stedsnr" v="239896" />
	</node>
	<node id="-319287" lat="61.1529888925" lon="12.0485527849">
		<tag k="name" v="Flobekken" />
		<tag k="ssr:stedsnr" v="239477" />
		<tag k="waterway" v="stream" />
	</node>
	<node id="-319271" lat="61.2519888897" lon="12.8218555502">
		<tag k="name" v="Styggbekken" />
		<tag k="ssr:stedsnr" v="238582" />
		<tag k="waterway" v="stream" />
	</node>
	<node id="-319263" lat="61.0681583368" lon="12.1524611177">
		<tag k="name" v="Bommersodden" />
		<tag k="natural" v="cape" />
		<tag k="ssr:stedsnr" v="237748" />
	</node>
	<node id="-319259" lat="61.3413555581" lon="12.6632666609">
		<tag k="name" v="Storkjølkjelda" />
		<tag k="ssr:stedsnr" v="237648" />
		<tag k="waterway" v="stream" />
	</node>
	<node id="-319258" lat="61.1660055548" lon="12.1944472139">
		<tag k="name" v="Rutkjeldfloen" />
		<tag k="natural" v="water" />
		<tag k="ssr:stedsnr" v="237567" />
		<tag k="water" v="lake" />
	</node>
	<node id="-319255" lat="61.1412000031" lon="12.1383500095">
		<tag k="name" v="Sjødammen" />
		<tag k="ssr:stedsnr" v="55405" />
		<tag k="waterway" v="dam" />
	</node>
	<node id="-319247" lat="61.4838527794" lon="12.2831638831">
		<tag k="name" v="Sæterbekken" />
		<tag k="ssr:stedsnr" v="54962" />
		<tag k="waterway" v="stream" />
	</node>
	<node id="-319246" lat="61.5285583328" lon="12.3543861168">
		<tag k="name" v="Vesterbekken" />
		<tag k="ssr:stedsnr" v="54954" />
		<tag k="waterway" v="stream" />
	</node>
	<node id="-319239" lat="61.513200004" lon="12.1504861192">
		<tag k="name" v="Tjønnbekken" />
		<tag k="ssr:stedsnr" v="54875" />
		<tag k="waterway" v="stream" />
	</node>
	<node id="-319238" lat="61.4894166709" lon="12.1109972274">
		<tag k="name" v="Storøya" />
		<tag k="place" v="island" />
		<tag k="ssr:stedsnr" v="54852" />
	</node>
	<node id="-321193" lat="61.3685194454" lon="12.7463500069">
		<tag k="name" v="Sloen" />
		<tag k="natural" v="beach" />
		<tag k="ssr:stedsnr" v="675448" />
	</node>
	<node id="-319229" lat="61.5442611132" lon="12.505577775">
		<tag k="name" v="Elgstøkkbekken" />
		<tag k="ssr:stedsnr" v="54305" />
		<tag k="waterway" v="stream" />
	</node>
	<node id="-319228" lat="61.114972222" lon="12.6091444487">
		<tag k="name" v="Storstenstranda" />
		<tag k="place" v="locality" />
		<tag k="ssr:stedsnr" v="237356" />
	</node>
	<node id="-319226" lat="61.4452194475" lon="12.2010361126">
		<tag k="name" v="Bjønnåstjønna" />
		<tag k="natural" v="water" />
		<tag k="ssr:stedsnr" v="54051" />
	</node>
	<node id="-319224" lat="61.4307833354" lon="12.3610388867">
		<tag k="name" v="Bråtåkjelda" />
		<tag k="ssr:stedsnr" v="53922" />
		<tag k="waterway" v="stream" />
	</node>
	<node id="-319215" lat="61.5559416705" lon="12.0694500042">
		<tag k="name" v="Harrbekkneset" />
		<tag k="natural" v="cape" />
		<tag k="ssr:stedsnr" v="53262" />
	</node>
	<node id="-319214" lat="61.5644694419" lon="12.0631500053">
		<tag k="name" v="Rådelsneset" />
		<tag k="natural" v="cape" />
		<tag k="ssr:stedsnr" v="53261" />
	</node>
	<node id="-319212" lat="61.5663416641" lon="12.04294166">
		<tag k="name" v="Skagsvolvika" />
		<tag k="natural" v="bay" />
		<tag k="ssr:stedsnr" v="53256" />
	</node>
	<node id="-319211" lat="61.4950972208" lon="12.5881361201">
		<tag k="name" v="Holmen" />
		<tag k="place" v="islet" />
		<tag k="ssr:stedsnr" v="53251" />
	</node>
	<node id="-319206" lat="61.3306444489" lon="12.4346972218">
		<tag k="name" v="Vassbekken" />
		<tag k="ssr:stedsnr" v="237262" />
		<tag k="waterway" v="stream" />
	</node>
	<node id="-319197" lat="61.2609249957" lon="11.9919916607">
		<tag k="name" v="Buholmen" />
		<tag k="natural" v="cape" />
		<tag k="ssr:stedsnr" v="237074" />
	</node>
	<node id="-319194" lat="61.4244722244" lon="11.982711119">
		<tag k="name" v="Styggbekken" />
		<tag k="ssr:stedsnr" v="236971" />
		<tag k="waterway" v="stream" />
	</node>
	<node id="-319187" lat="61.412011114" lon="12.2594777857">
		<tag k="name" v="Ormåshølen" />
		<tag k="place" v="locality" />
		<tag k="ssr:stedsnr" v="236815" />
	</node>
	<node id="-319186" lat="61.4285722265" lon="12.3229888806">
		<tag k="name" v="Kroken" />
		<tag k="natural" v="cape" />
		<tag k="ssr:stedsnr" v="236806" />
	</node>
	<node id="-319185" lat="61.4266361081" lon="12.2953000028">
		<tag k="name" v="Lykkjeholmen" />
		<tag k="place" v="islet" />
		<tag k="ssr:stedsnr" v="236797" />
	</node>
	<node id="-319180" lat="61.3769527753" lon="12.3273888838">
		<tag k="name" v="Grønsjøbekken" />
		<tag k="ssr:stedsnr" v="236690" />
		<tag k="waterway" v="stream" />
	</node>
	<node id="-319175" lat="61.3640138912" lon="12.340286119">
		<tag k="name" v="Dødvatnet" />
		<tag k="natural" v="water" />
		<tag k="ssr:stedsnr" v="236666" />
		<tag k="water" v="pond" />
	</node>
	<node id="-319171" lat="61.5292333351" lon="12.1487305472">
		<tag k="name" v="Brennåsbekken" />
		<tag k="ssr:stedsnr" v="236627" />
		<tag k="waterway" v="stream" />
	</node>
	<node id="-319164" lat="61.4053916704" lon="12.172530548">
		<tag k="alt_name" v="Voldholmen" />
		<tag k="name" v="Vollholmen" />
		<tag k="place" v="islet" />
		<tag k="ssr:stedsnr" v="236460" />
	</node>
	<node id="-319162" lat="61.5805638874" lon="12.3529527768">
		<tag k="name" v="Badervika" />
		<tag k="natural" v="bay" />
		<tag k="ssr:stedsnr" v="236444" />
	</node>
	<node id="-321208" lat="61.2229777799" lon="12.6720361195">
		<tag k="name" v="Røtosbekken" />
		<tag k="ssr:stedsnr" v="675614" />
		<tag k="waterway" v="stream" />
	</node>
	<node id="-319159" lat="61.5661194447" lon="12.4933861147">
		<tag k="name" v="Linbekken" />
		<tag k="ssr:stedsnr" v="236370" />
		<tag k="waterway" v="stream" />
	</node>
	<node id="-319157" lat="61.3715611076" lon="12.8338222153">
		<tag k="name" v="Oksbekken" />
		<tag k="ssr:stedsnr" v="236354" />
		<tag k="waterway" v="stream" />
	</node>
	<node id="-321201" lat="61.0886805523" lon="12.5089861124">
		<tag k="name" v="Kalvtjønna" />
		<tag k="natural" v="water" />
		<tag k="ssr:stedsnr" v="675700" />
	</node>
	<node id="-321199" lat="61.068783335" lon="12.2628166709">
		<tag k="name" v="Rysjøen" />
		<tag k="natural" v="water" />
		<tag k="ssr:stedsnr" v="675682" />
		<tag k="water" v="lake" />
	</node>
	<node id="-319146" lat="61.4797472261" lon="11.9814138825">
		<tag k="name" v="Gammel-Andersvika" />
		<tag k="natural" v="bay" />
		<tag k="ssr:stedsnr" v="235948" />
	</node>
	<node id="-319145" lat="61.4622805575" lon="12.3219805586">
		<tag k="name" v="Skjeftloka" />
		<tag k="natural" v="water" />
		<tag k="ssr:stedsnr" v="235897" />
	</node>
	<node id="-321192" lat="61.1849861134" lon="11.843702775">
		<tag k="name" v="Sautjønna" />
		<tag k="natural" v="water" />
		<tag k="ssr:stedsnr" v="675390" />
	</node>
	<node id="-321180" lat="61.1804000017" lon="12.341808332">
		<tag k="name" v="Kolbubekken" />
		<tag k="ssr:stedsnr" v="484624" />
		<tag k="waterway" v="stream" />
	</node>
	<node id="-321179" lat="61.0892666705" lon="12.4895972169">
		<tag k="name" v="Tjærebutten" />
		<tag k="natural" v="water" />
		<tag k="ssr:stedsnr" v="484470" />
	</node>
	<node id="-321178" lat="61.0958027747" lon="12.4880166701">
		<tag k="name" v="Romptjønnbekken" />
		<tag k="ssr:stedsnr" v="484469" />
		<tag k="waterway" v="stream" />
	</node>
	<node id="-321177" lat="61.0724777807" lon="12.4080416754">
		<tag k="name" v="Flåtåmyrtjønna" />
		<tag k="natural" v="water" />
		<tag k="ssr:stedsnr" v="484465" />
	</node>
	<node id="-321171" lat="61.3050138895" lon="11.9399055645">
		<tag k="alt_name" v="Skoganderskroken" />
		<tag k="name" v="Skog-Anders-kroken" />
		<tag k="natural" v="water" />
		<tag k="ssr:stedsnr" v="483253" />
		<tag k="water" v="lake" />
	</node>
	<node id="-319122" lat="61.4193888873" lon="12.4581305523">
		<tag k="name" v="Langholmen" />
		<tag k="place" v="islet" />
		<tag k="ssr:stedsnr" v="235389" />
	</node>
	<node id="-319121" lat="61.4435194422" lon="12.3844361086">
		<tag k="name" v="Vestre Fisktjønna" />
		<tag k="natural" v="water" />
		<tag k="ssr:stedsnr" v="235385" />
	</node>
	<node id="-319118" lat="61.4895277757" lon="12.4919472256">
		<tag k="name" v="Mælbekken" />
		<tag k="ssr:stedsnr" v="235334" />
		<tag k="waterway" v="stream" />
	</node>
	<node id="-321165" lat="61.1975916703" lon="12.7564694447">
		<tag k="name" v="Kjelda under åsen" />
		<tag k="natural" v="spring" />
		<tag k="ssr:stedsnr" v="482706" />
	</node>
	<node id="-319115" lat="61.5635083291" lon="12.0643333275">
		<tag k="name" v="Småneset" />
		<tag k="natural" v="cape" />
		<tag k="ssr:stedsnr" v="235276" />
	</node>
	<node id="-319111" lat="61.536819444" lon="11.8301805533">
		<tag k="name" v="Jyssebekken" />
		<tag k="ssr:stedsnr" v="235154" />
		<tag k="waterway" v="stream" />
	</node>
	<node id="-319109" lat="61.4698722185" lon="12.5242444363">
		<tag k="name" v="Floloken" />
		<tag k="natural" v="water" />
		<tag k="ssr:stedsnr" v="235105" />
		<tag k="water" v="pond" />
	</node>
	<node id="-321156" lat="61.2679027756" lon="12.464699994">
		<tag k="name" v="Storholmen" />
		<tag k="place" v="islet" />
		<tag k="ssr:stedsnr" v="481171" />
	</node>
	<node id="-321154" lat="61.2097055547" lon="12.5486916684">
		<tag k="name" v="Stornesdammen" />
		<tag k="natural" v="water" />
		<tag k="ssr:stedsnr" v="480856" />
		<tag k="water" v="lake" />
	</node>
	<node id="-321153" lat="61.347886109" lon="12.6590722139">
		<tag k="name" v="Fengtjønna" />
		<tag k="natural" v="water" />
		<tag k="ssr:stedsnr" v="480659" />
	</node>
	<node id="-321152" lat="61.1212249992" lon="12.3978777836">
		<tag k="name" v="Finnhåen" />
		<tag k="place" v="locality" />
		<tag k="ssr:stedsnr" v="480657" />
	</node>
	<node id="-321151" lat="61.1981361117" lon="12.2638749913">
		<tag k="name" v="Stranda" />
		<tag k="natural" v="beach" />
		<tag k="ssr:stedsnr" v="480653" />
	</node>
	<node id="-319101" lat="61.6230972247" lon="11.8664833251">
		<tag k="name" v="Storholmen" />
		<tag k="place" v="islet" />
		<tag k="ssr:stedsnr" v="235030" />
	</node>
	<node id="-319097" lat="61.2983333296" lon="11.9921138939">
		<tag k="name" v="Blankkjeldkroken" />
		<tag k="natural" v="water" />
		<tag k="ssr:stedsnr" v="42127" />
		<tag k="water" v="lake" />
	</node>
	<node id="-319096" lat="61.2958694402" lon="12.0023027729">
		<tag k="name" v="Kvennfalla" />
		<tag k="natural" v="waterfall" />
		<tag k="ssr:stedsnr" v="42124" />
	</node>
	<node id="-319093" lat="61.2446750038" lon="12.0627388841">
		<tag k="name" v="Kroken" />
		<tag k="natural" v="water" />
		<tag k="ssr:stedsnr" v="42316" />
		<tag k="water" v="lake" />
	</node>
	<node id="-319092" lat="61.0727138897" lon="12.2375194487">
		<tag k="name" v="Vaisisbekken" />
		<tag k="ssr:stedsnr" v="42303" />
		<tag k="waterway" v="stream" />
	</node>
	<node id="-319087" lat="61.292325004" lon="12.5902333315">
		<tag k="name" v="Storstenkroken" />
		<tag k="place" v="locality" />
		<tag k="ssr:stedsnr" v="41675" />
	</node>
	<node id="-319083" lat="61.2836249994" lon="12.7951499931">
		<tag k="name" v="Kvenndammen" />
		<tag k="natural" v="water" />
		<tag k="ssr:stedsnr" v="41651" />
		<tag k="water" v="pond" />
	</node>
	<node id="-319081" lat="61.135158333" lon="12.0141694378">
		<tag k="alt_name" v="Mellemgårdbekken" />
		<tag k="name" v="Mellomgardbekken" />
		<tag k="ssr:stedsnr" v="41055" />
		<tag k="waterway" v="stream" />
	</node>
	<node id="-321128" lat="61.3686222235" lon="12.3675888936">
		<tag k="name" v="Vintervegfloen" />
		<tag k="natural" v="water" />
		<tag k="ssr:stedsnr" v="478711" />
		<tag k="water" v="lake" />
	</node>
	<node id="-319077" lat="61.10361389" lon="11.9926194472">
		<tag k="name" v="Lomvika" />
		<tag k="natural" v="bay" />
		<tag k="ssr:stedsnr" v="41004" />
	</node>
	<node id="-321124" lat="61.6095722223" lon="12.1271805464">
		<tag k="name" v="Storstenbekken" />
		<tag k="ssr:stedsnr" v="478554" />
		<tag k="waterway" v="stream" />
	</node>
	<node id="-319074" lat="61.1405138872" lon="12.3894305641">
		<tag k="name" v="Ryskåstjønnbekken" />
		<tag k="ssr:stedsnr" v="40911" />
		<tag k="waterway" v="stream" />
	</node>
	<node id="-319073" lat="61.1265249986" lon="12.3896388819">
		<tag k="name" v="Storhådammen" />
		<tag k="natural" v="water" />
		<tag k="ssr:stedsnr" v="40910" />
		<tag k="water" v="pond" />
	</node>
	<node id="-321120" lat="61.5182250007" lon="12.5102722168">
		<tag k="name" v="Bjørneset" />
		<tag k="natural" v="cape" />
		<tag k="ssr:stedsnr" v="478270" />
	</node>
	<node id="-321119" lat="61.5720916633" lon="12.1190138952">
		<tag k="name" v="Avundskjelda" />
		<tag k="ssr:stedsnr" v="478268" />
		<tag k="waterway" v="stream" />
	</node>
	<node id="-321117" lat="61.5693083341" lon="12.055891662">
		<tag k="name" v="Fløtningen" />
		<tag k="natural" v="beach" />
		<tag k="ssr:stedsnr" v="478264" />
	</node>
	<node id="-319068" lat="61.1733472245" lon="12.7103277848">
		<tag k="name" v="Langneset" />
		<tag k="natural" v="cape" />
		<tag k="ssr:stedsnr" v="40151" />
	</node>
	<node id="-321115" lat="61.5174972251" lon="12.0309277849">
		<tag k="name" v="Litlholmen" />
		<tag k="place" v="islet" />
		<tag k="ssr:stedsnr" v="478013" />
	</node>
	<node id="-321113" lat="61.3943250029" lon="11.8427416581">
		<tag k="name" v="Laktjønna" />
		<tag k="natural" v="water" />
		<tag k="ssr:stedsnr" v="477915" />
	</node>
	<node id="-321112" lat="61.4135694418" lon="11.8800083327">
		<tag k="name" v="Jotbekken" />
		<tag k="ssr:stedsnr" v="477913" />
		<tag k="waterway" v="stream" />
	</node>
	<node id="-319062" lat="61.1465305573" lon="11.9228027823">
		<tag k="name" v="Vestnesbekken" />
		<tag k="ssr:stedsnr" v="26906" />
		<tag k="waterway" v="stream" />
	</node>
	<node id="-319059" lat="61.1163305527" lon="11.8691750048">
		<tag k="name" v="Østlibekken" />
		<tag k="ssr:stedsnr" v="26534" />
		<tag k="waterway" v="stream" />
	</node>
	<node id="-321106" lat="61.5731805588" lon="11.9493138902">
		<tag k="name" v="Holmen" />
		<tag k="place" v="islet" />
		<tag k="ssr:stedsnr" v="477121" />
	</node>
	<node id="-319056" lat="61.3386916704" lon="12.0477444394">
		<tag k="name" v="Midtvollbekken" />
		<tag k="ssr:stedsnr" v="26410" />
		<tag k="waterway" v="stream" />
	</node>
	<node id="-319052" lat="61.6035805573" lon="12.038041671">
		<tag k="name" v="Elghuegrunnet" />
		<tag k="natural" v="shoal" />
		<tag k="place" v="locality" />
		<tag k="ssr:stedsnr" v="26608" />
	</node>
	<node id="-319050" lat="61.1728611076" lon="11.885961113">
		<tag k="name" v="Villbekkodden" />
		<tag k="natural" v="cape" />
		<tag k="ssr:stedsnr" v="26604" />
	</node>
	<node id="-319049" lat="61.297155553" lon="12.2548388836">
		<tag k="name" v="Tysbastloka" />
		<tag k="natural" v="water" />
		<tag k="ssr:stedsnr" v="26101" />
		<tag k="water" v="pond" />
	</node>
	<node id="-321096" lat="61.2895416681" lon="12.7809194484">
		<tag k="name" v="Brennegget" />
		<tag k="place" v="locality" />
		<tag k="ssr:stedsnr" v="466665" />
	</node>
	<node id="-321095" lat="61.2932333306" lon="12.6581333415">
		<tag k="name" v="Gjervolla" />
		<tag k="ssr:stedsnr" v="466625" />
		<tag k="waterway" v="stream" />
	</node>
	<node id="-319046" lat="61.2254694399" lon="12.1299555593">
		<tag k="name" v="Søndre Svarttjønna" />
		<tag k="natural" v="water" />
		<tag k="ssr:stedsnr" v="24129" />
	</node>
	<node id="-321092" lat="61.1279944484" lon="11.9979444485">
		<tag k="name" v="Brennbekken" />
		<tag k="ssr:stedsnr" v="466018" />
		<tag k="waterway" v="stream" />
	</node>
	<node id="-321091" lat="61.1667833341" lon="12.7352527723">
		<tag k="name" v="Skredderhanstjønna" />
		<tag k="natural" v="water" />
		<tag k="ssr:stedsnr" v="465811" />
	</node>
	<node id="-319042" lat="61.0680055525" lon="12.6833083265">
		<tag k="name" v="Rundsjøbekkgrunnet" />
		<tag k="ssr:stedsnr" v="224963" />
		<tag k="waterway" v="rapids" />
	</node>
	<node id="-319040" lat="61.0798611096" lon="12.6759666751">
		<tag k="name" v="Tatertjønna" />
		<tag k="natural" v="water" />
		<tag k="ssr:stedsnr" v="224949" />
	</node>
	<node id="-321087" lat="61.0842694439" lon="12.5825750033">
		<tag k="name" v="Poilandsholmen" />
		<tag k="place" v="islet" />
		<tag k="ssr:stedsnr" v="465156" />
	</node>
	<node id="-319037" lat="61.3077694472" lon="12.7497722284">
		<tag k="name" v="Skaftbekken" />
		<tag k="ssr:stedsnr" v="224665" />
		<tag k="waterway" v="stream" />
	</node>
	<node id="-319035" lat="61.2982267697" lon="12.7708840644">
		<tag k="name" v="Bjørdjupet" />
		<tag k="place" v="locality" />
		<tag k="ssr:stedsnr" v="224529" />
	</node>
	<node id="-319034" lat="61.1508111091" lon="12.2782638973">
		<tag k="name" v="Skjærholmen" />
		<tag k="place" v="islet" />
		<tag k="ssr:stedsnr" v="224528" />
	</node>
	<node id="-319030" lat="61.2253111081" lon="12.7577277789">
		<tag k="name" v="Lomtjønna" />
		<tag k="natural" v="water" />
		<tag k="ssr:stedsnr" v="224480" />
	</node>
	<node id="-321077" lat="61.2560499981" lon="12.6401277699">
		<tag k="name" v="Styrten" />
		<tag k="ssr:stedsnr" v="666918" />
		<tag k="waterway" v="stream" />
	</node>
	<node id="-319025" lat="61.297666663" lon="11.9936888946">
		<tag k="name" v="Blankkjelda" />
		<tag k="natural" v="spring" />
		<tag k="ssr:stedsnr" v="224132" />
	</node>
	<node id="-321070" lat="61.1971694405" lon="12.2722861145">
		<tag k="name" v="Merrakjelda" />
		<tag k="natural" v="spring" />
		<tag k="ssr:stedsnr" v="666764" />
	</node>
	<node id="-319072" lat="61.1634138851" lon="12.7361944515">
		<tag k="name" v="Tjønna i Linna" />
		<tag k="natural" v="water" />
		<tag k="ssr:stedsnr" v="40818" />
	</node>
	<node id="-319020" lat="61.335480558" lon="12.7285805519">
		<tag k="name" v="Grønloken" />
		<tag k="natural" v="water" />
		<tag k="ssr:stedsnr" v="223894" />
		<tag k="water" v="pond" />
	</node>
	<node id="-321066" lat="61.0949333342" lon="12.4841916638">
		<tag k="name" v="Romptjønna" />
		<tag k="natural" v="water" />
		<tag k="ssr:stedsnr" v="666493" />
	</node>
	<node id="-321062" lat="61.0764416658" lon="12.5512444424">
		<tag k="name" v="Tørkjamaktjønna" />
		<tag k="natural" v="water" />
		<tag k="ssr:stedsnr" v="666204" />
	</node>
	<node id="-321060" lat="61.0591833298" lon="12.3793027749">
		<tag k="name" v="Såmyrbekken" />
		<tag k="ssr:stedsnr" v="666158" />
		<tag k="waterway" v="stream" />
	</node>
	<node id="-319011" lat="61.2060333292" lon="12.6698749955">
		<tag k="name" v="Blankkjelda" />
		<tag k="ssr:stedsnr" v="222952" />
		<tag k="waterway" v="stream" />
	</node>
	<node id="-319009" lat="61.1250555596" lon="12.3902638907">
		<tag k="name" v="Tolvskillingsholma" />
		<tag k="place" v="islet" />
		<tag k="ssr:stedsnr" v="222889" />
	</node>
	<node id="-321054" lat="61.0590916675" lon="12.2832722136">
		<tag k="name" v="Skjeftholmen" />
		<tag k="place" v="islet" />
		<tag k="ssr:stedsnr" v="666049" />
	</node>
	<node id="-319004" lat="61.2180333298" lon="12.7403805582">
		<tag k="name" v="Laugarloken" />
		<tag k="natural" v="water" />
		<tag k="ssr:stedsnr" v="222762" />
	</node>
	<node id="-319002" lat="61.1309638911" lon="12.4871777871">
		<tag k="name" v="Søndre Trolltjønnsbekken" />
		<tag k="ssr:stedsnr" v="222681" />
		<tag k="waterway" v="stream" />
	</node>
	<node id="-319001" lat="61.3064055543" lon="12.3953388814">
		<tag k="name" v="Svartbekken" />
		<tag k="ssr:stedsnr" v="10810" />
		<tag k="waterway" v="stream" />
	</node>
	<node id="-319000" lat="61.4221916666" lon="12.0803333272">
		<tag k="name" v="Storbekken" />
		<tag k="ssr:stedsnr" v="10806" />
		<tag k="waterway" v="stream" />
	</node>
	<node id="-318999" lat="61.5266055543" lon="11.8327638955">
		<tag k="alt_name" v="Fiskbekken" />
		<tag k="name" v="Fiskebekken" />
		<tag k="ssr:stedsnr" v="10804" />
		<tag k="waterway" v="stream" />
	</node>
	<node id="-321043" lat="61.281923228" lon="12.3294921991">
		<tag k="name" v="Treklossloken" />
		<tag k="natural" v="water" />
		<tag k="ssr:stedsnr" v="665163" />
		<tag k="water" v="pond" />
	</node>
	<node id="-321042" lat="61.1809138873" lon="12.2357416757">
		<tag k="name" v="Vinterneset" />
		<tag k="natural" v="cape" />
		<tag k="ssr:stedsnr" v="665032" />
	</node>
	<node id="-318993" lat="61.5035277795" lon="12.0853305604">
		<tag k="name" v="Risebekken" />
		<tag k="ssr:stedsnr" v="10511" />
		<tag k="waterway" v="stream" />
	</node>
	<node id="-318992" lat="61.5038453285" lon="11.9928818028">
		<tag k="name" v="Røsjøen" />
		<tag k="natural" v="water" />
		<tag k="ssr:stedsnr" v="10510" />
		<tag k="water" v="lake" />
	</node>
	<node id="-318991" lat="61.509975003" lon="12.1087472184">
		<tag k="name" v="Grøtbekken" />
		<tag k="ssr:stedsnr" v="10504" />
		<tag k="waterway" v="stream" />
	</node>
	<node id="-318984" lat="61.4066861076" lon="12.6587750009">
		<tag k="name" v="Bærrustkjelda" />
		<tag k="ssr:stedsnr" v="9314" />
		<tag k="waterway" v="stream" />
	</node>
	<node id="-318983" lat="61.1669277761" lon="12.637674991">
		<tag k="name" v="Nygardsbekken" />
		<tag k="ssr:stedsnr" v="222141" />
		<tag k="waterway" v="stream" />
	</node>
	<node id="-321028" lat="61.2443361111" lon="12.5566833252">
		<tag k="name" v="Rønningsfloen" />
		<tag k="ssr:stedsnr" v="664415" />
		<tag k="waterway" v="rapids" />
	</node>
	<node id="-321025" lat="61.2418825584" lon="12.5679030425">
		<tag k="name" v="Høyfloen" />
		<tag k="place" v="locality" />
		<tag k="ssr:stedsnr" v="664494" />
	</node>
	<node id="-318974" lat="61.4823749964" lon="12.1431638897">
		<tag k="alt_name" v="Kittilbekken" />
		<tag k="name" v="Kittellibekken" />
		<tag k="ssr:stedsnr" v="8803" />
		<tag k="waterway" v="stream" />
	</node>
	<node id="-321020" lat="61.2404027749" lon="12.279502784">
		<tag k="name" v="Kvernbekken" />
		<tag k="ssr:stedsnr" v="664167" />
		<tag k="waterway" v="stream" />
	</node>
	<node id="-321018" lat="61.1878888872" lon="12.0233805591">
		<tag k="name" v="Kanalen" />
		<tag k="ssr:stedsnr" v="664046" />
		<tag k="waterway" v="drain" />
	</node>
	<node id="-318969" lat="61.3264666688" lon="12.3939250034">
		<tag k="alt_name" v="Grønsjøen, s" />
		<tag k="name" v="Søndre Grønsjøen" />
		<tag k="natural" v="water" />
		<tag k="ssr:stedsnr" v="8725" />
	</node>
	<node id="-321016" lat="61.203788891" lon="11.9294666686">
		<tag k="name" v="Lekninga" />
		<tag k="ssr:stedsnr" v="664129" />
		<tag k="waterway" v="stream" />
	</node>
	<node id="-321009" lat="61.1443027745" lon="11.9783916714">
		<tag k="name" v="Saubekken" />
		<tag k="ssr:stedsnr" v="663045" />
		<tag k="waterway" v="stream" />
	</node>
	<node id="-318959" lat="61.3705721755" lon="12.3359331239">
		<tag k="alt_name" v="Grønsjøen, nordre" />
		<tag k="name" v="Nordre Grønsjøen" />
		<tag k="natural" v="water" />
		<tag k="ssr:stedsnr" v="8646" />
		<tag k="water" v="lake" />
	</node>
	<node id="-318958" lat="61.2166944482" lon="12.7627166751">
		<tag k="name" v="Jenstjønn" />
		<tag k="natural" v="water" />
		<tag k="ssr:stedsnr" v="8639" />
	</node>
	<node id="-318956" lat="61.2225583326" lon="12.6080888854">
		<tag k="name" v="Finnmyrbekken" />
		<tag k="ssr:stedsnr" v="8632" />
		<tag k="waterway" v="stream" />
	</node>
	<node id="-318955" lat="61.229587864" lon="12.7840519854">
		<tag k="alt_name" v="Flersjoa, s;Søndre Flersjøen" />
		<tag k="name" v="Søndre Flersjoa" />
		<tag k="natural" v="water" />
		<tag k="ssr:stedsnr" v="8631" />
	</node>
	<node id="-318953" lat="61.2400361141" lon="12.7978138821">
		<tag k="name" v="Storsjøen" />
		<tag k="natural" v="water" />
		<tag k="ssr:stedsnr" v="8624" />
		<tag k="water" v="lake" />
	</node>
	<node id="-318950" lat="61.1959888929" lon="12.5957166727">
		<tag k="name" v="Busknestjønn" />
		<tag k="natural" v="water" />
		<tag k="ssr:stedsnr" v="8614" />
	</node>
	<node id="-318949" lat="61.2068138846" lon="12.7667166723">
		<tag k="name" v="Mobergkjella" />
		<tag k="ssr:stedsnr" v="8612" />
		<tag k="waterway" v="stream" />
	</node>
	<node id="-318947" lat="61.334250004" lon="12.0170499926">
		<tag k="name" v="Olderkjelda" />
		<tag k="natural" v="spring" />
		<tag k="old_name" v="Olderkjeldkoia" />
		<tag k="ssr:stedsnr" v="8607" />
	</node>
	<node id="-318944" lat="61.2450777785" lon="11.8650333243">
		<tag k="name" v="Harrbekken" />
		<tag k="ssr:stedsnr" v="221860" />
		<tag k="waterway" v="stream" />
	</node>
	<node id="-320990" lat="61.1363916689" lon="12.0681416687">
		<tag k="name" v="Jons-slåttbekken" />
		<tag k="ssr:stedsnr" v="661424" />
		<tag k="waterway" v="stream" />
	</node>
	<node id="-320987" lat="61.3294250023" lon="12.2262722212">
		<tag k="name" v="Millaevja" />
		<tag k="ssr:stedsnr" v="452232" />
		<tag k="waterway" v="stream" />
	</node>
	<node id="-320986" lat="61.1738666695" lon="11.8176555532">
		<tag k="name" v="Ulvådammen" />
		<tag k="ssr:stedsnr" v="451922" />
		<tag k="waterway" v="dam" />
	</node>
	<node id="-320984" lat="61.5997888889" lon="12.0670666643">
		<tag k="name" v="Litlmyrkjelda" />
		<tag k="ssr:stedsnr" v="451626" />
		<tag k="waterway" v="stream" />
	</node>
	<node id="-320983" lat="61.4128194417" lon="12.0416055596">
		<tag k="name" v="Vonmyrbekken" />
		<tag k="ssr:stedsnr" v="451733" />
		<tag k="waterway" v="stream" />
	</node>
	<node id="-320979" lat="61.3348388903" lon="12.2293861099">
		<tag k="name" v="Bolderøyfloen" />
		<tag k="place" v="locality" />
		<tag k="ssr:stedsnr" v="451509" />
	</node>
	<node id="-320975" lat="61.3288250027" lon="12.0237583377">
		<tag k="name" v="Mosevadet" />
		<tag k="ssr:stedsnr" v="451407" />
		<tag k="waterway" v="stream" />
	</node>
	<node id="-320973" lat="61.3405333365" lon="12.0373416749">
		<tag k="name" v="Svesæterdammen" />
		<tag k="ssr:stedsnr" v="451403" />
		<tag k="waterway" v="dam" />
	</node>
	<node id="-320972" lat="61.3338972256" lon="12.3129361141">
		<tag k="name" v="Støpbekken" />
		<tag k="ssr:stedsnr" v="451349" />
		<tag k="waterway" v="stream" />
	</node>
	<node id="-320969" lat="61.273955555" lon="12.1310277838">
		<tag k="name" v="Vikmorbekken" />
		<tag k="ssr:stedsnr" v="451027" />
		<tag k="waterway" v="stream" />
	</node>
	<node id="-320968" lat="61.2883583318" lon="12.2074444513">
		<tag k="name" v="Kubekken" />
		<tag k="ssr:stedsnr" v="451023" />
		<tag k="waterway" v="stream" />
	</node>
	<node id="-320967" lat="61.2831305559" lon="12.2051777833">
		<tag k="name" v="Veslebekken" />
		<tag k="ssr:stedsnr" v="451014" />
		<tag k="waterway" v="stream" />
	</node>
	<node id="-320961" lat="61.4471638929" lon="12.1053777807">
		<tag k="name" v="Skaftkjelda" />
		<tag k="ssr:stedsnr" v="660973" />
		<tag k="waterway" v="stream" />
	</node>
	<node id="-320960" lat="61.443638892" lon="12.0841333303">
		<tag k="name" v="Bjønnspjutbekken" />
		<tag k="ssr:stedsnr" v="660971" />
		<tag k="waterway" v="stream" />
	</node>
	<node id="-320957" lat="61.4439194462" lon="12.5528472178">
		<tag k="name" v="Mælerloken" />
		<tag k="natural" v="water" />
		<tag k="ssr:stedsnr" v="660949" />
	</node>
	<node id="-320956" lat="61.4407083298" lon="12.562174991">
		<tag k="name" v="Langletbekken" />
		<tag k="ssr:stedsnr" v="660944" />
		<tag k="waterway" v="stream" />
	</node>
	<node id="-320955" lat="61.5187111076" lon="12.1641250072">
		<tag k="name" v="Storfloen" />
		<tag k="place" v="locality" />
		<tag k="ssr:stedsnr" v="660842" />
	</node>
	<node id="-320954" lat="61.3979611152" lon="12.3384888853">
		<tag k="name" v="Fjølabutjønna" />
		<tag k="natural" v="water" />
		<tag k="ssr:stedsnr" v="660841" />
	</node>
	<node id="-320950" lat="61.4931305555" lon="12.1086861117">
		<tag k="name" v="Båthusstranda" />
		<tag k="natural" v="beach" />
		<tag k="ssr:stedsnr" v="660814" />
	</node>
	<node id="-320946" lat="61.5001361129" lon="12.0776388956">
		<tag k="name" v="Stupen" />
		<tag k="natural" v="waterfall" />
		<tag k="ssr:stedsnr" v="660799" />
	</node>
	<node id="-320944" lat="61.429633331" lon="12.2940666673">
		<tag k="name" v="Plætjønna" />
		<tag k="natural" v="water" />
		<tag k="ssr:stedsnr" v="660783" />
	</node>
	<node id="-320942" lat="61.3631138851" lon="12.6584861199">
		<tag k="name" v="Riskjella" />
		<tag k="ssr:stedsnr" v="660731" />
		<tag k="waterway" v="stream" />
	</node>
	<node id="-320941" lat="61.3675888895" lon="12.7323583358">
		<tag k="name" v="Strandkroken" />
		<tag k="natural" v="water" />
		<tag k="ssr:stedsnr" v="660645" />
		<tag k="water" v="lake" />
	</node>
	<node id="-320939" lat="61.4004666698" lon="12.2517833399">
		<tag k="name" v="Rypholmen" />
		<tag k="natural" v="cape" />
		<tag k="ssr:stedsnr" v="660594" />
	</node>
	<node id="-320934" lat="61.4009055517" lon="12.6574305609">
		<tag k="name" v="Styggloka" />
		<tag k="natural" v="water" />
		<tag k="ssr:stedsnr" v="660576" />
	</node>
	<node id="-320933" lat="61.3892027803" lon="12.6904611186">
		<tag k="name" v="Dalavika" />
		<tag k="natural" v="bay" />
		<tag k="ssr:stedsnr" v="660571" />
	</node>
	<node id="-320929" lat="61.4336305574" lon="12.2546888809">
		<tag k="name" v="Penstranda" />
		<tag k="natural" v="beach" />
		<tag k="ssr:stedsnr" v="660449" />
	</node>
	<node id="-320925" lat="61.5132861104" lon="12.4777333398">
		<tag k="name" v="Storfallet" />
		<tag k="natural" v="waterfall" />
		<tag k="ssr:stedsnr" v="660393" />
	</node>
	<node id="-320924" lat="61.368594446" lon="12.7633444458">
		<tag k="name" v="Gjellkuloken" />
		<tag k="natural" v="water" />
		<tag k="ssr:stedsnr" v="660385" />
		<tag k="water" v="pond" />
	</node>
	<node id="-320911" lat="61.5090111079" lon="12.5057861082">
		<tag k="name" v="Litlmyrbekken" />
		<tag k="ssr:stedsnr" v="660235" />
		<tag k="waterway" v="stream" />
	</node>
	<node id="-320910" lat="61.466011112" lon="12.5486416739">
		<tag k="name" v="Abbortjønna" />
		<tag k="natural" v="water" />
		<tag k="ssr:stedsnr" v="660046" />
	</node>
	<node id="-320909" lat="61.4472027736" lon="12.2435638831">
		<tag k="name" v="Grønmyrfallet" />
		<tag k="natural" v="waterfall" />
		<tag k="ssr:stedsnr" v="660044" />
	</node>
	<node id="-320908" lat="61.5191861094" lon="12.04687223">
		<tag k="name" v="Skarpkjakan" />
		<tag k="natural" v="strait" />
		<tag k="ssr:stedsnr" v="660043" />
	</node>
	<node id="-320907" lat="61.4562083368" lon="12.5643972282">
		<tag k="name" v="Bergliseget" />
		<tag k="ssr:stedsnr" v="660042" />
		<tag k="waterway" v="stream" />
	</node>
	<node id="-320906" lat="61.4581583315" lon="12.2435027768">
		<tag k="name" v="Grasbekken" />
		<tag k="ssr:stedsnr" v="660041" />
		<tag k="waterway" v="stream" />
	</node>
	<node id="-320904" lat="61.5100527815" lon="12.0971666719">
		<tag k="name" v="Engermunnstranda" />
		<tag k="natural" v="beach" />
		<tag k="ssr:stedsnr" v="660031" />
	</node>
	<node id="-320900" lat="61.5368277756" lon="12.0707055595">
		<tag k="name" v="Sikgrunnet" />
		<tag k="natural" v="shoal" />
		<tag k="place" v="locality" />
		<tag k="ssr:stedsnr" v="659401" />
	</node>
	<node id="-320898" lat="61.5300361104" lon="12.0741694429">
		<tag k="name" v="Grasneset" />
		<tag k="natural" v="cape" />
		<tag k="ssr:stedsnr" v="659397" />
	</node>
	<node id="-320895" lat="61.4882333349" lon="12.5239833313">
		<tag k="name" v="Lakatjønnbekken" />
		<tag k="ssr:stedsnr" v="659153" />
		<tag k="waterway" v="stream" />
	</node>
	<node id="-320894" lat="61.4833138862" lon="12.5255027726">
		<tag k="name" v="Abbortjønna" />
		<tag k="natural" v="water" />
		<tag k="ssr:stedsnr" v="659148" />
	</node>
	<node id="-320892" lat="61.5319972209" lon="12.1216388837">
		<tag k="name" v="Søndre Bekken" />
		<tag k="ssr:stedsnr" v="659361" />
		<tag k="waterway" v="stream" />
	</node>
	<node id="-320888" lat="61.4523611066" lon="12.2276750023">
		<tag k="name" v="Grasbekken" />
		<tag k="ssr:stedsnr" v="435814" />
		<tag k="waterway" v="stream" />
	</node>
	<node id="-320885" lat="61.6024750016" lon="12.1553750007">
		<tag k="name" v="Bitterbekken" />
		<tag k="ssr:stedsnr" v="435605" />
		<tag k="waterway" v="stream" />
	</node>
	<node id="-320877" lat="61.4950250035" lon="11.8735638878">
		<tag k="name" v="Lågfjellbekken" />
		<tag k="ssr:stedsnr" v="433819" />
		<tag k="waterway" v="stream" />
	</node>
	<node id="-320870" lat="61.4518777758" lon="11.89943056">
		<tag k="name" v="Svartåsbekken" />
		<tag k="ssr:stedsnr" v="433942" />
		<tag k="waterway" v="stream" />
	</node>
	<node id="-320862" lat="61.0615222197" lon="12.6349250048">
		<tag k="name" v="Osmannstjønna" />
		<tag k="natural" v="water" />
		<tag k="ssr:stedsnr" v="433544" />
	</node>
	<node id="-320860" lat="61.2636249984" lon="11.9845611149">
		<tag k="alt_name" v="Mellomsjøbrynne" />
		<tag k="name" v="Mellomsjøbrynnet" />
		<tag k="old_name" v="Mellasjøbrynne" />
		<tag k="ssr:stedsnr" v="433514" />
		<tag k="waterway" v="stream" />
	</node>
	<node id="-320858" lat="61.050088885" lon="12.3248749915">
		<tag k="name" v="Vidbekken" />
		<tag k="ssr:stedsnr" v="433643" />
		<tag k="waterway" v="stream" />
	</node>
	<node id="-320853" lat="61.2351777816" lon="12.7212527746">
		<tag k="name" v="Nesvollbekken" />
		<tag k="ssr:stedsnr" v="433612" />
		<tag k="waterway" v="stream" />
	</node>
	<node id="-320852" lat="61.3802749979" lon="12.4299305606">
		<tag k="name" v="Lugranbekken" />
		<tag k="ssr:stedsnr" v="433608" />
		<tag k="waterway" v="stream" />
	</node>
	<node id="-320839" lat="61.1639527742" lon="12.5717638818">
		<tag k="name" v="Umplamp" />
		<tag k="natural" v="water" />
		<tag k="ssr:stedsnr" v="432731" />
	</node>
	<node id="-320836" lat="61.144886113" lon="12.3207027773">
		<tag k="name" v="Gåstjønna" />
		<tag k="natural" v="water" />
		<tag k="ssr:stedsnr" v="432723" />
	</node>
	<node id="-320822" lat="61.1717583326" lon="12.5426555552">
		<tag k="name" v="Nordre Langtjønna" />
		<tag k="natural" v="water" />
		<tag k="ssr:stedsnr" v="423516" />
	</node>
	<node id="-320820" lat="61.2999638865" lon="11.9082111172">
		<tag k="name" v="Garnevjefloen" />
		<tag k="natural" v="water" />
		<tag k="ssr:stedsnr" v="423513" />
		<tag k="water" v="lake" />
	</node>
	<node id="-320818" lat="61.3122472195" lon="11.9462527731">
		<tag k="name" v="Vestrebekken" />
		<tag k="ssr:stedsnr" v="423222" />
		<tag k="waterway" v="stream" />
	</node>
	<node id="-320815" lat="61.186633334" lon="12.626691666">
		<tag k="name" v="Båthusfossen" />
		<tag k="natural" v="waterfall" />
		<tag k="ssr:stedsnr" v="423011" />
	</node>
	<node id="-320803" lat="61.4094388877" lon="12.2753999907">
		<tag k="name" v="Kjølsalkjelda" />
		<tag k="ssr:stedsnr" v="418824" />
		<tag k="waterway" v="stream" />
	</node>
	<node id="-320801" lat="61.4265638918" lon="12.2859722316">
		<tag k="name" v="Lykkjeholmen" />
		<tag k="place" v="islet" />
		<tag k="ssr:stedsnr" v="418804" />
	</node>
	<node id="-320797" lat="61.3847444402" lon="12.1956000079">
		<tag k="name" v="Vesle-Bondstranda" />
		<tag k="natural" v="beach" />
		<tag k="ssr:stedsnr" v="418519" />
	</node>
	<node id="-320796" lat="61.58778889" lon="12.1067055598">
		<tag k="name" v="Langbrua" />
		<tag k="natural" v="water" />
		<tag k="ssr:stedsnr" v="418514" />
	</node>
	<node id="-320795" lat="61.5792305564" lon="12.0451444473">
		<tag k="name" v="Tonettvika" />
		<tag k="natural" v="bay" />
		<tag k="ssr:stedsnr" v="418510" />
	</node>
	<node id="-320794" lat="61.5638138918" lon="12.1442055524">
		<tag k="name" v="Storvona" />
		<tag k="natural" v="water" />
		<tag k="ssr:stedsnr" v="418503" />
		<tag k="water" v="lake" />
	</node>
	<node id="-320793" lat="61.4186916704" lon="12.1530166621">
		<tag k="name" v="Killingevja" />
		<tag k="natural" v="bay" />
		<tag k="ssr:stedsnr" v="418423" />
	</node>
	<node id="-320790" lat="61.3858388926" lon="12.3454722166">
		<tag k="name" v="Vollbekken" />
		<tag k="ssr:stedsnr" v="417903" />
		<tag k="waterway" v="stream" />
	</node>
	<node id="-320789" lat="61.3717166624" lon="11.9197750049">
		<tag k="name" v="Dulptjønna" />
		<tag k="natural" v="water" />
		<tag k="ssr:stedsnr" v="417708" />
	</node>
	<node id="-320786" lat="61.3870388894" lon="12.6292055528">
		<tag k="name" v="Vålbekken" />
		<tag k="ssr:stedsnr" v="417628" />
		<tag k="waterway" v="stream" />
	</node>
	<node id="-320785" lat="61.5845361123" lon="12.0433638826">
		<tag k="name" v="Sildvika" />
		<tag k="natural" v="bay" />
		<tag k="ssr:stedsnr" v="417627" />
	</node>
	<node id="-320784" lat="61.383516665" lon="12.2004861114">
		<tag k="name" v="Bondstrandfloen" />
		<tag k="natural" v="water" />
		<tag k="ssr:stedsnr" v="417619" />
		<tag k="water" v="lake" />
	</node>
	<node id="-320780" lat="61.1429527791" lon="11.9243666581">
		<tag k="name" v="Nordavindbekken" />
		<tag k="ssr:stedsnr" v="511917" />
		<tag k="waterway" v="stream" />
	</node>
	<node id="-320775" lat="61.4095722229" lon="12.0179777835">
		<tag k="name" v="Hesten" />
		<tag k="natural" v="beach" />
		<tag k="ssr:stedsnr" v="511613" />
	</node>
	<node id="-320768" lat="61.07731568" lon="11.9873968458">
		<tag k="name" v="Håengsjøen" />
		<tag k="natural" v="water" />
		<tag k="ssr:stedsnr" v="511484" />
		<tag k="water" v="lake" />
	</node>
	<node id="-320766" lat="61.3089916683" lon="12.2650750035">
		<tag k="name" v="Mostøa" />
		<tag k="place" v="locality" />
		<tag k="ssr:stedsnr" v="511477" />
	</node>
	<node id="-319018" lat="61.1905777806" lon="12.6194000045">
		<tag k="name" v="Båthusvika" />
		<tag k="natural" v="bay" />
		<tag k="ssr:stedsnr" v="223805" />
	</node>
	<node id="-320762" lat="61.3741861147" lon="12.1962194471">
		<tag k="name" v="Stenloken" />
		<tag k="natural" v="water" />
		<tag k="ssr:stedsnr" v="511678" />
		<tag k="water" v="pond" />
	</node>
	<node id="-320747" lat="61.3492944445" lon="12.2075166702">
		<tag k="name" v="Fingerhølen" />
		<tag k="ssr:stedsnr" v="511245" />
		<tag k="waterway" v="river" />
	</node>
	<node id="-320741" lat="61.3080527773" lon="12.1160472184">
		<tag k="name" v="Vestre Slåttbekken" />
		<tag k="ssr:stedsnr" v="511299" />
		<tag k="waterway" v="stream" />
	</node>
	<node id="-320739" lat="61.3573694487" lon="12.1793666636">
		<tag k="name" v="Sandbekken" />
		<tag k="ssr:stedsnr" v="511271" />
		<tag k="waterway" v="stream" />
	</node>
	<node id="-320738" lat="61.3569500029" lon="12.2409944356">
		<tag k="name" v="Mosengfloen" />
		<tag k="place" v="locality" />
		<tag k="ssr:stedsnr" v="511263" />
	</node>
	<node id="-320736" lat="61.2930750002" lon="12.2813611109">
		<tag k="name" v="Øråneset" />
		<tag k="natural" v="cape" />
		<tag k="ssr:stedsnr" v="511035" />
	</node>
	<node id="-320735" lat="61.2743694466" lon="12.2930222151">
		<tag k="name" v="Melbyvika" />
		<tag k="natural" v="bay" />
		<tag k="ssr:stedsnr" v="511028" />
	</node>
	<node id="-320732" lat="61.2876611132" lon="12.2821333318">
		<tag k="name" v="Søndre Øråholmen" />
		<tag k="place" v="islet" />
		<tag k="ssr:stedsnr" v="511001" />
	</node>
	<node id="-320729" lat="61.0630277793" lon="12.6295416609">
		<tag k="name" v="Osmannsfloen" />
		<tag k="ssr:stedsnr" v="406957" />
		<tag k="waterway" v="rapids" />
	</node>
	<node id="-320728" lat="61.313744441" lon="12.7570277739">
		<tag k="name" v="Styggholmen" />
		<tag k="place" v="islet" />
		<tag k="ssr:stedsnr" v="406567" />
	</node>
	<node id="-320725" lat="61.0735388858" lon="12.257744443">
		<tag k="name" v="Poilandsneset" />
		<tag k="natural" v="cape" />
		<tag k="ssr:stedsnr" v="406321" />
	</node>
	<node id="-320715" lat="61.3416722178" lon="12.3079083399">
		<tag k="name" v="Svartbekken" />
		<tag k="ssr:stedsnr" v="405567" />
		<tag k="waterway" v="stream" />
	</node>
	<node id="-320713" lat="61.2072333349" lon="12.6763472307">
		<tag k="name" v="Rotosbekken" />
		<tag k="ssr:stedsnr" v="404958" />
		<tag k="waterway" v="stream" />
	</node>
	<node id="-320709" lat="61.1541666658" lon="12.6975833299">
		<tag k="name" v="Hestneset" />
		<tag k="natural" v="cape" />
		<tag k="ssr:stedsnr" v="404771" />
	</node>
	<node id="-320704" lat="61.1495027804" lon="12.6476055563">
		<tag k="name" v="Stor-Grøna" />
		<tag k="ssr:stedsnr" v="404169" />
		<tag k="waterway" v="river" />
	</node>
	<node id="-320701" lat="61.0962555517" lon="12.5609694463">
		<tag k="name" v="Grønoset" />
		<tag k="natural" v="bay" />
		<tag k="ssr:stedsnr" v="404063" />
	</node>
	<node id="-320697" lat="61.056616667" lon="12.4246916644">
		<tag k="name" v="Sandmælen" />
		<tag k="natural" v="beach" />
		<tag k="ssr:stedsnr" v="403515" />
	</node>
	<node id="-319006" lat="61.3394555553" lon="12.7460805648">
		<tag k="name" v="Elgsøyen" />
		<tag k="place" v="islet" />
		<tag k="ssr:stedsnr" v="222789" />
	</node>
	<node id="-320683" lat="61.1729611076" lon="11.8030166732">
		<tag k="name" v="Gørveta" />
		<tag k="ssr:stedsnr" v="390907" />
		<tag k="waterway" v="stream" />
	</node>
	<node id="-320676" lat="61.2970611095" lon="12.2363750068">
		<tag k="name" v="Svellbakka" />
		<tag k="place" v="locality" />
		<tag k="ssr:stedsnr" v="390269" />
	</node>
	<node id="-320662" lat="61.2687027763" lon="12.3768333391">
		<tag k="alt_name" v="Storsvartbekken" />
		<tag k="name" v="Svartbekken" />
		<tag k="ssr:stedsnr" v="374812" />
		<tag k="waterway" v="stream" />
	</node>
	<node id="-320661" lat="61.5866722235" lon="12.1917111058">
		<tag k="name" v="Støtbekken" />
		<tag k="ssr:stedsnr" v="374564" />
		<tag k="waterway" v="stream" />
	</node>
	<node id="-320660" lat="61.5958749986" lon="11.8509611062">
		<tag k="name" v="Senna" />
		<tag k="ssr:stedsnr" v="374559" />
		<tag k="waterway" v="stream" />
	</node>
	<node id="-320657" lat="61.5099805563" lon="12.1530611098">
		<tag k="name" v="Fisktjønna" />
		<tag k="natural" v="water" />
		<tag k="ssr:stedsnr" v="374505" />
	</node>
	<node id="-320646" lat="61.4592888885" lon="12.116216669">
		<tag k="name" v="Grasbekken" />
		<tag k="ssr:stedsnr" v="372955" />
		<tag k="waterway" v="stream" />
	</node>
	<node id="-320643" lat="61.3716388925" lon="11.9022722184">
		<tag k="name" v="Vålsbekken" />
		<tag k="ssr:stedsnr" v="372926" />
		<tag k="waterway" v="stream" />
	</node>
	<node id="-320640" lat="61.3999638902" lon="12.0018222213">
		<tag k="name" v="Trantjønna" />
		<tag k="natural" v="water" />
		<tag k="ssr:stedsnr" v="372912" />
	</node>
	<node id="-320637" lat="61.4075666635" lon="12.2582999943">
		<tag k="name" v="Holterbekken" />
		<tag k="ssr:stedsnr" v="372762" />
		<tag k="waterway" v="stream" />
	</node>
	<node id="-320634" lat="61.479388887" lon="11.8960777741">
		<tag k="alt_name" v="Lygnåsbekken" />
		<tag k="name" v="Lyngåsbekken" />
		<tag k="ssr:stedsnr" v="372815" />
		<tag k="waterway" v="stream" />
	</node>
	<node id="-320632" lat="61.3642666685" lon="12.4322277702">
		<tag k="name" v="Sagtjønna" />
		<tag k="natural" v="water" />
		<tag k="ssr:stedsnr" v="372676" />
	</node>
	<node id="-320623" lat="61.3600277733" lon="12.7751638952">
		<tag k="name" v="Tangåa" />
		<tag k="ssr:stedsnr" v="372453" />
		<tag k="waterway" v="river" />
	</node>
	<node id="-320622" lat="61.2844027766" lon="12.8054194382">
		<tag k="name" v="Asploken" />
		<tag k="natural" v="water" />
		<tag k="ssr:stedsnr" v="372423" />
	</node>
	<node id="-320621" lat="61.3029833339" lon="12.7983694497">
		<tag k="name" v="Faksbekken" />
		<tag k="ssr:stedsnr" v="372417" />
		<tag k="waterway" v="stream" />
	</node>
	<node id="-320619" lat="61.0553527805" lon="12.6263333247">
		<tag k="name" v="Abbortjønna" />
		<tag k="natural" v="water" />
		<tag k="ssr:stedsnr" v="372565" />
	</node>
	<node id="-320614" lat="61.441155553" lon="12.6520611185">
		<tag k="name" v="Kvernåa" />
		<tag k="ssr:stedsnr" v="372369" />
		<tag k="waterway" v="stream" />
	</node>
	<node id="-320612" lat="61.4163555598" lon="12.6561583403">
		<tag k="name" v="Langtjønna" />
		<tag k="natural" v="water" />
		<tag k="ssr:stedsnr" v="372357" />
	</node>
	<node id="-320611" lat="61.4052527772" lon="12.7522027791">
		<tag k="name" v="Storbekken" />
		<tag k="ssr:stedsnr" v="372352" />
		<tag k="waterway" v="stream" />
	</node>
	<node id="-320602" lat="61.125252776" lon="12.3257944461">
		<tag k="name" v="Karltjønna" />
		<tag k="natural" v="water" />
		<tag k="ssr:stedsnr" v="371721" />
	</node>
	<node id="-320355" lat="61.1476111109" lon="12.059672217">
		<tag k="name" v="Bekkestrandbekken" />
		<tag k="ssr:stedsnr" v="482492" />
		<tag k="waterway" v="stream" />
	</node>
	<node id="-320592" lat="61.5215194435" lon="12.1280416725">
		<tag k="name" v="Grøttjønna" />
		<tag k="natural" v="water" />
		<tag k="ssr:stedsnr" v="495606" />
	</node>
	<node id="-320591" lat="61.5404500035" lon="12.1154472298">
		<tag k="name" v="Gløtsjøen" />
		<tag k="natural" v="water" />
		<tag k="ssr:stedsnr" v="495604" />
	</node>
	<node id="-320588" lat="61.5589861133" lon="11.8819111147">
		<tag k="alt_name" v="Djupskorgrena, nordre" />
		<tag k="name" v="Nordre Djupskorgrena" />
		<tag k="ssr:stedsnr" v="495570" />
		<tag k="waterway" v="stream" />
	</node>
	<node id="-320586" lat="61.5777166649" lon="12.138358334">
		<tag k="alt_name" v="Metsjøen, nordre;Nordre Metsjøen" />
		<tag k="name" v="Nørdre Metsjøen" />
		<tag k="natural" v="water" />
		<tag k="ssr:stedsnr" v="495565" />
		<tag k="water" v="lake" />
	</node>
	<node id="-320585" lat="61.5778777766" lon="12.1941249917">
		<tag k="name" v="Mjølsjøen" />
		<tag k="natural" v="water" />
		<tag k="ssr:stedsnr" v="495559" />
		<tag k="water" v="lake" />
	</node>
	<node id="-320580" lat="61.6069000004" lon="12.272530552">
		<tag k="name" v="Stortjønna" />
		<tag k="natural" v="water" />
		<tag k="ssr:stedsnr" v="495491" />
	</node>
	<node id="-320576" lat="61.4118927091" lon="12.4116779081">
		<tag k="name" v="Ørsjøen" />
		<tag k="natural" v="water" />
		<tag k="ssr:stedsnr" v="494716" />
		<tag k="water" v="lake" />
	</node>
	<node id="-320574" lat="61.3315111153" lon="12.4241305559">
		<tag k="name" v="Hestnestjønna" />
		<tag k="natural" v="water" />
		<tag k="ssr:stedsnr" v="494639" />
	</node>
	<node id="-320564" lat="61.4386777747" lon="12.733586112">
		<tag k="name" v="Fulunebbekken" />
		<tag k="ssr:stedsnr" v="494316" />
		<tag k="waterway" v="stream" />
	</node>
	<node id="-320563" lat="61.4166277794" lon="12.638652782">
		<tag k="name" v="Lomtjønnen" />
		<tag k="natural" v="water" />
		<tag k="ssr:stedsnr" v="494315" />
		<tag k="water" v="lake" />
	</node>
	<node id="-320558" lat="61.3035055522" lon="12.4316666624">
		<tag k="name" v="Stortjønna" />
		<tag k="natural" v="water" />
		<tag k="ssr:stedsnr" v="494261" />
	</node>
	<node id="-320548" lat="61.0667885169" lon="12.153136718">
		<tag k="name" v="Høljesjøen" />
		<tag k="natural" v="water" />
		<tag k="ssr:stedsnr" v="493942" />
		<tag k="water" v="lake" />
	</node>
	<node id="-320543" lat="61.0544722238" lon="12.183827774">
		<tag k="name" v="Hølja" />
		<tag k="ssr:stedsnr" v="493894" />
		<tag k="waterway" v="river" />
	</node>
	<node id="-320537" lat="61.2464055551" lon="12.3763833308">
		<tag k="name" v="Digerbergtjønna" />
		<tag k="natural" v="water" />
		<tag k="ssr:stedsnr" v="493869" />
	</node>
	<node id="-321100" lat="61.2214611126" lon="12.1920250073">
		<tag k="name" v="Grønbekken" />
		<tag k="ssr:stedsnr" v="467614" />
		<tag k="waterway" v="stream" />
	</node>
	<node id="-320529" lat="61.1945244577" lon="12.5065998189">
		<tag k="name" v="Landsjøen" />
		<tag k="natural" v="water" />
		<tag k="old_name" v="Langsjøen" />
		<tag k="ssr:stedsnr" v="493811" />
		<tag k="water" v="lake" />
	</node>
	<node id="-320522" lat="61.1795611089" lon="12.4703055557">
		<tag k="name" v="Styggbekken" />
		<tag k="ssr:stedsnr" v="493772" />
		<tag k="waterway" v="stream" />
	</node>
	<node id="-320517" lat="61.1193944435" lon="12.5201194454">
		<tag k="name" v="Adlamptjønna" />
		<tag k="natural" v="water" />
		<tag k="ssr:stedsnr" v="493725" />
	</node>
	<node id="-320514" lat="61.4555567919" lon="12.2863301464">
		<tag k="alt_name" v="Flensjøen, østre;Flensjøen" />
		<tag k="name" v="Østre Flensjøen" />
		<tag k="natural" v="water" />
		<tag k="ssr:stedsnr" v="493711" />
		<tag k="water" v="lake" />
	</node>
	<node id="-320507" lat="61.346933331" lon="12.2651833383">
		<tag k="name" v="Nordre Fuglsjøen" />
		<tag k="natural" v="water" />
		<tag k="ssr:stedsnr" v="493680" />
	</node>
	<node id="-320500" lat="61.0508111088" lon="12.5681305577">
		<tag k="name" v="Godfarbekken" />
		<tag k="ssr:stedsnr" v="493650" />
		<tag k="waterway" v="stream" />
	</node>
	<node id="-320498" lat="61.0352750016" lon="12.2597027831">
		<tag k="name" v="Høljefallslåtten" />
		<tag k="place" v="locality" />
		<tag k="ssr:stedsnr" v="493647" />
	</node>
	<node id="-320497" lat="61.0205944476" lon="12.2455749985">
		<tag k="name" v="Nordsjøen" />
		<tag k="natural" v="water" />
		<tag k="ssr:stedsnr" v="493646" />
	</node>
	<node id="-320490" lat="61.2227361117" lon="12.7095083376">
		<tag k="name" v="Fuglleikåsbekken" />
		<tag k="ssr:stedsnr" v="493621" />
		<tag k="waterway" v="stream" />
	</node>
	<node id="-320488" lat="61.1982000018" lon="12.7516611181">
		<tag k="name" v="Storørretbekken" />
		<tag k="ssr:stedsnr" v="493602" />
		<tag k="waterway" v="stream" />
	</node>
	<node id="-320486" lat="61.1555527773" lon="12.6295444504">
		<tag k="name" v="Abbortjønna" />
		<tag k="natural" v="water" />
		<tag k="ssr:stedsnr" v="493589" />
	</node>
	<node id="-320483" lat="61.0718166626" lon="12.682880546">
		<tag k="name" v="Steinloken" />
		<tag k="place" v="locality" />
		<tag k="ssr:stedsnr" v="493559" />
	</node>
	<node id="-320478" lat="61.3664805586" lon="12.6639972135">
		<tag k="name" v="Hollåstjønna" />
		<tag k="natural" v="water" />
		<tag k="ssr:stedsnr" v="493407" />
	</node>
	<node id="-320476" lat="61.3162111146" lon="12.8302777758">
		<tag k="name" v="Hammarsjobekken" />
		<tag k="ssr:stedsnr" v="493401" />
		<tag k="waterway" v="stream" />
	</node>
	<node id="-320473" lat="61.3111277773" lon="12.7069499936">
		<tag k="name" v="Bjørnbekken" />
		<tag k="ssr:stedsnr" v="493383" />
		<tag k="waterway" v="stream" />
	</node>
	<node id="-320472" lat="61.3904000034" lon="12.722797222">
		<tag k="name" v="Stortjønna" />
		<tag k="natural" v="water" />
		<tag k="ssr:stedsnr" v="493331" />
	</node>
	<node id="-321017" lat="61.1939611117" lon="11.9366027835">
		<tag k="name" v="Bjønnbekken" />
		<tag k="ssr:stedsnr" v="664131" />
		<tag k="waterway" v="stream" />
	</node>
	<node id="-320467" lat="61.1594944409" lon="11.9916138875">
		<tag k="name" v="Midtskogtjønna" />
		<tag k="natural" v="water" />
		<tag k="ssr:stedsnr" v="493111" />
	</node>
	<node id="-320463" lat="61.1849666693" lon="11.9650166622">
		<tag k="name" v="Lorttjønna" />
		<tag k="natural" v="water" />
		<tag k="ssr:stedsnr" v="493090" />
	</node>
	<node id="-320461" lat="61.1785611112" lon="12.0798111186">
		<tag k="name" v="Svartøna" />
		<tag k="ssr:stedsnr" v="493082" />
		<tag k="waterway" v="stream" />
	</node>
	<node id="-320460" lat="61.2089527815" lon="11.922088884">
		<tag k="alt_name" v="Lekninga" />
		<tag k="name" v="Lektninga" />
		<tag k="ssr:stedsnr" v="493047" />
		<tag k="waterway" v="stream" />
	</node>
	<node id="-320453" lat="61.1739166646" lon="12.5926972271">
		<tag k="name" v="Søndre Kjeldbekken" />
		<tag k="ssr:stedsnr" v="362511" />
		<tag k="waterway" v="stream" />
	</node>
	<node id="-320452" lat="61.0730722204" lon="12.6014555543">
		<tag k="name" v="Småtjønn" />
		<tag k="natural" v="water" />
		<tag k="ssr:stedsnr" v="362174" />
	</node>
	<node id="-320447" lat="61.1819138873" lon="12.2239500034">
		<tag k="name" v="Harstertjønna" />
		<tag k="natural" v="water" />
		<tag k="ssr:stedsnr" v="362015" />
	</node>
	<node id="-320443" lat="61.2329777811" lon="12.5426472262">
		<tag k="name" v="Synstkjeldbekken" />
		<tag k="ssr:stedsnr" v="361467" />
		<tag k="waterway" v="stream" />
	</node>
	<node id="-320442" lat="61.2019888871" lon="12.459722221">
		<tag k="name" v="Kubekken" />
		<tag k="ssr:stedsnr" v="360914" />
		<tag k="waterway" v="stream" />
	</node>
	<node id="-320441" lat="61.3112944445" lon="12.4552500036">
		<tag k="name" v="Elgsmyrbekken" />
		<tag k="ssr:stedsnr" v="298970" />
		<tag k="waterway" v="stream" />
	</node>
	<node id="-320440" lat="61.1913333357" lon="12.7794472213">
		<tag k="name" v="Brunntjønnbekken" />
		<tag k="ssr:stedsnr" v="360703" />
		<tag k="waterway" v="stream" />
	</node>
	<node id="-320437" lat="61.1715222198" lon="11.930702782">
		<tag k="name" v="Djupbekken" />
		<tag k="ssr:stedsnr" v="360123" />
		<tag k="waterway" v="stream" />
	</node>
	<node id="-320436" lat="61.1674000044" lon="11.9338916726">
		<tag k="name" v="Lykalamp" />
		<tag k="natural" v="water" />
		<tag k="ssr:stedsnr" v="360121" />
		<tag k="water" v="pond" />
	</node>
	<node id="-320426" lat="61.2997777778" lon="12.775144438">
		<tag k="name" v="Gammelgjervolla" />
		<tag k="natural" v="water" />
		<tag k="ssr:stedsnr" v="358508" />
		<tag k="water" v="lake" />
	</node>
	<node id="-320422" lat="61.2517388925" lon="12.0042555488">
		<tag k="name" v="Skardbekkneset" />
		<tag k="natural" v="cape" />
		<tag k="ssr:stedsnr" v="358072" />
	</node>
	<node id="-320420" lat="61.5157527796" lon="12.1508305631">
		<tag k="name" v="Stenbekken" />
		<tag k="ssr:stedsnr" v="357858" />
		<tag k="waterway" v="stream" />
	</node>
	<node id="-320416" lat="61.4434138859" lon="12.3549361194">
		<tag k="name" v="Rembekken" />
		<tag k="ssr:stedsnr" v="357907" />
		<tag k="waterway" v="stream" />
	</node>
	<node id="-320409" lat="61.4020861127" lon="12.7277944405">
		<tag k="name" v="Råbukkjelda" />
		<tag k="ssr:stedsnr" v="357667" />
		<tag k="waterway" v="stream" />
	</node>
	<node id="-320405" lat="61.5941777747" lon="11.9348111181">
		<tag k="name" v="Svartneset" />
		<tag k="natural" v="cape" />
		<tag k="ssr:stedsnr" v="356118" />
	</node>
	<node id="-320401" lat="61.4559055582" lon="11.8977416661">
		<tag k="name" v="Nordre Svartåstjønna" />
		<tag k="natural" v="water" />
		<tag k="ssr:stedsnr" v="494961" />
	</node>
	<node id="-320400" lat="61.4563111076" lon="11.9113499917">
		<tag k="name" v="Tuppsjøen" />
		<tag k="natural" v="water" />
		<tag k="ssr:stedsnr" v="494957" />
	</node>
	<node id="-320399" lat="61.4534638928" lon="11.9346833311">
		<tag k="name" v="Pipelsrotjønna" />
		<tag k="natural" v="water" />
		<tag k="ssr:stedsnr" v="494956" />
	</node>
	<node id="-320396" lat="61.2787472212" lon="12.795344436">
		<tag k="name" v="Ytre Hakkelen" />
		<tag k="place" v="locality" />
		<tag k="ssr:stedsnr" v="345621" />
	</node>
	<node id="-320391" lat="61.1060277801" lon="11.980619437">
		<tag k="name" v="Kattjønna" />
		<tag k="natural" v="water" />
		<tag k="ssr:stedsnr" v="345022" />
	</node>
	<node id="-321003" lat="61.2434222247" lon="12.815536114">
		<tag k="name" v="Nærkanalen" />
		<tag k="ssr:stedsnr" v="662545" />
		<tag k="waterway" v="drain" />
	</node>
	<node id="-320382" lat="61.1735805553" lon="12.3037416742">
		<tag k="name" v="Svartjønna" />
		<tag k="natural" v="water" />
		<tag k="ssr:stedsnr" v="484738" />
	</node>
	<node id="-320378" lat="61.2410499977" lon="12.2082666752">
		<tag k="name" v="Svartåsbekken" />
		<tag k="ssr:stedsnr" v="484398" />
		<tag k="waterway" v="stream" />
	</node>
	<node id="-320376" lat="61.1368555517" lon="12.6196194459">
		<tag k="name" v="Bærmyrbekken" />
		<tag k="ssr:stedsnr" v="484336" />
		<tag k="waterway" v="stream" />
	</node>
	<node id="-320375" lat="61.0760416704" lon="12.3641638968">
		<tag k="name" v="Veggerbekken" />
		<tag k="ssr:stedsnr" v="484149" />
		<tag k="waterway" v="stream" />
	</node>
	<node id="-320374" lat="61.3128611117" lon="12.6132222306">
		<tag k="name" v="Skoglikjelda" />
		<tag k="ssr:stedsnr" v="483941" />
		<tag k="waterway" v="stream" />
	</node>
	<node id="-321001" lat="61.2500138864" lon="12.3393166619">
		<tag k="name" v="Sæterøya" />
		<tag k="place" v="island" />
		<tag k="ssr:stedsnr" v="662783" />
	</node>
	<node id="-320369" lat="61.1707527819" lon="12.2491916675">
		<tag k="name" v="Fønsbrynne" />
		<tag k="place" v="islet" />
		<tag k="ssr:stedsnr" v="483027" />
	</node>
	<node id="-320368" lat="61.2865222182" lon="12.5494527727">
		<tag k="name" v="Løvtjønna" />
		<tag k="natural" v="water" />
		<tag k="ssr:stedsnr" v="483142" />
	</node>
	<node id="-320366" lat="61.2900055572" lon="12.5584777711">
		<tag k="name" v="Hollbekken" />
		<tag k="ssr:stedsnr" v="483133" />
		<tag k="waterway" v="stream" />
	</node>
	<node id="-320358" lat="61.251175004" lon="12.5584083341">
		<tag k="name" v="Skrekkjelda" />
		<tag k="natural" v="water" />
		<tag k="ssr:stedsnr" v="482437" />
	</node>
	<node id="-320998" lat="61.0608083311" lon="12.4228444352">
		<tag k="name" v="Svarvavika" />
		<tag k="natural" v="bay" />
		<tag k="ssr:stedsnr" v="662026" />
	</node>
	<node id="-320344" lat="61.1934944437" lon="12.5121194458">
		<tag k="name" v="Landsjøholmen" />
		<tag k="place" v="islet" />
		<tag k="ssr:stedsnr" v="480811" />
	</node>
	<node id="-320343" lat="61.3324583294" lon="12.6123222302">
		<tag k="name" v="Ryskdalsbekken" />
		<tag k="ssr:stedsnr" v="480743" />
		<tag k="waterway" v="stream" />
	</node>
	<node id="-320339" lat="61.1058472214" lon="12.606877771">
		<tag k="name" v="Kaldbubekken" />
		<tag k="ssr:stedsnr" v="480336" />
		<tag k="waterway" v="stream" />
	</node>
	<node id="-320334" lat="61.3538972264" lon="12.4918611035">
		<tag k="name" v="Tjønnkjølkjelda" />
		<tag k="ssr:stedsnr" v="480238" />
		<tag k="waterway" v="stream" />
	</node>
	<node id="-320330" lat="61.274330557" lon="12.2960777762">
		<tag k="name" v="Gråholmvika" />
		<tag k="natural" v="bay" />
		<tag k="ssr:stedsnr" v="330521" />
	</node>
	<node id="-320324" lat="61.1508194473" lon="11.9100694387">
		<tag k="name" v="Pissbekken" />
		<tag k="ssr:stedsnr" v="329938" />
		<tag k="waterway" v="stream" />
	</node>
	<node id="-320321" lat="61.0958611129" lon="11.9773555497">
		<tag k="name" v="Kalvbekken" />
		<tag k="ssr:stedsnr" v="329508" />
		<tag k="waterway" v="stream" />
	</node>
	<node id="-320319" lat="61.4899694416" lon="11.8026805568">
		<tag k="name" v="Søndre Blekugrena" />
		<tag k="ssr:stedsnr" v="329607" />
		<tag k="waterway" v="stream" />
	</node>
	<node id="-320317" lat="61.3100194435" lon="12.1340444351">
		<tag k="name" v="Lågfjellsbekken" />
		<tag k="ssr:stedsnr" v="329306" />
		<tag k="waterway" v="stream" />
	</node>
	<node id="-320316" lat="61.3285972234" lon="12.1801583255">
		<tag k="name" v="Brynbekken" />
		<tag k="ssr:stedsnr" v="329234" />
		<tag k="waterway" v="stream" />
	</node>
	<node id="-320314" lat="61.1385138909" lon="12.1333555575">
		<tag k="name" v="Davroneen" />
		<tag k="place" v="islet" />
		<tag k="ssr:stedsnr" v="479423" />
	</node>
	<node id="-320312" lat="61.3021888873" lon="12.7708194408">
		<tag k="name" v="Gjervollstryket" />
		<tag k="ssr:stedsnr" v="479492" />
		<tag k="waterway" v="rapids" />
	</node>
	<node id="-320303" lat="61.4209083321" lon="12.322030557">
		<tag k="name" v="Storholmen" />
		<tag k="place" v="islet" />
		<tag k="ssr:stedsnr" v="478827" />
	</node>
	<node id="-320298" lat="61.2170972208" lon="12.7943777704">
		<tag k="name" v="Skjærloken" />
		<tag k="natural" v="water" />
		<tag k="ssr:stedsnr" v="327110" />
	</node>
	<node id="-320297" lat="61.3683027791" lon="12.4377361151">
		<tag k="name" v="Starrtjønna" />
		<tag k="natural" v="water" />
		<tag k="ssr:stedsnr" v="327108" />
	</node>
	<node id="-320294" lat="61.4971583342" lon="12.0855027776">
		<tag k="name" v="Rømokjeldene" />
		<tag k="ssr:stedsnr" v="478815" />
		<tag k="waterway" v="stream" />
	</node>
	<node id="-320293" lat="61.4282166644" lon="12.3035888884">
		<tag k="name" v="Pjaskhølet" />
		<tag k="place" v="locality" />
		<tag k="ssr:stedsnr" v="478813" />
	</node>
	<node id="-320288" lat="61.5309361098" lon="12.2426055558">
		<tag k="name" v="Storvona" />
		<tag k="natural" v="water" />
		<tag k="ssr:stedsnr" v="478730" />
		<tag k="water" v="lake" />
	</node>
	<node id="-320287" lat="61.3760000019" lon="12.3467194373">
		<tag k="name" v="Jemtkjelda" />
		<tag k="ssr:stedsnr" v="478701" />
		<tag k="waterway" v="stream" />
	</node>
	<node id="-320285" lat="61.3924944405" lon="12.1785777772">
		<tag k="name" v="Granøya" />
		<tag k="place" v="islet" />
		<tag k="ssr:stedsnr" v="478549" />
	</node>
	<node id="-320284" lat="61.3880000015" lon="12.1880444419">
		<tag k="name" v="Ytre Kinnbyttholmen" />
		<tag k="place" v="islet" />
		<tag k="ssr:stedsnr" v="478543" />
	</node>
	<node id="-320283" lat="61.5555750023" lon="12.1626833342">
		<tag k="name" v="Svartstenfloen" />
		<tag k="place" v="locality" />
		<tag k="ssr:stedsnr" v="478535" />
	</node>
	<node id="-320282" lat="61.4093055515" lon="12.1636722235">
		<tag k="name" v="Andersholmen" />
		<tag k="place" v="islet" />
		<tag k="ssr:stedsnr" v="478508" />
	</node>
	<node id="-320279" lat="61.4039305575" lon="12.1670361039">
		<tag k="name" v="Vomloken" />
		<tag k="natural" v="bay" />
		<tag k="ssr:stedsnr" v="478496" />
	</node>
	<node id="-320278" lat="61.3999444413" lon="12.6656472125">
		<tag k="name" v="Bikkjeloken" />
		<tag k="natural" v="water" />
		<tag k="ssr:stedsnr" v="478592" />
	</node>
	<node id="-320276" lat="61.3884083362" lon="12.6848611075">
		<tag k="name" v="Tjønna" />
		<tag k="natural" v="water" />
		<tag k="ssr:stedsnr" v="478578" />
	</node>
	<node id="-320275" lat="61.4403194409" lon="12.2486166575">
		<tag k="name" v="Storfloen" />
		<tag k="natural" v="water" />
		<tag k="ssr:stedsnr" v="478447" />
		<tag k="water" v="lake" />
	</node>
	<node id="-320273" lat="61.5766944478" lon="12.1996527719">
		<tag k="name" v="Kjeldene" />
		<tag k="ssr:stedsnr" v="478434" />
		<tag k="waterway" v="stream" />
	</node>
	<node id="-320267" lat="61.4534583353" lon="12.5577805501">
		<tag k="name" v="Haraloka" />
		<tag k="natural" v="water" />
		<tag k="ssr:stedsnr" v="478042" />
		<tag k="water" v="pond" />
	</node>
	<node id="-320265" lat="61.4601222243" lon="12.5518444497">
		<tag k="name" v="Krokkjelddammen" />
		<tag k="natural" v="water" />
		<tag k="ssr:stedsnr" v="478039" />
	</node>
	<node id="-320264" lat="61.5203916679" lon="12.0554138859">
		<tag k="name" v="Høgholmen" />
		<tag k="place" v="islet" />
		<tag k="ssr:stedsnr" v="478036" />
	</node>
	<node id="-320262" lat="61.4481472228" lon="12.5862777837">
		<tag k="name" v="Storveta" />
		<tag k="ssr:stedsnr" v="478031" />
		<tag k="waterway" v="stream" />
	</node>
	<node id="-320259" lat="61.4630305515" lon="12.5627722168">
		<tag k="name" v="Gjermundsbekken" />
		<tag k="ssr:stedsnr" v="478024" />
		<tag k="waterway" v="stream" />
	</node>
	<node id="-320258" lat="61.5160194405" lon="12.0905444497">
		<tag k="name" v="Lokbekken" />
		<tag k="ssr:stedsnr" v="478022" />
		<tag k="waterway" v="stream" />
	</node>
	<node id="-320256" lat="61.4286861145" lon="11.9005027804">
		<tag k="name" v="Tømmerrenna" />
		<tag k="ssr:stedsnr" v="477873" />
		<tag k="waterway" v="drain" />
	</node>
	<node id="-320250" lat="61.5326388877" lon="12.112200002">
		<tag k="name" v="Langkjeldloken" />
		<tag k="natural" v="water" />
		<tag k="ssr:stedsnr" v="477369" />
	</node>
	<node id="-320249" lat="61.5495749985" lon="11.8648861187">
		<tag k="name" v="Kvannkjeldene" />
		<tag k="ssr:stedsnr" v="477142" />
		<tag k="waterway" v="stream" />
	</node>
	<node id="-320248" lat="61.4920388859" lon="11.8010249943">
		<tag k="name" v="Blekudammen" />
		<tag k="ssr:stedsnr" v="477135" />
		<tag k="waterway" v="dam" />
	</node>
	<node id="-320243" lat="61.6210999996" lon="12.0203750016">
		<tag k="name" v="Engeren" />
		<tag k="natural" v="water" />
		<tag k="ssr:stedsnr" v="313672" />
		<tag k="water" v="lake" />
	</node>
	<node id="-320242" lat="61.6144444407" lon="12.1253277751">
		<tag k="name" v="Jenstjønna" />
		<tag k="natural" v="water" />
		<tag k="ssr:stedsnr" v="313663" />
	</node>
	<node id="-320239" lat="61.5229472226" lon="12.0878972213">
		<tag k="name" v="Engera" />
		<tag k="ssr:stedsnr" v="313619" />
		<tag k="waterway" v="river" />
	</node>
	<node id="-320235" lat="61.4693638932" lon="12.0057249916">
		<tag k="name" v="Bubekken" />
		<tag k="ssr:stedsnr" v="312966" />
		<tag k="waterway" v="stream" />
	</node>
	<node id="-320228" lat="61.4336416628" lon="12.5327500011">
		<tag k="alt_name" v="Ljørhollbekken" />
		<tag k="name" v="Hollbekken" />
		<tag k="ssr:stedsnr" v="312702" />
		<tag k="waterway" v="stream" />
	</node>
	<node id="-320221" lat="61.3795055575" lon="12.3498555478">
		<tag k="name" v="Karitjønna" />
		<tag k="natural" v="water" />
		<tag k="ssr:stedsnr" v="312621" />
	</node>
	<node id="-320219" lat="61.2973777799" lon="11.9580166661">
		<tag k="alt_name" v="Brynne" />
		<tag k="name" v="Brynnet" />
		<tag k="ssr:stedsnr" v="312606" />
		<tag k="waterway" v="river" />
	</node>
	<node id="-320215" lat="61.244138893" lon="11.9906722156">
		<tag k="alt_name" v="Skårbekken" />
		<tag k="name" v="Skardbekken" />
		<tag k="ssr:stedsnr" v="311009" />
		<tag k="waterway" v="stream" />
	</node>
	<node id="-320208" lat="61.1388111106" lon="12.3050305608">
		<tag k="name" v="Ormmyrbekken" />
		<tag k="ssr:stedsnr" v="302421" />
		<tag k="waterway" v="stream" />
	</node>
	<node id="-320206" lat="61.1830194412" lon="12.5488166583">
		<tag k="name" v="Brunnbekken" />
		<tag k="ssr:stedsnr" v="301503" />
		<tag k="waterway" v="stream" />
	</node>
	<node id="-320181" lat="61.1541277751" lon="12.0249222135">
		<tag k="name" v="Farligbekken" />
		<tag k="ssr:stedsnr" v="300059" />
		<tag k="waterway" v="stream" />
	</node>
	<node id="-320179" lat="61.2438527806" lon="12.7127111069">
		<tag k="name" v="Øvre Nesvoll-bekkdammen" />
		<tag k="natural" v="water" />
		<tag k="ssr:stedsnr" v="299616" />
		<tag k="water" v="lake" />
	</node>
	<node id="-320173" lat="61.5776194426" lon="12.3596249991">
		<tag k="name" v="Dambekken" />
		<tag k="ssr:stedsnr" v="296439" />
		<tag k="waterway" v="stream" />
	</node>
	<node id="-320171" lat="61.4161333311" lon="12.2574972216">
		<tag k="name" v="Engesfloen" />
		<tag k="natural" v="water" />
		<tag k="ssr:stedsnr" v="296406" />
		<tag k="water" v="lake" />
	</node>
	<node id="-320169" lat="61.2152944415" lon="12.7562527796">
		<tag k="name" v="Ytre Nesvollbekkdammen" />
		<tag k="ssr:stedsnr" v="467532" />
		<tag k="waterway" v="dam" />
	</node>
	<node id="-320166" lat="61.2122000025" lon="11.9951222235">
		<tag k="name" v="Skallerbekken" />
		<tag k="ssr:stedsnr" v="467048" />
		<tag k="waterway" v="stream" />
	</node>
	<node id="-320165" lat="61.0604749995" lon="12.6304916656">
		<tag k="name" v="Skipperbekken" />
		<tag k="ssr:stedsnr" v="466950" />
		<tag k="waterway" v="stream" />
	</node>
	<node id="-320162" lat="61.1946777769" lon="12.2218666745">
		<tag k="name" v="Søndergrønfossen" />
		<tag k="ssr:stedsnr" v="466996" />
		<tag k="waterway" v="rapids" />
	</node>
	<node id="-320157" lat="61.19136667" lon="12.584688898">
		<tag k="name" v="Storandreasloken" />
		<tag k="natural" v="water" />
		<tag k="ssr:stedsnr" v="466793" />
		<tag k="water" v="pond" />
	</node>
	<node id="-320154" lat="61.1925222219" lon="12.7444111054">
		<tag k="name" v="Bjørvettdammen" />
		<tag k="natural" v="water" />
		<tag k="ssr:stedsnr" v="466767" />
		<tag k="water" v="pond" />
	</node>
	<node id="-320147" lat="61.0518111068" lon="12.2479944433">
		<tag k="name" v="Ørbekkfallet" />
		<tag k="place" v="islet" />
		<tag k="ssr:stedsnr" v="466340" />
	</node>
	<node id="-320143" lat="61.3348527771" lon="12.744519449">
		<tag k="name" v="Vatninga" />
		<tag k="place" v="locality" />
		<tag k="ssr:stedsnr" v="465830" />
	</node>
	<node id="-320132" lat="61.2549722248" lon="12.0558583321">
		<tag k="name" v="Sagdammen" />
		<tag k="ssr:stedsnr" v="464679" />
		<tag k="waterway" v="dam" />
	</node>
	<node id="-320124" lat="61.335097221" lon="12.2263055631">
		<tag k="name" v="Møkkeløya" />
		<tag k="place" v="island" />
		<tag k="ssr:stedsnr" v="270252" />
	</node>
	<node id="-320120" lat="61.4070833327" lon="12.033294439">
		<tag k="name" v="Kjeldholmen" />
		<tag k="place" v="islet" />
		<tag k="ssr:stedsnr" v="269661" />
	</node>
	<node id="-320118" lat="61.2110027808" lon="11.9008277781">
		<tag k="name" v="Johannesolabekken" />
		<tag k="ssr:stedsnr" v="269569" />
		<tag k="waterway" v="stream" />
	</node>
	<node id="-320114" lat="61.5994250001" lon="12.0257666699">
		<tag k="name" v="Brekjeldodden" />
		<tag k="natural" v="cape" />
		<tag k="ssr:stedsnr" v="269611" />
	</node>
	<node id="-320109" lat="61.2607500003" lon="12.3789805523">
		<tag k="name" v="Hestbekken" />
		<tag k="ssr:stedsnr" v="269368" />
		<tag k="waterway" v="stream" />
	</node>
	<node id="-320099" lat="61.5332749965" lon="12.2254166663">
		<tag k="name" v="Olbekken" />
		<tag k="ssr:stedsnr" v="252506" />
		<tag k="waterway" v="stream" />
	</node>
	<node id="-320096" lat="61.1705583334" lon="11.8434611149">
		<tag k="name" v="Stortjønna" />
		<tag k="natural" v="water" />
		<tag k="ssr:stedsnr" v="451974" />
	</node>
	<node id="-320095" lat="61.1705638867" lon="11.8169666634">
		<tag k="name" v="Ulvåa" />
		<tag k="ssr:stedsnr" v="451971" />
		<tag k="waterway" v="river" />
	</node>
	<node id="-320065" lat="61.35579722" lon="12.1777583369">
		<tag k="name" v="Veslfallet" />
		<tag k="natural" v="waterfall" />
		<tag k="ssr:stedsnr" v="451144" />
	</node>
	<node id="-320063" lat="61.3297916636" lon="12.2146583337">
		<tag k="name" v="Bjørnhimorbekken" />
		<tag k="ssr:stedsnr" v="451080" />
		<tag k="waterway" v="stream" />
	</node>
	<node id="-320062" lat="61.2786277767" lon="12.1876833267">
		<tag k="name" v="Balvarsbekken" />
		<tag k="ssr:stedsnr" v="451076" />
		<tag k="waterway" v="stream" />
	</node>
	<node id="-320054" lat="61.2288777749" lon="12.4129055489">
		<tag k="name" v="Østre Bredvika" />
		<tag k="natural" v="bay" />
		<tag k="ssr:stedsnr" v="241717" />
	</node>
	<node id="-320053" lat="61.2277277742" lon="12.4121472255">
		<tag k="name" v="Vestre Bredvika" />
		<tag k="natural" v="bay" />
		<tag k="ssr:stedsnr" v="241716" />
	</node>
	<node id="-320052" lat="61.2264944452" lon="12.3947527847">
		<tag k="name" v="Svarttjønna" />
		<tag k="natural" v="water" />
		<tag k="ssr:stedsnr" v="241713" />
	</node>
	<node id="-320045" lat="61.2805944466" lon="11.9645083329">
		<tag k="name" v="Rotodden" />
		<tag k="natural" v="cape" />
		<tag k="ssr:stedsnr" v="241166" />
	</node>
	<node id="-320037" lat="61.1660138852" lon="11.9212944531">
		<tag k="name" v="Røbuvika" />
		<tag k="natural" v="bay" />
		<tag k="ssr:stedsnr" v="239159" />
	</node>
	<node id="-320036" lat="61.1646583333" lon="11.9262416713">
		<tag k="name" v="Kvernbekken" />
		<tag k="ssr:stedsnr" v="239158" />
		<tag k="waterway" v="stream" />
	</node>
	<node id="-320032" lat="61.0593805532" lon="12.4375972253">
		<tag k="name" v="Handelsmyrfossen" />
		<tag k="ssr:stedsnr" v="237027" />
		<tag k="waterway" v="rapids" />
	</node>
	<node id="-320018" lat="61.2276444454" lon="12.1790888966">
		<tag k="name" v="Jonsbrennkroken" />
		<tag k="place" v="locality" />
		<tag k="ssr:stedsnr" v="224570" />
	</node>
	<node id="-320017" lat="61.2607277819" lon="12.8180277768">
		<tag k="name" v="Kvennkjelda" />
		<tag k="ssr:stedsnr" v="224553" />
		<tag k="waterway" v="stream" />
	</node>
	<node id="-320010" lat="61.3380944446" lon="12.6689083329">
		<tag k="name" v="Kvassmyrkjelda" />
		<tag k="ssr:stedsnr" v="298621" />
		<tag k="waterway" v="stream" />
	</node>
	<node id="-319993" lat="61.1122750018" lon="12.5739916729">
		<tag k="name" v="Grønengen" />
		<tag k="place" v="locality" />
		<tag k="ssr:stedsnr" v="298326" />
	</node>
	<node id="-319992" lat="61.114030558" lon="12.5946027845">
		<tag k="name" v="Moen" />
		<tag k="place" v="locality" />
		<tag k="ssr:stedsnr" v="298324" />
	</node>
	<node id="-319989" lat="61.3335888874" lon="12.4333555636">
		<tag k="name" v="Grønkjølkjelda" />
		<tag k="natural" v="water" />
		<tag k="ssr:stedsnr" v="298240" />
		<tag k="water" v="pond" />
	</node>
	<node id="-319986" lat="61.1740111142" lon="11.9112277723">
		<tag k="name" v="Sandvika" />
		<tag k="natural" v="bay" />
		<tag k="ssr:stedsnr" v="298148" />
	</node>
	<node id="-319984" lat="61.2413388857" lon="11.9827361141">
		<tag k="name" v="Veslebekken" />
		<tag k="ssr:stedsnr" v="298095" />
		<tag k="waterway" v="stream" />
	</node>
	<node id="-319982" lat="61.2555388848" lon="12.5688472191">
		<tag k="name" v="Sætertjønna" />
		<tag k="natural" v="water" />
		<tag k="ssr:stedsnr" v="298087" />
	</node>
	<node id="-319980" lat="61.2617833332" lon="11.9897583289">
		<tag k="name" v="Øvre Strømmen" />
		<tag k="ssr:stedsnr" v="298073" />
		<tag k="waterway" v="rapids" />
	</node>
	<node id="-319978" lat="61.0655694458" lon="12.4107861021">
		<tag k="name" v="Eskildåa" />
		<tag k="ssr:stedsnr" v="298036" />
		<tag k="waterway" v="stream" />
	</node>
	<node id="-319967" lat="61.273894448" lon="12.089494446">
		<tag k="name" v="Nordre Varåveta" />
		<tag k="ssr:stedsnr" v="208431" />
		<tag k="waterway" v="stream" />
	</node>
	<node id="-319958" lat="61.4344888855" lon="12.3552583352">
		<tag k="name" v="Kattstokkbekken" />
		<tag k="ssr:stedsnr" v="296933" />
		<tag k="waterway" v="stream" />
	</node>
	<node id="-319955" lat="61.4301222182" lon="12.3761027788">
		<tag k="name" v="Sagtjønna" />
		<tag k="natural" v="water" />
		<tag k="ssr:stedsnr" v="296891" />
	</node>
	<node id="-319944" lat="61.4392805565" lon="12.2980166634">
		<tag k="name" v="Langfloen" />
		<tag k="place" v="locality" />
		<tag k="ssr:stedsnr" v="296812" />
	</node>
	<node id="-319938" lat="61.3788750032" lon="12.3498194456">
		<tag k="name" v="Karibekken" />
		<tag k="ssr:stedsnr" v="296700" />
		<tag k="waterway" v="stream" />
	</node>
	<node id="-319934" lat="61.3564444447" lon="11.9366888967">
		<tag k="name" v="Brøodden" />
		<tag k="natural" v="cape" />
		<tag k="ssr:stedsnr" v="296626" />
	</node>
	<node id="-319933" lat="61.3836305549" lon="12.2341388883">
		<tag k="name" v="Kvalptjønna" />
		<tag k="natural" v="water" />
		<tag k="ssr:stedsnr" v="296561" />
	</node>
	<node id="-319932" lat="61.3828805517" lon="12.2054277802">
		<tag k="name" v="Mørsøyholmen" />
		<tag k="natural" v="cape" />
		<tag k="ssr:stedsnr" v="296551" />
	</node>
	<node id="-319927" lat="61.5298027808" lon="12.0826000066">
		<tag k="name" v="Søndre Neunvikneset" />
		<tag k="natural" v="cape" />
		<tag k="ssr:stedsnr" v="296523" />
	</node>
	<node id="-319926" lat="61.5806361072" lon="12.0301999951">
		<tag k="name" v="Biskopodden" />
		<tag k="natural" v="cape" />
		<tag k="ssr:stedsnr" v="296516" />
	</node>
	<node id="-319925" lat="61.5732999964" lon="12.0545944379">
		<tag k="name" v="Storsnestjønna" />
		<tag k="natural" v="water" />
		<tag k="ssr:stedsnr" v="296515" />
	</node>
	<node id="-319924" lat="61.3855027776" lon="12.1972388978">
		<tag k="name" v="Bondstranda" />
		<tag k="natural" v="beach" />
		<tag k="ssr:stedsnr" v="296512" />
	</node>
	<node id="-319923" lat="61.5807000019" lon="12.0786055623">
		<tag k="name" v="Holmtjønna" />
		<tag k="natural" v="water" />
		<tag k="ssr:stedsnr" v="296503" />
	</node>
	<node id="-319922" lat="61.5698055563" lon="12.2365249936">
		<tag k="name" v="Falkbekken" />
		<tag k="ssr:stedsnr" v="296490" />
		<tag k="waterway" v="stream" />
	</node>
	<node id="-319919" lat="61.4097916638" lon="12.2568500046">
		<tag k="name" v="Skinningsøya" />
		<tag k="place" v="islet" />
		<tag k="ssr:stedsnr" v="296401" />
	</node>
	<node id="-319917" lat="61.5074444435" lon="12.4760694425">
		<tag k="name" v="Bjønnbekken" />
		<tag k="ssr:stedsnr" v="296351" />
		<tag k="waterway" v="stream" />
	</node>
	<node id="-319914" lat="61.5359499996" lon="12.1132083247">
		<tag k="name" v="Bækerbrennloka" />
		<tag k="natural" v="water" />
		<tag k="ssr:stedsnr" v="296316" />
	</node>
	<node id="-319910" lat="61.5512805541" lon="12.5027444486">
		<tag k="name" v="Djuptjønnbekken" />
		<tag k="ssr:stedsnr" v="296286" />
		<tag k="waterway" v="stream" />
	</node>
	<node id="-319908" lat="61.5565638891" lon="12.4985388936">
		<tag k="name" v="Kvenndammen" />
		<tag k="ssr:stedsnr" v="296283" />
		<tag k="waterway" v="dam" />
	</node>
	<node id="-319899" lat="61.4990166657" lon="12.1151999985">
		<tag k="name" v="Bitterloken" />
		<tag k="natural" v="water" />
		<tag k="ssr:stedsnr" v="296058" />
	</node>
	<node id="-319897" lat="61.465027781" lon="12.5530888909">
		<tag k="name" v="Sagdammen" />
		<tag k="natural" v="water" />
		<tag k="ssr:stedsnr" v="296037" />
	</node>
	<node id="-319896" lat="61.4611916699" lon="12.5431361088">
		<tag k="name" v="Tømmerloken" />
		<tag k="natural" v="water" />
		<tag k="ssr:stedsnr" v="296033" />
		<tag k="water" v="pond" />
	</node>
	<node id="-319886" lat="61.5759388859" lon="12.1686888878">
		<tag k="name" v="Søndre Dølpbekken" />
		<tag k="ssr:stedsnr" v="295512" />
		<tag k="waterway" v="stream" />
	</node>
	<node id="-319884" lat="61.4558861132" lon="11.9664916737">
		<tag k="name" v="Bredfloen" />
		<tag k="natural" v="water" />
		<tag k="ssr:stedsnr" v="295507" />
		<tag k="water" v="lake" />
	</node>
	<node id="-319881" lat="61.4909027806" lon="11.9489277714">
		<tag k="name" v="Bråtebekken" />
		<tag k="ssr:stedsnr" v="295441" />
		<tag k="waterway" v="stream" />
	</node>
	<node id="-319880" lat="61.5373333298" lon="12.4887972303">
		<tag k="name" v="Bredkjelda" />
		<tag k="ssr:stedsnr" v="295399" />
		<tag k="waterway" v="stream" />
	</node>
	<node id="-319879" lat="61.5385361153" lon="12.0837666599">
		<tag k="name" v="Storloken" />
		<tag k="natural" v="water" />
		<tag k="ssr:stedsnr" v="295341" />
	</node>
	<node id="-319876" lat="61.4793888908" lon="12.5179888961">
		<tag k="name" v="Storstenloken" />
		<tag k="natural" v="water" />
		<tag k="ssr:stedsnr" v="295129" />
	</node>
	<node id="-319868" lat="61.5299777811" lon="11.8599888904">
		<tag k="alt_name" v="Leirbekken, s" />
		<tag k="name" v="Søndre Leirbekken" />
		<tag k="ssr:stedsnr" v="192622" />
		<tag k="waterway" v="stream" />
	</node>
	<node id="-319859" lat="61.1616111076" lon="12.3469416636">
		<tag k="name" v="Sjøfossen" />
		<tag k="natural" v="waterfall" />
		<tag k="ssr:stedsnr" v="190804" />
	</node>
	<node id="-319858" lat="61.4302861093" lon="12.4770027793">
		<tag k="alt_name" v="Bredkjelda" />
		<tag k="name" v="Breidkjelda" />
		<tag k="ssr:stedsnr" v="190743" />
		<tag k="waterway" v="stream" />
	</node>
	<node id="-319854" lat="61.1287777785" lon="12.559163881">
		<tag k="name" v="Slåttmyrbekken" />
		<tag k="ssr:stedsnr" v="190733" />
		<tag k="waterway" v="stream" />
	</node>
	<node id="-319853" lat="61.1186416698" lon="12.4594555567">
		<tag k="name" v="Trollsbergstjønnen" />
		<tag k="natural" v="water" />
		<tag k="ssr:stedsnr" v="190729" />
	</node>
	<node id="-319852" lat="61.0923416673" lon="12.2775333426">
		<tag k="name" v="Brenntjønna" />
		<tag k="natural" v="water" />
		<tag k="ssr:stedsnr" v="190728" />
	</node>
	<node id="-319851" lat="61.1075666626" lon="12.519433329">
		<tag k="alt_name" v="Lakstjønnbekken" />
		<tag k="name" v="Laksbekken" />
		<tag k="ssr:stedsnr" v="190725" />
		<tag k="waterway" v="stream" />
	</node>
	<node id="-319849" lat="61.1076750038" lon="12.4157666737">
		<tag k="name" v="Breidfloen" />
		<tag k="place" v="locality" />
		<tag k="ssr:stedsnr" v="190721" />
	</node>
	<node id="-319848" lat="61.090344445" lon="12.3482000081">
		<tag k="name" v="Rådelsbekken" />
		<tag k="ssr:stedsnr" v="190712" />
		<tag k="waterway" v="stream" />
	</node>
	<node id="-319845" lat="61.0554305545" lon="12.2044416708">
		<tag k="alt_name" v="Oterbekken" />
		<tag k="name" v="Otterbekken" />
		<tag k="ssr:stedsnr" v="190505" />
		<tag k="waterway" v="stream" />
	</node>
	<node id="-319842" lat="61.0532333344" lon="12.4430638959">
		<tag k="name" v="Sagbekken" />
		<tag k="ssr:stedsnr" v="190659" />
		<tag k="waterway" v="stream" />
	</node>
	<node id="-319840" lat="61.3855472228" lon="12.3430777757">
		<tag k="alt_name" v="Rokka" />
		<tag k="name" v="Rukka" />
		<tag k="ssr:stedsnr" v="190640" />
		<tag k="waterway" v="stream" />
	</node>
	<node id="-319833" lat="61.3163250008" lon="12.1071805484">
		<tag k="name" v="Skurufjelltjønna" />
		<tag k="natural" v="water" />
		<tag k="ssr:stedsnr" v="190616" />
	</node>
	<node id="-319832" lat="61.3024472234" lon="12.0086500034">
		<tag k="alt_name" v="Åstedsbekken" />
		<tag k="name" v="Åstedbekken" />
		<tag k="ssr:stedsnr" v="190610" />
		<tag k="waterway" v="stream" />
	</node>
	<node id="-319831" lat="61.2362111106" lon="12.7657972235">
		<tag k="name" v="Storbekken" />
		<tag k="ssr:stedsnr" v="190609" />
		<tag k="waterway" v="stream" />
	</node>
	<node id="-319825" lat="61.2206388924" lon="12.1487583303">
		<tag k="name" v="Merratjønna" />
		<tag k="natural" v="water" />
		<tag k="ssr:stedsnr" v="285585" />
	</node>
	<node id="-319820" lat="61.3006249994" lon="12.7889277864">
		<tag k="name" v="Faksbekkgrena" />
		<tag k="natural" v="bay" />
		<tag k="ssr:stedsnr" v="285551" />
	</node>
	<node id="-319817" lat="61.1749472208" lon="12.6929444434">
		<tag k="name" v="Røtosfossen" />
		<tag k="natural" v="waterfall" />
		<tag k="ssr:stedsnr" v="285204" />
	</node>
	<node id="-319814" lat="61.1926999989" lon="12.3342861144">
		<tag k="name" v="Vidjekjølbekken" />
		<tag k="ssr:stedsnr" v="180675" />
		<tag k="waterway" v="stream" />
	</node>
	<node id="-319803" lat="61.2738083357" lon="12.344777775">
		<tag k="name" v="Lamkjelda" />
		<tag k="natural" v="spring" />
		<tag k="ssr:stedsnr" v="180152" />
	</node>
	<node id="-319799" lat="61.3068833367" lon="12.4051861171">
		<tag k="name" v="Viktjelda" />
		<tag k="ssr:stedsnr" v="179912" />
		<tag k="waterway" v="stream" />
	</node>
	<node id="-319794" lat="61.1979305564" lon="12.2172833405">
		<tag k="name" v="Kvernneset" />
		<tag k="natural" v="cape" />
		<tag k="ssr:stedsnr" v="284997" />
	</node>
	<node id="-319792" lat="61.1947055534" lon="12.2379388873">
		<tag k="name" v="Storkjølkjøva" />
		<tag k="natural" v="bay" />
		<tag k="ssr:stedsnr" v="284993" />
	</node>
	<node id="-319790" lat="61.2015222194" lon="12.2639472135">
		<tag k="name" v="Flekkdammen" />
		<tag k="natural" v="water" />
		<tag k="ssr:stedsnr" v="284909" />
		<tag k="water" v="pond" />
	</node>
	<node id="-319783" lat="61.177630558" lon="12.2358305637">
		<tag k="name" v="Skaftstranda" />
		<tag k="natural" v="beach" />
		<tag k="ssr:stedsnr" v="177674" />
	</node>
	<node id="-319782" lat="61.208875" lon="12.5832138944">
		<tag k="name" v="Buholmen" />
		<tag k="place" v="islet" />
		<tag k="ssr:stedsnr" v="284812" />
	</node>
	<node id="-319780" lat="61.3563166636" lon="12.7516166747">
		<tag k="name" v="Langhalvordvadet" />
		<tag k="place" v="locality" />
		<tag k="ssr:stedsnr" v="284809" />
	</node>
	<node id="-319777" lat="61.1612611146" lon="12.2793861084">
		<tag k="name" v="Larskoiebekken" />
		<tag k="ssr:stedsnr" v="284771" />
		<tag k="waterway" v="stream" />
	</node>
	<node id="-319775" lat="61.2861638901" lon="12.7837444485">
		<tag k="name" v="Hakkelendholma" />
		<tag k="place" v="islet" />
		<tag k="ssr:stedsnr" v="284767" />
	</node>
	<node id="-319773" lat="61.1294583332" lon="12.1744583326">
		<tag k="name" v="Kolvlampi" />
		<tag k="natural" v="water" />
		<tag k="ssr:stedsnr" v="284745" />
	</node>
	<node id="-319767" lat="61.3514222237" lon="12.2658805524">
		<tag k="name" v="Brumyrbekken" />
		<tag k="ssr:stedsnr" v="284546" />
		<tag k="waterway" v="stream" />
	</node>
	<node id="-319754" lat="61.3319527748" lon="12.7505138977">
		<tag k="name" v="Svartøren" />
		<tag k="place" v="locality" />
		<tag k="ssr:stedsnr" v="283821" />
	</node>
	<node id="-319746" lat="61.1464944466" lon="12.646494444">
		<tag k="name" v="Mårbekkfloen" />
		<tag k="place" v="locality" />
		<tag k="ssr:stedsnr" v="283128" />
	</node>
	<node id="-319742" lat="61.2765138903" lon="11.9851166695">
		<tag k="name" v="Nordbybåthusbekken" />
		<tag k="ssr:stedsnr" v="283087" />
		<tag k="waterway" v="stream" />
	</node>
	<node id="-319737" lat="61.0866722192" lon="12.1156749964">
		<tag k="name" v="Rassibekken" />
		<tag k="ssr:stedsnr" v="282711" />
		<tag k="waterway" v="stream" />
	</node>
	<node id="-319736" lat="61.0542277791" lon="12.3937166653">
		<tag k="name" v="Hangasharjemyrbekken" />
		<tag k="ssr:stedsnr" v="282535" />
		<tag k="waterway" v="stream" />
	</node>
	<node id="-319734" lat="61.2531333321" lon="12.226491663">
		<tag k="name" v="Loka" />
		<tag k="natural" v="water" />
		<tag k="ssr:stedsnr" v="282370" />
		<tag k="water" v="pond" />
	</node>
	<node id="-319732" lat="61.0636083354" lon="12.6299777692">
		<tag k="name" v="Gammelkvernholmen" />
		<tag k="place" v="islet" />
		<tag k="ssr:stedsnr" v="163958" />
	</node>
	<node id="-319728" lat="61.2780333302" lon="12.7877888889">
		<tag k="name" v="Vollbekken" />
		<tag k="ssr:stedsnr" v="163625" />
		<tag k="waterway" v="stream" />
	</node>
	<node id="-319722" lat="61.2931805515" lon="12.6832555569">
		<tag k="name" v="Tepperholet" />
		<tag k="natural" v="water" />
		<tag k="ssr:stedsnr" v="163564" />
		<tag k="water" v="pond" />
	</node>
	<node id="-319721" lat="61.280755552" lon="12.7032166716">
		<tag k="name" v="Storkjølkjelda" />
		<tag k="ssr:stedsnr" v="163562" />
		<tag k="waterway" v="stream" />
	</node>
	<node id="-319720" lat="61.3158388856" lon="12.7556722238">
		<tag k="name" v="Granholmen" />
		<tag k="place" v="islet" />
		<tag k="ssr:stedsnr" v="163527" />
	</node>
	<node id="-319711" lat="61.3318305584" lon="12.7481972149">
		<tag k="name" v="Lerbekkfloen" />
		<tag k="place" v="locality" />
		<tag k="ssr:stedsnr" v="161802" />
	</node>
	<node id="-319709" lat="61.1553972189" lon="12.6903777799">
		<tag k="name" v="Rundfloen" />
		<tag k="natural" v="water" />
		<tag k="ssr:stedsnr" v="161766" />
		<tag k="water" v="lake" />
	</node>
	<node id="-319703" lat="61.3065583316" lon="12.3408499947">
		<tag k="name" v="Vinterloken" />
		<tag k="natural" v="water" />
		<tag k="ssr:stedsnr" v="161067" />
		<tag k="water" v="pond" />
	</node>
	<node id="-321004" lat="61.2138083323" lon="12.5477583296">
		<tag k="name" v="Søndre Gjeddtjønn" />
		<tag k="natural" v="water" />
		<tag k="ssr:stedsnr" v="662838" />
	</node>
	<node id="-319683" lat="61.2707694462" lon="12.2864027709">
		<tag k="alt_name" v="Gjetosbekken" />
		<tag k="name" v="Gjetostbekken" />
		<tag k="ssr:stedsnr" v="147356" />
		<tag k="waterway" v="stream" />
	</node>
	<node id="-319676" lat="61.3526361102" lon="12.1456083248">
		<tag k="name" v="Torbekken" />
		<tag k="ssr:stedsnr" v="147125" />
		<tag k="waterway" v="stream" />
	</node>
	<node id="-319673" lat="61.285136112" lon="12.1356722311">
		<tag k="name" v="Rismyrbekken" />
		<tag k="ssr:stedsnr" v="147020" />
		<tag k="waterway" v="stream" />
	</node>
	<node id="-319660" lat="61.3868833289" lon="12.1379666698">
		<tag k="name" v="Skaftbekken" />
		<tag k="ssr:stedsnr" v="269776" />
		<tag k="waterway" v="stream" />
	</node>
	<node id="-319655" lat="61.081942964" lon="11.9861214485">
		<tag k="name" v="Nordre Håsjøen" />
		<tag k="natural" v="water" />
		<tag k="ssr:stedsnr" v="269627" />
		<tag k="water" v="lake" />
	</node>
	<node id="-319640" lat="61.5097111082" lon="12.0263000068">
		<tag k="name" v="Gammelhusbekken" />
		<tag k="ssr:stedsnr" v="131811" />
		<tag k="waterway" v="stream" />
	</node>
	<node id="-319638" lat="61.5347499993" lon="12.3689083309">
		<tag k="name" v="Munkbetbekken" />
		<tag k="ssr:stedsnr" v="131535" />
		<tag k="waterway" v="stream" />
	</node>
	<node id="-319633" lat="61.3283583336" lon="12.3764750044">
		<tag k="name" v="Svarttjønna" />
		<tag k="natural" v="water" />
		<tag k="ssr:stedsnr" v="130645" />
	</node>
	<node id="-319629" lat="61.2667000032" lon="12.8174055598">
		<tag k="name" v="Lintjønna" />
		<tag k="natural" v="water" />
		<tag k="ssr:stedsnr" v="130352" />
	</node>
	<node id="-319627" lat="61.4535138866" lon="12.6269361056">
		<tag k="alt_name" v="Bjørnåsbekken, syndre;Søndre Bjønnåsbekken" />
		<tag k="name" v="Syndre Bjørnåsbekken" />
		<tag k="ssr:stedsnr" v="130314" />
		<tag k="waterway" v="stream" />
	</node>
	<node id="-319625" lat="61.4233249964" lon="12.6448527768">
		<tag k="name" v="Sisseltjønna" />
		<tag k="natural" v="water" />
		<tag k="ssr:stedsnr" v="130307" />
	</node>
	<node id="-319622" lat="61.4587999998" lon="11.9517250068">
		<tag k="name" v="Bredflotjønna" />
		<tag k="natural" v="water" />
		<tag k="ssr:stedsnr" v="129945" />
	</node>
	<node id="-319620" lat="61.4948805575" lon="11.964524994">
		<tag k="name" v="Storbekken" />
		<tag k="ssr:stedsnr" v="129810" />
		<tag k="waterway" v="stream" />
	</node>
	<node id="-319619" lat="61.1841722264" lon="12.3455194359">
		<tag k="name" v="Kråketjønna" />
		<tag k="natural" v="water" />
		<tag k="ssr:stedsnr" v="129806" />
	</node>
	<node id="-319613" lat="61.1133416683" lon="12.377599993">
		<tag k="name" v="Nevagrøttjønna" />
		<tag k="natural" v="water" />
		<tag k="ssr:stedsnr" v="129720" />
	</node>
	<node id="-319603" lat="61.3905388847" lon="12.5739055567">
		<tag k="alt_name" v="Trefjerdingsbekken" />
		<tag k="name" v="Trefjerdungsbekken" />
		<tag k="ssr:stedsnr" v="129618" />
		<tag k="waterway" v="stream" />
	</node>
	<node id="-319600" lat="61.3750472205" lon="12.7421555525">
		<tag k="name" v="Orreleiktjønnen" />
		<tag k="natural" v="water" />
		<tag k="ssr:stedsnr" v="129428" />
		<tag k="water" v="lake" />
	</node>
	<node id="-319594" lat="61.1878888862" lon="11.9342500013">
		<tag k="name" v="Mosåtjønna" />
		<tag k="natural" v="water" />
		<tag k="ssr:stedsnr" v="129104" />
	</node>
	<node id="-319593" lat="61.0910027768" lon="12.0839000004">
		<tag k="name" v="Storsvetjønna" />
		<tag k="natural" v="water" />
		<tag k="ssr:stedsnr" v="128913" />
	</node>
	<node id="-319589" lat="61.2183111074" lon="12.1647111029">
		<tag k="name" v="Bringebærbekken" />
		<tag k="ssr:stedsnr" v="129048" />
		<tag k="waterway" v="stream" />
	</node>
	<node id="-319586" lat="61.1888777791" lon="11.9398472261">
		<tag k="name" v="Rørtjønna" />
		<tag k="natural" v="water" />
		<tag k="ssr:stedsnr" v="266144" />
	</node>
	<node id="-319578" lat="61.2443416674" lon="12.1878861147">
		<tag k="name" v="Elgsbekken" />
		<tag k="ssr:stedsnr" v="118529" />
		<tag k="waterway" v="stream" />
	</node>
	<node id="-319577" lat="61.2491916672" lon="12.5569361073">
		<tag k="name" v="Skrekkjeldvika" />
		<tag k="natural" v="bay" />
		<tag k="ssr:stedsnr" v="118404" />
	</node>
	<node id="-319571" lat="61.110819441" lon="12.5757027721">
		<tag k="name" v="Antonholmen" />
		<tag k="place" v="islet" />
		<tag k="ssr:stedsnr" v="116335" />
	</node>
	<node id="-319569" lat="61.2131027789" lon="11.9146944423">
		<tag k="name" v="Kaffebrekka" />
		<tag k="natural" v="water" />
		<tag k="ssr:stedsnr" v="116021" />
		<tag k="water" v="lake" />
	</node>
	<node id="-319565" lat="61.4277611146" lon="12.340530555">
		<tag k="name" v="Stornesbekken" />
		<tag k="ssr:stedsnr" v="115913" />
		<tag k="waterway" v="stream" />
	</node>
	<node id="-319557" lat="61.4913166697" lon="12.1085638821">
		<tag k="name" v="Oterkjelda" />
		<tag k="natural" v="bay" />
		<tag k="ssr:stedsnr" v="114847" />
	</node>
	<node id="-319554" lat="61.5510888863" lon="12.1628166737">
		<tag k="name" v="Tippstenfloen" />
		<tag k="place" v="locality" />
		<tag k="ssr:stedsnr" v="114742" />
	</node>
	<node id="-319548" lat="61.3619166698" lon="12.2711694458">
		<tag k="name" v="Stenflobekken" />
		<tag k="ssr:stedsnr" v="114437" />
		<tag k="waterway" v="stream" />
	</node>
	<node id="-319546" lat="61.5211083368" lon="12.0679222236">
		<tag k="name" v="Elvløholmen" />
		<tag k="place" v="islet" />
		<tag k="ssr:stedsnr" v="114033" />
	</node>
	<node id="-319542" lat="61.1611888913" lon="11.9874416724">
		<tag k="name" v="Høgsvebekken" />
		<tag k="ssr:stedsnr" v="300041" />
		<tag k="waterway" v="stream" />
	</node>
	<node id="-319538" lat="61.3534000004" lon="11.866605548">
		<tag k="name" v="Blekrisbekken" />
		<tag k="ssr:stedsnr" v="102518" />
		<tag k="waterway" v="stream" />
	</node>
	<node id="-319537" lat="61.1477138858" lon="12.5472833352">
		<tag k="name" v="Tømmerbekken" />
		<tag k="ssr:stedsnr" v="101370" />
		<tag k="waterway" v="stream" />
	</node>
	<node id="-321135" lat="61.5160166693" lon="12.1932666724">
		<tag k="name" v="Gråtarbekken" />
		<tag k="ssr:stedsnr" v="478859" />
		<tag k="waterway" v="stream" />
	</node>
	<node id="-319533" lat="61.5154750041" lon="12.1457861146">
		<tag k="name" v="Rømoåa" />
		<tag k="ssr:stedsnr" v="253803" />
		<tag k="waterway" v="river" />
	</node>
	<node id="-319532" lat="61.5467805592" lon="11.8924749955">
		<tag k="alt_name" v="Djupskorgrena, s" />
		<tag k="name" v="Søndre Djupskorgrena" />
		<tag k="ssr:stedsnr" v="253632" />
		<tag k="waterway" v="stream" />
	</node>
	<node id="-319531" lat="61.5849333336" lon="11.91739722">
		<tag k="name" v="Grønkjelda" />
		<tag k="ssr:stedsnr" v="253617" />
		<tag k="waterway" v="stream" />
	</node>
	<node id="-319530" lat="61.5713222209" lon="11.9351111047">
		<tag k="name" v="Båthusbekken" />
		<tag k="ssr:stedsnr" v="253616" />
		<tag k="waterway" v="stream" />
	</node>
	<node id="-319529" lat="61.5937138876" lon="11.9087972244">
		<tag k="name" v="Treskorbekken" />
		<tag k="ssr:stedsnr" v="253613" />
		<tag k="waterway" v="stream" />
	</node>
	<node id="-319528" lat="61.5896027804" lon="12.0594833274">
		<tag k="name" v="Trollfjordbekken" />
		<tag k="ssr:stedsnr" v="253609" />
		<tag k="waterway" v="stream" />
	</node>
	<node id="-319527" lat="61.5643833307" lon="11.9938388942">
		<tag k="name" v="Håkamptjønna" />
		<tag k="natural" v="water" />
		<tag k="ssr:stedsnr" v="253591" />
	</node>
	<node id="-319526" lat="61.5099111141" lon="12.1939333266">
		<tag k="name" v="Greftåsbekken" />
		<tag k="ssr:stedsnr" v="253558" />
		<tag k="waterway" v="stream" />
	</node>
	<node id="-319523" lat="61.6338138932" lon="12.2449000033">
		<tag k="name" v="Skagatjønna" />
		<tag k="natural" v="water" />
		<tag k="ssr:stedsnr" v="253533" />
	</node>
	<node id="-319522" lat="61.6136611081" lon="11.9009749931">
		<tag k="name" v="Trysiløya" />
		<tag k="place" v="island" />
		<tag k="ssr:stedsnr" v="252626" />
	</node>
	<node id="-319519" lat="61.5540499999" lon="12.2082166711">
		<tag k="name" v="Mjølbekken" />
		<tag k="ssr:stedsnr" v="252579" />
		<tag k="waterway" v="stream" />
	</node>
	<node id="-319517" lat="61.531508333" lon="12.0380527836">
		<tag k="alt_name" v="Eidbekken, vestre" />
		<tag k="name" v="Vestre Eidbekken" />
		<tag k="ssr:stedsnr" v="252551" />
		<tag k="waterway" v="stream" />
	</node>
	<node id="-319516" lat="61.5540916653" lon="12.3478222305">
		<tag k="name" v="Smørtjønna" />
		<tag k="natural" v="water" />
		<tag k="ssr:stedsnr" v="252501" />
	</node>
	<node id="-319514" lat="61.5648500004" lon="12.4034000005">
		<tag k="name" v="Munkbettjønnen" />
		<tag k="natural" v="water" />
		<tag k="ssr:stedsnr" v="252463" />
	</node>
	<node id="-319512" lat="61.4242805549" lon="11.9722055519">
		<tag k="name" v="Kvernfallet" />
		<tag k="ssr:stedsnr" v="251991" />
		<tag k="waterway" v="rapids" />
	</node>
	<node id="-319511" lat="61.4259638862" lon="11.9029722188">
		<tag k="name" v="Storkjølbekken" />
		<tag k="ssr:stedsnr" v="251990" />
		<tag k="waterway" v="stream" />
	</node>
	<node id="-319506" lat="61.3973916624" lon="11.9865305565">
		<tag k="name" v="Brynnet" />
		<tag k="natural" v="water" />
		<tag k="ssr:stedsnr" v="251926" />
		<tag k="water" v="lake" />
	</node>
	<node id="-319491" lat="61.3437767395" lon="12.4740981886">
		<tag k="name" v="Synsttjønna" />
		<tag k="natural" v="water" />
		<tag k="ssr:stedsnr" v="251690" />
	</node>
	<node id="-319490" lat="61.0698722222" lon="12.5652500047">
		<tag k="name" v="Gjettjønn" />
		<tag k="natural" v="water" />
		<tag k="ssr:stedsnr" v="251686" />
	</node>
	<node id="-319489" lat="61.051902597" lon="12.3240799813">
		<tag k="name" v="Furuholmsbekken" />
		<tag k="ssr:stedsnr" v="251681" />
		<tag k="waterway" v="stream" />
	</node>
</osm>
