<?xml version="1.0" encoding="UTF-8"?>
<osm version="0.6" generator="osmapis">
	<node lat="61.22182277181159" lon="11.88754893738467" id="-19142">
		<tag k="alt_name" v="Søhaugen" />
		<tag k="fixme" v="multiple name tags, choose one and add the other to alt_name" />
		<tag k="name" v="Sørhaugen;Søre Gjevaldshaugen" />
		<tag k="place" v="farm" />
		<tag k="ssr:stedsnr" v="7061" />
	</node>
	<node lat="61.24767985487263" lon="12.046635380572463" id="-19143">
		<tag k="alt_name" v="Mellem Vestby" />
		<tag k="fixme" v="consider place=hamlet" />
		<tag k="name" v="Mellom-Vestby" />
		<tag k="place" v="farm" />
		<tag k="ssr:stedsnr" v="7005" />
	</node>
	<node lat="61.14836667044809" lon="12.46779166663808" id="-19148">
		<tag k="alt_name" v="Mandfloen" />
		<tag k="name" v="Mannfloen" />
		<tag k="place" v="farm" />
		<tag k="ssr:stedsnr" v="7713" />
	</node>
	<node lat="61.231691664542275" lon="12.489013885114069" id="-19152">
		<tag k="name" v="Breen" />
		<tag k="place" v="farm" />
		<tag k="ssr:stedsnr" v="7803" />
	</node>
	<node lat="61.23559166356534" lon="12.464999997202895" id="-19153">
		<tag k="name" v="Myrsjøbergvollen" />
		<tag k="place" v="farm" />
		<tag k="ssr:stedsnr" v="7806" />
	</node>
	<node lat="61.22012777630665" lon="12.372652782848208" id="-19154">
		<tag k="alt_name" v="Strømmen" />
		<tag k="name" v="Strømnes" />
		<tag k="place" v="farm" />
		<tag k="ssr:stedsnr" v="7811" />
	</node>
	<node lat="61.24736110803944" lon="12.036913884662953" id="-19155">
		<tag k="name" v="Haugen" />
		<tag k="place" v="farm" />
		<tag k="ssr:stedsnr" v="8006" />
	</node>
	<node lat="61.24566944868651" lon="11.85981112026416" id="-19158">
		<tag k="alt_name" v="Sørmo" />
		<tag k="name" v="Sømo" />
		<tag k="old_name" v="Sørmoen" />
		<tag k="place" v="farm" />
		<tag k="ssr:stedsnr" v="8020" />
	</node>
	<node lat="61.1850719811072" lon="11.900932378521627" id="-19159">
		<tag k="alt_name" v="Djupsand" />
		<tag k="fixme" v="consider place=hamlet" />
		<tag k="name" v="Djupsanden" />
		<tag k="place" v="farm" />
		<tag k="ssr:stedsnr" v="8092" />
	</node>
	<node lat="61.15714444590684" lon="12.03983055881633" id="-19161">
		<tag k="name" v="Flobergskoia" />
		<tag k="place" v="isolated_dwelling" />
		<tag k="ssr:stedsnr" v="8109" />
	</node>
	<node lat="61.170219445795446" lon="12.075397219051828" id="-19163">
		<tag k="alt_name" v="Wasskoia" />
		<tag k="name" v="Vasskoia" />
		<tag k="place" v="isolated_dwelling" />
		<tag k="ssr:stedsnr" v="8119" />
	</node>
	<node lat="61.26616666564952" lon="12.55370000600854" id="-19164">
		<tag k="name" v="Nes" />
		<tag k="place" v="farm" />
		<tag k="ssr:stedsnr" v="8401" />
	</node>
	<node lat="61.30398888918005" lon="12.613266673064548" id="-19165">
		<tag k="alt_name" v="Løvbekk" />
		<tag k="name" v="Løbekk" />
		<tag k="place" v="farm" />
		<tag k="ssr:stedsnr" v="8416" />
	</node>
	<node lat="61.2167499991892" lon="11.81560000560137" id="-19166">
		<tag k="name" v="Lunde" />
		<tag k="place" v="farm" />
		<tag k="ssr:stedsnr" v="8359" />
	</node>
	<node lat="61.25917499749057" lon="12.317449995795092" id="-19167">
		<tag k="name" v="Engerdal" />
		<tag k="place" v="farm" />
		<tag k="ssr:stedsnr" v="8400" />
	</node>
	<node lat="61.378049997810834" lon="12.291836107507605" id="-19171">
		<tag k="name" v="Holstad" />
		<tag k="place" v="farm" />
		<tag k="ssr:stedsnr" v="8658" />
	</node>
	<node lat="61.33982500084301" lon="12.230602786481816" id="-19173">
		<tag k="name" v="Sundsbakken" />
		<tag k="place" v="farm" />
		<tag k="ssr:stedsnr" v="8696" />
	</node>
	<node lat="61.16045833318039" lon="12.538391657806452" id="-19176">
		<tag k="name" v="Årsvoll" />
		<tag k="place" v="farm" />
		<tag k="ssr:stedsnr" v="8778" />
	</node>
	<node lat="61.383241668834344" lon="11.976227771357381" id="-19177">
		<tag k="name" v="Kallemanken" />
		<tag k="old_name" v="Kalemanken" />
		<tag k="place" v="farm" />
		<tag k="ssr:stedsnr" v="8938" />
	</node>
	<node lat="61.116861106719305" lon="12.074380560610084" id="-19178">
		<tag k="alt_name" v="Øvergård" />
		<tag k="name" v="Øvergard" />
		<tag k="place" v="farm" />
		<tag k="ssr:stedsnr" v="8941" />
	</node>
	<node lat="61.13097500308395" lon="12.086563882088546" id="-19179">
		<tag k="name" v="Ås" />
		<tag k="place" v="farm" />
		<tag k="ssr:stedsnr" v="8992" />
	</node>
	<node lat="61.394511110102925" lon="12.671544435968178" id="-19183">
		<tag k="name" v="Nordby" />
		<tag k="place" v="farm" />
		<tag k="ssr:stedsnr" v="9300" />
	</node>
	<node lat="61.37195833332553" lon="11.932108338171695" id="-19186">
		<tag k="name" v="Vangen" />
		<tag k="place" v="farm" />
		<tag k="ssr:stedsnr" v="9890" />
	</node>
	<node lat="61.43278055688143" lon="12.01208889142649" id="-19188">
		<tag k="name" v="Volsætra" />
		<tag k="place" v="hamlet" />
		<tag k="ssr:stedsnr" v="9990" />
	</node>
	<node lat="61.5578638887649" lon="12.195849994330638" id="-19193">
		<tag k="historic" v="shieling" />
		<tag k="name" v="Rømonysætra" />
		<tag k="place" v="isolated_dwelling" />
		<tag k="ssr:stedsnr" v="10632" />
	</node>
	<node lat="61.53464166764831" lon="12.08383334162385" id="-19194">
		<tag k="name" v="Gløtheim" />
		<tag k="place" v="farm" />
		<tag k="ssr:stedsnr" v="10633" />
	</node>
	<node lat="61.54476666731487" lon="12.104827780815775" id="-19196">
		<tag k="alt_name" v="Norgård" />
		<tag k="name" v="Nordgård" />
		<tag k="place" v="farm" />
		<tag k="ssr:stedsnr" v="10641" />
	</node>
	<node lat="61.52463889031698" lon="12.069425004429867" id="-19207">
		<tag k="name" v="Rønningen" />
		<tag k="place" v="locality" />
		<tag k="ssr:stedsnr" v="235058" />
	</node>
	<node lat="61.32639166803161" lon="12.252780559255601" id="-19212">
		<tag k="name" v="Sanden" />
		<tag k="place" v="farm" />
		<tag k="ssr:stedsnr" v="26090" />
	</node>
	<node lat="61.34091388527197" lon="12.230580550668726" id="-19213">
		<tag k="amenity" v="school" />
		<tag k="name" v="Øverbygda skole" />
		<tag k="ssr:stedsnr" v="26225" />
	</node>
	<node lat="61.32781111232412" lon="12.22719166849341" id="-19217">
		<tag k="amenity" v="school" />
		<tag k="name" v="Sørbysaga" />
		<tag k="ssr:stedsnr" v="26501" />
	</node>
	<node lat="61.622847218758814" lon="11.884669452452007" id="-19229">
		<tag k="name" v="Nordre Øya" />
		<tag k="place" v="isolated_dwelling" />
		<tag k="ssr:stedsnr" v="235026" />
	</node>
	<node lat="61.44879444569448" lon="12.064391673518248" id="-19253">
		<tag k="alt_name" v="Øivangsætra" />
		<tag k="historic" v="shieling" />
		<tag k="name" v="Øyvangsætra" />
		<tag k="place" v="isolated_dwelling" />
		<tag k="ssr:stedsnr" v="235998" />
	</node>
	<node lat="61.46240555921875" lon="12.242280551246846" id="-19255">
		<tag k="name" v="Sletteng" />
		<tag k="place" v="farm" />
		<tag k="ssr:stedsnr" v="236042" />
	</node>
	<node lat="61.36195833226849" lon="12.733586115342192" id="-19267">
		<tag k="name" v="Åslund" />
		<tag k="place" v="isolated_dwelling" />
		<tag k="ssr:stedsnr" v="236588" />
	</node>
	<node lat="61.17524068805524" lon="12.7369352738359" id="-19292">
		<tag k="fixme" v="consider place=hamlet" />
		<tag k="name" v="Nordre Flermoen" />
		<tag k="place" v="farm" />
		<tag k="ssr:stedsnr" v="40181" />
	</node>
	<node lat="61.16295000024283" lon="12.537572217692478" id="-19293">
		<tag k="alt_name" v="Mandflosætra" />
		<tag k="name" v="Mannflosætra" />
		<tag k="place" v="isolated_dwelling" />
		<tag k="ssr:stedsnr" v="40385" />
	</node>
	<node lat="61.26727221840736" lon="12.062522223357158" id="-19298">
		<tag k="name" v="Åset" />
		<tag k="place" v="locality" />
		<tag k="ssr:stedsnr" v="40712" />
	</node>
	<node lat="61.19045555137538" lon="12.484355562747949" id="-19301">
		<tag k="name" v="Øverås" />
		<tag k="place" v="farm" />
		<tag k="ssr:stedsnr" v="40916" />
	</node>
	<node lat="61.13045833040931" lon="12.086972217452647" id="-19317">
		<tag k="name" v="Lundberg" />
		<tag k="place" v="isolated_dwelling" />
		<tag k="ssr:stedsnr" v="237438" />
	</node>
	<node lat="61.13297222518729" lon="12.094586106765506" id="-19323">
		<tag k="name" v="Vesterås" />
		<tag k="place" v="farm" />
		<tag k="ssr:stedsnr" v="237448" />
	</node>
	<node lat="61.23653610783395" lon="12.34913055274461" id="-19332">
		<tag k="name" v="Haugen" />
		<tag k="place" v="farm" />
		<tag k="ssr:stedsnr" v="237768" />
	</node>
	<node lat="61.11759999668634" lon="12.066283326124514" id="-19344">
		<tag k="name" v="Bergheim" />
		<tag k="place" v="isolated_dwelling" />
		<tag k="ssr:stedsnr" v="239400" />
	</node>
	<node lat="61.15714722017917" lon="12.059061111563867" id="-19346">
		<tag k="name" v="Bjørnstad" />
		<tag k="place" v="farm" />
		<tag k="ssr:stedsnr" v="239466" />
	</node>
	<node lat="61.224916662720446" lon="12.231894450247397" id="-19347">
		<tag k="name" v="Grøndalsæter" />
		<tag k="place" v="farm" />
		<tag k="ssr:stedsnr" v="239472" />
	</node>
	<node lat="61.46292222056191" lon="12.259372222752486" id="-19370">
		<tag k="name" v="Blestad" />
		<tag k="place" v="isolated_dwelling" />
		<tag k="ssr:stedsnr" v="53991" />
	</node>
	<node lat="61.14071944393557" lon="12.093827786409285" id="-19393">
		<tag k="name" v="Bakken" />
		<tag k="place" v="farm" />
		<tag k="ssr:stedsnr" v="55401" />
	</node>
	<node lat="61.109380551712505" lon="12.662941667025084" id="-19404">
		<tag k="historic" v="shieling" />
		<tag k="name" v="Nestsætra" />
		<tag k="place" v="isolated_dwelling" />
		<tag k="ssr:stedsnr" v="56380" />
	</node>
	<node lat="61.317502776587304" lon="11.928402781863936" id="-19409">
		<tag k="name" v="Tjønnåskoia" />
		<tag k="place" v="isolated_dwelling" />
		<tag k="ssr:stedsnr" v="57196" />
	</node>
	<node lat="61.32426111306143" lon="11.971283337958049" id="-19412">
		<tag k="name" v="Enerkoia" />
		<tag k="place" v="isolated_dwelling" />
		<tag k="ssr:stedsnr" v="57405" />
	</node>
	<node lat="61.172530553878566" lon="12.158644446925202" id="-19427">
		<tag k="name" v="Løkken" />
		<tag k="place" v="farm" />
		<tag k="ssr:stedsnr" v="58913" />
	</node>
	<node lat="61.29944444219067" lon="11.966280546092682" id="-19437">
		<tag k="name" v="Olufkoia" />
		<tag k="place" v="isolated_dwelling" />
		<tag k="ssr:stedsnr" v="59220" />
	</node>
	<node lat="61.12436944755501" lon="12.301066662609138" id="-19440">
		<tag k="name" v="Furuholmskoia" />
		<tag k="place" v="isolated_dwelling" />
		<tag k="ssr:stedsnr" v="59420" />
	</node>
	<node lat="61.20386389285236" lon="12.725286112838369" id="-19450">
		<tag k="historic" v="shieling" />
		<tag k="name" v="Nilsvollen" />
		<tag k="place" v="isolated_dwelling" />
		<tag k="ssr:stedsnr" v="59919" />
	</node>
	<node lat="61.06839444885344" lon="12.547319436475975" id="-19464">
		<tag k="name" v="Risperkoia" />
		<tag k="place" v="isolated_dwelling" />
		<tag k="ssr:stedsnr" v="241176" />
	</node>
	<node lat="61.09756944618719" lon="12.612597220584453" id="-19466">
		<tag k="name" v="Nordiberget" />
		<tag k="place" v="farm" />
		<tag k="ssr:stedsnr" v="241191" />
	</node>
	<node lat="61.30201389306995" lon="11.948186106020932" id="-19471">
		<tag k="name" v="Flybrakka" />
		<tag k="place" v="isolated_dwelling" />
		<tag k="ssr:stedsnr" v="241221" />
	</node>
	<node lat="61.114658333702266" lon="12.539802779825726" id="-19472">
		<tag k="name" v="Neskoia" />
		<tag k="place" v="isolated_dwelling" />
		<tag k="ssr:stedsnr" v="241355" />
	</node>
	<node lat="61.16836944273716" lon="12.522422220782403" id="-19476">
		<tag k="name" v="Stenli" />
		<tag k="place" v="isolated_dwelling" />
		<tag k="ssr:stedsnr" v="241471" />
	</node>
	<node lat="61.21439166816811" lon="12.303063887206067" id="-19484">
		<tag k="name" v="Finnolahemmet" />
		<tag k="place" v="locality" />
		<tag k="ssr:stedsnr" v="241774" />
	</node>
	<node lat="61.24123889161511" lon="12.137644436496256" id="-19486">
		<tag k="name" v="Larskoia" />
		<tag k="place" v="isolated_dwelling" />
		<tag k="ssr:stedsnr" v="68002" />
	</node>
	<node lat="61.168250002263804" lon="11.820275007887867" id="-19487">
		<tag k="historic" v="shieling" />
		<tag k="name" v="Svartstubbsætra" />
		<tag k="place" v="isolated_dwelling" />
		<tag k="ssr:stedsnr" v="68399" />
	</node>
	<node lat="61.268421144896614" lon="12.305896397591221" id="-19489">
		<tag k="fixme" v="consider place=hamlet" />
		<tag k="loc_name" v="Nysæteren;Nysætra" />
		<tag k="name" v="Nysæter" />
		<tag k="place" v="farm" />
		<tag k="ssr:stedsnr" v="242171" />
	</node>
	<node lat="61.103150000986155" lon="12.563211107982145" id="-19492">
		<tag k="name" v="Fossvang" />
		<tag k="place" v="farm" />
		<tag k="ssr:stedsnr" v="68711" />
	</node>
	<node lat="61.1938944487858" lon="12.479966666327385" id="-19493">
		<tag k="alt_name" v="Løkja" />
		<tag k="name" v="Lykkja" />
		<tag k="place" v="farm" />
		<tag k="ssr:stedsnr" v="68788" />
	</node>
	<node lat="61.19248770379221" lon="12.43727085683777" id="-19494">
		<tag k="alt_name" v="Nordre Kolos" />
		<tag k="fixme" v="consider place=hamlet" />
		<tag k="name" v="Kolos" />
		<tag k="place" v="farm" />
		<tag k="ssr:stedsnr" v="68791" />
	</node>
	<node lat="61.08342777513824" lon="11.982941671338965" id="-19495">
		<tag k="alt_name" v="Mogård" />
		<tag k="name" v="Mogard" />
		<tag k="place" v="farm" />
		<tag k="ssr:stedsnr" v="68903" />
	</node>
	<node lat="61.11554166568212" lon="11.965022212968769" id="-19496">
		<tag k="name" v="Slettum" />
		<tag k="place" v="farm" />
		<tag k="ssr:stedsnr" v="68945" />
	</node>
	<node lat="61.07796666974575" lon="12.238424995491854" id="-19497">
		<tag k="name" v="Teigen" />
		<tag k="place" v="farm" />
		<tag k="ssr:stedsnr" v="68689" />
	</node>
	<node lat="61.08846388588512" lon="12.580783335771844" id="-19498">
		<tag k="name" v="Skjeftodden" />
		<tag k="place" v="farm" />
		<tag k="ssr:stedsnr" v="68695" />
	</node>
	<node lat="61.186374998576795" lon="12.541780553812185" id="-19499">
		<tag k="name" v="Rud" />
		<tag k="place" v="farm" />
		<tag k="ssr:stedsnr" v="68807" />
	</node>
	<node lat="61.039569448743705" lon="12.218011110949217" id="-19501">
		<tag k="alt_name" v="Munkakoia" />
		<tag k="name" v="Munka" />
		<tag k="place" v="isolated_dwelling" />
		<tag k="ssr:stedsnr" v="68894" />
	</node>
	<node lat="61.48934722254031" lon="11.803016657503152" id="-19502">
		<tag k="name" v="Lyngen" />
		<tag k="place" v="isolated_dwelling" />
		<tag k="ssr:stedsnr" v="69204" />
	</node>
	<node lat="61.28478889197359" lon="12.283030548108018" id="-19503">
		<tag k="alt_name" v="Tørmo" />
		<tag k="name" v="Tørrmo" />
		<tag k="place" v="farm" />
		<tag k="ssr:stedsnr" v="69295" />
	</node>
	<node lat="61.34476944556012" lon="12.752552774881957" id="-19504">
		<tag k="alt_name" v="Årkosa" />
		<tag k="historic" v="shieling" />
		<tag k="name" v="Årkåsa" />
		<tag k="place" v="isolated_dwelling" />
		<tag k="ssr:stedsnr" v="69439" />
	</node>
	<node lat="61.46643888857817" lon="12.244069450590352" id="-19506">
		<tag k="alt_name" v="Nyård" />
		<tag k="name" v="Nygard" />
		<tag k="place" v="farm" />
		<tag k="ssr:stedsnr" v="69607" />
	</node>
	<node lat="61.35653332937116" lon="11.964369452606782" id="-19507">
		<tag k="name" v="Høgtun" />
		<tag k="place" v="farm" />
		<tag k="ssr:stedsnr" v="69612" />
	</node>
	<node lat="61.36277221919763" lon="11.859583341737002" id="-19508">
		<tag k="name" v="Nybø" />
		<tag k="place" v="farm" />
		<tag k="ssr:stedsnr" v="69616" />
	</node>
	<node lat="61.25779579386347" lon="12.332445583230715" id="-19509">
		<tag k="alt_name" v="Østbakken" />
		<tag k="fixme" v="consider place=hamlet" />
		<tag k="name" v="Ytstbakken" />
		<tag k="place" v="farm" />
		<tag k="ssr:stedsnr" v="69380" />
	</node>
	<node lat="61.260907187805955" lon="12.811942777643695" id="-19510">
		<tag k="fixme" v="consider place=hamlet" />
		<tag k="name" v="Støa" />
		<tag k="place" v="farm" />
		<tag k="ssr:stedsnr" v="69398" />
	</node>
	<node lat="61.252213884562615" lon="12.018416671448277" id="-19511">
		<tag k="name" v="Neby" />
		<tag k="place" v="farm" />
		<tag k="ssr:stedsnr" v="69581" />
	</node>
	<node lat="61.479952777444325" lon="12.535352768759422" id="-19513">
		<tag k="alt_name" v="Dypflo" />
		<tag k="name" v="Djupflo" />
		<tag k="place" v="farm" />
		<tag k="ssr:stedsnr" v="69729" />
	</node>
	<node lat="61.4754444407974" lon="12.534438894971" id="-19514">
		<tag k="name" v="Nordby" />
		<tag k="place" v="farm" />
		<tag k="ssr:stedsnr" v="69731" />
	</node>
	<node lat="61.407419440381645" lon="12.152969446370816" id="-19515">
		<tag k="name" v="Nyvålen" />
		<tag k="place" v="farm" />
		<tag k="ssr:stedsnr" v="69901" />
	</node>
	<node lat="61.415338889394114" lon="12.146613879679363" id="-19516">
		<tag k="name" v="Vålen" />
		<tag k="place" v="farm" />
		<tag k="ssr:stedsnr" v="69902" />
	</node>
	<node lat="61.41600555824969" lon="12.121016658783198" id="-19518">
		<tag k="name" v="Småmyra" />
		<tag k="place" v="farm" />
		<tag k="ssr:stedsnr" v="69912" />
	</node>
	<node lat="61.392291666579375" lon="12.14141111332712" id="-19520">
		<tag k="name" v="Høgtun" />
		<tag k="place" v="farm" />
		<tag k="ssr:stedsnr" v="69932" />
	</node>
	<node lat="61.49161246894554" lon="12.116195570590893" id="-19523">
		<tag k="alt_name" v="Sandbakk" />
		<tag k="name" v="Sandbakken" />
		<tag k="place" v="farm" />
		<tag k="ssr:stedsnr" v="69840" />
	</node>
	<node lat="61.40393333541913" lon="12.043863887807698" id="-19525">
		<tag k="name" v="Hovde" />
		<tag k="place" v="locality" />
		<tag k="ssr:stedsnr" v="69897" />
	</node>
	<node lat="61.408095868284576" lon="12.065433022347067" id="-19526">
		<tag k="name" v="Øvre Skjæret" />
		<tag k="place" v="farm" />
		<tag k="ssr:stedsnr" v="69898" />
	</node>
	<node lat="61.407977776542104" lon="12.150836104915578" id="-19527">
		<tag k="name" v="Nydal" />
		<tag k="place" v="farm" />
		<tag k="ssr:stedsnr" v="69900" />
	</node>
	<node lat="61.5175388863416" lon="12.550163882598268" id="-19532">
		<tag k="historic" v="shieling" />
		<tag k="name" v="Fregnsætra" />
		<tag k="place" v="isolated_dwelling" />
		<tag k="ssr:stedsnr" v="71575" />
	</node>
	<node lat="61.52287200942412" lon="12.505700898357421" id="-19533">
		<tag k="alt_name" v="Røyningen" />
		<tag k="name" v="Rønningen" />
		<tag k="place" v="farm" />
		<tag k="ssr:stedsnr" v="71576" />
	</node>
	<node lat="61.51080051463886" lon="12.244835198320514" id="-19534">
		<tag k="name" v="Åtun" />
		<tag k="place" v="farm" />
		<tag k="ssr:stedsnr" v="71583" />
	</node>
	<node lat="61.34029722330823" lon="12.193963894893171" id="-19541">
		<tag k="name" v="Ingvaldstad" />
		<tag k="place" v="isolated_dwelling" />
		<tag k="ssr:stedsnr" v="87112" />
	</node>
	<node lat="61.3182027779062" lon="12.255436111826286" id="-19544">
		<tag k="name" v="Sundstøa" />
		<tag k="place" v="farm" />
		<tag k="ssr:stedsnr" v="87082" />
	</node>
	<node lat="61.18784999812344" lon="11.855311105046287" id="-19552">
		<tag k="leisure" v="pitch" />
		<tag k="name" v="Nordskråbakken" />
		<tag k="ssr:stedsnr" v="87604" />
	</node>
	<node lat="61.10664166956615" lon="11.992891663311193" id="-19565">
		<tag k="name" v="Sameia" />
		<tag k="place" v="neighbourhood" />
		<tag k="ssr:stedsnr" v="102021" />
	</node>
	<node lat="61.04210833653084" lon="12.234152778271925" id="-19567">
		<tag k="name" v="Klubbrud" />
		<tag k="place" v="isolated_dwelling" />
		<tag k="ssr:stedsnr" v="102370" />
	</node>
	<node lat="61.04171111314905" lon="12.24884445046419" id="-19568">
		<tag k="name" v="Patenten" />
		<tag k="place" v="isolated_dwelling" />
		<tag k="ssr:stedsnr" v="102372" />
	</node>
	<node lat="61.25198611280645" lon="12.038416663605044" id="-19575">
		<tag k="name" v="Høgtun" />
		<tag k="place" v="farm" />
		<tag k="ssr:stedsnr" v="102723" />
	</node>
	<node lat="61.22831110989919" lon="12.206986107126825" id="-19593">
		<tag k="name" v="Norddal" />
		<tag k="place" v="farm" />
		<tag k="ssr:stedsnr" v="250041" />
	</node>
	<node lat="61.148291667970675" lon="11.953133339110328" id="-19597">
		<tag k="alt_name" v="Ifarneset, s;Koia" />
		<tag k="name" v="Søndre Ifarneset" />
		<tag k="place" v="farm" />
		<tag k="ssr:stedsnr" v="250099" />
	</node>
	<node lat="61.15755555892524" lon="12.054569443522599" id="-19598">
		<tag k="alt_name" v="Endsrud" />
		<tag k="name" v="Ensrud" />
		<tag k="place" v="farm" />
		<tag k="ssr:stedsnr" v="250103" />
	</node>
	<node lat="61.15716944783093" lon="12.072416675784924" id="-19599">
		<tag k="name" v="Hemberget" />
		<tag k="place" v="farm" />
		<tag k="ssr:stedsnr" v="250106" />
	</node>
	<node lat="61.17632222662208" lon="12.104394441101931" id="-19602">
		<tag k="name" v="Bekkoskoia" />
		<tag k="place" v="isolated_dwelling" />
		<tag k="ssr:stedsnr" v="250074" />
	</node>
	<node lat="61.1873111153297" lon="11.85825277356373" id="-19604">
		<tag k="name" v="Gran" />
		<tag k="place" v="farm" />
		<tag k="ssr:stedsnr" v="250089" />
	</node>
	<node lat="61.154663889742466" lon="11.83468332833588" id="-19605">
		<tag k="historic" v="shieling" />
		<tag k="name" v="Villbekksætra" />
		<tag k="place" v="isolated_dwelling" />
		<tag k="ssr:stedsnr" v="250149" />
	</node>
	<node lat="61.16166389095119" lon="11.893575004699178" id="-19607">
		<tag k="name" v="Akre" />
		<tag k="place" v="farm" />
		<tag k="ssr:stedsnr" v="250119" />
	</node>
	<node lat="61.18103055636328" lon="12.192716664993114" id="-19608">
		<tag k="name" v="Bekk" />
		<tag k="place" v="farm" />
		<tag k="ssr:stedsnr" v="250121" />
	</node>
	<node lat="61.62110000413694" lon="11.89148333363787" id="-19611">
		<tag k="name" v="Søndre Øya" />
		<tag k="place" v="isolated_dwelling" />
		<tag k="ssr:stedsnr" v="114014" />
	</node>
	<node lat="61.51691944137384" lon="12.027697222910149" id="-19612">
		<tag k="name" v="Gammelhusdalen" />
		<tag k="place" v="isolated_dwelling" />
		<tag k="ssr:stedsnr" v="114016" />
	</node>
	<node lat="61.44206944313176" lon="12.146141670142732" id="-19615">
		<tag k="name" v="Moum" />
		<tag k="place" v="isolated_dwelling" />
		<tag k="ssr:stedsnr" v="114044" />
	</node>
	<node lat="61.43413332932524" lon="12.150424997393666" id="-19616">
		<tag k="alt_name" v="Vestre Øvergård" />
		<tag k="name" v="Vestre Øvergard" />
		<tag k="place" v="farm" />
		<tag k="ssr:stedsnr" v="114046" />
	</node>
	<node lat="61.069999997714355" lon="12.632586103923174" id="-19644">
		<tag k="name" v="Lyngdal" />
		<tag k="place" v="isolated_dwelling" />
		<tag k="ssr:stedsnr" v="250549" />
	</node>
	<node lat="61.076183335019465" lon="12.631883333539923" id="-19651">
		<tag k="name" v="Solvoll" />
		<tag k="place" v="farm" />
		<tag k="ssr:stedsnr" v="250536" />
	</node>
	<node lat="61.1382083312039" lon="12.637077784131746" id="-19655">
		<tag k="name" v="Storbrenna" />
		<tag k="place" v="isolated_dwelling" />
		<tag k="ssr:stedsnr" v="250555" />
	</node>
	<node lat="61.23155832955859" lon="12.664869451644845" id="-19661">
		<tag k="name" v="Berg" />
		<tag k="place" v="farm" />
		<tag k="ssr:stedsnr" v="250628" />
	</node>
	<node lat="61.24044722453597" lon="12.357025002324928" id="-19665">
		<tag k="name" v="Sveva" />
		<tag k="place" v="farm" />
		<tag k="ssr:stedsnr" v="116793" />
	</node>
	<node lat="61.13361944155105" lon="12.495666663028196" id="-19668">
		<tag k="name" v="Ås" />
		<tag k="place" v="isolated_dwelling" />
		<tag k="ssr:stedsnr" v="250717" />
	</node>
	<node lat="61.16016667075199" lon="12.541594436873833" id="-19669">
		<tag k="name" v="Sæter" />
		<tag k="place" v="farm" />
		<tag k="ssr:stedsnr" v="250736" />
	</node>
	<node lat="61.17390833467584" lon="12.521941663331619" id="-19676">
		<tag k="name" v="Østvang" />
		<tag k="place" v="farm" />
		<tag k="ssr:stedsnr" v="250764" />
	</node>
	<node lat="61.15873332922755" lon="12.484311117449868" id="-19678">
		<tag k="name" v="Skogvoll" />
		<tag k="place" v="farm" />
		<tag k="ssr:stedsnr" v="250769" />
	</node>
	<node lat="61.23393611463886" lon="12.498491666629127" id="-19684">
		<tag k="name" v="Bakketun" />
		<tag k="place" v="farm" />
		<tag k="ssr:stedsnr" v="250799" />
	</node>
	<node lat="61.210805559968136" lon="12.395055549361496" id="-19688">
		<tag k="name" v="Berg" />
		<tag k="place" v="farm" />
		<tag k="ssr:stedsnr" v="250819" />
	</node>
	<node lat="61.24706666934804" lon="12.338402777242951" id="-19690">
		<tag k="name" v="Rømoen" />
		<tag k="place" v="farm" />
		<tag k="ssr:stedsnr" v="250828" />
	</node>
	<node lat="61.23495278129651" lon="12.248008338364748" id="-19692">
		<tag k="name" v="Grønland" />
		<tag k="place" v="farm" />
		<tag k="ssr:stedsnr" v="250838" />
	</node>
	<node lat="61.07863610977796" lon="11.973936107541597" id="-19700">
		<tag k="name" v="Nordeng" />
		<tag k="place" v="farm" />
		<tag k="ssr:stedsnr" v="250897" />
	</node>
	<node lat="61.08796111395181" lon="12.105305564196861" id="-19701">
		<tag k="name" v="Vestli" />
		<tag k="place" v="farm" />
		<tag k="ssr:stedsnr" v="250904" />
	</node>
	<node lat="61.08934167037185" lon="12.10724167155254" id="-19702">
		<tag k="name" v="Koiegarden" />
		<tag k="place" v="farm" />
		<tag k="ssr:stedsnr" v="250905" />
	</node>
	<node lat="61.10405000310039" lon="12.200247221804329" id="-19708">
		<tag k="name" v="Lindgrenskoia" />
		<tag k="place" v="isolated_dwelling" />
		<tag k="ssr:stedsnr" v="250950" />
	</node>
	<node lat="61.109363885807205" lon="12.048741670839188" id="-19709">
		<tag k="name" v="Grylla" />
		<tag k="place" v="farm" />
		<tag k="ssr:stedsnr" v="250953" />
	</node>
	<node lat="61.133105559273" lon="11.981688887423692" id="-19711">
		<tag k="alt_name" v="Nordbrenden" />
		<tag k="name" v="Nordbrenna" />
		<tag k="place" v="farm" />
		<tag k="ssr:stedsnr" v="250966" />
	</node>
	<node lat="61.239177778457055" lon="12.024966667415029" id="-19715">
		<tag k="name" v="Granheim" />
		<tag k="place" v="farm" />
		<tag k="ssr:stedsnr" v="251004" />
	</node>
	<node lat="61.24185277842992" lon="12.019891664076138" id="-19716">
		<tag k="name" v="Grønli" />
		<tag k="place" v="farm" />
		<tag k="ssr:stedsnr" v="251011" />
	</node>
	<node lat="61.28667221905082" lon="12.58544165990313" id="-19725">
		<tag k="historic" v="shieling" />
		<tag k="name" v="Ørmorsætra" />
		<tag k="place" v="isolated_dwelling" />
		<tag k="ssr:stedsnr" v="251287" />
	</node>
	<node lat="61.30009999708649" lon="12.265424990487608" id="-19728">
		<tag k="name" v="Langeggen" />
		<tag k="place" v="farm" />
		<tag k="ssr:stedsnr" v="251335" />
	</node>
	<node lat="61.275238884991154" lon="12.796394451164902" id="-19730">
		<tag k="name" v="Vangli" />
		<tag k="place" v="farm" />
		<tag k="ssr:stedsnr" v="251393" />
	</node>
	<node lat="61.26289154447899" lon="12.80881686563093" id="-19732">
		<tag k="name" v="Nordgarden" />
		<tag k="place" v="farm" />
		<tag k="ssr:stedsnr" v="251402" />
	</node>
	<node lat="61.30335000261476" lon="12.745130562139325" id="-19733">
		<tag k="name" v="Skaftet" />
		<tag k="place" v="farm" />
		<tag k="ssr:stedsnr" v="251410" />
	</node>
	<node lat="61.37823055898711" lon="12.70722221458841" id="-19734">
		<tag k="name" v="Sandvik" />
		<tag k="place" v="farm" />
		<tag k="ssr:stedsnr" v="251348" />
	</node>
	<node lat="61.397600000990145" lon="12.648094444902531" id="-19735">
		<tag k="name" v="Strømstad" />
		<tag k="place" v="farm" />
		<tag k="ssr:stedsnr" v="251360" />
	</node>
	<node lat="61.25762222000401" lon="12.518033328051066" id="-19738">
		<tag k="name" v="Dalborg" />
		<tag k="place" v="farm" />
		<tag k="ssr:stedsnr" v="251381" />
	</node>
	<node lat="61.30208055897345" lon="12.20550000778983" id="-19742">
		<tag k="name" v="Ugla" />
		<tag k="place" v="isolated_dwelling" />
		<tag k="ssr:stedsnr" v="251522" />
	</node>
	<node lat="61.27368889255814" lon="12.170661117076115" id="-19746">
		<tag k="historic" v="shieling" />
		<tag k="name" v="Langbrukjølen" />
		<tag k="place" v="isolated_dwelling" />
		<tag k="ssr:stedsnr" v="251546" />
	</node>
	<node lat="61.489166666755175" lon="12.248686105474139" id="-19748">
		<tag k="name" v="Flenvoll" />
		<tag k="place" v="farm" />
		<tag k="ssr:stedsnr" v="251563" />
	</node>
	<node lat="61.29244722275526" lon="12.197900005060584" id="-19752">
		<tag k="historic" v="shieling" />
		<tag k="name" v="Kubekksætra" />
		<tag k="place" v="isolated_dwelling" />
		<tag k="ssr:stedsnr" v="251529" />
	</node>
	<node lat="61.34862499869804" lon="12.029711106794691" id="-19754">
		<tag k="name" v="Bristol" />
		<tag k="place" v="isolated_dwelling" />
		<tag k="ssr:stedsnr" v="251596" />
	</node>
	<node lat="61.327575001640206" lon="11.99720556000584" id="-19755">
		<tag k="alt_name" v="Tøråsen" />
		<tag k="name" v="Tørråsen" />
		<tag k="place" v="farm" />
		<tag k="ssr:stedsnr" v="251610" />
	</node>
	<node lat="61.22085000126129" lon="12.785808335199986" id="-19759">
		<tag k="alt_name" v="Moberget, s" />
		<tag k="name" v="Søndre Moberget" />
		<tag k="place" v="farm" />
		<tag k="ssr:stedsnr" v="251653" />
	</node>
	<node lat="61.37293889037287" lon="12.308455562216862" id="-19760">
		<tag k="name" v="Båstad" />
		<tag k="place" v="farm" />
		<tag k="ssr:stedsnr" v="251656" />
	</node>
	<node lat="61.36273333288819" lon="12.303919440396283" id="-19766">
		<tag k="alt_name" v="Åseth" />
		<tag k="name" v="Åset" />
		<tag k="place" v="farm" />
		<tag k="ssr:stedsnr" v="251679" />
	</node>
	<node lat="61.46182500320123" lon="12.241511111273612" id="-19774">
		<tag k="name" v="Mo" />
		<tag k="place" v="farm" />
		<tag k="ssr:stedsnr" v="251720" />
	</node>
	<node lat="61.462797224880646" lon="12.259797216421632" id="-19775">
		<tag k="name" v="Granåsen" />
		<tag k="place" v="hamlet" />
		<tag k="ssr:stedsnr" v="251729" />
	</node>
	<node lat="61.48288770412885" lon="11.931796655556742" id="-19776">
		<tag k="fixme" v="consider place=hamlet" />
		<tag k="name" v="Eltdalen" />
		<tag k="place" v="farm" />
		<tag k="ssr:stedsnr" v="251814" />
	</node>
	<node lat="61.41864999609549" lon="12.377977784439148" id="-19777">
		<tag k="name" v="Nylund" />
		<tag k="place" v="farm" />
		<tag k="ssr:stedsnr" v="251748" />
	</node>
	<node lat="61.40584999928939" lon="12.173927784610182" id="-19784">
		<tag k="name" v="Eltosvollen" />
		<tag k="place" v="farm" />
		<tag k="ssr:stedsnr" v="251915" />
	</node>
	<node lat="61.415533332684944" lon="12.131394435815281" id="-19785">
		<tag k="alt_name" v="Flatsætra" />
		<tag k="name" v="Flatsæter" />
		<tag k="place" v="farm" />
		<tag k="ssr:stedsnr" v="251924" />
	</node>
	<node lat="61.44082777679353" lon="12.127683338655517" id="-19789">
		<tag k="name" v="Holla" />
		<tag k="place" v="farm" />
		<tag k="ssr:stedsnr" v="251998" />
	</node>
	<node lat="61.47916388757077" lon="12.128197223679551" id="-19791">
		<tag k="name" v="Rønes" />
		<tag k="place" v="farm" />
		<tag k="ssr:stedsnr" v="251978" />
	</node>
	<node lat="61.48061111418057" lon="12.129777784424686" id="-19792">
		<tag k="name" v="Myrvang" />
		<tag k="place" v="farm" />
		<tag k="ssr:stedsnr" v="251980" />
	</node>
	<node lat="61.223213888554845" lon="12.045863896658942" id="-19794">
		<tag k="name" v="Kleve" />
		<tag k="place" v="farm" />
		<tag k="ssr:stedsnr" v="128040" />
	</node>
	<node lat="61.23757777351033" lon="12.516461118335641" id="-19797">
		<tag k="name" v="Granheim" />
		<tag k="place" v="farm" />
		<tag k="ssr:stedsnr" v="128809" />
	</node>
	<node lat="61.149541667330276" lon="12.079627768844093" id="-19800">
		<tag k="name" v="Fjellbu" />
		<tag k="place" v="farm" />
		<tag k="ssr:stedsnr" v="129113" />
	</node>
	<node lat="61.21392222154489" lon="12.389783330220103" id="-19801">
		<tag k="name" v="Hegg" />
		<tag k="place" v="farm" />
		<tag k="ssr:stedsnr" v="128838" />
	</node>
	<node lat="61.18026666864943" lon="12.096280548885494" id="-19804">
		<tag k="name" v="Damkoiene" />
		<tag k="place" v="isolated_dwelling" />
		<tag k="ssr:stedsnr" v="129090" />
	</node>
	<node lat="61.27147222061544" lon="12.39860278400746" id="-19805">
		<tag k="name" v="Nordbø" />
		<tag k="place" v="farm" />
		<tag k="ssr:stedsnr" v="129282" />
	</node>
	<node lat="61.516749997618795" lon="12.507788895551807" id="-19809">
		<tag k="name" v="Strand" />
		<tag k="place" v="farm" />
		<tag k="ssr:stedsnr" v="252484" />
	</node>
	<node lat="61.38021389207885" lon="12.68924999627143" id="-19810">
		<tag k="name" v="Bekkelund" />
		<tag k="place" v="farm" />
		<tag k="ssr:stedsnr" v="129318" />
	</node>
	<node lat="61.22197778191826" lon="11.81077499214773" id="-19811">
		<tag k="name" v="Åset" />
		<tag k="place" v="farm" />
		<tag k="ssr:stedsnr" v="129338" />
	</node>
	<node lat="61.26986667005715" lon="12.678855552310093" id="-19814">
		<tag k="name" v="Hornkoia" />
		<tag k="place" v="isolated_dwelling" />
		<tag k="ssr:stedsnr" v="129380" />
	</node>
	<node lat="61.3002575517464" lon="12.733055793643251" id="-19815">
		<tag k="name" v="Gjervollsætra" />
		<tag k="place" v="hamlet" />
		<tag k="ssr:stedsnr" v="129393" />
	</node>
	<node lat="61.28824999916361" lon="12.687102775378728" id="-19816">
		<tag k="historic" v="shieling" />
		<tag k="name" v="Hollsætra" />
		<tag k="place" v="isolated_dwelling" />
		<tag k="ssr:stedsnr" v="129397" />
	</node>
	<node lat="61.243080557502495" lon="12.712638888458523" id="-19819">
		<tag k="name" v="Damkoia" />
		<tag k="place" v="isolated_dwelling" />
		<tag k="ssr:stedsnr" v="129625" />
	</node>
	<node lat="61.49846388768763" lon="12.045644440998947" id="-19824">
		<tag k="alt_name" v="Gammelsætervangen" />
		<tag k="name" v="Gamlesætervangen" />
		<tag k="place" v="locality" />
		<tag k="ssr:stedsnr" v="129812" />
	</node>
	<node lat="61.24878888742408" lon="12.345602782954202" id="-19825">
		<tag k="name" v="Åsvang" />
		<tag k="place" v="isolated_dwelling" />
		<tag k="ssr:stedsnr" v="129850" />
	</node>
	<node lat="61.23818888576545" lon="12.344230560690962" id="-19827">
		<tag k="name" v="Klingenberg" />
		<tag k="place" v="farm" />
		<tag k="ssr:stedsnr" v="129854" />
	</node>
	<node lat="61.24237777980747" lon="12.353924995048954" id="-19828">
		<tag k="name" v="Li" />
		<tag k="place" v="isolated_dwelling" />
		<tag k="ssr:stedsnr" v="129856" />
	</node>
	<node lat="61.09819166750983" lon="12.420649997697897" id="-19829">
		<tag k="name" v="Gammelsaga" />
		<tag k="place" v="isolated_dwelling" />
		<tag k="ssr:stedsnr" v="129704" />
	</node>
	<node lat="61.46967500072864" lon="12.291169452062075" id="-19830">
		<tag k="name" v="Lund" />
		<tag k="place" v="farm" />
		<tag k="ssr:stedsnr" v="129716" />
	</node>
	<node lat="61.43627500368653" lon="12.334213886340601" id="-19834">
		<tag k="name" v="Bakksætra" />
		<tag k="place" v="farm" />
		<tag k="ssr:stedsnr" v="129723" />
	</node>
	<node lat="61.118349999933834" lon="12.532300008725391" id="-19835">
		<tag k="name" v="Fosseng" />
		<tag k="place" v="farm" />
		<tag k="ssr:stedsnr" v="129725" />
	</node>
	<node lat="61.46342361064176" lon="12.557275562384556" id="-19836">
		<tag k="alt_name" v="Floden" />
		<tag k="name" v="Floen" />
		<tag k="place" v="farm" />
		<tag k="ssr:stedsnr" v="129734" />
	</node>
	<node lat="61.17226388966842" lon="12.518816675923846" id="-19838">
		<tag k="name" v="Kjølstad" />
		<tag k="place" v="farm" />
		<tag k="ssr:stedsnr" v="129776" />
	</node>
	<node lat="61.198108330188695" lon="12.51088334180802" id="-19841">
		<tag k="name" v="Nordli" />
		<tag k="place" v="farm" />
		<tag k="ssr:stedsnr" v="129793" />
	</node>
	<node lat="61.210097226137435" lon="12.548513882664619" id="-19842">
		<tag k="name" v="Stornesdammen" />
		<tag k="place" v="isolated_dwelling" />
		<tag k="ssr:stedsnr" v="129794" />
	</node>
	<node lat="61.47471110934364" lon="11.95057776847822" id="-19843">
		<tag k="name" v="Bråtebekk" />
		<tag k="place" v="farm" />
		<tag k="ssr:stedsnr" v="129795" />
	</node>
	<node lat="61.540886115291386" lon="12.253866659173525" id="-19846">
		<tag k="name" v="Bryn" />
		<tag k="place" v="farm" />
		<tag k="ssr:stedsnr" v="252504" />
	</node>
	<node lat="61.52601407881248" lon="12.367129460607286" id="-19848">
		<tag k="name" v="Drevdalen" />
		<tag k="place" v="farm" />
		<tag k="ssr:stedsnr" v="252509" />
	</node>
	<node lat="61.39618611289914" lon="12.171497231261405" id="-19849">
		<tag k="name" v="Rud" />
		<tag k="place" v="farm" />
		<tag k="ssr:stedsnr" v="129929" />
	</node>
	<node lat="61.39896111070062" lon="12.168438886448643" id="-19850">
		<tag k="name" v="Øyvang" />
		<tag k="place" v="farm" />
		<tag k="ssr:stedsnr" v="129930" />
	</node>
	<node lat="61.12101685501942" lon="12.06754223779241" id="-19853">
		<tag k="alt_name" v="Mellemberg" />
		<tag k="name" v="Mellomberget" />
		<tag k="place" v="farm" />
		<tag k="ssr:stedsnr" v="129995" />
	</node>
	<node lat="61.39477500238701" lon="12.658908328316185" id="-19857">
		<tag k="name" v="Mora" />
		<tag k="place" v="farm" />
		<tag k="ssr:stedsnr" v="130302" />
	</node>
	<node lat="61.413094443754915" lon="12.618300002012141" id="-19860">
		<tag k="name" v="Drevjesætra" />
		<tag k="place" v="farm" />
		<tag k="ssr:stedsnr" v="130310" />
	</node>
	<node lat="61.26246388898245" lon="12.135461114240568" id="-19861">
		<tag k="name" v="Majorstua" />
		<tag k="place" v="isolated_dwelling" />
		<tag k="ssr:stedsnr" v="130505" />
	</node>
	<node lat="61.48969722196047" lon="12.253663880800119" id="-19864">
		<tag k="alt_name" v="Tjørnåsen" />
		<tag k="name" v="Tjønnåsen" />
		<tag k="place" v="farm" />
		<tag k="ssr:stedsnr" v="130529" />
	</node>
	<node lat="61.30591389120224" lon="12.252752775596177" id="-19865">
		<tag k="name" v="Vestadbakken" />
		<tag k="place" v="quarter" />
		<tag k="ssr:stedsnr" v="130279" />
	</node>
	<node lat="61.369852775996435" lon="11.860830557740247" id="-19868">
		<tag k="name" v="Nor" />
		<tag k="place" v="farm" />
		<tag k="ssr:stedsnr" v="130915" />
	</node>
	<node lat="61.54624722217801" lon="12.161974993466888" id="-19869">
		<tag k="historic" v="shieling" />
		<tag k="name" v="Rypåssætra" />
		<tag k="place" v="isolated_dwelling" />
		<tag k="ssr:stedsnr" v="252583" />
	</node>
	<node lat="61.42034444184041" lon="12.099022213006647" id="-19870">
		<tag k="alt_name" v="Nygård" />
		<tag k="name" v="Nygard" />
		<tag k="place" v="farm" />
		<tag k="ssr:stedsnr" v="130975" />
	</node>
</osm>
