<?xml version="1.0" encoding="UTF-8"?>
<osm generator="osmapis" version="0.6">
	<node id="-323711" lat="61.0572833344" lon="12.4704277771">
		<tag k="highway" v="path" />
		<tag k="name" v="Storbergsvegen" />
		<tag k="ssr:stedsnr" v="403520" />
	</node>
	<node id="-323326" lat="61.3047888914" lon="12.7528916582">
		<tag k="highway" v="path" />
		<tag k="name" v="Gammelvegen" />
		<tag k="ssr:stedsnr" v="479500" />
	</node>
	<node id="-322301" lat="61.167436109" lon="12.1420944394">
		<tag k="highway" v="path" />
		<tag k="name" v="Gamle Trysilveg" />
		<tag k="ssr:stedsnr" v="239498" />
	</node>
	<node id="-324091" lat="61.260891665" lon="12.6792472247">
		<tag k="highway" v="path" />
		<tag k="name" v="Hollsætervegen" />
		<tag k="ssr:stedsnr" v="666920" />
	</node>
	<node id="-323064" lat="61.1097777781" lon="12.5412638977">
		<tag k="fixme" v="consider highway=path" />
		<tag k="highway" v="track" />
		<tag k="name" v="Grønengvegen" />
		<tag k="ssr:stedsnr" v="241365" />
	</node>
	<node id="-323063" lat="61.1408472233" lon="12.5820944395">
		<tag k="fixme" v="consider highway=path" />
		<tag k="highway" v="track" />
		<tag k="name" v="Hundshøgdvegen" />
		<tag k="ssr:stedsnr" v="241360" />
	</node>
	<node id="-322806" lat="61.0877666698" lon="12.6777944488">
		<tag k="fixme" v="consider highway=path" />
		<tag k="highway" v="track" />
		<tag k="name" v="Borveggvegen" />
		<tag k="ssr:stedsnr" v="284994" />
	</node>
	<node id="-322025" lat="61.2053333293" lon="12.6298499952">
		<tag k="fixme" v="consider highway=path" />
		<tag k="highway" v="track" />
		<tag k="name" v="Stormyrvegen" />
		<tag k="ssr:stedsnr" v="222956" />
	</node>
	<node id="-323390" lat="61.2606277812" lon="12.3963861033">
		<tag k="fixme" v="consider highway=path" />
		<tag k="highway" v="track" />
		<tag k="name" v="Nordre Kolovegen" />
		<tag k="ssr:stedsnr" v="484196" />
	</node>
	<node id="-323826" lat="61.1058083362" lon="12.3840583408">
		<tag k="fixme" v="consider highway=path" />
		<tag k="highway" v="track" />
		<tag k="name" v="Nevagrøtvegen" />
		<tag k="ssr:stedsnr" v="423139" />
	</node>
	<node id="-323824" lat="61.1802638869" lon="12.1546861171">
		<tag k="highway" v="path" />
		<tag k="name" v="Buførsvegen" />
		<tag k="ssr:stedsnr" v="422907" />
	</node>
	<node id="-323693" lat="61.1311583298" lon="11.8846777778">
		<tag k="highway" v="path" />
		<tag k="name" v="Vinterveglea" />
		<tag k="ssr:stedsnr" v="390503" />
	</node>
	<node id="-322028" lat="61.1603444483" lon="12.4421527783">
		<tag k="fixme" v="consider highway=path" />
		<tag k="highway" v="track" />
		<tag k="name" v="Plassvegen" />
		<tag k="ssr:stedsnr" v="223700" />
	</node>
	<node id="-323177" lat="61.0680111132" lon="12.6269777783">
		<tag k="fixme" v="consider highway=path" />
		<tag k="highway" v="track" />
		<tag k="name" v="Lutukrokvegen" />
		<tag k="ssr:stedsnr" v="466948" />
	</node>
	<node id="-322149" lat="61.4247666668" lon="12.6678277842">
		<tag k="highway" v="path" />
		<tag k="name" v="Bjønnmorsætervegen" />
		<tag k="ssr:stedsnr" v="235618" />
	</node>
	<node id="-323299" lat="61.3907555586" lon="12.7093166584">
		<tag k="highway" v="path" />
		<tag k="name" v="Måsavegen" />
		<tag k="ssr:stedsnr" v="478688" />
	</node>
	<node id="-322657" lat="61.2731999956" lon="12.2747222232">
		<tag k="highway" v="path" />
		<tag k="name" v="Gamle Trysilveg" />
		<tag k="ssr:stedsnr" v="269025" />
	</node>
	<node id="-324064" lat="61.109066665" lon="12.3014388797">
		<tag k="fixme" v="consider highway=path" />
		<tag k="highway" v="track" />
		<tag k="name" v="Vesteråsvegen" />
		<tag k="ssr:stedsnr" v="665358" />
	</node>
	<node id="-322783" lat="61.2903611126" lon="12.5814916729">
		<tag k="fixme" v="consider highway=path" />
		<tag k="highway" v="track" />
		<tag k="name" v="Ørnmorsætervegen" />
		<tag k="ssr:stedsnr" v="284675" />
	</node>
	<node id="-323035" lat="61.2096583302" lon="12.5480916614">
		<tag k="bridge" v="yes" />
		<tag k="layer" v="1" />
		<tag k="name" v="Vestre Grøna" />
		<tag k="ssr:stedsnr" v="228775" />
	</node>
	<node id="-323034" lat="61.1902000008" lon="12.4424472212">
		<tag k="bridge" v="yes" />
		<tag k="layer" v="1" />
		<tag k="name" v="Kolos bru" />
		<tag k="ssr:stedsnr" v="228758" />
	</node>
	<node id="-322264" lat="61.1084666659" lon="12.6020499987">
		<tag k="fixme" v="consider highway=path" />
		<tag k="highway" v="track" />
		<tag k="name" v="Kaldbergsvegen" />
		<tag k="ssr:stedsnr" v="55351" />
	</node>
	<node id="-323027" lat="61.2329250029" lon="12.3417555565">
		<tag k="fixme" v="consider highway=path" />
		<tag k="highway" v="track" />
		<tag k="name" v="Svenskvegen" />
		<tag k="ssr:stedsnr" v="298736" />
	</node>
	<node id="-323361" lat="61.2004638879" lon="12.4714749973">
		<tag k="fixme" v="consider highway=path" />
		<tag k="highway" v="track" />
		<tag k="name" v="Fallvegen" />
		<tag k="ssr:stedsnr" v="481930" />
	</node>
	<node id="-323150" lat="61.1480694406" lon="12.5593722125">
		<tag k="highway" v="path" />
		<tag k="name" v="Granlivegen" />
		<tag k="ssr:stedsnr" v="465380" />
	</node>
	<node id="-323148" lat="61.2173333359" lon="12.7299000018">
		<tag k="fixme" v="consider highway=path" />
		<tag k="highway" v="track" />
		<tag k="name" v="Fugllekvegen" />
		<tag k="ssr:stedsnr" v="464789" />
	</node>
	<node id="-324043" lat="61.2478416702" lon="12.5182055559">
		<tag k="bridge" v="yes" />
		<tag k="layer" v="1" />
		<tag k="name" v="Israelsbrua" />
		<tag k="ssr:stedsnr" v="664432" />
	</node>
	<node id="-324170" lat="61.2488486779" lon="12.5690338954">
		<tag k="fixme" v="consider highway=path" />
		<tag k="highway" v="track" />
		<tag k="name" v="Rismyrvegen" />
		<tag k="ssr:stedsnr" v="482012" />
	</node>
	<node id="-322760" lat="61.1519353767" lon="12.6630683054">
		<tag k="fixme" v="consider highway=path" />
		<tag k="highway" v="track" />
		<tag k="name" v="Kvetjønnvegen" />
		<tag k="ssr:stedsnr" v="283139" />
	</node>
	<node id="-323276" lat="61.5247138894" lon="12.0508361126">
		<tag k="highway" v="path" />
		<tag k="name" v="Sennsjøen - Gamle Fiskevannsveg" />
		<tag k="ssr:stedsnr" v="478034" />
	</node>
	<node id="-321990" lat="61.0972972248" lon="12.561344452">
		<tag k="fixme" v="consider highway=path" />
		<tag k="highway" v="track" />
		<tag k="name" v="Storbrennvegen" />
		<tag k="ssr:stedsnr" v="222054" />
	</node>
	<node id="-322273" lat="61.1711055528" lon="12.4633861022">
		<tag k="fixme" v="consider highway=path" />
		<tag k="highway" v="track" />
		<tag k="name" v="Ålibekkvegen" />
		<tag k="ssr:stedsnr" v="237654" />
	</node>
	<node id="-324036" lat="61.1508444474" lon="12.097291659">
		<tag k="highway" v="path" />
		<tag k="name" v="Øvre Tørkhustjønnvegen" />
		<tag k="ssr:stedsnr" v="664472" />
	</node>
	<node id="-322294" lat="61.2160500032" lon="12.0623972198">
		<tag k="highway" v="path" />
		<tag k="name" v="Almenvegen" />
		<tag k="ssr:stedsnr" v="239295" />
	</node>
	<node id="-323467" lat="61.2211527744" lon="12.3465055559">
		<tag k="fixme" v="consider highway=path" />
		<tag k="highway" v="track" />
		<tag k="name" v="Hemsætervegen" />
		<tag k="ssr:stedsnr" v="362725" />
	</node>
	<node id="-324160" lat="61.1013416707" lon="12.6284777718">
		<tag k="fixme" v="consider highway=path" />
		<tag k="highway" v="track" />
		<tag k="name" v="Bustmyrvegen" />
		<tag k="ssr:stedsnr" v="480305" />
	</node>
	<node id="-323360" lat="61.2046833305" lon="12.4759055624">
		<tag k="highway" v="path" />
		<tag k="name" v="Matbrennvegen" />
		<tag k="ssr:stedsnr" v="481918" />
	</node>
	<node id="-324158" lat="61.1706861075" lon="12.4804777741">
		<tag k="highway" v="path" />
		<tag k="name" v="Sagnøyvegen" />
		<tag k="ssr:stedsnr" v="479664" />
	</node>
	<node id="-323385" lat="61.223141671" lon="12.5034805531">
		<tag k="fixme" v="consider highway=path" />
		<tag k="highway" v="track" />
		<tag k="name" v="Tangfallvegen" />
		<tag k="ssr:stedsnr" v="483620" />
	</node>
	<node id="-322744" lat="61.1994305519" lon="12.5347222131">
		<tag k="fixme" v="consider highway=path" />
		<tag k="highway" v="track" />
		<tag k="name" v="Høgfinnfallvegen" />
		<tag k="ssr:stedsnr" v="163763" />
	</node>
	<node id="-322823" lat="61.1440833356" lon="12.5817166622">
		<tag k="fixme" v="consider highway=path" />
		<tag k="highway" v="track" />
		<tag k="name" v="Kopparbergsvegen" />
		<tag k="ssr:stedsnr" v="180355" />
	</node>
	<node id="-323762" lat="61.2554416703" lon="12.3327333302">
		<tag k="landuse" v="industrial" />
		<tag k="name" v="Nybergsund trafostasjon" />
		<tag k="power" v="plant" />
		<tag k="ssr:stedsnr" v="511341" />
	</node>
	<node id="-324015" lat="61.2319250017" lon="12.3769749945">
		<tag k="fixme" v="consider highway=path" />
		<tag k="highway" v="track" />
		<tag k="name" v="Digerbergsvegen" />
		<tag k="ssr:stedsnr" v="662802" />
	</node>
	<node id="-323756" lat="61.3120694443" lon="12.0919222237">
		<tag k="highway" v="path" />
		<tag k="name" v="Øvre Entjønnvegen" />
		<tag k="ssr:stedsnr" v="511305" />
	</node>
	<node id="-322731" lat="61.1455750004" lon="12.2767361019">
		<tag k="fixme" v="consider highway=path" />
		<tag k="highway" v="track" />
		<tag k="name" v="Fønsbergvegen" />
		<tag k="ssr:stedsnr" v="163513" />
	</node>
	<node id="-322986" lat="61.3930222228" lon="12.7057805613">
		<tag k="highway" v="path" />
		<tag k="name" v="Brynvegen" />
		<tag k="ssr:stedsnr" v="297668" />
	</node>
	<node id="-323399" lat="61.2034111111" lon="12.7103277825">
		<tag k="fixme" v="consider highway=path" />
		<tag k="highway" v="track" />
		<tag k="name" v="Hanssætervegen" />
		<tag k="ssr:stedsnr" v="484914" />
	</node>
	<node id="-324135" lat="61.3832666678" lon="12.4755694409">
		<tag k="highway" v="path" />
		<tag k="name" v="Ljørdalsvegen" />
		<tag k="ssr:stedsnr" v="478320" />
	</node>
	<node id="-324006" lat="61.0619055589" lon="12.4685249984">
		<tag k="highway" v="path" />
		<tag k="name" v="Storbergsvegen" />
		<tag k="ssr:stedsnr" v="662001" />
	</node>
	<node id="-322311" lat="61.0688249986" lon="12.623119436">
		<tag k="fixme" v="consider highway=path" />
		<tag k="highway" v="track" />
		<tag k="name" v="Lulukrokvegen" />
		<tag k="ssr:stedsnr" v="240171" />
	</node>
	<node id="-322669" lat="61.1803250033" lon="11.8585861161">
		<tag k="highway" v="path" />
		<tag k="name" v="Sætervegen" />
		<tag k="ssr:stedsnr" v="269636" />
	</node>
	<node id="-323363" lat="61.1687250014" lon="11.9424527827">
		<tag k="highway" v="path" />
		<tag k="name" v="Nordbergsætervegen" />
		<tag k="ssr:stedsnr" v="482144" />
	</node>
	<node id="-324129" lat="61.4139388849" lon="11.9583222218">
		<tag k="highway" v="path" />
		<tag k="name" v="Kvennfallvegen" />
		<tag k="ssr:stedsnr" v="478253" />
	</node>
	<node id="-323744" lat="61.3414416657" lon="12.160199995">
		<tag k="highway" v="path" />
		<tag k="name" v="Prestvegen" />
		<tag k="ssr:stedsnr" v="511129" />
	</node>
	<node id="-322079" lat="61.3128416655" lon="12.3294833395">
		<tag k="highway" v="path" />
		<tag k="name" v="Lørasbakka" />
		<tag k="ssr:stedsnr" v="40056" />
	</node>
	<node id="-323358" lat="61.4152871354" lon="12.6435674093">
		<tag k="fixme" v="consider highway=path" />
		<tag k="highway" v="track" />
		<tag k="name" v="Skjæråsvegen" />
		<tag k="ssr:stedsnr" v="481128" />
	</node>
	<node id="-321989" lat="61.3140472187" lon="12.3337611093">
		<tag k="fixme" v="consider highway=path" />
		<tag k="highway" v="track" />
		<tag k="name" v="Støpvegen" />
		<tag k="ssr:stedsnr" v="222040" />
	</node>
	<node id="-322714" lat="61.3132444485" lon="12.3770916748">
		<tag k="highway" v="path" />
		<tag k="name" v="Svarttjønnsætervegen" />
		<tag k="ssr:stedsnr" v="161054" />
	</node>
	<node id="-323226" lat="61.2485361146" lon="11.987947229">
		<tag k="bridge" v="yes" />
		<tag k="layer" v="1" />
		<tag k="name" v="Kvernbekken" />
		<tag k="ssr:stedsnr" v="471714" />
	</node>
	<node id="-322841" lat="61.0654388847" lon="12.6278555476">
		<tag k="bridge" v="yes" />
		<tag k="layer" v="1" />
		<tag k="name" v="Øvre Lutåen" />
		<tag k="ssr:stedsnr" v="289792" />
	</node>
	<node id="-322756" lat="61.093641663" lon="12.5934555466">
		<tag k="fixme" v="consider highway=path" />
		<tag k="highway" v="track" />
		<tag k="name" v="Fuggelstolvegen" />
		<tag k="ssr:stedsnr" v="283096" />
	</node>
	<node id="-322837" lat="61.2545333341" lon="12.7465527783">
		<tag k="highway" v="path" />
		<tag k="name" v="Kjølvegen" />
		<tag k="ssr:stedsnr" v="285578" />
	</node>
	<node id="-322196" lat="61.4270888929" lon="12.2959416624">
		<tag k="highway" v="path" />
		<tag k="name" v="Flenstigen" />
		<tag k="ssr:stedsnr" v="236793" />
	</node>
	<node id="-322115" lat="61.465369447" lon="12.5624027714">
		<tag k="fixme" v="consider highway=path" />
		<tag k="highway" v="track" />
		<tag k="name" v="Killinghusmyrvegen" />
		<tag k="ssr:stedsnr" v="235051" />
	</node>
	<node id="-323213" lat="61.0710666643" lon="12.5816027706">
		<tag k="fixme" v="consider highway=path" />
		<tag k="highway" v="track" />
		<tag k="name" v="Storbrennåsvegen" />
		<tag k="ssr:stedsnr" v="301156" />
	</node>
	<node id="-322060" lat="61.2902388907" lon="12.2891111062">
		<tag k="highway" v="path" />
		<tag k="name" v="Gammelvegen" />
		<tag k="ssr:stedsnr" v="26031" />
	</node>
	<node id="-324107" lat="61.1563611118" lon="12.1903583314">
		<tag k="highway" v="path" />
		<tag k="name" v="Østre Sætervegen" />
		<tag k="ssr:stedsnr" v="466571" />
	</node>
	<node id="-322056" lat="61.4233055527" lon="12.7013249949">
		<tag k="highway" v="path" />
		<tag k="name" v="Særnvegen" />
		<tag k="ssr:stedsnr" v="22911" />
	</node>
	<node id="-324103" lat="61.2095388886" lon="12.6409361034">
		<tag k="fixme" v="consider highway=path" />
		<tag k="highway" v="track" />
		<tag k="name" v="Tannheimsvegen" />
		<tag k="ssr:stedsnr" v="465765" />
	</node>
	<node id="-322246" lat="61.4088444434" lon="12.3877055539">
		<tag k="highway" v="path" />
		<tag k="name" v="Grønbergsvegen" />
		<tag k="ssr:stedsnr" v="54355" />
	</node>
	<node id="-322052" lat="61.0739916689" lon="12.6750083413">
		<tag k="fixme" v="consider highway=path" />
		<tag k="highway" v="track" />
		<tag k="name" v="Orrlekvegen" />
		<tag k="ssr:stedsnr" v="224947" />
	</node>
	<node id="-323458" lat="61.2551083365" lon="12.1804527761">
		<tag k="highway" v="path" />
		<tag k="name" v="Storknausvegen" />
		<tag k="ssr:stedsnr" v="361927" />
	</node>
</osm>
