<?xml version="1.0" encoding="UTF-8"?>
<osm version="0.6" generator="osmapis">
	<node lat="61.6402426504628" lon="12.275628462162366" id="-17254">
		<tag k="historic" v="boundary_stone" />
		<tag k="loc_name" v="Litlfjellsrøysa" />
		<tag k="man_made" v="cairn" />
		<tag k="name" v="Lillefjellsrøysa" />
		<tag k="old_name" v="Lislefjelds Røset" />
		<tag k="place" v="locality" />
		<tag k="ssr:stedsnr" v="231013" />
	</node>
	<node lat="61.56711666872316" lon="12.446594450905637" id="-17255">
		<tag k="historic" v="boundary_stone" />
		<tag k="man_made" v="cairn" />
		<tag k="name" v="Kvernkilderøysa" />
		<tag k="old_name" v="Qvarnkilde Røset" />
		<tag k="place" v="locality" />
		<tag k="ssr:stedsnr" v="231024" />
	</node>
	<node lat="61.22182277181159" lon="11.88754893738467" id="-17256">
		<tag k="alt_name" v="Søhaugen" />
		<tag k="fixme" v="multiple name tags, choose one and add the other to alt_name" />
		<tag k="name" v="Sørhaugen;Søre Gjevaldshaugen" />
		<tag k="place" v="farm" />
		<tag k="ssr:stedsnr" v="7061" />
	</node>
	<node lat="61.24767985487263" lon="12.046635380572463" id="-17257">
		<tag k="alt_name" v="Mellem Vestby" />
		<tag k="fixme" v="consider place=hamlet" />
		<tag k="name" v="Mellom-Vestby" />
		<tag k="place" v="farm" />
		<tag k="ssr:stedsnr" v="7005" />
	</node>
	<node lat="61.20204444490201" lon="12.038836108912891" id="-17258">
		<tag k="alt_name" v="Løvknuvlen" />
		<tag k="fixme" v="consider natural=peak for the most distinct mountains in the district" />
		<tag k="name" v="Løvknulen" />
		<tag k="natural" v="hill" />
		<tag k="place" v="locality" />
		<tag k="ssr:stedsnr" v="7102" />
	</node>
	<node lat="61.18422499719553" lon="11.727600006387883" id="-17259">
		<tag k="alt_name" v="Nordre Tverr-Ulvåa" />
		<tag k="name" v="Tverråa" />
		<tag k="ssr:stedsnr" v="7349" />
		<tag k="waterway" v="stream" />
	</node>
	<node lat="61.15314166878442" lon="11.876047218824839" id="-17260">
		<tag k="fixme" v="consider natural=peak for the most distinct mountains in the district" />
		<tag k="name" v="Halvorsberget" />
		<tag k="natural" v="hill" />
		<tag k="place" v="locality" />
		<tag k="ssr:stedsnr" v="7362" />
	</node>
	<node lat="61.13703055769165" lon="12.324802769240485" id="-17261">
		<tag k="name" v="Kråktjønna" />
		<tag k="natural" v="water" />
		<tag k="ssr:stedsnr" v="7709" />
	</node>
	<node lat="61.14836667044809" lon="12.46779166663808" id="-17262">
		<tag k="alt_name" v="Mandfloen" />
		<tag k="name" v="Mannfloen" />
		<tag k="place" v="farm" />
		<tag k="ssr:stedsnr" v="7713" />
	</node>
	<node lat="61.150575002061736" lon="12.580180553679808" id="-17263">
		<tag k="name" v="Kopparberget" />
		<tag k="natural" v="hill" />
		<tag k="place" v="locality" />
		<tag k="ssr:stedsnr" v="7717" />
	</node>
	<node lat="61.156311109032536" lon="12.589150003805559" id="-17264">
		<tag k="name" v="Kukkora" />
		<tag k="natural" v="hill" />
		<tag k="place" v="locality" />
		<tag k="ssr:stedsnr" v="7718" />
	</node>
	<node lat="61.15760278083977" lon="12.56796111835952" id="-17265">
		<tag k="name" v="Langtjønnbekken" />
		<tag k="ssr:stedsnr" v="7722" />
		<tag k="waterway" v="stream" />
	</node>
	<node lat="61.231691664542275" lon="12.489013885114069" id="-17266">
		<tag k="name" v="Breen" />
		<tag k="place" v="farm" />
		<tag k="ssr:stedsnr" v="7803" />
	</node>
	<node lat="61.23559166356534" lon="12.464999997202895" id="-17267">
		<tag k="name" v="Myrsjøbergvollen" />
		<tag k="place" v="farm" />
		<tag k="ssr:stedsnr" v="7806" />
	</node>
	<node lat="61.22012777630665" lon="12.372652782848208" id="-17268">
		<tag k="alt_name" v="Strømmen" />
		<tag k="name" v="Strømnes" />
		<tag k="place" v="farm" />
		<tag k="ssr:stedsnr" v="7811" />
	</node>
	<node lat="61.24736110803944" lon="12.036913884662953" id="-17269">
		<tag k="name" v="Haugen" />
		<tag k="place" v="farm" />
		<tag k="ssr:stedsnr" v="8006" />
	</node>
	<node lat="61.23832499645951" lon="11.999925001797761" id="-17270">
		<tag k="alt_name" v="Jerpen, nordre" />
		<tag k="fixme" v="consider natural=peak for the most distinct mountains in the district" />
		<tag k="name" v="Nordre Jerpen" />
		<tag k="natural" v="hill" />
		<tag k="place" v="locality" />
		<tag k="ssr:stedsnr" v="8015" />
	</node>
	<node lat="61.24782500170932" lon="11.940108331278571" id="-17271">
		<tag k="name" v="Baksjøen" />
		<tag k="natural" v="water" />
		<tag k="ssr:stedsnr" v="8019" />
	</node>
	<node lat="61.24566944868651" lon="11.85981112026416" id="-17272">
		<tag k="alt_name" v="Sørmo" />
		<tag k="name" v="Sømo" />
		<tag k="old_name" v="Sørmoen" />
		<tag k="place" v="farm" />
		<tag k="ssr:stedsnr" v="8020" />
	</node>
	<node lat="61.1850719811072" lon="11.900932378521627" id="-17273">
		<tag k="alt_name" v="Djupsand" />
		<tag k="fixme" v="consider place=hamlet" />
		<tag k="name" v="Djupsanden" />
		<tag k="place" v="farm" />
		<tag k="ssr:stedsnr" v="8092" />
	</node>
	<node lat="61.15736111399858" lon="12.032705551892455" id="-17274">
		<tag k="name" v="Floen" />
		<tag k="natural" v="water" />
		<tag k="ssr:stedsnr" v="8108" />
		<tag k="water" v="lake" />
	</node>
	<node lat="61.15714444590684" lon="12.03983055881633" id="-17275">
		<tag k="name" v="Flobergskoia" />
		<tag k="place" v="isolated_dwelling" />
		<tag k="ssr:stedsnr" v="8109" />
	</node>
	<node lat="61.161991666970124" lon="12.088783341988044" id="-17276">
		<tag k="name" v="Tørkhustjønna" />
		<tag k="natural" v="water" />
		<tag k="ssr:stedsnr" v="8113" />
	</node>
	<node lat="61.170219445795446" lon="12.075397219051828" id="-17277">
		<tag k="alt_name" v="Wasskoia" />
		<tag k="name" v="Vasskoia" />
		<tag k="place" v="isolated_dwelling" />
		<tag k="ssr:stedsnr" v="8119" />
	</node>
	<node lat="61.26616666564952" lon="12.55370000600854" id="-17278">
		<tag k="name" v="Nes" />
		<tag k="place" v="farm" />
		<tag k="ssr:stedsnr" v="8401" />
	</node>
	<node lat="61.30398888918005" lon="12.613266673064548" id="-17279">
		<tag k="alt_name" v="Løvbekk" />
		<tag k="name" v="Løbekk" />
		<tag k="place" v="farm" />
		<tag k="ssr:stedsnr" v="8416" />
	</node>
	<node lat="61.2167499991892" lon="11.81560000560137" id="-17280">
		<tag k="name" v="Lunde" />
		<tag k="place" v="farm" />
		<tag k="ssr:stedsnr" v="8359" />
	</node>
	<node lat="61.25917499749057" lon="12.317449995795092" id="-17281">
		<tag k="name" v="Engerdal" />
		<tag k="place" v="farm" />
		<tag k="ssr:stedsnr" v="8400" />
	</node>
	<node lat="61.27790277475806" lon="12.118405556482335" id="-17282">
		<tag k="alt_name" v="Grønflå" />
		<tag k="name" v="Storkjølen" />
		<tag k="natural" v="wetland" />
		<tag k="ssr:stedsnr" v="8539" />
	</node>
	<node lat="61.216694448200535" lon="12.762716675149553" id="-17283">
		<tag k="name" v="Jenstjønn" />
		<tag k="natural" v="water" />
		<tag k="ssr:stedsnr" v="8639" />
	</node>
	<node lat="61.37057217552243" lon="12.335933123901436" id="-17284">
		<tag k="alt_name" v="Grønsjøen, nordre" />
		<tag k="name" v="Nordre Grønsjøen" />
		<tag k="natural" v="water" />
		<tag k="ssr:stedsnr" v="8646" />
		<tag k="water" v="lake" />
	</node>
	<node lat="61.378049997810834" lon="12.291836107507605" id="-17285">
		<tag k="name" v="Holstad" />
		<tag k="place" v="farm" />
		<tag k="ssr:stedsnr" v="8658" />
	</node>
	<node lat="61.07111110713834" lon="12.422955548211187" id="-17286">
		<tag k="name" v="Revhaugen" />
		<tag k="natural" v="hill" />
		<tag k="place" v="locality" />
		<tag k="ssr:stedsnr" v="8690" />
	</node>
	<node lat="61.33982500084301" lon="12.230602786481816" id="-17287">
		<tag k="name" v="Sundsbakken" />
		<tag k="place" v="farm" />
		<tag k="ssr:stedsnr" v="8696" />
	</node>
	<node lat="61.482374996406946" lon="12.143163889686418" id="-17288">
		<tag k="alt_name" v="Kittilbekken" />
		<tag k="name" v="Kittellibekken" />
		<tag k="ssr:stedsnr" v="8803" />
		<tag k="waterway" v="stream" />
	</node>
	<node lat="61.402622220108945" lon="12.56137222451741" id="-17289">
		<tag k="name" v="Granbekken" />
		<tag k="ssr:stedsnr" v="8774" />
		<tag k="waterway" v="stream" />
	</node>
	<node lat="61.16045833318039" lon="12.538391657806452" id="-17290">
		<tag k="name" v="Årsvoll" />
		<tag k="place" v="farm" />
		<tag k="ssr:stedsnr" v="8778" />
	</node>
	<node lat="61.383241668834344" lon="11.976227771357381" id="-17291">
		<tag k="name" v="Kallemanken" />
		<tag k="old_name" v="Kalemanken" />
		<tag k="place" v="farm" />
		<tag k="ssr:stedsnr" v="8938" />
	</node>
	<node lat="61.116861106719305" lon="12.074380560610084" id="-17292">
		<tag k="alt_name" v="Øvergård" />
		<tag k="name" v="Øvergard" />
		<tag k="place" v="farm" />
		<tag k="ssr:stedsnr" v="8941" />
	</node>
	<node lat="61.13097500308395" lon="12.086563882088546" id="-17293">
		<tag k="name" v="Ås" />
		<tag k="place" v="farm" />
		<tag k="ssr:stedsnr" v="8992" />
	</node>
	<node lat="61.406686107604344" lon="12.658775000923672" id="-17294">
		<tag k="name" v="Bærrustkjelda" />
		<tag k="ssr:stedsnr" v="9314" />
		<tag k="waterway" v="stream" />
	</node>
	<node lat="61.42454444454594" lon="12.748924995749515" id="-17295">
		<tag k="alt_name" v="Gnollen, nørdre;Nordre Gnollen" />
		<tag k="fixme" v="consider natural=peak for the most distinct mountains in the district" />
		<tag k="name" v="Nørdre Gnollen" />
		<tag k="natural" v="hill" />
		<tag k="place" v="locality" />
		<tag k="ssr:stedsnr" v="9319" />
	</node>
	<node lat="61.39845555488807" lon="12.691213890230628" id="-17296">
		<tag k="alt_name" v="Putbekken" />
		<tag k="name" v="Puttbekken" />
		<tag k="ssr:stedsnr" v="9295" />
		<tag k="waterway" v="stream" />
	</node>
	<node lat="61.394511110102925" lon="12.671544435968178" id="-17297">
		<tag k="name" v="Nordby" />
		<tag k="place" v="farm" />
		<tag k="ssr:stedsnr" v="9300" />
	</node>
	<node lat="61.3326472190525" lon="11.981647225887734" id="-17298">
		<tag k="name" v="Bukjølen" />
		<tag k="natural" v="wetland" />
		<tag k="ssr:stedsnr" v="9589" />
	</node>
	<node lat="61.33312499915357" lon="11.938252781353318" id="-17299">
		<tag k="name" v="Kvilmyra" />
		<tag k="natural" v="wetland" />
		<tag k="ssr:stedsnr" v="9590" />
	</node>
	<node lat="61.37195833332553" lon="11.932108338171695" id="-17300">
		<tag k="name" v="Vangen" />
		<tag k="place" v="farm" />
		<tag k="ssr:stedsnr" v="9890" />
	</node>
	<node lat="61.371977781340206" lon="12.116166666394331" id="-17301">
		<tag k="name" v="Storkjølen" />
		<tag k="natural" v="wetland" />
		<tag k="ssr:stedsnr" v="9901" />
	</node>
	<node lat="61.43278055688143" lon="12.01208889142649" id="-17302">
		<tag k="name" v="Volsætra" />
		<tag k="place" v="hamlet" />
		<tag k="ssr:stedsnr" v="9990" />
	</node>
	<node lat="61.64019999629772" lon="12.275388897330066" id="-17304">
		<tag k="fixme" v="consider natural=peak for the most distinct mountains in the district" />
		<tag k="name" v="Litlfjellet" />
		<tag k="natural" v="hill" />
		<tag k="place" v="locality" />
		<tag k="ssr:stedsnr" v="10484" />
	</node>
	<node lat="61.58744444885866" lon="12.350724997285358" id="-17305">
		<tag k="name" v="Drevsjøen" />
		<tag k="natural" v="water" />
		<tag k="ssr:stedsnr" v="10490" />
		<tag k="water" v="lake" />
	</node>
	<node lat="61.53824999854311" lon="11.889299997468296" id="-17306">
		<tag k="fixme" v="consider natural=peak for the most distinct mountains in the district" />
		<tag k="name" v="Eltdalsskardet" />
		<tag k="natural" v="hill" />
		<tag k="place" v="locality" />
		<tag k="ssr:stedsnr" v="10613" />
	</node>
	<node lat="61.5578638887649" lon="12.195849994330638" id="-17307">
		<tag k="historic" v="shieling" />
		<tag k="name" v="Rømonysætra" />
		<tag k="place" v="isolated_dwelling" />
		<tag k="ssr:stedsnr" v="10632" />
	</node>
	<node lat="61.53464166764831" lon="12.08383334162385" id="-17308">
		<tag k="name" v="Gløtheim" />
		<tag k="place" v="farm" />
		<tag k="ssr:stedsnr" v="10633" />
	</node>
	<node lat="61.543477775751114" lon="11.859613893023097" id="-17309">
		<tag k="alt_name" v="Leirbekken, nordre" />
		<tag k="name" v="Nordre Leirbekken" />
		<tag k="ssr:stedsnr" v="10639" />
		<tag k="waterway" v="stream" />
	</node>
	<node lat="61.54476666731487" lon="12.104827780815775" id="-17310">
		<tag k="alt_name" v="Norgård" />
		<tag k="name" v="Nordgård" />
		<tag k="place" v="farm" />
		<tag k="ssr:stedsnr" v="10641" />
	</node>
	<node lat="61.509975002954576" lon="12.108747218404462" id="-17311">
		<tag k="name" v="Grøtbekken" />
		<tag k="ssr:stedsnr" v="10504" />
		<tag k="waterway" v="stream" />
	</node>
	<node lat="61.5499500021181" lon="12.420991659320274" id="-17312">
		<tag k="fixme" v="consider natural=peak for the most distinct mountains in the district" />
		<tag k="loc_name" v="Maurtuvehøa" />
		<tag k="name" v="Myrtuvhøa" />
		<tag k="natural" v="hill" />
		<tag k="place" v="locality" />
		<tag k="ssr:stedsnr" v="10538" />
	</node>
	<node lat="61.530005553624484" lon="11.835702769429927" id="-17313">
		<tag k="alt_name" v="Lægeret, syndre;Søndre Leire;Søndre Lægeret" />
		<tag k="name" v="Syndre Lægeret" />
		<tag k="place" v="locality" />
		<tag k="ssr:stedsnr" v="10718" />
	</node>
	<node lat="61.52660555432968" lon="11.832763895498562" id="-17314">
		<tag k="alt_name" v="Fiskbekken" />
		<tag k="name" v="Fiskebekken" />
		<tag k="ssr:stedsnr" v="10804" />
		<tag k="waterway" v="stream" />
	</node>
	<node lat="61.422191666586166" lon="12.08033332721517" id="-17315">
		<tag k="name" v="Storbekken" />
		<tag k="ssr:stedsnr" v="10806" />
		<tag k="waterway" v="stream" />
	</node>
	<node lat="61.306405554251114" lon="12.395338881371368" id="-17316">
		<tag k="name" v="Svartbekken" />
		<tag k="ssr:stedsnr" v="10810" />
		<tag k="waterway" v="stream" />
	</node>
	<node lat="61.48052499570491" lon="12.078166671278304" id="-17317">
		<tag k="fixme" v="consider natural=peak for the most distinct mountains in the district" />
		<tag k="name" v="Granåsen" />
		<tag k="natural" v="hill" />
		<tag k="place" v="locality" />
		<tag k="ssr:stedsnr" v="23108" />
	</node>
	<node lat="61.225469439916495" lon="12.129955559259782" id="-17318">
		<tag k="name" v="Søndre Svarttjønna" />
		<tag k="natural" v="water" />
		<tag k="ssr:stedsnr" v="24129" />
	</node>
	<node lat="61.465369447024585" lon="12.562402771398798" id="-17319">
		<tag k="fixme" v="consider highway=path" />
		<tag k="highway" v="track" />
		<tag k="name" v="Killinghusmyrvegen" />
		<tag k="ssr:stedsnr" v="235051" />
	</node>
	<node lat="61.44971666440624" lon="12.598000002427986" id="-17320">
		<tag k="name" v="Stormyra" />
		<tag k="natural" v="wetland" />
		<tag k="ssr:stedsnr" v="235054" />
	</node>
	<node lat="61.52463889031698" lon="12.069425004429867" id="-17321">
		<tag k="name" v="Rønningen" />
		<tag k="place" v="locality" />
		<tag k="ssr:stedsnr" v="235058" />
	</node>
	<node lat="61.29715555302952" lon="12.254838883582408" id="-17323">
		<tag k="name" v="Tysbastloka" />
		<tag k="natural" v="water" />
		<tag k="ssr:stedsnr" v="26101" />
		<tag k="water" v="pond" />
	</node>
	<node lat="61.34903610967252" lon="12.071477771338525" id="-17324">
		<tag k="name" v="Stenbrottet" />
		<tag k="natural" v="slope" />
		<tag k="place" v="locality" />
		<tag k="ssr:stedsnr" v="26109" />
	</node>
	<node lat="61.343572217858686" lon="12.19443333532657" id="-17325">
		<tag k="landuse" v="peat_cutting" />
		<tag k="name" v="Torvhuset" />
		<tag k="ssr:stedsnr" v="26129" />
	</node>
	<node lat="61.32639166803161" lon="12.252780559255601" id="-17326">
		<tag k="name" v="Sanden" />
		<tag k="place" v="farm" />
		<tag k="ssr:stedsnr" v="26090" />
	</node>
	<node lat="61.34091388527197" lon="12.230580550668726" id="-17327">
		<tag k="amenity" v="school" />
		<tag k="name" v="Øverbygda skole" />
		<tag k="ssr:stedsnr" v="26225" />
	</node>
	<node lat="61.34567222641319" lon="12.111852777633608" id="-17328">
		<tag k="name" v="Dugurdsmyra" />
		<tag k="natural" v="wetland" />
		<tag k="ssr:stedsnr" v="26309" />
	</node>
	<node lat="61.277058331430275" lon="12.028252777676" id="-17329">
		<tag k="name" v="Skratthammermyra" />
		<tag k="natural" v="wetland" />
		<tag k="ssr:stedsnr" v="26321" />
	</node>
	<node lat="61.29967500310322" lon="12.112352776749702" id="-17330">
		<tag k="name" v="Slåttbekkbrenna" />
		<tag k="natural" v="wetland" />
		<tag k="ssr:stedsnr" v="26324" />
	</node>
	<node lat="61.32781111232412" lon="12.22719166849341" id="-17331">
		<tag k="amenity" v="school" />
		<tag k="name" v="Sørbysaga" />
		<tag k="ssr:stedsnr" v="26501" />
	</node>
	<node lat="61.31626111381743" lon="12.220933326165879" id="-17332">
		<tag k="name" v="Hembrenna" />
		<tag k="natural" v="slope" />
		<tag k="place" v="locality" />
		<tag k="ssr:stedsnr" v="26504" />
	</node>
	<node lat="61.33835832957832" lon="12.034758332123488" id="-17333">
		<tag k="name" v="Damhaugen" />
		<tag k="natural" v="hill" />
		<tag k="place" v="locality" />
		<tag k="ssr:stedsnr" v="26409" />
	</node>
	<node lat="61.338691670404764" lon="12.047744439419043" id="-17334">
		<tag k="name" v="Midtvollbekken" />
		<tag k="ssr:stedsnr" v="26410" />
		<tag k="waterway" v="stream" />
	</node>
	<node lat="61.17286110758745" lon="11.885961112981795" id="-17335">
		<tag k="name" v="Villbekkodden" />
		<tag k="natural" v="cape" />
		<tag k="ssr:stedsnr" v="26604" />
	</node>
	<node lat="61.599419440044805" lon="12.056041669432611" id="-17336">
		<tag k="name" v="Fuglmora" />
		<tag k="place" v="locality" />
		<tag k="ssr:stedsnr" v="26606" />
	</node>
	<node lat="61.603580557270575" lon="12.038041670983407" id="-17337">
		<tag k="name" v="Elghuegrunnet" />
		<tag k="natural" v="shoal" />
		<tag k="place" v="locality" />
		<tag k="ssr:stedsnr" v="26608" />
	</node>
	<node lat="61.60063333559873" lon="12.039830561403734" id="-17338">
		<tag k="name" v="Granneset" />
		<tag k="natural" v="cape" />
		<tag k="ssr:stedsnr" v="26582" />
	</node>
	<node lat="61.15660278023046" lon="11.835647214440423" id="-17339">
		<tag k="name" v="Sætersæterlia" />
		<tag k="natural" v="slope" />
		<tag k="place" v="locality" />
		<tag k="ssr:stedsnr" v="26585" />
	</node>
	<node lat="61.37298333308296" lon="12.19646388568369" id="-17340">
		<tag k="name" v="Killinglågmyra" />
		<tag k="natural" v="wetland" />
		<tag k="ssr:stedsnr" v="26710" />
	</node>
	<node lat="61.192866662670404" lon="11.893316670594665" id="-17341">
		<tag k="amenity" v="place_of_worship" />
		<tag k="fixme" v="specify religion=*, denomination=*, building=* etc" />
		<tag k="name" v="Hammeren leirsted" />
		<tag k="ssr:stedsnr" v="26902" />
	</node>
	<node lat="61.14653055726524" lon="11.922802782334138" id="-17342">
		<tag k="name" v="Vestnesbekken" />
		<tag k="ssr:stedsnr" v="26906" />
		<tag k="waterway" v="stream" />
	</node>
	<node lat="61.622847218758814" lon="11.884669452452007" id="-17343">
		<tag k="name" v="Nordre Øya" />
		<tag k="place" v="isolated_dwelling" />
		<tag k="ssr:stedsnr" v="235026" />
	</node>
	<node lat="61.52781666892892" lon="12.060080557733423" id="-17344">
		<tag k="fixme" v="consider natural=peak for the most distinct mountains in the district" />
		<tag k="name" v="Tangknappen" />
		<tag k="natural" v="hill" />
		<tag k="place" v="locality" />
		<tag k="ssr:stedsnr" v="235060" />
	</node>
	<node lat="61.44995000274521" lon="12.574672223365466" id="-17345">
		<tag k="name" v="Grønnlendermyra" />
		<tag k="natural" v="wetland" />
		<tag k="ssr:stedsnr" v="235064" />
	</node>
	<node lat="61.5026083329125" lon="11.9101166615169" id="-17346">
		<tag k="fixme" v="consider natural=peak for the most distinct mountains in the district" />
		<tag k="name" v="Rognollen" />
		<tag k="natural" v="hill" />
		<tag k="place" v="locality" />
		<tag k="ssr:stedsnr" v="235149" />
	</node>
	<node lat="61.536819444005964" lon="11.830180553347834" id="-17347">
		<tag k="name" v="Jyssebekken" />
		<tag k="ssr:stedsnr" v="235154" />
		<tag k="waterway" v="stream" />
	</node>
	<node lat="61.47268889287802" lon="12.545249992478013" id="-17348">
		<tag k="name" v="Søndre Vikegga" />
		<tag k="natural" v="hill" />
		<tag k="place" v="locality" />
		<tag k="ssr:stedsnr" v="235163" />
	</node>
	<node lat="61.47974722614624" lon="11.981413882494365" id="-17349">
		<tag k="name" v="Gammel-Andersvika" />
		<tag k="natural" v="bay" />
		<tag k="ssr:stedsnr" v="235948" />
	</node>
	<node lat="61.47426388630944" lon="11.976661103046832" id="-17350">
		<tag k="name" v="Sjømyra" />
		<tag k="natural" v="wetland" />
		<tag k="ssr:stedsnr" v="235950" />
	</node>
	<node lat="61.49650833758681" lon="12.386991667897393" id="-17351">
		<tag k="name" v="Slettmoen" />
		<tag k="place" v="locality" />
		<tag k="ssr:stedsnr" v="235402" />
	</node>
	<node lat="61.387427777759676" lon="12.394225007903868" id="-17352">
		<tag k="name" v="Stannarhaugen" />
		<tag k="natural" v="hill" />
		<tag k="place" v="locality" />
		<tag k="ssr:stedsnr" v="235348" />
	</node>
	<node lat="61.40008611452098" lon="12.401172223143305" id="-17353">
		<tag k="name" v="Møtet" />
		<tag k="natural" v="valley" />
		<tag k="place" v="locality" />
		<tag k="ssr:stedsnr" v="235376" />
	</node>
	<node lat="61.534986107761945" lon="12.068477768630846" id="-17354">
		<tag k="name" v="Gloppheia" />
		<tag k="natural" v="slope" />
		<tag k="place" v="locality" />
		<tag k="ssr:stedsnr" v="235412" />
	</node>
	<node lat="61.534347225966975" lon="12.031558325328131" id="-17355">
		<tag k="name" v="Fonnstedet" />
		<tag k="natural" v="valley" />
		<tag k="place" v="locality" />
		<tag k="ssr:stedsnr" v="235422" />
	</node>
	<node lat="61.537636110708156" lon="12.47982222067408" id="-17356">
		<tag k="name" v="Bredkjeldmora" />
		<tag k="place" v="locality" />
		<tag k="ssr:stedsnr" v="235426" />
	</node>
	<node lat="61.578972220442466" lon="12.012394439102726" id="-17357">
		<tag k="name" v="Moseveltmyra" />
		<tag k="natural" v="wetland" />
		<tag k="ssr:stedsnr" v="235457" />
	</node>
	<node lat="61.44771666784461" lon="11.965866661922252" id="-17358">
		<tag k="name" v="Bjørholmen" />
		<tag k="place" v="islet" />
		<tag k="ssr:stedsnr" v="235527" />
	</node>
	<node lat="61.60280555892948" lon="12.188391660561333" id="-17359">
		<tag k="name" v="Støtriset" />
		<tag k="natural" v="slope" />
		<tag k="place" v="locality" />
		<tag k="ssr:stedsnr" v="235543" />
	</node>
	<node lat="61.5984277759603" lon="12.108299992598006" id="-17360">
		<tag k="name" v="Storjota" />
		<tag k="natural" v="wetland" />
		<tag k="ssr:stedsnr" v="235598" />
	</node>
	<node lat="61.424766666821725" lon="12.667827784244624" id="-17361">
		<tag k="highway" v="path" />
		<tag k="name" v="Bjønnmorsætervegen" />
		<tag k="ssr:stedsnr" v="235618" />
	</node>
	<node lat="61.39047206564116" lon="12.615625640554072" id="-17362">
		<tag k="name" v="Litlmordalen" />
		<tag k="natural" v="valley" />
		<tag k="place" v="locality" />
		<tag k="ssr:stedsnr" v="235624" />
	</node>
	<node lat="61.546263890203655" lon="12.15056945387171" id="-17363">
		<tag k="name" v="Brattmyra" />
		<tag k="natural" v="wetland" />
		<tag k="ssr:stedsnr" v="235766" />
	</node>
	<node lat="61.46228055749806" lon="12.321980558624382" id="-17364">
		<tag k="name" v="Skjeftloka" />
		<tag k="natural" v="water" />
		<tag k="ssr:stedsnr" v="235897" />
	</node>
	<node lat="61.488072222514695" lon="12.117672223136088" id="-17365">
		<tag k="name" v="Vinterløenget" />
		<tag k="place" v="locality" />
		<tag k="ssr:stedsnr" v="235860" />
	</node>
	<node lat="61.40564166553954" lon="12.346488886804071" id="-17366">
		<tag k="name" v="Brynnrønningen" />
		<tag k="place" v="locality" />
		<tag k="ssr:stedsnr" v="235873" />
	</node>
	<node lat="61.44879444569448" lon="12.064391673518248" id="-17367">
		<tag k="alt_name" v="Øivangsætra" />
		<tag k="historic" v="shieling" />
		<tag k="name" v="Øyvangsætra" />
		<tag k="place" v="isolated_dwelling" />
		<tag k="ssr:stedsnr" v="235998" />
	</node>
	<node lat="61.444341666168775" lon="12.040111106460973" id="-17368">
		<tag k="name" v="Mortensmora" />
		<tag k="place" v="locality" />
		<tag k="ssr:stedsnr" v="236000" />
	</node>
	<node lat="61.46240555921875" lon="12.242280551246846" id="-17369">
		<tag k="name" v="Sletteng" />
		<tag k="place" v="farm" />
		<tag k="ssr:stedsnr" v="236042" />
	</node>
	<node lat="61.45390833768833" lon="12.209544444890641" id="-17370">
		<tag k="name" v="Stordalen" />
		<tag k="natural" v="valley" />
		<tag k="place" v="locality" />
		<tag k="ssr:stedsnr" v="236046" />
	</node>
	<node lat="61.45871111006607" lon="12.161097227618582" id="-17371">
		<tag k="fixme" v="consider natural=peak for the most distinct mountains in the district" />
		<tag k="name" v="Oksmoberget" />
		<tag k="natural" v="hill" />
		<tag k="place" v="locality" />
		<tag k="ssr:stedsnr" v="236048" />
	</node>
	<node lat="61.4464666693543" lon="12.153938886751275" id="-17372">
		<tag k="fixme" v="consider natural=peak for the most distinct mountains in the district" />
		<tag k="name" v="Granberget" />
		<tag k="natural" v="hill" />
		<tag k="place" v="locality" />
		<tag k="ssr:stedsnr" v="236049" />
	</node>
	<node lat="61.433033329151904" lon="12.140625002935234" id="-17373">
		<tag k="name" v="Smeieengene" />
		<tag k="place" v="locality" />
		<tag k="ssr:stedsnr" v="236054" />
	</node>
	<node lat="61.371561107598815" lon="12.833822215332438" id="-17374">
		<tag k="name" v="Oksbekken" />
		<tag k="ssr:stedsnr" v="236354" />
		<tag k="waterway" v="stream" />
	</node>
	<node lat="61.56109999904597" lon="12.466522218925006" id="-17375">
		<tag k="fixme" v="consider natural=peak for the most distinct mountains in the district" />
		<tag k="name" v="Grønningen" />
		<tag k="natural" v="hill" />
		<tag k="place" v="locality" />
		<tag k="ssr:stedsnr" v="236366" />
	</node>
	<node lat="61.5661194447389" lon="12.493386114704288" id="-17376">
		<tag k="name" v="Linbekken" />
		<tag k="ssr:stedsnr" v="236370" />
		<tag k="waterway" v="stream" />
	</node>
	<node lat="61.58056388743577" lon="12.352952776779778" id="-17377">
		<tag k="name" v="Badervika" />
		<tag k="natural" v="bay" />
		<tag k="ssr:stedsnr" v="236444" />
	</node>
	<node lat="61.40365833647753" lon="12.163319437726033" id="-17378">
		<tag k="name" v="Eltosenget" />
		<tag k="place" v="locality" />
		<tag k="ssr:stedsnr" v="236450" />
	</node>
	<node lat="61.431258332278944" lon="12.224202775633305" id="-17379">
		<tag k="name" v="Litlåsskaftet" />
		<tag k="natural" v="hill" />
		<tag k="place" v="locality" />
		<tag k="ssr:stedsnr" v="236418" />
	</node>
	<node lat="61.35813889303859" lon="11.924733336718209" id="-17380">
		<tag k="name" v="Strupen" />
		<tag k="natural" v="wetland" />
		<tag k="ssr:stedsnr" v="236568" />
	</node>
	<node lat="61.36195833226849" lon="12.733586115342192" id="-17381">
		<tag k="name" v="Åslund" />
		<tag k="place" v="isolated_dwelling" />
		<tag k="ssr:stedsnr" v="236588" />
	</node>
	<node lat="61.368833333258216" lon="12.726149999486031" id="-17382">
		<tag k="name" v="Slakjølen" />
		<tag k="natural" v="wetland" />
		<tag k="ssr:stedsnr" v="236595" />
	</node>
	<node lat="61.40539167037407" lon="12.172530548040392" id="-17383">
		<tag k="alt_name" v="Voldholmen" />
		<tag k="name" v="Vollholmen" />
		<tag k="place" v="islet" />
		<tag k="ssr:stedsnr" v="236460" />
	</node>
	<node lat="61.41646944719173" lon="12.148858330122634" id="-17384">
		<tag k="name" v="Hansenget" />
		<tag k="place" v="locality" />
		<tag k="ssr:stedsnr" v="236463" />
	</node>
	<node lat="61.37695277532517" lon="12.327388883776747" id="-17385">
		<tag k="name" v="Grønsjøbekken" />
		<tag k="ssr:stedsnr" v="236690" />
		<tag k="waterway" v="stream" />
	</node>
	<node lat="61.368488884719746" lon="12.37922500103981" id="-17386">
		<tag k="fixme" v="consider natural=peak for the most distinct mountains in the district" />
		<tag k="name" v="Skardtuppegga" />
		<tag k="natural" v="hill" />
		<tag k="place" v="locality" />
		<tag k="ssr:stedsnr" v="236664" />
	</node>
	<node lat="61.36401389119331" lon="12.340286119025778" id="-17387">
		<tag k="name" v="Dødvatnet" />
		<tag k="natural" v="water" />
		<tag k="ssr:stedsnr" v="236666" />
		<tag k="water" v="pond" />
	</node>
	<node lat="61.36091110729857" lon="12.325436118426056" id="-17388">
		<tag k="name" v="Hammarslangkjølen" />
		<tag k="natural" v="wetland" />
		<tag k="ssr:stedsnr" v="236670" />
	</node>
	<node lat="61.37055555509846" lon="12.318316659598581" id="-17389">
		<tag k="name" v="Monsmyra" />
		<tag k="natural" v="wetland" />
		<tag k="ssr:stedsnr" v="236676" />
	</node>
	<node lat="61.427088892891476" lon="12.295941662362896" id="-17390">
		<tag k="highway" v="path" />
		<tag k="name" v="Flenstigen" />
		<tag k="ssr:stedsnr" v="236793" />
	</node>
	<node lat="61.42866110983034" lon="12.29763610224411" id="-17391">
		<tag k="name" v="Plæmyra" />
		<tag k="natural" v="wetland" />
		<tag k="ssr:stedsnr" v="236795" />
	</node>
	<node lat="61.42663610805697" lon="12.295300002777434" id="-17392">
		<tag k="name" v="Lykkjeholmen" />
		<tag k="place" v="islet" />
		<tag k="ssr:stedsnr" v="236797" />
	</node>
	<node lat="61.41201111403415" lon="12.259477785651029" id="-17393">
		<tag k="name" v="Ormåshølen" />
		<tag k="place" v="locality" />
		<tag k="ssr:stedsnr" v="236815" />
	</node>
	<node lat="61.403500001573036" lon="12.260322216798095" id="-17394">
		<tag k="name" v="Krokmyra" />
		<tag k="natural" v="wetland" />
		<tag k="ssr:stedsnr" v="236816" />
	</node>
	<node lat="61.39386388437864" lon="12.322472230117283" id="-17395">
		<tag k="name" v="Synnerskjæret" />
		<tag k="natural" v="hill" />
		<tag k="place" v="locality" />
		<tag k="ssr:stedsnr" v="236862" />
	</node>
	<node lat="61.4003777733383" lon="12.344391670327093" id="-17396">
		<tag k="alt_name" v="Møkkelbrynnbrenna" />
		<tag k="name" v="Møkkelbrynnbrennene" />
		<tag k="natural" v="wetland" />
		<tag k="ssr:stedsnr" v="236865" />
	</node>
	<node lat="61.23329722472636" lon="11.907247223147879" id="-17397">
		<tag k="name" v="Nordre Rensmyra" />
		<tag k="natural" v="wetland" />
		<tag k="ssr:stedsnr" v="39869" />
	</node>
	<node lat="61.298738892228855" lon="12.522080551807706" id="-17398">
		<tag k="name" v="Krabbkjølen" />
		<tag k="natural" v="wetland" />
		<tag k="ssr:stedsnr" v="40009" />
	</node>
	<node lat="61.312841665546" lon="12.329483339473764" id="-17399">
		<tag k="highway" v="path" />
		<tag k="name" v="Lørasbakka" />
		<tag k="ssr:stedsnr" v="40056" />
	</node>
	<node lat="61.315419442971404" lon="12.357550006109854" id="-17400">
		<tag k="fixme" v="consider natural=peak for the most distinct mountains in the district" />
		<tag k="name" v="Sjøåsen" />
		<tag k="natural" v="hill" />
		<tag k="place" v="locality" />
		<tag k="ssr:stedsnr" v="40058" />
	</node>
	<node lat="61.474080554017114" lon="12.17588611996201" id="-17401">
		<tag k="name" v="Småtjønnkjølen" />
		<tag k="natural" v="wetland" />
		<tag k="ssr:stedsnr" v="236954" />
	</node>
	<node lat="61.51718610972459" lon="12.257561102476204" id="-17402">
		<tag k="name" v="Buflomora" />
		<tag k="place" v="locality" />
		<tag k="ssr:stedsnr" v="236958" />
	</node>
	<node lat="61.44149444182819" lon="12.561333340051286" id="-17403">
		<tag k="name" v="Multmyra" />
		<tag k="natural" v="wetland" />
		<tag k="ssr:stedsnr" v="236964" />
	</node>
	<node lat="61.42447222440729" lon="11.982711119004916" id="-17404">
		<tag k="name" v="Styggbekken" />
		<tag k="ssr:stedsnr" v="236971" />
		<tag k="waterway" v="stream" />
	</node>
	<node lat="61.434844441481374" lon="11.97350834121154" id="-17405">
		<tag k="name" v="Mætermyra" />
		<tag k="natural" v="wetland" />
		<tag k="ssr:stedsnr" v="236972" />
	</node>
	<node lat="61.17524068805524" lon="12.7369352738359" id="-17406">
		<tag k="fixme" v="consider place=hamlet" />
		<tag k="name" v="Nordre Flermoen" />
		<tag k="place" v="farm" />
		<tag k="ssr:stedsnr" v="40181" />
	</node>
	<node lat="61.16295000024283" lon="12.537572217692478" id="-17407">
		<tag k="alt_name" v="Mandflosætra" />
		<tag k="name" v="Mannflosætra" />
		<tag k="place" v="isolated_dwelling" />
		<tag k="ssr:stedsnr" v="40385" />
	</node>
	<node lat="61.14743333315509" lon="12.54940833463477" id="-17408">
		<tag k="historic" v="shieling" />
		<tag k="name" v="Tallbergrønningen" />
		<tag k="place" v="locality" />
		<tag k="ssr:stedsnr" v="40386" />
	</node>
	<node lat="61.1542027765818" lon="12.506630562492214" id="-17409">
		<tag k="name" v="Trysilmyrrompa" />
		<tag k="natural" v="wetland" />
		<tag k="ssr:stedsnr" v="40405" />
	</node>
	<node lat="61.16160833737111" lon="12.527024994047313" id="-17410">
		<tag k="name" v="Storstenmyra" />
		<tag k="natural" v="wetland" />
		<tag k="ssr:stedsnr" v="40410" />
	</node>
	<node lat="61.263388885515624" lon="12.071238897053087" id="-17411">
		<tag k="name" v="Brenteggenget" />
		<tag k="place" v="locality" />
		<tag k="ssr:stedsnr" v="40709" />
	</node>
	<node lat="61.26727221840736" lon="12.062522223357158" id="-17412">
		<tag k="name" v="Åset" />
		<tag k="place" v="locality" />
		<tag k="ssr:stedsnr" v="40712" />
	</node>
	<node lat="61.2609249956756" lon="11.991991660747798" id="-17413">
		<tag k="name" v="Buholmen" />
		<tag k="natural" v="cape" />
		<tag k="ssr:stedsnr" v="237074" />
	</node>
	<node lat="61.16341388510792" lon="12.736194451478342" id="-17414">
		<tag k="name" v="Tjønna i Linna" />
		<tag k="natural" v="water" />
		<tag k="ssr:stedsnr" v="40818" />
	</node>
	<node lat="61.19045555137538" lon="12.484355562747949" id="-17415">
		<tag k="name" v="Øverås" />
		<tag k="place" v="farm" />
		<tag k="ssr:stedsnr" v="40916" />
	</node>
	<node lat="61.19863055539231" lon="12.64883889603418" id="-17416">
		<tag k="name" v="Tannåneset" />
		<tag k="place" v="locality" />
		<tag k="ssr:stedsnr" v="40964" />
	</node>
	<node lat="61.19032778166542" lon="11.947305555911512" id="-17417">
		<tag k="name" v="Slettmyra" />
		<tag k="natural" v="wetland" />
		<tag k="ssr:stedsnr" v="237141" />
	</node>
	<node lat="61.103613890033806" lon="11.992619447235631" id="-17418">
		<tag k="name" v="Lomvika" />
		<tag k="natural" v="bay" />
		<tag k="ssr:stedsnr" v="41004" />
	</node>
	<node lat="61.04946944422821" lon="12.361658324888033" id="-17419">
		<tag k="name" v="Vålbergsholtet" />
		<tag k="place" v="locality" />
		<tag k="ssr:stedsnr" v="41163" />
	</node>
	<node lat="61.33440555870091" lon="12.454636107484957" id="-17420">
		<tag k="name" v="Langmyra" />
		<tag k="natural" v="wetland" />
		<tag k="ssr:stedsnr" v="41480" />
	</node>
	<node lat="61.29308889282183" lon="12.697872220523841" id="-17421">
		<tag k="name" v="Rundflomyra" />
		<tag k="natural" v="wetland" />
		<tag k="ssr:stedsnr" v="41602" />
	</node>
	<node lat="61.33064444893812" lon="12.434697221801585" id="-17422">
		<tag k="name" v="Vassbekken" />
		<tag k="ssr:stedsnr" v="237262" />
		<tag k="waterway" v="stream" />
	</node>
	<node lat="61.341975003909994" lon="12.444622230019018" id="-17423">
		<tag k="name" v="Kvernhussletta" />
		<tag k="place" v="locality" />
		<tag k="ssr:stedsnr" v="237275" />
	</node>
	<node lat="61.13562778046904" lon="12.067963887930704" id="-17424">
		<tag k="name" v="Eliasrønningen" />
		<tag k="place" v="locality" />
		<tag k="ssr:stedsnr" v="237417" />
	</node>
	<node lat="61.29586944016283" lon="12.002302772881258" id="-17425">
		<tag k="name" v="Kvennfalla" />
		<tag k="natural" v="waterfall" />
		<tag k="ssr:stedsnr" v="42124" />
	</node>
	<node lat="61.29833332960783" lon="11.99211389387903" id="-17426">
		<tag k="name" v="Blankkjeldkroken" />
		<tag k="natural" v="water" />
		<tag k="ssr:stedsnr" v="42127" />
		<tag k="water" v="lake" />
	</node>
	<node lat="61.292505553866356" lon="12.005549997022902" id="-17427">
		<tag k="fixme" v="consider natural=peak for the most distinct mountains in the district" />
		<tag k="name" v="Tøråsen" />
		<tag k="natural" v="hill" />
		<tag k="place" v="locality" />
		<tag k="ssr:stedsnr" v="42128" />
	</node>
	<node lat="61.072713889684906" lon="12.237519448678073" id="-17428">
		<tag k="name" v="Vaisisbekken" />
		<tag k="ssr:stedsnr" v="42303" />
		<tag k="waterway" v="stream" />
	</node>
	<node lat="61.11497222204346" lon="12.609144448736002" id="-17429">
		<tag k="name" v="Storstenstranda" />
		<tag k="place" v="locality" />
		<tag k="ssr:stedsnr" v="237356" />
	</node>
	<node lat="61.13915833129088" lon="12.118833333569171" id="-17430">
		<tag k="name" v="Paaliaso" />
		<tag k="natural" v="wetland" />
		<tag k="ssr:stedsnr" v="237434" />
	</node>
	<node lat="61.13045833040931" lon="12.086972217452647" id="-17431">
		<tag k="name" v="Lundberg" />
		<tag k="place" v="isolated_dwelling" />
		<tag k="ssr:stedsnr" v="237438" />
	</node>
	<node lat="61.110552775322745" lon="12.134000008477154" id="-17432">
		<tag k="name" v="Tollonsuo" />
		<tag k="natural" v="wetland" />
		<tag k="ssr:stedsnr" v="42425" />
	</node>
	<node lat="61.114274995473906" lon="12.14726667290525" id="-17433">
		<tag k="name" v="Kaldbekken" />
		<tag k="ssr:stedsnr" v="42430" />
		<tag k="waterway" v="stream" />
	</node>
	<node lat="61.22485555237246" lon="12.77536387956449" id="-17434">
		<tag k="name" v="Veltplassen" />
		<tag k="place" v="locality" />
		<tag k="ssr:stedsnr" v="42503" />
	</node>
	<node lat="61.25765833296518" lon="12.817152774951712" id="-17435">
		<tag k="name" v="Støa kanal" />
		<tag k="place" v="locality" />
		<tag k="ssr:stedsnr" v="42529" />
	</node>
	<node lat="61.26915278003699" lon="12.80699166709607" id="-17436">
		<tag k="landuse" v="meadow" />
		<tag k="name" v="Brennvinstranda" />
		<tag k="ssr:stedsnr" v="42531" />
	</node>
	<node lat="61.13297222518729" lon="12.094586106765506" id="-17437">
		<tag k="name" v="Vesterås" />
		<tag k="place" v="farm" />
		<tag k="ssr:stedsnr" v="237448" />
	</node>
	<node lat="61.17684721912143" lon="12.404388880001518" id="-17438">
		<tag k="name" v="Fossbekkdalen" />
		<tag k="natural" v="valley" />
		<tag k="place" v="locality" />
		<tag k="ssr:stedsnr" v="237677" />
	</node>
	<node lat="61.166005554814205" lon="12.194447213931044" id="-17439">
		<tag k="name" v="Rutkjeldfloen" />
		<tag k="natural" v="water" />
		<tag k="ssr:stedsnr" v="237567" />
		<tag k="water" v="lake" />
	</node>
	<node lat="61.341355558093625" lon="12.663266660899563" id="-17440">
		<tag k="name" v="Storkjølkjelda" />
		<tag k="ssr:stedsnr" v="237648" />
		<tag k="waterway" v="stream" />
	</node>
	<node lat="61.171105552822254" lon="12.46338610224925" id="-17441">
		<tag k="fixme" v="consider highway=path" />
		<tag k="highway" v="track" />
		<tag k="name" v="Ålibekkvegen" />
		<tag k="ssr:stedsnr" v="237654" />
	</node>
	<node lat="61.35361111164986" lon="12.659722218476713" id="-17442">
		<tag k="name" v="Røyeholen" />
		<tag k="natural" v="hill" />
		<tag k="place" v="locality" />
		<tag k="ssr:stedsnr" v="237658" />
	</node>
	<node lat="61.25759167003048" lon="12.18152500349161" id="-17443">
		<tag k="name" v="Djupkjølen" />
		<tag k="natural" v="wetland" />
		<tag k="ssr:stedsnr" v="237906" />
	</node>
	<node lat="61.06815833683238" lon="12.152461117680568" id="-17444">
		<tag k="name" v="Bommersodden" />
		<tag k="natural" v="cape" />
		<tag k="ssr:stedsnr" v="237748" />
	</node>
	<node lat="61.32033888530457" lon="12.53881110616907" id="-17445">
		<tag k="name" v="Rismyra" />
		<tag k="natural" v="wetland" />
		<tag k="ssr:stedsnr" v="237750" />
	</node>
	<node lat="61.23653610783395" lon="12.34913055274461" id="-17446">
		<tag k="name" v="Haugen" />
		<tag k="place" v="farm" />
		<tag k="ssr:stedsnr" v="237768" />
	</node>
	<node lat="61.2629083343958" lon="12.50722222841106" id="-17447">
		<tag k="name" v="Brettmyra" />
		<tag k="natural" v="wetland" />
		<tag k="ssr:stedsnr" v="238114" />
	</node>
	<node lat="61.22639444285382" lon="12.511391662284163" id="-17448">
		<tag k="name" v="Fugllekmyra" />
		<tag k="natural" v="wetland" />
		<tag k="ssr:stedsnr" v="238344" />
	</node>
	<node lat="61.25198888972496" lon="12.821855550217387" id="-17449">
		<tag k="name" v="Styggbekken" />
		<tag k="ssr:stedsnr" v="238582" />
		<tag k="waterway" v="stream" />
	</node>
	<node lat="61.22302500228614" lon="12.5490194386043" id="-17450">
		<tag k="name" v="Storkjølen" />
		<tag k="natural" v="wetland" />
		<tag k="ssr:stedsnr" v="238846" />
	</node>
	<node lat="61.25433889155726" lon="12.464138882310982" id="-17451">
		<tag k="name" v="Søndre Sjømyra" />
		<tag k="natural" v="wetland" />
		<tag k="ssr:stedsnr" v="239124" />
	</node>
	<node lat="61.214858334399786" lon="11.924158341978867" id="-17452">
		<tag k="name" v="Søndre Ingjerdhaugen" />
		<tag k="natural" v="hill" />
		<tag k="place" v="locality" />
		<tag k="ssr:stedsnr" v="239125" />
	</node>
	<node lat="61.25846670404053" lon="12.833820127018214" id="-17453">
		<tag k="historic" v="boundary_stone" />
		<tag k="man_made" v="cairn" />
		<tag k="name" v="Våldalsrøysa" />
		<tag k="old_name" v="Waatudalsyuns Røse" />
		<tag k="place" v="locality" />
		<tag k="ssr:stedsnr" v="49519" />
	</node>
	<node lat="61.16465833327039" lon="11.926241671304295" id="-17454">
		<tag k="name" v="Kvernbekken" />
		<tag k="ssr:stedsnr" v="239158" />
		<tag k="waterway" v="stream" />
	</node>
	<node lat="61.16601388519989" lon="11.921294453122352" id="-17455">
		<tag k="name" v="Røbuvika" />
		<tag k="natural" v="bay" />
		<tag k="ssr:stedsnr" v="239159" />
	</node>
	<node lat="61.35064722170801" lon="11.95444444594927" id="-17456">
		<tag k="name" v="Tjurudalsegga" />
		<tag k="natural" v="ridge" />
		<tag k="place" v="locality" />
		<tag k="ssr:stedsnr" v="239205" />
	</node>
	<node lat="61.21605000316512" lon="12.062397219750947" id="-17457">
		<tag k="highway" v="path" />
		<tag k="name" v="Almenvegen" />
		<tag k="ssr:stedsnr" v="239295" />
	</node>
	<node lat="61.11759999668634" lon="12.066283326124514" id="-17458">
		<tag k="name" v="Bergheim" />
		<tag k="place" v="isolated_dwelling" />
		<tag k="ssr:stedsnr" v="239400" />
	</node>
	<node lat="61.2388277756366" lon="12.535044448947637" id="-17459">
		<tag k="landuse" v="meadow" />
		<tag k="name" v="Marenrønningen" />
		<tag k="ssr:stedsnr" v="239404" />
	</node>
	<node lat="61.15714722017917" lon="12.059061111563867" id="-17460">
		<tag k="name" v="Bjørnstad" />
		<tag k="place" v="farm" />
		<tag k="ssr:stedsnr" v="239466" />
	</node>
	<node lat="61.224916662720446" lon="12.231894450247397" id="-17461">
		<tag k="name" v="Grøndalsæter" />
		<tag k="place" v="farm" />
		<tag k="ssr:stedsnr" v="239472" />
	</node>
	<node lat="61.47766388582589" lon="12.253961119040703" id="-17462">
		<tag k="fixme" v="consider natural=peak for the most distinct mountains in the district" />
		<tag k="name" v="Ol-Jonsgranåsen" />
		<tag k="natural" v="hill" />
		<tag k="place" v="locality" />
		<tag k="ssr:stedsnr" v="53005" />
	</node>
	<node lat="61.507177780142364" lon="12.506711102838896" id="-17463">
		<tag k="name" v="Storrønningen" />
		<tag k="place" v="locality" />
		<tag k="ssr:stedsnr" v="53226" />
	</node>
	<node lat="61.45971944345687" lon="11.8346055487437" id="-17464">
		<tag k="name" v="Tverrenbotninga" />
		<tag k="natural" v="valley" />
		<tag k="place" v="locality" />
		<tag k="ssr:stedsnr" v="53170" />
	</node>
	<node lat="61.54431666998338" lon="12.111199998314031" id="-17465">
		<tag k="name" v="Gløtskjæret" />
		<tag k="natural" v="hill" />
		<tag k="place" v="locality" />
		<tag k="ssr:stedsnr" v="53367" />
	</node>
	<node lat="61.443522223479285" lon="12.38942221524579" id="-17466">
		<tag k="name" v="Østre Fisktjønna" />
		<tag k="natural" v="water" />
		<tag k="ssr:stedsnr" v="53381" />
	</node>
	<node lat="61.41636944438559" lon="12.49650278326886" id="-17467">
		<tag k="name" v="Blekkmyra" />
		<tag k="natural" v="wetland" />
		<tag k="ssr:stedsnr" v="53383" />
	</node>
	<node lat="61.45642777849549" lon="11.927166666292067" id="-17468">
		<tag k="name" v="Pipelsroa" />
		<tag k="place" v="locality" />
		<tag k="ssr:stedsnr" v="53508" />
	</node>
	<node lat="61.587069442320946" lon="12.159425007574407" id="-17469">
		<tag k="name" v="Langegga" />
		<tag k="natural" v="hill" />
		<tag k="place" v="locality" />
		<tag k="ssr:stedsnr" v="53518" />
	</node>
	<node lat="61.50806944438828" lon="12.583552775170448" id="-17470">
		<tag k="name" v="Buarenget" />
		<tag k="place" v="locality" />
		<tag k="ssr:stedsnr" v="53273" />
	</node>
	<node lat="61.5564027783415" lon="12.094455554511011" id="-17471">
		<tag k="name" v="Budalsloken" />
		<tag k="natural" v="water" />
		<tag k="ssr:stedsnr" v="53280" />
	</node>
	<node lat="61.60363777554021" lon="11.990027631264558" id="-17472">
		<tag k="name" v="Litlskora" />
		<tag k="natural" v="valley" />
		<tag k="place" v="locality" />
		<tag k="ssr:stedsnr" v="53423" />
	</node>
	<node lat="61.40316388671727" lon="12.635469448758549" id="-17473">
		<tag k="name" v="Lundholmmoen" />
		<tag k="place" v="locality" />
		<tag k="ssr:stedsnr" v="53609" />
	</node>
	<node lat="61.451277773700696" lon="12.345530549959259" id="-17474">
		<tag k="name" v="Vakkermyrene" />
		<tag k="natural" v="wetland" />
		<tag k="ssr:stedsnr" v="53910" />
	</node>
	<node lat="61.486444440241044" lon="12.213688885023949" id="-17475">
		<tag k="name" v="Orrgnollen" />
		<tag k="natural" v="hill" />
		<tag k="place" v="locality" />
		<tag k="ssr:stedsnr" v="53914" />
	</node>
	<node lat="61.37797499591449" lon="11.941544439300493" id="-17476">
		<tag k="landuse" v="meadow" />
		<tag k="name" v="Kvea" />
		<tag k="ssr:stedsnr" v="53675" />
	</node>
	<node lat="61.37976111215669" lon="11.949677772216187" id="-17477">
		<tag k="name" v="Langsilderåsen" />
		<tag k="natural" v="hill" />
		<tag k="place" v="locality" />
		<tag k="ssr:stedsnr" v="53677" />
	</node>
	<node lat="61.37575000067533" lon="11.945480562762864" id="-17478">
		<tag k="name" v="Grandalen" />
		<tag k="natural" v="valley" />
		<tag k="place" v="locality" />
		<tag k="ssr:stedsnr" v="53680" />
	</node>
	<node lat="61.502888893101925" lon="12.173416659044086" id="-17479">
		<tag k="name" v="Nybrenna" />
		<tag k="place" v="locality" />
		<tag k="ssr:stedsnr" v="53801" />
	</node>
	<node lat="61.42224999803876" lon="12.343308332592024" id="-17480">
		<tag k="name" v="Storsletta" />
		<tag k="place" v="locality" />
		<tag k="ssr:stedsnr" v="53883" />
	</node>
	<node lat="61.46545833002682" lon="12.269402768862387" id="-17481">
		<tag k="name" v="Ol-Jonsgranåsen" />
		<tag k="natural" v="hill" />
		<tag k="place" v="locality" />
		<tag k="ssr:stedsnr" v="53979" />
	</node>
	<node lat="61.47617778127813" lon="12.303772213725509" id="-17482">
		<tag k="name" v="Fugllekåsmyra" />
		<tag k="natural" v="wetland" />
		<tag k="ssr:stedsnr" v="53986" />
	</node>
	<node lat="61.46136666761783" lon="12.284852785351823" id="-17483">
		<tag k="name" v="Flensjøbekken" />
		<tag k="ssr:stedsnr" v="53990" />
		<tag k="waterway" v="stream" />
	</node>
	<node lat="61.46292222056191" lon="12.259372222752486" id="-17484">
		<tag k="name" v="Blestad" />
		<tag k="place" v="isolated_dwelling" />
		<tag k="ssr:stedsnr" v="53991" />
	</node>
	<node lat="61.503222218355596" lon="12.114730554854663" id="-17485">
		<tag k="name" v="Jerprusta" />
		<tag k="natural" v="slope" />
		<tag k="place" v="locality" />
		<tag k="ssr:stedsnr" v="54073" />
	</node>
	<node lat="61.240633337730394" lon="12.166813882960973" id="-17486">
		<tag k="name" v="Åbrekken" />
		<tag k="natural" v="wetland" />
		<tag k="ssr:stedsnr" v="239576" />
	</node>
	<node lat="61.54009167035323" lon="12.258111110701972" id="-17487">
		<tag k="name" v="Lindbergsmyra" />
		<tag k="natural" v="wetland" />
		<tag k="ssr:stedsnr" v="54483" />
	</node>
	<node lat="61.552397226551875" lon="12.35058055747948" id="-17488">
		<tag k="name" v="Smørtjønnloken" />
		<tag k="natural" v="water" />
		<tag k="ssr:stedsnr" v="54484" />
		<tag k="water" v="lake" />
	</node>
	<node lat="61.39381666532284" lon="12.17755833184817" id="-17489">
		<tag k="name" v="Nordbyøya" />
		<tag k="place" v="island" />
		<tag k="ssr:stedsnr" v="54486" />
	</node>
	<node lat="61.54023888514747" lon="12.360866674162112" id="-17490">
		<tag k="name" v="Holmen" />
		<tag k="place" v="islet" />
		<tag k="ssr:stedsnr" v="54487" />
	</node>
	<node lat="61.38171944073477" lon="12.64853611671192" id="-17491">
		<tag k="fixme" v="consider natural=peak for the most distinct mountains in the district" />
		<tag k="name" v="Brennåsen" />
		<tag k="natural" v="hill" />
		<tag k="place" v="locality" />
		<tag k="ssr:stedsnr" v="54627" />
	</node>
	<node lat="61.36963244683718" lon="12.760449555742335" id="-17492">
		<tag k="loc_name" v="Gjellegullegga" />
		<tag k="name" v="Gjellkuegga" />
		<tag k="natural" v="hill" />
		<tag k="place" v="locality" />
		<tag k="ssr:stedsnr" v="54372" />
	</node>
	<node lat="61.379336112470796" lon="12.779238889701032" id="-17493">
		<tag k="name" v="Knausskaftet" />
		<tag k="place" v="locality" />
		<tag k="ssr:stedsnr" v="54374" />
	</node>
	<node lat="61.59629721963136" lon="12.106983334732872" id="-17494">
		<tag k="name" v="Karimyrene" />
		<tag k="natural" v="wetland" />
		<tag k="ssr:stedsnr" v="54567" />
	</node>
	<node lat="61.36172777547457" lon="12.313391659142663" id="-17495">
		<tag k="name" v="Vesle-Taåsen" />
		<tag k="natural" v="hill" />
		<tag k="place" v="locality" />
		<tag k="ssr:stedsnr" v="54704" />
	</node>
	<node lat="61.37909166516437" lon="12.306152772157485" id="-17496">
		<tag k="name" v="Gjermundshøgda" />
		<tag k="natural" v="hill" />
		<tag k="place" v="locality" />
		<tag k="ssr:stedsnr" v="54720" />
	</node>
	<node lat="61.437113889132284" lon="12.531966663687987" id="-17497">
		<tag k="name" v="Ljørholltangen" />
		<tag k="place" v="locality" />
		<tag k="ssr:stedsnr" v="54967" />
	</node>
	<node lat="61.11465000057556" lon="12.46357222019704" id="-17498">
		<tag k="name" v="Gørrsekkstellet" />
		<tag k="natural" v="wetland" />
		<tag k="ssr:stedsnr" v="239723" />
	</node>
	<node lat="61.42762221924069" lon="12.311383341699253" id="-17499">
		<tag k="name" v="Krabbrønningsåsen" />
		<tag k="natural" v="hill" />
		<tag k="place" v="locality" />
		<tag k="ssr:stedsnr" v="54820" />
	</node>
	<node lat="61.50602499652926" lon="12.029824993628239" id="-17500">
		<tag k="name" v="Gammelhusdalen" />
		<tag k="natural" v="valley" />
		<tag k="place" v="locality" />
		<tag k="ssr:stedsnr" v="54826" />
	</node>
	<node lat="61.428847219449764" lon="12.329427768828925" id="-17501">
		<tag k="name" v="Måsåmyra" />
		<tag k="natural" v="wetland" />
		<tag k="ssr:stedsnr" v="54829" />
	</node>
	<node lat="61.48941667091031" lon="12.110997227387017" id="-17502">
		<tag k="name" v="Storøya" />
		<tag k="place" v="island" />
		<tag k="ssr:stedsnr" v="54852" />
	</node>
	<node lat="61.5132000039719" lon="12.150486119189397" id="-17503">
		<tag k="name" v="Tjønnbekken" />
		<tag k="ssr:stedsnr" v="54875" />
		<tag k="waterway" v="stream" />
	</node>
	<node lat="61.06307777601164" lon="12.459602782029686" id="-17504">
		<tag k="name" v="Oria" />
		<tag k="place" v="locality" />
		<tag k="ssr:stedsnr" v="55004" />
	</node>
	<node lat="61.258041665097274" lon="11.99258889344945" id="-17505">
		<tag k="name" v="Furuodden" />
		<tag k="natural" v="cape" />
		<tag k="ssr:stedsnr" v="55068" />
	</node>
	<node lat="61.340308333523815" lon="12.428480553336726" id="-17506">
		<tag k="name" v="Nordre Synstkjeldmora" />
		<tag k="place" v="locality" />
		<tag k="ssr:stedsnr" v="55277" />
	</node>
	<node lat="61.14071944393557" lon="12.093827786409285" id="-17507">
		<tag k="name" v="Bakken" />
		<tag k="place" v="farm" />
		<tag k="ssr:stedsnr" v="55401" />
	</node>
	<node lat="61.141200003108345" lon="12.13835000954792" id="-17508">
		<tag k="name" v="Sjødammen" />
		<tag k="ssr:stedsnr" v="55405" />
		<tag k="waterway" v="dam" />
	</node>
	<node lat="61.12945000418887" lon="12.130363882437917" id="-17509">
		<tag k="name" v="Løvneset" />
		<tag k="natural" v="cape" />
		<tag k="ssr:stedsnr" v="55414" />
	</node>
	<node lat="61.13215833367456" lon="12.128897227736905" id="-17510">
		<tag k="name" v="Holmen" />
		<tag k="place" v="islet" />
		<tag k="ssr:stedsnr" v="55415" />
	</node>
	<node lat="61.16889721825214" lon="12.186530562284283" id="-17511">
		<tag k="highway" v="path" />
		<tag k="name" v="Varahollsætervegen" />
		<tag k="ssr:stedsnr" v="55526" />
	</node>
	<node lat="61.16488889049589" lon="12.202324997840593" id="-17512">
		<tag k="name" v="Gammelkvernbrenna" />
		<tag k="place" v="locality" />
		<tag k="ssr:stedsnr" v="55528" />
	</node>
	<node lat="61.3551166704723" lon="12.597397213408907" id="-17513">
		<tag k="name" v="Stengnollen" />
		<tag k="natural" v="hill" />
		<tag k="place" v="locality" />
		<tag k="ssr:stedsnr" v="55665" />
	</node>
	<node lat="61.342127773682954" lon="12.569486110393381" id="-17514">
		<tag k="highway" v="path" />
		<tag k="name" v="Engesvegen" />
		<tag k="ssr:stedsnr" v="55667" />
	</node>
	<node lat="61.24659166430793" lon="12.166519440465942" id="-17515">
		<tag k="name" v="Stenmyra" />
		<tag k="natural" v="wetland" />
		<tag k="ssr:stedsnr" v="239944" />
	</node>
	<node lat="61.30126111461109" lon="12.43844999596243" id="-17516">
		<tag k="name" v="Bakmyra" />
		<tag k="natural" v="wetland" />
		<tag k="ssr:stedsnr" v="239927" />
	</node>
	<node lat="61.138169440640574" lon="12.634249991799887" id="-17517">
		<tag k="landuse" v="meadow" />
		<tag k="name" v="Vakkermoenget" />
		<tag k="ssr:stedsnr" v="56374" />
	</node>
	<node lat="61.109380551712505" lon="12.662941667025084" id="-17518">
		<tag k="historic" v="shieling" />
		<tag k="name" v="Nestsætra" />
		<tag k="place" v="isolated_dwelling" />
		<tag k="ssr:stedsnr" v="56380" />
	</node>
	<node lat="61.12021388914396" lon="12.649574992804846" id="-17519">
		<tag k="fixme" v="consider highway=path" />
		<tag k="highway" v="track" />
		<tag k="name" v="Traugmyrvegen" />
		<tag k="ssr:stedsnr" v="56384" />
	</node>
	<node lat="61.330011114081074" lon="11.951838882384083" id="-17520">
		<tag k="name" v="Tømmerhaugen" />
		<tag k="natural" v="hill" />
		<tag k="place" v="locality" />
		<tag k="ssr:stedsnr" v="57182" />
	</node>
	<node lat="61.33516944811313" lon="11.927158342335229" id="-17521">
		<tag k="name" v="Klokkerloken" />
		<tag k="ssr:stedsnr" v="57185" />
		<tag k="waterway" v="dam" />
	</node>
	<node lat="61.3221500046047" lon="11.921466659021856" id="-17522">
		<tag k="name" v="Tjønnhaugen" />
		<tag k="natural" v="hill" />
		<tag k="place" v="locality" />
		<tag k="ssr:stedsnr" v="57195" />
	</node>
	<node lat="61.317502776587304" lon="11.928402781863936" id="-17523">
		<tag k="name" v="Tjønnåskoia" />
		<tag k="place" v="isolated_dwelling" />
		<tag k="ssr:stedsnr" v="57196" />
	</node>
	<node lat="61.26178055186761" lon="12.580286104591933" id="-17524">
		<tag k="name" v="Kjerringnålmyra" />
		<tag k="natural" v="wetland" />
		<tag k="ssr:stedsnr" v="240124" />
	</node>
	<node lat="61.11008333210325" lon="12.055041673203615" id="-17525">
		<tag k="name" v="Maritmyra" />
		<tag k="natural" v="wetland" />
		<tag k="ssr:stedsnr" v="57404" />
	</node>
	<node lat="61.32426111306143" lon="11.971283337958049" id="-17526">
		<tag k="name" v="Enerkoia" />
		<tag k="place" v="isolated_dwelling" />
		<tag k="ssr:stedsnr" v="57405" />
	</node>
	<node lat="61.23317500322425" lon="12.62716943553034" id="-17527">
		<tag k="name" v="Kildalbekken" />
		<tag k="ssr:stedsnr" v="57568" />
		<tag k="waterway" v="stream" />
	</node>
	<node lat="61.238799995730226" lon="12.681883333547445" id="-17528">
		<tag k="name" v="Orrleikkjølen" />
		<tag k="natural" v="wetland" />
		<tag k="ssr:stedsnr" v="57569" />
	</node>
	<node lat="61.190366666175215" lon="12.77285278601083" id="-17529">
		<tag k="name" v="Brunntjønnmyra" />
		<tag k="natural" v="wetland" />
		<tag k="ssr:stedsnr" v="57706" />
	</node>
	<node lat="61.30195000148069" lon="12.437516662224336" id="-17530">
		<tag k="name" v="Kjeldbekken" />
		<tag k="ssr:stedsnr" v="57901" />
		<tag k="waterway" v="stream" />
	</node>
	<node lat="61.208369445445854" lon="12.79630555237912" id="-17531">
		<tag k="name" v="Kristianskjølen" />
		<tag k="natural" v="wetland" />
		<tag k="ssr:stedsnr" v="57669" />
	</node>
	<node lat="61.068824998631094" lon="12.623119436027151" id="-17532">
		<tag k="fixme" v="consider highway=path" />
		<tag k="highway" v="track" />
		<tag k="name" v="Lulukrokvegen" />
		<tag k="ssr:stedsnr" v="240171" />
	</node>
	<node lat="61.06483889331615" lon="12.606825000063592" id="-17533">
		<tag k="name" v="Kverndammen" />
		<tag k="natural" v="water" />
		<tag k="ssr:stedsnr" v="240175" />
		<tag k="water" v="pond" />
	</node>
	<node lat="61.1712611080696" lon="12.623844439050199" id="-17534">
		<tag k="name" v="Nygardstjønna" />
		<tag k="natural" v="water" />
		<tag k="ssr:stedsnr" v="58002" />
	</node>
	<node lat="61.186186111251686" lon="12.67556943982391" id="-17535">
		<tag k="name" v="Nilstjønna" />
		<tag k="natural" v="water" />
		<tag k="ssr:stedsnr" v="58005" />
	</node>
	<node lat="61.22265555239585" lon="12.253166675421827" id="-17536">
		<tag k="name" v="Veslebekken" />
		<tag k="ssr:stedsnr" v="58608" />
		<tag k="waterway" v="stream" />
	</node>
	<node lat="61.21234166990184" lon="12.238783326120625" id="-17537">
		<tag k="name" v="Gammelsaga" />
		<tag k="place" v="locality" />
		<tag k="ssr:stedsnr" v="58614" />
	</node>
	<node lat="61.211172220152996" lon="12.21854166309351" id="-17538">
		<tag k="alt_name" v="Voldkvea" />
		<tag k="landuse" v="meadow" />
		<tag k="name" v="Vollkvea" />
		<tag k="ssr:stedsnr" v="58616" />
	</node>
	<node lat="61.17973055803149" lon="12.215277774748998" id="-17539">
		<tag k="name" v="Harsterbekken" />
		<tag k="ssr:stedsnr" v="59009" />
		<tag k="waterway" v="stream" />
	</node>
	<node lat="61.1819805529695" lon="12.24217776989181" id="-17540">
		<tag k="name" v="Smiehaugen" />
		<tag k="natural" v="hill" />
		<tag k="place" v="locality" />
		<tag k="ssr:stedsnr" v="59021" />
	</node>
	<node lat="61.172530553878566" lon="12.158644446925202" id="-17541">
		<tag k="name" v="Løkken" />
		<tag k="place" v="farm" />
		<tag k="ssr:stedsnr" v="58913" />
	</node>
	<node lat="61.0620583322219" lon="12.385061117897544" id="-17542">
		<tag k="name" v="Kankfallet" />
		<tag k="natural" v="valley" />
		<tag k="place" v="locality" />
		<tag k="ssr:stedsnr" v="59130" />
	</node>
	<node lat="61.059752775967745" lon="12.51529167368313" id="-17543">
		<tag k="fixme" v="consider natural=peak for the most distinct mountains in the district" />
		<tag k="name" v="Rysbakken" />
		<tag k="natural" v="hill" />
		<tag k="place" v="locality" />
		<tag k="ssr:stedsnr" v="59173" />
	</node>
	<node lat="61.09771389248146" lon="12.611891670752394" id="-17544">
		<tag k="fixme" v="consider highway=path" />
		<tag k="highway" v="track" />
		<tag k="name" v="Nordibergsvegen" />
		<tag k="ssr:stedsnr" v="59179" />
	</node>
	<node lat="61.09577777596097" lon="12.605672230605732" id="-17545">
		<tag k="name" v="Kaldbumyra" />
		<tag k="natural" v="wetland" />
		<tag k="ssr:stedsnr" v="59180" />
	</node>
	<node lat="61.1118222220721" lon="12.322766666136163" id="-17546">
		<tag k="fixme" v="consider natural=peak for the most distinct mountains in the district" />
		<tag k="name" v="Østeråsen" />
		<tag k="natural" v="hill" />
		<tag k="place" v="locality" />
		<tag k="ssr:stedsnr" v="59305" />
	</node>
	<node lat="61.13457778005887" lon="12.62000834099257" id="-17547">
		<tag k="name" v="Hundshøgdskjæra" />
		<tag k="natural" v="ridge" />
		<tag k="place" v="locality" />
		<tag k="ssr:stedsnr" v="59373" />
	</node>
	<node lat="61.10919721910799" lon="12.51870833612584" id="-17548">
		<tag k="name" v="Lutaloken" />
		<tag k="natural" v="water" />
		<tag k="ssr:stedsnr" v="59378" />
		<tag k="water" v="pond" />
	</node>
	<node lat="61.10565833336195" lon="12.509697230228468" id="-17549">
		<tag k="name" v="Stormyra" />
		<tag k="natural" v="wetland" />
		<tag k="ssr:stedsnr" v="59379" />
	</node>
	<node lat="61.304000002308946" lon="12.579255549073922" id="-17550">
		<tag k="name" v="Gunnarsmyra" />
		<tag k="natural" v="wetland" />
		<tag k="ssr:stedsnr" v="59082" />
	</node>
	<node lat="61.29944444219067" lon="11.966280546092682" id="-17551">
		<tag k="name" v="Olufkoia" />
		<tag k="place" v="isolated_dwelling" />
		<tag k="ssr:stedsnr" v="59220" />
	</node>
	<node lat="61.176219444016944" lon="12.600033340198829" id="-17552">
		<tag k="name" v="Furulusmyra" />
		<tag k="natural" v="wetland" />
		<tag k="ssr:stedsnr" v="59412" />
	</node>
	<node lat="61.179872218196614" lon="12.571094452787158" id="-17553">
		<tag k="name" v="Varden" />
		<tag k="natural" v="hill" />
		<tag k="place" v="locality" />
		<tag k="ssr:stedsnr" v="59416" />
	</node>
	<node lat="61.12436944755501" lon="12.301066662609138" id="-17554">
		<tag k="name" v="Furuholmskoia" />
		<tag k="place" v="isolated_dwelling" />
		<tag k="ssr:stedsnr" v="59420" />
	</node>
	<node lat="61.093897218780185" lon="12.463677775675434" id="-17555">
		<tag k="name" v="Svertåsmyra" />
		<tag k="natural" v="wetland" />
		<tag k="ssr:stedsnr" v="59503" />
	</node>
	<node lat="61.09260000305212" lon="12.450450001588901" id="-17556">
		<tag k="fixme" v="consider natural=peak for the most distinct mountains in the district" />
		<tag k="name" v="Svartåstangen" />
		<tag k="natural" v="hill" />
		<tag k="place" v="locality" />
		<tag k="ssr:stedsnr" v="59478" />
	</node>
	<node lat="61.30350555168715" lon="11.900544446311114" id="-17557">
		<tag k="name" v="Hølbekken" />
		<tag k="ssr:stedsnr" v="59486" />
		<tag k="waterway" v="stream" />
	</node>
	<node lat="61.30213611156813" lon="11.90194999550568" id="-17558">
		<tag k="name" v="Hølbekkrusta" />
		<tag k="place" v="locality" />
		<tag k="ssr:stedsnr" v="59487" />
	</node>
	<node lat="61.07184992073587" lon="12.404409783595963" id="-17559">
		<tag k="fixme" v="consider natural=peak for the most distinct mountains in the district" />
		<tag k="name" v="Vålåsen" />
		<tag k="natural" v="hill" />
		<tag k="place" v="locality" />
		<tag k="ssr:stedsnr" v="59492" />
	</node>
	<node lat="61.194816662706145" lon="12.715349990374891" id="-17560">
		<tag k="name" v="Tavla" />
		<tag k="place" v="locality" />
		<tag k="ssr:stedsnr" v="59903" />
	</node>
	<node lat="61.19778889166362" lon="12.736022218580782" id="-17561">
		<tag k="name" v="Porsmyra" />
		<tag k="natural" v="wetland" />
		<tag k="ssr:stedsnr" v="59907" />
	</node>
	<node lat="61.31114444544911" lon="12.604763886235212" id="-17562">
		<tag k="highway" v="path" />
		<tag k="name" v="Ryskbergvegen" />
		<tag k="ssr:stedsnr" v="59909" />
	</node>
	<node lat="61.19190061683061" lon="12.739149770398813" id="-17563">
		<tag k="name" v="Bjørvetholmen" />
		<tag k="place" v="locality" />
		<tag k="ssr:stedsnr" v="59910" />
	</node>
	<node lat="61.20386389285236" lon="12.725286112838369" id="-17564">
		<tag k="historic" v="shieling" />
		<tag k="name" v="Nilsvollen" />
		<tag k="place" v="isolated_dwelling" />
		<tag k="ssr:stedsnr" v="59919" />
	</node>
	<node lat="61.307941662641944" lon="12.593722213099971" id="-17565">
		<tag k="name" v="Langmyra" />
		<tag k="natural" v="wetland" />
		<tag k="ssr:stedsnr" v="59920" />
	</node>
	<node lat="61.203913886303646" lon="12.732222217558482" id="-17566">
		<tag k="name" v="Røyemyra" />
		<tag k="natural" v="wetland" />
		<tag k="ssr:stedsnr" v="59921" />
	</node>
	<node lat="61.26518055919616" lon="12.6652444371626" id="-17567">
		<tag k="name" v="Slåttmora" />
		<tag k="place" v="locality" />
		<tag k="ssr:stedsnr" v="59923" />
	</node>
	<node lat="61.27144722233435" lon="12.626361113183648" id="-17568">
		<tag k="name" v="Hålålihaugen" />
		<tag k="natural" v="hill" />
		<tag k="place" v="locality" />
		<tag k="ssr:stedsnr" v="59924" />
	</node>
	<node lat="61.26991111308389" lon="12.636338895100092" id="-17569">
		<tag k="name" v="Løvåsen" />
		<tag k="natural" v="hill" />
		<tag k="place" v="locality" />
		<tag k="ssr:stedsnr" v="59925" />
	</node>
	<node lat="61.03349722071958" lon="12.28084721449273" id="-17570">
		<tag k="name" v="Høljelia" />
		<tag k="natural" v="slope" />
		<tag k="place" v="locality" />
		<tag k="ssr:stedsnr" v="241065" />
	</node>
	<node lat="61.08407222134798" lon="12.349838883524232" id="-17571">
		<tag k="name" v="Fallmyra" />
		<tag k="natural" v="wetland" />
		<tag k="ssr:stedsnr" v="241148" />
	</node>
	<node lat="61.28086388544218" lon="12.554097222456573" id="-17572">
		<tag k="landuse" v="meadow" />
		<tag k="name" v="Løenget" />
		<tag k="ssr:stedsnr" v="241102" />
	</node>
	<node lat="61.27930277812386" lon="12.552316672856872" id="-17573">
		<tag k="landuse" v="meadow" />
		<tag k="name" v="Tuvdansen" />
		<tag k="ssr:stedsnr" v="241105" />
	</node>
	<node lat="61.28997777941499" lon="11.96120555903484" id="-17574">
		<tag k="name" v="Krokmyra" />
		<tag k="natural" v="wetland" />
		<tag k="ssr:stedsnr" v="241163" />
	</node>
	<node lat="61.28059444662256" lon="11.964508332931906" id="-17575">
		<tag k="name" v="Rotodden" />
		<tag k="natural" v="cape" />
		<tag k="ssr:stedsnr" v="241166" />
	</node>
	<node lat="61.26854444015095" lon="11.951319446973436" id="-17576">
		<tag k="name" v="Gnollmyra" />
		<tag k="natural" v="wetland" />
		<tag k="ssr:stedsnr" v="241173" />
	</node>
	<node lat="61.266049998283364" lon="11.943505556476824" id="-17577">
		<tag k="name" v="Ingridhøgda" />
		<tag k="natural" v="hill" />
		<tag k="place" v="locality" />
		<tag k="ssr:stedsnr" v="241174" />
	</node>
	<node lat="61.06839444885344" lon="12.547319436475975" id="-17578">
		<tag k="name" v="Risperkoia" />
		<tag k="place" v="isolated_dwelling" />
		<tag k="ssr:stedsnr" v="241176" />
	</node>
	<node lat="61.25417500388383" lon="11.951336105619724" id="-17579">
		<tag k="name" v="Granåskulpen" />
		<tag k="natural" v="water" />
		<tag k="ssr:stedsnr" v="241190" />
	</node>
	<node lat="61.09756944618719" lon="12.612597220584453" id="-17580">
		<tag k="name" v="Nordiberget" />
		<tag k="place" v="farm" />
		<tag k="ssr:stedsnr" v="241191" />
	</node>
	<node lat="61.241319440864" lon="11.940999993381624" id="-17581">
		<tag k="name" v="Kvitstubben" />
		<tag k="place" v="locality" />
		<tag k="ssr:stedsnr" v="241192" />
	</node>
	<node lat="61.23691388555495" lon="11.952541670314774" id="-17582">
		<tag k="name" v="Vestersjøen" />
		<tag k="natural" v="wetland" />
		<tag k="ssr:stedsnr" v="241193" />
	</node>
	<node lat="61.230966664094105" lon="11.956369438533125" id="-17583">
		<tag k="name" v="Frøtallbrenna" />
		<tag k="place" v="locality" />
		<tag k="ssr:stedsnr" v="241196" />
	</node>
	<node lat="61.25590555627046" lon="12.395783333550424" id="-17584">
		<tag k="name" v="Bondbrenna" />
		<tag k="place" v="locality" />
		<tag k="ssr:stedsnr" v="241202" />
	</node>
	<node lat="61.30201389306995" lon="11.948186106020932" id="-17585">
		<tag k="name" v="Flybrakka" />
		<tag k="place" v="isolated_dwelling" />
		<tag k="ssr:stedsnr" v="241221" />
	</node>
	<node lat="61.114658333702266" lon="12.539802779825726" id="-17586">
		<tag k="name" v="Neskoia" />
		<tag k="place" v="isolated_dwelling" />
		<tag k="ssr:stedsnr" v="241355" />
	</node>
	<node lat="61.14084722331545" lon="12.582094439525614" id="-17587">
		<tag k="fixme" v="consider highway=path" />
		<tag k="highway" v="track" />
		<tag k="name" v="Hundshøgdvegen" />
		<tag k="ssr:stedsnr" v="241360" />
	</node>
	<node lat="61.10977777812794" lon="12.541263897736107" id="-17588">
		<tag k="fixme" v="consider highway=path" />
		<tag k="highway" v="track" />
		<tag k="name" v="Grønengvegen" />
		<tag k="ssr:stedsnr" v="241365" />
	</node>
	<node lat="61.09766110975469" lon="12.420297222374547" id="-17589">
		<tag k="name" v="Gammelsagfloen" />
		<tag k="natural" v="water" />
		<tag k="ssr:stedsnr" v="241470" />
		<tag k="water" v="lake" />
	</node>
	<node lat="61.16836944273716" lon="12.522422220782403" id="-17590">
		<tag k="name" v="Stenli" />
		<tag k="place" v="isolated_dwelling" />
		<tag k="ssr:stedsnr" v="241471" />
	</node>
	<node lat="61.08933611529643" lon="12.414794442961298" id="-17591">
		<tag k="name" v="Phillisdalen" />
		<tag k="natural" v="valley" />
		<tag k="place" v="locality" />
		<tag k="ssr:stedsnr" v="241473" />
	</node>
	<node lat="61.07414999918597" lon="12.419705563364374" id="-17592">
		<tag k="name" v="Flåtåmyra" />
		<tag k="natural" v="wetland" />
		<tag k="ssr:stedsnr" v="241475" />
	</node>
	<node lat="61.23423610785549" lon="12.259938893651809" id="-17593">
		<tag k="name" v="Håbrenna" />
		<tag k="place" v="locality" />
		<tag k="ssr:stedsnr" v="241424" />
	</node>
	<node lat="61.172341670167874" lon="12.29118055882451" id="-17594">
		<tag k="name" v="Hemmyra" />
		<tag k="natural" v="wetland" />
		<tag k="ssr:stedsnr" v="241756" />
	</node>
	<node lat="61.2264944452444" lon="12.394752784669693" id="-17595">
		<tag k="name" v="Svarttjønna" />
		<tag k="natural" v="water" />
		<tag k="ssr:stedsnr" v="241713" />
	</node>
	<node lat="61.22772777416884" lon="12.412147225530745" id="-17596">
		<tag k="name" v="Vestre Bredvika" />
		<tag k="natural" v="bay" />
		<tag k="ssr:stedsnr" v="241716" />
	</node>
	<node lat="61.22887777490802" lon="12.412905548865476" id="-17597">
		<tag k="name" v="Østre Bredvika" />
		<tag k="natural" v="bay" />
		<tag k="ssr:stedsnr" v="241717" />
	</node>
	<node lat="61.21439166816811" lon="12.303063887206067" id="-17598">
		<tag k="name" v="Finnolahemmet" />
		<tag k="place" v="locality" />
		<tag k="ssr:stedsnr" v="241774" />
	</node>
	<node lat="61.20533055979572" lon="12.71048056294142" id="-17599">
		<tag k="name" v="Nordre Øvstmyra" />
		<tag k="natural" v="wetland" />
		<tag k="ssr:stedsnr" v="241931" />
	</node>
	<node lat="61.24123889161511" lon="12.137644436496256" id="-17600">
		<tag k="name" v="Larskoia" />
		<tag k="place" v="isolated_dwelling" />
		<tag k="ssr:stedsnr" v="68002" />
	</node>
	<node lat="61.168250002263804" lon="11.820275007887867" id="-17601">
		<tag k="historic" v="shieling" />
		<tag k="name" v="Svartstubbsætra" />
		<tag k="place" v="isolated_dwelling" />
		<tag k="ssr:stedsnr" v="68399" />
	</node>
	<node lat="61.0554166633668" lon="12.639480564140037" id="-17602">
		<tag k="name" v="Skipperbekken" />
		<tag k="ssr:stedsnr" v="68548" />
		<tag k="waterway" v="stream" />
	</node>
	<node lat="61.268421144896614" lon="12.305896397591221" id="-17603">
		<tag k="fixme" v="consider place=hamlet" />
		<tag k="loc_name" v="Nysæteren;Nysætra" />
		<tag k="name" v="Nysæter" />
		<tag k="place" v="farm" />
		<tag k="ssr:stedsnr" v="242171" />
	</node>
	<node lat="61.19278840432173" lon="12.602486537799543" id="-17604">
		<tag k="loc_name" v="Falkerstrandtjønnen" />
		<tag k="name" v="Folkestrandtjønnen" />
		<tag k="natural" v="water" />
		<tag k="ssr:stedsnr" v="68610" />
		<tag k="water" v="lake" />
	</node>
	<node lat="61.185800002042924" lon="12.676825007541687" id="-17605">
		<tag k="name" v="Røtostjønna" />
		<tag k="natural" v="water" />
		<tag k="ssr:stedsnr" v="68613" />
	</node>
	<node lat="61.103150000986155" lon="12.563211107982145" id="-17606">
		<tag k="name" v="Fossvang" />
		<tag k="place" v="farm" />
		<tag k="ssr:stedsnr" v="68711" />
	</node>
	<node lat="61.1938944487858" lon="12.479966666327385" id="-17607">
		<tag k="alt_name" v="Løkja" />
		<tag k="name" v="Lykkja" />
		<tag k="place" v="farm" />
		<tag k="ssr:stedsnr" v="68788" />
	</node>
	<node lat="61.19248770379221" lon="12.43727085683777" id="-17608">
		<tag k="alt_name" v="Nordre Kolos" />
		<tag k="fixme" v="consider place=hamlet" />
		<tag k="name" v="Kolos" />
		<tag k="place" v="farm" />
		<tag k="ssr:stedsnr" v="68791" />
	</node>
	<node lat="61.08342777513824" lon="11.982941671338965" id="-17609">
		<tag k="alt_name" v="Mogård" />
		<tag k="name" v="Mogard" />
		<tag k="place" v="farm" />
		<tag k="ssr:stedsnr" v="68903" />
	</node>
	<node lat="61.11554166568212" lon="11.965022212968769" id="-17610">
		<tag k="name" v="Slettum" />
		<tag k="place" v="farm" />
		<tag k="ssr:stedsnr" v="68945" />
	</node>
	<node lat="61.07796666974575" lon="12.238424995491854" id="-17611">
		<tag k="name" v="Teigen" />
		<tag k="place" v="farm" />
		<tag k="ssr:stedsnr" v="68689" />
	</node>
	<node lat="61.08846388588512" lon="12.580783335771844" id="-17612">
		<tag k="name" v="Skjeftodden" />
		<tag k="place" v="farm" />
		<tag k="ssr:stedsnr" v="68695" />
	</node>
	<node lat="61.186374998576795" lon="12.541780553812185" id="-17613">
		<tag k="name" v="Rud" />
		<tag k="place" v="farm" />
		<tag k="ssr:stedsnr" v="68807" />
	</node>
	<node lat="61.225691666935475" lon="12.485902782946141" id="-17614">
		<tag k="name" v="Tangfallmyra" />
		<tag k="natural" v="wetland" />
		<tag k="ssr:stedsnr" v="68826" />
	</node>
	<node lat="61.039569448743705" lon="12.218011110949217" id="-17615">
		<tag k="alt_name" v="Munkakoia" />
		<tag k="name" v="Munka" />
		<tag k="place" v="isolated_dwelling" />
		<tag k="ssr:stedsnr" v="68894" />
	</node>
	<node lat="61.48934722254031" lon="11.803016657503152" id="-17616">
		<tag k="name" v="Lyngen" />
		<tag k="place" v="isolated_dwelling" />
		<tag k="ssr:stedsnr" v="69204" />
	</node>
	<node lat="61.28478889197359" lon="12.283030548108018" id="-17617">
		<tag k="alt_name" v="Tørmo" />
		<tag k="name" v="Tørrmo" />
		<tag k="place" v="farm" />
		<tag k="ssr:stedsnr" v="69295" />
	</node>
	<node lat="61.34476944556012" lon="12.752552774881957" id="-17618">
		<tag k="alt_name" v="Årkosa" />
		<tag k="historic" v="shieling" />
		<tag k="name" v="Årkåsa" />
		<tag k="place" v="isolated_dwelling" />
		<tag k="ssr:stedsnr" v="69439" />
	</node>
	<node lat="61.47606389033294" lon="12.344538887304697" id="-17619">
		<tag k="fixme" v="consider natural=peak for the most distinct mountains in the district" />
		<tag k="name" v="Skardtangen" />
		<tag k="natural" v="hill" />
		<tag k="place" v="locality" />
		<tag k="ssr:stedsnr" v="69602" />
	</node>
	<node lat="61.46643888857817" lon="12.244069450590352" id="-17620">
		<tag k="alt_name" v="Nyård" />
		<tag k="name" v="Nygard" />
		<tag k="place" v="farm" />
		<tag k="ssr:stedsnr" v="69607" />
	</node>
	<node lat="61.35653332937116" lon="11.964369452606782" id="-17621">
		<tag k="name" v="Høgtun" />
		<tag k="place" v="farm" />
		<tag k="ssr:stedsnr" v="69612" />
	</node>
	<node lat="61.36277221919763" lon="11.859583341737002" id="-17622">
		<tag k="name" v="Nybø" />
		<tag k="place" v="farm" />
		<tag k="ssr:stedsnr" v="69616" />
	</node>
	<node lat="61.25779579386347" lon="12.332445583230715" id="-17623">
		<tag k="alt_name" v="Østbakken" />
		<tag k="fixme" v="consider place=hamlet" />
		<tag k="name" v="Ytstbakken" />
		<tag k="place" v="farm" />
		<tag k="ssr:stedsnr" v="69380" />
	</node>
	<node lat="61.260907187805955" lon="12.811942777643695" id="-17624">
		<tag k="fixme" v="consider place=hamlet" />
		<tag k="name" v="Støa" />
		<tag k="place" v="farm" />
		<tag k="ssr:stedsnr" v="69398" />
	</node>
	<node lat="61.252213884562615" lon="12.018416671448277" id="-17625">
		<tag k="name" v="Neby" />
		<tag k="place" v="farm" />
		<tag k="ssr:stedsnr" v="69581" />
	</node>
	<node lat="61.06772777681406" lon="12.440355552719852" id="-17626">
		<tag k="alt_name" v="Kværnmyra" />
		<tag k="name" v="Kvernmyra" />
		<tag k="natural" v="wetland" />
		<tag k="ssr:stedsnr" v="69703" />
	</node>
	<node lat="61.479952777444325" lon="12.535352768759422" id="-17627">
		<tag k="alt_name" v="Dypflo" />
		<tag k="name" v="Djupflo" />
		<tag k="place" v="farm" />
		<tag k="ssr:stedsnr" v="69729" />
	</node>
	<node lat="61.4754444407974" lon="12.534438894971" id="-17628">
		<tag k="name" v="Nordby" />
		<tag k="place" v="farm" />
		<tag k="ssr:stedsnr" v="69731" />
	</node>
	<node lat="61.407419440381645" lon="12.152969446370816" id="-17629">
		<tag k="name" v="Nyvålen" />
		<tag k="place" v="farm" />
		<tag k="ssr:stedsnr" v="69901" />
	</node>
	<node lat="61.415338889394114" lon="12.146613879679363" id="-17630">
		<tag k="name" v="Vålen" />
		<tag k="place" v="farm" />
		<tag k="ssr:stedsnr" v="69902" />
	</node>
	<node lat="61.410522218260844" lon="11.90685833656975" id="-17631">
		<tag k="name" v="Krokengkjølen" />
		<tag k="natural" v="wetland" />
		<tag k="ssr:stedsnr" v="69910" />
	</node>
	<node lat="61.41600555824969" lon="12.121016658783198" id="-17632">
		<tag k="name" v="Småmyra" />
		<tag k="place" v="farm" />
		<tag k="ssr:stedsnr" v="69912" />
	</node>
	<node lat="61.38040833371125" lon="12.061425005244848" id="-17633">
		<tag k="name" v="Styggkjølen" />
		<tag k="natural" v="wetland" />
		<tag k="ssr:stedsnr" v="69929" />
	</node>
	<node lat="61.392291666579375" lon="12.14141111332712" id="-17634">
		<tag k="name" v="Høgtun" />
		<tag k="place" v="farm" />
		<tag k="ssr:stedsnr" v="69932" />
	</node>
	<node lat="61.36700278133681" lon="12.504969440871431" id="-17635">
		<tag k="alt_name" v="Vordkjelda" />
		<tag k="name" v="Volkjelda" />
		<tag k="ssr:stedsnr" v="69698" />
		<tag k="waterway" v="stream" />
	</node>
	<node lat="61.056311110563" lon="12.259200000428578" id="-17636">
		<tag k="name" v="Ørtjønn" />
		<tag k="natural" v="water" />
		<tag k="ssr:stedsnr" v="69700" />
	</node>
	<node lat="61.49161246894554" lon="12.116195570590893" id="-17637">
		<tag k="alt_name" v="Sandbakk" />
		<tag k="name" v="Sandbakken" />
		<tag k="place" v="farm" />
		<tag k="ssr:stedsnr" v="69840" />
	</node>
	<node lat="61.395386107168484" lon="11.92013888835997" id="-17638">
		<tag k="name" v="Hølbekkjølen" />
		<tag k="natural" v="wetland" />
		<tag k="ssr:stedsnr" v="69891" />
	</node>
	<node lat="61.40393333541913" lon="12.043863887807698" id="-17639">
		<tag k="name" v="Hovde" />
		<tag k="place" v="locality" />
		<tag k="ssr:stedsnr" v="69897" />
	</node>
	<node lat="61.408095868284576" lon="12.065433022347067" id="-17640">
		<tag k="name" v="Øvre Skjæret" />
		<tag k="place" v="farm" />
		<tag k="ssr:stedsnr" v="69898" />
	</node>
	<node lat="61.407977776542104" lon="12.150836104915578" id="-17641">
		<tag k="name" v="Nydal" />
		<tag k="place" v="farm" />
		<tag k="ssr:stedsnr" v="69900" />
	</node>
	<node lat="61.14443055466291" lon="11.888347221362768" id="-17642">
		<tag k="name" v="Sæterbekken" />
		<tag k="ssr:stedsnr" v="69981" />
		<tag k="waterway" v="stream" />
	</node>
	<node lat="61.52704721787682" lon="11.967150002140928" id="-17643">
		<tag k="fixme" v="consider natural=peak for the most distinct mountains in the district" />
		<tag k="name" v="Fjellmora" />
		<tag k="natural" v="hill" />
		<tag k="place" v="locality" />
		<tag k="ssr:stedsnr" v="70579" />
	</node>
	<node lat="61.600031727987805" lon="12.343009275755694" id="-17644">
		<tag k="alt_name" v="Skjerbekken;Skjærbekk" />
		<tag k="name" v="Skjærbekken" />
		<tag k="ssr:stedsnr" v="71537" />
		<tag k="waterway" v="stream" />
	</node>
	<node lat="61.61138055240694" lon="12.301449997426976" id="-17645">
		<tag k="name" v="Gnollbekken" />
		<tag k="ssr:stedsnr" v="71540" />
		<tag k="waterway" v="stream" />
	</node>
	<node lat="61.5175388863416" lon="12.550163882598268" id="-17646">
		<tag k="historic" v="shieling" />
		<tag k="name" v="Fregnsætra" />
		<tag k="place" v="isolated_dwelling" />
		<tag k="ssr:stedsnr" v="71575" />
	</node>
	<node lat="61.52287200942412" lon="12.505700898357421" id="-17647">
		<tag k="alt_name" v="Røyningen" />
		<tag k="name" v="Rønningen" />
		<tag k="place" v="farm" />
		<tag k="ssr:stedsnr" v="71576" />
	</node>
	<node lat="61.51080051463886" lon="12.244835198320514" id="-17648">
		<tag k="name" v="Åtun" />
		<tag k="place" v="farm" />
		<tag k="ssr:stedsnr" v="71583" />
	</node>
	<node lat="61.50318888894424" lon="12.620144450821591" id="-17649">
		<tag k="fixme" v="consider natural=peak for the most distinct mountains in the district" />
		<tag k="name" v="Slottshammaren" />
		<tag k="natural" v="hill" />
		<tag k="place" v="locality" />
		<tag k="ssr:stedsnr" v="71587" />
	</node>
	<node lat="61.55645000119582" lon="12.154455558929795" id="-17650">
		<tag k="fixme" v="consider natural=peak for the most distinct mountains in the district" />
		<tag k="name" v="Rypåsen" />
		<tag k="natural" v="hill" />
		<tag k="place" v="locality" />
		<tag k="ssr:stedsnr" v="71670" />
	</node>
	<node lat="61.20426944231075" lon="12.684688879393189" id="-17651">
		<tag k="name" v="Tannånesbekken" />
		<tag k="ssr:stedsnr" v="84138" />
		<tag k="waterway" v="stream" />
	</node>
	<node lat="61.09429722006578" lon="11.922963887531385" id="-17652">
		<tag k="alt_name" v="Granåsen, nørdre" />
		<tag k="fixme" v="consider natural=peak for the most distinct mountains in the district" />
		<tag k="name" v="Nordre Granåsen" />
		<tag k="natural" v="hill" />
		<tag k="place" v="locality" />
		<tag k="ssr:stedsnr" v="85103" />
	</node>
	<node lat="61.23179444907456" lon="12.125513880677047" id="-17653">
		<tag k="name" v="Svarttjønngnolla" />
		<tag k="natural" v="hill" />
		<tag k="place" v="locality" />
		<tag k="ssr:stedsnr" v="85123" />
	</node>
	<node lat="61.29729444801602" lon="12.319975006229752" id="-17654">
		<tag k="name" v="Knettjønnmyra" />
		<tag k="natural" v="wetland" />
		<tag k="ssr:stedsnr" v="87111" />
	</node>
	<node lat="61.34029722330823" lon="12.193963894893171" id="-17655">
		<tag k="name" v="Ingvaldstad" />
		<tag k="place" v="isolated_dwelling" />
		<tag k="ssr:stedsnr" v="87112" />
	</node>
	<node lat="61.2885138890279" lon="12.208975000963463" id="-17656">
		<tag k="name" v="Håvibekken" />
		<tag k="ssr:stedsnr" v="87012" />
		<tag k="waterway" v="stream" />
	</node>
	<node lat="61.311197218722306" lon="12.307283334896667" id="-17657">
		<tag k="name" v="Ørådammen" />
		<tag k="ssr:stedsnr" v="87079" />
		<tag k="waterway" v="dam" />
	</node>
	<node lat="61.3182027779062" lon="12.255436111826286" id="-17658">
		<tag k="name" v="Sundstøa" />
		<tag k="place" v="farm" />
		<tag k="ssr:stedsnr" v="87082" />
	</node>
	<node lat="61.26241111015207" lon="12.365433340905792" id="-17659">
		<tag k="name" v="Bakkrønningen" />
		<tag k="place" v="locality" />
		<tag k="ssr:stedsnr" v="87343" />
	</node>
	<node lat="61.25806388591896" lon="12.376041658970275" id="-17660">
		<tag k="name" v="Gunderholmen" />
		<tag k="place" v="islet" />
		<tag k="ssr:stedsnr" v="87344" />
	</node>
	<node lat="61.31296389034779" lon="12.083174995568054" id="-17661">
		<tag k="name" v="Vestre Entjønnkjølen" />
		<tag k="natural" v="wetland" />
		<tag k="ssr:stedsnr" v="87394" />
	</node>
	<node lat="61.11865000036712" lon="11.87765834037637" id="-17662">
		<tag k="name" v="Østlibekklia" />
		<tag k="natural" v="slope" />
		<tag k="place" v="locality" />
		<tag k="ssr:stedsnr" v="87523" />
	</node>
	<node lat="61.341752780561116" lon="12.002838891198445" id="-17663">
		<tag k="name" v="Eggemyrene" />
		<tag k="natural" v="wetland" />
		<tag k="ssr:stedsnr" v="87484" />
	</node>
	<node lat="61.30589444597389" lon="12.306630558176296" id="-17664">
		<tag k="name" v="Stendiket" />
		<tag k="natural" v="wetland" />
		<tag k="ssr:stedsnr" v="87492" />
	</node>
	<node lat="61.30399721998335" lon="12.076619447819185" id="-17665">
		<tag k="name" v="Killingskjæra" />
		<tag k="natural" v="ridge" />
		<tag k="place" v="locality" />
		<tag k="ssr:stedsnr" v="87427" />
	</node>
	<node lat="61.18784999812344" lon="11.855311105046287" id="-17666">
		<tag k="leisure" v="pitch" />
		<tag k="name" v="Nordskråbakken" />
		<tag k="ssr:stedsnr" v="87604" />
	</node>
	<node lat="61.603866664750754" lon="12.066333342240945" id="-17667">
		<tag k="name" v="Løvhaugen" />
		<tag k="natural" v="hill" />
		<tag k="place" v="locality" />
		<tag k="ssr:stedsnr" v="87621" />
	</node>
	<node lat="61.40830277342455" lon="11.990813890691747" id="-17668">
		<tag k="name" v="Eltbogen" />
		<tag k="place" v="locality" />
		<tag k="ssr:stedsnr" v="87711" />
	</node>
	<node lat="61.36841389331008" lon="12.138522213727661" id="-17669">
		<tag k="name" v="Svartåsmyra" />
		<tag k="natural" v="wetland" />
		<tag k="ssr:stedsnr" v="87722" />
	</node>
	<node lat="61.36232777494146" lon="12.154491663017879" id="-17670">
		<tag k="name" v="Nordre Kjølstadmyra" />
		<tag k="natural" v="wetland" />
		<tag k="ssr:stedsnr" v="87724" />
	</node>
	<node lat="61.323083329781475" lon="11.907291666279205" id="-17671">
		<tag k="name" v="Tenåskjølen" />
		<tag k="natural" v="wetland" />
		<tag k="ssr:stedsnr" v="100386" />
	</node>
	<node lat="61.13598889166639" lon="12.352869436529993" id="-17672">
		<tag k="name" v="Storkjølen" />
		<tag k="natural" v="wetland" />
		<tag k="ssr:stedsnr" v="100526" />
	</node>
	<node lat="61.123055552117975" lon="12.37999722137819" id="-17673">
		<tag k="name" v="Orreleiken" />
		<tag k="natural" v="wetland" />
		<tag k="ssr:stedsnr" v="100528" />
	</node>
	<node lat="61.147713885810944" lon="12.547283335162488" id="-17674">
		<tag k="name" v="Tømmerbekken" />
		<tag k="ssr:stedsnr" v="101370" />
		<tag k="waterway" v="stream" />
	</node>
	<node lat="61.13521110823122" lon="12.467722228079255" id="-17675">
		<tag k="name" v="Gørsildtjønna" />
		<tag k="natural" v="water" />
		<tag k="ssr:stedsnr" v="101705" />
	</node>
	<node lat="61.22439722076258" lon="12.62912221733593" id="-17676">
		<tag k="name" v="Karenbrenna" />
		<tag k="place" v="locality" />
		<tag k="ssr:stedsnr" v="101783" />
	</node>
	<node lat="61.19071666278084" lon="12.487175000504276" id="-17677">
		<tag k="amenity" v="community_centre" />
		<tag k="name" v="Åsvang" />
		<tag k="ssr:stedsnr" v="101921" />
	</node>
	<node lat="61.121194445239" lon="11.993438891328056" id="-17678">
		<tag k="name" v="Nemsvemyra" />
		<tag k="natural" v="wetland" />
		<tag k="ssr:stedsnr" v="102016" />
	</node>
	<node lat="61.10664166956615" lon="11.992891663311193" id="-17679">
		<tag k="name" v="Sameia" />
		<tag k="place" v="neighbourhood" />
		<tag k="ssr:stedsnr" v="102021" />
	</node>
	<node lat="61.098466666209994" lon="12.322572215281221" id="-17680">
		<tag k="name" v="Bjørbekkjølen" />
		<tag k="natural" v="wetland" />
		<tag k="ssr:stedsnr" v="102316" />
	</node>
	<node lat="61.04210833653084" lon="12.234152778271925" id="-17681">
		<tag k="name" v="Klubbrud" />
		<tag k="place" v="isolated_dwelling" />
		<tag k="ssr:stedsnr" v="102370" />
	</node>
	<node lat="61.04171111314905" lon="12.24884445046419" id="-17682">
		<tag k="name" v="Patenten" />
		<tag k="place" v="isolated_dwelling" />
		<tag k="ssr:stedsnr" v="102372" />
	</node>
	<node lat="61.3175861101585" lon="12.458447227063955" id="-17683">
		<tag k="name" v="Nyvoll" />
		<tag k="place" v="locality" />
		<tag k="ssr:stedsnr" v="102478" />
	</node>
	<node lat="61.35235277713246" lon="12.272397225472831" id="-17684">
		<tag k="name" v="Smørmyrbekken" />
		<tag k="ssr:stedsnr" v="102604" />
		<tag k="waterway" v="stream" />
	</node>
	<node lat="61.3532499999784" lon="12.282183341222066" id="-17685">
		<tag k="name" v="Smørmyrene" />
		<tag k="natural" v="wetland" />
		<tag k="ssr:stedsnr" v="102606" />
	</node>
	<node lat="61.15708889250098" lon="12.314530556266721" id="-17686">
		<tag k="fixme" v="consider natural=peak for the most distinct mountains in the district" />
		<tag k="name" v="Kuntåsen" />
		<tag k="natural" v="hill" />
		<tag k="place" v="locality" />
		<tag k="ssr:stedsnr" v="102614" />
	</node>
	<node lat="61.26991110710652" lon="12.041638885685675" id="-17687">
		<tag k="name" v="Vesleåsmyra" />
		<tag k="natural" v="wetland" />
		<tag k="ssr:stedsnr" v="102709" />
	</node>
	<node lat="61.28123333111589" lon="12.568519437015587" id="-17688">
		<tag k="name" v="Bjørsetkva" />
		<tag k="place" v="locality" />
		<tag k="ssr:stedsnr" v="102711" />
	</node>
	<node lat="61.25198611280645" lon="12.038416663605044" id="-17689">
		<tag k="name" v="Høgtun" />
		<tag k="place" v="farm" />
		<tag k="ssr:stedsnr" v="102723" />
	</node>
	<node lat="61.25722222459024" lon="12.03253611908804" id="-17690">
		<tag k="name" v="Fugllekegga" />
		<tag k="natural" v="hill" />
		<tag k="place" v="locality" />
		<tag k="ssr:stedsnr" v="102725" />
	</node>
	<node lat="61.15701389172209" lon="12.168863882780157" id="-17691">
		<tag k="name" v="Domningsneset" />
		<tag k="place" v="locality" />
		<tag k="ssr:stedsnr" v="102740" />
	</node>
	<node lat="61.15689166438174" lon="12.174069451501747" id="-17692">
		<tag k="name" v="Vinterneset" />
		<tag k="place" v="locality" />
		<tag k="ssr:stedsnr" v="102741" />
	</node>
	<node lat="61.11818055829937" lon="12.199505558833845" id="-17693">
		<tag k="name" v="Modakoda" />
		<tag k="ssr:stedsnr" v="102751" />
		<tag k="waterway" v="stream" />
	</node>
	<node lat="61.19885000155883" lon="12.595597218688022" id="-17694">
		<tag k="landuse" v="meadow" />
		<tag k="name" v="Skarpstranda" />
		<tag k="ssr:stedsnr" v="102805" />
	</node>
	<node lat="61.35225277620971" lon="12.727883325979255" id="-17695">
		<tag k="name" v="Milfurua" />
		<tag k="ssr:stedsnr" v="102877" />
		<tag k="tourism" v="attraction" />
	</node>
	<node lat="61.19950833334614" lon="12.743733341672527" id="-17696">
		<tag k="name" v="Matrustbakken" />
		<tag k="natural" v="slope" />
		<tag k="place" v="locality" />
		<tag k="ssr:stedsnr" v="102774" />
	</node>
	<node lat="61.2000138902466" lon="12.230961119010082" id="-17697">
		<tag k="name" v="Kjerringnålmyra" />
		<tag k="natural" v="wetland" />
		<tag k="ssr:stedsnr" v="102984" />
	</node>
	<node lat="61.10055555475649" lon="12.647011115102273" id="-17698">
		<tag k="name" v="Bradansmoen" />
		<tag k="place" v="locality" />
		<tag k="ssr:stedsnr" v="102994" />
	</node>
	<node lat="61.30011110998505" lon="11.979222220339231" id="-17699">
		<tag k="name" v="Perknulen" />
		<tag k="natural" v="hill" />
		<tag k="place" v="locality" />
		<tag k="ssr:stedsnr" v="103404" />
	</node>
	<node lat="61.30313889066678" lon="11.981511102731302" id="-17700">
		<tag k="name" v="Buskskjærfallet" />
		<tag k="natural" v="waterfall" />
		<tag k="ssr:stedsnr" v="103408" />
	</node>
	<node lat="61.22420277371562" lon="12.776869452264117" id="-17701">
		<tag k="landuse" v="meadow" />
		<tag k="name" v="Kjelda" />
		<tag k="ssr:stedsnr" v="103525" />
	</node>
	<node lat="61.20741944120755" lon="12.150902773086324" id="-17702">
		<tag k="name" v="Raugnollen" />
		<tag k="natural" v="hill" />
		<tag k="place" v="locality" />
		<tag k="ssr:stedsnr" v="103616" />
	</node>
	<node lat="61.31108889243781" lon="12.829205556537882" id="-17703">
		<tag k="name" v="Løvbrenna" />
		<tag k="place" v="locality" />
		<tag k="ssr:stedsnr" v="103690" />
	</node>
	<node lat="61.26518055433543" lon="12.142613896738407" id="-17704">
		<tag k="bridge" v="yes" />
		<tag k="layer" v="1" />
		<tag k="name" v="Grøna bru" />
		<tag k="ssr:stedsnr" v="107737" />
	</node>
	<node lat="61.076352776314195" lon="12.672816665639303" id="-17705">
		<tag k="bridge" v="yes" />
		<tag k="layer" v="1" />
		<tag k="name" v="Rundsjøbekk" />
		<tag k="ssr:stedsnr" v="107743" />
	</node>
	<node lat="61.49320833363168" lon="12.11710832587782" id="-17706">
		<tag k="alt_name" v="Rødmoen bru" />
		<tag k="bridge" v="yes" />
		<tag k="layer" v="1" />
		<tag k="name" v="Rømoen bru" />
		<tag k="ssr:stedsnr" v="107745" />
	</node>
	<node lat="61.22831110989919" lon="12.206986107126825" id="-17707">
		<tag k="name" v="Norddal" />
		<tag k="place" v="farm" />
		<tag k="ssr:stedsnr" v="250041" />
	</node>
	<node lat="61.22816666742408" lon="12.150275006805593" id="-17708">
		<tag k="name" v="Fisketjønna" />
		<tag k="natural" v="water" />
		<tag k="ssr:stedsnr" v="250044" />
	</node>
	<node lat="61.22949999738308" lon="12.18712222098387" id="-17709">
		<tag k="name" v="Storbekken" />
		<tag k="ssr:stedsnr" v="250045" />
		<tag k="waterway" v="stream" />
	</node>
	<node lat="61.148291667970675" lon="11.953133339110328" id="-17711">
		<tag k="alt_name" v="Ifarneset, s;Koia" />
		<tag k="name" v="Søndre Ifarneset" />
		<tag k="place" v="farm" />
		<tag k="ssr:stedsnr" v="250099" />
	</node>
	<node lat="61.15755555892524" lon="12.054569443522599" id="-17712">
		<tag k="alt_name" v="Endsrud" />
		<tag k="name" v="Ensrud" />
		<tag k="place" v="farm" />
		<tag k="ssr:stedsnr" v="250103" />
	</node>
	<node lat="61.15716944783093" lon="12.072416675784924" id="-17713">
		<tag k="name" v="Hemberget" />
		<tag k="place" v="farm" />
		<tag k="ssr:stedsnr" v="250106" />
	</node>
	<node lat="61.22800555591342" lon="12.004100001252345" id="-17714">
		<tag k="name" v="Kukjølen" />
		<tag k="natural" v="wetland" />
		<tag k="ssr:stedsnr" v="250062" />
	</node>
	<node lat="61.175704335610014" lon="11.99451107065897" id="-17715">
		<tag k="historic" v="shieling" />
		<tag k="name" v="Nordbergsætra" />
		<tag k="place" v="locality" />
		<tag k="ssr:stedsnr" v="250064" />
	</node>
	<node lat="61.17632222662208" lon="12.104394441101931" id="-17716">
		<tag k="name" v="Bekkoskoia" />
		<tag k="place" v="isolated_dwelling" />
		<tag k="ssr:stedsnr" v="250074" />
	</node>
	<node lat="61.191036111912105" lon="11.943541666945682" id="-17717">
		<tag k="name" v="Bjørnbekken" />
		<tag k="ssr:stedsnr" v="250084" />
		<tag k="waterway" v="stream" />
	</node>
	<node lat="61.1873111153297" lon="11.85825277356373" id="-17718">
		<tag k="name" v="Gran" />
		<tag k="place" v="farm" />
		<tag k="ssr:stedsnr" v="250089" />
	</node>
	<node lat="61.154663889742466" lon="11.83468332833588" id="-17719">
		<tag k="historic" v="shieling" />
		<tag k="name" v="Villbekksætra" />
		<tag k="place" v="isolated_dwelling" />
		<tag k="ssr:stedsnr" v="250149" />
	</node>
	<node lat="61.16615833719387" lon="12.042200005895648" id="-17720">
		<tag k="name" v="Bergemyra" />
		<tag k="natural" v="wetland" />
		<tag k="ssr:stedsnr" v="250112" />
	</node>
	<node lat="61.16166389095119" lon="11.893575004699178" id="-17721">
		<tag k="name" v="Akre" />
		<tag k="place" v="farm" />
		<tag k="ssr:stedsnr" v="250119" />
	</node>
	<node lat="61.18103055636328" lon="12.192716664993114" id="-17722">
		<tag k="name" v="Bekk" />
		<tag k="place" v="farm" />
		<tag k="ssr:stedsnr" v="250121" />
	</node>
	<node lat="61.48391388830678" lon="12.533972229336394" id="-17723">
		<tag k="name" v="Stortjønnenget" />
		<tag k="place" v="locality" />
		<tag k="ssr:stedsnr" v="113122" />
	</node>
	<node lat="61.486511113647374" lon="11.821108342238956" id="-17724">
		<tag k="name" v="Lyngåskjølen" />
		<tag k="natural" v="wetland" />
		<tag k="ssr:stedsnr" v="250198" />
	</node>
	<node lat="61.62110000413694" lon="11.89148333363787" id="-17725">
		<tag k="name" v="Søndre Øya" />
		<tag k="place" v="isolated_dwelling" />
		<tag k="ssr:stedsnr" v="114014" />
	</node>
	<node lat="61.51691944137384" lon="12.027697222910149" id="-17726">
		<tag k="name" v="Gammelhusdalen" />
		<tag k="place" v="isolated_dwelling" />
		<tag k="ssr:stedsnr" v="114016" />
	</node>
	<node lat="61.521108336771626" lon="12.067922223631175" id="-17727">
		<tag k="name" v="Elvløholmen" />
		<tag k="place" v="islet" />
		<tag k="ssr:stedsnr" v="114033" />
	</node>
	<node lat="61.5260833291119" lon="12.040163891783685" id="-17728">
		<tag k="name" v="Bråtålandtjuknet" />
		<tag k="place" v="locality" />
		<tag k="ssr:stedsnr" v="114035" />
	</node>
	<node lat="61.44206944313176" lon="12.146141670142732" id="-17729">
		<tag k="name" v="Moum" />
		<tag k="place" v="isolated_dwelling" />
		<tag k="ssr:stedsnr" v="114044" />
	</node>
	<node lat="61.43413332932524" lon="12.150424997393666" id="-17730">
		<tag k="alt_name" v="Vestre Øvergård" />
		<tag k="name" v="Vestre Øvergard" />
		<tag k="place" v="farm" />
		<tag k="ssr:stedsnr" v="114046" />
	</node>
	<node lat="61.45051944815561" lon="12.507747215686791" id="-17731">
		<tag k="name" v="Oasemyra" />
		<tag k="natural" v="wetland" />
		<tag k="ssr:stedsnr" v="114050" />
	</node>
	<node lat="61.45858055508094" lon="12.537641669892892" id="-17732">
		<tag k="fixme" v="consider highway=path" />
		<tag k="highway" v="track" />
		<tag k="name" v="Telefonsvingen" />
		<tag k="ssr:stedsnr" v="114052" />
	</node>
	<node lat="61.450875003540894" lon="12.540361111275923" id="-17733">
		<tag k="highway" v="path" />
		<tag k="name" v="Skåksvingen" />
		<tag k="ssr:stedsnr" v="114053" />
	</node>
	<node lat="61.51148610690253" lon="12.13094999780901" id="-17734">
		<tag k="name" v="Toreåkeren" />
		<tag k="place" v="locality" />
		<tag k="ssr:stedsnr" v="114176" />
	</node>
	<node lat="61.44028888983703" lon="11.95164444269697" id="-17735">
		<tag k="name" v="Svartåstangen" />
		<tag k="natural" v="hill" />
		<tag k="place" v="locality" />
		<tag k="ssr:stedsnr" v="114519" />
	</node>
	<node lat="61.442694441319595" lon="11.96253610655527" id="-17736">
		<tag k="name" v="Oterkjølen" />
		<tag k="natural" v="wetland" />
		<tag k="ssr:stedsnr" v="114524" />
	</node>
	<node lat="61.615658336266726" lon="12.182477786513504" id="-17737">
		<tag k="name" v="Storbekkflået" />
		<tag k="natural" v="wetland" />
		<tag k="ssr:stedsnr" v="114533" />
	</node>
	<node lat="61.49164444444769" lon="12.03566945188252" id="-17738">
		<tag k="name" v="Tjønna på Åsen" />
		<tag k="natural" v="water" />
		<tag k="ssr:stedsnr" v="114571" />
	</node>
	<node lat="61.58009722078734" lon="12.12995277384488" id="-17739">
		<tag k="name" v="Trukkjelda" />
		<tag k="ssr:stedsnr" v="114576" />
		<tag k="waterway" v="stream" />
	</node>
	<node lat="61.57745000346051" lon="12.130288880119409" id="-17740">
		<tag k="name" v="Tinningen" />
		<tag k="natural" v="wetland" />
		<tag k="ssr:stedsnr" v="114577" />
	</node>
	<node lat="61.373650000464636" lon="12.3705388923136" id="-17741">
		<tag k="name" v="Asphammaren" />
		<tag k="natural" v="hill" />
		<tag k="place" v="locality" />
		<tag k="ssr:stedsnr" v="114712" />
	</node>
	<node lat="61.36896110835813" lon="12.36013888936549" id="-17742">
		<tag k="name" v="Sommerløvkjølen" />
		<tag k="natural" v="wetland" />
		<tag k="ssr:stedsnr" v="114718" />
	</node>
	<node lat="61.39717222444177" lon="12.232738893493796" id="-17743">
		<tag k="historic" v="boundary_stone" />
		<tag k="man_made" v="cairn" />
		<tag k="name" v="Fjerdingsfurua" />
		<tag k="place" v="locality" />
		<tag k="ssr:stedsnr" v="114603" />
	</node>
	<node lat="61.38712499587665" lon="11.961886116784719" id="-17744">
		<tag k="name" v="Helvetmyra" />
		<tag k="natural" v="wetland" />
		<tag k="ssr:stedsnr" v="114671" />
	</node>
	<node lat="61.535122220612855" lon="12.167252775879009" id="-17745">
		<tag k="name" v="Oppigardsmyra" />
		<tag k="natural" v="wetland" />
		<tag k="ssr:stedsnr" v="114679" />
	</node>
	<node lat="61.429844443657174" lon="11.968555562854059" id="-17746">
		<tag k="name" v="Skatollenget" />
		<tag k="place" v="locality" />
		<tag k="ssr:stedsnr" v="114969" />
	</node>
	<node lat="61.43344721905381" lon="11.990524992954143" id="-17747">
		<tag k="name" v="Telemarkmyra" />
		<tag k="natural" v="wetland" />
		<tag k="ssr:stedsnr" v="114973" />
	</node>
	<node lat="61.52051944295974" lon="12.171730554643675" id="-17748">
		<tag k="name" v="Sauknartåsen" />
		<tag k="natural" v="hill" />
		<tag k="place" v="locality" />
		<tag k="ssr:stedsnr" v="114870" />
	</node>
	<node lat="61.56120555672025" lon="12.511319448569214" id="-17749">
		<tag k="name" v="Storbekkjota" />
		<tag k="natural" v="valley" />
		<tag k="place" v="locality" />
		<tag k="ssr:stedsnr" v="115323" />
	</node>
	<node lat="61.411463892086054" lon="12.771911112200726" id="-17750">
		<tag k="name" v="Hjertåsen" />
		<tag k="place" v="locality" />
		<tag k="ssr:stedsnr" v="115374" />
	</node>
	<node lat="61.4149750009349" lon="12.759163893936503" id="-17751">
		<tag k="name" v="Rukkuflaten" />
		<tag k="place" v="locality" />
		<tag k="ssr:stedsnr" v="115376" />
	</node>
	<node lat="61.378455554045345" lon="12.709780559525049" id="-17752">
		<tag k="name" v="Sølvberget" />
		<tag k="natural" v="hill" />
		<tag k="place" v="locality" />
		<tag k="ssr:stedsnr" v="115603" />
	</node>
	<node lat="61.39624721977999" lon="12.27815554791689" id="-17753">
		<tag k="name" v="Bjønntassmyra" />
		<tag k="natural" v="wetland" />
		<tag k="ssr:stedsnr" v="115733" />
	</node>
	<node lat="61.39524722646807" lon="12.264691666320823" id="-17754">
		<tag k="name" v="Lampen" />
		<tag k="place" v="locality" />
		<tag k="ssr:stedsnr" v="115736" />
	</node>
	<node lat="61.42776111464276" lon="12.34053055495886" id="-17755">
		<tag k="name" v="Stornesbekken" />
		<tag k="ssr:stedsnr" v="115913" />
		<tag k="waterway" v="stream" />
	</node>
	<node lat="61.08704444688573" lon="12.663586120373234" id="-17756">
		<tag k="name" v="Rundsjøen" />
		<tag k="natural" v="water" />
		<tag k="ssr:stedsnr" v="250541" />
	</node>
	<node lat="61.090244445140534" lon="12.691094443458221" id="-17757">
		<tag k="name" v="Nevertjønna" />
		<tag k="natural" v="water" />
		<tag k="ssr:stedsnr" v="250544" />
	</node>
	<node lat="61.069999997714355" lon="12.632586103923174" id="-17758">
		<tag k="name" v="Lyngdal" />
		<tag k="place" v="isolated_dwelling" />
		<tag k="ssr:stedsnr" v="250549" />
	</node>
	<node lat="61.4091416657654" lon="12.281866672621003" id="-17759">
		<tag k="name" v="Østre Strupen" />
		<tag k="natural" v="valley" />
		<tag k="place" v="locality" />
		<tag k="ssr:stedsnr" v="115803" />
	</node>
	<node lat="61.40499722601809" lon="12.271769445848438" id="-17760">
		<tag k="fixme" v="consider natural=peak for the most distinct mountains in the district" />
		<tag k="name" v="Vålbekkåsen" />
		<tag k="natural" v="hill" />
		<tag k="place" v="locality" />
		<tag k="ssr:stedsnr" v="115805" />
	</node>
	<node lat="61.42275833132024" lon="12.291236107904203" id="-17761">
		<tag k="name" v="Sørgelekeggene" />
		<tag k="natural" v="hill" />
		<tag k="place" v="locality" />
		<tag k="ssr:stedsnr" v="115816" />
	</node>
	<node lat="61.38848610977353" lon="12.576541673703836" id="-17762">
		<tag k="name" v="Jordbrumyra" />
		<tag k="natural" v="wetland" />
		<tag k="ssr:stedsnr" v="115896" />
	</node>
	<node lat="61.069252779264396" lon="12.485038885089713" id="-17763">
		<tag k="fixme" v="consider natural=peak for the most distinct mountains in the district" />
		<tag k="name" v="Halmkalmanoppi" />
		<tag k="natural" v="hill" />
		<tag k="place" v="locality" />
		<tag k="ssr:stedsnr" v="116005" />
	</node>
	<node lat="61.07375555181633" lon="12.47215833868428" id="-17764">
		<tag k="fixme" v="consider natural=peak for the most distinct mountains in the district" />
		<tag k="name" v="Bjønnmyråsen" />
		<tag k="natural" v="hill" />
		<tag k="place" v="locality" />
		<tag k="ssr:stedsnr" v="116007" />
	</node>
	<node lat="61.076183335019465" lon="12.631883333539923" id="-17765">
		<tag k="name" v="Solvoll" />
		<tag k="place" v="farm" />
		<tag k="ssr:stedsnr" v="250536" />
	</node>
	<node lat="61.18898889173966" lon="12.636363895190325" id="-17766">
		<tag k="name" v="Båthustjønna" />
		<tag k="natural" v="water" />
		<tag k="ssr:stedsnr" v="250594" />
	</node>
	<node lat="61.181572225287624" lon="12.693908325903784" id="-17767">
		<tag k="name" v="Røtoset" />
		<tag k="place" v="locality" />
		<tag k="ssr:stedsnr" v="250598" />
	</node>
	<node lat="61.18313333558625" lon="12.747502786585201" id="-17768">
		<tag k="name" v="Gonomatkjølen" />
		<tag k="natural" v="wetland" />
		<tag k="ssr:stedsnr" v="250604" />
	</node>
	<node lat="61.1382083312039" lon="12.637077784131746" id="-17769">
		<tag k="name" v="Storbrenna" />
		<tag k="place" v="isolated_dwelling" />
		<tag k="ssr:stedsnr" v="250555" />
	</node>
	<node lat="61.35093333761125" lon="12.396913891475007" id="-17770">
		<tag k="name" v="Mormyrhaugen" />
		<tag k="natural" v="hill" />
		<tag k="place" v="locality" />
		<tag k="ssr:stedsnr" v="116269" />
	</node>
	<node lat="61.15322411503902" lon="12.70933465565054" id="-17771">
		<tag k="name" v="Fåfengkjølen" />
		<tag k="natural" v="wetland" />
		<tag k="ssr:stedsnr" v="250577" />
	</node>
	<node lat="61.13757221953281" lon="12.599402768572675" id="-17772">
		<tag k="name" v="Fiskløstjønna" />
		<tag k="natural" v="water" />
		<tag k="ssr:stedsnr" v="250582" />
	</node>
	<node lat="61.32125833448096" lon="12.435558334835017" id="-17773">
		<tag k="name" v="Søndre Synstkjelda" />
		<tag k="ssr:stedsnr" v="116474" />
		<tag k="waterway" v="stream" />
	</node>
	<node lat="61.11976666342205" lon="12.689805561512845" id="-17774">
		<tag k="name" v="Bækkmyra" />
		<tag k="natural" v="wetland" />
		<tag k="ssr:stedsnr" v="116387" />
	</node>
	<node lat="61.23155832955859" lon="12.664869451644845" id="-17775">
		<tag k="name" v="Berg" />
		<tag k="place" v="farm" />
		<tag k="ssr:stedsnr" v="250628" />
	</node>
	<node lat="61.03925000060603" lon="12.241083328110392" id="-17776">
		<tag k="name" v="Revmyra" />
		<tag k="natural" v="wetland" />
		<tag k="ssr:stedsnr" v="250636" />
	</node>
	<node lat="61.11093888911725" lon="12.546180563307383" id="-17777">
		<tag k="name" v="Rørmyrane" />
		<tag k="natural" v="wetland" />
		<tag k="ssr:stedsnr" v="250698" />
	</node>
	<node lat="61.32860277603727" lon="12.529344437974995" id="-17778">
		<tag k="name" v="Brekkmyra" />
		<tag k="natural" v="wetland" />
		<tag k="ssr:stedsnr" v="116702" />
	</node>
	<node lat="61.24044722453597" lon="12.357025002324928" id="-17779">
		<tag k="name" v="Sveva" />
		<tag k="place" v="farm" />
		<tag k="ssr:stedsnr" v="116793" />
	</node>
	<node lat="61.09925000027161" lon="12.449224993670486" id="-17780">
		<tag k="fixme" v="consider natural=peak for the most distinct mountains in the district" />
		<tag k="name" v="Svartåsen" />
		<tag k="natural" v="hill" />
		<tag k="place" v="locality" />
		<tag k="ssr:stedsnr" v="250688" />
	</node>
	<node lat="61.163508334255944" lon="12.238155559145206" id="-17781">
		<tag k="name" v="Sundkjølstrupen" />
		<tag k="natural" v="wetland" />
		<tag k="ssr:stedsnr" v="250742" />
	</node>
	<node lat="61.13361944155105" lon="12.495666663028196" id="-17782">
		<tag k="name" v="Ås" />
		<tag k="place" v="isolated_dwelling" />
		<tag k="ssr:stedsnr" v="250717" />
	</node>
	<node lat="61.16016667075199" lon="12.541594436873833" id="-17783">
		<tag k="name" v="Sæter" />
		<tag k="place" v="farm" />
		<tag k="ssr:stedsnr" v="250736" />
	</node>
	<node lat="61.24980555425915" lon="12.481080558240985" id="-17784">
		<tag k="name" v="Gjetsjøberget" />
		<tag k="natural" v="hill" />
		<tag k="place" v="locality" />
		<tag k="ssr:stedsnr" v="250846" />
	</node>
	<node lat="61.23850833127021" lon="12.544583341119349" id="-17785">
		<tag k="name" v="Abbortjønna" />
		<tag k="natural" v="water" />
		<tag k="ssr:stedsnr" v="250851" />
	</node>
	<node lat="61.17603333678819" lon="12.419650005145982" id="-17786">
		<tag k="name" v="Sagbekken" />
		<tag k="ssr:stedsnr" v="250748" />
		<tag k="waterway" v="stream" />
	</node>
	<node lat="61.222536114416116" lon="11.95078889065966" id="-17787">
		<tag k="name" v="Gjertrudstellet" />
		<tag k="natural" v="wetland" />
		<tag k="ssr:stedsnr" v="118111" />
	</node>
	<node lat="61.22283055113261" lon="11.93995000607239" id="-17788">
		<tag k="landuse" v="meadow" />
		<tag k="name" v="Skrømtkoia" />
		<tag k="ssr:stedsnr" v="118112" />
	</node>
	<node lat="61.167925001559226" lon="12.49883056199968" id="-17789">
		<tag k="name" v="Storkjølen" />
		<tag k="natural" v="wetland" />
		<tag k="ssr:stedsnr" v="250763" />
	</node>
	<node lat="61.17390833467584" lon="12.521941663331619" id="-17790">
		<tag k="name" v="Østvang" />
		<tag k="place" v="farm" />
		<tag k="ssr:stedsnr" v="250764" />
	</node>
	<node lat="61.15625555513943" lon="12.493616668016037" id="-17791">
		<tag k="name" v="Trysilmyrhøgda" />
		<tag k="natural" v="hill" />
		<tag k="place" v="locality" />
		<tag k="ssr:stedsnr" v="250766" />
	</node>
	<node lat="61.15873332922755" lon="12.484311117449868" id="-17792">
		<tag k="name" v="Skogvoll" />
		<tag k="place" v="farm" />
		<tag k="ssr:stedsnr" v="250769" />
	</node>
	<node lat="61.19674999890061" lon="12.23685832618621" id="-17793">
		<tag k="name" v="Storkjølen" />
		<tag k="natural" v="wetland" />
		<tag k="ssr:stedsnr" v="250773" />
	</node>
	<node lat="61.19687499904033" lon="12.383644449433682" id="-17794">
		<tag k="name" v="Nilssæterkjølen" />
		<tag k="natural" v="wetland" />
		<tag k="ssr:stedsnr" v="250780" />
	</node>
	<node lat="61.18662777761664" lon="12.57033055081278" id="-17795">
		<tag k="alt_name" v="Hemåsmyra" />
		<tag k="name" v="Heimåsmyra" />
		<tag k="natural" v="wetland" />
		<tag k="ssr:stedsnr" v="250789" />
	</node>
	<node lat="61.12661111566816" lon="12.04835555261944" id="-17796">
		<tag k="alt_name" v="Elsberget" />
		<tag k="name" v="Elgsberget" />
		<tag k="natural" v="hill" />
		<tag k="place" v="locality" />
		<tag k="ssr:stedsnr" v="250991" />
	</node>
	<node lat="61.321752781178745" lon="11.965783335295507" id="-17797">
		<tag k="name" v="Tenåsbekkrusta" />
		<tag k="place" v="locality" />
		<tag k="ssr:stedsnr" v="118221" />
	</node>
	<node lat="61.23393611463886" lon="12.498491666629127" id="-17798">
		<tag k="name" v="Bakketun" />
		<tag k="place" v="farm" />
		<tag k="ssr:stedsnr" v="250799" />
	</node>
	<node lat="61.235227781740015" lon="12.574283342654116" id="-17799">
		<tag k="name" v="Storfloen" />
		<tag k="place" v="locality" />
		<tag k="ssr:stedsnr" v="250802" />
	</node>
	<node lat="61.22204444024004" lon="12.460655552847802" id="-17800">
		<tag k="name" v="Myrsjøen" />
		<tag k="natural" v="water" />
		<tag k="ssr:stedsnr" v="250811" />
	</node>
	<node lat="61.206916669672076" lon="12.290338893608784" id="-17801">
		<tag k="name" v="Krokmyra" />
		<tag k="natural" v="wetland" />
		<tag k="ssr:stedsnr" v="250817" />
	</node>
	<node lat="61.210805559968136" lon="12.395055549361496" id="-17802">
		<tag k="name" v="Berg" />
		<tag k="place" v="farm" />
		<tag k="ssr:stedsnr" v="250819" />
	</node>
	<node lat="61.21133055503566" lon="12.5103027751868" id="-17803">
		<tag k="name" v="Høyfinnfallet" />
		<tag k="natural" v="hill" />
		<tag k="place" v="locality" />
		<tag k="ssr:stedsnr" v="250820" />
	</node>
	<node lat="61.24706666934804" lon="12.338402777242951" id="-17804">
		<tag k="name" v="Rømoen" />
		<tag k="place" v="farm" />
		<tag k="ssr:stedsnr" v="250828" />
	</node>
	<node lat="61.247069441677276" lon="12.420413892843996" id="-17805">
		<tag k="fixme" v="consider natural=peak for the most distinct mountains in the district" />
		<tag k="name" v="Litle-Ragnhildåsen" />
		<tag k="natural" v="hill" />
		<tag k="place" v="locality" />
		<tag k="ssr:stedsnr" v="250831" />
	</node>
	<node lat="61.23495278129651" lon="12.248008338364748" id="-17806">
		<tag k="name" v="Grønland" />
		<tag k="place" v="farm" />
		<tag k="ssr:stedsnr" v="250838" />
	</node>
	<node lat="61.16334166312199" lon="12.079363882493265" id="-17807">
		<tag k="name" v="Festningen" />
		<tag k="natural" v="hill" />
		<tag k="place" v="locality" />
		<tag k="ssr:stedsnr" v="118269" />
	</node>
	<node lat="61.23346388831269" lon="12.04058333184774" id="-17808">
		<tag k="highway" v="path" />
		<tag k="name" v="Jerpsætervegen" />
		<tag k="ssr:stedsnr" v="118289" />
	</node>
	<node lat="61.22950833298079" lon="12.082902786567098" id="-17809">
		<tag k="name" v="Kjeldbekken" />
		<tag k="ssr:stedsnr" v="118292" />
		<tag k="waterway" v="stream" />
	</node>
	<node lat="61.249191667243934" lon="12.556936107341002" id="-17810">
		<tag k="name" v="Skrekkjeldvika" />
		<tag k="natural" v="bay" />
		<tag k="ssr:stedsnr" v="118404" />
	</node>
	<node lat="61.23714999960673" lon="12.576738885111098" id="-17811">
		<tag k="name" v="Tomtfloen" />
		<tag k="place" v="locality" />
		<tag k="ssr:stedsnr" v="118470" />
	</node>
	<node lat="61.24913611401488" lon="12.572075008307383" id="-17812">
		<tag k="name" v="Torgalskjelda" />
		<tag k="ssr:stedsnr" v="118475" />
		<tag k="waterway" v="stream" />
	</node>
	<node lat="61.25119166428683" lon="12.597644445973359" id="-17813">
		<tag k="name" v="Myra norda Røyeåsen" />
		<tag k="natural" v="wetland" />
		<tag k="ssr:stedsnr" v="118476" />
	</node>
	<node lat="61.07863610977796" lon="11.973936107541597" id="-17814">
		<tag k="name" v="Nordeng" />
		<tag k="place" v="farm" />
		<tag k="ssr:stedsnr" v="250897" />
	</node>
	<node lat="61.08796111395181" lon="12.105305564196861" id="-17815">
		<tag k="name" v="Vestli" />
		<tag k="place" v="farm" />
		<tag k="ssr:stedsnr" v="250904" />
	</node>
	<node lat="61.08934167037185" lon="12.10724167155254" id="-17816">
		<tag k="name" v="Koiegarden" />
		<tag k="place" v="farm" />
		<tag k="ssr:stedsnr" v="250905" />
	</node>
	<node lat="61.07099444737274" lon="12.160636119024067" id="-17817">
		<tag k="name" v="Bommersotjønna" />
		<tag k="natural" v="water" />
		<tag k="ssr:stedsnr" v="250917" />
	</node>
	<node lat="61.2211694438082" lon="12.746569443422716" id="-17818">
		<tag k="name" v="Dulpbekken" />
		<tag k="ssr:stedsnr" v="251641" />
		<tag k="waterway" v="stream" />
	</node>
	<node lat="61.295480552584706" lon="11.98149721285321" id="-17819">
		<tag k="name" v="Bomkjølen" />
		<tag k="natural" v="wetland" />
		<tag k="ssr:stedsnr" v="251643" />
	</node>
	<node lat="61.30450555176491" lon="11.93656388322909" id="-17820">
		<tag k="name" v="Storendammen" />
		<tag k="ssr:stedsnr" v="119221" />
		<tag k="waterway" v="dam" />
	</node>
	<node lat="61.07582222646987" lon="12.623252786507345" id="-17821">
		<tag k="landuse" v="meadow" />
		<tag k="name" v="Mattisfallet" />
		<tag k="ssr:stedsnr" v="119224" />
	</node>
	<node lat="61.10405000310039" lon="12.200247221804329" id="-17822">
		<tag k="name" v="Lindgrenskoia" />
		<tag k="place" v="isolated_dwelling" />
		<tag k="ssr:stedsnr" v="250950" />
	</node>
	<node lat="61.109363885807205" lon="12.048741670839188" id="-17823">
		<tag k="name" v="Grylla" />
		<tag k="place" v="farm" />
		<tag k="ssr:stedsnr" v="250953" />
	</node>
	<node lat="61.253569441318206" lon="11.959938892306283" id="-17824">
		<tag k="historic" v="shieling" />
		<tag k="name" v="Nysætra" />
		<tag k="place" v="locality" />
		<tag k="ssr:stedsnr" v="119184" />
	</node>
	<node lat="61.133105559273" lon="11.981688887423692" id="-17825">
		<tag k="alt_name" v="Nordbrenden" />
		<tag k="name" v="Nordbrenna" />
		<tag k="place" v="farm" />
		<tag k="ssr:stedsnr" v="250966" />
	</node>
	<node lat="61.1497638910189" lon="12.460227782206763" id="-17826">
		<tag k="alt_name" v="Mandfloøya" />
		<tag k="name" v="Mannfloøya" />
		<tag k="place" v="islet" />
		<tag k="ssr:stedsnr" v="119512" />
	</node>
	<node lat="61.22955278136596" lon="12.484116664095625" id="-17827">
		<tag k="man_made" v="cairn" />
		<tag k="name" v="Tangfallrøset" />
		<tag k="place" v="locality" />
		<tag k="ssr:stedsnr" v="119622" />
	</node>
	<node lat="61.21382222141661" lon="12.468177778759674" id="-17828">
		<tag k="name" v="Bumyra" />
		<tag k="natural" v="wetland" />
		<tag k="ssr:stedsnr" v="119624" />
	</node>
	<node lat="61.239177778457055" lon="12.024966667415029" id="-17829">
		<tag k="name" v="Granheim" />
		<tag k="place" v="farm" />
		<tag k="ssr:stedsnr" v="251004" />
	</node>
	<node lat="61.24185277842992" lon="12.019891664076138" id="-17830">
		<tag k="name" v="Grønli" />
		<tag k="place" v="farm" />
		<tag k="ssr:stedsnr" v="251011" />
	</node>
	<node lat="61.07949444299901" lon="12.52399721915409" id="-17831">
		<tag k="name" v="Eliasmyra" />
		<tag k="natural" v="wetland" />
		<tag k="ssr:stedsnr" v="120187" />
	</node>
	<node lat="61.09791666308757" lon="12.400294435856917" id="-17832">
		<tag k="name" v="Kroktallen" />
		<tag k="place" v="locality" />
		<tag k="ssr:stedsnr" v="120469" />
	</node>
	<node lat="61.168038891656494" lon="12.363122219025561" id="-17833">
		<tag k="name" v="Styggkjeldbekken" />
		<tag k="ssr:stedsnr" v="120659" />
		<tag k="waterway" v="stream" />
	</node>
	<node lat="61.43789444123838" lon="11.736744453466123" id="-17834">
		<tag k="alt_name" v="Blekua" />
		<tag k="name" v="Blikua" />
		<tag k="ssr:stedsnr" v="251186" />
		<tag k="waterway" v="river" />
	</node>
	<node lat="61.2877250037182" lon="12.475647224504003" id="-17835">
		<tag k="fixme" v="consider natural=peak for the most distinct mountains in the district" />
		<tag k="name" v="Styggbekkåsen" />
		<tag k="natural" v="hill" />
		<tag k="place" v="locality" />
		<tag k="ssr:stedsnr" v="120886" />
	</node>
	<node lat="61.22516666591892" lon="12.309749999053277" id="-17836">
		<tag k="name" v="Karlsbekken" />
		<tag k="ssr:stedsnr" v="120784" />
		<tag k="waterway" v="stream" />
	</node>
	<node lat="61.268658331936074" lon="12.673827772394338" id="-17837">
		<tag k="fixme" v="consider highway=path" />
		<tag k="highway" v="track" />
		<tag k="name" v="Vakkermyrvegen" />
		<tag k="ssr:stedsnr" v="120928" />
	</node>
	<node lat="61.47764444029695" lon="11.812400003017835" id="-17838">
		<tag k="name" v="Ormmyra" />
		<tag k="natural" v="wetland" />
		<tag k="ssr:stedsnr" v="251229" />
	</node>
	<node lat="61.28667221905082" lon="12.58544165990313" id="-17839">
		<tag k="historic" v="shieling" />
		<tag k="name" v="Ørmorsætra" />
		<tag k="place" v="isolated_dwelling" />
		<tag k="ssr:stedsnr" v="251287" />
	</node>
	<node lat="61.2728944435912" lon="12.33095555205067" id="-17840">
		<tag k="name" v="Klanken" />
		<tag k="natural" v="hill" />
		<tag k="place" v="locality" />
		<tag k="ssr:stedsnr" v="251291" />
	</node>
	<node lat="61.30073055196774" lon="12.442591669007696" id="-17841">
		<tag k="name" v="Kjeldbekken" />
		<tag k="ssr:stedsnr" v="251330" />
		<tag k="waterway" v="stream" />
	</node>
	<node lat="61.30009999708649" lon="12.265424990487608" id="-17842">
		<tag k="name" v="Langeggen" />
		<tag k="place" v="farm" />
		<tag k="ssr:stedsnr" v="251335" />
	</node>
	<node lat="61.25303055363198" lon="12.262633337845795" id="-17843">
		<tag k="alt_name" v="Tøråskjølen" />
		<tag k="name" v="Tørråskjølen" />
		<tag k="natural" v="wetland" />
		<tag k="ssr:stedsnr" v="251390" />
	</node>
	<node lat="61.275238884991154" lon="12.796394451164902" id="-17844">
		<tag k="name" v="Vangli" />
		<tag k="place" v="farm" />
		<tag k="ssr:stedsnr" v="251393" />
	</node>
	<node lat="61.26050555482631" lon="12.657811107184559" id="-17845">
		<tag k="name" v="Nesvollbergsmyra" />
		<tag k="natural" v="wetland" />
		<tag k="ssr:stedsnr" v="251397" />
	</node>
	<node lat="61.26289154447899" lon="12.80881686563093" id="-17846">
		<tag k="name" v="Nordgarden" />
		<tag k="place" v="farm" />
		<tag k="ssr:stedsnr" v="251402" />
	</node>
	<node lat="61.30335000261476" lon="12.745130562139325" id="-17847">
		<tag k="name" v="Skaftet" />
		<tag k="place" v="farm" />
		<tag k="ssr:stedsnr" v="251410" />
	</node>
	<node lat="61.37823055898711" lon="12.70722221458841" id="-17848">
		<tag k="name" v="Sandvik" />
		<tag k="place" v="farm" />
		<tag k="ssr:stedsnr" v="251348" />
	</node>
	<node lat="61.397600000990145" lon="12.648094444902531" id="-17849">
		<tag k="name" v="Strømstad" />
		<tag k="place" v="farm" />
		<tag k="ssr:stedsnr" v="251360" />
	</node>
	<node lat="61.419089128982975" lon="12.698628231297409" id="-17850">
		<tag k="alt_name" v="Haukegga" />
		<tag k="fixme" v="consider natural=peak for the most distinct mountains in the district" />
		<tag k="name" v="Høkegga" />
		<tag k="natural" v="hill" />
		<tag k="place" v="locality" />
		<tag k="ssr:stedsnr" v="251366" />
	</node>
	<node lat="61.45208055943695" lon="12.7294083262345" id="-17851">
		<tag k="name" v="Gira" />
		<tag k="ssr:stedsnr" v="251375" />
		<tag k="waterway" v="river" />
	</node>
	<node lat="61.25762222000401" lon="12.518033328051066" id="-17852">
		<tag k="name" v="Dalborg" />
		<tag k="place" v="farm" />
		<tag k="ssr:stedsnr" v="251381" />
	</node>
	<node lat="61.287080554798656" lon="12.661688881300536" id="-17853">
		<tag k="name" v="Gjervollbekken" />
		<tag k="ssr:stedsnr" v="251415" />
		<tag k="waterway" v="stream" />
	</node>
	<node lat="61.344291670297544" lon="12.637991661892785" id="-17854">
		<tag k="alt_name" v="Vidkjølen" />
		<tag k="name" v="Vikjølen" />
		<tag k="natural" v="wetland" />
		<tag k="ssr:stedsnr" v="251421" />
	</node>
	<node lat="61.32882222143221" lon="12.731019437751423" id="-17855">
		<tag k="name" v="Trangen" />
		<tag k="natural" v="valley" />
		<tag k="place" v="locality" />
		<tag k="ssr:stedsnr" v="251434" />
	</node>
	<node lat="61.30208055897345" lon="12.20550000778983" id="-17856">
		<tag k="name" v="Ugla" />
		<tag k="place" v="isolated_dwelling" />
		<tag k="ssr:stedsnr" v="251522" />
	</node>
	<node lat="61.34999279787411" lon="12.664724245435062" id="-17857">
		<tag k="name" v="Sætertjønna" />
		<tag k="natural" v="water" />
		<tag k="ssr:stedsnr" v="251451" />
	</node>
	<node lat="61.26618333534243" lon="11.932066674546743" id="-17858">
		<tag k="name" v="Tjørnmyra" />
		<tag k="natural" v="wetland" />
		<tag k="ssr:stedsnr" v="251539" />
	</node>
	<node lat="61.2653750010285" lon="12.018047213678711" id="-17859">
		<tag k="name" v="Ulvsjøberget" />
		<tag k="natural" v="hill" />
		<tag k="place" v="locality" />
		<tag k="ssr:stedsnr" v="251543" />
	</node>
	<node lat="61.27368889255814" lon="12.170661117076115" id="-17860">
		<tag k="historic" v="shieling" />
		<tag k="name" v="Langbrukjølen" />
		<tag k="place" v="isolated_dwelling" />
		<tag k="ssr:stedsnr" v="251546" />
	</node>
	<node lat="61.26353055927449" lon="12.130708334952976" id="-17861">
		<tag k="name" v="Dulpkjølen" />
		<tag k="natural" v="wetland" />
		<tag k="ssr:stedsnr" v="251554" />
	</node>
	<node lat="61.489166666755175" lon="12.248686105474139" id="-17862">
		<tag k="name" v="Flenvoll" />
		<tag k="place" v="farm" />
		<tag k="ssr:stedsnr" v="251563" />
	</node>
	<node lat="61.485863886662244" lon="12.386080557498758" id="-17863">
		<tag k="name" v="Drevja" />
		<tag k="ssr:stedsnr" v="251574" />
		<tag k="waterway" v="river" />
	</node>
	<node lat="61.47788888770267" lon="12.312888894056831" id="-17864">
		<tag k="alt_name" v="Nordre Langmyra" />
		<tag k="name" v="Langmyra" />
		<tag k="natural" v="wetland" />
		<tag k="ssr:stedsnr" v="251575" />
	</node>
	<node lat="61.06987222216337" lon="12.565250004664506" id="-17865">
		<tag k="name" v="Gjettjønn" />
		<tag k="natural" v="water" />
		<tag k="ssr:stedsnr" v="251686" />
	</node>
	<node lat="61.29244722275526" lon="12.197900005060584" id="-17866">
		<tag k="historic" v="shieling" />
		<tag k="name" v="Kubekksætra" />
		<tag k="place" v="isolated_dwelling" />
		<tag k="ssr:stedsnr" v="251529" />
	</node>
	<node lat="61.3521555529935" lon="12.003427773515376" id="-17867">
		<tag k="name" v="Muruåsbekken" />
		<tag k="ssr:stedsnr" v="251584" />
		<tag k="waterway" v="stream" />
	</node>
	<node lat="61.34862499869804" lon="12.029711106794691" id="-17868">
		<tag k="name" v="Bristol" />
		<tag k="place" v="isolated_dwelling" />
		<tag k="ssr:stedsnr" v="251596" />
	</node>
	<node lat="61.327575001640206" lon="11.99720556000584" id="-17869">
		<tag k="alt_name" v="Tøråsen" />
		<tag k="name" v="Tørråsen" />
		<tag k="place" v="farm" />
		<tag k="ssr:stedsnr" v="251610" />
	</node>
	<node lat="61.32861388957508" lon="11.945163894229388" id="-17870">
		<tag k="name" v="Østre Tenåstjønna" />
		<tag k="natural" v="water" />
		<tag k="ssr:stedsnr" v="251614" />
	</node>
	<node lat="61.21713055457058" lon="12.627183325014842" id="-17871">
		<tag k="fixme" v="multiple name tags, choose one and add the other to alt_name" />
		<tag k="loc_name" v="Tannartjønna;Tannheimstjønna" />
		<tag k="name" v="Tannheimtjønna;Tannåtjønn" />
		<tag k="natural" v="water" />
		<tag k="ssr:stedsnr" v="251644" />
	</node>
	<node lat="61.29306666550891" lon="11.940572225992705" id="-17872">
		<tag k="name" v="Tallåskjølen" />
		<tag k="natural" v="wetland" />
		<tag k="ssr:stedsnr" v="251647" />
	</node>
	<node lat="61.22085000126129" lon="12.785808335199986" id="-17873">
		<tag k="alt_name" v="Moberget, s" />
		<tag k="name" v="Søndre Moberget" />
		<tag k="place" v="farm" />
		<tag k="ssr:stedsnr" v="251653" />
	</node>
	<node lat="61.37293889037287" lon="12.308455562216862" id="-17874">
		<tag k="name" v="Båstad" />
		<tag k="place" v="farm" />
		<tag k="ssr:stedsnr" v="251656" />
	</node>
	<node lat="61.38795277771431" lon="12.381911117087167" id="-17875">
		<tag k="fixme" v="consider natural=peak for the most distinct mountains in the district" />
		<tag k="name" v="Litlåsen" />
		<tag k="natural" v="hill" />
		<tag k="place" v="locality" />
		<tag k="ssr:stedsnr" v="251665" />
	</node>
	<node lat="61.35475833256064" lon="12.317913894613147" id="-17876">
		<tag k="alt_name" v="Taåsen, store" />
		<tag k="fixme" v="consider natural=peak for the most distinct mountains in the district" />
		<tag k="name" v="Stor-Taåsen" />
		<tag k="natural" v="hill" />
		<tag k="place" v="locality" />
		<tag k="ssr:stedsnr" v="251670" />
	</node>
	<node lat="61.35416388777983" lon="12.443299996091024" id="-17877">
		<tag k="name" v="Flykjølen" />
		<tag k="natural" v="wetland" />
		<tag k="ssr:stedsnr" v="251674" />
	</node>
	<node lat="61.356375002356366" lon="12.488763883344197" id="-17878">
		<tag k="alt_name" v="Tjønnkjølen" />
		<tag k="name" v="Tjørnkjølen" />
		<tag k="natural" v="wetland" />
		<tag k="ssr:stedsnr" v="251676" />
	</node>
	<node lat="61.36110277648233" lon="12.58920555865783" id="-17879">
		<tag k="alt_name" v="Sommergåskjølen" />
		<tag k="name" v="Sommargåskjølen" />
		<tag k="natural" v="wetland" />
		<tag k="ssr:stedsnr" v="251677" />
	</node>
	<node lat="61.36273333288819" lon="12.303919440396283" id="-17880">
		<tag k="alt_name" v="Åseth" />
		<tag k="name" v="Åset" />
		<tag k="place" v="farm" />
		<tag k="ssr:stedsnr" v="251679" />
	</node>
	<node lat="61.05190259696464" lon="12.32407998134414" id="-17881">
		<tag k="name" v="Furuholmsbekken" />
		<tag k="ssr:stedsnr" v="251681" />
		<tag k="waterway" v="stream" />
	</node>
	<node lat="61.44616388656599" lon="12.571699999738287" id="-17882">
		<tag k="name" v="Ljørdalen" />
		<tag k="natural" v="valley" />
		<tag k="place" v="locality" />
		<tag k="ssr:stedsnr" v="251737" />
	</node>
	<node lat="61.343776739485094" lon="12.474098188572132" id="-17883">
		<tag k="name" v="Synsttjønna" />
		<tag k="natural" v="water" />
		<tag k="old_name" v="Synstjønna" />
		<tag k="ssr:stedsnr" v="251690" />
	</node>
	<node lat="61.067238891275856" lon="12.334111109898913" id="-17884">
		<tag k="name" v="Andersmyra" />
		<tag k="natural" v="wetland" />
		<tag k="ssr:stedsnr" v="251694" />
	</node>
	<node lat="61.07923055677036" lon="12.494480552062228" id="-17885">
		<tag k="name" v="Karlfallmyra" />
		<tag k="natural" v="wetland" />
		<tag k="ssr:stedsnr" v="251699" />
	</node>
	<node lat="61.074163891321305" lon="12.414008325037031" id="-17886">
		<tag k="alt_name" v="Flåttåmyra" />
		<tag k="name" v="Flåttamyra" />
		<tag k="natural" v="wetland" />
		<tag k="ssr:stedsnr" v="251701" />
	</node>
	<node lat="61.46298611085137" lon="12.567441659540254" id="-17887">
		<tag k="alt_name" v="Vestre Gjermundsmyra" />
		<tag k="name" v="Gjermundsmyra" />
		<tag k="natural" v="wetland" />
		<tag k="ssr:stedsnr" v="251716" />
	</node>
	<node lat="61.46182500320123" lon="12.241511111273612" id="-17888">
		<tag k="name" v="Mo" />
		<tag k="place" v="farm" />
		<tag k="ssr:stedsnr" v="251720" />
	</node>
	<node lat="61.462797224880646" lon="12.259797216421632" id="-17889">
		<tag k="name" v="Granåsen" />
		<tag k="place" v="hamlet" />
		<tag k="ssr:stedsnr" v="251729" />
	</node>
	<node lat="61.48288770412885" lon="11.931796655556742" id="-17890">
		<tag k="fixme" v="consider place=hamlet" />
		<tag k="name" v="Eltdalen" />
		<tag k="place" v="farm" />
		<tag k="ssr:stedsnr" v="251814" />
	</node>
	<node lat="61.41864999609549" lon="12.377977784439148" id="-17891">
		<tag k="name" v="Nylund" />
		<tag k="place" v="farm" />
		<tag k="ssr:stedsnr" v="251748" />
	</node>
	<node lat="61.43095000253192" lon="12.412049993801478" id="-17892">
		<tag k="fixme" v="consider natural=peak for the most distinct mountains in the district" />
		<tag k="name" v="Slettåsen" />
		<tag k="natural" v="hill" />
		<tag k="place" v="locality" />
		<tag k="ssr:stedsnr" v="251758" />
	</node>
	<node lat="61.39531110727556" lon="12.273722219855001" id="-17893">
		<tag k="alt_name" v="Orrlekåsen" />
		<tag k="fixme" v="consider natural=peak for the most distinct mountains in the district" />
		<tag k="name" v="Orrleikåsen" />
		<tag k="natural" v="hill" />
		<tag k="place" v="locality" />
		<tag k="ssr:stedsnr" v="251770" />
	</node>
	<node lat="61.554049999889074" lon="12.20821667111111" id="-17894">
		<tag k="name" v="Mjølbekken" />
		<tag k="ssr:stedsnr" v="252579" />
		<tag k="waterway" v="stream" />
	</node>
	<node lat="61.5354972183335" lon="11.926213883992157" id="-17895">
		<tag k="name" v="Djupskora" />
		<tag k="natural" v="valley" />
		<tag k="place" v="locality" />
		<tag k="ssr:stedsnr" v="252580" />
	</node>
	<node lat="61.49757222520806" lon="11.912688897186499" id="-17896">
		<tag k="fixme" v="consider natural=peak for the most distinct mountains in the district" />
		<tag k="name" v="Litlåsen" />
		<tag k="natural" v="hill" />
		<tag k="place" v="locality" />
		<tag k="ssr:stedsnr" v="251839" />
	</node>
	<node lat="61.386030551463016" lon="11.866616661645407" id="-17897">
		<tag k="name" v="Henrikskjølen" />
		<tag k="natural" v="wetland" />
		<tag k="ssr:stedsnr" v="251955" />
	</node>
	<node lat="61.40584999928939" lon="12.173927784610182" id="-17898">
		<tag k="name" v="Eltosvollen" />
		<tag k="place" v="farm" />
		<tag k="ssr:stedsnr" v="251915" />
	</node>
	<node lat="61.415533332684944" lon="12.131394435815281" id="-17899">
		<tag k="alt_name" v="Flatsætra" />
		<tag k="name" v="Flatsæter" />
		<tag k="place" v="farm" />
		<tag k="ssr:stedsnr" v="251924" />
	</node>
	<node lat="61.39739166235869" lon="11.986530556527567" id="-17900">
		<tag k="name" v="Brynnet" />
		<tag k="natural" v="water" />
		<tag k="ssr:stedsnr" v="251926" />
		<tag k="water" v="lake" />
	</node>
	<node lat="61.42596388622178" lon="11.902972218794027" id="-17901">
		<tag k="name" v="Storkjølbekken" />
		<tag k="ssr:stedsnr" v="251990" />
		<tag k="waterway" v="stream" />
	</node>
	<node lat="61.42428055492962" lon="11.972205551851966" id="-17902">
		<tag k="name" v="Kvernfallet" />
		<tag k="ssr:stedsnr" v="251991" />
		<tag k="waterway" v="rapids" />
	</node>
	<node lat="61.44082777679353" lon="12.127683338655517" id="-17903">
		<tag k="name" v="Holla" />
		<tag k="place" v="farm" />
		<tag k="ssr:stedsnr" v="251998" />
	</node>
	<node lat="61.44708055620549" lon="12.004177769660119" id="-17904">
		<tag k="name" v="Slettvola" />
		<tag k="natural" v="hill" />
		<tag k="place" v="locality" />
		<tag k="ssr:stedsnr" v="251966" />
	</node>
	<node lat="61.47916388757077" lon="12.128197223679551" id="-17905">
		<tag k="name" v="Rønes" />
		<tag k="place" v="farm" />
		<tag k="ssr:stedsnr" v="251978" />
	</node>
	<node lat="61.48061111418057" lon="12.129777784424686" id="-17906">
		<tag k="name" v="Myrvang" />
		<tag k="place" v="farm" />
		<tag k="ssr:stedsnr" v="251980" />
	</node>
	<node lat="61.21845277588516" lon="12.11861665963477" id="-17907">
		<tag k="fixme" v="consider natural=peak for the most distinct mountains in the district" />
		<tag k="name" v="Jymmamag" />
		<tag k="natural" v="hill" />
		<tag k="old_name" v="Immemæg" />
		<tag k="place" v="locality" />
		<tag k="ssr:stedsnr" v="128037" />
	</node>
	<node lat="61.223213888554845" lon="12.045863896658942" id="-17908">
		<tag k="name" v="Kleve" />
		<tag k="place" v="farm" />
		<tag k="ssr:stedsnr" v="128040" />
	</node>
	<node lat="61.41457777549373" lon="11.832533329427187" id="-17909">
		<tag k="name" v="Storbekken" />
		<tag k="ssr:stedsnr" v="128141" />
		<tag k="waterway" v="stream" />
	</node>
	<node lat="61.189188889782415" lon="12.740791666066848" id="-17910">
		<tag k="name" v="Svartåa" />
		<tag k="ssr:stedsnr" v="128582" />
		<tag k="waterway" v="stream" />
	</node>
	<node lat="61.23757777351033" lon="12.516461118335641" id="-17911">
		<tag k="name" v="Granheim" />
		<tag k="place" v="farm" />
		<tag k="ssr:stedsnr" v="128809" />
	</node>
	<node lat="61.09220833412701" lon="12.16729722352609" id="-17912">
		<tag k="name" v="Korsmyra" />
		<tag k="natural" v="wetland" />
		<tag k="ssr:stedsnr" v="128903" />
	</node>
	<node lat="61.187888886167954" lon="11.934250001271685" id="-17913">
		<tag k="name" v="Mosåtjønna" />
		<tag k="natural" v="water" />
		<tag k="ssr:stedsnr" v="129104" />
	</node>
	<node lat="61.149541667330276" lon="12.079627768844093" id="-17914">
		<tag k="name" v="Fjellbu" />
		<tag k="place" v="farm" />
		<tag k="ssr:stedsnr" v="129113" />
	</node>
	<node lat="61.21392222154489" lon="12.389783330220103" id="-17915">
		<tag k="name" v="Hegg" />
		<tag k="place" v="farm" />
		<tag k="ssr:stedsnr" v="128838" />
	</node>
	<node lat="61.17974722134923" lon="11.988822215878773" id="-17916">
		<tag k="name" v="Nordberget" />
		<tag k="natural" v="hill" />
		<tag k="place" v="locality" />
		<tag k="ssr:stedsnr" v="129083" />
	</node>
	<node lat="61.182194448273926" lon="11.949252780400586" id="-17917">
		<tag k="name" v="Poialanstjønna" />
		<tag k="natural" v="water" />
		<tag k="ssr:stedsnr" v="129087" />
	</node>
	<node lat="61.18026666864943" lon="12.096280548885494" id="-17918">
		<tag k="name" v="Damkoiene" />
		<tag k="place" v="isolated_dwelling" />
		<tag k="ssr:stedsnr" v="129090" />
	</node>
	<node lat="61.27147222061544" lon="12.39860278400746" id="-17919">
		<tag k="name" v="Nordbø" />
		<tag k="place" v="farm" />
		<tag k="ssr:stedsnr" v="129282" />
	</node>
	<node lat="61.29694167040473" lon="12.543958340655355" id="-17920">
		<tag k="name" v="Dulpbekken" />
		<tag k="ssr:stedsnr" v="129283" />
		<tag k="waterway" v="stream" />
	</node>
	<node lat="61.27722777469455" lon="12.7452638921176" id="-17921">
		<tag k="alt_name" v="Svartvorda" />
		<tag k="name" v="Svartvola" />
		<tag k="natural" v="hill" />
		<tag k="place" v="locality" />
		<tag k="ssr:stedsnr" v="129403" />
	</node>
	<node lat="61.37504722049231" lon="12.742155552535479" id="-17922">
		<tag k="loc_name" v="Orrlektjønna" />
		<tag k="name" v="Orreleiktjønnen" />
		<tag k="natural" v="water" />
		<tag k="ssr:stedsnr" v="129428" />
		<tag k="water" v="lake" />
	</node>
	<node lat="61.516749997618795" lon="12.507788895551807" id="-17923">
		<tag k="name" v="Strand" />
		<tag k="place" v="farm" />
		<tag k="ssr:stedsnr" v="252484" />
	</node>
	<node lat="61.38021389207885" lon="12.68924999627143" id="-17924">
		<tag k="name" v="Bekkelund" />
		<tag k="place" v="farm" />
		<tag k="ssr:stedsnr" v="129318" />
	</node>
	<node lat="61.22197778191826" lon="11.81077499214773" id="-17925">
		<tag k="name" v="Åset" />
		<tag k="place" v="farm" />
		<tag k="ssr:stedsnr" v="129338" />
	</node>
	<node lat="61.267252775093894" lon="12.586786111813622" id="-17926">
		<tag k="name" v="Kruttukjelda" />
		<tag k="ssr:stedsnr" v="129377" />
		<tag k="waterway" v="stream" />
	</node>
	<node lat="61.26625000213645" lon="12.636824999703633" id="-17927">
		<tag k="name" v="Nesvollberget" />
		<tag k="natural" v="hill" />
		<tag k="place" v="locality" />
		<tag k="ssr:stedsnr" v="129379" />
	</node>
	<node lat="61.26986667005715" lon="12.678855552310093" id="-17928">
		<tag k="name" v="Hornkoia" />
		<tag k="place" v="isolated_dwelling" />
		<tag k="ssr:stedsnr" v="129380" />
	</node>
	<node lat="61.3002575517464" lon="12.733055793643251" id="-17929">
		<tag k="name" v="Gjervollsætra" />
		<tag k="place" v="hamlet" />
		<tag k="ssr:stedsnr" v="129393" />
	</node>
	<node lat="61.28824999916361" lon="12.687102775378728" id="-17930">
		<tag k="historic" v="shieling" />
		<tag k="name" v="Hollsætra" />
		<tag k="place" v="isolated_dwelling" />
		<tag k="ssr:stedsnr" v="129397" />
	</node>
	<node lat="61.275861111714924" lon="12.096066661999224" id="-17931">
		<tag k="alt_name" v="Nordbymyrene" />
		<tag k="name" v="Nordbymyra" />
		<tag k="natural" v="wetland" />
		<tag k="ssr:stedsnr" v="129510" />
	</node>
	<node lat="61.56485000035823" lon="12.403400000493026" id="-17932">
		<tag k="name" v="Munkbettjønnen" />
		<tag k="natural" v="water" />
		<tag k="ssr:stedsnr" v="252463" />
	</node>
	<node lat="61.243080557502495" lon="12.712638888458523" id="-17933">
		<tag k="name" v="Damkoia" />
		<tag k="place" v="isolated_dwelling" />
		<tag k="ssr:stedsnr" v="129625" />
	</node>
	<node lat="61.044711109945574" lon="12.396066660862783" id="-17934">
		<tag k="name" v="Vakensmyrbekken" />
		<tag k="ssr:stedsnr" v="129626" />
		<tag k="waterway" v="stream" />
	</node>
	<node lat="61.042083337178525" lon="12.348474992320018" id="-17935">
		<tag k="alt_name" v="Vimyra" />
		<tag k="name" v="Vidmyra" />
		<tag k="natural" v="wetland" />
		<tag k="ssr:stedsnr" v="129630" />
	</node>
	<node lat="61.18417222640492" lon="12.345519435945205" id="-17936">
		<tag k="name" v="Kråketjønna" />
		<tag k="natural" v="water" />
		<tag k="ssr:stedsnr" v="129806" />
	</node>
	<node lat="61.49488055753686" lon="11.964524993955708" id="-17937">
		<tag k="name" v="Storbekken" />
		<tag k="ssr:stedsnr" v="129810" />
		<tag k="waterway" v="stream" />
	</node>
	<node lat="61.49846388768763" lon="12.045644440998947" id="-17938">
		<tag k="alt_name" v="Gammelsætervangen" />
		<tag k="name" v="Gamlesætervangen" />
		<tag k="place" v="locality" />
		<tag k="ssr:stedsnr" v="129812" />
	</node>
	<node lat="61.24878888742408" lon="12.345602782954202" id="-17939">
		<tag k="name" v="Åsvang" />
		<tag k="place" v="isolated_dwelling" />
		<tag k="ssr:stedsnr" v="129850" />
	</node>
	<node lat="61.24725833739976" lon="12.407550008086714" id="-17940">
		<tag k="alt_name" v="Malmkjølen, nordre;Malmkjølen" />
		<tag k="name" v="Nordre Malmkjølen" />
		<tag k="natural" v="wetland" />
		<tag k="ssr:stedsnr" v="129851" />
	</node>
	<node lat="61.23818888576545" lon="12.344230560690962" id="-17941">
		<tag k="name" v="Klingenberg" />
		<tag k="place" v="farm" />
		<tag k="ssr:stedsnr" v="129854" />
	</node>
	<node lat="61.24237777980747" lon="12.353924995048954" id="-17942">
		<tag k="name" v="Li" />
		<tag k="place" v="isolated_dwelling" />
		<tag k="ssr:stedsnr" v="129856" />
	</node>
	<node lat="61.09819166750983" lon="12.420649997697897" id="-17943">
		<tag k="name" v="Gammelsaga" />
		<tag k="place" v="isolated_dwelling" />
		<tag k="ssr:stedsnr" v="129704" />
	</node>
	<node lat="61.46967500072864" lon="12.291169452062075" id="-17944">
		<tag k="name" v="Lund" />
		<tag k="place" v="farm" />
		<tag k="ssr:stedsnr" v="129716" />
	</node>
	<node lat="61.097452780690105" lon="12.327475005737359" id="-17945">
		<tag k="name" v="Bjørbekkjølen" />
		<tag k="natural" v="wetland" />
		<tag k="ssr:stedsnr" v="129718" />
	</node>
	<node lat="61.11334166834281" lon="12.37759999302474" id="-17946">
		<tag k="name" v="Nevagrøttjønna" />
		<tag k="natural" v="water" />
		<tag k="ssr:stedsnr" v="129720" />
	</node>
	<node lat="61.111474996063336" lon="12.437850001879406" id="-17947">
		<tag k="name" v="Trollsberget" />
		<tag k="natural" v="hill" />
		<tag k="place" v="locality" />
		<tag k="ssr:stedsnr" v="129722" />
	</node>
	<node lat="61.43627500368653" lon="12.334213886340601" id="-17948">
		<tag k="name" v="Bakksætra" />
		<tag k="place" v="farm" />
		<tag k="ssr:stedsnr" v="129723" />
	</node>
	<node lat="61.118349999933834" lon="12.532300008725391" id="-17949">
		<tag k="name" v="Fosseng" />
		<tag k="place" v="farm" />
		<tag k="ssr:stedsnr" v="129725" />
	</node>
	<node lat="61.46342361064176" lon="12.557275562384556" id="-17950">
		<tag k="alt_name" v="Floden" />
		<tag k="name" v="Floen" />
		<tag k="place" v="farm" />
		<tag k="ssr:stedsnr" v="129734" />
	</node>
	<node lat="61.12250277916941" lon="12.227677773613777" id="-17951">
		<tag k="alt_name" v="Eskildsåmyrane" />
		<tag k="name" v="Eskildsåmyrene" />
		<tag k="natural" v="wetland" />
		<tag k="ssr:stedsnr" v="129738" />
	</node>
	<node lat="61.17226388966842" lon="12.518816675923846" id="-17952">
		<tag k="name" v="Kjølstad" />
		<tag k="place" v="farm" />
		<tag k="ssr:stedsnr" v="129776" />
	</node>
	<node lat="61.16083055556279" lon="12.44743333081685" id="-17953">
		<tag k="name" v="Sagnfossen" />
		<tag k="natural" v="waterfall" />
		<tag k="ssr:stedsnr" v="129779" />
	</node>
	<node lat="61.156561112241306" lon="12.376241657898852" id="-17954">
		<tag k="name" v="Vesltjønna" />
		<tag k="natural" v="water" />
		<tag k="ssr:stedsnr" v="129781" />
	</node>
	<node lat="61.198108330188695" lon="12.51088334180802" id="-17955">
		<tag k="name" v="Nordli" />
		<tag k="place" v="farm" />
		<tag k="ssr:stedsnr" v="129793" />
	</node>
	<node lat="61.210097226137435" lon="12.548513882664619" id="-17956">
		<tag k="name" v="Stornesdammen" />
		<tag k="place" v="isolated_dwelling" />
		<tag k="ssr:stedsnr" v="129794" />
	</node>
	<node lat="61.47471110934364" lon="11.95057776847822" id="-17957">
		<tag k="name" v="Bråtebekk" />
		<tag k="place" v="farm" />
		<tag k="ssr:stedsnr" v="129795" />
	</node>
	<node lat="61.554091665261424" lon="12.347822230505344" id="-17958">
		<tag k="name" v="Smørtjønna" />
		<tag k="natural" v="water" />
		<tag k="ssr:stedsnr" v="252501" />
	</node>
	<node lat="61.54337499757736" lon="12.360824995021328" id="-17959">
		<tag k="name" v="Holmkjølen" />
		<tag k="natural" v="wetland" />
		<tag k="ssr:stedsnr" v="252503" />
	</node>
	<node lat="61.540886115291386" lon="12.253866659173525" id="-17960">
		<tag k="name" v="Bryn" />
		<tag k="place" v="farm" />
		<tag k="ssr:stedsnr" v="252504" />
	</node>
	<node lat="61.53327499652191" lon="12.22541666628565" id="-17961">
		<tag k="name" v="Olbekken" />
		<tag k="ssr:stedsnr" v="252506" />
		<tag k="waterway" v="stream" />
	</node>
	<node lat="61.52601407881248" lon="12.367129460607286" id="-17962">
		<tag k="name" v="Drevdalen" />
		<tag k="place" v="farm" />
		<tag k="ssr:stedsnr" v="252509" />
	</node>
	<node lat="61.39618611289914" lon="12.171497231261405" id="-17963">
		<tag k="name" v="Rud" />
		<tag k="place" v="farm" />
		<tag k="ssr:stedsnr" v="129929" />
	</node>
	<node lat="61.39896111070062" lon="12.168438886448643" id="-17964">
		<tag k="name" v="Øyvang" />
		<tag k="place" v="farm" />
		<tag k="ssr:stedsnr" v="129930" />
	</node>
	<node lat="61.137825327117795" lon="12.018947230258147" id="-17965">
		<tag k="alt_name" v="Mellemgårdssætra" />
		<tag k="name" v="Mellomgardssætra" />
		<tag k="place" v="locality" />
		<tag k="ssr:stedsnr" v="129977" />
	</node>
	<node lat="61.14066666522988" lon="11.995147212912538" id="-17966">
		<tag k="name" v="Rolvsbumyrene" />
		<tag k="natural" v="wetland" />
		<tag k="old_name" v="Rolvsbumyrane" />
		<tag k="ssr:stedsnr" v="129979" />
	</node>
	<node lat="61.12101685501942" lon="12.06754223779241" id="-17967">
		<tag k="alt_name" v="Mellemberg" />
		<tag k="name" v="Mellomberget" />
		<tag k="place" v="farm" />
		<tag k="ssr:stedsnr" v="129995" />
	</node>
	<node lat="61.0504750019658" lon="12.213044438718486" id="-17968">
		<tag k="name" v="Krakkdammen" />
		<tag k="natural" v="water" />
		<tag k="ssr:stedsnr" v="129874" />
	</node>
	<node lat="61.39661388910586" lon="11.984349995488486" id="-17969">
		<tag k="alt_name" v="Grønsjøflået" />
		<tag k="name" v="Grønsjømyra" />
		<tag k="natural" v="wetland" />
		<tag k="ssr:stedsnr" v="129877" />
	</node>
	<node lat="61.53150833295013" lon="12.038052783574416" id="-17970">
		<tag k="alt_name" v="Eidbekken, vestre" />
		<tag k="name" v="Vestre Eidbekken" />
		<tag k="ssr:stedsnr" v="252551" />
		<tag k="waterway" v="stream" />
	</node>
	<node lat="61.39477500238701" lon="12.658908328316185" id="-17971">
		<tag k="name" v="Mora" />
		<tag k="place" v="farm" />
		<tag k="ssr:stedsnr" v="130302" />
	</node>
	<node lat="61.41776666248464" lon="12.754738881183446" id="-17972">
		<tag k="alt_name" v="Gnollen, syndre;Søndre Gnollen" />
		<tag k="fixme" v="consider natural=peak for the most distinct mountains in the district" />
		<tag k="name" v="Syndre Gnollen" />
		<tag k="natural" v="hill" />
		<tag k="place" v="locality" />
		<tag k="ssr:stedsnr" v="130304" />
	</node>
	<node lat="61.4233249964108" lon="12.64485277679166" id="-17973">
		<tag k="name" v="Sisseltjønna" />
		<tag k="natural" v="water" />
		<tag k="ssr:stedsnr" v="130307" />
	</node>
	<node lat="61.413094443754915" lon="12.618300002012141" id="-17974">
		<tag k="name" v="Drevjesætra" />
		<tag k="place" v="farm" />
		<tag k="ssr:stedsnr" v="130310" />
	</node>
	<node lat="61.26246388898245" lon="12.135461114240568" id="-17975">
		<tag k="name" v="Majorstua" />
		<tag k="place" v="isolated_dwelling" />
		<tag k="ssr:stedsnr" v="130505" />
	</node>
	<node lat="61.257274995693166" lon="12.147725003577591" id="-17976">
		<tag k="name" v="Grøndalen" />
		<tag k="natural" v="valley" />
		<tag k="place" v="locality" />
		<tag k="ssr:stedsnr" v="130512" />
	</node>
	<node lat="61.496411112509335" lon="12.300199993879186" id="-17977">
		<tag k="fixme" v="consider natural=peak for the most distinct mountains in the district" />
		<tag k="name" v="Skardgnollen" />
		<tag k="natural" v="hill" />
		<tag k="place" v="locality" />
		<tag k="ssr:stedsnr" v="130521" />
	</node>
	<node lat="61.48969722196047" lon="12.253663880800119" id="-17978">
		<tag k="alt_name" v="Tjørnåsen" />
		<tag k="name" v="Tjønnåsen" />
		<tag k="place" v="farm" />
		<tag k="ssr:stedsnr" v="130529" />
	</node>
	<node lat="61.30591389120224" lon="12.252752775596177" id="-17979">
		<tag k="name" v="Vestadbakken" />
		<tag k="place" v="quarter" />
		<tag k="ssr:stedsnr" v="130279" />
	</node>
	<node lat="61.37635277994736" lon="12.413863883250924" id="-17980">
		<tag k="fixme" v="consider natural=peak for the most distinct mountains in the district" />
		<tag k="name" v="Grønberget" />
		<tag k="natural" v="hill" />
		<tag k="place" v="locality" />
		<tag k="ssr:stedsnr" v="130607" />
	</node>
	<node lat="61.52643610971263" lon="11.885983326714834" id="-17981">
		<tag k="fixme" v="consider natural=peak for the most distinct mountains in the district" />
		<tag k="name" v="Skardhamrane" />
		<tag k="natural" v="hill" />
		<tag k="place" v="locality" />
		<tag k="ssr:stedsnr" v="252565" />
	</node>
	<node lat="61.369852775996435" lon="11.860830557740247" id="-17982">
		<tag k="name" v="Nor" />
		<tag k="place" v="farm" />
		<tag k="ssr:stedsnr" v="130915" />
	</node>
	<node lat="61.54624722217801" lon="12.161974993466888" id="-17983">
		<tag k="historic" v="shieling" />
		<tag k="name" v="Rypåssætra" />
		<tag k="place" v="isolated_dwelling" />
		<tag k="ssr:stedsnr" v="252583" />
	</node>
	<node lat="61.42034444184041" lon="12.099022213006647" id="-17984">
		<tag k="alt_name" v="Nygård" />
		<tag k="name" v="Nygard" />
		<tag k="place" v="farm" />
		<tag k="ssr:stedsnr" v="130975" />
	</node>
	<node lat="61.42097778007098" lon="11.929880555711046" id="-17985">
		<tag k="alt_name" v="Nordre Tøråsen" />
		<tag k="fixme" v="consider natural=peak for the most distinct mountains in the district" />
		<tag k="name" v="Tørråsen" />
		<tag k="natural" v="hill" />
		<tag k="place" v="locality" />
		<tag k="ssr:stedsnr" v="130976" />
	</node>
	<node lat="61.41935000225786" lon="11.862550005776205" id="-17986">
		<tag k="name" v="Spelåskjølen" />
		<tag k="natural" v="wetland" />
		<tag k="ssr:stedsnr" v="130982" />
	</node>
	<node lat="61.61366110808206" lon="11.900974993136492" id="-17987">
		<tag k="name" v="Trysiløya" />
		<tag k="place" v="island" />
		<tag k="ssr:stedsnr" v="252626" />
	</node>
	<node lat="61.60495000340069" lon="12.25493056365399" id="-17988">
		<tag k="name" v="Presttjønna" />
		<tag k="natural" v="water" />
		<tag k="ssr:stedsnr" v="131471" />
	</node>
</osm>
