<?xml version="1.0" encoding="UTF-8"?>
<osm version="0.6" generator="osmapis">
	<node lat="61.20204444490201" lon="12.038836108912891" id="-17258">
		<tag k="alt_name" v="Løvknuvlen" />
		<tag k="fixme" v="consider natural=peak for the most distinct mountains in the district" />
		<tag k="name" v="Løvknulen" />
		<tag k="natural" v="hill" />
		<tag k="place" v="locality" />
		<tag k="ssr:stedsnr" v="7102" />
	</node>
	<node lat="61.15314166878442" lon="11.876047218824839" id="-17260">
		<tag k="fixme" v="consider natural=peak for the most distinct mountains in the district" />
		<tag k="name" v="Halvorsberget" />
		<tag k="natural" v="hill" />
		<tag k="place" v="locality" />
		<tag k="ssr:stedsnr" v="7362" />
	</node>
	<node lat="61.150575002061736" lon="12.580180553679808" id="-17263">
		<tag k="name" v="Kopparberget" />
		<tag k="natural" v="hill" />
		<tag k="place" v="locality" />
		<tag k="ssr:stedsnr" v="7717" />
	</node>
	<node lat="61.156311109032536" lon="12.589150003805559" id="-17264">
		<tag k="name" v="Kukkora" />
		<tag k="natural" v="hill" />
		<tag k="place" v="locality" />
		<tag k="ssr:stedsnr" v="7718" />
	</node>
	<node lat="61.23832499645951" lon="11.999925001797761" id="-17270">
		<tag k="alt_name" v="Jerpen, nordre" />
		<tag k="fixme" v="consider natural=peak for the most distinct mountains in the district" />
		<tag k="name" v="Nordre Jerpen" />
		<tag k="natural" v="hill" />
		<tag k="place" v="locality" />
		<tag k="ssr:stedsnr" v="8015" />
	</node>
	<node lat="61.07111110713834" lon="12.422955548211187" id="-17286">
		<tag k="name" v="Revhaugen" />
		<tag k="natural" v="hill" />
		<tag k="place" v="locality" />
		<tag k="ssr:stedsnr" v="8690" />
	</node>
	<node lat="61.42454444454594" lon="12.748924995749515" id="-17295">
		<tag k="alt_name" v="Gnollen, nørdre;Nordre Gnollen" />
		<tag k="fixme" v="consider natural=peak for the most distinct mountains in the district" />
		<tag k="name" v="Nørdre Gnollen" />
		<tag k="natural" v="hill" />
		<tag k="place" v="locality" />
		<tag k="ssr:stedsnr" v="9319" />
	</node>
	<node lat="61.64019999629772" lon="12.275388897330066" id="-17304">
		<tag k="fixme" v="consider natural=peak for the most distinct mountains in the district" />
		<tag k="name" v="Litlfjellet" />
		<tag k="natural" v="hill" />
		<tag k="place" v="locality" />
		<tag k="ssr:stedsnr" v="10484" />
	</node>
	<node lat="61.53824999854311" lon="11.889299997468296" id="-17306">
		<tag k="fixme" v="consider natural=peak for the most distinct mountains in the district" />
		<tag k="name" v="Eltdalsskardet" />
		<tag k="natural" v="hill" />
		<tag k="place" v="locality" />
		<tag k="ssr:stedsnr" v="10613" />
	</node>
	<node lat="61.5499500021181" lon="12.420991659320274" id="-17312">
		<tag k="fixme" v="consider natural=peak for the most distinct mountains in the district" />
		<tag k="loc_name" v="Maurtuvehøa" />
		<tag k="name" v="Myrtuvhøa" />
		<tag k="natural" v="hill" />
		<tag k="place" v="locality" />
		<tag k="ssr:stedsnr" v="10538" />
	</node>
	<node lat="61.530005553624484" lon="11.835702769429927" id="-17313">
		<tag k="alt_name" v="Lægeret, syndre;Søndre Leire;Søndre Lægeret" />
		<tag k="name" v="Syndre Lægeret" />
		<tag k="place" v="locality" />
		<tag k="ssr:stedsnr" v="10718" />
	</node>
	<node lat="61.48052499570491" lon="12.078166671278304" id="-17317">
		<tag k="fixme" v="consider natural=peak for the most distinct mountains in the district" />
		<tag k="name" v="Granåsen" />
		<tag k="natural" v="hill" />
		<tag k="place" v="locality" />
		<tag k="ssr:stedsnr" v="23108" />
	</node>
	<node lat="61.34903610967252" lon="12.071477771338525" id="-17324">
		<tag k="name" v="Stenbrottet" />
		<tag k="natural" v="slope" />
		<tag k="place" v="locality" />
		<tag k="ssr:stedsnr" v="26109" />
	</node>
	<node lat="61.31626111381743" lon="12.220933326165879" id="-17332">
		<tag k="name" v="Hembrenna" />
		<tag k="natural" v="slope" />
		<tag k="place" v="locality" />
		<tag k="ssr:stedsnr" v="26504" />
	</node>
	<node lat="61.33835832957832" lon="12.034758332123488" id="-17333">
		<tag k="name" v="Damhaugen" />
		<tag k="natural" v="hill" />
		<tag k="place" v="locality" />
		<tag k="ssr:stedsnr" v="26409" />
	</node>
	<node lat="61.15660278023046" lon="11.835647214440423" id="-17339">
		<tag k="name" v="Sætersæterlia" />
		<tag k="natural" v="slope" />
		<tag k="place" v="locality" />
		<tag k="ssr:stedsnr" v="26585" />
	</node>
	<node lat="61.52781666892892" lon="12.060080557733423" id="-17344">
		<tag k="fixme" v="consider natural=peak for the most distinct mountains in the district" />
		<tag k="name" v="Tangknappen" />
		<tag k="natural" v="hill" />
		<tag k="place" v="locality" />
		<tag k="ssr:stedsnr" v="235060" />
	</node>
	<node lat="61.5026083329125" lon="11.9101166615169" id="-17346">
		<tag k="fixme" v="consider natural=peak for the most distinct mountains in the district" />
		<tag k="name" v="Rognollen" />
		<tag k="natural" v="hill" />
		<tag k="place" v="locality" />
		<tag k="ssr:stedsnr" v="235149" />
	</node>
	<node lat="61.47268889287802" lon="12.545249992478013" id="-17348">
		<tag k="name" v="Søndre Vikegga" />
		<tag k="natural" v="hill" />
		<tag k="place" v="locality" />
		<tag k="ssr:stedsnr" v="235163" />
	</node>
	<node lat="61.49650833758681" lon="12.386991667897393" id="-17351">
		<tag k="name" v="Slettmoen" />
		<tag k="place" v="locality" />
		<tag k="ssr:stedsnr" v="235402" />
	</node>
	<node lat="61.387427777759676" lon="12.394225007903868" id="-17352">
		<tag k="name" v="Stannarhaugen" />
		<tag k="natural" v="hill" />
		<tag k="place" v="locality" />
		<tag k="ssr:stedsnr" v="235348" />
	</node>
	<node lat="61.40008611452098" lon="12.401172223143305" id="-17353">
		<tag k="name" v="Møtet" />
		<tag k="natural" v="valley" />
		<tag k="place" v="locality" />
		<tag k="ssr:stedsnr" v="235376" />
	</node>
	<node lat="61.534986107761945" lon="12.068477768630846" id="-17354">
		<tag k="name" v="Gloppheia" />
		<tag k="natural" v="slope" />
		<tag k="place" v="locality" />
		<tag k="ssr:stedsnr" v="235412" />
	</node>
	<node lat="61.534347225966975" lon="12.031558325328131" id="-17355">
		<tag k="name" v="Fonnstedet" />
		<tag k="natural" v="valley" />
		<tag k="place" v="locality" />
		<tag k="ssr:stedsnr" v="235422" />
	</node>
	<node lat="61.60280555892948" lon="12.188391660561333" id="-17359">
		<tag k="name" v="Støtriset" />
		<tag k="natural" v="slope" />
		<tag k="place" v="locality" />
		<tag k="ssr:stedsnr" v="235543" />
	</node>
	<node lat="61.39047206564116" lon="12.615625640554072" id="-17362">
		<tag k="name" v="Litlmordalen" />
		<tag k="natural" v="valley" />
		<tag k="place" v="locality" />
		<tag k="ssr:stedsnr" v="235624" />
	</node>
	<node lat="61.45390833768833" lon="12.209544444890641" id="-17370">
		<tag k="name" v="Stordalen" />
		<tag k="natural" v="valley" />
		<tag k="place" v="locality" />
		<tag k="ssr:stedsnr" v="236046" />
	</node>
	<node lat="61.45871111006607" lon="12.161097227618582" id="-17371">
		<tag k="fixme" v="consider natural=peak for the most distinct mountains in the district" />
		<tag k="name" v="Oksmoberget" />
		<tag k="natural" v="hill" />
		<tag k="place" v="locality" />
		<tag k="ssr:stedsnr" v="236048" />
	</node>
	<node lat="61.4464666693543" lon="12.153938886751275" id="-17372">
		<tag k="fixme" v="consider natural=peak for the most distinct mountains in the district" />
		<tag k="name" v="Granberget" />
		<tag k="natural" v="hill" />
		<tag k="place" v="locality" />
		<tag k="ssr:stedsnr" v="236049" />
	</node>
	<node lat="61.56109999904597" lon="12.466522218925006" id="-17375">
		<tag k="fixme" v="consider natural=peak for the most distinct mountains in the district" />
		<tag k="name" v="Grønningen" />
		<tag k="natural" v="hill" />
		<tag k="place" v="locality" />
		<tag k="ssr:stedsnr" v="236366" />
	</node>
	<node lat="61.431258332278944" lon="12.224202775633305" id="-17379">
		<tag k="name" v="Litlåsskaftet" />
		<tag k="natural" v="hill" />
		<tag k="place" v="locality" />
		<tag k="ssr:stedsnr" v="236418" />
	</node>
	<node lat="61.368488884719746" lon="12.37922500103981" id="-17386">
		<tag k="fixme" v="consider natural=peak for the most distinct mountains in the district" />
		<tag k="name" v="Skardtuppegga" />
		<tag k="natural" v="hill" />
		<tag k="place" v="locality" />
		<tag k="ssr:stedsnr" v="236664" />
	</node>
	<node lat="61.39386388437864" lon="12.322472230117283" id="-17395">
		<tag k="name" v="Synnerskjæret" />
		<tag k="natural" v="hill" />
		<tag k="place" v="locality" />
		<tag k="ssr:stedsnr" v="236862" />
	</node>
	<node lat="61.315419442971404" lon="12.357550006109854" id="-17400">
		<tag k="fixme" v="consider natural=peak for the most distinct mountains in the district" />
		<tag k="name" v="Sjøåsen" />
		<tag k="natural" v="hill" />
		<tag k="place" v="locality" />
		<tag k="ssr:stedsnr" v="40058" />
	</node>
	<node lat="61.341975003909994" lon="12.444622230019018" id="-17423">
		<tag k="name" v="Kvernhussletta" />
		<tag k="place" v="locality" />
		<tag k="ssr:stedsnr" v="237275" />
	</node>
	<node lat="61.292505553866356" lon="12.005549997022902" id="-17427">
		<tag k="fixme" v="consider natural=peak for the most distinct mountains in the district" />
		<tag k="name" v="Tøråsen" />
		<tag k="natural" v="hill" />
		<tag k="place" v="locality" />
		<tag k="ssr:stedsnr" v="42128" />
	</node>
	<node lat="61.17684721912143" lon="12.404388880001518" id="-17438">
		<tag k="name" v="Fossbekkdalen" />
		<tag k="natural" v="valley" />
		<tag k="place" v="locality" />
		<tag k="ssr:stedsnr" v="237677" />
	</node>
	<node lat="61.35361111164986" lon="12.659722218476713" id="-17442">
		<tag k="name" v="Røyeholen" />
		<tag k="natural" v="hill" />
		<tag k="place" v="locality" />
		<tag k="ssr:stedsnr" v="237658" />
	</node>
	<node lat="61.214858334399786" lon="11.924158341978867" id="-17452">
		<tag k="name" v="Søndre Ingjerdhaugen" />
		<tag k="natural" v="hill" />
		<tag k="place" v="locality" />
		<tag k="ssr:stedsnr" v="239125" />
	</node>
	<node lat="61.35064722170801" lon="11.95444444594927" id="-17456">
		<tag k="name" v="Tjurudalsegga" />
		<tag k="natural" v="ridge" />
		<tag k="place" v="locality" />
		<tag k="ssr:stedsnr" v="239205" />
	</node>
	<node lat="61.47766388582589" lon="12.253961119040703" id="-17462">
		<tag k="fixme" v="consider natural=peak for the most distinct mountains in the district" />
		<tag k="name" v="Ol-Jonsgranåsen" />
		<tag k="natural" v="hill" />
		<tag k="place" v="locality" />
		<tag k="ssr:stedsnr" v="53005" />
	</node>
	<node lat="61.45971944345687" lon="11.8346055487437" id="-17464">
		<tag k="name" v="Tverrenbotninga" />
		<tag k="natural" v="valley" />
		<tag k="place" v="locality" />
		<tag k="ssr:stedsnr" v="53170" />
	</node>
	<node lat="61.54431666998338" lon="12.111199998314031" id="-17465">
		<tag k="name" v="Gløtskjæret" />
		<tag k="natural" v="hill" />
		<tag k="place" v="locality" />
		<tag k="ssr:stedsnr" v="53367" />
	</node>
	<node lat="61.587069442320946" lon="12.159425007574407" id="-17469">
		<tag k="name" v="Langegga" />
		<tag k="natural" v="hill" />
		<tag k="place" v="locality" />
		<tag k="ssr:stedsnr" v="53518" />
	</node>
	<node lat="61.60363777554021" lon="11.990027631264558" id="-17472">
		<tag k="name" v="Litlskora" />
		<tag k="natural" v="valley" />
		<tag k="place" v="locality" />
		<tag k="ssr:stedsnr" v="53423" />
	</node>
	<node lat="61.40316388671727" lon="12.635469448758549" id="-17473">
		<tag k="name" v="Lundholmmoen" />
		<tag k="place" v="locality" />
		<tag k="ssr:stedsnr" v="53609" />
	</node>
	<node lat="61.486444440241044" lon="12.213688885023949" id="-17475">
		<tag k="name" v="Orrgnollen" />
		<tag k="natural" v="hill" />
		<tag k="place" v="locality" />
		<tag k="ssr:stedsnr" v="53914" />
	</node>
	<node lat="61.37976111215669" lon="11.949677772216187" id="-17477">
		<tag k="name" v="Langsilderåsen" />
		<tag k="natural" v="hill" />
		<tag k="place" v="locality" />
		<tag k="ssr:stedsnr" v="53677" />
	</node>
	<node lat="61.37575000067533" lon="11.945480562762864" id="-17478">
		<tag k="name" v="Grandalen" />
		<tag k="natural" v="valley" />
		<tag k="place" v="locality" />
		<tag k="ssr:stedsnr" v="53680" />
	</node>
	<node lat="61.42224999803876" lon="12.343308332592024" id="-17480">
		<tag k="name" v="Storsletta" />
		<tag k="place" v="locality" />
		<tag k="ssr:stedsnr" v="53883" />
	</node>
	<node lat="61.46545833002682" lon="12.269402768862387" id="-17481">
		<tag k="name" v="Ol-Jonsgranåsen" />
		<tag k="natural" v="hill" />
		<tag k="place" v="locality" />
		<tag k="ssr:stedsnr" v="53979" />
	</node>
	<node lat="61.503222218355596" lon="12.114730554854663" id="-17485">
		<tag k="name" v="Jerprusta" />
		<tag k="natural" v="slope" />
		<tag k="place" v="locality" />
		<tag k="ssr:stedsnr" v="54073" />
	</node>
	<node lat="61.38171944073477" lon="12.64853611671192" id="-17491">
		<tag k="fixme" v="consider natural=peak for the most distinct mountains in the district" />
		<tag k="name" v="Brennåsen" />
		<tag k="natural" v="hill" />
		<tag k="place" v="locality" />
		<tag k="ssr:stedsnr" v="54627" />
	</node>
	<node lat="61.36963244683718" lon="12.760449555742335" id="-17492">
		<tag k="loc_name" v="Gjellegullegga" />
		<tag k="name" v="Gjellkuegga" />
		<tag k="natural" v="hill" />
		<tag k="place" v="locality" />
		<tag k="ssr:stedsnr" v="54372" />
	</node>
	<node lat="61.379336112470796" lon="12.779238889701032" id="-17493">
		<tag k="name" v="Knausskaftet" />
		<tag k="place" v="locality" />
		<tag k="ssr:stedsnr" v="54374" />
	</node>
	<node lat="61.36172777547457" lon="12.313391659142663" id="-17495">
		<tag k="name" v="Vesle-Taåsen" />
		<tag k="natural" v="hill" />
		<tag k="place" v="locality" />
		<tag k="ssr:stedsnr" v="54704" />
	</node>
	<node lat="61.37909166516437" lon="12.306152772157485" id="-17496">
		<tag k="name" v="Gjermundshøgda" />
		<tag k="natural" v="hill" />
		<tag k="place" v="locality" />
		<tag k="ssr:stedsnr" v="54720" />
	</node>
	<node lat="61.437113889132284" lon="12.531966663687987" id="-17497">
		<tag k="name" v="Ljørholltangen" />
		<tag k="place" v="locality" />
		<tag k="ssr:stedsnr" v="54967" />
	</node>
	<node lat="61.42762221924069" lon="12.311383341699253" id="-17499">
		<tag k="name" v="Krabbrønningsåsen" />
		<tag k="natural" v="hill" />
		<tag k="place" v="locality" />
		<tag k="ssr:stedsnr" v="54820" />
	</node>
	<node lat="61.50602499652926" lon="12.029824993628239" id="-17500">
		<tag k="name" v="Gammelhusdalen" />
		<tag k="natural" v="valley" />
		<tag k="place" v="locality" />
		<tag k="ssr:stedsnr" v="54826" />
	</node>
	<node lat="61.340308333523815" lon="12.428480553336726" id="-17506">
		<tag k="name" v="Nordre Synstkjeldmora" />
		<tag k="place" v="locality" />
		<tag k="ssr:stedsnr" v="55277" />
	</node>
	<node lat="61.3551166704723" lon="12.597397213408907" id="-17513">
		<tag k="name" v="Stengnollen" />
		<tag k="natural" v="hill" />
		<tag k="place" v="locality" />
		<tag k="ssr:stedsnr" v="55665" />
	</node>
	<node lat="61.330011114081074" lon="11.951838882384083" id="-17520">
		<tag k="name" v="Tømmerhaugen" />
		<tag k="natural" v="hill" />
		<tag k="place" v="locality" />
		<tag k="ssr:stedsnr" v="57182" />
	</node>
	<node lat="61.3221500046047" lon="11.921466659021856" id="-17522">
		<tag k="name" v="Tjønnhaugen" />
		<tag k="natural" v="hill" />
		<tag k="place" v="locality" />
		<tag k="ssr:stedsnr" v="57195" />
	</node>
	<node lat="61.1819805529695" lon="12.24217776989181" id="-17540">
		<tag k="name" v="Smiehaugen" />
		<tag k="natural" v="hill" />
		<tag k="place" v="locality" />
		<tag k="ssr:stedsnr" v="59021" />
	</node>
	<node lat="61.0620583322219" lon="12.385061117897544" id="-17542">
		<tag k="name" v="Kankfallet" />
		<tag k="natural" v="valley" />
		<tag k="place" v="locality" />
		<tag k="ssr:stedsnr" v="59130" />
	</node>
	<node lat="61.059752775967745" lon="12.51529167368313" id="-17543">
		<tag k="fixme" v="consider natural=peak for the most distinct mountains in the district" />
		<tag k="name" v="Rysbakken" />
		<tag k="natural" v="hill" />
		<tag k="place" v="locality" />
		<tag k="ssr:stedsnr" v="59173" />
	</node>
	<node lat="61.1118222220721" lon="12.322766666136163" id="-17546">
		<tag k="fixme" v="consider natural=peak for the most distinct mountains in the district" />
		<tag k="name" v="Østeråsen" />
		<tag k="natural" v="hill" />
		<tag k="place" v="locality" />
		<tag k="ssr:stedsnr" v="59305" />
	</node>
	<node lat="61.13457778005887" lon="12.62000834099257" id="-17547">
		<tag k="name" v="Hundshøgdskjæra" />
		<tag k="natural" v="ridge" />
		<tag k="place" v="locality" />
		<tag k="ssr:stedsnr" v="59373" />
	</node>
	<node lat="61.179872218196614" lon="12.571094452787158" id="-17553">
		<tag k="name" v="Varden" />
		<tag k="natural" v="hill" />
		<tag k="place" v="locality" />
		<tag k="ssr:stedsnr" v="59416" />
	</node>
	<node lat="61.09260000305212" lon="12.450450001588901" id="-17556">
		<tag k="fixme" v="consider natural=peak for the most distinct mountains in the district" />
		<tag k="name" v="Svartåstangen" />
		<tag k="natural" v="hill" />
		<tag k="place" v="locality" />
		<tag k="ssr:stedsnr" v="59478" />
	</node>
	<node lat="61.07184992073587" lon="12.404409783595963" id="-17559">
		<tag k="fixme" v="consider natural=peak for the most distinct mountains in the district" />
		<tag k="name" v="Vålåsen" />
		<tag k="natural" v="hill" />
		<tag k="place" v="locality" />
		<tag k="ssr:stedsnr" v="59492" />
	</node>
	<node lat="61.27144722233435" lon="12.626361113183648" id="-17568">
		<tag k="name" v="Hålålihaugen" />
		<tag k="natural" v="hill" />
		<tag k="place" v="locality" />
		<tag k="ssr:stedsnr" v="59924" />
	</node>
	<node lat="61.26991111308389" lon="12.636338895100092" id="-17569">
		<tag k="name" v="Løvåsen" />
		<tag k="natural" v="hill" />
		<tag k="place" v="locality" />
		<tag k="ssr:stedsnr" v="59925" />
	</node>
	<node lat="61.03349722071958" lon="12.28084721449273" id="-17570">
		<tag k="name" v="Høljelia" />
		<tag k="natural" v="slope" />
		<tag k="place" v="locality" />
		<tag k="ssr:stedsnr" v="241065" />
	</node>
	<node lat="61.266049998283364" lon="11.943505556476824" id="-17577">
		<tag k="name" v="Ingridhøgda" />
		<tag k="natural" v="hill" />
		<tag k="place" v="locality" />
		<tag k="ssr:stedsnr" v="241174" />
	</node>
	<node lat="61.241319440864" lon="11.940999993381624" id="-17581">
		<tag k="name" v="Kvitstubben" />
		<tag k="place" v="locality" />
		<tag k="ssr:stedsnr" v="241192" />
	</node>
	<node lat="61.08933611529643" lon="12.414794442961298" id="-17591">
		<tag k="name" v="Phillisdalen" />
		<tag k="natural" v="valley" />
		<tag k="place" v="locality" />
		<tag k="ssr:stedsnr" v="241473" />
	</node>
	<node lat="61.47606389033294" lon="12.344538887304697" id="-17619">
		<tag k="fixme" v="consider natural=peak for the most distinct mountains in the district" />
		<tag k="name" v="Skardtangen" />
		<tag k="natural" v="hill" />
		<tag k="place" v="locality" />
		<tag k="ssr:stedsnr" v="69602" />
	</node>
	<node lat="61.52704721787682" lon="11.967150002140928" id="-17643">
		<tag k="fixme" v="consider natural=peak for the most distinct mountains in the district" />
		<tag k="name" v="Fjellmora" />
		<tag k="natural" v="hill" />
		<tag k="place" v="locality" />
		<tag k="ssr:stedsnr" v="70579" />
	</node>
	<node lat="61.50318888894424" lon="12.620144450821591" id="-17649">
		<tag k="fixme" v="consider natural=peak for the most distinct mountains in the district" />
		<tag k="name" v="Slottshammaren" />
		<tag k="natural" v="hill" />
		<tag k="place" v="locality" />
		<tag k="ssr:stedsnr" v="71587" />
	</node>
	<node lat="61.55645000119582" lon="12.154455558929795" id="-17650">
		<tag k="fixme" v="consider natural=peak for the most distinct mountains in the district" />
		<tag k="name" v="Rypåsen" />
		<tag k="natural" v="hill" />
		<tag k="place" v="locality" />
		<tag k="ssr:stedsnr" v="71670" />
	</node>
	<node lat="61.09429722006578" lon="11.922963887531385" id="-17652">
		<tag k="alt_name" v="Granåsen, nørdre" />
		<tag k="fixme" v="consider natural=peak for the most distinct mountains in the district" />
		<tag k="name" v="Nordre Granåsen" />
		<tag k="natural" v="hill" />
		<tag k="place" v="locality" />
		<tag k="ssr:stedsnr" v="85103" />
	</node>
	<node lat="61.23179444907456" lon="12.125513880677047" id="-17653">
		<tag k="name" v="Svarttjønngnolla" />
		<tag k="natural" v="hill" />
		<tag k="place" v="locality" />
		<tag k="ssr:stedsnr" v="85123" />
	</node>
	<node lat="61.26241111015207" lon="12.365433340905792" id="-17659">
		<tag k="name" v="Bakkrønningen" />
		<tag k="place" v="locality" />
		<tag k="ssr:stedsnr" v="87343" />
	</node>
	<node lat="61.11865000036712" lon="11.87765834037637" id="-17662">
		<tag k="name" v="Østlibekklia" />
		<tag k="natural" v="slope" />
		<tag k="place" v="locality" />
		<tag k="ssr:stedsnr" v="87523" />
	</node>
	<node lat="61.30399721998335" lon="12.076619447819185" id="-17665">
		<tag k="name" v="Killingskjæra" />
		<tag k="natural" v="ridge" />
		<tag k="place" v="locality" />
		<tag k="ssr:stedsnr" v="87427" />
	</node>
	<node lat="61.603866664750754" lon="12.066333342240945" id="-17667">
		<tag k="name" v="Løvhaugen" />
		<tag k="natural" v="hill" />
		<tag k="place" v="locality" />
		<tag k="ssr:stedsnr" v="87621" />
	</node>
	<node lat="61.15708889250098" lon="12.314530556266721" id="-17686">
		<tag k="fixme" v="consider natural=peak for the most distinct mountains in the district" />
		<tag k="name" v="Kuntåsen" />
		<tag k="natural" v="hill" />
		<tag k="place" v="locality" />
		<tag k="ssr:stedsnr" v="102614" />
	</node>
	<node lat="61.25722222459024" lon="12.03253611908804" id="-17690">
		<tag k="name" v="Fugllekegga" />
		<tag k="natural" v="hill" />
		<tag k="place" v="locality" />
		<tag k="ssr:stedsnr" v="102725" />
	</node>
	<node lat="61.19950833334614" lon="12.743733341672527" id="-17696">
		<tag k="name" v="Matrustbakken" />
		<tag k="natural" v="slope" />
		<tag k="place" v="locality" />
		<tag k="ssr:stedsnr" v="102774" />
	</node>
	<node lat="61.10055555475649" lon="12.647011115102273" id="-17698">
		<tag k="name" v="Bradansmoen" />
		<tag k="place" v="locality" />
		<tag k="ssr:stedsnr" v="102994" />
	</node>
	<node lat="61.30011110998505" lon="11.979222220339231" id="-17699">
		<tag k="name" v="Perknulen" />
		<tag k="natural" v="hill" />
		<tag k="place" v="locality" />
		<tag k="ssr:stedsnr" v="103404" />
	</node>
	<node lat="61.20741944120755" lon="12.150902773086324" id="-17702">
		<tag k="name" v="Raugnollen" />
		<tag k="natural" v="hill" />
		<tag k="place" v="locality" />
		<tag k="ssr:stedsnr" v="103616" />
	</node>
	<node lat="61.44028888983703" lon="11.95164444269697" id="-17735">
		<tag k="name" v="Svartåstangen" />
		<tag k="natural" v="hill" />
		<tag k="place" v="locality" />
		<tag k="ssr:stedsnr" v="114519" />
	</node>
	<node lat="61.373650000464636" lon="12.3705388923136" id="-17741">
		<tag k="name" v="Asphammaren" />
		<tag k="natural" v="hill" />
		<tag k="place" v="locality" />
		<tag k="ssr:stedsnr" v="114712" />
	</node>
	<node lat="61.52051944295974" lon="12.171730554643675" id="-17748">
		<tag k="name" v="Sauknartåsen" />
		<tag k="natural" v="hill" />
		<tag k="place" v="locality" />
		<tag k="ssr:stedsnr" v="114870" />
	</node>
	<node lat="61.56120555672025" lon="12.511319448569214" id="-17749">
		<tag k="name" v="Storbekkjota" />
		<tag k="natural" v="valley" />
		<tag k="place" v="locality" />
		<tag k="ssr:stedsnr" v="115323" />
	</node>
	<node lat="61.4149750009349" lon="12.759163893936503" id="-17751">
		<tag k="name" v="Rukkuflaten" />
		<tag k="place" v="locality" />
		<tag k="ssr:stedsnr" v="115376" />
	</node>
	<node lat="61.378455554045345" lon="12.709780559525049" id="-17752">
		<tag k="name" v="Sølvberget" />
		<tag k="natural" v="hill" />
		<tag k="place" v="locality" />
		<tag k="ssr:stedsnr" v="115603" />
	</node>
	<node lat="61.39524722646807" lon="12.264691666320823" id="-17754">
		<tag k="name" v="Lampen" />
		<tag k="place" v="locality" />
		<tag k="ssr:stedsnr" v="115736" />
	</node>
	<node lat="61.4091416657654" lon="12.281866672621003" id="-17759">
		<tag k="name" v="Østre Strupen" />
		<tag k="natural" v="valley" />
		<tag k="place" v="locality" />
		<tag k="ssr:stedsnr" v="115803" />
	</node>
	<node lat="61.40499722601809" lon="12.271769445848438" id="-17760">
		<tag k="fixme" v="consider natural=peak for the most distinct mountains in the district" />
		<tag k="name" v="Vålbekkåsen" />
		<tag k="natural" v="hill" />
		<tag k="place" v="locality" />
		<tag k="ssr:stedsnr" v="115805" />
	</node>
	<node lat="61.42275833132024" lon="12.291236107904203" id="-17761">
		<tag k="name" v="Sørgelekeggene" />
		<tag k="natural" v="hill" />
		<tag k="place" v="locality" />
		<tag k="ssr:stedsnr" v="115816" />
	</node>
	<node lat="61.069252779264396" lon="12.485038885089713" id="-17763">
		<tag k="fixme" v="consider natural=peak for the most distinct mountains in the district" />
		<tag k="name" v="Halmkalmanoppi" />
		<tag k="natural" v="hill" />
		<tag k="place" v="locality" />
		<tag k="ssr:stedsnr" v="116005" />
	</node>
	<node lat="61.07375555181633" lon="12.47215833868428" id="-17764">
		<tag k="fixme" v="consider natural=peak for the most distinct mountains in the district" />
		<tag k="name" v="Bjønnmyråsen" />
		<tag k="natural" v="hill" />
		<tag k="place" v="locality" />
		<tag k="ssr:stedsnr" v="116007" />
	</node>
	<node lat="61.35093333761125" lon="12.396913891475007" id="-17770">
		<tag k="name" v="Mormyrhaugen" />
		<tag k="natural" v="hill" />
		<tag k="place" v="locality" />
		<tag k="ssr:stedsnr" v="116269" />
	</node>
	<node lat="61.09925000027161" lon="12.449224993670486" id="-17780">
		<tag k="fixme" v="consider natural=peak for the most distinct mountains in the district" />
		<tag k="name" v="Svartåsen" />
		<tag k="natural" v="hill" />
		<tag k="place" v="locality" />
		<tag k="ssr:stedsnr" v="250688" />
	</node>
	<node lat="61.24980555425915" lon="12.481080558240985" id="-17784">
		<tag k="name" v="Gjetsjøberget" />
		<tag k="natural" v="hill" />
		<tag k="place" v="locality" />
		<tag k="ssr:stedsnr" v="250846" />
	</node>
	<node lat="61.15625555513943" lon="12.493616668016037" id="-17791">
		<tag k="name" v="Trysilmyrhøgda" />
		<tag k="natural" v="hill" />
		<tag k="place" v="locality" />
		<tag k="ssr:stedsnr" v="250766" />
	</node>
	<node lat="61.12661111566816" lon="12.04835555261944" id="-17796">
		<tag k="alt_name" v="Elsberget" />
		<tag k="name" v="Elgsberget" />
		<tag k="natural" v="hill" />
		<tag k="place" v="locality" />
		<tag k="ssr:stedsnr" v="250991" />
	</node>
	<node lat="61.21133055503566" lon="12.5103027751868" id="-17803">
		<tag k="name" v="Høyfinnfallet" />
		<tag k="natural" v="hill" />
		<tag k="place" v="locality" />
		<tag k="ssr:stedsnr" v="250820" />
	</node>
	<node lat="61.247069441677276" lon="12.420413892843996" id="-17805">
		<tag k="fixme" v="consider natural=peak for the most distinct mountains in the district" />
		<tag k="name" v="Litle-Ragnhildåsen" />
		<tag k="natural" v="hill" />
		<tag k="place" v="locality" />
		<tag k="ssr:stedsnr" v="250831" />
	</node>
	<node lat="61.16334166312199" lon="12.079363882493265" id="-17807">
		<tag k="name" v="Festningen" />
		<tag k="natural" v="hill" />
		<tag k="place" v="locality" />
		<tag k="ssr:stedsnr" v="118269" />
	</node>
	<node lat="61.2877250037182" lon="12.475647224504003" id="-17835">
		<tag k="fixme" v="consider natural=peak for the most distinct mountains in the district" />
		<tag k="name" v="Styggbekkåsen" />
		<tag k="natural" v="hill" />
		<tag k="place" v="locality" />
		<tag k="ssr:stedsnr" v="120886" />
	</node>
	<node lat="61.2728944435912" lon="12.33095555205067" id="-17840">
		<tag k="name" v="Klanken" />
		<tag k="natural" v="hill" />
		<tag k="place" v="locality" />
		<tag k="ssr:stedsnr" v="251291" />
	</node>
	<node lat="61.419089128982975" lon="12.698628231297409" id="-17850">
		<tag k="alt_name" v="Haukegga" />
		<tag k="fixme" v="consider natural=peak for the most distinct mountains in the district" />
		<tag k="name" v="Høkegga" />
		<tag k="natural" v="hill" />
		<tag k="place" v="locality" />
		<tag k="ssr:stedsnr" v="251366" />
	</node>
	<node lat="61.32882222143221" lon="12.731019437751423" id="-17855">
		<tag k="name" v="Trangen" />
		<tag k="natural" v="valley" />
		<tag k="place" v="locality" />
		<tag k="ssr:stedsnr" v="251434" />
	</node>
	<node lat="61.2653750010285" lon="12.018047213678711" id="-17859">
		<tag k="name" v="Ulvsjøberget" />
		<tag k="natural" v="hill" />
		<tag k="place" v="locality" />
		<tag k="ssr:stedsnr" v="251543" />
	</node>
	<node lat="61.38795277771431" lon="12.381911117087167" id="-17875">
		<tag k="fixme" v="consider natural=peak for the most distinct mountains in the district" />
		<tag k="name" v="Litlåsen" />
		<tag k="natural" v="hill" />
		<tag k="place" v="locality" />
		<tag k="ssr:stedsnr" v="251665" />
	</node>
	<node lat="61.35475833256064" lon="12.317913894613147" id="-17876">
		<tag k="alt_name" v="Taåsen, store" />
		<tag k="fixme" v="consider natural=peak for the most distinct mountains in the district" />
		<tag k="name" v="Stor-Taåsen" />
		<tag k="natural" v="hill" />
		<tag k="place" v="locality" />
		<tag k="ssr:stedsnr" v="251670" />
	</node>
	<node lat="61.44616388656599" lon="12.571699999738287" id="-17882">
		<tag k="name" v="Ljørdalen" />
		<tag k="natural" v="valley" />
		<tag k="place" v="locality" />
		<tag k="ssr:stedsnr" v="251737" />
	</node>
	<node lat="61.43095000253192" lon="12.412049993801478" id="-17892">
		<tag k="fixme" v="consider natural=peak for the most distinct mountains in the district" />
		<tag k="name" v="Slettåsen" />
		<tag k="natural" v="hill" />
		<tag k="place" v="locality" />
		<tag k="ssr:stedsnr" v="251758" />
	</node>
	<node lat="61.39531110727556" lon="12.273722219855001" id="-17893">
		<tag k="alt_name" v="Orrlekåsen" />
		<tag k="fixme" v="consider natural=peak for the most distinct mountains in the district" />
		<tag k="name" v="Orrleikåsen" />
		<tag k="natural" v="hill" />
		<tag k="place" v="locality" />
		<tag k="ssr:stedsnr" v="251770" />
	</node>
	<node lat="61.5354972183335" lon="11.926213883992157" id="-17895">
		<tag k="name" v="Djupskora" />
		<tag k="natural" v="valley" />
		<tag k="place" v="locality" />
		<tag k="ssr:stedsnr" v="252580" />
	</node>
	<node lat="61.49757222520806" lon="11.912688897186499" id="-17896">
		<tag k="fixme" v="consider natural=peak for the most distinct mountains in the district" />
		<tag k="name" v="Litlåsen" />
		<tag k="natural" v="hill" />
		<tag k="place" v="locality" />
		<tag k="ssr:stedsnr" v="251839" />
	</node>
	<node lat="61.44708055620549" lon="12.004177769660119" id="-17904">
		<tag k="name" v="Slettvola" />
		<tag k="natural" v="hill" />
		<tag k="place" v="locality" />
		<tag k="ssr:stedsnr" v="251966" />
	</node>
	<node lat="61.21845277588516" lon="12.11861665963477" id="-17907">
		<tag k="fixme" v="consider natural=peak for the most distinct mountains in the district" />
		<tag k="name" v="Jymmamag" />
		<tag k="natural" v="hill" />
		<tag k="old_name" v="Immemæg" />
		<tag k="place" v="locality" />
		<tag k="ssr:stedsnr" v="128037" />
	</node>
	<node lat="61.17974722134923" lon="11.988822215878773" id="-17916">
		<tag k="name" v="Nordberget" />
		<tag k="natural" v="hill" />
		<tag k="place" v="locality" />
		<tag k="ssr:stedsnr" v="129083" />
	</node>
	<node lat="61.27722777469455" lon="12.7452638921176" id="-17921">
		<tag k="alt_name" v="Svartvorda" />
		<tag k="name" v="Svartvola" />
		<tag k="natural" v="hill" />
		<tag k="place" v="locality" />
		<tag k="ssr:stedsnr" v="129403" />
	</node>
	<node lat="61.26625000213645" lon="12.636824999703633" id="-17927">
		<tag k="name" v="Nesvollberget" />
		<tag k="natural" v="hill" />
		<tag k="place" v="locality" />
		<tag k="ssr:stedsnr" v="129379" />
	</node>
	<node lat="61.111474996063336" lon="12.437850001879406" id="-17947">
		<tag k="name" v="Trollsberget" />
		<tag k="natural" v="hill" />
		<tag k="place" v="locality" />
		<tag k="ssr:stedsnr" v="129722" />
	</node>
	<node lat="61.41776666248464" lon="12.754738881183446" id="-17972">
		<tag k="alt_name" v="Gnollen, syndre;Søndre Gnollen" />
		<tag k="fixme" v="consider natural=peak for the most distinct mountains in the district" />
		<tag k="name" v="Syndre Gnollen" />
		<tag k="natural" v="hill" />
		<tag k="place" v="locality" />
		<tag k="ssr:stedsnr" v="130304" />
	</node>
	<node lat="61.257274995693166" lon="12.147725003577591" id="-17976">
		<tag k="name" v="Grøndalen" />
		<tag k="natural" v="valley" />
		<tag k="place" v="locality" />
		<tag k="ssr:stedsnr" v="130512" />
	</node>
	<node lat="61.496411112509335" lon="12.300199993879186" id="-17977">
		<tag k="fixme" v="consider natural=peak for the most distinct mountains in the district" />
		<tag k="name" v="Skardgnollen" />
		<tag k="natural" v="hill" />
		<tag k="place" v="locality" />
		<tag k="ssr:stedsnr" v="130521" />
	</node>
	<node lat="61.37635277994736" lon="12.413863883250924" id="-17980">
		<tag k="fixme" v="consider natural=peak for the most distinct mountains in the district" />
		<tag k="name" v="Grønberget" />
		<tag k="natural" v="hill" />
		<tag k="place" v="locality" />
		<tag k="ssr:stedsnr" v="130607" />
	</node>
	<node lat="61.52643610971263" lon="11.885983326714834" id="-17981">
		<tag k="fixme" v="consider natural=peak for the most distinct mountains in the district" />
		<tag k="name" v="Skardhamrane" />
		<tag k="natural" v="hill" />
		<tag k="place" v="locality" />
		<tag k="ssr:stedsnr" v="252565" />
	</node>
	<node lat="61.42097778007098" lon="11.929880555711046" id="-17985">
		<tag k="alt_name" v="Nordre Tøråsen" />
		<tag k="fixme" v="consider natural=peak for the most distinct mountains in the district" />
		<tag k="name" v="Tørråsen" />
		<tag k="natural" v="hill" />
		<tag k="place" v="locality" />
		<tag k="ssr:stedsnr" v="130976" />
	</node>
</osm>
