<?xml version="1.0" encoding="UTF-8"?>
<osm generator="osmapis" version="0.6">
	<node id="-296186" lat="61.5090277809" lon="12.654705554">
		<tag k="historic" v="boundary_stone" />
		<tag k="man_made" v="cairn" />
		<tag k="name" v="Slottshørøysa" />
		<tag k="old_name" v="Slotshøyds Røset" />
		<tag k="place" v="locality" />
		<tag k="ssr:stedsnr" v="535022" />
	</node>
	<node id="-302055" lat="61.570325083" lon="12.3312989541">
		<tag k="fixme" v="consider boundary=protected_area and relevant protect_class if not nature reserve" />
		<tag k="leisure" v="nature_reserve" />
		<tag k="name" v="Drevdalen naturreservat" />
		<tag k="ssr:stedsnr" v="1076536" />
	</node>
	<node id="-293840" lat="61.4812999989" lon="12.6659972191">
		<tag k="fixme" v="consider boundary=protected_area and relevant protect_class if not nature reserve" />
		<tag k="leisure" v="nature_reserve" />
		<tag k="name" v="Fulufjellet nasjonalpark" />
		<tag k="ssr:stedsnr" v="222294" />
	</node>
	<node id="-302046" lat="61.5125253264" lon="12.4619294844">
		<tag k="fixme" v="consider boundary=protected_area and relevant protect_class if not nature reserve" />
		<tag k="leisure" v="nature_reserve" />
		<tag k="name" v="Skorbekken naturreservat" />
		<tag k="ssr:stedsnr" v="1074751" />
	</node>
	<node id="-301661" lat="61.4873805592" lon="12.1211138857">
		<tag k="historic" v="boundary_stone" />
		<tag k="man_made" v="cairn" />
		<tag k="name" v="Nils-Mess tallen" />
		<tag k="place" v="locality" />
		<tag k="ssr:stedsnr" v="843842" />
	</node>
	<node id="-302043" lat="61.0554858755" lon="12.2621356289">
		<tag k="fixme" v="consider boundary=protected_area and relevant protect_class if not nature reserve" />
		<tag k="leisure" v="nature_reserve" />
		<tag k="name" v="Skjeftkjølen naturreservat" />
		<tag k="ssr:stedsnr" v="991090" />
	</node>
	<node id="-302042" lat="61.4051838405" lon="12.5667077695">
		<tag k="fixme" v="consider boundary=protected_area and relevant protect_class if not nature reserve" />
		<tag k="leisure" v="nature_reserve" />
		<tag k="name" v="Granbekken og Drevja naturreservat" />
		<tag k="ssr:stedsnr" v="982689" />
	</node>
	<node id="-302041" lat="61.0936428066" lon="12.2708679111">
		<tag k="fixme" v="consider boundary=protected_area and relevant protect_class if not nature reserve" />
		<tag k="leisure" v="nature_reserve" />
		<tag k="name" v="Regnåsen og Hisåsen naturreservat" />
		<tag k="ssr:stedsnr" v="982686" />
	</node>
	<node id="-301905" lat="61.3081194443" lon="12.8530888847">
		<tag k="historic" v="boundary_stone" />
		<tag k="man_made" v="cairn" />
		<tag k="name" v="Vestre Faksfjellrøysa" />
		<tag k="old_name" v="Vestre Faxefjelds Røset" />
		<tag k="place" v="locality" />
		<tag k="ssr:stedsnr" v="959464" />
	</node>
	<node id="-301904" lat="61.5629805512" lon="12.4196055521">
		<tag k="historic" v="boundary_stone" />
		<tag k="loc_name" v="Maurtuverøysa" />
		<tag k="man_made" v="cairn" />
		<tag k="name" v="Myrtuverøysa" />
		<tag k="old_name" v="Mørtetuv (Myrtuv) Røset" />
		<tag k="place" v="locality" />
		<tag k="ssr:stedsnr" v="959030" />
	</node>
	<node id="-297679" lat="61.0492916681" lon="12.5407277714">
		<tag k="historic" v="boundary_stone" />
		<tag k="man_made" v="cairn" />
		<tag k="name" v="Storbergsbakkerøysa" />
		<tag k="old_name" v="Storbergs-bakke Røset" />
		<tag k="place" v="locality" />
		<tag k="ssr:stedsnr" v="899409" />
	</node>
	<node id="-294724" lat="61.0516388911" lon="12.4875916733">
		<tag k="historic" v="boundary_stone" />
		<tag k="man_made" v="cairn" />
		<tag k="name" v="Storbergs Granholtsrøysa" />
		<tag k="old_name" v="Storbergs-Granholts Røse" />
		<tag k="place" v="locality" />
		<tag k="ssr:stedsnr" v="292242" />
	</node>
	<node id="-299838" lat="61.392641667" lon="12.0447611069">
		<tag k="fixme" v="consider boundary=protected_area and relevant protect_class if not nature reserve" />
		<tag k="leisure" v="nature_reserve" />
		<tag k="name" v="Hatten skogreservat" />
		<tag k="ssr:stedsnr" v="390714" />
	</node>
	<node id="-295097" lat="61.0199638886" lon="12.2424555592">
		<tag k="historic" v="boundary_stone" />
		<tag k="man_made" v="cairn" />
		<tag k="name" v="Badosen" />
		<tag k="old_name" v="Bagooset" />
		<tag k="place" v="locality" />
		<tag k="ssr:stedsnr" v="474269" />
	</node>
	<node id="-295096" lat="61.6146749975" lon="12.3412166711">
		<tag k="historic" v="boundary_stone" />
		<tag k="man_made" v="cairn" />
		<tag k="name" v="Midtskogknattsrøysa" />
		<tag k="old_name" v="Midskogsknatte Røset" />
		<tag k="place" v="locality" />
		<tag k="ssr:stedsnr" v="474026" />
	</node>
	<node id="-298534" lat="61.3971722244" lon="12.2327388935">
		<tag k="historic" v="boundary_stone" />
		<tag k="man_made" v="cairn" />
		<tag k="name" v="Fjerdingsfurua" />
		<tag k="place" v="locality" />
		<tag k="ssr:stedsnr" v="114603" />
	</node>
	<node id="-297249" lat="61.2571750045" lon="12.1773638818">
		<tag k="historic" v="boundary_stone" />
		<tag k="man_made" v="cairn" />
		<tag k="name" v="Åkrerøset" />
		<tag k="place" v="locality" />
		<tag k="ssr:stedsnr" v="907890" />
	</node>
	<node id="-301599" lat="61.0464638918" lon="12.6001694526">
		<tag k="historic" v="boundary_stone" />
		<tag k="man_made" v="cairn" />
		<tag k="name" v="Østre Sandkildefossrøysa" />
		<tag k="old_name" v="Østre Sandkildfors Røset" />
		<tag k="place" v="locality" />
		<tag k="ssr:stedsnr" v="838443" />
	</node>
	<node id="-293916" lat="61.5671166687" lon="12.4465944509">
		<tag k="historic" v="boundary_stone" />
		<tag k="man_made" v="cairn" />
		<tag k="name" v="Kvernkilderøysa" />
		<tag k="old_name" v="Qvarnkilde Røset" />
		<tag k="place" v="locality" />
		<tag k="ssr:stedsnr" v="231024" />
	</node>
	<node id="-300550" lat="61.0507333318" lon="12.447616671">
		<tag k="historic" v="boundary_stone" />
		<tag k="man_made" v="cairn" />
		<tag k="name" v="Varårøysa" />
		<tag k="old_name" v="Varaae Røset" />
		<tag k="place" v="locality" />
		<tag k="ssr:stedsnr" v="595239" />
	</node>
	<node id="-297218" lat="61.1101972178" lon="12.6841750069">
		<tag k="historic" v="boundary_stone" />
		<tag k="man_made" v="cairn" />
		<tag k="name" v="Borveggtårnet" />
		<tag k="place" v="locality" />
		<tag k="ssr:stedsnr" v="905394" />
	</node>
	<node id="-298497" lat="61.0521861129" lon="12.651691664">
		<tag k="alt_name" v="Vestre Kjeldgravrøysa" />
		<tag k="historic" v="boundary_stone" />
		<tag k="man_made" v="cairn" />
		<tag k="name" v="Vestre Kildegravsrøysa" />
		<tag k="old_name" v="Vestre Kildegravs Røset" />
		<tag k="place" v="locality" />
		<tag k="ssr:stedsnr" v="110433" />
	</node>
</osm>
