<?xml version="1.0" encoding="UTF-8"?>
<osm version="0.6" generator="osmapis">
	<node lat="61.27790277475806" lon="12.118405556482335" id="-24197">
		<tag k="alt_name" v="Grønflå" />
		<tag k="name" v="Storkjølen" />
		<tag k="natural" v="wetland" />
		<tag k="ssr:stedsnr" v="8539" />
	</node>
	<node lat="61.3326472190525" lon="11.981647225887734" id="-24213">
		<tag k="name" v="Bukjølen" />
		<tag k="natural" v="wetland" />
		<tag k="ssr:stedsnr" v="9589" />
	</node>
	<node lat="61.33312499915357" lon="11.938252781353318" id="-24214">
		<tag k="name" v="Kvilmyra" />
		<tag k="natural" v="wetland" />
		<tag k="ssr:stedsnr" v="9590" />
	</node>
	<node lat="61.371977781340206" lon="12.116166666394331" id="-24216">
		<tag k="name" v="Storkjølen" />
		<tag k="natural" v="wetland" />
		<tag k="ssr:stedsnr" v="9901" />
	</node>
	<node lat="61.44971666440624" lon="12.598000002427986" id="-24235">
		<tag k="name" v="Stormyra" />
		<tag k="natural" v="wetland" />
		<tag k="ssr:stedsnr" v="235054" />
	</node>
	<node lat="61.343572217858686" lon="12.19443333532657" id="-24240">
		<tag k="landuse" v="peat_cutting" />
		<tag k="name" v="Torvhuset" />
		<tag k="ssr:stedsnr" v="26129" />
	</node>
	<node lat="61.34567222641319" lon="12.111852777633608" id="-24243">
		<tag k="name" v="Dugurdsmyra" />
		<tag k="natural" v="wetland" />
		<tag k="ssr:stedsnr" v="26309" />
	</node>
	<node lat="61.277058331430275" lon="12.028252777676" id="-24244">
		<tag k="name" v="Skratthammermyra" />
		<tag k="natural" v="wetland" />
		<tag k="ssr:stedsnr" v="26321" />
	</node>
	<node lat="61.29967500310322" lon="12.112352776749702" id="-24245">
		<tag k="name" v="Slåttbekkbrenna" />
		<tag k="natural" v="wetland" />
		<tag k="ssr:stedsnr" v="26324" />
	</node>
	<node lat="61.599419440044805" lon="12.056041669432611" id="-24251">
		<tag k="name" v="Fuglmora" />
		<tag k="place" v="locality" />
		<tag k="ssr:stedsnr" v="26606" />
	</node>
	<node lat="61.37298333308296" lon="12.19646388568369" id="-24255">
		<tag k="name" v="Killinglågmyra" />
		<tag k="natural" v="wetland" />
		<tag k="ssr:stedsnr" v="26710" />
	</node>
	<node lat="61.44995000274521" lon="12.574672223365466" id="-24260">
		<tag k="name" v="Grønnlendermyra" />
		<tag k="natural" v="wetland" />
		<tag k="ssr:stedsnr" v="235064" />
	</node>
	<node lat="61.47426388630944" lon="11.976661103046832" id="-24265">
		<tag k="name" v="Sjømyra" />
		<tag k="natural" v="wetland" />
		<tag k="ssr:stedsnr" v="235950" />
	</node>
	<node lat="61.537636110708156" lon="12.47982222067408" id="-24271">
		<tag k="name" v="Bredkjeldmora" />
		<tag k="place" v="locality" />
		<tag k="ssr:stedsnr" v="235426" />
	</node>
	<node lat="61.578972220442466" lon="12.012394439102726" id="-24272">
		<tag k="name" v="Moseveltmyra" />
		<tag k="natural" v="wetland" />
		<tag k="ssr:stedsnr" v="235457" />
	</node>
	<node lat="61.5984277759603" lon="12.108299992598006" id="-24275">
		<tag k="name" v="Storjota" />
		<tag k="natural" v="wetland" />
		<tag k="ssr:stedsnr" v="235598" />
	</node>
	<node lat="61.546263890203655" lon="12.15056945387171" id="-24278">
		<tag k="name" v="Brattmyra" />
		<tag k="natural" v="wetland" />
		<tag k="ssr:stedsnr" v="235766" />
	</node>
	<node lat="61.488072222514695" lon="12.117672223136088" id="-24280">
		<tag k="name" v="Vinterløenget" />
		<tag k="place" v="locality" />
		<tag k="ssr:stedsnr" v="235860" />
	</node>
	<node lat="61.40564166553954" lon="12.346488886804071" id="-24281">
		<tag k="name" v="Brynnrønningen" />
		<tag k="place" v="locality" />
		<tag k="ssr:stedsnr" v="235873" />
	</node>
	<node lat="61.444341666168775" lon="12.040111106460973" id="-24283">
		<tag k="name" v="Mortensmora" />
		<tag k="place" v="locality" />
		<tag k="ssr:stedsnr" v="236000" />
	</node>
	<node lat="61.433033329151904" lon="12.140625002935234" id="-24288">
		<tag k="name" v="Smeieengene" />
		<tag k="place" v="locality" />
		<tag k="ssr:stedsnr" v="236054" />
	</node>
	<node lat="61.40365833647753" lon="12.163319437726033" id="-24293">
		<tag k="name" v="Eltosenget" />
		<tag k="place" v="locality" />
		<tag k="ssr:stedsnr" v="236450" />
	</node>
	<node lat="61.35813889303859" lon="11.924733336718209" id="-24295">
		<tag k="name" v="Strupen" />
		<tag k="natural" v="wetland" />
		<tag k="ssr:stedsnr" v="236568" />
	</node>
	<node lat="61.368833333258216" lon="12.726149999486031" id="-24297">
		<tag k="name" v="Slakjølen" />
		<tag k="natural" v="wetland" />
		<tag k="ssr:stedsnr" v="236595" />
	</node>
	<node lat="61.41646944719173" lon="12.148858330122634" id="-24299">
		<tag k="name" v="Hansenget" />
		<tag k="place" v="locality" />
		<tag k="ssr:stedsnr" v="236463" />
	</node>
	<node lat="61.36091110729857" lon="12.325436118426056" id="-24303">
		<tag k="name" v="Hammarslangkjølen" />
		<tag k="natural" v="wetland" />
		<tag k="ssr:stedsnr" v="236670" />
	</node>
	<node lat="61.37055555509846" lon="12.318316659598581" id="-24304">
		<tag k="name" v="Monsmyra" />
		<tag k="natural" v="wetland" />
		<tag k="ssr:stedsnr" v="236676" />
	</node>
	<node lat="61.42866110983034" lon="12.29763610224411" id="-24306">
		<tag k="name" v="Plæmyra" />
		<tag k="natural" v="wetland" />
		<tag k="ssr:stedsnr" v="236795" />
	</node>
	<node lat="61.403500001573036" lon="12.260322216798095" id="-24309">
		<tag k="name" v="Krokmyra" />
		<tag k="natural" v="wetland" />
		<tag k="ssr:stedsnr" v="236816" />
	</node>
	<node lat="61.4003777733383" lon="12.344391670327093" id="-24311">
		<tag k="alt_name" v="Møkkelbrynnbrenna" />
		<tag k="name" v="Møkkelbrynnbrennene" />
		<tag k="natural" v="wetland" />
		<tag k="ssr:stedsnr" v="236865" />
	</node>
	<node lat="61.23329722472636" lon="11.907247223147879" id="-24312">
		<tag k="name" v="Nordre Rensmyra" />
		<tag k="natural" v="wetland" />
		<tag k="ssr:stedsnr" v="39869" />
	</node>
	<node lat="61.298738892228855" lon="12.522080551807706" id="-24313">
		<tag k="name" v="Krabbkjølen" />
		<tag k="natural" v="wetland" />
		<tag k="ssr:stedsnr" v="40009" />
	</node>
	<node lat="61.474080554017114" lon="12.17588611996201" id="-24316">
		<tag k="name" v="Småtjønnkjølen" />
		<tag k="natural" v="wetland" />
		<tag k="ssr:stedsnr" v="236954" />
	</node>
	<node lat="61.51718610972459" lon="12.257561102476204" id="-24317">
		<tag k="name" v="Buflomora" />
		<tag k="place" v="locality" />
		<tag k="ssr:stedsnr" v="236958" />
	</node>
	<node lat="61.44149444182819" lon="12.561333340051286" id="-24318">
		<tag k="name" v="Multmyra" />
		<tag k="natural" v="wetland" />
		<tag k="ssr:stedsnr" v="236964" />
	</node>
	<node lat="61.434844441481374" lon="11.97350834121154" id="-24320">
		<tag k="name" v="Mætermyra" />
		<tag k="natural" v="wetland" />
		<tag k="ssr:stedsnr" v="236972" />
	</node>
	<node lat="61.14743333315509" lon="12.54940833463477" id="-24323">
		<tag k="historic" v="shieling" />
		<tag k="name" v="Tallbergrønningen" />
		<tag k="place" v="locality" />
		<tag k="ssr:stedsnr" v="40386" />
	</node>
	<node lat="61.1542027765818" lon="12.506630562492214" id="-24324">
		<tag k="name" v="Trysilmyrrompa" />
		<tag k="natural" v="wetland" />
		<tag k="ssr:stedsnr" v="40405" />
	</node>
	<node lat="61.16160833737111" lon="12.527024994047313" id="-24325">
		<tag k="name" v="Storstenmyra" />
		<tag k="natural" v="wetland" />
		<tag k="ssr:stedsnr" v="40410" />
	</node>
	<node lat="61.263388885515624" lon="12.071238897053087" id="-24326">
		<tag k="name" v="Brenteggenget" />
		<tag k="place" v="locality" />
		<tag k="ssr:stedsnr" v="40709" />
	</node>
	<node lat="61.19863055539231" lon="12.64883889603418" id="-24331">
		<tag k="name" v="Tannåneset" />
		<tag k="place" v="locality" />
		<tag k="ssr:stedsnr" v="40964" />
	</node>
	<node lat="61.19032778166542" lon="11.947305555911512" id="-24332">
		<tag k="name" v="Slettmyra" />
		<tag k="natural" v="wetland" />
		<tag k="ssr:stedsnr" v="237141" />
	</node>
	<node lat="61.04946944422821" lon="12.361658324888033" id="-24334">
		<tag k="name" v="Vålbergsholtet" />
		<tag k="place" v="locality" />
		<tag k="ssr:stedsnr" v="41163" />
	</node>
	<node lat="61.33440555870091" lon="12.454636107484957" id="-24335">
		<tag k="name" v="Langmyra" />
		<tag k="natural" v="wetland" />
		<tag k="ssr:stedsnr" v="41480" />
	</node>
	<node lat="61.29308889282183" lon="12.697872220523841" id="-24336">
		<tag k="name" v="Rundflomyra" />
		<tag k="natural" v="wetland" />
		<tag k="ssr:stedsnr" v="41602" />
	</node>
	<node lat="61.13562778046904" lon="12.067963887930704" id="-24339">
		<tag k="name" v="Eliasrønningen" />
		<tag k="place" v="locality" />
		<tag k="ssr:stedsnr" v="237417" />
	</node>
	<node lat="61.13915833129088" lon="12.118833333569171" id="-24345">
		<tag k="name" v="Paaliaso" />
		<tag k="natural" v="wetland" />
		<tag k="ssr:stedsnr" v="237434" />
	</node>
	<node lat="61.110552775322745" lon="12.134000008477154" id="-24347">
		<tag k="name" v="Tollonsuo" />
		<tag k="natural" v="wetland" />
		<tag k="ssr:stedsnr" v="42425" />
	</node>
	<node lat="61.26915278003699" lon="12.80699166709607" id="-24351">
		<tag k="landuse" v="meadow" />
		<tag k="name" v="Brennvinstranda" />
		<tag k="ssr:stedsnr" v="42531" />
	</node>
	<node lat="61.25759167003048" lon="12.18152500349161" id="-24358">
		<tag k="name" v="Djupkjølen" />
		<tag k="natural" v="wetland" />
		<tag k="ssr:stedsnr" v="237906" />
	</node>
	<node lat="61.32033888530457" lon="12.53881110616907" id="-24360">
		<tag k="name" v="Rismyra" />
		<tag k="natural" v="wetland" />
		<tag k="ssr:stedsnr" v="237750" />
	</node>
	<node lat="61.2629083343958" lon="12.50722222841106" id="-24362">
		<tag k="name" v="Brettmyra" />
		<tag k="natural" v="wetland" />
		<tag k="ssr:stedsnr" v="238114" />
	</node>
	<node lat="61.22639444285382" lon="12.511391662284163" id="-24363">
		<tag k="name" v="Fugllekmyra" />
		<tag k="natural" v="wetland" />
		<tag k="ssr:stedsnr" v="238344" />
	</node>
	<node lat="61.22302500228614" lon="12.5490194386043" id="-24365">
		<tag k="name" v="Storkjølen" />
		<tag k="natural" v="wetland" />
		<tag k="ssr:stedsnr" v="238846" />
	</node>
	<node lat="61.25433889155726" lon="12.464138882310982" id="-24366">
		<tag k="name" v="Søndre Sjømyra" />
		<tag k="natural" v="wetland" />
		<tag k="ssr:stedsnr" v="239124" />
	</node>
	<node lat="61.2388277756366" lon="12.535044448947637" id="-24374">
		<tag k="landuse" v="meadow" />
		<tag k="name" v="Marenrønningen" />
		<tag k="ssr:stedsnr" v="239404" />
	</node>
	<node lat="61.507177780142364" lon="12.506711102838896" id="-24378">
		<tag k="name" v="Storrønningen" />
		<tag k="place" v="locality" />
		<tag k="ssr:stedsnr" v="53226" />
	</node>
	<node lat="61.41636944438559" lon="12.49650278326886" id="-24382">
		<tag k="name" v="Blekkmyra" />
		<tag k="natural" v="wetland" />
		<tag k="ssr:stedsnr" v="53383" />
	</node>
	<node lat="61.45642777849549" lon="11.927166666292067" id="-24383">
		<tag k="name" v="Pipelsroa" />
		<tag k="place" v="locality" />
		<tag k="ssr:stedsnr" v="53508" />
	</node>
	<node lat="61.50806944438828" lon="12.583552775170448" id="-24385">
		<tag k="name" v="Buarenget" />
		<tag k="place" v="locality" />
		<tag k="ssr:stedsnr" v="53273" />
	</node>
	<node lat="61.451277773700696" lon="12.345530549959259" id="-24389">
		<tag k="name" v="Vakkermyrene" />
		<tag k="natural" v="wetland" />
		<tag k="ssr:stedsnr" v="53910" />
	</node>
	<node lat="61.37797499591449" lon="11.941544439300493" id="-24391">
		<tag k="landuse" v="meadow" />
		<tag k="name" v="Kvea" />
		<tag k="ssr:stedsnr" v="53675" />
	</node>
	<node lat="61.502888893101925" lon="12.173416659044086" id="-24394">
		<tag k="name" v="Nybrenna" />
		<tag k="place" v="locality" />
		<tag k="ssr:stedsnr" v="53801" />
	</node>
	<node lat="61.47617778127813" lon="12.303772213725509" id="-24397">
		<tag k="name" v="Fugllekåsmyra" />
		<tag k="natural" v="wetland" />
		<tag k="ssr:stedsnr" v="53986" />
	</node>
	<node lat="61.240633337730394" lon="12.166813882960973" id="-24401">
		<tag k="name" v="Åbrekken" />
		<tag k="natural" v="wetland" />
		<tag k="ssr:stedsnr" v="239576" />
	</node>
	<node lat="61.54009167035323" lon="12.258111110701972" id="-24402">
		<tag k="name" v="Lindbergsmyra" />
		<tag k="natural" v="wetland" />
		<tag k="ssr:stedsnr" v="54483" />
	</node>
	<node lat="61.59629721963136" lon="12.106983334732872" id="-24409">
		<tag k="name" v="Karimyrene" />
		<tag k="natural" v="wetland" />
		<tag k="ssr:stedsnr" v="54567" />
	</node>
	<node lat="61.11465000057556" lon="12.46357222019704" id="-24413">
		<tag k="name" v="Gørrsekkstellet" />
		<tag k="natural" v="wetland" />
		<tag k="ssr:stedsnr" v="239723" />
	</node>
	<node lat="61.428847219449764" lon="12.329427768828925" id="-24416">
		<tag k="name" v="Måsåmyra" />
		<tag k="natural" v="wetland" />
		<tag k="ssr:stedsnr" v="54829" />
	</node>
	<node lat="61.06307777601164" lon="12.459602782029686" id="-24419">
		<tag k="name" v="Oria" />
		<tag k="place" v="locality" />
		<tag k="ssr:stedsnr" v="55004" />
	</node>
	<node lat="61.16488889049589" lon="12.202324997840593" id="-24427">
		<tag k="name" v="Gammelkvernbrenna" />
		<tag k="place" v="locality" />
		<tag k="ssr:stedsnr" v="55528" />
	</node>
	<node lat="61.24659166430793" lon="12.166519440465942" id="-24430">
		<tag k="name" v="Stenmyra" />
		<tag k="natural" v="wetland" />
		<tag k="ssr:stedsnr" v="239944" />
	</node>
	<node lat="61.30126111461109" lon="12.43844999596243" id="-24431">
		<tag k="name" v="Bakmyra" />
		<tag k="natural" v="wetland" />
		<tag k="ssr:stedsnr" v="239927" />
	</node>
	<node lat="61.138169440640574" lon="12.634249991799887" id="-24432">
		<tag k="landuse" v="meadow" />
		<tag k="name" v="Vakkermoenget" />
		<tag k="ssr:stedsnr" v="56374" />
	</node>
	<node lat="61.26178055186761" lon="12.580286104591933" id="-24439">
		<tag k="name" v="Kjerringnålmyra" />
		<tag k="natural" v="wetland" />
		<tag k="ssr:stedsnr" v="240124" />
	</node>
	<node lat="61.11008333210325" lon="12.055041673203615" id="-24440">
		<tag k="name" v="Maritmyra" />
		<tag k="natural" v="wetland" />
		<tag k="ssr:stedsnr" v="57404" />
	</node>
	<node lat="61.238799995730226" lon="12.681883333547445" id="-24443">
		<tag k="name" v="Orrleikkjølen" />
		<tag k="natural" v="wetland" />
		<tag k="ssr:stedsnr" v="57569" />
	</node>
	<node lat="61.190366666175215" lon="12.77285278601083" id="-24444">
		<tag k="name" v="Brunntjønnmyra" />
		<tag k="natural" v="wetland" />
		<tag k="ssr:stedsnr" v="57706" />
	</node>
	<node lat="61.208369445445854" lon="12.79630555237912" id="-24446">
		<tag k="name" v="Kristianskjølen" />
		<tag k="natural" v="wetland" />
		<tag k="ssr:stedsnr" v="57669" />
	</node>
	<node lat="61.211172220152996" lon="12.21854166309351" id="-24453">
		<tag k="alt_name" v="Voldkvea" />
		<tag k="landuse" v="meadow" />
		<tag k="name" v="Vollkvea" />
		<tag k="ssr:stedsnr" v="58616" />
	</node>
	<node lat="61.09577777596097" lon="12.605672230605732" id="-24460">
		<tag k="name" v="Kaldbumyra" />
		<tag k="natural" v="wetland" />
		<tag k="ssr:stedsnr" v="59180" />
	</node>
	<node lat="61.10565833336195" lon="12.509697230228468" id="-24464">
		<tag k="name" v="Stormyra" />
		<tag k="natural" v="wetland" />
		<tag k="ssr:stedsnr" v="59379" />
	</node>
	<node lat="61.304000002308946" lon="12.579255549073922" id="-24465">
		<tag k="name" v="Gunnarsmyra" />
		<tag k="natural" v="wetland" />
		<tag k="ssr:stedsnr" v="59082" />
	</node>
	<node lat="61.176219444016944" lon="12.600033340198829" id="-24467">
		<tag k="name" v="Furulusmyra" />
		<tag k="natural" v="wetland" />
		<tag k="ssr:stedsnr" v="59412" />
	</node>
	<node lat="61.093897218780185" lon="12.463677775675434" id="-24470">
		<tag k="name" v="Svertåsmyra" />
		<tag k="natural" v="wetland" />
		<tag k="ssr:stedsnr" v="59503" />
	</node>
	<node lat="61.30213611156813" lon="11.90194999550568" id="-24473">
		<tag k="name" v="Hølbekkrusta" />
		<tag k="place" v="locality" />
		<tag k="ssr:stedsnr" v="59487" />
	</node>
	<node lat="61.19778889166362" lon="12.736022218580782" id="-24476">
		<tag k="name" v="Porsmyra" />
		<tag k="natural" v="wetland" />
		<tag k="ssr:stedsnr" v="59907" />
	</node>
	<node lat="61.19190061683061" lon="12.739149770398813" id="-24478">
		<tag k="name" v="Bjørvetholmen" />
		<tag k="place" v="locality" />
		<tag k="ssr:stedsnr" v="59910" />
	</node>
	<node lat="61.307941662641944" lon="12.593722213099971" id="-24480">
		<tag k="name" v="Langmyra" />
		<tag k="natural" v="wetland" />
		<tag k="ssr:stedsnr" v="59920" />
	</node>
	<node lat="61.203913886303646" lon="12.732222217558482" id="-24481">
		<tag k="name" v="Røyemyra" />
		<tag k="natural" v="wetland" />
		<tag k="ssr:stedsnr" v="59921" />
	</node>
	<node lat="61.26518055919616" lon="12.6652444371626" id="-24482">
		<tag k="name" v="Slåttmora" />
		<tag k="place" v="locality" />
		<tag k="ssr:stedsnr" v="59923" />
	</node>
	<node lat="61.08407222134798" lon="12.349838883524232" id="-24486">
		<tag k="name" v="Fallmyra" />
		<tag k="natural" v="wetland" />
		<tag k="ssr:stedsnr" v="241148" />
	</node>
	<node lat="61.28086388544218" lon="12.554097222456573" id="-24487">
		<tag k="landuse" v="meadow" />
		<tag k="name" v="Løenget" />
		<tag k="ssr:stedsnr" v="241102" />
	</node>
	<node lat="61.27930277812386" lon="12.552316672856872" id="-24488">
		<tag k="landuse" v="meadow" />
		<tag k="name" v="Tuvdansen" />
		<tag k="ssr:stedsnr" v="241105" />
	</node>
	<node lat="61.28997777941499" lon="11.96120555903484" id="-24489">
		<tag k="name" v="Krokmyra" />
		<tag k="natural" v="wetland" />
		<tag k="ssr:stedsnr" v="241163" />
	</node>
	<node lat="61.26854444015095" lon="11.951319446973436" id="-24491">
		<tag k="name" v="Gnollmyra" />
		<tag k="natural" v="wetland" />
		<tag k="ssr:stedsnr" v="241173" />
	</node>
	<node lat="61.23691388555495" lon="11.952541670314774" id="-24497">
		<tag k="name" v="Vestersjøen" />
		<tag k="natural" v="wetland" />
		<tag k="ssr:stedsnr" v="241193" />
	</node>
	<node lat="61.230966664094105" lon="11.956369438533125" id="-24498">
		<tag k="name" v="Frøtallbrenna" />
		<tag k="place" v="locality" />
		<tag k="ssr:stedsnr" v="241196" />
	</node>
	<node lat="61.25590555627046" lon="12.395783333550424" id="-24499">
		<tag k="name" v="Bondbrenna" />
		<tag k="place" v="locality" />
		<tag k="ssr:stedsnr" v="241202" />
	</node>
	<node lat="61.07414999918597" lon="12.419705563364374" id="-24507">
		<tag k="name" v="Flåtåmyra" />
		<tag k="natural" v="wetland" />
		<tag k="ssr:stedsnr" v="241475" />
	</node>
	<node lat="61.23423610785549" lon="12.259938893651809" id="-24508">
		<tag k="name" v="Håbrenna" />
		<tag k="place" v="locality" />
		<tag k="ssr:stedsnr" v="241424" />
	</node>
	<node lat="61.172341670167874" lon="12.29118055882451" id="-24509">
		<tag k="name" v="Hemmyra" />
		<tag k="natural" v="wetland" />
		<tag k="ssr:stedsnr" v="241756" />
	</node>
	<node lat="61.20533055979572" lon="12.71048056294142" id="-24514">
		<tag k="name" v="Nordre Øvstmyra" />
		<tag k="natural" v="wetland" />
		<tag k="ssr:stedsnr" v="241931" />
	</node>
	<node lat="61.225691666935475" lon="12.485902782946141" id="-24529">
		<tag k="name" v="Tangfallmyra" />
		<tag k="natural" v="wetland" />
		<tag k="ssr:stedsnr" v="68826" />
	</node>
	<node lat="61.06772777681406" lon="12.440355552719852" id="-24541">
		<tag k="alt_name" v="Kværnmyra" />
		<tag k="name" v="Kvernmyra" />
		<tag k="natural" v="wetland" />
		<tag k="ssr:stedsnr" v="69703" />
	</node>
	<node lat="61.410522218260844" lon="11.90685833656975" id="-24546">
		<tag k="name" v="Krokengkjølen" />
		<tag k="natural" v="wetland" />
		<tag k="ssr:stedsnr" v="69910" />
	</node>
	<node lat="61.38040833371125" lon="12.061425005244848" id="-24548">
		<tag k="name" v="Styggkjølen" />
		<tag k="natural" v="wetland" />
		<tag k="ssr:stedsnr" v="69929" />
	</node>
	<node lat="61.395386107168484" lon="11.92013888835997" id="-24553">
		<tag k="name" v="Hølbekkjølen" />
		<tag k="natural" v="wetland" />
		<tag k="ssr:stedsnr" v="69891" />
	</node>
	<node lat="61.29729444801602" lon="12.319975006229752" id="-24569">
		<tag k="name" v="Knettjønnmyra" />
		<tag k="natural" v="wetland" />
		<tag k="ssr:stedsnr" v="87111" />
	</node>
	<node lat="61.31296389034779" lon="12.083174995568054" id="-24576">
		<tag k="name" v="Vestre Entjønnkjølen" />
		<tag k="natural" v="wetland" />
		<tag k="ssr:stedsnr" v="87394" />
	</node>
	<node lat="61.341752780561116" lon="12.002838891198445" id="-24578">
		<tag k="name" v="Eggemyrene" />
		<tag k="natural" v="wetland" />
		<tag k="ssr:stedsnr" v="87484" />
	</node>
	<node lat="61.30589444597389" lon="12.306630558176296" id="-24579">
		<tag k="name" v="Stendiket" />
		<tag k="natural" v="wetland" />
		<tag k="ssr:stedsnr" v="87492" />
	</node>
	<node lat="61.36841389331008" lon="12.138522213727661" id="-24584">
		<tag k="name" v="Svartåsmyra" />
		<tag k="natural" v="wetland" />
		<tag k="ssr:stedsnr" v="87722" />
	</node>
	<node lat="61.36232777494146" lon="12.154491663017879" id="-24585">
		<tag k="name" v="Nordre Kjølstadmyra" />
		<tag k="natural" v="wetland" />
		<tag k="ssr:stedsnr" v="87724" />
	</node>
	<node lat="61.323083329781475" lon="11.907291666279205" id="-24586">
		<tag k="name" v="Tenåskjølen" />
		<tag k="natural" v="wetland" />
		<tag k="ssr:stedsnr" v="100386" />
	</node>
	<node lat="61.13598889166639" lon="12.352869436529993" id="-24587">
		<tag k="name" v="Storkjølen" />
		<tag k="natural" v="wetland" />
		<tag k="ssr:stedsnr" v="100526" />
	</node>
	<node lat="61.123055552117975" lon="12.37999722137819" id="-24588">
		<tag k="name" v="Orreleiken" />
		<tag k="natural" v="wetland" />
		<tag k="ssr:stedsnr" v="100528" />
	</node>
	<node lat="61.22439722076258" lon="12.62912221733593" id="-24591">
		<tag k="name" v="Karenbrenna" />
		<tag k="place" v="locality" />
		<tag k="ssr:stedsnr" v="101783" />
	</node>
	<node lat="61.121194445239" lon="11.993438891328056" id="-24593">
		<tag k="name" v="Nemsvemyra" />
		<tag k="natural" v="wetland" />
		<tag k="ssr:stedsnr" v="102016" />
	</node>
	<node lat="61.098466666209994" lon="12.322572215281221" id="-24595">
		<tag k="name" v="Bjørbekkjølen" />
		<tag k="natural" v="wetland" />
		<tag k="ssr:stedsnr" v="102316" />
	</node>
	<node lat="61.3175861101585" lon="12.458447227063955" id="-24598">
		<tag k="name" v="Nyvoll" />
		<tag k="place" v="locality" />
		<tag k="ssr:stedsnr" v="102478" />
	</node>
	<node lat="61.3532499999784" lon="12.282183341222066" id="-24600">
		<tag k="name" v="Smørmyrene" />
		<tag k="natural" v="wetland" />
		<tag k="ssr:stedsnr" v="102606" />
	</node>
	<node lat="61.26991110710652" lon="12.041638885685675" id="-24602">
		<tag k="name" v="Vesleåsmyra" />
		<tag k="natural" v="wetland" />
		<tag k="ssr:stedsnr" v="102709" />
	</node>
	<node lat="61.15701389172209" lon="12.168863882780157" id="-24606">
		<tag k="name" v="Domningsneset" />
		<tag k="place" v="locality" />
		<tag k="ssr:stedsnr" v="102740" />
	</node>
	<node lat="61.15689166438174" lon="12.174069451501747" id="-24607">
		<tag k="name" v="Vinterneset" />
		<tag k="place" v="locality" />
		<tag k="ssr:stedsnr" v="102741" />
	</node>
	<node lat="61.19885000155883" lon="12.595597218688022" id="-24609">
		<tag k="landuse" v="meadow" />
		<tag k="name" v="Skarpstranda" />
		<tag k="ssr:stedsnr" v="102805" />
	</node>
	<node lat="61.2000138902466" lon="12.230961119010082" id="-24612">
		<tag k="name" v="Kjerringnålmyra" />
		<tag k="natural" v="wetland" />
		<tag k="ssr:stedsnr" v="102984" />
	</node>
	<node lat="61.22420277371562" lon="12.776869452264117" id="-24616">
		<tag k="landuse" v="meadow" />
		<tag k="name" v="Kjelda" />
		<tag k="ssr:stedsnr" v="103525" />
	</node>
	<node lat="61.31108889243781" lon="12.829205556537882" id="-24618">
		<tag k="name" v="Løvbrenna" />
		<tag k="place" v="locality" />
		<tag k="ssr:stedsnr" v="103690" />
	</node>
	<node lat="61.22800555591342" lon="12.004100001252345" id="-24629">
		<tag k="name" v="Kukjølen" />
		<tag k="natural" v="wetland" />
		<tag k="ssr:stedsnr" v="250062" />
	</node>
	<node lat="61.175704335610014" lon="11.99451107065897" id="-24630">
		<tag k="historic" v="shieling" />
		<tag k="name" v="Nordbergsætra" />
		<tag k="place" v="locality" />
		<tag k="ssr:stedsnr" v="250064" />
	</node>
	<node lat="61.16615833719387" lon="12.042200005895648" id="-24635">
		<tag k="name" v="Bergemyra" />
		<tag k="natural" v="wetland" />
		<tag k="ssr:stedsnr" v="250112" />
	</node>
	<node lat="61.48391388830678" lon="12.533972229336394" id="-24638">
		<tag k="name" v="Stortjønnenget" />
		<tag k="place" v="locality" />
		<tag k="ssr:stedsnr" v="113122" />
	</node>
	<node lat="61.486511113647374" lon="11.821108342238956" id="-24639">
		<tag k="name" v="Lyngåskjølen" />
		<tag k="natural" v="wetland" />
		<tag k="ssr:stedsnr" v="250198" />
	</node>
	<node lat="61.5260833291119" lon="12.040163891783685" id="-24643">
		<tag k="name" v="Bråtålandtjuknet" />
		<tag k="place" v="locality" />
		<tag k="ssr:stedsnr" v="114035" />
	</node>
	<node lat="61.45051944815561" lon="12.507747215686791" id="-24646">
		<tag k="name" v="Oasemyra" />
		<tag k="natural" v="wetland" />
		<tag k="ssr:stedsnr" v="114050" />
	</node>
	<node lat="61.51148610690253" lon="12.13094999780901" id="-24649">
		<tag k="name" v="Toreåkeren" />
		<tag k="place" v="locality" />
		<tag k="ssr:stedsnr" v="114176" />
	</node>
	<node lat="61.442694441319595" lon="11.96253610655527" id="-24651">
		<tag k="name" v="Oterkjølen" />
		<tag k="natural" v="wetland" />
		<tag k="ssr:stedsnr" v="114524" />
	</node>
	<node lat="61.615658336266726" lon="12.182477786513504" id="-24652">
		<tag k="name" v="Storbekkflået" />
		<tag k="natural" v="wetland" />
		<tag k="ssr:stedsnr" v="114533" />
	</node>
	<node lat="61.57745000346051" lon="12.130288880119409" id="-24655">
		<tag k="name" v="Tinningen" />
		<tag k="natural" v="wetland" />
		<tag k="ssr:stedsnr" v="114577" />
	</node>
	<node lat="61.36896110835813" lon="12.36013888936549" id="-24657">
		<tag k="name" v="Sommerløvkjølen" />
		<tag k="natural" v="wetland" />
		<tag k="ssr:stedsnr" v="114718" />
	</node>
	<node lat="61.38712499587665" lon="11.961886116784719" id="-24659">
		<tag k="name" v="Helvetmyra" />
		<tag k="natural" v="wetland" />
		<tag k="ssr:stedsnr" v="114671" />
	</node>
	<node lat="61.535122220612855" lon="12.167252775879009" id="-24660">
		<tag k="name" v="Oppigardsmyra" />
		<tag k="natural" v="wetland" />
		<tag k="ssr:stedsnr" v="114679" />
	</node>
	<node lat="61.429844443657174" lon="11.968555562854059" id="-24661">
		<tag k="name" v="Skatollenget" />
		<tag k="place" v="locality" />
		<tag k="ssr:stedsnr" v="114969" />
	</node>
	<node lat="61.43344721905381" lon="11.990524992954143" id="-24662">
		<tag k="name" v="Telemarkmyra" />
		<tag k="natural" v="wetland" />
		<tag k="ssr:stedsnr" v="114973" />
	</node>
	<node lat="61.411463892086054" lon="12.771911112200726" id="-24665">
		<tag k="name" v="Hjertåsen" />
		<tag k="place" v="locality" />
		<tag k="ssr:stedsnr" v="115374" />
	</node>
	<node lat="61.39624721977999" lon="12.27815554791689" id="-24668">
		<tag k="name" v="Bjønntassmyra" />
		<tag k="natural" v="wetland" />
		<tag k="ssr:stedsnr" v="115733" />
	</node>
	<node lat="61.38848610977353" lon="12.576541673703836" id="-24677">
		<tag k="name" v="Jordbrumyra" />
		<tag k="natural" v="wetland" />
		<tag k="ssr:stedsnr" v="115896" />
	</node>
	<node lat="61.18313333558625" lon="12.747502786585201" id="-24683">
		<tag k="name" v="Gonomatkjølen" />
		<tag k="natural" v="wetland" />
		<tag k="ssr:stedsnr" v="250604" />
	</node>
	<node lat="61.15322411503902" lon="12.70933465565054" id="-24686">
		<tag k="name" v="Fåfengkjølen" />
		<tag k="natural" v="wetland" />
		<tag k="ssr:stedsnr" v="250577" />
	</node>
	<node lat="61.11976666342205" lon="12.689805561512845" id="-24689">
		<tag k="name" v="Bækkmyra" />
		<tag k="natural" v="wetland" />
		<tag k="ssr:stedsnr" v="116387" />
	</node>
	<node lat="61.03925000060603" lon="12.241083328110392" id="-24691">
		<tag k="name" v="Revmyra" />
		<tag k="natural" v="wetland" />
		<tag k="ssr:stedsnr" v="250636" />
	</node>
	<node lat="61.11093888911725" lon="12.546180563307383" id="-24692">
		<tag k="name" v="Rørmyrane" />
		<tag k="natural" v="wetland" />
		<tag k="ssr:stedsnr" v="250698" />
	</node>
	<node lat="61.32860277603727" lon="12.529344437974995" id="-24693">
		<tag k="name" v="Brekkmyra" />
		<tag k="natural" v="wetland" />
		<tag k="ssr:stedsnr" v="116702" />
	</node>
	<node lat="61.163508334255944" lon="12.238155559145206" id="-24696">
		<tag k="name" v="Sundkjølstrupen" />
		<tag k="natural" v="wetland" />
		<tag k="ssr:stedsnr" v="250742" />
	</node>
	<node lat="61.222536114416116" lon="11.95078889065966" id="-24702">
		<tag k="name" v="Gjertrudstellet" />
		<tag k="natural" v="wetland" />
		<tag k="ssr:stedsnr" v="118111" />
	</node>
	<node lat="61.22283055113261" lon="11.93995000607239" id="-24703">
		<tag k="landuse" v="meadow" />
		<tag k="name" v="Skrømtkoia" />
		<tag k="ssr:stedsnr" v="118112" />
	</node>
	<node lat="61.167925001559226" lon="12.49883056199968" id="-24704">
		<tag k="name" v="Storkjølen" />
		<tag k="natural" v="wetland" />
		<tag k="ssr:stedsnr" v="250763" />
	</node>
	<node lat="61.19674999890061" lon="12.23685832618621" id="-24708">
		<tag k="name" v="Storkjølen" />
		<tag k="natural" v="wetland" />
		<tag k="ssr:stedsnr" v="250773" />
	</node>
	<node lat="61.19687499904033" lon="12.383644449433682" id="-24709">
		<tag k="name" v="Nilssæterkjølen" />
		<tag k="natural" v="wetland" />
		<tag k="ssr:stedsnr" v="250780" />
	</node>
	<node lat="61.18662777761664" lon="12.57033055081278" id="-24710">
		<tag k="alt_name" v="Hemåsmyra" />
		<tag k="name" v="Heimåsmyra" />
		<tag k="natural" v="wetland" />
		<tag k="ssr:stedsnr" v="250789" />
	</node>
	<node lat="61.321752781178745" lon="11.965783335295507" id="-24712">
		<tag k="name" v="Tenåsbekkrusta" />
		<tag k="place" v="locality" />
		<tag k="ssr:stedsnr" v="118221" />
	</node>
	<node lat="61.206916669672076" lon="12.290338893608784" id="-24716">
		<tag k="name" v="Krokmyra" />
		<tag k="natural" v="wetland" />
		<tag k="ssr:stedsnr" v="250817" />
	</node>
	<node lat="61.25119166428683" lon="12.597644445973359" id="-24728">
		<tag k="name" v="Myra norda Røyeåsen" />
		<tag k="natural" v="wetland" />
		<tag k="ssr:stedsnr" v="118476" />
	</node>
	<node lat="61.295480552584706" lon="11.98149721285321" id="-24734">
		<tag k="name" v="Bomkjølen" />
		<tag k="natural" v="wetland" />
		<tag k="ssr:stedsnr" v="251643" />
	</node>
	<node lat="61.07582222646987" lon="12.623252786507345" id="-24736">
		<tag k="landuse" v="meadow" />
		<tag k="name" v="Mattisfallet" />
		<tag k="ssr:stedsnr" v="119224" />
	</node>
	<node lat="61.253569441318206" lon="11.959938892306283" id="-24739">
		<tag k="historic" v="shieling" />
		<tag k="name" v="Nysætra" />
		<tag k="place" v="locality" />
		<tag k="ssr:stedsnr" v="119184" />
	</node>
	<node lat="61.21382222141661" lon="12.468177778759674" id="-24743">
		<tag k="name" v="Bumyra" />
		<tag k="natural" v="wetland" />
		<tag k="ssr:stedsnr" v="119624" />
	</node>
	<node lat="61.07949444299901" lon="12.52399721915409" id="-24746">
		<tag k="name" v="Eliasmyra" />
		<tag k="natural" v="wetland" />
		<tag k="ssr:stedsnr" v="120187" />
	</node>
	<node lat="61.47764444029695" lon="11.812400003017835" id="-24753">
		<tag k="name" v="Ormmyra" />
		<tag k="natural" v="wetland" />
		<tag k="ssr:stedsnr" v="251229" />
	</node>
	<node lat="61.25303055363198" lon="12.262633337845795" id="-24758">
		<tag k="alt_name" v="Tøråskjølen" />
		<tag k="name" v="Tørråskjølen" />
		<tag k="natural" v="wetland" />
		<tag k="ssr:stedsnr" v="251390" />
	</node>
	<node lat="61.26050555482631" lon="12.657811107184559" id="-24760">
		<tag k="name" v="Nesvollbergsmyra" />
		<tag k="natural" v="wetland" />
		<tag k="ssr:stedsnr" v="251397" />
	</node>
	<node lat="61.344291670297544" lon="12.637991661892785" id="-24769">
		<tag k="alt_name" v="Vidkjølen" />
		<tag k="name" v="Vikjølen" />
		<tag k="natural" v="wetland" />
		<tag k="ssr:stedsnr" v="251421" />
	</node>
	<node lat="61.26618333534243" lon="11.932066674546743" id="-24773">
		<tag k="name" v="Tjørnmyra" />
		<tag k="natural" v="wetland" />
		<tag k="ssr:stedsnr" v="251539" />
	</node>
	<node lat="61.26353055927449" lon="12.130708334952976" id="-24776">
		<tag k="name" v="Dulpkjølen" />
		<tag k="natural" v="wetland" />
		<tag k="ssr:stedsnr" v="251554" />
	</node>
	<node lat="61.47788888770267" lon="12.312888894056831" id="-24779">
		<tag k="alt_name" v="Nordre Langmyra" />
		<tag k="name" v="Langmyra" />
		<tag k="natural" v="wetland" />
		<tag k="ssr:stedsnr" v="251575" />
	</node>
	<node lat="61.29306666550891" lon="11.940572225992705" id="-24787">
		<tag k="name" v="Tallåskjølen" />
		<tag k="natural" v="wetland" />
		<tag k="ssr:stedsnr" v="251647" />
	</node>
	<node lat="61.35416388777983" lon="12.443299996091024" id="-24792">
		<tag k="name" v="Flykjølen" />
		<tag k="natural" v="wetland" />
		<tag k="ssr:stedsnr" v="251674" />
	</node>
	<node lat="61.356375002356366" lon="12.488763883344197" id="-24793">
		<tag k="alt_name" v="Tjønnkjølen" />
		<tag k="name" v="Tjørnkjølen" />
		<tag k="natural" v="wetland" />
		<tag k="ssr:stedsnr" v="251676" />
	</node>
	<node lat="61.36110277648233" lon="12.58920555865783" id="-24794">
		<tag k="alt_name" v="Sommergåskjølen" />
		<tag k="name" v="Sommargåskjølen" />
		<tag k="natural" v="wetland" />
		<tag k="ssr:stedsnr" v="251677" />
	</node>
	<node lat="61.067238891275856" lon="12.334111109898913" id="-24799">
		<tag k="name" v="Andersmyra" />
		<tag k="natural" v="wetland" />
		<tag k="ssr:stedsnr" v="251694" />
	</node>
	<node lat="61.07923055677036" lon="12.494480552062228" id="-24800">
		<tag k="name" v="Karlfallmyra" />
		<tag k="natural" v="wetland" />
		<tag k="ssr:stedsnr" v="251699" />
	</node>
	<node lat="61.074163891321305" lon="12.414008325037031" id="-24801">
		<tag k="alt_name" v="Flåttåmyra" />
		<tag k="name" v="Flåttamyra" />
		<tag k="natural" v="wetland" />
		<tag k="ssr:stedsnr" v="251701" />
	</node>
	<node lat="61.46298611085137" lon="12.567441659540254" id="-24802">
		<tag k="alt_name" v="Vestre Gjermundsmyra" />
		<tag k="name" v="Gjermundsmyra" />
		<tag k="natural" v="wetland" />
		<tag k="ssr:stedsnr" v="251716" />
	</node>
	<node lat="61.386030551463016" lon="11.866616661645407" id="-24812">
		<tag k="name" v="Henrikskjølen" />
		<tag k="natural" v="wetland" />
		<tag k="ssr:stedsnr" v="251955" />
	</node>
	<node lat="61.09220833412701" lon="12.16729722352609" id="-24827">
		<tag k="name" v="Korsmyra" />
		<tag k="natural" v="wetland" />
		<tag k="ssr:stedsnr" v="128903" />
	</node>
	<node lat="61.275861111714924" lon="12.096066661999224" id="-24846">
		<tag k="alt_name" v="Nordbymyrene" />
		<tag k="name" v="Nordbymyra" />
		<tag k="natural" v="wetland" />
		<tag k="ssr:stedsnr" v="129510" />
	</node>
	<node lat="61.042083337178525" lon="12.348474992320018" id="-24850">
		<tag k="alt_name" v="Vimyra" />
		<tag k="name" v="Vidmyra" />
		<tag k="natural" v="wetland" />
		<tag k="ssr:stedsnr" v="129630" />
	</node>
	<node lat="61.24725833739976" lon="12.407550008086714" id="-24855">
		<tag k="alt_name" v="Malmkjølen, nordre;Malmkjølen" />
		<tag k="name" v="Nordre Malmkjølen" />
		<tag k="natural" v="wetland" />
		<tag k="ssr:stedsnr" v="129851" />
	</node>
	<node lat="61.097452780690105" lon="12.327475005737359" id="-24860">
		<tag k="name" v="Bjørbekkjølen" />
		<tag k="natural" v="wetland" />
		<tag k="ssr:stedsnr" v="129718" />
	</node>
	<node lat="61.12250277916941" lon="12.227677773613777" id="-24866">
		<tag k="alt_name" v="Eskildsåmyrane" />
		<tag k="name" v="Eskildsåmyrene" />
		<tag k="natural" v="wetland" />
		<tag k="ssr:stedsnr" v="129738" />
	</node>
	<node lat="61.54337499757736" lon="12.360824995021328" id="-24874">
		<tag k="name" v="Holmkjølen" />
		<tag k="natural" v="wetland" />
		<tag k="ssr:stedsnr" v="252503" />
	</node>
	<node lat="61.14066666522988" lon="11.995147212912538" id="-24881">
		<tag k="name" v="Rolvsbumyrene" />
		<tag k="natural" v="wetland" />
		<tag k="old_name" v="Rolvsbumyrane" />
		<tag k="ssr:stedsnr" v="129979" />
	</node>
	<node lat="61.39661388910586" lon="11.984349995488486" id="-24884">
		<tag k="alt_name" v="Grønsjøflået" />
		<tag k="name" v="Grønsjømyra" />
		<tag k="natural" v="wetland" />
		<tag k="ssr:stedsnr" v="129877" />
	</node>
	<node lat="61.41935000225786" lon="11.862550005776205" id="-24901">
		<tag k="name" v="Spelåskjølen" />
		<tag k="natural" v="wetland" />
		<tag k="ssr:stedsnr" v="130982" />
	</node>
	<node lat="61.53140833569262" lon="12.121483334992313" id="-24906">
		<tag k="name" v="Gløtkjølen" />
		<tag k="natural" v="wetland" />
		<tag k="ssr:stedsnr" v="131602" />
	</node>
	<node lat="61.382816662516525" lon="11.983558323643452" id="-24930">
		<tag k="name" v="Avundsmyra" />
		<tag k="natural" v="wetland" />
		<tag k="ssr:stedsnr" v="147642" />
	</node>
	<node lat="61.36950277375528" lon="11.987725003370276" id="-24931">
		<tag k="name" v="Bjørntallmyra" />
		<tag k="natural" v="wetland" />
		<tag k="ssr:stedsnr" v="147650" />
	</node>
	<node lat="61.20957777721617" lon="11.797508325862346" id="-24935">
		<tag k="name" v="Kjølmyra" />
		<tag k="natural" v="wetland" />
		<tag k="ssr:stedsnr" v="147557" />
	</node>
	<node lat="61.15262221956625" lon="11.861705549743476" id="-24940">
		<tag k="name" v="Lemmekmyra" />
		<tag k="natural" v="wetland" />
		<tag k="ssr:stedsnr" v="147865" />
	</node>
	<node lat="61.1575166708534" lon="11.859813894949252" id="-24941">
		<tag k="name" v="Sillemyra" />
		<tag k="natural" v="wetland" />
		<tag k="ssr:stedsnr" v="147867" />
	</node>
	<node lat="61.33869444025869" lon="12.247036113356877" id="-24946">
		<tag k="name" v="Hareungmora" />
		<tag k="place" v="locality" />
		<tag k="ssr:stedsnr" v="148264" />
	</node>
	<node lat="61.22331666865462" lon="12.660555558724349" id="-24949">
		<tag k="name" v="Nylekmoen" />
		<tag k="place" v="locality" />
		<tag k="ssr:stedsnr" v="161757" />
	</node>
	<node lat="61.21700833496584" lon="12.677749996874297" id="-24950">
		<tag k="name" v="Synnatelmyra" />
		<tag k="natural" v="wetland" />
		<tag k="ssr:stedsnr" v="161761" />
	</node>
	<node lat="61.35151666412925" lon="12.332358337743333" id="-24952">
		<tag k="name" v="Pakalmyra" />
		<tag k="natural" v="wetland" />
		<tag k="ssr:stedsnr" v="161915" />
	</node>
	<node lat="61.35384166327114" lon="12.308127779841895" id="-24954">
		<tag k="name" v="Benstimyra" />
		<tag k="natural" v="wetland" />
		<tag k="ssr:stedsnr" v="162559" />
	</node>
	<node lat="61.13146389069136" lon="12.010394448180262" id="-24956">
		<tag k="name" v="Grenmyra" />
		<tag k="natural" v="wetland" />
		<tag k="ssr:stedsnr" v="163010" />
	</node>
	<node lat="61.202122222494424" lon="12.748624992614019" id="-24957">
		<tag k="landuse" v="meadow" />
		<tag k="name" v="Hansmyra" />
		<tag k="ssr:stedsnr" v="162762" />
	</node>
	<node lat="61.24682222665728" lon="12.485263886204956" id="-24960">
		<tag k="name" v="Bovollmyra" />
		<tag k="natural" v="wetland" />
		<tag k="ssr:stedsnr" v="163319" />
	</node>
	<node lat="61.30303055152359" lon="11.995233341246339" id="-24961">
		<tag k="name" v="Barnålmyra" />
		<tag k="natural" v="wetland" />
		<tag k="ssr:stedsnr" v="163361" />
	</node>
	<node lat="61.30791388648216" lon="11.990561108202257" id="-24962">
		<tag k="name" v="Øvre Flattakkjølen" />
		<tag k="natural" v="wetland" />
		<tag k="ssr:stedsnr" v="163362" />
	</node>
	<node lat="61.302247219856845" lon="11.990111116263229" id="-24964">
		<tag k="name" v="Langmyra" />
		<tag k="natural" v="wetland" />
		<tag k="ssr:stedsnr" v="163364" />
	</node>
	<node lat="61.2598694426742" lon="12.75055000713937" id="-24969">
		<tag k="name" v="Styggmomyra" />
		<tag k="natural" v="wetland" />
		<tag k="ssr:stedsnr" v="163571" />
	</node>
	<node lat="61.32597222053834" lon="12.693711105400103" id="-24976">
		<tag k="name" v="Myrene synna på berget" />
		<tag k="natural" v="wetland" />
		<tag k="ssr:stedsnr" v="163865" />
	</node>
	<node lat="61.47600555166854" lon="12.390394449374067" id="-24984">
		<tag k="name" v="Øverengkjølen" />
		<tag k="natural" v="wetland" />
		<tag k="ssr:stedsnr" v="174421" />
	</node>
	<node lat="61.50081111367931" lon="12.509430564529529" id="-24986">
		<tag k="name" v="Vikjølen" />
		<tag k="natural" v="wetland" />
		<tag k="ssr:stedsnr" v="174310" />
	</node>
	<node lat="61.49654999893285" lon="12.518297213901542" id="-24988">
		<tag k="name" v="Vesterøya" />
		<tag k="place" v="locality" />
		<tag k="ssr:stedsnr" v="174303" />
	</node>
	<node lat="61.35918333025138" lon="12.2629888812573" id="-24998">
		<tag k="name" v="Brumyrene" />
		<tag k="natural" v="wetland" />
		<tag k="ssr:stedsnr" v="175411" />
	</node>
	<node lat="61.36329166756961" lon="12.26389167261737" id="-24999">
		<tag k="name" v="Rørmyra" />
		<tag k="natural" v="wetland" />
		<tag k="ssr:stedsnr" v="175415" />
	</node>
	<node lat="61.5849444408511" lon="12.109219438438831" id="-25004">
		<tag k="name" v="Engerbakkmyra" />
		<tag k="natural" v="wetland" />
		<tag k="ssr:stedsnr" v="175526" />
	</node>
	<node lat="61.51457221849486" lon="12.152694435592261" id="-25006">
		<tag k="name" v="Smalmyra" />
		<tag k="natural" v="wetland" />
		<tag k="ssr:stedsnr" v="175857" />
	</node>
	<node lat="61.36465000071885" lon="12.329180558961651" id="-25010">
		<tag k="name" v="Sjømyra" />
		<tag k="natural" v="wetland" />
		<tag k="ssr:stedsnr" v="175703" />
	</node>
	<node lat="61.375277775805785" lon="12.549152771788686" id="-25011">
		<tag k="name" v="Antonbrenna" />
		<tag k="place" v="locality" />
		<tag k="ssr:stedsnr" v="175770" />
	</node>
	<node lat="61.42519444438798" lon="11.985191675535425" id="-25015">
		<tag k="name" v="Styggbekkmyra" />
		<tag k="natural" v="wetland" />
		<tag k="ssr:stedsnr" v="175957" />
	</node>
	<node lat="61.339666668095084" lon="12.389255550548706" id="-25016">
		<tag k="landuse" v="meadow" />
		<tag k="name" v="Tørrmyrrønningen" />
		<tag k="ssr:stedsnr" v="176260" />
	</node>
	<node lat="61.35101666742911" lon="12.402144435979176" id="-25017">
		<tag k="name" v="Mormyrene" />
		<tag k="natural" v="wetland" />
		<tag k="ssr:stedsnr" v="176261" />
	</node>
	<node lat="61.15562777690639" lon="12.02490278272549" id="-25026">
		<tag k="name" v="Flomyra" />
		<tag k="natural" v="wetland" />
		<tag k="ssr:stedsnr" v="178067" />
	</node>
	<node lat="61.33046111257065" lon="11.94584166616732" id="-25028">
		<tag k="name" v="Tjønnmyra" />
		<tag k="natural" v="wetland" />
		<tag k="ssr:stedsnr" v="179238" />
	</node>
	<node lat="61.32786666477314" lon="11.93690832665884" id="-25029">
		<tag k="name" v="Ryskbrenna" />
		<tag k="place" v="locality" />
		<tag k="ssr:stedsnr" v="179240" />
	</node>
	<node lat="61.23496111139243" lon="12.517922217526646" id="-25032">
		<tag k="name" v="Hesjegolvmyrene" />
		<tag k="natural" v="wetland" />
		<tag k="ssr:stedsnr" v="179422" />
	</node>
	<node lat="61.239947220438715" lon="12.61623887990976" id="-25033">
		<tag k="name" v="Vassmyra" />
		<tag k="natural" v="wetland" />
		<tag k="ssr:stedsnr" v="179502" />
	</node>
	<node lat="61.2408999998437" lon="12.145758327129743" id="-25034">
		<tag k="name" v="Mathismyra" />
		<tag k="natural" v="wetland" />
		<tag k="ssr:stedsnr" v="179564" />
	</node>
	<node lat="61.168436113345784" lon="12.23375278068797" id="-25035">
		<tag k="landuse" v="meadow" />
		<tag k="name" v="Finneslåttene" />
		<tag k="ssr:stedsnr" v="180007" />
	</node>
	<node lat="61.30759722021612" lon="12.442694437464285" id="-25039">
		<tag k="name" v="Grønflå" />
		<tag k="natural" v="wetland" />
		<tag k="ssr:stedsnr" v="179915" />
	</node>
	<node lat="61.2978527783661" lon="12.421205562833059" id="-25040">
		<tag k="name" v="Langremsa" />
		<tag k="natural" v="wetland" />
		<tag k="ssr:stedsnr" v="179917" />
	</node>
	<node lat="61.263830555078265" lon="12.391133338785155" id="-25041">
		<tag k="name" v="Brenningsmyra" />
		<tag k="natural" v="wetland" />
		<tag k="ssr:stedsnr" v="180215" />
	</node>
	<node lat="61.073644440737404" lon="12.60293056111355" id="-25044">
		<tag k="name" v="Småtjønnmyra" />
		<tag k="natural" v="wetland" />
		<tag k="ssr:stedsnr" v="180172" />
	</node>
	<node lat="61.15996388864682" lon="12.467947223307425" id="-25047">
		<tag k="name" v="Småmyrene" />
		<tag k="natural" v="wetland" />
		<tag k="ssr:stedsnr" v="180465" />
	</node>
	<node lat="61.097352779422714" lon="12.416922219415945" id="-25049">
		<tag k="name" v="Gammelsagmyra" />
		<tag k="natural" v="wetland" />
		<tag k="ssr:stedsnr" v="180477" />
	</node>
	<node lat="61.16794444278504" lon="12.506613895604891" id="-25050">
		<tag k="name" v="Slettåsbrenna" />
		<tag k="place" v="locality" />
		<tag k="ssr:stedsnr" v="180478" />
	</node>
	<node lat="61.17237222212241" lon="12.341963883004382" id="-25052">
		<tag k="name" v="Kjøvikkjølen" />
		<tag k="natural" v="wetland" />
		<tag k="ssr:stedsnr" v="180673" />
	</node>
	<node lat="61.19249444586182" lon="12.69112777004865" id="-25054">
		<tag k="name" v="Myra østa Egga" />
		<tag k="natural" v="wetland" />
		<tag k="ssr:stedsnr" v="180906" />
	</node>
	<node lat="61.19928055843484" lon="12.715766659745778" id="-25055">
		<tag k="name" v="Søndre Øvstmyra" />
		<tag k="natural" v="wetland" />
		<tag k="ssr:stedsnr" v="180910" />
	</node>
	<node lat="61.41778889254618" lon="11.812463892218888" id="-25058">
		<tag k="name" v="Storbekkjølen" />
		<tag k="natural" v="wetland" />
		<tag k="ssr:stedsnr" v="189150" />
	</node>
	<node lat="61.12575555606819" lon="12.423944446710783" id="-25059">
		<tag k="name" v="Mikkelsmyra" />
		<tag k="natural" v="wetland" />
		<tag k="ssr:stedsnr" v="189679" />
	</node>
	<node lat="61.13295000413998" lon="12.225325004574977" id="-25061">
		<tag k="name" v="Ronkansmyra" />
		<tag k="natural" v="wetland" />
		<tag k="ssr:stedsnr" v="189702" />
	</node>
	<node lat="61.33360000085299" lon="12.63573889485605" id="-25069">
		<tag k="name" v="Storkjølen" />
		<tag k="natural" v="wetland" />
		<tag k="ssr:stedsnr" v="190426" />
	</node>
	<node lat="61.387947222887874" lon="12.552263883921647" id="-25076">
		<tag k="alt_name" v="Benstigkjølen" />
		<tag k="name" v="Beinstigkjølen" />
		<tag k="natural" v="wetland" />
		<tag k="ssr:stedsnr" v="190623" />
	</node>
	<node lat="61.132449998371" lon="12.663905562332149" id="-25083">
		<tag k="name" v="Gullavmyra" />
		<tag k="natural" v="wetland" />
		<tag k="ssr:stedsnr" v="190558" />
	</node>
	<node lat="61.11072499636349" lon="12.626413885338405" id="-25085">
		<tag k="name" v="Stormyra" />
		<tag k="natural" v="wetland" />
		<tag k="ssr:stedsnr" v="190563" />
	</node>
	<node lat="61.47674166490434" lon="11.853005554375184" id="-25092">
		<tag k="alt_name" v="Lygnåsflå" />
		<tag k="name" v="Lyngåsfloa" />
		<tag k="natural" v="wetland" />
		<tag k="ssr:stedsnr" v="190816" />
	</node>
	<node lat="61.24520000166373" lon="12.442369447829467" id="-25094">
		<tag k="name" v="Storkjølen" />
		<tag k="natural" v="wetland" />
		<tag k="ssr:stedsnr" v="190879" />
	</node>
	<node lat="61.40882222111755" lon="12.352336111103952" id="-25097">
		<tag k="name" v="Møkkelbrynnkjølen" />
		<tag k="natural" v="wetland" />
		<tag k="ssr:stedsnr" v="190762" />
	</node>
	<node lat="61.410461108434625" lon="12.275458330716027" id="-25099">
		<tag k="alt_name" v="Søndre Vålbekkjølen" />
		<tag k="name" v="Vålbekkjølen" />
		<tag k="natural" v="wetland" />
		<tag k="ssr:stedsnr" v="190765" />
	</node>
	<node lat="61.37175555182017" lon="11.87425834058344" id="-25101">
		<tag k="name" v="Trekanten" />
		<tag k="natural" v="wetland" />
		<tag k="ssr:stedsnr" v="190929" />
	</node>
	<node lat="61.254224999318936" lon="12.097275004826788" id="-25112">
		<tag k="name" v="Jelkkjeldkjølen" />
		<tag k="natural" v="wetland" />
		<tag k="ssr:stedsnr" v="191509" />
	</node>
	<node lat="61.14515833084712" lon="12.179891663111661" id="-25118">
		<tag k="name" v="Allaso" />
		<tag k="natural" v="wetland" />
		<tag k="ssr:stedsnr" v="266170" />
	</node>
	<node lat="61.274852778703846" lon="12.1244555472517" id="-25134">
		<tag k="name" v="Vikmora" />
		<tag k="place" v="locality" />
		<tag k="ssr:stedsnr" v="208298" />
	</node>
	<node lat="61.38297500284709" lon="12.072227773683675" id="-25138">
		<tag k="name" v="Sengeformyra" />
		<tag k="natural" v="wetland" />
		<tag k="ssr:stedsnr" v="208707" />
	</node>
	<node lat="61.597799995823436" lon="12.071494445204726" id="-25139">
		<tag k="name" v="Lundmyra" />
		<tag k="natural" v="wetland" />
		<tag k="ssr:stedsnr" v="208602" />
	</node>
	<node lat="61.14986111516344" lon="11.8989944488652" id="-25142">
		<tag k="name" v="Multkartrekka" />
		<tag k="natural" v="wetland" />
		<tag k="ssr:stedsnr" v="208909" />
	</node>
	<node lat="61.29443333574102" lon="12.140519444193938" id="-25149">
		<tag k="name" v="Rismyra" />
		<tag k="natural" v="wetland" />
		<tag k="ssr:stedsnr" v="269319" />
	</node>
	<node lat="61.33681944447618" lon="12.048572215841206" id="-25150">
		<tag k="name" v="Midtvollsmyra" />
		<tag k="natural" v="wetland" />
		<tag k="ssr:stedsnr" v="269397" />
	</node>
	<node lat="61.257402777138246" lon="12.282419438910512" id="-25151">
		<tag k="name" v="Jernmyra" />
		<tag k="natural" v="wetland" />
		<tag k="ssr:stedsnr" v="269346" />
	</node>
	<node lat="61.27013333333382" lon="12.284216675951688" id="-25152">
		<tag k="name" v="Husmyra" />
		<tag k="natural" v="wetland" />
		<tag k="ssr:stedsnr" v="269358" />
	</node>
	<node lat="61.08297778185677" lon="11.925600007774722" id="-25160">
		<tag k="name" v="Kjerringriskjølen" />
		<tag k="natural" v="wetland" />
		<tag k="ssr:stedsnr" v="269503" />
	</node>
	<node lat="61.115727781053494" lon="11.938322230687255" id="-25161">
		<tag k="name" v="Kvitstenskogen" />
		<tag k="place" v="locality" />
		<tag k="ssr:stedsnr" v="269519" />
	</node>
	<node lat="61.39878610674367" lon="12.016480563296316" id="-25163">
		<tag k="name" v="Gøllemyrkjølen" />
		<tag k="natural" v="wetland" />
		<tag k="ssr:stedsnr" v="269662" />
	</node>
	<node lat="61.36900833052771" lon="12.011655553638876" id="-25164">
		<tag k="name" v="Dulpmyra" />
		<tag k="natural" v="wetland" />
		<tag k="ssr:stedsnr" v="269669" />
	</node>
	<node lat="61.37256388929859" lon="12.154249999021738" id="-25166">
		<tag k="name" v="Teiga" />
		<tag k="place" v="locality" />
		<tag k="ssr:stedsnr" v="269745" />
	</node>
	<node lat="61.15901389113935" lon="11.943552777263962" id="-25168">
		<tag k="name" v="Bråtåa" />
		<tag k="place" v="locality" />
		<tag k="ssr:stedsnr" v="269932" />
	</node>
	<node lat="61.216619447166586" lon="11.832275006806631" id="-25171">
		<tag k="name" v="Brennmyra" />
		<tag k="natural" v="wetland" />
		<tag k="ssr:stedsnr" v="269901" />
	</node>
	<node lat="61.311155557356855" lon="12.526036107455063" id="-25176">
		<tag k="name" v="Stranda" />
		<tag k="place" v="locality" />
		<tag k="ssr:stedsnr" v="222009" />
	</node>
	<node lat="61.089686114832446" lon="12.610027785223428" id="-25177">
		<tag k="name" v="Orrelekmyra" />
		<tag k="natural" v="wetland" />
		<tag k="ssr:stedsnr" v="222103" />
	</node>
	<node lat="61.14793333237713" lon="12.578547218838084" id="-25181">
		<tag k="name" v="Kopparbergmyrene" />
		<tag k="natural" v="wetland" />
		<tag k="ssr:stedsnr" v="222374" />
	</node>
	<node lat="61.34850833775485" lon="12.37230555488343" id="-25183">
		<tag k="name" v="Hestvegmyra" />
		<tag k="natural" v="wetland" />
		<tag k="ssr:stedsnr" v="222922" />
	</node>
	<node lat="61.156130558014134" lon="12.165011106866437" id="-25187">
		<tag k="name" v="Bråtalørønningen" />
		<tag k="place" v="locality" />
		<tag k="ssr:stedsnr" v="223735" />
	</node>
	<node lat="61.21349722220604" lon="12.748061118511702" id="-25192">
		<tag k="landuse" v="meadow" />
		<tag k="name" v="Nesvollbekkrønningen" />
		<tag k="ssr:stedsnr" v="224494" />
	</node>
	<node lat="61.50557777586696" lon="12.130724997318094" id="-25199">
		<tag k="name" v="Vestabakkmyra" />
		<tag k="natural" v="wetland" />
		<tag k="ssr:stedsnr" v="235080" />
	</node>
	<node lat="61.565711109940914" lon="12.094758341864443" id="-25209">
		<tag k="name" v="Tørkhesjeslåtten" />
		<tag k="place" v="locality" />
		<tag k="ssr:stedsnr" v="235286" />
	</node>
	<node lat="61.57445555959732" lon="12.156824996827272" id="-25212">
		<tag k="name" v="Bitteråsmyra" />
		<tag k="natural" v="wetland" />
		<tag k="ssr:stedsnr" v="235562" />
	</node>
	<node lat="61.556838892860874" lon="12.244536103562748" id="-25213">
		<tag k="landuse" v="meadow" />
		<tag k="name" v="Småstrand" />
		<tag k="ssr:stedsnr" v="235753" />
	</node>
	<node lat="61.37854166542936" lon="11.933355557343111" id="-25214">
		<tag k="name" v="Sybbymyra" />
		<tag k="natural" v="wetland" />
		<tag k="ssr:stedsnr" v="235691" />
	</node>
	<node lat="61.558669441697795" lon="12.504849999009773" id="-25218">
		<tag k="name" v="Kalvhagan" />
		<tag k="place" v="locality" />
		<tag k="ssr:stedsnr" v="236305" />
	</node>
	<node lat="61.375772223029145" lon="12.361241673238359" id="-25221">
		<tag k="name" v="Nyvoll-landet" />
		<tag k="place" v="locality" />
		<tag k="ssr:stedsnr" v="236653" />
	</node>
	<node lat="61.37669722628622" lon="12.367200007687574" id="-25222">
		<tag k="name" v="Litlmyrstrupen" />
		<tag k="natural" v="wetland" />
		<tag k="ssr:stedsnr" v="236655" />
	</node>
	<node lat="61.558933329281025" lon="12.165277781842754" id="-25223">
		<tag k="name" v="Klokkjota" />
		<tag k="natural" v="wetland" />
		<tag k="ssr:stedsnr" v="236503" />
	</node>
	<node lat="61.37192777772995" lon="12.650827773226897" id="-25225">
		<tag k="name" v="Gnarktrekjølen" />
		<tag k="natural" v="wetland" />
		<tag k="ssr:stedsnr" v="236711" />
	</node>
	<node lat="61.366916670732564" lon="12.66931943788081" id="-25226">
		<tag k="name" v="Hollåsmyra" />
		<tag k="natural" v="wetland" />
		<tag k="ssr:stedsnr" v="236716" />
	</node>
	<node lat="61.078875001536304" lon="12.419083336120655" id="-25231">
		<tag k="name" v="Sesiko" />
		<tag k="natural" v="wetland" />
		<tag k="ssr:stedsnr" v="237034" />
	</node>
	<node lat="61.26223611470708" lon="12.569477775599468" id="-25233">
		<tag k="landuse" v="meadow" />
		<tag k="name" v="Malmtektrønningen" />
		<tag k="ssr:stedsnr" v="237083" />
	</node>
	<node lat="61.27375277718017" lon="12.609338890258256" id="-25234">
		<tag k="name" v="Kruttukjeldbotninga" />
		<tag k="natural" v="wetland" />
		<tag k="ssr:stedsnr" v="237089" />
	</node>
	<node lat="61.32230555550536" lon="12.43784166610718" id="-25235">
		<tag k="name" v="Synstkjeldmyra" />
		<tag k="natural" v="wetland" />
		<tag k="ssr:stedsnr" v="237482" />
	</node>
	<node lat="61.33475000127834" lon="12.41363888549076" id="-25236">
		<tag k="name" v="Raddkjølen" />
		<tag k="natural" v="wetland" />
		<tag k="ssr:stedsnr" v="237487" />
	</node>
	<node lat="61.12091388881387" lon="12.684383337033413" id="-25237">
		<tag k="name" v="Stenlekmyra" />
		<tag k="natural" v="wetland" />
		<tag k="ssr:stedsnr" v="238429" />
	</node>
	<node lat="61.2213611143474" lon="11.916419442144178" id="-25238">
		<tag k="name" v="Bjørnbekkmyra" />
		<tag k="natural" v="wetland" />
		<tag k="ssr:stedsnr" v="239128" />
	</node>
	<node lat="61.166572221158326" lon="12.066797223411498" id="-25240">
		<tag k="name" v="Nybrennene" />
		<tag k="place" v="locality" />
		<tag k="ssr:stedsnr" v="239279" />
	</node>
	<node lat="61.326744447336466" lon="12.012494443897587" id="-25243">
		<tag k="name" v="Øvre Sørøstimyra" />
		<tag k="natural" v="wetland" />
		<tag k="ssr:stedsnr" v="239380" />
	</node>
	<node lat="61.282647224693584" lon="12.392661114615716" id="-25247">
		<tag k="name" v="Fjølabukjølen" />
		<tag k="natural" v="wetland" />
		<tag k="ssr:stedsnr" v="239932" />
	</node>
	<node lat="61.06085278122527" lon="12.574922217004133" id="-25249">
		<tag k="name" v="Gammelkvernmyra" />
		<tag k="natural" v="wetland" />
		<tag k="ssr:stedsnr" v="240238" />
	</node>
	<node lat="61.371536115441785" lon="12.141777770276107" id="-25252">
		<tag k="name" v="Stenskjæra" />
		<tag k="natural" v="scree" />
		<tag k="ssr:stedsnr" v="451776" />
	</node>
	<node lat="61.29816944112781" lon="12.242363893339846" id="-25255">
		<tag k="name" v="Tverrmyra" />
		<tag k="natural" v="wetland" />
		<tag k="ssr:stedsnr" v="451105" />
	</node>
	<node lat="61.26274999982217" lon="11.917897223978512" id="-25261">
		<tag k="name" v="Nordre Storhaugmyra" />
		<tag k="natural" v="wetland" />
		<tag k="ssr:stedsnr" v="241177" />
	</node>
	<node lat="61.13916111567182" lon="12.61097777588982" id="-25262">
		<tag k="name" v="Bærmyra" />
		<tag k="natural" v="wetland" />
		<tag k="ssr:stedsnr" v="241340" />
	</node>
	<node lat="61.183388354303844" lon="12.597715266293537" id="-25264">
		<tag k="name" v="Rukkusko-leken" />
		<tag k="natural" v="wetland" />
		<tag k="ssr:stedsnr" v="241395" />
	</node>
	<node lat="61.32574721914337" lon="12.188211113871183" id="-25265">
		<tag k="name" v="Fjellmyra" />
		<tag k="natural" v="wetland" />
		<tag k="ssr:stedsnr" v="451255" />
	</node>
	<node lat="61.08176111297527" lon="12.497233330510248" id="-25266">
		<tag k="name" v="Ståråsmyra" />
		<tag k="natural" v="wetland" />
		<tag k="ssr:stedsnr" v="241477" />
	</node>
	<node lat="61.20946389235773" lon="12.697699996674608" id="-25270">
		<tag k="name" v="Storsæterkjølen" />
		<tag k="natural" v="wetland" />
		<tag k="ssr:stedsnr" v="241929" />
	</node>
	<node lat="61.33869444637182" lon="12.173258340898936" id="-25272">
		<tag k="name" v="Myrene" />
		<tag k="natural" v="wetland" />
		<tag k="ssr:stedsnr" v="451287" />
	</node>
	<node lat="61.26819444095768" lon="12.272924992366521" id="-25276">
		<tag k="name" v="Langmyra" />
		<tag k="natural" v="wetland" />
		<tag k="ssr:stedsnr" v="451359" />
	</node>
	<node lat="61.30686111255715" lon="12.099624993797319" id="-25277">
		<tag k="name" v="Vikjeldkjølen" />
		<tag k="natural" v="wetland" />
		<tag k="ssr:stedsnr" v="451425" />
	</node>
	<node lat="61.29717777411616" lon="12.113033329168891" id="-25278">
		<tag k="name" v="Veslemyra" />
		<tag k="natural" v="wetland" />
		<tag k="ssr:stedsnr" v="451437" />
	</node>
	<node lat="61.31378610716906" lon="12.042513889143782" id="-25282">
		<tag k="name" v="Fjellbekkmyra" />
		<tag k="natural" v="wetland" />
		<tag k="ssr:stedsnr" v="451458" />
	</node>
	<node lat="61.08503055932498" lon="11.94821667307515" id="-25283">
		<tag k="name" v="Svartmyra" />
		<tag k="natural" v="wetland" />
		<tag k="ssr:stedsnr" v="451534" />
	</node>
	<node lat="61.29527222495169" lon="12.027958335712894" id="-25285">
		<tag k="name" v="Langmyra" />
		<tag k="natural" v="wetland" />
		<tag k="ssr:stedsnr" v="451482" />
	</node>
	<node lat="61.2932333358865" lon="12.035274997736147" id="-25286">
		<tag k="name" v="Bløtkjølen" />
		<tag k="natural" v="wetland" />
		<tag k="ssr:stedsnr" v="451483" />
	</node>
	<node lat="61.302727778990715" lon="12.31471111302799" id="-25287">
		<tag k="name" v="Brattåsmyra" />
		<tag k="natural" v="wetland" />
		<tag k="ssr:stedsnr" v="451488" />
	</node>
	<node lat="61.20835278175428" lon="11.80821388029608" id="-25290">
		<tag k="name" v="Hestformyra" />
		<tag k="natural" v="wetland" />
		<tag k="ssr:stedsnr" v="451910" />
	</node>
	<node lat="61.36050555911625" lon="12.109619450541185" id="-25295">
		<tag k="name" v="Lermyra" />
		<tag k="natural" v="wetland" />
		<tag k="ssr:stedsnr" v="451637" />
	</node>
	<node lat="61.35937221801047" lon="12.154136109996122" id="-25298">
		<tag k="name" v="Søndre Kjølstadmyra" />
		<tag k="natural" v="wetland" />
		<tag k="ssr:stedsnr" v="451761" />
	</node>
	<node lat="61.34120277706169" lon="12.066202782307945" id="-25310">
		<tag k="name" v="Okshusmyra" />
		<tag k="natural" v="wetland" />
		<tag k="ssr:stedsnr" v="269125" />
	</node>
	<node lat="61.355372219839055" lon="12.259291660324164" id="-25313">
		<tag k="name" v="Brumyrene" />
		<tag k="natural" v="wetland" />
		<tag k="ssr:stedsnr" v="269272" />
	</node>
	<node lat="61.339358332152266" lon="12.13572777785567" id="-25315">
		<tag k="name" v="Namnstena" />
		<tag k="natural" v="stone" />
		<tag k="ssr:stedsnr" v="269306" />
	</node>
	<node lat="61.256238886273955" lon="12.376938893971731" id="-25316">
		<tag k="name" v="Søndre Kloppmyra" />
		<tag k="natural" v="wetland" />
		<tag k="ssr:stedsnr" v="269373" />
	</node>
	<node lat="61.32000555155629" lon="12.096372214722782" id="-25318">
		<tag k="name" v="Pernillemyra" />
		<tag k="natural" v="wetland" />
		<tag k="ssr:stedsnr" v="269388" />
	</node>
	<node lat="61.22452499616358" lon="11.815783328044315" id="-25321">
		<tag k="name" v="Moldbergmyra" />
		<tag k="natural" v="wetland" />
		<tag k="ssr:stedsnr" v="269607" />
	</node>
	<node lat="61.16873889114764" lon="11.830444446030816" id="-25323">
		<tag k="name" v="Østmyra" />
		<tag k="natural" v="wetland" />
		<tag k="ssr:stedsnr" v="269614" />
	</node>
	<node lat="61.410305552543335" lon="11.992755562816509" id="-25325">
		<tag k="name" v="Eltbogkjølen" />
		<tag k="natural" v="wetland" />
		<tag k="ssr:stedsnr" v="269678" />
	</node>
	<node lat="61.412947223797566" lon="11.972591659186298" id="-25327">
		<tag k="name" v="Okskjølen" />
		<tag k="natural" v="wetland" />
		<tag k="ssr:stedsnr" v="269721" />
	</node>
	<node lat="61.19180833575712" lon="11.776513893336084" id="-25331">
		<tag k="name" v="Kjerringnålkjølen" />
		<tag k="natural" v="wetland" />
		<tag k="ssr:stedsnr" v="269907" />
	</node>
	<node lat="61.33367777727589" lon="11.900688887673791" id="-25334">
		<tag k="landuse" v="meadow" />
		<tag k="name" v="Nysæterodda" />
		<tag k="ssr:stedsnr" v="282392" />
	</node>
	<node lat="61.17172777669993" lon="12.723144441977146" id="-25337">
		<tag k="name" v="Rensmyra" />
		<tag k="natural" v="wetland" />
		<tag k="ssr:stedsnr" v="283126" />
	</node>
	<node lat="61.19497499969065" lon="12.42383333953775" id="-25338">
		<tag k="landuse" v="meadow" />
		<tag k="name" v="Kolosrønningen" />
		<tag k="ssr:stedsnr" v="283574" />
	</node>
	<node lat="61.22618611467524" lon="12.6741055535801" id="-25340">
		<tag k="name" v="Litlbrunnmyra" />
		<tag k="natural" v="wetland" />
		<tag k="ssr:stedsnr" v="283780" />
	</node>
	<node lat="61.293980558516246" lon="12.713577783434182" id="-25342">
		<tag k="name" v="Stygbekkjølen" />
		<tag k="natural" v="wetland" />
		<tag k="ssr:stedsnr" v="284606" />
	</node>
	<node lat="61.28524166753169" lon="12.571158327283284" id="-25345">
		<tag k="name" v="Nordre Kjerringnålmyra" />
		<tag k="natural" v="wetland" />
		<tag k="ssr:stedsnr" v="284685" />
	</node>
	<node lat="61.18955000313421" lon="12.22553055155439" id="-25354">
		<tag k="landuse" v="meadow" />
		<tag k="name" v="Søndergrønrønninga" />
		<tag k="ssr:stedsnr" v="285000" />
	</node>
	<node lat="61.3056527817559" lon="11.975961107868196" id="-25357">
		<tag k="name" v="Nedre Flattak-kjølen" />
		<tag k="natural" v="wetland" />
		<tag k="ssr:stedsnr" v="285388" />
	</node>
	<node lat="61.48397499916822" lon="12.52163888759105" id="-25362">
		<tag k="name" v="Hovdmyra" />
		<tag k="natural" v="wetland" />
		<tag k="ssr:stedsnr" v="295135" />
	</node>
	<node lat="61.58315555390627" lon="12.181813879633347" id="-25366">
		<tag k="name" v="Godmyra" />
		<tag k="natural" v="wetland" />
		<tag k="ssr:stedsnr" v="295511" />
	</node>
	<node lat="61.58478333011854" lon="12.167844442422927" id="-25368">
		<tag k="name" v="Bløtkjølen" />
		<tag k="natural" v="wetland" />
		<tag k="ssr:stedsnr" v="295513" />
	</node>
	<node lat="61.46233611359161" lon="11.855669443625843" id="-25369">
		<tag k="name" v="Holdpostmyra" />
		<tag k="natural" v="wetland" />
		<tag k="ssr:stedsnr" v="296123" />
	</node>
	<node lat="61.45578055211411" lon="12.57034999061356" id="-25372">
		<tag k="name" v="Kjerringnålmyra" />
		<tag k="natural" v="wetland" />
		<tag k="ssr:stedsnr" v="296027" />
	</node>
	<node lat="61.53083333161654" lon="12.596186101869911" id="-25375">
		<tag k="name" v="Storenget" />
		<tag k="place" v="locality" />
		<tag k="ssr:stedsnr" v="296234" />
	</node>
	<node lat="61.5052472210249" lon="12.03301111424467" id="-25385">
		<tag k="name" v="Gammelhusvollen" />
		<tag k="place" v="locality" />
		<tag k="ssr:stedsnr" v="296813" />
	</node>
	<node lat="61.50074722139234" lon="12.24038056098688" id="-25386">
		<tag k="name" v="Greftåsenget" />
		<tag k="place" v="locality" />
		<tag k="ssr:stedsnr" v="296829" />
	</node>
	<node lat="61.38189444114424" lon="12.335349997482545" id="-25387">
		<tag k="name" v="Tvurruriset" />
		<tag k="place" v="locality" />
		<tag k="ssr:stedsnr" v="296839" />
	</node>
	<node lat="61.41077499948187" lon="12.357694437235088" id="-25388">
		<tag k="name" v="Hembrennene" />
		<tag k="place" v="locality" />
		<tag k="ssr:stedsnr" v="296844" />
	</node>
	<node lat="61.420833335447256" lon="12.37174444542362" id="-25389">
		<tag k="name" v="Bråtån" />
		<tag k="place" v="locality" />
		<tag k="ssr:stedsnr" v="296851" />
	</node>
	<node lat="61.57342222272691" lon="12.124708342553605" id="-25393">
		<tag k="name" v="Avundsriset" />
		<tag k="natural" v="wetland" />
		<tag k="ssr:stedsnr" v="296525" />
	</node>
	<node lat="61.5356972184962" lon="12.185094441595716" id="-25394">
		<tag k="name" v="Kjeldmyra" />
		<tag k="natural" v="wetland" />
		<tag k="ssr:stedsnr" v="296708" />
	</node>
	<node lat="61.47184166750502" lon="12.027755554643734" id="-25397">
		<tag k="name" v="Kruttumyra" />
		<tag k="natural" v="wetland" />
		<tag k="ssr:stedsnr" v="296987" />
	</node>
	<node lat="61.373713891674456" lon="12.718552780448395" id="-25399">
		<tag k="name" v="Halvmilmyra" />
		<tag k="natural" v="wetland" />
		<tag k="ssr:stedsnr" v="297611" />
	</node>
	<node lat="61.068277779241775" lon="12.455905557498005" id="-25401">
		<tag k="name" v="Almansmyra" />
		<tag k="natural" v="wetland" />
		<tag k="ssr:stedsnr" v="298002" />
	</node>
	<node lat="61.26281944575403" lon="12.00201945370169" id="-25406">
		<tag k="name" v="Rørtjønnmyra" />
		<tag k="natural" v="wetland" />
		<tag k="ssr:stedsnr" v="298076" />
	</node>
	<node lat="61.267152773892555" lon="12.570838889333517" id="-25408">
		<tag k="landuse" v="meadow" />
		<tag k="name" v="Bruhusflaten" />
		<tag k="ssr:stedsnr" v="298094" />
	</node>
	<node lat="61.17479444864285" lon="12.128405557805696" id="-25411">
		<tag k="name" v="Borraballamyra" />
		<tag k="natural" v="wetland" />
		<tag k="ssr:stedsnr" v="298478" />
	</node>
	<node lat="61.178597221578784" lon="12.12914722891129" id="-25412">
		<tag k="name" v="Blestmyra" />
		<tag k="natural" v="wetland" />
		<tag k="ssr:stedsnr" v="298481" />
	</node>
	<node lat="61.347175000660435" lon="12.671113895411061" id="-25414">
		<tag k="name" v="Vassmyra" />
		<tag k="natural" v="wetland" />
		<tag k="ssr:stedsnr" v="298614" />
	</node>
	<node lat="61.3419222248877" lon="12.651955564955621" id="-25415">
		<tag k="name" v="Gardskimyra" />
		<tag k="natural" v="wetland" />
		<tag k="ssr:stedsnr" v="298616" />
	</node>
	<node lat="61.268211107056636" lon="12.181824997495042" id="-25419">
		<tag k="name" v="Balvarskjølen" />
		<tag k="natural" v="wetland" />
		<tag k="ssr:stedsnr" v="298905" />
	</node>
	<node lat="61.25562777486629" lon="12.091944443408314" id="-25424">
		<tag k="name" v="Vestre Jelkkjeldrusta" />
		<tag k="place" v="locality" />
		<tag k="ssr:stedsnr" v="300385" />
	</node>
	<node lat="61.145963890991126" lon="12.095161112318069" id="-25426">
		<tag k="name" v="Andreabrennrønningen" />
		<tag k="place" v="locality" />
		<tag k="ssr:stedsnr" v="300495" />
	</node>
	<node lat="61.23617778104238" lon="12.187166662473736" id="-25427">
		<tag k="name" v="Blekkjeldkjølen" />
		<tag k="natural" v="wetland" />
		<tag k="ssr:stedsnr" v="300585" />
	</node>
	<node lat="61.18185832924913" lon="12.237883337906434" id="-25428">
		<tag k="landuse" v="meadow" />
		<tag k="name" v="Brennrønningen" />
		<tag k="ssr:stedsnr" v="301021" />
	</node>
	<node lat="61.18212500425387" lon="12.256355563018477" id="-25429">
		<tag k="name" v="Mellåkjølen" />
		<tag k="natural" v="wetland" />
		<tag k="ssr:stedsnr" v="301025" />
	</node>
	<node lat="61.28540277911262" lon="12.514513888058465" id="-25430">
		<tag k="name" v="Svenskbrenna" />
		<tag k="place" v="locality" />
		<tag k="ssr:stedsnr" v="301091" />
	</node>
	<node lat="61.06101944393027" lon="12.584952779118106" id="-25431">
		<tag k="landuse" v="meadow" />
		<tag k="name" v="Vesleenga" />
		<tag k="ssr:stedsnr" v="301206" />
	</node>
	<node lat="61.07962777913018" lon="12.583422229580805" id="-25432">
		<tag k="landuse" v="meadow" />
		<tag k="name" v="Mulikenga" />
		<tag k="ssr:stedsnr" v="301209" />
	</node>
	<node lat="61.16801667085697" lon="12.578983342021404" id="-25437">
		<tag k="name" v="Dravlemyra" />
		<tag k="natural" v="wetland" />
		<tag k="ssr:stedsnr" v="301408" />
	</node>
	<node lat="61.2116944424234" lon="12.587113889908181" id="-25439">
		<tag k="name" v="Ludvigbrenna" />
		<tag k="place" v="locality" />
		<tag k="ssr:stedsnr" v="301790" />
	</node>
	<node lat="61.286511111307036" lon="12.00682499115619" id="-25441">
		<tag k="name" v="Jon Nygardsmyra" />
		<tag k="natural" v="wetland" />
		<tag k="ssr:stedsnr" v="464114" />
	</node>
	<node lat="61.134291669922405" lon="12.560794447975171" id="-25443">
		<tag k="name" v="Kjelkmyrbrenna" />
		<tag k="place" v="locality" />
		<tag k="ssr:stedsnr" v="302387" />
	</node>
	<node lat="61.19198055457013" lon="12.720044446329334" id="-25446">
		<tag k="name" v="Kattlågmyra" />
		<tag k="natural" v="wetland" />
		<tag k="ssr:stedsnr" v="302903" />
	</node>
	<node lat="61.30508611132347" lon="12.633072226025691" id="-25447">
		<tag k="name" v="Storbergsmyra" />
		<tag k="natural" v="wetland" />
		<tag k="ssr:stedsnr" v="302914" />
	</node>
	<node lat="61.30302499736787" lon="12.626852779432717" id="-25448">
		<tag k="name" v="Ryskdalsmyra" />
		<tag k="natural" v="wetland" />
		<tag k="ssr:stedsnr" v="302916" />
	</node>
	<node lat="61.2080388917299" lon="12.715886120530863" id="-25449">
		<tag k="name" v="Roligmyra" />
		<tag k="natural" v="wetland" />
		<tag k="ssr:stedsnr" v="302918" />
	</node>
	<node lat="61.225925001445745" lon="12.716263890743928" id="-25456">
		<tag k="name" v="Fabromyra" />
		<tag k="natural" v="wetland" />
		<tag k="ssr:stedsnr" v="464785" />
	</node>
	<node lat="61.22804166580074" lon="11.904869443827293" id="-25460">
		<tag k="name" v="Søndre Rensmyra" />
		<tag k="natural" v="wetland" />
		<tag k="ssr:stedsnr" v="464890" />
	</node>
	<node lat="61.34436111031122" lon="12.759466669911344" id="-25463">
		<tag k="name" v="Maurtuvkjølen" />
		<tag k="natural" v="wetland" />
		<tag k="ssr:stedsnr" v="465776" />
	</node>
	<node lat="61.31053610875526" lon="12.542244453495863" id="-25467">
		<tag k="name" v="Grønmyrene" />
		<tag k="natural" v="wetland" />
		<tag k="ssr:stedsnr" v="466086" />
	</node>
	<node lat="61.15289166277389" lon="12.17180556237971" id="-25471">
		<tag k="alt_name" v="Kaaho" />
		<tag k="name" v="Kåho" />
		<tag k="natural" v="wetland" />
		<tag k="ssr:stedsnr" v="311123" />
	</node>
	<node lat="61.14559721825438" lon="11.83221666539493" id="-25473">
		<tag k="name" v="Storløkjølen" />
		<tag k="natural" v="wetland" />
		<tag k="ssr:stedsnr" v="311197" />
	</node>
	<node lat="61.3339999967858" lon="12.052905557913288" id="-25483">
		<tag k="name" v="Prestloken" />
		<tag k="natural" v="wetland" />
		<tag k="ssr:stedsnr" v="311619" />
	</node>
	<node lat="61.23504444315774" lon="12.265000001709584" id="-25489">
		<tag k="name" v="Harabrenna" />
		<tag k="place" v="locality" />
		<tag k="ssr:stedsnr" v="311884" />
	</node>
	<node lat="61.23993611473113" lon="12.484033342522572" id="-25506">
		<tag k="name" v="Gillermyra" />
		<tag k="natural" v="wetland" />
		<tag k="ssr:stedsnr" v="466385" />
	</node>
	<node lat="61.37343889187937" lon="11.987908327402533" id="-25522">
		<tag k="name" v="Strandpermyra" />
		<tag k="natural" v="wetland" />
		<tag k="ssr:stedsnr" v="312915" />
	</node>
	<node lat="61.4686972235441" lon="12.07555556211157" id="-25524">
		<tag k="name" v="Storkjølen" />
		<tag k="natural" v="wetland" />
		<tag k="ssr:stedsnr" v="312965" />
	</node>
	<node lat="61.426280559990374" lon="11.85191388475579" id="-25526">
		<tag k="name" v="Hølbekkjølen" />
		<tag k="natural" v="wetland" />
		<tag k="ssr:stedsnr" v="312983" />
	</node>
	<node lat="61.42783333175992" lon="12.049152773162156" id="-25527">
		<tag k="name" v="Vonmyrkjølen" />
		<tag k="natural" v="wetland" />
		<tag k="ssr:stedsnr" v="312986" />
	</node>
	<node lat="61.20471389188805" lon="12.603288893936066" id="-25540">
		<tag k="name" v="Gørmyra" />
		<tag k="natural" v="wetland" />
		<tag k="ssr:stedsnr" v="466786" />
	</node>
	<node lat="61.32758055485507" lon="12.701961102881404" id="-25543">
		<tag k="name" v="Bunklandet" />
		<tag k="place" v="locality" />
		<tag k="ssr:stedsnr" v="466885" />
	</node>
	<node lat="61.15401666720518" lon="12.162130563304702" id="-25544">
		<tag k="name" v="Kvernårønningen" />
		<tag k="place" v="locality" />
		<tag k="ssr:stedsnr" v="466734" />
	</node>
	<node lat="61.351894447998454" lon="12.704536117883988" id="-25545">
		<tag k="name" v="Skjærdalsmyren" />
		<tag k="natural" v="wetland" />
		<tag k="ssr:stedsnr" v="466856" />
	</node>
	<node lat="61.30232222443523" lon="12.74170000724843" id="-25555">
		<tag k="name" v="Stordøsset" />
		<tag k="natural" v="wetland" />
		<tag k="ssr:stedsnr" v="467574" />
	</node>
	<node lat="61.31508333452287" lon="12.753766666932888" id="-25557">
		<tag k="landuse" v="meadow" />
		<tag k="name" v="Flermostorenget" />
		<tag k="ssr:stedsnr" v="467577" />
	</node>
	<node lat="61.27623611026705" lon="12.537141665966143" id="-25559">
		<tag k="name" v="Tuvslåtten" />
		<tag k="place" v="locality" />
		<tag k="ssr:stedsnr" v="323479" />
	</node>
	<node lat="61.06990278243655" lon="12.608411103624396" id="-25560">
		<tag k="name" v="Kjepprudmyra" />
		<tag k="natural" v="wetland" />
		<tag k="ssr:stedsnr" v="327104" />
	</node>
	<node lat="61.28051388822717" lon="12.200986106493701" id="-25568">
		<tag k="name" v="Jonsmyra" />
		<tag k="natural" v="wetland" />
		<tag k="ssr:stedsnr" v="329018" />
	</node>
	<node lat="61.29642222178759" lon="12.151674992120551" id="-25569">
		<tag k="name" v="Turtkjeldene" />
		<tag k="natural" v="wetland" />
		<tag k="ssr:stedsnr" v="329063" />
	</node>
	<node lat="61.29054999632363" lon="12.18078888994884" id="-25570">
		<tag k="name" v="Embretsmyra" />
		<tag k="natural" v="wetland" />
		<tag k="ssr:stedsnr" v="329071" />
	</node>
	<node lat="61.304680557530524" lon="12.226880559653658" id="-25571">
		<tag k="name" v="Bråtemyra" />
		<tag k="natural" v="wetland" />
		<tag k="ssr:stedsnr" v="329073" />
	</node>
	<node lat="61.327213890746854" lon="12.28963332692296" id="-25579">
		<tag k="name" v="Bjørnåsmyra" />
		<tag k="natural" v="wetland" />
		<tag k="ssr:stedsnr" v="329467" />
	</node>
	<node lat="61.40941944308658" lon="12.033924991406552" id="-25580">
		<tag k="name" v="Tømmerveltkjølen" />
		<tag k="natural" v="wetland" />
		<tag k="ssr:stedsnr" v="329661" />
	</node>
	<node lat="61.33365277670756" lon="12.199941671596436" id="-25583">
		<tag k="name" v="Vihammermyra" />
		<tag k="natural" v="wetland" />
		<tag k="ssr:stedsnr" v="330261" />
	</node>
	<node lat="61.35128611188729" lon="12.745325000014352" id="-25592">
		<tag k="name" v="Rotmoen" />
		<tag k="place" v="locality" />
		<tag k="ssr:stedsnr" v="343800" />
	</node>
	<node lat="61.21989166283137" lon="12.64522776922521" id="-25594">
		<tag k="name" v="Joten" />
		<tag k="natural" v="wetland" />
		<tag k="ssr:stedsnr" v="343804" />
	</node>
	<node lat="61.1095805538279" lon="12.012416673152092" id="-25596">
		<tag k="name" v="Stormyra" />
		<tag k="natural" v="wetland" />
		<tag k="ssr:stedsnr" v="345006" />
	</node>
	<node lat="61.3222616225107" lon="12.73388651880967" id="-25602">
		<tag k="name" v="Sokkstikkmyra" />
		<tag k="natural" v="wetland" />
		<tag k="ssr:stedsnr" v="345861" />
	</node>
	<node lat="61.516480558128436" lon="12.016591663697643" id="-25606">
		<tag k="name" v="Bjønnmora" />
		<tag k="place" v="locality" />
		<tag k="ssr:stedsnr" v="356020" />
	</node>
	<node lat="61.59678611539723" lon="12.148844438348815" id="-25611">
		<tag k="name" v="Vestre Kjølen" />
		<tag k="natural" v="wetland" />
		<tag k="ssr:stedsnr" v="356518" />
	</node>
	<node lat="61.58011667075169" lon="12.179675003013097" id="-25613">
		<tag k="name" v="Høgmyra" />
		<tag k="natural" v="wetland" />
		<tag k="ssr:stedsnr" v="356524" />
	</node>
	<node lat="61.38398333099825" lon="12.579066661014714" id="-25617">
		<tag k="name" v="Brattmyra" />
		<tag k="natural" v="wetland" />
		<tag k="ssr:stedsnr" v="356920" />
	</node>
	<node lat="61.40664999622922" lon="12.163574991180445" id="-25622">
		<tag k="name" v="Sørhuskilen" />
		<tag k="place" v="locality" />
		<tag k="ssr:stedsnr" v="357467" />
	</node>
	<node lat="61.61201110759698" lon="12.126924997010006" id="-25626">
		<tag k="name" v="Jenstjønnkjølen" />
		<tag k="natural" v="wetland" />
		<tag k="ssr:stedsnr" v="357516" />
	</node>
	<node lat="61.362922225816405" lon="12.372941673960288" id="-25630">
		<tag k="name" v="Slåttgolvmyra" />
		<tag k="natural" v="wetland" />
		<tag k="ssr:stedsnr" v="357720" />
	</node>
	<node lat="61.5277638905811" lon="12.145586108574332" id="-25631">
		<tag k="name" v="Brennåsmyrene" />
		<tag k="natural" v="wetland" />
		<tag k="ssr:stedsnr" v="357658" />
	</node>
	<node lat="61.37854722143295" lon="12.363091663377734" id="-25632">
		<tag k="name" v="Slipvevmyra" />
		<tag k="natural" v="wetland" />
		<tag k="ssr:stedsnr" v="357700" />
	</node>
	<node lat="61.405147226039645" lon="12.284197223275276" id="-25634">
		<tag k="name" v="Litlbrenna" />
		<tag k="place" v="locality" />
		<tag k="ssr:stedsnr" v="357815" />
	</node>
	<node lat="61.49624166273383" lon="12.23900278046116" id="-25637">
		<tag k="name" v="Hornenget" />
		<tag k="place" v="locality" />
		<tag k="ssr:stedsnr" v="357821" />
	</node>
	<node lat="61.499275003512906" lon="12.10830000968727" id="-25638">
		<tag k="name" v="Holtet" />
		<tag k="place" v="locality" />
		<tag k="ssr:stedsnr" v="357824" />
	</node>
	<node lat="61.40086666359889" lon="12.358811102100391" id="-25641">
		<tag k="name" v="Søndre Møkkelbrynnkjølen" />
		<tag k="natural" v="wetland" />
		<tag k="ssr:stedsnr" v="357859" />
	</node>
	<node lat="61.42944166631464" lon="12.336830546877644" id="-25643">
		<tag k="name" v="Vetmyra" />
		<tag k="natural" v="wetland" />
		<tag k="ssr:stedsnr" v="357911" />
	</node>
	<node lat="61.4427027752652" lon="12.581119436057035" id="-25644">
		<tag k="name" v="Hesjegolvmyra" />
		<tag k="natural" v="wetland" />
		<tag k="ssr:stedsnr" v="357948" />
	</node>
	<node lat="61.51835555875668" lon="12.372822222904102" id="-25645">
		<tag k="name" v="Tukkumyra" />
		<tag k="natural" v="wetland" />
		<tag k="ssr:stedsnr" v="357951" />
	</node>
	<node lat="61.30040277545212" lon="12.7713888948165" id="-25648">
		<tag k="landuse" v="meadow" />
		<tag k="name" v="Strykmålet" />
		<tag k="ssr:stedsnr" v="358510" />
	</node>
	<node lat="61.34982778119635" lon="12.67204445168168" id="-25649">
		<tag k="name" v="Flymyren" />
		<tag k="natural" v="wetland" />
		<tag k="ssr:stedsnr" v="358647" />
	</node>
	<node lat="61.362175001233524" lon="12.66913056202667" id="-25650">
		<tag k="alt_name" v="Skjerkjølen" />
		<tag k="name" v="Skjærkjølen" />
		<tag k="natural" v="wetland" />
		<tag k="ssr:stedsnr" v="358648" />
	</node>
	<node lat="61.11309166753009" lon="12.584875007180809" id="-25652">
		<tag k="landuse" v="meadow" />
		<tag k="name" v="Pettersenga" />
		<tag k="ssr:stedsnr" v="359369" />
	</node>
	<node lat="61.20996666234376" lon="12.537636108619338" id="-25653">
		<tag k="name" v="Surløpern" />
		<tag k="natural" v="wetland" />
		<tag k="ssr:stedsnr" v="359852" />
	</node>
	<node lat="61.20851944863577" lon="12.05294165975479" id="-25659">
		<tag k="name" v="Jerpskaftmyra" />
		<tag k="natural" v="wetland" />
		<tag k="ssr:stedsnr" v="360269" />
	</node>
	<node lat="61.48185277572688" lon="12.524313879577557" id="-25664">
		<tag k="name" v="Kroken" />
		<tag k="place" v="locality" />
		<tag k="ssr:stedsnr" v="477129" />
	</node>
	<node lat="61.53903610761064" lon="11.994525006685551" id="-25669">
		<tag k="name" v="Brunnsdalsøra" />
		<tag k="place" v="locality" />
		<tag k="ssr:stedsnr" v="477385" />
	</node>
	<node lat="61.37879167063185" lon="11.921636117758847" id="-25671">
		<tag k="name" v="Nørdstenget" />
		<tag k="place" v="locality" />
		<tag k="ssr:stedsnr" v="477683" />
	</node>
	<node lat="61.448150000441466" lon="11.951652786003018" id="-25672">
		<tag k="name" v="Kjølhusrusta" />
		<tag k="place" v="locality" />
		<tag k="ssr:stedsnr" v="477528" />
	</node>
	<node lat="61.46652222666901" lon="11.93858888413742" id="-25673">
		<tag k="name" v="Tomtåsmyrene" />
		<tag k="natural" v="wetland" />
		<tag k="ssr:stedsnr" v="477530" />
	</node>
	<node lat="61.58971944599046" lon="12.174005550158414" id="-25674">
		<tag k="name" v="Rypskjæret" />
		<tag k="place" v="locality" />
		<tag k="ssr:stedsnr" v="477537" />
	</node>
	<node lat="61.47064999676226" lon="12.035249996804934" id="-25677">
		<tag k="name" v="Grønflekkmyra" />
		<tag k="natural" v="wetland" />
		<tag k="ssr:stedsnr" v="477995" />
	</node>
	<node lat="61.456997221807015" lon="12.188327773744389" id="-25685">
		<tag k="name" v="Storbergsmyra" />
		<tag k="natural" v="wetland" />
		<tag k="ssr:stedsnr" v="478040" />
	</node>
	<node lat="61.504174997249216" lon="12.585358336283797" id="-25687">
		<tag k="name" v="Myrslåttenget" />
		<tag k="place" v="locality" />
		<tag k="ssr:stedsnr" v="478249" />
	</node>
	<node lat="61.41356666649282" lon="12.200738898147826" id="-25695">
		<tag k="name" v="Nordre Kaldevjeåsmyra" />
		<tag k="natural" v="wetland" />
		<tag k="ssr:stedsnr" v="478435" />
	</node>
	<node lat="61.53299167067617" lon="12.24539721778705" id="-25708">
		<tag k="name" v="Rundmyra" />
		<tag k="natural" v="wetland" />
		<tag k="ssr:stedsnr" v="478731" />
	</node>
	<node lat="61.36377777677879" lon="12.367963893274837" id="-25711">
		<tag k="name" v="Døploken" />
		<tag k="natural" v="wetland" />
		<tag k="ssr:stedsnr" v="478747" />
	</node>
	<node lat="61.436186112761305" lon="12.0986305524271" id="-25717">
		<tag k="name" v="Hollgnollmyra" />
		<tag k="natural" v="wetland" />
		<tag k="ssr:stedsnr" v="478978" />
	</node>
	<node lat="61.479980553952" lon="12.183213881558046" id="-25722">
		<tag k="name" v="Gråbensten" />
		<tag k="natural" v="stone" />
		<tag k="ssr:stedsnr" v="478935" />
	</node>
	<node lat="61.171800003378124" lon="11.834949996812615" id="-25728">
		<tag k="name" v="Tjernmyra" />
		<tag k="natural" v="wetland" />
		<tag k="ssr:stedsnr" v="371361" />
	</node>
	<node lat="61.370924996093535" lon="12.688436119372703" id="-25739">
		<tag k="name" v="Svartåsmyra" />
		<tag k="natural" v="wetland" />
		<tag k="ssr:stedsnr" v="479629" />
	</node>
	<node lat="61.09153055660018" lon="12.52923056077986" id="-25744">
		<tag k="name" v="Stormyra" />
		<tag k="natural" v="wetland" />
		<tag k="ssr:stedsnr" v="372513" />
	</node>
	<node lat="61.13097777434509" lon="12.415033338181697" id="-25745">
		<tag k="name" v="Langmyra" />
		<tag k="natural" v="wetland" />
		<tag k="ssr:stedsnr" v="372515" />
	</node>
</osm>
