<?xml version="1.0" encoding="UTF-8"?>
<osm generator="osmapis" version="0.6">
	<node id="-320832" lat="61.2034111111" lon="12.7103277825">
		<tag k="name" v="Knurkkvea" />
		<tag k="place" v="locality" />
		<tag k="ssr:stedsnr" v="423932" />
	</node>
	<node id="-320767" lat="61.1368805574" lon="11.9033638964">
		<tag k="name" v="Fjellinna" />
		<tag k="place" v="locality" />
		<tag k="ssr:stedsnr" v="511481" />
	</node>
	<node id="-319901" lat="61.5027777764" lon="12.5149638942">
		<tag k="name" v="Saga" />
		<tag k="place" v="locality" />
		<tag k="ssr:stedsnr" v="296229" />
	</node>
	<node id="-319292" lat="61.1782944426" lon="12.2839500006">
		<tag k="name" v="Spannlokkhålan" />
		<tag k="place" v="locality" />
		<tag k="ssr:stedsnr" v="239888" />
	</node>
	<node id="-319099" lat="61.2248555524" lon="12.7753638796">
		<tag k="name" v="Veltplassen" />
		<tag k="place" v="locality" />
		<tag k="ssr:stedsnr" v="42503" />
	</node>
	<node id="-319769" lat="61.2836249994" lon="12.7951499931">
		<tag k="name" v="Martin Sæter-svingen" />
		<tag k="place" v="locality" />
		<tag k="ssr:stedsnr" v="284670" />
	</node>
	<node id="-320792" lat="61.4273916683" lon="12.1434055559">
		<tag k="amenity" v="community_centre" />
		<tag k="name" v="Jordet samfunnshus" />
		<tag k="ssr:stedsnr" v="418046" />
	</node>
	<node id="-320384" lat="61.1959861079" lon="12.3050638794">
		<tag k="name" v="Milskiftallen" />
		<tag k="place" v="locality" />
		<tag k="ssr:stedsnr" v="484773" />
	</node>
	<node id="-319061" lat="61.1928666627" lon="11.8933166706">
		<tag k="amenity" v="place_of_worship" />
		<tag k="fixme" v="specify religion=*, denomination=*, building=* etc" />
		<tag k="name" v="Hammeren leirsted" />
		<tag k="ssr:stedsnr" v="26902" />
	</node>
	<node id="-319762" lat="61.2555833374" lon="12.530416673">
		<tag k="amenity" v="place_of_worship" />
		<tag k="denomination" v="lutheran" />
		<tag k="name" v="Østby kirke" />
		<tag k="religion" v="christian" />
		<tag k="ssr:stedsnr" v="284288" />
	</node>
	<node id="-319279" lat="61.1948166627" lon="12.7153499904">
		<tag k="name" v="Tavla" />
		<tag k="place" v="locality" />
		<tag k="ssr:stedsnr" v="59903" />
	</node>
	<node id="-320590" lat="61.5255750011" lon="12.0806750042">
		<tag k="amenity" v="community_centre" />
		<tag k="name" v="Engerneset" />
		<tag k="old_name" v="Eidet" />
		<tag k="ssr:stedsnr" v="495594" />
	</node>
	<node id="-320557" lat="61.1345361105" lon="12.1091833244">
		<tag k="amenity" v="place_of_worship" />
		<tag k="denomination" v="lutheran" />
		<tag k="name" v="Tørberget kirke" />
		<tag k="religion" v="christian" />
		<tag k="ssr:stedsnr" v="493999" />
	</node>
	<node id="-319084" lat="61.2842599851" lon="12.8414025728">
		<tag k="name" v="Persten" />
		<tag k="ssr:stedsnr" v="41658" />
		<tag k="tourism" v="attraction" />
	</node>
	<node id="-319752" lat="61.2193527755" lon="12.6428916584">
		<tag k="name" v="Gammelerik" />
		<tag k="place" v="locality" />
		<tag k="ssr:stedsnr" v="283750" />
	</node>
	<node id="-319776" lat="61.2991500037" lon="12.8260861202">
		<tag k="name" v="Mosevelta" />
		<tag k="place" v="locality" />
		<tag k="ssr:stedsnr" v="284769" />
	</node>
</osm>
