<?xml version="1.0" encoding="UTF-8"?>
<osm generator="osmapis" version="0.6">
	<node id="-30042" lat="59.9841249966" lon="9.29488889094">
		<tag k="name" v="Rollag kommune" />
		<tag k="ssr:date" v="2019-12-27" />
		<tag k="ssr:gruppe" v="administrativeIndelinger" />
		<tag k="ssr:hovedgruppe" v="offentligAdministrasjon" />
		<tag k="ssr:stedsnr" v="24308" />
		<tag k="ssr:type" v="kommune" />
	</node>
	<node id="-30937" lat="59.9947855973" lon="9.06634531907">
		<tag k="name" v="Sundtjønnstubben" />
		<tag k="ssr:date" v="2020-06-02" />
		<tag k="ssr:gruppe" v="veg" />
		<tag k="ssr:hovedgruppe" v="infrastruktur" />
		<tag k="ssr:stedsnr" v="1077156" />
		<tag k="ssr:type" v="adressenavn" />
	</node>
	<node id="-30936" lat="60.0293989429" lon="9.09383045678">
		<tag k="name" v="Øvre Barkejuvet" />
		<tag k="ssr:date" v="2020-06-02" />
		<tag k="ssr:gruppe" v="veg" />
		<tag k="ssr:hovedgruppe" v="infrastruktur" />
		<tag k="ssr:stedsnr" v="1077155" />
		<tag k="ssr:type" v="adressenavn" />
	</node>
	<node id="-30935" lat="60.0471636316" lon="9.02599721685">
		<tag k="name" v="Lauvhovdmyre" />
		<tag k="ssr:date" v="2020-06-02" />
		<tag k="ssr:gruppe" v="veg" />
		<tag k="ssr:hovedgruppe" v="infrastruktur" />
		<tag k="ssr:stedsnr" v="1077154" />
		<tag k="ssr:type" v="adressenavn" />
	</node>
	<node id="-30934" lat="60.0525797101" lon="9.01569426034">
		<tag k="name" v="Lauvhovdlie" />
		<tag k="ssr:date" v="2020-06-02" />
		<tag k="ssr:gruppe" v="veg" />
		<tag k="ssr:hovedgruppe" v="infrastruktur" />
		<tag k="ssr:stedsnr" v="1077153" />
		<tag k="ssr:type" v="adressenavn" />
	</node>
	<node id="-30933" lat="60.0124417496" lon="9.02173728387">
		<tag k="name" v="Mjeltelivegen" />
		<tag k="ssr:date" v="2020-06-02" />
		<tag k="ssr:gruppe" v="veg" />
		<tag k="ssr:hovedgruppe" v="infrastruktur" />
		<tag k="ssr:stedsnr" v="1077152" />
		<tag k="ssr:type" v="adressenavn" />
	</node>
	<node id="-30932" lat="60.0512147747" lon="9.01650163605">
		<tag k="name" v="Lisetålie" />
		<tag k="ssr:date" v="2020-06-02" />
		<tag k="ssr:gruppe" v="veg" />
		<tag k="ssr:hovedgruppe" v="infrastruktur" />
		<tag k="ssr:stedsnr" v="1077151" />
		<tag k="ssr:type" v="adressenavn" />
	</node>
	<node id="-30931" lat="60.0229598832" lon="9.04399072252">
		<tag k="name" v="Sollie" />
		<tag k="ssr:date" v="2020-06-02" />
		<tag k="ssr:gruppe" v="veg" />
		<tag k="ssr:hovedgruppe" v="infrastruktur" />
		<tag k="ssr:stedsnr" v="1077150" />
		<tag k="ssr:type" v="adressenavn" />
	</node>
	<node id="-30930" lat="59.9540075454" lon="9.14496450096">
		<tag k="name" v="Velebulie" />
		<tag k="ssr:date" v="2020-06-02" />
		<tag k="ssr:gruppe" v="veg" />
		<tag k="ssr:hovedgruppe" v="infrastruktur" />
		<tag k="ssr:stedsnr" v="1077149" />
		<tag k="ssr:type" v="adressenavn" />
	</node>
	<node id="-30929" lat="60.0463912884" lon="9.02666088779">
		<tag k="name" v="Lisetåvegen" />
		<tag k="ssr:date" v="2020-06-02" />
		<tag k="ssr:gruppe" v="veg" />
		<tag k="ssr:hovedgruppe" v="infrastruktur" />
		<tag k="ssr:stedsnr" v="1077148" />
		<tag k="ssr:type" v="adressenavn" />
	</node>
	<node id="-30928" lat="60.0928636181" lon="9.18708680919">
		<tag k="name" v="Toensetervegen" />
		<tag k="ssr:date" v="2020-06-02" />
		<tag k="ssr:gruppe" v="veg" />
		<tag k="ssr:hovedgruppe" v="infrastruktur" />
		<tag k="ssr:stedsnr" v="1077147" />
		<tag k="ssr:type" v="adressenavn" />
	</node>
	<node id="-30927" lat="60.0326871338" lon="9.03476144944">
		<tag k="name" v="Tiurlie" />
		<tag k="ssr:date" v="2020-06-02" />
		<tag k="ssr:gruppe" v="veg" />
		<tag k="ssr:hovedgruppe" v="infrastruktur" />
		<tag k="ssr:stedsnr" v="1077146" />
		<tag k="ssr:type" v="adressenavn" />
	</node>
	<node id="-30926" lat="59.9542588083" lon="9.14510882728">
		<tag k="name" v="Sørkjevegen" />
		<tag k="ssr:date" v="2020-06-02" />
		<tag k="ssr:gruppe" v="veg" />
		<tag k="ssr:hovedgruppe" v="infrastruktur" />
		<tag k="ssr:stedsnr" v="1077145" />
		<tag k="ssr:type" v="adressenavn" />
	</node>
	<node id="-30925" lat="60.0175099535" lon="9.04256639564">
		<tag k="name" v="Anderslyulie" />
		<tag k="ssr:date" v="2020-06-02" />
		<tag k="ssr:gruppe" v="veg" />
		<tag k="ssr:hovedgruppe" v="infrastruktur" />
		<tag k="ssr:stedsnr" v="1077144" />
		<tag k="ssr:type" v="adressenavn" />
	</node>
	<node id="-30924" lat="59.9910804165" lon="9.07162228835">
		<tag k="name" v="Seterlie" />
		<tag k="ssr:date" v="2020-06-02" />
		<tag k="ssr:gruppe" v="veg" />
		<tag k="ssr:hovedgruppe" v="infrastruktur" />
		<tag k="ssr:stedsnr" v="1077143" />
		<tag k="ssr:type" v="adressenavn" />
	</node>
	<node id="-30923" lat="59.9928097049" lon="9.07816844424">
		<tag k="name" v="Sundtjønnlie" />
		<tag k="ssr:date" v="2020-06-02" />
		<tag k="ssr:gruppe" v="veg" />
		<tag k="ssr:hovedgruppe" v="infrastruktur" />
		<tag k="ssr:stedsnr" v="1077142" />
		<tag k="ssr:type" v="adressenavn" />
	</node>
	<node id="-30922" lat="59.9973134656" lon="9.08439969253">
		<tag k="name" v="Storemyrlie" />
		<tag k="ssr:date" v="2020-06-02" />
		<tag k="ssr:gruppe" v="veg" />
		<tag k="ssr:hovedgruppe" v="infrastruktur" />
		<tag k="ssr:stedsnr" v="1077141" />
		<tag k="ssr:type" v="adressenavn" />
	</node>
	<node id="-30921" lat="59.9769036764" lon="9.12874321869">
		<tag k="name" v="Skjerbrekklie" />
		<tag k="ssr:date" v="2020-06-02" />
		<tag k="ssr:gruppe" v="veg" />
		<tag k="ssr:hovedgruppe" v="infrastruktur" />
		<tag k="ssr:stedsnr" v="1077140" />
		<tag k="ssr:type" v="adressenavn" />
	</node>
	<node id="-30920" lat="59.9735460518" lon="9.14542607537">
		<tag k="name" v="Steintjønnmyre" />
		<tag k="ssr:date" v="2020-06-02" />
		<tag k="ssr:gruppe" v="veg" />
		<tag k="ssr:hovedgruppe" v="infrastruktur" />
		<tag k="ssr:stedsnr" v="1077139" />
		<tag k="ssr:type" v="adressenavn" />
	</node>
	<node id="-30919" lat="59.9772147849" lon="9.1319513944">
		<tag k="name" v="Steintjønnlie" />
		<tag k="ssr:date" v="2020-06-02" />
		<tag k="ssr:gruppe" v="veg" />
		<tag k="ssr:hovedgruppe" v="infrastruktur" />
		<tag k="ssr:stedsnr" v="1077138" />
		<tag k="ssr:type" v="adressenavn" />
	</node>
	<node id="-30918" lat="59.9776386598" lon="9.13890458715">
		<tag k="name" v="Steintjønnstigen" />
		<tag k="ssr:date" v="2020-06-02" />
		<tag k="ssr:gruppe" v="veg" />
		<tag k="ssr:hovedgruppe" v="infrastruktur" />
		<tag k="ssr:stedsnr" v="1077137" />
		<tag k="ssr:type" v="adressenavn" />
	</node>
	<node id="-30917" lat="59.9885277256" lon="9.0904529235">
		<tag k="name" v="Skjenholtlie" />
		<tag k="ssr:date" v="2020-06-02" />
		<tag k="ssr:gruppe" v="veg" />
		<tag k="ssr:hovedgruppe" v="infrastruktur" />
		<tag k="ssr:stedsnr" v="1077136" />
		<tag k="ssr:type" v="adressenavn" />
	</node>
	<node id="-30916" lat="60.0519010356" lon="9.04038405984">
		<tag k="name" v="Høybulivegen" />
		<tag k="ssr:date" v="2020-06-02" />
		<tag k="ssr:gruppe" v="veg" />
		<tag k="ssr:hovedgruppe" v="infrastruktur" />
		<tag k="ssr:stedsnr" v="1077135" />
		<tag k="ssr:type" v="adressenavn" />
	</node>
	<node id="-30915" lat="60.0013250068" lon="9.07300703924">
		<tag k="name" v="Lauvhaugstigen" />
		<tag k="ssr:date" v="2020-06-02" />
		<tag k="ssr:gruppe" v="veg" />
		<tag k="ssr:hovedgruppe" v="infrastruktur" />
		<tag k="ssr:stedsnr" v="1077134" />
		<tag k="ssr:type" v="adressenavn" />
	</node>
	<node id="-30914" lat="60.0465739603" lon="9.04763079378">
		<tag k="name" v="Persbuåvegen" />
		<tag k="ssr:date" v="2020-06-02" />
		<tag k="ssr:gruppe" v="veg" />
		<tag k="ssr:hovedgruppe" v="infrastruktur" />
		<tag k="ssr:stedsnr" v="1077133" />
		<tag k="ssr:type" v="adressenavn" />
	</node>
	<node id="-30913" lat="60.0030346096" lon="9.06628706899">
		<tag k="name" v="Svarteløkstigen" />
		<tag k="ssr:date" v="2020-06-02" />
		<tag k="ssr:gruppe" v="veg" />
		<tag k="ssr:hovedgruppe" v="infrastruktur" />
		<tag k="ssr:stedsnr" v="1077132" />
		<tag k="ssr:type" v="adressenavn" />
	</node>
	<node id="-30912" lat="60.0236544735" lon="9.03304755683">
		<tag k="name" v="Mjogetjønnhøgde" />
		<tag k="ssr:date" v="2020-06-02" />
		<tag k="ssr:gruppe" v="veg" />
		<tag k="ssr:hovedgruppe" v="infrastruktur" />
		<tag k="ssr:stedsnr" v="1077131" />
		<tag k="ssr:type" v="adressenavn" />
	</node>
	<node id="-30911" lat="60.0203510918" lon="9.02888233298">
		<tag k="name" v="Mjogetjønnlie" />
		<tag k="ssr:date" v="2020-06-02" />
		<tag k="ssr:gruppe" v="veg" />
		<tag k="ssr:hovedgruppe" v="infrastruktur" />
		<tag k="ssr:stedsnr" v="1077130" />
		<tag k="ssr:type" v="adressenavn" />
	</node>
	<node id="-30910" lat="60.0487152715" lon="9.24598005784">
		<tag k="name" v="Konnulisetervegen" />
		<tag k="ssr:date" v="2020-06-02" />
		<tag k="ssr:gruppe" v="veg" />
		<tag k="ssr:hovedgruppe" v="infrastruktur" />
		<tag k="ssr:stedsnr" v="1077129" />
		<tag k="ssr:type" v="adressenavn" />
	</node>
	<node id="-30909" lat="60.0219247567" lon="9.01505181916">
		<tag k="name" v="Nedre Storhaug" />
		<tag k="ssr:date" v="2020-06-02" />
		<tag k="ssr:gruppe" v="veg" />
		<tag k="ssr:hovedgruppe" v="infrastruktur" />
		<tag k="ssr:stedsnr" v="1077128" />
		<tag k="ssr:type" v="adressenavn" />
	</node>
	<node id="-30908" lat="60.0225529642" lon="9.0177790654">
		<tag k="name" v="Langevasslie" />
		<tag k="ssr:date" v="2020-06-02" />
		<tag k="ssr:gruppe" v="veg" />
		<tag k="ssr:hovedgruppe" v="infrastruktur" />
		<tag k="ssr:stedsnr" v="1077127" />
		<tag k="ssr:type" v="adressenavn" />
	</node>
	<node id="-30907" lat="60.049123134" lon="9.01170662259">
		<tag k="name" v="Øvre Bispevegen" />
		<tag k="ssr:date" v="2020-06-02" />
		<tag k="ssr:gruppe" v="veg" />
		<tag k="ssr:hovedgruppe" v="infrastruktur" />
		<tag k="ssr:stedsnr" v="1077126" />
		<tag k="ssr:type" v="adressenavn" />
	</node>
	<node id="-30906" lat="60.0501375151" lon="9.01441826122">
		<tag k="name" v="Søre Killingdalen" />
		<tag k="ssr:date" v="2020-06-02" />
		<tag k="ssr:gruppe" v="veg" />
		<tag k="ssr:hovedgruppe" v="infrastruktur" />
		<tag k="ssr:stedsnr" v="1077125" />
		<tag k="ssr:type" v="adressenavn" />
	</node>
	<node id="-30905" lat="60.0433650462" lon="9.02787917217">
		<tag k="name" v="Høggerudsetervegen" />
		<tag k="ssr:date" v="2020-06-02" />
		<tag k="ssr:gruppe" v="veg" />
		<tag k="ssr:hovedgruppe" v="infrastruktur" />
		<tag k="ssr:stedsnr" v="1077124" />
		<tag k="ssr:type" v="adressenavn" />
	</node>
	<node id="-30904" lat="60.0440295898" lon="9.02748478436">
		<tag k="name" v="Lisetlie" />
		<tag k="ssr:date" v="2020-06-02" />
		<tag k="ssr:gruppe" v="veg" />
		<tag k="ssr:hovedgruppe" v="infrastruktur" />
		<tag k="ssr:stedsnr" v="1077123" />
		<tag k="ssr:type" v="adressenavn" />
	</node>
	<node id="-30903" lat="60.0223740921" lon="9.01130247289">
		<tag k="name" v="Storhauglie" />
		<tag k="ssr:date" v="2020-06-02" />
		<tag k="ssr:gruppe" v="veg" />
		<tag k="ssr:hovedgruppe" v="infrastruktur" />
		<tag k="ssr:stedsnr" v="1077122" />
		<tag k="ssr:type" v="adressenavn" />
	</node>
	<node id="-30902" lat="60.0257497967" lon="9.0160044984">
		<tag k="name" v="Lutegryte" />
		<tag k="ssr:date" v="2020-06-02" />
		<tag k="ssr:gruppe" v="veg" />
		<tag k="ssr:hovedgruppe" v="infrastruktur" />
		<tag k="ssr:stedsnr" v="1077121" />
		<tag k="ssr:type" v="adressenavn" />
	</node>
	<node id="-30901" lat="60.026423519" lon="9.01349285621">
		<tag k="name" v="Kråkåslie" />
		<tag k="ssr:date" v="2020-06-02" />
		<tag k="ssr:gruppe" v="veg" />
		<tag k="ssr:hovedgruppe" v="infrastruktur" />
		<tag k="ssr:stedsnr" v="1077120" />
		<tag k="ssr:type" v="adressenavn" />
	</node>
	<node id="-30900" lat="60.0491948468" lon="9.01299940665">
		<tag k="name" v="Nedre Bispevegen" />
		<tag k="ssr:date" v="2020-06-02" />
		<tag k="ssr:gruppe" v="veg" />
		<tag k="ssr:hovedgruppe" v="infrastruktur" />
		<tag k="ssr:stedsnr" v="1077119" />
		<tag k="ssr:type" v="adressenavn" />
	</node>
	<node id="-30899" lat="60.0389915866" lon="9.03053200443">
		<tag k="name" v="Høggerudseterlie" />
		<tag k="ssr:date" v="2020-06-02" />
		<tag k="ssr:gruppe" v="veg" />
		<tag k="ssr:hovedgruppe" v="infrastruktur" />
		<tag k="ssr:stedsnr" v="1077118" />
		<tag k="ssr:type" v="adressenavn" />
	</node>
	<node id="-30898" lat="60.030479299" lon="9.05747728475">
		<tag k="name" v="Hekanlie" />
		<tag k="ssr:date" v="2020-06-02" />
		<tag k="ssr:gruppe" v="veg" />
		<tag k="ssr:hovedgruppe" v="infrastruktur" />
		<tag k="ssr:stedsnr" v="1077117" />
		<tag k="ssr:type" v="adressenavn" />
	</node>
	<node id="-30897" lat="59.9197433984" lon="9.3362929292">
		<tag k="name" v="Haugenvegen" />
		<tag k="ssr:date" v="2020-06-02" />
		<tag k="ssr:gruppe" v="veg" />
		<tag k="ssr:hovedgruppe" v="infrastruktur" />
		<tag k="ssr:stedsnr" v="1077116" />
		<tag k="ssr:type" v="adressenavn" />
	</node>
	<node id="-30896" lat="60.0282692965" lon="9.03499007661">
		<tag k="name" v="Gversetlie" />
		<tag k="ssr:date" v="2020-06-02" />
		<tag k="ssr:gruppe" v="veg" />
		<tag k="ssr:hovedgruppe" v="infrastruktur" />
		<tag k="ssr:stedsnr" v="1077115" />
		<tag k="ssr:type" v="adressenavn" />
	</node>
	<node id="-30895" lat="60.0277144058" lon="9.02725591521">
		<tag k="name" v="Lakahauglie" />
		<tag k="ssr:date" v="2020-06-02" />
		<tag k="ssr:gruppe" v="veg" />
		<tag k="ssr:hovedgruppe" v="infrastruktur" />
		<tag k="ssr:stedsnr" v="1077114" />
		<tag k="ssr:type" v="adressenavn" />
	</node>
	<node id="-30894" lat="60.0306955839" lon="9.140401312">
		<tag k="name" v="Halvfarbuvegen" />
		<tag k="ssr:date" v="2020-06-02" />
		<tag k="ssr:gruppe" v="veg" />
		<tag k="ssr:hovedgruppe" v="infrastruktur" />
		<tag k="ssr:stedsnr" v="1077113" />
		<tag k="ssr:type" v="adressenavn" />
	</node>
	<node id="-30893" lat="60.0341980741" lon="9.02377956783">
		<tag k="name" v="Devegglie" />
		<tag k="ssr:date" v="2020-06-02" />
		<tag k="ssr:gruppe" v="veg" />
		<tag k="ssr:hovedgruppe" v="infrastruktur" />
		<tag k="ssr:stedsnr" v="1077112" />
		<tag k="ssr:type" v="adressenavn" />
	</node>
	<node id="-30889" lat="59.981719825" lon="9.07894863029">
		<tag k="name" v="Høghauglie" />
		<tag k="ssr:date" v="2020-05-15" />
		<tag k="ssr:gruppe" v="veg" />
		<tag k="ssr:hovedgruppe" v="infrastruktur" />
		<tag k="ssr:stedsnr" v="1076969" />
		<tag k="ssr:type" v="adressenavn" />
	</node>
	<node id="-30888" lat="60.0475668434" lon="9.05178895722">
		<tag k="name" v="Nordmannsvollen" />
		<tag k="ssr:date" v="2020-02-20" />
		<tag k="ssr:gruppe" v="veg" />
		<tag k="ssr:hovedgruppe" v="infrastruktur" />
		<tag k="ssr:stedsnr" v="1075406" />
		<tag k="ssr:type" v="adressenavn" />
	</node>
	<node id="-30887" lat="59.9116896876" lon="10.7581882267">
		<tag k="name" v="Viken fylke" />
		<tag k="ssr:date" v="2020-01-13" />
		<tag k="ssr:gruppe" v="administrativeIndelinger" />
		<tag k="ssr:hovedgruppe" v="offentligAdministrasjon" />
		<tag k="ssr:stedsnr" v="1074403" />
		<tag k="ssr:type" v="fylke" />
	</node>
	<node id="-30871" lat="60.0408689266" lon="9.14843642302">
		<tag k="name" v="Sandbekk" />
		<tag k="ssr:date" v="2019-12-27" />
		<tag k="ssr:gruppe" v="veg" />
		<tag k="ssr:hovedgruppe" v="infrastruktur" />
		<tag k="ssr:stedsnr" v="1034911" />
		<tag k="ssr:type" v="adressenavn" />
	</node>
	<node id="-30870" lat="60.0351258423" lon="9.2397163463">
		<tag k="name" v="Øllebakkan" />
		<tag k="ssr:date" v="2019-12-27" />
		<tag k="ssr:gruppe" v="veg" />
		<tag k="ssr:hovedgruppe" v="infrastruktur" />
		<tag k="ssr:stedsnr" v="1034854" />
		<tag k="ssr:type" v="adressenavn" />
	</node>
	<node id="-30869" lat="59.9894149552" lon="9.07914618218">
		<tag k="name" v="Vorsetvegen" />
		<tag k="ssr:date" v="2019-12-27" />
		<tag k="ssr:gruppe" v="veg" />
		<tag k="ssr:hovedgruppe" v="infrastruktur" />
		<tag k="ssr:stedsnr" v="990712" />
		<tag k="ssr:type" v="adressenavn" />
	</node>
	<node id="-30868" lat="60.0673785018" lon="9.04827158318">
		<tag k="name" v="Fjellkapellet" />
		<tag k="ssr:date" v="2019-12-27" />
		<tag k="ssr:gruppe" v="veg" />
		<tag k="ssr:hovedgruppe" v="infrastruktur" />
		<tag k="ssr:stedsnr" v="990498" />
		<tag k="ssr:type" v="adressenavn" />
	</node>
	<node id="-30865" lat="59.9478235121" lon="9.37963832504">
		<tag k="name" v="Ulviksetervegen" />
		<tag k="ssr:date" v="2019-12-27" />
		<tag k="ssr:gruppe" v="veg" />
		<tag k="ssr:hovedgruppe" v="infrastruktur" />
		<tag k="ssr:stedsnr" v="971800" />
		<tag k="ssr:type" v="adressenavn" />
	</node>
	<node id="-30864" lat="59.942844769" lon="9.38471803864">
		<tag k="name" v="Kløvsteinvegen" />
		<tag k="ssr:date" v="2019-12-27" />
		<tag k="ssr:gruppe" v="veg" />
		<tag k="ssr:hovedgruppe" v="infrastruktur" />
		<tag k="ssr:stedsnr" v="971798" />
		<tag k="ssr:type" v="adressenavn" />
	</node>
	<node id="-30863" lat="59.978626728" lon="9.27252647067">
		<tag k="name" v="Brattebergvegen" />
		<tag k="ssr:date" v="2019-12-27" />
		<tag k="ssr:gruppe" v="veg" />
		<tag k="ssr:hovedgruppe" v="infrastruktur" />
		<tag k="ssr:stedsnr" v="971794" />
		<tag k="ssr:type" v="adressenavn" />
	</node>
	<node id="-30862" lat="60.0067838778" lon="9.26367942708">
		<tag k="name" v="Idrettsskolen" />
		<tag k="ssr:date" v="2019-12-27" />
		<tag k="ssr:gruppe" v="veg" />
		<tag k="ssr:hovedgruppe" v="infrastruktur" />
		<tag k="ssr:stedsnr" v="971793" />
		<tag k="ssr:type" v="adressenavn" />
	</node>
	<node id="-30861" lat="60.0622075577" lon="9.12822268591">
		<tag k="name" v="Hellevegen" />
		<tag k="ssr:date" v="2019-12-27" />
		<tag k="ssr:gruppe" v="veg" />
		<tag k="ssr:hovedgruppe" v="infrastruktur" />
		<tag k="ssr:stedsnr" v="971792" />
		<tag k="ssr:type" v="adressenavn" />
	</node>
	<node id="-30860" lat="60.0633835933" lon="9.13780758973">
		<tag k="name" v="Tåtavegen" />
		<tag k="ssr:date" v="2019-12-27" />
		<tag k="ssr:gruppe" v="veg" />
		<tag k="ssr:hovedgruppe" v="infrastruktur" />
		<tag k="ssr:stedsnr" v="971791" />
		<tag k="ssr:type" v="adressenavn" />
	</node>
	<node id="-30859" lat="60.071926072" lon="9.12057894361">
		<tag k="name" v="Bogstrandvegen" />
		<tag k="ssr:date" v="2019-12-27" />
		<tag k="ssr:gruppe" v="veg" />
		<tag k="ssr:hovedgruppe" v="infrastruktur" />
		<tag k="ssr:stedsnr" v="971790" />
		<tag k="ssr:type" v="adressenavn" />
	</node>
	<node id="-30858" lat="60.0697351574" lon="9.12522310647">
		<tag k="name" v="Gamlevegen" />
		<tag k="ssr:date" v="2019-12-27" />
		<tag k="ssr:gruppe" v="veg" />
		<tag k="ssr:hovedgruppe" v="infrastruktur" />
		<tag k="ssr:stedsnr" v="971789" />
		<tag k="ssr:type" v="adressenavn" />
	</node>
	<node id="-30857" lat="60.0594271435" lon="9.14220384465">
		<tag k="name" v="Nattestadvegen" />
		<tag k="ssr:date" v="2019-12-27" />
		<tag k="ssr:gruppe" v="veg" />
		<tag k="ssr:hovedgruppe" v="infrastruktur" />
		<tag k="ssr:stedsnr" v="971788" />
		<tag k="ssr:type" v="adressenavn" />
	</node>
</osm>
