<?xml version="1.0" encoding="UTF-8"?>
<osm generator="osmapis" version="0.6">
	<node id="-827388" lat="63.3035194473" lon="9.13280554904">
		<tag k="name" v="Jevika" />
		<tag k="place" v="farm" />
		<tag k="ssr:stedsnr" v="133590" />
	</node>
	<node id="-827376" lat="63.2058888895" lon="8.98603610407">
		<tag k="name" v="Vinjeøra" />
		<tag k="place" v="village" />
		<tag k="ssr:stedsnr" v="73799" />
	</node>
	<node id="-826706" lat="63.2832333369" lon="9.07607500933">
		<tag k="name" v="Vassvollen" />
		<tag k="place" v="farm" />
		<tag k="ssr:stedsnr" v="272256" />
	</node>
	<node id="-827370" lat="63.4461638845" lon="9.00212500671">
		<tag k="alt_name" v="Gjengstø" />
		<tag k="name" v="Gjengstøa" />
		<tag k="place" v="hamlet" />
		<tag k="ssr:stedsnr" v="575592" />
	</node>
	<node id="-827366" lat="63.2055916701" lon="8.98437221856">
		<tag k="amenity" v="school" />
		<tag k="name" v="Vinjeøra skole" />
		<tag k="ssr:stedsnr" v="605568" />
	</node>
	<node id="-827349" lat="63.2065433547" lon="9.16308195138">
		<tag k="fixme" v="consider place=hamlet" />
		<tag k="loc_name" v="Bordstad" />
		<tag k="name" v="Borstad" />
		<tag k="old_name" v="Borstadsetra" />
		<tag k="place" v="farm" />
		<tag k="ssr:stedsnr" v="437787" />
	</node>
	<node id="-827345" lat="63.4640000045" lon="9.02035832506">
		<tag k="name" v="Kvervosen" />
		<tag k="place" v="farm" />
		<tag k="ssr:stedsnr" v="134542" />
	</node>
	<node id="-827343" lat="63.4415694429" lon="8.99823611667">
		<tag k="name" v="Solvang" />
		<tag k="place" v="farm" />
		<tag k="ssr:stedsnr" v="863375" />
	</node>
	<node id="-827339" lat="63.3365472248" lon="8.93351111299">
		<tag k="historic" v="shieling" />
		<tag k="name" v="Øverlægda" />
		<tag k="place" v="locality" />
		<tag k="ssr:stedsnr" v="558569" />
	</node>
	<node id="-827337" lat="63.4122000043" lon="8.89318611042">
		<tag k="name" v="Lauvbukta" />
		<tag k="place" v="farm" />
		<tag k="ssr:stedsnr" v="923674" />
	</node>
	<node id="-827329" lat="63.2319805542" lon="9.0364083382">
		<tag k="name" v="Sørvollan" />
		<tag k="place" v="farm" />
		<tag k="ssr:stedsnr" v="393530" />
	</node>
	<node id="-827323" lat="63.3078111104" lon="9.13053610842">
		<tag k="name" v="Hagaøra" />
		<tag k="place" v="farm" />
		<tag k="ssr:stedsnr" v="90989" />
	</node>
	<node id="-827319" lat="63.3384472264" lon="9.00335556084">
		<tag k="name" v="Aunhaugen" />
		<tag k="place" v="farm" />
		<tag k="ssr:stedsnr" v="558571" />
	</node>
	<node id="-827315" lat="63.446816665" lon="9.02181387897">
		<tag k="name" v="Fagervika" />
		<tag k="place" v="farm" />
		<tag k="ssr:stedsnr" v="863369" />
	</node>
	<node id="-827312" lat="63.2294472191" lon="9.03344721267">
		<tag k="name" v="Sagtrøan" />
		<tag k="place" v="farm" />
		<tag k="ssr:stedsnr" v="212521" />
	</node>
	<node id="-827303" lat="63.4501333361" lon="9.01331110811">
		<tag k="name" v="Fagerheim" />
		<tag k="place" v="farm" />
		<tag k="ssr:stedsnr" v="863373" />
	</node>
	<node id="-827297" lat="63.1377626641" lon="9.09993478473">
		<tag k="fixme" v="consider tourism=alpine_hut or tourism=chalet" />
		<tag k="name" v="Kårøyan" />
		<tag k="ssr:stedsnr" v="402000" />
		<tag k="tourism" v="wilderness_hut" />
	</node>
	<node id="-827291" lat="63.2226692383" lon="9.01653594961">
		<tag k="fixme" v="consider place=hamlet" />
		<tag k="name" v="Eidslia" />
		<tag k="place" v="farm" />
		<tag k="ssr:stedsnr" v="73783" />
	</node>
	<node id="-827277" lat="63.1843472189" lon="9.01139444023">
		<tag k="fixme" v="consider tourism=alpine_hut or tourism=chalet" />
		<tag k="name" v="Storlisetra" />
		<tag k="ssr:stedsnr" v="280939" />
		<tag k="tourism" v="wilderness_hut" />
	</node>
	<node id="-827271" lat="63.4067999982" lon="8.99052777045">
		<tag k="name" v="Kobbsteinbukta" />
		<tag k="place" v="farm" />
		<tag k="ssr:stedsnr" v="211661" />
	</node>
	<node id="-827265" lat="63.3951750017" lon="8.98080000929">
		<tag k="name" v="Seterdalen" />
		<tag k="place" v="farm" />
		<tag k="ssr:stedsnr" v="514725" />
	</node>
	<node id="-827252" lat="63.1943483495" lon="8.851449701">
		<tag k="fixme" v="consider place=hamlet" />
		<tag k="name" v="Hofset" />
		<tag k="place" v="farm" />
		<tag k="ssr:stedsnr" v="437785" />
	</node>
	<node id="-827245" lat="63.13115" lon="9.05158055974">
		<tag k="historic" v="shieling" />
		<tag k="name" v="Mushaugsetra" />
		<tag k="place" v="locality" />
		<tag k="ssr:stedsnr" v="619708" />
	</node>
	<node id="-827244" lat="63.4045527771" lon="8.97125000055">
		<tag k="name" v="Kvernbukta" />
		<tag k="place" v="farm" />
		<tag k="ssr:stedsnr" v="514729" />
	</node>
	<node id="-827243" lat="63.3204583313" lon="9.01860277205">
		<tag k="name" v="Brannen" />
		<tag k="place" v="locality" />
		<tag k="ssr:stedsnr" v="801502" />
	</node>
	<node id="-829290" lat="63.3143916666" lon="9.22274166638">
		<tag k="alt_name" v="Sperillsetrin" />
		<tag k="historic" v="shieling" />
		<tag k="name" v="Sperillsætra" />
		<tag k="place" v="locality" />
		<tag k="ssr:stedsnr" v="863177" />
	</node>
	<node id="-827241" lat="63.2054083329" lon="9.0017277803">
		<tag k="name" v="Skeishaugen" />
		<tag k="place" v="farm" />
		<tag k="ssr:stedsnr" v="454878" />
	</node>
	<node id="-827239" lat="63.310286111" lon="9.08080000864">
		<tag k="name" v="Grøtslættet" />
		<tag k="place" v="farm" />
		<tag k="ssr:stedsnr" v="90967" />
	</node>
	<node id="-827238" lat="63.4022555522" lon="8.98391110341">
		<tag k="name" v="Grindbakken" />
		<tag k="place" v="farm" />
		<tag k="ssr:stedsnr" v="211654" />
	</node>
	<node id="-827237" lat="63.2467166663" lon="9.07586666961">
		<tag k="historic" v="shieling" />
		<tag k="name" v="Gammelsetra" />
		<tag k="place" v="locality" />
		<tag k="ssr:stedsnr" v="333517" />
	</node>
	<node id="-829282" lat="63.2700222226" lon="9.00951944319">
		<tag k="name" v="Bjørkslættet" />
		<tag k="place" v="farm" />
		<tag k="ssr:stedsnr" v="635087" />
	</node>
	<node id="-829274" lat="63.2068388893" lon="8.99053611771">
		<tag k="name" v="Nedre Vinjan" />
		<tag k="place" v="farm" />
		<tag k="ssr:stedsnr" v="29844" />
	</node>
	<node id="-827225" lat="63.4046555593" lon="8.96436943774">
		<tag k="name" v="Myrhaugen" />
		<tag k="place" v="farm" />
		<tag k="ssr:stedsnr" v="697724" />
	</node>
	<node id="-827222" lat="63.1488444458" lon="8.86720834059">
		<tag k="historic" v="shieling" />
		<tag k="name" v="Staursetsetra" />
		<tag k="place" v="locality" />
		<tag k="ssr:stedsnr" v="740702" />
	</node>
	<node id="-827220" lat="63.3511007834" lon="9.00699936413">
		<tag k="alt_name" v="Lihaugen" />
		<tag k="name" v="Lian" />
		<tag k="place" v="farm" />
		<tag k="ssr:stedsnr" v="741757" />
	</node>
	<node id="-827219" lat="63.3239055584" lon="9.10536944879">
		<tag k="name" v="Berg" />
		<tag k="place" v="hamlet" />
		<tag k="ssr:stedsnr" v="818430" />
	</node>
	<node id="-827216" lat="63.2082888852" lon="8.96820554943">
		<tag k="name" v="Gammelplassen" />
		<tag k="place" v="locality" />
		<tag k="ssr:stedsnr" v="815927" />
	</node>
	<node id="-827215" lat="63.4191805588" lon="9.08866945298">
		<tag k="name" v="Myran" />
		<tag k="place" v="farm" />
		<tag k="ssr:stedsnr" v="315662" />
	</node>
	<node id="-827212" lat="63.3235694468" lon="9.17803055521">
		<tag k="name" v="Nordvika" />
		<tag k="place" v="farm" />
		<tag k="ssr:stedsnr" v="133469" />
	</node>
	<node id="-827204" lat="63.3115361101" lon="9.07393056435">
		<tag k="fixme" v="multiple name tags, choose one and add the other to alt_name" />
		<tag k="name" v="Bakkheim;Skiftet" />
		<tag k="place" v="farm" />
		<tag k="ssr:stedsnr" v="558556" />
	</node>
	<node id="-829251" lat="63.2408160951" lon="9.0805033468">
		<tag k="name" v="Stolsmolia" />
		<tag k="place" v="farm" />
		<tag k="ssr:stedsnr" v="818153" />
	</node>
	<node id="-827192" lat="63.4229361114" lon="8.80365833349">
		<tag k="loc_name" v="Taftøyan" />
		<tag k="name" v="Taftøya" />
		<tag k="place" v="hamlet" />
		<tag k="ssr:stedsnr" v="328767" />
	</node>
	<node id="-829235" lat="63.2077780198" lon="8.87219828031">
		<tag k="fixme" v="consider place=hamlet" />
		<tag k="name" v="Sollia" />
		<tag k="place" v="farm" />
		<tag k="ssr:stedsnr" v="680822" />
	</node>
	<node id="-829230" lat="63.3775749985" lon="8.99467500602">
		<tag k="name" v="Litlhaugen" />
		<tag k="place" v="farm" />
		<tag k="ssr:stedsnr" v="12721" />
	</node>
	<node id="-827181" lat="63.2132841772" lon="9.06032607904">
		<tag k="name" v="Sødalen" />
		<tag k="place" v="farm" />
		<tag k="ssr:stedsnr" v="757739" />
	</node>
	<node id="-829228" lat="63.2920315732" lon="9.07763477281">
		<tag k="fixme" v="consider place=hamlet" />
		<tag k="name" v="Vesse" />
		<tag k="place" v="farm" />
		<tag k="ssr:stedsnr" v="73595" />
	</node>
	<node id="-827172" lat="63.3934083312" lon="9.00226110973">
		<tag k="fixme" v="consider place=hamlet" />
		<tag k="name" v="Å" />
		<tag k="place" v="farm" />
		<tag k="ssr:stedsnr" v="618614" />
	</node>
	<node id="-827014" lat="63.2199527769" lon="9.00795554874">
		<tag k="name" v="Vinjlia" />
		<tag k="place" v="farm" />
		<tag k="ssr:stedsnr" v="194762" />
	</node>
	<node id="-827169" lat="63.3306611115" lon="9.00548056446">
		<tag k="name" v="Nestu" />
		<tag k="place" v="farm" />
		<tag k="ssr:stedsnr" v="287230" />
	</node>
	<node id="-829216" lat="63.3085444407" lon="9.13254999686">
		<tag k="alt_name" v="Prøvesteinen;Prøvesten" />
		<tag k="name" v="Prøvsteinen" />
		<tag k="place" v="farm" />
		<tag k="ssr:stedsnr" v="498634" />
	</node>
	<node id="-827164" lat="63.2362682404" lon="9.03894114276">
		<tag k="fixme" v="consider place=hamlet" />
		<tag k="name" v="Eidet" />
		<tag k="place" v="farm" />
		<tag k="ssr:stedsnr" v="73764" />
	</node>
	<node id="-827161" lat="63.3090527769" lon="9.15513888531">
		<tag k="name" v="Svarthaugen" />
		<tag k="place" v="farm" />
		<tag k="ssr:stedsnr" v="833254" />
	</node>
	<node id="-827159" lat="63.4190277743" lon="9.08236387937">
		<tag k="name" v="Heim" />
		<tag k="place" v="farm" />
		<tag k="ssr:stedsnr" v="376440" />
	</node>
	<node id="-827157" lat="63.4220694483" lon="8.98315556493">
		<tag k="alt_name" v="Bjørknes" />
		<tag k="name" v="Bjørkneset" />
		<tag k="place" v="farm" />
		<tag k="ssr:stedsnr" v="332669" />
	</node>
	<node id="-829196" lat="63.1644138857" lon="9.04560278745">
		<tag k="historic" v="shieling" />
		<tag k="name" v="Litllia" />
		<tag k="place" v="locality" />
		<tag k="ssr:stedsnr" v="133789" />
	</node>
	<node id="-827144" lat="63.223377781" lon="9.24301388693">
		<tag k="name" v="Rabben" />
		<tag k="place" v="farm" />
		<tag k="ssr:stedsnr" v="29274" />
	</node>
	<node id="-829191" lat="63.3139473142" lon="8.97307071314">
		<tag k="alt_name" v="Røstlia øvre" />
		<tag k="name" v="Røstlia" />
		<tag k="place" v="farm" />
		<tag k="ssr:stedsnr" v="740507" />
	</node>
	<node id="-829190" lat="63.1954722201" lon="9.06240833701">
		<tag k="name" v="Slættet" />
		<tag k="place" v="locality" />
		<tag k="ssr:stedsnr" v="13787" />
	</node>
	<node id="-827138" lat="63.1943944205" lon="8.93176044404">
		<tag k="fixme" v="consider place=hamlet" />
		<tag k="name" v="Haukvika" />
		<tag k="place" v="farm" />
		<tag k="ssr:stedsnr" v="862814" />
	</node>
	<node id="-827135" lat="63.21298889" lon="9.13678056499">
		<tag k="historic" v="shieling" />
		<tag k="name" v="Litlslættet" />
		<tag k="place" v="locality" />
		<tag k="ssr:stedsnr" v="150292" />
	</node>
	<node id="-829181" lat="63.2964444431" lon="9.12475556511">
		<tag k="name" v="Myra" />
		<tag k="place" v="farm" />
		<tag k="ssr:stedsnr" v="879058" />
	</node>
	<node id="-827123" lat="63.3040444489" lon="9.13294444464">
		<tag k="name" v="Trøan" />
		<tag k="place" v="farm" />
		<tag k="ssr:stedsnr" v="923635" />
	</node>
	<node id="-829170" lat="63.3928500011" lon="8.99321111926">
		<tag k="name" v="Svanem" />
		<tag k="place" v="farm" />
		<tag k="ssr:stedsnr" v="497612" />
	</node>
	<node id="-827120" lat="63.1945783123" lon="8.88326230812">
		<tag k="fixme" v="consider place=hamlet" />
		<tag k="name" v="Grønset" />
		<tag k="place" v="farm" />
		<tag k="ssr:stedsnr" v="498818" />
	</node>
	<node id="-827118" lat="63.3820999962" lon="8.84048333213">
		<tag k="name" v="Gammelsetra" />
		<tag k="place" v="isolated_dwelling" />
		<tag k="ssr:stedsnr" v="315644" />
	</node>
	<node id="-829165" lat="63.3810648607" lon="9.14440492649">
		<tag k="fixme" v="consider place=hamlet" />
		<tag k="name" v="Bjørkøylia" />
		<tag k="old_name" v="Bjørøylia" />
		<tag k="place" v="farm" />
		<tag k="ssr:stedsnr" v="376758" />
	</node>
	<node id="-827116" lat="63.4055916643" lon="8.98772222023">
		<tag k="name" v="Kobbsteinbukta" />
		<tag k="place" v="farm" />
		<tag k="ssr:stedsnr" v="741738" />
	</node>
	<node id="-829162" lat="63.4202797799" lon="9.07999243195">
		<tag k="fixme" v="consider place=hamlet" />
		<tag k="name" v="Heim" />
		<tag k="place" v="farm" />
		<tag k="ssr:stedsnr" v="971108" />
	</node>
	<node id="-829159" lat="63.2929555567" lon="9.0624861164">
		<tag k="name" v="Stølan" />
		<tag k="place" v="farm" />
		<tag k="ssr:stedsnr" v="272058" />
	</node>
	<node id="-829156" lat="63.2593250033" lon="9.01422221996">
		<tag k="name" v="Bakkan" />
		<tag k="place" v="farm" />
		<tag k="ssr:stedsnr" v="90628" />
	</node>
	<node id="-827097" lat="63.295933334" lon="9.07499167032">
		<tag k="fixme" v="consider place=suburb, village or hamlet" />
		<tag k="name" v="Haugen" />
		<tag k="place" v="quarter" />
		<tag k="ssr:stedsnr" v="90059" />
	</node>
	<node id="-829144" lat="63.3513111147" lon="9.11771388368">
		<tag k="name" v="Myran" />
		<tag k="place" v="farm" />
		<tag k="ssr:stedsnr" v="740517" />
	</node>
	<node id="-829140" lat="63.4144277783" lon="8.87543334028">
		<tag k="name" v="Almlia" />
		<tag k="place" v="farm" />
		<tag k="ssr:stedsnr" v="862643" />
	</node>
	<node id="-827083" lat="63.3633970454" lon="9.02562072542">
		<tag k="name" v="Nes" />
		<tag k="place" v="farm" />
		<tag k="ssr:stedsnr" v="540382" />
	</node>
	<node id="-829129" lat="63.3073750031" lon="9.07613888878">
		<tag k="name" v="Solberg" />
		<tag k="place" v="farm" />
		<tag k="ssr:stedsnr" v="498630" />
	</node>
	<node id="-827077" lat="63.2582361152" lon="8.99816389344">
		<tag k="alt_name" v="Lenesstølan" />
		<tag k="name" v="Stølan" />
		<tag k="place" v="farm" />
		<tag k="ssr:stedsnr" v="863886" />
	</node>
	<node id="-827072" lat="63.4124333337" lon="9.0283750041">
		<tag k="name" v="Søndre Bellsvika" />
		<tag k="place" v="farm" />
		<tag k="ssr:stedsnr" v="590216" />
	</node>
	<node id="-827068" lat="63.2405597044" lon="9.03189020683">
		<tag k="fixme" v="consider place=hamlet" />
		<tag k="name" v="Hunnes" />
		<tag k="place" v="farm" />
		<tag k="ssr:stedsnr" v="876909" />
	</node>
	<node id="-827067" lat="63.2457388925" lon="9.05864722311">
		<tag k="name" v="Sinneshaugen" />
		<tag k="place" v="isolated_dwelling" />
		<tag k="ssr:stedsnr" v="515530" />
	</node>
	<node id="-827066" lat="63.4088500029" lon="8.90638889611">
		<tag k="name" v="Nervika" />
		<tag k="place" v="farm" />
		<tag k="ssr:stedsnr" v="619676" />
	</node>
	<node id="-829112" lat="63.2785611156" lon="9.02694444593">
		<tag k="name" v="Strandgjerdet" />
		<tag k="place" v="farm" />
		<tag k="ssr:stedsnr" v="879072" />
	</node>
	<node id="-829107" lat="63.3087241569" lon="9.07290637438">
		<tag k="fixme" v="consider place=hamlet" />
		<tag k="name" v="Grøtan" />
		<tag k="place" v="farm" />
		<tag k="ssr:stedsnr" v="498632" />
	</node>
	<node id="-829106" lat="63.308524997" lon="9.13258332919">
		<tag k="name" v="Øyan" />
		<tag k="place" v="farm" />
		<tag k="ssr:stedsnr" v="939992" />
	</node>
	<node id="-827055" lat="63.4110749999" lon="8.87123888232">
		<tag k="alt_name" v="Tigarden" />
		<tag k="name" v="Tegarden" />
		<tag k="place" v="isolated_dwelling" />
		<tag k="ssr:stedsnr" v="619675" />
	</node>
	<node id="-829100" lat="63.2072638904" lon="9.07377499675">
		<tag k="historic" v="shieling" />
		<tag k="name" v="Klemenslættvollen" />
		<tag k="place" v="locality" />
		<tag k="ssr:stedsnr" v="211308" />
	</node>
	<node id="-829096" lat="63.2807777734" lon="8.93477500251">
		<tag k="historic" v="shieling" />
		<tag k="name" v="Bjørksetrin" />
		<tag k="place" v="locality" />
		<tag k="ssr:stedsnr" v="498618" />
	</node>
	<node id="-827043" lat="63.4313555533" lon="8.99566944097">
		<tag k="name" v="Snekkvikneset" />
		<tag k="place" v="farm" />
		<tag k="ssr:stedsnr" v="211604" />
	</node>
	<node id="-829088" lat="63.4008055599" lon="8.82291666382">
		<tag k="name" v="Novika" />
		<tag k="place" v="locality" />
		<tag k="ssr:stedsnr" v="150815" />
	</node>
	<node id="-828698" lat="63.2215833322" lon="9.0204250018">
		<tag k="name" v="Slettheim" />
		<tag k="place" v="farm" />
		<tag k="ssr:stedsnr" v="940772" />
	</node>
	<node id="-827027" lat="63.1812111083" lon="9.02310277611">
		<tag k="historic" v="shieling" />
		<tag k="name" v="Fagervollen" />
		<tag k="place" v="locality" />
		<tag k="ssr:stedsnr" v="194767" />
	</node>
	<node id="-829070" lat="63.1956357405" lon="8.94782366048">
		<tag k="fixme" v="consider place=hamlet" />
		<tag k="name" v="Berhalsen" />
		<tag k="place" v="farm" />
		<tag k="ssr:stedsnr" v="133773" />
	</node>
	<node id="-827015" lat="63.2235472256" lon="9.02078610196">
		<tag k="name" v="Nedre Stavås" />
		<tag k="place" v="farm" />
		<tag k="ssr:stedsnr" v="757668" />
	</node>
	<node id="-829062" lat="63.4402750021" lon="8.98602777918">
		<tag k="name" v="Ålføret" />
		<tag k="place" v="farm" />
		<tag k="ssr:stedsnr" v="923443" />
	</node>
	<node id="-829059" lat="63.3021583372" lon="8.9700694464">
		<tag k="historic" v="shieling" />
		<tag k="name" v="Haugasetra" />
		<tag k="place" v="locality" />
		<tag k="ssr:stedsnr" v="939951" />
	</node>
	<node id="-827008" lat="63.4437111125" lon="9.02348054791">
		<tag k="name" v="Stamnes nedre" />
		<tag k="place" v="farm" />
		<tag k="ssr:stedsnr" v="332617" />
	</node>
	<node id="-826993" lat="63.4072333573" lon="8.9462125111">
		<tag k="fixme" v="consider place=hamlet" />
		<tag k="name" v="Vågan" />
		<tag k="place" v="farm" />
		<tag k="ssr:stedsnr" v="333592" />
	</node>
	<node id="-826990" lat="63.1512619307" lon="9.07362800276">
		<tag k="fixme" v="consider place=hamlet" />
		<tag k="name" v="Kårholten" />
		<tag k="place" v="farm" />
		<tag k="ssr:stedsnr" v="619743" />
	</node>
	<node id="-829037" lat="63.3688555549" lon="9.00515834094">
		<tag k="name" v="Oshaugen" />
		<tag k="place" v="farm" />
		<tag k="ssr:stedsnr" v="255761" />
	</node>
	<node id="-826982" lat="63.4247249982" lon="9.09740554798">
		<tag k="name" v="Heimsjøen" />
		<tag k="place" v="farm" />
		<tag k="ssr:stedsnr" v="863418" />
	</node>
	<node id="-829029" lat="63.2466305557" lon="9.07770555767">
		<tag k="historic" v="shieling" />
		<tag k="name" v="Gammelsetra" />
		<tag k="place" v="locality" />
		<tag k="ssr:stedsnr" v="575170" />
	</node>
	<node id="-826978" lat="63.331302777" lon="8.89156388225">
		<tag k="name" v="Heian" />
		<tag k="place" v="isolated_dwelling" />
		<tag k="ssr:stedsnr" v="558582" />
	</node>
	<node id="-829023" lat="63.1547944436" lon="8.94958611966">
		<tag k="historic" v="shieling" />
		<tag k="name" v="Skjettenholsetra" />
		<tag k="place" v="locality" />
		<tag k="ssr:stedsnr" v="557784" />
	</node>
	<node id="-826971" lat="63.4205222235" lon="9.08773610477">
		<tag k="name" v="Olderbakkan" />
		<tag k="place" v="farm" />
		<tag k="ssr:stedsnr" v="922643" />
	</node>
	<node id="-826967" lat="63.1840638912" lon="9.01198056025">
		<tag k="historic" v="shieling" />
		<tag k="name" v="Storlia" />
		<tag k="place" v="locality" />
		<tag k="ssr:stedsnr" v="697781" />
	</node>
	<node id="-829008" lat="63.3350805552" lon="9.11695277437">
		<tag k="name" v="Lerneshaugen" />
		<tag k="place" v="farm" />
		<tag k="ssr:stedsnr" v="73568" />
	</node>
	<node id="-826959" lat="63.3199000019" lon="9.0926944414">
		<tag k="name" v="Skogly" />
		<tag k="place" v="farm" />
		<tag k="ssr:stedsnr" v="255514" />
	</node>
	<node id="-829006" lat="63.4238666705" lon="8.80796111751">
		<tag k="name" v="Taftøy" />
		<tag k="place" v="farm" />
		<tag k="ssr:stedsnr" v="922395" />
	</node>
	<node id="-826950" lat="63.1276916662" lon="9.04326666552">
		<tag k="name" v="Fossdalen" />
		<tag k="place" v="farm" />
		<tag k="ssr:stedsnr" v="315695" />
	</node>
	<node id="-828988" lat="63.3712527754" lon="9.16955277736">
		<tag k="name" v="Vollan" />
		<tag k="place" v="farm" />
		<tag k="ssr:stedsnr" v="150788" />
	</node>
	<node id="-828985" lat="63.1440388878" lon="9.08949722862">
		<tag k="name" v="Pallan" />
		<tag k="place" v="farm" />
		<tag k="ssr:stedsnr" v="376733" />
	</node>
	<node id="-828971" lat="63.4247305522" lon="8.78188610515">
		<tag k="name" v="Taftøybukta" />
		<tag k="place" v="farm" />
		<tag k="ssr:stedsnr" v="923430" />
	</node>
	<node id="-828970" lat="63.1335750042" lon="9.04521388257">
		<tag k="name" v="Mushaug" />
		<tag k="place" v="isolated_dwelling" />
		<tag k="ssr:stedsnr" v="718603" />
	</node>
	<node id="-826921" lat="63.2057099072" lon="9.05545063716">
		<tag k="fixme" v="consider place=hamlet" />
		<tag k="name" v="Stølen" />
		<tag k="place" v="farm" />
		<tag k="ssr:stedsnr" v="437794" />
	</node>
	<node id="-828968" lat="63.308086114" lon="9.07771389371">
		<tag k="name" v="Grøtvang" />
		<tag k="place" v="farm" />
		<tag k="ssr:stedsnr" v="393980" />
	</node>
	<node id="-826917" lat="63.2018013719" lon="8.98452355909">
		<tag k="fixme" v="consider place=hamlet" />
		<tag k="name" v="Fjelnset" />
		<tag k="place" v="farm" />
		<tag k="ssr:stedsnr" v="73797" />
	</node>
	<node id="-826914" lat="63.3490838477" lon="9.11426385243">
		<tag k="name" v="Kynnsvika" />
		<tag k="place" v="farm" />
		<tag k="ssr:stedsnr" v="409975" />
	</node>
	<node id="-826913" lat="63.2078751199" lon="8.87194809043">
		<tag k="fixme" v="consider tourism=alpine_hut or tourism=chalet" />
		<tag k="name" v="Sollia" />
		<tag k="ssr:stedsnr" v="583197" />
		<tag k="tourism" v="wilderness_hut" />
	</node>
	<node id="-828955" lat="63.1852444434" lon="8.78183610275">
		<tag k="name" v="Slættet" />
		<tag k="place" v="farm" />
		<tag k="ssr:stedsnr" v="393976" />
	</node>
	<node id="-828954" lat="63.3011388896" lon="9.052563894">
		<tag k="name" v="Klostret" />
		<tag k="place" v="farm" />
		<tag k="ssr:stedsnr" v="862595" />
	</node>
	<node id="-826897" lat="63.4486555548" lon="9.02571944606">
		<tag k="name" v="Skultrøa" />
		<tag k="place" v="farm" />
		<tag k="ssr:stedsnr" v="332620" />
	</node>
	<node id="-828944" lat="63.302022218" lon="9.14808055665">
		<tag k="name" v="Fagervollen" />
		<tag k="place" v="farm" />
		<tag k="ssr:stedsnr" v="195626" />
	</node>
	<node id="-828938" lat="63.3124583337" lon="9.15474166109">
		<tag k="name" v="Aunemo" />
		<tag k="place" v="farm" />
		<tag k="ssr:stedsnr" v="879882" />
	</node>
	<node id="-828933" lat="63.2244431123" lon="9.04491388333">
		<tag k="fixme" v="consider place=hamlet" />
		<tag k="name" v="Gravdalen" />
		<tag k="place" v="farm" />
		<tag k="ssr:stedsnr" v="133760" />
	</node>
	<node id="-826877" lat="63.3536416684" lon="9.12110277206">
		<tag k="name" v="Steinvika" />
		<tag k="place" v="farm" />
		<tag k="ssr:stedsnr" v="437717" />
	</node>
	<node id="-828921" lat="63.3062583289" lon="9.17218333146">
		<tag k="name" v="Øyan" />
		<tag k="place" v="farm" />
		<tag k="ssr:stedsnr" v="862605" />
	</node>
	<node id="-826872" lat="63.3692686927" lon="8.9156410277">
		<tag k="fixme" v="consider place=hamlet" />
		<tag k="name" v="Sengsdalen" />
		<tag k="place" v="farm" />
		<tag k="ssr:stedsnr" v="437722" />
	</node>
	<node id="-826869" lat="63.4427694471" lon="9.01493611221">
		<tag k="name" v="Sollia" />
		<tag k="place" v="farm" />
		<tag k="ssr:stedsnr" v="332612" />
	</node>
	<node id="-828913" lat="63.320855555" lon="9.09567500988">
		<tag k="name" v="Sørstua" />
		<tag k="place" v="farm" />
		<tag k="ssr:stedsnr" v="740486" />
	</node>
	<node id="-828911" lat="63.2923249992" lon="9.11428889087">
		<tag k="name" v="Merkeneset" />
		<tag k="place" v="hamlet" />
		<tag k="ssr:stedsnr" v="879022" />
	</node>
	<node id="-826861" lat="63.3055388902" lon="9.13287499821">
		<tag k="name" v="Spjøtvollan" />
		<tag k="place" v="quarter" />
		<tag k="ssr:stedsnr" v="619637" />
	</node>
	<node id="-826851" lat="63.1892499996" lon="8.81802222645">
		<tag k="name" v="Hovdtrøa" />
		<tag k="place" v="farm" />
		<tag k="ssr:stedsnr" v="90884" />
	</node>
	<node id="-828897" lat="63.3699055581" lon="9.12161387891">
		<tag k="historic" v="shieling" />
		<tag k="name" v="Oddsetra" />
		<tag k="place" v="locality" />
		<tag k="ssr:stedsnr" v="255741" />
	</node>
	<node id="-828896" lat="63.285872222" lon="9.08724721887">
		<tag k="fixme" v="consider place=hamlet" />
		<tag k="name" v="Kjørse" />
		<tag k="place" v="farm" />
		<tag k="ssr:stedsnr" v="59864" />
	</node>
	<node id="-826845" lat="63.297233333" lon="9.06408055986">
		<tag k="name" v="Øyan" />
		<tag k="place" v="farm" />
		<tag k="ssr:stedsnr" v="619635" />
	</node>
	<node id="-826843" lat="63.171822219" lon="8.91692777916">
		<tag k="historic" v="shieling" />
		<tag k="name" v="Grønsetsetra" />
		<tag k="place" v="locality" />
		<tag k="ssr:stedsnr" v="330946" />
	</node>
	<node id="-828885" lat="63.3016611138" lon="8.97043332348">
		<tag k="historic" v="shieling" />
		<tag k="name" v="Vessesetra" />
		<tag k="place" v="locality" />
		<tag k="ssr:stedsnr" v="195619" />
	</node>
	<node id="-826835" lat="63.2634499978" lon="9.01767778325">
		<tag k="name" v="Lenesøyan" />
		<tag k="place" v="farm" />
		<tag k="ssr:stedsnr" v="575444" />
	</node>
	<node id="-828882" lat="63.3032416693" lon="9.08289166256">
		<tag k="fixme" v="consider place=suburb, village or hamlet" />
		<tag k="name" v="Kristentrøa" />
		<tag k="place" v="quarter" />
		<tag k="ssr:stedsnr" v="393968" />
	</node>
	<node id="-828880" lat="63.3243776127" lon="8.98365660074">
		<tag k="fixme" v="consider place=hamlet" />
		<tag k="name" v="Tverrdalen" />
		<tag k="place" v="farm" />
		<tag k="ssr:stedsnr" v="740483" />
	</node>
	<node id="-826829" lat="63.3132722188" lon="9.15370000616">
		<tag k="name" v="Holten" />
		<tag k="place" v="farm" />
		<tag k="ssr:stedsnr" v="90877" />
	</node>
	<node id="-826828" lat="63.3053555528" lon="9.1981944519">
		<tag k="name" v="Slættet" />
		<tag k="place" v="farm" />
		<tag k="ssr:stedsnr" v="316664" />
	</node>
	<node id="-826827" lat="63.2076027897" lon="8.99607303401">
		<tag k="fixme" v="consider place=hamlet" />
		<tag k="name" v="Vinjan" />
		<tag k="place" v="farm" />
		<tag k="ssr:stedsnr" v="862791" />
	</node>
	<node id="-828873" lat="63.1925305108" lon="9.0202692132">
		<tag k="fixme" v="consider place=hamlet" />
		<tag k="name" v="Brekka" />
		<tag k="place" v="farm" />
		<tag k="ssr:stedsnr" v="558830" />
	</node>
	<node id="-828870" lat="63.3135499969" lon="9.08353334243">
		<tag k="alt_name" v="Alstadplassen" />
		<tag k="name" v="Alstad" />
		<tag k="place" v="farm" />
		<tag k="ssr:stedsnr" v="73548" />
	</node>
	<node id="-828869" lat="63.3114861077" lon="8.96104443871">
		<tag k="name" v="Sørgarden" />
		<tag k="place" v="isolated_dwelling" />
		<tag k="ssr:stedsnr" v="498584" />
	</node>
	<node id="-826820" lat="63.2355138847" lon="8.91423611076">
		<tag k="historic" v="shieling" />
		<tag k="name" v="Sophaugen" />
		<tag k="place" v="locality" />
		<tag k="ssr:stedsnr" v="497759" />
	</node>
	<node id="-826817" lat="63.3033249969" lon="9.18271389506">
		<tag k="name" v="Myrvang" />
		<tag k="place" v="farm" />
		<tag k="ssr:stedsnr" v="619646" />
	</node>
	<node id="-828864" lat="63.1954333332" lon="9.06974167516">
		<tag k="historic" v="shieling" />
		<tag k="name" v="Slættet" />
		<tag k="place" v="locality" />
		<tag k="ssr:stedsnr" v="332283" />
	</node>
	<node id="-828858" lat="63.2131929995" lon="9.06372291595">
		<tag k="fixme" v="consider place=hamlet" />
		<tag k="name" v="Sødalen" />
		<tag k="place" v="farm" />
		<tag k="ssr:stedsnr" v="801748" />
	</node>
	<node id="-828857" lat="63.2348255794" lon="9.06272073644">
		<tag k="name" v="Lidalen" />
		<tag k="place" v="farm" />
		<tag k="ssr:stedsnr" v="133744" />
	</node>
	<node id="-828852" lat="63.1943963349" lon="8.932329291">
		<tag k="name" v="Haukvika" />
		<tag k="place" v="farm" />
		<tag k="ssr:stedsnr" v="150859" />
	</node>
	<node id="-828846" lat="63.3604863275" lon="9.17901645718">
		<tag k="fixme" v="consider place=hamlet" />
		<tag k="name" v="Næløya" />
		<tag k="place" v="farm" />
		<tag k="ssr:stedsnr" v="971113" />
	</node>
	<node id="-828845" lat="63.3939535164" lon="9.15280599173">
		<tag k="fixme" v="consider place=hamlet" />
		<tag k="name" v="Sponlandet" />
		<tag k="place" v="farm" />
		<tag k="ssr:stedsnr" v="390743" />
	</node>
	<node id="-826792" lat="63.307061113" lon="9.14826111194">
		<tag k="name" v="Nygard" />
		<tag k="place" v="farm" />
		<tag k="ssr:stedsnr" v="619624" />
	</node>
	<node id="-826790" lat="63.2432972186" lon="9.17931111023">
		<tag k="historic" v="shieling" />
		<tag k="name" v="Hollbusetra" />
		<tag k="place" v="locality" />
		<tag k="ssr:stedsnr" v="194739" />
	</node>
	<node id="-826787" lat="63.3686588655" lon="9.14605132094">
		<tag k="name" v="Oddan" />
		<tag k="place" v="farm" />
		<tag k="ssr:stedsnr" v="437703" />
	</node>
	<node id="-826785" lat="63.2395888877" lon="9.07364999486">
		<tag k="name" v="Stollsmo" />
		<tag k="place" v="farm" />
		<tag k="ssr:stedsnr" v="862770" />
	</node>
	<node id="-826782" lat="63.214954856" lon="9.34898127486">
		<tag k="fixme" v="consider place=hamlet" />
		<tag k="name" v="Bjørnslia" />
		<tag k="place" v="farm" />
		<tag k="ssr:stedsnr" v="315586" />
	</node>
	<node id="-826781" lat="63.2741722249" lon="9.16344167496">
		<tag k="historic" v="shieling" />
		<tag k="name" v="Sagasetra" />
		<tag k="place" v="locality" />
		<tag k="ssr:stedsnr" v="13926" />
	</node>
	<node id="-826774" lat="63.2708083326" lon="9.01023889331">
		<tag k="name" v="Saga" />
		<tag k="place" v="farm" />
		<tag k="ssr:stedsnr" v="13923" />
	</node>
	<node id="-826769" lat="63.2348749985" lon="9.11473611141">
		<tag k="historic" v="shieling" />
		<tag k="name" v="Stolsmosetra" />
		<tag k="place" v="locality" />
		<tag k="ssr:stedsnr" v="497750" />
	</node>
	<node id="-826766" lat="63.3514333373" lon="8.952138893">
		<tag k="historic" v="shieling" />
		<tag k="name" v="Nerlægda" />
		<tag k="place" v="locality" />
		<tag k="ssr:stedsnr" v="437707" />
	</node>
	<node id="-826764" lat="63.4285361075" lon="8.81912500285">
		<tag k="name" v="Sjøtun" />
		<tag k="place" v="farm" />
		<tag k="ssr:stedsnr" v="134463" />
	</node>
	<node id="-826762" lat="63.246352782" lon="8.87243333639">
		<tag k="historic" v="shieling" />
		<tag k="name" v="Skardsetra" />
		<tag k="place" v="locality" />
		<tag k="ssr:stedsnr" v="12850" />
	</node>
	<node id="-828809" lat="63.3039861076" lon="9.18483056155">
		<tag k="name" v="Saghaugen" />
		<tag k="place" v="farm" />
		<tag k="ssr:stedsnr" v="939885" />
	</node>
	<node id="-828807" lat="63.2911083365" lon="9.06098054714">
		<tag k="name" v="Hagan" />
		<tag k="place" v="farm" />
		<tag k="ssr:stedsnr" v="393072" />
	</node>
	<node id="-828805" lat="63.2851518487" lon="9.08003185009">
		<tag k="name" v="Skeiet" />
		<tag k="place" v="farm" />
		<tag k="ssr:stedsnr" v="438575" />
	</node>
	<node id="-826752" lat="63.208432361" lon="9.16109568495">
		<tag k="fixme" v="consider place=hamlet" />
		<tag k="name" v="Søylia" />
		<tag k="place" v="farm" />
		<tag k="ssr:stedsnr" v="195777" />
	</node>
	<node id="-828799" lat="63.3597111119" lon="9.02470278169">
		<tag k="name" v="Neshaugen" />
		<tag k="place" v="farm" />
		<tag k="ssr:stedsnr" v="376708" />
	</node>
	<node id="-826750" lat="63.2762555539" lon="9.0633194348">
		<tag k="name" v="Gjerstadlia" />
		<tag k="place" v="farm" />
		<tag k="ssr:stedsnr" v="13919" />
	</node>
	<node id="-826749" lat="63.2302694423" lon="9.34807777368">
		<tag k="name" v="Slupphaugen" />
		<tag k="place" v="farm" />
		<tag k="ssr:stedsnr" v="922545" />
	</node>
	<node id="-826748" lat="63.426008337" lon="8.8160361044">
		<tag k="name" v="Nordheim" />
		<tag k="place" v="farm" />
		<tag k="ssr:stedsnr" v="802480" />
	</node>
	<node id="-826743" lat="63.423401207" lon="8.86851754603">
		<tag k="alt_name" v="Bakken" />
		<tag k="fixme" v="consider place=hamlet" />
		<tag k="name" v="Bakkan" />
		<tag k="place" v="farm" />
		<tag k="ssr:stedsnr" v="802483" />
	</node>
	<node id="-828790" lat="63.366413892" lon="9.1551638871">
		<tag k="name" v="Gjengstøa" />
		<tag k="place" v="farm" />
		<tag k="ssr:stedsnr" v="680746" />
	</node>
	<node id="-826738" lat="63.4061583319" lon="8.94731944381">
		<tag k="name" v="Vågan" />
		<tag k="place" v="farm" />
		<tag k="ssr:stedsnr" v="740643" />
	</node>
	<node id="-826735" lat="63.3949805583" lon="8.97985277348">
		<tag k="alt_name" v="Sæterdal øvre" />
		<tag k="name" v="Øvre Sæterdal" />
		<tag k="place" v="farm" />
		<tag k="ssr:stedsnr" v="757638" />
	</node>
	<node id="-826732" lat="63.2160666706" lon="9.12043056494">
		<tag k="historic" v="shieling" />
		<tag k="name" v="Pallen" />
		<tag k="place" v="locality" />
		<tag k="ssr:stedsnr" v="195780" />
	</node>
	<node id="-828775" lat="63.260788893" lon="9.0103361206">
		<tag k="name" v="Steinan" />
		<tag k="place" v="farm" />
		<tag k="ssr:stedsnr" v="575088" />
	</node>
	<node id="-826725" lat="63.3612833309" lon="8.9234750075">
		<tag k="name" v="Baklia" />
		<tag k="place" v="farm" />
		<tag k="ssr:stedsnr" v="498762" />
	</node>
	<node id="-828772" lat="63.2830916681" lon="8.99097222736">
		<tag k="historic" v="shieling" />
		<tag k="name" v="Bjørksetra" />
		<tag k="place" v="locality" />
		<tag k="ssr:stedsnr" v="939055" />
	</node>
	<node id="-826722" lat="63.417533336" lon="9.0425361194">
		<tag k="name" v="Nordgjerdet" />
		<tag k="place" v="farm" />
		<tag k="ssr:stedsnr" v="801413" />
	</node>
	<node id="-826721" lat="63.415772221" lon="9.02491389045">
		<tag k="alt_name" v="Belsvik" />
		<tag k="name" v="Bellsvika" />
		<tag k="place" v="farm" />
		<tag k="ssr:stedsnr" v="515445" />
	</node>
	<node id="-828768" lat="63.2044555552" lon="9.00224444405">
		<tag k="name" v="Skeisbakkan" />
		<tag k="place" v="farm" />
		<tag k="ssr:stedsnr" v="393914" />
	</node>
	<node id="-828767" lat="63.3242999999" lon="8.91008056044">
		<tag k="historic" v="shieling" />
		<tag k="name" v="Grasskardsetra" />
		<tag k="place" v="locality" />
		<tag k="ssr:stedsnr" v="497537" />
	</node>
	<node id="-826716" lat="63.2123472179" lon="9.05152499356">
		<tag k="name" v="Myrvang" />
		<tag k="place" v="farm" />
		<tag k="ssr:stedsnr" v="195775" />
	</node>
	<node id="-828759" lat="63.4002861089" lon="8.9729138927">
		<tag k="name" v="Solhaugen" />
		<tag k="place" v="farm" />
		<tag k="ssr:stedsnr" v="376694" />
	</node>
	<node id="-828758" lat="63.2844444449" lon="9.16736666211">
		<tag k="historic" v="shieling" />
		<tag k="name" v="Anesetra" />
		<tag k="place" v="locality" />
		<tag k="ssr:stedsnr" v="195593" />
	</node>
	<node id="-826708" lat="63.3383916644" lon="8.88642777171">
		<tag k="name" v="Åsgardsetra" />
		<tag k="place" v="locality" />
		<tag k="ssr:stedsnr" v="618534" />
	</node>
	<node id="-828754" lat="63.1851361067" lon="8.85631388272">
		<tag k="name" v="Bakkan" />
		<tag k="place" v="farm" />
		<tag k="ssr:stedsnr" v="879837" />
	</node>
	<node id="-826704" lat="63.3635583298" lon="8.91696388485">
		<tag k="name" v="Øravollen" />
		<tag k="place" v="isolated_dwelling" />
		<tag k="ssr:stedsnr" v="757603" />
	</node>
	<node id="-826700" lat="63.308465886" lon="9.08929955503">
		<tag k="fixme" v="consider place=hamlet" />
		<tag k="name" v="Grøtneset" />
		<tag k="place" v="farm" />
		<tag k="ssr:stedsnr" v="316640" />
	</node>
	<node id="-826699" lat="63.2345722254" lon="9.0352333286">
		<tag k="name" v="Eidsvoll" />
		<tag k="place" v="farm" />
		<tag k="ssr:stedsnr" v="150190" />
	</node>
	<node id="-828746" lat="63.1922666693" lon="8.85382499935">
		<tag k="name" v="Hansstua" />
		<tag k="place" v="farm" />
		<tag k="ssr:stedsnr" v="90564" />
	</node>
	<node id="-826695" lat="63.2433194457" lon="8.99601666367">
		<tag k="name" v="Gammelsetra" />
		<tag k="place" v="locality" />
		<tag k="ssr:stedsnr" v="572945" />
	</node>
	<node id="-826694" lat="63.2228166641" lon="9.24033889455">
		<tag k="name" v="Garden" />
		<tag k="place" v="farm" />
		<tag k="ssr:stedsnr" v="635249" />
	</node>
	<node id="-828740" lat="63.4249805521" lon="8.83796388327">
		<tag k="name" v="Avlesbugen" />
		<tag k="place" v="farm" />
		<tag k="ssr:stedsnr" v="316474" />
	</node>
	<node id="-828738" lat="63.2076416686" lon="8.98710555915">
		<tag k="name" v="Gammeløra" />
		<tag k="place" v="farm" />
		<tag k="ssr:stedsnr" v="818892" />
	</node>
	<node id="-826688" lat="63.2887583292" lon="9.10589999227">
		<tag k="name" v="Sagneset" />
		<tag k="place" v="farm" />
		<tag k="ssr:stedsnr" v="741669" />
	</node>
	<node id="-826687" lat="63.2232250036" lon="9.23814443878">
		<tag k="name" v="Vasslia" />
		<tag k="place" v="hamlet" />
		<tag k="ssr:stedsnr" v="635247" />
	</node>
	<node id="-828733" lat="63.3563277771" lon="8.97861111896">
		<tag k="historic" v="shieling" />
		<tag k="name" v="Hellandsetra" />
		<tag k="place" v="locality" />
		<tag k="ssr:stedsnr" v="879854" />
	</node>
	<node id="-826680" lat="63.2472816007" lon="9.05347402107">
		<tag k="name" v="Sinnes" />
		<tag k="place" v="farm" />
		<tag k="ssr:stedsnr" v="150180" />
	</node>
	<node id="-826678" lat="63.4453861109" lon="9.00196111361">
		<tag k="name" v="Gjengstø vestre" />
		<tag k="place" v="farm" />
		<tag k="ssr:stedsnr" v="757591" />
	</node>
	<node id="-828725" lat="63.4168305569" lon="9.03597221549">
		<tag k="alt_name" v="Moen" />
		<tag k="name" v="Øvermoen" />
		<tag k="place" v="farm" />
		<tag k="ssr:stedsnr" v="315402" />
	</node>
	<node id="-826676" lat="63.354105728" lon="8.92223488507">
		<tag k="fixme" v="consider place=hamlet" />
		<tag k="name" v="Djupsetra" />
		<tag k="place" v="farm" />
		<tag k="ssr:stedsnr" v="73697" />
	</node>
	<node id="-828721" lat="63.4153111068" lon="9.03907221409">
		<tag k="name" v="Sørheim" />
		<tag k="place" v="farm" />
		<tag k="ssr:stedsnr" v="315400" />
	</node>
	<node id="-828717" lat="63.2764111082" lon="9.05881665828">
		<tag k="name" v="Sandbukta" />
		<tag k="place" v="farm" />
		<tag k="ssr:stedsnr" v="393104" />
	</node>
	<node id="-828716" lat="63.3209416676" lon="9.03427222267">
		<tag k="historic" v="shieling" />
		<tag k="name" v="Alstadsetra" />
		<tag k="place" v="locality" />
		<tag k="ssr:stedsnr" v="437537" />
	</node>
	<node id="-826666" lat="63.2883583377" lon="9.24256111405">
		<tag k="alt_name" v="Novbuslættet" />
		<tag k="name" v="Nogbuslettet" />
		<tag k="place" v="locality" />
		<tag k="ssr:stedsnr" v="438207" />
	</node>
	<node id="-826664" lat="63.1485694416" lon="8.86208887929">
		<tag k="historic" v="shieling" />
		<tag k="name" v="Hofsetsetra" />
		<tag k="place" v="locality" />
		<tag k="ssr:stedsnr" v="390880" />
	</node>
	<node id="-826662" lat="63.4493611081" lon="9.02714445418">
		<tag k="name" v="Stamnestrøa" />
		<tag k="place" v="farm" />
		<tag k="ssr:stedsnr" v="680419" />
	</node>
	<node id="-826658" lat="63.37991111" lon="8.99903888887">
		<tag k="fixme" v="multiple name tags, choose one and add the other to alt_name" />
		<tag k="name" v="Nygård;Myran" />
		<tag k="place" v="farm" />
		<tag k="ssr:stedsnr" v="740632" />
	</node>
	<node id="-826653" lat="63.3171916698" lon="9.14870278374">
		<tag k="building" v="industrial" />
		<tag k="name" v="Saga" />
		<tag k="ssr:stedsnr" v="29998" />
	</node>
	<node id="-826651" lat="63.3076236562" lon="9.08426913174">
		<tag k="name" v="Øvre Grøtneset" />
		<tag k="place" v="farm" />
		<tag k="ssr:stedsnr" v="954193" />
	</node>
	<node id="-826650" lat="63.3583777781" lon="8.9767555506">
		<tag k="name" v="Nesøyan" />
		<tag k="place" v="farm" />
		<tag k="ssr:stedsnr" v="73693" />
	</node>
	<node id="-828692" lat="63.2383027796" lon="9.18453610681">
		<tag k="historic" v="shieling" />
		<tag k="name" v="Sinnessetra" />
		<tag k="place" v="locality" />
		<tag k="ssr:stedsnr" v="133739" />
	</node>
	<node id="-826641" lat="63.2809441232" lon="9.03375799034">
		<tag k="fixme" v="consider place=hamlet" />
		<tag k="name" v="Stranda" />
		<tag k="place" v="farm" />
		<tag k="ssr:stedsnr" v="316630" />
	</node>
	<node id="-826639" lat="63.4502611085" lon="8.99963611997">
		<tag k="name" v="Stranda" />
		<tag k="place" v="farm" />
		<tag k="ssr:stedsnr" v="134434" />
	</node>
	<node id="-828679" lat="63.2880750019" lon="9.08113889594">
		<tag k="name" v="Holstgarden" />
		<tag k="place" v="farm" />
		<tag k="ssr:stedsnr" v="818033" />
	</node>
	<node id="-826698" lat="63.269063893" lon="9.00655555991">
		<tag k="name" v="Moslættet" />
		<tag k="place" v="farm" />
		<tag k="ssr:stedsnr" v="13910" />
	</node>
	<node id="-826922" lat="63.3609444471" lon="9.02598610976">
		<tag k="name" v="Nes" />
		<tag k="place" v="hamlet" />
		<tag k="ssr:stedsnr" v="514745" />
	</node>
	<node id="-826614" lat="63.3917166683" lon="8.97983054809">
		<tag k="name" v="Liabakkan" />
		<tag k="place" v="farm" />
		<tag k="ssr:stedsnr" v="29733" />
	</node>
	<node id="-826612" lat="63.4289305594" lon="9.08396944819">
		<tag k="name" v="Nordheim" />
		<tag k="place" v="isolated_dwelling" />
		<tag k="ssr:stedsnr" v="316472" />
	</node>
	<node id="-826605" lat="63.4203526833" lon="8.97667877762">
		<tag k="alt_name" v="Bjørknes" />
		<tag k="name" v="Bjørkneset" />
		<tag k="place" v="farm" />
		<tag k="ssr:stedsnr" v="991130" />
	</node>
	<node id="-826604" lat="63.1872299492" lon="8.78992120231">
		<tag k="name" v="Bjørknes" />
		<tag k="place" v="farm" />
		<tag k="ssr:stedsnr" v="991129" />
	</node>
	<node id="-826598" lat="63.3454000025" lon="9.11731665792">
		<tag k="name" v="Fitjan" />
		<tag k="old_name" v="Fitjørnan" />
		<tag k="place" v="farm" />
		<tag k="ssr:stedsnr" v="618521" />
	</node>
	<node id="-826597" lat="63.362163814" lon="9.02491622549">
		<tag k="fixme" v="consider place=hamlet" />
		<tag k="name" v="Nes" />
		<tag k="place" v="farm" />
		<tag k="ssr:stedsnr" v="862735" />
	</node>
	<node id="-826596" lat="63.3192361145" lon="9.17210000729">
		<tag k="name" v="Sørvika" />
		<tag k="place" v="locality" />
		<tag k="ssr:stedsnr" v="876786" />
	</node>
	<node id="-828639" lat="63.2598305552" lon="8.98075277446">
		<tag k="alt_name" v="Momyr" />
		<tag k="name" v="Momyra" />
		<tag k="place" v="farm" />
		<tag k="ssr:stedsnr" v="923909" />
	</node>
	<node id="-828638" lat="63.4354334736" lon="9.08739176152">
		<tag k="fixme" v="multiple name tags, choose one and add the other to alt_name" />
		<tag k="name" v="Torevika;Setervika" />
		<tag k="place" v="farm" />
		<tag k="ssr:stedsnr" v="316447" />
	</node>
	<node id="-828633" lat="63.2592944446" lon="9.0002138926">
		<tag k="name" v="Holten" />
		<tag k="place" v="farm" />
		<tag k="ssr:stedsnr" v="923910" />
	</node>
	<node id="-826576" lat="63.1902833328" lon="8.86553332696">
		<tag k="name" v="Reitan" />
		<tag k="place" v="farm" />
		<tag k="ssr:stedsnr" v="757568" />
	</node>
	<node id="-826574" lat="63.4127531933" lon="9.02764654835">
		<tag k="fixme" v="consider place=hamlet" />
		<tag k="name" v="Bellsvika" />
		<tag k="place" v="farm" />
		<tag k="ssr:stedsnr" v="437679" />
	</node>
	<node id="-828621" lat="63.3961027756" lon="8.98097777416">
		<tag k="name" v="Nydal" />
		<tag k="place" v="farm" />
		<tag k="ssr:stedsnr" v="150704" />
	</node>
	<node id="-826571" lat="63.3400639753" lon="9.12887226298">
		<tag k="fixme" v="consider place=hamlet" />
		<tag k="name" v="Lernes" />
		<tag k="place" v="farm" />
		<tag k="ssr:stedsnr" v="269780" />
	</node>
	<node id="-826568" lat="63.4020833335" lon="9.00642499046">
		<tag k="name" v="Reitan" />
		<tag k="place" v="isolated_dwelling" />
		<tag k="ssr:stedsnr" v="437678" />
	</node>
	<node id="-826567" lat="63.2765166709" lon="9.06178610941">
		<tag k="name" v="Sandbukta" />
		<tag k="place" v="locality" />
		<tag k="ssr:stedsnr" v="876777" />
	</node>
	<node id="-828613" lat="63.3529555558" lon="8.96898333499">
		<tag k="historic" v="shieling" />
		<tag k="name" v="Lisetra" />
		<tag k="place" v="locality" />
		<tag k="ssr:stedsnr" v="680730" />
	</node>
	<node id="-828606" lat="63.3871388921" lon="8.90386111408">
		<tag k="name" v="Vågsetra" />
		<tag k="place" v="locality" />
		<tag k="ssr:stedsnr" v="12641" />
	</node>
	<node id="-826557" lat="63.3947111145" lon="8.99031389353">
		<tag k="name" v="Hellandstolen" />
		<tag k="place" v="farm" />
		<tag k="ssr:stedsnr" v="876781" />
	</node>
	<node id="-828603" lat="63.445119445" lon="9.02957222598">
		<tag k="name" v="Skoglund" />
		<tag k="place" v="farm" />
		<tag k="ssr:stedsnr" v="228503" />
	</node>
	<node id="-826553" lat="63.3330222183" lon="9.20768611102">
		<tag k="name" v="Sperilla" />
		<tag k="place" v="farm" />
		<tag k="ssr:stedsnr" v="273933" />
	</node>
	<node id="-826550" lat="63.3696166655" lon="9.16825277698">
		<tag k="name" v="Sandvika" />
		<tag k="place" v="farm" />
		<tag k="ssr:stedsnr" v="90800" />
	</node>
	<node id="-828616" lat="63.2723388881" lon="8.89068889876">
		<tag k="name" v="Nysætra" />
		<tag k="place" v="isolated_dwelling" />
		<tag k="ssr:stedsnr" v="316967" />
	</node>
	<node id="-828587" lat="63.4399018653" lon="9.0787735234">
		<tag k="fixme" v="consider place=hamlet" />
		<tag k="name" v="Oterneset" />
		<tag k="place" v="farm" />
		<tag k="ssr:stedsnr" v="316448" />
	</node>
	<node id="-828585" lat="63.2750166691" lon="9.05470278416">
		<tag k="name" v="Roøyan" />
		<tag k="place" v="farm" />
		<tag k="ssr:stedsnr" v="619938" />
	</node>
	<node id="-826531" lat="63.3071194453" lon="9.13162500616">
		<tag k="name" v="Hagan" />
		<tag k="place" v="farm" />
		<tag k="ssr:stedsnr" v="150989" />
	</node>
	<node id="-826907" lat="63.3036222216" lon="8.86692778701">
		<tag k="name" v="Valhaugan" />
		<tag k="place" v="locality" />
		<tag k="ssr:stedsnr" v="923625" />
	</node>
	<node id="-828571" lat="63.454399996" lon="9.02424167606">
		<tag k="name" v="Vikan" />
		<tag k="place" v="farm" />
		<tag k="ssr:stedsnr" v="316438" />
	</node>
	<node id="-828570" lat="63.4298527783" lon="9.04475833065">
		<tag k="name" v="Furuly" />
		<tag k="place" v="farm" />
		<tag k="ssr:stedsnr" v="741479" />
	</node>
	<node id="-826519" lat="63.3430638903" lon="9.12589166822">
		<tag k="name" v="Leirvågen" />
		<tag k="place" v="farm" />
		<tag k="ssr:stedsnr" v="315537" />
	</node>
	<node id="-826518" lat="63.2737883414" lon="9.01272243215">
		<tag k="fixme" v="consider place=hamlet" />
		<tag k="name" v="Bjørkan" />
		<tag k="place" v="farm" />
		<tag k="ssr:stedsnr" v="134932" />
	</node>
	<node id="-828562" lat="63.3727222256" lon="9.17445555659">
		<tag k="name" v="Oddlia" />
		<tag k="place" v="farm" />
		<tag k="ssr:stedsnr" v="558790" />
	</node>
	<node id="-828560" lat="63.229819448" lon="9.32514166918">
		<tag k="fixme" v="consider place=hamlet" />
		<tag k="name" v="Sluppen" />
		<tag k="place" v="farm" />
		<tag k="ssr:stedsnr" v="514254" />
	</node>
	<node id="-829293" lat="63.2591361125" lon="9.0068888857">
		<tag k="name" v="Lenes" />
		<tag k="place" v="hamlet" />
		<tag k="ssr:stedsnr" v="635090" />
	</node>
	<node id="-828556" lat="63.296780558" lon="9.23465278385">
		<tag k="alt_name" v="Aunsetra" />
		<tag k="historic" v="shieling" />
		<tag k="name" v="Aunsætra" />
		<tag k="place" v="locality" />
		<tag k="ssr:stedsnr" v="680224" />
	</node>
	<node id="-828552" lat="63.399486114" lon="8.98530833477">
		<tag k="name" v="Helland" />
		<tag k="place" v="farm" />
		<tag k="ssr:stedsnr" v="255699" />
	</node>
	<node id="-828551" lat="63.4217333366" lon="8.78899444354">
		<tag k="name" v="Oterøteret" />
		<tag k="place" v="isolated_dwelling" />
		<tag k="ssr:stedsnr" v="150689" />
	</node>
	<node id="-826500" lat="63.192841663" lon="8.85705277033">
		<tag k="name" v="Grova" />
		<tag k="place" v="farm" />
		<tag k="ssr:stedsnr" v="697558" />
	</node>
	<node id="-827242" lat="63.1904555552" lon="8.87264722094">
		<tag k="name" v="Oppsal" />
		<tag k="place" v="farm" />
		<tag k="ssr:stedsnr" v="515584" />
	</node>
	<node id="-826489" lat="63.3737000033" lon="9.14538889111">
		<tag k="name" v="Oddstølen" />
		<tag k="place" v="farm" />
		<tag k="ssr:stedsnr" v="862718" />
	</node>
	<node id="-828534" lat="63.2969083324" lon="9.25934722771">
		<tag k="alt_name" v="Stølsetra" />
		<tag k="name" v="Stølsætra" />
		<tag k="place" v="isolated_dwelling" />
		<tag k="ssr:stedsnr" v="680221" />
	</node>
	<node id="-826479" lat="63.3713505836" lon="8.94931988632">
		<tag k="fixme" v="consider place=hamlet" />
		<tag k="name" v="Valåsen" />
		<tag k="place" v="farm" />
		<tag k="ssr:stedsnr" v="862719" />
	</node>
	<node id="-828525" lat="63.2065249959" lon="8.99065555761">
		<tag k="name" v="Vinje nedre" />
		<tag k="place" v="farm" />
		<tag k="ssr:stedsnr" v="451920" />
	</node>
	<node id="-826471" lat="63.1694472222" lon="8.91083610878">
		<tag k="historic" v="shieling" />
		<tag k="name" v="Oppsalsetra" />
		<tag k="place" v="locality" />
		<tag k="ssr:stedsnr" v="12799" />
	</node>
	<node id="-829286" lat="63.145049998" lon="9.1209972263">
		<tag k="name" v="Gammelhøyløslættet" />
		<tag k="place" v="isolated_dwelling" />
		<tag k="ssr:stedsnr" v="514433" />
	</node>
	<node id="-829285" lat="63.2939361068" lon="9.07730000456">
		<tag k="leisure" v="pitch" />
		<tag k="name" v="Idrettsplassen" />
		<tag k="ssr:stedsnr" v="150025" />
	</node>
	<node id="-828501" lat="63.1376866114" lon="9.10098379942">
		<tag k="fixme" v="consider place=hamlet" />
		<tag k="name" v="Kårøyan" />
		<tag k="place" v="farm" />
		<tag k="ssr:stedsnr" v="133697" />
	</node>
	<node id="-828500" lat="63.4586162882" lon="9.04688027981">
		<tag k="fixme" v="consider place=hamlet" />
		<tag k="name" v="Stamnesøya" />
		<tag k="place" v="farm" />
		<tag k="ssr:stedsnr" v="741449" />
	</node>
	<node id="-826450" lat="63.1936138891" lon="8.85132499825">
		<tag k="name" v="Hofset" />
		<tag k="place" v="farm" />
		<tag k="ssr:stedsnr" v="757560" />
	</node>
	<node id="-828494" lat="63.2685083327" lon="8.9561222316">
		<tag k="historic" v="shieling" />
		<tag k="name" v="Mosetra" />
		<tag k="place" v="locality" />
		<tag k="ssr:stedsnr" v="316951" />
	</node>
	<node id="-828492" lat="63.2169138913" lon="8.96610277041">
		<tag k="name" v="Grytvasshytta" />
		<tag k="place" v="isolated_dwelling" />
		<tag k="ssr:stedsnr" v="636580" />
	</node>
	<node id="-828491" lat="63.3104416702" lon="9.18646388695">
		<tag k="name" v="Stølan" />
		<tag k="place" v="farm" />
		<tag k="ssr:stedsnr" v="393884" />
	</node>
	<node id="-828485" lat="63.3421194439" lon="9.1154194515">
		<tag k="building" v="industrial" />
		<tag k="name" v="Lernessaga" />
		<tag k="ssr:stedsnr" v="879771" />
	</node>
	<node id="-828484" lat="63.4161638848" lon="9.08825833434">
		<tag k="name" v="Heimstrøa" />
		<tag k="place" v="farm" />
		<tag k="ssr:stedsnr" v="376678" />
	</node>
	<node id="-826434" lat="63.2658944408" lon="9.0821250032">
		<tag k="historic" v="shieling" />
		<tag k="name" v="Holstgardssetra" />
		<tag k="place" v="locality" />
		<tag k="ssr:stedsnr" v="377900" />
	</node>
	<node id="-828477" lat="63.1468999956" lon="9.10523333164">
		<tag k="name" v="Kårvasshytta" />
		<tag k="place" v="isolated_dwelling" />
		<tag k="ssr:stedsnr" v="454397" />
	</node>
	<node id="-826424" lat="63.2859055575" lon="9.09181388558">
		<tag k="name" v="Bugen" />
		<tag k="place" v="quarter" />
		<tag k="ssr:stedsnr" v="634397" />
	</node>
	<node id="-828465" lat="63.3299944409" lon="9.00613610936">
		<tag k="name" v="Oppistu" />
		<tag k="place" v="farm" />
		<tag k="ssr:stedsnr" v="939840" />
	</node>
	<node id="-826414" lat="63.1868920287" lon="8.78899441109">
		<tag k="fixme" v="consider place=hamlet" />
		<tag k="name" v="Bjørknes" />
		<tag k="place" v="farm" />
		<tag k="ssr:stedsnr" v="454681" />
	</node>
	<node id="-828460" lat="63.200586112" lon="8.97301110745">
		<tag k="name" v="Fjelnsetneset" />
		<tag k="place" v="farm" />
		<tag k="ssr:stedsnr" v="212870" />
	</node>
	<node id="-826405" lat="63.4199444403" lon="9.08571943727">
		<tag k="name" v="Klokkargarden" />
		<tag k="place" v="farm" />
		<tag k="ssr:stedsnr" v="454685" />
	</node>
	<node id="-828448" lat="63.2246055537" lon="9.01854167139">
		<tag k="name" v="Øvre Stavås" />
		<tag k="place" v="farm" />
		<tag k="ssr:stedsnr" v="150671" />
	</node>
	<node id="-826399" lat="63.3079305558" lon="9.19893054715">
		<tag k="name" v="Hollasetra" />
		<tag k="place" v="farm" />
		<tag k="ssr:stedsnr" v="740579" />
	</node>
	<node id="-826394" lat="63.2987055559" lon="9.05018332375">
		<tag k="name" v="Lund" />
		<tag k="place" v="farm" />
		<tag k="ssr:stedsnr" v="150951" />
	</node>
	<node id="-826390" lat="63.1995527803" lon="9.0977805542">
		<tag k="historic" v="shieling" />
		<tag k="name" v="Stølsetra" />
		<tag k="place" v="locality" />
		<tag k="ssr:stedsnr" v="12790" />
	</node>
	<node id="-826386" lat="63.3189111124" lon="9.15610555769">
		<tag k="name" v="Aunlia" />
		<tag k="place" v="isolated_dwelling" />
		<tag k="ssr:stedsnr" v="619559" />
	</node>
	<node id="-828417" lat="63.4127166623" lon="8.89116110231">
		<tag k="name" v="Husvikstranda" />
		<tag k="place" v="farm" />
		<tag k="ssr:stedsnr" v="393865" />
	</node>
	<node id="-828413" lat="63.3995694444" lon="9.01626944168">
		<tag k="name" v="Åbukta" />
		<tag k="place" v="farm" />
		<tag k="ssr:stedsnr" v="680718" />
	</node>
	<node id="-828412" lat="63.2414027805" lon="9.18383055072">
		<tag k="historic" v="shieling" />
		<tag k="name" v="Solåsen" />
		<tag k="place" v="locality" />
		<tag k="ssr:stedsnr" v="697236" />
	</node>
	<node id="-826362" lat="63.3820705342" lon="9.00344580886">
		<tag k="name" v="Rønningen" />
		<tag k="place" v="farm" />
		<tag k="ssr:stedsnr" v="73651" />
	</node>
	<node id="-826354" lat="63.3217638858" lon="9.09923332613">
		<tag k="fixme" v="consider place=hamlet" />
		<tag k="name" v="Berg" />
		<tag k="place" v="farm" />
		<tag k="ssr:stedsnr" v="619555" />
	</node>
	<node id="-826352" lat="63.1888638866" lon="8.82058056172">
		<tag k="name" v="Breilivoll" />
		<tag k="place" v="farm" />
		<tag k="ssr:stedsnr" v="636857" />
	</node>
	<node id="-828747" lat="63.1992361112" lon="8.95176112103">
		<tag k="name" v="Bugen" />
		<tag k="place" v="isolated_dwelling" />
		<tag k="ssr:stedsnr" v="272857" />
	</node>
	<node id="-828398" lat="63.4029305531" lon="8.96828888798">
		<tag k="name" v="Vika" />
		<tag k="place" v="farm" />
		<tag k="ssr:stedsnr" v="635711" />
	</node>
	<node id="-826341" lat="63.245747226" lon="9.05861389092">
		<tag k="name" v="Sinneshaugen" />
		<tag k="place" v="farm" />
		<tag k="ssr:stedsnr" v="635167" />
	</node>
	<node id="-828386" lat="63.2060833314" lon="9.06199166592">
		<tag k="name" v="Stølen" />
		<tag k="place" v="farm" />
		<tag k="ssr:stedsnr" v="454362" />
	</node>
	<node id="-828384" lat="63.2446362772" lon="9.049823908">
		<tag k="name" v="Sinnes" />
		<tag k="place" v="farm" />
		<tag k="ssr:stedsnr" v="923879" />
	</node>
	<node id="-826335" lat="63.4055277803" lon="8.98382778686">
		<tag k="name" v="Hellandsjøberget" />
		<tag k="place" v="farm" />
		<tag k="ssr:stedsnr" v="454670" />
	</node>
	<node id="-828373" lat="63.3155055579" lon="9.1535777716">
		<tag k="alt_name" v="Aune" />
		<tag k="name" v="Aunet" />
		<tag k="place" v="farm" />
		<tag k="ssr:stedsnr" v="862506" />
	</node>
	<node id="-826322" lat="63.4251138886" lon="8.84928055151">
		<tag k="name" v="Langstranda" />
		<tag k="place" v="farm" />
		<tag k="ssr:stedsnr" v="150938" />
	</node>
	<node id="-828579" lat="63.2376054296" lon="9.06661046865">
		<tag k="name" v="Lihaugen" />
		<tag k="place" v="farm" />
		<tag k="ssr:stedsnr" v="90493" />
	</node>
	<node id="-828920" lat="63.3099083319" lon="9.08266111431">
		<tag k="name" v="Grøtvågen" />
		<tag k="place" v="hamlet" />
		<tag k="ssr:stedsnr" v="393966" />
	</node>
	<node id="-828363" lat="63.3010199173" lon="9.08581235472">
		<tag k="fixme" v="consider place=hamlet" />
		<tag k="name" v="Skograndan" />
		<tag k="place" v="farm" />
		<tag k="ssr:stedsnr" v="12613" />
	</node>
	<node id="-828358" lat="63.3577611151" lon="8.92632777168">
		<tag k="name" v="Seterlia" />
		<tag k="place" v="farm" />
		<tag k="ssr:stedsnr" v="133676" />
	</node>
	<node id="-826304" lat="63.2077250033" lon="9.27080278758">
		<tag k="name" v="Olaråa" />
		<tag k="place" v="isolated_dwelling" />
		<tag k="ssr:stedsnr" v="515321" />
	</node>
	<node id="-826302" lat="63.245508333" lon="9.17907777683">
		<tag k="name" v="Jordmorslættet" />
		<tag k="place" v="isolated_dwelling" />
		<tag k="ssr:stedsnr" v="818224" />
	</node>
	<node id="-826295" lat="63.1855638928" lon="8.80764999381">
		<tag k="historic" v="shieling" />
		<tag k="name" v="Hovdsetra" />
		<tag k="place" v="locality" />
		<tag k="ssr:stedsnr" v="12779" />
	</node>
	<node id="-826291" lat="63.3923361088" lon="8.9814250001">
		<tag k="name" v="Sagøya" />
		<tag k="place" v="farm" />
		<tag k="ssr:stedsnr" v="73643" />
	</node>
	<node id="-828326" lat="63.2905694463" lon="9.0890888908">
		<tag k="loc_name" v="Kyrkseterøra" />
		<tag k="name" v="Kyrksæterøra" />
		<tag k="place" v="village" />
		<tag k="ssr:stedsnr" v="862565" />
	</node>
	<node id="-828323" lat="63.189977778" lon="8.82685833407">
		<tag k="name" v="Hovdan" />
		<tag k="place" v="farm" />
		<tag k="ssr:stedsnr" v="818873" />
	</node>
	<node id="-826267" lat="63.2078638883" lon="9.03552222694">
		<tag k="name" v="Skeisgrustaket" />
		<tag k="place" v="quarter" />
		<tag k="ssr:stedsnr" v="575293" />
	</node>
	<node id="-828310" lat="63.2274888897" lon="9.0261833382">
		<tag k="name" v="Myrset" />
		<tag k="place" v="farm" />
		<tag k="ssr:stedsnr" v="272731" />
	</node>
	<node id="-826257" lat="63.3480694401" lon="9.00289722801">
		<tag k="name" v="Hansgarden" />
		<tag k="place" v="farm" />
		<tag k="ssr:stedsnr" v="195704" />
	</node>
	<node id="-826256" lat="63.2124916655" lon="9.01545277926">
		<tag k="name" v="Nordlia" />
		<tag k="place" v="farm" />
		<tag k="ssr:stedsnr" v="12767" />
	</node>
	<node id="-828302" lat="63.3144305572" lon="9.08936943485">
		<tag k="fixme" v="consider place=hamlet" />
		<tag k="name" v="Alstad" />
		<tag k="place" v="farm" />
		<tag k="ssr:stedsnr" v="211967" />
	</node>
	<node id="-828296" lat="63.2993583314" lon="9.03138055971">
		<tag k="name" v="Aune" />
		<tag k="place" v="isolated_dwelling" />
		<tag k="ssr:stedsnr" v="211954" />
	</node>
	<node id="-826246" lat="63.2042806067" lon="8.99615911341">
		<tag k="fixme" v="consider place=hamlet" />
		<tag k="name" v="Skeiet" />
		<tag k="place" v="farm" />
		<tag k="ssr:stedsnr" v="376817" />
	</node>
	<node id="-826241" lat="63.2514749982" lon="9.0156194367">
		<tag k="name" v="Einan" />
		<tag k="place" v="farm" />
		<tag k="ssr:stedsnr" v="635138" />
	</node>
	<node id="-826238" lat="63.324491665" lon="9.10058056301">
		<tag k="name" v="Rønningan" />
		<tag k="place" v="farm" />
		<tag k="ssr:stedsnr" v="922455" />
	</node>
	<node id="-828285" lat="63.3144555568" lon="8.98074167075">
		<tag k="name" v="Røstlia nedre" />
		<tag k="place" v="farm" />
		<tag k="ssr:stedsnr" v="211957" />
	</node>
	<node id="-828284" lat="63.3461527794" lon="9.11291944324">
		<tag k="name" v="Rønningen" />
		<tag k="place" v="farm" />
		<tag k="ssr:stedsnr" v="194473" />
	</node>
	<node id="-826231" lat="63.2698777745" lon="9.28656387952">
		<tag k="historic" v="shieling" />
		<tag k="name" v="Hammarkleiva" />
		<tag k="place" v="locality" />
		<tag k="ssr:stedsnr" v="923007" />
	</node>
	<node id="-828278" lat="63.3492638916" lon="9.00294999928">
		<tag k="name" v="Myra" />
		<tag k="place" v="farm" />
		<tag k="ssr:stedsnr" v="575852" />
	</node>
	<node id="-826223" lat="63.3030749968" lon="9.1768527846">
		<tag k="alt_name" v="Lauvåsen" />
		<tag k="name" v="Lauvåsgjerdet" />
		<tag k="place" v="farm" />
		<tag k="ssr:stedsnr" v="437622" />
	</node>
	<node id="-828268" lat="63.3514049348" lon="9.00635542846">
		<tag k="fixme" v="consider place=hamlet" />
		<tag k="name" v="Lian" />
		<tag k="place" v="farm" />
		<tag k="ssr:stedsnr" v="575854" />
	</node>
	<node id="-826219" lat="63.2356666633" lon="8.91484444996">
		<tag k="historic" v="shieling" />
		<tag k="name" v="Lenessetra" />
		<tag k="place" v="locality" />
		<tag k="ssr:stedsnr" v="272137" />
	</node>
	<node id="-828265" lat="63.1927500011" lon="8.9353833377">
		<tag k="name" v="Oppigarden" />
		<tag k="place" v="farm" />
		<tag k="ssr:stedsnr" v="515891" />
	</node>
	<node id="-828264" lat="63.3641555574" lon="9.14831944567">
		<tag k="alt_name" v="Fitjan" />
		<tag k="name" v="Oddfitjan" />
		<tag k="old_name" v="Oddfitjørnan" />
		<tag k="place" v="isolated_dwelling" />
		<tag k="ssr:stedsnr" v="801678" />
	</node>
	<node id="-826209" lat="63.1908319143" lon="8.87543137205">
		<tag k="fixme" v="consider place=hamlet" />
		<tag k="name" v="Oppsal" />
		<tag k="place" v="farm" />
		<tag k="ssr:stedsnr" v="255825" />
	</node>
	<node id="-826512" lat="63.4264250021" lon="9.04429443993">
		<tag k="name" v="Myrvang" />
		<tag k="place" v="farm" />
		<tag k="ssr:stedsnr" v="377401" />
	</node>
	<node id="-826205" lat="63.2359916645" lon="9.07111665689">
		<tag k="name" v="Lihaugen" />
		<tag k="place" v="farm" />
		<tag k="ssr:stedsnr" v="757505" />
	</node>
	<node id="-828252" lat="63.2776194442" lon="9.02251945216">
		<tag k="name" v="Bjørkåsen" />
		<tag k="place" v="farm" />
		<tag k="ssr:stedsnr" v="741953" />
	</node>
	<node id="-828248" lat="63.3751432893" lon="9.1454599651">
		<tag k="fixme" v="consider place=hamlet" />
		<tag k="name" v="Oddbugen" />
		<tag k="place" v="farm" />
		<tag k="ssr:stedsnr" v="558751" />
	</node>
	<node id="-826184" lat="63.3645722242" lon="9.02695000471">
		<tag k="name" v="Nes" />
		<tag k="place" v="farm" />
		<tag k="ssr:stedsnr" v="116393" />
	</node>
	<node id="-826178" lat="63.1795194477" lon="8.94385277">
		<tag k="historic" v="shieling" />
		<tag k="name" v="Oppigards-setra" />
		<tag k="place" v="locality" />
		<tag k="ssr:stedsnr" v="636813" />
	</node>
	<node id="-828212" lat="63.3296305516" lon="9.11164722438">
		<tag k="name" v="Bjørklia" />
		<tag k="place" v="farm" />
		<tag k="ssr:stedsnr" v="393823" />
	</node>
	<node id="-826158" lat="63.2361361119" lon="9.07150277742">
		<tag k="name" v="Lihagen" />
		<tag k="place" v="farm" />
		<tag k="ssr:stedsnr" v="818163" />
	</node>
	<node id="-828194" lat="63.2784972244" lon="9.06729166838">
		<tag k="name" v="Trøa" />
		<tag k="place" v="farm" />
		<tag k="ssr:stedsnr" v="741950" />
	</node>
	<node id="-826145" lat="63.3020222242" lon="9.2226277787">
		<tag k="alt_name" v="Asplisetra" />
		<tag k="historic" v="shieling" />
		<tag k="name" v="Asplisætra" />
		<tag k="place" v="locality" />
		<tag k="ssr:stedsnr" v="863196" />
	</node>
	<node id="-826144" lat="63.4495839463" lon="8.98637263677">
		<tag k="fixme" v="consider place=hamlet" />
		<tag k="name" v="Magerøya" />
		<tag k="place" v="farm" />
		<tag k="ssr:stedsnr" v="256347" />
	</node>
	<node id="-826143" lat="63.2860805528" lon="9.09936944049">
		<tag k="name" v="Karlsneset" />
		<tag k="place" v="quarter" />
		<tag k="ssr:stedsnr" v="29039" />
	</node>
	<node id="-826142" lat="63.2585283837" lon="9.010164888">
		<tag k="fixme" v="consider place=hamlet" />
		<tag k="name" v="Lenes" />
		<tag k="place" v="farm" />
		<tag k="ssr:stedsnr" v="971115" />
	</node>
	<node id="-828187" lat="63.3492713048" lon="9.11457804556">
		<tag k="fixme" v="consider place=hamlet" />
		<tag k="name" v="Kynnsvika" />
		<tag k="place" v="farm" />
		<tag k="ssr:stedsnr" v="194476" />
	</node>
	<node id="-828186" lat="63.1917972223" lon="8.87896944264">
		<tag k="name" v="Nygarden" />
		<tag k="place" v="farm" />
		<tag k="ssr:stedsnr" v="333852" />
	</node>
	<node id="-827035" lat="63.188809543" lon="8.86264708961">
		<tag k="name" v="Staurset" />
		<tag k="place" v="farm" />
		<tag k="ssr:stedsnr" v="497780" />
	</node>
	<node id="-826133" lat="63.238279259" lon="9.0623186826">
		<tag k="fixme" v="consider place=hamlet" />
		<tag k="name" v="Lian" />
		<tag k="place" v="farm" />
		<tag k="ssr:stedsnr" v="12752" />
	</node>
	<node id="-828206" lat="63.3435972217" lon="9.11299167114">
		<tag k="name" v="Lernesåsen" />
		<tag k="place" v="farm" />
		<tag k="ssr:stedsnr" v="194478" />
	</node>
	<node id="-826130" lat="63.2098999971" lon="9.0051305538">
		<tag k="name" v="Leitet" />
		<tag k="place" v="farm" />
		<tag k="ssr:stedsnr" v="376802" />
	</node>
	<node id="-826129" lat="63.3573111151" lon="9.01478889747">
		<tag k="name" v="Neskleiva" />
		<tag k="place" v="farm" />
		<tag k="ssr:stedsnr" v="195694" />
	</node>
	<node id="-826126" lat="63.185566671" lon="8.80770000459">
		<tag k="historic" v="shieling" />
		<tag k="name" v="Hovdsetrin" />
		<tag k="place" v="locality" />
		<tag k="ssr:stedsnr" v="940912" />
	</node>
	<node id="-828173" lat="63.3094944406" lon="9.0037305577">
		<tag k="name" v="Grøtnessetra" />
		<tag k="place" v="isolated_dwelling" />
		<tag k="ssr:stedsnr" v="194465" />
	</node>
	<node id="-826119" lat="63.3124611107" lon="9.20474722308">
		<tag k="name" v="Asplia" />
		<tag k="place" v="farm" />
		<tag k="ssr:stedsnr" v="437602" />
	</node>
	<node id="-826118" lat="63.4063948616" lon="8.90494398043">
		<tag k="name" v="Stølen" />
		<tag k="place" v="farm" />
		<tag k="ssr:stedsnr" v="195687" />
	</node>
	<node id="-826115" lat="63.2608972254" lon="9.01122221546">
		<tag k="name" v="Synnestua" />
		<tag k="place" v="farm" />
		<tag k="ssr:stedsnr" v="272111" />
	</node>
	<node id="-828155" lat="63.2484805532" lon="9.01650554606">
		<tag k="name" v="Lenesbukta" />
		<tag k="place" v="farm" />
		<tag k="ssr:stedsnr" v="315856" />
	</node>
	<node id="-828152" lat="63.3062555543" lon="9.1589944493">
		<tag k="alt_name" v="Lauvåslia" />
		<tag k="name" v="Lia" />
		<tag k="place" v="farm" />
		<tag k="ssr:stedsnr" v="376626" />
	</node>
	<node id="-826101" lat="63.3099055599" lon="9.18004166527">
		<tag k="alt_name" v="Stølhaugen" />
		<tag k="name" v="Stølan" />
		<tag k="place" v="farm" />
		<tag k="ssr:stedsnr" v="73613" />
	</node>
	<node id="-828142" lat="63.2390689941" lon="9.06417808585">
		<tag k="name" v="Lian" />
		<tag k="place" v="farm" />
		<tag k="ssr:stedsnr" v="636520" />
	</node>
	<node id="-826093" lat="63.1463805597" lon="9.13036388471">
		<tag k="name" v="Nyhøyløslættet" />
		<tag k="place" v="locality" />
		<tag k="ssr:stedsnr" v="332409" />
	</node>
	<node id="-826088" lat="63.4275745358" lon="8.86693006809">
		<tag k="fixme" v="consider place=hamlet" />
		<tag k="name" v="Stavnes" />
		<tag k="place" v="farm" />
		<tag k="ssr:stedsnr" v="272987" />
	</node>
	<node id="-828135" lat="63.2092805834" lon="9.3308645664">
		<tag k="fixme" v="consider place=hamlet" />
		<tag k="name" v="Jøssavollen" />
		<tag k="place" v="farm" />
		<tag k="ssr:stedsnr" v="680675" />
	</node>
	<node id="-826086" lat="63.4025499994" lon="8.98492499521">
		<tag k="name" v="Nerland" />
		<tag k="place" v="farm" />
		<tag k="ssr:stedsnr" v="862668" />
	</node>
	<node id="-826491" lat="63.1616833311" lon="8.9503194488">
		<tag k="historic" v="shieling" />
		<tag k="name" v="Haukviksetra" />
		<tag k="place" v="locality" />
		<tag k="ssr:stedsnr" v="940979" />
	</node>
	<node id="-826080" lat="63.4002888876" lon="8.98164166597">
		<tag k="fixme" v="multiple name tags, choose one and add the other to alt_name" />
		<tag k="name" v="Hellandsrønningen;Solstad" />
		<tag k="place" v="farm" />
		<tag k="ssr:stedsnr" v="862671" />
	</node>
	<node id="-828125" lat="63.2392166655" lon="9.07198889657">
		<tag k="name" v="Stolsmo" />
		<tag k="place" v="hamlet" />
		<tag k="ssr:stedsnr" v="636516" />
	</node>
	<node id="-826073" lat="63.2227302806" lon="9.24013086037">
		<tag k="fixme" v="consider place=hamlet" />
		<tag k="name" v="Vasslia" />
		<tag k="place" v="farm" />
		<tag k="ssr:stedsnr" v="971117" />
	</node>
	<node id="-828118" lat="63.4064611141" lon="8.93561666375">
		<tag k="name" v="Halsen" />
		<tag k="place" v="farm" />
		<tag k="ssr:stedsnr" v="150584" />
	</node>
	<node id="-826069" lat="63.3144861156" lon="9.15866111495">
		<tag k="name" v="Aune" />
		<tag k="place" v="farm" />
		<tag k="ssr:stedsnr" v="818993" />
	</node>
	<node id="-828114" lat="63.3063944448" lon="9.14509722456">
		<tag k="name" v="Sagdalen" />
		<tag k="place" v="farm" />
		<tag k="ssr:stedsnr" v="514982" />
	</node>
	<node id="-828109" lat="63.3944777817" lon="8.98348888375">
		<tag k="amenity" v="school" />
		<tag k="name" v="Svanem skole" />
		<tag k="ssr:stedsnr" v="666561" />
	</node>
	<node id="-826060" lat="63.2999750035" lon="9.12881389281">
		<tag k="name" v="Myrahagan" />
		<tag k="place" v="farm" />
		<tag k="ssr:stedsnr" v="879972" />
	</node>
	<node id="-826058" lat="63.2904006343" lon="9.07642034556">
		<tag k="alt_name" v="Hemne videregående skole" />
		<tag k="amenity" v="school" />
		<tag k="name" v="Kyrksæterøra videregående skole" />
		<tag k="ssr:stedsnr" v="1071968" />
	</node>
	<node id="-826486" lat="63.4430277788" lon="9.06044165777">
		<tag k="name" v="Kvernavika" />
		<tag k="place" v="farm" />
		<tag k="ssr:stedsnr" v="377389" />
	</node>
	<node id="-828098" lat="63.4428861144" lon="9.02022778543">
		<tag k="alt_name" v="Stamnes øvre" />
		<tag k="name" v="Stamnes" />
		<tag k="place" v="farm" />
		<tag k="ssr:stedsnr" v="498468" />
	</node>
	<node id="-828192" lat="63.1982250028" lon="8.95527777648">
		<tag k="name" v="Åsbakkan" />
		<tag k="place" v="farm" />
		<tag k="ssr:stedsnr" v="575866" />
	</node>
	<node id="-828090" lat="63.1793416697" lon="8.78770833056">
		<tag k="historic" v="shieling" />
		<tag k="name" v="Bjørknessetra" />
		<tag k="place" v="locality" />
		<tag k="ssr:stedsnr" v="922780" />
	</node>
	<node id="-826825" lat="63.4156027751" lon="9.02603610973">
		<tag k="alt_name" v="Belsvik nordre" />
		<tag k="name" v="Nordre Bellsvika" />
		<tag k="place" v="farm" />
		<tag k="ssr:stedsnr" v="757658" />
	</node>
	<node id="-827168" lat="63.3906083307" lon="8.97808887991">
		<tag k="name" v="Svanem" />
		<tag k="place" v="farm" />
		<tag k="ssr:stedsnr" v="618613" />
	</node>
	<node id="-828080" lat="63.3304767984" lon="9.00605563954">
		<tag k="fixme" v="consider place=hamlet" />
		<tag k="name" v="Vegan" />
		<tag k="place" v="farm" />
		<tag k="ssr:stedsnr" v="12568" />
	</node>
	<node id="-828075" lat="63.188894444" lon="8.8757000041">
		<tag k="name" v="Nyvoll" />
		<tag k="place" v="farm" />
		<tag k="ssr:stedsnr" v="150573" />
	</node>
	<node id="-828074" lat="63.394455557" lon="8.98162499949">
		<tag k="name" v="Liahagan" />
		<tag k="place" v="farm" />
		<tag k="ssr:stedsnr" v="272681" />
	</node>
	<node id="-828066" lat="63.2719527737" lon="8.95090277204">
		<tag k="historic" v="shieling" />
		<tag k="name" v="Flatstølen" />
		<tag k="place" v="locality" />
		<tag k="ssr:stedsnr" v="332103" />
	</node>
	<node id="-828058" lat="63.4039361107" lon="8.98096111589">
		<tag k="name" v="Hellandsjøen" />
		<tag k="place" v="hamlet" />
		<tag k="ssr:stedsnr" v="45170" />
	</node>
	<node id="-828057" lat="63.2814249967" lon="9.07827777178">
		<tag k="name" v="Haugen" />
		<tag k="place" v="farm" />
		<tag k="ssr:stedsnr" v="13609" />
	</node>
	<node id="-828054" lat="63.1872136705" lon="8.78850651301">
		<tag k="alt_name" v="Bjørkneset" />
		<tag k="name" v="Bjørknes" />
		<tag k="place" v="farm" />
		<tag k="ssr:stedsnr" v="757988" />
	</node>
	<node id="-826137" lat="63.2910583335" lon="9.07693888146">
		<tag k="amenity" v="school" />
		<tag k="name" v="Sodin skule" />
		<tag k="ssr:stedsnr" v="29034" />
	</node>
	<node id="-828051" lat="63.1618416651" lon="9.06281389277">
		<tag k="historic" v="shieling" />
		<tag k="name" v="Kårholtåsen" />
		<tag k="place" v="locality" />
		<tag k="ssr:stedsnr" v="618764" />
	</node>
	<node id="-828048" lat="63.239993621" lon="9.07475660119">
		<tag k="fixme" v="consider place=hamlet" />
		<tag k="name" v="Stolsmo" />
		<tag k="place" v="farm" />
		<tag k="ssr:stedsnr" v="757165" />
	</node>
	<node id="-828045" lat="63.4183222213" lon="9.07707222429">
		<tag k="name" v="Myrvollan" />
		<tag k="place" v="farm" />
		<tag k="ssr:stedsnr" v="133630" />
	</node>
	<node id="-828044" lat="63.2273944405" lon="9.30814166845">
		<tag k="name" v="Flauglia" />
		<tag k="place" v="farm" />
		<tag k="ssr:stedsnr" v="202176" />
	</node>
	<node id="-828037" lat="63.3816555547" lon="9.00529722404">
		<tag k="name" v="Røstvollen" />
		<tag k="place" v="farm" />
		<tag k="ssr:stedsnr" v="818710" />
	</node>
	<node id="-828016" lat="63.3000666623" lon="9.03680278413">
		<tag k="fixme" v="consider place=hamlet" />
		<tag k="name" v="Dalem" />
		<tag k="place" v="farm" />
		<tag k="ssr:stedsnr" v="255626" />
	</node>
	<node id="-828011" lat="63.3028083351" lon="9.19033611117">
		<tag k="name" v="Setersetra" />
		<tag k="place" v="farm" />
		<tag k="ssr:stedsnr" v="255627" />
	</node>
	<node id="-828005" lat="63.2724305553" lon="8.9445694492">
		<tag k="historic" v="shieling" />
		<tag k="name" v="Hammarbuvollen" />
		<tag k="place" v="locality" />
		<tag k="ssr:stedsnr" v="697130" />
	</node>
	<node id="-828002" lat="63.339186114" lon="9.00763333421">
		<tag k="name" v="Knøkstrøa" />
		<tag k="place" v="isolated_dwelling" />
		<tag k="ssr:stedsnr" v="515839" />
	</node>
	<node id="-827999" lat="63.2446155342" lon="9.0466786698">
		<tag k="name" v="Sinnes" />
		<tag k="place" v="farm" />
		<tag k="ssr:stedsnr" v="29544" />
	</node>
	<node id="-827996" lat="63.2458207874" lon="9.05168089842">
		<tag k="fixme" v="consider place=hamlet" />
		<tag k="name" v="Sinnes" />
		<tag k="place" v="farm" />
		<tag k="ssr:stedsnr" v="29543" />
	</node>
	<node id="-827988" lat="63.2999333294" lon="9.05110000158">
		<tag k="name" v="Lund" />
		<tag k="place" v="farm" />
		<tag k="ssr:stedsnr" v="255622" />
	</node>
	<node id="-827983" lat="63.2987500043" lon="9.07784999755">
		<tag k="name" v="Haugen" />
		<tag k="place" v="quarter" />
		<tag k="ssr:stedsnr" v="255623" />
	</node>
	<node id="-827979" lat="63.3963749999" lon="8.97752500612">
		<tag k="name" v="Myrvang" />
		<tag k="place" v="farm" />
		<tag k="ssr:stedsnr" v="818675" />
	</node>
	<node id="-827968" lat="63.3673805573" lon="9.15360000646">
		<tag k="fixme" v="consider place=hamlet" />
		<tag k="name" v="Oddan" />
		<tag k="place" v="farm" />
		<tag k="ssr:stedsnr" v="515817" />
	</node>
	<node id="-827959" lat="63.4274500023" lon="9.00596665892">
		<tag k="name" v="Vollan" />
		<tag k="place" v="farm" />
		<tag k="ssr:stedsnr" v="620381" />
	</node>
	<node id="-827957" lat="63.2933361102" lon="9.08094721779">
		<tag k="name" v="Vesse" />
		<tag k="place" v="farm" />
		<tag k="ssr:stedsnr" v="211037" />
	</node>
	<node id="-827955" lat="63.3927111129" lon="8.99814165932">
		<tag k="name" v="Å" />
		<tag k="place" v="farm" />
		<tag k="ssr:stedsnr" v="818669" />
	</node>
	<node id="-827953" lat="63.3028083357" lon="8.90623333941">
		<tag k="historic" v="shieling" />
		<tag k="name" v="Huslia" />
		<tag k="place" v="locality" />
		<tag k="ssr:stedsnr" v="255618" />
	</node>
	<node id="-827952" lat="63.1894396633" lon="8.82720778441">
		<tag k="fixme" v="consider place=hamlet" />
		<tag k="name" v="Hovdan" />
		<tag k="place" v="farm" />
		<tag k="ssr:stedsnr" v="618751" />
	</node>
	<node id="-827942" lat="63.2838277762" lon="9.08985000688">
		<tag k="name" v="Hagan" />
		<tag k="place" v="farm" />
		<tag k="ssr:stedsnr" v="211039" />
	</node>
	<node id="-827939" lat="63.4436861092" lon="9.01162777871">
		<tag k="name" v="Nylund" />
		<tag k="place" v="farm" />
		<tag k="ssr:stedsnr" v="498440" />
	</node>
	<node id="-827938" lat="63.223680559" lon="9.02108611053">
		<tag k="name" v="Stavåsen" />
		<tag k="place" v="farm" />
		<tag k="ssr:stedsnr" v="333764" />
	</node>
	<node id="-827937" lat="63.4074972237" lon="9.1361500034">
		<tag k="name" v="Stokkmannsetra" />
		<tag k="place" v="locality" />
		<tag k="ssr:stedsnr" v="511680" />
	</node>
	<node id="-827924" lat="63.3105885688" lon="9.13234312212">
		<tag k="fixme" v="consider place=hamlet" />
		<tag k="name" v="Holla" />
		<tag k="place" v="farm" />
		<tag k="ssr:stedsnr" v="255615" />
	</node>
	<node id="-827922" lat="63.2316444403" lon="8.95025000038">
		<tag k="name" v="Eidssetra" />
		<tag k="place" v="locality" />
		<tag k="ssr:stedsnr" v="87882" />
	</node>
	<node id="-827910" lat="63.422927775" lon="9.08761388647">
		<tag k="name" v="Kvilsteinen" />
		<tag k="place" v="isolated_dwelling" />
		<tag k="ssr:stedsnr" v="818683" />
	</node>
	<node id="-827908" lat="63.3115638924" lon="9.1599166744">
		<tag k="alt_name" v="Aunåsen" />
		<tag k="name" v="Åsen" />
		<tag k="place" v="farm" />
		<tag k="ssr:stedsnr" v="680645" />
	</node>
	<node id="-827902" lat="63.4046638844" lon="8.97891943794">
		<tag k="name" v="Hellandsjøen" />
		<tag k="place" v="farm" />
		<tag k="ssr:stedsnr" v="558698" />
	</node>
	<node id="-827898" lat="63.2888666698" lon="9.06013888607">
		<tag k="name" v="Bukta" />
		<tag k="place" v="farm" />
		<tag k="ssr:stedsnr" v="376589" />
	</node>
	<node id="-827888" lat="63.4227167488" lon="8.80368371298">
		<tag k="fixme" v="consider place=hamlet" />
		<tag k="name" v="Taftøya" />
		<tag k="place" v="farm" />
		<tag k="ssr:stedsnr" v="212717" />
	</node>
	<node id="-827880" lat="63.1848222222" lon="9.01206112059">
		<tag k="historic" v="shieling" />
		<tag k="name" v="Storlisetra" />
		<tag k="place" v="locality" />
		<tag k="ssr:stedsnr" v="922744" />
	</node>
	<node id="-827872" lat="63.4274999979" lon="8.99936111544">
		<tag k="name" v="Snekkvikhaugen" />
		<tag k="place" v="farm" />
		<tag k="ssr:stedsnr" v="272615" />
	</node>
	<node id="-827871" lat="63.2864777776" lon="9.08930555239">
		<tag k="name" v="Vollan" />
		<tag k="place" v="farm" />
		<tag k="ssr:stedsnr" v="332041" />
	</node>
	<node id="-827868" lat="63.4160138846" lon="8.93198054938">
		<tag k="name" v="Vågaunet" />
		<tag k="place" v="farm" />
		<tag k="ssr:stedsnr" v="497406" />
	</node>
	<node id="-827867" lat="63.4148500022" lon="9.04195278093">
		<tag k="name" v="Sørgjerdet" />
		<tag k="place" v="farm" />
		<tag k="ssr:stedsnr" v="862425" />
	</node>
	<node id="-827865" lat="63.2223861101" lon="9.23874165771">
		<tag k="fixme" v="multiple name tags, choose one and add the other to alt_name" />
		<tag k="name" v="Haugen;Vasslia" />
		<tag k="place" v="farm" />
		<tag k="ssr:stedsnr" v="680623" />
	</node>
	<node id="-827858" lat="63.4455249997" lon="8.99446389054">
		<tag k="name" v="Vesterberg" />
		<tag k="place" v="farm" />
		<tag k="ssr:stedsnr" v="635588" />
	</node>
	<node id="-827852" lat="63.3078222181" lon="9.15439445367">
		<tag k="name" v="Myrhaugen" />
		<tag k="place" v="farm" />
		<tag k="ssr:stedsnr" v="255604" />
	</node>
	<node id="-827849" lat="63.2937222221" lon="9.19761389669">
		<tag k="historic" v="shieling" />
		<tag k="name" v="Setersetersetra" />
		<tag k="place" v="locality" />
		<tag k="ssr:stedsnr" v="680619" />
	</node>
	<node id="-827846" lat="63.4238777738" lon="8.78482221789">
		<tag k="name" v="Sørvika" />
		<tag k="place" v="farm" />
		<tag k="ssr:stedsnr" v="862432" />
	</node>
	<node id="-828833" lat="63.3144664712" lon="8.98022434971">
		<tag k="fixme" v="consider place=hamlet" />
		<tag k="name" v="Røstlia" />
		<tag k="place" v="farm" />
		<tag k="ssr:stedsnr" v="971111" />
	</node>
	<node id="-827838" lat="63.576129472" lon="9.32703900514">
		<tag k="fixme" v="consider place=hamlet" />
		<tag k="name" v="Sørleksa" />
		<tag k="place" v="farm" />
		<tag k="ssr:stedsnr" v="971048" />
	</node>
	<node id="-827833" lat="63.2877583348" lon="9.06769167247">
		<tag k="fixme" v="consider place=suburb, village or hamlet" />
		<tag k="name" v="Støa" />
		<tag k="place" v="quarter" />
		<tag k="ssr:stedsnr" v="255599" />
	</node>
	<node id="-827830" lat="63.31130278" lon="9.1638111163">
		<tag k="name" v="Øya" />
		<tag k="place" v="farm" />
		<tag k="ssr:stedsnr" v="255600" />
	</node>
	<node id="-827818" lat="63.2437027747" lon="9.05748332585">
		<tag k="name" v="Sinnes" />
		<tag k="place" v="farm" />
		<tag k="ssr:stedsnr" v="757176" />
	</node>
	<node id="-827810" lat="63.380345755" lon="9.00731672885">
		<tag k="fixme" v="consider place=hamlet" />
		<tag k="name" v="Røstvollen" />
		<tag k="place" v="farm" />
		<tag k="ssr:stedsnr" v="255654" />
	</node>
	<node id="-827802" lat="63.4475277814" lon="8.98516111707">
		<tag k="name" v="Magerøy" />
		<tag k="place" v="locality" />
		<tag k="ssr:stedsnr" v="272589" />
	</node>
	<node id="-827801" lat="63.3891777779" lon="8.98260278042">
		<tag k="fixme" v="consider place=hamlet" />
		<tag k="name" v="Svanem" />
		<tag k="place" v="farm" />
		<tag k="ssr:stedsnr" v="333710" />
	</node>
	<node id="-827798" lat="63.3869722213" lon="8.98971945315">
		<tag k="name" v="Saglia" />
		<tag k="place" v="farm" />
		<tag k="ssr:stedsnr" v="333707" />
	</node>
	<node id="-827794" lat="63.2143722196" lon="9.04210278273">
		<tag k="name" v="Stølvegen" />
		<tag k="place" v="farm" />
		<tag k="ssr:stedsnr" v="619810" />
	</node>
	<node id="-827787" lat="63.4410861088" lon="8.9963277856">
		<tag k="name" v="Skoglia" />
		<tag k="place" v="isolated_dwelling" />
		<tag k="ssr:stedsnr" v="879579" />
	</node>
	<node id="-829164" lat="63.435523669" lon="9.08880646605">
		<tag k="fixme" v="consider place=hamlet" />
		<tag k="name" v="Setervika" />
		<tag k="place" v="farm" />
		<tag k="ssr:stedsnr" v="971109" />
	</node>
	<node id="-827779" lat="63.3330083355" lon="9.00611110948">
		<tag k="name" v="Gjerdet" />
		<tag k="place" v="farm" />
		<tag k="ssr:stedsnr" v="376570" />
	</node>
	<node id="-827775" lat="63.4228305553" lon="8.80689167293">
		<tag k="name" v="Selihaugen" />
		<tag k="place" v="isolated_dwelling" />
		<tag k="ssr:stedsnr" v="393698" />
	</node>
	<node id="-827770" lat="63.2304861142" lon="9.03277499779">
		<tag k="name" v="Holten" />
		<tag k="place" v="farm" />
		<tag k="ssr:stedsnr" v="923773" />
	</node>
	<node id="-827769" lat="63.4231416627" lon="9.0934111095">
		<tag k="fixme" v="consider place=hamlet" />
		<tag k="name" v="Heimsjøen" />
		<tag k="place" v="farm" />
		<tag k="ssr:stedsnr" v="272594" />
	</node>
	<node id="-827763" lat="63.2891999985" lon="9.08655555187">
		<tag k="name" v="Kjørse" />
		<tag k="place" v="quarter" />
		<tag k="ssr:stedsnr" v="134635" />
	</node>
	<node id="-827751" lat="63.4161944449" lon="9.03127499121">
		<tag k="name" v="Lia" />
		<tag k="place" v="farm" />
		<tag k="ssr:stedsnr" v="393675" />
	</node>
	<node id="-827750" lat="63.2361027801" lon="9.03691110622">
		<tag k="name" v="Eidet" />
		<tag k="place" v="farm" />
		<tag k="ssr:stedsnr" v="454184" />
	</node>
	<node id="-828134" lat="63.4431805524" lon="8.98963333304">
		<tag k="alt_name" v="Årførstranda" />
		<tag k="name" v="Ålførstranda" />
		<tag k="place" v="farm" />
		<tag k="ssr:stedsnr" v="150596" />
	</node>
	<node id="-827746" lat="63.1987222205" lon="8.96932777773">
		<tag k="name" v="Fjelnsetåsen" />
		<tag k="place" v="farm" />
		<tag k="ssr:stedsnr" v="316834" />
	</node>
	<node id="-827741" lat="63.2695555518" lon="9.10804999571">
		<tag k="name" v="Tollstøa" />
		<tag k="place" v="isolated_dwelling" />
		<tag k="ssr:stedsnr" v="757088" />
	</node>
	<node id="-827739" lat="63.4214507494" lon="8.98003551428">
		<tag k="fixme" v="consider place=hamlet" />
		<tag k="name" v="Bjørkneset" />
		<tag k="place" v="farm" />
		<tag k="ssr:stedsnr" v="315775" />
	</node>
	<node id="-827737" lat="63.2780027754" lon="9.11123888606">
		<tag k="historic" v="shieling" />
		<tag k="name" v="Karlsnessetra" />
		<tag k="place" v="locality" />
		<tag k="ssr:stedsnr" v="195935" />
	</node>
	<node id="-827734" lat="63.2711611122" lon="9.11840833762">
		<tag k="name" v="Monsslættsanden" />
		<tag k="place" v="isolated_dwelling" />
		<tag k="ssr:stedsnr" v="757089" />
	</node>
	<node id="-827729" lat="63.2641794188" lon="9.0045930731">
		<tag k="fixme" v="consider place=hamlet" />
		<tag k="name" v="Mo" />
		<tag k="place" v="farm" />
		<tag k="ssr:stedsnr" v="620885" />
	</node>
	<node id="-827726" lat="63.2404666669" lon="9.07353056233">
		<tag k="name" v="Stolsmo" />
		<tag k="place" v="farm" />
		<tag k="ssr:stedsnr" v="940488" />
	</node>
	<node id="-827722" lat="63.2978249986" lon="9.12475834185">
		<tag k="name" v="Myra" />
		<tag k="place" v="farm" />
		<tag k="ssr:stedsnr" v="255577" />
	</node>
	<node id="-827708" lat="63.4243611126" lon="8.84233055098">
		<tag k="name" v="Stavneslia" />
		<tag k="place" v="farm" />
		<tag k="ssr:stedsnr" v="438404" />
	</node>
	<node id="-827697" lat="63.3609000036" lon="9.02848056132">
		<tag k="name" v="Øverland" />
		<tag k="place" v="farm" />
		<tag k="ssr:stedsnr" v="923754" />
	</node>
	<node id="-827695" lat="63.429416371" lon="9.00300127687">
		<tag k="fixme" v="consider place=hamlet" />
		<tag k="name" v="Snekkvika" />
		<tag k="place" v="farm" />
		<tag k="ssr:stedsnr" v="195430" />
	</node>
	<node id="-827694" lat="63.3187111152" lon="9.00498888724">
		<tag k="name" v="Vegavollan" />
		<tag k="place" v="locality" />
		<tag k="ssr:stedsnr" v="12501" />
	</node>
	<node id="-827693" lat="63.3649749978" lon="9.02783056501">
		<tag k="name" v="Hestneset" />
		<tag k="place" v="farm" />
		<tag k="ssr:stedsnr" v="575712" />
	</node>
	<node id="-827691" lat="63.4258194412" lon="9.08695000822">
		<tag k="name" v="Heimsvågen" />
		<tag k="place" v="farm" />
		<tag k="ssr:stedsnr" v="74405" />
	</node>
	<node id="-827690" lat="63.1910694409" lon="8.87673056043">
		<tag k="name" v="Oppsal" />
		<tag k="place" v="farm" />
		<tag k="ssr:stedsnr" v="879552" />
	</node>
	<node id="-827675" lat="63.2863888905" lon="9.05105555275">
		<tag k="name" v="Rolia" />
		<tag k="place" v="farm" />
		<tag k="ssr:stedsnr" v="802644" />
	</node>
	<node id="-827672" lat="63.2941444436" lon="9.00194999299">
		<tag k="name" v="Skjerlihytta" />
		<tag k="place" v="isolated_dwelling" />
		<tag k="ssr:stedsnr" v="255562" />
	</node>
	<node id="-827671" lat="63.4006277764" lon="8.98899166755">
		<tag k="fixme" v="consider place=hamlet" />
		<tag k="name" v="Helland" />
		<tag k="place" v="farm" />
		<tag k="ssr:stedsnr" v="393648" />
	</node>
	<node id="-827668" lat="63.1754666666" lon="8.96142778662">
		<tag k="historic" v="shieling" />
		<tag k="name" v="Berhalssetra" />
		<tag k="place" v="locality" />
		<tag k="ssr:stedsnr" v="633941" />
	</node>
	<node id="-828177" lat="63.1922472209" lon="8.84935555929">
		<tag k="name" v="Mestua" />
		<tag k="place" v="farm" />
		<tag k="ssr:stedsnr" v="333851" />
	</node>
	<node id="-827657" lat="63.3318593063" lon="9.20289528747">
		<tag k="fixme" v="consider place=hamlet" />
		<tag k="name" v="Sperilla" />
		<tag k="place" v="farm" />
		<tag k="ssr:stedsnr" v="12493" />
	</node>
	<node id="-827654" lat="63.3732811372" lon="9.0112067656">
		<tag k="fixme" v="consider place=hamlet" />
		<tag k="name" v="Åstad" />
		<tag k="place" v="farm" />
		<tag k="ssr:stedsnr" v="922715" />
	</node>
	<node id="-827648" lat="63.2847527794" lon="9.04515555787">
		<tag k="fixme" v="consider place=hamlet" />
		<tag k="name" v="Øygarden" />
		<tag k="place" v="farm" />
		<tag k="ssr:stedsnr" v="802643" />
	</node>
	<node id="-827646" lat="63.3931249989" lon="8.97950278496">
		<tag k="name" v="Hellandslia" />
		<tag k="place" v="farm" />
		<tag k="ssr:stedsnr" v="558652" />
	</node>
	<node id="-827644" lat="63.4276500019" lon="8.82147500738">
		<tag k="name" v="Leirvik" />
		<tag k="place" v="farm" />
		<tag k="ssr:stedsnr" v="438400" />
	</node>
	<node id="-827624" lat="63.3895080379" lon="9.16476327851">
		<tag k="fixme" v="consider place=hamlet" />
		<tag k="name" v="Bjørkøya" />
		<tag k="place" v="farm" />
		<tag k="ssr:stedsnr" v="393634" />
	</node>
	<node id="-827620" lat="63.4257611089" lon="8.7828416644">
		<tag k="name" v="Taftøybukta" />
		<tag k="place" v="isolated_dwelling" />
		<tag k="ssr:stedsnr" v="515704" />
	</node>
	<node id="-827606" lat="63.3278978534" lon="9.10814015985">
		<tag k="fixme" v="consider place=hamlet" />
		<tag k="name" v="Bjørklia" />
		<tag k="place" v="farm" />
		<tag k="ssr:stedsnr" v="12485" />
	</node>
	<node id="-827598" lat="63.3379805565" lon="9.12555277154">
		<tag k="alt_name" v="Lernes" />
		<tag k="name" v="Sørgarden" />
		<tag k="place" v="farm" />
		<tag k="ssr:stedsnr" v="255550" />
	</node>
	<node id="-827597" lat="63.4249916675" lon="8.80696111484">
		<tag k="name" v="Kråkhaugen" />
		<tag k="place" v="isolated_dwelling" />
		<tag k="ssr:stedsnr" v="575690" />
	</node>
	<node id="-827590" lat="63.1887638898" lon="8.86084166716">
		<tag k="fixme" v="consider place=hamlet" />
		<tag k="name" v="Staurset" />
		<tag k="place" v="farm" />
		<tag k="ssr:stedsnr" v="879544" />
	</node>
	<node id="-827588" lat="63.2819238445" lon="8.98920383485">
		<tag k="fixme" v="consider place=hamlet" />
		<tag k="name" v="Bjørksetra" />
		<tag k="place" v="farm" />
		<tag k="ssr:stedsnr" v="802631" />
	</node>
	<node id="-827586" lat="63.2886611073" lon="9.04866944484">
		<tag k="name" v="Åsheim" />
		<tag k="place" v="farm" />
		<tag k="ssr:stedsnr" v="802630" />
	</node>
	<node id="-828106" lat="63.4455638885" lon="9.04012221456">
		<tag k="name" v="Litlvika" />
		<tag k="place" v="farm" />
		<tag k="ssr:stedsnr" v="150587" />
	</node>
	<node id="-827576" lat="63.2846388867" lon="9.08302777393">
		<tag k="name" v="Kirksæter" />
		<tag k="place" v="farm" />
		<tag k="ssr:stedsnr" v="757035" />
	</node>
	<node id="-827566" lat="63.2870833328" lon="9.10308055867">
		<tag k="name" v="Karlsneset" />
		<tag k="place" v="farm" />
		<tag k="ssr:stedsnr" v="377575" />
	</node>
	<node id="-827565" lat="63.4506444403" lon="9.02486111695">
		<tag k="name" v="Nyland" />
		<tag k="place" v="farm" />
		<tag k="ssr:stedsnr" v="438379" />
	</node>
	<node id="-827561" lat="63.3030611092" lon="9.16694167539">
		<tag k="name" v="Per-Lauvåsen" />
		<tag k="place" v="farm" />
		<tag k="ssr:stedsnr" v="757874" />
	</node>
	<node id="-827555" lat="63.2913361141" lon="9.04456388668">
		<tag k="fixme" v="multiple name tags, choose one and add the other to alt_name" />
		<tag k="name" v="Haugen;Lia" />
		<tag k="place" v="farm" />
		<tag k="ssr:stedsnr" v="802628" />
	</node>
	<node id="-827550" lat="63.189866669" lon="8.85563611">
		<tag k="name" v="Skogan" />
		<tag k="place" v="farm" />
		<tag k="ssr:stedsnr" v="879543" />
	</node>
	<node id="-827544" lat="63.2660333295" lon="8.98383889495">
		<tag k="name" v="Myra" />
		<tag k="place" v="farm" />
		<tag k="ssr:stedsnr" v="74913" />
	</node>
	<node id="-827540" lat="63.1795944404" lon="8.96166110862">
		<tag k="historic" v="shieling" />
		<tag k="name" v="Oppigardssetra" />
		<tag k="place" v="locality" />
		<tag k="ssr:stedsnr" v="209278" />
	</node>
	<node id="-827532" lat="63.300811114" lon="9.08491667195">
		<tag k="name" v="Skogrand øvre" />
		<tag k="place" v="farm" />
		<tag k="ssr:stedsnr" v="454987" />
	</node>
	<node id="-827528" lat="63.3248250013" lon="9.10476944231">
		<tag k="name" v="Nerstua" />
		<tag k="place" v="farm" />
		<tag k="ssr:stedsnr" v="376518" />
	</node>
	<node id="-827520" lat="63.2334138924" lon="9.03711666134">
		<tag k="name" v="Eidsvollan" />
		<tag k="place" v="farm" />
		<tag k="ssr:stedsnr" v="879500" />
	</node>
	<node id="-827519" lat="63.2985416686" lon="9.05625555404">
		<tag k="name" v="Solheim" />
		<tag k="place" v="farm" />
		<tag k="ssr:stedsnr" v="696963" />
	</node>
	<node id="-827511" lat="63.1941583325" lon="8.93103611858">
		<tag k="name" v="Haukvika" />
		<tag k="place" v="farm" />
		<tag k="ssr:stedsnr" v="652820" />
	</node>
	<node id="-827508" lat="63.4455972225" lon="9.00441111968">
		<tag k="alt_name" v="Gjengstøa" />
		<tag k="name" v="Gjengstø" />
		<tag k="place" v="farm" />
		<tag k="ssr:stedsnr" v="438373" />
	</node>
	<node id="-827505" lat="63.4485833329" lon="9.00903888296">
		<tag k="name" v="Aunet" />
		<tag k="place" v="farm" />
		<tag k="ssr:stedsnr" v="74375" />
	</node>
	<node id="-827502" lat="63.2044555567" lon="9.32161666645">
		<tag k="name" v="Øyan" />
		<tag k="place" v="farm" />
		<tag k="ssr:stedsnr" v="635479" />
	</node>
	<node id="-827498" lat="63.4451972183" lon="9.03596665907">
		<tag k="name" v="Vikhals" />
		<tag k="place" v="hamlet" />
		<tag k="ssr:stedsnr" v="393600" />
	</node>
	<node id="-827491" lat="63.292288885" lon="9.0">
		<tag k="name" v="Støsetra" />
		<tag k="place" v="isolated_dwelling" />
		<tag k="ssr:stedsnr" v="802615" />
	</node>
	<node id="-827487" lat="63.2405944004" lon="9.0338391163">
		<tag k="name" v="Hunnes" />
		<tag k="place" v="farm" />
		<tag k="ssr:stedsnr" v="272487" />
	</node>
	<node id="-827468" lat="63.3679972254" lon="9.16513334234">
		<tag k="name" v="Bukkvika" />
		<tag k="place" v="farm" />
		<tag k="ssr:stedsnr" v="697815" />
	</node>
	<node id="-827467" lat="63.2558361139" lon="9.01109999303">
		<tag k="fixme" v="multiple name tags, choose one and add the other to alt_name" />
		<tag k="name" v="Lenes;Nystua" />
		<tag k="place" v="farm" />
		<tag k="ssr:stedsnr" v="74895" />
	</node>
	<node id="-827460" lat="63.2577027796" lon="9.01358332481">
		<tag k="name" v="Nygarden" />
		<tag k="place" v="farm" />
		<tag k="ssr:stedsnr" v="454092" />
	</node>
	<node id="-827455" lat="63.4024722236" lon="8.97379722699">
		<tag k="name" v="Brandhaugen" />
		<tag k="place" v="farm" />
		<tag k="ssr:stedsnr" v="394401" />
	</node>
	<node id="-827451" lat="63.2597361112" lon="9.0001083423">
		<tag k="name" v="Leneshaugen" />
		<tag k="place" v="farm" />
		<tag k="ssr:stedsnr" v="454096" />
	</node>
	<node id="-827443" lat="63.3691138926" lon="9.1643555574">
		<tag k="name" v="Skardet" />
		<tag k="place" v="farm" />
		<tag k="ssr:stedsnr" v="619736" />
	</node>
	<node id="-827442" lat="63.250705554" lon="9.19646388414">
		<tag k="name" v="Kjørsestrengen" />
		<tag k="place" v="isolated_dwelling" />
		<tag k="ssr:stedsnr" v="90172" />
	</node>
	<node id="-827439" lat="63.3756999983" lon="9.16811388528">
		<tag k="name" v="Nordlia" />
		<tag k="place" v="farm" />
		<tag k="ssr:stedsnr" v="740748" />
	</node>
	<node id="-829056" lat="63.2886388924" lon="9.18713054664">
		<tag k="name" v="Lauvåssetra" />
		<tag k="place" v="locality" />
		<tag k="ssr:stedsnr" v="498622" />
	</node>
	<node id="-827433" lat="63.4033277774" lon="8.9809888851">
		<tag k="alt_name" v="Hellandsjøen øvre" />
		<tag k="name" v="Øvre Hellandsjøen" />
		<tag k="place" v="farm" />
		<tag k="ssr:stedsnr" v="575634" />
	</node>
	<node id="-828764" lat="63.4261805593" lon="8.80399444268">
		<tag k="name" v="Taftøysjøen" />
		<tag k="place" v="farm" />
		<tag k="ssr:stedsnr" v="316452" />
	</node>
	<node id="-827430" lat="63.2370194461" lon="9.06966110322">
		<tag k="name" v="Likroken" />
		<tag k="place" v="hamlet" />
		<tag k="ssr:stedsnr" v="695289" />
	</node>
	<node id="-829103" lat="63.443280433" lon="9.02118430167">
		<tag k="fixme" v="consider place=hamlet" />
		<tag k="name" v="Stamnes" />
		<tag k="place" v="farm" />
		<tag k="ssr:stedsnr" v="971110" />
	</node>
	<node id="-827416" lat="63.2807499983" lon="9.25046944609">
		<tag k="alt_name" v="Furuneset" />
		<tag k="name" v="Furunesslettet" />
		<tag k="place" v="locality" />
		<tag k="ssr:stedsnr" v="316244" />
	</node>
	<node id="-827411" lat="63.2183583303" lon="9.09323888497">
		<tag k="historic" v="shieling" />
		<tag k="name" v="Gammelsetra" />
		<tag k="place" v="locality" />
		<tag k="ssr:stedsnr" v="272458" />
	</node>
	<node id="-827410" lat="63.245411111" lon="9.01863333182">
		<tag k="name" v="Hunnestrøan" />
		<tag k="place" v="farm" />
		<tag k="ssr:stedsnr" v="740838" />
	</node>
	<node id="-827405" lat="63.4278277761" lon="8.98313054582">
		<tag k="alt_name" v="Gussøya" />
		<tag k="name" v="Skaget" />
		<tag k="place" v="farm" />
		<tag k="ssr:stedsnr" v="620374" />
	</node>
	<node id="-827401" lat="63.2851666696" lon="9.08671388338">
		<tag k="name" v="Tevassvollen" />
		<tag k="place" v="farm" />
		<tag k="ssr:stedsnr" v="332037" />
	</node>
	<node id="-827400" lat="63.3953527739" lon="9.00729721393">
		<tag k="name" v="Å" />
		<tag k="place" v="farm" />
		<tag k="ssr:stedsnr" v="272610" />
	</node>
	<node id="-827397" lat="63.2287055572" lon="9.03042778327">
		<tag k="name" v="Eidsfossen" />
		<tag k="place" v="farm" />
		<tag k="ssr:stedsnr" v="515783" />
	</node>
</osm>
