<?xml version="1.0" encoding="UTF-8"?>
<osm generator="osmapis" version="0.6">
	<node id="-827391" lat="63.3995722264" lon="9.12256665699">
		<tag k="name" v="Kattaviktjønna" />
		<tag k="natural" v="water" />
		<tag k="ssr:stedsnr" v="818660" />
	</node>
	<node id="-827387" lat="63.202077778" lon="9.15559999845">
		<tag k="name" v="Hoggbekken" />
		<tag k="ssr:stedsnr" v="30321" />
		<tag k="waterway" v="stream" />
	</node>
	<node id="-827385" lat="63.2111194486" lon="8.98320277818">
		<tag k="name" v="Bakkabekken" />
		<tag k="ssr:stedsnr" v="697928" />
		<tag k="waterway" v="stream" />
	</node>
	<node id="-827384" lat="63.2303166672" lon="9.20893055953">
		<tag k="name" v="Damtjønna" />
		<tag k="natural" v="water" />
		<tag k="ssr:stedsnr" v="29485" />
	</node>
	<node id="-827382" lat="63.2773111109" lon="9.11912222718">
		<tag k="name" v="Gåstjønna" />
		<tag k="natural" v="water" />
		<tag k="ssr:stedsnr" v="332016" />
	</node>
	<node id="-827378" lat="63.1706111122" lon="8.91273333293">
		<tag k="name" v="Seter-bekken" />
		<tag k="ssr:stedsnr" v="757796" />
		<tag k="waterway" v="stream" />
	</node>
	<node id="-827371" lat="63.2789305547" lon="8.87410000461">
		<tag k="name" v="Blankvatnet" />
		<tag k="natural" v="water" />
		<tag k="ssr:stedsnr" v="863929" />
	</node>
	<node id="-827368" lat="63.2024666683" lon="9.12303611708">
		<tag k="name" v="Rørovatnet" />
		<tag k="natural" v="water" />
		<tag k="ssr:stedsnr" v="73795" />
	</node>
	<node id="-827364" lat="63.1860638897" lon="8.92890277075">
		<tag k="alt_name" v="Haukvik-elva" />
		<tag k="name" v="Haukvikelva" />
		<tag k="ssr:stedsnr" v="757793" />
		<tag k="waterway" v="stream" />
	</node>
	<node id="-827363" lat="63.2407138866" lon="8.97339999565">
		<tag k="name" v="Rognlibekken" />
		<tag k="ssr:stedsnr" v="90131" />
		<tag k="waterway" v="stream" />
	</node>
	<node id="-827362" lat="63.3851250021" lon="8.99600000907">
		<tag k="alt_name" v="Åelva" />
		<tag k="name" v="Røsta" />
		<tag k="ssr:stedsnr" v="87702" />
		<tag k="waterway" v="river" />
	</node>
	<node id="-827361" lat="63.3758944461" lon="8.83887777282">
		<tag k="name" v="Rennsjøbotnen" />
		<tag k="natural" v="bay" />
		<tag k="ssr:stedsnr" v="91000" />
	</node>
	<node id="-827360" lat="63.3111611128" lon="8.97437777528">
		<tag k="name" v="Røstlielva" />
		<tag k="ssr:stedsnr" v="876983" />
		<tag k="waterway" v="river" />
	</node>
	<node id="-828407" lat="63.3990472247" lon="8.82029165996">
		<tag k="name" v="Urdbukta" />
		<tag k="natural" v="bay" />
		<tag k="ssr:stedsnr" v="393847" />
	</node>
	<node id="-827335" lat="63.1855833309" lon="8.98670555881">
		<tag k="name" v="Spjøta" />
		<tag k="ssr:stedsnr" v="73788" />
		<tag k="waterway" v="river" />
	</node>
	<node id="-827332" lat="63.4191000032" lon="8.80093888525">
		<tag k="name" v="Yttervatnet" />
		<tag k="natural" v="water" />
		<tag k="ssr:stedsnr" v="12417" />
	</node>
	<node id="-827328" lat="63.2988138852" lon="9.21987778475">
		<tag k="name" v="Kvitfossen" />
		<tag k="natural" v="waterfall" />
		<tag k="ssr:stedsnr" v="454907" />
	</node>
	<node id="-827327" lat="63.3645305601" lon="9.1181500077">
		<tag k="name" v="Tverrbekken" />
		<tag k="ssr:stedsnr" v="316740" />
		<tag k="waterway" v="stream" />
	</node>
	<node id="-827326" lat="63.1515583338" lon="9.11259444566">
		<tag k="name" v="Kårfjellbekken" />
		<tag k="ssr:stedsnr" v="879425" />
		<tag k="waterway" v="stream" />
	</node>
	<node id="-827316" lat="63.1476138868" lon="9.13430834076">
		<tag k="name" v="Kløftbekken" />
		<tag k="ssr:stedsnr" v="818448" />
		<tag k="waterway" v="stream" />
	</node>
	<node id="-827307" lat="63.2283000045" lon="9.02301945158">
		<tag k="name" v="Steinvegbekken" />
		<tag k="ssr:stedsnr" v="212524" />
		<tag k="waterway" v="stream" />
	</node>
	<node id="-827300" lat="63.1494500005" lon="8.86363333516">
		<tag k="name" v="Litlvatnet" />
		<tag k="natural" v="water" />
		<tag k="ssr:stedsnr" v="575581" />
		<tag k="water" v="lake" />
	</node>
	<node id="-827298" lat="63.1413027804" lon="9.0544000075">
		<tag k="name" v="Anderslifjelltjønna" />
		<tag k="natural" v="water" />
		<tag k="ssr:stedsnr" v="635429" />
	</node>
	<node id="-827279" lat="63.3545805577" lon="9.04880000474">
		<tag k="name" v="Dalabekken" />
		<tag k="ssr:stedsnr" v="619713" />
		<tag k="waterway" v="stream" />
	</node>
	<node id="-827276" lat="63.2312388926" lon="9.34452776796">
		<tag k="name" v="Sagbekken" />
		<tag k="ssr:stedsnr" v="831620" />
		<tag k="waterway" v="stream" />
	</node>
	<node id="-827273" lat="63.1383583312" lon="9.0782777823">
		<tag k="name" v="Steinbuøya" />
		<tag k="place" v="island" />
		<tag k="ssr:stedsnr" v="635422" />
	</node>
	<node id="-828396" lat="63.3781027808" lon="8.95403889625">
		<tag k="name" v="Midteidet" />
		<tag k="natural" v="strait" />
		<tag k="ssr:stedsnr" v="818785" />
	</node>
	<node id="-828734" lat="63.2091416709" lon="9.09020000239">
		<tag k="name" v="Holbekken" />
		<tag k="ssr:stedsnr" v="332290" />
		<tag k="waterway" v="stream" />
	</node>
	<node id="-827248" lat="63.2321805516" lon="9.03424444367">
		<tag k="name" v="Vollbekken" />
		<tag k="ssr:stedsnr" v="697759" />
		<tag k="waterway" v="stream" />
	</node>
	<node id="-827247" lat="63.3792194475" lon="8.91086944153">
		<tag k="name" v="Steinholtjønna" />
		<tag k="natural" v="water" />
		<tag k="ssr:stedsnr" v="618628" />
	</node>
	<node id="-829292" lat="63.2095722265" lon="9.30780000069">
		<tag k="name" v="Midttjønna" />
		<tag k="natural" v="water" />
		<tag k="ssr:stedsnr" v="515260" />
	</node>
	<node id="-827240" lat="63.4186748826" lon="8.8563547447">
		<tag k="fixme" v="multiple name tags, choose one and add the other to alt_name" />
		<tag k="name" v="Kvernavatnet;Stavnesvatnet" />
		<tag k="natural" v="water" />
		<tag k="ssr:stedsnr" v="376448" />
	</node>
	<node id="-827236" lat="63.1514388932" lon="9.14561388714">
		<tag k="name" v="Rutbekken" />
		<tag k="ssr:stedsnr" v="272390" />
		<tag k="waterway" v="stream" />
	</node>
	<node id="-827232" lat="63.1528083315" lon="9.07407500864">
		<tag k="name" v="Husbekken" />
		<tag k="ssr:stedsnr" v="635386" />
		<tag k="waterway" v="stream" />
	</node>
	<node id="-827226" lat="63.2018111083" lon="9.14091944633">
		<tag k="name" v="Damtjønna" />
		<tag k="natural" v="water" />
		<tag k="ssr:stedsnr" v="150324" />
	</node>
	<node id="-827224" lat="63.2241000039" lon="9.14043610774">
		<tag k="name" v="Hammartjønna" />
		<tag k="natural" v="water" />
		<tag k="ssr:stedsnr" v="29296" />
	</node>
	<node id="-829270" lat="63.2093222263" lon="8.89598056349">
		<tag k="name" v="Hammar-elva" />
		<tag k="ssr:stedsnr" v="29841" />
		<tag k="waterway" v="stream" />
	</node>
	<node id="-829267" lat="63.2893138929" lon="8.88127500376">
		<tag k="name" v="Stormorrovatnet" />
		<tag k="natural" v="water" />
		<tag k="ssr:stedsnr" v="73601" />
	</node>
	<node id="-827211" lat="63.1392222213" lon="9.07984166868">
		<tag k="name" v="Fjellbekken" />
		<tag k="ssr:stedsnr" v="272397" />
		<tag k="waterway" v="stream" />
	</node>
	<node id="-827208" lat="63.2166083315" lon="9.12102221427">
		<tag k="name" v="Dyrgrovbekken" />
		<tag k="ssr:stedsnr" v="29290" />
		<tag k="waterway" v="stream" />
	</node>
	<node id="-829249" lat="63.189058329" lon="8.88001388809">
		<tag k="name" v="Trongdalsbekken" />
		<tag k="ssr:stedsnr" v="29836" />
		<tag k="waterway" v="stream" />
	</node>
	<node id="-827196" lat="63.2127499983" lon="8.87351387956">
		<tag k="name" v="Sollielva" />
		<tag k="ssr:stedsnr" v="269897" />
		<tag k="waterway" v="stream" />
	</node>
	<node id="-827195" lat="63.1454722253" lon="9.10683332906">
		<tag k="name" v="Damtjønna" />
		<tag k="natural" v="water" />
		<tag k="ssr:stedsnr" v="272378" />
	</node>
	<node id="-827194" lat="63.1916611082" lon="9.06655278222">
		<tag k="name" v="Djupdalsbekken" />
		<tag k="ssr:stedsnr" v="150304" />
		<tag k="waterway" v="stream" />
	</node>
	<node id="-827190" lat="63.2411722243" lon="9.0368861015">
		<tag k="name" v="Hunnesodden" />
		<tag k="natural" v="cape" />
		<tag k="ssr:stedsnr" v="73771" />
	</node>
	<node id="-827188" lat="63.3267166681" lon="9.04256388073">
		<tag k="name" v="Litlvatnet" />
		<tag k="natural" v="water" />
		<tag k="ssr:stedsnr" v="801489" />
	</node>
	<node id="-829233" lat="63.1530111079" lon="9.0298027737">
		<tag k="name" v="Botnbekken" />
		<tag k="ssr:stedsnr" v="332363" />
		<tag k="waterway" v="stream" />
	</node>
	<node id="-829232" lat="63.2467583369" lon="9.01019443994">
		<tag k="name" v="Buktabekken" />
		<tag k="ssr:stedsnr" v="939146" />
		<tag k="waterway" v="stream" />
	</node>
	<node id="-829229" lat="63.2602749996" lon="8.90940000102">
		<tag k="name" v="Kopparbekken" />
		<tag k="ssr:stedsnr" v="818110" />
		<tag k="waterway" v="stream" />
	</node>
	<node id="-827178" lat="63.3247027767" lon="9.2140749957">
		<tag k="name" v="Sperillvatna" />
		<tag k="natural" v="water" />
		<tag k="ssr:stedsnr" v="133467" />
		<tag k="water" v="lake" />
	</node>
	<node id="-829221" lat="63.1527055549" lon="9.06959167402">
		<tag k="name" v="Låvøya" />
		<tag k="place" v="island" />
		<tag k="ssr:stedsnr" v="514397" />
	</node>
	<node id="-827167" lat="63.356905553" lon="9.05319167657">
		<tag k="name" v="Kringel-libekken" />
		<tag k="ssr:stedsnr" v="757737" />
		<tag k="waterway" v="stream" />
	</node>
	<node id="-827001" lat="63.215883332" lon="9.22645000929">
		<tag k="name" v="Tritjønnan" />
		<tag k="natural" v="water" />
		<tag k="ssr:stedsnr" v="150254" />
	</node>
	<node id="-829211" lat="63.1595305555" lon="9.04559722106">
		<tag k="name" v="Rørbekken" />
		<tag k="ssr:stedsnr" v="332360" />
		<tag k="waterway" v="stream" />
	</node>
	<node id="-827158" lat="63.3676000014" lon="9.0609166628">
		<tag k="name" v="Røylibekken" />
		<tag k="ssr:stedsnr" v="697730" />
		<tag k="waterway" v="stream" />
	</node>
	<node id="-829205" lat="63.3458611108" lon="9.08463056124">
		<tag k="name" v="Kynnsvikvatnet" />
		<tag k="natural" v="water" />
		<tag k="ssr:stedsnr" v="740511" />
	</node>
	<node id="-829203" lat="63.231222225" lon="9.33433610808">
		<tag k="name" v="Kvernabekken" />
		<tag k="ssr:stedsnr" v="575211" />
		<tag k="waterway" v="stream" />
	</node>
	<node id="-829201" lat="63.3754833318" lon="8.94861667615">
		<tag k="name" v="Valan" />
		<tag k="natural" v="cape" />
		<tag k="ssr:stedsnr" v="12720" />
	</node>
	<node id="-827152" lat="63.4225916641" lon="8.79990000109">
		<tag k="name" v="Taftøyelva" />
		<tag k="ssr:stedsnr" v="757733" />
		<tag k="waterway" v="stream" />
	</node>
	<node id="-827151" lat="63.4245694486" lon="9.08417221242">
		<tag k="name" v="Kringelbekken" />
		<tag k="ssr:stedsnr" v="514683" />
		<tag k="waterway" v="stream" />
	</node>
	<node id="-828228" lat="63.3780000043" lon="8.89888889241">
		<tag k="name" v="Vakkerdalstjønna" />
		<tag k="natural" v="water" />
		<tag k="ssr:stedsnr" v="558760" />
	</node>
	<node id="-827139" lat="63.2159388894" lon="9.16708056309">
		<tag k="name" v="Seterbekken" />
		<tag k="ssr:stedsnr" v="150295" />
		<tag k="waterway" v="stream" />
	</node>
	<node id="-827136" lat="63.2146444486" lon="9.08514166789">
		<tag k="name" v="Seterbekken" />
		<tag k="ssr:stedsnr" v="940269" />
		<tag k="waterway" v="stream" />
	</node>
	<node id="-829182" lat="63.2477833371" lon="8.87646944303">
		<tag k="name" v="Skardsetervatnet" />
		<tag k="natural" v="water" />
		<tag k="ssr:stedsnr" v="558883" />
	</node>
	<node id="-829177" lat="63.4257611119" lon="8.85738334019">
		<tag k="name" v="Stavnestjønna" />
		<tag k="natural" v="water" />
		<tag k="ssr:stedsnr" v="879940" />
	</node>
	<node id="-829168" lat="63.2658972196" lon="9.10491388038">
		<tag k="name" v="Grønodden" />
		<tag k="natural" v="cape" />
		<tag k="ssr:stedsnr" v="635085" />
	</node>
	<node id="-827112" lat="63.2552722196" lon="9.29655556179">
		<tag k="name" v="Grøndalsvatna" />
		<tag k="natural" v="water" />
		<tag k="ssr:stedsnr" v="558009" />
	</node>
	<node id="-827111" lat="63.2041638856" lon="9.05547777893">
		<tag k="name" v="Kleivbekken" />
		<tag k="ssr:stedsnr" v="635352" />
		<tag k="waterway" v="stream" />
	</node>
	<node id="-827110" lat="63.3012138881" lon="8.94108888364">
		<tag k="name" v="Skjerlivatnet" />
		<tag k="natural" v="water" />
		<tag k="ssr:stedsnr" v="923636" />
	</node>
	<node id="-827105" lat="63.3214499996" lon="8.87738888955">
		<tag k="name" v="Steinvatnet" />
		<tag k="natural" v="water" />
		<tag k="ssr:stedsnr" v="133454" />
	</node>
	<node id="-829151" lat="63.2568083375" lon="9.13738332622">
		<tag k="name" v="Mårtjønnholet" />
		<tag k="natural" v="water" />
		<tag k="ssr:stedsnr" v="635082" />
	</node>
	<node id="-829147" lat="63.3610750004" lon="8.9415555552">
		<tag k="name" v="Vassvika" />
		<tag k="natural" v="bay" />
		<tag k="ssr:stedsnr" v="150832" />
	</node>
	<node id="-827098" lat="63.1452527789" lon="9.11918611023">
		<tag k="name" v="Gammelbutjønna" />
		<tag k="natural" v="water" />
		<tag k="ssr:stedsnr" v="818415" />
	</node>
	<node id="-829141" lat="63.206872219" lon="8.92307222951">
		<tag k="name" v="Migaren" />
		<tag k="ssr:stedsnr" v="694921" />
		<tag k="waterway" v="stream" />
	</node>
	<node id="-827092" lat="63.252797225" lon="8.89592500633">
		<tag k="name" v="Melslættelva" />
		<tag k="ssr:stedsnr" v="891704" />
		<tag k="waterway" v="river" />
	</node>
	<node id="-829139" lat="63.1874611141" lon="9.07325832428">
		<tag k="name" v="Gråfjelltjønna" />
		<tag k="natural" v="water" />
		<tag k="ssr:stedsnr" v="557798" />
	</node>
	<node id="-829138" lat="63.1543138879" lon="8.93563333189">
		<tag k="name" v="Bjørnadals-bekken" />
		<tag k="ssr:stedsnr" v="879961" />
		<tag k="waterway" v="stream" />
	</node>
	<node id="-829137" lat="63.2768749975" lon="9.10941389227">
		<tag k="name" v="Kattatjønna" />
		<tag k="natural" v="water" />
		<tag k="ssr:stedsnr" v="757427" />
	</node>
	<node id="-829133" lat="63.1630472214" lon="8.92502222875">
		<tag k="name" v="Litløybekken" />
		<tag k="ssr:stedsnr" v="879960" />
		<tag k="waterway" v="stream" />
	</node>
	<node id="-827082" lat="63.2305000035" lon="8.95966388918">
		<tag k="name" v="Seterlibekken" />
		<tag k="ssr:stedsnr" v="73754" />
		<tag k="waterway" v="stream" />
	</node>
	<node id="-827081" lat="63.3657722212" lon="8.91772222478">
		<tag k="name" v="Stakkmyrneset" />
		<tag k="natural" v="cape" />
		<tag k="ssr:stedsnr" v="211620" />
	</node>
	<node id="-827078" lat="63.1481833315" lon="9.09808332671">
		<tag k="name" v="Kattatjønna" />
		<tag k="natural" v="water" />
		<tag k="ssr:stedsnr" v="939456" />
	</node>
	<node id="-827075" lat="63.1734749977" lon="9.05461943837">
		<tag k="name" v="Storbotnbekken" />
		<tag k="ssr:stedsnr" v="879369" />
		<tag k="waterway" v="stream" />
	</node>
	<node id="-827679" lat="63.2210194414" lon="9.00821389233">
		<tag k="name" v="Grytbekken" />
		<tag k="ssr:stedsnr" v="316817" />
		<tag k="waterway" v="stream" />
	</node>
	<node id="-829110" lat="63.2418749984" lon="9.1034361117">
		<tag k="name" v="Seterelva" />
		<tag k="ssr:stedsnr" v="680810" />
		<tag k="waterway" v="stream" />
	</node>
	<node id="-828225" lat="63.3414194484" lon="8.8904305534">
		<tag k="alt_name" v="Litlbutjønna" />
		<tag k="name" v="Sør Svartvasstjønna" />
		<tag k="natural" v="water" />
		<tag k="ssr:stedsnr" v="194483" />
	</node>
	<node id="-827058" lat="63.3916972196" lon="9.13004166501">
		<tag k="name" v="Jøbergsbekken" />
		<tag k="ssr:stedsnr" v="332645" />
		<tag k="waterway" v="stream" />
	</node>
	<node id="-829099" lat="63.1824277768" lon="8.8637166653">
		<tag k="name" v="Holbekken" />
		<tag k="ssr:stedsnr" v="879914" />
		<tag k="waterway" v="stream" />
	</node>
	<node id="-827046" lat="63.1992138867" lon="9.00231110622">
		<tag k="name" v="Ørstadbekken" />
		<tag k="ssr:stedsnr" v="90912" />
		<tag k="waterway" v="stream" />
	</node>
	<node id="-829091" lat="63.2734055517" lon="9.36838611273">
		<tag k="name" v="Søre Jonstjønna" />
		<tag k="natural" v="water" />
		<tag k="ssr:stedsnr" v="376238" />
	</node>
	<node id="-827041" lat="63.4143416633" lon="9.03317222646">
		<tag k="name" v="Belsvikbekken" />
		<tag k="ssr:stedsnr" v="697665" />
		<tag k="waterway" v="stream" />
	</node>
	<node id="-827037" lat="63.1620861095" lon="9.07526110534">
		<tag k="name" v="Øverlibekken" />
		<tag k="ssr:stedsnr" v="818374" />
		<tag k="waterway" v="stream" />
	</node>
	<node id="-827022" lat="63.3933444429" lon="9.13560556115">
		<tag k="name" v="Sponlandsbekken" />
		<tag k="ssr:stedsnr" v="332635" />
		<tag k="waterway" v="stream" />
	</node>
	<node id="-829053" lat="63.2311472215" lon="9.04028889498">
		<tag k="name" v="Geitaklauvbekken" />
		<tag k="ssr:stedsnr" v="454536" />
		<tag k="waterway" v="stream" />
	</node>
	<node id="-829052" lat="63.1755027779" lon="8.9231138872">
		<tag k="fixme" v="multiple name tags, choose one and add the other to alt_name" />
		<tag k="name" v="Grønsetsetervatnet;Oppsalvatnet" />
		<tag k="natural" v="water" />
		<tag k="ssr:stedsnr" v="801775" />
		<tag k="water" v="lake" />
	</node>
	<node id="-827002" lat="63.2014527751" lon="9.31052499664">
		<tag k="name" v="Stoen" />
		<tag k="natural" v="water" />
		<tag k="ssr:stedsnr" v="394258" />
		<tag k="water" v="lake" />
	</node>
	<node id="-829049" lat="63.3946194417" lon="8.81239445101">
		<tag k="name" v="Storholmen" />
		<tag k="place" v="islet" />
		<tag k="ssr:stedsnr" v="862621" />
	</node>
	<node id="-829046" lat="63.2579777807" lon="8.92266111448">
		<tag k="name" v="Joslættbekken" />
		<tag k="ssr:stedsnr" v="939133" />
		<tag k="waterway" v="stream" />
	</node>
	<node id="-829045" lat="63.267988893" lon="9.20526944706">
		<tag k="name" v="Svarttjønna" />
		<tag k="natural" v="water" />
		<tag k="ssr:stedsnr" v="559910" />
	</node>
	<node id="-829042" lat="63.1787027783" lon="8.91347500231">
		<tag k="name" v="Gammelseterbekken" />
		<tag k="ssr:stedsnr" v="940829" />
		<tag k="waterway" v="stream" />
	</node>
	<node id="-829040" lat="63.2619777779" lon="8.92796943999">
		<tag k="name" v="Litlskogsjøen" />
		<tag k="natural" v="water" />
		<tag k="ssr:stedsnr" v="333153" />
	</node>
	<node id="-829038" lat="63.2626138884" lon="8.91432499971">
		<tag k="name" v="Kubekken" />
		<tag k="ssr:stedsnr" v="393143" />
		<tag k="waterway" v="stream" />
	</node>
	<node id="-829036" lat="63.2787249956" lon="9.10474167288">
		<tag k="name" v="Karlsneselva" />
		<tag k="ssr:stedsnr" v="879052" />
		<tag k="waterway" v="river" />
	</node>
	<node id="-826987" lat="63.2325444463" lon="9.04178889354">
		<tag k="name" v="Eidselva" />
		<tag k="ssr:stedsnr" v="937914" />
		<tag k="waterway" v="river" />
	</node>
	<node id="-829030" lat="63.182852777" lon="8.9805972225">
		<tag k="name" v="Spjøtstoen" />
		<tag k="natural" v="water" />
		<tag k="ssr:stedsnr" v="818958" />
		<tag k="water" v="lake" />
	</node>
	<node id="-826980" lat="63.3605750007" lon="8.95086110724">
		<tag k="name" v="Vassvika" />
		<tag k="natural" v="bay" />
		<tag k="ssr:stedsnr" v="740739" />
	</node>
	<node id="-826979" lat="63.3320194464" lon="8.95542500827">
		<tag k="name" v="Stengvatnet" />
		<tag k="natural" v="water" />
		<tag k="ssr:stedsnr" v="558583" />
		<tag k="water" v="lake" />
	</node>
	<node id="-829025" lat="63.3761416643" lon="9.11038055352">
		<tag k="name" v="Bugaelva" />
		<tag k="ssr:stedsnr" v="376741" />
		<tag k="waterway" v="river" />
	</node>
	<node id="-829022" lat="63.1852916653" lon="8.85258333396">
		<tag k="name" v="Staursetelva" />
		<tag k="ssr:stedsnr" v="272906" />
		<tag k="waterway" v="river" />
	</node>
	<node id="-829021" lat="63.1665972196" lon="9.1300722231">
		<tag k="name" v="Ruttjønna" />
		<tag k="natural" v="water" />
		<tag k="ssr:stedsnr" v="557785" />
	</node>
	<node id="-826972" lat="63.2372222178" lon="8.95778334079">
		<tag k="name" v="Seterlibekken" />
		<tag k="ssr:stedsnr" v="29347" />
		<tag k="waterway" v="stream" />
	</node>
	<node id="-829018" lat="63.1885527738" lon="8.89847778414">
		<tag k="name" v="Litllibekken" />
		<tag k="ssr:stedsnr" v="150796" />
		<tag k="waterway" v="stream" />
	</node>
	<node id="-829017" lat="63.3646055524" lon="8.9397611111">
		<tag k="alt_name" v="Djupsætervatnet;Sengsdalsvatnet" />
		<tag k="fixme" v="multiple name tags, choose one and add the other to alt_name" />
		<tag k="name" v="Setervatnet;Djupsetervatnet" />
		<tag k="natural" v="water" />
		<tag k="ssr:stedsnr" v="255758" />
		<tag k="water" v="lake" />
	</node>
	<node id="-829016" lat="63.4441861077" lon="8.99786944635">
		<tag k="name" v="Ålførbekken" />
		<tag k="ssr:stedsnr" v="90594" />
		<tag k="waterway" v="stream" />
	</node>
	<node id="-829012" lat="63.1979555537" lon="8.99270834062">
		<tag k="name" v="Skardbekken" />
		<tag k="ssr:stedsnr" v="879923" />
		<tag k="waterway" v="stream" />
	</node>
	<node id="-829011" lat="63.3792083336" lon="8.83474999516">
		<tag k="name" v="Rennsjøen" />
		<tag k="natural" v="water" />
		<tag k="ssr:stedsnr" v="212998" />
		<tag k="water" v="lake" />
	</node>
	<node id="-829010" lat="63.3014388875" lon="8.93048611276">
		<tag k="name" v="Litlskjerlivatnet" />
		<tag k="natural" v="water" />
		<tag k="ssr:stedsnr" v="818947" />
	</node>
	<node id="-829027" lat="63.3633694433" lon="8.96129165939">
		<tag k="name" v="Øyabukta" />
		<tag k="natural" v="bay" />
		<tag k="ssr:stedsnr" v="255762" />
	</node>
	<node id="-826960" lat="63.3723722193" lon="9.1028222291">
		<tag k="name" v="Tverrelva" />
		<tag k="ssr:stedsnr" v="757782" />
		<tag k="waterway" v="stream" />
	</node>
	<node id="-829007" lat="63.1759305541" lon="9.05887499953">
		<tag k="name" v="Bjørnabuslættbekken" />
		<tag k="ssr:stedsnr" v="332327" />
		<tag k="waterway" v="stream" />
	</node>
	<node id="-829003" lat="63.3154277761" lon="8.93208054635">
		<tag k="name" v="Hestlitjønna" />
		<tag k="natural" v="water" />
		<tag k="ssr:stedsnr" v="740497" />
	</node>
	<node id="-826954" lat="63.1865250011" lon="8.85286944042">
		<tag k="name" v="Staursetelva" />
		<tag k="ssr:stedsnr" v="73803" />
		<tag k="waterway" v="river" />
	</node>
	<node id="-829001" lat="63.1614972192" lon="8.99311110686">
		<tag k="name" v="Middagslivatnet" />
		<tag k="natural" v="water" />
		<tag k="ssr:stedsnr" v="679759" />
		<tag k="water" v="lake" />
	</node>
	<node id="-828999" lat="63.2441277742" lon="8.92834722543">
		<tag k="name" v="Leneselva" />
		<tag k="ssr:stedsnr" v="393147" />
		<tag k="waterway" v="river" />
	</node>
	<node id="-826949" lat="63.2975861092" lon="9.0467722265">
		<tag k="name" v="Haugaelva" />
		<tag k="ssr:stedsnr" v="558588" />
		<tag k="waterway" v="river" />
	</node>
	<node id="-826946" lat="63.2194333369" lon="9.31443055521">
		<tag k="name" v="Svabergdalstjønna" />
		<tag k="natural" v="water" />
		<tag k="ssr:stedsnr" v="879446" />
	</node>
	<node id="-826942" lat="63.3170805527" lon="8.96232777765">
		<tag k="name" v="Langbekken" />
		<tag k="ssr:stedsnr" v="454942" />
		<tag k="waterway" v="stream" />
	</node>
	<node id="-826939" lat="63.1562611121" lon="8.85473889457">
		<tag k="name" v="Hornfjellbekken" />
		<tag k="ssr:stedsnr" v="333575" />
		<tag k="waterway" v="stream" />
	</node>
	<node id="-826938" lat="63.1632055577" lon="8.86560554753">
		<tag k="name" v="Knebblibekken" />
		<tag k="ssr:stedsnr" v="697775" />
		<tag k="waterway" v="stream" />
	</node>
	<node id="-826934" lat="63.143766665" lon="8.86565000433">
		<tag k="name" v="Staursetfossen" />
		<tag k="natural" v="waterfall" />
		<tag k="ssr:stedsnr" v="272435" />
	</node>
	<node id="-828980" lat="63.2984000032" lon="9.19536943985">
		<tag k="alt_name" v="Setersetervatnet" />
		<tag k="name" v="Sætersætervatnet" />
		<tag k="natural" v="water" />
		<tag k="ssr:stedsnr" v="195629" />
	</node>
	<node id="-828979" lat="63.2789000016" lon="9.17349444378">
		<tag k="name" v="Hyllbekken" />
		<tag k="ssr:stedsnr" v="635021" />
		<tag k="waterway" v="stream" />
	</node>
	<node id="-826927" lat="63.1727527786" lon="8.94856665756">
		<tag k="name" v="Innerelva" />
		<tag k="ssr:stedsnr" v="757799" />
		<tag k="waterway" v="river" />
	</node>
	<node id="-826925" lat="63.1898555542" lon="8.9772444465">
		<tag k="name" v="Skardbekken" />
		<tag k="ssr:stedsnr" v="697801" />
		<tag k="waterway" v="stream" />
	</node>
	<node id="-828967" lat="63.2006472213" lon="9.16962777034">
		<tag k="name" v="Borstadbekken" />
		<tag k="ssr:stedsnr" v="697331" />
		<tag k="waterway" v="stream" />
	</node>
	<node id="-828950" lat="63.1941111121" lon="8.88490834262">
		<tag k="name" v="Grønsetelva" />
		<tag k="ssr:stedsnr" v="90581" />
		<tag k="waterway" v="stream" />
	</node>
	<node id="-828947" lat="63.3606722197" lon="8.94950834116">
		<tag k="name" v="Olderosen" />
		<tag k="natural" v="bay" />
		<tag k="ssr:stedsnr" v="635828" />
	</node>
	<node id="-826898" lat="63.2823611113" lon="9.23210277325">
		<tag k="alt_name" v="Novbubekken" />
		<tag k="name" v="Nogbubekken" />
		<tag k="ssr:stedsnr" v="498276" />
		<tag k="waterway" v="stream" />
	</node>
	<node id="-826968" lat="63.1740305548" lon="8.95212499319">
		<tag k="name" v="Skiftnes-bekken" />
		<tag k="ssr:stedsnr" v="757780" />
		<tag k="waterway" v="stream" />
	</node>
	<node id="-828941" lat="63.3073944439" lon="9.07825832812">
		<tag k="name" v="Nessabekken" />
		<tag k="ssr:stedsnr" v="393982" />
		<tag k="waterway" v="stream" />
	</node>
	<node id="-828939" lat="63.2245138885" lon="9.06419999307">
		<tag k="name" v="Seterdalsbekken" />
		<tag k="ssr:stedsnr" v="801757" />
		<tag k="waterway" v="stream" />
	</node>
	<node id="-826888" lat="63.32998056" lon="9.21975278691">
		<tag k="name" v="Stelltjønna" />
		<tag k="natural" v="water" />
		<tag k="ssr:stedsnr" v="393429" />
	</node>
	<node id="-826886" lat="63.4384694456" lon="9.00294443857">
		<tag k="name" v="Ålførvatnet" />
		<tag k="natural" v="water" />
		<tag k="ssr:stedsnr" v="680447" />
	</node>
	<node id="-826885" lat="63.2920999977" lon="9.34628889796">
		<tag k="name" v="Svavatnet" />
		<tag k="natural" v="water" />
		<tag k="ssr:stedsnr" v="498266" />
	</node>
	<node id="-826884" lat="63.2043055522" lon="9.16505833766">
		<tag k="name" v="Fossholet" />
		<tag k="place" v="locality" />
		<tag k="ssr:stedsnr" v="272305" />
	</node>
	<node id="-826883" lat="63.325447222" lon="9.2124277815">
		<tag k="alt_name" v="Sperillvatnet nedre" />
		<tag k="fixme" v="multiple name tags, choose one and add the other to alt_name" />
		<tag k="name" v="Sperillvatnet;Nedre Sperillvatnet" />
		<tag k="natural" v="water" />
		<tag k="ssr:stedsnr" v="531943" />
		<tag k="water" v="lake" />
	</node>
	<node id="-826882" lat="63.2356750013" lon="8.93232777301">
		<tag k="name" v="Skratlhaugdalsbekken" />
		<tag k="ssr:stedsnr" v="330955" />
		<tag k="waterway" v="stream" />
	</node>
	<node id="-828926" lat="63.367633335" lon="8.87912221576">
		<tag k="name" v="Ner Tverrbekken" />
		<tag k="ssr:stedsnr" v="393965" />
		<tag k="waterway" v="stream" />
	</node>
	<node id="-828922" lat="63.3461250038" lon="8.972308328">
		<tag k="name" v="Lomtjønna" />
		<tag k="natural" v="water" />
		<tag k="ssr:stedsnr" v="376727" />
	</node>
	<node id="-826870" lat="63.2095111122" lon="9.31018055896">
		<tag k="name" v="Svarttjønnbekken" />
		<tag k="ssr:stedsnr" v="394254" />
		<tag k="waterway" v="stream" />
	</node>
	<node id="-828912" lat="63.3129777773" lon="8.92194999218">
		<tag k="name" v="Huslibekken" />
		<tag k="ssr:stedsnr" v="437540" />
		<tag k="waterway" v="stream" />
	</node>
	<node id="-826863" lat="63.3977472205" lon="9.0209138851">
		<tag k="name" v="Kvernhusdalsbekken" />
		<tag k="ssr:stedsnr" v="697635" />
		<tag k="waterway" v="stream" />
	</node>
	<node id="-828909" lat="63.2733472249" lon="9.07052222703">
		<tag k="name" v="Gjerstadlibekken" />
		<tag k="ssr:stedsnr" v="393111" />
		<tag k="waterway" v="stream" />
	</node>
	<node id="-826857" lat="63.2820250012" lon="9.24398888795">
		<tag k="name" v="Fremmer Furunesbekken" />
		<tag k="ssr:stedsnr" v="90015" />
		<tag k="waterway" v="stream" />
	</node>
	<node id="-826961" lat="63.3446277766" lon="8.94242222627">
		<tag k="name" v="Lægdafossen" />
		<tag k="natural" v="waterfall" />
		<tag k="ssr:stedsnr" v="316752" />
	</node>
	<node id="-826850" lat="63.2393361149" lon="9.23175834303">
		<tag k="name" v="Karitjønna" />
		<tag k="natural" v="water" />
		<tag k="ssr:stedsnr" v="922554" />
	</node>
	<node id="-826847" lat="63.4065027802" lon="8.99966388332">
		<tag k="name" v="Åosen" />
		<tag k="natural" v="bay" />
		<tag k="ssr:stedsnr" v="757644" />
	</node>
	<node id="-828893" lat="63.1994055573" lon="9.09663333157">
		<tag k="name" v="Seterbekken" />
		<tag k="ssr:stedsnr" v="514339" />
		<tag k="waterway" v="stream" />
	</node>
	<node id="-826844" lat="63.2743111142" lon="8.87706943964">
		<tag k="name" v="Litlvatnet" />
		<tag k="natural" v="water" />
		<tag k="ssr:stedsnr" v="13936" />
	</node>
	<node id="-828891" lat="63.4408250002" lon="9.05944443669">
		<tag k="name" v="Kvernavikbekken" />
		<tag k="ssr:stedsnr" v="90566" />
		<tag k="waterway" v="stream" />
	</node>
	<node id="-826840" lat="63.4131555516" lon="9.08722221944">
		<tag k="name" v="Glennbekken" />
		<tag k="ssr:stedsnr" v="697654" />
		<tag k="waterway" v="stream" />
	</node>
	<node id="-828886" lat="63.1897527767" lon="8.98888332466">
		<tag k="name" v="Svartdalsbekken" />
		<tag k="ssr:stedsnr" v="940795" />
		<tag k="waterway" v="stream" />
	</node>
	<node id="-826836" lat="63.2419972178" lon="8.93784721864">
		<tag k="name" v="Svorttjønna" />
		<tag k="natural" v="water" />
		<tag k="ssr:stedsnr" v="497754" />
	</node>
	<node id="-828883" lat="63.2041944489" lon="9.11733889431">
		<tag k="name" v="Rørobekken" />
		<tag k="ssr:stedsnr" v="514342" />
		<tag k="waterway" v="stream" />
	</node>
	<node id="-826834" lat="63.2745750031" lon="9.34211389306">
		<tag k="name" v="Nybudalstjønna" />
		<tag k="natural" v="water" />
		<tag k="ssr:stedsnr" v="862252" />
	</node>
	<node id="-826831" lat="63.2221888874" lon="9.0027972319">
		<tag k="name" v="Skardbekken" />
		<tag k="ssr:stedsnr" v="454788" />
		<tag k="waterway" v="stream" />
	</node>
	<node id="-828877" lat="63.2501361154" lon="8.92058332413">
		<tag k="name" v="Ålmustjønnin" />
		<tag k="natural" v="water" />
		<tag k="ssr:stedsnr" v="559900" />
	</node>
	<node id="-828875" lat="63.2397555571" lon="8.95841666873">
		<tag k="name" v="Nyseterlona" />
		<tag k="natural" v="water" />
		<tag k="ssr:stedsnr" v="575152" />
		<tag k="water" v="lake" />
	</node>
	<node id="-826822" lat="63.1646583324" lon="9.06803611864">
		<tag k="name" v="Høylolibekken" />
		<tag k="ssr:stedsnr" v="939388" />
		<tag k="waterway" v="stream" />
	</node>
	<node id="-826821" lat="63.2005416695" lon="9.13704444917">
		<tag k="name" v="Kattatjønna" />
		<tag k="natural" v="water" />
		<tag k="ssr:stedsnr" v="272301" />
	</node>
	<node id="-826818" lat="63.2446277797" lon="9.23462776968">
		<tag k="name" v="Øvre Middagslitjønna" />
		<tag k="natural" v="water" />
		<tag k="ssr:stedsnr" v="740659" />
	</node>
	<node id="-826955" lat="63.1556333323" lon="8.87085832595">
		<tag k="name" v="Gammelseterbekken" />
		<tag k="ssr:stedsnr" v="333581" />
		<tag k="waterway" v="stream" />
	</node>
	<node id="-826810" lat="63.3945111075" lon="8.82610276851">
		<tag k="name" v="Sandbukta" />
		<tag k="natural" v="bay" />
		<tag k="ssr:stedsnr" v="315599" />
	</node>
	<node id="-826809" lat="63.241569442" lon="9.15698332429">
		<tag k="name" v="Fjellslættbekken" />
		<tag k="ssr:stedsnr" v="150222" />
		<tag k="waterway" v="stream" />
	</node>
	<node id="-828855" lat="63.2722416677" lon="8.95534721551">
		<tag k="name" v="Seterbekken" />
		<tag k="ssr:stedsnr" v="879107" />
		<tag k="waterway" v="stream" />
	</node>
	<node id="-826806" lat="63.1339722234" lon="8.87836111301">
		<tag k="name" v="Heimre Langvatnet" />
		<tag k="natural" v="water" />
		<tag k="ssr:stedsnr" v="73721" />
	</node>
	<node id="-828853" lat="63.1491999975" lon="8.87323055211">
		<tag k="name" v="Hattlibekken" />
		<tag k="ssr:stedsnr" v="29839" />
		<tag k="waterway" v="stream" />
	</node>
	<node id="-828851" lat="63.3393499987" lon="9.1039055531">
		<tag k="alt_name" v="Seterelva" />
		<tag k="name" v="Lerneselva" />
		<tag k="ssr:stedsnr" v="740536" />
		<tag k="waterway" v="stream" />
	</node>
	<node id="-826798" lat="63.3448611138" lon="8.99763611796">
		<tag k="name" v="Silaren" />
		<tag k="ssr:stedsnr" v="90860" />
		<tag k="waterway" v="stream" />
	</node>
	<node id="-826797" lat="63.4336861084" lon="9.06510277002">
		<tag k="name" v="Langneset" />
		<tag k="natural" v="cape" />
		<tag k="ssr:stedsnr" v="332581" />
	</node>
	<node id="-828841" lat="63.3392916648" lon="9.04170278224">
		<tag k="alt_name" v="Stor Økselvatnet" />
		<tag k="name" v="Økselvatnet" />
		<tag k="natural" v="water" />
		<tag k="ssr:stedsnr" v="740533" />
		<tag k="water" v="lake" />
	</node>
	<node id="-828840" lat="63.2779277789" lon="8.88789999748">
		<tag k="alt_name" v="Hyllvatnet, store" />
		<tag k="name" v="Store Hyllvatnet" />
		<tag k="natural" v="water" />
		<tag k="ssr:stedsnr" v="437588" />
		<tag k="water" v="lake" />
	</node>
	<node id="-826788" lat="63.216849999" lon="9.35927499847">
		<tag k="name" v="Kvithylla" />
		<tag k="place" v="islet" />
		<tag k="ssr:stedsnr" v="587711" />
	</node>
	<node id="-826786" lat="63.3737083328" lon="8.88356389805">
		<tag k="name" v="Djuptjønna" />
		<tag k="natural" v="water" />
		<tag k="ssr:stedsnr" v="636973" />
	</node>
	<node id="-826780" lat="63.420041663" lon="8.75790832802">
		<tag k="name" v="Eiteråa" />
		<tag k="ssr:stedsnr" v="393397" />
		<tag k="waterway" v="stream" />
	</node>
	<node id="-828822" lat="63.2057833342" lon="8.99752221237">
		<tag k="name" v="Klokkarbekken" />
		<tag k="ssr:stedsnr" v="212941" />
		<tag k="waterway" v="stream" />
	</node>
	<node id="-826772" lat="63.2157694489" lon="9.10590832735">
		<tag k="name" v="Klokkarbekken" />
		<tag k="ssr:stedsnr" v="879274" />
		<tag k="waterway" v="stream" />
	</node>
	<node id="-826771" lat="63.1529500035" lon="8.8631000043">
		<tag k="name" v="Setervatnet" />
		<tag k="natural" v="water" />
		<tag k="ssr:stedsnr" v="437704" />
	</node>
	<node id="-828818" lat="63.3565749995" lon="9.09831667459">
		<tag k="name" v="Lomtjønna" />
		<tag k="natural" v="water" />
		<tag k="ssr:stedsnr" v="150740" />
	</node>
	<node id="-826768" lat="63.3561833325" lon="9.08102223078">
		<tag k="name" v="Krålitjønna" />
		<tag k="natural" v="water" />
		<tag k="ssr:stedsnr" v="454783" />
	</node>
	<node id="-826761" lat="63.4104472201" lon="9.02023889361">
		<tag k="name" v="Bjørndalsbekken" />
		<tag k="ssr:stedsnr" v="514621" />
		<tag k="waterway" v="stream" />
	</node>
	<node id="-826760" lat="63.2208499989" lon="9.10612500205">
		<tag k="name" v="Kjerringtjønna" />
		<tag k="natural" v="water" />
		<tag k="ssr:stedsnr" v="879278" />
	</node>
	<node id="-828802" lat="63.3971555534" lon="8.86956111788">
		<tag k="name" v="Storholtjønna" />
		<tag k="natural" v="water" />
		<tag k="ssr:stedsnr" v="333964" />
	</node>
	<node id="-826745" lat="63.2357777811" lon="9.05850556541">
		<tag k="name" v="Sommarfjøsbekken" />
		<tag k="ssr:stedsnr" v="150198" />
		<tag k="waterway" v="stream" />
	</node>
	<node id="-826744" lat="63.2271722265" lon="9.16281666937">
		<tag k="name" v="Frosttjønna" />
		<tag k="natural" v="water" />
		<tag k="ssr:stedsnr" v="194733" />
	</node>
	<node id="-828789" lat="63.208891671" lon="8.95811110682">
		<tag k="name" v="Bergsåa" />
		<tag k="ssr:stedsnr" v="212936" />
		<tag k="waterway" v="stream" />
	</node>
	<node id="-826740" lat="63.3645138916" lon="9.05725278717">
		<tag k="alt_name" v="Odd-dalsbekken" />
		<tag k="name" v="Oddalsbekken" />
		<tag k="ssr:stedsnr" v="498760" />
		<tag k="waterway" v="stream" />
	</node>
	<node id="-828785" lat="63.3752805593" lon="9.07257222843">
		<tag k="name" v="Krokbekken" />
		<tag k="ssr:stedsnr" v="940727" />
		<tag k="waterway" v="stream" />
	</node>
	<node id="-828780" lat="63.2809944408" lon="8.91727222811">
		<tag k="name" v="Sollitjønna" />
		<tag k="natural" v="water" />
		<tag k="ssr:stedsnr" v="208759" />
	</node>
	<node id="-826731" lat="63.2991999973" lon="8.87528889174">
		<tag k="name" v="Skottjønna" />
		<tag k="natural" v="water" />
		<tag k="ssr:stedsnr" v="619630" />
	</node>
	<node id="-828777" lat="63.1784250039" lon="8.83442223157">
		<tag k="name" v="Bilobekken" />
		<tag k="ssr:stedsnr" v="393912" />
		<tag k="waterway" v="stream" />
	</node>
	<node id="-828776" lat="63.3373277791" lon="9.03446943589">
		<tag k="name" v="Økselvassbekken" />
		<tag k="ssr:stedsnr" v="212925" />
		<tag k="waterway" v="stream" />
	</node>
	<node id="-828773" lat="63.1732722243" lon="8.8379361076">
		<tag k="name" v="Djupdalsbekken" />
		<tag k="ssr:stedsnr" v="393913" />
		<tag k="waterway" v="stream" />
	</node>
	<node id="-828769" lat="63.2366944463" lon="8.86164721401">
		<tag k="name" v="Raudbekken" />
		<tag k="ssr:stedsnr" v="558807" />
		<tag k="waterway" v="stream" />
	</node>
	<node id="-826715" lat="63.2708000028" lon="8.89422499924">
		<tag k="name" v="Dyrlitjønnin" />
		<tag k="natural" v="water" />
		<tag k="ssr:stedsnr" v="13915" />
	</node>
	<node id="-826713" lat="63.3647722204" lon="8.93188610976">
		<tag k="name" v="Seterneset" />
		<tag k="natural" v="cape" />
		<tag k="ssr:stedsnr" v="498765" />
	</node>
	<node id="-826711" lat="63.216752779" lon="9.15082776806">
		<tag k="alt_name" v="Springarbekken" />
		<tag k="name" v="Springaren" />
		<tag k="ssr:stedsnr" v="635282" />
		<tag k="waterway" v="stream" />
	</node>
	<node id="-826710" lat="63.3497277753" lon="8.95160277995">
		<tag k="name" v="Lægdelva" />
		<tag k="ssr:stedsnr" v="437688" />
		<tag k="waterway" v="river" />
	</node>
	<node id="-828753" lat="63.2968250039" lon="9.20981389851">
		<tag k="name" v="Djupholstjønna" />
		<tag k="natural" v="water" />
		<tag k="ssr:stedsnr" v="454437" />
	</node>
	<node id="-826703" lat="63.1761111107" lon="8.86196667274">
		<tag k="name" v="Tortdalsbekken" />
		<tag k="ssr:stedsnr" v="90831" />
		<tag k="waterway" v="stream" />
	</node>
	<node id="-828895" lat="63.2827972259" lon="9.08185832862">
		<tag k="name" v="Vassvollbekken" />
		<tag k="ssr:stedsnr" v="635029" />
		<tag k="waterway" v="stream" />
	</node>
	<node id="-828745" lat="63.3653833359" lon="8.88627778237">
		<tag k="name" v="Singsdalselva" />
		<tag k="ssr:stedsnr" v="879862" />
		<tag k="waterway" v="river" />
	</node>
	<node id="-828742" lat="63.265494444" lon="9.00406945357">
		<tag k="name" v="Bekkadalsbekken" />
		<tag k="ssr:stedsnr" v="333108" />
		<tag k="waterway" v="stream" />
	</node>
	<node id="-826691" lat="63.3669416638" lon="8.98544443765">
		<tag k="name" v="Åstadtjønna" />
		<tag k="natural" v="water" />
		<tag k="ssr:stedsnr" v="194721" />
	</node>
	<node id="-826686" lat="63.4433416707" lon="9.04456666492">
		<tag k="name" v="Tverrbekken" />
		<tag k="ssr:stedsnr" v="697577" />
		<tag k="waterway" v="stream" />
	</node>
	<node id="-826685" lat="63.368016666" lon="8.92883611043">
		<tag k="name" v="Storneset" />
		<tag k="natural" v="cape" />
		<tag k="ssr:stedsnr" v="862747" />
	</node>
	<node id="-826683" lat="63.1752527766" lon="9.03751944812">
		<tag k="name" v="Trodalsbekken" />
		<tag k="ssr:stedsnr" v="393379" />
		<tag k="waterway" v="stream" />
	</node>
	<node id="-826681" lat="63.2247916654" lon="9.2390138904">
		<tag k="name" v="Litldalabekken" />
		<tag k="ssr:stedsnr" v="635245" />
		<tag k="waterway" v="stream" />
	</node>
	<node id="-828728" lat="63.2380305534" lon="9.14850555413">
		<tag k="name" v="Fjellslættvatnet" />
		<tag k="natural" v="water" />
		<tag k="ssr:stedsnr" v="801743" />
	</node>
	<node id="-828726" lat="63.2097527756" lon="9.08188610888">
		<tag k="name" v="Seterbekken" />
		<tag k="ssr:stedsnr" v="332289" />
		<tag k="waterway" v="stream" />
	</node>
	<node id="-828723" lat="63.164319445" lon="8.91807777517">
		<tag k="name" v="Litlseterbekken" />
		<tag k="ssr:stedsnr" v="393954" />
		<tag k="waterway" v="stream" />
	</node>
	<node id="-826931" lat="63.2491194443" lon="8.96808056192">
		<tag k="name" v="Hovleksbekken" />
		<tag k="ssr:stedsnr" v="90140" />
		<tag k="waterway" v="stream" />
	</node>
	<node id="-826672" lat="63.3187444441" lon="9.23234166255">
		<tag k="name" v="Hundtjønna" />
		<tag k="natural" v="water" />
		<tag k="ssr:stedsnr" v="575413" />
	</node>
	<node id="-826667" lat="63.3375472208" lon="9.01027221299">
		<tag k="name" v="Krokbekken" />
		<tag k="ssr:stedsnr" v="90819" />
		<tag k="waterway" v="stream" />
	</node>
	<node id="-828714" lat="63.1926249995" lon="9.02857777228">
		<tag k="name" v="Baklibekken" />
		<tag k="ssr:stedsnr" v="757331" />
		<tag k="waterway" v="stream" />
	</node>
	<node id="-828706" lat="63.2605083361" lon="9.20522500811">
		<tag k="name" v="Hestskotjønna" />
		<tag k="natural" v="water" />
		<tag k="ssr:stedsnr" v="393087" />
	</node>
	<node id="-828701" lat="63.2722472186" lon="8.96706111563">
		<tag k="name" v="Klokkarbekken" />
		<tag k="ssr:stedsnr" v="575115" />
		<tag k="waterway" v="stream" />
	</node>
	<node id="-826652" lat="63.2955583362" lon="8.90703611659">
		<tag k="name" v="Kløftbekken" />
		<tag k="ssr:stedsnr" v="922532" />
		<tag k="waterway" v="stream" />
	</node>
	<node id="-828699" lat="63.2722388921" lon="8.9580861048">
		<tag k="name" v="Lonin" />
		<tag k="place" v="locality" />
		<tag k="ssr:stedsnr" v="923950" />
	</node>
	<node id="-828697" lat="63.4237444479" lon="8.85386389268">
		<tag k="name" v="Stavneselva" />
		<tag k="ssr:stedsnr" v="393940" />
		<tag k="waterway" v="stream" />
	</node>
	<node id="-828695" lat="63.3422250039" lon="8.89067499875">
		<tag k="name" v="Sør Svartvasstjønna" />
		<tag k="natural" v="water" />
		<tag k="ssr:stedsnr" v="635822" />
	</node>
	<node id="-828693" lat="63.2185694401" lon="9.11481388385">
		<tag k="name" v="Djupdalsbekken" />
		<tag k="ssr:stedsnr" v="514301" />
		<tag k="waterway" v="stream" />
	</node>
	<node id="-828690" lat="63.1823083357" lon="8.82604165953">
		<tag k="name" v="Kvernhusbekken" />
		<tag k="ssr:stedsnr" v="272843" />
		<tag k="waterway" v="stream" />
	</node>
	<node id="-828686" lat="63.1981222266" lon="8.97832499928">
		<tag k="name" v="Vollabekken" />
		<tag k="ssr:stedsnr" v="818895" />
		<tag k="waterway" v="stream" />
	</node>
	<node id="-826635" lat="63.3695722224" lon="9.12553612011">
		<tag k="name" v="Seterneset" />
		<tag k="natural" v="cape" />
		<tag k="ssr:stedsnr" v="454736" />
	</node>
	<node id="-826633" lat="63.3641638933" lon="9.01630833618">
		<tag k="name" v="Nesvatnet" />
		<tag k="natural" v="water" />
		<tag k="ssr:stedsnr" v="194715" />
		<tag k="water" v="lake" />
	</node>
	<node id="-826632" lat="63.2483416683" lon="9.13999721718">
		<tag k="name" v="Tevatnet" />
		<tag k="natural" v="water" />
		<tag k="ssr:stedsnr" v="255891" />
	</node>
	<node id="-828678" lat="63.2299833359" lon="9.32316666037">
		<tag k="name" v="Badstubekken" />
		<tag k="ssr:stedsnr" v="211237" />
		<tag k="waterway" v="stream" />
	</node>
	<node id="-826628" lat="63.3186777762" lon="9.21916112052">
		<tag k="alt_name" v="Øver Sperillvatnet;Sperillvatnet øvre" />
		<tag k="name" v="Øvre Sperillvatnet" />
		<tag k="natural" v="water" />
		<tag k="old_name" v="Sperillen" />
		<tag k="ssr:stedsnr" v="862214" />
	</node>
	<node id="-826626" lat="63.2534222242" lon="9.13777221313">
		<tag k="name" v="Svorttjønna" />
		<tag k="natural" v="water" />
		<tag k="ssr:stedsnr" v="679887" />
	</node>
	<node id="-826625" lat="63.1524583292" lon="9.02372221315">
		<tag k="name" v="Kneppelfjellbekken" />
		<tag k="ssr:stedsnr" v="393359" />
		<tag k="waterway" v="stream" />
	</node>
	<node id="-826622" lat="63.3849277737" lon="8.99677777829">
		<tag k="name" v="Liaelva" />
		<tag k="ssr:stedsnr" v="619663" />
		<tag k="waterway" v="river" />
	</node>
	<node id="-826620" lat="63.2743000024" lon="8.85365278414">
		<tag k="name" v="Svartvatnet" />
		<tag k="natural" v="water" />
		<tag k="ssr:stedsnr" v="923952" />
	</node>
	<node id="-826619" lat="63.2320222267" lon="9.10924721673">
		<tag k="name" v="Seterbekken" />
		<tag k="ssr:stedsnr" v="514307" />
		<tag k="waterway" v="stream" />
	</node>
	<node id="-828666" lat="63.2827333314" lon="9.31432221715">
		<tag k="name" v="Knubbslettbekken" />
		<tag k="ssr:stedsnr" v="134262" />
		<tag k="waterway" v="stream" />
	</node>
	<node id="-826617" lat="63.3116222263" lon="9.16899999859">
		<tag k="name" v="Kvernhusdalsbekken" />
		<tag k="ssr:stedsnr" v="879878" />
		<tag k="waterway" v="stream" />
	</node>
	<node id="-826580" lat="63.1806499996" lon="8.85608334051">
		<tag k="name" v="Djupdalsbekken" />
		<tag k="ssr:stedsnr" v="636918" />
		<tag k="waterway" v="stream" />
	</node>
	<node id="-828659" lat="63.1990305565" lon="9.29655555107">
		<tag k="name" v="Litllihaugtjønna" />
		<tag k="natural" v="water" />
		<tag k="ssr:stedsnr" v="697287" />
	</node>
	<node id="-828650" lat="63.2864638885" lon="9.18831388794">
		<tag k="name" v="Aspdalstjønna" />
		<tag k="natural" v="water" />
		<tag k="ssr:stedsnr" v="316964" />
	</node>
	<node id="-828649" lat="63.2279083377" lon="9.03432222327">
		<tag k="name" v="Eidsfossen" />
		<tag k="ssr:stedsnr" v="451939" />
		<tag k="waterway" v="rapids" />
	</node>
	<node id="-826600" lat="63.3738472224" lon="9.06613332798">
		<tag k="name" v="Smogslitjønna" />
		<tag k="natural" v="water" />
		<tag k="ssr:stedsnr" v="497711" />
	</node>
	<node id="-828647" lat="63.2731777766" lon="8.83211667031">
		<tag k="name" v="Storlivatnet" />
		<tag k="natural" v="water" />
		<tag k="ssr:stedsnr" v="619945" />
	</node>
	<node id="-828642" lat="63.2435111087" lon="9.04388888159">
		<tag k="name" v="Sinnesodden" />
		<tag k="natural" v="cape" />
		<tag k="ssr:stedsnr" v="90506" />
	</node>
	<node id="-828637" lat="63.2163833368" lon="8.94032778395">
		<tag k="name" v="Småtjønnin" />
		<tag k="natural" v="water" />
		<tag k="ssr:stedsnr" v="451938" />
	</node>
	<node id="-826587" lat="63.2280861131" lon="9.32395556341">
		<tag k="name" v="Sluppsundet" />
		<tag k="natural" v="strait" />
		<tag k="ssr:stedsnr" v="272229" />
	</node>
	<node id="-826583" lat="63.2530361114" lon="8.94796388831">
		<tag k="name" v="Leiråvasslibekken" />
		<tag k="ssr:stedsnr" v="29144" />
		<tag k="waterway" v="stream" />
	</node>
	<node id="-828630" lat="63.3023666659" lon="9.05287777333">
		<tag k="name" v="Klosterbekken" />
		<tag k="ssr:stedsnr" v="575949" />
		<tag k="waterway" v="stream" />
	</node>
	<node id="-828628" lat="63.2106777802" lon="9.30858610678">
		<tag k="name" v="Kvernatjønna" />
		<tag k="natural" v="water" />
		<tag k="ssr:stedsnr" v="748176" />
	</node>
	<node id="-828619" lat="63.2083194414" lon="8.9821055628">
		<tag k="name" v="Vaultjønna" />
		<tag k="natural" v="water" />
		<tag k="ssr:stedsnr" v="875742" />
	</node>
	<node id="-828618" lat="63.408560589" lon="8.77132727086">
		<tag k="name" v="Småvatna" />
		<tag k="natural" v="water" />
		<tag k="ssr:stedsnr" v="940692" />
		<tag k="water" v="lake" />
	</node>
	<node id="-828615" lat="63.3727416664" lon="9.16420556441">
		<tag k="name" v="Nordlibekken" />
		<tag k="ssr:stedsnr" v="879796" />
		<tag k="waterway" v="stream" />
	</node>
	<node id="-828611" lat="63.223644443" lon="9.28575556257">
		<tag k="name" v="Flaugbekken" />
		<tag k="ssr:stedsnr" v="332233" />
		<tag k="waterway" v="stream" />
	</node>
	<node id="-826561" lat="63.2122805568" lon="9.24506388319">
		<tag k="name" v="Vikatjønna" />
		<tag k="natural" v="water" />
		<tag k="ssr:stedsnr" v="619594" />
	</node>
	<node id="-828604" lat="63.1814472242" lon="8.91348610513">
		<tag k="name" v="Gammelseterelva" />
		<tag k="ssr:stedsnr" v="879801" />
		<tag k="waterway" v="stream" />
	</node>
	<node id="-826554" lat="63.2057444462" lon="8.83931110302">
		<tag k="name" v="Bølielva" />
		<tag k="ssr:stedsnr" v="390872" />
		<tag k="waterway" v="stream" />
	</node>
	<node id="-828600" lat="63.3668638887" lon="9.04300556083">
		<tag k="alt_name" v="Sollibekk" />
		<tag k="name" v="Sollibekken" />
		<tag k="ssr:stedsnr" v="801720" />
		<tag k="waterway" v="stream" />
	</node>
	<node id="-826551" lat="63.2535699701" lon="9.0401392449">
		<tag k="name" v="Rovatnet" />
		<tag k="natural" v="water" />
		<tag k="ssr:stedsnr" v="680900" />
		<tag k="water" v="lake" />
	</node>
	<node id="-828598" lat="63.3945000035" lon="8.82051944557">
		<tag k="name" v="Langneset" />
		<tag k="natural" v="cape" />
		<tag k="ssr:stedsnr" v="272809" />
	</node>
	<node id="-826545" lat="63.3820972205" lon="8.83731388669">
		<tag k="name" v="Engdalsneset" />
		<tag k="natural" v="cape" />
		<tag k="ssr:stedsnr" v="151000" />
	</node>
	<node id="-828590" lat="63.1443305598" lon="9.14134999192">
		<tag k="name" v="Gravbekken" />
		<tag k="ssr:stedsnr" v="454427" />
		<tag k="waterway" v="stream" />
	</node>
	<node id="-826540" lat="63.33009167" lon="9.05787778426">
		<tag k="name" v="Flessbekken" />
		<tag k="ssr:stedsnr" v="636937" />
		<tag k="waterway" v="stream" />
	</node>
	<node id="-828274" lat="63.212363885" lon="9.32370277015">
		<tag k="name" v="Fiskbekken" />
		<tag k="ssr:stedsnr" v="757218" />
		<tag k="waterway" v="stream" />
	</node>
	<node id="-826535" lat="63.3772361089" lon="8.93523333936">
		<tag k="name" v="Langvatnet" />
		<tag k="natural" v="water" />
		<tag k="ssr:stedsnr" v="194702" />
		<tag k="water" v="lake" />
	</node>
	<node id="-828582" lat="63.2918833342" lon="8.87512222246">
		<tag k="name" v="Fjellørelva" />
		<tag k="ssr:stedsnr" v="862553" />
		<tag k="waterway" v="stream" />
	</node>
	<node id="-828581" lat="63.207863888" lon="9.17381110394">
		<tag k="name" v="Søylifossen" />
		<tag k="natural" v="waterfall" />
		<tag k="ssr:stedsnr" v="91336" />
	</node>
	<node id="-829094" lat="63.2770111112" lon="9.17963054918">
		<tag k="name" v="Svartholbekken" />
		<tag k="ssr:stedsnr" v="879036" />
		<tag k="waterway" v="stream" />
	</node>
	<node id="-826529" lat="63.2359222201" lon="9.34549999801">
		<tag k="name" v="Stobekken" />
		<tag k="ssr:stedsnr" v="405724" />
		<tag k="waterway" v="stream" />
	</node>
	<node id="-829296" lat="63.225411114" lon="9.2566444467">
		<tag k="name" v="Kvernabekken" />
		<tag k="ssr:stedsnr" v="575237" />
		<tag k="waterway" v="stream" />
	</node>
	<node id="-826524" lat="63.3143722211" lon="9.14840277587">
		<tag k="name" v="Ravaneset" />
		<tag k="natural" v="cape" />
		<tag k="ssr:stedsnr" v="150995" />
	</node>
	<node id="-829295" lat="63.3118972222" lon="9.07948889239">
		<tag k="name" v="Grøtbekken" />
		<tag k="ssr:stedsnr" v="879973" />
		<tag k="waterway" v="stream" />
	</node>
	<node id="-828565" lat="63.2343805568" lon="9.05203056544">
		<tag k="name" v="Langmyrbekken" />
		<tag k="ssr:stedsnr" v="211192" />
		<tag k="waterway" v="stream" />
	</node>
	<node id="-826516" lat="63.3144416688" lon="9.00488610692">
		<tag k="name" v="Nessaseterbekken" />
		<tag k="ssr:stedsnr" v="29967" />
		<tag k="waterway" v="stream" />
	</node>
	<node id="-826513" lat="63.2864333351" lon="8.92439166087">
		<tag k="name" v="Blomstadvatnet" />
		<tag k="natural" v="water" />
		<tag k="ssr:stedsnr" v="619603" />
	</node>
	<node id="-826511" lat="63.2522138881" lon="8.89513055125">
		<tag k="name" v="Melslættfossen" />
		<tag k="natural" v="waterfall" />
		<tag k="ssr:stedsnr" v="150141" />
	</node>
	<node id="-826510" lat="63.183166664" lon="8.96304723008">
		<tag k="name" v="Skardbekken" />
		<tag k="ssr:stedsnr" v="90782" />
		<tag k="waterway" v="stream" />
	</node>
	<node id="-826508" lat="63.2373305556" lon="8.900641669">
		<tag k="name" v="Fiskarodden" />
		<tag k="natural" v="cape" />
		<tag k="ssr:stedsnr" v="150142" />
	</node>
	<node id="-826503" lat="63.2172111146" lon="9.25733610328">
		<tag k="name" v="Vika" />
		<tag k="natural" v="bay" />
		<tag k="ssr:stedsnr" v="635231" />
	</node>
	<node id="-828548" lat="63.3988972222" lon="8.83821666521">
		<tag k="name" v="Osmarkbekken" />
		<tag k="ssr:stedsnr" v="212892" />
		<tag k="waterway" v="stream" />
	</node>
	<node id="-826498" lat="63.2846611112" lon="8.89975555638">
		<tag k="name" v="Litlmorrovatnet" />
		<tag k="natural" v="water" />
		<tag k="ssr:stedsnr" v="741660" />
	</node>
	<node id="-828545" lat="63.2115333293" lon="9.27955832518">
		<tag k="name" v="Vasslivatnet" />
		<tag k="natural" v="water" />
		<tag k="ssr:stedsnr" v="194516" />
		<tag k="water" v="lake" />
	</node>
	<node id="-826495" lat="63.1779944458" lon="8.97970278638">
		<tag k="name" v="Geitadalsbekken" />
		<tag k="ssr:stedsnr" v="90785" />
		<tag k="waterway" v="stream" />
	</node>
	<node id="-828542" lat="63.141430554" lon="9.08065555605">
		<tag k="name" v="Kårbekken" />
		<tag k="ssr:stedsnr" v="454415" />
		<tag k="waterway" v="stream" />
	</node>
	<node id="-828541" lat="63.3203999996" lon="9.09060277218">
		<tag k="name" v="Sørstubekken" />
		<tag k="ssr:stedsnr" v="272797" />
		<tag k="waterway" v="stream" />
	</node>
	<node id="-826482" lat="63.225861113" lon="9.29906111368">
		<tag k="name" v="Kvernabekken" />
		<tag k="ssr:stedsnr" v="818238" />
		<tag k="waterway" v="stream" />
	</node>
	<node id="-826481" lat="63.2706583371" lon="9.01445277485">
		<tag k="name" v="Fiskåberget" />
		<tag k="natural" v="cape" />
		<tag k="ssr:stedsnr" v="211474" />
	</node>
	<node id="-826480" lat="63.4141694469" lon="8.85432221262">
		<tag k="name" v="Litlvatnet" />
		<tag k="natural" v="water" />
		<tag k="ssr:stedsnr" v="437660" />
	</node>
	<node id="-828527" lat="63.3664611105" lon="9.09128610836">
		<tag k="name" v="Oddvatnet" />
		<tag k="natural" v="water" />
		<tag k="ssr:stedsnr" v="558777" />
	</node>
	<node id="-828523" lat="63.347536113" lon="9.01873055348">
		<tag k="name" v="Dalabekken" />
		<tag k="ssr:stedsnr" v="393874" />
		<tag k="waterway" v="stream" />
	</node>
	<node id="-826474" lat="63.2649777755" lon="8.98471945044">
		<tag k="name" v="Rumpliskardbekken" />
		<tag k="ssr:stedsnr" v="29117" />
		<tag k="waterway" v="stream" />
	</node>
	<node id="-826473" lat="63.164755557" lon="8.93366665822">
		<tag k="name" v="Litløyvatnet" />
		<tag k="natural" v="water" />
		<tag k="ssr:stedsnr" v="940973" />
		<tag k="water" v="lake" />
	</node>
	<node id="-828517" lat="63.1389777746" lon="8.93009443862">
		<tag k="name" v="Storbekkdalstjønna" />
		<tag k="natural" v="water" />
		<tag k="ssr:stedsnr" v="133700" />
	</node>
	<node id="-828515" lat="63.2497944434" lon="9.20602222681">
		<tag k="name" v="Fiskberget" />
		<tag k="natural" v="cape" />
		<tag k="ssr:stedsnr" v="514236" />
	</node>
	<node id="-826466" lat="63.2261083317" lon="9.35380000343">
		<tag k="name" v="Svartvikodden" />
		<tag k="natural" v="cape" />
		<tag k="ssr:stedsnr" v="405718" />
	</node>
	<node id="-826465" lat="63.2693361111" lon="8.8388333356">
		<tag k="name" v="Nyvatnet" />
		<tag k="natural" v="water" />
		<tag k="ssr:stedsnr" v="377911" />
	</node>
	<node id="-828512" lat="63.2457807575" lon="9.04721584834">
		<tag k="name" v="Sinnesvika" />
		<tag k="natural" v="bay" />
		<tag k="ssr:stedsnr" v="211179" />
	</node>
	<node id="-828510" lat="63.4229888925" lon="8.78911111937">
		<tag k="name" v="Fløosen" />
		<tag k="natural" v="bay" />
		<tag k="ssr:stedsnr" v="150688" />
	</node>
	<node id="-828508" lat="63.190788887" lon="8.99845833907">
		<tag k="name" v="Svartdalsbekken" />
		<tag k="ssr:stedsnr" v="333895" />
		<tag k="waterway" v="stream" />
	</node>
	<node id="-828602" lat="63.2363583297" lon="9.05242221879">
		<tag k="name" v="Leirvassbukta" />
		<tag k="natural" v="bay" />
		<tag k="ssr:stedsnr" v="90505" />
	</node>
	<node id="-828506" lat="63.2948250043" lon="9.06735276818">
		<tag k="name" v="Haugafossen" />
		<tag k="natural" v="waterfall" />
		<tag k="ssr:stedsnr" v="575050" />
	</node>
	<node id="-828505" lat="63.1877000044" lon="9.00909999479">
		<tag k="name" v="Storlibekken" />
		<tag k="ssr:stedsnr" v="272774" />
		<tag k="waterway" v="stream" />
	</node>
	<node id="-828503" lat="63.4036333346" lon="9.00380277588">
		<tag k="name" v="Midtøra" />
		<tag k="place" v="islet" />
		<tag k="ssr:stedsnr" v="29667" />
	</node>
	<node id="-828502" lat="63.2769222206" lon="8.87443334129">
		<tag k="name" v="Rundvatnet" />
		<tag k="natural" v="water" />
		<tag k="ssr:stedsnr" v="694747" />
	</node>
	<node id="-826452" lat="63.220883331" lon="9.02586110923">
		<tag k="name" v="Dammen" />
		<tag k="natural" v="water" />
		<tag k="ssr:stedsnr" v="572903" />
	</node>
	<node id="-826448" lat="63.2628805599" lon="9.19353889094">
		<tag k="name" v="Kanortjønna" />
		<tag k="natural" v="water" />
		<tag k="ssr:stedsnr" v="134921" />
	</node>
	<node id="-828495" lat="63.299197219" lon="9.24869444385">
		<tag k="alt_name" v="Dyrbendlivatnet;Dyrbeinlivatn, nedre" />
		<tag k="name" v="Nedre Dyrbeinlivatn" />
		<tag k="natural" v="water" />
		<tag k="ssr:stedsnr" v="134225" />
	</node>
	<node id="-826446" lat="63.3710027756" lon="8.87129999968">
		<tag k="name" v="Flattjønna" />
		<tag k="natural" v="water" />
		<tag k="ssr:stedsnr" v="862727" />
	</node>
	<node id="-826441" lat="63.2581500023" lon="8.90556666281">
		<tag k="name" v="Ivalitjønnin" />
		<tag k="natural" v="water" />
		<tag k="ssr:stedsnr" v="150123" />
	</node>
	<node id="-826435" lat="63.3133666711" lon="9.08139999262">
		<tag k="name" v="Alstadbekken" />
		<tag k="ssr:stedsnr" v="150966" />
		<tag k="waterway" v="stream" />
	</node>
	<node id="-828482" lat="63.2895194412" lon="9.24681388125">
		<tag k="name" v="Bjørnbettbekken" />
		<tag k="ssr:stedsnr" v="575929" />
		<tag k="waterway" v="stream" />
	</node>
	<node id="-826433" lat="63.2774138867" lon="8.93621943686">
		<tag k="name" v="Sollibekken" />
		<tag k="ssr:stedsnr" v="876775" />
		<tag k="waterway" v="stream" />
	</node>
	<node id="-829280" lat="63.209913888" lon="9.09041667062">
		<tag k="name" v="Søo" />
		<tag k="ssr:stedsnr" v="680817" />
		<tag k="waterway" v="river" />
	</node>
	<node id="-828476" lat="63.248913892" lon="9.1527861108">
		<tag k="name" v="Litltevatnet" />
		<tag k="natural" v="water" />
		<tag k="ssr:stedsnr" v="514246" />
	</node>
	<node id="-826427" lat="63.181147225" lon="9.0308500068">
		<tag k="name" v="Larsdalsbekken" />
		<tag k="ssr:stedsnr" v="575338" />
		<tag k="waterway" v="stream" />
	</node>
	<node id="-826422" lat="63.4224833324" lon="8.86588055571">
		<tag k="name" v="Kvolven" />
		<tag k="ssr:stedsnr" v="29941" />
		<tag k="waterway" v="stream" />
	</node>
	<node id="-826421" lat="63.4132944431" lon="8.81543888255">
		<tag k="name" v="Grønlitjønna" />
		<tag k="natural" v="water" />
		<tag k="ssr:stedsnr" v="73659" />
	</node>
	<node id="-826420" lat="63.2625583325" lon="8.84492776945">
		<tag k="name" v="Erklipollen" />
		<tag k="natural" v="water" />
		<tag k="ssr:stedsnr" v="377905" />
	</node>
	<node id="-828254" lat="63.368583331" lon="9.01876388991">
		<tag k="name" v="Hestneset" />
		<tag k="natural" v="cape" />
		<tag k="ssr:stedsnr" v="879732" />
	</node>
	<node id="-826416" lat="63.3106805533" lon="8.98222778361">
		<tag k="name" v="Bærhaugbekken" />
		<tag k="ssr:stedsnr" v="150955" />
		<tag k="waterway" v="stream" />
	</node>
	<node id="-828461" lat="63.3688111152" lon="9.03415000061">
		<tag k="alt_name" v="Køylo" />
		<tag k="name" v="Køyla" />
		<tag k="place" v="locality" />
		<tag k="ssr:stedsnr" v="558769" />
	</node>
	<node id="-828459" lat="63.2855472253" lon="9.20105556348">
		<tag k="name" v="Mårtjønna" />
		<tag k="natural" v="water" />
		<tag k="ssr:stedsnr" v="939002" />
	</node>
	<node id="-826409" lat="63.4115361106" lon="8.80339444019">
		<tag k="name" v="Flyddtjønna" />
		<tag k="natural" v="water" />
		<tag k="ssr:stedsnr" v="73660" />
	</node>
	<node id="-828453" lat="63.1396972237" lon="9.18154999694">
		<tag k="name" v="Nedre Gravtjønna" />
		<tag k="natural" v="water" />
		<tag k="ssr:stedsnr" v="133695" />
	</node>
	<node id="-826404" lat="63.153180552" lon="9.08836110993">
		<tag k="name" v="Kårlibekken" />
		<tag k="ssr:stedsnr" v="211456" />
		<tag k="waterway" v="stream" />
	</node>
	<node id="-828449" lat="63.3259861129" lon="8.92638332455">
		<tag k="name" v="Hundsvatna" />
		<tag k="natural" v="water" />
		<tag k="ssr:stedsnr" v="194504" />
	</node>
	<node id="-826398" lat="63.218891665" lon="9.2799666614">
		<tag k="name" v="Flaugtangen" />
		<tag k="natural" v="cape" />
		<tag k="ssr:stedsnr" v="939251" />
	</node>
	<node id="-828445" lat="63.3503638894" lon="9.02187499364">
		<tag k="name" v="Kattatjønna" />
		<tag k="natural" v="water" />
		<tag k="ssr:stedsnr" v="333883" />
	</node>
	<node id="-828440" lat="63.3509833364" lon="8.91666944057">
		<tag k="name" v="Kleivabekken" />
		<tag k="ssr:stedsnr" v="393859" />
		<tag k="waterway" v="stream" />
	</node>
	<node id="-826391" lat="63.2101944482" lon="9.15144166924">
		<tag k="name" v="Neset" />
		<tag k="natural" v="cape" />
		<tag k="ssr:stedsnr" v="758356" />
	</node>
	<node id="-826384" lat="63.1698722221" lon="9.04565276823">
		<tag k="name" v="Kulbekken" />
		<tag k="ssr:stedsnr" v="376828" />
		<tag k="waterway" v="stream" />
	</node>
	<node id="-826383" lat="63.2423194489" lon="9.19496111934">
		<tag k="name" v="Kringelbekken" />
		<tag k="ssr:stedsnr" v="818213" />
		<tag k="waterway" v="stream" />
	</node>
	<node id="-826382" lat="63.1833972235" lon="8.78500834034">
		<tag k="name" v="Gammelelva" />
		<tag k="ssr:stedsnr" v="636861" />
		<tag k="waterway" v="stream" />
	</node>
	<node id="-828429" lat="63.4094416681" lon="9.0751638971">
		<tag k="name" v="Gaupdalsbekken" />
		<tag k="ssr:stedsnr" v="680722" />
		<tag k="waterway" v="stream" />
	</node>
	<node id="-828428" lat="63.4217249994" lon="9.04463888625">
		<tag k="name" v="Kvitsanden" />
		<tag k="natural" v="beach" />
		<tag k="ssr:stedsnr" v="150661" />
	</node>
	<node id="-828425" lat="63.406002776" lon="9.1348749939">
		<tag k="name" v="Kattavikbekken" />
		<tag k="ssr:stedsnr" v="150662" />
		<tag k="waterway" v="stream" />
	</node>
	<node id="-828588" lat="63.2834472198" lon="9.09095556401">
		<tag k="name" v="Bugabekken" />
		<tag k="ssr:stedsnr" v="393053" />
		<tag k="waterway" v="stream" />
	</node>
	<node id="-828416" lat="63.2189888915" lon="9.17007222487">
		<tag k="name" v="Storbekkvatnet" />
		<tag k="natural" v="water" />
		<tag k="ssr:stedsnr" v="146734" />
	</node>
	<node id="-828415" lat="63.2049472266" lon="9.01704166978">
		<tag k="name" v="Mjøkstadbekken" />
		<tag k="ssr:stedsnr" v="575913" />
		<tag k="waterway" v="stream" />
	</node>
	<node id="-828410" lat="63.3648500026" lon="8.87184166174">
		<tag k="name" v="Øver Tverrbekken" />
		<tag k="ssr:stedsnr" v="333874" />
		<tag k="waterway" v="stream" />
	</node>
	<node id="-826359" lat="63.3920555519" lon="9.03853889472">
		<tag k="name" v="Simonstjønna" />
		<tag k="natural" v="water" />
		<tag k="ssr:stedsnr" v="437648" />
	</node>
	<node id="-828403" lat="63.2147555539" lon="9.25238333941">
		<tag k="name" v="Vikabekken" />
		<tag k="ssr:stedsnr" v="757233" />
		<tag k="waterway" v="stream" />
	</node>
	<node id="-828400" lat="63.243533335" lon="9.01934444366">
		<tag k="name" v="Langtrøbekken" />
		<tag k="ssr:stedsnr" v="211151" />
		<tag k="waterway" v="stream" />
	</node>
	<node id="-828399" lat="63.4183361073" lon="9.0553166724">
		<tag k="name" v="Heimsvatnet" />
		<tag k="natural" v="water" />
		<tag k="ssr:stedsnr" v="740399" />
		<tag k="water" v="lake" />
	</node>
	<node id="-826350" lat="63.1785638906" lon="9.0226444368">
		<tag k="name" v="Fjelna" />
		<tag k="ssr:stedsnr" v="376834" />
		<tag k="waterway" v="river" />
	</node>
	<node id="-826348" lat="63.2262888863" lon="9.02560000138">
		<tag k="name" v="Storstavåsbekken" />
		<tag k="ssr:stedsnr" v="757520" />
		<tag k="waterway" v="stream" />
	</node>
	<node id="-826346" lat="63.2391749975" lon="9.03553612082">
		<tag k="name" v="Hunnesbugen" />
		<tag k="natural" v="bay" />
		<tag k="ssr:stedsnr" v="272186" />
	</node>
	<node id="-826343" lat="63.2574777809" lon="9.12629445139">
		<tag k="name" v="Langvatnet" />
		<tag k="natural" v="water" />
		<tag k="ssr:stedsnr" v="802929" />
	</node>
	<node id="-826342" lat="63.2651555576" lon="9.1104666757">
		<tag k="name" v="Berget" />
		<tag k="natural" v="cape" />
		<tag k="ssr:stedsnr" v="29087" />
	</node>
	<node id="-826340" lat="63.2205277786" lon="9.2070027691">
		<tag k="name" v="Kvernbekken" />
		<tag k="ssr:stedsnr" v="393289" />
		<tag k="waterway" v="stream" />
	</node>
	<node id="-826339" lat="63.3207972254" lon="9.04193333396">
		<tag k="name" v="Tollneset" />
		<tag k="natural" v="cape" />
		<tag k="ssr:stedsnr" v="819909" />
	</node>
	<node id="-826337" lat="63.2552833366" lon="9.07570000129">
		<tag k="name" v="Vinddalstjønna" />
		<tag k="natural" v="water" />
		<tag k="ssr:stedsnr" v="802928" />
	</node>
	<node id="-826334" lat="63.3548472203" lon="9.07552500467">
		<tag k="name" v="Krålibekken" />
		<tag k="ssr:stedsnr" v="90743" />
		<tag k="waterway" v="stream" />
	</node>
	<node id="-826333" lat="63.2151166663" lon="9.29661666755">
		<tag k="name" v="Langdalsbukta" />
		<tag k="natural" v="bay" />
		<tag k="ssr:stedsnr" v="939249" />
	</node>
	<node id="-828379" lat="63.2361250031" lon="9.0535416738">
		<tag k="name" v="Leirvassbukta" />
		<tag k="natural" v="bay" />
		<tag k="ssr:stedsnr" v="514218" />
	</node>
	<node id="-826330" lat="63.2440472182" lon="9.12678055228">
		<tag k="name" v="Hopslættbekken" />
		<tag k="ssr:stedsnr" v="879185" />
		<tag k="waterway" v="stream" />
	</node>
	<node id="-828377" lat="63.3915194478" lon="9.1460638824">
		<tag k="name" v="Hestbekken" />
		<tag k="ssr:stedsnr" v="29638" />
		<tag k="waterway" v="stream" />
	</node>
	<node id="-828370" lat="63.241780552" lon="9.05927222639">
		<tag k="name" v="Rølbekken" />
		<tag k="ssr:stedsnr" v="818779" />
		<tag k="waterway" v="stream" />
	</node>
	<node id="-828368" lat="63.1769722264" lon="8.95025833017">
		<tag k="name" v="Litlslettelva" />
		<tag k="ssr:stedsnr" v="333879" />
		<tag k="waterway" v="river" />
	</node>
	<node id="-828366" lat="63.2468277794" lon="9.1696361136">
		<tag k="name" v="Hagaelva" />
		<tag k="ssr:stedsnr" v="923876" />
		<tag k="waterway" v="stream" />
	</node>
	<node id="-826317" lat="63.3271527743" lon="9.07030833506">
		<tag k="name" v="Seterbekken" />
		<tag k="ssr:stedsnr" v="29923" />
		<tag k="waterway" v="stream" />
	</node>
	<node id="-826316" lat="63.1223750019" lon="9.02748612003">
		<tag k="name" v="Råbekken" />
		<tag k="ssr:stedsnr" v="194670" />
		<tag k="waterway" v="stream" />
	</node>
	<node id="-826315" lat="63.3100166635" lon="8.93815834301">
		<tag k="name" v="Lona" />
		<tag k="place" v="locality" />
		<tag k="ssr:stedsnr" v="316584" />
	</node>
	<node id="-828361" lat="63.3474000014" lon="9.10191943959">
		<tag k="name" v="Kynnsvikelva" />
		<tag k="ssr:stedsnr" v="879764" />
		<tag k="waterway" v="stream" />
	</node>
	<node id="-826311" lat="63.256683335" lon="9.09555834323">
		<tag k="name" v="Langvassbekken" />
		<tag k="ssr:stedsnr" v="29081" />
		<tag k="waterway" v="stream" />
	</node>
	<node id="-826310" lat="63.2455194488" lon="9.10342778115">
		<tag k="name" v="Kattatjønna" />
		<tag k="natural" v="water" />
		<tag k="ssr:stedsnr" v="635187" />
	</node>
	<node id="-826308" lat="63.1624527811" lon="9.02771389261">
		<tag k="name" v="Kvernabekken" />
		<tag k="ssr:stedsnr" v="376822" />
		<tag k="waterway" v="stream" />
	</node>
	<node id="-828353" lat="63.2173861098" lon="9.22516388624">
		<tag k="name" v="Stetbekken" />
		<tag k="ssr:stedsnr" v="757246" />
		<tag k="waterway" v="stream" />
	</node>
	<node id="-828350" lat="63.4163027791" lon="8.80292222073">
		<tag k="name" v="Innervatnet" />
		<tag k="natural" v="water" />
		<tag k="ssr:stedsnr" v="437457" />
	</node>
	<node id="-828347" lat="63.2368037851" lon="9.0612745788">
		<tag k="name" v="Vollbekken" />
		<tag k="ssr:stedsnr" v="514200" />
		<tag k="waterway" v="stream" />
	</node>
	<node id="-826298" lat="63.392511112" lon="8.81959166341">
		<tag k="alt_name" v="Skogholman" />
		<tag k="name" v="Skogholmen" />
		<tag k="place" v="islet" />
		<tag k="ssr:stedsnr" v="437636" />
	</node>
	<node id="-826297" lat="63.2072527814" lon="9.19548333075">
		<tag k="name" v="Kambekken" />
		<tag k="ssr:stedsnr" v="758366" />
		<tag k="waterway" v="stream" />
	</node>
	<node id="-828343" lat="63.3778805563" lon="8.8651305469">
		<tag k="alt_name" v="Styggdalstjønna" />
		<tag k="name" v="Litl-Rennsjøen" />
		<tag k="natural" v="water" />
		<tag k="ssr:stedsnr" v="558759" />
	</node>
	<node id="-826294" lat="63.1286583324" lon="9.04445556396">
		<tag k="name" v="Storbekken" />
		<tag k="ssr:stedsnr" v="497667" />
		<tag k="waterway" v="stream" />
	</node>
	<node id="-827891" lat="63.4095805521" lon="8.83628333112">
		<tag k="name" v="Svarthammartjønna" />
		<tag k="natural" v="water" />
		<tag k="ssr:stedsnr" v="757944" />
	</node>
	<node id="-828335" lat="63.2357360233" lon="9.04142207266">
		<tag k="name" v="Djuphølen" />
		<tag k="place" v="locality" />
		<tag k="ssr:stedsnr" v="697208" />
	</node>
	<node id="-828334" lat="63.3235249963" lon="9.05690277305">
		<tag k="name" v="Litlvasslibekken" />
		<tag k="ssr:stedsnr" v="515918" />
		<tag k="waterway" v="stream" />
	</node>
	<node id="-826283" lat="63.2393388922" lon="9.0443527797">
		<tag k="name" v="Eidsneset" />
		<tag k="natural" v="cape" />
		<tag k="ssr:stedsnr" v="697502" />
	</node>
	<node id="-826282" lat="63.3077388898" lon="9.13783054842">
		<tag k="name" v="Kvernhusfossen" />
		<tag k="natural" v="waterfall" />
		<tag k="ssr:stedsnr" v="635996" />
	</node>
	<node id="-826280" lat="63.1972222216" lon="9.15166388776">
		<tag k="name" v="Svatjønna" />
		<tag k="natural" v="water" />
		<tag k="ssr:stedsnr" v="758360" />
	</node>
	<node id="-828325" lat="63.4123000035" lon="9.12413333309">
		<tag k="name" v="Silarbekken" />
		<tag k="ssr:stedsnr" v="376701" />
		<tag k="waterway" v="stream" />
	</node>
	<node id="-828320" lat="63.3732722257" lon="9.02229721549">
		<tag k="name" v="Dalabekken" />
		<tag k="ssr:stedsnr" v="150719" />
		<tag k="waterway" v="stream" />
	</node>
	<node id="-826268" lat="63.3867361147" lon="8.92870832335">
		<tag k="name" v="Øydalsvatnet" />
		<tag k="natural" v="water" />
		<tag k="ssr:stedsnr" v="73636" />
		<tag k="water" v="lake" />
	</node>
	<node id="-828313" lat="63.3585250045" lon="8.95688333426">
		<tag k="name" v="Sagfossen" />
		<tag k="natural" v="waterfall" />
		<tag k="ssr:stedsnr" v="133667" />
	</node>
	<node id="-826263" lat="63.3175027745" lon="8.97320000301">
		<tag k="name" v="Lomtjønna" />
		<tag k="natural" v="water" />
		<tag k="ssr:stedsnr" v="150926" />
	</node>
	<node id="-828307" lat="63.2657861091" lon="8.91083888805">
		<tag k="name" v="Tjønnslættjønna" />
		<tag k="natural" v="water" />
		<tag k="ssr:stedsnr" v="741946" />
	</node>
	<node id="-826255" lat="63.344086107" lon="8.97090834312">
		<tag k="name" v="Stortjønna" />
		<tag k="natural" v="water" />
		<tag k="ssr:stedsnr" v="195705" />
	</node>
	<node id="-826254" lat="63.2031694459" lon="9.29363889074">
		<tag k="name" v="Merkesbekken" />
		<tag k="ssr:stedsnr" v="212253" />
		<tag k="waterway" v="stream" />
	</node>
	<node id="-828301" lat="63.244683329" lon="8.90331112035">
		<tag k="name" v="Prestslættbukta" />
		<tag k="natural" v="bay" />
		<tag k="ssr:stedsnr" v="332136" />
	</node>
	<node id="-828300" lat="63.1733499996" lon="8.92928054592">
		<tag k="name" v="Øyatåa" />
		<tag k="natural" v="cape" />
		<tag k="ssr:stedsnr" v="212824" />
	</node>
	<node id="-826248" lat="63.2485833293" lon="8.90588889373">
		<tag k="name" v="Prestslættjønna" />
		<tag k="natural" v="water" />
		<tag k="ssr:stedsnr" v="635140" />
	</node>
	<node id="-828295" lat="63.1778583291" lon="8.93696944183">
		<tag k="name" v="Holmtåa" />
		<tag k="natural" v="cape" />
		<tag k="ssr:stedsnr" v="272713" />
	</node>
	<node id="-826245" lat="63.28898889" lon="9.04955276834">
		<tag k="name" v="Øygardsbekken" />
		<tag k="ssr:stedsnr" v="29063" />
		<tag k="waterway" v="stream" />
	</node>
	<node id="-828292" lat="63.3816388866" lon="9.13933888395">
		<tag k="name" v="Liabekken" />
		<tag k="ssr:stedsnr" v="635700" />
		<tag k="waterway" v="stream" />
	</node>
	<node id="-828291" lat="63.2404499973" lon="8.89407777366">
		<tag k="name" v="Hyllo" />
		<tag k="natural" v="cape" />
		<tag k="ssr:stedsnr" v="332135" />
	</node>
	<node id="-828289" lat="63.2101305536" lon="9.05570555852">
		<tag k="name" v="Steinøra" />
		<tag k="natural" v="beach" />
		<tag k="ssr:stedsnr" v="696370" />
	</node>
	<node id="-826239" lat="63.2423805537" lon="9.09116944796">
		<tag k="name" v="Tverrelva" />
		<tag k="ssr:stedsnr" v="939223" />
		<tag k="waterway" v="river" />
	</node>
	<node id="-826236" lat="63.2054388847" lon="9.03441666714">
		<tag k="name" v="Holbekken" />
		<tag k="ssr:stedsnr" v="575302" />
		<tag k="waterway" v="stream" />
	</node>
	<node id="-828282" lat="63.2800499982" lon="9.28474999698">
		<tag k="name" v="Fisktjønna" />
		<tag k="natural" v="water" />
		<tag k="ssr:stedsnr" v="681218" />
	</node>
	<node id="-826233" lat="63.1917472255" lon="9.01149166477">
		<tag k="name" v="Spjøto" />
		<tag k="ssr:stedsnr" v="150910" />
		<tag k="waterway" v="river" />
	</node>
	<node id="-826228" lat="63.2653611142" lon="9.2275444476">
		<tag k="name" v="Svarthammartjønna" />
		<tag k="natural" v="water" />
		<tag k="ssr:stedsnr" v="923008" />
	</node>
	<node id="-826226" lat="63.3164583309" lon="8.88627500269">
		<tag k="name" v="Hesttjønnin" />
		<tag k="natural" v="water" />
		<tag k="ssr:stedsnr" v="315489" />
	</node>
	<node id="-828273" lat="63.3413944435" lon="9.05477221575">
		<tag k="name" v="Litl Økselvatnet" />
		<tag k="natural" v="water" />
		<tag k="ssr:stedsnr" v="818761" />
		<tag k="water" v="lake" />
	</node>
	<node id="-826222" lat="63.1266722229" lon="8.98878889718">
		<tag k="name" v="Erktjønna" />
		<tag k="natural" v="water" />
		<tag k="ssr:stedsnr" v="219094" />
	</node>
	<node id="-826218" lat="63.232830553" lon="9.3159166687">
		<tag k="name" v="Kjerringbekken" />
		<tag k="ssr:stedsnr" v="939241" />
		<tag k="waterway" v="stream" />
	</node>
	<node id="-828262" lat="63.3869500037" lon="8.83155278396">
		<tag k="name" v="Haukarneset" />
		<tag k="natural" v="cape" />
		<tag k="ssr:stedsnr" v="333837" />
	</node>
	<node id="-828261" lat="63.2923555548" lon="9.23534444001">
		<tag k="name" v="Rørneset" />
		<tag k="natural" v="cape" />
		<tag k="ssr:stedsnr" v="211949" />
	</node>
	<node id="-829243" lat="63.1829305517" lon="8.77836943978">
		<tag k="name" v="Tortlibekken" />
		<tag k="ssr:stedsnr" v="879979" />
		<tag k="waterway" v="stream" />
	</node>
	<node id="-828256" lat="63.1764444462" lon="9.07550555487">
		<tag k="name" v="Rørlibekken" />
		<tag k="ssr:stedsnr" v="454330" />
		<tag k="waterway" v="stream" />
	</node>
	<node id="-826206" lat="63.310472222" lon="9.06257777987">
		<tag k="name" v="Fanabekken" />
		<tag k="ssr:stedsnr" v="635972" />
		<tag k="waterway" v="stream" />
	</node>
	<node id="-828251" lat="63.1873361078" lon="8.99614166701">
		<tag k="name" v="Spjøto" />
		<tag k="ssr:stedsnr" v="212810" />
		<tag k="waterway" v="river" />
	</node>
	<node id="-826200" lat="63.3251055576" lon="9.04952778138">
		<tag k="name" v="Litlvasslikrokan" />
		<tag k="ssr:stedsnr" v="394912" />
		<tag k="waterway" v="stream" />
	</node>
	<node id="-826195" lat="63.2139500001" lon="9.31459166688">
		<tag k="name" v="Litllitjønna" />
		<tag k="natural" v="water" />
		<tag k="ssr:stedsnr" v="333265" />
	</node>
	<node id="-826191" lat="63.3815861149" lon="8.95142778061">
		<tag k="name" v="Yttereidet" />
		<tag k="natural" v="strait" />
		<tag k="ssr:stedsnr" v="454629" />
	</node>
	<node id="-826185" lat="63.3832388918" lon="9.11181111534">
		<tag k="name" v="Røylitjønna" />
		<tag k="natural" v="water" />
		<tag k="ssr:stedsnr" v="90694" />
	</node>
	<node id="-828231" lat="63.3215194471" lon="9.05607776876">
		<tag k="name" v="Seterbekken" />
		<tag k="ssr:stedsnr" v="515919" />
		<tag k="waterway" v="stream" />
	</node>
	<node id="-826180" lat="63.1983500002" lon="9.3051277715">
		<tag k="name" v="Jøssåa" />
		<tag k="ssr:stedsnr" v="758303" />
		<tag k="waterway" v="river" />
	</node>
	<node id="-829238" lat="63.1601166704" lon="8.92683333418">
		<tag k="name" v="Storøybekken" />
		<tag k="ssr:stedsnr" v="272956" />
		<tag k="waterway" v="stream" />
	</node>
	<node id="-826177" lat="63.2395027742" lon="9.04747221825">
		<tag k="name" v="Eidsosen" />
		<tag k="natural" v="bay" />
		<tag k="ssr:stedsnr" v="939198" />
	</node>
	<node id="-828224" lat="63.2374203831" lon="9.0735546675">
		<tag k="name" v="Lielva" />
		<tag k="ssr:stedsnr" v="514202" />
		<tag k="waterway" v="river" />
	</node>
	<node id="-826175" lat="63.1961194489" lon="8.96381944994">
		<tag k="name" v="Tjørrhjellbekken" />
		<tag k="ssr:stedsnr" v="940898" />
		<tag k="waterway" v="stream" />
	</node>
	<node id="-826286" lat="63.3852166652" lon="8.8326250037">
		<tag k="name" v="Rennsjøen" />
		<tag k="natural" v="water" />
		<tag k="ssr:stedsnr" v="150929" />
		<tag k="water" v="lake" />
	</node>
	<node id="-826170" lat="63.2157000027" lon="8.96568888403">
		<tag k="name" v="Grytvatnet" />
		<tag k="natural" v="water" />
		<tag k="ssr:stedsnr" v="376799" />
	</node>
	<node id="-826169" lat="63.2411722256" lon="8.96649444207">
		<tag k="name" v="Leneselva" />
		<tag k="ssr:stedsnr" v="12758" />
		<tag k="waterway" v="river" />
	</node>
	<node id="-826168" lat="63.1500833371" lon="9.11657777139">
		<tag k="name" v="Vassråbekken" />
		<tag k="ssr:stedsnr" v="514458" />
		<tag k="waterway" v="stream" />
	</node>
	<node id="-828214" lat="63.2251166668" lon="9.35185555196">
		<tag k="name" v="Svartvikbukta" />
		<tag k="natural" v="bay" />
		<tag k="ssr:stedsnr" v="466714" />
	</node>
	<node id="-826165" lat="63.2506472267" lon="9.13036389045">
		<tag k="name" v="Litlsvorttjønna" />
		<tag k="natural" v="water" />
		<tag k="ssr:stedsnr" v="939201" />
	</node>
	<node id="-828210" lat="63.1451083329" lon="8.86296944186">
		<tag k="name" v="Staurset-elva" />
		<tag k="ssr:stedsnr" v="333845" />
		<tag k="waterway" v="river" />
	</node>
	<node id="-826161" lat="63.2312361116" lon="9.30461110226">
		<tag k="name" v="Gjerdabekken" />
		<tag k="ssr:stedsnr" v="393230" />
		<tag k="waterway" v="stream" />
	</node>
	<node id="-826159" lat="63.2080333326" lon="9.30704722199">
		<tag k="name" v="Svarttjønna" />
		<tag k="natural" v="water" />
		<tag k="ssr:stedsnr" v="73622" />
	</node>
	<node id="-826154" lat="63.1722027759" lon="8.95840277015">
		<tag k="name" v="Skytnes-bekken" />
		<tag k="ssr:stedsnr" v="636808" />
		<tag k="waterway" v="stream" />
	</node>
	<node id="-826152" lat="63.2065722209" lon="8.86395277124">
		<tag k="name" v="Hagabekken" />
		<tag k="ssr:stedsnr" v="454606" />
		<tag k="waterway" v="stream" />
	</node>
	<node id="-828198" lat="63.2962972226" lon="9.1655305458">
		<tag k="name" v="Skardtjønna" />
		<tag k="natural" v="water" />
		<tag k="ssr:stedsnr" v="575001" />
	</node>
	<node id="-828209" lat="63.1351657569" lon="8.97486277611">
		<tag k="alt_name" v="Fossdalfjellvatnet;Holavatnet" />
		<tag k="name" v="Fossdalsfjellvatnet" />
		<tag k="natural" v="water" />
		<tag k="ssr:stedsnr" v="133671" />
		<tag k="water" v="lake" />
	</node>
	<node id="-826147" lat="63.1801694475" lon="8.96978055079">
		<tag k="name" v="Spjøto" />
		<tag k="ssr:stedsnr" v="636805" />
		<tag k="waterway" v="river" />
	</node>
	<node id="-826139" lat="63.1916249987" lon="9.06126943663">
		<tag k="name" v="Jamdalsbekken" />
		<tag k="ssr:stedsnr" v="575271" />
		<tag k="waterway" v="stream" />
	</node>
	<node id="-828207" lat="63.1867750011" lon="8.81153055217">
		<tag k="name" v="Seterbekken" />
		<tag k="ssr:stedsnr" v="515901" />
		<tag k="waterway" v="stream" />
	</node>
	<node id="-828184" lat="63.2200472215" lon="9.04063610527">
		<tag k="name" v="Gravdalsbekken" />
		<tag k="ssr:stedsnr" v="272735" />
		<tag k="waterway" v="stream" />
	</node>
	<node id="-828182" lat="63.2532055537" lon="9.00508611868">
		<tag k="name" v="Bjørnalibekken" />
		<tag k="ssr:stedsnr" v="697171" />
		<tag k="waterway" v="stream" />
	</node>
	<node id="-828179" lat="63.3401694479" lon="8.9975833292">
		<tag k="name" v="Slabukta" />
		<tag k="natural" v="water" />
		<tag k="ssr:stedsnr" v="393833" />
		<tag k="water" v="lake" />
	</node>
	<node id="-828888" lat="63.2653916705" lon="9.33913611154">
		<tag k="name" v="Pollen" />
		<tag k="natural" v="water" />
		<tag k="ssr:stedsnr" v="741002" />
	</node>
	<node id="-826122" lat="63.26106944" lon="9.07298334279">
		<tag k="name" v="Vinddalsvatnet" />
		<tag k="natural" v="water" />
		<tag k="ssr:stedsnr" v="256880" />
		<tag k="water" v="lake" />
	</node>
	<node id="-828169" lat="63.2733083353" lon="9.10815833488">
		<tag k="name" v="Ånnavassdammen" />
		<tag k="ssr:stedsnr" v="211089" />
		<tag k="waterway" v="dam" />
	</node>
	<node id="-826120" lat="63.284166668" lon="9.11178332955">
		<tag k="name" v="Gaupbekken" />
		<tag k="ssr:stedsnr" v="150044" />
		<tag k="waterway" v="stream" />
	</node>
	<node id="-826112" lat="63.2413722193" lon="9.17253332852">
		<tag k="name" v="Frostbekken" />
		<tag k="ssr:stedsnr" v="393218" />
		<tag k="waterway" v="stream" />
	</node>
	<node id="-828158" lat="63.3369416681" lon="9.00244999444">
		<tag k="name" v="Kverhusbekken" />
		<tag k="ssr:stedsnr" v="333824" />
		<tag k="waterway" v="stream" />
	</node>
	<node id="-828157" lat="63.2592749978" lon="8.91952500799">
		<tag k="alt_name" v="Storskogsjøen" />
		<tag k="name" v="Skogsjøen" />
		<tag k="natural" v="water" />
		<tag k="ssr:stedsnr" v="741927" />
	</node>
	<node id="-828153" lat="63.3254916635" lon="8.9748361105">
		<tag k="name" v="Tverrdalsbekken" />
		<tag k="ssr:stedsnr" v="333821" />
		<tag k="waterway" v="stream" />
	</node>
	<node id="-826103" lat="63.2485333336" lon="9.06231666397">
		<tag k="name" v="Rønningsbekken" />
		<tag k="ssr:stedsnr" v="818175" />
		<tag k="waterway" v="stream" />
	</node>
	<node id="-828145" lat="63.1206361103" lon="8.91947221898">
		<tag k="name" v="Vardfjelltjønna" />
		<tag k="natural" v="water" />
		<tag k="ssr:stedsnr" v="801667" />
	</node>
	<node id="-828144" lat="63.2684888878" lon="8.86193055648">
		<tag k="name" v="Erklivatnet" />
		<tag k="natural" v="water" />
		<tag k="ssr:stedsnr" v="741943" />
	</node>
	<node id="-828200" lat="63.2868499971" lon="8.98205555287">
		<tag k="name" v="Bjørkseterbekken" />
		<tag k="ssr:stedsnr" v="754741" />
		<tag k="waterway" v="stream" />
	</node>
	<node id="-828139" lat="63.2093166667" lon="9.01864721755">
		<tag k="name" v="Tjønnan" />
		<tag k="natural" v="water" />
		<tag k="ssr:stedsnr" v="515859" />
	</node>
	<node id="-826090" lat="63.2545611068" lon="8.93496667235">
		<tag k="name" v="Fremmer Ålmustjønna" />
		<tag k="natural" v="water" />
		<tag k="ssr:stedsnr" v="635130" />
	</node>
	<node id="-826085" lat="63.2633472191" lon="8.97056388746">
		<tag k="name" v="Gammelbudalsbekken" />
		<tag k="ssr:stedsnr" v="879125" />
		<tag k="waterway" v="stream" />
	</node>
	<node id="-826084" lat="63.201894444" lon="9.07014165889">
		<tag k="name" v="Djupdalsbekken" />
		<tag k="ssr:stedsnr" v="757479" />
		<tag k="waterway" v="stream" />
	</node>
	<node id="-828130" lat="63.3049916681" lon="9.02700833134">
		<tag k="fixme" v="multiple name tags, choose one and add the other to alt_name" />
		<tag k="name" v="Aunbekken;Kjølbekken" />
		<tag k="ssr:stedsnr" v="680674" />
		<tag k="waterway" v="stream" />
	</node>
	<node id="-826079" lat="63.1478499959" lon="9.02740833029">
		<tag k="name" v="Botntjønna" />
		<tag k="natural" v="water" />
		<tag k="ssr:stedsnr" v="211372" />
	</node>
	<node id="-826078" lat="63.2235861073" lon="9.30784445175">
		<tag k="name" v="Svabergdalsbekken" />
		<tag k="ssr:stedsnr" v="757473" />
		<tag k="waterway" v="stream" />
	</node>
	<node id="-828122" lat="63.2686010175" lon="9.11216400401">
		<tag k="name" v="Ånnavatnet" />
		<tag k="natural" v="water" />
		<tag k="ssr:stedsnr" v="741937" />
		<tag k="water" v="lake" />
	</node>
	<node id="-828879" lat="63.248844446" lon="9.24629165708">
		<tag k="name" v="Nedre Middagslitjønna" />
		<tag k="natural" v="water" />
		<tag k="ssr:stedsnr" v="12675" />
	</node>
	<node id="-826066" lat="63.367072221" lon="8.87015833952">
		<tag k="name" v="Tverrbekktjønna" />
		<tag k="natural" v="water" />
		<tag k="ssr:stedsnr" v="29853" />
	</node>
	<node id="-828113" lat="63.2610222183" lon="8.92425833579">
		<tag k="name" v="Skogsjøelva" />
		<tag k="ssr:stedsnr" v="514155" />
		<tag k="waterway" v="river" />
	</node>
	<node id="-828112" lat="63.3194805555" lon="9.04442777593">
		<tag k="fixme" v="multiple name tags, choose one and add the other to alt_name" />
		<tag k="name" v="Alstadvatnet;Setervatnet" />
		<tag k="natural" v="water" />
		<tag k="ssr:stedsnr" v="194456" />
	</node>
	<node id="-828107" lat="63.3727333377" lon="9.15450555183">
		<tag k="name" v="Litlbugbekken" />
		<tag k="ssr:stedsnr" v="333807" />
		<tag k="waterway" v="stream" />
	</node>
	<node id="-828104" lat="63.2438972222" lon="9.05386944095">
		<tag k="name" v="Seljurdbukta" />
		<tag k="natural" v="bay" />
		<tag k="ssr:stedsnr" v="757184" />
	</node>
	<node id="-828099" lat="63.3196777799" lon="8.94925556239">
		<tag k="name" v="Flatvatnet" />
		<tag k="natural" v="water" />
		<tag k="ssr:stedsnr" v="194450" />
	</node>
	<node id="-828094" lat="63.4094611076" lon="9.12974721944">
		<tag k="name" v="Klovobekken" />
		<tag k="ssr:stedsnr" v="879669" />
		<tag k="waterway" v="stream" />
	</node>
	<node id="-828088" lat="63.3311611138" lon="8.96818333859">
		<tag k="name" v="Kvernhusbekken" />
		<tag k="ssr:stedsnr" v="575808" />
		<tag k="waterway" v="stream" />
	</node>
	<node id="-826244" lat="63.2474499996" lon="8.90799443492">
		<tag k="name" v="Prestslættbekken" />
		<tag k="ssr:stedsnr" v="635139" />
		<tag k="waterway" v="stream" />
	</node>
	<node id="-828079" lat="63.339938886" lon="8.98949999853">
		<tag k="name" v="Skarfossbekken" />
		<tag k="ssr:stedsnr" v="575812" />
		<tag k="waterway" v="stream" />
	</node>
	<node id="-828078" lat="63.1591055541" lon="8.87075833836">
		<tag k="name" v="Torkallbekken" />
		<tag k="ssr:stedsnr" v="150581" />
		<tag k="waterway" v="stream" />
	</node>
	<node id="-828076" lat="63.3263361074" lon="8.89583888611">
		<tag k="name" v="Botnvatnet" />
		<tag k="natural" v="water" />
		<tag k="ssr:stedsnr" v="12565" />
	</node>
	<node id="-828072" lat="63.2794277736" lon="8.98807777001">
		<tag k="name" v="Seterelva" />
		<tag k="ssr:stedsnr" v="802161" />
		<tag k="waterway" v="river" />
	</node>
	<node id="-828069" lat="63.212030553" lon="9.29083889381">
		<tag k="name" v="Buneset" />
		<tag k="natural" v="cape" />
		<tag k="ssr:stedsnr" v="81184" />
	</node>
	<node id="-828064" lat="63.3791444422" lon="8.8409888821">
		<tag k="name" v="Seterneset" />
		<tag k="natural" v="cape" />
		<tag k="ssr:stedsnr" v="698000" />
	</node>
	<node id="-828063" lat="63.1833916668" lon="8.77365000769">
		<tag k="name" v="Sommar-fjøsbekken" />
		<tag k="ssr:stedsnr" v="757990" />
		<tag k="waterway" v="stream" />
	</node>
	<node id="-828062" lat="63.1711166632" lon="8.99447778068">
		<tag k="name" v="Storlivatnet" />
		<tag k="natural" v="water" />
		<tag k="ssr:stedsnr" v="922776" />
	</node>
	<node id="-828185" lat="63.2588583325" lon="9.04263332605">
		<tag k="name" v="Hundholet" />
		<tag k="natural" v="cape" />
		<tag k="ssr:stedsnr" v="211117" />
	</node>
	<node id="-828599" lat="63.1523666629" lon="8.94948332527">
		<tag k="name" v="Skittenhols-elva" />
		<tag k="ssr:stedsnr" v="575954" />
		<tag k="waterway" v="stream" />
	</node>
	<node id="-828046" lat="63.2881638923" lon="9.01055556007">
		<tag k="name" v="Strandaøyan" />
		<tag k="place" v="island" />
		<tag k="ssr:stedsnr" v="211054" />
	</node>
	<node id="-828042" lat="63.4036777801" lon="8.9053305555">
		<tag k="name" v="Litlvatnet" />
		<tag k="natural" v="water" />
		<tag k="ssr:stedsnr" v="393759" />
	</node>
	<node id="-828034" lat="63.2828027751" lon="9.03978054579">
		<tag k="name" v="Sersjantstubekken" />
		<tag k="ssr:stedsnr" v="211056" />
		<tag k="waterway" v="stream" />
	</node>
	<node id="-828031" lat="63.3665027822" lon="9.14764445053">
		<tag k="name" v="Langbekken" />
		<tag k="ssr:stedsnr" v="818716" />
		<tag k="waterway" v="stream" />
	</node>
	<node id="-828030" lat="63.3101499975" lon="9.2116305544">
		<tag k="name" v="Hollaelva" />
		<tag k="ssr:stedsnr" v="680662" />
		<tag k="waterway" v="river" />
	</node>
	<node id="-828024" lat="63.176297218" lon="8.92981389238">
		<tag k="name" v="Holmen" />
		<tag k="place" v="islet" />
		<tag k="ssr:stedsnr" v="212763" />
	</node>
	<node id="-828023" lat="63.3678666698" lon="8.89943334322">
		<tag k="name" v="Singsdalselva" />
		<tag k="ssr:stedsnr" v="393756" />
		<tag k="waterway" v="river" />
	</node>
	<node id="-828021" lat="63.2757611107" lon="8.93438889451">
		<tag k="name" v="Rognlibekken" />
		<tag k="ssr:stedsnr" v="697133" />
		<tag k="waterway" v="stream" />
	</node>
	<node id="-827575" lat="63.3496749964" lon="9.10406388">
		<tag k="name" v="Kalvslåbekken" />
		<tag k="ssr:stedsnr" v="211775" />
		<tag k="waterway" v="stream" />
	</node>
	<node id="-828014" lat="63.2713250016" lon="8.92281667277">
		<tag k="name" v="Kudalstjønna" />
		<tag k="natural" v="water" />
		<tag k="ssr:stedsnr" v="697135" />
	</node>
	<node id="-829199" lat="63.2111666695" lon="8.95233056001">
		<tag k="name" v="Bergsåa" />
		<tag k="ssr:stedsnr" v="150836" />
		<tag k="waterway" v="stream" />
	</node>
	<node id="-827990" lat="63.2127555576" lon="9.00609722008">
		<tag k="name" v="Stokkdalsbekken" />
		<tag k="ssr:stedsnr" v="940534" />
		<tag k="waterway" v="stream" />
	</node>
	<node id="-827984" lat="63.2158888892" lon="9.01759721328">
		<tag k="name" v="Holbekken" />
		<tag k="ssr:stedsnr" v="940536" />
		<tag k="waterway" v="stream" />
	</node>
	<node id="-827972" lat="63.3326777769" lon="9.06247500654">
		<tag k="name" v="Skardsbekken" />
		<tag k="ssr:stedsnr" v="455936" />
		<tag k="waterway" v="stream" />
	</node>
	<node id="-828854" lat="63.3812388878" lon="8.9615277731">
		<tag k="name" v="Svanemsvatnet" />
		<tag k="natural" v="water" />
		<tag k="ssr:stedsnr" v="497617" />
		<tag k="water" v="lake" />
	</node>
	<node id="-827965" lat="63.1884916641" lon="8.95026110343">
		<tag k="name" v="Berhalsbekken" />
		<tag k="ssr:stedsnr" v="575785" />
		<tag k="waterway" v="stream" />
	</node>
	<node id="-826891" lat="63.4144222264" lon="8.81973888339">
		<tag k="name" v="Lomtjønna" />
		<tag k="natural" v="water" />
		<tag k="ssr:stedsnr" v="801424" />
	</node>
	<node id="-827951" lat="63.2420249973" lon="9.03953611822">
		<tag k="name" v="Hunnesodden" />
		<tag k="natural" v="cape" />
		<tag k="ssr:stedsnr" v="29532" />
	</node>
	<node id="-827949" lat="63.1779027814" lon="8.94419999132">
		<tag k="name" v="Brannhaugsanden" />
		<tag k="natural" v="bay" />
		<tag k="ssr:stedsnr" v="575788" />
	</node>
	<node id="-827945" lat="63.3223138846" lon="9.09385000239">
		<tag k="name" v="Langbekken" />
		<tag k="ssr:stedsnr" v="515826" />
		<tag k="waterway" v="stream" />
	</node>
	<node id="-827943" lat="63.2679111138" lon="9.06325277095">
		<tag k="name" v="Roøyelva" />
		<tag k="ssr:stedsnr" v="514115" />
		<tag k="waterway" v="river" />
	</node>
	<node id="-827941" lat="63.2125777764" lon="9.03750556015">
		<tag k="name" v="Søa" />
		<tag k="ssr:stedsnr" v="393749" />
		<tag k="waterway" v="river" />
	</node>
	<node id="-827935" lat="63.339194446" lon="8.90725556265">
		<tag k="name" v="Oldervatnet" />
		<tag k="natural" v="water" />
		<tag k="ssr:stedsnr" v="12544" />
		<tag k="water" v="lake" />
	</node>
	<node id="-827923" lat="63.3830777767" lon="8.87874999226">
		<tag k="name" v="Jonstjønna" />
		<tag k="natural" v="water" />
		<tag k="ssr:stedsnr" v="133615" />
	</node>
	<node id="-827909" lat="63.156302778" lon="8.93162221641">
		<tag k="name" v="Perslættbekken" />
		<tag k="ssr:stedsnr" v="757976" />
		<tag k="waterway" v="stream" />
	</node>
	<node id="-827907" lat="63.4255111134" lon="9.04481110176">
		<tag k="name" v="Ramnurdsbekken" />
		<tag k="ssr:stedsnr" v="272635" />
		<tag k="waterway" v="stream" />
	</node>
	<node id="-828160" lat="63.3182583355" lon="8.98097499751">
		<tag k="name" v="Kleivholbekken" />
		<tag k="ssr:stedsnr" v="332955" />
		<tag k="waterway" v="stream" />
	</node>
	<node id="-827901" lat="63.2783583362" lon="9.29555556142">
		<tag k="name" v="Kvernabekken" />
		<tag k="ssr:stedsnr" v="559223" />
		<tag k="waterway" v="stream" />
	</node>
	<node id="-827900" lat="63.3607805589" lon="9.12745833577">
		<tag k="name" v="Storbekken" />
		<tag k="ssr:stedsnr" v="575777" />
		<tag k="waterway" v="stream" />
	</node>
	<node id="-827894" lat="63.3877333319" lon="8.97208611842">
		<tag k="name" v="Svanemselva" />
		<tag k="ssr:stedsnr" v="801631" />
		<tag k="waterway" v="river" />
	</node>
	<node id="-827893" lat="63.1773722222" lon="8.98852777503">
		<tag k="name" v="Gammel-seterbekken" />
		<tag k="ssr:stedsnr" v="515810" />
		<tag k="waterway" v="stream" />
	</node>
	<node id="-826110" lat="63.2990222254" lon="8.96876110779">
		<tag k="name" v="Gorrtjønna" />
		<tag k="natural" v="water" />
		<tag k="ssr:stedsnr" v="514447" />
	</node>
	<node id="-827889" lat="63.2436249982" lon="9.05260833183">
		<tag k="name" v="Seljurdbukta" />
		<tag k="natural" v="bay" />
		<tag k="ssr:stedsnr" v="150526" />
	</node>
	<node id="-827884" lat="63.2285083294" lon="9.23558055303">
		<tag k="name" v="Dumpbekken" />
		<tag k="ssr:stedsnr" v="696246" />
		<tag k="waterway" v="stream" />
	</node>
	<node id="-827882" lat="63.2912555596" lon="9.20150278213">
		<tag k="fixme" v="multiple name tags, choose one and add the other to alt_name" />
		<tag k="name" v="Inner Setersetervatnet;Litlvatnet" />
		<tag k="natural" v="water" />
		<tag k="ssr:stedsnr" v="680624" />
	</node>
	<node id="-827815" lat="63.2501361154" lon="8.92058332413">
		<tag k="name" v="Ytter Ålmustjønna" />
		<tag k="natural" v="water" />
		<tag k="ssr:stedsnr" v="636506" />
	</node>
	<node id="-827877" lat="63.2245916658" lon="9.23821110939">
		<tag k="name" v="Stordalabekken" />
		<tag k="ssr:stedsnr" v="696248" />
		<tag k="waterway" v="stream" />
	</node>
	<node id="-827866" lat="63.3448166674" lon="8.97523056088">
		<tag k="name" v="Libekken" />
		<tag k="ssr:stedsnr" v="211869" />
		<tag k="waterway" v="stream" />
	</node>
	<node id="-827855" lat="63.172761111" lon="9.07793888489">
		<tag k="name" v="Seterdalsbekken" />
		<tag k="ssr:stedsnr" v="90305" />
		<tag k="waterway" v="stream" />
	</node>
	<node id="-827850" lat="63.1934833305" lon="9.03368611485">
		<tag k="name" v="Seterbekken" />
		<tag k="ssr:stedsnr" v="90309" />
		<tag k="waterway" v="stream" />
	</node>
	<node id="-827847" lat="63.1592499985" lon="8.9433444347">
		<tag k="name" v="Skjettenholvatnet" />
		<tag k="natural" v="water" />
		<tag k="ssr:stedsnr" v="315791" />
		<tag k="water" v="lake" />
	</node>
	<node id="-827824" lat="63.1739444433" lon="9.0655972223">
		<tag k="name" v="Rørlibekken" />
		<tag k="ssr:stedsnr" v="90303" />
		<tag k="waterway" v="stream" />
	</node>
	<node id="-827817" lat="63.2999277801" lon="8.97220833177">
		<tag k="name" v="Gorrtjønnbekken" />
		<tag k="ssr:stedsnr" v="211946" />
		<tag k="waterway" v="stream" />
	</node>
	<node id="-828828" lat="63.2040444463" lon="9.3039194395">
		<tag k="name" v="Flakalitjønna" />
		<tag k="natural" v="water" />
		<tag k="ssr:stedsnr" v="697282" />
	</node>
	<node id="-827814" lat="63.2417916674" lon="9.05928333746">
		<tag k="name" v="Rørbekken" />
		<tag k="ssr:stedsnr" v="757177" />
		<tag k="waterway" v="stream" />
	</node>
	<node id="-827813" lat="63.1451277809" lon="9.13801388728">
		<tag k="name" v="Snipmyrbekken" />
		<tag k="ssr:stedsnr" v="90402" />
		<tag k="waterway" v="stream" />
	</node>
	<node id="-827811" lat="63.3563388889" lon="8.96299443739">
		<tag k="name" v="Dalabekken" />
		<tag k="ssr:stedsnr" v="575837" />
		<tag k="waterway" v="stream" />
	</node>
	<node id="-827805" lat="63.3926388881" lon="9.10603611316">
		<tag k="fixme" v="multiple name tags, choose one and add the other to alt_name" />
		<tag k="name" v="Djupdalstjønna;Djupdalsvatnet" />
		<tag k="natural" v="water" />
		<tag k="ssr:stedsnr" v="558671" />
	</node>
	<node id="-827800" lat="63.324547221" lon="9.06771943655">
		<tag k="name" v="Kvernhuslifossen" />
		<tag k="natural" v="waterfall" />
		<tag k="ssr:stedsnr" v="697924" />
	</node>
	<node id="-827792" lat="63.2787305516" lon="9.24585556392">
		<tag k="name" v="Inner Furunesbekken" />
		<tag k="ssr:stedsnr" v="332012" />
		<tag k="waterway" v="stream" />
	</node>
	<node id="-827783" lat="63.247405558" lon="9.09970556427">
		<tag k="name" v="Elvakroken" />
		<tag k="natural" v="water" />
		<tag k="ssr:stedsnr" v="454202" />
		<tag k="water" v="lake" />
	</node>
	<node id="-827782" lat="63.3853388872" lon="8.8668527729">
		<tag k="name" v="Svarttjønna" />
		<tag k="natural" v="water" />
		<tag k="ssr:stedsnr" v="558674" />
	</node>
	<node id="-828138" lat="63.222588893" lon="9.28925556053">
		<tag k="name" v="Flaugelva" />
		<tag k="ssr:stedsnr" v="12579" />
		<tag k="waterway" v="stream" />
	</node>
	<node id="-828819" lat="63.2907694458" lon="9.21620277746">
		<tag k="name" v="Grashaugtjønna" />
		<tag k="natural" v="water" />
		<tag k="ssr:stedsnr" v="818007" />
	</node>
	<node id="-827758" lat="63.2837250011" lon="9.39547222197">
		<tag k="name" v="Nordre Jonstjønna" />
		<tag k="natural" v="water" />
		<tag k="ssr:stedsnr" v="923257" />
	</node>
	<node id="-827755" lat="63.3652111113" lon="9.07132222894">
		<tag k="name" v="Kleivslættbekken" />
		<tag k="ssr:stedsnr" v="515743" />
		<tag k="waterway" v="stream" />
	</node>
	<node id="-827752" lat="63.2417722689" lon="9.04988508703">
		<tag k="name" v="Libukta" />
		<tag k="natural" v="bay" />
		<tag k="ssr:stedsnr" v="454185" />
	</node>
	<node id="-827748" lat="63.1986666663" lon="9.09215000896">
		<tag k="name" v="Setervatnet" />
		<tag k="natural" v="water" />
		<tag k="ssr:stedsnr" v="316829" />
	</node>
	<node id="-828475" lat="63.1703888869" lon="8.85274167502">
		<tag k="name" v="Heimseter-bekken" />
		<tag k="ssr:stedsnr" v="575903" />
		<tag k="waterway" v="stream" />
	</node>
	<node id="-828816" lat="63.4091999975" lon="8.82765833419">
		<tag k="name" v="Høgbruntjønna" />
		<tag k="natural" v="water" />
		<tag k="ssr:stedsnr" v="12659" />
	</node>
	<node id="-827731" lat="63.3402333336" lon="9.10111666718">
		<tag k="name" v="Litlliskardsbekken" />
		<tag k="ssr:stedsnr" v="211819" />
		<tag k="waterway" v="stream" />
	</node>
	<node id="-827728" lat="63.2015500021" lon="8.98658333103">
		<tag k="name" v="Sagholmen" />
		<tag k="place" v="islet" />
		<tag k="ssr:stedsnr" v="757921" />
	</node>
	<node id="-827720" lat="63.1451138931" lon="8.86295554682">
		<tag k="name" v="Staursetelva" />
		<tag k="ssr:stedsnr" v="29463" />
		<tag k="waterway" v="river" />
	</node>
	<node id="-829153" lat="63.2450777733" lon="8.91989166182">
		<tag k="name" v="Steinholmen" />
		<tag k="place" v="islet" />
		<tag k="ssr:stedsnr" v="818121" />
	</node>
	<node id="-828470" lat="63.4178472226" lon="9.10924999904">
		<tag k="name" v="Kvernbekken" />
		<tag k="ssr:stedsnr" v="150670" />
		<tag k="waterway" v="stream" />
	</node>
	<node id="-827713" lat="63.2669027788" lon="9.17945278704">
		<tag k="name" v="Tverrfjellbekken" />
		<tag k="ssr:stedsnr" v="757054" />
		<tag k="waterway" v="stream" />
	</node>
	<node id="-826951" lat="63.3635138901" lon="8.93636666824">
		<tag k="name" v="Jonsmyrneset" />
		<tag k="natural" v="cape" />
		<tag k="ssr:stedsnr" v="515624" />
	</node>
	<node id="-827705" lat="63.272725" lon="9.12217778754">
		<tag k="name" v="Høglitjønna" />
		<tag k="natural" v="water" />
		<tag k="ssr:stedsnr" v="438926" />
	</node>
	<node id="-828468" lat="63.1487222181" lon="9.1054055462">
		<tag k="name" v="Kårvatnet" />
		<tag k="natural" v="water" />
		<tag k="ssr:stedsnr" v="133693" />
	</node>
	<node id="-827692" lat="63.3017749957" lon="9.23303610711">
		<tag k="name" v="Dyrbendlibekken" />
		<tag k="ssr:stedsnr" v="757888" />
		<tag k="waterway" v="stream" />
	</node>
	<node id="-827687" lat="63.3033750042" lon="8.89360555293">
		<tag k="alt_name" v="Storbubekken" />
		<tag k="name" v="Storrbubekken" />
		<tag k="ssr:stedsnr" v="133569" />
		<tag k="waterway" v="stream" />
	</node>
	<node id="-827685" lat="63.2026694406" lon="9.14891111811">
		<tag k="name" v="Damtjønnbekken" />
		<tag k="ssr:stedsnr" v="151318" />
		<tag k="waterway" v="stream" />
	</node>
	<node id="-827683" lat="63.4112499961" lon="9.06505832776">
		<tag k="name" v="Heimsdalsbekken" />
		<tag k="ssr:stedsnr" v="393669" />
		<tag k="waterway" v="stream" />
	</node>
	<node id="-828464" lat="63.3472166641" lon="9.04785000269">
		<tag k="name" v="Almlibekken" />
		<tag k="ssr:stedsnr" v="635750" />
		<tag k="waterway" v="stream" />
	</node>
	<node id="-827677" lat="63.3975861068" lon="8.82686945047">
		<tag k="name" v="Novika" />
		<tag k="natural" v="bay" />
		<tag k="ssr:stedsnr" v="451714" />
	</node>
	<node id="-827667" lat="63.3489472213" lon="9.07328889557">
		<tag k="name" v="Hundholtjønna" />
		<tag k="natural" v="water" />
		<tag k="ssr:stedsnr" v="680598" />
	</node>
	<node id="-827664" lat="63.2950500013" lon="8.99018333588">
		<tag k="name" v="Skårbekken" />
		<tag k="ssr:stedsnr" v="255564" />
		<tag k="waterway" v="stream" />
	</node>
	<node id="-827655" lat="63.2393861109" lon="8.90473055117">
		<tag k="name" v="Leiråvatnet" />
		<tag k="natural" v="water" />
		<tag k="ssr:stedsnr" v="315759" />
		<tag k="water" v="lake" />
	</node>
	<node id="-827653" lat="63.2640694412" lon="8.98824167317">
		<tag k="name" v="Fiskåa" />
		<tag k="ssr:stedsnr" v="498924" />
		<tag k="waterway" v="stream" />
	</node>
	<node id="-827649" lat="63.2899027819" lon="9.15676667068">
		<tag k="name" v="Hagaelva" />
		<tag k="ssr:stedsnr" v="134613" />
		<tag k="waterway" v="river" />
	</node>
	<node id="-827642" lat="63.1532055563" lon="8.86431112022">
		<tag k="name" v="Vassbukta" />
		<tag k="natural" v="bay" />
		<tag k="ssr:stedsnr" v="272550" />
	</node>
	<node id="-827640" lat="63.1510805529" lon="8.86126110765">
		<tag k="name" v="Vassbukta" />
		<tag k="natural" v="bay" />
		<tag k="ssr:stedsnr" v="272549" />
	</node>
	<node id="-827636" lat="63.2584277819" lon="9.24706944169">
		<tag k="name" v="Strenggardsvatnet" />
		<tag k="natural" v="water" />
		<tag k="ssr:stedsnr" v="13008" />
	</node>
	<node id="-827634" lat="63.1925888858" lon="8.94928888365">
		<tag k="name" v="Berhalsbekken" />
		<tag k="ssr:stedsnr" v="757866" />
		<tag k="waterway" v="stream" />
	</node>
	<node id="-827631" lat="63.43415556" lon="9.06388611143">
		<tag k="name" v="Oternesvatnet" />
		<tag k="natural" v="water" />
		<tag k="ssr:stedsnr" v="438383" />
		<tag k="water" v="lake" />
	</node>
	<node id="-827629" lat="63.4370222193" lon="9.04492777346">
		<tag k="name" v="Litlvatnet" />
		<tag k="natural" v="water" />
		<tag k="ssr:stedsnr" v="272533" />
		<tag k="water" v="lake" />
	</node>
	<node id="-827771" lat="63.3870388897" lon="8.79739723048">
		<tag k="name" v="Raplibekken" />
		<tag k="ssr:stedsnr" v="211835" />
		<tag k="waterway" v="stream" />
	</node>
	<node id="-827616" lat="63.278583331" lon="9.15782500109">
		<tag k="name" v="Dyrlibekken" />
		<tag k="ssr:stedsnr" v="74924" />
		<tag k="waterway" v="stream" />
	</node>
	<node id="-827610" lat="63.1435250034" lon="8.85637500387">
		<tag k="name" v="Tortlibekken" />
		<tag k="ssr:stedsnr" v="150442" />
		<tag k="waterway" v="stream" />
	</node>
	<node id="-827605" lat="63.3433305511" lon="8.99667221805">
		<tag k="name" v="Skardsfossen" />
		<tag k="natural" v="waterfall" />
		<tag k="ssr:stedsnr" v="757861" />
	</node>
	<node id="-827600" lat="63.1915666667" lon="8.86011110775">
		<tag k="name" v="Staursetelva" />
		<tag k="ssr:stedsnr" v="697861" />
		<tag k="waterway" v="river" />
	</node>
	<node id="-827085" lat="63.4098527809" lon="8.86008610314">
		<tag k="name" v="Budalstjønna" />
		<tag k="natural" v="water" />
		<tag k="ssr:stedsnr" v="90930" />
	</node>
	<node id="-827584" lat="63.2623666708" lon="8.90873056149">
		<tag k="name" v="Tverrlibekken" />
		<tag k="ssr:stedsnr" v="454132" />
		<tag k="waterway" v="stream" />
	</node>
	<node id="-827579" lat="63.1364722244" lon="8.97540556127">
		<tag k="alt_name" v="Fossdalfjellvatnet" />
		<tag k="name" v="Fossdalsfjellvatnet" />
		<tag k="natural" v="water" />
		<tag k="ssr:stedsnr" v="158133" />
		<tag k="water" v="lake" />
	</node>
	<node id="-827577" lat="63.2513638862" lon="9.20566667519">
		<tag k="name" v="Strengvatnet" />
		<tag k="natural" v="water" />
		<tag k="ssr:stedsnr" v="497890" />
	</node>
	<node id="-828788" lat="63.2616638919" lon="9.18271111564">
		<tag k="name" v="Tverrfjellvatnet" />
		<tag k="natural" v="water" />
		<tag k="ssr:stedsnr" v="923925" />
	</node>
	<node id="-827571" lat="63.2820749984" lon="9.10638888796">
		<tag k="name" v="Seterbekken" />
		<tag k="ssr:stedsnr" v="757036" />
		<tag k="waterway" v="stream" />
	</node>
	<node id="-827569" lat="63.1479194483" lon="9.09150555129">
		<tag k="name" v="Skardtjønna" />
		<tag k="natural" v="water" />
		<tag k="ssr:stedsnr" v="150432" />
	</node>
	<node id="-827567" lat="63.1390833306" lon="9.1259416585">
		<tag k="name" v="Seterbekken" />
		<tag k="ssr:stedsnr" v="29410" />
		<tag k="waterway" v="stream" />
	</node>
	<node id="-827542" lat="63.281855558" lon="8.85562777383">
		<tag k="name" v="Kristoffertjønnin" />
		<tag k="natural" v="water" />
		<tag k="ssr:stedsnr" v="558618" />
	</node>
	<node id="-827539" lat="63.2326777804" lon="9.34723333914">
		<tag k="name" v="Kvernhusbekken" />
		<tag k="ssr:stedsnr" v="648689" />
		<tag k="waterway" v="stream" />
	</node>
	<node id="-827538" lat="63.362597219" lon="8.94985833922">
		<tag k="name" v="Kalvtrøneset" />
		<tag k="natural" v="cape" />
		<tag k="ssr:stedsnr" v="757833" />
	</node>
	<node id="-827536" lat="63.3890750005" lon="8.94997499048">
		<tag k="name" v="Stokkdalstjønna" />
		<tag k="natural" v="water" />
		<tag k="ssr:stedsnr" v="393610" />
	</node>
	<node id="-827523" lat="63.3678388912" lon="8.91913889246">
		<tag k="name" v="Singsdalsbukta" />
		<tag k="natural" v="bay" />
		<tag k="ssr:stedsnr" v="393621" />
	</node>
	<node id="-827510" lat="63.2534805515" lon="8.86919167238">
		<tag k="name" v="Erklibekken" />
		<tag k="ssr:stedsnr" v="438899" />
		<tag k="waterway" v="stream" />
	</node>
	<node id="-827501" lat="63.1661000003" lon="8.83931388629">
		<tag k="name" v="Prekstolbekken" />
		<tag k="ssr:stedsnr" v="212605" />
		<tag k="waterway" v="stream" />
	</node>
	<node id="-827500" lat="63.1718916672" lon="8.93042499179">
		<tag k="name" v="Litlseterbekken" />
		<tag k="ssr:stedsnr" v="697833" />
		<tag k="waterway" v="stream" />
	</node>
	<node id="-827482" lat="63.1284972211" lon="8.87881943921">
		<tag k="name" v="Øvre Langvatnet" />
		<tag k="natural" v="water" />
		<tag k="ssr:stedsnr" v="922679" />
		<tag k="water" v="lake" />
	</node>
	<node id="-827478" lat="63.1443861133" lon="9.10711666395">
		<tag k="name" v="Kårbekken" />
		<tag k="ssr:stedsnr" v="315720" />
		<tag k="waterway" v="stream" />
	</node>
	<node id="-827469" lat="63.34504722" lon="9.04035555421">
		<tag k="name" v="Almlitjønna" />
		<tag k="natural" v="water" />
		<tag k="ssr:stedsnr" v="255530" />
	</node>
	<node id="-827463" lat="63.1571749968" lon="8.83544721526">
		<tag k="name" v="Gammelseterbekken" />
		<tag k="ssr:stedsnr" v="393586" />
		<tag k="waterway" v="stream" />
	</node>
	<node id="-827462" lat="63.1644666681" lon="9.07302777158">
		<tag k="name" v="Freksbakkbekken" />
		<tag k="ssr:stedsnr" v="29378" />
		<tag k="waterway" v="stream" />
	</node>
	<node id="-827745" lat="63.2615305581" lon="9.02006945158">
		<tag k="name" v="Lenesodden" />
		<tag k="natural" v="cape" />
		<tag k="ssr:stedsnr" v="757094" />
	</node>
	<node id="-827453" lat="63.3958861138" lon="9.02132221406">
		<tag k="name" v="Langdalsbekken" />
		<tag k="ssr:stedsnr" v="575628" />
		<tag k="waterway" v="stream" />
	</node>
	<node id="-827447" lat="63.3975666689" lon="9.01293056299">
		<tag k="name" v="Køylo" />
		<tag k="ssr:stedsnr" v="575630" />
		<tag k="waterway" v="stream" />
	</node>
	<node id="-827440" lat="63.3988750019" lon="9.02971945411">
		<tag k="name" v="Simonsbekken" />
		<tag k="ssr:stedsnr" v="515656" />
		<tag k="waterway" v="stream" />
	</node>
	<node id="-827438" lat="63.1761222243" lon="8.96773332969">
		<tag k="name" v="Kudals-bekken" />
		<tag k="ssr:stedsnr" v="697803" />
		<tag k="waterway" v="stream" />
	</node>
	<node id="-827434" lat="63.1594888864" lon="8.86046388029">
		<tag k="name" v="Staursetelva" />
		<tag k="ssr:stedsnr" v="393589" />
		<tag k="waterway" v="river" />
	</node>
	<node id="-828423" lat="63.3674500027" lon="9.11736389225">
		<tag k="name" v="Seterbekken" />
		<tag k="ssr:stedsnr" v="558775" />
		<tag k="waterway" v="stream" />
	</node>
	<node id="-827431" lat="63.2841888928" lon="9.27492222648">
		<tag k="name" v="Kjellsvatnet" />
		<tag k="natural" v="water" />
		<tag k="ssr:stedsnr" v="741276" />
	</node>
	<node id="-827423" lat="63.4119888878" lon="8.85471667586">
		<tag k="name" v="Kråtjønna" />
		<tag k="natural" v="water" />
		<tag k="ssr:stedsnr" v="454945" />
	</node>
	<node id="-827417" lat="63.2778166665" lon="9.22823889451">
		<tag k="name" v="Storfjellvatnet" />
		<tag k="natural" v="water" />
		<tag k="ssr:stedsnr" v="741289" />
	</node>
	<node id="-827412" lat="63.3696694418" lon="9.03111666574">
		<tag k="name" v="Killingholmen" />
		<tag k="place" v="islet" />
		<tag k="ssr:stedsnr" v="211724" />
	</node>
	<node id="-827404" lat="63.2634388869" lon="8.93600278661">
		<tag k="name" v="Skogsjølifossen" />
		<tag k="natural" v="waterfall" />
		<tag k="ssr:stedsnr" v="757116" />
	</node>
	<node id="-827403" lat="63.1651972258" lon="8.85168611477">
		<tag k="name" v="Hyllbekken" />
		<tag k="ssr:stedsnr" v="575749" />
		<tag k="waterway" v="stream" />
	</node>
	<node id="-827402" lat="63.2938166648" lon="9.02821388131">
		<tag k="name" v="Dalemselva" />
		<tag k="ssr:stedsnr" v="13575" />
		<tag k="waterway" v="river" />
	</node>
	<node id="-827393" lat="63.1374277816" lon="9.05963888637">
		<tag k="name" v="Anderslibekken" />
		<tag k="ssr:stedsnr" v="29490" />
		<tag k="waterway" v="stream" />
	</node>
</osm>
