<?xml version="1.0" encoding="UTF-8"?>
<osm generator="osmapis" version="0.6">
	<node id="-830674" lat="63.2670027772" lon="9.06574999778">
		<tag k="name" v="Vinddalssaga" />
		<tag k="place" v="locality" />
		<tag k="ssr:stedsnr" v="572766" />
	</node>
	<node id="-828726" lat="63.2069057211" lon="8.99694021477">
		<tag k="alt_name" v="Vinje" />
		<tag k="amenity" v="place_of_worship" />
		<tag k="denomination" v="lutheran" />
		<tag k="name" v="Vinje kirke" />
		<tag k="religion" v="christian" />
		<tag k="ssr:stedsnr" v="73781" />
	</node>
	<node id="-827826" lat="63.4237526635" lon="9.09324674163">
		<tag k="amenity" v="place_of_worship" />
		<tag k="denomination" v="lutheran" />
		<tag k="name" v="Heim kirke" />
		<tag k="religion" v="christian" />
		<tag k="ssr:stedsnr" v="681407" />
	</node>
	<node id="-829037" lat="63.287293589" lon="9.07929342104">
		<tag k="alt_name" v="Hemne" />
		<tag k="amenity" v="place_of_worship" />
		<tag k="denomination" v="lutheran" />
		<tag k="name" v="Hemne kirke" />
		<tag k="religion" v="christian" />
		<tag k="ssr:stedsnr" v="558626" />
	</node>
	<node id="-828178" lat="63.249138891" lon="9.07168333">
		<tag k="name" v="Lunnrommet" />
		<tag k="place" v="locality" />
		<tag k="ssr:stedsnr" v="330930" />
	</node>
	<node id="-827685" lat="63.4370999978" lon="9.02713333147">
		<tag k="amenity" v="community_centre" />
		<tag k="name" v="VÃ¥rtun" />
		<tag k="ssr:stedsnr" v="256358" />
	</node>
</osm>
