<?xml version="1.0" encoding="UTF-8"?>
<osm generator="osmapis" version="0.6">
	<node id="-821760" lat="63.4613166684" lon="8.99565554557">
		<tag k="name" v="Kråkdalsneset" />
		<tag k="natural" v="cape" />
		<tag k="ssr:stedsnr" v="514646" />
	</node>
	<node id="-824025" lat="63.4205472248" lon="8.94890000867">
		<tag k="alt_name" v="Slåttaholmen" />
		<tag k="name" v="Olaholmen" />
		<tag k="place" v="islet" />
		<tag k="ssr:stedsnr" v="498147" />
	</node>
	<node id="-821757" lat="63.4077888931" lon="8.90170278457">
		<tag k="fixme" v="multiple name tags, choose one and add the other to alt_name" />
		<tag k="name" v="Bjellvikbukta;Småbukta" />
		<tag k="natural" v="bay" />
		<tag k="ssr:stedsnr" v="211589" />
	</node>
	<node id="-822268" lat="63.4287638867" lon="8.9070444385">
		<tag k="name" v="Gaddholmen" />
		<tag k="place" v="islet" />
		<tag k="ssr:stedsnr" v="863427" />
	</node>
	<node id="-823290" lat="63.4280750027" lon="8.82336944529">
		<tag k="name" v="Leirvika" />
		<tag k="natural" v="bay" />
		<tag k="ssr:stedsnr" v="150690" />
	</node>
	<node id="-823801" lat="63.4664972221" lon="9.0222277798">
		<tag k="fixme" v="consider seamark:type=rock or natural=shoal" />
		<tag k="name" v="Kastnotskjeret" />
		<tag k="place" v="islet" />
		<tag k="ssr:stedsnr" v="90610" />
	</node>
	<node id="-822774" lat="63.3127499971" lon="9.1365194491">
		<tag k="name" v="Hollabugen" />
		<tag k="natural" v="bay" />
		<tag k="ssr:stedsnr" v="511709" />
	</node>
	<node id="-822772" lat="63.3902856296" lon="9.1622887374">
		<tag k="name" v="Bjørkøya" />
		<tag k="place" v="island" />
		<tag k="ssr:stedsnr" v="679620" />
	</node>
	<node id="-822771" lat="63.3312694473" lon="9.11451944234">
		<tag k="name" v="Bjørklibukta" />
		<tag k="natural" v="bay" />
		<tag k="ssr:stedsnr" v="515830" />
	</node>
	<node id="-823794" lat="63.4652055513" lon="9.05438333495">
		<tag k="name" v="Skaflua" />
		<tag k="natural" v="cape" />
		<tag k="ssr:stedsnr" v="90602" />
	</node>
	<node id="-822256" lat="63.4303833317" lon="8.9185194383">
		<tag k="name" v="Ausa" />
		<tag k="place" v="islet" />
		<tag k="ssr:stedsnr" v="879501" />
	</node>
	<node id="-823279" lat="63.4667527813" lon="9.03115556469">
		<tag k="name" v="Ytterøya" />
		<tag k="place" v="island" />
		<tag k="ssr:stedsnr" v="498550" />
	</node>
	<node id="-821742" lat="63.4262694429" lon="8.85424165857">
		<tag k="name" v="Stranda" />
		<tag k="natural" v="beach" />
		<tag k="place" v="locality" />
		<tag k="ssr:stedsnr" v="863423" />
	</node>
	<node id="-821739" lat="63.4266845948" lon="9.11480650585">
		<tag k="name" v="Hannasteinen" />
		<tag k="natural" v="cape" />
		<tag k="ssr:stedsnr" v="863416" />
	</node>
	<node id="-823274" lat="63.4417444456" lon="8.95315000908">
		<tag k="name" v="Svelungen" />
		<tag k="place" v="islet" />
		<tag k="ssr:stedsnr" v="316432" />
	</node>
	<node id="-821225" lat="63.1900333378" lon="8.80812222322">
		<tag k="name" v="Keipsteinen" />
		<tag k="natural" v="cape" />
		<tag k="ssr:stedsnr" v="940985" />
	</node>
	<node id="-821736" lat="63.3885916679" lon="9.14978332901">
		<tag k="name" v="Djupvika" />
		<tag k="natural" v="bay" />
		<tag k="ssr:stedsnr" v="575620" />
	</node>
	<node id="-821733" lat="63.4555194427" lon="8.91993610331">
		<tag k="fixme" v="consider seamark:type=rock or natural=shoal" />
		<tag k="name" v="Langskjæra" />
		<tag k="place" v="islet" />
		<tag k="ssr:stedsnr" v="680543" />
	</node>
	<node id="-822244" lat="63.4151527808" lon="8.89585834274">
		<tag k="name" v="Slåttaholmen" />
		<tag k="place" v="islet" />
		<tag k="ssr:stedsnr" v="87757" />
	</node>
	<node id="-821910" lat="63.321449996" lon="9.13793332635">
		<tag k="name" v="Skogholmen" />
		<tag k="place" v="islet" />
		<tag k="ssr:stedsnr" v="133463" />
	</node>
	<node id="-823778" lat="63.4392944457" lon="8.87758611278">
		<tag k="name" v="Røstøytangen" />
		<tag k="natural" v="cape" />
		<tag k="ssr:stedsnr" v="559385" />
	</node>
	<node id="-823265" lat="63.4759750012" lon="9.01912776867">
		<tag k="name" v="Mefjordgrunnan" />
		<tag k="natural" v="shoal" />
		<tag k="place" v="locality" />
		<tag k="ssr:stedsnr" v="895356" />
	</node>
	<node id="-823092" lat="63.4637777792" lon="9.01559167176">
		<tag k="name" v="Håmannvik" />
		<tag k="natural" v="bay" />
		<tag k="ssr:stedsnr" v="29629" />
	</node>
	<node id="-823774" lat="63.423713888" lon="8.87401110248">
		<tag k="fixme" v="consider seamark:type=rock or natural=shoal" />
		<tag k="name" v="Blomvikskjeret" />
		<tag k="place" v="islet" />
		<tag k="ssr:stedsnr" v="393989" />
	</node>
	<node id="-822749" lat="63.4060833318" lon="8.96700000182">
		<tag k="alt_name" v="Slomphusbukta" />
		<tag k="name" v="Slumphusbukta" />
		<tag k="natural" v="bay" />
		<tag k="ssr:stedsnr" v="133629" />
	</node>
	<node id="-823772" lat="63.4232999988" lon="8.87422500861">
		<tag k="name" v="Blomvika" />
		<tag k="natural" v="bay" />
		<tag k="ssr:stedsnr" v="393990" />
	</node>
	<node id="-822778" lat="63.3387472203" lon="9.21272499467">
		<tag k="name" v="Austre Buvika" />
		<tag k="natural" v="bay" />
		<tag k="ssr:stedsnr" v="511707" />
	</node>
	<node id="-823255" lat="63.3754611143" lon="9.17462222729">
		<tag k="name" v="Klauva" />
		<tag k="natural" v="bay" />
		<tag k="ssr:stedsnr" v="818812" />
	</node>
	<node id="-821718" lat="63.4306296705" lon="8.8229710503">
		<tag k="name" v="Taftøyan" />
		<tag k="place" v="island" />
		<tag k="ssr:stedsnr" v="863397" />
	</node>
	<node id="-822741" lat="63.4443472178" lon="8.92089999744">
		<tag k="name" v="Åmholmen" />
		<tag k="place" v="islet" />
		<tag k="ssr:stedsnr" v="29539" />
	</node>
	<node id="-822740" lat="63.4200305575" lon="8.98546111095">
		<tag k="name" v="Bjørknesbukta" />
		<tag k="natural" v="bay" />
		<tag k="ssr:stedsnr" v="635644" />
	</node>
	<node id="-822738" lat="63.1911194429" lon="8.81668055033">
		<tag k="name" v="Kråktåa" />
		<tag k="natural" v="cape" />
		<tag k="ssr:stedsnr" v="697976" />
	</node>
	<node id="-822737" lat="63.4259555557" lon="9.09470277835">
		<tag k="name" v="Fagervika" />
		<tag k="natural" v="bay" />
		<tag k="ssr:stedsnr" v="635618" />
	</node>
	<node id="-822735" lat="63.4544638893" lon="9.00112222319">
		<tag k="name" v="Dalabugen" />
		<tag k="natural" v="bay" />
		<tag k="ssr:stedsnr" v="498446" />
	</node>
	<node id="-822732" lat="63.4166611142" lon="8.9994166749">
		<tag k="name" v="Bytvika" />
		<tag k="natural" v="bay" />
		<tag k="ssr:stedsnr" v="818676" />
	</node>
	<node id="-822731" lat="63.3530972257" lon="9.17350278459">
		<tag k="name" v="Næløygrunnen" />
		<tag k="natural" v="shoal" />
		<tag k="place" v="locality" />
		<tag k="ssr:stedsnr" v="105964" />
	</node>
	<node id="-821193" lat="63.348052781" lon="9.11998332969">
		<tag k="name" v="Kynnsvikbugen" />
		<tag k="natural" v="bay" />
		<tag k="ssr:stedsnr" v="315524" />
	</node>
	<node id="-821192" lat="63.4443472257" lon="9.06128333377">
		<tag k="name" v="Kvernavikbukta" />
		<tag k="natural" v="bay" />
		<tag k="ssr:stedsnr" v="757561" />
	</node>
	<node id="-822214" lat="63.4104527772" lon="8.89788888267">
		<tag k="name" v="Bekkabukta" />
		<tag k="natural" v="bay" />
		<tag k="ssr:stedsnr" v="393585" />
	</node>
	<node id="-822262" lat="63.4268303402" lon="9.11568089506">
		<tag k="name" v="Hannasteinsundet" />
		<tag k="natural" v="strait" />
		<tag k="ssr:stedsnr" v="575659" />
	</node>
	<node id="-821186" lat="63.4268000024" lon="8.85471666882">
		<tag k="name" v="Øykvika" />
		<tag k="natural" v="bay" />
		<tag k="ssr:stedsnr" v="29948" />
	</node>
	<node id="-822721" lat="63.3772055526" lon="9.16656667625">
		<tag k="name" v="Kistvika" />
		<tag k="natural" v="bay" />
		<tag k="ssr:stedsnr" v="575782" />
	</node>
	<node id="-823029" lat="63.3622277744" lon="9.17033610365">
		<tag k="name" v="Litlnæløya" />
		<tag k="place" v="islet" />
		<tag k="ssr:stedsnr" v="801683" />
	</node>
	<node id="-823227" lat="63.3531694413" lon="9.12411943508">
		<tag k="name" v="Storvika" />
		<tag k="natural" v="bay" />
		<tag k="ssr:stedsnr" v="879774" />
	</node>
	<node id="-821176" lat="63.4104805589" lon="9.00732500646">
		<tag k="name" v="Kalvneset" />
		<tag k="natural" v="cape" />
		<tag k="ssr:stedsnr" v="454676" />
	</node>
	<node id="-821748" lat="63.4682222218" lon="9.02405276929">
		<tag k="fixme" v="consider seamark:type=rock or natural=shoal" />
		<tag k="name" v="Storskjeret" />
		<tag k="place" v="islet" />
		<tag k="ssr:stedsnr" v="332625" />
	</node>
	<node id="-822196" lat="63.420113892" lon="8.93990833792">
		<tag k="name" v="Aunbukta" />
		<tag k="natural" v="bay" />
		<tag k="ssr:stedsnr" v="87739" />
	</node>
	<node id="-821683" lat="63.4467861127" lon="9.02759721725">
		<tag k="name" v="Stamnesbugen" />
		<tag k="natural" v="bay" />
		<tag k="ssr:stedsnr" v="575582" />
	</node>
	<node id="-822194" lat="63.435269448" lon="8.81834444411">
		<tag k="name" v="Nørflua" />
		<tag k="natural" v="shoal" />
		<tag k="place" v="locality" />
		<tag k="ssr:stedsnr" v="715925" />
	</node>
	<node id="-822259" lat="63.4314194485" lon="8.94076111014">
		<tag k="alt_name" v="Grønskjera" />
		<tag k="fixme" v="consider seamark:type=rock or natural=shoal" />
		<tag k="name" v="Grønskjæret" />
		<tag k="place" v="islet" />
		<tag k="ssr:stedsnr" v="879502" />
	</node>
	<node id="-822505" lat="63.4619777807" lon="9.02061110861">
		<tag k="name" v="Kvervosbukta" />
		<tag k="natural" v="bay" />
		<tag k="ssr:stedsnr" v="879600" />
	</node>
	<node id="-821677" lat="63.4515250015" lon="8.93382500817">
		<tag k="name" v="Nordlandet" />
		<tag k="natural" v="cape" />
		<tag k="ssr:stedsnr" v="87707" />
	</node>
	<node id="-823212" lat="63.343850001" lon="9.13011112034">
		<tag k="name" v="Nothusbukta" />
		<tag k="natural" v="bay" />
		<tag k="ssr:stedsnr" v="272765" />
	</node>
	<node id="-822002" lat="63.4241361087" lon="8.97841665861">
		<tag k="name" v="Gussøysundet" />
		<tag k="natural" v="strait" />
		<tag k="ssr:stedsnr" v="211664" />
	</node>
	<node id="-821161" lat="63.3610333345" lon="9.16405555972">
		<tag k="name" v="Klakken" />
		<tag k="natural" v="shoal" />
		<tag k="place" v="locality" />
		<tag k="ssr:stedsnr" v="954965" />
	</node>
	<node id="-822693" lat="63.4647444427" lon="9.00812777286">
		<tag k="name" v="Bårneset" />
		<tag k="natural" v="cape" />
		<tag k="ssr:stedsnr" v="635610" />
	</node>
	<node id="-822342" lat="63.4431305596" lon="9.06719721241">
		<tag k="name" v="Litlneset" />
		<tag k="natural" v="cape" />
		<tag k="ssr:stedsnr" v="272536" />
	</node>
	<node id="-821666" lat="63.4358805527" lon="8.86419166983">
		<tag k="name" v="Soløya" />
		<tag k="place" v="islet" />
		<tag k="ssr:stedsnr" v="863406" />
	</node>
	<node id="-823732" lat="63.4177083306" lon="8.88049722068">
		<tag k="name" v="Vikaneset" />
		<tag k="natural" v="cape" />
		<tag k="ssr:stedsnr" v="212989" />
	</node>
	<node id="-823766" lat="63.410602779" lon="8.87481110247">
		<tag k="fixme" v="consider seamark:type=rock or natural=shoal" />
		<tag k="name" v="Tigardsskjeret" />
		<tag k="place" v="islet" />
		<tag k="ssr:stedsnr" v="212997" />
	</node>
	<node id="-823196" lat="63.4278416635" lon="8.78623333878">
		<tag k="name" v="Prestneset" />
		<tag k="natural" v="cape" />
		<tag k="ssr:stedsnr" v="940689" />
	</node>
	<node id="-821487" lat="63.411952775" lon="8.88147777151">
		<tag k="name" v="Halsnesholmen" />
		<tag k="place" v="islet" />
		<tag k="ssr:stedsnr" v="90851" />
	</node>
	<node id="-822168" lat="63.4464777806" lon="9.05401944518">
		<tag k="name" v="Furunesbukta" />
		<tag k="natural" v="bay" />
		<tag k="ssr:stedsnr" v="393575" />
	</node>
	<node id="-822676" lat="63.4439500027" lon="8.93614721865">
		<tag k="name" v="Slåttaholmen" />
		<tag k="place" v="islet" />
		<tag k="ssr:stedsnr" v="498439" />
	</node>
	<node id="-823699" lat="63.4194027764" lon="8.88046667126">
		<tag k="fixme" v="consider seamark:type=rock or natural=shoal" />
		<tag k="name" v="Vikaskjeret" />
		<tag k="place" v="islet" />
		<tag k="ssr:stedsnr" v="393985" />
	</node>
	<node id="-822161" lat="63.4283583297" lon="8.87061944541">
		<tag k="name" v="Stavneset" />
		<tag k="natural" v="cape" />
		<tag k="ssr:stedsnr" v="863424" />
	</node>
	<node id="-822672" lat="63.2037416628" lon="8.86516665806">
		<tag k="name" v="Haganeset" />
		<tag k="natural" v="cape" />
		<tag k="ssr:stedsnr" v="352611" />
	</node>
	<node id="-823021" lat="63.38822222" lon="9.15011666722">
		<tag k="name" v="Djupvikneset" />
		<tag k="natural" v="cape" />
		<tag k="ssr:stedsnr" v="150613" />
	</node>
	<node id="-821643" lat="63.4514777812" lon="9.02832222577">
		<tag k="name" v="Svarthammaren" />
		<tag k="natural" v="cape" />
		<tag k="ssr:stedsnr" v="211585" />
	</node>
	<node id="-822265" lat="63.3396388902" lon="9.20713333101">
		<tag k="name" v="Sperillneset" />
		<tag k="natural" v="cape" />
		<tag k="ssr:stedsnr" v="801543" />
	</node>
	<node id="-821126" lat="63.3350333291" lon="9.1953277772">
		<tag k="name" v="Sperillbugen" />
		<tag k="natural" v="bay" />
		<tag k="ssr:stedsnr" v="819917" />
	</node>
	<node id="-822661" lat="63.2925135634" lon="9.11606439053">
		<tag k="alt_name" v="Merkeneset" />
		<tag k="name" v="Merkesneset" />
		<tag k="natural" v="cape" />
		<tag k="ssr:stedsnr" v="376587" />
	</node>
	<node id="-823683" lat="63.3938916665" lon="9.15483611136">
		<tag k="fixme" v="consider seamark:type=rock or natural=shoal" />
		<tag k="name" v="Sponlandskjæret" />
		<tag k="place" v="islet" />
		<tag k="ssr:stedsnr" v="591543" />
	</node>
	<node id="-821122" lat="63.4327055545" lon="8.92140555082">
		<tag k="name" v="Marøysundet" />
		<tag k="natural" v="strait" />
		<tag k="ssr:stedsnr" v="256385" />
	</node>
	<node id="-823681" lat="63.4122027787" lon="9.00023888085">
		<tag k="name" v="Bellsvikholmen" />
		<tag k="place" v="islet" />
		<tag k="ssr:stedsnr" v="12685" />
	</node>
	<node id="-821310" lat="63.3928777791" lon="8.90892776791">
		<tag k="name" v="Bjørndalsbukta" />
		<tag k="natural" v="bay" />
		<tag k="ssr:stedsnr" v="530207" />
	</node>
	<node id="-822143" lat="63.4469583336" lon="8.98878611921">
		<tag k="name" v="Hamnaneset" />
		<tag k="natural" v="cape" />
		<tag k="ssr:stedsnr" v="635598" />
	</node>
	<node id="-823166" lat="63.4269305592" lon="9.11713888326">
		<tag k="name" v="Hannasteinklumpen" />
		<tag k="place" v="islet" />
		<tag k="ssr:stedsnr" v="150666" />
	</node>
	<node id="-822250" lat="63.456655555" lon="8.99734166114">
		<tag k="fixme" v="consider seamark:type=rock or natural=shoal" />
		<tag k="name" v="Malvikskjeret" />
		<tag k="place" v="islet" />
		<tag k="ssr:stedsnr" v="393619" />
	</node>
	<node id="-822137" lat="63.4266805582" lon="8.77169722088">
		<tag k="name" v="Litlbølet" />
		<tag k="place" v="islet" />
		<tag k="ssr:stedsnr" v="212702" />
	</node>
	<node id="-821109" lat="63.4436277796" lon="8.88626388403">
		<tag k="name" v="Gammelostholet" />
		<tag k="natural" v="bay" />
		<tag k="ssr:stedsnr" v="757518" />
	</node>
	<node id="-822131" lat="63.194052782" lon="8.86480276863">
		<tag k="name" v="Hofsetneset" />
		<tag k="natural" v="cape" />
		<tag k="ssr:stedsnr" v="818622" />
	</node>
	<node id="-823151" lat="63.3257833354" lon="9.18065278454">
		<tag k="name" v="Naustbukta" />
		<tag k="natural" v="bay" />
		<tag k="ssr:stedsnr" v="758919" />
	</node>
	<node id="-821224" lat="63.4545638847" lon="8.93349721522">
		<tag k="fixme" v="consider seamark:type=rock or natural=shoal" />
		<tag k="name" v="Treskoskjæra" />
		<tag k="place" v="islet" />
		<tag k="ssr:stedsnr" v="923534" />
	</node>
	<node id="-821308" lat="63.4299027735" lon="8.83260555831">
		<tag k="name" v="Avlesflua" />
		<tag k="natural" v="shoal" />
		<tag k="place" v="locality" />
		<tag k="ssr:stedsnr" v="169916" />
	</node>
	<node id="-822115" lat="63.1996555523" lon="8.86299999438">
		<tag k="name" v="Hofsethølen" />
		<tag k="place" v="locality" />
		<tag k="ssr:stedsnr" v="110651" />
	</node>
	<node id="-821601" lat="63.4089194477" lon="9.00251111577">
		<tag k="name" v="Åneset" />
		<tag k="natural" v="cape" />
		<tag k="ssr:stedsnr" v="757643" />
	</node>
	<node id="-822621" lat="63.4117222262" lon="8.96939999251">
		<tag k="name" v="Vågneset" />
		<tag k="natural" v="cape" />
		<tag k="ssr:stedsnr" v="558686" />
	</node>
	<node id="-821084" lat="63.4299888926" lon="8.95653332348">
		<tag k="name" v="Rognholmen" />
		<tag k="place" v="islet" />
		<tag k="ssr:stedsnr" v="681404" />
	</node>
	<node id="-821594" lat="63.199750002" lon="8.95298888319">
		<tag k="name" v="Bogaberget" />
		<tag k="natural" v="cape" />
		<tag k="ssr:stedsnr" v="473687" />
	</node>
	<node id="-822415" lat="63.4171527823" lon="9.0100916671">
		<tag k="name" v="Oldervika" />
		<tag k="natural" v="bay" />
		<tag k="ssr:stedsnr" v="194378" />
	</node>
	<node id="-822103" lat="63.4584583318" lon="8.98269166982">
		<tag k="name" v="Yre Klakken" />
		<tag k="natural" v="shoal" />
		<tag k="place" v="locality" />
		<tag k="ssr:stedsnr" v="348376" />
	</node>
	<node id="-822329" lat="63.4469805567" lon="9.05338889298">
		<tag k="name" v="Litlfuruneset" />
		<tag k="natural" v="cape" />
		<tag k="ssr:stedsnr" v="879546" />
	</node>
	<node id="-821902" lat="63.408291669" lon="8.96659999786">
		<tag k="name" v="Slomphusneset" />
		<tag k="natural" v="cape" />
		<tag k="ssr:stedsnr" v="332670" />
	</node>
	<node id="-821072" lat="63.4290416675" lon="8.79168611865">
		<tag k="fixme" v="consider seamark:type=rock or natural=shoal" />
		<tag k="name" v="Finnskjeret" />
		<tag k="place" v="islet" />
		<tag k="ssr:stedsnr" v="697511" />
	</node>
	<node id="-822603" lat="63.3501222221" lon="9.13315833294">
		<tag k="name" v="Gardsholman" />
		<tag k="place" v="islet" />
		<tag k="ssr:stedsnr" v="12533" />
	</node>
	<node id="-821571" lat="63.40778889" lon="9.00850278322">
		<tag k="name" v="Djupvika" />
		<tag k="natural" v="bay" />
		<tag k="ssr:stedsnr" v="697648" />
	</node>
	<node id="-822594" lat="63.4054472184" lon="8.88969443616">
		<tag k="name" v="Bjellvikneset" />
		<tag k="natural" v="cape" />
		<tag k="ssr:stedsnr" v="697943" />
	</node>
	<node id="-822081" lat="63.4370833342" lon="8.87916388388">
		<tag k="name" v="Litlaunskaget" />
		<tag k="natural" v="cape" />
		<tag k="ssr:stedsnr" v="393529" />
	</node>
	<node id="-823824" lat="63.4374111089" lon="8.90002499453">
		<tag k="alt_name" v="Stabburvika;Stabbursvika" />
		<tag k="name" v="Stabbursvikan" />
		<tag k="natural" v="bay" />
		<tag k="ssr:stedsnr" v="923448" />
	</node>
	<node id="-822591" lat="63.4266861114" lon="8.97283333935">
		<tag k="name" v="Gussøya" />
		<tag k="place" v="island" />
		<tag k="ssr:stedsnr" v="620377" />
	</node>
	<node id="-822078" lat="63.4336305595" lon="8.96554999455">
		<tag k="name" v="Rognholmflua" />
		<tag k="natural" v="shoal" />
		<tag k="place" v="locality" />
		<tag k="ssr:stedsnr" v="530385" />
	</node>
	<node id="-821386" lat="63.4138388849" lon="8.96194999235">
		<tag k="name" v="Yttervågen" />
		<tag k="natural" v="bay" />
		<tag k="ssr:stedsnr" v="147709" />
	</node>
	<node id="-823097" lat="63.444463893" lon="8.96994167072">
		<tag k="name" v="Kuskaget" />
		<tag k="natural" v="cape" />
		<tag k="ssr:stedsnr" v="29634" />
	</node>
	<node id="-821559" lat="63.4300750009" lon="8.92409165717">
		<tag k="name" v="Marøya" />
		<tag k="place" v="island" />
		<tag k="ssr:stedsnr" v="134469" />
	</node>
	<node id="-822068" lat="63.4624638919" lon="9.05702778178">
		<tag k="name" v="Hamna" />
		<tag k="natural" v="cape" />
		<tag k="ssr:stedsnr" v="802554" />
	</node>
	<node id="-821552" lat="63.4335416623" lon="8.82023332928">
		<tag k="fixme" v="consider seamark:type=rock or natural=shoal" />
		<tag k="name" v="Nordfluskjea" />
		<tag k="place" v="islet" />
		<tag k="ssr:stedsnr" v="211547" />
	</node>
	<node id="-821549" lat="63.4559888902" lon="8.98590000473">
		<tag k="name" v="Indre Klakken" />
		<tag k="natural" v="shoal" />
		<tag k="place" v="locality" />
		<tag k="ssr:stedsnr" v="470394" />
	</node>
	<node id="-823083" lat="63.3093333337" lon="9.12768333838">
		<tag k="name" v="Hollaneset" />
		<tag k="natural" v="cape" />
		<tag k="ssr:stedsnr" v="332996" />
	</node>
	<node id="-820871" lat="63.310199999" lon="9.08713610188">
		<tag k="name" v="Grøtvågen" />
		<tag k="natural" v="bay" />
		<tag k="ssr:stedsnr" v="73614" />
	</node>
	<node id="-823079" lat="63.3763472212" lon="9.15250277652">
		<tag k="name" v="Oddbugen" />
		<tag k="natural" v="bay" />
		<tag k="ssr:stedsnr" v="939809" />
	</node>
	<node id="-822054" lat="63.1958527789" lon="8.87873888625">
		<tag k="name" v="Grønsetneset" />
		<tag k="natural" v="cape" />
		<tag k="ssr:stedsnr" v="515600" />
	</node>
	<node id="-822053" lat="63.3274388923" lon="9.18462500731">
		<tag k="name" v="Stokkvika" />
		<tag k="natural" v="bay" />
		<tag k="ssr:stedsnr" v="801494" />
	</node>
	<node id="-823075" lat="63.4379722215" lon="8.89256389096">
		<tag k="fixme" v="consider seamark:type=rock or natural=shoal" />
		<tag k="name" v="Stabbursvikskjera" />
		<tag k="place" v="islet" />
		<tag k="ssr:stedsnr" v="90513" />
	</node>
	<node id="-821537" lat="63.1900444487" lon="8.78373610766">
		<tag k="bay" v="fjord" />
		<tag k="name" v="Vinjefjorden" />
		<tag k="natural" v="bay" />
		<tag k="ssr:stedsnr" v="133404" />
	</node>
	<node id="-822047" lat="63.4462472182" lon="8.8871166638">
		<tag k="name" v="Stongbugen" />
		<tag k="natural" v="bay" />
		<tag k="ssr:stedsnr" v="818451" />
	</node>
	<node id="-821637" lat="63.4357138845" lon="8.9079083397">
		<tag k="name" v="Geitbergbukta" />
		<tag k="natural" v="bay" />
		<tag k="ssr:stedsnr" v="409020" />
	</node>
	<node id="-823067" lat="63.3053499992" lon="9.13195276893">
		<tag k="name" v="Spjøtvollbukta" />
		<tag k="natural" v="bay" />
		<tag k="ssr:stedsnr" v="575968" />
	</node>
	<node id="-823065" lat="63.4127111098" lon="9.02100554634">
		<tag k="name" v="Bellsvikleiret" />
		<tag k="natural" v="bay" />
		<tag k="ssr:stedsnr" v="376699" />
	</node>
	<node id="-823573" lat="63.4523416692" lon="9.03910276848">
		<tag k="name" v="Stamnessundet" />
		<tag k="natural" v="strait" />
		<tag k="ssr:stedsnr" v="619423" />
	</node>
	<node id="-822909" lat="63.4174305572" lon="8.99066112035">
		<tag k="name" v="Naustneset" />
		<tag k="natural" v="cape" />
		<tag k="ssr:stedsnr" v="73436" />
	</node>
	<node id="-822545" lat="63.1952527819" lon="8.82939721486">
		<tag k="name" v="Straumsnesset" />
		<tag k="natural" v="cape" />
		<tag k="ssr:stedsnr" v="818628" />
	</node>
	<node id="-822402" lat="63.4666611144" lon="9.03706666951">
		<tag k="name" v="Ytterøybukta" />
		<tag k="natural" v="bay" />
		<tag k="ssr:stedsnr" v="818603" />
	</node>
	<node id="-823560" lat="63.4554277788" lon="9.10934166329">
		<tag k="name" v="Korsflua" />
		<tag k="natural" v="shoal" />
		<tag k="place" v="locality" />
		<tag k="ssr:stedsnr" v="288473" />
	</node>
	<node id="-823559" lat="63.3749305552" lon="9.17435277512">
		<tag k="name" v="Holmstrand" />
		<tag k="natural" v="beach" />
		<tag k="place" v="locality" />
		<tag k="ssr:stedsnr" v="712947" />
	</node>
	<node id="-822657" lat="63.4288138855" lon="8.81461110832">
		<tag k="name" v="Holmen" />
		<tag k="natural" v="cape" />
		<tag k="ssr:stedsnr" v="150534" />
	</node>
	<node id="-822020" lat="63.4636472221" lon="8.99729166196">
		<tag k="fixme" v="consider seamark:type=rock or natural=shoal" />
		<tag k="name" v="Kråka" />
		<tag k="place" v="islet" />
		<tag k="ssr:stedsnr" v="802562" />
	</node>
	<node id="-821206" lat="63.426744442" lon="8.84744443781">
		<tag k="fixme" v="consider seamark:type=rock or natural=shoal" />
		<tag k="name" v="Strandskjera" />
		<tag k="place" v="islet" />
		<tag k="ssr:stedsnr" v="29950" />
	</node>
	<node id="-821732" lat="63.201408334" lon="8.92501388591">
		<tag k="name" v="Haukvikhølen" />
		<tag k="place" v="locality" />
		<tag k="ssr:stedsnr" v="716707" />
	</node>
	<node id="-823040" lat="63.43516111" lon="8.98609722786">
		<tag k="name" v="Våtvikskaget" />
		<tag k="natural" v="cape" />
		<tag k="ssr:stedsnr" v="29608" />
	</node>
	<node id="-821067" lat="63.4263611092" lon="8.83778610994">
		<tag k="name" v="Langneset" />
		<tag k="natural" v="cape" />
		<tag k="ssr:stedsnr" v="150935" />
	</node>
	<node id="-821717" lat="63.4001305585" lon="8.89894444735">
		<tag k="name" v="Svarthammarbukta" />
		<tag k="natural" v="bay" />
		<tag k="ssr:stedsnr" v="575600" />
	</node>
	<node id="-822524" lat="63.4157638918" lon="8.91783056021">
		<tag k="name" v="Urdnesbukta" />
		<tag k="natural" v="bay" />
		<tag k="ssr:stedsnr" v="818616" />
	</node>
	<node id="-821499" lat="63.4084361132" lon="8.98395833835">
		<tag k="name" v="Hellandsholmen" />
		<tag k="place" v="islet" />
		<tag k="ssr:stedsnr" v="740645" />
	</node>
	<node id="-822008" lat="63.3434444482" lon="9.1216000029">
		<tag k="name" v="Fitjavågen" />
		<tag k="natural" v="bay" />
		<tag k="ssr:stedsnr" v="558562" />
	</node>
	<node id="-823541" lat="63.4044555524" lon="8.88036943782">
		<tag k="name" v="Kuvikhammaren" />
		<tag k="natural" v="cape" />
		<tag k="ssr:stedsnr" v="393934" />
	</node>
	<node id="-823538" lat="63.4397972263" lon="8.97662776971">
		<tag k="name" v="Ålførskaget" />
		<tag k="natural" v="cape" />
		<tag k="ssr:stedsnr" v="316463" />
	</node>
	<node id="-822512" lat="63.3889861104" lon="8.90460833701">
		<tag k="name" v="Seterneset" />
		<tag k="natural" v="cape" />
		<tag k="ssr:stedsnr" v="879583" />
	</node>
	<node id="-821999" lat="63.4496499986" lon="8.94064722678">
		<tag k="fixme" v="consider seamark:type=rock or natural=shoal" />
		<tag k="name" v="Nordlandsskjæra" />
		<tag k="place" v="islet" />
		<tag k="ssr:stedsnr" v="863380" />
	</node>
	<node id="-823533" lat="63.3257055576" lon="9.15484444033">
		<tag k="name" v="Husholmen" />
		<tag k="place" v="islet" />
		<tag k="ssr:stedsnr" v="73527" />
	</node>
	<node id="-824044" lat="63.4285777771" lon="9.09427222893">
		<tag k="alt_name" v="Ytter Heimsvågen" />
		<tag k="name" v="Yttervågen" />
		<tag k="natural" v="bay" />
		<tag k="ssr:stedsnr" v="438121" />
	</node>
	<node id="-822507" lat="63.4629361125" lon="9.06134999219">
		<tag k="fixme" v="consider seamark:type=rock or natural=shoal" />
		<tag k="name" v="Kobbskjera" />
		<tag k="place" v="islet" />
		<tag k="ssr:stedsnr" v="272577" />
	</node>
	<node id="-821482" lat="63.3894388907" lon="8.89193055319">
		<tag k="name" v="Raplibukta" />
		<tag k="natural" v="bay" />
		<tag k="ssr:stedsnr" v="227184" />
	</node>
	<node id="-823529" lat="63.4367694459" lon="8.95596667261">
		<tag k="name" v="Indre Svelungflua" />
		<tag k="natural" v="shoal" />
		<tag k="place" v="locality" />
		<tag k="ssr:stedsnr" v="166374" />
	</node>
	<node id="-823527" lat="63.4287944453" lon="8.81354721647">
		<tag k="name" v="Holmen" />
		<tag k="place" v="islet" />
		<tag k="ssr:stedsnr" v="29708" />
	</node>
	<node id="-824037" lat="63.4200277783" lon="8.87847499959">
		<tag k="name" v="Vikan" />
		<tag k="natural" v="bay" />
		<tag k="ssr:stedsnr" v="818987" />
	</node>
	<node id="-822500" lat="63.4600722214" lon="9.02328610569">
		<tag k="name" v="Bekkaneset" />
		<tag k="natural" v="cape" />
		<tag k="ssr:stedsnr" v="879602" />
	</node>
	<node id="-822801" lat="63.3037638893" lon="9.12876389689">
		<tag k="name" v="Trøneset" />
		<tag k="natural" v="cape" />
		<tag k="ssr:stedsnr" v="514972" />
	</node>
	<node id="-822495" lat="63.391027774" lon="8.90572500939">
		<tag k="name" v="Olfinn-nesset" />
		<tag k="natural" v="cape" />
		<tag k="ssr:stedsnr" v="272572" />
	</node>
	<node id="-823001" lat="63.4128555572" lon="8.91767499267">
		<tag k="name" v="Sørvågen" />
		<tag k="natural" v="bay" />
		<tag k="ssr:stedsnr" v="29596" />
	</node>
	<node id="-820952" lat="63.4437499975" lon="8.9273888975">
		<tag k="name" v="Røstøybugan" />
		<tag k="natural" v="bay" />
		<tag k="ssr:stedsnr" v="256355" />
	</node>
	<node id="-821975" lat="63.3932583297" lon="8.90188056466">
		<tag k="name" v="Tindneset" />
		<tag k="natural" v="cape" />
		<tag k="ssr:stedsnr" v="618610" />
	</node>
	<node id="-821462" lat="63.3780861147" lon="9.17388888981">
		<tag k="name" v="Ytterodden" />
		<tag k="natural" v="cape" />
		<tag k="ssr:stedsnr" v="497741" />
	</node>
	<node id="-821369" lat="63.4226666703" lon="8.87837778674">
		<tag k="name" v="Bakkneset" />
		<tag k="natural" v="cape" />
		<tag k="ssr:stedsnr" v="575989" />
	</node>
	<node id="-821460" lat="63.4106972266" lon="8.95995277908">
		<tag k="name" v="Innervågen" />
		<tag k="natural" v="bay" />
		<tag k="ssr:stedsnr" v="26700" />
	</node>
	<node id="-822478" lat="63.4555777737" lon="8.9965083339">
		<tag k="name" v="Svarthylla" />
		<tag k="natural" v="cape" />
		<tag k="ssr:stedsnr" v="879595" />
	</node>
	<node id="-822293" lat="63.4425249983" lon="8.97648333745">
		<tag k="fixme" v="consider seamark:type=rock or natural=shoal" />
		<tag k="name" v="Ausa" />
		<tag k="place" v="islet" />
		<tag k="ssr:stedsnr" v="438367" />
	</node>
	<node id="-822990" lat="63.4650305565" lon="9.02264999309">
		<tag k="name" v="Straumen" />
		<tag k="natural" v="strait" />
		<tag k="ssr:stedsnr" v="74499" />
	</node>
	<node id="-823501" lat="63.4547583296" lon="8.97757778679">
		<tag k="name" v="Kapellskaget" />
		<tag k="natural" v="cape" />
		<tag k="ssr:stedsnr" v="619428" />
	</node>
	<node id="-821962" lat="63.4207416624" lon="9.13250278021">
		<tag k="fixme" v="consider seamark:type=rock or natural=shoal" />
		<tag k="name" v="Flesso" />
		<tag k="place" v="islet" />
		<tag k="ssr:stedsnr" v="818422" />
	</node>
	<node id="-822984" lat="63.3902055578" lon="8.90455000302">
		<tag k="name" v="Olfinnbukta" />
		<tag k="natural" v="bay" />
		<tag k="ssr:stedsnr" v="940591" />
	</node>
	<node id="-822471" lat="63.4582805562" lon="8.99829999394">
		<tag k="name" v="Malvika" />
		<tag k="natural" v="bay" />
		<tag k="ssr:stedsnr" v="879597" />
	</node>
	<node id="-820934" lat="63.4599999969" lon="9.04831667469">
		<tag k="name" v="Stamnesøya" />
		<tag k="place" v="island" />
		<tag k="ssr:stedsnr" v="619527" />
	</node>
	<node id="-823073" lat="63.1970277793" lon="8.89986111742">
		<tag k="name" v="Storneset" />
		<tag k="natural" v="cape" />
		<tag k="ssr:stedsnr" v="212915" />
	</node>
	<node id="-822467" lat="63.4481805518" lon="8.99813888682">
		<tag k="name" v="Notklakken" />
		<tag k="natural" v="cape" />
		<tag k="ssr:stedsnr" v="818634" />
	</node>
	<node id="-822463" lat="63.4276944454" lon="8.77791944691">
		<tag k="name" v="Valøya" />
		<tag k="place" v="islet" />
		<tag k="ssr:stedsnr" v="333686" />
	</node>
	<node id="-821438" lat="63.204205555" lon="8.96844721438">
		<tag k="name" v="Fjelnsetbukta" />
		<tag k="natural" v="bay" />
		<tag k="ssr:stedsnr" v="170701" />
	</node>
	<node id="-821621" lat="63.4477833325" lon="9.00236111604">
		<tag k="name" v="Aunbugen" />
		<tag k="natural" v="bay" />
		<tag k="ssr:stedsnr" v="13413" />
	</node>
	<node id="-822968" lat="63.4137833375" lon="8.9061333377">
		<tag k="name" v="Veøya" />
		<tag k="place" v="islet" />
		<tag k="ssr:stedsnr" v="680703" />
	</node>
	<node id="-821201" lat="63.4417194431" lon="9.09531389007">
		<tag k="name" v="Oterneset" />
		<tag k="natural" v="cape" />
		<tag k="ssr:stedsnr" v="377390" />
	</node>
	<node id="-822957" lat="63.4148638898" lon="8.96657222548">
		<tag k="name" v="Hesthagaskjæra" />
		<tag k="place" v="islet" />
		<tag k="ssr:stedsnr" v="437448" />
	</node>
	<node id="-823476" lat="63.3943277749" lon="8.89154999719">
		<tag k="name" v="Skjærgrunnen" />
		<tag k="natural" v="shoal" />
		<tag k="place" v="locality" />
		<tag k="ssr:stedsnr" v="106167" />
	</node>
	<node id="-821278" lat="63.4226555597" lon="8.92422776923">
		<tag k="name" v="Kuskjelbukta" />
		<tag k="natural" v="bay" />
		<tag k="ssr:stedsnr" v="697571" />
	</node>
	<node id="-822450" lat="63.3096394608" lon="9.0924271262">
		<tag k="name" v="Grøtneset" />
		<tag k="natural" v="cape" />
		<tag k="ssr:stedsnr" v="801580" />
	</node>
	<node id="-823473" lat="63.2076194466" lon="8.98156667004">
		<tag k="name" v="Vågen" />
		<tag k="natural" v="bay" />
		<tag k="ssr:stedsnr" v="231735" />
	</node>
	<node id="-820936" lat="63.4584694458" lon="9.06572222235">
		<tag k="name" v="Brannhus-skaget" />
		<tag k="natural" v="cape" />
		<tag k="ssr:stedsnr" v="454628" />
	</node>
	<node id="-821933" lat="63.4476666688" lon="8.98054722243">
		<tag k="name" v="Magerøya" />
		<tag k="place" v="island" />
		<tag k="ssr:stedsnr" v="863368" />
	</node>
	<node id="-823464" lat="63.3224194414" lon="9.10546944059">
		<tag k="name" v="Bergsneset" />
		<tag k="natural" v="cape" />
		<tag k="ssr:stedsnr" v="635803" />
	</node>
	<node id="-821746" lat="63.4548472267" lon="8.92631666072">
		<tag k="name" v="Hamnaholman" />
		<tag k="place" v="islet" />
		<tag k="ssr:stedsnr" v="558511" />
	</node>
	<node id="-821925" lat="63.4141305569" lon="8.9805749932">
		<tag k="name" v="Røstkvervet" />
		<tag k="natural" v="bay" />
		<tag k="ssr:stedsnr" v="316709" />
	</node>
	<node id="-821019" lat="63.4468916634" lon="9.06006389115">
		<tag k="name" v="Furuneset" />
		<tag k="natural" v="cape" />
		<tag k="ssr:stedsnr" v="256368" />
	</node>
	<node id="-822981" lat="63.4054555542" lon="9.16312499334">
		<tag k="bay" v="fjord" />
		<tag k="name" v="Bjørkøyfjorden" />
		<tag k="natural" v="bay" />
		<tag k="ssr:stedsnr" v="801656" />
	</node>
	<node id="-820825" lat="63.4003388887" lon="8.89466666863">
		<tag k="name" v="Mistfjorden" />
		<tag k="natural" v="bay" />
		<tag k="ssr:stedsnr" v="195683" />
	</node>
	<node id="-822426" lat="63.4592694469" lon="9.03417778694">
		<tag k="name" v="Kuskaget" />
		<tag k="natural" v="cape" />
		<tag k="ssr:stedsnr" v="272547" />
	</node>
	<node id="-820889" lat="63.4082805589" lon="8.87202778393">
		<tag k="name" v="Rørstranda" />
		<tag k="natural" v="beach" />
		<tag k="place" v="locality" />
		<tag k="ssr:stedsnr" v="879994" />
	</node>
	<node id="-822424" lat="63.4292305527" lon="8.9994916587">
		<tag k="name" v="Snekkvikbugen" />
		<tag k="natural" v="bay" />
		<tag k="ssr:stedsnr" v="879573" />
	</node>
	<node id="-822422" lat="63.4310166679" lon="8.80253889791">
		<tag k="name" v="Ytterøya" />
		<tag k="place" v="islet" />
		<tag k="ssr:stedsnr" v="74400" />
	</node>
	<node id="-821017" lat="63.4488472222" lon="8.99298333868">
		<tag k="name" v="Magerøysundet" />
		<tag k="natural" v="strait" />
		<tag k="ssr:stedsnr" v="330803" />
	</node>
	<node id="-820884" lat="63.3063611079" lon="9.12052500523">
		<tag k="name" v="Svaet" />
		<tag k="place" v="locality" />
		<tag k="ssr:stedsnr" v="879993" />
	</node>
	<node id="-820882" lat="63.4436749992" lon="8.94330556415">
		<tag k="name" v="Fårroholmen" />
		<tag k="place" v="islet" />
		<tag k="ssr:stedsnr" v="256348" />
	</node>
	<node id="-820880" lat="63.2028861124" lon="8.98044999486">
		<tag k="name" v="Øran" />
		<tag k="place" v="islet" />
		<tag k="ssr:stedsnr" v="29872" />
	</node>
	<node id="-822927" lat="63.2934361074" lon="9.11678612082">
		<tag k="name" v="Øvre Merkeneset" />
		<tag k="natural" v="cape" />
		<tag k="ssr:stedsnr" v="237574" />
	</node>
	<node id="-822926" lat="63.1989638921" lon="8.9433500051">
		<tag k="name" v="Berhalsnesset" />
		<tag k="natural" v="cape" />
		<tag k="ssr:stedsnr" v="575869" />
	</node>
	<node id="-822412" lat="63.4358222224" lon="8.98683333998">
		<tag k="name" v="Våtvika" />
		<tag k="natural" v="bay" />
		<tag k="ssr:stedsnr" v="879577" />
	</node>
	<node id="-823434" lat="63.4042777787" lon="8.87518332839">
		<tag k="name" v="Kuvika" />
		<tag k="natural" v="bay" />
		<tag k="ssr:stedsnr" v="393936" />
	</node>
	<node id="-820873" lat="63.4284611114" lon="8.87060277238">
		<tag k="name" v="Stavnesskaget" />
		<tag k="natural" v="cape" />
		<tag k="ssr:stedsnr" v="658759" />
	</node>
	<node id="-822408" lat="63.4261972212" lon="8.93602221494">
		<tag k="name" v="Skaffaren" />
		<tag k="natural" v="cape" />
		<tag k="ssr:stedsnr" v="272555" />
	</node>
	<node id="-823943" lat="63.3455833363" lon="9.15028055679">
		<tag k="name" v="Lernesgrunnen" />
		<tag k="natural" v="shoal" />
		<tag k="place" v="locality" />
		<tag k="ssr:stedsnr" v="226970" />
	</node>
	<node id="-823428" lat="63.3611749997" lon="9.1809277845">
		<tag k="name" v="Næløya" />
		<tag k="place" v="islet" />
		<tag k="ssr:stedsnr" v="255731" />
	</node>
	<node id="-823427" lat="63.1915305519" lon="8.82631945344">
		<tag k="name" v="Hovdsanden" />
		<tag k="natural" v="beach" />
		<tag k="place" v="locality" />
		<tag k="ssr:stedsnr" v="940764" />
	</node>
	<node id="-822914" lat="63.3992222182" lon="8.90219166621">
		<tag k="name" v="Svarthammarneset" />
		<tag k="natural" v="cape" />
		<tag k="ssr:stedsnr" v="150599" />
	</node>
	<node id="-823935" lat="63.4190888846" lon="8.94443332438">
		<tag k="fixme" v="multiple name tags, choose one and add the other to alt_name" />
		<tag k="name" v="Storholmen;Vågholmen" />
		<tag k="place" v="islet" />
		<tag k="ssr:stedsnr" v="618406" />
	</node>
	<node id="-822398" lat="63.4148638857" lon="8.91852222799">
		<tag k="name" v="Urdneset" />
		<tag k="natural" v="cape" />
		<tag k="ssr:stedsnr" v="272552" />
	</node>
	<node id="-823421" lat="63.4068277795" lon="8.88197222884">
		<tag k="fixme" v="consider seamark:type=rock or natural=shoal" />
		<tag k="name" v="Skjelskjeret" />
		<tag k="place" v="islet" />
		<tag k="ssr:stedsnr" v="575995" />
	</node>
	<node id="-821199" lat="63.4060666703" lon="9.14592777468">
		<tag k="name" v="Kattavikneset" />
		<tag k="natural" v="cape" />
		<tag k="ssr:stedsnr" v="498718" />
	</node>
	<node id="-823930" lat="63.4263694484" lon="8.91322499499">
		<tag k="name" v="Hansholmen" />
		<tag k="place" v="islet" />
		<tag k="ssr:stedsnr" v="923459" />
	</node>
	<node id="-820857" lat="63.4122361082" lon="8.90936388395">
		<tag k="name" v="Trongsundet" />
		<tag k="natural" v="strait" />
		<tag k="ssr:stedsnr" v="454595" />
	</node>
	<node id="-823018" lat="63.4069333361" lon="9.14096666509">
		<tag k="name" v="Kattavika" />
		<tag k="natural" v="bay" />
		<tag k="ssr:stedsnr" v="133659" />
	</node>
	<node id="-820850" lat="63.1895583327" lon="8.80767778401">
		<tag k="name" v="Seineset" />
		<tag k="natural" v="cape" />
		<tag k="ssr:stedsnr" v="272977" />
	</node>
	<node id="-821779" lat="63.4146666666" lon="8.92267777896">
		<tag k="name" v="Urdbukta" />
		<tag k="natural" v="bay" />
		<tag k="ssr:stedsnr" v="211594" />
	</node>
	<node id="-823919" lat="63.4258944482" lon="8.924908334">
		<tag k="fixme" v="consider seamark:type=rock or natural=shoal" />
		<tag k="name" v="Tannskjæra" />
		<tag k="place" v="islet" />
		<tag k="ssr:stedsnr" v="923460" />
	</node>
	<node id="-821869" lat="63.4641444455" lon="8.99969444303">
		<tag k="name" v="Kråkneset" />
		<tag k="natural" v="cape" />
		<tag k="ssr:stedsnr" v="211624" />
	</node>
	<node id="-822892" lat="63.4460777757" lon="9.0351611171">
		<tag k="name" v="Litlvikneset" />
		<tag k="natural" v="cape" />
		<tag k="ssr:stedsnr" v="150592" />
	</node>
	<node id="-822802" lat="63.4662194464" lon="8.97708889031">
		<tag k="name" v="Kråkgrunnen" />
		<tag k="natural" v="shoal" />
		<tag k="place" v="locality" />
		<tag k="ssr:stedsnr" v="955388" />
	</node>
	<node id="-823913" lat="63.4401055517" lon="8.87727777047">
		<tag k="fixme" v="consider seamark:type=rock or natural=shoal" />
		<tag k="name" v="Kastnotskjera" />
		<tag k="place" v="islet" />
		<tag k="ssr:stedsnr" v="454541" />
	</node>
	<node id="-822887" lat="63.462138886" lon="9.0361027681">
		<tag k="name" v="Tverrsundet" />
		<tag k="natural" v="strait" />
		<tag k="ssr:stedsnr" v="74491" />
	</node>
	<node id="-821350" lat="63.4484833303" lon="8.88455832776">
		<tag k="name" v="Strauman" />
		<tag k="place" v="locality" />
		<tag k="ssr:stedsnr" v="514558" />
	</node>
	<node id="-821521" lat="63.4185888918" lon="8.88428611866">
		<tag k="name" v="Fårroholmen" />
		<tag k="place" v="islet" />
		<tag k="ssr:stedsnr" v="801404" />
	</node>
	<node id="-822372" lat="63.4462583302" lon="9.10638055939">
		<tag k="name" v="Oternesgrunnen" />
		<tag k="natural" v="shoal" />
		<tag k="place" v="locality" />
		<tag k="ssr:stedsnr" v="773492" />
	</node>
	<node id="-822883" lat="63.3474805567" lon="9.12415555386">
		<tag k="name" v="Fitjaneset" />
		<tag k="natural" v="cape" />
		<tag k="ssr:stedsnr" v="393785" />
	</node>
	<node id="-823926" lat="63.4209019379" lon="8.97798022497">
		<tag k="name" v="Bjørkneset" />
		<tag k="natural" v="cape" />
		<tag k="ssr:stedsnr" v="618405" />
	</node>
	<node id="-821863" lat="63.3340333292" lon="9.19119999435">
		<tag k="name" v="Purkvikneset" />
		<tag k="natural" v="cape" />
		<tag k="ssr:stedsnr" v="133451" />
	</node>
	<node id="-823903" lat="63.3734583376" lon="9.17894165989">
		<tag k="alt_name" v="Oddlitangen" />
		<tag k="name" v="Innerodden" />
		<tag k="natural" v="cape" />
		<tag k="ssr:stedsnr" v="255776" />
	</node>
	<node id="-822877" lat="63.42651389" lon="8.76726665765">
		<tag k="name" v="Litlbølskaget" />
		<tag k="natural" v="cape" />
		<tag k="ssr:stedsnr" v="90388" />
	</node>
	<node id="-823900" lat="63.4284944412" lon="8.86310000946">
		<tag k="name" v="Slyngstenen" />
		<tag k="natural" v="cape" />
		<tag k="ssr:stedsnr" v="454539" />
	</node>
	<node id="-823387" lat="63.4140972195" lon="9.14083054827">
		<tag k="fixme" v="consider seamark:type=rock or natural=shoal" />
		<tag k="name" v="Kattavikskjeret" />
		<tag k="place" v="islet" />
		<tag k="ssr:stedsnr" v="29695" />
	</node>
	<node id="-821337" lat="63.4294055551" lon="8.81493611746">
		<tag k="name" v="Taftøysundet" />
		<tag k="natural" v="strait" />
		<tag k="ssr:stedsnr" v="377406" />
	</node>
	<node id="-822357" lat="63.3773750018" lon="9.15494444945">
		<tag k="name" v="Bugaholmen" />
		<tag k="place" v="islet" />
		<tag k="ssr:stedsnr" v="315749" />
	</node>
	<node id="-821843" lat="63.4018583299" lon="8.88158611983">
		<tag k="name" v="Tjuvholmen" />
		<tag k="place" v="islet" />
		<tag k="ssr:stedsnr" v="90926" />
	</node>
	<node id="-822866" lat="63.4245027772" lon="8.93539723115">
		<tag k="name" v="Tannabukta" />
		<tag k="natural" v="bay" />
		<tag k="ssr:stedsnr" v="150586" />
	</node>
	<node id="-823669" lat="63.4536527803" lon="9.04677499899">
		<tag k="alt_name" v="Øyaskjeret" />
		<tag k="fixme" v="consider seamark:type=rock or natural=shoal" />
		<tag k="name" v="Øyaskjæret" />
		<tag k="place" v="islet" />
		<tag k="ssr:stedsnr" v="90574" />
	</node>
	<node id="-823375" lat="63.4267388846" lon="9.11333055582">
		<tag k="name" v="Kjerringvika" />
		<tag k="natural" v="bay" />
		<tag k="ssr:stedsnr" v="29692" />
	</node>
	<node id="-821326" lat="63.4289916637" lon="8.79420555516">
		<tag k="fixme" v="consider seamark:type=rock or natural=shoal" />
		<tag k="name" v="Steinskjeret" />
		<tag k="place" v="islet" />
		<tag k="ssr:stedsnr" v="332522" />
	</node>
	<node id="-823373" lat="63.4464805521" lon="8.88118611956">
		<tag k="fixme" v="multiple name tags, choose one and add the other to alt_name" />
		<tag k="name" v="Røstøystonga;Stongskaget" />
		<tag k="natural" v="cape" />
		<tag k="ssr:stedsnr" v="90510" />
	</node>
	<node id="-821044" lat="63.3919361129" lon="9.15221944502">
		<tag k="name" v="Bakkabukta" />
		<tag k="natural" v="bay" />
		<tag k="ssr:stedsnr" v="454649" />
	</node>
	<node id="-823906" lat="63.4254361147" lon="8.92638889809">
		<tag k="name" v="Tannsundet" />
		<tag k="natural" v="strait" />
		<tag k="ssr:stedsnr" v="559401" />
	</node>
	<node id="-823368" lat="63.4506083375" lon="9.06811666154">
		<tag k="name" v="Furunesgrunnen" />
		<tag k="natural" v="shoal" />
		<tag k="place" v="locality" />
		<tag k="ssr:stedsnr" v="955514" />
	</node>
	<node id="-822854" lat="63.4211111108" lon="9.10089444156">
		<tag k="alt_name" v="Inner Heimsvågen" />
		<tag k="name" v="Innervågen" />
		<tag k="natural" v="bay" />
		<tag k="ssr:stedsnr" v="679634" />
	</node>
	<node id="-821040" lat="63.3356222208" lon="9.20171667303">
		<tag k="name" v="Vestre Buvika" />
		<tag k="natural" v="bay" />
		<tag k="ssr:stedsnr" v="815744" />
	</node>
	<node id="-821828" lat="63.4512361151" lon="9.09977777566">
		<tag k="bay" v="fjord" />
		<tag k="name" v="Hemnfjorden" />
		<tag k="natural" v="bay" />
		<tag k="ssr:stedsnr" v="377480" />
	</node>
	<node id="-821827" lat="63.4486611068" lon="8.91086944502">
		<tag k="name" v="Røstøyhamna" />
		<tag k="natural" v="bay" />
		<tag k="ssr:stedsnr" v="377479" />
	</node>
	<node id="-822337" lat="63.4181361134" lon="8.94688333774">
		<tag k="name" v="Valholmen" />
		<tag k="place" v="islet" />
		<tag k="ssr:stedsnr" v="939613" />
	</node>
	<node id="-823872" lat="63.3020833338" lon="9.13122777237">
		<tag k="name" v="Jevikbukta" />
		<tag k="natural" v="bay" />
		<tag k="ssr:stedsnr" v="818975" />
	</node>
	<node id="-821311" lat="63.4528555554" lon="9.02628056471">
		<tag k="name" v="Vikavågen" />
		<tag k="natural" v="bay" />
		<tag k="ssr:stedsnr" v="757571" />
	</node>
	<node id="-823358" lat="63.3407861099" lon="9.13629167014">
		<tag k="name" v="Lernesodden" />
		<tag k="natural" v="cape" />
		<tag k="ssr:stedsnr" v="497528" />
	</node>
	<node id="-823869" lat="63.4325638922" lon="8.93250277911">
		<tag k="name" v="Storholmen" />
		<tag k="place" v="islet" />
		<tag k="ssr:stedsnr" v="559404" />
	</node>
	<node id="-823356" lat="63.1946833313" lon="8.87083333343">
		<tag k="name" v="Staursetbukta" />
		<tag k="natural" v="bay" />
		<tag k="ssr:stedsnr" v="231687" />
	</node>
	<node id="-822841" lat="63.4280666643" lon="8.81401666859">
		<tag k="name" v="Holmbukta" />
		<tag k="natural" v="bay" />
		<tag k="ssr:stedsnr" v="272672" />
	</node>
	<node id="-822839" lat="63.4640194437" lon="8.96613610527">
		<tag k="name" v="Magerøygrunnen" />
		<tag k="natural" v="shoal" />
		<tag k="place" v="locality" />
		<tag k="ssr:stedsnr" v="955391" />
	</node>
	<node id="-822326" lat="63.4428388873" lon="8.87464722041">
		<tag k="fixme" v="consider seamark:type=rock or natural=shoal" />
		<tag k="name" v="Myraurskjæra" />
		<tag k="place" v="islet" />
		<tag k="ssr:stedsnr" v="74384" />
	</node>
	<node id="-822325" lat="63.4331277747" lon="8.80461667287">
		<tag k="name" v="Ytterøya" />
		<tag k="place" v="island" />
		<tag k="ssr:stedsnr" v="575668" />
	</node>
	<node id="-821296" lat="63.1922944461" lon="8.82145833672">
		<tag k="name" v="Hovdebukta" />
		<tag k="natural" v="bay" />
		<tag k="ssr:stedsnr" v="473613" />
	</node>
	<node id="-822319" lat="63.4285349339" lon="8.78275216696">
		<tag k="name" v="Valøya" />
		<tag k="place" v="islet" />
		<tag k="ssr:stedsnr" v="575669" />
	</node>
	<node id="-822489" lat="63.378355556" lon="9.14947777048">
		<tag k="name" v="Buganeset" />
		<tag k="natural" v="cape" />
		<tag k="ssr:stedsnr" v="393684" />
	</node>
	<node id="-820829" lat="63.3720583334" lon="9.16108334209">
		<tag k="alt_name" v="Storoddan" />
		<tag k="name" v="Storodden" />
		<tag k="natural" v="cape" />
		<tag k="ssr:stedsnr" v="12745" />
	</node>
	<node id="-822828" lat="63.4183027768" lon="8.87932500322">
		<tag k="name" v="Vikan" />
		<tag k="natural" v="bay" />
		<tag k="ssr:stedsnr" v="757995" />
	</node>
	<node id="-821077" lat="63.386925004" lon="9.1654638874">
		<tag k="fixme" v="consider seamark:type=rock or natural=shoal" />
		<tag k="name" v="Haugaskjæret" />
		<tag k="place" v="islet" />
		<tag k="ssr:stedsnr" v="45538" />
	</node>
	<node id="-823338" lat="63.4244027735" lon="8.79395832833">
		<tag k="name" v="Fløoskaget" />
		<tag k="natural" v="cape" />
		<tag k="ssr:stedsnr" v="940698" />
	</node>
	<node id="-822364" lat="63.4304277778" lon="8.79256387955">
		<tag k="name" v="Kjeholmen" />
		<tag k="place" v="islet" />
		<tag k="ssr:stedsnr" v="438385" />
	</node>
	<node id="-821285" lat="63.376719447" lon="9.15603054772">
		<tag k="name" v="Litlbugen" />
		<tag k="natural" v="bay" />
		<tag k="ssr:stedsnr" v="90789" />
	</node>
	<node id="-823843" lat="63.1909916687" lon="8.81552500652">
		<tag k="name" v="Kråka" />
		<tag k="natural" v="cape" />
		<tag k="ssr:stedsnr" v="133778" />
	</node>
	<node id="-822306" lat="63.4249027786" lon="8.92582776889">
		<tag k="fixme" v="consider seamark:type=rock or natural=shoal" />
		<tag k="name" v="Kastnotskjeret" />
		<tag k="place" v="islet" />
		<tag k="ssr:stedsnr" v="939608" />
	</node>
	<node id="-823326" lat="63.2930944408" lon="9.11568610238">
		<tag k="name" v="Nedre Merkeneset" />
		<tag k="natural" v="cape" />
		<tag k="ssr:stedsnr" v="904653" />
	</node>
	<node id="-822811" lat="63.4109916697" lon="8.88174167506">
		<tag k="name" v="Halsnesset" />
		<tag k="natural" v="cape" />
		<tag k="ssr:stedsnr" v="757991" />
	</node>
	<node id="-823322" lat="63.4454638849" lon="8.9037027762">
		<tag k="name" v="Røstøya" />
		<tag k="place" v="island" />
		<tag k="ssr:stedsnr" v="316440" />
	</node>
	<node id="-822296" lat="63.4198805582" lon="8.9367472192">
		<tag k="name" v="Koabukta" />
		<tag k="natural" v="bay" />
		<tag k="ssr:stedsnr" v="939612" />
	</node>
	<node id="-823318" lat="63.4470083296" lon="8.96769999228">
		<tag k="name" v="Purkholmen" />
		<tag k="place" v="islet" />
		<tag k="ssr:stedsnr" v="619415" />
	</node>
	<node id="-823829" lat="63.3444472245" lon="9.129736112">
		<tag k="name" v="Nothusneset" />
		<tag k="natural" v="cape" />
		<tag k="ssr:stedsnr" v="29795" />
	</node>
	<node id="-823315" lat="63.4253416667" lon="8.94105277528">
		<tag k="name" v="Tanna" />
		<tag k="natural" v="cape" />
		<tag k="ssr:stedsnr" v="741478" />
	</node>
	<node id="-823826" lat="63.420022226" lon="8.91554999564">
		<tag k="fixme" v="consider seamark:type=rock or natural=shoal" />
		<tag k="name" v="Sørvågskjæret" />
		<tag k="place" v="islet" />
		<tag k="ssr:stedsnr" v="106229" />
	</node>
	<node id="-823043" lat="63.4620111156" lon="9.07699166717">
		<tag k="name" v="Kjørsvikgrunnen" />
		<tag k="natural" v="shoal" />
		<tag k="place" v="locality" />
		<tag k="ssr:stedsnr" v="288357" />
	</node>
	<node id="-823312" lat="63.3436361129" lon="9.13502777119">
		<tag k="name" v="Kalvtrøneset" />
		<tag k="natural" v="cape" />
		<tag k="ssr:stedsnr" v="635773" />
	</node>
	<node id="-823823" lat="63.3886111133" lon="9.15700833724">
		<tag k="name" v="Grasneset" />
		<tag k="natural" v="cape" />
		<tag k="ssr:stedsnr" v="834574" />
	</node>
	<node id="-823821" lat="63.4311250041" lon="8.81610555421">
		<tag k="name" v="Taftøya" />
		<tag k="place" v="islet" />
		<tag k="ssr:stedsnr" v="454535" />
	</node>
	<node id="-821772" lat="63.4420305598" lon="9.09519444727">
		<tag k="name" v="Oternesodden" />
		<tag k="natural" v="cape" />
		<tag k="ssr:stedsnr" v="211596" />
	</node>
	<node id="-821771" lat="63.3992305517" lon="8.90720555449">
		<tag k="name" v="Langskjærøyan" />
		<tag k="natural" v="cape" />
		<tag k="ssr:stedsnr" v="740664" />
	</node>
	<node id="-822615" lat="63.4199138886" lon="8.97211111562">
		<tag k="name" v="Bjørknesodden" />
		<tag k="natural" v="cape" />
		<tag k="ssr:stedsnr" v="939680" />
	</node>
	<node id="-821765" lat="63.4423333301" lon="8.92213611261">
		<tag k="name" v="Valholmen" />
		<tag k="place" v="islet" />
		<tag k="ssr:stedsnr" v="13424" />
	</node>
	<node id="-822276" lat="63.3883694462" lon="8.90391666419">
		<tag k="name" v="Seterleiet" />
		<tag k="natural" v="bay" />
		<tag k="ssr:stedsnr" v="393612" />
	</node>
	<node id="-821212" lat="63.4059305597" lon="8.88832499441">
		<tag k="name" v="Bjellvika" />
		<tag k="natural" v="bay" />
		<tag k="ssr:stedsnr" v="876756" />
	</node>
</osm>
