<?xml version="1.0" encoding="UTF-8"?>
<osm generator="osmapis" version="0.6">
	<node id="-830654" lat="63.2776583333" lon="8.94018333044">
		<tag k="alt_name" v="Setervegen" />
		<tag k="fixme" v="consider highway=path" />
		<tag k="highway" v="track" />
		<tag k="name" v="Bjørksetervegen" />
		<tag k="ssr:stedsnr" v="272081" />
	</node>
	<node id="-829212" lat="63.1678805589" lon="8.85454722529">
		<tag k="highway" v="path" />
		<tag k="name" v="Kleivan" />
		<tag k="ssr:stedsnr" v="818637" />
	</node>
	<node id="-828155" lat="63.2736999989" lon="9.19729999143">
		<tag k="highway" v="path" />
		<tag k="name" v="Litlkleiva" />
		<tag k="ssr:stedsnr" v="147729" />
	</node>
	<node id="-828634" lat="63.3494416709" lon="8.91876667217">
		<tag k="highway" v="path" />
		<tag k="name" v="Stigan" />
		<tag k="ssr:stedsnr" v="454871" />
	</node>
	<node id="-830489" lat="63.2880777759" lon="9.15816944781">
		<tag k="ford" v="yes" />
		<tag k="name" v="Storlivadet" />
		<tag k="place" v="locality" />
		<tag k="ssr:stedsnr" v="272027" />
	</node>
	<node id="-829241" lat="63.1778000036" lon="8.85307778386">
		<tag k="highway" v="path" />
		<tag k="name" v="Eldhusholten" />
		<tag k="ssr:stedsnr" v="757912" />
	</node>
	<node id="-829170" lat="63.2851444415" lon="9.1609194524">
		<tag k="ford" v="yes" />
		<tag k="name" v="Setervadet" />
		<tag k="place" v="locality" />
		<tag k="ssr:stedsnr" v="514026" />
	</node>
	<node id="-830449" lat="63.167741665" lon="8.85823610811">
		<tag k="highway" v="path" />
		<tag k="name" v="Kleivan" />
		<tag k="ssr:stedsnr" v="90595" />
	</node>
	<node id="-830384" lat="63.3289638927" lon="9.08091111429">
		<tag k="fixme" v="consider highway=path" />
		<tag k="highway" v="track" />
		<tag k="name" v="Bolistien" />
		<tag k="ssr:stedsnr" v="818931" />
	</node>
	<node id="-829515" lat="63.2627138885" lon="9.0029722198">
		<tag k="highway" v="path" />
		<tag k="name" v="Kvernhusvegen" />
		<tag k="ssr:stedsnr" v="697115" />
	</node>
	<node id="-829000" lat="63.1905777801" lon="8.81752500036">
		<tag k="man_made" v="quay" />
		<tag k="name" v="Kråka" />
		<tag k="place" v="locality" />
		<tag k="ssr:stedsnr" v="454983" />
	</node>
	<node id="-828455" lat="63.2135944471" lon="9.10305556291">
		<tag k="highway" v="path" />
		<tag k="name" v="Kleivan" />
		<tag k="ssr:stedsnr" v="394267" />
	</node>
	<node id="-828953" lat="63.3175666674" lon="9.00839165866">
		<tag k="ford" v="yes" />
		<tag k="name" v="Tåvadet" />
		<tag k="place" v="locality" />
		<tag k="ssr:stedsnr" v="454970" />
	</node>
	<node id="-829410" lat="63.313922223" lon="9.16630832616">
		<tag k="highway" v="path" />
		<tag k="name" v="Korsvegen" />
		<tag k="ssr:stedsnr" v="211885" />
	</node>
	<node id="-829355" lat="63.2987722234" lon="8.97058889383">
		<tag k="highway" v="path" />
		<tag k="name" v="Seterkleiva" />
		<tag k="ssr:stedsnr" v="514936" />
	</node>
</osm>
