<?xml version="1.0" encoding="UTF-8"?>
<osm generator="osmapis" version="0.6">
	<node id="-821242" lat="63.2163027768" lon="8.97986944939">
		<tag k="landuse" v="meadow" />
		<tag k="name" v="Jo-enga" />
		<tag k="ssr:stedsnr" v="454710" />
	</node>
	<node id="-821240" lat="63.2549055581" lon="8.89871944967">
		<tag k="name" v="Melslættøyan" />
		<tag k="place" v="locality" />
		<tag k="ssr:stedsnr" v="150136" />
	</node>
	<node id="-821232" lat="63.4233555576" lon="9.0756305623">
		<tag k="name" v="Tomta" />
		<tag k="place" v="locality" />
		<tag k="ssr:stedsnr" v="454693" />
	</node>
	<node id="-823275" lat="63.1841194489" lon="8.99267778637">
		<tag k="name" v="Nermyran" />
		<tag k="natural" v="wetland" />
		<tag k="ssr:stedsnr" v="212895" />
	</node>
	<node id="-821226" lat="63.4238527788" lon="9.06761666642">
		<tag k="name" v="Haløymyra" />
		<tag k="natural" v="wetland" />
		<tag k="ssr:stedsnr" v="454690" />
	</node>
	<node id="-823272" lat="63.2446305575" lon="9.19456111184">
		<tag k="name" v="Rutmyra" />
		<tag k="natural" v="wetland" />
		<tag k="ssr:stedsnr" v="697231" />
	</node>
	<node id="-821216" lat="63.25465556" lon="9.04983611413">
		<tag k="name" v="Sjølgjetsla" />
		<tag k="place" v="locality" />
		<tag k="ssr:stedsnr" v="697520" />
	</node>
	<node id="-823262" lat="63.2103444415" lon="8.96682500549">
		<tag k="name" v="Torthola" />
		<tag k="natural" v="scree" />
		<tag k="ssr:stedsnr" v="575918" />
	</node>
	<node id="-821205" lat="63.2357916687" lon="9.11479167315">
		<tag k="name" v="Setermyra" />
		<tag k="natural" v="wetland" />
		<tag k="ssr:stedsnr" v="879197" />
	</node>
	<node id="-823250" lat="63.1785111096" lon="9.02509444791">
		<tag k="name" v="Røytet" />
		<tag k="place" v="locality" />
		<tag k="ssr:stedsnr" v="454396" />
	</node>
	<node id="-823971" lat="63.2932472249" lon="9.20254166204">
		<tag k="name" v="Sjølgjetsla" />
		<tag k="place" v="locality" />
		<tag k="ssr:stedsnr" v="150008" />
	</node>
	<node id="-823245" lat="63.2955388919" lon="9.04990833108">
		<tag k="name" v="Slabukta" />
		<tag k="place" v="locality" />
		<tag k="ssr:stedsnr" v="575052" />
	</node>
	<node id="-821188" lat="63.2456083316" lon="9.11586665807">
		<tag k="name" v="Stormyra" />
		<tag k="natural" v="wetland" />
		<tag k="ssr:stedsnr" v="272195" />
	</node>
	<node id="-823234" lat="63.144141669" lon="9.10642222694">
		<tag k="name" v="Slettmyra" />
		<tag k="natural" v="wetland" />
		<tag k="ssr:stedsnr" v="454400" />
	</node>
	<node id="-823233" lat="63.1941027771" lon="8.91192778603">
		<tag k="name" v="Tjørrhjellen" />
		<tag k="place" v="locality" />
		<tag k="ssr:stedsnr" v="333906" />
	</node>
	<node id="-821184" lat="63.19701389" lon="9.01736667546">
		<tag k="name" v="Brekkplassen" />
		<tag k="place" v="locality" />
		<tag k="ssr:stedsnr" v="636905" />
	</node>
	<node id="-823229" lat="63.3530944426" lon="9.01554722609">
		<tag k="name" v="Flatmyran" />
		<tag k="natural" v="wetland" />
		<tag k="ssr:stedsnr" v="393880" />
	</node>
	<node id="-821180" lat="63.3201972235" lon="9.05612222573">
		<tag k="name" v="Bærholet" />
		<tag k="natural" v="wetland" />
		<tag k="ssr:stedsnr" v="636904" />
	</node>
	<node id="-821179" lat="63.2153388868" lon="9.1865611027">
		<tag k="name" v="Gammelbuslættet" />
		<tag k="place" v="locality" />
		<tag k="ssr:stedsnr" v="939292" />
	</node>
	<node id="-821177" lat="63.195494442" lon="8.99706667393">
		<tag k="name" v="Haukreiret" />
		<tag k="place" v="locality" />
		<tag k="ssr:stedsnr" v="636902" />
	</node>
	<node id="-821174" lat="63.2630277791" lon="8.89441389471">
		<tag k="name" v="Melslættet" />
		<tag k="natural" v="wetland" />
		<tag k="ssr:stedsnr" v="876767" />
	</node>
	<node id="-821173" lat="63.2122388901" lon="8.96861388605">
		<tag k="historic" v="shieling" />
		<tag k="name" v="Brunsetra" />
		<tag k="place" v="locality" />
		<tag k="ssr:stedsnr" v="636901" />
	</node>
	<node id="-823217" lat="63.2002055557" lon="9.00360556039">
		<tag k="name" v="Ørstadholtan" />
		<tag k="place" v="locality" />
		<tag k="ssr:stedsnr" v="515942" />
	</node>
	<node id="-821167" lat="63.1855249963" lon="9.03517221607">
		<tag k="name" v="Kåran" />
		<tag k="place" v="locality" />
		<tag k="ssr:stedsnr" v="575340" />
	</node>
	<node id="-821166" lat="63.2490666623" lon="9.0926277871">
		<tag k="name" v="Hjortholet" />
		<tag k="place" v="locality" />
		<tag k="ssr:stedsnr" v="879208" />
	</node>
	<node id="-823213" lat="63.1707027775" lon="8.91722222708">
		<tag k="name" v="Randa-myran" />
		<tag k="natural" v="wetland" />
		<tag k="ssr:stedsnr" v="879792" />
	</node>
	<node id="-821163" lat="63.2754361112" lon="8.96081666781">
		<tag k="name" v="Storbuslættet" />
		<tag k="place" v="locality" />
		<tag k="ssr:stedsnr" v="150117" />
	</node>
	<node id="-823209" lat="63.2433833368" lon="9.11242778671">
		<tag k="name" v="Dalbuslættet" />
		<tag k="place" v="locality" />
		<tag k="ssr:stedsnr" v="332187" />
	</node>
	<node id="-821160" lat="63.2100833358" lon="9.10173610456">
		<tag k="name" v="Fagerhaugmyra" />
		<tag k="natural" v="wetland" />
		<tag k="ssr:stedsnr" v="393308" />
	</node>
	<node id="-821158" lat="63.2508305561" lon="9.09579166365">
		<tag k="name" v="Gurimyra" />
		<tag k="natural" v="wetland" />
		<tag k="ssr:stedsnr" v="879207" />
	</node>
	<node id="-823203" lat="63.2931611121" lon="9.22280277192">
		<tag k="name" v="Storslættet" />
		<tag k="place" v="locality" />
		<tag k="ssr:stedsnr" v="393010" />
	</node>
	<node id="-821150" lat="63.2369611079" lon="9.04743333595">
		<tag k="name" v="Nessaskogen" />
		<tag k="place" v="locality" />
		<tag k="ssr:stedsnr" v="272182" />
	</node>
	<node id="-821148" lat="63.403299996" lon="9.05505277295">
		<tag k="name" v="Nerslætta" />
		<tag k="place" v="locality" />
		<tag k="ssr:stedsnr" v="454661" />
	</node>
	<node id="-823192" lat="63.1913194425" lon="8.90228334272">
		<tag k="name" v="Åsmyra" />
		<tag k="natural" v="wetland" />
		<tag k="ssr:stedsnr" v="212874" />
	</node>
	<node id="-821141" lat="63.3518444447" lon="9.07918611001">
		<tag k="name" v="Gabrielslættet" />
		<tag k="place" v="locality" />
		<tag k="ssr:stedsnr" v="90747" />
	</node>
	<node id="-823188" lat="63.2037861149" lon="8.98633056178">
		<tag k="name" v="Fjelnsetøyan" />
		<tag k="place" v="locality" />
		<tag k="ssr:stedsnr" v="575908" />
	</node>
	<node id="-823187" lat="63.1833305554" lon="8.96235554913">
		<tag k="name" v="Fagerhaug-myran" />
		<tag k="natural" v="wetland" />
		<tag k="ssr:stedsnr" v="272761" />
	</node>
	<node id="-823185" lat="63.2116194448" lon="9.00955278532">
		<tag k="name" v="Vettahaugmyran" />
		<tag k="natural" v="wetland" />
		<tag k="ssr:stedsnr" v="575909" />
	</node>
	<node id="-823184" lat="63.376177774" lon="8.96849999036">
		<tag k="name" v="Gråurda" />
		<tag k="natural" v="scree" />
		<tag k="ssr:stedsnr" v="940678" />
	</node>
	<node id="-823180" lat="63.2268055554" lon="9.01843056375">
		<tag k="name" v="Stavåsmyra" />
		<tag k="natural" v="wetland" />
		<tag k="ssr:stedsnr" v="940679" />
	</node>
	<node id="-823173" lat="63.1975305554" lon="9.01000554575">
		<tag k="name" v="Tjønnmyrholtan" />
		<tag k="natural" v="wetland" />
		<tag k="ssr:stedsnr" v="575912" />
	</node>
	<node id="-821124" lat="63.3008416691" lon="9.1479999926">
		<tag k="name" v="Halsen" />
		<tag k="place" v="locality" />
		<tag k="ssr:stedsnr" v="635991" />
	</node>
	<node id="-821121" lat="63.2054972193" lon="9.15293333987">
		<tag k="name" v="Finnskjeggøya" />
		<tag k="place" v="locality" />
		<tag k="ssr:stedsnr" v="758353" />
	</node>
	<node id="-821114" lat="63.4069916623" lon="8.78622778057">
		<tag k="name" v="Skymlingen" />
		<tag k="natural" v="wetland" />
		<tag k="ssr:stedsnr" v="90742" />
	</node>
	<node id="-823155" lat="63.307599999" lon="9.14143611883">
		<tag k="name" v="Hagaslættet" />
		<tag k="place" v="locality" />
		<tag k="ssr:stedsnr" v="211995" />
	</node>
	<node id="-823152" lat="63.2042083295" lon="9.06441944212">
		<tag k="name" v="Stormyra" />
		<tag k="natural" v="wetland" />
		<tag k="ssr:stedsnr" v="454360" />
	</node>
	<node id="-823150" lat="63.3492999983" lon="9.10364722962">
		<tag k="historic" v="shieling" />
		<tag k="name" v="Kynnsviksetra" />
		<tag k="place" v="locality" />
		<tag k="ssr:stedsnr" v="272753" />
	</node>
	<node id="-823147" lat="63.3451583311" lon="9.09313888095">
		<tag k="name" v="Damvassmyran" />
		<tag k="natural" v="wetland" />
		<tag k="ssr:stedsnr" v="272752" />
	</node>
	<node id="-823141" lat="63.2106638912" lon="9.06827223088">
		<tag k="name" v="Hesttrøa" />
		<tag k="place" v="locality" />
		<tag k="ssr:stedsnr" v="454364" />
	</node>
	<node id="-823136" lat="63.2215166633" lon="9.04088611676">
		<tag k="name" v="Gammelgarden" />
		<tag k="place" v="locality" />
		<tag k="ssr:stedsnr" v="636555" />
	</node>
	<node id="-823134" lat="63.2005583347" lon="9.00246111977">
		<tag k="name" v="Ørstadmyran" />
		<tag k="natural" v="wetland" />
		<tag k="ssr:stedsnr" v="515931" />
	</node>
	<node id="-823133" lat="63.1917138865" lon="9.00851111266">
		<tag k="name" v="Spjøtmelan" />
		<tag k="place" v="locality" />
		<tag k="ssr:stedsnr" v="575895" />
	</node>
	<node id="-823128" lat="63.228697219" lon="9.06726387932">
		<tag k="name" v="Vargholon" />
		<tag k="place" v="locality" />
		<tag k="ssr:stedsnr" v="636553" />
	</node>
	<node id="-823127" lat="63.2089277773" lon="9.06280832788">
		<tag k="name" v="Litlbakkmyran" />
		<tag k="natural" v="wetland" />
		<tag k="ssr:stedsnr" v="454367" />
	</node>
	<node id="-823121" lat="63.1998277774" lon="9.01367222277">
		<tag k="name" v="Lintjønnmyra" />
		<tag k="natural" v="wetland" />
		<tag k="ssr:stedsnr" v="515934" />
	</node>
	<node id="-823120" lat="63.2922138894" lon="9.16508888623">
		<tag k="name" v="Bjørnaliurdin" />
		<tag k="natural" v="scree" />
		<tag k="ssr:stedsnr" v="393003" />
	</node>
	<node id="-823117" lat="63.2465944467" lon="8.97823056343">
		<tag k="name" v="Gammelbuslættet" />
		<tag k="place" v="locality" />
		<tag k="ssr:stedsnr" v="697191" />
	</node>
	<node id="-821062" lat="63.1776027776" lon="9.01660834023">
		<tag k="name" v="Baugen" />
		<tag k="place" v="locality" />
		<tag k="ssr:stedsnr" v="940967" />
	</node>
	<node id="-823106" lat="63.2450805517" lon="8.96867222787">
		<tag k="name" v="Hovleksmyran" />
		<tag k="natural" v="wetland" />
		<tag k="ssr:stedsnr" v="332162" />
	</node>
	<node id="-823103" lat="63.3034444409" lon="9.15236944894">
		<tag k="name" v="Kvolvet" />
		<tag k="place" v="locality" />
		<tag k="ssr:stedsnr" v="575877" />
	</node>
	<node id="-823102" lat="63.1808972228" lon="8.99708054621">
		<tag k="name" v="Øvermyran" />
		<tag k="natural" v="wetland" />
		<tag k="ssr:stedsnr" v="818795" />
	</node>
	<node id="-823100" lat="63.3047249973" lon="9.14703888175">
		<tag k="name" v="Sandgrova" />
		<tag k="place" v="locality" />
		<tag k="ssr:stedsnr" v="211983" />
	</node>
	<node id="-823095" lat="63.1869138873" lon="8.95928888992">
		<tag k="name" v="Astadmyran" />
		<tag k="natural" v="wetland" />
		<tag k="ssr:stedsnr" v="818800" />
	</node>
	<node id="-821041" lat="63.240425002" lon="9.14233055917">
		<tag k="name" v="Tempelmyra" />
		<tag k="natural" v="wetland" />
		<tag k="ssr:stedsnr" v="635184" />
	</node>
	<node id="-823087" lat="63.3290361149" lon="9.09487777162">
		<tag k="name" v="Dikmyra" />
		<tag k="natural" v="wetland" />
		<tag k="ssr:stedsnr" v="939820" />
	</node>
	<node id="-823085" lat="63.1952444403" lon="9.01790278233">
		<tag k="name" v="Tommelskogen" />
		<tag k="place" v="locality" />
		<tag k="ssr:stedsnr" v="515920" />
	</node>
	<node id="-823082" lat="63.1935694447" lon="9.06597499247">
		<tag k="name" v="Vinimyran" />
		<tag k="natural" v="wetland" />
		<tag k="ssr:stedsnr" v="454354" />
	</node>
	<node id="-821273" lat="63.1459138857" lon="9.10551944474">
		<tag k="name" v="Damtjønnslættet" />
		<tag k="natural" v="wetland" />
		<tag k="ssr:stedsnr" v="575363" />
	</node>
	<node id="-821032" lat="63.319369443" lon="9.20649167098">
		<tag k="name" v="Sperillholan" />
		<tag k="place" v="locality" />
		<tag k="ssr:stedsnr" v="819923" />
	</node>
	<node id="-823074" lat="63.3287583372" lon="9.07419999089">
		<tag k="name" v="Gulltjønnmyra" />
		<tag k="natural" v="wetland" />
		<tag k="ssr:stedsnr" v="393920" />
	</node>
	<node id="-821021" lat="63.2865916636" lon="8.9313638853">
		<tag k="name" v="Ellingkrokan" />
		<tag k="natural" v="wetland" />
		<tag k="ssr:stedsnr" v="29073" />
	</node>
	<node id="-821018" lat="63.1423166709" lon="9.0807583417">
		<tag k="name" v="Holmen" />
		<tag k="place" v="locality" />
		<tag k="ssr:stedsnr" v="211417" />
	</node>
	<node id="-823062" lat="63.3424361117" lon="9.12475276787">
		<tag k="name" v="Håkkomyra" />
		<tag k="natural" v="wetland" />
		<tag k="ssr:stedsnr" v="635789" />
	</node>
	<node id="-821013" lat="63.1706472267" lon="8.84813889751">
		<tag k="name" v="Rabban" />
		<tag k="place" v="locality" />
		<tag k="ssr:stedsnr" v="940931" />
	</node>
	<node id="-821012" lat="63.2376166703" lon="8.98181388172">
		<tag k="name" v="Hunnesmyran" />
		<tag k="natural" v="wetland" />
		<tag k="ssr:stedsnr" v="879150" />
	</node>
	<node id="-821009" lat="63.2355777785" lon="9.04530277187">
		<tag k="name" v="Eidsmyra" />
		<tag k="natural" v="wetland" />
		<tag k="ssr:stedsnr" v="818180" />
	</node>
	<node id="-823050" lat="63.3066722261" lon="9.16767222475">
		<tag k="name" v="Storøya" />
		<tag k="place" v="locality" />
		<tag k="ssr:stedsnr" v="575873" />
	</node>
	<node id="-820999" lat="63.3363666638" lon="9.08056944268">
		<tag k="historic" v="shieling" />
		<tag k="name" v="Lernessetra" />
		<tag k="place" v="locality" />
		<tag k="ssr:stedsnr" v="150920" />
	</node>
	<node id="-823044" lat="63.2491722178" lon="9.01080000596">
		<tag k="name" v="Urdin" />
		<tag k="place" v="locality" />
		<tag k="ssr:stedsnr" v="514170" />
	</node>
	<node id="-820991" lat="63.2056750022" lon="8.9496611039">
		<tag k="name" v="Urdgarden" />
		<tag k="natural" v="scree" />
		<tag k="ssr:stedsnr" v="29899" />
	</node>
	<node id="-820988" lat="63.3328611125" lon="9.07443334177">
		<tag k="historic" v="shieling" />
		<tag k="name" v="Bjørklisetra" />
		<tag k="place" v="locality" />
		<tag k="ssr:stedsnr" v="150919" />
	</node>
	<node id="-820980" lat="63.1697722185" lon="9.03321667384">
		<tag k="name" v="Kulbekk-øyan" />
		<tag k="place" v="locality" />
		<tag k="ssr:stedsnr" v="211401" />
	</node>
	<node id="-823027" lat="63.2330111088" lon="9.03090000651">
		<tag k="name" v="Eidsdal" />
		<tag k="place" v="locality" />
		<tag k="ssr:stedsnr" v="636541" />
	</node>
	<node id="-820978" lat="63.2280388887" lon="9.25818889415">
		<tag k="name" v="Litlslættet" />
		<tag k="place" v="locality" />
		<tag k="ssr:stedsnr" v="393244" />
	</node>
	<node id="-820977" lat="63.2432861096" lon="8.97541666021">
		<tag k="name" v="Ulvslættet" />
		<tag k="place" v="locality" />
		<tag k="ssr:stedsnr" v="879157" />
	</node>
	<node id="-820973" lat="63.2455305587" lon="8.98324167093">
		<tag k="name" v="Holtan" />
		<tag k="place" v="locality" />
		<tag k="ssr:stedsnr" v="879159" />
	</node>
	<node id="-821202" lat="63.2335972223" lon="9.09882500795">
		<tag k="name" v="Lægda" />
		<tag k="place" v="locality" />
		<tag k="ssr:stedsnr" v="879196" />
	</node>
	<node id="-823006" lat="63.186430554" lon="8.9312138875">
		<tag k="name" v="Osbakkmyra" />
		<tag k="natural" v="wetland" />
		<tag k="ssr:stedsnr" v="272718" />
	</node>
	<node id="-820956" lat="63.2055194439" lon="9.12015276986">
		<tag k="name" v="Rørovassmyran" />
		<tag k="natural" v="wetland" />
		<tag k="ssr:stedsnr" v="575284" />
	</node>
	<node id="-820951" lat="63.2896361105" lon="8.9987694532">
		<tag k="historic" v="shieling" />
		<tag k="name" v="Strandasetra" />
		<tag k="place" v="locality" />
		<tag k="ssr:stedsnr" v="29052" />
	</node>
	<node id="-822995" lat="63.1662749984" lon="8.86819721565">
		<tag k="name" v="Knebblimyran" />
		<tag k="natural" v="wetland" />
		<tag k="ssr:stedsnr" v="29599" />
	</node>
	<node id="-820944" lat="63.377588891" lon="8.94831111726">
		<tag k="name" v="Lauvsalen" />
		<tag k="place" v="locality" />
		<tag k="ssr:stedsnr" v="454630" />
	</node>
	<node id="-822988" lat="63.1686555539" lon="8.84201389498">
		<tag k="name" v="Løkkenholet" />
		<tag k="place" v="locality" />
		<tag k="ssr:stedsnr" v="940589" />
	</node>
	<node id="-822987" lat="63.3744916688" lon="9.03281111488">
		<tag k="name" v="Slakkaslættet" />
		<tag k="place" v="locality" />
		<tag k="ssr:stedsnr" v="939749" />
	</node>
	<node id="-820914" lat="63.2664416675" lon="8.97887221387">
		<tag k="name" v="Orrleikmyra" />
		<tag k="natural" v="wetland" />
		<tag k="ssr:stedsnr" v="272125" />
	</node>
	<node id="-820912" lat="63.2980666696" lon="8.97251944637">
		<tag k="name" v="Vesseseterkleiva" />
		<tag k="natural" v="wetland" />
		<tag k="ssr:stedsnr" v="150063" />
	</node>
	<node id="-820905" lat="63.246802776" lon="9.13520276962">
		<tag k="name" v="Tverrheimyra" />
		<tag k="natural" v="wetland" />
		<tag k="ssr:stedsnr" v="939202" />
	</node>
	<node id="-820904" lat="63.2923916711" lon="9.04360833723">
		<tag k="name" v="Liaurda" />
		<tag k="natural" v="scree" />
		<tag k="ssr:stedsnr" v="757469" />
	</node>
	<node id="-822950" lat="63.2092944404" lon="9.02861111685">
		<tag k="name" v="Åsan" />
		<tag k="place" v="locality" />
		<tag k="ssr:stedsnr" v="454332" />
	</node>
	<node id="-822949" lat="63.2074749972" lon="9.04863611085">
		<tag k="name" v="Stølbruna" />
		<tag k="place" v="locality" />
		<tag k="ssr:stedsnr" v="696358" />
	</node>
	<node id="-820898" lat="63.3481666659" lon="9.00988334087">
		<tag k="name" v="Postmyra" />
		<tag k="natural" v="wetland" />
		<tag k="ssr:stedsnr" v="332424" />
	</node>
	<node id="-822935" lat="63.2504472237" lon="8.98533332438">
		<tag k="name" v="Litlbuslættet" />
		<tag k="place" v="locality" />
		<tag k="ssr:stedsnr" v="514186" />
	</node>
	<node id="-822924" lat="63.3074777782" lon="9.18241666779">
		<tag k="name" v="Kåsan" />
		<tag k="place" v="locality" />
		<tag k="ssr:stedsnr" v="575870" />
	</node>
	<node id="-822921" lat="63.4161000022" lon="8.81091666987">
		<tag k="name" v="Sandskråa" />
		<tag k="place" v="locality" />
		<tag k="ssr:stedsnr" v="879701" />
	</node>
	<node id="-822918" lat="63.1420611117" lon="9.07459444456">
		<tag k="name" v="Lassengmyra" />
		<tag k="natural" v="wetland" />
		<tag k="ssr:stedsnr" v="90393" />
	</node>
	<node id="-820869" lat="63.3026861138" lon="9.06615278194">
		<tag k="name" v="Klostermyran" />
		<tag k="natural" v="wetland" />
		<tag k="ssr:stedsnr" v="272981" />
	</node>
	<node id="-820861" lat="63.2228527786" lon="9.21260833632">
		<tag k="name" v="Haraflottflata" />
		<tag k="place" v="locality" />
		<tag k="ssr:stedsnr" v="575247" />
	</node>
	<node id="-822905" lat="63.1851749975" lon="8.95230277608">
		<tag k="name" v="Bærholet" />
		<tag k="natural" v="wetland" />
		<tag k="ssr:stedsnr" v="515878" />
	</node>
	<node id="-820853" lat="63.4577250014" lon="9.04302221656">
		<tag k="name" v="Fetten" />
		<tag k="place" v="locality" />
		<tag k="ssr:stedsnr" v="454594" />
	</node>
	<node id="-822897" lat="63.3580250031" lon="8.99232221473">
		<tag k="name" v="Flomyra" />
		<tag k="natural" v="wetland" />
		<tag k="ssr:stedsnr" v="575845" />
	</node>
	<node id="-822896" lat="63.3722666655" lon="9.02603611246">
		<tag k="name" v="Bumyra" />
		<tag k="natural" v="wetland" />
		<tag k="ssr:stedsnr" v="272701" />
	</node>
	<node id="-822894" lat="63.1797749961" lon="8.84919721578">
		<tag k="name" v="Åshaugmyra" />
		<tag k="natural" v="wetland" />
		<tag k="ssr:stedsnr" v="29585" />
	</node>
	<node id="-820844" lat="63.1969305581" lon="8.92320555061">
		<tag k="alt_name" v="Flesan" />
		<tag k="name" v="Flessan" />
		<tag k="place" v="locality" />
		<tag k="ssr:stedsnr" v="940918" />
	</node>
	<node id="-820843" lat="63.3595027757" lon="9.02009166529">
		<tag k="name" v="Storhaugmyra" />
		<tag k="natural" v="wetland" />
		<tag k="ssr:stedsnr" v="29860" />
	</node>
	<node id="-820840" lat="63.3015888853" lon="9.24814165726">
		<tag k="name" v="Råslættet" />
		<tag k="place" v="locality" />
		<tag k="ssr:stedsnr" v="150877" />
	</node>
	<node id="-820839" lat="63.195452779" lon="8.97096111458">
		<tag k="name" v="Tjuvholet" />
		<tag k="natural" v="wetland" />
		<tag k="ssr:stedsnr" v="940906" />
	</node>
	<node id="-820835" lat="63.3737333339" lon="8.97805277962">
		<tag k="name" v="Espet" />
		<tag k="place" v="locality" />
		<tag k="ssr:stedsnr" v="90672" />
	</node>
	<node id="-820831" lat="63.1567527787" lon="9.04594999925">
		<tag k="name" v="Storhaugmyran" />
		<tag k="natural" v="wetland" />
		<tag k="ssr:stedsnr" v="211369" />
	</node>
	<node id="-822874" lat="63.4419555591" lon="9.04325554732">
		<tag k="name" v="Svemyra" />
		<tag k="natural" v="wetland" />
		<tag k="ssr:stedsnr" v="29579" />
	</node>
	<node id="-822873" lat="63.3882916664" lon="8.93653888057">
		<tag k="name" v="Tømmerholet" />
		<tag k="place" v="locality" />
		<tag k="ssr:stedsnr" v="150595" />
	</node>
	<node id="-820824" lat="63.3317833317" lon="9.05938888563">
		<tag k="name" v="Seterstoan" />
		<tag k="place" v="locality" />
		<tag k="ssr:stedsnr" v="576949" />
	</node>
	<node id="-822867" lat="63.3117361104" lon="9.13132221799">
		<tag k="name" v="Pilan" />
		<tag k="place" v="locality" />
		<tag k="ssr:stedsnr" v="514984" />
	</node>
	<node id="-822862" lat="63.2451861074" lon="9.11278888477">
		<tag k="name" v="Anderslættet" />
		<tag k="place" v="locality" />
		<tag k="ssr:stedsnr" v="757188" />
	</node>
	<node id="-822861" lat="63.3542694401" lon="9.02422223137">
		<tag k="name" v="Røstdalan" />
		<tag k="place" v="locality" />
		<tag k="ssr:stedsnr" v="939758" />
	</node>
	<node id="-822857" lat="63.2069277807" lon="9.03763054897">
		<tag k="name" v="Gammelsetermyra" />
		<tag k="natural" v="wetland" />
		<tag k="ssr:stedsnr" v="696334" />
	</node>
	<node id="-822849" lat="63.3709972242" lon="9.15384443879">
		<tag k="name" v="Flatmyra" />
		<tag k="natural" v="wetland" />
		<tag k="ssr:stedsnr" v="333808" />
	</node>
	<node id="-823904" lat="63.1722055554" lon="8.86209999974">
		<tag k="name" v="Setermyra" />
		<tag k="natural" v="wetland" />
		<tag k="ssr:stedsnr" v="940855" />
	</node>
	<node id="-822837" lat="63.1605166701" lon="8.86226667323">
		<tag k="historic" v="shieling" />
		<tag k="name" v="Seterøyan" />
		<tag k="place" v="locality" />
		<tag k="ssr:stedsnr" v="150578" />
	</node>
	<node id="-822835" lat="63.1555249985" lon="8.86284166944">
		<tag k="historic" v="shieling" />
		<tag k="name" v="Gammelsetra" />
		<tag k="place" v="locality" />
		<tag k="ssr:stedsnr" v="940564" />
	</node>
	<node id="-822833" lat="63.2413666709" lon="8.96806666123">
		<tag k="name" v="Lenesmyra" />
		<tag k="natural" v="wetland" />
		<tag k="ssr:stedsnr" v="757156" />
	</node>
	<node id="-822832" lat="63.4165027761" lon="8.94911944656">
		<tag k="name" v="Hesthagan" />
		<tag k="place" v="locality" />
		<tag k="ssr:stedsnr" v="150582" />
	</node>
	<node id="-822827" lat="63.1818444465" lon="9.00263888209">
		<tag k="name" v="Øvermyran" />
		<tag k="natural" v="wetland" />
		<tag k="ssr:stedsnr" v="333786" />
	</node>
	<node id="-822819" lat="63.296275002" lon="9.03699444458">
		<tag k="name" v="Storsteinholten" />
		<tag k="place" v="locality" />
		<tag k="ssr:stedsnr" v="211061" />
	</node>
	<node id="-822807" lat="63.1788805511" lon="8.95817776976">
		<tag k="name" v="Litlslættet" />
		<tag k="natural" v="wetland" />
		<tag k="ssr:stedsnr" v="333794" />
	</node>
	<node id="-821165" lat="63.1527999971" lon="9.09116111812">
		<tag k="name" v="Kårlimyran" />
		<tag k="natural" v="wetland" />
		<tag k="ssr:stedsnr" v="211452" />
	</node>
	<node id="-822796" lat="63.3333916711" lon="8.91206666781">
		<tag k="name" v="Hundsvassmyrin" />
		<tag k="natural" v="wetland" />
		<tag k="ssr:stedsnr" v="12563" />
	</node>
	<node id="-822789" lat="63.264408331" lon="9.08530278351">
		<tag k="name" v="Litlmyra" />
		<tag k="natural" v="wetland" />
		<tag k="ssr:stedsnr" v="514118" />
	</node>
	<node id="-822785" lat="63.3757611116" lon="9.1477638962">
		<tag k="name" v="Sjøvoll" />
		<tag k="place" v="locality" />
		<tag k="ssr:stedsnr" v="272656" />
	</node>
	<node id="-822784" lat="63.2459749956" lon="9.07410555109">
		<tag k="name" v="Gammelsetermyra" />
		<tag k="natural" v="wetland" />
		<tag k="ssr:stedsnr" v="757167" />
	</node>
	<node id="-823892" lat="63.3359972216" lon="9.07531389146">
		<tag k="name" v="Rasmustrøa" />
		<tag k="place" v="locality" />
		<tag k="ssr:stedsnr" v="272923" />
	</node>
	<node id="-822765" lat="63.1832444473" lon="8.91770833938">
		<tag k="historic" v="shieling" />
		<tag k="name" v="Gammelsetra" />
		<tag k="place" v="locality" />
		<tag k="ssr:stedsnr" v="575800" />
	</node>
	<node id="-822764" lat="63.1613333339" lon="9.05043333493">
		<tag k="name" v="Rørbekkmyra" />
		<tag k="natural" v="wetland" />
		<tag k="ssr:stedsnr" v="90351" />
	</node>
	<node id="-822763" lat="63.2273388895" lon="9.00688611277">
		<tag k="historic" v="shieling" />
		<tag k="name" v="Hattsetra" />
		<tag k="place" v="locality" />
		<tag k="ssr:stedsnr" v="818705" />
	</node>
	<node id="-822761" lat="63.2009833334" lon="9.11200833773">
		<tag k="historic" v="shieling" />
		<tag k="name" v="Gammelsetra" />
		<tag k="place" v="locality" />
		<tag k="ssr:stedsnr" v="696313" />
	</node>
	<node id="-822756" lat="63.187397221" lon="9.00468333596">
		<tag k="name" v="Gammelseter-skogan" />
		<tag k="place" v="locality" />
		<tag k="ssr:stedsnr" v="333782" />
	</node>
	<node id="-822754" lat="63.4079916692" lon="9.07262778268">
		<tag k="name" v="Stengdamsøyan" />
		<tag k="place" v="locality" />
		<tag k="ssr:stedsnr" v="635647" />
	</node>
	<node id="-822752" lat="63.3062833348" lon="9.04658611206">
		<tag k="name" v="Klostermyra" />
		<tag k="natural" v="wetland" />
		<tag k="ssr:stedsnr" v="376606" />
	</node>
	<node id="-822743" lat="63.337833331" lon="9.00579445434">
		<tag k="name" v="Aunan" />
		<tag k="place" v="locality" />
		<tag k="ssr:stedsnr" v="515837" />
	</node>
	<node id="-822739" lat="63.1772749995" lon="9.00919444992">
		<tag k="name" v="Slåttan" />
		<tag k="place" v="locality" />
		<tag k="ssr:stedsnr" v="757969" />
	</node>
	<node id="-820813" lat="63.1406083331" lon="9.10740556158">
		<tag k="name" v="Langhaugmyra" />
		<tag k="natural" v="wetland" />
		<tag k="ssr:stedsnr" v="332387" />
	</node>
	<node id="-822724" lat="63.2265805519" lon="9.05565834049">
		<tag k="name" v="Seterdalsmyra" />
		<tag k="natural" v="wetland" />
		<tag k="ssr:stedsnr" v="393739" />
	</node>
	<node id="-822722" lat="63.2248500042" lon="9.24707221961">
		<tag k="name" v="Kleiva" />
		<tag k="place" v="locality" />
		<tag k="ssr:stedsnr" v="454253" />
	</node>
	<node id="-822720" lat="63.1802972212" lon="9.0178194402">
		<tag k="name" v="Vadbuvollen" />
		<tag k="place" v="locality" />
		<tag k="ssr:stedsnr" v="757965" />
	</node>
	<node id="-822717" lat="63.2906277766" lon="9.24450276933">
		<tag k="name" v="Aunslættet" />
		<tag k="place" v="locality" />
		<tag k="ssr:stedsnr" v="514941" />
	</node>
	<node id="-822707" lat="63.3479027739" lon="9.07853611423">
		<tag k="name" v="Bærmyra" />
		<tag k="natural" v="wetland" />
		<tag k="ssr:stedsnr" v="393751" />
	</node>
	<node id="-822692" lat="63.1612527745" lon="8.93215277338">
		<tag k="name" v="Storøya" />
		<tag k="natural" v="wetland" />
		<tag k="ssr:stedsnr" v="697966" />
	</node>
	<node id="-822690" lat="63.3413250008" lon="9.12391387943">
		<tag k="name" v="Slåttamyran" />
		<tag k="natural" v="wetland" />
		<tag k="ssr:stedsnr" v="575790" />
	</node>
	<node id="-822686" lat="63.4131611144" lon="9.0933222266">
		<tag k="name" v="Kråkvollen" />
		<tag k="place" v="locality" />
		<tag k="ssr:stedsnr" v="939699" />
	</node>
	<node id="-822678" lat="63.3364361099" lon="9.01411944659">
		<tag k="name" v="Knøksmyran" />
		<tag k="natural" v="wetland" />
		<tag k="ssr:stedsnr" v="12546" />
	</node>
	<node id="-822675" lat="63.424111111" lon="9.08124999795">
		<tag k="name" v="Kringla" />
		<tag k="place" v="locality" />
		<tag k="ssr:stedsnr" v="879657" />
	</node>
	<node id="-821144" lat="63.2116722223" lon="9.06984999414">
		<tag k="name" v="Lastrommet" />
		<tag k="place" v="locality" />
		<tag k="ssr:stedsnr" v="575318" />
	</node>
	<node id="-822664" lat="63.233027782" lon="9.05632500964">
		<tag k="name" v="Postmyra" />
		<tag k="natural" v="wetland" />
		<tag k="ssr:stedsnr" v="150542" />
	</node>
	<node id="-821140" lat="63.2499249988" lon="9.06441944504">
		<tag k="name" v="Tjørrhjellmyra" />
		<tag k="natural" v="wetland" />
		<tag k="ssr:stedsnr" v="272179" />
	</node>
	<node id="-822641" lat="63.2020249966" lon="9.04503055968">
		<tag k="name" v="Tjønnmyran" />
		<tag k="natural" v="wetland" />
		<tag k="ssr:stedsnr" v="90324" />
	</node>
	<node id="-822632" lat="63.2025944453" lon="9.03640833058">
		<tag k="name" v="Skalsbrekka" />
		<tag k="place" v="locality" />
		<tag k="ssr:stedsnr" v="90314" />
	</node>
	<node id="-822631" lat="63.4049833322" lon="9.12750000395">
		<tag k="historic" v="shieling" />
		<tag k="name" v="Stokkmannsetra" />
		<tag k="place" v="locality" />
		<tag k="ssr:stedsnr" v="879617" />
	</node>
	<node id="-822629" lat="63.372411115" lon="9.00541944615">
		<tag k="historic" v="shieling" />
		<tag k="name" v="Åstadsetra" />
		<tag k="place" v="locality" />
		<tag k="ssr:stedsnr" v="333736" />
	</node>
	<node id="-822622" lat="63.3760777782" lon="9.00931944936">
		<tag k="name" v="Åstadmyran" />
		<tag k="natural" v="wetland" />
		<tag k="ssr:stedsnr" v="333737" />
	</node>
	<node id="-822620" lat="63.212005557" lon="8.98598333933">
		<tag k="name" v="Kjøysan" />
		<tag k="place" v="locality" />
		<tag k="ssr:stedsnr" v="757940" />
	</node>
	<node id="-822610" lat="63.2619083353" lon="9.1573250033">
		<tag k="name" v="Trongan" />
		<tag k="place" v="locality" />
		<tag k="ssr:stedsnr" v="514085" />
	</node>
	<node id="-822608" lat="63.3527222183" lon="9.11578611482">
		<tag k="name" v="Buslættet" />
		<tag k="place" v="locality" />
		<tag k="ssr:stedsnr" v="515794" />
	</node>
	<node id="-822606" lat="63.2681972192" lon="9.06104722091">
		<tag k="name" v="Robergsholtan" />
		<tag k="place" v="locality" />
		<tag k="ssr:stedsnr" v="757103" />
	</node>
	<node id="-822580" lat="63.2940194483" lon="9.23102778215">
		<tag k="name" v="Svartdalsbua" />
		<tag k="place" v="locality" />
		<tag k="ssr:stedsnr" v="757957" />
	</node>
	<node id="-822575" lat="63.3120833309" lon="9.19598333039">
		<tag k="name" v="Aneset" />
		<tag k="place" v="locality" />
		<tag k="ssr:stedsnr" v="332864" />
	</node>
	<node id="-822569" lat="63.4206944433" lon="8.8190166717">
		<tag k="name" v="Brannmyra" />
		<tag k="natural" v="wetland" />
		<tag k="ssr:stedsnr" v="862435" />
	</node>
	<node id="-822567" lat="63.2063444431" lon="9.02675556309">
		<tag k="name" v="Holbekk-krokan" />
		<tag k="natural" v="wetland" />
		<tag k="ssr:stedsnr" v="90302" />
	</node>
	<node id="-822562" lat="63.2108000045" lon="9.10074723047">
		<tag k="name" v="Sisselholet" />
		<tag k="place" v="locality" />
		<tag k="ssr:stedsnr" v="454309" />
	</node>
	<node id="-822550" lat="63.2072916685" lon="9.12215833034">
		<tag k="name" v="Stakkmyran" />
		<tag k="natural" v="wetland" />
		<tag k="ssr:stedsnr" v="90284" />
	</node>
	<node id="-822532" lat="63.4286944431" lon="9.04751666386">
		<tag k="name" v="Slættet" />
		<tag k="place" v="locality" />
		<tag k="ssr:stedsnr" v="635564" />
	</node>
	<node id="-822526" lat="63.3949666709" lon="9.13317500309">
		<tag k="name" v="Ratet" />
		<tag k="place" v="locality" />
		<tag k="ssr:stedsnr" v="272597" />
	</node>
	<node id="-822523" lat="63.4386888908" lon="9.01988055452">
		<tag k="name" v="Løftet" />
		<tag k="place" v="locality" />
		<tag k="ssr:stedsnr" v="879580" />
	</node>
	<node id="-822519" lat="63.300438887" lon="9.20402223032">
		<tag k="name" v="Almurda" />
		<tag k="natural" v="scree" />
		<tag k="ssr:stedsnr" v="332860" />
	</node>
	<node id="-822510" lat="63.2382805592" lon="9.05001943516">
		<tag k="name" v="Gåsøran" />
		<tag k="place" v="locality" />
		<tag k="ssr:stedsnr" v="940491" />
	</node>
	<node id="-822506" lat="63.2954305555" lon="9.08745554962">
		<tag k="name" v="Vessøra" />
		<tag k="place" v="locality" />
		<tag k="ssr:stedsnr" v="255579" />
	</node>
	<node id="-822490" lat="63.3430250028" lon="9.01486666401">
		<tag k="name" v="Knøkskardmyra" />
		<tag k="natural" v="wetland" />
		<tag k="ssr:stedsnr" v="575722" />
	</node>
	<node id="-822476" lat="63.2898611123" lon="9.20443333824">
		<tag k="name" v="Skjennstøa" />
		<tag k="place" v="locality" />
		<tag k="ssr:stedsnr" v="332009" />
	</node>
	<node id="-822469" lat="63.2912777823" lon="9.00746388462">
		<tag k="name" v="Stormyra" />
		<tag k="natural" v="wetland" />
		<tag k="ssr:stedsnr" v="514051" />
	</node>
	<node id="-822461" lat="63.1826194462" lon="8.82082500954">
		<tag k="name" v="Fururanda" />
		<tag k="place" v="locality" />
		<tag k="ssr:stedsnr" v="697900" />
	</node>
	<node id="-822456" lat="63.2606444444" lon="9.16635832901">
		<tag k="landuse" v="meadow" />
		<tag k="name" v="Stalsmoenga" />
		<tag k="ssr:stedsnr" v="757055" />
	</node>
	<node id="-822449" lat="63.4233000008" lon="9.08187777888">
		<tag k="name" v="Tomtmyran" />
		<tag k="natural" v="wetland" />
		<tag k="ssr:stedsnr" v="393661" />
	</node>
	<node id="-822444" lat="63.2943999995" lon="9.22441388098">
		<tag k="name" v="Småslætta" />
		<tag k="place" v="locality" />
		<tag k="ssr:stedsnr" v="697011" />
	</node>
	<node id="-821104" lat="63.3085638847" lon="9.03328056477">
		<tag k="historic" v="shieling" />
		<tag k="name" v="Grøtsetra" />
		<tag k="place" v="locality" />
		<tag k="ssr:stedsnr" v="150944" />
	</node>
	<node id="-822416" lat="63.2448722214" lon="9.13243333819">
		<tag k="name" v="Bekkakroken" />
		<tag k="natural" v="wetland" />
		<tag k="ssr:stedsnr" v="696204" />
	</node>
	<node id="-822407" lat="63.3152472262" lon="9.01949444056">
		<tag k="name" v="Kjekkelmyra" />
		<tag k="natural" v="wetland" />
		<tag k="ssr:stedsnr" v="29438" />
	</node>
	<node id="-822405" lat="63.4257583299" lon="9.0631888825">
		<tag k="name" v="Moan" />
		<tag k="place" v="locality" />
		<tag k="ssr:stedsnr" v="393657" />
	</node>
	<node id="-822404" lat="63.2595000011" lon="9.15913332657">
		<tag k="name" v="Perslættet" />
		<tag k="place" v="locality" />
		<tag k="ssr:stedsnr" v="757061" />
	</node>
	<node id="-822378" lat="63.2977250032" lon="9.18712499704">
		<tag k="name" v="Hyllan" />
		<tag k="place" v="locality" />
		<tag k="ssr:stedsnr" v="757868" />
	</node>
	<node id="-822371" lat="63.373513891" lon="9.15055277652">
		<tag k="name" v="Grønmyra" />
		<tag k="natural" v="wetland" />
		<tag k="ssr:stedsnr" v="515706" />
	</node>
	<node id="-822369" lat="63.3000416697" lon="9.14794999051">
		<tag k="name" v="Brustoltrøa" />
		<tag k="place" v="locality" />
		<tag k="ssr:stedsnr" v="696988" />
	</node>
	<node id="-822368" lat="63.4278444428" lon="9.05938610835">
		<tag k="name" v="Hesthagan" />
		<tag k="place" v="locality" />
		<tag k="ssr:stedsnr" v="272530" />
	</node>
	<node id="-821093" lat="63.2041666708" lon="8.9813305492">
		<tag k="name" v="Ekserplassen" />
		<tag k="place" v="locality" />
		<tag k="ssr:stedsnr" v="940949" />
	</node>
	<node id="-822358" lat="63.2194944449" lon="9.21268610198">
		<tag k="name" v="Øver Rapkleiva" />
		<tag k="place" v="locality" />
		<tag k="ssr:stedsnr" v="90227" />
	</node>
	<node id="-822347" lat="63.2548277746" lon="9.00925278182">
		<tag k="name" v="Småmyran" />
		<tag k="natural" v="wetland" />
		<tag k="ssr:stedsnr" v="454153" />
	</node>
	<node id="-822345" lat="63.2941416707" lon="9.15449722952">
		<tag k="name" v="Gammelsaga" />
		<tag k="place" v="locality" />
		<tag k="ssr:stedsnr" v="757015" />
	</node>
	<node id="-821086" lat="63.2725055523" lon="8.93984166631">
		<tag k="name" v="Blomholet" />
		<tag k="place" v="locality" />
		<tag k="ssr:stedsnr" v="150107" />
	</node>
	<node id="-821427" lat="63.2153944431" lon="9.11154723049">
		<tag k="historic" v="shieling" />
		<tag k="name" v="Nysetervollen" />
		<tag k="place" v="locality" />
		<tag k="ssr:stedsnr" v="818281" />
	</node>
	<node id="-822317" lat="63.1384805555" lon="9.07336944227">
		<tag k="name" v="Anderslimyra" />
		<tag k="natural" v="wetland" />
		<tag k="ssr:stedsnr" v="29416" />
	</node>
	<node id="-822303" lat="63.2289861143" lon="9.07640277808">
		<tag k="historic" v="shieling" />
		<tag k="name" v="Øver Buvollen" />
		<tag k="place" v="locality" />
		<tag k="ssr:stedsnr" v="272524" />
	</node>
	<node id="-822299" lat="63.2311611118" lon="9.08081110674">
		<tag k="historic" v="shieling" />
		<tag k="name" v="Sjursetra" />
		<tag k="place" v="locality" />
		<tag k="ssr:stedsnr" v="272523" />
	</node>
	<node id="-821080" lat="63.2762555581" lon="8.94255556368">
		<tag k="name" v="Setermyran" />
		<tag k="natural" v="wetland" />
		<tag k="ssr:stedsnr" v="150108" />
	</node>
	<node id="-822271" lat="63.2737138904" lon="8.96058055127">
		<tag k="name" v="Storbumyra" />
		<tag k="natural" v="wetland" />
		<tag k="ssr:stedsnr" v="454126" />
	</node>
	<node id="-822269" lat="63.4565888919" lon="9.01615834028">
		<tag k="name" v="Stormyra" />
		<tag k="natural" v="wetland" />
		<tag k="ssr:stedsnr" v="393622" />
	</node>
	<node id="-822264" lat="63.1763361142" lon="8.85903055356">
		<tag k="name" v="Stakkslættmyra" />
		<tag k="natural" v="wetland" />
		<tag k="ssr:stedsnr" v="757831" />
	</node>
	<node id="-822263" lat="63.2896083331" lon="9.15022499255">
		<tag k="name" v="Johanslættet" />
		<tag k="place" v="locality" />
		<tag k="ssr:stedsnr" v="150421" />
	</node>
	<node id="-822261" lat="63.2167138926" lon="9.35318610627">
		<tag k="name" v="Nordgjerdet" />
		<tag k="place" v="locality" />
		<tag k="ssr:stedsnr" v="648682" />
	</node>
	<node id="-822260" lat="63.1821611115" lon="8.85014999263">
		<tag k="name" v="Mehølsmyra" />
		<tag k="natural" v="wetland" />
		<tag k="ssr:stedsnr" v="757827" />
	</node>
	<node id="-822251" lat="63.419002776" lon="9.03570000617">
		<tag k="name" v="Stormyra" />
		<tag k="natural" v="wetland" />
		<tag k="ssr:stedsnr" v="150420" />
	</node>
	<node id="-822246" lat="63.2111000013" lon="9.14812776876">
		<tag k="name" v="Søylislættet" />
		<tag k="place" v="locality" />
		<tag k="ssr:stedsnr" v="636325" />
	</node>
	<node id="-822241" lat="63.3085527742" lon="9.24696110347">
		<tag k="alt_name" v="Gammelsetermyran" />
		<tag k="name" v="Gammelsætermyran" />
		<tag k="natural" v="wetland" />
		<tag k="ssr:stedsnr" v="923213" />
	</node>
	<node id="-822239" lat="63.2089972186" lon="9.14801944291">
		<tag k="name" v="Helvetet" />
		<tag k="place" v="locality" />
		<tag k="ssr:stedsnr" v="636323" />
	</node>
	<node id="-822230" lat="63.16433333" lon="8.93105832622">
		<tag k="name" v="Litløya" />
		<tag k="natural" v="wetland" />
		<tag k="ssr:stedsnr" v="454972" />
	</node>
	<node id="-822227" lat="63.4149444443" lon="9.09880000087">
		<tag k="name" v="Pallan" />
		<tag k="place" v="locality" />
		<tag k="ssr:stedsnr" v="333619" />
	</node>
	<node id="-822222" lat="63.2451999987" lon="9.05923334188">
		<tag k="name" v="Litlhatten" />
		<tag k="place" v="locality" />
		<tag k="ssr:stedsnr" v="272495" />
	</node>
	<node id="-822221" lat="63.4441722226" lon="9.00354721223">
		<tag k="name" v="Gjengstømyran" />
		<tag k="natural" v="wetland" />
		<tag k="ssr:stedsnr" v="393605" />
	</node>
	<node id="-822213" lat="63.2764055557" lon="9.18934444155">
		<tag k="name" v="Rabbmyran" />
		<tag k="natural" v="wetland" />
		<tag k="ssr:stedsnr" v="87744" />
	</node>
	<node id="-822209" lat="63.1408861126" lon="9.11643332741">
		<tag k="name" v="Melslættet" />
		<tag k="place" v="locality" />
		<tag k="ssr:stedsnr" v="150396" />
	</node>
	<node id="-822207" lat="63.3271138932" lon="8.97351944863">
		<tag k="alt_name" v="Tverrdalsmyran" />
		<tag k="name" v="Tverrdalsmyra" />
		<tag k="natural" v="wetland" />
		<tag k="ssr:stedsnr" v="133523" />
	</node>
	<node id="-822206" lat="63.1895138892" lon="8.89055000744">
		<tag k="name" v="Spåmyra" />
		<tag k="natural" v="wetland" />
		<tag k="ssr:stedsnr" v="393582" />
	</node>
	<node id="-822205" lat="63.1711000013" lon="8.94019721427">
		<tag k="historic" v="shieling" />
		<tag k="name" v="Gammel Oppigardssetra" />
		<tag k="place" v="locality" />
		<tag k="ssr:stedsnr" v="697811" />
	</node>
	<node id="-822204" lat="63.3508361141" lon="9.02375554845">
		<tag k="name" v="Fossmyra" />
		<tag k="natural" v="wetland" />
		<tag k="ssr:stedsnr" v="619739" />
	</node>
	<node id="-822198" lat="63.3941194421" lon="8.99868332983">
		<tag k="name" v="Jordbærøya" />
		<tag k="place" v="locality" />
		<tag k="ssr:stedsnr" v="575629" />
	</node>
	<node id="-822197" lat="63.2465361155" lon="9.17467776944">
		<tag k="historic" v="shieling" />
		<tag k="name" v="Hollbuvollen" />
		<tag k="place" v="locality" />
		<tag k="ssr:stedsnr" v="90174" />
	</node>
	<node id="-822193" lat="63.298205556" lon="9.05351111596">
		<tag k="name" v="Brustolen" />
		<tag k="place" v="locality" />
		<tag k="ssr:stedsnr" v="454963" />
	</node>
	<node id="-822184" lat="63.3977277746" lon="9.04283332393">
		<tag k="name" v="Øverslættet" />
		<tag k="place" v="locality" />
		<tag k="ssr:stedsnr" v="515657" />
	</node>
	<node id="-822180" lat="63.1376833337" lon="9.1204972171">
		<tag k="name" v="Skoglimyran" />
		<tag k="natural" v="wetland" />
		<tag k="ssr:stedsnr" v="150392" />
	</node>
	<node id="-822173" lat="63.2032027757" lon="8.86511111389">
		<tag k="name" v="Hagan" />
		<tag k="place" v="locality" />
		<tag k="ssr:stedsnr" v="333585" />
	</node>
	<node id="-822170" lat="63.4193777743" lon="9.09784166917">
		<tag k="name" v="Oldervika" />
		<tag k="place" v="locality" />
		<tag k="ssr:stedsnr" v="575613" />
	</node>
	<node id="-822166" lat="63.1859694457" lon="8.90369721728">
		<tag k="name" v="Tjønnmyran" />
		<tag k="natural" v="wetland" />
		<tag k="ssr:stedsnr" v="697830" />
	</node>
	<node id="-822164" lat="63.2808083954" lon="9.25055794199">
		<tag k="alt_name" v="Furuneset" />
		<tag k="landuse" v="meadow" />
		<tag k="name" v="Furunesslettet" />
		<tag k="ssr:stedsnr" v="316244" />
	</node>
	<node id="-822163" lat="63.2424249996" lon="9.10714167294">
		<tag k="name" v="Skreddarslættet" />
		<tag k="place" v="locality" />
		<tag k="ssr:stedsnr" v="90164" />
	</node>
	<node id="-822162" lat="63.3737027805" lon="9.16375278652">
		<tag k="name" v="Høgmyran" />
		<tag k="natural" v="wetland" />
		<tag k="ssr:stedsnr" v="697824" />
	</node>
	<node id="-822157" lat="63.2694805584" lon="8.93276111363">
		<tag k="name" v="Middagssteinen" />
		<tag k="natural" v="stone" />
		<tag k="ssr:stedsnr" v="757114" />
	</node>
	<node id="-822156" lat="63.2313305597" lon="9.05324166749">
		<tag k="name" v="Føllmyra" />
		<tag k="natural" v="wetland" />
		<tag k="ssr:stedsnr" v="940512" />
	</node>
	<node id="-822155" lat="63.229197226" lon="9.08241388175">
		<tag k="name" v="Grønurda" />
		<tag k="natural" v="scree" />
		<tag k="ssr:stedsnr" v="940513" />
	</node>
	<node id="-822154" lat="63.2664666684" lon="9.17471666151">
		<tag k="name" v="Gråurda" />
		<tag k="natural" v="scree" />
		<tag k="ssr:stedsnr" v="514076" />
	</node>
	<node id="-822144" lat="63.41911944" lon="8.76176111324">
		<tag k="name" v="Eiteråsmyran" />
		<tag k="natural" v="wetland" />
		<tag k="ssr:stedsnr" v="862431" />
	</node>
	<node id="-822138" lat="63.4249361104" lon="9.04729166867">
		<tag k="name" v="Vasshalsen" />
		<tag k="place" v="locality" />
		<tag k="ssr:stedsnr" v="939688" />
	</node>
	<node id="-821054" lat="63.3819805566" lon="9.08182500837">
		<tag k="name" v="Kjølan" />
		<tag k="natural" v="wetland" />
		<tag k="ssr:stedsnr" v="211434" />
	</node>
	<node id="-822129" lat="63.1908027735" lon="8.89923333486">
		<tag k="name" v="Åsmyra" />
		<tag k="natural" v="wetland" />
		<tag k="ssr:stedsnr" v="757795" />
	</node>
	<node id="-822123" lat="63.2144083331" lon="9.03752499475">
		<tag k="name" v="Øybuvollen" />
		<tag k="place" v="locality" />
		<tag k="ssr:stedsnr" v="393553" />
	</node>
	<node id="-822121" lat="63.1767444406" lon="8.9713000064">
		<tag k="name" v="Bjørnahiet" />
		<tag k="place" v="locality" />
		<tag k="ssr:stedsnr" v="697792" />
	</node>
	<node id="-822113" lat="63.2671444482" lon="9.15569167197">
		<tag k="name" v="Øverbuslættet" />
		<tag k="place" v="locality" />
		<tag k="ssr:stedsnr" v="454060" />
	</node>
	<node id="-822101" lat="63.3396583376" lon="9.09578889026">
		<tag k="name" v="Høgda" />
		<tag k="place" v="locality" />
		<tag k="ssr:stedsnr" v="757788" />
	</node>
	<node id="-822100" lat="63.3340861144" lon="9.08970000249">
		<tag k="name" v="Gammelseterøyan" />
		<tag k="place" v="locality" />
		<tag k="ssr:stedsnr" v="757789" />
	</node>
	<node id="-822098" lat="63.225536113" lon="9.04127499023">
		<tag k="name" v="Gravdalsmyra" />
		<tag k="natural" v="wetland" />
		<tag k="ssr:stedsnr" v="333545" />
	</node>
	<node id="-822096" lat="63.2120249976" lon="9.06991666985">
		<tag k="name" v="Lassrommet" />
		<tag k="place" v="locality" />
		<tag k="ssr:stedsnr" v="333546" />
	</node>
	<node id="-822094" lat="63.1437666705" lon="9.09776111394">
		<tag k="name" v="Tjørrhjellmyra" />
		<tag k="natural" v="wetland" />
		<tag k="ssr:stedsnr" v="635412" />
	</node>
	<node id="-822086" lat="63.1608888887" lon="8.85828332971">
		<tag k="historic" v="shieling" />
		<tag k="name" v="Gammelsetra" />
		<tag k="place" v="locality" />
		<tag k="ssr:stedsnr" v="515592" />
	</node>
	<node id="-822084" lat="63.3092111133" lon="9.13964999964">
		<tag k="name" v="Hollakleiva" />
		<tag k="place" v="locality" />
		<tag k="ssr:stedsnr" v="90999" />
	</node>
	<node id="-822082" lat="63.2181972255" lon="8.99440278665">
		<tag k="name" v="Jotjørrhjellen" />
		<tag k="place" v="locality" />
		<tag k="ssr:stedsnr" v="211683" />
	</node>
	<node id="-822079" lat="63.1585194434" lon="9.0836111187">
		<tag k="name" v="Øverlimyran" />
		<tag k="natural" v="wetland" />
		<tag k="ssr:stedsnr" v="818458" />
	</node>
	<node id="-822065" lat="63.19304167" lon="8.92198056284">
		<tag k="name" v="Vollan" />
		<tag k="place" v="locality" />
		<tag k="ssr:stedsnr" v="454911" />
	</node>
	<node id="-821275" lat="63.3034638884" lon="9.01992499299">
		<tag k="name" v="Snøglennurda" />
		<tag k="natural" v="scree" />
		<tag k="ssr:stedsnr" v="29972" />
	</node>
	<node id="-822043" lat="63.3031444437" lon="9.14526110403">
		<tag k="name" v="Brustolen" />
		<tag k="place" v="locality" />
		<tag k="ssr:stedsnr" v="90980" />
	</node>
	<node id="-822041" lat="63.2573777793" lon="8.92394722573">
		<tag k="name" v="Joslættet" />
		<tag k="place" v="locality" />
		<tag k="ssr:stedsnr" v="90113" />
	</node>
	<node id="-822034" lat="63.431483336" lon="9.04823610246">
		<tag k="name" v="Storramnurda" />
		<tag k="natural" v="scree" />
		<tag k="ssr:stedsnr" v="575558" />
	</node>
	<node id="-822031" lat="63.3581250032" lon="8.9649388923">
		<tag k="alt_name" v="Valåsmyra" />
		<tag k="name" v="Valåsmyrin" />
		<tag k="natural" v="wetland" />
		<tag k="ssr:stedsnr" v="619714" />
	</node>
	<node id="-822028" lat="63.1952250031" lon="8.92356945225">
		<tag k="name" v="Sandmyran" />
		<tag k="place" v="locality" />
		<tag k="ssr:stedsnr" v="454894" />
	</node>
	<node id="-822018" lat="63.1877305597" lon="8.84729721547">
		<tag k="name" v="Hofset-øyan" />
		<tag k="place" v="locality" />
		<tag k="ssr:stedsnr" v="575562" />
	</node>
	<node id="-822015" lat="63.2072138914" lon="9.17497221631">
		<tag k="name" v="Litlborstad" />
		<tag k="place" v="locality" />
		<tag k="ssr:stedsnr" v="940320" />
	</node>
	<node id="-822005" lat="63.3093638908" lon="9.14522222715">
		<tag k="name" v="Hollamyran" />
		<tag k="natural" v="wetland" />
		<tag k="ssr:stedsnr" v="90977" />
	</node>
	<node id="-824049" lat="63.1827777749" lon="8.81284444681">
		<tag k="name" v="Svartbergshola" />
		<tag k="place" v="locality" />
		<tag k="ssr:stedsnr" v="150873" />
	</node>
	<node id="-824048" lat="63.202583337" lon="9.30348611034">
		<tag k="name" v="Flakalimyran" />
		<tag k="natural" v="wetland" />
		<tag k="ssr:stedsnr" v="515258" />
	</node>
	<node id="-824047" lat="63.2582611084" lon="9.08644167102">
		<tag k="name" v="Stormyra" />
		<tag k="natural" v="wetland" />
		<tag k="ssr:stedsnr" v="272096" />
	</node>
	<node id="-824046" lat="63.260294445" lon="9.00267221621">
		<tag k="name" v="Lenesholten" />
		<tag k="place" v="locality" />
		<tag k="ssr:stedsnr" v="635093" />
	</node>
	<node id="-821983" lat="63.216255558" lon="9.01778332441">
		<tag k="name" v="Stormyra" />
		<tag k="natural" v="wetland" />
		<tag k="ssr:stedsnr" v="515560" />
	</node>
	<node id="-824029" lat="63.2543750011" lon="8.89534166779">
		<tag k="historic" v="shieling" />
		<tag k="name" v="Tistevollen" />
		<tag k="place" v="locality" />
		<tag k="ssr:stedsnr" v="818128" />
	</node>
	<node id="-821977" lat="63.1542277739" lon="9.08846388931">
		<tag k="name" v="Kasperslættet" />
		<tag k="place" v="locality" />
		<tag k="ssr:stedsnr" v="939466" />
	</node>
	<node id="-824019" lat="63.1967666701" lon="9.04114721864">
		<tag k="name" v="Skavdalsmyra" />
		<tag k="natural" v="wetland" />
		<tag k="ssr:stedsnr" v="211358" />
	</node>
	<node id="-821965" lat="63.2783833327" lon="9.1499999917">
		<tag k="name" v="Skograndslætta" />
		<tag k="place" v="locality" />
		<tag k="ssr:stedsnr" v="696035" />
	</node>
	<node id="-821026" lat="63.2420138868" lon="8.96341943795">
		<tag k="name" v="Bjørkaholtan" />
		<tag k="place" v="locality" />
		<tag k="ssr:stedsnr" v="635150" />
	</node>
	<node id="-824008" lat="63.3020222193" lon="9.18623332674">
		<tag k="name" v="Kalvtrøa" />
		<tag k="place" v="locality" />
		<tag k="ssr:stedsnr" v="150855" />
	</node>
	<node id="-824003" lat="63.1406888929" lon="9.11919167097">
		<tag k="historic" v="shieling" />
		<tag k="name" v="Setra" />
		<tag k="place" v="locality" />
		<tag k="ssr:stedsnr" v="514411" />
	</node>
	<node id="-821953" lat="63.2964083299" lon="9.15082221413">
		<tag k="name" v="Mjølkøya" />
		<tag k="place" v="locality" />
		<tag k="ssr:stedsnr" v="454025" />
	</node>
	<node id="-824000" lat="63.2208944484" lon="9.01575555599">
		<tag k="name" v="Hovdslættet" />
		<tag k="place" v="locality" />
		<tag k="ssr:stedsnr" v="454569" />
	</node>
	<node id="-823996" lat="63.2904027735" lon="9.07196665709">
		<tag k="name" v="Ånesøyan" />
		<tag k="place" v="locality" />
		<tag k="ssr:stedsnr" v="150024" />
	</node>
	<node id="-821946" lat="63.3030805514" lon="9.2019611129">
		<tag k="name" v="Stolan" />
		<tag k="place" v="locality" />
		<tag k="ssr:stedsnr" v="696886" />
	</node>
	<node id="-821939" lat="63.186127779" lon="8.98693888857">
		<tag k="name" v="Spjøturda" />
		<tag k="natural" v="scree" />
		<tag k="ssr:stedsnr" v="90951" />
	</node>
	<node id="-823983" lat="63.1412916708" lon="9.09884444841">
		<tag k="name" v="Kåsmyran" />
		<tag k="natural" v="wetland" />
		<tag k="ssr:stedsnr" v="514423" />
	</node>
	<node id="-821930" lat="63.4005944447" lon="9.07239722066">
		<tag k="name" v="Gaupdalsmyran" />
		<tag k="natural" v="wetland" />
		<tag k="ssr:stedsnr" v="211644" />
	</node>
	<node id="-823973" lat="63.2731805566" lon="9.16618610568">
		<tag k="name" v="Nerbuslættet" />
		<tag k="place" v="locality" />
		<tag k="ssr:stedsnr" v="272073" />
	</node>
	<node id="-821923" lat="63.4190416643" lon="8.78927500039">
		<tag k="name" v="Dalsmyra" />
		<tag k="natural" v="wetland" />
		<tag k="ssr:stedsnr" v="757735" />
	</node>
	<node id="-823968" lat="63.2476250039" lon="8.9904388882">
		<tag k="name" v="Smedenga" />
		<tag k="place" v="locality" />
		<tag k="ssr:stedsnr" v="333193" />
	</node>
	<node id="-821918" lat="63.2874555513" lon="9.07076945132">
		<tag k="name" v="Åneset" />
		<tag k="place" v="locality" />
		<tag k="ssr:stedsnr" v="696045" />
	</node>
	<node id="-821914" lat="63.1807166678" lon="9.01234722104">
		<tag k="name" v="Storglenna" />
		<tag k="place" v="locality" />
		<tag k="ssr:stedsnr" v="90945" />
	</node>
	<node id="-821913" lat="63.1462666694" lon="9.07359167052">
		<tag k="name" v="Sjølgjetslan" />
		<tag k="natural" v="wetland" />
		<tag k="ssr:stedsnr" v="879399" />
	</node>
	<node id="-823954" lat="63.3079499977" lon="9.21441945158">
		<tag k="name" v="Kambuøyan" />
		<tag k="place" v="locality" />
		<tag k="ssr:stedsnr" v="635885" />
	</node>
	<node id="-821361" lat="63.3160305521" lon="9.18994166436">
		<tag k="name" v="Klumpmyra" />
		<tag k="natural" v="wetland" />
		<tag k="ssr:stedsnr" v="879877" />
	</node>
	<node id="-821897" lat="63.2902333358" lon="9.17492222361">
		<tag k="name" v="Flyddmyran" />
		<tag k="natural" v="wetland" />
		<tag k="ssr:stedsnr" v="696007" />
	</node>
	<node id="-821891" lat="63.2540861076" lon="8.97283055435">
		<tag k="name" v="Langlimyra" />
		<tag k="natural" v="wetland" />
		<tag k="ssr:stedsnr" v="863884" />
	</node>
	<node id="-821889" lat="63.1550694474" lon="9.0689361129">
		<tag k="name" v="Bruøyan" />
		<tag k="place" v="locality" />
		<tag k="ssr:stedsnr" v="879366" />
	</node>
	<node id="-823933" lat="63.2810194453" lon="9.10022777616">
		<tag k="name" v="Gammelbuslættet" />
		<tag k="place" v="locality" />
		<tag k="ssr:stedsnr" v="879056" />
	</node>
	<node id="-823917" lat="63.2459555566" lon="9.11879444953">
		<tag k="name" v="Stormyrholten" />
		<tag k="place" v="locality" />
		<tag k="ssr:stedsnr" v="575193" />
	</node>
	<node id="-821865" lat="63.2179694449" lon="9.1037722231">
		<tag k="name" v="Standarrommet" />
		<tag k="place" v="locality" />
		<tag k="ssr:stedsnr" v="150283" />
	</node>
	<node id="-821856" lat="63.2548944413" lon="9.16530555207">
		<tag k="name" v="Hollbumyran" />
		<tag k="natural" v="wetland" />
		<tag k="ssr:stedsnr" v="633740" />
	</node>
	<node id="-821854" lat="63.2824083375" lon="9.25632500584">
		<tag k="name" v="Bjørnaliholet" />
		<tag k="natural" v="wetland" />
		<tag k="ssr:stedsnr" v="90936" />
	</node>
	<node id="-821852" lat="63.1834944436" lon="9.02125555975">
		<tag k="historic" v="shieling" />
		<tag k="name" v="Kudikvollen" />
		<tag k="place" v="locality" />
		<tag k="ssr:stedsnr" v="879362" />
	</node>
	<node id="-821844" lat="63.3068694474" lon="8.96048056279">
		<tag k="name" v="Timannslættet" />
		<tag k="place" v="locality" />
		<tag k="ssr:stedsnr" v="90925" />
	</node>
	<node id="-821839" lat="63.2948388904" lon="9.00018888724">
		<tag k="name" v="Sersjantslættet" />
		<tag k="place" v="locality" />
		<tag k="ssr:stedsnr" v="393462" />
	</node>
	<node id="-821821" lat="63.2054333315" lon="9.32762778172">
		<tag k="name" v="Øyan" />
		<tag k="place" v="locality" />
		<tag k="ssr:stedsnr" v="940272" />
	</node>
	<node id="-823867" lat="63.3474166657" lon="9.01330278681">
		<tag k="name" v="Grønmyra" />
		<tag k="natural" v="wetland" />
		<tag k="ssr:stedsnr" v="12707" />
	</node>
	<node id="-821817" lat="63.185902778" lon="9.04233332899">
		<tag k="name" v="Bærmyra" />
		<tag k="natural" v="wetland" />
		<tag k="ssr:stedsnr" v="879371" />
	</node>
	<node id="-823864" lat="63.3037777756" lon="8.96097221441">
		<tag k="name" v="Kariholet" />
		<tag k="place" v="locality" />
		<tag k="ssr:stedsnr" v="272932" />
	</node>
	<node id="-821342" lat="63.2387749983" lon="8.95935833508">
		<tag k="historic" v="shieling" />
		<tag k="name" v="Nysetra" />
		<tag k="place" v="locality" />
		<tag k="ssr:stedsnr" v="150161" />
	</node>
	<node id="-823854" lat="63.271091663" lon="9.08734444545">
		<tag k="name" v="Rognlibruna" />
		<tag k="place" v="locality" />
		<tag k="ssr:stedsnr" v="635075" />
	</node>
	<node id="-821802" lat="63.3377638874" lon="8.99071110303">
		<tag k="name" v="Lonkrona" />
		<tag k="place" v="locality" />
		<tag k="ssr:stedsnr" v="454845" />
	</node>
	<node id="-821799" lat="63.3759416704" lon="9.15298610634">
		<tag k="name" v="Oddstranda" />
		<tag k="place" v="locality" />
		<tag k="ssr:stedsnr" v="454824" />
	</node>
	<node id="-823844" lat="63.2987194408" lon="8.98019999605">
		<tag k="alt_name" v="Skjerliurdin" />
		<tag k="name" v="Skjerliura" />
		<tag k="natural" v="scree" />
		<tag k="ssr:stedsnr" v="939954" />
	</node>
	<node id="-821795" lat="63.2858611105" lon="9.11347222163">
		<tag k="name" v="Kvitsvaet" />
		<tag k="place" v="locality" />
		<tag k="ssr:stedsnr" v="90044" />
	</node>
	<node id="-823838" lat="63.1706833326" lon="8.92740556234">
		<tag k="historic" v="shieling" />
		<tag k="name" v="Litlsetra" />
		<tag k="place" v="locality" />
		<tag k="ssr:stedsnr" v="940816" />
	</node>
	<node id="-823830" lat="63.2102055582" lon="9.09534999435">
		<tag k="name" v="Sjølgjetsla" />
		<tag k="place" v="locality" />
		<tag k="ssr:stedsnr" v="211314" />
	</node>
	<node id="-821780" lat="63.1383027804" lon="9.08502499384">
		<tag k="name" v="Merkbergøya" />
		<tag k="place" v="locality" />
		<tag k="ssr:stedsnr" v="939415" />
	</node>
	<node id="-821777" lat="63.2201499975" lon="9.22048610182">
		<tag k="name" v="Kjerringøya" />
		<tag k="place" v="locality" />
		<tag k="ssr:stedsnr" v="150256" />
	</node>
	<node id="-823820" lat="63.2862000032" lon="8.99513332716">
		<tag k="name" v="Strandslættet" />
		<tag k="place" v="locality" />
		<tag k="ssr:stedsnr" v="272052" />
	</node>
	<node id="-823818" lat="63.4135361131" lon="8.78793888328">
		<tag k="name" v="Vasslimyra" />
		<tag k="natural" v="wetland" />
		<tag k="ssr:stedsnr" v="636720" />
	</node>
	<node id="-821769" lat="63.1947611077" lon="9.00953055443">
		<tag k="name" v="Tjønnmyra" />
		<tag k="natural" v="wetland" />
		<tag k="ssr:stedsnr" v="90911" />
	</node>
	<node id="-823813" lat="63.2038500038" lon="8.88554444821">
		<tag k="name" v="Storurda" />
		<tag k="natural" v="scree" />
		<tag k="ssr:stedsnr" v="413641" />
	</node>
	<node id="-823812" lat="63.1780249983" lon="8.86336665813">
		<tag k="name" v="Storslættmyra" />
		<tag k="natural" v="wetland" />
		<tag k="ssr:stedsnr" v="879911" />
	</node>
	<node id="-823811" lat="63.1622055514" lon="9.04626388332">
		<tag k="name" v="Rørbekkøyan" />
		<tag k="natural" v="wetland" />
		<tag k="ssr:stedsnr" v="514381" />
	</node>
	<node id="-823807" lat="63.1770472194" lon="8.85560833885">
		<tag k="name" v="Sjøl-gjetsla" />
		<tag k="place" v="locality" />
		<tag k="ssr:stedsnr" v="879910" />
	</node>
	<node id="-821758" lat="63.3308277822" lon="9.20810000258">
		<tag k="name" v="Haugen" />
		<tag k="place" v="locality" />
		<tag k="ssr:stedsnr" v="30912" />
	</node>
	<node id="-823039" lat="63.2416833313" lon="8.98886110454">
		<tag k="name" v="Navarsholet" />
		<tag k="natural" v="wetland" />
		<tag k="ssr:stedsnr" v="697190" />
	</node>
	<node id="-821751" lat="63.4053916706" lon="9.04252222229">
		<tag k="name" v="Åmyran" />
		<tag k="natural" v="wetland" />
		<tag k="ssr:stedsnr" v="740677" />
	</node>
	<node id="-823793" lat="63.2032222205" lon="8.99888055933">
		<tag k="name" v="Ørstad" />
		<tag k="place" v="locality" />
		<tag k="ssr:stedsnr" v="879927" />
	</node>
	<node id="-821744" lat="63.1889166705" lon="9.0259750088">
		<tag k="name" v="Slåa" />
		<tag k="place" v="locality" />
		<tag k="ssr:stedsnr" v="818378" />
	</node>
	<node id="-821740" lat="63.2433555585" lon="9.0975611019">
		<tag k="name" v="Matroslættmyra" />
		<tag k="natural" v="wetland" />
		<tag k="ssr:stedsnr" v="90168" />
	</node>
	<node id="-821330" lat="63.1457361141" lon="8.86026111233">
		<tag k="name" v="Seterøyan" />
		<tag k="natural" v="wetland" />
		<tag k="ssr:stedsnr" v="697550" />
	</node>
	<node id="-821729" lat="63.1739722261" lon="8.91108889205">
		<tag k="name" v="Vasslibotnen" />
		<tag k="place" v="locality" />
		<tag k="ssr:stedsnr" v="697820" />
	</node>
	<node id="-821711" lat="63.2855111138" lon="9.17085556232">
		<tag k="name" v="Seterstolen" />
		<tag k="place" v="locality" />
		<tag k="ssr:stedsnr" v="635438" />
	</node>
	<node id="-821710" lat="63.1821805526" lon="8.98461389182">
		<tag k="name" v="Nermyran" />
		<tag k="natural" v="wetland" />
		<tag k="ssr:stedsnr" v="697783" />
	</node>
	<node id="-821705" lat="63.3311416635" lon="9.06526665997">
		<tag k="historic" v="shieling" />
		<tag k="name" v="Bergsetra" />
		<tag k="place" v="locality" />
		<tag k="ssr:stedsnr" v="454934" />
	</node>
	<node id="-821704" lat="63.4061861131" lon="8.89911112005">
		<tag k="historic" v="shieling" />
		<tag k="name" v="Stølen" />
		<tag k="place" v="locality" />
		<tag k="ssr:stedsnr" v="515626" />
	</node>
	<node id="-821695" lat="63.3773194442" lon="9.10875833686">
		<tag k="name" v="Mortenslættet" />
		<tag k="place" v="locality" />
		<tag k="ssr:stedsnr" v="211702" />
	</node>
	<node id="-821692" lat="63.351408335" lon="9.11446389467">
		<tag k="name" v="Kleivavollen" />
		<tag k="place" v="locality" />
		<tag k="ssr:stedsnr" v="635432" />
	</node>
	<node id="-823736" lat="63.1985027819" lon="9.14282499517">
		<tag k="name" v="Neverøyan" />
		<tag k="natural" v="wetland" />
		<tag k="ssr:stedsnr" v="514345" />
	</node>
	<node id="-821678" lat="63.2140249957" lon="9.09000554936">
		<tag k="name" v="Tømmerholan" />
		<tag k="place" v="locality" />
		<tag k="ssr:stedsnr" v="636272" />
	</node>
	<node id="-823720" lat="63.2848305546" lon="9.15284721415">
		<tag k="name" v="Storligrova" />
		<tag k="place" v="locality" />
		<tag k="ssr:stedsnr" v="635020" />
	</node>
	<node id="-821667" lat="63.2277861154" lon="9.05127221582">
		<tag k="name" v="Stormyra" />
		<tag k="natural" v="wetland" />
		<tag k="ssr:stedsnr" v="212542" />
	</node>
	<node id="-821664" lat="63.211730553" lon="9.00023889661">
		<tag k="name" v="Leitmyra" />
		<tag k="natural" v="wetland" />
		<tag k="ssr:stedsnr" v="333556" />
	</node>
	<node id="-823710" lat="63.196436109" lon="8.90463889467">
		<tag k="name" v="Håkkotrøa" />
		<tag k="place" v="locality" />
		<tag k="ssr:stedsnr" v="272885" />
	</node>
	<node id="-823705" lat="63.1866499989" lon="8.8085111209">
		<tag k="name" v="Seterholet" />
		<tag k="place" v="locality" />
		<tag k="ssr:stedsnr" v="272883" />
	</node>
	<node id="-821657" lat="63.2101722247" lon="9.04348054607">
		<tag k="name" v="Øyan" />
		<tag k="place" v="locality" />
		<tag k="ssr:stedsnr" v="272326" />
	</node>
	<node id="-821652" lat="63.3719333324" lon="9.14438334037">
		<tag k="name" v="Stølmyra" />
		<tag k="natural" v="wetland" />
		<tag k="ssr:stedsnr" v="757680" />
	</node>
	<node id="-821651" lat="63.2246027822" lon="9.26303888727">
		<tag k="name" v="Vasslikjølen" />
		<tag k="natural" v="wetland" />
		<tag k="ssr:stedsnr" v="150249" />
	</node>
	<node id="-823695" lat="63.3147138921" lon="9.22633889537">
		<tag k="name" v="Krokan" />
		<tag k="place" v="locality" />
		<tag k="ssr:stedsnr" v="818909" />
	</node>
	<node id="-823694" lat="63.2565222206" lon="8.98575276841">
		<tag k="name" v="Steinskogen" />
		<tag k="place" v="locality" />
		<tag k="ssr:stedsnr" v="393136" />
	</node>
	<node id="-821635" lat="63.1941888858" lon="9.03609723157">
		<tag k="historic" v="shieling" />
		<tag k="name" v="Brekksetra" />
		<tag k="place" v="locality" />
		<tag k="ssr:stedsnr" v="818346" />
	</node>
	<node id="-823680" lat="63.3084416695" lon="9.21698332622">
		<tag k="name" v="Litlbustolen" />
		<tag k="place" v="locality" />
		<tag k="ssr:stedsnr" v="818912" />
	</node>
	<node id="-821312" lat="63.3633499984" lon="9.14290278127">
		<tag k="name" v="Slåtten" />
		<tag k="place" v="locality" />
		<tag k="ssr:stedsnr" v="454720" />
	</node>
	<node id="-823677" lat="63.3040750032" lon="9.15812778663">
		<tag k="name" v="Skivedstolen" />
		<tag k="place" v="locality" />
		<tag k="ssr:stedsnr" v="879884" />
	</node>
	<node id="-821628" lat="63.1957861116" lon="8.84198054867">
		<tag k="name" v="Oksbåsen" />
		<tag k="place" v="locality" />
		<tag k="ssr:stedsnr" v="211577" />
	</node>
	<node id="-821626" lat="63.3637888844" lon="9.05148610824">
		<tag k="name" v="Småsletturdin" />
		<tag k="natural" v="scree" />
		<tag k="ssr:stedsnr" v="393423" />
	</node>
	<node id="-821624" lat="63.3412749956" lon="9.11319444605">
		<tag k="name" v="Sagmyra" />
		<tag k="natural" v="wetland" />
		<tag k="ssr:stedsnr" v="454802" />
	</node>
	<node id="-823671" lat="63.3338611082" lon="9.0817805533">
		<tag k="name" v="Olamyra" />
		<tag k="natural" v="wetland" />
		<tag k="ssr:stedsnr" v="939941" />
	</node>
	<node id="-823665" lat="63.2077277775" lon="9.07839722587">
		<tag k="name" v="Doverslættmyra" />
		<tag k="natural" v="wetland" />
		<tag k="ssr:stedsnr" v="514334" />
	</node>
	<node id="-823663" lat="63.3180583326" lon="9.01026111759">
		<tag k="name" v="Tåvadslættet" />
		<tag k="place" v="locality" />
		<tag k="ssr:stedsnr" v="393960" />
	</node>
	<node id="-823662" lat="63.1941333355" lon="8.97556110258">
		<tag k="name" v="Nonshaugmyra" />
		<tag k="natural" v="wetland" />
		<tag k="ssr:stedsnr" v="272871" />
	</node>
	<node id="-821613" lat="63.4365111122" lon="9.01685832651">
		<tag k="name" v="Løftmyra" />
		<tag k="natural" v="wetland" />
		<tag k="ssr:stedsnr" v="332610" />
	</node>
	<node id="-821612" lat="63.2276055572" lon="9.29921666812">
		<tag k="name" v="Karislættet" />
		<tag k="place" v="locality" />
		<tag k="ssr:stedsnr" v="150234" />
	</node>
	<node id="-821606" lat="63.2384361135" lon="9.10464165787">
		<tag k="name" v="Svaskarddalsmyra" />
		<tag k="natural" v="wetland" />
		<tag k="ssr:stedsnr" v="29213" />
	</node>
	<node id="-823650" lat="63.3618500044" lon="9.01258333511">
		<tag k="name" v="Kartsjømyra" />
		<tag k="natural" v="wetland" />
		<tag k="ssr:stedsnr" v="635845" />
	</node>
	<node id="-823649" lat="63.1837805512" lon="8.76952499667">
		<tag k="name" v="Sjølgjetsla" />
		<tag k="place" v="locality" />
		<tag k="ssr:stedsnr" v="212981" />
	</node>
	<node id="-821597" lat="63.3214502449" lon="9.22942201136">
		<tag k="name" v="Stormyra" />
		<tag k="natural" v="wetland" />
		<tag k="ssr:stedsnr" v="30888" />
	</node>
	<node id="-823638" lat="63.2641499991" lon="9.15238611813">
		<tag k="name" v="Myrhaugenga" />
		<tag k="place" v="locality" />
		<tag k="ssr:stedsnr" v="818060" />
	</node>
	<node id="-821589" lat="63.3061361119" lon="9.1804249931">
		<tag k="name" v="Øverøyan" />
		<tag k="place" v="locality" />
		<tag k="ssr:stedsnr" v="90875" />
	</node>
	<node id="-823633" lat="63.1822222204" lon="8.79385000769">
		<tag k="name" v="Geitholet" />
		<tag k="place" v="locality" />
		<tag k="ssr:stedsnr" v="272877" />
	</node>
	<node id="-821580" lat="63.1740777756" lon="9.07243612039">
		<tag k="name" v="Seterdalslættet" />
		<tag k="place" v="locality" />
		<tag k="ssr:stedsnr" v="879322" />
	</node>
	<node id="-823614" lat="63.3435500039" lon="9.10640834234">
		<tag k="name" v="Åsmyra" />
		<tag k="natural" v="wetland" />
		<tag k="ssr:stedsnr" v="150762" />
	</node>
	<node id="-823613" lat="63.255377782" lon="9.16617500517">
		<tag k="name" v="Klokkarenga" />
		<tag k="place" v="locality" />
		<tag k="ssr:stedsnr" v="939066" />
	</node>
	<node id="-821553" lat="63.1932638847" lon="8.94387778423">
		<tag k="name" v="Geilhaugmyra" />
		<tag k="natural" v="wetland" />
		<tag k="ssr:stedsnr" v="90871" />
	</node>
	<node id="-821551" lat="63.1373888883" lon="9.08975000392">
		<tag k="name" v="Ragnhildøya" />
		<tag k="place" v="locality" />
		<tag k="ssr:stedsnr" v="393399" />
	</node>
	<node id="-821547" lat="63.3298722185" lon="9.19384722728">
		<tag k="name" v="Stokkvikmyra" />
		<tag k="natural" v="wetland" />
		<tag k="ssr:stedsnr" v="151918" />
	</node>
	<node id="-823594" lat="63.2732277782" lon="8.95163055849">
		<tag k="historic" v="shieling" />
		<tag k="name" v="Blomstadbuvollen" />
		<tag k="place" v="locality" />
		<tag k="ssr:stedsnr" v="635104" />
	</node>
	<node id="-823593" lat="63.1788027747" lon="9.01468888035">
		<tag k="name" v="Erikenga" />
		<tag k="place" v="locality" />
		<tag k="ssr:stedsnr" v="272949" />
	</node>
	<node id="-823590" lat="63.1412333293" lon="9.08789166677">
		<tag k="name" v="Trøhaugmyran" />
		<tag k="natural" v="wetland" />
		<tag k="ssr:stedsnr" v="514421" />
	</node>
	<node id="-821541" lat="63.3946305531" lon="9.13684445136">
		<tag k="name" v="Glenna" />
		<tag k="place" v="locality" />
		<tag k="ssr:stedsnr" v="697614" />
	</node>
	<node id="-823588" lat="63.2442000042" lon="9.11921388644">
		<tag k="name" v="Hopslættet" />
		<tag k="place" v="locality" />
		<tag k="ssr:stedsnr" v="393202" />
	</node>
	<node id="-821539" lat="63.4368833307" lon="9.0367027752">
		<tag k="name" v="Litlramnurda" />
		<tag k="natural" v="scree" />
		<tag k="ssr:stedsnr" v="514610" />
	</node>
	<node id="-823583" lat="63.2668333306" lon="9.05926666254">
		<tag k="name" v="Robergsmyra" />
		<tag k="natural" v="wetland" />
		<tag k="ssr:stedsnr" v="635101" />
	</node>
	<node id="-823578" lat="63.3993055583" lon="8.83586389431">
		<tag k="name" v="Osmarka" />
		<tag k="place" v="locality" />
		<tag k="ssr:stedsnr" v="862658" />
	</node>
	<node id="-823577" lat="63.2195749972" lon="9.07973888237">
		<tag k="name" v="Kviturda" />
		<tag k="natural" v="scree" />
		<tag k="ssr:stedsnr" v="90535" />
	</node>
	<node id="-823575" lat="63.2918416627" lon="9.05033056517">
		<tag k="name" v="Stormyra" />
		<tag k="natural" v="wetland" />
		<tag k="ssr:stedsnr" v="393075" />
	</node>
	<node id="-823572" lat="63.1806249971" lon="8.77476388963">
		<tag k="historic" v="shieling" />
		<tag k="name" v="Gammelsetra" />
		<tag k="place" v="locality" />
		<tag k="ssr:stedsnr" v="575974" />
	</node>
	<node id="-823571" lat="63.2711416665" lon="8.97409445332">
		<tag k="name" v="Mokjølen" />
		<tag k="natural" v="wetland" />
		<tag k="ssr:stedsnr" v="208762" />
	</node>
	<node id="-823569" lat="63.3199305589" lon="9.08005833395">
		<tag k="name" v="Ul-limyran" />
		<tag k="natural" v="wetland" />
		<tag k="ssr:stedsnr" v="454441" />
	</node>
	<node id="-823547" lat="63.1841305566" lon="8.78903055586">
		<tag k="name" v="Seterglenna" />
		<tag k="place" v="locality" />
		<tag k="ssr:stedsnr" v="575978" />
	</node>
	<node id="-821495" lat="63.2065500014" lon="9.00733611326">
		<tag k="name" v="Lubbahaugmyra" />
		<tag k="natural" v="wetland" />
		<tag k="ssr:stedsnr" v="90846" />
	</node>
	<node id="-823539" lat="63.4031305577" lon="8.81507500006">
		<tag k="name" v="Oslimarka" />
		<tag k="place" v="locality" />
		<tag k="ssr:stedsnr" v="879825" />
	</node>
	<node id="-821489" lat="63.1706388866" lon="9.03152500019">
		<tag k="name" v="Blautmyra" />
		<tag k="natural" v="wetland" />
		<tag k="ssr:stedsnr" v="393381" />
	</node>
	<node id="-821485" lat="63.2051111088" lon="9.07407778545">
		<tag k="name" v="Merramyra" />
		<tag k="natural" v="wetland" />
		<tag k="ssr:stedsnr" v="879296" />
	</node>
	<node id="-821629" lat="63.2884499998" lon="9.02543888331">
		<tag k="name" v="Strandamyra" />
		<tag k="natural" v="wetland" />
		<tag k="ssr:stedsnr" v="923608" />
	</node>
	<node id="-820947" lat="63.1846499987" lon="8.82006111655">
		<tag k="name" v="Klova" />
		<tag k="place" v="locality" />
		<tag k="ssr:stedsnr" v="29884" />
	</node>
	<node id="-823520" lat="63.1579249984" lon="8.93907499786">
		<tag k="name" v="Perslættet" />
		<tag k="place" v="locality" />
		<tag k="ssr:stedsnr" v="575960" />
	</node>
	<node id="-821457" lat="63.2047083311" lon="9.32352777425">
		<tag k="name" v="Staurøya" />
		<tag k="place" v="locality" />
		<tag k="ssr:stedsnr" v="576249" />
	</node>
	<node id="-823502" lat="63.4389027767" lon="8.98077777813">
		<tag k="name" v="Ålførtrøa" />
		<tag k="place" v="locality" />
		<tag k="ssr:stedsnr" v="454434" />
	</node>
	<node id="-823498" lat="63.1867666662" lon="9.01174167456">
		<tag k="name" v="Manan" />
		<tag k="place" v="locality" />
		<tag k="ssr:stedsnr" v="333951" />
	</node>
	<node id="-821444" lat="63.1574777795" lon="9.0742388877">
		<tag k="name" v="Asphola" />
		<tag k="place" v="locality" />
		<tag k="ssr:stedsnr" v="393365" />
	</node>
	<node id="-821441" lat="63.4515694486" lon="8.99911110321">
		<tag k="name" v="Kobbsteinan" />
		<tag k="place" v="locality" />
		<tag k="ssr:stedsnr" v="757600" />
	</node>
	<node id="-823485" lat="63.2135527767" lon="9.18477777248">
		<tag k="name" v="Nybuslættet" />
		<tag k="place" v="locality" />
		<tag k="ssr:stedsnr" v="514318" />
	</node>
	<node id="-823483" lat="63.1863416704" lon="9.01856389406">
		<tag k="name" v="Stølen" />
		<tag k="place" v="locality" />
		<tag k="ssr:stedsnr" v="393949" />
	</node>
	<node id="-823481" lat="63.3150722189" lon="9.00601666012">
		<tag k="name" v="Skjeftmyran" />
		<tag k="natural" v="wetland" />
		<tag k="ssr:stedsnr" v="393958" />
	</node>
	<node id="-821430" lat="63.2289027772" lon="8.8686722166">
		<tag k="name" v="Grønurda" />
		<tag k="natural" v="scree" />
		<tag k="ssr:stedsnr" v="330921" />
	</node>
	<node id="-823475" lat="63.2048361125" lon="9.01964166359">
		<tag k="name" v="Stormyra" />
		<tag k="natural" v="wetland" />
		<tag k="ssr:stedsnr" v="558835" />
	</node>
	<node id="-821423" lat="63.2269333378" lon="9.24463056521">
		<tag k="name" v="Hovlekslættet" />
		<tag k="place" v="locality" />
		<tag k="ssr:stedsnr" v="635243" />
	</node>
	<node id="-823470" lat="63.1946972199" lon="9.07718889154">
		<tag k="name" v="Peterslættet" />
		<tag k="place" v="locality" />
		<tag k="ssr:stedsnr" v="514326" />
	</node>
	<node id="-821419" lat="63.1900666672" lon="8.84671944334">
		<tag k="name" v="Skittenråa" />
		<tag k="place" v="locality" />
		<tag k="ssr:stedsnr" v="90827" />
	</node>
	<node id="-821416" lat="63.2104666645" lon="9.06278056324">
		<tag k="name" v="Holbuslættet" />
		<tag k="place" v="locality" />
		<tag k="ssr:stedsnr" v="393352" />
	</node>
	<node id="-821414" lat="63.2883528755" lon="9.24257480638">
		<tag k="alt_name" v="Novbuslættet" />
		<tag k="landuse" v="meadow" />
		<tag k="name" v="Nogbuslettet" />
		<tag k="ssr:stedsnr" v="438207" />
	</node>
	<node id="-823459" lat="63.4137444404" lon="8.87169999348">
		<tag k="name" v="Urdknubben" />
		<tag k="natural" v="scree" />
		<tag k="ssr:stedsnr" v="333987" />
	</node>
	<node id="-821409" lat="63.2086805591" lon="9.05636388762">
		<tag k="name" v="Sagvelta" />
		<tag k="place" v="locality" />
		<tag k="ssr:stedsnr" v="393354" />
	</node>
	<node id="-821408" lat="63.4208388884" lon="8.77814722263">
		<tag k="name" v="Fløosmyra" />
		<tag k="natural" v="wetland" />
		<tag k="ssr:stedsnr" v="454727" />
	</node>
	<node id="-823454" lat="63.1813499976" lon="8.76613611836">
		<tag k="name" v="Rabbmyran" />
		<tag k="natural" v="wetland" />
		<tag k="ssr:stedsnr" v="575985" />
	</node>
	<node id="-823453" lat="63.321797222" lon="9.19708889053">
		<tag k="name" v="Tjønnmyran" />
		<tag k="natural" v="wetland" />
		<tag k="ssr:stedsnr" v="73540" />
	</node>
	<node id="-823450" lat="63.1892055532" lon="8.96737778379">
		<tag k="name" v="Rolimyran" />
		<tag k="natural" v="wetland" />
		<tag k="ssr:stedsnr" v="272845" />
	</node>
	<node id="-823449" lat="63.3430083353" lon="8.89187223067">
		<tag k="name" v="Seterslættet" />
		<tag k="place" v="locality" />
		<tag k="ssr:stedsnr" v="635823" />
	</node>
	<node id="-823321" lat="63.2708527815" lon="9.20164999893">
		<tag k="historic" v="shieling" />
		<tag k="name" v="Smågardssetrin" />
		<tag k="place" v="locality" />
		<tag k="ssr:stedsnr" v="575060" />
	</node>
	<node id="-821614" lat="63.2114500021" lon="9.09280834194">
		<tag k="name" v="Sødalsmyra" />
		<tag k="natural" v="wetland" />
		<tag k="ssr:stedsnr" v="635300" />
	</node>
	<node id="-821391" lat="63.3100277822" lon="9.12902223188">
		<tag k="name" v="Brurasteinen" />
		<tag k="place" v="locality" />
		<tag k="ssr:stedsnr" v="30000" />
	</node>
	<node id="-821382" lat="63.3402388921" lon="9.11249166206">
		<tag k="name" v="Stormyra" />
		<tag k="natural" v="wetland" />
		<tag k="ssr:stedsnr" v="90811" />
	</node>
	<node id="-821366" lat="63.3030083307" lon="9.21836111105">
		<tag k="name" v="Kambustolen" />
		<tag k="place" v="locality" />
		<tag k="ssr:stedsnr" v="818907" />
	</node>
	<node id="-823411" lat="63.3295305584" lon="9.0689666715">
		<tag k="name" v="Setermyran" />
		<tag k="natural" v="wetland" />
		<tag k="ssr:stedsnr" v="393924" />
	</node>
	<node id="-823409" lat="63.2300638902" lon="9.02592222333">
		<tag k="name" v="Høgreitmyra" />
		<tag k="natural" v="wetland" />
		<tag k="ssr:stedsnr" v="90517" />
	</node>
	<node id="-821359" lat="63.2112611141" lon="8.99248888841">
		<tag k="name" v="Rønningen" />
		<tag k="place" v="locality" />
		<tag k="ssr:stedsnr" v="212944" />
	</node>
	<node id="-823400" lat="63.1898944446" lon="8.82111111487">
		<tag k="name" v="Kalvtrøhola" />
		<tag k="place" v="locality" />
		<tag k="ssr:stedsnr" v="393899" />
	</node>
	<node id="-821349" lat="63.4043138872" lon="8.83639444914">
		<tag k="name" v="Tjønnmyrin" />
		<tag k="natural" v="wetland" />
		<tag k="ssr:stedsnr" v="437674" />
	</node>
	<node id="-823394" lat="63.4207388907" lon="9.1141444505">
		<tag k="name" v="Kalvvika" />
		<tag k="place" v="locality" />
		<tag k="ssr:stedsnr" v="29693" />
	</node>
	<node id="-821343" lat="63.377499996" lon="9.00768888444">
		<tag k="name" v="Røstvollmyran" />
		<tag k="natural" v="wetland" />
		<tag k="ssr:stedsnr" v="454715" />
	</node>
	<node id="-823390" lat="63.1855083362" lon="8.79640000933">
		<tag k="name" v="Bjørknesurda" />
		<tag k="natural" v="scree" />
		<tag k="ssr:stedsnr" v="212911" />
	</node>
	<node id="-823378" lat="63.1437472255" lon="9.12967778652">
		<tag k="name" v="Grønveggen" />
		<tag k="place" v="locality" />
		<tag k="ssr:stedsnr" v="454421" />
	</node>
	<node id="-821327" lat="63.3429944451" lon="8.93998610865">
		<tag k="name" v="Lægdamyran" />
		<tag k="natural" v="wetland" />
		<tag k="ssr:stedsnr" v="922509" />
	</node>
	<node id="-821602" lat="63.3074611084" lon="9.24489999326">
		<tag k="name" v="Dalslættet" />
		<tag k="place" v="locality" />
		<tag k="ssr:stedsnr" v="90885" />
	</node>
	<node id="-823370" lat="63.1933916672" lon="9.0169694516">
		<tag k="name" v="Olderøyan" />
		<tag k="place" v="locality" />
		<tag k="ssr:stedsnr" v="393905" />
	</node>
	<node id="-821321" lat="63.4131500035" lon="8.77496110269">
		<tag k="name" v="Brannlimyra" />
		<tag k="natural" v="wetland" />
		<tag k="ssr:stedsnr" v="454722" />
	</node>
	<node id="-821314" lat="63.1435666655" lon="9.0818166613">
		<tag k="name" v="Solmyran" />
		<tag k="natural" v="wetland" />
		<tag k="ssr:stedsnr" v="575379" />
	</node>
	<node id="-821313" lat="63.2215833351" lon="9.2617666669">
		<tag k="name" v="Grønøya" />
		<tag k="place" v="locality" />
		<tag k="ssr:stedsnr" v="818254" />
	</node>
	<node id="-823360" lat="63.1404361134" lon="9.07589999802">
		<tag k="name" v="Lintjønnmyra" />
		<tag k="natural" v="wetland" />
		<tag k="ssr:stedsnr" v="696436" />
	</node>
	<node id="-821300" lat="63.2381694453" lon="8.98674167368">
		<tag k="name" v="Slettmyran" />
		<tag k="natural" v="wetland" />
		<tag k="ssr:stedsnr" v="150160" />
	</node>
	<node id="-821295" lat="63.2898750041" lon="9.15900277188">
		<tag k="name" v="Bjørnalimyran" />
		<tag k="natural" v="wetland" />
		<tag k="ssr:stedsnr" v="741652" />
	</node>
	<node id="-823341" lat="63.3090972218" lon="9.01088888265">
		<tag k="historic" v="shieling" />
		<tag k="name" v="Ringsetra" />
		<tag k="place" v="locality" />
		<tag k="ssr:stedsnr" v="575956" />
	</node>
	<node id="-821255" lat="63.3168611121" lon="9.16152778481">
		<tag k="name" v="Stormyra" />
		<tag k="natural" v="wetland" />
		<tag k="ssr:stedsnr" v="150983" />
	</node>
	<node id="-823324" lat="63.1438333315" lon="9.08661667593">
		<tag k="name" v="Skjelhøylømyran" />
		<tag k="natural" v="wetland" />
		<tag k="ssr:stedsnr" v="454403" />
	</node>
	<node id="-823323" lat="63.2125611112" lon="9.33033889018">
		<tag k="name" v="Floan" />
		<tag k="natural" v="wetland" />
		<tag k="ssr:stedsnr" v="514249" />
	</node>
	<node id="-821935" lat="63.1500499987" lon="9.14043333618">
		<tag k="name" v="Snipmyran" />
		<tag k="natural" v="wetland" />
		<tag k="ssr:stedsnr" v="818446" />
	</node>
	<node id="-823320" lat="63.1724666653" lon="8.87026388488">
		<tag k="name" v="Knebburda" />
		<tag k="natural" v="scree" />
		<tag k="ssr:stedsnr" v="333915" />
	</node>
	<node id="-823319" lat="63.2790388896" lon="9.16571389653">
		<tag k="name" v="Dyrlimyran" />
		<tag k="natural" v="wetland" />
		<tag k="ssr:stedsnr" v="939028" />
	</node>
	<node id="-821268" lat="63.4422444487" lon="8.99537776836">
		<tag k="name" v="Ålførmyran" />
		<tag k="natural" v="wetland" />
		<tag k="ssr:stedsnr" v="757587" />
	</node>
	<node id="-823305" lat="63.3319722202" lon="9.07595555383">
		<tag k="name" v="Seterøyan" />
		<tag k="natural" v="wetland" />
		<tag k="ssr:stedsnr" v="333924" />
	</node>
	<node id="-823303" lat="63.1911944422" lon="9.00389167568">
		<tag k="name" v="Dikmyra" />
		<tag k="natural" v="wetland" />
		<tag k="ssr:stedsnr" v="333923" />
	</node>
	<node id="-822917" lat="63.4238611148" lon="8.7785888975">
		<tag k="name" v="Sagstillingan" />
		<tag k="natural" v="wetland" />
		<tag k="ssr:stedsnr" v="879690" />
	</node>
</osm>
