<?xml version="1.0" encoding="UTF-8"?>
<<<<<<< HEAD
<osm version="0.6" generator="osmapis">
	<node lat="58.144488890786356" lon="8.283186117058499" id="-38994">
		<tag k="loc_name" v="Kvalsholmen lykt" />
		<tag k="name" v="Kvalsholmen" />
		<tag k="old_name" v="Kvalholmen" />
=======
<osm generator="osmapis" version="0.6">
	<node id="-531968" lat="58.2314333372" lon="8.40500834163">
		<tag k="alt_name" v="Saltholmen" />
		<tag k="name" v="Saltholmen lykt" />
		<tag k="ssr:date" v="2019-12-27" />
		<tag k="ssr:gruppe" v="navigasjon" />
		<tag k="ssr:hovedgruppe" v="infrastruktur" />
		<tag k="ssr:stedsnr" v="667282" />
		<tag k="ssr:type" v="fyrlykt" />
	</node>
	<node id="-531915" lat="58.194894448" lon="8.38796110598">
		<tag k="name" v="Reierskjer" />
		<tag k="ssr:date" v="2019-12-27" />
		<tag k="ssr:gruppe" v="navigasjon" />
		<tag k="ssr:hovedgruppe" v="infrastruktur" />
		<tag k="ssr:stedsnr" v="425419" />
		<tag k="ssr:type" v="fyrlykt" />
	</node>
	<node id="-531908" lat="58.13216667" lon="8.25991389684">
		<tag k="name" v="Spaknesskjærane" />
		<tag k="old_name" v="Spagnesskjær" />
		<tag k="ssr:date" v="2019-12-27" />
		<tag k="ssr:gruppe" v="navigasjon" />
		<tag k="ssr:hovedgruppe" v="infrastruktur" />
		<tag k="ssr:stedsnr" v="510004" />
		<tag k="ssr:type" v="fyrlykt" />
	</node>
	<node id="-533914" lat="58.240344448" lon="8.42100554881">
		<tag k="name" v="Humlesund" />
		<tag k="ssr:date" v="2019-12-27" />
		<tag k="ssr:gruppe" v="navigasjon" />
		<tag k="ssr:hovedgruppe" v="infrastruktur" />
		<tag k="ssr:stedsnr" v="850290" />
		<tag k="ssr:type" v="fyrlykt" />
	</node>
	<node id="-533572" lat="58.166336107" lon="8.2601750059">
		<tag k="name" v="Kvanneidlia" />
		<tag k="ssr:date" v="2019-12-27" />
		<tag k="ssr:gruppe" v="veg" />
		<tag k="ssr:hovedgruppe" v="infrastruktur" />
		<tag k="ssr:stedsnr" v="604000" />
		<tag k="ssr:type" v="adressenavn" />
	</node>
	<node id="-533895" lat="58.2006666665" lon="8.34381388273">
		<tag k="name" v="Øvre Stutti" />
		<tag k="ssr:date" v="2019-12-27" />
		<tag k="ssr:gruppe" v="veg" />
		<tag k="ssr:hovedgruppe" v="infrastruktur" />
		<tag k="ssr:stedsnr" v="831897" />
		<tag k="ssr:type" v="adressetilleggsnavn" />
	</node>
	<node id="-533893" lat="58.1340277774" lon="8.25547778103">
		<tag k="alt_name" v="Nattviktangen" />
		<tag k="loc_name" v="Natvigtangen lykt" />
		<tag k="name" v="Natvigtangen" />
		<tag k="ssr:date" v="2019-12-27" />
		<tag k="ssr:gruppe" v="navigasjon" />
		<tag k="ssr:hovedgruppe" v="infrastruktur" />
		<tag k="ssr:stedsnr" v="813003" />
		<tag k="ssr:type" v="fyrlykt" />
	</node>
	<node id="-532312" lat="58.2698472208" lon="8.32714166334">
		<tag k="name" v="Storemyrheia" />
		<tag k="ssr:date" v="2019-12-27" />
		<tag k="ssr:gruppe" v="veg" />
		<tag k="ssr:hovedgruppe" v="infrastruktur" />
		<tag k="ssr:stedsnr" v="903594" />
		<tag k="ssr:type" v="adressenavn" />
	</node>
	<node id="-532310" lat="58.1780749991" lon="8.31598888165">
		<tag k="name" v="Ågerøya" />
		<tag k="old_name" v="Akerøy;Ågerøy" />
		<tag k="ssr:date" v="2019-12-27" />
		<tag k="ssr:gruppe" v="navigasjon" />
		<tag k="ssr:hovedgruppe" v="infrastruktur" />
		<tag k="ssr:stedsnr" v="728579" />
		<tag k="ssr:type" v="fyrlykt" />
	</node>
	<node id="-533049" lat="58.1444888908" lon="8.28318611706">
		<tag k="loc_name" v="Kvalsholmen lykt" />
		<tag k="name" v="Kvalsholmen" />
		<tag k="old_name" v="Kvalholmen" />
		<tag k="ssr:date" v="2019-12-27" />
		<tag k="ssr:gruppe" v="navigasjon" />
		<tag k="ssr:hovedgruppe" v="infrastruktur" />
		<tag k="ssr:stedsnr" v="182532" />
		<tag k="ssr:type" v="fyrlykt" />
	</node>
	<node id="-532299" lat="58.2224803561" lon="8.47034357566">
		<tag k="loc_name" v="Gåsa lykt" />
		<tag k="name" v="Gåsa" />
		<tag k="ssr:date" v="2019-12-27" />
		<tag k="ssr:gruppe" v="navigasjon" />
		<tag k="ssr:hovedgruppe" v="infrastruktur" />
		<tag k="ssr:stedsnr" v="724615" />
		<tag k="ssr:type" v="lanterne" />
	</node>
	<node id="-532261" lat="58.249716668" lon="8.37851388227">
		<tag k="loc_name" v="Lillesand" />
		<tag k="name" v="Lillesand kommune" />
>>>>>>> e1d4bc35ff8a6074a6f2e91616a996b547c36f15
		<tag k="ssr:date" v="2019-12-27" />
		<tag k="ssr:gruppe" v="navigasjon" />
		<tag k="ssr:hovedgruppe" v="infrastruktur" />
		<tag k="ssr:stedsnr" v="182532" />
		<tag k="ssr:type" v="fyrlykt" />
	</node>
<<<<<<< HEAD
	<node lat="58.18060000359835" lon="8.323213895803523" id="-39064">
		<tag k="name" v="Grønninggabet" />
		<tag k="ssr:date" v="2021-06-08" />
		<tag k="ssr:gruppe" v="sjøbunn" />
		<tag k="ssr:hovedgruppe" v="sjø" />
		<tag k="ssr:stedsnr" v="264529" />
		<tag k="ssr:type" v="renneKløftISjø" />
	</node>
	<node lat="58.119822219440465" lon="8.231736107062694" id="-39081">
		<tag k="name" v="Krygledybet" />
		<tag k="ssr:date" v="2021-06-08" />
		<tag k="ssr:gruppe" v="sjøbunn" />
		<tag k="ssr:hovedgruppe" v="sjø" />
		<tag k="ssr:stedsnr" v="203352" />
		<tag k="ssr:type" v="søkkISjø" />
	</node>
	<node lat="58.21246110860176" lon="8.310027772821938" id="-39218">
		<tag k="name" v="Salen" />
		<tag k="ssr:date" v="2019-12-27" />
		<tag k="ssr:gruppe" v="sjøbunn" />
		<tag k="ssr:hovedgruppe" v="sjø" />
		<tag k="ssr:stedsnr" v="325002" />
		<tag k="ssr:type" v="renneKløftISjø" />
	</node>
	<node lat="58.13036666589362" lon="8.25139444944453" id="-39248">
=======
	<node id="-531747" lat="58.1303666659" lon="8.25139444944">
>>>>>>> e1d4bc35ff8a6074a6f2e91616a996b547c36f15
		<tag k="name" v="Sverrvigodden lykt" />
		<tag k="ssr:date" v="2021-06-08" />
		<tag k="ssr:gruppe" v="navigasjon" />
		<tag k="ssr:hovedgruppe" v="infrastruktur" />
		<tag k="ssr:stedsnr" v="328004" />
		<tag k="ssr:type" v="fyrlykt" />
	</node>
<<<<<<< HEAD
	<node lat="58.194885257708755" lon="8.387955140104971" id="-39337">
		<tag k="name" v="Reierskjer" />
		<tag k="ssr:date" v="2021-06-08" />
=======
	<node id="-532191" lat="58.1872666632" lon="8.16408888357">
		<tag k="name" v="Snelldalen" />
		<tag k="ssr:date" v="2019-12-27" />
		<tag k="ssr:gruppe" v="veg" />
		<tag k="ssr:hovedgruppe" v="infrastruktur" />
		<tag k="ssr:stedsnr" v="723704" />
		<tag k="ssr:type" v="adressenavn" />
	</node>
	<node id="-532180" lat="58.1914611133" lon="8.35820278005">
		<tag k="alt_name" v="Brekkestø lykt" />
		<tag k="name" v="Brekkestø" />
		<tag k="ssr:date" v="2019-12-27" />
>>>>>>> e1d4bc35ff8a6074a6f2e91616a996b547c36f15
		<tag k="ssr:gruppe" v="navigasjon" />
		<tag k="ssr:hovedgruppe" v="infrastruktur" />
		<tag k="ssr:stedsnr" v="425419" />
		<tag k="ssr:type" v="fyrlykt" />
	</node>
<<<<<<< HEAD
	<node lat="58.221654848683464" lon="8.425675948953728" id="-39391">
		<tag k="name" v="Homborsundsleia" />
		<tag k="ssr:date" v="2021-06-08" />
		<tag k="ssr:gruppe" v="sjøbunn" />
		<tag k="ssr:hovedgruppe" v="sjø" />
		<tag k="ssr:stedsnr" v="451662" />
		<tag k="ssr:type" v="renneKløftISjø" />
	</node>
	<node lat="58.20204166688832" lon="8.410519452499388" id="-39422">
		<tag k="name" v="Larsholla" />
		<tag k="ssr:date" v="2021-06-08" />
		<tag k="ssr:gruppe" v="sjøbunn" />
		<tag k="ssr:hovedgruppe" v="sjø" />
		<tag k="ssr:stedsnr" v="506727" />
		<tag k="ssr:type" v="søkkISjø" />
	</node>
	<node lat="58.13216667004045" lon="8.259913896836178" id="-39463">
		<tag k="name" v="Spaknesskjærane" />
		<tag k="old_name" v="Spagnesskjær" />
		<tag k="ssr:date" v="2021-06-08" />
=======
	<node id="-533163" lat="58.2403444428" lon="8.42102222371">
		<tag k="name" v="Gåsen" />
		<tag k="ssr:date" v="2019-12-27" />
>>>>>>> e1d4bc35ff8a6074a6f2e91616a996b547c36f15
		<tag k="ssr:gruppe" v="navigasjon" />
		<tag k="ssr:hovedgruppe" v="infrastruktur" />
		<tag k="ssr:stedsnr" v="510004" />
		<tag k="ssr:type" v="fyrlykt" />
	</node>
<<<<<<< HEAD
	<node lat="58.18541666576831" lon="8.327050007085825" id="-39573">
		<tag k="name" v="Burholmrenna" />
		<tag k="ssr:date" v="2021-06-08" />
		<tag k="ssr:gruppe" v="sjøbunn" />
		<tag k="ssr:hovedgruppe" v="sjø" />
		<tag k="ssr:stedsnr" v="567522" />
		<tag k="ssr:type" v="renneKløftISjø" />
	</node>
	<node lat="58.213155554169134" lon="8.392977777991428" id="-39590">
		<tag k="name" v="Danehavnkjeften" />
		<tag k="ssr:date" v="2021-06-08" />
		<tag k="ssr:gruppe" v="sjøbunn" />
		<tag k="ssr:hovedgruppe" v="sjø" />
		<tag k="ssr:stedsnr" v="567715" />
		<tag k="ssr:type" v="renneKløftISjø" />
	</node>
	<node lat="58.16633610696509" lon="8.260175005896672" id="-39606">
		<tag k="name" v="Kvanneidlia" />
=======
	<node id="-532628" lat="58.2083130378" lon="8.37673813888">
		<tag k="name" v="Jerikohavn" />
		<tag k="ssr:date" v="2019-12-27" />
		<tag k="ssr:gruppe" v="veg" />
		<tag k="ssr:hovedgruppe" v="infrastruktur" />
		<tag k="ssr:stedsnr" v="1054644" />
		<tag k="ssr:type" v="adressenavn" />
	</node>
	<node id="-532627" lat="58.2380769648" lon="8.30325314489">
		<tag k="name" v="Skytterheia" />
>>>>>>> e1d4bc35ff8a6074a6f2e91616a996b547c36f15
		<tag k="ssr:date" v="2019-12-27" />
		<tag k="ssr:gruppe" v="veg" />
		<tag k="ssr:hovedgruppe" v="infrastruktur" />
		<tag k="ssr:stedsnr" v="604000" />
		<tag k="ssr:type" v="adressenavn" />
	</node>
<<<<<<< HEAD
	<node lat="58.19146111326694" lon="8.358202780046806" id="-39613">
		<tag k="alt_name" v="Brekkestø lykt" />
		<tag k="name" v="Brekkestø" />
=======
	<node id="-532626" lat="58.1899507187" lon="8.36008643025">
		<tag k="name" v="Klubbholmen varde" />
		<tag k="ssr:date" v="2019-12-27" />
		<tag k="ssr:gruppe" v="navigasjon" />
		<tag k="ssr:hovedgruppe" v="infrastruktur" />
		<tag k="ssr:stedsnr" v="982608" />
		<tag k="ssr:type" v="sjøvarde" />
	</node>
	<node id="-532622" lat="58.199107998" lon="8.40930059037">
		<tag k="name" v="Langbåen varde" />
		<tag k="ssr:date" v="2019-12-27" />
		<tag k="ssr:gruppe" v="navigasjon" />
		<tag k="ssr:hovedgruppe" v="infrastruktur" />
		<tag k="ssr:stedsnr" v="982426" />
		<tag k="ssr:type" v="sjøvarde" />
	</node>
	<node id="-532621" lat="58.1438656556" lon="8.28380677976">
		<tag k="name" v="Store Kvalsholmen varde" />
		<tag k="ssr:date" v="2019-12-27" />
		<tag k="ssr:gruppe" v="navigasjon" />
		<tag k="ssr:hovedgruppe" v="infrastruktur" />
		<tag k="ssr:stedsnr" v="982423" />
		<tag k="ssr:type" v="sjøvarde" />
	</node>
	<node id="-532620" lat="58.1857039569" lon="8.35823974364">
		<tag k="name" v="Nødingen merke" />
>>>>>>> e1d4bc35ff8a6074a6f2e91616a996b547c36f15
		<tag k="ssr:date" v="2019-12-27" />
		<tag k="ssr:gruppe" v="navigasjon" />
		<tag k="ssr:hovedgruppe" v="infrastruktur" />
		<tag k="ssr:stedsnr" v="606407" />
		<tag k="ssr:type" v="fyrlykt" />
	</node>
<<<<<<< HEAD
	<node lat="58.23143333722159" lon="8.405008341630424" id="-39689">
		<tag k="alt_name" v="Saltholmen" />
		<tag k="name" v="Saltholmen lykt" />
		<tag k="ssr:date" v="2019-12-27" />
		<tag k="ssr:gruppe" v="navigasjon" />
		<tag k="ssr:hovedgruppe" v="infrastruktur" />
		<tag k="ssr:stedsnr" v="667282" />
		<tag k="ssr:type" v="fyrlykt" />
	</node>
	<node lat="58.187266663181155" lon="8.164088883573296" id="-39767">
		<tag k="name" v="Snelldalen" />
=======
	<node id="-532619" lat="58.1484240548" lon="8.31301769093">
		<tag k="name" v="Tronderøyholmen varde" />
		<tag k="ssr:date" v="2019-12-27" />
		<tag k="ssr:gruppe" v="navigasjon" />
		<tag k="ssr:hovedgruppe" v="infrastruktur" />
		<tag k="ssr:stedsnr" v="982421" />
		<tag k="ssr:type" v="sjøvarde" />
	</node>
	<node id="-534120" lat="69.6388889725" lon="30.5666644427">
		<tag k="fixme" v="multiple name tags, choose one and add the other to alt_name" />
		<tag k="loc_name:se" v="Norgga gonagasriika" />
		<tag k="loc_name:sma" v="Nöörjen gånkarïjhke" />
		<tag k="loc_name:smj" v="Vuona gånågisrijkka" />
		<tag k="name" v="Noreg;Norge" />
		<tag k="name:en" v="Norway" />
		<tag k="name:no" v="Noreg;Norge" />
		<tag k="ssr:date" v="2020-06-04" />
		<tag k="ssr:gruppe" v="administrativeIndelinger" />
		<tag k="ssr:hovedgruppe" v="offentligAdministrasjon" />
		<tag k="ssr:stedsnr" v="26330" />
		<tag k="ssr:type" v="nasjon" />
	</node>
	<node id="-534117" lat="58.1828047294" lon="8.31696329451">
		<tag k="name" v="Ågerøyveien" />
		<tag k="ssr:date" v="2019-12-27" />
		<tag k="ssr:gruppe" v="veg" />
		<tag k="ssr:hovedgruppe" v="infrastruktur" />
		<tag k="ssr:stedsnr" v="1074265" />
		<tag k="ssr:type" v="adressenavn" />
	</node>
	<node id="-534116" lat="58.2347028106" lon="8.36674581087">
		<tag k="name" v="Slåttholmen" />
		<tag k="ssr:date" v="2019-12-27" />
		<tag k="ssr:gruppe" v="veg" />
		<tag k="ssr:hovedgruppe" v="infrastruktur" />
		<tag k="ssr:stedsnr" v="1074261" />
		<tag k="ssr:type" v="adressenavn" />
	</node>
	<node id="-534115" lat="58.2449213007" lon="8.45063990887">
		<tag k="name" v="Lyngholmen" />
		<tag k="ssr:date" v="2019-12-27" />
		<tag k="ssr:gruppe" v="veg" />
		<tag k="ssr:hovedgruppe" v="infrastruktur" />
		<tag k="ssr:stedsnr" v="1074257" />
		<tag k="ssr:type" v="adressenavn" />
	</node>
	<node id="-534114" lat="58.174130334" lon="8.28478303975">
		<tag k="name" v="Auen Vasiusholmen" />
		<tag k="ssr:date" v="2019-12-27" />
		<tag k="ssr:gruppe" v="veg" />
		<tag k="ssr:hovedgruppe" v="infrastruktur" />
		<tag k="ssr:stedsnr" v="1074256" />
		<tag k="ssr:type" v="adressenavn" />
	</node>
	<node id="-534113" lat="58.2292931464" lon="8.42023250589">
		<tag k="name" v="Store Malmen" />
		<tag k="ssr:date" v="2019-12-27" />
		<tag k="ssr:gruppe" v="veg" />
		<tag k="ssr:hovedgruppe" v="infrastruktur" />
		<tag k="ssr:stedsnr" v="1074254" />
		<tag k="ssr:type" v="adressenavn" />
	</node>
	<node id="-534112" lat="58.2404321237" lon="8.4010594764">
		<tag k="name" v="Tjuvholmen" />
		<tag k="ssr:date" v="2019-12-27" />
		<tag k="ssr:gruppe" v="veg" />
		<tag k="ssr:hovedgruppe" v="infrastruktur" />
		<tag k="ssr:stedsnr" v="1074255" />
		<tag k="ssr:type" v="adressenavn" />
	</node>
	<node id="-534111" lat="58.186543591" lon="8.35562258084">
		<tag k="name" v="Eivindsholmen" />
>>>>>>> e1d4bc35ff8a6074a6f2e91616a996b547c36f15
		<tag k="ssr:date" v="2019-12-27" />
		<tag k="ssr:gruppe" v="veg" />
		<tag k="ssr:hovedgruppe" v="infrastruktur" />
		<tag k="ssr:stedsnr" v="723704" />
		<tag k="ssr:type" v="adressenavn" />
	</node>
<<<<<<< HEAD
	<node lat="58.22248035607368" lon="8.47034357566022" id="-39768">
		<tag k="loc_name" v="Gåsa lykt" />
		<tag k="name" v="Gåsa" />
=======
	<node id="-534110" lat="58.1940034611" lon="8.33898744051">
		<tag k="name" v="Ullerøya" />
>>>>>>> e1d4bc35ff8a6074a6f2e91616a996b547c36f15
		<tag k="ssr:date" v="2019-12-27" />
		<tag k="ssr:gruppe" v="navigasjon" />
		<tag k="ssr:hovedgruppe" v="infrastruktur" />
		<tag k="ssr:stedsnr" v="724615" />
		<tag k="ssr:type" v="lanterne" />
	</node>
<<<<<<< HEAD
	<node lat="58.178074999082426" lon="8.315988881647092" id="-39782">
		<tag k="name" v="Ågerøya" />
		<tag k="old_name" v="Akerøy;Ågerøy" />
=======
	<node id="-534109" lat="58.2337450483" lon="8.38312102703">
		<tag k="name" v="Skauerøya" />
>>>>>>> e1d4bc35ff8a6074a6f2e91616a996b547c36f15
		<tag k="ssr:date" v="2019-12-27" />
		<tag k="ssr:gruppe" v="navigasjon" />
		<tag k="ssr:hovedgruppe" v="infrastruktur" />
		<tag k="ssr:stedsnr" v="728579" />
		<tag k="ssr:type" v="fyrlykt" />
	</node>
<<<<<<< HEAD
	<node lat="58.269847220758926" lon="8.327141663342783" id="-39784">
		<tag k="name" v="Storemyrheia" />
=======
	<node id="-534108" lat="58.191904291" lon="8.3447245756">
		<tag k="name" v="Gaupholmen" />
>>>>>>> e1d4bc35ff8a6074a6f2e91616a996b547c36f15
		<tag k="ssr:date" v="2019-12-27" />
		<tag k="ssr:gruppe" v="veg" />
		<tag k="ssr:hovedgruppe" v="infrastruktur" />
		<tag k="ssr:stedsnr" v="903594" />
		<tag k="ssr:type" v="adressenavn" />
	</node>
<<<<<<< HEAD
	<node lat="58.134027777407084" lon="8.255477781030073" id="-39920">
		<tag k="alt_name" v="Nattviktangen" />
		<tag k="loc_name" v="Natvigtangen lykt" />
		<tag k="name" v="Natvigtangen" />
=======
	<node id="-534107" lat="58.196195508" lon="8.32873983852">
		<tag k="name" v="Hellersøya" />
>>>>>>> e1d4bc35ff8a6074a6f2e91616a996b547c36f15
		<tag k="ssr:date" v="2019-12-27" />
		<tag k="ssr:gruppe" v="navigasjon" />
		<tag k="ssr:hovedgruppe" v="infrastruktur" />
		<tag k="ssr:stedsnr" v="813003" />
		<tag k="ssr:type" v="fyrlykt" />
	</node>
<<<<<<< HEAD
	<node lat="58.20066666645109" lon="8.343813882734178" id="-39921">
		<tag k="name" v="Øvre Stutti" />
		<tag k="ssr:date" v="2021-06-08" />
=======
	<node id="-534106" lat="58.2075696108" lon="8.31406085336">
		<tag k="name" v="Fjelldalsøya" />
		<tag k="ssr:date" v="2019-12-27" />
>>>>>>> e1d4bc35ff8a6074a6f2e91616a996b547c36f15
		<tag k="ssr:gruppe" v="veg" />
		<tag k="ssr:hovedgruppe" v="infrastruktur" />
		<tag k="ssr:stedsnr" v="831897" />
		<tag k="ssr:type" v="adressetilleggsnavn" />
	</node>
<<<<<<< HEAD
	<node lat="58.24034003877847" lon="8.421011684221835" id="-39930">
		<tag k="name" v="Humlesund" />
		<tag k="ssr:date" v="2020-09-03" />
		<tag k="ssr:gruppe" v="navigasjon" />
=======
	<node id="-534105" lat="58.2095908728" lon="8.32253084306">
		<tag k="name" v="Grisøya" />
		<tag k="ssr:date" v="2019-12-27" />
		<tag k="ssr:gruppe" v="veg" />
>>>>>>> e1d4bc35ff8a6074a6f2e91616a996b547c36f15
		<tag k="ssr:hovedgruppe" v="infrastruktur" />
		<tag k="ssr:stedsnr" v="850290" />
		<tag k="ssr:type" v="fyrlykt" />
	</node>
<<<<<<< HEAD
	<node lat="58.12678333700291" lon="8.275586102919661" id="-39956">
		<tag k="name" v="Fladanddypet" />
		<tag k="ssr:date" v="2021-06-08" />
		<tag k="ssr:gruppe" v="sjøbunn" />
		<tag k="ssr:hovedgruppe" v="sjø" />
		<tag k="ssr:stedsnr" v="871312" />
		<tag k="ssr:type" v="søkkISjø" />
	</node>
	<node lat="58.14842405484678" lon="8.313017690928962" id="-40177">
		<tag k="name" v="Tronderøyholmen varde" />
=======
	<node id="-534104" lat="58.2079428772" lon="8.32511479223">
		<tag k="name" v="Haukholmen" />
		<tag k="ssr:date" v="2019-12-27" />
		<tag k="ssr:gruppe" v="veg" />
		<tag k="ssr:hovedgruppe" v="infrastruktur" />
		<tag k="ssr:stedsnr" v="1074244" />
		<tag k="ssr:type" v="adressenavn" />
	</node>
	<node id="-534103" lat="58.2018513991" lon="8.32820780291">
		<tag k="name" v="Kraksøya" />
>>>>>>> e1d4bc35ff8a6074a6f2e91616a996b547c36f15
		<tag k="ssr:date" v="2019-12-27" />
		<tag k="ssr:gruppe" v="navigasjon" />
		<tag k="ssr:hovedgruppe" v="infrastruktur" />
		<tag k="ssr:stedsnr" v="982421" />
		<tag k="ssr:type" v="sjøvarde" />
	</node>
<<<<<<< HEAD
	<node lat="58.1857039568727" lon="8.358239743640086" id="-40178">
		<tag k="name" v="Nødingen merke" />
=======
	<node id="-534102" lat="58.1636444164" lon="8.28091443286">
		<tag k="name" v="Småholmane" />
>>>>>>> e1d4bc35ff8a6074a6f2e91616a996b547c36f15
		<tag k="ssr:date" v="2019-12-27" />
		<tag k="ssr:gruppe" v="navigasjon" />
		<tag k="ssr:hovedgruppe" v="infrastruktur" />
		<tag k="ssr:stedsnr" v="982422" />
		<tag k="ssr:type" v="båke" />
	</node>
<<<<<<< HEAD
	<node lat="58.14386565563845" lon="8.283806779761964" id="-40179">
		<tag k="name" v="Store Kvalsholmen varde" />
=======
	<node id="-534101" lat="58.1962244402" lon="8.3172565149">
		<tag k="name" v="Lille Beltesholmen" />
>>>>>>> e1d4bc35ff8a6074a6f2e91616a996b547c36f15
		<tag k="ssr:date" v="2019-12-27" />
		<tag k="ssr:gruppe" v="navigasjon" />
		<tag k="ssr:hovedgruppe" v="infrastruktur" />
		<tag k="ssr:stedsnr" v="982423" />
		<tag k="ssr:type" v="sjøvarde" />
	</node>
<<<<<<< HEAD
	<node lat="58.19910799799072" lon="8.409300590371563" id="-40180">
		<tag k="name" v="Langbåen varde" />
=======
	<node id="-534100" lat="58.1944472618" lon="8.32086284353">
		<tag k="name" v="Store Belesholmen" />
>>>>>>> e1d4bc35ff8a6074a6f2e91616a996b547c36f15
		<tag k="ssr:date" v="2019-12-27" />
		<tag k="ssr:gruppe" v="navigasjon" />
		<tag k="ssr:hovedgruppe" v="infrastruktur" />
		<tag k="ssr:stedsnr" v="982426" />
		<tag k="ssr:type" v="sjøvarde" />
	</node>
<<<<<<< HEAD
	<node lat="58.189950718679455" lon="8.360086430249734" id="-40186">
		<tag k="name" v="Klubbholmen varde" />
=======
	<node id="-534099" lat="58.1875639609" lon="8.35313805156">
		<tag k="name" v="Vannholmen" />
>>>>>>> e1d4bc35ff8a6074a6f2e91616a996b547c36f15
		<tag k="ssr:date" v="2019-12-27" />
		<tag k="ssr:gruppe" v="navigasjon" />
		<tag k="ssr:hovedgruppe" v="infrastruktur" />
		<tag k="ssr:stedsnr" v="982608" />
		<tag k="ssr:type" v="sjøvarde" />
	</node>
<<<<<<< HEAD
	<node lat="58.23955248273" lon="8.29714368367141" id="-40188">
		<tag k="name" v="Legdene" />
=======
	<node id="-534098" lat="58.1786696009" lon="8.28537202358">
		<tag k="name" v="Lille Krossholmen" />
>>>>>>> e1d4bc35ff8a6074a6f2e91616a996b547c36f15
		<tag k="ssr:date" v="2019-12-27" />
		<tag k="ssr:gruppe" v="veg" />
		<tag k="ssr:hovedgruppe" v="infrastruktur" />
		<tag k="ssr:stedsnr" v="989294" />
		<tag k="ssr:type" v="adressenavn" />
	</node>
<<<<<<< HEAD
	<node lat="58.25912842978467" lon="8.381350859798555" id="-40189">
		<tag k="name" v="Lille Solkollen" />
=======
	<node id="-534097" lat="58.1929310707" lon="8.34878805506">
		<tag k="name" v="Grisholmen" />
>>>>>>> e1d4bc35ff8a6074a6f2e91616a996b547c36f15
		<tag k="ssr:date" v="2019-12-27" />
		<tag k="ssr:gruppe" v="veg" />
		<tag k="ssr:hovedgruppe" v="infrastruktur" />
		<tag k="ssr:stedsnr" v="989295" />
		<tag k="ssr:type" v="adressenavn" />
	</node>
<<<<<<< HEAD
	<node lat="58.25230049282075" lon="8.399837053842205" id="-40190">
		<tag k="name" v="Krågevigodden" />
=======
	<node id="-534096" lat="58.1762700758" lon="8.29808668281">
		<tag k="name" v="Buhusholmen" />
>>>>>>> e1d4bc35ff8a6074a6f2e91616a996b547c36f15
		<tag k="ssr:date" v="2019-12-27" />
		<tag k="ssr:gruppe" v="veg" />
		<tag k="ssr:hovedgruppe" v="infrastruktur" />
		<tag k="ssr:stedsnr" v="989219" />
		<tag k="ssr:type" v="adressenavn" />
	</node>
<<<<<<< HEAD
	<node lat="58.20237344991862" lon="8.27740968144026" id="-40191">
		<tag k="name" v="Ingridsnes" />
=======
	<node id="-534095" lat="58.197476934" lon="8.3333089415">
		<tag k="name" v="Store Kattholmen" />
>>>>>>> e1d4bc35ff8a6074a6f2e91616a996b547c36f15
		<tag k="ssr:date" v="2019-12-27" />
		<tag k="ssr:gruppe" v="veg" />
		<tag k="ssr:hovedgruppe" v="infrastruktur" />
		<tag k="ssr:stedsnr" v="989222" />
		<tag k="ssr:type" v="adressenavn" />
	</node>
<<<<<<< HEAD
	<node lat="58.20134755889203" lon="8.269178696492258" id="-40192">
		<tag k="name" v="Høresteinen" />
=======
	<node id="-534094" lat="58.2437554202" lon="8.39154949142">
		<tag k="name" v="Lille Lamholmen" />
>>>>>>> e1d4bc35ff8a6074a6f2e91616a996b547c36f15
		<tag k="ssr:date" v="2019-12-27" />
		<tag k="ssr:gruppe" v="veg" />
		<tag k="ssr:hovedgruppe" v="infrastruktur" />
		<tag k="ssr:stedsnr" v="989223" />
		<tag k="ssr:type" v="adressenavn" />
	</node>
<<<<<<< HEAD
	<node lat="58.113012809803735" lon="8.211195007687497" id="-40193">
		<tag k="name" v="Ytre Ulvøya" />
=======
	<node id="-534093" lat="58.1808424943" lon="8.29655121496">
		<tag k="name" v="Furøya" />
>>>>>>> e1d4bc35ff8a6074a6f2e91616a996b547c36f15
		<tag k="ssr:date" v="2019-12-27" />
		<tag k="ssr:gruppe" v="veg" />
		<tag k="ssr:hovedgruppe" v="infrastruktur" />
		<tag k="ssr:stedsnr" v="989473" />
		<tag k="ssr:type" v="adressenavn" />
	</node>
<<<<<<< HEAD
	<node lat="58.11477499593541" lon="8.246841665289573" id="-40366">
		<tag k="name" v="Kalledypet" />
=======
	<node id="-534092" lat="58.2008672366" lon="8.3120633213">
		<tag k="name" v="Jonsøya" />
>>>>>>> e1d4bc35ff8a6074a6f2e91616a996b547c36f15
		<tag k="ssr:date" v="2019-12-27" />
		<tag k="ssr:gruppe" v="sjøbunn" />
		<tag k="ssr:hovedgruppe" v="sjø" />
		<tag k="ssr:stedsnr" v="82557" />
		<tag k="ssr:type" v="søkkISjø" />
	</node>
<<<<<<< HEAD
	<node lat="58.13907777747192" lon="8.27245277811006" id="-40455">
		<tag k="name" v="Mågholmgabet" />
		<tag k="ssr:date" v="2021-06-08" />
		<tag k="ssr:gruppe" v="sjøbunn" />
		<tag k="ssr:hovedgruppe" v="sjø" />
		<tag k="ssr:stedsnr" v="142583" />
		<tag k="ssr:type" v="renneKløftISjø" />
	</node>
	<node lat="58.14308333692958" lon="8.291852777409286" id="-40456">
		<tag k="name" v="Kvalsholmdybet" />
		<tag k="ssr:date" v="2021-06-08" />
		<tag k="ssr:gruppe" v="sjøbunn" />
		<tag k="ssr:hovedgruppe" v="sjø" />
		<tag k="ssr:stedsnr" v="142590" />
		<tag k="ssr:type" v="havdyp" />
	</node>
	<node lat="58.24034444276412" lon="8.42102222371031" id="-40580">
		<tag k="name" v="Gåsen" />
=======
	<node id="-534091" lat="58.2610731959" lon="8.37492603618">
		<tag k="name" v="Bjørkestølveien" />
		<tag k="ssr:date" v="2019-12-27" />
		<tag k="ssr:gruppe" v="veg" />
		<tag k="ssr:hovedgruppe" v="infrastruktur" />
		<tag k="ssr:stedsnr" v="1074229" />
		<tag k="ssr:type" v="adressenavn" />
	</node>
	<node id="-534090" lat="58.1843050175" lon="8.31219623222">
		<tag k="name" v="Furøysundveien" />
		<tag k="ssr:date" v="2019-12-27" />
		<tag k="ssr:gruppe" v="veg" />
		<tag k="ssr:hovedgruppe" v="infrastruktur" />
		<tag k="ssr:stedsnr" v="1074230" />
		<tag k="ssr:type" v="adressenavn" />
	</node>
	<node id="-534089" lat="58.2204116438" lon="8.38411837045">
		<tag k="name" v="Ronnsholmen" />
>>>>>>> e1d4bc35ff8a6074a6f2e91616a996b547c36f15
		<tag k="ssr:date" v="2019-12-27" />
		<tag k="ssr:gruppe" v="navigasjon" />
		<tag k="ssr:hovedgruppe" v="infrastruktur" />
		<tag k="ssr:stedsnr" v="206015" />
		<tag k="ssr:type" v="fyrlykt" />
	</node>
<<<<<<< HEAD
	<node lat="58.114483333233764" lon="8.221786118393547" id="-40598">
		<tag k="name" v="Ertholmdybet" />
		<tag k="ssr:date" v="2021-06-08" />
		<tag k="ssr:gruppe" v="sjøbunn" />
		<tag k="ssr:hovedgruppe" v="sjø" />
		<tag k="ssr:stedsnr" v="324340" />
		<tag k="ssr:type" v="renneKløftISjø" />
	</node>
	<node lat="58.182786110987614" lon="8.32733055850937" id="-40721">
		<tag k="name" v="Garpholmgabet" />
		<tag k="ssr:date" v="2021-06-08" />
		<tag k="ssr:gruppe" v="sjøbunn" />
		<tag k="ssr:hovedgruppe" v="sjø" />
		<tag k="ssr:stedsnr" v="385536" />
		<tag k="ssr:type" v="renneKløftISjø" />
	</node>
	<node lat="58.18839166236441" lon="8.32740832814044" id="-40828">
		<tag k="name" v="Hummerparken" />
		<tag k="ssr:date" v="2021-06-08" />
		<tag k="ssr:gruppe" v="sjøbunn" />
		<tag k="ssr:hovedgruppe" v="sjø" />
		<tag k="ssr:stedsnr" v="446560" />
		<tag k="ssr:type" v="bakkeISjø" />
	</node>
	<node lat="58.11347499728934" lon="8.25745832736391" id="-40991">
		<tag k="name" v="Lyngskåra" />
		<tag k="ssr:date" v="2021-06-08" />
		<tag k="ssr:gruppe" v="sjøbunn" />
		<tag k="ssr:hovedgruppe" v="sjø" />
		<tag k="ssr:stedsnr" v="567347" />
		<tag k="ssr:type" v="søkkISjø" />
	</node>
	<node lat="58.16490277826069" lon="8.272736109875519" id="-41079">
		<tag k="name" v="Prestepina" />
		<tag k="ssr:date" v="2021-06-08" />
		<tag k="ssr:gruppe" v="sjøbunn" />
		<tag k="ssr:hovedgruppe" v="sjø" />
		<tag k="ssr:stedsnr" v="628174" />
		<tag k="ssr:type" v="renneKløftISjø" />
	</node>
	<node lat="58.249716667955525" lon="8.37851388227306" id="-41107">
		<tag k="loc_name" v="Lillesand" />
		<tag k="name" v="Lillesand kommune" />
=======
	<node id="-534088" lat="58.2265477279" lon="8.38069202082">
		<tag k="name" v="Asperøya" />
>>>>>>> e1d4bc35ff8a6074a6f2e91616a996b547c36f15
		<tag k="ssr:date" v="2019-12-27" />
		<tag k="ssr:gruppe" v="administrativeIndelinger" />
		<tag k="ssr:hovedgruppe" v="offentligAdministrasjon" />
		<tag k="ssr:stedsnr" v="630404" />
		<tag k="ssr:type" v="kommune" />
	</node>
<<<<<<< HEAD
	<node lat="58.1181000021404" lon="8.195788896125599" id="-41191">
		<tag k="name" v="Ertholmrabet" />
		<tag k="ssr:date" v="2021-06-08" />
		<tag k="ssr:gruppe" v="sjøbunn" />
		<tag k="ssr:hovedgruppe" v="sjø" />
		<tag k="ssr:stedsnr" v="749342" />
		<tag k="ssr:type" v="bakkeISjø" />
	</node>
	<node lat="58.188701821564585" lon="8.34627821885145" id="-41448">
		<tag k="name" v="Risholmskjervarden" />
=======
	<node id="-534087" lat="58.2437042747" lon="8.39972675635">
		<tag k="name" v="Svinøya" />
		<tag k="ssr:date" v="2019-12-27" />
		<tag k="ssr:gruppe" v="veg" />
		<tag k="ssr:hovedgruppe" v="infrastruktur" />
		<tag k="ssr:stedsnr" v="1074225" />
		<tag k="ssr:type" v="adressenavn" />
	</node>
	<node id="-534086" lat="58.2428548703" lon="8.45050152284">
		<tag k="name" v="Lille Lyngholmen" />
>>>>>>> e1d4bc35ff8a6074a6f2e91616a996b547c36f15
		<tag k="ssr:date" v="2019-12-27" />
		<tag k="ssr:gruppe" v="navigasjon" />
		<tag k="ssr:hovedgruppe" v="infrastruktur" />
		<tag k="ssr:stedsnr" v="982624" />
		<tag k="ssr:type" v="sjøvarde" />
	</node>
<<<<<<< HEAD
	<node lat="58.2390918972291" lon="8.367120358930954" id="-41452">
		<tag k="name" v="Nordre Bergshaven" />
=======
	<node id="-534085" lat="58.2453952356" lon="8.43572705092">
		<tag k="name" v="Skjødøya" />
>>>>>>> e1d4bc35ff8a6074a6f2e91616a996b547c36f15
		<tag k="ssr:date" v="2019-12-27" />
		<tag k="ssr:gruppe" v="veg" />
		<tag k="ssr:hovedgruppe" v="infrastruktur" />
		<tag k="ssr:stedsnr" v="989339" />
		<tag k="ssr:type" v="adressenavn" />
	</node>
<<<<<<< HEAD
	<node lat="58.23807696481928" lon="8.303253144888645" id="-41454">
		<tag k="name" v="Skytterheia" />
		<tag k="ssr:date" v="2019-12-27" />
		<tag k="ssr:gruppe" v="veg" />
		<tag k="ssr:hovedgruppe" v="infrastruktur" />
		<tag k="ssr:stedsnr" v="989392" />
		<tag k="ssr:type" v="adressenavn" />
	</node>
	<node lat="58.16976895060005" lon="8.24796579622856" id="-41455">
		<tag k="name" v="Strandeveien" />
=======
	<node id="-534084" lat="58.1780937846" lon="8.30306660101">
		<tag k="name" v="Sandholmen" />
		<tag k="ssr:date" v="2019-12-27" />
		<tag k="ssr:gruppe" v="veg" />
		<tag k="ssr:hovedgruppe" v="infrastruktur" />
		<tag k="ssr:stedsnr" v="1074219" />
		<tag k="ssr:type" v="adressenavn" />
	</node>
	<node id="-534083" lat="58.2383107391" lon="8.39879597124">
		<tag k="name" v="Langøya" />
>>>>>>> e1d4bc35ff8a6074a6f2e91616a996b547c36f15
		<tag k="ssr:date" v="2019-12-27" />
		<tag k="ssr:gruppe" v="veg" />
		<tag k="ssr:hovedgruppe" v="infrastruktur" />
		<tag k="ssr:stedsnr" v="989401" />
		<tag k="ssr:type" v="adressenavn" />
	</node>
<<<<<<< HEAD
	<node lat="58.253936570694684" lon="8.421128011433805" id="-41456">
		<tag k="name" v="Langedal" />
		<tag k="ssr:date" v="2021-06-08" />
=======
	<node id="-534082" lat="58.1848950235" lon="8.31167465273">
		<tag k="name" v="Sømmingveien" />
		<tag k="ssr:date" v="2019-12-27" />
>>>>>>> e1d4bc35ff8a6074a6f2e91616a996b547c36f15
		<tag k="ssr:gruppe" v="veg" />
		<tag k="ssr:hovedgruppe" v="infrastruktur" />
		<tag k="ssr:stedsnr" v="990652" />
		<tag k="ssr:type" v="adressetilleggsnavn" />
	</node>
<<<<<<< HEAD
	<node lat="58.20831303782888" lon="8.376738138881521" id="-41457">
		<tag k="name" v="Jerikohavn" />
=======
	<node id="-534081" lat="58.1833884355" lon="8.31546196702">
		<tag k="name" v="Stranda" />
>>>>>>> e1d4bc35ff8a6074a6f2e91616a996b547c36f15
		<tag k="ssr:date" v="2019-12-27" />
		<tag k="ssr:gruppe" v="veg" />
		<tag k="ssr:hovedgruppe" v="infrastruktur" />
		<tag k="ssr:stedsnr" v="1054644" />
		<tag k="ssr:type" v="adressenavn" />
	</node>
<<<<<<< HEAD
	<node lat="58.184881960463606" lon="8.281591032987478" id="-41458">
		<tag k="name" v="Floddemyrheia" />
=======
	<node id="-534080" lat="58.1883034419" lon="8.31412591083">
		<tag k="name" v="Tåreslandsveien" />
>>>>>>> e1d4bc35ff8a6074a6f2e91616a996b547c36f15
		<tag k="ssr:date" v="2019-12-27" />
		<tag k="ssr:gruppe" v="veg" />
		<tag k="ssr:hovedgruppe" v="infrastruktur" />
		<tag k="ssr:stedsnr" v="1054946" />
		<tag k="ssr:type" v="adressenavn" />
	</node>
<<<<<<< HEAD
	<node lat="58.23767618738874" lon="8.349032774732677" id="-41459">
		<tag k="name" v="Korvtjønnveien" />
=======
	<node id="-534079" lat="58.1871688906" lon="8.31027012015">
		<tag k="name" v="Flekken" />
>>>>>>> e1d4bc35ff8a6074a6f2e91616a996b547c36f15
		<tag k="ssr:date" v="2019-12-27" />
		<tag k="ssr:gruppe" v="veg" />
		<tag k="ssr:hovedgruppe" v="infrastruktur" />
		<tag k="ssr:stedsnr" v="1054951" />
		<tag k="ssr:type" v="adressenavn" />
	</node>
<<<<<<< HEAD
	<node lat="58.23848411987782" lon="8.348416755458503" id="-41460">
		<tag k="name" v="Sangereidlia" />
=======
	<node id="-534078" lat="58.1859261324" lon="8.31634854779">
		<tag k="name" v="Vardvigveien" />
>>>>>>> e1d4bc35ff8a6074a6f2e91616a996b547c36f15
		<tag k="ssr:date" v="2019-12-27" />
		<tag k="ssr:gruppe" v="veg" />
		<tag k="ssr:hovedgruppe" v="infrastruktur" />
		<tag k="ssr:stedsnr" v="1054952" />
		<tag k="ssr:type" v="adressenavn" />
	</node>
<<<<<<< HEAD
	<node lat="58.12933817172988" lon="8.226907277920105" id="-41461">
		<tag k="name" v="Sandeheia" />
=======
	<node id="-534077" lat="58.189838592" lon="8.31231044672">
		<tag k="name" v="Løggenesveien" />
>>>>>>> e1d4bc35ff8a6074a6f2e91616a996b547c36f15
		<tag k="ssr:date" v="2019-12-27" />
		<tag k="ssr:gruppe" v="veg" />
		<tag k="ssr:hovedgruppe" v="infrastruktur" />
		<tag k="ssr:stedsnr" v="1054917" />
		<tag k="ssr:type" v="adressenavn" />
	</node>
<<<<<<< HEAD
=======
	<node id="-534076" lat="58.1832310114" lon="8.3145807159">
		<tag k="name" v="Søversvigveien" />
		<tag k="ssr:date" v="2019-12-27" />
		<tag k="ssr:gruppe" v="veg" />
		<tag k="ssr:hovedgruppe" v="infrastruktur" />
		<tag k="ssr:stedsnr" v="1074196" />
		<tag k="ssr:type" v="adressenavn" />
	</node>
	<node id="-534075" lat="58.2368044512" lon="8.30050204391">
		<tag k="name" v="Brønningsmyr" />
		<tag k="ssr:date" v="2019-12-27" />
		<tag k="ssr:gruppe" v="veg" />
		<tag k="ssr:hovedgruppe" v="infrastruktur" />
		<tag k="ssr:stedsnr" v="1074194" />
		<tag k="ssr:type" v="adressenavn" />
	</node>
	<node id="-534074" lat="58.1836380221" lon="8.31343351222">
		<tag k="name" v="Skaftestien" />
		<tag k="ssr:date" v="2019-12-27" />
		<tag k="ssr:gruppe" v="veg" />
		<tag k="ssr:hovedgruppe" v="infrastruktur" />
		<tag k="ssr:stedsnr" v="1074195" />
		<tag k="ssr:type" v="adressenavn" />
	</node>
	<node id="-534073" lat="58.2603861814" lon="8.39746996243">
		<tag k="name" v="Fasterdamveien" />
		<tag k="ssr:date" v="2019-12-27" />
		<tag k="ssr:gruppe" v="veg" />
		<tag k="ssr:hovedgruppe" v="infrastruktur" />
		<tag k="ssr:stedsnr" v="1074193" />
		<tag k="ssr:type" v="adressenavn" />
	</node>
	<node id="-534072" lat="58.1976996051" lon="8.3521372736">
		<tag k="name" v="Brekka" />
		<tag k="ssr:date" v="2019-12-27" />
		<tag k="ssr:gruppe" v="veg" />
		<tag k="ssr:hovedgruppe" v="infrastruktur" />
		<tag k="ssr:stedsnr" v="1074192" />
		<tag k="ssr:type" v="adressenavn" />
	</node>
	<node id="-534071" lat="58.1981246548" lon="8.3527079579">
		<tag k="name" v="Brekkelia" />
		<tag k="ssr:date" v="2019-12-27" />
		<tag k="ssr:gruppe" v="veg" />
		<tag k="ssr:hovedgruppe" v="infrastruktur" />
		<tag k="ssr:stedsnr" v="1074190" />
		<tag k="ssr:type" v="adressenavn" />
	</node>
	<node id="-534070" lat="58.1689987571" lon="8.22991871282">
		<tag k="name" v="Vibeveien" />
		<tag k="ssr:date" v="2019-12-27" />
		<tag k="ssr:gruppe" v="veg" />
		<tag k="ssr:hovedgruppe" v="infrastruktur" />
		<tag k="ssr:stedsnr" v="1074188" />
		<tag k="ssr:type" v="adressenavn" />
	</node>
	<node id="-534069" lat="58.2563301455" lon="8.39155557629">
		<tag k="name" v="Heldalsveien" />
		<tag k="ssr:date" v="2019-12-27" />
		<tag k="ssr:gruppe" v="veg" />
		<tag k="ssr:hovedgruppe" v="infrastruktur" />
		<tag k="ssr:stedsnr" v="1074186" />
		<tag k="ssr:type" v="adressenavn" />
	</node>
	<node id="-534068" lat="58.2194756197" lon="8.34055676382">
		<tag k="name" v="Karistangen" />
		<tag k="ssr:date" v="2019-12-27" />
		<tag k="ssr:gruppe" v="veg" />
		<tag k="ssr:hovedgruppe" v="infrastruktur" />
		<tag k="ssr:stedsnr" v="1074185" />
		<tag k="ssr:type" v="adressenavn" />
	</node>
	<node id="-534067" lat="58.2623577435" lon="8.43273059716">
		<tag k="name" v="Sildeholmen" />
		<tag k="ssr:date" v="2019-12-27" />
		<tag k="ssr:gruppe" v="veg" />
		<tag k="ssr:hovedgruppe" v="infrastruktur" />
		<tag k="ssr:stedsnr" v="1074179" />
		<tag k="ssr:type" v="adressenavn" />
	</node>
	<node id="-534066" lat="58.2001489303" lon="8.3204988437">
		<tag k="name" v="Krossundholmen" />
		<tag k="ssr:date" v="2019-12-27" />
		<tag k="ssr:gruppe" v="veg" />
		<tag k="ssr:hovedgruppe" v="infrastruktur" />
		<tag k="ssr:stedsnr" v="1074178" />
		<tag k="ssr:type" v="adressenavn" />
	</node>
	<node id="-534065" lat="58.2499194915" lon="8.44332186115">
		<tag k="name" v="Rissholmen" />
		<tag k="ssr:date" v="2019-12-27" />
		<tag k="ssr:gruppe" v="veg" />
		<tag k="ssr:hovedgruppe" v="infrastruktur" />
		<tag k="ssr:stedsnr" v="1074177" />
		<tag k="ssr:type" v="adressenavn" />
	</node>
	<node id="-534064" lat="58.2314215064" lon="8.40453181692">
		<tag k="name" v="Saltholmen" />
		<tag k="ssr:date" v="2019-12-27" />
		<tag k="ssr:gruppe" v="veg" />
		<tag k="ssr:hovedgruppe" v="infrastruktur" />
		<tag k="ssr:stedsnr" v="1074175" />
		<tag k="ssr:type" v="adressenavn" />
	</node>
	<node id="-534063" lat="58.1720657043" lon="8.29306950589">
		<tag k="name" v="Kalvøya" />
		<tag k="ssr:date" v="2019-12-27" />
		<tag k="ssr:gruppe" v="veg" />
		<tag k="ssr:hovedgruppe" v="infrastruktur" />
		<tag k="ssr:stedsnr" v="1074176" />
		<tag k="ssr:type" v="adressenavn" />
	</node>
	<node id="-534062" lat="58.1771356684" lon="8.28412761228">
		<tag k="name" v="Store Krossholmen" />
		<tag k="ssr:date" v="2019-12-27" />
		<tag k="ssr:gruppe" v="veg" />
		<tag k="ssr:hovedgruppe" v="infrastruktur" />
		<tag k="ssr:stedsnr" v="1074174" />
		<tag k="ssr:type" v="adressenavn" />
	</node>
	<node id="-534061" lat="58.2377632116" lon="8.42622558323">
		<tag k="name" v="Humleøya" />
		<tag k="ssr:date" v="2019-12-27" />
		<tag k="ssr:gruppe" v="veg" />
		<tag k="ssr:hovedgruppe" v="infrastruktur" />
		<tag k="ssr:stedsnr" v="1074173" />
		<tag k="ssr:type" v="adressenavn" />
	</node>
	<node id="-534060" lat="58.2405702035" lon="8.41173624811">
		<tag k="name" v="Bergsøya" />
		<tag k="ssr:date" v="2019-12-27" />
		<tag k="ssr:gruppe" v="veg" />
		<tag k="ssr:hovedgruppe" v="infrastruktur" />
		<tag k="ssr:stedsnr" v="1074172" />
		<tag k="ssr:type" v="adressenavn" />
	</node>
	<node id="-534059" lat="58.2456948821" lon="8.39330496106">
		<tag k="name" v="Lamholmen" />
		<tag k="ssr:date" v="2019-12-27" />
		<tag k="ssr:gruppe" v="veg" />
		<tag k="ssr:hovedgruppe" v="infrastruktur" />
		<tag k="ssr:stedsnr" v="1074168" />
		<tag k="ssr:type" v="adressenavn" />
	</node>
	<node id="-534058" lat="58.2423999646" lon="8.40894688538">
		<tag k="name" v="Bukkholmen" />
		<tag k="ssr:date" v="2019-12-27" />
		<tag k="ssr:gruppe" v="veg" />
		<tag k="ssr:hovedgruppe" v="infrastruktur" />
		<tag k="ssr:stedsnr" v="1074167" />
		<tag k="ssr:type" v="adressenavn" />
	</node>
	<node id="-534057" lat="58.2073765944" lon="8.32844381931">
		<tag k="name" v="Rossnes" />
		<tag k="old_name" v="Røssnes" />
		<tag k="ssr:date" v="2019-12-27" />
		<tag k="ssr:gruppe" v="veg" />
		<tag k="ssr:hovedgruppe" v="infrastruktur" />
		<tag k="ssr:stedsnr" v="1074139" />
		<tag k="ssr:type" v="adressenavn" />
	</node>
	<node id="-534056" lat="58.1500883342" lon="8.25859166204">
		<tag k="name" v="Sandøya" />
		<tag k="ssr:date" v="2019-12-27" />
		<tag k="ssr:gruppe" v="veg" />
		<tag k="ssr:hovedgruppe" v="infrastruktur" />
		<tag k="ssr:stedsnr" v="1074138" />
		<tag k="ssr:type" v="adressenavn" />
	</node>
	<node id="-534055" lat="58.1511039845" lon="7.99409139476">
		<tag k="name" v="Agder fylke" />
		<tag k="ssr:date" v="2020-01-13" />
		<tag k="ssr:gruppe" v="administrativeIndelinger" />
		<tag k="ssr:hovedgruppe" v="offentligAdministrasjon" />
		<tag k="ssr:stedsnr" v="1073974" />
		<tag k="ssr:type" v="fylke" />
	</node>
	<node id="-534054" lat="58.2384841199" lon="8.34841675546">
		<tag k="name" v="Sangereidlia" />
		<tag k="ssr:date" v="2019-12-27" />
		<tag k="ssr:gruppe" v="veg" />
		<tag k="ssr:hovedgruppe" v="infrastruktur" />
		<tag k="ssr:stedsnr" v="1054952" />
		<tag k="ssr:type" v="adressenavn" />
	</node>
	<node id="-534053" lat="58.2376761874" lon="8.34903277473">
		<tag k="name" v="Korvtjønnveien" />
		<tag k="ssr:date" v="2019-12-27" />
		<tag k="ssr:gruppe" v="veg" />
		<tag k="ssr:hovedgruppe" v="infrastruktur" />
		<tag k="ssr:stedsnr" v="1054951" />
		<tag k="ssr:type" v="adressenavn" />
	</node>
	<node id="-534052" lat="58.1848819605" lon="8.28159103299">
		<tag k="name" v="Floddemyrheia" />
		<tag k="ssr:date" v="2019-12-27" />
		<tag k="ssr:gruppe" v="veg" />
		<tag k="ssr:hovedgruppe" v="infrastruktur" />
		<tag k="ssr:stedsnr" v="1054946" />
		<tag k="ssr:type" v="adressenavn" />
	</node>
	<node id="-534051" lat="58.1293381717" lon="8.22690727792">
		<tag k="name" v="Sandeheia" />
		<tag k="ssr:date" v="2019-12-27" />
		<tag k="ssr:gruppe" v="veg" />
		<tag k="ssr:hovedgruppe" v="infrastruktur" />
		<tag k="ssr:stedsnr" v="1054917" />
		<tag k="ssr:type" v="adressenavn" />
	</node>
	<node id="-534050" lat="58.2539365707" lon="8.42112801143">
		<tag k="name" v="Langedal" />
		<tag k="ssr:date" v="2019-12-27" />
		<tag k="ssr:gruppe" v="veg" />
		<tag k="ssr:hovedgruppe" v="infrastruktur" />
		<tag k="ssr:stedsnr" v="990652" />
		<tag k="ssr:type" v="adressetilleggsnavn" />
	</node>
	<node id="-534048" lat="58.1130128098" lon="8.21119500769">
		<tag k="name" v="Ytre Ulvøya" />
		<tag k="ssr:date" v="2019-12-27" />
		<tag k="ssr:gruppe" v="veg" />
		<tag k="ssr:hovedgruppe" v="infrastruktur" />
		<tag k="ssr:stedsnr" v="989473" />
		<tag k="ssr:type" v="adressenavn" />
	</node>
	<node id="-534047" lat="58.1697689506" lon="8.24796579623">
		<tag k="name" v="Strandeveien" />
		<tag k="ssr:date" v="2019-12-27" />
		<tag k="ssr:gruppe" v="veg" />
		<tag k="ssr:hovedgruppe" v="infrastruktur" />
		<tag k="ssr:stedsnr" v="989401" />
		<tag k="ssr:type" v="adressenavn" />
	</node>
	<node id="-534046" lat="58.2390918972" lon="8.36712035893">
		<tag k="name" v="Nordre Bergshaven" />
		<tag k="ssr:date" v="2019-12-27" />
		<tag k="ssr:gruppe" v="veg" />
		<tag k="ssr:hovedgruppe" v="infrastruktur" />
		<tag k="ssr:stedsnr" v="989339" />
		<tag k="ssr:type" v="adressenavn" />
	</node>
	<node id="-534045" lat="58.2591284298" lon="8.3813508598">
		<tag k="name" v="Lille Solkollen" />
		<tag k="ssr:date" v="2019-12-27" />
		<tag k="ssr:gruppe" v="veg" />
		<tag k="ssr:hovedgruppe" v="infrastruktur" />
		<tag k="ssr:stedsnr" v="989295" />
		<tag k="ssr:type" v="adressenavn" />
	</node>
	<node id="-534044" lat="58.2395524827" lon="8.29714368367">
		<tag k="name" v="Legdene" />
		<tag k="ssr:date" v="2019-12-27" />
		<tag k="ssr:gruppe" v="veg" />
		<tag k="ssr:hovedgruppe" v="infrastruktur" />
		<tag k="ssr:stedsnr" v="989294" />
		<tag k="ssr:type" v="adressenavn" />
	</node>
	<node id="-534043" lat="58.2013475589" lon="8.26917869649">
		<tag k="name" v="Høresteinen" />
		<tag k="ssr:date" v="2019-12-27" />
		<tag k="ssr:gruppe" v="veg" />
		<tag k="ssr:hovedgruppe" v="infrastruktur" />
		<tag k="ssr:stedsnr" v="989223" />
		<tag k="ssr:type" v="adressenavn" />
	</node>
	<node id="-534042" lat="58.2023734499" lon="8.27740968144">
		<tag k="name" v="Ingridsnes" />
		<tag k="ssr:date" v="2019-12-27" />
		<tag k="ssr:gruppe" v="veg" />
		<tag k="ssr:hovedgruppe" v="infrastruktur" />
		<tag k="ssr:stedsnr" v="989222" />
		<tag k="ssr:type" v="adressenavn" />
	</node>
	<node id="-534041" lat="58.2523004928" lon="8.39983705384">
		<tag k="name" v="Krågevigodden" />
		<tag k="ssr:date" v="2019-12-27" />
		<tag k="ssr:gruppe" v="veg" />
		<tag k="ssr:hovedgruppe" v="infrastruktur" />
		<tag k="ssr:stedsnr" v="989219" />
		<tag k="ssr:type" v="adressenavn" />
	</node>
	<node id="-534033" lat="58.1887018216" lon="8.34627821885">
		<tag k="name" v="Risholmskjervarden" />
		<tag k="ssr:date" v="2019-12-27" />
		<tag k="ssr:gruppe" v="navigasjon" />
		<tag k="ssr:hovedgruppe" v="infrastruktur" />
		<tag k="ssr:stedsnr" v="982624" />
		<tag k="ssr:type" v="sjøvarde" />
	</node>
>>>>>>> e1d4bc35ff8a6074a6f2e91616a996b547c36f15
</osm>
