<?xml version="1.0" encoding="UTF-8"?>
<osm generator="osmapis" version="0.6">
	<node id="-368640" lat="58.1059777791" lon="7.31677500553">
		<tag k="name" v="Hogstøltjønna" />
		<tag k="natural" v="water" />
		<tag k="ssr:stedsnr" v="22679" />
	</node>
	<node id="-370684" lat="58.0599888898" lon="7.33657222797">
		<tag k="name" v="Mågetjønna" />
		<tag k="natural" v="water" />
		<tag k="ssr:stedsnr" v="690755" />
	</node>
	<node id="-368633" lat="58.1608500006" lon="7.37633611542">
		<tag k="name" v="Storebekken" />
		<tag k="ssr:stedsnr" v="22617" />
		<tag k="waterway" v="stream" />
	</node>
	<node id="-368631" lat="58.1313583292" lon="7.33269166304">
		<tag k="name" v="Osen" />
		<tag k="natural" v="bay" />
		<tag k="ssr:stedsnr" v="22589" />
	</node>
	<node id="-368627" lat="58.1344722186" lon="7.31287499783">
		<tag k="name" v="Igeltjønn" />
		<tag k="natural" v="water" />
		<tag k="ssr:stedsnr" v="22566" />
	</node>
	<node id="-368626" lat="58.1025777747" lon="7.36330000858">
		<tag k="name" v="Rosheitjønna" />
		<tag k="natural" v="water" />
		<tag k="ssr:stedsnr" v="22560" />
	</node>
	<node id="-368625" lat="58.1002694467" lon="7.37590000769">
		<tag k="name" v="Roperodden" />
		<tag k="natural" v="cape" />
		<tag k="ssr:stedsnr" v="22556" />
	</node>
	<node id="-370671" lat="58.1025583298" lon="7.18453888935">
		<tag k="name" v="Hongstjønn" />
		<tag k="natural" v="water" />
		<tag k="ssr:stedsnr" v="689903" />
	</node>
	<node id="-370669" lat="58.0961277768" lon="7.17031943819">
		<tag k="name" v="Odden" />
		<tag k="natural" v="cape" />
		<tag k="ssr:stedsnr" v="689882" />
	</node>
	<node id="-368620" lat="58.128036111" lon="7.44185832563">
		<tag k="name" v="Nesevannet" />
		<tag k="natural" v="water" />
		<tag k="ssr:stedsnr" v="22418" />
		<tag k="water" v="lake" />
	</node>
	<node id="-370667" lat="58.0414416648" lon="7.22385555325">
		<tag k="name" v="Syrdalstjønna" />
		<tag k="natural" v="water" />
		<tag k="ssr:stedsnr" v="689865" />
	</node>
	<node id="-368617" lat="58.1691500006" lon="7.33836943646">
		<tag k="alt_name" v="Krogetjønn" />
		<tag k="name" v="Krogtjønn" />
		<tag k="natural" v="water" />
		<tag k="ssr:stedsnr" v="22389" />
	</node>
	<node id="-370660" lat="58.1425055588" lon="7.2575194499">
		<tag k="name" v="Tvitjønnan" />
		<tag k="natural" v="water" />
		<tag k="ssr:stedsnr" v="689801" />
	</node>
	<node id="-370658" lat="58.1361111134" lon="7.25931945218">
		<tag k="name" v="Tvinnlonan" />
		<tag k="natural" v="water" />
		<tag k="ssr:stedsnr" v="689795" />
	</node>
	<node id="-370656" lat="58.2101472236" lon="7.26316665882">
		<tag k="name" v="Storeholmen" />
		<tag k="place" v="islet" />
		<tag k="ssr:stedsnr" v="689788" />
	</node>
	<node id="-370651" lat="58.0725472216" lon="7.26969999544">
		<tag k="name" v="Legetjønna" />
		<tag k="natural" v="water" />
		<tag k="ssr:stedsnr" v="689762" />
	</node>
	<node id="-370649" lat="58.0561972215" lon="7.28125277832">
		<tag k="name" v="Danmark" />
		<tag k="natural" v="cape" />
		<tag k="ssr:stedsnr" v="689748" />
	</node>
	<node id="-370648" lat="58.0556444441" lon="7.27529166172">
		<tag k="name" v="Vesterdypet" />
		<tag k="ssr:stedsnr" v="689745" />
		<tag k="waterway" v="river" />
	</node>
	<node id="-368599" lat="58.2068944424" lon="7.34218056189">
		<tag k="name" v="Flesebekken" />
		<tag k="ssr:stedsnr" v="21327" />
		<tag k="waterway" v="stream" />
	</node>
	<node id="-370644" lat="58.1131861112" lon="7.40001666481">
		<tag k="name" v="Birkelandslonan" />
		<tag k="natural" v="water" />
		<tag k="ssr:stedsnr" v="689660" />
		<tag k="water" v="lake" />
	</node>
	<node id="-368595" lat="58.227836111" lon="7.29496945209">
		<tag k="name" v="Tjønna" />
		<tag k="natural" v="water" />
		<tag k="ssr:stedsnr" v="21291" />
	</node>
	<node id="-370639" lat="58.179002779" lon="7.28651667141">
		<tag k="name" v="Fladestemmen" />
		<tag k="natural" v="water" />
		<tag k="ssr:stedsnr" v="689583" />
	</node>
	<node id="-370634" lat="58.1553388913" lon="7.32635277815">
		<tag k="name" v="Sjulsodden" />
		<tag k="natural" v="cape" />
		<tag k="ssr:stedsnr" v="689565" />
	</node>
	<node id="-368585" lat="58.1834805553" lon="7.43035278377">
		<tag k="name" v="Hundstjønna" />
		<tag k="natural" v="water" />
		<tag k="ssr:stedsnr" v="21201" />
	</node>
	<node id="-368582" lat="58.1215500012" lon="7.44579722876">
		<tag k="name" v="Uvannet" />
		<tag k="natural" v="water" />
		<tag k="ssr:stedsnr" v="21162" />
		<tag k="water" v="lake" />
	</node>
	<node id="-370623" lat="58.0884527756" lon="7.34094999199">
		<tag k="name" v="Heptetjønna" />
		<tag k="natural" v="water" />
		<tag k="ssr:stedsnr" v="689517" />
	</node>
	<node id="-370617" lat="58.0896611082" lon="7.38749167324">
		<tag k="name" v="Blørstadtjønna" />
		<tag k="natural" v="water" />
		<tag k="ssr:stedsnr" v="689471" />
	</node>
	<node id="-370616" lat="58.1638250018" lon="7.33120554729">
		<tag k="name" v="Hesteheitjønn" />
		<tag k="natural" v="water" />
		<tag k="ssr:stedsnr" v="689466" />
	</node>
	<node id="-368567" lat="58.1326749991" lon="7.42827499636">
		<tag k="alt_name" v="Sandvannet" />
		<tag k="name" v="Bogstadlivatnet" />
		<tag k="natural" v="water" />
		<tag k="ssr:stedsnr" v="765" />
	</node>
	<node id="-368565" lat="58.1982361124" lon="7.43443611337">
		<tag k="alt_name" v="Storevannet" />
		<tag k="name" v="Storevatnet" />
		<tag k="natural" v="water" />
		<tag k="ssr:stedsnr" v="718" />
	</node>
	<node id="-370675" lat="58.0612944438" lon="7.28698056374">
		<tag k="name" v="Kvisla" />
		<tag k="ssr:stedsnr" v="689951" />
		<tag k="waterway" v="river" />
	</node>
	<node id="-370607" lat="58.0001388851" lon="7.06335556323">
		<tag k="name" v="Aurehølen" />
		<tag k="natural" v="water" />
		<tag k="ssr:stedsnr" v="689397" />
		<tag k="water" v="pond" />
	</node>
	<node id="-370605" lat="58.1288805553" lon="7.35744445013">
		<tag k="name" v="Hagefossen" />
		<tag k="natural" v="waterfall" />
		<tag k="ssr:stedsnr" v="689377" />
	</node>
	<node id="-370591" lat="58.1806305591" lon="7.36246666868">
		<tag k="name" v="Joglebekken" />
		<tag k="ssr:stedsnr" v="689237" />
		<tag k="waterway" v="stream" />
	</node>
	<node id="-370590" lat="58.1728444416" lon="7.3775888839">
		<tag k="name" v="Josalstjønna" />
		<tag k="natural" v="water" />
		<tag k="ssr:stedsnr" v="689233" />
	</node>
	<node id="-370586" lat="58.206127778" lon="7.39879443994">
		<tag k="name" v="Sandvika" />
		<tag k="natural" v="bay" />
		<tag k="ssr:stedsnr" v="689224" />
	</node>
	<node id="-370584" lat="58.1827666708" lon="7.39597778479">
		<tag k="name" v="Oppsaltjønna" />
		<tag k="natural" v="water" />
		<tag k="ssr:stedsnr" v="689212" />
	</node>
	<node id="-370583" lat="58.171586115" lon="7.44803611193">
		<tag k="name" v="Bjølletjønna" />
		<tag k="natural" v="water" />
		<tag k="ssr:stedsnr" v="689209" />
	</node>
	<node id="-370579" lat="58.1605555536" lon="7.46961666118">
		<tag k="name" v="Småtjønnan" />
		<tag k="natural" v="water" />
		<tag k="ssr:stedsnr" v="689168" />
	</node>
	<node id="-370578" lat="58.157702778" lon="7.46686110327">
		<tag k="name" v="Hestetjønn" />
		<tag k="natural" v="water" />
		<tag k="ssr:stedsnr" v="689165" />
	</node>
	<node id="-370567" lat="58.0419027824" lon="7.0636916747">
		<tag k="name" v="Linodden" />
		<tag k="natural" v="cape" />
		<tag k="ssr:stedsnr" v="689096" />
	</node>
	<node id="-369300" lat="58.0998472226" lon="7.37955278482">
		<tag k="name" v="Langeholmen" />
		<tag k="place" v="islet" />
		<tag k="ssr:stedsnr" v="204513" />
	</node>
	<node id="-370544" lat="58.156830555" lon="7.44457777018">
		<tag k="alt_name" v="Stemvannet" />
		<tag k="name" v="Stemvatnet" />
		<tag k="natural" v="water" />
		<tag k="ssr:stedsnr" v="667734" />
	</node>
	<node id="-370542" lat="58.2286361137" lon="7.37555000825">
		<tag k="alt_name" v="Krogvannet" />
		<tag k="name" v="Krokvatnet" />
		<tag k="natural" v="water" />
		<tag k="ssr:stedsnr" v="667680" />
	</node>
	<node id="-369291" lat="58.1053777765" lon="7.1820472146">
		<tag k="name" v="Migeren" />
		<tag k="ssr:stedsnr" v="204906" />
		<tag k="waterway" v="stream" />
	</node>
	<node id="-368444" lat="58.2431555541" lon="7.29495000426">
		<tag k="name" v="Stutodden" />
		<tag k="natural" v="cape" />
		<tag k="ssr:stedsnr" v="386970" />
	</node>
	<node id="-368441" lat="58.075069442" lon="7.23944721595">
		<tag k="name" v="Sandvika" />
		<tag k="natural" v="bay" />
		<tag k="ssr:stedsnr" v="386942" />
	</node>
	<node id="-368438" lat="58.0937583352" lon="7.19949999848">
		<tag k="name" v="Igletjønn" />
		<tag k="natural" v="water" />
		<tag k="ssr:stedsnr" v="386892" />
	</node>
	<node id="-368433" lat="58.1594805598" lon="7.24890833295">
		<tag k="name" v="Låmsskartjønn" />
		<tag k="natural" v="water" />
		<tag k="ssr:stedsnr" v="386857" />
	</node>
	<node id="-368430" lat="58.1592027763" lon="7.27023054742">
		<tag k="name" v="Gulltjønn" />
		<tag k="natural" v="water" />
		<tag k="ssr:stedsnr" v="386841" />
	</node>
	<node id="-368428" lat="58.2084194489" lon="7.24294167331">
		<tag k="name" v="Heptetjønn" />
		<tag k="natural" v="water" />
		<tag k="ssr:stedsnr" v="386812" />
	</node>
	<node id="-368423" lat="58.116697225" lon="7.388519443">
		<tag k="name" v="Igeltjønna" />
		<tag k="natural" v="water" />
		<tag k="ssr:stedsnr" v="386691" />
	</node>
	<node id="-370469" lat="58.0626999981" lon="7.30731389272">
		<tag k="name" v="Skjeggestadvannet" />
		<tag k="natural" v="water" />
		<tag k="ssr:stedsnr" v="629716" />
		<tag k="water" v="lake" />
	</node>
	<node id="-370466" lat="58.1191027757" lon="7.22651944536">
		<tag k="name" v="Odden" />
		<tag k="natural" v="cape" />
		<tag k="ssr:stedsnr" v="628986" />
	</node>
	<node id="-368415" lat="58.2048027813" lon="7.26998333599">
		<tag k="name" v="Bordstjønn" />
		<tag k="natural" v="water" />
		<tag k="ssr:stedsnr" v="386647" />
	</node>
	<node id="-370460" lat="58.0805333338" lon="7.25164999885">
		<tag k="name" v="Saudelandsbukta" />
		<tag k="natural" v="bay" />
		<tag k="ssr:stedsnr" v="628934" />
	</node>
	<node id="-370457" lat="58.0479722236" lon="7.21611944738">
		<tag k="name" v="Lilletjønna" />
		<tag k="natural" v="water" />
		<tag k="ssr:stedsnr" v="628916" />
	</node>
	<node id="-368402" lat="58.1459472247" lon="7.32482500562">
		<tag k="name" v="Røssetjønn" />
		<tag k="natural" v="water" />
		<tag k="ssr:stedsnr" v="386556" />
	</node>
	<node id="-368401" lat="58.1339527792" lon="7.32501388387">
		<tag k="name" v="Smalsund" />
		<tag k="natural" v="strait" />
		<tag k="ssr:stedsnr" v="386545" />
	</node>
	<node id="-368394" lat="58.1078916679" lon="7.28600555357">
		<tag k="name" v="Lille Faksevann" />
		<tag k="natural" v="water" />
		<tag k="ssr:stedsnr" v="386747" />
		<tag k="water" v="lake" />
	</node>
	<node id="-368389" lat="58.0720833356" lon="7.38300555729">
		<tag k="name" v="Store Drågtjønna" />
		<tag k="natural" v="water" />
		<tag k="ssr:stedsnr" v="386710" />
	</node>
	<node id="-368387" lat="58.1058722222" lon="7.36839444013">
		<tag k="name" v="Fiskehølen" />
		<tag k="place" v="locality" />
		<tag k="ssr:stedsnr" v="386702" />
	</node>
	<node id="-370434" lat="58.1094222215" lon="7.33421389329">
		<tag k="name" v="Plommedalstjønn" />
		<tag k="natural" v="water" />
		<tag k="ssr:stedsnr" v="628667" />
	</node>
	<node id="-368384" lat="58.1392805564" lon="7.45600833435">
		<tag k="name" v="Stemmen" />
		<tag k="natural" v="water" />
		<tag k="ssr:stedsnr" v="386431" />
	</node>
	<node id="-368382" lat="58.1801527766" lon="7.30531389311">
		<tag k="name" v="Nesodden" />
		<tag k="natural" v="cape" />
		<tag k="ssr:stedsnr" v="386408" />
	</node>
	<node id="-370427" lat="58.1527805599" lon="7.32703889688">
		<tag k="name" v="Middodden" />
		<tag k="place" v="island" />
		<tag k="ssr:stedsnr" v="628590" />
	</node>
	<node id="-370424" lat="58.1311361087" lon="7.33829443923">
		<tag k="name" v="Grislebekken" />
		<tag k="ssr:stedsnr" v="628572" />
		<tag k="waterway" v="stream" />
	</node>
	<node id="-368374" lat="58.0902277739" lon="7.33640832838">
		<tag k="name" v="Søndre Krokevann" />
		<tag k="natural" v="water" />
		<tag k="ssr:stedsnr" v="386508" />
		<tag k="water" v="lake" />
	</node>
	<node id="-370420" lat="58.0992722226" lon="7.34633889652">
		<tag k="name" v="Stemtjønna" />
		<tag k="natural" v="water" />
		<tag k="ssr:stedsnr" v="628526" />
	</node>
	<node id="-368371" lat="58.0915305528" lon="7.22238056371">
		<tag k="name" v="Stortjønna" />
		<tag k="natural" v="water" />
		<tag k="ssr:stedsnr" v="386246" />
	</node>
	<node id="-370418" lat="58.0946333294" lon="7.33915832919">
		<tag k="name" v="Sjebbetjønna" />
		<tag k="natural" v="water" />
		<tag k="ssr:stedsnr" v="628520" />
	</node>
	<node id="-370417" lat="58.0964222188" lon="7.36168611469">
		<tag k="name" v="Mannetjønn" />
		<tag k="natural" v="water" />
		<tag k="ssr:stedsnr" v="628500" />
	</node>
	<node id="-370416" lat="58.0909249983" lon="7.37507222657">
		<tag k="name" v="Heitjønna" />
		<tag k="natural" v="water" />
		<tag k="ssr:stedsnr" v="628498" />
	</node>
	<node id="-370414" lat="58.1657833336" lon="7.30924443821">
		<tag k="name" v="Risdalstjønn" />
		<tag k="natural" v="water" />
		<tag k="ssr:stedsnr" v="628493" />
	</node>
	<node id="-370412" lat="58.1419777737" lon="7.43108888398">
		<tag k="name" v="Bogstadlitjønnan" />
		<tag k="natural" v="water" />
		<tag k="ssr:stedsnr" v="628442" />
	</node>
	<node id="-370397" lat="58.1463277805" lon="7.35988334016">
		<tag k="name" v="Fotskartjønna" />
		<tag k="natural" v="water" />
		<tag k="ssr:stedsnr" v="628377" />
	</node>
	<node id="-368317" lat="58.0545861097" lon="7.09599721864">
		<tag k="name" v="Refsnes" />
		<tag k="natural" v="cape" />
		<tag k="ssr:stedsnr" v="385129" />
	</node>
	<node id="-370633" lat="58.1538361154" lon="7.31909444083">
		<tag k="name" v="Eikedalsodden" />
		<tag k="place" v="island" />
		<tag k="ssr:stedsnr" v="689561" />
	</node>
	<node id="-370356" lat="58.1965500012" lon="7.44492778035">
		<tag k="name" v="Årstøltjønna" />
		<tag k="natural" v="water" />
		<tag k="ssr:stedsnr" v="628157" />
	</node>
	<node id="-368304" lat="58.0577202344" lon="7.32933298293">
		<tag k="alt_name" v="Stølevannet" />
		<tag k="name" v="Stølevatnet" />
		<tag k="natural" v="water" />
		<tag k="ssr:stedsnr" v="364595" />
	</node>
	<node id="-368298" lat="58.2326749996" lon="7.30373055544">
		<tag k="alt_name" v="Brådlandsvannet" />
		<tag k="name" v="Brådlandsvatnet" />
		<tag k="natural" v="water" />
		<tag k="ssr:stedsnr" v="364436" />
		<tag k="water" v="lake" />
	</node>
	<node id="-370343" lat="58.0574888896" lon="7.21621945142">
		<tag k="name" v="Lysevannet" />
		<tag k="natural" v="water" />
		<tag k="ssr:stedsnr" v="628049" />
		<tag k="water" v="lake" />
	</node>
	<node id="-370341" lat="58.0468916705" lon="7.15051666021">
		<tag k="name" v="Tjønna" />
		<tag k="natural" v="water" />
		<tag k="ssr:stedsnr" v="628039" />
	</node>
	<node id="-370630" lat="58.1487694429" lon="7.30293889185">
		<tag k="name" v="Stemvannet" />
		<tag k="natural" v="water" />
		<tag k="ssr:stedsnr" v="689550" />
		<tag k="water" v="lake" />
	</node>
	<node id="-370332" lat="58.0816249962" lon="7.39816111924">
		<tag k="alt_name" v="Holstjønna" />
		<tag k="name" v="Holstjørna" />
		<tag k="natural" v="water" />
		<tag k="ssr:stedsnr" v="607809" />
	</node>
	<node id="-370331" lat="58.1750499973" lon="7.39719167001">
		<tag k="alt_name" v="Bjortjønna" />
		<tag k="name" v="Bjortjørna" />
		<tag k="natural" v="water" />
		<tag k="ssr:stedsnr" v="607793" />
		<tag k="water" v="lake" />
	</node>
	<node id="-370330" lat="58.1769055588" lon="7.40515278223">
		<tag k="alt_name" v="Spillbekken" />
		<tag k="name" v="Storbekken" />
		<tag k="ssr:stedsnr" v="607791" />
		<tag k="waterway" v="stream" />
	</node>
	<node id="-370316" lat="58.1583277803" lon="7.43421388371">
		<tag k="alt_name" v="Heddesvannet" />
		<tag k="name" v="Hellevatnet" />
		<tag k="natural" v="water" />
		<tag k="ssr:stedsnr" v="606767" />
	</node>
	<node id="-370302" lat="58.1168111069" lon="7.21992777591">
		<tag k="alt_name" v="Bjellandsvannet" />
		<tag k="name" v="Osestadvatnet" />
		<tag k="natural" v="water" />
		<tag k="ssr:stedsnr" v="606497" />
	</node>
	<node id="-370300" lat="58.1884027807" lon="7.26190278478">
		<tag k="alt_name" v="Gusevannet" />
		<tag k="name" v="Gusevatnet" />
		<tag k="natural" v="water" />
		<tag k="ssr:stedsnr" v="606439" />
	</node>
	<node id="-370296" lat="58.2438166666" lon="7.30436110967">
		<tag k="alt_name" v="Færåstjønn" />
		<tag k="name" v="Feråstjørna" />
		<tag k="natural" v="water" />
		<tag k="ssr:stedsnr" v="606361" />
	</node>
	<node id="-368189" lat="58.1523416686" lon="7.25596945067">
		<tag k="name" v="Engelstjønn" />
		<tag k="natural" v="water" />
		<tag k="ssr:stedsnr" v="325828" />
	</node>
	<node id="-368188" lat="58.1401076919" lon="7.23435948201">
		<tag k="name" v="Mjåsund" />
		<tag k="natural" v="strait" />
		<tag k="ssr:stedsnr" v="325821" />
	</node>
	<node id="-368185" lat="58.0699833322" lon="7.27654166987">
		<tag k="name" v="Ravnåsbekken" />
		<tag k="ssr:stedsnr" v="325769" />
		<tag k="waterway" v="stream" />
	</node>
	<node id="-368181" lat="58.1078388862" lon="7.38576667073">
		<tag k="name" v="Kvernbekken" />
		<tag k="ssr:stedsnr" v="325693" />
		<tag k="waterway" v="stream" />
	</node>
	<node id="-368173" lat="58.13165833" lon="7.33233889211">
		<tag k="name" v="Kattenes" />
		<tag k="natural" v="cape" />
		<tag k="ssr:stedsnr" v="325590" />
	</node>
	<node id="-368167" lat="58.1471805582" lon="7.34306667026">
		<tag k="name" v="Godåstjønn" />
		<tag k="natural" v="water" />
		<tag k="ssr:stedsnr" v="325566" />
	</node>
	<node id="-368163" lat="58.1013583293" lon="7.3823333265">
		<tag k="name" v="Buholmen" />
		<tag k="place" v="islet" />
		<tag k="ssr:stedsnr" v="325548" />
	</node>
	<node id="-368159" lat="58.102438885" lon="7.33871388364">
		<tag k="name" v="Bombekken" />
		<tag k="ssr:stedsnr" v="325532" />
		<tag k="waterway" v="stream" />
	</node>
	<node id="-370204" lat="58.0604583343" lon="7.24011388081">
		<tag k="name" v="Skaretjønn" />
		<tag k="natural" v="water" />
		<tag k="ssr:stedsnr" v="568952" />
	</node>
	<node id="-369242" lat="58.0686805544" lon="7.20723888627">
		<tag k="name" v="Gåsesteintjønna" />
		<tag k="natural" v="water" />
		<tag k="ssr:stedsnr" v="203042" />
	</node>
	<node id="-368153" lat="58.1584166625" lon="7.44037777096">
		<tag k="name" v="Rona" />
		<tag k="natural" v="strait" />
		<tag k="ssr:stedsnr" v="325452" />
	</node>
	<node id="-370187" lat="58.1214277817" lon="7.32825556306">
		<tag k="name" v="Morbekken" />
		<tag k="ssr:stedsnr" v="568731" />
		<tag k="waterway" v="stream" />
	</node>
	<node id="-370181" lat="58.0643111146" lon="7.35113611742">
		<tag k="name" v="Kilen" />
		<tag k="natural" v="water" />
		<tag k="ssr:stedsnr" v="568701" />
	</node>
	<node id="-370173" lat="58.0822527808" lon="7.32734167144">
		<tag k="name" v="Langetjønn" />
		<tag k="natural" v="water" />
		<tag k="ssr:stedsnr" v="568621" />
	</node>
	<node id="-368124" lat="58.1704555511" lon="7.33774166262">
		<tag k="name" v="Lølandstem" />
		<tag k="natural" v="water" />
		<tag k="ssr:stedsnr" v="325389" />
	</node>
	<node id="-370167" lat="58.1671027802" lon="7.36795277781">
		<tag k="name" v="Åmdalstjønn" />
		<tag k="natural" v="water" />
		<tag k="ssr:stedsnr" v="568586" />
	</node>
	<node id="-370166" lat="58.1379583327" lon="7.34305278282">
		<tag k="name" v="Heietjønn" />
		<tag k="natural" v="water" />
		<tag k="ssr:stedsnr" v="568573" />
	</node>
	<node id="-370164" lat="58.1427611124" lon="7.34177222665">
		<tag k="name" v="Indstetjønn" />
		<tag k="natural" v="water" />
		<tag k="ssr:stedsnr" v="568548" />
	</node>
	<node id="-370162" lat="58.1037194416" lon="7.39681666922">
		<tag k="name" v="Myrbekken" />
		<tag k="ssr:stedsnr" v="568521" />
		<tag k="waterway" v="stream" />
	</node>
	<node id="-370161" lat="58.09778611" lon="7.38067777582">
		<tag k="name" v="Storeneset" />
		<tag k="natural" v="cape" />
		<tag k="ssr:stedsnr" v="568518" />
	</node>
	<node id="-370160" lat="58.0970472186" lon="7.39339721897">
		<tag k="name" v="Igelstjønna" />
		<tag k="natural" v="water" />
		<tag k="ssr:stedsnr" v="568519" />
	</node>
	<node id="-370157" lat="58.1551666653" lon="7.32891389706">
		<tag k="name" v="Lauvneset" />
		<tag k="natural" v="cape" />
		<tag k="ssr:stedsnr" v="568495" />
	</node>
	<node id="-370154" lat="58.0912472207" lon="7.36309999864">
		<tag k="name" v="Hujeslona" />
		<tag k="natural" v="water" />
		<tag k="ssr:stedsnr" v="568484" />
	</node>
	<node id="-370153" lat="58.1388916633" lon="7.44153055142">
		<tag k="name" v="Refsdalstjønna" />
		<tag k="natural" v="water" />
		<tag k="ssr:stedsnr" v="568444" />
	</node>
	<node id="-368090" lat="58.0626305589" lon="7.20872222597">
		<tag k="name" v="Gloppetjønna" />
		<tag k="natural" v="water" />
		<tag k="ssr:stedsnr" v="325024" />
	</node>
	<node id="-369231" lat="58.0761666683" lon="7.3945555613">
		<tag k="alt_name" v="Utjordsvannet" />
		<tag k="name" v="Utjordsvatnet" />
		<tag k="natural" v="water" />
		<tag k="ssr:stedsnr" v="182921" />
	</node>
	<node id="-370133" lat="58.0842999991" lon="7.28192500453">
		<tag k="name" v="Hondstjønna" />
		<tag k="natural" v="water" />
		<tag k="ssr:stedsnr" v="567876" />
	</node>
	<node id="-370130" lat="58.1636042979" lon="7.29379260123">
		<tag k="name" v="Bjønnstitjønn" />
		<tag k="natural" v="water" />
		<tag k="ssr:stedsnr" v="567865" />
	</node>
	<node id="-370128" lat="58.1507083336" lon="7.26334721665">
		<tag k="name" v="Lometjønn" />
		<tag k="natural" v="water" />
		<tag k="ssr:stedsnr" v="567858" />
	</node>
	<node id="-368075" lat="58.117505552" lon="7.42820278597">
		<tag k="name" v="Norumsvannet" />
		<tag k="natural" v="water" />
		<tag k="ssr:stedsnr" v="324130" />
		<tag k="water" v="lake" />
	</node>
	<node id="-368074" lat="58.0406611131" lon="7.10448333353">
		<tag k="name" v="Fugleneset" />
		<tag k="natural" v="cape" />
		<tag k="ssr:stedsnr" v="324111" />
	</node>
	<node id="-368073" lat="58.0370055558" lon="7.08606388953">
		<tag k="name" v="Mønestadvannet" />
		<tag k="natural" v="water" />
		<tag k="ssr:stedsnr" v="324055" />
		<tag k="water" v="lake" />
	</node>
	<node id="-370119" lat="58.109933334" lon="7.26760277975">
		<tag k="name" v="Stølesvann" />
		<tag k="natural" v="water" />
		<tag k="ssr:stedsnr" v="567751" />
		<tag k="water" v="lake" />
	</node>
	<node id="-368062" lat="58.0726027763" lon="7.39332777632">
		<tag k="alt_name" v="Vassågervannet" />
		<tag k="name" v="Vassåkervatnet" />
		<tag k="natural" v="water" />
		<tag k="ssr:stedsnr" v="303934" />
	</node>
	<node id="-368056" lat="58.2161944429" lon="7.37219444531">
		<tag k="name" v="Auglandstjønn" />
		<tag k="natural" v="water" />
		<tag k="ssr:stedsnr" v="303893" />
	</node>
	<node id="-370092" lat="58.221508331" lon="7.32271667307">
		<tag k="name" v="Aklandstjønn" />
		<tag k="natural" v="water" />
		<tag k="ssr:stedsnr" v="567216" />
	</node>
	<node id="-368043" lat="58.1798361109" lon="7.27009167221">
		<tag k="alt_name" v="Mjuntjønn" />
		<tag k="name" v="Mjuntjørn" />
		<tag k="natural" v="water" />
		<tag k="ssr:stedsnr" v="303444" />
	</node>
	<node id="-370088" lat="58.1918138892" lon="7.44113056206">
		<tag k="name" v="Knipetjønna" />
		<tag k="natural" v="water" />
		<tag k="ssr:stedsnr" v="567181" />
	</node>
	<node id="-370086" lat="58.1802750017" lon="7.43173888706">
		<tag k="name" v="Olderstjønna" />
		<tag k="natural" v="water" />
		<tag k="ssr:stedsnr" v="567163" />
	</node>
	<node id="-370082" lat="58.1249666689" lon="7.42314444146">
		<tag k="name" v="Erlandsvannet" />
		<tag k="natural" v="water" />
		<tag k="ssr:stedsnr" v="567137" />
		<tag k="water" v="lake" />
	</node>
	<node id="-370062" lat="58.0008611139" lon="7.04949165871">
		<tag k="alt_name" v="Heggetjønna" />
		<tag k="name" v="Heggetjørna" />
		<tag k="natural" v="water" />
		<tag k="ssr:stedsnr" v="546597" />
	</node>
	<node id="-370056" lat="58.1310166633" lon="7.28326111121">
		<tag k="alt_name" v="Lomstjønn" />
		<tag k="name" v="Lomtjørna" />
		<tag k="natural" v="water" />
		<tag k="ssr:stedsnr" v="546515" />
	</node>
	<node id="-370055" lat="58.1374740791" lon="7.24139941592">
		<tag k="alt_name" v="Haugdalsvannet" />
		<tag k="name" v="Haugdalsvatnet" />
		<tag k="natural" v="water" />
		<tag k="ssr:stedsnr" v="546506" />
		<tag k="water" v="lake" />
	</node>
	<node id="-370054" lat="58.1423888908" lon="7.32162499847">
		<tag k="alt_name" v="Grislevannet" />
		<tag k="name" v="Grislevatnet" />
		<tag k="natural" v="water" />
		<tag k="ssr:stedsnr" v="546496" />
		<tag k="water" v="lake" />
	</node>
	<node id="-370052" lat="58.1614638873" lon="7.26998611499">
		<tag k="alt_name" v="Livannet" />
		<tag k="name" v="Livatnet" />
		<tag k="natural" v="water" />
		<tag k="ssr:stedsnr" v="546449" />
	</node>
	<node id="-369975" lat="58.125327774" lon="7.33907777379">
		<tag k="name" v="Melhusfossen" />
		<tag k="natural" v="waterfall" />
		<tag k="ssr:stedsnr" v="508735" />
	</node>
	<node id="-369972" lat="58.0583055568" lon="7.31661667038">
		<tag k="name" v="Skjeggestadtjønna" />
		<tag k="natural" v="water" />
		<tag k="ssr:stedsnr" v="508722" />
	</node>
	<node id="-369969" lat="58.0754694469" lon="7.3386333324">
		<tag k="name" v="Trædalsbekken" />
		<tag k="ssr:stedsnr" v="508662" />
		<tag k="waterway" v="stream" />
	</node>
	<node id="-369967" lat="58.1199555517" lon="7.22707222668">
		<tag k="name" v="Stordalsbukta" />
		<tag k="natural" v="bay" />
		<tag k="ssr:stedsnr" v="507997" />
	</node>
	<node id="-369964" lat="58.0644861089" lon="7.22491666561">
		<tag k="name" v="Sugga" />
		<tag k="place" v="islet" />
		<tag k="ssr:stedsnr" v="507946" />
	</node>
	<node id="-369951" lat="58.128608334" lon="7.23944721397">
		<tag k="name" v="Kjemmertjønn" />
		<tag k="natural" v="water" />
		<tag k="ssr:stedsnr" v="507853" />
	</node>
	<node id="-369949" lat="58.1416583354" lon="7.26320555915">
		<tag k="name" v="Vardetjønn" />
		<tag k="natural" v="water" />
		<tag k="ssr:stedsnr" v="507842" />
	</node>
	<node id="-369947" lat="58.2107583317" lon="7.24224999818">
		<tag k="alt_name" v="Vestre Grønnstjønn" />
		<tag k="name" v="Vestre Grønstjønn" />
		<tag k="natural" v="water" />
		<tag k="ssr:stedsnr" v="507822" />
	</node>
	<node id="-369937" lat="58.1170375921" lon="7.37519614524">
		<tag k="name" v="Stemmetjønna" />
		<tag k="natural" v="water" />
		<tag k="ssr:stedsnr" v="507707" />
	</node>
	<node id="-369932" lat="58.1723972226" lon="7.24433611693">
		<tag k="name" v="Lølandsvannet" />
		<tag k="natural" v="water" />
		<tag k="ssr:stedsnr" v="507642" />
		<tag k="water" v="lake" />
	</node>
	<node id="-369925" lat="58.1602499972" lon="7.39328334174">
		<tag k="name" v="Rautjønna" />
		<tag k="natural" v="water" />
		<tag k="ssr:stedsnr" v="507609" />
	</node>
	<node id="-369920" lat="58.0988416646" lon="7.37039721493">
		<tag k="name" v="Kjørkevika" />
		<tag k="natural" v="bay" />
		<tag k="ssr:stedsnr" v="507544" />
	</node>
	<node id="-369918" lat="58.1097805573" lon="7.39545277777">
		<tag k="name" v="Vadet" />
		<tag k="natural" v="water" />
		<tag k="ssr:stedsnr" v="507526" />
		<tag k="water" v="lake" />
	</node>
	<node id="-369908" lat="58.1703138854" lon="7.30355555574">
		<tag k="name" v="Risdalstjønn" />
		<tag k="natural" v="water" />
		<tag k="ssr:stedsnr" v="507409" />
	</node>
	<node id="-369880" lat="58.2268972178" lon="7.30488610376">
		<tag k="name" v="Rianstjønn" />
		<tag k="natural" v="water" />
		<tag k="ssr:stedsnr" v="507219" />
	</node>
	<node id="-369870" lat="58.194130554" lon="7.43333056098">
		<tag k="name" v="Lislevannet" />
		<tag k="natural" v="water" />
		<tag k="ssr:stedsnr" v="507153" />
		<tag k="water" v="lake" />
	</node>
	<node id="-369847" lat="58.0694277812" lon="7.18589722727">
		<tag k="name" v="Mørkestjønn" />
		<tag k="natural" v="water" />
		<tag k="ssr:stedsnr" v="507008" />
	</node>
	<node id="-369842" lat="58.161111108" lon="7.4649749928">
		<tag k="name" v="Lomstjørnane" />
		<tag k="natural" v="water" />
		<tag k="ssr:stedsnr" v="485764" />
	</node>
	<node id="-369839" lat="58.1463250025" lon="7.40902499562">
		<tag k="alt_name" v="Merslandsvannet" />
		<tag k="name" v="Mærslandsvatnet" />
		<tag k="natural" v="water" />
		<tag k="ssr:stedsnr" v="485720" />
		<tag k="water" v="lake" />
	</node>
	<node id="-369834" lat="58.20456389" lon="7.39564166453">
		<tag k="alt_name" v="Vasslandsvannet" />
		<tag k="name" v="Vasslandsvatnet" />
		<tag k="natural" v="water" />
		<tag k="ssr:stedsnr" v="485650" />
	</node>
	<node id="-369832" lat="58.0229944406" lon="7.08544443772">
		<tag k="alt_name" v="Jørstadvannet" />
		<tag k="name" v="Jørenstadvatnet" />
		<tag k="natural" v="water" />
		<tag k="ssr:stedsnr" v="485614" />
	</node>
	<node id="-369827" lat="58.1738027767" lon="7.25384166152">
		<tag k="alt_name" v="Refsvannet" />
		<tag k="name" v="Revsvatnet" />
		<tag k="natural" v="water" />
		<tag k="ssr:stedsnr" v="485440" />
	</node>
	<node id="-370203" lat="58.0767361079" lon="7.23748055498">
		<tag k="name" v="Fidjekilen" />
		<tag k="natural" v="bay" />
		<tag k="ssr:stedsnr" v="568947" />
	</node>
	<node id="-369823" lat="58.2120611152" lon="7.25148611476">
		<tag k="alt_name" v="Grønstjønn" />
		<tag k="name" v="Grøntjørn" />
		<tag k="natural" v="water" />
		<tag k="ssr:stedsnr" v="485346" />
	</node>
	<node id="-369761" lat="58.1076055516" lon="7.21502499812">
		<tag k="name" v="Udlandsvannet" />
		<tag k="natural" v="water" />
		<tag k="ssr:stedsnr" v="447903" />
		<tag k="water" v="lake" />
	</node>
	<node id="-371044" lat="58.163158336" lon="7.35968888377">
		<tag k="name" v="Skarpesvingen" />
		<tag k="ssr:stedsnr" v="811608" />
		<tag k="waterway" v="river" />
	</node>
	<node id="-369753" lat="58.057761108" lon="7.23363056084">
		<tag k="name" v="Lonetjønna" />
		<tag k="natural" v="water" />
		<tag k="ssr:stedsnr" v="447855" />
	</node>
	<node id="-369744" lat="58.2034305535" lon="7.244936117">
		<tag k="name" v="Svartevannet" />
		<tag k="natural" v="water" />
		<tag k="ssr:stedsnr" v="447791" />
		<tag k="water" v="lake" />
	</node>
	<node id="-369743" lat="58.0813722243" lon="7.29497222691">
		<tag k="name" v="Igletjønn" />
		<tag k="natural" v="water" />
		<tag k="ssr:stedsnr" v="447778" />
	</node>
	<node id="-369737" lat="58.0899166702" lon="7.2835694413">
		<tag k="name" v="Livollskilen" />
		<tag k="natural" v="bay" />
		<tag k="ssr:stedsnr" v="447724" />
	</node>
	<node id="-369733" lat="58.0576055587" lon="7.30306389615">
		<tag k="name" v="Hommestemmen" />
		<tag k="natural" v="water" />
		<tag k="ssr:stedsnr" v="447701" />
	</node>
	<node id="-369729" lat="58.1151249983" lon="7.30349443919">
		<tag k="name" v="Storfedstjønna" />
		<tag k="natural" v="water" />
		<tag k="ssr:stedsnr" v="447674" />
	</node>
	<node id="-369726" lat="58.1945472232" lon="7.27380555592">
		<tag k="name" v="Tronstadstemmen" />
		<tag k="natural" v="water" />
		<tag k="ssr:stedsnr" v="447659" />
	</node>
	<node id="-369717" lat="58.1999000038" lon="7.27093332735">
		<tag k="name" v="Svartevann" />
		<tag k="natural" v="water" />
		<tag k="ssr:stedsnr" v="447639" />
		<tag k="water" v="lake" />
	</node>
	<node id="-369713" lat="58.172827781" lon="7.29206110869">
		<tag k="name" v="Lonan" />
		<tag k="natural" v="water" />
		<tag k="ssr:stedsnr" v="447618" />
		<tag k="water" v="lake" />
	</node>
	<node id="-369704" lat="58.0994083348" lon="7.37419166951">
		<tag k="name" v="Maurodden" />
		<tag k="natural" v="cape" />
		<tag k="ssr:stedsnr" v="447519" />
	</node>
	<node id="-369698" lat="58.167127775" lon="7.33206666476">
		<tag k="name" v="Langetjønn" />
		<tag k="natural" v="water" />
		<tag k="ssr:stedsnr" v="447473" />
	</node>
	<node id="-369695" lat="58.1448499977" lon="7.44690000416">
		<tag k="name" v="Søyletjønna" />
		<tag k="natural" v="water" />
		<tag k="ssr:stedsnr" v="447434" />
	</node>
	<node id="-369694" lat="58.1539638922" lon="7.44583055266">
		<tag k="name" v="Ålgårdslona" />
		<tag k="natural" v="water" />
		<tag k="ssr:stedsnr" v="447427" />
		<tag k="water" v="lake" />
	</node>
	<node id="-368133" lat="58.2174583361" lon="7.27769999165">
		<tag k="name" v="Oksetjønn" />
		<tag k="natural" v="water" />
		<tag k="ssr:stedsnr" v="325279" />
	</node>
	<node id="-369691" lat="57.9930638846" lon="7.07647777505">
		<tag k="name" v="Stemmen" />
		<tag k="ssr:stedsnr" v="447358" />
		<tag k="waterway" v="dam" />
	</node>
	<node id="-369689" lat="58.1884777752" lon="7.30893333677">
		<tag k="name" v="Radetjønn" />
		<tag k="natural" v="water" />
		<tag k="ssr:stedsnr" v="447349" />
	</node>
	<node id="-369673" lat="58.0532777816" lon="7.16215278595">
		<tag k="name" v="Flegetjønna" />
		<tag k="natural" v="water" />
		<tag k="ssr:stedsnr" v="447041" />
	</node>
	<node id="-369657" lat="58.2305583332" lon="7.33891944672">
		<tag k="name" v="Teinefoss" />
		<tag k="natural" v="waterfall" />
		<tag k="ssr:stedsnr" v="446272" />
	</node>
	<node id="-369648" lat="58.1201416652" lon="7.43130277774">
		<tag k="name" v="Daletjønna" />
		<tag k="natural" v="water" />
		<tag k="ssr:stedsnr" v="446156" />
	</node>
	<node id="-369638" lat="58.187547224" lon="7.42940833557">
		<tag k="name" v="Sankestemmen" />
		<tag k="natural" v="water" />
		<tag k="ssr:stedsnr" v="446212" />
		<tag k="water" v="lake" />
	</node>
	<node id="-369636" lat="58.1896444411" lon="7.44309721514">
		<tag k="name" v="Sommerflortjønna" />
		<tag k="natural" v="water" />
		<tag k="ssr:stedsnr" v="446209" />
	</node>
	<node id="-369632" lat="58.1558250029" lon="7.45200000597">
		<tag k="alt_name" v="Sveinåsvannet" />
		<tag k="name" v="Sveinåsvatnet" />
		<tag k="natural" v="water" />
		<tag k="ssr:stedsnr" v="425808" />
	</node>
	<node id="-369631" lat="58.1506416622" lon="7.42556388792">
		<tag k="alt_name" v="Søylevannet" />
		<tag k="name" v="Søylevatnet" />
		<tag k="natural" v="water" />
		<tag k="ssr:stedsnr" v="425779" />
	</node>
	<node id="-369625" lat="58.0665305583" lon="7.22738333747">
		<tag k="alt_name" v="Tarvannet;Turvatnet" />
		<tag k="name" v="Tarvatnet" />
		<tag k="natural" v="water" />
		<tag k="ssr:stedsnr" v="425607" />
		<tag k="water" v="lake" />
	</node>
	<node id="-369617" lat="58.1510833355" lon="7.28832777767">
		<tag k="alt_name" v="Krovannet" />
		<tag k="name" v="Krokevatnet" />
		<tag k="natural" v="water" />
		<tag k="ssr:stedsnr" v="425460" />
	</node>
	<node id="-369575" lat="58.0614222182" lon="7.28387499848">
		<tag k="name" v="Rødbergsøya" />
		<tag k="place" v="island" />
		<tag k="ssr:stedsnr" v="265952" />
	</node>
	<node id="-369573" lat="58.1044722248" lon="7.20884722598">
		<tag k="name" v="Instetjønn" />
		<tag k="natural" v="water" />
		<tag k="ssr:stedsnr" v="265915" />
	</node>
	<node id="-369570" lat="58.1141944483" lon="7.21078055963">
		<tag k="name" v="Sandvika" />
		<tag k="natural" v="bay" />
		<tag k="ssr:stedsnr" v="265904" />
	</node>
	<node id="-369555" lat="58.1226972218" lon="7.31268610504">
		<tag k="name" v="Morvannet" />
		<tag k="natural" v="water" />
		<tag k="ssr:stedsnr" v="265768" />
		<tag k="water" v="lake" />
	</node>
	<node id="-369551" lat="58.1148527787" lon="7.38048056144">
		<tag k="name" v="Paultjønna" />
		<tag k="natural" v="water" />
		<tag k="ssr:stedsnr" v="265740" />
	</node>
	<node id="-369546" lat="58.1929805538" lon="7.25145832832">
		<tag k="name" v="Maurtjønn" />
		<tag k="natural" v="water" />
		<tag k="ssr:stedsnr" v="265704" />
	</node>
	<node id="-369545" lat="58.1644833356" lon="7.38985278598">
		<tag k="name" v="Stemmen" />
		<tag k="natural" v="water" />
		<tag k="ssr:stedsnr" v="265638" />
		<tag k="water" v="lake" />
	</node>
	<node id="-369544" lat="58.1276527746" lon="7.36194445188">
		<tag k="name" v="Regevigsbekken" />
		<tag k="ssr:stedsnr" v="265599" />
		<tag k="waterway" v="stream" />
	</node>
	<node id="-369537" lat="58.0938444415" lon="7.31136944942">
		<tag k="name" v="Sevtorva" />
		<tag k="natural" v="cape" />
		<tag k="ssr:stedsnr" v="265540" />
	</node>
	<node id="-369535" lat="58.0878888877" lon="7.36394166837">
		<tag k="name" v="Storbekken" />
		<tag k="ssr:stedsnr" v="265525" />
		<tag k="waterway" v="stream" />
	</node>
	<node id="-369529" lat="58.1682250045" lon="7.42553611807">
		<tag k="name" v="Neset" />
		<tag k="natural" v="cape" />
		<tag k="ssr:stedsnr" v="265431" />
	</node>
	<node id="-369499" lat="58.0933305548" lon="7.25850832589">
		<tag k="name" v="Haugenestjønn" />
		<tag k="natural" v="water" />
		<tag k="ssr:stedsnr" v="264857" />
	</node>
	<node id="-369498" lat="58.1260222194" lon="7.23162222921">
		<tag k="name" v="Storepytten" />
		<tag k="natural" v="water" />
		<tag k="ssr:stedsnr" v="264837" />
		<tag k="water" v="lake" />
	</node>
	<node id="-369497" lat="58.1311222216" lon="7.26760278008">
		<tag k="name" v="Vollebekken" />
		<tag k="ssr:stedsnr" v="264831" />
		<tag k="waterway" v="stream" />
	</node>
	<node id="-369496" lat="58.074205552" lon="7.27205277468">
		<tag k="name" v="Gjedelandstjønna" />
		<tag k="natural" v="water" />
		<tag k="ssr:stedsnr" v="264806" />
	</node>
	<node id="-369491" lat="58.1908444471" lon="7.29391666943">
		<tag k="name" v="Fanteholmen" />
		<tag k="place" v="islet" />
		<tag k="ssr:stedsnr" v="264666" />
	</node>
	<node id="-369488" lat="58.1710027774" lon="7.28637223068">
		<tag k="name" v="Smalavannet" />
		<tag k="natural" v="water" />
		<tag k="ssr:stedsnr" v="264614" />
		<tag k="water" v="lake" />
	</node>
	<node id="-369482" lat="58.1387138853" lon="7.40512499262">
		<tag k="name" v="Skuretjønna" />
		<tag k="natural" v="water" />
		<tag k="ssr:stedsnr" v="264397" />
	</node>
	<node id="-369466" lat="58.1805472242" lon="7.43938889185">
		<tag k="name" v="Hestebekken" />
		<tag k="ssr:stedsnr" v="264188" />
		<tag k="waterway" v="stream" />
	</node>
	<node id="-369456" lat="58.1251555584" lon="7.42919166991">
		<tag k="name" v="Søylevannet" />
		<tag k="natural" v="water" />
		<tag k="ssr:stedsnr" v="264135" />
		<tag k="water" v="lake" />
	</node>
	<node id="-369444" lat="58.0312055538" lon="7.10498610501">
		<tag k="name" v="Bommen" />
		<tag k="natural" v="bay" />
		<tag k="ssr:stedsnr" v="264077" />
	</node>
	<node id="-369435" lat="58.0624611135" lon="7.37685556187">
		<tag k="alt_name" v="Hegrestadvannet" />
		<tag k="name" v="Hegrestadvatnet" />
		<tag k="natural" v="water" />
		<tag k="ssr:stedsnr" v="243908" />
	</node>
	<node id="-369434" lat="58.069349999" lon="7.39804999239">
		<tag k="alt_name" v="Stuvannet" />
		<tag k="name" v="Stuvvatnet" />
		<tag k="natural" v="water" />
		<tag k="ssr:stedsnr" v="243905" />
	</node>
	<node id="-369429" lat="58.1697527778" lon="7.42243333727">
		<tag k="alt_name" v="Tjomslandsvannet" />
		<tag k="name" v="Tjomslandsvatnet" />
		<tag k="natural" v="water" />
		<tag k="ssr:stedsnr" v="243798" />
		<tag k="water" v="lake" />
	</node>
	<node id="-371471" lat="58.0721750042" lon="7.24325000663">
		<tag k="name" v="Loneholmen" />
		<tag k="place" v="island" />
		<tag k="ssr:stedsnr" v="932941" />
	</node>
	<node id="-369422" lat="58.0648777806" lon="7.25799166805">
		<tag k="alt_name" v="Mågevannet" />
		<tag k="name" v="Mågetjern" />
		<tag k="natural" v="water" />
		<tag k="ssr:stedsnr" v="243578" />
	</node>
	<node id="-369420" lat="58.1474083334" lon="7.27527221452">
		<tag k="alt_name" v="Døblevannet" />
		<tag k="name" v="Døblevatnet" />
		<tag k="natural" v="water" />
		<tag k="ssr:stedsnr" v="243547" />
	</node>
	<node id="-369416" lat="58.2215722264" lon="7.33799443769">
		<tag k="alt_name" v="Audnedalselva" />
		<tag k="name" v="Audna" />
		<tag k="ssr:stedsnr" v="243429" />
		<tag k="waterway" v="river" />
	</node>
	<node id="-369415" lat="58.21630052" lon="7.24017504771">
		<tag k="name" v="Sandtjørn" />
		<tag k="natural" v="water" />
		<tag k="ssr:stedsnr" v="243417" />
	</node>
	<node id="-369414" lat="58.2066277739" lon="7.24519999429">
		<tag k="alt_name" v="Langevannet" />
		<tag k="name" v="Langevatnet" />
		<tag k="natural" v="water" />
		<tag k="ssr:stedsnr" v="243412" />
	</node>
	<node id="-371460" lat="58.0463055538" lon="7.23995833405">
		<tag k="name" v="Agnedalstjønna" />
		<tag k="natural" v="water" />
		<tag k="ssr:stedsnr" v="932876" />
	</node>
	<node id="-371456" lat="58.0889638881" lon="7.28011944576">
		<tag k="name" v="Sauenesodden" />
		<tag k="natural" v="cape" />
		<tag k="ssr:stedsnr" v="932838" />
	</node>
	<node id="-371454" lat="58.1505305536" lon="7.27179445232">
		<tag k="name" v="Lauvvannet" />
		<tag k="natural" v="water" />
		<tag k="ssr:stedsnr" v="932823" />
		<tag k="water" v="lake" />
	</node>
	<node id="-371453" lat="58.1488277762" lon="7.27101110922">
		<tag k="name" v="Naudenes" />
		<tag k="natural" v="cape" />
		<tag k="ssr:stedsnr" v="932819" />
	</node>
	<node id="-371442" lat="58.1185499974" lon="7.27694444722">
		<tag k="name" v="Heddanstjønn" />
		<tag k="natural" v="water" />
		<tag k="ssr:stedsnr" v="932736" />
	</node>
	<node id="-371441" lat="58.1218249993" lon="7.27268332593">
		<tag k="name" v="Stilandstjønn" />
		<tag k="natural" v="water" />
		<tag k="ssr:stedsnr" v="932734" />
	</node>
	<node id="-371440" lat="58.1222944445" lon="7.28687777809">
		<tag k="name" v="Hestetjønn" />
		<tag k="natural" v="water" />
		<tag k="ssr:stedsnr" v="932729" />
	</node>
	<node id="-371439" lat="58.0929527742" lon="7.27249444412">
		<tag k="name" v="Fardalsbukta" />
		<tag k="natural" v="bay" />
		<tag k="ssr:stedsnr" v="932713" />
	</node>
	<node id="-371438" lat="58.0969499961" lon="7.26375833991">
		<tag k="name" v="Teineholmen" />
		<tag k="place" v="islet" />
		<tag k="ssr:stedsnr" v="932711" />
	</node>
	<node id="-371436" lat="58.106686112" lon="7.30129166046">
		<tag k="name" v="Landåstjønna" />
		<tag k="natural" v="water" />
		<tag k="ssr:stedsnr" v="932646" />
	</node>
	<node id="-371430" lat="58.1545888915" lon="7.3269916666">
		<tag k="name" v="Mågeodden" />
		<tag k="place" v="island" />
		<tag k="ssr:stedsnr" v="932561" />
	</node>
	<node id="-371429" lat="58.1490555533" lon="7.38766111059">
		<tag k="alt_name" v="Smedslandstjønna" />
		<tag k="name" v="Smedlandstjønna" />
		<tag k="natural" v="water" />
		<tag k="ssr:stedsnr" v="932553" />
	</node>
	<node id="-371427" lat="58.1413666692" lon="7.34001111181">
		<tag k="name" v="Heptetjønn" />
		<tag k="natural" v="water" />
		<tag k="ssr:stedsnr" v="932544" />
	</node>
	<node id="-371423" lat="58.0996750001" lon="7.35935278552">
		<tag k="name" v="Småtjønnan" />
		<tag k="natural" v="water" />
		<tag k="ssr:stedsnr" v="932523" />
	</node>
	<node id="-371422" lat="58.0917361137" lon="7.3358444408">
		<tag k="name" v="Nordre Krokevann" />
		<tag k="natural" v="water" />
		<tag k="ssr:stedsnr" v="932507" />
		<tag k="water" v="lake" />
	</node>
	<node id="-371418" lat="58.1353194431" lon="7.43461666905">
		<tag k="name" v="Lonansbekken" />
		<tag k="ssr:stedsnr" v="932450" />
		<tag k="waterway" v="stream" />
	</node>
	<node id="-371417" lat="58.1322055528" lon="7.44850554965">
		<tag k="name" v="Kvernhusbekken" />
		<tag k="ssr:stedsnr" v="932446" />
		<tag k="waterway" v="stream" />
	</node>
	<node id="-371414" lat="58.1776611114" lon="7.31223334081">
		<tag k="name" v="Heptetjønn" />
		<tag k="natural" v="water" />
		<tag k="ssr:stedsnr" v="932420" />
	</node>
	<node id="-371413" lat="58.1757750027" lon="7.30359444004">
		<tag k="name" v="Bualona" />
		<tag k="natural" v="water" />
		<tag k="ssr:stedsnr" v="932415" />
		<tag k="water" v="lake" />
	</node>
	<node id="-371409" lat="58.1815166655" lon="7.30644999919">
		<tag k="name" v="Brannsnes" />
		<tag k="natural" v="cape" />
		<tag k="ssr:stedsnr" v="932406" />
	</node>
	<node id="-371408" lat="58.1526138923" lon="7.43471945183">
		<tag k="name" v="Lonan" />
		<tag k="natural" v="water" />
		<tag k="ssr:stedsnr" v="932403" />
		<tag k="water" v="lake" />
	</node>
	<node id="-371405" lat="58.1762305535" lon="7.33471110578">
		<tag k="name" v="Gulltjønn" />
		<tag k="natural" v="water" />
		<tag k="ssr:stedsnr" v="932375" />
	</node>
	<node id="-371394" lat="58.2010555595" lon="7.31196944278">
		<tag k="name" v="Iddevannet" />
		<tag k="natural" v="water" />
		<tag k="ssr:stedsnr" v="932300" />
		<tag k="water" v="lake" />
	</node>
	<node id="-369339" lat="58.0722777811" lon="7.3804611126">
		<tag k="name" v="Drågtjønna" />
		<tag k="natural" v="water" />
		<tag k="ssr:stedsnr" v="205743" />
	</node>
	<node id="-371384" lat="58.2207305539" lon="7.39807221782">
		<tag k="name" v="Lonen" />
		<tag k="ssr:stedsnr" v="932236" />
		<tag k="waterway" v="river" />
	</node>
	<node id="-369330" lat="58.0466444474" lon="7.21624444963">
		<tag k="name" v="Storetjønna" />
		<tag k="natural" v="water" />
		<tag k="ssr:stedsnr" v="204940" />
	</node>
	<node id="-371377" lat="58.2152027791" lon="7.40711944524">
		<tag k="name" v="Bjåtjønn" />
		<tag k="natural" v="water" />
		<tag k="ssr:stedsnr" v="932186" />
	</node>
	<node id="-369328" lat="58.0854499959" lon="7.19701944691">
		<tag k="name" v="Slåtetjønna" />
		<tag k="natural" v="water" />
		<tag k="ssr:stedsnr" v="204874" />
	</node>
	<node id="-369325" lat="58.1579222233" lon="7.2900805542">
		<tag k="name" v="Eigedalsvannet" />
		<tag k="natural" v="water" />
		<tag k="ssr:stedsnr" v="204836" />
		<tag k="water" v="lake" />
	</node>
	<node id="-369323" lat="58.1277222225" lon="7.2577888882">
		<tag k="name" v="Lonan" />
		<tag k="natural" v="water" />
		<tag k="ssr:stedsnr" v="204808" />
		<tag k="water" v="lake" />
	</node>
	<node id="-369322" lat="58.1341916667" lon="7.29462221861">
		<tag k="name" v="Stemman" />
		<tag k="natural" v="water" />
		<tag k="ssr:stedsnr" v="204794" />
	</node>
	<node id="-369319" lat="58.0604916708" lon="7.27053889124">
		<tag k="name" v="Lillestemmen" />
		<tag k="ssr:stedsnr" v="204766" />
		<tag k="waterway" v="dam" />
	</node>
	<node id="-369313" lat="58.1177805563" lon="7.37805555052">
		<tag k="name" v="Litjønna" />
		<tag k="natural" v="water" />
		<tag k="ssr:stedsnr" v="204671" />
	</node>
	<node id="-369312" lat="58.1205583378" lon="7.35889167211">
		<tag k="name" v="Elistjønna" />
		<tag k="natural" v="water" />
		<tag k="ssr:stedsnr" v="204666" />
	</node>
	<node id="-369306" lat="58.1879722255" lon="7.28683054972">
		<tag k="name" v="Sagestemmen" />
		<tag k="natural" v="water" />
		<tag k="ssr:stedsnr" v="204614" />
	</node>
	<node id="-369305" lat="58.1732499996" lon="7.26531388819">
		<tag k="name" v="Åltjønn" />
		<tag k="natural" v="water" />
		<tag k="ssr:stedsnr" v="204600" />
	</node>
	<node id="-369302" lat="58.1675944457" lon="7.37948888654">
		<tag k="name" v="Libekken" />
		<tag k="ssr:stedsnr" v="204556" />
		<tag k="waterway" v="stream" />
	</node>
	<node id="-371348" lat="58.0980749982" lon="7.37421388622">
		<tag k="alt_name" v="Grundelandsvannet" />
		<tag k="name" v="Grundelandsvatnet" />
		<tag k="natural" v="water" />
		<tag k="ssr:stedsnr" v="910853" />
		<tag k="water" v="lake" />
	</node>
	<node id="-369296" lat="58.1027472219" lon="7.3485500007">
		<tag k="name" v="Kvernhusbekken" />
		<tag k="ssr:stedsnr" v="204482" />
		<tag k="waterway" v="stream" />
	</node>
	<node id="-371343" lat="58.1515638854" lon="7.45121388533">
		<tag k="alt_name" v="Hålandslonan" />
		<tag k="name" v="Hålandslona" />
		<tag k="natural" v="water" />
		<tag k="ssr:stedsnr" v="910758" />
		<tag k="water" v="lake" />
	</node>
	<node id="-371339" lat="58.0176083302" lon="7.07321388659">
		<tag k="alt_name" v="Rotjønn" />
		<tag k="name" v="Rotjørn" />
		<tag k="natural" v="water" />
		<tag k="ssr:stedsnr" v="910671" />
	</node>
	<node id="-371334" lat="58.1855555545" lon="7.32589999925">
		<tag k="alt_name" v="Røyvannet" />
		<tag k="name" v="Røyvatnet" />
		<tag k="natural" v="water" />
		<tag k="ssr:stedsnr" v="910440" />
	</node>
	<node id="-371333" lat="58.2253777821" lon="7.31843055134">
		<tag k="alt_name" v="Krosstjønn" />
		<tag k="name" v="Krosstjørna" />
		<tag k="natural" v="water" />
		<tag k="ssr:stedsnr" v="910422" />
	</node>
	<node id="-369252" lat="58.207661109" lon="7.4320083374">
		<tag k="name" v="Lomstjønna" />
		<tag k="natural" v="water" />
		<tag k="ssr:stedsnr" v="203186" />
	</node>
	<node id="-371297" lat="58.0471777748" lon="7.33170555839">
		<tag k="name" v="Åsvannet" />
		<tag k="natural" v="water" />
		<tag k="ssr:stedsnr" v="872758" />
		<tag k="water" v="lake" />
	</node>
	<node id="-371296" lat="58.0495805519" lon="7.33344444994">
		<tag k="name" v="Lona" />
		<tag k="natural" v="water" />
		<tag k="ssr:stedsnr" v="872755" />
	</node>
	<node id="-371295" lat="58.075088887" lon="7.36251111149">
		<tag k="name" v="Slåttelona" />
		<tag k="natural" v="water" />
		<tag k="ssr:stedsnr" v="872744" />
	</node>
	<node id="-371294" lat="58.065047225" lon="7.28792777012">
		<tag k="name" v="Mjåvann" />
		<tag k="natural" v="water" />
		<tag k="ssr:stedsnr" v="872673" />
		<tag k="water" v="lake" />
	</node>
	<node id="-371290" lat="58.155494442" lon="7.3950333371">
		<tag k="name" v="Tvitjønnan" />
		<tag k="natural" v="water" />
		<tag k="ssr:stedsnr" v="872638" />
	</node>
	<node id="-369240" lat="58.0619611071" lon="7.16236666417">
		<tag k="name" v="Vålandstjønna" />
		<tag k="natural" v="water" />
		<tag k="ssr:stedsnr" v="203029" />
	</node>
	<node id="-371286" lat="58.0920833345" lon="7.32248333505">
		<tag k="name" v="Kvernbekken" />
		<tag k="ssr:stedsnr" v="872560" />
		<tag k="waterway" v="stream" />
	</node>
	<node id="-371285" lat="58.1415138858" lon="7.35655278407">
		<tag k="name" v="Hagetjønna" />
		<tag k="natural" v="water" />
		<tag k="ssr:stedsnr" v="872433" />
	</node>
	<node id="-369233" lat="58.021361115" lon="7.09196666386">
		<tag k="name" v="Mågeholmen" />
		<tag k="natural" v="cape" />
		<tag k="ssr:stedsnr" v="203107" />
	</node>
	<node id="-371279" lat="58.1192000026" lon="7.23430833473">
		<tag k="name" v="Høylandsbekken" />
		<tag k="ssr:stedsnr" v="871991" />
		<tag k="waterway" v="stream" />
	</node>
	<node id="-369228" lat="58.1516833329" lon="7.41688611942">
		<tag k="alt_name" v="Mevannet" />
		<tag k="name" v="Midvatnet" />
		<tag k="natural" v="water" />
		<tag k="ssr:stedsnr" v="182770" />
	</node>
	<node id="-371275" lat="58.0749527759" lon="7.24335000516">
		<tag k="name" v="Fidjeholmen" />
		<tag k="place" v="island" />
		<tag k="ssr:stedsnr" v="871940" />
	</node>
	<node id="-369226" lat="58.0187555548" lon="7.09330000234">
		<tag k="alt_name" v="Flatebøvannet" />
		<tag k="name" v="Flatebøvatnet" />
		<tag k="natural" v="water" />
		<tag k="ssr:stedsnr" v="182675" />
	</node>
	<node id="-371270" lat="58.1072611075" lon="7.21815000226">
		<tag k="name" v="Kalvenes" />
		<tag k="natural" v="cape" />
		<tag k="ssr:stedsnr" v="871908" />
	</node>
	<node id="-371264" lat="58.1496027763" lon="7.29203055061">
		<tag k="name" v="Smalsund" />
		<tag k="natural" v="strait" />
		<tag k="ssr:stedsnr" v="871843" />
	</node>
	<node id="-371260" lat="58.1322805554" lon="7.24876667114">
		<tag k="name" v="Gulltjønn" />
		<tag k="natural" v="water" />
		<tag k="ssr:stedsnr" v="871798" />
	</node>
	<node id="-369211" lat="58.1828166702" lon="7.25882500267">
		<tag k="alt_name" v="Mjåvannet" />
		<tag k="name" v="Mjåvatnet" />
		<tag k="natural" v="water" />
		<tag k="ssr:stedsnr" v="182434" />
	</node>
	<node id="-369210" lat="58.2033285888" lon="7.29195403449">
		<tag k="alt_name" v="Lelandsvannet" />
		<tag k="name" v="Lelandsvatnet" />
		<tag k="natural" v="water" />
		<tag k="ssr:stedsnr" v="182403" />
		<tag k="water" v="lake" />
	</node>
	<node id="-371253" lat="58.1057666697" lon="7.28873055186">
		<tag k="name" v="Stemmen" />
		<tag k="natural" v="water" />
		<tag k="ssr:stedsnr" v="871744" />
		<tag k="water" v="lake" />
	</node>
	<node id="-371249" lat="58.1963750019" lon="7.2788361116">
		<tag k="name" v="Tronstadbekken" />
		<tag k="ssr:stedsnr" v="871650" />
		<tag k="waterway" v="stream" />
	</node>
	<node id="-371247" lat="58.2023388903" lon="7.24969722035">
		<tag k="name" v="Lomstjønn" />
		<tag k="natural" v="water" />
		<tag k="ssr:stedsnr" v="871630" />
	</node>
	<node id="-371246" lat="58.1708027799" lon="7.27600000621">
		<tag k="name" v="Jonsodden" />
		<tag k="natural" v="cape" />
		<tag k="ssr:stedsnr" v="871615" />
	</node>
	<node id="-371242" lat="58.1040055516" lon="7.36971666753">
		<tag k="name" v="Mørketjønna" />
		<tag k="natural" v="water" />
		<tag k="ssr:stedsnr" v="871534" />
	</node>
	<node id="-371240" lat="58.1513750017" lon="7.31164999683">
		<tag k="name" v="Libekken" />
		<tag k="ssr:stedsnr" v="871494" />
		<tag k="waterway" v="stream" />
	</node>
	<node id="-371235" lat="58.1445638897" lon="7.4522000008">
		<tag k="name" v="Svartetjønna" />
		<tag k="natural" v="water" />
		<tag k="ssr:stedsnr" v="871435" />
	</node>
	<node id="-371234" lat="58.1291000039" lon="7.43771666177">
		<tag k="name" v="Trongslevannet" />
		<tag k="natural" v="water" />
		<tag k="ssr:stedsnr" v="871419" />
		<tag k="water" v="lake" />
	</node>
	<node id="-371229" lat="58.1632083327" lon="7.42980555272">
		<tag k="name" v="Bjortjønna" />
		<tag k="natural" v="water" />
		<tag k="ssr:stedsnr" v="871388" />
	</node>
	<node id="-371226" lat="58.129991664" lon="7.38899166001">
		<tag k="name" v="Vasslandsvannet" />
		<tag k="natural" v="water" />
		<tag k="ssr:stedsnr" v="871375" />
		<tag k="water" v="lake" />
	</node>
	<node id="-371223" lat="57.99561067" lon="7.0457382251">
		<tag k="name" v="Nertjønna" />
		<tag k="natural" v="water" />
		<tag k="ssr:stedsnr" v="871359" />
	</node>
	<node id="-371212" lat="58.2290472185" lon="7.25306666395">
		<tag k="name" v="Maurvannet" />
		<tag k="natural" v="water" />
		<tag k="ssr:stedsnr" v="871251" />
		<tag k="water" v="lake" />
	</node>
	<node id="-371211" lat="58.0860972199" lon="7.2292472156">
		<tag k="name" v="Nøkkevann" />
		<tag k="natural" v="water" />
		<tag k="ssr:stedsnr" v="871237" />
	</node>
	<node id="-371208" lat="58.2250888897" lon="7.38518333492">
		<tag k="name" v="Tvitjønn" />
		<tag k="natural" v="water" />
		<tag k="ssr:stedsnr" v="871220" />
	</node>
	<node id="-371194" lat="58.2052694438" lon="7.42143056185">
		<tag k="name" v="Hudetjønna" />
		<tag k="natural" v="water" />
		<tag k="ssr:stedsnr" v="871127" />
	</node>
	<node id="-369134" lat="58.2364277766" lon="7.26444444724">
		<tag k="name" v="Tangen" />
		<tag k="natural" v="cape" />
		<tag k="ssr:stedsnr" v="143975" />
	</node>
	<node id="-369130" lat="58.074075001" lon="7.24390555147">
		<tag k="name" v="Prestholman" />
		<tag k="place" v="island" />
		<tag k="ssr:stedsnr" v="143935" />
	</node>
	<node id="-369126" lat="58.1015249986" lon="7.18702499542">
		<tag k="name" v="Havelandstjønna" />
		<tag k="natural" v="water" />
		<tag k="ssr:stedsnr" v="143910" />
	</node>
	<node id="-371171" lat="58.2205388881" lon="7.26876110338">
		<tag k="alt_name" v="Vidjumstadvannet" />
		<tag k="name" v="Viggjamstadvatnet" />
		<tag k="natural" v="water" />
		<tag k="ssr:stedsnr" v="850438" />
	</node>
	<node id="-371170" lat="58.2106777821" lon="7.26551111244">
		<tag k="alt_name" v="Stølevannet" />
		<tag k="name" v="Stølevatnet" />
		<tag k="natural" v="water" />
		<tag k="ssr:stedsnr" v="850430" />
	</node>
	<node id="-369118" lat="58.1437083313" lon="7.27453332782">
		<tag k="name" v="Skogkumstjønn" />
		<tag k="natural" v="water" />
		<tag k="ssr:stedsnr" v="143811" />
	</node>
	<node id="-369115" lat="58.0749638856" lon="7.25304444344">
		<tag k="name" v="Stoa" />
		<tag k="natural" v="bay" />
		<tag k="ssr:stedsnr" v="143783" />
	</node>
	<node id="-371162" lat="58.1589833294" lon="7.40405832881">
		<tag k="alt_name" v="Stølevannet" />
		<tag k="name" v="Stølevatnet" />
		<tag k="natural" v="water" />
		<tag k="ssr:stedsnr" v="849829" />
	</node>
	<node id="-369110" lat="58.1161277739" lon="7.25969999656">
		<tag k="name" v="Svartetjønn" />
		<tag k="natural" v="water" />
		<tag k="ssr:stedsnr" v="143745" />
	</node>
	<node id="-369105" lat="58.1049944486" lon="7.31982222287">
		<tag k="name" v="Hogsåna" />
		<tag k="ssr:stedsnr" v="143683" />
		<tag k="waterway" v="stream" />
	</node>
	<node id="-369104" lat="58.1979583315" lon="7.29375278175">
		<tag k="name" v="Liansholmen" />
		<tag k="place" v="islet" />
		<tag k="ssr:stedsnr" v="143676" />
	</node>
	<node id="-369098" lat="58.1443166655" lon="7.36463889545">
		<tag k="name" v="Fotskarbekken" />
		<tag k="ssr:stedsnr" v="143578" />
		<tag k="waterway" v="stream" />
	</node>
	<node id="-369097" lat="58.1358944403" lon="7.40199167236">
		<tag k="name" v="Lonan" />
		<tag k="natural" v="water" />
		<tag k="ssr:stedsnr" v="143569" />
		<tag k="water" v="lake" />
	</node>
	<node id="-369096" lat="58.0617101365" lon="7.33386456426">
		<tag k="name" v="Krokevannet" />
		<tag k="natural" v="water" />
		<tag k="ssr:stedsnr" v="143642" />
		<tag k="water" v="lake" />
	</node>
	<node id="-369090" lat="58.1553194489" lon="7.40467222064">
		<tag k="name" v="Mjåvannet" />
		<tag k="natural" v="water" />
		<tag k="ssr:stedsnr" v="143615" />
		<tag k="water" v="lake" />
	</node>
	<node id="-371104" lat="58.0592361152" lon="7.22953056265">
		<tag k="name" v="Lonebekken" />
		<tag k="ssr:stedsnr" v="829351" />
		<tag k="waterway" v="stream" />
	</node>
	<node id="-369086" lat="58.1449583335" lon="7.32402223036">
		<tag k="name" v="Øynan" />
		<tag k="natural" v="cape" />
		<tag k="ssr:stedsnr" v="143566" />
	</node>
	<node id="-369084" lat="58.1337972216" lon="7.3186611069">
		<tag k="name" v="Sambekken" />
		<tag k="ssr:stedsnr" v="143556" />
		<tag k="waterway" v="stream" />
	</node>
	<node id="-369082" lat="58.0875777749" lon="7.33108055733">
		<tag k="name" v="Stemman" />
		<tag k="natural" v="water" />
		<tag k="ssr:stedsnr" v="143552" />
	</node>
	<node id="-369080" lat="58.1300638877" lon="7.44653888952">
		<tag k="name" v="Brunevannet" />
		<tag k="natural" v="water" />
		<tag k="ssr:stedsnr" v="143457" />
		<tag k="water" v="lake" />
	</node>
	<node id="-369078" lat="58.1493277786" lon="7.44329999498">
		<tag k="name" v="Sandvannet" />
		<tag k="natural" v="water" />
		<tag k="ssr:stedsnr" v="143394" />
		<tag k="water" v="lake" />
	</node>
	<node id="-369077" lat="58.1627166665" lon="7.45145556311">
		<tag k="name" v="Holstøtjønna" />
		<tag k="natural" v="water" />
		<tag k="ssr:stedsnr" v="143392" />
	</node>
	<node id="-369075" lat="58.1601916672" lon="7.44213888465">
		<tag k="name" v="Stegevannet" />
		<tag k="natural" v="water" />
		<tag k="ssr:stedsnr" v="143385" />
		<tag k="water" v="lake" />
	</node>
	<node id="-369062" lat="58.1826166698" lon="7.30725555109">
		<tag k="name" v="Brannsnesbukta" />
		<tag k="natural" v="bay" />
		<tag k="ssr:stedsnr" v="143403" />
	</node>
	<node id="-369059" lat="58.1896555511" lon="7.32479721943">
		<tag k="name" v="Stølstjønn" />
		<tag k="natural" v="water" />
		<tag k="ssr:stedsnr" v="143344" />
	</node>
	<node id="-369056" lat="58.1367805562" lon="7.38171388189">
		<tag k="name" v="Storebekken" />
		<tag k="ssr:stedsnr" v="143356" />
		<tag k="waterway" v="stream" />
	</node>
	<node id="-369039" lat="58.2234138883" lon="7.25303333927">
		<tag k="name" v="Kråkevannet" />
		<tag k="natural" v="water" />
		<tag k="ssr:stedsnr" v="142274" />
		<tag k="water" v="lake" />
	</node>
	<node id="-369035" lat="58.1908027804" lon="7.42964166022">
		<tag k="name" v="Haianslonan" />
		<tag k="natural" v="water" />
		<tag k="ssr:stedsnr" v="142193" />
		<tag k="water" v="lake" />
	</node>
	<node id="-369029" lat="58.2033666658" lon="7.31126110416">
		<tag k="name" v="Mjåvannet" />
		<tag k="natural" v="water" />
		<tag k="ssr:stedsnr" v="142312" />
		<tag k="water" v="lake" />
	</node>
	<node id="-371071" lat="58.097238888" lon="7.18723333118">
		<tag k="name" v="Krogstjønn" />
		<tag k="natural" v="water" />
		<tag k="ssr:stedsnr" v="811875" />
	</node>
	<node id="-371066" lat="58.1584027769" lon="7.26556110633">
		<tag k="name" v="Gunnertjønn" />
		<tag k="natural" v="water" />
		<tag k="ssr:stedsnr" v="811824" />
	</node>
	<node id="-369017" lat="58.0301305549" lon="7.1055583343">
		<tag k="name" v="Ramsvika" />
		<tag k="natural" v="bay" />
		<tag k="ssr:stedsnr" v="142098" />
	</node>
	<node id="-371062" lat="58.2074388856" lon="7.29288333928">
		<tag k="name" v="Snippen" />
		<tag k="place" v="island" />
		<tag k="ssr:stedsnr" v="811780" />
	</node>
	<node id="-371060" lat="58.0737138916" lon="7.28316666498">
		<tag k="name" v="Harebekken" />
		<tag k="ssr:stedsnr" v="811767" />
		<tag k="waterway" v="stream" />
	</node>
	<node id="-371058" lat="58.065322222" lon="7.26464165928">
		<tag k="name" v="Gulltjønna" />
		<tag k="natural" v="water" />
		<tag k="ssr:stedsnr" v="811761" />
	</node>
	<node id="-371057" lat="58.0640249983" lon="7.29966111558">
		<tag k="name" v="Migeren" />
		<tag k="ssr:stedsnr" v="811760" />
		<tag k="waterway" v="stream" />
	</node>
	<node id="-371051" lat="58.1208111131" lon="7.38660278157">
		<tag k="name" v="Kvernhustjønna" />
		<tag k="natural" v="water" />
		<tag k="ssr:stedsnr" v="811677" />
	</node>
	<node id="-371046" lat="58.0740722217" lon="7.31583889649">
		<tag k="name" v="Herstøltjønna" />
		<tag k="natural" v="water" />
		<tag k="ssr:stedsnr" v="811637" />
	</node>
	<node id="-368996" lat="58.1107083318" lon="7.2821361161">
		<tag k="alt_name" v="Store Faksevann" />
		<tag k="name" v="Faksevatnet" />
		<tag k="natural" v="water" />
		<tag k="ssr:stedsnr" v="121511" />
	</node>
	<node id="-368995" lat="58.2277916648" lon="7.27025000822">
		<tag k="alt_name" v="Sandvannet" />
		<tag k="name" v="Sandvatnet" />
		<tag k="natural" v="water" />
		<tag k="ssr:stedsnr" v="121413" />
	</node>
	<node id="-371042" lat="58.1652055594" lon="7.38585833901">
		<tag k="name" v="Beverlona" />
		<tag k="natural" v="water" />
		<tag k="ssr:stedsnr" v="811597" />
		<tag k="water" v="lake" />
	</node>
	<node id="-371039" lat="58.0970999979" lon="7.36748056014">
		<tag k="name" v="Kilen" />
		<tag k="natural" v="bay" />
		<tag k="ssr:stedsnr" v="811534" />
	</node>
	<node id="-371037" lat="58.1595694458" lon="7.32281944814">
		<tag k="name" v="Vestre Hobdekilen" />
		<tag k="natural" v="bay" />
		<tag k="ssr:stedsnr" v="811501" />
	</node>
	<node id="-371036" lat="58.1568083347" lon="7.32739167224">
		<tag k="name" v="Heimre Hobdekilen" />
		<tag k="natural" v="bay" />
		<tag k="ssr:stedsnr" v="811498" />
	</node>
	<node id="-371034" lat="58.1583416639" lon="7.33915000018">
		<tag k="name" v="Kleivstjønn" />
		<tag k="natural" v="water" />
		<tag k="ssr:stedsnr" v="811493" />
	</node>
	<node id="-371033" lat="58.1663472212" lon="7.33318888969">
		<tag k="name" v="Styggetjønn" />
		<tag k="natural" v="water" />
		<tag k="ssr:stedsnr" v="811482" />
	</node>
	<node id="-371027" lat="58.1801777789" lon="7.32608332989">
		<tag k="name" v="Røytjønn" />
		<tag k="natural" v="water" />
		<tag k="ssr:stedsnr" v="811411" />
	</node>
	<node id="-371026" lat="58.1627916676" lon="7.41805277455">
		<tag k="name" v="Mørkevannet" />
		<tag k="natural" v="water" />
		<tag k="ssr:stedsnr" v="811399" />
		<tag k="water" v="lake" />
	</node>
	<node id="-368969" lat="58.0594444424" lon="7.39999166235">
		<tag k="name" v="Isumstadvannet" />
		<tag k="natural" v="water" />
		<tag k="ssr:stedsnr" v="117157" />
	</node>
	<node id="-371014" lat="58.0124222237" lon="7.08576944276">
		<tag k="name" v="Kloptjønna" />
		<tag k="natural" v="water" />
		<tag k="ssr:stedsnr" v="810399" />
	</node>
	<node id="-371010" lat="58.2153555558" lon="7.28687777379">
		<tag k="name" v="Auredalsbekken" />
		<tag k="ssr:stedsnr" v="810304" />
		<tag k="waterway" v="stream" />
	</node>
	<node id="-371007" lat="58.2243916667" lon="7.37545833671">
		<tag k="name" v="Ytre Krogevann" />
		<tag k="natural" v="water" />
		<tag k="ssr:stedsnr" v="810257" />
		<tag k="water" v="lake" />
	</node>
	<node id="-371004" lat="58.1696138845" lon="7.3902194482">
		<tag k="name" v="Torshuslona" />
		<tag k="natural" v="water" />
		<tag k="ssr:stedsnr" v="810227" />
		<tag k="water" v="lake" />
	</node>
	<node id="-371003" lat="58.1990388911" lon="7.37987499492">
		<tag k="name" v="Lonen" />
		<tag k="natural" v="water" />
		<tag k="ssr:stedsnr" v="810217" />
		<tag k="water" v="lake" />
	</node>
	<node id="-370995" lat="58.2090944454" lon="7.4319472299">
		<tag k="name" v="Smalsundbrua" />
		<tag k="natural" v="strait" />
		<tag k="ssr:stedsnr" v="810172" />
	</node>
	<node id="-370981" lat="58.2181750038" lon="7.38503611523">
		<tag k="alt_name" v="Telandsvannet" />
		<tag k="name" v="Telandsvatnet" />
		<tag k="natural" v="water" />
		<tag k="ssr:stedsnr" v="789734" />
	</node>
	<node id="-370979" lat="58.1800000034" lon="7.4139999916">
		<tag k="alt_name" v="Vormevannet" />
		<tag k="name" v="Vormevatnet" />
		<tag k="natural" v="water" />
		<tag k="ssr:stedsnr" v="789713" />
	</node>
	<node id="-370973" lat="58.13923176" lon="7.26765554692">
		<tag k="alt_name" v="Knipsvannet" />
		<tag k="name" v="Knipsvatnet" />
		<tag k="natural" v="water" />
		<tag k="ssr:stedsnr" v="789541" />
	</node>
	<node id="-370972" lat="58.1416028503" lon="7.20835944683">
		<tag k="alt_name" v="Storevann" />
		<tag k="name" v="Storevatnet" />
		<tag k="natural" v="water" />
		<tag k="ssr:stedsnr" v="789535" />
		<tag k="water" v="lake" />
	</node>
	<node id="-370967" lat="58.1532625608" lon="7.32284872094">
		<tag k="alt_name" v="Røsstadvannet" />
		<tag k="name" v="Røsstadvatnet" />
		<tag k="natural" v="water" />
		<tag k="ssr:stedsnr" v="789479" />
		<tag k="water" v="lake" />
	</node>
	<node id="-368916" lat="58.1552000003" lon="7.25351666964">
		<tag k="name" v="Vardetjønn" />
		<tag k="natural" v="water" />
		<tag k="ssr:stedsnr" v="83865" />
	</node>
	<node id="-368914" lat="58.1553472205" lon="7.26503333171">
		<tag k="name" v="Austjordtjønn" />
		<tag k="natural" v="water" />
		<tag k="ssr:stedsnr" v="83856" />
	</node>
	<node id="-368912" lat="58.1362972182" lon="7.26705278307">
		<tag k="name" v="Stemlon" />
		<tag k="natural" v="water" />
		<tag k="ssr:stedsnr" v="83835" />
	</node>
	<node id="-368908" lat="58.0499750034" lon="7.32991388951">
		<tag k="name" v="Longevann" />
		<tag k="natural" v="water" />
		<tag k="ssr:stedsnr" v="83735" />
		<tag k="water" v="lake" />
	</node>
	<node id="-368906" lat="58.1089777822" lon="7.38407777411">
		<tag k="name" v="Skårvannet" />
		<tag k="natural" v="water" />
		<tag k="ssr:stedsnr" v="83720" />
		<tag k="water" v="lake" />
	</node>
	<node id="-368904" lat="58.1046916666" lon="7.37777500415">
		<tag k="name" v="Tjønna" />
		<tag k="natural" v="water" />
		<tag k="ssr:stedsnr" v="83716" />
	</node>
	<node id="-368900" lat="58.1183888929" lon="7.37656943989">
		<tag k="name" v="Langetjønna" />
		<tag k="natural" v="water" />
		<tag k="ssr:stedsnr" v="83704" />
	</node>
	<node id="-368890" lat="58.0901805513" lon="7.27241110871">
		<tag k="name" v="Nesan" />
		<tag k="natural" v="cape" />
		<tag k="ssr:stedsnr" v="83757" />
	</node>
	<node id="-368889" lat="58.1534805514" lon="7.33101110905">
		<tag k="name" v="Møgedalsodden" />
		<tag k="place" v="island" />
		<tag k="ssr:stedsnr" v="83598" />
	</node>
	<node id="-368887" lat="58.1649416692" lon="7.3963777695">
		<tag k="name" v="Tjomslandsbekken" />
		<tag k="ssr:stedsnr" v="83587" />
		<tag k="waterway" v="stream" />
	</node>
	<node id="-368884" lat="58.0970861116" lon="7.37370278549">
		<tag k="name" v="Olasholmen" />
		<tag k="place" v="islet" />
		<tag k="ssr:stedsnr" v="83539" />
	</node>
	<node id="-368883" lat="58.1037388884" lon="7.38684999374">
		<tag k="name" v="Bjørkeneset" />
		<tag k="natural" v="cape" />
		<tag k="ssr:stedsnr" v="83538" />
	</node>
	<node id="-368882" lat="58.0920111147" lon="7.3945388835">
		<tag k="name" v="Eikelandstjønna" />
		<tag k="natural" v="water" />
		<tag k="ssr:stedsnr" v="83524" />
	</node>
	<node id="-368879" lat="58.1652777753" lon="7.34175833666">
		<tag k="name" v="Rasmuspaulen" />
		<tag k="natural" v="water" />
		<tag k="ssr:stedsnr" v="83487" />
	</node>
	<node id="-368876" lat="58.1294472219" lon="7.42061667303">
		<tag k="name" v="Sandvannsbekken" />
		<tag k="ssr:stedsnr" v="83437" />
		<tag k="waterway" v="stream" />
	</node>
	<node id="-368875" lat="58.1296055569" lon="7.45354166377">
		<tag k="name" v="Åsetjønna" />
		<tag k="natural" v="water" />
		<tag k="ssr:stedsnr" v="83438" />
	</node>
	<node id="-368871" lat="58.1708222242" lon="7.32881666485">
		<tag k="name" v="Stølstjønn" />
		<tag k="natural" v="water" />
		<tag k="ssr:stedsnr" v="83409" />
	</node>
	<node id="-368868" lat="58.1432972206" lon="7.36643610518">
		<tag k="name" v="Gaupefossen" />
		<tag k="natural" v="waterfall" />
		<tag k="ssr:stedsnr" v="83395" />
	</node>
	<node id="-368866" lat="57.995733335" lon="7.07448889685">
		<tag k="name" v="Tangebukta" />
		<tag k="natural" v="bay" />
		<tag k="ssr:stedsnr" v="83388" />
	</node>
	<node id="-368863" lat="58.0951861098" lon="7.23724443662">
		<tag k="name" v="Steinslandstjønna" />
		<tag k="natural" v="water" />
		<tag k="ssr:stedsnr" v="83257" />
	</node>
	<node id="-368677" lat="58.119713887" lon="7.24215000818">
		<tag k="name" v="Breiva" />
		<tag k="natural" v="water" />
		<tag k="ssr:stedsnr" v="22994" />
		<tag k="water" v="lake" />
	</node>
	<node id="-368860" lat="58.0649361125" lon="7.3144555514">
		<tag k="name" v="Skogstemmen" />
		<tag k="natural" v="water" />
		<tag k="ssr:stedsnr" v="83649" />
	</node>
	<node id="-368859" lat="58.076736109" lon="7.32381944338">
		<tag k="name" v="Bjørlona" />
		<tag k="natural" v="water" />
		<tag k="ssr:stedsnr" v="83650" />
	</node>
	<node id="-368855" lat="58.0769277745" lon="7.309183328">
		<tag k="name" v="Kiddelsbekken" />
		<tag k="ssr:stedsnr" v="83637" />
		<tag k="waterway" v="stream" />
	</node>
	<node id="-368847" lat="58.1588277804" lon="7.39918055392">
		<tag k="name" v="Svartetjønna" />
		<tag k="natural" v="water" />
		<tag k="ssr:stedsnr" v="83605" />
	</node>
	<node id="-370890" lat="58.1230388873" lon="7.22557500435">
		<tag k="name" v="Bjellandsbekken" />
		<tag k="ssr:stedsnr" v="750981" />
		<tag k="waterway" v="stream" />
	</node>
	<node id="-370888" lat="58.0784944413" lon="7.26447777899">
		<tag k="name" v="Kvernhusbekken" />
		<tag k="ssr:stedsnr" v="750946" />
		<tag k="waterway" v="stream" />
	</node>
	<node id="-370879" lat="58.100955556" lon="7.18231666216">
		<tag k="name" v="Hammertjønn" />
		<tag k="natural" v="water" />
		<tag k="ssr:stedsnr" v="750904" />
	</node>
	<node id="-370878" lat="58.0836805564" lon="7.18196944159">
		<tag k="name" v="Ormelitjønn" />
		<tag k="natural" v="water" />
		<tag k="ssr:stedsnr" v="750892" />
	</node>
	<node id="-368829" lat="58.1977611073" lon="7.31571111118">
		<tag k="name" v="Oksetjønn" />
		<tag k="natural" v="water" />
		<tag k="ssr:stedsnr" v="82293" />
	</node>
	<node id="-368826" lat="58.2168305567" lon="7.2557305583">
		<tag k="name" v="Solkrolona" />
		<tag k="natural" v="water" />
		<tag k="ssr:stedsnr" v="82250" />
	</node>
	<node id="-370873" lat="58.1326527766" lon="7.26114722934">
		<tag k="name" v="Beintjønn" />
		<tag k="natural" v="water" />
		<tag k="ssr:stedsnr" v="750808" />
	</node>
	<node id="-368815" lat="58.2270611135" lon="7.29691666429">
		<tag k="name" v="Rosseneset" />
		<tag k="natural" v="cape" />
		<tag k="ssr:stedsnr" v="82228" />
	</node>
	<node id="-370861" lat="58.1221000009" lon="7.29660833361">
		<tag k="name" v="Bjortjønn" />
		<tag k="natural" v="water" />
		<tag k="ssr:stedsnr" v="750738" />
	</node>
	<node id="-370859" lat="58.0932222182" lon="7.28178333441">
		<tag k="name" v="Giskedalskilen" />
		<tag k="natural" v="bay" />
		<tag k="ssr:stedsnr" v="750730" />
	</node>
	<node id="-370858" lat="58.1224527736" lon="7.39468611301">
		<tag k="name" v="Grodalstjønna" />
		<tag k="natural" v="water" />
		<tag k="ssr:stedsnr" v="750676" />
	</node>
	<node id="-370852" lat="58.2033159547" lon="7.26482299282">
		<tag k="name" v="Tvitjønnan" />
		<tag k="natural" v="water" />
		<tag k="ssr:stedsnr" v="750638" />
	</node>
	<node id="-370851" lat="58.0703000028" lon="7.31205554903">
		<tag k="name" v="Liansvannet" />
		<tag k="natural" v="water" />
		<tag k="ssr:stedsnr" v="750633" />
		<tag k="water" v="lake" />
	</node>
	<node id="-370849" lat="58.1512805566" lon="7.32397222262">
		<tag k="name" v="Odden" />
		<tag k="natural" v="cape" />
		<tag k="ssr:stedsnr" v="750600" />
	</node>
	<node id="-368799" lat="58.2078500028" lon="7.42422500414">
		<tag k="alt_name" v="Rausteinsvannet" />
		<tag k="name" v="Raudsteinsvatnet" />
		<tag k="natural" v="water" />
		<tag k="ssr:stedsnr" v="61734" />
	</node>
	<node id="-368798" lat="58.2092416681" lon="7.39396944324">
		<tag k="alt_name" v="Bjåstadvannet" />
		<tag k="name" v="Bjåstadvatnet" />
		<tag k="natural" v="water" />
		<tag k="ssr:stedsnr" v="61732" />
		<tag k="water" v="lake" />
	</node>
	<node id="-370844" lat="58.0941861154" lon="7.3158250027">
		<tag k="name" v="Abildsnesbekken" />
		<tag k="ssr:stedsnr" v="750516" />
		<tag k="waterway" v="stream" />
	</node>
	<node id="-370837" lat="58.1599583363" lon="7.29911666662">
		<tag k="name" v="Molstetjønn" />
		<tag k="natural" v="water" />
		<tag k="ssr:stedsnr" v="750480" />
	</node>
	<node id="-370836" lat="58.1638083343" lon="7.33846666091">
		<tag k="name" v="Esperåstjønn" />
		<tag k="natural" v="water" />
		<tag k="ssr:stedsnr" v="750475" />
	</node>
	<node id="-368785" lat="58.1354000035" lon="7.27112777559">
		<tag k="alt_name" v="Stilandsvannet" />
		<tag k="name" v="Stilandsvatnet" />
		<tag k="natural" v="water" />
		<tag k="ssr:stedsnr" v="61515" />
	</node>
	<node id="-368779" lat="57.9945750002" lon="7.03797778517">
		<tag k="alt_name" v="Sulebatjønna" />
		<tag k="name" v="Sulebartjerna" />
		<tag k="natural" v="water" />
		<tag k="ssr:stedsnr" v="61011" />
	</node>
	<node id="-370824" lat="58.1890611104" lon="7.31725555157">
		<tag k="name" v="Vigmostadstem" />
		<tag k="natural" v="water" />
		<tag k="ssr:stedsnr" v="750349" />
	</node>
	<node id="-368768" lat="58.1739250041" lon="7.27881389349">
		<tag k="alt_name" v="Krogvannet" />
		<tag k="name" v="Krokevatnet" />
		<tag k="natural" v="water" />
		<tag k="ssr:stedsnr" v="60472" />
	</node>
	<node id="-368767" lat="58.1801750041" lon="7.30635277359">
		<tag k="alt_name" v="Risdalsvannet" />
		<tag k="name" v="Risdalsvatnet" />
		<tag k="natural" v="water" />
		<tag k="ssr:stedsnr" v="60426" />
		<tag k="water" v="lake" />
	</node>
	<node id="-370803" lat="58.1916666709" lon="7.30558610363">
		<tag k="name" v="Radetjønn" />
		<tag k="natural" v="water" />
		<tag k="ssr:stedsnr" v="749315" />
	</node>
	<node id="-370799" lat="58.2234972208" lon="7.38473055651">
		<tag k="name" v="Tvitjønn" />
		<tag k="natural" v="water" />
		<tag k="ssr:stedsnr" v="749262" />
	</node>
	<node id="-370795" lat="58.1799249968" lon="7.35857778505">
		<tag k="name" v="Joglehølen" />
		<tag k="place" v="locality" />
		<tag k="ssr:stedsnr" v="749236" />
	</node>
	<node id="-370794" lat="58.2289166693" lon="7.31318333287">
		<tag k="name" v="Neset" />
		<tag k="natural" v="cape" />
		<tag k="ssr:stedsnr" v="749228" />
	</node>
	<node id="-370785" lat="58.1246111148" lon="7.43908611264">
		<tag k="name" v="Dørvannet" />
		<tag k="natural" v="water" />
		<tag k="ssr:stedsnr" v="749136" />
		<tag k="water" v="lake" />
	</node>
	<node id="-370783" lat="58.1208611148" lon="7.43724721625">
		<tag k="name" v="Røtjønna" />
		<tag k="natural" v="water" />
		<tag k="ssr:stedsnr" v="749129" />
	</node>
	<node id="-370775" lat="58.0611583322" lon="7.1883888853">
		<tag k="name" v="Bonnevannet" />
		<tag k="natural" v="water" />
		<tag k="ssr:stedsnr" v="749021" />
		<tag k="water" v="lake" />
	</node>
	<node id="-370772" lat="58.0676138861" lon="7.35245277391">
		<tag k="alt_name" v="Fasselandsvannet;Fasselandsvann" />
		<tag k="name" v="Fasselandsvatnet" />
		<tag k="natural" v="water" />
		<tag k="ssr:stedsnr" v="728906" />
	</node>
	<node id="-370763" lat="58.0475249994" lon="7.31441111074">
		<tag k="alt_name" v="Kåfjordsvannet" />
		<tag k="name" v="Kvåfjordtjørn" />
		<tag k="natural" v="water" />
		<tag k="ssr:stedsnr" v="728570" />
	</node>
	<node id="-370754" lat="57.9953805548" lon="7.07766110327">
		<tag k="alt_name" v="Vågevannet" />
		<tag k="name" v="Vågevatn" />
		<tag k="natural" v="water" />
		<tag k="ssr:stedsnr" v="728025" />
	</node>
	<node id="-370751" lat="57.9988416104" lon="7.05971126649">
		<tag k="alt_name" v="Kilevaet" />
		<tag k="name" v="Kilevatnet" />
		<tag k="natural" v="water" />
		<tag k="ssr:stedsnr" v="728005" />
	</node>
	<node id="-368684" lat="58.0559499977" lon="7.32488610806">
		<tag k="name" v="Åletjønna" />
		<tag k="natural" v="water" />
		<tag k="ssr:stedsnr" v="23738" />
	</node>
	<node id="-368680" lat="58.0822166624" lon="7.33171111175">
		<tag k="name" v="Rundetjønn" />
		<tag k="natural" v="water" />
		<tag k="ssr:stedsnr" v="23661" />
	</node>
	<node id="-369329" lat="58.1154694433" lon="7.21673889422">
		<tag k="name" v="Holmen" />
		<tag k="place" v="islet" />
		<tag k="ssr:stedsnr" v="204901" />
	</node>
	<node id="-368666" lat="58.0838416647" lon="7.18901111826">
		<tag k="name" v="Storbekken" />
		<tag k="ssr:stedsnr" v="22893" />
		<tag k="waterway" v="stream" />
	</node>
	<node id="-368657" lat="58.0774222191" lon="7.27446389382">
		<tag k="name" v="Fisketjønna" />
		<tag k="natural" v="water" />
		<tag k="ssr:stedsnr" v="22798" />
	</node>
	<node id="-371373" lat="58.196652775" lon="7.42255833771">
		<tag k="name" v="Lomstjønna" />
		<tag k="natural" v="water" />
		<tag k="ssr:stedsnr" v="932137" />
	</node>
	<node id="-368646" lat="58.1097694484" lon="7.39112222252">
		<tag k="name" v="Skårlona" />
		<tag k="natural" v="water" />
		<tag k="ssr:stedsnr" v="22705" />
		<tag k="water" v="lake" />
	</node>
	<node id="-368645" lat="58.105288885" lon="7.36919166241">
		<tag k="name" v="Fiskebekken" />
		<tag k="ssr:stedsnr" v="22703" />
		<tag k="waterway" v="stream" />
	</node>
</osm>
