<?xml version="1.0" encoding="UTF-8"?>
<osm generator="osmapis" version="0.6">
	<node id="-371711" lat="58.1495000013" lon="7.26514723056">
		<tag k="name" v="Gongemyr" />
		<tag k="natural" v="wetland" />
		<tag k="ssr:stedsnr" v="871818" />
	</node>
	<node id="-368638" lat="58.0834361079" lon="7.25213888489">
		<tag k="name" v="Fadderjordet" />
		<tag k="place" v="locality" />
		<tag k="ssr:stedsnr" v="325853" />
	</node>
	<node id="-370172" lat="58.1932833333" lon="7.25833889402">
		<tag k="name" v="Stigslåta" />
		<tag k="natural" v="wetland" />
		<tag k="ssr:stedsnr" v="447650" />
	</node>
	<node id="-368635" lat="58.1266888912" lon="7.29315277087">
		<tag k="name" v="Torvmyr" />
		<tag k="natural" v="wetland" />
		<tag k="ssr:stedsnr" v="325792" />
	</node>
	<node id="-368634" lat="58.2077944433" lon="7.25212500302">
		<tag k="name" v="Øygardsmyr" />
		<tag k="natural" v="wetland" />
		<tag k="ssr:stedsnr" v="325783" />
	</node>
	<node id="-369919" lat="58.2239361153" lon="7.31251667261">
		<tag k="name" v="Sitemyr" />
		<tag k="natural" v="wetland" />
		<tag k="ssr:stedsnr" v="264216" />
	</node>
	<node id="-371701" lat="58.1084722254" lon="7.37273611108">
		<tag k="name" v="Stolpemyra" />
		<tag k="natural" v="wetland" />
		<tag k="ssr:stedsnr" v="871687" />
	</node>
	<node id="-368627" lat="58.201505558" lon="7.28430000755">
		<tag k="name" v="Lopsmyr" />
		<tag k="natural" v="wetland" />
		<tag k="ssr:stedsnr" v="325649" />
	</node>
	<node id="-368626" lat="58.1998916629" lon="7.27618332652">
		<tag k="name" v="Torvmyr" />
		<tag k="natural" v="wetland" />
		<tag k="ssr:stedsnr" v="325646" />
	</node>
	<node id="-368625" lat="58.1379194475" lon="7.27905833414">
		<tag k="name" v="Dåleia" />
		<tag k="natural" v="wetland" />
		<tag k="ssr:stedsnr" v="325809" />
	</node>
	<node id="-370160" lat="58.134652779" lon="7.34637777207">
		<tag k="name" v="Gjemremyr" />
		<tag k="natural" v="wetland" />
		<tag k="ssr:stedsnr" v="447569" />
	</node>
	<node id="-368623" lat="58.1269777759" lon="7.26027222914">
		<tag k="name" v="Stormyrkrogen" />
		<tag k="natural" v="wetland" />
		<tag k="ssr:stedsnr" v="325802" />
	</node>
	<node id="-371694" lat="58.1782999957" lon="7.26170278618">
		<tag k="name" v="Fjelleslåtan" />
		<tag k="natural" v="wetland" />
		<tag k="ssr:stedsnr" v="871605" />
	</node>
	<node id="-371693" lat="58.1765500015" lon="7.28156388397">
		<tag k="name" v="Røyrmyr" />
		<tag k="natural" v="wetland" />
		<tag k="ssr:stedsnr" v="871598" />
	</node>
	<node id="-370154" lat="58.1415638913" lon="7.34654722917">
		<tag k="name" v="Jonkersmyr" />
		<tag k="natural" v="wetland" />
		<tag k="ssr:stedsnr" v="447538" />
	</node>
	<node id="-368617" lat="58.1471777809" lon="7.39801666143">
		<tag k="name" v="Torvmyra" />
		<tag k="natural" v="wetland" />
		<tag k="ssr:stedsnr" v="325581" />
	</node>
	<node id="-371688" lat="58.1578388844" lon="7.34892221547">
		<tag k="name" v="Florstøkkan" />
		<tag k="place" v="locality" />
		<tag k="ssr:stedsnr" v="871492" />
	</node>
	<node id="-369127" lat="58.1182777783" lon="7.24291943781">
		<tag k="name" v="Timremyra" />
		<tag k="natural" v="wetland" />
		<tag k="ssr:stedsnr" v="22995" />
	</node>
	<node id="-369125" lat="58.1237444404" lon="7.23682222777">
		<tag k="name" v="Langemyra" />
		<tag k="natural" v="wetland" />
		<tag k="ssr:stedsnr" v="22991" />
	</node>
	<node id="-371682" lat="58.1287194448" lon="7.45199166528">
		<tag k="name" v="Flatemyra" />
		<tag k="natural" v="wetland" />
		<tag k="ssr:stedsnr" v="871418" />
	</node>
	<node id="-371707" lat="58.1259305524" lon="7.28185555948">
		<tag k="name" v="Smemyr" />
		<tag k="natural" v="wetland" />
		<tag k="ssr:stedsnr" v="871786" />
	</node>
	<node id="-368606" lat="58.0974361106" lon="7.32594166749">
		<tag k="name" v="Torvmyran" />
		<tag k="natural" v="wetland" />
		<tag k="ssr:stedsnr" v="325530" />
	</node>
	<node id="-371677" lat="58.0044249961" lon="7.07308332999">
		<tag k="name" v="Stormyra" />
		<tag k="natural" v="wetland" />
		<tag k="ssr:stedsnr" v="871387" />
	</node>
	<node id="-371706" lat="58.1299499983" lon="7.29394166436">
		<tag k="name" v="Røyrmyr" />
		<tag k="natural" v="wetland" />
		<tag k="ssr:stedsnr" v="871783" />
	</node>
	<node id="-371674" lat="58.1694388883" lon="7.33533333691">
		<tag k="name" v="Grosmyr" />
		<tag k="natural" v="wetland" />
		<tag k="ssr:stedsnr" v="871362" />
	</node>
	<node id="-369107" lat="58.0788805598" lon="7.29948055366">
		<tag k="name" v="Ytre Haven" />
		<tag k="place" v="locality" />
		<tag k="ssr:stedsnr" v="22800" />
	</node>
	<node id="-368594" lat="58.1791749956" lon="7.32436110451">
		<tag k="name" v="Røymyr" />
		<tag k="natural" v="wetland" />
		<tag k="ssr:stedsnr" v="325423" />
	</node>
	<node id="-370641" lat="58.1464166642" lon="7.29116389336">
		<tag k="name" v="Rustemyr" />
		<tag k="natural" v="wetland" />
		<tag k="ssr:stedsnr" v="568827" />
	</node>
	<node id="-368591" lat="58.0104777766" lon="7.07341944073">
		<tag k="name" v="Viemyran" />
		<tag k="natural" v="wetland" />
		<tag k="ssr:stedsnr" v="325415" />
	</node>
	<node id="-371662" lat="58.2101555553" lon="7.32272222366">
		<tag k="name" v="Hisåsmyra" />
		<tag k="natural" v="wetland" />
		<tag k="ssr:stedsnr" v="871278" />
	</node>
	<node id="-369101" lat="58.1214749994" lon="7.25241389446">
		<tag k="name" v="Studemyra" />
		<tag k="natural" v="wetland" />
		<tag k="ssr:stedsnr" v="22766" />
	</node>
	<node id="-369100" lat="58.1218027804" lon="7.26657222024">
		<tag k="name" v="Samloga" />
		<tag k="place" v="locality" />
		<tag k="ssr:stedsnr" v="22762" />
	</node>
	<node id="-370594" lat="58.1735055571" lon="7.33656389062">
		<tag k="name" v="Åsmyr" />
		<tag k="natural" v="wetland" />
		<tag k="ssr:stedsnr" v="568394" />
	</node>
	<node id="-369098" lat="58.0945388863" lon="7.28507222565">
		<tag k="name" v="Storåkeren" />
		<tag k="place" v="locality" />
		<tag k="ssr:stedsnr" v="22746" />
	</node>
	<node id="-369097" lat="58.1000083367" lon="7.29630277838">
		<tag k="name" v="Snippen" />
		<tag k="natural" v="wetland" />
		<tag k="ssr:stedsnr" v="22745" />
	</node>
	<node id="-370118" lat="58.0137527784" lon="7.06183333775">
		<tag k="name" v="Steggan" />
		<tag k="natural" v="wetland" />
		<tag k="ssr:stedsnr" v="446436" />
	</node>
	<node id="-370317" lat="58.2086472249" lon="7.41304722166">
		<tag k="name" v="Moltemyra" />
		<tag k="natural" v="wetland" />
		<tag k="ssr:stedsnr" v="507130" />
	</node>
	<node id="-368580" lat="58.0886305582" lon="7.22980832652">
		<tag k="name" v="Langemyra" />
		<tag k="natural" v="wetland" />
		<tag k="ssr:stedsnr" v="325265" />
	</node>
	<node id="-370625" lat="58.196738887" lon="7.24780278115">
		<tag k="name" v="Ansteinsmyr" />
		<tag k="natural" v="wetland" />
		<tag k="ssr:stedsnr" v="568647" />
	</node>
	<node id="-371135" lat="58.044702774" lon="7.30705833398">
		<tag k="name" v="Stemmyra" />
		<tag k="natural" v="wetland" />
		<tag k="ssr:stedsnr" v="690761" />
	</node>
	<node id="-368574" lat="58.138575003" lon="7.37223888934">
		<tag k="name" v="Hestemyra" />
		<tag k="natural" v="wetland" />
		<tag k="ssr:stedsnr" v="325395" />
	</node>
	<node id="-370165" lat="58.20297778" lon="7.2825666604">
		<tag k="name" v="Torvmyr" />
		<tag k="natural" v="wetland" />
		<tag k="ssr:stedsnr" v="447632" />
	</node>
	<node id="-371644" lat="58.1180333288" lon="7.44215277108">
		<tag k="name" v="Slåtan" />
		<tag k="place" v="locality" />
		<tag k="ssr:stedsnr" v="871132" />
	</node>
	<node id="-369083" lat="58.1697777738" lon="7.25483055578">
		<tag k="name" v="Holamyra" />
		<tag k="natural" v="wetland" />
		<tag k="ssr:stedsnr" v="22624" />
	</node>
	<node id="-368884" lat="58.0880694424" lon="7.18036944054">
		<tag k="name" v="Torvmyra" />
		<tag k="natural" v="wetland" />
		<tag k="ssr:stedsnr" v="386883" />
	</node>
	<node id="-369078" lat="58.1437000045" lon="7.30546111561">
		<tag k="name" v="Tverrbekksmyr" />
		<tag k="natural" v="wetland" />
		<tag k="ssr:stedsnr" v="22570" />
	</node>
	<node id="-369077" lat="58.1366111071" lon="7.30463610342">
		<tag k="name" v="Kjerran" />
		<tag k="natural" v="wetland" />
		<tag k="ssr:stedsnr" v="22571" />
	</node>
	<node id="-370612" lat="58.1358111152" lon="7.30841388401">
		<tag k="name" v="Rørbakken" />
		<tag k="place" v="locality" />
		<tag k="ssr:stedsnr" v="568539" />
	</node>
	<node id="-370395" lat="58.0723083328" lon="7.29238056398">
		<tag k="name" v="Nymonen" />
		<tag k="place" v="locality" />
		<tag k="ssr:stedsnr" v="507804" />
	</node>
	<node id="-370095" lat="58.0451305586" lon="7.1258527735">
		<tag k="name" v="Skradden" />
		<tag k="place" v="locality" />
		<tag k="ssr:stedsnr" v="446144" />
	</node>
	<node id="-370094" lat="58.0410055589" lon="7.1235388956">
		<tag k="name" v="Pershaver" />
		<tag k="place" v="locality" />
		<tag k="ssr:stedsnr" v="446142" />
	</node>
	<node id="-371117" lat="58.0921333326" lon="7.18614167319">
		<tag k="name" v="Feda" />
		<tag k="place" v="locality" />
		<tag k="ssr:stedsnr" v="689879" />
	</node>
	<node id="-370089" lat="58.0691805551" lon="7.14815833987">
		<tag k="name" v="Kjerkura" />
		<tag k="natural" v="scree" />
		<tag k="ssr:stedsnr" v="446023" />
	</node>
	<node id="-371112" lat="58.1483277758" lon="7.29517222009">
		<tag k="name" v="Torkelsmyr" />
		<tag k="natural" v="wetland" />
		<tag k="ssr:stedsnr" v="689826" />
	</node>
	<node id="-369574" lat="58.0915749963" lon="7.20328888136">
		<tag k="name" v="Kringlemyra" />
		<tag k="natural" v="wetland" />
		<tag k="ssr:stedsnr" v="143892" />
	</node>
	<node id="-369572" lat="58.0885833367" lon="7.26148333746">
		<tag k="name" v="Båtsmyra" />
		<tag k="natural" v="wetland" />
		<tag k="ssr:stedsnr" v="143850" />
	</node>
	<node id="-368546" lat="58.0258972251" lon="7.09596666996">
		<tag k="name" v="Skålemyra" />
		<tag k="natural" v="wetland" />
		<tag k="ssr:stedsnr" v="325083" />
	</node>
	<node id="-368545" lat="58.0222416639" lon="7.0924333286">
		<tag k="name" v="Stormyra" />
		<tag k="natural" v="wetland" />
		<tag k="ssr:stedsnr" v="325079" />
	</node>
	<node id="-371103" lat="58.2080444401" lon="7.27294444984">
		<tag k="name" v="Torjusmyr" />
		<tag k="natural" v="wetland" />
		<tag k="ssr:stedsnr" v="689772" />
	</node>
	<node id="-369989" lat="58.0852583334" lon="7.34876665819">
		<tag k="name" v="Stormyra" />
		<tag k="natural" v="wetland" />
		<tag k="ssr:stedsnr" v="265571" />
	</node>
	<node id="-371099" lat="58.0720194447" lon="7.26151111116">
		<tag k="name" v="Langemyra" />
		<tag k="natural" v="wetland" />
		<tag k="ssr:stedsnr" v="689755" />
	</node>
	<node id="-369050" lat="58.0052888915" lon="7.09523888421">
		<tag k="name" v="Dalemyra" />
		<tag k="natural" v="wetland" />
		<tag k="ssr:stedsnr" v="21362" />
	</node>
	<node id="-368537" lat="58.0772666659" lon="7.18418333375">
		<tag k="name" v="Fuglefeda" />
		<tag k="place" v="locality" />
		<tag k="ssr:stedsnr" v="325007" />
	</node>
	<node id="-368536" lat="58.2130444452" lon="7.34183888406">
		<tag k="name" v="Myra" />
		<tag k="natural" v="wetland" />
		<tag k="ssr:stedsnr" v="325234" />
	</node>
	<node id="-369476" lat="58.2266444402" lon="7.32594721594">
		<tag k="name" v="Stormyr" />
		<tag k="natural" v="wetland" />
		<tag k="ssr:stedsnr" v="142245" />
	</node>
	<node id="-368534" lat="58.1748388845" lon="7.38930000451">
		<tag k="name" v="Stemmen" />
		<tag k="natural" v="wetland" />
		<tag k="ssr:stedsnr" v="325227" />
	</node>
	<node id="-370585" lat="58.0962888901" lon="7.22013889172">
		<tag k="name" v="Vollan" />
		<tag k="place" v="locality" />
		<tag k="ssr:stedsnr" v="568255" />
	</node>
	<node id="-370580" lat="58.0922222261" lon="7.24923334143">
		<tag k="name" v="Slåtan" />
		<tag k="natural" v="wetland" />
		<tag k="ssr:stedsnr" v="567868" />
	</node>
	<node id="-371091" lat="58.1995250018" lon="7.26638611711">
		<tag k="name" v="Døblemyr" />
		<tag k="natural" v="wetland" />
		<tag k="ssr:stedsnr" v="689609" />
	</node>
	<node id="-368529" lat="58.2213611122" lon="7.30759167027">
		<tag k="name" v="Sløkjerran" />
		<tag k="natural" v="wetland" />
		<tag k="ssr:stedsnr" v="325215" />
	</node>
	<node id="-368527" lat="58.1966749983" lon="7.39815277567">
		<tag k="name" v="Storemyr" />
		<tag k="natural" v="wetland" />
		<tag k="ssr:stedsnr" v="325207" />
	</node>
	<node id="-369550" lat="58.1480999965" lon="7.35009167211">
		<tag k="name" v="Skiftingsmyr" />
		<tag k="natural" v="wetland" />
		<tag k="ssr:stedsnr" v="143598" />
	</node>
	<node id="-369037" lat="58.2142722184" lon="7.42276666007">
		<tag k="name" v="Bjørkedalsmyra" />
		<tag k="natural" v="wetland" />
		<tag k="ssr:stedsnr" v="21221" />
	</node>
	<node id="-368524" lat="58.2235222246" lon="7.39394166572">
		<tag k="name" v="Moltemyr" />
		<tag k="natural" v="wetland" />
		<tag k="ssr:stedsnr" v="324257" />
	</node>
	<node id="-368791" lat="58.1742111118" lon="7.37104444799">
		<tag k="name" v="Steingeida" />
		<tag k="natural" v="stone" />
		<tag k="ssr:stedsnr" v="385232" />
	</node>
	<node id="-369032" lat="58.1988333322" lon="7.40756388608">
		<tag k="name" v="Solkringlemyra" />
		<tag k="natural" v="wetland" />
		<tag k="ssr:stedsnr" v="21176" />
	</node>
	<node id="-369105" lat="58.0592222197" lon="7.25482499542">
		<tag k="name" v="Langemyra" />
		<tag k="natural" v="wetland" />
		<tag k="ssr:stedsnr" v="22779" />
	</node>
	<node id="-369473" lat="58.0787944471" lon="7.18848611526">
		<tag k="name" v="Porsfeda" />
		<tag k="place" v="locality" />
		<tag k="ssr:stedsnr" v="142149" />
	</node>
	<node id="-371076" lat="58.1370305571" lon="7.32909721394">
		<tag k="name" v="Kolemyr" />
		<tag k="natural" v="wetland" />
		<tag k="ssr:stedsnr" v="689537" />
	</node>
	<node id="-370838" lat="58.0049055512" lon="7.08554444921">
		<tag k="name" v="Fenmyra" />
		<tag k="natural" v="wetland" />
		<tag k="ssr:stedsnr" v="628328" />
	</node>
	<node id="-370560" lat="58.0089305538" lon="7.09251389526">
		<tag k="name" v="Rademyra" />
		<tag k="natural" v="wetland" />
		<tag k="ssr:stedsnr" v="567388" />
	</node>
	<node id="-371287" lat="58.1533194416" lon="7.34785278097">
		<tag k="name" v="Torvmyra" />
		<tag k="natural" v="wetland" />
		<tag k="ssr:stedsnr" v="750486" />
	</node>
	<node id="-369021" lat="58.0788805518" lon="7.19999721797">
		<tag k="name" v="Stormyra" />
		<tag k="natural" v="wetland" />
		<tag k="ssr:stedsnr" v="21040" />
	</node>
	<node id="-369532" lat="58.0842611067" lon="7.34027499533">
		<tag k="name" v="Døblemyr" />
		<tag k="natural" v="wetland" />
		<tag k="ssr:stedsnr" v="143553" />
	</node>
	<node id="-370574" lat="58.1287277755" lon="7.27573056117">
		<tag k="name" v="Storknibsmyr" />
		<tag k="natural" v="wetland" />
		<tag k="ssr:stedsnr" v="567827" />
	</node>
	<node id="-370553" lat="58.2091694465" lon="7.34834444663">
		<tag k="name" v="Djupemyr" />
		<tag k="natural" v="wetland" />
		<tag k="ssr:stedsnr" v="567299" />
	</node>
	<node id="-370552" lat="58.0557222216" lon="7.35811666284">
		<tag k="name" v="Hellermyra" />
		<tag k="natural" v="wetland" />
		<tag k="ssr:stedsnr" v="567295" />
	</node>
	<node id="-369556" lat="58.0984111108" lon="7.27972222743">
		<tag k="name" v="Stormyra" />
		<tag k="natural" v="wetland" />
		<tag k="ssr:stedsnr" v="143732" />
	</node>
	<node id="-371061" lat="58.1764916649" lon="7.31853888833">
		<tag k="name" v="Stemmyra" />
		<tag k="natural" v="wetland" />
		<tag k="ssr:stedsnr" v="689420" />
	</node>
	<node id="-370547" lat="58.2090166662" lon="7.3567472167">
		<tag k="name" v="Snømyr" />
		<tag k="natural" v="wetland" />
		<tag k="ssr:stedsnr" v="567278" />
	</node>
	<node id="-371057" lat="57.9980555511" lon="7.07029166388">
		<tag k="name" v="Elgemyra" />
		<tag k="natural" v="wetland" />
		<tag k="ssr:stedsnr" v="689399" />
	</node>
	<node id="-369520" lat="58.1290944436" lon="7.36374444124">
		<tag k="name" v="Regevika" />
		<tag k="place" v="locality" />
		<tag k="ssr:stedsnr" v="143369" />
	</node>
	<node id="-370543" lat="58.1757194425" lon="7.37707223008">
		<tag k="name" v="Skaremyra" />
		<tag k="natural" v="wetland" />
		<tag k="ssr:stedsnr" v="567226" />
	</node>
	<node id="-370029" lat="58.1135055545" lon="7.23651389283">
		<tag k="name" v="Ravnemyra" />
		<tag k="natural" v="wetland" />
		<tag k="ssr:stedsnr" v="265993" />
	</node>
	<node id="-370028" lat="58.2379972224" lon="7.27819722376">
		<tag k="name" v="Rennedritmyr" />
		<tag k="natural" v="wetland" />
		<tag k="ssr:stedsnr" v="265972" />
	</node>
	<node id="-370539" lat="58.1956416662" lon="7.39430832696">
		<tag k="name" v="Lysemyr" />
		<tag k="natural" v="wetland" />
		<tag k="ssr:stedsnr" v="567208" />
	</node>
	<node id="-369786" lat="58.1171833329" lon="7.31550277279">
		<tag k="name" v="Langmyr" />
		<tag k="natural" v="wetland" />
		<tag k="ssr:stedsnr" v="205711" />
	</node>
	<node id="-369512" lat="58.1829333339" lon="7.31885277142">
		<tag k="name" v="Storemyr" />
		<tag k="natural" v="wetland" />
		<tag k="ssr:stedsnr" v="143407" />
	</node>
	<node id="-371046" lat="58.2024638855" lon="7.362249994">
		<tag k="name" v="Stavemyr" />
		<tag k="natural" v="wetland" />
		<tag k="ssr:stedsnr" v="689304" />
	</node>
	<node id="-371089" lat="58.1759333362" lon="7.24745555154">
		<tag k="name" v="Fjelleslåtan" />
		<tag k="natural" v="wetland" />
		<tag k="ssr:stedsnr" v="689597" />
	</node>
	<node id="-370657" lat="58.2387638924" lon="7.32590832757">
		<tag k="name" v="Kjellemyr" />
		<tag k="natural" v="wetland" />
		<tag k="ssr:stedsnr" v="568979" />
	</node>
	<node id="-370016" lat="58.1432611109" lon="7.28510278095">
		<tag k="name" v="Langemyr" />
		<tag k="natural" v="wetland" />
		<tag k="ssr:stedsnr" v="265851" />
	</node>
	<node id="-370015" lat="58.1432333337" lon="7.27938888295">
		<tag k="name" v="Surtemyr" />
		<tag k="natural" v="wetland" />
		<tag k="ssr:stedsnr" v="265844" />
	</node>
	<node id="-369502" lat="58.0124111112" lon="7.19444445">
		<tag k="name" v="Diskeura" />
		<tag k="natural" v="scree" />
		<tag k="ssr:stedsnr" v="143320" />
	</node>
	<node id="-371037" lat="58.1900583292" lon="7.37987500307">
		<tag k="name" v="Lysemyra" />
		<tag k="natural" v="wetland" />
		<tag k="ssr:stedsnr" v="689227" />
	</node>
	<node id="-369498" lat="58.0590333311" lon="7.17780555427">
		<tag k="landuse" v="meadow" />
		<tag k="name" v="Vrålsplassen" />
		<tag k="ssr:stedsnr" v="143031" />
	</node>
	<node id="-369551" lat="58.1904611107" lon="7.28020833513">
		<tag k="name" v="Torvmyra" />
		<tag k="natural" v="wetland" />
		<tag k="ssr:stedsnr" v="143669" />
	</node>
	<node id="-370520" lat="58.07446389" lon="7.17381943768">
		<tag k="name" v="Steinfeda" />
		<tag k="place" v="locality" />
		<tag k="ssr:stedsnr" v="567004" />
	</node>
	<node id="-372055" lat="58.2289168188" lon="7.37887972941">
		<tag k="name" v="Naverdalen" />
		<tag k="place" v="locality" />
		<tag k="ssr:stedsnr" v="979332" />
	</node>
	<node id="-370006" lat="58.1173500008" lon="7.33793889032">
		<tag k="name" v="Kjerkevollen" />
		<tag k="place" v="locality" />
		<tag k="ssr:stedsnr" v="265774" />
	</node>
	<node id="-371029" lat="58.1796250007" lon="7.43624721986">
		<tag k="name" v="Paulemyr" />
		<tag k="natural" v="wetland" />
		<tag k="ssr:stedsnr" v="689177" />
	</node>
	<node id="-371086" lat="58.1512777817" lon="7.36494721701">
		<tag k="loc_name" v="Fodsfidjå" />
		<tag k="name" v="Fodsfidå" />
		<tag k="place" v="locality" />
		<tag k="ssr:stedsnr" v="689578" />
	</node>
	<node id="-371026" lat="58.1436027807" lon="7.46213055298">
		<tag k="name" v="Varden" />
		<tag k="place" v="locality" />
		<tag k="ssr:stedsnr" v="689162" />
	</node>
	<node id="-370001" lat="58.1157722225" lon="7.38134721714">
		<tag k="name" v="Stakkåsmyra" />
		<tag k="natural" v="wetland" />
		<tag k="ssr:stedsnr" v="265743" />
	</node>
	<node id="-369487" lat="58.2280194468" lon="7.2809527798">
		<tag k="name" v="Hansemyr" />
		<tag k="natural" v="wetland" />
		<tag k="ssr:stedsnr" v="142275" />
	</node>
	<node id="-371853" lat="58.1702055547" lon="7.33210000636">
		<tag k="name" v="Torvmyr" />
		<tag k="natural" v="wetland" />
		<tag k="ssr:stedsnr" v="932370" />
	</node>
	<node id="-371020" lat="58.0504111131" lon="7.10810833139">
		<tag k="name" v="Vestermyra" />
		<tag k="natural" v="wetland" />
		<tag k="ssr:stedsnr" v="689113" />
	</node>
	<node id="-370658" lat="58.1167138889" lon="7.24116666018">
		<tag k="name" v="Bankemyra" />
		<tag k="natural" v="wetland" />
		<tag k="ssr:stedsnr" v="568993" />
	</node>
	<node id="-369992" lat="58.1315277805" lon="7.31084722732">
		<tag k="name" v="Skillemyr" />
		<tag k="natural" v="wetland" />
		<tag k="ssr:stedsnr" v="265597" />
	</node>
	<node id="-371084" lat="58.1487194415" lon="7.37199444459">
		<tag k="name" v="Kjerran" />
		<tag k="natural" v="wetland" />
		<tag k="ssr:stedsnr" v="689568" />
	</node>
	<node id="-371013" lat="58.0326888863" lon="7.08292500092">
		<tag k="name" v="Hegelandsmyra" />
		<tag k="natural" v="wetland" />
		<tag k="ssr:stedsnr" v="689069" />
	</node>
	<node id="-372036" lat="58.1581833441" lon="7.26323640974">
		<tag k="name" v="Li" />
		<tag k="place" v="locality" />
		<tag k="ssr:stedsnr" v="979264" />
	</node>
	<node id="-369475" lat="58.2151361072" lon="7.34939722786">
		<tag k="name" v="Kvernmyra" />
		<tag k="natural" v="wetland" />
		<tag k="ssr:stedsnr" v="142239" />
	</node>
	<node id="-369985" lat="58.1625000028" lon="7.320816668">
		<tag k="loc_name" v="Djupamyr" />
		<tag k="name" v="Djubamyr" />
		<tag k="natural" v="wetland" />
		<tag k="ssr:stedsnr" v="265534" />
	</node>
	<node id="-369472" lat="58.0444194442" lon="7.10747777943">
		<tag k="name" v="Trettemyra" />
		<tag k="natural" v="wetland" />
		<tag k="ssr:stedsnr" v="142140" />
	</node>
	<node id="-369983" lat="58.166736112" lon="7.32990278109">
		<tag k="name" v="Storemyr" />
		<tag k="natural" v="wetland" />
		<tag k="ssr:stedsnr" v="265516" />
	</node>
	<node id="-369982" lat="58.1390388875" lon="7.4526944448">
		<tag k="name" v="Stemsmyra" />
		<tag k="natural" v="wetland" />
		<tag k="ssr:stedsnr" v="265472" />
	</node>
	<node id="-371517" lat="58.0897166634" lon="7.17976944535">
		<tag k="name" v="Starmyra" />
		<tag k="natural" v="wetland" />
		<tag k="ssr:stedsnr" v="811863" />
	</node>
	<node id="-369269" lat="58.0441611086" lon="7.0734861067">
		<tag k="name" v="Veahogget" />
		<tag k="place" v="locality" />
		<tag k="ssr:stedsnr" v="82097" />
	</node>
	<node id="-369979" lat="58.1807083377" lon="7.32119443971">
		<tag k="name" v="Røymyra" />
		<tag k="natural" v="wetland" />
		<tag k="ssr:stedsnr" v="265443" />
	</node>
	<node id="-371512" lat="58.1346361082" lon="7.25302777375">
		<tag k="name" v="Stormyr" />
		<tag k="natural" v="wetland" />
		<tag k="ssr:stedsnr" v="811796" />
	</node>
	<node id="-369974" lat="58.1398972235" lon="7.3549250076">
		<tag k="name" v="Langemyra" />
		<tag k="natural" v="wetland" />
		<tag k="ssr:stedsnr" v="265414" />
	</node>
	<node id="-371251" lat="58.1940222219" lon="7.35459445117">
		<tag k="name" v="Ekland" />
		<tag k="place" v="locality" />
		<tag k="ssr:stedsnr" v="749304" />
	</node>
	<node id="-371864" lat="58.1424416629" lon="7.43903054737">
		<tag k="name" v="Trommemyra" />
		<tag k="natural" v="wetland" />
		<tag k="ssr:stedsnr" v="932433" />
	</node>
	<node id="-369085" lat="58.1828666637" lon="7.2653333387">
		<tag k="name" v="Storemyr" />
		<tag k="natural" v="wetland" />
		<tag k="ssr:stedsnr" v="22633" />
	</node>
	<node id="-371501" lat="58.1116111096" lon="7.3805527813">
		<tag k="name" v="Daumyra" />
		<tag k="natural" v="wetland" />
		<tag k="ssr:stedsnr" v="811691" />
	</node>
	<node id="-370159" lat="58.146113888" lon="7.39484444058">
		<tag k="name" v="Kjelemyra" />
		<tag k="natural" v="wetland" />
		<tag k="ssr:stedsnr" v="447557" />
	</node>
	<node id="-369960" lat="58.0951361105" lon="7.22724444003">
		<tag k="name" v="Stegganskogen" />
		<tag k="place" v="locality" />
		<tag k="ssr:stedsnr" v="265271" />
	</node>
	<node id="-369959" lat="58.0976027783" lon="7.22283611417">
		<tag k="name" v="Vallemyra" />
		<tag k="natural" v="wetland" />
		<tag k="ssr:stedsnr" v="265268" />
	</node>
	<node id="-371249" lat="58.2160305518" lon="7.27407777185">
		<tag k="name" v="Kvernhusmyra" />
		<tag k="natural" v="wetland" />
		<tag k="ssr:stedsnr" v="749282" />
	</node>
	<node id="-368880" lat="58.1612277777" lon="7.28218888938">
		<tag k="name" v="Jåtunmyr" />
		<tag k="natural" v="wetland" />
		<tag k="ssr:stedsnr" v="386851" />
	</node>
	<node id="-371489" lat="58.1461138931" lon="7.33017499625">
		<tag k="name" v="Røsstadslåta" />
		<tag k="place" v="locality" />
		<tag k="ssr:stedsnr" v="811560" />
	</node>
	<node id="-371487" lat="58.1037361125" lon="7.30866944607">
		<tag k="name" v="Myran" />
		<tag k="natural" v="wetland" />
		<tag k="ssr:stedsnr" v="811521" />
	</node>
	<node id="-368573" lat="58.1715388911" lon="7.33577777923">
		<tag k="name" v="Trollmyr" />
		<tag k="natural" v="wetland" />
		<tag k="ssr:stedsnr" v="325390" />
	</node>
	<node id="-368858" lat="58.1501750024" lon="7.34183334037">
		<tag k="name" v="Tømmermyra" />
		<tag k="natural" v="wetland" />
		<tag k="ssr:stedsnr" v="386599" />
	</node>
	<node id="-371993" lat="58.1317666643" lon="7.45884166818">
		<tag k="name" v="Syslemyra" />
		<tag k="place" v="locality" />
		<tag k="ssr:stedsnr" v="969902" />
	</node>
	<node id="-369028" lat="58.0522388924" lon="7.11363611247">
		<tag k="name" v="Furumyra" />
		<tag k="natural" v="wetland" />
		<tag k="ssr:stedsnr" v="21126" />
	</node>
	<node id="-370990" lat="58.1892055595" lon="7.438077782">
		<tag k="alt_name" v="Knipe" />
		<tag k="name" v="Knipa" />
		<tag k="place" v="locality" />
		<tag k="ssr:stedsnr" v="667665" />
	</node>
	<node id="-369936" lat="58.1818361102" lon="7.2912555546">
		<tag k="name" v="Røyrmyr" />
		<tag k="natural" v="wetland" />
		<tag k="ssr:stedsnr" v="264612" />
	</node>
	<node id="-369368" lat="58.0969694467" lon="7.21667778517">
		<tag k="name" v="Øygardsmyra" />
		<tag k="natural" v="wetland" />
		<tag k="ssr:stedsnr" v="83903" />
	</node>
	<node id="-371466" lat="58.0157861137" lon="7.10346389065">
		<tag k="name" v="Blomfeda" />
		<tag k="natural" v="wetland" />
		<tag k="ssr:stedsnr" v="810412" />
	</node>
	<node id="-371465" lat="58.0156194461" lon="7.10885833354">
		<tag k="name" v="Ramsdalsfeda" />
		<tag k="natural" v="wetland" />
		<tag k="ssr:stedsnr" v="810409" />
	</node>
	<node id="-370817" lat="58.0886666628" lon="7.23552499812">
		<tag k="name" v="Doblemyra" />
		<tag k="natural" v="wetland" />
		<tag k="ssr:stedsnr" v="628243" />
	</node>
	<node id="-369922" lat="58.2293361087" lon="7.38943333267">
		<tag k="name" v="Knutsmyr" />
		<tag k="natural" v="wetland" />
		<tag k="ssr:stedsnr" v="264238" />
	</node>
	<node id="-368896" lat="58.1154111077" lon="7.22577222471">
		<tag k="name" v="Leide" />
		<tag k="place" v="locality" />
		<tag k="ssr:stedsnr" v="386993" />
	</node>
	<node id="-371455" lat="58.2167472178" lon="7.39497777821">
		<tag k="name" v="Karten" />
		<tag k="natural" v="wetland" />
		<tag k="ssr:stedsnr" v="810253" />
	</node>
	<node id="-369916" lat="58.187091663" lon="7.3777777713">
		<tag k="name" v="Stølsmyra" />
		<tag k="natural" v="wetland" />
		<tag k="ssr:stedsnr" v="264204" />
	</node>
	<node id="-371451" lat="58.1842027753" lon="7.39266665988">
		<tag k="name" v="Heddestean" />
		<tag k="natural" v="wetland" />
		<tag k="ssr:stedsnr" v="810212" />
	</node>
	<node id="-371877" lat="58.1277888931" lon="7.31376110599">
		<tag k="name" v="Slåtemyr" />
		<tag k="natural" v="wetland" />
		<tag k="ssr:stedsnr" v="932551" />
	</node>
	<node id="-369362" lat="58.1387472236" lon="7.28759722932">
		<tag k="name" v="Skrubbemyr" />
		<tag k="natural" v="wetland" />
		<tag k="ssr:stedsnr" v="83845" />
	</node>
	<node id="-371447" lat="58.1770583337" lon="7.42851110889">
		<tag k="name" v="Surtekarten" />
		<tag k="natural" v="wetland" />
		<tag k="ssr:stedsnr" v="810185" />
	</node>
	<node id="-368885" lat="58.1000750035" lon="7.18333888509">
		<tag k="name" v="Eilifsmyra" />
		<tag k="natural" v="wetland" />
		<tag k="ssr:stedsnr" v="386889" />
	</node>
	<node id="-369908" lat="58.2165555595" lon="7.38638055454">
		<tag k="name" v="Djupemyr" />
		<tag k="natural" v="wetland" />
		<tag k="ssr:stedsnr" v="264144" />
	</node>
	<node id="-370419" lat="58.0765694468" lon="7.37400000602">
		<tag k="name" v="Grimfidjan" />
		<tag k="natural" v="wetland" />
		<tag k="ssr:stedsnr" v="508718" />
	</node>
	<node id="-369904" lat="58.0811277744" lon="7.17344723002">
		<tag k="landuse" v="meadow" />
		<tag k="name" v="Kjersti Egra" />
		<tag k="ssr:stedsnr" v="264125" />
	</node>
	<node id="-368879" lat="58.1572027795" lon="7.27971666628">
		<tag k="name" v="Kabringsmyr" />
		<tag k="natural" v="wetland" />
		<tag k="ssr:stedsnr" v="386843" />
	</node>
	<node id="-370549" lat="58.2079638926" lon="7.36743333433">
		<tag k="name" v="Storemyr" />
		<tag k="natural" v="wetland" />
		<tag k="ssr:stedsnr" v="567280" />
	</node>
	<node id="-369899" lat="58.059347226" lon="7.12759166573">
		<tag k="name" v="Hagan" />
		<tag k="place" v="locality" />
		<tag k="ssr:stedsnr" v="264095" />
	</node>
	<node id="-368872" lat="58.1195666663" lon="7.39239723003">
		<tag k="name" v="Hunden" />
		<tag k="place" v="locality" />
		<tag k="ssr:stedsnr" v="386697" />
	</node>
	<node id="-370129" lat="58.0937694425" lon="7.23185278541">
		<tag k="name" v="Steggan" />
		<tag k="natural" v="wetland" />
		<tag k="ssr:stedsnr" v="447229" />
	</node>
	<node id="-370916" lat="58.1061833319" lon="7.2410388943">
		<tag k="name" v="Øygarden" />
		<tag k="place" v="locality" />
		<tag k="ssr:stedsnr" v="628998" />
	</node>
	<node id="-370651" lat="58.0742083293" lon="7.22208056343">
		<tag k="name" v="Slåtan" />
		<tag k="natural" v="wetland" />
		<tag k="ssr:stedsnr" v="568941" />
	</node>
	<node id="-368866" lat="58.1970527747" lon="7.26254167348">
		<tag k="name" v="Persslåta" />
		<tag k="natural" v="wetland" />
		<tag k="ssr:stedsnr" v="386664" />
	</node>
	<node id="-370913" lat="58.121000004" lon="7.22443332703">
		<tag k="name" v="Steggan" />
		<tag k="place" v="locality" />
		<tag k="ssr:stedsnr" v="628983" />
	</node>
	<node id="-370399" lat="58.1408388882" lon="7.29643889653">
		<tag k="name" v="Djubemyr" />
		<tag k="natural" v="wetland" />
		<tag k="ssr:stedsnr" v="507847" />
	</node>
	<node id="-371420" lat="58.1048333336" lon="7.32880554987">
		<tag k="alt_name" v="Fossmonen" />
		<tag k="name" v="Fossmo" />
		<tag k="place" v="locality" />
		<tag k="ssr:stedsnr" v="789510" />
	</node>
	<node id="-369371" lat="58.1068083295" lon="7.19390556247">
		<tag k="name" v="Liestøa" />
		<tag k="place" v="locality" />
		<tag k="ssr:stedsnr" v="83929" />
	</node>
	<node id="-369370" lat="58.0984999968" lon="7.19239722994">
		<tag k="name" v="Badstusteinen" />
		<tag k="natural" v="stone" />
		<tag k="ssr:stedsnr" v="83912" />
	</node>
	<node id="-370905" lat="58.1038805526" lon="7.20604999442">
		<tag k="name" v="Slåta" />
		<tag k="natural" v="wetland" />
		<tag k="ssr:stedsnr" v="628895" />
	</node>
	<node id="-370904" lat="58.1058527807" lon="7.18077221783">
		<tag k="name" v="Kjeddingsteinen" />
		<tag k="natural" v="stone" />
		<tag k="ssr:stedsnr" v="628893" />
	</node>
	<node id="-370391" lat="58.0429361084" lon="7.28397500774">
		<tag k="name" v="Langemyra" />
		<tag k="natural" v="wetland" />
		<tag k="ssr:stedsnr" v="507782" />
	</node>
	<node id="-370902" lat="58.0504722245" lon="7.23331111039">
		<tag k="name" v="Kjøbenhavnsmyra" />
		<tag k="natural" v="wetland" />
		<tag k="ssr:stedsnr" v="628849" />
	</node>
	<node id="-369017" lat="58.0566611125" lon="7.35838611245">
		<tag k="name" v="Ramsen" />
		<tag k="place" v="locality" />
		<tag k="ssr:stedsnr" v="908" />
	</node>
	<node id="-369364" lat="58.1676972239" lon="7.29486944571">
		<tag k="name" v="Vierdalsmyra" />
		<tag k="natural" v="wetland" />
		<tag k="ssr:stedsnr" v="83860" />
	</node>
	<node id="-370387" lat="58.1164750012" lon="7.40027500216">
		<tag k="name" v="Skarstadmyran" />
		<tag k="natural" v="wetland" />
		<tag k="ssr:stedsnr" v="507710" />
	</node>
	<node id="-370898" lat="58.1305499964" lon="7.26509999665">
		<tag k="name" v="Steggan" />
		<tag k="natural" v="wetland" />
		<tag k="ssr:stedsnr" v="628803" />
	</node>
	<node id="-370897" lat="58.1325027745" lon="7.25403333595">
		<tag k="name" v="Stakkekjerr" />
		<tag k="natural" v="wetland" />
		<tag k="ssr:stedsnr" v="628800" />
	</node>
	<node id="-371918" lat="58.0444527774" lon="7.2097888849">
		<tag k="name" v="Leidesvollen" />
		<tag k="place" v="locality" />
		<tag k="ssr:stedsnr" v="932928" />
	</node>
	<node id="-370379" lat="58.1687638919" lon="7.26220834097">
		<tag k="name" v="Storemyr" />
		<tag k="natural" v="wetland" />
		<tag k="ssr:stedsnr" v="507636" />
	</node>
	<node id="-370888" lat="58.1099000017" lon="7.37376111071">
		<tag k="name" v="Sauemyra" />
		<tag k="natural" v="wetland" />
		<tag k="ssr:stedsnr" v="628693" />
	</node>
	<node id="-370372" lat="58.1450666686" lon="7.30316111526">
		<tag k="name" v="Silkemyr" />
		<tag k="natural" v="wetland" />
		<tag k="ssr:stedsnr" v="507570" />
	</node>
	<node id="-371025" lat="58.0784166662" lon="7.18738610622">
		<tag k="name" v="Hogteinen" />
		<tag k="place" v="locality" />
		<tag k="ssr:stedsnr" v="689136" />
	</node>
	<node id="-370880" lat="58.1707083371" lon="7.2833833324">
		<tag k="name" v="Tuemyr" />
		<tag k="natural" v="wetland" />
		<tag k="ssr:stedsnr" v="628619" />
	</node>
	<node id="-371901" lat="58.1357388933" lon="7.28193054983">
		<tag k="name" v="Døblemyr" />
		<tag k="natural" v="wetland" />
		<tag k="ssr:stedsnr" v="932811" />
	</node>
	<node id="-370364" lat="58.1671694417" lon="7.32564166647">
		<tag k="name" v="Påddekjerr" />
		<tag k="natural" v="wetland" />
		<tag k="ssr:stedsnr" v="507483" />
	</node>
	<node id="-368827" lat="58.1658166706" lon="7.447133327">
		<tag k="name" v="Trelsmyr" />
		<tag k="natural" v="wetland" />
		<tag k="ssr:stedsnr" v="386391" />
	</node>
	<node id="-370874" lat="58.1396527783" lon="7.34261111522">
		<tag k="name" v="Binndalsmyr" />
		<tag k="natural" v="wetland" />
		<tag k="ssr:stedsnr" v="628571" />
	</node>
	<node id="-370359" lat="58.1758222222" lon="7.30987778534">
		<tag k="name" v="Torvmyra" />
		<tag k="natural" v="wetland" />
		<tag k="ssr:stedsnr" v="507414" />
	</node>
	<node id="-370358" lat="58.1730305552" lon="7.31511666891">
		<tag k="name" v="Torvmyra" />
		<tag k="natural" v="wetland" />
		<tag k="ssr:stedsnr" v="507411" />
	</node>
	<node id="-370914" lat="58.1192055531" lon="7.2300527815">
		<tag k="name" v="Steggan" />
		<tag k="place" v="locality" />
		<tag k="ssr:stedsnr" v="628984" />
	</node>
	<node id="-369330" lat="58.0941666632" lon="7.36151388744">
		<tag k="name" v="Djubemyra" />
		<tag k="natural" v="wetland" />
		<tag k="ssr:stedsnr" v="83492" />
	</node>
	<node id="-368816" lat="58.0597388884" lon="7.17608054768">
		<tag k="name" v="Bjørnesteinen" />
		<tag k="natural" v="stone" />
		<tag k="ssr:stedsnr" v="386035" />
	</node>
	<node id="-369327" lat="58.1378499962" lon="7.44922777995">
		<tag k="name" v="Hersdalsmyra" />
		<tag k="natural" v="wetland" />
		<tag k="ssr:stedsnr" v="83452" />
	</node>
	<node id="-370862" lat="58.145930558" lon="7.43136110394">
		<tag k="name" v="Øygarden" />
		<tag k="place" v="locality" />
		<tag k="ssr:stedsnr" v="628448" />
	</node>
	<node id="-370349" lat="58.0163638873" lon="7.10361943619">
		<tag k="name" v="Skarpefeda" />
		<tag k="natural" v="wetland" />
		<tag k="ssr:stedsnr" v="507386" />
	</node>
	<node id="-368859" lat="58.1887666629" lon="7.29444999642">
		<tag k="name" v="Digemyr" />
		<tag k="natural" v="wetland" />
		<tag k="ssr:stedsnr" v="386627" />
	</node>
	<node id="-371882" lat="58.1510333342" lon="7.39897221457">
		<tag k="name" v="Voggemyra" />
		<tag k="natural" v="wetland" />
		<tag k="ssr:stedsnr" v="932574" />
	</node>
	<node id="-369321" lat="58.1497333354" lon="7.43102778406">
		<tag k="name" v="Teremyr" />
		<tag k="natural" v="wetland" />
		<tag k="ssr:stedsnr" v="83420" />
	</node>
	<node id="-368644" lat="58.0829500007" lon="7.1794027737">
		<tag k="name" v="Stemmyra" />
		<tag k="natural" v="wetland" />
		<tag k="ssr:stedsnr" v="325882" />
	</node>
	<node id="-369521" lat="58.1747999985" lon="7.32606388598">
		<tag k="name" v="Torvmyr" />
		<tag k="natural" v="wetland" />
		<tag k="ssr:stedsnr" v="143377" />
	</node>
	<node id="-368798" lat="58.2259777808" lon="7.3594527855">
		<tag k="name" v="Bjendalsmyr" />
		<tag k="natural" v="wetland" />
		<tag k="ssr:stedsnr" v="385267" />
	</node>
	<node id="-368797" lat="58.2216000023" lon="7.39698610721">
		<tag k="name" v="Surtemyr" />
		<tag k="natural" v="wetland" />
		<tag k="ssr:stedsnr" v="385261" />
	</node>
	<node id="-370331" lat="58.2244750001" lon="7.39186111011">
		<tag k="name" v="Langemyr" />
		<tag k="natural" v="wetland" />
		<tag k="ssr:stedsnr" v="507223" />
	</node>
	<node id="-369305" lat="58.0811305568" lon="7.33473611714">
		<tag k="name" v="Heddermyra" />
		<tag k="natural" v="wetland" />
		<tag k="ssr:stedsnr" v="83638" />
	</node>
	<node id="-369377" lat="58.1082194475" lon="7.23101666097">
		<tag k="name" v="Gumpen" />
		<tag k="place" v="locality" />
		<tag k="ssr:stedsnr" v="84000" />
	</node>
	<node id="-370908" lat="58.0674361109" lon="7.24510832747">
		<tag k="name" v="Stormyra" />
		<tag k="natural" v="wetland" />
		<tag k="ssr:stedsnr" v="628928" />
	</node>
	<node id="-371350" lat="58.1212611112" lon="7.31539166169">
		<tag k="name" v="Stakkelsmyr" />
		<tag k="natural" v="wetland" />
		<tag k="ssr:stedsnr" v="751749" />
	</node>
	<node id="-370388" lat="58.1027638898" lon="7.27508889341">
		<tag k="name" v="Lilleheia" />
		<tag k="natural" v="wetland" />
		<tag k="ssr:stedsnr" v="507766" />
	</node>
	<node id="-371348" lat="58.0749833355" lon="7.39109444679">
		<tag k="name" v="Nesemyra" />
		<tag k="natural" v="wetland" />
		<tag k="ssr:stedsnr" v="751738" />
	</node>
	<node id="-368787" lat="58.0326194467" lon="7.07740834063">
		<tag k="name" v="Flaumyra" />
		<tag k="natural" v="wetland" />
		<tag k="ssr:stedsnr" v="385196" />
	</node>
	<node id="-369298" lat="58.1536083341" lon="7.36539166288">
		<tag k="name" v="Spillingsfidjan" />
		<tag k="place" v="locality" />
		<tag k="ssr:stedsnr" v="83613" />
	</node>
	<node id="-369297" lat="58.1612416663" lon="7.3636583413">
		<tag k="name" v="Myran" />
		<tag k="place" v="locality" />
		<tag k="ssr:stedsnr" v="83608" />
	</node>
	<node id="-371343" lat="58.1095833359" lon="7.22867222532">
		<tag k="name" v="Surtemyra" />
		<tag k="natural" v="wetland" />
		<tag k="ssr:stedsnr" v="750999" />
	</node>
	<node id="-371341" lat="58.1187888904" lon="7.24088056198">
		<tag k="name" v="Fladan" />
		<tag k="place" v="locality" />
		<tag k="ssr:stedsnr" v="750988" />
	</node>
	<node id="-370316" lat="58.1242444416" lon="7.43433056151">
		<tag k="name" v="Håmyra" />
		<tag k="natural" v="wetland" />
		<tag k="ssr:stedsnr" v="507116" />
	</node>
	<node id="-368774" lat="58.2114972214" lon="7.41268611854">
		<tag k="name" v="Bjørkedalsmyra" />
		<tag k="natural" v="wetland" />
		<tag k="ssr:stedsnr" v="385168" />
	</node>
	<node id="-369769" lat="58.0758833323" lon="7.29739166934">
		<tag k="name" v="Rødbergshaven" />
		<tag k="natural" v="beach" />
		<tag k="ssr:stedsnr" v="204788" />
		<tag k="surface" v="sand" />
	</node>
	<node id="-370307" lat="58.0545361149" lon="7.20236388831">
		<tag k="name" v="Kastristeinen" />
		<tag k="natural" v="stone" />
		<tag k="ssr:stedsnr" v="507044" />
	</node>
	<node id="-370306" lat="58.0514583323" lon="7.20401667404">
		<tag k="name" v="Røydemyra" />
		<tag k="natural" v="wetland" />
		<tag k="ssr:stedsnr" v="507042" />
	</node>
	<node id="-371841" lat="58.2094749966" lon="7.36310000616">
		<tag k="name" v="Langemyr" />
		<tag k="natural" v="wetland" />
		<tag k="ssr:stedsnr" v="932279" />
	</node>
	<node id="-370368" lat="58.1103055545" lon="7.40578332849">
		<tag k="name" v="Krogen" />
		<tag k="place" v="locality" />
		<tag k="ssr:stedsnr" v="507530" />
	</node>
	<node id="-371326" lat="58.0973611148" lon="7.19206389111">
		<tag k="name" v="Steggan" />
		<tag k="natural" v="wetland" />
		<tag k="ssr:stedsnr" v="750887" />
	</node>
	<node id="-368661" lat="58.0683777735" lon="7.36264444964">
		<tag k="name" v="Buemyra" />
		<tag k="natural" v="wetland" />
		<tag k="ssr:stedsnr" v="326728" />
	</node>
	<node id="-371324" lat="58.0499888925" lon="7.22796667317">
		<tag k="name" v="Døblemyra" />
		<tag k="natural" v="wetland" />
		<tag k="ssr:stedsnr" v="750850" />
	</node>
	<node id="-371323" lat="58.159272221" lon="7.28045833155">
		<tag k="name" v="Kvernhusmyr" />
		<tag k="natural" v="wetland" />
		<tag k="ssr:stedsnr" v="750841" />
	</node>
	<node id="-370810" lat="58.1890888884" lon="7.38819166451">
		<tag k="name" v="Pålsmyran" />
		<tag k="natural" v="wetland" />
		<tag k="ssr:stedsnr" v="628197" />
	</node>
	<node id="-370111" lat="58.2177361154" lon="7.28282222276">
		<tag k="name" v="Kleivsmyr" />
		<tag k="natural" v="wetland" />
		<tag k="ssr:stedsnr" v="446330" />
	</node>
	<node id="-371320" lat="58.1387416693" lon="7.29556667138">
		<tag k="name" v="Hommen" />
		<tag k="natural" v="wetland" />
		<tag k="ssr:stedsnr" v="750802" />
	</node>
	<node id="-369471" lat="58.0408694399" lon="7.06609166089">
		<tag k="name" v="Futeskogen" />
		<tag k="place" v="locality" />
		<tag k="ssr:stedsnr" v="142118" />
	</node>
	<node id="-371829" lat="58.1865694482" lon="7.38493333493">
		<tag k="name" v="Holtan" />
		<tag k="place" v="locality" />
		<tag k="ssr:stedsnr" v="932203" />
	</node>
	<node id="-371316" lat="58.0552583336" lon="7.2579527706">
		<tag k="name" v="Verpedalen" />
		<tag k="natural" v="wetland" />
		<tag k="ssr:stedsnr" v="750763" />
	</node>
	<node id="-371313" lat="58.118669443" lon="7.26574445108">
		<tag k="name" v="Slupsedalen" />
		<tag k="natural" v="wetland" />
		<tag k="ssr:stedsnr" v="750746" />
	</node>
	<node id="-371312" lat="58.1157833354" lon="7.27261388121">
		<tag k="name" v="Hallkjellsmyra" />
		<tag k="natural" v="wetland" />
		<tag k="ssr:stedsnr" v="750745" />
	</node>
	<node id="-369261" lat="58.1720111083" lon="7.38393056407">
		<tag k="name" v="Heddansmyra" />
		<tag k="natural" v="wetland" />
		<tag k="ssr:stedsnr" v="82210" />
	</node>
	<node id="-370794" lat="58.0391750039" lon="7.12433889529">
		<tag k="name" v="Pershaven" />
		<tag k="place" v="locality" />
		<tag k="ssr:stedsnr" v="628061" />
	</node>
	<node id="-371817" lat="58.0189194414" lon="7.09912222088">
		<tag k="name" v="Klesmyra" />
		<tag k="natural" v="wetland" />
		<tag k="ssr:stedsnr" v="932081" />
	</node>
	<node id="-369256" lat="58.0606722241" lon="7.16638333622">
		<tag k="name" v="Orresteinen" />
		<tag k="natural" v="stone" />
		<tag k="ssr:stedsnr" v="82028" />
	</node>
	<node id="-371302" lat="58.1958333371" lon="7.2536555513">
		<tag k="name" v="Heddesheimyr" />
		<tag k="natural" v="wetland" />
		<tag k="ssr:stedsnr" v="750639" />
	</node>
	<node id="-371813" lat="58.0531305572" lon="7.1872611039">
		<tag k="name" v="Tronsegra" />
		<tag k="place" v="locality" />
		<tag k="ssr:stedsnr" v="932035" />
	</node>
	<node id="-369764" lat="58.1106805573" lon="7.26680277781">
		<tag k="name" v="Stølesmyra" />
		<tag k="natural" v="wetland" />
		<tag k="ssr:stedsnr" v="204741" />
	</node>
	<node id="-369510" lat="58.1762027776" lon="7.33015555517">
		<tag k="name" v="Paulan" />
		<tag k="natural" v="wetland" />
		<tag k="ssr:stedsnr" v="143350" />
	</node>
	<node id="-371297" lat="58.1665694405" lon="7.37195278565">
		<tag k="name" v="Kjørka" />
		<tag k="natural" v="stone" />
		<tag k="ssr:stedsnr" v="750594" />
	</node>
	<node id="-371296" lat="58.1652277758" lon="7.3645888848">
		<tag k="name" v="Troddeholet" />
		<tag k="natural" v="wetland" />
		<tag k="ssr:stedsnr" v="750593" />
	</node>
	<node id="-371235" lat="58.1518666702" lon="7.47210278027">
		<tag k="name" v="Listadmyran" />
		<tag k="natural" v="wetland" />
		<tag k="ssr:stedsnr" v="749162" />
	</node>
	<node id="-371294" lat="58.1118555531" lon="7.38640833964">
		<tag k="name" v="Skåremarka" />
		<tag k="place" v="locality" />
		<tag k="ssr:stedsnr" v="750529" />
	</node>
	<node id="-370021" lat="58.1059194453" lon="7.2126888883">
		<tag k="name" v="Odden" />
		<tag k="place" v="locality" />
		<tag k="ssr:stedsnr" v="265914" />
	</node>
	<node id="-369756" lat="58.1973638896" lon="7.27993333572">
		<tag k="name" v="Kringlemyr" />
		<tag k="natural" v="wetland" />
		<tag k="ssr:stedsnr" v="204624" />
	</node>
	<node id="-370362" lat="58.1333749997" lon="7.45448333455">
		<tag k="name" v="Kårstølsmyra" />
		<tag k="natural" v="wetland" />
		<tag k="ssr:stedsnr" v="507433" />
	</node>
	<node id="-368788" lat="58.2197638903" lon="7.40835278299">
		<tag k="name" v="Røyselandskarten" />
		<tag k="natural" v="wetland" />
		<tag k="ssr:stedsnr" v="385200" />
	</node>
	<node id="-369322" lat="58.1886055552" lon="7.32005277551">
		<tag k="name" v="Krogmyr" />
		<tag k="natural" v="wetland" />
		<tag k="ssr:stedsnr" v="83423" />
	</node>
	<node id="-369555" lat="58.1102000022" lon="7.33912777994">
		<tag k="name" v="Heimermonen" />
		<tag k="place" v="locality" />
		<tag k="ssr:stedsnr" v="143682" />
	</node>
	<node id="-371279" lat="58.1391888867" lon="7.38198888596">
		<tag k="name" v="Momlemyra" />
		<tag k="natural" v="wetland" />
		<tag k="ssr:stedsnr" v="750371" />
	</node>
	<node id="-369981" lat="58.1428555542" lon="7.44099167253">
		<tag k="name" v="Svinskarmyra" />
		<tag k="natural" v="wetland" />
		<tag k="ssr:stedsnr" v="265470" />
	</node>
	<node id="-369737" lat="58.1832416675" lon="7.32359444146">
		<tag k="name" v="Røyvannslåta" />
		<tag k="natural" v="wetland" />
		<tag k="ssr:stedsnr" v="204369" />
	</node>
	<node id="-370188" lat="58.1229277735" lon="7.25715833709">
		<tag k="name" v="Sleggemyra" />
		<tag k="natural" v="wetland" />
		<tag k="ssr:stedsnr" v="447746" />
	</node>
	<node id="-369735" lat="58.1307138875" lon="7.36339999185">
		<tag k="name" v="Hagemonen" />
		<tag k="place" v="locality" />
		<tag k="ssr:stedsnr" v="204347" />
	</node>
	<node id="-369734" lat="58.1338333335" lon="7.36347222786">
		<tag k="name" v="Hageura" />
		<tag k="natural" v="scree" />
		<tag k="ssr:stedsnr" v="204344" />
	</node>
	<node id="-370785" lat="58.0650638868" lon="7.17500833411">
		<tag k="name" v="Almekjær" />
		<tag k="natural" v="wetland" />
		<tag k="ssr:stedsnr" v="628011" />
	</node>
	<node id="-369891" lat="58.0384944431" lon="7.0965916586">
		<tag k="name" v="Tegsmyra" />
		<tag k="natural" v="wetland" />
		<tag k="ssr:stedsnr" v="264063" />
	</node>
	<node id="-369726" lat="58.059194444" lon="7.18661666407">
		<tag k="name" v="Bonnemyra" />
		<tag k="natural" v="wetland" />
		<tag k="ssr:stedsnr" v="204026" />
	</node>
	<node id="-370185" lat="58.1158805531" lon="7.322263884">
		<tag k="name" v="Fænmyr" />
		<tag k="natural" v="wetland" />
		<tag k="ssr:stedsnr" v="447721" />
	</node>
	<node id="-369720" lat="58.0028472228" lon="7.05279722393">
		<tag k="name" v="Kilemyra" />
		<tag k="natural" v="wetland" />
		<tag k="ssr:stedsnr" v="203436" />
	</node>
	<node id="-369719" lat="57.9935611108" lon="7.06674166761">
		<tag k="name" v="Djubefeda" />
		<tag k="natural" v="wetland" />
		<tag k="ssr:stedsnr" v="203407" />
	</node>
	<node id="-370787" lat="58.0560805545" lon="7.18359444846">
		<tag k="name" v="Torvemyra" />
		<tag k="natural" v="wetland" />
		<tag k="ssr:stedsnr" v="628028" />
	</node>
	<node id="-370014" lat="58.1394055555" lon="7.26022499454">
		<tag k="name" v="Rullesteinen" />
		<tag k="natural" v="stone" />
		<tag k="ssr:stedsnr" v="265842" />
	</node>
	<node id="-369929" lat="58.0051916679" lon="7.08114443756">
		<tag k="name" v="Kringlemyra" />
		<tag k="natural" v="wetland" />
		<tag k="ssr:stedsnr" v="264337" />
	</node>
	<node id="-369712" lat="58.2272750044" lon="7.39623610284">
		<tag k="name" v="Jæbruen" />
		<tag k="natural" v="wetland" />
		<tag k="ssr:stedsnr" v="203284" />
	</node>
	<node id="-369765" lat="58.1171833355" lon="7.25918888777">
		<tag k="name" v="Stedjedalsmyran" />
		<tag k="natural" v="wetland" />
		<tag k="ssr:stedsnr" v="204749" />
	</node>
	<node id="-369707" lat="58.1969222255" lon="7.38542500159">
		<tag k="name" v="Stølsmyra" />
		<tag k="natural" v="wetland" />
		<tag k="ssr:stedsnr" v="203238" />
	</node>
	<node id="-370217" lat="58.2351611129" lon="7.32245833354">
		<tag k="name" v="Høgemyr" />
		<tag k="natural" v="wetland" />
		<tag k="ssr:stedsnr" v="447974" />
	</node>
	<node id="-371240" lat="58.1737833308" lon="7.41176666741">
		<tag k="name" v="Torvmyra" />
		<tag k="natural" v="wetland" />
		<tag k="ssr:stedsnr" v="749198" />
	</node>
	<node id="-371239" lat="58.2164555518" lon="7.41002500693">
		<tag k="name" v="Kleivsmyr" />
		<tag k="natural" v="wetland" />
		<tag k="ssr:stedsnr" v="749189" />
	</node>
	<node id="-369700" lat="58.2204999978" lon="7.3873777854">
		<tag k="name" v="Havan" />
		<tag k="place" v="locality" />
		<tag k="ssr:stedsnr" v="203180" />
	</node>
	<node id="-370211" lat="58.0819388868" lon="7.28180554727">
		<tag k="name" v="Langemyra" />
		<tag k="place" v="locality" />
		<tag k="ssr:stedsnr" v="447938" />
	</node>
	<node id="-369696" lat="58.0007055547" lon="7.09585833134">
		<tag k="name" v="Toptemyra" />
		<tag k="natural" v="wetland" />
		<tag k="ssr:stedsnr" v="203356" />
	</node>
	<node id="-371531" lat="58.2424472237" lon="7.30756389369">
		<tag k="name" v="Fåbergsmyr" />
		<tag k="natural" v="wetland" />
		<tag k="ssr:stedsnr" v="811979" />
	</node>
	<node id="-371228" lat="58.0434083345" lon="7.1247138947">
		<tag k="name" v="Monen" />
		<tag k="place" v="locality" />
		<tag k="ssr:stedsnr" v="749113" />
	</node>
	<node id="-369071" lat="58.1530194417" lon="7.35091110505">
		<tag k="name" v="Langemyr" />
		<tag k="natural" v="wetland" />
		<tag k="ssr:stedsnr" v="22499" />
	</node>
	<node id="-369688" lat="58.066044446" lon="7.1769111145">
		<tag k="name" v="Starmyra" />
		<tag k="natural" v="wetland" />
		<tag k="ssr:stedsnr" v="203027" />
	</node>
	<node id="-370365" lat="58.1550138845" lon="7.3399027759">
		<tag k="name" v="Lunnemyr" />
		<tag k="natural" v="wetland" />
		<tag k="ssr:stedsnr" v="507494" />
	</node>
	<node id="-370198" lat="58.1516999983" lon="7.26495278632">
		<tag k="name" v="Dega" />
		<tag k="natural" v="wetland" />
		<tag k="ssr:stedsnr" v="447825" />
	</node>
	<node id="-370197" lat="58.1551944407" lon="7.28677777601">
		<tag k="name" v="Paulemyr" />
		<tag k="natural" v="wetland" />
		<tag k="ssr:stedsnr" v="447823" />
	</node>
	<node id="-371309" lat="58.1015861129" lon="7.25906111407">
		<tag k="name" v="Porskjerret" />
		<tag k="natural" v="wetland" />
		<tag k="ssr:stedsnr" v="750732" />
	</node>
	<node id="-370195" lat="58.1907222181" lon="7.27319999741">
		<tag k="name" v="Stormyr" />
		<tag k="natural" v="wetland" />
		<tag k="ssr:stedsnr" v="447796" />
	</node>
	<node id="-370354" lat="58.1756638858" lon="7.30213889441">
		<tag k="name" v="Lelandsmyr" />
		<tag k="natural" v="wetland" />
		<tag k="ssr:stedsnr" v="507404" />
	</node>
	<node id="-371722" lat="58.0411138909" lon="7.20501388221">
		<tag k="name" v="Fenmyra" />
		<tag k="natural" v="wetland" />
		<tag k="ssr:stedsnr" v="871924" />
	</node>
	<node id="-371031" lat="58.1729083327" lon="7.4259527722">
		<tag k="name" v="Stormyra" />
		<tag k="natural" v="wetland" />
		<tag k="ssr:stedsnr" v="689205" />
	</node>
	<node id="-371717" lat="58.111983329" lon="7.19695278292">
		<tag k="name" v="Klovsteinen" />
		<tag k="natural" v="stone" />
		<tag k="ssr:stedsnr" v="871895" />
	</node>
	<node id="-371716" lat="58.0938499982" lon="7.18079999626">
		<tag k="name" v="Revsmyra" />
		<tag k="natural" v="wetland" />
		<tag k="ssr:stedsnr" v="871874" />
	</node>
	<node id="-368643" lat="58.1002999998" lon="7.20044722485">
		<tag k="name" v="Molandslona" />
		<tag k="natural" v="wetland" />
		<tag k="ssr:stedsnr" v="325878" />
	</node>
	<node id="-371883" lat="58.1564694471" lon="7.38544722019">
		<tag k="name" v="Vallerjordet" />
		<tag k="place" v="locality" />
		<tag k="ssr:stedsnr" v="932576" />
	</node>
</osm>
