<?xml version="1.0" encoding="UTF-8"?>
<osm generator="osmapis" version="0.6">
	<node id="-370163" lat="58.0806027745" lon="7.30645555089">
		<tag k="name" v="Dronninghaugen" />
		<tag k="ssr:stedsnr" v="447622" />
		<tag k="tourism" v="attraction" />
	</node>
	<node id="-368755" lat="58.046336107" lon="7.14143334008">
		<tag k="amenity" v="place_of_worship" />
		<tag k="denomination" v="lutheran" />
		<tag k="name" v="Spangereid" />
		<tag k="religion" v="christian" />
		<tag k="ssr:stedsnr" v="364606" />
	</node>
	<node id="-371629" lat="58.0464083294" lon="7.13618333239">
		<tag k="name" v="Kong Spang" />
		<tag k="ssr:stedsnr" v="871039" />
		<tag k="tourism" v="attraction" />
	</node>
	<node id="-370989" lat="58.0811805557" lon="7.3074111159">
		<tag k="amenity" v="place_of_worship" />
		<tag k="denomination" v="lutheran" />
		<tag k="name" v="Valle" />
		<tag k="religion" v="christian" />
		<tag k="ssr:stedsnr" v="667573" />
	</node>
	<node id="-369670" lat="58.0808472201" lon="7.31277778561">
		<tag k="alt_name" v="Nyplass skole" />
		<tag k="amenity" v="community_centre" />
		<tag k="name" v="Nyplass skule" />
		<tag k="ssr:stedsnr" v="182612" />
	</node>
	<node id="-368517" lat="58.2028027756" lon="7.3339500016">
		<tag k="amenity" v="place_of_worship" />
		<tag k="denomination" v="lutheran" />
		<tag k="name" v="Vigmostad" />
		<tag k="religion" v="christian" />
		<tag k="ssr:stedsnr" v="304451" />
	</node>
</osm>
