<?xml version="1.0" encoding="UTF-8"?>
<osm generator="osmapis" version="0.6">
	<node id="-370687" lat="58.1233771962" lon="7.33909720725">
		<tag k="fixme" v="consider place=hamlet" />
		<tag k="name" v="Kristiansminde" />
		<tag k="place" v="farm" />
		<tag k="ssr:stedsnr" v="690762" />
	</node>
	<node id="-370652" lat="58.0688555546" lon="7.29496389102">
		<tag k="name" v="Hellekjær" />
		<tag k="place" v="farm" />
		<tag k="ssr:stedsnr" v="689765" />
	</node>
	<node id="-370646" lat="58.1168111133" lon="7.29835556388">
		<tag k="alt_name" v="Øvre Ås" />
		<tag k="fixme" v="consider place=hamlet" />
		<tag k="name" v="Ås" />
		<tag k="place" v="farm" />
		<tag k="ssr:stedsnr" v="689720" />
	</node>
	<node id="-368563" lat="58.0777999969" lon="7.25904166739">
		<tag k="alt_name" v="Vaslien" />
		<tag k="fixme" v="consider place=hamlet" />
		<tag k="name" v="Vasslia" />
		<tag k="place" v="farm" />
		<tag k="ssr:stedsnr" v="611" />
	</node>
	<node id="-368562" lat="58.078474998" lon="7.18855000769">
		<tag k="fixme" v="consider place=hamlet" />
		<tag k="name" v="Hesteland" />
		<tag k="place" v="farm" />
		<tag k="ssr:stedsnr" v="602" />
	</node>
	<node id="-368561" lat="58.0885361121" lon="7.25260556346">
		<tag k="alt_name" v="Rødland" />
		<tag k="fixme" v="consider place=hamlet" />
		<tag k="name" v="Røydland" />
		<tag k="place" v="farm" />
		<tag k="ssr:stedsnr" v="587" />
	</node>
	<node id="-368560" lat="58.0563416653" lon="7.327833338">
		<tag k="alt_name" v="Støle ytre;Støle" />
		<tag k="fixme" v="consider place=hamlet" />
		<tag k="name" v="Ytre Støle" />
		<tag k="place" v="farm" />
		<tag k="ssr:stedsnr" v="573" />
	</node>
	<node id="-368559" lat="58.1536583347" lon="7.26089165966">
		<tag k="fixme" v="consider place=hamlet" />
		<tag k="name" v="Gåseland" />
		<tag k="place" v="farm" />
		<tag k="ssr:stedsnr" v="478" />
	</node>
	<node id="-368558" lat="58.179666663" lon="7.2917222197">
		<tag k="alt_name" v="Fladen" />
		<tag k="fixme" v="consider place=hamlet" />
		<tag k="name" v="Flaten" />
		<tag k="place" v="farm" />
		<tag k="ssr:stedsnr" v="457" />
	</node>
	<node id="-368557" lat="58.239366668" lon="7.30084722859">
		<tag k="alt_name" v="Færås" />
		<tag k="fixme" v="consider place=hamlet" />
		<tag k="name" v="Feråsen" />
		<tag k="place" v="farm" />
		<tag k="ssr:stedsnr" v="442" />
	</node>
	<node id="-368556" lat="58.2105638856" lon="7.30823332801">
		<tag k="fixme" v="consider place=hamlet" />
		<tag k="name" v="Landås" />
		<tag k="place" v="farm" />
		<tag k="ssr:stedsnr" v="420" />
	</node>
	<node id="-368554" lat="58.0171500042" lon="7.1066999944">
		<tag k="fixme" v="consider place=hamlet" />
		<tag k="name" v="Høyland" />
		<tag k="place" v="farm" />
		<tag k="ssr:stedsnr" v="685" />
	</node>
	<node id="-368552" lat="58.0358138847" lon="7.12080000669">
		<tag k="fixme" v="consider place=hamlet" />
		<tag k="name" v="Trones" />
		<tag k="place" v="farm" />
		<tag k="ssr:stedsnr" v="673" />
	</node>
	<node id="-368549" lat="57.9922638934" lon="7.0652916724">
		<tag k="name" v="Kilen" />
		<tag k="place" v="isolated_dwelling" />
		<tag k="ssr:stedsnr" v="16" />
	</node>
	<node id="-370557" lat="58.031755554" lon="7.07250277239">
		<tag k="fixme" v="consider place=hamlet" />
		<tag k="name" v="Haraldstad" />
		<tag k="place" v="farm" />
		<tag k="ssr:stedsnr" v="668697" />
	</node>
	<node id="-370556" lat="58.04220226" lon="7.31553879406">
		<tag k="alt_name" v="Kåfjord" />
		<tag k="name" v="Kvåfjord" />
		<tag k="place" v="hamlet" />
		<tag k="ssr:stedsnr" v="668694" />
	</node>
	<node id="-370555" lat="58.0454333348" lon="7.14407222192">
		<tag k="fixme" v="consider place=suburb, village or hamlet" />
		<tag k="name" v="Høllen" />
		<tag k="place" v="quarter" />
		<tag k="ssr:stedsnr" v="668604" />
	</node>
	<node id="-370553" lat="58.0064527771" lon="7.08192777207">
		<tag k="name" v="Indre Fjellskår" />
		<tag k="place" v="farm" />
		<tag k="ssr:stedsnr" v="668000" />
	</node>
	<node id="-370552" lat="58.0023499973" lon="7.09279166141">
		<tag k="name" v="Indre Fjellskår" />
		<tag k="place" v="farm" />
		<tag k="ssr:stedsnr" v="667999" />
	</node>
	<node id="-370551" lat="57.998555553" lon="7.08417777905">
		<tag k="name" v="Ytre Fjellskår" />
		<tag k="place" v="farm" />
		<tag k="ssr:stedsnr" v="667991" />
	</node>
	<node id="-370550" lat="58.0725527815" lon="7.34865277639">
		<tag k="fixme" v="consider place=hamlet" />
		<tag k="name" v="Torp" />
		<tag k="place" v="farm" />
		<tag k="ssr:stedsnr" v="667918" />
	</node>
	<node id="-370549" lat="58.0690735573" lon="7.38012597366">
		<tag k="name" v="Sjølingstad" />
		<tag k="place" v="farm" />
		<tag k="ssr:stedsnr" v="667907" />
	</node>
	<node id="-370548" lat="58.0399444401" lon="7.12451944009">
		<tag k="name" v="Gare" />
		<tag k="place" v="farm" />
		<tag k="ssr:stedsnr" v="667883" />
	</node>
	<node id="-370546" lat="58.1185249985" lon="7.434199998">
		<tag k="fixme" v="consider place=hamlet" />
		<tag k="name" v="Norum" />
		<tag k="place" v="farm" />
		<tag k="ssr:stedsnr" v="667838" />
	</node>
	<node id="-370545" lat="58.1255138912" lon="7.41609999272">
		<tag k="fixme" v="consider place=hamlet" />
		<tag k="name" v="Erland" />
		<tag k="place" v="farm" />
		<tag k="ssr:stedsnr" v="667831" />
	</node>
	<node id="-370543" lat="58.127434046" lon="7.34909133593">
		<tag k="fixme" v="consider place=hamlet" />
		<tag k="name" v="Melhus" />
		<tag k="place" v="farm" />
		<tag k="ssr:stedsnr" v="667699" />
	</node>
	<node id="-370539" lat="58.060261107" lon="7.31252500381">
		<tag k="fixme" v="consider place=hamlet" />
		<tag k="name" v="Skjeggestad" />
		<tag k="place" v="farm" />
		<tag k="ssr:stedsnr" v="667540" />
	</node>
	<node id="-370538" lat="58.0625883625" lon="7.29434251699">
		<tag k="fixme" v="consider place=hamlet" />
		<tag k="name" v="Homme" />
		<tag k="place" v="farm" />
		<tag k="ssr:stedsnr" v="667538" />
	</node>
	<node id="-370537" lat="58.0650527818" lon="7.20412500301">
		<tag k="alt_name" v="Bjerge" />
		<tag k="fixme" v="consider place=hamlet" />
		<tag k="name" v="Bjerga" />
		<tag k="place" v="farm" />
		<tag k="ssr:stedsnr" v="667530" />
	</node>
	<node id="-370536" lat="58.0624527759" lon="7.15925833905">
		<tag k="name" v="Våland" />
		<tag k="place" v="locality" />
		<tag k="ssr:stedsnr" v="667528" />
	</node>
	<node id="-370535" lat="58.1235250006" lon="7.27391111579">
		<tag k="alt_name" v="Stiland, østre;Stiland" />
		<tag k="name" v="Østre Stiland" />
		<tag k="place" v="farm" />
		<tag k="ssr:stedsnr" v="667526" />
	</node>
	<node id="-370534" lat="58.117675" lon="7.30070000389">
		<tag k="alt_name" v="Ås øvre" />
		<tag k="name" v="Ås" />
		<tag k="place" v="farm" />
		<tag k="ssr:stedsnr" v="667476" />
	</node>
	<node id="-370532" lat="57.9918444423" lon="7.06937778006">
		<tag k="alt_name" v="Våga, øvre;Øvre Våga" />
		<tag k="name" v="Øvre Våge" />
		<tag k="place" v="hamlet" />
		<tag k="ssr:stedsnr" v="667025" />
	</node>
	<node id="-370513" lat="58.0360111124" lon="7.20767499707">
		<tag k="name" v="Lussevika" />
		<tag k="place" v="neighbourhood" />
		<tag k="ssr:stedsnr" v="664934" />
	</node>
	<node id="-370509" lat="58.0572750034" lon="7.23776111492">
		<tag k="name" v="Lone" />
		<tag k="place" v="farm" />
		<tag k="ssr:stedsnr" v="664458" />
	</node>
	<node id="-368951" lat="58.0878333353" lon="7.31506389531">
		<tag k="name" v="Vallemoen øst" />
		<tag k="place" v="quarter" />
		<tag k="ssr:stedsnr" v="101989" />
	</node>
	<node id="-370500" lat="58.1244583366" lon="7.33977500623">
		<tag k="name" v="Melhus" />
		<tag k="place" v="farm" />
		<tag k="ssr:stedsnr" v="657527" />
	</node>
	<node id="-368267" lat="58.0515388925" lon="7.20025276933">
		<tag k="name" v="Remekollen" />
		<tag k="place" v="quarter" />
		<tag k="ssr:stedsnr" v="360909" />
	</node>
	<node id="-368421" lat="58.1119999994" lon="7.34008611673">
		<tag k="alt_name" v="Bustadmoen" />
		<tag k="fixme" v="consider place=hamlet" />
		<tag k="name" v="Bustadmonen" />
		<tag k="place" v="farm" />
		<tag k="ssr:stedsnr" v="386685" />
	</node>
	<node id="-368414" lat="58.07209722" lon="7.31488334042">
		<tag k="name" v="Herstøl" />
		<tag k="place" v="locality" />
		<tag k="ssr:stedsnr" v="386642" />
	</node>
	<node id="-370461" lat="58.0644694434" lon="7.23390834172">
		<tag k="name" v="Skudevollen" />
		<tag k="place" v="locality" />
		<tag k="ssr:stedsnr" v="628939" />
	</node>
	<node id="-368409" lat="58.1496722268" lon="7.31756111514">
		<tag k="alt_name" v="Furuheien" />
		<tag k="name" v="Furuhei" />
		<tag k="place" v="isolated_dwelling" />
		<tag k="ssr:stedsnr" v="386591" />
	</node>
	<node id="-370446" lat="58.2055611144" lon="7.28825277071">
		<tag k="name" v="Øygard" />
		<tag k="place" v="locality" />
		<tag k="ssr:stedsnr" v="628784" />
	</node>
	<node id="-368397" lat="58.1014888915" lon="7.33785555451">
		<tag k="name" v="Lopsvollen" />
		<tag k="place" v="farm" />
		<tag k="ssr:stedsnr" v="386516" />
	</node>
	<node id="-368258" lat="58.0514166633" lon="7.24809722744">
		<tag k="name" v="Lonestrand" />
		<tag k="place" v="farm" />
		<tag k="ssr:stedsnr" v="358165" />
	</node>
	<node id="-368392" lat="58.1048249992" lon="7.34335277292">
		<tag k="fixme" v="consider place=hamlet" />
		<tag k="name" v="Skofteland ytre" />
		<tag k="place" v="farm" />
		<tag k="ssr:stedsnr" v="386720" />
	</node>
	<node id="-370304" lat="58.0990083336" lon="7.18992778189">
		<tag k="fixme" v="consider place=hamlet" />
		<tag k="name" v="Moland" />
		<tag k="place" v="farm" />
		<tag k="ssr:stedsnr" v="606510" />
	</node>
	<node id="-370303" lat="58.1052250033" lon="7.28085277448">
		<tag k="alt_name" v="Solhelleren" />
		<tag k="name" v="Solhellaren" />
		<tag k="place" v="locality" />
		<tag k="ssr:stedsnr" v="606502" />
	</node>
	<node id="-370406" lat="58.1880388903" lon="7.29766666556">
		<tag k="name" v="Brådan" />
		<tag k="place" v="farm" />
		<tag k="ssr:stedsnr" v="628415" />
	</node>
	<node id="-368354" lat="58.1917694411" lon="7.34707778191">
		<tag k="name" v="Bjørkeneset" />
		<tag k="place" v="farm" />
		<tag k="ssr:stedsnr" v="385299" />
	</node>
	<node id="-368320" lat="58.077033333" lon="7.41420000756">
		<tag k="name" v="Romedalsli" />
		<tag k="place" v="locality" />
		<tag k="ssr:stedsnr" v="385156" />
	</node>
	<node id="-368315" lat="58.2146750035" lon="7.39213889102">
		<tag k="alt_name" v="Hægeland;Østre Hægeland" />
		<tag k="fixme" v="consider place=hamlet" />
		<tag k="name" v="Hægland" />
		<tag k="place" v="farm" />
		<tag k="ssr:stedsnr" v="364743" />
	</node>
	<node id="-368312" lat="58.0360388856" lon="7.31376944608">
		<tag k="name" v="Ramsdalen" />
		<tag k="place" v="farm" />
		<tag k="ssr:stedsnr" v="364677" />
	</node>
	<node id="-368311" lat="58.0065750006" lon="7.10655554781">
		<tag k="fixme" v="consider place=hamlet" />
		<tag k="name" v="Gauksum" />
		<tag k="place" v="farm" />
		<tag k="ssr:stedsnr" v="364651" />
	</node>
	<node id="-370357" lat="58.0291194458" lon="7.07728611231">
		<tag k="name" v="Lunden" />
		<tag k="place" v="farm" />
		<tag k="ssr:stedsnr" v="628161" />
	</node>
	<node id="-368308" lat="58.0815583317" lon="7.17088333349">
		<tag k="fixme" v="consider place=hamlet" />
		<tag k="name" v="Lindland" />
		<tag k="place" v="farm" />
		<tag k="ssr:stedsnr" v="364621" />
	</node>
	<node id="-368306" lat="58.0451000027" lon="7.22151110894">
		<tag k="fixme" v="consider place=hamlet" />
		<tag k="name" v="Syrdal" />
		<tag k="place" v="farm" />
		<tag k="ssr:stedsnr" v="364604" />
	</node>
	<node id="-368305" lat="58.0556249991" lon="7.22410556033">
		<tag k="alt_name" v="Opshus store" />
		<tag k="fixme" v="consider place=hamlet" />
		<tag k="name" v="Opshus" />
		<tag k="place" v="farm" />
		<tag k="ssr:stedsnr" v="364601" />
	</node>
	<node id="-368303" lat="58.125772226" lon="7.33634444167">
		<tag k="alt_name" v="Foss, øvre" />
		<tag k="loc_name" v="Foss" />
		<tag k="name" v="Øvre Foss" />
		<tag k="place" v="farm" />
		<tag k="ssr:stedsnr" v="364573" />
	</node>
	<node id="-368301" lat="58.1070638849" lon="7.31952778127">
		<tag k="alt_name" v="Hogstøl;Hovstøl" />
		<tag k="fixme" v="consider place=hamlet" />
		<tag k="name" v="Hovsdøl" />
		<tag k="place" v="farm" />
		<tag k="ssr:stedsnr" v="364519" />
	</node>
	<node id="-368300" lat="58.1152861082" lon="7.34210555209">
		<tag k="alt_name" v="Monen" />
		<tag k="fixme" v="consider place=hamlet" />
		<tag k="name" v="Moen" />
		<tag k="place" v="farm" />
		<tag k="ssr:stedsnr" v="364515" />
	</node>
	<node id="-368299" lat="58.1593138876" lon="7.33639722648">
		<tag k="name" v="Kleiva" />
		<tag k="place" v="farm" />
		<tag k="ssr:stedsnr" v="364473" />
	</node>
	<node id="-368297" lat="58.2141555534" lon="7.26593055155">
		<tag k="alt_name" v="Støle østre;Støle" />
		<tag k="name" v="Østre Støle" />
		<tag k="place" v="farm" />
		<tag k="ssr:stedsnr" v="364426" />
	</node>
	<node id="-368295" lat="57.9978944437" lon="7.08624444644">
		<tag k="name" v="Ytre Fjellskår" />
		<tag k="place" v="farm" />
		<tag k="ssr:stedsnr" v="363987" />
	</node>
	<node id="-368294" lat="58.0945638902" lon="7.39563332626">
		<tag k="fixme" v="consider place=hamlet" />
		<tag k="name" v="Midtstøle" />
		<tag k="place" v="farm" />
		<tag k="ssr:stedsnr" v="364859" />
	</node>
	<node id="-368293" lat="58.0525555556" lon="7.18383333448">
		<tag k="name" v="Vestre Reme" />
		<tag k="place" v="farm" />
		<tag k="ssr:stedsnr" v="364846" />
	</node>
	<node id="-368292" lat="58.0872555566" lon="7.37848888954">
		<tag k="fixme" v="consider place=hamlet" />
		<tag k="name" v="Blørstad" />
		<tag k="place" v="farm" />
		<tag k="ssr:stedsnr" v="364845" />
	</node>
	<node id="-368290" lat="58.0462944451" lon="7.11657777424">
		<tag k="name" v="Gare" />
		<tag k="place" v="farm" />
		<tag k="ssr:stedsnr" v="363882" />
	</node>
	<node id="-370329" lat="58.1797000014" lon="7.39382777265">
		<tag k="fixme" v="consider place=hamlet" />
		<tag k="name" v="Oppsal" />
		<tag k="place" v="farm" />
		<tag k="ssr:stedsnr" v="607702" />
	</node>
	<node id="-370328" lat="58.0489921277" lon="7.2860815669">
		<tag k="alt_name" v="Eikeland" />
		<tag k="name" v="Egeland" />
		<tag k="place" v="hamlet" />
		<tag k="ssr:stedsnr" v="607588" />
	</node>
	<node id="-370326" lat="58.0010194444" lon="7.09868611545">
		<tag k="name" v="Indre Fjellskår" />
		<tag k="place" v="farm" />
		<tag k="ssr:stedsnr" v="606995" />
	</node>
	<node id="-370325" lat="58.0015749966" lon="7.08301944073">
		<tag k="name" v="Ytre Fjellskår" />
		<tag k="place" v="farm" />
		<tag k="ssr:stedsnr" v="606984" />
	</node>
	<node id="-370324" lat="58.0598888878" lon="7.17842500579">
		<tag k="name" v="Remesvik" />
		<tag k="place" v="farm" />
		<tag k="ssr:stedsnr" v="606920" />
	</node>
	<node id="-370323" lat="58.0690386384" lon="7.38014081285">
		<tag k="name" v="Sjølingstad" />
		<tag k="place" v="farm" />
		<tag k="ssr:stedsnr" v="606913" />
	</node>
	<node id="-370322" lat="58.0676888845" lon="7.35677777046">
		<tag k="alt_name" v="Bue" />
		<tag k="historic" v="shieling" />
		<tag k="name" v="Bua" />
		<tag k="place" v="locality" />
		<tag k="ssr:stedsnr" v="606910" />
	</node>
	<node id="-370321" lat="58.0698090692" lon="7.3894391224">
		<tag k="name" v="Sjølingstad" />
		<tag k="place" v="farm" />
		<tag k="ssr:stedsnr" v="606911" />
	</node>
	<node id="-370320" lat="58.0674999955" lon="7.3490888813">
		<tag k="alt_name" v="Fasselandsnes" />
		<tag k="name" v="Neset" />
		<tag k="place" v="farm" />
		<tag k="ssr:stedsnr" v="606909" />
	</node>
	<node id="-370319" lat="58.0475944478" lon="7.12794722177">
		<tag k="name" v="Gare" />
		<tag k="place" v="farm" />
		<tag k="ssr:stedsnr" v="606895" />
	</node>
	<node id="-370318" lat="58.0397055575" lon="7.12597222458">
		<tag k="name" v="Gare" />
		<tag k="place" v="farm" />
		<tag k="ssr:stedsnr" v="606888" />
	</node>
	<node id="-370317" lat="58.1673096828" lon="7.40360109671">
		<tag k="name" v="Tjomsland" />
		<tag k="place" v="hamlet" />
		<tag k="ssr:stedsnr" v="606797" />
	</node>
	<node id="-370315" lat="58.0345333349" lon="7.29082778498">
		<tag k="alt_name" v="Tjøm" />
		<tag k="fixme" v="consider place=hamlet" />
		<tag k="name" v="Tjaum" />
		<tag k="place" v="farm" />
		<tag k="ssr:stedsnr" v="606678" />
	</node>
	<node id="-370313" lat="58.004727782" lon="7.04007499437">
		<tag k="fixme" v="consider place=hamlet" />
		<tag k="name" v="Stusvik" />
		<tag k="place" v="farm" />
		<tag k="ssr:stedsnr" v="606666" />
	</node>
	<node id="-370310" lat="58.0865805553" lon="7.33888333172">
		<tag k="name" v="Valleheia" />
		<tag k="place" v="farm" />
		<tag k="ssr:stedsnr" v="606602" />
	</node>
	<node id="-370309" lat="58.093399998" lon="7.18575277735">
		<tag k="fixme" v="consider place=hamlet" />
		<tag k="name" v="Tjorteland" />
		<tag k="place" v="farm" />
		<tag k="ssr:stedsnr" v="606583" />
	</node>
	<node id="-370308" lat="58.0528611086" lon="7.10298889068">
		<tag k="fixme" v="consider place=hamlet" />
		<tag k="name" v="Grønsfjord" />
		<tag k="place" v="farm" />
		<tag k="ssr:stedsnr" v="606568" />
	</node>
	<node id="-370307" lat="58.1429555548" lon="7.31610278448">
		<tag k="alt_name" v="Vestre Grisledal" />
		<tag k="fixme" v="consider place=hamlet" />
		<tag k="name" v="Grisledal" />
		<tag k="place" v="farm" />
		<tag k="ssr:stedsnr" v="606534" />
	</node>
	<node id="-370306" lat="58.1456083314" lon="7.33157500099">
		<tag k="alt_name" v="Holen" />
		<tag k="fixme" v="consider place=hamlet" />
		<tag k="name" v="Hola" />
		<tag k="place" v="farm" />
		<tag k="ssr:stedsnr" v="606526" />
	</node>
	<node id="-370305" lat="58.0963027784" lon="7.19342777273">
		<tag k="alt_name" v="Molandstveida;Molandstveiten" />
		<tag k="fixme" v="consider place=hamlet" />
		<tag k="name" v="Molandstveit" />
		<tag k="place" v="farm" />
		<tag k="ssr:stedsnr" v="606525" />
	</node>
	<node id="-368256" lat="58.1207333315" lon="7.3432888855">
		<tag k="name" v="Melhus" />
		<tag k="place" v="farm" />
		<tag k="ssr:stedsnr" v="353633" />
	</node>
	<node id="-368255" lat="58.1258694431" lon="7.33975832701">
		<tag k="name" v="Melhus" />
		<tag k="place" v="farm" />
		<tag k="ssr:stedsnr" v="353526" />
	</node>
	<node id="-370301" lat="58.11780278" lon="7.1894083295">
		<tag k="fixme" v="consider place=hamlet" />
		<tag k="name" v="Sandnes" />
		<tag k="place" v="farm" />
		<tag k="ssr:stedsnr" v="606496" />
	</node>
	<node id="-370299" lat="58.2400555541" lon="7.31612777033">
		<tag k="fixme" v="consider place=hamlet" />
		<tag k="name" v="Røydland" />
		<tag k="place" v="farm" />
		<tag k="ssr:stedsnr" v="606415" />
	</node>
	<node id="-370298" lat="58.2151111075" lon="7.33125000199">
		<tag k="fixme" v="consider place=hamlet" />
		<tag k="name" v="Lian" />
		<tag k="place" v="farm" />
		<tag k="ssr:stedsnr" v="606398" />
	</node>
	<node id="-370297" lat="58.220575004" lon="7.32725277926">
		<tag k="fixme" v="consider place=hamlet" />
		<tag k="name" v="Akland" />
		<tag k="place" v="farm" />
		<tag k="ssr:stedsnr" v="606395" />
	</node>
	<node id="-370295" lat="57.9897944467" lon="7.06216389522">
		<tag k="alt_name" v="Våga, nedre;Nedre Våga" />
		<tag k="fixme" v="consider place=hamlet" />
		<tag k="name" v="Nedre Våge" />
		<tag k="place" v="farm" />
		<tag k="ssr:stedsnr" v="606007" />
	</node>
	<node id="-370271" lat="58.0590111095" lon="7.23477778588">
		<tag k="name" v="Lone" />
		<tag k="place" v="farm" />
		<tag k="ssr:stedsnr" v="603469" />
	</node>
	<node id="-368222" lat="58.1072000008" lon="7.37712499652">
		<tag k="fixme" v="consider place=hamlet" />
		<tag k="name" v="Skogen" />
		<tag k="place" v="farm" />
		<tag k="ssr:stedsnr" v="121873" />
	</node>
	<node id="-370269" lat="58.054780556" lon="7.23862777979">
		<tag k="name" v="Lone" />
		<tag k="place" v="farm" />
		<tag k="ssr:stedsnr" v="603463" />
	</node>
	<node id="-370267" lat="58.0485888872" lon="7.28727222366">
		<tag k="fixme" v="consider place=hamlet" />
		<tag k="name" v="Ytre Eigeland" />
		<tag k="place" v="farm" />
		<tag k="ssr:stedsnr" v="602796" />
	</node>
	<node id="-368911" lat="58.1260833374" lon="7.28593610521">
		<tag k="name" v="Gamleøygard" />
		<tag k="place" v="locality" />
		<tag k="ssr:stedsnr" v="83826" />
	</node>
	<node id="-370264" lat="58.1558388923" lon="7.30362222545">
		<tag k="name" v="Eigedal" />
		<tag k="place" v="farm" />
		<tag k="ssr:stedsnr" v="601631" />
	</node>
	<node id="-370258" lat="58.0492250038" lon="7.25347499657">
		<tag k="name" v="Lonestrand" />
		<tag k="place" v="farm" />
		<tag k="ssr:stedsnr" v="600181" />
	</node>
	<node id="-370257" lat="58.1241222262" lon="7.34633055024">
		<tag k="name" v="Melhus" />
		<tag k="place" v="farm" />
		<tag k="ssr:stedsnr" v="596591" />
	</node>
	<node id="-368202" lat="58.047277782" lon="7.20601388776">
		<tag k="name" v="Krogen" />
		<tag k="place" v="farm" />
		<tag k="ssr:stedsnr" v="325919" />
	</node>
	<node id="-368194" lat="58.0495055526" lon="7.24410277952">
		<tag k="name" v="Opshusstranda" />
		<tag k="place" v="farm" />
		<tag k="ssr:stedsnr" v="325868" />
	</node>
	<node id="-370270" lat="58.0612638856" lon="7.2312416732">
		<tag k="name" v="Lone" />
		<tag k="place" v="farm" />
		<tag k="ssr:stedsnr" v="603466" />
	</node>
	<node id="-370610" lat="58.1566388861" lon="7.43041388118">
		<tag k="name" v="Esperås" />
		<tag k="place" v="locality" />
		<tag k="ssr:stedsnr" v="689406" />
	</node>
	<node id="-368168" lat="58.1397333289" lon="7.31547777056">
		<tag k="name" v="Grisledal ytre" />
		<tag k="place" v="farm" />
		<tag k="ssr:stedsnr" v="325569" />
	</node>
	<node id="-370205" lat="58.0322722184" lon="7.28054722562">
		<tag k="name" v="Vestgården" />
		<tag k="place" v="farm" />
		<tag k="ssr:stedsnr" v="568959" />
	</node>
	<node id="-369583" lat="58.1255111077" lon="7.34841944036">
		<tag k="name" v="Melhus" />
		<tag k="place" v="farm" />
		<tag k="ssr:stedsnr" v="414507" />
	</node>
	<node id="-368139" lat="58.1813777819" lon="7.29208333647">
		<tag k="name" v="Fladen" />
		<tag k="place" v="isolated_dwelling" />
		<tag k="ssr:stedsnr" v="325628" />
	</node>
	<node id="-370175" lat="58.0737138846" lon="7.34551665851">
		<tag k="name" v="Lysnes" />
		<tag k="place" v="farm" />
		<tag k="ssr:stedsnr" v="568628" />
	</node>
	<node id="-370174" lat="58.0764611066" lon="7.33081943821">
		<tag k="name" v="Lian" />
		<tag k="place" v="hamlet" />
		<tag k="ssr:stedsnr" v="568626" />
	</node>
	<node id="-368920" lat="58.0910972193" lon="7.19389444816">
		<tag k="fixme" v="consider place=hamlet" />
		<tag k="name" v="Grennan" />
		<tag k="place" v="farm" />
		<tag k="ssr:stedsnr" v="83902" />
	</node>
	<node id="-370127" lat="58.150969443" lon="7.25766110413">
		<tag k="name" v="Gåselia" />
		<tag k="place" v="locality" />
		<tag k="ssr:stedsnr" v="567855" />
	</node>
	<node id="-370122" lat="58.0563166708" lon="7.28962777174">
		<tag k="alt_name" v="Løkka" />
		<tag k="fixme" v="consider place=hamlet" />
		<tag k="name" v="Løkke" />
		<tag k="place" v="farm" />
		<tag k="ssr:stedsnr" v="567782" />
	</node>
	<node id="-368070" lat="58.049488893" lon="7.13028611516">
		<tag k="alt_name" v="Præsthus" />
		<tag k="fixme" v="consider place=hamlet" />
		<tag k="name" v="Presthus" />
		<tag k="place" v="farm" />
		<tag k="ssr:stedsnr" v="304604" />
	</node>
	<node id="-368063" lat="57.9959999956" lon="7.08453610838">
		<tag k="name" v="Ytre Fjellskår" />
		<tag k="place" v="farm" />
		<tag k="ssr:stedsnr" v="303986" />
	</node>
	<node id="-370110" lat="57.9937055551" lon="7.06981388174">
		<tag k="name" v="Mikkelsbakken" />
		<tag k="place" v="farm" />
		<tag k="ssr:stedsnr" v="567366" />
	</node>
	<node id="-368061" lat="58.1802777776" lon="7.38779722722">
		<tag k="name" v="Oppsal" />
		<tag k="place" v="farm" />
		<tag k="ssr:stedsnr" v="303928" />
	</node>
	<node id="-368060" lat="58.072102778" lon="7.37177223017">
		<tag k="name" v="Sjølingstad" />
		<tag k="place" v="farm" />
		<tag k="ssr:stedsnr" v="303923" />
	</node>
	<node id="-368059" lat="58.0680861094" lon="7.38789166535">
		<tag k="name" v="Sjølingstad" />
		<tag k="place" v="farm" />
		<tag k="ssr:stedsnr" v="303918" />
	</node>
	<node id="-368058" lat="58.062125001" lon="7.36743888515">
		<tag k="alt_name" v="Ramsdal" />
		<tag k="fixme" v="consider place=hamlet" />
		<tag k="name" v="Ramsdalen" />
		<tag k="place" v="farm" />
		<tag k="ssr:stedsnr" v="303913" />
	</node>
	<node id="-368057" lat="58.0482833309" lon="7.28661111947">
		<tag k="name" v="Ytre Eigeland" />
		<tag k="place" v="farm" />
		<tag k="ssr:stedsnr" v="303895" />
	</node>
	<node id="-368055" lat="58.1359499976" lon="7.33019999397">
		<tag k="name" v="Ødegård ytre" />
		<tag k="place" v="isolated_dwelling" />
		<tag k="ssr:stedsnr" v="303867" />
	</node>
	<node id="-368054" lat="58.0983249979" lon="7.38245000418">
		<tag k="fixme" v="consider place=hamlet" />
		<tag k="name" v="Grundeland" />
		<tag k="place" v="farm" />
		<tag k="ssr:stedsnr" v="303839" />
	</node>
	<node id="-368053" lat="58.1452638905" lon="7.37303889128">
		<tag k="alt_name" v="Gaupedalen" />
		<tag k="fixme" v="consider place=hamlet" />
		<tag k="name" v="Gaupedal" />
		<tag k="place" v="farm" />
		<tag k="ssr:stedsnr" v="303752" />
	</node>
	<node id="-368052" lat="58.1317083326" lon="7.38704999961">
		<tag k="alt_name" v="Vasland" />
		<tag k="fixme" v="consider place=hamlet" />
		<tag k="name" v="Vassland" />
		<tag k="place" v="farm" />
		<tag k="ssr:stedsnr" v="303747" />
	</node>
	<node id="-368050" lat="58.000724999" lon="7.08744722425">
		<tag k="alt_name" v="Fjelskår;Fjeldskår" />
		<tag k="name" v="Fjellskår" />
		<tag k="place" v="hamlet" />
		<tag k="ssr:stedsnr" v="303637" />
	</node>
	<node id="-368049" lat="58.0738527807" lon="7.33930554949">
		<tag k="alt_name" v="Toreland" />
		<tag k="fixme" v="consider place=hamlet" />
		<tag k="name" v="Torland" />
		<tag k="place" v="farm" />
		<tag k="ssr:stedsnr" v="303621" />
	</node>
	<node id="-368048" lat="58.081791669" lon="7.24565000563">
		<tag k="fixme" v="consider place=hamlet" />
		<tag k="name" v="Saudland" />
		<tag k="place" v="farm" />
		<tag k="ssr:stedsnr" v="303608" />
	</node>
	<node id="-368047" lat="58.0523722236" lon="7.21562777326">
		<tag k="alt_name" v="Opshus, l;Opshus lille" />
		<tag k="fixme" v="consider place=hamlet" />
		<tag k="name" v="Lille Opshus" />
		<tag k="place" v="farm" />
		<tag k="ssr:stedsnr" v="303579" />
	</node>
	<node id="-368046" lat="58.1502500016" lon="7.33303888969">
		<tag k="fixme" v="consider place=hamlet" />
		<tag k="name" v="Røsstad" />
		<tag k="place" v="farm" />
		<tag k="ssr:stedsnr" v="303543" />
	</node>
	<node id="-368045" lat="58.1071305547" lon="7.31505000093">
		<tag k="name" v="Bakken" />
		<tag k="place" v="farm" />
		<tag k="ssr:stedsnr" v="303514" />
	</node>
	<node id="-368044" lat="58.1920944477" lon="7.28700555771">
		<tag k="alt_name" v="Leland store" />
		<tag k="fixme" v="consider place=hamlet" />
		<tag k="name" v="Leland" />
		<tag k="place" v="farm" />
		<tag k="ssr:stedsnr" v="303449" />
	</node>
	<node id="-368042" lat="58.2172111133" lon="7.34057500346">
		<tag k="name" v="Tryland" />
		<tag k="place" v="hamlet" />
		<tag k="ssr:stedsnr" v="303420" />
	</node>
	<node id="-370070" lat="58.1229666642" lon="7.39089166804">
		<tag k="alt_name" v="Holmesland;Hålumsland" />
		<tag k="fixme" v="consider place=hamlet" />
		<tag k="name" v="Holumsland" />
		<tag k="place" v="farm" />
		<tag k="ssr:stedsnr" v="546844" />
	</node>
	<node id="-370069" lat="58.175874999" lon="7.36031111078">
		<tag k="alt_name" v="Hægebostadøygarden" />
		<tag k="name" v="Øygarden" />
		<tag k="place" v="farm" />
		<tag k="ssr:stedsnr" v="546676" />
	</node>
	<node id="-370063" lat="58.0254583327" lon="7.07557778536">
		<tag k="alt_name" v="Jørgenstad" />
		<tag k="name" v="Jørenstad" />
		<tag k="place" v="hamlet" />
		<tag k="ssr:stedsnr" v="546617" />
	</node>
	<node id="-368013" lat="58.125813885" lon="7.34780000267">
		<tag k="name" v="Melhus" />
		<tag k="place" v="farm" />
		<tag k="ssr:stedsnr" v="293633" />
	</node>
	<node id="-370059" lat="58.0896138907" lon="7.31721111079">
		<tag k="name" v="Moen" />
		<tag k="place" v="farm" />
		<tag k="ssr:stedsnr" v="546558" />
	</node>
	<node id="-370057" lat="58.0486083321" lon="7.20079167279">
		<tag k="alt_name" v="Svenevig" />
		<tag k="fixme" v="consider place=suburb, village or hamlet" />
		<tag k="name" v="Svennevik" />
		<tag k="place" v="quarter" />
		<tag k="ssr:stedsnr" v="546543" />
	</node>
	<node id="-370053" lat="58.1177583326" lon="7.33568611008">
		<tag k="alt_name" v="Foss, nedre;Foss" />
		<tag k="name" v="Nedre Foss" />
		<tag k="place" v="hamlet" />
		<tag k="ssr:stedsnr" v="546469" />
	</node>
	<node id="-370051" lat="58.2277777821" lon="7.31645556005">
		<tag k="alt_name" v="Bergstøl" />
		<tag k="fixme" v="consider place=hamlet" />
		<tag k="name" v="Barstøl" />
		<tag k="place" v="farm" />
		<tag k="ssr:stedsnr" v="546397" />
	</node>
	<node id="-367999" lat="58.0472166624" lon="7.1254777714">
		<tag k="fixme" v="consider place=hamlet" />
		<tag k="name" v="Gare" />
		<tag k="place" v="farm" />
		<tag k="ssr:stedsnr" v="283353" />
	</node>
	<node id="-370046" lat="58.0010166679" lon="7.08903889251">
		<tag k="name" v="Indre Fjellskår" />
		<tag k="place" v="farm" />
		<tag k="ssr:stedsnr" v="545995" />
	</node>
	<node id="-370045" lat="58.0401027745" lon="7.11695555744">
		<tag k="name" v="Gare" />
		<tag k="place" v="farm" />
		<tag k="ssr:stedsnr" v="545988" />
	</node>
	<node id="-370044" lat="58.1809333298" lon="7.40132222434">
		<tag k="name" v="Oppsal" />
		<tag k="place" v="farm" />
		<tag k="ssr:stedsnr" v="545915" />
	</node>
	<node id="-370043" lat="58.0558472243" lon="7.18402221382">
		<tag k="name" v="Vestre Reme" />
		<tag k="place" v="farm" />
		<tag k="ssr:stedsnr" v="545800" />
	</node>
	<node id="-370039" lat="58.0466222261" lon="7.1307611028">
		<tag k="name" v="Gare" />
		<tag k="place" v="farm" />
		<tag k="ssr:stedsnr" v="545886" />
	</node>
	<node id="-370031" lat="58.0530694408" lon="7.2435777795">
		<tag k="name" v="Lonestrand" />
		<tag k="place" v="neighbourhood" />
		<tag k="ssr:stedsnr" v="542926" />
	</node>
	<node id="-370024" lat="58.0472861076" lon="7.1524250027">
		<tag k="name" v="Agndalen" />
		<tag k="place" v="farm" />
		<tag k="ssr:stedsnr" v="541054" />
	</node>
	<node id="-370021" lat="58.0527833356" lon="7.24757222985">
		<tag k="name" v="Lonestrand" />
		<tag k="place" v="farm" />
		<tag k="ssr:stedsnr" v="540176" />
	</node>
	<node id="-370018" lat="58.1274333307" lon="7.35004999803">
		<tag k="name" v="Melhus" />
		<tag k="place" v="farm" />
		<tag k="ssr:stedsnr" v="536626" />
	</node>
	<node id="-370006" lat="58.0869805561" lon="7.29825833469">
		<tag k="name" v="Trean" />
		<tag k="place" v="quarter" />
		<tag k="ssr:stedsnr" v="526994" />
	</node>
	<node id="-369968" lat="58.0752638863" lon="7.30509999484">
		<tag k="name" v="Vallenes" />
		<tag k="place" v="farm" />
		<tag k="ssr:stedsnr" v="508657" />
	</node>
	<node id="-369958" lat="58.1121388912" lon="7.21190833095">
		<tag k="fixme" v="consider place=hamlet" />
		<tag k="name" v="Stubakken" />
		<tag k="place" v="farm" />
		<tag k="ssr:stedsnr" v="507904" />
	</node>
	<node id="-369931" lat="58.1687111076" lon="7.24800555269">
		<tag k="name" v="Vestre Li" />
		<tag k="place" v="locality" />
		<tag k="ssr:stedsnr" v="507640" />
	</node>
	<node id="-369922" lat="58.1287638918" lon="7.34143054781">
		<tag k="name" v="Haga" />
		<tag k="place" v="farm" />
		<tag k="ssr:stedsnr" v="507565" />
	</node>
	<node id="-369902" lat="58.0099722222" lon="7.05458332787">
		<tag k="name" v="Nydal" />
		<tag k="place" v="farm" />
		<tag k="ssr:stedsnr" v="507394" />
	</node>
	<node id="-369885" lat="58.1963861103" lon="7.34594444824">
		<tag k="name" v="Tuen" />
		<tag k="place" v="farm" />
		<tag k="ssr:stedsnr" v="507269" />
	</node>
	<node id="-369879" lat="58.2207388847" lon="7.32077222374">
		<tag k="name" v="Akland" />
		<tag k="place" v="farm" />
		<tag k="ssr:stedsnr" v="507217" />
	</node>
	<node id="-369843" lat="58.0591555515" lon="7.19946388277">
		<tag k="name" v="Østre Reme" />
		<tag k="place" v="farm" />
		<tag k="ssr:stedsnr" v="485790" />
	</node>
	<node id="-369841" lat="58.1392638923" lon="7.39504999687">
		<tag k="alt_name" v="Mersland;Mærsland" />
		<tag k="fixme" v="consider place=hamlet" />
		<tag k="name" v="Mæresland" />
		<tag k="place" v="farm" />
		<tag k="ssr:stedsnr" v="485732" />
	</node>
	<node id="-369840" lat="58.1372249958" lon="7.34708611578">
		<tag k="alt_name" v="Hagehei" />
		<tag k="fixme" v="consider place=hamlet" />
		<tag k="name" v="Hageheia" />
		<tag k="place" v="farm" />
		<tag k="ssr:stedsnr" v="485729" />
	</node>
	<node id="-369838" lat="58.1463999985" lon="7.40218610953">
		<tag k="fixme" v="consider place=hamlet" />
		<tag k="name" v="Hagen" />
		<tag k="place" v="farm" />
		<tag k="ssr:stedsnr" v="485718" />
	</node>
	<node id="-369837" lat="58.1325055533" lon="7.44472499733">
		<tag k="fixme" v="consider place=hamlet" />
		<tag k="name" v="Engeland" />
		<tag k="place" v="farm" />
		<tag k="ssr:stedsnr" v="485716" />
	</node>
	<node id="-369836" lat="58.089633335" lon="7.33550834161">
		<tag k="alt_name" v="Vallehei" />
		<tag k="fixme" v="consider place=hamlet" />
		<tag k="name" v="Valleheia" />
		<tag k="place" v="farm" />
		<tag k="ssr:stedsnr" v="485671" />
	</node>
	<node id="-369835" lat="58.2227083309" lon="7.38706111907">
		<tag k="fixme" v="consider place=hamlet" />
		<tag k="name" v="Teland" />
		<tag k="place" v="farm" />
		<tag k="ssr:stedsnr" v="485667" />
	</node>
	<node id="-369833" lat="58.0345000014" lon="7.08540000095">
		<tag k="alt_name" v="Hegeland" />
		<tag k="fixme" v="consider place=hamlet" />
		<tag k="name" v="Hægeland" />
		<tag k="place" v="farm" />
		<tag k="ssr:stedsnr" v="485623" />
	</node>
	<node id="-369830" lat="58.0724611129" lon="7.2761972154">
		<tag k="alt_name" v="Geiteland" />
		<tag k="fixme" v="consider place=hamlet" />
		<tag k="name" v="Gjedeland" />
		<tag k="place" v="village" />
		<tag k="ssr:stedsnr" v="485574" />
	</node>
	<node id="-369829" lat="58.0686805548" lon="7.13159166095">
		<tag k="alt_name" v="Lindalen" />
		<tag k="name" v="Linddalen" />
		<tag k="place" v="hamlet" />
		<tag k="ssr:stedsnr" v="485505" />
	</node>
	<node id="-369828" lat="58.1112500042" lon="7.2347361056">
		<tag k="alt_name" v="Støle vestre;Støle" />
		<tag k="fixme" v="consider place=hamlet" />
		<tag k="name" v="Vestre Støle" />
		<tag k="place" v="farm" />
		<tag k="ssr:stedsnr" v="485462" />
	</node>
	<node id="-369826" lat="58.1678666672" lon="7.3081305545">
		<tag k="alt_name" v="Risdal, l;Risdal lille" />
		<tag k="fixme" v="consider place=hamlet" />
		<tag k="name" v="Lille Risdal" />
		<tag k="place" v="farm" />
		<tag k="ssr:stedsnr" v="485438" />
	</node>
	<node id="-369825" lat="58.1561888932" lon="7.30899444924">
		<tag k="alt_name" v="Eigedal" />
		<tag k="fixme" v="consider place=hamlet" />
		<tag k="name" v="Eikedal" />
		<tag k="place" v="farm" />
		<tag k="ssr:stedsnr" v="485415" />
	</node>
	<node id="-369824" lat="58.1856916624" lon="7.29497500683">
		<tag k="alt_name" v="Leland lille" />
		<tag k="fixme" v="consider place=hamlet" />
		<tag k="name" v="Lille Leland" />
		<tag k="place" v="farm" />
		<tag k="ssr:stedsnr" v="485375" />
	</node>
	<node id="-369821" lat="58.0717750004" lon="7.38977777403">
		<tag k="name" v="Sjølingstad" />
		<tag k="place" v="farm" />
		<tag k="ssr:stedsnr" v="485918" />
	</node>
	<node id="-369820" lat="58.0652888929" lon="7.38670555931">
		<tag k="name" v="Skogly" />
		<tag k="place" v="farm" />
		<tag k="ssr:stedsnr" v="485909" />
	</node>
	<node id="-369816" lat="58.0529277771" lon="7.19177777293">
		<tag k="name" v="Østre Reme" />
		<tag k="place" v="farm" />
		<tag k="ssr:stedsnr" v="484924" />
	</node>
	<node id="-369800" lat="58.0610444473" lon="7.23167777058">
		<tag k="fixme" v="consider place=hamlet" />
		<tag k="name" v="Lone" />
		<tag k="place" v="village" />
		<tag k="ssr:stedsnr" v="480467" />
	</node>
	<node id="-369792" lat="58.0612583349" lon="7.23163055118">
		<tag k="name" v="Lone" />
		<tag k="place" v="farm" />
		<tag k="ssr:stedsnr" v="466444" />
	</node>
	<node id="-369696" lat="58.1653138917" lon="7.3262500017">
		<tag k="fixme" v="consider place=hamlet" />
		<tag k="name" v="Hestehei" />
		<tag k="place" v="farm" />
		<tag k="ssr:stedsnr" v="447462" />
	</node>
	<node id="-369635" lat="58.1059583368" lon="7.34475000789">
		<tag k="name" v="Skofteland" />
		<tag k="place" v="farm" />
		<tag k="ssr:stedsnr" v="425860" />
	</node>
	<node id="-369634" lat="58.056483335" lon="7.19595556047">
		<tag k="name" v="Østre Reme" />
		<tag k="place" v="farm" />
		<tag k="ssr:stedsnr" v="425835" />
	</node>
	<node id="-369633" lat="58.1593083301" lon="7.36372776996">
		<tag k="fixme" v="consider place=hamlet" />
		<tag k="name" v="Spilling" />
		<tag k="place" v="farm" />
		<tag k="ssr:stedsnr" v="425822" />
	</node>
	<node id="-369630" lat="58.2024777752" lon="7.39597222003">
		<tag k="alt_name" v="Vasland" />
		<tag k="fixme" v="consider place=hamlet" />
		<tag k="name" v="Vassland" />
		<tag k="place" v="farm" />
		<tag k="ssr:stedsnr" v="425715" />
	</node>
	<node id="-369629" lat="58.186877777" lon="7.35926667507">
		<tag k="loc_name" v="Hægebostad" />
		<tag k="name" v="Hægbostad" />
		<tag k="place" v="farm" />
		<tag k="ssr:stedsnr" v="425698" />
	</node>
	<node id="-369627" lat="58.0349611102" lon="7.10239999186">
		<tag k="alt_name" v="Ytre Ramsland" />
		<tag k="fixme" v="consider place=hamlet" />
		<tag k="name" v="Ramsland" />
		<tag k="place" v="farm" />
		<tag k="ssr:stedsnr" v="425672" />
	</node>
	<node id="-369624" lat="58.0842861125" lon="7.30508611178">
		<tag k="name" v="Vigeland" />
		<tag k="place" v="village" />
		<tag k="ssr:stedsnr" v="425591" />
	</node>
	<node id="-369623" lat="58.092025004" lon="7.2859000059">
		<tag k="name" v="Brandsnes" />
		<tag k="place" v="farm" />
		<tag k="ssr:stedsnr" v="425577" />
	</node>
	<node id="-369622" lat="58.0500277759" lon="7.26455000553">
		<tag k="name" v="Mørkesdal" />
		<tag k="place" v="farm" />
		<tag k="ssr:stedsnr" v="425573" />
	</node>
	<node id="-369621" lat="58.0597138857" lon="7.22043055805">
		<tag k="alt_name" v="Lysestøl" />
		<tag k="fixme" v="consider place=hamlet" />
		<tag k="name" v="Ljosestøl" />
		<tag k="place" v="farm" />
		<tag k="ssr:stedsnr" v="425555" />
	</node>
	<node id="-369620" lat="58.0676388889" lon="7.33503333536">
		<tag k="fixme" v="consider place=hamlet" />
		<tag k="name" v="Fasseland" />
		<tag k="place" v="farm" />
		<tag k="ssr:stedsnr" v="425551" />
	</node>
	<node id="-369619" lat="58.0634472206" lon="7.18691388808">
		<tag k="fixme" v="consider place=hamlet" />
		<tag k="name" v="Håvestøl" />
		<tag k="place" v="farm" />
		<tag k="ssr:stedsnr" v="425546" />
	</node>
	<node id="-369618" lat="58.1028555595" lon="7.24666944669">
		<tag k="fixme" v="consider place=hamlet" />
		<tag k="name" v="Steinsland" />
		<tag k="place" v="farm" />
		<tag k="ssr:stedsnr" v="425507" />
	</node>
	<node id="-369616" lat="58.202216668" lon="7.28731389489">
		<tag k="alt_name" v="Trondstad" />
		<tag k="fixme" v="consider place=hamlet" />
		<tag k="name" v="Tronstad" />
		<tag k="place" v="farm" />
		<tag k="ssr:stedsnr" v="425447" />
	</node>
	<node id="-369615" lat="58.0094416695" lon="7.07564167067">
		<tag k="name" v="Indre Fjellskår" />
		<tag k="place" v="farm" />
		<tag k="ssr:stedsnr" v="424999" />
	</node>
	<node id="-369614" lat="58.0019500007" lon="7.08831389085">
		<tag k="name" v="Indre Fjellskår" />
		<tag k="place" v="farm" />
		<tag k="ssr:stedsnr" v="424997" />
	</node>
	<node id="-371632" lat="58.3221374236" lon="7.29662072196">
		<tag k="fixme" v="consider place=hamlet" />
		<tag k="name" v="Øvre Eikeland" />
		<tag k="place" v="farm" />
		<tag k="ssr:stedsnr" v="979370" />
	</node>
	<node id="-371631" lat="58.070952855" lon="7.31886325617">
		<tag k="name" v="Lian" />
		<tag k="place" v="hamlet" />
		<tag k="ssr:stedsnr" v="979366" />
	</node>
	<node id="-371630" lat="58.0882909745" lon="7.29797558587">
		<tag k="name" v="Vigeland" />
		<tag k="place" v="hamlet" />
		<tag k="ssr:stedsnr" v="979365" />
	</node>
	<node id="-371629" lat="58.105552514" lon="7.34290973726">
		<tag k="name" v="Skofteland" />
		<tag k="place" v="hamlet" />
		<tag k="ssr:stedsnr" v="979364" />
	</node>
	<node id="-371628" lat="58.1398585782" lon="7.32514305318">
		<tag k="name" v="Grisledal" />
		<tag k="place" v="hamlet" />
		<tag k="ssr:stedsnr" v="979363" />
	</node>
	<node id="-371627" lat="58.1064679347" lon="7.22909046881">
		<tag k="name" v="Utland" />
		<tag k="place" v="hamlet" />
		<tag k="ssr:stedsnr" v="979362" />
	</node>
	<node id="-371626" lat="58.0547181539" lon="7.21930898357">
		<tag k="name" v="Opshus" />
		<tag k="place" v="hamlet" />
		<tag k="ssr:stedsnr" v="979361" />
	</node>
	<node id="-371625" lat="58.0236868961" lon="7.07239809671">
		<tag k="name" v="Jørenstad" />
		<tag k="place" v="hamlet" />
		<tag k="ssr:stedsnr" v="979360" />
	</node>
	<node id="-371624" lat="57.9902608513" lon="7.06175069587">
		<tag k="name" v="Våge" />
		<tag k="place" v="hamlet" />
		<tag k="ssr:stedsnr" v="979359" />
	</node>
	<node id="-371623" lat="57.9994181342" lon="7.08856868033">
		<tag k="name" v="Fjellskår" />
		<tag k="place" v="hamlet" />
		<tag k="ssr:stedsnr" v="979358" />
	</node>
	<node id="-371622" lat="58.0363302709" lon="7.10226804359">
		<tag k="name" v="Ramsland" />
		<tag k="place" v="hamlet" />
		<tag k="ssr:stedsnr" v="979357" />
	</node>
	<node id="-371621" lat="58.0364184127" lon="7.17870998877">
		<tag k="name" v="Imsa" />
		<tag k="place" v="hamlet" />
		<tag k="ssr:stedsnr" v="979356" />
	</node>
	<node id="-371620" lat="58.0534479045" lon="7.191515387">
		<tag k="name" v="Reme" />
		<tag k="place" v="hamlet" />
		<tag k="ssr:stedsnr" v="979355" />
	</node>
	<node id="-371619" lat="58.0483356392" lon="7.20033248137">
		<tag k="name" v="Svennevik" />
		<tag k="place" v="hamlet" />
		<tag k="ssr:stedsnr" v="979352" />
	</node>
	<node id="-371618" lat="58.1622915356" lon="7.33896075505">
		<tag k="name" v="Esperås" />
		<tag k="place" v="locality" />
		<tag k="ssr:stedsnr" v="979351" />
	</node>
	<node id="-371617" lat="58.1697568619" lon="7.30597290661">
		<tag k="name" v="Risdal" />
		<tag k="place" v="hamlet" />
		<tag k="ssr:stedsnr" v="979350" />
	</node>
	<node id="-371616" lat="58.188805227" lon="7.2919011383">
		<tag k="name" v="Leland" />
		<tag k="place" v="hamlet" />
		<tag k="ssr:stedsnr" v="979349" />
	</node>
	<node id="-371615" lat="58.2216602815" lon="7.33604138267">
		<tag k="fixme" v="consider place=hamlet" />
		<tag k="name" v="Øvre Tryland" />
		<tag k="place" v="farm" />
		<tag k="ssr:stedsnr" v="979348" />
	</node>
	<node id="-371614" lat="58.2168966743" lon="7.3425718735">
		<tag k="fixme" v="consider place=hamlet" />
		<tag k="name" v="Nedre Tryland" />
		<tag k="place" v="farm" />
		<tag k="ssr:stedsnr" v="979345" />
	</node>
	<node id="-371613" lat="58.203409189" lon="7.33464910689">
		<tag k="fixme" v="consider place=hamlet" />
		<tag k="name" v="Øvre Vigmostad" />
		<tag k="place" v="farm" />
		<tag k="ssr:stedsnr" v="979344" />
	</node>
	<node id="-371612" lat="58.2019928881" lon="7.3333600182">
		<tag k="fixme" v="consider place=hamlet" />
		<tag k="name" v="Vigmostad prestegård" />
		<tag k="place" v="farm" />
		<tag k="ssr:stedsnr" v="979343" />
	</node>
	<node id="-371611" lat="58.1805605672" lon="7.36029904592">
		<tag k="fixme" v="consider place=hamlet" />
		<tag k="name" v="Hægebostad" />
		<tag k="place" v="farm" />
		<tag k="ssr:stedsnr" v="979342" />
	</node>
	<node id="-371610" lat="58.1650383386" lon="7.35199365846">
		<tag k="fixme" v="consider place=hamlet" />
		<tag k="name" v="Kleivsfjellet" />
		<tag k="place" v="farm" />
		<tag k="ssr:stedsnr" v="979341" />
	</node>
	<node id="-371609" lat="58.1687957001" lon="7.39959170889">
		<tag k="fixme" v="consider place=hamlet" />
		<tag k="name" v="Vestre Tjomsland" />
		<tag k="place" v="farm" />
		<tag k="ssr:stedsnr" v="979340" />
	</node>
	<node id="-371608" lat="58.1668700254" lon="7.40883774187">
		<tag k="fixme" v="consider place=hamlet" />
		<tag k="name" v="Østre Tjomsland" />
		<tag k="place" v="farm" />
		<tag k="ssr:stedsnr" v="979339" />
	</node>
	<node id="-371607" lat="58.2029261749" lon="7.37618201759">
		<tag k="fixme" v="consider place=hamlet" />
		<tag k="name" v="Floge-Seland" />
		<tag k="place" v="farm" />
		<tag k="ssr:stedsnr" v="979338" />
	</node>
	<node id="-371605" lat="58.0665266562" lon="7.13229256549">
		<tag k="fixme" v="consider place=hamlet" />
		<tag k="name" v="Lindalen" />
		<tag k="place" v="farm" />
		<tag k="ssr:stedsnr" v="979329" />
	</node>
	<node id="-371604" lat="58.0212192689" lon="7.03970114366">
		<tag k="name" v="Launes med sandviken" />
		<tag k="place" v="locality" />
		<tag k="ssr:stedsnr" v="979328" />
	</node>
	<node id="-371603" lat="58.0251796048" lon="7.07627418006">
		<tag k="fixme" v="consider place=hamlet" />
		<tag k="name" v="Indre Jørenstad" />
		<tag k="place" v="farm" />
		<tag k="ssr:stedsnr" v="979327" />
	</node>
	<node id="-371602" lat="58.0213318954" lon="7.06816185533">
		<tag k="fixme" v="consider place=hamlet" />
		<tag k="name" v="Ytre Jørenstad" />
		<tag k="place" v="farm" />
		<tag k="ssr:stedsnr" v="979326" />
	</node>
	<node id="-371601" lat="57.9912819757" lon="7.06417482732">
		<tag k="fixme" v="consider place=hamlet" />
		<tag k="name" v="Kilen" />
		<tag k="place" v="farm" />
		<tag k="ssr:stedsnr" v="979325" />
	</node>
	<node id="-371600" lat="57.9936458051" lon="7.07208358892">
		<tag k="fixme" v="consider place=hamlet" />
		<tag k="name" v="Øvre Våge" />
		<tag k="place" v="farm" />
		<tag k="ssr:stedsnr" v="979324" />
	</node>
	<node id="-371599" lat="58.0346607698" lon="7.18551158779">
		<tag k="name" v="Østre Imsa" />
		<tag k="place" v="locality" />
		<tag k="ssr:stedsnr" v="979317" />
	</node>
	<node id="-371598" lat="58.0347839683" lon="7.17506604076">
		<tag k="name" v="Vestre Imsa" />
		<tag k="place" v="locality" />
		<tag k="ssr:stedsnr" v="979315" />
	</node>
	<node id="-371597" lat="57.98132529" lon="7.20874521145">
		<tag k="name" v="Utvåre" />
		<tag k="place" v="locality" />
		<tag k="ssr:stedsnr" v="979312" />
	</node>
	<node id="-371596" lat="58.0372309137" lon="7.10254392032">
		<tag k="fixme" v="consider place=hamlet" />
		<tag k="name" v="Indre Ramsland" />
		<tag k="place" v="farm" />
		<tag k="ssr:stedsnr" v="979323" />
	</node>
	<node id="-371595" lat="58.0509908215" lon="7.19918742523">
		<tag k="fixme" v="consider place=hamlet" />
		<tag k="name" v="Nedre Svennevik" />
		<tag k="place" v="farm" />
		<tag k="ssr:stedsnr" v="979281" />
	</node>
	<node id="-371594" lat="58.0470090039" lon="7.19879159912">
		<tag k="fixme" v="consider place=hamlet" />
		<tag k="name" v="Øvre Svennevik" />
		<tag k="place" v="farm" />
		<tag k="ssr:stedsnr" v="979280" />
	</node>
	<node id="-371593" lat="58.0350997492" lon="7.21701093695">
		<tag k="fixme" v="consider place=hamlet" />
		<tag k="name" v="Åviken" />
		<tag k="place" v="farm" />
		<tag k="ssr:stedsnr" v="979279" />
	</node>
	<node id="-371592" lat="58.0296619875" lon="7.2249261031">
		<tag k="fixme" v="consider place=hamlet" />
		<tag k="name" v="Svinø" />
		<tag k="place" v="farm" />
		<tag k="ssr:stedsnr" v="979278" />
	</node>
	<node id="-371591" lat="58.0733826386" lon="7.27172749789">
		<tag k="fixme" v="consider place=hamlet" />
		<tag k="name" v="Gjeiteland" />
		<tag k="place" v="farm" />
		<tag k="ssr:stedsnr" v="979276" />
	</node>
	<node id="-371590" lat="58.0824072871" lon="7.21133464566">
		<tag k="fixme" v="consider place=hamlet" />
		<tag k="name" v="Vettesdalshei" />
		<tag k="place" v="farm" />
		<tag k="ssr:stedsnr" v="979268" />
	</node>
	<node id="-371589" lat="58.1039752394" lon="7.2308274541">
		<tag k="fixme" v="consider place=hamlet" />
		<tag k="name" v="Østre Utland" />
		<tag k="place" v="farm" />
		<tag k="ssr:stedsnr" v="979267" />
	</node>
	<node id="-371588" lat="58.1257732541" lon="7.26875890776">
		<tag k="fixme" v="consider place=hamlet" />
		<tag k="name" v="Stiland" />
		<tag k="place" v="farm" />
		<tag k="ssr:stedsnr" v="979265" />
	</node>
	<node id="-371586" lat="58.1388318493" lon="7.31549440889">
		<tag k="fixme" v="consider place=hamlet" />
		<tag k="name" v="Lille Grisledal" />
		<tag k="place" v="farm" />
		<tag k="ssr:stedsnr" v="979263" />
	</node>
	<node id="-371585" lat="58.1359215268" lon="7.33378207404">
		<tag k="fixme" v="consider place=hamlet" />
		<tag k="name" v="Hage-Ødegården" />
		<tag k="place" v="farm" />
		<tag k="ssr:stedsnr" v="979261" />
	</node>
	<node id="-371584" lat="58.1366780862" lon="7.32901553033">
		<tag k="fixme" v="consider place=hamlet" />
		<tag k="name" v="Ytre Grisledal" />
		<tag k="place" v="farm" />
		<tag k="ssr:stedsnr" v="979260" />
	</node>
	<node id="-371583" lat="58.1414538916" lon="7.32892082313">
		<tag k="fixme" v="consider place=hamlet" />
		<tag k="name" v="Grisledal ved vannet" />
		<tag k="place" v="farm" />
		<tag k="ssr:stedsnr" v="979258" />
	</node>
	<node id="-371582" lat="58.1457559336" lon="7.34833712843">
		<tag k="name" v="Hageskog" />
		<tag k="place" v="locality" />
		<tag k="ssr:stedsnr" v="979257" />
	</node>
	<node id="-371581" lat="58.1185735236" lon="7.33444148378">
		<tag k="fixme" v="consider place=hamlet" />
		<tag k="name" v="Foss" />
		<tag k="place" v="farm" />
		<tag k="ssr:stedsnr" v="979256" />
	</node>
	<node id="-371580" lat="58.0821649286" lon="7.3092300824">
		<tag k="fixme" v="consider place=hamlet" />
		<tag k="name" v="Valle prestegård" />
		<tag k="place" v="farm" />
		<tag k="ssr:stedsnr" v="979244" />
	</node>
	<node id="-371579" lat="58.0897128271" lon="7.28751830507">
		<tag k="fixme" v="consider place=hamlet" />
		<tag k="name" v="Nedre Vigeland" />
		<tag k="place" v="farm" />
		<tag k="ssr:stedsnr" v="979243" />
	</node>
	<node id="-371578" lat="58.0842648952" lon="7.298579005">
		<tag k="fixme" v="consider place=hamlet" />
		<tag k="name" v="Øvre Vigeland" />
		<tag k="place" v="farm" />
		<tag k="ssr:stedsnr" v="979241" />
	</node>
	<node id="-371577" lat="58.0682738305" lon="7.28232782789">
		<tag k="fixme" v="consider place=hamlet" />
		<tag k="name" v="Rauberg" />
		<tag k="place" v="farm" />
		<tag k="ssr:stedsnr" v="979240" />
	</node>
	<node id="-371576" lat="58.0372768617" lon="7.26169083397">
		<tag k="fixme" v="consider place=hamlet" />
		<tag k="name" v="Underøy" />
		<tag k="place" v="farm" />
		<tag k="ssr:stedsnr" v="979225" />
	</node>
	<node id="-371575" lat="58.0358383711" lon="7.31005381768">
		<tag k="fixme" v="consider place=hamlet" />
		<tag k="name" v="Kvåfjordneset" />
		<tag k="place" v="farm" />
		<tag k="ssr:stedsnr" v="979205" />
	</node>
	<node id="-371574" lat="58.0351618487" lon="7.31348923293">
		<tag k="fixme" v="consider place=hamlet" />
		<tag k="name" v="Ytre Ramsdalen" />
		<tag k="place" v="farm" />
		<tag k="ssr:stedsnr" v="979204" />
	</node>
	<node id="-371573" lat="58.0425055564" lon="7.31467517991">
		<tag k="fixme" v="consider place=hamlet" />
		<tag k="name" v="Kvåfjord" />
		<tag k="place" v="farm" />
		<tag k="ssr:stedsnr" v="979203" />
	</node>
	<node id="-371572" lat="58.0550399325" lon="7.32725940164">
		<tag k="name" v="Engehaven" />
		<tag k="place" v="locality" />
		<tag k="ssr:stedsnr" v="979202" />
	</node>
	<node id="-371571" lat="58.0623717064" lon="7.32411722331">
		<tag k="fixme" v="consider place=hamlet" />
		<tag k="name" v="Ponsen" />
		<tag k="place" v="farm" />
		<tag k="ssr:stedsnr" v="979201" />
	</node>
	<node id="-371570" lat="58.0698823481" lon="7.32149763591">
		<tag k="fixme" v="consider place=hamlet" />
		<tag k="name" v="Indre Lian" />
		<tag k="place" v="farm" />
		<tag k="ssr:stedsnr" v="979200" />
	</node>
	<node id="-371569" lat="58.0675822061" lon="7.34697716473">
		<tag k="fixme" v="consider place=hamlet" />
		<tag k="name" v="Fasselandsnes" />
		<tag k="place" v="farm" />
		<tag k="ssr:stedsnr" v="979196" />
	</node>
	<node id="-371568" lat="58.091309927" lon="7.39481410861">
		<tag k="fixme" v="consider place=hamlet" />
		<tag k="name" v="Øvre Eikeland" />
		<tag k="place" v="farm" />
		<tag k="ssr:stedsnr" v="979194" />
	</node>
	<node id="-371562" lat="58.0769758575" lon="7.3406868365">
		<tag k="name" v="Trædal" />
		<tag k="place" v="farm" />
		<tag k="ssr:stedsnr" v="977269" />
	</node>
	<node id="-371561" lat="58.0769377953" lon="7.34274552911">
		<tag k="name" v="Trædal" />
		<tag k="place" v="farm" />
		<tag k="ssr:stedsnr" v="977268" />
	</node>
	<node id="-371560" lat="58.0748873054" lon="7.34967820318">
		<tag k="name" v="Trædal" />
		<tag k="place" v="farm" />
		<tag k="ssr:stedsnr" v="977267" />
	</node>
	<node id="-371559" lat="58.0753557642" lon="7.34928928471">
		<tag k="name" v="Trædal" />
		<tag k="place" v="farm" />
		<tag k="ssr:stedsnr" v="977266" />
	</node>
	<node id="-371558" lat="58.0751151694" lon="7.34611822437">
		<tag k="fixme" v="consider place=hamlet" />
		<tag k="name" v="Trædal" />
		<tag k="place" v="farm" />
		<tag k="ssr:stedsnr" v="977265" />
	</node>
	<node id="-371557" lat="58.1344816542" lon="7.37030074909">
		<tag k="name" v="Ertzeid" />
		<tag k="place" v="farm" />
		<tag k="ssr:stedsnr" v="977262" />
	</node>
	<node id="-371556" lat="58.1349188787" lon="7.36957191383">
		<tag k="name" v="Erseid" />
		<tag k="place" v="farm" />
		<tag k="ssr:stedsnr" v="977261" />
	</node>
	<node id="-371555" lat="58.1360018885" lon="7.36894097091">
		<tag k="name" v="Erseid" />
		<tag k="place" v="farm" />
		<tag k="ssr:stedsnr" v="977260" />
	</node>
	<node id="-371554" lat="58.135664525" lon="7.36924314022">
		<tag k="name" v="Erseid" />
		<tag k="place" v="farm" />
		<tag k="ssr:stedsnr" v="977259" />
	</node>
	<node id="-371551" lat="58.0644694475" lon="7.39605555078">
		<tag k="name" v="Sjølingstad" />
		<tag k="place" v="farm" />
		<tag k="ssr:stedsnr" v="970645" />
	</node>
	<node id="-371550" lat="58.0626288227" lon="7.38532453286">
		<tag k="name" v="Sjølingstad" />
		<tag k="place" v="farm" />
		<tag k="ssr:stedsnr" v="970642" />
	</node>
	<node id="-371549" lat="58.0489472234" lon="7.28647777369">
		<tag k="name" v="Eigeland" />
		<tag k="place" v="farm" />
		<tag k="ssr:stedsnr" v="970616" />
	</node>
	<node id="-371548" lat="58.0516388873" lon="7.11153611962">
		<tag k="name" v="Gare" />
		<tag k="place" v="farm" />
		<tag k="ssr:stedsnr" v="970606" />
	</node>
	<node id="-371547" lat="58.0432555558" lon="7.11631666675">
		<tag k="name" v="Gare" />
		<tag k="place" v="farm" />
		<tag k="ssr:stedsnr" v="970599" />
	</node>
	<node id="-371546" lat="58.0557185654" lon="7.18282386578">
		<tag k="name" v="Vestre Reme" />
		<tag k="place" v="farm" />
		<tag k="ssr:stedsnr" v="970485" />
	</node>
	<node id="-371507" lat="58.0523478732" lon="7.18929656797">
		<tag k="fixme" v="consider place=hamlet" />
		<tag k="name" v="Vestre Reme" />
		<tag k="place" v="farm" />
		<tag k="ssr:stedsnr" v="952432" />
	</node>
	<node id="-371501" lat="58.0785249988" lon="7.31982499863">
		<tag k="name" v="Trædalslia" />
		<tag k="place" v="quarter" />
		<tag k="ssr:stedsnr" v="950996" />
	</node>
	<node id="-371500" lat="58.0785249988" lon="7.31982499863">
		<tag k="name" v="Hestehaven" />
		<tag k="place" v="quarter" />
		<tag k="ssr:stedsnr" v="950992" />
	</node>
	<node id="-371499" lat="58.2021305587" lon="7.34176388191">
		<tag k="name" v="Kyrehagen" />
		<tag k="place" v="quarter" />
		<tag k="ssr:stedsnr" v="950988" />
	</node>
	<node id="-369440" lat="58.0637472191" lon="7.20374445271">
		<tag k="name" v="Gloppa" />
		<tag k="place" v="farm" />
		<tag k="ssr:stedsnr" v="264029" />
	</node>
	<node id="-371487" lat="57.9972915607" lon="7.0882026687">
		<tag k="fixme" v="consider place=hamlet" />
		<tag k="name" v="Ytre Fjellskår" />
		<tag k="place" v="farm" />
		<tag k="ssr:stedsnr" v="950410" />
	</node>
	<node id="-369436" lat="58.07638889" lon="7.34542777307">
		<tag k="name" v="Tredal" />
		<tag k="place" v="farm" />
		<tag k="ssr:stedsnr" v="243926" />
	</node>
	<node id="-369433" lat="58.108816664" lon="7.40082777714">
		<tag k="fixme" v="consider place=hamlet" />
		<tag k="name" v="Birkeland" />
		<tag k="place" v="farm" />
		<tag k="ssr:stedsnr" v="243862" />
	</node>
	<node id="-369432" lat="58.1229555573" lon="7.41284166846">
		<tag k="alt_name" v="Goksem" />
		<tag k="fixme" v="consider place=hamlet" />
		<tag k="name" v="Gauksum" />
		<tag k="place" v="farm" />
		<tag k="ssr:stedsnr" v="243852" />
	</node>
	<node id="-369431" lat="58.1680500027" lon="7.38603610509">
		<tag k="alt_name" v="Heddan" />
		<tag k="fixme" v="consider place=hamlet" />
		<tag k="name" v="Helland" />
		<tag k="place" v="farm" />
		<tag k="ssr:stedsnr" v="243809" />
	</node>
	<node id="-369430" lat="58.1688638919" lon="7.35905556364">
		<tag k="alt_name" v="Einarsmo" />
		<tag k="fixme" v="consider place=hamlet" />
		<tag k="name" v="Einarsmonen" />
		<tag k="place" v="farm" />
		<tag k="ssr:stedsnr" v="243805" />
	</node>
	<node id="-369428" lat="58.1604888899" lon="7.41252500439">
		<tag k="alt_name" v="Støle øvre;Støle" />
		<tag k="fixme" v="consider place=hamlet" />
		<tag k="name" v="Øvre Støle" />
		<tag k="place" v="farm" />
		<tag k="ssr:stedsnr" v="243782" />
	</node>
	<node id="-369425" lat="58.0474789295" lon="7.12563481655">
		<tag k="alt_name" v="Gahre" />
		<tag k="name" v="Gare" />
		<tag k="place" v="hamlet" />
		<tag k="ssr:stedsnr" v="243595" />
	</node>
	<node id="-369424" lat="58.0393305559" lon="7.08676944912">
		<tag k="fixme" v="consider place=hamlet" />
		<tag k="name" v="Mønestad" />
		<tag k="place" v="farm" />
		<tag k="ssr:stedsnr" v="243588" />
	</node>
	<node id="-369423" lat="58.0521222242" lon="7.19517500465">
		<tag k="name" v="Reme" />
		<tag k="place" v="hamlet" />
		<tag k="ssr:stedsnr" v="243582" />
	</node>
	<node id="-369421" lat="58.1234777795" lon="7.32094999482">
		<tag k="name" v="Grasdal" />
		<tag k="place" v="farm" />
		<tag k="ssr:stedsnr" v="243570" />
	</node>
	<node id="-369419" lat="58.1110555521" lon="7.2121000086">
		<tag k="fixme" v="consider place=hamlet" />
		<tag k="name" v="Osestad" />
		<tag k="place" v="farm" />
		<tag k="ssr:stedsnr" v="243518" />
	</node>
	<node id="-369418" lat="58.11986111" lon="7.34270277322">
		<tag k="fixme" v="consider place=suburb, village or hamlet" />
		<tag k="name" v="Buhølen" />
		<tag k="place" v="quarter" />
		<tag k="ssr:stedsnr" v="243504" />
	</node>
	<node id="-369412" lat="58.0519305548" lon="7.19242222384">
		<tag k="name" v="Østre Reme" />
		<tag k="place" v="farm" />
		<tag k="ssr:stedsnr" v="242929" />
	</node>
	<node id="-369411" lat="58.1827944477" lon="7.39273610309">
		<tag k="name" v="Oppsal" />
		<tag k="place" v="farm" />
		<tag k="ssr:stedsnr" v="242922" />
	</node>
	<node id="-369410" lat="58.050855555" lon="7.2873694468">
		<tag k="name" v="Ytre Eigeland" />
		<tag k="place" v="farm" />
		<tag k="ssr:stedsnr" v="242903" />
	</node>
	<node id="-369409" lat="58.0663861122" lon="7.37572776953">
		<tag k="name" v="Sjølingstad" />
		<tag k="place" v="farm" />
		<tag k="ssr:stedsnr" v="242901" />
	</node>
	<node id="-369408" lat="58.0487833298" lon="7.28441944218">
		<tag k="name" v="Ytre Eigeland" />
		<tag k="place" v="farm" />
		<tag k="ssr:stedsnr" v="242897" />
	</node>
	<node id="-369404" lat="58.0964499992" lon="7.31936666263">
		<tag k="name" v="Valle" />
		<tag k="place" v="farm" />
		<tag k="ssr:stedsnr" v="242562" />
	</node>
	<node id="-371450" lat="58.0740722238" lon="7.29419445084">
		<tag k="name" v="Hovan" />
		<tag k="place" v="farm" />
		<tag k="ssr:stedsnr" v="932773" />
	</node>
	<node id="-371448" lat="58.0674777755" lon="7.28749167022">
		<tag k="name" v="Vollan" />
		<tag k="place" v="farm" />
		<tag k="ssr:stedsnr" v="932767" />
	</node>
	<node id="-371447" lat="58.0718361074" lon="7.28373888909">
		<tag k="name" v="Haven" />
		<tag k="place" v="farm" />
		<tag k="ssr:stedsnr" v="932764" />
	</node>
	<node id="-369380" lat="58.1253972241" lon="7.3472416732">
		<tag k="name" v="Melhus" />
		<tag k="place" v="farm" />
		<tag k="ssr:stedsnr" v="232567" />
	</node>
	<node id="-371416" lat="58.1385805546" lon="7.45831944439">
		<tag k="fixme" v="consider place=hamlet" />
		<tag k="name" v="Kårstøl" />
		<tag k="place" v="farm" />
		<tag k="ssr:stedsnr" v="932443" />
	</node>
	<node id="-369366" lat="58.0593555582" lon="7.23416666216">
		<tag k="name" v="Lone" />
		<tag k="place" v="farm" />
		<tag k="ssr:stedsnr" v="223437" />
	</node>
	<node id="-371395" lat="58.2005611076" lon="7.30055834152">
		<tag k="fixme" v="consider place=hamlet" />
		<tag k="name" v="Ådnebergli" />
		<tag k="place" v="farm" />
		<tag k="ssr:stedsnr" v="932301" />
	</node>
	<node id="-371386" lat="58.0952833362" lon="7.21958888269">
		<tag k="name" v="Rymtelandsøygard" />
		<tag k="place" v="locality" />
		<tag k="ssr:stedsnr" v="932251" />
	</node>
	<node id="-369332" lat="58.0344861078" lon="7.29081110295">
		<tag k="name" v="Austgården" />
		<tag k="place" v="hamlet" />
		<tag k="ssr:stedsnr" v="204954" />
	</node>
	<node id="-369095" lat="58.0791750033" lon="7.31591110581">
		<tag k="name" v="Mørkelia" />
		<tag k="place" v="quarter" />
		<tag k="ssr:stedsnr" v="143634" />
	</node>
	<node id="-369317" lat="58.1217444438" lon="7.25790277008">
		<tag k="name" v="Tjortenes" />
		<tag k="place" v="locality" />
		<tag k="ssr:stedsnr" v="204752" />
	</node>
	<node id="-371355" lat="58.0481416669" lon="7.12532777538">
		<tag k="name" v="Gare" />
		<tag k="place" v="farm" />
		<tag k="ssr:stedsnr" v="910989" />
	</node>
	<node id="-371354" lat="57.997686107" lon="7.08784722718">
		<tag k="name" v="Ytre Fjellskår" />
		<tag k="place" v="farm" />
		<tag k="ssr:stedsnr" v="910988" />
	</node>
	<node id="-371353" lat="58.0732000041" lon="7.40208611076">
		<tag k="fixme" v="consider place=hamlet" />
		<tag k="name" v="Romedal" />
		<tag k="place" v="farm" />
		<tag k="ssr:stedsnr" v="910935" />
	</node>
	<node id="-371352" lat="58.050855555" lon="7.2873694468">
		<tag k="name" v="Ytre Eigeland" />
		<tag k="place" v="farm" />
		<tag k="ssr:stedsnr" v="910910" />
	</node>
	<node id="-371351" lat="58.0484111138" lon="7.12778611219">
		<tag k="name" v="Gare" />
		<tag k="place" v="farm" />
		<tag k="ssr:stedsnr" v="910907" />
	</node>
	<node id="-371350" lat="58.1143250043" lon="7.37118055585">
		<tag k="alt_name" v="Rørseland" />
		<tag k="fixme" v="consider place=hamlet" />
		<tag k="name" v="Røyseland" />
		<tag k="place" v="farm" />
		<tag k="ssr:stedsnr" v="910883" />
	</node>
	<node id="-371349" lat="58.1020000035" lon="7.36553610594">
		<tag k="fixme" v="consider place=hamlet" />
		<tag k="name" v="Vallerås" />
		<tag k="place" v="farm" />
		<tag k="ssr:stedsnr" v="910857" />
	</node>
	<node id="-371347" lat="58.0594222184" lon="7.20058611877">
		<tag k="name" v="Østre Reme" />
		<tag k="place" v="farm" />
		<tag k="ssr:stedsnr" v="910807" />
	</node>
	<node id="-371346" lat="58.1648777811" lon="7.43867499155">
		<tag k="fixme" v="consider place=hamlet" />
		<tag k="name" v="Vågestad" />
		<tag k="place" v="farm" />
		<tag k="ssr:stedsnr" v="910798" />
	</node>
	<node id="-371344" lat="58.1355027806" lon="7.36975555188">
		<tag k="alt_name" v="Ertseid" />
		<tag k="fixme" v="consider place=hamlet" />
		<tag k="name" v="Erseid" />
		<tag k="place" v="farm" />
		<tag k="ssr:stedsnr" v="910769" />
	</node>
	<node id="-371342" lat="58.2129305597" lon="7.41043888391">
		<tag k="fixme" v="consider place=hamlet" />
		<tag k="name" v="Bjåstad" />
		<tag k="place" v="farm" />
		<tag k="ssr:stedsnr" v="910728" />
	</node>
	<node id="-371341" lat="58.2024861144" lon="7.37856666838">
		<tag k="name" v="Seland" />
		<tag k="place" v="farm" />
		<tag k="ssr:stedsnr" v="910682" />
	</node>
	<node id="-371337" lat="58.1343527781" lon="7.30487499829">
		<tag k="alt_name" v="Hedderåsen" />
		<tag k="fixme" v="consider place=hamlet" />
		<tag k="name" v="Hellerås" />
		<tag k="place" v="farm" />
		<tag k="ssr:stedsnr" v="910553" />
	</node>
	<node id="-371336" lat="58.1034750013" lon="7.24707777021">
		<tag k="alt_name" v="Tveida;Tveiten" />
		<tag k="fixme" v="consider place=hamlet" />
		<tag k="name" v="Tveita" />
		<tag k="place" v="farm" />
		<tag k="ssr:stedsnr" v="910542" />
	</node>
	<node id="-371335" lat="58.0970249956" lon="7.31053610613">
		<tag k="fixme" v="consider place=hamlet" />
		<tag k="name" v="Roland" />
		<tag k="place" v="farm" />
		<tag k="ssr:stedsnr" v="910540" />
	</node>
	<node id="-371331" lat="57.9962250006" lon="7.08607499553">
		<tag k="name" v="Myra" />
		<tag k="place" v="farm" />
		<tag k="ssr:stedsnr" v="910006" />
	</node>
	<node id="-371315" lat="58.0374444453" lon="7.06268610723">
		<tag k="name" v="Haraldstadstrand" />
		<tag k="place" v="neighbourhood" />
		<tag k="ssr:stedsnr" v="907899" />
	</node>
	<node id="-369254" lat="58.2190555549" lon="7.41205000572">
		<tag k="fixme" v="consider place=hamlet" />
		<tag k="name" v="Røyseland" />
		<tag k="place" v="farm" />
		<tag k="ssr:stedsnr" v="203217" />
	</node>
	<node id="-371288" lat="58.1464944419" lon="7.38585277664">
		<tag k="name" v="Smedsland" />
		<tag k="place" v="isolated_dwelling" />
		<tag k="ssr:stedsnr" v="872608" />
	</node>
	<node id="-369232" lat="58.0479583298" lon="7.12647221789">
		<tag k="name" v="Gare" />
		<tag k="place" v="farm" />
		<tag k="ssr:stedsnr" v="182992" />
	</node>
	<node id="-369230" lat="58.0686194463" lon="7.38810556376">
		<tag k="alt_name" v="Skjøllungsstad" />
		<tag k="name" v="Sjølingstad" />
		<tag k="place" v="hamlet" />
		<tag k="ssr:stedsnr" v="182905" />
	</node>
	<node id="-369229" lat="58.1171777778" lon="7.4103166741">
		<tag k="fixme" v="consider place=hamlet" />
		<tag k="name" v="Skarstad" />
		<tag k="place" v="farm" />
		<tag k="ssr:stedsnr" v="182851" />
	</node>
	<node id="-369222" lat="58.0327694462" lon="7.22121665873">
		<tag k="fixme" v="consider place=suburb, village or hamlet" />
		<tag k="name" v="Åvik" />
		<tag k="place" v="quarter" />
		<tag k="ssr:stedsnr" v="182660" />
	</node>
	<node id="-369220" lat="58.0897583377" lon="7.29126944635">
		<tag k="name" v="Livoll" />
		<tag k="place" v="farm" />
		<tag k="ssr:stedsnr" v="182598" />
	</node>
	<node id="-369219" lat="58.0476894961" lon="7.15666595812">
		<tag k="fixme" v="consider place=hamlet" />
		<tag k="name" v="Njerve" />
		<tag k="place" v="farm" />
		<tag k="ssr:stedsnr" v="182583" />
	</node>
	<node id="-369218" lat="58.0691138907" lon="7.31785277871">
		<tag k="alt_name" v="Ytre Lian" />
		<tag k="fixme" v="consider place=hamlet" />
		<tag k="name" v="Lian" />
		<tag k="place" v="farm" />
		<tag k="ssr:stedsnr" v="182572" />
	</node>
	<node id="-369217" lat="58.0625388912" lon="7.32100833111">
		<tag k="name" v="Ponsen" />
		<tag k="place" v="isolated_dwelling" />
		<tag k="ssr:stedsnr" v="182568" />
	</node>
	<node id="-369216" lat="58.0605333354" lon="7.17888610317">
		<tag k="fixme" v="consider place=hamlet" />
		<tag k="name" v="Remesvik" />
		<tag k="place" v="farm" />
		<tag k="ssr:stedsnr" v="182564" />
	</node>
	<node id="-369215" lat="58.1359499976" lon="7.33019999397">
		<tag k="name" v="Øygarden" />
		<tag k="place" v="isolated_dwelling" />
		<tag k="ssr:stedsnr" v="182531" />
	</node>
	<node id="-369214" lat="58.1456777818" lon="7.28069443909">
		<tag k="alt_name" v="Døble" />
		<tag k="fixme" v="consider place=hamlet" />
		<tag k="name" v="Døbla" />
		<tag k="place" v="farm" />
		<tag k="ssr:stedsnr" v="182527" />
	</node>
	<node id="-369213" lat="58.111758332" lon="7.24710000527">
		<tag k="alt_name" v="Stedjedal" />
		<tag k="fixme" v="consider place=hamlet" />
		<tag k="name" v="Steggedalen" />
		<tag k="place" v="farm" />
		<tag k="ssr:stedsnr" v="182503" />
	</node>
	<node id="-369212" lat="58.1995833348" lon="7.33602499595">
		<tag k="alt_name" v="Nedre Vigmostad" />
		<tag k="fixme" v="consider place=hamlet" />
		<tag k="name" v="Vigmostad" />
		<tag k="place" v="farm" />
		<tag k="ssr:stedsnr" v="182458" />
	</node>
	<node id="-369209" lat="58.0492250042" lon="7.28439722059">
		<tag k="name" v="Ytre Eigeland" />
		<tag k="place" v="farm" />
		<tag k="ssr:stedsnr" v="181898" />
	</node>
	<node id="-370440" lat="58.0913388884" lon="7.26586943847">
		<tag k="alt_name" v="Haukenes" />
		<tag k="fixme" v="consider place=hamlet" />
		<tag k="name" v="Haugenes" />
		<tag k="place" v="farm" />
		<tag k="ssr:stedsnr" v="628725" />
	</node>
	<node id="-371241" lat="58.1590361149" lon="7.33725833125">
		<tag k="fixme" v="consider place=hamlet" />
		<tag k="name" v="Trolldalen" />
		<tag k="place" v="farm" />
		<tag k="ssr:stedsnr" v="871497" />
	</node>
	<node id="-369186" lat="58.0517694482" lon="7.18417778458">
		<tag k="name" v="Skotberget" />
		<tag k="place" v="farm" />
		<tag k="ssr:stedsnr" v="177063" />
	</node>
	<node id="-369180" lat="58.0530055517" lon="7.19157222926">
		<tag k="name" v="Østre Reme" />
		<tag k="place" v="farm" />
		<tag k="ssr:stedsnr" v="176185" />
	</node>
	<node id="-369179" lat="58.1270027813" lon="7.34935556205">
		<tag k="name" v="Melhus" />
		<tag k="place" v="farm" />
		<tag k="ssr:stedsnr" v="171657" />
	</node>
	<node id="-369157" lat="58.0905722181" lon="7.29283055566">
		<tag k="name" v="Sølvberget" />
		<tag k="place" v="quarter" />
		<tag k="ssr:stedsnr" v="161987" />
	</node>
	<node id="-371181" lat="58.0547166638" lon="7.15522222812">
		<tag k="name" v="Skavika" />
		<tag k="place" v="locality" />
		<tag k="ssr:stedsnr" v="871041" />
	</node>
	<node id="-369131" lat="58.0738694484" lon="7.29965278556">
		<tag k="alt_name" v="Kragestadmoen" />
		<tag k="name" v="Kragstadmoen" />
		<tag k="place" v="farm" />
		<tag k="ssr:stedsnr" v="143940" />
	</node>
	<node id="-371174" lat="58.0993805557" lon="7.30102499507">
		<tag k="alt_name" v="Hovsdal" />
		<tag k="fixme" v="consider place=hamlet" />
		<tag k="name" v="Hovsdalen" />
		<tag k="place" v="farm" />
		<tag k="ssr:stedsnr" v="850531" />
	</node>
	<node id="-371173" lat="58.1011666711" lon="7.3214055616">
		<tag k="alt_name" v="Nyland" />
		<tag k="fixme" v="consider place=hamlet" />
		<tag k="name" v="Nylund" />
		<tag k="place" v="farm" />
		<tag k="ssr:stedsnr" v="850529" />
	</node>
	<node id="-371172" lat="58.1072138876" lon="7.22600277843">
		<tag k="alt_name" v="Vestre Utland" />
		<tag k="fixme" v="consider place=hamlet" />
		<tag k="name" v="Udland" />
		<tag k="place" v="farm" />
		<tag k="ssr:stedsnr" v="850516" />
	</node>
	<node id="-371166" lat="57.9971333373" lon="7.0479083336">
		<tag k="fixme" v="consider place=hamlet" />
		<tag k="name" v="Syrdal" />
		<tag k="place" v="farm" />
		<tag k="ssr:stedsnr" v="850004" />
	</node>
	<node id="-371165" lat="58.0405160925" lon="7.11508062523">
		<tag k="name" v="Gare" />
		<tag k="place" v="farm" />
		<tag k="ssr:stedsnr" v="849998" />
	</node>
	<node id="-371164" lat="58.0528611105" lon="7.1920861113">
		<tag k="name" v="Østre Reme" />
		<tag k="place" v="farm" />
		<tag k="ssr:stedsnr" v="849919" />
	</node>
	<node id="-371163" lat="58.0476388851" lon="7.12674166434">
		<tag k="name" v="Gare" />
		<tag k="place" v="farm" />
		<tag k="ssr:stedsnr" v="849897" />
	</node>
	<node id="-371161" lat="58.0139111113" lon="7.09867500221">
		<tag k="fixme" v="consider place=hamlet" />
		<tag k="name" v="Flatebø" />
		<tag k="place" v="farm" />
		<tag k="ssr:stedsnr" v="849714" />
	</node>
	<node id="-371160" lat="58.0732805531" lon="7.17134999825">
		<tag k="fixme" v="consider place=hamlet" />
		<tag k="name" v="Møgedal" />
		<tag k="place" v="farm" />
		<tag k="ssr:stedsnr" v="849665" />
	</node>
	<node id="-371143" lat="58.068630557" lon="7.38137499712">
		<tag k="fixme" v="consider place=hamlet" />
		<tag k="name" v="Sjølingstad" />
		<tag k="place" v="farm" />
		<tag k="ssr:stedsnr" v="845153" />
	</node>
	<node id="-369085" lat="58.142052782" lon="7.3310277705">
		<tag k="name" v="Ødegård" />
		<tag k="place" v="farm" />
		<tag k="ssr:stedsnr" v="143561" />
	</node>
	<node id="-371126" lat="58.0520833323" lon="7.19173611838">
		<tag k="fixme" v="consider place=hamlet" />
		<tag k="name" v="Østre Reme" />
		<tag k="place" v="farm" />
		<tag k="ssr:stedsnr" v="831407" />
	</node>
	<node id="-371125" lat="58.051694726" lon="7.24802440678">
		<tag k="fixme" v="consider place=hamlet" />
		<tag k="name" v="Lonestrand" />
		<tag k="place" v="farm" />
		<tag k="ssr:stedsnr" v="831405" />
	</node>
	<node id="-371118" lat="58.0401305567" lon="7.3157833358">
		<tag k="name" v="Kåfjord vest" />
		<tag k="place" v="neighbourhood" />
		<tag k="ssr:stedsnr" v="829996" />
	</node>
	<node id="-369065" lat="58.1059638888" lon="7.34475555468">
		<tag k="fixme" v="consider place=hamlet" />
		<tag k="name" v="Skofteland øvre" />
		<tag k="place" v="farm" />
		<tag k="ssr:stedsnr" v="143444" />
	</node>
	<node id="-369025" lat="58.1843416662" lon="7.3979222242">
		<tag k="name" v="Bustøbakken" />
		<tag k="place" v="farm" />
		<tag k="ssr:stedsnr" v="142221" />
	</node>
	<node id="-369013" lat="57.999697222" lon="7.09447499733">
		<tag k="name" v="Indre Fjellskår" />
		<tag k="place" v="farm" />
		<tag k="ssr:stedsnr" v="122000" />
	</node>
	<node id="-369012" lat="58.0606472222" lon="7.17928611186">
		<tag k="name" v="Remesvik" />
		<tag k="place" v="farm" />
		<tag k="ssr:stedsnr" v="121920" />
	</node>
	<node id="-369011" lat="58.0534749965" lon="7.285161113">
		<tag k="fixme" v="consider place=hamlet" />
		<tag k="name" v="Ytre Eigeland" />
		<tag k="place" v="farm" />
		<tag k="ssr:stedsnr" v="121905" />
	</node>
	<node id="-369010" lat="58.0433138912" lon="7.28578332516">
		<tag k="name" v="Ytre Eigeland" />
		<tag k="place" v="farm" />
		<tag k="ssr:stedsnr" v="121899" />
	</node>
	<node id="-369009" lat="58.0457999982" lon="7.12926110488">
		<tag k="name" v="Gare" />
		<tag k="place" v="farm" />
		<tag k="ssr:stedsnr" v="121895" />
	</node>
	<node id="-369008" lat="58.1448305514" lon="7.34972500725">
		<tag k="historic" v="shieling" />
		<tag k="name" v="Hageskog" />
		<tag k="place" v="locality" />
		<tag k="ssr:stedsnr" v="121767" />
	</node>
	<node id="-369007" lat="58.1297944407" lon="7.35518889077">
		<tag k="fixme" v="consider place=hamlet" />
		<tag k="name" v="Haga" />
		<tag k="place" v="farm" />
		<tag k="ssr:stedsnr" v="121739" />
	</node>
	<node id="-369006" lat="58.2100083346" lon="7.25859722386">
		<tag k="alt_name" v="Støle vestre" />
		<tag k="fixme" v="multiple name tags, choose one and add the other to alt_name; consider place=hamlet" />
		<tag k="loc_name" v="Støle ytre" />
		<tag k="name" v="Støle;Vestre Støle" />
		<tag k="place" v="farm" />
		<tag k="ssr:stedsnr" v="121720" />
	</node>
	<node id="-369005" lat="58.1865805592" lon="7.34718610337">
		<tag k="alt_name" v="Lølandsmoen" />
		<tag k="fixme" v="consider place=hamlet" />
		<tag k="name" v="Lølandsmonen" />
		<tag k="place" v="farm" />
		<tag k="ssr:stedsnr" v="121705" />
	</node>
	<node id="-369001" lat="58.0770138876" lon="7.22869167079">
		<tag k="alt_name" v="Fidje" />
		<tag k="fixme" v="consider place=hamlet" />
		<tag k="name" v="Fidja" />
		<tag k="place" v="farm" />
		<tag k="ssr:stedsnr" v="121625" />
	</node>
	<node id="-369000" lat="58.0512437346" lon="7.24690479681">
		<tag k="name" v="Lonestrand" />
		<tag k="place" v="hamlet" />
		<tag k="ssr:stedsnr" v="121585" />
	</node>
	<node id="-368999" lat="58.0506305582" lon="7.14087499487">
		<tag k="fixme" v="consider place=hamlet" />
		<tag k="name" v="Stokke" />
		<tag k="place" v="farm" />
		<tag k="ssr:stedsnr" v="121574" />
	</node>
	<node id="-371045" lat="58.1561194425" lon="7.36583334128">
		<tag k="name" v="Krogen" />
		<tag k="place" v="farm" />
		<tag k="ssr:stedsnr" v="811609" />
	</node>
	<node id="-368994" lat="58.0530388924" lon="7.19124721995">
		<tag k="name" v="Østre Reme" />
		<tag k="place" v="farm" />
		<tag k="ssr:stedsnr" v="120938" />
	</node>
	<node id="-368977" lat="58.0511472253" lon="7.24682222127">
		<tag k="name" v="Lone" />
		<tag k="place" v="farm" />
		<tag k="ssr:stedsnr" v="118431" />
	</node>
	<node id="-370061" lat="58.0786999977" lon="7.21964999572">
		<tag k="fixme" v="consider place=hamlet" />
		<tag k="name" v="Vettesdal" />
		<tag k="place" v="farm" />
		<tag k="ssr:stedsnr" v="546569" />
	</node>
	<node id="-368966" lat="58.1211416691" lon="7.34359167091">
		<tag k="name" v="Melhus" />
		<tag k="place" v="farm" />
		<tag k="ssr:stedsnr" v="111596" />
	</node>
	<node id="-370999" lat="58.0311527782" lon="7.0748138847">
		<tag k="name" v="Hauan" />
		<tag k="place" v="farm" />
		<tag k="ssr:stedsnr" v="810199" />
	</node>
	<node id="-370985" lat="58.0922444454" lon="7.39102499237">
		<tag k="name" v="Eikeland" />
		<tag k="place" v="farm" />
		<tag k="ssr:stedsnr" v="789838" />
	</node>
	<node id="-370984" lat="58.1769249983" lon="7.42280556351">
		<tag k="alt_name" v="Ljosstøl;Ljosestøl" />
		<tag k="fixme" v="consider place=hamlet" />
		<tag k="name" v="Lysestøl" />
		<tag k="place" v="farm" />
		<tag k="ssr:stedsnr" v="789811" />
	</node>
	<node id="-370983" lat="58.1463777736" lon="7.41623889744">
		<tag k="fixme" v="consider place=hamlet" />
		<tag k="name" v="Røksland" />
		<tag k="place" v="farm" />
		<tag k="ssr:stedsnr" v="789772" />
	</node>
	<node id="-370980" lat="58.2190916633" lon="7.37109167053">
		<tag k="alt_name" v="Augland" />
		<tag k="fixme" v="consider place=hamlet" />
		<tag k="name" v="Aukland" />
		<tag k="place" v="farm" />
		<tag k="ssr:stedsnr" v="789731" />
	</node>
	<node id="-370976" lat="58.0279527756" lon="7.08117777459">
		<tag k="name" v="Dammen" />
		<tag k="place" v="farm" />
		<tag k="ssr:stedsnr" v="789665" />
	</node>
	<node id="-370975" lat="58.0895500033" lon="7.21631944511">
		<tag k="fixme" v="consider place=hamlet" />
		<tag k="name" v="Rymteland" />
		<tag k="place" v="farm" />
		<tag k="ssr:stedsnr" v="789585" />
	</node>
	<node id="-370974" lat="58.1261638865" lon="7.26597221818">
		<tag k="alt_name" v="Stiland, vestre;Stiland" />
		<tag k="name" v="Vestre Stiland" />
		<tag k="place" v="farm" />
		<tag k="ssr:stedsnr" v="789561" />
	</node>
	<node id="-368005" lat="58.0580388861" lon="7.23526388072">
		<tag k="name" v="Lone" />
		<tag k="place" v="farm" />
		<tag k="ssr:stedsnr" v="284414" />
	</node>
	<node id="-370970" lat="58.122363886" lon="7.22803610776">
		<tag k="fixme" v="consider place=hamlet" />
		<tag k="name" v="Bjelland" />
		<tag k="place" v="farm" />
		<tag k="ssr:stedsnr" v="789508" />
	</node>
	<node id="-370969" lat="58.1185611136" lon="7.27218055036">
		<tag k="alt_name" v="Helland" />
		<tag k="name" v="Heddan" />
		<tag k="place" v="isolated_dwelling" />
		<tag k="ssr:stedsnr" v="789502" />
	</node>
	<node id="-370968" lat="58.1172777779" lon="7.24966943743">
		<tag k="name" v="Banken" />
		<tag k="place" v="isolated_dwelling" />
		<tag k="ssr:stedsnr" v="789501" />
	</node>
	<node id="-370965" lat="58.0503694462" lon="7.19368611144">
		<tag k="name" v="Østre Reme" />
		<tag k="place" v="farm" />
		<tag k="ssr:stedsnr" v="788922" />
	</node>
	<node id="-370964" lat="58.0446416698" lon="7.29043055106">
		<tag k="name" v="Ytre Eigeland" />
		<tag k="place" v="farm" />
		<tag k="ssr:stedsnr" v="788892" />
	</node>
	<node id="-370963" lat="58.0479694438" lon="7.1295388909">
		<tag k="name" v="Gare" />
		<tag k="place" v="farm" />
		<tag k="ssr:stedsnr" v="788885" />
	</node>
	<node id="-370961" lat="58.085408335" lon="7.18970277188">
		<tag k="fixme" v="consider place=hamlet" />
		<tag k="name" v="Hægeland" />
		<tag k="place" v="farm" />
		<tag k="ssr:stedsnr" v="788596" />
	</node>
	<node id="-370960" lat="58.0609861141" lon="7.20868610333">
		<tag k="fixme" v="consider place=hamlet" />
		<tag k="name" v="Feland" />
		<tag k="place" v="farm" />
		<tag k="ssr:stedsnr" v="788554" />
	</node>
	<node id="-370959" lat="58.0694583312" lon="7.28454721767">
		<tag k="alt_name" v="Rødberg" />
		<tag k="fixme" v="consider place=hamlet" />
		<tag k="name" v="Raudberg" />
		<tag k="place" v="village" />
		<tag k="ssr:stedsnr" v="788549" />
	</node>
	<node id="-368909" lat="58.074338886" lon="7.28020554793">
		<tag k="name" v="Haran" />
		<tag k="place" v="farm" />
		<tag k="ssr:stedsnr" v="83808" />
	</node>
	<node id="-370947" lat="58.0592750029" lon="7.23227222126">
		<tag k="name" v="Lone" />
		<tag k="place" v="farm" />
		<tag k="ssr:stedsnr" v="786512" />
	</node>
	<node id="-370942" lat="58.0591972263" lon="7.2312083391">
		<tag k="name" v="Lone" />
		<tag k="place" v="farm" />
		<tag k="ssr:stedsnr" v="785435" />
	</node>
	<node id="-370872" lat="58.1327777809" lon="7.29703610576">
		<tag k="name" v="Hella" />
		<tag k="place" v="locality" />
		<tag k="ssr:stedsnr" v="750804" />
	</node>
	<node id="-368805" lat="58.1596055547" lon="7.45635556245">
		<tag k="fixme" v="consider place=hamlet" />
		<tag k="name" v="Mydland" />
		<tag k="place" v="farm" />
		<tag k="ssr:stedsnr" v="61786" />
	</node>
	<node id="-368804" lat="58.1533138902" lon="7.46667499457">
		<tag k="fixme" v="consider place=hamlet" />
		<tag k="name" v="Håland" />
		<tag k="place" v="farm" />
		<tag k="ssr:stedsnr" v="61784" />
	</node>
	<node id="-368802" lat="58.1532805581" lon="7.41089999252">
		<tag k="alt_name" v="Eivenstad" />
		<tag k="fixme" v="consider place=hamlet" />
		<tag k="name" v="Evenstad" />
		<tag k="place" v="farm" />
		<tag k="ssr:stedsnr" v="61772" />
	</node>
	<node id="-368800" lat="58.1338055568" lon="7.42628888573">
		<tag k="fixme" v="consider place=hamlet" />
		<tag k="name" v="Bogstadlia" />
		<tag k="place" v="farm" />
		<tag k="ssr:stedsnr" v="61752" />
	</node>
	<node id="-368797" lat="58.1610805523" lon="7.34643611231">
		<tag k="alt_name" v="Kleiven;Kleven" />
		<tag k="fixme" v="consider place=hamlet" />
		<tag k="name" v="Kleiva" />
		<tag k="place" v="farm" />
		<tag k="ssr:stedsnr" v="61722" />
	</node>
	<node id="-368796" lat="58.1750305583" lon="7.34733889287">
		<tag k="fixme" v="consider place=hamlet" />
		<tag k="name" v="Løland" />
		<tag k="place" v="farm" />
		<tag k="ssr:stedsnr" v="61697" />
	</node>
	<node id="-368794" lat="58.1950583291" lon="7.42582778172">
		<tag k="fixme" v="consider place=hamlet" />
		<tag k="name" v="Hennestad" />
		<tag k="place" v="farm" />
		<tag k="ssr:stedsnr" v="61682" />
	</node>
	<node id="-368793" lat="58.1868166694" lon="7.39692778359">
		<tag k="fixme" v="consider place=hamlet" />
		<tag k="name" v="Håland" />
		<tag k="place" v="farm" />
		<tag k="ssr:stedsnr" v="61681" />
	</node>
	<node id="-368789" lat="58.0534777776" lon="7.27070555529">
		<tag k="alt_name" v="Snik" />
		<tag k="fixme" v="consider place=suburb, village or hamlet" />
		<tag k="name" v="Snig" />
		<tag k="place" v="quarter" />
		<tag k="ssr:stedsnr" v="61559" />
	</node>
	<node id="-368788" lat="58.0511777743" lon="7.13058888838">
		<tag k="alt_name" v="Midtbø" />
		<tag k="fixme" v="consider place=hamlet" />
		<tag k="name" v="Midbø" />
		<tag k="place" v="farm" />
		<tag k="ssr:stedsnr" v="61556" />
	</node>
	<node id="-368787" lat="58.0607302524" lon="7.23154495419">
		<tag k="fixme" v="consider place=hamlet" />
		<tag k="name" v="Lone" />
		<tag k="place" v="farm" />
		<tag k="ssr:stedsnr" v="61537" />
	</node>
	<node id="-368786" lat="58.124503848" lon="7.31973007922">
		<tag k="alt_name" v="Birkestøl" />
		<tag k="fixme" v="consider place=hamlet" />
		<tag k="name" v="Birkjestøl" />
		<tag k="place" v="farm" />
		<tag k="ssr:stedsnr" v="61530" />
	</node>
	<node id="-368784" lat="58.1081388886" lon="7.18931666924">
		<tag k="alt_name" v="Molandslien" />
		<tag k="fixme" v="consider place=hamlet" />
		<tag k="name" v="Molandsli" />
		<tag k="place" v="farm" />
		<tag k="ssr:stedsnr" v="61486" />
	</node>
	<node id="-368783" lat="58.1734694462" lon="7.30588332498">
		<tag k="alt_name" v="Risdal, store" />
		<tag k="fixme" v="consider place=hamlet" />
		<tag k="name" v="Store Risdal" />
		<tag k="place" v="farm" />
		<tag k="ssr:stedsnr" v="61476" />
	</node>
	<node id="-368782" lat="58.1739749975" lon="7.33096110915">
		<tag k="alt_name" v="Stølsås" />
		<tag k="fixme" v="consider place=hamlet" />
		<tag k="name" v="Stølsåsen" />
		<tag k="place" v="farm" />
		<tag k="ssr:stedsnr" v="61472" />
	</node>
	<node id="-368781" lat="58.2299944403" lon="7.29977222193">
		<tag k="fixme" v="consider place=hamlet" />
		<tag k="name" v="Brådland" />
		<tag k="place" v="farm" />
		<tag k="ssr:stedsnr" v="61415" />
	</node>
	<node id="-368777" lat="58.0454305542" lon="7.130974994">
		<tag k="name" v="Gareheim" />
		<tag k="place" v="farm" />
		<tag k="ssr:stedsnr" v="60999" />
	</node>
	<node id="-368776" lat="58.0481416669" lon="7.12532777538">
		<tag k="name" v="Gare" />
		<tag k="place" v="farm" />
		<tag k="ssr:stedsnr" v="60996" />
	</node>
	<node id="-368775" lat="58.0458749981" lon="7.29645277888">
		<tag k="name" v="Ytre Eigeland" />
		<tag k="place" v="farm" />
		<tag k="ssr:stedsnr" v="60912" />
	</node>
	<node id="-368774" lat="58.048891671" lon="7.12628610471">
		<tag k="name" v="Gare" />
		<tag k="place" v="farm" />
		<tag k="ssr:stedsnr" v="60909" />
	</node>
	<node id="-368771" lat="58.0876527784" lon="7.19294999321">
		<tag k="fixme" v="consider place=hamlet" />
		<tag k="name" v="Støle" />
		<tag k="place" v="farm" />
		<tag k="ssr:stedsnr" v="60593" />
	</node>
	<node id="-368770" lat="58.0960805584" lon="7.28743610784">
		<tag k="alt_name" v="Giskedal" />
		<tag k="fixme" v="consider place=hamlet" />
		<tag k="name" v="Geiskedal" />
		<tag k="place" v="farm" />
		<tag k="ssr:stedsnr" v="60576" />
	</node>
	<node id="-368747" lat="58.0487138905" lon="7.25732777462">
		<tag k="name" v="Vardebakken" />
		<tag k="place" v="neighbourhood" />
		<tag k="ssr:stedsnr" v="57918" />
	</node>
	<node id="-368746" lat="58.0559222214" lon="7.11075000526">
		<tag k="name" v="Øksnevik" />
		<tag k="place" v="neighbourhood" />
		<tag k="ssr:stedsnr" v="57911" />
	</node>
	<node id="-368745" lat="58.006361107" lon="7.04109444557">
		<tag k="name" v="Stusvik" />
		<tag k="place" v="neighbourhood" />
		<tag k="ssr:stedsnr" v="57912" />
	</node>
	<node id="-368997" lat="58.1048194413" lon="7.3000833418">
		<tag k="name" v="Landås" />
		<tag k="place" v="isolated_dwelling" />
		<tag k="ssr:stedsnr" v="121529" />
	</node>
	<node id="-368732" lat="58.1257111138" lon="7.35261665809">
		<tag k="name" v="Melhus" />
		<tag k="place" v="farm" />
		<tag k="ssr:stedsnr" v="50487" />
	</node>
	<node id="-368731" lat="58.1223138921" lon="7.34307499903">
		<tag k="name" v="Melhus" />
		<tag k="place" v="farm" />
		<tag k="ssr:stedsnr" v="50484" />
	</node>
	<node id="-370778" lat="58.0501805585" lon="7.13283333851">
		<tag k="name" v="Haugtuna" />
		<tag k="place" v="farm" />
		<tag k="ssr:stedsnr" v="749094" />
	</node>
	<node id="-370774" lat="57.9946333302" lon="7.08873610711">
		<tag k="name" v="Ytre Fjellskår" />
		<tag k="place" v="farm" />
		<tag k="ssr:stedsnr" v="728983" />
	</node>
	<node id="-370773" lat="58.0690527775" lon="7.3748944457">
		<tag k="name" v="Sjølingstad" />
		<tag k="place" v="farm" />
		<tag k="ssr:stedsnr" v="728910" />
	</node>
	<node id="-370771" lat="58.0520027782" lon="7.29200832502">
		<tag k="name" v="Ytre Eigeland" />
		<tag k="place" v="farm" />
		<tag k="ssr:stedsnr" v="728893" />
	</node>
	<node id="-370770" lat="58.1126388898" lon="7.36791111734">
		<tag k="fixme" v="consider place=hamlet" />
		<tag k="name" v="Slettan" />
		<tag k="place" v="farm" />
		<tag k="ssr:stedsnr" v="728863" />
	</node>
	<node id="-370769" lat="58.0619750038" lon="7.18171110786">
		<tag k="name" v="Vestre Reme" />
		<tag k="place" v="farm" />
		<tag k="ssr:stedsnr" v="728800" />
	</node>
	<node id="-370768" lat="58.0575722185" lon="7.18861111504">
		<tag k="name" v="Vestre Reme" />
		<tag k="place" v="farm" />
		<tag k="ssr:stedsnr" v="728797" />
	</node>
	<node id="-370766" lat="58.1738500001" lon="7.38181110295">
		<tag k="alt_name" v="Josal" />
		<tag k="fixme" v="consider place=hamlet" />
		<tag k="name" v="Jorsal" />
		<tag k="place" v="farm" />
		<tag k="ssr:stedsnr" v="728668" />
	</node>
	<node id="-370765" lat="58.1822916663" lon="7.40125555753">
		<tag k="name" v="Nygård" />
		<tag k="place" v="farm" />
		<tag k="ssr:stedsnr" v="728665" />
	</node>
	<node id="-370762" lat="58.0530583337" lon="7.28456111814">
		<tag k="alt_name" v="Voiland" />
		<tag k="name" v="Vøyland" />
		<tag k="place" v="farm" />
		<tag k="ssr:stedsnr" v="728559" />
	</node>
	<node id="-370761" lat="58.0694277812" lon="7.20984167062">
		<tag k="fixme" v="consider place=hamlet" />
		<tag k="name" v="Gåsestein" />
		<tag k="place" v="farm" />
		<tag k="ssr:stedsnr" v="728552" />
	</node>
	<node id="-370760" lat="58.1281500011" lon="7.23406667074">
		<tag k="fixme" v="consider place=hamlet" />
		<tag k="name" v="Haugdal" />
		<tag k="place" v="farm" />
		<tag k="ssr:stedsnr" v="728533" />
	</node>
	<node id="-370759" lat="58.0970250028" lon="7.26495556367">
		<tag k="fixme" v="consider place=hamlet" />
		<tag k="name" v="Fardal" />
		<tag k="place" v="farm" />
		<tag k="ssr:stedsnr" v="728519" />
	</node>
	<node id="-370758" lat="58.1113916696" lon="7.18945556321">
		<tag k="fixme" v="consider place=hamlet" />
		<tag k="name" v="Osestadstranda" />
		<tag k="place" v="farm" />
		<tag k="ssr:stedsnr" v="728507" />
	</node>
	<node id="-370757" lat="58.1174472205" lon="7.23272499317">
		<tag k="fixme" v="consider place=hamlet" />
		<tag k="name" v="Høyland" />
		<tag k="place" v="farm" />
		<tag k="ssr:stedsnr" v="728496" />
	</node>
	<node id="-370756" lat="58.1629194418" lon="7.33928889061">
		<tag k="alt_name" v="Esperås" />
		<tag k="name" v="Esperåsen" />
		<tag k="place" v="isolated_dwelling" />
		<tag k="ssr:stedsnr" v="728473" />
	</node>
	<node id="-368309" lat="58.0771916708" lon="7.33638055828">
		<tag k="name" v="Trædal" />
		<tag k="place" v="farm" />
		<tag k="ssr:stedsnr" v="364631" />
	</node>
	<node id="-370735" lat="58.0492250001" lon="7.20294444489">
		<tag k="name" v="Sollia" />
		<tag k="place" v="quarter" />
		<tag k="ssr:stedsnr" v="724933" />
	</node>
	<node id="-370731" lat="58.0633027759" lon="7.16016388704">
		<tag k="alt_name" v="Våland" />
		<tag k="name" v="Valand" />
		<tag k="place" v="locality" />
		<tag k="ssr:stedsnr" v="724049" />
	</node>
	<node id="-368682" lat="58.0653055601" lon="7.31761111889">
		<tag k="name" v="Skogen" />
		<tag k="place" v="locality" />
		<tag k="ssr:stedsnr" v="23728" />
	</node>
	<node id="-369553" lat="58.0650388898" lon="7.37149166855">
		<tag k="name" v="Hegrestad" />
		<tag k="place" v="locality" />
		<tag k="ssr:stedsnr" v="265756" />
	</node>
	<node id="-370699" lat="58.0035666668" lon="7.09000277518">
		<tag k="fixme" v="consider place=hamlet" />
		<tag k="name" v="Indre Fjellskår" />
		<tag k="place" v="farm" />
		<tag k="ssr:stedsnr" v="707421" />
	</node>
	<node id="-370696" lat="58.0454333348" lon="7.14407222192">
		<tag k="fixme" v="consider place=hamlet" />
		<tag k="name" v="Spangereid" />
		<tag k="place" v="village" />
		<tag k="ssr:stedsnr" v="698211" />
	</node>
	<node id="-370693" lat="58.0480000043" lon="7.32681666613">
		<tag k="fixme" v="multiple name tags, choose one and add the other to alt_name; consider place=hamlet" />
		<tag k="name" v="Ytre Ås;Ås" />
		<tag k="place" v="farm" />
		<tag k="ssr:stedsnr" v="693437" />
	</node>
</osm>
