<?xml version="1.0" encoding="UTF-8"?>
<osm generator="osmapis" version="0.6">
	<node id="-368631" lat="58.0488694466" lon="7.25275833328">
		<tag k="name" v="Teinevika" />
		<tag k="natural" v="bay" />
		<tag k="ssr:stedsnr" v="325750" />
	</node>
	<node id="-370666" lat="58.0248333343" lon="7.26582221672">
		<tag k="name" v="Underøyflua" />
		<tag k="place" v="locality" />
		<tag k="seamark:type" v="rock" />
		<tag k="ssr:stedsnr" v="572463" />
	</node>
	<node id="-370665" lat="58.0459333311" lon="7.1964361148">
		<tag k="name" v="Hepteviga" />
		<tag k="natural" v="bay" />
		<tag k="ssr:stedsnr" v="572252" />
	</node>
	<node id="-370664" lat="57.9933944405" lon="7.18430833353">
		<tag k="name" v="Saltholmsteinen" />
		<tag k="place" v="locality" />
		<tag k="seamark:type" v="rock" />
		<tag k="ssr:stedsnr" v="571088" />
	</node>
	<node id="-370663" lat="58.0024166632" lon="7.20727221978">
		<tag k="fixme" v="consider seamark:type=rock or natural=shoal" />
		<tag k="name" v="Laksesteinen" />
		<tag k="place" v="islet" />
		<tag k="ssr:stedsnr" v="571085" />
	</node>
	<node id="-370662" lat="58.0024138919" lon="7.14079999713">
		<tag k="fixme" v="consider seamark:type=rock or natural=shoal" />
		<tag k="name" v="Klippeskjersteinen" />
		<tag k="place" v="islet" />
		<tag k="ssr:stedsnr" v="571069" />
	</node>
	<node id="-370661" lat="57.9534749957" lon="7.22164722057">
		<tag k="name" v="Østre Flua" />
		<tag k="natural" v="shoal" />
		<tag k="place" v="locality" />
		<tag k="ssr:stedsnr" v="571026" />
	</node>
	<node id="-370660" lat="58.0291622672" lon="7.17637466742">
		<tag k="loc_name" v="Imsøyene" />
		<tag k="name" v="Imsøyane" />
		<tag k="place" v="island" />
		<tag k="ssr:stedsnr" v="570013" />
	</node>
	<node id="-368598" lat="57.9806000033" lon="7.05027222352">
		<tag k="fixme" v="consider seamark:type=rock or natural=shoal" />
		<tag k="name" v="Staksvikskjæret" />
		<tag k="place" v="islet" />
		<tag k="ssr:stedsnr" v="325434" />
	</node>
	<node id="-368597" lat="57.9923444431" lon="7.08649444671">
		<tag k="name" v="Mallasvik" />
		<tag k="natural" v="bay" />
		<tag k="ssr:stedsnr" v="325429" />
	</node>
	<node id="-368596" lat="57.9954277747" lon="7.09855834082">
		<tag k="fixme" v="consider seamark:type=rock or natural=shoal" />
		<tag k="name" v="Dropskjæret" />
		<tag k="place" v="islet" />
		<tag k="ssr:stedsnr" v="325428" />
	</node>
	<node id="-368595" lat="58.0169611124" lon="7.03814444508">
		<tag k="name" v="Jørstadstrand" />
		<tag k="natural" v="bay" />
		<tag k="ssr:stedsnr" v="325426" />
	</node>
	<node id="-368593" lat="58.0108583371" lon="7.03443611299">
		<tag k="name" v="Fluodden" />
		<tag k="natural" v="cape" />
		<tag k="ssr:stedsnr" v="325421" />
	</node>
	<node id="-368570" lat="57.9882361082" lon="7.07554721792">
		<tag k="name" v="Steinvika" />
		<tag k="natural" v="bay" />
		<tag k="ssr:stedsnr" v="325385" />
	</node>
	<node id="-368566" lat="58.0305861081" lon="7.20280555451">
		<tag k="name" v="Småsundan" />
		<tag k="natural" v="strait" />
		<tag k="ssr:stedsnr" v="325375" />
	</node>
	<node id="-368564" lat="58.029244441" lon="7.13948611172">
		<tag k="name" v="Brattholmvika" />
		<tag k="natural" v="bay" />
		<tag k="ssr:stedsnr" v="325370" />
	</node>
	<node id="-368563" lat="58.0275194459" lon="7.13856667208">
		<tag k="fixme" v="multiple name tags, choose one and add the other to alt_name" />
		<tag k="name" v="Bratholmen;Store Bratholmen" />
		<tag k="place" v="island" />
		<tag k="ssr:stedsnr" v="325369" />
	</node>
	<node id="-368561" lat="58.0083805525" lon="7.19392500593">
		<tag k="name" v="Vårøystrand" />
		<tag k="natural" v="beach" />
		<tag k="place" v="locality" />
		<tag k="ssr:stedsnr" v="325359" />
	</node>
	<node id="-368560" lat="58.0288249987" lon="7.21704722171">
		<tag k="name" v="Lille Einerholmen" />
		<tag k="place" v="island" />
		<tag k="ssr:stedsnr" v="325350" />
	</node>
	<node id="-368559" lat="57.9975972188" lon="7.09618611079">
		<tag k="fixme" v="consider seamark:type=rock or natural=shoal" />
		<tag k="name" v="Bådevikskjæran" />
		<tag k="place" v="islet" />
		<tag k="ssr:stedsnr" v="325343" />
	</node>
	<node id="-368558" lat="58.0069555517" lon="7.11028611391">
		<tag k="name" v="Seikilen" />
		<tag k="natural" v="bay" />
		<tag k="ssr:stedsnr" v="325337" />
	</node>
	<node id="-368556" lat="58.0374916691" lon="7.17683611549">
		<tag k="name" v="Indre Teinevika" />
		<tag k="natural" v="bay" />
		<tag k="ssr:stedsnr" v="325334" />
	</node>
	<node id="-368550" lat="58.0519055567" lon="7.08469167234">
		<tag k="name" v="Sillestø" />
		<tag k="natural" v="bay" />
		<tag k="ssr:stedsnr" v="325108" />
	</node>
	<node id="-368549" lat="58.0579361084" lon="7.11191944664">
		<tag k="name" v="Skiftesvika" />
		<tag k="natural" v="bay" />
		<tag k="ssr:stedsnr" v="325094" />
	</node>
	<node id="-368548" lat="58.0574694431" lon="7.10842221423">
		<tag k="name" v="Vommenes" />
		<tag k="natural" v="cape" />
		<tag k="ssr:stedsnr" v="325093" />
	</node>
	<node id="-368544" lat="58.0279527817" lon="7.11364443834">
		<tag k="fixme" v="consider seamark:type=rock or natural=shoal" />
		<tag k="name" v="Vestre skjær" />
		<tag k="place" v="islet" />
		<tag k="ssr:stedsnr" v="325077" />
	</node>
	<node id="-368543" lat="58.0251805535" lon="7.1170972283">
		<tag k="fixme" v="consider seamark:type=rock or natural=shoal" />
		<tag k="name" v="Lille Bessen" />
		<tag k="place" v="islet" />
		<tag k="ssr:stedsnr" v="325074" />
	</node>
	<node id="-370590" lat="58.0053361095" lon="7.1903416691">
		<tag k="name" v="Kjelløy" />
		<tag k="place" v="island" />
		<tag k="ssr:stedsnr" v="568363" />
	</node>
	<node id="-370589" lat="58.0060527815" lon="7.20128888407">
		<tag k="name" v="Lengvoldstrand" />
		<tag k="natural" v="bay" />
		<tag k="ssr:stedsnr" v="568361" />
	</node>
	<node id="-370588" lat="58.0014055526" lon="7.1777194496">
		<tag k="fixme" v="multiple name tags, choose one and add the other to alt_name; consider seamark:type=rock or natural=shoal" />
		<tag k="name" v="Store Svarteskjeran;Svarteskjæran" />
		<tag k="place" v="islet" />
		<tag k="ssr:stedsnr" v="568357" />
	</node>
	<node id="-370587" lat="58.0391972203" lon="7.24678055853">
		<tag k="name" v="Midtfjordsholman" />
		<tag k="place" v="island" />
		<tag k="ssr:stedsnr" v="568270" />
	</node>
	<node id="-370586" lat="58.0314916647" lon="7.22218055663">
		<tag k="name" v="Lauvholmen" />
		<tag k="natural" v="cape" />
		<tag k="ssr:stedsnr" v="568268" />
	</node>
	<node id="-370584" lat="58.0491944407" lon="7.17554722357">
		<tag k="name" v="Olasvika" />
		<tag k="natural" v="bay" />
		<tag k="ssr:stedsnr" v="568051" />
	</node>
	<node id="-370570" lat="58.0548694456" lon="7.27734999632">
		<tag k="name" v="Nodøy" />
		<tag k="place" v="island" />
		<tag k="ssr:stedsnr" v="567768" />
	</node>
	<node id="-368520" lat="58.0397500016" lon="7.26268611043">
		<tag k="alt_name" v="Unnerøy" />
		<tag k="name" v="Underøy" />
		<tag k="place" v="island" />
		<tag k="ssr:stedsnr" v="304684" />
	</node>
	<node id="-368519" lat="58.0357972205" lon="7.18381666057">
		<tag k="alt_name" v="Østre Imsøy" />
		<tag k="fixme" v="multiple name tags, choose one and add the other to alt_name" />
		<tag k="name" v="Villimsa;Østre Imsa" />
		<tag k="place" v="island" />
		<tag k="ssr:stedsnr" v="304683" />
	</node>
	<node id="-368516" lat="57.9923305563" lon="7.20599444218">
		<tag k="alt_name" v="Store Lefsøy" />
		<tag k="name" v="Lefsøy, store" />
		<tag k="place" v="island" />
		<tag k="ssr:stedsnr" v="304034" />
	</node>
	<node id="-368515" lat="57.9520305521" lon="7.20326388833">
		<tag k="name" v="Kletten" />
		<tag k="natural" v="shoal" />
		<tag k="place" v="locality" />
		<tag k="ssr:stedsnr" v="304030" />
	</node>
	<node id="-368514" lat="57.9834916625" lon="7.14216388393">
		<tag k="name" v="Langebåane" />
		<tag k="natural" v="shoal" />
		<tag k="place" v="locality" />
		<tag k="ssr:stedsnr" v="304027" />
	</node>
	<node id="-368513" lat="57.988552319" lon="7.09158815132">
		<tag k="alt_name" v="Store Hillegarn" />
		<tag k="name" v="Store Hillegarden" />
		<tag k="place" v="islet" />
		<tag k="ssr:stedsnr" v="304026" />
	</node>
	<node id="-370558" lat="57.9934916625" lon="7.20758611352">
		<tag k="name" v="Lefsøyhavn" />
		<tag k="natural" v="strait" />
		<tag k="ssr:stedsnr" v="567331" />
	</node>
	<node id="-370557" lat="57.9991805572" lon="7.10113611867">
		<tag k="fixme" v="consider seamark:type=rock or natural=shoal" />
		<tag k="name" v="Sniboddskjæran" />
		<tag k="place" v="islet" />
		<tag k="ssr:stedsnr" v="567324" />
	</node>
	<node id="-370556" lat="58.0048388932" lon="7.10875277714">
		<tag k="name" v="Holmen" />
		<tag k="natural" v="cape" />
		<tag k="ssr:stedsnr" v="567322" />
	</node>
	<node id="-370555" lat="57.9800777818" lon="7.21017778066">
		<tag k="name" v="Bysvika" />
		<tag k="natural" v="bay" />
		<tag k="ssr:stedsnr" v="567307" />
	</node>
	<node id="-368499" lat="58.0076638901" lon="7.13851388257">
		<tag k="alt_name" v="Store Kleppeskjer;Store Klippeskjær" />
		<tag k="fixme" v="consider seamark:type=rock or natural=shoal" />
		<tag k="name" v="Store Klippeskjer" />
		<tag k="place" v="islet" />
		<tag k="ssr:stedsnr" v="303642" />
	</node>
	<node id="-370538" lat="58.037602774" lon="7.06007222448">
		<tag k="name" v="Haraldstadstrand" />
		<tag k="natural" v="bay" />
		<tag k="ssr:stedsnr" v="567187" />
	</node>
	<node id="-370525" lat="58.0264138853" lon="7.12031389578">
		<tag k="name" v="Tronesodden" />
		<tag k="natural" v="cape" />
		<tag k="ssr:stedsnr" v="567069" />
	</node>
	<node id="-370524" lat="58.0325638847" lon="7.11485277469">
		<tag k="name" v="Litlehavnsvika" />
		<tag k="natural" v="bay" />
		<tag k="ssr:stedsnr" v="567067" />
	</node>
	<node id="-370516" lat="58.0230388907" lon="7.25716388402">
		<tag k="alt_name" v="Tolleknivholman" />
		<tag k="fixme" v="consider seamark:type=rock or natural=shoal" />
		<tag k="name" v="Tolleknivane" />
		<tag k="place" v="islet" />
		<tag k="ssr:stedsnr" v="546643" />
	</node>
	<node id="-370515" lat="58.0149249964" lon="7.167200006">
		<tag k="alt_name" v="Agneskjæret" />
		<tag k="fixme" v="consider seamark:type=rock or natural=shoal" />
		<tag k="name" v="Agneskjer" />
		<tag k="place" v="islet" />
		<tag k="ssr:stedsnr" v="546639" />
	</node>
	<node id="-370514" lat="58.0330388868" lon="7.20262222112">
		<tag k="name" v="Finnøya" />
		<tag k="place" v="islet" />
		<tag k="ssr:stedsnr" v="546619" />
	</node>
	<node id="-370513" lat="58.0299333293" lon="7.10845556326">
		<tag k="name" v="Ramslandsvågen" />
		<tag k="natural" v="bay" />
		<tag k="ssr:stedsnr" v="546616" />
	</node>
	<node id="-370509" lat="58.0880416708" lon="7.16313333484">
		<tag k="alt_name" v="Lenesfjorden" />
		<tag k="bay" v="fjord" />
		<tag k="name" v="Lenefjorden" />
		<tag k="natural" v="bay" />
		<tag k="ssr:stedsnr" v="546565" />
	</node>
	<node id="-369633" lat="58.0115277749" lon="7.03530832903">
		<tag k="name" v="Fluviga" />
		<tag k="natural" v="bay" />
		<tag k="ssr:stedsnr" v="177011" />
	</node>
	<node id="-370499" lat="57.9943694433" lon="7.14708334103">
		<tag k="name" v="Kviteflua" />
		<tag k="natural" v="shoal" />
		<tag k="place" v="locality" />
		<tag k="ssr:stedsnr" v="546032" />
	</node>
	<node id="-370497" lat="57.9986083352" lon="7.20942499971">
		<tag k="name" v="Vardeholmen" />
		<tag k="place" v="islet" />
		<tag k="ssr:stedsnr" v="546015" />
	</node>
	<node id="-370496" lat="57.9985583321" lon="7.18949166003">
		<tag k="alt_name" v="Høkholmen" />
		<tag k="name" v="Høgholmen" />
		<tag k="place" v="islet" />
		<tag k="ssr:stedsnr" v="546012" />
	</node>
	<node id="-368430" lat="58.0241499961" lon="7.30576666521">
		<tag k="fixme" v="consider seamark:type=rock or natural=shoal" />
		<tag k="name" v="Føllet" />
		<tag k="place" v="islet" />
		<tag k="ssr:stedsnr" v="269469" />
	</node>
	<node id="-368429" lat="58.0491611133" lon="7.19018888127">
		<tag k="name" v="Trelsnesboen" />
		<tag k="place" v="locality" />
		<tag k="seamark:type" v="rock" />
		<tag k="ssr:stedsnr" v="269231" />
	</node>
	<node id="-370474" lat="58.0131295029" lon="7.19397126969">
		<tag k="name" v="Våreraua" />
		<tag k="natural" v="strait" />
		<tag k="ssr:stedsnr" v="541204" />
	</node>
	<node id="-371334" lat="58.0293777752" lon="7.25689444174">
		<tag k="name" v="Gulholmen" />
		<tag k="place" v="island" />
		<tag k="ssr:stedsnr" v="750932" />
	</node>
	<node id="-369283" lat="58.0341583304" lon="7.18900000745">
		<tag k="name" v="Nodevika" />
		<tag k="natural" v="bay" />
		<tag k="ssr:stedsnr" v="82315" />
	</node>
	<node id="-370430" lat="58.0361027736" lon="7.2320944385">
		<tag k="name" v="Syrdalsflua" />
		<tag k="place" v="locality" />
		<tag k="seamark:type" v="rock" />
		<tag k="ssr:stedsnr" v="511435" />
	</node>
	<node id="-370429" lat="57.9619527745" lon="7.20670555236">
		<tag k="name" v="Gjesslingboen" />
		<tag k="natural" v="shoal" />
		<tag k="place" v="locality" />
		<tag k="ssr:stedsnr" v="511036" />
	</node>
	<node id="-370428" lat="57.9972388922" lon="7.17308055364">
		<tag k="name" v="Smellen" />
		<tag k="place" v="locality" />
		<tag k="seamark:type" v="rock" />
		<tag k="ssr:stedsnr" v="510110" />
	</node>
	<node id="-370427" lat="57.9897750012" lon="7.19650277233">
		<tag k="fixme" v="consider seamark:type=rock or natural=shoal" />
		<tag k="name" v="Lortesteinen" />
		<tag k="place" v="islet" />
		<tag k="ssr:stedsnr" v="510088" />
	</node>
	<node id="-370426" lat="57.9530638903" lon="7.21338611751">
		<tag k="name" v="Ameflua" />
		<tag k="natural" v="shoal" />
		<tag k="place" v="locality" />
		<tag k="ssr:stedsnr" v="510022" />
	</node>
	<node id="-370412" lat="58.0457611111" lon="7.19717776966">
		<tag k="name" v="Sildevika" />
		<tag k="natural" v="bay" />
		<tag k="ssr:stedsnr" v="507931" />
	</node>
	<node id="-370411" lat="58.0510333358" lon="7.19571388778">
		<tag k="name" v="Søyla" />
		<tag k="natural" v="bay" />
		<tag k="ssr:stedsnr" v="507925" />
	</node>
	<node id="-370408" lat="58.104563893" lon="7.17686110343">
		<tag k="name" v="Hagenes" />
		<tag k="natural" v="cape" />
		<tag k="ssr:stedsnr" v="507908" />
	</node>
	<node id="-370404" lat="58.0401777734" lon="7.22719721798">
		<tag k="name" v="Syrdalsstranda" />
		<tag k="natural" v="beach" />
		<tag k="place" v="locality" />
		<tag k="ssr:stedsnr" v="507889" />
	</node>
	<node id="-370403" lat="58.0401388847" lon="7.23857500128">
		<tag k="name" v="Skinnerneset" />
		<tag k="natural" v="cape" />
		<tag k="ssr:stedsnr" v="507886" />
	</node>
	<node id="-370393" lat="58.0427972214" lon="7.2767861087">
		<tag k="name" v="Seilbergsvika" />
		<tag k="natural" v="bay" />
		<tag k="ssr:stedsnr" v="507789" />
	</node>
	<node id="-370392" lat="58.0516944443" lon="7.2851611125">
		<tag k="name" v="Sandodden" />
		<tag k="natural" v="cape" />
		<tag k="ssr:stedsnr" v="507784" />
	</node>
	<node id="-370353" lat="57.9911472216" lon="7.09385277047">
		<tag k="fixme" v="consider seamark:type=rock or natural=shoal" />
		<tag k="name" v="Småskjæran" />
		<tag k="place" v="islet" />
		<tag k="ssr:stedsnr" v="507403" />
	</node>
	<node id="-369266" lat="58.0364972224" lon="7.10693055352">
		<tag k="name" v="Skrabenesodden" />
		<tag k="natural" v="cape" />
		<tag k="ssr:stedsnr" v="82064" />
	</node>
	<node id="-370345" lat="57.9841805597" lon="7.0645138855">
		<tag k="fixme" v="consider seamark:type=rock or natural=shoal" />
		<tag k="name" v="Traumeskjeran" />
		<tag k="place" v="islet" />
		<tag k="ssr:stedsnr" v="507354" />
	</node>
	<node id="-370344" lat="57.9862777771" lon="7.06198055983">
		<tag k="name" v="Strandholmen" />
		<tag k="place" v="island" />
		<tag k="ssr:stedsnr" v="507352" />
	</node>
	<node id="-370343" lat="58.0307027804" lon="7.209974999">
		<tag k="name" v="Finnøysundstangen" />
		<tag k="natural" v="cape" />
		<tag k="ssr:stedsnr" v="507350" />
	</node>
	<node id="-370342" lat="58.0294694416" lon="7.18912777728">
		<tag k="fixme" v="consider seamark:type=rock or natural=shoal" />
		<tag k="name" v="Ronnanskjæret" />
		<tag k="place" v="islet" />
		<tag k="ssr:stedsnr" v="507337" />
	</node>
	<node id="-370341" lat="57.9835666659" lon="7.21353056283">
		<tag k="fixme" v="consider seamark:type=rock or natural=shoal" />
		<tag k="name" v="Storvikskjæran" />
		<tag k="place" v="islet" />
		<tag k="ssr:stedsnr" v="507323" />
	</node>
	<node id="-370338" lat="58.0357444478" lon="7.13979167115">
		<tag k="name" v="Indre Teinevika" />
		<tag k="natural" v="bay" />
		<tag k="ssr:stedsnr" v="507299" />
	</node>
	<node id="-370337" lat="58.0383083314" lon="7.14532777258">
		<tag k="name" v="Sandvika" />
		<tag k="natural" v="bay" />
		<tag k="ssr:stedsnr" v="507297" />
	</node>
	<node id="-370311" lat="58.0243805594" lon="7.11296110407">
		<tag k="fixme" v="consider seamark:type=rock or natural=shoal" />
		<tag k="name" v="Kjerringskjæret" />
		<tag k="place" v="islet" />
		<tag k="ssr:stedsnr" v="507067" />
	</node>
	<node id="-370309" lat="58.0388027749" lon="7.12749443975">
		<tag k="name" v="Bjørkholmen" />
		<tag k="place" v="island" />
		<tag k="ssr:stedsnr" v="507058" />
	</node>
	<node id="-370305" lat="58.0461861131" lon="7.16404999246">
		<tag k="name" v="Njervessanden" />
		<tag k="natural" v="beach" />
		<tag k="place" v="locality" />
		<tag k="ssr:stedsnr" v="507040" />
	</node>
	<node id="-370304" lat="58.0538305566" lon="7.14196943911">
		<tag k="alt_name" v="Ryvika" />
		<tag k="name" v="Ryviga" />
		<tag k="natural" v="bay" />
		<tag k="ssr:stedsnr" v="507035" />
	</node>
	<node id="-370303" lat="58.0573805545" lon="7.14406111043">
		<tag k="name" v="Kvistesnes" />
		<tag k="natural" v="cape" />
		<tag k="ssr:stedsnr" v="507030" />
	</node>
	<node id="-370301" lat="58.0604361099" lon="7.14179166416">
		<tag k="alt_name" v="Lindalsvika" />
		<tag k="name" v="Lindalsviga" />
		<tag k="natural" v="bay" />
		<tag k="ssr:stedsnr" v="507021" />
	</node>
	<node id="-370280" lat="58.0287749977" lon="7.21435277373">
		<tag k="name" v="Einerholmen" />
		<tag k="place" v="islet" />
		<tag k="ssr:stedsnr" v="485584" />
	</node>
	<node id="-370268" lat="57.9841500022" lon="7.20593055142">
		<tag k="alt_name" v="Mittinga" />
		<tag k="name" v="Mittingen" />
		<tag k="place" v="islet" />
		<tag k="ssr:stedsnr" v="485026" />
	</node>
	<node id="-370267" lat="57.9946638871" lon="7.20814999634">
		<tag k="alt_name" v="Lefsøy, l" />
		<tag k="name" v="Lille Lefsøy" />
		<tag k="place" v="islet" />
		<tag k="ssr:stedsnr" v="485024" />
	</node>
	<node id="-370266" lat="57.9871000036" lon="7.05758610714">
		<tag k="alt_name" v="Vestre Kilen" />
		<tag k="name" v="Vestrekilen" />
		<tag k="natural" v="bay" />
		<tag k="ssr:stedsnr" v="485016" />
	</node>
	<node id="-370255" lat="58.0091166685" lon="7.03616944815">
		<tag k="name" v="Indre Steinvika" />
		<tag k="natural" v="bay" />
		<tag k="ssr:stedsnr" v="481524" />
	</node>
	<node id="-370254" lat="58.0052222183" lon="7.10888610951">
		<tag k="name" v="Notholmen" />
		<tag k="place" v="islet" />
		<tag k="ssr:stedsnr" v="481251" />
	</node>
	<node id="-370253" lat="57.9986888876" lon="7.19908333068">
		<tag k="name" v="Lamholmen" />
		<tag k="place" v="islet" />
		<tag k="ssr:stedsnr" v="481232" />
	</node>
	<node id="-370252" lat="58.0173000036" lon="7.03785556329">
		<tag k="name" v="Jørstadbukta" />
		<tag k="natural" v="bay" />
		<tag k="ssr:stedsnr" v="481008" />
	</node>
	<node id="-369590" lat="58.0306685188" lon="7.32647119116">
		<tag k="name" v="Fjordboen" />
		<tag k="place" v="locality" />
		<tag k="seamark:type" v="rock" />
		<tag k="ssr:stedsnr" v="147434" />
	</node>
	<node id="-369589" lat="57.9974749977" lon="7.10384722946">
		<tag k="name" v="Ytre Hammerflua" />
		<tag k="place" v="locality" />
		<tag k="seamark:type" v="rock" />
		<tag k="ssr:stedsnr" v="146085" />
	</node>
	<node id="-370220" lat="58.0065944452" lon="7.03540833493">
		<tag k="name" v="Kolnes" />
		<tag k="natural" v="cape" />
		<tag k="ssr:stedsnr" v="449917" />
	</node>
	<node id="-370218" lat="58.0415111097" lon="7.2379805558">
		<tag k="name" v="Skinnervika" />
		<tag k="natural" v="bay" />
		<tag k="ssr:stedsnr" v="447983" />
	</node>
	<node id="-370213" lat="58.0281138872" lon="7.2793250062">
		<tag k="name" v="Fløybukta" />
		<tag k="natural" v="bay" />
		<tag k="ssr:stedsnr" v="447952" />
	</node>
	<node id="-370212" lat="58.0313000008" lon="7.29584443796">
		<tag k="name" v="Lillevik" />
		<tag k="natural" v="bay" />
		<tag k="ssr:stedsnr" v="447950" />
	</node>
	<node id="-369926" lat="58.0104305524" lon="7.11232500453">
		<tag k="name" v="Store Kalsvika" />
		<tag k="natural" v="bay" />
		<tag k="ssr:stedsnr" v="264324" />
	</node>
	<node id="-371632" lat="58.0455583357" lon="7.1725833396">
		<tag k="name" v="Lervika" />
		<tag k="natural" v="bay" />
		<tag k="ssr:stedsnr" v="871059" />
	</node>
	<node id="-369925" lat="58.0346444443" lon="7.14602500586">
		<tag k="name" v="Regevika" />
		<tag k="natural" v="bay" />
		<tag k="ssr:stedsnr" v="264316" />
	</node>
	<node id="-369577" lat="58.0273638867" lon="7.2592805561">
		<tag k="name" v="Graudeholmen" />
		<tag k="place" v="island" />
		<tag k="ssr:stedsnr" v="143931" />
	</node>
	<node id="-369576" lat="58.0504194426" lon="7.19856944073">
		<tag k="name" v="Svennevikbukta" />
		<tag k="natural" v="bay" />
		<tag k="ssr:stedsnr" v="143920" />
	</node>
	<node id="-370137" lat="58.0336694445" lon="7.19126667286">
		<tag k="name" v="Nododden" />
		<tag k="natural" v="cape" />
		<tag k="ssr:stedsnr" v="447340" />
	</node>
	<node id="-370135" lat="58.0329833375" lon="7.21664999769">
		<tag k="name" v="Skumageren" />
		<tag k="natural" v="cape" />
		<tag k="ssr:stedsnr" v="447336" />
	</node>
	<node id="-370134" lat="58.008580556" lon="7.20039721479">
		<tag k="name" v="Austerstrand" />
		<tag k="natural" v="beach" />
		<tag k="place" v="locality" />
		<tag k="ssr:stedsnr" v="447325" />
	</node>
	<node id="-370133" lat="58.0346027804" lon="7.31902500629">
		<tag k="name" v="Tartholmen" />
		<tag k="place" v="islet" />
		<tag k="ssr:stedsnr" v="447314" />
	</node>
	<node id="-370132" lat="58.0290611134" lon="7.22970555462">
		<tag k="name" v="Sundet" />
		<tag k="natural" v="strait" />
		<tag k="ssr:stedsnr" v="447250" />
	</node>
	<node id="-370131" lat="58.0250805585" lon="7.2286249923">
		<tag k="name" v="Svartodden" />
		<tag k="natural" v="cape" />
		<tag k="ssr:stedsnr" v="447246" />
	</node>
	<node id="-370130" lat="58.0384055524" lon="7.23396388115">
		<tag k="name" v="Kalvetunga" />
		<tag k="natural" v="cape" />
		<tag k="ssr:stedsnr" v="447239" />
	</node>
	<node id="-370128" lat="58.0417194461" lon="7.18335277712">
		<tag k="name" v="Bjørkholmen" />
		<tag k="place" v="island" />
		<tag k="ssr:stedsnr" v="447060" />
	</node>
	<node id="-370124" lat="58.0551527808" lon="7.14101388218">
		<tag k="name" v="Treodden" />
		<tag k="natural" v="cape" />
		<tag k="ssr:stedsnr" v="447046" />
	</node>
	<node id="-370123" lat="58.0507111072" lon="7.14437221779">
		<tag k="name" v="Kattenes" />
		<tag k="natural" v="cape" />
		<tag k="ssr:stedsnr" v="447042" />
	</node>
	<node id="-370121" lat="58.0566277739" lon="7.14163611702">
		<tag k="name" v="Rebasvika" />
		<tag k="natural" v="bay" />
		<tag k="ssr:stedsnr" v="447038" />
	</node>
	<node id="-370120" lat="58.0502527745" lon="7.18864443843">
		<tag k="name" v="Trelsnes" />
		<tag k="natural" v="cape" />
		<tag k="ssr:stedsnr" v="447030" />
	</node>
	<node id="-370119" lat="57.9957611096" lon="7.09473332849">
		<tag k="name" v="Kjødneodden" />
		<tag k="natural" v="cape" />
		<tag k="ssr:stedsnr" v="446439" />
	</node>
	<node id="-370115" lat="58.0291444481" lon="7.18810277143">
		<tag k="name" v="Lonkarshola" />
		<tag k="natural" v="bay" />
		<tag k="ssr:stedsnr" v="446385" />
	</node>
	<node id="-370114" lat="58.0060000009" lon="7.10799444365">
		<tag k="name" v="Gauksumstranda" />
		<tag k="natural" v="bay" />
		<tag k="ssr:stedsnr" v="446362" />
	</node>
	<node id="-370113" lat="58.0074333315" lon="7.11132499171">
		<tag k="name" v="Indresvika" />
		<tag k="natural" v="bay" />
		<tag k="ssr:stedsnr" v="446360" />
	</node>
	<node id="-370592" lat="58.0317805512" lon="7.16970277696">
		<tag k="name" v="Knartholmen" />
		<tag k="place" v="island" />
		<tag k="ssr:stedsnr" v="568377" />
	</node>
	<node id="-368542" lat="58.032838892" lon="7.127461106">
		<tag k="name" v="Persholmen" />
		<tag k="place" v="island" />
		<tag k="ssr:stedsnr" v="325068" />
	</node>
	<node id="-368541" lat="58.0372277765" lon="7.12649167026">
		<tag k="name" v="Størtestø" />
		<tag k="natural" v="cape" />
		<tag k="ssr:stedsnr" v="325054" />
	</node>
	<node id="-370088" lat="58.0199333376" lon="7.03944722836">
		<tag k="name" v="Djubavika" />
		<tag k="natural" v="bay" />
		<tag k="ssr:stedsnr" v="446218" />
	</node>
	<node id="-368540" lat="58.0435888899" lon="7.17556110661">
		<tag k="name" v="Eigestø" />
		<tag k="natural" v="bay" />
		<tag k="ssr:stedsnr" v="325045" />
	</node>
	<node id="-370077" lat="58.022477776" lon="7.31991666813">
		<tag k="alt_name" v="Kråka, l" />
		<tag k="fixme" v="consider seamark:type=rock or natural=shoal" />
		<tag k="name" v="Lille Kråga" />
		<tag k="place" v="islet" />
		<tag k="ssr:stedsnr" v="425680" />
	</node>
	<node id="-370038" lat="58.0013638887" lon="7.20153889494">
		<tag k="name" v="Flåholman" />
		<tag k="place" v="islet" />
		<tag k="ssr:stedsnr" v="420214" />
	</node>
	<node id="-370037" lat="58.0291694435" lon="7.29226944058">
		<tag k="name" v="Store Kallholmen" />
		<tag k="place" v="islet" />
		<tag k="ssr:stedsnr" v="420154" />
	</node>
	<node id="-370026" lat="58.0263444412" lon="7.29560278173">
		<tag k="name" v="Krægan" />
		<tag k="place" v="island" />
		<tag k="ssr:stedsnr" v="265966" />
	</node>
	<node id="-370025" lat="58.0268611079" lon="7.2786222274">
		<tag k="name" v="Fløyholmsundet" />
		<tag k="natural" v="strait" />
		<tag k="ssr:stedsnr" v="265964" />
	</node>
	<node id="-370023" lat="58.0254944419" lon="7.2633750026">
		<tag k="fixme" v="consider seamark:type=rock or natural=shoal" />
		<tag k="name" v="Nodeskjæran" />
		<tag k="place" v="islet" />
		<tag k="ssr:stedsnr" v="265939" />
	</node>
	<node id="-369973" lat="57.9876944469" lon="7.07771389211">
		<tag k="name" v="Vestre Saltholmen" />
		<tag k="natural" v="cape" />
		<tag k="ssr:stedsnr" v="265402" />
	</node>
	<node id="-369972" lat="57.9840694421" lon="7.05724722479">
		<tag k="name" v="Vragevika" />
		<tag k="natural" v="bay" />
		<tag k="ssr:stedsnr" v="265400" />
	</node>
	<node id="-369969" lat="58.0305555546" lon="7.1901777825">
		<tag k="name" v="Beinstad" />
		<tag k="natural" v="cape" />
		<tag k="ssr:stedsnr" v="265393" />
	</node>
	<node id="-369968" lat="58.0339249979" lon="7.21140555394">
		<tag k="name" v="Lussevika" />
		<tag k="natural" v="bay" />
		<tag k="ssr:stedsnr" v="265391" />
	</node>
	<node id="-369967" lat="58.0070305595" lon="7.18878055573">
		<tag k="name" v="Kjerkesundet" />
		<tag k="natural" v="strait" />
		<tag k="ssr:stedsnr" v="265381" />
	</node>
	<node id="-369966" lat="58.0098027767" lon="7.19119445006">
		<tag k="name" v="Svensvika" />
		<tag k="natural" v="bay" />
		<tag k="ssr:stedsnr" v="265374" />
	</node>
	<node id="-369965" lat="58.0070972221" lon="7.18729444833">
		<tag k="fixme" v="consider seamark:type=rock or natural=shoal" />
		<tag k="name" v="Badstuen" />
		<tag k="place" v="islet" />
		<tag k="ssr:stedsnr" v="265372" />
	</node>
	<node id="-369964" lat="58.026105552" lon="7.21548611907">
		<tag k="name" v="Skarvøysundet" />
		<tag k="natural" v="strait" />
		<tag k="ssr:stedsnr" v="265367" />
	</node>
	<node id="-369962" lat="58.0297611146" lon="7.22000555286">
		<tag k="name" v="Spelsvika" />
		<tag k="natural" v="bay" />
		<tag k="ssr:stedsnr" v="265295" />
	</node>
	<node id="-369961" lat="58.0335277815" lon="7.22492500266">
		<tag k="name" v="Elsvika" />
		<tag k="natural" v="bay" />
		<tag k="ssr:stedsnr" v="265284" />
	</node>
	<node id="-369954" lat="58.0413138861" lon="7.1555166698">
		<tag k="name" v="Bjoholmen" />
		<tag k="place" v="islet" />
		<tag k="ssr:stedsnr" v="265038" />
	</node>
	<node id="-369951" lat="58.0484861071" lon="7.14588610693">
		<tag k="name" v="Høllebukta" />
		<tag k="natural" v="bay" />
		<tag k="ssr:stedsnr" v="265031" />
	</node>
	<node id="-370564" lat="57.9957527739" lon="7.13209722044">
		<tag k="fixme" v="consider seamark:type=rock or natural=shoal" />
		<tag k="name" v="Kleppeskjæran" />
		<tag k="place" v="islet" />
		<tag k="ssr:stedsnr" v="567418" />
	</node>
	<node id="-369942" lat="58.0453222194" lon="7.25789999576">
		<tag k="name" v="Furuholmsundet" />
		<tag k="natural" v="strait" />
		<tag k="ssr:stedsnr" v="264777" />
	</node>
	<node id="-369934" lat="57.9819694428" lon="7.05398610611">
		<tag k="name" v="Danehavn" />
		<tag k="natural" v="bay" />
		<tag k="ssr:stedsnr" v="264432" />
	</node>
	<node id="-370562" lat="57.9912916707" lon="7.08510555306">
		<tag k="name" v="Store Dulevika" />
		<tag k="natural" v="bay" />
		<tag k="ssr:stedsnr" v="567410" />
	</node>
	<node id="-369930" lat="57.9945416678" lon="7.20249999627">
		<tag k="name" v="Hesten" />
		<tag k="place" v="island" />
		<tag k="ssr:stedsnr" v="264339" />
	</node>
	<node id="-369928" lat="58.0041000017" lon="7.10751944019">
		<tag k="name" v="Hammeren" />
		<tag k="natural" v="cape" />
		<tag k="ssr:stedsnr" v="264329" />
	</node>
	<node id="-369927" lat="58.0094249957" lon="7.1121583253">
		<tag k="name" v="Lille Kalsvika" />
		<tag k="natural" v="bay" />
		<tag k="ssr:stedsnr" v="264327" />
	</node>
	<node id="-371974" lat="58.0029333326" lon="7.19045832576">
		<tag k="name" v="Store Havnerøy" />
		<tag k="place" v="island" />
		<tag k="ssr:stedsnr" v="966210" />
	</node>
	<node id="-371973" lat="58.0088500272" lon="7.25591255839">
		<tag k="alt_name" v="Grøningsbåen" />
		<tag k="name" v="Grønningboen" />
		<tag k="natural" v="shoal" />
		<tag k="place" v="locality" />
		<tag k="ssr:stedsnr" v="966205" />
	</node>
	<node id="-371965" lat="58.0258472243" lon="7.11118611581">
		<tag k="alt_name" v="Høylandskjæret" />
		<tag k="fixme" v="consider seamark:type=rock or natural=shoal" />
		<tag k="name" v="Høylandskjeret" />
		<tag k="place" v="islet" />
		<tag k="ssr:stedsnr" v="964038" />
	</node>
	<node id="-369888" lat="58.0608833289" lon="7.14448055178">
		<tag k="name" v="Husnesodden" />
		<tag k="natural" v="cape" />
		<tag k="ssr:stedsnr" v="264023" />
	</node>
	<node id="-369887" lat="58.0741250016" lon="7.15061388239">
		<tag k="fixme" v="consider seamark:type=rock or natural=shoal" />
		<tag k="name" v="Holmeskjæret" />
		<tag k="place" v="islet" />
		<tag k="ssr:stedsnr" v="264006" />
	</node>
	<node id="-369886" lat="58.0723999968" lon="7.14601666045">
		<tag k="name" v="Jåsundet" />
		<tag k="natural" v="strait" />
		<tag k="ssr:stedsnr" v="264003" />
	</node>
	<node id="-371928" lat="57.9979761773" lon="7.15303899511">
		<tag k="name" v="Kvitefluboen" />
		<tag k="place" v="locality" />
		<tag k="seamark:type" v="rock" />
		<tag k="ssr:stedsnr" v="935095" />
	</node>
	<node id="-371927" lat="57.9904999975" lon="7.11027222864">
		<tag k="name" v="Heddkletten" />
		<tag k="natural" v="shoal" />
		<tag k="place" v="locality" />
		<tag k="ssr:stedsnr" v="935013" />
	</node>
	<node id="-369876" lat="58.0261750025" lon="7.2779166738">
		<tag k="name" v="Fløyholmen" />
		<tag k="place" v="islet" />
		<tag k="ssr:stedsnr" v="243698" />
	</node>
	<node id="-369875" lat="58.0312027806" lon="7.24088611413">
		<tag k="alt_name" v="Håbåane" />
		<tag k="fixme" v="consider seamark:type=rock or natural=shoal" />
		<tag k="name" v="Håboan" />
		<tag k="place" v="islet" />
		<tag k="ssr:stedsnr" v="243696" />
	</node>
	<node id="-371921" lat="58.0316694481" lon="7.27638888827">
		<tag k="name" v="Kattnes" />
		<tag k="natural" v="cape" />
		<tag k="ssr:stedsnr" v="932965" />
	</node>
	<node id="-371917" lat="58.0499027806" lon="7.19635000111">
		<tag k="name" v="Skudenes" />
		<tag k="natural" v="cape" />
		<tag k="ssr:stedsnr" v="932917" />
	</node>
	<node id="-371916" lat="58.044127777" lon="7.19401110947">
		<tag k="name" v="Hepteodden" />
		<tag k="natural" v="cape" />
		<tag k="ssr:stedsnr" v="932912" />
	</node>
	<node id="-371915" lat="58.0435361078" lon="7.19405832504">
		<tag k="fixme" v="consider seamark:type=rock or natural=shoal" />
		<tag k="name" v="Kotskjæret" />
		<tag k="place" v="islet" />
		<tag k="ssr:stedsnr" v="932911" />
	</node>
	<node id="-371911" lat="58.0501361074" lon="7.24589167016">
		<tag k="name" v="Lonebukta" />
		<tag k="natural" v="bay" />
		<tag k="ssr:stedsnr" v="932879" />
	</node>
	<node id="-371910" lat="58.0483027821" lon="7.24624166413">
		<tag k="name" v="Rauhåve" />
		<tag k="natural" v="cape" />
		<tag k="ssr:stedsnr" v="932878" />
	</node>
	<node id="-371908" lat="58.038905554" lon="7.23512500095">
		<tag k="name" v="Kjerringa" />
		<tag k="natural" v="cape" />
		<tag k="ssr:stedsnr" v="932869" />
	</node>
	<node id="-371894" lat="58.047636114" lon="7.27981666042">
		<tag k="name" v="Borvika" />
		<tag k="natural" v="bay" />
		<tag k="ssr:stedsnr" v="932749" />
	</node>
	<node id="-369833" lat="58.0249027811" lon="7.14708333423">
		<tag k="name" v="Store Viggeskjer" />
		<tag k="place" v="islet" />
		<tag k="ssr:stedsnr" v="238036" />
	</node>
	<node id="-369862" lat="57.980983335" lon="7.20438610399">
		<tag k="name" v="Smellodden" />
		<tag k="natural" v="cape" />
		<tag k="ssr:stedsnr" v="243019" />
	</node>
	<node id="-371861" lat="57.9954777822" lon="7.09365277246">
		<tag k="name" v="Stolpevika" />
		<tag k="natural" v="bay" />
		<tag k="ssr:stedsnr" v="932412" />
	</node>
	<node id="-371860" lat="57.9916111075" lon="7.09086388399">
		<tag k="fixme" v="consider seamark:type=rock or natural=shoal" />
		<tag k="name" v="Knobben" />
		<tag k="place" v="islet" />
		<tag k="ssr:stedsnr" v="932410" />
	</node>
	<node id="-371859" lat="57.9937805577" lon="7.10013333908">
		<tag k="alt_name" v="Hønseskjæret" />
		<tag k="fixme" v="multiple name tags, choose one and add the other to alt_name; consider seamark:type=rock or natural=shoal" />
		<tag k="name" v="Drabskjeret;Hønseskjeret" />
		<tag k="place" v="islet" />
		<tag k="ssr:stedsnr" v="932409" />
	</node>
	<node id="-371856" lat="58.0019888905" lon="7.03463888522">
		<tag k="name" v="Ytre Steinvika" />
		<tag k="natural" v="bay" />
		<tag k="ssr:stedsnr" v="932402" />
	</node>
	<node id="-371851" lat="57.9878222183" lon="7.07520277791">
		<tag k="name" v="Vestre Steinvikodden" />
		<tag k="natural" v="cape" />
		<tag k="ssr:stedsnr" v="932361" />
	</node>
	<node id="-371849" lat="58.0123194464" lon="7.20145000474">
		<tag k="name" v="Seikilen" />
		<tag k="natural" v="bay" />
		<tag k="ssr:stedsnr" v="932337" />
	</node>
	<node id="-371848" lat="57.9984055564" lon="7.09798056389">
		<tag k="fixme" v="consider seamark:type=rock or natural=shoal" />
		<tag k="name" v="Strandeskjæret" />
		<tag k="place" v="islet" />
		<tag k="ssr:stedsnr" v="932324" />
	</node>
	<node id="-371847" lat="58.009249996" lon="7.11296943915">
		<tag k="name" v="Kalsvikholmen" />
		<tag k="place" v="island" />
		<tag k="ssr:stedsnr" v="932320" />
	</node>
	<node id="-371845" lat="57.9795777756" lon="7.21519166854">
		<tag k="name" v="Østerhavn" />
		<tag k="natural" v="strait" />
		<tag k="ssr:stedsnr" v="932306" />
	</node>
	<node id="-371840" lat="58.0019277778" lon="7.20639999729">
		<tag k="fixme" v="multiple name tags, choose one and add the other to alt_name; consider seamark:type=rock or natural=shoal" />
		<tag k="name" v="Laksesteinen;Nord Einerholmskjæran" />
		<tag k="place" v="islet" />
		<tag k="ssr:stedsnr" v="932268" />
	</node>
	<node id="-371839" lat="58.0020527765" lon="7.18871111225">
		<tag k="fixme" v="consider seamark:type=rock or natural=shoal" />
		<tag k="name" v="Vrengskjæran" />
		<tag k="place" v="islet" />
		<tag k="ssr:stedsnr" v="932265" />
	</node>
	<node id="-369790" lat="57.9940472257" lon="7.21198888655">
		<tag k="name" v="Springen" />
		<tag k="place" v="locality" />
		<tag k="seamark:type" v="rock" />
		<tag k="ssr:stedsnr" v="207078" />
	</node>
	<node id="-369789" lat="57.998599997" lon="7.12703889139">
		<tag k="name" v="Lille Klippeskjerflua" />
		<tag k="place" v="locality" />
		<tag k="seamark:type" v="rock" />
		<tag k="ssr:stedsnr" v="207055" />
	</node>
	<node id="-369784" lat="58.0266388859" lon="7.29264166385">
		<tag k="name" v="Svartodden" />
		<tag k="place" v="island" />
		<tag k="ssr:stedsnr" v="204969" />
	</node>
	<node id="-369783" lat="58.0331083324" lon="7.27390834029">
		<tag k="name" v="Revet" />
		<tag k="natural" v="shoal" />
		<tag k="place" v="locality" />
		<tag k="ssr:stedsnr" v="204970" />
	</node>
	<node id="-369782" lat="58.0329722264" lon="7.29941389373">
		<tag k="name" v="Tormodsholmen" />
		<tag k="place" v="island" />
		<tag k="ssr:stedsnr" v="204966" />
	</node>
	<node id="-371820" lat="58.0430000019" lon="7.13240833745">
		<tag k="name" v="Draiet" />
		<tag k="natural" v="beach" />
		<tag k="place" v="locality" />
		<tag k="ssr:stedsnr" v="932114" />
	</node>
	<node id="-371818" lat="58.0729611072" lon="7.16205277705">
		<tag k="name" v="Kalsodden" />
		<tag k="natural" v="cape" />
		<tag k="ssr:stedsnr" v="932002" />
	</node>
	<node id="-371816" lat="58.0347472201" lon="7.10684443936">
		<tag k="name" v="Reierstø" />
		<tag k="natural" v="bay" />
		<tag k="ssr:stedsnr" v="932069" />
	</node>
	<node id="-371812" lat="58.0551305569" lon="7.18043333408">
		<tag k="name" v="Todevika" />
		<tag k="natural" v="bay" />
		<tag k="ssr:stedsnr" v="932032" />
	</node>
	<node id="-371806" lat="58.075047225" lon="7.16625277428">
		<tag k="name" v="Indre Odden" />
		<tag k="natural" v="cape" />
		<tag k="ssr:stedsnr" v="932007" />
	</node>
	<node id="-369744" lat="58.1106249958" lon="7.18589166839">
		<tag k="fixme" v="consider seamark:type=rock or natural=shoal" />
		<tag k="name" v="Skjæran" />
		<tag k="place" v="islet" />
		<tag k="ssr:stedsnr" v="204935" />
	</node>
	<node id="-369743" lat="58.0480777779" lon="7.19581388159">
		<tag k="name" v="Makrellodden" />
		<tag k="natural" v="cape" />
		<tag k="ssr:stedsnr" v="204926" />
	</node>
	<node id="-369742" lat="58.0447805546" lon="7.19540834123">
		<tag k="name" v="Heptevika store" />
		<tag k="natural" v="bay" />
		<tag k="ssr:stedsnr" v="204916" />
	</node>
	<node id="-371789" lat="58.0300527771" lon="7.31521666807">
		<tag k="name" v="Kvåfjordneset" />
		<tag k="natural" v="cape" />
		<tag k="ssr:stedsnr" v="910675" />
	</node>
	<node id="-371787" lat="58.027200003" lon="7.16443611001">
		<tag k="name" v="Kjeholmen" />
		<tag k="place" v="islet" />
		<tag k="ssr:stedsnr" v="910656" />
	</node>
	<node id="-371781" lat="57.992662486" lon="7.09996115253">
		<tag k="alt_name" v="Svarte Hillegarn" />
		<tag k="name" v="Svarte Hillegarden" />
		<tag k="place" v="islet" />
		<tag k="ssr:stedsnr" v="910027" />
	</node>
	<node id="-371779" lat="57.9979250024" lon="7.19601944934">
		<tag k="alt_name" v="Kiholmen" />
		<tag k="name" v="Kjeholmen" />
		<tag k="place" v="islet" />
		<tag k="ssr:stedsnr" v="910007" />
	</node>
	<node id="-369730" lat="58.0287166703" lon="7.21450555631">
		<tag k="name" v="Store Einerholmen" />
		<tag k="place" v="island" />
		<tag k="ssr:stedsnr" v="204301" />
	</node>
	<node id="-369729" lat="58.0326472205" lon="7.22120833321">
		<tag k="name" v="Åviknes" />
		<tag k="natural" v="cape" />
		<tag k="ssr:stedsnr" v="204231" />
	</node>
	<node id="-369728" lat="58.0429999997" lon="7.15490833528">
		<tag k="name" v="Krågevika" />
		<tag k="natural" v="bay" />
		<tag k="ssr:stedsnr" v="204037" />
	</node>
	<node id="-369724" lat="58.0551861129" lon="7.17718333358">
		<tag k="name" v="Ospodden" />
		<tag k="natural" v="cape" />
		<tag k="ssr:stedsnr" v="204019" />
	</node>
	<node id="-369723" lat="57.9878000044" lon="7.08796388701">
		<tag k="name" v="Vestre Brattholmen" />
		<tag k="place" v="island" />
		<tag k="ssr:stedsnr" v="203451" />
	</node>
	<node id="-369722" lat="58.0113944486" lon="7.03558888268">
		<tag k="name" v="Fluvika" />
		<tag k="natural" v="bay" />
		<tag k="ssr:stedsnr" v="203442" />
	</node>
	<node id="-369718" lat="57.9814388892" lon="7.05751944426">
		<tag k="fixme" v="consider seamark:type=rock or natural=shoal" />
		<tag k="name" v="Nodeskjær" />
		<tag k="place" v="islet" />
		<tag k="ssr:stedsnr" v="203397" />
	</node>
	<node id="-369717" lat="58.0259555515" lon="7.16799444192">
		<tag k="name" v="Lille Kjeholmen" />
		<tag k="place" v="island" />
		<tag k="ssr:stedsnr" v="203392" />
	</node>
	<node id="-369716" lat="58.0254833353" lon="7.18411944518">
		<tag k="name" v="Kokholmen" />
		<tag k="place" v="island" />
		<tag k="ssr:stedsnr" v="203390" />
	</node>
	<node id="-371755" lat="57.9830722235" lon="7.14144721477">
		<tag k="fixme" v="consider seamark:type=rock or natural=shoal" />
		<tag k="name" v="Langeboan" />
		<tag k="place" v="islet" />
		<tag k="ssr:stedsnr" v="906244" />
	</node>
	<node id="-371754" lat="57.9789422015" lon="7.05576687138">
		<tag k="name" v="Nesflua" />
		<tag k="natural" v="shoal" />
		<tag k="place" v="locality" />
		<tag k="ssr:stedsnr" v="906241" />
	</node>
	<node id="-371753" lat="58.0256916656" lon="7.31835834177">
		<tag k="name" v="Kåfjordneset" />
		<tag k="natural" v="cape" />
		<tag k="ssr:stedsnr" v="906145" />
	</node>
	<node id="-371747" lat="57.9498166695" lon="7.20548610529">
		<tag k="name" v="Ytre Kletten" />
		<tag k="natural" v="shoal" />
		<tag k="place" v="locality" />
		<tag k="ssr:stedsnr" v="875013" />
	</node>
	<node id="-369695" lat="57.9822944422" lon="7.2097222234">
		<tag k="name" v="Storvika" />
		<tag k="natural" v="bay" />
		<tag k="ssr:stedsnr" v="203335" />
	</node>
	<node id="-371633" lat="58.0476944447" lon="7.17422221853">
		<tag k="name" v="Krosvika" />
		<tag k="natural" v="bay" />
		<tag k="ssr:stedsnr" v="871060" />
	</node>
	<node id="-371733" lat="58.0095166634" lon="7.19874167306">
		<tag k="name" v="Mosestrand" />
		<tag k="natural" v="beach" />
		<tag k="place" v="locality" />
		<tag k="ssr:stedsnr" v="872383" />
	</node>
	<node id="-371732" lat="58.0293444428" lon="7.20172221487">
		<tag k="name" v="Lille Bjørnen" />
		<tag k="place" v="island" />
		<tag k="ssr:stedsnr" v="872379" />
	</node>
	<node id="-371731" lat="58.0297694422" lon="7.20641110887">
		<tag k="name" v="Erterøy" />
		<tag k="place" v="island" />
		<tag k="ssr:stedsnr" v="872375" />
	</node>
	<node id="-371730" lat="58.0308000016" lon="7.21926666001">
		<tag k="name" v="Lundsodden" />
		<tag k="natural" v="cape" />
		<tag k="ssr:stedsnr" v="872292" />
	</node>
	<node id="-371727" lat="58.0316861078" lon="7.25934166984">
		<tag k="name" v="Stranda" />
		<tag k="natural" v="beach" />
		<tag k="place" v="locality" />
		<tag k="ssr:stedsnr" v="871980" />
	</node>
	<node id="-371726" lat="58.030786111" lon="7.28710555618">
		<tag k="name" v="Rørkjær" />
		<tag k="natural" v="bay" />
		<tag k="ssr:stedsnr" v="871955" />
	</node>
	<node id="-369674" lat="58.0351833324" lon="7.32426388812">
		<tag k="alt_name" v="Kåfjorden" />
		<tag k="bay" v="fjord" />
		<tag k="name" v="Kvåfjorden" />
		<tag k="natural" v="bay" />
		<tag k="ssr:stedsnr" v="182672" />
	</node>
	<node id="-369673" lat="58.0319555532" lon="7.13181388655">
		<tag k="name" v="Kjerkevågen" />
		<tag k="natural" v="bay" />
		<tag k="ssr:stedsnr" v="182669" />
	</node>
	<node id="-371720" lat="58.0449305533" lon="7.19644445273">
		<tag k="name" v="Heptevika lille" />
		<tag k="natural" v="bay" />
		<tag k="ssr:stedsnr" v="871909" />
	</node>
	<node id="-368812" lat="57.9805166644" lon="7.05368611113">
		<tag k="name" v="Nesvarden" />
		<tag k="natural" v="cape" />
		<tag k="ssr:stedsnr" v="385438" />
	</node>
	<node id="-368811" lat="57.9947388906" lon="7.09222777025">
		<tag k="name" v="Laubervika" />
		<tag k="natural" v="bay" />
		<tag k="ssr:stedsnr" v="385429" />
	</node>
	<node id="-369636" lat="57.9966055594" lon="7.02896944826">
		<tag k="fixme" v="consider seamark:type=rock or natural=shoal" />
		<tag k="name" v="Ekornholmen" />
		<tag k="place" v="islet" />
		<tag k="ssr:stedsnr" v="177527" />
	</node>
	<node id="-368806" lat="58.0327888851" lon="7.18127777622">
		<tag k="name" v="Imsøysundet" />
		<tag k="natural" v="strait" />
		<tag k="ssr:stedsnr" v="385365" />
	</node>
	<node id="-369634" lat="58.0290861094" lon="7.15233610746">
		<tag k="name" v="Lille Viggeskjer" />
		<tag k="place" v="islet" />
		<tag k="ssr:stedsnr" v="177048" />
	</node>
	<node id="-371681" lat="57.9828305577" lon="7.04923055535">
		<tag k="name" v="Staksvika" />
		<tag k="natural" v="bay" />
		<tag k="ssr:stedsnr" v="871410" />
	</node>
	<node id="-371680" lat="58.0029527765" lon="7.03357777238">
		<tag k="name" v="Hovdeodden" />
		<tag k="natural" v="cape" />
		<tag k="ssr:stedsnr" v="871391" />
	</node>
	<node id="-371669" lat="57.9984666705" lon="7.100702785">
		<tag k="fixme" v="consider seamark:type=rock or natural=shoal" />
		<tag k="name" v="Trettevikskjæret" />
		<tag k="place" v="islet" />
		<tag k="ssr:stedsnr" v="871323" />
	</node>
	<node id="-371666" lat="57.9818083354" lon="7.21366665847">
		<tag k="name" v="Seikilen" />
		<tag k="natural" v="bay" />
		<tag k="ssr:stedsnr" v="871295" />
	</node>
	<node id="-371664" lat="57.97856667" lon="7.21638889603">
		<tag k="fixme" v="consider seamark:type=rock or natural=shoal" />
		<tag k="name" v="Udvårskjæran" />
		<tag k="place" v="islet" />
		<tag k="ssr:stedsnr" v="871291" />
	</node>
	<node id="-371638" lat="58.0593972261" lon="7.11353332803">
		<tag k="name" v="Øksnevika" />
		<tag k="natural" v="bay" />
		<tag k="ssr:stedsnr" v="871083" />
	</node>
	<node id="-371637" lat="58.0678694465" lon="7.12491388308">
		<tag k="name" v="Krogenes" />
		<tag k="natural" v="cape" />
		<tag k="ssr:stedsnr" v="871078" />
	</node>
	<node id="-369588" lat="57.9861027803" lon="7.0402083254">
		<tag k="fixme" v="consider seamark:type=rock or natural=shoal" />
		<tag k="name" v="Trefangflua" />
		<tag k="place" v="islet" />
		<tag k="ssr:stedsnr" v="145949" />
	</node>
	<node id="-369586" lat="58.0437694449" lon="7.24241944981">
		<tag k="name" v="Langvika" />
		<tag k="natural" v="bay" />
		<tag k="ssr:stedsnr" v="143985" />
	</node>
	<node id="-369585" lat="58.042938886" lon="7.23914722402">
		<tag k="name" v="Russevika" />
		<tag k="natural" v="bay" />
		<tag k="ssr:stedsnr" v="143984" />
	</node>
	<node id="-369584" lat="58.0333527778" lon="7.25678333498">
		<tag k="alt_name" v="Breivika" />
		<tag k="name" v="Breiviga" />
		<tag k="natural" v="bay" />
		<tag k="ssr:stedsnr" v="143982" />
	</node>
	<node id="-371631" lat="58.0426944402" lon="7.17739166007">
		<tag k="name" v="Børufsodden" />
		<tag k="natural" v="cape" />
		<tag k="ssr:stedsnr" v="871057" />
	</node>
	<node id="-369582" lat="58.0298055561" lon="7.25831111242">
		<tag k="name" v="Pålsholmen" />
		<tag k="place" v="island" />
		<tag k="ssr:stedsnr" v="143962" />
	</node>
	<node id="-369581" lat="58.0326222196" lon="7.27756389251">
		<tag k="name" v="Kattnesbukta" />
		<tag k="natural" v="bay" />
		<tag k="ssr:stedsnr" v="143948" />
	</node>
	<node id="-371625" lat="58.0355055567" lon="7.23896667406">
		<tag k="bay" v="fjord" />
		<tag k="name" v="Syrdalsfjorden" />
		<tag k="natural" v="bay" />
		<tag k="ssr:stedsnr" v="850656" />
	</node>
	<node id="-371624" lat="58.003448647" lon="7.19047729937">
		<tag k="name" v="Havnerøyane" />
		<tag k="place" v="islet" />
		<tag k="ssr:stedsnr" v="850621" />
	</node>
	<node id="-371618" lat="57.9620388876" lon="7.2004444405">
		<tag k="name" v="Gjesslingane" />
		<tag k="place" v="islet" />
		<tag k="ssr:stedsnr" v="850020" />
	</node>
	<node id="-371617" lat="57.9814049118" lon="7.07745997971">
		<tag k="name" v="Kjerringflua" />
		<tag k="natural" v="shoal" />
		<tag k="place" v="locality" />
		<tag k="ssr:stedsnr" v="850014" />
	</node>
	<node id="-371616" lat="57.986558331" lon="7.01864165841">
		<tag k="name" v="Sveinane" />
		<tag k="natural" v="shoal" />
		<tag k="place" v="locality" />
		<tag k="ssr:stedsnr" v="850011" />
	</node>
	<node id="-369562" lat="58.0447999955" lon="7.26652499522">
		<tag k="name" v="Sandvika" />
		<tag k="natural" v="bay" />
		<tag k="ssr:stedsnr" v="143755" />
	</node>
	<node id="-369561" lat="58.0409638848" lon="7.25501666617">
		<tag k="name" v="Gunderstøa" />
		<tag k="natural" v="bay" />
		<tag k="ssr:stedsnr" v="143750" />
	</node>
	<node id="-371594" lat="57.961997223" lon="7.20154999385">
		<tag k="fixme" v="consider seamark:type=rock or natural=shoal" />
		<tag k="name" v="Gjesslingan" />
		<tag k="place" v="islet" />
		<tag k="ssr:stedsnr" v="845245" />
	</node>
	<node id="-371593" lat="58.0428611118" lon="7.19260832772">
		<tag k="fixme" v="consider seamark:type=rock or natural=shoal" />
		<tag k="name" v="Buanskjeran" />
		<tag k="place" v="islet" />
		<tag k="ssr:stedsnr" v="845171" />
	</node>
	<node id="-369504" lat="58.0254555597" lon="7.22093056359">
		<tag k="name" v="Brattholmen" />
		<tag k="place" v="island" />
		<tag k="ssr:stedsnr" v="143247" />
	</node>
	<node id="-369503" lat="58.0009972215" lon="7.20112499733">
		<tag k="name" v="Flåholmen" />
		<tag k="place" v="island" />
		<tag k="ssr:stedsnr" v="143326" />
	</node>
	<node id="-369501" lat="58.0152305556" lon="7.19840834007">
		<tag k="bay" v="fjord" />
		<tag k="name" v="Vårøyfjorden" />
		<tag k="natural" v="bay" />
		<tag k="ssr:stedsnr" v="143319" />
	</node>
	<node id="-369500" lat="58.0102611109" lon="7.19821111356">
		<tag k="name" v="Bjorvika" />
		<tag k="natural" v="bay" />
		<tag k="ssr:stedsnr" v="143314" />
	</node>
	<node id="-369499" lat="58.0472611082" lon="7.17244999319">
		<tag k="name" v="Kaddanvika" />
		<tag k="natural" v="bay" />
		<tag k="ssr:stedsnr" v="143051" />
	</node>
	<node id="-369496" lat="58.0262861095" lon="7.13561944342">
		<tag k="alt_name" v="Svarteskjær" />
		<tag k="fixme" v="consider seamark:type=rock or natural=shoal" />
		<tag k="name" v="Svarteskjer" />
		<tag k="place" v="islet" />
		<tag k="ssr:stedsnr" v="142362" />
	</node>
	<node id="-369494" lat="57.9888333327" lon="7.03834722488">
		<tag k="name" v="Suleba" />
		<tag k="natural" v="bay" />
		<tag k="ssr:stedsnr" v="142414" />
	</node>
	<node id="-371534" lat="58.0265194484" lon="7.32863332845">
		<tag k="name" v="Lindholmen" />
		<tag k="place" v="islet" />
		<tag k="ssr:stedsnr" v="815431" />
	</node>
	<node id="-371533" lat="58.0048210486" lon="7.17969604028">
		<tag k="name" v="Bottingflua" />
		<tag k="natural" v="shoal" />
		<tag k="place" v="locality" />
		<tag k="ssr:stedsnr" v="814117" />
	</node>
	<node id="-371532" lat="58.036527776" lon="7.27573888098">
		<tag k="name" v="Gjeidevika" />
		<tag k="natural" v="bay" />
		<tag k="ssr:stedsnr" v="811983" />
	</node>
	<node id="-371529" lat="58.0290611141" lon="7.29203888906">
		<tag k="name" v="Store Kalsholmen" />
		<tag k="place" v="island" />
		<tag k="ssr:stedsnr" v="811954" />
	</node>
	<node id="-369480" lat="58.0312583305" lon="7.13937778317">
		<tag k="name" v="Ytre Teinevika" />
		<tag k="natural" v="bay" />
		<tag k="ssr:stedsnr" v="142324" />
	</node>
	<node id="-369479" lat="57.9817249962" lon="7.2054722252">
		<tag k="name" v="Vestre Udvårhavn" />
		<tag k="natural" v="strait" />
		<tag k="ssr:stedsnr" v="142315" />
	</node>
	<node id="-371525" lat="58.0403305524" lon="7.20041944233">
		<tag k="name" v="Kiheftet" />
		<tag k="natural" v="cape" />
		<tag k="ssr:stedsnr" v="811917" />
	</node>
	<node id="-369469" lat="58.0266277809" lon="7.10764722979">
		<tag k="name" v="Indrestø" />
		<tag k="natural" v="bay" />
		<tag k="ssr:stedsnr" v="142103" />
	</node>
	<node id="-369465" lat="58.0343555596" lon="7.12986667369">
		<tag k="fixme" v="consider seamark:type=rock or natural=shoal" />
		<tag k="name" v="Skarveskjær" />
		<tag k="place" v="islet" />
		<tag k="ssr:stedsnr" v="142091" />
	</node>
	<node id="-369464" lat="58.035574997" lon="7.11511944652">
		<tag k="name" v="Grønnavika" />
		<tag k="natural" v="bay" />
		<tag k="ssr:stedsnr" v="142088" />
	</node>
	<node id="-369453" lat="58.0226666623" lon="7.23935554939">
		<tag k="alt_name" v="Olavskjæran" />
		<tag k="fixme" v="consider seamark:type=rock or natural=shoal" />
		<tag k="name" v="Olavsskjeran" />
		<tag k="place" v="islet" />
		<tag k="ssr:stedsnr" v="121677" />
	</node>
	<node id="-369451" lat="58.0305833338" lon="7.17466388383">
		<tag k="alt_name" v="Vestre Imsøy" />
		<tag k="fixme" v="multiple name tags, choose one and add the other to alt_name" />
		<tag k="name" v="Imsa;Vestre Imsa" />
		<tag k="place" v="island" />
		<tag k="ssr:stedsnr" v="121660" />
	</node>
	<node id="-371470" lat="58.0137944483" lon="7.20036944452">
		<tag k="name" v="Grunnsodden" />
		<tag k="natural" v="cape" />
		<tag k="ssr:stedsnr" v="811336" />
	</node>
	<node id="-371469" lat="58.0277249978" lon="7.22367778151">
		<tag k="name" v="Svinørbukta" />
		<tag k="natural" v="bay" />
		<tag k="ssr:stedsnr" v="811261" />
	</node>
	<node id="-371467" lat="58.0405055585" lon="7.15451389628">
		<tag k="alt_name" v="Tedneholmen" />
		<tag k="name" v="Terneholmen" />
		<tag k="place" v="islet" />
		<tag k="ssr:stedsnr" v="811057" />
	</node>
	<node id="-369417" lat="58.0428727122" lon="7.17240057435">
		<tag k="name" v="Selvågen" />
		<tag k="natural" v="bay" />
		<tag k="ssr:stedsnr" v="117073" />
	</node>
	<node id="-371462" lat="58.0261083298" lon="7.18108611041">
		<tag k="fixme" v="consider seamark:type=rock or natural=shoal" />
		<tag k="name" v="Fattigskjæran" />
		<tag k="place" v="islet" />
		<tag k="ssr:stedsnr" v="810356" />
	</node>
	<node id="-371449" lat="58.0276499967" lon="7.04483055982">
		<tag k="name" v="Sandviga" />
		<tag k="natural" v="bay" />
		<tag k="ssr:stedsnr" v="810200" />
	</node>
	<node id="-371838" lat="57.9984888866" lon="7.2011444443">
		<tag k="name" v="Lammeholmen" />
		<tag k="place" v="island" />
		<tag k="ssr:stedsnr" v="932264" />
	</node>
	<node id="-371438" lat="58.0339166669" lon="7.12565833975">
		<tag k="name" v="Tangvika" />
		<tag k="natural" v="bay" />
		<tag k="ssr:stedsnr" v="810102" />
	</node>
	<node id="-371837" lat="58.0344305589" lon="7.22014444593">
		<tag k="name" v="Overstranda" />
		<tag k="natural" v="bay" />
		<tag k="ssr:stedsnr" v="932260" />
	</node>
	<node id="-369382" lat="57.9803055551" lon="7.07270277655">
		<tag k="fixme" v="consider seamark:type=rock or natural=shoal" />
		<tag k="name" v="Havskjerflua" />
		<tag k="place" v="islet" />
		<tag k="ssr:stedsnr" v="86949" />
	</node>
	<node id="-369381" lat="58.0154000025" lon="7.14666111427">
		<tag k="name" v="Mosvoldflua" />
		<tag k="natural" v="shoal" />
		<tag k="place" v="locality" />
		<tag k="ssr:stedsnr" v="86069" />
	</node>
	<node id="-369380" lat="58.0072527775" lon="7.11062499639">
		<tag k="name" v="Indreodden" />
		<tag k="natural" v="cape" />
		<tag k="ssr:stedsnr" v="86067" />
	</node>
	<node id="-369379" lat="57.9813805528" lon="7.08882778569">
		<tag k="fixme" v="consider seamark:type=rock or natural=shoal" />
		<tag k="name" v="Amiensflua" />
		<tag k="place" v="islet" />
		<tag k="ssr:stedsnr" v="85923" />
	</node>
	<node id="-371426" lat="58.037136112" lon="7.15923888093">
		<tag k="alt_name" v="Njervefjorden" />
		<tag k="bay" v="fjord" />
		<tag k="name" v="Njervesfjorden" />
		<tag k="natural" v="bay" />
		<tag k="ssr:stedsnr" v="789676" />
	</node>
	<node id="-369375" lat="58.0379416687" lon="7.29654443884">
		<tag k="name" v="Tjømsvågen" />
		<tag k="natural" v="bay" />
		<tag k="ssr:stedsnr" v="83979" />
	</node>
	<node id="-371415" lat="57.9918166699" lon="7.0946500034">
		<tag k="name" v="Guleholmane" />
		<tag k="place" v="islet" />
		<tag k="ssr:stedsnr" v="789014" />
	</node>
	<node id="-371389" lat="58.0334972264" lon="7.16725277229">
		<tag k="name" v="Imsafluan" />
		<tag k="natural" v="shoal" />
		<tag k="place" v="locality" />
		<tag k="ssr:stedsnr" v="784051" />
	</node>
	<node id="-369313" lat="57.9966277761" lon="7.1948416639">
		<tag k="name" v="Steinfjæra" />
		<tag k="place" v="island" />
		<tag k="ssr:stedsnr" v="83274" />
	</node>
	<node id="-371352" lat="57.9577777744" lon="7.21335556181">
		<tag k="name" v="Fjeldskårflua" />
		<tag k="natural" v="shoal" />
		<tag k="place" v="locality" />
		<tag k="ssr:stedsnr" v="753016" />
	</node>
	<node id="-371349" lat="58.0439416658" lon="7.32291389731">
		<tag k="name" v="Linddalsodden" />
		<tag k="natural" v="cape" />
		<tag k="ssr:stedsnr" v="751743" />
	</node>
	<node id="-369293" lat="58.0414416682" lon="7.16981667336">
		<tag k="name" v="Stamsnes" />
		<tag k="natural" v="cape" />
		<tag k="ssr:stedsnr" v="83040" />
	</node>
	<node id="-369291" lat="58.0529555561" lon="7.18186666466">
		<tag k="name" v="Heptevika" />
		<tag k="natural" v="bay" />
		<tag k="ssr:stedsnr" v="83028" />
	</node>
	<node id="-369289" lat="57.9915583343" lon="7.08593889136">
		<tag k="name" v="Duleodden" />
		<tag k="natural" v="cape" />
		<tag k="ssr:stedsnr" v="82420" />
	</node>
	<node id="-369288" lat="58.0060666636" lon="7.03416110981">
		<tag k="name" v="Kolnesodden" />
		<tag k="natural" v="cape" />
		<tag k="ssr:stedsnr" v="82411" />
	</node>
	<node id="-369286" lat="58.0275388918" lon="7.18378889227">
		<tag k="name" v="Langevika" />
		<tag k="natural" v="bay" />
		<tag k="ssr:stedsnr" v="82346" />
	</node>
	<node id="-371333" lat="58.026869447" lon="7.26194444984">
		<tag k="name" v="Rundholmen" />
		<tag k="place" v="island" />
		<tag k="ssr:stedsnr" v="750930" />
	</node>
	<node id="-369284" lat="58.0040583333" lon="7.10442500667">
		<tag k="name" v="Tveidstranda" />
		<tag k="natural" v="bay" />
		<tag k="ssr:stedsnr" v="82325" />
	</node>
	<node id="-371331" lat="58.1173694471" lon="7.18684445082">
		<tag k="name" v="Sandnesodden" />
		<tag k="natural" v="cape" />
		<tag k="ssr:stedsnr" v="750920" />
	</node>
	<node id="-369281" lat="57.9812583341" lon="7.21371389292">
		<tag k="name" v="Kaddanvika" />
		<tag k="natural" v="bay" />
		<tag k="ssr:stedsnr" v="82303" />
	</node>
	<node id="-369280" lat="58.0140027748" lon="7.11607222589">
		<tag k="name" v="Launesodden" />
		<tag k="natural" v="cape" />
		<tag k="ssr:stedsnr" v="82394" />
	</node>
	<node id="-369272" lat="58.0530277786" lon="7.09848056205">
		<tag k="name" v="Kilen" />
		<tag k="natural" v="bay" />
		<tag k="ssr:stedsnr" v="82112" />
	</node>
	<node id="-369268" lat="58.0274527816" lon="7.11862222246">
		<tag k="fixme" v="consider seamark:type=rock or natural=shoal" />
		<tag k="name" v="Skudanskjæret" />
		<tag k="place" v="islet" />
		<tag k="ssr:stedsnr" v="82083" />
	</node>
	<node id="-371314" lat="58.0393722198" lon="7.25416944074">
		<tag k="name" v="Selvoien" />
		<tag k="natural" v="bay" />
		<tag k="ssr:stedsnr" v="750752" />
	</node>
	<node id="-369240" lat="58.0458694477" lon="7.25629722806">
		<tag k="name" v="Furuholmen" />
		<tag k="natural" v="cape" />
		<tag k="ssr:stedsnr" v="61583" />
	</node>
	<node id="-369229" lat="57.9937833354" lon="7.19496110509">
		<tag k="name" v="Skarvøy" />
		<tag k="place" v="islet" />
		<tag k="ssr:stedsnr" v="61017" />
	</node>
	<node id="-371276" lat="57.986624996" lon="7.06857499948">
		<tag k="fixme" v="consider seamark:type=rock or natural=shoal" />
		<tag k="name" v="Bukkeskjær" />
		<tag k="place" v="islet" />
		<tag k="ssr:stedsnr" v="750357" />
	</node>
	<node id="-371274" lat="57.9858916667" lon="7.06558611504">
		<tag k="name" v="Jonsholmen" />
		<tag k="place" v="island" />
		<tag k="ssr:stedsnr" v="750353" />
	</node>
	<node id="-369222" lat="58.0178166624" lon="7.27039444363">
		<tag k="name" v="Hummerholmen" />
		<tag k="place" v="islet" />
		<tag k="ssr:stedsnr" v="60658" />
	</node>
	<node id="-369221" lat="58.0245138874" lon="7.14711667418">
		<tag k="alt_name" v="Store Viggeskjær" />
		<tag k="fixme" v="consider seamark:type=rock or natural=shoal" />
		<tag k="name" v="Vigeskjeret, store" />
		<tag k="place" v="islet" />
		<tag k="ssr:stedsnr" v="60636" />
	</node>
	<node id="-371266" lat="58.0263583331" lon="7.23567499319">
		<tag k="name" v="Olavsøy" />
		<tag k="place" v="island" />
		<tag k="ssr:stedsnr" v="750251" />
	</node>
	<node id="-371265" lat="58.0242749967" lon="7.22206944096">
		<tag k="name" v="Æreholman" />
		<tag k="place" v="island" />
		<tag k="ssr:stedsnr" v="750243" />
	</node>
	<node id="-371264" lat="58.0320694415" lon="7.22615833524">
		<tag k="name" v="Skipskransholmen" />
		<tag k="place" v="island" />
		<tag k="ssr:stedsnr" v="750234" />
	</node>
	<node id="-371260" lat="58.017447222" lon="7.11614444384">
		<tag k="name" v="Høylandsodden" />
		<tag k="natural" v="cape" />
		<tag k="ssr:stedsnr" v="749432" />
	</node>
	<node id="-371258" lat="57.9904666687" lon="7.20255277184">
		<tag k="fixme" v="consider seamark:type=rock or natural=shoal" />
		<tag k="name" v="Lefsøyskjæran" />
		<tag k="place" v="islet" />
		<tag k="ssr:stedsnr" v="749369" />
	</node>
	<node id="-371256" lat="57.9988722186" lon="7.09642222521">
		<tag k="name" v="Suggevika" />
		<tag k="natural" v="bay" />
		<tag k="ssr:stedsnr" v="749362" />
	</node>
	<node id="-371255" lat="58.0369527765" lon="7.17104722119">
		<tag k="fixme" v="consider seamark:type=rock or natural=shoal" />
		<tag k="name" v="Merrefluskjæret" />
		<tag k="place" v="islet" />
		<tag k="ssr:stedsnr" v="749346" />
	</node>
	<node id="-371254" lat="58.0356611121" lon="7.17036666615">
		<tag k="name" v="Astriholmen" />
		<tag k="place" v="island" />
		<tag k="ssr:stedsnr" v="749344" />
	</node>
	<node id="-371253" lat="58.0299611125" lon="7.14630834121">
		<tag k="name" v="Fluvika" />
		<tag k="natural" v="bay" />
		<tag k="ssr:stedsnr" v="749335" />
	</node>
	<node id="-371204" lat="57.9810194433" lon="7.21128333312">
		<tag k="alt_name" v="Utvåre" />
		<tag k="name" v="Udvåre" />
		<tag k="place" v="island" />
		<tag k="ssr:stedsnr" v="728028" />
	</node>
	<node id="-371201" lat="57.9585361079" lon="7.05649443974">
		<tag k="name" v="Neskletten" />
		<tag k="natural" v="shoal" />
		<tag k="place" v="locality" />
		<tag k="ssr:stedsnr" v="728022" />
	</node>
	<node id="-369140" lat="58.0125638878" lon="7.28116111714">
		<tag k="fixme" v="consider seamark:type=rock or natural=shoal" />
		<tag k="name" v="Svartskjeran" />
		<tag k="place" v="islet" />
		<tag k="ssr:stedsnr" v="26455" />
	</node>
	<node id="-369139" lat="57.9957194473" lon="7.17735555">
		<tag k="name" v="Grundflua" />
		<tag k="place" v="locality" />
		<tag k="seamark:type" v="rock" />
		<tag k="ssr:stedsnr" v="25092" />
	</node>
	<node id="-369138" lat="58.0017277763" lon="7.10834443993">
		<tag k="name" v="Indre Hammerflua" />
		<tag k="place" v="locality" />
		<tag k="seamark:type" v="rock" />
		<tag k="ssr:stedsnr" v="25057" />
	</node>
	<node id="-369137" lat="57.9897888898" lon="7.11871666086">
		<tag k="name" v="Sørgrunnen" />
		<tag k="natural" v="shoal" />
		<tag k="place" v="locality" />
		<tag k="ssr:stedsnr" v="25013" />
	</node>
	<node id="-369136" lat="57.9847055579" lon="7.06926111388">
		<tag k="name" v="Vareholmen" />
		<tag k="place" v="islet" />
		<tag k="ssr:stedsnr" v="24945" />
	</node>
	<node id="-371175" lat="57.9922083327" lon="7.01770555742">
		<tag k="name" v="Nordsteinen" />
		<tag k="natural" v="shoal" />
		<tag k="place" v="locality" />
		<tag k="ssr:stedsnr" v="722402" />
	</node>
	<node id="-369124" lat="58.0437361133" lon="7.245713881">
		<tag k="fixme" v="consider seamark:type=rock or natural=shoal" />
		<tag k="name" v="Seilskjæran" />
		<tag k="place" v="islet" />
		<tag k="ssr:stedsnr" v="22989" />
	</node>
	<node id="-369122" lat="58.0307861109" lon="7.27708056154">
		<tag k="name" v="Roligheta" />
		<tag k="natural" v="bay" />
		<tag k="ssr:stedsnr" v="22970" />
	</node>
	<node id="-369121" lat="58.0258888933" lon="7.29631945102">
		<tag k="name" v="Brattholmen" />
		<tag k="place" v="island" />
		<tag k="ssr:stedsnr" v="22964" />
	</node>
	<node id="-369120" lat="58.0344111143" lon="7.29651389184">
		<tag k="name" v="Bryggeholmen" />
		<tag k="natural" v="cape" />
		<tag k="ssr:stedsnr" v="22959" />
	</node>
	<node id="-369119" lat="58.0295194464" lon="7.2906361137">
		<tag k="name" v="Lille Kalsholmen" />
		<tag k="place" v="island" />
		<tag k="ssr:stedsnr" v="22957" />
	</node>
	<node id="-369118" lat="58.1007555527" lon="7.17315277573">
		<tag k="name" v="Hammervika" />
		<tag k="natural" v="bay" />
		<tag k="ssr:stedsnr" v="22908" />
	</node>
	<node id="-369117" lat="58.107880559" lon="7.18624999647">
		<tag k="name" v="Fiskerhola" />
		<tag k="natural" v="bay" />
		<tag k="ssr:stedsnr" v="22902" />
	</node>
	<node id="-369116" lat="58.1090055559" lon="7.18746110444">
		<tag k="name" v="Einerbakkodden" />
		<tag k="natural" v="cape" />
		<tag k="ssr:stedsnr" v="22903" />
	</node>
	<node id="-369104" lat="58.0515555533" lon="7.26834166891">
		<tag k="name" v="Nodevik" />
		<tag k="natural" v="bay" />
		<tag k="ssr:stedsnr" v="22776" />
	</node>
	<node id="-369103" lat="58.0428805595" lon="7.25822221609">
		<tag k="name" v="Buvika" />
		<tag k="natural" v="bay" />
		<tag k="ssr:stedsnr" v="22771" />
	</node>
	<node id="-371144" lat="58.0208854115" lon="7.30346717993">
		<tag k="name" v="Følleflua" />
		<tag k="natural" v="shoal" />
		<tag k="place" v="locality" />
		<tag k="ssr:stedsnr" v="693443" />
	</node>
	<node id="-371143" lat="58.0080750006" lon="7.29076944046">
		<tag k="name" v="Svartskjerflua" />
		<tag k="place" v="locality" />
		<tag k="seamark:type" v="rock" />
		<tag k="ssr:stedsnr" v="693441" />
	</node>
	<node id="-371141" lat="57.9841222213" lon="7.19186388202">
		<tag k="name" v="Ryvingboen" />
		<tag k="natural" v="shoal" />
		<tag k="place" v="locality" />
		<tag k="ssr:stedsnr" v="693114" />
	</node>
	<node id="-371140" lat="58.025547219" lon="7.30476944963">
		<tag k="name" v="Merra" />
		<tag k="place" v="islet" />
		<tag k="ssr:stedsnr" v="693032" />
	</node>
	<node id="-371139" lat="57.9543805591" lon="7.20230278545">
		<tag k="name" v="Indre Kletten" />
		<tag k="natural" v="shoal" />
		<tag k="place" v="locality" />
		<tag k="ssr:stedsnr" v="693022" />
	</node>
	<node id="-371138" lat="58.0071751202" lon="7.18461577633">
		<tag k="name" v="Badstukletten" />
		<tag k="natural" v="shoal" />
		<tag k="place" v="locality" />
		<tag k="ssr:stedsnr" v="692105" />
	</node>
	<node id="-371130" lat="58.0115722227" lon="7.20155556365">
		<tag k="name" v="Kjørevika" />
		<tag k="natural" v="bay" />
		<tag k="ssr:stedsnr" v="690393" />
	</node>
	<node id="-371129" lat="58.0293694412" lon="7.19917777526">
		<tag k="name" v="Store Bjørnen" />
		<tag k="place" v="island" />
		<tag k="ssr:stedsnr" v="690390" />
	</node>
	<node id="-371125" lat="58.0322250022" lon="7.29947499902">
		<tag k="fixme" v="consider seamark:type=rock or natural=shoal" />
		<tag k="name" v="Tjømshalen" />
		<tag k="place" v="islet" />
		<tag k="ssr:stedsnr" v="689960" />
	</node>
	<node id="-371121" lat="58.041691664" lon="7.20002222843">
		<tag k="name" v="Gullvika" />
		<tag k="natural" v="bay" />
		<tag k="ssr:stedsnr" v="689916" />
	</node>
	<node id="-369061" lat="58.0332027739" lon="7.19926944448">
		<tag k="name" v="Krabbøya" />
		<tag k="place" v="island" />
		<tag k="ssr:stedsnr" v="22356" />
	</node>
	<node id="-369060" lat="58.0012083332" lon="7.196402777">
		<tag k="name" v="Rabnøy" />
		<tag k="place" v="island" />
		<tag k="ssr:stedsnr" v="22340" />
	</node>
	<node id="-369058" lat="58.0135055578" lon="7.20266388056">
		<tag k="name" v="Vårøyodden" />
		<tag k="natural" v="cape" />
		<tag k="ssr:stedsnr" v="22324" />
	</node>
	<node id="-369056" lat="57.9888000025" lon="7.04037777211">
		<tag k="name" v="Roshaien" />
		<tag k="natural" v="bay" />
		<tag k="ssr:stedsnr" v="21472" />
	</node>
	<node id="-369055" lat="57.9883777803" lon="7.03523055208">
		<tag k="name" v="Skorberget" />
		<tag k="natural" v="cape" />
		<tag k="ssr:stedsnr" v="21467" />
	</node>
	<node id="-369053" lat="57.9896833329" lon="7.06481943648">
		<tag k="name" v="Auster Kilen" />
		<tag k="natural" v="bay" />
		<tag k="ssr:stedsnr" v="21410" />
	</node>
	<node id="-369051" lat="58.0258666643" lon="7.17204444802">
		<tag k="name" v="Kalvehaue" />
		<tag k="natural" v="cape" />
		<tag k="ssr:stedsnr" v="21385" />
	</node>
	<node id="-369731" lat="57.9835694444" lon="7.05872500764">
		<tag k="fixme" v="consider seamark:type=rock or natural=shoal" />
		<tag k="name" v="Vragevigskjeran" />
		<tag k="place" v="islet" />
		<tag k="ssr:stedsnr" v="204327" />
	</node>
	<node id="-369035" lat="58.0213333335" lon="7.03809444842">
		<tag k="name" v="Launes" />
		<tag k="natural" v="cape" />
		<tag k="ssr:stedsnr" v="21216" />
	</node>
	<node id="-369026" lat="58.0195416643" lon="7.11293332862">
		<tag k="name" v="Høylandsstranda" />
		<tag k="natural" v="bay" />
		<tag k="ssr:stedsnr" v="21101" />
	</node>
	<node id="-369025" lat="58.0268055572" lon="7.12230277174">
		<tag k="name" v="Tronesvika" />
		<tag k="natural" v="bay" />
		<tag k="ssr:stedsnr" v="21095" />
	</node>
	<node id="-369024" lat="58.0374305531" lon="7.12504166028">
		<tag k="name" v="Lervika" />
		<tag k="natural" v="bay" />
		<tag k="ssr:stedsnr" v="21087" />
	</node>
	<node id="-369022" lat="58.0381638849" lon="7.13018889675">
		<tag k="name" v="Naudholmen" />
		<tag k="place" v="island" />
		<tag k="ssr:stedsnr" v="21077" />
	</node>
	<node id="-369020" lat="58.0658527779" lon="7.14874444765">
		<tag k="name" v="Langodden" />
		<tag k="natural" v="cape" />
		<tag k="ssr:stedsnr" v="21024" />
	</node>
	<node id="-369018" lat="58.0719916632" lon="7.14749167171">
		<tag k="name" v="Lillesundet" />
		<tag k="natural" v="strait" />
		<tag k="ssr:stedsnr" v="21017" />
	</node>
	<node id="-369013" lat="58.0081750021" lon="7.19619999438">
		<tag k="alt_name" v="Vårøy" />
		<tag k="name" v="Våre" />
		<tag k="place" v="island" />
		<tag k="ssr:stedsnr" v="627" />
	</node>
	<node id="-371060" lat="57.9922361076" lon="7.09433332739">
		<tag k="name" v="Indre Guleholmen" />
		<tag k="place" v="island" />
		<tag k="ssr:stedsnr" v="689410" />
	</node>
	<node id="-371052" lat="58.0285638846" lon="7.20059166987">
		<tag k="fixme" v="consider seamark:type=rock or natural=shoal" />
		<tag k="name" v="Flyndra" />
		<tag k="place" v="islet" />
		<tag k="ssr:stedsnr" v="689366" />
	</node>
	<node id="-371051" lat="58.0343638879" lon="7.20474999932">
		<tag k="name" v="Finnøysundet" />
		<tag k="natural" v="strait" />
		<tag k="ssr:stedsnr" v="689364" />
	</node>
	<node id="-371050" lat="58.0000944413" lon="7.10107777243">
		<tag k="name" v="Trettevika" />
		<tag k="natural" v="bay" />
		<tag k="ssr:stedsnr" v="689336" />
	</node>
	<node id="-371049" lat="58.0293111132" lon="7.14338056005">
		<tag k="name" v="Oddevika" />
		<tag k="natural" v="bay" />
		<tag k="ssr:stedsnr" v="689330" />
	</node>
	<node id="-371048" lat="57.9837138919" lon="7.20677778377">
		<tag k="name" v="Mittingsundet" />
		<tag k="natural" v="strait" />
		<tag k="ssr:stedsnr" v="689325" />
	</node>
	<node id="-368999" lat="57.9958916679" lon="7.13168056">
		<tag k="alt_name" v="Litle Kleppeskjer" />
		<tag k="fixme" v="consider seamark:type=rock or natural=shoal" />
		<tag k="name" v="Lille Klippeskjer" />
		<tag k="place" v="islet" />
		<tag k="ssr:stedsnr" v="21" />
	</node>
	<node id="-371043" lat="58.0006666691" lon="7.18923055804">
		<tag k="name" v="Lille Havnerøy" />
		<tag k="place" v="island" />
		<tag k="ssr:stedsnr" v="689284" />
	</node>
	<node id="-368987" lat="58.028910041" lon="7.23196448268">
		<tag k="name" v="Søndre Hammerøy" />
		<tag k="place" v="island" />
		<tag k="ssr:stedsnr" v="985294" />
	</node>
	<node id="-368986" lat="57.9929426422" lon="7.08878962331">
		<tag k="name" v="Lillehavnsholmen" />
		<tag k="natural" v="cape" />
		<tag k="ssr:stedsnr" v="985070" />
	</node>
	<node id="-368985" lat="58.033132535" lon="7.10615250349">
		<tag k="name" v="Reinertstøodden" />
		<tag k="natural" v="cape" />
		<tag k="ssr:stedsnr" v="985064" />
	</node>
	<node id="-368984" lat="58.0401950184" lon="7.19084219448">
		<tag k="name" v="Fjordflua" />
		<tag k="natural" v="shoal" />
		<tag k="place" v="locality" />
		<tag k="ssr:stedsnr" v="984924" />
	</node>
	<node id="-368983" lat="58.041605239" lon="7.1865604805">
		<tag k="name" v="Bjørkholmflua" />
		<tag k="natural" v="shoal" />
		<tag k="place" v="locality" />
		<tag k="ssr:stedsnr" v="984923" />
	</node>
	<node id="-371022" lat="58.0402916707" lon="7.12653611714">
		<tag k="name" v="Saltholmen" />
		<tag k="place" v="island" />
		<tag k="ssr:stedsnr" v="689126" />
	</node>
	<node id="-369378" lat="57.9761694415" lon="7.20898888616">
		<tag k="name" v="Udvårflua" />
		<tag k="place" v="locality" />
		<tag k="seamark:type" v="rock" />
		<tag k="ssr:stedsnr" v="268104" />
	</node>
	<node id="-371014" lat="58.0241444447" lon="7.1180499957">
		<tag k="fixme" v="multiple name tags, choose one and add the other to alt_name; consider seamark:type=rock or natural=shoal" />
		<tag k="name" v="Bessen;Store Bessen" />
		<tag k="place" v="islet" />
		<tag k="ssr:stedsnr" v="689082" />
	</node>
	<node id="-371012" lat="58.0419638846" lon="7.14670277299">
		<tag k="name" v="Store Båly" />
		<tag k="natural" v="beach" />
		<tag k="place" v="locality" />
		<tag k="ssr:stedsnr" v="689057" />
	</node>
	<node id="-371011" lat="58.042816665" lon="7.17309999974">
		<tag k="fixme" v="consider seamark:type=rock or natural=shoal" />
		<tag k="name" v="Selvoien" />
		<tag k="place" v="islet" />
		<tag k="ssr:stedsnr" v="689052" />
	</node>
	<node id="-371007" lat="58.0725138876" lon="7.1492944417">
		<tag k="fixme" v="multiple name tags, choose one and add the other to alt_name" />
		<tag k="name" v="Holmen;Jåsundholmen" />
		<tag k="place" v="island" />
		<tag k="ssr:stedsnr" v="689001" />
	</node>
	<node id="-371003" lat="57.9900055549" lon="7.20572777429">
		<tag k="fixme" v="multiple name tags, choose one and add the other to alt_name" />
		<tag k="name" v="Daumannsholmen;Kamferhof" />
		<tag k="place" v="islet" />
		<tag k="ssr:stedsnr" v="668023" />
	</node>
	<node id="-370982" lat="57.9964444452" lon="7.18939444328">
		<tag k="name" v="Saltholmen" />
		<tag k="place" v="islet" />
		<tag k="ssr:stedsnr" v="667031" />
	</node>
	<node id="-370953" lat="58.030138385" lon="7.22986342844">
		<tag k="name" v="Nordre Hammerøy" />
		<tag k="place" v="island" />
		<tag k="ssr:stedsnr" v="663214" />
	</node>
	<node id="-368901" lat="58.0316249967" lon="7.30710556297">
		<tag k="name" v="Søvrinskilen" />
		<tag k="natural" v="bay" />
		<tag k="ssr:stedsnr" v="390412" />
	</node>
	<node id="-368900" lat="57.9873027806" lon="7.20273333119">
		<tag k="name" v="Lefsøyflua" />
		<tag k="natural" v="shoal" />
		<tag k="place" v="locality" />
		<tag k="ssr:stedsnr" v="389081" />
	</node>
	<node id="-368899" lat="58.0606083297" lon="7.11363888139">
		<tag k="name" v="Eigenesodden" />
		<tag k="natural" v="cape" />
		<tag k="ssr:stedsnr" v="388164" />
	</node>
	<node id="-368898" lat="57.9807527795" lon="7.140247229">
		<tag k="name" v="Makrellflua" />
		<tag k="place" v="locality" />
		<tag k="seamark:type" v="rock" />
		<tag k="ssr:stedsnr" v="389102" />
	</node>
	<node id="-368894" lat="58.0388611077" lon="7.27644999907">
		<tag k="name" v="Sveivika" />
		<tag k="natural" v="bay" />
		<tag k="ssr:stedsnr" v="386981" />
	</node>
	<node id="-368891" lat="58.0343083323" lon="7.26712222732">
		<tag k="name" v="Kongsodden" />
		<tag k="natural" v="cape" />
		<tag k="ssr:stedsnr" v="386954" />
	</node>
	<node id="-370925" lat="57.9929916655" lon="7.11586111331">
		<tag k="name" v="Heddene" />
		<tag k="place" v="locality" />
		<tag k="seamark:type" v="rock" />
		<tag k="ssr:stedsnr" v="632127" />
	</node>
	<node id="-370924" lat="57.9952555514" lon="7.21167499455">
		<tag k="name" v="Spekelaksen" />
		<tag k="natural" v="shoal" />
		<tag k="place" v="locality" />
		<tag k="ssr:stedsnr" v="632120" />
	</node>
	<node id="-370923" lat="58.0088944446" lon="7.13128889044">
		<tag k="name" v="Vestre Flua" />
		<tag k="natural" v="shoal" />
		<tag k="place" v="locality" />
		<tag k="ssr:stedsnr" v="631063" />
	</node>
	<node id="-370922" lat="57.986050002" lon="7.0950305491">
		<tag k="name" v="Hillegarskletten" />
		<tag k="natural" v="shoal" />
		<tag k="place" v="locality" />
		<tag k="ssr:stedsnr" v="631025" />
	</node>
	<node id="-370921" lat="57.9514500026" lon="7.20410555966">
		<tag k="name" v="Midtre Kletten" />
		<tag k="natural" v="shoal" />
		<tag k="place" v="locality" />
		<tag k="ssr:stedsnr" v="631015" />
	</node>
	<node id="-370919" lat="58.008611109" lon="7.06189443877">
		<tag k="name" v="Lindesnes" />
		<tag k="natural" v="cape" />
		<tag k="ssr:stedsnr" v="630141" />
	</node>
	<node id="-370912" lat="58.0241722222" lon="7.25079444529">
		<tag k="name" v="Brattholmen" />
		<tag k="place" v="island" />
		<tag k="ssr:stedsnr" v="628973" />
	</node>
	<node id="-370911" lat="58.0280194418" lon="7.29557500379">
		<tag k="name" v="Lille Bleikholmen" />
		<tag k="place" v="island" />
		<tag k="ssr:stedsnr" v="628951" />
	</node>
	<node id="-370907" lat="58.0262166703" lon="7.25000832794">
		<tag k="name" v="Grønningen" />
		<tag k="place" v="island" />
		<tag k="ssr:stedsnr" v="628919" />
	</node>
	<node id="-370894" lat="58.0470944467" lon="7.26263888144">
		<tag k="name" v="Naversundet" />
		<tag k="natural" v="strait" />
		<tag k="ssr:stedsnr" v="628769" />
	</node>
	<node id="-368820" lat="58.034766663" lon="7.22729166309">
		<tag k="name" v="Håga" />
		<tag k="natural" v="cape" />
		<tag k="ssr:stedsnr" v="386261" />
	</node>
	<node id="-368818" lat="58.043583334" lon="7.15793333373">
		<tag k="fixme" v="consider seamark:type=rock or natural=shoal" />
		<tag k="name" v="Njervesskjæran" />
		<tag k="place" v="islet" />
		<tag k="ssr:stedsnr" v="386055" />
	</node>
	<node id="-368815" lat="58.0581472186" lon="7.18025277771">
		<tag k="name" v="Tangen" />
		<tag k="natural" v="cape" />
		<tag k="ssr:stedsnr" v="386033" />
	</node>
	<node id="-368813" lat="57.9843694401" lon="7.04622221903">
		<tag k="name" v="Knarvika" />
		<tag k="natural" v="bay" />
		<tag k="ssr:stedsnr" v="385437" />
	</node>
	<node id="-370860" lat="58.0024897189" lon="7.19090484829">
		<tag k="name" v="Havnerøy" />
		<tag k="place" v="islet" />
		<tag k="ssr:stedsnr" v="628439" />
	</node>
	<node id="-370859" lat="57.9918194427" lon="7.09465278293">
		<tag k="name" v="Ytre Guleholmen" />
		<tag k="place" v="islet" />
		<tag k="ssr:stedsnr" v="628430" />
	</node>
	<node id="-368810" lat="57.9874583376" lon="7.0906749958">
		<tag k="name" v="Brattholmen" />
		<tag k="place" v="island" />
		<tag k="ssr:stedsnr" v="385425" />
	</node>
	<node id="-368809" lat="57.9864444454" lon="7.08906943787">
		<tag k="fixme" v="consider seamark:type=rock or natural=shoal" />
		<tag k="name" v="Havskjæret" />
		<tag k="place" v="islet" />
		<tag k="ssr:stedsnr" v="385423" />
	</node>
	<node id="-368808" lat="58.0071638906" lon="7.03484166814">
		<tag k="name" v="Pannevika" />
		<tag k="natural" v="bay" />
		<tag k="ssr:stedsnr" v="385419" />
	</node>
	<node id="-368807" lat="58.0149666661" lon="7.11565832723">
		<tag k="name" v="Eivardshola" />
		<tag k="natural" v="bay" />
		<tag k="ssr:stedsnr" v="385409" />
	</node>
	<node id="-370854" lat="57.988505557" lon="7.08889999697">
		<tag k="name" v="Grodholmen" />
		<tag k="place" v="island" />
		<tag k="ssr:stedsnr" v="628414" />
	</node>
	<node id="-368804" lat="58.0361861067" lon="7.15202499658">
		<tag k="name" v="Lauholmen" />
		<tag k="place" v="islet" />
		<tag k="ssr:stedsnr" v="385330" />
	</node>
	<node id="-368803" lat="58.0362250013" lon="7.14745277629">
		<tag k="name" v="Vagelodden" />
		<tag k="natural" v="cape" />
		<tag k="ssr:stedsnr" v="385328" />
	</node>
	<node id="-370844" lat="57.9832416646" lon="7.07135833659">
		<tag k="fixme" v="consider seamark:type=rock or natural=shoal" />
		<tag k="name" v="Havskjæret" />
		<tag k="place" v="islet" />
		<tag k="ssr:stedsnr" v="628366" />
	</node>
	<node id="-370843" lat="58.0278083317" lon="7.14324722688">
		<tag k="name" v="Nyresnesodden" />
		<tag k="natural" v="cape" />
		<tag k="ssr:stedsnr" v="628353" />
	</node>
	<node id="-370842" lat="58.0268749987" lon="7.13690832549">
		<tag k="name" v="Lille Bratholmen" />
		<tag k="place" v="island" />
		<tag k="ssr:stedsnr" v="628349" />
	</node>
	<node id="-370839" lat="58.0271472187" lon="7.19782499833">
		<tag k="fixme" v="consider seamark:type=rock or natural=shoal" />
		<tag k="name" v="Bingsa" />
		<tag k="place" v="islet" />
		<tag k="ssr:stedsnr" v="628332" />
	</node>
	<node id="-370836" lat="58.0344388868" lon="7.14303333699">
		<tag k="name" v="Nyresnes" />
		<tag k="natural" v="cape" />
		<tag k="ssr:stedsnr" v="628317" />
	</node>
	<node id="-370835" lat="58.0381000041" lon="7.17515278307">
		<tag k="name" v="Buvika" />
		<tag k="natural" v="bay" />
		<tag k="ssr:stedsnr" v="628315" />
	</node>
	<node id="-370834" lat="58.0383694464" lon="7.15180833152">
		<tag k="name" v="Bålyhaue" />
		<tag k="natural" v="cape" />
		<tag k="ssr:stedsnr" v="628312" />
	</node>
	<node id="-370833" lat="58.0386722261" lon="7.14161666148">
		<tag k="name" v="Steinvika" />
		<tag k="natural" v="bay" />
		<tag k="ssr:stedsnr" v="628310" />
	</node>
	<node id="-370832" lat="58.0270805578" lon="7.187958337">
		<tag k="name" v="Fyrodden" />
		<tag k="natural" v="cape" />
		<tag k="ssr:stedsnr" v="628308" />
	</node>
	<node id="-368783" lat="58.0321972242" lon="7.12127221471">
		<tag k="name" v="Trones" />
		<tag k="natural" v="cape" />
		<tag k="ssr:stedsnr" v="385098" />
	</node>
	<node id="-370826" lat="58.0293802035" lon="7.23292834536">
		<tag k="name" v="Hammerøy" />
		<tag k="place" v="island" />
		<tag k="ssr:stedsnr" v="628277" />
	</node>
	<node id="-370825" lat="58.033169445" lon="7.2393472247">
		<tag k="fixme" v="consider seamark:type=rock or natural=shoal" />
		<tag k="name" v="Håboskjæret" />
		<tag k="place" v="islet" />
		<tag k="ssr:stedsnr" v="628274" />
	</node>
	<node id="-370824" lat="58.0289611101" lon="7.23633889087">
		<tag k="name" v="Hådypet" />
		<tag k="place" v="locality" />
		<tag k="ssr:stedsnr" v="628272" />
	</node>
	<node id="-369004" lat="58.025233334" lon="7.21213610601">
		<tag k="name" v="Skarvøy" />
		<tag k="place" v="islet" />
		<tag k="ssr:stedsnr" v="688" />
	</node>
	<node id="-370822" lat="58.0254472183" lon="7.23246388251">
		<tag k="name" v="Grydodden" />
		<tag k="natural" v="cape" />
		<tag k="ssr:stedsnr" v="628264" />
	</node>
	<node id="-370821" lat="57.9988916634" lon="7.20659722164">
		<tag k="name" v="Søndre Einerholmskjæran" />
		<tag k="place" v="island" />
		<tag k="ssr:stedsnr" v="628263" />
	</node>
	<node id="-370820" lat="58.0385722214" lon="7.22339999694">
		<tag k="alt_name" v="Skoftevika" />
		<tag k="name" v="Skofteviga" />
		<tag k="natural" v="bay" />
		<tag k="ssr:stedsnr" v="628260" />
	</node>
	<node id="-368762" lat="58.0291833344" lon="7.22529721578">
		<tag k="name" v="Svinør" />
		<tag k="place" v="island" />
		<tag k="ssr:stedsnr" v="364700" />
	</node>
	<node id="-368761" lat="58.047099996" lon="7.27283888147">
		<tag k="alt_name" v="Sniksfjorden" />
		<tag k="bay" v="fjord" />
		<tag k="name" v="Snigsfjorden" />
		<tag k="natural" v="bay" />
		<tag k="ssr:stedsnr" v="364683" />
	</node>
	<node id="-368758" lat="58.0135250016" lon="7.19308889652">
		<tag k="fixme" v="consider seamark:type=rock or natural=shoal" />
		<tag k="name" v="Disken" />
		<tag k="place" v="islet" />
		<tag k="ssr:stedsnr" v="364647" />
	</node>
	<node id="-369000" lat="57.9930249973" lon="7.12323054966">
		<tag k="fixme" v="consider seamark:type=rock or natural=shoal" />
		<tag k="name" v="Steinane" />
		<tag k="place" v="islet" />
		<tag k="ssr:stedsnr" v="23" />
	</node>
	<node id="-370784" lat="58.0707333337" lon="7.14438056078">
		<tag k="name" v="Trøysvika" />
		<tag k="natural" v="bay" />
		<tag k="ssr:stedsnr" v="628009" />
	</node>
	<node id="-370782" lat="58.071294445" lon="7.16090278511">
		<tag k="name" v="Launesodden" />
		<tag k="natural" v="cape" />
		<tag k="ssr:stedsnr" v="628001" />
	</node>
	<node id="-370776" lat="58.0443111082" lon="7.18219723063">
		<tag k="bay" v="fjord" />
		<tag k="name" v="Remesfjorden" />
		<tag k="natural" v="bay" />
		<tag k="ssr:stedsnr" v="607583" />
	</node>
	<node id="-370763" lat="58.0289749991" lon="7.2534111133">
		<tag k="name" v="Lyngholmen" />
		<tag k="place" v="islet" />
		<tag k="ssr:stedsnr" v="606677" />
	</node>
	<node id="-370761" lat="58.0288749977" lon="7.15232777621">
		<tag k="alt_name" v="Lille Viggeskjær" />
		<tag k="fixme" v="consider seamark:type=rock or natural=shoal" />
		<tag k="name" v="Vigeskjeret, l" />
		<tag k="place" v="islet" />
		<tag k="ssr:stedsnr" v="606656" />
	</node>
	<node id="-370760" lat="58.0092416644" lon="7.1363611032">
		<tag k="fixme" v="consider seamark:type=rock or natural=shoal" />
		<tag k="name" v="Flaket" />
		<tag k="place" v="islet" />
		<tag k="ssr:stedsnr" v="606637" />
	</node>
	<node id="-368705" lat="57.9878694407" lon="7.02352778353">
		<tag k="fixme" v="consider seamark:type=rock or natural=shoal" />
		<tag k="name" v="Sveinan" />
		<tag k="place" v="islet" />
		<tag k="ssr:stedsnr" v="357443" />
	</node>
	<node id="-370743" lat="57.9894000038" lon="7.02053055306">
		<tag k="name" v="Bysa" />
		<tag k="natural" v="shoal" />
		<tag k="place" v="locality" />
		<tag k="ssr:stedsnr" v="606005" />
	</node>
	<node id="-371721" lat="58.0462305576" lon="7.19744167092">
		<tag k="name" v="Erstøvika" />
		<tag k="natural" v="bay" />
		<tag k="ssr:stedsnr" v="871917" />
	</node>
	<node id="-370715" lat="58.0278921144" lon="7.11551549942">
		<tag k="alt_name" v="Småskjæran" />
		<tag k="fixme" v="consider seamark:type=rock or natural=shoal" />
		<tag k="name" v="Småskjeran" />
		<tag k="place" v="islet" />
		<tag k="ssr:stedsnr" v="602040" />
	</node>
	<node id="-368666" lat="57.9974194445" lon="7.17818334012">
		<tag k="fixme" v="consider seamark:type=rock or natural=shoal" />
		<tag k="name" v="Lille Svarteskjeran" />
		<tag k="place" v="islet" />
		<tag k="ssr:stedsnr" v="328099" />
	</node>
	<node id="-368665" lat="57.9838750001" lon="7.09326111317">
		<tag k="name" v="Mellomkletten" />
		<tag k="natural" v="shoal" />
		<tag k="place" v="locality" />
		<tag k="ssr:stedsnr" v="327914" />
	</node>
	<node id="-368657" lat="58.0359638922" lon="7.25379443635">
		<tag k="name" v="Værvågen" />
		<tag k="natural" v="bay" />
		<tag k="ssr:stedsnr" v="325979" />
	</node>
	<node id="-368653" lat="58.0268555591" lon="7.28093889436">
		<tag k="name" v="Midodden" />
		<tag k="place" v="island" />
		<tag k="ssr:stedsnr" v="325955" />
	</node>
	<node id="-368652" lat="58.0277694474" lon="7.29456943925">
		<tag k="name" v="Store Bleikholmen" />
		<tag k="place" v="island" />
		<tag k="ssr:stedsnr" v="325952" />
	</node>
	<node id="-368649" lat="58.0428888858" lon="7.19246944276">
		<tag k="fixme" v="consider seamark:type=rock or natural=shoal" />
		<tag k="name" v="Buanskjæran" />
		<tag k="place" v="islet" />
		<tag k="ssr:stedsnr" v="325911" />
	</node>
</osm>
