<?xml version="1.0" encoding="UTF-8"?>
<osm generator="osmapis" version="0.6">
	<node id="-368512" lat="57.9891472188" lon="7.06918888886">
		<tag k="alt_name" v="Vågehamn" />
		<tag k="landuse" v="harbour" />
		<tag k="name" v="Vågehavn" />
		<tag k="seamark:type" v="harbour" />
		<tag k="ssr:stedsnr" v="304021" />
	</node>
	<node id="-371581" lat="58.0720166623" lon="7.14608611489">
		<tag k="bridge" v="yes" />
		<tag k="layer" v="1" />
		<tag k="name" v="Jåsund" />
		<tag k="ssr:stedsnr" v="836447" />
	</node>
	<node id="-371964" lat="58.0739027735" lon="7.30297221497">
		<tag k="bridge" v="yes" />
		<tag k="layer" v="1" />
		<tag k="name" v="Torelandsvassbekk" />
		<tag k="ssr:stedsnr" v="957474" />
	</node>
	<node id="-371579" lat="58.2159083374" lon="7.33765277318">
		<tag k="bridge" v="yes" />
		<tag k="layer" v="1" />
		<tag k="name" v="Tryland" />
		<tag k="ssr:stedsnr" v="836436" />
	</node>
	<node id="-371578" lat="58.0837527784" lon="7.30759721569">
		<tag k="bridge" v="yes" />
		<tag k="layer" v="1" />
		<tag k="name" v="Vigeland" />
		<tag k="ssr:stedsnr" v="836431" />
	</node>
	<node id="-370546" lat="58.230977782" lon="7.28594444917">
		<tag k="highway" v="path" />
		<tag k="name" v="Sandkleiva" />
		<tag k="ssr:stedsnr" v="567263" />
	</node>
	<node id="-371580" lat="58.133561107" lon="7.36893333858">
		<tag k="bridge" v="yes" />
		<tag k="layer" v="1" />
		<tag k="name" v="Ertseid" />
		<tag k="ssr:stedsnr" v="836445" />
	</node>
	<node id="-371174" lat="58.1875361138" lon="7.35839444276">
		<tag k="bridge" v="yes" />
		<tag k="layer" v="1" />
		<tag k="name" v="Hægebostad" />
		<tag k="ssr:stedsnr" v="714444" />
	</node>
	<node id="-371173" lat="58.1890999984" lon="7.3556305495">
		<tag k="bridge" v="yes" />
		<tag k="layer" v="1" />
		<tag k="name" v="Ormegrovbekk" />
		<tag k="ssr:stedsnr" v="714435" />
	</node>
	<node id="-371172" lat="58.2155750009" lon="7.33897221484">
		<tag k="bridge" v="yes" />
		<tag k="layer" v="1" />
		<tag k="name" v="Tryland" />
		<tag k="ssr:stedsnr" v="714432" />
	</node>
	<node id="-371171" lat="58.0756111087" lon="7.33456944382">
		<tag k="bridge" v="yes" />
		<tag k="layer" v="1" />
		<tag k="name" v="Trædal" />
		<tag k="ssr:stedsnr" v="714428" />
	</node>
	<node id="-369627" lat="58.1604111091" lon="7.37246944036">
		<tag k="bridge" v="yes" />
		<tag k="layer" v="1" />
		<tag k="name" v="Libekk" />
		<tag k="ssr:stedsnr" v="168465" />
	</node>
	<node id="-369626" lat="58.1991972241" lon="7.33628332938">
		<tag k="bridge" v="yes" />
		<tag k="layer" v="1" />
		<tag k="name" v="Vigmostad" />
		<tag k="ssr:stedsnr" v="168463" />
	</node>
	<node id="-368976" lat="58.0087222249" lon="7.1007000083">
		<tag k="bridge" v="yes" />
		<tag k="layer" v="1" />
		<tag k="name" v="Gauksem" />
		<tag k="ssr:stedsnr" v="896538" />
	</node>
	<node id="-368975" lat="58.1706694449" lon="7.3584833325">
		<tag k="bridge" v="yes" />
		<tag k="layer" v="1" />
		<tag k="name" v="Einarsmo flomløp" />
		<tag k="ssr:stedsnr" v="896532" />
	</node>
	<node id="-368974" lat="58.1583444403" lon="7.36573055601">
		<tag k="bridge" v="yes" />
		<tag k="layer" v="1" />
		<tag k="name" v="Spilling" />
		<tag k="ssr:stedsnr" v="896526" />
	</node>
	<node id="-368460" lat="58.051577777" lon="7.24346667256">
		<tag k="bridge" v="yes" />
		<tag k="layer" v="1" />
		<tag k="name" v="Lonestrand bru" />
		<tag k="ssr:stedsnr" v="289526" />
	</node>
	<node id="-370635" lat="58.1211611074" lon="7.331980551">
		<tag k="highway" v="path" />
		<tag k="name" v="Morstien" />
		<tag k="ssr:stedsnr" v="568730" />
	</node>
	<node id="-369477" lat="58.2235666673" lon="7.28867777398">
		<tag k="highway" v="path" />
		<tag k="name" v="Steinkleiv" />
		<tag k="ssr:stedsnr" v="142305" />
	</node>
	<node id="-371268" lat="58.0411888873" lon="7.15265277025">
		<tag k="leisure" v="marina" />
		<tag k="name" v="Båly" />
		<tag k="ssr:stedsnr" v="750028" />
	</node>
	<node id="-371137" lat="58.1166111099" lon="7.34277499333">
		<tag k="highway" v="path" />
		<tag k="name" v="Stigen" />
		<tag k="ssr:stedsnr" v="690765" />
	</node>
	<node id="-371647" lat="58.178194442" lon="7.41025278596">
		<tag k="bridge" v="yes" />
		<tag k="layer" v="1" />
		<tag k="name" v="Skibelibrua" />
		<tag k="ssr:stedsnr" v="871142" />
	</node>
	<node id="-371387" lat="58.0796138857" lon="7.30416945043">
		<tag k="bridge" v="yes" />
		<tag k="layer" v="1" />
		<tag k="name" v="Audna" />
		<tag k="ssr:stedsnr" v="775461" />
	</node>
	<node id="-371386" lat="58.1427666701" lon="7.3702611194">
		<tag k="bridge" v="yes" />
		<tag k="layer" v="1" />
		<tag k="name" v="Gaupefoss" />
		<tag k="ssr:stedsnr" v="775455" />
	</node>
	<node id="-371385" lat="58.0754083341" lon="7.36748054955">
		<tag k="bridge" v="yes" />
		<tag k="layer" v="1" />
		<tag k="name" v="Blørstad" />
		<tag k="ssr:stedsnr" v="775453" />
	</node>
	<node id="-371384" lat="58.1261305524" lon="7.33958054863">
		<tag k="bridge" v="yes" />
		<tag k="layer" v="1" />
		<tag k="name" v="Melhusfossen bru" />
		<tag k="ssr:stedsnr" v="775452" />
	</node>
	<node id="-370466" lat="58.0557194416" lon="7.27240555682">
		<tag k="bridge" v="yes" />
		<tag k="layer" v="1" />
		<tag k="name" v="Snig" />
		<tag k="ssr:stedsnr" v="532462" />
	</node>
	<node id="-368942" lat="58.1038500033" lon="7.24215555083">
		<tag k="bridge" v="yes" />
		<tag k="layer" v="1" />
		<tag k="name" v="Tveiten" />
		<tag k="ssr:stedsnr" v="411443" />
	</node>
	<node id="-368941" lat="58.1135194457" lon="7.20646943953">
		<tag k="bridge" v="yes" />
		<tag k="layer" v="1" />
		<tag k="name" v="Osestad" />
		<tag k="ssr:stedsnr" v="410517" />
	</node>
	<node id="-368940" lat="58.1542416657" lon="7.44779166834">
		<tag k="bridge" v="yes" />
		<tag k="layer" v="1" />
		<tag k="name" v="Mydland" />
		<tag k="ssr:stedsnr" v="410514" />
	</node>
	<node id="-368939" lat="58.1079333296" lon="7.38559999741">
		<tag k="bridge" v="yes" />
		<tag k="layer" v="1" />
		<tag k="name" v="Skogen" />
		<tag k="ssr:stedsnr" v="410507" />
	</node>
	<node id="-368459" lat="58.2233944464" lon="7.33674722475">
		<tag k="bridge" v="yes" />
		<tag k="layer" v="1" />
		<tag k="name" v="Syrdalsbekk" />
		<tag k="ssr:stedsnr" v="289522" />
	</node>
	<node id="-372001" lat="58.0440551798" lon="7.14230935625">
		<tag k="name" v="Spangereidkanalen" />
		<tag k="ssr:stedsnr" v="974229" />
		<tag k="waterway" v="canal" />
	</node>
	<node id="-369179" lat="58.1026055571" lon="7.34192778123">
		<tag k="bridge" v="yes" />
		<tag k="layer" v="1" />
		<tag k="name" v="Skoftland" />
		<tag k="ssr:stedsnr" v="46529" />
	</node>
	<node id="-369178" lat="58.0872555558" lon="7.29400276975">
		<tag k="bridge" v="yes" />
		<tag k="layer" v="1" />
		<tag k="name" v="Vestlia bru" />
		<tag k="ssr:stedsnr" v="46522" />
	</node>
	<node id="-368789" lat="58.1823305565" lon="7.40449165945">
		<tag k="bridge" v="yes" />
		<tag k="layer" v="1" />
		<tag k="name" v="Kjempebrua" />
		<tag k="ssr:stedsnr" v="385211" />
	</node>
	<node id="-370323" lat="58.170672226" lon="7.3580194438">
		<tag k="bridge" v="yes" />
		<tag k="fixme" v="multiple name tags, choose one and add the other to alt_name" />
		<tag k="layer" v="1" />
		<tag k="name" v="Einarsmo;Lølandsbrua" />
		<tag k="ssr:stedsnr" v="507183" />
	</node>
	<node id="-370705" lat="58.0784972249" lon="7.3137055537">
		<tag k="bridge" v="yes" />
		<tag k="layer" v="1" />
		<tag k="name" v="Valle" />
		<tag k="ssr:stedsnr" v="592529" />
	</node>
	<node id="-371330" lat="58.0497361069" lon="7.19508055947">
		<tag k="man_made" v="quay" />
		<tag k="name" v="Berjestø" />
		<tag k="place" v="locality" />
		<tag k="ssr:stedsnr" v="750916" />
	</node>
	<node id="-370312" lat="58.0548499973" lon="7.09839445072">
		<tag k="man_made" v="quay" />
		<tag k="name" v="Kongsbrygga" />
		<tag k="place" v="locality" />
		<tag k="ssr:stedsnr" v="507097" />
	</node>
	<node id="-369414" lat="58.0685972263" lon="7.38808610266">
		<tag k="bridge" v="yes" />
		<tag k="layer" v="1" />
		<tag k="name" v="Sjølingstad bru" />
		<tag k="ssr:stedsnr" v="107517" />
	</node>
	<node id="-370948" lat="58.1001694472" lon="7.25525832804">
		<tag k="bridge" v="yes" />
		<tag k="layer" v="1" />
		<tag k="name" v="Fardal" />
		<tag k="ssr:stedsnr" v="653481" />
	</node>
	<node id="-370947" lat="57.9914749985" lon="7.06319722196">
		<tag k="bridge" v="yes" />
		<tag k="layer" v="1" />
		<tag k="name" v="Våge" />
		<tag k="ssr:stedsnr" v="653468" />
	</node>
	<node id="-371202" lat="57.9926833366" lon="7.08799444826">
		<tag k="alt_name" v="Litlehamn" />
		<tag k="landuse" v="harbour" />
		<tag k="loc_name" v="Litlehavn" />
		<tag k="name" v="Lillehavn" />
		<tag k="seamark:type" v="harbour" />
		<tag k="ssr:stedsnr" v="728024" />
	</node>
</osm>
