<?xml version="1.0" encoding="UTF-8"?>
<osm version="0.6" generator="osmapis">
	<node lat="69.78046928397004" lon="20.600066822949312" id="-46829">
		<tag k="name" v="Rotsund" />
		<tag k="ssr:date" v="2020-11-10" />
		<tag k="ssr:gruppe" v="navigasjon" />
		<tag k="ssr:hovedgruppe" v="infrastruktur" />
		<tag k="ssr:stedsnr" v="262954" />
		<tag k="ssr:type" v="fyrlykt" />
	</node>
	<node lat="69.91916944428588" lon="20.8715444240571" id="-47249">
		<tag k="name" v="Maursund" />
		<tag k="ssr:date" v="2019-12-27" />
		<tag k="ssr:gruppe" v="navigasjon" />
		<tag k="ssr:hovedgruppe" v="infrastruktur" />
		<tag k="ssr:stedsnr" v="687545" />
		<tag k="ssr:type" v="fyrlykt" />
	</node>
	<node lat="69.76236388049061" lon="20.45996471994585" id="-47613">
		<tag k="name" v="Spåkenes - Spoahkkanjárga" />
		<tag k="name:no" v="Spåkenes" />
		<tag k="name:se" v="Spoahkkanjárga" />
		<tag k="old_name:no" v="Spåknes" />
		<tag k="ssr:date" v="2021-06-08" />
		<tag k="ssr:gruppe" v="navigasjon" />
		<tag k="ssr:hovedgruppe" v="infrastruktur" />
		<tag k="ssr:stedsnr" v="929920" />
		<tag k="ssr:type" v="fyrlykt" />
	</node>
	<node lat="69.76824234092165" lon="21.025681646271583" id="-47713">
		<tag k="name" v="Nordreisa kommune - Ráissa suohkan - Raisin komuuni" />
		<tag k="name:fkv" v="Raisin komuuni" />
		<tag k="name:no" v="Nordreisa kommune" />
		<tag k="name:se" v="Ráissa suohkan" />
		<tag k="ssr:date" v="2021-11-01" />
		<tag k="ssr:gruppe" v="administrativeIndelinger" />
		<tag k="ssr:hovedgruppe" v="offentligAdministrasjon" />
		<tag k="ssr:stedsnr" v="937839" />
		<tag k="ssr:type" v="kommune" />
	</node>
	<node lat="69.87359326771424" lon="21.03380603454405" id="-48021">
		<tag k="name" v="Stornes" />
		<tag k="old_name" v="Storneset" />
		<tag k="ssr:date" v="2021-01-05" />
		<tag k="ssr:gruppe" v="navigasjon" />
		<tag k="ssr:hovedgruppe" v="infrastruktur" />
		<tag k="ssr:stedsnr" v="140816" />
		<tag k="ssr:type" v="fyrlykt" />
	</node>
</osm>
