<?xml version="1.0" encoding="UTF-8"?>
<osm version="0.6" generator="osmapis">
	<node lat="61.229233336753225" lon="5.1373888805625665" id="-75911">
		<tag k="alt_name" v="Gilstjørna, yt" />
		<tag k="name" v="Ytregilstjørna" />
		<tag k="natural" v="water" />
		<tag k="ssr:stedsnr" v="9623" />
	</node>
	<node lat="61.14735555925399" lon="5.308775005730693" id="-75914">
		<tag k="alt_name" v="Øvre Dyttingetjørn" />
		<tag k="name" v="Kolgrovtjørna" />
		<tag k="natural" v="water" />
		<tag k="ssr:stedsnr" v="9513" />
	</node>
	<node lat="61.180216669574556" lon="5.395861105943414" id="-75920">
		<tag k="alt_name" v="Tonningsvatnet" />
		<tag k="name" v="Tauningsvatnet" />
		<tag k="natural" v="water" />
		<tag k="ssr:stedsnr" v="9716" />
	</node>
	<node lat="61.18026388585053" lon="5.1588972148237975" id="-75923">
		<tag k="alt_name" v="Trollebotnsvatnet, øvre" />
		<tag k="name" v="Øvre Trollebotnvatnet" />
		<tag k="natural" v="water" />
		<tag k="ssr:stedsnr" v="9689" />
	</node>
	<node lat="61.18380000065607" lon="5.1469972137716935" id="-75924">
		<tag k="alt_name" v="Nervelivatnet" />
		<tag k="name" v="Nevrelivatnet" />
		<tag k="natural" v="water" />
		<tag k="ssr:stedsnr" v="9691" />
	</node>
	<node lat="61.17211388557067" lon="5.4418027747685445" id="-75926">
		<tag k="name" v="Stølsvatnet" />
		<tag k="natural" v="water" />
		<tag k="ssr:stedsnr" v="9737" />
	</node>
	<node lat="61.15748611473805" lon="5.335630549619983" id="-75934">
		<tag k="name" v="Diketjørna" />
		<tag k="natural" v="water" />
		<tag k="ssr:stedsnr" v="43215" />
	</node>
	<node lat="61.20466666537452" lon="5.3869000092391515" id="-75935">
		<tag k="name" v="Lomstjørna" />
		<tag k="natural" v="water" />
		<tag k="ssr:stedsnr" v="43181" />
	</node>
	<node lat="61.107055558583276" lon="5.406319448536752" id="-75942">
		<tag k="name" v="Stølselva" />
		<tag k="ssr:stedsnr" v="43936" />
		<tag k="waterway" v="stream" />
	</node>
	<node lat="61.145997218774184" lon="5.309788896959737" id="-75950">
		<tag k="alt_name" v="Nedre Dyttingetjørn" />
		<tag k="name" v="Dyttingetjørna" />
		<tag k="natural" v="water" />
		<tag k="ssr:stedsnr" v="70481" />
	</node>
	<node lat="61.11103635558613" lon="5.229537706480705" id="-75966">
		<tag k="name" v="Nesjevatnet" />
		<tag k="natural" v="water" />
		<tag k="ssr:stedsnr" v="104012" />
		<tag k="water" v="lake" />
	</node>
	<node lat="61.07735278203145" lon="5.397386110120337" id="-75974">
		<tag k="name" v="Vetetjørn" />
		<tag k="natural" v="water" />
		<tag k="ssr:stedsnr" v="104526" />
	</node>
	<node lat="61.27490555786654" lon="5.24729999941975" id="-75979">
		<tag k="name" v="Hornselva" />
		<tag k="ssr:stedsnr" v="250605" />
		<tag k="waterway" v="stream" />
	</node>
	<node lat="61.16699721895592" lon="5.28198889651437" id="-75989">
		<tag k="name" v="Myrketjørna" />
		<tag k="natural" v="water" />
		<tag k="ssr:stedsnr" v="251750" />
	</node>
	<node lat="61.252105557565635" lon="5.161425005828903" id="-75995">
		<tag k="alt_name" v="Svardalstjørna" />
		<tag k="name" v="Svardalsvatnet" />
		<tag k="natural" v="water" />
		<tag k="ssr:stedsnr" v="128536" />
	</node>
	<node lat="61.14646944521624" lon="5.388408335835554" id="-76002">
		<tag k="name" v="Myrketjørna" />
		<tag k="natural" v="water" />
		<tag k="ssr:stedsnr" v="252468" />
	</node>
	<node lat="61.226408333733886" lon="5.069494442417495" id="-76014">
		<tag k="alt_name" v="Fjelltjørna" />
		<tag k="name" v="Fjellstjørna" />
		<tag k="natural" v="water" />
		<tag k="ssr:stedsnr" v="130910" />
	</node>
	<node lat="61.17961666948022" lon="5.099197228485147" id="-76022">
		<tag k="name" v="Storelva" />
		<tag k="ssr:stedsnr" v="252649" />
		<tag k="waterway" v="stream" />
	</node>
	<node lat="61.18118610879776" lon="5.116522226904334" id="-76023">
		<tag k="name" v="Blomdalstjørna" />
		<tag k="natural" v="water" />
		<tag k="ssr:stedsnr" v="252650" />
	</node>
	<node lat="61.16598332912575" lon="5.441749999838648" id="-76027">
		<tag k="alt_name" v="Nykkedalsvatnet, øvre;Øvre Nykkedalstjørn" />
		<tag k="name" v="Øvre Nykkedalsvatnet" />
		<tag k="natural" v="water" />
		<tag k="ssr:stedsnr" v="252721" />
	</node>
	<node lat="61.11551388935157" lon="5.255927784103726" id="-76036">
		<tag k="name" v="Lambholmtjørna" />
		<tag k="natural" v="water" />
		<tag k="ssr:stedsnr" v="164022" />
	</node>
	<node lat="61.15563055165438" lon="5.251588894770171" id="-76041">
		<tag k="name" v="Fossen" />
		<tag k="natural" v="waterfall" />
		<tag k="ssr:stedsnr" v="164319" />
	</node>
	<node lat="61.21346110736328" lon="5.327263892710179" id="-76050">
		<tag k="name" v="Kjosen" />
		<tag k="natural" v="bay" />
		<tag k="ssr:stedsnr" v="164903" />
	</node>
	<node lat="61.167638886662246" lon="5.250150003015317" id="-76061">
		<tag k="alt_name" v="Nedre Lireidtjørna" />
		<tag k="name" v="Nedrelireidtjørna" />
		<tag k="natural" v="water" />
		<tag k="ssr:stedsnr" v="191664" />
	</node>
	<node lat="61.19732777895538" lon="5.41733332632146" id="-76111">
		<tag k="name" v="Kvitefjellselva" />
		<tag k="ssr:stedsnr" v="286527" />
		<tag k="waterway" v="stream" />
	</node>
	<node lat="61.25259166740847" lon="5.14766945203872" id="-76116">
		<tag k="name" v="Svardalvatn" />
		<tag k="natural" v="water" />
		<tag k="ssr:stedsnr" v="286677" />
	</node>
	<node lat="61.246677776374426" lon="5.2421249976802455" id="-76139">
		<tag k="name" v="Leitetjørna" />
		<tag k="natural" v="water" />
		<tag k="ssr:stedsnr" v="313377" />
	</node>
	<node lat="61.24227222590709" lon="5.175183337866462" id="-76144">
		<tag k="name" v="Trøsdalsvatnet" />
		<tag k="natural" v="water" />
		<tag k="ssr:stedsnr" v="313421" />
	</node>
	<node lat="61.180975004155265" lon="5.1276638793359135" id="-76145">
		<tag k="name" v="Storevatnet" />
		<tag k="natural" v="water" />
		<tag k="ssr:stedsnr" v="313686" />
	</node>
	<node lat="61.18192222559759" lon="5.120869438713824" id="-76153">
		<tag k="name" v="Fossen" />
		<tag k="natural" v="waterfall" />
		<tag k="ssr:stedsnr" v="467339" />
	</node>
	<node lat="61.14048610731791" lon="5.209572219716336" id="-76175">
		<tag k="name" v="Øvre Kvernhustjørn" />
		<tag k="natural" v="water" />
		<tag k="ssr:stedsnr" v="345107" />
	</node>
	<node lat="61.2195638915938" lon="5.34794722234843" id="-76176">
		<tag k="name" v="Skorstjørna" />
		<tag k="natural" v="water" />
		<tag k="ssr:stedsnr" v="345264" />
	</node>
	<node lat="61.25736944613204" lon="5.13191111304956" id="-76193">
		<tag k="name" v="Storehavet" />
		<tag k="natural" v="water" />
		<tag k="ssr:stedsnr" v="371526" />
	</node>
	<node lat="61.12379444686379" lon="5.261594447208532" id="-76197">
		<tag k="name" v="Langevatnet" />
		<tag k="natural" v="water" />
		<tag k="ssr:stedsnr" v="373553" />
	</node>
	<node lat="61.184038887646224" lon="5.199863884918759" id="-76199">
		<tag k="name" v="Lauvvatnet" />
		<tag k="natural" v="water" />
		<tag k="ssr:stedsnr" v="373706" />
	</node>
	<node lat="61.126719442656466" lon="5.38964166108577" id="-76218">
		<tag k="name" v="Jona" />
		<tag k="ssr:stedsnr" v="407413" />
		<tag k="waterway" v="stream" />
	</node>
	<node lat="61.187158334420126" lon="5.390580555196134" id="-76222">
		<tag k="name" v="Haugatjørn" />
		<tag k="natural" v="water" />
		<tag k="ssr:stedsnr" v="407344" />
	</node>
	<node lat="61.25131944446994" lon="5.065824995352058" id="-76238">
		<tag k="name" v="Lomtjørna" />
		<tag k="natural" v="water" />
		<tag k="ssr:stedsnr" v="432018" />
	</node>
	<node lat="61.252213893146205" lon="5.206436115569843" id="-76239">
		<tag k="alt_name" v="Butjørn" />
		<tag k="name" v="Butjørna" />
		<tag k="natural" v="water" />
		<tag k="ssr:stedsnr" v="432529" />
	</node>
	<node lat="61.138597224207" lon="5.419869450828686" id="-76250">
		<tag k="name" v="Heggetjørna" />
		<tag k="natural" v="water" />
		<tag k="ssr:stedsnr" v="434505" />
	</node>
	<node lat="61.127658333189125" lon="5.302061111897409" id="-76251">
		<tag k="alt_name" v="Mørketjørna" />
		<tag k="name" v="Myrketjørna" />
		<tag k="natural" v="water" />
		<tag k="ssr:stedsnr" v="434507" />
	</node>
	<node lat="61.215602780286915" lon="5.3456916719036665" id="-76278">
		<tag k="name" v="Kvernhustjørna" />
		<tag k="natural" v="water" />
		<tag k="ssr:stedsnr" v="467261" />
	</node>
	<node lat="61.224686114065584" lon="5.199699995770615" id="-76288">
		<tag k="name" v="Salbutjørna" />
		<tag k="natural" v="water" />
		<tag k="ssr:stedsnr" v="468966" />
	</node>
	<node lat="61.20040000179399" lon="5.329216669277674" id="-76300">
		<tag k="name" v="Bergsvatnet" />
		<tag k="natural" v="water" />
		<tag k="ssr:stedsnr" v="676649" />
	</node>
	<node lat="61.19046944110803" lon="5.119308340397139" id="-76307">
		<tag k="alt_name" v="Ytre Selbotntjørn;Selbotntjørna, nedre" />
		<tag k="name" v="Nedre Selbotntjørna" />
		<tag k="natural" v="water" />
		<tag k="ssr:stedsnr" v="677664" />
	</node>
	<node lat="61.10742271911741" lon="5.394550766920848" id="-76313">
		<tag k="name" v="Krakelivatnet" />
		<tag k="natural" v="water" />
		<tag k="ssr:stedsnr" v="494525" />
		<tag k="water" v="lake" />
	</node>
	<node lat="61.15706666434338" lon="5.252763895958115" id="-76314">
		<tag k="name" v="Kvernhuselva" />
		<tag k="ssr:stedsnr" v="494711" />
		<tag k="waterway" v="stream" />
	</node>
	<node lat="61.19290555937543" lon="5.364241661488839" id="-76317">
		<tag k="alt_name" v="Søre Mørketjørna" />
		<tag k="name" v="Mørketjørna" />
		<tag k="natural" v="water" />
		<tag k="ssr:stedsnr" v="495705" />
	</node>
	<node lat="61.19361388560235" lon="5.4116277760489915" id="-76318">
		<tag k="name" v="Solgladtjørna" />
		<tag k="natural" v="water" />
		<tag k="ssr:stedsnr" v="495706" />
	</node>
	<node lat="61.19079444150763" lon="5.345919449246634" id="-76319">
		<tag k="alt_name" v="Flåssvatnet" />
		<tag k="name" v="Flossvatnet" />
		<tag k="natural" v="water" />
		<tag k="ssr:stedsnr" v="495708" />
	</node>
	<node lat="61.1487611082063" lon="5.300916659206012" id="-76323">
		<tag k="name" v="Lægetjørna" />
		<tag k="natural" v="water" />
		<tag k="ssr:stedsnr" v="528072" />
	</node>
	<node lat="61.16076111227888" lon="5.237674996359787" id="-76331">
		<tag k="name" v="Tjørnene" />
		<tag k="natural" v="water" />
		<tag k="ssr:stedsnr" v="528299" />
		<tag k="water" v="lake" />
	</node>
	<node lat="61.26750000298728" lon="5.10334165897944" id="-76333">
		<tag k="name" v="Langeneset" />
		<tag k="natural" v="cape" />
		<tag k="ssr:stedsnr" v="528693" />
	</node>
	<node lat="61.22923333575296" lon="5.231491672476321" id="-76344">
		<tag k="name" v="Brattebakkfossen" />
		<tag k="natural" v="waterfall" />
		<tag k="ssr:stedsnr" v="554672" />
	</node>
	<node lat="61.117905557099014" lon="5.250791665464494" id="-76348">
		<tag k="alt_name" v="Skårstjørna" />
		<tag k="name" v="Skorstjørna" />
		<tag k="natural" v="water" />
		<tag k="ssr:stedsnr" v="555504" />
	</node>
	<node lat="61.2235416673624" lon="5.344169444934419" id="-76350">
		<tag k="name" v="Pertjørna" />
		<tag k="natural" v="water" />
		<tag k="ssr:stedsnr" v="555618" />
	</node>
	<node lat="61.20340555221212" lon="5.386108331484794" id="-76372">
		<tag k="name" v="Dyttingtjørna" />
		<tag k="natural" v="water" />
		<tag k="ssr:stedsnr" v="589218" />
	</node>
	<node lat="61.19516666806919" lon="5.43904165940014" id="-76376">
		<tag k="name" v="Kvitefjellvatnet" />
		<tag k="natural" v="water" />
		<tag k="ssr:stedsnr" v="589603" />
		<tag k="water" v="lake" />
	</node>
	<node lat="61.1390750032472" lon="5.287616665818268" id="-76379">
		<tag k="name" v="Øyra" />
		<tag k="natural" v="cape" />
		<tag k="ssr:stedsnr" v="589915" />
	</node>
	<node lat="61.259450003678396" lon="5.133316658268762" id="-76381">
		<tag k="name" v="Kringletjørna" />
		<tag k="natural" v="water" />
		<tag k="ssr:stedsnr" v="614564" />
	</node>
	<node lat="61.228994443072246" lon="5.14985278426507" id="-76387">
		<tag k="alt_name" v="Gilstjørna, in" />
		<tag k="name" v="Indregilstjørna" />
		<tag k="natural" v="water" />
		<tag k="ssr:stedsnr" v="615604" />
	</node>
	<node lat="61.225397218988775" lon="5.212900006147659" id="-76388">
		<tag k="alt_name" v="Salbuelva" />
		<tag k="name" v="Saltbuelva" />
		<tag k="ssr:stedsnr" v="615610" />
		<tag k="waterway" v="river" />
	</node>
	<node lat="61.177933329487765" lon="5.432752771022854" id="-76393">
		<tag k="alt_name" v="Haugsvatnet" />
		<tag k="name" v="Haugsdalstjørna" />
		<tag k="natural" v="water" />
		<tag k="ssr:stedsnr" v="615705" />
	</node>
	<node lat="61.16050000270017" lon="5.262847217982703" id="-76397">
		<tag k="alt_name" v="Hellemsvatnet" />
		<tag k="name" v="Helleimsvatnet" />
		<tag k="natural" v="water" />
		<tag k="ssr:stedsnr" v="615732" />
	</node>
	<node lat="61.13505555517765" lon="5.422205561164782" id="-76403">
		<tag k="alt_name" v="Langedalstjørn" />
		<tag k="name" v="Langedalstjørna" />
		<tag k="natural" v="water" />
		<tag k="ssr:stedsnr" v="616525" />
	</node>
	<node lat="61.188671437051184" lon="5.42315791257428" id="-76404">
		<tag k="alt_name" v="Blåfjellvatnet, nedre" />
		<tag k="name" v="Nedre Blåfjellvatnet" />
		<tag k="natural" v="water" />
		<tag k="ssr:stedsnr" v="616701" />
	</node>
	<node lat="61.11321454549219" lon="5.412709325964814" id="-76423">
		<tag k="name" v="Griggusdyttingane" />
		<tag k="natural" v="water" />
		<tag k="ssr:stedsnr" v="649917" />
		<tag k="water" v="lake" />
	</node>
	<node lat="61.15689444625649" lon="5.42206943662836" id="-76430">
		<tag k="name" v="Lona" />
		<tag k="ssr:stedsnr" v="650910" />
		<tag k="waterway" v="river" />
	</node>
	<node lat="61.24812499613884" lon="5.168569438532614" id="-76438">
		<tag k="name" v="Svarthammartjørn" />
		<tag k="natural" v="water" />
		<tag k="ssr:stedsnr" v="710037" />
	</node>
	<node lat="61.15656666543889" lon="5.305188890143219" id="-76441">
		<tag k="name" v="Nonelva" />
		<tag k="ssr:stedsnr" v="710072" />
		<tag k="waterway" v="stream" />
	</node>
	<node lat="61.168858336854456" lon="5.275800006085302" id="-76451">
		<tag k="name" v="Svoelva" />
		<tag k="ssr:stedsnr" v="710542" />
		<tag k="waterway" v="stream" />
	</node>
	<node lat="61.143441664883525" lon="5.351011116888847" id="-76461">
		<tag k="alt_name" v="Stigestrandsvatn" />
		<tag k="name" v="Stigestrandsvatnet" />
		<tag k="natural" v="water" />
		<tag k="ssr:stedsnr" v="676510" />
	</node>
	<node lat="61.122061113117134" lon="5.258047215739469" id="-76468">
		<tag k="name" v="Geittjørna" />
		<tag k="natural" v="water" />
		<tag k="ssr:stedsnr" v="677529" />
	</node>
	<node lat="61.15658889086367" lon="5.330913887575333" id="-76481">
		<tag k="name" v="Masstjørna" />
		<tag k="natural" v="water" />
		<tag k="ssr:stedsnr" v="893234" />
	</node>
	<node lat="61.09048611361609" lon="5.390533327924028" id="-76483">
		<tag k="name" v="Rustetjørn" />
		<tag k="natural" v="water" />
		<tag k="ssr:stedsnr" v="893547" />
	</node>
	<node lat="61.13371110951238" lon="5.250994445047645" id="-76506">
		<tag k="name" v="Stielva" />
		<tag k="ssr:stedsnr" v="711079" />
		<tag k="waterway" v="stream" />
	</node>
	<node lat="61.07399444621992" lon="5.400938887015072" id="-76530">
		<tag k="name" v="Storetjørn" />
		<tag k="natural" v="water" />
		<tag k="ssr:stedsnr" v="771558" />
	</node>
	<node lat="61.149300000856044" lon="5.357505559726351" id="-76544">
		<tag k="name" v="Fosselva" />
		<tag k="ssr:stedsnr" v="771968" />
		<tag k="waterway" v="river" />
	</node>
	<node lat="61.24811944570784" lon="5.22708333145862" id="-76547">
		<tag k="alt_name" v="Furenes" />
		<tag k="name" v="Fureneset" />
		<tag k="natural" v="cape" />
		<tag k="ssr:stedsnr" v="797520" />
	</node>
	<node lat="61.20845590031728" lon="5.350673520880679" id="-76552">
		<tag k="name" v="Markhusvatnet" />
		<tag k="natural" v="water" />
		<tag k="ssr:stedsnr" v="798645" />
		<tag k="water" v="lake" />
	</node>
	<node lat="61.25532777603855" lon="5.2779972223332265" id="-76561">
		<tag k="name" v="Sakseskardtjørna" />
		<tag k="natural" v="water" />
		<tag k="ssr:stedsnr" v="918587" />
	</node>
	<node lat="61.21191666548081" lon="5.286227786128622" id="-76564">
		<tag k="name" v="Botnavatnet" />
		<tag k="natural" v="water" />
		<tag k="ssr:stedsnr" v="919633" />
	</node>
	<node lat="61.220083329434914" lon="5.37096389006589" id="-76566">
		<tag k="name" v="Skorselva" />
		<tag k="ssr:stedsnr" v="919637" />
		<tag k="waterway" v="stream" />
	</node>
	<node lat="61.25432499561396" lon="5.224991666049568" id="-76567">
		<tag k="name" v="Mjåsundet" />
		<tag k="natural" v="strait" />
		<tag k="ssr:stedsnr" v="919684" />
	</node>
	<node lat="61.269999997386776" lon="5.241086116787024" id="-76602">
		<tag k="name" v="Tjørnebotntjørna" />
		<tag k="natural" v="water" />
		<tag k="ssr:stedsnr" v="857587" />
	</node>
	<node lat="61.23500000191849" lon="5.3053583407093" id="-76612">
		<tag k="name" v="Løykene" />
		<tag k="natural" v="water" />
		<tag k="ssr:stedsnr" v="859610" />
	</node>
	<node lat="61.162561107394865" lon="5.305102772835532" id="-76623">
		<tag k="name" v="Kyrneset" />
		<tag k="natural" v="cape" />
		<tag k="ssr:stedsnr" v="892071" />
	</node>
	<node lat="61.16378888481308" lon="5.304608332097833" id="-76624">
		<tag k="name" v="Vassenden" />
		<tag k="natural" v="cape" />
		<tag k="ssr:stedsnr" v="892073" />
	</node>
	<node lat="61.132494439780906" lon="5.360363881278418" id="-76626">
		<tag k="name" v="Vikatjørna" />
		<tag k="natural" v="water" />
		<tag k="ssr:stedsnr" v="892489" />
	</node>
	<node lat="61.096688893146215" lon="5.419266670887399" id="-76636">
		<tag k="name" v="Smårisetjørna" />
		<tag k="natural" v="water" />
		<tag k="ssr:stedsnr" v="893529" />
	</node>
	<node lat="61.1691372454869" lon="5.34253521023107" id="-76647">
		<tag k="alt_name" v="Aksevatnet" />
		<tag k="name" v="Aksavatnet" />
		<tag k="natural" v="water" />
		<tag k="ssr:stedsnr" v="919714" />
		<tag k="water" v="lake" />
	</node>
	<node lat="61.250110405055274" lon="5.176629749215311" id="-76659">
		<tag k="alt_name" v="Svanetjønna" />
		<tag k="name" v="Svanetjørna" />
		<tag k="natural" v="water" />
		<tag k="ssr:stedsnr" v="920410" />
	</node>
	<node lat="61.2297777754335" lon="5.072924995586015" id="-76681">
		<tag k="name" v="Sandalselva" />
		<tag k="ssr:stedsnr" v="953910" />
		<tag k="waterway" v="stream" />
	</node>
	<node lat="61.14211389119054" lon="5.426225004403075" id="-76683">
		<tag k="name" v="Stølselva" />
		<tag k="ssr:stedsnr" v="953999" />
		<tag k="waterway" v="stream" />
	</node>
	<node lat="61.13127222614832" lon="5.402969449716854" id="-76711">
		<tag k="name" v="Lona" />
		<tag k="ssr:stedsnr" v="9538" />
		<tag k="waterway" v="stream" />
	</node>
	<node lat="61.18859485418035" lon="5.147050589878868" id="-76729">
		<tag k="name" v="Rørdalsvatn" />
		<tag k="natural" v="water" />
		<tag k="ssr:stedsnr" v="42315" />
		<tag k="water" v="lake" />
	</node>
	<node lat="61.121972220398824" lon="5.352208342345496" id="-76740">
		<tag k="name" v="Bråstadfossen" />
		<tag k="natural" v="waterfall" />
		<tag k="ssr:stedsnr" v="43269" />
	</node>
	<node lat="61.21820277385138" lon="5.381699995818121" id="-76747">
		<tag k="name" v="Nordre Sandvatn" />
		<tag k="natural" v="water" />
		<tag k="ssr:stedsnr" v="43138" />
		<tag k="water" v="lake" />
	</node>
	<node lat="61.187253596527356" lon="5.343235663138003" id="-76753">
		<tag k="name" v="Sørefjellvatnet" />
		<tag k="natural" v="water" />
		<tag k="ssr:stedsnr" v="43445" />
		<tag k="water" v="lake" />
	</node>
	<node lat="61.116788886438044" lon="5.241672230411293" id="-76766">
		<tag k="alt_name" v="Store Dyttinga" />
		<tag k="name" v="Storedyttinga" />
		<tag k="natural" v="water" />
		<tag k="ssr:stedsnr" v="70535" />
	</node>
	<node lat="61.21195277764326" lon="5.256538894687373" id="-76767">
		<tag k="alt_name" v="Storeelva" />
		<tag k="name" v="Elvaelva" />
		<tag k="ssr:stedsnr" v="70650" />
		<tag k="waterway" v="stream" />
	</node>
	<node lat="61.216147224383825" lon="5.277658332633997" id="-76768">
		<tag k="name" v="Korshaugvatnet" />
		<tag k="natural" v="water" />
		<tag k="ssr:stedsnr" v="70653" />
	</node>
	<node lat="61.16665123514178" lon="5.393370054417096" id="-76775">
		<tag k="name" v="Espelandsvatnet" />
		<tag k="natural" v="water" />
		<tag k="ssr:stedsnr" v="70739" />
		<tag k="water" v="lake" />
	</node>
	<node lat="61.17471944011994" lon="5.3329500024152106" id="-76784">
		<tag k="name" v="Aksetjørna" />
		<tag k="natural" v="water" />
		<tag k="ssr:stedsnr" v="103150" />
	</node>
	<node lat="61.15534722302113" lon="5.376874991318605" id="-76803">
		<tag k="name" v="Svarttjørna" />
		<tag k="natural" v="water" />
		<tag k="ssr:stedsnr" v="104967" />
	</node>
	<node lat="61.275402777054055" lon="5.260291673622785" id="-76811">
		<tag k="name" v="Lona" />
		<tag k="ssr:stedsnr" v="129600" />
		<tag k="waterway" v="stream" />
	</node>
	<node lat="61.123205552758" lon="5.439413881647666" id="-76816">
		<tag k="name" v="Stølstjørna" />
		<tag k="natural" v="water" />
		<tag k="ssr:stedsnr" v="130540" />
	</node>
	<node lat="61.10502376791336" lon="5.421917622321206" id="-76817">
		<tag k="name" v="Mangetjørnane" />
		<tag k="natural" v="water" />
		<tag k="ssr:stedsnr" v="130555" />
	</node>
	<node lat="61.190655553140076" lon="5.12548610528763" id="-76819">
		<tag k="alt_name" v="Indre Selbotntjørn;Selbotntjørna, øvre" />
		<tag k="name" v="Øvre Selbotntjørna" />
		<tag k="natural" v="water" />
		<tag k="ssr:stedsnr" v="130640" />
	</node>
	<node lat="61.17902777984102" lon="5.179636110791375" id="-76821">
		<tag k="name" v="Hellervatnet" />
		<tag k="natural" v="water" />
		<tag k="ssr:stedsnr" v="130657" />
	</node>
	<node lat="61.15828888862616" lon="5.39077777353009" id="-76864">
		<tag k="name" v="Lølandselva" />
		<tag k="ssr:stedsnr" v="191486" />
		<tag k="waterway" v="stream" />
	</node>
	<node lat="61.1381777759124" lon="5.369502778772382" id="-76865">
		<tag k="name" v="Handalsvatnet" />
		<tag k="natural" v="water" />
		<tag k="ssr:stedsnr" v="191495" />
	</node>
	<node lat="61.23085277672746" lon="5.242113881565777" id="-76866">
		<tag k="name" v="Sundbottselva" />
		<tag k="ssr:stedsnr" v="191585" />
		<tag k="waterway" v="stream" />
	</node>
	<node lat="61.092897226225816" lon="5.39315000384523" id="-76874">
		<tag k="name" v="Vasshaugtjørna" />
		<tag k="natural" v="water" />
		<tag k="ssr:stedsnr" v="191542" />
	</node>
	<node lat="61.18500277470697" lon="5.337730563497371" id="-76877">
		<tag k="name" v="Sørefjordsvatnet" />
		<tag k="natural" v="water" />
		<tag k="ssr:stedsnr" v="191645" />
	</node>
	<node lat="61.15996944666585" lon="5.320174992148189" id="-76896">
		<tag k="name" v="Vågen" />
		<tag k="natural" v="bay" />
		<tag k="ssr:stedsnr" v="225151" />
	</node>
	<node lat="61.140700002157125" lon="5.359030560674394" id="-76935">
		<tag k="name" v="Åselva" />
		<tag k="ssr:stedsnr" v="285499" />
		<tag k="waterway" v="river" />
	</node>
	<node lat="61.107919444528896" lon="5.37024999569221" id="-76937">
		<tag k="name" v="Tveitselva" />
		<tag k="ssr:stedsnr" v="285443" />
		<tag k="waterway" v="river" />
	</node>
	<node lat="61.15326388649515" lon="5.366183326703921" id="-76951">
		<tag k="name" v="Igletjørna" />
		<tag k="natural" v="water" />
		<tag k="ssr:stedsnr" v="286980" />
	</node>
	<node lat="61.22745555364112" lon="5.105722217096503" id="-76957">
		<tag k="name" v="Eidevatnet" />
		<tag k="natural" v="water" />
		<tag k="ssr:stedsnr" v="312395" />
	</node>
	<node lat="61.15255000025965" lon="5.345177786363733" id="-76959">
		<tag k="alt_name" v="Staurdalsvatn" />
		<tag k="name" v="Staurdalsvatnet" />
		<tag k="natural" v="water" />
		<tag k="ssr:stedsnr" v="312510" />
	</node>
	<node lat="61.178091667351865" lon="5.208622228080833" id="-76962">
		<tag k="name" v="Blomvatnet" />
		<tag k="natural" v="water" />
		<tag k="ssr:stedsnr" v="312685" />
	</node>
	<node lat="61.230080557585566" lon="5.083355546960865" id="-76964">
		<tag k="alt_name" v="Sandals - Tjørna" />
		<tag k="name" v="Sanddalstjørna" />
		<tag k="natural" v="water" />
		<tag k="ssr:stedsnr" v="312924" />
	</node>
	<node lat="61.12590833456136" lon="5.4133361040318855" id="-77002">
		<tag k="name" v="Stølselva" />
		<tag k="ssr:stedsnr" v="346898" />
		<tag k="waterway" v="river" />
	</node>
	<node lat="61.148583337332816" lon="5.349405547861745" id="-77006">
		<tag k="name" v="Fossfossen" />
		<tag k="natural" v="waterfall" />
		<tag k="ssr:stedsnr" v="346982" />
	</node>
	<node lat="61.270766665898684" lon="5.204199992115582" id="-77008">
		<tag k="name" v="Middagsdalstjørna" />
		<tag k="natural" v="water" />
		<tag k="ssr:stedsnr" v="371587" />
	</node>
	<node lat="61.26603611523757" lon="5.108105558732737" id="-77011">
		<tag k="alt_name" v="Sellevolltjørna" />
		<tag k="name" v="Seljevollstjørna" />
		<tag k="natural" v="water" />
		<tag k="ssr:stedsnr" v="372600" />
	</node>
	<node lat="61.216295194601095" lon="5.38333949211538" id="-77020">
		<tag k="name" v="Sandvotna" />
		<tag k="natural" v="water" />
		<tag k="ssr:stedsnr" v="373670" />
		<tag k="water" v="lake" />
	</node>
	<node lat="61.191649996638006" lon="5.171122222901875" id="-77027">
		<tag k="name" v="Holmevatnet" />
		<tag k="natural" v="water" />
		<tag k="ssr:stedsnr" v="373687" />
	</node>
	<node lat="61.15398610702496" lon="5.330452778592153" id="-77042">
		<tag k="name" v="Søretjørna" />
		<tag k="natural" v="water" />
		<tag k="ssr:stedsnr" v="407212" />
	</node>
	<node lat="61.23913055889973" lon="5.193247220599741" id="-77061">
		<tag k="name" v="Fossaelva" />
		<tag k="ssr:stedsnr" v="434346" />
		<tag k="waterway" v="stream" />
	</node>
	<node lat="61.14682499630096" lon="5.365811111692447" id="-77063">
		<tag k="name" v="Lomtjørna" />
		<tag k="natural" v="water" />
		<tag k="ssr:stedsnr" v="434467" />
	</node>
	<node lat="61.16468055983576" lon="5.245877771296777" id="-77064">
		<tag k="alt_name" v="Ligreidvatnet" />
		<tag k="name" v="Øvrelireidtjørna" />
		<tag k="natural" v="water" />
		<tag k="ssr:stedsnr" v="434688" />
	</node>
	<node lat="61.16043333375622" lon="5.310836108858186" id="-77065">
		<tag k="name" v="Kleivevatnet" />
		<tag k="natural" v="water" />
		<tag k="ssr:stedsnr" v="434692" />
	</node>
	<node lat="61.159494440219135" lon="5.284044438236242" id="-77066">
		<tag k="alt_name" v="Guridaltjørna" />
		<tag k="name" v="Guriddalstjørna" />
		<tag k="natural" v="water" />
		<tag k="ssr:stedsnr" v="434694" />
	</node>
	<node lat="61.157622220066" lon="5.230113891372415" id="-77067">
		<tag k="name" v="Øyjordsvatnet" />
		<tag k="natural" v="water" />
		<tag k="ssr:stedsnr" v="434695" />
	</node>
	<node lat="61.11758888752313" lon="5.234908333063966" id="-77078">
		<tag k="alt_name" v="Vetlevad" />
		<tag k="name" v="Veslevadet" />
		<tag k="place" v="locality" />
		<tag k="ssr:stedsnr" v="495533" />
	</node>
	<node lat="61.13844999925275" lon="5.206991665206861" id="-77086">
		<tag k="name" v="Nedste Kvernhustjørn" />
		<tag k="natural" v="water" />
		<tag k="ssr:stedsnr" v="527104" />
	</node>
	<node lat="61.10308953148084" lon="5.395569848955467" id="-77088">
		<tag k="name" v="Byrkjebotnen" />
		<tag k="natural" v="water" />
		<tag k="ssr:stedsnr" v="527425" />
		<tag k="water" v="lake" />
	</node>
	<node lat="61.10510277926037" lon="5.395900002557898" id="-77089">
		<tag k="name" v="Ribbesneset" />
		<tag k="natural" v="cape" />
		<tag k="ssr:stedsnr" v="527426" />
	</node>
	<node lat="61.196402780089834" lon="5.35525277104261" id="-77124">
		<tag k="fixme" v="multiple name tags, choose one and add the other to alt_name" />
		<tag k="name" v="Markhustjørna;Nordre Mørketjørna" />
		<tag k="natural" v="water" />
		<tag k="ssr:stedsnr" v="555649" />
	</node>
	<node lat="61.18192597684646" lon="5.148369309322893" id="-77128">
		<tag k="alt_name" v="Trollebotnsvatnet, nedre" />
		<tag k="name" v="Nedre Trollebotnvatnet" />
		<tag k="natural" v="water" />
		<tag k="ssr:stedsnr" v="555658" />
	</node>
	<node lat="61.19188889125653" lon="5.389424992358633" id="-77129">
		<tag k="alt_name" v="Dalsvatn" />
		<tag k="name" v="Dalsvatnet" />
		<tag k="natural" v="water" />
		<tag k="ssr:stedsnr" v="555661" />
	</node>
	<node lat="61.16284444340697" lon="5.437900007968624" id="-77130">
		<tag k="alt_name" v="Nykkedalsvatnet, nedre;Nedre Nykkedalstjørn" />
		<tag k="name" v="Nedre Nykkedalsvatnet" />
		<tag k="natural" v="water" />
		<tag k="ssr:stedsnr" v="555718" />
	</node>
	<node lat="61.15008888803976" lon="5.368147230865869" id="-77143">
		<tag k="name" v="Åvikneset" />
		<tag k="natural" v="cape" />
		<tag k="ssr:stedsnr" v="710944" />
	</node>
	<node lat="61.235416664266054" lon="5.116619436513159" id="-77176">
		<tag k="name" v="Oselva" />
		<tag k="ssr:stedsnr" v="598880" />
		<tag k="waterway" v="river" />
	</node>
	<node lat="61.17637221805577" lon="5.32279999586661" id="-77188">
		<tag k="name" v="Gåsetjørna" />
		<tag k="natural" v="water" />
		<tag k="ssr:stedsnr" v="615690" />
	</node>
	<node lat="61.24649444840737" lon="5.218416671474052" id="-77191">
		<tag k="name" v="Jodiket" />
		<tag k="natural" v="water" />
		<tag k="ssr:stedsnr" v="616360" />
	</node>
	<node lat="61.24570555675169" lon="5.256305563651835" id="-77192">
		<tag k="alt_name" v="Høydalvatn" />
		<tag k="name" v="Hydalsvatnet" />
		<tag k="natural" v="water" />
		<tag k="ssr:stedsnr" v="616362" />
	</node>
	<node lat="61.249491663289774" lon="5.0688638951780165" id="-77208">
		<tag k="name" v="Bordviktjørna" />
		<tag k="natural" v="water" />
		<tag k="ssr:stedsnr" v="649082" />
	</node>
	<node lat="61.24086667024987" lon="5.163794438734589" id="-77209">
		<tag k="name" v="Teigesaga" />
		<tag k="natural" v="cape" />
		<tag k="ssr:stedsnr" v="649027" />
	</node>
	<node lat="61.16629722314443" lon="5.242008340245566" id="-77229">
		<tag k="name" v="Kringletjørna" />
		<tag k="natural" v="water" />
		<tag k="ssr:stedsnr" v="649870" />
	</node>
	<node lat="61.19545555258833" lon="5.39886666155562" id="-77234">
		<tag k="name" v="Fosselva" />
		<tag k="ssr:stedsnr" v="650488" />
		<tag k="waterway" v="river" />
	</node>
	<node lat="61.16907221833907" lon="5.417922226874294" id="-77240">
		<tag k="name" v="Stølselva" />
		<tag k="ssr:stedsnr" v="650565" />
		<tag k="waterway" v="stream" />
	</node>
	<node lat="61.25031669238082" lon="5.2233127755308875" id="-77266">
		<tag k="name" v="Ramsgrøvatnet" />
		<tag k="natural" v="water" />
		<tag k="ssr:stedsnr" v="737352" />
		<tag k="water" v="lake" />
	</node>
	<node lat="61.23607777647804" lon="5.127811118127066" id="-77267">
		<tag k="name" v="Rutlevatnet" />
		<tag k="natural" v="water" />
		<tag k="ssr:stedsnr" v="737357" />
	</node>
	<node lat="61.114311109370966" lon="5.392750004207478" id="-77270">
		<tag k="name" v="Litlelivatnet" />
		<tag k="natural" v="water" />
		<tag k="ssr:stedsnr" v="737553" />
	</node>
	<node lat="61.230702778541556" lon="5.363158338054342" id="-77274">
		<tag k="name" v="Botnavatnet" />
		<tag k="natural" v="water" />
		<tag k="ssr:stedsnr" v="737635" />
	</node>
	<node lat="61.2274888879768" lon="5.353555557475224" id="-77276">
		<tag k="name" v="Fuglevatnet" />
		<tag k="natural" v="water" />
		<tag k="ssr:stedsnr" v="737646" />
	</node>
	<node lat="61.21492777951711" lon="5.29610278320326" id="-77277">
		<tag k="name" v="Uksetjørna" />
		<tag k="natural" v="water" />
		<tag k="ssr:stedsnr" v="737654" />
	</node>
	<node lat="61.1890138927406" lon="5.163752786349947" id="-77279">
		<tag k="name" v="Svartevatnet" />
		<tag k="natural" v="water" />
		<tag k="ssr:stedsnr" v="737662" />
	</node>
	<node lat="61.19065833701397" lon="5.180219442723414" id="-77280">
		<tag k="name" v="Jordevatnet" />
		<tag k="natural" v="water" />
		<tag k="ssr:stedsnr" v="737664" />
	</node>
	<node lat="61.18965833260133" lon="5.438797230388593" id="-77283">
		<tag k="name" v="Såtevatnet" />
		<tag k="natural" v="water" />
		<tag k="ssr:stedsnr" v="737691" />
	</node>
	<node lat="61.250011112078965" lon="5.22786388582617" id="-77284">
		<tag k="name" v="Fureneset" />
		<tag k="natural" v="cape" />
		<tag k="ssr:stedsnr" v="737692" />
	</node>
	<node lat="61.24964721830442" lon="5.079086116378846" id="-77304">
		<tag k="alt_name" v="Svarttjørn" />
		<tag k="name" v="Svartetjørna" />
		<tag k="natural" v="water" />
		<tag k="ssr:stedsnr" v="771102" />
	</node>
	<node lat="61.137874996420685" lon="5.364588886654106" id="-77312">
		<tag k="name" v="Sponvika" />
		<tag k="natural" v="bay" />
		<tag k="ssr:stedsnr" v="771524" />
	</node>
	<node lat="61.17986944329776" lon="5.091747220987362" id="-77322">
		<tag k="name" v="Dammen" />
		<tag k="natural" v="water" />
		<tag k="ssr:stedsnr" v="771771" />
	</node>
	<node lat="61.20549721963646" lon="5.33191111242814" id="-77324">
		<tag k="name" v="Blafjelltjørna" />
		<tag k="natural" v="water" />
		<tag k="ssr:stedsnr" v="771869" />
	</node>
	<node lat="61.17717499673685" lon="5.339794451188487" id="-77340">
		<tag k="name" v="Sætretjørna" />
		<tag k="natural" v="water" />
		<tag k="ssr:stedsnr" v="798677" />
	</node>
	<node lat="61.17195000183971" lon="5.323799991364267" id="-77341">
		<tag k="alt_name" v="Gåsetjørna" />
		<tag k="name" v="Gåsevatnet" />
		<tag k="natural" v="water" />
		<tag k="ssr:stedsnr" v="798678" />
	</node>
	<node lat="61.189016668026056" lon="5.209033334295656" id="-77361">
		<tag k="alt_name" v="Lauelva" />
		<tag k="name" v="Lauvelva" />
		<tag k="ssr:stedsnr" v="831324" />
		<tag k="waterway" v="stream" />
	</node>
	<node lat="61.11121666364229" lon="5.351686119772202" id="-77367">
		<tag k="name" v="Tveitfossen" />
		<tag k="natural" v="waterfall" />
		<tag k="ssr:stedsnr" v="832255" />
	</node>
	<node lat="61.17910278075246" lon="5.1367361081175895" id="-77386">
		<tag k="alt_name" v="Svarte - vatn" />
		<tag k="name" v="Svartevatnet" />
		<tag k="natural" v="water" />
		<tag k="ssr:stedsnr" v="858545" />
	</node>
	<node lat="61.241360413009495" lon="5.152493340422593" id="-77391">
		<tag k="alt_name" v="Teigevatn" />
		<tag k="name" v="Teigevatnet" />
		<tag k="natural" v="water" />
		<tag k="ssr:stedsnr" v="859352" />
		<tag k="water" v="lake" />
	</node>
	<node lat="61.18831944881081" lon="5.429266672139451" id="-77395">
		<tag k="alt_name" v="Blåfjellvatnet, øvre" />
		<tag k="name" v="Øvre Blåfjellvatnet" />
		<tag k="natural" v="water" />
		<tag k="ssr:stedsnr" v="859677" />
	</node>
	<node lat="61.20248610779231" lon="5.1327305470855835" id="-77396">
		<tag k="name" v="Elvane" />
		<tag k="ssr:stedsnr" v="859632" />
		<tag k="waterway" v="stream" />
	</node>
	<node lat="61.232741666264864" lon="5.36238055469142" id="-77404">
		<tag k="name" v="Skor" />
		<tag k="natural" v="cape" />
		<tag k="ssr:stedsnr" v="952267" />
	</node>
	<node lat="61.21603889317935" lon="5.348194449294582" id="-77406">
		<tag k="name" v="Skorsfossen" />
		<tag k="natural" v="waterfall" />
		<tag k="ssr:stedsnr" v="952286" />
	</node>
	<node lat="61.197538892486484" lon="5.325733327697578" id="-77421">
		<tag k="name" v="Fossane" />
		<tag k="natural" v="waterfall" />
		<tag k="ssr:stedsnr" v="953866" />
	</node>
	<node lat="61.211704030575845" lon="5.38606334827247" id="-77459">
		<tag k="alt_name" v="Søre Sandsvatn" />
		<tag k="name" v="Søre Sandvatn" />
		<tag k="natural" v="water" />
		<tag k="ssr:stedsnr" v="991075" />
		<tag k="water" v="lake" />
	</node>
</osm>
