<?xml version="1.0" encoding="UTF-8"?>
<osm generator="osmapis" version="0.6">
	<node id="-649854" lat="61.218280555" lon="5.25753054733">
		<tag k="name" v="Løkemyrane" />
		<tag k="natural" v="wetland" />
		<tag k="ssr:stedsnr" v="710928" />
	</node>
	<node id="-650493" lat="61.239149996" lon="5.23608610608">
		<tag k="name" v="Ønamarka" />
		<tag k="place" v="locality" />
		<tag k="ssr:stedsnr" v="555334" />
	</node>
	<node id="-650491" lat="61.2463583333" lon="5.20649445328">
		<tag k="name" v="Ramsgrømyrane" />
		<tag k="natural" v="wetland" />
		<tag k="ssr:stedsnr" v="555313" />
	</node>
	<node id="-649978" lat="61.1947916705" lon="5.32676389407">
		<tag k="name" v="Storesteinane" />
		<tag k="natural" v="stone" />
		<tag k="ssr:stedsnr" v="710861" />
	</node>
	<node id="-649849" lat="61.151855558" lon="5.17258888818">
		<tag k="name" v="Stølen" />
		<tag k="place" v="locality" />
		<tag k="ssr:stedsnr" v="588150" />
	</node>
	<node id="-650613" lat="61.1332194409" lon="5.38313889324">
		<tag k="name" v="Storemyra" />
		<tag k="natural" v="wetland" />
		<tag k="ssr:stedsnr" v="649422" />
	</node>
	<node id="-650484" lat="61.2225277734" lon="5.19873611319">
		<tag k="name" v="Myrane" />
		<tag k="natural" v="wetland" />
		<tag k="ssr:stedsnr" v="529987" />
	</node>
	<node id="-650606" lat="61.2301861143" lon="5.10256943925">
		<tag k="name" v="Myrane" />
		<tag k="natural" v="wetland" />
		<tag k="ssr:stedsnr" v="649214" />
	</node>
	<node id="-649837" lat="61.1049083326" lon="5.34808055296">
		<tag k="name" v="Vetlebø" />
		<tag k="place" v="locality" />
		<tag k="ssr:stedsnr" v="710459" />
	</node>
	<node id="-650342" lat="61.1655861131" lon="5.20925277384">
		<tag k="name" v="Småmyrane" />
		<tag k="natural" v="wetland" />
		<tag k="ssr:stedsnr" v="346244" />
	</node>
	<node id="-649445" lat="61.2276444443" lon="5.14144444526">
		<tag k="name" v="Kleivasteinane" />
		<tag k="natural" v="stone" />
		<tag k="ssr:stedsnr" v="225867" />
	</node>
	<node id="-650755" lat="61.1386750004" lon="5.34486944625">
		<tag k="name" v="Gåsøyri" />
		<tag k="place" v="locality" />
		<tag k="ssr:stedsnr" v="830377" />
	</node>
	<node id="-650463" lat="61.1638444425" lon="5.23993611661">
		<tag k="name" v="Langemyra" />
		<tag k="natural" v="wetland" />
		<tag k="ssr:stedsnr" v="528285" />
	</node>
	<node id="-650846" lat="61.1951666637" lon="5.3695083356">
		<tag k="name" v="Klovemyra" />
		<tag k="natural" v="wetland" />
		<tag k="ssr:stedsnr" v="953190" />
	</node>
	<node id="-650205" lat="61.1503194436" lon="5.42487500587">
		<tag k="name" v="Hjellemyra" />
		<tag k="natural" v="wetland" />
		<tag k="ssr:stedsnr" v="104769" />
	</node>
	<node id="-649564" lat="61.1546555545" lon="5.16734722204">
		<tag k="name" v="Helgeland" />
		<tag k="place" v="locality" />
		<tag k="ssr:stedsnr" v="285176" />
	</node>
	<node id="-650587" lat="61.1376416702" lon="5.34714721595">
		<tag k="name" v="Laberget" />
		<tag k="place" v="locality" />
		<tag k="ssr:stedsnr" v="647405" />
	</node>
	<node id="-650714" lat="61.1335000033" lon="5.3583750071">
		<tag k="name" v="Majorgjerdet" />
		<tag k="place" v="locality" />
		<tag k="ssr:stedsnr" v="771529" />
	</node>
	<node id="-650257" lat="61.1261138873" lon="5.35166943859">
		<tag k="name" v="Laberget" />
		<tag k="place" v="locality" />
		<tag k="ssr:stedsnr" v="164523" />
	</node>
	<node id="-649741" lat="61.2399444405" lon="5.22865556347">
		<tag k="name" v="Løyken" />
		<tag k="natural" v="wetland" />
		<tag k="ssr:stedsnr" v="407014" />
	</node>
	<node id="-649593" lat="61.1434444432" lon="5.41689722672">
		<tag k="name" v="Holene" />
		<tag k="place" v="locality" />
		<tag k="ssr:stedsnr" v="286988" />
	</node>
	<node id="-650068" lat="61.241538893" lon="5.29145834176">
		<tag k="name" v="Snømyra" />
		<tag k="natural" v="wetland" />
		<tag k="ssr:stedsnr" v="920356" />
	</node>
	<node id="-650449" lat="61.2349638931" lon="5.2245972223">
		<tag k="name" v="Stølssteinen" />
		<tag k="natural" v="stone" />
		<tag k="ssr:stedsnr" v="527068" />
	</node>
	<node id="-650446" lat="61.2468361121" lon="5.06192222792">
		<tag k="name" v="Breidemyra" />
		<tag k="natural" v="wetland" />
		<tag k="ssr:stedsnr" v="434997" />
	</node>
	<node id="-649677" lat="61.118163888" lon="5.29880832676">
		<tag k="name" v="Steinane" />
		<tag k="natural" v="stone" />
		<tag k="ssr:stedsnr" v="345423" />
	</node>
	<node id="-650698" lat="61.1379861149" lon="5.3080250033">
		<tag k="name" v="Vardemyra" />
		<tag k="natural" v="wetland" />
		<tag k="ssr:stedsnr" v="771073" />
	</node>
	<node id="-650183" lat="61.1640527813" lon="5.22850555485">
		<tag k="name" v="Lekvagjerdet" />
		<tag k="place" v="locality" />
		<tag k="ssr:stedsnr" v="103281" />
	</node>
	<node id="-649797" lat="61.1616027819" lon="5.41569444261">
		<tag k="name" v="Vika" />
		<tag k="place" v="locality" />
		<tag k="ssr:stedsnr" v="528610" />
	</node>
	<node id="-650180" lat="61.2146750009" lon="5.35704444481">
		<tag k="name" v="Beitesetene" />
		<tag k="place" v="locality" />
		<tag k="ssr:stedsnr" v="103145" />
	</node>
	<node id="-649795" lat="61.2248861145" lon="5.06799444762">
		<tag k="name" v="Høystakkmyra" />
		<tag k="natural" v="wetland" />
		<tag k="ssr:stedsnr" v="528157" />
	</node>
	<node id="-649536" lat="61.1063555544" lon="5.34873333448">
		<tag k="name" v="Skipesteinen" />
		<tag k="natural" v="stone" />
		<tag k="ssr:stedsnr" v="163402" />
	</node>
	<node id="-650141" lat="61.0972361098" lon="5.39467499137">
		<tag k="name" v="Breimyra" />
		<tag k="natural" v="wetland" />
		<tag k="ssr:stedsnr" v="43557" />
	</node>
	<node id="-649403" lat="61.1168083355" lon="5.37478611797">
		<tag k="name" v="Myrane" />
		<tag k="natural" v="wetland" />
		<tag k="ssr:stedsnr" v="224417" />
	</node>
	<node id="-649493" lat="61.238480552" lon="5.20115834127">
		<tag k="name" v="Djupemyra" />
		<tag k="natural" v="wetland" />
		<tag k="ssr:stedsnr" v="252355" />
	</node>
	<node id="-650423" lat="61.2537944483" lon="5.18546111109">
		<tag k="alt_name" v="Botnamyra" />
		<tag k="name" v="Botnemyra" />
		<tag k="natural" v="wetland" />
		<tag k="ssr:stedsnr" v="432530" />
	</node>
	<node id="-649616" lat="61.1576333328" lon="5.40756666297">
		<tag k="name" v="Myrane" />
		<tag k="natural" v="wetland" />
		<tag k="ssr:stedsnr" v="286809" />
	</node>
	<node id="-649950" lat="61.1636" lon="5.215883339">
		<tag k="name" v="Nedrebøen" />
		<tag k="place" v="locality" />
		<tag k="ssr:stedsnr" v="892147" />
	</node>
	<node id="-650801" lat="61.1210222189" lon="5.42009721923">
		<tag k="name" v="Øyane" />
		<tag k="natural" v="wetland" />
		<tag k="ssr:stedsnr" v="832904" />
	</node>
	<node id="-650798" lat="61.224366666" lon="5.14254444331">
		<tag k="name" v="Nesjane" />
		<tag k="place" v="locality" />
		<tag k="ssr:stedsnr" v="832887" />
	</node>
	<node id="-650413" lat="61.1479444447" lon="5.42733611555">
		<tag k="name" v="Revura" />
		<tag k="natural" v="scree" />
		<tag k="ssr:stedsnr" v="407792" />
	</node>
	<node id="-649644" lat="61.1610944455" lon="5.42375000351">
		<tag k="name" v="Gygremyra" />
		<tag k="natural" v="wetland" />
		<tag k="ssr:stedsnr" v="468553" />
	</node>
	<node id="-649771" lat="61.1807555542" lon="5.22721388465">
		<tag k="name" v="Lireidura" />
		<tag k="natural" v="scree" />
		<tag k="ssr:stedsnr" v="467874" />
	</node>
	<node id="-649642" lat="61.0895166664" lon="5.40154444184">
		<tag k="name" v="Ospeskogen" />
		<tag k="place" v="locality" />
		<tag k="ssr:stedsnr" v="468515" />
	</node>
	<node id="-649513" lat="61.1322583305" lon="5.32198610267">
		<tag k="name" v="Kalvegjerdet" />
		<tag k="place" v="locality" />
		<tag k="ssr:stedsnr" v="104106" />
	</node>
	<node id="-650791" lat="61.0949750036" lon="5.39090278661">
		<tag k="name" v="Storemyra" />
		<tag k="natural" v="wetland" />
		<tag k="ssr:stedsnr" v="832597" />
	</node>
	<node id="-649949" lat="61.2245944469" lon="5.05998055131">
		<tag k="name" v="Merkingsmyra" />
		<tag k="natural" v="wetland" />
		<tag k="ssr:stedsnr" v="892143" />
	</node>
	<node id="-650785" lat="61.1967250019" lon="5.41474166902">
		<tag k="name" v="Fosselvøyrane" />
		<tag k="place" v="locality" />
		<tag k="ssr:stedsnr" v="832558" />
	</node>
	<node id="-649758" lat="61.2679888919" lon="5.12354999963">
		<tag k="alt_name" v="Varlimyra" />
		<tag k="name" v="Vardlimyra" />
		<tag k="natural" v="wetland" />
		<tag k="ssr:stedsnr" v="433603" />
	</node>
	<node id="-650525" lat="61.1748500042" lon="5.24171388069">
		<tag k="name" v="Utaviksteinen" />
		<tag k="natural" v="stone" />
		<tag k="ssr:stedsnr" v="588593" />
	</node>
	<node id="-649754" lat="61.1748249994" lon="5.23162500374">
		<tag k="name" v="Rindeura" />
		<tag k="natural" v="scree" />
		<tag k="ssr:stedsnr" v="407868" />
	</node>
	<node id="-649877" lat="61.1522444468" lon="5.36654167046">
		<tag k="name" v="Iglemyra" />
		<tag k="natural" v="wetland" />
		<tag k="ssr:stedsnr" v="711972" />
	</node>
	<node id="-650259" lat="61.2053388916" lon="5.43184721959">
		<tag k="name" v="Langevassøyra" />
		<tag k="place" v="locality" />
		<tag k="ssr:stedsnr" v="164687" />
	</node>
	<node id="-649745" lat="61.182444445" lon="5.3704555614">
		<tag k="name" v="Jakobsdiket" />
		<tag k="natural" v="wetland" />
		<tag k="ssr:stedsnr" v="407309" />
	</node>
	<node id="-649872" lat="61.2010333338" lon="5.40360555766">
		<tag k="name" v="Dyttingtjørna" />
		<tag k="natural" v="wetland" />
		<tag k="ssr:stedsnr" v="711517" />
	</node>
	<node id="-650767" lat="61.1403305535" lon="5.24444166446">
		<tag k="name" v="Oterura" />
		<tag k="natural" v="scree" />
		<tag k="ssr:stedsnr" v="832041" />
	</node>
	<node id="-649998" lat="61.2254888855" lon="5.25164999846">
		<tag k="name" v="Maremyrane" />
		<tag k="natural" v="wetland" />
		<tag k="ssr:stedsnr" v="771912" />
	</node>
	<node id="-650765" lat="61.1513861069" lon="5.39454445223">
		<tag k="name" v="Storemyra" />
		<tag k="natural" v="wetland" />
		<tag k="ssr:stedsnr" v="832004" />
	</node>
	<node id="-649581" lat="61.1277805531" lon="5.25433888408">
		<tag k="name" v="Breimyra" />
		<tag k="natural" v="wetland" />
		<tag k="ssr:stedsnr" v="286044" />
	</node>
	<node id="-650635" lat="61.1997555594" lon="5.3971416584">
		<tag k="name" v="Furefjellsmyra" />
		<tag k="natural" v="wetland" />
		<tag k="ssr:stedsnr" v="650491" />
	</node>
	<node id="-649993" lat="61.2614666652" lon="5.11077499251">
		<tag k="name" v="Engjamyra" />
		<tag k="natural" v="wetland" />
		<tag k="ssr:stedsnr" v="771707" />
	</node>
	<node id="-649988" lat="61.1805111099" lon="5.30043889525">
		<tag k="name" v="Eide" />
		<tag k="place" v="locality" />
		<tag k="ssr:stedsnr" v="770136" />
	</node>
	<node id="-650627" lat="61.221919447" lon="5.37834445247">
		<tag k="name" v="Løykjemyra" />
		<tag k="natural" v="wetland" />
		<tag k="ssr:stedsnr" v="650138" />
	</node>
	<node id="-650625" lat="61.1525277765" lon="5.42689167237">
		<tag k="name" v="Sjetnevikane" />
		<tag k="place" v="locality" />
		<tag k="ssr:stedsnr" v="649777" />
	</node>
</osm>
