<?xml version="1.0" encoding="UTF-8"?>
<osm version="0.6" generator="osmapis">
	<node lat="61.13685000424023" lon="5.347497212580681" id="-38609">
		<tag k="fixme" v="consider place=hamlet" />
		<tag k="name" v="Leirvik" />
		<tag k="place" v="village" />
		<tag k="ssr:stedsnr" v="9520" />
	</node>
	<node lat="61.185149973433866" lon="5.316609750109828" id="-38610">
		<tag k="fixme" v="consider place=hamlet" />
		<tag k="name" v="Sørefjorden" />
		<tag k="place" v="farm" />
		<tag k="ssr:stedsnr" v="9701" />
	</node>
	<node lat="61.22378611492421" lon="5.202822219770871" id="-38614">
		<tag k="name" v="Salbu" />
		<tag k="place" v="hamlet" />
		<tag k="ssr:stedsnr" v="9639" />
	</node>
	<node lat="61.19351944841932" lon="5.068030547774688" id="-38621">
		<tag k="name" v="Børnes" />
		<tag k="place" v="isolated_dwelling" />
		<tag k="ssr:stedsnr" v="234422" />
	</node>
	<node lat="61.22475737493329" lon="5.108692844408846" id="-38638">
		<tag k="fixme" v="consider place=hamlet" />
		<tag k="name" v="Eide" />
		<tag k="place" v="farm" />
		<tag k="ssr:stedsnr" v="69432" />
	</node>
	<node lat="61.14149167040839" lon="5.34764722666658" id="-38644">
		<tag k="name" v="Vassbakken" />
		<tag k="place" v="farm" />
		<tag k="ssr:stedsnr" v="70482" />
	</node>
	<node lat="61.11532411831588" lon="5.224934821927078" id="-38646">
		<tag k="fixme" v="consider place=hamlet" />
		<tag k="name" v="Nesje" />
		<tag k="place" v="farm" />
		<tag k="ssr:stedsnr" v="70509" />
	</node>
	<node lat="61.12088333760463" lon="5.362380559389066" id="-38665">
		<tag k="historic" v="shieling" />
		<tag k="name" v="Bråstadstølen" />
		<tag k="place" v="isolated_dwelling" />
		<tag k="ssr:stedsnr" v="104291" />
	</node>
	<node lat="61.22921633903643" lon="5.265363746398074" id="-38680">
		<tag k="fixme" v="consider place=hamlet" />
		<tag k="name" v="Sundbotn" />
		<tag k="place" v="farm" />
		<tag k="ssr:stedsnr" v="251663" />
	</node>
	<node lat="61.251461112606286" lon="5.2640694531544785" id="-38681">
		<tag k="alt_name" v="Høydal" />
		<tag k="name" v="Hydalen" />
		<tag k="place" v="farm" />
		<tag k="ssr:stedsnr" v="251740" />
	</node>
	<node lat="61.236728727140594" lon="5.086925156675987" id="-38685">
		<tag k="fixme" v="consider place=hamlet" />
		<tag k="name" v="Våge" />
		<tag k="place" v="farm" />
		<tag k="ssr:stedsnr" v="251925" />
	</node>
	<node lat="61.187142709886125" lon="5.028591922865346" id="-38686">
		<tag k="fixme" v="consider place=hamlet" />
		<tag k="name" v="Ytre Skorpa" />
		<tag k="place" v="farm" />
		<tag k="ssr:stedsnr" v="252054" />
	</node>
	<node lat="61.25901547904387" lon="5.167593241217939" id="-38689">
		<tag k="alt_name" v="Lybakk" />
		<tag k="fixme" v="consider place=hamlet" />
		<tag k="name" v="Lybakken" />
		<tag k="place" v="farm" />
		<tag k="ssr:stedsnr" v="128537" />
	</node>
	<node lat="61.24022500165918" lon="5.286408330526913" id="-38693">
		<tag k="name" v="Mikkalplassen" />
		<tag k="place" v="locality" />
		<tag k="ssr:stedsnr" v="252357" />
	</node>
	<node lat="61.12964444617521" lon="5.414436114778132" id="-38698">
		<tag k="name" v="Almbakken" />
		<tag k="place" v="farm" />
		<tag k="ssr:stedsnr" v="130510" />
	</node>
	<node lat="61.13448215463533" lon="5.368814464681905" id="-38700">
		<tag k="fixme" v="consider place=hamlet" />
		<tag k="name" v="Haukås" />
		<tag k="place" v="farm" />
		<tag k="ssr:stedsnr" v="130517" />
	</node>
	<node lat="61.22639444270413" lon="5.1737583392817665" id="-38703">
		<tag k="fixme" v="consider place=hamlet" />
		<tag k="name" v="Sørbøvågen" />
		<tag k="place" v="village" />
		<tag k="ssr:stedsnr" v="130614" />
	</node>
	<node lat="61.206250003913" lon="5.267741665340264" id="-38706">
		<tag k="alt_name" v="Hatlemsbotnen" />
		<tag k="name" v="Botnen" />
		<tag k="place" v="farm" />
		<tag k="ssr:stedsnr" v="130627" />
	</node>
	<node lat="61.22115662279451" lon="5.336072094648025" id="-38711">
		<tag k="alt_name" v="Solås" />
		<tag k="fixme" v="consider place=hamlet" />
		<tag k="name" v="Solåsen" />
		<tag k="place" v="farm" />
		<tag k="ssr:stedsnr" v="252600" />
	</node>
	<node lat="61.21060966633136" lon="5.244124131200988" id="-38713">
		<tag k="fixme" v="consider place=hamlet" />
		<tag k="name" v="Ytre Hatlem" />
		<tag k="place" v="farm" />
		<tag k="ssr:stedsnr" v="252611" />
	</node>
	<node lat="61.15560759558658" lon="5.234444290123671" id="-38719">
		<tag k="fixme" v="consider place=hamlet" />
		<tag k="name" v="Hellem" />
		<tag k="place" v="farm" />
		<tag k="ssr:stedsnr" v="252715" />
	</node>
	<node lat="61.164721794092586" lon="5.411843633164737" id="-38722">
		<tag k="fixme" v="consider place=hamlet" />
		<tag k="name" v="Espeland" />
		<tag k="place" v="farm" />
		<tag k="ssr:stedsnr" v="252726" />
	</node>
	<node lat="61.22419677949973" lon="5.194466575575956" id="-38724">
		<tag k="fixme" v="consider place=hamlet" />
		<tag k="name" v="Salbu" />
		<tag k="place" v="farm" />
		<tag k="ssr:stedsnr" v="146023" />
	</node>
	<node lat="61.125575004093946" lon="5.34930277596232" id="-38725">
		<tag k="name" v="Bråstadstranda" />
		<tag k="place" v="farm" />
		<tag k="ssr:stedsnr" v="162166" />
	</node>
	<node lat="61.140419439983894" lon="5.287869438694841" id="-38747">
		<tag k="name" v="Nybø" />
		<tag k="place" v="farm" />
		<tag k="ssr:stedsnr" v="191476" />
	</node>
	<node lat="61.13220505798176" lon="5.3716936646026765" id="-38748">
		<tag k="alt_name" v="Lien" />
		<tag k="fixme" v="consider place=hamlet" />
		<tag k="name" v="Lia" />
		<tag k="place" v="farm" />
		<tag k="ssr:stedsnr" v="191500" />
	</node>
	<node lat="61.1954111138253" lon="5.362555562241348" id="-38751">
		<tag k="name" v="Botnen" />
		<tag k="place" v="farm" />
		<tag k="ssr:stedsnr" v="191624" />
	</node>
	<node lat="61.19625654450258" lon="5.391455343629401" id="-38752">
		<tag k="fixme" v="consider place=hamlet" />
		<tag k="name" v="Indre Dale" />
		<tag k="place" v="farm" />
		<tag k="ssr:stedsnr" v="191625" />
	</node>
	<node lat="61.24944044050345" lon="5.094436717370661" id="-38753">
		<tag k="fixme" v="consider place=hamlet" />
		<tag k="name" v="Sandnes" />
		<tag k="place" v="farm" />
		<tag k="ssr:stedsnr" v="191648" />
	</node>
	<node lat="61.22039344981626" lon="5.217085371617944" id="-38755">
		<tag k="alt_name" v="Øen" />
		<tag k="fixme" v="consider place=hamlet" />
		<tag k="name" v="Øn" />
		<tag k="place" v="farm" />
		<tag k="ssr:stedsnr" v="191600" />
	</node>
	<node lat="61.15924428228241" lon="5.38882144678296" id="-38787">
		<tag k="fixme" v="consider place=hamlet" />
		<tag k="name" v="Ytre Løland" />
		<tag k="place" v="farm" />
		<tag k="ssr:stedsnr" v="271872" />
	</node>
	<node lat="61.11543055907851" lon="5.303419450608724" id="-38791">
		<tag k="name" v="Solstrand" />
		<tag k="place" v="farm" />
		<tag k="ssr:stedsnr" v="283415" />
	</node>
	<node lat="61.13919444114033" lon="5.292086118214408" id="-38820">
		<tag k="name" v="Sjøvollen" />
		<tag k="place" v="farm" />
		<tag k="ssr:stedsnr" v="312502" />
	</node>
	<node lat="61.233327775982055" lon="5.366825008112963" id="-38821">
		<tag k="name" v="Botnen" />
		<tag k="place" v="farm" />
		<tag k="ssr:stedsnr" v="312618" />
	</node>
	<node lat="61.162268320466985" lon="5.396678179562656" id="-38822">
		<tag k="fixme" v="consider place=hamlet" />
		<tag k="name" v="Nes" />
		<tag k="place" v="farm" />
		<tag k="ssr:stedsnr" v="312714" />
	</node>
	<node lat="61.24129686860207" lon="5.132290995567441" id="-38833">
		<tag k="fixme" v="consider place=hamlet" />
		<tag k="name" v="Rutle" />
		<tag k="place" v="farm" />
		<tag k="ssr:stedsnr" v="313386" />
	</node>
	<node lat="61.24020697336301" lon="5.144116194263988" id="-38834">
		<tag k="fixme" v="consider place=hamlet" />
		<tag k="name" v="Teigenes" />
		<tag k="place" v="farm" />
		<tag k="ssr:stedsnr" v="313387" />
	</node>
	<node lat="61.18835833287774" lon="5.382677783183888" id="-38838">
		<tag k="name" v="Ekreskardet" />
		<tag k="place" v="farm" />
		<tag k="ssr:stedsnr" v="313702" />
	</node>
	<node lat="61.12960278216484" lon="5.414244444075667" id="-38865">
		<tag k="name" v="Fjellheim" />
		<tag k="place" v="farm" />
		<tag k="ssr:stedsnr" v="468939" />
	</node>
	<node lat="61.106349999830194" lon="5.368538890044289" id="-38870">
		<tag k="historic" v="shieling" />
		<tag k="name" v="Tveitstølen" />
		<tag k="place" v="isolated_dwelling" />
		<tag k="ssr:stedsnr" v="345418" />
	</node>
	<node lat="61.137805761037754" lon="5.37721303108422" id="-38887">
		<tag k="alt_name" v="Handal" />
		<tag k="fixme" v="consider place=hamlet" />
		<tag k="name" v="Handalen" />
		<tag k="place" v="farm" />
		<tag k="ssr:stedsnr" v="373551" />
	</node>
	<node lat="61.179562445901475" lon="5.29010810450272" id="-38891">
		<tag k="fixme" v="consider place=hamlet" />
		<tag k="name" v="Nes" />
		<tag k="place" v="farm" />
		<tag k="ssr:stedsnr" v="373715" />
	</node>
	<node lat="61.17587728149431" lon="5.299527819639468" id="-38893">
		<tag k="fixme" v="consider place=hamlet" />
		<tag k="name" v="Hyllestad" />
		<tag k="place" v="farm" />
		<tag k="ssr:stedsnr" v="373721" />
	</node>
	<node lat="61.08017066023234" lon="5.392236648082302" id="-38894">
		<tag k="fixme" v="consider place=hamlet" />
		<tag k="name" v="Brennsdal" />
		<tag k="place" v="farm" />
		<tag k="ssr:stedsnr" v="373611" />
	</node>
	<node lat="61.19961389296979" lon="5.411541660256918" id="-38895">
		<tag k="historic" v="shieling" />
		<tag k="name" v="Dalsstølane" />
		<tag k="place" v="isolated_dwelling" />
		<tag k="ssr:stedsnr" v="373694" />
	</node>
	<node lat="61.23108055221061" lon="5.353808341263391" id="-38897">
		<tag k="name" v="Engja" />
		<tag k="place" v="farm" />
		<tag k="ssr:stedsnr" v="373655" />
	</node>
	<node lat="61.2346799890262" lon="5.066974151071527" id="-38898">
		<tag k="fixme" v="consider place=hamlet" />
		<tag k="name" v="Kjøpstad" />
		<tag k="place" v="farm" />
		<tag k="ssr:stedsnr" v="373902" />
	</node>
	<node lat="61.19812222598233" lon="5.096508323656408" id="-38921">
		<tag k="name" v="Kråkenes" />
		<tag k="place" v="farm" />
		<tag k="ssr:stedsnr" v="407742" />
	</node>
	<node lat="61.18374951735389" lon="5.0619633197971545" id="-38936">
		<tag k="fixme" v="consider place=hamlet" />
		<tag k="name" v="Indre Skorpa" />
		<tag k="place" v="farm" />
		<tag k="ssr:stedsnr" v="434028" />
	</node>
	<node lat="61.130321446432795" lon="5.226557559249204" id="-38938">
		<tag k="fixme" v="consider place=hamlet" />
		<tag k="name" v="Sågnes" />
		<tag k="place" v="farm" />
		<tag k="ssr:stedsnr" v="434476" />
	</node>
	<node lat="61.12611837728576" lon="5.23304226439771" id="-38939">
		<tag k="fixme" v="consider place=hamlet" />
		<tag k="name" v="Sætevik" />
		<tag k="place" v="farm" />
		<tag k="ssr:stedsnr" v="434478" />
	</node>
	<node lat="61.26573332920829" lon="5.228044441113968" id="-38948">
		<tag k="name" v="Tåene" />
		<tag k="place" v="farm" />
		<tag k="ssr:stedsnr" v="492528" />
	</node>
	<node lat="61.2632361152487" lon="5.104458326084778" id="-38953">
		<tag k="alt_name" v="Myklebusthaugen" />
		<tag k="name" v="Haugen" />
		<tag k="place" v="farm" />
		<tag k="ssr:stedsnr" v="493597" />
	</node>
	<node lat="61.183191340421125" lon="5.088322907775913" id="-38954">
		<tag k="fixme" v="consider place=hamlet" />
		<tag k="name" v="Sagosen" />
		<tag k="place" v="farm" />
		<tag k="ssr:stedsnr" v="494042" />
	</node>
	<node lat="61.22561624285922" lon="5.153133066271101" id="-38955">
		<tag k="fixme" v="consider place=hamlet" />
		<tag k="name" v="Indre Gil" />
		<tag k="place" v="farm" />
		<tag k="ssr:stedsnr" v="494384" />
	</node>
	<node lat="61.217561112848365" lon="5.2762694495884315" id="-38964">
		<tag k="alt_name" v="Hatlemstølen" />
		<tag k="historic" v="shieling" />
		<tag k="name" v="Hatleimsstølen" />
		<tag k="place" v="isolated_dwelling" />
		<tag k="ssr:stedsnr" v="494618" />
	</node>
	<node lat="61.189027773762675" lon="5.142408330640859" id="-38966">
		<tag k="historic" v="shieling" />
		<tag k="name" v="Portestølen" />
		<tag k="place" v="isolated_dwelling" />
		<tag k="ssr:stedsnr" v="494638" />
	</node>
	<node lat="61.123552781354825" lon="5.368444437877408" id="-38970">
		<tag k="name" v="Gamlestølen" />
		<tag k="place" v="locality" />
		<tag k="ssr:stedsnr" v="467415" />
	</node>
	<node lat="61.22530833777004" lon="5.019955557804498" id="-38971">
		<tag k="name" v="Hamnen" />
		<tag k="place" v="locality" />
		<tag k="ssr:stedsnr" v="467676" />
	</node>
	<node lat="61.207947220868924" lon="5.256508332689405" id="-38972">
		<tag k="name" v="Myra" />
		<tag k="place" v="farm" />
		<tag k="ssr:stedsnr" v="467926" />
	</node>
	<node lat="61.22417709958806" lon="5.095108464849723" id="-38981">
		<tag k="fixme" v="consider place=hamlet" />
		<tag k="name" v="Åsmul" />
		<tag k="place" v="farm" />
		<tag k="ssr:stedsnr" v="675535" />
	</node>
	<node lat="61.22604167043127" lon="5.194213895729596" id="-38986">
		<tag k="name" v="Kvia" />
		<tag k="place" v="farm" />
		<tag k="ssr:stedsnr" v="676623" />
	</node>
	<node lat="61.23322777466742" lon="5.237074997507532" id="-38987">
		<tag k="name" v="Ytre Sundbotn" />
		<tag k="place" v="farm" />
		<tag k="ssr:stedsnr" v="676627" />
	</node>
	<node lat="61.12244444568793" lon="5.426233331063643" id="-38989">
		<tag k="alt_name" v="Handalstølen" />
		<tag k="historic" v="shieling" />
		<tag k="name" v="Handalsstølen" />
		<tag k="place" v="isolated_dwelling" />
		<tag k="ssr:stedsnr" v="676562" />
	</node>
	<node lat="61.1436600842403" lon="5.273446860007986" id="-38999">
		<tag k="alt_name" v="Ytrefjord" />
		<tag k="fixme" v="consider place=hamlet" />
		<tag k="name" v="Ytrefjorden" />
		<tag k="place" v="farm" />
		<tag k="ssr:stedsnr" v="494473" />
	</node>
	<node lat="61.14038186345074" lon="5.291380340310584" id="-39000">
		<tag k="alt_name" v="Indrefjord" />
		<tag k="fixme" v="consider place=hamlet" />
		<tag k="name" v="Indrefjorden" />
		<tag k="place" v="farm" />
		<tag k="ssr:stedsnr" v="494476" />
	</node>
	<node lat="61.14750940707454" lon="5.346025185499671" id="-39001">
		<tag k="fixme" v="consider place=hamlet" />
		<tag k="name" v="Foss" />
		<tag k="place" v="farm" />
		<tag k="ssr:stedsnr" v="494479" />
	</node>
	<node lat="61.11536666826918" lon="5.34936667026907" id="-39011">
		<tag k="name" v="Maurstedet" />
		<tag k="place" v="isolated_dwelling" />
		<tag k="ssr:stedsnr" v="526173" />
	</node>
	<node lat="61.11538888838957" lon="5.351888886480195" id="-39033">
		<tag k="name" v="Slettåsen" />
		<tag k="place" v="farm" />
		<tag k="ssr:stedsnr" v="554605" />
	</node>
	<node lat="61.248044442955425" lon="5.248305560856283" id="-39035">
		<tag k="alt_name" v="Høydalleitet" />
		<tag k="name" v="Leitet" />
		<tag k="place" v="farm" />
		<tag k="ssr:stedsnr" v="555315" />
	</node>
	<node lat="61.12494999999706" lon="5.2711777793446775" id="-39039">
		<tag k="name" v="Rysjedalsvågen" />
		<tag k="place" v="farm" />
		<tag k="ssr:stedsnr" v="555487" />
	</node>
	<node lat="61.158187190257976" lon="5.329488394813748" id="-39042">
		<tag k="fixme" v="consider place=hamlet" />
		<tag k="name" v="Atterås" />
		<tag k="place" v="farm" />
		<tag k="ssr:stedsnr" v="555709" />
	</node>
	<node lat="61.16030000102226" lon="5.22782221992217" id="-39043">
		<tag k="name" v="Øyjorda" />
		<tag k="place" v="farm" />
		<tag k="ssr:stedsnr" v="555697" />
	</node>
	<node lat="61.16203833401798" lon="5.195015080224718" id="-39044">
		<tag k="fixme" v="consider place=hamlet" />
		<tag k="name" v="Hovland" />
		<tag k="place" v="farm" />
		<tag k="ssr:stedsnr" v="555700" />
	</node>
	<node lat="61.128225307904465" lon="5.354780894258343" id="-39045">
		<tag k="fixme" v="consider place=hamlet" />
		<tag k="name" v="Djupevika" />
		<tag k="place" v="farm" />
		<tag k="ssr:stedsnr" v="695846" />
	</node>
	<node lat="61.22261111519687" lon="5.2080222159891285" id="-39057">
		<tag k="name" v="Storelia" />
		<tag k="place" v="farm" />
		<tag k="ssr:stedsnr" v="588969" />
	</node>
	<node lat="61.25347925882193" lon="5.105891354699569" id="-39070">
		<tag k="fixme" v="consider place=hamlet" />
		<tag k="name" v="Myklebust" />
		<tag k="place" v="farm" />
		<tag k="ssr:stedsnr" v="614555" />
	</node>
	<node lat="61.225667057694615" lon="5.136901891677433" id="-39074">
		<tag k="fixme" v="consider place=hamlet" />
		<tag k="name" v="Ytre Gil" />
		<tag k="place" v="farm" />
		<tag k="ssr:stedsnr" v="615396" />
	</node>
	<node lat="61.14156234714146" lon="5.360966063439139" id="-39075">
		<tag k="fixme" v="consider place=hamlet" />
		<tag k="name" v="Ås" />
		<tag k="place" v="farm" />
		<tag k="ssr:stedsnr" v="615497" />
	</node>
	<node lat="61.233174613733965" lon="5.26475913852207" id="-39080">
		<tag k="fixme" v="consider place=hamlet" />
		<tag k="name" v="Midttun" />
		<tag k="place" v="farm" />
		<tag k="ssr:stedsnr" v="615616" />
	</node>
	<node lat="61.20163937285921" lon="5.275404887682433" id="-39081">
		<tag k="alt_name" v="Leirpoll" />
		<tag k="fixme" v="consider place=hamlet" />
		<tag k="name" v="Leirpollen" />
		<tag k="place" v="farm" />
		<tag k="ssr:stedsnr" v="615642" />
	</node>
	<node lat="61.209002011075896" lon="5.363838069313315" id="-39082">
		<tag k="fixme" v="multiple name tags, choose one and add the other to alt_name; consider place=hamlet" />
		<tag k="name" v="Breivik;Alefjellet" />
		<tag k="place" v="farm" />
		<tag k="ssr:stedsnr" v="615646" />
	</node>
	<node lat="61.1736555579902" lon="5.4413305625101325" id="-39084">
		<tag k="historic" v="shieling" />
		<tag k="name" v="Espelandsstølane" />
		<tag k="place" v="isolated_dwelling" />
		<tag k="ssr:stedsnr" v="615715" />
	</node>
	<node lat="61.172366313579055" lon="5.383898758239981" id="-39086">
		<tag k="fixme" v="consider place=hamlet" />
		<tag k="name" v="Eide" />
		<tag k="place" v="farm" />
		<tag k="ssr:stedsnr" v="615721" />
	</node>
	<node lat="61.123350269669835" lon="5.342591479944024" id="-39091">
		<tag k="fixme" v="consider place=hamlet" />
		<tag k="name" v="Bråstad" />
		<tag k="place" v="farm" />
		<tag k="ssr:stedsnr" v="616516" />
	</node>
	<node lat="61.13049093046142" lon="5.389055114488763" id="-39092">
		<tag k="alt_name" v="Lonebotten" />
		<tag k="fixme" v="consider place=hamlet" />
		<tag k="name" v="Lonebotnen" />
		<tag k="place" v="farm" />
		<tag k="ssr:stedsnr" v="616519" />
	</node>
	<node lat="61.18882686020038" lon="5.321656948856744" id="-39095">
		<tag k="name" v="Indre Berge" />
		<tag k="place" v="farm" />
		<tag k="ssr:stedsnr" v="616705" />
	</node>
	<node lat="61.179285380761435" lon="5.294097431289367" id="-39099">
		<tag k="fixme" v="consider place=hamlet" />
		<tag k="name" v="Gjerde" />
		<tag k="place" v="farm" />
		<tag k="ssr:stedsnr" v="649135" />
	</node>
	<node lat="61.13570278100173" lon="5.343930563151406" id="-39106">
		<tag k="name" v="Øykjanes" />
		<tag k="place" v="farm" />
		<tag k="ssr:stedsnr" v="649507" />
	</node>
	<node lat="61.15725555582348" lon="5.224652782539821" id="-39123">
		<tag k="name" v="Vedlane" />
		<tag k="place" v="farm" />
		<tag k="ssr:stedsnr" v="708538" />
	</node>
	<node lat="61.15767500264993" lon="5.2216611071243655" id="-39154">
		<tag k="name" v="Fjordli" />
		<tag k="place" v="farm" />
		<tag k="ssr:stedsnr" v="676739" />
	</node>
	<node lat="61.22470760457828" lon="5.089614568805713" id="-39155">
		<tag k="name" v="Åsmul" />
		<tag k="place" v="farm" />
		<tag k="ssr:stedsnr" v="676911" />
	</node>
	<node lat="61.24912892442498" lon="5.094735055100123" id="-39156">
		<tag k="name" v="Sandnes" />
		<tag k="place" v="farm" />
		<tag k="ssr:stedsnr" v="677406" />
	</node>
	<node lat="61.128027778544904" lon="5.353683326548616" id="-39157">
		<tag k="name" v="Hola" />
		<tag k="place" v="farm" />
		<tag k="ssr:stedsnr" v="677515" />
	</node>
	<node lat="61.21342359872592" lon="5.225912606510718" id="-39164">
		<tag k="alt_name" v="Smilden" />
		<tag k="name" v="Smilla" />
		<tag k="place" v="farm" />
		<tag k="ssr:stedsnr" v="892965" />
	</node>
	<node lat="61.24322877557294" lon="5.1489468758738015" id="-39205">
		<tag k="fixme" v="consider place=hamlet" />
		<tag k="name" v="Teige" />
		<tag k="place" v="farm" />
		<tag k="ssr:stedsnr" v="737403" />
	</node>
	<node lat="61.13094157999264" lon="5.324355775569393" id="-39208">
		<tag k="fixme" v="consider place=hamlet" />
		<tag k="name" v="Ytre Bø" />
		<tag k="place" v="farm" />
		<tag k="ssr:stedsnr" v="737506" />
	</node>
	<node lat="61.12299722020058" lon="5.328194435897552" id="-39209">
		<tag k="building" v="industrial" />
		<tag k="industrial" v="factory" />
		<tag k="name" v="Kleven Løland" />
		<tag k="ssr:stedsnr" v="737520" />
	</node>
	<node lat="61.09435555206838" lon="5.411102783247792" id="-39211">
		<tag k="alt_name" v="Brendalsstølen" />
		<tag k="historic" v="shieling" />
		<tag k="name" v="Brennsdalsstølane" />
		<tag k="place" v="isolated_dwelling" />
		<tag k="ssr:stedsnr" v="737569" />
	</node>
	<node lat="61.224315051463506" lon="5.028894337998629" id="-39213">
		<tag k="alt_name" v="Skivenes" />
		<tag k="fixme" v="consider place=hamlet" />
		<tag k="name" v="Skiveneset" />
		<tag k="place" v="farm" />
		<tag k="ssr:stedsnr" v="737926" />
	</node>
	<node lat="61.184038885014004" lon="5.294183336333193" id="-39244">
		<tag k="name" v="Leira" />
		<tag k="place" v="farm" />
		<tag k="ssr:stedsnr" v="798656" />
	</node>
	<node lat="61.10802222405502" lon="5.4076944488778285" id="-39247">
		<tag k="alt_name" v="Heggebøstølane" />
		<tag k="historic" v="shieling" />
		<tag k="name" v="Heggebøstølen" />
		<tag k="place" v="isolated_dwelling" />
		<tag k="ssr:stedsnr" v="798516" />
	</node>
	<node lat="61.18221389195485" lon="5.063480548201222" id="-39253">
		<tag k="name" v="Gulen" />
		<tag k="place" v="farm" />
		<tag k="ssr:stedsnr" v="919034" />
	</node>
	<node lat="61.17914390499645" lon="5.392148742088286" id="-39258">
		<tag k="alt_name" v="Buvik" />
		<tag k="fixme" v="consider place=hamlet" />
		<tag k="name" v="Buvika" />
		<tag k="place" v="farm" />
		<tag k="ssr:stedsnr" v="919689" />
	</node>
	<node lat="61.22652499715393" lon="5.011452780821778" id="-39260">
		<tag k="name" v="Neset" />
		<tag k="place" v="farm" />
		<tag k="ssr:stedsnr" v="919917" />
	</node>
	<node lat="61.11611065094283" lon="5.29110954264698" id="-39299">
		<tag k="fixme" v="consider place=hamlet" />
		<tag k="name" v="Rysjedal" />
		<tag k="place" v="farm" />
		<tag k="ssr:stedsnr" v="859524" />
	</node>
	<node lat="61.24918344380354" lon="5.2148252340244206" id="-39300">
		<tag k="fixme" v="consider place=hamlet" />
		<tag k="name" v="Ramsgrø" />
		<tag k="place" v="farm" />
		<tag k="ssr:stedsnr" v="859406" />
	</node>
	<node lat="61.13838797062287" lon="5.339793103441316" id="-39301">
		<tag k="fixme" v="consider place=hamlet" />
		<tag k="name" v="Indre Bø" />
		<tag k="place" v="farm" />
		<tag k="ssr:stedsnr" v="859482" />
	</node>
	<node lat="61.16513333342119" lon="5.308761120017146" id="-39304">
		<tag k="name" v="Nygård" />
		<tag k="place" v="farm" />
		<tag k="ssr:stedsnr" v="859704" />
	</node>
	<node lat="61.164060620237485" lon="5.204447063196369" id="-39305">
		<tag k="fixme" v="consider place=hamlet" />
		<tag k="name" v="Lundeland" />
		<tag k="place" v="farm" />
		<tag k="ssr:stedsnr" v="859706" />
	</node>
	<node lat="61.239811107075965" lon="5.355166666185073" id="-39306">
		<tag k="fixme" v="multiple name tags, choose one and add the other to alt_name; consider place=hamlet" />
		<tag k="name" v="Skaret;Røstenskar" />
		<tag k="place" v="farm" />
		<tag k="ssr:stedsnr" v="878855" />
	</node>
	<node lat="61.17937500192829" lon="5.288327781708171" id="-39307">
		<tag k="name" v="Skogen" />
		<tag k="place" v="farm" />
		<tag k="ssr:stedsnr" v="888113" />
	</node>
	<node lat="61.177452776295254" lon="5.297741669297042" id="-39308">
		<tag k="name" v="Buavika" />
		<tag k="place" v="farm" />
		<tag k="ssr:stedsnr" v="892142" />
	</node>
	<node lat="61.19210832902995" lon="5.091916664284409" id="-39327">
		<tag k="name" v="Kviene" />
		<tag k="place" v="locality" />
		<tag k="ssr:stedsnr" v="902477" />
	</node>
	<node lat="61.26901824147432" lon="5.2275436784617835" id="-39328">
		<tag k="fixme" v="consider place=hamlet" />
		<tag k="name" v="Horne" />
		<tag k="place" v="farm" />
		<tag k="ssr:stedsnr" v="917547" />
	</node>
	<node lat="61.17058073684609" lon="5.357932498565807" id="-39335">
		<tag k="fixme" v="consider place=hamlet" />
		<tag k="name" v="Birkeland" />
		<tag k="place" v="farm" />
		<tag k="ssr:stedsnr" v="919713" />
	</node>
	<node lat="61.165261108535056" lon="5.34456110438961" id="-39337">
		<tag k="alt_name" v="Rossevik" />
		<tag k="name" v="Rossvika" />
		<tag k="place" v="farm" />
		<tag k="ssr:stedsnr" v="919715" />
	</node>
	<node lat="61.16307163955144" lon="5.3194872636358275" id="-39338">
		<tag k="fixme" v="consider place=hamlet" />
		<tag k="name" v="Kleive" />
		<tag k="place" v="farm" />
		<tag k="ssr:stedsnr" v="919720" />
	</node>
	<node lat="61.18951541105779" lon="5.096226493706213" id="-39341">
		<tag k="fixme" v="consider place=hamlet" />
		<tag k="name" v="Porten" />
		<tag k="place" v="farm" />
		<tag k="ssr:stedsnr" v="919649" />
	</node>
	<node lat="61.177536111134664" lon="5.426561115754602" id="-39342">
		<tag k="alt_name" v="Espelandstøl" />
		<tag k="historic" v="shieling" />
		<tag k="name" v="Espelandsstølen" />
		<tag k="place" v="isolated_dwelling" />
		<tag k="ssr:stedsnr" v="919691" />
	</node>
	<node lat="61.17582522810814" lon="5.349684506194307" id="-39343">
		<tag k="alt_name" v="Akse" />
		<tag k="fixme" v="consider place=hamlet" />
		<tag k="name" v="Aksane" />
		<tag k="place" v="farm" />
		<tag k="ssr:stedsnr" v="919696" />
	</node>
	<node lat="61.227947113437445" lon="5.022984195083419" id="-39344">
		<tag k="alt_name" v="Skivenesvåg" />
		<tag k="fixme" v="consider place=hamlet" />
		<tag k="name" v="Skivenesvågen" />
		<tag k="place" v="farm" />
		<tag k="ssr:stedsnr" v="919907" />
	</node>
	<node lat="61.24307151145399" lon="5.1824805887859" id="-39347">
		<tag k="fixme" v="consider place=hamlet" />
		<tag k="name" v="Trøsdalen" />
		<tag k="place" v="farm" />
		<tag k="ssr:stedsnr" v="920409" />
	</node>
	<node lat="61.2443633121529" lon="5.048102682591851" id="-39351">
		<tag k="fixme" v="consider place=hamlet" />
		<tag k="name" v="Varlia" />
		<tag k="place" v="farm" />
		<tag k="ssr:stedsnr" v="920997" />
	</node>
	<node lat="61.08334444228339" lon="5.397894440640543" id="-39353">
		<tag k="name" v="Kleiva" />
		<tag k="place" v="farm" />
		<tag k="ssr:stedsnr" v="951180" />
	</node>
	<node lat="61.22943332881683" lon="5.268872218107623" id="-39375">
		<tag k="name" v="Indre Sundbotn" />
		<tag k="place" v="farm" />
		<tag k="ssr:stedsnr" v="961087" />
	</node>
	<node lat="61.25756944078105" lon="5.107175001400757" id="-39380">
		<tag k="alt_name" v="Fagerlid" />
		<tag k="name" v="Fagerli" />
		<tag k="place" v="farm" />
		<tag k="ssr:stedsnr" v="7536" />
	</node>
	<node lat="61.243757141382616" lon="5.2244566213480415" id="-39389">
		<tag k="fixme" v="consider place=hamlet" />
		<tag k="name" v="Vassenden" />
		<tag k="place" v="farm" />
		<tag k="ssr:stedsnr" v="9378" />
	</node>
	<node lat="61.18153177137176" lon="5.298150851148222" id="-39398">
		<tag k="alt_name" v="Einevoll" />
		<tag k="fixme" v="consider place=hamlet" />
		<tag k="name" v="Einevollen" />
		<tag k="place" v="farm" />
		<tag k="ssr:stedsnr" v="9685" />
	</node>
	<node lat="61.139272221139585" lon="5.415480548860864" id="-39399">
		<tag k="historic" v="shieling" />
		<tag k="name" v="Åsstølen" />
		<tag k="place" v="isolated_dwelling" />
		<tag k="ssr:stedsnr" v="9536" />
	</node>
	<node lat="61.161730558366926" lon="5.407049990929107" id="-39402">
		<tag k="name" v="Tjørevik" />
		<tag k="place" v="farm" />
		<tag k="ssr:stedsnr" v="9748" />
	</node>
	<node lat="61.12929444434579" lon="5.358611117104774" id="-39406">
		<tag k="name" v="Hola" />
		<tag k="place" v="isolated_dwelling" />
		<tag k="ssr:stedsnr" v="40196" />
	</node>
	<node lat="61.19538055412051" lon="5.319833341718608" id="-39417">
		<tag k="name" v="Bergsstølen" />
		<tag k="place" v="locality" />
		<tag k="ssr:stedsnr" v="42840" />
	</node>
	<node lat="61.21819166247504" lon="5.245411109813687" id="-39422">
		<tag k="historic" v="shieling" />
		<tag k="name" v="Sætebruna" />
		<tag k="place" v="isolated_dwelling" />
		<tag k="ssr:stedsnr" v="42948" />
	</node>
	<node lat="61.185702777029675" lon="5.092949995825846" id="-39441">
		<tag k="name" v="Storaker" />
		<tag k="place" v="farm" />
		<tag k="ssr:stedsnr" v="69553" />
	</node>
	<node lat="61.24089950524507" lon="5.034928479529091" id="-39448">
		<tag k="fixme" v="consider place=hamlet" />
		<tag k="name" v="Laberget" />
		<tag k="place" v="farm" />
		<tag k="ssr:stedsnr" v="70997" />
	</node>
	<node lat="61.16101798928581" lon="5.22595429965824" id="-39457">
		<tag k="fixme" v="consider place=hamlet" />
		<tag k="name" v="Hovlandsvågen" />
		<tag k="place" v="farm" />
		<tag k="ssr:stedsnr" v="89843" />
	</node>
	<node lat="61.19990412337621" lon="5.3542938457054134" id="-39498">
		<tag k="fixme" v="consider place=hamlet" />
		<tag k="name" v="Markhus" />
		<tag k="place" v="farm" />
		<tag k="ssr:stedsnr" v="130641" />
	</node>
	<node lat="61.18014444387416" lon="5.382391657891616" id="-39501">
		<tag k="name" v="Systadgjerdet" />
		<tag k="place" v="farm" />
		<tag k="ssr:stedsnr" v="130679" />
	</node>
	<node lat="61.19116666426998" lon="5.411869436258082" id="-39502">
		<tag k="alt_name" v="Toningstølen" />
		<tag k="historic" v="shieling" />
		<tag k="name" v="Tauningsstølane" />
		<tag k="place" v="isolated_dwelling" />
		<tag k="ssr:stedsnr" v="130663" />
	</node>
	<node lat="61.19120570019372" lon="5.317098771340126" id="-39503">
		<tag k="name" v="Ytre Berge" />
		<tag k="place" v="farm" />
		<tag k="ssr:stedsnr" v="130665" />
	</node>
	<node lat="61.262894443383786" lon="5.228405558214722" id="-39536">
		<tag k="name" v="Kviene" />
		<tag k="place" v="farm" />
		<tag k="ssr:stedsnr" v="189530" />
	</node>
	<node lat="61.24926287495777" lon="5.263841367979121" id="-39537">
		<tag k="alt_name" v="Høydal" />
		<tag k="fixme" v="consider place=hamlet" />
		<tag k="name" v="Hydalen" />
		<tag k="place" v="farm" />
		<tag k="ssr:stedsnr" v="191344" />
	</node>
	<node lat="61.2435255330155" lon="5.113168239617003" id="-39539">
		<tag k="fixme" v="consider place=hamlet" />
		<tag k="name" v="Bjørnestad" />
		<tag k="old_name" v="Biørnastad" />
		<tag k="place" v="farm" />
		<tag k="ssr:stedsnr" v="191394" />
	</node>
	<node lat="61.17225277926028" lon="5.400511101963196" id="-39549">
		<tag k="name" v="Slættene" />
		<tag k="place" v="farm" />
		<tag k="ssr:stedsnr" v="191682" />
	</node>
	<node lat="61.15999721828223" lon="5.403713889806476" id="-39551">
		<tag k="name" v="Hola" />
		<tag k="place" v="farm" />
		<tag k="ssr:stedsnr" v="191695" />
	</node>
	<node lat="61.1893777746673" lon="5.308694440892909" id="-39554">
		<tag k="alt_name" v="Selvik" />
		<tag k="name" v="Selvika" />
		<tag k="place" v="farm" />
		<tag k="ssr:stedsnr" v="191643" />
	</node>
	<node lat="61.12544444632208" lon="5.238755555781926" id="-39571">
		<tag k="name" v="Stallen" />
		<tag k="place" v="locality" />
		<tag k="ssr:stedsnr" v="225057" />
	</node>
	<node lat="61.192736112099176" lon="5.399202782346077" id="-39585">
		<tag k="name" v="Teigane" />
		<tag k="place" v="locality" />
		<tag k="ssr:stedsnr" v="225566" />
	</node>
	<node lat="61.16761143690937" lon="5.2971259513315" id="-39600">
		<tag k="barrier" v="fence" />
		<tag k="name" v="Myragjerdet" />
		<tag k="ssr:stedsnr" v="281145" />
	</node>
	<node lat="61.22689779291146" lon="5.166892307605469" id="-39636">
		<tag k="alt_name" v="Sørebø" />
		<tag k="fixme" v="consider place=hamlet" />
		<tag k="name" v="Sørbø" />
		<tag k="place" v="farm" />
		<tag k="ssr:stedsnr" v="312401" />
	</node>
	<node lat="61.15481111542436" lon="5.4080611117379584" id="-39638">
		<tag k="name" v="Eineneset" />
		<tag k="place" v="farm" />
		<tag k="ssr:stedsnr" v="312517" />
	</node>
	<node lat="61.1676817729053" lon="5.296848549282085" id="-39641">
		<tag k="fixme" v="consider place=hamlet" />
		<tag k="name" v="Myklebust" />
		<tag k="place" v="farm" />
		<tag k="ssr:stedsnr" v="312695" />
	</node>
	<node lat="61.219488891837486" lon="5.356158325119743" id="-39646">
		<tag k="name" v="Skor" />
		<tag k="place" v="farm" />
		<tag k="ssr:stedsnr" v="312646" />
	</node>
	<node lat="61.220648426293536" lon="5.073136155028357" id="-39649">
		<tag k="alt_name" v="Borsholm" />
		<tag k="fixme" v="consider place=hamlet" />
		<tag k="name" v="Borsholmen" />
		<tag k="place" v="farm" />
		<tag k="ssr:stedsnr" v="312912" />
	</node>
	<node lat="61.12265278066948" lon="5.270352773688139" id="-39652">
		<tag k="name" v="Steinsland" />
		<tag k="place" v="farm" />
		<tag k="ssr:stedsnr" v="313536" />
	</node>
	<node lat="61.1462027792043" lon="5.1987499912972135" id="-39657">
		<tag k="name" v="Straumen" />
		<tag k="place" v="isolated_dwelling" />
		<tag k="ssr:stedsnr" v="344381" />
	</node>
	<node lat="61.23134444726272" lon="5.247722216372067" id="-39659">
		<tag k="name" v="Stølen" />
		<tag k="place" v="locality" />
		<tag k="ssr:stedsnr" v="345079" />
	</node>
	<node lat="61.24236666731311" lon="5.074952774807215" id="-39668">
		<tag k="name" v="Indre Bordvika" />
		<tag k="place" v="farm" />
		<tag k="ssr:stedsnr" v="346101" />
	</node>
	<node lat="61.18523945683908" lon="5.092060509698554" id="-39693">
		<tag k="fixme" v="consider place=hamlet" />
		<tag k="name" v="Storakjen" />
		<tag k="place" v="farm" />
		<tag k="ssr:stedsnr" v="373045" />
	</node>
	<node lat="61.212854871757926" lon="5.23029521039711" id="-39697">
		<tag k="alt_name" v="Smilden" />
		<tag k="fixme" v="consider place=hamlet" />
		<tag k="name" v="Smilla" />
		<tag k="place" v="farm" />
		<tag k="ssr:stedsnr" v="373667" />
	</node>
	<node lat="61.169633932627406" lon="5.255583505043922" id="-39700">
		<tag k="fixme" v="consider place=hamlet" />
		<tag k="name" v="Lireid" />
		<tag k="place" v="farm" />
		<tag k="ssr:stedsnr" v="373728" />
	</node>
	<node lat="61.19574166339143" lon="5.296866673240985" id="-39703">
		<tag k="name" v="Storegjerdet" />
		<tag k="place" v="locality" />
		<tag k="ssr:stedsnr" v="373684" />
	</node>
	<node lat="61.19369151303067" lon="5.297386873878801" id="-39704">
		<tag k="fixme" v="consider place=hamlet" />
		<tag k="name" v="Rønset" />
		<tag k="place" v="farm" />
		<tag k="ssr:stedsnr" v="373685" />
	</node>
	<node lat="61.262152779324246" lon="5.097299996558161" id="-39735">
		<tag k="name" v="Solheim" />
		<tag k="place" v="farm" />
		<tag k="ssr:stedsnr" v="416853" />
	</node>
	<node lat="61.14626944361157" lon="5.2287555598945845" id="-39746">
		<tag k="name" v="Sågnesstølen" />
		<tag k="place" v="locality" />
		<tag k="ssr:stedsnr" v="434697" />
	</node>
	<node lat="61.12261944083622" lon="5.415158324510256" id="-39748">
		<tag k="alt_name" v="Lonebotnstølen" />
		<tag k="historic" v="shieling" />
		<tag k="name" v="Lonebotnsstølen" />
		<tag k="place" v="isolated_dwelling" />
		<tag k="ssr:stedsnr" v="434528" />
	</node>
	<node lat="61.22563972461397" lon="5.338669477310584" id="-39750">
		<tag k="fixme" v="consider place=hamlet" />
		<tag k="name" v="Skor" />
		<tag k="place" v="farm" />
		<tag k="ssr:stedsnr" v="434632" />
	</node>
	<node lat="61.20461471321871" lon="5.266512804402459" id="-39752">
		<tag k="fixme" v="consider place=hamlet" />
		<tag k="name" v="Indre Hatlem" />
		<tag k="place" v="farm" />
		<tag k="ssr:stedsnr" v="434643" />
	</node>
	<node lat="61.207127777925024" lon="5.259244439529914" id="-39791">
		<tag k="alt_name" v="Haugen" />
		<tag k="name" v="Korshaug" />
		<tag k="place" v="farm" />
		<tag k="ssr:stedsnr" v="528921" />
	</node>
	<node lat="61.2777083356102" lon="5.268602777746145" id="-39795">
		<tag k="historic" v="shieling" />
		<tag k="name" v="Gamlestølen" />
		<tag k="place" v="isolated_dwelling" />
		<tag k="ssr:stedsnr" v="554650" />
	</node>
	<node lat="61.18115277359645" lon="5.315894449141666" id="-39796">
		<tag k="alt_name" v="Stigedal" />
		<tag k="name" v="Stigedalen" />
		<tag k="place" v="farm" />
		<tag k="ssr:stedsnr" v="554743" />
	</node>
	<node lat="61.14869999639825" lon="5.352747221716818" id="-39799">
		<tag k="alt_name" v="Foss øvre" />
		<tag k="name" v="Øvrefoss" />
		<tag k="place" v="farm" />
		<tag k="ssr:stedsnr" v="555455" />
	</node>
	<node lat="61.18305555155744" lon="5.122547231307588" id="-39803">
		<tag k="historic" v="shieling" />
		<tag k="name" v="Heimestølen" />
		<tag k="place" v="isolated_dwelling" />
		<tag k="ssr:stedsnr" v="555651" />
	</node>
	<node lat="61.08076961573767" lon="5.391874122946442" id="-39813">
		<tag k="name" v="Brennsdal" />
		<tag k="place" v="farm" />
		<tag k="ssr:stedsnr" v="566486" />
	</node>
	<node lat="61.13791499378415" lon="5.359185493155143" id="-39817">
		<tag k="fixme" v="multiple name tags, choose one and add the other to alt_name; consider place=hamlet" />
		<tag k="name" v="Lauvås;Kletten" />
		<tag k="place" v="farm" />
		<tag k="ssr:stedsnr" v="574874" />
	</node>
	<node lat="61.183358330989044" lon="5.27378611466051" id="-39825">
		<tag k="name" v="Sletten" />
		<tag k="place" v="farm" />
		<tag k="ssr:stedsnr" v="588879" />
	</node>
	<node lat="61.16896110944629" lon="5.3555666669537985" id="-39837">
		<tag k="name" v="Erkehaugen" />
		<tag k="place" v="farm" />
		<tag k="ssr:stedsnr" v="589429" />
	</node>
	<node lat="61.26176475806337" lon="5.22250857472026" id="-39860">
		<tag k="alt_name" v="Indre - lia" />
		<tag k="name" v="Indrelia" />
		<tag k="place" v="farm" />
		<tag k="ssr:stedsnr" v="614576" />
	</node>
	<node lat="61.15239363256936" lon="5.17999354370356" id="-39862">
		<tag k="fixme" v="consider place=hamlet" />
		<tag k="name" v="Risnes" />
		<tag k="place" v="farm" />
		<tag k="ssr:stedsnr" v="615738" />
	</node>
	<node lat="61.22305555944141" lon="5.19604999236371" id="-39863">
		<tag k="name" v="Steinvikneset" />
		<tag k="place" v="farm" />
		<tag k="ssr:stedsnr" v="615623" />
	</node>
	<node lat="61.23507777726915" lon="5.0317611041839365" id="-39868">
		<tag k="alt_name" v="Bånes" />
		<tag k="name" v="Båneset" />
		<tag k="place" v="farm" />
		<tag k="ssr:stedsnr" v="615889" />
	</node>
	<node lat="61.19874552201926" lon="5.378839140130653" id="-39872">
		<tag k="fixme" v="consider place=hamlet" />
		<tag k="name" v="Øvrås" />
		<tag k="place" v="farm" />
		<tag k="ssr:stedsnr" v="616675" />
	</node>
	<node lat="61.19007777581866" lon="5.320775001806476" id="-39873">
		<tag k="fixme" v="consider place=hamlet" />
		<tag k="name" v="Berge" />
		<tag k="place" v="farm" />
		<tag k="ssr:stedsnr" v="636169" />
	</node>
	<node lat="61.17112221885238" lon="5.29605554953488" id="-39874">
		<tag k="name" v="Hyllestad" />
		<tag k="place" v="village" />
		<tag k="ssr:stedsnr" v="637681" />
	</node>
	<node lat="61.123797220221036" lon="5.344436104018157" id="-39875">
		<tag k="name" v="Ospehaug" />
		<tag k="place" v="farm" />
		<tag k="ssr:stedsnr" v="647198" />
	</node>
	<node lat="61.129908332725506" lon="5.320891661609754" id="-39888">
		<tag k="name" v="Gjerde" />
		<tag k="place" v="farm" />
		<tag k="ssr:stedsnr" v="649093" />
	</node>
	<node lat="61.159847218628265" lon="5.221650007803906" id="-39895">
		<tag k="name" v="Oldervik" />
		<tag k="place" v="farm" />
		<tag k="ssr:stedsnr" v="649254" />
	</node>
	<node lat="61.18318888653404" lon="5.390949996197997" id="-39899">
		<tag k="name" v="Trongane" />
		<tag k="place" v="farm" />
		<tag k="ssr:stedsnr" v="649333" />
	</node>
	<node lat="61.16308611406095" lon="5.425883327815383" id="-39904">
		<tag k="barrier" v="fence" />
		<tag k="name" v="Ligjerdet" />
		<tag k="ssr:stedsnr" v="649597" />
	</node>
	<node lat="61.15928610763099" lon="5.353922222035062" id="-39908">
		<tag k="name" v="Staurdalen" />
		<tag k="place" v="farm" />
		<tag k="ssr:stedsnr" v="649975" />
	</node>
	<node lat="61.19713055513637" lon="5.389197228950732" id="-39916">
		<tag k="name" v="Lybakk" />
		<tag k="place" v="farm" />
		<tag k="ssr:stedsnr" v="650167" />
	</node>
	<node lat="61.166852777765" lon="5.2986250013161715" id="-39931">
		<tag k="name" v="Gjerdet" />
		<tag k="place" v="farm" />
		<tag k="ssr:stedsnr" v="716185" />
	</node>
	<node lat="61.262859876058826" lon="5.212910577814149" id="-39934">
		<tag k="fixme" v="consider place=hamlet" />
		<tag k="name" v="Liane" />
		<tag k="place" v="farm" />
		<tag k="ssr:stedsnr" v="735546" />
	</node>
	<node lat="61.26649444106235" lon="5.23114999991852" id="-39935">
		<tag k="name" v="Dalen" />
		<tag k="place" v="farm" />
		<tag k="ssr:stedsnr" v="735548" />
	</node>
	<node lat="61.259612039735735" lon="5.097191791340111" id="-39937">
		<tag k="fixme" v="consider place=hamlet" />
		<tag k="name" v="Seljevoll" />
		<tag k="place" v="farm" />
		<tag k="ssr:stedsnr" v="736571" />
	</node>
	<node lat="61.14820014975589" lon="5.284685946842461" id="-39938">
		<tag k="fixme" v="consider place=hamlet" />
		<tag k="name" v="Kolgrov" />
		<tag k="place" v="farm" />
		<tag k="ssr:stedsnr" v="737490" />
	</node>
	<node lat="61.115574996976676" lon="5.303847226368018" id="-39946">
		<tag k="name" v="Trælevika" />
		<tag k="place" v="farm" />
		<tag k="ssr:stedsnr" v="737547" />
	</node>
	<node lat="61.111143388141045" lon="5.35331174454051" id="-39948">
		<tag k="fixme" v="consider place=hamlet" />
		<tag k="name" v="Tveit" />
		<tag k="place" v="farm" />
		<tag k="ssr:stedsnr" v="737556" />
	</node>
	<node lat="61.230853855896385" lon="5.184025300049835" id="-39949">
		<tag k="fixme" v="consider place=hamlet" />
		<tag k="name" v="Ulvika" />
		<tag k="place" v="farm" />
		<tag k="ssr:stedsnr" v="737625" />
	</node>
	<node lat="61.19531944313351" lon="5.094141670681863" id="-39955">
		<tag k="alt_name" v="Jakobhjellen" />
		<tag k="name" v="Hjellen" />
		<tag k="place" v="farm" />
		<tag k="ssr:stedsnr" v="737657" />
	</node>
	<node lat="61.19641437946424" lon="5.384740635030351" id="-39958">
		<tag k="fixme" v="consider place=hamlet" />
		<tag k="name" v="Ytre Dale" />
		<tag k="place" v="farm" />
		<tag k="ssr:stedsnr" v="737668" />
	</node>
	<node lat="61.17753167117196" lon="5.386043244752976" id="-39963">
		<tag k="fixme" v="consider place=hamlet" />
		<tag k="name" v="Systad" />
		<tag k="place" v="farm" />
		<tag k="ssr:stedsnr" v="737697" />
	</node>
	<node lat="61.18340330512439" lon="5.394271752971924" id="-39964">
		<tag k="alt_name" v="Tonning" />
		<tag k="fixme" v="consider place=hamlet" />
		<tag k="name" v="Tauning" />
		<tag k="place" v="farm" />
		<tag k="ssr:stedsnr" v="737700" />
	</node>
	<node lat="61.16434211925838" lon="5.222562867532304" id="-39965">
		<tag k="fixme" v="consider place=hamlet" />
		<tag k="name" v="Lekva" />
		<tag k="place" v="farm" />
		<tag k="ssr:stedsnr" v="737712" />
	</node>
	<node lat="61.17085508556329" lon="5.247460785071566" id="-39966">
		<tag k="alt_name" v="Rinde" />
		<tag k="fixme" v="consider place=hamlet" />
		<tag k="name" v="Rindane" />
		<tag k="place" v="farm" />
		<tag k="ssr:stedsnr" v="737714" />
	</node>
	<node lat="61.15787609117207" lon="5.3941643136556685" id="-39967">
		<tag k="fixme" v="consider place=hamlet" />
		<tag k="name" v="Indre Løland" />
		<tag k="place" v="farm" />
		<tag k="ssr:stedsnr" v="737726" />
	</node>
	<node lat="61.24253612334019" lon="5.072649940444974" id="-39968">
		<tag k="fixme" v="consider place=hamlet" />
		<tag k="name" v="Bordvika" />
		<tag k="place" v="farm" />
		<tag k="ssr:stedsnr" v="737997" />
	</node>
	<node lat="61.106116667561075" lon="5.3755722241539505" id="-39974">
		<tag k="name" v="Gamlestølen" />
		<tag k="place" v="locality" />
		<tag k="ssr:stedsnr" v="770421" />
	</node>
	<node lat="61.171850000229036" lon="5.367933337626762" id="-39990">
		<tag k="name" v="Nybø" />
		<tag k="place" v="farm" />
		<tag k="ssr:stedsnr" v="771528" />
	</node>
	<node lat="61.24321110962809" lon="5.06806666955808" id="-40019">
		<tag k="name" v="Ytre Bordvika" />
		<tag k="old_name" v="Bordvik ytre" />
		<tag k="place" v="farm" />
		<tag k="ssr:stedsnr" v="798995" />
	</node>
	<node lat="61.22932704170544" lon="4.974690045517294" id="-40021">
		<tag k="fixme" v="multiple name tags, choose one and add the other to alt_name; consider place=hamlet" />
		<tag k="name" v="Hatløyna;Sakrisøyna" />
		<tag k="place" v="farm" />
		<tag k="ssr:stedsnr" v="817857" />
	</node>
	<node lat="61.137269613653615" lon="5.348517922665424" id="-40022">
		<tag k="fixme" v="consider place=hamlet" />
		<tag k="name" v="Leirvik" />
		<tag k="place" v="farm" />
		<tag k="ssr:stedsnr" v="817860" />
	</node>
	<node lat="61.145971753496674" lon="5.344955406602341" id="-40023">
		<tag k="fixme" v="consider place=hamlet" />
		<tag k="name" v="Stigestrand" />
		<tag k="place" v="farm" />
		<tag k="ssr:stedsnr" v="817861" />
	</node>
	<node lat="61.23354444456133" lon="5.260216665779751" id="-40027">
		<tag k="name" v="Løvli" />
		<tag k="place" v="farm" />
		<tag k="ssr:stedsnr" v="831993" />
	</node>
	<node lat="61.12718333498306" lon="5.320497228224983" id="-40030">
		<tag k="name" v="Askevik" />
		<tag k="place" v="farm" />
		<tag k="ssr:stedsnr" v="830461" />
	</node>
	<node lat="61.22349166818843" lon="5.205149993842564" id="-40054">
		<tag k="name" v="Anglen" />
		<tag k="place" v="farm" />
		<tag k="ssr:stedsnr" v="838198" />
	</node>
	<node lat="61.17799147012609" lon="5.30652233490354" id="-40056">
		<tag k="fixme" v="consider place=hamlet" />
		<tag k="name" v="Sæsol" />
		<tag k="place" v="farm" />
		<tag k="ssr:stedsnr" v="858737" />
	</node>
	<node lat="61.175966663695775" lon="5.131722223449452" id="-40057">
		<tag k="alt_name" v="Storakerstølen" />
		<tag k="historic" v="shieling" />
		<tag k="name" v="Stølen" />
		<tag k="place" v="isolated_dwelling" />
		<tag k="ssr:stedsnr" v="858745" />
	</node>
	<node lat="61.178507497656746" lon="5.35112260612529" id="-40059">
		<tag k="fixme" v="consider place=hamlet" />
		<tag k="name" v="Sætre" />
		<tag k="place" v="farm" />
		<tag k="ssr:stedsnr" v="858751" />
	</node>
	<node lat="61.17966944133303" lon="5.343672215750762" id="-40060">
		<tag k="alt_name" v="Vetlelia" />
		<tag k="name" v="Veslelia" />
		<tag k="place" v="farm" />
		<tag k="ssr:stedsnr" v="858754" />
	</node>
	<node lat="61.130604162551734" lon="5.351144310274714" id="-40065">
		<tag k="alt_name" v="Heggebø" />
		<tag k="fixme" v="consider place=hamlet" />
		<tag k="name" v="Heggebøen" />
		<tag k="place" v="farm" />
		<tag k="ssr:stedsnr" v="859491" />
	</node>
	<node lat="61.18265910311357" lon="5.279943881121217" id="-40068">
		<tag k="alt_name" v="Lien" />
		<tag k="fixme" v="consider place=hamlet" />
		<tag k="name" v="Lia" />
		<tag k="place" v="farm" />
		<tag k="ssr:stedsnr" v="859670" />
	</node>
	<node lat="61.18804444094688" lon="5.388094445168401" id="-40070">
		<tag k="name" v="Haugane" />
		<tag k="place" v="farm" />
		<tag k="ssr:stedsnr" v="859674" />
	</node>
	<node lat="61.12138888691134" lon="5.324699999703441" id="-40074">
		<tag k="alt_name" v="Tjørneset" />
		<tag k="name" v="Tjørnes" />
		<tag k="place" v="farm" />
		<tag k="ssr:stedsnr" v="874065" />
	</node>
	<node lat="61.12426111363458" lon="5.329052771408159" id="-40076">
		<tag k="name" v="Koren" />
		<tag k="place" v="quarter" />
		<tag k="ssr:stedsnr" v="951550" />
	</node>
	<node lat="61.172786113535345" lon="5.389916673365142" id="-40095">
		<tag k="name" v="Solhaug" />
		<tag k="place" v="farm" />
		<tag k="ssr:stedsnr" v="953272" />
	</node>
	<node lat="61.21828888559667" lon="5.2348805594086745" id="-40102">
		<tag k="name" v="Florane" />
		<tag k="place" v="locality" />
		<tag k="ssr:stedsnr" v="953970" />
	</node>
</osm>
