<?xml version="1.0" encoding="UTF-8"?>
<osm version="0.6" generator="osmapis">
	<node lat="61.23249444641432" lon="5.1944416723021" id="-71215">
		<tag k="alt_name" v="Djupegjelet" />
		<tag k="name" v="Djupegilet" />
		<tag k="natural" v="valley" />
		<tag k="place" v="locality" />
		<tag k="ssr:stedsnr" v="9624" />
	</node>
	<node lat="61.173669443835365" lon="5.153577774163619" id="-71221">
		<tag k="fixme" v="consider natural=peak for the most distinct mountains in the district" />
		<tag k="name" v="Nevrestignova" />
		<tag k="natural" v="hill" />
		<tag k="place" v="locality" />
		<tag k="ssr:stedsnr" v="9705" />
	</node>
	<node lat="61.188736112082516" lon="5.100736114436249" id="-71233">
		<tag k="name" v="Trolleskaret" />
		<tag k="natural" v="valley" />
		<tag k="place" v="locality" />
		<tag k="ssr:stedsnr" v="42323" />
	</node>
	<node lat="61.129766665022984" lon="5.3655999923033475" id="-71234">
		<tag k="name" v="Maristova" />
		<tag k="place" v="locality" />
		<tag k="ssr:stedsnr" v="42487" />
	</node>
	<node lat="61.249944441535504" lon="5.247152786801643" id="-71235">
		<tag k="name" v="Røyrpallen" />
		<tag k="natural" v="hill" />
		<tag k="place" v="locality" />
		<tag k="ssr:stedsnr" v="43011" />
	</node>
	<node lat="61.12949722436294" lon="5.31301388176125" id="-71236">
		<tag k="name" v="Gadden" />
		<tag k="natural" v="hill" />
		<tag k="place" v="locality" />
		<tag k="ssr:stedsnr" v="43075" />
	</node>
	<node lat="61.18976389086697" lon="5.4062749946923985" id="-71239">
		<tag k="name" v="Kvilderberget" />
		<tag k="natural" v="hill" />
		<tag k="place" v="locality" />
		<tag k="ssr:stedsnr" v="43501" />
	</node>
	<node lat="61.089299999614816" lon="5.414411109638082" id="-71240">
		<tag k="name" v="Remane" />
		<tag k="natural" v="hill" />
		<tag k="place" v="locality" />
		<tag k="ssr:stedsnr" v="43531" />
	</node>
	<node lat="61.16602777437835" lon="5.431397217174799" id="-71241">
		<tag k="fixme" v="consider natural=peak for the most distinct mountains in the district" />
		<tag k="name" v="Storfjellet" />
		<tag k="natural" v="hill" />
		<tag k="place" v="locality" />
		<tag k="ssr:stedsnr" v="43576" />
	</node>
	<node lat="61.11846944380627" lon="5.4229305616487435" id="-71243">
		<tag k="name" v="Trollebotnen" />
		<tag k="natural" v="valley" />
		<tag k="place" v="locality" />
		<tag k="ssr:stedsnr" v="43926" />
	</node>
	<node lat="61.12584721915301" lon="5.434733324640457" id="-71244">
		<tag k="fixme" v="consider natural=peak for the most distinct mountains in the district" />
		<tag k="name" v="Knolten" />
		<tag k="natural" v="hill" />
		<tag k="place" v="locality" />
		<tag k="ssr:stedsnr" v="43931" />
	</node>
	<node lat="61.173827777187334" lon="5.22296666158536" id="-71249">
		<tag k="fixme" v="consider natural=peak for the most distinct mountains in the district" />
		<tag k="name" v="Gygrekjeften" />
		<tag k="natural" v="hill" />
		<tag k="place" v="locality" />
		<tag k="ssr:stedsnr" v="69736" />
	</node>
	<node lat="61.259099995788176" lon="5.184238881070659" id="-71250">
		<tag k="name" v="Vestdalen" />
		<tag k="natural" v="valley" />
		<tag k="place" v="locality" />
		<tag k="ssr:stedsnr" v="69740" />
	</node>
	<node lat="61.22392222514485" lon="5.265533333596511" id="-71255">
		<tag k="fixme" v="consider natural=peak for the most distinct mountains in the district" />
		<tag k="name" v="Middagsnova" />
		<tag k="natural" v="hill" />
		<tag k="place" v="locality" />
		<tag k="ssr:stedsnr" v="70640" />
	</node>
	<node lat="61.128474998045235" lon="5.440194439000183" id="-71257">
		<tag k="alt_name" v="Langheia" />
		<tag k="fixme" v="consider natural=peak for the most distinct mountains in the district" />
		<tag k="name" v="Langeheia" />
		<tag k="natural" v="hill" />
		<tag k="place" v="locality" />
		<tag k="ssr:stedsnr" v="70512" />
	</node>
	<node lat="61.136583331350785" lon="5.418202781424537" id="-71258">
		<tag k="name" v="Nibbehaugen" />
		<tag k="natural" v="hill" />
		<tag k="place" v="locality" />
		<tag k="ssr:stedsnr" v="70525" />
	</node>
	<node lat="61.09811944252605" lon="5.3814138930184905" id="-71259">
		<tag k="fixme" v="consider natural=peak for the most distinct mountains in the district" />
		<tag k="name" v="Skorskavlen" />
		<tag k="natural" v="hill" />
		<tag k="place" v="locality" />
		<tag k="ssr:stedsnr" v="70528" />
	</node>
	<node lat="61.18654166973334" lon="5.356838883819802" id="-71260">
		<tag k="fixme" v="consider natural=peak for the most distinct mountains in the district" />
		<tag k="name" v="Kletten" />
		<tag k="natural" v="hill" />
		<tag k="place" v="locality" />
		<tag k="ssr:stedsnr" v="70703" />
	</node>
	<node lat="61.232019446004145" lon="5.052624993075377" id="-71261">
		<tag k="alt_name" v="Kjøpstadfjell" />
		<tag k="fixme" v="consider natural=peak for the most distinct mountains in the district" />
		<tag k="name" v="Kjøpstadfjellet" />
		<tag k="natural" v="hill" />
		<tag k="place" v="locality" />
		<tag k="ssr:stedsnr" v="70888" />
	</node>
	<node lat="61.24541111122605" lon="5.1581583302263905" id="-71263">
		<tag k="name" v="Grønelia" />
		<tag k="natural" v="slope" />
		<tag k="place" v="locality" />
		<tag k="ssr:stedsnr" v="103024" />
	</node>
	<node lat="61.136669448085755" lon="5.389061107974773" id="-71264">
		<tag k="fixme" v="consider natural=peak for the most distinct mountains in the district" />
		<tag k="name" v="Kletten" />
		<tag k="natural" v="hill" />
		<tag k="place" v="locality" />
		<tag k="ssr:stedsnr" v="103403" />
	</node>
	<node lat="61.14293333194586" lon="5.369063886153512" id="-71265">
		<tag k="fixme" v="consider natural=peak for the most distinct mountains in the district" />
		<tag k="name" v="Bygdehaugen" />
		<tag k="natural" v="hill" />
		<tag k="place" v="locality" />
		<tag k="ssr:stedsnr" v="103509" />
	</node>
	<node lat="61.17598055869506" lon="5.037408332002165" id="-71267">
		<tag k="alt_name" v="Riset" />
		<tag k="name" v="Risa" />
		<tag k="natural" v="hill" />
		<tag k="place" v="locality" />
		<tag k="ssr:stedsnr" v="103801" />
	</node>
	<node lat="61.11800555717053" lon="5.260022231141899" id="-71268">
		<tag k="name" v="Tepphaugen" />
		<tag k="natural" v="hill" />
		<tag k="place" v="locality" />
		<tag k="ssr:stedsnr" v="104005" />
	</node>
	<node lat="61.13715277404821" lon="5.225144445356934" id="-71270">
		<tag k="alt_name" v="Sions - dal" />
		<tag k="name" v="Sions dal" />
		<tag k="natural" v="valley" />
		<tag k="place" v="locality" />
		<tag k="ssr:stedsnr" v="104020" />
	</node>
	<node lat="61.12635555156812" lon="5.319452779720497" id="-71272">
		<tag k="name" v="Orebakken" />
		<tag k="natural" v="slope" />
		<tag k="place" v="locality" />
		<tag k="ssr:stedsnr" v="104109" />
	</node>
	<node lat="61.19409722140854" lon="5.355325008101191" id="-71273">
		<tag k="name" v="Annebakken" />
		<tag k="natural" v="slope" />
		<tag k="place" v="locality" />
		<tag k="ssr:stedsnr" v="104177" />
	</node>
	<node lat="61.20365555873808" lon="5.372822220008053" id="-71274">
		<tag k="fixme" v="consider natural=peak for the most distinct mountains in the district" />
		<tag k="name" v="Raunelifjell" />
		<tag k="natural" v="hill" />
		<tag k="place" v="locality" />
		<tag k="ssr:stedsnr" v="104195" />
	</node>
	<node lat="61.07239166533875" lon="5.396044449788322" id="-71278">
		<tag k="name" v="Hyttebotnen" />
		<tag k="natural" v="valley" />
		<tag k="place" v="locality" />
		<tag k="ssr:stedsnr" v="104533" />
	</node>
	<node lat="61.206077773201905" lon="5.394663882950855" id="-71279">
		<tag k="name" v="Sandvassleitet" />
		<tag k="natural" v="valley" />
		<tag k="place" v="locality" />
		<tag k="ssr:stedsnr" v="104613" />
	</node>
	<node lat="61.260386107411165" lon="5.256200001324738" id="-71281">
		<tag k="alt_name" v="Grønhaugen" />
		<tag k="name" v="Grønehaugen" />
		<tag k="natural" v="hill" />
		<tag k="place" v="locality" />
		<tag k="ssr:stedsnr" v="250548" />
	</node>
	<node lat="61.26986111018301" lon="5.264719451606586" id="-71283">
		<tag k="alt_name" v="Drivafjellet" />
		<tag k="fixme" v="consider natural=peak for the most distinct mountains in the district" />
		<tag k="name" v="Drivarfjellet" />
		<tag k="natural" v="hill" />
		<tag k="place" v="locality" />
		<tag k="ssr:stedsnr" v="250554" />
	</node>
	<node lat="61.26183333578786" lon="5.107508328587721" id="-71284">
		<tag k="alt_name" v="Lyngskåra" />
		<tag k="name" v="Lyngskotet" />
		<tag k="natural" v="hill" />
		<tag k="place" v="locality" />
		<tag k="ssr:stedsnr" v="250584" />
	</node>
	<node lat="61.11841111533385" lon="5.376697220256896" id="-71286">
		<tag k="fixme" v="consider natural=peak for the most distinct mountains in the district" />
		<tag k="name" v="Sauesnyken" />
		<tag k="natural" v="hill" />
		<tag k="place" v="locality" />
		<tag k="ssr:stedsnr" v="251579" />
	</node>
	<node lat="61.22880555994879" lon="5.154258338054229" id="-71288">
		<tag k="fixme" v="consider natural=peak for the most distinct mountains in the district" />
		<tag k="name" v="Skavåsen" />
		<tag k="natural" v="hill" />
		<tag k="place" v="locality" />
		<tag k="ssr:stedsnr" v="251657" />
	</node>
	<node lat="61.23486388962942" lon="5.275500001924918" id="-71289">
		<tag k="alt_name" v="Liahei" />
		<tag k="fixme" v="consider natural=peak for the most distinct mountains in the district" />
		<tag k="name" v="Liaheia" />
		<tag k="natural" v="hill" />
		<tag k="place" v="locality" />
		<tag k="ssr:stedsnr" v="251661" />
	</node>
	<node lat="61.243791665601904" lon="5.214283324201548" id="-71297">
		<tag k="fixme" v="consider natural=peak for the most distinct mountains in the district" />
		<tag k="name" v="Jodikheia" />
		<tag k="natural" v="hill" />
		<tag k="place" v="locality" />
		<tag k="ssr:stedsnr" v="252397" />
	</node>
	<node lat="61.254699999336566" lon="5.157341675790863" id="-71300">
		<tag k="alt_name" v="Røyrlia" />
		<tag k="name" v="Rør-lia" />
		<tag k="natural" v="slope" />
		<tag k="place" v="locality" />
		<tag k="ssr:stedsnr" v="128538" />
	</node>
	<node lat="61.242158332952975" lon="5.270775006364712" id="-71302">
		<tag k="alt_name" v="Høydaldalen" />
		<tag k="name" v="Hydalsdalen" />
		<tag k="natural" v="valley" />
		<tag k="place" v="locality" />
		<tag k="ssr:stedsnr" v="252356" />
	</node>
	<node lat="61.193847219906736" lon="5.146941659891298" id="-71306">
		<tag k="fixme" v="consider natural=peak for the most distinct mountains in the district" />
		<tag k="name" v="Høgeheia" />
		<tag k="natural" v="hill" />
		<tag k="place" v="locality" />
		<tag k="ssr:stedsnr" v="129513" />
	</node>
	<node lat="61.13236944392721" lon="5.4112944365900475" id="-71309">
		<tag k="alt_name" v="Vefjellet" />
		<tag k="fixme" v="consider natural=peak for the most distinct mountains in the district" />
		<tag k="name" v="Vedfjellet" />
		<tag k="natural" v="hill" />
		<tag k="place" v="locality" />
		<tag k="ssr:stedsnr" v="130511" />
	</node>
	<node lat="61.107558335179654" lon="5.234244437088942" id="-71311">
		<tag k="name" v="Larshaugen" />
		<tag k="natural" v="hill" />
		<tag k="place" v="locality" />
		<tag k="ssr:stedsnr" v="130527" />
	</node>
	<node lat="61.23508610837751" lon="5.208655550755666" id="-71312">
		<tag k="fixme" v="consider natural=peak for the most distinct mountains in the district" />
		<tag k="name" v="Kvimsen" />
		<tag k="natural" v="hill" />
		<tag k="place" v="locality" />
		<tag k="ssr:stedsnr" v="130608" />
	</node>
	<node lat="61.22239999678968" lon="5.256972218526433" id="-71314">
		<tag k="fixme" v="consider natural=peak for the most distinct mountains in the district" />
		<tag k="name" v="Høgeheia" />
		<tag k="natural" v="hill" />
		<tag k="place" v="locality" />
		<tag k="ssr:stedsnr" v="130616" />
	</node>
	<node lat="61.18603889108339" lon="5.116186112497356" id="-71319">
		<tag k="fixme" v="consider natural=peak for the most distinct mountains in the district" />
		<tag k="name" v="Stokkedalsnova" />
		<tag k="natural" v="hill" />
		<tag k="place" v="locality" />
		<tag k="ssr:stedsnr" v="252633" />
	</node>
	<node lat="61.19566111518387" lon="5.118238890221102" id="-71324">
		<tag k="alt_name" v="Viebotten" />
		<tag k="name" v="Videbotnen" />
		<tag k="natural" v="valley" />
		<tag k="place" v="locality" />
		<tag k="ssr:stedsnr" v="252619" />
	</node>
	<node lat="61.16259166503497" lon="5.36358611093939" id="-71328">
		<tag k="alt_name" v="Rossevikheia;Råsvikheia" />
		<tag k="fixme" v="consider natural=peak for the most distinct mountains in the district" />
		<tag k="name" v="Rossvikheia" />
		<tag k="natural" v="hill" />
		<tag k="place" v="locality" />
		<tag k="ssr:stedsnr" v="252708" />
	</node>
	<node lat="61.14460555119187" lon="5.168944446498281" id="-71331">
		<tag k="fixme" v="consider natural=peak for the most distinct mountains in the district" />
		<tag k="name" v="Ørnaheia" />
		<tag k="natural" v="hill" />
		<tag k="place" v="locality" />
		<tag k="ssr:stedsnr" v="252722" />
	</node>
	<node lat="61.135433331052866" lon="5.247702785076713" id="-71341">
		<tag k="name" v="Brekkene" />
		<tag k="natural" v="slope" />
		<tag k="place" v="locality" />
		<tag k="ssr:stedsnr" v="164064" />
	</node>
	<node lat="61.13277221947763" lon="5.252819451700788" id="-71342">
		<tag k="fixme" v="consider natural=peak for the most distinct mountains in the district" />
		<tag k="name" v="Vetlingeåsen" />
		<tag k="natural" v="hill" />
		<tag k="place" v="locality" />
		<tag k="ssr:stedsnr" v="164067" />
	</node>
	<node lat="61.16713332942735" lon="5.238886113209076" id="-71343">
		<tag k="alt_name" v="Tverfjell" />
		<tag k="fixme" v="consider natural=peak for the most distinct mountains in the district" />
		<tag k="name" v="Tverfjellet" />
		<tag k="natural" v="hill" />
		<tag k="place" v="locality" />
		<tag k="ssr:stedsnr" v="164314" />
	</node>
	<node lat="61.17946388637156" lon="5.128841675139518" id="-71345">
		<tag k="name" v="Røyrdalen" />
		<tag k="natural" v="valley" />
		<tag k="place" v="locality" />
		<tag k="ssr:stedsnr" v="164380" />
	</node>
	<node lat="61.12106389032138" lon="5.286233336312582" id="-71346">
		<tag k="name" v="Norvadalen" />
		<tag k="natural" v="valley" />
		<tag k="place" v="locality" />
		<tag k="ssr:stedsnr" v="164514" />
	</node>
	<node lat="61.07571111180145" lon="5.401124998367026" id="-71348">
		<tag k="name" v="Høgstebekken" />
		<tag k="natural" v="hill" />
		<tag k="place" v="locality" />
		<tag k="ssr:stedsnr" v="164606" />
	</node>
	<node lat="61.15795000145995" lon="5.409919435328332" id="-71349">
		<tag k="name" v="Kvennhuslia" />
		<tag k="natural" v="slope" />
		<tag k="place" v="locality" />
		<tag k="ssr:stedsnr" v="164804" />
	</node>
	<node lat="61.224236112190084" lon="5.01230277133402" id="-71351">
		<tag k="name" v="Ospehaug" />
		<tag k="natural" v="hill" />
		<tag k="place" v="locality" />
		<tag k="ssr:stedsnr" v="164717" />
	</node>
	<node lat="61.152325003821204" lon="5.42171387984909" id="-71352">
		<tag k="name" v="Tordalen" />
		<tag k="natural" v="valley" />
		<tag k="place" v="locality" />
		<tag k="ssr:stedsnr" v="164783" />
	</node>
	<node lat="61.25499166799899" lon="5.146255554015221" id="-71355">
		<tag k="fixme" v="consider natural=peak for the most distinct mountains in the district" />
		<tag k="name" v="Teigesåta" />
		<tag k="natural" v="hill" />
		<tag k="place" v="locality" />
		<tag k="ssr:stedsnr" v="189513" />
	</node>
	<node lat="61.25649167001744" lon="5.205733341317616" id="-71356">
		<tag k="fixme" v="consider natural=peak for the most distinct mountains in the district" />
		<tag k="name" v="Ramsgrøheia" />
		<tag k="natural" v="hill" />
		<tag k="place" v="locality" />
		<tag k="ssr:stedsnr" v="189517" />
	</node>
	<node lat="61.22213888746282" lon="5.3565055596164814" id="-71359">
		<tag k="fixme" v="consider natural=peak for the most distinct mountains in the district" />
		<tag k="name" v="Nova" />
		<tag k="natural" v="hill" />
		<tag k="place" v="locality" />
		<tag k="ssr:stedsnr" v="191609" />
	</node>
	<node lat="61.20001944150793" lon="5.321811117692378" id="-71360">
		<tag k="fixme" v="consider natural=peak for the most distinct mountains in the district" />
		<tag k="name" v="Jamneheia" />
		<tag k="natural" v="hill" />
		<tag k="place" v="locality" />
		<tag k="ssr:stedsnr" v="191623" />
	</node>
	<node lat="61.26958611088089" lon="5.241986111067517" id="-71372">
		<tag k="name" v="Tjørnabotnen" />
		<tag k="natural" v="valley" />
		<tag k="place" v="locality" />
		<tag k="ssr:stedsnr" v="224131" />
	</node>
	<node lat="61.27271666745344" lon="5.237058325065878" id="-71373">
		<tag k="name" v="Venebotnen" />
		<tag k="natural" v="valley" />
		<tag k="place" v="locality" />
		<tag k="ssr:stedsnr" v="224134" />
	</node>
	<node lat="61.11114999632497" lon="5.395144438164866" id="-71374">
		<tag k="name" v="Krakelia" />
		<tag k="natural" v="slope" />
		<tag k="place" v="locality" />
		<tag k="ssr:stedsnr" v="224412" />
	</node>
	<node lat="61.20558055555423" lon="5.180313887962419" id="-71376">
		<tag k="name" v="Øenholmen" />
		<tag k="natural" v="hill" />
		<tag k="place" v="locality" />
		<tag k="ssr:stedsnr" v="224444" />
	</node>
	<node lat="61.140963889418266" lon="5.34233611503465" id="-71377">
		<tag k="name" v="Jota" />
		<tag k="natural" v="ridge" />
		<tag k="place" v="locality" />
		<tag k="ssr:stedsnr" v="224397" />
	</node>
	<node lat="61.11511944782178" lon="5.2454944357918425" id="-71378">
		<tag k="fixme" v="consider natural=peak for the most distinct mountains in the district" />
		<tag k="name" v="Purlihaugen" />
		<tag k="natural" v="hill" />
		<tag k="place" v="locality" />
		<tag k="ssr:stedsnr" v="225008" />
	</node>
	<node lat="61.10985555906336" lon="5.234277783418256" id="-71379">
		<tag k="name" v="Svenskehammaren" />
		<tag k="natural" v="hill" />
		<tag k="place" v="locality" />
		<tag k="ssr:stedsnr" v="225014" />
	</node>
	<node lat="61.18893055974927" lon="5.362838887128622" id="-71381">
		<tag k="name" v="Rånehaugane" />
		<tag k="natural" v="hill" />
		<tag k="place" v="locality" />
		<tag k="ssr:stedsnr" v="225191" />
	</node>
	<node lat="61.138805556808954" lon="5.31637778669514" id="-71382">
		<tag k="fixme" v="consider natural=peak for the most distinct mountains in the district" />
		<tag k="name" v="Høgeheia" />
		<tag k="natural" v="hill" />
		<tag k="place" v="locality" />
		<tag k="ssr:stedsnr" v="225083" />
	</node>
	<node lat="61.158863884806124" lon="5.305263897102011" id="-71383">
		<tag k="name" v="Heggelid" />
		<tag k="natural" v="slope" />
		<tag k="place" v="locality" />
		<tag k="ssr:stedsnr" v="225097" />
	</node>
	<node lat="61.12965833150815" lon="5.2934861092332355" id="-71384">
		<tag k="name" v="Jota" />
		<tag k="natural" v="gorge" />
		<tag k="ssr:stedsnr" v="225098" />
	</node>
	<node lat="61.23880833600694" lon="5.102049996653429" id="-71385">
		<tag k="name" v="Bjørnstad" />
		<tag k="natural" v="hill" />
		<tag k="place" v="locality" />
		<tag k="ssr:stedsnr" v="225236" />
	</node>
	<node lat="61.178583331745855" lon="5.364477778234566" id="-71386">
		<tag k="name" v="Aksedalen" />
		<tag k="natural" v="valley" />
		<tag k="place" v="locality" />
		<tag k="ssr:stedsnr" v="225486" />
	</node>
	<node lat="61.13243888513033" lon="5.344088898200284" id="-71387">
		<tag k="alt_name" v="Topphammaren" />
		<tag k="name" v="Troppehammaren" />
		<tag k="natural" v="hill" />
		<tag k="place" v="locality" />
		<tag k="ssr:stedsnr" v="225492" />
	</node>
	<node lat="61.11699721830836" lon="5.313213892350364" id="-71388">
		<tag k="name" v="Bukkehammaren" />
		<tag k="natural" v="hill" />
		<tag k="place" v="locality" />
		<tag k="ssr:stedsnr" v="225501" />
	</node>
	<node lat="61.267252778323844" lon="5.1130222192222705" id="-71389">
		<tag k="name" v="Laurangjelet" />
		<tag k="natural" v="valley" />
		<tag k="place" v="locality" />
		<tag k="ssr:stedsnr" v="225664" />
	</node>
	<node lat="61.17182222630341" lon="5.227891668568291" id="-71390">
		<tag k="name" v="Skredene" />
		<tag k="natural" v="valley" />
		<tag k="place" v="locality" />
		<tag k="ssr:stedsnr" v="225844" />
	</node>
	<node lat="61.22866944086607" lon="5.11531389662875" id="-71391">
		<tag k="name" v="Nyflåten" />
		<tag k="place" v="locality" />
		<tag k="ssr:stedsnr" v="225884" />
	</node>
	<node lat="61.221497222981654" lon="5.324638884134373" id="-71392">
		<tag k="name" v="Kyrkjehaugen" />
		<tag k="natural" v="hill" />
		<tag k="place" v="locality" />
		<tag k="ssr:stedsnr" v="225893" />
	</node>
	<node lat="61.10400277799841" lon="5.405788897386719" id="-71393">
		<tag k="name" v="Ribbesbotnen" />
		<tag k="natural" v="valley" />
		<tag k="place" v="locality" />
		<tag k="ssr:stedsnr" v="225897" />
	</node>
	<node lat="61.11454722107773" lon="5.424641673274044" id="-71395">
		<tag k="name" v="Høgelia" />
		<tag k="natural" v="slope" />
		<tag k="place" v="locality" />
		<tag k="ssr:stedsnr" v="225905" />
	</node>
	<node lat="61.14951666953863" lon="5.37570000437237" id="-71396">
		<tag k="name" v="Krikebotnen" />
		<tag k="natural" v="valley" />
		<tag k="place" v="locality" />
		<tag k="ssr:stedsnr" v="225936" />
	</node>
	<node lat="61.142252773758436" lon="5.465841660591708" id="-71400">
		<tag k="name" v="Lavikdalen" />
		<tag k="natural" v="valley" />
		<tag k="place" v="locality" />
		<tag k="ssr:stedsnr" v="268693" />
	</node>
	<node lat="61.174988885524805" lon="5.383513888449288" id="-71403">
		<tag k="name" v="Randa" />
		<tag k="natural" v="hill" />
		<tag k="place" v="locality" />
		<tag k="ssr:stedsnr" v="285287" />
	</node>
	<node lat="61.20231389322008" lon="5.101700001229263" id="-71405">
		<tag k="name" v="Blombotnen" />
		<tag k="natural" v="valley" />
		<tag k="place" v="locality" />
		<tag k="ssr:stedsnr" v="285327" />
	</node>
	<node lat="61.13953333192729" lon="5.387441669147006" id="-71406">
		<tag k="name" v="Einekleivane" />
		<tag k="natural" v="slope" />
		<tag k="place" v="locality" />
		<tag k="ssr:stedsnr" v="285386" />
	</node>
	<node lat="61.222463890367536" lon="5.29046111386564" id="-71408">
		<tag k="name" v="Kvernsteinsreset" />
		<tag k="natural" v="hill" />
		<tag k="place" v="locality" />
		<tag k="ssr:stedsnr" v="285883" />
	</node>
	<node lat="61.11650556009493" lon="5.270763891921832" id="-71409">
		<tag k="name" v="Eikedalen" />
		<tag k="natural" v="valley" />
		<tag k="place" v="locality" />
		<tag k="ssr:stedsnr" v="286037" />
	</node>
	<node lat="61.21621944874799" lon="5.236794451553441" id="-71410">
		<tag k="name" v="Kvilet" />
		<tag k="natural" v="slope" />
		<tag k="place" v="locality" />
		<tag k="ssr:stedsnr" v="285980" />
	</node>
	<node lat="61.203136110412785" lon="5.403988897584544" id="-71415">
		<tag k="fixme" v="consider natural=peak for the most distinct mountains in the district" />
		<tag k="name" v="Rånåsen" />
		<tag k="natural" v="hill" />
		<tag k="place" v="locality" />
		<tag k="ssr:stedsnr" v="286531" />
	</node>
	<node lat="61.09858888880774" lon="5.390658332657423" id="-71417">
		<tag k="name" v="Brendeheia" />
		<tag k="natural" v="hill" />
		<tag k="place" v="locality" />
		<tag k="ssr:stedsnr" v="286577" />
	</node>
	<node lat="61.098372225159075" lon="5.360000008530871" id="-71418">
		<tag k="name" v="Branden" />
		<tag k="natural" v="hill" />
		<tag k="place" v="locality" />
		<tag k="ssr:stedsnr" v="286583" />
	</node>
	<node lat="61.2605444489238" lon="5.244627783288995" id="-71426">
		<tag k="alt_name" v="Djupegjelet" />
		<tag k="name" v="Djupegilet" />
		<tag k="natural" v="valley" />
		<tag k="place" v="locality" />
		<tag k="ssr:stedsnr" v="311595" />
	</node>
	<node lat="61.262297219431574" lon="5.1180166580922855" id="-71427">
		<tag k="name" v="Endrekletten" />
		<tag k="natural" v="hill" />
		<tag k="place" v="locality" />
		<tag k="ssr:stedsnr" v="311615" />
	</node>
	<node lat="61.26566111275195" lon="5.212541675478093" id="-71428">
		<tag k="alt_name" v="Tempenova" />
		<tag k="fixme" v="consider natural=peak for the most distinct mountains in the district" />
		<tag k="name" v="Tempelet" />
		<tag k="natural" v="hill" />
		<tag k="place" v="locality" />
		<tag k="ssr:stedsnr" v="311616" />
	</node>
	<node lat="61.265513889809625" lon="5.192249994600426" id="-71429">
		<tag k="alt_name" v="Kråfjell" />
		<tag k="fixme" v="consider natural=peak for the most distinct mountains in the district" />
		<tag k="name" v="Kråfjellet" />
		<tag k="natural" v="hill" />
		<tag k="place" v="locality" />
		<tag k="ssr:stedsnr" v="311618" />
	</node>
	<node lat="61.271127773676284" lon="5.24192499414418" id="-71430">
		<tag k="alt_name" v="Tjørnaåsen" />
		<tag k="fixme" v="consider natural=peak for the most distinct mountains in the district" />
		<tag k="name" v="Tjørnåsen" />
		<tag k="natural" v="hill" />
		<tag k="place" v="locality" />
		<tag k="ssr:stedsnr" v="311626" />
	</node>
	<node lat="61.14334721796783" lon="5.180383329621739" id="-71434">
		<tag k="fixme" v="consider natural=peak for the most distinct mountains in the district" />
		<tag k="name" v="Steinheia" />
		<tag k="natural" v="hill" />
		<tag k="place" v="locality" />
		<tag k="ssr:stedsnr" v="312722" />
	</node>
	<node lat="61.22556388889476" lon="5.055000002417496" id="-71436">
		<tag k="alt_name" v="Skjenhamrane" />
		<tag k="fixme" v="consider natural=peak for the most distinct mountains in the district" />
		<tag k="name" v="Skinhamrane" />
		<tag k="natural" v="hill" />
		<tag k="place" v="locality" />
		<tag k="ssr:stedsnr" v="312914" />
	</node>
	<node lat="61.24718611373866" lon="5.276483328791236" id="-71443">
		<tag k="name" v="Blomdalen" />
		<tag k="natural" v="valley" />
		<tag k="place" v="locality" />
		<tag k="ssr:stedsnr" v="313379" />
	</node>
	<node lat="61.13495833152771" lon="5.211280555162419" id="-71451">
		<tag k="name" v="Kvitekollen" />
		<tag k="natural" v="hill" />
		<tag k="place" v="locality" />
		<tag k="ssr:stedsnr" v="467091" />
	</node>
	<node lat="61.15894722341814" lon="5.2184777860846445" id="-71452">
		<tag k="name" v="Kletten i Lifjorden" />
		<tag k="natural" v="hill" />
		<tag k="place" v="locality" />
		<tag k="ssr:stedsnr" v="467142" />
	</node>
	<node lat="61.16219444248929" lon="5.129608332430158" id="-71453">
		<tag k="fixme" v="consider natural=peak for the most distinct mountains in the district" />
		<tag k="name" v="Bjørneskora" />
		<tag k="natural" v="hill" />
		<tag k="place" v="locality" />
		<tag k="ssr:stedsnr" v="467228" />
	</node>
	<node lat="61.17169721796788" lon="5.3765222170797395" id="-71454">
		<tag k="name" v="Kleneide" />
		<tag k="natural" v="slope" />
		<tag k="place" v="locality" />
		<tag k="ssr:stedsnr" v="467298" />
	</node>
	<node lat="61.11287777683882" lon="5.37114444649559" id="-71455">
		<tag k="name" v="Gråbeinstigen" />
		<tag k="natural" v="slope" />
		<tag k="place" v="locality" />
		<tag k="ssr:stedsnr" v="467398" />
	</node>
	<node lat="61.18325555781512" lon="5.113636103204006" id="-71457">
		<tag k="fixme" v="consider natural=peak for the most distinct mountains in the district" />
		<tag k="name" v="Stinova" />
		<tag k="natural" v="hill" />
		<tag k="place" v="locality" />
		<tag k="ssr:stedsnr" v="467341" />
	</node>
	<node lat="61.13703611159465" lon="5.353488895160281" id="-71460">
		<tag k="name" v="Kletteskaret" />
		<tag k="natural" v="valley" />
		<tag k="place" v="locality" />
		<tag k="ssr:stedsnr" v="467496" />
	</node>
	<node lat="61.16674166455694" lon="5.257755556299557" id="-71461">
		<tag k="fixme" v="consider natural=peak for the most distinct mountains in the district" />
		<tag k="name" v="Haugane" />
		<tag k="natural" v="hill" />
		<tag k="place" v="locality" />
		<tag k="ssr:stedsnr" v="467531" />
	</node>
	<node lat="61.22866666289365" lon="5.141191674812563" id="-71463">
		<tag k="name" v="Heia" />
		<tag k="natural" v="hill" />
		<tag k="place" v="locality" />
		<tag k="ssr:stedsnr" v="467837" />
	</node>
	<node lat="61.1485472223164" lon="5.3717638826030685" id="-71464">
		<tag k="name" v="Krikane" />
		<tag k="natural" v="valley" />
		<tag k="place" v="locality" />
		<tag k="ssr:stedsnr" v="467942" />
	</node>
	<node lat="61.115791667161176" lon="5.263805555326279" id="-71465">
		<tag k="name" v="Klunkane" />
		<tag k="natural" v="hill" />
		<tag k="place" v="locality" />
		<tag k="ssr:stedsnr" v="468035" />
	</node>
	<node lat="61.219822224097626" lon="5.386300003326266" id="-71467">
		<tag k="name" v="Skrålia" />
		<tag k="natural" v="slope" />
		<tag k="place" v="locality" />
		<tag k="ssr:stedsnr" v="468156" />
	</node>
	<node lat="61.09491388586139" lon="5.421213897270868" id="-71468">
		<tag k="name" v="Nornipa" />
		<tag k="natural" v="hill" />
		<tag k="place" v="locality" />
		<tag k="ssr:stedsnr" v="468509" />
	</node>
	<node lat="61.09461389093507" lon="5.371094449664234" id="-71469">
		<tag k="fixme" v="consider natural=peak for the most distinct mountains in the district" />
		<tag k="name" v="Pletefjell" />
		<tag k="natural" v="hill" />
		<tag k="place" v="locality" />
		<tag k="ssr:stedsnr" v="468532" />
	</node>
	<node lat="61.17830555384788" lon="5.43712222013132" id="-71471">
		<tag k="fixme" v="consider natural=peak for the most distinct mountains in the district" />
		<tag k="name" v="Tverrfjellet" />
		<tag k="natural" v="hill" />
		<tag k="place" v="locality" />
		<tag k="ssr:stedsnr" v="468558" />
	</node>
	<node lat="61.15591388800871" lon="5.417611107332608" id="-71472">
		<tag k="name" v="Venelia" />
		<tag k="natural" v="slope" />
		<tag k="place" v="locality" />
		<tag k="ssr:stedsnr" v="468794" />
	</node>
	<node lat="61.16238055502498" lon="5.439866670203647" id="-71473">
		<tag k="name" v="Moldhelleren" />
		<tag k="natural" v="hill" />
		<tag k="place" v="locality" />
		<tag k="ssr:stedsnr" v="468900" />
	</node>
	<node lat="61.12313055964695" lon="5.400997222336624" id="-71474">
		<tag k="name" v="Ålehamrane" />
		<tag k="natural" v="hill" />
		<tag k="place" v="locality" />
		<tag k="ssr:stedsnr" v="468932" />
	</node>
	<node lat="61.12690277472931" lon="5.414391663911388" id="-71475">
		<tag k="name" v="Storebotnen" />
		<tag k="natural" v="valley" />
		<tag k="place" v="locality" />
		<tag k="ssr:stedsnr" v="468936" />
	</node>
	<node lat="61.242097224414266" lon="5.186883329968533" id="-71477">
		<tag k="name" v="Trøsdalen" />
		<tag k="natural" v="valley" />
		<tag k="place" v="locality" />
		<tag k="ssr:stedsnr" v="333697" />
	</node>
	<node lat="61.11237222236628" lon="5.382950001163563" id="-71480">
		<tag k="fixme" v="consider natural=peak for the most distinct mountains in the district" />
		<tag k="name" v="Varden" />
		<tag k="natural" v="hill" />
		<tag k="place" v="locality" />
		<tag k="ssr:stedsnr" v="345414" />
	</node>
	<node lat="61.198952777498796" lon="5.117741660075707" id="-71483">
		<tag k="fixme" v="consider natural=peak for the most distinct mountains in the district" />
		<tag k="name" v="Klypet" />
		<tag k="natural" v="hill" />
		<tag k="place" v="locality" />
		<tag k="ssr:stedsnr" v="345318" />
	</node>
	<node lat="61.18717499566822" lon="5.147655547923292" id="-71484">
		<tag k="name" v="Nerveliheia" />
		<tag k="natural" v="hill" />
		<tag k="place" v="locality" />
		<tag k="ssr:stedsnr" v="345321" />
	</node>
	<node lat="61.110944443747755" lon="5.231727775716554" id="-71485">
		<tag k="name" v="Buregjelet" />
		<tag k="natural" v="valley" />
		<tag k="place" v="locality" />
		<tag k="ssr:stedsnr" v="346008" />
	</node>
	<node lat="61.12377222601393" lon="5.381522222203545" id="-71487">
		<tag k="fixme" v="consider natural=peak for the most distinct mountains in the district" />
		<tag k="name" v="Aksla" />
		<tag k="natural" v="hill" />
		<tag k="place" v="locality" />
		<tag k="ssr:stedsnr" v="346416" />
	</node>
	<node lat="61.26354444144386" lon="5.115352785935277" id="-71489">
		<tag k="name" v="Haugeberget" />
		<tag k="natural" v="hill" />
		<tag k="place" v="locality" />
		<tag k="ssr:stedsnr" v="346659" />
	</node>
	<node lat="61.27031944365687" lon="5.118988883798723" id="-71490">
		<tag k="fixme" v="consider natural=peak for the most distinct mountains in the district" />
		<tag k="name" v="Brukeliskolten" />
		<tag k="natural" v="hill" />
		<tag k="place" v="locality" />
		<tag k="ssr:stedsnr" v="346662" />
	</node>
	<node lat="61.10518888506043" lon="5.415222226778404" id="-71491">
		<tag k="name" v="Magnetjørndalen" />
		<tag k="natural" v="valley" />
		<tag k="place" v="locality" />
		<tag k="ssr:stedsnr" v="346910" />
	</node>
	<node lat="61.27213055980745" lon="5.226849994957351" id="-71497">
		<tag k="name" v="Setane" />
		<tag k="natural" v="hill" />
		<tag k="place" v="locality" />
		<tag k="ssr:stedsnr" v="372602" />
	</node>
	<node lat="61.18064722287709" lon="5.084752780619121" id="-71498">
		<tag k="fixme" v="consider natural=peak for the most distinct mountains in the district" />
		<tag k="name" v="Nonheia" />
		<tag k="natural" v="hill" />
		<tag k="place" v="locality" />
		<tag k="ssr:stedsnr" v="373021" />
	</node>
	<node lat="61.19533055873315" lon="5.444358327849501" id="-71501">
		<tag k="fixme" v="consider natural=peak for the most distinct mountains in the district" />
		<tag k="name" v="Kvitefjellet" />
		<tag k="natural" v="hill" />
		<tag k="place" v="locality" />
		<tag k="ssr:stedsnr" v="373702" />
	</node>
	<node lat="61.17350826344432" lon="5.194153148431753" id="-71504">
		<tag k="alt_name" v="Fløfjellet" />
		<tag k="fixme" v="consider natural=peak for the most distinct mountains in the district" />
		<tag k="name" v="Fløyfjellet" />
		<tag k="natural" v="hill" />
		<tag k="place" v="locality" />
		<tag k="ssr:stedsnr" v="373720" />
	</node>
	<node lat="61.202722224631266" lon="5.445872214125245" id="-71508">
		<tag k="alt_name" v="Osdalsreset" />
		<tag k="fixme" v="consider natural=peak for the most distinct mountains in the district" />
		<tag k="name" v="Osgavlen" />
		<tag k="natural" v="hill" />
		<tag k="place" v="locality" />
		<tag k="ssr:stedsnr" v="373700" />
	</node>
	<node lat="61.12897777584414" lon="5.21939999518165" id="-71513">
		<tag k="name" v="Klubben" />
		<tag k="natural" v="hill" />
		<tag k="place" v="locality" />
		<tag k="ssr:stedsnr" v="406091" />
	</node>
	<node lat="61.156427782177786" lon="5.139491663374213" id="-71514">
		<tag k="name" v="Potensteinbakken" />
		<tag k="natural" v="slope" />
		<tag k="place" v="locality" />
		<tag k="ssr:stedsnr" v="406258" />
	</node>
	<node lat="61.20298611427011" lon="5.114405559368447" id="-71515">
		<tag k="name" v="Åsmulpallen" />
		<tag k="natural" v="hill" />
		<tag k="place" v="locality" />
		<tag k="ssr:stedsnr" v="406341" />
	</node>
	<node lat="61.194247218048076" lon="5.120113897420733" id="-71516">
		<tag k="name" v="Joekumheia" />
		<tag k="natural" v="hill" />
		<tag k="place" v="locality" />
		<tag k="ssr:stedsnr" v="406348" />
	</node>
	<node lat="61.160325003962804" lon="5.251750001546756" id="-71517">
		<tag k="name" v="Vippe" />
		<tag k="natural" v="valley" />
		<tag k="place" v="locality" />
		<tag k="ssr:stedsnr" v="406294" />
	</node>
	<node lat="61.11412222113051" lon="5.242236115058634" id="-71518">
		<tag k="name" v="Heldersklipphaugen" />
		<tag k="natural" v="hill" />
		<tag k="place" v="locality" />
		<tag k="ssr:stedsnr" v="407003" />
	</node>
	<node lat="61.26640833258638" lon="5.219666671834794" id="-71520">
		<tag k="name" v="Liaheia" />
		<tag k="natural" v="hill" />
		<tag k="place" v="locality" />
		<tag k="ssr:stedsnr" v="407113" />
	</node>
	<node lat="61.19144444694305" lon="5.373458326459817" id="-71523">
		<tag k="fixme" v="consider natural=peak for the most distinct mountains in the district" />
		<tag k="name" v="Halsefjell" />
		<tag k="natural" v="hill" />
		<tag k="place" v="locality" />
		<tag k="ssr:stedsnr" v="407197" />
	</node>
	<node lat="61.19307500109548" lon="5.3695000026227735" id="-71524">
		<tag k="name" v="Klovane" />
		<tag k="natural" v="hill" />
		<tag k="place" v="locality" />
		<tag k="ssr:stedsnr" v="407201" />
	</node>
	<node lat="61.1812388861989" lon="5.342041670548977" id="-71526">
		<tag k="fixme" v="consider natural=peak for the most distinct mountains in the district" />
		<tag k="name" v="Høgehaugen" />
		<tag k="natural" v="hill" />
		<tag k="place" v="locality" />
		<tag k="ssr:stedsnr" v="407497" />
	</node>
	<node lat="61.08479721798829" lon="5.401975004578529" id="-71527">
		<tag k="name" v="Storeligjerdet" />
		<tag k="place" v="locality" />
		<tag k="ssr:stedsnr" v="407605" />
	</node>
	<node lat="61.08779722537887" lon="5.386161115216672" id="-71528">
		<tag k="fixme" v="consider natural=peak for the most distinct mountains in the district" />
		<tag k="name" v="Illefjellet" />
		<tag k="natural" v="hill" />
		<tag k="place" v="locality" />
		<tag k="ssr:stedsnr" v="407616" />
	</node>
	<node lat="61.08961388803836" lon="5.4165916666463145" id="-71529">
		<tag k="fixme" v="consider natural=peak for the most distinct mountains in the district" />
		<tag k="name" v="Sørenipa" />
		<tag k="natural" v="hill" />
		<tag k="place" v="locality" />
		<tag k="ssr:stedsnr" v="407590" />
	</node>
	<node lat="61.095922218024576" lon="5.406936116914434" id="-71530">
		<tag k="name" v="Omnen" />
		<tag k="natural" v="valley" />
		<tag k="place" v="locality" />
		<tag k="ssr:stedsnr" v="407599" />
	</node>
	<node lat="61.2208944478427" lon="5.020266674624899" id="-71531">
		<tag k="name" v="Freklevågen" />
		<tag k="natural" v="hill" />
		<tag k="place" v="locality" />
		<tag k="ssr:stedsnr" v="407714" />
	</node>
	<node lat="61.226641667436965" lon="5.121758341392597" id="-71535">
		<tag k="name" v="Stegane" />
		<tag k="natural" v="hill" />
		<tag k="place" v="locality" />
		<tag k="ssr:stedsnr" v="407902" />
	</node>
	<node lat="61.21335555747952" lon="5.255961107583406" id="-71536">
		<tag k="name" v="Illekleiva" />
		<tag k="natural" v="slope" />
		<tag k="place" v="locality" />
		<tag k="ssr:stedsnr" v="407942" />
	</node>
	<node lat="61.228019443834164" lon="5.147577781882587" id="-71537">
		<tag k="fixme" v="consider natural=peak for the most distinct mountains in the district" />
		<tag k="name" v="Gjerdenova" />
		<tag k="natural" v="hill" />
		<tag k="place" v="locality" />
		<tag k="ssr:stedsnr" v="407990" />
	</node>
	<node lat="61.25243610854295" lon="5.199525003666286" id="-71544">
		<tag k="fixme" v="consider natural=peak for the most distinct mountains in the district" />
		<tag k="name" v="Stølsliheia" />
		<tag k="natural" v="hill" />
		<tag k="place" v="locality" />
		<tag k="ssr:stedsnr" v="432534" />
	</node>
	<node lat="61.25450833619217" lon="5.172836117620945" id="-71545">
		<tag k="alt_name" v="Olehaugen" />
		<tag k="name" v="Olshaugen" />
		<tag k="natural" v="hill" />
		<tag k="place" v="locality" />
		<tag k="ssr:stedsnr" v="432535" />
	</node>
	<node lat="61.17898611035981" lon="5.0634555480160115" id="-71547">
		<tag k="alt_name" v="Stongafjell" />
		<tag k="fixme" v="consider natural=peak for the most distinct mountains in the district" />
		<tag k="name" v="Stonga" />
		<tag k="natural" v="hill" />
		<tag k="place" v="locality" />
		<tag k="ssr:stedsnr" v="434022" />
	</node>
	<node lat="61.1242055517332" lon="5.378966660040063" id="-71552">
		<tag k="name" v="Liane" />
		<tag k="natural" v="slope" />
		<tag k="place" v="locality" />
		<tag k="ssr:stedsnr" v="434494" />
	</node>
	<node lat="61.23026110946876" lon="5.042588893588122" id="-71556">
		<tag k="name" v="Risknolten" />
		<tag k="natural" v="hill" />
		<tag k="place" v="locality" />
		<tag k="ssr:stedsnr" v="434879" />
	</node>
	<node lat="61.24224722610198" lon="5.055930560069158" id="-71559">
		<tag k="alt_name" v="Nordre Kletten;Vestre Kletten" />
		<tag k="fixme" v="consider natural=peak for the most distinct mountains in the district" />
		<tag k="name" v="Klettane" />
		<tag k="natural" v="hill" />
		<tag k="place" v="locality" />
		<tag k="ssr:stedsnr" v="434998" />
	</node>
	<node lat="61.253955559907055" lon="5.272730555532524" id="-71561">
		<tag k="alt_name" v="Dyrefjell" />
		<tag k="fixme" v="consider natural=peak for the most distinct mountains in the district" />
		<tag k="name" v="Dyrefjellet" />
		<tag k="natural" v="hill" />
		<tag k="place" v="locality" />
		<tag k="ssr:stedsnr" v="493529" />
	</node>
	<node lat="61.25134166886639" lon="5.144802775829902" id="-71563">
		<tag k="name" v="Svardalen" />
		<tag k="natural" v="valley" />
		<tag k="place" v="locality" />
		<tag k="ssr:stedsnr" v="493553" />
	</node>
	<node lat="61.26357777638157" lon="5.131711110200344" id="-71564">
		<tag k="name" v="Såtedalen" />
		<tag k="natural" v="valley" />
		<tag k="place" v="locality" />
		<tag k="ssr:stedsnr" v="493584" />
	</node>
	<node lat="61.0891999983118" lon="5.3920500044325586" id="-71568">
		<tag k="fixme" v="consider natural=peak for the most distinct mountains in the district" />
		<tag k="name" v="Bjellelifjellet" />
		<tag k="natural" v="hill" />
		<tag k="place" v="locality" />
		<tag k="ssr:stedsnr" v="494544" />
	</node>
	<node lat="61.22854999973382" lon="5.130497216193407" id="-71569">
		<tag k="alt_name" v="Kvamsnov" />
		<tag k="fixme" v="consider natural=peak for the most distinct mountains in the district" />
		<tag k="name" v="Kvamsnova" />
		<tag k="natural" v="hill" />
		<tag k="place" v="locality" />
		<tag k="ssr:stedsnr" v="494594" />
	</node>
	<node lat="61.22689166475653" lon="5.118097220561072" id="-71570">
		<tag k="fixme" v="consider natural=peak for the most distinct mountains in the district" />
		<tag k="name" v="Eidenova" />
		<tag k="natural" v="hill" />
		<tag k="place" v="locality" />
		<tag k="ssr:stedsnr" v="494595" />
	</node>
	<node lat="61.18243333770247" lon="5.419436106587622" id="-71572">
		<tag k="fixme" v="consider natural=peak for the most distinct mountains in the district" />
		<tag k="name" v="Stølsfjellet" />
		<tag k="natural" v="hill" />
		<tag k="place" v="locality" />
		<tag k="ssr:stedsnr" v="494683" />
	</node>
	<node lat="61.164936115355395" lon="5.150527783984702" id="-71573">
		<tag k="fixme" v="consider natural=peak for the most distinct mountains in the district" />
		<tag k="name" v="Lifjell" />
		<tag k="natural" v="hill" />
		<tag k="place" v="locality" />
		<tag k="ssr:stedsnr" v="494692" />
	</node>
	<node lat="61.220336109542615" lon="5.258058331097242" id="-71575">
		<tag k="fixme" v="consider natural=peak for the most distinct mountains in the district" />
		<tag k="name" v="Smilleheia" />
		<tag k="natural" v="hill" />
		<tag k="place" v="locality" />
		<tag k="ssr:stedsnr" v="494616" />
	</node>
	<node lat="61.21691389248297" lon="5.287222216297623" id="-71577">
		<tag k="alt_name" v="Brendsheia" />
		<tag k="fixme" v="consider natural=peak for the most distinct mountains in the district" />
		<tag k="name" v="Brendeheia" />
		<tag k="natural" v="hill" />
		<tag k="place" v="locality" />
		<tag k="ssr:stedsnr" v="494632" />
	</node>
	<node lat="61.1570388870912" lon="5.291711103746143" id="-71579">
		<tag k="name" v="Klypet" />
		<tag k="natural" v="valley" />
		<tag k="place" v="locality" />
		<tag k="ssr:stedsnr" v="467070" />
	</node>
	<node lat="61.20214444573708" lon="5.418666668019925" id="-71585">
		<tag k="name" v="Rekebotn" />
		<tag k="natural" v="valley" />
		<tag k="place" v="locality" />
		<tag k="ssr:stedsnr" v="468480" />
	</node>
	<node lat="61.20874999826338" lon="5.392580551886661" id="-71586">
		<tag k="name" v="Eliasplassen" />
		<tag k="natural" v="hill" />
		<tag k="place" v="locality" />
		<tag k="ssr:stedsnr" v="468602" />
	</node>
	<node lat="61.277795552182205" lon="5.103605958692774" id="-71589">
		<tag k="fixme" v="consider natural=peak for the most distinct mountains in the district" />
		<tag k="name" v="Grønåsen" />
		<tag k="natural" v="hill" />
		<tag k="place" v="locality" />
		<tag k="ssr:stedsnr" v="675427" />
	</node>
	<node lat="61.16601388726198" lon="5.418577785051459" id="-71590">
		<tag k="name" v="Skåra" />
		<tag k="natural" v="hill" />
		<tag k="place" v="locality" />
		<tag k="ssr:stedsnr" v="468904" />
	</node>
	<node lat="61.227874997011476" lon="5.162475001002949" id="-71592">
		<tag k="name" v="Flata" />
		<tag k="place" v="locality" />
		<tag k="ssr:stedsnr" v="468982" />
	</node>
	<node lat="61.25363333717562" lon="5.164877784208801" id="-71594">
		<tag k="name" v="Lybakknatten" />
		<tag k="natural" v="hill" />
		<tag k="place" v="locality" />
		<tag k="ssr:stedsnr" v="675562" />
	</node>
	<node lat="61.27732222643583" lon="5.23575000752913" id="-71595">
		<tag k="alt_name" v="Halskardholten" />
		<tag k="fixme" v="consider natural=peak for the most distinct mountains in the district" />
		<tag k="name" v="Kaldskardholten" />
		<tag k="natural" v="hill" />
		<tag k="place" v="locality" />
		<tag k="ssr:stedsnr" v="675615" />
	</node>
	<node lat="61.2291888850748" lon="5.299272219629613" id="-71601">
		<tag k="fixme" v="consider natural=peak for the most distinct mountains in the district" />
		<tag k="name" v="Grønskorknolten" />
		<tag k="natural" v="hill" />
		<tag k="place" v="locality" />
		<tag k="ssr:stedsnr" v="676631" />
	</node>
	<node lat="61.23075826858628" lon="4.979425389269974" id="-71605">
		<tag k="name" v="Haugen" />
		<tag k="natural" v="hill" />
		<tag k="place" v="locality" />
		<tag k="ssr:stedsnr" v="676872" />
	</node>
	<node lat="61.23523889326344" lon="5.180569450790408" id="-71609">
		<tag k="alt_name" v="Ulvikåsen" />
		<tag k="fixme" v="consider natural=peak for the most distinct mountains in the district" />
		<tag k="name" v="Ulvvikåsen" />
		<tag k="natural" v="hill" />
		<tag k="place" v="locality" />
		<tag k="ssr:stedsnr" v="677360" />
	</node>
	<node lat="61.16169444767678" lon="5.254630554317423" id="-71618">
		<tag k="alt_name" v="Kvitnipa" />
		<tag k="fixme" v="consider natural=peak for the most distinct mountains in the district" />
		<tag k="name" v="Kvitenipa" />
		<tag k="natural" v="hill" />
		<tag k="place" v="locality" />
		<tag k="ssr:stedsnr" v="494715" />
	</node>
	<node lat="61.24859444320214" lon="5.118552774505088" id="-71619">
		<tag k="fixme" v="consider natural=peak for the most distinct mountains in the district" />
		<tag k="name" v="Blåfjellet" />
		<tag k="natural" v="hill" />
		<tag k="place" v="locality" />
		<tag k="ssr:stedsnr" v="495423" />
	</node>
	<node lat="61.1446027778532" lon="5.2051138978737015" id="-71623">
		<tag k="name" v="Hola" />
		<tag k="natural" v="valley" />
		<tag k="place" v="locality" />
		<tag k="ssr:stedsnr" v="524441" />
	</node>
	<node lat="61.153477774766294" lon="5.396191666081216" id="-71625">
		<tag k="fixme" v="consider natural=peak for the most distinct mountains in the district" />
		<tag k="name" v="Kyrkjeåsen" />
		<tag k="natural" v="hill" />
		<tag k="place" v="locality" />
		<tag k="ssr:stedsnr" v="528004" />
	</node>
	<node lat="61.15285555335913" lon="5.334119437773953" id="-71627">
		<tag k="name" v="Vardeheia" />
		<tag k="natural" v="hill" />
		<tag k="place" v="locality" />
		<tag k="ssr:stedsnr" v="528202" />
	</node>
	<node lat="61.188605558107376" lon="5.3466888826983165" id="-71628">
		<tag k="fixme" v="consider natural=peak for the most distinct mountains in the district" />
		<tag k="name" v="Bautifjellet" />
		<tag k="natural" v="hill" />
		<tag k="place" v="locality" />
		<tag k="ssr:stedsnr" v="528172" />
	</node>
	<node lat="61.18376944379283" lon="5.3767083369473765" id="-71629">
		<tag k="alt_name" v="Systaddal" />
		<tag k="name" v="Systaddalen" />
		<tag k="natural" v="valley" />
		<tag k="place" v="locality" />
		<tag k="ssr:stedsnr" v="528313" />
	</node>
	<node lat="61.17891666628857" lon="5.37551110390133" id="-71630">
		<tag k="name" v="Hundedalen" />
		<tag k="natural" v="valley" />
		<tag k="place" v="locality" />
		<tag k="ssr:stedsnr" v="528315" />
	</node>
	<node lat="61.167688888915514" lon="5.208397221421816" id="-71631">
		<tag k="name" v="Bleikelia" />
		<tag k="natural" v="slope" />
		<tag k="place" v="locality" />
		<tag k="ssr:stedsnr" v="528278" />
	</node>
	<node lat="61.158197219471056" lon="5.22605833377983" id="-71632">
		<tag k="name" v="Vasshaugane" />
		<tag k="natural" v="hill" />
		<tag k="place" v="locality" />
		<tag k="ssr:stedsnr" v="528282" />
	</node>
	<node lat="61.25663610899172" lon="5.115522231197314" id="-71635">
		<tag k="fixme" v="consider natural=peak for the most distinct mountains in the district" />
		<tag k="name" v="Høgenova" />
		<tag k="natural" v="hill" />
		<tag k="place" v="locality" />
		<tag k="ssr:stedsnr" v="528680" />
	</node>
	<node lat="61.09464721908398" lon="5.393800004059922" id="-71638">
		<tag k="name" v="Vasshaugen" />
		<tag k="natural" v="hill" />
		<tag k="place" v="locality" />
		<tag k="ssr:stedsnr" v="528580" />
	</node>
	<node lat="61.13683610770312" lon="5.414544438396367" id="-71641">
		<tag k="name" v="Nibbehaugheia" />
		<tag k="natural" v="hill" />
		<tag k="place" v="locality" />
		<tag k="ssr:stedsnr" v="528978" />
	</node>
	<node lat="61.24565000078231" lon="5.194658332887341" id="-71649">
		<tag k="alt_name" v="Skarliknolten" />
		<tag k="fixme" v="consider natural=peak for the most distinct mountains in the district" />
		<tag k="name" v="Skardliknolten" />
		<tag k="natural" v="hill" />
		<tag k="place" v="locality" />
		<tag k="ssr:stedsnr" v="555372" />
	</node>
	<node lat="61.24696944050382" lon="5.184705550774011" id="-71650">
		<tag k="fixme" v="consider natural=peak for the most distinct mountains in the district" />
		<tag k="name" v="Lyngfjellet" />
		<tag k="natural" v="hill" />
		<tag k="place" v="locality" />
		<tag k="ssr:stedsnr" v="555374" />
	</node>
	<node lat="61.07173610807063" lon="5.393927783867862" id="-71659">
		<tag k="name" v="Raudberg" />
		<tag k="natural" v="hill" />
		<tag k="place" v="locality" />
		<tag k="ssr:stedsnr" v="586139" />
	</node>
	<node lat="61.192258335941744" lon="5.106374990623174" id="-71662">
		<tag k="name" v="Skora" />
		<tag k="place" v="locality" />
		<tag k="ssr:stedsnr" v="588315" />
	</node>
	<node lat="61.1939277761249" lon="5.126836102506862" id="-71663">
		<tag k="name" v="Selheiane" />
		<tag k="natural" v="hill" />
		<tag k="place" v="locality" />
		<tag k="ssr:stedsnr" v="588321" />
	</node>
	<node lat="61.158672223308606" lon="5.259147223448887" id="-71664">
		<tag k="name" v="Grønene" />
		<tag k="natural" v="hill" />
		<tag k="place" v="locality" />
		<tag k="ssr:stedsnr" v="588257" />
	</node>
	<node lat="61.119044447079645" lon="5.380361104704802" id="-71665">
		<tag k="name" v="Svoen" />
		<tag k="natural" v="hill" />
		<tag k="place" v="locality" />
		<tag k="ssr:stedsnr" v="588410" />
	</node>
	<node lat="61.13451944324872" lon="5.352616672801645" id="-71666">
		<tag k="name" v="Vikadalen" />
		<tag k="natural" v="valley" />
		<tag k="place" v="locality" />
		<tag k="ssr:stedsnr" v="588448" />
	</node>
	<node lat="61.13985555415765" lon="5.351755560858252" id="-71667">
		<tag k="fixme" v="consider natural=peak for the most distinct mountains in the district" />
		<tag k="name" v="Fløyen" />
		<tag k="natural" v="hill" />
		<tag k="place" v="locality" />
		<tag k="ssr:stedsnr" v="588468" />
	</node>
	<node lat="61.149280558584245" lon="5.362649996872062" id="-71669">
		<tag k="name" v="Gaupebykset" />
		<tag k="natural" v="hill" />
		<tag k="place" v="locality" />
		<tag k="ssr:stedsnr" v="588953" />
	</node>
	<node lat="61.11099721783914" lon="5.236216658217454" id="-71671">
		<tag k="name" v="Raplehaugen" />
		<tag k="natural" v="hill" />
		<tag k="place" v="locality" />
		<tag k="ssr:stedsnr" v="589020" />
	</node>
	<node lat="61.139938887759534" lon="5.243522225147704" id="-71672">
		<tag k="name" v="Ørnereiret" />
		<tag k="natural" v="hill" />
		<tag k="place" v="locality" />
		<tag k="ssr:stedsnr" v="589059" />
	</node>
	<node lat="61.15070278206471" lon="5.330974994433806" id="-71674">
		<tag k="name" v="Brendelia" />
		<tag k="natural" v="slope" />
		<tag k="place" v="locality" />
		<tag k="ssr:stedsnr" v="589209" />
	</node>
	<node lat="61.15588055142416" lon="5.324355562504907" id="-71676">
		<tag k="name" v="Ryssjeåsen" />
		<tag k="natural" v="hill" />
		<tag k="place" v="locality" />
		<tag k="ssr:stedsnr" v="589159" />
	</node>
	<node lat="61.24423055842369" lon="5.1086277826991" id="-71677">
		<tag k="name" v="Kleiva" />
		<tag k="natural" v="hill" />
		<tag k="place" v="locality" />
		<tag k="ssr:stedsnr" v="589254" />
	</node>
	<node lat="61.19527222496325" lon="5.420647219114345" id="-71680">
		<tag k="fixme" v="consider natural=peak for the most distinct mountains in the district" />
		<tag k="name" v="Kvitefjellsknolten" />
		<tag k="natural" v="hill" />
		<tag k="place" v="locality" />
		<tag k="ssr:stedsnr" v="589607" />
	</node>
	<node lat="61.19675833745114" lon="5.431702773137354" id="-71681">
		<tag k="name" v="Betnaheia" />
		<tag k="natural" v="hill" />
		<tag k="place" v="locality" />
		<tag k="ssr:stedsnr" v="589611" />
	</node>
	<node lat="61.25845000167213" lon="5.238791669430988" id="-71685">
		<tag k="fixme" v="consider natural=peak for the most distinct mountains in the district" />
		<tag k="name" v="Ramsgrønova" />
		<tag k="natural" v="hill" />
		<tag k="place" v="locality" />
		<tag k="ssr:stedsnr" v="614574" />
	</node>
	<node lat="61.15137222365181" lon="5.261008338474027" id="-71689">
		<tag k="name" v="Botnen" />
		<tag k="natural" v="valley" />
		<tag k="place" v="locality" />
		<tag k="ssr:stedsnr" v="615499" />
	</node>
	<node lat="61.23276666843241" lon="5.248355547990955" id="-71692">
		<tag k="name" v="Stuvane" />
		<tag k="natural" v="hill" />
		<tag k="place" v="locality" />
		<tag k="ssr:stedsnr" v="615614" />
	</node>
	<node lat="61.174411112660536" lon="5.435886114972529" id="-71698">
		<tag k="fixme" v="consider natural=peak for the most distinct mountains in the district" />
		<tag k="name" v="Robba" />
		<tag k="natural" v="hill" />
		<tag k="place" v="locality" />
		<tag k="ssr:stedsnr" v="615718" />
	</node>
	<node lat="61.13063055338982" lon="5.240024991946782" id="-71702">
		<tag k="name" v="Gjerdet" />
		<tag k="place" v="locality" />
		<tag k="ssr:stedsnr" v="616504" />
	</node>
	<node lat="61.11076666289333" lon="5.388605548198476" id="-71710">
		<tag k="name" v="Kleivane" />
		<tag k="natural" v="valley" />
		<tag k="place" v="locality" />
		<tag k="ssr:stedsnr" v="648420" />
	</node>
	<node lat="61.15830555595714" lon="5.173616663019335" id="-71711">
		<tag k="fixme" v="consider natural=peak for the most distinct mountains in the district" />
		<tag k="name" v="Furefjellet" />
		<tag k="natural" v="hill" />
		<tag k="place" v="locality" />
		<tag k="ssr:stedsnr" v="648193" />
	</node>
	<node lat="61.168636112136056" lon="5.191836102141501" id="-71713">
		<tag k="name" v="Flatene" />
		<tag k="place" v="locality" />
		<tag k="ssr:stedsnr" v="649236" />
	</node>
	<node lat="61.228691665973265" lon="5.33934721744324" id="-71714">
		<tag k="name" v="Skorsliene" />
		<tag k="natural" v="slope" />
		<tag k="place" v="locality" />
		<tag k="ssr:stedsnr" v="649246" />
	</node>
	<node lat="61.15282499888776" lon="5.2553749972909705" id="-71715">
		<tag k="name" v="Øvre Raudeberget" />
		<tag k="natural" v="hill" />
		<tag k="place" v="locality" />
		<tag k="ssr:stedsnr" v="649247" />
	</node>
	<node lat="61.180166663784284" lon="5.3761722178606925" id="-71716">
		<tag k="fixme" v="consider natural=peak for the most distinct mountains in the district" />
		<tag k="name" v="Hundedalsåsen" />
		<tag k="natural" v="hill" />
		<tag k="place" v="locality" />
		<tag k="ssr:stedsnr" v="649286" />
	</node>
	<node lat="61.177061112726754" lon="5.379511110023733" id="-71717">
		<tag k="name" v="Ranen" />
		<tag k="natural" v="hill" />
		<tag k="place" v="locality" />
		<tag k="ssr:stedsnr" v="649296" />
	</node>
	<node lat="61.18869166594609" lon="5.1107222202251545" id="-71718">
		<tag k="name" v="Heiane" />
		<tag k="natural" v="hill" />
		<tag k="place" v="locality" />
		<tag k="ssr:stedsnr" v="649350" />
	</node>
	<node lat="61.13460000262196" lon="5.359519443980815" id="-71720">
		<tag k="name" v="Gåta" />
		<tag k="natural" v="slope" />
		<tag k="place" v="locality" />
		<tag k="ssr:stedsnr" v="649537" />
	</node>
	<node lat="61.192338892377585" lon="5.421302768617838" id="-71721">
		<tag k="name" v="Medbotnen" />
		<tag k="natural" v="valley" />
		<tag k="place" v="locality" />
		<tag k="ssr:stedsnr" v="649645" />
	</node>
	<node lat="61.098497224021074" lon="5.372138886134599" id="-71723">
		<tag k="name" v="Røyrpleta" />
		<tag k="place" v="locality" />
		<tag k="ssr:stedsnr" v="649588" />
	</node>
	<node lat="61.09509444494458" lon="5.379091666253303" id="-71724">
		<tag k="fixme" v="consider natural=peak for the most distinct mountains in the district" />
		<tag k="name" v="Blåfjell" />
		<tag k="natural" v="hill" />
		<tag k="place" v="locality" />
		<tag k="ssr:stedsnr" v="649590" />
	</node>
	<node lat="61.23116666722199" lon="5.060463894260282" id="-71725">
		<tag k="name" v="Rusta" />
		<tag k="natural" v="hill" />
		<tag k="place" v="locality" />
		<tag k="ssr:stedsnr" v="649914" />
	</node>
	<node lat="61.222036107665126" lon="5.250511106824992" id="-71727">
		<tag k="name" v="Grønegjelet" />
		<tag k="natural" v="gorge" />
		<tag k="ssr:stedsnr" v="649923" />
	</node>
	<node lat="61.14890000178347" lon="5.388600004655162" id="-71728">
		<tag k="fixme" v="consider natural=peak for the most distinct mountains in the district" />
		<tag k="name" v="Mykleliåsen" />
		<tag k="natural" v="hill" />
		<tag k="place" v="locality" />
		<tag k="ssr:stedsnr" v="649930" />
	</node>
	<node lat="61.130855554034824" lon="5.417394436663576" id="-71729">
		<tag k="name" v="Gaupehilleren" />
		<tag k="natural" v="hill" />
		<tag k="place" v="locality" />
		<tag k="ssr:stedsnr" v="649935" />
	</node>
	<node lat="61.22094721811959" lon="5.394186117389786" id="-71731">
		<tag k="name" v="Skråheia" />
		<tag k="natural" v="hill" />
		<tag k="place" v="locality" />
		<tag k="ssr:stedsnr" v="650144" />
	</node>
	<node lat="61.19221944478222" lon="5.090680550497254" id="-71732">
		<tag k="name" v="Kvia" />
		<tag k="natural" v="hill" />
		<tag k="place" v="locality" />
		<tag k="ssr:stedsnr" v="650698" />
	</node>
	<node lat="61.15734166565008" lon="5.433241674738641" id="-71734">
		<tag k="fixme" v="consider natural=peak for the most distinct mountains in the district" />
		<tag k="name" v="Stigåsen" />
		<tag k="natural" v="hill" />
		<tag k="place" v="locality" />
		<tag k="ssr:stedsnr" v="650911" />
	</node>
	<node lat="61.24584166768559" lon="5.263741659009287" id="-71740">
		<tag k="alt_name" v="Høydalsnova" />
		<tag k="fixme" v="consider natural=peak for the most distinct mountains in the district" />
		<tag k="name" v="Hydalsnova" />
		<tag k="natural" v="hill" />
		<tag k="place" v="locality" />
		<tag k="ssr:stedsnr" v="709990" />
	</node>
	<node lat="61.15628611573027" lon="5.287252785404656" id="-71742">
		<tag k="name" v="Røysskaret" />
		<tag k="natural" v="valley" />
		<tag k="place" v="locality" />
		<tag k="ssr:stedsnr" v="710048" />
	</node>
	<node lat="61.151277781885206" lon="5.312686102731782" id="-71743">
		<tag k="name" v="Heiane" />
		<tag k="natural" v="hill" />
		<tag k="place" v="locality" />
		<tag k="ssr:stedsnr" v="710069" />
	</node>
	<node lat="61.146422224928635" lon="5.263819448887265" id="-71745">
		<tag k="fixme" v="consider natural=peak for the most distinct mountains in the district" />
		<tag k="name" v="Nova" />
		<tag k="natural" v="hill" />
		<tag k="place" v="locality" />
		<tag k="ssr:stedsnr" v="710255" />
	</node>
	<node lat="61.166361110096794" lon="5.191061117992112" id="-71746">
		<tag k="name" v="Heggelia" />
		<tag k="natural" v="slope" />
		<tag k="place" v="locality" />
		<tag k="ssr:stedsnr" v="710265" />
	</node>
	<node lat="61.19539166426733" lon="5.1796472287171405" id="-71747">
		<tag k="name" v="Bukkenova" />
		<tag k="natural" v="hill" />
		<tag k="place" v="locality" />
		<tag k="ssr:stedsnr" v="710346" />
	</node>
	<node lat="61.11326666337991" lon="5.374919449550408" id="-71750">
		<tag k="name" v="Skåra" />
		<tag k="place" v="locality" />
		<tag k="ssr:stedsnr" v="710463" />
	</node>
	<node lat="61.11836111201954" lon="5.292180564523429" id="-71751">
		<tag k="name" v="Svoene" />
		<tag k="natural" v="hill" />
		<tag k="place" v="locality" />
		<tag k="ssr:stedsnr" v="710470" />
	</node>
	<node lat="61.12814167096249" lon="5.367325008740697" id="-71752">
		<tag k="name" v="Graveleitet" />
		<tag k="place" v="locality" />
		<tag k="ssr:stedsnr" v="710516" />
	</node>
	<node lat="61.16897222180613" lon="5.267619442634085" id="-71755">
		<tag k="name" v="Svoa" />
		<tag k="natural" v="hill" />
		<tag k="place" v="locality" />
		<tag k="ssr:stedsnr" v="710545" />
	</node>
	<node lat="61.1298277747609" lon="5.325488882844847" id="-71756">
		<tag k="name" v="Tåhammaren" />
		<tag k="natural" v="hill" />
		<tag k="place" v="locality" />
		<tag k="ssr:stedsnr" v="890377" />
	</node>
	<node lat="61.154663885894685" lon="5.418086114600246" id="-71760">
		<tag k="fixme" v="consider natural=peak for the most distinct mountains in the district" />
		<tag k="name" v="Kletten" />
		<tag k="natural" v="hill" />
		<tag k="place" v="locality" />
		<tag k="ssr:stedsnr" v="675547" />
	</node>
	<node lat="61.195019439761005" lon="5.031966658351952" id="-71761">
		<tag k="fixme" v="consider natural=peak for the most distinct mountains in the district" />
		<tag k="name" v="Kvamsnipa" />
		<tag k="natural" v="hill" />
		<tag k="place" v="locality" />
		<tag k="ssr:stedsnr" v="676108" />
	</node>
	<node lat="61.19477313540158" lon="5.052567152460422" id="-71762">
		<tag k="fixme" v="consider natural=peak for the most distinct mountains in the district" />
		<tag k="name" v="Byrnesnova" />
		<tag k="natural" v="hill" />
		<tag k="place" v="locality" />
		<tag k="ssr:stedsnr" v="676110" />
	</node>
	<node lat="61.177372222821035" lon="5.097741657698046" id="-71765">
		<tag k="alt_name" v="Lammelibotnen" />
		<tag k="name" v="Lambelibotnen" />
		<tag k="natural" v="valley" />
		<tag k="place" v="locality" />
		<tag k="ssr:stedsnr" v="676703" />
	</node>
	<node lat="61.17253611096374" lon="5.177388890203848" id="-71766">
		<tag k="fixme" v="consider natural=peak for the most distinct mountains in the district" />
		<tag k="name" v="Grønskorfjellet" />
		<tag k="natural" v="hill" />
		<tag k="place" v="locality" />
		<tag k="ssr:stedsnr" v="676696" />
	</node>
	<node lat="61.245738890239544" lon="5.164649995963264" id="-71772">
		<tag k="name" v="Smådalane" />
		<tag k="natural" v="valley" />
		<tag k="place" v="locality" />
		<tag k="ssr:stedsnr" v="892023" />
	</node>
	<node lat="61.151636111518165" lon="5.162399999084655" id="-71774">
		<tag k="fixme" v="consider natural=peak for the most distinct mountains in the district" />
		<tag k="name" v="Strandafjellet" />
		<tag k="natural" v="hill" />
		<tag k="place" v="locality" />
		<tag k="ssr:stedsnr" v="892157" />
	</node>
	<node lat="61.10346666587634" lon="5.36635832820838" id="-71776">
		<tag k="fixme" v="consider natural=peak for the most distinct mountains in the district" />
		<tag k="name" v="Grønlinipa" />
		<tag k="natural" v="hill" />
		<tag k="place" v="locality" />
		<tag k="ssr:stedsnr" v="892437" />
	</node>
	<node lat="61.14350833208326" lon="5.400113885881272" id="-71778">
		<tag k="name" v="Rysjelia" />
		<tag k="natural" v="slope" />
		<tag k="place" v="locality" />
		<tag k="ssr:stedsnr" v="892968" />
	</node>
	<node lat="61.14298888677838" lon="5.4286583308153915" id="-71779">
		<tag k="name" v="Fosseliene" />
		<tag k="natural" v="slope" />
		<tag k="place" v="locality" />
		<tag k="ssr:stedsnr" v="892988" />
	</node>
	<node lat="61.1340583326966" lon="5.333230562330308" id="-71782">
		<tag k="fixme" v="consider natural=peak for the most distinct mountains in the district" />
		<tag k="name" v="Stigen" />
		<tag k="natural" v="hill" />
		<tag k="place" v="locality" />
		<tag k="ssr:stedsnr" v="893133" />
	</node>
	<node lat="61.155319445249276" lon="5.323475001335832" id="-71783">
		<tag k="name" v="Blådalen" />
		<tag k="natural" v="valley" />
		<tag k="place" v="locality" />
		<tag k="ssr:stedsnr" v="893096" />
	</node>
	<node lat="61.1816833312106" lon="5.348147219793448" id="-71785">
		<tag k="name" v="Tjuaholene" />
		<tag k="natural" v="gorge" />
		<tag k="ssr:stedsnr" v="893445" />
	</node>
	<node lat="61.19135832935922" lon="5.090799994282557" id="-71788">
		<tag k="fixme" v="consider natural=peak for the most distinct mountains in the district" />
		<tag k="name" v="Finnheia" />
		<tag k="natural" v="hill" />
		<tag k="place" v="locality" />
		<tag k="ssr:stedsnr" v="893751" />
	</node>
	<node lat="61.228866666300966" lon="5.1203333407027385" id="-71791">
		<tag k="name" v="Eideklovet" />
		<tag k="natural" v="slope" />
		<tag k="place" v="locality" />
		<tag k="ssr:stedsnr" v="893894" />
	</node>
	<node lat="61.129886110885224" lon="5.407577770234866" id="-71792">
		<tag k="fixme" v="consider natural=peak for the most distinct mountains in the district" />
		<tag k="name" v="Moringehaug" />
		<tag k="natural" v="hill" />
		<tag k="place" v="locality" />
		<tag k="ssr:stedsnr" v="893940" />
	</node>
	<node lat="61.24756111136414" lon="5.052827779261127" id="-71797">
		<tag k="fixme" v="consider natural=peak for the most distinct mountains in the district" />
		<tag k="name" v="Brendene" />
		<tag k="natural" v="hill" />
		<tag k="place" v="locality" />
		<tag k="ssr:stedsnr" v="710077" />
	</node>
	<node lat="61.233716669517044" lon="5.117286105531989" id="-71798">
		<tag k="name" v="Eikedalshaugen" />
		<tag k="natural" v="hill" />
		<tag k="place" v="locality" />
		<tag k="ssr:stedsnr" v="710214" />
	</node>
	<node lat="61.15816666501107" lon="5.133850006622647" id="-71799">
		<tag k="name" v="Skrestigen" />
		<tag k="natural" v="slope" />
		<tag k="place" v="locality" />
		<tag k="ssr:stedsnr" v="710252" />
	</node>
	<node lat="61.170644445687756" lon="5.211588887984754" id="-71801">
		<tag k="name" v="Småliane" />
		<tag k="natural" v="slope" />
		<tag k="place" v="locality" />
		<tag k="ssr:stedsnr" v="710277" />
	</node>
	<node lat="61.183211112161175" lon="5.151952773284489" id="-71802">
		<tag k="name" v="Trollebotn" />
		<tag k="natural" v="valley" />
		<tag k="place" v="locality" />
		<tag k="ssr:stedsnr" v="710413" />
	</node>
	<node lat="61.184588887052236" lon="5.346072227580486" id="-71804">
		<tag k="name" v="Bautiholene" />
		<tag k="natural" v="gorge" />
		<tag k="ssr:stedsnr" v="710497" />
	</node>
	<node lat="61.23098653691576" lon="4.9787848918326505" id="-71806">
		<tag k="name" v="Sakrisøy" />
		<tag k="natural" v="hill" />
		<tag k="place" v="locality" />
		<tag k="ssr:stedsnr" v="710807" />
	</node>
	<node lat="61.11465277392301" lon="5.229369436184537" id="-71807">
		<tag k="name" v="Leite" />
		<tag k="natural" v="hill" />
		<tag k="place" v="locality" />
		<tag k="ssr:stedsnr" v="711017" />
	</node>
	<node lat="61.23712499640858" lon="5.347647225165613" id="-71810">
		<tag k="fixme" v="consider natural=peak for the most distinct mountains in the district" />
		<tag k="name" v="Skarafjellet" />
		<tag k="natural" v="hill" />
		<tag k="place" v="locality" />
		<tag k="ssr:stedsnr" v="711210" />
	</node>
	<node lat="61.1981722205266" lon="5.407719443456632" id="-71811">
		<tag k="fixme" v="consider natural=peak for the most distinct mountains in the district" />
		<tag k="name" v="Storesåta" />
		<tag k="natural" v="hill" />
		<tag k="place" v="locality" />
		<tag k="ssr:stedsnr" v="711503" />
	</node>
	<node lat="61.201519441478965" lon="5.3982388855557" id="-71812">
		<tag k="name" v="Gilbukkane" />
		<tag k="natural" v="hill" />
		<tag k="place" v="locality" />
		<tag k="ssr:stedsnr" v="711514" />
	</node>
	<node lat="61.07980833038157" lon="5.400466658713774" id="-71814">
		<tag k="name" v="Snettet" />
		<tag k="natural" v="valley" />
		<tag k="place" v="locality" />
		<tag k="ssr:stedsnr" v="711525" />
	</node>
	<node lat="61.07590278061139" lon="5.407180548113075" id="-71815">
		<tag k="name" v="Årevikheia" />
		<tag k="natural" v="hill" />
		<tag k="place" v="locality" />
		<tag k="ssr:stedsnr" v="711531" />
	</node>
	<node lat="61.143694442731075" lon="5.303102773912566" id="-71817">
		<tag k="name" v="Langedalen" />
		<tag k="natural" v="valley" />
		<tag k="place" v="locality" />
		<tag k="ssr:stedsnr" v="736519" />
	</node>
	<node lat="61.232944447172166" lon="5.166369442026131" id="-71819">
		<tag k="fixme" v="consider natural=peak for the most distinct mountains in the district" />
		<tag k="name" v="Sørbøheia" />
		<tag k="natural" v="hill" />
		<tag k="place" v="locality" />
		<tag k="ssr:stedsnr" v="737362" />
	</node>
	<node lat="61.128666662984834" lon="5.302463891180329" id="-71820">
		<tag k="fixme" v="consider natural=peak for the most distinct mountains in the district" />
		<tag k="name" v="Bøheia" />
		<tag k="natural" v="hill" />
		<tag k="place" v="locality" />
		<tag k="ssr:stedsnr" v="737504" />
	</node>
	<node lat="61.15446389307206" lon="5.145380553642778" id="-71827">
		<tag k="fixme" v="consider natural=peak for the most distinct mountains in the district" />
		<tag k="name" v="Hårkallehaugen" />
		<tag k="natural" v="hill" />
		<tag k="place" v="locality" />
		<tag k="ssr:stedsnr" v="770228" />
	</node>
	<node lat="61.165608337142054" lon="5.1997972163031685" id="-71828">
		<tag k="name" v="Nova" />
		<tag k="natural" v="hill" />
		<tag k="place" v="locality" />
		<tag k="ssr:stedsnr" v="770235" />
	</node>
	<node lat="61.17207221803342" lon="5.194641672260851" id="-71830">
		<tag k="name" v="Stien" />
		<tag k="natural" v="slope" />
		<tag k="place" v="locality" />
		<tag k="ssr:stedsnr" v="770254" />
	</node>
	<node lat="61.18006666575177" lon="5.123769440414037" id="-71832">
		<tag k="name" v="Laskane" />
		<tag k="natural" v="hill" />
		<tag k="place" v="locality" />
		<tag k="ssr:stedsnr" v="770305" />
	</node>
	<node lat="61.081769447480916" lon="5.408911108590966" id="-71834">
		<tag k="name" v="Almane" />
		<tag k="natural" v="slope" />
		<tag k="place" v="locality" />
		<tag k="ssr:stedsnr" v="771561" />
	</node>
	<node lat="61.089766669261955" lon="5.407025002995662" id="-71835">
		<tag k="fixme" v="consider natural=peak for the most distinct mountains in the district" />
		<tag k="name" v="Storekjosen" />
		<tag k="natural" v="hill" />
		<tag k="place" v="locality" />
		<tag k="ssr:stedsnr" v="771571" />
	</node>
	<node lat="61.25284444317238" lon="5.111069446687892" id="-71837">
		<tag k="name" v="Myklebustlia" />
		<tag k="natural" v="slope" />
		<tag k="place" v="locality" />
		<tag k="ssr:stedsnr" v="771705" />
	</node>
	<node lat="61.27093888909433" lon="5.10877499843195" id="-71839">
		<tag k="name" v="Konradhaugen" />
		<tag k="natural" v="hill" />
		<tag k="place" v="locality" />
		<tag k="ssr:stedsnr" v="771708" />
	</node>
	<node lat="61.187013888359424" lon="5.40910000332396" id="-71841">
		<tag k="alt_name" v="Tonningsnipa" />
		<tag k="fixme" v="consider natural=peak for the most distinct mountains in the district" />
		<tag k="name" v="Tauningsnipa" />
		<tag k="natural" v="hill" />
		<tag k="place" v="locality" />
		<tag k="ssr:stedsnr" v="771623" />
	</node>
	<node lat="61.178497226591034" lon="5.416300005005795" id="-71842">
		<tag k="fixme" v="consider natural=peak for the most distinct mountains in the district" />
		<tag k="name" v="Dyrdalsnipa" />
		<tag k="natural" v="hill" />
		<tag k="place" v="locality" />
		<tag k="ssr:stedsnr" v="771625" />
	</node>
	<node lat="61.17733610752444" lon="5.402663880178219" id="-71843">
		<tag k="name" v="Dyrdalen" />
		<tag k="natural" v="valley" />
		<tag k="place" v="locality" />
		<tag k="ssr:stedsnr" v="771629" />
	</node>
	<node lat="61.2181944412392" lon="5.295702783737325" id="-71844">
		<tag k="fixme" v="consider natural=peak for the most distinct mountains in the district" />
		<tag k="name" v="Rundeheia" />
		<tag k="natural" v="hill" />
		<tag k="place" v="locality" />
		<tag k="ssr:stedsnr" v="771903" />
	</node>
	<node lat="61.26876666839705" lon="5.264830547659115" id="-71849">
		<tag k="fixme" v="consider natural=peak for the most distinct mountains in the district" />
		<tag k="name" v="Vardeheia" />
		<tag k="natural" v="hill" />
		<tag k="place" v="locality" />
		<tag k="ssr:stedsnr" v="796559" />
	</node>
	<node lat="61.110555558438044" lon="5.248913895938536" id="-71852">
		<tag k="name" v="Høgehaugen" />
		<tag k="natural" v="hill" />
		<tag k="place" v="locality" />
		<tag k="ssr:stedsnr" v="798499" />
	</node>
	<node lat="61.22190833542452" lon="5.302197230048972" id="-71853">
		<tag k="fixme" v="consider natural=peak for the most distinct mountains in the district" />
		<tag k="name" v="Bjørkåsen" />
		<tag k="natural" v="hill" />
		<tag k="place" v="locality" />
		<tag k="ssr:stedsnr" v="798615" />
	</node>
	<node lat="61.226752774573576" lon="5.371983334514085" id="-71854">
		<tag k="fixme" v="consider natural=peak for the most distinct mountains in the district" />
		<tag k="name" v="Høgehaugen" />
		<tag k="natural" v="hill" />
		<tag k="place" v="locality" />
		<tag k="ssr:stedsnr" v="798623" />
	</node>
	<node lat="61.207580553694044" lon="5.373336102316217" id="-71856">
		<tag k="fixme" v="consider natural=peak for the most distinct mountains in the district" />
		<tag k="name" v="Alefjellet" />
		<tag k="natural" v="hill" />
		<tag k="place" v="locality" />
		<tag k="ssr:stedsnr" v="798647" />
	</node>
	<node lat="61.232877778976196" lon="5.112063885939558" id="-71858">
		<tag k="name" v="Eidehalsen" />
		<tag k="natural" v="hill" />
		<tag k="place" v="locality" />
		<tag k="ssr:stedsnr" v="798349" />
	</node>
	<node lat="61.11226111185022" lon="5.445974991937197" id="-71859">
		<tag k="fixme" v="consider natural=peak for the most distinct mountains in the district" />
		<tag k="name" v="Laviksåta" />
		<tag k="natural" v="hill" />
		<tag k="place" v="locality" />
		<tag k="ssr:stedsnr" v="798515" />
	</node>
	<node lat="61.158572221701625" lon="5.317711110126353" id="-71862">
		<tag k="fixme" v="consider natural=peak for the most distinct mountains in the district" />
		<tag k="name" v="Folefoten" />
		<tag k="natural" v="hill" />
		<tag k="place" v="locality" />
		<tag k="ssr:stedsnr" v="798694" />
	</node>
	<node lat="61.21233889156073" lon="5.369750005420789" id="-71868">
		<tag k="fixme" v="consider natural=peak for the most distinct mountains in the district" />
		<tag k="name" v="Rustene" />
		<tag k="natural" v="hill" />
		<tag k="place" v="locality" />
		<tag k="ssr:stedsnr" v="919636" />
	</node>
	<node lat="61.193750003625354" lon="5.108641670513474" id="-71877">
		<tag k="name" v="Langedalen" />
		<tag k="natural" v="valley" />
		<tag k="place" v="locality" />
		<tag k="ssr:stedsnr" v="822891" />
	</node>
	<node lat="61.24668055491468" lon="5.289091669696424" id="-71882">
		<tag k="name" v="Sundbotnheia" />
		<tag k="natural" v="hill" />
		<tag k="place" v="locality" />
		<tag k="ssr:stedsnr" v="832115" />
	</node>
	<node lat="61.19651388933142" lon="5.3629527769387195" id="-71883">
		<tag k="name" v="Mørketjørnbakken" />
		<tag k="natural" v="hill" />
		<tag k="place" v="locality" />
		<tag k="ssr:stedsnr" v="832185" />
	</node>
	<node lat="61.1189250003647" lon="5.369194445438462" id="-71884">
		<tag k="name" v="Furebotnen" />
		<tag k="natural" v="valley" />
		<tag k="place" v="locality" />
		<tag k="ssr:stedsnr" v="832316" />
	</node>
	<node lat="61.24357777939724" lon="5.352661117661189" id="-71886">
		<tag k="name" v="Østerbotnen" />
		<tag k="natural" v="valley" />
		<tag k="place" v="locality" />
		<tag k="ssr:stedsnr" v="832229" />
	</node>
	<node lat="61.245969441324895" lon="5.111127787073727" id="-71887">
		<tag k="fixme" v="consider natural=peak for the most distinct mountains in the district" />
		<tag k="name" v="Ramsefjellet" />
		<tag k="natural" v="hill" />
		<tag k="place" v="locality" />
		<tag k="ssr:stedsnr" v="832238" />
	</node>
	<node lat="61.0878361069551" lon="5.403136115839784" id="-71889">
		<tag k="name" v="Storelia" />
		<tag k="natural" v="slope" />
		<tag k="place" v="locality" />
		<tag k="ssr:stedsnr" v="832587" />
	</node>
	<node lat="61.0841444425528" lon="5.3878861167376915" id="-71890">
		<tag k="fixme" v="consider natural=peak for the most distinct mountains in the district" />
		<tag k="name" v="Stallen" />
		<tag k="natural" v="hill" />
		<tag k="place" v="locality" />
		<tag k="ssr:stedsnr" v="832595" />
	</node>
	<node lat="61.092152775093915" lon="5.384808336761218" id="-71892">
		<tag k="fixme" v="consider natural=peak for the most distinct mountains in the district" />
		<tag k="name" v="Ørnetua" />
		<tag k="natural" v="hill" />
		<tag k="place" v="locality" />
		<tag k="ssr:stedsnr" v="832607" />
	</node>
	<node lat="61.162424998940146" lon="5.4319694420509546" id="-71893">
		<tag k="name" v="Smørkleiva" />
		<tag k="natural" v="slope" />
		<tag k="place" v="locality" />
		<tag k="ssr:stedsnr" v="832633" />
	</node>
	<node lat="61.17194999731863" lon="5.436669450526275" id="-71894">
		<tag k="name" v="Robbeskaret" />
		<tag k="natural" v="valley" />
		<tag k="place" v="locality" />
		<tag k="ssr:stedsnr" v="832639" />
	</node>
	<node lat="61.214711111683144" lon="5.2652111195190745" id="-71897">
		<tag k="fixme" v="consider natural=peak for the most distinct mountains in the district" />
		<tag k="name" v="Vindafjellet" />
		<tag k="natural" v="hill" />
		<tag k="place" v="locality" />
		<tag k="ssr:stedsnr" v="832915" />
	</node>
	<node lat="61.21168333541188" lon="5.254291670201864" id="-71898">
		<tag k="name" v="Steinhaugen" />
		<tag k="natural" v="hill" />
		<tag k="place" v="locality" />
		<tag k="ssr:stedsnr" v="832933" />
	</node>
	<node lat="61.21975833195079" lon="5.31695556467554" id="-71902">
		<tag k="name" v="Stølsreset" />
		<tag k="natural" v="hill" />
		<tag k="place" v="locality" />
		<tag k="ssr:stedsnr" v="832900" />
	</node>
	<node lat="61.22411666803983" lon="5.331205548548629" id="-71903">
		<tag k="fixme" v="consider natural=peak for the most distinct mountains in the district" />
		<tag k="name" v="Kvitefjell" />
		<tag k="natural" v="hill" />
		<tag k="place" v="locality" />
		<tag k="ssr:stedsnr" v="832901" />
	</node>
	<node lat="61.113697223938765" lon="5.379930555728527" id="-71907">
		<tag k="fixme" v="consider natural=peak for the most distinct mountains in the district" />
		<tag k="name" v="Bråstadheia" />
		<tag k="natural" v="hill" />
		<tag k="place" v="locality" />
		<tag k="ssr:stedsnr" v="858579" />
	</node>
	<node lat="61.26115555560912" lon="5.132563889225211" id="-71908">
		<tag k="fixme" v="consider natural=peak for the most distinct mountains in the district" />
		<tag k="name" v="Orkheia" />
		<tag k="natural" v="hill" />
		<tag k="place" v="locality" />
		<tag k="ssr:stedsnr" v="858593" />
	</node>
	<node lat="61.174647219251504" lon="5.082777775097079" id="-71909">
		<tag k="alt_name" v="Bråteheia" />
		<tag k="fixme" v="consider natural=peak for the most distinct mountains in the district" />
		<tag k="name" v="Broteheia" />
		<tag k="natural" v="hill" />
		<tag k="place" v="locality" />
		<tag k="ssr:stedsnr" v="859012" />
	</node>
	<node lat="61.218769448738925" lon="5.267730564189285" id="-71916">
		<tag k="fixme" v="consider natural=peak for the most distinct mountains in the district" />
		<tag k="name" v="Torgersletta" />
		<tag k="natural" v="hill" />
		<tag k="place" v="locality" />
		<tag k="ssr:stedsnr" v="859621" />
	</node>
	<node lat="61.153788890169565" lon="5.309302786557881" id="-71925">
		<tag k="name" v="Jotehaugen" />
		<tag k="natural" v="hill" />
		<tag k="place" v="locality" />
		<tag k="ssr:stedsnr" v="892069" />
	</node>
	<node lat="61.173452774265144" lon="5.133219450534647" id="-71928">
		<tag k="name" v="Levandeskaret" />
		<tag k="natural" v="valley" />
		<tag k="place" v="locality" />
		<tag k="ssr:stedsnr" v="892362" />
	</node>
	<node lat="61.14788333654402" lon="5.382975000018994" id="-71930">
		<tag k="name" v="Stallgjelet" />
		<tag k="natural" v="gorge" />
		<tag k="ssr:stedsnr" v="892923" />
	</node>
	<node lat="61.13729166637962" lon="5.4007416628226625" id="-71931">
		<tag k="name" v="Gjeldalen" />
		<tag k="natural" v="valley" />
		<tag k="place" v="locality" />
		<tag k="ssr:stedsnr" v="892940" />
	</node>
	<node lat="61.20026944486466" lon="5.310919444996413" id="-71932">
		<tag k="name" v="Trøgleheia" />
		<tag k="natural" v="hill" />
		<tag k="place" v="locality" />
		<tag k="ssr:stedsnr" v="892875" />
	</node>
	<node lat="61.25102221794356" lon="5.233600004728673" id="-71933">
		<tag k="name" v="Stigen" />
		<tag k="natural" v="slope" />
		<tag k="place" v="locality" />
		<tag k="ssr:stedsnr" v="893010" />
	</node>
	<node lat="61.23191944272998" lon="5.125755563826082" id="-71934">
		<tag k="name" v="Rutlelia" />
		<tag k="natural" v="valley" />
		<tag k="place" v="locality" />
		<tag k="ssr:stedsnr" v="893210" />
	</node>
	<node lat="61.163194445838855" lon="5.330483341057602" id="-71935">
		<tag k="name" v="Klubben" />
		<tag k="natural" v="hill" />
		<tag k="place" v="locality" />
		<tag k="ssr:stedsnr" v="893219" />
	</node>
	<node lat="61.12055000172057" lon="5.305041662182504" id="-71936">
		<tag k="fixme" v="consider natural=peak for the most distinct mountains in the district" />
		<tag k="name" v="Høgeskorva" />
		<tag k="natural" v="hill" />
		<tag k="place" v="locality" />
		<tag k="ssr:stedsnr" v="893408" />
	</node>
	<node lat="61.20023055546126" lon="5.397502777167724" id="-71938">
		<tag k="name" v="Djupedalen" />
		<tag k="natural" v="valley" />
		<tag k="place" v="locality" />
		<tag k="ssr:stedsnr" v="893528" />
	</node>
	<node lat="61.15233055569798" lon="5.38013334179088" id="-71940">
		<tag k="name" v="Branden" />
		<tag k="natural" v="hill" />
		<tag k="place" v="locality" />
		<tag k="ssr:stedsnr" v="893976" />
	</node>
	<node lat="61.26610000254089" lon="5.250213884692327" id="-71943">
		<tag k="alt_name" v="Hornedalen" />
		<tag k="name" v="Hornsdalen" />
		<tag k="natural" v="valley" />
		<tag k="place" v="locality" />
		<tag k="ssr:stedsnr" v="917548" />
	</node>
	<node lat="61.26286666218603" lon="5.095622219667491" id="-71944">
		<tag k="name" v="Håheia" />
		<tag k="natural" v="hill" />
		<tag k="place" v="locality" />
		<tag k="ssr:stedsnr" v="918652" />
	</node>
	<node lat="61.13608055132038" lon="5.233002776037307" id="-71946">
		<tag k="fixme" v="consider natural=peak for the most distinct mountains in the district" />
		<tag k="name" v="Sågneskollen" />
		<tag k="natural" v="hill" />
		<tag k="place" v="locality" />
		<tag k="ssr:stedsnr" v="919503" />
	</node>
	<node lat="61.076708332971926" lon="5.393916673802571" id="-71947">
		<tag k="name" v="Seieberga" />
		<tag k="natural" v="hill" />
		<tag k="place" v="locality" />
		<tag k="ssr:stedsnr" v="919560" />
	</node>
	<node lat="61.15505277740404" lon="5.277461107450714" id="-71953">
		<tag k="fixme" v="consider natural=peak for the most distinct mountains in the district" />
		<tag k="name" v="Kolgrovheia" />
		<tag k="natural" v="hill" />
		<tag k="place" v="locality" />
		<tag k="ssr:stedsnr" v="919724" />
	</node>
	<node lat="61.14213611184843" lon="5.204108333400337" id="-71954">
		<tag k="fixme" v="consider natural=peak for the most distinct mountains in the district" />
		<tag k="name" v="Hallvardheia" />
		<tag k="natural" v="hill" />
		<tag k="place" v="locality" />
		<tag k="ssr:stedsnr" v="919501" />
	</node>
	<node lat="61.241363070301304" lon="5.123963702556762" id="-71959">
		<tag k="name" v="Storhaugen" />
		<tag k="natural" v="hill" />
		<tag k="place" v="locality" />
		<tag k="ssr:stedsnr" v="920398" />
	</node>
	<node lat="61.24184722151007" lon="5.135633325465508" id="-71960">
		<tag k="name" v="Kaldelia" />
		<tag k="natural" v="slope" />
		<tag k="place" v="locality" />
		<tag k="ssr:stedsnr" v="920399" />
	</node>
	<node lat="61.19938055650341" lon="5.439983339798074" id="-71963">
		<tag k="fixme" v="consider natural=peak for the most distinct mountains in the district" />
		<tag k="name" v="Høgenova" />
		<tag k="natural" v="hill" />
		<tag k="place" v="locality" />
		<tag k="ssr:stedsnr" v="920707" />
	</node>
	<node lat="61.24886944358214" lon="5.064502774052184" id="-71966">
		<tag k="fixme" v="consider natural=peak for the most distinct mountains in the district" />
		<tag k="name" v="Åsen" />
		<tag k="natural" v="hill" />
		<tag k="place" v="locality" />
		<tag k="ssr:stedsnr" v="920998" />
	</node>
	<node lat="61.103758332740014" lon="5.356802776894391" id="-71969">
		<tag k="name" v="Kolmilehaugen" />
		<tag k="natural" v="hill" />
		<tag k="place" v="locality" />
		<tag k="ssr:stedsnr" v="952440" />
	</node>
	<node lat="61.10972222217758" lon="5.364424997103382" id="-71970">
		<tag k="name" v="Flathaugane" />
		<tag k="natural" v="hill" />
		<tag k="place" v="locality" />
		<tag k="ssr:stedsnr" v="952444" />
	</node>
	<node lat="61.16945000202973" lon="5.375622229436899" id="-71972">
		<tag k="name" v="Jolihelleren" />
		<tag k="place" v="locality" />
		<tag k="ssr:stedsnr" v="953307" />
	</node>
	<node lat="61.194030559860515" lon="5.115788884701933" id="-71973">
		<tag k="fixme" v="consider natural=peak for the most distinct mountains in the district" />
		<tag k="name" v="Storebakkfjell" />
		<tag k="natural" v="hill" />
		<tag k="place" v="locality" />
		<tag k="ssr:stedsnr" v="953363" />
	</node>
	<node lat="61.20111667034814" lon="5.393225002459284" id="-71974">
		<tag k="fixme" v="consider natural=peak for the most distinct mountains in the district" />
		<tag k="name" v="Ingjernova" />
		<tag k="natural" v="hill" />
		<tag k="place" v="locality" />
		<tag k="ssr:stedsnr" v="953203" />
	</node>
	<node lat="61.24283333152013" lon="5.120719453895471" id="-71975">
		<tag k="name" v="Rutlehaugen" />
		<tag k="natural" v="hill" />
		<tag k="place" v="locality" />
		<tag k="ssr:stedsnr" v="953251" />
	</node>
	<node lat="61.09082777983392" lon="5.415141673473819" id="-71976">
		<tag k="fixme" v="consider natural=peak for the most distinct mountains in the district" />
		<tag k="name" v="Solåsen" />
		<tag k="natural" v="hill" />
		<tag k="place" v="locality" />
		<tag k="ssr:stedsnr" v="953596" />
	</node>
	<node lat="61.25988889020192" lon="5.108566673317466" id="-71977">
		<tag k="name" v="Skolten" />
		<tag k="natural" v="hill" />
		<tag k="place" v="locality" />
		<tag k="ssr:stedsnr" v="953714" />
	</node>
	<node lat="61.26999722041835" lon="5.109958327305332" id="-71978">
		<tag k="name" v="Sjurhjellen" />
		<tag k="natural" v="hill" />
		<tag k="place" v="locality" />
		<tag k="ssr:stedsnr" v="953715" />
	</node>
	<node lat="61.08364166714277" lon="5.39121389329238" id="-71979">
		<tag k="fixme" v="consider natural=peak for the most distinct mountains in the district" />
		<tag k="name" v="Lindeskårfjellet" />
		<tag k="natural" v="hill" />
		<tag k="place" v="locality" />
		<tag k="ssr:stedsnr" v="953603" />
	</node>
	<node lat="61.0846750014354" lon="5.397363884049056" id="-71980">
		<tag k="name" v="Brunhaugen" />
		<tag k="natural" v="hill" />
		<tag k="place" v="locality" />
		<tag k="ssr:stedsnr" v="953604" />
	</node>
	<node lat="61.09107500044175" lon="5.382811101906699" id="-71982">
		<tag k="name" v="Hetlebakkane" />
		<tag k="natural" v="slope" />
		<tag k="place" v="locality" />
		<tag k="ssr:stedsnr" v="953616" />
	</node>
	<node lat="61.15601388869542" lon="5.427305558271391" id="-71983">
		<tag k="name" v="Langvasshaugen" />
		<tag k="natural" v="hill" />
		<tag k="place" v="locality" />
		<tag k="ssr:stedsnr" v="953903" />
	</node>
	<node lat="61.21339999782116" lon="5.242675001389385" id="-71985">
		<tag k="name" v="Litlegjerdet" />
		<tag k="natural" v="slope" />
		<tag k="place" v="locality" />
		<tag k="ssr:stedsnr" v="953952" />
	</node>
	<node lat="61.21189722168641" lon="5.310291663645597" id="-71987">
		<tag k="fixme" v="consider natural=peak for the most distinct mountains in the district" />
		<tag k="name" v="Varden" />
		<tag k="natural" v="hill" />
		<tag k="place" v="locality" />
		<tag k="ssr:stedsnr" v="953890" />
	</node>
	<node lat="61.117986107268614" lon="5.4252027689770665" id="-71988">
		<tag k="name" v="Svartesvadet" />
		<tag k="natural" v="hill" />
		<tag k="place" v="locality" />
		<tag k="ssr:stedsnr" v="953901" />
	</node>
	<node lat="61.257974998135815" lon="5.188683325852851" id="-72005">
		<tag k="fixme" v="consider natural=peak for the most distinct mountains in the district" />
		<tag k="name" v="Vestdalsknolten" />
		<tag k="natural" v="hill" />
		<tag k="place" v="locality" />
		<tag k="ssr:stedsnr" v="7541" />
	</node>
	<node lat="61.26746666678985" lon="5.09564444010679" id="-72007">
		<tag k="name" v="Eikekletten" />
		<tag k="natural" v="hill" />
		<tag k="place" v="locality" />
		<tag k="ssr:stedsnr" v="8638" />
	</node>
	<node lat="61.19795000415843" lon="5.034111109892648" id="-72008">
		<tag k="name" v="Storelia" />
		<tag k="natural" v="slope" />
		<tag k="place" v="locality" />
		<tag k="ssr:stedsnr" v="9052" />
	</node>
	<node lat="61.16982500349432" lon="5.09192221898998" id="-72009">
		<tag k="fixme" v="consider natural=peak for the most distinct mountains in the district" />
		<tag k="name" v="Storegyttfjellet" />
		<tag k="natural" v="hill" />
		<tag k="place" v="locality" />
		<tag k="ssr:stedsnr" v="9013" />
	</node>
	<node lat="61.18137500204805" lon="5.047180553991032" id="-72010">
		<tag k="alt_name" v="Skorpefjell" />
		<tag k="fixme" v="consider natural=peak for the most distinct mountains in the district" />
		<tag k="name" v="Skorpefjellet" />
		<tag k="natural" v="hill" />
		<tag k="place" v="locality" />
		<tag k="ssr:stedsnr" v="9030" />
	</node>
	<node lat="61.24678055608603" lon="5.169708333039338" id="-72011">
		<tag k="fixme" v="consider natural=peak for the most distinct mountains in the district" />
		<tag k="name" v="Svarthamrane" />
		<tag k="natural" v="hill" />
		<tag k="place" v="locality" />
		<tag k="ssr:stedsnr" v="9428" />
	</node>
	<node lat="61.23705555759143" lon="5.151358331607539" id="-72012">
		<tag k="name" v="Rutlekvia" />
		<tag k="natural" v="hill" />
		<tag k="place" v="locality" />
		<tag k="ssr:stedsnr" v="9374" />
	</node>
	<node lat="61.22221110863121" lon="5.220105554647082" id="-72018">
		<tag k="fixme" v="consider natural=peak for the most distinct mountains in the district" />
		<tag k="name" v="Storliåsen" />
		<tag k="natural" v="hill" />
		<tag k="place" v="locality" />
		<tag k="ssr:stedsnr" v="9643" />
	</node>
	<node lat="61.22366388893973" lon="5.239652786438636" id="-72019">
		<tag k="fixme" v="consider natural=peak for the most distinct mountains in the district" />
		<tag k="name" v="Svartefjellet" />
		<tag k="natural" v="hill" />
		<tag k="place" v="locality" />
		<tag k="ssr:stedsnr" v="9646" />
	</node>
	<node lat="61.21713487062085" lon="5.245012422490957" id="-72020">
		<tag k="name" v="Smillerabbane" />
		<tag k="natural" v="slope" />
		<tag k="place" v="locality" />
		<tag k="ssr:stedsnr" v="9650" />
	</node>
	<node lat="61.16706666838952" lon="5.150530561478058" id="-72024">
		<tag k="fixme" v="consider natural=peak for the most distinct mountains in the district" />
		<tag k="name" v="Yksnegardsfjellet" />
		<tag k="natural" v="hill" />
		<tag k="place" v="locality" />
		<tag k="ssr:stedsnr" v="9730" />
	</node>
	<node lat="61.20298611234901" lon="5.445083328295918" id="-72028">
		<tag k="name" v="Osdalsreset" />
		<tag k="natural" v="hill" />
		<tag k="place" v="locality" />
		<tag k="ssr:stedsnr" v="31996" />
	</node>
	<node lat="61.20183055682506" lon="5.14622777837325" id="-72034">
		<tag k="fixme" v="consider natural=peak for the most distinct mountains in the district" />
		<tag k="name" v="Styggenova" />
		<tag k="natural" v="hill" />
		<tag k="place" v="locality" />
		<tag k="ssr:stedsnr" v="42318" />
	</node>
	<node lat="61.16948055885571" lon="5.182280554463737" id="-72035">
		<tag k="name" v="Hamrane" />
		<tag k="natural" v="hill" />
		<tag k="place" v="locality" />
		<tag k="ssr:stedsnr" v="42249" />
	</node>
	<node lat="61.16828333771588" lon="5.2000777793252055" id="-72036">
		<tag k="name" v="Alstien" />
		<tag k="natural" v="slope" />
		<tag k="place" v="locality" />
		<tag k="ssr:stedsnr" v="42251" />
	</node>
	<node lat="61.218726619518804" lon="5.405167934441059" id="-72037">
		<tag k="name" v="Slettheihammaren" />
		<tag k="natural" v="hill" />
		<tag k="place" v="locality" />
		<tag k="ssr:stedsnr" v="42255" />
	</node>
	<node lat="61.11980278205569" lon="5.359638880995838" id="-72042">
		<tag k="name" v="Brendene" />
		<tag k="natural" v="slope" />
		<tag k="place" v="locality" />
		<tag k="ssr:stedsnr" v="43259" />
	</node>
	<node lat="61.09224444269787" lon="5.401822229902108" id="-72044">
		<tag k="name" v="Bjørndalen" />
		<tag k="natural" v="valley" />
		<tag k="place" v="locality" />
		<tag k="ssr:stedsnr" v="43541" />
	</node>
	<node lat="61.134866670108295" lon="5.407752781579009" id="-72045">
		<tag k="name" v="Vellene" />
		<tag k="natural" v="hill" />
		<tag k="place" v="locality" />
		<tag k="ssr:stedsnr" v="42944" />
	</node>
	<node lat="61.23369444650288" lon="5.189177780274357" id="-72047">
		<tag k="alt_name" v="Bjørnebakk-knolten" />
		<tag k="fixme" v="consider natural=peak for the most distinct mountains in the district" />
		<tag k="name" v="Bjørnebakknolten" />
		<tag k="natural" v="hill" />
		<tag k="place" v="locality" />
		<tag k="ssr:stedsnr" v="43048" />
	</node>
	<node lat="61.13614166940349" lon="5.239983333168421" id="-72048">
		<tag k="fixme" v="consider natural=peak for the most distinct mountains in the district" />
		<tag k="name" v="Skukkane" />
		<tag k="natural" v="hill" />
		<tag k="place" v="locality" />
		<tag k="ssr:stedsnr" v="43054" />
	</node>
	<node lat="61.137905554802394" lon="5.322672221466063" id="-72049">
		<tag k="fixme" v="consider natural=peak for the most distinct mountains in the district" />
		<tag k="name" v="Steineheia" />
		<tag k="natural" v="hill" />
		<tag k="place" v="locality" />
		<tag k="ssr:stedsnr" v="43068" />
	</node>
	<node lat="61.15017499690222" lon="5.168327774752313" id="-72051">
		<tag k="fixme" v="consider natural=peak for the most distinct mountains in the district" />
		<tag k="name" v="Risneshaugane" />
		<tag k="natural" v="hill" />
		<tag k="place" v="locality" />
		<tag k="ssr:stedsnr" v="43146" />
	</node>
	<node lat="61.22953056026479" lon="5.125788895909276" id="-72052">
		<tag k="name" v="Brekka" />
		<tag k="natural" v="slope" />
		<tag k="place" v="locality" />
		<tag k="ssr:stedsnr" v="43167" />
	</node>
	<node lat="61.12484166274892" lon="5.3626638926202554" id="-72053">
		<tag k="name" v="Svartefossen" />
		<tag k="natural" v="valley" />
		<tag k="place" v="locality" />
		<tag k="ssr:stedsnr" v="43386" />
	</node>
	<node lat="61.13633055511216" lon="5.334961115565996" id="-72054">
		<tag k="name" v="Kleive -Dalen" />
		<tag k="natural" v="valley" />
		<tag k="place" v="locality" />
		<tag k="ssr:stedsnr" v="43115" />
	</node>
	<node lat="61.19492778235223" lon="5.0520083392481" id="-72055">
		<tag k="name" v="Vardefjell" />
		<tag k="natural" v="hill" />
		<tag k="place" v="locality" />
		<tag k="ssr:stedsnr" v="43743" />
	</node>
	<node lat="61.255244444433224" lon="5.092624995170673" id="-72058">
		<tag k="name" v="Sandneskleiva" />
		<tag k="natural" v="slope" />
		<tag k="place" v="locality" />
		<tag k="ssr:stedsnr" v="43669" />
	</node>
	<node lat="61.20046110819363" lon="5.306713884071949" id="-72059">
		<tag k="name" v="Storeheia" />
		<tag k="natural" v="hill" />
		<tag k="place" v="locality" />
		<tag k="ssr:stedsnr" v="43898" />
	</node>
	<node lat="61.25649444220844" lon="5.124216675940936" id="-72063">
		<tag k="alt_name" v="Myklebustheia" />
		<tag k="fixme" v="consider natural=peak for the most distinct mountains in the district" />
		<tag k="name" v="Myklebostheia" />
		<tag k="natural" v="hill" />
		<tag k="place" v="locality" />
		<tag k="ssr:stedsnr" v="68563" />
	</node>
	<node lat="61.25801388628978" lon="5.149994438667415" id="-72064">
		<tag k="fixme" v="consider natural=peak for the most distinct mountains in the district" />
		<tag k="name" v="Teigefjellet" />
		<tag k="natural" v="hill" />
		<tag k="place" v="locality" />
		<tag k="ssr:stedsnr" v="68567" />
	</node>
	<node lat="61.17727777570979" lon="5.419258328431437" id="-72066">
		<tag k="fixme" v="consider natural=peak for the most distinct mountains in the district" />
		<tag k="name" v="Storeskorheia" />
		<tag k="natural" v="hill" />
		<tag k="place" v="locality" />
		<tag k="ssr:stedsnr" v="69747" />
	</node>
	<node lat="61.24256111529974" lon="5.246311113418484" id="-72067">
		<tag k="fixme" v="consider natural=peak for the most distinct mountains in the district" />
		<tag k="name" v="Annfinnheia" />
		<tag k="natural" v="hill" />
		<tag k="place" v="locality" />
		<tag k="ssr:stedsnr" v="70362" />
	</node>
	<node lat="61.135713893345915" lon="5.35603055855425" id="-72068">
		<tag k="fixme" v="consider natural=peak for the most distinct mountains in the district" />
		<tag k="name" v="Klettheia" />
		<tag k="natural" v="hill" />
		<tag k="place" v="locality" />
		<tag k="ssr:stedsnr" v="70520" />
	</node>
	<node lat="61.243230552304524" lon="5.035397215843553" id="-72073">
		<tag k="fixme" v="multiple name tags, choose one and add the other to alt_name; consider natural=peak for the most distinct mountains in the district" />
		<tag k="name" v="Hellaren;Varden" />
		<tag k="natural" v="hill" />
		<tag k="place" v="locality" />
		<tag k="ssr:stedsnr" v="70999" />
	</node>
	<node lat="61.1883611111413" lon="5.125136117708429" id="-72074">
		<tag k="fixme" v="consider natural=peak for the most distinct mountains in the district" />
		<tag k="name" v="Fjellsenden" />
		<tag k="natural" v="hill" />
		<tag k="place" v="locality" />
		<tag k="ssr:stedsnr" v="70673" />
	</node>
	<node lat="61.19904722415648" lon="5.289886105482874" id="-72075">
		<tag k="name" v="Hamrane" />
		<tag k="natural" v="slope" />
		<tag k="place" v="locality" />
		<tag k="ssr:stedsnr" v="70679" />
	</node>
	<node lat="61.19985277635911" lon="5.291019452279368" id="-72076">
		<tag k="name" v="Grimsdalen" />
		<tag k="natural" v="valley" />
		<tag k="place" v="locality" />
		<tag k="ssr:stedsnr" v="70684" />
	</node>
	<node lat="61.18075833545595" lon="5.173730557975012" id="-72077">
		<tag k="fixme" v="consider natural=peak for the most distinct mountains in the district" />
		<tag k="name" v="Hellerknulten" />
		<tag k="natural" v="hill" />
		<tag k="place" v="locality" />
		<tag k="ssr:stedsnr" v="70696" />
	</node>
	<node lat="61.12176388992533" lon="5.380061115192755" id="-72082">
		<tag k="name" v="Skreddardyttingane" />
		<tag k="natural" v="hill" />
		<tag k="place" v="locality" />
		<tag k="ssr:stedsnr" v="103442" />
	</node>
	<node lat="61.12120278091716" lon="5.298030547187486" id="-72083">
		<tag k="name" v="Steinjota" />
		<tag k="natural" v="hill" />
		<tag k="place" v="locality" />
		<tag k="ssr:stedsnr" v="103455" />
	</node>
	<node lat="61.23746666862108" lon="5.184063882374402" id="-72084">
		<tag k="name" v="Hjortehaugane" />
		<tag k="natural" v="hill" />
		<tag k="place" v="locality" />
		<tag k="ssr:stedsnr" v="103031" />
	</node>
	<node lat="61.213900002112176" lon="5.3425472200115545" id="-72085">
		<tag k="fixme" v="consider natural=peak for the most distinct mountains in the district" />
		<tag k="name" v="Dyttingåsen" />
		<tag k="natural" v="hill" />
		<tag k="place" v="locality" />
		<tag k="ssr:stedsnr" v="103143" />
	</node>
	<node lat="61.16794444253683" lon="5.173588882377801" id="-72088">
		<tag k="name" v="Lilandskårane" />
		<tag k="place" v="locality" />
		<tag k="ssr:stedsnr" v="103232" />
	</node>
	<node lat="61.23233055993128" lon="5.112577775186169" id="-72090">
		<tag k="fixme" v="consider natural=peak for the most distinct mountains in the district" />
		<tag k="name" v="Nobba" />
		<tag k="natural" v="hill" />
		<tag k="place" v="locality" />
		<tag k="ssr:stedsnr" v="103217" />
	</node>
	<node lat="61.22456388486125" lon="5.034033328335257" id="-72092">
		<tag k="name" v="Moldbakken" />
		<tag k="natural" v="slope" />
		<tag k="place" v="locality" />
		<tag k="ssr:stedsnr" v="103657" />
	</node>
	<node lat="61.21311111122908" lon="5.246699995750973" id="-72093">
		<tag k="name" v="Svartegjelet" />
		<tag k="natural" v="valley" />
		<tag k="place" v="locality" />
		<tag k="ssr:stedsnr" v="103936" />
	</node>
	<node lat="61.13276944578959" lon="5.2419055526394125" id="-72094">
		<tag k="name" v="Sjoneskletten" />
		<tag k="natural" v="hill" />
		<tag k="place" v="locality" />
		<tag k="ssr:stedsnr" v="104035" />
	</node>
	<node lat="61.09133610688119" lon="5.401488887982255" id="-72095">
		<tag k="fixme" v="consider natural=peak for the most distinct mountains in the district" />
		<tag k="name" v="Vetlekjosen" />
		<tag k="natural" v="hill" />
		<tag k="place" v="locality" />
		<tag k="ssr:stedsnr" v="104546" />
	</node>
	<node lat="61.191291662356235" lon="5.349102776348476" id="-72096">
		<tag k="name" v="Gurihaugen" />
		<tag k="natural" v="hill" />
		<tag k="place" v="locality" />
		<tag k="ssr:stedsnr" v="104164" />
	</node>
	<node lat="61.11830277863772" lon="5.347688887061937" id="-72097">
		<tag k="fixme" v="consider natural=peak for the most distinct mountains in the district" />
		<tag k="name" v="Kalsvikfjellet" />
		<tag k="natural" v="hill" />
		<tag k="place" v="locality" />
		<tag k="ssr:stedsnr" v="104234" />
	</node>
	<node lat="61.204452781281994" lon="5.4057500085127375" id="-72098">
		<tag k="name" v="Lybakkliene" />
		<tag k="natural" v="slope" />
		<tag k="place" v="locality" />
		<tag k="ssr:stedsnr" v="104522" />
	</node>
	<node lat="61.16732221923344" lon="5.441591668009931" id="-72099">
		<tag k="fixme" v="consider natural=peak for the most distinct mountains in the district" />
		<tag k="name" v="Nykkedalsfjellet" />
		<tag k="natural" v="hill" />
		<tag k="place" v="locality" />
		<tag k="ssr:stedsnr" v="104592" />
	</node>
	<node lat="61.257958334406304" lon="5.153197213119446" id="-72100">
		<tag k="name" v="Oksegjelet" />
		<tag k="natural" v="gorge" />
		<tag k="ssr:stedsnr" v="104648" />
	</node>
	<node lat="61.127363886936536" lon="5.426816664251188" id="-72102">
		<tag k="fixme" v="consider natural=peak for the most distinct mountains in the district" />
		<tag k="name" v="Koren" />
		<tag k="natural" v="hill" />
		<tag k="place" v="locality" />
		<tag k="ssr:stedsnr" v="104953" />
	</node>
	<node lat="61.22389999797061" lon="5.205844452681775" id="-72104">
		<tag k="fixme" v="consider natural=peak for the most distinct mountains in the district" />
		<tag k="name" v="Salbuåsen" />
		<tag k="natural" v="hill" />
		<tag k="place" v="locality" />
		<tag k="ssr:stedsnr" v="104964" />
	</node>
	<node lat="61.13152777346154" lon="5.4058722189621085" id="-72105">
		<tag k="name" v="Grytehaug" />
		<tag k="natural" v="hill" />
		<tag k="place" v="locality" />
		<tag k="ssr:stedsnr" v="104966" />
	</node>
	<node lat="61.25040277362397" lon="5.195258328349934" id="-72108">
		<tag k="name" v="Blomrusta" />
		<tag k="natural" v="hill" />
		<tag k="place" v="locality" />
		<tag k="ssr:stedsnr" v="129546" />
	</node>
	<node lat="61.255072226122834" lon="5.254800006622301" id="-72109">
		<tag k="name" v="Svarthammaren" />
		<tag k="place" v="locality" />
		<tag k="ssr:stedsnr" v="129548" />
	</node>
	<node lat="61.249838886493734" lon="5.253725002342855" id="-72110">
		<tag k="name" v="Haukenova" />
		<tag k="natural" v="hill" />
		<tag k="place" v="locality" />
		<tag k="ssr:stedsnr" v="129552" />
	</node>
	<node lat="61.25393333661235" lon="5.223716670264513" id="-72111">
		<tag k="name" v="Riset" />
		<tag k="place" v="locality" />
		<tag k="ssr:stedsnr" v="129554" />
	</node>
	<node lat="61.271233337440435" lon="5.202097222553396" id="-72112">
		<tag k="name" v="Middagsdalen" />
		<tag k="natural" v="valley" />
		<tag k="place" v="locality" />
		<tag k="ssr:stedsnr" v="129578" />
	</node>
	<node lat="61.260844442437836" lon="5.14438054780226" id="-72113">
		<tag k="name" v="Storedyrdalen" />
		<tag k="natural" v="valley" />
		<tag k="place" v="locality" />
		<tag k="ssr:stedsnr" v="129579" />
	</node>
	<node lat="61.27618888860274" lon="5.107016658003695" id="-72115">
		<tag k="name" v="Håskardet" />
		<tag k="natural" v="valley" />
		<tag k="place" v="locality" />
		<tag k="ssr:stedsnr" v="129610" />
	</node>
	<node lat="61.14898055842105" lon="5.308119442357238" id="-72117">
		<tag k="name" v="Tjørnhaugen" />
		<tag k="natural" v="hill" />
		<tag k="place" v="locality" />
		<tag k="ssr:stedsnr" v="130469" />
	</node>
	<node lat="61.1171583308789" lon="5.449327783275606" id="-72118">
		<tag k="alt_name" v="Basteskaret" />
		<tag k="name" v="Basteskardet" />
		<tag k="natural" v="valley" />
		<tag k="place" v="locality" />
		<tag k="ssr:stedsnr" v="130532" />
	</node>
	<node lat="61.19857222323016" lon="5.113225006087634" id="-72121">
		<tag k="alt_name" v="Klementheia" />
		<tag k="fixme" v="consider natural=peak for the most distinct mountains in the district" />
		<tag k="name" v="Klemetheia" />
		<tag k="natural" v="hill" />
		<tag k="place" v="locality" />
		<tag k="ssr:stedsnr" v="130633" />
	</node>
	<node lat="61.186697224284856" lon="5.179377781527261" id="-72125">
		<tag k="fixme" v="consider natural=peak for the most distinct mountains in the district" />
		<tag k="name" v="Ramnefjellet" />
		<tag k="natural" v="hill" />
		<tag k="place" v="locality" />
		<tag k="ssr:stedsnr" v="130658" />
	</node>
	<node lat="61.25535277458198" lon="5.1553777760659525" id="-72129">
		<tag k="fixme" v="consider natural=peak for the most distinct mountains in the district" />
		<tag k="name" v="Nipa" />
		<tag k="natural" v="hill" />
		<tag k="place" v="locality" />
		<tag k="ssr:stedsnr" v="130670" />
	</node>
	<node lat="61.17499444550405" lon="5.2144888810129855" id="-72131">
		<tag k="fixme" v="consider natural=peak for the most distinct mountains in the district" />
		<tag k="name" v="Lihesten" />
		<tag k="natural" v="hill" />
		<tag k="place" v="locality" />
		<tag k="ssr:stedsnr" v="151332" />
	</node>
	<node lat="61.24868610829863" lon="5.070247228182835" id="-72136">
		<tag k="name" v="Gravalia" />
		<tag k="natural" v="slope" />
		<tag k="place" v="locality" />
		<tag k="ssr:stedsnr" v="164098" />
	</node>
	<node lat="61.2021527806323" lon="5.345975001142942" id="-72137">
		<tag k="name" v="Markhuslia" />
		<tag k="natural" v="slope" />
		<tag k="place" v="locality" />
		<tag k="ssr:stedsnr" v="164175" />
	</node>
	<node lat="61.14410555806821" lon="5.189905564432495" id="-72138">
		<tag k="fixme" v="consider natural=peak for the most distinct mountains in the district" />
		<tag k="name" v="Årvikheia" />
		<tag k="natural" v="hill" />
		<tag k="place" v="locality" />
		<tag k="ssr:stedsnr" v="164197" />
	</node>
	<node lat="61.16643889225171" lon="5.205124991110828" id="-72140">
		<tag k="name" v="Ospehaugen" />
		<tag k="natural" v="hill" />
		<tag k="place" v="locality" />
		<tag k="ssr:stedsnr" v="164287" />
	</node>
	<node lat="61.13587499783561" lon="5.242161111637027" id="-72141">
		<tag k="name" v="Kvitenova" />
		<tag k="natural" v="hill" />
		<tag k="place" v="locality" />
		<tag k="ssr:stedsnr" v="164034" />
	</node>
	<node lat="61.2299166671314" lon="5.1154611143003335" id="-72142">
		<tag k="fixme" v="consider natural=peak for the most distinct mountains in the district" />
		<tag k="name" v="Rustene" />
		<tag k="natural" v="hill" />
		<tag k="place" v="locality" />
		<tag k="ssr:stedsnr" v="164238" />
	</node>
	<node lat="61.24336111310672" lon="5.366355553833532" id="-72143">
		<tag k="name" v="Skaraheia" />
		<tag k="natural" v="hill" />
		<tag k="place" v="locality" />
		<tag k="ssr:stedsnr" v="164241" />
	</node>
	<node lat="61.155561109101214" lon="5.331644445959802" id="-72144">
		<tag k="fixme" v="consider natural=peak for the most distinct mountains in the district" />
		<tag k="name" v="Oldrehaugen" />
		<tag k="natural" v="hill" />
		<tag k="place" v="locality" />
		<tag k="ssr:stedsnr" v="164243" />
	</node>
	<node lat="61.123036110150125" lon="5.39068333592935" id="-72147">
		<tag k="name" v="Skinstøet" />
		<tag k="natural" v="valley" />
		<tag k="place" v="locality" />
		<tag k="ssr:stedsnr" v="164455" />
	</node>
	<node lat="61.19570000240332" lon="5.4070083323646445" id="-72148">
		<tag k="name" v="Fosselvhamrane" />
		<tag k="natural" v="hill" />
		<tag k="place" v="locality" />
		<tag k="ssr:stedsnr" v="164595" />
	</node>
	<node lat="61.18525278039246" lon="5.35639445278095" id="-72151">
		<tag k="fixme" v="consider natural=peak for the most distinct mountains in the district" />
		<tag k="name" v="Brendehaugen" />
		<tag k="natural" v="hill" />
		<tag k="place" v="locality" />
		<tag k="ssr:stedsnr" v="164534" />
	</node>
	<node lat="61.11996111024005" lon="5.310563883815869" id="-72152">
		<tag k="name" v="Hyljane" />
		<tag k="place" v="locality" />
		<tag k="ssr:stedsnr" v="164555" />
	</node>
	<node lat="61.08059166771435" lon="5.402580564192893" id="-72153">
		<tag k="fixme" v="consider natural=peak for the most distinct mountains in the district" />
		<tag k="name" v="Husefjell" />
		<tag k="natural" v="hill" />
		<tag k="place" v="locality" />
		<tag k="ssr:stedsnr" v="164620" />
	</node>
	<node lat="61.095633330072495" lon="5.395522220898657" id="-72154">
		<tag k="name" v="Beitelia" />
		<tag k="natural" v="slope" />
		<tag k="place" v="locality" />
		<tag k="ssr:stedsnr" v="164627" />
	</node>
	<node lat="61.13061389031324" lon="5.423280560568674" id="-72156">
		<tag k="name" v="Venebotsheia" />
		<tag k="natural" v="hill" />
		<tag k="place" v="locality" />
		<tag k="ssr:stedsnr" v="164947" />
	</node>
	<node lat="61.135961114070895" lon="5.398672219436486" id="-72157">
		<tag k="name" v="Storelia" />
		<tag k="natural" v="slope" />
		<tag k="place" v="locality" />
		<tag k="ssr:stedsnr" v="164955" />
	</node>
	<node lat="61.13617778146242" lon="5.427252770491209" id="-72159">
		<tag k="name" v="Bjørndalsgjelet" />
		<tag k="natural" v="gorge" />
		<tag k="ssr:stedsnr" v="165000" />
	</node>
	<node lat="61.25414999648408" lon="5.228000000096703" id="-72160">
		<tag k="alt_name" v="Indre Ramsgrø" />
		<tag k="name" v="Indreramsgrø" />
		<tag k="place" v="locality" />
		<tag k="ssr:stedsnr" v="190555" />
	</node>
	<node lat="61.14732777451228" lon="5.26455555837619" id="-72165">
		<tag k="name" v="Raudeberget" />
		<tag k="natural" v="hill" />
		<tag k="place" v="locality" />
		<tag k="ssr:stedsnr" v="191481" />
	</node>
	<node lat="61.154202779967335" lon="5.356761108849072" id="-72166">
		<tag k="fixme" v="consider natural=peak for the most distinct mountains in the district" />
		<tag k="name" v="Preståsen" />
		<tag k="natural" v="hill" />
		<tag k="place" v="locality" />
		<tag k="ssr:stedsnr" v="191483" />
	</node>
	<node lat="61.23293333282696" lon="5.22204166963159" id="-72170">
		<tag k="name" v="Ønadalen" />
		<tag k="natural" v="valley" />
		<tag k="place" v="locality" />
		<tag k="ssr:stedsnr" v="191588" />
	</node>
	<node lat="61.168091662830314" lon="5.102736108169542" id="-72171">
		<tag k="alt_name" v="Gandegjøtten" />
		<tag k="fixme" v="consider natural=peak for the most distinct mountains in the district" />
		<tag k="name" v="Gandegytten" />
		<tag k="natural" v="hill" />
		<tag k="place" v="locality" />
		<tag k="ssr:stedsnr" v="191676" />
	</node>
	<node lat="61.184213892993334" lon="5.102091663284854" id="-72178">
		<tag k="fixme" v="consider natural=peak for the most distinct mountains in the district" />
		<tag k="name" v="Husefjellet" />
		<tag k="natural" v="hill" />
		<tag k="place" v="locality" />
		<tag k="ssr:stedsnr" v="191629" />
	</node>
	<node lat="61.22853055898715" lon="5.051680553754637" id="-72182">
		<tag k="alt_name" v="Godalen" />
		<tag k="name" v="Goddalen" />
		<tag k="natural" v="valley" />
		<tag k="place" v="locality" />
		<tag k="ssr:stedsnr" v="191883" />
	</node>
	<node lat="61.22351944213794" lon="5.397519446800747" id="-72186">
		<tag k="name" v="Skrådalen" />
		<tag k="natural" v="valley" />
		<tag k="place" v="locality" />
		<tag k="ssr:stedsnr" v="224255" />
	</node>
	<node lat="61.1815444459354" lon="5.135194449235854" id="-72188">
		<tag k="name" v="Lyhaugane" />
		<tag k="natural" v="hill" />
		<tag k="place" v="locality" />
		<tag k="ssr:stedsnr" v="224353" />
	</node>
	<node lat="61.141686106966596" lon="5.387061118468505" id="-72189">
		<tag k="fixme" v="consider natural=peak for the most distinct mountains in the district" />
		<tag k="name" v="Fuglåsen" />
		<tag k="natural" v="hill" />
		<tag k="place" v="locality" />
		<tag k="ssr:stedsnr" v="224371" />
	</node>
	<node lat="61.24211389183605" lon="5.224016672828549" id="-72190">
		<tag k="name" v="Bjørnehaug" />
		<tag k="natural" v="hill" />
		<tag k="place" v="locality" />
		<tag k="ssr:stedsnr" v="225016" />
	</node>
	<node lat="61.12762499678194" lon="5.259724997370027" id="-72194">
		<tag k="name" v="Sætevikbrotet" />
		<tag k="natural" v="slope" />
		<tag k="place" v="locality" />
		<tag k="ssr:stedsnr" v="225051" />
	</node>
	<node lat="61.12940277522152" lon="5.246149994480853" id="-72195">
		<tag k="fixme" v="consider natural=peak for the most distinct mountains in the district" />
		<tag k="name" v="Svehaugen" />
		<tag k="natural" v="hill" />
		<tag k="place" v="locality" />
		<tag k="ssr:stedsnr" v="225054" />
	</node>
	<node lat="61.136180557509455" lon="5.329191660658312" id="-72198">
		<tag k="name" v="Troåsen" />
		<tag k="natural" v="hill" />
		<tag k="place" v="locality" />
		<tag k="ssr:stedsnr" v="225147" />
	</node>
	<node lat="61.215824998528184" lon="5.394591663443765" id="-72200">
		<tag k="fixme" v="consider natural=peak for the most distinct mountains in the district" />
		<tag k="name" v="Stølsfjellet" />
		<tag k="natural" v="hill" />
		<tag k="place" v="locality" />
		<tag k="ssr:stedsnr" v="225172" />
	</node>
	<node lat="61.1924333320117" lon="5.35136389535856" id="-72201">
		<tag k="name" v="Mørkedalen" />
		<tag k="natural" v="valley" />
		<tag k="place" v="locality" />
		<tag k="ssr:stedsnr" v="225173" />
	</node>
	<node lat="61.239297225122385" lon="5.344152777286883" id="-72202">
		<tag k="name" v="Olanova" />
		<tag k="natural" v="hill" />
		<tag k="place" v="locality" />
		<tag k="ssr:stedsnr" v="225218" />
	</node>
	<node lat="61.23213055463438" lon="5.134555557699035" id="-72204">
		<tag k="fixme" v="consider natural=peak for the most distinct mountains in the district" />
		<tag k="name" v="Knolten" />
		<tag k="natural" v="hill" />
		<tag k="place" v="locality" />
		<tag k="ssr:stedsnr" v="225225" />
	</node>
	<node lat="61.11326944323419" lon="5.290263894090083" id="-72205">
		<tag k="name" v="Krossen" />
		<tag k="natural" v="hill" />
		<tag k="place" v="locality" />
		<tag k="ssr:stedsnr" v="225467" />
	</node>
	<node lat="61.17529444213533" lon="5.346505552034587" id="-72206">
		<tag k="name" v="Fløyen" />
		<tag k="natural" v="hill" />
		<tag k="place" v="locality" />
		<tag k="ssr:stedsnr" v="225477" />
	</node>
	<node lat="61.19721944251447" lon="5.403497221670128" id="-72207">
		<tag k="fixme" v="consider natural=peak for the most distinct mountains in the district" />
		<tag k="name" v="Vetlesåta" />
		<tag k="natural" v="hill" />
		<tag k="place" v="locality" />
		<tag k="ssr:stedsnr" v="225558" />
	</node>
	<node lat="61.1909472203757" lon="5.413111115980689" id="-72208">
		<tag k="fixme" v="consider natural=peak for the most distinct mountains in the district" />
		<tag k="name" v="Rindane" />
		<tag k="natural" v="hill" />
		<tag k="place" v="locality" />
		<tag k="ssr:stedsnr" v="225560" />
	</node>
	<node lat="61.19390277678981" lon="5.408141668628895" id="-72209">
		<tag k="name" v="Solegladhaugen" />
		<tag k="natural" v="hill" />
		<tag k="place" v="locality" />
		<tag k="ssr:stedsnr" v="225562" />
	</node>
	<node lat="61.161586109426715" lon="5.4253555503778745" id="-72211">
		<tag k="name" v="Brendehaug - gråbeinsgjelet" />
		<tag k="natural" v="valley" />
		<tag k="place" v="locality" />
		<tag k="ssr:stedsnr" v="225631" />
	</node>
	<node lat="61.254594441901475" lon="5.105855555939364" id="-72212">
		<tag k="fixme" v="consider natural=peak for the most distinct mountains in the district" />
		<tag k="name" v="Myklebusthaugen" />
		<tag k="natural" v="hill" />
		<tag k="place" v="locality" />
		<tag k="ssr:stedsnr" v="225695" />
	</node>
	<node lat="61.163488886184176" lon="5.417866670920012" id="-72213">
		<tag k="name" v="Svehaugen" />
		<tag k="natural" v="hill" />
		<tag k="place" v="locality" />
		<tag k="ssr:stedsnr" v="225633" />
	</node>
	<node lat="61.19849444044443" lon="5.311519435755667" id="-72216">
		<tag k="name" v="Risheia" />
		<tag k="natural" v="hill" />
		<tag k="place" v="locality" />
		<tag k="ssr:stedsnr" v="225864" />
	</node>
	<node lat="61.19763333142812" lon="5.311372226396745" id="-72218">
		<tag k="name" v="Furehaugane" />
		<tag k="natural" v="hill" />
		<tag k="place" v="locality" />
		<tag k="ssr:stedsnr" v="225868" />
	</node>
	<node lat="61.22660833794863" lon="5.135627783236778" id="-72219">
		<tag k="name" v="Langhammaren" />
		<tag k="natural" v="hill" />
		<tag k="place" v="locality" />
		<tag k="ssr:stedsnr" v="225869" />
	</node>
	<node lat="61.21694443992755" lon="5.245577773945209" id="-72220">
		<tag k="fixme" v="consider natural=peak for the most distinct mountains in the district" />
		<tag k="name" v="Stølshaugane" />
		<tag k="natural" v="hill" />
		<tag k="place" v="locality" />
		<tag k="ssr:stedsnr" v="225956" />
	</node>
	<node lat="61.22309444129783" lon="5.2366916659801275" id="-72221">
		<tag k="name" v="Tippheia" />
		<tag k="natural" v="hill" />
		<tag k="place" v="locality" />
		<tag k="ssr:stedsnr" v="225958" />
	</node>
	<node lat="61.21988333563366" lon="5.24302778187363" id="-72222">
		<tag k="name" v="Smålihellarane" />
		<tag k="natural" v="hill" />
		<tag k="place" v="locality" />
		<tag k="ssr:stedsnr" v="225962" />
	</node>
	<node lat="61.15012777475091" lon="5.3900416688064805" id="-72223">
		<tag k="fixme" v="consider natural=peak for the most distinct mountains in the district" />
		<tag k="name" v="Rotåsen" />
		<tag k="natural" v="hill" />
		<tag k="place" v="locality" />
		<tag k="ssr:stedsnr" v="225929" />
	</node>
	<node lat="61.12139999981577" lon="5.340811120333284" id="-72229">
		<tag k="name" v="Hanen" />
		<tag k="natural" v="hill" />
		<tag k="place" v="locality" />
		<tag k="ssr:stedsnr" v="286253" />
	</node>
	<node lat="61.11630555702475" lon="5.360255554979599" id="-72230">
		<tag k="name" v="Blombotnen" />
		<tag k="natural" v="valley" />
		<tag k="place" v="locality" />
		<tag k="ssr:stedsnr" v="286271" />
	</node>
	<node lat="61.23929167120344" lon="5.251391674746762" id="-72232">
		<tag k="fixme" v="consider natural=peak for the most distinct mountains in the district" />
		<tag k="name" v="Norlifjellet" />
		<tag k="natural" v="hill" />
		<tag k="place" v="locality" />
		<tag k="ssr:stedsnr" v="285051" />
	</node>
	<node lat="61.231608334158764" lon="5.242297215188404" id="-72233">
		<tag k="name" v="Langehaug" />
		<tag k="natural" v="hill" />
		<tag k="place" v="locality" />
		<tag k="ssr:stedsnr" v="285060" />
	</node>
	<node lat="61.22485555389069" lon="5.359277775074175" id="-72234">
		<tag k="name" v="Holtahola" />
		<tag k="natural" v="valley" />
		<tag k="place" v="locality" />
		<tag k="ssr:stedsnr" v="285158" />
	</node>
	<node lat="61.22526944461596" lon="5.39904722865542" id="-72235">
		<tag k="name" v="Skrådalrabben" />
		<tag k="natural" v="hill" />
		<tag k="place" v="locality" />
		<tag k="ssr:stedsnr" v="285252" />
	</node>
	<node lat="61.218091662232084" lon="5.3478888854339734" id="-72236">
		<tag k="name" v="Utløbakken" />
		<tag k="natural" v="slope" />
		<tag k="place" v="locality" />
		<tag k="ssr:stedsnr" v="285259" />
	</node>
	<node lat="61.198213892616124" lon="5.108372220557615" id="-72237">
		<tag k="name" v="Lia" />
		<tag k="natural" v="slope" />
		<tag k="place" v="locality" />
		<tag k="ssr:stedsnr" v="285323" />
	</node>
	<node lat="61.17093888659016" lon="5.254211113214954" id="-72239">
		<tag k="name" v="Bakkane" />
		<tag k="natural" v="slope" />
		<tag k="place" v="locality" />
		<tag k="ssr:stedsnr" v="285520" />
	</node>
	<node lat="61.124872220060126" lon="5.357636119748882" id="-72241">
		<tag k="name" v="Betnene" />
		<tag k="natural" v="hill" />
		<tag k="place" v="locality" />
		<tag k="ssr:stedsnr" v="285451" />
	</node>
	<node lat="61.1957138917312" lon="5.323061108953985" id="-72243">
		<tag k="name" v="Rabbane" />
		<tag k="natural" v="hill" />
		<tag k="place" v="locality" />
		<tag k="ssr:stedsnr" v="285855" />
	</node>
	<node lat="61.190933332120274" lon="5.322277779658472" id="-72244">
		<tag k="name" v="Grasdalane" />
		<tag k="natural" v="valley" />
		<tag k="place" v="locality" />
		<tag k="ssr:stedsnr" v="285857" />
	</node>
	<node lat="61.25648889078404" lon="5.169599991665946" id="-72245">
		<tag k="name" v="Gangedalen" />
		<tag k="natural" v="valley" />
		<tag k="place" v="locality" />
		<tag k="ssr:stedsnr" v="285863" />
	</node>
	<node lat="61.21518055737889" lon="5.243055558566441" id="-72246">
		<tag k="name" v="Rabbane" />
		<tag k="natural" v="hill" />
		<tag k="place" v="locality" />
		<tag k="ssr:stedsnr" v="285950" />
	</node>
	<node lat="61.160580551535254" lon="5.404755553455073" id="-72247">
		<tag k="fixme" v="consider natural=peak for the most distinct mountains in the district" />
		<tag k="name" v="Åsen" />
		<tag k="natural" v="hill" />
		<tag k="place" v="locality" />
		<tag k="ssr:stedsnr" v="286212" />
	</node>
	<node lat="61.22452221786137" lon="5.229394447639737" id="-72248">
		<tag k="fixme" v="consider natural=peak for the most distinct mountains in the district" />
		<tag k="name" v="Nova" />
		<tag k="natural" v="hill" />
		<tag k="place" v="locality" />
		<tag k="ssr:stedsnr" v="285970" />
	</node>
	<node lat="61.21667500343178" lon="5.229208335433556" id="-72249">
		<tag k="fixme" v="consider natural=peak for the most distinct mountains in the district" />
		<tag k="name" v="Gaupåsen" />
		<tag k="natural" v="hill" />
		<tag k="place" v="locality" />
		<tag k="ssr:stedsnr" v="285971" />
	</node>
	<node lat="61.094766665603665" lon="5.403549990957741" id="-72251">
		<tag k="name" v="Stølshaugen" />
		<tag k="natural" v="hill" />
		<tag k="place" v="locality" />
		<tag k="ssr:stedsnr" v="286565" />
	</node>
	<node lat="61.09804444401254" lon="5.400497231307761" id="-72252">
		<tag k="name" v="Hildersheia" />
		<tag k="natural" v="hill" />
		<tag k="place" v="locality" />
		<tag k="ssr:stedsnr" v="286566" />
	</node>
	<node lat="61.184436108239666" lon="5.433283325881013" id="-72253">
		<tag k="name" v="Blåfjell" />
		<tag k="natural" v="hill" />
		<tag k="place" v="locality" />
		<tag k="ssr:stedsnr" v="286620" />
	</node>
	<node lat="61.14601111264161" lon="5.353269438463134" id="-72256">
		<tag k="fixme" v="consider natural=peak for the most distinct mountains in the district" />
		<tag k="name" v="Fossfjellet" />
		<tag k="natural" v="hill" />
		<tag k="place" v="locality" />
		<tag k="ssr:stedsnr" v="286989" />
	</node>
	<node lat="61.21177222518084" lon="5.2803166633745295" id="-72269">
		<tag k="fixme" v="consider natural=peak for the most distinct mountains in the district" />
		<tag k="name" v="Sauesnukane" />
		<tag k="natural" v="hill" />
		<tag k="place" v="locality" />
		<tag k="ssr:stedsnr" v="312639" />
	</node>
	<node lat="61.21371111430911" lon="5.406691669050693" id="-72270">
		<tag k="fixme" v="consider natural=peak for the most distinct mountains in the district" />
		<tag k="name" v="Slettheia" />
		<tag k="natural" v="hill" />
		<tag k="place" v="locality" />
		<tag k="ssr:stedsnr" v="312643" />
	</node>
	<node lat="61.19914444572029" lon="5.144541663984667" id="-72272">
		<tag k="name" v="Langedalen" />
		<tag k="natural" v="valley" />
		<tag k="place" v="locality" />
		<tag k="ssr:stedsnr" v="312648" />
	</node>
	<node lat="61.13402222202703" lon="5.349941672893145" id="-72276">
		<tag k="fixme" v="consider natural=peak for the most distinct mountains in the district" />
		<tag k="name" v="Arefjellet" />
		<tag k="natural" v="hill" />
		<tag k="place" v="locality" />
		<tag k="ssr:stedsnr" v="313534" />
	</node>
	<node lat="61.23738888756396" lon="5.214477773980375" id="-72279">
		<tag k="fixme" v="consider natural=peak for the most distinct mountains in the district" />
		<tag k="name" v="Litlekvimsen" />
		<tag k="natural" v="hill" />
		<tag k="place" v="locality" />
		<tag k="ssr:stedsnr" v="313388" />
	</node>
	<node lat="61.2403083304618" lon="5.252249999397308" id="-72280">
		<tag k="alt_name" v="Norliskaret" />
		<tag k="name" v="Nordliskardet" />
		<tag k="natural" v="valley" />
		<tag k="place" v="locality" />
		<tag k="ssr:stedsnr" v="313394" />
	</node>
	<node lat="61.23923888626272" lon="5.225041665484127" id="-72283">
		<tag k="name" v="Snøkista" />
		<tag k="natural" v="hill" />
		<tag k="place" v="locality" />
		<tag k="ssr:stedsnr" v="345046" />
	</node>
	<node lat="61.149266669246536" lon="5.260461110584592" id="-72285">
		<tag k="fixme" v="consider natural=peak for the most distinct mountains in the district" />
		<tag k="name" v="Raudeberget" />
		<tag k="natural" v="hill" />
		<tag k="place" v="locality" />
		<tag k="ssr:stedsnr" v="345247" />
	</node>
	<node lat="61.1794999990585" lon="5.368305550458479" id="-72287">
		<tag k="fixme" v="consider natural=peak for the most distinct mountains in the district" />
		<tag k="name" v="Buelleberget" />
		<tag k="natural" v="hill" />
		<tag k="place" v="locality" />
		<tag k="ssr:stedsnr" v="346486" />
	</node>
	<node lat="61.09158611343932" lon="5.418163890586373" id="-72288">
		<tag k="fixme" v="consider natural=peak for the most distinct mountains in the district" />
		<tag k="name" v="Menipa" />
		<tag k="natural" v="hill" />
		<tag k="place" v="locality" />
		<tag k="ssr:stedsnr" v="346563" />
	</node>
	<node lat="61.13648055588963" lon="5.316486118619777" id="-72289">
		<tag k="fixme" v="consider natural=peak for the most distinct mountains in the district" />
		<tag k="name" v="Stølsåsen" />
		<tag k="natural" v="hill" />
		<tag k="place" v="locality" />
		<tag k="ssr:stedsnr" v="346054" />
	</node>
	<node lat="61.24817777529196" lon="5.05593889627151" id="-72290">
		<tag k="fixme" v="consider natural=peak for the most distinct mountains in the district" />
		<tag k="name" v="Såta" />
		<tag k="natural" v="hill" />
		<tag k="place" v="locality" />
		<tag k="ssr:stedsnr" v="346088" />
	</node>
	<node lat="61.246925003620845" lon="5.067397215865316" id="-72291">
		<tag k="name" v="Stølsskaret" />
		<tag k="natural" v="valley" />
		<tag k="place" v="locality" />
		<tag k="ssr:stedsnr" v="346089" />
	</node>
	<node lat="61.14529722611353" lon="5.328777785387061" id="-72294">
		<tag k="name" v="Middagsskaret" />
		<tag k="natural" v="valley" />
		<tag k="place" v="locality" />
		<tag k="ssr:stedsnr" v="346187" />
	</node>
	<node lat="61.172980551244834" lon="5.378316671097053" id="-72295">
		<tag k="fixme" v="consider natural=peak for the most distinct mountains in the district" />
		<tag k="name" v="Kletten" />
		<tag k="natural" v="hill" />
		<tag k="place" v="locality" />
		<tag k="ssr:stedsnr" v="346295" />
	</node>
	<node lat="61.09785278021031" lon="5.418744446719959" id="-72298">
		<tag k="fixme" v="consider natural=peak for the most distinct mountains in the district" />
		<tag k="name" v="Fagerdalsnipa" />
		<tag k="natural" v="hill" />
		<tag k="place" v="locality" />
		<tag k="ssr:stedsnr" v="346553" />
	</node>
	<node lat="61.16307221937466" lon="5.413047230691844" id="-72299">
		<tag k="name" v="Klufta" />
		<tag k="natural" v="hill" />
		<tag k="place" v="locality" />
		<tag k="ssr:stedsnr" v="346610" />
	</node>
	<node lat="61.20478610900118" lon="5.4247333300713985" id="-72300">
		<tag k="name" v="Remmane" />
		<tag k="natural" v="hill" />
		<tag k="place" v="locality" />
		<tag k="ssr:stedsnr" v="346643" />
	</node>
	<node lat="61.25089444096428" lon="5.084002785009752" id="-72301">
		<tag k="name" v="Sandnesheia" />
		<tag k="natural" v="hill" />
		<tag k="place" v="locality" />
		<tag k="ssr:stedsnr" v="346689" />
	</node>
	<node lat="61.19800277826761" lon="5.302177783435599" id="-72302">
		<tag k="name" v="Heggene" />
		<tag k="natural" v="slope" />
		<tag k="place" v="locality" />
		<tag k="ssr:stedsnr" v="346879" />
	</node>
	<node lat="61.20316666300565" lon="5.307708326934411" id="-72303">
		<tag k="fixme" v="consider natural=peak for the most distinct mountains in the district" />
		<tag k="name" v="Svartesteinsheia" />
		<tag k="natural" v="hill" />
		<tag k="place" v="locality" />
		<tag k="ssr:stedsnr" v="346883" />
	</node>
	<node lat="61.225319440519506" lon="5.121574991757623" id="-72304">
		<tag k="name" v="Einehaugen" />
		<tag k="natural" v="hill" />
		<tag k="place" v="locality" />
		<tag k="ssr:stedsnr" v="346888" />
	</node>
	<node lat="61.161558337611226" lon="5.437113885635364" id="-72306">
		<tag k="name" v="Storhelleren" />
		<tag k="natural" v="hill" />
		<tag k="place" v="locality" />
		<tag k="ssr:stedsnr" v="346899" />
	</node>
	<node lat="61.21423333330979" lon="5.255716675713231" id="-72307">
		<tag k="name" v="Vedskåra" />
		<tag k="place" v="locality" />
		<tag k="ssr:stedsnr" v="346934" />
	</node>
	<node lat="61.213302776091005" lon="5.26846666014614" id="-72308">
		<tag k="name" v="Kleivane" />
		<tag k="natural" v="slope" />
		<tag k="place" v="locality" />
		<tag k="ssr:stedsnr" v="346947" />
	</node>
	<node lat="61.27392778113574" lon="5.219874998955103" id="-72312">
		<tag k="alt_name" v="Hestegardnova" />
		<tag k="name" v="Hestegardsnova" />
		<tag k="natural" v="hill" />
		<tag k="place" v="locality" />
		<tag k="ssr:stedsnr" v="371589" />
	</node>
	<node lat="61.26807777461455" lon="5.240144443474965" id="-72313">
		<tag k="fixme" v="consider natural=peak for the most distinct mountains in the district" />
		<tag k="name" v="Almfjellet" />
		<tag k="natural" v="hill" />
		<tag k="place" v="locality" />
		<tag k="ssr:stedsnr" v="371548" />
	</node>
	<node lat="61.13179444012627" lon="5.296169438434905" id="-72316">
		<tag k="fixme" v="consider natural=peak for the most distinct mountains in the district" />
		<tag k="name" v="Indrefjordheia" />
		<tag k="natural" v="hill" />
		<tag k="place" v="locality" />
		<tag k="ssr:stedsnr" v="373531" />
	</node>
	<node lat="61.14339722383337" lon="5.408355548621634" id="-72317">
		<tag k="fixme" v="consider natural=peak for the most distinct mountains in the district" />
		<tag k="name" v="Høgeholten" />
		<tag k="natural" v="hill" />
		<tag k="place" v="locality" />
		<tag k="ssr:stedsnr" v="373536" />
	</node>
	<node lat="61.23329722359615" lon="5.128311113732446" id="-72320">
		<tag k="name" v="Rutlelia" />
		<tag k="natural" v="slope" />
		<tag k="place" v="locality" />
		<tag k="ssr:stedsnr" v="373370" />
	</node>
	<node lat="61.22579444400652" lon="5.297452786065038" id="-72321">
		<tag k="fixme" v="consider natural=peak for the most distinct mountains in the district" />
		<tag k="name" v="Tverrfjellet" />
		<tag k="natural" v="hill" />
		<tag k="place" v="locality" />
		<tag k="ssr:stedsnr" v="373661" />
	</node>
	<node lat="61.16644721840356" lon="5.321741669515748" id="-72324">
		<tag k="name" v="Kleivelia" />
		<tag k="natural" v="slope" />
		<tag k="place" v="locality" />
		<tag k="ssr:stedsnr" v="373727" />
	</node>
	<node lat="61.15896388747615" lon="5.162774991992602" id="-72326">
		<tag k="fixme" v="consider natural=peak for the most distinct mountains in the district" />
		<tag k="name" v="Risnesnipa" />
		<tag k="natural" v="hill" />
		<tag k="place" v="locality" />
		<tag k="ssr:stedsnr" v="373736" />
	</node>
	<node lat="61.19763611565231" lon="5.133216670589189" id="-72327">
		<tag k="fixme" v="consider natural=peak for the most distinct mountains in the district" />
		<tag k="name" v="Tverrfjellet" />
		<tag k="natural" v="hill" />
		<tag k="place" v="locality" />
		<tag k="ssr:stedsnr" v="373673" />
	</node>
	<node lat="61.172369445855146" lon="5.208905552502445" id="-72337">
		<tag k="name" v="Gjengjene" />
		<tag k="place" v="locality" />
		<tag k="ssr:stedsnr" v="406279" />
	</node>
	<node lat="61.12014999968701" lon="5.278649998426098" id="-72340">
		<tag k="name" v="Jota" />
		<tag k="natural" v="valley" />
		<tag k="place" v="locality" />
		<tag k="ssr:stedsnr" v="407034" />
	</node>
	<node lat="61.14454722150859" lon="5.3000888900209375" id="-72341">
		<tag k="name" v="Langehaugen" />
		<tag k="natural" v="hill" />
		<tag k="place" v="locality" />
		<tag k="ssr:stedsnr" v="407063" />
	</node>
	<node lat="61.23293888810339" lon="5.201933341089177" id="-72342">
		<tag k="name" v="Orrenipa" />
		<tag k="natural" v="hill" />
		<tag k="place" v="locality" />
		<tag k="ssr:stedsnr" v="407075" />
	</node>
	<node lat="61.15730833498439" lon="5.298169440782996" id="-72343">
		<tag k="fixme" v="consider natural=peak for the most distinct mountains in the district" />
		<tag k="name" v="Ospåsen" />
		<tag k="natural" v="hill" />
		<tag k="place" v="locality" />
		<tag k="ssr:stedsnr" v="407081" />
	</node>
	<node lat="61.13505833405709" lon="5.310469436671957" id="-72344">
		<tag k="name" v="Vardegjelet" />
		<tag k="natural" v="gorge" />
		<tag k="ssr:stedsnr" v="407088" />
	</node>
	<node lat="61.15978610941875" lon="5.271694447812024" id="-72346">
		<tag k="fixme" v="consider natural=peak for the most distinct mountains in the district" />
		<tag k="name" v="Rørskaret" />
		<tag k="natural" v="hill" />
		<tag k="place" v="locality" />
		<tag k="ssr:stedsnr" v="407297" />
	</node>
	<node lat="61.16749722221569" lon="5.372988889216326" id="-72348">
		<tag k="fixme" v="consider natural=peak for the most distinct mountains in the district" />
		<tag k="name" v="Storehaug" />
		<tag k="natural" v="hill" />
		<tag k="place" v="locality" />
		<tag k="ssr:stedsnr" v="407316" />
	</node>
	<node lat="61.13908333115083" lon="5.381511102251088" id="-72349">
		<tag k="name" v="Geitekletten" />
		<tag k="natural" v="hill" />
		<tag k="place" v="locality" />
		<tag k="ssr:stedsnr" v="407530" />
	</node>
	<node lat="61.078983334409855" lon="5.393183329660363" id="-72350">
		<tag k="fixme" v="consider natural=peak for the most distinct mountains in the district" />
		<tag k="name" v="Nova" />
		<tag k="natural" v="hill" />
		<tag k="place" v="locality" />
		<tag k="ssr:stedsnr" v="407571" />
	</node>
	<node lat="61.19130833060009" lon="5.42712500461216" id="-72351">
		<tag k="name" v="Instebotn" />
		<tag k="natural" v="valley" />
		<tag k="place" v="locality" />
		<tag k="ssr:stedsnr" v="407673" />
	</node>
	<node lat="61.26888333706745" lon="5.1402277773960385" id="-72352">
		<tag k="name" v="Djupedalen" />
		<tag k="natural" v="valley" />
		<tag k="place" v="locality" />
		<tag k="ssr:stedsnr" v="407770" />
	</node>
	<node lat="61.21725555188099" lon="5.253852775515743" id="-72355">
		<tag k="fixme" v="consider natural=peak for the most distinct mountains in the district" />
		<tag k="name" v="Jentenipa" />
		<tag k="natural" v="hill" />
		<tag k="place" v="locality" />
		<tag k="ssr:stedsnr" v="407928" />
	</node>
	<node lat="61.12360277600217" lon="5.420916674278037" id="-72356">
		<tag k="name" v="Leitet" />
		<tag k="place" v="locality" />
		<tag k="ssr:stedsnr" v="407937" />
	</node>
	<node lat="61.266513892001555" lon="5.133586109379065" id="-72361">
		<tag k="fixme" v="consider natural=peak for the most distinct mountains in the district" />
		<tag k="name" v="Svartefjellet" />
		<tag k="natural" v="hill" />
		<tag k="place" v="locality" />
		<tag k="ssr:stedsnr" v="433566" />
	</node>
	<node lat="61.239413892016714" lon="5.2602444406216256" id="-72365">
		<tag k="fixme" v="consider natural=peak for the most distinct mountains in the district" />
		<tag k="name" v="Nonheia" />
		<tag k="natural" v="hill" />
		<tag k="place" v="locality" />
		<tag k="ssr:stedsnr" v="434348" />
	</node>
	<node lat="61.20190555366353" lon="5.313822225650187" id="-72378">
		<tag k="fixme" v="consider natural=peak for the most distinct mountains in the district" />
		<tag k="name" v="Bergsheia" />
		<tag k="natural" v="hill" />
		<tag k="place" v="locality" />
		<tag k="ssr:stedsnr" v="434652" />
	</node>
	<node lat="61.2376277742886" lon="5.177574998431328" id="-72380">
		<tag k="name" v="Gjerdelia" />
		<tag k="natural" v="slope" />
		<tag k="place" v="locality" />
		<tag k="ssr:stedsnr" v="495377" />
	</node>
	<node lat="61.24856666324972" lon="5.08510278179635" id="-72383">
		<tag k="alt_name" v="Furekammen" />
		<tag k="fixme" v="consider natural=peak for the most distinct mountains in the district" />
		<tag k="name" v="Furekamben" />
		<tag k="natural" v="hill" />
		<tag k="place" v="locality" />
		<tag k="ssr:stedsnr" v="496000" />
	</node>
	<node lat="61.170081245715394" lon="5.444774534942761" id="-72385">
		<tag k="name" v="Klendalen" />
		<tag k="natural" v="valley" />
		<tag k="place" v="locality" />
		<tag k="ssr:stedsnr" v="517954" />
	</node>
	<node lat="61.2336972200595" lon="5.2360999958866525" id="-72386">
		<tag k="name" v="Stormhaug" />
		<tag k="natural" v="hill" />
		<tag k="place" v="locality" />
		<tag k="ssr:stedsnr" v="527064" />
	</node>
	<node lat="61.132483336046334" lon="5.2144083406632316" id="-72388">
		<tag k="name" v="Øykjeskåra" />
		<tag k="place" v="locality" />
		<tag k="ssr:stedsnr" v="527093" />
	</node>
	<node lat="61.13253055392304" lon="5.2291250007421715" id="-72394">
		<tag k="fixme" v="consider natural=peak for the most distinct mountains in the district" />
		<tag k="name" v="Skrefjellet" />
		<tag k="natural" v="hill" />
		<tag k="place" v="locality" />
		<tag k="ssr:stedsnr" v="528038" />
	</node>
	<node lat="61.15233610764262" lon="5.302799994675991" id="-72395">
		<tag k="name" v="Storehaugen" />
		<tag k="natural" v="hill" />
		<tag k="place" v="locality" />
		<tag k="ssr:stedsnr" v="528070" />
	</node>
	<node lat="61.235094447816714" lon="5.1205027680402315" id="-72398">
		<tag k="name" v="Bruhaugane" />
		<tag k="natural" v="hill" />
		<tag k="place" v="locality" />
		<tag k="ssr:stedsnr" v="528217" />
	</node>
	<node lat="61.180536113685285" lon="5.10860556096812" id="-72399">
		<tag k="name" v="Klausløypinga" />
		<tag k="place" v="locality" />
		<tag k="ssr:stedsnr" v="528362" />
	</node>
	<node lat="61.12878333357235" lon="5.421163887461039" id="-72400">
		<tag k="fixme" v="consider natural=peak for the most distinct mountains in the district" />
		<tag k="name" v="Blåfjellet" />
		<tag k="natural" v="hill" />
		<tag k="place" v="locality" />
		<tag k="ssr:stedsnr" v="528940" />
	</node>
	<node lat="61.13385555378483" lon="5.3991055623140145" id="-72401">
		<tag k="name" v="Londalhillaren" />
		<tag k="natural" v="hill" />
		<tag k="place" v="locality" />
		<tag k="ssr:stedsnr" v="528957" />
	</node>
	<node lat="61.13383333138954" lon="5.40372777268878" id="-72402">
		<tag k="name" v="Bruås" />
		<tag k="natural" v="hill" />
		<tag k="place" v="locality" />
		<tag k="ssr:stedsnr" v="528962" />
	</node>
	<node lat="61.13288889266409" lon="5.405361118061741" id="-72403">
		<tag k="name" v="Klypet" />
		<tag k="natural" v="slope" />
		<tag k="place" v="locality" />
		<tag k="ssr:stedsnr" v="528966" />
	</node>
	<node lat="61.085461112656375" lon="5.400183333929285" id="-72404">
		<tag k="name" v="Hola" />
		<tag k="natural" v="valley" />
		<tag k="place" v="locality" />
		<tag k="ssr:stedsnr" v="529539" />
	</node>
	<node lat="61.202566669193324" lon="5.411180546959771" id="-72406">
		<tag k="fixme" v="consider natural=peak for the most distinct mountains in the district" />
		<tag k="name" v="Gaupeheia" />
		<tag k="natural" v="hill" />
		<tag k="place" v="locality" />
		<tag k="ssr:stedsnr" v="528557" />
	</node>
	<node lat="61.22358333712328" lon="5.135158327966114" id="-72408">
		<tag k="name" v="Tussehammaren" />
		<tag k="natural" v="hill" />
		<tag k="place" v="locality" />
		<tag k="ssr:stedsnr" v="528881" />
	</node>
	<node lat="61.26906388979117" lon="5.1139388965705805" id="-72409">
		<tag k="name" v="Brukelia" />
		<tag k="natural" v="slope" />
		<tag k="place" v="locality" />
		<tag k="ssr:stedsnr" v="528648" />
	</node>
	<node lat="61.18809444009669" lon="5.096049991948793" id="-72410">
		<tag k="fixme" v="consider natural=peak for the most distinct mountains in the district" />
		<tag k="name" v="Heia" />
		<tag k="natural" v="hill" />
		<tag k="place" v="locality" />
		<tag k="ssr:stedsnr" v="528732" />
	</node>
	<node lat="61.19349166828409" lon="5.322163896806625" id="-72413">
		<tag k="fixme" v="consider natural=peak for the most distinct mountains in the district" />
		<tag k="name" v="Heiaholten" />
		<tag k="natural" v="hill" />
		<tag k="place" v="locality" />
		<tag k="ssr:stedsnr" v="528865" />
	</node>
	<node lat="61.128461110007215" lon="5.433363894211474" id="-72415">
		<tag k="name" v="Austebotnen" />
		<tag k="natural" v="valley" />
		<tag k="place" v="locality" />
		<tag k="ssr:stedsnr" v="528919" />
	</node>
	<node lat="61.27085832940753" lon="5.114472213787127" id="-72418">
		<tag k="name" v="Merkingshaugen" />
		<tag k="natural" v="hill" />
		<tag k="place" v="locality" />
		<tag k="ssr:stedsnr" v="553620" />
	</node>
	<node lat="61.15198055925288" lon="5.27782499472502" id="-72425">
		<tag k="name" v="Knollen" />
		<tag k="natural" v="hill" />
		<tag k="place" v="locality" />
		<tag k="ssr:stedsnr" v="555458" />
	</node>
	<node lat="61.193861114146074" lon="5.33532223109719" id="-72426">
		<tag k="fixme" v="consider natural=peak for the most distinct mountains in the district" />
		<tag k="name" v="Hesjetinden" />
		<tag k="natural" v="hill" />
		<tag k="place" v="locality" />
		<tag k="ssr:stedsnr" v="555647" />
	</node>
	<node lat="61.18448055466112" lon="5.171249990879856" id="-72430">
		<tag k="fixme" v="consider natural=peak for the most distinct mountains in the district" />
		<tag k="name" v="Trollebotnsheia" />
		<tag k="natural" v="hill" />
		<tag k="place" v="locality" />
		<tag k="ssr:stedsnr" v="555657" />
	</node>
	<node lat="61.22881666801962" lon="5.312608330727899" id="-72434">
		<tag k="alt_name" v="Skorsheia" />
		<tag k="fixme" v="consider natural=peak for the most distinct mountains in the district" />
		<tag k="name" v="Høgeheia" />
		<tag k="natural" v="hill" />
		<tag k="place" v="locality" />
		<tag k="ssr:stedsnr" v="555599" />
	</node>
	<node lat="61.18982841908663" lon="5.439691561148672" id="-72435">
		<tag k="alt_name" v="Strokssåta" />
		<tag k="fixme" v="consider natural=peak for the most distinct mountains in the district" />
		<tag k="name" v="Strokkssåta" />
		<tag k="natural" v="hill" />
		<tag k="place" v="locality" />
		<tag k="ssr:stedsnr" v="555679" />
	</node>
	<node lat="61.225255557012815" lon="5.077244436013175" id="-72436">
		<tag k="fixme" v="consider natural=peak for the most distinct mountains in the district" />
		<tag k="name" v="Fjellstjørnryggen" />
		<tag k="natural" v="hill" />
		<tag k="place" v="locality" />
		<tag k="ssr:stedsnr" v="555896" />
	</node>
	<node lat="61.191013891662955" lon="5.2995000033421835" id="-72440">
		<tag k="name" v="Stuberget" />
		<tag k="natural" v="hill" />
		<tag k="place" v="locality" />
		<tag k="ssr:stedsnr" v="710880" />
	</node>
	<node lat="61.1474138879333" lon="5.340316665318996" id="-72441">
		<tag k="name" v="Paradis" />
		<tag k="place" v="locality" />
		<tag k="ssr:stedsnr" v="710989" />
	</node>
	<node lat="61.212222219307634" lon="5.263377771327123" id="-72447">
		<tag k="name" v="Kvilet" />
		<tag k="natural" v="hill" />
		<tag k="place" v="locality" />
		<tag k="ssr:stedsnr" v="710948" />
	</node>
	<node lat="61.13872500217028" lon="5.342336108831745" id="-72448">
		<tag k="name" v="Torneshammaren" />
		<tag k="natural" v="hill" />
		<tag k="place" v="locality" />
		<tag k="ssr:stedsnr" v="586385" />
	</node>
	<node lat="61.159130556415505" lon="5.218991662316105" id="-72452">
		<tag k="fixme" v="consider natural=peak for the most distinct mountains in the district" />
		<tag k="name" v="Kletten" />
		<tag k="natural" v="hill" />
		<tag k="place" v="locality" />
		<tag k="ssr:stedsnr" v="588139" />
	</node>
	<node lat="61.15998333642122" lon="5.1291722250529705" id="-72454">
		<tag k="name" v="Skredene" />
		<tag k="natural" v="valley" />
		<tag k="place" v="locality" />
		<tag k="ssr:stedsnr" v="588216" />
	</node>
	<node lat="61.18276666956999" lon="5.38639722598981" id="-72456">
		<tag k="fixme" v="consider natural=peak for the most distinct mountains in the district" />
		<tag k="name" v="Systadkletten" />
		<tag k="natural" v="hill" />
		<tag k="place" v="locality" />
		<tag k="ssr:stedsnr" v="588297" />
	</node>
	<node lat="61.145663890707674" lon="5.276575008225078" id="-72457">
		<tag k="name" v="Bakkane" />
		<tag k="natural" v="slope" />
		<tag k="place" v="locality" />
		<tag k="ssr:stedsnr" v="588229" />
	</node>
	<node lat="61.210611112894036" lon="5.411613887148247" id="-72458">
		<tag k="fixme" v="consider natural=peak for the most distinct mountains in the district" />
		<tag k="name" v="Butten" />
		<tag k="natural" v="hill" />
		<tag k="place" v="locality" />
		<tag k="ssr:stedsnr" v="588240" />
	</node>
	<node lat="61.135752773209774" lon="5.322797213663882" id="-72459">
		<tag k="fixme" v="consider natural=peak for the most distinct mountains in the district" />
		<tag k="name" v="Espåsen" />
		<tag k="natural" v="hill" />
		<tag k="place" v="locality" />
		<tag k="ssr:stedsnr" v="589112" />
	</node>
	<node lat="61.119769448174765" lon="5.346486104777139" id="-72460">
		<tag k="fixme" v="consider natural=peak for the most distinct mountains in the district" />
		<tag k="name" v="Nova" />
		<tag k="natural" v="hill" />
		<tag k="place" v="locality" />
		<tag k="ssr:stedsnr" v="589248" />
	</node>
	<node lat="61.130013893143264" lon="5.255747230860397" id="-72461">
		<tag k="name" v="Koliåslyet" />
		<tag k="natural" v="slope" />
		<tag k="place" v="locality" />
		<tag k="ssr:stedsnr" v="589045" />
	</node>
	<node lat="61.144794440241284" lon="5.391824999446711" id="-72463">
		<tag k="name" v="Rysjelia" />
		<tag k="natural" v="slope" />
		<tag k="place" v="locality" />
		<tag k="ssr:stedsnr" v="588946" />
	</node>
	<node lat="61.135727781950756" lon="5.326677774930924" id="-72464">
		<tag k="name" v="Troåsgjelet" />
		<tag k="natural" v="valley" />
		<tag k="place" v="locality" />
		<tag k="ssr:stedsnr" v="589082" />
	</node>
	<node lat="61.13812222433547" lon="5.30343611683538" id="-72465">
		<tag k="name" v="Gjøyaren" />
		<tag k="natural" v="valley" />
		<tag k="place" v="locality" />
		<tag k="ssr:stedsnr" v="589088" />
	</node>
	<node lat="61.22933333746883" lon="5.366327776121458" id="-72466">
		<tag k="fixme" v="consider natural=peak for the most distinct mountains in the district" />
		<tag k="name" v="Dalafjellet" />
		<tag k="natural" v="hill" />
		<tag k="place" v="locality" />
		<tag k="ssr:stedsnr" v="589179" />
	</node>
	<node lat="61.19147500308468" lon="5.36218889393706" id="-72467">
		<tag k="name" v="Kleivane" />
		<tag k="natural" v="slope" />
		<tag k="place" v="locality" />
		<tag k="ssr:stedsnr" v="589198" />
	</node>
	<node lat="61.1157361077054" lon="5.370191660147844" id="-72468">
		<tag k="name" v="Mjølkeplassen" />
		<tag k="place" v="locality" />
		<tag k="ssr:stedsnr" v="589287" />
	</node>
	<node lat="61.20708888989218" lon="5.4200555625035785" id="-72469">
		<tag k="name" v="Småliane" />
		<tag k="natural" v="slope" />
		<tag k="place" v="locality" />
		<tag k="ssr:stedsnr" v="589496" />
	</node>
	<node lat="61.189897220592684" lon="5.3999694387548365" id="-72470">
		<tag k="fixme" v="consider natural=peak for the most distinct mountains in the district" />
		<tag k="name" v="Høgefjellet" />
		<tag k="natural" v="hill" />
		<tag k="place" v="locality" />
		<tag k="ssr:stedsnr" v="589501" />
	</node>
	<node lat="61.0801249965075" lon="5.413949992132397" id="-72471">
		<tag k="name" v="Svartedalen" />
		<tag k="natural" v="valley" />
		<tag k="place" v="locality" />
		<tag k="ssr:stedsnr" v="589528" />
	</node>
	<node lat="61.08337777643776" lon="5.405155547234966" id="-72472">
		<tag k="name" v="Legglia" />
		<tag k="natural" v="slope" />
		<tag k="place" v="locality" />
		<tag k="ssr:stedsnr" v="589540" />
	</node>
	<node lat="61.268797225509246" lon="5.087699992579101" id="-72475">
		<tag k="name" v="Klibberskaret" />
		<tag k="natural" v="valley" />
		<tag k="place" v="locality" />
		<tag k="ssr:stedsnr" v="589666" />
	</node>
	<node lat="61.128652778923325" lon="5.399697228154321" id="-72477">
		<tag k="name" v="Gulehamrane" />
		<tag k="natural" v="hill" />
		<tag k="place" v="locality" />
		<tag k="ssr:stedsnr" v="589951" />
	</node>
	<node lat="61.24173333040172" lon="5.262577771793048" id="-72481">
		<tag k="name" v="Liaheia" />
		<tag k="natural" v="hill" />
		<tag k="place" v="locality" />
		<tag k="ssr:stedsnr" v="710990" />
	</node>
	<node lat="61.25620555253416" lon="5.267111110501444" id="-72483">
		<tag k="alt_name" v="Tauseskarknolten" />
		<tag k="fixme" v="consider natural=peak for the most distinct mountains in the district" />
		<tag k="name" v="Tauseskardknolten" />
		<tag k="natural" v="hill" />
		<tag k="place" v="locality" />
		<tag k="ssr:stedsnr" v="614542" />
	</node>
	<node lat="61.27110833125853" lon="5.102266666549188" id="-72484">
		<tag k="fixme" v="consider natural=peak for the most distinct mountains in the district" />
		<tag k="name" v="Torsåsen" />
		<tag k="natural" v="hill" />
		<tag k="place" v="locality" />
		<tag k="ssr:stedsnr" v="614633" />
	</node>
	<node lat="61.11149166895814" lon="5.39994444256931" id="-72486">
		<tag k="fixme" v="consider natural=peak for the most distinct mountains in the district" />
		<tag k="name" v="Stovefjellet" />
		<tag k="natural" v="hill" />
		<tag k="place" v="locality" />
		<tag k="ssr:stedsnr" v="615551" />
	</node>
	<node lat="61.228258334265306" lon="5.378222227485477" id="-72489">
		<tag k="fixme" v="consider natural=peak for the most distinct mountains in the district" />
		<tag k="name" v="Brekkefjellet" />
		<tag k="natural" v="hill" />
		<tag k="place" v="locality" />
		<tag k="ssr:stedsnr" v="615630" />
	</node>
	<node lat="61.184413893335844" lon="5.433527777346859" id="-72490">
		<tag k="alt_name" v="Blåfjell" />
		<tag k="fixme" v="consider natural=peak for the most distinct mountains in the district" />
		<tag k="name" v="Blåfjellet" />
		<tag k="natural" v="hill" />
		<tag k="place" v="locality" />
		<tag k="ssr:stedsnr" v="615687" />
	</node>
	<node lat="61.11909166900044" lon="5.384513882508323" id="-72504">
		<tag k="name" v="Bjørkeriset" />
		<tag k="natural" v="hill" />
		<tag k="place" v="locality" />
		<tag k="ssr:stedsnr" v="648428" />
	</node>
	<node lat="61.15225555675513" lon="5.165391669922818" id="-72505">
		<tag k="fixme" v="consider natural=peak for the most distinct mountains in the district" />
		<tag k="name" v="Kvitebleholten" />
		<tag k="natural" v="hill" />
		<tag k="place" v="locality" />
		<tag k="ssr:stedsnr" v="648182" />
	</node>
	<node lat="61.10955277861486" lon="5.357900003947451" id="-72506">
		<tag k="name" v="Leitet" />
		<tag k="natural" v="slope" />
		<tag k="place" v="locality" />
		<tag k="ssr:stedsnr" v="648438" />
	</node>
	<node lat="61.10977222525933" lon="5.36032499916161" id="-72507">
		<tag k="name" v="Klopphaugane" />
		<tag k="natural" v="hill" />
		<tag k="place" v="locality" />
		<tag k="ssr:stedsnr" v="648441" />
	</node>
	<node lat="61.148738887005024" lon="5.314844453121059" id="-72508">
		<tag k="name" v="Skjervane" />
		<tag k="natural" v="hill" />
		<tag k="place" v="locality" />
		<tag k="ssr:stedsnr" v="649064" />
	</node>
	<node lat="61.156405557343405" lon="5.311952773499523" id="-72509">
		<tag k="name" v="Gropa" />
		<tag k="natural" v="gorge" />
		<tag k="ssr:stedsnr" v="649068" />
	</node>
	<node lat="61.2309527812397" lon="5.114463884315268" id="-72514">
		<tag k="name" v="Byrkjelia" />
		<tag k="natural" v="slope" />
		<tag k="place" v="locality" />
		<tag k="ssr:stedsnr" v="649189" />
	</node>
	<node lat="61.230102778823685" lon="5.141297226205764" id="-72515">
		<tag k="name" v="Øvredalen" />
		<tag k="natural" v="valley" />
		<tag k="place" v="locality" />
		<tag k="ssr:stedsnr" v="649198" />
	</node>
	<node lat="61.15837500010569" lon="5.143744435910115" id="-72518">
		<tag k="name" v="Barlindskårane" />
		<tag k="natural" v="hill" />
		<tag k="place" v="locality" />
		<tag k="ssr:stedsnr" v="649226" />
	</node>
	<node lat="61.11401389103992" lon="5.37050833364489" id="-72521">
		<tag k="name" v="Salen" />
		<tag k="place" v="locality" />
		<tag k="ssr:stedsnr" v="649265" />
	</node>
	<node lat="61.229772220074956" lon="5.129375009251527" id="-72523">
		<tag k="name" v="Svorteholene" />
		<tag k="natural" v="valley" />
		<tag k="place" v="locality" />
		<tag k="ssr:stedsnr" v="649177" />
	</node>
	<node lat="61.16529166261177" lon="5.110380561173119" id="-72525">
		<tag k="name" v="Tingsteinen" />
		<tag k="natural" v="hill" />
		<tag k="place" v="locality" />
		<tag k="ssr:stedsnr" v="649335" />
	</node>
	<node lat="61.182008331427205" lon="5.356763891032011" id="-72527">
		<tag k="fixme" v="consider natural=peak for the most distinct mountains in the district" />
		<tag k="name" v="Fjølehaugen" />
		<tag k="natural" v="hill" />
		<tag k="place" v="locality" />
		<tag k="ssr:stedsnr" v="649501" />
	</node>
	<node lat="61.081574999255736" lon="5.398280554697813" id="-72528">
		<tag k="fixme" v="consider natural=peak for the most distinct mountains in the district" />
		<tag k="name" v="Tåfjellet" />
		<tag k="natural" v="hill" />
		<tag k="place" v="locality" />
		<tag k="ssr:stedsnr" v="649592" />
	</node>
	<node lat="61.08963333572727" lon="5.39803888314088" id="-72530">
		<tag k="name" v="Løypingahaugen" />
		<tag k="natural" v="hill" />
		<tag k="place" v="locality" />
		<tag k="ssr:stedsnr" v="649580" />
	</node>
	<node lat="61.222844440289954" lon="5.018080552744745" id="-72531">
		<tag k="name" v="Merkingshaug" />
		<tag k="natural" v="hill" />
		<tag k="place" v="locality" />
		<tag k="ssr:stedsnr" v="649679" />
	</node>
	<node lat="61.11178889194466" lon="5.244097214115572" id="-72535">
		<tag k="fixme" v="consider natural=peak for the most distinct mountains in the district" />
		<tag k="name" v="Svartetjørnfjellet" />
		<tag k="natural" v="hill" />
		<tag k="place" v="locality" />
		<tag k="ssr:stedsnr" v="650001" />
	</node>
	<node lat="61.19307777571192" lon="5.404719437770234" id="-72538">
		<tag k="fixme" v="consider natural=peak for the most distinct mountains in the district" />
		<tag k="name" v="Høgefjellsknolten" />
		<tag k="natural" v="hill" />
		<tag k="place" v="locality" />
		<tag k="ssr:stedsnr" v="650489" />
	</node>
	<node lat="61.080736110679155" lon="5.404727780697359" id="-72540">
		<tag k="name" v="Hudalen" />
		<tag k="natural" v="valley" />
		<tag k="place" v="locality" />
		<tag k="ssr:stedsnr" v="650500" />
	</node>
	<node lat="61.16035555567104" lon="5.427405553174559" id="-72542">
		<tag k="name" v="Mehaugane" />
		<tag k="natural" v="hill" />
		<tag k="place" v="locality" />
		<tag k="ssr:stedsnr" v="650548" />
	</node>
	<node lat="61.16458055412891" lon="5.444505552603961" id="-72545">
		<tag k="fixme" v="consider natural=peak for the most distinct mountains in the district" />
		<tag k="name" v="Vardeheia" />
		<tag k="natural" v="hill" />
		<tag k="place" v="locality" />
		<tag k="ssr:stedsnr" v="650524" />
	</node>
	<node lat="61.16082500049185" lon="5.406588890146177" id="-72546">
		<tag k="name" v="Låven" />
		<tag k="natural" v="slope" />
		<tag k="place" v="locality" />
		<tag k="ssr:stedsnr" v="650881" />
	</node>
	<node lat="61.17109722693274" lon="5.0768194517873475" id="-72550">
		<tag k="name" v="Årebrot" />
		<tag k="place" v="locality" />
		<tag k="ssr:stedsnr" v="659456" />
	</node>
	<node lat="61.09421389283303" lon="5.369786119303358" id="-72552">
		<tag k="name" v="Merkesgjelet" />
		<tag k="natural" v="valley" />
		<tag k="place" v="locality" />
		<tag k="ssr:stedsnr" v="711552" />
	</node>
	<node lat="61.09762222604174" lon="5.42277221886284" id="-72554">
		<tag k="name" v="Fagerdalane" />
		<tag k="natural" v="valley" />
		<tag k="place" v="locality" />
		<tag k="ssr:stedsnr" v="711521" />
	</node>
	<node lat="61.16006389057056" lon="5.41832777970272" id="-72555">
		<tag k="name" v="Nordlia" />
		<tag k="natural" v="slope" />
		<tag k="place" v="locality" />
		<tag k="ssr:stedsnr" v="711597" />
	</node>
	<node lat="61.261122221626984" lon="5.260702785231078" id="-72559">
		<tag k="name" v="Litleskardet" />
		<tag k="natural" v="valley" />
		<tag k="place" v="locality" />
		<tag k="ssr:stedsnr" v="735544" />
	</node>
	<node lat="61.25389166331242" lon="5.181919447992032" id="-72562">
		<tag k="name" v="Tinghaugen" />
		<tag k="natural" v="hill" />
		<tag k="place" v="locality" />
		<tag k="ssr:stedsnr" v="736541" />
	</node>
	<node lat="61.155411109478656" lon="5.383366662064544" id="-72565">
		<tag k="fixme" v="consider natural=peak for the most distinct mountains in the district" />
		<tag k="name" v="Lølandsheia" />
		<tag k="natural" v="hill" />
		<tag k="place" v="locality" />
		<tag k="ssr:stedsnr" v="737495" />
	</node>
	<node lat="61.226194443279944" lon="5.236963891689343" id="-72576">
		<tag k="name" v="Rotedalen" />
		<tag k="natural" v="valley" />
		<tag k="place" v="locality" />
		<tag k="ssr:stedsnr" v="737630" />
	</node>
	<node lat="61.18541111336046" lon="5.277955554062089" id="-72585">
		<tag k="fixme" v="consider natural=peak for the most distinct mountains in the district" />
		<tag k="name" v="Katlenova" />
		<tag k="natural" v="hill" />
		<tag k="place" v="locality" />
		<tag k="ssr:stedsnr" v="737670" />
	</node>
	<node lat="61.16954166288233" lon="5.117658326096775" id="-72588">
		<tag k="fixme" v="consider natural=peak for the most distinct mountains in the district" />
		<tag k="name" v="Bjørneskorfjellet" />
		<tag k="natural" v="hill" />
		<tag k="place" v="locality" />
		<tag k="ssr:stedsnr" v="737693" />
	</node>
	<node lat="61.101855559423704" lon="5.37788888944689" id="-72599">
		<tag k="fixme" v="consider natural=peak for the most distinct mountains in the district" />
		<tag k="name" v="Varden" />
		<tag k="natural" v="hill" />
		<tag k="place" v="locality" />
		<tag k="ssr:stedsnr" v="770420" />
	</node>
	<node lat="61.11916944651402" lon="5.29707778188042" id="-72601">
		<tag k="name" v="Øyjorda" />
		<tag k="place" v="locality" />
		<tag k="ssr:stedsnr" v="770429" />
	</node>
	<node lat="61.233744446917996" lon="5.208541669792065" id="-72602">
		<tag k="name" v="Myrebærhaugen" />
		<tag k="natural" v="hill" />
		<tag k="place" v="locality" />
		<tag k="ssr:stedsnr" v="771056" />
	</node>
	<node lat="61.154177780595255" lon="5.295105546121331" id="-72603">
		<tag k="fixme" v="consider natural=peak for the most distinct mountains in the district" />
		<tag k="name" v="Replehaugen" />
		<tag k="natural" v="hill" />
		<tag k="place" v="locality" />
		<tag k="ssr:stedsnr" v="771058" />
	</node>
	<node lat="61.13800277819143" lon="5.248250000316346" id="-72604">
		<tag k="name" v="Trollebotn" />
		<tag k="natural" v="valley" />
		<tag k="place" v="locality" />
		<tag k="ssr:stedsnr" v="771064" />
	</node>
	<node lat="61.15049444171679" lon="5.323644447865061" id="-72606">
		<tag k="name" v="Holene" />
		<tag k="natural" v="gorge" />
		<tag k="ssr:stedsnr" v="771093" />
	</node>
	<node lat="61.23232500111944" lon="5.179941660566929" id="-72608">
		<tag k="name" v="Høgebakken" />
		<tag k="natural" v="hill" />
		<tag k="place" v="locality" />
		<tag k="ssr:stedsnr" v="771032" />
	</node>
	<node lat="61.105552773196315" lon="5.238247215312562" id="-72610">
		<tag k="name" v="Gryteskåra" />
		<tag k="place" v="locality" />
		<tag k="ssr:stedsnr" v="771130" />
	</node>
	<node lat="61.114611109272886" lon="5.362536113494978" id="-72614">
		<tag k="fixme" v="consider natural=peak for the most distinct mountains in the district" />
		<tag k="name" v="Rognebakkfjell" />
		<tag k="natural" v="hill" />
		<tag k="place" v="locality" />
		<tag k="ssr:stedsnr" v="771292" />
	</node>
	<node lat="61.2049833311388" lon="5.402183335588645" id="-72618">
		<tag k="name" v="Engernova" />
		<tag k="natural" v="hill" />
		<tag k="place" v="locality" />
		<tag k="ssr:stedsnr" v="771549" />
	</node>
	<node lat="61.18881823145415" lon="5.425086594259106" id="-72619">
		<tag k="fixme" v="consider natural=peak for the most distinct mountains in the district" />
		<tag k="name" v="Blåfjellet" />
		<tag k="natural" v="hill" />
		<tag k="place" v="locality" />
		<tag k="ssr:stedsnr" v="771634" />
	</node>
	<node lat="61.17645555945199" lon="5.347352775815423" id="-72621">
		<tag k="fixme" v="consider natural=peak for the most distinct mountains in the district" />
		<tag k="name" v="Heia" />
		<tag k="natural" v="hill" />
		<tag k="place" v="locality" />
		<tag k="ssr:stedsnr" v="771473" />
	</node>
	<node lat="61.1861611155549" lon="5.356691673892465" id="-72623">
		<tag k="name" v="Amstadbakken" />
		<tag k="natural" v="slope" />
		<tag k="place" v="locality" />
		<tag k="ssr:stedsnr" v="771490" />
	</node>
	<node lat="61.164833333077254" lon="5.424975005777746" id="-72624">
		<tag k="fixme" v="consider natural=peak for the most distinct mountains in the district" />
		<tag k="name" v="Åsane" />
		<tag k="natural" v="hill" />
		<tag k="place" v="locality" />
		<tag k="ssr:stedsnr" v="771593" />
	</node>
	<node lat="61.26469722515123" lon="5.112166674764952" id="-72626">
		<tag k="name" v="Bordalen" />
		<tag k="natural" v="valley" />
		<tag k="place" v="locality" />
		<tag k="ssr:stedsnr" v="771659" />
	</node>
	<node lat="61.19841944665046" lon="5.317305559624829" id="-72628">
		<tag k="name" v="Øykjelia" />
		<tag k="natural" v="slope" />
		<tag k="place" v="locality" />
		<tag k="ssr:stedsnr" v="771872" />
	</node>
	<node lat="61.192372218558255" lon="5.309655559674136" id="-72629">
		<tag k="name" v="Bløydalen" />
		<tag k="natural" v="valley" />
		<tag k="place" v="locality" />
		<tag k="ssr:stedsnr" v="771893" />
	</node>
	<node lat="61.19316388763547" lon="5.30188332465965" id="-72630">
		<tag k="name" v="Rønsetlia" />
		<tag k="natural" v="slope" />
		<tag k="place" v="locality" />
		<tag k="ssr:stedsnr" v="771896" />
	</node>
	<node lat="61.24164166248157" lon="5.207863886428753" id="-72636">
		<tag k="alt_name" v="Hanstidalen" />
		<tag k="name" v="Hansstedalen" />
		<tag k="natural" v="valley" />
		<tag k="place" v="locality" />
		<tag k="ssr:stedsnr" v="798355" />
	</node>
	<node lat="61.13897500182342" lon="5.351936112407278" id="-72637">
		<tag k="fixme" v="consider natural=peak for the most distinct mountains in the district" />
		<tag k="name" v="Klettåsen" />
		<tag k="natural" v="hill" />
		<tag k="place" v="locality" />
		<tag k="ssr:stedsnr" v="798466" />
	</node>
	<node lat="61.08654722017195" lon="5.41055832654716" id="-72641">
		<tag k="alt_name" v="Storelifjell" />
		<tag k="fixme" v="consider natural=peak for the most distinct mountains in the district" />
		<tag k="name" v="Storelifjellet" />
		<tag k="natural" v="hill" />
		<tag k="place" v="locality" />
		<tag k="ssr:stedsnr" v="798535" />
	</node>
	<node lat="61.14185555947049" lon="5.3819833337170655" id="-72642">
		<tag k="fixme" v="consider natural=peak for the most distinct mountains in the district" />
		<tag k="name" v="Handalsfjellet" />
		<tag k="natural" v="hill" />
		<tag k="place" v="locality" />
		<tag k="ssr:stedsnr" v="798485" />
	</node>
	<node lat="61.234022217751395" lon="5.081952773540959" id="-72646">
		<tag k="fixme" v="consider natural=peak for the most distinct mountains in the district" />
		<tag k="name" v="Vågekammen" />
		<tag k="natural" v="hill" />
		<tag k="place" v="locality" />
		<tag k="ssr:stedsnr" v="798880" />
	</node>
	<node lat="61.14469444091649" lon="5.294219449736525" id="-72651">
		<tag k="fixme" v="consider natural=peak for the most distinct mountains in the district" />
		<tag k="name" v="Jarebærfjellet" />
		<tag k="natural" v="hill" />
		<tag k="place" v="locality" />
		<tag k="ssr:stedsnr" v="832063" />
	</node>
	<node lat="61.22213055390166" lon="5.388688884849412" id="-72652">
		<tag k="name" v="Blomlia" />
		<tag k="natural" v="slope" />
		<tag k="place" v="locality" />
		<tag k="ssr:stedsnr" v="832155" />
	</node>
	<node lat="61.13372777338441" lon="5.229649997437172" id="-72654">
		<tag k="name" v="Kudalen" />
		<tag k="natural" v="valley" />
		<tag k="place" v="locality" />
		<tag k="ssr:stedsnr" v="832028" />
	</node>
	<node lat="61.106794448423464" lon="5.237344439681646" id="-72655">
		<tag k="fixme" v="consider natural=peak for the most distinct mountains in the district" />
		<tag k="name" v="Nesholmfjellet" />
		<tag k="natural" v="hill" />
		<tag k="place" v="locality" />
		<tag k="ssr:stedsnr" v="832118" />
	</node>
	<node lat="61.17175555954139" lon="5.309250008744545" id="-72659">
		<tag k="fixme" v="consider natural=peak for the most distinct mountains in the district" />
		<tag k="name" v="Kyrkjefjellet" />
		<tag k="natural" v="hill" />
		<tag k="place" v="locality" />
		<tag k="ssr:stedsnr" v="831155" />
	</node>
	<node lat="61.1798999968474" lon="5.146749996827355" id="-72661">
		<tag k="fixme" v="consider natural=peak for the most distinct mountains in the district" />
		<tag k="name" v="Trollebotnheia" />
		<tag k="natural" v="hill" />
		<tag k="place" v="locality" />
		<tag k="ssr:stedsnr" v="831353" />
	</node>
	<node lat="61.19005277456401" lon="5.151105550929125" id="-72662">
		<tag k="name" v="Rørdalen" />
		<tag k="natural" v="valley" />
		<tag k="place" v="locality" />
		<tag k="ssr:stedsnr" v="831315" />
	</node>
	<node lat="61.10731389303688" lon="5.3554083403127075" id="-72665">
		<tag k="name" v="Gråbeinsbykset" />
		<tag k="natural" v="valley" />
		<tag k="place" v="locality" />
		<tag k="ssr:stedsnr" v="831422" />
	</node>
	<node lat="61.1638944445931" lon="5.117333340549891" id="-72667">
		<tag k="fixme" v="consider natural=peak for the most distinct mountains in the district" />
		<tag k="name" v="Hovlandsberget" />
		<tag k="natural" v="hill" />
		<tag k="place" v="locality" />
		<tag k="ssr:stedsnr" v="832249" />
	</node>
	<node lat="61.15941111166732" lon="5.127033334102138" id="-72668">
		<tag k="fixme" v="consider natural=peak for the most distinct mountains in the district" />
		<tag k="name" v="Skrehaugen" />
		<tag k="natural" v="hill" />
		<tag k="place" v="locality" />
		<tag k="ssr:stedsnr" v="832253" />
	</node>
	<node lat="61.161227780705346" lon="5.135599999291731" id="-72669">
		<tag k="name" v="Bukkebotn" />
		<tag k="natural" v="valley" />
		<tag k="place" v="locality" />
		<tag k="ssr:stedsnr" v="832254" />
	</node>
	<node lat="61.12151389178681" lon="5.343888895845464" id="-72671">
		<tag k="name" v="Haneskaret" />
		<tag k="natural" v="valley" />
		<tag k="place" v="locality" />
		<tag k="ssr:stedsnr" v="832257" />
	</node>
	<node lat="61.113700000866935" lon="5.299377786548794" id="-72672">
		<tag k="name" v="Pina" />
		<tag k="natural" v="slope" />
		<tag k="place" v="locality" />
		<tag k="ssr:stedsnr" v="832468" />
	</node>
	<node lat="61.13118611298295" lon="5.360652780805376" id="-72673">
		<tag k="fixme" v="consider natural=peak for the most distinct mountains in the district" />
		<tag k="name" v="Høgåsen" />
		<tag k="natural" v="hill" />
		<tag k="place" v="locality" />
		<tag k="ssr:stedsnr" v="832478" />
	</node>
	<node lat="61.166111113754006" lon="5.2589416693233595" id="-72675">
		<tag k="name" v="Botnen" />
		<tag k="natural" v="valley" />
		<tag k="place" v="locality" />
		<tag k="ssr:stedsnr" v="832560" />
	</node>
	<node lat="61.1660694410175" lon="5.251677771417458" id="-72676">
		<tag k="fixme" v="consider natural=peak for the most distinct mountains in the district" />
		<tag k="name" v="Tippåsen" />
		<tag k="natural" v="hill" />
		<tag k="place" v="locality" />
		<tag k="ssr:stedsnr" v="832561" />
	</node>
	<node lat="61.07595277782021" lon="5.395655555384388" id="-72677">
		<tag k="fixme" v="consider natural=peak for the most distinct mountains in the district" />
		<tag k="name" v="Vikafjell" />
		<tag k="natural" v="hill" />
		<tag k="place" v="locality" />
		<tag k="ssr:stedsnr" v="832565" />
	</node>
	<node lat="61.26180555936613" lon="5.148688882241659" id="-72678">
		<tag k="name" v="Lybakkdalen" />
		<tag k="natural" v="valley" />
		<tag k="place" v="locality" />
		<tag k="ssr:stedsnr" v="832735" />
	</node>
	<node lat="61.1381611082962" lon="5.402266658761423" id="-72679">
		<tag k="name" v="Brendene" />
		<tag k="natural" v="hill" />
		<tag k="place" v="locality" />
		<tag k="ssr:stedsnr" v="832978" />
	</node>
	<node lat="61.176691663442746" lon="5.322036112308661" id="-72685">
		<tag k="fixme" v="consider natural=peak for the most distinct mountains in the district" />
		<tag k="name" v="Stettane" />
		<tag k="natural" v="hill" />
		<tag k="place" v="locality" />
		<tag k="ssr:stedsnr" v="858749" />
	</node>
	<node lat="61.25138055696383" lon="5.2927944501185085" id="-72688">
		<tag k="alt_name" v="Vereknoltane" />
		<tag k="fixme" v="consider natural=peak for the most distinct mountains in the district" />
		<tag k="name" v="Vereknolten" />
		<tag k="natural" v="hill" />
		<tag k="place" v="locality" />
		<tag k="ssr:stedsnr" v="857553" />
	</node>
	<node lat="61.115516668919724" lon="5.233741669310231" id="-72693">
		<tag k="name" v="Svidhaugen" />
		<tag k="natural" v="hill" />
		<tag k="place" v="locality" />
		<tag k="ssr:stedsnr" v="859499" />
	</node>
	<node lat="61.18211389178576" lon="5.186486113359493" id="-72696">
		<tag k="fixme" v="consider natural=peak for the most distinct mountains in the district" />
		<tag k="name" v="Hellerane" />
		<tag k="natural" v="hill" />
		<tag k="place" v="locality" />
		<tag k="ssr:stedsnr" v="859671" />
	</node>
	<node lat="61.22999444273079" lon="5.069811118152772" id="-72700">
		<tag k="alt_name" v="Sandalen" />
		<tag k="name" v="Sanddalen" />
		<tag k="natural" v="valley" />
		<tag k="place" v="locality" />
		<tag k="ssr:stedsnr" v="859902" />
	</node>
	<node lat="61.17751110850334" lon="5.116130550442676" id="-72704">
		<tag k="name" v="Buska" />
		<tag k="natural" v="hill" />
		<tag k="place" v="locality" />
		<tag k="ssr:stedsnr" v="952341" />
	</node>
	<node lat="61.221855554222316" lon="5.360366671570977" id="-72705">
		<tag k="fixme" v="consider natural=peak for the most distinct mountains in the district" />
		<tag k="name" v="Røyrnova" />
		<tag k="natural" v="hill" />
		<tag k="place" v="locality" />
		<tag k="ssr:stedsnr" v="952163" />
	</node>
	<node lat="61.15624444272045" lon="5.176850008755131" id="-72706">
		<tag k="name" v="Indrelia" />
		<tag k="natural" v="slope" />
		<tag k="place" v="locality" />
		<tag k="ssr:stedsnr" v="952184" />
	</node>
	<node lat="61.23282222004858" lon="5.378444438196358" id="-72708">
		<tag k="name" v="Hella" />
		<tag k="place" v="locality" />
		<tag k="ssr:stedsnr" v="952282" />
	</node>
	<node lat="61.245050002262175" lon="5.030052782188335" id="-72710">
		<tag k="name" v="Botnen" />
		<tag k="natural" v="valley" />
		<tag k="place" v="locality" />
		<tag k="ssr:stedsnr" v="952784" />
	</node>
	<node lat="61.23032222061446" lon="5.190963892640415" id="-72711">
		<tag k="name" v="Linde -botnen" />
		<tag k="natural" v="valley" />
		<tag k="place" v="locality" />
		<tag k="ssr:stedsnr" v="953039" />
	</node>
	<node lat="61.130811107884796" lon="5.247505552699852" id="-72712">
		<tag k="name" v="Leitet" />
		<tag k="place" v="locality" />
		<tag k="ssr:stedsnr" v="953062" />
	</node>
	<node lat="61.158658334670726" lon="5.311677786550786" id="-72713">
		<tag k="name" v="Sanden" />
		<tag k="place" v="locality" />
		<tag k="ssr:stedsnr" v="953077" />
	</node>
	<node lat="61.24733889165618" lon="5.06654722041262" id="-72714">
		<tag k="fixme" v="consider natural=peak for the most distinct mountains in the district" />
		<tag k="name" v="Beitaholten" />
		<tag k="natural" v="hill" />
		<tag k="place" v="locality" />
		<tag k="ssr:stedsnr" v="953092" />
	</node>
	<node lat="61.13327500122375" lon="5.329516673780518" id="-72716">
		<tag k="fixme" v="consider natural=peak for the most distinct mountains in the district" />
		<tag k="name" v="Åsen" />
		<tag k="natural" v="hill" />
		<tag k="place" v="locality" />
		<tag k="ssr:stedsnr" v="953133" />
	</node>
	<node lat="61.22748610967634" lon="5.088894446979251" id="-72717">
		<tag k="fixme" v="consider natural=peak for the most distinct mountains in the district" />
		<tag k="name" v="Åsmulhalsen" />
		<tag k="natural" v="hill" />
		<tag k="place" v="locality" />
		<tag k="ssr:stedsnr" v="953150" />
	</node>
	<node lat="61.16342777444842" lon="5.127863892589519" id="-72718">
		<tag k="fixme" v="consider natural=peak for the most distinct mountains in the district" />
		<tag k="name" v="Sperrevikfjellet" />
		<tag k="natural" v="hill" />
		<tag k="place" v="locality" />
		<tag k="ssr:stedsnr" v="953238" />
	</node>
	<node lat="61.11323333113269" lon="5.354552773073859" id="-72719">
		<tag k="name" v="Furekammen" />
		<tag k="natural" v="hill" />
		<tag k="place" v="locality" />
		<tag k="ssr:stedsnr" v="953291" />
	</node>
	<node lat="61.17868889058176" lon="5.442763889403553" id="-72720">
		<tag k="name" v="Espelandslangedalen" />
		<tag k="natural" v="valley" />
		<tag k="place" v="locality" />
		<tag k="ssr:stedsnr" v="953638" />
	</node>
	<node lat="61.17090277703017" lon="5.201158331563227" id="-72721">
		<tag k="name" v="Novene" />
		<tag k="natural" v="hill" />
		<tag k="place" v="locality" />
		<tag k="ssr:stedsnr" v="953268" />
	</node>
	<node lat="61.20451111291491" lon="5.320213880649903" id="-72723">
		<tag k="name" v="Dalen" />
		<tag k="natural" v="valley" />
		<tag k="place" v="locality" />
		<tag k="ssr:stedsnr" v="953863" />
	</node>
	<node lat="61.19778332943629" lon="5.426436108365838" id="-72725">
		<tag k="name" v="Betnakleivane" />
		<tag k="natural" v="valley" />
		<tag k="place" v="locality" />
		<tag k="ssr:stedsnr" v="953659" />
	</node>
	<node lat="61.15282777830876" lon="5.4143305478836" id="-72726">
		<tag k="name" v="Djupegjelet" />
		<tag k="natural" v="valley" />
		<tag k="place" v="locality" />
		<tag k="ssr:stedsnr" v="953787" />
	</node>
	<node lat="61.130172226170686" lon="5.428838896308146" id="-72727">
		<tag k="fixme" v="consider natural=peak for the most distinct mountains in the district" />
		<tag k="name" v="Arefjellet" />
		<tag k="natural" v="hill" />
		<tag k="place" v="locality" />
		<tag k="ssr:stedsnr" v="953921" />
	</node>
	<node lat="61.19620833260807" lon="5.315144444874668" id="-72728">
		<tag k="name" v="Einesteinshaugen" />
		<tag k="natural" v="hill" />
		<tag k="place" v="locality" />
		<tag k="ssr:stedsnr" v="953883" />
	</node>
</osm>
