<?xml version="1.0" encoding="UTF-8"?>
<osm version="0.6" generator="osmapis">
	<node lat="61.21996944057519" lon="5.0484305626086625" id="-31479">
		<tag k="alt_name" v="Ospevik" />
		<tag k="name" v="Ospevika" />
		<tag k="natural" v="bay" />
		<tag k="ssr:stedsnr" v="9093" />
	</node>
	<node lat="61.13583610750286" lon="5.192597231770202" id="-31482">
		<tag k="name" v="Skogeneset" />
		<tag k="natural" v="cape" />
		<tag k="ssr:stedsnr" v="9506" />
	</node>
	<node lat="61.13943055215415" lon="5.177938881091524" id="-31484">
		<tag k="name" v="Kobbevågen" />
		<tag k="natural" v="bay" />
		<tag k="ssr:stedsnr" v="9515" />
	</node>
	<node lat="61.189219441580505" lon="5.293630559252055" id="-31491">
		<tag k="alt_name" v="Rønnesetholmen" />
		<tag k="name" v="Rønsetholmen" />
		<tag k="place" v="islet" />
		<tag k="ssr:stedsnr" v="9687" />
	</node>
	<node lat="61.24203055608969" lon="5.087855560701035" id="-31496">
		<tag k="alt_name" v="Djupevik" />
		<tag k="name" v="Djupevika" />
		<tag k="natural" v="bay" />
		<tag k="ssr:stedsnr" v="10000" />
	</node>
	<node lat="61.20172777566844" lon="5.096361117747471" id="-31508">
		<tag k="name" v="Geitestoveneset" />
		<tag k="natural" v="cape" />
		<tag k="ssr:stedsnr" v="43705" />
	</node>
	<node lat="61.24019166869452" lon="5.061033324077187" id="-31512">
		<tag k="alt_name" v="Langevågen" />
		<tag k="name" v="Langevåg" />
		<tag k="natural" v="bay" />
		<tag k="ssr:stedsnr" v="43941" />
	</node>
	<node lat="61.24105555888096" lon="5.06741389382679" id="-31513">
		<tag k="name" v="Bordvikholmen" />
		<tag k="place" v="islet" />
		<tag k="ssr:stedsnr" v="43943" />
	</node>
	<node lat="61.219472219562135" lon="5.058186108053142" id="-31517">
		<tag k="alt_name" v="Merkingsvik" />
		<tag k="name" v="Merkingsvika" />
		<tag k="natural" v="bay" />
		<tag k="ssr:stedsnr" v="70110" />
	</node>
	<node lat="61.18486389264673" lon="5.085158329408937" id="-31518">
		<tag k="name" v="Sageneset" />
		<tag k="natural" v="cape" />
		<tag k="ssr:stedsnr" v="70030" />
	</node>
</osm>
