<?xml version="1.0" encoding="UTF-8"?>
<osm version="0.6" generator="osmapis">
	<node lat="61.21996944057519" lon="5.0484305626086625" id="-31479">
		<tag k="alt_name" v="Ospevik" />
		<tag k="name" v="Ospevika" />
		<tag k="natural" v="bay" />
		<tag k="ssr:stedsnr" v="9093" />
	</node>
	<node lat="61.229233336753225" lon="5.1373888805625665" id="-31480">
		<tag k="alt_name" v="Gilstjørna, yt" />
		<tag k="name" v="Ytregilstjørna" />
		<tag k="natural" v="water" />
		<tag k="ssr:stedsnr" v="9623" />
	</node>
	<node lat="61.23249444641432" lon="5.1944416723021" id="-31481">
		<tag k="alt_name" v="Djupegjelet" />
		<tag k="name" v="Djupegilet" />
		<tag k="natural" v="valley" />
		<tag k="place" v="locality" />
		<tag k="ssr:stedsnr" v="9624" />
	</node>
	<node lat="61.13583610750286" lon="5.192597231770202" id="-31482">
		<tag k="name" v="Skogeneset" />
		<tag k="natural" v="cape" />
		<tag k="ssr:stedsnr" v="9506" />
	</node>
	<node lat="61.14735555925399" lon="5.308775005730693" id="-31483">
		<tag k="alt_name" v="Øvre Dyttingetjørn" />
		<tag k="name" v="Kolgrovtjørna" />
		<tag k="natural" v="water" />
		<tag k="ssr:stedsnr" v="9513" />
	</node>
	<node lat="61.13943055215415" lon="5.177938881091524" id="-31484">
		<tag k="name" v="Kobbevågen" />
		<tag k="natural" v="bay" />
		<tag k="ssr:stedsnr" v="9515" />
	</node>
	<node lat="61.13685000424023" lon="5.347497212580681" id="-31485">
		<tag k="fixme" v="consider place=hamlet" />
		<tag k="name" v="Leirvik" />
		<tag k="place" v="village" />
		<tag k="ssr:stedsnr" v="9520" />
	</node>
	<node lat="61.185149973433866" lon="5.316609750109828" id="-31486">
		<tag k="fixme" v="consider place=hamlet" />
		<tag k="name" v="Sørefjorden" />
		<tag k="place" v="farm" />
		<tag k="ssr:stedsnr" v="9701" />
	</node>
	<node lat="61.173669443835365" lon="5.153577774163619" id="-31487">
		<tag k="fixme" v="consider natural=peak for the most distinct mountains in the district" />
		<tag k="name" v="Nevrestignova" />
		<tag k="natural" v="hill" />
		<tag k="place" v="locality" />
		<tag k="ssr:stedsnr" v="9705" />
	</node>
	<node lat="61.171006463531974" lon="5.294925187595026" id="-31488">
		<tag k="alt_name" v="Hyllestad  kirke;Hyllestad" />
		<tag k="amenity" v="place_of_worship" />
		<tag k="denomination" v="lutheran" />
		<tag k="name" v="Hyllestad kyrkje" />
		<tag k="religion" v="christian" />
		<tag k="ssr:stedsnr" v="9710" />
	</node>
	<node lat="61.180216669574556" lon="5.395861105943414" id="-31489">
		<tag k="alt_name" v="Tonningsvatnet" />
		<tag k="name" v="Tauningsvatnet" />
		<tag k="natural" v="water" />
		<tag k="ssr:stedsnr" v="9716" />
	</node>
	<node lat="61.22378611492421" lon="5.202822219770871" id="-31490">
		<tag k="name" v="Salbu" />
		<tag k="place" v="hamlet" />
		<tag k="ssr:stedsnr" v="9639" />
	</node>
	<node lat="61.189219441580505" lon="5.293630559252055" id="-31491">
		<tag k="alt_name" v="Rønnesetholmen" />
		<tag k="name" v="Rønsetholmen" />
		<tag k="place" v="islet" />
		<tag k="ssr:stedsnr" v="9687" />
	</node>
	<node lat="61.18026388585053" lon="5.1588972148237975" id="-31492">
		<tag k="alt_name" v="Trollebotnsvatnet, øvre" />
		<tag k="name" v="Øvre Trollebotnvatnet" />
		<tag k="natural" v="water" />
		<tag k="ssr:stedsnr" v="9689" />
	</node>
	<node lat="61.18380000065607" lon="5.1469972137716935" id="-31493">
		<tag k="alt_name" v="Nervelivatnet" />
		<tag k="name" v="Nevrelivatnet" />
		<tag k="natural" v="water" />
		<tag k="ssr:stedsnr" v="9691" />
	</node>
	<node lat="61.17211388557067" lon="5.4418027747685445" id="-31495">
		<tag k="name" v="Stølsvatnet" />
		<tag k="natural" v="water" />
		<tag k="ssr:stedsnr" v="9737" />
	</node>
	<node lat="61.24203055608969" lon="5.087855560701035" id="-31496">
		<tag k="alt_name" v="Djupevik" />
		<tag k="name" v="Djupevika" />
		<tag k="natural" v="bay" />
		<tag k="ssr:stedsnr" v="10000" />
	</node>
	<node lat="61.19351944841932" lon="5.068030547774688" id="-31497">
		<tag k="name" v="Børnes" />
		<tag k="place" v="isolated_dwelling" />
		<tag k="ssr:stedsnr" v="234422" />
	</node>
	<node lat="61.188736112082516" lon="5.100736114436249" id="-31499">
		<tag k="name" v="Trolleskaret" />
		<tag k="natural" v="valley" />
		<tag k="place" v="locality" />
		<tag k="ssr:stedsnr" v="42323" />
	</node>
	<node lat="61.129766665022984" lon="5.3655999923033475" id="-31500">
		<tag k="name" v="Maristova" />
		<tag k="place" v="locality" />
		<tag k="ssr:stedsnr" v="42487" />
	</node>
	<node lat="61.249944441535504" lon="5.247152786801643" id="-31501">
		<tag k="name" v="Røyrpallen" />
		<tag k="natural" v="hill" />
		<tag k="place" v="locality" />
		<tag k="ssr:stedsnr" v="43011" />
	</node>
	<node lat="61.12949722436294" lon="5.31301388176125" id="-31502">
		<tag k="name" v="Gadden" />
		<tag k="natural" v="hill" />
		<tag k="place" v="locality" />
		<tag k="ssr:stedsnr" v="43075" />
	</node>
	<node lat="61.15748611473805" lon="5.335630549619983" id="-31503">
		<tag k="name" v="Diketjørna" />
		<tag k="natural" v="water" />
		<tag k="ssr:stedsnr" v="43215" />
	</node>
	<node lat="61.20466666537452" lon="5.3869000092391515" id="-31504">
		<tag k="name" v="Lomstjørna" />
		<tag k="natural" v="water" />
		<tag k="ssr:stedsnr" v="43181" />
	</node>
	<node lat="61.18976389086697" lon="5.4062749946923985" id="-31505">
		<tag k="name" v="Kvilderberget" />
		<tag k="natural" v="hill" />
		<tag k="place" v="locality" />
		<tag k="ssr:stedsnr" v="43501" />
	</node>
	<node lat="61.089299999614816" lon="5.414411109638082" id="-31506">
		<tag k="name" v="Remane" />
		<tag k="natural" v="hill" />
		<tag k="place" v="locality" />
		<tag k="ssr:stedsnr" v="43531" />
	</node>
	<node lat="61.16602777437835" lon="5.431397217174799" id="-31507">
		<tag k="fixme" v="consider natural=peak for the most distinct mountains in the district" />
		<tag k="name" v="Storfjellet" />
		<tag k="natural" v="hill" />
		<tag k="place" v="locality" />
		<tag k="ssr:stedsnr" v="43576" />
	</node>
	<node lat="61.20172777566844" lon="5.096361117747471" id="-31508">
		<tag k="name" v="Geitestoveneset" />
		<tag k="natural" v="cape" />
		<tag k="ssr:stedsnr" v="43705" />
	</node>
	<node lat="61.11846944380627" lon="5.4229305616487435" id="-31509">
		<tag k="name" v="Trollebotnen" />
		<tag k="natural" v="valley" />
		<tag k="place" v="locality" />
		<tag k="ssr:stedsnr" v="43926" />
	</node>
	<node lat="61.12584721915301" lon="5.434733324640457" id="-31510">
		<tag k="fixme" v="consider natural=peak for the most distinct mountains in the district" />
		<tag k="name" v="Knolten" />
		<tag k="natural" v="hill" />
		<tag k="place" v="locality" />
		<tag k="ssr:stedsnr" v="43931" />
	</node>
	<node lat="61.107055558583276" lon="5.406319448536752" id="-31511">
		<tag k="name" v="Stølselva" />
		<tag k="ssr:stedsnr" v="43936" />
		<tag k="waterway" v="stream" />
	</node>
	<node lat="61.24019166869452" lon="5.061033324077187" id="-31512">
		<tag k="alt_name" v="Langevågen" />
		<tag k="name" v="Langevåg" />
		<tag k="natural" v="bay" />
		<tag k="ssr:stedsnr" v="43941" />
	</node>
	<node lat="61.24105555888096" lon="5.06741389382679" id="-31513">
		<tag k="name" v="Bordvikholmen" />
		<tag k="place" v="islet" />
		<tag k="ssr:stedsnr" v="43943" />
	</node>
	<node lat="61.22475737493329" lon="5.108692844408846" id="-31514">
		<tag k="fixme" v="consider place=hamlet" />
		<tag k="name" v="Eide" />
		<tag k="place" v="farm" />
		<tag k="ssr:stedsnr" v="69432" />
	</node>
	<node lat="61.173827777187334" lon="5.22296666158536" id="-31515">
		<tag k="fixme" v="consider natural=peak for the most distinct mountains in the district" />
		<tag k="name" v="Gygrekjeften" />
		<tag k="natural" v="hill" />
		<tag k="place" v="locality" />
		<tag k="ssr:stedsnr" v="69736" />
	</node>
	<node lat="61.259099995788176" lon="5.184238881070659" id="-31516">
		<tag k="name" v="Vestdalen" />
		<tag k="natural" v="valley" />
		<tag k="place" v="locality" />
		<tag k="ssr:stedsnr" v="69740" />
	</node>
	<node lat="61.219472219562135" lon="5.058186108053142" id="-31517">
		<tag k="alt_name" v="Merkingsvik" />
		<tag k="name" v="Merkingsvika" />
		<tag k="natural" v="bay" />
		<tag k="ssr:stedsnr" v="70110" />
	</node>
	<node lat="61.18486389264673" lon="5.085158329408937" id="-31518">
		<tag k="name" v="Sageneset" />
		<tag k="natural" v="cape" />
		<tag k="ssr:stedsnr" v="70030" />
	</node>
	<node lat="61.145997218774184" lon="5.309788896959737" id="-31519">
		<tag k="alt_name" v="Nedre Dyttingetjørn" />
		<tag k="name" v="Dyttingetjørna" />
		<tag k="natural" v="water" />
		<tag k="ssr:stedsnr" v="70481" />
	</node>
</osm>
