<?xml version="1.0" encoding="UTF-8"?>
<osm version="0.6" generator="osmapis">
	<node lat="59.17276944786111" lon="9.667777784949399" id="-46960">
		<tag k="name" v="Grenland" />
		<tag k="ssr:date" v="2019-12-27" />
		<tag k="ssr:gruppe" v="terrengområder" />
		<tag k="ssr:hovedgruppe" v="terreng" />
		<tag k="ssr:stedsnr" v="267957" />
		<tag k="ssr:type" v="landskapsområde" />
	</node>
	<node lat="59.18476010461194" lon="9.623158144950267" id="-48241">
		<tag k="name" v="Svea" />
		<tag k="ssr:date" v="2019-12-27" />
		<tag k="ssr:gruppe" v="navigasjon" />
		<tag k="ssr:hovedgruppe" v="infrastruktur" />
		<tag k="ssr:stedsnr" v="851519" />
		<tag k="ssr:type" v="fyrlykt" />
	</node>
	<node lat="59.207488887185164" lon="9.610569443041301" id="-48726">
		<tag k="alt_name" v="Skien" />
		<tag k="name" v="Skien kommune" />
		<tag k="ssr:date" v="2019-12-27" />
		<tag k="ssr:gruppe" v="administrativeIndelinger" />
		<tag k="ssr:hovedgruppe" v="offentligAdministrasjon" />
		<tag k="ssr:stedsnr" v="85015" />
		<tag k="ssr:type" v="kommune" />
	</node>
	<node lat="59.21086388868559" lon="9.489550001799604" id="-49005">
		<tag k="name" v="Firingen" />
		<tag k="ssr:date" v="2019-12-27" />
		<tag k="ssr:gruppe" v="navigasjon" />
		<tag k="ssr:hovedgruppe" v="infrastruktur" />
		<tag k="ssr:stedsnr" v="208123" />
		<tag k="ssr:type" v="fyrlykt" />
	</node>
	<node lat="59.12262500250134" lon="9.60531110825684" id="-49358">
		<tag k="name" v="Torsberg" />
		<tag k="ssr:date" v="2019-12-27" />
		<tag k="ssr:gruppe" v="navigasjon" />
		<tag k="ssr:hovedgruppe" v="infrastruktur" />
		<tag k="ssr:stedsnr" v="426565" />
		<tag k="ssr:type" v="fyrlykt" />
	</node>
	<node lat="59.17442778139532" lon="9.634791673457086" id="-50020">
		<tag k="name" v="Kjørbekk" />
		<tag k="old_name" v="Kjørrbekk" />
		<tag k="ssr:date" v="2019-12-27" />
		<tag k="ssr:gruppe" v="navigasjon" />
		<tag k="ssr:hovedgruppe" v="infrastruktur" />
		<tag k="ssr:stedsnr" v="790582" />
		<tag k="ssr:type" v="fyrlykt" />
	</node>
	<node lat="59.184148013866036" lon="9.601512544262139" id="-50383">
		<tag k="name" v="Olav Bjålands veg" />
		<tag k="ssr:date" v="2019-12-27" />
		<tag k="ssr:gruppe" v="veg" />
		<tag k="ssr:hovedgruppe" v="infrastruktur" />
		<tag k="ssr:stedsnr" v="1051617" />
		<tag k="ssr:type" v="adressenavn" />
	</node>
	<node lat="59.13043511744979" lon="9.601552183322841" id="-50483">
		<tag k="name" v="Tjernløkka" />
		<tag k="ssr:date" v="2019-12-27" />
		<tag k="ssr:gruppe" v="veg" />
		<tag k="ssr:hovedgruppe" v="infrastruktur" />
		<tag k="ssr:stedsnr" v="1066374" />
		<tag k="ssr:type" v="adressenavn" />
	</node>
	<node lat="59.31631472406384" lon="9.323351036758767" id="-50491">
		<tag k="name" v="Valebø brygge" />
		<tag k="ssr:date" v="2019-12-27" />
		<tag k="ssr:gruppe" v="veg" />
		<tag k="ssr:hovedgruppe" v="infrastruktur" />
		<tag k="ssr:stedsnr" v="1070725" />
		<tag k="ssr:type" v="adressenavn" />
	</node>
	<node lat="59.30200135686195" lon="9.401156385820338" id="-50498">
		<tag k="name" v="Diltebakken" />
		<tag k="ssr:date" v="2019-12-27" />
		<tag k="ssr:gruppe" v="veg" />
		<tag k="ssr:hovedgruppe" v="infrastruktur" />
		<tag k="ssr:stedsnr" v="1073518" />
		<tag k="ssr:type" v="vegstrekning" />
	</node>
</osm>
