<?xml version="1.0" encoding="UTF-8"?>
<<<<<<< HEAD
<osm version="0.6" generator="osmapis">
	<node lat="59.62280833310404" lon="11.092711102608765" id="-15140">
		<tag k="old_name" v="Bjørkeskog" />
		<tag k="place" v="locality" />
		<tag k="ssr:date" v="2019-12-27" />
		<tag k="ssr:gruppe" v="flater" />
		<tag k="ssr:hovedgruppe" v="terreng" />
		<tag k="ssr:stedsnr" v="143639" />
		<tag k="ssr:type" v="mo" />
	</node>
	<node lat="59.61512222117937" lon="11.084883331594773" id="-15529">
		<tag k="old_name" v="Grini søndre;Søndre Grini" />
		<tag k="place" v="farm" />
		<tag k="ssr:date" v="2019-12-27" />
		<tag k="ssr:gruppe" v="gardsbebyggelse" />
		<tag k="ssr:hovedgruppe" v="bebyggelse" />
		<tag k="ssr:stedsnr" v="385679" />
		<tag k="ssr:type" v="bruk" />
	</node>
	<node lat="59.61693888620305" lon="11.077630554545362" id="-16349">
=======
<osm generator="osmapis" version="0.6">
	<node id="-238879" lat="59.6169388862" lon="11.0776305545">
>>>>>>> e1d4bc35ff8a6074a6f2e91616a996b547c36f15
		<tag k="old_name" v="Støkken" />
		<tag k="place" v="farm" />
		<tag k="ssr:date" v="2019-12-27" />
		<tag k="ssr:gruppe" v="gardsbebyggelse" />
		<tag k="ssr:hovedgruppe" v="bebyggelse" />
		<tag k="ssr:stedsnr" v="871621" />
		<tag k="ssr:type" v="bruk" />
	</node>
<<<<<<< HEAD
	<node lat="59.554583334172044" lon="11.178325007317039" id="-16581">
		<tag k="old_name" v="Torp" />
		<tag k="place" v="locality" />
		<tag k="ssr:date" v="2020-09-11" />
		<tag k="ssr:gruppe" v="bolighus" />
		<tag k="ssr:hovedgruppe" v="bebyggelse" />
		<tag k="ssr:stedsnr" v="24053" />
		<tag k="ssr:type" v="gammelBosettingsplass" />
	</node>
	<node lat="59.61589999773757" lon="11.075102769564095" id="-16776">
=======
	<node id="-239322" lat="59.6158999977" lon="11.0751027696">
>>>>>>> e1d4bc35ff8a6074a6f2e91616a996b547c36f15
		<tag k="old_name" v="Nes" />
		<tag k="place" v="farm" />
		<tag k="ssr:date" v="2019-12-27" />
		<tag k="ssr:gruppe" v="gardsbebyggelse" />
		<tag k="ssr:hovedgruppe" v="bebyggelse" />
		<tag k="ssr:stedsnr" v="143658" />
		<tag k="ssr:type" v="bruk" />
	</node>
<<<<<<< HEAD
	<node lat="59.61571388920203" lon="11.084727769413119" id="-17156">
		<tag k="old_name" v="Grini mellom;Mellom-Grini" />
=======
	<node id="-239071" lat="59.5545833342" lon="11.1783250073">
		<tag k="old_name" v="Torp" />
		<tag k="place" v="locality" />
		<tag k="ssr:date" v="2019-12-27" />
		<tag k="ssr:gruppe" v="bolighus" />
		<tag k="ssr:hovedgruppe" v="bebyggelse" />
		<tag k="ssr:stedsnr" v="24053" />
		<tag k="ssr:type" v="gammelBosettingsplass" />
	</node>
	<node id="-239319" lat="59.6228083331" lon="11.0927111026">
		<tag k="old_name" v="Bjørkeskog" />
		<tag k="place" v="locality" />
		<tag k="ssr:date" v="2019-12-27" />
		<tag k="ssr:gruppe" v="flater" />
		<tag k="ssr:hovedgruppe" v="terreng" />
		<tag k="ssr:stedsnr" v="143639" />
		<tag k="ssr:type" v="mo" />
	</node>
	<node id="-239852" lat="59.6151222212" lon="11.0848833316">
		<tag k="old_name" v="Grini søndre;Søndre Grini" />
>>>>>>> e1d4bc35ff8a6074a6f2e91616a996b547c36f15
		<tag k="place" v="farm" />
		<tag k="ssr:date" v="2019-12-27" />
		<tag k="ssr:gruppe" v="gardsbebyggelse" />
		<tag k="ssr:hovedgruppe" v="bebyggelse" />
		<tag k="ssr:stedsnr" v="385678" />
		<tag k="ssr:type" v="bruk" />
	</node>
<<<<<<< HEAD
	<node lat="59.61728888716547" lon="11.082608338259107" id="-17420">
		<tag k="old_name" v="Grini nordre;Nordre Grini" />
=======
	<node id="-239851" lat="59.6157138892" lon="11.0847277694">
		<tag k="old_name" v="Grini mellom;Mellom-Grini" />
>>>>>>> e1d4bc35ff8a6074a6f2e91616a996b547c36f15
		<tag k="place" v="farm" />
		<tag k="ssr:date" v="2019-12-27" />
		<tag k="ssr:gruppe" v="gardsbebyggelse" />
		<tag k="ssr:hovedgruppe" v="bebyggelse" />
		<tag k="ssr:stedsnr" v="567635" />
		<tag k="ssr:type" v="bruk" />
	</node>
<<<<<<< HEAD
	<node lat="59.59364656531478" lon="11.492859264382423" id="-18061">
		<tag k="loc_name" v="Delefurua" />
		<tag k="place" v="locality" />
		<tag k="ssr:date" v="2021-05-05" />
		<tag k="ssr:gruppe" v="terrengdetaljer" />
		<tag k="ssr:hovedgruppe" v="terreng" />
		<tag k="ssr:stedsnr" v="1081181" />
		<tag k="ssr:type" v="annenTerrengdetalj" />
=======
	<node id="-240066" lat="59.6172888872" lon="11.0826083383">
		<tag k="old_name" v="Grini nordre;Nordre Grini" />
		<tag k="place" v="farm" />
		<tag k="ssr:date" v="2019-12-27" />
		<tag k="ssr:gruppe" v="gardsbebyggelse" />
		<tag k="ssr:hovedgruppe" v="bebyggelse" />
		<tag k="ssr:stedsnr" v="567635" />
		<tag k="ssr:type" v="bruk" />
>>>>>>> e1d4bc35ff8a6074a6f2e91616a996b547c36f15
	</node>
</osm>
