<?xml version="1.0" encoding="UTF-8"?>
<osm version="0.6" generator="osmapis">
	<node lat="59.66179463431863" lon="11.463651995226229" id="-30233">
		<tag k="name" v="Tyrihjelltangen" />
		<tag k="ssr:date" v="2019-12-27" />
		<tag k="ssr:gruppe" v="veg" />
		<tag k="ssr:hovedgruppe" v="infrastruktur" />
		<tag k="ssr:stedsnr" v="978861" />
		<tag k="ssr:type" v="adressenavn" />
	</node>
	<node lat="59.7253017410328" lon="11.292780898049122" id="-30234">
		<tag k="name" v="Årmoveien" />
		<tag k="ssr:date" v="2019-12-27" />
		<tag k="ssr:gruppe" v="veg" />
		<tag k="ssr:hovedgruppe" v="infrastruktur" />
		<tag k="ssr:stedsnr" v="978862" />
		<tag k="ssr:type" v="adressenavn" />
	</node>
	<node lat="59.727346713485154" lon="11.291804368248933" id="-30235">
		<tag k="name" v="Eikebergåsen" />
		<tag k="ssr:date" v="2019-12-27" />
		<tag k="ssr:gruppe" v="veg" />
		<tag k="ssr:hovedgruppe" v="infrastruktur" />
		<tag k="ssr:stedsnr" v="978863" />
		<tag k="ssr:type" v="adressenavn" />
	</node>
	<node lat="59.7290033058439" lon="11.290180595803823" id="-30236">
		<tag k="name" v="Eikeberglia" />
		<tag k="ssr:date" v="2019-12-27" />
		<tag k="ssr:gruppe" v="veg" />
		<tag k="ssr:hovedgruppe" v="infrastruktur" />
		<tag k="ssr:stedsnr" v="978864" />
		<tag k="ssr:type" v="adressenavn" />
	</node>
	<node lat="59.65246630158495" lon="11.26989796376392" id="-30237">
		<tag k="name" v="Mønstervika" />
		<tag k="ssr:date" v="2019-12-27" />
		<tag k="ssr:gruppe" v="veg" />
		<tag k="ssr:hovedgruppe" v="infrastruktur" />
		<tag k="ssr:stedsnr" v="978865" />
		<tag k="ssr:type" v="adressenavn" />
	</node>
	<node lat="59.74181192148279" lon="11.286352015961384" id="-30239">
		<tag k="name" v="Komnesveien" />
		<tag k="ssr:date" v="2019-12-27" />
		<tag k="ssr:gruppe" v="veg" />
		<tag k="ssr:hovedgruppe" v="infrastruktur" />
		<tag k="ssr:stedsnr" v="979424" />
		<tag k="ssr:type" v="adressenavn" />
	</node>
	<node lat="59.73068543337632" lon="11.28562770864765" id="-30240">
		<tag k="name" v="Tuåsen" />
		<tag k="ssr:date" v="2019-12-27" />
		<tag k="ssr:gruppe" v="veg" />
		<tag k="ssr:hovedgruppe" v="infrastruktur" />
		<tag k="ssr:stedsnr" v="979425" />
		<tag k="ssr:type" v="adressenavn" />
	</node>
	<node lat="59.737638489243984" lon="11.354274562830323" id="-30241">
		<tag k="name" v="Tjernsmo" />
		<tag k="ssr:date" v="2019-12-27" />
		<tag k="ssr:gruppe" v="veg" />
		<tag k="ssr:hovedgruppe" v="infrastruktur" />
		<tag k="ssr:stedsnr" v="979426" />
		<tag k="ssr:type" v="adressenavn" />
	</node>
	<node lat="59.57710217252947" lon="11.291102071510489" id="-30242">
		<tag k="name" v="Franserudveien" />
		<tag k="ssr:date" v="2019-12-27" />
		<tag k="ssr:gruppe" v="veg" />
		<tag k="ssr:hovedgruppe" v="infrastruktur" />
		<tag k="ssr:stedsnr" v="979428" />
		<tag k="ssr:type" v="adressenavn" />
	</node>
	<node lat="59.61346284506593" lon="11.086154405838375" id="-30255">
		<tag k="name" v="Krokveien" />
		<tag k="ssr:date" v="2019-12-27" />
		<tag k="ssr:gruppe" v="veg" />
		<tag k="ssr:hovedgruppe" v="infrastruktur" />
		<tag k="ssr:stedsnr" v="1059902" />
		<tag k="ssr:type" v="adressenavn" />
	</node>
	<node lat="59.61038398258976" lon="11.09455476488193" id="-30257">
		<tag k="name" v="Korsveien" />
		<tag k="ssr:date" v="2019-12-27" />
		<tag k="ssr:gruppe" v="veg" />
		<tag k="ssr:hovedgruppe" v="infrastruktur" />
		<tag k="ssr:stedsnr" v="1059905" />
		<tag k="ssr:type" v="adressenavn" />
	</node>
	<node lat="59.61385477124781" lon="11.08838440395006" id="-30258">
		<tag k="name" v="Kjedeveien" />
		<tag k="ssr:date" v="2019-12-27" />
		<tag k="ssr:gruppe" v="veg" />
		<tag k="ssr:hovedgruppe" v="infrastruktur" />
		<tag k="ssr:stedsnr" v="1059907" />
		<tag k="ssr:type" v="adressenavn" />
	</node>
	<node lat="59.6156311831481" lon="11.08806474919129" id="-30261">
		<tag k="name" v="Mellomveien" />
		<tag k="ssr:date" v="2019-12-27" />
		<tag k="ssr:gruppe" v="veg" />
		<tag k="ssr:hovedgruppe" v="infrastruktur" />
		<tag k="ssr:stedsnr" v="1059912" />
		<tag k="ssr:type" v="adressenavn" />
	</node>
	<node lat="59.618257319401984" lon="11.095738583311299" id="-30262">
		<tag k="name" v="Mailund" />
		<tag k="ssr:date" v="2019-12-27" />
		<tag k="ssr:gruppe" v="veg" />
		<tag k="ssr:hovedgruppe" v="infrastruktur" />
		<tag k="ssr:stedsnr" v="1059914" />
		<tag k="ssr:type" v="adressenavn" />
	</node>
	<node lat="59.61404649364963" lon="11.081921177937295" id="-30265">
		<tag k="name" v="Grinibakken" />
		<tag k="ssr:date" v="2019-12-27" />
		<tag k="ssr:gruppe" v="veg" />
		<tag k="ssr:hovedgruppe" v="infrastruktur" />
		<tag k="ssr:stedsnr" v="1059919" />
		<tag k="ssr:type" v="adressenavn" />
	</node>
	<node lat="59.61297585959638" lon="11.087357258931423" id="-30267">
		<tag k="name" v="Glendeveien" />
		<tag k="ssr:date" v="2019-12-27" />
		<tag k="ssr:gruppe" v="veg" />
		<tag k="ssr:hovedgruppe" v="infrastruktur" />
		<tag k="ssr:stedsnr" v="1059922" />
		<tag k="ssr:type" v="adressenavn" />
	</node>
	<node lat="59.62028748036769" lon="11.086010768836996" id="-30268">
		<tag k="name" v="Gangstien" />
		<tag k="ssr:date" v="2019-12-27" />
		<tag k="ssr:gruppe" v="veg" />
		<tag k="ssr:hovedgruppe" v="infrastruktur" />
		<tag k="ssr:stedsnr" v="1059925" />
		<tag k="ssr:type" v="adressenavn" />
	</node>
	<node lat="59.61765406620189" lon="11.087455512819645" id="-30271">
		<tag k="name" v="Helge Ingstads vei" />
		<tag k="ssr:date" v="2019-12-27" />
		<tag k="ssr:gruppe" v="veg" />
		<tag k="ssr:hovedgruppe" v="infrastruktur" />
		<tag k="ssr:stedsnr" v="1059934" />
		<tag k="ssr:type" v="adressenavn" />
	</node>
	<node lat="59.6202016070638" lon="11.094979895318914" id="-30272">
		<tag k="name" v="Grenaderveien" />
		<tag k="ssr:date" v="2019-12-27" />
		<tag k="ssr:gruppe" v="veg" />
		<tag k="ssr:hovedgruppe" v="infrastruktur" />
		<tag k="ssr:stedsnr" v="1059936" />
		<tag k="ssr:type" v="adressenavn" />
	</node>
	<node lat="59.617228583919015" lon="11.079008048938721" id="-30274">
		<tag k="name" v="Griniveien" />
		<tag k="ssr:date" v="2019-12-27" />
		<tag k="ssr:gruppe" v="veg" />
		<tag k="ssr:hovedgruppe" v="infrastruktur" />
		<tag k="ssr:stedsnr" v="1059939" />
		<tag k="ssr:type" v="adressenavn" />
	</node>
	<node lat="59.614549437796846" lon="11.070383931903779" id="-30275">
		<tag k="name" v="Bergsnaret" />
		<tag k="ssr:date" v="2019-12-27" />
		<tag k="ssr:gruppe" v="veg" />
		<tag k="ssr:hovedgruppe" v="infrastruktur" />
		<tag k="ssr:stedsnr" v="1059941" />
		<tag k="ssr:type" v="adressenavn" />
	</node>
	<node lat="59.61378593853059" lon="11.06644638043916" id="-30278">
		<tag k="name" v="Fjellveien" />
		<tag k="ssr:date" v="2019-12-27" />
		<tag k="ssr:gruppe" v="veg" />
		<tag k="ssr:hovedgruppe" v="infrastruktur" />
		<tag k="ssr:stedsnr" v="1059950" />
		<tag k="ssr:type" v="adressenavn" />
	</node>
	<node lat="59.61124457345906" lon="11.076025523241926" id="-30279">
		<tag k="name" v="Fagerliveien" />
		<tag k="ssr:date" v="2019-12-27" />
		<tag k="ssr:gruppe" v="veg" />
		<tag k="ssr:hovedgruppe" v="infrastruktur" />
		<tag k="ssr:stedsnr" v="1059952" />
		<tag k="ssr:type" v="adressenavn" />
	</node>
	<node lat="59.62097390328949" lon="11.098940303336557" id="-30280">
		<tag k="name" v="Dragonveien" />
		<tag k="ssr:date" v="2019-12-27" />
		<tag k="ssr:gruppe" v="veg" />
		<tag k="ssr:hovedgruppe" v="infrastruktur" />
		<tag k="ssr:stedsnr" v="1059953" />
		<tag k="ssr:type" v="adressenavn" />
	</node>
	<node lat="59.61292517249767" lon="11.068401536175516" id="-30281">
		<tag k="name" v="Bøygen" />
		<tag k="ssr:date" v="2019-12-27" />
		<tag k="ssr:gruppe" v="veg" />
		<tag k="ssr:hovedgruppe" v="infrastruktur" />
		<tag k="ssr:stedsnr" v="1059955" />
		<tag k="ssr:type" v="adressenavn" />
	</node>
	<node lat="59.590268972601315" lon="11.198566739019693" id="-30287">
		<tag k="name" v="Trippestadveien" />
		<tag k="ssr:date" v="2019-12-27" />
		<tag k="ssr:gruppe" v="veg" />
		<tag k="ssr:hovedgruppe" v="infrastruktur" />
		<tag k="ssr:stedsnr" v="1060955" />
		<tag k="ssr:type" v="adressenavn" />
	</node>
	<node lat="59.58100962486184" lon="11.145553440838066" id="-30289">
		<tag k="name" v="A.C.Furuholmens gate" />
		<tag k="ssr:date" v="2019-12-27" />
		<tag k="ssr:gruppe" v="veg" />
		<tag k="ssr:hovedgruppe" v="infrastruktur" />
		<tag k="ssr:stedsnr" v="1060958" />
		<tag k="ssr:type" v="adressenavn" />
	</node>
	<node lat="59.59485655868438" lon="11.152792467715575" id="-30291">
		<tag k="name" v="Askimjordet" />
		<tag k="ssr:date" v="2019-12-27" />
		<tag k="ssr:gruppe" v="veg" />
		<tag k="ssr:hovedgruppe" v="infrastruktur" />
		<tag k="ssr:stedsnr" v="1060962" />
		<tag k="ssr:type" v="adressenavn" />
	</node>
	<node lat="59.59479331177166" lon="11.15793974803563" id="-30292">
		<tag k="name" v="Gudimveien" />
		<tag k="ssr:date" v="2019-12-27" />
		<tag k="ssr:gruppe" v="veg" />
		<tag k="ssr:hovedgruppe" v="infrastruktur" />
		<tag k="ssr:stedsnr" v="1060964" />
		<tag k="ssr:type" v="adressenavn" />
	</node>
	<node lat="59.58954129930779" lon="11.156802227922238" id="-30294">
		<tag k="name" v="Kolstadveien" />
		<tag k="ssr:date" v="2019-12-27" />
		<tag k="ssr:gruppe" v="veg" />
		<tag k="ssr:hovedgruppe" v="infrastruktur" />
		<tag k="ssr:stedsnr" v="1060967" />
		<tag k="ssr:type" v="adressenavn" />
	</node>
	<node lat="59.60764498609742" lon="11.22432844264063" id="-30296">
		<tag k="name" v="Odalenveien" />
		<tag k="ssr:date" v="2019-12-27" />
		<tag k="ssr:gruppe" v="veg" />
		<tag k="ssr:hovedgruppe" v="infrastruktur" />
		<tag k="ssr:stedsnr" v="1060971" />
		<tag k="ssr:type" v="adressenavn" />
	</node>
	<node lat="59.566141159716544" lon="11.198655775323557" id="-30297">
		<tag k="name" v="Masengveien" />
		<tag k="ssr:date" v="2019-12-27" />
		<tag k="ssr:gruppe" v="veg" />
		<tag k="ssr:hovedgruppe" v="infrastruktur" />
		<tag k="ssr:stedsnr" v="1060973" />
		<tag k="ssr:type" v="adressenavn" />
	</node>
	<node lat="59.567509509588504" lon="11.178993866369145" id="-30300">
		<tag k="name" v="Autenveien" />
		<tag k="ssr:date" v="2019-12-27" />
		<tag k="ssr:gruppe" v="veg" />
		<tag k="ssr:hovedgruppe" v="infrastruktur" />
		<tag k="ssr:stedsnr" v="1060979" />
		<tag k="ssr:type" v="adressenavn" />
	</node>
	<node lat="59.5581308123216" lon="11.152749581435248" id="-30302">
		<tag k="name" v="Engerveien" />
		<tag k="ssr:date" v="2019-12-27" />
		<tag k="ssr:gruppe" v="veg" />
		<tag k="ssr:hovedgruppe" v="infrastruktur" />
		<tag k="ssr:stedsnr" v="1060982" />
		<tag k="ssr:type" v="adressenavn" />
	</node>
	<node lat="59.63443591723337" lon="11.32031742185592" id="-30305">
		<tag k="name" v="Festningsåsen" />
		<tag k="ssr:date" v="2019-12-27" />
		<tag k="ssr:gruppe" v="veg" />
		<tag k="ssr:hovedgruppe" v="infrastruktur" />
		<tag k="ssr:stedsnr" v="1061036" />
		<tag k="ssr:type" v="adressenavn" />
	</node>
	<node lat="59.58288496498986" lon="11.160760591455476" id="-30307">
		<tag k="name" v="A B Aarstens gate" />
		<tag k="ssr:date" v="2019-12-27" />
		<tag k="ssr:gruppe" v="veg" />
		<tag k="ssr:hovedgruppe" v="infrastruktur" />
		<tag k="ssr:stedsnr" v="1061041" />
		<tag k="ssr:type" v="adressenavn" />
	</node>
	<node lat="59.58106511880627" lon="11.164919696178796" id="-30309">
		<tag k="name" v="Chr.Ødegårds gate" />
		<tag k="ssr:date" v="2019-12-27" />
		<tag k="ssr:gruppe" v="veg" />
		<tag k="ssr:hovedgruppe" v="infrastruktur" />
		<tag k="ssr:stedsnr" v="1061044" />
		<tag k="ssr:type" v="adressenavn" />
	</node>
	<node lat="59.615696952086736" lon="11.034093268866844" id="-30310">
		<tag k="name" v="Vestlia" />
		<tag k="ssr:date" v="2019-12-27" />
		<tag k="ssr:gruppe" v="veg" />
		<tag k="ssr:hovedgruppe" v="infrastruktur" />
		<tag k="ssr:stedsnr" v="1061045" />
		<tag k="ssr:type" v="adressenavn" />
	</node>
	<node lat="59.58473342260428" lon="11.134216689024186" id="-30311">
		<tag k="name" v="Langnesveien" />
		<tag k="ssr:date" v="2019-12-27" />
		<tag k="ssr:gruppe" v="veg" />
		<tag k="ssr:hovedgruppe" v="infrastruktur" />
		<tag k="ssr:stedsnr" v="1061046" />
		<tag k="ssr:type" v="adressenavn" />
	</node>
	<node lat="59.613957906396095" lon="11.079236415476515" id="-30312">
		<tag k="name" v="Sørmyrveien" />
		<tag k="ssr:date" v="2019-12-27" />
		<tag k="ssr:gruppe" v="veg" />
		<tag k="ssr:hovedgruppe" v="infrastruktur" />
		<tag k="ssr:stedsnr" v="1061047" />
		<tag k="ssr:type" v="adressenavn" />
	</node>
	<node lat="59.5451708508099" lon="11.158022245485544" id="-30313">
		<tag k="name" v="Vammeliveien" />
		<tag k="ssr:date" v="2019-12-27" />
		<tag k="ssr:gruppe" v="veg" />
		<tag k="ssr:hovedgruppe" v="infrastruktur" />
		<tag k="ssr:stedsnr" v="1061049" />
		<tag k="ssr:type" v="adressenavn" />
	</node>
	<node lat="59.54650941965663" lon="11.16971749039928" id="-30315">
		<tag k="name" v="Vammabakken" />
		<tag k="ssr:date" v="2019-12-27" />
		<tag k="ssr:gruppe" v="veg" />
		<tag k="ssr:hovedgruppe" v="infrastruktur" />
		<tag k="ssr:stedsnr" v="1061052" />
		<tag k="ssr:type" v="adressenavn" />
	</node>
	<node lat="59.55201478807516" lon="11.36225492114514" id="-30319">
		<tag k="name" v="Bamsrudveien" />
		<tag k="ssr:date" v="2019-12-27" />
		<tag k="ssr:gruppe" v="veg" />
		<tag k="ssr:hovedgruppe" v="infrastruktur" />
		<tag k="ssr:stedsnr" v="1060492" />
		<tag k="ssr:type" v="adressenavn" />
	</node>
	<node lat="59.59337358808392" lon="11.19209348505396" id="-30327">
		<tag k="name" v="Barnålveien" />
		<tag k="ssr:date" v="2019-12-27" />
		<tag k="ssr:gruppe" v="veg" />
		<tag k="ssr:hovedgruppe" v="infrastruktur" />
		<tag k="ssr:stedsnr" v="1060511" />
		<tag k="ssr:type" v="adressenavn" />
	</node>
	<node lat="59.581699802867874" lon="11.14384049395484" id="-30333">
		<tag k="name" v="Bekkelagsveien" />
		<tag k="ssr:date" v="2019-12-27" />
		<tag k="ssr:gruppe" v="veg" />
		<tag k="ssr:hovedgruppe" v="infrastruktur" />
		<tag k="ssr:stedsnr" v="1060525" />
		<tag k="ssr:type" v="adressenavn" />
	</node>
	<node lat="59.63958523476382" lon="11.31540233472192" id="-30335">
		<tag k="name" v="Parkveien" />
		<tag k="ssr:date" v="2019-12-27" />
		<tag k="ssr:gruppe" v="veg" />
		<tag k="ssr:hovedgruppe" v="infrastruktur" />
		<tag k="ssr:stedsnr" v="1060530" />
		<tag k="ssr:type" v="adressenavn" />
	</node>
	<node lat="59.56979893270047" lon="11.330806938781452" id="-30336">
		<tag k="name" v="Barkerudveien" />
		<tag k="ssr:date" v="2019-12-27" />
		<tag k="ssr:gruppe" v="veg" />
		<tag k="ssr:hovedgruppe" v="infrastruktur" />
		<tag k="ssr:stedsnr" v="1060533" />
		<tag k="ssr:type" v="adressenavn" />
	</node>
	<node lat="59.58087126145292" lon="11.183867622266403" id="-30337">
		<tag k="name" v="Balders vei" />
		<tag k="ssr:date" v="2019-12-27" />
		<tag k="ssr:gruppe" v="veg" />
		<tag k="ssr:hovedgruppe" v="infrastruktur" />
		<tag k="ssr:stedsnr" v="1060608" />
		<tag k="ssr:type" v="adressenavn" />
	</node>
	<node lat="59.6143461989765" lon="11.415742055169918" id="-30338">
		<tag k="name" v="Lieråsen" />
		<tag k="ssr:date" v="2019-12-27" />
		<tag k="ssr:gruppe" v="veg" />
		<tag k="ssr:hovedgruppe" v="infrastruktur" />
		<tag k="ssr:stedsnr" v="1060614" />
		<tag k="ssr:type" v="adressenavn" />
	</node>
	<node lat="59.595558697141726" lon="11.182152127922173" id="-30340">
		<tag k="name" v="Bassengveien" />
		<tag k="ssr:date" v="2019-12-27" />
		<tag k="ssr:gruppe" v="veg" />
		<tag k="ssr:hovedgruppe" v="infrastruktur" />
		<tag k="ssr:stedsnr" v="1060542" />
		<tag k="ssr:type" v="adressenavn" />
	</node>
	<node lat="59.61457152547144" lon="11.404390763921404" id="-30342">
		<tag k="name" v="Langmo" />
		<tag k="ssr:date" v="2019-12-27" />
		<tag k="ssr:gruppe" v="veg" />
		<tag k="ssr:hovedgruppe" v="infrastruktur" />
		<tag k="ssr:stedsnr" v="1060555" />
		<tag k="ssr:type" v="adressenavn" />
	</node>
	<node lat="59.58046102138325" lon="11.142270482429216" id="-30345">
		<tag k="name" v="Bakkeliveien" />
		<tag k="ssr:date" v="2019-12-27" />
		<tag k="ssr:gruppe" v="veg" />
		<tag k="ssr:hovedgruppe" v="infrastruktur" />
		<tag k="ssr:stedsnr" v="1060563" />
		<tag k="ssr:type" v="adressenavn" />
	</node>
	<node lat="59.585265300118195" lon="11.141888172517659" id="-30350">
		<tag k="name" v="Bergveien" />
		<tag k="ssr:date" v="2019-12-27" />
		<tag k="ssr:gruppe" v="veg" />
		<tag k="ssr:hovedgruppe" v="infrastruktur" />
		<tag k="ssr:stedsnr" v="1060645" />
		<tag k="ssr:type" v="adressenavn" />
	</node>
	<node lat="59.589348596564314" lon="11.168112134270341" id="-30353">
		<tag k="name" v="Bjerklundveien" />
		<tag k="ssr:date" v="2019-12-27" />
		<tag k="ssr:gruppe" v="veg" />
		<tag k="ssr:hovedgruppe" v="infrastruktur" />
		<tag k="ssr:stedsnr" v="1060628" />
		<tag k="ssr:type" v="adressenavn" />
	</node>
	<node lat="59.641562463555246" lon="11.315806399010325" id="-30354">
		<tag k="name" v="Skoleveien" />
		<tag k="ssr:date" v="2019-12-27" />
		<tag k="ssr:gruppe" v="veg" />
		<tag k="ssr:hovedgruppe" v="infrastruktur" />
		<tag k="ssr:stedsnr" v="1060631" />
		<tag k="ssr:type" v="adressenavn" />
	</node>
	<node lat="59.5491300035234" lon="11.335153339051113" id="-30355">
		<tag k="name" v="Birkelundveien" />
		<tag k="ssr:date" v="2019-12-27" />
		<tag k="ssr:gruppe" v="veg" />
		<tag k="ssr:hovedgruppe" v="infrastruktur" />
		<tag k="ssr:stedsnr" v="1060634" />
		<tag k="ssr:type" v="adressenavn" />
	</node>
	<node lat="59.58040298733068" lon="11.152123608574266" id="-30356">
		<tag k="name" v="Bjørnsonsgate" />
		<tag k="ssr:date" v="2019-12-27" />
		<tag k="ssr:gruppe" v="veg" />
		<tag k="ssr:hovedgruppe" v="infrastruktur" />
		<tag k="ssr:stedsnr" v="1060701" />
		<tag k="ssr:type" v="adressenavn" />
	</node>
	<node lat="59.58054618290639" lon="11.138847018164432" id="-30359">
		<tag k="name" v="Bekkeveien" />
		<tag k="ssr:date" v="2019-12-27" />
		<tag k="ssr:gruppe" v="veg" />
		<tag k="ssr:hovedgruppe" v="infrastruktur" />
		<tag k="ssr:stedsnr" v="1060730" />
		<tag k="ssr:type" v="adressenavn" />
	</node>
	<node lat="59.64191105184301" lon="11.31322545439914" id="-30360">
		<tag k="name" v="Skjønhaugenga" />
		<tag k="ssr:date" v="2019-12-27" />
		<tag k="ssr:gruppe" v="veg" />
		<tag k="ssr:hovedgruppe" v="infrastruktur" />
		<tag k="ssr:stedsnr" v="1060734" />
		<tag k="ssr:type" v="adressenavn" />
	</node>
	<node lat="59.55426275021073" lon="11.347219703289907" id="-30366">
		<tag k="name" v="Bergheimveien" />
		<tag k="ssr:date" v="2019-12-27" />
		<tag k="ssr:gruppe" v="veg" />
		<tag k="ssr:hovedgruppe" v="infrastruktur" />
		<tag k="ssr:stedsnr" v="1060760" />
		<tag k="ssr:type" v="adressenavn" />
	</node>
	<node lat="59.642109386406325" lon="11.310245492838753" id="-30368">
		<tag k="name" v="Skolejordet" />
		<tag k="ssr:date" v="2019-12-27" />
		<tag k="ssr:gruppe" v="veg" />
		<tag k="ssr:hovedgruppe" v="infrastruktur" />
		<tag k="ssr:stedsnr" v="1060778" />
		<tag k="ssr:type" v="adressenavn" />
	</node>
	<node lat="59.556520724972216" lon="11.333701475072349" id="-30369">
		<tag k="name" v="Bekkefarveien" />
		<tag k="ssr:date" v="2019-12-27" />
		<tag k="ssr:gruppe" v="veg" />
		<tag k="ssr:hovedgruppe" v="infrastruktur" />
		<tag k="ssr:stedsnr" v="1060779" />
		<tag k="ssr:type" v="adressenavn" />
	</node>
	<node lat="59.590004439469276" lon="11.174758108846762" id="-30370">
		<tag k="name" v="Almveien" />
		<tag k="ssr:date" v="2019-12-27" />
		<tag k="ssr:gruppe" v="veg" />
		<tag k="ssr:hovedgruppe" v="infrastruktur" />
		<tag k="ssr:stedsnr" v="1060844" />
		<tag k="ssr:type" v="adressenavn" />
	</node>
	<node lat="59.64085555150869" lon="11.315901185746018" id="-30371">
		<tag k="name" v="Hølandsveien" />
		<tag k="ssr:date" v="2019-12-27" />
		<tag k="ssr:gruppe" v="veg" />
		<tag k="ssr:hovedgruppe" v="infrastruktur" />
		<tag k="ssr:stedsnr" v="1060851" />
		<tag k="ssr:type" v="adressenavn" />
	</node>
	<node lat="59.55470918271773" lon="11.329080765417931" id="-30372">
		<tag k="name" v="Anton H Granlis gate" />
		<tag k="ssr:date" v="2019-12-27" />
		<tag k="ssr:gruppe" v="veg" />
		<tag k="ssr:hovedgruppe" v="infrastruktur" />
		<tag k="ssr:stedsnr" v="1060862" />
		<tag k="ssr:type" v="adressenavn" />
	</node>
	<node lat="59.638970264430725" lon="11.322218960312185" id="-30374">
		<tag k="name" v="Idrettsveien" />
		<tag k="ssr:date" v="2019-12-27" />
		<tag k="ssr:gruppe" v="veg" />
		<tag k="ssr:hovedgruppe" v="infrastruktur" />
		<tag k="ssr:stedsnr" v="1060895" />
		<tag k="ssr:type" v="adressenavn" />
	</node>
	<node lat="59.55554831652196" lon="11.325456156080236" id="-30375">
		<tag k="name" v="Anton H Mysens gate" />
		<tag k="ssr:date" v="2019-12-27" />
		<tag k="ssr:gruppe" v="veg" />
		<tag k="ssr:hovedgruppe" v="infrastruktur" />
		<tag k="ssr:stedsnr" v="1060901" />
		<tag k="ssr:type" v="adressenavn" />
	</node>
	<node lat="59.58392682500293" lon="11.149946765598107" id="-30376">
		<tag k="name" v="Arnulf Øverlands gate" />
		<tag k="ssr:date" v="2019-12-27" />
		<tag k="ssr:gruppe" v="veg" />
		<tag k="ssr:hovedgruppe" v="infrastruktur" />
		<tag k="ssr:stedsnr" v="1060907" />
		<tag k="ssr:type" v="adressenavn" />
	</node>
	<node lat="59.58872906240926" lon="11.192878088322779" id="-30377">
		<tag k="name" v="Apalveien" />
		<tag k="ssr:date" v="2019-12-27" />
		<tag k="ssr:gruppe" v="veg" />
		<tag k="ssr:hovedgruppe" v="infrastruktur" />
		<tag k="ssr:stedsnr" v="1060935" />
		<tag k="ssr:type" v="adressenavn" />
	</node>
	<node lat="59.56151627700835" lon="11.14035664448577" id="-30378">
		<tag k="name" v="Revaugveien" />
		<tag k="ssr:date" v="2019-12-27" />
		<tag k="ssr:gruppe" v="veg" />
		<tag k="ssr:hovedgruppe" v="infrastruktur" />
		<tag k="ssr:stedsnr" v="1060987" />
		<tag k="ssr:type" v="adressenavn" />
	</node>
	<node lat="59.59144519124652" lon="11.204410395628427" id="-30380">
		<tag k="name" v="Mørkvedveien" />
		<tag k="ssr:date" v="2019-12-27" />
		<tag k="ssr:gruppe" v="veg" />
		<tag k="ssr:hovedgruppe" v="infrastruktur" />
		<tag k="ssr:stedsnr" v="1060992" />
		<tag k="ssr:type" v="adressenavn" />
	</node>
	<node lat="59.584017410237145" lon="11.22765410013533" id="-30382">
		<tag k="name" v="Eidarengveien" />
		<tag k="ssr:date" v="2019-12-27" />
		<tag k="ssr:gruppe" v="veg" />
		<tag k="ssr:hovedgruppe" v="infrastruktur" />
		<tag k="ssr:stedsnr" v="1060996" />
		<tag k="ssr:type" v="adressenavn" />
	</node>
	<node lat="59.57752478934176" lon="11.210904364302142" id="-30385">
		<tag k="name" v="Tømmeråsveien" />
		<tag k="ssr:date" v="2019-12-27" />
		<tag k="ssr:gruppe" v="veg" />
		<tag k="ssr:hovedgruppe" v="infrastruktur" />
		<tag k="ssr:stedsnr" v="1061001" />
		<tag k="ssr:type" v="adressenavn" />
	</node>
	<node lat="59.470212869011924" lon="11.27564846480585" id="-30387">
		<tag k="name" v="Rakkestadveien" />
		<tag k="ssr:date" v="2019-12-27" />
		<tag k="ssr:gruppe" v="veg" />
		<tag k="ssr:hovedgruppe" v="infrastruktur" />
		<tag k="ssr:stedsnr" v="1061005" />
		<tag k="ssr:type" v="adressenavn" />
	</node>
	<node lat="59.59240562035821" lon="11.110144814283316" id="-30389">
		<tag k="name" v="Løkkekroken" />
		<tag k="ssr:date" v="2019-12-27" />
		<tag k="ssr:gruppe" v="veg" />
		<tag k="ssr:hovedgruppe" v="infrastruktur" />
		<tag k="ssr:stedsnr" v="1061010" />
		<tag k="ssr:type" v="adressenavn" />
	</node>
	<node lat="59.58387087603513" lon="11.10613636710813" id="-30391">
		<tag k="name" v="Nordbuktveien" />
		<tag k="ssr:date" v="2019-12-27" />
		<tag k="ssr:gruppe" v="veg" />
		<tag k="ssr:hovedgruppe" v="infrastruktur" />
		<tag k="ssr:stedsnr" v="1061012" />
		<tag k="ssr:type" v="adressenavn" />
	</node>
	<node lat="59.57993063926196" lon="11.10609039272049" id="-30393">
		<tag k="name" v="Kykkelsrudveien" />
		<tag k="ssr:date" v="2019-12-27" />
		<tag k="ssr:gruppe" v="veg" />
		<tag k="ssr:hovedgruppe" v="infrastruktur" />
		<tag k="ssr:stedsnr" v="1061015" />
		<tag k="ssr:type" v="adressenavn" />
	</node>
	<node lat="59.58100371345276" lon="11.110762550997782" id="-30395">
		<tag k="name" v="Glomvikveien" />
		<tag k="ssr:date" v="2019-12-27" />
		<tag k="ssr:gruppe" v="veg" />
		<tag k="ssr:hovedgruppe" v="infrastruktur" />
		<tag k="ssr:stedsnr" v="1061018" />
		<tag k="ssr:type" v="adressenavn" />
	</node>
	<node lat="59.58643660298726" lon="11.134233684810308" id="-30397">
		<tag k="name" v="Frydenlundveien" />
		<tag k="ssr:date" v="2019-12-27" />
		<tag k="ssr:gruppe" v="veg" />
		<tag k="ssr:hovedgruppe" v="infrastruktur" />
		<tag k="ssr:stedsnr" v="1061021" />
		<tag k="ssr:type" v="adressenavn" />
	</node>
	<node lat="59.58639114672385" lon="11.121670475655531" id="-30399">
		<tag k="name" v="Romsveien" />
		<tag k="ssr:date" v="2019-12-27" />
		<tag k="ssr:gruppe" v="veg" />
		<tag k="ssr:hovedgruppe" v="infrastruktur" />
		<tag k="ssr:stedsnr" v="1061026" />
		<tag k="ssr:type" v="adressenavn" />
	</node>
	<node lat="59.595577912930985" lon="11.107536473749748" id="-30402">
		<tag k="name" v="Kjellåsveien" />
		<tag k="ssr:date" v="2019-12-27" />
		<tag k="ssr:gruppe" v="veg" />
		<tag k="ssr:hovedgruppe" v="infrastruktur" />
		<tag k="ssr:stedsnr" v="1061034" />
		<tag k="ssr:type" v="adressenavn" />
	</node>
	<node lat="59.58156451486179" lon="11.171460041541113" id="-30404">
		<tag k="name" v="Sira Sigurds gate" />
		<tag k="ssr:date" v="2019-12-27" />
		<tag k="ssr:gruppe" v="veg" />
		<tag k="ssr:hovedgruppe" v="infrastruktur" />
		<tag k="ssr:stedsnr" v="1061088" />
		<tag k="ssr:type" v="adressenavn" />
	</node>
	<node lat="59.62121053462297" lon="11.081484034429513" id="-30405">
		<tag k="name" v="Lyserenveien" />
		<tag k="ssr:date" v="2019-12-27" />
		<tag k="ssr:gruppe" v="veg" />
		<tag k="ssr:hovedgruppe" v="infrastruktur" />
		<tag k="ssr:stedsnr" v="1061089" />
		<tag k="ssr:type" v="adressenavn" />
	</node>
	<node lat="59.59160653589639" lon="11.19417643517626" id="-30406">
		<tag k="name" v="Trippestadsvingen" />
		<tag k="ssr:date" v="2019-12-27" />
		<tag k="ssr:gruppe" v="veg" />
		<tag k="ssr:hovedgruppe" v="infrastruktur" />
		<tag k="ssr:stedsnr" v="1061091" />
		<tag k="ssr:type" v="adressenavn" />
	</node>
	<node lat="59.61375057350793" lon="11.084481860569607" id="-30407">
		<tag k="name" v="Vinjaveien" />
		<tag k="ssr:date" v="2019-12-27" />
		<tag k="ssr:gruppe" v="veg" />
		<tag k="ssr:hovedgruppe" v="infrastruktur" />
		<tag k="ssr:stedsnr" v="1061092" />
		<tag k="ssr:type" v="adressenavn" />
	</node>
	<node lat="59.54643743419801" lon="11.172176373974223" id="-30408">
		<tag k="name" v="Vammatoppen" />
		<tag k="ssr:date" v="2019-12-27" />
		<tag k="ssr:gruppe" v="veg" />
		<tag k="ssr:hovedgruppe" v="infrastruktur" />
		<tag k="ssr:stedsnr" v="1061055" />
		<tag k="ssr:type" v="adressenavn" />
	</node>
	<node lat="59.53749430848965" lon="11.220210644396925" id="-30410">
		<tag k="name" v="Svenskebyveien" />
		<tag k="ssr:date" v="2019-12-27" />
		<tag k="ssr:gruppe" v="veg" />
		<tag k="ssr:hovedgruppe" v="infrastruktur" />
		<tag k="ssr:stedsnr" v="1061058" />
		<tag k="ssr:type" v="adressenavn" />
	</node>
	<node lat="59.599572141125684" lon="11.12959872051325" id="-30412">
		<tag k="name" v="Kleiva" />
		<tag k="ssr:date" v="2019-12-27" />
		<tag k="ssr:gruppe" v="veg" />
		<tag k="ssr:hovedgruppe" v="infrastruktur" />
		<tag k="ssr:stedsnr" v="1061061" />
		<tag k="ssr:type" v="adressenavn" />
	</node>
	<node lat="59.61420097160817" lon="11.084767181974135" id="-30413">
		<tag k="name" v="Granvinveien" />
		<tag k="ssr:date" v="2019-12-27" />
		<tag k="ssr:gruppe" v="veg" />
		<tag k="ssr:hovedgruppe" v="infrastruktur" />
		<tag k="ssr:stedsnr" v="1061062" />
		<tag k="ssr:type" v="adressenavn" />
	</node>
	<node lat="59.592216316143016" lon="11.181099826792702" id="-30414">
		<tag k="name" v="Åkerveien" />
		<tag k="ssr:date" v="2019-12-27" />
		<tag k="ssr:gruppe" v="veg" />
		<tag k="ssr:hovedgruppe" v="infrastruktur" />
		<tag k="ssr:stedsnr" v="1061065" />
		<tag k="ssr:type" v="adressenavn" />
	</node>
	<node lat="59.62215068309622" lon="11.090665358024918" id="-30415">
		<tag k="name" v="Pionerveien" />
		<tag k="ssr:date" v="2019-12-27" />
		<tag k="ssr:gruppe" v="veg" />
		<tag k="ssr:hovedgruppe" v="infrastruktur" />
		<tag k="ssr:stedsnr" v="1061066" />
		<tag k="ssr:type" v="adressenavn" />
	</node>
	<node lat="59.59744270117583" lon="11.18085120225195" id="-30416">
		<tag k="name" v="Dalstien" />
		<tag k="ssr:date" v="2019-12-27" />
		<tag k="ssr:gruppe" v="veg" />
		<tag k="ssr:hovedgruppe" v="infrastruktur" />
		<tag k="ssr:stedsnr" v="1061069" />
		<tag k="ssr:type" v="adressenavn" />
	</node>
	<node lat="59.62170968466199" lon="11.093829065825073" id="-30417">
		<tag k="name" v="Brigadeveien" />
		<tag k="ssr:date" v="2019-12-27" />
		<tag k="ssr:gruppe" v="veg" />
		<tag k="ssr:hovedgruppe" v="infrastruktur" />
		<tag k="ssr:stedsnr" v="1061070" />
		<tag k="ssr:type" v="adressenavn" />
	</node>
	<node lat="59.62012727049283" lon="11.094498044692509" id="-30418">
		<tag k="name" v="Kavaleriveien" />
		<tag k="ssr:date" v="2019-12-27" />
		<tag k="ssr:gruppe" v="veg" />
		<tag k="ssr:hovedgruppe" v="infrastruktur" />
		<tag k="ssr:stedsnr" v="1061075" />
		<tag k="ssr:type" v="adressenavn" />
	</node>
	<node lat="59.57621018484942" lon="11.180237228085545" id="-30419">
		<tag k="name" v="Vangsjordet" />
		<tag k="ssr:date" v="2019-12-27" />
		<tag k="ssr:gruppe" v="veg" />
		<tag k="ssr:hovedgruppe" v="infrastruktur" />
		<tag k="ssr:stedsnr" v="1061076" />
		<tag k="ssr:type" v="adressenavn" />
	</node>
	<node lat="59.63306935328561" lon="11.334786216544483" id="-30420">
		<tag k="name" v="Festningsveien" />
		<tag k="ssr:date" v="2019-12-27" />
		<tag k="ssr:gruppe" v="veg" />
		<tag k="ssr:hovedgruppe" v="infrastruktur" />
		<tag k="ssr:stedsnr" v="1061077" />
		<tag k="ssr:type" v="adressenavn" />
	</node>
	<node lat="59.59285921699015" lon="11.195054159218206" id="-30421">
		<tag k="name" v="Fjellsia" />
		<tag k="ssr:date" v="2019-12-27" />
		<tag k="ssr:gruppe" v="veg" />
		<tag k="ssr:hovedgruppe" v="infrastruktur" />
		<tag k="ssr:stedsnr" v="1061079" />
		<tag k="ssr:type" v="adressenavn" />
	</node>
	<node lat="59.61558370879747" lon="11.078400138172306" id="-30422">
		<tag k="name" v="Nordmyrveien" />
		<tag k="ssr:date" v="2019-12-27" />
		<tag k="ssr:gruppe" v="veg" />
		<tag k="ssr:hovedgruppe" v="infrastruktur" />
		<tag k="ssr:stedsnr" v="1061080" />
		<tag k="ssr:type" v="adressenavn" />
	</node>
	<node lat="59.59734850883084" lon="11.128854514199285" id="-30424">
		<tag k="name" v="Mikkelsbergbakken" />
		<tag k="ssr:date" v="2019-12-27" />
		<tag k="ssr:gruppe" v="veg" />
		<tag k="ssr:hovedgruppe" v="infrastruktur" />
		<tag k="ssr:stedsnr" v="1061136" />
		<tag k="ssr:type" v="adressenavn" />
	</node>
	<node lat="59.62039264509283" lon="11.081574998284893" id="-30425">
		<tag k="name" v="Snarveien" />
		<tag k="ssr:date" v="2019-12-27" />
		<tag k="ssr:gruppe" v="veg" />
		<tag k="ssr:hovedgruppe" v="infrastruktur" />
		<tag k="ssr:stedsnr" v="1061137" />
		<tag k="ssr:type" v="adressenavn" />
	</node>
	<node lat="59.59667561262963" lon="11.124144444009522" id="-30426">
		<tag k="name" v="Byframveien" />
		<tag k="ssr:date" v="2019-12-27" />
		<tag k="ssr:gruppe" v="veg" />
		<tag k="ssr:hovedgruppe" v="infrastruktur" />
		<tag k="ssr:stedsnr" v="1061139" />
		<tag k="ssr:type" v="adressenavn" />
	</node>
	<node lat="59.576104614510655" lon="11.165502159687755" id="-30428">
		<tag k="name" v="Welhavens vei" />
		<tag k="ssr:date" v="2019-12-27" />
		<tag k="ssr:gruppe" v="veg" />
		<tag k="ssr:hovedgruppe" v="infrastruktur" />
		<tag k="ssr:stedsnr" v="1061143" />
		<tag k="ssr:type" v="adressenavn" />
	</node>
	<node lat="59.614579342169435" lon="11.076411799250645" id="-30429">
		<tag k="name" v="Tunveien" />
		<tag k="ssr:date" v="2019-12-27" />
		<tag k="ssr:gruppe" v="veg" />
		<tag k="ssr:hovedgruppe" v="infrastruktur" />
		<tag k="ssr:stedsnr" v="1061144" />
		<tag k="ssr:type" v="adressenavn" />
	</node>
	<node lat="59.580117611993174" lon="11.185144814854993" id="-30430">
		<tag k="name" v="Tors vei" />
		<tag k="ssr:date" v="2019-12-27" />
		<tag k="ssr:gruppe" v="veg" />
		<tag k="ssr:hovedgruppe" v="infrastruktur" />
		<tag k="ssr:stedsnr" v="1061146" />
		<tag k="ssr:type" v="adressenavn" />
	</node>
	<node lat="59.59785721858705" lon="11.12727087719887" id="-30432">
		<tag k="name" v="Fjellbugrinna" />
		<tag k="ssr:date" v="2019-12-27" />
		<tag k="ssr:gruppe" v="veg" />
		<tag k="ssr:hovedgruppe" v="infrastruktur" />
		<tag k="ssr:stedsnr" v="1061149" />
		<tag k="ssr:type" v="adressenavn" />
	</node>
	<node lat="59.61206421229032" lon="11.089078588976356" id="-30433">
		<tag k="name" v="Sølvbergveien" />
		<tag k="ssr:date" v="2019-12-27" />
		<tag k="ssr:gruppe" v="veg" />
		<tag k="ssr:hovedgruppe" v="infrastruktur" />
		<tag k="ssr:stedsnr" v="1061150" />
		<tag k="ssr:type" v="adressenavn" />
	</node>
	<node lat="59.59739846897271" lon="11.126988550185283" id="-30434">
		<tag k="name" v="Byframgrinna" />
		<tag k="ssr:date" v="2019-12-27" />
		<tag k="ssr:gruppe" v="veg" />
		<tag k="ssr:hovedgruppe" v="infrastruktur" />
		<tag k="ssr:stedsnr" v="1061152" />
		<tag k="ssr:type" v="adressenavn" />
	</node>
	<node lat="59.617376727969756" lon="11.093969079307028" id="-30435">
		<tag k="name" v="Stubben" />
		<tag k="ssr:date" v="2019-12-27" />
		<tag k="ssr:gruppe" v="veg" />
		<tag k="ssr:hovedgruppe" v="infrastruktur" />
		<tag k="ssr:stedsnr" v="1061153" />
		<tag k="ssr:type" v="adressenavn" />
	</node>
	<node lat="59.615831153080975" lon="11.085461924989618" id="-30438">
		<tag k="name" v="Nyveien" />
		<tag k="ssr:date" v="2019-12-27" />
		<tag k="ssr:gruppe" v="veg" />
		<tag k="ssr:hovedgruppe" v="infrastruktur" />
		<tag k="ssr:stedsnr" v="1061163" />
		<tag k="ssr:type" v="adressenavn" />
	</node>
	<node lat="59.61610233262985" lon="11.090284626831693" id="-30440">
		<tag k="name" v="Nedre Damvei" />
		<tag k="ssr:date" v="2019-12-27" />
		<tag k="ssr:gruppe" v="veg" />
		<tag k="ssr:hovedgruppe" v="infrastruktur" />
		<tag k="ssr:stedsnr" v="1061167" />
		<tag k="ssr:type" v="adressenavn" />
	</node>
	<node lat="59.59102089327951" lon="11.190143675105123" id="-30441">
		<tag k="name" v="Kongleveien" />
		<tag k="ssr:date" v="2019-12-27" />
		<tag k="ssr:gruppe" v="veg" />
		<tag k="ssr:hovedgruppe" v="infrastruktur" />
		<tag k="ssr:stedsnr" v="1061170" />
		<tag k="ssr:type" v="adressenavn" />
	</node>
	<node lat="59.59412828208774" lon="11.179008195743389" id="-30443">
		<tag k="name" v="Grøtvedtjordet" />
		<tag k="ssr:date" v="2019-12-27" />
		<tag k="ssr:gruppe" v="veg" />
		<tag k="ssr:hovedgruppe" v="infrastruktur" />
		<tag k="ssr:stedsnr" v="1061174" />
		<tag k="ssr:type" v="adressenavn" />
	</node>
	<node lat="59.6204115644399" lon="11.095987938929353" id="-30446">
		<tag k="name" v="Regimentsveien" />
		<tag k="ssr:date" v="2019-12-27" />
		<tag k="ssr:gruppe" v="veg" />
		<tag k="ssr:hovedgruppe" v="infrastruktur" />
		<tag k="ssr:stedsnr" v="1061182" />
		<tag k="ssr:type" v="adressenavn" />
	</node>
	<node lat="59.58547409069065" lon="11.152309946858853" id="-30461">
		<tag k="name" v="Tornerudveien" />
		<tag k="ssr:date" v="2019-12-27" />
		<tag k="ssr:gruppe" v="veg" />
		<tag k="ssr:hovedgruppe" v="infrastruktur" />
		<tag k="ssr:stedsnr" v="1061095" />
		<tag k="ssr:type" v="adressenavn" />
	</node>
	<node lat="59.617881219998345" lon="11.090288763552673" id="-30462">
		<tag k="name" v="Øvre Damvei" />
		<tag k="ssr:date" v="2019-12-27" />
		<tag k="ssr:gruppe" v="veg" />
		<tag k="ssr:hovedgruppe" v="infrastruktur" />
		<tag k="ssr:stedsnr" v="1061096" />
		<tag k="ssr:type" v="adressenavn" />
	</node>
	<node lat="59.59945582541441" lon="11.125061467139911" id="-30463">
		<tag k="name" v="Iliskauen" />
		<tag k="ssr:date" v="2019-12-27" />
		<tag k="ssr:gruppe" v="veg" />
		<tag k="ssr:hovedgruppe" v="infrastruktur" />
		<tag k="ssr:stedsnr" v="1061099" />
		<tag k="ssr:type" v="adressenavn" />
	</node>
	<node lat="59.612354528434" lon="11.088144065801506" id="-30464">
		<tag k="name" v="Østveien" />
		<tag k="ssr:date" v="2019-12-27" />
		<tag k="ssr:gruppe" v="veg" />
		<tag k="ssr:hovedgruppe" v="infrastruktur" />
		<tag k="ssr:stedsnr" v="1061100" />
		<tag k="ssr:type" v="adressenavn" />
	</node>
	<node lat="59.59933099795103" lon="11.12521773108159" id="-30465">
		<tag k="name" v="Ilikroken" />
		<tag k="ssr:date" v="2019-12-27" />
		<tag k="ssr:gruppe" v="veg" />
		<tag k="ssr:hovedgruppe" v="infrastruktur" />
		<tag k="ssr:stedsnr" v="1061103" />
		<tag k="ssr:type" v="adressenavn" />
	</node>
	<node lat="59.59065524646457" lon="11.128357220509082" id="-30467">
		<tag k="name" v="Gramveien" />
		<tag k="ssr:date" v="2019-12-27" />
		<tag k="ssr:gruppe" v="veg" />
		<tag k="ssr:hovedgruppe" v="infrastruktur" />
		<tag k="ssr:stedsnr" v="1061108" />
		<tag k="ssr:type" v="adressenavn" />
	</node>
	<node lat="59.61907357531604" lon="11.084697982442904" id="-30468">
		<tag k="name" v="Villaveien" />
		<tag k="ssr:date" v="2019-12-27" />
		<tag k="ssr:gruppe" v="veg" />
		<tag k="ssr:hovedgruppe" v="infrastruktur" />
		<tag k="ssr:stedsnr" v="1061109" />
		<tag k="ssr:type" v="adressenavn" />
	</node>
	<node lat="59.57921668185259" lon="11.151026069650975" id="-30469">
		<tag k="name" v="Vestre Ringvei" />
		<tag k="ssr:date" v="2019-12-27" />
		<tag k="ssr:gruppe" v="veg" />
		<tag k="ssr:hovedgruppe" v="infrastruktur" />
		<tag k="ssr:stedsnr" v="1061112" />
		<tag k="ssr:type" v="adressenavn" />
	</node>
	<node lat="59.57470976596603" lon="11.206200683972783" id="-30471">
		<tag k="name" v="Sagveien" />
		<tag k="ssr:date" v="2019-12-27" />
		<tag k="ssr:gruppe" v="veg" />
		<tag k="ssr:hovedgruppe" v="infrastruktur" />
		<tag k="ssr:stedsnr" v="1061115" />
		<tag k="ssr:type" v="adressenavn" />
	</node>
	<node lat="59.61684070017608" lon="11.06274482285194" id="-30472">
		<tag k="name" v="Håndverkveien" />
		<tag k="ssr:date" v="2019-12-27" />
		<tag k="ssr:gruppe" v="veg" />
		<tag k="ssr:hovedgruppe" v="infrastruktur" />
		<tag k="ssr:stedsnr" v="1061116" />
		<tag k="ssr:type" v="adressenavn" />
	</node>
	<node lat="59.57081871905764" lon="11.192288755606638" id="-30473">
		<tag k="name" v="Vangsveien" />
		<tag k="ssr:date" v="2019-12-27" />
		<tag k="ssr:gruppe" v="veg" />
		<tag k="ssr:hovedgruppe" v="infrastruktur" />
		<tag k="ssr:stedsnr" v="1061119" />
		<tag k="ssr:type" v="adressenavn" />
	</node>
	<node lat="59.5765629931575" lon="11.192540913161197" id="-30475">
		<tag k="name" v="Buersvingen" />
		<tag k="ssr:date" v="2019-12-27" />
		<tag k="ssr:gruppe" v="veg" />
		<tag k="ssr:hovedgruppe" v="infrastruktur" />
		<tag k="ssr:stedsnr" v="1061125" />
		<tag k="ssr:type" v="adressenavn" />
	</node>
	<node lat="59.597869011466415" lon="11.125361381555411" id="-30477">
		<tag k="name" v="Stenbøljordet" />
		<tag k="ssr:date" v="2019-12-27" />
		<tag k="ssr:gruppe" v="veg" />
		<tag k="ssr:hovedgruppe" v="infrastruktur" />
		<tag k="ssr:stedsnr" v="1061128" />
		<tag k="ssr:type" v="adressenavn" />
	</node>
	<node lat="59.5969539090425" lon="11.124534942087472" id="-30479">
		<tag k="name" v="Gregottisvingen" />
		<tag k="ssr:date" v="2019-12-27" />
		<tag k="ssr:gruppe" v="veg" />
		<tag k="ssr:hovedgruppe" v="infrastruktur" />
		<tag k="ssr:stedsnr" v="1061132" />
		<tag k="ssr:type" v="adressenavn" />
	</node>
	<node lat="59.6156487404949" lon="11.087855290753414" id="-30480">
		<tag k="name" v="Solveien" />
		<tag k="ssr:date" v="2019-12-27" />
		<tag k="ssr:gruppe" v="veg" />
		<tag k="ssr:hovedgruppe" v="infrastruktur" />
		<tag k="ssr:stedsnr" v="1061133" />
		<tag k="ssr:type" v="adressenavn" />
	</node>
	<node lat="59.69971405488844" lon="11.298204434980185" id="-30484">
		<tag k="name" v="Hesteskoen" />
		<tag k="ssr:date" v="2019-12-27" />
		<tag k="ssr:gruppe" v="veg" />
		<tag k="ssr:hovedgruppe" v="infrastruktur" />
		<tag k="ssr:stedsnr" v="1061218" />
		<tag k="ssr:type" v="adressenavn" />
	</node>
	<node lat="59.570831668600555" lon="11.181220728195923" id="-30493">
		<tag k="name" v="Risengveien" />
		<tag k="ssr:date" v="2019-12-27" />
		<tag k="ssr:gruppe" v="veg" />
		<tag k="ssr:hovedgruppe" v="infrastruktur" />
		<tag k="ssr:stedsnr" v="1061292" />
		<tag k="ssr:type" v="adressenavn" />
	</node>
	<node lat="59.580854666504436" lon="11.141544736725228" id="-30495">
		<tag k="name" v="Bakkelia" />
		<tag k="ssr:date" v="2019-12-27" />
		<tag k="ssr:gruppe" v="veg" />
		<tag k="ssr:hovedgruppe" v="infrastruktur" />
		<tag k="ssr:stedsnr" v="1061295" />
		<tag k="ssr:type" v="adressenavn" />
	</node>
	<node lat="59.57886721323495" lon="11.178076324855095" id="-30497">
		<tag k="name" v="Furusethveien" />
		<tag k="ssr:date" v="2019-12-27" />
		<tag k="ssr:gruppe" v="veg" />
		<tag k="ssr:hovedgruppe" v="infrastruktur" />
		<tag k="ssr:stedsnr" v="1061299" />
		<tag k="ssr:type" v="adressenavn" />
	</node>
	<node lat="59.640161749143736" lon="11.312708979007173" id="-30508">
		<tag k="name" v="Heimlia" />
		<tag k="ssr:date" v="2019-12-27" />
		<tag k="ssr:gruppe" v="veg" />
		<tag k="ssr:hovedgruppe" v="infrastruktur" />
		<tag k="ssr:stedsnr" v="1061281" />
		<tag k="ssr:type" v="adressenavn" />
	</node>
	<node lat="59.58245564579385" lon="11.163889846025533" id="-30511">
		<tag k="name" v="Møllegata" />
		<tag k="ssr:date" v="2019-12-27" />
		<tag k="ssr:gruppe" v="veg" />
		<tag k="ssr:hovedgruppe" v="infrastruktur" />
		<tag k="ssr:stedsnr" v="1061337" />
		<tag k="ssr:type" v="adressenavn" />
	</node>
	<node lat="59.58225264337859" lon="11.168628174346034" id="-30517">
		<tag k="name" v="Haugomgata" />
		<tag k="ssr:date" v="2019-12-27" />
		<tag k="ssr:gruppe" v="veg" />
		<tag k="ssr:hovedgruppe" v="infrastruktur" />
		<tag k="ssr:stedsnr" v="1061349" />
		<tag k="ssr:type" v="adressenavn" />
	</node>
	<node lat="59.5825426235911" lon="11.16705626314816" id="-30519">
		<tag k="name" v="P.M.Røwdes gate" />
		<tag k="ssr:date" v="2019-12-27" />
		<tag k="ssr:gruppe" v="veg" />
		<tag k="ssr:hovedgruppe" v="infrastruktur" />
		<tag k="ssr:stedsnr" v="1061353" />
		<tag k="ssr:type" v="adressenavn" />
	</node>
	<node lat="59.61108636725365" lon="11.160150439272895" id="-30521">
		<tag k="name" v="Sundveien" />
		<tag k="ssr:date" v="2019-12-27" />
		<tag k="ssr:gruppe" v="veg" />
		<tag k="ssr:hovedgruppe" v="infrastruktur" />
		<tag k="ssr:stedsnr" v="1061358" />
		<tag k="ssr:type" v="adressenavn" />
	</node>
	<node lat="59.60544656888918" lon="11.176064601003313" id="-30523">
		<tag k="name" v="Holterveien" />
		<tag k="ssr:date" v="2019-12-27" />
		<tag k="ssr:gruppe" v="veg" />
		<tag k="ssr:hovedgruppe" v="infrastruktur" />
		<tag k="ssr:stedsnr" v="1061361" />
		<tag k="ssr:type" v="adressenavn" />
	</node>
	<node lat="59.60008375997262" lon="11.185934248771963" id="-30524">
		<tag k="name" v="Solbergfossveien" />
		<tag k="ssr:date" v="2019-12-27" />
		<tag k="ssr:gruppe" v="veg" />
		<tag k="ssr:hovedgruppe" v="infrastruktur" />
		<tag k="ssr:stedsnr" v="1061364" />
		<tag k="ssr:type" v="adressenavn" />
	</node>
	<node lat="59.59139323467521" lon="11.156464748832924" id="-30526">
		<tag k="name" v="Prestegårdsveien" />
		<tag k="ssr:date" v="2019-12-27" />
		<tag k="ssr:gruppe" v="veg" />
		<tag k="ssr:hovedgruppe" v="infrastruktur" />
		<tag k="ssr:stedsnr" v="1061369" />
		<tag k="ssr:type" v="adressenavn" />
	</node>
	<node lat="59.622931235606465" lon="11.207744924309157" id="-30530">
		<tag k="name" v="Lierveien" />
		<tag k="ssr:date" v="2019-12-27" />
		<tag k="ssr:gruppe" v="veg" />
		<tag k="ssr:hovedgruppe" v="infrastruktur" />
		<tag k="ssr:stedsnr" v="1061377" />
		<tag k="ssr:type" v="adressenavn" />
	</node>
	<node lat="59.63446189513903" lon="11.16287658210942" id="-30532">
		<tag k="name" v="Evjeveien" />
		<tag k="ssr:date" v="2019-12-27" />
		<tag k="ssr:gruppe" v="veg" />
		<tag k="ssr:hovedgruppe" v="infrastruktur" />
		<tag k="ssr:stedsnr" v="1061381" />
		<tag k="ssr:type" v="adressenavn" />
	</node>
	<node lat="59.632679917835745" lon="11.158132474009872" id="-30534">
		<tag k="name" v="Tyrihjellåsen" />
		<tag k="ssr:date" v="2019-12-27" />
		<tag k="ssr:gruppe" v="veg" />
		<tag k="ssr:hovedgruppe" v="infrastruktur" />
		<tag k="ssr:stedsnr" v="1061384" />
		<tag k="ssr:type" v="adressenavn" />
	</node>
	<node lat="59.59347627060912" lon="11.132947559036944" id="-30549">
		<tag k="name" v="Schuckertlinna" />
		<tag k="ssr:date" v="2019-12-27" />
		<tag k="ssr:gruppe" v="veg" />
		<tag k="ssr:hovedgruppe" v="infrastruktur" />
		<tag k="ssr:stedsnr" v="1061325" />
		<tag k="ssr:type" v="adressenavn" />
	</node>
	<node lat="59.5917423612715" lon="11.19689673561752" id="-30551">
		<tag k="name" v="Berglia" />
		<tag k="ssr:date" v="2019-12-27" />
		<tag k="ssr:gruppe" v="veg" />
		<tag k="ssr:hovedgruppe" v="infrastruktur" />
		<tag k="ssr:stedsnr" v="1061328" />
		<tag k="ssr:type" v="adressenavn" />
	</node>
	<node lat="59.58271627179871" lon="11.16596020627141" id="-30554">
		<tag k="name" v="Stallgata" />
		<tag k="ssr:date" v="2019-12-27" />
		<tag k="ssr:gruppe" v="veg" />
		<tag k="ssr:hovedgruppe" v="infrastruktur" />
		<tag k="ssr:stedsnr" v="1061333" />
		<tag k="ssr:type" v="adressenavn" />
	</node>
	<node lat="59.63796056241689" lon="11.31427402129369" id="-30556">
		<tag k="name" v="Kirkeng" />
		<tag k="ssr:date" v="2019-12-27" />
		<tag k="ssr:gruppe" v="veg" />
		<tag k="ssr:hovedgruppe" v="infrastruktur" />
		<tag k="ssr:stedsnr" v="1061392" />
		<tag k="ssr:type" v="adressenavn" />
	</node>
	<node lat="59.592447005269634" lon="11.177150835549957" id="-30557">
		<tag k="name" v="Avstikkeren" />
		<tag k="ssr:date" v="2019-12-27" />
		<tag k="ssr:gruppe" v="veg" />
		<tag k="ssr:hovedgruppe" v="infrastruktur" />
		<tag k="ssr:stedsnr" v="1061417" />
		<tag k="ssr:type" v="adressenavn" />
	</node>
	<node lat="59.69931578981684" lon="11.294224649166905" id="-30558">
		<tag k="name" v="Kirkebyåsen" />
		<tag k="ssr:date" v="2019-12-27" />
		<tag k="ssr:gruppe" v="veg" />
		<tag k="ssr:hovedgruppe" v="infrastruktur" />
		<tag k="ssr:stedsnr" v="1061423" />
		<tag k="ssr:type" v="adressenavn" />
	</node>
	<node lat="59.586209322106065" lon="11.16724973511814" id="-30560">
		<tag k="name" v="Bakkegata" />
		<tag k="ssr:date" v="2019-12-27" />
		<tag k="ssr:gruppe" v="veg" />
		<tag k="ssr:hovedgruppe" v="infrastruktur" />
		<tag k="ssr:stedsnr" v="1061433" />
		<tag k="ssr:type" v="adressenavn" />
	</node>
	<node lat="59.587914894562346" lon="11.171936783212361" id="-30561">
		<tag k="name" v="Aspelundveien" />
		<tag k="ssr:date" v="2019-12-27" />
		<tag k="ssr:gruppe" v="veg" />
		<tag k="ssr:hovedgruppe" v="infrastruktur" />
		<tag k="ssr:stedsnr" v="1061497" />
		<tag k="ssr:type" v="adressenavn" />
	</node>
	<node lat="59.58591808458568" lon="11.148625644508146" id="-30562">
		<tag k="name" v="Baglerfaret" />
		<tag k="ssr:date" v="2019-12-27" />
		<tag k="ssr:gruppe" v="veg" />
		<tag k="ssr:hovedgruppe" v="infrastruktur" />
		<tag k="ssr:stedsnr" v="1061478" />
		<tag k="ssr:type" v="adressenavn" />
	</node>
	<node lat="59.58867006618682" lon="11.17363465041367" id="-30564">
		<tag k="name" v="Askveien" />
		<tag k="ssr:date" v="2019-12-27" />
		<tag k="ssr:gruppe" v="veg" />
		<tag k="ssr:hovedgruppe" v="infrastruktur" />
		<tag k="ssr:stedsnr" v="1061573" />
		<tag k="ssr:type" v="adressenavn" />
	</node>
	<node lat="59.632616493560235" lon="11.317264088387068" id="-30568">
		<tag k="name" v="Industriområde Grav" />
		<tag k="ssr:date" v="2019-12-27" />
		<tag k="ssr:gruppe" v="veg" />
		<tag k="ssr:hovedgruppe" v="infrastruktur" />
		<tag k="ssr:stedsnr" v="1061531" />
		<tag k="ssr:type" v="adressenavn" />
	</node>
	<node lat="59.58195099970225" lon="11.174308917475653" id="-30571">
		<tag k="name" v="August Eiebakkes gate" />
		<tag k="ssr:date" v="2019-12-27" />
		<tag k="ssr:gruppe" v="veg" />
		<tag k="ssr:hovedgruppe" v="infrastruktur" />
		<tag k="ssr:stedsnr" v="1061610" />
		<tag k="ssr:type" v="adressenavn" />
	</node>
	<node lat="59.55531113654565" lon="11.326877678530163" id="-30572">
		<tag k="name" v="Apotekerveien" />
		<tag k="ssr:date" v="2019-12-27" />
		<tag k="ssr:gruppe" v="veg" />
		<tag k="ssr:hovedgruppe" v="infrastruktur" />
		<tag k="ssr:stedsnr" v="1061621" />
		<tag k="ssr:type" v="adressenavn" />
	</node>
	<node lat="59.69855252761345" lon="11.30185872165613" id="-30579">
		<tag k="name" v="Åsliveien" />
		<tag k="ssr:date" v="2019-12-27" />
		<tag k="ssr:gruppe" v="veg" />
		<tag k="ssr:hovedgruppe" v="infrastruktur" />
		<tag k="ssr:stedsnr" v="1061779" />
		<tag k="ssr:type" v="adressenavn" />
	</node>
	<node lat="59.65231829631897" lon="11.010764797280398" id="-30580">
		<tag k="name" v="Nygårdgrenda" />
		<tag k="old_name" v="Nygårdveien" />
		<tag k="ssr:date" v="2019-12-27" />
		<tag k="ssr:gruppe" v="veg" />
		<tag k="ssr:hovedgruppe" v="infrastruktur" />
		<tag k="ssr:stedsnr" v="1061845" />
		<tag k="ssr:type" v="adressenavn" />
	</node>
	<node lat="59.584357072531546" lon="11.173829690359147" id="-30583">
		<tag k="name" v="Dronningens gate" />
		<tag k="ssr:date" v="2019-12-27" />
		<tag k="ssr:gruppe" v="veg" />
		<tag k="ssr:hovedgruppe" v="infrastruktur" />
		<tag k="ssr:stedsnr" v="1061848" />
		<tag k="ssr:type" v="adressenavn" />
	</node>
	<node lat="59.639757323344796" lon="11.33535391721515" id="-30601">
		<tag k="name" v="Åssiden" />
		<tag k="ssr:date" v="2019-12-27" />
		<tag k="ssr:gruppe" v="veg" />
		<tag k="ssr:hovedgruppe" v="infrastruktur" />
		<tag k="ssr:stedsnr" v="1061872" />
		<tag k="ssr:type" v="adressenavn" />
	</node>
	<node lat="59.565337050413135" lon="11.327063629071551" id="-30608">
		<tag k="name" v="Folkehøyskoleveien" />
		<tag k="ssr:date" v="2019-12-27" />
		<tag k="ssr:gruppe" v="veg" />
		<tag k="ssr:hovedgruppe" v="infrastruktur" />
		<tag k="ssr:stedsnr" v="1061881" />
		<tag k="ssr:type" v="adressenavn" />
	</node>
	<node lat="59.59744270117583" lon="11.18085120225195" id="-30612">
		<tag k="name" v="Drammensveien" />
		<tag k="ssr:date" v="2019-12-27" />
		<tag k="ssr:gruppe" v="veg" />
		<tag k="ssr:hovedgruppe" v="infrastruktur" />
		<tag k="ssr:stedsnr" v="1061819" />
		<tag k="ssr:type" v="adressenavn" />
	</node>
	<node lat="59.63585625499505" lon="11.321076158160746" id="-30613">
		<tag k="name" v="Åsland" />
		<tag k="ssr:date" v="2019-12-27" />
		<tag k="ssr:gruppe" v="veg" />
		<tag k="ssr:hovedgruppe" v="infrastruktur" />
		<tag k="ssr:stedsnr" v="1061827" />
		<tag k="ssr:type" v="adressenavn" />
	</node>
	<node lat="59.59459749263652" lon="11.191206483655312" id="-30630">
		<tag k="name" v="Dramstadåsen" />
		<tag k="ssr:date" v="2019-12-27" />
		<tag k="ssr:gruppe" v="veg" />
		<tag k="ssr:hovedgruppe" v="infrastruktur" />
		<tag k="ssr:stedsnr" v="1061915" />
		<tag k="ssr:type" v="adressenavn" />
	</node>
	<node lat="59.581811102281925" lon="11.172839497885873" id="-30632">
		<tag k="name" v="Enevold Thømts gate" />
		<tag k="ssr:date" v="2019-12-27" />
		<tag k="ssr:gruppe" v="veg" />
		<tag k="ssr:hovedgruppe" v="infrastruktur" />
		<tag k="ssr:stedsnr" v="1061954" />
		<tag k="ssr:type" v="adressenavn" />
	</node>
	<node lat="59.56089519313601" lon="11.336699139202956" id="-30633">
		<tag k="name" v="General Ruges vei" />
		<tag k="ssr:date" v="2019-12-27" />
		<tag k="ssr:gruppe" v="veg" />
		<tag k="ssr:hovedgruppe" v="infrastruktur" />
		<tag k="ssr:stedsnr" v="1061966" />
		<tag k="ssr:type" v="adressenavn" />
	</node>
	<node lat="59.58761545706664" lon="11.264463975297968" id="-30635">
		<tag k="name" v="Blåklokkeveien" />
		<tag k="ssr:date" v="2019-12-27" />
		<tag k="ssr:gruppe" v="veg" />
		<tag k="ssr:hovedgruppe" v="infrastruktur" />
		<tag k="ssr:stedsnr" v="1062451" />
		<tag k="ssr:type" v="adressenavn" />
	</node>
	<node lat="59.559749823819345" lon="11.320760658962069" id="-30637">
		<tag k="name" v="Blomsterveien" />
		<tag k="ssr:date" v="2019-12-27" />
		<tag k="ssr:gruppe" v="veg" />
		<tag k="ssr:hovedgruppe" v="infrastruktur" />
		<tag k="ssr:stedsnr" v="1062543" />
		<tag k="ssr:type" v="adressenavn" />
	</node>
	<node lat="59.577445547145246" lon="11.183394419683994" id="-30639">
		<tag k="name" v="Eidsveien" />
		<tag k="ssr:date" v="2019-12-27" />
		<tag k="ssr:gruppe" v="veg" />
		<tag k="ssr:hovedgruppe" v="infrastruktur" />
		<tag k="ssr:stedsnr" v="1062090" />
		<tag k="ssr:type" v="adressenavn" />
	</node>
	<node lat="59.59131463752921" lon="11.194491353716579" id="-30640">
		<tag k="name" v="Enerveien" />
		<tag k="ssr:date" v="2019-12-27" />
		<tag k="ssr:gruppe" v="veg" />
		<tag k="ssr:hovedgruppe" v="infrastruktur" />
		<tag k="ssr:stedsnr" v="1062101" />
		<tag k="ssr:type" v="adressenavn" />
	</node>
	<node lat="59.59306871542012" lon="11.171911708548846" id="-30641">
		<tag k="name" v="Eneboveien" />
		<tag k="ssr:date" v="2019-12-27" />
		<tag k="ssr:gruppe" v="veg" />
		<tag k="ssr:hovedgruppe" v="infrastruktur" />
		<tag k="ssr:stedsnr" v="1062121" />
		<tag k="ssr:type" v="adressenavn" />
	</node>
	<node lat="59.58867398716749" lon="11.172812689642344" id="-30642">
		<tag k="name" v="Eikveien" />
		<tag k="ssr:date" v="2019-12-27" />
		<tag k="ssr:gruppe" v="veg" />
		<tag k="ssr:hovedgruppe" v="infrastruktur" />
		<tag k="ssr:stedsnr" v="1062133" />
		<tag k="ssr:type" v="adressenavn" />
	</node>
	<node lat="59.55890771492006" lon="11.327106602370733" id="-30644">
		<tag k="name" v="Gamleveien" />
		<tag k="ssr:date" v="2019-12-27" />
		<tag k="ssr:gruppe" v="veg" />
		<tag k="ssr:hovedgruppe" v="infrastruktur" />
		<tag k="ssr:stedsnr" v="1062072" />
		<tag k="ssr:type" v="adressenavn" />
	</node>
	<node lat="59.62577967510022" lon="11.027789457720747" id="-30651">
		<tag k="name" v="Revestien" />
		<tag k="ssr:date" v="2019-12-27" />
		<tag k="ssr:gruppe" v="veg" />
		<tag k="ssr:hovedgruppe" v="infrastruktur" />
		<tag k="ssr:stedsnr" v="1062162" />
		<tag k="ssr:type" v="adressenavn" />
	</node>
	<node lat="59.62427753643749" lon="11.025599645033827" id="-30652">
		<tag k="name" v="Harestien" />
		<tag k="ssr:date" v="2019-12-27" />
		<tag k="ssr:gruppe" v="veg" />
		<tag k="ssr:hovedgruppe" v="infrastruktur" />
		<tag k="ssr:stedsnr" v="1062165" />
		<tag k="ssr:type" v="adressenavn" />
	</node>
	<node lat="59.62433508354073" lon="11.024708776522301" id="-30653">
		<tag k="name" v="Ekornveien" />
		<tag k="ssr:date" v="2019-12-27" />
		<tag k="ssr:gruppe" v="veg" />
		<tag k="ssr:hovedgruppe" v="infrastruktur" />
		<tag k="ssr:stedsnr" v="1062168" />
		<tag k="ssr:type" v="adressenavn" />
	</node>
	<node lat="59.62389301615011" lon="11.033065183851791" id="-30654">
		<tag k="name" v="Østlibakken" />
		<tag k="ssr:date" v="2019-12-27" />
		<tag k="ssr:gruppe" v="veg" />
		<tag k="ssr:hovedgruppe" v="infrastruktur" />
		<tag k="ssr:stedsnr" v="1062171" />
		<tag k="ssr:type" v="adressenavn" />
	</node>
	<node lat="59.58384979624045" lon="11.159182434084602" id="-30656">
		<tag k="name" v="Brugata" />
		<tag k="ssr:date" v="2019-12-27" />
		<tag k="ssr:gruppe" v="veg" />
		<tag k="ssr:hovedgruppe" v="infrastruktur" />
		<tag k="ssr:stedsnr" v="1062177" />
		<tag k="ssr:type" v="adressenavn" />
	</node>
	<node lat="59.62423119206974" lon="11.032728662375836" id="-30657">
		<tag k="name" v="Gaupefaret" />
		<tag k="ssr:date" v="2019-12-27" />
		<tag k="ssr:gruppe" v="veg" />
		<tag k="ssr:hovedgruppe" v="infrastruktur" />
		<tag k="ssr:stedsnr" v="1062178" />
		<tag k="ssr:type" v="adressenavn" />
	</node>
	<node lat="59.62113259718414" lon="11.02574991911063" id="-30658">
		<tag k="name" v="Bjørneveien" />
		<tag k="ssr:date" v="2019-12-27" />
		<tag k="ssr:gruppe" v="veg" />
		<tag k="ssr:hovedgruppe" v="infrastruktur" />
		<tag k="ssr:stedsnr" v="1062181" />
		<tag k="ssr:type" v="adressenavn" />
	</node>
	<node lat="59.62423119206974" lon="11.032728662375836" id="-30660">
		<tag k="name" v="Ekebergbakken" />
		<tag k="ssr:date" v="2019-12-27" />
		<tag k="ssr:gruppe" v="veg" />
		<tag k="ssr:hovedgruppe" v="infrastruktur" />
		<tag k="ssr:stedsnr" v="1062237" />
		<tag k="ssr:type" v="adressenavn" />
	</node>
	<node lat="59.62044560774948" lon="11.031247964913344" id="-30661">
		<tag k="name" v="Knapstadveien" />
		<tag k="ssr:date" v="2019-12-27" />
		<tag k="ssr:gruppe" v="veg" />
		<tag k="ssr:hovedgruppe" v="infrastruktur" />
		<tag k="ssr:stedsnr" v="1062188" />
		<tag k="ssr:type" v="adressenavn" />
	</node>
	<node lat="59.624743378757046" lon="11.034248165753821" id="-30664">
		<tag k="name" v="Dueveien" />
		<tag k="ssr:date" v="2019-12-27" />
		<tag k="ssr:gruppe" v="veg" />
		<tag k="ssr:hovedgruppe" v="infrastruktur" />
		<tag k="ssr:stedsnr" v="1062197" />
		<tag k="ssr:type" v="adressenavn" />
	</node>
	<node lat="59.6231040143705" lon="11.032940257321112" id="-30666">
		<tag k="name" v="Erleveien" />
		<tag k="ssr:date" v="2019-12-27" />
		<tag k="ssr:gruppe" v="veg" />
		<tag k="ssr:hovedgruppe" v="infrastruktur" />
		<tag k="ssr:stedsnr" v="1062205" />
		<tag k="ssr:type" v="adressenavn" />
	</node>
	<node lat="59.622140578253465" lon="11.032334202921943" id="-30667">
		<tag k="name" v="Svaleveien" />
		<tag k="ssr:date" v="2019-12-27" />
		<tag k="ssr:gruppe" v="veg" />
		<tag k="ssr:hovedgruppe" v="infrastruktur" />
		<tag k="ssr:stedsnr" v="1062210" />
		<tag k="ssr:type" v="adressenavn" />
	</node>
	<node lat="59.57667470495221" lon="11.189956141681447" id="-30674">
		<tag k="name" v="Buerbakken" />
		<tag k="ssr:date" v="2019-12-27" />
		<tag k="ssr:gruppe" v="veg" />
		<tag k="ssr:hovedgruppe" v="infrastruktur" />
		<tag k="ssr:stedsnr" v="1062364" />
		<tag k="ssr:type" v="adressenavn" />
	</node>
	<node lat="59.58238778511274" lon="11.16113565918282" id="-30677">
		<tag k="name" v="Dr.Randers gate" />
		<tag k="ssr:date" v="2019-12-27" />
		<tag k="ssr:gruppe" v="veg" />
		<tag k="ssr:hovedgruppe" v="infrastruktur" />
		<tag k="ssr:stedsnr" v="1062791" />
		<tag k="ssr:type" v="adressenavn" />
	</node>
	<node lat="59.55078879964241" lon="11.326985225336166" id="-30686">
		<tag k="name" v="David Blids gate" />
		<tag k="ssr:date" v="2019-12-27" />
		<tag k="ssr:gruppe" v="veg" />
		<tag k="ssr:hovedgruppe" v="infrastruktur" />
		<tag k="ssr:stedsnr" v="1062404" />
		<tag k="ssr:type" v="adressenavn" />
	</node>
	<node lat="59.58553936585543" lon="11.174671089510667" id="-30688">
		<tag k="name" v="Blindveien" />
		<tag k="ssr:date" v="2019-12-27" />
		<tag k="ssr:gruppe" v="veg" />
		<tag k="ssr:hovedgruppe" v="infrastruktur" />
		<tag k="ssr:stedsnr" v="1062502" />
		<tag k="ssr:type" v="adressenavn" />
	</node>
	<node lat="59.64017983733894" lon="11.323039839742135" id="-30690">
		<tag k="name" v="Skramrudåsen" />
		<tag k="ssr:date" v="2019-12-27" />
		<tag k="ssr:gruppe" v="veg" />
		<tag k="ssr:hovedgruppe" v="infrastruktur" />
		<tag k="ssr:stedsnr" v="1062532" />
		<tag k="ssr:type" v="adressenavn" />
	</node>
	<node lat="59.6418193572139" lon="11.322913528355286" id="-30691">
		<tag k="name" v="Svingen" />
		<tag k="ssr:date" v="2019-12-27" />
		<tag k="ssr:gruppe" v="veg" />
		<tag k="ssr:hovedgruppe" v="infrastruktur" />
		<tag k="ssr:stedsnr" v="1062573" />
		<tag k="ssr:type" v="adressenavn" />
	</node>
	<node lat="59.641147394157855" lon="11.326832741884077" id="-30693">
		<tag k="name" v="Svenskedalen" />
		<tag k="ssr:date" v="2019-12-27" />
		<tag k="ssr:gruppe" v="veg" />
		<tag k="ssr:hovedgruppe" v="infrastruktur" />
		<tag k="ssr:stedsnr" v="1062681" />
		<tag k="ssr:type" v="adressenavn" />
	</node>
	<node lat="59.66230580370965" lon="10.998083454340845" id="-30695">
		<tag k="name" v="Kringsjå" />
		<tag k="ssr:date" v="2019-12-27" />
		<tag k="ssr:gruppe" v="veg" />
		<tag k="ssr:hovedgruppe" v="infrastruktur" />
		<tag k="ssr:stedsnr" v="1062740" />
		<tag k="ssr:type" v="adressenavn" />
	</node>
	<node lat="59.6609176098197" lon="11.000274332512685" id="-30696">
		<tag k="name" v="Enebakkveien" />
		<tag k="ssr:date" v="2019-12-27" />
		<tag k="ssr:gruppe" v="veg" />
		<tag k="ssr:hovedgruppe" v="infrastruktur" />
		<tag k="ssr:stedsnr" v="1062743" />
		<tag k="ssr:type" v="adressenavn" />
	</node>
	<node lat="59.57225236005149" lon="11.333310809136721" id="-30697">
		<tag k="name" v="Brandsrudveien" />
		<tag k="ssr:date" v="2019-12-27" />
		<tag k="ssr:gruppe" v="veg" />
		<tag k="ssr:hovedgruppe" v="infrastruktur" />
		<tag k="ssr:stedsnr" v="1062744" />
		<tag k="ssr:type" v="adressenavn" />
	</node>
	<node lat="59.66189029439359" lon="10.996307465413667" id="-30699">
		<tag k="name" v="Soleieveien" />
		<tag k="ssr:date" v="2019-12-27" />
		<tag k="ssr:gruppe" v="veg" />
		<tag k="ssr:hovedgruppe" v="infrastruktur" />
		<tag k="ssr:stedsnr" v="1062750" />
		<tag k="ssr:type" v="adressenavn" />
	</node>
	<node lat="59.663840738733654" lon="11.00143059569183" id="-30700">
		<tag k="name" v="Knatrebakkveien" />
		<tag k="ssr:date" v="2019-12-27" />
		<tag k="ssr:gruppe" v="veg" />
		<tag k="ssr:hovedgruppe" v="infrastruktur" />
		<tag k="ssr:stedsnr" v="1062753" />
		<tag k="ssr:type" v="adressenavn" />
	</node>
	<node lat="59.66062330436234" lon="10.997879821781526" id="-30702">
		<tag k="name" v="Kråkstadveien" />
		<tag k="ssr:date" v="2019-12-27" />
		<tag k="ssr:gruppe" v="veg" />
		<tag k="ssr:hovedgruppe" v="infrastruktur" />
		<tag k="ssr:stedsnr" v="1062757" />
		<tag k="ssr:type" v="adressenavn" />
	</node>
	<node lat="59.61403950995893" lon="11.403543503365563" id="-30704">
		<tag k="name" v="Stranda" />
		<tag k="ssr:date" v="2019-12-27" />
		<tag k="ssr:gruppe" v="veg" />
		<tag k="ssr:hovedgruppe" v="infrastruktur" />
		<tag k="ssr:stedsnr" v="1062690" />
		<tag k="ssr:type" v="adressenavn" />
	</node>
	<node lat="59.659839660223504" lon="10.999005805238328" id="-30710">
		<tag k="name" v="Symreveien" />
		<tag k="ssr:date" v="2019-12-27" />
		<tag k="ssr:gruppe" v="veg" />
		<tag k="ssr:hovedgruppe" v="infrastruktur" />
		<tag k="ssr:stedsnr" v="1062710" />
		<tag k="ssr:type" v="adressenavn" />
	</node>
	<node lat="59.5873135018982" lon="11.183447423133229" id="-30712">
		<tag k="name" v="Blunkeslettveien" />
		<tag k="ssr:date" v="2019-12-27" />
		<tag k="ssr:gruppe" v="veg" />
		<tag k="ssr:hovedgruppe" v="infrastruktur" />
		<tag k="ssr:stedsnr" v="1062714" />
		<tag k="ssr:type" v="adressenavn" />
	</node>
	<node lat="59.66586223407663" lon="11.005812780974807" id="-30713">
		<tag k="name" v="Furuveien" />
		<tag k="ssr:date" v="2019-12-27" />
		<tag k="ssr:gruppe" v="veg" />
		<tag k="ssr:hovedgruppe" v="infrastruktur" />
		<tag k="ssr:stedsnr" v="1062715" />
		<tag k="ssr:type" v="adressenavn" />
	</node>
	<node lat="59.660998322957205" lon="10.999787986173557" id="-30714">
		<tag k="name" v="Gulbringa" />
		<tag k="ssr:date" v="2019-12-27" />
		<tag k="ssr:gruppe" v="veg" />
		<tag k="ssr:hovedgruppe" v="infrastruktur" />
		<tag k="ssr:stedsnr" v="1062718" />
		<tag k="ssr:type" v="adressenavn" />
	</node>
	<node lat="59.663656056797805" lon="11.002555401923388" id="-30715">
		<tag k="name" v="Lyngveien" />
		<tag k="ssr:date" v="2019-12-27" />
		<tag k="ssr:gruppe" v="veg" />
		<tag k="ssr:hovedgruppe" v="infrastruktur" />
		<tag k="ssr:stedsnr" v="1062721" />
		<tag k="ssr:type" v="adressenavn" />
	</node>
	<node lat="59.659030485829526" lon="10.996818531227618" id="-30717">
		<tag k="name" v="Kantarellveien" />
		<tag k="ssr:date" v="2019-12-27" />
		<tag k="ssr:gruppe" v="veg" />
		<tag k="ssr:hovedgruppe" v="infrastruktur" />
		<tag k="ssr:stedsnr" v="1062725" />
		<tag k="ssr:type" v="adressenavn" />
	</node>
	<node lat="59.668597509891526" lon="11.012353750346659" id="-30718">
		<tag k="name" v="Solliveien" />
		<tag k="ssr:date" v="2019-12-27" />
		<tag k="ssr:gruppe" v="veg" />
		<tag k="ssr:hovedgruppe" v="infrastruktur" />
		<tag k="ssr:stedsnr" v="1062728" />
		<tag k="ssr:type" v="adressenavn" />
	</node>
	<node lat="59.66038655822361" lon="10.995540309532307" id="-30719">
		<tag k="name" v="Seljeveien" />
		<tag k="ssr:date" v="2019-12-27" />
		<tag k="ssr:gruppe" v="veg" />
		<tag k="ssr:hovedgruppe" v="infrastruktur" />
		<tag k="ssr:stedsnr" v="1062731" />
		<tag k="ssr:type" v="adressenavn" />
	</node>
	<node lat="59.66594203608767" lon="11.007038703206529" id="-30720">
		<tag k="name" v="Furukvisten" />
		<tag k="ssr:date" v="2019-12-27" />
		<tag k="ssr:gruppe" v="veg" />
		<tag k="ssr:hovedgruppe" v="infrastruktur" />
		<tag k="ssr:stedsnr" v="1062734" />
		<tag k="ssr:type" v="adressenavn" />
	</node>
	<node lat="59.582548338441015" lon="11.157596061248855" id="-30721">
		<tag k="name" v="Fridtjof Nansens gate" />
		<tag k="ssr:date" v="2019-12-27" />
		<tag k="ssr:gruppe" v="veg" />
		<tag k="ssr:hovedgruppe" v="infrastruktur" />
		<tag k="ssr:stedsnr" v="1063437" />
		<tag k="ssr:type" v="adressenavn" />
	</node>
	<node lat="59.55544801925687" lon="11.334651072258158" id="-30722">
		<tag k="name" v="Høytorpveien" />
		<tag k="ssr:date" v="2019-12-27" />
		<tag k="ssr:gruppe" v="veg" />
		<tag k="ssr:hovedgruppe" v="infrastruktur" />
		<tag k="ssr:stedsnr" v="1063441" />
		<tag k="ssr:type" v="adressenavn" />
	</node>
	<node lat="59.587193847182405" lon="11.176575679880514" id="-30723">
		<tag k="name" v="Fredheimveien" />
		<tag k="ssr:date" v="2019-12-27" />
		<tag k="ssr:gruppe" v="veg" />
		<tag k="ssr:hovedgruppe" v="infrastruktur" />
		<tag k="ssr:stedsnr" v="1063450" />
		<tag k="ssr:type" v="adressenavn" />
	</node>
	<node lat="59.56407477289401" lon="11.328716356211926" id="-30725">
		<tag k="name" v="Husflidveien" />
		<tag k="ssr:date" v="2019-12-27" />
		<tag k="ssr:gruppe" v="veg" />
		<tag k="ssr:hovedgruppe" v="infrastruktur" />
		<tag k="ssr:stedsnr" v="1063465" />
		<tag k="ssr:type" v="adressenavn" />
	</node>
	<node lat="59.65641997616365" lon="11.001732872102012" id="-30729">
		<tag k="name" v="Engen" />
		<tag k="ssr:date" v="2019-12-27" />
		<tag k="ssr:gruppe" v="veg" />
		<tag k="ssr:hovedgruppe" v="infrastruktur" />
		<tag k="ssr:stedsnr" v="1062778" />
		<tag k="ssr:type" v="adressenavn" />
	</node>
	<node lat="59.69908134817071" lon="11.298813264901565" id="-30730">
		<tag k="name" v="St.Hansveien" />
		<tag k="ssr:date" v="2019-12-27" />
		<tag k="ssr:gruppe" v="veg" />
		<tag k="ssr:hovedgruppe" v="infrastruktur" />
		<tag k="ssr:stedsnr" v="1062779" />
		<tag k="ssr:type" v="adressenavn" />
	</node>
	<node lat="59.62284136560707" lon="10.951051194826137" id="-30732">
		<tag k="name" v="Hobølveien" />
		<tag k="ssr:date" v="2019-12-27" />
		<tag k="ssr:gruppe" v="veg" />
		<tag k="ssr:hovedgruppe" v="infrastruktur" />
		<tag k="ssr:stedsnr" v="1062784" />
		<tag k="ssr:type" v="adressenavn" />
	</node>
	<node lat="59.55111654320567" lon="11.506157483009432" id="-30733">
		<tag k="name" v="Borgåsveien" />
		<tag k="ssr:date" v="2019-12-27" />
		<tag k="ssr:gruppe" v="veg" />
		<tag k="ssr:hovedgruppe" v="infrastruktur" />
		<tag k="ssr:stedsnr" v="1062785" />
		<tag k="ssr:type" v="adressenavn" />
	</node>
	<node lat="59.55528504161131" lon="11.32309342296779" id="-30734">
		<tag k="name" v="Fabrikkveien" />
		<tag k="ssr:date" v="2019-12-27" />
		<tag k="ssr:gruppe" v="veg" />
		<tag k="ssr:hovedgruppe" v="infrastruktur" />
		<tag k="ssr:stedsnr" v="1062848" />
		<tag k="ssr:type" v="adressenavn" />
	</node>
	<node lat="59.55123487985637" lon="11.32889464057357" id="-30739">
		<tag k="name" v="Elveveien" />
		<tag k="ssr:date" v="2019-12-27" />
		<tag k="ssr:gruppe" v="veg" />
		<tag k="ssr:hovedgruppe" v="infrastruktur" />
		<tag k="ssr:stedsnr" v="1062864" />
		<tag k="ssr:type" v="adressenavn" />
	</node>
	<node lat="59.558349367622284" lon="10.84345802230667" id="-30744">
		<tag k="name" v="Hulderveien" />
		<tag k="ssr:date" v="2019-12-27" />
		<tag k="ssr:gruppe" v="veg" />
		<tag k="ssr:hovedgruppe" v="infrastruktur" />
		<tag k="ssr:stedsnr" v="1062884" />
		<tag k="ssr:type" v="adressenavn" />
	</node>
	<node lat="59.59844922638198" lon="11.18318230181185" id="-30752">
		<tag k="name" v="Drammensjordet" />
		<tag k="ssr:date" v="2019-12-27" />
		<tag k="ssr:gruppe" v="veg" />
		<tag k="ssr:hovedgruppe" v="infrastruktur" />
		<tag k="ssr:stedsnr" v="1062826" />
		<tag k="ssr:type" v="adressenavn" />
	</node>
	<node lat="59.55835988845884" lon="10.84926713057695" id="-30755">
		<tag k="name" v="Eventyrveien" />
		<tag k="ssr:date" v="2019-12-27" />
		<tag k="ssr:gruppe" v="veg" />
		<tag k="ssr:hovedgruppe" v="infrastruktur" />
		<tag k="ssr:stedsnr" v="1062892" />
		<tag k="ssr:type" v="adressenavn" />
	</node>
	<node lat="59.700403995122834" lon="11.300852834960683" id="-30756">
		<tag k="name" v="Utsikten" />
		<tag k="ssr:date" v="2019-12-27" />
		<tag k="ssr:gruppe" v="veg" />
		<tag k="ssr:hovedgruppe" v="infrastruktur" />
		<tag k="ssr:stedsnr" v="1062893" />
		<tag k="ssr:type" v="adressenavn" />
	</node>
	<node lat="59.55902461443111" lon="10.848561747239609" id="-30757">
		<tag k="name" v="Alvestien" />
		<tag k="ssr:date" v="2019-12-27" />
		<tag k="ssr:gruppe" v="veg" />
		<tag k="ssr:hovedgruppe" v="infrastruktur" />
		<tag k="ssr:stedsnr" v="1062894" />
		<tag k="ssr:type" v="adressenavn" />
	</node>
	<node lat="59.55649143527625" lon="10.84552420214033" id="-30758">
		<tag k="name" v="Trollveien" />
		<tag k="ssr:date" v="2019-12-27" />
		<tag k="ssr:gruppe" v="veg" />
		<tag k="ssr:hovedgruppe" v="infrastruktur" />
		<tag k="ssr:stedsnr" v="1062895" />
		<tag k="ssr:type" v="adressenavn" />
	</node>
	<node lat="59.51615954682863" lon="11.404480799519117" id="-30759">
		<tag k="name" v="Elgfaret" />
		<tag k="ssr:date" v="2019-12-27" />
		<tag k="ssr:gruppe" v="veg" />
		<tag k="ssr:hovedgruppe" v="infrastruktur" />
		<tag k="ssr:stedsnr" v="1062905" />
		<tag k="ssr:type" v="adressenavn" />
	</node>
	<node lat="59.55401225675289" lon="11.341032137163719" id="-30761">
		<tag k="name" v="Fiolveien" />
		<tag k="ssr:date" v="2019-12-27" />
		<tag k="ssr:gruppe" v="veg" />
		<tag k="ssr:hovedgruppe" v="infrastruktur" />
		<tag k="ssr:stedsnr" v="1062917" />
		<tag k="ssr:type" v="adressenavn" />
	</node>
	<node lat="59.58219020096762" lon="11.140301833566738" id="-30765">
		<tag k="name" v="Furulundveien" />
		<tag k="ssr:date" v="2019-12-27" />
		<tag k="ssr:gruppe" v="veg" />
		<tag k="ssr:hovedgruppe" v="infrastruktur" />
		<tag k="ssr:stedsnr" v="1062986" />
		<tag k="ssr:type" v="adressenavn" />
	</node>
	<node lat="59.583559989804556" lon="11.150485591395427" id="-30766">
		<tag k="name" v="Gamle Kirkevei" />
		<tag k="ssr:date" v="2019-12-27" />
		<tag k="ssr:gruppe" v="veg" />
		<tag k="ssr:hovedgruppe" v="infrastruktur" />
		<tag k="ssr:stedsnr" v="1063002" />
		<tag k="ssr:type" v="adressenavn" />
	</node>
	<node lat="59.5821036569002" lon="11.142237782971732" id="-30768">
		<tag k="name" v="Frosterudveien" />
		<tag k="ssr:date" v="2019-12-27" />
		<tag k="ssr:gruppe" v="veg" />
		<tag k="ssr:hovedgruppe" v="infrastruktur" />
		<tag k="ssr:stedsnr" v="1063039" />
		<tag k="ssr:type" v="adressenavn" />
	</node>
	<node lat="59.59230009372848" lon="11.19330578129053" id="-30769">
		<tag k="name" v="Furuholen" />
		<tag k="ssr:date" v="2019-12-27" />
		<tag k="ssr:gruppe" v="veg" />
		<tag k="ssr:hovedgruppe" v="infrastruktur" />
		<tag k="ssr:stedsnr" v="1063050" />
		<tag k="ssr:type" v="adressenavn" />
	</node>
	<node lat="59.580097139530956" lon="11.182520317768402" id="-30770">
		<tag k="name" v="Frøys vei" />
		<tag k="ssr:date" v="2019-12-27" />
		<tag k="ssr:gruppe" v="veg" />
		<tag k="ssr:hovedgruppe" v="infrastruktur" />
		<tag k="ssr:stedsnr" v="1063059" />
		<tag k="ssr:type" v="adressenavn" />
	</node>
	<node lat="59.5084211699249" lon="11.329635444621028" id="-30772">
		<tag k="name" v="Jansbergveien" />
		<tag k="ssr:date" v="2019-12-27" />
		<tag k="ssr:gruppe" v="veg" />
		<tag k="ssr:hovedgruppe" v="infrastruktur" />
		<tag k="ssr:stedsnr" v="1063078" />
		<tag k="ssr:type" v="adressenavn" />
	</node>
	<node lat="59.58153242434869" lon="11.154406071768525" id="-30773">
		<tag k="name" v="Granholtveien" />
		<tag k="ssr:date" v="2019-12-27" />
		<tag k="ssr:gruppe" v="veg" />
		<tag k="ssr:hovedgruppe" v="infrastruktur" />
		<tag k="ssr:stedsnr" v="1063079" />
		<tag k="ssr:type" v="adressenavn" />
	</node>
	<node lat="59.56728510827227" lon="11.329493210084866" id="-30775">
		<tag k="name" v="Ileveien" />
		<tag k="ssr:date" v="2019-12-27" />
		<tag k="ssr:gruppe" v="veg" />
		<tag k="ssr:hovedgruppe" v="infrastruktur" />
		<tag k="ssr:stedsnr" v="1063150" />
		<tag k="ssr:type" v="adressenavn" />
	</node>
	<node lat="59.578037290165256" lon="11.184964337687443" id="-30777">
		<tag k="name" v="Gartneriveien" />
		<tag k="ssr:date" v="2019-12-27" />
		<tag k="ssr:gruppe" v="veg" />
		<tag k="ssr:hovedgruppe" v="infrastruktur" />
		<tag k="ssr:stedsnr" v="1063175" />
		<tag k="ssr:type" v="adressenavn" />
	</node>
	<node lat="59.555979644407785" lon="11.350202087565656" id="-30778">
		<tag k="name" v="Hubroveien" />
		<tag k="ssr:date" v="2019-12-27" />
		<tag k="ssr:gruppe" v="veg" />
		<tag k="ssr:hovedgruppe" v="infrastruktur" />
		<tag k="ssr:stedsnr" v="1063237" />
		<tag k="ssr:type" v="adressenavn" />
	</node>
	<node lat="59.57313593073055" lon="11.15623443588801" id="-30779">
		<tag k="name" v="Gjellestadveien" />
		<tag k="ssr:date" v="2019-12-27" />
		<tag k="ssr:gruppe" v="veg" />
		<tag k="ssr:hovedgruppe" v="infrastruktur" />
		<tag k="ssr:stedsnr" v="1063101" />
		<tag k="ssr:type" v="adressenavn" />
	</node>
	<node lat="59.5837188914127" lon="11.156696634108926" id="-30780">
		<tag k="name" v="Granveien" />
		<tag k="ssr:date" v="2019-12-27" />
		<tag k="ssr:gruppe" v="veg" />
		<tag k="ssr:hovedgruppe" v="infrastruktur" />
		<tag k="ssr:stedsnr" v="1063111" />
		<tag k="ssr:type" v="adressenavn" />
	</node>
	<node lat="59.55821912241057" lon="11.32660237107896" id="-30782">
		<tag k="name" v="Hermann Thoresens gate" />
		<tag k="ssr:date" v="2019-12-27" />
		<tag k="ssr:gruppe" v="veg" />
		<tag k="ssr:hovedgruppe" v="infrastruktur" />
		<tag k="ssr:stedsnr" v="1063196" />
		<tag k="ssr:type" v="adressenavn" />
	</node>
	<node lat="59.55601495627331" lon="11.327703059583405" id="-30785">
		<tag k="name" v="Gymnasveien" />
		<tag k="ssr:date" v="2019-12-27" />
		<tag k="ssr:gruppe" v="veg" />
		<tag k="ssr:hovedgruppe" v="infrastruktur" />
		<tag k="ssr:stedsnr" v="1063300" />
		<tag k="ssr:type" v="adressenavn" />
	</node>
	<node lat="59.588360346661425" lon="11.191409232002627" id="-30794">
		<tag k="name" v="Frankrigveien" />
		<tag k="ssr:date" v="2019-12-27" />
		<tag k="ssr:gruppe" v="veg" />
		<tag k="ssr:hovedgruppe" v="infrastruktur" />
		<tag k="ssr:stedsnr" v="1063406" />
		<tag k="ssr:type" v="adressenavn" />
	</node>
	<node lat="59.5543712712307" lon="11.330345151255433" id="-30795">
		<tag k="name" v="Høgliveien" />
		<tag k="ssr:date" v="2019-12-27" />
		<tag k="ssr:gruppe" v="veg" />
		<tag k="ssr:hovedgruppe" v="infrastruktur" />
		<tag k="ssr:stedsnr" v="1063434" />
		<tag k="ssr:type" v="adressenavn" />
	</node>
	<node lat="59.599191561736056" lon="11.175779857256792" id="-30796">
		<tag k="name" v="Haugtomtveien" />
		<tag k="ssr:date" v="2019-12-27" />
		<tag k="ssr:gruppe" v="veg" />
		<tag k="ssr:hovedgruppe" v="infrastruktur" />
		<tag k="ssr:stedsnr" v="1063587" />
		<tag k="ssr:type" v="adressenavn" />
	</node>
	<node lat="59.56477982707841" lon="11.391007021806468" id="-30797">
		<tag k="name" v="Kviserudveien" />
		<tag k="ssr:date" v="2019-12-27" />
		<tag k="ssr:gruppe" v="veg" />
		<tag k="ssr:hovedgruppe" v="infrastruktur" />
		<tag k="ssr:stedsnr" v="1063588" />
		<tag k="ssr:type" v="adressenavn" />
	</node>
	<node lat="59.57955500525772" lon="11.411425274461081" id="-30798">
		<tag k="name" v="Åmotveien" />
		<tag k="old_name" v="Krogstadveien" />
		<tag k="ssr:date" v="2019-12-27" />
		<tag k="ssr:gruppe" v="veg" />
		<tag k="ssr:hovedgruppe" v="infrastruktur" />
		<tag k="ssr:stedsnr" v="1063590" />
		<tag k="ssr:type" v="adressenavn" />
	</node>
	<node lat="59.59785721858705" lon="11.12727087719887" id="-30802">
		<tag k="name" v="Fjellbuveien" />
		<tag k="ssr:date" v="2019-12-27" />
		<tag k="ssr:gruppe" v="veg" />
		<tag k="ssr:hovedgruppe" v="infrastruktur" />
		<tag k="ssr:stedsnr" v="1063247" />
		<tag k="ssr:type" v="adressenavn" />
	</node>
	<node lat="59.55669918854694" lon="11.348006230134947" id="-30805">
		<tag k="name" v="Haukveien" />
		<tag k="ssr:date" v="2019-12-27" />
		<tag k="ssr:gruppe" v="veg" />
		<tag k="ssr:hovedgruppe" v="infrastruktur" />
		<tag k="ssr:stedsnr" v="1063267" />
		<tag k="ssr:type" v="adressenavn" />
	</node>
	<node lat="59.5858297143465" lon="11.150082293736856" id="-30806">
		<tag k="name" v="Engveien" />
		<tag k="ssr:date" v="2019-12-27" />
		<tag k="ssr:gruppe" v="veg" />
		<tag k="ssr:hovedgruppe" v="infrastruktur" />
		<tag k="ssr:stedsnr" v="1063269" />
		<tag k="ssr:type" v="adressenavn" />
	</node>
	<node lat="59.54921491955242" lon="11.332059378613229" id="-30809">
		<tag k="name" v="Hegginveien" />
		<tag k="ssr:date" v="2019-12-27" />
		<tag k="ssr:gruppe" v="veg" />
		<tag k="ssr:hovedgruppe" v="infrastruktur" />
		<tag k="ssr:stedsnr" v="1063355" />
		<tag k="ssr:type" v="adressenavn" />
	</node>
	<node lat="59.54921491955242" lon="11.332059378613229" id="-30810">
		<tag k="name" v="Heggeliveien" />
		<tag k="ssr:date" v="2019-12-27" />
		<tag k="ssr:gruppe" v="veg" />
		<tag k="ssr:hovedgruppe" v="infrastruktur" />
		<tag k="ssr:stedsnr" v="1063365" />
		<tag k="ssr:type" v="adressenavn" />
	</node>
	<node lat="59.59040439362453" lon="11.170505670332593" id="-30812">
		<tag k="name" v="Flatenveien" />
		<tag k="ssr:date" v="2019-12-27" />
		<tag k="ssr:gruppe" v="veg" />
		<tag k="ssr:hovedgruppe" v="infrastruktur" />
		<tag k="ssr:stedsnr" v="1063495" />
		<tag k="ssr:type" v="adressenavn" />
	</node>
	<node lat="59.59300942643296" lon="11.192495349186636" id="-30814">
		<tag k="name" v="Fjellskrenten" />
		<tag k="ssr:date" v="2019-12-27" />
		<tag k="ssr:gruppe" v="veg" />
		<tag k="ssr:hovedgruppe" v="infrastruktur" />
		<tag k="ssr:stedsnr" v="1063478" />
		<tag k="ssr:type" v="adressenavn" />
	</node>
	<node lat="59.56733945811362" lon="11.319442761137969" id="-30815">
		<tag k="name" v="Lupinveien" />
		<tag k="ssr:date" v="2019-12-27" />
		<tag k="ssr:gruppe" v="veg" />
		<tag k="ssr:hovedgruppe" v="infrastruktur" />
		<tag k="ssr:stedsnr" v="1063536" />
		<tag k="ssr:type" v="adressenavn" />
	</node>
	<node lat="59.553870688301544" lon="11.328577656195476" id="-30817">
		<tag k="name" v="Korterudbakken" />
		<tag k="ssr:date" v="2019-12-27" />
		<tag k="ssr:gruppe" v="veg" />
		<tag k="ssr:hovedgruppe" v="infrastruktur" />
		<tag k="ssr:stedsnr" v="1063558" />
		<tag k="ssr:type" v="adressenavn" />
	</node>
	<node lat="59.57389259698335" lon="11.161882052881412" id="-30818">
		<tag k="name" v="Hageveien" />
		<tag k="ssr:date" v="2019-12-27" />
		<tag k="ssr:gruppe" v="veg" />
		<tag k="ssr:hovedgruppe" v="infrastruktur" />
		<tag k="ssr:stedsnr" v="1063568" />
		<tag k="ssr:type" v="adressenavn" />
	</node>
	<node lat="59.54499374945711" lon="11.310026503095912" id="-30819">
		<tag k="name" v="Kongsjordveien" />
		<tag k="ssr:date" v="2019-12-27" />
		<tag k="ssr:gruppe" v="veg" />
		<tag k="ssr:hovedgruppe" v="infrastruktur" />
		<tag k="ssr:stedsnr" v="1063570" />
		<tag k="ssr:type" v="adressenavn" />
	</node>
	<node lat="59.58100962486184" lon="11.145553440838066" id="-30820">
		<tag k="name" v="Heggeligata" />
		<tag k="ssr:date" v="2019-12-27" />
		<tag k="ssr:gruppe" v="veg" />
		<tag k="ssr:hovedgruppe" v="infrastruktur" />
		<tag k="ssr:stedsnr" v="1063572" />
		<tag k="ssr:type" v="adressenavn" />
	</node>
	<node lat="59.56933719328048" lon="11.322067538653345" id="-30822">
		<tag k="name" v="Lerkeveien" />
		<tag k="ssr:date" v="2019-12-27" />
		<tag k="ssr:gruppe" v="veg" />
		<tag k="ssr:hovedgruppe" v="infrastruktur" />
		<tag k="ssr:stedsnr" v="1063582" />
		<tag k="ssr:type" v="adressenavn" />
	</node>
	<node lat="59.585981173574325" lon="11.183272043940715" id="-30824">
		<tag k="name" v="Henstadkollen" />
		<tag k="ssr:date" v="2019-12-27" />
		<tag k="ssr:gruppe" v="veg" />
		<tag k="ssr:hovedgruppe" v="infrastruktur" />
		<tag k="ssr:stedsnr" v="1063647" />
		<tag k="ssr:type" v="adressenavn" />
	</node>
	<node lat="59.57823520914378" lon="11.175654516694106" id="-30825">
		<tag k="name" v="Høgdveien" />
		<tag k="ssr:date" v="2019-12-27" />
		<tag k="ssr:gruppe" v="veg" />
		<tag k="ssr:hovedgruppe" v="infrastruktur" />
		<tag k="ssr:stedsnr" v="1063655" />
		<tag k="ssr:type" v="adressenavn" />
	</node>
	<node lat="59.544866375146505" lon="11.30746366193219" id="-30826">
		<tag k="name" v="Løkkebergveien" />
		<tag k="ssr:date" v="2019-12-27" />
		<tag k="ssr:gruppe" v="veg" />
		<tag k="ssr:hovedgruppe" v="infrastruktur" />
		<tag k="ssr:stedsnr" v="1063663" />
		<tag k="ssr:type" v="adressenavn" />
	</node>
	<node lat="59.575845270114385" lon="11.149297795862125" id="-30827">
		<tag k="name" v="Hovsveien" />
		<tag k="ssr:date" v="2019-12-27" />
		<tag k="ssr:gruppe" v="veg" />
		<tag k="ssr:hovedgruppe" v="infrastruktur" />
		<tag k="ssr:stedsnr" v="1063676" />
		<tag k="ssr:type" v="adressenavn" />
	</node>
	<node lat="59.58612655440976" lon="11.170670186303527" id="-30828">
		<tag k="name" v="Grønliveien" />
		<tag k="ssr:date" v="2019-12-27" />
		<tag k="ssr:gruppe" v="veg" />
		<tag k="ssr:hovedgruppe" v="infrastruktur" />
		<tag k="ssr:stedsnr" v="1063678" />
		<tag k="ssr:type" v="adressenavn" />
	</node>
	<node lat="59.54846139900077" lon="11.337969332596916" id="-30829">
		<tag k="name" v="Hæraveien" />
		<tag k="ssr:date" v="2019-12-27" />
		<tag k="ssr:gruppe" v="veg" />
		<tag k="ssr:hovedgruppe" v="infrastruktur" />
		<tag k="ssr:stedsnr" v="1063503" />
		<tag k="ssr:type" v="adressenavn" />
	</node>
	<node lat="59.58415309092929" lon="11.166797804253946" id="-30832">
		<tag k="name" v="Henstad alle" />
		<tag k="ssr:date" v="2019-12-27" />
		<tag k="ssr:gruppe" v="veg" />
		<tag k="ssr:hovedgruppe" v="infrastruktur" />
		<tag k="ssr:stedsnr" v="1063524" />
		<tag k="ssr:type" v="adressenavn" />
	</node>
	<node lat="59.58430088525676" lon="11.15137629165724" id="-30836">
		<tag k="name" v="Nordahl Griegs gate" />
		<tag k="ssr:date" v="2019-12-27" />
		<tag k="ssr:gruppe" v="veg" />
		<tag k="ssr:hovedgruppe" v="infrastruktur" />
		<tag k="ssr:stedsnr" v="1064448" />
		<tag k="ssr:type" v="adressenavn" />
	</node>
	<node lat="59.57989695660059" lon="11.152352860891012" id="-30838">
		<tag k="name" v="Nordraaks gate" />
		<tag k="ssr:date" v="2019-12-27" />
		<tag k="ssr:gruppe" v="veg" />
		<tag k="ssr:hovedgruppe" v="infrastruktur" />
		<tag k="ssr:stedsnr" v="1064466" />
		<tag k="ssr:type" v="adressenavn" />
	</node>
	<node lat="59.560187039820505" lon="11.323448115136484" id="-30839">
		<tag k="name" v="Vårstien" />
		<tag k="ssr:date" v="2019-12-27" />
		<tag k="ssr:gruppe" v="veg" />
		<tag k="ssr:hovedgruppe" v="infrastruktur" />
		<tag k="ssr:stedsnr" v="1064537" />
		<tag k="ssr:type" v="adressenavn" />
	</node>
	<node lat="59.58084234265872" lon="11.182174354999077" id="-30840">
		<tag k="name" v="Odins vei" />
		<tag k="ssr:date" v="2019-12-27" />
		<tag k="ssr:gruppe" v="veg" />
		<tag k="ssr:hovedgruppe" v="infrastruktur" />
		<tag k="ssr:stedsnr" v="1064539" />
		<tag k="ssr:type" v="adressenavn" />
	</node>
	<node lat="59.59248720713437" lon="11.168657379704666" id="-30842">
		<tag k="name" v="Orelia" />
		<tag k="ssr:date" v="2019-12-27" />
		<tag k="ssr:gruppe" v="veg" />
		<tag k="ssr:hovedgruppe" v="infrastruktur" />
		<tag k="ssr:stedsnr" v="1064542" />
		<tag k="ssr:type" v="adressenavn" />
	</node>
	<node lat="59.54634565463235" lon="11.47002331891435" id="-30843">
		<tag k="name" v="Ørkenveien" />
		<tag k="ssr:date" v="2019-12-27" />
		<tag k="ssr:gruppe" v="veg" />
		<tag k="ssr:hovedgruppe" v="infrastruktur" />
		<tag k="ssr:stedsnr" v="1064546" />
		<tag k="ssr:type" v="adressenavn" />
	</node>
	<node lat="59.57986996180352" lon="11.178487051217829" id="-30847">
		<tag k="name" v="Høibo" />
		<tag k="ssr:date" v="2019-12-27" />
		<tag k="ssr:gruppe" v="veg" />
		<tag k="ssr:hovedgruppe" v="infrastruktur" />
		<tag k="ssr:stedsnr" v="1063600" />
		<tag k="ssr:type" v="adressenavn" />
	</node>
	<node lat="59.561104778443415" lon="11.324614358949102" id="-30848">
		<tag k="name" v="Markveien" />
		<tag k="ssr:date" v="2019-12-27" />
		<tag k="ssr:gruppe" v="veg" />
		<tag k="ssr:hovedgruppe" v="infrastruktur" />
		<tag k="ssr:stedsnr" v="1063601" />
		<tag k="ssr:type" v="adressenavn" />
	</node>
	<node lat="59.56842986014341" lon="11.313610296227386" id="-30850">
		<tag k="name" v="Monaveien" />
		<tag k="ssr:date" v="2019-12-27" />
		<tag k="ssr:gruppe" v="veg" />
		<tag k="ssr:hovedgruppe" v="infrastruktur" />
		<tag k="ssr:stedsnr" v="1063610" />
		<tag k="ssr:type" v="adressenavn" />
	</node>
	<node lat="59.545642659053286" lon="11.496389904893306" id="-30852">
		<tag k="name" v="Mosebyveien" />
		<tag k="ssr:date" v="2019-12-27" />
		<tag k="ssr:gruppe" v="veg" />
		<tag k="ssr:hovedgruppe" v="infrastruktur" />
		<tag k="ssr:stedsnr" v="1063614" />
		<tag k="ssr:type" v="adressenavn" />
	</node>
	<node lat="59.58004339127169" lon="11.176162392768012" id="-30854">
		<tag k="name" v="Høiendalveien" />
		<tag k="ssr:date" v="2019-12-27" />
		<tag k="ssr:gruppe" v="veg" />
		<tag k="ssr:hovedgruppe" v="infrastruktur" />
		<tag k="ssr:stedsnr" v="1063623" />
		<tag k="ssr:type" v="adressenavn" />
	</node>
	<node lat="59.55233828162167" lon="11.326242400270086" id="-30858">
		<tag k="name" v="Meieriveien" />
		<tag k="ssr:date" v="2019-12-27" />
		<tag k="ssr:gruppe" v="veg" />
		<tag k="ssr:hovedgruppe" v="infrastruktur" />
		<tag k="ssr:stedsnr" v="1063633" />
		<tag k="ssr:type" v="adressenavn" />
	</node>
	<node lat="59.58466723908929" lon="11.19052195997429" id="-30861">
		<tag k="name" v="Grønlia" />
		<tag k="ssr:date" v="2019-12-27" />
		<tag k="ssr:gruppe" v="veg" />
		<tag k="ssr:hovedgruppe" v="infrastruktur" />
		<tag k="ssr:stedsnr" v="1063697" />
		<tag k="ssr:type" v="adressenavn" />
	</node>
	<node lat="59.58227369085056" lon="11.187291432686019" id="-30862">
		<tag k="name" v="Grønlundveien" />
		<tag k="ssr:date" v="2019-12-27" />
		<tag k="ssr:gruppe" v="veg" />
		<tag k="ssr:hovedgruppe" v="infrastruktur" />
		<tag k="ssr:stedsnr" v="1063700" />
		<tag k="ssr:type" v="adressenavn" />
	</node>
	<node lat="59.584417352012004" lon="11.191699068462004" id="-30863">
		<tag k="name" v="Granåsveien" />
		<tag k="ssr:date" v="2019-12-27" />
		<tag k="ssr:gruppe" v="veg" />
		<tag k="ssr:hovedgruppe" v="infrastruktur" />
		<tag k="ssr:stedsnr" v="1063717" />
		<tag k="ssr:type" v="adressenavn" />
	</node>
	<node lat="59.51142473360931" lon="11.286226401999022" id="-30864">
		<tag k="name" v="Jonsrudveien" />
		<tag k="ssr:date" v="2019-12-27" />
		<tag k="ssr:gruppe" v="veg" />
		<tag k="ssr:hovedgruppe" v="infrastruktur" />
		<tag k="ssr:stedsnr" v="1063732" />
		<tag k="ssr:type" v="adressenavn" />
	</node>
	<node lat="59.54761145857899" lon="11.315719978534942" id="-30866">
		<tag k="name" v="Karoline Olsens vei" />
		<tag k="ssr:date" v="2019-12-27" />
		<tag k="ssr:gruppe" v="veg" />
		<tag k="ssr:hovedgruppe" v="infrastruktur" />
		<tag k="ssr:stedsnr" v="1063792" />
		<tag k="ssr:type" v="adressenavn" />
	</node>
	<node lat="59.549915745077875" lon="11.323797815430085" id="-30867">
		<tag k="name" v="Kapellveien" />
		<tag k="ssr:date" v="2019-12-27" />
		<tag k="ssr:gruppe" v="veg" />
		<tag k="ssr:hovedgruppe" v="infrastruktur" />
		<tag k="ssr:stedsnr" v="1063685" />
		<tag k="ssr:type" v="adressenavn" />
	</node>
	<node lat="59.585396811056825" lon="11.170962946487792" id="-30868">
		<tag k="name" v="Gressveien" />
		<tag k="ssr:date" v="2019-12-27" />
		<tag k="ssr:gruppe" v="veg" />
		<tag k="ssr:hovedgruppe" v="infrastruktur" />
		<tag k="ssr:stedsnr" v="1063751" />
		<tag k="ssr:type" v="adressenavn" />
	</node>
	<node lat="59.56205580754495" lon="11.32786554297923" id="-30869">
		<tag k="name" v="Johs Rånås vei" />
		<tag k="ssr:date" v="2019-12-27" />
		<tag k="ssr:gruppe" v="veg" />
		<tag k="ssr:hovedgruppe" v="infrastruktur" />
		<tag k="ssr:stedsnr" v="1063755" />
		<tag k="ssr:type" v="adressenavn" />
	</node>
	<node lat="59.58572874411401" lon="11.190785184862508" id="-30870">
		<tag k="name" v="Guderudløkka" />
		<tag k="ssr:date" v="2019-12-27" />
		<tag k="ssr:gruppe" v="veg" />
		<tag k="ssr:hovedgruppe" v="infrastruktur" />
		<tag k="ssr:stedsnr" v="1063756" />
		<tag k="ssr:type" v="adressenavn" />
	</node>
	<node lat="59.54690791804897" lon="11.353281214022902" id="-30871">
		<tag k="name" v="Kjærlighetsstien" />
		<tag k="ssr:date" v="2019-12-27" />
		<tag k="ssr:gruppe" v="veg" />
		<tag k="ssr:hovedgruppe" v="infrastruktur" />
		<tag k="ssr:stedsnr" v="1063765" />
		<tag k="ssr:type" v="adressenavn" />
	</node>
	<node lat="59.5819360326613" lon="11.157157814759008" id="-30873">
		<tag k="name" v="Gråbergveien" />
		<tag k="ssr:date" v="2019-12-27" />
		<tag k="ssr:gruppe" v="veg" />
		<tag k="ssr:hovedgruppe" v="infrastruktur" />
		<tag k="ssr:stedsnr" v="1063770" />
		<tag k="ssr:type" v="adressenavn" />
	</node>
	<node lat="59.5820719286907" lon="11.148348404083311" id="-30874">
		<tag k="name" v="Gurudveien" />
		<tag k="ssr:date" v="2019-12-27" />
		<tag k="ssr:gruppe" v="veg" />
		<tag k="ssr:hovedgruppe" v="infrastruktur" />
		<tag k="ssr:stedsnr" v="1063780" />
		<tag k="ssr:type" v="adressenavn" />
	</node>
	<node lat="59.5502241959019" lon="11.33147320647175" id="-30875">
		<tag k="name" v="Kløverveien" />
		<tag k="ssr:date" v="2019-12-27" />
		<tag k="ssr:gruppe" v="veg" />
		<tag k="ssr:hovedgruppe" v="infrastruktur" />
		<tag k="ssr:stedsnr" v="1063785" />
		<tag k="ssr:type" v="adressenavn" />
	</node>
	<node lat="59.590469991290824" lon="11.171303101765481" id="-30876">
		<tag k="name" v="Grøtvedtgata" />
		<tag k="ssr:date" v="2019-12-27" />
		<tag k="ssr:gruppe" v="veg" />
		<tag k="ssr:hovedgruppe" v="infrastruktur" />
		<tag k="ssr:stedsnr" v="1063851" />
		<tag k="ssr:type" v="adressenavn" />
	</node>
	<node lat="59.50599819559236" lon="11.363248659690585" id="-30877">
		<tag k="name" v="Kildeløkka" />
		<tag k="ssr:date" v="2019-12-27" />
		<tag k="ssr:gruppe" v="veg" />
		<tag k="ssr:hovedgruppe" v="infrastruktur" />
		<tag k="ssr:stedsnr" v="1063855" />
		<tag k="ssr:type" v="adressenavn" />
	</node>
	<node lat="59.50566844810127" lon="11.363560383864225" id="-30878">
		<tag k="name" v="Kildeveien" />
		<tag k="ssr:date" v="2019-12-27" />
		<tag k="ssr:gruppe" v="veg" />
		<tag k="ssr:hovedgruppe" v="infrastruktur" />
		<tag k="ssr:stedsnr" v="1063856" />
		<tag k="ssr:type" v="adressenavn" />
	</node>
	<node lat="59.583574447080174" lon="11.141462722319245" id="-30879">
		<tag k="name" v="Kolleveien" />
		<tag k="ssr:date" v="2019-12-27" />
		<tag k="ssr:gruppe" v="veg" />
		<tag k="ssr:hovedgruppe" v="infrastruktur" />
		<tag k="ssr:stedsnr" v="1063877" />
		<tag k="ssr:type" v="adressenavn" />
	</node>
	<node lat="59.49938961929971" lon="11.387432638082538" id="-30882">
		<tag k="name" v="Skollerudveien" />
		<tag k="ssr:date" v="2019-12-27" />
		<tag k="ssr:gruppe" v="veg" />
		<tag k="ssr:hovedgruppe" v="infrastruktur" />
		<tag k="ssr:stedsnr" v="1063885" />
		<tag k="ssr:type" v="adressenavn" />
	</node>
	<node lat="59.59283539088479" lon="11.168599619396948" id="-30883">
		<tag k="name" v="Grøttboveien" />
		<tag k="ssr:date" v="2019-12-27" />
		<tag k="ssr:gruppe" v="veg" />
		<tag k="ssr:hovedgruppe" v="infrastruktur" />
		<tag k="ssr:stedsnr" v="1063805" />
		<tag k="ssr:type" v="adressenavn" />
	</node>
	<node lat="59.54828305692415" lon="11.31691427287346" id="-30884">
		<tag k="name" v="Karlstrupveien" />
		<tag k="ssr:date" v="2019-12-27" />
		<tag k="ssr:gruppe" v="veg" />
		<tag k="ssr:hovedgruppe" v="infrastruktur" />
		<tag k="ssr:stedsnr" v="1063810" />
		<tag k="ssr:type" v="adressenavn" />
	</node>
	<node lat="59.550284619934914" lon="11.348504947534837" id="-30885">
		<tag k="name" v="Kirkåsveien" />
		<tag k="ssr:date" v="2019-12-27" />
		<tag k="ssr:gruppe" v="veg" />
		<tag k="ssr:hovedgruppe" v="infrastruktur" />
		<tag k="ssr:stedsnr" v="1063820" />
		<tag k="ssr:type" v="adressenavn" />
	</node>
	<node lat="59.585301149234006" lon="11.17361100620653" id="-30886">
		<tag k="name" v="Korsegårdveien" />
		<tag k="ssr:date" v="2019-12-27" />
		<tag k="ssr:gruppe" v="veg" />
		<tag k="ssr:hovedgruppe" v="infrastruktur" />
		<tag k="ssr:stedsnr" v="1063886" />
		<tag k="ssr:type" v="adressenavn" />
	</node>
	<node lat="59.584357072531546" lon="11.173829690359147" id="-30888">
		<tag k="name" v="Kongens gate" />
		<tag k="ssr:date" v="2019-12-27" />
		<tag k="ssr:gruppe" v="veg" />
		<tag k="ssr:hovedgruppe" v="infrastruktur" />
		<tag k="ssr:stedsnr" v="1063899" />
		<tag k="ssr:type" v="adressenavn" />
	</node>
	<node lat="59.56990894775816" lon="11.336935049413912" id="-30890">
		<tag k="name" v="Skofterudveien" />
		<tag k="ssr:date" v="2019-12-27" />
		<tag k="ssr:gruppe" v="veg" />
		<tag k="ssr:hovedgruppe" v="infrastruktur" />
		<tag k="ssr:stedsnr" v="1063920" />
		<tag k="ssr:type" v="adressenavn" />
	</node>
	<node lat="59.53614375168676" lon="11.324199849250075" id="-30891">
		<tag k="name" v="Skjørtvedtveien" />
		<tag k="ssr:date" v="2019-12-27" />
		<tag k="ssr:gruppe" v="veg" />
		<tag k="ssr:hovedgruppe" v="infrastruktur" />
		<tag k="ssr:stedsnr" v="1063933" />
		<tag k="ssr:type" v="adressenavn" />
	</node>
	<node lat="59.57807137229201" lon="11.17206994528129" id="-30892">
		<tag k="name" v="Indre Ringvei" />
		<tag k="ssr:date" v="2019-12-27" />
		<tag k="ssr:gruppe" v="veg" />
		<tag k="ssr:hovedgruppe" v="infrastruktur" />
		<tag k="ssr:stedsnr" v="1064039" />
		<tag k="ssr:type" v="adressenavn" />
	</node>
	<node lat="59.55229184361429" lon="11.339447164875335" id="-30893">
		<tag k="name" v="Opsahlveien" />
		<tag k="ssr:date" v="2019-12-27" />
		<tag k="ssr:gruppe" v="veg" />
		<tag k="ssr:hovedgruppe" v="infrastruktur" />
		<tag k="ssr:stedsnr" v="1064049" />
		<tag k="ssr:type" v="adressenavn" />
	</node>
	<node lat="59.56879951483417" lon="11.322829611149242" id="-30894">
		<tag k="name" v="Planteskoleveien" />
		<tag k="ssr:date" v="2019-12-27" />
		<tag k="ssr:gruppe" v="veg" />
		<tag k="ssr:hovedgruppe" v="infrastruktur" />
		<tag k="ssr:stedsnr" v="1064055" />
		<tag k="ssr:type" v="adressenavn" />
	</node>
	<node lat="59.58852087119106" lon="11.190577693981583" id="-30898">
		<tag k="name" v="Krokstien" />
		<tag k="ssr:date" v="2019-12-27" />
		<tag k="ssr:gruppe" v="veg" />
		<tag k="ssr:hovedgruppe" v="infrastruktur" />
		<tag k="ssr:stedsnr" v="1063976" />
		<tag k="ssr:type" v="adressenavn" />
	</node>
	<node lat="59.58590986923285" lon="11.177135700663584" id="-30899">
		<tag k="name" v="Kronprinsens gate" />
		<tag k="ssr:date" v="2019-12-27" />
		<tag k="ssr:gruppe" v="veg" />
		<tag k="ssr:hovedgruppe" v="infrastruktur" />
		<tag k="ssr:stedsnr" v="1063985" />
		<tag k="ssr:type" v="adressenavn" />
	</node>
	<node lat="59.54997394599581" lon="11.317309152089834" id="-30901">
		<tag k="name" v="Smebyveien" />
		<tag k="ssr:date" v="2019-12-27" />
		<tag k="ssr:gruppe" v="veg" />
		<tag k="ssr:hovedgruppe" v="infrastruktur" />
		<tag k="ssr:stedsnr" v="1063990" />
		<tag k="ssr:type" v="adressenavn" />
	</node>
	<node lat="59.58312065728679" lon="11.265211478037584" id="-30904">
		<tag k="name" v="Slittungveien" />
		<tag k="ssr:date" v="2019-12-27" />
		<tag k="ssr:gruppe" v="veg" />
		<tag k="ssr:hovedgruppe" v="infrastruktur" />
		<tag k="ssr:stedsnr" v="1063997" />
		<tag k="ssr:type" v="adressenavn" />
	</node>
	<node lat="59.52341803099782" lon="11.335082408201234" id="-30908">
		<tag k="name" v="Smerkerudveien" />
		<tag k="ssr:date" v="2019-12-27" />
		<tag k="ssr:gruppe" v="veg" />
		<tag k="ssr:hovedgruppe" v="infrastruktur" />
		<tag k="ssr:stedsnr" v="1064017" />
		<tag k="ssr:type" v="adressenavn" />
	</node>
	<node lat="59.57861297954245" lon="11.172354984434302" id="-30909">
		<tag k="name" v="Kortveien" />
		<tag k="ssr:date" v="2019-12-27" />
		<tag k="ssr:gruppe" v="veg" />
		<tag k="ssr:hovedgruppe" v="infrastruktur" />
		<tag k="ssr:stedsnr" v="1064018" />
		<tag k="ssr:type" v="adressenavn" />
	</node>
	<node lat="59.55131303220927" lon="11.341913132577334" id="-30911">
		<tag k="name" v="Opsahlåsveien" />
		<tag k="ssr:date" v="2019-12-27" />
		<tag k="ssr:gruppe" v="veg" />
		<tag k="ssr:hovedgruppe" v="infrastruktur" />
		<tag k="ssr:stedsnr" v="1064027" />
		<tag k="ssr:type" v="adressenavn" />
	</node>
	<node lat="59.58547661084061" lon="11.262733894929168" id="-30915">
		<tag k="name" v="Nybråtenveien" />
		<tag k="ssr:date" v="2019-12-27" />
		<tag k="ssr:gruppe" v="veg" />
		<tag k="ssr:hovedgruppe" v="infrastruktur" />
		<tag k="ssr:stedsnr" v="1064089" />
		<tag k="ssr:type" v="adressenavn" />
	</node>
	<node lat="59.55469684239823" lon="11.35037842532362" id="-30921">
		<tag k="name" v="Mårveien" />
		<tag k="ssr:date" v="2019-12-27" />
		<tag k="ssr:gruppe" v="veg" />
		<tag k="ssr:hovedgruppe" v="infrastruktur" />
		<tag k="ssr:stedsnr" v="1064096" />
		<tag k="ssr:type" v="adressenavn" />
	</node>
	<node lat="59.549542082440375" lon="11.341608924695283" id="-30923">
		<tag k="name" v="Pennestrøket" />
		<tag k="ssr:date" v="2019-12-27" />
		<tag k="ssr:gruppe" v="veg" />
		<tag k="ssr:hovedgruppe" v="infrastruktur" />
		<tag k="ssr:stedsnr" v="1064103" />
		<tag k="ssr:type" v="adressenavn" />
	</node>
	<node lat="59.56764403675886" lon="11.31911805325425" id="-30924">
		<tag k="name" v="Saribakke" />
		<tag k="ssr:date" v="2019-12-27" />
		<tag k="ssr:gruppe" v="veg" />
		<tag k="ssr:hovedgruppe" v="infrastruktur" />
		<tag k="ssr:stedsnr" v="1064105" />
		<tag k="ssr:type" v="adressenavn" />
	</node>
	<node lat="59.58043995396372" lon="11.153285632631981" id="-30926">
		<tag k="name" v="Ibsens gate" />
		<tag k="ssr:date" v="2019-12-27" />
		<tag k="ssr:gruppe" v="veg" />
		<tag k="ssr:hovedgruppe" v="infrastruktur" />
		<tag k="ssr:stedsnr" v="1064076" />
		<tag k="ssr:type" v="adressenavn" />
	</node>
	<node lat="59.56255181938295" lon="11.329274369762683" id="-30927">
		<tag k="name" v="Olaf Funderuds vei" />
		<tag k="ssr:date" v="2019-12-27" />
		<tag k="ssr:gruppe" v="veg" />
		<tag k="ssr:hovedgruppe" v="infrastruktur" />
		<tag k="ssr:stedsnr" v="1064080" />
		<tag k="ssr:type" v="adressenavn" />
	</node>
	<node lat="59.583784275108435" lon="11.163355129712388" id="-30928">
		<tag k="name" v="Kirkegata" />
		<tag k="ssr:date" v="2019-12-27" />
		<tag k="ssr:gruppe" v="veg" />
		<tag k="ssr:hovedgruppe" v="infrastruktur" />
		<tag k="ssr:stedsnr" v="1064157" />
		<tag k="ssr:type" v="adressenavn" />
	</node>
	<node lat="59.58103060940564" lon="11.164972205413564" id="-30931">
		<tag k="name" v="Stasjonsmester Frosts gate" />
		<tag k="ssr:date" v="2019-12-27" />
		<tag k="ssr:gruppe" v="veg" />
		<tag k="ssr:hovedgruppe" v="infrastruktur" />
		<tag k="ssr:stedsnr" v="1064174" />
		<tag k="ssr:type" v="adressenavn" />
	</node>
	<node lat="59.554466616012704" lon="11.366974359325573" id="-30932">
		<tag k="name" v="Ramstadveien" />
		<tag k="ssr:date" v="2019-12-27" />
		<tag k="ssr:gruppe" v="veg" />
		<tag k="ssr:hovedgruppe" v="infrastruktur" />
		<tag k="ssr:stedsnr" v="1064179" />
		<tag k="ssr:type" v="adressenavn" />
	</node>
	<node lat="59.58721257364205" lon="11.140318602201875" id="-30933">
		<tag k="name" v="Kalfaret" />
		<tag k="ssr:date" v="2019-12-27" />
		<tag k="ssr:gruppe" v="veg" />
		<tag k="ssr:hovedgruppe" v="infrastruktur" />
		<tag k="ssr:stedsnr" v="1064180" />
		<tag k="ssr:type" v="adressenavn" />
	</node>
	<node lat="59.572231240321415" lon="11.163748842426768" id="-30939">
		<tag k="name" v="Moensveien" />
		<tag k="ssr:date" v="2019-12-27" />
		<tag k="ssr:gruppe" v="veg" />
		<tag k="ssr:hovedgruppe" v="infrastruktur" />
		<tag k="ssr:stedsnr" v="1064241" />
		<tag k="ssr:type" v="adressenavn" />
	</node>
	<node lat="59.579043374645806" lon="11.17403475592657" id="-30940">
		<tag k="name" v="Linjeveien" />
		<tag k="ssr:date" v="2019-12-27" />
		<tag k="ssr:gruppe" v="veg" />
		<tag k="ssr:hovedgruppe" v="infrastruktur" />
		<tag k="ssr:stedsnr" v="1064242" />
		<tag k="ssr:type" v="adressenavn" />
	</node>
	<node lat="59.582761625030706" lon="11.171578526326215" id="-30941">
		<tag k="name" v="Leikvingata" />
		<tag k="ssr:date" v="2019-12-27" />
		<tag k="ssr:gruppe" v="veg" />
		<tag k="ssr:hovedgruppe" v="infrastruktur" />
		<tag k="ssr:stedsnr" v="1064245" />
		<tag k="ssr:type" v="adressenavn" />
	</node>
	<node lat="59.55543077548161" lon="11.323247531004277" id="-30944">
		<tag k="name" v="Sponesveien" />
		<tag k="ssr:date" v="2019-12-27" />
		<tag k="ssr:gruppe" v="veg" />
		<tag k="ssr:hovedgruppe" v="infrastruktur" />
		<tag k="ssr:stedsnr" v="1064249" />
		<tag k="ssr:type" v="adressenavn" />
	</node>
	<node lat="59.55773343063907" lon="11.328038519446109" id="-30947">
		<tag k="name" v="Sorenskriverveien" />
		<tag k="ssr:date" v="2019-12-27" />
		<tag k="ssr:gruppe" v="veg" />
		<tag k="ssr:hovedgruppe" v="infrastruktur" />
		<tag k="ssr:stedsnr" v="1064262" />
		<tag k="ssr:type" v="adressenavn" />
	</node>
	<node lat="59.5858297143465" lon="11.150082293736856" id="-30948">
		<tag k="name" v="Løkkeveien" />
		<tag k="ssr:date" v="2019-12-27" />
		<tag k="ssr:gruppe" v="veg" />
		<tag k="ssr:hovedgruppe" v="infrastruktur" />
		<tag k="ssr:stedsnr" v="1064268" />
		<tag k="ssr:type" v="adressenavn" />
	</node>
	<node lat="59.59120865599082" lon="11.182429603218997" id="-30950">
		<tag k="name" v="Løkkesvingen" />
		<tag k="ssr:date" v="2019-12-27" />
		<tag k="ssr:gruppe" v="veg" />
		<tag k="ssr:hovedgruppe" v="infrastruktur" />
		<tag k="ssr:stedsnr" v="1064272" />
		<tag k="ssr:type" v="adressenavn" />
	</node>
	<node lat="59.57701627473866" lon="11.16317008461071" id="-30951">
		<tag k="name" v="Lønnveien" />
		<tag k="ssr:date" v="2019-12-27" />
		<tag k="ssr:gruppe" v="veg" />
		<tag k="ssr:hovedgruppe" v="infrastruktur" />
		<tag k="ssr:stedsnr" v="1064274" />
		<tag k="ssr:type" v="adressenavn" />
	</node>
	<node lat="59.5865718281831" lon="11.188687993803068" id="-30953">
		<tag k="name" v="Lyveien" />
		<tag k="ssr:date" v="2019-12-27" />
		<tag k="ssr:gruppe" v="veg" />
		<tag k="ssr:hovedgruppe" v="infrastruktur" />
		<tag k="ssr:stedsnr" v="1064279" />
		<tag k="ssr:type" v="adressenavn" />
	</node>
	<node lat="59.583363614085044" lon="11.261651479444797" id="-30955">
		<tag k="name" v="Stabburveien" />
		<tag k="ssr:date" v="2019-12-27" />
		<tag k="ssr:gruppe" v="veg" />
		<tag k="ssr:hovedgruppe" v="infrastruktur" />
		<tag k="ssr:stedsnr" v="1064281" />
		<tag k="ssr:type" v="adressenavn" />
	</node>
	<node lat="59.555971371798606" lon="11.345001577623753" id="-30957">
		<tag k="name" v="Rådyrveien" />
		<tag k="ssr:date" v="2019-12-27" />
		<tag k="ssr:gruppe" v="veg" />
		<tag k="ssr:hovedgruppe" v="infrastruktur" />
		<tag k="ssr:stedsnr" v="1064117" />
		<tag k="ssr:type" v="adressenavn" />
	</node>
	<node lat="59.5626006209966" lon="11.195038921389598" id="-30958">
		<tag k="name" v="Katralveien" />
		<tag k="ssr:date" v="2019-12-27" />
		<tag k="ssr:gruppe" v="veg" />
		<tag k="ssr:hovedgruppe" v="infrastruktur" />
		<tag k="ssr:stedsnr" v="1064118" />
		<tag k="ssr:type" v="adressenavn" />
	</node>
	<node lat="59.554090045413055" lon="11.345918981557784" id="-30959">
		<tag k="name" v="Rugdeveien" />
		<tag k="ssr:date" v="2019-12-27" />
		<tag k="ssr:gruppe" v="veg" />
		<tag k="ssr:hovedgruppe" v="infrastruktur" />
		<tag k="ssr:stedsnr" v="1064122" />
		<tag k="ssr:type" v="adressenavn" />
	</node>
	<node lat="59.58704718256413" lon="11.263803295693982" id="-30960">
		<tag k="name" v="Rogneveien" />
		<tag k="ssr:date" v="2019-12-27" />
		<tag k="ssr:gruppe" v="veg" />
		<tag k="ssr:hovedgruppe" v="infrastruktur" />
		<tag k="ssr:stedsnr" v="1064131" />
		<tag k="ssr:type" v="adressenavn" />
	</node>
	<node lat="59.51547116757165" lon="11.303805808645487" id="-30961">
		<tag k="name" v="Skaltorpveien" />
		<tag k="ssr:date" v="2019-12-27" />
		<tag k="ssr:gruppe" v="veg" />
		<tag k="ssr:hovedgruppe" v="infrastruktur" />
		<tag k="ssr:stedsnr" v="1064134" />
		<tag k="ssr:type" v="adressenavn" />
	</node>
	<node lat="59.57225377134042" lon="11.329973456895896" id="-30963">
		<tag k="name" v="Raveien" />
		<tag k="ssr:date" v="2019-12-27" />
		<tag k="ssr:gruppe" v="veg" />
		<tag k="ssr:hovedgruppe" v="infrastruktur" />
		<tag k="ssr:stedsnr" v="1064187" />
		<tag k="ssr:type" v="adressenavn" />
	</node>
	<node lat="59.57343702826736" lon="11.160786607515986" id="-30964">
		<tag k="name" v="Moenshagen" />
		<tag k="ssr:date" v="2019-12-27" />
		<tag k="ssr:gruppe" v="veg" />
		<tag k="ssr:hovedgruppe" v="infrastruktur" />
		<tag k="ssr:stedsnr" v="1064199" />
		<tag k="ssr:type" v="adressenavn" />
	</node>
	<node lat="59.560060854799346" lon="11.32344577219851" id="-30965">
		<tag k="name" v="Vandug terrasse" />
		<tag k="ssr:date" v="2019-12-27" />
		<tag k="ssr:gruppe" v="veg" />
		<tag k="ssr:hovedgruppe" v="infrastruktur" />
		<tag k="ssr:stedsnr" v="1064200" />
		<tag k="ssr:type" v="adressenavn" />
	</node>
	<node lat="59.58253360219926" lon="11.263295623657354" id="-30967">
		<tag k="name" v="Toppåsveien" />
		<tag k="ssr:date" v="2019-12-27" />
		<tag k="ssr:gruppe" v="veg" />
		<tag k="ssr:hovedgruppe" v="infrastruktur" />
		<tag k="ssr:stedsnr" v="1064203" />
		<tag k="ssr:type" v="adressenavn" />
	</node>
	<node lat="59.583395306914056" lon="11.26293051344687" id="-30968">
		<tag k="name" v="Toppenveien" />
		<tag k="ssr:date" v="2019-12-27" />
		<tag k="ssr:gruppe" v="veg" />
		<tag k="ssr:hovedgruppe" v="infrastruktur" />
		<tag k="ssr:stedsnr" v="1064204" />
		<tag k="ssr:type" v="adressenavn" />
	</node>
	<node lat="59.57140618167197" lon="11.163681980209878" id="-30969">
		<tag k="name" v="Moenslia" />
		<tag k="ssr:date" v="2019-12-27" />
		<tag k="ssr:gruppe" v="veg" />
		<tag k="ssr:hovedgruppe" v="infrastruktur" />
		<tag k="ssr:stedsnr" v="1064205" />
		<tag k="ssr:type" v="adressenavn" />
	</node>
	<node lat="59.56282461912757" lon="11.32559326153861" id="-30970">
		<tag k="name" v="Tittutveien" />
		<tag k="ssr:date" v="2019-12-27" />
		<tag k="ssr:gruppe" v="veg" />
		<tag k="ssr:hovedgruppe" v="infrastruktur" />
		<tag k="ssr:stedsnr" v="1064207" />
		<tag k="ssr:type" v="adressenavn" />
	</node>
	<node lat="59.46664788969075" lon="11.379474398262278" id="-30971">
		<tag k="name" v="Sørbyveien" />
		<tag k="ssr:date" v="2019-12-27" />
		<tag k="ssr:gruppe" v="veg" />
		<tag k="ssr:hovedgruppe" v="infrastruktur" />
		<tag k="ssr:stedsnr" v="1064209" />
		<tag k="ssr:type" v="adressenavn" />
	</node>
	<node lat="59.581655563314754" lon="11.171195333430086" id="-30972">
		<tag k="name" v="Løvstien" />
		<tag k="ssr:date" v="2019-12-27" />
		<tag k="ssr:gruppe" v="veg" />
		<tag k="ssr:hovedgruppe" v="infrastruktur" />
		<tag k="ssr:stedsnr" v="1064210" />
		<tag k="ssr:type" v="adressenavn" />
	</node>
	<node lat="59.55045416390298" lon="11.33638227022053" id="-30973">
		<tag k="name" v="Søndre Mysens vei" />
		<tag k="ssr:date" v="2019-12-27" />
		<tag k="ssr:gruppe" v="veg" />
		<tag k="ssr:hovedgruppe" v="infrastruktur" />
		<tag k="ssr:stedsnr" v="1064212" />
		<tag k="ssr:type" v="adressenavn" />
	</node>
	<node lat="59.577647267239804" lon="11.172178253664585" id="-30974">
		<tag k="name" v="Midtveien" />
		<tag k="ssr:date" v="2019-12-27" />
		<tag k="ssr:gruppe" v="veg" />
		<tag k="ssr:hovedgruppe" v="infrastruktur" />
		<tag k="ssr:stedsnr" v="1064213" />
		<tag k="ssr:type" v="adressenavn" />
	</node>
	<node lat="59.581758764372886" lon="11.17172968286923" id="-30976">
		<tag k="name" v="Magnhildrud alle" />
		<tag k="ssr:date" v="2019-12-27" />
		<tag k="ssr:gruppe" v="veg" />
		<tag k="ssr:hovedgruppe" v="infrastruktur" />
		<tag k="ssr:stedsnr" v="1064217" />
		<tag k="ssr:type" v="adressenavn" />
	</node>
	<node lat="59.46263348559659" lon="11.37789470721816" id="-30978">
		<tag k="name" v="Trømborgveien" />
		<tag k="ssr:date" v="2019-12-27" />
		<tag k="ssr:gruppe" v="veg" />
		<tag k="ssr:hovedgruppe" v="infrastruktur" />
		<tag k="ssr:stedsnr" v="1064219" />
		<tag k="ssr:type" v="adressenavn" />
	</node>
	<node lat="59.587081226149074" lon="11.134265983193336" id="-30979">
		<tag k="name" v="Myrveien" />
		<tag k="ssr:date" v="2019-12-27" />
		<tag k="ssr:gruppe" v="veg" />
		<tag k="ssr:hovedgruppe" v="infrastruktur" />
		<tag k="ssr:stedsnr" v="1064220" />
		<tag k="ssr:type" v="adressenavn" />
	</node>
	<node lat="59.52377883450745" lon="11.24957737934813" id="-30981">
		<tag k="name" v="Lekumveien" />
		<tag k="old_name" v="Vammaveien" />
		<tag k="ssr:date" v="2019-12-27" />
		<tag k="ssr:gruppe" v="veg" />
		<tag k="ssr:hovedgruppe" v="infrastruktur" />
		<tag k="ssr:stedsnr" v="1064224" />
		<tag k="ssr:type" v="adressenavn" />
	</node>
	<node lat="59.57646874907729" lon="11.181586636383809" id="-30982">
		<tag k="name" v="Neverstien" />
		<tag k="ssr:date" v="2019-12-27" />
		<tag k="ssr:gruppe" v="veg" />
		<tag k="ssr:hovedgruppe" v="infrastruktur" />
		<tag k="ssr:stedsnr" v="1064225" />
		<tag k="ssr:type" v="adressenavn" />
	</node>
	<node lat="59.57197283084118" lon="11.163719818634293" id="-30984">
		<tag k="name" v="Moenstubben" />
		<tag k="ssr:date" v="2019-12-27" />
		<tag k="ssr:gruppe" v="veg" />
		<tag k="ssr:hovedgruppe" v="infrastruktur" />
		<tag k="ssr:stedsnr" v="1064229" />
		<tag k="ssr:type" v="adressenavn" />
	</node>
	<node lat="59.58961283849865" lon="11.179676978868203" id="-30986">
		<tag k="name" v="Museumsveien" />
		<tag k="ssr:date" v="2019-12-27" />
		<tag k="ssr:gruppe" v="veg" />
		<tag k="ssr:hovedgruppe" v="infrastruktur" />
		<tag k="ssr:stedsnr" v="1064232" />
		<tag k="ssr:type" v="adressenavn" />
	</node>
	<node lat="59.54351947277414" lon="11.306655607518527" id="-30988">
		<tag k="name" v="Trond Prest vei" />
		<tag k="ssr:date" v="2019-12-27" />
		<tag k="ssr:gruppe" v="veg" />
		<tag k="ssr:hovedgruppe" v="infrastruktur" />
		<tag k="ssr:stedsnr" v="1064234" />
		<tag k="ssr:type" v="adressenavn" />
	</node>
	<node lat="59.53969590904071" lon="11.515984201260803" id="-30989">
		<tag k="name" v="Svarverudveien" />
		<tag k="ssr:date" v="2019-12-27" />
		<tag k="ssr:gruppe" v="veg" />
		<tag k="ssr:hovedgruppe" v="infrastruktur" />
		<tag k="ssr:stedsnr" v="1064288" />
		<tag k="ssr:type" v="adressenavn" />
	</node>
	<node lat="59.548640362718345" lon="11.355958460579396" id="-30991">
		<tag k="name" v="Susebakkeveien" />
		<tag k="ssr:date" v="2019-12-27" />
		<tag k="ssr:gruppe" v="veg" />
		<tag k="ssr:hovedgruppe" v="infrastruktur" />
		<tag k="ssr:stedsnr" v="1064290" />
		<tag k="ssr:type" v="adressenavn" />
	</node>
	<node lat="59.577352020502985" lon="11.172469162605143" id="-30992">
		<tag k="name" v="Løkenveien" />
		<tag k="ssr:date" v="2019-12-27" />
		<tag k="ssr:gruppe" v="veg" />
		<tag k="ssr:hovedgruppe" v="infrastruktur" />
		<tag k="ssr:stedsnr" v="1064291" />
		<tag k="ssr:type" v="adressenavn" />
	</node>
	<node lat="59.58613301999879" lon="11.160169217772689" id="-30993">
		<tag k="name" v="Prestenggata" />
		<tag k="ssr:date" v="2019-12-27" />
		<tag k="ssr:gruppe" v="veg" />
		<tag k="ssr:hovedgruppe" v="infrastruktur" />
		<tag k="ssr:stedsnr" v="1064301" />
		<tag k="ssr:type" v="adressenavn" />
	</node>
	<node lat="59.58774563839918" lon="11.183398402198693" id="-30994">
		<tag k="name" v="Rekkeveien" />
		<tag k="ssr:date" v="2019-12-27" />
		<tag k="ssr:gruppe" v="veg" />
		<tag k="ssr:hovedgruppe" v="infrastruktur" />
		<tag k="ssr:stedsnr" v="1064304" />
		<tag k="ssr:type" v="adressenavn" />
	</node>
	<node lat="59.58821415403921" lon="11.192158647343176" id="-30995">
		<tag k="name" v="Plogveien" />
		<tag k="ssr:date" v="2019-12-27" />
		<tag k="ssr:gruppe" v="veg" />
		<tag k="ssr:hovedgruppe" v="infrastruktur" />
		<tag k="ssr:stedsnr" v="1064313" />
		<tag k="ssr:type" v="adressenavn" />
	</node>
	<node lat="59.549524180942896" lon="11.502121667814853" id="-30996">
		<tag k="name" v="Åslandveien" />
		<tag k="ssr:date" v="2019-12-27" />
		<tag k="ssr:gruppe" v="veg" />
		<tag k="ssr:hovedgruppe" v="infrastruktur" />
		<tag k="ssr:stedsnr" v="1064317" />
		<tag k="ssr:type" v="adressenavn" />
	</node>
	<node lat="59.561346952127465" lon="11.14007188797404" id="-30998">
		<tag k="name" v="Skjoldenveien" />
		<tag k="ssr:date" v="2019-12-27" />
		<tag k="ssr:gruppe" v="veg" />
		<tag k="ssr:hovedgruppe" v="infrastruktur" />
		<tag k="ssr:stedsnr" v="1064341" />
		<tag k="ssr:type" v="adressenavn" />
	</node>
	<node lat="59.592761996309015" lon="11.176178875033898" id="-30999">
		<tag k="name" v="Skaugenveien" />
		<tag k="ssr:date" v="2019-12-27" />
		<tag k="ssr:gruppe" v="veg" />
		<tag k="ssr:hovedgruppe" v="infrastruktur" />
		<tag k="ssr:stedsnr" v="1064347" />
		<tag k="ssr:type" v="adressenavn" />
	</node>
	<node lat="59.588673889735624" lon="11.173629972417231" id="-31000">
		<tag k="name" v="Rognveien" />
		<tag k="ssr:date" v="2019-12-27" />
		<tag k="ssr:gruppe" v="veg" />
		<tag k="ssr:hovedgruppe" v="infrastruktur" />
		<tag k="ssr:stedsnr" v="1064350" />
		<tag k="ssr:type" v="adressenavn" />
	</node>
	<node lat="59.57980446865941" lon="11.158500995009941" id="-31001">
		<tag k="name" v="Roald Amundsens gate" />
		<tag k="ssr:date" v="2019-12-27" />
		<tag k="ssr:gruppe" v="veg" />
		<tag k="ssr:hovedgruppe" v="infrastruktur" />
		<tag k="ssr:stedsnr" v="1064353" />
		<tag k="ssr:type" v="adressenavn" />
	</node>
	<node lat="59.584529068709855" lon="11.170002921974213" id="-31002">
		<tag k="name" v="Simen Hoels gate" />
		<tag k="ssr:date" v="2019-12-27" />
		<tag k="ssr:gruppe" v="veg" />
		<tag k="ssr:hovedgruppe" v="infrastruktur" />
		<tag k="ssr:stedsnr" v="1064359" />
		<tag k="ssr:type" v="adressenavn" />
	</node>
	<node lat="59.59135103756929" lon="11.172936783252679" id="-31003">
		<tag k="name" v="Nordregate" />
		<tag k="ssr:date" v="2019-12-27" />
		<tag k="ssr:gruppe" v="veg" />
		<tag k="ssr:hovedgruppe" v="infrastruktur" />
		<tag k="ssr:stedsnr" v="1064364" />
		<tag k="ssr:type" v="adressenavn" />
	</node>
	<node lat="59.54900875242784" lon="11.320611619069437" id="-31005">
		<tag k="name" v="Vestengveien" />
		<tag k="ssr:date" v="2019-12-27" />
		<tag k="ssr:gruppe" v="veg" />
		<tag k="ssr:hovedgruppe" v="infrastruktur" />
		<tag k="ssr:stedsnr" v="1064376" />
		<tag k="ssr:type" v="adressenavn" />
	</node>
	<node lat="59.58267436439629" lon="11.14578584423679" id="-31010">
		<tag k="name" v="Nybråtveien" />
		<tag k="ssr:date" v="2019-12-27" />
		<tag k="ssr:gruppe" v="veg" />
		<tag k="ssr:hovedgruppe" v="infrastruktur" />
		<tag k="ssr:stedsnr" v="1064385" />
		<tag k="ssr:type" v="adressenavn" />
	</node>
	<node lat="59.51842317997246" lon="11.345229261002107" id="-31015">
		<tag k="name" v="Lutomtveien" />
		<tag k="old_name" v="Åssiden" />
		<tag k="ssr:date" v="2019-12-27" />
		<tag k="ssr:gruppe" v="veg" />
		<tag k="ssr:hovedgruppe" v="infrastruktur" />
		<tag k="ssr:stedsnr" v="1064329" />
		<tag k="ssr:type" v="adressenavn" />
	</node>
	<node lat="59.577231257173636" lon="11.185684676099193" id="-31016">
		<tag k="name" v="Simenrudveien" />
		<tag k="ssr:date" v="2019-12-27" />
		<tag k="ssr:gruppe" v="veg" />
		<tag k="ssr:hovedgruppe" v="infrastruktur" />
		<tag k="ssr:stedsnr" v="1064335" />
		<tag k="ssr:type" v="adressenavn" />
	</node>
	<node lat="59.559829793874066" lon="11.336370107962619" id="-31017">
		<tag k="name" v="Vardeveien" />
		<tag k="ssr:date" v="2019-12-27" />
		<tag k="ssr:gruppe" v="veg" />
		<tag k="ssr:hovedgruppe" v="infrastruktur" />
		<tag k="ssr:stedsnr" v="1064389" />
		<tag k="ssr:type" v="adressenavn" />
	</node>
	<node lat="59.586641878246596" lon="11.153059734210055" id="-31018">
		<tag k="name" v="Nordliveien" />
		<tag k="ssr:date" v="2019-12-27" />
		<tag k="ssr:gruppe" v="veg" />
		<tag k="ssr:hovedgruppe" v="infrastruktur" />
		<tag k="ssr:stedsnr" v="1064396" />
		<tag k="ssr:type" v="adressenavn" />
	</node>
	<node lat="59.55657970471976" lon="11.325424041014745" id="-31019">
		<tag k="name" v="Vandugveien" />
		<tag k="ssr:date" v="2019-12-27" />
		<tag k="ssr:gruppe" v="veg" />
		<tag k="ssr:hovedgruppe" v="infrastruktur" />
		<tag k="ssr:stedsnr" v="1064408" />
		<tag k="ssr:type" v="adressenavn" />
	</node>
	<node lat="59.58021694250239" lon="11.167413340874342" id="-31021">
		<tag k="name" v="Osloveien" />
		<tag k="ssr:date" v="2019-12-27" />
		<tag k="ssr:gruppe" v="veg" />
		<tag k="ssr:hovedgruppe" v="infrastruktur" />
		<tag k="ssr:stedsnr" v="1064520" />
		<tag k="ssr:type" v="adressenavn" />
	</node>
	<node lat="59.56512341391315" lon="11.3147981096503" id="-31022">
		<tag k="name" v="Østrengveien" />
		<tag k="ssr:date" v="2019-12-27" />
		<tag k="ssr:gruppe" v="veg" />
		<tag k="ssr:hovedgruppe" v="infrastruktur" />
		<tag k="ssr:stedsnr" v="1064522" />
		<tag k="ssr:type" v="adressenavn" />
	</node>
	<node lat="59.54006449527584" lon="11.532698127872688" id="-31024">
		<tag k="name" v="Ørjeveien" />
		<tag k="ssr:date" v="2019-12-27" />
		<tag k="ssr:gruppe" v="veg" />
		<tag k="ssr:hovedgruppe" v="infrastruktur" />
		<tag k="ssr:stedsnr" v="1064528" />
		<tag k="ssr:type" v="adressenavn" />
	</node>
	<node lat="59.58721021394338" lon="11.181177103224737" id="-31026">
		<tag k="name" v="Olsrudveien" />
		<tag k="ssr:date" v="2019-12-27" />
		<tag k="ssr:gruppe" v="veg" />
		<tag k="ssr:hovedgruppe" v="infrastruktur" />
		<tag k="ssr:stedsnr" v="1064532" />
		<tag k="ssr:type" v="adressenavn" />
	</node>
	<node lat="59.577836272220075" lon="11.17469002544737" id="-31028">
		<tag k="name" v="Triangelveien" />
		<tag k="ssr:date" v="2019-12-27" />
		<tag k="ssr:gruppe" v="veg" />
		<tag k="ssr:hovedgruppe" v="infrastruktur" />
		<tag k="ssr:stedsnr" v="1064606" />
		<tag k="ssr:type" v="adressenavn" />
	</node>
	<node lat="59.5721625981076" lon="11.15949579830729" id="-31029">
		<tag k="name" v="Trekanten" />
		<tag k="ssr:date" v="2019-12-27" />
		<tag k="ssr:gruppe" v="veg" />
		<tag k="ssr:hovedgruppe" v="infrastruktur" />
		<tag k="ssr:stedsnr" v="1064614" />
		<tag k="ssr:type" v="adressenavn" />
	</node>
	<node lat="59.58390359671502" lon="11.16447810359753" id="-31030">
		<tag k="name" v="Torget" />
		<tag k="ssr:date" v="2019-12-27" />
		<tag k="ssr:gruppe" v="veg" />
		<tag k="ssr:hovedgruppe" v="infrastruktur" />
		<tag k="ssr:stedsnr" v="1064619" />
		<tag k="ssr:type" v="adressenavn" />
	</node>
	<node lat="59.5880702896834" lon="11.172150792633857" id="-31031">
		<tag k="name" v="Torgeir Bjørnaraas gate" />
		<tag k="ssr:date" v="2019-12-27" />
		<tag k="ssr:gruppe" v="veg" />
		<tag k="ssr:hovedgruppe" v="infrastruktur" />
		<tag k="ssr:stedsnr" v="1064623" />
		<tag k="ssr:type" v="adressenavn" />
	</node>
	<node lat="59.58639371687124" lon="11.14347123022915" id="-31032">
		<tag k="name" v="Tornerudkollen" />
		<tag k="ssr:date" v="2019-12-27" />
		<tag k="ssr:gruppe" v="veg" />
		<tag k="ssr:hovedgruppe" v="infrastruktur" />
		<tag k="ssr:stedsnr" v="1064627" />
		<tag k="ssr:type" v="adressenavn" />
	</node>
	<node lat="59.58608197792695" lon="11.17928536478453" id="-31039">
		<tag k="name" v="Østre Ringvei" />
		<tag k="ssr:date" v="2019-12-27" />
		<tag k="ssr:gruppe" v="veg" />
		<tag k="ssr:hovedgruppe" v="infrastruktur" />
		<tag k="ssr:stedsnr" v="1064712" />
		<tag k="ssr:type" v="adressenavn" />
	</node>
	<node lat="59.579454142819465" lon="11.177906870183941" id="-31040">
		<tag k="name" v="Østliveien" />
		<tag k="ssr:date" v="2019-12-27" />
		<tag k="ssr:gruppe" v="veg" />
		<tag k="ssr:hovedgruppe" v="infrastruktur" />
		<tag k="ssr:stedsnr" v="1064715" />
		<tag k="ssr:type" v="adressenavn" />
	</node>
	<node lat="59.592691264624335" lon="11.185458073108943" id="-31041">
		<tag k="name" v="Åslia" />
		<tag k="ssr:date" v="2019-12-27" />
		<tag k="ssr:gruppe" v="veg" />
		<tag k="ssr:hovedgruppe" v="infrastruktur" />
		<tag k="ssr:stedsnr" v="1064721" />
		<tag k="ssr:type" v="adressenavn" />
	</node>
	<node lat="59.58996011931929" lon="11.188242209849756" id="-31042">
		<tag k="name" v="Sørlia" />
		<tag k="ssr:date" v="2019-12-27" />
		<tag k="ssr:gruppe" v="veg" />
		<tag k="ssr:hovedgruppe" v="infrastruktur" />
		<tag k="ssr:stedsnr" v="1064560" />
		<tag k="ssr:type" v="adressenavn" />
	</node>
	<node lat="59.58996011931929" lon="11.188242209849756" id="-31044">
		<tag k="name" v="Sommerveien" />
		<tag k="ssr:date" v="2019-12-27" />
		<tag k="ssr:gruppe" v="veg" />
		<tag k="ssr:hovedgruppe" v="infrastruktur" />
		<tag k="ssr:stedsnr" v="1064567" />
		<tag k="ssr:type" v="adressenavn" />
	</node>
	<node lat="59.597732821067744" lon="11.183400164771133" id="-31045">
		<tag k="name" v="Stikkveien" />
		<tag k="ssr:date" v="2019-12-27" />
		<tag k="ssr:gruppe" v="veg" />
		<tag k="ssr:hovedgruppe" v="infrastruktur" />
		<tag k="ssr:stedsnr" v="1064571" />
		<tag k="ssr:type" v="adressenavn" />
	</node>
	<node lat="59.59338625255659" lon="11.179721230984246" id="-31047">
		<tag k="name" v="Sletta" />
		<tag k="ssr:date" v="2019-12-27" />
		<tag k="ssr:gruppe" v="veg" />
		<tag k="ssr:hovedgruppe" v="infrastruktur" />
		<tag k="ssr:stedsnr" v="1064636" />
		<tag k="ssr:type" v="adressenavn" />
	</node>
	<node lat="59.594120712960276" lon="11.187022411352647" id="-31048">
		<tag k="name" v="Skrenten" />
		<tag k="ssr:date" v="2019-12-27" />
		<tag k="ssr:gruppe" v="veg" />
		<tag k="ssr:hovedgruppe" v="infrastruktur" />
		<tag k="ssr:stedsnr" v="1064639" />
		<tag k="ssr:type" v="adressenavn" />
	</node>
	<node lat="59.58375251983806" lon="11.157002804569855" id="-31049">
		<tag k="name" v="Skolegata" />
		<tag k="ssr:date" v="2019-12-27" />
		<tag k="ssr:gruppe" v="veg" />
		<tag k="ssr:hovedgruppe" v="infrastruktur" />
		<tag k="ssr:stedsnr" v="1064643" />
		<tag k="ssr:type" v="adressenavn" />
	</node>
	<node lat="59.59485055660717" lon="11.184280316763566" id="-31050">
		<tag k="name" v="Skoglia" />
		<tag k="ssr:date" v="2019-12-27" />
		<tag k="ssr:gruppe" v="veg" />
		<tag k="ssr:hovedgruppe" v="infrastruktur" />
		<tag k="ssr:stedsnr" v="1064650" />
		<tag k="ssr:type" v="adressenavn" />
	</node>
	<node lat="59.58044655549463" lon="11.155084756049021" id="-31051">
		<tag k="name" v="Skogveien" />
		<tag k="ssr:date" v="2019-12-27" />
		<tag k="ssr:gruppe" v="veg" />
		<tag k="ssr:hovedgruppe" v="infrastruktur" />
		<tag k="ssr:stedsnr" v="1064656" />
		<tag k="ssr:type" v="adressenavn" />
	</node>
	<node lat="59.58208394439807" lon="11.17571355420058" id="-31052">
		<tag k="name" v="Solstadveien" />
		<tag k="ssr:date" v="2019-12-27" />
		<tag k="ssr:gruppe" v="veg" />
		<tag k="ssr:hovedgruppe" v="infrastruktur" />
		<tag k="ssr:stedsnr" v="1064665" />
		<tag k="ssr:type" v="adressenavn" />
	</node>
	<node lat="59.57940473559179" lon="11.171858708735597" id="-31053">
		<tag k="name" v="Sommerrogata" />
		<tag k="ssr:date" v="2019-12-27" />
		<tag k="ssr:gruppe" v="veg" />
		<tag k="ssr:hovedgruppe" v="infrastruktur" />
		<tag k="ssr:stedsnr" v="1064666" />
		<tag k="ssr:type" v="adressenavn" />
	</node>
	<node lat="59.58546608284966" lon="11.18374102373146" id="-31054">
		<tag k="name" v="Solåsen" />
		<tag k="ssr:date" v="2019-12-27" />
		<tag k="ssr:gruppe" v="veg" />
		<tag k="ssr:hovedgruppe" v="infrastruktur" />
		<tag k="ssr:stedsnr" v="1064669" />
		<tag k="ssr:type" v="adressenavn" />
	</node>
	<node lat="59.58448986840827" lon="11.163235493859924" id="-31055">
		<tag k="name" v="Solkroken" />
		<tag k="ssr:date" v="2019-12-27" />
		<tag k="ssr:gruppe" v="veg" />
		<tag k="ssr:hovedgruppe" v="infrastruktur" />
		<tag k="ssr:stedsnr" v="1064675" />
		<tag k="ssr:type" v="adressenavn" />
	</node>
	<node lat="59.58824605733013" lon="11.14187658221693" id="-31056">
		<tag k="name" v="Sollia" />
		<tag k="ssr:date" v="2019-12-27" />
		<tag k="ssr:gruppe" v="veg" />
		<tag k="ssr:hovedgruppe" v="infrastruktur" />
		<tag k="ssr:stedsnr" v="1064680" />
		<tag k="ssr:type" v="adressenavn" />
	</node>
	<node lat="59.57621018484942" lon="11.180237228085545" id="-31057">
		<tag k="name" v="Tyriveien" />
		<tag k="ssr:date" v="2019-12-27" />
		<tag k="ssr:gruppe" v="veg" />
		<tag k="ssr:hovedgruppe" v="infrastruktur" />
		<tag k="ssr:stedsnr" v="1064758" />
		<tag k="ssr:type" v="adressenavn" />
	</node>
	<node lat="59.58875510546055" lon="11.189394226456182" id="-31058">
		<tag k="name" v="Vårveien" />
		<tag k="ssr:date" v="2019-12-27" />
		<tag k="ssr:gruppe" v="veg" />
		<tag k="ssr:hovedgruppe" v="infrastruktur" />
		<tag k="ssr:stedsnr" v="1064789" />
		<tag k="ssr:type" v="adressenavn" />
	</node>
	<node lat="59.57755486644737" lon="11.164746224805587" id="-31059">
		<tag k="name" v="Wergelandsveien" />
		<tag k="ssr:date" v="2019-12-27" />
		<tag k="ssr:gruppe" v="veg" />
		<tag k="ssr:hovedgruppe" v="infrastruktur" />
		<tag k="ssr:stedsnr" v="1064796" />
		<tag k="ssr:type" v="adressenavn" />
	</node>
	<node lat="59.58086662356829" lon="11.140109623400253" id="-31061">
		<tag k="name" v="Vestliveien" />
		<tag k="ssr:date" v="2019-12-27" />
		<tag k="ssr:gruppe" v="veg" />
		<tag k="ssr:hovedgruppe" v="infrastruktur" />
		<tag k="ssr:stedsnr" v="1064805" />
		<tag k="ssr:type" v="adressenavn" />
	</node>
	<node lat="59.53806084562192" lon="11.16776107374115" id="-31063">
		<tag k="name" v="Vammaveien" />
		<tag k="ssr:date" v="2019-12-27" />
		<tag k="ssr:gruppe" v="veg" />
		<tag k="ssr:hovedgruppe" v="infrastruktur" />
		<tag k="ssr:stedsnr" v="1064768" />
		<tag k="ssr:type" v="adressenavn" />
	</node>
	<node lat="59.58968512100776" lon="11.195953938004578" id="-31064">
		<tag k="name" v="Trippestadlia" />
		<tag k="ssr:date" v="2019-12-27" />
		<tag k="ssr:gruppe" v="veg" />
		<tag k="ssr:hovedgruppe" v="infrastruktur" />
		<tag k="ssr:stedsnr" v="1064776" />
		<tag k="ssr:type" v="adressenavn" />
	</node>
	<node lat="59.58986820510368" lon="11.18251844200975" id="-31065">
		<tag k="name" v="Tunbo" />
		<tag k="ssr:date" v="2019-12-27" />
		<tag k="ssr:gruppe" v="veg" />
		<tag k="ssr:hovedgruppe" v="infrastruktur" />
		<tag k="ssr:stedsnr" v="1064779" />
		<tag k="ssr:type" v="adressenavn" />
	</node>
	<node lat="59.583784275108435" lon="11.163355129712388" id="-31066">
		<tag k="name" v="Trøgstadveien" />
		<tag k="ssr:date" v="2019-12-27" />
		<tag k="ssr:gruppe" v="veg" />
		<tag k="ssr:hovedgruppe" v="infrastruktur" />
		<tag k="ssr:stedsnr" v="1064784" />
		<tag k="ssr:type" v="adressenavn" />
	</node>
	<node lat="59.628259036733894" lon="10.925543578315654" id="-31079">
		<tag k="name" v="Ambjørnrudveien" />
		<tag k="ssr:date" v="2020-02-13" />
		<tag k="ssr:gruppe" v="veg" />
		<tag k="ssr:hovedgruppe" v="infrastruktur" />
		<tag k="ssr:stedsnr" v="1075108" />
		<tag k="ssr:type" v="adressenavn" />
	</node>
	<node lat="59.671950943734174" lon="11.128274577181203" id="-31127">
		<tag k="name" v="Vøyentangen" />
		<tag k="ssr:date" v="2020-09-29" />
		<tag k="ssr:gruppe" v="veg" />
		<tag k="ssr:hovedgruppe" v="infrastruktur" />
		<tag k="ssr:stedsnr" v="1078405" />
		<tag k="ssr:type" v="adressenavn" />
	</node>
	<node lat="59.679958046827274" lon="11.088371699762464" id="-31128">
		<tag k="name" v="Haukenesveien" />
		<tag k="ssr:date" v="2020-09-29" />
		<tag k="ssr:gruppe" v="veg" />
		<tag k="ssr:hovedgruppe" v="infrastruktur" />
		<tag k="ssr:stedsnr" v="1078406" />
		<tag k="ssr:type" v="adressenavn" />
	</node>
	<node lat="59.67185775632542" lon="11.132353196367632" id="-31129">
		<tag k="name" v="Lysefjellveien" />
		<tag k="ssr:date" v="2020-09-29" />
		<tag k="ssr:gruppe" v="veg" />
		<tag k="ssr:hovedgruppe" v="infrastruktur" />
		<tag k="ssr:stedsnr" v="1078407" />
		<tag k="ssr:type" v="adressenavn" />
	</node>
	<node lat="59.681261170598596" lon="11.069055063017853" id="-31131">
		<tag k="name" v="Vatnveien" />
		<tag k="ssr:date" v="2020-12-22" />
		<tag k="ssr:gruppe" v="veg" />
		<tag k="ssr:hovedgruppe" v="infrastruktur" />
		<tag k="ssr:stedsnr" v="1079465" />
		<tag k="ssr:type" v="adressenavn" />
	</node>
</osm>
