<?xml version="1.0" encoding="UTF-8"?>
<osm version="0.6" generator="osmapis">
	<node id="86027469" lat="62.6236016" lon="7.0895764" version="6" timestamp="2022-08-11T06:02:49Z" changeset="124758290" uid="3497659" user="NKA">
		<tag k="name" v="Vestnes" />
		<tag k="place" v="village" />
		<tag k="population" v="2443" />
		<tag k="population:date" v="2021-01-01" />
		<tag k="ref:ssb_tettsted" v="6182" />
		<tag k="source:population" v="SSB - befolkning i tettstedet" />
		<tag k="ssr:stedsnr" v="618953" />
	</node>
	<node id="173904257" lat="62.5223664" lon="7.1295147" version="4" timestamp="2022-08-11T06:02:49Z" changeset="124758290" uid="3497659" user="NKA">
		<tag k="alt_name" v="Tresfjord" />
		<tag k="name" v="Tresfjorden" />
		<tag k="place" v="village" />
		<tag k="population" v="220" />
		<tag k="population:date" v="2021-01-01" />
		<tag k="ref:ssb_tettsted" v="6185" />
		<tag k="source:population" v="SSB - befolkning i tettstedet" />
		<tag k="ssr:stedsnr" v="801788" />
	</node>
	<node id="544929452" lat="62.5763493" lon="7.1022078" version="6" timestamp="2022-01-26T07:34:57Z" changeset="116611763" uid="3497659" user="NKA">
		<tag k="junction" v="yes" />
		<tag k="name" v="Kjelbotnskiftet" />
		<tag k="ssr:stedsnr" v="824819" />
	</node>
	<node id="925748514" lat="62.5839636" lon="7.1047774" version="7" timestamp="2022-01-26T07:34:57Z" changeset="116611763" uid="3497659" user="NKA">
		<tag k="junction" v="yes" />
		<tag k="name" v="Brastadskiftet" />
		<tag k="ssr:stedsnr" v="884759" />
	</node>
	<node id="1111708322" lat="62.6464088" lon="7.083914" version="2" timestamp="2022-08-11T06:02:49Z" changeset="124758290" uid="3497659" user="NKA">
		<tag k="name" v="Furneset" />
		<tag k="place" v="hamlet" />
		<tag k="ssr:stedsnr" v="922013" />
	</node>
	<node id="2967370803" lat="62.6385592" lon="6.9147295" version="3" timestamp="2022-01-26T07:34:57Z" changeset="116611763" uid="3497659" user="NKA">
		<tag k="junction" v="yes" />
		<tag k="name" v="Neråsskiftet" />
		<tag k="ssr:stedsnr" v="459956" />
	</node>
	<node id="3012041885" lat="62.5762111" lon="7.1174223" version="3" timestamp="2022-08-11T06:02:49Z" changeset="124758290" uid="3497659" user="NKA">
		<tag k="name" v="Skorgenes" />
		<tag k="place" v="neighbourhood" />
		<tag k="ssr:stedsnr" v="363219" />
	</node>
	<node id="3719122176" lat="62.4846654" lon="7.171021" version="2" timestamp="2022-08-11T06:02:49Z" changeset="124758290" uid="3497659" user="NKA">
		<tag k="name" v="Øvstedalen" />
		<tag k="place" v="hamlet" />
		<tag k="ssr:stedsnr" v="435372" />
	</node>
	<node id="4288059594" lat="62.6131064" lon="7.1454188" version="4" timestamp="2022-08-11T06:02:49Z" changeset="124758290" uid="3497659" user="NKA">
		<tag k="name" v="Vikebukt" />
		<tag k="place" v="village" />
		<tag k="population" v="234" />
		<tag k="population:date" v="2021-01-01" />
		<tag k="ref:ssb_tettsted" v="6186" />
		<tag k="source:population" v="SSB - befolkning i tettstedet" />
		<tag k="ssr:stedsnr" v="861945" />
	</node>
	<node id="4902155737" lat="62.6514103" lon="6.7577481" version="2" timestamp="2022-08-11T06:02:49Z" changeset="124758290" uid="3497659" user="NKA">
		<tag k="name" v="Rekdal" />
		<tag k="place" v="hamlet" />
		<tag k="ssr:stedsnr" v="193062" />
	</node>
	<node id="4902155755" lat="62.6444968" lon="6.7225442" version="2" timestamp="2022-08-11T06:02:49Z" changeset="124758290" uid="3497659" user="NKA">
		<tag k="name" v="Birkeland" />
		<tag k="place" v="hamlet" />
		<tag k="ssr:stedsnr" v="132054" />
	</node>
	<node id="4902155760" lat="62.6191612" lon="6.8532833" version="5" timestamp="2022-08-11T06:02:49Z" changeset="124758290" uid="3497659" user="NKA">
		<tag k="alt_name" v="Fiksdal" />
		<tag k="name" v="Fiksdalen" />
		<tag k="place" v="village" />
		<tag k="population" v="246" />
		<tag k="population:date" v="2021-01-01" />
		<tag k="ref:ssb_tettsted" v="6184" />
		<tag k="source:population" v="SSB - befolkning i tettstedet" />
		<tag k="ssr:stedsnr" v="72023" />
	</node>
	<node id="4902202888" lat="62.584113" lon="6.9328515" version="2" timestamp="2022-08-11T06:02:49Z" changeset="124758290" uid="3497659" user="NKA">
		<tag k="name" v="Tomrefjord" />
		<tag k="old_name" v="Tomra" />
		<tag k="place" v="village" />
		<tag k="population" v="1113" />
		<tag k="population:date" v="2021-01-01" />
		<tag k="ref:ssb_tettsted" v="6181" />
		<tag k="source:population" v="SSB - befolkning i tettstedet" />
		<tag k="ssr:stedsnr" v="922887" />
	</node>
	<node id="4903467188" lat="62.6241183" lon="6.7692189" version="2" timestamp="2022-08-11T06:02:49Z" changeset="124758290" uid="3497659" user="NKA">
		<tag k="historic" v="shieling" />
		<tag k="name" v="Rekdalssetra" />
		<tag k="place" v="hamlet" />
		<tag k="ssr:stedsnr" v="437023" />
	</node>
	<node id="6216715398" lat="62.6058725" lon="7.3161009" version="2" timestamp="2022-08-11T06:02:49Z" changeset="124758290" uid="3497659" user="NKA">
		<tag k="name" v="Vågstranda" />
		<tag k="place" v="quarter" />
		<tag k="ssr:stedsnr" v="844436" />
	</node>
	<node id="7566113869" lat="62.6483112" lon="6.9347168" version="2" timestamp="2022-08-11T06:02:49Z" changeset="124758290" uid="3497659" user="NKA">
		<tag k="name" v="Naustbakken" />
		<tag k="place" v="farm" />
		<tag k="ssr:stedsnr" v="72051" />
	</node>
	<node id="7566113871" lat="62.6508426" lon="6.9399215" version="2" timestamp="2022-08-11T06:02:49Z" changeset="124758290" uid="3497659" user="NKA">
		<tag k="name" v="Søgard" />
		<tag k="place" v="locality" />
		<tag k="ssr:stedsnr" v="459622" />
	</node>
	<node id="7804555576" lat="62.5733251" lon="7.3758807" version="2" timestamp="2022-08-11T06:02:49Z" changeset="124758290" uid="3497659" user="NKA">
		<tag k="name" v="Farkvam" />
		<tag k="place" v="hamlet" />
		<tag k="ssr:stedsnr" v="618516" />
	</node>
	<node id="7804555729" lat="62.5850527" lon="7.2945446" version="2" timestamp="2022-08-11T06:02:49Z" changeset="124758290" uid="3497659" user="NKA">
		<tag k="historic" v="shieling" />
		<tag k="name" v="Reistadsetra" />
		<tag k="place" v="isolated_dwelling" />
		<tag k="ssr:stedsnr" v="740597" />
	</node>
	<node id="7808287267" lat="62.6011231" lon="7.2968214" version="2" timestamp="2022-08-11T06:02:49Z" changeset="124758290" uid="3497659" user="NKA">
		<tag k="name" v="Knutgarden" />
		<tag k="place" v="farm" />
		<tag k="ssr:stedsnr" v="21657" />
	</node>
	<node id="7811747042" lat="62.5865741" lon="7.2391515" version="2" timestamp="2022-08-11T06:02:49Z" changeset="124758290" uid="3497659" user="NKA">
		<tag k="historic" v="shieling" />
		<tag k="name" v="Skålsetra" />
		<tag k="place" v="isolated_dwelling" />
		<tag k="ssr:stedsnr" v="801595" />
	</node>
	<node id="9946522440" lat="62.6501821" lon="6.7486683" version="1" timestamp="2022-08-11T06:02:49Z" changeset="124758290" uid="3497659" user="NKA">
		<tag k="alt_name" v="Gjerda" />
		<tag k="name" v="Gjerdet" />
		<tag k="place" v="farm" />
		<tag k="ssr:stedsnr" v="156518" />
	</node>
	<node id="9946522441" lat="62.6025852" lon="7.2963854" version="1" timestamp="2022-08-11T06:02:49Z" changeset="124758290" uid="3497659" user="NKA">
		<tag k="name" v="Øvre Reistad" />
		<tag k="place" v="farm" />
		<tag k="ssr:stedsnr" v="194533" />
	</node>
	<node id="9946522442" lat="62.6083445" lon="7.2773196" version="1" timestamp="2022-08-11T06:02:49Z" changeset="124758290" uid="3497659" user="NKA">
		<tag k="name" v="Hola" />
		<tag k="place" v="locality" />
		<tag k="ssr:stedsnr" v="886078" />
	</node>
	<node id="9946522443" lat="62.6357167" lon="6.786264" version="1" timestamp="2022-08-11T06:02:49Z" changeset="124758290" uid="3497659" user="NKA">
		<tag k="historic" v="shieling" />
		<tag k="name" v="Gjelsteinsetra" />
		<tag k="place" v="isolated_dwelling" />
		<tag k="ssr:stedsnr" v="254016" />
	</node>
	<node id="9946522444" lat="62.6520722" lon="6.7649585" version="1" timestamp="2022-08-11T06:02:49Z" changeset="124758290" uid="3497659" user="NKA">
		<tag k="name" v="Storheim" />
		<tag k="place" v="farm" />
		<tag k="ssr:stedsnr" v="11042" />
	</node>
	<node id="9946522445" lat="62.6427861" lon="6.7118807" version="1" timestamp="2022-08-11T06:02:49Z" changeset="124758290" uid="3497659" user="NKA">
		<tag k="name" v="Strupen" />
		<tag k="place" v="isolated_dwelling" />
		<tag k="ssr:stedsnr" v="232762" />
	</node>
	<node id="9946522446" lat="62.5993248" lon="7.3317013" version="1" timestamp="2022-08-11T06:02:49Z" changeset="124758290" uid="3497659" user="NKA">
		<tag k="name" v="Bjørke" />
		<tag k="place" v="hamlet" />
		<tag k="ssr:stedsnr" v="861563" />
	</node>
	<node id="9946522447" lat="62.6443694" lon="6.7193307" version="1" timestamp="2022-08-11T06:02:49Z" changeset="124758290" uid="3497659" user="NKA">
		<tag k="name" v="Myrane" />
		<tag k="place" v="farm" />
		<tag k="ssr:stedsnr" v="111755" />
	</node>
	<node id="9946522448" lat="62.5762167" lon="6.9209752" version="1" timestamp="2022-08-11T06:02:49Z" changeset="124758290" uid="3497659" user="NKA">
		<tag k="name" v="Litle Tomra" />
		<tag k="place" v="farm" />
		<tag k="ssr:stedsnr" v="702924" />
	</node>
	<node id="9946522449" lat="62.6432389" lon="6.7148112" version="1" timestamp="2022-08-11T06:02:49Z" changeset="124758290" uid="3497659" user="NKA">
		<tag k="name" v="Sørgarden" />
		<tag k="place" v="farm" />
		<tag k="ssr:stedsnr" v="861446" />
	</node>
	<node id="9946522450" lat="62.6468305" lon="6.7404701" version="1" timestamp="2022-08-11T06:02:49Z" changeset="124758290" uid="3497659" user="NKA">
		<tag k="name" v="Hansgarden" />
		<tag k="place" v="farm" />
		<tag k="ssr:stedsnr" v="34488" />
	</node>
	<node id="9946522451" lat="62.6038139" lon="6.9323752" version="1" timestamp="2022-08-11T06:02:49Z" changeset="124758290" uid="3497659" user="NKA">
		<tag k="name" v="Bårsnes" />
		<tag k="place" v="farm" />
		<tag k="ssr:stedsnr" v="485431" />
	</node>
	<node id="9946522452" lat="62.5749746" lon="6.9208723" version="1" timestamp="2022-08-11T06:02:49Z" changeset="124758290" uid="3497659" user="NKA">
		<tag k="name" v="Tomra" />
		<tag k="place" v="hamlet" />
		<tag k="ssr:stedsnr" v="315910" />
	</node>
	<node id="9946522453" lat="62.6431806" lon="6.9162446" version="1" timestamp="2022-08-11T06:02:49Z" changeset="124758290" uid="3497659" user="NKA">
		<tag k="name" v="Lyngheim" />
		<tag k="place" v="farm" />
		<tag k="ssr:stedsnr" v="557008" />
	</node>
	<node id="9946522454" lat="62.5515806" lon="6.8654862" version="1" timestamp="2022-08-11T06:02:49Z" changeset="124758290" uid="3497659" user="NKA">
		<tag k="name" v="Jostølen" />
		<tag k="place" v="isolated_dwelling" />
		<tag k="ssr:stedsnr" v="496901" />
	</node>
	<node id="9946522455" lat="62.5990776" lon="6.8969317" version="1" timestamp="2022-08-11T06:02:49Z" changeset="124758290" uid="3497659" user="NKA">
		<tag k="name" v="Fiksdalsstranda" />
		<tag k="place" v="hamlet" />
		<tag k="ssr:stedsnr" v="254936" />
	</node>
	<node id="9946522456" lat="62.6049805" lon="6.8868084" version="1" timestamp="2022-08-11T06:02:49Z" changeset="124758290" uid="3497659" user="NKA">
		<tag k="name" v="Lia" />
		<tag k="place" v="farm" />
		<tag k="ssr:stedsnr" v="314924" />
	</node>
	<node id="9946522457" lat="62.643681" lon="6.9113421" version="1" timestamp="2022-08-11T06:02:49Z" changeset="124758290" uid="3497659" user="NKA">
		<tag k="name" v="Neset" />
		<tag k="place" v="farm" />
		<tag k="ssr:stedsnr" v="338480" />
	</node>
	<node id="9946522458" lat="62.6179915" lon="6.8392307" version="1" timestamp="2022-08-11T06:02:49Z" changeset="124758290" uid="3497659" user="NKA">
		<tag k="name" v="Nakken" />
		<tag k="place" v="hamlet" />
		<tag k="ssr:stedsnr" v="303123" />
	</node>
	<node id="9946522459" lat="62.5994182" lon="6.9279962" version="1" timestamp="2022-08-11T06:02:49Z" changeset="124758290" uid="3497659" user="NKA">
		<tag k="alt_name" v="Li" />
		<tag k="name" v="Klasgarden" />
		<tag k="place" v="farm" />
		<tag k="ssr:stedsnr" v="34823" />
	</node>
	<node id="9946522460" lat="62.653324" lon="7.0361353" version="1" timestamp="2022-08-11T06:02:49Z" changeset="124758290" uid="3497659" user="NKA">
		<tag k="name" v="Faksen" />
		<tag k="place" v="farm" />
		<tag k="ssr:stedsnr" v="922017" />
	</node>
	<node id="9946522461" lat="62.6388116" lon="6.9144264" version="1" timestamp="2022-08-11T06:02:49Z" changeset="124758290" uid="3497659" user="NKA">
		<tag k="name" v="Ytregarden" />
		<tag k="place" v="farm" />
		<tag k="ssr:stedsnr" v="95478" />
	</node>
	<node id="9946522462" lat="62.6254389" lon="6.9639195" version="1" timestamp="2022-08-11T06:02:49Z" changeset="124758290" uid="3497659" user="NKA">
		<tag k="name" v="Sinderhaug" />
		<tag k="place" v="farm" />
		<tag k="ssr:stedsnr" v="740946" />
	</node>
	<node id="9946522463" lat="62.6436361" lon="6.9113946" version="1" timestamp="2022-08-11T06:02:49Z" changeset="124758290" uid="3497659" user="NKA">
		<tag k="name" v="Nordheim" />
		<tag k="place" v="farm" />
		<tag k="ssr:stedsnr" v="12017" />
	</node>
	<node id="9946522464" lat="62.6174" lon="6.9532612" version="1" timestamp="2022-08-11T06:02:49Z" changeset="124758290" uid="3497659" user="NKA">
		<tag k="name" v="Myrtua" />
		<tag k="place" v="farm" />
		<tag k="ssr:stedsnr" v="739929" />
	</node>
	<node id="9946522465" lat="62.6505141" lon="6.9389088" version="1" timestamp="2022-08-11T06:02:49Z" changeset="124758290" uid="3497659" user="NKA">
		<tag k="alt_name" v="Øverås-sjøen" />
		<tag k="name" v="Øveråssjøen" />
		<tag k="place" v="farm" />
		<tag k="ssr:stedsnr" v="72053" />
	</node>
	<node id="9946522466" lat="62.5475543" lon="6.880658" version="1" timestamp="2022-08-11T06:02:49Z" changeset="124758290" uid="3497659" user="NKA">
		<tag k="alt_name" v="Bygdesetra" />
		<tag k="historic" v="shieling" />
		<tag k="name" v="Bygdasetra" />
		<tag k="place" v="hamlet" />
		<tag k="ssr:stedsnr" v="861915" />
	</node>
	<node id="9946522467" lat="62.5837305" lon="6.7910236" version="1" timestamp="2022-08-11T06:02:49Z" changeset="124758290" uid="3497659" user="NKA">
		<tag k="historic" v="shieling" />
		<tag k="name" v="Nakkesetra" />
		<tag k="place" v="isolated_dwelling" />
		<tag k="ssr:stedsnr" v="254967" />
	</node>
	<node id="9946522468" lat="62.6399599" lon="6.8181918" version="1" timestamp="2022-08-11T06:02:49Z" changeset="124758290" uid="3497659" user="NKA">
		<tag k="name" v="Gjelstein" />
		<tag k="place" v="hamlet" />
		<tag k="ssr:stedsnr" v="679020" />
	</node>
	<node id="9946522469" lat="62.6384389" lon="6.915039" version="1" timestamp="2022-08-11T06:02:49Z" changeset="124758290" uid="3497659" user="NKA">
		<tag k="name" v="Nerås" />
		<tag k="place" v="hamlet" />
		<tag k="ssr:stedsnr" v="12015" />
	</node>
	<node id="9946522470" lat="62.588993" lon="6.9349202" version="1" timestamp="2022-08-11T06:02:49Z" changeset="124758290" uid="3497659" user="NKA">
		<tag k="alt_name" v="Løvoll" />
		<tag k="name" v="Løvollen" />
		<tag k="place" v="hamlet" />
		<tag k="ssr:stedsnr" v="193974" />
	</node>
	<node id="9946522471" lat="62.5773276" lon="6.9054541" version="1" timestamp="2022-08-11T06:02:49Z" changeset="124758290" uid="3497659" user="NKA">
		<tag k="name" v="Jogarden" />
		<tag k="place" v="farm" />
		<tag k="ssr:stedsnr" v="884472" />
	</node>
	<node id="9946522472" lat="62.5571611" lon="6.9713723" version="1" timestamp="2022-08-11T06:02:49Z" changeset="124758290" uid="3497659" user="NKA">
		<tag k="historic" v="shieling" />
		<tag k="name" v="Bakkesetra" />
		<tag k="place" v="isolated_dwelling" />
		<tag k="ssr:stedsnr" v="922919" />
	</node>
	<node id="9946522473" lat="62.6176231" lon="6.8415403" version="1" timestamp="2022-08-11T06:02:49Z" changeset="124758290" uid="3497659" user="NKA">
		<tag k="alt_name" v="Nakken;Nakken, nedre" />
		<tag k="name" v="Nedre Nakken" />
		<tag k="place" v="farm" />
		<tag k="ssr:stedsnr" v="194018" />
	</node>
	<node id="9946522474" lat="62.5554695" lon="6.8607696" version="1" timestamp="2022-08-11T06:02:49Z" changeset="124758290" uid="3497659" user="NKA">
		<tag k="historic" v="shieling" />
		<tag k="name" v="Litlestølen" />
		<tag k="place" v="isolated_dwelling" />
		<tag k="ssr:stedsnr" v="72918" />
	</node>
	<node id="9946522475" lat="62.5752077" lon="6.9094621" version="1" timestamp="2022-08-11T06:02:49Z" changeset="124758290" uid="3497659" user="NKA">
		<tag k="name" v="Frostad" />
		<tag k="place" v="hamlet" />
		<tag k="ssr:stedsnr" v="545119" />
	</node>
	<node id="9946522476" lat="62.6448751" lon="6.814635" version="1" timestamp="2022-08-11T06:02:49Z" changeset="124758290" uid="3497659" user="NKA">
		<tag k="name" v="Neset" />
		<tag k="place" v="farm" />
		<tag k="ssr:stedsnr" v="277514" />
	</node>
	<node id="9946522477" lat="62.569775" lon="7.1543116" version="1" timestamp="2022-08-11T06:02:49Z" changeset="124758290" uid="3497659" user="NKA">
		<tag k="name" v="Jonsgarden" />
		<tag k="place" v="farm" />
		<tag k="ssr:stedsnr" v="694305" />
	</node>
	<node id="9946522478" lat="62.6268782" lon="6.8433652" version="1" timestamp="2022-08-11T06:02:49Z" changeset="124758290" uid="3497659" user="NKA">
		<tag k="name" v="Haggarden" />
		<tag k="place" v="hamlet" />
		<tag k="ssr:stedsnr" v="497005" />
	</node>
	<node id="9946522479" lat="62.6005026" lon="6.921808" version="1" timestamp="2022-08-11T06:02:49Z" changeset="124758290" uid="3497659" user="NKA">
		<tag k="alt_name" v="Bårsnes" />
		<tag k="name" v="Bårdsnes" />
		<tag k="place" v="hamlet" />
		<tag k="ssr:stedsnr" v="181490" />
	</node>
	<node id="9946522480" lat="62.5147333" lon="7.1600001" version="1" timestamp="2022-08-11T06:02:49Z" changeset="124758290" uid="3497659" user="NKA">
		<tag k="historic" v="shieling" />
		<tag k="name" v="Syltesetra" />
		<tag k="place" v="isolated_dwelling" />
		<tag k="ssr:stedsnr" v="375848" />
	</node>
	<node id="9946522481" lat="62.5449808" lon="7.1478128" version="1" timestamp="2022-08-11T06:02:49Z" changeset="124758290" uid="3497659" user="NKA">
		<tag k="name" v="Indre Hoem" />
		<tag k="place" v="farm" />
		<tag k="ssr:stedsnr" v="338969" />
	</node>
	<node id="9946522482" lat="62.4834223" lon="7.0391222" version="1" timestamp="2022-08-11T06:02:49Z" changeset="124758290" uid="3497659" user="NKA">
		<tag k="historic" v="shieling" />
		<tag k="loc_name" v="Pesetra;Storlia" />
		<tag k="name" v="Perssetra" />
		<tag k="place" v="isolated_dwelling" />
		<tag k="ssr:stedsnr" v="921342" />
	</node>
	<node id="9946522483" lat="62.5097973" lon="7.1659667" version="1" timestamp="2022-08-11T06:02:49Z" changeset="124758290" uid="3497659" user="NKA">
		<tag k="historic" v="shieling" />
		<tag k="name" v="Nordigardssetra" />
		<tag k="place" v="isolated_dwelling" />
		<tag k="ssr:stedsnr" v="437829" />
	</node>
	<node id="9946522484" lat="62.5611694" lon="6.8996584" version="1" timestamp="2022-08-11T06:02:49Z" changeset="124758290" uid="3497659" user="NKA">
		<tag k="historic" v="shieling" />
		<tag k="name" v="Øvste Øygardssetra" />
		<tag k="place" v="isolated_dwelling" />
		<tag k="ssr:stedsnr" v="34500" />
	</node>
	<node id="9946522485" lat="62.6090544" lon="6.8308412" version="1" timestamp="2022-08-11T06:02:49Z" changeset="124758290" uid="3497659" user="NKA">
		<tag k="loc_name" v="Marka" />
		<tag k="name" v="Marken" />
		<tag k="place" v="farm" />
		<tag k="ssr:stedsnr" v="34490" />
	</node>
	<node id="9946522486" lat="62.5671111" lon="7.0554112" version="1" timestamp="2022-08-11T06:02:49Z" changeset="124758290" uid="3497659" user="NKA">
		<tag k="name" v="Monslevollen" />
		<tag k="place" v="locality" />
		<tag k="ssr:stedsnr" v="398779" />
	</node>
	<node id="9946522487" lat="62.5861038" lon="6.9145501" version="1" timestamp="2022-08-11T06:02:49Z" changeset="124758290" uid="3497659" user="NKA">
		<tag k="name" v="Nerhagen" />
		<tag k="place" v="farm" />
		<tag k="ssr:stedsnr" v="34475" />
	</node>
	<node id="9946522488" lat="62.6130072" lon="6.8680336" version="1" timestamp="2022-08-11T06:02:49Z" changeset="124758290" uid="3497659" user="NKA">
		<tag k="alt_name" v="Fiksdal" />
		<tag k="name" v="Fiksdalen" />
		<tag k="place" v="farm" />
		<tag k="ssr:stedsnr" v="11969" />
	</node>
	<node id="9946522489" lat="62.5124957" lon="7.1282081" version="1" timestamp="2022-08-11T06:02:49Z" changeset="124758290" uid="3497659" user="NKA">
		<tag k="name" v="Nerem" />
		<tag k="place" v="hamlet" />
		<tag k="ssr:stedsnr" v="315844" />
	</node>
	<node id="9946522490" lat="62.5361111" lon="7.0916863" version="1" timestamp="2022-08-11T06:02:49Z" changeset="124758290" uid="3497659" user="NKA">
		<tag k="historic" v="shieling" />
		<tag k="name" v="Eidhammarssetra" />
		<tag k="place" v="isolated_dwelling" />
		<tag k="ssr:stedsnr" v="315819" />
	</node>
	<node id="9946522491" lat="62.577612" lon="7.1519557" version="1" timestamp="2022-08-11T06:02:49Z" changeset="124758290" uid="3497659" user="NKA">
		<tag k="alt_name" v="Villa, ytre" />
		<tag k="name" v="Ytre Villa" />
		<tag k="place" v="hamlet" />
		<tag k="ssr:stedsnr" v="254879" />
	</node>
	<node id="9946522492" lat="62.5642063" lon="7.1543451" version="1" timestamp="2022-08-11T06:02:49Z" changeset="124758290" uid="3497659" user="NKA">
		<tag k="name" v="Daugstad" />
		<tag k="place" v="hamlet" />
		<tag k="ssr:stedsnr" v="263043" />
	</node>
	<node id="9946522493" lat="62.4971964" lon="7.1435636" version="1" timestamp="2022-08-11T06:02:49Z" changeset="124758290" uid="3497659" user="NKA">
		<tag k="name" v="Tuen" />
		<tag k="place" v="farm" />
		<tag k="ssr:stedsnr" v="277520" />
	</node>
	<node id="9946522494" lat="62.4998454" lon="7.1182714" version="1" timestamp="2022-08-11T06:02:49Z" changeset="124758290" uid="3497659" user="NKA">
		<tag k="name" v="Lindset" />
		<tag k="place" v="hamlet" />
		<tag k="ssr:stedsnr" v="314331" />
	</node>
	<node id="9946522495" lat="62.5906247" lon="7.140143" version="1" timestamp="2022-08-11T06:02:49Z" changeset="124758290" uid="3497659" user="NKA">
		<tag k="name" v="Øvre Helset" />
		<tag k="place" v="farm" />
		<tag k="ssr:stedsnr" v="824796" />
	</node>
	<node id="9946522496" lat="62.5702972" lon="7.0725807" version="1" timestamp="2022-08-11T06:02:49Z" changeset="124758290" uid="3497659" user="NKA">
		<tag k="alt_name" v="Kristisætra" />
		<tag k="name" v="Kristisetra" />
		<tag k="place" v="hamlet" />
		<tag k="ssr:stedsnr" v="254880" />
	</node>
	<node id="9946522497" lat="62.5671193" lon="7.1181937" version="1" timestamp="2022-08-11T06:02:49Z" changeset="124758290" uid="3497659" user="NKA">
		<tag k="name" v="Svinabøen" />
		<tag k="place" v="hamlet" />
		<tag k="ssr:stedsnr" v="133886" />
	</node>
	<node id="9946522498" lat="62.5528972" lon="7.1271223" version="1" timestamp="2022-08-11T06:02:49Z" changeset="124758290" uid="3497659" user="NKA">
		<tag k="name" v="Kjøpstad" />
		<tag k="place" v="hamlet" />
		<tag k="ssr:stedsnr" v="132914" />
	</node>
	<node id="9946522499" lat="62.5652476" lon="7.1185883" version="1" timestamp="2022-08-11T06:02:49Z" changeset="124758290" uid="3497659" user="NKA">
		<tag k="name" v="Bjermelandshagen" />
		<tag k="place" v="farm" />
		<tag k="ssr:stedsnr" v="945461" />
	</node>
	<node id="9946522500" lat="62.5350707" lon="7.1277715" version="1" timestamp="2022-08-11T06:02:49Z" changeset="124758290" uid="3497659" user="NKA">
		<tag k="name" v="Eidhammar" />
		<tag k="place" v="hamlet" />
		<tag k="ssr:stedsnr" v="120240" />
	</node>
	<node id="9946522501" lat="62.5943734" lon="7.3538518" version="1" timestamp="2022-08-11T06:02:49Z" changeset="124758290" uid="3497659" user="NKA">
		<tag k="name" v="Skaret" />
		<tag k="place" v="farm" />
		<tag k="ssr:stedsnr" v="810636" />
	</node>
	<node id="9946522502" lat="62.5687417" lon="7.157189" version="1" timestamp="2022-08-11T06:02:49Z" changeset="124758290" uid="3497659" user="NKA">
		<tag k="alt_name" v="Villa, indre;Villa" />
		<tag k="name" v="Indre Villa" />
		<tag k="place" v="farm" />
		<tag k="ssr:stedsnr" v="72871" />
	</node>
	<node id="9946522503" lat="62.5020028" lon="7.1243167" version="1" timestamp="2022-08-11T06:02:49Z" changeset="124758290" uid="3497659" user="NKA">
		<tag k="name" v="Kjersem" />
		<tag k="place" v="hamlet" />
		<tag k="ssr:stedsnr" v="72830" />
	</node>
	<node id="9946522504" lat="62.5427194" lon="7.1504362" version="1" timestamp="2022-08-11T06:02:49Z" changeset="124758290" uid="3497659" user="NKA">
		<tag k="alt_name" v="Fagervik" />
		<tag k="name" v="Fagervikan" />
		<tag k="place" v="farm" />
		<tag k="ssr:stedsnr" v="132829" />
	</node>
	<node id="9946522505" lat="62.6187444" lon="7.095864" version="1" timestamp="2022-08-11T06:02:49Z" changeset="124758290" uid="3497659" user="NKA">
		<tag k="name" v="Prestegardsjordet" />
		<tag k="place" v="neighbourhood" />
		<tag k="ssr:stedsnr" v="398812" />
	</node>
	<node id="9946522506" lat="62.5494305" lon="7.1521195" version="1" timestamp="2022-08-11T06:02:49Z" changeset="124758290" uid="3497659" user="NKA">
		<tag k="name" v="Jemtegard" />
		<tag k="place" v="hamlet" />
		<tag k="ssr:stedsnr" v="11846" />
	</node>
	<node id="9946522507" lat="62.4984028" lon="7.1525196" version="1" timestamp="2022-08-11T06:02:49Z" changeset="124758290" uid="3497659" user="NKA">
		<tag k="alt_name" v="Myran" />
		<tag k="name" v="Øverland" />
		<tag k="place" v="farm" />
		<tag k="ssr:stedsnr" v="71328" />
	</node>
	<node id="9946522508" lat="62.5594193" lon="7.1480961" version="1" timestamp="2022-08-11T06:02:49Z" changeset="124758290" uid="3497659" user="NKA">
		<tag k="name" v="Øyra" />
		<tag k="place" v="farm" />
		<tag k="ssr:stedsnr" v="884493" />
	</node>
	<node id="9946522509" lat="62.5536932" lon="7.1572583" version="1" timestamp="2022-08-11T06:02:49Z" changeset="124758290" uid="3497659" user="NKA">
		<tag k="alt_name" v="Gjerde" />
		<tag k="name" v="Gjerdet" />
		<tag k="place" v="farm" />
		<tag k="ssr:stedsnr" v="884486" />
	</node>
	<node id="9946522510" lat="62.6236111" lon="6.9767389" version="1" timestamp="2022-08-11T06:02:49Z" changeset="124758290" uid="3497659" user="NKA">
		<tag k="name" v="Arnestad" />
		<tag k="place" v="farm" />
		<tag k="ssr:stedsnr" v="437949" />
	</node>
	<node id="9946522511" lat="62.6273441" lon="6.9863243" version="1" timestamp="2022-08-11T06:02:49Z" changeset="124758290" uid="3497659" user="NKA">
		<tag k="name" v="Lia" />
		<tag k="place" v="farm" />
		<tag k="ssr:stedsnr" v="376965" />
	</node>
	<node id="9946522512" lat="62.5368924" lon="6.9642825" version="1" timestamp="2022-08-11T06:02:49Z" changeset="124758290" uid="3497659" user="NKA">
		<tag k="alt_name" v="Auspholen" />
		<tag k="historic" v="shieling" />
		<tag k="name" v="Auspholsætra" />
		<tag k="place" v="isolated_dwelling" />
		<tag k="ssr:stedsnr" v="375826" />
	</node>
	<node id="9946522513" lat="62.5658" lon="7.0831028" version="1" timestamp="2022-08-11T06:02:49Z" changeset="124758290" uid="3497659" user="NKA">
		<tag k="historic" v="shieling" />
		<tag k="name" v="Bøsetra" />
		<tag k="place" v="isolated_dwelling" />
		<tag k="ssr:stedsnr" v="194923" />
	</node>
	<node id="9946522514" lat="62.4788167" lon="7.1140334" version="1" timestamp="2022-08-11T06:02:49Z" changeset="124758290" uid="3497659" user="NKA">
		<tag k="historic" v="shieling" />
		<tag k="name" v="Eirsdalssetra" />
		<tag k="place" v="isolated_dwelling" />
		<tag k="ssr:stedsnr" v="739303" />
	</node>
	<node id="9946522515" lat="62.5770694" lon="7.1763139" version="1" timestamp="2022-08-11T06:02:49Z" changeset="124758290" uid="3497659" user="NKA">
		<tag k="historic" v="shieling" />
		<tag k="name" v="Villesetra" />
		<tag k="place" v="isolated_dwelling" />
		<tag k="ssr:stedsnr" v="861889" />
	</node>
	<node id="9946522516" lat="62.6186771" lon="6.939771" version="1" timestamp="2022-08-11T06:02:49Z" changeset="124758290" uid="3497659" user="NKA">
		<tag k="name" v="Sjølaupet" />
		<tag k="place" v="farm" />
		<tag k="ssr:stedsnr" v="269350" />
	</node>
	<node id="9946535117" lat="62.6125666" lon="7.0118167" version="1" timestamp="2022-08-11T06:02:49Z" changeset="124758290" uid="3497659" user="NKA">
		<tag k="name" v="Flate" />
		<tag k="place" v="hamlet" />
		<tag k="ssr:stedsnr" v="254920" />
	</node>
	<node id="9946535118" lat="62.4814167" lon="7.0356085" version="1" timestamp="2022-08-11T06:02:49Z" changeset="124758290" uid="3497659" user="NKA">
		<tag k="historic" v="shieling" />
		<tag k="name" v="Neremssetrane" />
		<tag k="place" v="isolated_dwelling" />
		<tag k="ssr:stedsnr" v="849487" />
	</node>
	<node id="9946535119" lat="62.6188667" lon="6.9831511" version="1" timestamp="2022-08-11T06:02:49Z" changeset="124758290" uid="3497659" user="NKA">
		<tag k="name" v="Sævareid" />
		<tag k="place" v="farm" />
		<tag k="ssr:stedsnr" v="72929" />
	</node>
	<node id="9946535120" lat="62.5669804" lon="7.1555257" version="1" timestamp="2022-08-11T06:02:49Z" changeset="124758290" uid="3497659" user="NKA">
		<tag k="name" v="Rabben" />
		<tag k="place" v="farm" />
		<tag k="ssr:stedsnr" v="580450" />
	</node>
	<node id="9946535121" lat="62.6133222" lon="6.9747918" version="1" timestamp="2022-08-11T06:02:49Z" changeset="124758290" uid="3497659" user="NKA">
		<tag k="name" v="Ura" />
		<tag k="place" v="hamlet" />
		<tag k="ssr:stedsnr" v="132936" />
	</node>
	<node id="9946535122" lat="62.5568805" lon="7.153925" version="1" timestamp="2022-08-11T06:02:49Z" changeset="124758290" uid="3497659" user="NKA">
		<tag k="alt_name" v="Brovold" />
		<tag k="name" v="Bruavollan" />
		<tag k="place" v="farm" />
		<tag k="ssr:stedsnr" v="641500" />
	</node>
	<node id="9946535123" lat="62.505775" lon="7.0879363" version="1" timestamp="2022-08-11T06:02:49Z" changeset="124758290" uid="3497659" user="NKA">
		<tag k="historic" v="shieling" />
		<tag k="name" v="Neremssetra" />
		<tag k="place" v="isolated_dwelling" />
		<tag k="ssr:stedsnr" v="557832" />
	</node>
	<node id="9946535124" lat="62.6334889" lon="6.9650056" version="1" timestamp="2022-08-11T06:02:49Z" changeset="124758290" uid="3497659" user="NKA">
		<tag k="name" v="Oddheim" />
		<tag k="place" v="farm" />
		<tag k="ssr:stedsnr" v="72025" />
	</node>
	<node id="9946535125" lat="62.4936862" lon="7.1514946" version="1" timestamp="2022-08-11T06:02:49Z" changeset="124758290" uid="3497659" user="NKA">
		<tag k="name" v="Rypdal" />
		<tag k="place" v="hamlet" />
		<tag k="ssr:stedsnr" v="556359" />
	</node>
	<node id="9946535126" lat="62.5021223" lon="7.14295" version="1" timestamp="2022-08-11T06:02:49Z" changeset="124758290" uid="3497659" user="NKA">
		<tag k="name" v="Hagheim" />
		<tag k="place" v="farm" />
		<tag k="ssr:stedsnr" v="459497" />
	</node>
	<node id="9946535127" lat="62.5242972" lon="6.9962529" version="1" timestamp="2022-08-11T06:02:49Z" changeset="124758290" uid="3497659" user="NKA">
		<tag k="historic" v="shieling" />
		<tag k="name" v="Iverstølen" />
		<tag k="place" v="isolated_dwelling" />
		<tag k="ssr:stedsnr" v="884091" />
	</node>
	<node id="9946535128" lat="62.5698277" lon="7.1607899" version="1" timestamp="2022-08-11T06:02:49Z" changeset="124758290" uid="3497659" user="NKA">
		<tag k="name" v="Villabøen" />
		<tag k="place" v="farm" />
		<tag k="ssr:stedsnr" v="459467" />
	</node>
	<node id="9946535129" lat="62.6178195" lon="6.9959472" version="1" timestamp="2022-08-11T06:02:49Z" changeset="124758290" uid="3497659" user="NKA">
		<tag k="name" v="Flatset" />
		<tag k="place" v="farm" />
		<tag k="ssr:stedsnr" v="11941" />
	</node>
	<node id="9946535130" lat="62.580425" lon="7.1084529" version="1" timestamp="2022-08-11T06:02:49Z" changeset="124758290" uid="3497659" user="NKA">
		<tag k="name" v="Vika" />
		<tag k="place" v="farm" />
		<tag k="ssr:stedsnr" v="315904" />
	</node>
	<node id="9946535131" lat="62.5359194" lon="7.1303889" version="1" timestamp="2022-08-11T06:02:49Z" changeset="124758290" uid="3497659" user="NKA">
		<tag k="alt_name" v="Eidhammar, yt" />
		<tag k="name" v="Ytre Eidhammar" />
		<tag k="place" v="farm" />
		<tag k="ssr:stedsnr" v="375804" />
	</node>
	<node id="9946535132" lat="62.5242972" lon="6.996189" version="1" timestamp="2022-08-11T06:02:49Z" changeset="124758290" uid="3497659" user="NKA">
		<tag k="historic" v="shieling" />
		<tag k="name" v="Måslia" />
		<tag k="place" v="isolated_dwelling" />
		<tag k="ssr:stedsnr" v="861823" />
	</node>
	<node id="9946535133" lat="62.62195" lon="6.9630669" version="1" timestamp="2022-08-11T06:02:49Z" changeset="124758290" uid="3497659" user="NKA">
		<tag k="name" v="Lunheim" />
		<tag k="place" v="farm" />
		<tag k="ssr:stedsnr" v="861955" />
	</node>
	<node id="9946535134" lat="62.5235201" lon="7.0075651" version="1" timestamp="2022-08-11T06:02:49Z" changeset="124758290" uid="3497659" user="NKA">
		<tag k="historic" v="shieling" />
		<tag k="name" v="Bøstølen" />
		<tag k="place" v="isolated_dwelling" />
		<tag k="ssr:stedsnr" v="34687" />
	</node>
	<node id="9946535135" lat="62.6349157" lon="6.9616607" version="1" timestamp="2022-08-11T06:02:49Z" changeset="124758290" uid="3497659" user="NKA">
		<tag k="name" v="Løken" />
		<tag k="place" v="farm" />
		<tag k="ssr:stedsnr" v="861026" />
	</node>
	<node id="9946535136" lat="62.5805723" lon="7.1726194" version="1" timestamp="2022-08-11T06:02:49Z" changeset="124758290" uid="3497659" user="NKA">
		<tag k="historic" v="shieling" />
		<tag k="name" v="Nedste Skjegstadsetra" />
		<tag k="place" v="isolated_dwelling" />
		<tag k="ssr:stedsnr" v="277729" />
	</node>
	<node id="9946535137" lat="62.5461905" lon="7.1498821" version="1" timestamp="2022-08-11T06:02:49Z" changeset="124758290" uid="3497659" user="NKA">
		<tag k="name" v="Ytre Hoem" />
		<tag k="place" v="farm" />
		<tag k="ssr:stedsnr" v="217537" />
	</node>
	<node id="9946535138" lat="62.4682944" lon="7.1820472" version="1" timestamp="2022-08-11T06:02:49Z" changeset="124758290" uid="3497659" user="NKA">
		<tag k="name" v="Bernstølen" />
		<tag k="place" v="locality" />
		<tag k="ssr:stedsnr" v="945737" />
	</node>
	<node id="9946535139" lat="62.5625916" lon="7.0056002" version="1" timestamp="2022-08-11T06:02:49Z" changeset="124758290" uid="3497659" user="NKA">
		<tag k="name" v="Ellingsgarden" />
		<tag k="place" v="hamlet" />
		<tag k="ssr:stedsnr" v="72914" />
	</node>
	<node id="9946535140" lat="62.5593623" lon="7.1559288" version="1" timestamp="2022-08-11T06:02:49Z" changeset="124758290" uid="3497659" user="NKA">
		<tag k="name" v="Daugstadbakken" />
		<tag k="place" v="farm" />
		<tag k="ssr:stedsnr" v="217975" />
	</node>
	<node id="9946535141" lat="62.5804695" lon="7.1712194" version="1" timestamp="2022-08-11T06:02:49Z" changeset="124758290" uid="3497659" user="NKA">
		<tag k="historic" v="shieling" />
		<tag k="name" v="Skjegstadsetra" />
		<tag k="place" v="isolated_dwelling" />
		<tag k="ssr:stedsnr" v="72865" />
	</node>
	<node id="9946535142" lat="62.5320306" lon="7.1272279" version="1" timestamp="2022-08-11T06:02:49Z" changeset="124758290" uid="3497659" user="NKA">
		<tag k="alt_name" v="Eidhammar, in" />
		<tag k="name" v="Indre Eidhammar" />
		<tag k="place" v="farm" />
		<tag k="ssr:stedsnr" v="72801" />
	</node>
	<node id="9946535143" lat="62.5050366" lon="7.1419698" version="1" timestamp="2022-08-11T06:02:49Z" changeset="124758290" uid="3497659" user="NKA">
		<tag k="name" v="Rypdalshagen" />
		<tag k="place" v="farm" />
		<tag k="ssr:stedsnr" v="217544" />
	</node>
	<node id="9946535144" lat="62.522" lon="7.1249972" version="1" timestamp="2022-08-11T06:02:49Z" changeset="124758290" uid="3497659" user="NKA">
		<tag k="name" v="Bøen" />
		<tag k="place" v="farm" />
		<tag k="ssr:stedsnr" v="34494" />
	</node>
	<node id="9946535145" lat="62.5945887" lon="7.3546943" version="1" timestamp="2022-08-11T06:02:49Z" changeset="124758290" uid="3497659" user="NKA">
		<tag k="alt_name" v="Skaret" />
		<tag k="name" v="Brudeskaret" />
		<tag k="place" v="farm" />
		<tag k="ssr:stedsnr" v="194547" />
	</node>
	<node id="9946535146" lat="62.5811445" lon="7.086775" version="1" timestamp="2022-08-11T06:02:49Z" changeset="124758290" uid="3497659" user="NKA">
		<tag k="historic" v="shieling" />
		<tag k="name" v="Brastadsetra" />
		<tag k="place" v="isolated_dwelling" />
		<tag k="ssr:stedsnr" v="436898" />
	</node>
	<node id="9946535147" lat="62.6058528" lon="7.3003918" version="1" timestamp="2022-08-11T06:02:49Z" changeset="124758290" uid="3497659" user="NKA">
		<tag k="name" v="Nedre Reistad" />
		<tag k="place" v="farm" />
		<tag k="ssr:stedsnr" v="436571" />
	</node>
	<node id="9946535148" lat="62.5257283" lon="7.121682" version="1" timestamp="2022-08-11T06:02:49Z" changeset="124758290" uid="3497659" user="NKA">
		<tag k="name" v="Langegjerdet" />
		<tag k="place" v="farm" />
		<tag k="ssr:stedsnr" v="34072" />
	</node>
	<node id="9946535149" lat="62.5853587" lon="7.1475574" version="1" timestamp="2022-08-11T06:02:49Z" changeset="124758290" uid="3497659" user="NKA">
		<tag k="name" v="Gjerdet" />
		<tag k="place" v="farm" />
		<tag k="ssr:stedsnr" v="398478" />
	</node>
	<node id="9946535150" lat="62.5950408" lon="7.1386821" version="1" timestamp="2022-08-11T06:02:49Z" changeset="124758290" uid="3497659" user="NKA">
		<tag k="name" v="Nedre Helset" />
		<tag k="place" v="farm" />
		<tag k="ssr:stedsnr" v="338448" />
	</node>
	<node id="9946535151" lat="62.583065" lon="7.3576329" version="1" timestamp="2022-08-11T06:02:49Z" changeset="124758290" uid="3497659" user="NKA">
		<tag k="name" v="Høgreiten" />
		<tag k="place" v="farm" />
		<tag k="ssr:stedsnr" v="400601" />
	</node>
	<node id="9946535152" lat="62.5181194" lon="7.0706473" version="1" timestamp="2022-08-11T06:02:49Z" changeset="124758290" uid="3497659" user="NKA">
		<tag k="name" v="Nysetra" />
		<tag k="place" v="locality" />
		<tag k="ssr:stedsnr" v="702668" />
	</node>
	<node id="9946535153" lat="62.6324667" lon="7.0271029" version="1" timestamp="2022-08-11T06:02:49Z" changeset="124758290" uid="3497659" user="NKA">
		<tag k="name" v="Sørås" />
		<tag k="place" v="hamlet" />
		<tag k="ssr:stedsnr" v="801029" />
	</node>
	<node id="9946535154" lat="62.6311194" lon="7.0808446" version="1" timestamp="2022-08-11T06:02:49Z" changeset="124758290" uid="3497659" user="NKA">
		<tag k="name" v="Kvalvika" />
		<tag k="place" v="farm" />
		<tag k="ssr:stedsnr" v="254021" />
	</node>
	<node id="9946535155" lat="62.5651666" lon="7.156689" version="1" timestamp="2022-08-11T06:02:49Z" changeset="124758290" uid="3497659" user="NKA">
		<tag k="name" v="Saltbuvollen" />
		<tag k="place" v="locality" />
		<tag k="ssr:stedsnr" v="398733" />
	</node>
	<node id="9946535156" lat="62.6203146" lon="7.0880971" version="1" timestamp="2022-08-11T06:02:49Z" changeset="124758290" uid="3497659" user="NKA">
		<tag k="name" v="Øvre Helland" />
		<tag k="place" v="locality" />
		<tag k="ssr:stedsnr" v="242080" />
	</node>
	<node id="9946535157" lat="62.5941278" lon="7.0828807" version="1" timestamp="2022-08-11T06:02:49Z" changeset="124758290" uid="3497659" user="NKA">
		<tag k="historic" v="shieling" />
		<tag k="name" v="Øygardssetra" />
		<tag k="place" v="isolated_dwelling" />
		<tag k="ssr:stedsnr" v="254952" />
	</node>
	<node id="9946535158" lat="62.6102583" lon="7.1518918" version="1" timestamp="2022-08-11T06:02:49Z" changeset="124758290" uid="3497659" user="NKA">
		<tag k="name" v="Vikegjerda" />
		<tag k="place" v="locality" />
		<tag k="ssr:stedsnr" v="95816" />
	</node>
	<node id="9946535159" lat="62.6213333" lon="7.0925333" version="1" timestamp="2022-08-11T06:02:49Z" changeset="124758290" uid="3497659" user="NKA">
		<tag k="name" v="Helland" />
		<tag k="place" v="quarter" />
		<tag k="ssr:stedsnr" v="132939" />
	</node>
	<node id="9946535160" lat="62.6332189" lon="7.0489714" version="1" timestamp="2022-08-11T06:02:49Z" changeset="124758290" uid="3497659" user="NKA">
		<tag k="name" v="Åsbygda" />
		<tag k="place" v="hamlet" />
		<tag k="ssr:stedsnr" v="801026" />
	</node>
	<node id="9946535161" lat="62.6066222" lon="7.0988945" version="1" timestamp="2022-08-11T06:02:49Z" changeset="124758290" uid="3497659" user="NKA">
		<tag k="name" v="Salthammaren" />
		<tag k="place" v="hamlet" />
		<tag k="ssr:stedsnr" v="11990" />
	</node>
	<node id="9946535162" lat="62.5810563" lon="6.9111994" version="1" timestamp="2022-08-11T06:02:49Z" changeset="124758290" uid="3497659" user="NKA">
		<tag k="name" v="Bakken" />
		<tag k="place" v="farm" />
		<tag k="ssr:stedsnr" v="823505" />
	</node>
	<node id="9946535163" lat="62.6085079" lon="7.0948313" version="1" timestamp="2022-08-11T06:02:49Z" changeset="124758290" uid="3497659" user="NKA">
		<tag k="name" v="Holan" />
		<tag k="place" v="farm" />
		<tag k="ssr:stedsnr" v="884470" />
	</node>
	<node id="9946535164" lat="62.5614611" lon="7.0912306" version="1" timestamp="2022-08-11T06:02:49Z" changeset="124758290" uid="3497659" user="NKA">
		<tag k="historic" v="shieling" />
		<tag k="name" v="Bjermelandssetra" />
		<tag k="place" v="isolated_dwelling" />
		<tag k="ssr:stedsnr" v="801935" />
	</node>
	<node id="9946535165" lat="62.5801721" lon="7.0856511" version="1" timestamp="2022-08-11T06:02:49Z" changeset="124758290" uid="3497659" user="NKA">
		<tag k="historic" v="shieling" />
		<tag k="name" v="Skorgenessetra" />
		<tag k="place" v="isolated_dwelling" />
		<tag k="ssr:stedsnr" v="801893" />
	</node>
	<node id="9946535166" lat="62.6108475" lon="7.1477739" version="1" timestamp="2022-08-11T06:02:49Z" changeset="124758290" uid="3497659" user="NKA">
		<tag k="name" v="Vike" />
		<tag k="place" v="farm" />
		<tag k="ssr:stedsnr" v="715074" />
	</node>
	<node id="9946535167" lat="62.6343917" lon="7.0713668" version="1" timestamp="2022-08-11T06:02:49Z" changeset="124758290" uid="3497659" user="NKA">
		<tag k="name" v="Øygarden" />
		<tag k="place" v="farm" />
		<tag k="ssr:stedsnr" v="194024" />
	</node>
	<node id="9946535168" lat="62.6098383" lon="6.940902" version="1" timestamp="2022-08-11T06:02:49Z" changeset="124758290" uid="3497659" user="NKA">
		<tag k="name" v="Vik" />
		<tag k="place" v="quarter" />
		<tag k="ssr:stedsnr" v="815331" />
	</node>
	<node id="9946535169" lat="62.6279918" lon="7.0865382" version="1" timestamp="2022-08-11T06:02:49Z" changeset="124758290" uid="3497659" user="NKA">
		<tag k="name" v="Hotellet" />
		<tag k="place" v="locality" />
		<tag k="ssr:stedsnr" v="641480" />
	</node>
	<node id="9946535170" lat="62.6198447" lon="6.9694568" version="1" timestamp="2022-08-11T06:02:49Z" changeset="124758290" uid="3497659" user="NKA">
		<tag k="name" v="Elvestad" />
		<tag k="place" v="farm" />
		<tag k="ssr:stedsnr" v="801954" />
	</node>
	<node id="9946535171" lat="62.6141417" lon="7.0492279" version="1" timestamp="2022-08-11T06:02:49Z" changeset="124758290" uid="3497659" user="NKA">
		<tag k="name" v="Innlågå" />
		<tag k="place" v="locality" />
		<tag k="ssr:stedsnr" v="641558" />
	</node>
	<node id="9946535172" lat="62.6120011" lon="7.1486081" version="1" timestamp="2022-08-11T06:02:49Z" changeset="124758290" uid="3497659" user="NKA">
		<tag k="name" v="Ytre Vike" />
		<tag k="place" v="hamlet" />
		<tag k="ssr:stedsnr" v="679930" />
	</node>
	<node id="9946535173" lat="62.5976651" lon="7.05653" version="1" timestamp="2022-08-11T06:02:49Z" changeset="124758290" uid="3497659" user="NKA">
		<tag k="historic" v="shieling" />
		<tag k="name" v="Myrabua" />
		<tag k="place" v="isolated_dwelling" />
		<tag k="ssr:stedsnr" v="520594" />
	</node>
	<node id="9946535174" lat="62.6109212" lon="6.8343996" version="1" timestamp="2022-08-11T06:02:49Z" changeset="124758290" uid="3497659" user="NKA">
		<tag k="name" v="Ellingsetra" />
		<tag k="place" v="hamlet" />
		<tag k="ssr:stedsnr" v="618958" />
	</node>
	<node id="9946535175" lat="62.597625" lon="7.0564334" version="1" timestamp="2022-08-11T06:02:49Z" changeset="124758290" uid="3497659" user="NKA">
		<tag k="historic" v="shieling" />
		<tag k="name" v="Hellandssetra" />
		<tag k="place" v="isolated_dwelling" />
		<tag k="ssr:stedsnr" v="498000" />
	</node>
	<node id="9946535176" lat="62.6182748" lon="6.8561493" version="1" timestamp="2022-08-11T06:02:49Z" changeset="124758290" uid="3497659" user="NKA">
		<tag k="name" v="Tømmervik" />
		<tag k="place" v="farm" />
		<tag k="ssr:stedsnr" v="823510" />
	</node>
	<node id="9946535177" lat="62.6162333" lon="7.1486307" version="1" timestamp="2022-08-11T06:02:49Z" changeset="124758290" uid="3497659" user="NKA">
		<tag k="name" v="Steinan" />
		<tag k="place" v="farm" />
		<tag k="ssr:stedsnr" v="459570" />
	</node>
	<node id="9946535178" lat="62.6305179" lon="7.0617691" version="1" timestamp="2022-08-11T06:02:49Z" changeset="124758290" uid="3497659" user="NKA">
		<tag k="name" v="Leirvika" />
		<tag k="place" v="hamlet" />
		<tag k="ssr:stedsnr" v="557023" />
	</node>
	<node id="9946535179" lat="62.5415084" lon="6.9404502" version="1" timestamp="2022-08-11T06:02:49Z" changeset="124758290" uid="3497659" user="NKA">
		<tag k="historic" v="shieling" />
		<tag k="name" v="Skitnesetra" />
		<tag k="place" v="isolated_dwelling" />
		<tag k="ssr:stedsnr" v="618819" />
	</node>
	<node id="9946535180" lat="62.6335167" lon="6.9222306" version="1" timestamp="2022-08-11T06:02:49Z" changeset="124758290" uid="3497659" user="NKA">
		<tag k="name" v="Indrebø" />
		<tag k="place" v="farm" />
		<tag k="ssr:stedsnr" v="375018" />
	</node>
	<node id="9946535181" lat="62.5626972" lon="7.0249529" version="1" timestamp="2022-08-11T06:02:49Z" changeset="124758290" uid="3497659" user="NKA">
		<tag k="historic" v="shieling" />
		<tag k="name" v="Sprovssetra" />
		<tag k="place" v="isolated_dwelling" />
		<tag k="ssr:stedsnr" v="801930" />
	</node>
	<node id="9946535182" lat="62.6111565" lon="7.1465587" version="1" timestamp="2022-08-11T06:02:49Z" changeset="124758290" uid="3497659" user="NKA">
		<tag k="name" v="Andersgarden" />
		<tag k="place" v="farm" />
		<tag k="ssr:stedsnr" v="411086" />
	</node>
	<node id="9946535183" lat="62.5251694" lon="7.0013335" version="1" timestamp="2022-08-11T06:02:49Z" changeset="124758290" uid="3497659" user="NKA">
		<tag k="historic" v="shieling" />
		<tag k="name" v="Nilsstølen" />
		<tag k="place" v="isolated_dwelling" />
		<tag k="ssr:stedsnr" v="398085" />
	</node>
	<node id="9946535184" lat="62.6269554" lon="7.0515729" version="1" timestamp="2022-08-11T06:02:49Z" changeset="124758290" uid="3497659" user="NKA">
		<tag k="name" v="Skavneset" />
		<tag k="place" v="farm" />
		<tag k="ssr:stedsnr" v="95859" />
	</node>
	<node id="9946535185" lat="62.6141061" lon="7.1513566" version="1" timestamp="2022-08-11T06:02:49Z" changeset="124758290" uid="3497659" user="NKA">
		<tag k="name" v="Åsledbakken" />
		<tag k="place" v="farm" />
		<tag k="ssr:stedsnr" v="34467" />
	</node>
	<node id="9946535186" lat="62.6310004" lon="7.0832689" version="1" timestamp="2022-08-11T06:02:49Z" changeset="124758290" uid="3497659" user="NKA">
		<tag k="name" v="Vestheim" />
		<tag k="place" v="farm" />
		<tag k="ssr:stedsnr" v="34484" />
	</node>
	<node id="9946535187" lat="62.6336012" lon="7.0617437" version="1" timestamp="2022-08-11T06:02:49Z" changeset="124758290" uid="3497659" user="NKA">
		<tag k="name" v="Fagerheim" />
		<tag k="place" v="farm" />
		<tag k="ssr:stedsnr" v="34479" />
	</node>
	<node id="9946535188" lat="62.5379988" lon="7.261528" version="1" timestamp="2022-08-11T06:02:49Z" changeset="124758290" uid="3497659" user="NKA">
		<tag k="name" v="Reitahytta" />
		<tag k="place" v="isolated_dwelling" />
		<tag k="ssr:stedsnr" v="398695" />
	</node>
	<node id="9946535189" lat="62.5211227" lon="7.0024554" version="1" timestamp="2022-08-11T06:02:49Z" changeset="124758290" uid="3497659" user="NKA">
		<tag k="historic" v="shieling" />
		<tag k="name" v="Gamlestølen" />
		<tag k="place" v="isolated_dwelling" />
		<tag k="ssr:stedsnr" v="520078" />
	</node>
	<node id="9946535190" lat="62.6270417" lon="6.9661891" version="1" timestamp="2022-08-11T06:02:49Z" changeset="124758290" uid="3497659" user="NKA">
		<tag k="alt_name" v="Sævelund" />
		<tag k="name" v="Sævlund" />
		<tag k="place" v="farm" />
		<tag k="ssr:stedsnr" v="376967" />
	</node>
	<node id="9946535191" lat="62.6144782" lon="7.0899095" version="1" timestamp="2022-08-11T06:02:49Z" changeset="124758290" uid="3497659" user="NKA">
		<tag k="name" v="Einen" />
		<tag k="place" v="farm" />
		<tag k="ssr:stedsnr" v="34462" />
	</node>
	<node id="9946535192" lat="62.5382996" lon="7.2639167" version="1" timestamp="2022-08-11T06:02:49Z" changeset="124758290" uid="3497659" user="NKA">
		<tag k="name" v="Daugstadhytta" />
		<tag k="place" v="isolated_dwelling" />
		<tag k="ssr:stedsnr" v="95678" />
	</node>
	<node id="9946535193" lat="62.5392911" lon="6.9581623" version="1" timestamp="2022-08-11T06:02:49Z" changeset="124758290" uid="3497659" user="NKA">
		<tag k="historic" v="shieling" />
		<tag k="name" v="Ellingsgardssetra" />
		<tag k="place" v="hamlet" />
		<tag k="ssr:stedsnr" v="497846" />
	</node>
	<node id="9946535194" lat="62.6022164" lon="7.0045049" version="1" timestamp="2022-08-11T06:02:49Z" changeset="124758290" uid="3497659" user="NKA">
		<tag k="historic" v="shieling" />
		<tag k="name" v="Flatesetra" />
		<tag k="place" v="isolated_dwelling" />
		<tag k="ssr:stedsnr" v="496979" />
	</node>
	<node id="9946535195" lat="62.5976111" lon="7.0610917" version="1" timestamp="2022-08-11T06:02:49Z" changeset="124758290" uid="3497659" user="NKA">
		<tag k="alt_name" v="Salthammarssetra" />
		<tag k="historic" v="shieling" />
		<tag k="name" v="Salthammarsetra" />
		<tag k="place" v="isolated_dwelling" />
		<tag k="ssr:stedsnr" v="497998" />
	</node>
	<node id="9946535196" lat="62.5968166" lon="6.8094808" version="1" timestamp="2022-08-11T06:02:49Z" changeset="124758290" uid="3497659" user="NKA">
		<tag k="historic" v="shieling" />
		<tag k="name" v="Ellingsetersetra" />
		<tag k="place" v="isolated_dwelling" />
		<tag k="ssr:stedsnr" v="254993" />
	</node>
	<node id="9946535197" lat="62.6206389" lon="6.9376862" version="1" timestamp="2022-08-11T06:02:49Z" changeset="124758290" uid="3497659" user="NKA">
		<tag k="alt_name" v="Kjeldneset" />
		<tag k="name" v="Kjellneset" />
		<tag k="place" v="farm" />
		<tag k="ssr:stedsnr" v="338465" />
	</node>
	<node id="9946535198" lat="62.5812056" lon="7.1760807" version="1" timestamp="2022-08-11T06:02:49Z" changeset="124758290" uid="3497659" user="NKA">
		<tag k="historic" v="shieling" />
		<tag k="name" v="Olasetra" />
		<tag k="place" v="isolated_dwelling" />
		<tag k="ssr:stedsnr" v="801865" />
	</node>
	<node id="9946535199" lat="62.5812435" lon="7.1754337" version="1" timestamp="2022-08-11T06:02:49Z" changeset="124758290" uid="3497659" user="NKA">
		<tag k="historic" v="shieling" />
		<tag k="name" v="Øvste Skjegstadsetra" />
		<tag k="place" v="isolated_dwelling" />
		<tag k="ssr:stedsnr" v="580721" />
	</node>
	<node id="9946535200" lat="62.6281952" lon="7.0808725" version="1" timestamp="2022-08-11T06:02:49Z" changeset="124758290" uid="3497659" user="NKA">
		<tag k="name" v="Vestnesgarden" />
		<tag k="place" v="farm" />
		<tag k="ssr:stedsnr" v="702860" />
	</node>
	<node id="9946535201" lat="62.5421778" lon="7.0974834" version="1" timestamp="2022-08-11T06:02:49Z" changeset="124758290" uid="3497659" user="NKA">
		<tag k="name" v="Høgsetra" />
		<tag k="place" v="locality" />
		<tag k="ssr:stedsnr" v="580659" />
	</node>
	<node id="9946535202" lat="62.5711207" lon="7.1557424" version="1" timestamp="2022-08-11T06:02:49Z" changeset="124758290" uid="3497659" user="NKA">
		<tag k="name" v="Vollan" />
		<tag k="place" v="farm" />
		<tag k="ssr:stedsnr" v="694307" />
	</node>
	<node id="9946535203" lat="62.6042674" lon="7.2916597" version="1" timestamp="2022-08-11T06:02:49Z" changeset="124758290" uid="3497659" user="NKA">
		<tag k="name" v="Reistadbakken" />
		<tag k="place" v="farm" />
		<tag k="ssr:stedsnr" v="521766" />
	</node>
	<node id="9946535204" lat="62.504149" lon="7.1111262" version="1" timestamp="2022-08-11T06:02:49Z" changeset="124758290" uid="3497659" user="NKA">
		<tag k="name" v="Holan" />
		<tag k="place" v="farm" />
		<tag k="ssr:stedsnr" v="398515" />
	</node>
	<node id="9946535205" lat="62.5429923" lon="7.1201425" version="1" timestamp="2022-08-11T06:02:49Z" changeset="124758290" uid="3497659" user="NKA">
		<tag k="name" v="Kriken" />
		<tag k="place" v="farm" />
		<tag k="ssr:stedsnr" v="520530" />
	</node>
	<node id="9946535206" lat="62.5174917" lon="7.1248974" version="1" timestamp="2022-08-11T06:02:49Z" changeset="124758290" uid="3497659" user="NKA">
		<tag k="name" v="Røsthaugen" />
		<tag k="place" v="farm" />
		<tag k="ssr:stedsnr" v="375845" />
	</node>
	<node id="9946535207" lat="62.5596528" lon="7.1272403" version="1" timestamp="2022-08-11T06:02:49Z" changeset="124758290" uid="3497659" user="NKA">
		<tag k="name" v="Steinbakken" />
		<tag k="place" v="farm" />
		<tag k="ssr:stedsnr" v="398511" />
	</node>
	<node id="9946535208" lat="62.5555579" lon="6.9767734" version="1" timestamp="2022-08-11T06:02:49Z" changeset="124758290" uid="3497659" user="NKA">
		<tag k="alt_name" v="Fremstedal" />
		<tag k="name" v="Fremstedalen" />
		<tag k="place" v="hamlet" />
		<tag k="ssr:stedsnr" v="375901" />
	</node>
	<node id="9946535209" lat="62.4989558" lon="7.1276257" version="1" timestamp="2022-08-11T06:02:49Z" changeset="124758290" uid="3497659" user="NKA">
		<tag k="name" v="Haugen" />
		<tag k="place" v="farm" />
		<tag k="ssr:stedsnr" v="156537" />
	</node>
	<node id="9946535210" lat="62.5933954" lon="7.1021596" version="1" timestamp="2022-08-11T06:02:49Z" changeset="124758290" uid="3497659" user="NKA">
		<tag k="alt_name" v="Stenødegård;Steinødegården" />
		<tag k="name" v="Steinøygarden" />
		<tag k="place" v="hamlet" />
		<tag k="ssr:stedsnr" v="156490" />
	</node>
	<node id="9946535211" lat="62.5594376" lon="6.9001859" version="1" timestamp="2022-08-11T06:02:49Z" changeset="124758290" uid="3497659" user="NKA">
		<tag k="historic" v="shieling" />
		<tag k="name" v="Myrastølen" />
		<tag k="place" v="isolated_dwelling" />
		<tag k="ssr:stedsnr" v="580073" />
	</node>
	<node id="9946535212" lat="62.5685611" lon="7.0597556" version="1" timestamp="2022-08-11T06:02:49Z" changeset="124758290" uid="3497659" user="NKA">
		<tag k="name" v="Hestavollen" />
		<tag k="place" v="locality" />
		<tag k="ssr:stedsnr" v="95766" />
	</node>
	<node id="9946535213" lat="62.6299871" lon="7.088842" version="1" timestamp="2022-08-11T06:02:49Z" changeset="124758290" uid="3497659" user="NKA">
		<tag k="name" v="Vestneshagen" />
		<tag k="place" v="farm" />
		<tag k="ssr:stedsnr" v="763858" />
	</node>
	<node id="9946535214" lat="62.6045611" lon="7.1447167" version="1" timestamp="2022-08-11T06:02:49Z" changeset="124758290" uid="3497659" user="NKA">
		<tag k="name" v="Innlågen" />
		<tag k="place" v="farm" />
		<tag k="ssr:stedsnr" v="557986" />
	</node>
	<node id="9946535215" lat="62.6066091" lon="7.295366" version="1" timestamp="2022-08-11T06:02:49Z" changeset="124758290" uid="3497659" user="NKA">
		<tag k="name" v="Reistaddalen" />
		<tag k="place" v="quarter" />
		<tag k="ssr:stedsnr" v="946058" />
	</node>
	<node id="9946535216" lat="62.5537528" lon="7.0934751" version="1" timestamp="2022-08-11T06:02:49Z" changeset="124758290" uid="3497659" user="NKA">
		<tag k="historic" v="shieling" />
		<tag k="name" v="Kjøpstadsetra" />
		<tag k="place" v="isolated_dwelling" />
		<tag k="ssr:stedsnr" v="72907" />
	</node>
	<node id="9946535217" lat="62.484164" lon="7.1690805" version="1" timestamp="2022-08-11T06:02:49Z" changeset="124758290" uid="3497659" user="NKA">
		<tag k="name" v="Nilsgarden" />
		<tag k="place" v="farm" />
		<tag k="ssr:stedsnr" v="95440" />
	</node>
	<node id="9946535218" lat="62.597332" lon="7.1750043" version="1" timestamp="2022-08-11T06:02:49Z" changeset="124758290" uid="3497659" user="NKA">
		<tag k="historic" v="shieling" />
		<tag k="name" v="Kroksetstølen" />
		<tag k="place" v="isolated_dwelling" />
		<tag k="ssr:stedsnr" v="398712" />
	</node>
	<node id="9946535219" lat="62.5373611" lon="7.2652973" version="1" timestamp="2022-08-11T06:02:49Z" changeset="124758290" uid="3497659" user="NKA">
		<tag k="name" v="Johytta" />
		<tag k="place" v="isolated_dwelling" />
		<tag k="ssr:stedsnr" v="945500" />
	</node>
	<node id="9946535220" lat="62.5797305" lon="7.186675" version="1" timestamp="2022-08-11T06:02:49Z" changeset="124758290" uid="3497659" user="NKA">
		<tag k="name" v="Gamlesetra" />
		<tag k="place" v="locality" />
		<tag k="ssr:stedsnr" v="945695" />
	</node>
	<node id="9946535221" lat="62.5453499" lon="7.1502558" version="1" timestamp="2022-08-11T06:02:49Z" changeset="124758290" uid="3497659" user="NKA">
		<tag k="name" v="Hoemsbakken" />
		<tag k="place" v="farm" />
		<tag k="ssr:stedsnr" v="34979" />
	</node>
	<node id="9946535222" lat="62.5551199" lon="7.1531741" version="1" timestamp="2022-08-11T06:02:49Z" changeset="124758290" uid="3497659" user="NKA">
		<tag k="name" v="Setre" />
		<tag k="place" v="hamlet" />
		<tag k="ssr:stedsnr" v="977655" />
	</node>
	<node id="9946535223" lat="62.5575797" lon="7.2279654" version="1" timestamp="2022-08-11T06:02:49Z" changeset="124758290" uid="3497659" user="NKA">
		<tag k="historic" v="shieling" />
		<tag k="name" v="Daugstadsetra" />
		<tag k="place" v="hamlet" />
		<tag k="ssr:stedsnr" v="922493" />
	</node>
	<node id="9946535224" lat="62.6294555" lon="7.1688667" version="1" timestamp="2022-08-11T06:02:49Z" changeset="124758290" uid="3497659" user="NKA">
		<tag k="name" v="Neset" />
		<tag k="place" v="farm" />
		<tag k="ssr:stedsnr" v="945468" />
	</node>
	<node id="9946535225" lat="62.5541595" lon="7.1268452" version="1" timestamp="2022-08-11T06:02:49Z" changeset="124758290" uid="3497659" user="NKA">
		<tag k="name" v="Tøftene" />
		<tag k="place" v="farm" />
		<tag k="ssr:stedsnr" v="936308" />
	</node>
	<node id="9946535226" lat="62.6043339" lon="7.271974" version="1" timestamp="2022-08-11T06:02:49Z" changeset="124758290" uid="3497659" user="NKA">
		<tag k="name" v="Talberg" />
		<tag k="place" v="hamlet" />
		<tag k="ssr:stedsnr" v="740571" />
	</node>
	<node id="9946535227" lat="62.5655055" lon="7.1557395" version="1" timestamp="2022-08-11T06:02:49Z" changeset="124758290" uid="3497659" user="NKA">
		<tag k="name" v="Ytre Daugstad" />
		<tag k="place" v="farm" />
		<tag k="ssr:stedsnr" v="921916" />
	</node>
	<node id="9946535228" lat="62.5362024" lon="7.2621245" version="1" timestamp="2022-08-11T06:02:49Z" changeset="124758290" uid="3497659" user="NKA">
		<tag k="name" v="Ivashytta" />
		<tag k="place" v="isolated_dwelling" />
		<tag k="ssr:stedsnr" v="520726" />
	</node>
	<node id="9946535229" lat="62.4803928" lon="7.1792377" version="1" timestamp="2022-08-11T06:02:49Z" changeset="124758290" uid="3497659" user="NKA">
		<tag k="alt_name" v="Markane" />
		<tag k="name" v="Marka" />
		<tag k="place" v="farm" />
		<tag k="ssr:stedsnr" v="945446" />
	</node>
	<node id="9946535230" lat="62.5611389" lon="7.1244472" version="1" timestamp="2022-08-11T06:02:49Z" changeset="124758290" uid="3497659" user="NKA">
		<tag k="name" v="Bjermeland" />
		<tag k="place" v="hamlet" />
		<tag k="ssr:stedsnr" v="11929" />
	</node>
	<node id="9946535231" lat="62.5780583" lon="7.1737779" version="1" timestamp="2022-08-11T06:02:49Z" changeset="124758290" uid="3497659" user="NKA">
		<tag k="name" v="Solgjerde" />
		<tag k="place" v="isolated_dwelling" />
		<tag k="ssr:stedsnr" v="823478" />
	</node>
	<node id="9946535232" lat="62.6077497" lon="6.8306992" version="1" timestamp="2022-08-11T06:02:49Z" changeset="124758290" uid="3497659" user="NKA">
		<tag k="name" v="Alfheim" />
		<tag k="place" v="farm" />
		<tag k="ssr:stedsnr" v="1080765" />
	</node>
	<node id="9946535233" lat="62.5746124" lon="7.3070605" version="1" timestamp="2022-08-11T06:02:49Z" changeset="124758290" uid="3497659" user="NKA">
		<tag k="historic" v="shieling" />
		<tag k="name" v="Fjellsetra" />
		<tag k="place" v="isolated_dwelling" />
		<tag k="ssr:stedsnr" v="436482" />
	</node>
	<node id="9946535234" lat="62.6060841" lon="7.360394" version="1" timestamp="2022-08-11T06:02:49Z" changeset="124758290" uid="3497659" user="NKA">
		<tag k="name" v="Helgestø" />
		<tag k="place" v="farm" />
		<tag k="ssr:stedsnr" v="618572" />
	</node>
	<node id="9946535235" lat="62.5805166" lon="7.1945223" version="1" timestamp="2022-08-11T06:02:49Z" changeset="124758290" uid="3497659" user="NKA">
		<tag k="historic" v="shieling" />
		<tag k="name" v="Brattmyrsetra" />
		<tag k="place" v="isolated_dwelling" />
		<tag k="ssr:stedsnr" v="884697" />
	</node>
	<node id="9946535236" lat="62.6103" lon="7.2423085" version="1" timestamp="2022-08-11T06:02:49Z" changeset="124758290" uid="3497659" user="NKA">
		<tag k="name" v="Nordigarden" />
		<tag k="place" v="farm" />
		<tag k="ssr:stedsnr" v="800575" />
	</node>
	<node id="9946535237" lat="62.5763744" lon="7.1518193" version="1" timestamp="2022-08-11T06:02:49Z" changeset="124758290" uid="3497659" user="NKA">
		<tag k="name" v="Buch-garden" />
		<tag k="place" v="farm" />
		<tag k="ssr:stedsnr" v="884462" />
	</node>
	<node id="9946535238" lat="62.568286" lon="7.1156267" version="1" timestamp="2022-08-11T06:02:49Z" changeset="124758290" uid="3497659" user="NKA">
		<tag k="name" v="Børøra" />
		<tag k="place" v="farm" />
		<tag k="ssr:stedsnr" v="884465" />
	</node>
	<node id="9946535239" lat="62.6029834" lon="6.9260112" version="1" timestamp="2022-08-11T06:02:49Z" changeset="124758290" uid="3497659" user="NKA">
		<tag k="name" v="Tueplassen" />
		<tag k="place" v="locality" />
		<tag k="ssr:stedsnr" v="824858" />
	</node>
	<node id="9946535240" lat="62.4785361" lon="7.1438167" version="1" timestamp="2022-08-11T06:02:49Z" changeset="124758290" uid="3497659" user="NKA">
		<tag k="alt_name" v="Rjupdalssetra" />
		<tag k="historic" v="shieling" />
		<tag k="name" v="Bortigardssetra" />
		<tag k="place" v="isolated_dwelling" />
		<tag k="ssr:stedsnr" v="496353" />
	</node>
	<node id="9946535241" lat="62.5717209" lon="7.1144619" version="1" timestamp="2022-08-11T06:02:49Z" changeset="124758290" uid="3497659" user="NKA">
		<tag k="alt_name" v="Skorgå;Skorgen" />
		<tag k="name" v="Skorga" />
		<tag k="place" v="hamlet" />
		<tag k="ssr:stedsnr" v="194872" />
	</node>
	<node id="9946535242" lat="62.6067194" lon="7.1350278" version="1" timestamp="2022-08-11T06:02:49Z" changeset="124758290" uid="3497659" user="NKA">
		<tag k="name" v="Snekkarhaugen" />
		<tag k="place" v="farm" />
		<tag k="ssr:stedsnr" v="277477" />
	</node>
	<node id="9946535243" lat="62.4945903" lon="7.1484926" version="1" timestamp="2022-08-11T06:02:49Z" changeset="124758290" uid="3497659" user="NKA">
		<tag k="name" v="Døfta" />
		<tag k="place" v="farm" />
		<tag k="ssr:stedsnr" v="156533" />
	</node>
	<node id="9946535244" lat="62.4818333" lon="7.035289" version="1" timestamp="2022-08-11T06:02:49Z" changeset="124758290" uid="3497659" user="NKA">
		<tag k="historic" v="shieling" />
		<tag k="name" v="Mjogskarsetra" />
		<tag k="place" v="isolated_dwelling" />
		<tag k="ssr:stedsnr" v="921340" />
	</node>
	<node id="9946535245" lat="62.4985639" lon="7.1377167" version="1" timestamp="2022-08-11T06:02:49Z" changeset="124758290" uid="3497659" user="NKA">
		<tag k="name" v="Skeidsvoll" />
		<tag k="place" v="hamlet" />
		<tag k="ssr:stedsnr" v="193301" />
	</node>
	<node id="9946535246" lat="62.6027723" lon="7.2922112" version="1" timestamp="2022-08-11T06:02:49Z" changeset="124758290" uid="3497659" user="NKA">
		<tag k="name" v="Reistad" />
		<tag k="place" v="hamlet" />
		<tag k="ssr:stedsnr" v="935843" />
	</node>
	<node id="9946535247" lat="62.5409055" lon="7.1260306" version="1" timestamp="2022-08-11T06:02:49Z" changeset="124758290" uid="3497659" user="NKA">
		<tag k="alt_name" v="Løvik" />
		<tag k="name" v="Løvika" />
		<tag k="place" v="hamlet" />
		<tag k="ssr:stedsnr" v="618805" />
	</node>
	<node id="9946535248" lat="62.5564157" lon="7.1286729" version="1" timestamp="2022-08-11T06:02:49Z" changeset="124758290" uid="3497659" user="NKA">
		<tag k="alt_name" v="Eikenes" />
		<tag k="loc_name" v="Eiknes" />
		<tag k="name" v="Eikaneset" />
		<tag k="place" v="farm" />
		<tag k="ssr:stedsnr" v="861923" />
	</node>
	<node id="9946535249" lat="62.5780334" lon="7.3416668" version="1" timestamp="2022-08-11T06:02:49Z" changeset="124758290" uid="3497659" user="NKA">
		<tag k="historic" v="shieling" />
		<tag k="name" v="Nervågsetra" />
		<tag k="place" v="isolated_dwelling" />
		<tag k="ssr:stedsnr" v="800488" />
	</node>
	<node id="9946535250" lat="62.5960663" lon="7.1404051" version="1" timestamp="2022-08-11T06:02:49Z" changeset="124758290" uid="3497659" user="NKA">
		<tag k="name" v="Øvrebøen" />
		<tag k="place" v="farm" />
		<tag k="ssr:stedsnr" v="945459" />
	</node>
	<node id="9946535251" lat="62.632625" lon="7.0799333" version="1" timestamp="2022-08-11T06:02:49Z" changeset="124758290" uid="3497659" user="NKA">
		<tag k="name" v="Einhaugen" />
		<tag k="place" v="farm" />
		<tag k="ssr:stedsnr" v="824884" />
	</node>
	<node id="9946535252" lat="62.4741473" lon="7.1569555" version="1" timestamp="2022-08-11T06:02:49Z" changeset="124758290" uid="3497659" user="NKA">
		<tag k="name" v="Dalssetra" />
		<tag k="place" v="locality" />
		<tag k="ssr:stedsnr" v="641101" />
	</node>
	<node id="9946535253" lat="62.5930444" lon="7.1396891" version="1" timestamp="2022-08-11T06:02:49Z" changeset="124758290" uid="3497659" user="NKA">
		<tag k="name" v="Helset" />
		<tag k="place" v="hamlet" />
		<tag k="ssr:stedsnr" v="740894" />
	</node>
	<node id="9946535254" lat="62.6277567" lon="7.0404483" version="1" timestamp="2022-08-11T06:02:49Z" changeset="124758290" uid="3497659" user="NKA">
		<tag k="name" v="Åsheim" />
		<tag k="place" v="farm" />
		<tag k="ssr:stedsnr" v="702512" />
	</node>
	<node id="9946535255" lat="62.5852917" lon="7.101775" version="1" timestamp="2022-08-11T06:02:49Z" changeset="124758290" uid="3497659" user="NKA">
		<tag k="alt_name" v="Brastad" />
		<tag k="name" v="Børgeplassen" />
		<tag k="old_name" v="Indre Brastad;Brastad, indre" />
		<tag k="place" v="farm" />
		<tag k="ssr:stedsnr" v="922988" />
	</node>
	<node id="9946535256" lat="62.608873" lon="7.2371512" version="1" timestamp="2022-08-11T06:02:49Z" changeset="124758290" uid="3497659" user="NKA">
		<tag k="name" v="Hjelvika" />
		<tag k="place" v="hamlet" />
		<tag k="ssr:stedsnr" v="739573" />
	</node>
	<node id="9946535257" lat="62.5592528" lon="7.1290502" version="1" timestamp="2022-08-11T06:02:49Z" changeset="124758290" uid="3497659" user="NKA">
		<tag k="name" v="Myra" />
		<tag k="place" v="farm" />
		<tag k="ssr:stedsnr" v="459492" />
	</node>
	<node id="9946535258" lat="62.6014861" lon="7.1002917" version="1" timestamp="2022-08-11T06:02:49Z" changeset="124758290" uid="3497659" user="NKA">
		<tag k="name" v="Skomakargarden" />
		<tag k="place" v="farm" />
		<tag k="ssr:stedsnr" v="618963" />
	</node>
	<node id="9946535259" lat="62.6041083" lon="7.0972557" version="1" timestamp="2022-08-11T06:02:49Z" changeset="124758290" uid="3497659" user="NKA">
		<tag k="name" v="Teigan" />
		<tag k="place" v="farm" />
		<tag k="ssr:stedsnr" v="702483" />
	</node>
	<node id="9946535260" lat="62.5241367" lon="6.9990869" version="1" timestamp="2022-08-11T06:02:49Z" changeset="124758290" uid="3497659" user="NKA">
		<tag k="historic" v="shieling" />
		<tag k="name" v="Villastølen" />
		<tag k="place" v="isolated_dwelling" />
		<tag k="ssr:stedsnr" v="459087" />
	</node>
	<node id="9946535261" lat="62.5971374" lon="7.1742065" version="1" timestamp="2022-08-11T06:02:49Z" changeset="124758290" uid="3497659" user="NKA">
		<tag k="name" v="Stølan" />
		<tag k="place" v="isolated_dwelling" />
		<tag k="ssr:stedsnr" v="436967" />
	</node>
	<node id="9946535262" lat="62.5404972" lon="7.19925" version="1" timestamp="2022-08-11T06:02:49Z" changeset="124758290" uid="3497659" user="NKA">
		<tag k="name" v="Gamlesetra" />
		<tag k="place" v="locality" />
		<tag k="ssr:stedsnr" v="156751" />
	</node>
	<node id="9946535263" lat="62.6033806" lon="6.9353667" version="1" timestamp="2022-08-11T06:02:49Z" changeset="124758290" uid="3497659" user="NKA">
		<tag k="name" v="Midtli" />
		<tag k="place" v="farm" />
		<tag k="ssr:stedsnr" v="606023" />
	</node>
	<node id="9946535264" lat="62.560975" lon="6.8934667" version="1" timestamp="2022-08-11T06:02:49Z" changeset="124758290" uid="3497659" user="NKA">
		<tag k="historic" v="shieling" />
		<tag k="name" v="Plassestølen" />
		<tag k="place" v="isolated_dwelling" />
		<tag k="ssr:stedsnr" v="156532" />
	</node>
	<node id="9946535265" lat="62.5334866" lon="7.1257259" version="1" timestamp="2022-08-11T06:02:49Z" changeset="124758290" uid="3497659" user="NKA">
		<tag k="name" v="Teigen" />
		<tag k="place" v="farm" />
		<tag k="ssr:stedsnr" v="156527" />
	</node>
	<node id="9946535266" lat="62.63025" lon="7.0870279" version="1" timestamp="2022-08-11T06:02:49Z" changeset="124758290" uid="3497659" user="NKA">
		<tag k="name" v="Hagen" />
		<tag k="place" v="farm" />
		<tag k="ssr:stedsnr" v="156513" />
	</node>
	<node id="9946535267" lat="62.5809162" lon="7.1065949" version="1" timestamp="2022-08-11T06:02:49Z" changeset="124758290" uid="3497659" user="NKA">
		<tag k="name" v="Skorgevik" />
		<tag k="place" v="farm" />
		<tag k="ssr:stedsnr" v="232140" />
	</node>
	<node id="9946535268" lat="62.6075064" lon="6.8308794" version="1" timestamp="2022-08-11T06:02:49Z" changeset="124758290" uid="3497659" user="NKA">
		<tag k="name" v="Torsgarden" />
		<tag k="old_name" v="Torsbøen;Alfheim" />
		<tag k="place" v="farm" />
		<tag k="ssr:stedsnr" v="618961" />
	</node>
	<node id="9946535269" lat="62.6516054" lon="6.7938715" version="1" timestamp="2022-08-11T06:02:49Z" changeset="124758290" uid="3497659" user="NKA">
		<tag k="name" v="Dragneset" />
		<tag k="place" v="hamlet" />
		<tag k="ssr:stedsnr" v="754073" />
	</node>
	<node id="9946535270" lat="62.5798861" lon="7.1037361" version="1" timestamp="2022-08-11T06:02:49Z" changeset="124758290" uid="3497659" user="NKA">
		<tag k="loc_name" v="Vika;Skorgevika" />
		<tag k="name" v="Viken" />
		<tag k="place" v="farm" />
		<tag k="ssr:stedsnr" v="363217" />
	</node>
	<node id="9946535271" lat="62.5078695" lon="7.1624974" version="1" timestamp="2022-08-11T06:02:49Z" changeset="124758290" uid="3497659" user="NKA">
		<tag k="name" v="Gamlestølen" />
		<tag k="place" v="locality" />
		<tag k="ssr:stedsnr" v="277005" />
	</node>
	<node id="9946535272" lat="62.4846722" lon="7.0462445" version="1" timestamp="2022-08-11T06:02:49Z" changeset="124758290" uid="3497659" user="NKA">
		<tag k="name" v="Høgstølane" />
		<tag k="place" v="locality" />
		<tag k="ssr:stedsnr" v="277100" />
	</node>
	<node id="9946535273" lat="62.5532944" lon="6.9726861" version="1" timestamp="2022-08-11T06:02:49Z" changeset="124758290" uid="3497659" user="NKA">
		<tag k="name" v="Kapteinbua" />
		<tag k="place" v="isolated_dwelling" />
		<tag k="ssr:stedsnr" v="156535" />
	</node>
	<node id="9946535274" lat="62.5613669" lon="6.8980636" version="1" timestamp="2022-08-11T06:02:49Z" changeset="124758290" uid="3497659" user="NKA">
		<tag k="historic" v="shieling" />
		<tag k="name" v="Øygardssetra" />
		<tag k="place" v="isolated_dwelling" />
		<tag k="ssr:stedsnr" v="254909" />
	</node>
	<node id="9946535275" lat="62.6105667" lon="7.0892028" version="1" timestamp="2022-08-11T06:02:49Z" changeset="124758290" uid="3497659" user="NKA">
		<tag k="name" v="Knutplassen" />
		<tag k="place" v="locality" />
		<tag k="ssr:stedsnr" v="763812" />
	</node>
	<node id="9946535276" lat="62.5979313" lon="7.058297" version="1" timestamp="2022-08-11T06:02:49Z" changeset="124758290" uid="3497659" user="NKA">
		<tag k="historic" v="shieling" />
		<tag k="name" v="Prestbua" />
		<tag k="place" v="isolated_dwelling" />
		<tag k="ssr:stedsnr" v="762471" />
	</node>
	<node id="9946535277" lat="62.5050854" lon="7.1430795" version="1" timestamp="2022-08-11T06:02:49Z" changeset="124758290" uid="3497659" user="NKA">
		<tag k="name" v="Rypdal" />
		<tag k="place" v="hamlet" />
		<tag k="ssr:stedsnr" v="688029" />
	</node>
	<node id="9946535278" lat="62.5764428" lon="6.9071925" version="1" timestamp="2022-08-11T06:02:49Z" changeset="124758290" uid="3497659" user="NKA">
		<tag k="alt_name" v="Frostad" />
		<tag k="name" v="Øvre Frostad" />
		<tag k="place" v="farm" />
		<tag k="ssr:stedsnr" v="861898" />
	</node>
	<node id="9946535279" lat="62.5558416" lon="6.9029443" version="1" timestamp="2022-08-11T06:02:49Z" changeset="124758290" uid="3497659" user="NKA">
		<tag k="historic" v="shieling" />
		<tag k="name" v="Tomresetra" />
		<tag k="place" v="isolated_dwelling" />
		<tag k="ssr:stedsnr" v="861929" />
	</node>
	<node id="9946535280" lat="62.523764" lon="7.0009445" version="1" timestamp="2022-08-11T06:02:49Z" changeset="124758290" uid="3497659" user="NKA">
		<tag k="historic" v="shieling" />
		<tag k="name" v="Helgestølen" />
		<tag k="place" v="isolated_dwelling" />
		<tag k="ssr:stedsnr" v="702081" />
	</node>
	<node id="9946535281" lat="62.5785459" lon="6.9289623" version="1" timestamp="2022-08-11T06:02:49Z" changeset="124758290" uid="3497659" user="NKA">
		<tag k="name" v="Store Tomra" />
		<tag k="place" v="farm" />
		<tag k="ssr:stedsnr" v="459488" />
	</node>
	<node id="9946535282" lat="62.5775791" lon="6.9105345" version="1" timestamp="2022-08-11T06:02:49Z" changeset="124758290" uid="3497659" user="NKA">
		<tag k="name" v="Haugen" />
		<tag k="place" v="farm" />
		<tag k="ssr:stedsnr" v="702506" />
	</node>
	<node id="9946535283" lat="62.5862861" lon="7.1028223" version="1" timestamp="2022-08-11T06:02:49Z" changeset="124758290" uid="3497659" user="NKA">
		<tag k="name" v="Brastad" />
		<tag k="place" v="hamlet" />
		<tag k="ssr:stedsnr" v="545225" />
	</node>
	<node id="9946535284" lat="62.5757623" lon="6.90742" version="1" timestamp="2022-08-11T06:02:49Z" changeset="124758290" uid="3497659" user="NKA">
		<tag k="name" v="Sørengarden" />
		<tag k="place" v="farm" />
		<tag k="ssr:stedsnr" v="277500" />
	</node>
	<node id="9946535285" lat="62.574361" lon="6.907933" version="1" timestamp="2022-08-11T06:02:49Z" changeset="124758290" uid="3497659" user="NKA">
		<tag k="alt_name" v="Frostad" />
		<tag k="name" v="Nedre Frostad" />
		<tag k="place" v="farm" />
		<tag k="ssr:stedsnr" v="254885" />
	</node>
	<node id="9946535286" lat="62.6278329" lon="7.1596739" version="1" timestamp="2022-08-11T06:02:49Z" changeset="124758290" uid="3497659" user="NKA">
		<tag k="name" v="Justgarden" />
		<tag k="place" v="farm" />
		<tag k="ssr:stedsnr" v="580469" />
	</node>
	<node id="9946535287" lat="62.5511055" lon="6.855126" version="1" timestamp="2022-08-11T06:02:49Z" changeset="124758290" uid="3497659" user="NKA">
		<tag k="historic" v="shieling" />
		<tag k="name" v="Frostadsetra" />
		<tag k="place" v="isolated_dwelling" />
		<tag k="ssr:stedsnr" v="132908" />
	</node>
	<node id="9946535288" lat="62.5714111" lon="7.3779612" version="1" timestamp="2022-08-11T06:02:49Z" changeset="124758290" uid="3497659" user="NKA">
		<tag k="name" v="Gjerde" />
		<tag k="place" v="locality" />
		<tag k="ssr:stedsnr" v="400572" />
	</node>
	<node id="9946535289" lat="62.6081083" lon="7.1402028" version="1" timestamp="2022-08-11T06:02:49Z" changeset="124758290" uid="3497659" user="NKA">
		<tag k="name" v="Vikehaugen" />
		<tag k="place" v="farm" />
		<tag k="ssr:stedsnr" v="580472" />
	</node>
	<node id="9946535290" lat="62.60335" lon="7.0649473" version="1" timestamp="2022-08-11T06:02:49Z" changeset="124758290" uid="3497659" user="NKA">
		<tag k="name" v="Gammelsetra" />
		<tag k="place" v="locality" />
		<tag k="ssr:stedsnr" v="520854" />
	</node>
	<node id="9946535291" lat="62.5939779" lon="7.3400584" version="1" timestamp="2022-08-11T06:02:49Z" changeset="124758290" uid="3497659" user="NKA">
		<tag k="name" v="Kjølset" />
		<tag k="place" v="hamlet" />
		<tag k="ssr:stedsnr" v="194549" />
	</node>
	<node id="9946535292" lat="62.6024371" lon="7.3388206" version="1" timestamp="2022-08-11T06:02:49Z" changeset="124758290" uid="3497659" user="NKA">
		<tag k="name" v="Lund" />
		<tag k="place" v="hamlet" />
		<tag k="ssr:stedsnr" v="375554" />
	</node>
	<node id="9946535293" lat="62.5893139" lon="7.3265712" version="1" timestamp="2022-08-11T06:02:49Z" changeset="124758290" uid="3497659" user="NKA">
		<tag k="historic" v="shieling" />
		<tag k="name" v="Bjørkesetra" />
		<tag k="place" v="isolated_dwelling" />
		<tag k="ssr:stedsnr" v="194558" />
	</node>
	<node id="9946535294" lat="62.5979234" lon="6.931434" version="1" timestamp="2022-08-11T06:02:49Z" changeset="124758290" uid="3497659" user="NKA">
		<tag k="alt_name" v="Lid" />
		<tag k="name" v="Trondgarden" />
		<tag k="place" v="farm" />
		<tag k="ssr:stedsnr" v="763840" />
	</node>
	<node id="9946535295" lat="62.6084225" lon="7.1449451" version="1" timestamp="2022-08-11T06:02:49Z" changeset="124758290" uid="3497659" user="NKA">
		<tag k="name" v="Indre Vike" />
		<tag k="place" v="hamlet" />
		<tag k="ssr:stedsnr" v="315981" />
	</node>
	<node id="9946535296" lat="62.5853685" lon="7.3579781" version="1" timestamp="2022-08-11T06:02:49Z" changeset="124758290" uid="3497659" user="NKA">
		<tag k="name" v="Ner-Våge" />
		<tag k="place" v="hamlet" />
		<tag k="ssr:stedsnr" v="193614" />
	</node>
	<node id="9946535297" lat="62.5901567" lon="7.3441724" version="1" timestamp="2022-08-11T06:02:49Z" changeset="124758290" uid="3497659" user="NKA">
		<tag k="alt_name" v="Våge, yt;Våge" />
		<tag k="name" v="Ytre Våge" />
		<tag k="place" v="farm" />
		<tag k="ssr:stedsnr" v="376605" />
	</node>
	<node id="9946535298" lat="62.6363527" lon="7.0774446" version="1" timestamp="2022-08-11T06:02:49Z" changeset="124758290" uid="3497659" user="NKA">
		<tag k="name" v="Vestnesbukta" />
		<tag k="place" v="farm" />
		<tag k="ssr:stedsnr" v="679024" />
	</node>
	<node id="9946535299" lat="62.5716963" lon="7.093099" version="1" timestamp="2022-08-11T06:02:49Z" changeset="124758290" uid="3497659" user="NKA">
		<tag k="loc_name" v="Kjellbotnen" />
		<tag k="name" v="Kjelbotn" />
		<tag k="place" v="hamlet" />
		<tag k="ssr:stedsnr" v="692968" />
	</node>
	<node id="9946535300" lat="62.5807328" lon="7.3618324" version="1" timestamp="2022-08-11T06:02:49Z" changeset="124758290" uid="3497659" user="NKA">
		<tag k="name" v="Øver-Våge" />
		<tag k="place" v="hamlet" />
		<tag k="ssr:stedsnr" v="628630" />
	</node>
	<node id="9946535301" lat="62.622434" lon="6.9956024" version="1" timestamp="2022-08-11T06:02:49Z" changeset="124758290" uid="3497659" user="NKA">
		<tag k="name" v="Furland" />
		<tag k="place" v="hamlet" />
		<tag k="ssr:stedsnr" v="762570" />
	</node>
	<node id="9946535302" lat="62.5863056" lon="6.9374083" version="1" timestamp="2022-08-11T06:02:49Z" changeset="124758290" uid="3497659" user="NKA">
		<tag k="name" v="Langsteinen" />
		<tag k="place" v="hamlet" />
		<tag k="ssr:stedsnr" v="557976" />
	</node>
	<node id="9946535303" lat="62.6181611" lon="6.8366056" version="1" timestamp="2022-08-11T06:02:49Z" changeset="124758290" uid="3497659" user="NKA">
		<tag k="alt_name" v="Nakken;Nakken, øvre" />
		<tag k="name" v="Øvre Nakken" />
		<tag k="place" v="farm" />
		<tag k="ssr:stedsnr" v="618019" />
	</node>
	<node id="9946535304" lat="62.5799195" lon="7.1938946" version="1" timestamp="2022-08-11T06:02:49Z" changeset="124758290" uid="3497659" user="NKA">
		<tag k="name" v="Brattmyra" />
		<tag k="place" v="isolated_dwelling" />
		<tag k="ssr:stedsnr" v="740863" />
	</node>
	<node id="9946535305" lat="62.6251556" lon="6.9753279" version="1" timestamp="2022-08-11T06:02:49Z" changeset="124758290" uid="3497659" user="NKA">
		<tag k="name" v="Lidarende" />
		<tag k="place" v="farm" />
		<tag k="ssr:stedsnr" v="679943" />
	</node>
	<node id="9946535306" lat="62.6357111" lon="6.9547695" version="1" timestamp="2022-08-11T06:02:49Z" changeset="124758290" uid="3497659" user="NKA">
		<tag k="name" v="Øvrebø" />
		<tag k="place" v="farm" />
		<tag k="ssr:stedsnr" v="375020" />
	</node>
	<node id="9946535307" lat="62.6036417" lon="6.8320891" version="1" timestamp="2022-08-11T06:02:49Z" changeset="124758290" uid="3497659" user="NKA">
		<tag k="name" v="Sagvollen" />
		<tag k="place" v="farm" />
		<tag k="ssr:stedsnr" v="254931" />
	</node>
	<node id="9946535308" lat="62.638071" lon="6.9140889" version="1" timestamp="2022-08-11T06:02:49Z" changeset="124758290" uid="3497659" user="NKA">
		<tag k="name" v="Indregarden" />
		<tag k="place" v="farm" />
		<tag k="ssr:stedsnr" v="762944" />
	</node>
	<node id="9946535309" lat="62.6126731" lon="7.0893798" version="1" timestamp="2022-08-11T06:02:49Z" changeset="124758290" uid="3497659" user="NKA">
		<tag k="name" v="Geilen" />
		<tag k="place" v="locality" />
		<tag k="ssr:stedsnr" v="398480" />
	</node>
	<node id="9946535310" lat="62.6109622" lon="7.0904399" version="1" timestamp="2022-08-11T06:02:49Z" changeset="124758290" uid="3497659" user="NKA">
		<tag k="name" v="Ivaplassen" />
		<tag k="place" v="farm" />
		<tag k="ssr:stedsnr" v="338452" />
	</node>
	<node id="9946535311" lat="62.6204417" lon="6.8523307" version="1" timestamp="2022-08-11T06:02:49Z" changeset="124758290" uid="3497659" user="NKA">
		<tag k="name" v="Nakkesjøen" />
		<tag k="place" v="neighbourhood" />
		<tag k="ssr:stedsnr" v="111759" />
	</node>
	<node id="9946535312" lat="62.6111347" lon="7.0952462" version="1" timestamp="2022-08-11T06:02:49Z" changeset="124758290" uid="3497659" user="NKA">
		<tag k="name" v="Remmem" />
		<tag k="place" v="hamlet" />
		<tag k="ssr:stedsnr" v="375928" />
	</node>
	<node id="9946535313" lat="62.6108143" lon="6.9281109" version="1" timestamp="2022-08-11T06:02:49Z" changeset="124758290" uid="3497659" user="NKA">
		<tag k="name" v="Selnes" />
		<tag k="place" v="hamlet" />
		<tag k="ssr:stedsnr" v="120981" />
	</node>
	<node id="9946535314" lat="62.5983611" lon="6.9237529" version="1" timestamp="2022-08-11T06:02:49Z" changeset="124758290" uid="3497659" user="NKA">
		<tag k="name" v="Nedreli" />
		<tag k="place" v="farm" />
		<tag k="ssr:stedsnr" v="121037" />
	</node>
	<node id="9946535315" lat="62.6171027" lon="6.845952" version="1" timestamp="2022-08-11T06:02:49Z" changeset="124758290" uid="3497659" user="NKA">
		<tag k="name" v="Berga" />
		<tag k="place" v="farm" />
		<tag k="ssr:stedsnr" v="95477" />
	</node>
	<node id="9946535316" lat="62.6315222" lon="7.0469029" version="1" timestamp="2022-08-11T06:02:49Z" changeset="124758290" uid="3497659" user="NKA">
		<tag k="alt_name" v="Aas" />
		<tag k="name" v="Ås" />
		<tag k="place" v="farm" />
		<tag k="ssr:stedsnr" v="303128" />
	</node>
	<node id="9946535317" lat="62.6118009" lon="7.0948783" version="1" timestamp="2022-08-11T06:02:49Z" changeset="124758290" uid="3497659" user="NKA">
		<tag k="name" v="Ytre Remmem" />
		<tag k="place" v="farm" />
		<tag k="ssr:stedsnr" v="338462" />
	</node>
	<node id="9946535318" lat="62.5945528" lon="6.934789" version="1" timestamp="2022-08-11T06:02:49Z" changeset="124758290" uid="3497659" user="NKA">
		<tag k="name" v="Gjerde" />
		<tag k="place" v="hamlet" />
		<tag k="ssr:stedsnr" v="132995" />
	</node>
	<node id="9946535319" lat="62.5912194" lon="6.8399278" version="1" timestamp="2022-08-11T06:02:49Z" changeset="124758290" uid="3497659" user="NKA">
		<tag k="historic" v="shieling" />
		<tag k="name" v="Fiksdalssetra" />
		<tag k="place" v="isolated_dwelling" />
		<tag k="ssr:stedsnr" v="72992" />
	</node>
	<node id="9946535320" lat="62.6129302" lon="6.8369282" version="1" timestamp="2022-08-11T06:02:49Z" changeset="124758290" uid="3497659" user="NKA">
		<tag k="name" v="Rustene" />
		<tag k="place" v="farm" />
		<tag k="ssr:stedsnr" v="95475" />
	</node>
	<node id="9946535321" lat="62.6103974" lon="6.8430068" version="1" timestamp="2022-08-11T06:02:49Z" changeset="124758290" uid="3497659" user="NKA">
		<tag k="name" v="Hjellen" />
		<tag k="place" v="farm" />
		<tag k="ssr:stedsnr" v="26290" />
	</node>
	<node id="9946535322" lat="62.600666" lon="6.931888" version="1" timestamp="2022-08-11T06:02:49Z" changeset="124758290" uid="3497659" user="NKA">
		<tag k="name" v="Li" />
		<tag k="place" v="hamlet" />
		<tag k="ssr:stedsnr" v="11952" />
	</node>
	<node id="9946535323" lat="62.5995088" lon="7.0603366" version="1" timestamp="2022-08-11T06:02:49Z" changeset="124758290" uid="3497659" user="NKA">
		<tag k="historic" v="shieling" />
		<tag k="name" v="Steinbua" />
		<tag k="place" v="isolated_dwelling" />
		<tag k="ssr:stedsnr" v="95450" />
	</node>
	<node id="9946535324" lat="62.6153114" lon="7.0320576" version="1" timestamp="2022-08-11T06:02:49Z" changeset="124758290" uid="3497659" user="NKA">
		<tag k="name" v="Støa" />
		<tag k="place" v="isolated_dwelling" />
		<tag k="ssr:stedsnr" v="95469" />
	</node>
	<node id="9946535325" lat="62.6279874" lon="6.9573502" version="1" timestamp="2022-08-11T06:02:49Z" changeset="124758290" uid="3497659" user="NKA">
		<tag k="name" v="Skogheim" />
		<tag k="place" v="farm" />
		<tag k="ssr:stedsnr" v="72028" />
	</node>
	<node id="9946535326" lat="62.5957818" lon="7.0628665" version="1" timestamp="2022-08-11T06:02:49Z" changeset="124758290" uid="3497659" user="NKA">
		<tag k="historic" v="shieling" />
		<tag k="name" v="Remmemssetra" />
		<tag k="place" v="isolated_dwelling" />
		<tag k="ssr:stedsnr" v="11999" />
	</node>
	<node id="9946535327" lat="62.5865498" lon="6.9102369" version="1" timestamp="2022-08-11T06:02:49Z" changeset="124758290" uid="3497659" user="NKA">
		<tag k="name" v="Juvikplassen" />
		<tag k="place" v="locality" />
		<tag k="ssr:stedsnr" v="762903" />
	</node>
	<node id="9946535328" lat="62.6513361" lon="6.9857223" version="1" timestamp="2022-08-11T06:02:49Z" changeset="124758290" uid="3497659" user="NKA">
		<tag k="name" v="Leirvågen" />
		<tag k="place" v="hamlet" />
		<tag k="ssr:stedsnr" v="861056" />
	</node>
	<node id="9946535329" lat="62.6325611" lon="6.9261195" version="1" timestamp="2022-08-11T06:02:49Z" changeset="124758290" uid="3497659" user="NKA">
		<tag k="name" v="Bakkelund" />
		<tag k="place" v="farm" />
		<tag k="ssr:stedsnr" v="557021" />
	</node>
	<node id="9946535330" lat="62.6177972" lon="6.9596668" version="1" timestamp="2022-08-11T06:02:49Z" changeset="124758290" uid="3497659" user="NKA">
		<tag k="name" v="Bruheim" />
		<tag k="place" v="farm" />
		<tag k="ssr:stedsnr" v="11944" />
	</node>
	<node id="9946535331" lat="62.645314" lon="6.9155928" version="1" timestamp="2022-08-11T06:02:49Z" changeset="124758290" uid="3497659" user="NKA">
		<tag k="name" v="Nybø" />
		<tag k="place" v="farm" />
		<tag k="ssr:stedsnr" v="641495" />
	</node>
	<node id="9946535332" lat="62.6102211" lon="7.0964426" version="1" timestamp="2022-08-11T06:02:49Z" changeset="124758290" uid="3497659" user="NKA">
		<tag k="name" v="Indre Remmem" />
		<tag k="place" v="farm" />
		<tag k="ssr:stedsnr" v="884469" />
	</node>
	<node id="9946535333" lat="62.6254864" lon="7.0313648" version="1" timestamp="2022-08-11T06:02:49Z" changeset="124758290" uid="3497659" user="NKA">
		<tag k="name" v="Stokkeland" />
		<tag k="place" v="hamlet" />
		<tag k="ssr:stedsnr" v="861967" />
	</node>
	<node id="9946535334" lat="62.6466834" lon="6.9193751" version="1" timestamp="2022-08-11T06:02:49Z" changeset="124758290" uid="3497659" user="NKA">
		<tag k="name" v="Storvika" />
		<tag k="place" v="farm" />
		<tag k="ssr:stedsnr" v="557049" />
	</node>
	<node id="9946535335" lat="62.6245833" lon="6.8459085" version="1" timestamp="2022-08-11T06:02:49Z" changeset="124758290" uid="3497659" user="NKA">
		<tag k="name" v="Myrane" />
		<tag k="place" v="farm" />
		<tag k="ssr:stedsnr" v="451297" />
	</node>
	<node id="9946535336" lat="62.6519204" lon="6.7549852" version="1" timestamp="2022-08-11T06:02:49Z" changeset="124758290" uid="3497659" user="NKA">
		<tag k="name" v="Myra" />
		<tag k="place" v="farm" />
		<tag k="ssr:stedsnr" v="520517" />
	</node>
	<node id="9946535337" lat="62.6172651" lon="7.0931007" version="1" timestamp="2022-08-11T06:02:49Z" changeset="124758290" uid="3497659" user="NKA">
		<tag k="name" v="Vestnes prestegard" />
		<tag k="place" v="farm" />
		<tag k="ssr:stedsnr" v="520506" />
	</node>
	<node id="9946535338" lat="62.6138401" lon="6.8601237" version="1" timestamp="2022-08-11T06:02:49Z" changeset="124758290" uid="3497659" user="NKA">
		<tag k="name" v="Myrås" />
		<tag k="place" v="farm" />
		<tag k="ssr:stedsnr" v="147270" />
	</node>
	<node id="9946535339" lat="62.6446" lon="6.7306113" version="1" timestamp="2022-08-11T06:02:49Z" changeset="124758290" uid="3497659" user="NKA">
		<tag k="name" v="Haugen" />
		<tag k="place" v="farm" />
		<tag k="ssr:stedsnr" v="779798" />
	</node>
	<node id="9946535340" lat="62.6370333" lon="6.9488445" version="1" timestamp="2022-08-11T06:02:49Z" changeset="124758290" uid="3497659" user="NKA">
		<tag k="name" v="Bakkebø" />
		<tag k="place" v="farm" />
		<tag k="ssr:stedsnr" v="436002" />
	</node>
	<node id="9946535341" lat="62.6100695" lon="7.0867141" version="1" timestamp="2022-08-11T06:02:49Z" changeset="124758290" uid="3497659" user="NKA">
		<tag k="name" v="Ulvestauå" />
		<tag k="place" v="locality" />
		<tag k="ssr:stedsnr" v="398808" />
	</node>
	<node id="9946535342" lat="62.6375416" lon="7.0364556" version="1" timestamp="2022-08-11T06:02:49Z" changeset="124758290" uid="3497659" user="NKA">
		<tag k="historic" v="shieling" />
		<tag k="name" v="Åssetra" />
		<tag k="place" v="isolated_dwelling" />
		<tag k="ssr:stedsnr" v="497008" />
	</node>
	<node id="9946535343" lat="62.6533972" lon="6.7686056" version="1" timestamp="2022-08-11T06:02:49Z" changeset="124758290" uid="3497659" user="NKA">
		<tag k="alt_name" v="Sandan" />
		<tag k="name" v="Sanden" />
		<tag k="place" v="farm" />
		<tag k="ssr:stedsnr" v="375051" />
	</node>
	<node id="9946535344" lat="62.6042361" lon="6.9366335" version="1" timestamp="2022-08-11T06:02:49Z" changeset="124758290" uid="3497659" user="NKA">
		<tag k="name" v="Nordli" />
		<tag k="place" v="farm" />
		<tag k="ssr:stedsnr" v="424035" />
	</node>
	<node id="9946535345" lat="62.6031945" lon="7.0341695" version="1" timestamp="2022-08-11T06:02:49Z" changeset="124758290" uid="3497659" user="NKA">
		<tag k="historic" v="shieling" />
		<tag k="name" v="Misfjordsetra" />
		<tag k="place" v="isolated_dwelling" />
		<tag k="ssr:stedsnr" v="375986" />
	</node>
	<node id="9946535346" lat="62.5957611" lon="6.7501973" version="1" timestamp="2022-08-11T06:02:49Z" changeset="124758290" uid="3497659" user="NKA">
		<tag k="name" v="Svarthammaren" />
		<tag k="place" v="isolated_dwelling" />
		<tag k="ssr:stedsnr" v="132993" />
	</node>
	<node id="9946535347" lat="62.6417861" lon="6.9429363" version="1" timestamp="2022-08-11T06:02:49Z" changeset="124758290" uid="3497659" user="NKA">
		<tag k="name" v="Øverås" />
		<tag k="place" v="hamlet" />
		<tag k="ssr:stedsnr" v="133008" />
	</node>
	<node id="9946535348" lat="62.6169216" lon="7.0827965" version="1" timestamp="2022-08-11T06:02:49Z" changeset="124758290" uid="3497659" user="NKA">
		<tag k="name" v="Kråkvika" />
		<tag k="place" v="neighbourhood" />
		<tag k="ssr:stedsnr" v="277585" />
	</node>
	<node id="9946535349" lat="62.6149145" lon="7.151362" version="1" timestamp="2022-08-11T06:02:49Z" changeset="124758290" uid="3497659" user="NKA">
		<tag k="name" v="Reset" />
		<tag k="place" v="farm" />
		<tag k="ssr:stedsnr" v="945471" />
	</node>
	<node id="9946535350" lat="62.6466664" lon="6.7440284" version="1" timestamp="2022-08-11T06:02:49Z" changeset="124758290" uid="3497659" user="NKA">
		<tag k="name" v="Rekdalsbakken" />
		<tag k="place" v="farm" />
		<tag k="ssr:stedsnr" v="217984" />
	</node>
	<node id="9946535351" lat="62.6502874" lon="6.7538749" version="1" timestamp="2022-08-11T06:02:49Z" changeset="124758290" uid="3497659" user="NKA">
		<tag k="name" v="Reset" />
		<tag k="place" v="farm" />
		<tag k="ssr:stedsnr" v="641489" />
	</node>
	<node id="9946535352" lat="62.6151518" lon="7.0828287" version="1" timestamp="2022-08-11T06:02:49Z" changeset="124758290" uid="3497659" user="NKA">
		<tag k="name" v="Kollen" />
		<tag k="place" v="neighbourhood" />
		<tag k="ssr:stedsnr" v="217596" />
	</node>
	<node id="9946535353" lat="62.6095052" lon="7.137969" version="1" timestamp="2022-08-11T06:02:49Z" changeset="124758290" uid="3497659" user="NKA">
		<tag k="name" v="Kjerringhaugen" />
		<tag k="place" v="farm" />
		<tag k="ssr:stedsnr" v="580823" />
	</node>
	<node id="9946535354" lat="62.6015117" lon="7.1348233" version="1" timestamp="2022-08-11T06:02:49Z" changeset="124758290" uid="3497659" user="NKA">
		<tag k="name" v="Krokset" />
		<tag k="place" v="hamlet" />
		<tag k="ssr:stedsnr" v="497972" />
	</node>
	<node id="9946535355" lat="62.6246861" lon="7.1701751" version="1" timestamp="2022-08-11T06:02:49Z" changeset="124758290" uid="3497659" user="NKA">
		<tag k="name" v="Gjermundnes" />
		<tag k="place" v="farm" />
		<tag k="ssr:stedsnr" v="605264" />
	</node>
	<node id="9946535356" lat="62.6042652" lon="7.3248335" version="1" timestamp="2022-08-11T06:02:49Z" changeset="124758290" uid="3497659" user="NKA">
		<tag k="name" v="Straume" />
		<tag k="place" v="hamlet" />
		<tag k="ssr:stedsnr" v="679547" />
	</node>
	<node id="9946535357" lat="62.6007167" lon="7.2434029" version="1" timestamp="2022-08-11T06:02:49Z" changeset="124758290" uid="3497659" user="NKA">
		<tag k="name" v="Nyheim" />
		<tag k="place" v="farm" />
		<tag k="ssr:stedsnr" v="254563" />
	</node>
	<node id="9946535358" lat="62.6070774" lon="7.2862931" version="1" timestamp="2022-08-11T06:02:49Z" changeset="124758290" uid="3497659" user="NKA">
		<tag k="name" v="Øygarden" />
		<tag k="place" v="hamlet" />
		<tag k="ssr:stedsnr" v="254547" />
	</node>
	<node id="9946535359" lat="62.6205019" lon="7.2569199" version="1" timestamp="2022-08-11T06:02:49Z" changeset="124758290" uid="3497659" user="NKA">
		<tag k="name" v="Skålhamna" />
		<tag k="place" v="hamlet" />
		<tag k="ssr:stedsnr" v="496682" />
	</node>
	<node id="9946535360" lat="62.6102611" lon="7.2222584" version="1" timestamp="2022-08-11T06:02:49Z" changeset="124758290" uid="3497659" user="NKA">
		<tag k="name" v="Saltbu" />
		<tag k="place" v="farm" />
		<tag k="ssr:stedsnr" v="375652" />
	</node>
	<node id="9946535361" lat="62.6069778" lon="7.1755694" version="1" timestamp="2022-08-11T06:02:49Z" changeset="124758290" uid="3497659" user="NKA">
		<tag k="historic" v="shieling" />
		<tag k="name" v="Vikesetra" />
		<tag k="place" v="isolated_dwelling" />
		<tag k="ssr:stedsnr" v="132990" />
	</node>
	<node id="9946535362" lat="62.6528405" lon="6.7836468" version="1" timestamp="2022-08-11T06:02:49Z" changeset="124758290" uid="3497659" user="NKA">
		<tag k="name" v="Gjelsteinlia" />
		<tag k="place" v="farm" />
		<tag k="ssr:stedsnr" v="922063" />
	</node>
	<node id="9946535363" lat="62.5836306" lon="7.319575" version="1" timestamp="2022-08-11T06:02:49Z" changeset="124758290" uid="3497659" user="NKA">
		<tag k="historic" v="shieling" />
		<tag k="name" v="Olasetra" />
		<tag k="place" v="isolated_dwelling" />
		<tag k="ssr:stedsnr" v="825612" />
	</node>
	<node id="9946535364" lat="62.6162933" lon="7.2090298" version="1" timestamp="2022-08-11T06:02:49Z" changeset="124758290" uid="3497659" user="NKA">
		<tag k="name" v="Haggarden" />
		<tag k="place" v="hamlet" />
		<tag k="ssr:stedsnr" v="11946" />
	</node>
	<node id="9946535365" lat="62.5956716" lon="7.1759912" version="1" timestamp="2022-08-11T06:02:49Z" changeset="124758290" uid="3497659" user="NKA">
		<tag k="historic" v="shieling" />
		<tag k="name" v="Helsetstølen" />
		<tag k="place" v="isolated_dwelling" />
		<tag k="ssr:stedsnr" v="884689" />
	</node>
	<node id="9946535366" lat="62.5449945" lon="7.1533473" version="1" timestamp="2022-08-11T06:02:49Z" changeset="124758290" uid="3497659" user="NKA">
		<tag k="name" v="Hoem" />
		<tag k="place" v="hamlet" />
		<tag k="ssr:stedsnr" v="800808" />
	</node>
	<node id="9946535367" lat="62.65275" lon="6.9669445" version="1" timestamp="2022-08-11T06:02:49Z" changeset="124758290" uid="3497659" user="NKA">
		<tag k="alt_name" v="Sanden" />
		<tag k="name" v="Sandan" />
		<tag k="place" v="farm" />
		<tag k="ssr:stedsnr" v="679057" />
	</node>
	<node id="9946535368" lat="62.5614583" lon="6.8960446" version="1" timestamp="2022-08-11T06:02:49Z" changeset="124758290" uid="3497659" user="NKA">
		<tag k="historic" v="shieling" />
		<tag k="name" v="Nedste Øygardssetra" />
		<tag k="place" v="isolated_dwelling" />
		<tag k="ssr:stedsnr" v="945502" />
	</node>
	<node id="9946535369" lat="62.6194554" lon="7.2495366" version="1" timestamp="2022-08-11T06:02:49Z" changeset="124758290" uid="3497659" user="NKA">
		<tag k="name" v="Juvika" />
		<tag k="place" v="farm" />
		<tag k="ssr:stedsnr" v="861625" />
	</node>
	<node id="9946535370" lat="62.602" lon="7.2975557" version="1" timestamp="2022-08-11T06:02:49Z" changeset="124758290" uid="3497659" user="NKA">
		<tag k="name" v="Torsteingarden" />
		<tag k="place" v="farm" />
		<tag k="ssr:stedsnr" v="703774" />
	</node>
	<node id="9946535371" lat="62.6273722" lon="6.9377362" version="1" timestamp="2022-08-11T06:02:49Z" changeset="124758290" uid="3497659" user="NKA">
		<tag k="alt_name" v="Neråssætra" />
		<tag k="name" v="Neråssetra" />
		<tag k="place" v="farm" />
		<tag k="ssr:stedsnr" v="801956" />
	</node>
	<node id="9946535372" lat="62.5877045" lon="7.1425288" version="1" timestamp="2022-08-11T06:02:49Z" changeset="124758290" uid="3497659" user="NKA">
		<tag k="name" v="Hagen" />
		<tag k="place" v="farm" />
		<tag k="ssr:stedsnr" v="641475" />
	</node>
	<node id="9946535373" lat="62.6157472" lon="7.0443724" version="1" timestamp="2022-08-11T06:02:49Z" changeset="124758290" uid="3497659" user="NKA">
		<tag k="name" v="Misfjorden" />
		<tag k="place" v="hamlet" />
		<tag k="ssr:stedsnr" v="921924" />
	</node>
	<node id="9946535374" lat="62.6347827" lon="7.0338783" version="1" timestamp="2022-08-11T06:02:49Z" changeset="124758290" uid="3497659" user="NKA">
		<tag k="name" v="Åsbøen" />
		<tag k="place" v="farm" />
		<tag k="ssr:stedsnr" v="922034" />
	</node>
	<node id="9946535375" lat="62.6161294" lon="7.2693536" version="1" timestamp="2022-08-11T06:02:49Z" changeset="124758290" uid="3497659" user="NKA">
		<tag k="name" v="Kormeset" />
		<tag k="place" v="hamlet" />
		<tag k="ssr:stedsnr" v="628638" />
	</node>
	<node id="9946535376" lat="62.520279" lon="7.137684" version="1" timestamp="2022-08-11T06:02:49Z" changeset="124758290" uid="3497659" user="NKA">
		<tag k="name" v="Kyrkjesylte" />
		<tag k="place" v="hamlet" />
		<tag k="ssr:stedsnr" v="922849" />
	</node>
	<node id="9946535377" lat="62.6025707" lon="7.2837282" version="1" timestamp="2022-08-11T06:02:49Z" changeset="124758290" uid="3497659" user="NKA">
		<tag k="name" v="Øygarden" />
		<tag k="place" v="farm" />
		<tag k="ssr:stedsnr" v="204134" />
	</node>
	<node id="9946535378" lat="62.6199501" lon="7.1499217" version="1" timestamp="2022-08-11T06:02:49Z" changeset="124758290" uid="3497659" user="NKA">
		<tag k="name" v="Madamplassen" />
		<tag k="place" v="farm" />
		<tag k="ssr:stedsnr" v="459476" />
	</node>
	<node id="9946535379" lat="62.5831208" lon="7.1468689" version="1" timestamp="2022-08-11T06:02:49Z" changeset="124758290" uid="3497659" user="NKA">
		<tag k="name" v="Skjegstad" />
		<tag k="place" v="hamlet" />
		<tag k="ssr:stedsnr" v="497874" />
	</node>
	<node id="9946535380" lat="62.6087667" lon="7.146064" version="1" timestamp="2022-08-11T06:02:49Z" changeset="124758290" uid="3497659" user="NKA">
		<tag k="name" v="Nilsgarden" />
		<tag k="place" v="locality" />
		<tag k="ssr:stedsnr" v="459474" />
	</node>
	<node id="9946535381" lat="62.608196" lon="7.135851" version="1" timestamp="2022-08-11T06:02:49Z" changeset="124758290" uid="3497659" user="NKA">
		<tag k="name" v="Olahaugen" />
		<tag k="place" v="farm" />
		<tag k="ssr:stedsnr" v="459463" />
	</node>
	<node id="9946535382" lat="62.6290851" lon="7.1645728" version="1" timestamp="2022-08-11T06:02:49Z" changeset="124758290" uid="3497659" user="NKA">
		<tag k="name" v="Einargarden" />
		<tag k="place" v="farm" />
		<tag k="ssr:stedsnr" v="277487" />
	</node>
	<node id="9946535383" lat="62.560071" lon="7.1538854" version="1" timestamp="2022-08-11T06:02:49Z" changeset="124758290" uid="3497659" user="NKA">
		<tag k="name" v="Indre Daugstad" />
		<tag k="old_name" v="Daugstad, indre" />
		<tag k="place" v="farm" />
		<tag k="ssr:stedsnr" v="496930" />
	</node>
	<node id="9946535384" lat="62.6210389" lon="7.1551335" version="1" timestamp="2022-08-11T06:02:49Z" changeset="124758290" uid="3497659" user="NKA">
		<tag k="name" v="Febrandshaugen" />
		<tag k="place" v="neighbourhood" />
		<tag k="ssr:stedsnr" v="277844" />
	</node>
	<node id="9946535385" lat="62.5035141" lon="7.1290546" version="1" timestamp="2022-08-11T06:02:49Z" changeset="124758290" uid="3497659" user="NKA">
		<tag k="name" v="Bakkegarden" />
		<tag k="place" v="farm" />
		<tag k="ssr:stedsnr" v="520539" />
	</node>
	<node id="9946535386" lat="62.6172689" lon="7.2059422" version="1" timestamp="2022-08-11T06:02:49Z" changeset="124758290" uid="3497659" user="NKA">
		<tag k="name" v="Pålgjerdet" />
		<tag k="place" v="farm" />
		<tag k="ssr:stedsnr" v="702474" />
	</node>
	<node id="9946535387" lat="62.6243333" lon="7.1495667" version="1" timestamp="2022-08-11T06:02:49Z" changeset="124758290" uid="3497659" user="NKA">
		<tag k="name" v="Leikarnes" />
		<tag k="place" v="farm" />
		<tag k="ssr:stedsnr" v="482989" />
	</node>
	<node id="9946535388" lat="62.6201294" lon="7.0902315" version="1" timestamp="2022-08-11T06:02:49Z" changeset="124758290" uid="3497659" user="NKA">
		<tag k="name" v="Nedre Helland" />
		<tag k="place" v="locality" />
		<tag k="ssr:stedsnr" v="303099" />
	</node>
	<node id="9946535389" lat="62.5773861" lon="7.1873613" version="1" timestamp="2022-08-11T06:02:49Z" changeset="124758290" uid="3497659" user="NKA">
		<tag k="name" v="Jørnstulen" />
		<tag k="place" v="locality" />
		<tag k="ssr:stedsnr" v="763730" />
	</node>
	<node id="9946535390" lat="62.6003278" lon="7.2575501" version="1" timestamp="2022-08-11T06:02:49Z" changeset="124758290" uid="3497659" user="NKA">
		<tag k="name" v="Gjerdet" />
		<tag k="place" v="farm" />
		<tag k="ssr:stedsnr" v="679542" />
	</node>
	<node id="9946535391" lat="62.5741387" lon="7.3599528" version="1" timestamp="2022-08-11T06:02:49Z" changeset="124758290" uid="3497659" user="NKA">
		<tag k="historic" v="shieling" />
		<tag k="name" v="Vestasetra" />
		<tag k="place" v="isolated_dwelling" />
		<tag k="ssr:stedsnr" v="375488" />
	</node>
	<node id="9946535392" lat="62.5043694" lon="7.1072722" version="1" timestamp="2022-08-11T06:02:49Z" changeset="124758290" uid="3497659" user="NKA">
		<tag k="name" v="Nordsletta" />
		<tag k="place" v="farm" />
		<tag k="ssr:stedsnr" v="801820" />
	</node>
	<node id="9946535393" lat="62.6116363" lon="7.2771279" version="1" timestamp="2022-08-11T06:02:49Z" changeset="124758290" uid="3497659" user="NKA">
		<tag k="name" v="Kolstad" />
		<tag k="place" v="hamlet" />
		<tag k="ssr:stedsnr" v="497549" />
	</node>
	<node id="9946535394" lat="62.6175272" lon="6.8621852" version="1" timestamp="2022-08-11T06:02:49Z" changeset="124758290" uid="3497659" user="NKA">
		<tag k="name" v="Nerstad" />
		<tag k="place" v="farm" />
		<tag k="ssr:stedsnr" v="398493" />
	</node>
	<node id="9946535395" lat="62.4683888" lon="7.0401958" version="1" timestamp="2022-08-11T06:02:49Z" changeset="124758290" uid="3497659" user="NKA">
		<tag k="historic" v="shieling" />
		<tag k="name" v="Kjersemsetra" />
		<tag k="place" v="hamlet" />
		<tag k="ssr:stedsnr" v="678362" />
	</node>
	<node id="9946535396" lat="62.4720056" lon="7.0302529" version="1" timestamp="2022-08-11T06:02:49Z" changeset="124758290" uid="3497659" user="NKA">
		<tag k="name" v="Åsrøra" />
		<tag k="place" v="neighbourhood" />
		<tag k="ssr:stedsnr" v="666717" />
	</node>
	<node id="9946535397" lat="62.5543963" lon="7.189271" version="1" timestamp="2022-08-11T06:02:49Z" changeset="124758290" uid="3497659" user="NKA">
		<tag k="alt_name" v="Sakselien" />
		<tag k="name" v="Sakselia" />
		<tag k="place" v="farm" />
		<tag k="ssr:stedsnr" v="254904" />
	</node>
	<node id="9946535398" lat="62.4907718" lon="7.1544902" version="1" timestamp="2022-08-11T06:02:49Z" changeset="124758290" uid="3497659" user="NKA">
		<tag k="name" v="Bretningan" />
		<tag k="place" v="farm" />
		<tag k="ssr:stedsnr" v="702102" />
	</node>
	<node id="9946535399" lat="62.4819556" lon="7.1122002" version="1" timestamp="2022-08-11T06:02:49Z" changeset="124758290" uid="3497659" user="NKA">
		<tag k="name" v="Øykjestølen" />
		<tag k="place" v="locality" />
		<tag k="ssr:stedsnr" v="945092" />
	</node>
	<node id="9946535400" lat="62.5992212" lon="7.2563785" version="1" timestamp="2022-08-11T06:02:49Z" changeset="124758290" uid="3497659" user="NKA">
		<tag k="name" v="Vikåsen" />
		<tag k="place" v="hamlet" />
		<tag k="ssr:stedsnr" v="922555" />
	</node>
	<node id="9946535401" lat="62.6061556" lon="7.332225" version="1" timestamp="2022-08-11T06:02:49Z" changeset="124758290" uid="3497659" user="NKA">
		<tag k="name" v="Lundsbø" />
		<tag k="place" v="farm" />
		<tag k="ssr:stedsnr" v="254548" />
	</node>
	<node id="9946535402" lat="62.5723859" lon="7.3447624" version="1" timestamp="2022-08-11T06:02:49Z" changeset="124758290" uid="3497659" user="NKA">
		<tag k="historic" v="shieling" />
		<tag k="name" v="Øvervågsetra" />
		<tag k="place" v="isolated_dwelling" />
		<tag k="ssr:stedsnr" v="72507" />
	</node>
	<node id="9946535403" lat="62.5999666" lon="7.100625" version="1" timestamp="2022-08-11T06:02:49Z" changeset="124758290" uid="3497659" user="NKA">
		<tag k="alt_name" v="Steinøygarden, ytre" />
		<tag k="name" v="Ytre Steinøygarden" />
		<tag k="place" v="hamlet" />
		<tag k="ssr:stedsnr" v="739963" />
	</node>
	<node id="9946535405" lat="62.5434223" lon="7.0878362" version="1" timestamp="2022-08-11T06:02:49Z" changeset="124758290" uid="3497659" user="NKA">
		<tag k="historic" v="shieling" />
		<tag k="name" v="Løviksetra" />
		<tag k="place" v="isolated_dwelling" />
		<tag k="ssr:stedsnr" v="922824" />
	</node>
	<node id="9946535406" lat="62.5703694" lon="7.1554529" version="1" timestamp="2022-08-11T06:02:49Z" changeset="124758290" uid="3497659" user="NKA">
		<tag k="name" v="Villa" />
		<tag k="place" v="hamlet" />
		<tag k="ssr:stedsnr" v="484232" />
	</node>
	<node id="9946535407" lat="62.5973306" lon="7.2462696" version="1" timestamp="2022-08-11T06:02:49Z" changeset="124758290" uid="3497659" user="NKA">
		<tag k="name" v="Åsen" />
		<tag k="place" v="farm" />
		<tag k="ssr:stedsnr" v="12589" />
	</node>
	<node id="9946535408" lat="62.5368639" lon="7.1991862" version="1" timestamp="2022-08-11T06:02:49Z" changeset="124758290" uid="3497659" user="NKA">
		<tag k="historic" v="shieling" />
		<tag k="name" v="Hoemssetra" />
		<tag k="place" v="isolated_dwelling" />
		<tag k="ssr:stedsnr" v="11841" />
	</node>
	<node id="9946535409" lat="62.5211166" lon="7.1239113" version="1" timestamp="2022-08-11T06:02:49Z" changeset="124758290" uid="3497659" user="NKA">
		<tag k="name" v="Sørsylte" />
		<tag k="place" v="hamlet" />
		<tag k="ssr:stedsnr" v="801784" />
	</node>
	<node id="9946535410" lat="62.5532482" lon="7.2169041" version="1" timestamp="2022-08-11T06:02:49Z" changeset="124758290" uid="3497659" user="NKA">
		<tag k="historic" v="shieling" />
		<tag k="name" v="Sessetra" />
		<tag k="place" v="hamlet" />
		<tag k="ssr:stedsnr" v="72905" />
	</node>
</osm>
