<?xml version="1.0" encoding="UTF-8"?>
<osm generator="osmapis" version="0.6">
	<node id="-420997" lat="59.0340158212" lon="5.75110443709">
		<tag k="name" v="Vågholmen lanterne" />
		<tag k="ssr:date" v="2016-12-29" />
		<tag k="ssr:gruppe" v="navigasjon" />
		<tag k="ssr:hovedgruppe" v="infrastruktur" />
		<tag k="ssr:stedsnr" v="163638" />
		<tag k="ssr:type" v="lanterne" />
	</node>
	<node id="-421083" lat="59.0439364913" lon="5.68057707934">
		<tag k="name" v="Linesundet lykt" />
		<tag k="ssr:date" v="2016-12-05" />
		<tag k="ssr:gruppe" v="navigasjon" />
		<tag k="ssr:hovedgruppe" v="infrastruktur" />
		<tag k="ssr:stedsnr" v="244804" />
		<tag k="ssr:type" v="fyrlykt" />
	</node>
	<node id="-421368" lat="59.0318055517" lon="5.7080111131">
		<tag k="name" v="Skaraberg lanterne" />
		<tag k="ssr:date" v="2016-05-11" />
		<tag k="ssr:gruppe" v="navigasjon" />
		<tag k="ssr:hovedgruppe" v="infrastruktur" />
		<tag k="ssr:stedsnr" v="770620" />
		<tag k="ssr:type" v="lanterne" />
	</node>
	<node id="-421367" lat="59.1004361086" lon="5.70032776955">
		<tag k="name" v="Vikebekken" />
		<tag k="ssr:date" v="2019-05-30" />
		<tag k="ssr:gruppe" v="veg" />
		<tag k="ssr:hovedgruppe" v="infrastruktur" />
		<tag k="ssr:stedsnr" v="768282" />
		<tag k="ssr:type" v="adressenavn" />
	</node>
	<node id="-420737" lat="59.1017888888" lon="5.70227777075">
		<tag k="name" v="Vikestubben" />
		<tag k="ssr:date" v="2019-05-30" />
		<tag k="ssr:gruppe" v="veg" />
		<tag k="ssr:hovedgruppe" v="infrastruktur" />
		<tag k="ssr:stedsnr" v="284496" />
		<tag k="ssr:type" v="adressenavn" />
	</node>
	<node id="-420875" lat="59.0421441286" lon="5.68547897459">
		<tag k="name" v="Storevollen" />
		<tag k="ssr:date" v="2019-05-30" />
		<tag k="ssr:gruppe" v="veg" />
		<tag k="ssr:hovedgruppe" v="infrastruktur" />
		<tag k="ssr:stedsnr" v="1032220" />
		<tag k="ssr:type" v="adressenavn" />
	</node>
	<node id="-421426" lat="59.0255472226" lon="5.66508055967">
		<tag k="name" v="Persholmen lanterne" />
		<tag k="ssr:date" v="2016-05-11" />
		<tag k="ssr:gruppe" v="navigasjon" />
		<tag k="ssr:hovedgruppe" v="infrastruktur" />
		<tag k="ssr:stedsnr" v="831767" />
		<tag k="ssr:type" v="lanterne" />
	</node>
	<node id="-421425" lat="59.0356222185" lon="5.66539445034">
		<tag k="name" v="Linegrunnen lanterne" />
		<tag k="old_name" v="Lingegrunnen" />
		<tag k="ssr:date" v="2016-05-11" />
		<tag k="ssr:gruppe" v="navigasjon" />
		<tag k="ssr:hovedgruppe" v="infrastruktur" />
		<tag k="ssr:stedsnr" v="831766" />
		<tag k="ssr:type" v="lanterne" />
	</node>
	<node id="-421069" lat="59.051402774" lon="5.68881111616">
		<tag k="name" v="Skarvaskjer" />
		<tag k="ssr:date" v="2016-05-10" />
		<tag k="ssr:gruppe" v="navigasjon" />
		<tag k="ssr:hovedgruppe" v="infrastruktur" />
		<tag k="ssr:stedsnr" v="241493" />
		<tag k="ssr:type" v="lanterne" />
	</node>
	<node id="-421068" lat="59.0608222256" lon="5.68809722356">
		<tag k="name" v="Askjemarka" />
		<tag k="ssr:date" v="2019-05-30" />
		<tag k="ssr:gruppe" v="veg" />
		<tag k="ssr:hovedgruppe" v="infrastruktur" />
		<tag k="ssr:stedsnr" v="237004" />
		<tag k="ssr:type" v="adressenavn" />
	</node>
	<node id="-421259" lat="59.1086111131" lon="5.59581111911">
		<tag k="alt_name" v="Sorgenfri lykt" />
		<tag k="name" v="Mastrafjord" />
		<tag k="ssr:date" v="2016-05-10" />
		<tag k="ssr:gruppe" v="navigasjon" />
		<tag k="ssr:hovedgruppe" v="infrastruktur" />
		<tag k="ssr:stedsnr" v="608382" />
		<tag k="ssr:type" v="fyrlykt" />
	</node>
	<node id="-420970" lat="59.0889805538" lon="5.56885277636">
		<tag k="alt_name" v="Fjøløy" />
		<tag k="name" v="Fjøløy fyr" />
		<tag k="ssr:date" v="2017-09-07" />
		<tag k="ssr:gruppe" v="navigasjon" />
		<tag k="ssr:hovedgruppe" v="infrastruktur" />
		<tag k="ssr:stedsnr" v="122352" />
		<tag k="ssr:type" v="fyrstasjon" />
	</node>
	<node id="-421271" lat="59.0989805568" lon="5.69968055503">
		<tag k="loc_name" v="Rennesøy" />
		<tag k="name" v="Rennesøy kommune" />
		<tag k="ssr:date" v="2017-03-24" />
		<tag k="ssr:gruppe" v="administrativeIndelinger" />
		<tag k="ssr:hovedgruppe" v="offentligAdministrasjon" />
		<tag k="ssr:stedsnr" v="631872" />
		<tag k="ssr:type" v="kommune" />
	</node>
	<node id="-420968" lat="59.0676750032" lon="5.71293611372">
		<tag k="name" v="Heimdrag lanterne" />
		<tag k="ssr:date" v="2016-05-10" />
		<tag k="ssr:gruppe" v="navigasjon" />
		<tag k="ssr:hovedgruppe" v="infrastruktur" />
		<tag k="ssr:stedsnr" v="120531" />
		<tag k="ssr:type" v="lanterne" />
	</node>
	<node id="-420967" lat="59.0840472219" lon="5.68957500361">
		<tag k="name" v="Torøy" />
		<tag k="ssr:date" v="2016-05-10" />
		<tag k="ssr:gruppe" v="navigasjon" />
		<tag k="ssr:hovedgruppe" v="infrastruktur" />
		<tag k="ssr:stedsnr" v="120525" />
		<tag k="ssr:type" v="lanterne" />
	</node>
	<node id="-420966" lat="59.0596555551" lon="5.70256944632">
		<tag k="name" v="Skorpeskjergrunnen lanterne" />
		<tag k="ssr:date" v="2016-05-10" />
		<tag k="ssr:gruppe" v="navigasjon" />
		<tag k="ssr:hovedgruppe" v="infrastruktur" />
		<tag k="ssr:stedsnr" v="120492" />
		<tag k="ssr:type" v="lanterne" />
	</node>
	<node id="-421137" lat="59.0489583362" lon="5.60815554817">
		<tag k="name" v="Gryda" />
		<tag k="ssr:date" v="2016-05-10" />
		<tag k="ssr:gruppe" v="navigasjon" />
		<tag k="ssr:hovedgruppe" v="infrastruktur" />
		<tag k="ssr:stedsnr" v="427802" />
		<tag k="ssr:type" v="fyrlykt" />
	</node>
	<node id="-420996" lat="59.0430000043" lon="5.67128888114">
		<tag k="name" v="Austnesgrunnen lanterne" />
		<tag k="ssr:date" v="2016-05-10" />
		<tag k="ssr:gruppe" v="navigasjon" />
		<tag k="ssr:hovedgruppe" v="infrastruktur" />
		<tag k="ssr:stedsnr" v="163543" />
		<tag k="ssr:type" v="lanterne" />
	</node>
	<node id="-421538" lat="60.8816104596" lon="6.30047518531">
		<tag k="name" v="Vestlandet" />
		<tag k="ssr:date" v="2019-01-06" />
		<tag k="ssr:gruppe" v="administrativeIndelinger" />
		<tag k="ssr:hovedgruppe" v="offentligAdministrasjon" />
		<tag k="ssr:stedsnr" v="974777" />
		<tag k="ssr:type" v="annenAdministrativInndeling" />
	</node>
	<node id="-421441" lat="59.0583861138" lon="5.7033750041">
		<tag k="name" v="Skorpeskjer" />
		<tag k="ssr:date" v="2016-05-11" />
		<tag k="ssr:gruppe" v="navigasjon" />
		<tag k="ssr:hovedgruppe" v="infrastruktur" />
		<tag k="ssr:stedsnr" v="844477" />
		<tag k="ssr:type" v="lanterne" />
	</node>
</osm>
