<?xml version="1.0" encoding="UTF-8"?>
<<<<<<< HEAD
<osm version="0.6" generator="osmapis">
	<node lat="68.82680277494555" lon="18.19166110331747" id="-34133">
		<tag k="highway" v="path" />
		<tag k="name" v="Høypyntvegen" />
		<tag k="ssr:stedsnr" v="10590" />
	</node>
	<node lat="68.88086389211162" lon="18.326230564416228" id="-34194">
		<tag k="highway" v="path" />
		<tag k="name" v="Åsvegen" />
		<tag k="ssr:stedsnr" v="237040" />
	</node>
	<node lat="68.8832916641533" lon="18.432644432924256" id="-34198">
=======
<osm generator="osmapis" version="0.6">
	<node id="-860160" lat="68.997869448" lon="18.4317138937">
>>>>>>> e1d4bc35ff8a6074a6f2e91616a996b547c36f15
		<tag k="highway" v="path" />
		<tag k="name" v="Veiskjellan" />
		<tag k="ssr:stedsnr" v="237070" />
	</node>
<<<<<<< HEAD
	<node lat="68.85454166766728" lon="18.389961094959983" id="-34214">
		<tag k="fixme" v="verify maritime location" />
		<tag k="mooring" v="yes" />
		<tag k="name" v="Båtstøa" />
		<tag k="place" v="locality" />
		<tag k="ssr:stedsnr" v="239153" />
	</node>
	<node lat="68.6497499992769" lon="18.96125831712766" id="-34520">
=======
	<node id="-859253" lat="68.8172055596" lon="18.1736166719">
>>>>>>> e1d4bc35ff8a6074a6f2e91616a996b547c36f15
		<tag k="highway" v="path" />
		<tag k="name" v="Lappveien" />
		<tag k="ssr:stedsnr" v="239535" />
	</node>
<<<<<<< HEAD
	<node lat="68.82816111334867" lon="18.419258325057175" id="-34561">
=======
	<node id="-858100" lat="68.8281611133" lon="18.4192583251">
>>>>>>> e1d4bc35ff8a6074a6f2e91616a996b547c36f15
		<tag k="junction" v="yes" />
		<tag k="name" v="Vikingkrysset" />
		<tag k="place" v="locality" />
		<tag k="ssr:stedsnr" v="297425" />
	</node>
<<<<<<< HEAD
	<node lat="69.00210277443202" lon="18.423986112951766" id="-34565">
		<tag k="ford" v="yes" />
		<tag k="name" v="Fossmovaet" />
		<tag k="place" v="locality" />
		<tag k="ssr:stedsnr" v="297772" />
	</node>
	<node lat="68.97892221961388" lon="18.513030551480036" id="-34589">
		<tag k="fixme" v="verify maritime location" />
		<tag k="mooring" v="yes" />
		<tag k="name" v="Stormostøa" />
		<tag k="place" v="locality" />
		<tag k="ssr:stedsnr" v="299877" />
	</node>
	<node lat="68.92368055737631" lon="18.425505549699082" id="-34660">
=======
	<node id="-859122" lat="68.8268027749" lon="18.1916611033">
>>>>>>> e1d4bc35ff8a6074a6f2e91616a996b547c36f15
		<tag k="highway" v="path" />
		<tag k="name" v="Stenveien" />
		<tag k="ssr:stedsnr" v="479179" />
	</node>
<<<<<<< HEAD
	<node lat="68.98169166616904" lon="18.511897228521633" id="-34684">
=======
	<node id="-858481" lat="68.7308666683" lon="18.0992833318">
>>>>>>> e1d4bc35ff8a6074a6f2e91616a996b547c36f15
		<tag k="fixme" v="verify maritime location" />
		<tag k="mooring" v="yes" />
		<tag k="name" v="Stormostøa" />
		<tag k="place" v="locality" />
		<tag k="ssr:stedsnr" v="479884" />
	</node>
<<<<<<< HEAD
	<node lat="68.75644166727831" lon="18.55375555400265" id="-34772">
		<tag k="highway" v="path" />
		<tag k="name" v="Krokengveien" />
		<tag k="ssr:stedsnr" v="421092" />
	</node>
	<node lat="68.75224167033808" lon="18.637744428246002" id="-34936">
		<tag k="highway" v="path" />
		<tag k="name" v="Sæterveien" />
		<tag k="ssr:stedsnr" v="540610" />
	</node>
	<node lat="68.73086666828507" lon="18.0992833318125" id="-35032">
=======
	<node id="-858863" lat="69.0077972233" lon="18.5189472091">
>>>>>>> e1d4bc35ff8a6074a6f2e91616a996b547c36f15
		<tag k="fixme" v="verify maritime location" />
		<tag k="mooring" v="yes" />
		<tag k="name" v="Båtstø" />
		<tag k="place" v="locality" />
		<tag k="ssr:stedsnr" v="658411" />
	</node>
<<<<<<< HEAD
	<node lat="68.67729444406514" lon="18.56710554716396" id="-35206">
		<tag k="ford" v="yes" />
		<tag k="name" v="Tømmervaet" />
		<tag k="place" v="locality" />
		<tag k="ssr:stedsnr" v="906412" />
	</node>
	<node lat="68.81972222266708" lon="18.475747215632307" id="-35360">
		<tag k="junction" v="yes" />
		<tag k="name" v="Haugveiskjellet" />
		<tag k="place" v="locality" />
		<tag k="ssr:stedsnr" v="906215" />
	</node>
	<node lat="68.81720555956116" lon="18.173616671858834" id="-35541">
=======
	<node id="-858212" lat="68.8545416677" lon="18.389961095">
		<tag k="fixme" v="verify maritime location" />
		<tag k="mooring" v="yes" />
		<tag k="name" v="Båtstøa" />
		<tag k="place" v="locality" />
		<tag k="ssr:stedsnr" v="239153" />
	</node>
	<node id="-858209" lat="68.8808638921" lon="18.3262305644">
>>>>>>> e1d4bc35ff8a6074a6f2e91616a996b547c36f15
		<tag k="highway" v="path" />
		<tag k="name" v="Permoveien" />
		<tag k="ssr:stedsnr" v="57229" />
	</node>
<<<<<<< HEAD
	<node lat="69.03227222098313" lon="18.526194441731402" id="-35600">
=======
	<node id="-858077" lat="68.8578833291" lon="18.0989250013">
>>>>>>> e1d4bc35ff8a6074a6f2e91616a996b547c36f15
		<tag k="highway" v="path" />
		<tag k="name" v="Gammelveien" />
		<tag k="ssr:stedsnr" v="111962" />
	</node>
<<<<<<< HEAD
	<node lat="68.39007499635652" lon="19.837780537211522" id="-35651">
=======
	<node id="-860122" lat="68.8633527738" lon="18.1148249912">
>>>>>>> e1d4bc35ff8a6074a6f2e91616a996b547c36f15
		<tag k="highway" v="path" />
		<tag k="name" v="Turist-vegen" />
		<tag k="ssr:stedsnr" v="138043" />
	</node>
<<<<<<< HEAD
	<node lat="68.64478610948844" lon="18.212102764990693" id="-35739">
		<tag k="fixme" v="verify maritime location" />
		<tag k="mooring" v="yes" />
		<tag k="name" v="Båtstøa" />
		<tag k="place" v="locality" />
		<tag k="ssr:stedsnr" v="176977" />
	</node>
	<node lat="68.85788332909127" lon="18.098925001295026" id="-35836">
=======
	<node id="-859620" lat="68.8016361122" lon="18.1869555538">
		<tag k="ford" v="yes" />
		<tag k="name" v="Gammelbrua" />
		<tag k="place" v="locality" />
		<tag k="ssr:stedsnr" v="310960" />
	</node>
	<node id="-859348" lat="69.032272221" lon="18.5261944417">
		<tag k="highway" v="path" />
		<tag k="name" v="Gammelveien" />
		<tag k="ssr:stedsnr" v="111962" />
	</node>
	<node id="-860371" lat="68.8264833318" lon="18.4602944357">
>>>>>>> e1d4bc35ff8a6074a6f2e91616a996b547c36f15
		<tag k="highway" v="path" />
		<tag k="name" v="Gammelveien" />
		<tag k="ssr:stedsnr" v="294151" />
	</node>
<<<<<<< HEAD
	<node lat="68.80163611224191" lon="18.186955553816777" id="-35892">
		<tag k="ford" v="yes" />
		<tag k="name" v="Gammelbrua" />
		<tag k="place" v="locality" />
		<tag k="ssr:stedsnr" v="310960" />
	</node>
	<node lat="68.83881666725436" lon="18.177816666279586" id="-35958">
=======
	<node id="-859726" lat="68.8437916662" lon="18.1621500016">
		<tag k="highway" v="path" />
		<tag k="name" v="Flågvegen" />
		<tag k="ssr:stedsnr" v="357571" />
	</node>
	<node id="-859725" lat="68.8388166673" lon="18.1778166663">
>>>>>>> e1d4bc35ff8a6074a6f2e91616a996b547c36f15
		<tag k="highway" v="path" />
		<tag k="name" v="Kvannskarvegen" />
		<tag k="ssr:stedsnr" v="357570" />
	</node>
<<<<<<< HEAD
	<node lat="68.84379166621395" lon="18.162150001631694" id="-35959">
		<tag k="alt_name" v="Flågvegen" />
		<tag k="highway" v="path" />
		<tag k="name" v="Flogvegen" />
		<tag k="ssr:stedsnr" v="357571" />
	</node>
	<node lat="69.00539722368363" lon="18.415983323114425" id="-36307">
=======
	<node id="-858694" lat="69.0053972237" lon="18.4159833231">
>>>>>>> e1d4bc35ff8a6074a6f2e91616a996b547c36f15
		<tag k="ford" v="yes" />
		<tag k="name" v="Russebrua" />
		<tag k="place" v="locality" />
		<tag k="ssr:stedsnr" v="540755" />
	</node>
<<<<<<< HEAD
	<node lat="68.8633527738231" lon="18.114824991203946" id="-36421">
		<tag k="highway" v="path" />
		<tag k="name" v="Bergeveien" />
		<tag k="ssr:stedsnr" v="597166" />
	</node>
	<node lat="68.99786944802425" lon="18.43171389372732" id="-36483">
		<tag k="highway" v="path" />
		<tag k="name" v="Åsseterveien" />
		<tag k="ssr:stedsnr" v="600982" />
	</node>
	<node lat="68.8293027777864" lon="18.46396943495052" id="-36605">
=======
	<node id="-858692" lat="68.7522416703" lon="18.6377444282">
		<tag k="highway" v="path" />
		<tag k="name" v="Sæterveien" />
		<tag k="ssr:stedsnr" v="540610" />
	</node>
	<node id="-859074" lat="68.6772944441" lon="18.5671055472">
		<tag k="ford" v="yes" />
		<tag k="name" v="Tømmervaet" />
		<tag k="place" v="locality" />
		<tag k="ssr:stedsnr" v="906412" />
	</node>
	<node id="-859071" lat="68.8197222227" lon="18.4757472156">
		<tag k="junction" v="yes" />
		<tag k="name" v="Haugveiskjellet" />
		<tag k="place" v="locality" />
		<tag k="ssr:stedsnr" v="906215" />
	</node>
	<node id="-857845" lat="68.8832916642" lon="18.4326444329">
		<tag k="highway" v="path" />
		<tag k="name" v="Veiskjellan" />
		<tag k="ssr:stedsnr" v="237070" />
	</node>
	<node id="-857912" lat="68.6497499993" lon="18.9612583171">
>>>>>>> e1d4bc35ff8a6074a6f2e91616a996b547c36f15
		<tag k="highway" v="path" />
		<tag k="name" v="Lappveien" />
		<tag k="ssr:stedsnr" v="661425" />
	</node>
<<<<<<< HEAD
	<node lat="69.00779722329835" lon="18.518947209136517" id="-36681">
=======
	<node id="-858289" lat="68.9816916662" lon="18.5118972285">
>>>>>>> e1d4bc35ff8a6074a6f2e91616a996b547c36f15
		<tag k="fixme" v="verify maritime location" />
		<tag k="mooring" v="yes" />
		<tag k="name" v="Brandmostøa" />
		<tag k="place" v="locality" />
		<tag k="ssr:stedsnr" v="722976" />
	</node>
<<<<<<< HEAD
	<node lat="68.82648333175814" lon="18.460294435739776" id="-36778">
		<tag k="highway" v="path" />
		<tag k="name" v="Gammelveien" />
		<tag k="ssr:stedsnr" v="782426" />
	</node>
	<node lat="68.99863889233175" lon="18.412580555008308" id="-37068">
=======
	<node id="-858032" lat="68.9789222196" lon="18.5130305515">
		<tag k="fixme" v="verify maritime location" />
		<tag k="mooring" v="yes" />
		<tag k="name" v="Stormostøa" />
		<tag k="place" v="locality" />
		<tag k="ssr:stedsnr" v="299877" />
	</node>
	<node id="-860704" lat="68.9986388923" lon="18.412580555">
>>>>>>> e1d4bc35ff8a6074a6f2e91616a996b547c36f15
		<tag k="highway" v="path" />
		<tag k="name" v="Fossmoseterveien" />
		<tag k="ssr:stedsnr" v="964970" />
	</node>
<<<<<<< HEAD
=======
	<node id="-858501" lat="68.8293027778" lon="18.463969435">
		<tag k="highway" v="path" />
		<tag k="name" v="Lappveien" />
		<tag k="ssr:stedsnr" v="661425" />
	</node>
	<node id="-858266" lat="68.9236805574" lon="18.4255055497">
		<tag k="highway" v="path" />
		<tag k="name" v="Stenveien" />
		<tag k="ssr:stedsnr" v="479179" />
	</node>
	<node id="-859925" lat="68.7564416673" lon="18.553755554">
		<tag k="highway" v="path" />
		<tag k="name" v="Krokengveien" />
		<tag k="ssr:stedsnr" v="421092" />
	</node>
	<node id="-859406" lat="68.3900749964" lon="19.8377805372">
		<tag k="highway" v="path" />
		<tag k="name" v="Turist-vegen" />
		<tag k="ssr:stedsnr" v="138043" />
	</node>
	<node id="-859525" lat="68.6447861095" lon="18.212102765">
		<tag k="fixme" v="verify maritime location" />
		<tag k="mooring" v="yes" />
		<tag k="name" v="Båtstøa" />
		<tag k="place" v="locality" />
		<tag k="ssr:stedsnr" v="176977" />
	</node>
	<node id="-858115" lat="69.0021027744" lon="18.423986113">
		<tag k="ford" v="yes" />
		<tag k="name" v="Fossmovaet" />
		<tag k="place" v="locality" />
		<tag k="ssr:stedsnr" v="297772" />
	</node>
>>>>>>> e1d4bc35ff8a6074a6f2e91616a996b547c36f15
</osm>
