<?xml version="1.0" encoding="UTF-8"?>
<osm version="0.6" generator="osmapis">
	<node lat="68.46527222439951" lon="19.891966652365245" id="-97085">
		<tag k="name" v="Bálggesgorssajávrrážat" />
		<tag k="name:se" v="Bálggesgorssajávrrážat" />
		<tag k="natural" v="water" />
		<tag k="ssr:stedsnr" v="17106" />
		<tag k="water" v="lake" />
	</node>
	<node lat="69.02063333277596" lon="18.485105540792294" id="-97088">
		<tag k="name" v="Storbekken" />
		<tag k="ssr:stedsnr" v="232955" />
		<tag k="waterway" v="stream" />
	</node>
	<node lat="69.02386110725327" lon="18.510108332068686" id="-97089">
		<tag k="name" v="Åsholmen" />
		<tag k="natural" v="bay" />
		<tag k="ssr:stedsnr" v="232960" />
	</node>
	<node lat="68.60739721947265" lon="18.55898332473419" id="-97090">
		<tag k="alt_name" v="Leirelva, nordre" />
		<tag k="name" v="Nordre Leirelva" />
		<tag k="ssr:stedsnr" v="17300" />
		<tag k="waterway" v="stream" />
	</node>
	<node lat="68.70097777750667" lon="19.06119721355164" id="-97101">
		<tag k="name" v="Luotnajohka" />
		<tag k="name:se" v="Luotnajohka" />
		<tag k="old_name:se" v="Luodnajåkka" />
		<tag k="ssr:stedsnr" v="18407" />
		<tag k="waterway" v="river" />
	</node>
	<node lat="68.8419527818567" lon="18.395566662413597" id="-97103">
		<tag k="name" v="Langvatnet" />
		<tag k="natural" v="water" />
		<tag k="ssr:stedsnr" v="18500" />
	</node>
	<node lat="68.74345000236501" lon="18.125427778633252" id="-97109">
		<tag k="name" v="Lappjordbekken" />
		<tag k="ssr:stedsnr" v="233459" />
		<tag k="waterway" v="stream" />
	</node>
	<node lat="68.74250832933765" lon="18.111747213729576" id="-97110">
		<tag k="name" v="Rotlibekken" />
		<tag k="ssr:stedsnr" v="233461" />
		<tag k="waterway" v="stream" />
	</node>
	<node lat="68.7347944472152" lon="18.087074992337975" id="-97111">
		<tag k="name" v="Nordelva" />
		<tag k="ssr:stedsnr" v="233463" />
		<tag k="waterway" v="stream" />
	</node>
	<node lat="68.62818055124545" lon="19.125472221512325" id="-97118">
		<tag k="alt_name:no" v="Strømmen" />
		<tag k="name" v="Straumen - Čoalbmi" />
		<tag k="name:no" v="Straumen" />
		<tag k="name:se" v="Čoalbmi" />
		<tag k="natural" v="strait" />
		<tag k="ssr:stedsnr" v="28503" />
	</node>
	<node lat="68.82806666867849" lon="18.442583329886258" id="-97125">
		<tag k="name" v="Odden" />
		<tag k="natural" v="cape" />
		<tag k="ssr:stedsnr" v="236438" />
	</node>
	<node lat="68.67026944831859" lon="18.53470555388794" id="-97127">
		<tag k="name" v="Kåsbekken" />
		<tag k="ssr:stedsnr" v="236398" />
		<tag k="waterway" v="stream" />
	</node>
	<node lat="68.8329666698542" lon="18.215916664528585" id="-97133">
		<tag k="name" v="Botntjønnan" />
		<tag k="natural" v="water" />
		<tag k="ssr:stedsnr" v="236548" />
		<tag k="water" v="lake" />
	</node>
	<node lat="68.7057388914191" lon="18.545805548795364" id="-97136">
		<tag k="name" v="Veslenget" />
		<tag k="natural" v="bay" />
		<tag k="ssr:stedsnr" v="236468" />
	</node>
	<node lat="68.8696666672114" lon="18.409547225659843" id="-97148">
		<tag k="name" v="Tangtjønna" />
		<tag k="natural" v="water" />
		<tag k="ssr:stedsnr" v="237130" />
	</node>
	<node lat="68.78948333024096" lon="18.20983610770771" id="-97150">
		<tag k="name" v="Storbekken" />
		<tag k="ssr:stedsnr" v="237560" />
		<tag k="waterway" v="stream" />
	</node>
	<node lat="68.65219444203271" lon="18.19989722799458" id="-97152">
		<tag k="name" v="Knutloken" />
		<tag k="ssr:stedsnr" v="237974" />
		<tag k="waterway" v="stream" />
	</node>
	<node lat="68.85246944647866" lon="18.25224722536423" id="-97155">
		<tag k="name" v="Lysterbekken" />
		<tag k="ssr:stedsnr" v="238367" />
		<tag k="waterway" v="stream" />
	</node>
	<node lat="68.96828055397586" lon="18.49283053772056" id="-97157">
		<tag k="name" v="Mellomloken" />
		<tag k="ssr:stedsnr" v="239126" />
		<tag k="waterway" v="stream" />
	</node>
	<node lat="69.03305833089189" lon="18.395063894235108" id="-97159">
		<tag k="name" v="Skrepstadbukta" />
		<tag k="natural" v="bay" />
		<tag k="ssr:stedsnr" v="238948" />
	</node>
	<node lat="68.85145555494476" lon="18.324283326963332" id="-97164">
		<tag k="name" v="Brusodden" />
		<tag k="natural" v="cape" />
		<tag k="ssr:stedsnr" v="239156" />
	</node>
	<node lat="68.96331667088404" lon="18.48791943343155" id="-97165">
		<tag k="name" v="Langloken" />
		<tag k="ssr:stedsnr" v="239173" />
		<tag k="waterway" v="stream" />
	</node>
	<node lat="68.79809999779852" lon="18.10484722999906" id="-97168">
		<tag k="name" v="Holmvatnet" />
		<tag k="natural" v="water" />
		<tag k="ssr:stedsnr" v="51380" />
	</node>
	<node lat="68.89570555135644" lon="18.228969438589477" id="-97173">
		<tag k="name" v="Kvitsteinodden" />
		<tag k="natural" v="cape" />
		<tag k="ssr:stedsnr" v="239357" />
	</node>
	<node lat="68.69243888956605" lon="18.095238876237445" id="-97177">
		<tag k="name" v="Leirbekkfossen" />
		<tag k="natural" v="waterfall" />
		<tag k="ssr:stedsnr" v="52421" />
	</node>
	<node lat="68.70838055283801" lon="18.555566667536862" id="-97183">
		<tag k="name" v="Loken" />
		<tag k="ssr:stedsnr" v="54482" />
		<tag k="waterway" v="stream" />
	</node>
	<node lat="68.82052222702922" lon="18.420344433951104" id="-97188">
		<tag k="name" v="Storholmen" />
		<tag k="place" v="islet" />
		<tag k="ssr:stedsnr" v="55050" />
	</node>
	<node lat="68.88109722339429" lon="18.425830544249372" id="-97190">
		<tag k="name" v="Langskråbekken" />
		<tag k="ssr:stedsnr" v="55067" />
		<tag k="waterway" v="stream" />
	</node>
	<node lat="68.65893333738396" lon="18.796894443326625" id="-97208">
		<tag k="name" v="Sæterøa" />
		<tag k="natural" v="bay" />
		<tag k="ssr:stedsnr" v="57528" />
	</node>
	<node lat="68.65638055798458" lon="18.823908322145854" id="-97209">
		<tag k="name" v="Fosshøla" />
		<tag k="natural" v="water" />
		<tag k="ssr:stedsnr" v="57537" />
		<tag k="water" v="lake" />
	</node>
	<node lat="68.53965555507793" lon="19.55486666582863" id="-97212">
		<tag k="name" v="Reintjørn" />
		<tag k="natural" v="water" />
		<tag k="ssr:stedsnr" v="78097" />
	</node>
	<node lat="68.48810833575666" lon="19.940597206240337" id="-97215">
		<tag k="name" v="Hávgajávrrážat" />
		<tag k="name:se" v="Hávgajávrrážat" />
		<tag k="natural" v="water" />
		<tag k="ssr:stedsnr" v="78102" />
		<tag k="water" v="lake" />
	</node>
	<node lat="68.63535833585699" lon="18.572672220912526" id="-97220">
		<tag k="name" v="Tverrelva" />
		<tag k="ssr:stedsnr" v="78307" />
		<tag k="waterway" v="stream" />
	</node>
	<node lat="68.67750833432775" lon="18.174480550464423" id="-97222">
		<tag k="name" v="Moholtbekken" />
		<tag k="ssr:stedsnr" v="78317" />
		<tag k="waterway" v="stream" />
	</node>
	<node lat="68.79537500169339" lon="18.480099986686195" id="-97225">
		<tag k="alt_name" v="Langvatnet" />
		<tag k="name" v="Langtjønna" />
		<tag k="natural" v="water" />
		<tag k="ssr:stedsnr" v="78450" />
	</node>
	<node lat="68.85238888863151" lon="18.26844166180791" id="-97226">
		<tag k="alt_name" v="Veslvatnet, øvre" />
		<tag k="name" v="Øvre Veslvatnet" />
		<tag k="natural" v="water" />
		<tag k="ssr:stedsnr" v="78510" />
	</node>
	<node lat="68.84392499975672" lon="18.21591943077096" id="-97229">
		<tag k="fixme" v="multiple name tags, choose one and add the other to alt_name" />
		<tag k="name" v="Kobbekken;Storbekken" />
		<tag k="ssr:stedsnr" v="78525" />
		<tag k="waterway" v="stream" />
	</node>
	<node lat="68.89178889188541" lon="18.252227775034427" id="-97231">
		<tag k="name" v="Álamuotki" />
		<tag k="name:se" v="Álamuotki" />
		<tag k="old_name:se" v="Alamuotki" />
		<tag k="place" v="locality" />
		<tag k="ssr:stedsnr" v="78593" />
	</node>
	<node lat="68.71631944902035" lon="18.481361107571598" id="-97234">
		<tag k="alt_name:no" v="Veslskarbekken" />
		<tag k="name" v="Vesleskardbekken - Jorbmejohka" />
		<tag k="name:no" v="Vesleskardbekken" />
		<tag k="name:se" v="Jorbmejohka" />
		<tag k="old_name:se" v="Jårbmejåkka" />
		<tag k="ssr:stedsnr" v="78654" />
		<tag k="waterway" v="stream" />
	</node>
	<node lat="68.51245555542769" lon="19.959530532495005" id="-97236">
		<tag k="name" v="Darfaljohka" />
		<tag k="name:se" v="Darfaljohka" />
		<tag k="ssr:stedsnr" v="79050" />
		<tag k="waterway" v="stream" />
	</node>
	<node lat="68.60272778075073" lon="19.175430547300383" id="-97238">
		<tag k="name" v="Krokbekken" />
		<tag k="ssr:stedsnr" v="79444" />
		<tag k="waterway" v="stream" />
	</node>
	<node lat="68.7032805511892" lon="18.10659721974359" id="-97247">
		<tag k="name" v="Holman" />
		<tag k="place" v="islet" />
		<tag k="ssr:stedsnr" v="112469" />
	</node>
	<node lat="68.81548888437858" lon="18.439491667811982" id="-97249">
		<tag k="name" v="Kvennbekken" />
		<tag k="ssr:stedsnr" v="115009" />
		<tag k="waterway" v="stream" />
	</node>
	<node lat="68.89384999841009" lon="18.365352770008233" id="-97253">
		<tag k="alt_name" v="Gammelranbekken" />
		<tag k="name" v="Gammelrombekken" />
		<tag k="ssr:stedsnr" v="115223" />
		<tag k="waterway" v="stream" />
	</node>
	<node lat="68.79542777375512" lon="18.54264722330605" id="-97260">
		<tag k="name" v="Sagkvisla" />
		<tag k="ssr:stedsnr" v="117004" />
		<tag k="waterway" v="stream" />
	</node>
	<node lat="68.78871389091596" lon="18.531211099433346" id="-97262">
		<tag k="name" v="Øra" />
		<tag k="natural" v="cape" />
		<tag k="ssr:stedsnr" v="117047" />
	</node>
	<node lat="68.80453055266986" lon="18.425302779354098" id="-97270">
		<tag k="name" v="Søndre Sandbergbekken" />
		<tag k="ssr:stedsnr" v="117405" />
		<tag k="waterway" v="stream" />
	</node>
	<node lat="68.66094721842654" lon="18.90223889066484" id="-97273">
		<tag k="name" v="Båthamna" />
		<tag k="natural" v="bay" />
		<tag k="ssr:stedsnr" v="117574" />
	</node>
	<node lat="69.00210555226077" lon="18.46439999305984" id="-97274">
		<tag k="name" v="Kvennhusflommen" />
		<tag k="place" v="locality" />
		<tag k="ssr:stedsnr" v="117972" />
	</node>
	<node lat="68.47488888725502" lon="20.183388877319366" id="-97282">
		<tag k="name" v="Stuoranjárga" />
		<tag k="name:se" v="Stuoranjárga" />
		<tag k="natural" v="cape" />
		<tag k="ssr:stedsnr" v="138106" />
	</node>
	<node lat="68.66837222455777" lon="18.456213886390117" id="-97284">
		<tag k="fixme" v="multiple name tags, choose one and add the other to alt_name" />
		<tag k="name" v="Iselva;Langfossen" />
		<tag k="ssr:stedsnr" v="138198" />
		<tag k="waterway" v="river" />
	</node>
	<node lat="69.00867090814296" lon="18.484528380320423" id="-97290">
		<tag k="name" v="Sagbekken" />
		<tag k="ssr:stedsnr" v="138644" />
		<tag k="waterway" v="stream" />
	</node>
	<node lat="68.97946666474056" lon="18.39473888003452" id="-97291">
		<tag k="name" v="Skoelva - Várdnoljohka" />
		<tag k="name:no" v="Skoelva" />
		<tag k="name:se" v="Várdnoljohka" />
		<tag k="old_name:se" v="Vardnuljåkka" />
		<tag k="ssr:stedsnr" v="138652" />
		<tag k="waterway" v="river" />
	</node>
	<node lat="68.4547999984649" lon="19.743338871912535" id="-97294">
		<tag k="name" v="Bihppášluokta" />
		<tag k="name:se" v="Bihppášluokta" />
		<tag k="natural" v="bay" />
		<tag k="ssr:stedsnr" v="139139" />
	</node>
	<node lat="68.5980749970989" lon="18.70389443899373" id="-97300">
		<tag k="name" v="Dittivatnet - Dihttijávri" />
		<tag k="name:no" v="Dittivatnet" />
		<tag k="name:se" v="Dihttijávri" />
		<tag k="natural" v="water" />
		<tag k="old_name:se" v="Dittejavri;Dihttejávri" />
		<tag k="ssr:stedsnr" v="139490" />
		<tag k="water" v="lake" />
	</node>
	<node lat="68.47799444520557" lon="19.40176666853315" id="-97303">
		<tag k="name" v="Jovnnetjávri" />
		<tag k="name:se" v="Jovnnetjávri" />
		<tag k="natural" v="water" />
		<tag k="ssr:stedsnr" v="260112" />
	</node>
	<node lat="68.42300833494001" lon="19.70321943335039" id="-97308">
		<tag k="name" v="Čuolbmajohka" />
		<tag k="name:se" v="Čuolbmajohka" />
		<tag k="ssr:stedsnr" v="260149" />
		<tag k="waterway" v="stream" />
	</node>
	<node lat="68.78005555886183" lon="18.642024983780747" id="-97309">
		<tag k="name" v="Rundtjørna" />
		<tag k="natural" v="water" />
		<tag k="ssr:stedsnr" v="260325" />
	</node>
	<node lat="68.6710361122928" lon="18.19912778577639" id="-97313">
		<tag k="name" v="Mobekken" />
		<tag k="ssr:stedsnr" v="260368" />
		<tag k="waterway" v="stream" />
	</node>
	<node lat="68.63715277624851" lon="19.303249993326226" id="-97317">
		<tag k="name" v="Gaskkamus Guolášjávri" />
		<tag k="name:se" v="Gaskkamus Guolášjávri" />
		<tag k="natural" v="water" />
		<tag k="old_name:se" v="Guolážjávri, gaskkamus" />
		<tag k="ssr:stedsnr" v="260428" />
		<tag k="water" v="lake" />
	</node>
	<node lat="68.76538333391171" lon="18.55302777810134" id="-97321">
		<tag k="name" v="Kvisla" />
		<tag k="ssr:stedsnr" v="260473" />
		<tag k="waterway" v="stream" />
	</node>
	<node lat="68.57291944429105" lon="18.87971944182968" id="-97324">
		<tag k="name" v="Rullájohka" />
		<tag k="name:se" v="Rullájohka" />
		<tag k="old_name:se" v="Rullajåkka" />
		<tag k="ssr:stedsnr" v="260484" />
		<tag k="waterway" v="stream" />
	</node>
	<node lat="68.69776944873125" lon="18.651911104957207" id="-97329">
		<tag k="name" v="Brefallsbekken" />
		<tag k="ssr:stedsnr" v="260497" />
		<tag k="waterway" v="stream" />
	</node>
	<node lat="68.88014721981648" lon="18.47392777745837" id="-97333">
		<tag k="fixme" v="multiple name tags, choose one and add the other to alt_name" />
		<tag k="name" v="Grena;Vesltverrelvgrena" />
		<tag k="ssr:stedsnr" v="260629" />
		<tag k="waterway" v="stream" />
	</node>
	<node lat="68.8124749978001" lon="18.138286117695227" id="-97335">
		<tag k="name" v="Skredbekken" />
		<tag k="ssr:stedsnr" v="260526" />
		<tag k="waterway" v="stream" />
	</node>
	<node lat="68.81847222007183" lon="18.421327775073298" id="-97337">
		<tag k="name" v="Svartvatnet" />
		<tag k="natural" v="water" />
		<tag k="ssr:stedsnr" v="260528" />
		<tag k="water" v="lake" />
	</node>
	<node lat="68.87190555882545" lon="18.37122220699742" id="-97339">
		<tag k="name" v="Sponga" />
		<tag k="place" v="locality" />
		<tag k="ssr:stedsnr" v="260535" />
	</node>
	<node lat="68.83874166587405" lon="18.349244443534182" id="-97341">
		<tag k="name" v="Rundvatnet" />
		<tag k="natural" v="water" />
		<tag k="ssr:stedsnr" v="260573" />
	</node>
	<node lat="68.73199722743493" lon="18.51782498555431" id="-97349">
		<tag k="name" v="Brubekken" />
		<tag k="ssr:stedsnr" v="260686" />
		<tag k="waterway" v="stream" />
	</node>
	<node lat="68.65935833636244" lon="18.506427777036404" id="-97355">
		<tag k="fixme" v="multiple name tags, choose one and add the other to alt_name" />
		<tag k="name" v="Isdalselva;Tverrelva" />
		<tag k="ssr:stedsnr" v="261285" />
		<tag k="waterway" v="river" />
	</node>
	<node lat="68.86283055699154" lon="18.46565276147563" id="-97358">
		<tag k="name" v="Trevatnan" />
		<tag k="natural" v="water" />
		<tag k="ssr:stedsnr" v="175104" />
		<tag k="water" v="lake" />
	</node>
	<node lat="68.58038055515544" lon="18.89520831448737" id="-97362">
		<tag k="alt_name:no" v="Salvasskarelva" />
		<tag k="name" v="Salvasskardelva - Salvvasjohka" />
		<tag k="name:no" v="Salvasskardelva" />
		<tag k="name:se" v="Salvvasjohka" />
		<tag k="old_name:se" v="Salvasjåkka" />
		<tag k="ssr:stedsnr" v="261454" />
		<tag k="waterway" v="river" />
	</node>
	<node lat="68.63758333621287" lon="18.983455543830768" id="-97363">
		<tag k="name" v="Stalloelva - Stállovádjájohka" />
		<tag k="name:no" v="Stalloelva" />
		<tag k="name:se" v="Stállovádjájohka" />
		<tag k="old_name:se" v="Stalluvaddjajåkka" />
		<tag k="ssr:stedsnr" v="261455" />
		<tag k="waterway" v="stream" />
	</node>
	<node lat="68.65419444062225" lon="18.743502773438696" id="-97370">
		<tag k="alt_name" v="Stenhaugbekken" />
		<tag k="name" v="Steinhaugbekken" />
		<tag k="ssr:stedsnr" v="261463" />
		<tag k="waterway" v="stream" />
	</node>
	<node lat="68.64891666873203" lon="18.543902763380018" id="-97373">
		<tag k="name" v="Ol-Olsabekken" />
		<tag k="ssr:stedsnr" v="176407" />
		<tag k="waterway" v="stream" />
	</node>
	<node lat="68.8001444407839" lon="18.54124165437389" id="-97383">
		<tag k="name" v="Loken" />
		<tag k="natural" v="water" />
		<tag k="ssr:stedsnr" v="178003" />
	</node>
	<node lat="68.73562500424596" lon="18.13423333049816" id="-97393">
		<tag k="name" v="Bygningsbekken" />
		<tag k="ssr:stedsnr" v="261657" />
		<tag k="waterway" v="stream" />
	</node>
	<node lat="68.95268888535529" lon="18.474499985053132" id="-97394">
		<tag k="name" v="Barduelva" />
		<tag k="ssr:stedsnr" v="261661" />
		<tag k="waterway" v="river" />
	</node>
	<node lat="68.61813055538087" lon="18.097100004362865" id="-97401">
		<tag k="alt_name:no" v="Rødvatnet" />
		<tag k="name" v="Raudvatnet - Ruksesjávri" />
		<tag k="name:no" v="Raudvatnet" />
		<tag k="name:se" v="Ruksesjávri" />
		<tag k="natural" v="water" />
		<tag k="old_name:se" v="Ruksesjavri" />
		<tag k="ssr:stedsnr" v="199312" />
		<tag k="water" v="lake" />
	</node>
	<node lat="68.51966667054214" lon="18.682480540012605" id="-97403">
		<tag k="name" v="Gurttejávri" />
		<tag k="name:se" v="Gurttejávri" />
		<tag k="natural" v="water" />
		<tag k="old_name:se" v="Gurtejavri;Gurtejávri" />
		<tag k="ssr:stedsnr" v="199413" />
	</node>
	<node lat="68.8751388923236" lon="18.325277770072923" id="-97405">
		<tag k="name" v="Stormyrbekken" />
		<tag k="ssr:stedsnr" v="199627" />
		<tag k="waterway" v="stream" />
	</node>
	<node lat="68.97022778201332" lon="18.495963875482115" id="-97409">
		<tag k="name" v="Snytten" />
		<tag k="natural" v="cape" />
		<tag k="ssr:stedsnr" v="267074" />
	</node>
	<node lat="68.50951666680243" lon="18.67714998959441" id="-97410">
		<tag k="name" v="Gurttejohka" />
		<tag k="name:se" v="Gurttejohka" />
		<tag k="old_name:se" v="Gurtejåkka" />
		<tag k="ssr:stedsnr" v="200409" />
		<tag k="waterway" v="stream" />
	</node>
	<node lat="68.5945249966509" lon="19.232016645299833" id="-97411">
		<tag k="name" v="Storbukta - Čoarddaluokta" />
		<tag k="name:no" v="Storbukta" />
		<tag k="name:se" v="Čoarddaluokta" />
		<tag k="natural" v="bay" />
		<tag k="ssr:stedsnr" v="200470" />
	</node>
	<node lat="68.63201666818212" lon="18.177008334716458" id="-97412">
		<tag k="alt_name" v="Rolegbekken" />
		<tag k="name" v="Roløbekken" />
		<tag k="ssr:stedsnr" v="200304" />
		<tag k="waterway" v="stream" />
	</node>
	<node lat="68.46230833103486" lon="19.767641644317443" id="-97421">
		<tag k="loc_name:no" v="Leinavatnet" />
		<tag k="name" v="Leinavatn - Davit Lenesjávri" />
		<tag k="name:no" v="Leinavatn" />
		<tag k="name:se" v="Davit Lenesjávri" />
		<tag k="natural" v="water" />
		<tag k="old_name:se" v="Lenesjávri, davit" />
		<tag k="ssr:stedsnr" v="207105" />
		<tag k="water" v="lake" />
	</node>
	<node lat="68.90747778224853" lon="18.39230832760601" id="-97430">
		<tag k="name" v="Kløvbekken" />
		<tag k="ssr:stedsnr" v="236178" />
		<tag k="waterway" v="stream" />
	</node>
	<node lat="68.92709999880636" lon="18.43398611836365" id="-97432">
		<tag k="name" v="Grøtvassbekken" />
		<tag k="ssr:stedsnr" v="236185" />
		<tag k="waterway" v="stream" />
	</node>
	<node lat="68.95004722420573" lon="18.45546666765735" id="-97441">
		<tag k="name" v="Nedre Skredbekk" />
		<tag k="ssr:stedsnr" v="236786" />
		<tag k="waterway" v="stream" />
	</node>
	<node lat="68.98955000261498" lon="18.50804444591121" id="-97442">
		<tag k="name" v="Albekken" />
		<tag k="ssr:stedsnr" v="236990" />
		<tag k="waterway" v="stream" />
	</node>
	<node lat="69.01910555866448" lon="18.433627769959692" id="-97446">
		<tag k="name" v="Hestjordvatnet" />
		<tag k="natural" v="water" />
		<tag k="ssr:stedsnr" v="237630" />
	</node>
	<node lat="68.63864721928333" lon="18.230199998986198" id="-97449">
		<tag k="name" v="Gåsodden" />
		<tag k="natural" v="cape" />
		<tag k="ssr:stedsnr" v="237936" />
	</node>
	<node lat="68.79316944378955" lon="18.542858333864448" id="-97453">
		<tag k="name" v="Loken" />
		<tag k="natural" v="water" />
		<tag k="ssr:stedsnr" v="238005" />
	</node>
	<node lat="68.75701388932978" lon="18.557288887871238" id="-97454">
		<tag k="name" v="Melhustjeldet" />
		<tag k="natural" v="spring" />
		<tag k="ssr:stedsnr" v="238088" />
	</node>
	<node lat="68.98355833410743" lon="18.408741666382856" id="-97461">
		<tag k="name" v="Storfossen" />
		<tag k="natural" v="waterfall" />
		<tag k="ssr:stedsnr" v="238985" />
	</node>
	<node lat="68.86523333555172" lon="18.35520277158979" id="-97464">
		<tag k="name" v="Odden" />
		<tag k="natural" v="cape" />
		<tag k="ssr:stedsnr" v="239139" />
	</node>
	<node lat="68.83489166998177" lon="18.48493332177144" id="-97465">
		<tag k="name" v="Libekkfossen" />
		<tag k="natural" v="waterfall" />
		<tag k="ssr:stedsnr" v="239181" />
	</node>
	<node lat="68.82853888956778" lon="18.496805551360517" id="-97466">
		<tag k="name" v="Bjønnmobekken" />
		<tag k="ssr:stedsnr" v="239183" />
		<tag k="waterway" v="stream" />
	</node>
	<node lat="68.63520000342672" lon="18.27303610794801" id="-97473">
		<tag k="name" v="Tverrelva" />
		<tag k="ssr:stedsnr" v="260217" />
		<tag k="waterway" v="river" />
	</node>
	<node lat="68.4363999966786" lon="19.698649982108556" id="-97474">
		<tag k="name" v="Gulmmaeatnu" />
		<tag k="name:se" v="Gulmmaeatnu" />
		<tag k="ssr:stedsnr" v="260153" />
		<tag k="waterway" v="river" />
	</node>
	<node lat="68.53056666595884" lon="19.2732888704536" id="-97475">
		<tag k="name" v="Davit Hávgajávri" />
		<tag k="name:se" v="Davit Hávgajávri" />
		<tag k="natural" v="water" />
		<tag k="old_name:se" v="Hávgajávri, daviet" />
		<tag k="ssr:stedsnr" v="260155" />
		<tag k="water" v="lake" />
	</node>
	<node lat="68.54375555759245" lon="19.220469435701677" id="-97476">
		<tag k="name" v="Nohtahanjohka" />
		<tag k="name:se" v="Nohtahanjohka" />
		<tag k="old_name:se" v="Nåttahanjåkka" />
		<tag k="ssr:stedsnr" v="260159" />
		<tag k="waterway" v="stream" />
	</node>
	<node lat="68.45255278033025" lon="19.59018054858665" id="-97477">
		<tag k="name" v="Eartebealčoalbmi" />
		<tag k="name:se" v="Eartebealčoalbmi" />
		<tag k="natural" v="strait" />
		<tag k="ssr:stedsnr" v="260160" />
	</node>
	<node lat="68.46111111348002" lon="19.74493609025456" id="-97478">
		<tag k="name" v="Láttatsuolu" />
		<tag k="name:se" v="Láttatsuolu" />
		<tag k="place" v="islet" />
		<tag k="ssr:stedsnr" v="260162" />
	</node>
	<node lat="68.46585277560246" lon="19.738088881400135" id="-97479">
		<tag k="name" v="Jorbasuolu" />
		<tag k="name:se" v="Jorbasuolu" />
		<tag k="place" v="islet" />
		<tag k="ssr:stedsnr" v="260163" />
	</node>
	<node lat="68.8869888888463" lon="18.377894429654777" id="-97483">
		<tag k="alt_name" v="Veslholmen" />
		<tag k="name" v="Vesleholmen" />
		<tag k="place" v="islet" />
		<tag k="ssr:stedsnr" v="260614" />
	</node>
	<node lat="68.74256111274065" lon="18.246391671018607" id="-97484">
		<tag k="name" v="Kopparskardelva" />
		<tag k="ssr:stedsnr" v="260648" />
		<tag k="waterway" v="stream" />
	</node>
	<node lat="68.84540833098694" lon="18.15903610673982" id="-97486">
		<tag k="name" v="Veslvatnet" />
		<tag k="natural" v="water" />
		<tag k="ssr:stedsnr" v="260557" />
	</node>
	<node lat="68.94320000438852" lon="18.466733327231513" id="-97487">
		<tag k="fixme" v="multiple name tags, choose one and add the other to alt_name" />
		<tag k="name" v="Kvisla;Storkvisla" />
		<tag k="ssr:stedsnr" v="260703" />
		<tag k="waterway" v="stream" />
	</node>
	<node lat="68.93576111269356" lon="18.500222218299722" id="-97489">
		<tag k="fixme" v="multiple name tags, choose one and add the other to alt_name" />
		<tag k="name" v="Stebekken;Nordre stebekk" />
		<tag k="ssr:stedsnr" v="260710" />
		<tag k="waterway" v="stream" />
	</node>
	<node lat="68.84606110999988" lon="18.264497205829198" id="-97492">
		<tag k="name" v="Kåsbekken" />
		<tag k="ssr:stedsnr" v="263688" />
		<tag k="waterway" v="stream" />
	</node>
	<node lat="68.67843333032846" lon="18.103619443236767" id="-97503">
		<tag k="alt_name" v="Stenelvfossen" />
		<tag k="name" v="Steinelvfossen" />
		<tag k="natural" v="waterfall" />
		<tag k="ssr:stedsnr" v="294427" />
	</node>
	<node lat="68.88755833422285" lon="18.42632500403893" id="-97509">
		<tag k="name" v="Vesljordbekken" />
		<tag k="ssr:stedsnr" v="297089" />
		<tag k="waterway" v="stream" />
	</node>
	<node lat="68.73852778051145" lon="18.64176665528947" id="-97514">
		<tag k="name" v="Strømslifossen" />
		<tag k="natural" v="waterfall" />
		<tag k="ssr:stedsnr" v="297605" />
	</node>
	<node lat="68.65909166718853" lon="18.18597222325279" id="-97518">
		<tag k="name" v="Holmen" />
		<tag k="place" v="islet" />
		<tag k="ssr:stedsnr" v="297882" />
	</node>
	<node lat="68.65305000051252" lon="18.208683330674493" id="-97519">
		<tag k="name" v="Storloken" />
		<tag k="ssr:stedsnr" v="297973" />
		<tag k="waterway" v="stream" />
	</node>
	<node lat="68.99869444712255" lon="18.444383331059807" id="-97520">
		<tag k="name" v="Odden" />
		<tag k="natural" v="cape" />
		<tag k="ssr:stedsnr" v="297975" />
	</node>
	<node lat="68.80168610867089" lon="18.536624987144606" id="-97522">
		<tag k="name" v="Kvisla" />
		<tag k="ssr:stedsnr" v="299005" />
		<tag k="waterway" v="stream" />
	</node>
	<node lat="68.95853611410224" lon="18.489736113554574" id="-97524">
		<tag k="name" v="Kvisla" />
		<tag k="ssr:stedsnr" v="299172" />
		<tag k="waterway" v="stream" />
	</node>
	<node lat="68.85453333723434" lon="18.262186117371872" id="-97530">
		<tag k="name" v="Veslbekken" />
		<tag k="ssr:stedsnr" v="299380" />
		<tag k="waterway" v="stream" />
	</node>
	<node lat="68.43967222232541" lon="19.792061086666457" id="-97540">
		<tag k="name" v="Strømmen - Lenesčoalbmi" />
		<tag k="name:no" v="Strømmen" />
		<tag k="name:se" v="Lenesčoalbmi" />
		<tag k="natural" v="strait" />
		<tag k="ssr:stedsnr" v="320115" />
	</node>
	<node lat="68.81020278235262" lon="18.257377769252727" id="-97542">
		<tag k="name" v="Krokbekken" />
		<tag k="ssr:stedsnr" v="320485" />
		<tag k="waterway" v="stream" />
	</node>
	<node lat="68.51984444111646" lon="20.009316647122297" id="-97543">
		<tag k="name" v="Darfaljávri" />
		<tag k="name:se" v="Darfaljávri" />
		<tag k="natural" v="water" />
		<tag k="ssr:stedsnr" v="321034" />
		<tag k="water" v="lake" />
	</node>
	<node lat="68.72328055776454" lon="18.516499987484508" id="-97557">
		<tag k="name" v="Skjelslettbekken" />
		<tag k="ssr:stedsnr" v="321622" />
		<tag k="waterway" v="stream" />
	</node>
	<node lat="68.95158888968653" lon="18.514544427528566" id="-97558">
		<tag k="alt_name" v="Bjørnslåttbekken" />
		<tag k="name" v="Bjønnslettbekken" />
		<tag k="ssr:stedsnr" v="321632" />
		<tag k="waterway" v="stream" />
	</node>
	<node lat="68.82734166327458" lon="18.14056389473387" id="-97560">
		<tag k="alt_name" v="Snørkevatnet" />
		<tag k="name" v="Snørkvatnet" />
		<tag k="natural" v="water" />
		<tag k="ssr:stedsnr" v="321502" />
	</node>
	<node lat="68.82230833269786" lon="18.299052785360548" id="-97561">
		<tag k="name" v="Storbekkvatnet" />
		<tag k="natural" v="water" />
		<tag k="ssr:stedsnr" v="321516" />
	</node>
	<node lat="68.82504999947804" lon="18.312472215735532" id="-97562">
		<tag k="name" v="Holmvatnet" />
		<tag k="natural" v="water" />
		<tag k="ssr:stedsnr" v="321517" />
	</node>
	<node lat="68.89280000053333" lon="18.334174991243856" id="-97576">
		<tag k="name" v="Skredbekken" />
		<tag k="ssr:stedsnr" v="357161" />
		<tag k="waterway" v="stream" />
	</node>
	<node lat="68.83061944635524" lon="18.2178277721291" id="-97579">
		<tag k="name" v="Botntjønnbekken" />
		<tag k="ssr:stedsnr" v="357549" />
		<tag k="waterway" v="stream" />
	</node>
	<node lat="68.8300888936864" lon="18.4356722074446" id="-97585">
		<tag k="name" v="Loken" />
		<tag k="natural" v="water" />
		<tag k="ssr:stedsnr" v="358464" />
	</node>
	<node lat="68.70251110785007" lon="18.68281109460748" id="-97589">
		<tag k="name" v="Fløbekken" />
		<tag k="ssr:stedsnr" v="359910" />
		<tag k="waterway" v="stream" />
	</node>
	<node lat="68.68184444644038" lon="18.122469433180914" id="-97604">
		<tag k="name" v="Tekkjeløfossen" />
		<tag k="natural" v="waterfall" />
		<tag k="ssr:stedsnr" v="476402" />
	</node>
	<node lat="68.89006110907897" lon="18.286447214555096" id="-97605">
		<tag k="name" v="Brudesløret" />
		<tag k="natural" v="waterfall" />
		<tag k="ssr:stedsnr" v="368323" />
	</node>
	<node lat="68.89316110943564" lon="18.340108325554407" id="-97609">
		<tag k="name" v="Seljehaugbekken" />
		<tag k="ssr:stedsnr" v="479174" />
		<tag k="waterway" v="stream" />
	</node>
	<node lat="68.92667778099572" lon="18.472266662056576" id="-97613">
		<tag k="name" v="Seterbekkjosen" />
		<tag k="natural" v="bay" />
		<tag k="ssr:stedsnr" v="479189" />
	</node>
	<node lat="68.86215277311948" lon="18.317322224491345" id="-97615">
		<tag k="name" v="Sæterbekken" />
		<tag k="ssr:stedsnr" v="479109" />
		<tag k="waterway" v="stream" />
	</node>
	<node lat="68.86141666737636" lon="18.431299994701433" id="-97616">
		<tag k="name" v="Første tjønna" />
		<tag k="natural" v="water" />
		<tag k="ssr:stedsnr" v="479136" />
	</node>
	<node lat="68.91320000376116" lon="18.381638882393887" id="-97618">
		<tag k="name" v="Nedre skredbekk" />
		<tag k="ssr:stedsnr" v="479144" />
		<tag k="waterway" v="stream" />
	</node>
	<node lat="68.79492499705968" lon="18.182225001563353" id="-97619">
		<tag k="name" v="Barflommen" />
		<tag k="natural" v="bay" />
		<tag k="ssr:stedsnr" v="370974" />
	</node>
	<node lat="69.02873610793254" lon="18.44197777416547" id="-97629">
		<tag k="name" v="Vassliodden" />
		<tag k="natural" v="cape" />
		<tag k="ssr:stedsnr" v="479597" />
	</node>
	<node lat="69.0299916631288" lon="18.43227221221005" id="-97630">
		<tag k="name" v="Råttvatnet" />
		<tag k="natural" v="water" />
		<tag k="ssr:stedsnr" v="479601" />
	</node>
	<node lat="68.66450278189446" lon="18.181077766812443" id="-97640">
		<tag k="name" v="Bjønneltet" />
		<tag k="ssr:stedsnr" v="479939" />
		<tag k="waterway" v="stream" />
	</node>
	<node lat="68.6513833380707" lon="18.20349721266471" id="-97643">
		<tag k="name" v="Storloken" />
		<tag k="ssr:stedsnr" v="479979" />
		<tag k="waterway" v="stream" />
	</node>
	<node lat="68.71826666979648" lon="18.548366674077965" id="-97649">
		<tag k="name" v="Gammelodden" />
		<tag k="natural" v="cape" />
		<tag k="ssr:stedsnr" v="481114" />
	</node>
	<node lat="68.86357222151464" lon="18.354577762238705" id="-97651">
		<tag k="name" v="Attkjippa" />
		<tag k="place" v="locality" />
		<tag k="ssr:stedsnr" v="481144" />
	</node>
	<node lat="68.76219444005787" lon="18.55388055244099" id="-97653">
		<tag k="name" v="Langloken" />
		<tag k="natural" v="water" />
		<tag k="ssr:stedsnr" v="481214" />
	</node>
	<node lat="68.78419722486862" lon="18.590155538865815" id="-97655">
		<tag k="name" v="Skredbekken" />
		<tag k="ssr:stedsnr" v="481223" />
		<tag k="waterway" v="stream" />
	</node>
	<node lat="68.89769722510461" lon="18.419538885177303" id="-97659">
		<tag k="name" v="Veslholmen" />
		<tag k="natural" v="cape" />
		<tag k="ssr:stedsnr" v="481199" />
	</node>
	<node lat="68.79859722533006" lon="18.433972217482292" id="-97664">
		<tag k="name" v="Per-Femtibekken" />
		<tag k="ssr:stedsnr" v="481399" />
		<tag k="waterway" v="stream" />
	</node>
	<node lat="68.84888333760185" lon="18.180191661999125" id="-97668">
		<tag k="alt_name" v="Flågvatnet" />
		<tag k="name" v="Flogvatnet" />
		<tag k="natural" v="water" />
		<tag k="ssr:stedsnr" v="481343" />
	</node>
	<node lat="68.5121777767578" lon="19.31258332966063" id="-97675">
		<tag k="name" v="Hávgaluoppal" />
		<tag k="name:se" v="Hávgaluoppal" />
		<tag k="natural" v="water" />
		<tag k="ssr:stedsnr" v="381110" />
		<tag k="water" v="lake" />
	</node>
	<node lat="68.63598611225315" lon="18.43197499302557" id="-97676">
		<tag k="name" v="Geitryggelva" />
		<tag k="ssr:stedsnr" v="381314" />
		<tag k="waterway" v="stream" />
	</node>
	<node lat="68.64082777446446" lon="18.599347225764422" id="-97677">
		<tag k="name" v="Eatnanjohka" />
		<tag k="name:se" v="Eatnanjohka" />
		<tag k="old_name:se" v="Ædnanjåkka" />
		<tag k="ssr:stedsnr" v="381315" />
		<tag k="waterway" v="stream" />
	</node>
	<node lat="68.61593333767756" lon="18.16789722436315" id="-97678">
		<tag k="name" v="Čierrunskáidi" />
		<tag k="name:se" v="Čierrunskáidi" />
		<tag k="natural" v="cape" />
		<tag k="old_name:se" v="Čierronskaidi" />
		<tag k="ssr:stedsnr" v="381320" />
	</node>
	<node lat="68.67832221923007" lon="18.730213883794235" id="-97679">
		<tag k="name" v="Rødhølen" />
		<tag k="natural" v="water" />
		<tag k="ssr:stedsnr" v="481923" />
		<tag k="water" v="lake" />
	</node>
	<node lat="68.52022500362249" lon="18.95130278116769" id="-97681">
		<tag k="name" v="Skadjajohka" />
		<tag k="name:se" v="Skadjajohka" />
		<tag k="old_name:se" v="Skaddjajåkka" />
		<tag k="ssr:stedsnr" v="381417" />
		<tag k="waterway" v="river" />
	</node>
	<node lat="69.03498055632025" lon="18.400877780473312" id="-97684">
		<tag k="name" v="Sandbukta" />
		<tag k="natural" v="bay" />
		<tag k="ssr:stedsnr" v="481954" />
	</node>
	<node lat="68.97702499748218" lon="18.469788875222452" id="-97689">
		<tag k="alt_name" v="Sagtjørna" />
		<tag k="name" v="Sagtjønna" />
		<tag k="natural" v="water" />
		<tag k="ssr:stedsnr" v="381671" />
	</node>
	<node lat="68.47041944056687" lon="19.506788877964226" id="-97690">
		<tag k="name" v="Sitnoluokta" />
		<tag k="name:se" v="Sitnoluokta" />
		<tag k="natural" v="bay" />
		<tag k="ssr:stedsnr" v="382066" />
	</node>
	<node lat="68.67021667016866" lon="18.151902773157854" id="-97699">
		<tag k="name" v="Greina" />
		<tag k="natural" v="strait" />
		<tag k="ssr:stedsnr" v="418909" />
	</node>
	<node lat="68.88622777744676" lon="18.36976943107206" id="-97702">
		<tag k="name" v="Veita" />
		<tag k="ssr:stedsnr" v="419041" />
		<tag k="waterway" v="stream" />
	</node>
	<node lat="68.87085277944986" lon="18.388511096608156" id="-97703">
		<tag k="name" v="Bergslettbekken" />
		<tag k="ssr:stedsnr" v="419091" />
		<tag k="waterway" v="stream" />
	</node>
	<node lat="68.88700555256588" lon="18.363902762079057" id="-97705">
		<tag k="name" v="Langodden" />
		<tag k="natural" v="cape" />
		<tag k="ssr:stedsnr" v="419107" />
	</node>
	<node lat="68.71675277574526" lon="18.54773054407276" id="-97708">
		<tag k="name" v="Odden" />
		<tag k="natural" v="cape" />
		<tag k="ssr:stedsnr" v="419491" />
	</node>
	<node lat="69.02664722555832" lon="18.440922223184394" id="-97710">
		<tag k="name" v="Vasslibekken" />
		<tag k="ssr:stedsnr" v="419606" />
		<tag k="waterway" v="stream" />
	</node>
	<node lat="68.64734722018181" lon="18.257719441555583" id="-97713">
		<tag k="name" v="Stenbruddsbekken" />
		<tag k="ssr:stedsnr" v="419985" />
		<tag k="waterway" v="stream" />
	</node>
	<node lat="69.03328610982848" lon="18.392666659351224" id="-97716">
		<tag k="name" v="Skrepstaden" />
		<tag k="natural" v="cape" />
		<tag k="ssr:stedsnr" v="420951" />
	</node>
	<node lat="68.80844166314085" lon="18.492447214152097" id="-97719">
		<tag k="name" v="Loken" />
		<tag k="natural" v="water" />
		<tag k="ssr:stedsnr" v="421139" />
	</node>
	<node lat="68.8559805548268" lon="18.31754721243592" id="-97720">
		<tag k="name" v="Olaodden" />
		<tag k="natural" v="cape" />
		<tag k="ssr:stedsnr" v="421141" />
	</node>
	<node lat="68.75406666729275" lon="18.585888879672826" id="-97721">
		<tag k="name" v="Undlendet" />
		<tag k="natural" v="beach" />
		<tag k="ssr:stedsnr" v="421089" />
	</node>
	<node lat="68.5666305562888" lon="18.560961094315303" id="-97730">
		<tag k="alt_name" v="Leirelva, s" />
		<tag k="name" v="Søre Leirelva" />
		<tag k="ssr:stedsnr" v="442307" />
		<tag k="waterway" v="river" />
	</node>
	<node lat="68.56198610826306" lon="18.263852779574467" id="-97731">
		<tag k="name" v="Goržejávri" />
		<tag k="name:se" v="Goržejávri" />
		<tag k="natural" v="water" />
		<tag k="old_name:se" v="Gåržejavri" />
		<tag k="ssr:stedsnr" v="442310" />
		<tag k="water" v="lake" />
	</node>
	<node lat="68.74476389188044" lon="18.63627499977887" id="-97732">
		<tag k="name" v="Sæterbekken" />
		<tag k="ssr:stedsnr" v="442313" />
		<tag k="waterway" v="stream" />
	</node>
	<node lat="68.68524167016906" lon="18.574447212527204" id="-97733">
		<tag k="alt_name" v="Mellombekken" />
		<tag k="name" v="Millabekken" />
		<tag k="ssr:stedsnr" v="442340" />
		<tag k="waterway" v="stream" />
	</node>
	<node lat="68.69545833399467" lon="19.255194423719516" id="-97734">
		<tag k="name" v="Gaskkasjávri" />
		<tag k="name:se" v="Gaskkasjávri" />
		<tag k="natural" v="water" />
		<tag k="ssr:stedsnr" v="442388" />
	</node>
	<node lat="68.68133611312065" lon="18.97285832882741" id="-97737">
		<tag k="name" v="Koievasselva" />
		<tag k="ssr:stedsnr" v="442505" />
		<tag k="waterway" v="river" />
	</node>
	<node lat="68.75978888574187" lon="18.554263886080953" id="-97739">
		<tag k="alt_name" v="Baugeloken" />
		<tag k="name" v="Baugloken" />
		<tag k="place" v="locality" />
		<tag k="ssr:stedsnr" v="442443" />
	</node>
	<node lat="68.88702222498384" lon="18.336041670677655" id="-97746">
		<tag k="alt_name" v="Høyetverrelva" />
		<tag k="name" v="Høgd-tverrelva" />
		<tag k="ssr:stedsnr" v="442593" />
		<tag k="waterway" v="river" />
	</node>
	<node lat="68.66225555515119" lon="18.57284722700816" id="-97748">
		<tag k="name" v="Mobekken" />
		<tag k="ssr:stedsnr" v="443285" />
		<tag k="waterway" v="stream" />
	</node>
	<node lat="68.82757777537196" lon="18.32358611542643" id="-97751">
		<tag k="name" v="Mellomvatnet" />
		<tag k="natural" v="water" />
		<tag k="ssr:stedsnr" v="443538" />
	</node>
	<node lat="68.79907222247279" lon="18.169299990590904" id="-97762">
		<tag k="name" v="Elvekroken" />
		<tag k="natural" v="bay" />
		<tag k="ssr:stedsnr" v="675973" />
	</node>
	<node lat="68.91362499565508" lon="18.43318333065222" id="-97766">
		<tag k="name" v="Skjellkvisla" />
		<tag k="natural" v="water" />
		<tag k="ssr:stedsnr" v="479164" />
		<tag k="water" v="lake" />
	</node>
	<node lat="68.81100833027983" lon="18.351536108867013" id="-97768">
		<tag k="name" v="Fridtjovvatnet" />
		<tag k="natural" v="water" />
		<tag k="ssr:stedsnr" v="479463" />
	</node>
	<node lat="68.76545833251096" lon="18.234786111785244" id="-97771">
		<tag k="name" v="Lappbekken" />
		<tag k="ssr:stedsnr" v="479613" />
		<tag k="waterway" v="stream" />
	</node>
	<node lat="68.8488388878558" lon="18.25637499184438" id="-97784">
		<tag k="name" v="Ranbekken" />
		<tag k="ssr:stedsnr" v="481371" />
		<tag k="waterway" v="stream" />
	</node>
	<node lat="68.8880277784254" lon="18.265858324279602" id="-97792">
		<tag k="alt_name" v="Veslvatnet" />
		<tag k="name" v="Vetlvatnet" />
		<tag k="natural" v="water" />
		<tag k="ssr:stedsnr" v="502610" />
	</node>
	<node lat="68.58182500416702" lon="19.440880552791292" id="-97796">
		<tag k="name" v="Gisttatjohka" />
		<tag k="name:se" v="Gisttatjohka" />
		<tag k="ssr:stedsnr" v="503106" />
		<tag k="waterway" v="stream" />
	</node>
	<node lat="68.49045277951683" lon="19.427033327720473" id="-97798">
		<tag k="name" v="Gassanjárga" />
		<tag k="name:se" v="Gassanjárga" />
		<tag k="natural" v="cape" />
		<tag k="ssr:stedsnr" v="503076" />
	</node>
	<node lat="68.67231388686272" lon="18.20948332074126" id="-97799">
		<tag k="name" v="Leirmelbekken" />
		<tag k="ssr:stedsnr" v="503302" />
		<tag k="waterway" v="stream" />
	</node>
	<node lat="68.65163889212862" lon="18.10258888851763" id="-97800">
		<tag k="name" v="Steinelvvatnet - Rudnesjávrrit" />
		<tag k="name:no" v="Steinelvvatnet" />
		<tag k="name:se" v="Rudnesjávrrit" />
		<tag k="natural" v="water" />
		<tag k="old_name:se" v="Rudnesjavrit" />
		<tag k="ssr:stedsnr" v="503310" />
		<tag k="water" v="lake" />
	</node>
	<node lat="68.60506388562234" lon="19.294041647800295" id="-97801">
		<tag k="name" v="Guolášjohka" />
		<tag k="name:se" v="Guolášjohka" />
		<tag k="ssr:stedsnr" v="503372" />
		<tag k="waterway" v="stream" />
	</node>
	<node lat="68.94619999803263" lon="18.442511101481475" id="-97813">
		<tag k="fixme" v="multiple name tags, choose one and add the other to alt_name" />
		<tag k="name" v="Skredbekken;Øvre Skredbekk" />
		<tag k="ssr:stedsnr" v="503619" />
		<tag k="waterway" v="stream" />
	</node>
	<node lat="68.78538611026167" lon="18.161969452341257" id="-97815">
		<tag k="name" v="Øya" />
		<tag k="place" v="islet" />
		<tag k="ssr:stedsnr" v="509502" />
	</node>
	<node lat="68.41668889148607" lon="19.817849984958652" id="-97818">
		<tag k="name" v="Čiekŋalisnjárga" />
		<tag k="name:se" v="Čiekŋalisnjárga" />
		<tag k="natural" v="cape" />
		<tag k="ssr:stedsnr" v="685033" />
	</node>
	<node lat="68.39025833444435" lon="19.82946109222353" id="-97819">
		<tag k="name" v="Ávžejohka" />
		<tag k="name:se" v="Ávžejohka" />
		<tag k="ssr:stedsnr" v="685040" />
		<tag k="waterway" v="stream" />
	</node>
	<node lat="68.48234444709425" lon="19.251361095078902" id="-97821">
		<tag k="name" v="Vággejohka" />
		<tag k="name:se" v="Vággejohka" />
		<tag k="ssr:stedsnr" v="685078" />
		<tag k="waterway" v="stream" />
	</node>
	<node lat="68.55971944659295" lon="19.125433322815876" id="-97822">
		<tag k="name" v="Jordbruelva - Čoarddajohka" />
		<tag k="name:no" v="Jordbruelva" />
		<tag k="name:se" v="Čoarddajohka" />
		<tag k="old_name:se" v="Čoardajåkka" />
		<tag k="ssr:stedsnr" v="685170" />
		<tag k="waterway" v="river" />
	</node>
	<node lat="68.86388333717319" lon="18.075952785735176" id="-97825">
		<tag k="name" v="Leirbekken" />
		<tag k="ssr:stedsnr" v="685266" />
		<tag k="waterway" v="stream" />
	</node>
	<node lat="68.91069721950214" lon="18.37637776168869" id="-97826">
		<tag k="name" v="Skredbekken" />
		<tag k="ssr:stedsnr" v="685269" />
		<tag k="waterway" v="stream" />
	</node>
	<node lat="68.8382888876074" lon="18.725133333910183" id="-97828">
		<tag k="name" v="Påveskardelva - Guhturjohka" />
		<tag k="name:no" v="Påveskardelva" />
		<tag k="name:se" v="Guhturjohka" />
		<tag k="ssr:stedsnr" v="685287" />
		<tag k="waterway" v="river" />
	</node>
	<node lat="68.67744166587148" lon="18.52547498504007" id="-97832">
		<tag k="name" v="Midtjordbekken" />
		<tag k="ssr:stedsnr" v="685320" />
		<tag k="waterway" v="stream" />
	</node>
	<node lat="68.66075555881557" lon="18.243399987972023" id="-97833">
		<tag k="fixme" v="multiple name tags, choose one and add the other to alt_name" />
		<tag k="name" v="Kråksundbekken;Kråkstenbekken" />
		<tag k="ssr:stedsnr" v="685325" />
		<tag k="waterway" v="stream" />
	</node>
	<node lat="68.82194444250564" lon="18.460019444469527" id="-97836">
		<tag k="alt_name" v="Åborvatnet" />
		<tag k="name" v="Abborvatnet" />
		<tag k="natural" v="water" />
		<tag k="ssr:stedsnr" v="685466" />
	</node>
	<node lat="68.77779166989347" lon="18.557041653531915" id="-97839">
		<tag k="name" v="Klyviloken" />
		<tag k="place" v="locality" />
		<tag k="ssr:stedsnr" v="685417" />
	</node>
	<node lat="68.7821416647574" lon="18.590144428270236" id="-97843">
		<tag k="alt_name" v="Skredtjørna" />
		<tag k="name" v="Skredtjønna" />
		<tag k="natural" v="water" />
		<tag k="ssr:stedsnr" v="685432" />
	</node>
	<node lat="68.58987500113705" lon="18.924049989900354" id="-97844">
		<tag k="name" v="Bajit Doaresjohka" />
		<tag k="name:se" v="Bajit Doaresjohka" />
		<tag k="old_name:se" v="Doaresjåkka, bajit" />
		<tag k="ssr:stedsnr" v="685434" />
		<tag k="waterway" v="stream" />
	</node>
	<node lat="68.81594444688803" lon="18.38797223106128" id="-97849">
		<tag k="name" v="Sæterbekken" />
		<tag k="ssr:stedsnr" v="685478" />
		<tag k="waterway" v="stream" />
	</node>
	<node lat="68.86212777855877" lon="18.167983317517887" id="-97851">
		<tag k="alt_name" v="Jektekjølskarvatnet" />
		<tag k="name" v="Jektekjølskardvatnet" />
		<tag k="natural" v="water" />
		<tag k="ssr:stedsnr" v="685486" />
	</node>
	<node lat="68.9253138873665" lon="18.190474997801513" id="-97853">
		<tag k="name" v="Lappvatnet" />
		<tag k="natural" v="water" />
		<tag k="ssr:stedsnr" v="685565" />
	</node>
	<node lat="68.90914274645303" lon="18.265249680662087" id="-97854">
		<tag k="name" v="Veslortvatnet" />
		<tag k="natural" v="water" />
		<tag k="ssr:stedsnr" v="685584" />
	</node>
	<node lat="68.88114722292002" lon="18.24604999885863" id="-97855">
		<tag k="name" v="Grønlivatnet" />
		<tag k="natural" v="water" />
		<tag k="ssr:stedsnr" v="685608" />
	</node>
	<node lat="68.84502221863889" lon="18.289972214172277" id="-97857">
		<tag k="alt_name:no" v="Kobberyggelva" />
		<tag k="name" v="Kobbryggelva - Suivvejohka" />
		<tag k="name:no" v="Kobbryggelva" />
		<tag k="name:se" v="Suivvejohka" />
		<tag k="old_name:se" v="Suivejåkka" />
		<tag k="ssr:stedsnr" v="685525" />
		<tag k="waterway" v="river" />
	</node>
	<node lat="68.74854722592394" lon="18.537991661641204" id="-97859">
		<tag k="fixme" v="multiple name tags, choose one and add the other to alt_name" />
		<tag k="name" v="Stortjørna;Størtjernet" />
		<tag k="natural" v="water" />
		<tag k="ssr:stedsnr" v="685612" />
		<tag k="water" v="lake" />
	</node>
	<node lat="68.73824722309426" lon="18.545136112468917" id="-97860">
		<tag k="alt_name" v="Butjørna" />
		<tag k="name" v="Butjønna" />
		<tag k="natural" v="water" />
		<tag k="ssr:stedsnr" v="685658" />
	</node>
	<node lat="69.02226666446771" lon="18.425955552848393" id="-97862">
		<tag k="name" v="Rundhaugvatnet" />
		<tag k="natural" v="water" />
		<tag k="ssr:stedsnr" v="685886" />
	</node>
	<node lat="68.85050000195602" lon="18.398066673011222" id="-97871">
		<tag k="name" v="Øya" />
		<tag k="natural" v="cape" />
		<tag k="ssr:stedsnr" v="539116" />
	</node>
	<node lat="68.90743611126254" lon="18.44999999623846" id="-97872">
		<tag k="name" v="Skjellbekken" />
		<tag k="ssr:stedsnr" v="539128" />
		<tag k="waterway" v="stream" />
	</node>
	<node lat="68.84143611102274" lon="18.211302773169837" id="-97878">
		<tag k="name" v="Bjønntjønna" />
		<tag k="natural" v="water" />
		<tag k="ssr:stedsnr" v="539563" />
	</node>
	<node lat="68.82193611075657" lon="18.44564721421565" id="-97882">
		<tag k="name" v="Kvisla" />
		<tag k="natural" v="water" />
		<tag k="ssr:stedsnr" v="540005" />
	</node>
	<node lat="68.69904444344566" lon="18.516286102847708" id="-97884">
		<tag k="name" v="Stordolpa" />
		<tag k="ssr:stedsnr" v="540476" />
		<tag k="waterway" v="stream" />
	</node>
	<node lat="68.73283333201269" lon="18.532055561886313" id="-97895">
		<tag k="name" v="Småskredbekken" />
		<tag k="ssr:stedsnr" v="542117" />
		<tag k="waterway" v="stream" />
	</node>
	<node lat="68.75601388968914" lon="18.573622223135082" id="-97900">
		<tag k="name" v="Øverodden" />
		<tag k="natural" v="cape" />
		<tag k="ssr:stedsnr" v="542078" />
	</node>
	<node lat="68.6644944454122" lon="18.222244447582757" id="-97913">
		<tag k="fixme" v="multiple name tags, choose one and add the other to alt_name" />
		<tag k="name" v="Reinvassbekken;Regnvassbekken" />
		<tag k="ssr:stedsnr" v="555270" />
		<tag k="waterway" v="stream" />
	</node>
	<node lat="69.0207361069198" lon="18.53771111093461" id="-97922">
		<tag k="name" v="Kvennbekken" />
		<tag k="ssr:stedsnr" v="596969" />
		<tag k="waterway" v="stream" />
	</node>
	<node lat="69.01703333501061" lon="18.471313884927184" id="-97933">
		<tag k="name" v="Sundheimbekken" />
		<tag k="ssr:stedsnr" v="600760" />
		<tag k="waterway" v="stream" />
	</node>
	<node lat="68.78923055672298" lon="18.52025554556408" id="-97936">
		<tag k="name" v="Langtjønna" />
		<tag k="natural" v="water" />
		<tag k="ssr:stedsnr" v="602003" />
	</node>
	<node lat="68.79217777383164" lon="18.540913888263386" id="-97937">
		<tag k="name" v="Loken" />
		<tag k="natural" v="water" />
		<tag k="ssr:stedsnr" v="602013" />
	</node>
	<node lat="68.89898610780082" lon="18.43779721268232" id="-97938">
		<tag k="name" v="Skjellbekken" />
		<tag k="ssr:stedsnr" v="602211" />
		<tag k="waterway" v="stream" />
	</node>
	<node lat="68.8947361136965" lon="18.40960000584646" id="-97939">
		<tag k="name" v="Loken" />
		<tag k="natural" v="water" />
		<tag k="ssr:stedsnr" v="602212" />
	</node>
	<node lat="68.68027778174984" lon="18.551294446696538" id="-97951">
		<tag k="name" v="Midtjordsvingen" />
		<tag k="natural" v="bay" />
		<tag k="ssr:stedsnr" v="602400" />
	</node>
	<node lat="68.63181111312382" lon="19.320955558002407" id="-97961">
		<tag k="name" v="Vuolimus Guolášjávri" />
		<tag k="name:se" v="Vuolimus Guolášjávri" />
		<tag k="natural" v="water" />
		<tag k="old_name:se" v="Guolážjávri, vuolimus" />
		<tag k="ssr:stedsnr" v="624409" />
		<tag k="water" v="lake" />
	</node>
	<node lat="68.63490255727606" lon="18.24835195605545" id="-97963">
		<tag k="name" v="Storjordbekken" />
		<tag k="ssr:stedsnr" v="624309" />
		<tag k="waterway" v="stream" />
	</node>
	<node lat="68.63066944517263" lon="18.28854442983757" id="-97964">
		<tag k="name" v="Budalselva" />
		<tag k="ssr:stedsnr" v="624312" />
		<tag k="waterway" v="river" />
	</node>
	<node lat="68.70588055603153" lon="18.441591652362007" id="-97966">
		<tag k="name" v="Svartskredbekken" />
		<tag k="ssr:stedsnr" v="624361" />
		<tag k="waterway" v="stream" />
	</node>
	<node lat="68.63199166828235" lon="19.187924980013296" id="-97969">
		<tag k="name" v="Steinelva - Sieiddejohka" />
		<tag k="name:no" v="Steinelva" />
		<tag k="name:se" v="Sieiddejohka" />
		<tag k="old_name:se" v="Sieidejåkka" />
		<tag k="ssr:stedsnr" v="624459" />
		<tag k="waterway" v="stream" />
	</node>
	<node lat="68.75343333320183" lon="18.16982777043372" id="-97971">
		<tag k="fixme" v="multiple name tags, choose one and add the other to alt_name" />
		<tag k="name" v="Kvernelva;Kvennelva" />
		<tag k="ssr:stedsnr" v="624464" />
		<tag k="waterway" v="river" />
	</node>
	<node lat="68.64323888943981" lon="18.771052772232892" id="-97972">
		<tag k="alt_name:no" v="Helenelva" />
		<tag k="name" v="Dittielva - Dihttijohka" />
		<tag k="name:no" v="Dittielva" />
		<tag k="name:se" v="Dihttijohka" />
		<tag k="old_name:se" v="Dittejåkka;Dihttejohka" />
		<tag k="ssr:stedsnr" v="624465" />
		<tag k="waterway" v="river" />
	</node>
	<node lat="68.9403138869358" lon="18.36843332042766" id="-97975">
		<tag k="name" v="Skardvatnet" />
		<tag k="natural" v="water" />
		<tag k="ssr:stedsnr" v="624659" />
	</node>
	<node lat="68.649405553057" lon="19.036802765860596" id="-97979">
		<tag k="name" v="Storholmen" />
		<tag k="place" v="islet" />
		<tag k="ssr:stedsnr" v="634530" />
	</node>
	<node lat="68.84341111075908" lon="18.407522227622252" id="-97990">
		<tag k="name" v="Holmen" />
		<tag k="place" v="islet" />
		<tag k="ssr:stedsnr" v="661402" />
	</node>
	<node lat="68.67066944835756" lon="18.15216666116326" id="-97994">
		<tag k="name" v="Holmen" />
		<tag k="place" v="islet" />
		<tag k="ssr:stedsnr" v="661932" />
	</node>
	<node lat="68.79027500333748" lon="18.523944445895552" id="-97998">
		<tag k="name" v="Glapbekken" />
		<tag k="ssr:stedsnr" v="663009" />
		<tag k="waterway" v="stream" />
	</node>
	<node lat="68.71752777920241" lon="18.552772212328293" id="-98000">
		<tag k="name" v="Smedbekken" />
		<tag k="ssr:stedsnr" v="663109" />
		<tag k="waterway" v="stream" />
	</node>
	<node lat="68.89666389200593" lon="18.414730561350122" id="-98005">
		<tag k="name" v="Lokan" />
		<tag k="natural" v="bay" />
		<tag k="ssr:stedsnr" v="663210" />
	</node>
	<node lat="68.96849444769025" lon="18.322419439348298" id="-98007">
		<tag k="name" v="Kampbekken - Várdnolriehpijohka" />
		<tag k="name:no" v="Kampbekken" />
		<tag k="name:se" v="Várdnolriehpijohka" />
		<tag k="ssr:stedsnr" v="663191" />
		<tag k="waterway" v="stream" />
	</node>
	<node lat="68.8890527772292" lon="18.25866110974708" id="-98009">
		<tag k="name" v="Storbekken" />
		<tag k="ssr:stedsnr" v="672269" />
		<tag k="waterway" v="stream" />
	</node>
	<node lat="68.77594166708526" lon="18.21334165824369" id="-98011">
		<tag k="fixme" v="multiple name tags, choose one and add the other to alt_name" />
		<tag k="name" v="Tverrelva;Liveltskardelva" />
		<tag k="ssr:stedsnr" v="684604" />
		<tag k="waterway" v="river" />
	</node>
	<node lat="68.39219166370633" lon="19.932013879456143" id="-98012">
		<tag k="name" v="Vuoskkomuotki" />
		<tag k="name:se" v="Vuoskkomuotki" />
		<tag k="place" v="locality" />
		<tag k="ssr:stedsnr" v="685019" />
	</node>
	<node lat="68.46855000319746" lon="19.758255548132013" id="-98016">
		<tag k="name" v="Bjørkholmen - Soahkesuolu" />
		<tag k="name:no" v="Bjørkholmen" />
		<tag k="name:se" v="Soahkesuolu" />
		<tag k="place" v="islet" />
		<tag k="ssr:stedsnr" v="685112" />
	</node>
	<node lat="68.63177222457988" lon="18.472374986208344" id="-98019">
		<tag k="name" v="Sauskardelva" />
		<tag k="ssr:stedsnr" v="685300" />
		<tag k="waterway" v="stream" />
	</node>
	<node lat="68.80153055291755" lon="18.13771111411592" id="-98023">
		<tag k="alt_name" v="Kvelvbekken" />
		<tag k="name" v="Kvølvbekken" />
		<tag k="ssr:stedsnr" v="685448" />
		<tag k="waterway" v="stream" />
	</node>
	<node lat="68.5363333338347" lon="18.739974986547832" id="-98029">
		<tag k="name" v="Sávzajohka" />
		<tag k="name:se" v="Sávzajohka" />
		<tag k="old_name:se" v="Savzajåkka" />
		<tag k="ssr:stedsnr" v="685395" />
		<tag k="waterway" v="stream" />
	</node>
	<node lat="68.95800000450866" lon="18.344524997346973" id="-98034">
		<tag k="alt_name:no" v="Grønlibekken" />
		<tag k="name" v="Grønnlibekken - Čáhpajohka" />
		<tag k="name:no" v="Grønnlibekken" />
		<tag k="name:se" v="Čáhpajohka" />
		<tag k="old_name:se" v="Čappajåkka" />
		<tag k="ssr:stedsnr" v="685646" />
		<tag k="waterway" v="river" />
	</node>
	<node lat="69.03443333715072" lon="18.58070832683528" id="-98040">
		<tag k="name" v="Lorttjønna" />
		<tag k="natural" v="water" />
		<tag k="ssr:stedsnr" v="718924" />
	</node>
	<node lat="68.78562499640734" lon="18.24006110955114" id="-98056">
		<tag k="name" v="Skredbekken" />
		<tag k="ssr:stedsnr" v="722573" />
		<tag k="waterway" v="stream" />
	</node>
	<node lat="69.00021111538733" lon="18.366858332318827" id="-98060">
		<tag k="name" v="Fjellbekken" />
		<tag k="ssr:stedsnr" v="722788" />
		<tag k="waterway" v="stream" />
	</node>
	<node lat="68.97679722281882" lon="18.395613880300786" id="-98063">
		<tag k="name" v="Fremste Fiskbekk" />
		<tag k="ssr:stedsnr" v="723988" />
		<tag k="waterway" v="stream" />
	</node>
	<node lat="68.48231388606186" lon="20.17268886795518" id="-98086">
		<tag k="name" v="Silbajohka" />
		<tag k="name:se" v="Silbajohka" />
		<tag k="ssr:stedsnr" v="745121" />
		<tag k="waterway" v="stream" />
	</node>
	<node lat="68.75229999734208" lon="18.691886095156246" id="-98087">
		<tag k="alt_name" v="Vasskarelva" />
		<tag k="name" v="Vasskardelva" />
		<tag k="ssr:stedsnr" v="745312" />
		<tag k="waterway" v="river" />
	</node>
	<node lat="68.61806110783787" lon="18.598883337872092" id="-98089">
		<tag k="name" v="Utrapbekken" />
		<tag k="ssr:stedsnr" v="745279" />
		<tag k="waterway" v="stream" />
	</node>
	<node lat="68.88546111030882" lon="18.248227767655965" id="-98091">
		<tag k="alt_name" v="Mellaelva" />
		<tag k="name" v="Millaelva" />
		<tag k="ssr:stedsnr" v="745604" />
		<tag k="waterway" v="river" />
	</node>
	<node lat="68.99724166881275" lon="18.567936100299917" id="-98092">
		<tag k="fixme" v="multiple name tags, choose one and add the other to alt_name" />
		<tag k="name" v="Sagtindelva;Tindelva" />
		<tag k="ssr:stedsnr" v="745621" />
		<tag k="waterway" v="river" />
	</node>
	<node lat="68.88859444549426" lon="18.381363878873117" id="-98095">
		<tag k="name" v="Storholmen" />
		<tag k="place" v="islet" />
		<tag k="ssr:stedsnr" v="745592" />
	</node>
	<node lat="68.69776111168848" lon="18.681113893465245" id="-98102">
		<tag k="fixme" v="multiple name tags, choose one and add the other to alt_name" />
		<tag k="name" v="Brefallet;Bredfallet" />
		<tag k="natural" v="waterfall" />
		<tag k="ssr:stedsnr" v="746479" />
	</node>
	<node lat="68.92801111087925" lon="18.51468332444858" id="-98103">
		<tag k="name" v="Olderskogbekken" />
		<tag k="ssr:stedsnr" v="746574" />
		<tag k="waterway" v="stream" />
	</node>
	<node lat="69.02413333170983" lon="18.434230547076577" id="-98104">
		<tag k="name" v="Vasslivatnet" />
		<tag k="natural" v="water" />
		<tag k="ssr:stedsnr" v="746905" />
	</node>
	<node lat="68.88835833696908" lon="18.401558323878266" id="-98106">
		<tag k="name" v="Elvestranda" />
		<tag k="natural" v="beach" />
		<tag k="ssr:stedsnr" v="904070" />
	</node>
	<node lat="68.89059444545855" lon="18.355655557005043" id="-98112">
		<tag k="name" v="Bredranbekken" />
		<tag k="ssr:stedsnr" v="904215" />
		<tag k="waterway" v="stream" />
	</node>
	<node lat="68.82913611304733" lon="18.436749994713942" id="-98122">
		<tag k="name" v="Elvstea" />
		<tag k="natural" v="beach" />
		<tag k="ssr:stedsnr" v="904447" />
	</node>
	<node lat="68.69894444574972" lon="18.564291655651072" id="-98124">
		<tag k="name" v="Hølbekken" />
		<tag k="ssr:stedsnr" v="904477" />
		<tag k="waterway" v="stream" />
	</node>
	<node lat="69.00798332953613" lon="18.477400001957424" id="-98129">
		<tag k="name" v="Stranda" />
		<tag k="natural" v="beach" />
		<tag k="ssr:stedsnr" v="904755" />
	</node>
	<node lat="68.649216666567" lon="18.226649999821884" id="-98135">
		<tag k="name" v="Kanalen" />
		<tag k="ssr:stedsnr" v="904980" />
		<tag k="waterway" v="stream" />
	</node>
	<node lat="68.96721389061506" lon="18.494086099165077" id="-98141">
		<tag k="name" v="Ytterloken" />
		<tag k="ssr:stedsnr" v="906170" />
		<tag k="waterway" v="stream" />
	</node>
	<node lat="68.96153611199303" lon="18.480888885924173" id="-98142">
		<tag k="name" v="Storloken" />
		<tag k="ssr:stedsnr" v="906171" />
		<tag k="waterway" v="stream" />
	</node>
	<node lat="68.8240277824539" lon="18.546247211417796" id="-98143">
		<tag k="name" v="Vårdagen" />
		<tag k="ssr:stedsnr" v="906180" />
		<tag k="waterway" v="stream" />
	</node>
	<node lat="68.84939444128679" lon="18.3503055552949" id="-98144">
		<tag k="name" v="Stillelva" />
		<tag k="natural" v="water" />
		<tag k="ssr:stedsnr" v="906135" />
		<tag k="water" v="lake" />
	</node>
	<node lat="68.97154166630361" lon="18.37998055086375" id="-98146">
		<tag k="alt_name" v="Indre Fiskbekk" />
		<tag k="name" v="Indre fiskbekken" />
		<tag k="ssr:stedsnr" v="906192" />
		<tag k="waterway" v="stream" />
	</node>
	<node lat="68.76705000226801" lon="18.563897229073078" id="-98148">
		<tag k="name" v="Odden" />
		<tag k="natural" v="cape" />
		<tag k="ssr:stedsnr" v="906197" />
	</node>
	<node lat="68.81621944144274" lon="18.505366670064884" id="-98149">
		<tag k="name" v="Lortgrena" />
		<tag k="ssr:stedsnr" v="906224" />
		<tag k="waterway" v="stream" />
	</node>
	<node lat="68.89528611333678" lon="18.234499984896097" id="-98152">
		<tag k="name" v="Moltebærodden" />
		<tag k="natural" v="cape" />
		<tag k="ssr:stedsnr" v="906380" />
	</node>
	<node lat="68.815219444943" lon="18.281747221805382" id="-98155">
		<tag k="name" v="Botn" />
		<tag k="natural" v="water" />
		<tag k="ssr:stedsnr" v="906327" />
		<tag k="water" v="lake" />
	</node>
	<node lat="68.89652777783152" lon="18.216486114253232" id="-98156">
		<tag k="name" v="Storodden" />
		<tag k="natural" v="cape" />
		<tag k="ssr:stedsnr" v="906384" />
	</node>
	<node lat="68.89641110871179" lon="18.219813887385776" id="-98157">
		<tag k="name" v="Sjørøverbukta" />
		<tag k="natural" v="bay" />
		<tag k="ssr:stedsnr" v="906385" />
	</node>
	<node lat="69.02346666736321" lon="18.486183323079793" id="-98165">
		<tag k="name" v="Veslbekken" />
		<tag k="ssr:stedsnr" v="778961" />
		<tag k="waterway" v="stream" />
	</node>
	<node lat="69.03461944446013" lon="18.522272223471802" id="-98166">
		<tag k="name" v="Kjosen" />
		<tag k="natural" v="bay" />
		<tag k="ssr:stedsnr" v="778965" />
	</node>
	<node lat="68.76962500243616" lon="18.15194444686556" id="-98169">
		<tag k="name" v="Leirbekken" />
		<tag k="ssr:stedsnr" v="779359" />
		<tag k="waterway" v="stream" />
	</node>
	<node lat="68.82165555192697" lon="18.424136111523396" id="-98179">
		<tag k="name" v="Dypdalsbekken" />
		<tag k="ssr:stedsnr" v="783013" />
		<tag k="waterway" v="stream" />
	</node>
	<node lat="69.03146111161831" lon="18.439094449760884" id="-98185">
		<tag k="name" v="Sandbukta" />
		<tag k="natural" v="bay" />
		<tag k="ssr:stedsnr" v="783605" />
	</node>
	<node lat="68.94232778100337" lon="18.489644448327418" id="-98188">
		<tag k="name" v="Tindbekkfaret" />
		<tag k="ssr:stedsnr" v="783958" />
		<tag k="waterway" v="stream" />
	</node>
	<node lat="68.97672222552798" lon="18.388124988979865" id="-98189">
		<tag k="name" v="Midtre Fiskbekk" />
		<tag k="ssr:stedsnr" v="785000" />
		<tag k="waterway" v="stream" />
	</node>
	<node lat="68.87355000049928" lon="18.17301944464259" id="-98194">
		<tag k="name" v="Klauvfjellbekken" />
		<tag k="ssr:stedsnr" v="785298" />
		<tag k="waterway" v="stream" />
	</node>
	<node lat="68.83600833070398" lon="18.165480540251313" id="-98200">
		<tag k="name" v="Bukkholmen" />
		<tag k="natural" v="cape" />
		<tag k="ssr:stedsnr" v="920577" />
	</node>
	<node lat="69.02441110772722" lon="18.578330545463004" id="-98202">
		<tag k="name" v="Mellomtjønna" />
		<tag k="natural" v="water" />
		<tag k="ssr:stedsnr" v="839913" />
	</node>
	<node lat="68.92319166484269" lon="18.435511100396564" id="-98209">
		<tag k="name" v="Hesjebakken" />
		<tag k="ssr:stedsnr" v="843185" />
		<tag k="waterway" v="stream" />
	</node>
	<node lat="68.89151666711099" lon="18.342149997415156" id="-98210">
		<tag k="name" v="Såttåbekken" />
		<tag k="ssr:stedsnr" v="843205" />
		<tag k="waterway" v="stream" />
	</node>
	<node lat="68.81713055362968" lon="18.4411888790529" id="-98217">
		<tag k="name" v="Veslbekken" />
		<tag k="ssr:stedsnr" v="844054" />
		<tag k="waterway" v="stream" />
	</node>
	<node lat="68.88499722549281" lon="18.40536389355923" id="-98219">
		<tag k="name" v="Tverrelvmilla" />
		<tag k="natural" v="cape" />
		<tag k="ssr:stedsnr" v="844075" />
	</node>
	<node lat="68.7980722258169" lon="18.51086389715974" id="-98225">
		<tag k="name" v="Korskvisla" />
		<tag k="ssr:stedsnr" v="846011" />
		<tag k="waterway" v="stream" />
	</node>
	<node lat="68.97296944663393" lon="18.502477766993245" id="-98226">
		<tag k="name" v="Holmgrena" />
		<tag k="natural" v="strait" />
		<tag k="ssr:stedsnr" v="846107" />
	</node>
	<node lat="68.8637277785411" lon="18.219288875564875" id="-98230">
		<tag k="name" v="Storbekkvatnet" />
		<tag k="natural" v="water" />
		<tag k="ssr:stedsnr" v="846304" />
	</node>
	<node lat="68.8580777755951" lon="18.18730000432655" id="-98231">
		<tag k="name" v="Kjosen" />
		<tag k="natural" v="water" />
		<tag k="ssr:stedsnr" v="846309" />
	</node>
	<node lat="68.88104722245691" lon="18.29405000586146" id="-98233">
		<tag k="name" v="Sæterbekken" />
		<tag k="ssr:stedsnr" v="846282" />
		<tag k="waterway" v="stream" />
	</node>
	<node lat="68.80548889240903" lon="18.439402763021167" id="-98235">
		<tag k="name" v="Veslvatnet" />
		<tag k="natural" v="water" />
		<tag k="ssr:stedsnr" v="927473" />
	</node>
	<node lat="68.80904999665952" lon="18.432455557996064" id="-98236">
		<tag k="name" v="Djupbekken" />
		<tag k="ssr:stedsnr" v="927476" />
		<tag k="waterway" v="stream" />
	</node>
	<node lat="68.48857777937616" lon="19.722474983974372" id="-98239">
		<tag k="name" v="Gjeddebukta" />
		<tag k="natural" v="bay" />
		<tag k="ssr:stedsnr" v="928069" />
	</node>
	<node lat="68.55652222133531" lon="19.871452770504057" id="-98240">
		<tag k="name" v="Irggášjohka" />
		<tag k="name:se" v="Irggášjohka" />
		<tag k="ssr:stedsnr" v="928070" />
		<tag k="waterway" v="river" />
	</node>
	<node lat="68.46490555260054" lon="19.541002769119128" id="-98241">
		<tag k="name" v="Skierpmáluokta" />
		<tag k="name:se" v="Skierpmáluokta" />
		<tag k="natural" v="bay" />
		<tag k="ssr:stedsnr" v="928108" />
	</node>
	<node lat="68.50389167096819" lon="19.3481111109916" id="-98245">
		<tag k="name" v="Geavdnjajávri" />
		<tag k="name:se" v="Geavdnjajávri" />
		<tag k="natural" v="water" />
		<tag k="ssr:stedsnr" v="928098" />
		<tag k="water" v="lake" />
	</node>
	<node lat="68.50195555603115" lon="19.701630538524256" id="-98246">
		<tag k="name" v="Uvhrenjárga" />
		<tag k="name:se" v="Uvhrenjárga" />
		<tag k="natural" v="cape" />
		<tag k="ssr:stedsnr" v="928149" />
	</node>
	<node lat="68.70096110890033" lon="18.12991111238597" id="-98250">
		<tag k="name" v="Lundbekken" />
		<tag k="ssr:stedsnr" v="928327" />
		<tag k="waterway" v="stream" />
	</node>
	<node lat="68.6896055556152" lon="18.57188610707573" id="-98251">
		<tag k="alt_name" v="Skjelbekken" />
		<tag k="name" v="Skjellbekken" />
		<tag k="ssr:stedsnr" v="928339" />
		<tag k="waterway" v="stream" />
	</node>
	<node lat="68.69926388816647" lon="18.558561104814206" id="-98252">
		<tag k="name" v="Loken" />
		<tag k="place" v="locality" />
		<tag k="ssr:stedsnr" v="928342" />
	</node>
	<node lat="68.65495833747026" lon="18.82881943929686" id="-98255">
		<tag k="name" v="Innsetfossen" />
		<tag k="natural" v="waterfall" />
		<tag k="ssr:stedsnr" v="928422" />
	</node>
	<node lat="68.78563610896457" lon="18.14168887834846" id="-98256">
		<tag k="name" v="Tårebekken" />
		<tag k="ssr:stedsnr" v="928427" />
		<tag k="waterway" v="stream" />
	</node>
	<node lat="68.73399444612876" lon="18.9814111014736" id="-98258">
		<tag k="name" v="Gásašjohka" />
		<tag k="name:se" v="Gásašjohka" />
		<tag k="old_name:se" v="Gasašjåkka" />
		<tag k="ssr:stedsnr" v="928438" />
		<tag k="waterway" v="river" />
	</node>
	<node lat="68.5092583323214" lon="18.620655540478882" id="-98259">
		<tag k="name" v="Grensevatnan" />
		<tag k="natural" v="water" />
		<tag k="ssr:stedsnr" v="928381" />
	</node>
	<node lat="68.83872222383602" lon="18.478052778370564" id="-98266">
		<tag k="name" v="Libekken" />
		<tag k="ssr:stedsnr" v="928520" />
		<tag k="waterway" v="stream" />
	</node>
	<node lat="68.83188055560863" lon="18.316461099537428" id="-98268">
		<tag k="name" v="Langsvingvatnet" />
		<tag k="natural" v="water" />
		<tag k="ssr:stedsnr" v="928525" />
		<tag k="water" v="lake" />
	</node>
	<node lat="68.73286944382507" lon="18.077466668390564" id="-98271">
		<tag k="alt_name" v="Tverrelva, s" />
		<tag k="fixme" v="multiple name tags, choose one and add the other to alt_name" />
		<tag k="name" v="Sørelva;Søre Tverrelva" />
		<tag k="ssr:stedsnr" v="928641" />
		<tag k="waterway" v="river" />
	</node>
	<node lat="69.02148888632162" lon="18.55155276106929" id="-98281">
		<tag k="name" v="Øvjebekken" />
		<tag k="ssr:stedsnr" v="900954" />
		<tag k="waterway" v="stream" />
	</node>
	<node lat="69.02912777620445" lon="18.519836099749753" id="-98283">
		<tag k="name" v="Øvja" />
		<tag k="natural" v="bay" />
		<tag k="ssr:stedsnr" v="900958" />
	</node>
	<node lat="69.01775555607509" lon="18.566041662814182" id="-98284">
		<tag k="name" v="Øvjebekken" />
		<tag k="ssr:stedsnr" v="900959" />
		<tag k="waterway" v="stream" />
	</node>
	<node lat="68.91278610983251" lon="18.419772210265123" id="-98293">
		<tag k="name" v="Kvisla" />
		<tag k="natural" v="water" />
		<tag k="ssr:stedsnr" v="904167" />
	</node>
	<node lat="69.03440555965534" lon="18.43416665593848" id="-98301">
		<tag k="name" v="Froskbekken" />
		<tag k="ssr:stedsnr" v="904569" />
		<tag k="waterway" v="stream" />
	</node>
	<node lat="68.6412388905602" lon="18.224536101564844" id="-98305">
		<tag k="name" v="Lilleholmen" />
		<tag k="place" v="islet" />
		<tag k="ssr:stedsnr" v="904958" />
	</node>
	<node lat="68.64714166853932" lon="18.23806667077848" id="-98306">
		<tag k="name" v="Odden" />
		<tag k="natural" v="cape" />
		<tag k="ssr:stedsnr" v="904999" />
	</node>
	<node lat="68.75039721831921" lon="18.55670277279811" id="-98308">
		<tag k="name" v="Storneset" />
		<tag k="natural" v="cape" />
		<tag k="ssr:stedsnr" v="906068" />
	</node>
	<node lat="69.03317499790055" lon="18.388713880427325" id="-98316">
		<tag k="name" v="Nilsvika" />
		<tag k="natural" v="bay" />
		<tag k="ssr:stedsnr" v="906957" />
	</node>
	<node lat="68.78292778037377" lon="18.197177770604714" id="-98318">
		<tag k="name" v="Karlstadbekken" />
		<tag k="ssr:stedsnr" v="920488" />
		<tag k="waterway" v="stream" />
	</node>
	<node lat="68.44171667063581" lon="19.78412499469505" id="-98319">
		<tag k="name" v="Uvhrenjárga" />
		<tag k="name:se" v="Uvhrenjárga" />
		<tag k="natural" v="cape" />
		<tag k="ssr:stedsnr" v="927122" />
	</node>
	<node lat="68.66382221795979" lon="18.231897225523547" id="-98325">
		<tag k="name" v="Berteusbekken" />
		<tag k="ssr:stedsnr" v="928303" />
		<tag k="waterway" v="stream" />
	</node>
	<node lat="68.66640555320818" lon="19.405536093012927" id="-98327">
		<tag k="name" v="Gaskkamus Gaibajávrrážat" />
		<tag k="name:se" v="Gaskkamus Gaibajávrrážat" />
		<tag k="natural" v="water" />
		<tag k="old_name:se" v="Gaibajávrrážat, gaskkamus" />
		<tag k="ssr:stedsnr" v="928352" />
		<tag k="water" v="lake" />
	</node>
	<node lat="68.65821666917633" lon="18.223122224329195" id="-98329">
		<tag k="name" v="Storbekken" />
		<tag k="ssr:stedsnr" v="928302" />
		<tag k="waterway" v="stream" />
	</node>
	<node lat="68.7949416680976" lon="18.627258329469196" id="-98331">
		<tag k="name" v="Vesletverrelva" />
		<tag k="ssr:stedsnr" v="928256" />
		<tag k="waterway" v="stream" />
	</node>
	<node lat="68.68943889112067" lon="18.109894431952636" id="-98343">
		<tag k="name" v="Elvkroken" />
		<tag k="place" v="locality" />
		<tag k="ssr:stedsnr" v="962407" />
	</node>
	<node lat="68.68114444784851" lon="18.12936945404202" id="-98345">
		<tag k="name" v="Storstilla" />
		<tag k="natural" v="water" />
		<tag k="ssr:stedsnr" v="962398" />
		<tag k="water" v="lake" />
	</node>
	<node lat="68.91659166716407" lon="18.462727762782276" id="-98346">
		<tag k="name" v="Knutsaloken" />
		<tag k="natural" v="water" />
		<tag k="ssr:stedsnr" v="964203" />
	</node>
	<node lat="68.89225555535256" lon="18.389497222910595" id="-98348">
		<tag k="name" v="Veslholmen" />
		<tag k="place" v="islet" />
		<tag k="ssr:stedsnr" v="964237" />
	</node>
	<node lat="68.642705558829" lon="18.21172222440502" id="-98357">
		<tag k="name" v="Langodden" />
		<tag k="natural" v="cape" />
		<tag k="ssr:stedsnr" v="965984" />
	</node>
	<node lat="69.03673888466446" lon="18.368774996966252" id="-98363">
		<tag k="name" v="Veslvatnet" />
		<tag k="natural" v="water" />
		<tag k="ssr:stedsnr" v="966947" />
	</node>
	<node lat="68.82743055453241" lon="18.246905544315254" id="-98365">
		<tag k="name" v="Tverrfossen" />
		<tag k="natural" v="waterfall" />
		<tag k="ssr:stedsnr" v="967198" />
	</node>
	<node lat="68.65214721902177" lon="18.18568609723446" id="-98374">
		<tag k="name" v="Hulebekken" />
		<tag k="ssr:stedsnr" v="9870" />
		<tag k="waterway" v="stream" />
	</node>
	<node lat="69.01409167087296" lon="18.37920554210798" id="-98375">
		<tag k="alt_name" v="Skarbekken" />
		<tag k="name" v="Skardbekken" />
		<tag k="ssr:stedsnr" v="15782" />
		<tag k="waterway" v="stream" />
	</node>
	<node lat="68.42553610832009" lon="19.777819436636534" id="-98376">
		<tag k="name" v="Bajit Gulmmajávri" />
		<tag k="name:se" v="Bajit Gulmmajávri" />
		<tag k="natural" v="water" />
		<tag k="old_name:se" v="Gulmmajávri, bajit" />
		<tag k="ssr:stedsnr" v="17127" />
		<tag k="water" v="lake" />
	</node>
	<node lat="68.44205000130022" lon="19.774824999132406" id="-98377">
		<tag k="name" v="Gulmmanjárga" />
		<tag k="name:se" v="Gulmmanjárga" />
		<tag k="natural" v="cape" />
		<tag k="ssr:stedsnr" v="17132" />
	</node>
	<node lat="68.5321388878401" lon="19.0305749917539" id="-98383">
		<tag k="name" v="Čoarddajávrrit" />
		<tag k="name:se" v="Čoarddajávrrit" />
		<tag k="natural" v="water" />
		<tag k="old_name:se" v="Čoardajavrit" />
		<tag k="ssr:stedsnr" v="17431" />
		<tag k="water" v="lake" />
	</node>
	<node lat="68.51925278180892" lon="18.77279443218852" id="-98384">
		<tag k="name" v="Riksoelva - Riksojohka" />
		<tag k="name:no" v="Riksoelva" />
		<tag k="name:se" v="Riksojohka" />
		<tag k="old_name:se" v="Riksujåkka" />
		<tag k="ssr:stedsnr" v="17435" />
		<tag k="waterway" v="river" />
	</node>
	<node lat="68.88148610735895" lon="18.387630560942068" id="-98387">
		<tag k="alt_name" v="Åborvatnet" />
		<tag k="name" v="Abborvatnet" />
		<tag k="natural" v="water" />
		<tag k="ssr:stedsnr" v="17628" />
	</node>
	<node lat="68.97427778204661" lon="18.544905553544844" id="-98389">
		<tag k="fixme" v="multiple name tags, choose one and add the other to alt_name" />
		<tag k="name" v="Tindelva;Istindelva" />
		<tag k="ssr:stedsnr" v="17672" />
		<tag k="waterway" v="stream" />
	</node>
	<node lat="69.01329166569732" lon="18.393411118769624" id="-98397">
		<tag k="name" v="Tverrelva" />
		<tag k="ssr:stedsnr" v="18088" />
		<tag k="waterway" v="river" />
	</node>
	<node lat="68.56223333009846" lon="19.22199720689002" id="-98400">
		<tag k="name" v="Čoarddajávri" />
		<tag k="name:se" v="Čoarddajávri" />
		<tag k="natural" v="water" />
		<tag k="ssr:stedsnr" v="18121" />
	</node>
	<node lat="68.69569444120908" lon="18.569822222799775" id="-98406">
		<tag k="alt_name" v="Veslejordbekken" />
		<tag k="name" v="Vesljordbekken" />
		<tag k="ssr:stedsnr" v="18324" />
		<tag k="waterway" v="stream" />
	</node>
	<node lat="68.65874833326532" lon="18.182784206356036" id="-98409">
		<tag k="name" v="Storfossen" />
		<tag k="natural" v="waterfall" />
		<tag k="ssr:stedsnr" v="18290" />
	</node>
	<node lat="68.75128610991848" lon="18.5953972115875" id="-98411">
		<tag k="name" v="Strømsmofossen" />
		<tag k="natural" v="waterfall" />
		<tag k="ssr:stedsnr" v="18385" />
	</node>
	<node lat="68.60387777784611" lon="19.20309442461553" id="-98416">
		<tag k="name" v="Oddan" />
		<tag k="natural" v="cape" />
		<tag k="ssr:stedsnr" v="18428" />
	</node>
	<node lat="68.60024999906632" lon="18.65425832021933" id="-98417">
		<tag k="name" v="Kjelevatnet" />
		<tag k="natural" v="water" />
		<tag k="old_name" v="Kjelvevatnet" />
		<tag k="ssr:stedsnr" v="18431" />
	</node>
	<node lat="68.73429999644641" lon="18.652161105897846" id="-98420">
		<tag k="name" v="Strømslifossen" />
		<tag k="natural" v="waterfall" />
		<tag k="ssr:stedsnr" v="18440" />
	</node>
	<node lat="68.83803610997523" lon="18.301583319673743" id="-98424">
		<tag k="alt_name" v="Skilvatnet" />
		<tag k="name" v="Skjellvatnet" />
		<tag k="natural" v="water" />
		<tag k="ssr:stedsnr" v="18525" />
	</node>
	<node lat="68.89268610795838" lon="18.22321944584738" id="-98426">
		<tag k="name" v="Langodden" />
		<tag k="natural" v="cape" />
		<tag k="ssr:stedsnr" v="18541" />
	</node>
	<node lat="68.85007777665493" lon="18.368838890194507" id="-98427">
		<tag k="name" v="Sæterelva - Seahtarjohka" />
		<tag k="name:no" v="Sæterelva" />
		<tag k="name:se" v="Seahtarjohka" />
		<tag k="ssr:stedsnr" v="18481" />
		<tag k="waterway" v="river" />
	</node>
	<node lat="69.03103055213225" lon="18.44563888527212" id="-98431">
		<tag k="name" v="Sagbekkvatnet" />
		<tag k="natural" v="water" />
		<tag k="ssr:stedsnr" v="18855" />
		<tag k="water" v="lake" />
	</node>
	<node lat="69.03950555206428" lon="18.393805552844654" id="-98432">
		<tag k="name" v="Langvatnet" />
		<tag k="natural" v="water" />
		<tag k="ssr:stedsnr" v="18843" />
	</node>
	<node lat="68.62617777400254" lon="18.221922224947985" id="-98439">
		<tag k="name" v="Røddalsfossen" />
		<tag k="natural" v="waterfall" />
		<tag k="ssr:stedsnr" v="51057" />
	</node>
	<node lat="68.76664166349688" lon="18.146430561119523" id="-98443">
		<tag k="name" v="Reinvassbekken" />
		<tag k="ssr:stedsnr" v="51330" />
		<tag k="waterway" v="stream" />
	</node>
	<node lat="68.75696944590759" lon="18.12806667488285" id="-98451">
		<tag k="name" v="Ørnbekken" />
		<tag k="ssr:stedsnr" v="52387" />
		<tag k="waterway" v="stream" />
	</node>
	<node lat="68.69886111480551" lon="18.532016653779127" id="-98456">
		<tag k="name" v="Slettbekken" />
		<tag k="ssr:stedsnr" v="54491" />
		<tag k="waterway" v="stream" />
	</node>
	<node lat="68.922930558143" lon="18.458058341132674" id="-98457">
		<tag k="name" v="Lokan" />
		<tag k="natural" v="water" />
		<tag k="ssr:stedsnr" v="54195" />
		<tag k="water" v="lake" />
	</node>
	<node lat="68.80633610843559" lon="18.32842778278243" id="-98463">
		<tag k="name" v="Kaffevatnan" />
		<tag k="natural" v="water" />
		<tag k="ssr:stedsnr" v="55453" />
	</node>
	<node lat="68.67150277982904" lon="18.147819442951118" id="-98470">
		<tag k="name" v="Bjønnøa" />
		<tag k="natural" v="bay" />
		<tag k="ssr:stedsnr" v="54934" />
	</node>
	<node lat="68.94573611500779" lon="18.504719452413518" id="-98476">
		<tag k="name" v="Seterbekken" />
		<tag k="ssr:stedsnr" v="55953" />
		<tag k="waterway" v="stream" />
	</node>
	<node lat="68.64650277847515" lon="18.240705545072334" id="-98477">
		<tag k="name" v="Kjøbekken" />
		<tag k="ssr:stedsnr" v="55987" />
		<tag k="waterway" v="stream" />
	</node>
	<node lat="68.81084444748733" lon="18.492527773914" id="-98480">
		<tag k="name" v="Loken" />
		<tag k="natural" v="water" />
		<tag k="ssr:stedsnr" v="56138" />
	</node>
	<node lat="68.874413893381" lon="18.266122219856687" id="-98482">
		<tag k="name" v="Knollvatnet" />
		<tag k="natural" v="water" />
		<tag k="ssr:stedsnr" v="57272" />
	</node>
	<node lat="68.76184444124908" lon="18.51471109299266" id="-98496">
		<tag k="alt_name" v="Skarskredbekken" />
		<tag k="name" v="Skardskredbekken" />
		<tag k="ssr:stedsnr" v="57159" />
		<tag k="waterway" v="stream" />
	</node>
	<node lat="68.75771666786589" lon="18.500924996008123" id="-98507">
		<tag k="alt_name" v="Skarbekken" />
		<tag k="name" v="Skardbekken" />
		<tag k="ssr:stedsnr" v="78440" />
		<tag k="waterway" v="stream" />
	</node>
	<node lat="68.72207777400169" lon="19.1995111015741" id="-98508">
		<tag k="name" v="Strømskardvatnan" />
		<tag k="natural" v="water" />
		<tag k="ssr:stedsnr" v="78466" />
		<tag k="water" v="lake" />
	</node>
	<node lat="68.3933527748963" lon="19.866044423155646" id="-98510">
		<tag k="name" v="Buddogeašluokta" />
		<tag k="name:se" v="Buddogeašluokta" />
		<tag k="natural" v="bay" />
		<tag k="ssr:stedsnr" v="78027" />
	</node>
	<node lat="68.54196111389344" lon="19.57992499484652" id="-98511">
		<tag k="name" v="Riddojohka" />
		<tag k="name:se" v="Riddojohka" />
		<tag k="ssr:stedsnr" v="78122" />
		<tag k="waterway" v="stream" />
	</node>
	<node lat="68.52696388639077" lon="19.614524984284884" id="-98515">
		<tag k="name" v="Ávžojohka" />
		<tag k="name:se" v="Ávžojohka" />
		<tag k="ssr:stedsnr" v="78095" />
		<tag k="waterway" v="stream" />
	</node>
	<node lat="68.60025833739012" lon="19.091716667306102" id="-98517">
		<tag k="name" v="Krokelva - Ruohkkejohka" />
		<tag k="name:no" v="Krokelva" />
		<tag k="name:se" v="Ruohkkejohka" />
		<tag k="old_name:se" v="Ruokkejåkka" />
		<tag k="ssr:stedsnr" v="78173" />
		<tag k="waterway" v="river" />
	</node>
	<node lat="68.60433888717374" lon="18.123005553265457" id="-98518">
		<tag k="name" v="Raudbergvatnan" />
		<tag k="natural" v="water" />
		<tag k="ssr:stedsnr" v="78277" />
		<tag k="water" v="lake" />
	</node>
	<node lat="68.62087777751536" lon="18.32358610320652" id="-98519">
		<tag k="name" v="Snekkarelva" />
		<tag k="ssr:stedsnr" v="78279" />
		<tag k="waterway" v="stream" />
	</node>
	<node lat="68.6587777762728" lon="18.186916662271393" id="-98523">
		<tag k="name" v="Martaskjeret" />
		<tag k="place" v="islet" />
		<tag k="ssr:stedsnr" v="78327" />
	</node>
	<node lat="68.68189722296576" lon="18.11284166057242" id="-98526">
		<tag k="alt_name" v="Steinelva, nordre;Nordre Stenelv" />
		<tag k="name" v="Nordre Steinelva" />
		<tag k="ssr:stedsnr" v="78365" />
		<tag k="waterway" v="stream" />
	</node>
	<node lat="68.6971166664925" lon="18.51948609533178" id="-98527">
		<tag k="name" v="Vesleskredbekken" />
		<tag k="ssr:stedsnr" v="78371" />
		<tag k="waterway" v="stream" />
	</node>
	<node lat="68.7475555516962" lon="18.120399991043804" id="-98530">
		<tag k="fixme" v="multiple name tags, choose one and add the other to alt_name" />
		<tag k="name" v="Salangselva;Salangsdalselva" />
		<tag k="ssr:stedsnr" v="78619" />
		<tag k="waterway" v="river" />
	</node>
	<node lat="68.68238889188456" lon="18.630666673583978" id="-98533">
		<tag k="name" v="Tverrelvvatnet" />
		<tag k="natural" v="water" />
		<tag k="ssr:stedsnr" v="78493" />
	</node>
	<node lat="68.97995555844528" lon="18.247861117710624" id="-98539">
		<tag k="name" v="Hjerttindtjørnan - Basejávri" />
		<tag k="name:no" v="Hjerttindtjørnan" />
		<tag k="name:se" v="Basejávri" />
		<tag k="natural" v="water" />
		<tag k="old_name:se" v="Basejavri" />
		<tag k="ssr:stedsnr" v="78633" />
	</node>
	<node lat="68.97352085927469" lon="18.502120254288528" id="-98540">
		<tag k="name" v="Krokholmen" />
		<tag k="place" v="islet" />
		<tag k="ssr:stedsnr" v="78637" />
	</node>
	<node lat="68.65433332852871" lon="18.270458337863676" id="-98545">
		<tag k="alt_name" v="Geitryggbekkan" />
		<tag k="name" v="Geitryggbekken" />
		<tag k="ssr:stedsnr" v="79266" />
		<tag k="waterway" v="stream" />
	</node>
	<node lat="68.6479777792721" lon="18.179950005969076" id="-98546">
		<tag k="name" v="Svartbekken" />
		<tag k="ssr:stedsnr" v="79274" />
		<tag k="waterway" v="stream" />
	</node>
	<node lat="68.84089166450778" lon="18.51451388270825" id="-98552">
		<tag k="alt_name:no" v="Skilbekken" />
		<tag k="name" v="Skjellbekken - Geavstajohka" />
		<tag k="name:no" v="Skjellbekken" />
		<tag k="name:se" v="Geavstajohka" />
		<tag k="ssr:stedsnr" v="79540" />
		<tag k="waterway" v="stream" />
	</node>
	<node lat="68.73531388813352" lon="18.51843054808763" id="-98553">
		<tag k="name" v="Kløftbekken" />
		<tag k="ssr:stedsnr" v="79633" />
		<tag k="waterway" v="stream" />
	</node>
	<node lat="68.88498611088177" lon="18.34883333547096" id="-98563">
		<tag k="name" v="Ringloken" />
		<tag k="natural" v="water" />
		<tag k="ssr:stedsnr" v="115038" />
	</node>
	<node lat="68.91247777739281" lon="18.43251943359687" id="-98570">
		<tag k="name" v="Loken" />
		<tag k="natural" v="water" />
		<tag k="ssr:stedsnr" v="115186" />
	</node>
	<node lat="68.86844999828207" lon="18.417424999951074" id="-98575">
		<tag k="name" v="Stortjønna" />
		<tag k="natural" v="water" />
		<tag k="ssr:stedsnr" v="115147" />
	</node>
	<node lat="68.73668333350048" lon="18.51759721328128" id="-98598">
		<tag k="name" v="Brubekken" />
		<tag k="ssr:stedsnr" v="117124" />
		<tag k="waterway" v="stream" />
	</node>
	<node lat="68.89604166923834" lon="18.41644445205659" id="-98599">
		<tag k="name" v="Storholmen" />
		<tag k="place" v="islet" />
		<tag k="ssr:stedsnr" v="117224" />
	</node>
	<node lat="68.89531666803488" lon="18.21768334104649" id="-98603">
		<tag k="name" v="Jekta" />
		<tag k="place" v="islet" />
		<tag k="ssr:stedsnr" v="117400" />
	</node>
	<node lat="68.67815555919609" lon="18.566380562855635" id="-98604">
		<tag k="name" v="Øya" />
		<tag k="natural" v="cape" />
		<tag k="ssr:stedsnr" v="117401" />
	</node>
	<node lat="68.70783055247904" lon="18.603105552958638" id="-98610">
		<tag k="name" v="Dalbergvatnet" />
		<tag k="natural" v="water" />
		<tag k="ssr:stedsnr" v="138367" />
	</node>
	<node lat="68.70612778062518" lon="18.369672213308927" id="-98611">
		<tag k="fixme" v="multiple name tags, choose one and add the other to alt_name" />
		<tag k="name" v="Melhuselva;Tverrelva;Melhustverrelva - Muorrajohka" />
		<tag k="name:no" v="Melhuselva;Tverrelva;Melhustverrelva" />
		<tag k="name:se" v="Muorrajohka" />
		<tag k="old_name:se" v="Muorrajåkka" />
		<tag k="ssr:stedsnr" v="138368" />
		<tag k="waterway" v="river" />
	</node>
	<node lat="68.69244167071355" lon="18.093275001060572" id="-98612">
		<tag k="name" v="Leirbekken" />
		<tag k="ssr:stedsnr" v="138372" />
		<tag k="waterway" v="stream" />
	</node>
	<node lat="68.78743333412352" lon="18.452805550785083" id="-98616">
		<tag k="name" v="Fossbekken" />
		<tag k="ssr:stedsnr" v="138456" />
		<tag k="waterway" v="stream" />
	</node>
	<node lat="68.78012778015129" lon="18.485863886234323" id="-98617">
		<tag k="name" v="Karlstadbekken" />
		<tag k="ssr:stedsnr" v="138461" />
		<tag k="waterway" v="stream" />
	</node>
	<node lat="68.73801944108875" lon="18.928902778211498" id="-98620">
		<tag k="name" v="Røyevasselva - Rávdojohka" />
		<tag k="name:no" v="Røyevasselva" />
		<tag k="name:se" v="Rávdojohka" />
		<tag k="old_name:se" v="Ravdujåkka" />
		<tag k="ssr:stedsnr" v="138481" />
		<tag k="waterway" v="river" />
	</node>
	<node lat="68.68624722570397" lon="18.669438895320535" id="-98622">
		<tag k="name" v="Tverrelva - Stállojohka" />
		<tag k="name:no" v="Tverrelva" />
		<tag k="name:se" v="Stállojohka" />
		<tag k="old_name:se" v="Stallujåkka" />
		<tag k="ssr:stedsnr" v="138188" />
		<tag k="waterway" v="stream" />
	</node>
	<node lat="68.64197777928612" lon="18.543833331238442" id="-98624">
		<tag k="name" v="Bjørnbåsbekken" />
		<tag k="ssr:stedsnr" v="138329" />
		<tag k="waterway" v="stream" />
	</node>
	<node lat="68.62302777306678" lon="18.15665000530808" id="-98625">
		<tag k="alt_name:no" v="Rauddalselva" />
		<tag k="name" v="Røddalselva - Čierrunskáiddejohka" />
		<tag k="name:no" v="Røddalselva" />
		<tag k="name:se" v="Čierrunskáiddejohka" />
		<tag k="old_name:se" v="Čierronskaidejåkka" />
		<tag k="ssr:stedsnr" v="138331" />
		<tag k="waterway" v="river" />
	</node>
	<node lat="68.88265000211958" lon="18.27372499344182" id="-98631">
		<tag k="name" v="Leirbekken" />
		<tag k="ssr:stedsnr" v="138631" />
		<tag k="waterway" v="stream" />
	</node>
	<node lat="68.96547500046584" lon="18.500300006591527" id="-98633">
		<tag k="name" v="Ytterloken" />
		<tag k="place" v="locality" />
		<tag k="ssr:stedsnr" v="138677" />
	</node>
	<node lat="68.935369444884" lon="18.268224994494467" id="-98636">
		<tag k="name" v="Grønlivatnet" />
		<tag k="natural" v="water" />
		<tag k="ssr:stedsnr" v="138705" />
	</node>
	<node lat="68.47087777530412" lon="19.730780540838158" id="-98637">
		<tag k="name" v="Sandholmen - Čuđesuolo" />
		<tag k="name:no" v="Sandholmen" />
		<tag k="name:se" v="Čuđesuolo" />
		<tag k="place" v="islet" />
		<tag k="ssr:stedsnr" v="139066" />
	</node>
	<node lat="68.75793889126815" lon="18.7056277670129" id="-98640">
		<tag k="name" v="Kopparskardtjørna" />
		<tag k="natural" v="water" />
		<tag k="ssr:stedsnr" v="139261" />
	</node>
	<node lat="68.85170833225838" lon="18.684130554790485" id="-98644">
		<tag k="alt_name:se" v="Sorbmejohka" />
		<tag k="name" v="Fonnskardelva - Buoggejohka" />
		<tag k="name:no" v="Fonnskardelva" />
		<tag k="name:se" v="Buoggejohka" />
		<tag k="ssr:stedsnr" v="139318" />
		<tag k="waterway" v="river" />
	</node>
	<node lat="68.67001110935611" lon="18.122358321276323" id="-98646">
		<tag k="alt_name" v="Steinelva, s" />
		<tag k="name" v="Søre Steinelva" />
		<tag k="ssr:stedsnr" v="139334" />
		<tag k="waterway" v="stream" />
	</node>
	<node lat="68.82465555670572" lon="18.433072218424424" id="-98648">
		<tag k="alt_name" v="Bostadtjørnan" />
		<tag k="name" v="Bostadtjønna" />
		<tag k="natural" v="water" />
		<tag k="ssr:stedsnr" v="139508" />
	</node>
	<node lat="68.70361667081967" lon="18.761586099961235" id="-98649">
		<tag k="name" v="Grenskardvatnan" />
		<tag k="natural" v="water" />
		<tag k="ssr:stedsnr" v="139515" />
		<tag k="water" v="lake" />
	</node>
	<node lat="68.91622222000672" lon="18.215830551561144" id="-98652">
		<tag k="name" v="Daudvatnet" />
		<tag k="natural" v="water" />
		<tag k="ssr:stedsnr" v="139570" />
	</node>
	<node lat="68.72467499720052" lon="18.232633338305604" id="-98654">
		<tag k="name" v="Kvernskardvatnet" />
		<tag k="natural" v="water" />
		<tag k="ssr:stedsnr" v="139646" />
		<tag k="water" v="lake" />
	</node>
	<node lat="68.67152499972104" lon="18.131072224761713" id="-98664">
		<tag k="name" v="Synnerelva" />
		<tag k="ssr:stedsnr" v="173437" />
		<tag k="waterway" v="stream" />
	</node>
	<node lat="68.89063332906005" lon="18.31902221982025" id="-98671">
		<tag k="name" v="Bruhaugbekken" />
		<tag k="ssr:stedsnr" v="175151" />
		<tag k="waterway" v="stream" />
	</node>
	<node lat="68.92890000189382" lon="18.47086388472404" id="-98672">
		<tag k="name" v="Øybekken" />
		<tag k="ssr:stedsnr" v="175176" />
		<tag k="waterway" v="stream" />
	</node>
	<node lat="68.89803333328031" lon="18.382763880779873" id="-98673">
		<tag k="name" v="Storbekken" />
		<tag k="ssr:stedsnr" v="175193" />
		<tag k="waterway" v="stream" />
	</node>
	<node lat="68.8963972252333" lon="18.38041666354441" id="-98674">
		<tag k="name" v="Øybekken" />
		<tag k="ssr:stedsnr" v="175195" />
		<tag k="waterway" v="stream" />
	</node>
	<node lat="68.93840555783488" lon="18.453344450278404" id="-98682">
		<tag k="name" v="Rødbergbekken" />
		<tag k="ssr:stedsnr" v="175798" />
		<tag k="waterway" v="stream" />
	</node>
	<node lat="68.84170832967875" lon="18.407647216255686" id="-98687">
		<tag k="name" v="Skjæret" />
		<tag k="place" v="islet" />
		<tag k="ssr:stedsnr" v="176396" />
	</node>
	<node lat="68.63809722121484" lon="18.26916666126581" id="-98692">
		<tag k="name" v="Lortdikbekken" />
		<tag k="ssr:stedsnr" v="176939" />
		<tag k="waterway" v="stream" />
	</node>
	<node lat="68.89376111115031" lon="18.431802771624255" id="-98704">
		<tag k="name" v="Åbitbekken" />
		<tag k="ssr:stedsnr" v="177179" />
		<tag k="waterway" v="stream" />
	</node>
	<node lat="69.03418055981186" lon="18.40002777087329" id="-98707">
		<tag k="name" v="Førsteplassen" />
		<tag k="natural" v="bay" />
		<tag k="ssr:stedsnr" v="177943" />
	</node>
	<node lat="68.9593388885505" lon="18.44596944524723" id="-98713">
		<tag k="name" v="Reingjerdtjønna" />
		<tag k="natural" v="water" />
		<tag k="ssr:stedsnr" v="178190" />
	</node>
	<node lat="68.76661944131888" lon="18.548047212246804" id="-98715">
		<tag k="name" v="Øya" />
		<tag k="place" v="islet" />
		<tag k="ssr:stedsnr" v="178194" />
	</node>
	<node lat="68.80771110864355" lon="18.531552781787287" id="-98718">
		<tag k="name" v="Veslbubekken" />
		<tag k="ssr:stedsnr" v="178141" />
		<tag k="waterway" v="stream" />
	</node>
	<node lat="68.70267499805117" lon="18.674016655473057" id="-98722">
		<tag k="name" v="Sydspissen" />
		<tag k="natural" v="cape" />
		<tag k="ssr:stedsnr" v="178899" />
	</node>
	<node lat="68.40364444148696" lon="19.833211098196177" id="-98726">
		<tag k="name" v="Turistbukta - Ávželuokta" />
		<tag k="name:no" v="Turistbukta" />
		<tag k="name:se" v="Ávželuokta" />
		<tag k="natural" v="bay" />
		<tag k="ssr:stedsnr" v="199040" />
	</node>
	<node lat="68.48136944629539" lon="20.05758887082132" id="-98728">
		<tag k="name" v="Gámasluoppal" />
		<tag k="name:se" v="Gámasluoppal" />
		<tag k="natural" v="water" />
		<tag k="ssr:stedsnr" v="199125" />
	</node>
	<node lat="68.60543888738913" lon="19.36037222364505" id="-98734">
		<tag k="name" v="Gihlájohka" />
		<tag k="name:se" v="Gihlájohka" />
		<tag k="ssr:stedsnr" v="199399" />
		<tag k="waterway" v="stream" />
	</node>
	<node lat="68.80333611262249" lon="18.461474993021483" id="-98735">
		<tag k="alt_name" v="Reknilsmobekken" />
		<tag k="name" v="Rik-Nilsbekken" />
		<tag k="ssr:stedsnr" v="199463" />
		<tag k="waterway" v="stream" />
	</node>
	<node lat="68.80210833513807" lon="18.53316665651593" id="-98737">
		<tag k="name" v="Loken" />
		<tag k="place" v="locality" />
		<tag k="ssr:stedsnr" v="199468" />
	</node>
	<node lat="68.47432777881497" lon="19.6966638779654" id="-98743">
		<tag k="name" v="Hávgaluokta" />
		<tag k="name:se" v="Hávgaluokta" />
		<tag k="natural" v="bay" />
		<tag k="ssr:stedsnr" v="200068" />
	</node>
	<node lat="68.67333888653889" lon="18.936094423921222" id="-98748">
		<tag k="alt_name:no" v="Vasskarelva" />
		<tag k="alt_name:se" v="Dápmotjohka" />
		<tag k="name" v="Vasskardelva - Veaikejohka" />
		<tag k="name:no" v="Vasskardelva" />
		<tag k="name:se" v="Veaikejohka" />
		<tag k="old_name:se" v="Væikejåkka" />
		<tag k="ssr:stedsnr" v="200153" />
		<tag k="waterway" v="river" />
	</node>
	<node lat="68.65455832974601" lon="18.24303888955943" id="-98749">
		<tag k="alt_name" v="Skjelbekken" />
		<tag k="name" v="Skjellbekken" />
		<tag k="ssr:stedsnr" v="200162" />
		<tag k="waterway" v="stream" />
	</node>
	<node lat="68.65856111350745" lon="18.154961112973368" id="-98757">
		<tag k="name" v="Ølebekken" />
		<tag k="ssr:stedsnr" v="200336" />
		<tag k="waterway" v="stream" />
	</node>
	<node lat="68.79212500444514" lon="18.599997208934813" id="-98764">
		<tag k="alt_name" v="Lappskarelva" />
		<tag k="name" v="Lappskardelva" />
		<tag k="ssr:stedsnr" v="200478" />
		<tag k="waterway" v="river" />
	</node>
	<node lat="68.67571389387716" lon="18.51483887414131" id="-98765">
		<tag k="name" v="Midtjordvatnet" />
		<tag k="natural" v="water" />
		<tag k="ssr:stedsnr" v="200338" />
	</node>
	<node lat="68.69696111185898" lon="18.869983315288252" id="-98772">
		<tag k="alt_name" v="Vasskardvatnet, øvre" />
		<tag k="name" v="Øvre Vasskardvatnet" />
		<tag k="natural" v="water" />
		<tag k="ssr:stedsnr" v="200519" />
		<tag k="water" v="lake" />
	</node>
	<node lat="68.83045278193771" lon="18.397141655116968" id="-98777">
		<tag k="name" v="Veslvatnet" />
		<tag k="natural" v="water" />
		<tag k="ssr:stedsnr" v="200567" />
	</node>
	<node lat="68.91582778199526" lon="18.255633335173048" id="-98778">
		<tag k="name" v="Ortvatnet - Orddajávri" />
		<tag k="name:no" v="Ortvatnet" />
		<tag k="name:se" v="Orddajávri" />
		<tag k="natural" v="water" />
		<tag k="old_name:se" v="Årdajavri" />
		<tag k="ssr:stedsnr" v="200572" />
		<tag k="water" v="lake" />
	</node>
	<node lat="68.89887500119598" lon="18.192275002010255" id="-98779">
		<tag k="alt_name" v="Tjørna" />
		<tag k="name" v="Tjønna" />
		<tag k="natural" v="water" />
		<tag k="ssr:stedsnr" v="200583" />
	</node>
	<node lat="68.93100277600035" lon="18.180752776838474" id="-98782">
		<tag k="name" v="Tvillingvatnet" />
		<tag k="natural" v="water" />
		<tag k="ssr:stedsnr" v="200675" />
	</node>
	<node lat="68.84211666954779" lon="18.115027778967963" id="-98796">
		<tag k="name" v="Langfossen" />
		<tag k="natural" v="waterfall" />
		<tag k="ssr:stedsnr" v="294235" />
	</node>
	<node lat="68.86323889308319" lon="18.428252779659843" id="-98802">
		<tag k="name" v="Djupdalstjønna" />
		<tag k="natural" v="water" />
		<tag k="ssr:stedsnr" v="297159" />
	</node>
	<node lat="68.91105000079473" lon="18.41643610754476" id="-98805">
		<tag k="name" v="Tjønnmyrvatnet" />
		<tag k="natural" v="water" />
		<tag k="ssr:stedsnr" v="297203" />
	</node>
	<node lat="68.70980555642358" lon="18.523963873293503" id="-98810">
		<tag k="name" v="Storfossen" />
		<tag k="natural" v="waterfall" />
		<tag k="ssr:stedsnr" v="297460" />
	</node>
	<node lat="68.96937221925008" lon="18.494305553886125" id="-98827">
		<tag k="name" v="Innerloken" />
		<tag k="ssr:stedsnr" v="299108" />
		<tag k="waterway" v="stream" />
	</node>
	<node lat="68.81078333812002" lon="18.57317776639298" id="-98828">
		<tag k="name" v="Styggbekken" />
		<tag k="ssr:stedsnr" v="299111" />
		<tag k="waterway" v="stream" />
	</node>
	<node lat="68.89996944482756" lon="18.416683338864704" id="-98830">
		<tag k="name" v="Odden" />
		<tag k="natural" v="cape" />
		<tag k="ssr:stedsnr" v="299197" />
	</node>
	<node lat="68.78370277498186" lon="18.54112778083066" id="-98833">
		<tag k="name" v="Øykvisla" />
		<tag k="ssr:stedsnr" v="299045" />
		<tag k="waterway" v="stream" />
	</node>
	<node lat="68.81308332988907" lon="18.48759165650366" id="-98836">
		<tag k="name" v="Grovgrasodden" />
		<tag k="natural" v="cape" />
		<tag k="ssr:stedsnr" v="299129" />
	</node>
	<node lat="68.84963333595914" lon="18.32020555098759" id="-98838">
		<tag k="name" v="Ytre Nestjønna" />
		<tag k="natural" v="water" />
		<tag k="ssr:stedsnr" v="299136" />
	</node>
	<node lat="68.83388888901204" lon="18.28902222010249" id="-98840">
		<tag k="name" v="Lomtjønna" />
		<tag k="natural" v="water" />
		<tag k="ssr:stedsnr" v="299271" />
	</node>
	<node lat="68.6836194481781" lon="18.552538876678856" id="-98844">
		<tag k="name" v="Odden" />
		<tag k="natural" v="cape" />
		<tag k="ssr:stedsnr" v="299516" />
	</node>
	<node lat="68.79403055647569" lon="18.154494438439038" id="-98848">
		<tag k="name" v="Førstebekken" />
		<tag k="ssr:stedsnr" v="310558" />
		<tag k="waterway" v="stream" />
	</node>
	<node lat="68.81495555509233" lon="18.41128888501504" id="-98853">
		<tag k="name" v="Midtbekken" />
		<tag k="ssr:stedsnr" v="320482" />
		<tag k="waterway" v="stream" />
	</node>
	<node lat="68.881361110532" lon="18.455008325853626" id="-98854">
		<tag k="name" v="Steinbekken" />
		<tag k="ssr:stedsnr" v="321579" />
		<tag k="waterway" v="stream" />
	</node>
	<node lat="68.44696944606983" lon="19.975263877359843" id="-98857">
		<tag k="name" v="Lágojávri" />
		<tag k="name:se" v="Lágojávri" />
		<tag k="natural" v="water" />
		<tag k="ssr:stedsnr" v="321078" />
		<tag k="water" v="lake" />
	</node>
	<node lat="68.73233055945094" lon="18.54470555867776" id="-98858">
		<tag k="name" v="Sørdalselva" />
		<tag k="ssr:stedsnr" v="321162" />
		<tag k="waterway" v="river" />
	</node>
	<node lat="68.44846666367137" lon="19.499869432758235" id="-98860">
		<tag k="name" v="Skierpmájohka" />
		<tag k="name:se" v="Skierpmájohka" />
		<tag k="ssr:stedsnr" v="321111" />
		<tag k="waterway" v="stream" />
	</node>
	<node lat="68.67380833095866" lon="18.573508332505924" id="-98863">
		<tag k="name" v="Skredbekken" />
		<tag k="ssr:stedsnr" v="321312" />
		<tag k="waterway" v="stream" />
	</node>
	<node lat="68.74693333251531" lon="18.65269722105205" id="-98865">
		<tag k="alt_name:no" v="Strømsli-tverrelva" />
		<tag k="name" v="Strømslitverrelva - Duolljejohka" />
		<tag k="name:no" v="Strømslitverrelva" />
		<tag k="name:se" v="Duolljejohka" />
		<tag k="ssr:stedsnr" v="321256" />
		<tag k="waterway" v="river" />
	</node>
	<node lat="68.77717777534528" lon="18.63193610989265" id="-98866">
		<tag k="name" v="Langtjørna" />
		<tag k="natural" v="water" />
		<tag k="ssr:stedsnr" v="321260" />
	</node>
	<node lat="68.64340555977891" lon="18.21599443998875" id="-98867">
		<tag k="name" v="Storholmen" />
		<tag k="place" v="islet" />
		<tag k="ssr:stedsnr" v="321277" />
	</node>
	<node lat="68.64764166762191" lon="18.406922211197653" id="-98868">
		<tag k="alt_name" v="Geitryggvatnet, andre" />
		<tag k="name" v="Andre Geitryggvatnet" />
		<tag k="natural" v="water" />
		<tag k="ssr:stedsnr" v="321281" />
		<tag k="water" v="lake" />
	</node>
	<node lat="68.69289444533793" lon="19.295311114246545" id="-98870">
		<tag k="name" v="Jierdnejávri" />
		<tag k="name:se" v="Jierdnejávri" />
		<tag k="natural" v="water" />
		<tag k="ssr:stedsnr" v="321364" />
	</node>
	<node lat="68.75421666528966" lon="18.128766665675208" id="-98874">
		<tag k="alt_name" v="Randblombekken" />
		<tag k="name" v="Blomranbekken" />
		<tag k="ssr:stedsnr" v="321426" />
		<tag k="waterway" v="stream" />
	</node>
	<node lat="68.79037291514663" lon="18.117790496449572" id="-98875">
		<tag k="name" v="Sprellvatnet - Čierrunjávri" />
		<tag k="name:no" v="Sprellvatnet" />
		<tag k="name:se" v="Čierrunjávri" />
		<tag k="natural" v="water" />
		<tag k="old_name:se" v="Čierronjavri" />
		<tag k="ssr:stedsnr" v="321429" />
	</node>
	<node lat="68.84611944508924" lon="18.54038056083858" id="-98877">
		<tag k="name" v="Blåbergbekken" />
		<tag k="ssr:stedsnr" v="321500" />
		<tag k="waterway" v="stream" />
	</node>
	<node lat="68.70128332995776" lon="18.676530545025255" id="-98880">
		<tag k="name" v="Brefallsfossen" />
		<tag k="natural" v="waterfall" />
		<tag k="ssr:stedsnr" v="321439" />
	</node>
	<node lat="68.72403055770974" lon="18.636438875217696" id="-98882">
		<tag k="name" v="Mobekken" />
		<tag k="ssr:stedsnr" v="321447" />
		<tag k="waterway" v="stream" />
	</node>
	<node lat="68.8722916671211" lon="18.22092498741276" id="-98885">
		<tag k="name" v="Blomlivatnet" />
		<tag k="natural" v="water" />
		<tag k="ssr:stedsnr" v="321475" />
	</node>
	<node lat="69.0398000019996" lon="18.37117499566765" id="-98892">
		<tag k="name" v="Svartvatnet" />
		<tag k="natural" v="water" />
		<tag k="ssr:stedsnr" v="321856" />
	</node>
	<node lat="69.03734722679837" lon="18.373533322841425" id="-98893">
		<tag k="alt_name" v="Kroktjørna" />
		<tag k="name" v="Kroktjønna" />
		<tag k="natural" v="water" />
		<tag k="ssr:stedsnr" v="321863" />
	</node>
	<node lat="69.0344222259441" lon="18.394247209335433" id="-98895">
		<tag k="alt_name" v="Rolftjørna" />
		<tag k="name" v="Rolvvatnet" />
		<tag k="natural" v="water" />
		<tag k="ssr:stedsnr" v="321867" />
	</node>
	<node lat="69.03524167053904" lon="18.553702773913617" id="-98896">
		<tag k="alt_name" v="Kvernvatnet" />
		<tag k="name" v="Kvennvatnet" />
		<tag k="natural" v="water" />
		<tag k="ssr:stedsnr" v="321869" />
	</node>
	<node lat="69.02384166823398" lon="18.40158332530389" id="-98897">
		<tag k="name" v="Steinvatnet" />
		<tag k="natural" v="water" />
		<tag k="ssr:stedsnr" v="321873" />
	</node>
	<node lat="68.69351944671477" lon="18.43498332958268" id="-98898">
		<tag k="name" v="Svartskredbekken" />
		<tag k="ssr:stedsnr" v="327242" />
		<tag k="waterway" v="stream" />
	</node>
	<node lat="68.68756944029367" lon="18.52949167107557" id="-98900">
		<tag k="alt_name" v="Skjelbekken" />
		<tag k="name" v="Skjellbekken" />
		<tag k="ssr:stedsnr" v="327642" />
		<tag k="waterway" v="stream" />
	</node>
	<node lat="68.80631666901186" lon="18.11238334117785" id="-98904">
		<tag k="name" v="Torbergtjønna" />
		<tag k="natural" v="water" />
		<tag k="ssr:stedsnr" v="355232" />
	</node>
	<node lat="68.86435833081867" lon="18.454958323217724" id="-98908">
		<tag k="name" v="Langtjønna" />
		<tag k="natural" v="water" />
		<tag k="ssr:stedsnr" v="357119" />
	</node>
	<node lat="68.92349444787916" lon="18.370444430350442" id="-98909">
		<tag k="name" v="Tverrelvgrena" />
		<tag k="ssr:stedsnr" v="357125" />
		<tag k="waterway" v="stream" />
	</node>
	<node lat="68.82880000057337" lon="18.43956944975047" id="-98912">
		<tag k="name" v="Lortekra" />
		<tag k="natural" v="beach" />
		<tag k="ssr:stedsnr" v="358434" />
	</node>
	<node lat="68.84475555727006" lon="18.2470416731" id="-98913">
		<tag k="name" v="Furumobekken" />
		<tag k="ssr:stedsnr" v="356691" />
		<tag k="waterway" v="stream" />
	</node>
	<node lat="68.65786110928049" lon="18.558461099845132" id="-98918">
		<tag k="name" v="Øya" />
		<tag k="natural" v="cape" />
		<tag k="ssr:stedsnr" v="357442" />
	</node>
	<node lat="68.79336111099624" lon="18.209844430528513" id="-98932">
		<tag k="name" v="Kildebekken" />
		<tag k="ssr:stedsnr" v="358572" />
		<tag k="waterway" v="stream" />
	</node>
	<node lat="68.9872888906875" lon="18.539216658655572" id="-98938">
		<tag k="name" v="Bjørnstadbekken" />
		<tag k="ssr:stedsnr" v="358856" />
		<tag k="waterway" v="stream" />
	</node>
	<node lat="68.63563333326056" lon="18.26833611593123" id="-98942">
		<tag k="name" v="Langodden" />
		<tag k="natural" v="cape" />
		<tag k="ssr:stedsnr" v="358942" />
	</node>
	<node lat="68.6419833302167" lon="18.194227760722416" id="-98945">
		<tag k="name" v="Sortebekken" />
		<tag k="ssr:stedsnr" v="358978" />
		<tag k="waterway" v="stream" />
	</node>
	<node lat="69.00909166635196" lon="18.5098111072181" id="-98946">
		<tag k="name" v="Lenninga" />
		<tag k="natural" v="bay" />
		<tag k="ssr:stedsnr" v="358980" />
	</node>
	<node lat="68.65039444799525" lon="18.2486027650479" id="-98948">
		<tag k="name" v="Djupdalsbekken" />
		<tag k="ssr:stedsnr" v="358992" />
		<tag k="waterway" v="stream" />
	</node>
	<node lat="68.68819444078945" lon="18.573711109613097" id="-98952">
		<tag k="name" v="Lergruvbekken" />
		<tag k="ssr:stedsnr" v="359396" />
		<tag k="waterway" v="stream" />
	</node>
	<node lat="68.68589444294999" lon="18.572452761957784" id="-98953">
		<tag k="name" v="Lortbekken" />
		<tag k="ssr:stedsnr" v="359398" />
		<tag k="waterway" v="stream" />
	</node>
	<node lat="68.82582499530746" lon="18.19441667135269" id="-98963">
		<tag k="name" v="Brennhaugbekken" />
		<tag k="ssr:stedsnr" v="360231" />
		<tag k="waterway" v="stream" />
	</node>
	<node lat="68.9562944466617" lon="18.476638889552707" id="-98967">
		<tag k="name" v="Grindkjosen" />
		<tag k="natural" v="bay" />
		<tag k="ssr:stedsnr" v="360166" />
	</node>
	<node lat="68.78533333655666" lon="18.54813056037725" id="-98969">
		<tag k="name" v="Øyholmen" />
		<tag k="place" v="islet" />
		<tag k="ssr:stedsnr" v="360173" />
	</node>
	<node lat="68.81846388894806" lon="18.181347217870826" id="-98974">
		<tag k="name" v="Bukta" />
		<tag k="natural" v="bay" />
		<tag k="ssr:stedsnr" v="360247" />
	</node>
	<node lat="68.66246666461211" lon="18.164547226571848" id="-98978">
		<tag k="name" v="Hølet" />
		<tag k="natural" v="water" />
		<tag k="ssr:stedsnr" v="374896" />
		<tag k="water" v="lake" />
	</node>
	<node lat="68.60481111295702" lon="18.205313886330682" id="-98981">
		<tag k="name" v="Stordalselva - Stuoravákkejohka" />
		<tag k="name:no" v="Stordalselva" />
		<tag k="name:se" v="Stuoravákkejohka" />
		<tag k="old_name:se" v="Stuoravaggejåkka" />
		<tag k="ssr:stedsnr" v="381188" />
		<tag k="waterway" v="river" />
	</node>
	<node lat="68.49704999953896" lon="20.114919435478104" id="-98983">
		<tag k="name" v="Unna Gámasjávrráš" />
		<tag k="name:se" v="Unna Gámasjávrráš" />
		<tag k="natural" v="water" />
		<tag k="old_name:se" v="Gámasjávrráš, unna;Unna Gámasjávri" />
		<tag k="ssr:stedsnr" v="381122" />
		<tag k="water" v="lake" />
	</node>
	<node lat="68.41700000489884" lon="19.640074983083892" id="-98984">
		<tag k="name" v="Rivgojohka" />
		<tag k="name:se" v="Rivgojohka" />
		<tag k="ssr:stedsnr" v="381128" />
		<tag k="waterway" v="stream" />
	</node>
	<node lat="68.68484166381589" lon="18.23522220632977" id="-98987">
		<tag k="name" v="Jørenvatnet" />
		<tag k="natural" v="water" />
		<tag k="ssr:stedsnr" v="381325" />
		<tag k="water" v="lake" />
	</node>
	<node lat="68.74677778078279" lon="18.919819449236385" id="-98994">
		<tag k="name" v="Røyevatnet - Rávdojávri" />
		<tag k="name:no" v="Røyevatnet" />
		<tag k="name:se" v="Rávdojávri" />
		<tag k="natural" v="water" />
		<tag k="old_name:se" v="Rovdujavri;Ravdujavri" />
		<tag k="ssr:stedsnr" v="381298" />
		<tag k="water" v="lake" />
	</node>
	<node lat="68.70814166273753" lon="18.511061101455205" id="-98998">
		<tag k="name" v="Akselbekken" />
		<tag k="ssr:stedsnr" v="381373" />
		<tag k="waterway" v="stream" />
	</node>
	<node lat="68.6151111141655" lon="19.442124992444484" id="-99001">
		<tag k="name" v="Geađgejohka" />
		<tag k="name:se" v="Geađgejohka" />
		<tag k="ssr:stedsnr" v="381397" />
		<tag k="waterway" v="river" />
	</node>
	<node lat="68.45286944858904" lon="19.75879999794601" id="-99011">
		<tag k="name" v="Gassanjárga" />
		<tag k="name:se" v="Gassanjárga" />
		<tag k="natural" v="cape" />
		<tag k="ssr:stedsnr" v="381460" />
	</node>
	<node lat="68.69163889188648" lon="18.95688054150853" id="-99014">
		<tag k="name" v="Koievatnet - Buletjávri" />
		<tag k="name:no" v="Koievatnet" />
		<tag k="name:se" v="Buletjávri" />
		<tag k="natural" v="water" />
		<tag k="old_name:se" v="Buletjavri" />
		<tag k="ssr:stedsnr" v="381500" />
		<tag k="water" v="lake" />
	</node>
	<node lat="68.50206111269159" lon="19.873538862904148" id="-99019">
		<tag k="name" v="Átnjatluoppal" />
		<tag k="name:se" v="Átnjatluoppal" />
		<tag k="natural" v="water" />
		<tag k="ssr:stedsnr" v="382052" />
		<tag k="water" v="lake" />
	</node>
	<node lat="68.54970833584443" lon="19.856005532601326" id="-99021">
		<tag k="name" v="Roggejávrrit" />
		<tag k="name:se" v="Roggejávrrit" />
		<tag k="natural" v="water" />
		<tag k="ssr:stedsnr" v="382080" />
	</node>
	<node lat="68.44790000490983" lon="19.61579442500064" id="-99022">
		<tag k="name" v="Eartebealjávri" />
		<tag k="name:se" v="Eartebealjávri" />
		<tag k="natural" v="water" />
		<tag k="ssr:stedsnr" v="382131" />
		<tag k="water" v="lake" />
	</node>
	<node lat="68.82619722462962" lon="18.58008332163793" id="-99023">
		<tag k="fixme" v="multiple name tags, choose one and add the other to alt_name" />
		<tag k="name" v="Skredbekken;Skredbakkbekken" />
		<tag k="ssr:stedsnr" v="382480" />
		<tag k="waterway" v="stream" />
	</node>
	<node lat="68.82864999615511" lon="18.535752765065123" id="-99024">
		<tag k="name" v="Storstampbekken" />
		<tag k="ssr:stedsnr" v="382484" />
		<tag k="waterway" v="stream" />
	</node>
	<node lat="68.65227222503052" lon="18.25764166279945" id="-99026">
		<tag k="alt_name" v="Vesljordbekken" />
		<tag k="name" v="Veslejordbekken" />
		<tag k="ssr:stedsnr" v="382266" />
		<tag k="waterway" v="stream" />
	</node>
	<node lat="68.65716389202474" lon="18.56813889430989" id="-99030">
		<tag k="name" v="Brunbekken" />
		<tag k="ssr:stedsnr" v="382279" />
		<tag k="waterway" v="stream" />
	</node>
	<node lat="68.64277221915383" lon="18.231019450538135" id="-99033">
		<tag k="name" v="Hestholmen" />
		<tag k="place" v="islet" />
		<tag k="ssr:stedsnr" v="382288" />
	</node>
	<node lat="68.64040277689429" lon="18.418991664225942" id="-99034">
		<tag k="alt_name" v="Geitryggvatnet, første" />
		<tag k="name" v="Første Geitryggvatnet" />
		<tag k="natural" v="water" />
		<tag k="old_name" v="Geitryggvatnet" />
		<tag k="ssr:stedsnr" v="382290" />
		<tag k="water" v="lake" />
	</node>
	<node lat="68.62094999903518" lon="18.894305546849708" id="-99036">
		<tag k="name" v="Doaresjohka" />
		<tag k="name:se" v="Doaresjohka" />
		<tag k="old_name:se" v="Doaresjåkka" />
		<tag k="ssr:stedsnr" v="382439" />
		<tag k="waterway" v="stream" />
	</node>
	<node lat="68.65410555971529" lon="19.119525001325577" id="-99037">
		<tag k="name" v="Fiskløyselva - Gaskkasjohka" />
		<tag k="name:no" v="Fiskløyselva" />
		<tag k="name:se" v="Gaskkasjohka" />
		<tag k="old_name:se" v="Gaskasjåkka" />
		<tag k="ssr:stedsnr" v="382445" />
		<tag k="waterway" v="river" />
	</node>
	<node lat="68.65448055798588" lon="18.961824988555023" id="-99038">
		<tag k="name" v="Persenbukta" />
		<tag k="natural" v="bay" />
		<tag k="ssr:stedsnr" v="382447" />
	</node>
	<node lat="68.66562500192862" lon="19.009938871216853" id="-99039">
		<tag k="name" v="Livassodden" />
		<tag k="natural" v="cape" />
		<tag k="ssr:stedsnr" v="382449" />
	</node>
	<node lat="68.82723055665244" lon="18.23677500566901" id="-99041">
		<tag k="alt_name" v="Gammelolatjørna" />
		<tag k="name" v="Gaml-olavatnet" />
		<tag k="natural" v="water" />
		<tag k="ssr:stedsnr" v="382547" />
	</node>
	<node lat="68.89807777883405" lon="18.265636110669227" id="-99048">
		<tag k="name" v="Storbekken" />
		<tag k="ssr:stedsnr" v="382579" />
		<tag k="waterway" v="stream" />
	</node>
	<node lat="68.89996944521454" lon="18.162888890338426" id="-99049">
		<tag k="name" v="Laksvatnet" />
		<tag k="natural" v="water" />
		<tag k="ssr:stedsnr" v="382581" />
	</node>
	<node lat="68.73174722325184" lon="18.115141669099735" id="-99052">
		<tag k="name" v="Innerbekken" />
		<tag k="ssr:stedsnr" v="382647" />
		<tag k="waterway" v="stream" />
	</node>
	<node lat="69.02386944842253" lon="18.568094433594503" id="-99053">
		<tag k="alt_name" v="Svartantjørna" />
		<tag k="name" v="Svartandtjønna" />
		<tag k="natural" v="water" />
		<tag k="ssr:stedsnr" v="382939" />
	</node>
	<node lat="69.0367944404821" lon="18.549344441410025" id="-99060">
		<tag k="name" v="Kvennbekken" />
		<tag k="ssr:stedsnr" v="414957" />
		<tag k="waterway" v="stream" />
	</node>
	<node lat="68.85366388623444" lon="18.100969446865506" id="-99068">
		<tag k="name" v="Iverholmen" />
		<tag k="place" v="islet" />
		<tag k="ssr:stedsnr" v="416153" />
	</node>
	<node lat="68.74979166654666" lon="18.123619439138537" id="-99074">
		<tag k="name" v="Sollinova" />
		<tag k="natural" v="cape" />
		<tag k="ssr:stedsnr" v="416384" />
	</node>
	<node lat="68.92066389078627" lon="18.423066657945117" id="-99078">
		<tag k="name" v="Veslbekken" />
		<tag k="ssr:stedsnr" v="418156" />
		<tag k="waterway" v="stream" />
	</node>
	<node lat="68.88324166356605" lon="18.43822498277464" id="-99083">
		<tag k="name" v="Veiskjellbekken" />
		<tag k="ssr:stedsnr" v="419143" />
		<tag k="waterway" v="stream" />
	</node>
	<node lat="68.94069722506548" lon="18.465738886881983" id="-99087">
		<tag k="name" v="Brennvinsbekken" />
		<tag k="ssr:stedsnr" v="418778" />
		<tag k="waterway" v="stream" />
	</node>
	<node lat="68.78521110958255" lon="18.19904442863102" id="-99092">
		<tag k="name" v="Sæterbekken" />
		<tag k="ssr:stedsnr" v="419544" />
		<tag k="waterway" v="stream" />
	</node>
	<node lat="68.64515555845479" lon="18.220308321716193" id="-99095">
		<tag k="name" v="Hanseloken" />
		<tag k="ssr:stedsnr" v="419961" />
		<tag k="waterway" v="stream" />
	</node>
	<node lat="68.65361389307613" lon="18.202036108002897" id="-99099">
		<tag k="name" v="Stranda" />
		<tag k="natural" v="beach" />
		<tag k="ssr:stedsnr" v="419976" />
	</node>
	<node lat="68.97066110728417" lon="18.495858335033752" id="-99104">
		<tag k="name" v="Langstrandevjen" />
		<tag k="natural" v="bay" />
		<tag k="ssr:stedsnr" v="421115" />
	</node>
	<node lat="69.035424996948" lon="18.39432776251167" id="-99110">
		<tag k="name" v="Jo-Sunnaplassen" />
		<tag k="natural" v="bay" />
		<tag k="ssr:stedsnr" v="420952" />
	</node>
	<node lat="68.96284166496963" lon="18.44851110913815" id="-99117">
		<tag k="name" v="Reingjerdbekken" />
		<tag k="ssr:stedsnr" v="421179" />
		<tag k="waterway" v="stream" />
	</node>
	<node lat="68.843863892756" lon="18.28146667028309" id="-99121">
		<tag k="name" v="Myrlandfossen" />
		<tag k="natural" v="waterfall" />
		<tag k="ssr:stedsnr" v="421232" />
	</node>
	<node lat="68.81668055434542" lon="18.179936096984257" id="-99124">
		<tag k="name" v="Klubbefossen" />
		<tag k="natural" v="waterfall" />
		<tag k="ssr:stedsnr" v="421271" />
	</node>
	<node lat="68.8682833309821" lon="18.23001109617369" id="-99126">
		<tag k="name" v="Djupvatnet" />
		<tag k="natural" v="water" />
		<tag k="ssr:stedsnr" v="421318" />
	</node>
	<node lat="68.84871111435679" lon="18.310847217227376" id="-99129">
		<tag k="name" v="Indre Nestjønna" />
		<tag k="natural" v="water" />
		<tag k="ssr:stedsnr" v="421368" />
	</node>
	<node lat="68.65404722187161" lon="18.8613110953995" id="-99132">
		<tag k="name" v="Storfossen" />
		<tag k="natural" v="waterfall" />
		<tag k="ssr:stedsnr" v="421562" />
	</node>
	<node lat="68.70625833113496" lon="18.671591654404725" id="-99133">
		<tag k="name" v="Stendalsbekken" />
		<tag k="ssr:stedsnr" v="421928" />
		<tag k="waterway" v="stream" />
	</node>
	<node lat="68.94656110733482" lon="18.206874989654747" id="-99137">
		<tag k="name" v="Sniptindelva" />
		<tag k="ssr:stedsnr" v="442666" />
		<tag k="waterway" v="river" />
	</node>
	<node lat="68.9478833364098" lon="18.241458342255235" id="-99138">
		<tag k="name" v="Skovatnet - Várdnoljávri" />
		<tag k="name:no" v="Skovatnet" />
		<tag k="name:se" v="Várdnoljávri" />
		<tag k="natural" v="water" />
		<tag k="old_name:se" v="Vardnuljavri" />
		<tag k="ssr:stedsnr" v="442668" />
		<tag k="water" v="lake" />
	</node>
	<node lat="68.707619447569" lon="18.169674990090375" id="-99139">
		<tag k="name" v="Jørenelva" />
		<tag k="ssr:stedsnr" v="442670" />
		<tag k="waterway" v="river" />
	</node>
	<node lat="68.70008055401124" lon="18.074741666693715" id="-99152">
		<tag k="name" v="Løbekken" />
		<tag k="ssr:stedsnr" v="442368" />
		<tag k="waterway" v="stream" />
	</node>
	<node lat="68.6925583357167" lon="18.068861097845662" id="-99153">
		<tag k="alt_name" v="Tjørnan" />
		<tag k="name" v="Tjønnan" />
		<tag k="natural" v="water" />
		<tag k="ssr:stedsnr" v="442371" />
		<tag k="water" v="lake" />
	</node>
	<node lat="68.58043055599585" lon="18.981227769123706" id="-99155">
		<tag k="name" v="Juovvagárddijohka" />
		<tag k="name:se" v="Juovvagárddijohka" />
		<tag k="old_name:se" v="Juovvagardijåkka" />
		<tag k="ssr:stedsnr" v="442462" />
		<tag k="waterway" v="stream" />
	</node>
	<node lat="68.58999444255188" lon="18.858433328276316" id="-99157">
		<tag k="name" v="Láirevákkejohka" />
		<tag k="name:se" v="Láirevákkejohka" />
		<tag k="old_name:se" v="Lairevaggejåkka" />
		<tag k="ssr:stedsnr" v="442466" />
		<tag k="waterway" v="river" />
	</node>
	<node lat="68.70624722536598" lon="18.641366665616427" id="-99159">
		<tag k="name" v="Dalbergbekken" />
		<tag k="ssr:stedsnr" v="442482" />
		<tag k="waterway" v="stream" />
	</node>
	<node lat="68.86946944564541" lon="18.460413891592914" id="-99160">
		<tag k="fixme" v="multiple name tags, choose one and add the other to alt_name" />
		<tag k="name" v="Krokstadtverrelva;Tverrelva - Beassetjohka" />
		<tag k="name:no" v="Krokstadtverrelva;Tverrelva" />
		<tag k="name:se" v="Beassetjohka" />
		<tag k="ssr:stedsnr" v="442513" />
		<tag k="waterway" v="river" />
	</node>
	<node lat="68.84864166570439" lon="18.275388884393813" id="-99163">
		<tag k="alt_name" v="Veslvatnet, nedre" />
		<tag k="fixme" v="multiple name tags, choose one and add the other to alt_name" />
		<tag k="name" v="Veslvatnet;Nedre Veslvatnet" />
		<tag k="natural" v="water" />
		<tag k="ssr:stedsnr" v="442524" />
	</node>
	<node lat="68.44671666858119" lon="19.76061110357172" id="-99166">
		<tag k="name" v="Lappbukta - Skierreluokta" />
		<tag k="name:no" v="Lappbukta" />
		<tag k="name:se" v="Skierreluokta" />
		<tag k="natural" v="bay" />
		<tag k="ssr:stedsnr" v="443124" />
	</node>
	<node lat="69.03261110893739" lon="18.481727780821785" id="-99167">
		<tag k="name" v="Sagbekken" />
		<tag k="ssr:stedsnr" v="443082" />
		<tag k="waterway" v="stream" />
	</node>
	<node lat="68.82996667039606" lon="18.382894438222067" id="-99168">
		<tag k="name" v="Storbekken" />
		<tag k="ssr:stedsnr" v="443260" />
		<tag k="waterway" v="stream" />
	</node>
	<node lat="68.77958333243166" lon="18.75338888280781" id="-99170">
		<tag k="alt_name:no" v="Skinskarelva" />
		<tag k="name" v="Skinskardelva - Duolljevákkijohka" />
		<tag k="name:no" v="Skinskardelva" />
		<tag k="name:se" v="Duolljevákkijohka" />
		<tag k="ssr:stedsnr" v="443262" />
		<tag k="waterway" v="river" />
	</node>
	<node lat="68.71950833686397" lon="18.1301194505091" id="-99177">
		<tag k="name" v="Slettbekken" />
		<tag k="ssr:stedsnr" v="443641" />
		<tag k="waterway" v="stream" />
	</node>
	<node lat="68.72330278076942" lon="18.115319452789397" id="-99178">
		<tag k="alt_name" v="Skjelbekken" />
		<tag k="name" v="Skjellbekken" />
		<tag k="ssr:stedsnr" v="443642" />
		<tag k="waterway" v="stream" />
	</node>
	<node lat="68.71794999631602" lon="18.065366671063913" id="-99179">
		<tag k="alt_name" v="Klokka-tobekken" />
		<tag k="name" v="Klokkatobekken" />
		<tag k="ssr:stedsnr" v="443651" />
		<tag k="waterway" v="stream" />
	</node>
	<node lat="68.83723055649779" lon="18.250733332629753" id="-99182">
		<tag k="name" v="Moanfossen" />
		<tag k="natural" v="waterfall" />
		<tag k="ssr:stedsnr" v="498709" />
	</node>
	<node lat="68.51502777690636" lon="19.432688888761305" id="-99184">
		<tag k="name" v="Lágojávri" />
		<tag k="name:se" v="Lágojávri" />
		<tag k="natural" v="water" />
		<tag k="ssr:stedsnr" v="503094" />
		<tag k="water" v="lake" />
	</node>
	<node lat="68.44943888709093" lon="19.876861093730923" id="-99186">
		<tag k="name" v="Gaskorddajohka" />
		<tag k="name:se" v="Gaskorddajohka" />
		<tag k="ssr:stedsnr" v="503026" />
		<tag k="waterway" v="stream" />
	</node>
	<node lat="68.50845000142164" lon="20.09270277289676" id="-99189">
		<tag k="name" v="Unna Gámasjávrráš" />
		<tag k="name:se" v="Unna Gámasjávrráš" />
		<tag k="natural" v="water" />
		<tag k="old_name:se" v="Gámasjávrráš, unna" />
		<tag k="ssr:stedsnr" v="503053" />
	</node>
	<node lat="68.6456416674455" lon="18.188055550102856" id="-99191">
		<tag k="name" v="Kløftbekken" />
		<tag k="ssr:stedsnr" v="503273" />
		<tag k="waterway" v="stream" />
	</node>
	<node lat="68.58965277989859" lon="18.374155553279238" id="-99193">
		<tag k="name" v="Budalsvatnet - Vuoiddasjávri" />
		<tag k="name:no" v="Budalsvatnet" />
		<tag k="name:se" v="Vuoiddasjávri" />
		<tag k="natural" v="water" />
		<tag k="old_name:se" v="Vuoidasjavri" />
		<tag k="ssr:stedsnr" v="503229" />
		<tag k="water" v="lake" />
	</node>
	<node lat="68.75209721768476" lon="18.641088887853464" id="-99196">
		<tag k="name" v="Storbekken" />
		<tag k="ssr:stedsnr" v="503256" />
		<tag k="waterway" v="stream" />
	</node>
	<node lat="68.65440833633328" lon="18.16368889218799" id="-99198">
		<tag k="name" v="Steinelva" />
		<tag k="ssr:stedsnr" v="503259" />
		<tag k="waterway" v="stream" />
	</node>
	<node lat="68.7078722189656" lon="18.591027776334922" id="-99201">
		<tag k="name" v="Storbekkvatna" />
		<tag k="natural" v="water" />
		<tag k="ssr:stedsnr" v="503321" />
		<tag k="water" v="lake" />
	</node>
	<node lat="68.55553055902087" lon="19.21463610178375" id="-99206">
		<tag k="name" v="Gávvajávri" />
		<tag k="name:se" v="Gávvajávri" />
		<tag k="natural" v="water" />
		<tag k="old_name:se" v="Gavvajavri" />
		<tag k="ssr:stedsnr" v="503398" />
		<tag k="water" v="lake" />
	</node>
	<node lat="68.71843888887621" lon="18.662000001159942" id="-99209">
		<tag k="name" v="Tronga" />
		<tag k="ssr:stedsnr" v="503447" />
		<tag k="waterway" v="rapids" />
	</node>
	<node lat="68.69481666288536" lon="18.349699990273127" id="-99214">
		<tag k="name" v="Tuvvatna" />
		<tag k="natural" v="water" />
		<tag k="ssr:stedsnr" v="503350" />
		<tag k="water" v="lake" />
	</node>
	<node lat="68.85880832944889" lon="18.40552221052277" id="-99217">
		<tag k="name" v="Djupdalsbekken" />
		<tag k="ssr:stedsnr" v="503495" />
		<tag k="waterway" v="stream" />
	</node>
	<node lat="68.92289722729221" lon="18.355627765310253" id="-99220">
		<tag k="name" v="Grenan" />
		<tag k="ssr:stedsnr" v="503535" />
		<tag k="waterway" v="river" />
	</node>
	<node lat="68.9420000018243" lon="18.503949994881395" id="-99224">
		<tag k="name" v="Tindbekken" />
		<tag k="ssr:stedsnr" v="503631" />
		<tag k="waterway" v="stream" />
	</node>
	<node lat="68.74264166923831" lon="18.53299722462619" id="-99225">
		<tag k="fixme" v="multiple name tags, choose one and add the other to alt_name" />
		<tag k="name" v="Lundebekken;Skredbekken" />
		<tag k="ssr:stedsnr" v="503632" />
		<tag k="waterway" v="stream" />
	</node>
	<node lat="68.74722499979069" lon="18.548275000417146" id="-99228">
		<tag k="alt_name" v="Tvibotntjørna" />
		<tag k="name" v="Tvibotntjønna" />
		<tag k="natural" v="water" />
		<tag k="ssr:stedsnr" v="503584" />
	</node>
	<node lat="68.97797499590894" lon="18.49957221739139" id="-99230">
		<tag k="name" v="Kjosen" />
		<tag k="natural" v="water" />
		<tag k="ssr:stedsnr" v="503600" />
	</node>
	<node lat="68.86176944301631" lon="18.09719998596454" id="-99238">
		<tag k="name" v="Vassbekken" />
		<tag k="ssr:stedsnr" v="537151" />
		<tag k="waterway" v="stream" />
	</node>
	<node lat="68.9275527825393" lon="18.44201387655134" id="-99240">
		<tag k="name" v="Kvennhusbekken" />
		<tag k="ssr:stedsnr" v="539151" />
		<tag k="waterway" v="stream" />
	</node>
	<node lat="68.81149444006155" lon="18.461511112813024" id="-99242">
		<tag k="name" v="Tverrelva" />
		<tag k="ssr:stedsnr" v="540024" />
		<tag k="waterway" v="stream" />
	</node>
	<node lat="68.94797221793654" lon="18.501702776263674" id="-99271">
		<tag k="name" v="Maribekken" />
		<tag k="ssr:stedsnr" v="540953" />
		<tag k="waterway" v="stream" />
	</node>
	<node lat="68.97567777852043" lon="18.507411094162865" id="-99283">
		<tag k="name" v="Engkjosen" />
		<tag k="natural" v="bay" />
		<tag k="ssr:stedsnr" v="542125" />
	</node>
	<node lat="68.86271389047259" lon="18.230758320985256" id="-99290">
		<tag k="name" v="Rundvatnet" />
		<tag k="natural" v="water" />
		<tag k="ssr:stedsnr" v="542325" />
	</node>
	<node lat="68.863238887491" lon="18.31107220591485" id="-99293">
		<tag k="name" v="Sæterbekken" />
		<tag k="ssr:stedsnr" v="542357" />
		<tag k="waterway" v="stream" />
	</node>
	<node lat="68.7948500022605" lon="18.1626722092077" id="-99297">
		<tag k="name" v="Tovranbekken" />
		<tag k="ssr:stedsnr" v="553557" />
		<tag k="waterway" v="stream" />
	</node>
	<node lat="68.64447221981045" lon="19.39686111227082" id="-99299">
		<tag k="name" v="Gihlájávrrit" />
		<tag k="name:se" v="Gihlájávrrit" />
		<tag k="natural" v="water" />
		<tag k="ssr:stedsnr" v="563385" />
		<tag k="water" v="lake" />
	</node>
	<node lat="68.55019444705167" lon="18.84391387796407" id="-99301">
		<tag k="name" v="Rullájavri" />
		<tag k="name:se" v="Rullájavri" />
		<tag k="natural" v="water" />
		<tag k="old_name:se" v="Rullajavri" />
		<tag k="ssr:stedsnr" v="563396" />
		<tag k="water" v="lake" />
	</node>
	<node lat="68.54364999822612" lon="19.025616651344105" id="-99302">
		<tag k="name" v="Čoarddajávri" />
		<tag k="name:se" v="Čoarddajávri" />
		<tag k="natural" v="water" />
		<tag k="old_name:se" v="Čoardajavri" />
		<tag k="ssr:stedsnr" v="563397" />
	</node>
	<node lat="68.4941333373329" lon="19.20008054119319" id="-99306">
		<tag k="name" v="Ullándarasjohka" />
		<tag k="name:se" v="Ullándarasjohka" />
		<tag k="old_name:se" v="Ullandarasjåkka" />
		<tag k="ssr:stedsnr" v="563418" />
		<tag k="waterway" v="stream" />
	</node>
	<node lat="68.41337778301497" lon="19.828758309548935" id="-99307">
		<tag k="name" v="Čiekŋalissuolu" />
		<tag k="name:se" v="Čiekŋalissuolu" />
		<tag k="place" v="islet" />
		<tag k="ssr:stedsnr" v="563022" />
	</node>
	<node lat="68.46942778173342" lon="19.41718610600369" id="-99308">
		<tag k="name" v="Gassajohka" />
		<tag k="name:se" v="Gassajohka" />
		<tag k="ssr:stedsnr" v="563074" />
		<tag k="waterway" v="stream" />
	</node>
	<node lat="68.52878055369143" lon="19.74510554378103" id="-99310">
		<tag k="name" v="Skoapmitjohka" />
		<tag k="name:se" v="Skoapmitjohka" />
		<tag k="ssr:stedsnr" v="563100" />
		<tag k="waterway" v="stream" />
	</node>
	<node lat="68.5413611088523" lon="19.79854998386442" id="-99311">
		<tag k="name" v="Buolžagorssajohka" />
		<tag k="name:se" v="Buolžagorssajohka" />
		<tag k="ssr:stedsnr" v="563102" />
		<tag k="waterway" v="stream" />
	</node>
	<node lat="68.41084444810751" lon="19.727188868693176" id="-99313">
		<tag k="name" v="Čoalosjávri" />
		<tag k="name:se" v="Čoalosjávri" />
		<tag k="natural" v="water" />
		<tag k="ssr:stedsnr" v="563114" />
	</node>
	<node lat="68.66583611155865" lon="18.58525000360415" id="-99317">
		<tag k="alt_name" v="Vesljordbekken" />
		<tag k="name" v="Veslejordbekken" />
		<tag k="ssr:stedsnr" v="563179" />
		<tag k="waterway" v="stream" />
	</node>
	<node lat="68.55310000342601" lon="18.113205557324573" id="-99319">
		<tag k="name" v="Isvatnet - Jiekŋajávri" />
		<tag k="name:no" v="Isvatnet" />
		<tag k="name:se" v="Jiekŋajávri" />
		<tag k="natural" v="water" />
		<tag k="old_name:se" v="Jiegnajavri" />
		<tag k="ssr:stedsnr" v="563262" />
		<tag k="water" v="lake" />
	</node>
	<node lat="68.86618888907452" lon="18.625661096798318" id="-99321">
		<tag k="name" v="Skardelva - Gealovákkijohka" />
		<tag k="name:no" v="Skardelva" />
		<tag k="name:se" v="Gealovákkijohka" />
		<tag k="old_name:se" v="Gælovákkijohka" />
		<tag k="ssr:stedsnr" v="563274" />
		<tag k="waterway" v="river" />
	</node>
	<node lat="68.547850003488" lon="18.626099990560437" id="-99330">
		<tag k="name" v="Staggonjunisjohka" />
		<tag k="name:se" v="Staggonjunisjohka" />
		<tag k="old_name:se" v="Staggunjunisjåkka" />
		<tag k="ssr:stedsnr" v="563437" />
		<tag k="waterway" v="stream" />
	</node>
	<node lat="68.66895000119248" lon="18.695630550081923" id="-99340">
		<tag k="name" v="Stormoelva" />
		<tag k="ssr:stedsnr" v="563478" />
		<tag k="waterway" v="stream" />
	</node>
	<node lat="68.8881527785811" lon="18.462949992414256" id="-99346">
		<tag k="name" v="Steinbekkvatnet" />
		<tag k="natural" v="water" />
		<tag k="ssr:stedsnr" v="563589" />
	</node>
	<node lat="68.88704444860586" lon="18.20425831915022" id="-99348">
		<tag k="alt_name" v="Lomtjørna" />
		<tag k="name" v="Lomtjønna" />
		<tag k="natural" v="water" />
		<tag k="ssr:stedsnr" v="563596" />
	</node>
	<node lat="68.8033472188762" lon="18.416250002297136" id="-99351">
		<tag k="fixme" v="multiple name tags, choose one and add the other to alt_name" />
		<tag k="name" v="Sandbergbekken;Nordre Sandbergbekken" />
		<tag k="ssr:stedsnr" v="563449" />
		<tag k="waterway" v="stream" />
	</node>
	<node lat="68.80285278144675" lon="18.38159721617286" id="-99352">
		<tag k="name" v="Skredbekken" />
		<tag k="ssr:stedsnr" v="563450" />
		<tag k="waterway" v="stream" />
	</node>
	<node lat="68.81358610983222" lon="18.45429999617392" id="-99353">
		<tag k="name" v="Vika" />
		<tag k="natural" v="bay" />
		<tag k="ssr:stedsnr" v="563454" />
	</node>
	<node lat="68.78696666297365" lon="18.187919431469997" id="-99359">
		<tag k="name" v="Nilsodden" />
		<tag k="natural" v="cape" />
		<tag k="ssr:stedsnr" v="563537" />
	</node>
	<node lat="68.91718611325528" lon="18.470261114668318" id="-99360">
		<tag k="alt_name:no" v="Tverrelva;Rønningtverrelva" />
		<tag k="name" v="Rydningstverrelva - Dildojohka" />
		<tag k="name:no" v="Rydningstverrelva" />
		<tag k="name:se" v="Dildojohka" />
		<tag k="old_name:se" v="Dildujåkka" />
		<tag k="ssr:stedsnr" v="563544" />
		<tag k="waterway" v="river" />
	</node>
	<node lat="68.87898055830665" lon="18.174191651522005" id="-99361">
		<tag k="name" v="Leirbekkvatnet" />
		<tag k="natural" v="water" />
		<tag k="ssr:stedsnr" v="563615" />
		<tag k="water" v="lake" />
	</node>
	<node lat="68.98313055666462" lon="18.439649995928995" id="-99365">
		<tag k="name" v="Storbekken" />
		<tag k="ssr:stedsnr" v="563640" />
		<tag k="waterway" v="stream" />
	</node>
	<node lat="68.93181388806433" lon="18.2259222148724" id="-99370">
		<tag k="name" v="Skofjellvatnan" />
		<tag k="natural" v="water" />
		<tag k="ssr:stedsnr" v="563707" />
	</node>
	<node lat="68.62250555939669" lon="19.12507499324193" id="-99373">
		<tag k="name" v="Sandodden" />
		<tag k="natural" v="cape" />
		<tag k="ssr:stedsnr" v="564453" />
	</node>
	<node lat="68.99068889218862" lon="18.56713332837607" id="-99384">
		<tag k="name" v="Tindlimyrbekken" />
		<tag k="ssr:stedsnr" v="596482" />
		<tag k="waterway" v="stream" />
	</node>
	<node lat="68.78816111360902" lon="18.100463876664218" id="-99387">
		<tag k="name" v="Hjertvatnet" />
		<tag k="natural" v="water" />
		<tag k="ssr:stedsnr" v="597346" />
	</node>
	<node lat="68.71294722266994" lon="18.1170277687017" id="-99392">
		<tag k="name" v="Storbekken" />
		<tag k="ssr:stedsnr" v="597455" />
		<tag k="waterway" v="stream" />
	</node>
	<node lat="68.88830277885336" lon="18.374652779962425" id="-99397">
		<tag k="name" v="Sennstranda" />
		<tag k="natural" v="beach" />
		<tag k="ssr:stedsnr" v="600096" />
	</node>
	<node lat="68.84743611450808" lon="18.42551389077649" id="-99398">
		<tag k="name" v="Langdalsbekken" />
		<tag k="ssr:stedsnr" v="600148" />
		<tag k="waterway" v="stream" />
	</node>
	<node lat="68.81827222028448" lon="18.45927221178832" id="-99400">
		<tag k="name" v="Kvisla" />
		<tag k="natural" v="bay" />
		<tag k="ssr:stedsnr" v="600008" />
	</node>
	<node lat="68.70718611190517" lon="18.55211389106471" id="-99424">
		<tag k="name" v="Åra" />
		<tag k="natural" v="bay" />
		<tag k="ssr:stedsnr" v="600434" />
	</node>
	<node lat="68.71070277356681" lon="18.562511112357512" id="-99425">
		<tag k="name" v="Springvassbekken" />
		<tag k="ssr:stedsnr" v="600435" />
		<tag k="waterway" v="stream" />
	</node>
	<node lat="69.00877499728257" lon="18.416761098622935" id="-99433">
		<tag k="name" v="Storbekken" />
		<tag k="ssr:stedsnr" v="600764" />
		<tag k="waterway" v="stream" />
	</node>
	<node lat="68.65194167039719" lon="18.158933333558636" id="-99439">
		<tag k="name" v="Tjønnan" />
		<tag k="natural" v="water" />
		<tag k="ssr:stedsnr" v="600976" />
		<tag k="water" v="lake" />
	</node>
	<node lat="68.64596944169429" lon="18.206019442409954" id="-99440">
		<tag k="name" v="Sæterloken" />
		<tag k="ssr:stedsnr" v="600978" />
		<tag k="waterway" v="stream" />
	</node>
	<node lat="68.95795555866621" lon="18.506288897083888" id="-99447">
		<tag k="name" v="Neverbekken" />
		<tag k="ssr:stedsnr" v="602172" />
		<tag k="waterway" v="stream" />
	</node>
	<node lat="68.82600833085063" lon="18.197249997938087" id="-99464">
		<tag k="name" v="Brennhaugvatnet" />
		<tag k="natural" v="water" />
		<tag k="ssr:stedsnr" v="602283" />
	</node>
	<node lat="68.82449722065168" lon="18.168416651889483" id="-99467">
		<tag k="name" v="Gammeljordbekken" />
		<tag k="ssr:stedsnr" v="602296" />
		<tag k="waterway" v="stream" />
	</node>
	<node lat="68.68091667049978" lon="18.552480557134654" id="-99469">
		<tag k="name" v="Neset" />
		<tag k="natural" v="cape" />
		<tag k="ssr:stedsnr" v="602394" />
	</node>
	<node lat="68.65601388630651" lon="18.828261102812416" id="-99470">
		<tag k="name" v="Anglarhølbekken" />
		<tag k="ssr:stedsnr" v="602580" />
		<tag k="waterway" v="stream" />
	</node>
	<node lat="68.654902778653" lon="18.850558332947138" id="-99471">
		<tag k="name" v="Skjellbekken" />
		<tag k="ssr:stedsnr" v="602583" />
		<tag k="waterway" v="stream" />
	</node>
	<node lat="68.6578916653836" lon="18.220230551776943" id="-99477">
		<tag k="name" v="Bertusbekken" />
		<tag k="ssr:stedsnr" v="615862" />
		<tag k="waterway" v="stream" />
	</node>
	<node lat="68.50095000008172" lon="20.1223916382265" id="-99480">
		<tag k="name" v="Stuora Gámasjávri" />
		<tag k="name:se" v="Stuora Gámasjávri" />
		<tag k="natural" v="water" />
		<tag k="old_name:se" v="Gámasjávvri, stuora" />
		<tag k="ssr:stedsnr" v="624067" />
		<tag k="water" v="lake" />
	</node>
	<node lat="68.47300000362759" lon="19.80401664764916" id="-99481">
		<tag k="name" v="Storbukta - Čoalmmoaiveluokta" />
		<tag k="name:no" v="Storbukta" />
		<tag k="name:se" v="Čoalmmoaiveluokta" />
		<tag k="natural" v="bay" />
		<tag k="ssr:stedsnr" v="624076" />
	</node>
	<node lat="68.48894999944986" lon="19.233444424735136" id="-99483">
		<tag k="name" v="Vuolit Ándarasjohka" />
		<tag k="name:se" v="Vuolit Ándarasjohka" />
		<tag k="old_name:se" v="Ándarasjohka, vuolit" />
		<tag k="ssr:stedsnr" v="624086" />
		<tag k="waterway" v="stream" />
	</node>
	<node lat="68.48514999711756" lon="19.338569424397676" id="-99484">
		<tag k="name" v="Jovnnetjohka" />
		<tag k="name:se" v="Jovnnetjohka" />
		<tag k="ssr:stedsnr" v="624088" />
		<tag k="waterway" v="stream" />
	</node>
	<node lat="68.4929805570997" lon="19.296824989865666" id="-99485">
		<tag k="name" v="Botnjejohka" />
		<tag k="name:se" v="Botnjejohka" />
		<tag k="ssr:stedsnr" v="624091" />
		<tag k="waterway" v="stream" />
	</node>
	<node lat="68.51867778211907" lon="19.78030276981074" id="-99486">
		<tag k="name" v="Politiodden" />
		<tag k="natural" v="cape" />
		<tag k="ssr:stedsnr" v="624123" />
	</node>
	<node lat="68.91852499615223" lon="18.397999989067607" id="-99487">
		<tag k="alt_name" v="Mo-tverrelva" />
		<tag k="name" v="Motverrelva" />
		<tag k="ssr:stedsnr" v="624562" />
		<tag k="waterway" v="river" />
	</node>
	<node lat="68.89558333280179" lon="18.199991653250052" id="-99488">
		<tag k="name" v="Holmen" />
		<tag k="place" v="islet" />
		<tag k="ssr:stedsnr" v="624572" />
	</node>
	<node lat="68.89545277490059" lon="18.300880545026548" id="-99489">
		<tag k="name" v="Åbekken" />
		<tag k="ssr:stedsnr" v="624575" />
		<tag k="waterway" v="stream" />
	</node>
	<node lat="68.89322500082861" lon="18.212855554235837" id="-99491">
		<tag k="name" v="Langvatnet" />
		<tag k="natural" v="water" />
		<tag k="ssr:stedsnr" v="624579" />
		<tag k="water" v="lake" />
	</node>
	<node lat="68.39118889254432" lon="19.95815832364864" id="-99493">
		<tag k="name" v="Muotkkejávrrážat" />
		<tag k="name:se" v="Muotkkejávrrážat" />
		<tag k="natural" v="water" />
		<tag k="ssr:stedsnr" v="624020" />
		<tag k="water" v="lake" />
	</node>
	<node lat="68.42647222346125" lon="19.86825277526044" id="-99495">
		<tag k="name" v="Máissa-bukta - Gaskorddaluokta" />
		<tag k="name:no" v="Máissa-bukta" />
		<tag k="name:se" v="Gaskorddaluokta" />
		<tag k="natural" v="bay" />
		<tag k="ssr:stedsnr" v="624040" />
	</node>
	<node lat="68.40294722482702" lon="19.97705831466236" id="-99496">
		<tag k="name" v="Máissajohka" />
		<tag k="name:se" v="Máissajohka" />
		<tag k="ssr:stedsnr" v="624041" />
		<tag k="waterway" v="river" />
	</node>
	<node lat="68.77046667118066" lon="18.820577763458193" id="-99497">
		<tag k="name" v="Skinskardtindvatnet" />
		<tag k="natural" v="water" />
		<tag k="ssr:stedsnr" v="624280" />
	</node>
	<node lat="68.51048888858148" lon="19.511127765973402" id="-99498">
		<tag k="name" v="Grytebekken" />
		<tag k="ssr:stedsnr" v="624125" />
		<tag k="waterway" v="stream" />
	</node>
	<node lat="68.79552500077743" lon="18.66043333961595" id="-99502">
		<tag k="alt_name" v="Stor-Tverrelva" />
		<tag k="name" v="Stortverrelva" />
		<tag k="ssr:stedsnr" v="624284" />
		<tag k="waterway" v="stream" />
	</node>
	<node lat="68.64193889203054" lon="18.13659166342068" id="-99506">
		<tag k="name" v="Grønfjellvatnet" />
		<tag k="natural" v="water" />
		<tag k="ssr:stedsnr" v="624301" />
		<tag k="water" v="lake" />
	</node>
	<node lat="68.69161111279105" lon="18.611649994868753" id="-99509">
		<tag k="name" v="Rundvatnet - Eatnannjoaskkejávrrážat" />
		<tag k="name:no" v="Rundvatnet" />
		<tag k="name:se" v="Eatnannjoaskkejávrrážat" />
		<tag k="natural" v="water" />
		<tag k="old_name:se" v="Ædnannjoaskejavražat" />
		<tag k="ssr:stedsnr" v="624379" />
	</node>
	<node lat="68.78123333632465" lon="18.505702762051996" id="-99514">
		<tag k="alt_name" v="Randtjørna" />
		<tag k="name" v="Rantjønna" />
		<tag k="natural" v="water" />
		<tag k="ssr:stedsnr" v="624473" />
	</node>
	<node lat="68.73724166956374" lon="18.881655547550256" id="-99516">
		<tag k="name" v="Kopparskardelva - Veaikejohka" />
		<tag k="name:no" v="Kopparskardelva" />
		<tag k="name:se" v="Veaikejohka" />
		<tag k="old_name:se" v="Væikejåkka" />
		<tag k="ssr:stedsnr" v="624486" />
		<tag k="waterway" v="river" />
	</node>
	<node lat="68.67962500505865" lon="18.770199987861986" id="-99520">
		<tag k="name" v="Grenan" />
		<tag k="ssr:stedsnr" v="624494" />
		<tag k="waterway" v="stream" />
	</node>
	<node lat="68.84248333603098" lon="18.379280559255687" id="-99525">
		<tag k="name" v="Lortvatnet" />
		<tag k="natural" v="water" />
		<tag k="ssr:stedsnr" v="624533" />
	</node>
	<node lat="68.8280333331213" lon="18.258697228312062" id="-99528">
		<tag k="name" v="Storbekken" />
		<tag k="ssr:stedsnr" v="624552" />
		<tag k="waterway" v="stream" />
	</node>
	<node lat="68.79232777812194" lon="18.10160555246254" id="-99544">
		<tag k="name" v="Rundvatnet" />
		<tag k="natural" v="water" />
		<tag k="ssr:stedsnr" v="658347" />
	</node>
	<node lat="68.87405833135952" lon="18.358327784633314" id="-99557">
		<tag k="name" v="Storloken" />
		<tag k="natural" v="water" />
		<tag k="ssr:stedsnr" v="661077" />
	</node>
	<node lat="68.70792777575929" lon="18.488922215834727" id="-99566">
		<tag k="name" v="Sæterbekken" />
		<tag k="ssr:stedsnr" v="661441" />
		<tag k="waterway" v="stream" />
	</node>
	<node lat="68.70450000433573" lon="18.5458055547223" id="-99568">
		<tag k="name" v="Holmen" />
		<tag k="natural" v="cape" />
		<tag k="ssr:stedsnr" v="661461" />
	</node>
	<node lat="68.78743889002645" lon="18.544549988216357" id="-99586">
		<tag k="name" v="Øykroken" />
		<tag k="natural" v="cape" />
		<tag k="ssr:stedsnr" v="663046" />
	</node>
	<node lat="68.81790833574216" lon="18.51238887807352" id="-99587">
		<tag k="name" v="Nybugrena" />
		<tag k="ssr:stedsnr" v="663145" />
		<tag k="waterway" v="stream" />
	</node>
	<node lat="68.8524694488651" lon="18.318544445204722" id="-99589">
		<tag k="alt_name" v="Mellaelva" />
		<tag k="name" v="Millaelva" />
		<tag k="ssr:stedsnr" v="663149" />
		<tag k="waterway" v="stream" />
	</node>
	<node lat="68.85299722655193" lon="18.31216665860052" id="-99602">
		<tag k="name" v="Jotjønna" />
		<tag k="natural" v="water" />
		<tag k="ssr:stedsnr" v="663359" />
	</node>
	<node lat="68.99480833163888" lon="18.340650001582432" id="-99610">
		<tag k="name" v="Kildebekken" />
		<tag k="ssr:stedsnr" v="663970" />
		<tag k="waterway" v="stream" />
	</node>
	<node lat="69.02271388611474" lon="18.49656388631082" id="-99613">
		<tag k="name" v="Hammerslettholmen" />
		<tag k="place" v="islet" />
		<tag k="ssr:stedsnr" v="718951" />
	</node>
	<node lat="68.77546111486797" lon="18.146191661569475" id="-99617">
		<tag k="name" v="Storbekken" />
		<tag k="ssr:stedsnr" v="719324" />
		<tag k="waterway" v="stream" />
	</node>
	<node lat="68.73434722609407" lon="18.114905559601414" id="-99618">
		<tag k="name" v="Fossbekken" />
		<tag k="ssr:stedsnr" v="719358" />
		<tag k="waterway" v="stream" />
	</node>
	<node lat="68.68134166579898" lon="18.126111115193638" id="-99619">
		<tag k="name" v="Holmen" />
		<tag k="place" v="islet" />
		<tag k="ssr:stedsnr" v="719399" />
	</node>
	<node lat="68.65901388883269" lon="18.18075832520065" id="-99623">
		<tag k="name" v="Bergeskjæret" />
		<tag k="place" v="islet" />
		<tag k="ssr:stedsnr" v="721927" />
	</node>
	<node lat="68.92252500323829" lon="18.44479166917784" id="-99627">
		<tag k="name" v="Lortbekken" />
		<tag k="ssr:stedsnr" v="722201" />
		<tag k="waterway" v="stream" />
	</node>
	<node lat="68.74226944099728" lon="18.630744438886595" id="-99635">
		<tag k="name" v="Tverrelvodden" />
		<tag k="natural" v="cape" />
		<tag k="ssr:stedsnr" v="722633" />
	</node>
	<node lat="68.67472500347567" lon="18.553494437104163" id="-99654">
		<tag k="name" v="Holmen" />
		<tag k="natural" v="cape" />
		<tag k="ssr:stedsnr" v="724360" />
	</node>
	<node lat="68.86563888731118" lon="18.25350000014777" id="-99660">
		<tag k="name" v="Rødvatnet" />
		<tag k="natural" v="water" />
		<tag k="ssr:stedsnr" v="733334" />
	</node>
	<node lat="68.38984166907046" lon="19.896152765198668" id="-99664">
		<tag k="name" v="Duopmassuolu" />
		<tag k="name:se" v="Duopmassuolu" />
		<tag k="place" v="islet" />
		<tag k="ssr:stedsnr" v="745020" />
	</node>
	<node lat="68.58256388843871" lon="19.339013889226063" id="-99667">
		<tag k="name" v="Lagerelva" />
		<tag k="ssr:stedsnr" v="745136" />
		<tag k="waterway" v="stream" />
	</node>
	<node lat="68.77127777964688" lon="18.146158321194104" id="-99669">
		<tag k="name" v="Kvernbekken" />
		<tag k="ssr:stedsnr" v="745441" />
		<tag k="waterway" v="stream" />
	</node>
	<node lat="68.58879166826947" lon="18.59899444731868" id="-99670">
		<tag k="name" v="Kjeleelva - Giebmejohka" />
		<tag k="name:no" v="Kjeleelva" />
		<tag k="name:se" v="Giebmejohka" />
		<tag k="old_name:se" v="Giebmejåkka" />
		<tag k="ssr:stedsnr" v="745288" />
		<tag k="waterway" v="stream" />
	</node>
	<node lat="68.55409444870152" lon="18.600449996976646" id="-99671">
		<tag k="name" v="Ruovdegorssajohka" />
		<tag k="name:se" v="Ruovdegorssajohka" />
		<tag k="old_name:se" v="Ruovdegårsajåkka" />
		<tag k="ssr:stedsnr" v="745296" />
		<tag k="waterway" v="stream" />
	</node>
	<node lat="68.76553333551209" lon="18.511783319455724" id="-99677">
		<tag k="name" v="Klyvimyrbekken" />
		<tag k="ssr:stedsnr" v="745445" />
		<tag k="waterway" v="stream" />
	</node>
	<node lat="68.48054722496438" lon="19.40347498363225" id="-99681">
		<tag k="name" v="Jovnnetjohka" />
		<tag k="name:se" v="Jovnnetjohka" />
		<tag k="ssr:stedsnr" v="745456" />
		<tag k="waterway" v="stream" />
	</node>
	<node lat="68.78676666398245" lon="18.479469440607005" id="-99682">
		<tag k="alt_name" v="Fjelltjørna" />
		<tag k="name" v="Fjelltjønna" />
		<tag k="natural" v="water" />
		<tag k="ssr:stedsnr" v="745457" />
	</node>
	<node lat="68.97003888951892" lon="18.302597219138953" id="-99684">
		<tag k="name" v="Kampbekken" />
		<tag k="ssr:stedsnr" v="745658" />
		<tag k="waterway" v="stream" />
	</node>
	<node lat="68.48606388506214" lon="19.68020553979407" id="-99687">
		<tag k="name" v="Ostu" />
		<tag k="name:se" v="Ostu" />
		<tag k="natural" v="cape" />
		<tag k="ssr:stedsnr" v="746067" />
	</node>
	<node lat="68.44399999945912" lon="19.801805552662426" id="-99688">
		<tag k="name" v="Bahta" />
		<tag k="name:se" v="Bahta" />
		<tag k="natural" v="bay" />
		<tag k="ssr:stedsnr" v="746124" />
	</node>
	<node lat="68.78978333437982" lon="18.677644439439206" id="-99691">
		<tag k="name" v="Lappskardtindtjønna" />
		<tag k="natural" v="water" />
		<tag k="ssr:stedsnr" v="746270" />
	</node>
	<node lat="68.8154861101635" lon="18.53438889182085" id="-99694">
		<tag k="name" v="Tverrelva - Ristajohka" />
		<tag k="name:no" v="Tverrelva" />
		<tag k="name:se" v="Ristajohka" />
		<tag k="ssr:stedsnr" v="746256" />
		<tag k="waterway" v="river" />
	</node>
	<node lat="68.90697500266337" lon="18.219788881216694" id="-99696">
		<tag k="name" v="Ortelva - Orddajohka" />
		<tag k="name:no" v="Ortelva" />
		<tag k="name:se" v="Orddajohka" />
		<tag k="old_name:se" v="Årdajåkka" />
		<tag k="ssr:stedsnr" v="746587" />
		<tag k="waterway" v="stream" />
	</node>
	<node lat="68.71617499679041" lon="18.631175002938054" id="-99698">
		<tag k="name" v="Nybekken" />
		<tag k="ssr:stedsnr" v="746484" />
		<tag k="waterway" v="stream" />
	</node>
	<node lat="68.67078055545836" lon="18.76764443635481" id="-99699">
		<tag k="loc_name:se" v="Bažejávri" />
		<tag k="name" v="Veslvatnet" />
		<tag k="name:no" v="Veslvatnet" />
		<tag k="natural" v="water" />
		<tag k="ssr:stedsnr" v="746491" />
		<tag k="water" v="lake" />
	</node>
	<node lat="68.85133333365926" lon="18.331505544644855" id="-99705">
		<tag k="alt_name" v="Sætervatnet, nedre" />
		<tag k="fixme" v="multiple name tags, choose one and add the other to alt_name" />
		<tag k="name" v="Toftakervatnet;Nedre Sætervatnet" />
		<tag k="natural" v="water" />
		<tag k="ssr:stedsnr" v="746523" />
		<tag k="water" v="lake" />
	</node>
	<node lat="69.00054166660297" lon="18.370163872814494" id="-99707">
		<tag k="alt_name" v="Øverlivatnet" />
		<tag k="name" v="Øverlitjønna" />
		<tag k="natural" v="water" />
		<tag k="ssr:stedsnr" v="746884" />
	</node>
	<node lat="68.84147499966446" lon="18.190772214041157" id="-99709">
		<tag k="alt_name" v="Kvannskarvatnet" />
		<tag k="name" v="Kvannskardvatnet" />
		<tag k="natural" v="water" />
		<tag k="ssr:stedsnr" v="746546" />
	</node>
	<node lat="68.73388611176948" lon="18.338688888873182" id="-99713">
		<tag k="name" v="Isvatnet" />
		<tag k="natural" v="water" />
		<tag k="ssr:stedsnr" v="746641" />
		<tag k="water" v="lake" />
	</node>
	<node lat="68.85452222579238" lon="18.09543887593321" id="-99724">
		<tag k="name" v="Odden" />
		<tag k="natural" v="cape" />
		<tag k="ssr:stedsnr" v="780166" />
	</node>
	<node lat="68.94572222203438" lon="18.46992499982713" id="-99739">
		<tag k="name" v="Veslkvisla" />
		<tag k="ssr:stedsnr" v="782774" />
		<tag k="waterway" v="stream" />
	</node>
	<node lat="69.014302777846" lon="18.47271109983261" id="-99740">
		<tag k="name" v="Kalbekken" />
		<tag k="ssr:stedsnr" v="782731" />
		<tag k="waterway" v="stream" />
	</node>
	<node lat="68.66967222657328" lon="18.15744443398376" id="-99741">
		<tag k="name" v="Odden" />
		<tag k="natural" v="cape" />
		<tag k="ssr:stedsnr" v="782909" />
	</node>
	<node lat="68.79097222477651" lon="18.1961388910143" id="-99750">
		<tag k="name" v="Bjønnbekken" />
		<tag k="ssr:stedsnr" v="783546" />
		<tag k="waterway" v="stream" />
	</node>
	<node lat="68.77055277647888" lon="18.15162498589261" id="-99751">
		<tag k="name" v="Kvennbekken" />
		<tag k="ssr:stedsnr" v="783549" />
		<tag k="waterway" v="stream" />
	</node>
	<node lat="69.02471666239205" lon="18.449419441700776" id="-99752">
		<tag k="name" v="Storhaugbekken" />
		<tag k="ssr:stedsnr" v="783580" />
		<tag k="waterway" v="stream" />
	</node>
	<node lat="68.93296666789068" lon="18.500819433541093" id="-99754">
		<tag k="name" v="Sørste stebekk" />
		<tag k="ssr:stedsnr" v="783959" />
		<tag k="waterway" v="stream" />
	</node>
	<node lat="68.6367388852283" lon="18.248974999287157" id="-99755">
		<tag k="name" v="Klettbekken" />
		<tag k="ssr:stedsnr" v="783926" />
		<tag k="waterway" v="stream" />
	</node>
	<node lat="68.63832777745351" lon="18.26224721982171" id="-99756">
		<tag k="name" v="Sætermobekken" />
		<tag k="ssr:stedsnr" v="783927" />
		<tag k="waterway" v="stream" />
	</node>
	<node lat="68.67597777875844" lon="18.749738872727434" id="-99762">
		<tag k="name" v="Vassenden" />
		<tag k="natural" v="bay" />
		<tag k="ssr:stedsnr" v="784941" />
	</node>
	<node lat="68.83025555264406" lon="18.23858331713891" id="-99769">
		<tag k="name" v="Lianloken" />
		<tag k="natural" v="water" />
		<tag k="ssr:stedsnr" v="785238" />
	</node>
	<node lat="68.77058611454032" lon="18.55380833438578" id="-99776">
		<tag k="name" v="Øylundøya" />
		<tag k="place" v="islet" />
		<tag k="ssr:stedsnr" v="785192" />
	</node>
	<node lat="68.66608888622693" lon="18.79381666321248" id="-99779">
		<tag k="name" v="Bjønntrøa" />
		<tag k="natural" v="cape" />
		<tag k="ssr:stedsnr" v="785540" />
	</node>
	<node lat="68.7140305546561" lon="18.64113055679661" id="-99781">
		<tag k="name" v="Storbekken" />
		<tag k="ssr:stedsnr" v="806173" />
		<tag k="waterway" v="stream" />
	</node>
	<node lat="68.38836944450567" lon="19.921769428951503" id="-99783">
		<tag k="name" v="Tomasodden - Duopmasnjárga" />
		<tag k="name:no" v="Tomasodden" />
		<tag k="name:se" v="Duopmasnjárga" />
		<tag k="natural" v="cape" />
		<tag k="ssr:stedsnr" v="806023" />
	</node>
	<node lat="68.52499999864284" lon="19.296333326768696" id="-99785">
		<tag k="name" v="Lulit Hávgajávri" />
		<tag k="name:se" v="Lulit Hávgajávri" />
		<tag k="natural" v="water" />
		<tag k="old_name:se" v="Hávgajávri, lulit;Hávgajávri" />
		<tag k="ssr:stedsnr" v="806106" />
		<tag k="water" v="lake" />
	</node>
	<node lat="68.47438889268923" lon="20.099283316247078" id="-99787">
		<tag k="name" v="Stuora Gámasjávri" />
		<tag k="name:se" v="Stuora Gámasjávri" />
		<tag k="natural" v="water" />
		<tag k="old_name:se" v="Gámasjávri, stuora" />
		<tag k="ssr:stedsnr" v="806091" />
		<tag k="water" v="lake" />
	</node>
	<node lat="68.95726110890432" lon="18.45767220991164" id="-99788">
		<tag k="name" v="Strandbekken" />
		<tag k="ssr:stedsnr" v="806680" />
		<tag k="waterway" v="stream" />
	</node>
	<node lat="68.69084722583871" lon="18.528602781517026" id="-99793">
		<tag k="alt_name" v="Storskredbekken" />
		<tag k="name" v="Storeskredbekken" />
		<tag k="ssr:stedsnr" v="806367" />
		<tag k="waterway" v="stream" />
	</node>
	<node lat="68.66619158947483" lon="19.424718620606065" id="-99794">
		<tag k="name" v="Vuolimus Gaibajávrrážat" />
		<tag k="name:se" v="Vuolimus Gaibajávrrážat" />
		<tag k="natural" v="water" />
		<tag k="old_name:se" v="Gaibajávrrážat, vuolimus" />
		<tag k="ssr:stedsnr" v="806371" />
		<tag k="water" v="lake" />
	</node>
	<node lat="68.52984444151001" lon="18.94444999748257" id="-99795">
		<tag k="name" v="Skadjoaijávri" />
		<tag k="name:se" v="Skadjoaijávri" />
		<tag k="natural" v="water" />
		<tag k="old_name:se" v="Skaddjoaijavri" />
		<tag k="ssr:stedsnr" v="806397" />
		<tag k="water" v="lake" />
	</node>
	<node lat="68.75967499688677" lon="18.130983337267335" id="-99801">
		<tag k="name" v="Storbekken" />
		<tag k="ssr:stedsnr" v="806434" />
		<tag k="waterway" v="stream" />
	</node>
	<node lat="68.64413333089689" lon="19.327936100557086" id="-99803">
		<tag k="name" v="Bajimus Guolášjávri" />
		<tag k="name:se" v="Bajimus Guolášjávri" />
		<tag k="natural" v="water" />
		<tag k="old_name:se" v="Guolášjávri, bajimus" />
		<tag k="ssr:stedsnr" v="806388" />
		<tag k="water" v="lake" />
	</node>
	<node lat="68.80021666602941" lon="18.499319443858592" id="-99805">
		<tag k="name" v="Sundkvisla" />
		<tag k="ssr:stedsnr" v="806461" />
		<tag k="waterway" v="stream" />
	</node>
	<node lat="68.85406944499528" lon="18.09418054568927" id="-99808">
		<tag k="name" v="Kistefossen" />
		<tag k="natural" v="waterfall" />
		<tag k="ssr:stedsnr" v="806488" />
	</node>
	<node lat="68.87392499810264" lon="18.390363891854413" id="-99809">
		<tag k="name" v="Skredbekken" />
		<tag k="ssr:stedsnr" v="806498" />
		<tag k="waterway" v="stream" />
	</node>
	<node lat="68.98432500146357" lon="18.298255561710327" id="-99815">
		<tag k="alt_name:no" v="Hjerttind-tverrelva" />
		<tag k="name" v="Hjerttindelva - Basejohka" />
		<tag k="name:no" v="Hjerttindelva" />
		<tag k="name:se" v="Basejohka" />
		<tag k="old_name:se" v="Basejåkka" />
		<tag k="ssr:stedsnr" v="806641" />
		<tag k="waterway" v="river" />
	</node>
	<node lat="68.52415555602676" lon="19.832949975432715" id="-99817">
		<tag k="name" v="Suttesgáldojohka" />
		<tag k="name:se" v="Suttesgáldojohka" />
		<tag k="ssr:stedsnr" v="807048" />
		<tag k="waterway" v="river" />
	</node>
	<node lat="68.50869999947736" lon="19.499858325778828" id="-99819">
		<tag k="name" v="Grytevatnet" />
		<tag k="natural" v="water" />
		<tag k="ssr:stedsnr" v="807119" />
	</node>
	<node lat="68.68356388572981" lon="18.590875005520022" id="-99822">
		<tag k="alt_name" v="Basstubekken" />
		<tag k="name" v="Badstubekken" />
		<tag k="ssr:stedsnr" v="807309" />
		<tag k="waterway" v="stream" />
	</node>
	<node lat="68.67485278136739" lon="18.56860833825477" id="-99824">
		<tag k="name" v="Holmen" />
		<tag k="place" v="islet" />
		<tag k="ssr:stedsnr" v="807318" />
	</node>
	<node lat="68.66917778226062" lon="18.58953332935695" id="-99825">
		<tag k="name" v="Ruinbekken" />
		<tag k="ssr:stedsnr" v="807319" />
		<tag k="waterway" v="stream" />
	</node>
	<node lat="68.67331667006557" lon="18.60016111516351" id="-99826">
		<tag k="name" v="Skredbekkvatnet" />
		<tag k="natural" v="water" />
		<tag k="ssr:stedsnr" v="807322" />
	</node>
	<node lat="68.8239555536438" lon="18.673994436492258" id="-99830">
		<tag k="name" v="Malmelva" />
		<tag k="ssr:stedsnr" v="807281" />
		<tag k="waterway" v="river" />
	</node>
	<node lat="68.6352749981825" lon="18.192480554327318" id="-99832">
		<tag k="name" v="Grønfjellbekken" />
		<tag k="ssr:stedsnr" v="807288" />
		<tag k="waterway" v="stream" />
	</node>
	<node lat="68.6424250037772" lon="19.085919445007928" id="-99833">
		<tag k="alt_name:no" v="Altevatn" />
		<tag k="name" v="Altevatnet - Álddesjávri" />
		<tag k="name:no" v="Altevatnet" />
		<tag k="name:se" v="Álddesjávri" />
		<tag k="natural" v="water" />
		<tag k="old_name:se" v="Aldesjavri;Álttesjávri" />
		<tag k="ssr:stedsnr" v="807437" />
		<tag k="water" v="lake" />
	</node>
	<node lat="68.74903611135224" lon="18.041155539952893" id="-99838">
		<tag k="alt_name" v="Tverrelva, nordre" />
		<tag k="name" v="Nordre Tverrelva" />
		<tag k="ssr:stedsnr" v="807621" />
		<tag k="waterway" v="river" />
	</node>
	<node lat="68.74210277690052" lon="18.544374998234392" id="-99841">
		<tag k="name" v="Skredtjørna" />
		<tag k="natural" v="water" />
		<tag k="ssr:stedsnr" v="807656" />
	</node>
	<node lat="68.7336833304757" lon="18.161938879217754" id="-99842">
		<tag k="name" v="Innerbekkvatnet" />
		<tag k="natural" v="water" />
		<tag k="ssr:stedsnr" v="807660" />
	</node>
	<node lat="68.73048611049539" lon="18.180369433583195" id="-99843">
		<tag k="alt_name" v="Slettbakkvatna, nedre" />
		<tag k="name" v="Nedre Slettbakkvatna" />
		<tag k="natural" v="water" />
		<tag k="ssr:stedsnr" v="807662" />
		<tag k="water" v="lake" />
	</node>
	<node lat="68.72703611312225" lon="18.19806389358519" id="-99844">
		<tag k="alt_name" v="Slettbakkvatna, øvre" />
		<tag k="name" v="Øvre Slettbakkvatna" />
		<tag k="natural" v="water" />
		<tag k="ssr:stedsnr" v="807665" />
		<tag k="water" v="lake" />
	</node>
	<node lat="69.04595277840293" lon="18.529641664156596" id="-99852">
		<tag k="name" v="Amundvatnet" />
		<tag k="natural" v="water" />
		<tag k="ssr:stedsnr" v="840967" />
	</node>
	<node lat="68.91310833305066" lon="18.450141662751424" id="-99859">
		<tag k="name" v="Gråhøgdbekken" />
		<tag k="ssr:stedsnr" v="843168" />
		<tag k="waterway" v="stream" />
	</node>
	<node lat="68.83740000101722" lon="18.177924996913514" id="-99865">
		<tag k="name" v="Kvennbekken" />
		<tag k="ssr:stedsnr" v="843598" />
		<tag k="waterway" v="stream" />
	</node>
	<node lat="69.00925833230937" lon="18.449097204888407" id="-99867">
		<tag k="name" v="Kilda" />
		<tag k="natural" v="spring" />
		<tag k="ssr:stedsnr" v="843784" />
	</node>
	<node lat="68.99748055277796" lon="18.441666666235605" id="-99869">
		<tag k="name" v="Veslfossen" />
		<tag k="natural" v="waterfall" />
		<tag k="ssr:stedsnr" v="843791" />
	</node>
	<node lat="69.02189999905573" lon="18.446144448860174" id="-99871">
		<tag k="name" v="Purktjønna" />
		<tag k="natural" v="water" />
		<tag k="ssr:stedsnr" v="844589" />
	</node>
	<node lat="68.73900555604484" lon="18.640013891946637" id="-99879">
		<tag k="name" v="Stygghølet" />
		<tag k="place" v="locality" />
		<tag k="ssr:stedsnr" v="844646" />
	</node>
	<node lat="68.66937500198841" lon="18.168011095915194" id="-99880">
		<tag k="name" v="Djupdalsbekken" />
		<tag k="ssr:stedsnr" v="844926" />
		<tag k="waterway" v="stream" />
	</node>
	<node lat="68.67565000182057" lon="18.738133333114742" id="-99887">
		<tag k="name" v="Øa" />
		<tag k="natural" v="bay" />
		<tag k="ssr:stedsnr" v="845942" />
	</node>
	<node lat="68.9911638883272" lon="18.42944167211421" id="-99891">
		<tag k="name" v="Kløftfossen" />
		<tag k="natural" v="waterfall" />
		<tag k="ssr:stedsnr" v="845999" />
	</node>
	<node lat="68.73389722402004" lon="18.521188872156152" id="-99896">
		<tag k="name" v="Hølbekken" />
		<tag k="ssr:stedsnr" v="846100" />
		<tag k="waterway" v="stream" />
	</node>
	<node lat="68.8628027804603" lon="18.36183333136434" id="-99897">
		<tag k="name" v="Neset" />
		<tag k="natural" v="cape" />
		<tag k="ssr:stedsnr" v="846119" />
	</node>
	<node lat="68.76350555403795" lon="18.56883053982975" id="-99901">
		<tag k="name" v="Grindgången" />
		<tag k="natural" v="cape" />
		<tag k="ssr:stedsnr" v="846173" />
	</node>
	<node lat="68.81303611294497" lon="18.161588884437794" id="-99905">
		<tag k="name" v="Gjerdebekken" />
		<tag k="ssr:stedsnr" v="846263" />
		<tag k="waterway" v="stream" />
	</node>
	<node lat="68.81521388689589" lon="18.165158337629514" id="-99906">
		<tag k="name" v="Fremste bekken" />
		<tag k="ssr:stedsnr" v="846264" />
		<tag k="waterway" v="stream" />
	</node>
	<node lat="68.85065833155201" lon="18.307900004597997" id="-99909">
		<tag k="name" v="Olatjønna" />
		<tag k="natural" v="water" />
		<tag k="ssr:stedsnr" v="846342" />
	</node>
	<node lat="68.67043055298686" lon="18.86458333195981" id="-99914">
		<tag k="name" v="Vesl-Tverrelva" />
		<tag k="ssr:stedsnr" v="846533" />
		<tag k="waterway" v="stream" />
	</node>
	<node lat="68.67505833526047" lon="18.776436104324503" id="-99915">
		<tag k="name" v="Bjønnbåsbekken" />
		<tag k="ssr:stedsnr" v="846556" />
		<tag k="waterway" v="stream" />
	</node>
	<node lat="68.65756944052482" lon="18.19212777566128" id="-99917">
		<tag k="name" v="Martafossen" />
		<tag k="natural" v="waterfall" />
		<tag k="ssr:stedsnr" v="858883" />
	</node>
	<node lat="68.4018972251809" lon="19.858563877356914" id="-99920">
		<tag k="name" v="Ávženjárga" />
		<tag k="name:se" v="Ávženjárga" />
		<tag k="natural" v="cape" />
		<tag k="ssr:stedsnr" v="867038" />
	</node>
	<node lat="68.68399444079103" lon="18.52954443144386" id="-99923">
		<tag k="name" v="Sagbekken" />
		<tag k="ssr:stedsnr" v="867340" />
		<tag k="waterway" v="stream" />
	</node>
	<node lat="68.68091388523214" lon="18.59792221101463" id="-99925">
		<tag k="name" v="Øybekken" />
		<tag k="ssr:stedsnr" v="867352" />
		<tag k="waterway" v="stream" />
	</node>
	<node lat="68.50548888591149" lon="19.82187775142472" id="-99926">
		<tag k="name" v="Gámasjohka" />
		<tag k="name:se" v="Gámasjohka" />
		<tag k="ssr:stedsnr" v="867129" />
		<tag k="waterway" v="river" />
	</node>
	<node lat="68.43125555989596" lon="19.77578055284889" id="-99927">
		<tag k="name" v="Vuolit Gulmmajávri" />
		<tag k="name:se" v="Vuolit Gulmmajávri" />
		<tag k="natural" v="water" />
		<tag k="old_name:se" v="Gulmmajávri, vuolit" />
		<tag k="ssr:stedsnr" v="867135" />
		<tag k="water" v="lake" />
	</node>
	<node lat="68.432461107961" lon="19.734599994247006" id="-99929">
		<tag k="name" v="Geavdnjajohka" />
		<tag k="name:se" v="Geavdnjajohka" />
		<tag k="ssr:stedsnr" v="867146" />
		<tag k="waterway" v="river" />
	</node>
	<node lat="68.43850000366231" lon="19.549513868506992" id="-99930">
		<tag k="name" v="Alddasjohka" />
		<tag k="name:se" v="Alddasjohka" />
		<tag k="ssr:stedsnr" v="867151" />
		<tag k="waterway" v="stream" />
	</node>
	<node lat="68.51224444304043" lon="19.762024989512824" id="-99932">
		<tag k="name" v="Langbukta - Gáicaluokta" />
		<tag k="name:no" v="Langbukta" />
		<tag k="name:se" v="Gáicaluokta" />
		<tag k="natural" v="bay" />
		<tag k="ssr:stedsnr" v="867125" />
	</node>
	<node lat="68.48694721976733" lon="20.16291664480912" id="-99933">
		<tag k="name" v="Silbajávri" />
		<tag k="name:se" v="Silbajávri" />
		<tag k="natural" v="water" />
		<tag k="ssr:stedsnr" v="867126" />
	</node>
	<node lat="68.59888889058365" lon="18.06265000336047" id="-99934">
		<tag k="name" v="Ruksesjohka" />
		<tag k="name:se" v="Ruksesjohka" />
		<tag k="old_name:se" v="Ruksesjåkka" />
		<tag k="ssr:stedsnr" v="867292" />
		<tag k="waterway" v="river" />
	</node>
	<node lat="68.73808888857974" lon="18.745888889440536" id="-99939">
		<tag k="alt_name" v="Vasskardvatnet, nedre" />
		<tag k="name" v="Nedre Vasskardvatnet" />
		<tag k="natural" v="water" />
		<tag k="ssr:stedsnr" v="867320" />
		<tag k="water" v="lake" />
	</node>
	<node lat="68.76284444545297" lon="18.5975611053714" id="-99945">
		<tag k="name" v="Strømsmobekken" />
		<tag k="ssr:stedsnr" v="867460" />
		<tag k="waterway" v="stream" />
	</node>
	<node lat="68.79199999777993" lon="18.443450001392176" id="-99946">
		<tag k="name" v="Trolldalsbekken" />
		<tag k="ssr:stedsnr" v="867467" />
		<tag k="waterway" v="stream" />
	</node>
	<node lat="68.82373611232056" lon="18.57883610098021" id="-99949">
		<tag k="alt_name" v="Storbekken, fremre" />
		<tag k="fixme" v="multiple name tags, choose one and add the other to alt_name" />
		<tag k="name" v="Storbekken;Fremre Storbekken" />
		<tag k="ssr:stedsnr" v="867486" />
		<tag k="waterway" v="stream" />
	</node>
	<node lat="68.67222777798979" lon="18.99673610212407" id="-99953">
		<tag k="name" v="Livatnet - Luotnajávri" />
		<tag k="name:no" v="Livatnet" />
		<tag k="name:se" v="Luotnajávri" />
		<tag k="natural" v="bay" />
		<tag k="old_name:se" v="Luodnajavri" />
		<tag k="ssr:stedsnr" v="867505" />
	</node>
	<node lat="68.71253888484762" lon="18.56836388070572" id="-99957">
		<tag k="name" v="Storbekken" />
		<tag k="ssr:stedsnr" v="867366" />
		<tag k="waterway" v="stream" />
	</node>
	<node lat="68.85685277997023" lon="18.307497222744214" id="-99958">
		<tag k="alt_name" v="Sætervatnet, øvre" />
		<tag k="fixme" v="multiple name tags, choose one and add the other to alt_name" />
		<tag k="name" v="Sætervatnet;Øvre Sætervatnet" />
		<tag k="natural" v="water" />
		<tag k="ssr:stedsnr" v="867536" />
		<tag k="water" v="lake" />
	</node>
	<node lat="68.82785000272489" lon="18.335722228241124" id="-99961">
		<tag k="name" v="Langvatnet" />
		<tag k="natural" v="water" />
		<tag k="ssr:stedsnr" v="867559" />
	</node>
	<node lat="68.92629444465123" lon="18.489405555541307" id="-99965">
		<tag k="alt_name" v="Seterbekken" />
		<tag k="name" v="Sæterbekken" />
		<tag k="ssr:stedsnr" v="867589" />
		<tag k="waterway" v="stream" />
	</node>
	<node lat="68.75313611111734" lon="18.101705540093576" id="-99971">
		<tag k="name" v="Brattlibekken" />
		<tag k="ssr:stedsnr" v="867643" />
		<tag k="waterway" v="stream" />
	</node>
	<node lat="68.98690000069857" lon="18.36604722177847" id="-99972">
		<tag k="name" v="Fiskbekken" />
		<tag k="ssr:stedsnr" v="867645" />
		<tag k="waterway" v="stream" />
	</node>
	<node lat="68.98961666322201" lon="18.32604999628631" id="-99973">
		<tag k="name" v="Fossmotverrelva" />
		<tag k="ssr:stedsnr" v="867649" />
		<tag k="waterway" v="stream" />
	</node>
	<node lat="68.95764444109159" lon="18.44251943526678" id="-99976">
		<tag k="alt_name" v="Strøndbekktjønna" />
		<tag k="name" v="Strandbekktjørnan" />
		<tag k="natural" v="water" />
		<tag k="ssr:stedsnr" v="867670" />
		<tag k="water" v="lake" />
	</node>
	<node lat="68.64533333572895" lon="18.79598054020635" id="-99981">
		<tag k="name" v="Sæterbekken" />
		<tag k="ssr:stedsnr" v="868443" />
		<tag k="waterway" v="stream" />
	</node>
	<node lat="68.73478611403148" lon="18.566655547818172" id="-99983">
		<tag k="name" v="Rubbekken" />
		<tag k="ssr:stedsnr" v="868632" />
		<tag k="waterway" v="stream" />
	</node>
	<node lat="69.04161388490165" lon="18.40378333195737" id="-99985">
		<tag k="name" v="Rundvatnet" />
		<tag k="natural" v="water" />
		<tag k="ssr:stedsnr" v="868838" />
	</node>
	<node lat="69.03420000191655" lon="18.573741661591082" id="-99986">
		<tag k="alt_name" v="Reismålsvatnet" />
		<tag k="name" v="Resmålsvatnet" />
		<tag k="natural" v="water" />
		<tag k="ssr:stedsnr" v="868856" />
	</node>
	<node lat="68.4180416662462" lon="19.846841660737006" id="-99989">
		<tag k="name" v="Lulit Lenesjávri" />
		<tag k="name:se" v="Lulit Lenesjávri" />
		<tag k="natural" v="water" />
		<tag k="old_name:se" v="Lenesjávri, lulit" />
		<tag k="ssr:stedsnr" v="956754" />
		<tag k="water" v="lake" />
	</node>
	<node lat="68.70592499821792" lon="18.103313892787384" id="-100000">
		<tag k="name" v="Hesthølet" />
		<tag k="place" v="locality" />
		<tag k="ssr:stedsnr" v="962443" />
	</node>
	<node lat="68.72481111283196" lon="18.07505556367619" id="-100002">
		<tag k="name" v="Klokka-trebekken" />
		<tag k="ssr:stedsnr" v="962362" />
		<tag k="waterway" v="stream" />
	</node>
	<node lat="68.74745000345148" lon="18.120952765261677" id="-100003">
		<tag k="name" v="Leira" />
		<tag k="natural" v="beach" />
		<tag k="ssr:stedsnr" v="962411" />
	</node>
	<node lat="68.69204444317035" lon="18.08586111485624" id="-100004">
		<tag k="name" v="Fossen" />
		<tag k="natural" v="waterfall" />
		<tag k="ssr:stedsnr" v="962453" />
	</node>
	<node lat="68.85363611185562" lon="18.411744428159356" id="-100007">
		<tag k="name" v="Storbekken" />
		<tag k="ssr:stedsnr" v="964167" />
		<tag k="waterway" v="stream" />
	</node>
	<node lat="68.91697777398758" lon="18.42578888688452" id="-100009">
		<tag k="name" v="Storbekken" />
		<tag k="ssr:stedsnr" v="964191" />
		<tag k="waterway" v="stream" />
	</node>
	<node lat="68.91653333327099" lon="18.401736116603292" id="-100010">
		<tag k="name" v="Grena" />
		<tag k="place" v="islet" />
		<tag k="ssr:stedsnr" v="964192" />
	</node>
	<node lat="68.83306388463443" lon="18.170180556801885" id="-100020">
		<tag k="name" v="Veslfossen" />
		<tag k="natural" v="waterfall" />
		<tag k="ssr:stedsnr" v="964564" />
	</node>
	<node lat="68.86612777800296" lon="18.381855555969025" id="-100040">
		<tag k="name" v="Bergslettjønna" />
		<tag k="natural" v="water" />
		<tag k="ssr:stedsnr" v="967118" />
	</node>
	<node lat="68.85264722596128" lon="18.323594436404786" id="-100047">
		<tag k="name" v="Gabrielsenodden" />
		<tag k="natural" v="cape" />
		<tag k="ssr:stedsnr" v="967130" />
	</node>
	<node lat="68.82361388588889" lon="18.181786115682677" id="-100053">
		<tag k="name" v="Kobbebekken" />
		<tag k="ssr:stedsnr" v="967224" />
		<tag k="waterway" v="stream" />
	</node>
	<node lat="68.85820278153899" lon="18.269363876326683" id="-100054">
		<tag k="name" v="Anders-sæterbekken" />
		<tag k="ssr:stedsnr" v="967331" />
		<tag k="waterway" v="stream" />
	</node>
	<node lat="68.6594209516421" lon="18.926609855833533" id="-100198">
		<tag k="name" v="Luspi" />
		<tag k="name:se" v="Luspi" />
		<tag k="natural" v="bay" />
		<tag k="ssr:stedsnr" v="1080443" />
	</node>
	<node lat="68.79738279095817" lon="18.788602617111824" id="-100204">
		<tag k="name" v="Isovákkijohka" />
		<tag k="name:se" v="Isovákkijohka" />
		<tag k="ssr:stedsnr" v="1080454" />
		<tag k="waterway" v="river" />
	</node>
	<node lat="68.85198009958197" lon="18.701472984280777" id="-100207">
		<tag k="name" v="Njirppijohka" />
		<tag k="name:se" v="Njirppijohka" />
		<tag k="ssr:stedsnr" v="1080464" />
		<tag k="waterway" v="stream" />
	</node>
	<node lat="68.85662772633303" lon="18.313080720843217" id="-100210">
		<tag k="name" v="Seahtarjávrrik" />
		<tag k="name:se" v="Seahtarjávrrik" />
		<tag k="natural" v="water" />
		<tag k="ssr:stedsnr" v="1080481" />
		<tag k="water" v="lake" />
	</node>
	<node lat="68.67644099959584" lon="18.736717984245004" id="-100220">
		<tag k="name" v="Álddesjohka" />
		<tag k="name:se" v="Álddesjohka" />
		<tag k="ssr:stedsnr" v="1081402" />
		<tag k="waterway" v="river" />
	</node>
	<node lat="68.77264799709017" lon="18.54994100017292" id="-100221">
		<tag k="name" v="Beardoeatnu" />
		<tag k="name:se" v="Beardoeatnu" />
		<tag k="ssr:stedsnr" v="1081405" />
		<tag k="waterway" v="river" />
	</node>
</osm>
