<?xml version="1.0" encoding="UTF-8"?>
<osm generator="osmapis" version="0.6">
	<node id="-843768" lat="68.7469222208" lon="18.5366638775">
		<tag k="name" v="Skredland" />
		<tag k="place" v="isolated_dwelling" />
		<tag k="ssr:stedsnr" v="139621" />
	</node>
	<node id="-843766" lat="68.9077277808" lon="18.4094083342">
		<tag k="name" v="Ala" />
		<tag k="place" v="isolated_dwelling" />
		<tag k="ssr:stedsnr" v="139584" />
	</node>
	<node id="-843764" lat="68.8286222246" lon="18.1757611068">
		<tag k="alt_name" v="Brandvoll, s" />
		<tag k="fixme" v="multiple name tags, choose one and add the other to alt_name" />
		<tag k="name" v="Brandvoll;Søndre Brandvoll" />
		<tag k="place" v="farm" />
		<tag k="ssr:stedsnr" v="139567" />
	</node>
	<node id="-843762" lat="68.8429383305" lon="18.2488852805">
		<tag k="name" v="Midtli" />
		<tag k="old_name" v="Midtlia" />
		<tag k="place" v="farm" />
		<tag k="ssr:stedsnr" v="139557" />
	</node>
	<node id="-843757" lat="68.6582555526" lon="18.2081277847">
		<tag k="fixme" v="consider place=hamlet" />
		<tag k="name" v="Håkstad" />
		<tag k="place" v="village" />
		<tag k="ssr:stedsnr" v="139349" />
	</node>
	<node id="-843748" lat="68.8519083307" lon="18.1201444461">
		<tag k="name" v="Furuly" />
		<tag k="place" v="farm" />
		<tag k="ssr:stedsnr" v="138530" />
	</node>
	<node id="-843747" lat="68.8748611097" lon="18.4402638755">
		<tag k="name" v="Alstadsætra" />
		<tag k="place" v="isolated_dwelling" />
		<tag k="ssr:stedsnr" v="138506" />
	</node>
	<node id="-843741" lat="68.8090722204" lon="18.5369555399">
		<tag k="name" v="Movinkel" />
		<tag k="place" v="farm" />
		<tag k="ssr:stedsnr" v="138479" />
	</node>
	<node id="-843731" lat="68.6939333324" lon="18.1128166628">
		<tag k="alt_name" v="Øvergaard" />
		<tag k="name" v="Øvergarden" />
		<tag k="place" v="farm" />
		<tag k="ssr:stedsnr" v="138375" />
	</node>
	<node id="-843722" lat="68.5531055593" lon="18.1866833201">
		<tag k="fixme" v="consider tourism=alpine_hut or tourism=chalet" />
		<tag k="name" v="Stordalsstua" />
		<tag k="ssr:stedsnr" v="138296" />
		<tag k="tourism" v="wilderness_hut" />
	</node>
	<node id="-843721" lat="68.719000001" lon="18.5536999981">
		<tag k="name" v="Helland" />
		<tag k="place" v="isolated_dwelling" />
		<tag k="ssr:stedsnr" v="138678" />
	</node>
	<node id="-843707" lat="68.8348000008" lon="18.3618583228">
		<tag k="historic" v="shieling" />
		<tag k="name" v="Fossbakksætra" />
		<tag k="place" v="locality" />
		<tag k="ssr:stedsnr" v="117423" />
	</node>
	<node id="-843680" lat="68.7586722263" lon="18.6556388812">
		<tag k="historic" v="shieling" />
		<tag k="name" v="Oddsætra" />
		<tag k="place" v="locality" />
		<tag k="ssr:stedsnr" v="115562" />
	</node>
	<node id="-843679" lat="68.7593666639" lon="18.6488666557">
		<tag k="historic" v="shieling" />
		<tag k="name" v="Bergsætra" />
		<tag k="place" v="locality" />
		<tag k="ssr:stedsnr" v="115560" />
	</node>
	<node id="-843678" lat="68.8453777802" lon="18.1723611092">
		<tag k="historic" v="shieling" />
		<tag k="name" v="Kroksengsætra" />
		<tag k="place" v="locality" />
		<tag k="ssr:stedsnr" v="115558" />
	</node>
	<node id="-843656" lat="69.0151444469" lon="18.4838444351">
		<tag k="name" v="Myrvang" />
		<tag k="place" v="farm" />
		<tag k="ssr:stedsnr" v="111952" />
	</node>
	<node id="-843655" lat="68.9851083348" lon="18.5629499915">
		<tag k="name" v="Fjellbu" />
		<tag k="place" v="isolated_dwelling" />
		<tag k="ssr:stedsnr" v="111499" />
	</node>
	<node id="-843651" lat="69.012399997" lon="18.5178805385">
		<tag k="name" v="Brandsegg" />
		<tag k="place" v="farm" />
		<tag k="ssr:stedsnr" v="79925" />
	</node>
	<node id="-843645" lat="68.6681027813" lon="18.5489416697">
		<tag k="name" v="Fagerhaug" />
		<tag k="place" v="farm" />
		<tag k="ssr:stedsnr" v="79327" />
	</node>
	<node id="-843643" lat="68.6435194428" lon="18.2453583299">
		<tag k="alt_name" v="Bonnes, austre;Bones, østre" />
		<tag k="name" v="Austre Bonnes" />
		<tag k="place" v="farm" />
		<tag k="ssr:stedsnr" v="79279" />
	</node>
	<node id="-843642" lat="68.644772227" lon="18.2445083193">
		<tag k="alt_name" v="Bonnsåker" />
		<tag k="name" v="Bonsaker" />
		<tag k="place" v="farm" />
		<tag k="ssr:stedsnr" v="79277" />
	</node>
	<node id="-843631" lat="68.7272444448" lon="18.5557805588">
		<tag k="name" v="Lundgård" />
		<tag k="place" v="farm" />
		<tag k="ssr:stedsnr" v="78662" />
	</node>
	<node id="-843627" lat="68.7056611129" lon="18.1129555453">
		<tag k="name" v="Kollen" />
		<tag k="place" v="farm" />
		<tag k="ssr:stedsnr" v="78647" />
	</node>
	<node id="-843624" lat="68.9900833314" lon="18.3540722253">
		<tag k="alt_name" v="Toresetra" />
		<tag k="name" v="Toresætra" />
		<tag k="place" v="isolated_dwelling" />
		<tag k="ssr:stedsnr" v="78624" />
	</node>
	<node id="-843619" lat="68.8871472237" lon="18.3166583327">
		<tag k="name" v="Høye" />
		<tag k="place" v="farm" />
		<tag k="ssr:stedsnr" v="78581" />
	</node>
	<node id="-843618" lat="68.9286805562" lon="18.4506638806">
		<tag k="name" v="Rydningen" />
		<tag k="place" v="farm" />
		<tag k="ssr:stedsnr" v="78559" />
	</node>
	<node id="-843615" lat="68.8609388902" lon="18.3482694362">
		<tag k="alt_name" v="Sætermoen" />
		<tag k="name" v="Setermoen" />
		<tag k="place" v="village" />
		<tag k="ssr:stedsnr" v="78514" />
	</node>
	<node id="-843611" lat="68.8068000031" lon="18.5328805643">
		<tag k="fixme" v="consider place=hamlet" />
		<tag k="loc_name:se" v="Beardogieddi" />
		<tag k="name" v="Bardujord" />
		<tag k="name:no" v="Bardujord" />
		<tag k="place" v="village" />
		<tag k="ssr:stedsnr" v="78468" />
	</node>
	<node id="-843604" lat="68.5895583347" lon="19.2289249967">
		<tag k="name" v="Storbukthytta" />
		<tag k="place" v="isolated_dwelling" />
		<tag k="ssr:stedsnr" v="78390" />
	</node>
	<node id="-843585" lat="68.5884666675" lon="19.3378916551">
		<tag k="name" v="Sørdalshytta" />
		<tag k="place" v="isolated_dwelling" />
		<tag k="ssr:stedsnr" v="78115" />
	</node>
	<node id="-843543" lat="68.6880694424" lon="18.6938611145">
		<tag k="historic" v="shieling" />
		<tag k="name" v="Strømsørsætra" />
		<tag k="place" v="locality" />
		<tag k="ssr:stedsnr" v="56926" />
	</node>
	<node id="-842371" lat="68.6637388924" lon="18.8024722052">
		<tag k="name" v="Solvoll" />
		<tag k="place" v="farm" />
		<tag k="ssr:stedsnr" v="200502" />
	</node>
	<node id="-843527" lat="68.8786305568" lon="18.4647888835">
		<tag k="historic" v="shieling" />
		<tag k="name" v="Gammelsætra" />
		<tag k="place" v="locality" />
		<tag k="ssr:stedsnr" v="55124" />
	</node>
	<node id="-843521" lat="69.0114611083" lon="18.5099138752">
		<tag k="name" v="Solstrand" />
		<tag k="place" v="farm" />
		<tag k="ssr:stedsnr" v="54984" />
	</node>
	<node id="-843490" lat="69.0005083295" lon="18.4608444465">
		<tag k="name" v="Granberg" />
		<tag k="place" v="farm" />
		<tag k="ssr:stedsnr" v="299981" />
	</node>
	<node id="-843484" lat="69.0182500028" lon="18.4852527806">
		<tag k="fixme" v="consider place=hamlet" />
		<tag k="name" v="Sundlia" />
		<tag k="place" v="village" />
		<tag k="ssr:stedsnr" v="18905" />
	</node>
	<node id="-843478" lat="68.8043750015" lon="18.5287138836">
		<tag k="alt_name" v="Hasvold" />
		<tag k="name" v="Hasvoll" />
		<tag k="place" v="farm" />
		<tag k="ssr:stedsnr" v="18439" />
	</node>
	<node id="-843477" lat="68.6962361128" lon="18.6912610985">
		<tag k="alt_name" v="Strømsør" />
		<tag k="name" v="Strømsøra" />
		<tag k="place" v="farm" />
		<tag k="ssr:stedsnr" v="18433" />
	</node>
	<node id="-843467" lat="68.8319916689" lon="18.1748111042">
		<tag k="name" v="Nordgård" />
		<tag k="place" v="farm" />
		<tag k="ssr:stedsnr" v="18524" />
	</node>
	<node id="-843463" lat="68.6873388913" lon="18.5656500033">
		<tag k="alt_name" v="Walle" />
		<tag k="name" v="Valle" />
		<tag k="place" v="farm" />
		<tag k="ssr:stedsnr" v="18284" />
	</node>
	<node id="-843449" lat="68.9650666664" lon="18.4817722263">
		<tag k="name" v="Liland" />
		<tag k="place" v="farm" />
		<tag k="ssr:stedsnr" v="17696" />
	</node>
	<node id="-843448" lat="68.9762944444" lon="18.5197388768">
		<tag k="alt_name" v="Stormo" />
		<tag k="name" v="Stormoen" />
		<tag k="place" v="farm" />
		<tag k="ssr:stedsnr" v="17680" />
	</node>
	<node id="-843443" lat="68.8815500022" lon="18.3532777809">
		<tag k="name" v="Moegga" />
		<tag k="place" v="quarter" />
		<tag k="ssr:stedsnr" v="17627" />
	</node>
	<node id="-843442" lat="68.8885227813" lon="18.3580711091">
		<tag k="name" v="Steine" />
		<tag k="place" v="farm" />
		<tag k="ssr:stedsnr" v="17613" />
	</node>
	<node id="-843430" lat="68.7741694487" lon="18.1648860976">
		<tag k="name" v="Bruheim" />
		<tag k="place" v="farm" />
		<tag k="ssr:stedsnr" v="10487" />
	</node>
	<node id="-843419" lat="68.9459722222" lon="18.4981138941">
		<tag k="historic" v="shieling" />
		<tag k="name" v="Blomstrandsetra" />
		<tag k="place" v="locality" />
		<tag k="ssr:stedsnr" v="965968" />
	</node>
	<node id="-843414" lat="68.7821444495" lon="18.155991655">
		<tag k="name" v="Løvli" />
		<tag k="place" v="farm" />
		<tag k="ssr:stedsnr" v="965554" />
	</node>
	<node id="-843411" lat="68.8232722248" lon="18.4563416522">
		<tag k="name" v="Granlund" />
		<tag k="place" v="farm" />
		<tag k="ssr:stedsnr" v="965020" />
	</node>
	<node id="-843410" lat="68.6584999993" lon="18.2055638781">
		<tag k="name" v="Haakseth" />
		<tag k="place" v="farm" />
		<tag k="ssr:stedsnr" v="964853" />
	</node>
	<node id="-843409" lat="68.8325083353" lon="18.1670722157">
		<tag k="name" v="Elvegård" />
		<tag k="place" v="farm" />
		<tag k="ssr:stedsnr" v="964559" />
	</node>
	<node id="-843396" lat="68.8410055527" lon="18.1578111052">
		<tag k="name" v="Krokland" />
		<tag k="place" v="farm" />
		<tag k="ssr:stedsnr" v="928512" />
	</node>
	<node id="-843395" lat="68.6620611138" lon="18.8039638903">
		<tag k="alt_name" v="Innset, nedre" />
		<tag k="name" v="Innset Nedre" />
		<tag k="place" v="farm" />
		<tag k="ssr:stedsnr" v="928444" />
	</node>
	<node id="-843394" lat="68.7110333351" lon="18.6601916533">
		<tag k="name" v="Dalberg" />
		<tag k="place" v="farm" />
		<tag k="ssr:stedsnr" v="928440" />
	</node>
	<node id="-843389" lat="68.7675361129" lon="18.155849997">
		<tag k="alt_name" v="Forseth vestre;Forset, vestre" />
		<tag k="name" v="Vestre Forset" />
		<tag k="place" v="farm" />
		<tag k="ssr:stedsnr" v="928417" />
	</node>
	<node id="-843386" lat="68.711977776" lon="18.5532472195">
		<tag k="name" v="Åkran" />
		<tag k="place" v="farm" />
		<tag k="ssr:stedsnr" v="928309" />
	</node>
	<node id="-843384" lat="68.796305556" lon="18.1610972259">
		<tag k="name" v="Solås" />
		<tag k="place" v="farm" />
		<tag k="ssr:stedsnr" v="917966" />
	</node>
	<node id="-843382" lat="68.8364972217" lon="18.2575555536">
		<tag k="name" v="Bergstad" />
		<tag k="place" v="farm" />
		<tag k="ssr:stedsnr" v="906263" />
	</node>
	<node id="-843378" lat="68.909849997" lon="18.4399499957">
		<tag k="historic" v="shieling" />
		<tag k="name" v="Utbysætra" />
		<tag k="place" v="locality" />
		<tag k="ssr:stedsnr" v="906205" />
	</node>
	<node id="-843361" lat="68.657158338" lon="18.4898333251">
		<tag k="historic" v="shieling" />
		<tag k="name" v="Sørmosætra" />
		<tag k="place" v="locality" />
		<tag k="ssr:stedsnr" v="904419" />
	</node>
	<node id="-843336" lat="68.9126916647" lon="18.4264638864">
		<tag k="name" v="Enget" />
		<tag k="place" v="isolated_dwelling" />
		<tag k="ssr:stedsnr" v="843158" />
	</node>
	<node id="-843331" lat="69.0192277809" lon="18.4852916519">
		<tag k="name" v="Hauge" />
		<tag k="place" v="farm" />
		<tag k="ssr:stedsnr" v="839956" />
	</node>
	<node id="-843327" lat="69.0155416636" lon="18.4229222089">
		<tag k="alt_name" v="Myrvangsetra" />
		<tag k="name" v="Myrvangsætra" />
		<tag k="place" v="isolated_dwelling" />
		<tag k="ssr:stedsnr" v="928931" />
	</node>
	<node id="-843325" lat="68.9474685612" lon="18.4991489679">
		<tag k="alt_name" v="Bjørklisetra" />
		<tag k="name" v="Bjørklisætra" />
		<tag k="place" v="locality" />
		<tag k="ssr:stedsnr" v="928624" />
	</node>
	<node id="-843323" lat="68.8659583343" lon="18.3477277701">
		<tag k="alt_name" v="Kjerkmoen;Kirkemoen" />
		<tag k="name" v="Kirkesmoen" />
		<tag k="place" v="quarter" />
		<tag k="ssr:stedsnr" v="928473" />
	</node>
	<node id="-843321" lat="68.7597111117" lon="18.5850999898">
		<tag k="alt_name" v="Strømsmoen, øvre" />
		<tag k="fixme" v="multiple name tags, choose one and add the other to alt_name" />
		<tag k="name" v="Strømsmoen østre;Øvre Strømsmoen" />
		<tag k="place" v="farm" />
		<tag k="ssr:stedsnr" v="928392" />
	</node>
	<node id="-843313" lat="68.6665916706" lon="18.5469000018">
		<tag k="name" v="Strømseng" />
		<tag k="place" v="farm" />
		<tag k="ssr:stedsnr" v="928301" />
	</node>
	<node id="-843312" lat="68.681050001" lon="18.5671138722">
		<tag k="alt_name" v="Utgarden" />
		<tag k="name" v="Utgård" />
		<tag k="place" v="farm" />
		<tag k="ssr:stedsnr" v="928297" />
	</node>
	<node id="-843309" lat="68.642341668" lon="18.2496638975">
		<tag k="name" v="Nyborg" />
		<tag k="place" v="isolated_dwelling" />
		<tag k="ssr:stedsnr" v="928263" />
	</node>
	<node id="-843306" lat="68.656936114" lon="18.2205944426">
		<tag k="alt_name" v="Haaksvold" />
		<tag k="name" v="Håksvoll" />
		<tag k="place" v="farm" />
		<tag k="ssr:stedsnr" v="928247" />
	</node>
	<node id="-843300" lat="68.4729972259" lon="20.0687083114">
		<tag k="name" v="Gámas-hytta" />
		<tag k="place" v="isolated_dwelling" />
		<tag k="ssr:stedsnr" v="928096" />
	</node>
	<node id="-843295" lat="68.4814777738" lon="19.7253527697">
		<tag k="name" v="Golmenstua" />
		<tag k="place" v="isolated_dwelling" />
		<tag k="ssr:stedsnr" v="928065" />
	</node>
	<node id="-843288" lat="68.7665749972" lon="18.170855543">
		<tag k="name" v="Skaugum" />
		<tag k="place" v="isolated_dwelling" />
		<tag k="ssr:stedsnr" v="806422" />
	</node>
	<node id="-843286" lat="68.9818138921" lon="18.5300277811">
		<tag k="alt_name" v="Nymo" />
		<tag k="name" v="Nymoen" />
		<tag k="place" v="isolated_dwelling" />
		<tag k="ssr:stedsnr" v="927640" />
	</node>
	<node id="-843285" lat="68.8898277828" lon="18.3716277634">
		<tag k="alt_name" v="Jemmingen, øvre" />
		<tag k="name" v="Jevningen" />
		<tag k="place" v="farm" />
		<tag k="ssr:stedsnr" v="927601" />
	</node>
	<node id="-843284" lat="68.8877916679" lon="18.3143444326">
		<tag k="name" v="Høgda" />
		<tag k="place" v="farm" />
		<tag k="ssr:stedsnr" v="927596" />
	</node>
	<node id="-843283" lat="68.8096256507" lon="18.1835932332">
		<tag k="name" v="Lundamo" />
		<tag k="place" v="farm" />
		<tag k="ssr:stedsnr" v="927503" />
	</node>
	<node id="-843270" lat="69.0134666707" lon="18.4767388774">
		<tag k="alt_name" v="Lauvli" />
		<tag k="name" v="Løvli" />
		<tag k="place" v="farm" />
		<tag k="ssr:stedsnr" v="746916" />
	</node>
	<node id="-843264" lat="68.8388222235" lon="18.3979472085">
		<tag k="landuse" v="military" />
		<tag k="name" v="Hundtorp" />
		<tag k="ssr:stedsnr" v="746558" />
	</node>
	<node id="-843259" lat="68.673563892" lon="18.1479861034">
		<tag k="name" v="Fossheim" />
		<tag k="place" v="farm" />
		<tag k="ssr:stedsnr" v="746309" />
	</node>
	<node id="-843255" lat="68.7008861074" lon="18.1040666696">
		<tag k="name" v="Bruvoll" />
		<tag k="place" v="farm" />
		<tag k="ssr:stedsnr" v="745675" />
	</node>
	<node id="-843250" lat="68.711405555" lon="18.5526388811">
		<tag k="alt_name" v="Helberg" />
		<tag k="name" v="Hellberg" />
		<tag k="old_name" v="Hallberg" />
		<tag k="place" v="farm" />
		<tag k="ssr:stedsnr" v="745374" />
	</node>
	<node id="-843234" lat="68.7221000046" lon="18.5536249844">
		<tag k="name" v="Aarhaug" />
		<tag k="place" v="isolated_dwelling" />
		<tag k="ssr:stedsnr" v="906087" />
	</node>
	<node id="-843232" lat="68.6546138931" lon="18.2050388806">
		<tag k="name" v="Stranda" />
		<tag k="place" v="farm" />
		<tag k="ssr:stedsnr" v="904891" />
	</node>
	<node id="-843215" lat="68.8308666667" lon="18.4451166604">
		<tag k="name" v="Fossmo" />
		<tag k="place" v="farm" />
		<tag k="ssr:stedsnr" v="904448" />
	</node>
	<node id="-843211" lat="68.830680553" lon="18.4108944325">
		<tag k="name" v="Stenlund" />
		<tag k="place" v="farm" />
		<tag k="ssr:stedsnr" v="904433" />
	</node>
	<node id="-842996" lat="68.8177277812" lon="18.4451138773">
		<tag k="name" v="Østvik" />
		<tag k="place" v="farm" />
		<tag k="ssr:stedsnr" v="540012" />
	</node>
	<node id="-843187" lat="68.8585972259" lon="18.0850055631">
		<tag k="name" v="Nyland" />
		<tag k="place" v="farm" />
		<tag k="ssr:stedsnr" v="901137" />
	</node>
	<node id="-843157" lat="69.0094083315" lon="18.5280222285">
		<tag k="name" v="Brandmoen" />
		<tag k="place" v="farm" />
		<tag k="ssr:stedsnr" v="694528" />
	</node>
	<node id="-842263" lat="68.7819888917" lon="18.1903805501">
		<tag k="name" v="Fosseng" />
		<tag k="place" v="farm" />
		<tag k="ssr:stedsnr" v="260491" />
	</node>
	<node id="-843129" lat="68.6695527783" lon="18.7493527742">
		<tag k="historic" v="shieling" />
		<tag k="name" v="Sætra" />
		<tag k="place" v="locality" />
		<tag k="ssr:stedsnr" v="724931" />
	</node>
	<node id="-843126" lat="68.651444446" lon="18.9816305473">
		<tag k="name" v="Lappleiren" />
		<tag k="place" v="locality" />
		<tag k="ssr:stedsnr" v="724522" />
	</node>
	<node id="-843121" lat="68.8068472256" lon="18.5233972244">
		<tag k="name" v="Elvevoll" />
		<tag k="place" v="farm" />
		<tag k="ssr:stedsnr" v="724118" />
	</node>
	<node id="-843117" lat="68.824458336" lon="18.2601583285">
		<tag k="name" v="Fjellvang" />
		<tag k="place" v="farm" />
		<tag k="ssr:stedsnr" v="724256" />
	</node>
	<node id="-843114" lat="68.7749833313" lon="18.5255110964">
		<tag k="name" v="Olsaker" />
		<tag k="place" v="farm" />
		<tag k="ssr:stedsnr" v="724184" />
	</node>
	<node id="-843093" lat="68.8724361096" lon="18.4490777617">
		<tag k="historic" v="shieling" />
		<tag k="name" v="Rotvoldsætra" />
		<tag k="place" v="locality" />
		<tag k="ssr:stedsnr" v="722144" />
	</node>
	<node id="-843092" lat="68.8730944434" lon="18.3621500044">
		<tag k="leisure" v="pitch" />
		<tag k="name" v="Barduhallen" />
		<tag k="ssr:stedsnr" v="722091" />
	</node>
	<node id="-843088" lat="68.8800527829" lon="18.3312555423">
		<tag k="historic" v="shieling" />
		<tag k="name" v="Åssætra" />
		<tag k="place" v="locality" />
		<tag k="ssr:stedsnr" v="722048" />
	</node>
	<node id="-843085" lat="68.657516664" lon="18.2047027603">
		<tag k="name" v="Holtet" />
		<tag k="place" v="farm" />
		<tag k="ssr:stedsnr" v="721882" />
	</node>
	<node id="-843084" lat="68.6587138933" lon="18.209136098">
		<tag k="name" v="Haakstad" />
		<tag k="place" v="farm" />
		<tag k="ssr:stedsnr" v="721880" />
	</node>
	<node id="-843068" lat="69.0285694422" lon="18.5427472262">
		<tag k="name" v="Åseng" />
		<tag k="place" v="farm" />
		<tag k="ssr:stedsnr" v="718965" />
	</node>
	<node id="-843037" lat="68.8270583365" lon="18.4234083218">
		<tag k="alt_name" v="Øvregård skole" />
		<tag k="amenity" v="school" />
		<tag k="name" v="Øvre Bardu skole" />
		<tag k="ssr:stedsnr" v="600415" />
	</node>
	<node id="-843035" lat="68.919247224" lon="18.3854860975">
		<tag k="historic" v="shieling" />
		<tag k="name" v="Moseter" />
		<tag k="place" v="locality" />
		<tag k="ssr:stedsnr" v="600184" />
	</node>
	<node id="-843027" lat="68.8961694468" lon="18.391800004">
		<tag k="name" v="Utheim" />
		<tag k="place" v="farm" />
		<tag k="ssr:stedsnr" v="573528" />
	</node>
	<node id="-843026" lat="68.7589583304" lon="18.1601361053">
		<tag k="name" v="Løvås" />
		<tag k="place" v="farm" />
		<tag k="ssr:stedsnr" v="573521" />
	</node>
	<node id="-843022" lat="68.6811500024" lon="18.1402472098">
		<tag k="alt_name" v="Luneberg" />
		<tag k="name" v="Luneborg" />
		<tag k="place" v="farm" />
		<tag k="ssr:stedsnr" v="563309" />
	</node>
	<node id="-843014" lat="68.9573277817" lon="18.4735972316">
		<tag k="name" v="Bjørkli" />
		<tag k="place" v="farm" />
		<tag k="ssr:stedsnr" v="542219" />
	</node>
	<node id="-843013" lat="68.8184583364" lon="18.4874194512">
		<tag k="building" v="industrial" />
		<tag k="industrial" v="factory" />
		<tag k="name" v="Torvfabrikken" />
		<tag k="ssr:stedsnr" v="542207" />
	</node>
	<node id="-845045" lat="68.7724134034" lon="18.169682636">
		<tag k="fixme" v="consider place=hamlet" />
		<tag k="name" v="Forset" />
		<tag k="place" v="farm" />
		<tag k="ssr:stedsnr" v="1076156" />
	</node>
	<node id="-845044" lat="69.6548386171" lon="18.9540555979">
		<tag k="amenity" v="school" />
		<tag k="name" v="Ishavsbyen videregående skole" />
		<tag k="ssr:stedsnr" v="1075695" />
	</node>
	<node id="-845041" lat="68.570296439" lon="18.5958543803">
		<tag k="fixme" v="consider tourism=alpine_hut or tourism=chalet" />
		<tag k="name" v="Stággonjunnihytta" />
		<tag k="ssr:stedsnr" v="991133" />
		<tag k="tourism" v="wilderness_hut" />
	</node>
	<node id="-842988" lat="69.0201666685" lon="18.4204916648">
		<tag k="alt_name" v="Sundlisetra" />
		<tag k="name" v="Sundlisætra" />
		<tag k="place" v="isolated_dwelling" />
		<tag k="ssr:stedsnr" v="685923" />
	</node>
	<node id="-842987" lat="69.0237777815" lon="18.4926611024">
		<tag k="alt_name" v="Hammersletta" />
		<tag k="name" v="Hammarsletta" />
		<tag k="place" v="farm" />
		<tag k="ssr:stedsnr" v="685920" />
	</node>
	<node id="-842985" lat="68.726722219" lon="18.0916638833">
		<tag k="name" v="Sørflaten" />
		<tag k="place" v="farm" />
		<tag k="ssr:stedsnr" v="685660" />
	</node>
	<node id="-842983" lat="68.7242027773" lon="18.1005944388">
		<tag k="name" v="Bratteng" />
		<tag k="place" v="farm" />
		<tag k="ssr:stedsnr" v="685654" />
	</node>
	<node id="-842979" lat="68.8989250032" lon="18.3976777677">
		<tag k="alt_name" v="Moen, øvre" />
		<tag k="name" v="Moen" />
		<tag k="place" v="isolated_dwelling" />
		<tag k="ssr:stedsnr" v="685594" />
	</node>
	<node id="-845024" lat="68.9959333328" lon="18.387080547">
		<tag k="historic" v="shieling" />
		<tag k="name" v="Svendsvollsetra" />
		<tag k="place" v="locality" />
		<tag k="ssr:stedsnr" v="966975" />
	</node>
	<node id="-842974" lat="68.84178056" lon="18.2546166608">
		<tag k="name" v="Nerli" />
		<tag k="place" v="farm" />
		<tag k="ssr:stedsnr" v="685523" />
	</node>
	<node id="-842957" lat="68.809105552" lon="18.188069429">
		<tag k="alt_name" v="Livelten" />
		<tag k="name" v="Livelta" />
		<tag k="place" v="farm" />
		<tag k="ssr:stedsnr" v="685447" />
	</node>
	<node id="-845004" lat="68.9338138847" lon="18.457494449">
		<tag k="name" v="Vang" />
		<tag k="place" v="farm" />
		<tag k="ssr:stedsnr" v="964727" />
	</node>
	<node id="-842956" lat="68.8128916667" lon="18.5065055545">
		<tag k="alt_name" v="Grenåker" />
		<tag k="name" v="Grenaker" />
		<tag k="place" v="farm" />
		<tag k="ssr:stedsnr" v="685443" />
	</node>
	<node id="-842948" lat="68.7603555567" lon="18.5713222148">
		<tag k="name" v="Øverås" />
		<tag k="place" v="farm" />
		<tag k="ssr:stedsnr" v="685399" />
	</node>
	<node id="-842614" lat="68.7590361082" lon="18.5708888716">
		<tag k="name" v="Bakken" />
		<tag k="place" v="farm" />
		<tag k="ssr:stedsnr" v="481209" />
	</node>
	<node id="-844990" lat="68.9140944479" lon="18.4488555527">
		<tag k="historic" v="shieling" />
		<tag k="name" v="Rønningssetra" />
		<tag k="place" v="locality" />
		<tag k="ssr:stedsnr" v="964187" />
	</node>
	<node id="-842941" lat="68.6921444438" lon="18.5596749958">
		<tag k="alt_name" v="Løkset" />
		<tag k="name" v="Løkstad" />
		<tag k="place" v="farm" />
		<tag k="ssr:stedsnr" v="685345" />
	</node>
	<node id="-842936" lat="68.6656916647" lon="18.1672944407">
		<tag k="name" v="Bergan" />
		<tag k="place" v="farm" />
		<tag k="ssr:stedsnr" v="685314" />
	</node>
	<node id="-842934" lat="68.640313886" lon="18.2409027781">
		<tag k="name" v="Storjorda" />
		<tag k="place" v="farm" />
		<tag k="ssr:stedsnr" v="685296" />
	</node>
	<node id="-842933" lat="68.6454694412" lon="18.2433833381">
		<tag k="alt_name" v="Bonnes" />
		<tag k="fixme" v="consider place=hamlet" />
		<tag k="name" v="Bones" />
		<tag k="place" v="village" />
		<tag k="ssr:stedsnr" v="685290" />
	</node>
	<node id="-844969" lat="69.0044972189" lon="18.516641668">
		<tag k="alt_name" v="Elverom" />
		<tag k="name" v="Elverum" />
		<tag k="place" v="farm" />
		<tag k="ssr:stedsnr" v="868914" />
	</node>
	<node id="-844965" lat="68.7318444464" lon="18.091369449">
		<tag k="name" v="Solbakken" />
		<tag k="place" v="isolated_dwelling" />
		<tag k="ssr:stedsnr" v="868641" />
	</node>
	<node id="-842915" lat="69.001833335" lon="18.5298638839">
		<tag k="alt_name" v="Sagmo" />
		<tag k="name" v="Sagmoen" />
		<tag k="place" v="farm" />
		<tag k="ssr:stedsnr" v="503871" />
	</node>
	<node id="-844962" lat="68.6643138846" lon="18.5647416662">
		<tag k="name" v="Sørgård" />
		<tag k="place" v="farm" />
		<tag k="ssr:stedsnr" v="868322" />
	</node>
	<node id="-842913" lat="68.852266663" lon="18.3985083312">
		<tag k="name" v="Steily" />
		<tag k="place" v="isolated_dwelling" />
		<tag k="ssr:stedsnr" v="503481" />
	</node>
	<node id="-842909" lat="68.7809638857" lon="18.667241662">
		<tag k="name" v="Lappskardtangen" />
		<tag k="place" v="locality" />
		<tag k="ssr:stedsnr" v="503257" />
	</node>
	<node id="-842907" lat="68.8351000032" lon="18.1728250035">
		<tag k="alt_name" v="Austgård" />
		<tag k="name" v="Østgård" />
		<tag k="place" v="farm" />
		<tag k="ssr:stedsnr" v="503530" />
	</node>
	<node id="-842905" lat="68.8325222207" lon="18.167130558">
		<tag k="name" v="Fossmoen" />
		<tag k="place" v="isolated_dwelling" />
		<tag k="ssr:stedsnr" v="503506" />
	</node>
	<node id="-844947" lat="68.8931138896" lon="18.4181083197">
		<tag k="alt_name" v="Nysted, nordre" />
		<tag k="fixme" v="multiple name tags, choose one and add the other to alt_name" />
		<tag k="name" v="Nysted;Nordre Nysted" />
		<tag k="place" v="farm" />
		<tag k="ssr:stedsnr" v="867612" />
	</node>
	<node id="-844946" lat="68.9304944413" lon="18.4837777661">
		<tag k="alt_name" v="Midtunsetra" />
		<tag k="name" v="Midtunsætra" />
		<tag k="place" v="isolated_dwelling" />
		<tag k="ssr:stedsnr" v="867591" />
	</node>
	<node id="-844944" lat="68.9303722184" lon="18.4540833286">
		<tag k="name" v="Tune" />
		<tag k="place" v="farm" />
		<tag k="ssr:stedsnr" v="867581" />
	</node>
	<node id="-844940" lat="68.8299222221" lon="18.438397209">
		<tag k="name" v="Fosshaug" />
		<tag k="place" v="farm" />
		<tag k="ssr:stedsnr" v="867557" />
	</node>
	<node id="-842891" lat="68.7748916644" lon="18.158230539">
		<tag k="name" v="Engen" />
		<tag k="place" v="farm" />
		<tag k="ssr:stedsnr" v="677494" />
	</node>
	<node id="-844937" lat="68.859147226" lon="18.0961750024">
		<tag k="name" v="Løkken" />
		<tag k="place" v="farm" />
		<tag k="ssr:stedsnr" v="867516" />
	</node>
	<node id="-842887" lat="69.0003777784" lon="18.4637277615">
		<tag k="name" v="Wennermo" />
		<tag k="place" v="farm" />
		<tag k="ssr:stedsnr" v="481967" />
	</node>
	<node id="-844931" lat="68.8211055583" lon="18.5426249865">
		<tag k="name" v="Fagerheim" />
		<tag k="place" v="isolated_dwelling" />
		<tag k="ssr:stedsnr" v="867488" />
	</node>
	<node id="-842880" lat="68.8271277816" lon="18.2710777873">
		<tag k="name" v="Oppset" />
		<tag k="place" v="farm" />
		<tag k="ssr:stedsnr" v="481258" />
	</node>
	<node id="-844925" lat="68.7719777794" lon="18.1627138765">
		<tag k="name" v="Soleng" />
		<tag k="place" v="farm" />
		<tag k="ssr:stedsnr" v="867454" />
	</node>
	<node id="-844918" lat="68.6829916645" lon="18.5661388823">
		<tag k="alt_name" v="Tønseth" />
		<tag k="name" v="Tynset" />
		<tag k="place" v="farm" />
		<tag k="ssr:stedsnr" v="867348" />
	</node>
	<node id="-842861" lat="68.8998888882" lon="18.1971055456">
		<tag k="name" v="Isakheimen" />
		<tag k="place" v="locality" />
		<tag k="ssr:stedsnr" v="663362" />
	</node>
	<node id="-842859" lat="68.8504972239" lon="18.2852777836">
		<tag k="name" v="Bjørnstrøm" />
		<tag k="place" v="farm" />
		<tag k="ssr:stedsnr" v="663358" />
	</node>
	<node id="-842857" lat="68.8265333287" lon="18.2552361135">
		<tag k="name" v="Sørås" />
		<tag k="place" v="farm" />
		<tag k="ssr:stedsnr" v="663241" />
	</node>
	<node id="-842856" lat="68.8225472222" lon="18.4737555593">
		<tag k="name" v="Haugly" />
		<tag k="place" v="farm" />
		<tag k="ssr:stedsnr" v="663225" />
	</node>
	<node id="-842854" lat="68.7966611092" lon="18.583508334">
		<tag k="historic" v="shieling" />
		<tag k="name" v="Bangsætra" />
		<tag k="place" v="locality" />
		<tag k="ssr:stedsnr" v="663213" />
	</node>
	<node id="-844899" lat="68.7770166697" lon="18.1811972116">
		<tag k="name" v="Eggseth" />
		<tag k="place" v="farm" />
		<tag k="ssr:stedsnr" v="860538" />
	</node>
	<node id="-842848" lat="68.8942333349" lon="18.418399997">
		<tag k="name" v="Åkermoen" />
		<tag k="place" v="farm" />
		<tag k="ssr:stedsnr" v="663179" />
	</node>
	<node id="-844886" lat="68.8103277811" lon="18.1789555619">
		<tag k="name" v="Stranda" />
		<tag k="place" v="farm" />
		<tag k="ssr:stedsnr" v="846270" />
	</node>
	<node id="-844885" lat="68.8131083311" lon="18.1809611085">
		<tag k="name" v="Elvelund" />
		<tag k="place" v="farm" />
		<tag k="ssr:stedsnr" v="846268" />
	</node>
	<node id="-844882" lat="68.8053999993" lon="18.1811194386">
		<tag k="name" v="Østmoen" />
		<tag k="place" v="farm" />
		<tag k="ssr:stedsnr" v="846261" />
	</node>
	<node id="-844873" lat="68.953675" lon="18.4718694509">
		<tag k="name" v="Langstrand" />
		<tag k="place" v="farm" />
		<tag k="ssr:stedsnr" v="846169" />
	</node>
	<node id="-844861" lat="68.9926916663" lon="18.3405055629">
		<tag k="historic" v="shieling" />
		<tag k="name" v="Fossmosetra" />
		<tag k="place" v="locality" />
		<tag k="ssr:stedsnr" v="845972" />
	</node>
	<node id="-844844" lat="69.0336083338" lon="18.4547027704">
		<tag k="historic" v="shieling" />
		<tag k="name" v="Øverlisetra" />
		<tag k="place" v="locality" />
		<tag k="ssr:stedsnr" v="844630" />
	</node>
	<node id="-842587" lat="68.8285361153" lon="18.4232138885">
		<tag k="name" v="Braaten" />
		<tag k="place" v="farm" />
		<tag k="ssr:stedsnr" v="479440" />
	</node>
	<node id="-842774" lat="68.827661113" lon="18.6061805579">
		<tag k="historic" v="shieling" />
		<tag k="name" v="Eggsætra" />
		<tag k="place" v="locality" />
		<tag k="ssr:stedsnr" v="421224" />
	</node>
	<node id="-842771" lat="68.8226222203" lon="18.2738916683">
		<tag k="name" v="Ryhaug" />
		<tag k="place" v="farm" />
		<tag k="ssr:stedsnr" v="421307" />
	</node>
	<node id="-844817" lat="68.7331611096" lon="18.093250008">
		<tag k="name" v="Sollid" />
		<tag k="place" v="farm" />
		<tag k="ssr:stedsnr" v="841392" />
	</node>
	<node id="-844809" lat="68.6633166653" lon="18.8906388935">
		<tag k="fixme" v="consider tourism=alpine_hut or tourism=chalet" />
		<tag k="name" v="Altevasshytta" />
		<tag k="ssr:stedsnr" v="830141" />
		<tag k="tourism" v="wilderness_hut" />
	</node>
	<node id="-844808" lat="68.888377714" lon="18.3263764366">
		<tag k="fixme" v="consider place=hamlet" />
		<tag k="name" v="Høgda" />
		<tag k="place" v="farm" />
		<tag k="ssr:stedsnr" v="829573" />
	</node>
	<node id="-844806" lat="68.6915666693" lon="18.110377771">
		<tag k="name" v="Polar Zoo" />
		<tag k="place" v="farm" />
		<tag k="ssr:stedsnr" v="811357" />
	</node>
	<node id="-844805" lat="69.0328972258" lon="18.4562111001">
		<tag k="alt_name" v="Hammarslettsætra" />
		<tag k="name" v="Hammerslettsetra" />
		<tag k="place" v="isolated_dwelling" />
		<tag k="ssr:stedsnr" v="807874" />
	</node>
	<node id="-842747" lat="68.7350472178" lon="18.1070249987">
		<tag k="alt_name" v="Sletta" />
		<tag k="name" v="Sletten" />
		<tag k="place" v="farm" />
		<tag k="ssr:stedsnr" v="503639" />
	</node>
	<node id="-842741" lat="68.7323466909" lon="18.5578281516">
		<tag k="name" v="Kjæreng" />
		<tag k="place" v="locality" />
		<tag k="ssr:stedsnr" v="503617" />
	</node>
	<node id="-844788" lat="68.6720861162" lon="18.1544638749">
		<tag k="alt_name" v="Moholdtet" />
		<tag k="name" v="Moholtet" />
		<tag k="place" v="farm" />
		<tag k="ssr:stedsnr" v="807306" />
	</node>
	<node id="-842735" lat="68.9873999985" lon="18.5299749953">
		<tag k="name" v="Bjørnstad" />
		<tag k="place" v="farm" />
		<tag k="ssr:stedsnr" v="503589" />
	</node>
	<node id="-842732" lat="68.8905750031" lon="18.4163111043">
		<tag k="name" v="Ranum" />
		<tag k="place" v="farm" />
		<tag k="ssr:stedsnr" v="503563" />
	</node>
	<node id="-842731" lat="68.9297527793" lon="18.4504888759">
		<tag k="name" v="Midtun" />
		<tag k="place" v="farm" />
		<tag k="ssr:stedsnr" v="503544" />
	</node>
	<node id="-842724" lat="68.7756083372" lon="18.5620972184">
		<tag k="alt_name" v="Berg, nedre" />
		<tag k="name" v="Nedre Berg" />
		<tag k="place" v="farm" />
		<tag k="ssr:stedsnr" v="503434" />
	</node>
	<node id="-842723" lat="68.7720472207" lon="18.1727138917">
		<tag k="alt_name" v="Forseth østre;Forset, austre" />
		<tag k="name" v="Austre Forset" />
		<tag k="place" v="farm" />
		<tag k="ssr:stedsnr" v="503428" />
	</node>
	<node id="-842722" lat="68.7730055543" lon="18.525247226">
		<tag k="name" v="Øyvoll" />
		<tag k="place" v="farm" />
		<tag k="ssr:stedsnr" v="503424" />
	</node>
	<node id="-844769" lat="68.8067472238" lon="18.529983338">
		<tag k="alt_name" v="Motrøen" />
		<tag k="name" v="Motrøa" />
		<tag k="place" v="farm" />
		<tag k="ssr:stedsnr" v="806467" />
	</node>
	<node id="-844768" lat="68.8034222206" lon="18.5144666611">
		<tag k="alt_name" v="Eggen, nedre" />
		<tag k="name" v="Nedre Eggen" />
		<tag k="place" v="farm" />
		<tag k="ssr:stedsnr" v="806463" />
	</node>
	<node id="-844766" lat="68.7854861105" lon="18.520258329">
		<tag k="alt_name" v="Nytrøen" />
		<tag k="name" v="Nytrøa" />
		<tag k="place" v="isolated_dwelling" />
		<tag k="ssr:stedsnr" v="806446" />
	</node>
	<node id="-844763" lat="68.7719833304" lon="18.1691611093">
		<tag k="name" v="Forset" />
		<tag k="place" v="hamlet" />
		<tag k="ssr:stedsnr" v="806424" />
	</node>
	<node id="-842712" lat="68.6996972229" lon="18.1002444484">
		<tag k="alt_name" v="Lundlia" />
		<tag k="name" v="Lundli" />
		<tag k="place" v="farm" />
		<tag k="ssr:stedsnr" v="503335" />
	</node>
	<node id="-842711" lat="68.700294447" lon="18.1116000092">
		<tag k="alt_name" v="Rognlia" />
		<tag k="name" v="Rognli" />
		<tag k="place" v="farm" />
		<tag k="ssr:stedsnr" v="503331" />
	</node>
	<node id="-844757" lat="68.5138194432" lon="18.6319166723">
		<tag k="fixme" v="consider tourism=alpine_hut or tourism=chalet" />
		<tag k="name" v="Lappjordhytta" />
		<tag k="ssr:stedsnr" v="806402" />
		<tag k="tourism" v="wilderness_hut" />
	</node>
	<node id="-844963" lat="68.6610805531" lon="18.8077611054">
		<tag k="name" v="Solset" />
		<tag k="place" v="isolated_dwelling" />
		<tag k="ssr:stedsnr" v="868483" />
	</node>
	<node id="-842699" lat="68.6634638889" lon="18.5602888914">
		<tag k="name" v="Solheim" />
		<tag k="place" v="farm" />
		<tag k="ssr:stedsnr" v="503263" />
	</node>
	<node id="-844746" lat="68.8372472222" lon="18.1632861102">
		<tag k="alt_name" v="Kroken, austre" />
		<tag k="fixme" v="multiple name tags, choose one and add the other to alt_name" />
		<tag k="name" v="Kroken;Austre Kroken" />
		<tag k="place" v="farm" />
		<tag k="ssr:stedsnr" v="798505" />
	</node>
	<node id="-844745" lat="68.7977166681" lon="18.1860138761">
		<tag k="name" v="Utmo" />
		<tag k="place" v="farm" />
		<tag k="ssr:stedsnr" v="796963" />
	</node>
	<node id="-842691" lat="68.8899972272" lon="18.371513879">
		<tag k="alt_name" v="Jemmingen, nedre" />
		<tag k="name" v="Jevningen" />
		<tag k="place" v="farm" />
		<tag k="ssr:stedsnr" v="502597" />
	</node>
	<node id="-842690" lat="68.8885888911" lon="18.3174777736">
		<tag k="name" v="Bruhaug" />
		<tag k="place" v="isolated_dwelling" />
		<tag k="ssr:stedsnr" v="502593" />
	</node>
	<node id="-844737" lat="68.8259444472" lon="18.2666305609">
		<tag k="name" v="Sørheim" />
		<tag k="place" v="farm" />
		<tag k="ssr:stedsnr" v="785233" />
	</node>
	<node id="-842687" lat="68.8120750011" lon="18.1566999854">
		<tag k="name" v="Høyland" />
		<tag k="place" v="farm" />
		<tag k="ssr:stedsnr" v="502492" />
	</node>
	<node id="-842686" lat="68.8758833325" lon="18.3817722094">
		<tag k="alt_name" v="Rotvold" />
		<tag k="name" v="Rotvoll" />
		<tag k="place" v="isolated_dwelling" />
		<tag k="ssr:stedsnr" v="381623" />
	</node>
	<node id="-842685" lat="68.8580027772" lon="18.3418000073">
		<tag k="alt_name" v="Toftåker" />
		<tag k="name" v="Toftaker" />
		<tag k="place" v="quarter" />
		<tag k="ssr:stedsnr" v="381523" />
	</node>
	<node id="-844731" lat="68.7727444462" lon="18.5634222275">
		<tag k="name" v="Bergseth" />
		<tag k="place" v="farm" />
		<tag k="ssr:stedsnr" v="785190" />
	</node>
	<node id="-842680" lat="68.8408583358" lon="18.160216674">
		<tag k="alt_name" v="Kroken, vestre" />
		<tag k="fixme" v="multiple name tags, choose one and add the other to alt_name" />
		<tag k="name" v="Kroken;Vestre Kroken" />
		<tag k="place" v="farm" />
		<tag k="ssr:stedsnr" v="494514" />
	</node>
	<node id="-844726" lat="68.9548972215" lon="18.4968555439">
		<tag k="name" v="Lindseth" />
		<tag k="place" v="farm" />
		<tag k="ssr:stedsnr" v="785171" />
	</node>
	<node id="-844701" lat="68.8721000019" lon="18.4524249886">
		<tag k="historic" v="shieling" />
		<tag k="name" v="Grendalssætra" />
		<tag k="place" v="locality" />
		<tag k="ssr:stedsnr" v="783101" />
	</node>
	<node id="-844698" lat="68.8710000025" lon="18.361899992">
		<tag k="amenity" v="school" />
		<tag k="name" v="Sætermoen skole" />
		<tag k="ssr:stedsnr" v="783062" />
	</node>
	<node id="-844697" lat="68.8787722196" lon="18.3653555528">
		<tag k="landuse" v="military" />
		<tag k="name" v="Spongaleiren" />
		<tag k="ssr:stedsnr" v="783060" />
	</node>
	<node id="-844690" lat="69.0026722208" lon="18.4559249862">
		<tag k="name" v="Rolfstad" />
		<tag k="place" v="farm" />
		<tag k="ssr:stedsnr" v="782970" />
	</node>
	<node id="-844685" lat="68.7794861076" lon="18.1975111179">
		<tag k="name" v="Fossan" />
		<tag k="place" v="isolated_dwelling" />
		<tag k="ssr:stedsnr" v="782596" />
	</node>
	<node id="-844683" lat="68.7777098651" lon="18.2387550609">
		<tag k="name" v="Skarbua" />
		<tag k="place" v="locality" />
		<tag k="ssr:stedsnr" v="782589" />
	</node>
	<node id="-844676" lat="68.9197722233" lon="18.4739305505">
		<tag k="historic" v="shieling" />
		<tag k="name" v="Rønningssetra" />
		<tag k="place" v="locality" />
		<tag k="ssr:stedsnr" v="782136" />
	</node>
	<node id="-844674" lat="68.8547305534" lon="18.4533027755">
		<tag k="name" v="Fjellheim" />
		<tag k="place" v="isolated_dwelling" />
		<tag k="ssr:stedsnr" v="782120" />
	</node>
	<node id="-842624" lat="68.9605972245" lon="18.4750472114">
		<tag k="name" v="Blomstrand" />
		<tag k="place" v="farm" />
		<tag k="ssr:stedsnr" v="481246" />
	</node>
	<node id="-842622" lat="68.7937805563" lon="18.5565249829">
		<tag k="name" v="Stensgård" />
		<tag k="place" v="farm" />
		<tag k="ssr:stedsnr" v="481227" />
	</node>
	<node id="-842616" lat="68.7747000035" lon="18.5644555629">
		<tag k="name" v="Berg" />
		<tag k="place" v="farm" />
		<tag k="ssr:stedsnr" v="481217" />
	</node>
	<node id="-844662" lat="68.9897388915" lon="18.5698888738">
		<tag k="name" v="Brandbu" />
		<tag k="place" v="isolated_dwelling" />
		<tag k="ssr:stedsnr" v="779524" />
	</node>
	<node id="-842613" lat="68.8403444415" lon="18.4826333209">
		<tag k="historic" v="shieling" />
		<tag k="name" v="Sætra" />
		<tag k="place" v="locality" />
		<tag k="ssr:stedsnr" v="481208" />
	</node>
	<node id="-842609" lat="69.0037750002" lon="18.4574000067">
		<tag k="name" v="Ranum" />
		<tag k="place" v="farm" />
		<tag k="ssr:stedsnr" v="479988" />
	</node>
	<node id="-842602" lat="68.6548750021" lon="18.1973944292">
		<tag k="name" v="Rydningen" />
		<tag k="place" v="farm" />
		<tag k="ssr:stedsnr" v="479893" />
	</node>
	<node id="-844647" lat="68.7251000026" lon="18.0901222301">
		<tag k="name" v="Lyngmo" />
		<tag k="place" v="farm" />
		<tag k="ssr:stedsnr" v="746640" />
	</node>
	<node id="-844646" lat="68.7192277762" lon="18.1041833221">
		<tag k="name" v="Skogstad" />
		<tag k="place" v="farm" />
		<tag k="ssr:stedsnr" v="746637" />
	</node>
	<node id="-842595" lat="68.780716664" lon="18.1909388839">
		<tag k="name" v="Nyheim" />
		<tag k="place" v="farm" />
		<tag k="ssr:stedsnr" v="479617" />
	</node>
	<node id="-844639" lat="68.8435833332" lon="18.411725004">
		<tag k="name" v="Steirud" />
		<tag k="place" v="farm" />
		<tag k="ssr:stedsnr" v="746543" />
	</node>
	<node id="-844635" lat="68.8245222216" lon="18.4690583315">
		<tag k="alt_name" v="Kjølhaug" />
		<tag k="name" v="Kjøllhaug" />
		<tag k="place" v="farm" />
		<tag k="ssr:stedsnr" v="746494" />
	</node>
	<node id="-842585" lat="68.8366305561" lon="18.399025002">
		<tag k="name" v="Stensrud" />
		<tag k="place" v="farm" />
		<tag k="ssr:stedsnr" v="479428" />
	</node>
	<node id="-844625" lat="68.9870083354" lon="18.5185500056">
		<tag k="name" v="Finnkroken" />
		<tag k="place" v="farm" />
		<tag k="ssr:stedsnr" v="745631" />
	</node>
	<node id="-842573" lat="68.823213892" lon="18.4274305513">
		<tag k="name" v="Dypdal" />
		<tag k="place" v="farm" />
		<tag k="ssr:stedsnr" v="479041" />
	</node>
	<node id="-842572" lat="68.8881444458" lon="18.3349111112">
		<tag k="name" v="Seljehaug" />
		<tag k="place" v="farm" />
		<tag k="ssr:stedsnr" v="479038" />
	</node>
	<node id="-842571" lat="68.8201305517" lon="18.4449360995">
		<tag k="name" v="Bjørkan" />
		<tag k="place" v="farm" />
		<tag k="ssr:stedsnr" v="479018" />
	</node>
	<node id="-844617" lat="68.7926805512" lon="18.510633338">
		<tag k="name" v="Karlstad" />
		<tag k="place" v="farm" />
		<tag k="ssr:stedsnr" v="745447" />
	</node>
	<node id="-843915" lat="68.7302972227" lon="18.6589750028">
		<tag k="name" v="Strømset" />
		<tag k="place" v="isolated_dwelling" />
		<tag k="ssr:stedsnr" v="200498" />
	</node>
	<node id="-842558" lat="68.8333416645" lon="18.2600805484">
		<tag k="name" v="Sørhus" />
		<tag k="place" v="farm" />
		<tag k="ssr:stedsnr" v="299263" />
	</node>
	<node id="-842556" lat="68.7667777783" lon="18.5379638747">
		<tag k="name" v="Øygård" />
		<tag k="place" v="farm" />
		<tag k="ssr:stedsnr" v="299216" />
	</node>
	<node id="-842555" lat="68.9644805526" lon="18.4785222163">
		<tag k="name" v="Fosslund" />
		<tag k="place" v="farm" />
		<tag k="ssr:stedsnr" v="299207" />
	</node>
	<node id="-844597" lat="68.7857833346" lon="18.2305722263">
		<tag k="historic" v="shieling" />
		<tag k="name" v="Liveltsætra" />
		<tag k="place" v="locality" />
		<tag k="ssr:stedsnr" v="632543" />
	</node>
	<node id="-844596" lat="69.00887222" lon="18.4761861176">
		<tag k="name" v="Slåttmoen" />
		<tag k="place" v="farm" />
		<tag k="ssr:stedsnr" v="625943" />
	</node>
	<node id="-844595" lat="69.0151009624" lon="18.4824411283">
		<tag k="name" v="Sundheim" />
		<tag k="place" v="farm" />
		<tag k="ssr:stedsnr" v="625934" />
	</node>
	<node id="-844594" lat="69.0006000017" lon="18.4469110947">
		<tag k="alt_name" v="Bjørnsmo" />
		<tag k="name" v="Bjørnsmoen" />
		<tag k="place" v="farm" />
		<tag k="ssr:stedsnr" v="625909" />
	</node>
	<node id="-844593" lat="69.0297805598" lon="18.5495527739">
		<tag k="name" v="Åsen" />
		<tag k="place" v="farm" />
		<tag k="ssr:stedsnr" v="624916" />
	</node>
	<node id="-844592" lat="69.0296249995" lon="18.5350111099">
		<tag k="name" v="Evjan" />
		<tag k="place" v="farm" />
		<tag k="ssr:stedsnr" v="624914" />
	</node>
	<node id="-844590" lat="68.7368305538" lon="18.5569138843">
		<tag k="alt_name" v="Myhre" />
		<tag k="name" v="Myre" />
		<tag k="place" v="farm" />
		<tag k="ssr:stedsnr" v="624666" />
	</node>
	<node id="-842541" lat="68.7455666685" lon="18.6268999922">
		<tag k="name" v="Solvang" />
		<tag k="place" v="farm" />
		<tag k="ssr:stedsnr" v="297603" />
	</node>
	<node id="-844587" lat="68.966844447" lon="18.4840527793">
		<tag k="name" v="Nordli" />
		<tag k="place" v="isolated_dwelling" />
		<tag k="ssr:stedsnr" v="624648" />
	</node>
	<node id="-842537" lat="68.8856916695" lon="18.4198194354">
		<tag k="alt_name" v="Krogstad" />
		<tag k="name" v="Krokstad" />
		<tag k="place" v="farm" />
		<tag k="ssr:stedsnr" v="260631" />
	</node>
	<node id="-844582" lat="68.9011250039" lon="18.4001083323">
		<tag k="alt_name" v="Moen, nedre" />
		<tag k="name" v="Moen" />
		<tag k="place" v="farm" />
		<tag k="ssr:stedsnr" v="624595" />
	</node>
	<node id="-842533" lat="68.8914666655" lon="18.4170805513">
		<tag k="alt_name" v="Nysted, s" />
		<tag k="name" v="Søndre Nysted" />
		<tag k="old_name" v="Nysted" />
		<tag k="place" v="farm" />
		<tag k="ssr:stedsnr" v="260617" />
	</node>
	<node id="-844575" lat="68.8259666704" lon="18.1694444454">
		<tag k="name" v="Nerum" />
		<tag k="place" v="farm" />
		<tag k="ssr:stedsnr" v="624551" />
	</node>
	<node id="-844574" lat="68.8186638878" lon="18.2677194484">
		<tag k="name" v="Sørskogen" />
		<tag k="place" v="farm" />
		<tag k="ssr:stedsnr" v="624547" />
	</node>
	<node id="-844572" lat="68.8655416646" lon="18.1025249937">
		<tag k="name" v="Voll" />
		<tag k="place" v="farm" />
		<tag k="ssr:stedsnr" v="624516" />
	</node>
	<node id="-842523" lat="68.7846111093" lon="18.1564694429">
		<tag k="name" v="Strømskroken" />
		<tag k="place" v="farm" />
		<tag k="ssr:stedsnr" v="447188" />
	</node>
	<node id="-844570" lat="68.8610166689" lon="18.0841416527">
		<tag k="name" v="Mæleng" />
		<tag k="place" v="farm" />
		<tag k="ssr:stedsnr" v="624505" />
	</node>
	<node id="-844567" lat="68.8253000004" lon="18.5253083394">
		<tag k="name" v="Berglund" />
		<tag k="place" v="farm" />
		<tag k="ssr:stedsnr" v="624492" />
	</node>
	<node id="-844566" lat="68.826025" lon="18.4351972147">
		<tag k="name" v="Bostad" />
		<tag k="place" v="farm" />
		<tag k="ssr:stedsnr" v="624490" />
	</node>
	<node id="-844565" lat="68.6612527772" lon="18.7691472183">
		<tag k="alt_name" v="Stenhaugen" />
		<tag k="name" v="Steinhaugen" />
		<tag k="place" v="locality" />
		<tag k="ssr:stedsnr" v="624488" />
	</node>
	<node id="-842513" lat="69.020533335" lon="18.4874944279">
		<tag k="name" v="Øverli" />
		<tag k="place" v="farm" />
		<tag k="ssr:stedsnr" v="443929" />
	</node>
	<node id="-844560" lat="68.7969388845" lon="18.5040861134">
		<tag k="name" v="Elvestad" />
		<tag k="place" v="farm" />
		<tag k="ssr:stedsnr" v="624468" />
	</node>
	<node id="-844589" lat="68.7387222235" lon="18.5507305562">
		<tag k="name" v="Brubakken" />
		<tag k="place" v="farm" />
		<tag k="ssr:stedsnr" v="624663" />
	</node>
	<node id="-844550" lat="68.6961416643" lon="18.1079833284">
		<tag k="name" v="Fagerlund" />
		<tag k="place" v="farm" />
		<tag k="ssr:stedsnr" v="624365" />
	</node>
	<node id="-844547" lat="68.6300916673" lon="18.2310055414">
		<tag k="name" v="Hølvangen" />
		<tag k="place" v="locality" />
		<tag k="ssr:stedsnr" v="624316" />
	</node>
	<node id="-844543" lat="68.6556222225" lon="18.1938499923">
		<tag k="name" v="Holtvang" />
		<tag k="place" v="farm" />
		<tag k="ssr:stedsnr" v="624292" />
	</node>
	<node id="-842487" lat="68.482963892" lon="19.7223277754">
		<tag k="name" v="Leinavasstua" />
		<tag k="place" v="isolated_dwelling" />
		<tag k="ssr:stedsnr" v="443058" />
	</node>
	<node id="-842486" lat="68.731450001" lon="18.5557583274">
		<tag k="name" v="Kjærland" />
		<tag k="place" v="farm" />
		<tag k="ssr:stedsnr" v="442683" />
	</node>
	<node id="-842485" lat="68.7345361081" lon="18.5563249969">
		<tag k="alt_name" v="Luneng" />
		<tag k="name" v="Lundeng" />
		<tag k="place" v="farm" />
		<tag k="ssr:stedsnr" v="442678" />
	</node>
	<node id="-842476" lat="68.8445027785" lon="18.2453583322">
		<tag k="name" v="Nordberg" />
		<tag k="place" v="farm" />
		<tag k="ssr:stedsnr" v="442542" />
	</node>
	<node id="-842473" lat="68.8565916681" lon="18.3005166654">
		<tag k="name" v="Sæternes" />
		<tag k="place" v="farm" />
		<tag k="ssr:stedsnr" v="442523" />
	</node>
	<node id="-842468" lat="68.8033194465" lon="18.5263361139">
		<tag k="name" v="Kaldbekken" />
		<tag k="place" v="farm" />
		<tag k="ssr:stedsnr" v="442488" />
	</node>
	<node id="-842466" lat="68.8142222236" lon="18.4732722292">
		<tag k="name" v="Haugland" />
		<tag k="place" v="farm" />
		<tag k="ssr:stedsnr" v="442476" />
	</node>
	<node id="-842464" lat="68.8031416635" lon="18.5392861155">
		<tag k="name" v="Bangen" />
		<tag k="place" v="farm" />
		<tag k="ssr:stedsnr" v="442463" />
	</node>
	<node id="-842454" lat="68.710141666" lon="18.4869722171">
		<tag k="name" v="Melhussætra" />
		<tag k="place" v="isolated_dwelling" />
		<tag k="ssr:stedsnr" v="442365" />
	</node>
	<node id="-844490" lat="68.8091194485" lon="18.5121388836">
		<tag k="name" v="Nordmo" />
		<tag k="place" v="farm" />
		<tag k="ssr:stedsnr" v="602135" />
	</node>
	<node id="-844482" lat="68.8266333298" lon="18.5185888851">
		<tag k="name" v="Nordstad" />
		<tag k="place" v="farm" />
		<tag k="ssr:stedsnr" v="602258" />
	</node>
	<node id="-842430" lat="69.0075833354" lon="18.5328416613">
		<tag k="name" v="Brandli" />
		<tag k="place" v="farm" />
		<tag k="ssr:stedsnr" v="297968" />
	</node>
	<node id="-842527" lat="68.7833833359" lon="18.2326055632">
		<tag k="historic" v="shieling" />
		<tag k="name" v="Karlstadsætra" />
		<tag k="place" v="locality" />
		<tag k="ssr:stedsnr" v="453598" />
	</node>
	<node id="-844471" lat="69.0021083296" lon="18.4514555413">
		<tag k="name" v="Svendsvoll" />
		<tag k="place" v="farm" />
		<tag k="ssr:stedsnr" v="600988" />
	</node>
	<node id="-844462" lat="68.9934916644" lon="18.5276222166">
		<tag k="name" v="Lystad" />
		<tag k="place" v="farm" />
		<tag k="ssr:stedsnr" v="600885" />
	</node>
	<node id="-842410" lat="68.8302861089" lon="18.4286222244">
		<tag k="name" v="Strømstad" />
		<tag k="place" v="farm" />
		<tag k="ssr:stedsnr" v="297428" />
	</node>
	<node id="-842407" lat="68.9186361126" lon="18.4219805397">
		<tag k="name" v="Altun" />
		<tag k="place" v="farm" />
		<tag k="ssr:stedsnr" v="297185" />
	</node>
	<node id="-844452" lat="68.8571194419" lon="18.3959472205">
		<tag k="name" v="Granstua" />
		<tag k="place" v="farm" />
		<tag k="ssr:stedsnr" v="600142" />
	</node>
	<node id="-844449" lat="68.88009722" lon="18.3965805426">
		<tag k="historic" v="shieling" />
		<tag k="name" v="Jevningsætra" />
		<tag k="place" v="locality" />
		<tag k="ssr:stedsnr" v="600073" />
	</node>
	<node id="-842373" lat="68.8271305556" lon="18.457388876">
		<tag k="name" v="Fossheim" />
		<tag k="place" v="farm" />
		<tag k="ssr:stedsnr" v="200509" />
	</node>
	<node id="-844419" lat="69.0038222226" lon="18.4621416606">
		<tag k="alt_name" v="Skoelvli" />
		<tag k="name" v="Skoelvlia" />
		<tag k="place" v="farm" />
		<tag k="ssr:stedsnr" v="564924" />
	</node>
	<node id="-842365" lat="68.8620194477" lon="18.0851277811">
		<tag k="fixme" v="consider place=hamlet" />
		<tag k="name" v="Leirbekkmoen" />
		<tag k="place" v="farm" />
		<tag k="ssr:stedsnr" v="199510" />
	</node>
	<node id="-844412" lat="68.9478194427" lon="18.4670083168">
		<tag k="name" v="Blomli" />
		<tag k="place" v="isolated_dwelling" />
		<tag k="ssr:stedsnr" v="563702" />
	</node>
	<node id="-844410" lat="68.9609499998" lon="18.4986416542">
		<tag k="name" v="Fjellstad" />
		<tag k="place" v="farm" />
		<tag k="ssr:stedsnr" v="563681" />
	</node>
	<node id="-844409" lat="68.9712555543" lon="18.3393527694">
		<tag k="alt_name" v="Åssetra" />
		<tag k="name" v="Åssætra" />
		<tag k="place" v="isolated_dwelling" />
		<tag k="ssr:stedsnr" v="563670" />
	</node>
	<node id="-844407" lat="68.9732527738" lon="18.3264916625">
		<tag k="name" v="Kampenhytta" />
		<tag k="place" v="isolated_dwelling" />
		<tag k="ssr:stedsnr" v="563664" />
	</node>
	<node id="-844404" lat="68.738483337" lon="18.1137749876">
		<tag k="alt_name" v="Bratli" />
		<tag k="name" v="Brattli" />
		<tag k="place" v="isolated_dwelling" />
		<tag k="ssr:stedsnr" v="563636" />
	</node>
	<node id="-842324" lat="68.6969305559" lon="18.0565861053">
		<tag k="name" v="Salangsdalen" />
		<tag k="place" v="farm" />
		<tag k="ssr:stedsnr" v="265392" />
	</node>
	<node id="-844397" lat="68.8882972225" lon="18.3595777629">
		<tag k="name" v="Høgda" />
		<tag k="place" v="farm" />
		<tag k="ssr:stedsnr" v="563584" />
	</node>
	<node id="-844393" lat="68.8269388883" lon="18.1674083218">
		<tag k="name" v="Nergård" />
		<tag k="place" v="farm" />
		<tag k="ssr:stedsnr" v="563528" />
	</node>
	<node id="-844392" lat="68.838538888" lon="18.1444138899">
		<tag k="name" v="Krokseng" />
		<tag k="place" v="farm" />
		<tag k="ssr:stedsnr" v="563520" />
	</node>
	<node id="-844391" lat="68.8517333316" lon="18.3807722245">
		<tag k="landuse" v="military" />
		<tag k="name" v="Nesmoen" />
		<tag k="ssr:stedsnr" v="563496" />
	</node>
	<node id="-844389" lat="68.8153305524" lon="18.4704416514">
		<tag k="name" v="Haugen" />
		<tag k="place" v="farm" />
		<tag k="ssr:stedsnr" v="563484" />
	</node>
	<node id="-844387" lat="68.6588166634" lon="18.8124388715">
		<tag k="name" v="Innset" />
		<tag k="place" v="hamlet" />
		<tag k="ssr:stedsnr" v="563474" />
	</node>
	<node id="-844384" lat="68.8134305563" lon="18.5229527614">
		<tag k="name" v="Nybråten" />
		<tag k="place" v="farm" />
		<tag k="ssr:stedsnr" v="563464" />
	</node>
	<node id="-844374" lat="68.7701388885" lon="18.5274694397">
		<tag k="name" v="Øystad" />
		<tag k="place" v="farm" />
		<tag k="ssr:stedsnr" v="563433" />
	</node>
	<node id="-844372" lat="68.7500583333" lon="18.5652249901">
		<tag k="name" v="Årnes" />
		<tag k="place" v="farm" />
		<tag k="ssr:stedsnr" v="563411" />
	</node>
	<node id="-844371" lat="68.7585138894" lon="18.5841055407">
		<tag k="name" v="Mogård" />
		<tag k="place" v="farm" />
		<tag k="ssr:stedsnr" v="563405" />
	</node>
	<node id="-842318" lat="68.8598666656" lon="18.157877772">
		<tag k="historic" v="shieling" />
		<tag k="name" v="Leirbekkmosætra" />
		<tag k="place" v="locality" />
		<tag k="ssr:stedsnr" v="117332" />
	</node>
	<node id="-844557" lat="68.658786108" lon="19.1203360905">
		<tag k="fixme" v="consider tourism=alpine_hut or tourism=chalet" />
		<tag k="name" v="Gaskashytta" />
		<tag k="ssr:stedsnr" v="624463" />
		<tag k="tourism" v="wilderness_hut" />
	</node>
	<node id="-842316" lat="68.8258611085" lon="18.1819972187">
		<tag k="amenity" v="school" />
		<tag k="name" v="Fredly skole" />
		<tag k="ssr:stedsnr" v="117309" />
	</node>
	<node id="-844359" lat="68.7584194478" lon="18.6491083361">
		<tag k="name" v="Øveråssætra" />
		<tag k="place" v="isolated_dwelling" />
		<tag k="ssr:stedsnr" v="563268" />
	</node>
	<node id="-842308" lat="68.7211972256" lon="18.5380027665">
		<tag k="name" v="Langjordløa" />
		<tag k="place" v="locality" />
		<tag k="ssr:stedsnr" v="117105" />
	</node>
	<node id="-842304" lat="68.6418805545" lon="18.2450916557">
		<tag k="name" v="Bjørkmo" />
		<tag k="place" v="farm" />
		<tag k="ssr:stedsnr" v="115933" />
	</node>
	<node id="-842288" lat="69.0288388891" lon="18.5690472118">
		<tag k="name" v="Tverås" />
		<tag k="place" v="farm" />
		<tag k="ssr:stedsnr" v="111906" />
	</node>
	<node id="-842281" lat="68.945280553" lon="18.4964055579">
		<tag k="alt_name" v="Strandsetra" />
		<tag k="name" v="Strandsætra" />
		<tag k="place" v="isolated_dwelling" />
		<tag k="ssr:stedsnr" v="260705" />
	</node>
	<node id="-842278" lat="68.9160305557" lon="18.42889167">
		<tag k="name" v="Utby" />
		<tag k="place" v="farm" />
		<tag k="ssr:stedsnr" v="260589" />
	</node>
	<node id="-842273" lat="68.8762111129" lon="18.4482194421">
		<tag k="name" v="Krokstadsætra" />
		<tag k="place" v="isolated_dwelling" />
		<tag k="ssr:stedsnr" v="260534" />
	</node>
	<node id="-842269" lat="68.8164249973" lon="18.469608336">
		<tag k="alt_name" v="Haugseth" />
		<tag k="name" v="Haugset" />
		<tag k="place" v="farm" />
		<tag k="ssr:stedsnr" v="260523" />
	</node>
	<node id="-842268" lat="68.6780055522" lon="18.7554583153">
		<tag k="name" v="Hanstad" />
		<tag k="place" v="farm" />
		<tag k="ssr:stedsnr" v="260520" />
	</node>
	<node id="-842267" lat="68.8157444445" lon="18.4516944462">
		<tag k="alt_name" v="Viken" />
		<tag k="name" v="Vika" />
		<tag k="place" v="farm" />
		<tag k="ssr:stedsnr" v="260518" />
	</node>
	<node id="-844311" lat="68.9853055557" lon="18.427827777">
		<tag k="historic" v="shieling" />
		<tag k="name" v="Tillergamma" />
		<tag k="place" v="locality" />
		<tag k="ssr:stedsnr" v="541990" />
	</node>
	<node id="-842262" lat="68.7884750033" lon="18.5547333205">
		<tag k="name" v="Øytangen" />
		<tag k="place" v="farm" />
		<tag k="ssr:stedsnr" v="260490" />
	</node>
	<node id="-844308" lat="68.8096388921" lon="18.1850722302">
		<tag k="fixme" v="consider place=hamlet" />
		<tag k="name" v="Bardu bygdetun" />
		<tag k="place" v="village" />
		<tag k="ssr:stedsnr" v="542278" />
	</node>
	<node id="-842258" lat="68.7955416689" lon="18.553955556">
		<tag k="name" v="Nylund" />
		<tag k="place" v="farm" />
		<tag k="ssr:stedsnr" v="260480" />
	</node>
	<node id="-842499" lat="68.8327416634" lon="18.4077500046">
		<tag k="name" v="Asplund" />
		<tag k="place" v="isolated_dwelling" />
		<tag k="ssr:stedsnr" v="443547" />
	</node>
	<node id="-844297" lat="69.0117250001" lon="18.4810972083">
		<tag k="name" v="Elvemo" />
		<tag k="place" v="farm" />
		<tag k="ssr:stedsnr" v="540749" />
	</node>
	<node id="-842246" lat="68.8393027742" lon="18.6559861016">
		<tag k="name" v="Hasvollsætra" />
		<tag k="place" v="locality" />
		<tag k="ssr:stedsnr" v="260342" />
	</node>
	<node id="-842232" lat="68.7023666675" lon="18.1119000019">
		<tag k="alt_name" v="Lund Søndre" />
		<tag k="name" v="Lund" />
		<tag k="place" v="farm" />
		<tag k="ssr:stedsnr" v="260674" />
	</node>
	<node id="-844278" lat="68.7816361129" lon="18.1912694387">
		<tag k="name" v="Fossli" />
		<tag k="place" v="farm" />
		<tag k="ssr:stedsnr" v="539476" />
	</node>
	<node id="-842227" lat="68.7762194473" lon="18.1602416619">
		<tag k="name" v="Dalseth" />
		<tag k="place" v="farm" />
		<tag k="ssr:stedsnr" v="252454" />
	</node>
	<node id="-842225" lat="68.7816027825" lon="18.157158327">
		<tag k="name" v="Strømskroken" />
		<tag k="place" v="hamlet" />
		<tag k="ssr:stedsnr" v="83204" />
	</node>
	<node id="-842222" lat="68.7799916629" lon="18.1830527666">
		<tag k="name" v="Sjurheim" />
		<tag k="place" v="farm" />
		<tag k="ssr:stedsnr" v="71534" />
	</node>
	<node id="-842215" lat="68.7587111084" lon="18.5640749961">
		<tag k="name" v="Brubakk" />
		<tag k="place" v="farm" />
		<tag k="ssr:stedsnr" v="239186" />
	</node>
	<node id="-844253" lat="68.8928583323" lon="18.3081944401">
		<tag k="historic" v="shieling" />
		<tag k="name" v="Høydsætra" />
		<tag k="place" v="locality" />
		<tag k="ssr:stedsnr" v="421364" />
	</node>
	<node id="-844247" lat="68.767097218" lon="18.5303583303">
		<tag k="name" v="Øylund" />
		<tag k="place" v="farm" />
		<tag k="ssr:stedsnr" v="421185" />
	</node>
	<node id="-844242" lat="68.8405972251" lon="18.4947305431">
		<tag k="historic" v="shieling" />
		<tag k="name" v="Kjølhaugsætra" />
		<tag k="place" v="locality" />
		<tag k="ssr:stedsnr" v="421173" />
	</node>
	<node id="-842193" lat="68.890552781" lon="18.3060111174">
		<tag k="historic" v="shieling" />
		<tag k="name" v="Mosætra" />
		<tag k="place" v="locality" />
		<tag k="ssr:stedsnr" v="57361" />
	</node>
	<node id="-842192" lat="68.8127861092" lon="18.5007527751">
		<tag k="name" v="Skogtun" />
		<tag k="place" v="farm" />
		<tag k="ssr:stedsnr" v="238148" />
	</node>
	<node id="-844237" lat="68.8652388863" lon="18.367786115">
		<tag k="name" v="Steiland" />
		<tag k="place" v="farm" />
		<tag k="ssr:stedsnr" v="421133" />
	</node>
	<node id="-842167" lat="68.896947221" lon="18.3939250059">
		<tag k="name" v="Nordeng" />
		<tag k="place" v="farm" />
		<tag k="ssr:stedsnr" v="54220" />
	</node>
	<node id="-842161" lat="68.6951750026" lon="18.1098666545">
		<tag k="fixme" v="consider place=hamlet" />
		<tag k="name" v="Lund Nordre" />
		<tag k="place" v="farm" />
		<tag k="ssr:stedsnr" v="52412" />
	</node>
	<node id="-842159" lat="68.8462111077" lon="18.1160861168">
		<tag k="name" v="Valør" />
		<tag k="place" v="farm" />
		<tag k="ssr:stedsnr" v="52261" />
	</node>
	<node id="-842158" lat="68.8638222189" lon="18.0906860954">
		<tag k="name" v="Bakke" />
		<tag k="place" v="farm" />
		<tag k="ssr:stedsnr" v="52169" />
	</node>
	<node id="-842146" lat="69.0293666678" lon="18.5569888897">
		<tag k="name" v="Nephagen" />
		<tag k="place" v="farm" />
		<tag k="ssr:stedsnr" v="50971" />
	</node>
	<node id="-842134" lat="68.8442694435" lon="18.2557749882">
		<tag k="name" v="Høghaug" />
		<tag k="place" v="farm" />
		<tag k="ssr:stedsnr" v="236634" />
	</node>
	<node id="-844179" lat="69.0301111133" lon="18.5426500064">
		<tag k="name" v="Åsgård" />
		<tag k="place" v="farm" />
		<tag k="ssr:stedsnr" v="414960" />
	</node>
	<node id="-844170" lat="68.9718944407" lon="18.4922277778">
		<tag k="name" v="Roland" />
		<tag k="place" v="farm" />
		<tag k="ssr:stedsnr" v="388097" />
	</node>
	<node id="-842119" lat="68.8372750011" lon="18.4001166657">
		<tag k="name" v="Aspevoll" />
		<tag k="place" v="farm" />
		<tag k="ssr:stedsnr" v="236410" />
	</node>
	<node id="-842118" lat="68.8373972272" lon="18.4092916539">
		<tag k="name" v="Steiro" />
		<tag k="place" v="farm" />
		<tag k="ssr:stedsnr" v="236409" />
	</node>
	<node id="-844165" lat="68.9010166648" lon="18.4243583351">
		<tag k="name" v="Østli" />
		<tag k="place" v="isolated_dwelling" />
		<tag k="ssr:stedsnr" v="382591" />
	</node>
	<node id="-842115" lat="68.6576583319" lon="18.4852527664">
		<tag k="historic" v="shieling" />
		<tag k="name" v="Sørgårdsætra" />
		<tag k="place" v="locality" />
		<tag k="ssr:stedsnr" v="236400" />
	</node>
	<node id="-844161" lat="68.9058472205" lon="18.4279583302">
		<tag k="name" v="Østhagen" />
		<tag k="place" v="farm" />
		<tag k="ssr:stedsnr" v="382569" />
	</node>
	<node id="-842112" lat="68.9224000048" lon="18.4382972116">
		<tag k="name" v="Haug" />
		<tag k="place" v="farm" />
		<tag k="ssr:stedsnr" v="236197" />
	</node>
	<node id="-844157" lat="68.8204333377" lon="18.1756861121">
		<tag k="name" v="Nygård" />
		<tag k="place" v="farm" />
		<tag k="ssr:stedsnr" v="382545" />
	</node>
	<node id="-844156" lat="68.8284999974" lon="18.4773194508">
		<tag k="name" v="Haugås" />
		<tag k="place" v="farm" />
		<tag k="ssr:stedsnr" v="382495" />
	</node>
	<node id="-844155" lat="68.8274750007" lon="18.5148722281">
		<tag k="name" v="Nordhus" />
		<tag k="place" v="farm" />
		<tag k="ssr:stedsnr" v="382493" />
	</node>
	<node id="-844154" lat="68.8273416667" lon="18.4554277631">
		<tag k="name" v="Fossland" />
		<tag k="place" v="farm" />
		<tag k="ssr:stedsnr" v="382488" />
	</node>
	<node id="-844153" lat="68.6594388912" lon="18.8035500056">
		<tag k="alt_name" v="Innset, øvre" />
		<tag k="name" v="Øvre Innset" />
		<tag k="place" v="isolated_dwelling" />
		<tag k="ssr:stedsnr" v="382485" />
	</node>
	<node id="-842095" lat="68.7932249995" lon="18.1015638945">
		<tag k="historic" v="shieling" />
		<tag k="name" v="Fjellheim" />
		<tag k="place" v="locality" />
		<tag k="ssr:stedsnr" v="233381" />
	</node>
	<node id="-844142" lat="68.6604416676" lon="18.5609416664">
		<tag k="name" v="Sørmo" />
		<tag k="place" v="farm" />
		<tag k="ssr:stedsnr" v="382280" />
	</node>
	<node id="-844139" lat="68.6614749986" lon="18.5611749882">
		<tag k="name" v="Soltun" />
		<tag k="place" v="farm" />
		<tag k="ssr:stedsnr" v="382273" />
	</node>
	<node id="-842085" lat="68.7328792302" lon="18.0910243694">
		<tag k="fixme" v="consider place=hamlet" />
		<tag k="name" v="Sollia" />
		<tag k="place" v="farm" />
		<tag k="ssr:stedsnr" v="18626" />
	</node>
	<node id="-842084" lat="68.7301833348" lon="18.0918805432">
		<tag k="alt_name" v="Engmoen" />
		<tag k="name" v="Engmo" />
		<tag k="place" v="farm" />
		<tag k="ssr:stedsnr" v="18624" />
	</node>
	<node id="-842081" lat="68.8300333372" lon="18.1753583204">
		<tag k="alt_name" v="Brandvoll, nordre" />
		<tag k="name" v="Nordre Brandvoll" />
		<tag k="place" v="farm" />
		<tag k="ssr:stedsnr" v="18520" />
	</node>
	<node id="-844127" lat="68.9729083379" lon="18.493563875">
		<tag k="name" v="Bjørnsund" />
		<tag k="place" v="farm" />
		<tag k="ssr:stedsnr" v="381669" />
	</node>
	<node id="-842076" lat="68.8219527813" lon="18.5021999905">
		<tag k="name" v="Haugjorda" />
		<tag k="place" v="isolated_dwelling" />
		<tag k="ssr:stedsnr" v="17512" />
	</node>
	<node id="-842075" lat="68.8155888923" lon="18.44960278">
		<tag k="name" v="Vikland" />
		<tag k="place" v="farm" />
		<tag k="ssr:stedsnr" v="17509" />
	</node>
	<node id="-844121" lat="68.9184150393" lon="18.4206418366">
		<tag k="name" v="Sommervoll" />
		<tag k="place" v="farm" />
		<tag k="ssr:stedsnr" v="381566" />
	</node>
	<node id="-842068" lat="68.6393444459" lon="18.2404555403">
		<tag k="alt_name" v="Bonnås" />
		<tag k="name" v="Bonås" />
		<tag k="place" v="farm" />
		<tag k="ssr:stedsnr" v="17336" />
	</node>
	<node id="-842066" lat="68.8883972208" lon="18.3575777735">
		<tag k="name" v="Høiden" />
		<tag k="place" v="farm" />
		<tag k="ssr:stedsnr" v="222512" />
	</node>
	<node id="-844103" lat="68.7002333379" lon="18.556072214">
		<tag k="name" v="Løkstad" />
		<tag k="place" v="farm" />
		<tag k="ssr:stedsnr" v="381374" />
	</node>
	<node id="-844101" lat="68.7035527736" lon="18.3986861063">
		<tag k="name" v="Holtet" />
		<tag k="place" v="locality" />
		<tag k="ssr:stedsnr" v="381371" />
	</node>
	<node id="-844100" lat="68.6956361068" lon="18.097391669">
		<tag k="name" v="Øverland" />
		<tag k="place" v="farm" />
		<tag k="ssr:stedsnr" v="381364" />
	</node>
	<node id="-844099" lat="68.7160555594" lon="18.5497444479">
		<tag k="name" v="Melhus" />
		<tag k="place" v="farm" />
		<tag k="ssr:stedsnr" v="381351" />
	</node>
	<node id="-844089" lat="68.7413166665" lon="18.6478166531">
		<tag k="alt_name" v="Strømsli" />
		<tag k="name" v="Strømslia" />
		<tag k="place" v="farm" />
		<tag k="ssr:stedsnr" v="381296" />
	</node>
	<node id="-844071" lat="68.7673138859" lon="18.5268500037">
		<tag k="name" v="Øyer" />
		<tag k="place" v="farm" />
		<tag k="ssr:stedsnr" v="360169" />
	</node>
	<node id="-844166" lat="68.7456722184" lon="18.5409222227">
		<tag k="name" v="Lunde" />
		<tag k="place" v="farm" />
		<tag k="ssr:stedsnr" v="382611" />
	</node>
	<node id="-844062" lat="68.675730558" lon="18.767638873">
		<tag k="name" v="Inset Nedre" />
		<tag k="place" v="farm" />
		<tag k="ssr:stedsnr" v="359929" />
	</node>
	<node id="-844039" lat="68.8809222257" lon="18.4006388872">
		<tag k="historic" v="shieling" />
		<tag k="name" v="Kildalsætra" />
		<tag k="place" v="locality" />
		<tag k="ssr:stedsnr" v="358078" />
	</node>
	<node id="-844160" lat="68.9214861138" lon="18.4383777805">
		<tag k="name" v="Alsgård" />
		<tag k="place" v="isolated_dwelling" />
		<tag k="ssr:stedsnr" v="382556" />
	</node>
	<node id="-844028" lat="68.8925083307" lon="18.383166667">
		<tag k="name" v="Alstad" />
		<tag k="place" v="farm" />
		<tag k="ssr:stedsnr" v="357208" />
	</node>
	<node id="-844007" lat="68.7519027769" lon="18.5279361179">
		<tag k="name" v="Bjørkeng" />
		<tag k="place" v="farm" />
		<tag k="ssr:stedsnr" v="331575" />
	</node>
	<node id="-844002" lat="69.0289027807" lon="18.5622000053">
		<tag k="name" v="Fredheim" />
		<tag k="place" v="farm" />
		<tag k="ssr:stedsnr" v="321905" />
	</node>
	<node id="-843996" lat="68.932633331" lon="18.4555110961">
		<tag k="name" v="Fagertun" />
		<tag k="place" v="farm" />
		<tag k="ssr:stedsnr" v="321648" />
	</node>
	<node id="-843993" lat="68.9549250035" lon="18.4719750007">
		<tag k="name" v="Strand" />
		<tag k="place" v="farm" />
		<tag k="ssr:stedsnr" v="321635" />
	</node>
	<node id="-843984" lat="68.9127194461" lon="18.4105333253">
		<tag k="name" v="Nordheim" />
		<tag k="place" v="isolated_dwelling" />
		<tag k="ssr:stedsnr" v="321536" />
	</node>
	<node id="-843983" lat="68.9199111147" lon="18.4309083344">
		<tag k="name" v="Teigland" />
		<tag k="place" v="farm" />
		<tag k="ssr:stedsnr" v="321535" />
	</node>
	<node id="-843982" lat="68.8380694434" lon="18.245361113">
		<tag k="name" v="Moan" />
		<tag k="place" v="farm" />
		<tag k="ssr:stedsnr" v="321530" />
	</node>
	<node id="-843977" lat="68.866422225" lon="18.3653027728">
		<tag k="alt_name" v="Steien, nedre" />
		<tag k="name" v="Nedre Steien" />
		<tag k="place" v="isolated_dwelling" />
		<tag k="ssr:stedsnr" v="321494" />
	</node>
	<node id="-843970" lat="68.7802027809" lon="18.1585666679">
		<tag k="name" v="Bakkland" />
		<tag k="place" v="farm" />
		<tag k="ssr:stedsnr" v="321437" />
	</node>
	<node id="-843965" lat="68.7618972206" lon="18.5705055497">
		<tag k="alt_name" v="Strømsmoen, nedre" />
		<tag k="fixme" v="multiple name tags, choose one and add the other to alt_name" />
		<tag k="name" v="Strømsmoen;Nedre Strømsmoen" />
		<tag k="place" v="farm" />
		<tag k="ssr:stedsnr" v="321422" />
	</node>
	<node id="-843961" lat="68.7069083322" lon="18.5546388942">
		<tag k="name" v="Løberg" />
		<tag k="place" v="farm" />
		<tag k="ssr:stedsnr" v="321343" />
	</node>
	<node id="-843959" lat="68.6615972221" lon="18.1785111047">
		<tag k="name" v="Strømholt" />
		<tag k="place" v="farm" />
		<tag k="ssr:stedsnr" v="321311" />
	</node>
	<node id="-843934" lat="68.4401888898" lon="19.7831666656">
		<tag k="name" v="Geavdnjajohka-stua" />
		<tag k="place" v="isolated_dwelling" />
		<tag k="ssr:stedsnr" v="320117" />
	</node>
	<node id="-844143" lat="68.6465833336" lon="18.2441944369">
		<tag k="name" v="Bjørktun" />
		<tag k="place" v="farm" />
		<tag k="ssr:stedsnr" v="382284" />
	</node>
	<node id="-843925" lat="68.6599722233" lon="18.2071055573">
		<tag k="name" v="Heim" />
		<tag k="place" v="farm" />
		<tag k="ssr:stedsnr" v="208884" />
	</node>
	<node id="-843920" lat="68.7454611147" lon="18.5398083408">
		<tag k="name" v="Slettskreda" />
		<tag k="place" v="farm" />
		<tag k="ssr:stedsnr" v="200629" />
	</node>
	<node id="-843919" lat="68.7355777778" lon="18.0945166609">
		<tag k="name" v="Solhaug" />
		<tag k="place" v="farm" />
		<tag k="ssr:stedsnr" v="200676" />
	</node>
	<node id="-843917" lat="68.934208336" lon="18.4911055599">
		<tag k="name" v="Vangsætra" />
		<tag k="place" v="isolated_dwelling" />
		<tag k="ssr:stedsnr" v="200670" />
	</node>
	<node id="-842434" lat="69.0055694415" lon="18.4685027748">
		<tag k="name" v="Årseth" />
		<tag k="place" v="farm" />
		<tag k="ssr:stedsnr" v="297980" />
	</node>
	<node id="-843914" lat="68.7201305537" lon="18.658963886">
		<tag k="name" v="Nydal" />
		<tag k="place" v="isolated_dwelling" />
		<tag k="ssr:stedsnr" v="200493" />
	</node>
	<node id="-843910" lat="68.7818666678" lon="18.1582305483">
		<tag k="name" v="Tangen" />
		<tag k="place" v="farm" />
		<tag k="ssr:stedsnr" v="200475" />
	</node>
	<node id="-843905" lat="68.8419194484" lon="18.2442861207">
		<tag k="name" v="Hegge" />
		<tag k="place" v="farm" />
		<tag k="ssr:stedsnr" v="200560" />
	</node>
	<node id="-843903" lat="68.8559777781" lon="18.395908335">
		<tag k="alt_name" v="Steien, øvre" />
		<tag k="name" v="Øvre Steien" />
		<tag k="place" v="farm" />
		<tag k="ssr:stedsnr" v="200540" />
	</node>
	<node id="-843896" lat="68.772002781" lon="18.5263777655">
		<tag k="name" v="Øymoen" />
		<tag k="place" v="farm" />
		<tag k="ssr:stedsnr" v="200440" />
	</node>
	<node id="-843890" lat="68.6898583371" lon="18.5467472081">
		<tag k="name" v="Engstad" />
		<tag k="place" v="farm" />
		<tag k="ssr:stedsnr" v="200324" />
	</node>
	<node id="-843889" lat="68.6864749993" lon="18.5632861025">
		<tag k="name" v="Messelt" />
		<tag k="place" v="isolated_dwelling" />
		<tag k="ssr:stedsnr" v="200323" />
	</node>
	<node id="-843888" lat="68.6817407941" lon="18.5506502436">
		<tag k="name" v="Skjulstad" />
		<tag k="place" v="locality" />
		<tag k="ssr:stedsnr" v="200321" />
	</node>
	<node id="-844571" lat="68.8762666708" lon="18.4531166683">
		<tag k="name" v="Nystedsætra" />
		<tag k="place" v="isolated_dwelling" />
		<tag k="ssr:stedsnr" v="624512" />
	</node>
	<node id="-843877" lat="68.7260722213" lon="18.5534166731">
		<tag k="name" v="Lundberg" />
		<tag k="place" v="farm" />
		<tag k="ssr:stedsnr" v="199676" />
	</node>
	<node id="-843872" lat="68.8034500004" lon="18.5207749935">
		<tag k="alt_name" v="Eggen, øvre" />
		<tag k="fixme" v="multiple name tags, choose one and add the other to alt_name" />
		<tag k="name" v="Eggen;Øvre Eggen" />
		<tag k="place" v="farm" />
		<tag k="ssr:stedsnr" v="199466" />
	</node>
	<node id="-843870" lat="68.8073249957" lon="18.1787416693">
		<tag k="name" v="Jordamo" />
		<tag k="place" v="isolated_dwelling" />
		<tag k="ssr:stedsnr" v="199461" />
	</node>
	<node id="-843860" lat="68.7809722195" lon="18.1552222258">
		<tag k="name" v="Heimtun" />
		<tag k="place" v="farm" />
		<tag k="ssr:stedsnr" v="192532" />
	</node>
	<node id="-843852" lat="68.8322805587" lon="18.2326944397">
		<tag k="name" v="Lian" />
		<tag k="place" v="farm" />
		<tag k="ssr:stedsnr" v="178239" />
	</node>
	<node id="-844129" lat="68.703608335" lon="18.1145138846">
		<tag k="name" v="Kolstad" />
		<tag k="place" v="farm" />
		<tag k="ssr:stedsnr" v="381677" />
	</node>
	<node id="-843833" lat="68.998141664" lon="18.4534861171">
		<tag k="historic" v="shieling" />
		<tag k="name" v="Slåttmosetra" />
		<tag k="place" v="locality" />
		<tag k="ssr:stedsnr" v="176974" />
	</node>
	<node id="-843830" lat="68.653622218" lon="18.2264749955">
		<tag k="name" v="Rønningen" />
		<tag k="place" v="farm" />
		<tag k="ssr:stedsnr" v="176965" />
	</node>
	<node id="-844124" lat="68.977444443" lon="18.520647228">
		<tag k="alt_name" v="Iselvmo" />
		<tag k="name" v="Iselvmoen" />
		<tag k="place" v="farm" />
		<tag k="ssr:stedsnr" v="381657" />
	</node>
	<node id="-843811" lat="68.873980555" lon="18.4436750076">
		<tag k="historic" v="shieling" />
		<tag k="name" v="Jevningsætra" />
		<tag k="place" v="locality" />
		<tag k="ssr:stedsnr" v="176149" />
	</node>
	<node id="-843804" lat="68.952508329" lon="18.4691194389">
		<tag k="name" v="Anset" />
		<tag k="place" v="farm" />
		<tag k="ssr:stedsnr" v="175804" />
	</node>
	<node id="-843799" lat="69.016211107" lon="18.4808305535">
		<tag k="name" v="Bakketun" />
		<tag k="place" v="farm" />
		<tag k="ssr:stedsnr" v="175772" />
	</node>
	<node id="-843798" lat="68.842513892" lon="18.2655083231">
		<tag k="name" v="Lyngstad" />
		<tag k="place" v="farm" />
		<tag k="ssr:stedsnr" v="175680" />
	</node>
	<node id="-843794" lat="68.8452222269" lon="18.1731999906">
		<tag k="historic" v="shieling" />
		<tag k="name" v="Kroksætra" />
		<tag k="place" v="locality" />
		<tag k="ssr:stedsnr" v="175584" />
	</node>
	<node id="-843793" lat="68.8935944439" lon="18.3872472073">
		<tag k="name" v="Kildal" />
		<tag k="place" v="farm" />
		<tag k="ssr:stedsnr" v="175200" />
	</node>
	<node id="-843784" lat="68.8572972213" lon="18.413602772">
		<tag k="historic" v="shieling" />
		<tag k="name" v="Steisætra" />
		<tag k="place" v="locality" />
		<tag k="ssr:stedsnr" v="175115" />
	</node>
	<node id="-843783" lat="68.8580222232" lon="18.4664749873">
		<tag k="name" v="Nordfjellhytta" />
		<tag k="place" v="isolated_dwelling" />
		<tag k="ssr:stedsnr" v="175106" />
	</node>
	<node id="-843780" lat="68.6288472237" lon="18.2026166621">
		<tag k="name" v="Hølvangsætra" />
		<tag k="place" v="locality" />
		<tag k="ssr:stedsnr" v="173110" />
	</node>
</osm>
