<?xml version="1.0" encoding="UTF-8"?>
<osm generator="osmapis" version="0.6">
	<node id="-88063" lat="68.995769448" lon="18.4303333424">
		<tag k="name" v="Johannesmyra" />
		<tag k="natural" v="wetland" />
		<tag k="ssr:stedsnr" v="867634" />
	</node>
	<node id="-87035" lat="69.0124138882" lon="18.4555777779">
		<tag k="name" v="Holtet" />
		<tag k="place" v="locality" />
		<tag k="ssr:stedsnr" v="200924" />
	</node>
	<node id="-86522" lat="68.8403750008" lon="18.4584305502">
		<tag k="name" v="Strøpemyran" />
		<tag k="natural" v="wetland" />
		<tag k="ssr:stedsnr" v="964460" />
	</node>
	<node id="-86015" lat="68.4852750013" lon="19.7805694236">
		<tag k="name" v="Ostojeaggi" />
		<tag k="name:se" v="Ostojeaggi" />
		<tag k="natural" v="wetland" />
		<tag k="ssr:stedsnr" v="503063" />
	</node>
	<node id="-86516" lat="69.0095333308" lon="18.5646249968">
		<tag k="name" v="Vesllimyra" />
		<tag k="natural" v="wetland" />
		<tag k="ssr:stedsnr" v="961524" />
	</node>
	<node id="-87539" lat="69.0339166629" lon="18.5475861052">
		<tag k="name" v="Hestbrunmyra" />
		<tag k="natural" v="wetland" />
		<tag k="ssr:stedsnr" v="596966" />
	</node>
	<node id="-87538" lat="69.0350166655" lon="18.5260611154">
		<tag k="name" v="Johanjordet" />
		<tag k="place" v="locality" />
		<tag k="ssr:stedsnr" v="596962" />
	</node>
	<node id="-87535" lat="68.8188233891" lon="18.2672931194">
		<tag k="name" v="Sørskogen" />
		<tag k="place" v="locality" />
		<tag k="ssr:stedsnr" v="571367" />
	</node>
	<node id="-85995" lat="68.6788388899" lon="18.5510138961">
		<tag k="name" v="Midtjordet" />
		<tag k="place" v="locality" />
		<tag k="ssr:stedsnr" v="481413" />
	</node>
	<node id="-85671" lat="68.7622638855" lon="18.5174527665">
		<tag k="name" v="Skarskredmyra" />
		<tag k="natural" v="wetland" />
		<tag k="ssr:stedsnr" v="299217" />
	</node>
	<node id="-85989" lat="68.940380552" lon="18.4725055471">
		<tag k="name" v="Langsmalmyra" />
		<tag k="natural" v="wetland" />
		<tag k="ssr:stedsnr" v="479802" />
	</node>
	<node id="-85987" lat="68.8208916681" lon="18.3550222219">
		<tag k="name" v="Tygemyran" />
		<tag k="natural" v="wetland" />
		<tag k="ssr:stedsnr" v="479466" />
	</node>
	<node id="-87522" lat="68.9730777766" lon="18.3546360948">
		<tag k="name" v="Åsmyra" />
		<tag k="natural" v="wetland" />
		<tag k="ssr:stedsnr" v="563668" />
	</node>
	<node id="-86011" lat="68.8541722191" lon="18.3087916535">
		<tag k="name" v="Sandøra" />
		<tag k="place" v="locality" />
		<tag k="ssr:stedsnr" v="299397" />
	</node>
	<node id="-85983" lat="68.6878777799" lon="18.1073305608">
		<tag k="name" v="Veslmyra" />
		<tag k="natural" v="wetland" />
		<tag k="ssr:stedsnr" v="476412" />
	</node>
	<node id="-85470" lat="68.8555166678" lon="18.277650005">
		<tag k="name" v="Skjellmyra" />
		<tag k="natural" v="wetland" />
		<tag k="ssr:stedsnr" v="178368" />
	</node>
	<node id="-85469" lat="68.7022805552" lon="18.4073388876">
		<tag k="name" v="Harastenan" />
		<tag k="natural" v="stone" />
		<tag k="ssr:stedsnr" v="178364" />
	</node>
	<node id="-85498" lat="68.8564777762" lon="18.1201222198">
		<tag k="name" v="Tjønnmyra" />
		<tag k="natural" v="wetland" />
		<tag k="ssr:stedsnr" v="294138" />
	</node>
	<node id="-85976" lat="68.8004333348" lon="18.4612861135">
		<tag k="name" v="Låghaugmyra" />
		<tag k="natural" v="wetland" />
		<tag k="ssr:stedsnr" v="663365" />
	</node>
	<node id="-85460" lat="68.8996444412" lon="18.4047916498">
		<tag k="name" v="Melen" />
		<tag k="place" v="locality" />
		<tag k="ssr:stedsnr" v="177189" />
	</node>
	<node id="-86094" lat="68.7095666653" lon="18.3487722198">
		<tag k="name" v="Flåan" />
		<tag k="natural" v="wetland" />
		<tag k="ssr:stedsnr" v="685643" />
	</node>
	<node id="-88018" lat="68.4251500039" lon="19.6723999945">
		<tag k="name" v="Rivgorohtu" />
		<tag k="name:se" v="Rivgorohtu" />
		<tag k="place" v="locality" />
		<tag k="ssr:stedsnr" v="867140" />
	</node>
	<node id="-85967" lat="68.7976777793" lon="18.5489111024">
		<tag k="name" v="Loken" />
		<tag k="natural" v="wetland" />
		<tag k="ssr:stedsnr" v="663211" />
	</node>
	<node id="-85239" lat="68.669044448" lon="18.5694416749">
		<tag k="name" v="Vesljordet" />
		<tag k="place" v="locality" />
		<tag k="ssr:stedsnr" v="236436" />
	</node>
	<node id="-88008" lat="68.7981638871" lon="18.4534861039">
		<tag k="name" v="Storhaugmyra" />
		<tag k="natural" v="wetland" />
		<tag k="ssr:stedsnr" v="846379" />
	</node>
	<node id="-88007" lat="68.9033611113" lon="18.2811777693">
		<tag k="name" v="Storsteinen" />
		<tag k="natural" v="stone" />
		<tag k="ssr:stedsnr" v="846359" />
	</node>
	<node id="-85955" lat="68.8180750018" lon="18.5393833207">
		<tag k="name" v="Blåbergskogen" />
		<tag k="place" v="locality" />
		<tag k="ssr:stedsnr" v="663146" />
	</node>
	<node id="-86603" lat="68.6542027803" lon="18.2170638803">
		<tag k="name" v="Ol-Ivermyra" />
		<tag k="natural" v="wetland" />
		<tag k="ssr:stedsnr" v="26829" />
	</node>
	<node id="-87995" lat="68.8123361114" lon="18.1944583228">
		<tag k="name" v="Øverhaugmyra" />
		<tag k="natural" v="wetland" />
		<tag k="ssr:stedsnr" v="846260" />
	</node>
	<node id="-85434" lat="69.0242138896" lon="18.340261105">
		<tag k="name" v="Storskogen" />
		<tag k="place" v="locality" />
		<tag k="ssr:stedsnr" v="117947" />
	</node>
	<node id="-86968" lat="68.7636111081" lon="18.5647111115">
		<tag k="name" v="Mellom melan" />
		<tag k="place" v="locality" />
		<tag k="ssr:stedsnr" v="178191" />
	</node>
	<node id="-85431" lat="68.8189250014" lon="18.2355499913">
		<tag k="name" v="Kjørdalsmyra" />
		<tag k="natural" v="wetland" />
		<tag k="ssr:stedsnr" v="117319" />
	</node>
	<node id="-86964" lat="68.972702782" lon="18.5045111002">
		<tag k="landuse" v="meadow" />
		<tag k="name" v="Brandmoenget" />
		<tag k="ssr:stedsnr" v="178126" />
	</node>
	<node id="-87986" lat="68.9617277757" lon="18.4838694396">
		<tag k="name" v="Lokmellom" />
		<tag k="place" v="locality" />
		<tag k="ssr:stedsnr" v="846148" />
	</node>
	<node id="-86515" lat="68.9881583362" lon="18.5760916667">
		<tag k="name" v="Ismyra" />
		<tag k="natural" v="wetland" />
		<tag k="ssr:stedsnr" v="961518" />
	</node>
	<node id="-86960" lat="68.7439444444" lon="18.5726277699">
		<tag k="name" v="Storsteinen" />
		<tag k="natural" v="stone" />
		<tag k="ssr:stedsnr" v="178078" />
	</node>
	<node id="-87983" lat="68.7355472184" lon="18.5637361067">
		<tag k="name" v="Nørderåkeren" />
		<tag k="place" v="locality" />
		<tag k="ssr:stedsnr" v="846081" />
	</node>
	<node id="-87982" lat="68.7341083327" lon="18.5633305514">
		<tag k="name" v="Knutåkeren" />
		<tag k="place" v="locality" />
		<tag k="ssr:stedsnr" v="846079" />
	</node>
	<node id="-86957" lat="68.9923638897" lon="18.3699361021">
		<tag k="name" v="Fiskbekkmyra" />
		<tag k="natural" v="wetland" />
		<tag k="ssr:stedsnr" v="177978" />
	</node>
	<node id="-87980" lat="68.7986611141" lon="18.540013893">
		<tag k="landuse" v="meadow" />
		<tag k="name" v="Bangenget" />
		<tag k="ssr:stedsnr" v="846008" />
	</node>
	<node id="-86954" lat="69.0011944435" lon="18.5054972285">
		<tag k="name" v="Storsteinen" />
		<tag k="natural" v="stone" />
		<tag k="ssr:stedsnr" v="176999" />
	</node>
	<node id="-85929" lat="68.8304888905" lon="18.2044805465">
		<tag k="name" v="Lømyra" />
		<tag k="natural" v="wetland" />
		<tag k="ssr:stedsnr" v="661537" />
	</node>
	<node id="-85416" lat="68.6612888928" lon="18.1820500001">
		<tag k="name" v="Veslholtet" />
		<tag k="place" v="locality" />
		<tag k="ssr:stedsnr" v="115927" />
	</node>
	<node id="-85530" lat="68.7892111135" lon="18.200349987">
		<tag k="name" v="Holtet" />
		<tag k="place" v="locality" />
		<tag k="ssr:stedsnr" v="297541" />
	</node>
	<node id="-85412" lat="68.8368694472" lon="18.4265166601">
		<tag k="name" v="Slåttmyra" />
		<tag k="natural" v="wetland" />
		<tag k="ssr:stedsnr" v="115433" />
	</node>
	<node id="-87964" lat="68.669255554" lon="18.1588805399">
		<tag k="name" v="Melen" />
		<tag k="place" v="locality" />
		<tag k="ssr:stedsnr" v="844927" />
	</node>
	<node id="-87451" lat="68.7011694476" lon="18.661933318">
		<tag k="name" v="Grønlislåtten" />
		<tag k="place" v="locality" />
		<tag k="ssr:stedsnr" v="542917" />
	</node>
	<node id="-85914" lat="68.8059444444" lon="18.424319446">
		<tag k="name" v="Stormyra" />
		<tag k="natural" v="wetland" />
		<tag k="ssr:stedsnr" v="661052" />
	</node>
	<node id="-86935" lat="68.6677833363" lon="18.1673749899">
		<tag k="name" v="Geitklyvmyra" />
		<tag k="natural" v="wetland" />
		<tag k="ssr:stedsnr" v="176909" />
	</node>
	<node id="-85398" lat="68.7538583294" lon="18.6571000027">
		<tag k="name" v="Storsteinmyra" />
		<tag k="natural" v="wetland" />
		<tag k="ssr:stedsnr" v="261262" />
	</node>
	<node id="-85909" lat="68.8205861091" lon="18.4364222211">
		<tag k="name" v="Langmyra" />
		<tag k="natural" v="wetland" />
		<tag k="ssr:stedsnr" v="661002" />
	</node>
	<node id="-87443" lat="68.857197224" lon="18.2614583316">
		<tag k="name" v="Flommyra" />
		<tag k="natural" v="wetland" />
		<tag k="ssr:stedsnr" v="542365" />
	</node>
	<node id="-87442" lat="68.8605194416" lon="18.3071750065">
		<tag k="name" v="Olaimyra" />
		<tag k="natural" v="wetland" />
		<tag k="ssr:stedsnr" v="542361" />
	</node>
	<node id="-87363" lat="68.8174388875" lon="18.1764138827">
		<tag k="name" v="Bjønnmåsmyra" />
		<tag k="natural" v="wetland" />
		<tag k="ssr:stedsnr" v="421262" />
	</node>
	<node id="-87440" lat="68.8101555595" lon="18.5037888744">
		<tag k="name" v="Floan" />
		<tag k="natural" v="wetland" />
		<tag k="ssr:stedsnr" v="542146" />
	</node>
	<node id="-87436" lat="68.8078666645" lon="18.541752773">
		<tag k="name" v="Kinamyra" />
		<tag k="natural" v="wetland" />
		<tag k="ssr:stedsnr" v="542134" />
	</node>
	<node id="-87947" lat="69.0173666708" lon="18.45049443">
		<tag k="name" v="Bekkmyra" />
		<tag k="natural" v="wetland" />
		<tag k="ssr:stedsnr" v="843785" />
	</node>
	<node id="-85895" lat="68.7698861125" lon="18.1381638829">
		<tag k="name" v="Veslmyra" />
		<tag k="natural" v="wetland" />
		<tag k="ssr:stedsnr" v="658292" />
	</node>
	<node id="-85380" lat="68.7358638871" lon="18.6667416613">
		<tag k="name" v="Bærmyra" />
		<tag k="natural" v="wetland" />
		<tag k="ssr:stedsnr" v="260504" />
	</node>
	<node id="-86915" lat="69.0171888929" lon="18.438338878">
		<tag k="name" v="Skørvkartmyra" />
		<tag k="natural" v="wetland" />
		<tag k="ssr:stedsnr" v="175778" />
	</node>
	<node id="-86914" lat="69.017172226" lon="18.446330543">
		<tag k="name" v="Reinsmyra" />
		<tag k="natural" v="wetland" />
		<tag k="ssr:stedsnr" v="175773" />
	</node>
	<node id="-86660" lat="69.027208338" lon="18.3780166528">
		<tag k="name" v="Skoghaugmyra" />
		<tag k="natural" v="wetland" />
		<tag k="ssr:stedsnr" v="56953" />
	</node>
	<node id="-87936" lat="68.8473138871" lon="18.4441166592">
		<tag k="name" v="Langdalsmyra" />
		<tag k="natural" v="wetland" />
		<tag k="ssr:stedsnr" v="843134" />
	</node>
	<node id="-86677" lat="68.8160083351" lon="18.1865000084">
		<tag k="name" v="Liveltmyran" />
		<tag k="natural" v="wetland" />
		<tag k="ssr:stedsnr" v="57233" />
	</node>
	<node id="-87419" lat="68.7724500002" lon="18.5427805569">
		<tag k="name" v="Gammeljordet" />
		<tag k="place" v="locality" />
		<tag k="ssr:stedsnr" v="542195" />
	</node>
	<node id="-86906" lat="68.8902194411" lon="18.393024989">
		<tag k="name" v="Øymælen" />
		<tag k="place" v="locality" />
		<tag k="ssr:stedsnr" v="175199" />
	</node>
	<node id="-85652" lat="68.8802249986" lon="18.3091333391">
		<tag k="name" v="Stormyra" />
		<tag k="natural" v="wetland" />
		<tag k="ssr:stedsnr" v="260641" />
	</node>
	<node id="-86587" lat="68.7909722191" lon="18.5177249896">
		<tag k="name" v="Floen" />
		<tag k="natural" v="wetland" />
		<tag k="ssr:stedsnr" v="18420" />
	</node>
	<node id="-87925" lat="68.6196138924" lon="18.2179861177">
		<tag k="name" v="Sjåframmyra" />
		<tag k="natural" v="wetland" />
		<tag k="ssr:stedsnr" v="840072" />
	</node>
	<node id="-85871" lat="68.8622083312" lon="18.4499083179">
		<tag k="name" v="Trollmyra" />
		<tag k="natural" v="wetland" />
		<tag k="ssr:stedsnr" v="418117" />
	</node>
	<node id="-86893" lat="69.0421000019" lon="18.5468472145">
		<tag k="name" v="Smååsstormyra" />
		<tag k="natural" v="wetland" />
		<tag k="ssr:stedsnr" v="172987" />
	</node>
	<node id="-87403" lat="68.7094388871" lon="18.484933324">
		<tag k="name" v="Innerjordet" />
		<tag k="place" v="locality" />
		<tag k="ssr:stedsnr" v="540452" />
	</node>
	<node id="-87911" lat="68.7067416662" lon="18.9386694466">
		<tag k="name" v="Koievassmyran" />
		<tag k="natural" v="wetland" />
		<tag k="ssr:stedsnr" v="807460" />
	</node>
	<node id="-87397" lat="68.8823416695" lon="18.4056000044">
		<tag k="name" v="Storsteinen" />
		<tag k="natural" v="stone" />
		<tag k="ssr:stedsnr" v="540089" />
	</node>
	<node id="-87396" lat="68.6636083335" lon="18.1689138791">
		<tag k="name" v="Ørløa" />
		<tag k="place" v="locality" />
		<tag k="ssr:stedsnr" v="539924" />
	</node>
	<node id="-87393" lat="68.8271250032" lon="18.220972231">
		<tag k="name" v="Stormyra" />
		<tag k="natural" v="wetland" />
		<tag k="ssr:stedsnr" v="539546" />
	</node>
	<node id="-87391" lat="68.8458583342" lon="18.1914611158">
		<tag k="name" v="Rundmyra" />
		<tag k="natural" v="wetland" />
		<tag k="ssr:stedsnr" v="539588" />
	</node>
	<node id="-85221" lat="68.853774998" lon="18.4453611093">
		<tag k="name" v="Reingjerdsmyra" />
		<tag k="natural" v="wetland" />
		<tag k="ssr:stedsnr" v="236135" />
	</node>
	<node id="-85851" lat="68.9810694437" lon="18.4218388931">
		<tag k="name" v="Langmyra" />
		<tag k="natural" v="wetland" />
		<tag k="ssr:stedsnr" v="503602" />
	</node>
	<node id="-87380" lat="68.7271666664" lon="18.105499986">
		<tag k="name" v="Holtmyra" />
		<tag k="natural" v="wetland" />
		<tag k="ssr:stedsnr" v="537369" />
	</node>
	<node id="-87891" lat="68.9351055583" lon="18.4700277798">
		<tag k="name" v="Stormyra" />
		<tag k="natural" v="wetland" />
		<tag k="ssr:stedsnr" v="806697" />
	</node>
	<node id="-85731" lat="68.750711114" lon="18.5792833401">
		<tag k="landuse" v="meadow" />
		<tag k="name" v="Rubbenget" />
		<tag k="ssr:stedsnr" v="481083" />
	</node>
	<node id="-86330" lat="68.8257777784" lon="18.4449583319">
		<tag k="name" v="Sandøra" />
		<tag k="place" v="locality" />
		<tag k="ssr:stedsnr" v="904452" />
	</node>
	<node id="-87374" lat="68.8594944489" lon="18.2883277725">
		<tag k="name" v="Reingjerdlømyra" />
		<tag k="natural" v="wetland" />
		<tag k="ssr:stedsnr" v="430338" />
	</node>
	<node id="-86858" lat="68.821625004" lon="18.4770277764">
		<tag k="fixme" v="multiple name tags, choose one and add the other to alt_name" />
		<tag k="name" v="Haugmyra;Stormyra" />
		<tag k="natural" v="wetland" />
		<tag k="ssr:stedsnr" v="138488" />
	</node>
	<node id="-85318" lat="68.9789527773" lon="18.4051000079">
		<tag k="name" v="Rolfstadmyra" />
		<tag k="natural" v="wetland" />
		<tag k="ssr:stedsnr" v="238987" />
	</node>
	<node id="-87875" lat="68.6159833315" lon="18.2183555502">
		<tag k="name" v="Stordalsmyran" />
		<tag k="natural" v="wetland" />
		<tag k="ssr:stedsnr" v="806315" />
	</node>
	<node id="-85821" lat="68.7662499988" lon="18.6873277798">
		<tag k="name" v="Strømsmomarka" />
		<tag k="place" v="locality" />
		<tag k="ssr:stedsnr" v="503240" />
	</node>
	<node id="-87354" lat="68.9559944445" lon="18.4840361124">
		<tag k="landuse" v="meadow" />
		<tag k="name" v="Langenget" />
		<tag k="ssr:stedsnr" v="421158" />
	</node>
	<node id="-87301" lat="68.6859555573" lon="18.1309472207">
		<tag k="name" v="Rokkmyra" />
		<tag k="natural" v="wetland" />
		<tag k="ssr:stedsnr" v="416369" />
	</node>
	<node id="-87349" lat="68.7237138912" lon="18.5357305529">
		<tag k="name" v="Storsteinjordet" />
		<tag k="place" v="locality" />
		<tag k="ssr:stedsnr" v="421096" />
	</node>
	<node id="-86653" lat="68.7246583344" lon="18.5578638823">
		<tag k="name" v="Kjølljordet" />
		<tag k="place" v="locality" />
		<tag k="ssr:stedsnr" v="56086" />
	</node>
	<node id="-85298" lat="68.9482194455" lon="18.4897027677">
		<tag k="name" v="Veslmyra" />
		<tag k="natural" v="wetland" />
		<tag k="ssr:stedsnr" v="237961" />
	</node>
	<node id="-87345" lat="68.8303999985" lon="18.2517777782">
		<tag k="name" v="Sørhusenget" />
		<tag k="natural" v="wetland" />
		<tag k="ssr:stedsnr" v="421234" />
	</node>
	<node id="-87856" lat="68.8562138907" lon="18.1583722101">
		<tag k="name" v="Botnmyra" />
		<tag k="natural" v="wetland" />
		<tag k="ssr:stedsnr" v="785320" />
	</node>
	<node id="-87343" lat="68.9785805585" lon="18.3989916643">
		<tag k="name" v="Flåbergmyra" />
		<tag k="natural" v="wetland" />
		<tag k="ssr:stedsnr" v="420993" />
	</node>
	<node id="-87853" lat="68.8175666659" lon="18.1673138832">
		<tag k="name" v="Kveksmyra" />
		<tag k="natural" v="wetland" />
		<tag k="ssr:stedsnr" v="785259" />
	</node>
	<node id="-87340" lat="68.6881611086" lon="18.5650138718">
		<tag k="name" v="Liåkeren" />
		<tag k="place" v="locality" />
		<tag k="ssr:stedsnr" v="420393" />
	</node>
	<node id="-86313" lat="68.8838305564" lon="18.3322694342">
		<tag k="name" v="HK-steinen" />
		<tag k="natural" v="stone" />
		<tag k="ssr:stedsnr" v="904034" />
	</node>
	<node id="-85761" lat="68.822283333" lon="18.4526083336">
		<tag k="name" v="Sandøra" />
		<tag k="place" v="locality" />
		<tag k="ssr:stedsnr" v="358017" />
	</node>
	<node id="-86311" lat="68.9929333305" lon="18.3629166706">
		<tag k="name" v="Vasshølmyra" />
		<tag k="natural" v="wetland" />
		<tag k="ssr:stedsnr" v="906978" />
	</node>
	<node id="-86310" lat="69.0001222247" lon="18.4745527725">
		<tag k="name" v="Stormyra" />
		<tag k="natural" v="wetland" />
		<tag k="ssr:stedsnr" v="906975" />
	</node>
	<node id="-85809" lat="68.4358944458" lon="19.8224027601">
		<tag k="name" v="Čoalmmevadda" />
		<tag k="name:se" v="Čoalmmevadda" />
		<tag k="natural" v="wetland" />
		<tag k="ssr:stedsnr" v="503024" />
	</node>
	<node id="-87841" lat="68.8298416643" lon="18.5185749896">
		<tag k="name" v="Stormyra" />
		<tag k="natural" v="wetland" />
		<tag k="ssr:stedsnr" v="785176" />
	</node>
	<node id="-87839" lat="68.8033416686" lon="18.4992888846">
		<tag k="landuse" v="meadow" />
		<tag k="name" v="Sundenget" />
		<tag k="ssr:stedsnr" v="785140" />
	</node>
	<node id="-86302" lat="68.8599416658" lon="18.1345416542">
		<tag k="name" v="Skarmyra" />
		<tag k="natural" v="wetland" />
		<tag k="ssr:stedsnr" v="901140" />
	</node>
	<node id="-86812" lat="68.786869447" lon="18.5231805427">
		<tag k="name" v="Hakktuvmyra" />
		<tag k="natural" v="wetland" />
		<tag k="ssr:stedsnr" v="117005" />
	</node>
	<node id="-86959" lat="68.9881916663" lon="18.4446166495">
		<tag k="name" v="Stormyra" />
		<tag k="natural" v="wetland" />
		<tag k="ssr:stedsnr" v="177999" />
	</node>
	<node id="-86296" lat="68.6836277781" lon="18.5487388913">
		<tag k="name" v="Storbekkslåtten" />
		<tag k="place" v="locality" />
		<tag k="ssr:stedsnr" v="724369" />
	</node>
	<node id="-86807" lat="69.0061944404" lon="18.5413833348">
		<tag k="name" v="Tømmerveltmyra" />
		<tag k="natural" v="wetland" />
		<tag k="ssr:stedsnr" v="115989" />
	</node>
	<node id="-85270" lat="68.8730277764" lon="18.3405361053">
		<tag k="name" v="Storlømyra" />
		<tag k="natural" v="wetland" />
		<tag k="ssr:stedsnr" v="237092" />
	</node>
	<node id="-86293" lat="68.8966916671" lon="18.2727833225">
		<tag k="name" v="Hestmyra" />
		<tag k="natural" v="wetland" />
		<tag k="ssr:stedsnr" v="724354" />
	</node>
	<node id="-86291" lat="68.8162138883" lon="18.2202027646">
		<tag k="name" v="Karen Reinholtsenmyra" />
		<tag k="natural" v="wetland" />
		<tag k="ssr:stedsnr" v="724233" />
	</node>
	<node id="-86290" lat="68.7837611068" lon="18.5003000053">
		<tag k="name" v="Svartmyra" />
		<tag k="natural" v="wetland" />
		<tag k="ssr:stedsnr" v="724011" />
	</node>
	<node id="-85777" lat="68.7974972202" lon="18.5225583376">
		<tag k="name" v="Karlstadfloen" />
		<tag k="natural" v="wetland" />
		<tag k="ssr:stedsnr" v="360003" />
	</node>
	<node id="-85263" lat="68.9965527782" lon="18.5550527624">
		<tag k="name" v="Tindlimyra" />
		<tag k="natural" v="wetland" />
		<tag k="ssr:stedsnr" v="236998" />
	</node>
	<node id="-85259" lat="69.0322277766" lon="18.5230944446">
		<tag k="name" v="Evjanjordet" />
		<tag k="place" v="locality" />
		<tag k="ssr:stedsnr" v="50970" />
	</node>
	<node id="-85258" lat="69.0326666692" lon="18.5625611016">
		<tag k="name" v="Langmyra" />
		<tag k="natural" v="wetland" />
		<tag k="ssr:stedsnr" v="50965" />
	</node>
	<node id="-85769" lat="68.828088893" lon="18.4490111169">
		<tag k="name" v="Myra" />
		<tag k="natural" v="wetland" />
		<tag k="ssr:stedsnr" v="358461" />
	</node>
	<node id="-87816" lat="68.9047222207" lon="18.4093277805">
		<tag k="name" v="Veslemyra" />
		<tag k="natural" v="wetland" />
		<tag k="ssr:stedsnr" v="783185" />
	</node>
	<node id="-87302" lat="68.6880805544" lon="18.1211750036">
		<tag k="name" v="Stormyra" />
		<tag k="natural" v="wetland" />
		<tag k="ssr:stedsnr" v="416377" />
	</node>
	<node id="-85253" lat="68.9973583374" lon="18.4250749876">
		<tag k="name" v="Johannesmyra" />
		<tag k="natural" v="wetland" />
		<tag k="ssr:stedsnr" v="236749" />
	</node>
	<node id="-86788" lat="68.8827861092" lon="18.3776222278">
		<tag k="name" v="Storøra" />
		<tag k="place" v="locality" />
		<tag k="ssr:stedsnr" v="115097" />
	</node>
	<node id="-85763" lat="68.8122388885" lon="18.3921555452">
		<tag k="name" v="Sætermyra" />
		<tag k="natural" v="wetland" />
		<tag k="ssr:stedsnr" v="358065" />
	</node>
	<node id="-87810" lat="68.8215638925" lon="18.4363083327">
		<tag k="name" v="Furuholtet" />
		<tag k="place" v="locality" />
		<tag k="ssr:stedsnr" v="783053" />
	</node>
	<node id="-87297" lat="68.9909583326" lon="18.5734833235">
		<tag k="name" v="Langmyra" />
		<tag k="natural" v="wetland" />
		<tag k="ssr:stedsnr" v="415552" />
	</node>
	<node id="-86784" lat="68.8064388926" lon="18.4614194448">
		<tag k="name" v="Stormyra" />
		<tag k="natural" v="wetland" />
		<tag k="ssr:stedsnr" v="115051" />
	</node>
	<node id="-86269" lat="68.9927611098" lon="18.4304138891">
		<tag k="name" v="Setervangmyra" />
		<tag k="natural" v="wetland" />
		<tag k="ssr:stedsnr" v="906998" />
	</node>
	<node id="-87290" lat="69.0265611135" lon="18.5584777768">
		<tag k="name" v="Grøftmyra" />
		<tag k="natural" v="wetland" />
		<tag k="ssr:stedsnr" v="414944" />
	</node>
	<node id="-87289" lat="69.0363666657" lon="18.523352769">
		<tag k="landuse" v="meadow" />
		<tag k="name" v="Steenget" />
		<tag k="ssr:stedsnr" v="414931" />
	</node>
	<node id="-87287" lat="68.84923056" lon="18.1284444395">
		<tag k="name" v="Kråmyra" />
		<tag k="natural" v="wetland" />
		<tag k="ssr:stedsnr" v="416233" />
	</node>
	<node id="-87286" lat="68.8488027752" lon="18.1223361182">
		<tag k="name" v="Reisemyra" />
		<tag k="natural" v="wetland" />
		<tag k="ssr:stedsnr" v="416231" />
	</node>
	<node id="-85289" lat="68.9331055526" lon="18.4512916498">
		<tag k="name" v="Hølbekkmyra" />
		<tag k="natural" v="wetland" />
		<tag k="ssr:stedsnr" v="54807" />
	</node>
	<node id="-86260" lat="68.8062111087" lon="18.2091249898">
		<tag k="name" v="Aslakteltet" />
		<tag k="natural" v="wetland" />
		<tag k="ssr:stedsnr" v="663273" />
	</node>
	<node id="-85747" lat="68.854558334" lon="18.2743388742">
		<tag k="name" v="Sennaslåtten" />
		<tag k="natural" v="wetland" />
		<tag k="ssr:stedsnr" v="481390" />
	</node>
	<node id="-85203" lat="69.0289333342" lon="18.5770555442">
		<tag k="name" v="Kloppmyra" />
		<tag k="natural" v="wetland" />
		<tag k="ssr:stedsnr" v="232911" />
	</node>
	<node id="-86255" lat="68.9364694448" lon="18.4709166741">
		<tag k="name" v="Holmen" />
		<tag k="natural" v="wetland" />
		<tag k="ssr:stedsnr" v="661729" />
	</node>
	<node id="-87789" lat="68.8481583332" lon="18.4110416604">
		<tag k="name" v="Stormyra" />
		<tag k="natural" v="wetland" />
		<tag k="ssr:stedsnr" v="782122" />
	</node>
	<node id="-85740" lat="68.8236611093" lon="18.2100833313">
		<tag k="name" v="Flomyra" />
		<tag k="natural" v="wetland" />
		<tag k="ssr:stedsnr" v="481286" />
	</node>
	<node id="-85423" lat="68.7213277751" lon="18.5347833277">
		<tag k="name" v="Langjordet" />
		<tag k="place" v="locality" />
		<tag k="ssr:stedsnr" v="117107" />
	</node>
	<node id="-86249" lat="68.8275277748" lon="18.1505972284">
		<tag k="name" v="Rundmyra" />
		<tag k="natural" v="wetland" />
		<tag k="ssr:stedsnr" v="658257" />
	</node>
	<node id="-86248" lat="68.804002774" lon="18.1518027642">
		<tag k="name" v="Liveltlømyra" />
		<tag k="natural" v="wetland" />
		<tag k="ssr:stedsnr" v="735963" />
	</node>
	<node id="-87781" lat="68.7245833334" lon="18.1087027639">
		<tag k="name" v="Øvre Holtmyra" />
		<tag k="natural" v="wetland" />
		<tag k="ssr:stedsnr" v="780361" />
	</node>
	<node id="-85220" lat="68.8511250019" lon="18.4326916509">
		<tag k="name" v="Storfloen" />
		<tag k="natural" v="wetland" />
		<tag k="ssr:stedsnr" v="236134" />
	</node>
	<node id="-87779" lat="68.8309250018" lon="18.1378916747">
		<tag k="name" v="Kroksengmyra" />
		<tag k="natural" v="wetland" />
		<tag k="ssr:stedsnr" v="780234" />
	</node>
	<node id="-85218" lat="68.8695611074" lon="18.1443944466">
		<tag k="name" v="Skjellmyra" />
		<tag k="natural" v="wetland" />
		<tag k="ssr:stedsnr" v="234156" />
	</node>
	<node id="-86752" lat="68.4525500037" lon="19.5765666665">
		<tag k="name" v="Álddasrohtu" />
		<tag k="name:se" v="Álddasrohtu" />
		<tag k="place" v="locality" />
		<tag k="ssr:stedsnr" v="79132" />
	</node>
	<node id="-85200" lat="68.926588884" lon="18.4847083386">
		<tag k="name" v="Reinskitmyra" />
		<tag k="natural" v="wetland" />
		<tag k="ssr:stedsnr" v="25128" />
	</node>
	<node id="-86236" lat="68.8151361152" lon="18.162163881">
		<tag k="name" v="Langhallmyra" />
		<tag k="natural" v="wetland" />
		<tag k="ssr:stedsnr" v="724274" />
	</node>
	<node id="-85882" lat="68.968155552" lon="18.502886102">
		<tag k="name" v="Lilandmyra" />
		<tag k="natural" v="wetland" />
		<tag k="ssr:stedsnr" v="421118" />
	</node>
	<node id="-85722" lat="69.0164694488" lon="18.5456444407">
		<tag k="name" v="Larsmyra" />
		<tag k="natural" v="wetland" />
		<tag k="ssr:stedsnr" v="479982" />
	</node>
	<node id="-86233" lat="68.7333000021" lon="18.5377194297">
		<tag k="name" v="Blåsteinen" />
		<tag k="natural" v="stone" />
		<tag k="ssr:stedsnr" v="724102" />
	</node>
	<node id="-87768" lat="69.0218222248" lon="18.499997216">
		<tag k="landuse" v="meadow" />
		<tag k="name" v="Sundenget" />
		<tag k="ssr:stedsnr" v="778953" />
	</node>
	<node id="-86230" lat="68.8217000013" lon="18.1681777705">
		<tag k="name" v="Stormyra" />
		<tag k="natural" v="wetland" />
		<tag k="ssr:stedsnr" v="724252" />
	</node>
	<node id="-85938" lat="68.6564083297" lon="18.1957972054">
		<tag k="name" v="Øra" />
		<tag k="place" v="locality" />
		<tag k="ssr:stedsnr" v="661895" />
	</node>
	<node id="-85715" lat="68.9471722241" lon="18.4869138942">
		<tag k="name" v="Myra" />
		<tag k="natural" v="wetland" />
		<tag k="ssr:stedsnr" v="479964" />
	</node>
	<node id="-87250" lat="68.7576416675" lon="18.6472472279">
		<tag k="historic" v="shieling" />
		<tag k="name" v="Strømsmosætra" />
		<tag k="place" v="locality" />
		<tag k="ssr:stedsnr" v="382255" />
	</node>
	<node id="-86224" lat="68.8967722182" lon="18.4025388807">
		<tag k="name" v="Storøra" />
		<tag k="place" v="locality" />
		<tag k="ssr:stedsnr" v="723183" />
	</node>
	<node id="-85711" lat="69.0135222231" lon="18.3794694408">
		<tag k="name" v="Skarmyra" />
		<tag k="natural" v="wetland" />
		<tag k="ssr:stedsnr" v="479751" />
	</node>
	<node id="-87756" lat="68.6379805534" lon="19.1174999922">
		<tag k="name" v="Strømmyran" />
		<tag k="natural" v="wetland" />
		<tag k="ssr:stedsnr" v="746443" />
	</node>
	<node id="-86218" lat="68.7730138859" lon="18.2390972242">
		<tag k="name" v="Skarmyran" />
		<tag k="natural" v="wetland" />
		<tag k="ssr:stedsnr" v="722628" />
	</node>
	<node id="-86217" lat="69.0210972234" lon="18.4422833269">
		<tag k="name" v="Tretjønnmyra" />
		<tag k="natural" v="wetland" />
		<tag k="ssr:stedsnr" v="722619" />
	</node>
	<node id="-85192" lat="68.5354444467" lon="19.2459749806">
		<tag k="name" v="Hávgavuopmi" />
		<tag k="name:se" v="Hávgavuopmi" />
		<tag k="place" v="locality" />
		<tag k="ssr:stedsnr" v="18116" />
	</node>
	<node id="-86817" lat="68.8230666643" lon="18.5087083377">
		<tag k="name" v="Bjønnmomyra" />
		<tag k="natural" v="wetland" />
		<tag k="ssr:stedsnr" v="117261" />
	</node>
	<node id="-86722" lat="68.7637805564" lon="18.5209638879">
		<tag k="name" v="Klyvimyra" />
		<tag k="natural" v="wetland" />
		<tag k="ssr:stedsnr" v="78447" />
	</node>
	<node id="-87233" lat="68.8446749954" lon="18.4615055601">
		<tag k="name" v="Sætermyran" />
		<tag k="natural" v="wetland" />
		<tag k="ssr:stedsnr" v="381525" />
	</node>
	<node id="-86645" lat="68.8008361148" lon="18.1933305625">
		<tag k="name" v="Bjønnmyra" />
		<tag k="natural" v="wetland" />
		<tag k="ssr:stedsnr" v="55529" />
	</node>
	<node id="-87740" lat="68.4967250033" lon="19.2932333144">
		<tag k="name" v="Vággejálbmi" />
		<tag k="name:se" v="Vággejálbmi" />
		<tag k="place" v="locality" />
		<tag k="ssr:stedsnr" v="746080" />
	</node>
	<node id="-85691" lat="68.9111694429" lon="18.4126083229">
		<tag k="name" v="Tjønnmyra" />
		<tag k="natural" v="wetland" />
		<tag k="ssr:stedsnr" v="479188" />
	</node>
	<node id="-87732" lat="68.7892972186" lon="18.4910027784">
		<tag k="name" v="Karlstadskogen" />
		<tag k="place" v="locality" />
		<tag k="ssr:stedsnr" v="745449" />
	</node>
	<node id="-85467" lat="68.8219805535" lon="18.1985777608">
		<tag k="name" v="Henrikmyra" />
		<tag k="natural" v="wetland" />
		<tag k="ssr:stedsnr" v="178255" />
	</node>
	<node id="-85679" lat="69.0219527812" lon="18.5059916729">
		<tag k="landuse" v="meadow" />
		<tag k="name" v="Statshesja" />
		<tag k="ssr:stedsnr" v="475969" />
	</node>
	<node id="-85676" lat="68.8013444449" lon="18.1887777712">
		<tag k="name" v="Karnelesmyra" />
		<tag k="natural" v="wetland" />
		<tag k="ssr:stedsnr" v="310957" />
	</node>
	<node id="-86185" lat="69.0195000038" lon="18.5680777774">
		<tag k="name" v="Øvjemyra" />
		<tag k="natural" v="wetland" />
		<tag k="ssr:stedsnr" v="718926" />
	</node>
	<node id="-86183" lat="69.0338500007" lon="18.5662888805">
		<tag k="name" v="Tjønnmyra" />
		<tag k="natural" v="wetland" />
		<tag k="ssr:stedsnr" v="718922" />
	</node>
	<node id="-85666" lat="68.8201166693" lon="18.1571333273">
		<tag k="name" v="Lars-Olsamyra" />
		<tag k="natural" v="wetland" />
		<tag k="ssr:stedsnr" v="299307" />
	</node>
	<node id="-86177" lat="68.8140694443" lon="18.495169431">
		<tag k="landuse" v="meadow" />
		<tag k="name" v="Valøenget" />
		<tag k="ssr:stedsnr" v="602225" />
	</node>
	<node id="-85664" lat="68.8120361103" lon="18.4927388886">
		<tag k="landuse" v="meadow" />
		<tag k="name" v="Gaml-Anneløenget" />
		<tag k="ssr:stedsnr" v="299133" />
	</node>
	<node id="-86174" lat="68.7938916693" lon="18.4984972242">
		<tag k="name" v="Ranmyra" />
		<tag k="natural" v="wetland" />
		<tag k="ssr:stedsnr" v="602001" />
	</node>
	<node id="-86683" lat="68.8536249999" lon="18.2047722214">
		<tag k="name" v="Reingjerdmyra" />
		<tag k="natural" v="wetland" />
		<tag k="ssr:stedsnr" v="57305" />
	</node>
	<node id="-86682" lat="68.8548666705" lon="18.1895972212">
		<tag k="name" v="Langmyra" />
		<tag k="natural" v="wetland" />
		<tag k="ssr:stedsnr" v="57301" />
	</node>
	<node id="-86679" lat="68.8104666676" lon="18.170577774">
		<tag k="name" v="Kløftmyra" />
		<tag k="natural" v="wetland" />
		<tag k="ssr:stedsnr" v="57258" />
	</node>
	<node id="-86166" lat="69.0139944427" lon="18.4661999966">
		<tag k="name" v="Veslholtet" />
		<tag k="place" v="locality" />
		<tag k="ssr:stedsnr" v="600752" />
	</node>
	<node id="-87065" lat="68.5785638902" lon="18.4353861073">
		<tag k="name" v="Fonna" />
		<tag k="natural" v="glacier" />
		<tag k="ssr:stedsnr" v="321238" />
	</node>
	<node id="-87188" lat="68.8668222226" lon="18.1772111095">
		<tag k="name" v="Klauvfjellmyran" />
		<tag k="natural" v="wetland" />
		<tag k="ssr:stedsnr" v="360276" />
	</node>
	<node id="-86674" lat="68.8258611149" lon="18.2144999995">
		<tag k="name" v="Høymyra" />
		<tag k="natural" v="wetland" />
		<tag k="ssr:stedsnr" v="57222" />
	</node>
	<node id="-85649" lat="68.8872611076" lon="18.3011083197">
		<tag k="name" v="Fossmyra" />
		<tag k="natural" v="wetland" />
		<tag k="ssr:stedsnr" v="260627" />
	</node>
	<node id="-87181" lat="68.9704388873" lon="18.4883472239">
		<tag k="name" v="Stormyra" />
		<tag k="natural" v="wetland" />
		<tag k="ssr:stedsnr" v="360098" />
	</node>
	<node id="-87179" lat="68.7592166691" lon="18.5661360967">
		<tag k="landuse" v="meadow" />
		<tag k="name" v="Veslenget" />
		<tag k="ssr:stedsnr" v="360077" />
	</node>
	<node id="-87178" lat="68.9856027778" lon="18.3667500029">
		<tag k="name" v="Blåsteinmyra" />
		<tag k="natural" v="wetland" />
		<tag k="ssr:stedsnr" v="359992" />
	</node>
	<node id="-86152" lat="68.6558777756" lon="18.5579972261">
		<tag k="name" v="Myra" />
		<tag k="natural" v="wetland" />
		<tag k="ssr:stedsnr" v="600416" />
	</node>
	<node id="-87175" lat="68.6790000016" lon="18.7410138726">
		<tag k="name" v="Tømmermyra" />
		<tag k="natural" v="wetland" />
		<tag k="ssr:stedsnr" v="359925" />
	</node>
	<node id="-86662" lat="68.7828222263" lon="18.4996805439">
		<tag k="name" v="Rantjønnskogen" />
		<tag k="place" v="locality" />
		<tag k="ssr:stedsnr" v="57015" />
	</node>
	<node id="-87172" lat="68.6894500048" lon="18.5656166514">
		<tag k="name" v="Martinækra" />
		<tag k="place" v="locality" />
		<tag k="ssr:stedsnr" v="359393" />
	</node>
	<node id="-86146" lat="68.8549944415" lon="18.4345305609">
		<tag k="name" v="Slåttmyra" />
		<tag k="natural" v="wetland" />
		<tag k="ssr:stedsnr" v="600153" />
	</node>
	<node id="-86891" lat="68.7673694413" lon="18.1400722188">
		<tag k="name" v="Stormyra" />
		<tag k="natural" v="wetland" />
		<tag k="ssr:stedsnr" v="172297" />
	</node>
	<node id="-86656" lat="68.8195361156" lon="18.4908916582">
		<tag k="name" v="Strandlømyra" />
		<tag k="natural" v="wetland" />
		<tag k="ssr:stedsnr" v="56210" />
	</node>
	<node id="-87166" lat="68.6513722237" lon="18.2304499979">
		<tag k="name" v="Stormyra" />
		<tag k="natural" v="wetland" />
		<tag k="ssr:stedsnr" v="358996" />
	</node>
	<node id="-87165" lat="69.0057027735" lon="18.5003055569">
		<tag k="name" v="Hansmomyra" />
		<tag k="natural" v="wetland" />
		<tag k="ssr:stedsnr" v="358994" />
	</node>
	<node id="-85626" lat="69.0221722238" lon="18.5290360996">
		<tag k="name" v="Stormyra" />
		<tag k="natural" v="wetland" />
		<tag k="ssr:stedsnr" v="443915" />
	</node>
	<node id="-86137" lat="68.6696638906" lon="18.1826305646">
		<tag k="name" v="Langmyra" />
		<tag k="natural" v="wetland" />
		<tag k="ssr:stedsnr" v="563311" />
	</node>
	<node id="-87160" lat="68.7587333369" lon="18.6661027671">
		<tag k="name" v="Storstenmyra" />
		<tag k="natural" v="wetland" />
		<tag k="ssr:stedsnr" v="358625" />
	</node>
	<node id="-86135" lat="68.6765527753" lon="18.1561277838">
		<tag k="alt_name" v="Holtmyran" />
		<tag k="name" v="Holtmyra" />
		<tag k="natural" v="wetland" />
		<tag k="ssr:stedsnr" v="563307" />
	</node>
	<node id="-87157" lat="68.7006611146" lon="18.541688874">
		<tag k="name" v="Sæterjordet" />
		<tag k="place" v="locality" />
		<tag k="ssr:stedsnr" v="358499" />
	</node>
	<node id="-86130" lat="68.7620777759" lon="18.5577999847">
		<tag k="name" v="Stormelen" />
		<tag k="place" v="locality" />
		<tag k="ssr:stedsnr" v="542187" />
	</node>
	<node id="-85267" lat="69.0162416691" lon="18.575624993">
		<tag k="name" v="Tjæratjeldmyra" />
		<tag k="natural" v="wetland" />
		<tag k="ssr:stedsnr" v="51551" />
	</node>
	<node id="-86634" lat="69.010411107" lon="18.5027833356">
		<tag k="name" v="Hansmojordet" />
		<tag k="place" v="locality" />
		<tag k="ssr:stedsnr" v="54980" />
	</node>
	<node id="-87145" lat="68.7131222228" lon="18.5371416671">
		<tag k="name" v="Storjordet" />
		<tag k="place" v="locality" />
		<tag k="ssr:stedsnr" v="357455" />
	</node>
	<node id="-85721" lat="69.0075694483" lon="18.5573861167">
		<tag k="name" v="Veslmyra" />
		<tag k="natural" v="wetland" />
		<tag k="ssr:stedsnr" v="479980" />
	</node>
	<node id="-87655" lat="68.7463138856" lon="18.6972249974">
		<tag k="name" v="Bærfloen" />
		<tag k="natural" v="wetland" />
		<tag k="ssr:stedsnr" v="624285" />
	</node>
	<node id="-87648" lat="68.5724916652" lon="19.4621805386">
		<tag k="name" v="Gisttatvađđa" />
		<tag k="name:se" v="Gisttatvađđa" />
		<tag k="natural" v="wetland" />
		<tag k="ssr:stedsnr" v="624144" />
	</node>
	<node id="-86616" lat="69.0414555575" lon="18.5583999913">
		<tag k="name" v="Kvennbekkmyra" />
		<tag k="natural" v="wetland" />
		<tag k="ssr:stedsnr" v="51983" />
	</node>
	<node id="-86372" lat="68.4760888858" lon="19.4679833099">
		<tag k="name" v="Bávttevuolli" />
		<tag k="name:se" v="Bávttevuolli" />
		<tag k="place" v="locality" />
		<tag k="ssr:stedsnr" v="746075" />
	</node>
	<node id="-88149" lat="68.8066527762" lon="18.1594527824">
		<tag k="name" v="Borktekkjemyra" />
		<tag k="natural" v="wetland" />
		<tag k="ssr:stedsnr" v="967257" />
	</node>
	<node id="-86778" lat="68.715577777" lon="18.1201472143">
		<tag k="name" v="Lappmyra" />
		<tag k="natural" v="wetland" />
		<tag k="ssr:stedsnr" v="112500" />
	</node>
	<node id="-87123" lat="68.8587861142" lon="18.1150472221">
		<tag k="name" v="Kråmyra" />
		<tag k="natural" v="wetland" />
		<tag k="ssr:stedsnr" v="355149" />
	</node>
	<node id="-86606" lat="68.9922388842" lon="18.4770861127">
		<tag k="name" v="Sagbekkmyra" />
		<tag k="natural" v="wetland" />
		<tag k="ssr:stedsnr" v="299999" />
	</node>
	<node id="-87053" lat="68.5454083306" lon="19.9487277616">
		<tag k="name" v="Čuovžajeaggi" />
		<tag k="name:se" v="Čuovžajeaggi" />
		<tag k="natural" v="wetland" />
		<tag k="ssr:stedsnr" v="321038" />
	</node>
	<node id="-88139" lat="68.6772194417" lon="18.7423444456">
		<tag k="name" v="Vassendmyra" />
		<tag k="natural" v="wetland" />
		<tag k="ssr:stedsnr" v="966936" />
	</node>
	<node id="-88137" lat="68.9771972251" lon="18.3590111047">
		<tag k="name" v="Tjønnmyra" />
		<tag k="natural" v="wetland" />
		<tag k="ssr:stedsnr" v="966974" />
	</node>
	<node id="-87624" lat="69.0312027807" lon="18.3521555589">
		<tag k="name" v="Skjellmyra" />
		<tag k="natural" v="wetland" />
		<tag k="ssr:stedsnr" v="602993" />
	</node>
	<node id="-86081" lat="68.8144833353" lon="18.183269453">
		<tag k="name" v="Tjørnmyra" />
		<tag k="natural" v="wetland" />
		<tag k="ssr:stedsnr" v="685474" />
	</node>
	<node id="-88128" lat="68.9992611071" lon="18.5600222227">
		<tag k="name" v="Johaugmyra" />
		<tag k="natural" v="wetland" />
		<tag k="ssr:stedsnr" v="964992" />
	</node>
	<node id="-87103" lat="68.7462055601" lon="18.5770472136">
		<tag k="name" v="Stormyra" />
		<tag k="natural" v="wetland" />
		<tag k="ssr:stedsnr" v="321590" />
	</node>
	<node id="-85565" lat="68.7448583298" lon="18.6586388767">
		<tag k="name" v="Torvmyra" />
		<tag k="natural" v="wetland" />
		<tag k="ssr:stedsnr" v="442319" />
	</node>
	<node id="-85531" lat="68.8387749991" lon="18.1980472261">
		<tag k="name" v="Botnmyra" />
		<tag k="natural" v="wetland" />
		<tag k="ssr:stedsnr" v="297565" />
	</node>
	<node id="-87611" lat="68.6747083317" lon="18.5488055551">
		<tag k="name" v="Nyjordet" />
		<tag k="place" v="locality" />
		<tag k="ssr:stedsnr" v="602414" />
	</node>
	<node id="-87608" lat="68.6912194409" lon="18.5609833152">
		<tag k="name" v="Russekjerran" />
		<tag k="place" v="locality" />
		<tag k="ssr:stedsnr" v="602408" />
	</node>
	<node id="-88136" lat="68.7523972233" lon="18.5401611012">
		<tag k="landuse" v="meadow" />
		<tag k="name" v="Strømsmo" />
		<tag k="ssr:stedsnr" v="966435" />
	</node>
	<node id="-88113" lat="68.8427972255" lon="18.2249222239">
		<tag k="name" v="Bakkemyra" />
		<tag k="natural" v="wetland" />
		<tag k="ssr:stedsnr" v="964570" />
	</node>
	<node id="-87600" lat="68.7306277773" lon="18.5353166719">
		<tag k="name" v="Hakktuvjordet" />
		<tag k="place" v="locality" />
		<tag k="ssr:stedsnr" v="602114" />
	</node>
	<node id="-85551" lat="68.9967277776" lon="18.5600361066">
		<tag k="name" v="Slåttemyra" />
		<tag k="natural" v="wetland" />
		<tag k="ssr:stedsnr" v="297993" />
	</node>
	<node id="-86574" lat="68.7471694484" lon="18.670461098">
		<tag k="name" v="Sennfloen" />
		<tag k="natural" v="wetland" />
		<tag k="ssr:stedsnr" v="18252" />
	</node>
	<node id="-85507" lat="68.6863333372" lon="18.1166111103">
		<tag k="name" v="Stormyra" />
		<tag k="natural" v="wetland" />
		<tag k="ssr:stedsnr" v="294425" />
	</node>
	<node id="-86962" lat="68.9517083374" lon="18.4938027803">
		<tag k="name" v="Justinamyra" />
		<tag k="natural" v="wetland" />
		<tag k="ssr:stedsnr" v="178168" />
	</node>
	<node id="-86056" lat="68.6839027786" lon="18.1258083366">
		<tag k="name" v="Botnmyra" />
		<tag k="natural" v="wetland" />
		<tag k="ssr:stedsnr" v="685346" />
	</node>
	<node id="-87829" lat="68.6614749992" lon="18.2416694313">
		<tag k="name" v="Storsteinen" />
		<tag k="natural" v="stone" />
		<tag k="ssr:stedsnr" v="783977" />
	</node>
	<node id="-88097" lat="68.7299999967" lon="18.1231555542">
		<tag k="name" v="Kirkesteinen" />
		<tag k="natural" v="stone" />
		<tag k="ssr:stedsnr" v="962387" />
	</node>
	<node id="-87584" lat="68.64600833" lon="18.2110888892">
		<tag k="name" v="Storøra" />
		<tag k="place" v="locality" />
		<tag k="ssr:stedsnr" v="600987" />
	</node>
	<node id="-85534" lat="68.7681333323" lon="18.2319527765">
		<tag k="name" v="Sommermyra" />
		<tag k="natural" v="wetland" />
		<tag k="ssr:stedsnr" v="297598" />
	</node>
	<node id="-85533" lat="68.7592027792" lon="18.6863166699">
		<tag k="name" v="Koparskarmyra" />
		<tag k="natural" v="wetland" />
		<tag k="ssr:stedsnr" v="297589" />
	</node>
	<node id="-88091" lat="69.0411388901" lon="18.5637499999">
		<tag k="name" v="Brumomyra" />
		<tag k="natural" v="wetland" />
		<tag k="ssr:stedsnr" v="961985" />
	</node>
	<node id="-87578" lat="69.0080388855" lon="18.4352305447">
		<tag k="name" v="Veslhaugmyra" />
		<tag k="natural" v="wetland" />
		<tag k="ssr:stedsnr" v="600743" />
	</node>
	<node id="-87577" lat="68.9897055571" lon="18.5496138938">
		<tag k="name" v="Bekkslåtten" />
		<tag k="place" v="locality" />
		<tag k="ssr:stedsnr" v="600887" />
	</node>
	<node id="-86552" lat="68.5889111125" lon="19.320752771">
		<tag k="name" v="Melan" />
		<tag k="place" v="locality" />
		<tag k="ssr:stedsnr" v="17134" />
	</node>
	<node id="-85527" lat="68.8199194447" lon="18.3728111139">
		<tag k="name" v="Bostadmyran" />
		<tag k="natural" v="wetland" />
		<tag k="ssr:stedsnr" v="297448" />
	</node>
	<node id="-87572" lat="68.8349444485" lon="18.1933138905">
		<tag k="name" v="Rundmyra" />
		<tag k="natural" v="wetland" />
		<tag k="ssr:stedsnr" v="600542" />
	</node>
	<node id="-86958" lat="68.9932722214" lon="18.4170055618">
		<tag k="name" v="Torthølmyra" />
		<tag k="natural" v="wetland" />
		<tag k="ssr:stedsnr" v="177997" />
	</node>
	<node id="-85251" lat="69.0121361135" lon="18.4515777751">
		<tag k="name" v="Elgmyra" />
		<tag k="natural" v="wetland" />
		<tag k="ssr:stedsnr" v="236742" />
	</node>
	<node id="-85518" lat="68.8803444472" lon="18.3573527864">
		<tag k="name" v="Kirkesmoskogen" />
		<tag k="place" v="locality" />
		<tag k="ssr:stedsnr" v="297119" />
	</node>
	<node id="-85905" lat="68.8357138912" lon="18.249033342">
		<tag k="name" v="Kvennhusmyra" />
		<tag k="natural" v="wetland" />
		<tag k="ssr:stedsnr" v="299274" />
	</node>
	<node id="-87565" lat="68.8690972262" lon="18.3337194331">
		<tag k="name" v="Veslemyra" />
		<tag k="natural" v="wetland" />
		<tag k="ssr:stedsnr" v="600099" />
	</node>
	<node id="-85250" lat="69.0163888912" lon="18.4401194348">
		<tag k="name" v="Kvilarsteinen" />
		<tag k="natural" v="stone" />
		<tag k="ssr:stedsnr" v="236732" />
	</node>
	<node id="-86537" lat="68.8371944435" lon="18.4750305394">
		<tag k="name" v="Vinterveimyra" />
		<tag k="natural" v="wetland" />
		<tag k="ssr:stedsnr" v="967155" />
	</node>
	<node id="-87559" lat="68.6910722243" lon="18.0951444478">
		<tag k="name" v="Gratangsmyra" />
		<tag k="natural" v="wetland" />
		<tag k="ssr:stedsnr" v="597463" />
	</node>
	<node id="-86785" lat="68.8106222254" lon="18.4351388941">
		<tag k="name" v="Skjellmyra" />
		<tag k="natural" v="wetland" />
		<tag k="ssr:stedsnr" v="115054" />
	</node>
	<node id="-87044" lat="68.7937805541" lon="18.1916944446">
		<tag k="name" v="Stormyra" />
		<tag k="natural" v="wetland" />
		<tag k="ssr:stedsnr" v="313556" />
	</node>
	<node id="-87555" lat="68.7502611147" lon="18.1284611098">
		<tag k="name" v="Turarsteinen" />
		<tag k="natural" v="stone" />
		<tag k="ssr:stedsnr" v="597442" />
	</node>
	<node id="-85506" lat="68.7265194463" lon="18.0965111079">
		<tag k="name" v="Sandøra" />
		<tag k="place" v="locality" />
		<tag k="ssr:stedsnr" v="294418" />
	</node>
</osm>
