<?xml version="1.0" encoding="UTF-8"?>
<osm generator="osmapis" version="0.6">
	<node id="-231088" lat="59.4658814492" lon="11.1093239773">
		<tag k="alt_name" v="Bogen vestre" />
		<tag k="name" v="Vestre Bogen" />
		<tag k="place" v="farm" />
		<tag k="ssr:date" v="2019-12-27" />
		<tag k="ssr:gruppe" v="gardsbebyggelse" />
		<tag k="ssr:hovedgruppe" v="bebyggelse" />
		<tag k="ssr:stedsnr" v="991179" />
		<tag k="ssr:type" v="bruk" />
	</node>
	<node id="-231087" lat="59.4816381213" lon="11.1576650281">
		<tag k="fixme" v="consider place=hamlet" />
		<tag k="name" v="Skjelle" />
		<tag k="place" v="farm" />
		<tag k="ssr:date" v="2019-12-27" />
		<tag k="ssr:gruppe" v="gardsbebyggelse" />
		<tag k="ssr:hovedgruppe" v="bebyggelse" />
		<tag k="ssr:stedsnr" v="991166" />
		<tag k="ssr:type" v="gard" />
	</node>
	<node id="-231086" lat="59.5270385165" lon="11.1373135398">
		<tag k="fixme" v="consider place=hamlet" />
		<tag k="name" v="Jakobshaugen" />
		<tag k="place" v="farm" />
		<tag k="ssr:date" v="2019-12-27" />
		<tag k="ssr:gruppe" v="gardsbebyggelse" />
		<tag k="ssr:hovedgruppe" v="bebyggelse" />
		<tag k="ssr:stedsnr" v="991165" />
		<tag k="ssr:type" v="gard" />
	</node>
	<node id="-231085" lat="59.4570414952" lon="11.2051750339">
		<tag k="fixme" v="consider place=hamlet" />
		<tag k="name" v="Liverud" />
		<tag k="place" v="farm" />
		<tag k="ssr:date" v="2019-12-27" />
		<tag k="ssr:gruppe" v="gardsbebyggelse" />
		<tag k="ssr:hovedgruppe" v="bebyggelse" />
		<tag k="ssr:stedsnr" v="991161" />
		<tag k="ssr:type" v="gard" />
	</node>
	<node id="-231084" lat="59.4694194461" lon="11.1437027763">
		<tag k="alt_name" v="Toen søndre" />
		<tag k="name" v="Søndre Toen" />
		<tag k="place" v="farm" />
		<tag k="ssr:date" v="2019-12-27" />
		<tag k="ssr:gruppe" v="gardsbebyggelse" />
		<tag k="ssr:hovedgruppe" v="bebyggelse" />
		<tag k="ssr:stedsnr" v="873000" />
		<tag k="ssr:type" v="bruk" />
	</node>
	<node id="-231083" lat="59.4687583345" lon="11.1343750043">
		<tag k="fixme" v="consider natural=peak for the most distinct mountains in the district" />
		<tag k="name" v="Karterudåsen" />
		<tag k="natural" v="hill" />
		<tag k="place" v="locality" />
		<tag k="ssr:date" v="2019-12-27" />
		<tag k="ssr:gruppe" v="høyder" />
		<tag k="ssr:hovedgruppe" v="terreng" />
		<tag k="ssr:stedsnr" v="872998" />
		<tag k="ssr:type" v="ås" />
	</node>
	<node id="-231082" lat="59.5015166676" lon="11.2110138931">
		<tag k="name" v="Haugen" />
		<tag k="place" v="farm" />
		<tag k="ssr:date" v="2019-12-27" />
		<tag k="ssr:gruppe" v="gardsbebyggelse" />
		<tag k="ssr:hovedgruppe" v="bebyggelse" />
		<tag k="ssr:stedsnr" v="872535" />
		<tag k="ssr:type" v="bruk" />
	</node>
	<node id="-231081" lat="59.5116333363" lon="11.0857361122">
		<tag k="fixme" v="consider natural=peak for the most distinct mountains in the district" />
		<tag k="name" v="Nygårdåsen" />
		<tag k="natural" v="hill" />
		<tag k="place" v="locality" />
		<tag k="ssr:date" v="2019-12-27" />
		<tag k="ssr:gruppe" v="høyder" />
		<tag k="ssr:hovedgruppe" v="terreng" />
		<tag k="ssr:stedsnr" v="871852" />
		<tag k="ssr:type" v="ås" />
	</node>
	<node id="-231080" lat="59.506844446" lon="11.185333339">
		<tag k="name" v="Dalby" />
		<tag k="place" v="farm" />
		<tag k="ssr:date" v="2019-12-27" />
		<tag k="ssr:gruppe" v="gardsbebyggelse" />
		<tag k="ssr:hovedgruppe" v="bebyggelse" />
		<tag k="ssr:stedsnr" v="854684" />
		<tag k="ssr:type" v="bruk" />
	</node>
	<node id="-231079" lat="59.4521500012" lon="11.1663749936">
		<tag k="alt_name" v="Åmot østre" />
		<tag k="name" v="Østre Åmot" />
		<tag k="place" v="farm" />
		<tag k="ssr:date" v="2019-12-27" />
		<tag k="ssr:gruppe" v="gardsbebyggelse" />
		<tag k="ssr:hovedgruppe" v="bebyggelse" />
		<tag k="ssr:stedsnr" v="852248" />
		<tag k="ssr:type" v="bruk" />
	</node>
	<node id="-231078" lat="59.4491777766" lon="11.1605111122">
		<tag k="alt_name" v="Åmot søndre" />
		<tag k="name" v="Søndre Åmot" />
		<tag k="place" v="farm" />
		<tag k="ssr:date" v="2019-12-27" />
		<tag k="ssr:gruppe" v="gardsbebyggelse" />
		<tag k="ssr:hovedgruppe" v="bebyggelse" />
		<tag k="ssr:stedsnr" v="852247" />
		<tag k="ssr:type" v="bruk" />
	</node>
	<node id="-231077" lat="59.4061142326" lon="11.176483332">
		<tag k="name" v="Glenne" />
		<tag k="place" v="hamlet" />
		<tag k="ssr:date" v="2019-12-27" />
		<tag k="ssr:gruppe" v="gardsbebyggelse" />
		<tag k="ssr:hovedgruppe" v="bebyggelse" />
		<tag k="ssr:stedsnr" v="852149" />
		<tag k="ssr:type" v="navnegard" />
	</node>
	<node id="-231076" lat="59.4119250033" lon="11.1469472147">
		<tag k="alt_name" v="Tyriklevåsen" />
		<tag k="fixme" v="consider natural=peak for the most distinct mountains in the district" />
		<tag k="name" v="Bergedalsåsen" />
		<tag k="natural" v="hill" />
		<tag k="place" v="locality" />
		<tag k="ssr:date" v="2019-12-27" />
		<tag k="ssr:gruppe" v="høyder" />
		<tag k="ssr:hovedgruppe" v="terreng" />
		<tag k="ssr:stedsnr" v="852127" />
		<tag k="ssr:type" v="ås" />
	</node>
	<node id="-231075" lat="59.457499999" lon="11.1852750046">
		<tag k="name" v="Hønstvet" />
		<tag k="place" v="farm" />
		<tag k="ssr:date" v="2019-12-27" />
		<tag k="ssr:gruppe" v="gardsbebyggelse" />
		<tag k="ssr:hovedgruppe" v="bebyggelse" />
		<tag k="ssr:stedsnr" v="852234" />
		<tag k="ssr:type" v="bruk" />
	</node>
	<node id="-231074" lat="59.4567075353" lon="11.2047391743">
		<tag k="alt_name" v="Liverud søndre" />
		<tag k="name" v="Søndre Liverud" />
		<tag k="place" v="farm" />
		<tag k="ssr:date" v="2019-12-27" />
		<tag k="ssr:gruppe" v="gardsbebyggelse" />
		<tag k="ssr:hovedgruppe" v="bebyggelse" />
		<tag k="ssr:stedsnr" v="852231" />
		<tag k="ssr:type" v="bruk" />
	</node>
	<node id="-231073" lat="59.5230333295" lon="11.1946583322">
		<tag k="alt_name" v="Mattishuset" />
		<tag k="name" v="Mathishuset" />
		<tag k="place" v="farm" />
		<tag k="ssr:date" v="2019-12-27" />
		<tag k="ssr:gruppe" v="gardsbebyggelse" />
		<tag k="ssr:hovedgruppe" v="bebyggelse" />
		<tag k="ssr:stedsnr" v="812081" />
		<tag k="ssr:type" v="bruk" />
	</node>
	<node id="-231072" lat="59.5192472244" lon="11.2065416652">
		<tag k="name" v="Aservika" />
		<tag k="natural" v="bay" />
		<tag k="ssr:date" v="2019-12-27" />
		<tag k="ssr:gruppe" v="ferskvannskontur" />
		<tag k="ssr:hovedgruppe" v="ferskvann" />
		<tag k="ssr:stedsnr" v="812076" />
		<tag k="ssr:type" v="vik" />
	</node>
	<node id="-231071" lat="59.4455666661" lon="11.1975666713">
		<tag k="name" v="Stuputlandet" />
		<tag k="natural" v="beach" />
		<tag k="ssr:date" v="2019-12-27" />
		<tag k="ssr:gruppe" v="ferskvannskontur" />
		<tag k="ssr:hovedgruppe" v="ferskvann" />
		<tag k="ssr:stedsnr" v="811984" />
		<tag k="ssr:type" v="strand" />
	</node>
	<node id="-231070" lat="59.5074111142" lon="11.1177277776">
		<tag k="name" v="Midtskogen" />
		<tag k="place" v="locality" />
		<tag k="ssr:date" v="2019-12-27" />
		<tag k="ssr:gruppe" v="vegetasjon" />
		<tag k="ssr:hovedgruppe" v="markslag" />
		<tag k="ssr:stedsnr" v="811982" />
		<tag k="ssr:type" v="skog" />
	</node>
	<node id="-231069" lat="59.4714395238" lon="11.1420130256">
		<tag k="alt_name" v="Toen nordre" />
		<tag k="name" v="Nordre Toen" />
		<tag k="place" v="farm" />
		<tag k="ssr:date" v="2019-12-27" />
		<tag k="ssr:gruppe" v="gardsbebyggelse" />
		<tag k="ssr:hovedgruppe" v="bebyggelse" />
		<tag k="ssr:stedsnr" v="811967" />
		<tag k="ssr:type" v="bruk" />
	</node>
	<node id="-231068" lat="59.5145472259" lon="11.1110249946">
		<tag k="name" v="Myretjern" />
		<tag k="natural" v="water" />
		<tag k="ssr:date" v="2019-12-27" />
		<tag k="ssr:gruppe" v="stilleståendeVann" />
		<tag k="ssr:hovedgruppe" v="ferskvann" />
		<tag k="ssr:stedsnr" v="811839" />
		<tag k="ssr:type" v="tjern" />
	</node>
	<node id="-231067" lat="59.5184944481" lon="11.1645333392">
		<tag k="name" v="Nord-Vister" />
		<tag k="place" v="farm" />
		<tag k="ssr:date" v="2019-12-27" />
		<tag k="ssr:gruppe" v="gardsbebyggelse" />
		<tag k="ssr:hovedgruppe" v="bebyggelse" />
		<tag k="ssr:stedsnr" v="811836" />
		<tag k="ssr:type" v="bruk" />
	</node>
	<node id="-231066" lat="59.5402444481" lon="11.1353944382">
		<tag k="alt_name" v="Svae søndre" />
		<tag k="name" v="Søndre Svae" />
		<tag k="place" v="farm" />
		<tag k="ssr:date" v="2019-12-27" />
		<tag k="ssr:gruppe" v="gardsbebyggelse" />
		<tag k="ssr:hovedgruppe" v="bebyggelse" />
		<tag k="ssr:stedsnr" v="810879" />
		<tag k="ssr:type" v="bruk" />
	</node>
	<node id="-231065" lat="59.5114505576" lon="11.1862288224">
		<tag k="fixme" v="consider place=hamlet" />
		<tag k="name" v="Ski" />
		<tag k="place" v="farm" />
		<tag k="ssr:date" v="2019-12-27" />
		<tag k="ssr:gruppe" v="gardsbebyggelse" />
		<tag k="ssr:hovedgruppe" v="bebyggelse" />
		<tag k="ssr:stedsnr" v="793715" />
		<tag k="ssr:type" v="gard" />
	</node>
	<node id="-231064" lat="59.5341249963" lon="11.1235000067">
		<tag k="alt_name" v="Solberg nordre;Solberg" />
		<tag k="name" v="Nordre Solberg" />
		<tag k="place" v="farm" />
		<tag k="ssr:date" v="2019-12-27" />
		<tag k="ssr:gruppe" v="gardsbebyggelse" />
		<tag k="ssr:hovedgruppe" v="bebyggelse" />
		<tag k="ssr:stedsnr" v="792718" />
		<tag k="ssr:type" v="bruk" />
	</node>
	<node id="-231063" lat="59.4715923912" lon="11.2055695692">
		<tag k="fixme" v="consider place=hamlet" />
		<tag k="name" v="Eng" />
		<tag k="place" v="farm" />
		<tag k="ssr:date" v="2019-12-27" />
		<tag k="ssr:gruppe" v="gardsbebyggelse" />
		<tag k="ssr:hovedgruppe" v="bebyggelse" />
		<tag k="ssr:stedsnr" v="791052" />
		<tag k="ssr:type" v="gard" />
	</node>
	<node id="-231062" lat="59.4776249965" lon="11.1121499973">
		<tag k="alt_name" v="Målhuset" />
		<tag k="name" v="Målehuset" />
		<tag k="place" v="farm" />
		<tag k="ssr:date" v="2019-12-27" />
		<tag k="ssr:gruppe" v="gardsbebyggelse" />
		<tag k="ssr:hovedgruppe" v="bebyggelse" />
		<tag k="ssr:stedsnr" v="791050" />
		<tag k="ssr:type" v="bruk" />
	</node>
	<node id="-231061" lat="59.4811277813" lon="11.1576500022">
		<tag k="alt_name" v="Skjelle søndre;Skjelle" />
		<tag k="name" v="Søndre Skjelle" />
		<tag k="place" v="farm" />
		<tag k="ssr:date" v="2019-12-27" />
		<tag k="ssr:gruppe" v="gardsbebyggelse" />
		<tag k="ssr:hovedgruppe" v="bebyggelse" />
		<tag k="ssr:stedsnr" v="791048" />
		<tag k="ssr:type" v="bruk" />
	</node>
	<node id="-231060" lat="59.4795055559" lon="11.1329999919">
		<tag k="name" v="Skrikerud" />
		<tag k="place" v="farm" />
		<tag k="ssr:date" v="2019-12-27" />
		<tag k="ssr:gruppe" v="gardsbebyggelse" />
		<tag k="ssr:hovedgruppe" v="bebyggelse" />
		<tag k="ssr:stedsnr" v="791047" />
		<tag k="ssr:type" v="bruk" />
	</node>
	<node id="-231059" lat="59.4839055539" lon="11.1336722184">
		<tag k="name" v="Moseby" />
		<tag k="place" v="farm" />
		<tag k="ssr:date" v="2019-12-27" />
		<tag k="ssr:gruppe" v="gardsbebyggelse" />
		<tag k="ssr:hovedgruppe" v="bebyggelse" />
		<tag k="ssr:stedsnr" v="791046" />
		<tag k="ssr:type" v="bruk" />
	</node>
	<node id="-231058" lat="59.4867555581" lon="11.1905027728">
		<tag k="alt_name" v="Bilit" />
		<tag k="name" v="Bilitt" />
		<tag k="place" v="farm" />
		<tag k="ssr:date" v="2019-12-27" />
		<tag k="ssr:gruppe" v="gardsbebyggelse" />
		<tag k="ssr:hovedgruppe" v="bebyggelse" />
		<tag k="ssr:stedsnr" v="791043" />
		<tag k="ssr:type" v="bruk" />
	</node>
	<node id="-231057" lat="59.4592369085" lon="11.1385616445">
		<tag k="alt_name" v="Snerstad" />
		<tag k="fixme" v="consider place=hamlet" />
		<tag k="name" v="Sperstad" />
		<tag k="place" v="farm" />
		<tag k="ssr:date" v="2019-12-27" />
		<tag k="ssr:gruppe" v="gardsbebyggelse" />
		<tag k="ssr:hovedgruppe" v="bebyggelse" />
		<tag k="ssr:stedsnr" v="791219" />
		<tag k="ssr:type" v="gard" />
	</node>
	<node id="-231056" lat="59.4420361099" lon="11.162605558">
		<tag k="alt_name" v="Sletner" />
		<tag k="name" v="Slettner" />
		<tag k="place" v="farm" />
		<tag k="ssr:date" v="2019-12-27" />
		<tag k="ssr:gruppe" v="gardsbebyggelse" />
		<tag k="ssr:hovedgruppe" v="bebyggelse" />
		<tag k="ssr:stedsnr" v="791198" />
		<tag k="ssr:type" v="bruk" />
	</node>
	<node id="-231055" lat="59.5106888912" lon="11.203294436">
		<tag k="name" v="Åsland" />
		<tag k="place" v="farm" />
		<tag k="ssr:date" v="2019-12-27" />
		<tag k="ssr:gruppe" v="gardsbebyggelse" />
		<tag k="ssr:hovedgruppe" v="bebyggelse" />
		<tag k="ssr:stedsnr" v="752076" />
		<tag k="ssr:type" v="bruk" />
	</node>
	<node id="-231054" lat="59.524797218" lon="11.1981166586">
		<tag k="name" v="Hestehagen" />
		<tag k="place" v="farm" />
		<tag k="ssr:date" v="2019-12-27" />
		<tag k="ssr:gruppe" v="gardsbebyggelse" />
		<tag k="ssr:hovedgruppe" v="bebyggelse" />
		<tag k="ssr:stedsnr" v="752073" />
		<tag k="ssr:type" v="bruk" />
	</node>
	<node id="-231053" lat="59.5163638873" lon="11.1518111089">
		<tag k="name" v="Finnestad" />
		<tag k="place" v="farm" />
		<tag k="ssr:date" v="2019-12-27" />
		<tag k="ssr:gruppe" v="gardsbebyggelse" />
		<tag k="ssr:hovedgruppe" v="bebyggelse" />
		<tag k="ssr:stedsnr" v="750826" />
		<tag k="ssr:type" v="bruk" />
	</node>
	<node id="-231052" lat="59.4695611121" lon="11.1968527726">
		<tag k="name" v="Hagen" />
		<tag k="place" v="farm" />
		<tag k="ssr:date" v="2019-12-27" />
		<tag k="ssr:gruppe" v="gardsbebyggelse" />
		<tag k="ssr:hovedgruppe" v="bebyggelse" />
		<tag k="ssr:stedsnr" v="750550" />
		<tag k="ssr:type" v="bruk" />
	</node>
	<node id="-231051" lat="59.4334722208" lon="11.1727388963">
		<tag k="name" v="Knutebråten" />
		<tag k="place" v="farm" />
		<tag k="ssr:date" v="2019-12-27" />
		<tag k="ssr:gruppe" v="gardsbebyggelse" />
		<tag k="ssr:hovedgruppe" v="bebyggelse" />
		<tag k="ssr:stedsnr" v="750499" />
		<tag k="ssr:type" v="bruk" />
	</node>
	<node id="-231050" lat="59.4609999964" lon="11.181441659">
		<tag k="name" v="Skjønhaug" />
		<tag k="place" v="farm" />
		<tag k="ssr:date" v="2019-12-27" />
		<tag k="ssr:gruppe" v="gardsbebyggelse" />
		<tag k="ssr:hovedgruppe" v="bebyggelse" />
		<tag k="ssr:stedsnr" v="750992" />
		<tag k="ssr:type" v="bruk" />
	</node>
	<node id="-231049" lat="59.4548111078" lon="11.189211103">
		<tag k="fixme" v="consider natural=peak for the most distinct mountains in the district" />
		<tag k="name" v="Klausåsen" />
		<tag k="natural" v="hill" />
		<tag k="place" v="locality" />
		<tag k="ssr:date" v="2019-12-27" />
		<tag k="ssr:gruppe" v="høyder" />
		<tag k="ssr:hovedgruppe" v="terreng" />
		<tag k="ssr:stedsnr" v="750987" />
		<tag k="ssr:type" v="ås" />
	</node>
	<node id="-231048" lat="59.4710694434" lon="11.091530551">
		<tag k="alt_name" v="Unnestadmosen" />
		<tag k="name" v="Ånnestadmosen" />
		<tag k="natural" v="wetland" />
		<tag k="ssr:date" v="2019-12-27" />
		<tag k="ssr:gruppe" v="våtmark" />
		<tag k="ssr:hovedgruppe" v="markslag" />
		<tag k="ssr:stedsnr" v="750967" />
		<tag k="ssr:type" v="myr" />
	</node>
	<node id="-231047" lat="59.4950222181" lon="11.1048333284">
		<tag k="alt_name" v="Strand nordre" />
		<tag k="name" v="Nordre Strand" />
		<tag k="place" v="farm" />
		<tag k="ssr:date" v="2019-12-27" />
		<tag k="ssr:gruppe" v="gardsbebyggelse" />
		<tag k="ssr:hovedgruppe" v="bebyggelse" />
		<tag k="ssr:stedsnr" v="750958" />
		<tag k="ssr:type" v="bruk" />
	</node>
	<node id="-231046" lat="59.5044999986" lon="11.1057388921">
		<tag k="name" v="Løkken" />
		<tag k="place" v="farm" />
		<tag k="ssr:date" v="2019-12-27" />
		<tag k="ssr:gruppe" v="gardsbebyggelse" />
		<tag k="ssr:hovedgruppe" v="bebyggelse" />
		<tag k="ssr:stedsnr" v="750954" />
		<tag k="ssr:type" v="bruk" />
	</node>
	<node id="-231045" lat="59.4626138864" lon="11.1631888818">
		<tag k="name" v="Holsvingen" />
		<tag k="place" v="locality" />
		<tag k="ssr:date" v="2019-12-27" />
		<tag k="ssr:gruppe" v="gardsbebyggelse" />
		<tag k="ssr:hovedgruppe" v="bebyggelse" />
		<tag k="ssr:stedsnr" v="629961" />
		<tag k="ssr:type" v="eiendom" />
	</node>
	<node id="-231044" lat="59.4590000034" lon="11.1492916753">
		<tag k="name" v="Skavland" />
		<tag k="place" v="farm" />
		<tag k="ssr:date" v="2019-12-27" />
		<tag k="ssr:gruppe" v="gardsbebyggelse" />
		<tag k="ssr:hovedgruppe" v="bebyggelse" />
		<tag k="ssr:stedsnr" v="629958" />
		<tag k="ssr:type" v="bruk" />
	</node>
	<node id="-231043" lat="59.4512499982" lon="11.1765527812">
		<tag k="name" v="Solberg" />
		<tag k="place" v="farm" />
		<tag k="ssr:date" v="2019-12-27" />
		<tag k="ssr:gruppe" v="gardsbebyggelse" />
		<tag k="ssr:hovedgruppe" v="bebyggelse" />
		<tag k="ssr:stedsnr" v="628987" />
		<tag k="ssr:type" v="bruk" />
	</node>
	<node id="-231042" lat="59.4671611135" lon="11.1939305518">
		<tag k="name" v="Ekeberghytta" />
		<tag k="place" v="farm" />
		<tag k="ssr:date" v="2019-12-27" />
		<tag k="ssr:gruppe" v="gardsbebyggelse" />
		<tag k="ssr:hovedgruppe" v="bebyggelse" />
		<tag k="ssr:stedsnr" v="628516" />
		<tag k="ssr:type" v="bruk" />
	</node>
	<node id="-231041" lat="59.4996731772" lon="11.2168208225">
		<tag k="fixme" v="consider place=hamlet" />
		<tag k="name" v="Foss" />
		<tag k="place" v="farm" />
		<tag k="ssr:date" v="2019-12-27" />
		<tag k="ssr:gruppe" v="gardsbebyggelse" />
		<tag k="ssr:hovedgruppe" v="bebyggelse" />
		<tag k="ssr:stedsnr" v="610727" />
		<tag k="ssr:type" v="gard" />
	</node>
	<node id="-231040" lat="59.5108555538" lon="11.1383499915">
		<tag k="name" v="Ilebakke" />
		<tag k="place" v="farm" />
		<tag k="ssr:date" v="2019-12-27" />
		<tag k="ssr:gruppe" v="gardsbebyggelse" />
		<tag k="ssr:hovedgruppe" v="bebyggelse" />
		<tag k="ssr:stedsnr" v="610715" />
		<tag k="ssr:type" v="bruk" />
	</node>
	<node id="-231039" lat="59.4956608639" lon="11.1996160703">
		<tag k="alt_name" v="Ladim" />
		<tag k="fixme" v="consider place=hamlet" />
		<tag k="name" v="Laum" />
		<tag k="place" v="farm" />
		<tag k="ssr:date" v="2019-12-27" />
		<tag k="ssr:gruppe" v="gardsbebyggelse" />
		<tag k="ssr:hovedgruppe" v="bebyggelse" />
		<tag k="ssr:stedsnr" v="610094" />
		<tag k="ssr:type" v="gard" />
	</node>
	<node id="-231038" lat="59.4819972242" lon="11.1014083354">
		<tag k="name" v="Gudum" />
		<tag k="place" v="farm" />
		<tag k="ssr:date" v="2019-12-27" />
		<tag k="ssr:gruppe" v="gardsbebyggelse" />
		<tag k="ssr:hovedgruppe" v="bebyggelse" />
		<tag k="ssr:stedsnr" v="609065" />
		<tag k="ssr:type" v="bruk" />
	</node>
	<node id="-231037" lat="59.4746499987" lon="11.1611166618">
		<tag k="name" v="Meieribyen" />
		<tag k="place" v="village" />
		<tag k="ssr:date" v="2019-12-27" />
		<tag k="ssr:gruppe" v="bebyggelsesområder" />
		<tag k="ssr:hovedgruppe" v="bebyggelse" />
		<tag k="ssr:stedsnr" v="609052" />
		<tag k="ssr:type" v="tettsted" />
	</node>
	<node id="-231036" lat="59.4691118984" lon="11.1741445635">
		<tag k="alt_name" v="Prestegården" />
		<tag k="fixme" v="consider place=hamlet" />
		<tag k="name" v="Skiptvet prestegård" />
		<tag k="place" v="farm" />
		<tag k="ssr:date" v="2019-12-27" />
		<tag k="ssr:gruppe" v="gardsbebyggelse" />
		<tag k="ssr:hovedgruppe" v="bebyggelse" />
		<tag k="ssr:stedsnr" v="608026" />
		<tag k="ssr:type" v="gard" />
	</node>
	<node id="-231035" lat="59.4701077579" lon="11.1122372304">
		<tag k="alt_name" v="Berg østre" />
		<tag k="name" v="Berg" />
		<tag k="place" v="hamlet" />
		<tag k="ssr:date" v="2019-12-27" />
		<tag k="ssr:gruppe" v="gardsbebyggelse" />
		<tag k="ssr:hovedgruppe" v="bebyggelse" />
		<tag k="ssr:stedsnr" v="608011" />
		<tag k="ssr:type" v="navnegard" />
	</node>
	<node id="-231034" lat="59.4769138914" lon="11.1612250072">
		<tag k="name" v="Skiptvet" />
		<tag k="place" v="village" />
		<tag k="ssr:date" v="2019-12-27" />
		<tag k="ssr:gruppe" v="bebyggelsesområder" />
		<tag k="ssr:hovedgruppe" v="bebyggelse" />
		<tag k="ssr:stedsnr" v="570403" />
		<tag k="ssr:type" v="tettsted" />
	</node>
	<node id="-231033" lat="59.5214833347" lon="11.2002694465">
		<tag k="name" v="Frantshuset" />
		<tag k="place" v="farm" />
		<tag k="ssr:date" v="2019-12-27" />
		<tag k="ssr:gruppe" v="gardsbebyggelse" />
		<tag k="ssr:hovedgruppe" v="bebyggelse" />
		<tag k="ssr:stedsnr" v="569100" />
		<tag k="ssr:type" v="bruk" />
	</node>
	<node id="-231032" lat="59.5183805595" lon="11.2067666669">
		<tag k="name" v="Veiby Reirshullet" />
		<tag k="place" v="farm" />
		<tag k="ssr:date" v="2019-12-27" />
		<tag k="ssr:gruppe" v="gardsbebyggelse" />
		<tag k="ssr:hovedgruppe" v="bebyggelse" />
		<tag k="ssr:stedsnr" v="569099" />
		<tag k="ssr:type" v="bruk" />
	</node>
	<node id="-231031" lat="59.5159055595" lon="11.2076472302">
		<tag k="name" v="Høgås" />
		<tag k="place" v="farm" />
		<tag k="ssr:date" v="2019-12-27" />
		<tag k="ssr:gruppe" v="gardsbebyggelse" />
		<tag k="ssr:hovedgruppe" v="bebyggelse" />
		<tag k="ssr:stedsnr" v="569094" />
		<tag k="ssr:type" v="bruk" />
	</node>
	<node id="-231030" lat="59.4572027778" lon="11.1908416717">
		<tag k="name" v="Østby" />
		<tag k="place" v="farm" />
		<tag k="ssr:date" v="2019-12-27" />
		<tag k="ssr:gruppe" v="gardsbebyggelse" />
		<tag k="ssr:hovedgruppe" v="bebyggelse" />
		<tag k="ssr:stedsnr" v="568991" />
		<tag k="ssr:type" v="bruk" />
	</node>
	<node id="-231029" lat="59.5045444491" lon="11.1651722138">
		<tag k="name" v="Vestereng" />
		<tag k="place" v="farm" />
		<tag k="ssr:date" v="2019-12-27" />
		<tag k="ssr:gruppe" v="gardsbebyggelse" />
		<tag k="ssr:hovedgruppe" v="bebyggelse" />
		<tag k="ssr:stedsnr" v="568980" />
		<tag k="ssr:type" v="bruk" />
	</node>
	<node id="-231028" lat="59.477033334" lon="11.0895">
		<tag k="name" v="Skredderstykket" />
		<tag k="place" v="locality" />
		<tag k="ssr:date" v="2019-12-27" />
		<tag k="ssr:gruppe" v="gardsbebyggelse" />
		<tag k="ssr:hovedgruppe" v="bebyggelse" />
		<tag k="ssr:stedsnr" v="568978" />
		<tag k="ssr:type" v="eiendom" />
	</node>
	<node id="-231027" lat="59.4750916645" lon="11.0825638875">
		<tag k="name" v="Prestbystykket" />
		<tag k="place" v="locality" />
		<tag k="ssr:date" v="2019-12-27" />
		<tag k="ssr:gruppe" v="gardsbebyggelse" />
		<tag k="ssr:hovedgruppe" v="bebyggelse" />
		<tag k="ssr:stedsnr" v="568973" />
		<tag k="ssr:type" v="eiendom" />
	</node>
	<node id="-231026" lat="59.4992944459" lon="11.0853388892">
		<tag k="name" v="Padal" />
		<tag k="place" v="farm" />
		<tag k="ssr:date" v="2019-12-27" />
		<tag k="ssr:gruppe" v="gardsbebyggelse" />
		<tag k="ssr:hovedgruppe" v="bebyggelse" />
		<tag k="ssr:stedsnr" v="568961" />
		<tag k="ssr:type" v="bruk" />
	</node>
	<node id="-231025" lat="59.457044441" lon="11.1570416741">
		<tag k="name" v="Åmotsvinger" />
		<tag k="place" v="locality" />
		<tag k="ssr:date" v="2019-12-27" />
		<tag k="ssr:gruppe" v="gardsbebyggelse" />
		<tag k="ssr:hovedgruppe" v="bebyggelse" />
		<tag k="ssr:stedsnr" v="568946" />
		<tag k="ssr:type" v="eiendom" />
	</node>
	<node id="-231024" lat="59.4652972207" lon="11.2087361052">
		<tag k="name" v="Ruenebukta" />
		<tag k="natural" v="bay" />
		<tag k="ssr:date" v="2019-12-27" />
		<tag k="ssr:gruppe" v="ferskvannskontur" />
		<tag k="ssr:hovedgruppe" v="ferskvann" />
		<tag k="ssr:stedsnr" v="568531" />
		<tag k="ssr:type" v="vik" />
	</node>
	<node id="-231023" lat="59.4675833349" lon="11.2111444483">
		<tag k="name" v="Espenes" />
		<tag k="place" v="farm" />
		<tag k="ssr:date" v="2019-12-27" />
		<tag k="ssr:gruppe" v="gardsbebyggelse" />
		<tag k="ssr:hovedgruppe" v="bebyggelse" />
		<tag k="ssr:stedsnr" v="568502" />
		<tag k="ssr:type" v="bruk" />
	</node>
	<node id="-231022" lat="59.4853250041" lon="11.2271722192">
		<tag k="alt_name" v="Skipperud østre" />
		<tag k="name" v="Østre Skipperud" />
		<tag k="place" v="farm" />
		<tag k="ssr:date" v="2019-12-27" />
		<tag k="ssr:gruppe" v="gardsbebyggelse" />
		<tag k="ssr:hovedgruppe" v="bebyggelse" />
		<tag k="ssr:stedsnr" v="568501" />
		<tag k="ssr:type" v="bruk" />
	</node>
	<node id="-231021" lat="59.5364972203" lon="11.1671166697">
		<tag k="name" v="Trossvikbukta" />
		<tag k="natural" v="bay" />
		<tag k="ssr:date" v="2019-12-27" />
		<tag k="ssr:gruppe" v="ferskvannskontur" />
		<tag k="ssr:hovedgruppe" v="ferskvann" />
		<tag k="ssr:stedsnr" v="567870" />
		<tag k="ssr:type" v="vik" />
	</node>
	<node id="-231020" lat="59.5280805522" lon="11.1375138942">
		<tag k="alt_name" v="Jakobshaugen nordre" />
		<tag k="name" v="Nordre Jakobshaugen" />
		<tag k="place" v="farm" />
		<tag k="ssr:date" v="2019-12-27" />
		<tag k="ssr:gruppe" v="gardsbebyggelse" />
		<tag k="ssr:hovedgruppe" v="bebyggelse" />
		<tag k="ssr:stedsnr" v="567864" />
		<tag k="ssr:type" v="bruk" />
	</node>
	<node id="-231019" lat="59.5267611072" lon="11.1200833419">
		<tag k="alt_name" v="Holmerud nordre" />
		<tag k="name" v="Nordre Holmerud" />
		<tag k="place" v="farm" />
		<tag k="ssr:date" v="2019-12-27" />
		<tag k="ssr:gruppe" v="gardsbebyggelse" />
		<tag k="ssr:hovedgruppe" v="bebyggelse" />
		<tag k="ssr:stedsnr" v="567862" />
		<tag k="ssr:type" v="bruk" />
	</node>
	<node id="-231018" lat="59.5300120177" lon="11.1214485492">
		<tag k="fixme" v="consider place=hamlet" />
		<tag k="name" v="Smertu" />
		<tag k="place" v="farm" />
		<tag k="ssr:date" v="2019-12-27" />
		<tag k="ssr:gruppe" v="gardsbebyggelse" />
		<tag k="ssr:hovedgruppe" v="bebyggelse" />
		<tag k="ssr:stedsnr" v="549712" />
		<tag k="ssr:type" v="gard" />
	</node>
	<node id="-231017" lat="59.5396500008" lon="11.1832999947">
		<tag k="name" v="Strømnes" />
		<tag k="place" v="farm" />
		<tag k="ssr:date" v="2019-12-27" />
		<tag k="ssr:gruppe" v="gardsbebyggelse" />
		<tag k="ssr:hovedgruppe" v="bebyggelse" />
		<tag k="ssr:stedsnr" v="549479" />
		<tag k="ssr:type" v="bruk" />
	</node>
	<node id="-231016" lat="59.5027277773" lon="11.0834444367">
		<tag k="name" v="Utenga" />
		<tag k="place" v="farm" />
		<tag k="ssr:date" v="2019-12-27" />
		<tag k="ssr:gruppe" v="gardsbebyggelse" />
		<tag k="ssr:hovedgruppe" v="bebyggelse" />
		<tag k="ssr:stedsnr" v="549088" />
		<tag k="ssr:type" v="bruk" />
	</node>
	<node id="-231015" lat="59.4465424925" lon="11.1872819285">
		<tag k="fixme" v="consider place=hamlet" />
		<tag k="name" v="Bråtenes" />
		<tag k="place" v="farm" />
		<tag k="ssr:date" v="2019-12-27" />
		<tag k="ssr:gruppe" v="gardsbebyggelse" />
		<tag k="ssr:hovedgruppe" v="bebyggelse" />
		<tag k="ssr:stedsnr" v="548248" />
		<tag k="ssr:type" v="gard" />
	</node>
	<node id="-231014" lat="59.457844737" lon="11.1632395146">
		<tag k="name" v="Gullhaugen" />
		<tag k="place" v="locality" />
		<tag k="ssr:date" v="2019-12-27" />
		<tag k="ssr:gruppe" v="gardsbebyggelse" />
		<tag k="ssr:hovedgruppe" v="bebyggelse" />
		<tag k="ssr:stedsnr" v="548228" />
		<tag k="ssr:type" v="eiendom" />
	</node>
	<node id="-231013" lat="59.4349499969" lon="11.1497222282">
		<tag k="name" v="Helgerud" />
		<tag k="place" v="farm" />
		<tag k="ssr:date" v="2019-12-27" />
		<tag k="ssr:gruppe" v="gardsbebyggelse" />
		<tag k="ssr:hovedgruppe" v="bebyggelse" />
		<tag k="ssr:stedsnr" v="548224" />
		<tag k="ssr:type" v="bruk" />
	</node>
	<node id="-231012" lat="59.439424996" lon="11.1399805498">
		<tag k="alt_name" v="Husengen" />
		<tag k="name" v="Husenga" />
		<tag k="place" v="farm" />
		<tag k="ssr:date" v="2019-12-27" />
		<tag k="ssr:gruppe" v="gardsbebyggelse" />
		<tag k="ssr:hovedgruppe" v="bebyggelse" />
		<tag k="ssr:stedsnr" v="548208" />
		<tag k="ssr:type" v="bruk" />
	</node>
	<node id="-231011" lat="59.4410833363" lon="11.1433722311">
		<tag k="name" v="Rallås" />
		<tag k="place" v="farm" />
		<tag k="ssr:date" v="2019-12-27" />
		<tag k="ssr:gruppe" v="gardsbebyggelse" />
		<tag k="ssr:hovedgruppe" v="bebyggelse" />
		<tag k="ssr:stedsnr" v="548207" />
		<tag k="ssr:type" v="bruk" />
	</node>
	<node id="-231010" lat="59.47618551" lon="11.1019752244">
		<tag k="alt_name" v="Unnestad" />
		<tag k="fixme" v="consider place=hamlet" />
		<tag k="name" v="Ånnestad" />
		<tag k="place" v="farm" />
		<tag k="ssr:date" v="2019-12-27" />
		<tag k="ssr:gruppe" v="gardsbebyggelse" />
		<tag k="ssr:hovedgruppe" v="bebyggelse" />
		<tag k="ssr:stedsnr" v="548059" />
		<tag k="ssr:type" v="gard" />
	</node>
	<node id="-231009" lat="59.4815916686" lon="11.0856555567">
		<tag k="alt_name" v="Lundstjern" />
		<tag k="name" v="Lundstjernet" />
		<tag k="natural" v="water" />
		<tag k="ssr:date" v="2019-12-27" />
		<tag k="ssr:gruppe" v="stilleståendeVann" />
		<tag k="ssr:hovedgruppe" v="ferskvann" />
		<tag k="ssr:stedsnr" v="428686" />
		<tag k="ssr:type" v="tjern" />
	</node>
	<node id="-231008" lat="59.4981361072" lon="11.0841166633">
		<tag k="name" v="Teppa" />
		<tag k="place" v="farm" />
		<tag k="ssr:date" v="2019-12-27" />
		<tag k="ssr:gruppe" v="gardsbebyggelse" />
		<tag k="ssr:hovedgruppe" v="bebyggelse" />
		<tag k="ssr:stedsnr" v="428649" />
		<tag k="ssr:type" v="bruk" />
	</node>
	<node id="-231007" lat="59.4980499985" lon="11.2232472244">
		<tag k="alt_name" v="Nordnes" />
		<tag k="name" v="Nes" />
		<tag k="place" v="farm" />
		<tag k="ssr:date" v="2019-12-27" />
		<tag k="ssr:gruppe" v="gardsbebyggelse" />
		<tag k="ssr:hovedgruppe" v="bebyggelse" />
		<tag k="ssr:stedsnr" v="428085" />
		<tag k="ssr:type" v="bruk" />
	</node>
	<node id="-231006" lat="59.5024500018" lon="11.0863999974">
		<tag k="name" v="Hagen" />
		<tag k="place" v="farm" />
		<tag k="ssr:date" v="2019-12-27" />
		<tag k="ssr:gruppe" v="gardsbebyggelse" />
		<tag k="ssr:hovedgruppe" v="bebyggelse" />
		<tag k="ssr:stedsnr" v="428076" />
		<tag k="ssr:type" v="bruk" />
	</node>
	<node id="-231005" lat="59.4256249975" lon="11.136305547">
		<tag k="name" v="Bråten" />
		<tag k="place" v="farm" />
		<tag k="ssr:date" v="2019-12-27" />
		<tag k="ssr:gruppe" v="gardsbebyggelse" />
		<tag k="ssr:hovedgruppe" v="bebyggelse" />
		<tag k="ssr:stedsnr" v="427193" />
		<tag k="ssr:type" v="bruk" />
	</node>
	<node id="-231004" lat="59.4650000002" lon="11.2127472137">
		<tag k="alt_name" v="Espenestangen" />
		<tag k="name" v="Espeneset" />
		<tag k="natural" v="cape" />
		<tag k="ssr:date" v="2019-12-27" />
		<tag k="ssr:gruppe" v="ferskvannskontur" />
		<tag k="ssr:hovedgruppe" v="ferskvann" />
		<tag k="ssr:stedsnr" v="427233" />
		<tag k="ssr:type" v="nes" />
	</node>
	<node id="-231003" lat="59.4191555576" lon="11.1755749963">
		<tag k="name" v="Svartedal" />
		<tag k="place" v="farm" />
		<tag k="ssr:date" v="2019-12-27" />
		<tag k="ssr:gruppe" v="gardsbebyggelse" />
		<tag k="ssr:hovedgruppe" v="bebyggelse" />
		<tag k="ssr:stedsnr" v="427133" />
		<tag k="ssr:type" v="bruk" />
	</node>
	<node id="-231002" lat="60.9394388853" lon="11.516244439">
		<tag k="fixme" v="multiple name tags, choose one and add the other to alt_name" />
		<tag k="name" v="Glomma;Glåma" />
		<tag k="ssr:date" v="2019-12-27" />
		<tag k="ssr:gruppe" v="rennendeVann" />
		<tag k="ssr:hovedgruppe" v="ferskvann" />
		<tag k="ssr:stedsnr" v="426301" />
		<tag k="ssr:type" v="elv" />
		<tag k="waterway" v="river" />
	</node>
	<node id="-231001" lat="59.4502138873" lon="11.2012527725">
		<tag k="name" v="Sandbukta" />
		<tag k="natural" v="bay" />
		<tag k="ssr:date" v="2019-12-27" />
		<tag k="ssr:gruppe" v="ferskvannskontur" />
		<tag k="ssr:hovedgruppe" v="ferskvann" />
		<tag k="ssr:stedsnr" v="386991" />
		<tag k="ssr:type" v="vik" />
	</node>
	<node id="-231000" lat="59.456875003" lon="11.0986111034">
		<tag k="name" v="Bjørnland" />
		<tag k="place" v="locality" />
		<tag k="ssr:date" v="2019-12-27" />
		<tag k="ssr:gruppe" v="gardsbebyggelse" />
		<tag k="ssr:hovedgruppe" v="bebyggelse" />
		<tag k="ssr:stedsnr" v="386946" />
		<tag k="ssr:type" v="eiendom" />
	</node>
	<node id="-230999" lat="59.4443750026" lon="11.1573138856">
		<tag k="alt_name" v="Berg nordre" />
		<tag k="name" v="Nordre Berg" />
		<tag k="place" v="farm" />
		<tag k="ssr:date" v="2019-12-27" />
		<tag k="ssr:gruppe" v="gardsbebyggelse" />
		<tag k="ssr:hovedgruppe" v="bebyggelse" />
		<tag k="ssr:stedsnr" v="386943" />
		<tag k="ssr:type" v="bruk" />
	</node>
	<node id="-230998" lat="59.495663888" lon="11.1470527714">
		<tag k="name" v="Åsen" />
		<tag k="place" v="farm" />
		<tag k="ssr:date" v="2019-12-27" />
		<tag k="ssr:gruppe" v="gardsbebyggelse" />
		<tag k="ssr:hovedgruppe" v="bebyggelse" />
		<tag k="ssr:stedsnr" v="386979" />
		<tag k="ssr:type" v="bruk" />
	</node>
	<node id="-230997" lat="59.521288885" lon="11.1569722163">
		<tag k="name" v="Falkensten" />
		<tag k="place" v="farm" />
		<tag k="ssr:date" v="2019-12-27" />
		<tag k="ssr:gruppe" v="gardsbebyggelse" />
		<tag k="ssr:hovedgruppe" v="bebyggelse" />
		<tag k="ssr:stedsnr" v="386848" />
		<tag k="ssr:type" v="bruk" />
	</node>
	<node id="-230996" lat="59.525158329" lon="11.1378638915">
		<tag k="name" v="Hauger" />
		<tag k="place" v="farm" />
		<tag k="ssr:date" v="2019-12-27" />
		<tag k="ssr:gruppe" v="gardsbebyggelse" />
		<tag k="ssr:hovedgruppe" v="bebyggelse" />
		<tag k="ssr:stedsnr" v="386845" />
		<tag k="ssr:type" v="bruk" />
	</node>
	<node id="-230995" lat="59.4425888915" lon="11.1726444524">
		<tag k="name" v="Solbergdalen" />
		<tag k="place" v="farm" />
		<tag k="ssr:date" v="2019-12-27" />
		<tag k="ssr:gruppe" v="gardsbebyggelse" />
		<tag k="ssr:hovedgruppe" v="bebyggelse" />
		<tag k="ssr:stedsnr" v="386494" />
		<tag k="ssr:type" v="bruk" />
	</node>
	<node id="-230994" lat="59.5062722215" lon="11.1897777854">
		<tag k="alt_name" v="Haugensbekken" />
		<tag k="fixme" v="multiple name tags, choose one and add the other to alt_name" />
		<tag k="name" v="Haugesbekken;Rødsbekken" />
		<tag k="ssr:date" v="2019-12-27" />
		<tag k="ssr:gruppe" v="rennendeVann" />
		<tag k="ssr:hovedgruppe" v="ferskvann" />
		<tag k="ssr:stedsnr" v="386482" />
		<tag k="ssr:type" v="bekk" />
		<tag k="waterway" v="stream" />
	</node>
	<node id="-230993" lat="59.5088777762" lon="11.1690722303">
		<tag k="alt_name" v="Aslaksrud søndre" />
		<tag k="name" v="Søndre Aslaksrud" />
		<tag k="place" v="farm" />
		<tag k="ssr:date" v="2019-12-27" />
		<tag k="ssr:gruppe" v="gardsbebyggelse" />
		<tag k="ssr:hovedgruppe" v="bebyggelse" />
		<tag k="ssr:stedsnr" v="385844" />
		<tag k="ssr:type" v="bruk" />
	</node>
	<node id="-230992" lat="59.5279762576" lon="11.1496745155">
		<tag k="name" v="Libru" />
		<tag k="place" v="farm" />
		<tag k="ssr:date" v="2019-12-27" />
		<tag k="ssr:gruppe" v="gardsbebyggelse" />
		<tag k="ssr:hovedgruppe" v="bebyggelse" />
		<tag k="ssr:stedsnr" v="368768" />
		<tag k="ssr:type" v="bruk" />
	</node>
	<node id="-230991" lat="59.5308666695" lon="11.1277833364">
		<tag k="alt_name" v="Solberg søndre;Solberg" />
		<tag k="name" v="Søndre Solberg" />
		<tag k="place" v="farm" />
		<tag k="ssr:date" v="2019-12-27" />
		<tag k="ssr:gruppe" v="gardsbebyggelse" />
		<tag k="ssr:hovedgruppe" v="bebyggelse" />
		<tag k="ssr:stedsnr" v="368766" />
		<tag k="ssr:type" v="bruk" />
	</node>
	<node id="-230990" lat="59.5155527768" lon="11.1411250071">
		<tag k="name" v="Stensrud" />
		<tag k="place" v="farm" />
		<tag k="ssr:date" v="2019-12-27" />
		<tag k="ssr:gruppe" v="gardsbebyggelse" />
		<tag k="ssr:hovedgruppe" v="bebyggelse" />
		<tag k="ssr:stedsnr" v="368728" />
		<tag k="ssr:type" v="bruk" />
	</node>
	<node id="-230989" lat="59.5004249995" lon="11.0851388938">
		<tag k="name" v="Padal" />
		<tag k="place" v="farm" />
		<tag k="ssr:date" v="2019-12-27" />
		<tag k="ssr:gruppe" v="gardsbebyggelse" />
		<tag k="ssr:hovedgruppe" v="bebyggelse" />
		<tag k="ssr:stedsnr" v="368042" />
		<tag k="ssr:type" v="bruk" />
	</node>
	<node id="-230988" lat="59.4969988911" lon="11.1919106119">
		<tag k="fixme" v="consider place=hamlet" />
		<tag k="name" v="Vang" />
		<tag k="place" v="farm" />
		<tag k="ssr:date" v="2019-12-27" />
		<tag k="ssr:gruppe" v="gardsbebyggelse" />
		<tag k="ssr:hovedgruppe" v="bebyggelse" />
		<tag k="ssr:stedsnr" v="367078" />
		<tag k="ssr:type" v="gard" />
	</node>
	<node id="-230987" lat="59.4496305574" lon="11.2042249978">
		<tag k="name" v="Liverudtangen" />
		<tag k="natural" v="cape" />
		<tag k="ssr:date" v="2019-12-27" />
		<tag k="ssr:gruppe" v="ferskvannskontur" />
		<tag k="ssr:hovedgruppe" v="ferskvann" />
		<tag k="ssr:stedsnr" v="366243" />
		<tag k="ssr:type" v="nes" />
	</node>
	<node id="-230986" lat="59.4544499964" lon="11.1432499934">
		<tag k="name" v="Haga" />
		<tag k="place" v="farm" />
		<tag k="ssr:date" v="2019-12-27" />
		<tag k="ssr:gruppe" v="gardsbebyggelse" />
		<tag k="ssr:hovedgruppe" v="bebyggelse" />
		<tag k="ssr:stedsnr" v="366228" />
		<tag k="ssr:type" v="bruk" />
	</node>
	<node id="-230985" lat="59.4509277756" lon="11.1468249968">
		<tag k="alt_name" v="Engen" />
		<tag k="name" v="Enga" />
		<tag k="place" v="farm" />
		<tag k="ssr:date" v="2019-12-27" />
		<tag k="ssr:gruppe" v="gardsbebyggelse" />
		<tag k="ssr:hovedgruppe" v="bebyggelse" />
		<tag k="ssr:stedsnr" v="366226" />
		<tag k="ssr:type" v="bruk" />
	</node>
	<node id="-230984" lat="59.4762500015" lon="11.1337472168">
		<tag k="alt_name" v="Tonshytta" />
		<tag k="name" v="Toenshytta" />
		<tag k="place" v="farm" />
		<tag k="ssr:date" v="2019-12-27" />
		<tag k="ssr:gruppe" v="gardsbebyggelse" />
		<tag k="ssr:hovedgruppe" v="bebyggelse" />
		<tag k="ssr:stedsnr" v="366043" />
		<tag k="ssr:type" v="bruk" />
	</node>
	<node id="-230983" lat="59.4704805587" lon="11.1668888892">
		<tag k="bridge" v="yes" />
		<tag k="layer" v="1" />
		<tag k="name" v="Meieribyen" />
		<tag k="ssr:date" v="2019-12-27" />
		<tag k="ssr:gruppe" v="samferdselsanlegg" />
		<tag k="ssr:hovedgruppe" v="infrastruktur" />
		<tag k="ssr:stedsnr" v="349544" />
		<tag k="ssr:type" v="bru" />
	</node>
	<node id="-230982" lat="59.5107166643" lon="11.197305561">
		<tag k="name" v="Ødegården" />
		<tag k="place" v="farm" />
		<tag k="ssr:date" v="2019-12-27" />
		<tag k="ssr:gruppe" v="gardsbebyggelse" />
		<tag k="ssr:hovedgruppe" v="bebyggelse" />
		<tag k="ssr:stedsnr" v="327098" />
		<tag k="ssr:type" v="bruk" />
	</node>
	<node id="-230981" lat="59.4606305544" lon="11.102641667">
		<tag k="historic" v="shieling" />
		<tag k="name" v="Holtet" />
		<tag k="place" v="locality" />
		<tag k="ssr:date" v="2019-12-27" />
		<tag k="ssr:gruppe" v="gardsbebyggelse" />
		<tag k="ssr:hovedgruppe" v="bebyggelse" />
		<tag k="ssr:stedsnr" v="326963" />
		<tag k="ssr:type" v="seterStøl" />
	</node>
	<node id="-230980" lat="59.4533916693" lon="11.1361861139">
		<tag k="junction" v="yes" />
		<tag k="name" v="Haugskrysset" />
		<tag k="place" v="locality" />
		<tag k="ssr:date" v="2019-12-27" />
		<tag k="ssr:gruppe" v="veg" />
		<tag k="ssr:hovedgruppe" v="infrastruktur" />
		<tag k="ssr:stedsnr" v="326958" />
		<tag k="ssr:type" v="vegkryss" />
	</node>
	<node id="-230979" lat="59.4539944427" lon="11.1333944438">
		<tag k="name" v="Haugsbekken" />
		<tag k="ssr:date" v="2019-12-27" />
		<tag k="ssr:gruppe" v="rennendeVann" />
		<tag k="ssr:hovedgruppe" v="ferskvann" />
		<tag k="ssr:stedsnr" v="326949" />
		<tag k="ssr:type" v="bekk" />
		<tag k="waterway" v="stream" />
	</node>
	<node id="-230978" lat="59.4833999997" lon="11.2018444405">
		<tag k="name" v="Vesterby" />
		<tag k="place" v="farm" />
		<tag k="ssr:date" v="2019-12-27" />
		<tag k="ssr:gruppe" v="gardsbebyggelse" />
		<tag k="ssr:hovedgruppe" v="bebyggelse" />
		<tag k="ssr:stedsnr" v="325551" />
		<tag k="ssr:type" v="bruk" />
	</node>
	<node id="-230977" lat="59.4779388859" lon="11.2053777781">
		<tag k="alt_name" v="Eng nordre" />
		<tag k="name" v="Nordre Eng" />
		<tag k="place" v="farm" />
		<tag k="ssr:date" v="2019-12-27" />
		<tag k="ssr:gruppe" v="gardsbebyggelse" />
		<tag k="ssr:hovedgruppe" v="bebyggelse" />
		<tag k="ssr:stedsnr" v="325549" />
		<tag k="ssr:type" v="bruk" />
	</node>
	<node id="-230976" lat="59.4668333323" lon="11.1973083317">
		<tag k="alt_name" v="Rueneplass" />
		<tag k="name" v="Ruene" />
		<tag k="place" v="farm" />
		<tag k="ssr:date" v="2019-12-27" />
		<tag k="ssr:gruppe" v="gardsbebyggelse" />
		<tag k="ssr:hovedgruppe" v="bebyggelse" />
		<tag k="ssr:stedsnr" v="325523" />
		<tag k="ssr:type" v="bruk" />
	</node>
	<node id="-230975" lat="59.4896333374" lon="11.2179888923">
		<tag k="alt_name" v="Skipperud vestre" />
		<tag k="name" v="Vestre Skipperud" />
		<tag k="place" v="farm" />
		<tag k="ssr:date" v="2019-12-27" />
		<tag k="ssr:gruppe" v="gardsbebyggelse" />
		<tag k="ssr:hovedgruppe" v="bebyggelse" />
		<tag k="ssr:stedsnr" v="325496" />
		<tag k="ssr:type" v="bruk" />
	</node>
	<node id="-230974" lat="59.474288891" lon="11.1592000078">
		<tag k="alt_name" v="Koffell søndre" />
		<tag k="name" v="Søndre Koffell" />
		<tag k="place" v="farm" />
		<tag k="ssr:date" v="2019-12-27" />
		<tag k="ssr:gruppe" v="gardsbebyggelse" />
		<tag k="ssr:hovedgruppe" v="bebyggelse" />
		<tag k="ssr:stedsnr" v="325998" />
		<tag k="ssr:type" v="bruk" />
	</node>
	<node id="-230973" lat="59.4552499999" lon="11.1823055527">
		<tag k="name" v="Hønstvet" />
		<tag k="place" v="farm" />
		<tag k="ssr:date" v="2019-12-27" />
		<tag k="ssr:gruppe" v="gardsbebyggelse" />
		<tag k="ssr:hovedgruppe" v="bebyggelse" />
		<tag k="ssr:stedsnr" v="325996" />
		<tag k="ssr:type" v="bruk" />
	</node>
	<node id="-230972" lat="59.4941000018" lon="11.1577000069">
		<tag k="name" v="Løstvet" />
		<tag k="place" v="farm" />
		<tag k="ssr:date" v="2019-12-27" />
		<tag k="ssr:gruppe" v="gardsbebyggelse" />
		<tag k="ssr:hovedgruppe" v="bebyggelse" />
		<tag k="ssr:stedsnr" v="325980" />
		<tag k="ssr:type" v="bruk" />
	</node>
	<node id="-230971" lat="59.50266389" lon="11.1470111047">
		<tag k="name" v="Holonemosen" />
		<tag k="place" v="farm" />
		<tag k="ssr:date" v="2019-12-27" />
		<tag k="ssr:gruppe" v="gardsbebyggelse" />
		<tag k="ssr:hovedgruppe" v="bebyggelse" />
		<tag k="ssr:stedsnr" v="325971" />
		<tag k="ssr:type" v="bruk" />
	</node>
	<node id="-230970" lat="59.4681694408" lon="11.1092799766">
		<tag k="name" v="Bogstjernet" />
		<tag k="natural" v="water" />
		<tag k="ssr:date" v="2019-12-27" />
		<tag k="ssr:gruppe" v="stilleståendeVann" />
		<tag k="ssr:hovedgruppe" v="ferskvann" />
		<tag k="ssr:stedsnr" v="325962" />
		<tag k="ssr:type" v="tjern" />
	</node>
	<node id="-230969" lat="59.464249998" lon="11.1350388875">
		<tag k="name" v="Søllskauten" />
		<tag k="place" v="locality" />
		<tag k="ssr:date" v="2019-12-27" />
		<tag k="ssr:gruppe" v="gardsbebyggelse" />
		<tag k="ssr:hovedgruppe" v="bebyggelse" />
		<tag k="ssr:stedsnr" v="325936" />
		<tag k="ssr:type" v="eiendom" />
	</node>
	<node id="-230968" lat="59.5252558726" lon="11.1580787024">
		<tag k="fixme" v="consider place=hamlet" />
		<tag k="name" v="Skallerud" />
		<tag k="place" v="farm" />
		<tag k="ssr:date" v="2019-12-27" />
		<tag k="ssr:gruppe" v="gardsbebyggelse" />
		<tag k="ssr:hovedgruppe" v="bebyggelse" />
		<tag k="ssr:stedsnr" v="307750" />
		<tag k="ssr:type" v="gard" />
	</node>
	<node id="-230967" lat="59.508140541" lon="11.2111278778">
		<tag k="alt_name" v="Sommerrud" />
		<tag k="name" v="Sammerud" />
		<tag k="place" v="farm" />
		<tag k="ssr:date" v="2019-12-27" />
		<tag k="ssr:gruppe" v="gardsbebyggelse" />
		<tag k="ssr:hovedgruppe" v="bebyggelse" />
		<tag k="ssr:stedsnr" v="307713" />
		<tag k="ssr:type" v="bruk" />
	</node>
	<node id="-230966" lat="59.497202777" lon="11.1658249983">
		<tag k="name" v="Karlstad" />
		<tag k="place" v="farm" />
		<tag k="ssr:date" v="2019-12-27" />
		<tag k="ssr:gruppe" v="gardsbebyggelse" />
		<tag k="ssr:hovedgruppe" v="bebyggelse" />
		<tag k="ssr:stedsnr" v="307099" />
		<tag k="ssr:type" v="bruk" />
	</node>
	<node id="-230965" lat="59.4948499985" lon="11.1044500016">
		<tag k="name" v="Strand" />
		<tag k="place" v="farm" />
		<tag k="ssr:date" v="2019-12-27" />
		<tag k="ssr:gruppe" v="gardsbebyggelse" />
		<tag k="ssr:hovedgruppe" v="bebyggelse" />
		<tag k="ssr:stedsnr" v="307094" />
		<tag k="ssr:type" v="bruk" />
	</node>
	<node id="-230964" lat="59.4367305531" lon="11.1769500079">
		<tag k="alt_name" v="Nordeng" />
		<tag k="name" v="Nordenga" />
		<tag k="place" v="farm" />
		<tag k="ssr:date" v="2019-12-27" />
		<tag k="ssr:gruppe" v="gardsbebyggelse" />
		<tag k="ssr:hovedgruppe" v="bebyggelse" />
		<tag k="ssr:stedsnr" v="306203" />
		<tag k="ssr:type" v="bruk" />
	</node>
	<node id="-230963" lat="59.4452749979" lon="11.1987472267">
		<tag k="name" v="Håkonskjer" />
		<tag k="place" v="islet" />
		<tag k="ssr:date" v="2019-12-27" />
		<tag k="ssr:gruppe" v="grunnerIFerskvann" />
		<tag k="ssr:hovedgruppe" v="ferskvann" />
		<tag k="ssr:stedsnr" v="306189" />
		<tag k="ssr:type" v="skjær" />
	</node>
	<node id="-230962" lat="59.4859472194" lon="11.1588222189">
		<tag k="alt_name" v="Skjelle nordre;Skjelle" />
		<tag k="name" v="Nordre Skjelle" />
		<tag k="place" v="farm" />
		<tag k="ssr:date" v="2019-12-27" />
		<tag k="ssr:gruppe" v="gardsbebyggelse" />
		<tag k="ssr:hovedgruppe" v="bebyggelse" />
		<tag k="ssr:stedsnr" v="306059" />
		<tag k="ssr:type" v="bruk" />
	</node>
	<node id="-230961" lat="59.4126027806" lon="11.1833333388">
		<tag k="name" v="Glennetangen" />
		<tag k="place" v="farm" />
		<tag k="ssr:date" v="2019-12-27" />
		<tag k="ssr:gruppe" v="gardsbebyggelse" />
		<tag k="ssr:hovedgruppe" v="bebyggelse" />
		<tag k="ssr:stedsnr" v="305128" />
		<tag k="ssr:type" v="bruk" />
	</node>
	<node id="-230960" lat="59.4167000043" lon="11.138175004">
		<tag k="alt_name" v="Bergetjern" />
		<tag k="name" v="Bergatjern" />
		<tag k="natural" v="water" />
		<tag k="ssr:date" v="2019-12-27" />
		<tag k="ssr:gruppe" v="stilleståendeVann" />
		<tag k="ssr:hovedgruppe" v="ferskvann" />
		<tag k="ssr:stedsnr" v="305124" />
		<tag k="ssr:type" v="tjern" />
	</node>
	<node id="-230959" lat="59.4836749968" lon="11.1994500079">
		<tag k="name" v="Frorudneset" />
		<tag k="place" v="farm" />
		<tag k="ssr:date" v="2019-12-27" />
		<tag k="ssr:gruppe" v="gardsbebyggelse" />
		<tag k="ssr:hovedgruppe" v="bebyggelse" />
		<tag k="ssr:stedsnr" v="305040" />
		<tag k="ssr:type" v="bruk" />
	</node>
	<node id="-230958" lat="59.4720277783" lon="11.1875222301">
		<tag k="alt_name" v="Askim" />
		<tag k="name" v="Askjum" />
		<tag k="place" v="farm" />
		<tag k="ssr:date" v="2019-12-27" />
		<tag k="ssr:gruppe" v="gardsbebyggelse" />
		<tag k="ssr:hovedgruppe" v="bebyggelse" />
		<tag k="ssr:stedsnr" v="305024" />
		<tag k="ssr:type" v="bruk" />
	</node>
	<node id="-230957" lat="59.4601000044" lon="11.2035722161">
		<tag k="alt_name" v="Liverud nordre" />
		<tag k="name" v="Nordre Liverud" />
		<tag k="place" v="farm" />
		<tag k="ssr:date" v="2019-12-27" />
		<tag k="ssr:gruppe" v="gardsbebyggelse" />
		<tag k="ssr:hovedgruppe" v="bebyggelse" />
		<tag k="ssr:stedsnr" v="305216" />
		<tag k="ssr:type" v="bruk" />
	</node>
	<node id="-230956" lat="59.4761333299" lon="11.1648611116">
		<tag k="name" v="Vestgård" />
		<tag k="place" v="farm" />
		<tag k="ssr:date" v="2019-12-27" />
		<tag k="ssr:gruppe" v="gardsbebyggelse" />
		<tag k="ssr:hovedgruppe" v="bebyggelse" />
		<tag k="ssr:stedsnr" v="204998" />
		<tag k="ssr:type" v="bruk" />
	</node>
	<node id="-230955" lat="59.4671666671" lon="11.1644805601">
		<tag k="name" v="Voll" />
		<tag k="place" v="farm" />
		<tag k="ssr:date" v="2019-12-27" />
		<tag k="ssr:gruppe" v="gardsbebyggelse" />
		<tag k="ssr:hovedgruppe" v="bebyggelse" />
		<tag k="ssr:stedsnr" v="204994" />
		<tag k="ssr:type" v="bruk" />
	</node>
	<node id="-230954" lat="59.4865000028" lon="11.099258337">
		<tag k="alt_name" v="Lund nordre" />
		<tag k="name" v="Nordre Lund" />
		<tag k="place" v="farm" />
		<tag k="ssr:date" v="2019-12-27" />
		<tag k="ssr:gruppe" v="gardsbebyggelse" />
		<tag k="ssr:hovedgruppe" v="bebyggelse" />
		<tag k="ssr:stedsnr" v="204983" />
		<tag k="ssr:type" v="bruk" />
	</node>
	<node id="-230953" lat="59.4235249973" lon="11.1652805598">
		<tag k="alt_name" v="Bjørkedalen" />
		<tag k="name" v="Bjørndalen" />
		<tag k="place" v="farm" />
		<tag k="ssr:date" v="2019-12-27" />
		<tag k="ssr:gruppe" v="gardsbebyggelse" />
		<tag k="ssr:hovedgruppe" v="bebyggelse" />
		<tag k="ssr:stedsnr" v="204965" />
		<tag k="ssr:type" v="bruk" />
	</node>
	<node id="-230952" lat="59.4921944426" lon="11.1047638892">
		<tag k="name" v="Strand" />
		<tag k="place" v="farm" />
		<tag k="ssr:date" v="2019-12-27" />
		<tag k="ssr:gruppe" v="gardsbebyggelse" />
		<tag k="ssr:hovedgruppe" v="bebyggelse" />
		<tag k="ssr:stedsnr" v="204959" />
		<tag k="ssr:type" v="bruk" />
	</node>
	<node id="-230951" lat="59.4992916634" lon="11.1092083358">
		<tag k="alt_name" v="Heistad nordre" />
		<tag k="name" v="Nordre Heistad" />
		<tag k="place" v="farm" />
		<tag k="ssr:date" v="2019-12-27" />
		<tag k="ssr:gruppe" v="gardsbebyggelse" />
		<tag k="ssr:hovedgruppe" v="bebyggelse" />
		<tag k="ssr:stedsnr" v="204957" />
		<tag k="ssr:type" v="bruk" />
	</node>
	<node id="-230950" lat="59.45981212" lon="11.1401045345">
		<tag k="alt_name" v="Sperstad nordre" />
		<tag k="name" v="Nordre Sperstad" />
		<tag k="place" v="farm" />
		<tag k="ssr:date" v="2019-12-27" />
		<tag k="ssr:gruppe" v="gardsbebyggelse" />
		<tag k="ssr:hovedgruppe" v="bebyggelse" />
		<tag k="ssr:stedsnr" v="204952" />
		<tag k="ssr:type" v="bruk" />
	</node>
	<node id="-230949" lat="59.4490583319" lon="11.1283666597">
		<tag k="name" v="Gjerstad" />
		<tag k="place" v="farm" />
		<tag k="ssr:date" v="2019-12-27" />
		<tag k="ssr:gruppe" v="gardsbebyggelse" />
		<tag k="ssr:hovedgruppe" v="bebyggelse" />
		<tag k="ssr:stedsnr" v="204945" />
		<tag k="ssr:type" v="bruk" />
	</node>
	<node id="-230948" lat="59.5232277741" lon="11.1044166589">
		<tag k="name" v="Jeriko" />
		<tag k="place" v="locality" />
		<tag k="ssr:date" v="2019-12-27" />
		<tag k="ssr:gruppe" v="gardsbebyggelse" />
		<tag k="ssr:hovedgruppe" v="bebyggelse" />
		<tag k="ssr:stedsnr" v="204852" />
		<tag k="ssr:type" v="eiendom" />
	</node>
	<node id="-230947" lat="59.5313090113" lon="11.1330339502">
		<tag k="fixme" v="consider place=hamlet" />
		<tag k="name" v="Solberg" />
		<tag k="place" v="farm" />
		<tag k="ssr:date" v="2019-12-27" />
		<tag k="ssr:gruppe" v="gardsbebyggelse" />
		<tag k="ssr:hovedgruppe" v="bebyggelse" />
		<tag k="ssr:stedsnr" v="204850" />
		<tag k="ssr:type" v="gard" />
	</node>
	<node id="-230946" lat="59.5176194403" lon="11.1462249966">
		<tag k="name" v="Burås" />
		<tag k="place" v="farm" />
		<tag k="ssr:date" v="2019-12-27" />
		<tag k="ssr:gruppe" v="gardsbebyggelse" />
		<tag k="ssr:hovedgruppe" v="bebyggelse" />
		<tag k="ssr:stedsnr" v="204837" />
		<tag k="ssr:type" v="bruk" />
	</node>
	<node id="-230945" lat="59.4183583339" lon="11.1638555533">
		<tag k="name" v="Bjørkebru" />
		<tag k="place" v="farm" />
		<tag k="ssr:date" v="2019-12-27" />
		<tag k="ssr:gruppe" v="gardsbebyggelse" />
		<tag k="ssr:hovedgruppe" v="bebyggelse" />
		<tag k="ssr:stedsnr" v="204673" />
		<tag k="ssr:type" v="bruk" />
	</node>
	<node id="-230944" lat="59.4720805593" lon="11.21271112">
		<tag k="name" v="Engsbukta" />
		<tag k="natural" v="bay" />
		<tag k="ssr:date" v="2019-12-27" />
		<tag k="ssr:gruppe" v="ferskvannskontur" />
		<tag k="ssr:hovedgruppe" v="ferskvann" />
		<tag k="ssr:stedsnr" v="204475" />
		<tag k="ssr:type" v="vik" />
	</node>
	<node id="-230943" lat="59.4311833359" lon="11.1718250006">
		<tag k="name" v="Tangen" />
		<tag k="place" v="farm" />
		<tag k="ssr:date" v="2019-12-27" />
		<tag k="ssr:gruppe" v="gardsbebyggelse" />
		<tag k="ssr:hovedgruppe" v="bebyggelse" />
		<tag k="ssr:stedsnr" v="204465" />
		<tag k="ssr:type" v="bruk" />
	</node>
	<node id="-230942" lat="59.4326333303" lon="11.1859166671">
		<tag k="name" v="Ulvetangen" />
		<tag k="place" v="farm" />
		<tag k="ssr:date" v="2019-12-27" />
		<tag k="ssr:gruppe" v="gardsbebyggelse" />
		<tag k="ssr:hovedgruppe" v="bebyggelse" />
		<tag k="ssr:stedsnr" v="204463" />
		<tag k="ssr:type" v="bruk" />
	</node>
	<node id="-230941" lat="59.4425194447" lon="11.1703138854">
		<tag k="name" v="Dalebekken" />
		<tag k="ssr:date" v="2019-12-27" />
		<tag k="ssr:gruppe" v="rennendeVann" />
		<tag k="ssr:hovedgruppe" v="ferskvann" />
		<tag k="ssr:stedsnr" v="204459" />
		<tag k="ssr:type" v="bekk" />
		<tag k="waterway" v="stream" />
	</node>
	<node id="-230940" lat="59.4934583377" lon="11.2237999944">
		<tag k="name" v="Fossevja" />
		<tag k="natural" v="bay" />
		<tag k="ssr:date" v="2019-12-27" />
		<tag k="ssr:gruppe" v="rennendeVann" />
		<tag k="ssr:hovedgruppe" v="ferskvann" />
		<tag k="ssr:stedsnr" v="204446" />
		<tag k="ssr:type" v="os" />
	</node>
	<node id="-230939" lat="59.5009079783" lon="11.1428990204">
		<tag k="fixme" v="consider place=hamlet" />
		<tag k="name" v="Holone" />
		<tag k="place" v="farm" />
		<tag k="ssr:date" v="2019-12-27" />
		<tag k="ssr:gruppe" v="gardsbebyggelse" />
		<tag k="ssr:hovedgruppe" v="bebyggelse" />
		<tag k="ssr:stedsnr" v="186737" />
		<tag k="ssr:type" v="gard" />
	</node>
	<node id="-230938" lat="59.4892166668" lon="11.0773500028">
		<tag k="alt_name" v="Bjørnrud" />
		<tag k="name" v="Bjørnerud" />
		<tag k="place" v="locality" />
		<tag k="ssr:date" v="2019-12-27" />
		<tag k="ssr:gruppe" v="gardsbebyggelse" />
		<tag k="ssr:hovedgruppe" v="bebyggelse" />
		<tag k="ssr:stedsnr" v="185652" />
		<tag k="ssr:type" v="eiendom" />
	</node>
	<node id="-230937" lat="59.4988499988" lon="11.0875555623">
		<tag k="name" v="Padal" />
		<tag k="place" v="farm" />
		<tag k="ssr:date" v="2019-12-27" />
		<tag k="ssr:gruppe" v="gardsbebyggelse" />
		<tag k="ssr:hovedgruppe" v="bebyggelse" />
		<tag k="ssr:stedsnr" v="185638" />
		<tag k="ssr:type" v="bruk" />
	</node>
	<node id="-230936" lat="59.4986861069" lon="11.0531666652">
		<tag k="alt_name" v="Bergsjøtjern" />
		<tag k="name" v="Bergsjøtjernet" />
		<tag k="natural" v="water" />
		<tag k="ssr:date" v="2019-12-27" />
		<tag k="ssr:gruppe" v="stilleståendeVann" />
		<tag k="ssr:hovedgruppe" v="ferskvann" />
		<tag k="ssr:stedsnr" v="185634" />
		<tag k="ssr:type" v="tjern" />
	</node>
	<node id="-230935" lat="59.4952739147" lon="11.0815537917">
		<tag k="fixme" v="consider place=hamlet" />
		<tag k="name" v="Holm" />
		<tag k="place" v="farm" />
		<tag k="ssr:date" v="2019-12-27" />
		<tag k="ssr:gruppe" v="gardsbebyggelse" />
		<tag k="ssr:hovedgruppe" v="bebyggelse" />
		<tag k="ssr:stedsnr" v="185633" />
		<tag k="ssr:type" v="gard" />
	</node>
	<node id="-230934" lat="59.4340305521" lon="11.1879555598">
		<tag k="alt_name" v="Glåmvik" />
		<tag k="name" v="Glomvik" />
		<tag k="place" v="farm" />
		<tag k="ssr:date" v="2019-12-27" />
		<tag k="ssr:gruppe" v="gardsbebyggelse" />
		<tag k="ssr:hovedgruppe" v="bebyggelse" />
		<tag k="ssr:stedsnr" v="185194" />
		<tag k="ssr:type" v="bruk" />
	</node>
	<node id="-230933" lat="59.4330805527" lon="11.1533750066">
		<tag k="name" v="Bingen" />
		<tag k="place" v="farm" />
		<tag k="ssr:date" v="2019-12-27" />
		<tag k="ssr:gruppe" v="gardsbebyggelse" />
		<tag k="ssr:hovedgruppe" v="bebyggelse" />
		<tag k="ssr:stedsnr" v="185192" />
		<tag k="ssr:type" v="bruk" />
	</node>
	<node id="-230932" lat="59.4417750042" lon="11.174747217">
		<tag k="bridge" v="yes" />
		<tag k="layer" v="1" />
		<tag k="name" v="Vidnes" />
		<tag k="ssr:date" v="2019-12-27" />
		<tag k="ssr:gruppe" v="samferdselsanlegg" />
		<tag k="ssr:hovedgruppe" v="infrastruktur" />
		<tag k="ssr:stedsnr" v="167539" />
		<tag k="ssr:type" v="bru" />
	</node>
	<node id="-230930" lat="59.5278027817" lon="11.1887444531">
		<tag k="name" v="Staås" />
		<tag k="place" v="locality" />
		<tag k="ssr:date" v="2019-12-27" />
		<tag k="ssr:gruppe" v="kulturminner" />
		<tag k="ssr:hovedgruppe" v="kultur" />
		<tag k="ssr:stedsnr" v="145089" />
		<tag k="ssr:type" v="annenKulturdetalj" />
	</node>
	<node id="-230929" lat="59.5089055583" lon="11.2066777841">
		<tag k="name" v="Lilleng" />
		<tag k="place" v="farm" />
		<tag k="ssr:date" v="2019-12-27" />
		<tag k="ssr:gruppe" v="gardsbebyggelse" />
		<tag k="ssr:hovedgruppe" v="bebyggelse" />
		<tag k="ssr:stedsnr" v="145078" />
		<tag k="ssr:type" v="bruk" />
	</node>
	<node id="-230928" lat="59.5164777767" lon="11.2029666684">
		<tag k="name" v="Kjellås" />
		<tag k="place" v="farm" />
		<tag k="ssr:date" v="2019-12-27" />
		<tag k="ssr:gruppe" v="gardsbebyggelse" />
		<tag k="ssr:hovedgruppe" v="bebyggelse" />
		<tag k="ssr:stedsnr" v="145074" />
		<tag k="ssr:type" v="bruk" />
	</node>
	<node id="-230927" lat="59.4805499978" lon="11.1430611056">
		<tag k="name" v="Fjellshagen" />
		<tag k="place" v="locality" />
		<tag k="ssr:date" v="2019-12-27" />
		<tag k="ssr:gruppe" v="gardsbebyggelse" />
		<tag k="ssr:hovedgruppe" v="bebyggelse" />
		<tag k="ssr:stedsnr" v="143997" />
		<tag k="ssr:type" v="eiendom" />
	</node>
	<node id="-230926" lat="59.4873611079" lon="11.097722221">
		<tag k="junction" v="yes" />
		<tag k="name" v="Lundsvingen" />
		<tag k="place" v="locality" />
		<tag k="ssr:date" v="2019-12-27" />
		<tag k="ssr:gruppe" v="veg" />
		<tag k="ssr:hovedgruppe" v="infrastruktur" />
		<tag k="ssr:stedsnr" v="143981" />
		<tag k="ssr:type" v="vegkryss" />
	</node>
	<node id="-230925" lat="59.4833944471" lon="11.0961472151">
		<tag k="name" v="Østli" />
		<tag k="place" v="farm" />
		<tag k="ssr:date" v="2019-12-27" />
		<tag k="ssr:gruppe" v="gardsbebyggelse" />
		<tag k="ssr:hovedgruppe" v="bebyggelse" />
		<tag k="ssr:stedsnr" v="143976" />
		<tag k="ssr:type" v="bruk" />
	</node>
	<node id="-230924" lat="59.4829833313" lon="11.164000004">
		<tag k="name" v="Skjeltorp" />
		<tag k="place" v="farm" />
		<tag k="ssr:date" v="2019-12-27" />
		<tag k="ssr:gruppe" v="gardsbebyggelse" />
		<tag k="ssr:hovedgruppe" v="bebyggelse" />
		<tag k="ssr:stedsnr" v="143973" />
		<tag k="ssr:type" v="bruk" />
	</node>
	<node id="-230923" lat="59.4806916639" lon="11.112452785">
		<tag k="alt_name" v="Målen vestre" />
		<tag k="name" v="Vestre Målen" />
		<tag k="place" v="farm" />
		<tag k="ssr:date" v="2019-12-27" />
		<tag k="ssr:gruppe" v="gardsbebyggelse" />
		<tag k="ssr:hovedgruppe" v="bebyggelse" />
		<tag k="ssr:stedsnr" v="143970" />
		<tag k="ssr:type" v="bruk" />
	</node>
	<node id="-230922" lat="59.4964805521" lon="11.0845527792">
		<tag k="name" v="Holm" />
		<tag k="place" v="farm" />
		<tag k="ssr:date" v="2019-12-27" />
		<tag k="ssr:gruppe" v="gardsbebyggelse" />
		<tag k="ssr:hovedgruppe" v="bebyggelse" />
		<tag k="ssr:stedsnr" v="143943" />
		<tag k="ssr:type" v="bruk" />
	</node>
	<node id="-230921" lat="59.4503416661" lon="11.1089916619">
		<tag k="name" v="Høybråten" />
		<tag k="place" v="locality" />
		<tag k="ssr:date" v="2019-12-27" />
		<tag k="ssr:gruppe" v="gardsbebyggelse" />
		<tag k="ssr:hovedgruppe" v="bebyggelse" />
		<tag k="ssr:stedsnr" v="143937" />
		<tag k="ssr:type" v="eiendom" />
	</node>
	<node id="-230920" lat="59.5180611137" lon="11.0794111165">
		<tag k="name" v="Mulerudtjern" />
		<tag k="natural" v="water" />
		<tag k="ssr:date" v="2019-12-27" />
		<tag k="ssr:gruppe" v="stilleståendeVann" />
		<tag k="ssr:hovedgruppe" v="ferskvann" />
		<tag k="ssr:stedsnr" v="143849" />
		<tag k="ssr:type" v="tjern" />
	</node>
	<node id="-230919" lat="59.519794444" lon="11.131616658">
		<tag k="alt_name" v="Taraldrud nordre" />
		<tag k="name" v="Nordre Taraldrud" />
		<tag k="place" v="farm" />
		<tag k="ssr:date" v="2019-12-27" />
		<tag k="ssr:gruppe" v="gardsbebyggelse" />
		<tag k="ssr:hovedgruppe" v="bebyggelse" />
		<tag k="ssr:stedsnr" v="143834" />
		<tag k="ssr:type" v="bruk" />
	</node>
	<node id="-230918" lat="59.5144638845" lon="11.1671611044">
		<tag k="name" v="Sør-Vister" />
		<tag k="place" v="farm" />
		<tag k="ssr:date" v="2019-12-27" />
		<tag k="ssr:gruppe" v="gardsbebyggelse" />
		<tag k="ssr:hovedgruppe" v="bebyggelse" />
		<tag k="ssr:stedsnr" v="143827" />
		<tag k="ssr:type" v="bruk" />
	</node>
	<node id="-230917" lat="59.5161472246" lon="11.1572444494">
		<tag k="alt_name" v="Vister vestre" />
		<tag k="name" v="Vestre Vister" />
		<tag k="place" v="farm" />
		<tag k="ssr:date" v="2019-12-27" />
		<tag k="ssr:gruppe" v="gardsbebyggelse" />
		<tag k="ssr:hovedgruppe" v="bebyggelse" />
		<tag k="ssr:stedsnr" v="143826" />
		<tag k="ssr:type" v="bruk" />
	</node>
	<node id="-230916" lat="59.4295138878" lon="11.1797472309">
		<tag k="name" v="Storsand" />
		<tag k="natural" v="bay" />
		<tag k="ssr:date" v="2019-12-27" />
		<tag k="ssr:gruppe" v="ferskvannskontur" />
		<tag k="ssr:hovedgruppe" v="ferskvann" />
		<tag k="ssr:stedsnr" v="143519" />
		<tag k="ssr:type" v="vik" />
	</node>
	<node id="-230915" lat="59.5173687617" lon="11.1625071994">
		<tag k="name" v="Vister" />
		<tag k="place" v="hamlet" />
		<tag k="ssr:date" v="2020-01-27" />
		<tag k="ssr:gruppe" v="gardsbebyggelse" />
		<tag k="ssr:hovedgruppe" v="bebyggelse" />
		<tag k="ssr:stedsnr" v="125757" />
		<tag k="ssr:type" v="navnegard" />
	</node>
	<node id="-230914" lat="59.532097454" lon="11.1549630422">
		<tag k="fixme" v="consider place=hamlet" />
		<tag k="name" v="Kjos" />
		<tag k="place" v="farm" />
		<tag k="ssr:date" v="2019-12-27" />
		<tag k="ssr:gruppe" v="gardsbebyggelse" />
		<tag k="ssr:hovedgruppe" v="bebyggelse" />
		<tag k="ssr:stedsnr" v="125747" />
		<tag k="ssr:type" v="gard" />
	</node>
	<node id="-230913" lat="59.5346672188" lon="11.1388782604">
		<tag k="fixme" v="consider place=hamlet" />
		<tag k="name" v="Langli" />
		<tag k="place" v="farm" />
		<tag k="ssr:date" v="2019-12-27" />
		<tag k="ssr:gruppe" v="gardsbebyggelse" />
		<tag k="ssr:hovedgruppe" v="bebyggelse" />
		<tag k="ssr:stedsnr" v="125746" />
		<tag k="ssr:type" v="gard" />
	</node>
	<node id="-230912" lat="59.5286030557" lon="11.1876808944">
		<tag k="fixme" v="consider place=hamlet" />
		<tag k="name" v="Staås" />
		<tag k="place" v="farm" />
		<tag k="ssr:date" v="2019-12-27" />
		<tag k="ssr:gruppe" v="gardsbebyggelse" />
		<tag k="ssr:hovedgruppe" v="bebyggelse" />
		<tag k="ssr:stedsnr" v="125742" />
		<tag k="ssr:type" v="gard" />
	</node>
	<node id="-230911" lat="59.5357191116" lon="11.1812233896">
		<tag k="alt_name" v="Vamnes;Vammenes østre" />
		<tag k="fixme" v="consider place=hamlet" />
		<tag k="name" v="Vammenes" />
		<tag k="place" v="farm" />
		<tag k="ssr:date" v="2019-12-27" />
		<tag k="ssr:gruppe" v="gardsbebyggelse" />
		<tag k="ssr:hovedgruppe" v="bebyggelse" />
		<tag k="ssr:stedsnr" v="125741" />
		<tag k="ssr:type" v="gard" />
	</node>
	<node id="-230910" lat="59.5061579582" lon="11.2106106376">
		<tag k="alt_name" v="Kirkeng" />
		<tag k="name" v="Kirkengen" />
		<tag k="place" v="farm" />
		<tag k="ssr:date" v="2019-12-27" />
		<tag k="ssr:gruppe" v="gardsbebyggelse" />
		<tag k="ssr:hovedgruppe" v="bebyggelse" />
		<tag k="ssr:stedsnr" v="125723" />
		<tag k="ssr:type" v="bruk" />
	</node>
	<node id="-230909" lat="59.5136194484" lon="11.1285750078">
		<tag k="name" v="Myrer" />
		<tag k="place" v="farm" />
		<tag k="ssr:date" v="2019-12-27" />
		<tag k="ssr:gruppe" v="gardsbebyggelse" />
		<tag k="ssr:hovedgruppe" v="bebyggelse" />
		<tag k="ssr:stedsnr" v="125712" />
		<tag k="ssr:type" v="bruk" />
	</node>
	<node id="-230908" lat="59.4316500037" lon="11.1780972195">
		<tag k="alt_name" v="Gamlebru" />
		<tag k="name" v="Bru" />
		<tag k="place" v="farm" />
		<tag k="ssr:date" v="2019-12-27" />
		<tag k="ssr:gruppe" v="gardsbebyggelse" />
		<tag k="ssr:hovedgruppe" v="bebyggelse" />
		<tag k="ssr:stedsnr" v="124174" />
		<tag k="ssr:type" v="bruk" />
	</node>
	<node id="-230907" lat="59.4908615995" lon="11.1616945807">
		<tag k="alt_name" v="Lystvet" />
		<tag k="fixme" v="consider place=hamlet" />
		<tag k="name" v="Løstvet" />
		<tag k="place" v="farm" />
		<tag k="ssr:date" v="2019-12-27" />
		<tag k="ssr:gruppe" v="gardsbebyggelse" />
		<tag k="ssr:hovedgruppe" v="bebyggelse" />
		<tag k="ssr:stedsnr" v="124089" />
		<tag k="ssr:type" v="gard" />
	</node>
	<node id="-230906" lat="59.4954867819" lon="11.1487642874">
		<tag k="alt_name" v="Tveter vestre" />
		<tag k="fixme" v="consider place=hamlet" />
		<tag k="name" v="Tveiter" />
		<tag k="place" v="farm" />
		<tag k="ssr:date" v="2019-12-27" />
		<tag k="ssr:gruppe" v="gardsbebyggelse" />
		<tag k="ssr:hovedgruppe" v="bebyggelse" />
		<tag k="ssr:stedsnr" v="124088" />
		<tag k="ssr:type" v="gard" />
	</node>
	<node id="-230905" lat="59.4625555524" lon="11.1786750029">
		<tag k="name" v="Lambruhagen" />
		<tag k="place" v="locality" />
		<tag k="ssr:date" v="2019-12-27" />
		<tag k="ssr:gruppe" v="gardsbebyggelse" />
		<tag k="ssr:hovedgruppe" v="bebyggelse" />
		<tag k="ssr:stedsnr" v="83995" />
		<tag k="ssr:type" v="eiendom" />
	</node>
	<node id="-230904" lat="59.4661083291" lon="11.1153638932">
		<tag k="name" v="Nordli (Bogen)" />
		<tag k="place" v="farm" />
		<tag k="ssr:date" v="2019-12-27" />
		<tag k="ssr:gruppe" v="gardsbebyggelse" />
		<tag k="ssr:hovedgruppe" v="bebyggelse" />
		<tag k="ssr:stedsnr" v="83993" />
		<tag k="ssr:type" v="bruk" />
	</node>
	<node id="-230903" lat="59.4620472244" lon="11.1647083306">
		<tag k="alt_name" v="Hol vestre" />
		<tag k="name" v="Vestre Hol" />
		<tag k="place" v="farm" />
		<tag k="ssr:date" v="2019-12-27" />
		<tag k="ssr:gruppe" v="gardsbebyggelse" />
		<tag k="ssr:hovedgruppe" v="bebyggelse" />
		<tag k="ssr:stedsnr" v="83946" />
		<tag k="ssr:type" v="bruk" />
	</node>
	<node id="-230902" lat="59.4606138878" lon="11.1643527827">
		<tag k="name" v="Holsbekken" />
		<tag k="ssr:date" v="2019-12-27" />
		<tag k="ssr:gruppe" v="rennendeVann" />
		<tag k="ssr:hovedgruppe" v="ferskvann" />
		<tag k="ssr:stedsnr" v="83942" />
		<tag k="ssr:type" v="bekk" />
		<tag k="waterway" v="stream" />
	</node>
	<node id="-230901" lat="59.4510317165" lon="11.1288475308">
		<tag k="name" v="Gjerstad" />
		<tag k="place" v="farm" />
		<tag k="ssr:date" v="2019-12-27" />
		<tag k="ssr:gruppe" v="gardsbebyggelse" />
		<tag k="ssr:hovedgruppe" v="bebyggelse" />
		<tag k="ssr:stedsnr" v="83939" />
		<tag k="ssr:type" v="bruk" />
	</node>
	<node id="-230900" lat="59.4811666694" lon="11.1973305552">
		<tag k="name" v="Frorudtangen" />
		<tag k="place" v="farm" />
		<tag k="ssr:date" v="2019-12-27" />
		<tag k="ssr:gruppe" v="gardsbebyggelse" />
		<tag k="ssr:hovedgruppe" v="bebyggelse" />
		<tag k="ssr:stedsnr" v="83531" />
		<tag k="ssr:type" v="bruk" />
	</node>
	<node id="-230899" lat="59.4993833354" lon="11.2107527849">
		<tag k="name" v="Sørengen" />
		<tag k="place" v="farm" />
		<tag k="ssr:date" v="2019-12-27" />
		<tag k="ssr:gruppe" v="gardsbebyggelse" />
		<tag k="ssr:hovedgruppe" v="bebyggelse" />
		<tag k="ssr:stedsnr" v="83494" />
		<tag k="ssr:type" v="bruk" />
	</node>
	<node id="-230898" lat="59.5012611078" lon="11.1807166582">
		<tag k="name" v="Botner" />
		<tag k="place" v="farm" />
		<tag k="ssr:date" v="2019-12-27" />
		<tag k="ssr:gruppe" v="gardsbebyggelse" />
		<tag k="ssr:hovedgruppe" v="bebyggelse" />
		<tag k="ssr:stedsnr" v="83491" />
		<tag k="ssr:type" v="bruk" />
	</node>
	<node id="-230897" lat="59.526052781" lon="11.1009305611">
		<tag k="name" v="Leiken" />
		<tag k="place" v="locality" />
		<tag k="ssr:date" v="2019-12-27" />
		<tag k="ssr:gruppe" v="gardsbebyggelse" />
		<tag k="ssr:hovedgruppe" v="bebyggelse" />
		<tag k="ssr:stedsnr" v="82882" />
		<tag k="ssr:type" v="eiendom" />
	</node>
	<node id="-230896" lat="59.531716668" lon="11.1634444463">
		<tag k="name" v="Grønnlund" />
		<tag k="place" v="quarter" />
		<tag k="ssr:date" v="2019-12-27" />
		<tag k="ssr:gruppe" v="bebyggelsesområder" />
		<tag k="ssr:hovedgruppe" v="bebyggelse" />
		<tag k="ssr:stedsnr" v="82877" />
		<tag k="ssr:type" v="boligfelt" />
	</node>
	<node id="-230895" lat="59.5177404467" lon="11.1351377287">
		<tag k="alt_name" v="Taraldrud søndre" />
		<tag k="name" v="Søndre Taraldrud" />
		<tag k="place" v="farm" />
		<tag k="ssr:date" v="2019-12-27" />
		<tag k="ssr:gruppe" v="gardsbebyggelse" />
		<tag k="ssr:hovedgruppe" v="bebyggelse" />
		<tag k="ssr:stedsnr" v="82873" />
		<tag k="ssr:type" v="bruk" />
	</node>
	<node id="-230894" lat="59.5262194467" lon="11.1360111098">
		<tag k="alt_name" v="Jakobshaugen søndre" />
		<tag k="name" v="Søndre Jakobshaugen" />
		<tag k="place" v="farm" />
		<tag k="ssr:date" v="2019-12-27" />
		<tag k="ssr:gruppe" v="gardsbebyggelse" />
		<tag k="ssr:hovedgruppe" v="bebyggelse" />
		<tag k="ssr:stedsnr" v="82872" />
		<tag k="ssr:type" v="bruk" />
	</node>
	<node id="-230893" lat="59.4509249981" lon="11.1936500071">
		<tag k="name" v="Stuput" />
		<tag k="place" v="farm" />
		<tag k="ssr:date" v="2019-12-27" />
		<tag k="ssr:gruppe" v="gardsbebyggelse" />
		<tag k="ssr:hovedgruppe" v="bebyggelse" />
		<tag k="ssr:stedsnr" v="63264" />
		<tag k="ssr:type" v="bruk" />
	</node>
	<node id="-230892" lat="59.4514527782" lon="11.1051166702">
		<tag k="name" v="Kastdalen" />
		<tag k="place" v="isolated_dwelling" />
		<tag k="ssr:date" v="2019-12-27" />
		<tag k="ssr:gruppe" v="bolighus" />
		<tag k="ssr:hovedgruppe" v="bebyggelse" />
		<tag k="ssr:stedsnr" v="63254" />
		<tag k="ssr:type" v="eneboligMindreBoligbygg" />
	</node>
	<node id="-230891" lat="59.4372750009" lon="11.1490750056">
		<tag k="name" v="Berg" />
		<tag k="place" v="farm" />
		<tag k="ssr:date" v="2019-12-27" />
		<tag k="ssr:gruppe" v="gardsbebyggelse" />
		<tag k="ssr:hovedgruppe" v="bebyggelse" />
		<tag k="ssr:stedsnr" v="63227" />
		<tag k="ssr:type" v="bruk" />
	</node>
	<node id="-230890" lat="59.4891249958" lon="11.2242000053">
		<tag k="name" v="Gate" />
		<tag k="place" v="farm" />
		<tag k="ssr:date" v="2019-12-27" />
		<tag k="ssr:gruppe" v="gardsbebyggelse" />
		<tag k="ssr:hovedgruppe" v="bebyggelse" />
		<tag k="ssr:stedsnr" v="63057" />
		<tag k="ssr:type" v="bruk" />
	</node>
	<node id="-230889" lat="59.4658942905" lon="11.1466086681">
		<tag k="alt_name" v="Karterud" />
		<tag k="fixme" v="consider place=hamlet" />
		<tag k="name" v="Nedre Karterud" />
		<tag k="place" v="farm" />
		<tag k="ssr:date" v="2019-12-27" />
		<tag k="ssr:gruppe" v="gardsbebyggelse" />
		<tag k="ssr:hovedgruppe" v="bebyggelse" />
		<tag k="ssr:stedsnr" v="63030" />
		<tag k="ssr:type" v="gard" />
	</node>
	<node id="-230888" lat="59.4653090733" lon="11.113072321">
		<tag k="fixme" v="consider place=hamlet" />
		<tag k="name" v="Bogen" />
		<tag k="place" v="farm" />
		<tag k="ssr:date" v="2019-12-27" />
		<tag k="ssr:gruppe" v="gardsbebyggelse" />
		<tag k="ssr:hovedgruppe" v="bebyggelse" />
		<tag k="ssr:stedsnr" v="63007" />
		<tag k="ssr:type" v="gard" />
	</node>
	<node id="-230887" lat="59.5421555542" lon="11.1710833331">
		<tag k="name" v="Vammafossen" />
		<tag k="natural" v="waterfall" />
		<tag k="ssr:date" v="2019-12-27" />
		<tag k="ssr:gruppe" v="rennendeVann" />
		<tag k="ssr:hovedgruppe" v="ferskvann" />
		<tag k="ssr:stedsnr" v="24083" />
		<tag k="ssr:type" v="foss" />
	</node>
	<node id="-230886" lat="59.5212777748" lon="11.1938194472">
		<tag k="name" v="Bua" />
		<tag k="place" v="farm" />
		<tag k="ssr:date" v="2019-12-27" />
		<tag k="ssr:gruppe" v="gardsbebyggelse" />
		<tag k="ssr:hovedgruppe" v="bebyggelse" />
		<tag k="ssr:stedsnr" v="24073" />
		<tag k="ssr:type" v="bruk" />
	</node>
	<node id="-230885" lat="59.471041668" lon="11.1490833383">
		<tag k="alt_name" v="Toen østre" />
		<tag k="name" v="Østre Toen" />
		<tag k="place" v="farm" />
		<tag k="ssr:date" v="2019-12-27" />
		<tag k="ssr:gruppe" v="gardsbebyggelse" />
		<tag k="ssr:hovedgruppe" v="bebyggelse" />
		<tag k="ssr:stedsnr" v="23000" />
		<tag k="ssr:type" v="bruk" />
	</node>
	<node id="-230884" lat="59.4613027776" lon="11.1997111144">
		<tag k="name" v="Liverudhytta" />
		<tag k="place" v="farm" />
		<tag k="ssr:date" v="2019-12-27" />
		<tag k="ssr:gruppe" v="gardsbebyggelse" />
		<tag k="ssr:hovedgruppe" v="bebyggelse" />
		<tag k="ssr:stedsnr" v="22992" />
		<tag k="ssr:type" v="bruk" />
	</node>
	<node id="-230883" lat="59.4889361123" lon="11.0689138853">
		<tag k="name" v="Hansemosen" />
		<tag k="place" v="locality" />
		<tag k="ssr:date" v="2019-12-27" />
		<tag k="ssr:gruppe" v="gardsbebyggelse" />
		<tag k="ssr:hovedgruppe" v="bebyggelse" />
		<tag k="ssr:stedsnr" v="22985" />
		<tag k="ssr:type" v="eiendom" />
	</node>
	<node id="-230882" lat="59.496119444" lon="11.1617055517">
		<tag k="name" v="Hestengen" />
		<tag k="place" v="farm" />
		<tag k="ssr:date" v="2019-12-27" />
		<tag k="ssr:gruppe" v="gardsbebyggelse" />
		<tag k="ssr:hovedgruppe" v="bebyggelse" />
		<tag k="ssr:stedsnr" v="22980" />
		<tag k="ssr:type" v="bruk" />
	</node>
	<node id="-230881" lat="59.5050500012" lon="11.1296416737">
		<tag k="fixme" v="consider natural=peak for the most distinct mountains in the district" />
		<tag k="name" v="Vardåsen" />
		<tag k="natural" v="hill" />
		<tag k="place" v="locality" />
		<tag k="ssr:date" v="2019-12-27" />
		<tag k="ssr:gruppe" v="høyder" />
		<tag k="ssr:hovedgruppe" v="terreng" />
		<tag k="ssr:stedsnr" v="22975" />
		<tag k="ssr:type" v="ås" />
	</node>
	<node id="-230880" lat="59.485797221" lon="11.0966083412">
		<tag k="alt_name" v="Lund søndre" />
		<tag k="name" v="Søndre Lund" />
		<tag k="place" v="farm" />
		<tag k="ssr:date" v="2019-12-27" />
		<tag k="ssr:gruppe" v="gardsbebyggelse" />
		<tag k="ssr:hovedgruppe" v="bebyggelse" />
		<tag k="ssr:stedsnr" v="22974" />
		<tag k="ssr:type" v="bruk" />
	</node>
	<node id="-230879" lat="59.504433336" lon="11.0995416627">
		<tag k="alt_name" v="Kvisler søndre" />
		<tag k="name" v="Søndre Kvisler" />
		<tag k="place" v="farm" />
		<tag k="ssr:date" v="2019-12-27" />
		<tag k="ssr:gruppe" v="gardsbebyggelse" />
		<tag k="ssr:hovedgruppe" v="bebyggelse" />
		<tag k="ssr:stedsnr" v="22958" />
		<tag k="ssr:type" v="bruk" />
	</node>
	<node id="-230878" lat="59.49423333" lon="11.2206555571">
		<tag k="name" v="Fosstangen" />
		<tag k="place" v="farm" />
		<tag k="ssr:date" v="2019-12-27" />
		<tag k="ssr:gruppe" v="gardsbebyggelse" />
		<tag k="ssr:hovedgruppe" v="bebyggelse" />
		<tag k="ssr:stedsnr" v="22493" />
		<tag k="ssr:type" v="bruk" />
	</node>
	<node id="-230877" lat="59.5043249998" lon="11.2189916742">
		<tag k="name" v="Haugen" />
		<tag k="place" v="farm" />
		<tag k="ssr:date" v="2019-12-27" />
		<tag k="ssr:gruppe" v="gardsbebyggelse" />
		<tag k="ssr:hovedgruppe" v="bebyggelse" />
		<tag k="ssr:stedsnr" v="22487" />
		<tag k="ssr:type" v="bruk" />
	</node>
	<node id="-230876" lat="59.4757666693" lon="11.2155222203">
		<tag k="name" v="Skausbukta" />
		<tag k="place" v="farm" />
		<tag k="ssr:date" v="2019-12-27" />
		<tag k="ssr:gruppe" v="gardsbebyggelse" />
		<tag k="ssr:hovedgruppe" v="bebyggelse" />
		<tag k="ssr:stedsnr" v="22564" />
		<tag k="ssr:type" v="bruk" />
	</node>
	<node id="-230875" lat="59.5238378107" lon="11.1341520407">
		<tag k="fixme" v="consider place=hamlet" />
		<tag k="name" v="Hauger" />
		<tag k="place" v="farm" />
		<tag k="ssr:date" v="2019-12-27" />
		<tag k="ssr:gruppe" v="gardsbebyggelse" />
		<tag k="ssr:hovedgruppe" v="bebyggelse" />
		<tag k="ssr:stedsnr" v="4768" />
		<tag k="ssr:type" v="gard" />
	</node>
	<node id="-230874" lat="59.5219555591" lon="11.1646694446">
		<tag k="name" v="Bakkerud" />
		<tag k="place" v="farm" />
		<tag k="ssr:date" v="2019-12-27" />
		<tag k="ssr:gruppe" v="gardsbebyggelse" />
		<tag k="ssr:hovedgruppe" v="bebyggelse" />
		<tag k="ssr:stedsnr" v="4762" />
		<tag k="ssr:type" v="bruk" />
	</node>
	<node id="-230873" lat="59.5267505424" lon="11.1749501559">
		<tag k="name" v="Borger" />
		<tag k="place" v="hamlet" />
		<tag k="ssr:date" v="2019-12-27" />
		<tag k="ssr:gruppe" v="gardsbebyggelse" />
		<tag k="ssr:hovedgruppe" v="bebyggelse" />
		<tag k="ssr:stedsnr" v="4744" />
		<tag k="ssr:type" v="navnegard" />
	</node>
	<node id="-230872" lat="59.5010388917" lon="11.1038027796">
		<tag k="name" v="Krok" />
		<tag k="place" v="farm" />
		<tag k="ssr:date" v="2019-12-27" />
		<tag k="ssr:gruppe" v="gardsbebyggelse" />
		<tag k="ssr:hovedgruppe" v="bebyggelse" />
		<tag k="ssr:stedsnr" v="4724" />
		<tag k="ssr:type" v="bruk" />
	</node>
	<node id="-230871" lat="59.5010777735" lon="11.1153249909">
		<tag k="alt_name" v="Heistadengen" />
		<tag k="name" v="Heistadenga" />
		<tag k="place" v="farm" />
		<tag k="ssr:date" v="2019-12-27" />
		<tag k="ssr:gruppe" v="gardsbebyggelse" />
		<tag k="ssr:hovedgruppe" v="bebyggelse" />
		<tag k="ssr:stedsnr" v="4722" />
		<tag k="ssr:type" v="bruk" />
	</node>
	<node id="-230870" lat="59.5019894216" lon="11.1920631553">
		<tag k="fixme" v="consider place=hamlet" />
		<tag k="name" v="Finsrud" />
		<tag k="place" v="farm" />
		<tag k="ssr:date" v="2019-12-27" />
		<tag k="ssr:gruppe" v="gardsbebyggelse" />
		<tag k="ssr:hovedgruppe" v="bebyggelse" />
		<tag k="ssr:stedsnr" v="4712" />
		<tag k="ssr:type" v="gard" />
	</node>
	<node id="-230869" lat="59.5121888863" lon="11.1036666752">
		<tag k="fixme" v="consider natural=peak for the most distinct mountains in the district" />
		<tag k="name" v="Kvisleråsen" />
		<tag k="natural" v="hill" />
		<tag k="place" v="locality" />
		<tag k="ssr:date" v="2019-12-27" />
		<tag k="ssr:gruppe" v="høyder" />
		<tag k="ssr:hovedgruppe" v="terreng" />
		<tag k="ssr:stedsnr" v="4699" />
		<tag k="ssr:type" v="ås" />
	</node>
	<node id="-230868" lat="59.5121805597" lon="11.2092750058">
		<tag k="fixme" v="consider place=hamlet" />
		<tag k="name" v="Sundås" />
		<tag k="place" v="farm" />
		<tag k="ssr:date" v="2019-12-27" />
		<tag k="ssr:gruppe" v="gardsbebyggelse" />
		<tag k="ssr:hovedgruppe" v="bebyggelse" />
		<tag k="ssr:stedsnr" v="4692" />
		<tag k="ssr:type" v="gard" />
	</node>
	<node id="-230867" lat="59.3955703296" lon="11.1555779511">
		<tag k="alt_name" v="Åleskjer" />
		<tag k="name" v="Åleskjær" />
		<tag k="place" v="isolated_dwelling" />
		<tag k="ssr:date" v="2019-12-27" />
		<tag k="ssr:gruppe" v="bolighus" />
		<tag k="ssr:hovedgruppe" v="bebyggelse" />
		<tag k="ssr:stedsnr" v="2821" />
		<tag k="ssr:type" v="fritidsbolig" />
	</node>
	<node id="-230866" lat="59.4835634024" lon="11.1106556534">
		<tag k="alt_name" v="Haug nordre" />
		<tag k="fixme" v="consider place=hamlet" />
		<tag k="name" v="Haug" />
		<tag k="place" v="farm" />
		<tag k="ssr:date" v="2019-12-27" />
		<tag k="ssr:gruppe" v="gardsbebyggelse" />
		<tag k="ssr:hovedgruppe" v="bebyggelse" />
		<tag k="ssr:stedsnr" v="2052" />
		<tag k="ssr:type" v="gard" />
	</node>
	<node id="-230865" lat="59.4906880498" lon="11.131092471">
		<tag k="alt_name" v="Breidmosen" />
		<tag k="name" v="Breimosen" />
		<tag k="natural" v="wetland" />
		<tag k="ssr:date" v="2019-12-27" />
		<tag k="ssr:gruppe" v="våtmark" />
		<tag k="ssr:hovedgruppe" v="markslag" />
		<tag k="ssr:stedsnr" v="2043" />
		<tag k="ssr:type" v="myr" />
	</node>
	<node id="-230864" lat="59.4669527813" lon="11.1545999943">
		<tag k="alt_name" v="Brekke" />
		<tag k="name" v="Brekka" />
		<tag k="place" v="farm" />
		<tag k="ssr:date" v="2019-12-27" />
		<tag k="ssr:gruppe" v="gardsbebyggelse" />
		<tag k="ssr:hovedgruppe" v="bebyggelse" />
		<tag k="ssr:stedsnr" v="2030" />
		<tag k="ssr:type" v="bruk" />
	</node>
	<node id="-230863" lat="59.4533862028" lon="11.1957014746">
		<tag k="fixme" v="consider place=hamlet" />
		<tag k="name" v="Borgen" />
		<tag k="place" v="farm" />
		<tag k="ssr:date" v="2019-12-27" />
		<tag k="ssr:gruppe" v="gardsbebyggelse" />
		<tag k="ssr:hovedgruppe" v="bebyggelse" />
		<tag k="ssr:stedsnr" v="2252" />
		<tag k="ssr:type" v="gard" />
	</node>
	<node id="-230862" lat="59.445775003" lon="11.1677055541">
		<tag k="name" v="Kransrud" />
		<tag k="place" v="farm" />
		<tag k="ssr:date" v="2019-12-27" />
		<tag k="ssr:gruppe" v="gardsbebyggelse" />
		<tag k="ssr:hovedgruppe" v="bebyggelse" />
		<tag k="ssr:stedsnr" v="2196" />
		<tag k="ssr:type" v="bruk" />
	</node>
	<node id="-230861" lat="59.4602277782" lon="11.089291662">
		<tag k="name" v="Kommuneskogen" />
		<tag k="place" v="locality" />
		<tag k="ssr:date" v="2019-12-27" />
		<tag k="ssr:gruppe" v="vegetasjon" />
		<tag k="ssr:hovedgruppe" v="markslag" />
		<tag k="ssr:stedsnr" v="933947" />
		<tag k="ssr:type" v="skog" />
	</node>
	<node id="-230860" lat="59.4752166707" lon="11.1919805515">
		<tag k="name" v="Høytorp" />
		<tag k="place" v="farm" />
		<tag k="ssr:date" v="2019-12-27" />
		<tag k="ssr:gruppe" v="gardsbebyggelse" />
		<tag k="ssr:hovedgruppe" v="bebyggelse" />
		<tag k="ssr:stedsnr" v="932529" />
		<tag k="ssr:type" v="bruk" />
	</node>
	<node id="-230859" lat="59.4695999967" lon="11.2025694391">
		<tag k="name" v="Åsnes" />
		<tag k="place" v="farm" />
		<tag k="ssr:date" v="2019-12-27" />
		<tag k="ssr:gruppe" v="gardsbebyggelse" />
		<tag k="ssr:hovedgruppe" v="bebyggelse" />
		<tag k="ssr:stedsnr" v="932505" />
		<tag k="ssr:type" v="bruk" />
	</node>
	<node id="-230858" lat="59.4598999998" lon="11.1043999981">
		<tag k="name" v="Skomakerhytta" />
		<tag k="place" v="isolated_dwelling" />
		<tag k="ssr:date" v="2019-12-27" />
		<tag k="ssr:gruppe" v="bolighus" />
		<tag k="ssr:hovedgruppe" v="bebyggelse" />
		<tag k="ssr:stedsnr" v="912229" />
		<tag k="ssr:type" v="fritidsbolig" />
	</node>
	<node id="-230857" lat="59.538983331" lon="11.1760972275">
		<tag k="name" v="Fossbakk" />
		<tag k="place" v="farm" />
		<tag k="ssr:date" v="2019-12-27" />
		<tag k="ssr:gruppe" v="gardsbebyggelse" />
		<tag k="ssr:hovedgruppe" v="bebyggelse" />
		<tag k="ssr:stedsnr" v="873113" />
		<tag k="ssr:type" v="bruk" />
	</node>
	<node id="-230856" lat="59.512863885" lon="11.1967388876">
		<tag k="name" v="Klokkerhuset" />
		<tag k="place" v="locality" />
		<tag k="ssr:date" v="2019-12-27" />
		<tag k="ssr:gruppe" v="kulturminner" />
		<tag k="ssr:hovedgruppe" v="kultur" />
		<tag k="ssr:stedsnr" v="873104" />
		<tag k="ssr:type" v="annenKulturdetalj" />
	</node>
	<node id="-230855" lat="59.4824194466" lon="11.1226388934">
		<tag k="alt_name" v="Målen østre" />
		<tag k="name" v="Østre Målen" />
		<tag k="place" v="farm" />
		<tag k="ssr:date" v="2019-12-27" />
		<tag k="ssr:gruppe" v="gardsbebyggelse" />
		<tag k="ssr:hovedgruppe" v="bebyggelse" />
		<tag k="ssr:stedsnr" v="872973" />
		<tag k="ssr:type" v="bruk" />
	</node>
	<node id="-230854" lat="59.4623861073" lon="11.1677861177">
		<tag k="alt_name" v="Hol østre" />
		<tag k="name" v="Østre Hol" />
		<tag k="place" v="farm" />
		<tag k="ssr:date" v="2019-12-27" />
		<tag k="ssr:gruppe" v="gardsbebyggelse" />
		<tag k="ssr:hovedgruppe" v="bebyggelse" />
		<tag k="ssr:stedsnr" v="872959" />
		<tag k="ssr:type" v="bruk" />
	</node>
	<node id="-230853" lat="59.456133332" lon="11.1430527825">
		<tag k="name" v="Sperstadbakken" />
		<tag k="place" v="farm" />
		<tag k="ssr:date" v="2019-12-27" />
		<tag k="ssr:gruppe" v="gardsbebyggelse" />
		<tag k="ssr:hovedgruppe" v="bebyggelse" />
		<tag k="ssr:stedsnr" v="872956" />
		<tag k="ssr:type" v="bruk" />
	</node>
	<node id="-230852" lat="59.4346388906" lon="11.1866222198">
		<tag k="name" v="Snekkerhyttlandet" />
		<tag k="place" v="locality" />
		<tag k="ssr:date" v="2019-12-27" />
		<tag k="ssr:gruppe" v="gardsbebyggelse" />
		<tag k="ssr:hovedgruppe" v="bebyggelse" />
		<tag k="ssr:stedsnr" v="872557" />
		<tag k="ssr:type" v="eiendom" />
	</node>
	<node id="-230851" lat="59.4351722184" lon="11.1820611154">
		<tag k="name" v="Nordenga" />
		<tag k="place" v="farm" />
		<tag k="ssr:date" v="2019-12-27" />
		<tag k="ssr:gruppe" v="gardsbebyggelse" />
		<tag k="ssr:hovedgruppe" v="bebyggelse" />
		<tag k="ssr:stedsnr" v="872555" />
		<tag k="ssr:type" v="bruk" />
	</node>
	<node id="-230850" lat="59.433297225" lon="11.1830388832">
		<tag k="name" v="Nybru" />
		<tag k="place" v="farm" />
		<tag k="ssr:date" v="2019-12-27" />
		<tag k="ssr:gruppe" v="gardsbebyggelse" />
		<tag k="ssr:hovedgruppe" v="bebyggelse" />
		<tag k="ssr:stedsnr" v="872553" />
		<tag k="ssr:type" v="bruk" />
	</node>
	<node id="-230849" lat="59.5471305517" lon="11.1316749978">
		<tag k="fixme" v="consider natural=peak for the most distinct mountains in the district" />
		<tag k="name" v="Kongeåsen" />
		<tag k="natural" v="hill" />
		<tag k="place" v="locality" />
		<tag k="ssr:date" v="2019-12-27" />
		<tag k="ssr:gruppe" v="høyder" />
		<tag k="ssr:hovedgruppe" v="terreng" />
		<tag k="ssr:stedsnr" v="871860" />
		<tag k="ssr:type" v="ås" />
	</node>
	<node id="-230848" lat="59.5045583335" lon="11.089211111">
		<tag k="alt_name" v="Bjørnemyr" />
		<tag k="name" v="Bjørnemyra" />
		<tag k="place" v="farm" />
		<tag k="ssr:date" v="2019-12-27" />
		<tag k="ssr:gruppe" v="gardsbebyggelse" />
		<tag k="ssr:hovedgruppe" v="bebyggelse" />
		<tag k="ssr:stedsnr" v="853061" />
		<tag k="ssr:type" v="bruk" />
	</node>
	<node id="-230847" lat="59.4358250009" lon="11.1769222228">
		<tag k="name" v="Storenga" />
		<tag k="place" v="farm" />
		<tag k="ssr:date" v="2019-12-27" />
		<tag k="ssr:gruppe" v="gardsbebyggelse" />
		<tag k="ssr:hovedgruppe" v="bebyggelse" />
		<tag k="ssr:stedsnr" v="852220" />
		<tag k="ssr:type" v="bruk" />
	</node>
	<node id="-230846" lat="59.476576613" lon="11.1580497186">
		<tag k="alt_name" v="Koffell nordre" />
		<tag k="fixme" v="consider place=hamlet" />
		<tag k="name" v="Kåfell" />
		<tag k="place" v="farm" />
		<tag k="ssr:date" v="2019-12-27" />
		<tag k="ssr:gruppe" v="gardsbebyggelse" />
		<tag k="ssr:hovedgruppe" v="bebyggelse" />
		<tag k="ssr:stedsnr" v="852068" />
		<tag k="ssr:type" v="gard" />
	</node>
	<node id="-230845" lat="59.4800249961" lon="11.2088027805">
		<tag k="name" v="Veiby" />
		<tag k="place" v="farm" />
		<tag k="ssr:date" v="2019-12-27" />
		<tag k="ssr:gruppe" v="gardsbebyggelse" />
		<tag k="ssr:hovedgruppe" v="bebyggelse" />
		<tag k="ssr:stedsnr" v="852066" />
		<tag k="ssr:type" v="bruk" />
	</node>
	<node id="-230844" lat="59.4868624777" lon="11.2237643628">
		<tag k="name" v="Skipperud" />
		<tag k="place" v="hamlet" />
		<tag k="ssr:date" v="2019-12-27" />
		<tag k="ssr:gruppe" v="gardsbebyggelse" />
		<tag k="ssr:hovedgruppe" v="bebyggelse" />
		<tag k="ssr:stedsnr" v="852053" />
		<tag k="ssr:type" v="navnegard" />
	</node>
	<node id="-230843" lat="59.5269083366" lon="11.1512555512">
		<tag k="bridge" v="yes" />
		<tag k="layer" v="1" />
		<tag k="name" v="Libru" />
		<tag k="ssr:date" v="2019-12-27" />
		<tag k="ssr:gruppe" v="samferdselsanlegg" />
		<tag k="ssr:hovedgruppe" v="infrastruktur" />
		<tag k="ssr:stedsnr" v="835523" />
		<tag k="ssr:type" v="bru" />
	</node>
	<node id="-230842" lat="59.5216944486" lon="11.1897638851">
		<tag k="alt_name" v="Onstad østre" />
		<tag k="name" v="Østre Onstad" />
		<tag k="place" v="farm" />
		<tag k="ssr:date" v="2019-12-27" />
		<tag k="ssr:gruppe" v="gardsbebyggelse" />
		<tag k="ssr:hovedgruppe" v="bebyggelse" />
		<tag k="ssr:stedsnr" v="934085" />
		<tag k="ssr:type" v="bruk" />
	</node>
	<node id="-230841" lat="59.4866416675" lon="11.1544500025">
		<tag k="name" v="Løstvet (Smehytta)" />
		<tag k="place" v="farm" />
		<tag k="ssr:date" v="2019-12-27" />
		<tag k="ssr:gruppe" v="gardsbebyggelse" />
		<tag k="ssr:hovedgruppe" v="bebyggelse" />
		<tag k="ssr:stedsnr" v="933983" />
		<tag k="ssr:type" v="bruk" />
	</node>
	<node id="-230840" lat="59.444477778" lon="11.1675750025">
		<tag k="name" v="Solbergdalen" />
		<tag k="place" v="farm" />
		<tag k="ssr:date" v="2019-12-27" />
		<tag k="ssr:gruppe" v="gardsbebyggelse" />
		<tag k="ssr:hovedgruppe" v="bebyggelse" />
		<tag k="ssr:stedsnr" v="933981" />
		<tag k="ssr:type" v="bruk" />
	</node>
	<node id="-230839" lat="59.4373111096" lon="11.158866658">
		<tag k="name" v="Suserud" />
		<tag k="place" v="farm" />
		<tag k="ssr:date" v="2019-12-27" />
		<tag k="ssr:gruppe" v="gardsbebyggelse" />
		<tag k="ssr:hovedgruppe" v="bebyggelse" />
		<tag k="ssr:stedsnr" v="933980" />
		<tag k="ssr:type" v="bruk" />
	</node>
	<node id="-230838" lat="59.5033861105" lon="11.1067805475">
		<tag k="name" v="Krokås" />
		<tag k="place" v="farm" />
		<tag k="ssr:date" v="2019-12-27" />
		<tag k="ssr:gruppe" v="gardsbebyggelse" />
		<tag k="ssr:hovedgruppe" v="bebyggelse" />
		<tag k="ssr:stedsnr" v="933967" />
		<tag k="ssr:type" v="bruk" />
	</node>
	<node id="-230837" lat="59.4534355518" lon="11.1576375032">
		<tag k="name" v="Åmot" />
		<tag k="place" v="hamlet" />
		<tag k="ssr:date" v="2019-12-27" />
		<tag k="ssr:gruppe" v="gardsbebyggelse" />
		<tag k="ssr:hovedgruppe" v="bebyggelse" />
		<tag k="ssr:stedsnr" v="933957" />
		<tag k="ssr:type" v="navnegard" />
	</node>
	<node id="-230836" lat="59.4029638876" lon="11.1750916693">
		<tag k="name" v="Glennebukta" />
		<tag k="natural" v="bay" />
		<tag k="ssr:date" v="2019-12-27" />
		<tag k="ssr:gruppe" v="ferskvannskontur" />
		<tag k="ssr:hovedgruppe" v="ferskvann" />
		<tag k="ssr:stedsnr" v="933743" />
		<tag k="ssr:type" v="vik" />
	</node>
	<node id="-230835" lat="59.4898222197" lon="11.1050250054">
		<tag k="alt_name" v="Strand søndre" />
		<tag k="name" v="Søndre Strand" />
		<tag k="place" v="farm" />
		<tag k="ssr:date" v="2019-12-27" />
		<tag k="ssr:gruppe" v="gardsbebyggelse" />
		<tag k="ssr:hovedgruppe" v="bebyggelse" />
		<tag k="ssr:stedsnr" v="932977" />
		<tag k="ssr:type" v="bruk" />
	</node>
	<node id="-230834" lat="59.5352027773" lon="11.1380361038">
		<tag k="alt_name" v="Langli nordre" />
		<tag k="name" v="Nordre Langli" />
		<tag k="place" v="farm" />
		<tag k="ssr:date" v="2019-12-27" />
		<tag k="ssr:gruppe" v="gardsbebyggelse" />
		<tag k="ssr:hovedgruppe" v="bebyggelse" />
		<tag k="ssr:stedsnr" v="932851" />
		<tag k="ssr:type" v="bruk" />
	</node>
	<node id="-230833" lat="59.5295194445" lon="11.1459472291">
		<tag k="junction" v="yes" />
		<tag k="name" v="Langlikrysset" />
		<tag k="place" v="locality" />
		<tag k="ssr:date" v="2019-12-27" />
		<tag k="ssr:gruppe" v="veg" />
		<tag k="ssr:hovedgruppe" v="infrastruktur" />
		<tag k="ssr:stedsnr" v="932839" />
		<tag k="ssr:type" v="vegkryss" />
	</node>
	<node id="-230832" lat="59.5270111068" lon="11.1536500033">
		<tag k="name" v="Librubekken" />
		<tag k="ssr:date" v="2019-12-27" />
		<tag k="ssr:gruppe" v="rennendeVann" />
		<tag k="ssr:hovedgruppe" v="ferskvann" />
		<tag k="ssr:stedsnr" v="932832" />
		<tag k="ssr:type" v="bekk" />
		<tag k="waterway" v="stream" />
	</node>
	<node id="-230831" lat="59.5040000032" lon="11.0624916593">
		<tag k="name" v="Hoppenstein" />
		<tag k="place" v="farm" />
		<tag k="ssr:date" v="2019-12-27" />
		<tag k="ssr:gruppe" v="gardsbebyggelse" />
		<tag k="ssr:hovedgruppe" v="bebyggelse" />
		<tag k="ssr:stedsnr" v="811956" />
		<tag k="ssr:type" v="bruk" />
	</node>
	<node id="-230830" lat="59.4641722252" lon="11.1556416607">
		<tag k="alt_name" v="Ringstad nedre" />
		<tag k="name" v="Nedre Ringstad" />
		<tag k="place" v="farm" />
		<tag k="ssr:date" v="2019-12-27" />
		<tag k="ssr:gruppe" v="gardsbebyggelse" />
		<tag k="ssr:hovedgruppe" v="bebyggelse" />
		<tag k="ssr:stedsnr" v="811945" />
		<tag k="ssr:type" v="bruk" />
	</node>
	<node id="-230829" lat="59.4573612442" lon="11.1630341822">
		<tag k="alt_name" v="Gullhaugen søndre" />
		<tag k="name" v="Søndre Gullhaugen" />
		<tag k="place" v="farm" />
		<tag k="ssr:date" v="2019-12-27" />
		<tag k="ssr:gruppe" v="gardsbebyggelse" />
		<tag k="ssr:hovedgruppe" v="bebyggelse" />
		<tag k="ssr:stedsnr" v="811938" />
		<tag k="ssr:type" v="bruk" />
	</node>
	<node id="-230828" lat="59.4650249994" lon="11.1532055483">
		<tag k="alt_name" v="Ringstad øvre;Ringstad" />
		<tag k="name" v="Øvre Ringstad" />
		<tag k="place" v="farm" />
		<tag k="ssr:date" v="2019-12-27" />
		<tag k="ssr:gruppe" v="gardsbebyggelse" />
		<tag k="ssr:hovedgruppe" v="bebyggelse" />
		<tag k="ssr:stedsnr" v="811935" />
		<tag k="ssr:type" v="bruk" />
	</node>
	<node id="-230827" lat="59.4626027796" lon="11.1459583306">
		<tag k="name" v="Sølvberg (Mortenshytta)" />
		<tag k="place" v="farm" />
		<tag k="ssr:date" v="2019-12-27" />
		<tag k="ssr:gruppe" v="gardsbebyggelse" />
		<tag k="ssr:hovedgruppe" v="bebyggelse" />
		<tag k="ssr:stedsnr" v="811934" />
		<tag k="ssr:type" v="bruk" />
	</node>
	<node id="-230826" lat="59.4866483545" lon="11.0975239235">
		<tag k="fixme" v="consider place=hamlet" />
		<tag k="name" v="Lund" />
		<tag k="place" v="farm" />
		<tag k="ssr:date" v="2019-12-27" />
		<tag k="ssr:gruppe" v="gardsbebyggelse" />
		<tag k="ssr:hovedgruppe" v="bebyggelse" />
		<tag k="ssr:stedsnr" v="791039" />
		<tag k="ssr:type" v="gard" />
	</node>
	<node id="-230825" lat="59.4703157918" lon="11.2098833831">
		<tag k="fixme" v="consider place=hamlet" />
		<tag k="name" v="Espenes" />
		<tag k="place" v="farm" />
		<tag k="ssr:date" v="2019-12-27" />
		<tag k="ssr:gruppe" v="gardsbebyggelse" />
		<tag k="ssr:hovedgruppe" v="bebyggelse" />
		<tag k="ssr:stedsnr" v="791027" />
		<tag k="ssr:type" v="gard" />
	</node>
	<node id="-230824" lat="59.46413352" lon="11.2062106513">
		<tag k="fixme" v="consider place=hamlet" />
		<tag k="name" v="Ruene" />
		<tag k="place" v="farm" />
		<tag k="ssr:date" v="2019-12-27" />
		<tag k="ssr:gruppe" v="gardsbebyggelse" />
		<tag k="ssr:hovedgruppe" v="bebyggelse" />
		<tag k="ssr:stedsnr" v="791025" />
		<tag k="ssr:type" v="gard" />
	</node>
	<node id="-230823" lat="59.4626000032" lon="11.1926222163">
		<tag k="name" v="Ekeberg" />
		<tag k="place" v="farm" />
		<tag k="ssr:date" v="2019-12-27" />
		<tag k="ssr:gruppe" v="gardsbebyggelse" />
		<tag k="ssr:hovedgruppe" v="bebyggelse" />
		<tag k="ssr:stedsnr" v="791024" />
		<tag k="ssr:type" v="bruk" />
	</node>
	<node id="-230822" lat="59.4282750041" lon="11.1613500059">
		<tag k="name" v="Holtet" />
		<tag k="place" v="farm" />
		<tag k="ssr:date" v="2019-12-27" />
		<tag k="ssr:gruppe" v="gardsbebyggelse" />
		<tag k="ssr:hovedgruppe" v="bebyggelse" />
		<tag k="ssr:stedsnr" v="791173" />
		<tag k="ssr:type" v="bruk" />
	</node>
	<node id="-230821" lat="59.4282861075" lon="11.1345166729">
		<tag k="alt_name" v="Lumpestad" />
		<tag k="name" v="Fjellstad" />
		<tag k="place" v="farm" />
		<tag k="ssr:date" v="2019-12-27" />
		<tag k="ssr:gruppe" v="gardsbebyggelse" />
		<tag k="ssr:hovedgruppe" v="bebyggelse" />
		<tag k="ssr:stedsnr" v="791165" />
		<tag k="ssr:type" v="bruk" />
	</node>
	<node id="-230820" lat="59.4782999994" lon="11.219600008">
		<tag k="alt_name" v="Skau" />
		<tag k="name" v="Skog" />
		<tag k="place" v="farm" />
		<tag k="ssr:date" v="2019-12-27" />
		<tag k="ssr:gruppe" v="gardsbebyggelse" />
		<tag k="ssr:hovedgruppe" v="bebyggelse" />
		<tag k="ssr:stedsnr" v="920839" />
		<tag k="ssr:type" v="bruk" />
	</node>
	<node id="-230819" lat="59.4518922531" lon="11.1383701106">
		<tag k="fixme" v="consider place=hamlet" />
		<tag k="name" v="Haug" />
		<tag k="place" v="farm" />
		<tag k="ssr:date" v="2019-12-27" />
		<tag k="ssr:gruppe" v="gardsbebyggelse" />
		<tag k="ssr:hovedgruppe" v="bebyggelse" />
		<tag k="ssr:stedsnr" v="920836" />
		<tag k="ssr:type" v="gard" />
	</node>
	<node id="-230818" lat="59.4529611121" lon="11.1355027719">
		<tag k="bridge" v="yes" />
		<tag k="layer" v="1" />
		<tag k="name" v="Haug" />
		<tag k="ssr:date" v="2019-12-27" />
		<tag k="ssr:gruppe" v="samferdselsanlegg" />
		<tag k="ssr:hovedgruppe" v="infrastruktur" />
		<tag k="ssr:stedsnr" v="774533" />
		<tag k="ssr:type" v="bru" />
	</node>
	<node id="-230817" lat="59.5266057739" lon="11.1188926406">
		<tag k="fixme" v="consider place=hamlet" />
		<tag k="name" v="Holmerud" />
		<tag k="place" v="farm" />
		<tag k="ssr:date" v="2019-12-27" />
		<tag k="ssr:gruppe" v="gardsbebyggelse" />
		<tag k="ssr:hovedgruppe" v="bebyggelse" />
		<tag k="ssr:stedsnr" v="914750" />
		<tag k="ssr:type" v="gard" />
	</node>
	<node id="-230816" lat="59.5399173546" lon="11.1345273189">
		<tag k="fixme" v="consider place=hamlet" />
		<tag k="name" v="Svae" />
		<tag k="place" v="farm" />
		<tag k="ssr:date" v="2019-12-27" />
		<tag k="ssr:gruppe" v="gardsbebyggelse" />
		<tag k="ssr:hovedgruppe" v="bebyggelse" />
		<tag k="ssr:stedsnr" v="914534" />
		<tag k="ssr:type" v="gard" />
	</node>
	<node id="-230815" lat="59.4930749971" lon="11.2124722275">
		<tag k="name" v="Heia" />
		<tag k="place" v="farm" />
		<tag k="ssr:date" v="2019-12-27" />
		<tag k="ssr:gruppe" v="gardsbebyggelse" />
		<tag k="ssr:hovedgruppe" v="bebyggelse" />
		<tag k="ssr:stedsnr" v="914101" />
		<tag k="ssr:type" v="bruk" />
	</node>
	<node id="-230814" lat="59.507258334" lon="11.0645666702">
		<tag k="name" v="Lia" />
		<tag k="place" v="farm" />
		<tag k="ssr:date" v="2019-12-27" />
		<tag k="ssr:gruppe" v="gardsbebyggelse" />
		<tag k="ssr:hovedgruppe" v="bebyggelse" />
		<tag k="ssr:stedsnr" v="914086" />
		<tag k="ssr:type" v="bruk" />
	</node>
	<node id="-230813" lat="59.4419444463" lon="11.1353749938">
		<tag k="alt_name" v="Torsberg" />
		<tag k="name" v="Fossberg" />
		<tag k="place" v="farm" />
		<tag k="ssr:date" v="2019-12-27" />
		<tag k="ssr:gruppe" v="gardsbebyggelse" />
		<tag k="ssr:hovedgruppe" v="bebyggelse" />
		<tag k="ssr:stedsnr" v="913186" />
		<tag k="ssr:type" v="bruk" />
	</node>
	<node id="-230812" lat="59.4980633158" lon="11.1604762906">
		<tag k="alt_name" v="Trandem" />
		<tag k="fixme" v="consider place=hamlet" />
		<tag k="name" v="Trandum" />
		<tag k="place" v="farm" />
		<tag k="ssr:date" v="2019-12-27" />
		<tag k="ssr:gruppe" v="gardsbebyggelse" />
		<tag k="ssr:hovedgruppe" v="bebyggelse" />
		<tag k="ssr:stedsnr" v="913093" />
		<tag k="ssr:type" v="gard" />
	</node>
	<node id="-230811" lat="59.4803805584" lon="11.1801749995">
		<tag k="name" v="Nordhaug" />
		<tag k="place" v="farm" />
		<tag k="ssr:date" v="2019-12-27" />
		<tag k="ssr:gruppe" v="gardsbebyggelse" />
		<tag k="ssr:hovedgruppe" v="bebyggelse" />
		<tag k="ssr:stedsnr" v="913053" />
		<tag k="ssr:type" v="bruk" />
	</node>
	<node id="-230810" lat="59.4031580909" lon="11.1706711447">
		<tag k="fixme" v="consider place=hamlet" />
		<tag k="name" v="Skår" />
		<tag k="place" v="farm" />
		<tag k="ssr:date" v="2019-12-27" />
		<tag k="ssr:gruppe" v="gardsbebyggelse" />
		<tag k="ssr:hovedgruppe" v="bebyggelse" />
		<tag k="ssr:stedsnr" v="912147" />
		<tag k="ssr:type" v="gard" />
	</node>
	<node id="-230809" lat="59.4144500036" lon="11.1732472262">
		<tag k="name" v="Gunnarsberget" />
		<tag k="natural" v="hill" />
		<tag k="place" v="locality" />
		<tag k="ssr:date" v="2019-12-27" />
		<tag k="ssr:gruppe" v="høyder" />
		<tag k="ssr:hovedgruppe" v="terreng" />
		<tag k="ssr:stedsnr" v="912133" />
		<tag k="ssr:type" v="berg" />
	</node>
	<node id="-230808" lat="59.4672888867" lon="11.1799722292">
		<tag k="name" v="Mørk" />
		<tag k="place" v="farm" />
		<tag k="ssr:date" v="2019-12-27" />
		<tag k="ssr:gruppe" v="gardsbebyggelse" />
		<tag k="ssr:hovedgruppe" v="bebyggelse" />
		<tag k="ssr:stedsnr" v="750514" />
		<tag k="ssr:type" v="bruk" />
	</node>
	<node id="-230807" lat="59.5129805554" lon="11.092330551">
		<tag k="name" v="Nygård" />
		<tag k="place" v="farm" />
		<tag k="ssr:date" v="2019-12-27" />
		<tag k="ssr:gruppe" v="gardsbebyggelse" />
		<tag k="ssr:hovedgruppe" v="bebyggelse" />
		<tag k="ssr:stedsnr" v="732034" />
		<tag k="ssr:type" v="bruk" />
	</node>
	<node id="-230806" lat="59.443258336" lon="11.146724996">
		<tag k="bridge" v="yes" />
		<tag k="layer" v="1" />
		<tag k="name" v="Berg" />
		<tag k="ssr:date" v="2019-12-27" />
		<tag k="ssr:gruppe" v="samferdselsanlegg" />
		<tag k="ssr:hovedgruppe" v="infrastruktur" />
		<tag k="ssr:stedsnr" v="896517" />
		<tag k="ssr:type" v="bru" />
	</node>
	<node id="-230805" lat="59.5297681981" lon="11.1686099001">
		<tag k="fixme" v="consider place=hamlet" />
		<tag k="name" v="Rjuk" />
		<tag k="place" v="farm" />
		<tag k="ssr:date" v="2019-12-27" />
		<tag k="ssr:gruppe" v="gardsbebyggelse" />
		<tag k="ssr:hovedgruppe" v="bebyggelse" />
		<tag k="ssr:stedsnr" v="732737" />
		<tag k="ssr:type" v="gard" />
	</node>
	<node id="-230804" lat="59.5151874396" lon="11.1858526464">
		<tag k="fixme" v="consider place=hamlet" />
		<tag k="name" v="Onstad" />
		<tag k="place" v="farm" />
		<tag k="ssr:date" v="2019-12-27" />
		<tag k="ssr:gruppe" v="gardsbebyggelse" />
		<tag k="ssr:hovedgruppe" v="bebyggelse" />
		<tag k="ssr:stedsnr" v="732708" />
		<tag k="ssr:type" v="gard" />
	</node>
	<node id="-230803" lat="59.4993027762" lon="11.0986500081">
		<tag k="name" v="Nordby" />
		<tag k="place" v="farm" />
		<tag k="ssr:date" v="2019-12-27" />
		<tag k="ssr:gruppe" v="gardsbebyggelse" />
		<tag k="ssr:hovedgruppe" v="bebyggelse" />
		<tag k="ssr:stedsnr" v="731060" />
		<tag k="ssr:type" v="bruk" />
	</node>
	<node id="-230802" lat="59.4821127338" lon="11.1825582833">
		<tag k="fixme" v="consider place=hamlet" />
		<tag k="name" v="Dillerud" />
		<tag k="place" v="farm" />
		<tag k="ssr:date" v="2019-12-27" />
		<tag k="ssr:gruppe" v="gardsbebyggelse" />
		<tag k="ssr:hovedgruppe" v="bebyggelse" />
		<tag k="ssr:stedsnr" v="731047" />
		<tag k="ssr:type" v="gard" />
	</node>
	<node id="-230801" lat="59.4496750018" lon="11.1388749951">
		<tag k="alt_name" v="Haug (Opster)" />
		<tag k="name" v="Haug" />
		<tag k="place" v="farm" />
		<tag k="ssr:date" v="2019-12-27" />
		<tag k="ssr:gruppe" v="gardsbebyggelse" />
		<tag k="ssr:hovedgruppe" v="bebyggelse" />
		<tag k="ssr:stedsnr" v="730236" />
		<tag k="ssr:type" v="bruk" />
	</node>
	<node id="-230800" lat="59.4630249989" lon="11.1244972146">
		<tag k="name" v="Gjerskog" />
		<tag k="place" v="farm" />
		<tag k="ssr:date" v="2019-12-27" />
		<tag k="ssr:gruppe" v="gardsbebyggelse" />
		<tag k="ssr:hovedgruppe" v="bebyggelse" />
		<tag k="ssr:stedsnr" v="730224" />
		<tag k="ssr:type" v="bruk" />
	</node>
	<node id="-230799" lat="59.4582303996" lon="11.1760382284">
		<tag k="fixme" v="consider place=hamlet" />
		<tag k="name" v="Stafseng" />
		<tag k="place" v="farm" />
		<tag k="ssr:date" v="2019-12-27" />
		<tag k="ssr:gruppe" v="gardsbebyggelse" />
		<tag k="ssr:hovedgruppe" v="bebyggelse" />
		<tag k="ssr:stedsnr" v="730223" />
		<tag k="ssr:type" v="gard" />
	</node>
	<node id="-230798" lat="59.4597755412" lon="11.185536597">
		<tag k="name" v="Hønstvet" />
		<tag k="place" v="hamlet" />
		<tag k="ssr:date" v="2019-12-27" />
		<tag k="ssr:gruppe" v="gardsbebyggelse" />
		<tag k="ssr:hovedgruppe" v="bebyggelse" />
		<tag k="ssr:stedsnr" v="730216" />
		<tag k="ssr:type" v="navnegard" />
	</node>
	<node id="-230797" lat="59.4835613921" lon="11.1163424337">
		<tag k="fixme" v="consider place=hamlet" />
		<tag k="name" v="Målen" />
		<tag k="place" v="farm" />
		<tag k="ssr:date" v="2019-12-27" />
		<tag k="ssr:gruppe" v="gardsbebyggelse" />
		<tag k="ssr:hovedgruppe" v="bebyggelse" />
		<tag k="ssr:stedsnr" v="730032" />
		<tag k="ssr:type" v="gard" />
	</node>
	<node id="-230796" lat="59.475074997" lon="11.1065750033">
		<tag k="name" v="Neset" />
		<tag k="place" v="farm" />
		<tag k="ssr:date" v="2019-12-27" />
		<tag k="ssr:gruppe" v="gardsbebyggelse" />
		<tag k="ssr:hovedgruppe" v="bebyggelse" />
		<tag k="ssr:stedsnr" v="730009" />
		<tag k="ssr:type" v="bruk" />
	</node>
	<node id="-230795" lat="59.5336611154" lon="11.176850007">
		<tag k="name" v="Vestgården" />
		<tag k="place" v="farm" />
		<tag k="ssr:date" v="2019-12-27" />
		<tag k="ssr:gruppe" v="gardsbebyggelse" />
		<tag k="ssr:hovedgruppe" v="bebyggelse" />
		<tag k="ssr:stedsnr" v="630111" />
		<tag k="ssr:type" v="bruk" />
	</node>
	<node id="-230794" lat="59.4372805518" lon="11.1921777751">
		<tag k="name" v="Lystadtangen" />
		<tag k="natural" v="cape" />
		<tag k="ssr:date" v="2019-12-27" />
		<tag k="ssr:gruppe" v="ferskvannskontur" />
		<tag k="ssr:hovedgruppe" v="ferskvann" />
		<tag k="ssr:stedsnr" v="629530" />
		<tag k="ssr:type" v="nes" />
	</node>
	<node id="-230793" lat="59.4922083289" lon="11.2214000046">
		<tag k="name" v="Bleikebakke" />
		<tag k="place" v="locality" />
		<tag k="ssr:date" v="2019-12-27" />
		<tag k="ssr:gruppe" v="gardsbebyggelse" />
		<tag k="ssr:hovedgruppe" v="bebyggelse" />
		<tag k="ssr:stedsnr" v="629521" />
		<tag k="ssr:type" v="eiendom" />
	</node>
	<node id="-230792" lat="59.5270361082" lon="11.1511666692">
		<tag k="junction" v="yes" />
		<tag k="name" v="Librusvingen" />
		<tag k="place" v="locality" />
		<tag k="ssr:date" v="2019-12-27" />
		<tag k="ssr:gruppe" v="veg" />
		<tag k="ssr:hovedgruppe" v="infrastruktur" />
		<tag k="ssr:stedsnr" v="628829" />
		<tag k="ssr:type" v="vegkryss" />
	</node>
	<node id="-230791" lat="59.5099638868" lon="11.1686305636">
		<tag k="alt_name" v="Aslaksrud nordre" />
		<tag k="name" v="Nordre Aslaksrud" />
		<tag k="place" v="farm" />
		<tag k="ssr:date" v="2019-12-27" />
		<tag k="ssr:gruppe" v="gardsbebyggelse" />
		<tag k="ssr:hovedgruppe" v="bebyggelse" />
		<tag k="ssr:stedsnr" v="628824" />
		<tag k="ssr:type" v="bruk" />
	</node>
	<node id="-230790" lat="59.5168166708" lon="11.1596111154">
		<tag k="alt_name" v="Mellem Vister" />
		<tag k="name" v="Mellom-Vister" />
		<tag k="place" v="farm" />
		<tag k="ssr:date" v="2019-12-27" />
		<tag k="ssr:gruppe" v="gardsbebyggelse" />
		<tag k="ssr:hovedgruppe" v="bebyggelse" />
		<tag k="ssr:stedsnr" v="628821" />
		<tag k="ssr:type" v="bruk" />
	</node>
	<node id="-230789" lat="59.4276999958" lon="11.1721750024">
		<tag k="alt_name" v="Øvre Tangen" />
		<tag k="name" v="Tangen" />
		<tag k="place" v="farm" />
		<tag k="ssr:date" v="2019-12-27" />
		<tag k="ssr:gruppe" v="gardsbebyggelse" />
		<tag k="ssr:hovedgruppe" v="bebyggelse" />
		<tag k="ssr:stedsnr" v="608164" />
		<tag k="ssr:type" v="bruk" />
	</node>
	<node id="-230788" lat="59.4678249993" lon="11.0981249956">
		<tag k="fixme" v="consider natural=peak for the most distinct mountains in the district" />
		<tag k="name" v="Bogsåsen" />
		<tag k="natural" v="hill" />
		<tag k="place" v="locality" />
		<tag k="ssr:date" v="2019-12-27" />
		<tag k="ssr:gruppe" v="høyder" />
		<tag k="ssr:hovedgruppe" v="terreng" />
		<tag k="ssr:stedsnr" v="608007" />
		<tag k="ssr:type" v="ås" />
	</node>
	<node id="-230787" lat="59.5249638872" lon="11.1967999932">
		<tag k="name" v="Holt" />
		<tag k="place" v="farm" />
		<tag k="ssr:date" v="2019-12-27" />
		<tag k="ssr:gruppe" v="gardsbebyggelse" />
		<tag k="ssr:hovedgruppe" v="bebyggelse" />
		<tag k="ssr:stedsnr" v="691119" />
		<tag k="ssr:type" v="bruk" />
	</node>
	<node id="-230786" lat="59.5197388902" lon="11.2029305637">
		<tag k="name" v="Smalshuset" />
		<tag k="place" v="farm" />
		<tag k="ssr:date" v="2019-12-27" />
		<tag k="ssr:gruppe" v="gardsbebyggelse" />
		<tag k="ssr:hovedgruppe" v="bebyggelse" />
		<tag k="ssr:stedsnr" v="691108" />
		<tag k="ssr:type" v="bruk" />
	</node>
	<node id="-230785" lat="59.4669583355" lon="11.1287194447">
		<tag k="fixme" v="consider natural=peak for the most distinct mountains in the district" />
		<tag k="name" v="Bergsåsen" />
		<tag k="natural" v="hill" />
		<tag k="place" v="locality" />
		<tag k="ssr:date" v="2019-12-27" />
		<tag k="ssr:gruppe" v="høyder" />
		<tag k="ssr:hovedgruppe" v="terreng" />
		<tag k="ssr:stedsnr" v="690997" />
		<tag k="ssr:type" v="ås" />
	</node>
	<node id="-230784" lat="59.4904522253" lon="11.1038199277">
		<tag k="fixme" v="consider place=hamlet" />
		<tag k="name" v="Strand" />
		<tag k="place" v="farm" />
		<tag k="ssr:date" v="2019-12-27" />
		<tag k="ssr:gruppe" v="gardsbebyggelse" />
		<tag k="ssr:hovedgruppe" v="bebyggelse" />
		<tag k="ssr:stedsnr" v="690986" />
		<tag k="ssr:type" v="gard" />
	</node>
	<node id="-230783" lat="59.4930388896" lon="11.1517361169">
		<tag k="alt_name" v="Tveter vestre" />
		<tag k="name" v="Vestre Tveter" />
		<tag k="place" v="farm" />
		<tag k="ssr:date" v="2019-12-27" />
		<tag k="ssr:gruppe" v="gardsbebyggelse" />
		<tag k="ssr:hovedgruppe" v="bebyggelse" />
		<tag k="ssr:stedsnr" v="690983" />
		<tag k="ssr:type" v="bruk" />
	</node>
	<node id="-230782" lat="59.4584278225" lon="11.1626139272">
		<tag k="alt_name" v="Gullhaugen nordre" />
		<tag k="name" v="Nordre Gullhaugen" />
		<tag k="place" v="farm" />
		<tag k="ssr:date" v="2019-12-27" />
		<tag k="ssr:gruppe" v="gardsbebyggelse" />
		<tag k="ssr:hovedgruppe" v="bebyggelse" />
		<tag k="ssr:stedsnr" v="690977" />
		<tag k="ssr:type" v="bruk" />
	</node>
	<node id="-230781" lat="59.4267805598" lon="11.1450750072">
		<tag k="name" v="Nybråten" />
		<tag k="place" v="farm" />
		<tag k="ssr:date" v="2019-12-27" />
		<tag k="ssr:gruppe" v="gardsbebyggelse" />
		<tag k="ssr:hovedgruppe" v="bebyggelse" />
		<tag k="ssr:stedsnr" v="690971" />
		<tag k="ssr:type" v="bruk" />
	</node>
	<node id="-230780" lat="59.4399861156" lon="11.1476111049">
		<tag k="name" v="Berg" />
		<tag k="place" v="farm" />
		<tag k="ssr:date" v="2019-12-27" />
		<tag k="ssr:gruppe" v="gardsbebyggelse" />
		<tag k="ssr:hovedgruppe" v="bebyggelse" />
		<tag k="ssr:stedsnr" v="690968" />
		<tag k="ssr:type" v="bruk" />
	</node>
	<node id="-230779" lat="59.4552555534" lon="11.0964361179">
		<tag k="name" v="Elgemosen" />
		<tag k="natural" v="wetland" />
		<tag k="ssr:date" v="2019-12-27" />
		<tag k="ssr:gruppe" v="våtmark" />
		<tag k="ssr:hovedgruppe" v="markslag" />
		<tag k="ssr:stedsnr" v="690954" />
		<tag k="ssr:type" v="myr" />
	</node>
	<node id="-230778" lat="59.4500833347" lon="11.1667833328">
		<tag k="name" v="Østereng" />
		<tag k="place" v="farm" />
		<tag k="ssr:date" v="2019-12-27" />
		<tag k="ssr:gruppe" v="gardsbebyggelse" />
		<tag k="ssr:hovedgruppe" v="bebyggelse" />
		<tag k="ssr:stedsnr" v="690952" />
		<tag k="ssr:type" v="bruk" />
	</node>
	<node id="-230777" lat="59.4752999996" lon="11.2069972153">
		<tag k="alt_name" v="Eng mellem;Mellem Eng" />
		<tag k="name" v="Mellom-Eng" />
		<tag k="place" v="farm" />
		<tag k="ssr:date" v="2019-12-27" />
		<tag k="ssr:gruppe" v="gardsbebyggelse" />
		<tag k="ssr:hovedgruppe" v="bebyggelse" />
		<tag k="ssr:stedsnr" v="690602" />
		<tag k="ssr:type" v="bruk" />
	</node>
	<node id="-230776" lat="59.479930559" lon="11.1982555624">
		<tag k="name" v="Fossum (Bekkhus)" />
		<tag k="place" v="farm" />
		<tag k="ssr:date" v="2019-12-27" />
		<tag k="ssr:gruppe" v="gardsbebyggelse" />
		<tag k="ssr:hovedgruppe" v="bebyggelse" />
		<tag k="ssr:stedsnr" v="690598" />
		<tag k="ssr:type" v="bruk" />
	</node>
	<node id="-230775" lat="59.488911115" lon="11.2319861092">
		<tag k="name" v="Solnes" />
		<tag k="place" v="farm" />
		<tag k="ssr:date" v="2019-12-27" />
		<tag k="ssr:gruppe" v="gardsbebyggelse" />
		<tag k="ssr:hovedgruppe" v="bebyggelse" />
		<tag k="ssr:stedsnr" v="690591" />
		<tag k="ssr:type" v="bruk" />
	</node>
	<node id="-230774" lat="59.5385972241" lon="11.1370722295">
		<tag k="name" v="Korsvall" />
		<tag k="place" v="farm" />
		<tag k="ssr:date" v="2019-12-27" />
		<tag k="ssr:gruppe" v="gardsbebyggelse" />
		<tag k="ssr:hovedgruppe" v="bebyggelse" />
		<tag k="ssr:stedsnr" v="689847" />
		<tag k="ssr:type" v="bruk" />
	</node>
	<node id="-230773" lat="59.5405361085" lon="11.1472555468">
		<tag k="name" v="Torberrudbukta" />
		<tag k="natural" v="bay" />
		<tag k="ssr:date" v="2019-12-27" />
		<tag k="ssr:gruppe" v="ferskvannskontur" />
		<tag k="ssr:hovedgruppe" v="ferskvann" />
		<tag k="ssr:stedsnr" v="689845" />
		<tag k="ssr:type" v="vik" />
	</node>
	<node id="-230772" lat="59.5255111133" lon="11.1416583285">
		<tag k="name" v="Øst-Hauger" />
		<tag k="place" v="farm" />
		<tag k="ssr:date" v="2019-12-27" />
		<tag k="ssr:gruppe" v="gardsbebyggelse" />
		<tag k="ssr:hovedgruppe" v="bebyggelse" />
		<tag k="ssr:stedsnr" v="689823" />
		<tag k="ssr:type" v="bruk" />
	</node>
	<node id="-230771" lat="59.5340335688" lon="11.1051727636">
		<tag k="alt_name" v="Karterud øvre" />
		<tag k="fixme" v="consider place=hamlet" />
		<tag k="name" v="Øvre Karterud" />
		<tag k="place" v="farm" />
		<tag k="ssr:date" v="2019-12-27" />
		<tag k="ssr:gruppe" v="gardsbebyggelse" />
		<tag k="ssr:hovedgruppe" v="bebyggelse" />
		<tag k="ssr:stedsnr" v="689778" />
		<tag k="ssr:type" v="gard" />
	</node>
	<node id="-230770" lat="59.4202055539" lon="11.1343777854">
		<tag k="name" v="Berga" />
		<tag k="place" v="hamlet" />
		<tag k="ssr:date" v="2019-12-27" />
		<tag k="ssr:gruppe" v="bebyggelsesområder" />
		<tag k="ssr:hovedgruppe" v="bebyggelse" />
		<tag k="ssr:stedsnr" v="508712" />
		<tag k="ssr:type" v="grend" />
	</node>
	<node id="-230769" lat="59.4573472243" lon="11.1291472208">
		<tag k="name" v="Nyland" />
		<tag k="place" v="farm" />
		<tag k="ssr:date" v="2019-12-27" />
		<tag k="ssr:gruppe" v="gardsbebyggelse" />
		<tag k="ssr:hovedgruppe" v="bebyggelse" />
		<tag k="ssr:stedsnr" v="507944" />
		<tag k="ssr:type" v="bruk" />
	</node>
	<node id="-230768" lat="59.5243555545" lon="11.1201805524">
		<tag k="alt_name" v="Holmerud søndre" />
		<tag k="name" v="Søndre Holmerud" />
		<tag k="place" v="farm" />
		<tag k="ssr:date" v="2019-12-27" />
		<tag k="ssr:gruppe" v="gardsbebyggelse" />
		<tag k="ssr:hovedgruppe" v="bebyggelse" />
		<tag k="ssr:stedsnr" v="507861" />
		<tag k="ssr:type" v="bruk" />
	</node>
	<node id="-230767" lat="59.4718555531" lon="11.2040583386">
		<tag k="alt_name" v="Eng søndre" />
		<tag k="name" v="Søndre Eng" />
		<tag k="place" v="farm" />
		<tag k="ssr:date" v="2019-12-27" />
		<tag k="ssr:gruppe" v="gardsbebyggelse" />
		<tag k="ssr:hovedgruppe" v="bebyggelse" />
		<tag k="ssr:stedsnr" v="507539" />
		<tag k="ssr:type" v="bruk" />
	</node>
	<node id="-230766" lat="59.4225555542" lon="11.1702694527">
		<tag k="name" v="Holen" />
		<tag k="place" v="farm" />
		<tag k="ssr:date" v="2019-12-27" />
		<tag k="ssr:gruppe" v="gardsbebyggelse" />
		<tag k="ssr:hovedgruppe" v="bebyggelse" />
		<tag k="ssr:stedsnr" v="507511" />
		<tag k="ssr:type" v="bruk" />
	</node>
	<node id="-230765" lat="59.4380138914" lon="11.1748749927">
		<tag k="name" v="Iledalen" />
		<tag k="place" v="farm" />
		<tag k="ssr:date" v="2019-12-27" />
		<tag k="ssr:gruppe" v="gardsbebyggelse" />
		<tag k="ssr:hovedgruppe" v="bebyggelse" />
		<tag k="ssr:stedsnr" v="507502" />
		<tag k="ssr:type" v="bruk" />
	</node>
	<node id="-230764" lat="59.4865943082" lon="11.1823770169">
		<tag k="alt_name" v="Tveter" />
		<tag k="name" v="Tveiter" />
		<tag k="place" v="hamlet" />
		<tag k="ssr:date" v="2019-12-27" />
		<tag k="ssr:gruppe" v="gardsbebyggelse" />
		<tag k="ssr:hovedgruppe" v="bebyggelse" />
		<tag k="ssr:stedsnr" v="487032" />
		<tag k="ssr:type" v="navnegard" />
	</node>
	<node id="-230763" lat="59.489250001" lon="11.2305305553">
		<tag k="name" v="Espenes" />
		<tag k="natural" v="cape" />
		<tag k="ssr:date" v="2019-12-27" />
		<tag k="ssr:gruppe" v="ferskvannskontur" />
		<tag k="ssr:hovedgruppe" v="ferskvann" />
		<tag k="ssr:stedsnr" v="487025" />
		<tag k="ssr:type" v="nes" />
	</node>
	<node id="-230762" lat="59.463997221" lon="11.1223416754">
		<tag k="name" v="Berg" />
		<tag k="place" v="isolated_dwelling" />
		<tag k="ssr:date" v="2019-12-27" />
		<tag k="ssr:gruppe" v="bolighus" />
		<tag k="ssr:hovedgruppe" v="bebyggelse" />
		<tag k="ssr:stedsnr" v="487005" />
		<tag k="ssr:type" v="eneboligMindreBoligbygg" />
	</node>
	<node id="-230761" lat="59.5360721271" lon="11.1574474332">
		<tag k="fixme" v="consider place=hamlet" />
		<tag k="name" v="Torberrud" />
		<tag k="place" v="farm" />
		<tag k="ssr:date" v="2019-12-27" />
		<tag k="ssr:gruppe" v="gardsbebyggelse" />
		<tag k="ssr:hovedgruppe" v="bebyggelse" />
		<tag k="ssr:stedsnr" v="671724" />
		<tag k="ssr:type" v="gard" />
	</node>
	<node id="-230760" lat="59.5050333324" lon="11.1301333268">
		<tag k="fixme" v="consider natural=peak for the most distinct mountains in the district" />
		<tag k="name" v="Jonsrudåsen" />
		<tag k="natural" v="hill" />
		<tag k="place" v="locality" />
		<tag k="ssr:date" v="2019-12-27" />
		<tag k="ssr:gruppe" v="høyder" />
		<tag k="ssr:hovedgruppe" v="terreng" />
		<tag k="ssr:stedsnr" v="671715" />
		<tag k="ssr:type" v="ås" />
	</node>
	<node id="-230759" lat="59.5083527814" lon="11.1691527762">
		<tag k="name" v="Aslaksrud" />
		<tag k="place" v="farm" />
		<tag k="ssr:date" v="2019-12-27" />
		<tag k="ssr:gruppe" v="gardsbebyggelse" />
		<tag k="ssr:hovedgruppe" v="bebyggelse" />
		<tag k="ssr:stedsnr" v="671712" />
		<tag k="ssr:type" v="bruk" />
	</node>
	<node id="-230758" lat="59.5035858224" lon="11.2111231451">
		<tag k="name" v="Haugen" />
		<tag k="place" v="hamlet" />
		<tag k="ssr:date" v="2019-12-27" />
		<tag k="ssr:gruppe" v="gardsbebyggelse" />
		<tag k="ssr:hovedgruppe" v="bebyggelse" />
		<tag k="ssr:stedsnr" v="671711" />
		<tag k="ssr:type" v="navnegard" />
	</node>
	<node id="-230757" lat="59.5169499979" lon="11.1094611101">
		<tag k="alt_name" v="Kongsten" />
		<tag k="name" v="Kongstein" />
		<tag k="place" v="farm" />
		<tag k="ssr:date" v="2019-12-27" />
		<tag k="ssr:gruppe" v="gardsbebyggelse" />
		<tag k="ssr:hovedgruppe" v="bebyggelse" />
		<tag k="ssr:stedsnr" v="671698" />
		<tag k="ssr:type" v="bruk" />
	</node>
	<node id="-230756" lat="59.4975277794" lon="11.1362027839">
		<tag k="alt_name" v="Tveterskogen" />
		<tag k="name" v="Tveiterskogen" />
		<tag k="place" v="farm" />
		<tag k="ssr:date" v="2019-12-27" />
		<tag k="ssr:gruppe" v="gardsbebyggelse" />
		<tag k="ssr:hovedgruppe" v="bebyggelse" />
		<tag k="ssr:stedsnr" v="671097" />
		<tag k="ssr:type" v="bruk" />
	</node>
	<node id="-230755" lat="59.4964572579" lon="11.1092942713">
		<tag k="fixme" v="consider place=hamlet" />
		<tag k="name" v="Heistad" />
		<tag k="place" v="farm" />
		<tag k="ssr:date" v="2019-12-27" />
		<tag k="ssr:gruppe" v="gardsbebyggelse" />
		<tag k="ssr:hovedgruppe" v="bebyggelse" />
		<tag k="ssr:stedsnr" v="671096" />
		<tag k="ssr:type" v="gard" />
	</node>
	<node id="-230754" lat="59.5058083335" lon="11.0602222166">
		<tag k="name" v="Skakkebakke" />
		<tag k="place" v="farm" />
		<tag k="ssr:date" v="2019-12-27" />
		<tag k="ssr:gruppe" v="gardsbebyggelse" />
		<tag k="ssr:hovedgruppe" v="bebyggelse" />
		<tag k="ssr:stedsnr" v="671081" />
		<tag k="ssr:type" v="bruk" />
	</node>
	<node id="-230753" lat="59.4810638928" lon="11.2167855296">
		<tag k="alt_name" v="Skau" />
		<tag k="fixme" v="consider place=hamlet" />
		<tag k="name" v="Skog" />
		<tag k="place" v="farm" />
		<tag k="ssr:date" v="2019-12-27" />
		<tag k="ssr:gruppe" v="gardsbebyggelse" />
		<tag k="ssr:hovedgruppe" v="bebyggelse" />
		<tag k="ssr:stedsnr" v="670006" />
		<tag k="ssr:type" v="gard" />
	</node>
	<node id="-230752" lat="59.4895000026" lon="11.141997221">
		<tag k="alt_name" v="Tveter (Leina)" />
		<tag k="name" v="Leina" />
		<tag k="place" v="farm" />
		<tag k="ssr:date" v="2019-12-27" />
		<tag k="ssr:gruppe" v="gardsbebyggelse" />
		<tag k="ssr:hovedgruppe" v="bebyggelse" />
		<tag k="ssr:stedsnr" v="669034" />
		<tag k="ssr:type" v="bruk" />
	</node>
	<node id="-230751" lat="59.4475987955" lon="11.1758805728">
		<tag k="fixme" v="consider place=hamlet" />
		<tag k="name" v="Solberg" />
		<tag k="place" v="farm" />
		<tag k="ssr:date" v="2019-12-27" />
		<tag k="ssr:gruppe" v="gardsbebyggelse" />
		<tag k="ssr:hovedgruppe" v="bebyggelse" />
		<tag k="ssr:stedsnr" v="670240" />
		<tag k="ssr:type" v="gard" />
	</node>
	<node id="-230750" lat="59.4403785408" lon="11.1867027303">
		<tag k="fixme" v="consider place=hamlet" />
		<tag k="name" v="Lystad" />
		<tag k="place" v="farm" />
		<tag k="ssr:date" v="2019-12-27" />
		<tag k="ssr:gruppe" v="gardsbebyggelse" />
		<tag k="ssr:hovedgruppe" v="bebyggelse" />
		<tag k="ssr:stedsnr" v="670208" />
		<tag k="ssr:type" v="gard" />
	</node>
	<node id="-230749" lat="59.4380138031" lon="11.1715382883">
		<tag k="alt_name" v="Vidnes" />
		<tag k="name" v="Vines" />
		<tag k="place" v="hamlet" />
		<tag k="ssr:date" v="2019-12-27" />
		<tag k="ssr:gruppe" v="gardsbebyggelse" />
		<tag k="ssr:hovedgruppe" v="bebyggelse" />
		<tag k="ssr:stedsnr" v="670206" />
		<tag k="ssr:type" v="navnegard" />
	</node>
	<node id="-230748" lat="59.5011194457" lon="11.097902785">
		<tag k="name" v="Kolstad" />
		<tag k="place" v="farm" />
		<tag k="ssr:date" v="2019-12-27" />
		<tag k="ssr:gruppe" v="gardsbebyggelse" />
		<tag k="ssr:hovedgruppe" v="bebyggelse" />
		<tag k="ssr:stedsnr" v="447943" />
		<tag k="ssr:type" v="bruk" />
	</node>
	<node id="-230747" lat="59.4517194472" lon="11.1040166742">
		<tag k="name" v="Hasledalen" />
		<tag k="place" v="locality" />
		<tag k="ssr:date" v="2019-12-27" />
		<tag k="ssr:gruppe" v="gardsbebyggelse" />
		<tag k="ssr:hovedgruppe" v="bebyggelse" />
		<tag k="ssr:stedsnr" v="447940" />
		<tag k="ssr:type" v="eiendom" />
	</node>
	<node id="-230746" lat="59.4586528421" lon="11.1372645989">
		<tag k="alt_name" v="Sperstad søndre" />
		<tag k="name" v="Søndre Sperstad" />
		<tag k="place" v="farm" />
		<tag k="ssr:date" v="2019-12-27" />
		<tag k="ssr:gruppe" v="gardsbebyggelse" />
		<tag k="ssr:hovedgruppe" v="bebyggelse" />
		<tag k="ssr:stedsnr" v="447930" />
		<tag k="ssr:type" v="bruk" />
	</node>
	<node id="-230745" lat="59.445011112" lon="11.1651416682">
		<tag k="name" v="Krossa" />
		<tag k="ssr:date" v="2019-12-27" />
		<tag k="ssr:gruppe" v="rennendeVann" />
		<tag k="ssr:hovedgruppe" v="ferskvann" />
		<tag k="ssr:stedsnr" v="447927" />
		<tag k="ssr:type" v="bekk" />
		<tag k="waterway" v="stream" />
	</node>
	<node id="-230744" lat="59.4766340031" lon="11.1730249745">
		<tag k="alt_name" v="Karlsrud" />
		<tag k="fixme" v="consider place=hamlet" />
		<tag k="name" v="Kalsrud" />
		<tag k="old_name" v="Kartsrud" />
		<tag k="place" v="farm" />
		<tag k="ssr:date" v="2019-12-27" />
		<tag k="ssr:gruppe" v="gardsbebyggelse" />
		<tag k="ssr:hovedgruppe" v="bebyggelse" />
		<tag k="ssr:stedsnr" v="447526" />
		<tag k="ssr:type" v="gard" />
	</node>
	<node id="-230743" lat="59.4807694457" lon="11.2126805576">
		<tag k="name" v="Skausevja" />
		<tag k="ssr:date" v="2019-12-27" />
		<tag k="ssr:gruppe" v="rennendeVann" />
		<tag k="ssr:hovedgruppe" v="ferskvann" />
		<tag k="ssr:stedsnr" v="447522" />
		<tag k="ssr:type" v="elv" />
		<tag k="waterway" v="river" />
	</node>
	<node id="-230742" lat="59.4733416704" lon="11.2104666726">
		<tag k="alt_name" v="Eng søndre" />
		<tag k="name" v="Søndre Eng" />
		<tag k="place" v="farm" />
		<tag k="ssr:date" v="2019-12-27" />
		<tag k="ssr:gruppe" v="gardsbebyggelse" />
		<tag k="ssr:hovedgruppe" v="bebyggelse" />
		<tag k="ssr:stedsnr" v="447516" />
		<tag k="ssr:type" v="bruk" />
	</node>
	<node id="-230741" lat="59.5061022609" lon="11.1000244987">
		<tag k="fixme" v="consider place=hamlet" />
		<tag k="name" v="Kvisler" />
		<tag k="place" v="farm" />
		<tag k="ssr:date" v="2019-12-27" />
		<tag k="ssr:gruppe" v="gardsbebyggelse" />
		<tag k="ssr:hovedgruppe" v="bebyggelse" />
		<tag k="ssr:stedsnr" v="429704" />
		<tag k="ssr:type" v="gard" />
	</node>
	<node id="-230740" lat="59.4754469243" lon="11.1821172484">
		<tag k="alt_name" v="Kassem" />
		<tag k="fixme" v="consider place=hamlet" />
		<tag k="name" v="Kassum" />
		<tag k="place" v="farm" />
		<tag k="ssr:date" v="2019-12-27" />
		<tag k="ssr:gruppe" v="gardsbebyggelse" />
		<tag k="ssr:hovedgruppe" v="bebyggelse" />
		<tag k="ssr:stedsnr" v="427054" />
		<tag k="ssr:type" v="gard" />
	</node>
	<node id="-230739" lat="59.4903317176" lon="11.1959415629">
		<tag k="fixme" v="consider place=hamlet" />
		<tag k="name" v="Frorud" />
		<tag k="place" v="farm" />
		<tag k="ssr:date" v="2019-12-27" />
		<tag k="ssr:gruppe" v="gardsbebyggelse" />
		<tag k="ssr:hovedgruppe" v="bebyggelse" />
		<tag k="ssr:stedsnr" v="427044" />
		<tag k="ssr:type" v="gard" />
	</node>
	<node id="-230738" lat="59.4916750019" lon="11.1198250039">
		<tag k="name" v="Heistad" />
		<tag k="place" v="farm" />
		<tag k="ssr:date" v="2019-12-27" />
		<tag k="ssr:gruppe" v="gardsbebyggelse" />
		<tag k="ssr:hovedgruppe" v="bebyggelse" />
		<tag k="ssr:stedsnr" v="427040" />
		<tag k="ssr:type" v="bruk" />
	</node>
	<node id="-230737" lat="59.4753083344" lon="11.1618833291">
		<tag k="name" v="Holstad" />
		<tag k="place" v="farm" />
		<tag k="ssr:date" v="2019-12-27" />
		<tag k="ssr:gruppe" v="gardsbebyggelse" />
		<tag k="ssr:hovedgruppe" v="bebyggelse" />
		<tag k="ssr:stedsnr" v="427027" />
		<tag k="ssr:type" v="bruk" />
	</node>
	<node id="-230736" lat="59.4726277792" lon="11.1622972283">
		<tag k="name" v="Finland" />
		<tag k="place" v="farm" />
		<tag k="ssr:date" v="2019-12-27" />
		<tag k="ssr:gruppe" v="gardsbebyggelse" />
		<tag k="ssr:hovedgruppe" v="bebyggelse" />
		<tag k="ssr:stedsnr" v="427025" />
		<tag k="ssr:type" v="bruk" />
	</node>
	<node id="-230735" lat="59.4433055549" lon="11.1540194431">
		<tag k="name" v="Berg" />
		<tag k="place" v="farm" />
		<tag k="ssr:date" v="2019-12-27" />
		<tag k="ssr:gruppe" v="gardsbebyggelse" />
		<tag k="ssr:hovedgruppe" v="bebyggelse" />
		<tag k="ssr:stedsnr" v="508977" />
		<tag k="ssr:type" v="bruk" />
	</node>
	<node id="-230734" lat="59.5066666657" lon="11.1011666625">
		<tag k="alt_name" v="Kvisler nordre" />
		<tag k="name" v="Nordre Kvisler" />
		<tag k="place" v="farm" />
		<tag k="ssr:date" v="2019-12-27" />
		<tag k="ssr:gruppe" v="gardsbebyggelse" />
		<tag k="ssr:hovedgruppe" v="bebyggelse" />
		<tag k="ssr:stedsnr" v="508969" />
		<tag k="ssr:type" v="bruk" />
	</node>
	<node id="-230733" lat="59.4583944407" lon="11.1314416726">
		<tag k="name" v="Haugsbråten" />
		<tag k="place" v="farm" />
		<tag k="ssr:date" v="2019-12-27" />
		<tag k="ssr:gruppe" v="gardsbebyggelse" />
		<tag k="ssr:hovedgruppe" v="bebyggelse" />
		<tag k="ssr:stedsnr" v="508950" />
		<tag k="ssr:type" v="bruk" />
	</node>
	<node id="-230732" lat="59.5222694483" lon="11.1795111184">
		<tag k="name" v="Narvestad" />
		<tag k="place" v="farm" />
		<tag k="ssr:date" v="2019-12-27" />
		<tag k="ssr:gruppe" v="gardsbebyggelse" />
		<tag k="ssr:hovedgruppe" v="bebyggelse" />
		<tag k="ssr:stedsnr" v="509079" />
		<tag k="ssr:type" v="bruk" />
	</node>
	<node id="-230731" lat="59.5150472242" lon="11.2068666754">
		<tag k="name" v="Sundåshagen" />
		<tag k="place" v="farm" />
		<tag k="ssr:date" v="2019-12-27" />
		<tag k="ssr:gruppe" v="gardsbebyggelse" />
		<tag k="ssr:hovedgruppe" v="bebyggelse" />
		<tag k="ssr:stedsnr" v="509074" />
		<tag k="ssr:type" v="bruk" />
	</node>
	<node id="-230730" lat="59.5022083329" lon="11.1536027712">
		<tag k="name" v="Gluppe" />
		<tag k="place" v="farm" />
		<tag k="ssr:date" v="2019-12-27" />
		<tag k="ssr:gruppe" v="gardsbebyggelse" />
		<tag k="ssr:hovedgruppe" v="bebyggelse" />
		<tag k="ssr:stedsnr" v="507991" />
		<tag k="ssr:type" v="bruk" />
	</node>
	<node id="-230729" lat="59.4845999957" lon="11.1052555579">
		<tag k="junction" v="yes" />
		<tag k="name" v="Dyrbekksvingen" />
		<tag k="place" v="locality" />
		<tag k="ssr:date" v="2019-12-27" />
		<tag k="ssr:gruppe" v="veg" />
		<tag k="ssr:hovedgruppe" v="infrastruktur" />
		<tag k="ssr:stedsnr" v="507985" />
		<tag k="ssr:type" v="vegkryss" />
	</node>
	<node id="-230728" lat="59.4821916636" lon="11.0728444484">
		<tag k="name" v="Tretjernsmosen" />
		<tag k="natural" v="wetland" />
		<tag k="ssr:date" v="2019-12-27" />
		<tag k="ssr:gruppe" v="våtmark" />
		<tag k="ssr:hovedgruppe" v="markslag" />
		<tag k="ssr:stedsnr" v="507977" />
		<tag k="ssr:type" v="myr" />
	</node>
	<node id="-230727" lat="59.4934805571" lon="11.0858083294">
		<tag k="name" v="Holm" />
		<tag k="place" v="farm" />
		<tag k="ssr:date" v="2019-12-27" />
		<tag k="ssr:gruppe" v="gardsbebyggelse" />
		<tag k="ssr:hovedgruppe" v="bebyggelse" />
		<tag k="ssr:stedsnr" v="507955" />
		<tag k="ssr:type" v="bruk" />
	</node>
	<node id="-230726" lat="59.529591663" lon="11.1215194431">
		<tag k="alt_name" v="Smertu søndre" />
		<tag k="name" v="Søndre Smertu" />
		<tag k="place" v="farm" />
		<tag k="ssr:date" v="2019-12-27" />
		<tag k="ssr:gruppe" v="gardsbebyggelse" />
		<tag k="ssr:hovedgruppe" v="bebyggelse" />
		<tag k="ssr:stedsnr" v="507869" />
		<tag k="ssr:type" v="bruk" />
	</node>
	<node id="-230725" lat="59.4818055562" lon="11.2051166579">
		<tag k="name" v="Sandaker" />
		<tag k="place" v="farm" />
		<tag k="ssr:date" v="2019-12-27" />
		<tag k="ssr:gruppe" v="gardsbebyggelse" />
		<tag k="ssr:hovedgruppe" v="bebyggelse" />
		<tag k="ssr:stedsnr" v="507554" />
		<tag k="ssr:type" v="bruk" />
	</node>
	<node id="-230724" lat="59.4877527806" lon="11.1944138908">
		<tag k="name" v="Bilit" />
		<tag k="place" v="farm" />
		<tag k="ssr:date" v="2019-12-27" />
		<tag k="ssr:gruppe" v="gardsbebyggelse" />
		<tag k="ssr:hovedgruppe" v="bebyggelse" />
		<tag k="ssr:stedsnr" v="507487" />
		<tag k="ssr:type" v="bruk" />
	</node>
	<node id="-230723" lat="59.4997994888" lon="11.2015622005">
		<tag k="fixme" v="consider place=hamlet" />
		<tag k="name" v="Rød" />
		<tag k="place" v="farm" />
		<tag k="ssr:date" v="2019-12-27" />
		<tag k="ssr:gruppe" v="gardsbebyggelse" />
		<tag k="ssr:hovedgruppe" v="bebyggelse" />
		<tag k="ssr:stedsnr" v="507480" />
		<tag k="ssr:type" v="gard" />
	</node>
	<node id="-230722" lat="59.5356361098" lon="11.1746972182">
		<tag k="name" v="Trosvik" />
		<tag k="place" v="farm" />
		<tag k="ssr:date" v="2019-12-27" />
		<tag k="ssr:gruppe" v="gardsbebyggelse" />
		<tag k="ssr:hovedgruppe" v="bebyggelse" />
		<tag k="ssr:stedsnr" v="387116" />
		<tag k="ssr:type" v="bruk" />
	</node>
	<node id="-230721" lat="59.510911115" lon="11.1931833372">
		<tag k="name" v="Ski" />
		<tag k="place" v="farm" />
		<tag k="ssr:date" v="2019-12-27" />
		<tag k="ssr:gruppe" v="gardsbebyggelse" />
		<tag k="ssr:hovedgruppe" v="bebyggelse" />
		<tag k="ssr:stedsnr" v="387105" />
		<tag k="ssr:type" v="bruk" />
	</node>
	<node id="-230720" lat="59.4407166702" lon="11.1400611126">
		<tag k="name" v="Husengen" />
		<tag k="place" v="farm" />
		<tag k="ssr:date" v="2019-12-27" />
		<tag k="ssr:gruppe" v="gardsbebyggelse" />
		<tag k="ssr:hovedgruppe" v="bebyggelse" />
		<tag k="ssr:stedsnr" v="386964" />
		<tag k="ssr:type" v="bruk" />
	</node>
	<node id="-230719" lat="59.5152333312" lon="11.08408611">
		<tag k="name" v="Øvre Skurvemosen" />
		<tag k="natural" v="wetland" />
		<tag k="ssr:date" v="2019-12-27" />
		<tag k="ssr:gruppe" v="våtmark" />
		<tag k="ssr:hovedgruppe" v="markslag" />
		<tag k="ssr:stedsnr" v="386856" />
		<tag k="ssr:type" v="myr" />
	</node>
	<node id="-230718" lat="59.4766361082" lon="11.1895111062">
		<tag k="name" v="Kleven" />
		<tag k="place" v="farm" />
		<tag k="ssr:date" v="2019-12-27" />
		<tag k="ssr:gruppe" v="gardsbebyggelse" />
		<tag k="ssr:hovedgruppe" v="bebyggelse" />
		<tag k="ssr:stedsnr" v="386529" />
		<tag k="ssr:type" v="bruk" />
	</node>
	<node id="-230717" lat="59.5196555567" lon="11.1246750026">
		<tag k="name" v="Duserud" />
		<tag k="place" v="farm" />
		<tag k="ssr:date" v="2019-12-27" />
		<tag k="ssr:gruppe" v="gardsbebyggelse" />
		<tag k="ssr:hovedgruppe" v="bebyggelse" />
		<tag k="ssr:stedsnr" v="489761" />
		<tag k="ssr:type" v="bruk" />
	</node>
	<node id="-230716" lat="59.5185248836" lon="11.1330866202">
		<tag k="alt_name" v="Taraldsrud" />
		<tag k="fixme" v="consider place=hamlet" />
		<tag k="name" v="Taraldrud" />
		<tag k="place" v="farm" />
		<tag k="ssr:date" v="2019-12-27" />
		<tag k="ssr:gruppe" v="gardsbebyggelse" />
		<tag k="ssr:hovedgruppe" v="bebyggelse" />
		<tag k="ssr:stedsnr" v="489727" />
		<tag k="ssr:type" v="gard" />
	</node>
	<node id="-230715" lat="59.5436216645" lon="11.1308936183">
		<tag k="fixme" v="consider place=hamlet" />
		<tag k="name" v="Holm" />
		<tag k="place" v="farm" />
		<tag k="ssr:date" v="2019-12-27" />
		<tag k="ssr:gruppe" v="gardsbebyggelse" />
		<tag k="ssr:hovedgruppe" v="bebyggelse" />
		<tag k="ssr:stedsnr" v="489534" />
		<tag k="ssr:type" v="gard" />
	</node>
	<node id="-230714" lat="59.4447595944" lon="11.1564111345">
		<tag k="name" v="Berg" />
		<tag k="place" v="hamlet" />
		<tag k="ssr:date" v="2019-12-27" />
		<tag k="ssr:gruppe" v="gardsbebyggelse" />
		<tag k="ssr:hovedgruppe" v="bebyggelse" />
		<tag k="ssr:stedsnr" v="488170" />
		<tag k="ssr:type" v="navnegard" />
	</node>
	<node id="-230713" lat="59.4459499957" lon="11.1222388863">
		<tag k="name" v="Gjerstad" />
		<tag k="place" v="farm" />
		<tag k="ssr:date" v="2019-12-27" />
		<tag k="ssr:gruppe" v="gardsbebyggelse" />
		<tag k="ssr:hovedgruppe" v="bebyggelse" />
		<tag k="ssr:stedsnr" v="488159" />
		<tag k="ssr:type" v="bruk" />
	</node>
	<node id="-230712" lat="59.4764805554" lon="11.2013666676">
		<tag k="alt_name" v="Eng vestre" />
		<tag k="name" v="Vestereng" />
		<tag k="place" v="farm" />
		<tag k="ssr:date" v="2019-12-27" />
		<tag k="ssr:gruppe" v="gardsbebyggelse" />
		<tag k="ssr:hovedgruppe" v="bebyggelse" />
		<tag k="ssr:stedsnr" v="488058" />
		<tag k="ssr:type" v="bruk" />
	</node>
	<node id="-230711" lat="59.4836750014" lon="11.1292750017">
		<tag k="alt_name" v="Haughytta" />
		<tag k="name" v="Haug" />
		<tag k="place" v="farm" />
		<tag k="ssr:date" v="2019-12-27" />
		<tag k="ssr:gruppe" v="gardsbebyggelse" />
		<tag k="ssr:hovedgruppe" v="bebyggelse" />
		<tag k="ssr:stedsnr" v="488056" />
		<tag k="ssr:type" v="bruk" />
	</node>
	<node id="-230710" lat="59.4831555517" lon="11.1045249993">
		<tag k="name" v="Dyrbekk" />
		<tag k="place" v="farm" />
		<tag k="ssr:date" v="2019-12-27" />
		<tag k="ssr:gruppe" v="gardsbebyggelse" />
		<tag k="ssr:hovedgruppe" v="bebyggelse" />
		<tag k="ssr:stedsnr" v="488055" />
		<tag k="ssr:type" v="bruk" />
	</node>
	<node id="-230709" lat="59.4572499995" lon="11.1532305554">
		<tag k="alt_name" v="Åby (Bjunerhytta)" />
		<tag k="name" v="Åby" />
		<tag k="place" v="farm" />
		<tag k="ssr:date" v="2019-12-27" />
		<tag k="ssr:gruppe" v="gardsbebyggelse" />
		<tag k="ssr:hovedgruppe" v="bebyggelse" />
		<tag k="ssr:stedsnr" v="487223" />
		<tag k="ssr:type" v="bruk" />
	</node>
	<node id="-230708" lat="59.5359194487" lon="11.176075008">
		<tag k="name" v="Snerten" />
		<tag k="place" v="locality" />
		<tag k="ssr:date" v="2019-12-27" />
		<tag k="ssr:gruppe" v="kulturminner" />
		<tag k="ssr:hovedgruppe" v="kultur" />
		<tag k="ssr:stedsnr" v="327105" />
		<tag k="ssr:type" v="annenKulturdetalj" />
	</node>
	<node id="-230707" lat="59.4189972203" lon="11.1580777743">
		<tag k="loc_name" v="Kjernsbekk" />
		<tag k="name" v="Tjernsbekk" />
		<tag k="place" v="farm" />
		<tag k="ssr:date" v="2019-12-27" />
		<tag k="ssr:gruppe" v="gardsbebyggelse" />
		<tag k="ssr:hovedgruppe" v="bebyggelse" />
		<tag k="ssr:stedsnr" v="326718" />
		<tag k="ssr:type" v="bruk" />
	</node>
	<node id="-230706" lat="59.5196055552" lon="11.1544666601">
		<tag k="alt_name" v="Vister vestre" />
		<tag k="name" v="Vestre Vister" />
		<tag k="place" v="farm" />
		<tag k="ssr:date" v="2019-12-27" />
		<tag k="ssr:gruppe" v="gardsbebyggelse" />
		<tag k="ssr:hovedgruppe" v="bebyggelse" />
		<tag k="ssr:stedsnr" v="325834" />
		<tag k="ssr:type" v="bruk" />
	</node>
	<node id="-230705" lat="59.5141583332" lon="11.11549723">
		<tag k="alt_name" v="Myrer øvre" />
		<tag k="name" v="Øvre Myrer" />
		<tag k="place" v="farm" />
		<tag k="ssr:date" v="2019-12-27" />
		<tag k="ssr:gruppe" v="gardsbebyggelse" />
		<tag k="ssr:hovedgruppe" v="bebyggelse" />
		<tag k="ssr:stedsnr" v="325822" />
		<tag k="ssr:type" v="bruk" />
	</node>
	<node id="-230704" lat="59.5396583296" lon="11.1769361162">
		<tag k="name" v="Kullebunn" />
		<tag k="place" v="farm" />
		<tag k="ssr:date" v="2019-12-27" />
		<tag k="ssr:gruppe" v="gardsbebyggelse" />
		<tag k="ssr:hovedgruppe" v="bebyggelse" />
		<tag k="ssr:stedsnr" v="449085" />
		<tag k="ssr:type" v="bruk" />
	</node>
	<node id="-230703" lat="59.4460250016" lon="11.1749416719">
		<tag k="name" v="Lystadbråten" />
		<tag k="place" v="farm" />
		<tag k="ssr:date" v="2019-12-27" />
		<tag k="ssr:gruppe" v="gardsbebyggelse" />
		<tag k="ssr:hovedgruppe" v="bebyggelse" />
		<tag k="ssr:stedsnr" v="447984" />
		<tag k="ssr:type" v="bruk" />
	</node>
	<node id="-230702" lat="59.4247249983" lon="11.1764500038">
		<tag k="name" v="Kastet" />
		<tag k="place" v="farm" />
		<tag k="ssr:date" v="2019-12-27" />
		<tag k="ssr:gruppe" v="gardsbebyggelse" />
		<tag k="ssr:hovedgruppe" v="bebyggelse" />
		<tag k="ssr:stedsnr" v="245165" />
		<tag k="ssr:type" v="bruk" />
	</node>
	<node id="-230701" lat="59.4841833322" lon="11.1018444445">
		<tag k="name" v="Krosspøl" />
		<tag k="natural" v="water" />
		<tag k="ssr:date" v="2019-12-27" />
		<tag k="ssr:gruppe" v="rennendeVann" />
		<tag k="ssr:hovedgruppe" v="ferskvann" />
		<tag k="ssr:stedsnr" v="447967" />
		<tag k="ssr:type" v="lon" />
		<tag k="water" v="lake" />
	</node>
	<node id="-230700" lat="59.4677000015" lon="11.1744749941">
		<tag k="amenity" v="place_of_worship" />
		<tag k="denomination" v="lutheran" />
		<tag k="name" v="Skiptvet kirke" />
		<tag k="religion" v="christian" />
		<tag k="ssr:date" v="2019-12-27" />
		<tag k="ssr:gruppe" v="kulturinstitusjoner" />
		<tag k="ssr:hovedgruppe" v="kultur" />
		<tag k="ssr:stedsnr" v="245024" />
		<tag k="ssr:type" v="kirke" />
	</node>
	<node id="-230699" lat="59.5340999971" lon="11.1392805584">
		<tag k="alt_name" v="Langli søndre" />
		<tag k="name" v="Søndre Langli" />
		<tag k="place" v="farm" />
		<tag k="ssr:date" v="2019-12-27" />
		<tag k="ssr:gruppe" v="gardsbebyggelse" />
		<tag k="ssr:hovedgruppe" v="bebyggelse" />
		<tag k="ssr:stedsnr" v="447846" />
		<tag k="ssr:type" v="bruk" />
	</node>
	<node id="-230698" lat="59.5133388929" lon="11.1361555537">
		<tag k="name" v="Bakke" />
		<tag k="place" v="farm" />
		<tag k="ssr:date" v="2019-12-27" />
		<tag k="ssr:gruppe" v="gardsbebyggelse" />
		<tag k="ssr:hovedgruppe" v="bebyggelse" />
		<tag k="ssr:stedsnr" v="447832" />
		<tag k="ssr:type" v="bruk" />
	</node>
	<node id="-230697" lat="59.4426944421" lon="11.1951638966">
		<tag k="name" v="Bråtenes" />
		<tag k="place" v="farm" />
		<tag k="ssr:date" v="2019-12-27" />
		<tag k="ssr:gruppe" v="gardsbebyggelse" />
		<tag k="ssr:hovedgruppe" v="bebyggelse" />
		<tag k="ssr:stedsnr" v="447491" />
		<tag k="ssr:type" v="bruk" />
	</node>
	<node id="-230696" lat="59.4974166693" lon="11.1955527783">
		<tag k="name" v="Solvang" />
		<tag k="place" v="farm" />
		<tag k="ssr:date" v="2019-12-27" />
		<tag k="ssr:gruppe" v="gardsbebyggelse" />
		<tag k="ssr:hovedgruppe" v="bebyggelse" />
		<tag k="ssr:stedsnr" v="447482" />
		<tag k="ssr:type" v="bruk" />
	</node>
	<node id="-230695" lat="59.4719058805" lon="11.1421821595">
		<tag k="fixme" v="consider place=hamlet" />
		<tag k="name" v="Toen" />
		<tag k="place" v="farm" />
		<tag k="ssr:date" v="2019-12-27" />
		<tag k="ssr:gruppe" v="gardsbebyggelse" />
		<tag k="ssr:hovedgruppe" v="bebyggelse" />
		<tag k="ssr:stedsnr" v="184019" />
		<tag k="ssr:type" v="gard" />
	</node>
	<node id="-230694" lat="59.4807972259" lon="11.1525305488">
		<tag k="alt_name" v="Skjelle søndre" />
		<tag k="name" v="Søndre Skjelle" />
		<tag k="place" v="farm" />
		<tag k="ssr:date" v="2019-12-27" />
		<tag k="ssr:gruppe" v="gardsbebyggelse" />
		<tag k="ssr:hovedgruppe" v="bebyggelse" />
		<tag k="ssr:stedsnr" v="265996" />
		<tag k="ssr:type" v="bruk" />
	</node>
	<node id="-230693" lat="59.4608333316" lon="11.183166674">
		<tag k="name" v="Hønstvet" />
		<tag k="place" v="farm" />
		<tag k="ssr:date" v="2019-12-27" />
		<tag k="ssr:gruppe" v="gardsbebyggelse" />
		<tag k="ssr:hovedgruppe" v="bebyggelse" />
		<tag k="ssr:stedsnr" v="265994" />
		<tag k="ssr:type" v="bruk" />
	</node>
	<node id="-230692" lat="59.4502555524" lon="11.1851694422">
		<tag k="name" v="Bråteneshytta" />
		<tag k="place" v="farm" />
		<tag k="ssr:date" v="2019-12-27" />
		<tag k="ssr:gruppe" v="gardsbebyggelse" />
		<tag k="ssr:hovedgruppe" v="bebyggelse" />
		<tag k="ssr:stedsnr" v="265987" />
		<tag k="ssr:type" v="bruk" />
	</node>
	<node id="-230691" lat="59.5057444462" lon="11.1264499923">
		<tag k="name" v="Runnemyr" />
		<tag k="place" v="locality" />
		<tag k="ssr:date" v="2019-12-27" />
		<tag k="ssr:gruppe" v="gardsbebyggelse" />
		<tag k="ssr:hovedgruppe" v="bebyggelse" />
		<tag k="ssr:stedsnr" v="265980" />
		<tag k="ssr:type" v="eiendom" />
	</node>
	<node id="-230690" lat="59.4844972192" lon="11.0895583386">
		<tag k="name" v="Lundsbekken" />
		<tag k="ssr:date" v="2019-12-27" />
		<tag k="ssr:gruppe" v="rennendeVann" />
		<tag k="ssr:hovedgruppe" v="ferskvann" />
		<tag k="ssr:stedsnr" v="265974" />
		<tag k="ssr:type" v="bekk" />
		<tag k="waterway" v="stream" />
	</node>
	<node id="-230689" lat="59.4842305569" lon="11.1165305578">
		<tag k="alt_name" v="Målen østre" />
		<tag k="name" v="Østre Målen" />
		<tag k="place" v="farm" />
		<tag k="ssr:date" v="2019-12-27" />
		<tag k="ssr:gruppe" v="gardsbebyggelse" />
		<tag k="ssr:hovedgruppe" v="bebyggelse" />
		<tag k="ssr:stedsnr" v="265973" />
		<tag k="ssr:type" v="bruk" />
	</node>
	<node id="-230688" lat="59.4415194463" lon="11.1649138825">
		<tag k="name" v="Nord-Vidnes" />
		<tag k="place" v="farm" />
		<tag k="ssr:date" v="2019-12-27" />
		<tag k="ssr:gruppe" v="gardsbebyggelse" />
		<tag k="ssr:hovedgruppe" v="bebyggelse" />
		<tag k="ssr:stedsnr" v="265968" />
		<tag k="ssr:type" v="bruk" />
	</node>
	<node id="-230687" lat="59.4957833328" lon="11.1090944375">
		<tag k="alt_name" v="Heistad søndre" />
		<tag k="name" v="Søndre Heistad" />
		<tag k="place" v="farm" />
		<tag k="ssr:date" v="2019-12-27" />
		<tag k="ssr:gruppe" v="gardsbebyggelse" />
		<tag k="ssr:hovedgruppe" v="bebyggelse" />
		<tag k="ssr:stedsnr" v="265962" />
		<tag k="ssr:type" v="bruk" />
	</node>
	<node id="-230686" lat="59.4476972222" lon="11.154830548">
		<tag k="name" v="Åmotspølen" />
		<tag k="natural" v="water" />
		<tag k="ssr:date" v="2019-12-27" />
		<tag k="ssr:gruppe" v="stilleståendeVann" />
		<tag k="ssr:hovedgruppe" v="ferskvann" />
		<tag k="ssr:stedsnr" v="265935" />
		<tag k="ssr:type" v="tjern" />
	</node>
	<node id="-230685" lat="59.4020333306" lon="11.1670416636">
		<tag k="name" v="Skår" />
		<tag k="place" v="farm" />
		<tag k="ssr:date" v="2019-12-27" />
		<tag k="ssr:gruppe" v="gardsbebyggelse" />
		<tag k="ssr:hovedgruppe" v="bebyggelse" />
		<tag k="ssr:stedsnr" v="265742" />
		<tag k="ssr:type" v="bruk" />
	</node>
	<node id="-230684" lat="59.4739361134" lon="11.2015083333">
		<tag k="name" v="Engsaga" />
		<tag k="place" v="farm" />
		<tag k="ssr:date" v="2019-12-27" />
		<tag k="ssr:gruppe" v="gardsbebyggelse" />
		<tag k="ssr:hovedgruppe" v="bebyggelse" />
		<tag k="ssr:stedsnr" v="265572" />
		<tag k="ssr:type" v="bruk" />
	</node>
	<node id="-230683" lat="59.4741444425" lon="11.2211888934">
		<tag k="name" v="Skaustangen" />
		<tag k="natural" v="cape" />
		<tag k="ssr:date" v="2019-12-27" />
		<tag k="ssr:gruppe" v="ferskvannskontur" />
		<tag k="ssr:hovedgruppe" v="ferskvann" />
		<tag k="ssr:stedsnr" v="265568" />
		<tag k="ssr:type" v="nes" />
	</node>
	<node id="-230682" lat="59.4988361148" lon="11.2234583289">
		<tag k="name" v="Langnes" />
		<tag k="place" v="farm" />
		<tag k="ssr:date" v="2019-12-27" />
		<tag k="ssr:gruppe" v="gardsbebyggelse" />
		<tag k="ssr:hovedgruppe" v="bebyggelse" />
		<tag k="ssr:stedsnr" v="265523" />
		<tag k="ssr:type" v="bruk" />
	</node>
	<node id="-230681" lat="59.5409694487" lon="11.1335500036">
		<tag k="alt_name" v="Svae nordre" />
		<tag k="name" v="Nordre Svae" />
		<tag k="place" v="farm" />
		<tag k="ssr:date" v="2019-12-27" />
		<tag k="ssr:gruppe" v="gardsbebyggelse" />
		<tag k="ssr:hovedgruppe" v="bebyggelse" />
		<tag k="ssr:stedsnr" v="264866" />
		<tag k="ssr:type" v="bruk" />
	</node>
	<node id="-230680" lat="59.5200138852" lon="11.0870833406">
		<tag k="name" v="Jyllandhytta" />
		<tag k="place" v="isolated_dwelling" />
		<tag k="ssr:date" v="2019-12-27" />
		<tag k="ssr:gruppe" v="bolighus" />
		<tag k="ssr:hovedgruppe" v="bebyggelse" />
		<tag k="ssr:stedsnr" v="264860" />
		<tag k="ssr:type" v="fritidsbolig" />
	</node>
	<node id="-230679" lat="59.5165583359" lon="11.0831527699">
		<tag k="name" v="Nedre Skurvemosen" />
		<tag k="natural" v="wetland" />
		<tag k="ssr:date" v="2019-12-27" />
		<tag k="ssr:gruppe" v="våtmark" />
		<tag k="ssr:hovedgruppe" v="markslag" />
		<tag k="ssr:stedsnr" v="264852" />
		<tag k="ssr:type" v="myr" />
	</node>
	<node id="-230678" lat="59.5169583326" lon="11.1676055624">
		<tag k="alt_name" v="Vister østre" />
		<tag k="name" v="Østre Vister" />
		<tag k="place" v="farm" />
		<tag k="ssr:date" v="2019-12-27" />
		<tag k="ssr:gruppe" v="gardsbebyggelse" />
		<tag k="ssr:hovedgruppe" v="bebyggelse" />
		<tag k="ssr:stedsnr" v="264845" />
		<tag k="ssr:type" v="bruk" />
	</node>
	<node id="-230677" lat="59.4530027777" lon="11.1309749985">
		<tag k="name" v="Skauge" />
		<tag k="place" v="farm" />
		<tag k="ssr:date" v="2019-12-27" />
		<tag k="ssr:gruppe" v="gardsbebyggelse" />
		<tag k="ssr:hovedgruppe" v="bebyggelse" />
		<tag k="ssr:stedsnr" v="123266" />
		<tag k="ssr:type" v="bruk" />
	</node>
	<node id="-230676" lat="59.4539249958" lon="11.159586107">
		<tag k="alt_name" v="Åmot nordre" />
		<tag k="name" v="Nordre Åmot" />
		<tag k="place" v="farm" />
		<tag k="ssr:date" v="2019-12-27" />
		<tag k="ssr:gruppe" v="gardsbebyggelse" />
		<tag k="ssr:hovedgruppe" v="bebyggelse" />
		<tag k="ssr:stedsnr" v="123264" />
		<tag k="ssr:type" v="bruk" />
	</node>
	<node id="-230675" lat="59.5182138912" lon="11.2098666739">
		<tag k="name" v="Høgåstangen" />
		<tag k="place" v="farm" />
		<tag k="ssr:date" v="2019-12-27" />
		<tag k="ssr:gruppe" v="gardsbebyggelse" />
		<tag k="ssr:hovedgruppe" v="bebyggelse" />
		<tag k="ssr:stedsnr" v="84111" />
		<tag k="ssr:type" v="bruk" />
	</node>
	<node id="-230674" lat="59.4816166677" lon="11.0954416623">
		<tag k="name" v="Lunder" />
		<tag k="place" v="farm" />
		<tag k="ssr:date" v="2019-12-27" />
		<tag k="ssr:gruppe" v="gardsbebyggelse" />
		<tag k="ssr:hovedgruppe" v="bebyggelse" />
		<tag k="ssr:stedsnr" v="83974" />
		<tag k="ssr:type" v="bruk" />
	</node>
	<node id="-230673" lat="59.5074833309" lon="11.0946944395">
		<tag k="name" v="Kauterud" />
		<tag k="place" v="farm" />
		<tag k="ssr:date" v="2019-12-27" />
		<tag k="ssr:gruppe" v="gardsbebyggelse" />
		<tag k="ssr:hovedgruppe" v="bebyggelse" />
		<tag k="ssr:stedsnr" v="83956" />
		<tag k="ssr:type" v="bruk" />
	</node>
	<node id="-230672" lat="59.502611114" lon="11.0715749984">
		<tag k="fixme" v="consider natural=peak for the most distinct mountains in the district" />
		<tag k="name" v="Grautefjell" />
		<tag k="natural" v="hill" />
		<tag k="place" v="locality" />
		<tag k="ssr:date" v="2019-12-27" />
		<tag k="ssr:gruppe" v="høyder" />
		<tag k="ssr:hovedgruppe" v="terreng" />
		<tag k="ssr:stedsnr" v="83953" />
		<tag k="ssr:type" v="ås" />
	</node>
	<node id="-230671" lat="59.404927776" lon="11.1748777783">
		<tag k="name" v="Glenne" />
		<tag k="place" v="farm" />
		<tag k="ssr:date" v="2019-12-27" />
		<tag k="ssr:gruppe" v="gardsbebyggelse" />
		<tag k="ssr:hovedgruppe" v="bebyggelse" />
		<tag k="ssr:stedsnr" v="83722" />
		<tag k="ssr:type" v="bruk" />
	</node>
	<node id="-230670" lat="59.5185444442" lon="11.1673333406">
		<tag k="name" v="Øst-Vister" />
		<tag k="place" v="farm" />
		<tag k="ssr:date" v="2019-12-27" />
		<tag k="ssr:gruppe" v="gardsbebyggelse" />
		<tag k="ssr:hovedgruppe" v="bebyggelse" />
		<tag k="ssr:stedsnr" v="82856" />
		<tag k="ssr:type" v="bruk" />
	</node>
	<node id="-230669" lat="59.5189258873" lon="11.1967599674">
		<tag k="fixme" v="consider place=hamlet" />
		<tag k="name" v="Børud" />
		<tag k="place" v="farm" />
		<tag k="ssr:date" v="2019-12-27" />
		<tag k="ssr:gruppe" v="gardsbebyggelse" />
		<tag k="ssr:hovedgruppe" v="bebyggelse" />
		<tag k="ssr:stedsnr" v="247734" />
		<tag k="ssr:type" v="gard" />
	</node>
	<node id="-230668" lat="59.5014694468" lon="11.164349997">
		<tag k="name" v="Roås" />
		<tag k="place" v="farm" />
		<tag k="ssr:date" v="2019-12-27" />
		<tag k="ssr:gruppe" v="gardsbebyggelse" />
		<tag k="ssr:hovedgruppe" v="bebyggelse" />
		<tag k="ssr:stedsnr" v="247694" />
		<tag k="ssr:type" v="bruk" />
	</node>
	<node id="-230667" lat="59.5074000004" lon="11.1607694385">
		<tag k="alt_name" v="Åsrud" />
		<tag k="name" v="Åserud" />
		<tag k="place" v="farm" />
		<tag k="ssr:date" v="2019-12-27" />
		<tag k="ssr:gruppe" v="gardsbebyggelse" />
		<tag k="ssr:hovedgruppe" v="bebyggelse" />
		<tag k="ssr:stedsnr" v="247692" />
		<tag k="ssr:type" v="bruk" />
	</node>
	<node id="-230666" lat="59.5015767772" lon="11.1708492588">
		<tag k="fixme" v="consider place=hamlet" />
		<tag k="name" v="Aslaksrud" />
		<tag k="place" v="farm" />
		<tag k="ssr:date" v="2019-12-27" />
		<tag k="ssr:gruppe" v="gardsbebyggelse" />
		<tag k="ssr:hovedgruppe" v="bebyggelse" />
		<tag k="ssr:stedsnr" v="247691" />
		<tag k="ssr:type" v="gard" />
	</node>
	<node id="-230665" lat="59.5225333371" lon="11.106166663">
		<tag k="fixme" v="consider natural=peak for the most distinct mountains in the district" />
		<tag k="name" v="Jutulåsen" />
		<tag k="natural" v="hill" />
		<tag k="place" v="locality" />
		<tag k="ssr:date" v="2019-12-27" />
		<tag k="ssr:gruppe" v="høyder" />
		<tag k="ssr:hovedgruppe" v="terreng" />
		<tag k="ssr:stedsnr" v="246711" />
		<tag k="ssr:type" v="ås" />
	</node>
	<node id="-230664" lat="59.4674222219" lon="11.0832305547">
		<tag k="alt_name" v="Trestikletjern" />
		<tag k="name" v="Trestriklet" />
		<tag k="natural" v="water" />
		<tag k="ssr:date" v="2019-12-27" />
		<tag k="ssr:gruppe" v="stilleståendeVann" />
		<tag k="ssr:hovedgruppe" v="ferskvann" />
		<tag k="ssr:stedsnr" v="245697" />
		<tag k="ssr:type" v="tjern" />
	</node>
	<node id="-230663" lat="59.5131515311" lon="11.1288451499">
		<tag k="fixme" v="consider place=hamlet" />
		<tag k="name" v="Jonsrud" />
		<tag k="place" v="farm" />
		<tag k="ssr:date" v="2019-12-27" />
		<tag k="ssr:gruppe" v="gardsbebyggelse" />
		<tag k="ssr:hovedgruppe" v="bebyggelse" />
		<tag k="ssr:stedsnr" v="65709" />
		<tag k="ssr:type" v="gard" />
	</node>
	<node id="-230662" lat="59.5446527757" lon="11.1420111027">
		<tag k="name" v="Vammasjøen" />
		<tag k="natural" v="water" />
		<tag k="ssr:date" v="2019-12-27" />
		<tag k="ssr:gruppe" v="rennendeVann" />
		<tag k="ssr:hovedgruppe" v="ferskvann" />
		<tag k="ssr:stedsnr" v="64506" />
		<tag k="ssr:type" v="lon" />
		<tag k="water" v="lake" />
	</node>
	<node id="-230661" lat="59.5422444424" lon="11.1703777791">
		<tag k="alt_name" v="Vamma kraftstasjon" />
		<tag k="landuse" v="industrial" />
		<tag k="name" v="Vamma" />
		<tag k="power" v="plant" />
		<tag k="ssr:date" v="2019-12-27" />
		<tag k="ssr:gruppe" v="energi" />
		<tag k="ssr:hovedgruppe" v="infrastruktur" />
		<tag k="ssr:stedsnr" v="64504" />
		<tag k="ssr:type" v="kraftstasjon" />
	</node>
	<node id="-230660" lat="59.5000361156" lon="11.204624996">
		<tag k="bridge" v="yes" />
		<tag k="layer" v="1" />
		<tag k="name" v="Rød" />
		<tag k="ssr:date" v="2019-12-27" />
		<tag k="ssr:gruppe" v="samferdselsanlegg" />
		<tag k="ssr:hovedgruppe" v="infrastruktur" />
		<tag k="ssr:stedsnr" v="46523" />
		<tag k="ssr:type" v="bru" />
	</node>
	<node id="-230659" lat="59.4511594373" lon="11.1299351477">
		<tag k="fixme" v="consider place=hamlet" />
		<tag k="name" v="Gjerstad" />
		<tag k="place" v="farm" />
		<tag k="ssr:date" v="2019-12-27" />
		<tag k="ssr:gruppe" v="gardsbebyggelse" />
		<tag k="ssr:hovedgruppe" v="bebyggelse" />
		<tag k="ssr:stedsnr" v="22940" />
		<tag k="ssr:type" v="gard" />
	</node>
	<node id="-230658" lat="59.4609333296" lon="11.0956999967">
		<tag k="name" v="Gråbeinstykket" />
		<tag k="place" v="locality" />
		<tag k="ssr:date" v="2019-12-27" />
		<tag k="ssr:gruppe" v="dyrkamark" />
		<tag k="ssr:hovedgruppe" v="markslag" />
		<tag k="ssr:stedsnr" v="22928" />
		<tag k="ssr:type" v="utmark" />
	</node>
	<node id="-230657" lat="59.4650861103" lon="11.1127444392">
		<tag k="name" v="Bogen" />
		<tag k="place" v="isolated_dwelling" />
		<tag k="ssr:date" v="2019-12-27" />
		<tag k="ssr:gruppe" v="bolighus" />
		<tag k="ssr:hovedgruppe" v="bebyggelse" />
		<tag k="ssr:stedsnr" v="22927" />
		<tag k="ssr:type" v="eneboligMindreBoligbygg" />
	</node>
	<node id="-230656" lat="59.429005554" lon="11.1764694495">
		<tag k="name" v="Gulliktangen" />
		<tag k="place" v="farm" />
		<tag k="ssr:date" v="2019-12-27" />
		<tag k="ssr:gruppe" v="gardsbebyggelse" />
		<tag k="ssr:hovedgruppe" v="bebyggelse" />
		<tag k="ssr:stedsnr" v="22518" />
		<tag k="ssr:type" v="bruk" />
	</node>
	<node id="-230655" lat="59.4387305581" lon="11.1801749928">
		<tag k="name" v="Vidnesåa" />
		<tag k="ssr:date" v="2019-12-27" />
		<tag k="ssr:gruppe" v="rennendeVann" />
		<tag k="ssr:hovedgruppe" v="ferskvann" />
		<tag k="ssr:stedsnr" v="22509" />
		<tag k="ssr:type" v="elv" />
		<tag k="waterway" v="river" />
	</node>
	<node id="-230654" lat="59.4420333325" lon="11.1905805468">
		<tag k="name" v="Bråtnesbukta" />
		<tag k="natural" v="bay" />
		<tag k="ssr:date" v="2019-12-27" />
		<tag k="ssr:gruppe" v="ferskvannskontur" />
		<tag k="ssr:hovedgruppe" v="ferskvann" />
		<tag k="ssr:stedsnr" v="22506" />
		<tag k="ssr:type" v="vik" />
	</node>
	<node id="-230653" lat="59.4427888864" lon="11.1877499916">
		<tag k="name" v="Bråtenes" />
		<tag k="place" v="locality" />
		<tag k="ssr:date" v="2019-12-27" />
		<tag k="ssr:gruppe" v="gardsbebyggelse" />
		<tag k="ssr:hovedgruppe" v="bebyggelse" />
		<tag k="ssr:stedsnr" v="22503" />
		<tag k="ssr:type" v="eiendom" />
	</node>
	<node id="-230652" lat="59.4938732283" lon="11.2313925792">
		<tag k="fixme" v="consider place=hamlet" />
		<tag k="name" v="Nes" />
		<tag k="place" v="farm" />
		<tag k="ssr:date" v="2019-12-27" />
		<tag k="ssr:gruppe" v="gardsbebyggelse" />
		<tag k="ssr:hovedgruppe" v="bebyggelse" />
		<tag k="ssr:stedsnr" v="9814" />
		<tag k="ssr:type" v="gard" />
	</node>
	<node id="-230651" lat="59.4625896369" lon="11.1650902526">
		<tag k="fixme" v="consider place=hamlet" />
		<tag k="name" v="Hol" />
		<tag k="place" v="farm" />
		<tag k="ssr:date" v="2019-12-27" />
		<tag k="ssr:gruppe" v="gardsbebyggelse" />
		<tag k="ssr:hovedgruppe" v="bebyggelse" />
		<tag k="ssr:stedsnr" v="2219" />
		<tag k="ssr:type" v="gard" />
	</node>
	<node id="-230650" lat="59.423516664" lon="11.155916661">
		<tag k="loc_name" v="Kjernsbekk" />
		<tag k="name" v="Tjernsbekk" />
		<tag k="place" v="farm" />
		<tag k="ssr:date" v="2019-12-27" />
		<tag k="ssr:gruppe" v="gardsbebyggelse" />
		<tag k="ssr:hovedgruppe" v="bebyggelse" />
		<tag k="ssr:stedsnr" v="2178" />
		<tag k="ssr:type" v="bruk" />
	</node>
	<node id="-230649" lat="59.4211000015" lon="11.1551972309">
		<tag k="alt_name" v="Tjernsbekktjern" />
		<tag k="name" v="Tjernsbekktjernet" />
		<tag k="natural" v="water" />
		<tag k="ssr:date" v="2019-12-27" />
		<tag k="ssr:gruppe" v="stilleståendeVann" />
		<tag k="ssr:hovedgruppe" v="ferskvann" />
		<tag k="ssr:stedsnr" v="2176" />
		<tag k="ssr:type" v="tjern" />
	</node>
</osm>
