<?xml version="1.0" encoding="UTF-8"?>
<osm version="0.6" generator="osmapis">
	<node id="452644153" lat="60.1499475" lon="11.6545721" version="5" timestamp="2022-02-01T16:51:09Z" changeset="116876628" uid="3497659" user="NKA">
		<tag k="junction" v="yes" />
		<tag k="name" v="Åkroken" />
		<tag k="ssr:stedsnr" v="602230" />
	</node>
	<node id="3700906105" lat="60.118261" lon="11.7818807" version="4" timestamp="2022-02-01T16:51:09Z" changeset="116876628" uid="3497659" user="NKA">
		<tag k="junction" v="yes" />
		<tag k="name" v="Youngstorvet" />
		<tag k="ssr:stedsnr" v="891721" />
	</node>
	<node id="3703194806" lat="60.1098366" lon="11.7640287" version="4" timestamp="2022-02-01T16:51:09Z" changeset="116876628" uid="3497659" user="NKA">
		<tag k="junction" v="yes" />
		<tag k="name" v="Delmyra" />
		<tag k="ssr:stedsnr" v="587731" />
	</node>
	<node id="3712398566" lat="60.0893578" lon="11.7791682" version="3" timestamp="2022-01-31T06:16:31Z" changeset="116806593" uid="3497659" user="NKA">
		<tag k="junction" v="yes" />
		<tag k="name" v="Oterbekksvingen" />
		<tag k="ssr:stedsnr" v="161684" />
	</node>
	<node id="4175711887" lat="60.3544499" lon="11.7226766" version="4" timestamp="2022-02-01T16:51:09Z" changeset="116876628" uid="3497659" user="NKA">
		<tag k="junction" v="yes" />
		<tag k="name" v="Trekanten" />
		<tag k="ssr:stedsnr" v="421212" />
	</node>
	<node id="5244352476" lat="60.3112131" lon="11.7974444" version="3" timestamp="2022-02-01T16:51:09Z" changeset="116876628" uid="3497659" user="NKA">
		<tag k="junction" v="yes" />
		<tag k="name" v="Nordsætersvingen" />
		<tag k="ssr:stedsnr" v="965456" />
	</node>
</osm>
