<?xml version="1.0" encoding="UTF-8"?>
<osm version="0.6" generator="osmapis">
	<node lat="60.96034844451996" lon="4.9972264914598234" id="-32443">
		<tag k="name" v="Kjeøyna" />
		<tag k="place" v="islet" />
		<tag k="ssr:stedsnr" v="7298" />
	</node>
	<node lat="60.95746666388132" lon="4.892694443495609" id="-32444">
		<tag k="name" v="Griggusøyna" />
		<tag k="place" v="islet" />
		<tag k="ssr:stedsnr" v="7306" />
	</node>
	<node lat="60.96058889078961" lon="4.836630563993796" id="-32445">
		<tag k="alt_name" v="Einebærholmen, in" />
		<tag k="name" v="Indre Einebærholmen" />
		<tag k="place" v="islet" />
		<tag k="ssr:stedsnr" v="7309" />
	</node>
	<node lat="60.95910000309285" lon="4.7912444500267615" id="-32446">
		<tag k="alt_name" v="Ramsbarden, søre" />
		<tag k="name" v="Søre Ramsbarden" />
		<tag k="place" v="islet" />
		<tag k="ssr:stedsnr" v="7317" />
	</node>
	<node lat="60.98073032293255" lon="4.822808910678224" id="-32447">
		<tag k="fixme" v="consider place=hamlet" />
		<tag k="name" v="Hille" />
		<tag k="place" v="farm" />
		<tag k="ssr:stedsnr" v="7350" />
	</node>
	<node lat="60.98631389315436" lon="4.818475006138485" id="-32448">
		<tag k="name" v="Geitøyna" />
		<tag k="place" v="islet" />
		<tag k="ssr:stedsnr" v="7358" />
	</node>
	<node lat="60.99787499937175" lon="4.982049993369518" id="-32449">
		<tag k="fixme" v="consider natural=peak for the most distinct mountains in the district" />
		<tag k="name" v="Ramnefjellet" />
		<tag k="natural" v="hill" />
		<tag k="place" v="locality" />
		<tag k="ssr:stedsnr" v="7366" />
	</node>
	<node lat="60.980219447484046" lon="5.187533338030999" id="-32450">
		<tag k="building" v="industrial" />
		<tag k="industrial" v="factory" />
		<tag k="name" v="Hønseri" />
		<tag k="ssr:stedsnr" v="8146" />
	</node>
	<node lat="60.985774585910704" lon="5.178923217450468" id="-32451">
		<tag k="alt_name" v="Tresvika" />
		<tag k="name" v="Trædsvika" />
		<tag k="natural" v="bay" />
		<tag k="ssr:stedsnr" v="8147" />
	</node>
	<node lat="60.99281666476322" lon="5.355991667474673" id="-32452">
		<tag k="alt_name" v="Austdalen, vetle;Austdalen" />
		<tag k="name" v="Vetle Austdalen" />
		<tag k="natural" v="valley" />
		<tag k="place" v="locality" />
		<tag k="ssr:stedsnr" v="8150" />
	</node>
	<node lat="60.89400555246046" lon="4.876013886241035" id="-32453">
		<tag k="name" v="Risvågen" />
		<tag k="natural" v="bay" />
		<tag k="ssr:stedsnr" v="8472" />
	</node>
	<node lat="60.93861389094097" lon="5.207716663909836" id="-32454">
		<tag k="fixme" v="consider natural=peak for the most distinct mountains in the district" />
		<tag k="name" v="Dalsfjellet" />
		<tag k="natural" v="hill" />
		<tag k="place" v="locality" />
		<tag k="ssr:stedsnr" v="8843" />
	</node>
	<node lat="60.94412500327602" lon="5.183591659336986" id="-32455">
		<tag k="alt_name" v="Norddal, l" />
		<tag k="name" v="Litle Norddal" />
		<tag k="place" v="farm" />
		<tag k="ssr:stedsnr" v="8849" />
	</node>
	<node lat="60.99098888945092" lon="5.544430548466886" id="-32456">
		<tag k="name" v="Betnene" />
		<tag k="ssr:stedsnr" v="8771" />
		<tag k="waterway" v="stream" />
	</node>
	<node lat="60.98241388766796" lon="5.262044450268461" id="-32457">
		<tag k="name" v="Bjørndalen" />
		<tag k="natural" v="valley" />
		<tag k="place" v="locality" />
		<tag k="ssr:stedsnr" v="8789" />
	</node>
	<node lat="60.97712264274519" lon="5.283500535128285" id="-32458">
		<tag k="alt_name" v="Kløvtveit" />
		<tag k="fixme" v="consider place=hamlet" />
		<tag k="name" v="Klyvtveita" />
		<tag k="place" v="farm" />
		<tag k="ssr:stedsnr" v="8791" />
	</node>
	<node lat="60.92138611158685" lon="5.165025002893965" id="-32459">
		<tag k="fixme" v="consider natural=peak for the most distinct mountains in the district" />
		<tag k="name" v="Nonkletten" />
		<tag k="natural" v="hill" />
		<tag k="place" v="locality" />
		<tag k="ssr:stedsnr" v="8908" />
	</node>
	<node lat="60.90013888869194" lon="5.16163888001292" id="-32460">
		<tag k="fixme" v="consider natural=peak for the most distinct mountains in the district" />
		<tag k="name" v="Høgelia" />
		<tag k="natural" v="hill" />
		<tag k="place" v="locality" />
		<tag k="ssr:stedsnr" v="8910" />
	</node>
	<node lat="60.94259166596681" lon="5.541130557061998" id="-32461">
		<tag k="name" v="Kringledalen" />
		<tag k="natural" v="valley" />
		<tag k="place" v="locality" />
		<tag k="ssr:stedsnr" v="9237" />
	</node>
	<node lat="61.06144000196105" lon="5.0615354687844345" id="-32462">
		<tag k="fixme" v="consider place=hamlet" />
		<tag k="name" v="Risa" />
		<tag k="place" v="farm" />
		<tag k="ssr:stedsnr" v="9238" />
	</node>
	<node lat="60.9906166674162" lon="5.102413895494807" id="-32463">
		<tag k="alt_name" v="Midtunelva" />
		<tag k="name" v="Midttunelva" />
		<tag k="ssr:stedsnr" v="9142" />
		<tag k="waterway" v="stream" />
	</node>
	<node lat="61.012130553773204" lon="5.028863884497211" id="-32464">
		<tag k="name" v="Holten" />
		<tag k="natural" v="cape" />
		<tag k="ssr:stedsnr" v="9413" />
	</node>
	<node lat="61.04001110871294" lon="5.123499993389942" id="-32465">
		<tag k="alt_name" v="Tjørndalsgjelet" />
		<tag k="name" v="Tjørndalsgilet" />
		<tag k="natural" v="valley" />
		<tag k="place" v="locality" />
		<tag k="ssr:stedsnr" v="9611" />
	</node>
	<node lat="61.051313888911125" lon="5.2731694483798845" id="-32466">
		<tag k="name" v="Kroktjørna" />
		<tag k="natural" v="water" />
		<tag k="ssr:stedsnr" v="9615" />
	</node>
	<node lat="61.02016666973583" lon="5.038011106643974" id="-32467">
		<tag k="alt_name" v="Vågane, nordre" />
		<tag k="name" v="Nordre Vågane" />
		<tag k="natural" v="bay" />
		<tag k="ssr:stedsnr" v="9395" />
	</node>
	<node lat="61.01330833272207" lon="5.03493888718343" id="-32468">
		<tag k="name" v="Tjuvvika" />
		<tag k="natural" v="bay" />
		<tag k="ssr:stedsnr" v="9397" />
	</node>
	<node lat="60.92394444590859" lon="4.994683334467381" id="-32469">
		<tag k="name" v="Lifjellvatnet" />
		<tag k="natural" v="water" />
		<tag k="ssr:stedsnr" v="9504" />
	</node>
	<node lat="61.0449527795991" lon="5.099722223450922" id="-32470">
		<tag k="name" v="Eikedalselva" />
		<tag k="ssr:stedsnr" v="9593" />
		<tag k="waterway" v="stream" />
	</node>
	<node lat="61.05488611440932" lon="5.235127773530169" id="-32471">
		<tag k="alt_name" v="Ytreelva;Ytterelvi" />
		<tag k="name" v="Ytrelva" />
		<tag k="ssr:stedsnr" v="9594" />
		<tag k="waterway" v="stream" />
	</node>
	<node lat="61.059652777950106" lon="5.188863889779832" id="-32472">
		<tag k="name" v="Gravdalen" />
		<tag k="natural" v="valley" />
		<tag k="place" v="locality" />
		<tag k="ssr:stedsnr" v="9599" />
	</node>
	<node lat="60.947285624713615" lon="5.150878520520721" id="-32473">
		<tag k="fixme" v="consider place=hamlet" />
		<tag k="name" v="Omdal" />
		<tag k="place" v="farm" />
		<tag k="ssr:stedsnr" v="9816" />
	</node>
	<node lat="61.02200010656156" lon="5.187697363454744" id="-32474">
		<tag k="alt_name" v="Nordgulvatnet, søre;Søre Nordgulvatnet" />
		<tag k="name" v="Synste Nordgulvatnet" />
		<tag k="natural" v="water" />
		<tag k="ssr:stedsnr" v="9888" />
	</node>
	<node lat="60.96076944773388" lon="5.323338885373144" id="-32475">
		<tag k="fixme" v="consider natural=peak for the most distinct mountains in the district" />
		<tag k="name" v="Tverrhammaren" />
		<tag k="natural" v="hill" />
		<tag k="place" v="locality" />
		<tag k="ssr:stedsnr" v="9786" />
	</node>
	<node lat="60.966069442279746" lon="5.326202776072672" id="-32476">
		<tag k="fixme" v="consider natural=peak for the most distinct mountains in the district" />
		<tag k="name" v="Vetlefjellet" />
		<tag k="natural" v="hill" />
		<tag k="place" v="locality" />
		<tag k="ssr:stedsnr" v="9787" />
	</node>
	<node lat="61.000658330402956" lon="5.384747228694954" id="-32477">
		<tag k="alt_name" v="Myrstølknulten" />
		<tag k="name" v="Myrstølsknulten" />
		<tag k="natural" v="hill" />
		<tag k="place" v="locality" />
		<tag k="ssr:stedsnr" v="9902" />
	</node>
	<node lat="61.01522499628488" lon="5.234313890447568" id="-32478">
		<tag k="name" v="Dundalen" />
		<tag k="natural" v="valley" />
		<tag k="place" v="locality" />
		<tag k="ssr:stedsnr" v="9913" />
	</node>
	<node lat="60.85720833771708" lon="5.05910277955767" id="-32479">
		<tag k="name" v="Nordre Sløvågholmen" />
		<tag k="place" v="islet" />
		<tag k="ssr:stedsnr" v="24048" />
	</node>
	<node lat="60.9027527788085" lon="4.962005547264904" id="-32480">
		<tag k="name" v="Kalveneset" />
		<tag k="natural" v="cape" />
		<tag k="ssr:stedsnr" v="25001" />
	</node>
	<node lat="60.947602781699906" lon="4.8711083356051885" id="-32481">
		<tag k="name" v="Skorpeholmane" />
		<tag k="place" v="islet" />
		<tag k="ssr:stedsnr" v="25077" />
	</node>
	<node lat="60.99717222294012" lon="5.00933610983336" id="-32482">
		<tag k="name" v="Nyhammarneset" />
		<tag k="natural" v="cape" />
		<tag k="ssr:stedsnr" v="25207" />
	</node>
	<node lat="60.89510555826466" lon="4.917452772284512" id="-32483">
		<tag k="name" v="Rekeneset" />
		<tag k="natural" v="cape" />
		<tag k="ssr:stedsnr" v="25406" />
	</node>
	<node lat="60.883538891398246" lon="4.850419446850666" id="-32484">
		<tag k="name" v="Skårholmen" />
		<tag k="place" v="islet" />
		<tag k="ssr:stedsnr" v="25410" />
	</node>
	<node lat="60.8591861154533" lon="4.921766670545111" id="-32485">
		<tag k="name" v="Gråvika" />
		<tag k="natural" v="bay" />
		<tag k="ssr:stedsnr" v="25412" />
	</node>
	<node lat="60.88298055258284" lon="4.94725278707188" id="-32486">
		<tag k="name" v="Monsholmsundet" />
		<tag k="natural" v="strait" />
		<tag k="ssr:stedsnr" v="30080" />
	</node>
	<node lat="60.967841670092746" lon="5.111111117311314" id="-32487">
		<tag k="name" v="Tobbevika" />
		<tag k="natural" v="bay" />
		<tag k="ssr:stedsnr" v="30710" />
	</node>
	<node lat="60.98484722523107" lon="5.034327771020083" id="-32488">
		<tag k="name" v="Bytingsneset" />
		<tag k="natural" v="cape" />
		<tag k="ssr:stedsnr" v="30765" />
	</node>
	<node lat="60.97529999719942" lon="5.017180556677029" id="-32489">
		<tag k="name" v="Djuvika" />
		<tag k="natural" v="bay" />
		<tag k="ssr:stedsnr" v="30769" />
	</node>
	<node lat="60.976649998891865" lon="5.011872225032075" id="-32490">
		<tag k="name" v="Dukane" />
		<tag k="place" v="locality" />
		<tag k="ssr:stedsnr" v="30771" />
	</node>
	<node lat="60.98058889191484" lon="5.000161112340704" id="-32491">
		<tag k="name" v="Florsdalen" />
		<tag k="natural" v="valley" />
		<tag k="place" v="locality" />
		<tag k="ssr:stedsnr" v="30773" />
	</node>
	<node lat="60.98045832908823" lon="5.12392777401528" id="-32492">
		<tag k="name" v="Knultane" />
		<tag k="natural" v="hill" />
		<tag k="place" v="locality" />
		<tag k="ssr:stedsnr" v="30804" />
	</node>
	<node lat="60.941694444712084" lon="5.151163894807529" id="-32493">
		<tag k="name" v="Gunnhildtonen" />
		<tag k="natural" v="hill" />
		<tag k="place" v="locality" />
		<tag k="ssr:stedsnr" v="30817" />
	</node>
	<node lat="61.02473333084021" lon="5.43866944520453" id="-32494">
		<tag k="name" v="Sebøknulten" />
		<tag k="natural" v="cape" />
		<tag k="ssr:stedsnr" v="30966" />
	</node>
	<node lat="60.886761115599114" lon="4.8867861118698555" id="-32495">
		<tag k="name" v="Skrinet" />
		<tag k="place" v="locality" />
		<tag k="ssr:stedsnr" v="34421" />
	</node>
	<node lat="60.83593888676493" lon="5.082402777033607" id="-32496">
		<tag k="name" v="Båneset" />
		<tag k="natural" v="cape" />
		<tag k="ssr:stedsnr" v="35013" />
	</node>
	<node lat="60.83096237296929" lon="5.13303617924881" id="-32497">
		<tag k="name" v="Steinsholmen" />
		<tag k="place" v="islet" />
		<tag k="ssr:stedsnr" v="35236" />
	</node>
	<node lat="60.94879166478147" lon="4.807133332445371" id="-32498">
		<tag k="fixme" v="consider seamark:type=rock or natural=shoal" />
		<tag k="name" v="Kjerring-skjeret" />
		<tag k="place" v="islet" />
		<tag k="ssr:stedsnr" v="35101" />
	</node>
	<node lat="61.08427500069682" lon="5.166947219325845" id="-32499">
		<tag k="name" v="Vereholmen" />
		<tag k="place" v="islet" />
		<tag k="ssr:stedsnr" v="35114" />
	</node>
	<node lat="60.84452221911813" lon="5.1183194498806985" id="-32500">
		<tag k="name" v="Skoghaugen" />
		<tag k="natural" v="hill" />
		<tag k="place" v="locality" />
		<tag k="ssr:stedsnr" v="35170" />
	</node>
	<node lat="61.054213892006466" lon="5.100674990411347" id="-32501">
		<tag k="name" v="Årdalen" />
		<tag k="natural" v="valley" />
		<tag k="place" v="locality" />
		<tag k="ssr:stedsnr" v="35305" />
	</node>
	<node lat="61.012122221382434" lon="5.135552781124718" id="-32502">
		<tag k="name" v="Nordre Brekkene" />
		<tag k="natural" v="slope" />
		<tag k="place" v="locality" />
		<tag k="ssr:stedsnr" v="35605" />
	</node>
	<node lat="61.00167222160837" lon="5.1351527727680315" id="-32503">
		<tag k="name" v="Solimyrane" />
		<tag k="natural" v="wetland" />
		<tag k="ssr:stedsnr" v="35622" />
	</node>
	<node lat="60.89575231403516" lon="4.802342470827265" id="-32504">
		<tag k="fixme" v="consider seamark:type=rock or natural=shoal" />
		<tag k="name" v="Flateskjeret" />
		<tag k="place" v="islet" />
		<tag k="ssr:stedsnr" v="35706" />
	</node>
	<node lat="60.88432777982897" lon="5.067172223397232" id="-32505">
		<tag k="fixme" v="consider natural=peak for the most distinct mountains in the district" />
		<tag k="name" v="Store Baståsen" />
		<tag k="natural" v="hill" />
		<tag k="place" v="locality" />
		<tag k="ssr:stedsnr" v="35764" />
	</node>
	<node lat="60.9095305512346" lon="5.077266661889305" id="-32506">
		<tag k="name" v="Skarpeneset" />
		<tag k="natural" v="cape" />
		<tag k="ssr:stedsnr" v="35920" />
	</node>
	<node lat="61.0324249971188" lon="5.186049996936607" id="-32507">
		<tag k="name" v="Illeskornova" />
		<tag k="natural" v="hill" />
		<tag k="place" v="locality" />
		<tag k="ssr:stedsnr" v="35922" />
	</node>
	<node lat="61.03269999670702" lon="5.191130547871541" id="-32508">
		<tag k="name" v="Dalsbakken" />
		<tag k="natural" v="slope" />
		<tag k="place" v="locality" />
		<tag k="ssr:stedsnr" v="35923" />
	</node>
	<node lat="60.9050861145234" lon="5.053738879995914" id="-32509">
		<tag k="name" v="Hellrehaugen" />
		<tag k="natural" v="hill" />
		<tag k="place" v="locality" />
		<tag k="ssr:stedsnr" v="35804" />
	</node>
	<node lat="60.89254166828286" lon="5.051499999678397" id="-32510">
		<tag k="name" v="Kleiveelva" />
		<tag k="ssr:stedsnr" v="35811" />
		<tag k="waterway" v="stream" />
	</node>
	<node lat="61.05884167029015" lon="5.189455549928604" id="-32511">
		<tag k="name" v="Gravdalsbrekka" />
		<tag k="natural" v="slope" />
		<tag k="place" v="locality" />
		<tag k="ssr:stedsnr" v="35817" />
	</node>
	<node lat="61.06815277970816" lon="5.1829222184981285" id="-32512">
		<tag k="name" v="Utgjerdet" />
		<tag k="place" v="locality" />
		<tag k="ssr:stedsnr" v="35822" />
	</node>
	<node lat="60.99148611449985" lon="5.445650003040925" id="-32513">
		<tag k="fixme" v="consider natural=peak for the most distinct mountains in the district" />
		<tag k="name" v="Knulten" />
		<tag k="natural" v="hill" />
		<tag k="place" v="locality" />
		<tag k="ssr:stedsnr" v="36002" />
	</node>
	<node lat="61.01239722361623" lon="5.3516555534352" id="-32514">
		<tag k="name" v="Bjørnelia" />
		<tag k="natural" v="slope" />
		<tag k="place" v="locality" />
		<tag k="ssr:stedsnr" v="36171" />
	</node>
	<node lat="61.0004111110256" lon="5.345544445869737" id="-32515">
		<tag k="name" v="Ospehaugen" />
		<tag k="natural" v="hill" />
		<tag k="place" v="locality" />
		<tag k="ssr:stedsnr" v="36173" />
	</node>
	<node lat="60.99791944406286" lon="5.356152769973141" id="-32516">
		<tag k="name" v="Sørlia" />
		<tag k="natural" v="slope" />
		<tag k="place" v="locality" />
		<tag k="ssr:stedsnr" v="36174" />
	</node>
	<node lat="60.91368333729154" lon="5.145930555199828" id="-32517">
		<tag k="name" v="Helleren" />
		<tag k="natural" v="hill" />
		<tag k="place" v="locality" />
		<tag k="ssr:stedsnr" v="36310" />
	</node>
	<node lat="61.022252774558645" lon="5.297188884674406" id="-32518">
		<tag k="name" v="Selskorlia" />
		<tag k="natural" v="slope" />
		<tag k="place" v="locality" />
		<tag k="ssr:stedsnr" v="36323" />
	</node>
	<node lat="60.96163610693781" lon="5.427725009375139" id="-32519">
		<tag k="name" v="Bjørkehaugen" />
		<tag k="natural" v="hill" />
		<tag k="place" v="locality" />
		<tag k="ssr:stedsnr" v="36067" />
	</node>
	<node lat="61.00083055387225" lon="5.326608334820333" id="-32520">
		<tag k="fixme" v="consider natural=peak for the most distinct mountains in the district" />
		<tag k="name" v="Bjørnefjellet" />
		<tag k="natural" v="hill" />
		<tag k="place" v="locality" />
		<tag k="ssr:stedsnr" v="36215" />
	</node>
	<node lat="60.93286944177215" lon="5.188966674789286" id="-32521">
		<tag k="name" v="Purkevasselva" />
		<tag k="ssr:stedsnr" v="36218" />
		<tag k="waterway" v="stream" />
	</node>
	<node lat="60.984011115576415" lon="5.292077785695537" id="-32522">
		<tag k="name" v="Skjerneset" />
		<tag k="natural" v="cape" />
		<tag k="ssr:stedsnr" v="36260" />
	</node>
	<node lat="60.98483333704871" lon="5.33242499757007" id="-32523">
		<tag k="name" v="Daurmunddalen" />
		<tag k="natural" v="valley" />
		<tag k="place" v="locality" />
		<tag k="ssr:stedsnr" v="36269" />
	</node>
	<node lat="60.98836666813953" lon="5.231447222101833" id="-32524">
		<tag k="name" v="Tangane" />
		<tag k="place" v="locality" />
		<tag k="ssr:stedsnr" v="36409" />
	</node>
	<node lat="61.04129722381633" lon="5.297272226632502" id="-32525">
		<tag k="name" v="Gangstiglia" />
		<tag k="natural" v="slope" />
		<tag k="place" v="locality" />
		<tag k="ssr:stedsnr" v="36414" />
	</node>
	<node lat="60.92106666981411" lon="5.197177773386918" id="-32526">
		<tag k="name" v="Gygra" />
		<tag k="natural" v="valley" />
		<tag k="place" v="locality" />
		<tag k="ssr:stedsnr" v="36515" />
	</node>
	<node lat="61.06326389134893" lon="5.230447227792406" id="-32527">
		<tag k="name" v="Timbermyrane" />
		<tag k="natural" v="wetland" />
		<tag k="ssr:stedsnr" v="36561" />
	</node>
	<node lat="61.05942777587542" lon="5.237455553990478" id="-32528">
		<tag k="name" v="Hatleskogen" />
		<tag k="place" v="locality" />
		<tag k="ssr:stedsnr" v="36572" />
	</node>
	<node lat="61.00288055897181" lon="5.586149995217291" id="-32529">
		<tag k="name" v="Styggegjelet Sør" />
		<tag k="natural" v="valley" />
		<tag k="place" v="locality" />
		<tag k="ssr:stedsnr" v="36574" />
	</node>
	<node lat="61.011099997202635" lon="5.575583329663661" id="-32530">
		<tag k="name" v="Fossane" />
		<tag k="natural" v="waterfall" />
		<tag k="ssr:stedsnr" v="36708" />
	</node>
	<node lat="60.95553611290035" lon="5.478213892064852" id="-32531">
		<tag k="name" v="Smedsdalselva" />
		<tag k="ssr:stedsnr" v="36716" />
		<tag k="waterway" v="stream" />
	</node>
	<node lat="60.94332499627592" lon="5.19486389543061" id="-32532">
		<tag k="name" v="Hevebotnen" />
		<tag k="natural" v="valley" />
		<tag k="place" v="locality" />
		<tag k="ssr:stedsnr" v="36459" />
	</node>
	<node lat="60.91530277663603" lon="5.040811105197815" id="-32533">
		<tag k="fixme" v="consider natural=peak for the most distinct mountains in the district" />
		<tag k="name" v="Storefjellet" />
		<tag k="natural" v="hill" />
		<tag k="place" v="locality" />
		<tag k="ssr:stedsnr" v="36471" />
	</node>
	<node lat="60.926963889496086" lon="5.166833333217868" id="-32534">
		<tag k="name" v="Kollhaugen" />
		<tag k="natural" v="hill" />
		<tag k="place" v="locality" />
		<tag k="ssr:stedsnr" v="36472" />
	</node>
	<node lat="60.912727773267136" lon="5.0361194368500195" id="-32535">
		<tag k="name" v="Lauvvik" />
		<tag k="place" v="farm" />
		<tag k="ssr:stedsnr" v="36474" />
	</node>
	<node lat="61.011866671205844" lon="5.5786944491693395" id="-32536">
		<tag k="name" v="Trestegane" />
		<tag k="natural" v="slope" />
		<tag k="place" v="locality" />
		<tag k="ssr:stedsnr" v="36601" />
	</node>
	<node lat="60.97441944088578" lon="5.484961120711324" id="-32537">
		<tag k="name" v="Såtene" />
		<tag k="natural" v="hill" />
		<tag k="place" v="locality" />
		<tag k="ssr:stedsnr" v="36804" />
	</node>
	<node lat="60.86840277696963" lon="4.917749998066676" id="-32540">
		<tag k="fixme" v="consider seamark:type=rock or natural=shoal" />
		<tag k="name" v="Guleskjeret" />
		<tag k="place" v="islet" />
		<tag k="ssr:stedsnr" v="238673" />
	</node>
	<node lat="60.981626824121285" lon="5.081653546668053" id="-32541">
		<tag k="name" v="Haugane" />
		<tag k="place" v="farm" />
		<tag k="ssr:stedsnr" v="67352" />
	</node>
	<node lat="60.96848610819316" lon="4.8382055638781045" id="-32542">
		<tag k="name" v="Fureholmen" />
		<tag k="place" v="islet" />
		<tag k="ssr:stedsnr" v="67353" />
	</node>
	<node lat="60.99783184283876" lon="4.937685989685046" id="-32543">
		<tag k="alt_name" v="Rød" />
		<tag k="fixme" v="consider place=hamlet" />
		<tag k="name" v="Rud" />
		<tag k="place" v="farm" />
		<tag k="ssr:stedsnr" v="68394" />
	</node>
	<node lat="60.994891666852176" lon="5.018966665468651" id="-32544">
		<tag k="alt_name" v="Klubben, søre" />
		<tag k="name" v="Søre Klubben" />
		<tag k="natural" v="cape" />
		<tag k="ssr:stedsnr" v="68397" />
	</node>
	<node lat="60.94749999909587" lon="4.857808336363191" id="-32545">
		<tag k="name" v="Lauvøyosen" />
		<tag k="natural" v="strait" />
		<tag k="ssr:stedsnr" v="68292" />
	</node>
	<node lat="60.9896361123559" lon="5.249555554427354" id="-32546">
		<tag k="name" v="Medleitetjørna" />
		<tag k="natural" v="water" />
		<tag k="ssr:stedsnr" v="69139" />
	</node>
	<node lat="60.941202778299335" lon="4.90833889245479" id="-32547">
		<tag k="alt_name" v="Mjømneosen" />
		<tag k="name" v="Mjømnosen" />
		<tag k="natural" v="strait" />
		<tag k="ssr:stedsnr" v="69291" />
	</node>
	<node lat="60.94165555557431" lon="4.837794448631762" id="-32548">
		<tag k="name" v="Bårøyna" />
		<tag k="place" v="island" />
		<tag k="ssr:stedsnr" v="69294" />
	</node>
	<node lat="60.85204999830884" lon="5.001802779071011" id="-32549">
		<tag k="name" v="Ekredalen" />
		<tag k="place" v="farm" />
		<tag k="ssr:stedsnr" v="69402" />
	</node>
	<node lat="60.87256944213525" lon="4.965302772591077" id="-32550">
		<tag k="name" v="Bukkebergvika" />
		<tag k="natural" v="bay" />
		<tag k="ssr:stedsnr" v="69406" />
	</node>
	<node lat="60.86795555169716" lon="4.87849444304998" id="-32551">
		<tag k="name" v="Naustvågen" />
		<tag k="natural" v="bay" />
		<tag k="ssr:stedsnr" v="69409" />
	</node>
	<node lat="60.864030551384154" lon="4.790658335292006" id="-32552">
		<tag k="alt_name" v="Nordfarvågen" />
		<tag k="name" v="Nordforvågen" />
		<tag k="natural" v="bay" />
		<tag k="ssr:stedsnr" v="69429" />
	</node>
	<node lat="60.88093055462864" lon="4.943791660818718" id="-32553">
		<tag k="name" v="Leirøyna" />
		<tag k="place" v="islet" />
		<tag k="ssr:stedsnr" v="69434" />
	</node>
	<node lat="60.89294999551721" lon="4.855722215918439" id="-32554">
		<tag k="name" v="Kjevatnet" />
		<tag k="natural" v="water" />
		<tag k="ssr:stedsnr" v="69480" />
	</node>
	<node lat="60.89226944330498" lon="4.897699993805379" id="-32555">
		<tag k="alt_name" v="Nøkksvatnet" />
		<tag k="name" v="Nykksvatnet" />
		<tag k="natural" v="water" />
		<tag k="ssr:stedsnr" v="69483" />
	</node>
	<node lat="60.90279999730466" lon="5.0067888949051405" id="-32556">
		<tag k="alt_name" v="Dyreskaret" />
		<tag k="name" v="Dyreskardet" />
		<tag k="natural" v="valley" />
		<tag k="place" v="locality" />
		<tag k="ssr:stedsnr" v="69486" />
	</node>
	<node lat="60.90738333481207" lon="4.951113884978052" id="-32557">
		<tag k="name" v="Merkesvågen" />
		<tag k="natural" v="bay" />
		<tag k="ssr:stedsnr" v="69497" />
	</node>
	<node lat="60.89135555729778" lon="4.796883325247907" id="-32558">
		<tag k="alt_name" v="Indre Ingebergskjeret" />
		<tag k="fixme" v="consider seamark:type=rock or natural=shoal" />
		<tag k="name" v="Ingebergskjeret" />
		<tag k="place" v="islet" />
		<tag k="ssr:stedsnr" v="69503" />
	</node>
	<node lat="60.90358889262465" lon="4.797950002912903" id="-32559">
		<tag k="fixme" v="consider seamark:type=rock or natural=shoal" />
		<tag k="name" v="Flateskjeret" />
		<tag k="place" v="islet" />
		<tag k="ssr:stedsnr" v="69518" />
	</node>
	<node lat="60.90425000361315" lon="4.772533334071739" id="-32560">
		<tag k="alt_name" v="Fiskholmen, l" />
		<tag k="name" v="Litle Fiskholmen" />
		<tag k="place" v="islet" />
		<tag k="ssr:stedsnr" v="69520" />
	</node>
	<node lat="60.918316664902065" lon="4.7892833278789775" id="-32561">
		<tag k="alt_name" v="Saløyna, store;Saløyna" />
		<tag k="name" v="Store Saløyna" />
		<tag k="place" v="islet" />
		<tag k="ssr:stedsnr" v="69523" />
	</node>
	<node lat="60.91606388620632" lon="4.748583341889028" id="-32562">
		<tag k="name" v="Saløyskallane" />
		<tag k="natural" v="shoal" />
		<tag k="place" v="locality" />
		<tag k="ssr:stedsnr" v="69526" />
	</node>
	<node lat="60.92282499800927" lon="4.855625008755598" id="-32563">
		<tag k="name" v="Mjømnevatnet" />
		<tag k="natural" v="water" />
		<tag k="ssr:stedsnr" v="69529" />
	</node>
	<node lat="60.92388333430095" lon="5.021063884204278" id="-32564">
		<tag k="name" v="Storholmen" />
		<tag k="place" v="islet" />
		<tag k="ssr:stedsnr" v="69539" />
	</node>
	<node lat="61.02086944886653" lon="5.151605563804151" id="-32565">
		<tag k="name" v="Bjørndalen" />
		<tag k="natural" v="valley" />
		<tag k="place" v="locality" />
		<tag k="ssr:stedsnr" v="69544" />
	</node>
	<node lat="60.84459166520674" lon="5.131652778870735" id="-32566">
		<tag k="alt_name" v="Havershaugen" />
		<tag k="name" v="Havasshaugen" />
		<tag k="natural" v="hill" />
		<tag k="place" v="locality" />
		<tag k="ssr:stedsnr" v="69584" />
	</node>
	<node lat="60.96559444546594" lon="5.183125008981766" id="-32567">
		<tag k="name" v="Holtane" />
		<tag k="natural" v="hill" />
		<tag k="place" v="locality" />
		<tag k="ssr:stedsnr" v="69784" />
	</node>
	<node lat="60.966408336635425" lon="5.187761101757215" id="-32568">
		<tag k="alt_name" v="Leversundet" />
		<tag k="name" v="Livresundet" />
		<tag k="natural" v="strait" />
		<tag k="ssr:stedsnr" v="69786" />
	</node>
	<node lat="60.9782333297367" lon="5.205433336605138" id="-32569">
		<tag k="alt_name" v="Nesfjellet, s" />
		<tag k="fixme" v="consider natural=peak for the most distinct mountains in the district" />
		<tag k="name" v="Søre Nesfjellet" />
		<tag k="natural" v="hill" />
		<tag k="place" v="locality" />
		<tag k="ssr:stedsnr" v="69791" />
	</node>
	<node lat="60.92981666830429" lon="5.343791668458248" id="-32570">
		<tag k="name" v="Ropehaugen" />
		<tag k="place" v="farm" />
		<tag k="ssr:stedsnr" v="69904" />
	</node>
	<node lat="60.92017500189968" lon="5.18274999909296" id="-32571">
		<tag k="fixme" v="consider natural=peak for the most distinct mountains in the district" />
		<tag k="name" v="Hallandskletten" />
		<tag k="natural" v="hill" />
		<tag k="place" v="locality" />
		<tag k="ssr:stedsnr" v="69913" />
	</node>
	<node lat="60.92638256597505" lon="5.17401582271482" id="-32572">
		<tag k="alt_name" v="Vyrkjesdal;Virkesdal" />
		<tag k="fixme" v="consider place=hamlet" />
		<tag k="name" v="Vyrkesdal" />
		<tag k="place" v="farm" />
		<tag k="ssr:stedsnr" v="69914" />
	</node>
	<node lat="60.908583803997445" lon="5.128095206023677" id="-32573">
		<tag k="name" v="Grindeneset" />
		<tag k="natural" v="cape" />
		<tag k="ssr:stedsnr" v="69941" />
	</node>
	<node lat="60.974544445088796" lon="5.387955563872831" id="-32574">
		<tag k="historic" v="shieling" />
		<tag k="name" v="Brekkestølen" />
		<tag k="place" v="isolated_dwelling" />
		<tag k="ssr:stedsnr" v="69833" />
	</node>
	<node lat="60.944044440751725" lon="5.335875007243393" id="-32575">
		<tag k="name" v="Glyvreskardet" />
		<tag k="natural" v="valley" />
		<tag k="place" v="locality" />
		<tag k="ssr:stedsnr" v="69877" />
	</node>
	<node lat="61.05812500287776" lon="5.521816667266938" id="-32576">
		<tag k="fixme" v="consider natural=peak for the most distinct mountains in the district" />
		<tag k="name" v="Husefjellet" />
		<tag k="natural" v="hill" />
		<tag k="place" v="locality" />
		<tag k="ssr:stedsnr" v="70183" />
	</node>
	<node lat="61.06374999693866" lon="5.564983330515883" id="-32577">
		<tag k="alt_name" v="Gjerde" />
		<tag k="name" v="Gjerdet" />
		<tag k="place" v="farm" />
		<tag k="ssr:stedsnr" v="70188" />
	</node>
	<node lat="61.03478055443036" lon="5.047694449766751" id="-32578">
		<tag k="fixme" v="consider natural=peak for the most distinct mountains in the district" />
		<tag k="name" v="Kyrkjefjellet" />
		<tag k="natural" v="hill" />
		<tag k="place" v="locality" />
		<tag k="ssr:stedsnr" v="70425" />
	</node>
	<node lat="61.018244440629196" lon="5.035583331437959" id="-32579">
		<tag k="name" v="Vågeholmen" />
		<tag k="place" v="islet" />
		<tag k="ssr:stedsnr" v="70379" />
	</node>
	<node lat="61.01352777360166" lon="4.962438880232221" id="-32580">
		<tag k="name" v="Kuholmen" />
		<tag k="place" v="islet" />
		<tag k="ssr:stedsnr" v="70382" />
	</node>
	<node lat="61.050713890265065" lon="5.15927221562272" id="-32581">
		<tag k="fixme" v="consider natural=peak for the most distinct mountains in the district" />
		<tag k="name" v="Lifjellet" />
		<tag k="natural" v="hill" />
		<tag k="place" v="locality" />
		<tag k="ssr:stedsnr" v="70577" />
	</node>
	<node lat="61.03460830633812" lon="5.205469364131188" id="-32582">
		<tag k="name" v="Råsetjørna" />
		<tag k="natural" v="water" />
		<tag k="ssr:stedsnr" v="70881" />
	</node>
	<node lat="61.03522499967817" lon="5.306208334021678" id="-32583">
		<tag k="fixme" v="consider natural=peak for the most distinct mountains in the district" />
		<tag k="name" v="Brendeknulten" />
		<tag k="natural" v="hill" />
		<tag k="place" v="locality" />
		<tag k="ssr:stedsnr" v="70890" />
	</node>
	<node lat="61.03324166580637" lon="5.241291666196089" id="-32584">
		<tag k="name" v="Langevatnet" />
		<tag k="natural" v="water" />
		<tag k="ssr:stedsnr" v="70893" />
	</node>
	<node lat="61.02060277889051" lon="5.202427772747419" id="-32585">
		<tag k="fixme" v="consider natural=peak for the most distinct mountains in the district" />
		<tag k="name" v="Ramnfjellet" />
		<tag k="natural" v="hill" />
		<tag k="place" v="locality" />
		<tag k="ssr:stedsnr" v="70901" />
	</node>
	<node lat="61.006827776404386" lon="5.363144437304252" id="-32586">
		<tag k="fixme" v="consider natural=peak for the most distinct mountains in the district" />
		<tag k="name" v="Bårdfjellet" />
		<tag k="natural" v="hill" />
		<tag k="place" v="locality" />
		<tag k="ssr:stedsnr" v="70907" />
	</node>
	<node lat="61.01235555944186" lon="5.434519445657794" id="-32587">
		<tag k="name" v="Hellersmyra" />
		<tag k="natural" v="wetland" />
		<tag k="ssr:stedsnr" v="70912" />
	</node>
	<node lat="61.013577774498735" lon="5.3385777742281055" id="-32588">
		<tag k="alt_name" v="Stølsfjell" />
		<tag k="fixme" v="consider natural=peak for the most distinct mountains in the district" />
		<tag k="name" v="Stølsfjellet" />
		<tag k="natural" v="hill" />
		<tag k="old_name" v="Støls-fjellet" />
		<tag k="place" v="locality" />
		<tag k="ssr:stedsnr" v="70928" />
	</node>
	<node lat="60.85477778155945" lon="4.9320777757840855" id="-32589">
		<tag k="name" v="Vikingneset" />
		<tag k="natural" v="cape" />
		<tag k="ssr:stedsnr" v="85326" />
	</node>
	<node lat="60.86170555439852" lon="4.931361113903104" id="-32590">
		<tag k="name" v="Rakeneset" />
		<tag k="natural" v="cape" />
		<tag k="ssr:stedsnr" v="85327" />
	</node>
	<node lat="60.89889166756047" lon="4.952272215701794" id="-32591">
		<tag k="name" v="Nappslandet" />
		<tag k="natural" v="cape" />
		<tag k="ssr:stedsnr" v="85328" />
	</node>
	<node lat="61.067116670881155" lon="5.188263892185565" id="-32593">
		<tag k="fixme" v="consider place=hamlet" />
		<tag k="name" v="Rutledal" />
		<tag k="old_name" v="Rutledalen" />
		<tag k="place" v="village" />
		<tag k="ssr:stedsnr" v="85034" />
	</node>
	<node lat="60.91306944166419" lon="4.966938882466245" id="-32594">
		<tag k="name" v="Klubben" />
		<tag k="natural" v="cape" />
		<tag k="ssr:stedsnr" v="86005" />
	</node>
	<node lat="60.99698055930309" lon="4.908583327930234" id="-32595">
		<tag k="name" v="Stabben" />
		<tag k="natural" v="shoal" />
		<tag k="place" v="locality" />
		<tag k="ssr:stedsnr" v="86030" />
	</node>
	<node lat="60.94421666291058" lon="4.76964999538408" id="-32596">
		<tag k="name" v="Okseskallen" />
		<tag k="natural" v="shoal" />
		<tag k="place" v="locality" />
		<tag k="ssr:stedsnr" v="86102" />
	</node>
	<node lat="60.92570340163469" lon="4.823198154292394" id="-32597">
		<tag k="name" v="Svartesundet" />
		<tag k="natural" v="strait" />
		<tag k="ssr:stedsnr" v="86104" />
	</node>
	<node lat="61.07308055460245" lon="5.099155559721329" id="-32598">
		<tag k="name" v="Sandnesflua" />
		<tag k="natural" v="shoal" />
		<tag k="place" v="locality" />
		<tag k="ssr:stedsnr" v="86772" />
	</node>
	<node lat="60.87286111530406" lon="5.11715277448359" id="-32599">
		<tag k="fixme" v="consider seamark:type=rock or natural=shoal" />
		<tag k="name" v="Klovsteinene" />
		<tag k="place" v="islet" />
		<tag k="ssr:stedsnr" v="86814" />
	</node>
	<node lat="60.93056666679453" lon="5.114797221847774" id="-32600">
		<tag k="name" v="Storemyra" />
		<tag k="natural" v="wetland" />
		<tag k="ssr:stedsnr" v="91773" />
	</node>
	<node lat="60.98474166707855" lon="5.039613895040053" id="-32601">
		<tag k="name" v="Laberghaugen" />
		<tag k="natural" v="hill" />
		<tag k="place" v="locality" />
		<tag k="ssr:stedsnr" v="91784" />
	</node>
	<node lat="61.005450002842586" lon="5.072691662430824" id="-32602">
		<tag k="fixme" v="consider natural=peak for the most distinct mountains in the district" />
		<tag k="name" v="Midtfjellet" />
		<tag k="natural" v="hill" />
		<tag k="place" v="locality" />
		<tag k="ssr:stedsnr" v="91904" />
	</node>
	<node lat="60.999016663367" lon="5.062983334083728" id="-32603">
		<tag k="name" v="Midtre Hola" />
		<tag k="natural" v="gorge" />
		<tag k="ssr:stedsnr" v="91909" />
	</node>
	<node lat="60.97255555811122" lon="5.142902770402561" id="-32604">
		<tag k="name" v="Storeskora" />
		<tag k="place" v="locality" />
		<tag k="ssr:stedsnr" v="91809" />
	</node>
	<node lat="60.93299444856693" lon="5.161408334913243" id="-32605">
		<tag k="name" v="Storebotnen" />
		<tag k="natural" v="valley" />
		<tag k="place" v="locality" />
		<tag k="ssr:stedsnr" v="91867" />
	</node>
	<node lat="60.93597222537183" lon="5.108791668308359" id="-32606">
		<tag k="name" v="Revurbakkane" />
		<tag k="natural" v="slope" />
		<tag k="place" v="locality" />
		<tag k="ssr:stedsnr" v="91879" />
	</node>
	<node lat="60.91697222524692" lon="4.902419438646818" id="-32607">
		<tag k="name" v="Lisberget" />
		<tag k="natural" v="hill" />
		<tag k="place" v="locality" />
		<tag k="ssr:stedsnr" v="95211" />
	</node>
	<node lat="60.925652774710436" lon="4.900555555562609" id="-32608">
		<tag k="name" v="Rossdalsvika" />
		<tag k="natural" v="bay" />
		<tag k="ssr:stedsnr" v="95228" />
	</node>
	<node lat="60.937386107463865" lon="4.96216944155267" id="-32609">
		<tag k="name" v="Sekketjørna" />
		<tag k="natural" v="water" />
		<tag k="ssr:stedsnr" v="95117" />
	</node>
	<node lat="60.93514166319282" lon="4.980063895535579" id="-32610">
		<tag k="name" v="Pikehaugen" />
		<tag k="natural" v="hill" />
		<tag k="place" v="locality" />
		<tag k="ssr:stedsnr" v="95180" />
	</node>
	<node lat="60.898777776208874" lon="4.893016676040346" id="-32611">
		<tag k="name" v="Grønehaugen" />
		<tag k="natural" v="hill" />
		<tag k="place" v="locality" />
		<tag k="ssr:stedsnr" v="95304" />
	</node>
	<node lat="60.96505555781892" lon="4.984558340279495" id="-32612">
		<tag k="name" v="Store Grimstadholmen" />
		<tag k="place" v="islet" />
		<tag k="ssr:stedsnr" v="95512" />
	</node>
	<node lat="60.868536112523095" lon="4.886438880360561" id="-32613">
		<tag k="name" v="Håhaugen" />
		<tag k="natural" v="hill" />
		<tag k="place" v="locality" />
		<tag k="ssr:stedsnr" v="95530" />
	</node>
	<node lat="60.954149995426" lon="5.0234249914460545" id="-32614">
		<tag k="name" v="Vågselva" />
		<tag k="ssr:stedsnr" v="95821" />
		<tag k="waterway" v="stream" />
	</node>
	<node lat="61.008608337433024" lon="4.9562277695518135" id="-32615">
		<tag k="name" v="Vanehaugen" />
		<tag k="natural" v="hill" />
		<tag k="place" v="locality" />
		<tag k="ssr:stedsnr" v="96065" />
	</node>
	<node lat="60.85060277706412" lon="5.116302771863352" id="-32616">
		<tag k="name" v="Vasshaugen" />
		<tag k="natural" v="hill" />
		<tag k="place" v="locality" />
		<tag k="ssr:stedsnr" v="96164" />
	</node>
	<node lat="61.07200378075578" lon="5.116469198719989" id="-32617">
		<tag k="name" v="Flatevika" />
		<tag k="natural" v="bay" />
		<tag k="ssr:stedsnr" v="96166" />
	</node>
	<node lat="61.06126666290164" lon="5.154166664436002" id="-32618">
		<tag k="name" v="Høgelia" />
		<tag k="natural" v="slope" />
		<tag k="place" v="locality" />
		<tag k="ssr:stedsnr" v="96179" />
	</node>
	<node lat="61.05780833314398" lon="5.145449996744909" id="-32619">
		<tag k="name" v="Svarthammarholene" />
		<tag k="natural" v="gorge" />
		<tag k="ssr:stedsnr" v="96182" />
	</node>
	<node lat="60.87877221862901" lon="5.148783332901308" id="-32620">
		<tag k="fixme" v="consider natural=peak for the most distinct mountains in the district" />
		<tag k="name" v="Klamrane" />
		<tag k="natural" v="hill" />
		<tag k="place" v="locality" />
		<tag k="ssr:stedsnr" v="96313" />
	</node>
	<node lat="60.89253611137849" lon="4.719286103599243" id="-32621">
		<tag k="name" v="Oskevågen" />
		<tag k="natural" v="bay" />
		<tag k="ssr:stedsnr" v="96320" />
	</node>
	<node lat="60.87942222292963" lon="4.706836107292005" id="-32622">
		<tag k="name" v="Kvannskjerbåen" />
		<tag k="natural" v="cape" />
		<tag k="ssr:stedsnr" v="96463" />
	</node>
	<node lat="61.06327486274748" lon="5.074026390780588" id="-32623">
		<tag k="alt_name" v="Øvre Sygnefest" />
		<tag k="fixme" v="consider place=hamlet" />
		<tag k="name" v="Sygnefest" />
		<tag k="place" v="farm" />
		<tag k="ssr:stedsnr" v="96630" />
	</node>
	<node lat="60.90511166381044" lon="4.827125322226195" id="-32624">
		<tag k="name" v="Brattholmen" />
		<tag k="place" v="islet" />
		<tag k="ssr:stedsnr" v="96582" />
	</node>
	<node lat="61.03673968617391" lon="5.179516430098451" id="-32625">
		<tag k="name" v="Sandvika" />
		<tag k="natural" v="bay" />
		<tag k="ssr:stedsnr" v="96766" />
	</node>
	<node lat="61.07125555925941" lon="5.178613891624998" id="-32626">
		<tag k="name" v="Skjelvikholmen" />
		<tag k="place" v="islet" />
		<tag k="ssr:stedsnr" v="96809" />
	</node>
	<node lat="61.02448611338532" lon="5.199399998103087" id="-32627">
		<tag k="fixme" v="consider natural=peak for the most distinct mountains in the district" />
		<tag k="name" v="Nipa" />
		<tag k="natural" v="hill" />
		<tag k="place" v="locality" />
		<tag k="ssr:stedsnr" v="96872" />
	</node>
	<node lat="60.92042778165027" lon="5.087072230186869" id="-32628">
		<tag k="fixme" v="consider natural=peak for the most distinct mountains in the district" />
		<tag k="name" v="Skorefjellet" />
		<tag k="natural" v="hill" />
		<tag k="place" v="locality" />
		<tag k="ssr:stedsnr" v="96881" />
	</node>
	<node lat="60.98391944058863" lon="5.429261105860614" id="-32629">
		<tag k="name" v="Blåsvagrova" />
		<tag k="ssr:stedsnr" v="97018" />
		<tag k="waterway" v="stream" />
	</node>
	<node lat="60.986452773783014" lon="5.408891669381942" id="-32630">
		<tag k="name" v="Storetunga" />
		<tag k="natural" v="ridge" />
		<tag k="place" v="locality" />
		<tag k="ssr:stedsnr" v="97021" />
	</node>
	<node lat="60.954486106774034" lon="5.34852221493403" id="-32631">
		<tag k="name" v="Sandneslia" />
		<tag k="natural" v="slope" />
		<tag k="place" v="locality" />
		<tag k="ssr:stedsnr" v="97059" />
	</node>
	<node lat="60.9599527787586" lon="5.4345694383814385" id="-32632">
		<tag k="name" v="Seltuftene" />
		<tag k="place" v="locality" />
		<tag k="ssr:stedsnr" v="97062" />
	</node>
	<node lat="60.91517500084645" lon="5.075600003254793" id="-32633">
		<tag k="name" v="Snauheia" />
		<tag k="natural" v="hill" />
		<tag k="place" v="locality" />
		<tag k="ssr:stedsnr" v="96905" />
	</node>
	<node lat="60.914083330631534" lon="5.0738277694108405" id="-32634">
		<tag k="name" v="Sandvikdalen" />
		<tag k="natural" v="valley" />
		<tag k="place" v="locality" />
		<tag k="ssr:stedsnr" v="96909" />
	</node>
	<node lat="61.031230559096144" lon="5.191649994536796" id="-32635">
		<tag k="name" v="Nordgulbotnen" />
		<tag k="natural" v="valley" />
		<tag k="place" v="locality" />
		<tag k="ssr:stedsnr" v="96911" />
	</node>
	<node lat="60.99934444546788" lon="5.171058333706932" id="-32636">
		<tag k="name" v="Årevika" />
		<tag k="natural" v="bay" />
		<tag k="ssr:stedsnr" v="96977" />
	</node>
	<node lat="61.0003055572096" lon="5.171197223032775" id="-32637">
		<tag k="name" v="Heineset" />
		<tag k="natural" v="cape" />
		<tag k="ssr:stedsnr" v="96979" />
	</node>
	<node lat="60.96830278060299" lon="5.445022223361524" id="-32638">
		<tag k="name" v="Hesjedalen" />
		<tag k="natural" v="valley" />
		<tag k="place" v="locality" />
		<tag k="ssr:stedsnr" v="97112" />
	</node>
	<node lat="61.00521944403478" lon="5.353386109279431" id="-32639">
		<tag k="name" v="Olseten" />
		<tag k="natural" v="hill" />
		<tag k="place" v="locality" />
		<tag k="ssr:stedsnr" v="97213" />
	</node>
	<node lat="60.97985833002583" lon="5.286452775354344" id="-32640">
		<tag k="fixme" v="consider natural=peak for the most distinct mountains in the district" />
		<tag k="name" v="Litlefjellet" />
		<tag k="natural" v="hill" />
		<tag k="place" v="locality" />
		<tag k="ssr:stedsnr" v="97279" />
	</node>
	<node lat="60.93026111501185" lon="5.31632500301386" id="-32641">
		<tag k="name" v="Gullida" />
		<tag k="natural" v="slope" />
		<tag k="place" v="locality" />
		<tag k="ssr:stedsnr" v="97411" />
	</node>
	<node lat="60.92271389007898" lon="5.328025001258693" id="-32642">
		<tag k="name" v="Straumholene" />
		<tag k="natural" v="wetland" />
		<tag k="ssr:stedsnr" v="97412" />
	</node>
	<node lat="60.95088888769355" lon="5.190138887650113" id="-32643">
		<tag k="name" v="Nordalslia" />
		<tag k="natural" v="slope" />
		<tag k="place" v="locality" />
		<tag k="ssr:stedsnr" v="97323" />
	</node>
	<node lat="60.917119443563635" lon="5.1195249938488425" id="-32644">
		<tag k="name" v="Mulen" />
		<tag k="place" v="locality" />
		<tag k="ssr:stedsnr" v="97372" />
	</node>
	<node lat="60.925850001288076" lon="5.112650008980331" id="-32645">
		<tag k="name" v="Langesløkja" />
		<tag k="natural" v="slope" />
		<tag k="place" v="locality" />
		<tag k="ssr:stedsnr" v="97380" />
	</node>
	<node lat="60.947980554707826" lon="5.183111106762418" id="-32646">
		<tag k="fixme" v="consider natural=peak for the most distinct mountains in the district" />
		<tag k="name" v="Urlifjellet" />
		<tag k="natural" v="hill" />
		<tag k="place" v="locality" />
		<tag k="ssr:stedsnr" v="97503" />
	</node>
	<node lat="61.00426388584087" lon="5.224899994150038" id="-32647">
		<tag k="name" v="Leina" />
		<tag k="natural" v="hill" />
		<tag k="place" v="locality" />
		<tag k="ssr:stedsnr" v="97684" />
	</node>
	<node lat="60.97231944213717" lon="5.4894305570857345" id="-32648">
		<tag k="name" v="Styggegjelurane" />
		<tag k="natural" v="scree" />
		<tag k="ssr:stedsnr" v="97714" />
	</node>
	<node lat="60.989963893084635" lon="5.487361105286093" id="-32649">
		<tag k="name" v="Grågjelet" />
		<tag k="natural" v="slope" />
		<tag k="place" v="locality" />
		<tag k="ssr:stedsnr" v="97859" />
	</node>
	<node lat="61.055947221957446" lon="5.5212111102368615" id="-32650">
		<tag k="fixme" v="consider natural=peak for the most distinct mountains in the district" />
		<tag k="name" v="Nova" />
		<tag k="natural" v="hill" />
		<tag k="place" v="locality" />
		<tag k="ssr:stedsnr" v="97968" />
	</node>
	<node lat="60.96710278089705" lon="4.787688887065941" id="-32651">
		<tag k="fixme" v="consider seamark:type=rock or natural=shoal" />
		<tag k="name" v="Svarteskjeret" />
		<tag k="place" v="islet" />
		<tag k="ssr:stedsnr" v="249333" />
	</node>
	<node lat="60.980412342279195" lon="4.95607818394375" id="-32652">
		<tag k="alt_name" v="Vilsvik" />
		<tag k="fixme" v="consider place=hamlet" />
		<tag k="name" v="Vilsvika" />
		<tag k="place" v="farm" />
		<tag k="ssr:stedsnr" v="249336" />
	</node>
	<node lat="60.97669191229196" lon="4.9855151764977235" id="-32653">
		<tag k="fixme" v="consider place=hamlet" />
		<tag k="name" v="Grimstad" />
		<tag k="place" v="farm" />
		<tag k="ssr:stedsnr" v="249337" />
	</node>
	<node lat="60.977791670295886" lon="5.032283329049835" id="-32654">
		<tag k="alt_name" v="Breivika" />
		<tag k="name" v="Breidvika" />
		<tag k="natural" v="bay" />
		<tag k="ssr:stedsnr" v="249341" />
	</node>
	<node lat="61.03071388868629" lon="5.321361116785035" id="-32655">
		<tag k="bridge" v="yes" />
		<tag k="layer" v="1" />
		<tag k="name" v="Hjartholm" />
		<tag k="ssr:stedsnr" v="107435" />
	</node>
	<node lat="60.937080554828" lon="5.356791674240708" id="-32656">
		<tag k="bridge" v="yes" />
		<tag k="layer" v="1" />
		<tag k="name" v="Furudal" />
		<tag k="ssr:stedsnr" v="107442" />
	</node>
	<node lat="60.954891665616586" lon="4.999736115323148" id="-32657">
		<tag k="alt_name" v="Kvigesundholmen" />
		<tag k="name" v="Kvigesundholmane" />
		<tag k="place" v="islet" />
		<tag k="ssr:stedsnr" v="250279" />
	</node>
	<node lat="60.953788885228256" lon="4.965058337277202" id="-32658">
		<tag k="name" v="Bjorøyosen" />
		<tag k="natural" v="strait" />
		<tag k="ssr:stedsnr" v="250282" />
	</node>
	<node lat="60.951550003164876" lon="4.937916674352528" id="-32659">
		<tag k="name" v="Mjømnetangen" />
		<tag k="natural" v="cape" />
		<tag k="ssr:stedsnr" v="250284" />
	</node>
	<node lat="60.990815663137674" lon="5.090568860430163" id="-32660">
		<tag k="alt_name" v="Midtun" />
		<tag k="name" v="Midttun" />
		<tag k="place" v="hamlet" />
		<tag k="ssr:stedsnr" v="250355" />
	</node>
	<node lat="60.986402775677064" lon="5.0524888937640355" id="-32661">
		<tag k="name" v="Sollibotn" />
		<tag k="natural" v="valley" />
		<tag k="place" v="locality" />
		<tag k="ssr:stedsnr" v="250356" />
	</node>
	<node lat="60.98787499690856" lon="4.856949992104324" id="-32662">
		<tag k="alt_name" v="Hillehamnen, s" />
		<tag k="name" v="Søre Hillehamnen" />
		<tag k="natural" v="bay" />
		<tag k="ssr:stedsnr" v="250359" />
	</node>
	<node lat="60.98383798331993" lon="4.88429791862417" id="-32663">
		<tag k="alt_name" v="Gladvær, søre;Glavær Søre" />
		<tag k="name" v="Søre Gladvær" />
		<tag k="place" v="island" />
		<tag k="ssr:stedsnr" v="250360" />
	</node>
	<node lat="60.99810277367582" lon="5.008600004845748" id="-32664">
		<tag k="name" v="Flathaugen" />
		<tag k="natural" v="hill" />
		<tag k="place" v="locality" />
		<tag k="ssr:stedsnr" v="250369" />
	</node>
	<node lat="60.88488888881212" lon="4.717691658722532" id="-32665">
		<tag k="name" v="Skoltholmen" />
		<tag k="place" v="islet" />
		<tag k="ssr:stedsnr" v="250732" />
	</node>
	<node lat="60.855902776322466" lon="4.975044446920652" id="-32666">
		<tag k="name" v="Måseviktaren" />
		<tag k="natural" v="shoal" />
		<tag k="place" v="locality" />
		<tag k="ssr:stedsnr" v="117684" />
	</node>
	<node lat="61.05231944795241" lon="5.581719434902929" id="-32667">
		<tag k="name" v="Kamben" />
		<tag k="natural" v="slope" />
		<tag k="place" v="locality" />
		<tag k="ssr:stedsnr" v="251043" />
	</node>
	<node lat="61.009824996870755" lon="5.544475002595283" id="-32668">
		<tag k="name" v="Grønlivatnet" />
		<tag k="natural" v="water" />
		<tag k="ssr:stedsnr" v="251019" />
	</node>
	<node lat="61.015216665625296" lon="5.542349995151614" id="-32669">
		<tag k="name" v="Klypevatna" />
		<tag k="natural" v="water" />
		<tag k="ssr:stedsnr" v="251030" />
		<tag k="water" v="lake" />
	</node>
	<node lat="60.987730554977546" lon="5.236975005900278" id="-32670">
		<tag k="name" v="Stølsvatnet" />
		<tag k="natural" v="water" />
		<tag k="ssr:stedsnr" v="251147" />
	</node>
	<node lat="60.99593611042958" lon="5.235116673891096" id="-32671">
		<tag k="alt_name" v="Hanntveittjørna, nordre;Nordre Dyrbottsvatnet;Dyrbottsvatnet, nordre" />
		<tag k="name" v="Nordre Hanntveittjørna" />
		<tag k="natural" v="water" />
		<tag k="ssr:stedsnr" v="251193" />
	</node>
	<node lat="60.986419441175286" lon="5.197091661038892" id="-32672">
		<tag k="alt_name" v="Nipa" />
		<tag k="fixme" v="consider natural=peak for the most distinct mountains in the district" />
		<tag k="name" v="Nesnipa" />
		<tag k="natural" v="hill" />
		<tag k="place" v="locality" />
		<tag k="ssr:stedsnr" v="251149" />
	</node>
	<node lat="60.98959166772011" lon="5.339802785409589" id="-32673">
		<tag k="name" v="Øyane" />
		<tag k="place" v="locality" />
		<tag k="ssr:stedsnr" v="251152" />
	</node>
	<node lat="60.990886113544406" lon="5.4380527703001" id="-32674">
		<tag k="historic" v="shieling" />
		<tag k="name" v="Hauglandsstølen" />
		<tag k="place" v="isolated_dwelling" />
		<tag k="ssr:stedsnr" v="251160" />
	</node>
	<node lat="60.99794722090354" lon="5.12361944056135" id="-32675">
		<tag k="alt_name" v="Midtundalen" />
		<tag k="name" v="Midttundalen" />
		<tag k="natural" v="valley" />
		<tag k="place" v="locality" />
		<tag k="ssr:stedsnr" v="251175" />
	</node>
	<node lat="60.927050003437955" lon="4.922663887145107" id="-32676">
		<tag k="fixme" v="consider natural=peak for the most distinct mountains in the district" />
		<tag k="name" v="Mjømnefjellet" />
		<tag k="natural" v="hill" />
		<tag k="place" v="locality" />
		<tag k="ssr:stedsnr" v="251277" />
	</node>
	<node lat="60.92669444471036" lon="4.846808340438987" id="-32677">
		<tag k="alt_name" v="Åsen" />
		<tag k="name" v="Grimåsen" />
		<tag k="natural" v="hill" />
		<tag k="place" v="locality" />
		<tag k="ssr:stedsnr" v="251281" />
	</node>
	<node lat="60.93690000204001" lon="5.48646666806711" id="-32678">
		<tag k="fixme" v="consider natural=peak for the most distinct mountains in the district" />
		<tag k="name" v="Kletten" />
		<tag k="natural" v="hill" />
		<tag k="place" v="locality" />
		<tag k="ssr:stedsnr" v="251290" />
	</node>
	<node lat="60.94791388621232" lon="4.925036105373425" id="-32679">
		<tag k="name" v="Krabbeholmen" />
		<tag k="place" v="islet" />
		<tag k="ssr:stedsnr" v="251292" />
	</node>
	<node lat="60.955111110928314" lon="5.087744451943034" id="-32680">
		<tag k="fixme" v="consider natural=peak for the most distinct mountains in the district" />
		<tag k="name" v="Nipa" />
		<tag k="natural" v="hill" />
		<tag k="place" v="locality" />
		<tag k="ssr:stedsnr" v="251307" />
	</node>
	<node lat="60.96457777367836" lon="5.55992499612389" id="-32681">
		<tag k="name" v="Svartebetnene" />
		<tag k="natural" v="valley" />
		<tag k="place" v="locality" />
		<tag k="ssr:stedsnr" v="251319" />
	</node>
	<node lat="60.945349998078676" lon="5.507299991857841" id="-32682">
		<tag k="name" v="Skitdalen" />
		<tag k="natural" v="valley" />
		<tag k="place" v="locality" />
		<tag k="ssr:stedsnr" v="251331" />
	</node>
	<node lat="60.85726389072409" lon="4.913952778499544" id="-32683">
		<tag k="alt_name" v="Båvågen" />
		<tag k="name" v="Båevågen" />
		<tag k="natural" v="bay" />
		<tag k="ssr:stedsnr" v="251392" />
	</node>
	<node lat="60.86353055445686" lon="5.066061116592198" id="-32684">
		<tag k="name" v="Steinsvågen" />
		<tag k="natural" v="bay" />
		<tag k="ssr:stedsnr" v="251396" />
	</node>
	<node lat="60.86825000165093" lon="5.052261117228842" id="-32685">
		<tag k="name" v="Eidsøyna" />
		<tag k="place" v="islet" />
		<tag k="ssr:stedsnr" v="251399" />
	</node>
	<node lat="60.85692103047575" lon="5.096096074563678" id="-32686">
		<tag k="alt_name" v="Steintjørna" />
		<tag k="name" v="Steinstjørna" />
		<tag k="natural" v="water" />
		<tag k="ssr:stedsnr" v="251523" />
	</node>
	<node lat="60.88651666974126" lon="4.9293749927075945" id="-32687">
		<tag k="name" v="Nappsholmen" />
		<tag k="place" v="island" />
		<tag k="ssr:stedsnr" v="251442" />
	</node>
	<node lat="60.87511944012951" lon="4.783180556037986" id="-32688">
		<tag k="alt_name" v="Røytekalven" />
		<tag k="name" v="Røytingekalven" />
		<tag k="place" v="islet" />
		<tag k="ssr:stedsnr" v="251449" />
	</node>
	<node lat="60.90151388658021" lon="4.878641666821226" id="-32689">
		<tag k="name" v="Siletjørna" />
		<tag k="natural" v="water" />
		<tag k="ssr:stedsnr" v="251455" />
	</node>
	<node lat="60.900067240027454" lon="5.008910572750258" id="-32690">
		<tag k="fixme" v="consider place=hamlet" />
		<tag k="name" v="Rørtveit" />
		<tag k="place" v="farm" />
		<tag k="ssr:stedsnr" v="251463" />
	</node>
	<node lat="60.9066250014911" lon="4.90593055265512" id="-32691">
		<tag k="alt_name" v="Leieholmen, store;Store Leiholmen" />
		<tag k="name" v="Store Leieholmen" />
		<tag k="place" v="islet" />
		<tag k="ssr:stedsnr" v="251468" />
	</node>
	<node lat="60.88573611254635" lon="4.732127782402008" id="-32692">
		<tag k="name" v="Verholmen" />
		<tag k="place" v="islet" />
		<tag k="ssr:stedsnr" v="251479" />
	</node>
	<node lat="60.83736388812519" lon="5.1351249937431644" id="-32693">
		<tag k="name" v="Ildalsvågen" />
		<tag k="natural" v="bay" />
		<tag k="old_name" v="Ilnesvågen;Ilevågen" />
		<tag k="ssr:stedsnr" v="251562" />
	</node>
	<node lat="61.08451666737212" lon="5.152147221429641" id="-32694">
		<tag k="name" v="Surispa" />
		<tag k="natural" v="cape" />
		<tag k="ssr:stedsnr" v="251591" />
	</node>
	<node lat="61.08196389262291" lon="5.139213885720916" id="-32695">
		<tag k="fixme" v="consider seamark:type=rock or natural=shoal" />
		<tag k="name" v="Flateskjeret" />
		<tag k="place" v="islet" />
		<tag k="ssr:stedsnr" v="251601" />
	</node>
	<node lat="60.97279444016591" lon="5.322983337978902" id="-32696">
		<tag k="fixme" v="consider natural=peak for the most distinct mountains in the district" />
		<tag k="name" v="Såta" />
		<tag k="natural" v="hill" />
		<tag k="place" v="locality" />
		<tag k="ssr:stedsnr" v="251838" />
	</node>
	<node lat="60.98043333136091" lon="5.261555550028902" id="-32697">
		<tag k="alt_name" v="Fossdalsfjellet" />
		<tag k="fixme" v="multiple name tags, choose one and add the other to alt_name; consider natural=peak for the most distinct mountains in the district" />
		<tag k="name" v="Bjørndalsfjellet;Fossdalsnipa" />
		<tag k="natural" v="hill" />
		<tag k="place" v="locality" />
		<tag k="ssr:stedsnr" v="251795" />
	</node>
	<node lat="60.985544446898466" lon="5.389833337851881" id="-32698">
		<tag k="name" v="Vetlevatnet" />
		<tag k="natural" v="water" />
		<tag k="ssr:stedsnr" v="251803" />
	</node>
	<node lat="60.978802782077146" lon="5.3875638907340955" id="-32699">
		<tag k="name" v="Brekkebotnen" />
		<tag k="natural" v="valley" />
		<tag k="place" v="locality" />
		<tag k="ssr:stedsnr" v="251804" />
	</node>
	<node lat="60.98183055554058" lon="5.3135583414954315" id="-32700">
		<tag k="fixme" v="consider natural=peak for the most distinct mountains in the district" />
		<tag k="name" v="Storefjellet" />
		<tag k="natural" v="hill" />
		<tag k="place" v="locality" />
		<tag k="ssr:stedsnr" v="251805" />
	</node>
	<node lat="60.960699999092846" lon="5.287261116045558" id="-32701">
		<tag k="alt_name" v="Raunlivika" />
		<tag k="name" v="Raunvika" />
		<tag k="natural" v="bay" />
		<tag k="ssr:stedsnr" v="251811" />
	</node>
	<node lat="60.95903888581675" lon="5.173816659656817" id="-32702">
		<tag k="alt_name" v="Sponkkletten" />
		<tag k="fixme" v="consider natural=peak for the most distinct mountains in the district" />
		<tag k="name" v="Sponkletten" />
		<tag k="natural" v="hill" />
		<tag k="place" v="locality" />
		<tag k="ssr:stedsnr" v="251815" />
	</node>
	<node lat="60.970169031177825" lon="5.341830510398983" id="-32703">
		<tag k="alt_name" v="Austgulstølsvatnet;Stølsvatnet" />
		<tag k="name" v="Austgulstølvatnet" />
		<tag k="natural" v="water" />
		<tag k="ssr:stedsnr" v="251828" />
	</node>
	<node lat="61.05150555448587" lon="5.264822216752158" id="-32704">
		<tag k="name" v="Lomtjørna" />
		<tag k="natural" v="water" />
		<tag k="ssr:stedsnr" v="252578" />
	</node>
	<node lat="60.94675833178118" lon="5.350752786552682" id="-32705">
		<tag k="name" v="Furdalselva" />
		<tag k="ssr:stedsnr" v="251898" />
		<tag k="waterway" v="river" />
	</node>
	<node lat="60.95088888976044" lon="5.39766110311805" id="-32706">
		<tag k="name" v="Eikeliknulten" />
		<tag k="natural" v="hill" />
		<tag k="place" v="locality" />
		<tag k="ssr:stedsnr" v="251900" />
	</node>
	<node lat="60.959812306840064" lon="5.138799242630097" id="-32707">
		<tag k="alt_name" v="Glosvik" />
		<tag k="fixme" v="consider place=hamlet" />
		<tag k="name" v="Glossvika" />
		<tag k="place" v="farm" />
		<tag k="ssr:stedsnr" v="251840" />
	</node>
	<node lat="60.957930556493935" lon="5.1507694451897414" id="-32708">
		<tag k="alt_name" v="Glosvikskaret" />
		<tag k="name" v="Glossvikeskardet" />
		<tag k="natural" v="valley" />
		<tag k="place" v="locality" />
		<tag k="ssr:stedsnr" v="251841" />
	</node>
	<node lat="60.94194772125065" lon="5.1401096174405385" id="-32709">
		<tag k="fixme" v="consider place=hamlet" />
		<tag k="name" v="Lund" />
		<tag k="place" v="farm" />
		<tag k="ssr:stedsnr" v="251850" />
	</node>
	<node lat="60.95014444613882" lon="5.12065834099538" id="-32710">
		<tag k="name" v="Britevika" />
		<tag k="natural" v="bay" />
		<tag k="ssr:stedsnr" v="251869" />
	</node>
	<node lat="60.95970278130825" lon="5.302075003356389" id="-32711">
		<tag k="fixme" v="consider natural=peak for the most distinct mountains in the district" />
		<tag k="name" v="Flatefjellet" />
		<tag k="natural" v="hill" />
		<tag k="place" v="locality" />
		<tag k="ssr:stedsnr" v="251877" />
	</node>
	<node lat="60.92841110727675" lon="5.311055551404706" id="-32712">
		<tag k="alt_name" v="Gullifjellet" />
		<tag k="fixme" v="consider natural=peak for the most distinct mountains in the district" />
		<tag k="name" v="Gulelifjellet" />
		<tag k="natural" v="hill" />
		<tag k="place" v="locality" />
		<tag k="ssr:stedsnr" v="251881" />
	</node>
	<node lat="61.008205551986585" lon="5.258547229115324" id="-32713">
		<tag k="fixme" v="consider natural=peak for the most distinct mountains in the district" />
		<tag k="name" v="Hallane" />
		<tag k="natural" v="hill" />
		<tag k="place" v="locality" />
		<tag k="ssr:stedsnr" v="251933" />
	</node>
	<node lat="60.999641670505774" lon="5.233791660153442" id="-32714">
		<tag k="name" v="Omnstjørna" />
		<tag k="natural" v="water" />
		<tag k="ssr:stedsnr" v="251938" />
	</node>
	<node lat="61.018102778822865" lon="5.310052780752879" id="-32715">
		<tag k="name" v="Skansen" />
		<tag k="natural" v="hill" />
		<tag k="place" v="locality" />
		<tag k="ssr:stedsnr" v="251947" />
	</node>
	<node lat="60.9003439546949" lon="5.099897923871963" id="-32716">
		<tag k="name" v="Brattelitjørna" />
		<tag k="natural" v="water" />
		<tag k="ssr:stedsnr" v="251953" />
	</node>
	<node lat="60.933241665486776" lon="5.188074991514292" id="-32717">
		<tag k="name" v="Humlelia" />
		<tag k="natural" v="slope" />
		<tag k="place" v="locality" />
		<tag k="ssr:stedsnr" v="251903" />
	</node>
	<node lat="61.02604722269313" lon="5.393063897554665" id="-32718">
		<tag k="name" v="Alverneset" />
		<tag k="natural" v="cape" />
		<tag k="ssr:stedsnr" v="251907" />
	</node>
	<node lat="60.91465555331923" lon="5.20399722715342" id="-32719">
		<tag k="name" v="Sversvatnet" />
		<tag k="natural" v="water" />
		<tag k="ssr:stedsnr" v="251912" />
	</node>
	<node lat="61.00241110992587" lon="5.256658340945112" id="-32720">
		<tag k="name" v="Hellebergsvatna" />
		<tag k="natural" v="water" />
		<tag k="ssr:stedsnr" v="251958" />
		<tag k="water" v="lake" />
	</node>
	<node lat="60.886958333824914" lon="5.149280549185872" id="-32721">
		<tag k="fixme" v="consider natural=peak for the most distinct mountains in the district" />
		<tag k="name" v="Vardehaugen" />
		<tag k="natural" v="hill" />
		<tag k="place" v="locality" />
		<tag k="ssr:stedsnr" v="251973" />
	</node>
	<node lat="60.95381666735369" lon="5.302022217439502" id="-32722">
		<tag k="name" v="Snøgjelet" />
		<tag k="natural" v="valley" />
		<tag k="place" v="locality" />
		<tag k="ssr:stedsnr" v="251974" />
	</node>
	<node lat="61.019636112676565" lon="5.554219453293126" id="-32723">
		<tag k="fixme" v="consider natural=peak for the most distinct mountains in the district" />
		<tag k="name" v="Stølsfjellet" />
		<tag k="natural" v="hill" />
		<tag k="place" v="locality" />
		<tag k="ssr:stedsnr" v="252007" />
	</node>
	<node lat="61.025377774880354" lon="5.53105555215487" id="-32724">
		<tag k="name" v="Løynavatna" />
		<tag k="natural" v="water" />
		<tag k="ssr:stedsnr" v="252010" />
		<tag k="water" v="lake" />
	</node>
	<node lat="61.060699997400356" lon="5.518883326963904" id="-32725">
		<tag k="alt_name" v="Asberget" />
		<tag k="name" v="Assberget" />
		<tag k="natural" v="hill" />
		<tag k="place" v="locality" />
		<tag k="ssr:stedsnr" v="252179" />
	</node>
	<node lat="61.0598527766574" lon="5.580441666460698" id="-32726">
		<tag k="name" v="Solliskardvatnet" />
		<tag k="natural" v="water" />
		<tag k="ssr:stedsnr" v="252180" />
	</node>
	<node lat="60.98038055458659" lon="5.041449993331699" id="-32727">
		<tag k="alt_name" v="Stavsnes" />
		<tag k="name" v="Stavsneset" />
		<tag k="natural" v="cape" />
		<tag k="ssr:stedsnr" v="128312" />
	</node>
	<node lat="60.982933336721246" lon="5.043574990687884" id="-32728">
		<tag k="name" v="Grønevika" />
		<tag k="place" v="farm" />
		<tag k="ssr:stedsnr" v="128314" />
	</node>
	<node lat="60.978086115026365" lon="4.806566663659636" id="-32729">
		<tag k="alt_name" v="Hårøyna" />
		<tag k="name" v="Horrøyna" />
		<tag k="place" v="islet" />
		<tag k="ssr:stedsnr" v="128315" />
	</node>
	<node lat="60.97999999632415" lon="4.801836104312092" id="-32730">
		<tag k="name" v="Olemannsøyna" />
		<tag k="place" v="islet" />
		<tag k="ssr:stedsnr" v="128334" />
	</node>
	<node lat="61.00611110718478" lon="5.0411888979777215" id="-32731">
		<tag k="name" v="Navdalen" />
		<tag k="natural" v="valley" />
		<tag k="place" v="locality" />
		<tag k="ssr:stedsnr" v="252390" />
	</node>
	<node lat="60.889119444402844" lon="4.710177786487873" id="-32732">
		<tag k="alt_name" v="Oska, l" />
		<tag k="name" v="Litle Oska" />
		<tag k="old_name" v="Oska" />
		<tag k="place" v="islet" />
		<tag k="ssr:stedsnr" v="128735" />
	</node>
	<node lat="61.003555558936284" lon="5.546711114918492" id="-32733">
		<tag k="fixme" v="consider natural=peak for the most distinct mountains in the district" />
		<tag k="name" v="Grønlifjellet" />
		<tag k="natural" v="hill" />
		<tag k="place" v="locality" />
		<tag k="ssr:stedsnr" v="128494" />
	</node>
	<node lat="61.083350002367176" lon="5.60636945137079" id="-32734">
		<tag k="name" v="Fureneset" />
		<tag k="natural" v="cape" />
		<tag k="ssr:stedsnr" v="128498" />
	</node>
	<node lat="61.049861110258064" lon="5.555033339891125" id="-32735">
		<tag k="name" v="Storelva" />
		<tag k="ssr:stedsnr" v="128500" />
		<tag k="waterway" v="river" />
	</node>
	<node lat="61.01967500298189" lon="4.998541666252022" id="-32736">
		<tag k="alt_name" v="Brandholmen" />
		<tag k="name" v="Brandholmane" />
		<tag k="place" v="islet" />
		<tag k="ssr:stedsnr" v="252374" />
	</node>
	<node lat="61.013638889811055" lon="5.04710277418309" id="-32737">
		<tag k="fixme" v="consider natural=peak for the most distinct mountains in the district" />
		<tag k="name" v="Tjuvfjellet" />
		<tag k="natural" v="hill" />
		<tag k="place" v="locality" />
		<tag k="ssr:stedsnr" v="252377" />
	</node>
	<node lat="61.03112222456117" lon="4.988091672256273" id="-32738">
		<tag k="name" v="Storlihelleålen" />
		<tag k="natural" v="strait" />
		<tag k="ssr:stedsnr" v="252408" />
	</node>
	<node lat="61.03601388883022" lon="5.087777775709845" id="-32739">
		<tag k="name" v="Dingevatnet" />
		<tag k="natural" v="water" />
		<tag k="ssr:stedsnr" v="252423" />
		<tag k="water" v="lake" />
	</node>
	<node lat="61.03605277425359" lon="5.0598222187040145" id="-32740">
		<tag k="fixme" v="consider natural=peak for the most distinct mountains in the district" />
		<tag k="name" v="Bjørkelihaugen" />
		<tag k="natural" v="hill" />
		<tag k="place" v="locality" />
		<tag k="ssr:stedsnr" v="252425" />
	</node>
	<node lat="60.87987500290626" lon="4.851261113091194" id="-32741">
		<tag k="name" v="Olsøyna" />
		<tag k="place" v="islet" />
		<tag k="ssr:stedsnr" v="129409" />
	</node>
	<node lat="60.87637499896199" lon="4.8919944388162255" id="-32742">
		<tag k="name" v="Merkesdalen" />
		<tag k="natural" v="valley" />
		<tag k="place" v="locality" />
		<tag k="ssr:stedsnr" v="129411" />
	</node>
	<node lat="60.88606944442292" lon="5.072008335836933" id="-32743">
		<tag k="name" v="Svartetjørna" />
		<tag k="natural" v="water" />
		<tag k="ssr:stedsnr" v="129433" />
	</node>
	<node lat="60.89625833115196" lon="4.948558335977157" id="-32744">
		<tag k="name" v="Nappsvågen" />
		<tag k="natural" v="bay" />
		<tag k="ssr:stedsnr" v="129450" />
	</node>
	<node lat="60.98811111433301" lon="5.589863894600194" id="-32745">
		<tag k="name" v="Smikkevatnet" />
		<tag k="natural" v="water" />
		<tag k="ssr:stedsnr" v="129306" />
	</node>
	<node lat="60.95853942960324" lon="5.421495948714373" id="-32746">
		<tag k="fixme" v="consider place=hamlet" />
		<tag k="name" v="Verkland" />
		<tag k="place" v="farm" />
		<tag k="ssr:stedsnr" v="129816" />
	</node>
	<node lat="60.95610277365931" lon="5.274580555334784" id="-32747">
		<tag k="alt_name" v="Alvedalstjørn" />
		<tag k="name" v="Alvedalstjørna" />
		<tag k="natural" v="water" />
		<tag k="ssr:stedsnr" v="129834" />
	</node>
	<node lat="60.94897478071329" lon="5.245192969281377" id="-32748">
		<tag k="alt_name" v="Kjelby;Kjelbju" />
		<tag k="fixme" v="consider place=hamlet" />
		<tag k="name" v="Kjellbju" />
		<tag k="place" v="farm" />
		<tag k="ssr:stedsnr" v="129837" />
	</node>
	<node lat="60.95276944391972" lon="5.2665250031129025" id="-32749">
		<tag k="name" v="Fosshaugen" />
		<tag k="place" v="isolated_dwelling" />
		<tag k="ssr:stedsnr" v="129838" />
	</node>
	<node lat="60.94564166256851" lon="5.377302772516219" id="-32750">
		<tag k="name" v="Lia" />
		<tag k="place" v="farm" />
		<tag k="ssr:stedsnr" v="129859" />
	</node>
	<node lat="61.07974882287126" lon="5.148169364374078" id="-32751">
		<tag k="name" v="Grønevika" />
		<tag k="natural" v="bay" />
		<tag k="ssr:stedsnr" v="129520" />
	</node>
	<node lat="61.044886115510124" lon="5.275075008486501" id="-32752">
		<tag k="fixme" v="consider natural=peak for the most distinct mountains in the district" />
		<tag k="name" v="Blåfjellet" />
		<tag k="natural" v="hill" />
		<tag k="place" v="locality" />
		<tag k="ssr:stedsnr" v="129521" />
	</node>
	<node lat="60.9833194444862" lon="5.236499995847158" id="-32753">
		<tag k="name" v="Dalevatnet" />
		<tag k="natural" v="water" />
		<tag k="ssr:stedsnr" v="129773" />
	</node>
	<node lat="60.98300555446467" lon="5.257441672323155" id="-32754">
		<tag k="name" v="Fossdalen" />
		<tag k="natural" v="valley" />
		<tag k="place" v="locality" />
		<tag k="ssr:stedsnr" v="129774" />
	</node>
	<node lat="60.97921388598374" lon="5.199083327220094" id="-32755">
		<tag k="alt_name" v="Nova" />
		<tag k="fixme" v="consider natural=peak for the most distinct mountains in the district" />
		<tag k="name" v="Nesnova" />
		<tag k="natural" v="hill" />
		<tag k="place" v="locality" />
		<tag k="ssr:stedsnr" v="129775" />
	</node>
	<node lat="60.976749996472904" lon="5.298724995481188" id="-32756">
		<tag k="fixme" v="consider natural=peak for the most distinct mountains in the district" />
		<tag k="name" v="Blåfjellet" />
		<tag k="natural" v="hill" />
		<tag k="place" v="locality" />
		<tag k="ssr:stedsnr" v="129780" />
	</node>
	<node lat="61.071663885264044" lon="5.111741674661414" id="-32757">
		<tag k="alt_name" v="Gunhellervika" />
		<tag k="name" v="Grimhellervika" />
		<tag k="natural" v="bay" />
		<tag k="ssr:stedsnr" v="252515" />
	</node>
	<node lat="60.90629862438724" lon="5.138238973183145" id="-32758">
		<tag k="name" v="Grinde" />
		<tag k="place" v="hamlet" />
		<tag k="ssr:stedsnr" v="129932" />
	</node>
	<node lat="60.86484166825823" lon="5.14438888275271" id="-32759">
		<tag k="alt_name" v="Vestrelifjellet" />
		<tag k="fixme" v="consider natural=peak for the most distinct mountains in the district" />
		<tag k="name" v="Svelikulten" />
		<tag k="natural" v="hill" />
		<tag k="place" v="locality" />
		<tag k="ssr:stedsnr" v="129983" />
	</node>
	<node lat="61.04138611496552" lon="5.484663887893621" id="-32760">
		<tag k="alt_name" v="Apestøa" />
		<tag k="fixme" v="verify maritime location" />
		<tag k="mooring" v="yes" />
		<tag k="name" v="Apestoda" />
		<tag k="place" v="locality" />
		<tag k="ssr:stedsnr" v="130030" />
	</node>
	<node lat="60.93664819502122" lon="5.013930062688442" id="-32761">
		<tag k="fixme" v="consider place=hamlet" />
		<tag k="name" v="Setenes" />
		<tag k="place" v="farm" />
		<tag k="ssr:stedsnr" v="130234" />
	</node>
	<node lat="61.07677316960751" lon="5.160737422878289" id="-32762">
		<tag k="fixme" v="consider place=hamlet" />
		<tag k="name" v="Rutle" />
		<tag k="place" v="farm" />
		<tag k="ssr:stedsnr" v="252544" />
	</node>
	<node lat="61.07220833761786" lon="5.182788894132257" id="-32763">
		<tag k="name" v="Bukkholmen" />
		<tag k="place" v="islet" />
		<tag k="ssr:stedsnr" v="252545" />
	</node>
	<node lat="61.02328055971684" lon="5.087344448930007" id="-32764">
		<tag k="alt_name" v="Ramsliholmen" />
		<tag k="name" v="Ramsliholmane" />
		<tag k="place" v="islet" />
		<tag k="ssr:stedsnr" v="130371" />
	</node>
	<node lat="61.04083055291104" lon="5.040100006651668" id="-32765">
		<tag k="name" v="Storevika" />
		<tag k="natural" v="bay" />
		<tag k="ssr:stedsnr" v="130390" />
	</node>
	<node lat="61.06021111559726" lon="5.166708338111918" id="-32766">
		<tag k="fixme" v="consider natural=peak for the most distinct mountains in the district" />
		<tag k="name" v="Slettheia" />
		<tag k="natural" v="hill" />
		<tag k="place" v="locality" />
		<tag k="ssr:stedsnr" v="252561" />
	</node>
	<node lat="60.91030277436326" lon="4.941788896103474" id="-32767">
		<tag k="name" v="Knivhaugen" />
		<tag k="natural" v="hill" />
		<tag k="place" v="locality" />
		<tag k="ssr:stedsnr" v="130405" />
	</node>
	<node lat="61.049705552775606" lon="5.239580557629086" id="-32768">
		<tag k="fixme" v="consider natural=peak for the most distinct mountains in the district" />
		<tag k="name" v="Leina" />
		<tag k="natural" v="hill" />
		<tag k="place" v="locality" />
		<tag k="ssr:stedsnr" v="130602" />
	</node>
	<node lat="61.0391361069462" lon="5.257327784276695" id="-32769">
		<tag k="fixme" v="consider natural=peak for the most distinct mountains in the district" />
		<tag k="name" v="Dyråsen" />
		<tag k="natural" v="hill" />
		<tag k="place" v="locality" />
		<tag k="ssr:stedsnr" v="252573" />
	</node>
	<node lat="61.03614444277473" lon="5.219338881771148" id="-32770">
		<tag k="alt_name" v="Dalsbotnfjell" />
		<tag k="fixme" v="consider natural=peak for the most distinct mountains in the district" />
		<tag k="name" v="Dalsbotnfjellet" />
		<tag k="natural" v="hill" />
		<tag k="place" v="locality" />
		<tag k="ssr:stedsnr" v="252574" />
	</node>
	<node lat="61.049216668968825" lon="5.266574994000114" id="-32771">
		<tag k="alt_name" v="Skarfjellet" />
		<tag k="fixme" v="consider natural=peak for the most distinct mountains in the district" />
		<tag k="name" v="Skardfjellet" />
		<tag k="natural" v="hill" />
		<tag k="place" v="locality" />
		<tag k="ssr:stedsnr" v="130599" />
	</node>
	<node lat="60.96672558132536" lon="5.191569320252874" id="-32772">
		<tag k="name" v="Klubben" />
		<tag k="natural" v="hill" />
		<tag k="place" v="locality" />
		<tag k="ssr:stedsnr" v="130712" />
	</node>
	<node lat="61.00571666238157" lon="5.388022224218832" id="-32773">
		<tag k="name" v="Taklevatnet" />
		<tag k="natural" v="water" />
		<tag k="ssr:stedsnr" v="130907" />
		<tag k="water" v="lake" />
	</node>
	<node lat="61.00290275764169" lon="5.190395671300557" id="-32774">
		<tag k="fixme" v="consider place=hamlet" />
		<tag k="name" v="Haveland" />
		<tag k="place" v="farm" />
		<tag k="ssr:stedsnr" v="130928" />
	</node>
	<node lat="60.9184861066703" lon="5.341602769262299" id="-32775">
		<tag k="name" v="Holten" />
		<tag k="natural" v="hill" />
		<tag k="place" v="locality" />
		<tag k="ssr:stedsnr" v="130848" />
	</node>
	<node lat="60.93042499725802" lon="5.437558325833245" id="-32776">
		<tag k="name" v="Sulevassdalen" />
		<tag k="natural" v="valley" />
		<tag k="place" v="locality" />
		<tag k="ssr:stedsnr" v="130872" />
	</node>
	<node lat="61.03236252956719" lon="5.178857098458568" id="-32777">
		<tag k="alt_name" v="Nordgulvatnet, nordre;Nordre Nordgulvatnet" />
		<tag k="name" v="Nordste Nordgulvatnet" />
		<tag k="natural" v="water" />
		<tag k="ssr:stedsnr" v="130875" />
	</node>
	<node lat="61.02294864219156" lon="5.224739626928225" id="-32778">
		<tag k="name" v="Berghaugtjørna" />
		<tag k="natural" v="water" />
		<tag k="ssr:stedsnr" v="130891" />
	</node>
	<node lat="61.03807500196409" lon="5.326316674055523" id="-32779">
		<tag k="name" v="Lyreholneset" />
		<tag k="natural" v="cape" />
		<tag k="ssr:stedsnr" v="252878" />
	</node>
	<node lat="61.01977777538285" lon="5.1599805584251355" id="-32780">
		<tag k="name" v="Bjørndalstjørna" />
		<tag k="natural" v="water" />
		<tag k="ssr:stedsnr" v="252884" />
	</node>
	<node lat="61.02706388768747" lon="5.199208340041712" id="-32781">
		<tag k="name" v="Tungebotnen" />
		<tag k="natural" v="valley" />
		<tag k="place" v="locality" />
		<tag k="ssr:stedsnr" v="252870" />
	</node>
	<node lat="61.02355555530725" lon="5.13141944710589" id="-32782">
		<tag k="name" v="Risestølsvatnet" />
		<tag k="natural" v="water" />
		<tag k="ssr:stedsnr" v="252886" />
	</node>
	<node lat="61.02228610852078" lon="5.243180560554602" id="-32783">
		<tag k="name" v="Rabbetjørna" />
		<tag k="natural" v="water" />
		<tag k="ssr:stedsnr" v="252888" />
	</node>
	<node lat="60.997949998753704" lon="4.923694448850867" id="-32785">
		<tag k="name" v="Breidvika" />
		<tag k="natural" v="bay" />
		<tag k="ssr:stedsnr" v="146020" />
	</node>
	<node lat="60.92923611202493" lon="5.0226166596528214" id="-32786">
		<tag k="name" v="Hatteneset" />
		<tag k="natural" v="cape" />
		<tag k="ssr:stedsnr" v="146036" />
	</node>
	<node lat="60.92910833055506" lon="5.017997229652004" id="-32787">
		<tag k="name" v="Risholmen" />
		<tag k="place" v="islet" />
		<tag k="ssr:stedsnr" v="146037" />
	</node>
	<node lat="60.911222222888135" lon="5.022372226308465" id="-32788">
		<tag k="name" v="Leirenden" />
		<tag k="natural" v="cape" />
		<tag k="ssr:stedsnr" v="146040" />
	</node>
	<node lat="60.93275555995834" lon="4.856350000770349" id="-32789">
		<tag k="name" v="Keipeneset" />
		<tag k="natural" v="cape" />
		<tag k="ssr:stedsnr" v="146078" />
	</node>
	<node lat="60.92380000063328" lon="4.781711106888061" id="-32790">
		<tag k="name" v="Avløypet" />
		<tag k="place" v="islet" />
		<tag k="ssr:stedsnr" v="146080" />
	</node>
	<node lat="60.92916111079251" lon="4.882144442723698" id="-32791">
		<tag k="alt_name" v="Søre Risøysundet" />
		<tag k="name" v="Risøysundet" />
		<tag k="natural" v="strait" />
		<tag k="ssr:stedsnr" v="146086" />
	</node>
	<node lat="60.92086944300136" lon="4.751697217410824" id="-32792">
		<tag k="name" v="Trolleskallen" />
		<tag k="natural" v="shoal" />
		<tag k="place" v="locality" />
		<tag k="ssr:stedsnr" v="146105" />
	</node>
	<node lat="60.9687388920512" lon="5.0753017563805" id="-32793">
		<tag k="fixme" v="consider place=hamlet" />
		<tag k="name" v="Fonna" />
		<tag k="place" v="farm" />
		<tag k="ssr:stedsnr" v="146181" />
	</node>
	<node lat="61.00804999558745" lon="4.925563886454329" id="-32794">
		<tag k="fixme" v="consider seamark:type=rock or natural=shoal" />
		<tag k="name" v="Vedalskjera" />
		<tag k="place" v="islet" />
		<tag k="ssr:stedsnr" v="146949" />
	</node>
	<node lat="61.00689999900581" lon="4.964100009025674" id="-32795">
		<tag k="name" v="Ytre Kyllaren" />
		<tag k="natural" v="cape" />
		<tag k="ssr:stedsnr" v="146951" />
	</node>
	<node lat="60.95114166860862" lon="4.8587944448504805" id="-32796">
		<tag k="name" v="Lauvøyna" />
		<tag k="place" v="island" />
		<tag k="ssr:stedsnr" v="310292" />
	</node>
	<node lat="60.964205556487464" lon="5.056613880049519" id="-32797">
		<tag k="bay" v="fjord" />
		<tag k="name" v="Gulafjorden" />
		<tag k="natural" v="bay" />
		<tag k="ssr:stedsnr" v="310296" />
	</node>
	<node lat="60.963325002784195" lon="5.016999994379711" id="-32798">
		<tag k="alt_name" v="Heggvågen, nordre;Nordre Heggevågen" />
		<tag k="name" v="Nordre Heggvågen" />
		<tag k="natural" v="bay" />
		<tag k="ssr:stedsnr" v="310297" />
	</node>
	<node lat="61.01436111280585" lon="5.42400277423813" id="-32799">
		<tag k="name" v="Orreselet" />
		<tag k="natural" v="hill" />
		<tag k="place" v="locality" />
		<tag k="ssr:stedsnr" v="151753" />
	</node>
	<node lat="60.93029166595985" lon="5.12922778204975" id="-32800">
		<tag k="name" v="Moldeneset" />
		<tag k="natural" v="cape" />
		<tag k="ssr:stedsnr" v="151864" />
	</node>
	<node lat="60.942199999846466" lon="5.146444446282801" id="-32801">
		<tag k="name" v="Rindane" />
		<tag k="natural" v="hill" />
		<tag k="place" v="locality" />
		<tag k="ssr:stedsnr" v="151868" />
	</node>
	<node lat="60.9386083336015" lon="5.109597228421754" id="-32802">
		<tag k="name" v="Brekkenova" />
		<tag k="natural" v="hill" />
		<tag k="place" v="locality" />
		<tag k="ssr:stedsnr" v="151870" />
	</node>
	<node lat="60.966230551434634" lon="5.006213883442796" id="-32803">
		<tag k="fixme" v="consider seamark:type=rock or natural=shoal" />
		<tag k="name" v="Sleipeskjeret" />
		<tag k="place" v="islet" />
		<tag k="ssr:stedsnr" v="155811" />
	</node>
	<node lat="60.92854444219571" lon="5.072827776403843" id="-32804">
		<tag k="name" v="Brandsdalsskaret" />
		<tag k="natural" v="valley" />
		<tag k="place" v="locality" />
		<tag k="ssr:stedsnr" v="156106" />
	</node>
	<node lat="60.900469448355516" lon="5.1140611033952315" id="-32805">
		<tag k="name" v="Merkjesvika" />
		<tag k="natural" v="bay" />
		<tag k="ssr:stedsnr" v="156114" />
	</node>
	<node lat="60.93150277331819" lon="4.998852773811465" id="-32806">
		<tag k="fixme" v="consider natural=peak for the most distinct mountains in the district" />
		<tag k="name" v="Litlefjellet" />
		<tag k="natural" v="hill" />
		<tag k="place" v="locality" />
		<tag k="ssr:stedsnr" v="156117" />
	</node>
	<node lat="60.93447499667155" lon="5.050494453836368" id="-32807">
		<tag k="name" v="Ospehaugen" />
		<tag k="natural" v="hill" />
		<tag k="place" v="locality" />
		<tag k="ssr:stedsnr" v="156122" />
	</node>
	<node lat="60.90146666386443" lon="5.142888886833919" id="-32808">
		<tag k="fixme" v="consider natural=peak for the most distinct mountains in the district" />
		<tag k="name" v="Leiteåsen" />
		<tag k="natural" v="hill" />
		<tag k="place" v="locality" />
		<tag k="ssr:stedsnr" v="156152" />
	</node>
	<node lat="60.942311113071625" lon="5.053105550316129" id="-32809">
		<tag k="name" v="Hestehaugen" />
		<tag k="natural" v="hill" />
		<tag k="place" v="locality" />
		<tag k="ssr:stedsnr" v="156158" />
	</node>
	<node lat="60.93531944278031" lon="5.089994442819517" id="-32810">
		<tag k="name" v="Bøtjørna" />
		<tag k="natural" v="water" />
		<tag k="ssr:stedsnr" v="156066" />
	</node>
	<node lat="60.95140555761062" lon="4.797544445440288" id="-32811">
		<tag k="name" v="Bøneset" />
		<tag k="natural" v="cape" />
		<tag k="ssr:stedsnr" v="156365" />
	</node>
	<node lat="60.93903332983852" lon="4.794399996078569" id="-32812">
		<tag k="name" v="Koksøyberget" />
		<tag k="natural" v="hill" />
		<tag k="place" v="locality" />
		<tag k="ssr:stedsnr" v="156368" />
	</node>
	<node lat="60.95433611378294" lon="4.921555552413213" id="-32813">
		<tag k="name" v="Skogholmen" />
		<tag k="place" v="islet" />
		<tag k="ssr:stedsnr" v="156510" />
	</node>
	<node lat="60.87315000395398" lon="5.125672223021558" id="-32814">
		<tag k="fixme" v="consider natural=peak for the most distinct mountains in the district" />
		<tag k="name" v="Langemyrranen" />
		<tag k="natural" v="hill" />
		<tag k="place" v="locality" />
		<tag k="ssr:stedsnr" v="156256" />
	</node>
	<node lat="60.903988890915564" lon="4.925222223508011" id="-32815">
		<tag k="name" v="Naustvågen" />
		<tag k="natural" v="bay" />
		<tag k="ssr:stedsnr" v="156406" />
	</node>
	<node lat="60.90948333322393" lon="5.089155561804608" id="-32816">
		<tag k="name" v="Søre Ranen" />
		<tag k="natural" v="ridge" />
		<tag k="place" v="locality" />
		<tag k="ssr:stedsnr" v="156909" />
	</node>
	<node lat="60.89222222583607" lon="5.096436118606371" id="-32817">
		<tag k="name" v="Klypemyra" />
		<tag k="natural" v="wetland" />
		<tag k="ssr:stedsnr" v="156813" />
	</node>
	<node lat="60.96635555781945" lon="5.375547229470477" id="-32818">
		<tag k="name" v="Skorvane" />
		<tag k="natural" v="hill" />
		<tag k="place" v="locality" />
		<tag k="ssr:stedsnr" v="157047" />
	</node>
	<node lat="60.931011109551754" lon="5.383936120240281" id="-32819">
		<tag k="name" v="Selvikskaret" />
		<tag k="natural" v="valley" />
		<tag k="place" v="locality" />
		<tag k="ssr:stedsnr" v="157203" />
	</node>
	<node lat="60.9366722194395" lon="5.387063891967126" id="-32820">
		<tag k="name" v="Liskorane" />
		<tag k="place" v="locality" />
		<tag k="ssr:stedsnr" v="157204" />
	</node>
	<node lat="61.045977776438804" lon="5.098663892179011" id="-32821">
		<tag k="fixme" v="consider natural=peak for the most distinct mountains in the district" />
		<tag k="name" v="Åfjellet" />
		<tag k="natural" v="hill" />
		<tag k="place" v="locality" />
		<tag k="ssr:stedsnr" v="157218" />
	</node>
	<node lat="60.95902222123844" lon="5.20608611293129" id="-32822">
		<tag k="name" v="Myrbærhaugen" />
		<tag k="natural" v="hill" />
		<tag k="place" v="locality" />
		<tag k="ssr:stedsnr" v="157256" />
	</node>
	<node lat="61.00899444123735" lon="4.9876638858643" id="-32823">
		<tag k="name" v="Husdalen" />
		<tag k="natural" v="valley" />
		<tag k="place" v="locality" />
		<tag k="ssr:stedsnr" v="157262" />
	</node>
	<node lat="60.878827775655466" lon="5.156902782940367" id="-32824">
		<tag k="name" v="Nordre Høyvikdalen" />
		<tag k="natural" v="valley" />
		<tag k="place" v="locality" />
		<tag k="ssr:stedsnr" v="157263" />
	</node>
	<node lat="60.89032500272625" lon="4.72179166859695" id="-32825">
		<tag k="name" v="Laksetaren" />
		<tag k="natural" v="cape" />
		<tag k="ssr:stedsnr" v="157268" />
	</node>
	<node lat="61.00501667061442" lon="5.198777784225731" id="-32826">
		<tag k="name" v="Storekrene" />
		<tag k="place" v="locality" />
		<tag k="ssr:stedsnr" v="156951" />
	</node>
	<node lat="61.02928888829099" lon="5.3639166663443225" id="-32827">
		<tag k="name" v="Grønebakkane" />
		<tag k="natural" v="slope" />
		<tag k="place" v="locality" />
		<tag k="ssr:stedsnr" v="157107" />
	</node>
	<node lat="61.00323611137159" lon="5.378252784952308" id="-32828">
		<tag k="name" v="Frivika" />
		<tag k="natural" v="bay" />
		<tag k="ssr:stedsnr" v="157158" />
	</node>
	<node lat="61.014186112449806" lon="5.378130547572603" id="-32829">
		<tag k="name" v="Brigdalen" />
		<tag k="natural" v="valley" />
		<tag k="place" v="locality" />
		<tag k="ssr:stedsnr" v="157164" />
	</node>
	<node lat="60.963238886922" lon="5.317130550310308" id="-32830">
		<tag k="name" v="Mørkebotnen" />
		<tag k="natural" v="valley" />
		<tag k="place" v="locality" />
		<tag k="ssr:stedsnr" v="157304" />
	</node>
	<node lat="60.9674944477226" lon="5.306027783363115" id="-32831">
		<tag k="name" v="Oksevika" />
		<tag k="natural" v="bay" />
		<tag k="ssr:stedsnr" v="157305" />
	</node>
	<node lat="61.02963610691978" lon="5.059102780474051" id="-32832">
		<tag k="name" v="Kvitetjørna" />
		<tag k="natural" v="water" />
		<tag k="ssr:stedsnr" v="157402" />
	</node>
	<node lat="60.913369440657355" lon="5.174269442890162" id="-32833">
		<tag k="name" v="Setretangen" />
		<tag k="natural" v="slope" />
		<tag k="place" v="locality" />
		<tag k="ssr:stedsnr" v="157499" />
	</node>
	<node lat="60.91196666591172" lon="5.169738888834102" id="-32834">
		<tag k="name" v="Galtekleiva" />
		<tag k="natural" v="slope" />
		<tag k="place" v="locality" />
		<tag k="ssr:stedsnr" v="157501" />
	</node>
	<node lat="61.0196861148954" lon="5.587899991253626" id="-32835">
		<tag k="name" v="Kjerringeknulten" />
		<tag k="natural" v="hill" />
		<tag k="place" v="locality" />
		<tag k="ssr:stedsnr" v="157610" />
	</node>
	<node lat="61.0440805515524" lon="5.2879694408797215" id="-32836">
		<tag k="name" v="Gjota" />
		<tag k="natural" v="valley" />
		<tag k="place" v="locality" />
		<tag k="ssr:stedsnr" v="157399" />
	</node>
	<node lat="60.969186112170924" lon="5.259861107720005" id="-32837">
		<tag k="name" v="Rusta" />
		<tag k="natural" v="hill" />
		<tag k="place" v="locality" />
		<tag k="ssr:stedsnr" v="157400" />
	</node>
	<node lat="60.92688888739974" lon="5.191580555439555" id="-32838">
		<tag k="name" v="Tverråelva" />
		<tag k="ssr:stedsnr" v="157525" />
		<tag k="waterway" v="river" />
	</node>
	<node lat="60.912086112874455" lon="4.80357499626539" id="-32839">
		<tag k="name" v="Grønholmen" />
		<tag k="place" v="islet" />
		<tag k="ssr:stedsnr" v="157705" />
	</node>
	<node lat="60.9562722180562" lon="5.491008329642485" id="-32840">
		<tag k="name" v="Dubakken" />
		<tag k="natural" v="slope" />
		<tag k="place" v="locality" />
		<tag k="ssr:stedsnr" v="157700" />
	</node>
	<node lat="60.89279999669055" lon="5.059669452238042" id="-32841">
		<tag k="name" v="Tverrdalsryggen" />
		<tag k="natural" v="ridge" />
		<tag k="place" v="locality" />
		<tag k="ssr:stedsnr" v="157805" />
	</node>
	<node lat="61.06212500013827" lon="5.175124996312988" id="-32842">
		<tag k="name" v="Nonshaugen" />
		<tag k="natural" v="hill" />
		<tag k="place" v="locality" />
		<tag k="ssr:stedsnr" v="157816" />
	</node>
	<node lat="60.88148333457936" lon="5.095616668036351" id="-32843">
		<tag k="name" v="Måsholmen" />
		<tag k="place" v="islet" />
		<tag k="ssr:stedsnr" v="157817" />
	</node>
	<node lat="60.98283333037707" lon="5.490205558504298" id="-32844">
		<tag k="name" v="Kvernhuselva" />
		<tag k="ssr:stedsnr" v="157818" />
		<tag k="waterway" v="stream" />
	</node>
	<node lat="61.04312777955947" lon="5.186699999435741" id="-32845">
		<tag k="fixme" v="consider natural=peak for the most distinct mountains in the district" />
		<tag k="name" v="Oksla" />
		<tag k="natural" v="hill" />
		<tag k="place" v="locality" />
		<tag k="ssr:stedsnr" v="157772" />
	</node>
	<node lat="60.8906472265137" lon="5.062225005120824" id="-32846">
		<tag k="name" v="Stemmelsmyra" />
		<tag k="natural" v="wetland" />
		<tag k="ssr:stedsnr" v="157779" />
	</node>
	<node lat="60.91100277813859" lon="4.996380554281206" id="-32847">
		<tag k="name" v="Merketjørna" />
		<tag k="natural" v="water" />
		<tag k="ssr:stedsnr" v="157952" />
	</node>
	<node lat="61.00143888926186" lon="5.196397221269772" id="-32848">
		<tag k="name" v="Bukkegjelet" />
		<tag k="natural" v="valley" />
		<tag k="place" v="locality" />
		<tag k="ssr:stedsnr" v="157956" />
	</node>
	<node lat="61.001349999019475" lon="5.200891672733319" id="-32849">
		<tag k="name" v="Rysjebotsleina" />
		<tag k="natural" v="hill" />
		<tag k="place" v="locality" />
		<tag k="ssr:stedsnr" v="157965" />
	</node>
	<node lat="61.04905832961737" lon="5.499669444019547" id="-32850">
		<tag k="name" v="Snauskolten" />
		<tag k="natural" v="hill" />
		<tag k="place" v="locality" />
		<tag k="ssr:stedsnr" v="157998" />
	</node>
	<node lat="60.85801944550169" lon="4.839230563648246" id="-32852">
		<tag k="name" v="Søre Hillesøyvågen" />
		<tag k="natural" v="bay" />
		<tag k="ssr:stedsnr" v="177704" />
	</node>
	<node lat="60.88575555756317" lon="4.974652782850296" id="-32853">
		<tag k="name" v="Ånneland" />
		<tag k="place" v="neighbourhood" />
		<tag k="ssr:stedsnr" v="177875" />
	</node>
	<node lat="60.97539444213573" lon="4.963452773343735" id="-32854">
		<tag k="fixme" v="consider natural=peak for the most distinct mountains in the district" />
		<tag k="name" v="Smørdalsfjellet" />
		<tag k="natural" v="hill" />
		<tag k="place" v="locality" />
		<tag k="ssr:stedsnr" v="189314" />
	</node>
	<node lat="60.97819838369426" lon="4.997391434587519" id="-32855">
		<tag k="alt_name" v="Stevnebø" />
		<tag k="fixme" v="consider place=hamlet" />
		<tag k="name" v="Stemnebø" />
		<tag k="place" v="farm" />
		<tag k="ssr:stedsnr" v="189319" />
	</node>
	<node lat="60.974838887597926" lon="4.847400008351163" id="-32856">
		<tag k="name" v="Lyngholmen" />
		<tag k="place" v="islet" />
		<tag k="ssr:stedsnr" v="189324" />
	</node>
	<node lat="60.97503333791604" lon="5.082680560004573" id="-32857">
		<tag k="name" v="Gruva" />
		<tag k="natural" v="bay" />
		<tag k="ssr:stedsnr" v="189285" />
	</node>
	<node lat="60.95615832881789" lon="4.743855552410047" id="-32858">
		<tag k="name" v="Hansgrunnen" />
		<tag k="natural" v="shoal" />
		<tag k="place" v="locality" />
		<tag k="ssr:stedsnr" v="189288" />
	</node>
	<node lat="60.97645833368021" lon="5.501661119607311" id="-32859">
		<tag k="fixme" v="consider natural=peak for the most distinct mountains in the district" />
		<tag k="name" v="Kyrkjebustene" />
		<tag k="natural" v="hill" />
		<tag k="place" v="locality" />
		<tag k="ssr:stedsnr" v="190312" />
	</node>
	<node lat="60.975050004220286" lon="5.516575005718544" id="-32860">
		<tag k="alt_name" v="Kantelheia" />
		<tag k="name" v="Kantilheia" />
		<tag k="natural" v="hill" />
		<tag k="place" v="locality" />
		<tag k="ssr:stedsnr" v="190313" />
	</node>
	<node lat="60.93234444081012" lon="4.810152786442284" id="-32861">
		<tag k="alt_name" v="Strømsøyna" />
		<tag k="name" v="Straumøyna" />
		<tag k="place" v="islet" />
		<tag k="ssr:stedsnr" v="190260" />
	</node>
	<node lat="60.92670277905335" lon="4.8296277829793" id="-32862">
		<tag k="name" v="Nonshaugen" />
		<tag k="natural" v="hill" />
		<tag k="place" v="locality" />
		<tag k="ssr:stedsnr" v="190263" />
	</node>
	<node lat="60.874947220869025" lon="4.876452781754041" id="-32863">
		<tag k="name" v="Ærneshaugen" />
		<tag k="natural" v="hill" />
		<tag k="place" v="locality" />
		<tag k="ssr:stedsnr" v="190429" />
	</node>
	<node lat="60.884213890192875" lon="4.723530550889476" id="-32864">
		<tag k="name" v="Vassøyna" />
		<tag k="place" v="islet" />
		<tag k="ssr:stedsnr" v="190469" />
	</node>
	<node lat="60.87493611070833" lon="4.738569453163191" id="-32865">
		<tag k="alt_name" v="Litle Besta" />
		<tag k="name" v="Litlebeste" />
		<tag k="place" v="islet" />
		<tag k="ssr:stedsnr" v="190470" />
	</node>
	<node lat="60.91019999983655" lon="5.0159055556985255" id="-32866">
		<tag k="alt_name" v="Holmevatnet" />
		<tag k="name" v="Holmetjørna" />
		<tag k="natural" v="water" />
		<tag k="ssr:stedsnr" v="190479" />
	</node>
	<node lat="60.909480732048536" lon="4.958868194232171" id="-32867">
		<tag k="alt_name" v="Mjøsundet" />
		<tag k="name" v="Mjåsundet" />
		<tag k="natural" v="strait" />
		<tag k="ssr:stedsnr" v="190482" />
	</node>
	<node lat="61.04839444863592" lon="5.043566657699248" id="-32868">
		<tag k="name" v="Sjøneset" />
		<tag k="natural" v="cape" />
		<tag k="ssr:stedsnr" v="190528" />
	</node>
	<node lat="60.97424232197307" lon="5.334730434381482" id="-32869">
		<tag k="name" v="Vindskardtjørna" />
		<tag k="natural" v="water" />
		<tag k="ssr:stedsnr" v="190823" />
	</node>
	<node lat="60.966613892849026" lon="5.237569446272855" id="-32870">
		<tag k="bay" v="fjord" />
		<tag k="name" v="Austgulfjorden" />
		<tag k="natural" v="bay" />
		<tag k="ssr:stedsnr" v="190826" />
	</node>
	<node lat="60.956674997154366" lon="5.329394436198793" id="-32871">
		<tag k="name" v="Fossane" />
		<tag k="place" v="locality" />
		<tag k="ssr:stedsnr" v="190867" />
	</node>
	<node lat="60.90853610668512" lon="5.195863889992771" id="-32872">
		<tag k="fixme" v="consider natural=peak for the most distinct mountains in the district" />
		<tag k="name" v="Storenova" />
		<tag k="natural" v="hill" />
		<tag k="place" v="locality" />
		<tag k="ssr:stedsnr" v="190959" />
	</node>
	<node lat="61.055925000026996" lon="5.507708326367652" id="-32873">
		<tag k="name" v="Oppedalsvika" />
		<tag k="natural" v="bay" />
		<tag k="ssr:stedsnr" v="191170" />
	</node>
</osm>
