<?xml version="1.0" encoding="UTF-8"?>
<osm version="0.6" generator="osmapis">
	<node lat="60.99787499937175" lon="4.982049993369518" id="-32449">
		<tag k="fixme" v="consider natural=peak for the most distinct mountains in the district" />
		<tag k="name" v="Ramnefjellet" />
		<tag k="natural" v="hill" />
		<tag k="place" v="locality" />
		<tag k="ssr:stedsnr" v="7366" />
	</node>
	<node lat="60.99281666476322" lon="5.355991667474673" id="-32452">
		<tag k="alt_name" v="Austdalen, vetle;Austdalen" />
		<tag k="name" v="Vetle Austdalen" />
		<tag k="natural" v="valley" />
		<tag k="place" v="locality" />
		<tag k="ssr:stedsnr" v="8150" />
	</node>
	<node lat="60.93861389094097" lon="5.207716663909836" id="-32454">
		<tag k="fixme" v="consider natural=peak for the most distinct mountains in the district" />
		<tag k="name" v="Dalsfjellet" />
		<tag k="natural" v="hill" />
		<tag k="place" v="locality" />
		<tag k="ssr:stedsnr" v="8843" />
	</node>
	<node lat="60.98241388766796" lon="5.262044450268461" id="-32457">
		<tag k="name" v="Bjørndalen" />
		<tag k="natural" v="valley" />
		<tag k="place" v="locality" />
		<tag k="ssr:stedsnr" v="8789" />
	</node>
	<node lat="60.92138611158685" lon="5.165025002893965" id="-32459">
		<tag k="fixme" v="consider natural=peak for the most distinct mountains in the district" />
		<tag k="name" v="Nonkletten" />
		<tag k="natural" v="hill" />
		<tag k="place" v="locality" />
		<tag k="ssr:stedsnr" v="8908" />
	</node>
	<node lat="60.90013888869194" lon="5.16163888001292" id="-32460">
		<tag k="fixme" v="consider natural=peak for the most distinct mountains in the district" />
		<tag k="name" v="Høgelia" />
		<tag k="natural" v="hill" />
		<tag k="place" v="locality" />
		<tag k="ssr:stedsnr" v="8910" />
	</node>
	<node lat="60.94259166596681" lon="5.541130557061998" id="-32461">
		<tag k="name" v="Kringledalen" />
		<tag k="natural" v="valley" />
		<tag k="place" v="locality" />
		<tag k="ssr:stedsnr" v="9237" />
	</node>
	<node lat="61.04001110871294" lon="5.123499993389942" id="-32465">
		<tag k="alt_name" v="Tjørndalsgjelet" />
		<tag k="name" v="Tjørndalsgilet" />
		<tag k="natural" v="valley" />
		<tag k="place" v="locality" />
		<tag k="ssr:stedsnr" v="9611" />
	</node>
	<node lat="61.059652777950106" lon="5.188863889779832" id="-32472">
		<tag k="name" v="Gravdalen" />
		<tag k="natural" v="valley" />
		<tag k="place" v="locality" />
		<tag k="ssr:stedsnr" v="9599" />
	</node>
	<node lat="60.96076944773388" lon="5.323338885373144" id="-32475">
		<tag k="fixme" v="consider natural=peak for the most distinct mountains in the district" />
		<tag k="name" v="Tverrhammaren" />
		<tag k="natural" v="hill" />
		<tag k="place" v="locality" />
		<tag k="ssr:stedsnr" v="9786" />
	</node>
	<node lat="60.966069442279746" lon="5.326202776072672" id="-32476">
		<tag k="fixme" v="consider natural=peak for the most distinct mountains in the district" />
		<tag k="name" v="Vetlefjellet" />
		<tag k="natural" v="hill" />
		<tag k="place" v="locality" />
		<tag k="ssr:stedsnr" v="9787" />
	</node>
	<node lat="61.000658330402956" lon="5.384747228694954" id="-32477">
		<tag k="alt_name" v="Myrstølknulten" />
		<tag k="name" v="Myrstølsknulten" />
		<tag k="natural" v="hill" />
		<tag k="place" v="locality" />
		<tag k="ssr:stedsnr" v="9902" />
	</node>
	<node lat="61.01522499628488" lon="5.234313890447568" id="-32478">
		<tag k="name" v="Dundalen" />
		<tag k="natural" v="valley" />
		<tag k="place" v="locality" />
		<tag k="ssr:stedsnr" v="9913" />
	</node>
	<node lat="60.976649998891865" lon="5.011872225032075" id="-32490">
		<tag k="name" v="Dukane" />
		<tag k="place" v="locality" />
		<tag k="ssr:stedsnr" v="30771" />
	</node>
	<node lat="60.98058889191484" lon="5.000161112340704" id="-32491">
		<tag k="name" v="Florsdalen" />
		<tag k="natural" v="valley" />
		<tag k="place" v="locality" />
		<tag k="ssr:stedsnr" v="30773" />
	</node>
	<node lat="60.98045832908823" lon="5.12392777401528" id="-32492">
		<tag k="name" v="Knultane" />
		<tag k="natural" v="hill" />
		<tag k="place" v="locality" />
		<tag k="ssr:stedsnr" v="30804" />
	</node>
	<node lat="60.941694444712084" lon="5.151163894807529" id="-32493">
		<tag k="name" v="Gunnhildtonen" />
		<tag k="natural" v="hill" />
		<tag k="place" v="locality" />
		<tag k="ssr:stedsnr" v="30817" />
	</node>
	<node lat="60.886761115599114" lon="4.8867861118698555" id="-32495">
		<tag k="name" v="Skrinet" />
		<tag k="place" v="locality" />
		<tag k="ssr:stedsnr" v="34421" />
	</node>
	<node lat="60.84452221911813" lon="5.1183194498806985" id="-32500">
		<tag k="name" v="Skoghaugen" />
		<tag k="natural" v="hill" />
		<tag k="place" v="locality" />
		<tag k="ssr:stedsnr" v="35170" />
	</node>
	<node lat="61.054213892006466" lon="5.100674990411347" id="-32501">
		<tag k="name" v="Årdalen" />
		<tag k="natural" v="valley" />
		<tag k="place" v="locality" />
		<tag k="ssr:stedsnr" v="35305" />
	</node>
	<node lat="61.012122221382434" lon="5.135552781124718" id="-32502">
		<tag k="name" v="Nordre Brekkene" />
		<tag k="natural" v="slope" />
		<tag k="place" v="locality" />
		<tag k="ssr:stedsnr" v="35605" />
	</node>
	<node lat="60.88432777982897" lon="5.067172223397232" id="-32505">
		<tag k="fixme" v="consider natural=peak for the most distinct mountains in the district" />
		<tag k="name" v="Store Baståsen" />
		<tag k="natural" v="hill" />
		<tag k="place" v="locality" />
		<tag k="ssr:stedsnr" v="35764" />
	</node>
	<node lat="61.0324249971188" lon="5.186049996936607" id="-32507">
		<tag k="name" v="Illeskornova" />
		<tag k="natural" v="hill" />
		<tag k="place" v="locality" />
		<tag k="ssr:stedsnr" v="35922" />
	</node>
	<node lat="61.03269999670702" lon="5.191130547871541" id="-32508">
		<tag k="name" v="Dalsbakken" />
		<tag k="natural" v="slope" />
		<tag k="place" v="locality" />
		<tag k="ssr:stedsnr" v="35923" />
	</node>
	<node lat="60.9050861145234" lon="5.053738879995914" id="-32509">
		<tag k="name" v="Hellrehaugen" />
		<tag k="natural" v="hill" />
		<tag k="place" v="locality" />
		<tag k="ssr:stedsnr" v="35804" />
	</node>
	<node lat="61.05884167029015" lon="5.189455549928604" id="-32511">
		<tag k="name" v="Gravdalsbrekka" />
		<tag k="natural" v="slope" />
		<tag k="place" v="locality" />
		<tag k="ssr:stedsnr" v="35817" />
	</node>
	<node lat="61.06815277970816" lon="5.1829222184981285" id="-32512">
		<tag k="name" v="Utgjerdet" />
		<tag k="place" v="locality" />
		<tag k="ssr:stedsnr" v="35822" />
	</node>
	<node lat="60.99148611449985" lon="5.445650003040925" id="-32513">
		<tag k="fixme" v="consider natural=peak for the most distinct mountains in the district" />
		<tag k="name" v="Knulten" />
		<tag k="natural" v="hill" />
		<tag k="place" v="locality" />
		<tag k="ssr:stedsnr" v="36002" />
	</node>
	<node lat="61.01239722361623" lon="5.3516555534352" id="-32514">
		<tag k="name" v="Bjørnelia" />
		<tag k="natural" v="slope" />
		<tag k="place" v="locality" />
		<tag k="ssr:stedsnr" v="36171" />
	</node>
	<node lat="61.0004111110256" lon="5.345544445869737" id="-32515">
		<tag k="name" v="Ospehaugen" />
		<tag k="natural" v="hill" />
		<tag k="place" v="locality" />
		<tag k="ssr:stedsnr" v="36173" />
	</node>
	<node lat="60.99791944406286" lon="5.356152769973141" id="-32516">
		<tag k="name" v="Sørlia" />
		<tag k="natural" v="slope" />
		<tag k="place" v="locality" />
		<tag k="ssr:stedsnr" v="36174" />
	</node>
	<node lat="60.91368333729154" lon="5.145930555199828" id="-32517">
		<tag k="name" v="Helleren" />
		<tag k="natural" v="hill" />
		<tag k="place" v="locality" />
		<tag k="ssr:stedsnr" v="36310" />
	</node>
	<node lat="61.022252774558645" lon="5.297188884674406" id="-32518">
		<tag k="name" v="Selskorlia" />
		<tag k="natural" v="slope" />
		<tag k="place" v="locality" />
		<tag k="ssr:stedsnr" v="36323" />
	</node>
	<node lat="60.96163610693781" lon="5.427725009375139" id="-32519">
		<tag k="name" v="Bjørkehaugen" />
		<tag k="natural" v="hill" />
		<tag k="place" v="locality" />
		<tag k="ssr:stedsnr" v="36067" />
	</node>
	<node lat="61.00083055387225" lon="5.326608334820333" id="-32520">
		<tag k="fixme" v="consider natural=peak for the most distinct mountains in the district" />
		<tag k="name" v="Bjørnefjellet" />
		<tag k="natural" v="hill" />
		<tag k="place" v="locality" />
		<tag k="ssr:stedsnr" v="36215" />
	</node>
	<node lat="60.98483333704871" lon="5.33242499757007" id="-32523">
		<tag k="name" v="Daurmunddalen" />
		<tag k="natural" v="valley" />
		<tag k="place" v="locality" />
		<tag k="ssr:stedsnr" v="36269" />
	</node>
	<node lat="60.98836666813953" lon="5.231447222101833" id="-32524">
		<tag k="name" v="Tangane" />
		<tag k="place" v="locality" />
		<tag k="ssr:stedsnr" v="36409" />
	</node>
	<node lat="61.04129722381633" lon="5.297272226632502" id="-32525">
		<tag k="name" v="Gangstiglia" />
		<tag k="natural" v="slope" />
		<tag k="place" v="locality" />
		<tag k="ssr:stedsnr" v="36414" />
	</node>
	<node lat="60.92106666981411" lon="5.197177773386918" id="-32526">
		<tag k="name" v="Gygra" />
		<tag k="natural" v="valley" />
		<tag k="place" v="locality" />
		<tag k="ssr:stedsnr" v="36515" />
	</node>
	<node lat="61.00288055897181" lon="5.586149995217291" id="-32529">
		<tag k="name" v="Styggegjelet Sør" />
		<tag k="natural" v="valley" />
		<tag k="place" v="locality" />
		<tag k="ssr:stedsnr" v="36574" />
	</node>
	<node lat="60.94332499627592" lon="5.19486389543061" id="-32532">
		<tag k="name" v="Hevebotnen" />
		<tag k="natural" v="valley" />
		<tag k="place" v="locality" />
		<tag k="ssr:stedsnr" v="36459" />
	</node>
	<node lat="60.91530277663603" lon="5.040811105197815" id="-32533">
		<tag k="fixme" v="consider natural=peak for the most distinct mountains in the district" />
		<tag k="name" v="Storefjellet" />
		<tag k="natural" v="hill" />
		<tag k="place" v="locality" />
		<tag k="ssr:stedsnr" v="36471" />
	</node>
	<node lat="60.926963889496086" lon="5.166833333217868" id="-32534">
		<tag k="name" v="Kollhaugen" />
		<tag k="natural" v="hill" />
		<tag k="place" v="locality" />
		<tag k="ssr:stedsnr" v="36472" />
	</node>
	<node lat="61.011866671205844" lon="5.5786944491693395" id="-32536">
		<tag k="name" v="Trestegane" />
		<tag k="natural" v="slope" />
		<tag k="place" v="locality" />
		<tag k="ssr:stedsnr" v="36601" />
	</node>
	<node lat="60.97441944088578" lon="5.484961120711324" id="-32537">
		<tag k="name" v="Såtene" />
		<tag k="natural" v="hill" />
		<tag k="place" v="locality" />
		<tag k="ssr:stedsnr" v="36804" />
	</node>
	<node lat="60.90279999730466" lon="5.0067888949051405" id="-32556">
		<tag k="alt_name" v="Dyreskaret" />
		<tag k="name" v="Dyreskardet" />
		<tag k="natural" v="valley" />
		<tag k="place" v="locality" />
		<tag k="ssr:stedsnr" v="69486" />
	</node>
	<node lat="61.02086944886653" lon="5.151605563804151" id="-32565">
		<tag k="name" v="Bjørndalen" />
		<tag k="natural" v="valley" />
		<tag k="place" v="locality" />
		<tag k="ssr:stedsnr" v="69544" />
	</node>
	<node lat="60.84459166520674" lon="5.131652778870735" id="-32566">
		<tag k="alt_name" v="Havershaugen" />
		<tag k="name" v="Havasshaugen" />
		<tag k="natural" v="hill" />
		<tag k="place" v="locality" />
		<tag k="ssr:stedsnr" v="69584" />
	</node>
	<node lat="60.96559444546594" lon="5.183125008981766" id="-32567">
		<tag k="name" v="Holtane" />
		<tag k="natural" v="hill" />
		<tag k="place" v="locality" />
		<tag k="ssr:stedsnr" v="69784" />
	</node>
	<node lat="60.9782333297367" lon="5.205433336605138" id="-32569">
		<tag k="alt_name" v="Nesfjellet, s" />
		<tag k="fixme" v="consider natural=peak for the most distinct mountains in the district" />
		<tag k="name" v="Søre Nesfjellet" />
		<tag k="natural" v="hill" />
		<tag k="place" v="locality" />
		<tag k="ssr:stedsnr" v="69791" />
	</node>
	<node lat="60.92017500189968" lon="5.18274999909296" id="-32571">
		<tag k="fixme" v="consider natural=peak for the most distinct mountains in the district" />
		<tag k="name" v="Hallandskletten" />
		<tag k="natural" v="hill" />
		<tag k="place" v="locality" />
		<tag k="ssr:stedsnr" v="69913" />
	</node>
	<node lat="60.944044440751725" lon="5.335875007243393" id="-32575">
		<tag k="name" v="Glyvreskardet" />
		<tag k="natural" v="valley" />
		<tag k="place" v="locality" />
		<tag k="ssr:stedsnr" v="69877" />
	</node>
	<node lat="61.05812500287776" lon="5.521816667266938" id="-32576">
		<tag k="fixme" v="consider natural=peak for the most distinct mountains in the district" />
		<tag k="name" v="Husefjellet" />
		<tag k="natural" v="hill" />
		<tag k="place" v="locality" />
		<tag k="ssr:stedsnr" v="70183" />
	</node>
	<node lat="61.03478055443036" lon="5.047694449766751" id="-32578">
		<tag k="fixme" v="consider natural=peak for the most distinct mountains in the district" />
		<tag k="name" v="Kyrkjefjellet" />
		<tag k="natural" v="hill" />
		<tag k="place" v="locality" />
		<tag k="ssr:stedsnr" v="70425" />
	</node>
	<node lat="61.050713890265065" lon="5.15927221562272" id="-32581">
		<tag k="fixme" v="consider natural=peak for the most distinct mountains in the district" />
		<tag k="name" v="Lifjellet" />
		<tag k="natural" v="hill" />
		<tag k="place" v="locality" />
		<tag k="ssr:stedsnr" v="70577" />
	</node>
	<node lat="61.03522499967817" lon="5.306208334021678" id="-32583">
		<tag k="fixme" v="consider natural=peak for the most distinct mountains in the district" />
		<tag k="name" v="Brendeknulten" />
		<tag k="natural" v="hill" />
		<tag k="place" v="locality" />
		<tag k="ssr:stedsnr" v="70890" />
	</node>
	<node lat="61.02060277889051" lon="5.202427772747419" id="-32585">
		<tag k="fixme" v="consider natural=peak for the most distinct mountains in the district" />
		<tag k="name" v="Ramnfjellet" />
		<tag k="natural" v="hill" />
		<tag k="place" v="locality" />
		<tag k="ssr:stedsnr" v="70901" />
	</node>
	<node lat="61.006827776404386" lon="5.363144437304252" id="-32586">
		<tag k="fixme" v="consider natural=peak for the most distinct mountains in the district" />
		<tag k="name" v="Bårdfjellet" />
		<tag k="natural" v="hill" />
		<tag k="place" v="locality" />
		<tag k="ssr:stedsnr" v="70907" />
	</node>
	<node lat="61.013577774498735" lon="5.3385777742281055" id="-32588">
		<tag k="alt_name" v="Stølsfjell" />
		<tag k="fixme" v="consider natural=peak for the most distinct mountains in the district" />
		<tag k="name" v="Stølsfjellet" />
		<tag k="natural" v="hill" />
		<tag k="old_name" v="Støls-fjellet" />
		<tag k="place" v="locality" />
		<tag k="ssr:stedsnr" v="70928" />
	</node>
	<node lat="60.98474166707855" lon="5.039613895040053" id="-32601">
		<tag k="name" v="Laberghaugen" />
		<tag k="natural" v="hill" />
		<tag k="place" v="locality" />
		<tag k="ssr:stedsnr" v="91784" />
	</node>
	<node lat="61.005450002842586" lon="5.072691662430824" id="-32602">
		<tag k="fixme" v="consider natural=peak for the most distinct mountains in the district" />
		<tag k="name" v="Midtfjellet" />
		<tag k="natural" v="hill" />
		<tag k="place" v="locality" />
		<tag k="ssr:stedsnr" v="91904" />
	</node>
	<node lat="60.999016663367" lon="5.062983334083728" id="-32603">
		<tag k="name" v="Midtre Hola" />
		<tag k="natural" v="gorge" />
		<tag k="ssr:stedsnr" v="91909" />
	</node>
	<node lat="60.97255555811122" lon="5.142902770402561" id="-32604">
		<tag k="name" v="Storeskora" />
		<tag k="place" v="locality" />
		<tag k="ssr:stedsnr" v="91809" />
	</node>
	<node lat="60.93299444856693" lon="5.161408334913243" id="-32605">
		<tag k="name" v="Storebotnen" />
		<tag k="natural" v="valley" />
		<tag k="place" v="locality" />
		<tag k="ssr:stedsnr" v="91867" />
	</node>
	<node lat="60.93597222537183" lon="5.108791668308359" id="-32606">
		<tag k="name" v="Revurbakkane" />
		<tag k="natural" v="slope" />
		<tag k="place" v="locality" />
		<tag k="ssr:stedsnr" v="91879" />
	</node>
	<node lat="60.91697222524692" lon="4.902419438646818" id="-32607">
		<tag k="name" v="Lisberget" />
		<tag k="natural" v="hill" />
		<tag k="place" v="locality" />
		<tag k="ssr:stedsnr" v="95211" />
	</node>
	<node lat="60.93514166319282" lon="4.980063895535579" id="-32610">
		<tag k="name" v="Pikehaugen" />
		<tag k="natural" v="hill" />
		<tag k="place" v="locality" />
		<tag k="ssr:stedsnr" v="95180" />
	</node>
	<node lat="60.898777776208874" lon="4.893016676040346" id="-32611">
		<tag k="name" v="Grønehaugen" />
		<tag k="natural" v="hill" />
		<tag k="place" v="locality" />
		<tag k="ssr:stedsnr" v="95304" />
	</node>
	<node lat="60.868536112523095" lon="4.886438880360561" id="-32613">
		<tag k="name" v="Håhaugen" />
		<tag k="natural" v="hill" />
		<tag k="place" v="locality" />
		<tag k="ssr:stedsnr" v="95530" />
	</node>
	<node lat="61.008608337433024" lon="4.9562277695518135" id="-32615">
		<tag k="name" v="Vanehaugen" />
		<tag k="natural" v="hill" />
		<tag k="place" v="locality" />
		<tag k="ssr:stedsnr" v="96065" />
	</node>
	<node lat="60.85060277706412" lon="5.116302771863352" id="-32616">
		<tag k="name" v="Vasshaugen" />
		<tag k="natural" v="hill" />
		<tag k="place" v="locality" />
		<tag k="ssr:stedsnr" v="96164" />
	</node>
	<node lat="61.06126666290164" lon="5.154166664436002" id="-32618">
		<tag k="name" v="Høgelia" />
		<tag k="natural" v="slope" />
		<tag k="place" v="locality" />
		<tag k="ssr:stedsnr" v="96179" />
	</node>
	<node lat="61.05780833314398" lon="5.145449996744909" id="-32619">
		<tag k="name" v="Svarthammarholene" />
		<tag k="natural" v="gorge" />
		<tag k="ssr:stedsnr" v="96182" />
	</node>
	<node lat="60.87877221862901" lon="5.148783332901308" id="-32620">
		<tag k="fixme" v="consider natural=peak for the most distinct mountains in the district" />
		<tag k="name" v="Klamrane" />
		<tag k="natural" v="hill" />
		<tag k="place" v="locality" />
		<tag k="ssr:stedsnr" v="96313" />
	</node>
	<node lat="61.02448611338532" lon="5.199399998103087" id="-32627">
		<tag k="fixme" v="consider natural=peak for the most distinct mountains in the district" />
		<tag k="name" v="Nipa" />
		<tag k="natural" v="hill" />
		<tag k="place" v="locality" />
		<tag k="ssr:stedsnr" v="96872" />
	</node>
	<node lat="60.92042778165027" lon="5.087072230186869" id="-32628">
		<tag k="fixme" v="consider natural=peak for the most distinct mountains in the district" />
		<tag k="name" v="Skorefjellet" />
		<tag k="natural" v="hill" />
		<tag k="place" v="locality" />
		<tag k="ssr:stedsnr" v="96881" />
	</node>
	<node lat="60.986452773783014" lon="5.408891669381942" id="-32630">
		<tag k="name" v="Storetunga" />
		<tag k="natural" v="ridge" />
		<tag k="place" v="locality" />
		<tag k="ssr:stedsnr" v="97021" />
	</node>
	<node lat="60.954486106774034" lon="5.34852221493403" id="-32631">
		<tag k="name" v="Sandneslia" />
		<tag k="natural" v="slope" />
		<tag k="place" v="locality" />
		<tag k="ssr:stedsnr" v="97059" />
	</node>
	<node lat="60.9599527787586" lon="5.4345694383814385" id="-32632">
		<tag k="name" v="Seltuftene" />
		<tag k="place" v="locality" />
		<tag k="ssr:stedsnr" v="97062" />
	</node>
	<node lat="60.91517500084645" lon="5.075600003254793" id="-32633">
		<tag k="name" v="Snauheia" />
		<tag k="natural" v="hill" />
		<tag k="place" v="locality" />
		<tag k="ssr:stedsnr" v="96905" />
	</node>
	<node lat="60.914083330631534" lon="5.0738277694108405" id="-32634">
		<tag k="name" v="Sandvikdalen" />
		<tag k="natural" v="valley" />
		<tag k="place" v="locality" />
		<tag k="ssr:stedsnr" v="96909" />
	</node>
	<node lat="61.031230559096144" lon="5.191649994536796" id="-32635">
		<tag k="name" v="Nordgulbotnen" />
		<tag k="natural" v="valley" />
		<tag k="place" v="locality" />
		<tag k="ssr:stedsnr" v="96911" />
	</node>
	<node lat="60.96830278060299" lon="5.445022223361524" id="-32638">
		<tag k="name" v="Hesjedalen" />
		<tag k="natural" v="valley" />
		<tag k="place" v="locality" />
		<tag k="ssr:stedsnr" v="97112" />
	</node>
	<node lat="61.00521944403478" lon="5.353386109279431" id="-32639">
		<tag k="name" v="Olseten" />
		<tag k="natural" v="hill" />
		<tag k="place" v="locality" />
		<tag k="ssr:stedsnr" v="97213" />
	</node>
	<node lat="60.97985833002583" lon="5.286452775354344" id="-32640">
		<tag k="fixme" v="consider natural=peak for the most distinct mountains in the district" />
		<tag k="name" v="Litlefjellet" />
		<tag k="natural" v="hill" />
		<tag k="place" v="locality" />
		<tag k="ssr:stedsnr" v="97279" />
	</node>
	<node lat="60.93026111501185" lon="5.31632500301386" id="-32641">
		<tag k="name" v="Gullida" />
		<tag k="natural" v="slope" />
		<tag k="place" v="locality" />
		<tag k="ssr:stedsnr" v="97411" />
	</node>
	<node lat="60.95088888769355" lon="5.190138887650113" id="-32643">
		<tag k="name" v="Nordalslia" />
		<tag k="natural" v="slope" />
		<tag k="place" v="locality" />
		<tag k="ssr:stedsnr" v="97323" />
	</node>
	<node lat="60.917119443563635" lon="5.1195249938488425" id="-32644">
		<tag k="name" v="Mulen" />
		<tag k="place" v="locality" />
		<tag k="ssr:stedsnr" v="97372" />
	</node>
	<node lat="60.925850001288076" lon="5.112650008980331" id="-32645">
		<tag k="name" v="Langesløkja" />
		<tag k="natural" v="slope" />
		<tag k="place" v="locality" />
		<tag k="ssr:stedsnr" v="97380" />
	</node>
	<node lat="60.947980554707826" lon="5.183111106762418" id="-32646">
		<tag k="fixme" v="consider natural=peak for the most distinct mountains in the district" />
		<tag k="name" v="Urlifjellet" />
		<tag k="natural" v="hill" />
		<tag k="place" v="locality" />
		<tag k="ssr:stedsnr" v="97503" />
	</node>
	<node lat="61.00426388584087" lon="5.224899994150038" id="-32647">
		<tag k="name" v="Leina" />
		<tag k="natural" v="hill" />
		<tag k="place" v="locality" />
		<tag k="ssr:stedsnr" v="97684" />
	</node>
	<node lat="60.989963893084635" lon="5.487361105286093" id="-32649">
		<tag k="name" v="Grågjelet" />
		<tag k="natural" v="slope" />
		<tag k="place" v="locality" />
		<tag k="ssr:stedsnr" v="97859" />
	</node>
	<node lat="61.055947221957446" lon="5.5212111102368615" id="-32650">
		<tag k="fixme" v="consider natural=peak for the most distinct mountains in the district" />
		<tag k="name" v="Nova" />
		<tag k="natural" v="hill" />
		<tag k="place" v="locality" />
		<tag k="ssr:stedsnr" v="97968" />
	</node>
	<node lat="60.986402775677064" lon="5.0524888937640355" id="-32661">
		<tag k="name" v="Sollibotn" />
		<tag k="natural" v="valley" />
		<tag k="place" v="locality" />
		<tag k="ssr:stedsnr" v="250356" />
	</node>
	<node lat="60.99810277367582" lon="5.008600004845748" id="-32664">
		<tag k="name" v="Flathaugen" />
		<tag k="natural" v="hill" />
		<tag k="place" v="locality" />
		<tag k="ssr:stedsnr" v="250369" />
	</node>
	<node lat="61.05231944795241" lon="5.581719434902929" id="-32667">
		<tag k="name" v="Kamben" />
		<tag k="natural" v="slope" />
		<tag k="place" v="locality" />
		<tag k="ssr:stedsnr" v="251043" />
	</node>
	<node lat="60.986419441175286" lon="5.197091661038892" id="-32672">
		<tag k="alt_name" v="Nipa" />
		<tag k="fixme" v="consider natural=peak for the most distinct mountains in the district" />
		<tag k="name" v="Nesnipa" />
		<tag k="natural" v="hill" />
		<tag k="place" v="locality" />
		<tag k="ssr:stedsnr" v="251149" />
	</node>
	<node lat="60.98959166772011" lon="5.339802785409589" id="-32673">
		<tag k="name" v="Øyane" />
		<tag k="place" v="locality" />
		<tag k="ssr:stedsnr" v="251152" />
	</node>
	<node lat="60.99794722090354" lon="5.12361944056135" id="-32675">
		<tag k="alt_name" v="Midtundalen" />
		<tag k="name" v="Midttundalen" />
		<tag k="natural" v="valley" />
		<tag k="place" v="locality" />
		<tag k="ssr:stedsnr" v="251175" />
	</node>
	<node lat="60.927050003437955" lon="4.922663887145107" id="-32676">
		<tag k="fixme" v="consider natural=peak for the most distinct mountains in the district" />
		<tag k="name" v="Mjømnefjellet" />
		<tag k="natural" v="hill" />
		<tag k="place" v="locality" />
		<tag k="ssr:stedsnr" v="251277" />
	</node>
	<node lat="60.92669444471036" lon="4.846808340438987" id="-32677">
		<tag k="alt_name" v="Åsen" />
		<tag k="name" v="Grimåsen" />
		<tag k="natural" v="hill" />
		<tag k="place" v="locality" />
		<tag k="ssr:stedsnr" v="251281" />
	</node>
	<node lat="60.93690000204001" lon="5.48646666806711" id="-32678">
		<tag k="fixme" v="consider natural=peak for the most distinct mountains in the district" />
		<tag k="name" v="Kletten" />
		<tag k="natural" v="hill" />
		<tag k="place" v="locality" />
		<tag k="ssr:stedsnr" v="251290" />
	</node>
	<node lat="60.955111110928314" lon="5.087744451943034" id="-32680">
		<tag k="fixme" v="consider natural=peak for the most distinct mountains in the district" />
		<tag k="name" v="Nipa" />
		<tag k="natural" v="hill" />
		<tag k="place" v="locality" />
		<tag k="ssr:stedsnr" v="251307" />
	</node>
	<node lat="60.96457777367836" lon="5.55992499612389" id="-32681">
		<tag k="name" v="Svartebetnene" />
		<tag k="natural" v="valley" />
		<tag k="place" v="locality" />
		<tag k="ssr:stedsnr" v="251319" />
	</node>
	<node lat="60.945349998078676" lon="5.507299991857841" id="-32682">
		<tag k="name" v="Skitdalen" />
		<tag k="natural" v="valley" />
		<tag k="place" v="locality" />
		<tag k="ssr:stedsnr" v="251331" />
	</node>
	<node lat="60.97279444016591" lon="5.322983337978902" id="-32696">
		<tag k="fixme" v="consider natural=peak for the most distinct mountains in the district" />
		<tag k="name" v="Såta" />
		<tag k="natural" v="hill" />
		<tag k="place" v="locality" />
		<tag k="ssr:stedsnr" v="251838" />
	</node>
	<node lat="60.98043333136091" lon="5.261555550028902" id="-32697">
		<tag k="alt_name" v="Fossdalsfjellet" />
		<tag k="fixme" v="multiple name tags, choose one and add the other to alt_name; consider natural=peak for the most distinct mountains in the district" />
		<tag k="name" v="Bjørndalsfjellet;Fossdalsnipa" />
		<tag k="natural" v="hill" />
		<tag k="place" v="locality" />
		<tag k="ssr:stedsnr" v="251795" />
	</node>
	<node lat="60.978802782077146" lon="5.3875638907340955" id="-32699">
		<tag k="name" v="Brekkebotnen" />
		<tag k="natural" v="valley" />
		<tag k="place" v="locality" />
		<tag k="ssr:stedsnr" v="251804" />
	</node>
	<node lat="60.98183055554058" lon="5.3135583414954315" id="-32700">
		<tag k="fixme" v="consider natural=peak for the most distinct mountains in the district" />
		<tag k="name" v="Storefjellet" />
		<tag k="natural" v="hill" />
		<tag k="place" v="locality" />
		<tag k="ssr:stedsnr" v="251805" />
	</node>
	<node lat="60.95903888581675" lon="5.173816659656817" id="-32702">
		<tag k="alt_name" v="Sponkkletten" />
		<tag k="fixme" v="consider natural=peak for the most distinct mountains in the district" />
		<tag k="name" v="Sponkletten" />
		<tag k="natural" v="hill" />
		<tag k="place" v="locality" />
		<tag k="ssr:stedsnr" v="251815" />
	</node>
	<node lat="60.95088888976044" lon="5.39766110311805" id="-32706">
		<tag k="name" v="Eikeliknulten" />
		<tag k="natural" v="hill" />
		<tag k="place" v="locality" />
		<tag k="ssr:stedsnr" v="251900" />
	</node>
	<node lat="60.957930556493935" lon="5.1507694451897414" id="-32708">
		<tag k="alt_name" v="Glosvikskaret" />
		<tag k="name" v="Glossvikeskardet" />
		<tag k="natural" v="valley" />
		<tag k="place" v="locality" />
		<tag k="ssr:stedsnr" v="251841" />
	</node>
	<node lat="60.95970278130825" lon="5.302075003356389" id="-32711">
		<tag k="fixme" v="consider natural=peak for the most distinct mountains in the district" />
		<tag k="name" v="Flatefjellet" />
		<tag k="natural" v="hill" />
		<tag k="place" v="locality" />
		<tag k="ssr:stedsnr" v="251877" />
	</node>
	<node lat="60.92841110727675" lon="5.311055551404706" id="-32712">
		<tag k="alt_name" v="Gullifjellet" />
		<tag k="fixme" v="consider natural=peak for the most distinct mountains in the district" />
		<tag k="name" v="Gulelifjellet" />
		<tag k="natural" v="hill" />
		<tag k="place" v="locality" />
		<tag k="ssr:stedsnr" v="251881" />
	</node>
	<node lat="61.008205551986585" lon="5.258547229115324" id="-32713">
		<tag k="fixme" v="consider natural=peak for the most distinct mountains in the district" />
		<tag k="name" v="Hallane" />
		<tag k="natural" v="hill" />
		<tag k="place" v="locality" />
		<tag k="ssr:stedsnr" v="251933" />
	</node>
	<node lat="61.018102778822865" lon="5.310052780752879" id="-32715">
		<tag k="name" v="Skansen" />
		<tag k="natural" v="hill" />
		<tag k="place" v="locality" />
		<tag k="ssr:stedsnr" v="251947" />
	</node>
	<node lat="60.933241665486776" lon="5.188074991514292" id="-32717">
		<tag k="name" v="Humlelia" />
		<tag k="natural" v="slope" />
		<tag k="place" v="locality" />
		<tag k="ssr:stedsnr" v="251903" />
	</node>
	<node lat="60.886958333824914" lon="5.149280549185872" id="-32721">
		<tag k="fixme" v="consider natural=peak for the most distinct mountains in the district" />
		<tag k="name" v="Vardehaugen" />
		<tag k="natural" v="hill" />
		<tag k="place" v="locality" />
		<tag k="ssr:stedsnr" v="251973" />
	</node>
	<node lat="60.95381666735369" lon="5.302022217439502" id="-32722">
		<tag k="name" v="Snøgjelet" />
		<tag k="natural" v="valley" />
		<tag k="place" v="locality" />
		<tag k="ssr:stedsnr" v="251974" />
	</node>
	<node lat="61.019636112676565" lon="5.554219453293126" id="-32723">
		<tag k="fixme" v="consider natural=peak for the most distinct mountains in the district" />
		<tag k="name" v="Stølsfjellet" />
		<tag k="natural" v="hill" />
		<tag k="place" v="locality" />
		<tag k="ssr:stedsnr" v="252007" />
	</node>
	<node lat="61.060699997400356" lon="5.518883326963904" id="-32725">
		<tag k="alt_name" v="Asberget" />
		<tag k="name" v="Assberget" />
		<tag k="natural" v="hill" />
		<tag k="place" v="locality" />
		<tag k="ssr:stedsnr" v="252179" />
	</node>
	<node lat="61.00611110718478" lon="5.0411888979777215" id="-32731">
		<tag k="name" v="Navdalen" />
		<tag k="natural" v="valley" />
		<tag k="place" v="locality" />
		<tag k="ssr:stedsnr" v="252390" />
	</node>
	<node lat="61.003555558936284" lon="5.546711114918492" id="-32733">
		<tag k="fixme" v="consider natural=peak for the most distinct mountains in the district" />
		<tag k="name" v="Grønlifjellet" />
		<tag k="natural" v="hill" />
		<tag k="place" v="locality" />
		<tag k="ssr:stedsnr" v="128494" />
	</node>
	<node lat="61.013638889811055" lon="5.04710277418309" id="-32737">
		<tag k="fixme" v="consider natural=peak for the most distinct mountains in the district" />
		<tag k="name" v="Tjuvfjellet" />
		<tag k="natural" v="hill" />
		<tag k="place" v="locality" />
		<tag k="ssr:stedsnr" v="252377" />
	</node>
	<node lat="61.03605277425359" lon="5.0598222187040145" id="-32740">
		<tag k="fixme" v="consider natural=peak for the most distinct mountains in the district" />
		<tag k="name" v="Bjørkelihaugen" />
		<tag k="natural" v="hill" />
		<tag k="place" v="locality" />
		<tag k="ssr:stedsnr" v="252425" />
	</node>
	<node lat="60.87637499896199" lon="4.8919944388162255" id="-32742">
		<tag k="name" v="Merkesdalen" />
		<tag k="natural" v="valley" />
		<tag k="place" v="locality" />
		<tag k="ssr:stedsnr" v="129411" />
	</node>
	<node lat="61.044886115510124" lon="5.275075008486501" id="-32752">
		<tag k="fixme" v="consider natural=peak for the most distinct mountains in the district" />
		<tag k="name" v="Blåfjellet" />
		<tag k="natural" v="hill" />
		<tag k="place" v="locality" />
		<tag k="ssr:stedsnr" v="129521" />
	</node>
	<node lat="60.98300555446467" lon="5.257441672323155" id="-32754">
		<tag k="name" v="Fossdalen" />
		<tag k="natural" v="valley" />
		<tag k="place" v="locality" />
		<tag k="ssr:stedsnr" v="129774" />
	</node>
	<node lat="60.97921388598374" lon="5.199083327220094" id="-32755">
		<tag k="alt_name" v="Nova" />
		<tag k="fixme" v="consider natural=peak for the most distinct mountains in the district" />
		<tag k="name" v="Nesnova" />
		<tag k="natural" v="hill" />
		<tag k="place" v="locality" />
		<tag k="ssr:stedsnr" v="129775" />
	</node>
	<node lat="60.976749996472904" lon="5.298724995481188" id="-32756">
		<tag k="fixme" v="consider natural=peak for the most distinct mountains in the district" />
		<tag k="name" v="Blåfjellet" />
		<tag k="natural" v="hill" />
		<tag k="place" v="locality" />
		<tag k="ssr:stedsnr" v="129780" />
	</node>
	<node lat="60.86484166825823" lon="5.14438888275271" id="-32759">
		<tag k="alt_name" v="Vestrelifjellet" />
		<tag k="fixme" v="consider natural=peak for the most distinct mountains in the district" />
		<tag k="name" v="Svelikulten" />
		<tag k="natural" v="hill" />
		<tag k="place" v="locality" />
		<tag k="ssr:stedsnr" v="129983" />
	</node>
	<node lat="61.06021111559726" lon="5.166708338111918" id="-32766">
		<tag k="fixme" v="consider natural=peak for the most distinct mountains in the district" />
		<tag k="name" v="Slettheia" />
		<tag k="natural" v="hill" />
		<tag k="place" v="locality" />
		<tag k="ssr:stedsnr" v="252561" />
	</node>
	<node lat="60.91030277436326" lon="4.941788896103474" id="-32767">
		<tag k="name" v="Knivhaugen" />
		<tag k="natural" v="hill" />
		<tag k="place" v="locality" />
		<tag k="ssr:stedsnr" v="130405" />
	</node>
	<node lat="61.049705552775606" lon="5.239580557629086" id="-32768">
		<tag k="fixme" v="consider natural=peak for the most distinct mountains in the district" />
		<tag k="name" v="Leina" />
		<tag k="natural" v="hill" />
		<tag k="place" v="locality" />
		<tag k="ssr:stedsnr" v="130602" />
	</node>
	<node lat="61.0391361069462" lon="5.257327784276695" id="-32769">
		<tag k="fixme" v="consider natural=peak for the most distinct mountains in the district" />
		<tag k="name" v="Dyråsen" />
		<tag k="natural" v="hill" />
		<tag k="place" v="locality" />
		<tag k="ssr:stedsnr" v="252573" />
	</node>
	<node lat="61.03614444277473" lon="5.219338881771148" id="-32770">
		<tag k="alt_name" v="Dalsbotnfjell" />
		<tag k="fixme" v="consider natural=peak for the most distinct mountains in the district" />
		<tag k="name" v="Dalsbotnfjellet" />
		<tag k="natural" v="hill" />
		<tag k="place" v="locality" />
		<tag k="ssr:stedsnr" v="252574" />
	</node>
	<node lat="61.049216668968825" lon="5.266574994000114" id="-32771">
		<tag k="alt_name" v="Skarfjellet" />
		<tag k="fixme" v="consider natural=peak for the most distinct mountains in the district" />
		<tag k="name" v="Skardfjellet" />
		<tag k="natural" v="hill" />
		<tag k="place" v="locality" />
		<tag k="ssr:stedsnr" v="130599" />
	</node>
	<node lat="60.96672558132536" lon="5.191569320252874" id="-32772">
		<tag k="name" v="Klubben" />
		<tag k="natural" v="hill" />
		<tag k="place" v="locality" />
		<tag k="ssr:stedsnr" v="130712" />
	</node>
	<node lat="60.9184861066703" lon="5.341602769262299" id="-32775">
		<tag k="name" v="Holten" />
		<tag k="natural" v="hill" />
		<tag k="place" v="locality" />
		<tag k="ssr:stedsnr" v="130848" />
	</node>
	<node lat="60.93042499725802" lon="5.437558325833245" id="-32776">
		<tag k="name" v="Sulevassdalen" />
		<tag k="natural" v="valley" />
		<tag k="place" v="locality" />
		<tag k="ssr:stedsnr" v="130872" />
	</node>
	<node lat="61.02706388768747" lon="5.199208340041712" id="-32781">
		<tag k="name" v="Tungebotnen" />
		<tag k="natural" v="valley" />
		<tag k="place" v="locality" />
		<tag k="ssr:stedsnr" v="252870" />
	</node>
	<node lat="61.01436111280585" lon="5.42400277423813" id="-32799">
		<tag k="name" v="Orreselet" />
		<tag k="natural" v="hill" />
		<tag k="place" v="locality" />
		<tag k="ssr:stedsnr" v="151753" />
	</node>
	<node lat="60.942199999846466" lon="5.146444446282801" id="-32801">
		<tag k="name" v="Rindane" />
		<tag k="natural" v="hill" />
		<tag k="place" v="locality" />
		<tag k="ssr:stedsnr" v="151868" />
	</node>
	<node lat="60.9386083336015" lon="5.109597228421754" id="-32802">
		<tag k="name" v="Brekkenova" />
		<tag k="natural" v="hill" />
		<tag k="place" v="locality" />
		<tag k="ssr:stedsnr" v="151870" />
	</node>
	<node lat="60.92854444219571" lon="5.072827776403843" id="-32804">
		<tag k="name" v="Brandsdalsskaret" />
		<tag k="natural" v="valley" />
		<tag k="place" v="locality" />
		<tag k="ssr:stedsnr" v="156106" />
	</node>
	<node lat="60.93150277331819" lon="4.998852773811465" id="-32806">
		<tag k="fixme" v="consider natural=peak for the most distinct mountains in the district" />
		<tag k="name" v="Litlefjellet" />
		<tag k="natural" v="hill" />
		<tag k="place" v="locality" />
		<tag k="ssr:stedsnr" v="156117" />
	</node>
	<node lat="60.93447499667155" lon="5.050494453836368" id="-32807">
		<tag k="name" v="Ospehaugen" />
		<tag k="natural" v="hill" />
		<tag k="place" v="locality" />
		<tag k="ssr:stedsnr" v="156122" />
	</node>
	<node lat="60.90146666386443" lon="5.142888886833919" id="-32808">
		<tag k="fixme" v="consider natural=peak for the most distinct mountains in the district" />
		<tag k="name" v="Leiteåsen" />
		<tag k="natural" v="hill" />
		<tag k="place" v="locality" />
		<tag k="ssr:stedsnr" v="156152" />
	</node>
	<node lat="60.942311113071625" lon="5.053105550316129" id="-32809">
		<tag k="name" v="Hestehaugen" />
		<tag k="natural" v="hill" />
		<tag k="place" v="locality" />
		<tag k="ssr:stedsnr" v="156158" />
	</node>
	<node lat="60.93903332983852" lon="4.794399996078569" id="-32812">
		<tag k="name" v="Koksøyberget" />
		<tag k="natural" v="hill" />
		<tag k="place" v="locality" />
		<tag k="ssr:stedsnr" v="156368" />
	</node>
	<node lat="60.87315000395398" lon="5.125672223021558" id="-32814">
		<tag k="fixme" v="consider natural=peak for the most distinct mountains in the district" />
		<tag k="name" v="Langemyrranen" />
		<tag k="natural" v="hill" />
		<tag k="place" v="locality" />
		<tag k="ssr:stedsnr" v="156256" />
	</node>
	<node lat="60.90948333322393" lon="5.089155561804608" id="-32816">
		<tag k="name" v="Søre Ranen" />
		<tag k="natural" v="ridge" />
		<tag k="place" v="locality" />
		<tag k="ssr:stedsnr" v="156909" />
	</node>
	<node lat="60.96635555781945" lon="5.375547229470477" id="-32818">
		<tag k="name" v="Skorvane" />
		<tag k="natural" v="hill" />
		<tag k="place" v="locality" />
		<tag k="ssr:stedsnr" v="157047" />
	</node>
	<node lat="60.931011109551754" lon="5.383936120240281" id="-32819">
		<tag k="name" v="Selvikskaret" />
		<tag k="natural" v="valley" />
		<tag k="place" v="locality" />
		<tag k="ssr:stedsnr" v="157203" />
	</node>
	<node lat="60.9366722194395" lon="5.387063891967126" id="-32820">
		<tag k="name" v="Liskorane" />
		<tag k="place" v="locality" />
		<tag k="ssr:stedsnr" v="157204" />
	</node>
	<node lat="61.045977776438804" lon="5.098663892179011" id="-32821">
		<tag k="fixme" v="consider natural=peak for the most distinct mountains in the district" />
		<tag k="name" v="Åfjellet" />
		<tag k="natural" v="hill" />
		<tag k="place" v="locality" />
		<tag k="ssr:stedsnr" v="157218" />
	</node>
	<node lat="60.95902222123844" lon="5.20608611293129" id="-32822">
		<tag k="name" v="Myrbærhaugen" />
		<tag k="natural" v="hill" />
		<tag k="place" v="locality" />
		<tag k="ssr:stedsnr" v="157256" />
	</node>
	<node lat="61.00899444123735" lon="4.9876638858643" id="-32823">
		<tag k="name" v="Husdalen" />
		<tag k="natural" v="valley" />
		<tag k="place" v="locality" />
		<tag k="ssr:stedsnr" v="157262" />
	</node>
	<node lat="60.878827775655466" lon="5.156902782940367" id="-32824">
		<tag k="name" v="Nordre Høyvikdalen" />
		<tag k="natural" v="valley" />
		<tag k="place" v="locality" />
		<tag k="ssr:stedsnr" v="157263" />
	</node>
	<node lat="61.00501667061442" lon="5.198777784225731" id="-32826">
		<tag k="name" v="Storekrene" />
		<tag k="place" v="locality" />
		<tag k="ssr:stedsnr" v="156951" />
	</node>
	<node lat="61.02928888829099" lon="5.3639166663443225" id="-32827">
		<tag k="name" v="Grønebakkane" />
		<tag k="natural" v="slope" />
		<tag k="place" v="locality" />
		<tag k="ssr:stedsnr" v="157107" />
	</node>
	<node lat="61.014186112449806" lon="5.378130547572603" id="-32829">
		<tag k="name" v="Brigdalen" />
		<tag k="natural" v="valley" />
		<tag k="place" v="locality" />
		<tag k="ssr:stedsnr" v="157164" />
	</node>
	<node lat="60.963238886922" lon="5.317130550310308" id="-32830">
		<tag k="name" v="Mørkebotnen" />
		<tag k="natural" v="valley" />
		<tag k="place" v="locality" />
		<tag k="ssr:stedsnr" v="157304" />
	</node>
	<node lat="60.913369440657355" lon="5.174269442890162" id="-32833">
		<tag k="name" v="Setretangen" />
		<tag k="natural" v="slope" />
		<tag k="place" v="locality" />
		<tag k="ssr:stedsnr" v="157499" />
	</node>
	<node lat="60.91196666591172" lon="5.169738888834102" id="-32834">
		<tag k="name" v="Galtekleiva" />
		<tag k="natural" v="slope" />
		<tag k="place" v="locality" />
		<tag k="ssr:stedsnr" v="157501" />
	</node>
	<node lat="61.0196861148954" lon="5.587899991253626" id="-32835">
		<tag k="name" v="Kjerringeknulten" />
		<tag k="natural" v="hill" />
		<tag k="place" v="locality" />
		<tag k="ssr:stedsnr" v="157610" />
	</node>
	<node lat="61.0440805515524" lon="5.2879694408797215" id="-32836">
		<tag k="name" v="Gjota" />
		<tag k="natural" v="valley" />
		<tag k="place" v="locality" />
		<tag k="ssr:stedsnr" v="157399" />
	</node>
	<node lat="60.969186112170924" lon="5.259861107720005" id="-32837">
		<tag k="name" v="Rusta" />
		<tag k="natural" v="hill" />
		<tag k="place" v="locality" />
		<tag k="ssr:stedsnr" v="157400" />
	</node>
	<node lat="60.9562722180562" lon="5.491008329642485" id="-32840">
		<tag k="name" v="Dubakken" />
		<tag k="natural" v="slope" />
		<tag k="place" v="locality" />
		<tag k="ssr:stedsnr" v="157700" />
	</node>
	<node lat="60.89279999669055" lon="5.059669452238042" id="-32841">
		<tag k="name" v="Tverrdalsryggen" />
		<tag k="natural" v="ridge" />
		<tag k="place" v="locality" />
		<tag k="ssr:stedsnr" v="157805" />
	</node>
	<node lat="61.06212500013827" lon="5.175124996312988" id="-32842">
		<tag k="name" v="Nonshaugen" />
		<tag k="natural" v="hill" />
		<tag k="place" v="locality" />
		<tag k="ssr:stedsnr" v="157816" />
	</node>
	<node lat="61.04312777955947" lon="5.186699999435741" id="-32845">
		<tag k="fixme" v="consider natural=peak for the most distinct mountains in the district" />
		<tag k="name" v="Oksla" />
		<tag k="natural" v="hill" />
		<tag k="place" v="locality" />
		<tag k="ssr:stedsnr" v="157772" />
	</node>
	<node lat="61.00143888926186" lon="5.196397221269772" id="-32848">
		<tag k="name" v="Bukkegjelet" />
		<tag k="natural" v="valley" />
		<tag k="place" v="locality" />
		<tag k="ssr:stedsnr" v="157956" />
	</node>
	<node lat="61.001349999019475" lon="5.200891672733319" id="-32849">
		<tag k="name" v="Rysjebotsleina" />
		<tag k="natural" v="hill" />
		<tag k="place" v="locality" />
		<tag k="ssr:stedsnr" v="157965" />
	</node>
	<node lat="61.04905832961737" lon="5.499669444019547" id="-32850">
		<tag k="name" v="Snauskolten" />
		<tag k="natural" v="hill" />
		<tag k="place" v="locality" />
		<tag k="ssr:stedsnr" v="157998" />
	</node>
	<node lat="60.97539444213573" lon="4.963452773343735" id="-32854">
		<tag k="fixme" v="consider natural=peak for the most distinct mountains in the district" />
		<tag k="name" v="Smørdalsfjellet" />
		<tag k="natural" v="hill" />
		<tag k="place" v="locality" />
		<tag k="ssr:stedsnr" v="189314" />
	</node>
	<node lat="60.97645833368021" lon="5.501661119607311" id="-32859">
		<tag k="fixme" v="consider natural=peak for the most distinct mountains in the district" />
		<tag k="name" v="Kyrkjebustene" />
		<tag k="natural" v="hill" />
		<tag k="place" v="locality" />
		<tag k="ssr:stedsnr" v="190312" />
	</node>
	<node lat="60.975050004220286" lon="5.516575005718544" id="-32860">
		<tag k="alt_name" v="Kantelheia" />
		<tag k="name" v="Kantilheia" />
		<tag k="natural" v="hill" />
		<tag k="place" v="locality" />
		<tag k="ssr:stedsnr" v="190313" />
	</node>
	<node lat="60.92670277905335" lon="4.8296277829793" id="-32862">
		<tag k="name" v="Nonshaugen" />
		<tag k="natural" v="hill" />
		<tag k="place" v="locality" />
		<tag k="ssr:stedsnr" v="190263" />
	</node>
	<node lat="60.874947220869025" lon="4.876452781754041" id="-32863">
		<tag k="name" v="Ærneshaugen" />
		<tag k="natural" v="hill" />
		<tag k="place" v="locality" />
		<tag k="ssr:stedsnr" v="190429" />
	</node>
	<node lat="60.956674997154366" lon="5.329394436198793" id="-32871">
		<tag k="name" v="Fossane" />
		<tag k="place" v="locality" />
		<tag k="ssr:stedsnr" v="190867" />
	</node>
	<node lat="60.90853610668512" lon="5.195863889992771" id="-32872">
		<tag k="fixme" v="consider natural=peak for the most distinct mountains in the district" />
		<tag k="name" v="Storenova" />
		<tag k="natural" v="hill" />
		<tag k="place" v="locality" />
		<tag k="ssr:stedsnr" v="190959" />
	</node>
</osm>
