<?xml version="1.0" encoding="UTF-8"?>
<osm version="0.6" generator="osmapis">
	<node lat="60.98073032293255" lon="4.822808910678224" id="-32741">
		<tag k="fixme" v="consider place=hamlet" />
		<tag k="name" v="Hille" />
		<tag k="place" v="farm" />
		<tag k="ssr:stedsnr" v="7350" />
	</node>
	<node lat="60.980219447484046" lon="5.187533338030999" id="-32744">
		<tag k="building" v="industrial" />
		<tag k="industrial" v="factory" />
		<tag k="name" v="Hønseri" />
		<tag k="ssr:stedsnr" v="8146" />
	</node>
	<node lat="60.94412500327602" lon="5.183591659336986" id="-32749">
		<tag k="alt_name" v="Norddal, l" />
		<tag k="name" v="Litle Norddal" />
		<tag k="place" v="farm" />
		<tag k="ssr:stedsnr" v="8849" />
	</node>
	<node lat="60.97712264274519" lon="5.283500535128285" id="-32752">
		<tag k="alt_name" v="Kløvtveit" />
		<tag k="fixme" v="consider place=hamlet" />
		<tag k="name" v="Klyvtveita" />
		<tag k="place" v="farm" />
		<tag k="ssr:stedsnr" v="8791" />
	</node>
	<node lat="61.06144000196105" lon="5.0615354687844345" id="-32756">
		<tag k="fixme" v="consider place=hamlet" />
		<tag k="name" v="Risa" />
		<tag k="place" v="farm" />
		<tag k="ssr:stedsnr" v="9238" />
	</node>
	<node lat="60.947285624713615" lon="5.150878520520721" id="-32767">
		<tag k="fixme" v="consider place=hamlet" />
		<tag k="name" v="Omdal" />
		<tag k="place" v="farm" />
		<tag k="ssr:stedsnr" v="9816" />
	</node>
	<node lat="60.912727773267136" lon="5.0361194368500195" id="-32829">
		<tag k="name" v="Lauvvik" />
		<tag k="place" v="farm" />
		<tag k="ssr:stedsnr" v="36474" />
	</node>
	<node lat="60.981626824121285" lon="5.081653546668053" id="-32835">
		<tag k="name" v="Haugane" />
		<tag k="place" v="farm" />
		<tag k="ssr:stedsnr" v="67352" />
	</node>
	<node lat="60.99783184283876" lon="4.937685989685046" id="-32837">
		<tag k="alt_name" v="Rød" />
		<tag k="fixme" v="consider place=hamlet" />
		<tag k="name" v="Rud" />
		<tag k="place" v="farm" />
		<tag k="ssr:stedsnr" v="68394" />
	</node>
	<node lat="60.85204999830884" lon="5.001802779071011" id="-32843">
		<tag k="name" v="Ekredalen" />
		<tag k="place" v="farm" />
		<tag k="ssr:stedsnr" v="69402" />
	</node>
	<node lat="60.92981666830429" lon="5.343791668458248" id="-32864">
		<tag k="name" v="Ropehaugen" />
		<tag k="place" v="farm" />
		<tag k="ssr:stedsnr" v="69904" />
	</node>
	<node lat="60.92638256597505" lon="5.17401582271482" id="-32866">
		<tag k="alt_name" v="Vyrkjesdal;Virkesdal" />
		<tag k="fixme" v="consider place=hamlet" />
		<tag k="name" v="Vyrkesdal" />
		<tag k="place" v="farm" />
		<tag k="ssr:stedsnr" v="69914" />
	</node>
	<node lat="60.974544445088796" lon="5.387955563872831" id="-32868">
		<tag k="historic" v="shieling" />
		<tag k="name" v="Brekkestølen" />
		<tag k="place" v="isolated_dwelling" />
		<tag k="ssr:stedsnr" v="69833" />
	</node>
	<node lat="61.06374999693866" lon="5.564983330515883" id="-32871">
		<tag k="alt_name" v="Gjerde" />
		<tag k="name" v="Gjerdet" />
		<tag k="place" v="farm" />
		<tag k="ssr:stedsnr" v="70188" />
	</node>
	<node lat="61.067116670881155" lon="5.188263892185565" id="-32887">
		<tag k="fixme" v="consider place=hamlet" />
		<tag k="name" v="Rutledal" />
		<tag k="old_name" v="Rutledalen" />
		<tag k="place" v="village" />
		<tag k="ssr:stedsnr" v="85034" />
	</node>
	<node lat="61.06327486274748" lon="5.074026390780588" id="-32917">
		<tag k="alt_name" v="Øvre Sygnefest" />
		<tag k="fixme" v="consider place=hamlet" />
		<tag k="name" v="Sygnefest" />
		<tag k="place" v="farm" />
		<tag k="ssr:stedsnr" v="96630" />
	</node>
	<node lat="60.980412342279195" lon="4.95607818394375" id="-32946">
		<tag k="alt_name" v="Vilsvik" />
		<tag k="fixme" v="consider place=hamlet" />
		<tag k="name" v="Vilsvika" />
		<tag k="place" v="farm" />
		<tag k="ssr:stedsnr" v="249336" />
	</node>
	<node lat="60.97669191229196" lon="4.9855151764977235" id="-32947">
		<tag k="fixme" v="consider place=hamlet" />
		<tag k="name" v="Grimstad" />
		<tag k="place" v="farm" />
		<tag k="ssr:stedsnr" v="249337" />
	</node>
	<node lat="60.990815663137674" lon="5.090568860430163" id="-32954">
		<tag k="alt_name" v="Midtun" />
		<tag k="name" v="Midttun" />
		<tag k="place" v="hamlet" />
		<tag k="ssr:stedsnr" v="250355" />
	</node>
	<node lat="60.990886113544406" lon="5.4380527703001" id="-32968">
		<tag k="historic" v="shieling" />
		<tag k="name" v="Hauglandsstølen" />
		<tag k="place" v="isolated_dwelling" />
		<tag k="ssr:stedsnr" v="251160" />
	</node>
	<node lat="60.900067240027454" lon="5.008910572750258" id="-32984">
		<tag k="fixme" v="consider place=hamlet" />
		<tag k="name" v="Rørtveit" />
		<tag k="place" v="farm" />
		<tag k="ssr:stedsnr" v="251463" />
	</node>
	<node lat="60.959812306840064" lon="5.138799242630097" id="-33001">
		<tag k="alt_name" v="Glosvik" />
		<tag k="fixme" v="consider place=hamlet" />
		<tag k="name" v="Glossvika" />
		<tag k="place" v="farm" />
		<tag k="ssr:stedsnr" v="251840" />
	</node>
	<node lat="60.94194772125065" lon="5.1401096174405385" id="-33003">
		<tag k="fixme" v="consider place=hamlet" />
		<tag k="name" v="Lund" />
		<tag k="place" v="farm" />
		<tag k="ssr:stedsnr" v="251850" />
	</node>
	<node lat="60.982933336721246" lon="5.043574990687884" id="-33022">
		<tag k="name" v="Grønevika" />
		<tag k="place" v="farm" />
		<tag k="ssr:stedsnr" v="128314" />
	</node>
	<node lat="60.95853942960324" lon="5.421495948714373" id="-33040">
		<tag k="fixme" v="consider place=hamlet" />
		<tag k="name" v="Verkland" />
		<tag k="place" v="farm" />
		<tag k="ssr:stedsnr" v="129816" />
	</node>
	<node lat="60.94897478071329" lon="5.245192969281377" id="-33042">
		<tag k="alt_name" v="Kjelby;Kjelbju" />
		<tag k="fixme" v="consider place=hamlet" />
		<tag k="name" v="Kjellbju" />
		<tag k="place" v="farm" />
		<tag k="ssr:stedsnr" v="129837" />
	</node>
	<node lat="60.95276944391972" lon="5.2665250031129025" id="-33043">
		<tag k="name" v="Fosshaugen" />
		<tag k="place" v="isolated_dwelling" />
		<tag k="ssr:stedsnr" v="129838" />
	</node>
	<node lat="60.94564166256851" lon="5.377302772516219" id="-33044">
		<tag k="name" v="Lia" />
		<tag k="place" v="farm" />
		<tag k="ssr:stedsnr" v="129859" />
	</node>
	<node lat="60.90629862438724" lon="5.138238973183145" id="-33052">
		<tag k="name" v="Grinde" />
		<tag k="place" v="hamlet" />
		<tag k="ssr:stedsnr" v="129932" />
	</node>
	<node lat="60.93664819502122" lon="5.013930062688442" id="-33055">
		<tag k="fixme" v="consider place=hamlet" />
		<tag k="name" v="Setenes" />
		<tag k="place" v="farm" />
		<tag k="ssr:stedsnr" v="130234" />
	</node>
	<node lat="61.07677316960751" lon="5.160737422878289" id="-33056">
		<tag k="fixme" v="consider place=hamlet" />
		<tag k="name" v="Rutle" />
		<tag k="place" v="farm" />
		<tag k="ssr:stedsnr" v="252544" />
	</node>
	<node lat="61.00290275764169" lon="5.190395671300557" id="-33068">
		<tag k="fixme" v="consider place=hamlet" />
		<tag k="name" v="Haveland" />
		<tag k="place" v="farm" />
		<tag k="ssr:stedsnr" v="130928" />
	</node>
	<node lat="60.9687388920512" lon="5.0753017563805" id="-33087">
		<tag k="fixme" v="consider place=hamlet" />
		<tag k="name" v="Fonna" />
		<tag k="place" v="farm" />
		<tag k="ssr:stedsnr" v="146181" />
	</node>
	<node lat="60.88575555756317" lon="4.974652782850296" id="-33147">
		<tag k="name" v="Ånneland" />
		<tag k="place" v="neighbourhood" />
		<tag k="ssr:stedsnr" v="177875" />
	</node>
	<node lat="60.97819838369426" lon="4.997391434587519" id="-33149">
		<tag k="alt_name" v="Stevnebø" />
		<tag k="fixme" v="consider place=hamlet" />
		<tag k="name" v="Stemnebø" />
		<tag k="place" v="farm" />
		<tag k="ssr:stedsnr" v="189319" />
	</node>
</osm>
