<?xml version="1.0" encoding="UTF-8"?>
<<<<<<< HEAD
<osm version="0.6" generator="osmapis">
	<node lat="61.03071388868629" lon="5.321361116785035" id="-32655">
=======
<osm generator="osmapis" version="0.6">
	<node id="-659328" lat="60.9404861107" lon="5.4985833408">
		<tag k="bridge" v="yes" />
		<tag k="layer" v="1" />
		<tag k="name" v="Kringla" />
		<tag k="ssr:stedsnr" v="349489" />
	</node>
	<node id="-659327" lat="61.0268472265" lon="5.37875000739">
		<tag k="bridge" v="yes" />
		<tag k="layer" v="1" />
		<tag k="name" v="Takle Ytre" />
		<tag k="ssr:stedsnr" v="349478" />
	</node>
	<node id="-659326" lat="61.0743499988" lon="5.18933056112">
		<tag k="alt_name" v="Rutledal" />
		<tag k="amenity" v="ferry_terminal" />
		<tag k="name" v="Rutledal ferjekai" />
		<tag k="ssr:stedsnr" v="349463" />
	</node>
	<node id="-659827" lat="60.958052774" lon="5.49192221653">
		<tag k="bridge" v="yes" />
		<tag k="layer" v="1" />
		<tag k="name" v="Duelva" />
		<tag k="ssr:stedsnr" v="592464" />
	</node>
	<node id="-659826" lat="60.9688666707" lon="5.19388054757">
		<tag k="bridge" v="yes" />
		<tag k="layer" v="1" />
		<tag k="name" v="Levra" />
		<tag k="ssr:stedsnr" v="592461" />
	</node>
	<node id="-659825" lat="60.94550278" lon="5.38486944232">
		<tag k="bridge" v="yes" />
		<tag k="layer" v="1" />
		<tag k="name" v="Ynnesdal" />
		<tag k="ssr:stedsnr" v="592450" />
	</node>
	<node id="-658797" lat="60.9370805548" lon="5.35679167424">
		<tag k="bridge" v="yes" />
		<tag k="layer" v="1" />
		<tag k="name" v="Furudal" />
		<tag k="ssr:stedsnr" v="107442" />
	</node>
	<node id="-658796" lat="61.0307138887" lon="5.32136111679">
>>>>>>> e1d4bc35ff8a6074a6f2e91616a996b547c36f15
		<tag k="bridge" v="yes" />
		<tag k="layer" v="1" />
		<tag k="name" v="Hjartholm" />
		<tag k="ssr:stedsnr" v="107435" />
	</node>
<<<<<<< HEAD
	<node lat="60.937080554828" lon="5.356791674240708" id="-32656">
=======
	<node id="-658795" lat="60.9629638929" lon="5.22480833891">
		<tag k="bridge" v="yes" />
		<tag k="layer" v="1" />
		<tag k="name" v="Oppdalsøyra" />
		<tag k="ssr:stedsnr" v="107411" />
	</node>
	<node id="-658162" lat="60.9496277744" lon="5.14692499291">
		<tag k="bridge" v="yes" />
		<tag k="layer" v="1" />
		<tag k="name" v="Undal Vannkulvert" />
		<tag k="ssr:stedsnr" v="835456" />
	</node>
	<node id="-660450" lat="60.9973110273" lon="5.01715240857">
		<tag k="amenity" v="ferry_terminal" />
		<tag k="name" v="Hisarøyna ferjekai" />
		<tag k="ssr:stedsnr" v="978649" />
	</node>
	<node id="-660449" lat="61.0001863301" lon="5.02983168975">
		<tag k="amenity" v="ferry_terminal" />
		<tag k="name" v="Mjåneset ferjekai" />
		<tag k="ssr:stedsnr" v="978648" />
	</node>
	<node id="-657758" lat="61.0270861086" lon="5.37841666521">
		<tag k="bridge" v="yes" />
		<tag k="layer" v="1" />
		<tag k="name" v="Takle Ytre" />
		<tag k="ssr:stedsnr" v="592442" />
	</node>
	<node id="-660189" lat="60.8524833328" lon="5.03361666325">
		<tag k="amenity" v="ferry_terminal" />
		<tag k="name" v="Skipavik ferjekai" />
		<tag k="ssr:stedsnr" v="774448" />
	</node>
	<node id="-657243" lat="61.0221222218" lon="5.40362777084">
>>>>>>> e1d4bc35ff8a6074a6f2e91616a996b547c36f15
		<tag k="bridge" v="yes" />
		<tag k="layer" v="1" />
		<tag k="name" v="Furudal" />
		<tag k="ssr:stedsnr" v="107442" />
	</node>
<<<<<<< HEAD
	<node lat="61.04138611496552" lon="5.484663887893621" id="-32760">
=======
	<node id="-656858" lat="61.041386115" lon="5.48466388789">
>>>>>>> e1d4bc35ff8a6074a6f2e91616a996b547c36f15
		<tag k="alt_name" v="Apestøa" />
		<tag k="fixme" v="verify maritime location" />
		<tag k="mooring" v="yes" />
		<tag k="name" v="Apestoda" />
		<tag k="place" v="locality" />
		<tag k="ssr:stedsnr" v="130030" />
	</node>
<<<<<<< HEAD
=======
	<node id="-657240" lat="61.041477774" lon="5.17826110988">
		<tag k="bridge" v="yes" />
		<tag k="layer" v="1" />
		<tag k="name" v="Trangane" />
		<tag k="ssr:stedsnr" v="289420" />
	</node>
	<node id="-657239" lat="61.0140722212" lon="5.19175278026">
		<tag k="bridge" v="yes" />
		<tag k="layer" v="1" />
		<tag k="name" v="Nordgulen" />
		<tag k="ssr:stedsnr" v="289405" />
	</node>
	<node id="-657238" lat="61.0546611145" lon="5.50646111021">
		<tag k="amenity" v="ferry_terminal" />
		<tag k="name" v="Oppedal ferjekai" />
		<tag k="ssr:stedsnr" v="289404" />
	</node>
	<node id="-657998" lat="60.8720083375" lon="5.11794721776">
		<tag k="bridge" v="yes" />
		<tag k="layer" v="1" />
		<tag k="name" v="Eidsbotn" />
		<tag k="ssr:stedsnr" v="896455" />
	</node>
	<node id="-659664" lat="60.8558416699" lon="5.03466944403">
		<tag k="man_made" v="quay" />
		<tag k="name" v="Skipavika Havneanlegg" />
		<tag k="place" v="locality" />
		<tag k="ssr:stedsnr" v="545309" />
	</node>
	<node id="-659663" lat="60.9669055538" lon="5.18616944056">
		<tag k="bridge" v="yes" />
		<tag k="layer" v="1" />
		<tag k="name" v="Leversund" />
		<tag k="ssr:stedsnr" v="531449" />
	</node>
	<node id="-659662" lat="60.9232222179" lon="5.33405277256">
		<tag k="bridge" v="yes" />
		<tag k="layer" v="1" />
		<tag k="name" v="Straume" />
		<tag k="ssr:stedsnr" v="531423" />
	</node>
	<node id="-659661" lat="61.0457777793" lon="5.30450277796">
		<tag k="bridge" v="yes" />
		<tag k="layer" v="1" />
		<tag k="name" v="Sjuvik" />
		<tag k="ssr:stedsnr" v="531420" />
	</node>
	<node id="-657996" lat="60.9941194428" lon="5.18878055861">
		<tag k="bridge" v="yes" />
		<tag k="layer" v="1" />
		<tag k="name" v="Kletteelva" />
		<tag k="ssr:stedsnr" v="896449" />
	</node>
	<node id="-657995" lat="61.0161027791" lon="5.45816944074">
		<tag k="bridge" v="yes" />
		<tag k="layer" v="1" />
		<tag k="name" v="Bastemyra" />
		<tag k="ssr:stedsnr" v="896443" />
	</node>
	<node id="-658122" lat="60.9674999999" lon="5.25070833543">
		<tag k="bridge" v="yes" />
		<tag k="layer" v="1" />
		<tag k="name" v="Steinhelle" />
		<tag k="ssr:stedsnr" v="956436" />
	</node>
	<node id="-657993" lat="61.0276305573" lon="5.19118055458">
		<tag k="bridge" v="yes" />
		<tag k="layer" v="1" />
		<tag k="name" v="Sætre" />
		<tag k="ssr:stedsnr" v="896434" />
	</node>
	<node id="-658632" lat="60.9838555566" lon="5.0851083313">
		<tag k="bridge" v="yes" />
		<tag k="layer" v="1" />
		<tag k="name" v="Midtunvågen" />
		<tag k="ssr:stedsnr" v="46468" />
	</node>
	<node id="-657991" lat="60.9029277739" lon="5.13438889287">
		<tag k="bridge" v="yes" />
		<tag k="layer" v="1" />
		<tag k="name" v="Grinde" />
		<tag k="ssr:stedsnr" v="713434" />
	</node>
	<node id="-657349" lat="60.8585861141" lon="4.92463888276">
		<tag k="amenity" v="ferry_terminal" />
		<tag k="name" v="Gråvika ferjekai" />
		<tag k="ssr:stedsnr" v="494378" />
	</node>
	<node id="-657994" lat="61.0602638917" lon="5.18280833546">
		<tag k="bridge" v="yes" />
		<tag k="layer" v="1" />
		<tag k="name" v="Rutledal" />
		<tag k="ssr:stedsnr" v="896437" />
	</node>
	<node id="-658997" lat="61.0655777791" lon="5.27315000263">
		<tag k="bridge" v="yes" />
		<tag k="layer" v="1" />
		<tag k="name" v="Bålen" />
		<tag k="ssr:stedsnr" v="167451" />
	</node>
	<node id="-658996" lat="60.9885777739" lon="5.31606666189">
		<tag k="bridge" v="yes" />
		<tag k="layer" v="1" />
		<tag k="name" v="Austgulen" />
		<tag k="ssr:stedsnr" v="167448" />
	</node>
	<node id="-658995" lat="61.054630556" lon="5.51001389317">
		<tag k="bridge" v="yes" />
		<tag k="layer" v="1" />
		<tag k="name" v="Ytre Oppedal" />
		<tag k="ssr:stedsnr" v="167443" />
	</node>
	<node id="-658994" lat="61.0639305602" lon="5.56196389264">
		<tag k="bridge" v="yes" />
		<tag k="layer" v="1" />
		<tag k="name" v="Oppedal Indre" />
		<tag k="ssr:stedsnr" v="167429" />
	</node>
	<node id="-658163" lat="61.0176055596" lon="5.45946665912">
		<tag k="bridge" v="yes" />
		<tag k="layer" v="1" />
		<tag k="name" v="Brekkeelva" />
		<tag k="ssr:stedsnr" v="835472" />
	</node>
	<node id="-659120" lat="60.8837555596" lon="4.97196110195">
		<tag k="man_made" v="quay" />
		<tag k="name" v="Ånneland Kai" />
		<tag k="place" v="locality" />
		<tag k="ssr:stedsnr" v="213000" />
	</node>
	<node id="-657992" lat="60.8567408471" lon="5.06392940925">
		<tag k="alt_name" v="Sløvåg ferjekai" />
		<tag k="amenity" v="ferry_terminal" />
		<tag k="name" v="Sløvågen ferjekai" />
		<tag k="ssr:stedsnr" v="896432" />
	</node>
	<node id="-659502" lat="60.896077776" lon="5.08282222757">
		<tag k="bridge" v="yes" />
		<tag k="layer" v="1" />
		<tag k="name" v="Svardal" />
		<tag k="ssr:stedsnr" v="410423" />
	</node>
	<node id="-657757" lat="60.9907972239" lon="5.18657221327">
		<tag k="bridge" v="yes" />
		<tag k="layer" v="1" />
		<tag k="name" v="Nese" />
		<tag k="ssr:stedsnr" v="592436" />
	</node>
	<node id="-660018" lat="61.0672305571" lon="5.2298944412">
		<tag k="bridge" v="yes" />
		<tag k="layer" v="1" />
		<tag k="name" v="Boltelva" />
		<tag k="ssr:stedsnr" v="652396" />
	</node>
	<node id="-660017" lat="60.9830833368" lon="5.48484166264">
		<tag k="bridge" v="yes" />
		<tag k="layer" v="1" />
		<tag k="name" v="Storeelva" />
		<tag k="ssr:stedsnr" v="652376" />
	</node>
	<node id="-657997" lat="60.9768583342" lon="5.28228056121">
		<tag k="bridge" v="yes" />
		<tag k="layer" v="1" />
		<tag k="name" v="Kløvtveit" />
		<tag k="ssr:stedsnr" v="896450" />
	</node>
	<node id="-657009" lat="60.8784333356" lon="5.13320554674">
		<tag k="bridge" v="yes" />
		<tag k="layer" v="1" />
		<tag k="name" v="Høyvik" />
		<tag k="ssr:stedsnr" v="289434" />
	</node>
	<node id="-659503" lat="60.9623500026" lon="5.20459721765">
		<tag k="bridge" v="yes" />
		<tag k="layer" v="1" />
		<tag k="name" v="Sanddøla" />
		<tag k="ssr:stedsnr" v="410425" />
	</node>
	<node id="-659947" lat="60.9879277734" lon="5.40780833008">
		<tag k="highway" v="path" />
		<tag k="name" v="Reievegen" />
		<tag k="ssr:stedsnr" v="642014" />
	</node>
	<node id="-657010" lat="60.9890694408" lon="5.47759721397">
		<tag k="bridge" v="yes" />
		<tag k="layer" v="1" />
		<tag k="name" v="Helvetesgjel" />
		<tag k="ssr:stedsnr" v="289446" />
	</node>
	<node id="-660361" lat="60.9774194486" lon="5.48684721758">
		<tag k="bridge" v="yes" />
		<tag k="layer" v="1" />
		<tag k="name" v="Djupdalsgrova" />
		<tag k="ssr:stedsnr" v="835484" />
	</node>
	<node id="-659329" lat="60.890050002" lon="5.04931110564">
		<tag k="bridge" v="yes" />
		<tag k="layer" v="1" />
		<tag k="name" v="Fivelsdal" />
		<tag k="ssr:stedsnr" v="349492" />
	</node>
	<node id="-657003" lat="61.0345732418" lon="5.49017168121">
		<tag k="layer" v="-1" />
		<tag k="name" v="Skrikeberg" />
		<tag k="ssr:stedsnr" v="165772" />
		<tag k="tunnel" v="yes" />
	</node>
>>>>>>> e1d4bc35ff8a6074a6f2e91616a996b547c36f15
</osm>
