<?xml version="1.0" encoding="UTF-8"?>
<osm version="0.6" generator="osmapis">
	<node lat="61.00167222160837" lon="5.1351527727680315" id="-78661">
		<tag k="name" v="Solimyrane" />
		<tag k="natural" v="wetland" />
		<tag k="ssr:stedsnr" v="35622" />
	</node>
	<node lat="61.06326389134893" lon="5.230447227792406" id="-78685">
		<tag k="name" v="Timbermyrane" />
		<tag k="natural" v="wetland" />
		<tag k="ssr:stedsnr" v="36561" />
	</node>
	<node lat="61.05942777587542" lon="5.237455553990478" id="-78686">
		<tag k="name" v="Hatleskogen" />
		<tag k="place" v="locality" />
		<tag k="ssr:stedsnr" v="36572" />
	</node>
	<node lat="61.01235555944186" lon="5.434519445657794" id="-78745">
		<tag k="name" v="Hellersmyra" />
		<tag k="natural" v="wetland" />
		<tag k="ssr:stedsnr" v="70912" />
	</node>
	<node lat="60.93056666679453" lon="5.114797221847774" id="-78758">
		<tag k="name" v="Storemyra" />
		<tag k="natural" v="wetland" />
		<tag k="ssr:stedsnr" v="91773" />
	</node>
	<node lat="60.92271389007898" lon="5.328025001258693" id="-78800">
		<tag k="name" v="Straumholene" />
		<tag k="natural" v="wetland" />
		<tag k="ssr:stedsnr" v="97412" />
	</node>
	<node lat="60.97231944213717" lon="5.4894305570857345" id="-78806">
		<tag k="name" v="Styggegjelurane" />
		<tag k="natural" v="scree" />
		<tag k="ssr:stedsnr" v="97714" />
	</node>
	<node lat="60.89222222583607" lon="5.096436118606371" id="-78980">
		<tag k="name" v="Klypemyra" />
		<tag k="natural" v="wetland" />
		<tag k="ssr:stedsnr" v="156813" />
	</node>
	<node lat="60.8906472265137" lon="5.062225005120824" id="-79009">
		<tag k="name" v="Stemmelsmyra" />
		<tag k="natural" v="wetland" />
		<tag k="ssr:stedsnr" v="157779" />
	</node>
	<node lat="60.89321388547357" lon="5.088338888244789" id="-79108">
		<tag k="name" v="Klypemyra" />
		<tag k="natural" v="wetland" />
		<tag k="ssr:stedsnr" v="217813" />
	</node>
	<node lat="60.98365000090533" lon="5.132313881651752" id="-79155">
		<tag k="name" v="Lyngmyrane" />
		<tag k="natural" v="wetland" />
		<tag k="ssr:stedsnr" v="455792" />
	</node>
	<node lat="60.86066110733816" lon="4.995341675764325" id="-79159">
		<tag k="name" v="Vardemyra" />
		<tag k="natural" v="wetland" />
		<tag k="ssr:stedsnr" v="455956" />
	</node>
	<node lat="61.068863892817106" lon="5.111161102352747" id="-79254">
		<tag k="name" v="Grimhellermyrane" />
		<tag k="natural" v="wetland" />
		<tag k="ssr:stedsnr" v="460193" />
	</node>
	<node lat="60.9216611152064" lon="4.866719448295876" id="-79262">
		<tag k="name" v="Marifjøra" />
		<tag k="natural" v="wetland" />
		<tag k="ssr:stedsnr" v="460558" />
	</node>
	<node lat="60.96103610763741" lon="5.363811112144724" id="-79277">
		<tag k="name" v="Øyrane" />
		<tag k="natural" v="wetland" />
		<tag k="ssr:stedsnr" v="461055" />
	</node>
	<node lat="60.927191663747934" lon="5.1500805528834785" id="-79284">
		<tag k="name" v="Myrane" />
		<tag k="natural" v="wetland" />
		<tag k="ssr:stedsnr" v="461337" />
	</node>
	<node lat="61.0296138894754" lon="5.338397229650004" id="-79287">
		<tag k="name" v="Revura" />
		<tag k="natural" v="scree" />
		<tag k="ssr:stedsnr" v="461368" />
	</node>
	<node lat="60.91345277384229" lon="4.925661108598003" id="-79375">
		<tag k="name" v="Skitnetjørnmyra" />
		<tag k="natural" v="wetland" />
		<tag k="ssr:stedsnr" v="338209" />
	</node>
	<node lat="60.923083330990636" lon="5.05878054821977" id="-79387">
		<tag k="name" v="Vassmyrane" />
		<tag k="natural" v="wetland" />
		<tag k="ssr:stedsnr" v="338902" />
	</node>
	<node lat="61.00591666569715" lon="5.236833330008261" id="-79408">
		<tag k="name" v="Permyra" />
		<tag k="natural" v="wetland" />
		<tag k="ssr:stedsnr" v="339648" />
	</node>
	<node lat="60.9061194478602" lon="4.87841111060075" id="-79479">
		<tag k="name" v="Djupmyra" />
		<tag k="natural" v="wetland" />
		<tag k="ssr:stedsnr" v="398196" />
	</node>
	<node lat="60.912430559052716" lon="4.888924994728829" id="-79481">
		<tag k="name" v="Sandvikmyra" />
		<tag k="natural" v="wetland" />
		<tag k="ssr:stedsnr" v="398203" />
	</node>
	<node lat="60.93387777627237" lon="5.384872220291887" id="-79504">
		<tag k="name" v="Gråmerra" />
		<tag k="natural" v="scree" />
		<tag k="ssr:stedsnr" v="400228" />
	</node>
	<node lat="61.074447218767034" lon="5.154830564102878" id="-79624">
		<tag k="name" v="Vebergmyra" />
		<tag k="natural" v="wetland" />
		<tag k="ssr:stedsnr" v="460259" />
	</node>
	<node lat="60.908827775176434" lon="4.849283335563823" id="-79692">
		<tag k="name" v="Styggemyra" />
		<tag k="natural" v="wetland" />
		<tag k="ssr:stedsnr" v="676455" />
	</node>
	<node lat="60.946319443215216" lon="5.407883331535796" id="-79707">
		<tag k="name" v="Loene" />
		<tag k="natural" v="wetland" />
		<tag k="ssr:stedsnr" v="676853" />
	</node>
	<node lat="60.931105551783176" lon="5.234819445181299" id="-79741">
		<tag k="name" v="Bondesteinen" />
		<tag k="natural" v="stone" />
		<tag k="ssr:stedsnr" v="493865" />
	</node>
	<node lat="60.90934166601313" lon="4.881663885319011" id="-79767">
		<tag k="name" v="Godmyra" />
		<tag k="natural" v="wetland" />
		<tag k="ssr:stedsnr" v="520178" />
	</node>
	<node lat="60.97943888456016" lon="5.436480552692205" id="-79775">
		<tag k="name" v="Breimyra" />
		<tag k="natural" v="wetland" />
		<tag k="ssr:stedsnr" v="521015" />
	</node>
	<node lat="60.94539167046913" lon="5.374058331185644" id="-79779">
		<tag k="name" v="Blåmyra" />
		<tag k="natural" v="wetland" />
		<tag k="ssr:stedsnr" v="521216" />
	</node>
	<node lat="60.92265000234992" lon="5.199330550759484" id="-79790">
		<tag k="name" v="Langemyra" />
		<tag k="natural" v="wetland" />
		<tag k="ssr:stedsnr" v="521570" />
	</node>
	<node lat="61.030222219846166" lon="5.049800008401529" id="-79840">
		<tag k="name" v="Dammemyra" />
		<tag k="natural" v="wetland" />
		<tag k="ssr:stedsnr" v="555415" />
	</node>
	<node lat="60.94836944261646" lon="5.132561115535777" id="-79854">
		<tag k="name" v="Strandebøen" />
		<tag k="place" v="locality" />
		<tag k="ssr:stedsnr" v="571802" />
	</node>
	<node lat="60.88614721914711" lon="5.005158335761461" id="-79869">
		<tag k="name" v="Grøndalsmyra" />
		<tag k="natural" v="wetland" />
		<tag k="ssr:stedsnr" v="580413" />
	</node>
	<node lat="61.062061111334195" lon="5.072511104608436" id="-79877">
		<tag k="name" v="Bjørkura" />
		<tag k="natural" v="scree" />
		<tag k="ssr:stedsnr" v="581653" />
	</node>
	<node lat="60.8543944464145" lon="5.010966660165926" id="-79891">
		<tag k="name" v="Kvernhusmyra" />
		<tag k="natural" v="wetland" />
		<tag k="ssr:stedsnr" v="697042" />
	</node>
	<node lat="60.987633333212685" lon="5.429169453205662" id="-79921">
		<tag k="name" v="Tåholmane" />
		<tag k="natural" v="wetland" />
		<tag k="ssr:stedsnr" v="615745" />
	</node>
	<node lat="60.96986111575309" lon="5.371336116156167" id="-79952">
		<tag k="name" v="Breimyra" />
		<tag k="natural" v="wetland" />
		<tag k="ssr:stedsnr" v="703054" />
	</node>
	<node lat="60.91880000468976" lon="4.841916673125048" id="-79963">
		<tag k="name" v="Høljemyra" />
		<tag k="natural" v="wetland" />
		<tag k="ssr:stedsnr" v="703553" />
	</node>
	<node lat="60.972300002155826" lon="5.437652773122389" id="-80012">
		<tag k="name" v="Romeklypet" />
		<tag k="natural" v="wetland" />
		<tag k="ssr:stedsnr" v="642108" />
	</node>
	<node lat="61.034677779721726" lon="5.570694435590162" id="-80040">
		<tag k="name" v="Lonura" />
		<tag k="natural" v="scree" />
		<tag k="ssr:stedsnr" v="642909" />
	</node>
	<node lat="60.8799861078945" lon="4.986541662877899" id="-80103">
		<tag k="name" v="Våtmyra" />
		<tag k="natural" v="wetland" />
		<tag k="ssr:stedsnr" v="697104" />
	</node>
	<node lat="60.87300277828971" lon="4.8993666624822385" id="-80114">
		<tag k="name" v="Storesteinen" />
		<tag k="natural" v="stone" />
		<tag k="ssr:stedsnr" v="702461" />
	</node>
	<node lat="60.999786114806746" lon="5.3495861078289835" id="-80129">
		<tag k="name" v="Olsetmyra" />
		<tag k="natural" v="wetland" />
		<tag k="ssr:stedsnr" v="703240" />
	</node>
	<node lat="61.02930277895192" lon="5.076022222928264" id="-80147">
		<tag k="name" v="Vardeskogen" />
		<tag k="place" v="locality" />
		<tag k="ssr:stedsnr" v="703516" />
	</node>
	<node lat="61.04994721989345" lon="5.133847225256675" id="-80155">
		<tag k="name" v="Skarmyra" />
		<tag k="natural" v="wetland" />
		<tag k="ssr:stedsnr" v="703863" />
	</node>
	<node lat="60.99343333280886" lon="5.128663891271439" id="-80184">
		<tag k="name" v="Storemyra" />
		<tag k="natural" v="wetland" />
		<tag k="ssr:stedsnr" v="737172" />
	</node>
	<node lat="60.929966667380945" lon="4.831052769975175" id="-80249">
		<tag k="name" v="Storehavet" />
		<tag k="natural" v="wetland" />
		<tag k="ssr:stedsnr" v="763598" />
	</node>
	<node lat="60.98945000215666" lon="5.43556388686302" id="-80255">
		<tag k="name" v="Moldemyrane" />
		<tag k="natural" v="wetland" />
		<tag k="ssr:stedsnr" v="764011" />
	</node>
	<node lat="60.87420277703066" lon="4.968766658867867" id="-80369">
		<tag k="name" v="Storålane" />
		<tag k="natural" v="wetland" />
		<tag k="ssr:stedsnr" v="919387" />
	</node>
	<node lat="60.950049999756274" lon="5.1381388807906605" id="-80384">
		<tag k="name" v="Rokmyra" />
		<tag k="natural" v="wetland" />
		<tag k="ssr:stedsnr" v="819720" />
	</node>
	<node lat="60.91039444591176" lon="5.086066659676321" id="-80400">
		<tag k="name" v="Kubbemyra" />
		<tag k="natural" v="wetland" />
		<tag k="ssr:stedsnr" v="824904" />
	</node>
	<node lat="60.91698056017787" lon="5.051616672964217" id="-80401">
		<tag k="name" v="Setjemyrane" />
		<tag k="natural" v="wetland" />
		<tag k="ssr:stedsnr" v="824932" />
	</node>
	<node lat="60.91276110992954" lon="5.131708333551623" id="-80407">
		<tag k="name" v="Reset" />
		<tag k="place" v="locality" />
		<tag k="ssr:stedsnr" v="825304" />
	</node>
	<node lat="61.01122221806432" lon="5.21092500789217" id="-80498">
		<tag k="name" v="Leinkjemyrane" />
		<tag k="natural" v="wetland" />
		<tag k="ssr:stedsnr" v="885960" />
	</node>
	<node lat="61.04230000120086" lon="5.266897230605773" id="-80600">
		<tag k="name" v="Hjartegota" />
		<tag k="natural" v="wetland" />
		<tag k="ssr:stedsnr" v="946589" />
	</node>
	<node lat="61.058838884563315" lon="5.150494447727905" id="-80717">
		<tag k="name" v="Langemyra" />
		<tag k="natural" v="wetland" />
		<tag k="ssr:stedsnr" v="35184" />
	</node>
	<node lat="61.06299722414116" lon="5.137986107185229" id="-80722">
		<tag k="name" v="Søkjemyra" />
		<tag k="natural" v="wetland" />
		<tag k="ssr:stedsnr" v="35157" />
	</node>
	<node lat="60.96924722445205" lon="5.384886115899477" id="-80745">
		<tag k="name" v="Svateigen" />
		<tag k="place" v="locality" />
		<tag k="ssr:stedsnr" v="36046" />
	</node>
	<node lat="60.962344440989725" lon="5.37566944775186" id="-80746">
		<tag k="name" v="Hundeurane" />
		<tag k="natural" v="scree" />
		<tag k="ssr:stedsnr" v="36051" />
	</node>
	<node lat="60.87294166681967" lon="4.885136113558192" id="-80856">
		<tag k="name" v="Svortemyrane" />
		<tag k="natural" v="wetland" />
		<tag k="ssr:stedsnr" v="95538" />
	</node>
	<node lat="61.04913333063673" lon="5.48565555880589" id="-80895">
		<tag k="name" v="Lonene" />
		<tag k="natural" v="wetland" />
		<tag k="ssr:stedsnr" v="97978" />
	</node>
	<node lat="61.04096111228276" lon="5.528274998584337" id="-80898">
		<tag k="name" v="Knippemyrane" />
		<tag k="natural" v="wetland" />
		<tag k="ssr:stedsnr" v="97956" />
	</node>
	<node lat="60.93481944498316" lon="4.843744436111457" id="-80977">
		<tag k="name" v="Revurda" />
		<tag k="natural" v="scree" />
		<tag k="ssr:stedsnr" v="156584" />
	</node>
	<node lat="61.0470777769992" lon="5.070149995925834" id="-81073">
		<tag k="name" v="Djupemyra" />
		<tag k="natural" v="wetland" />
		<tag k="ssr:stedsnr" v="191399" />
	</node>
	<node lat="60.96247499746528" lon="5.228444448346808" id="-81080">
		<tag k="name" v="Oppdalsøyra" />
		<tag k="old_name" v="Uppdalsøyra" />
		<tag k="place" v="locality" />
		<tag k="ssr:stedsnr" v="191741" />
	</node>
	<node lat="60.85765833029552" lon="4.996966671028275" id="-81114">
		<tag k="name" v="Svehaugmyra" />
		<tag k="natural" v="wetland" />
		<tag k="ssr:stedsnr" v="212949" />
	</node>
	<node lat="61.0682666650757" lon="5.151188882414598" id="-81148">
		<tag k="name" v="Geitestigmyra" />
		<tag k="natural" v="wetland" />
		<tag k="ssr:stedsnr" v="218160" />
	</node>
	<node lat="61.01797221856186" lon="5.297033328354975" id="-81153">
		<tag k="name" v="Omnane" />
		<tag k="natural" v="scree" />
		<tag k="ssr:stedsnr" v="218345" />
	</node>
	<node lat="60.920913886831606" lon="5.111505550720146" id="-81155">
		<tag k="name" v="Søre Dalemyra" />
		<tag k="natural" v="wetland" />
		<tag k="ssr:stedsnr" v="218361" />
	</node>
	<node lat="61.00006944482648" lon="5.422975004198027" id="-81176">
		<tag k="name" v="Storura" />
		<tag k="natural" v="scree" />
		<tag k="ssr:stedsnr" v="273664" />
	</node>
	<node lat="60.89756389322878" lon="5.100274998356237" id="-81217">
		<tag k="name" v="Storura" />
		<tag k="natural" v="scree" />
		<tag k="ssr:stedsnr" v="278834" />
	</node>
	<node lat="60.92071666368515" lon="5.117741667892241" id="-81233">
		<tag k="name" v="Lassemyra" />
		<tag k="natural" v="wetland" />
		<tag k="ssr:stedsnr" v="279354" />
	</node>
	<node lat="60.90939999608994" lon="5.181991664953362" id="-81239">
		<tag k="name" v="Dumbemyra" />
		<tag k="natural" v="wetland" />
		<tag k="ssr:stedsnr" v="279594" />
	</node>
	<node lat="60.893250003358325" lon="5.102488882073498" id="-81281">
		<tag k="name" v="Høljemyra" />
		<tag k="natural" v="wetland" />
		<tag k="ssr:stedsnr" v="311932" />
	</node>
	<node lat="61.03819167103534" lon="5.036369450049972" id="-81349">
		<tag k="name" v="Flotevikmyrane" />
		<tag k="natural" v="wetland" />
		<tag k="ssr:stedsnr" v="338069" />
	</node>
	<node lat="60.99448055256839" lon="5.132072215394454" id="-81358">
		<tag k="name" v="Byrkjeskogen" />
		<tag k="place" v="locality" />
		<tag k="ssr:stedsnr" v="338487" />
	</node>
	<node lat="60.92328611310851" lon="5.109313886976015" id="-81381">
		<tag k="name" v="Nordre Dalemyra" />
		<tag k="natural" v="wetland" />
		<tag k="ssr:stedsnr" v="339365" />
	</node>
	<node lat="60.94664444846698" lon="5.1903444459713235" id="-81384">
		<tag k="name" v="Raudsteinsmyra" />
		<tag k="natural" v="wetland" />
		<tag k="ssr:stedsnr" v="339483" />
	</node>
	<node lat="60.95514444076119" lon="4.914069439912651" id="-81511">
		<tag k="name" v="Storemyra" />
		<tag k="natural" v="wetland" />
		<tag k="ssr:stedsnr" v="399315" />
	</node>
	<node lat="61.00579166806488" lon="5.037611112400862" id="-81517">
		<tag k="name" v="Hestemyra" />
		<tag k="natural" v="wetland" />
		<tag k="ssr:stedsnr" v="399448" />
	</node>
	<node lat="60.89786666708928" lon="5.085102773059285" id="-81525">
		<tag k="name" v="Kleivemyra" />
		<tag k="natural" v="wetland" />
		<tag k="ssr:stedsnr" v="399823" />
	</node>
	<node lat="61.00189444118871" lon="5.389816668945846" id="-81544">
		<tag k="name" v="Myrstølen" />
		<tag k="natural" v="wetland" />
		<tag k="ssr:stedsnr" v="400171" />
	</node>
	<node lat="61.02970555278994" lon="5.542077780023049" id="-81564">
		<tag k="name" v="Lonene" />
		<tag k="natural" v="wetland" />
		<tag k="ssr:stedsnr" v="400939" />
	</node>
	<node lat="61.06846944497762" lon="5.128419445438701" id="-81663">
		<tag k="name" v="Blautemyra" />
		<tag k="natural" v="wetland" />
		<tag k="ssr:stedsnr" v="521148" />
	</node>
	<node lat="61.05645277707938" lon="5.048169443704905" id="-81664">
		<tag k="name" v="Storemyra" />
		<tag k="natural" v="wetland" />
		<tag k="ssr:stedsnr" v="520625" />
	</node>
	<node lat="61.06303055615575" lon="5.060055557516594" id="-81665">
		<tag k="name" v="Utgjerdet" />
		<tag k="place" v="locality" />
		<tag k="ssr:stedsnr" v="520633" />
	</node>
	<node lat="60.94606944053219" lon="5.407791658243918" id="-81666">
		<tag k="name" v="Roll-lonene" />
		<tag k="natural" v="wetland" />
		<tag k="ssr:stedsnr" v="521276" />
	</node>
	<node lat="61.02315833668062" lon="5.307897224621116" id="-81681">
		<tag k="name" v="Breimyra" />
		<tag k="natural" v="wetland" />
		<tag k="ssr:stedsnr" v="521355" />
	</node>
	<node lat="60.92002500388908" lon="5.11258333266315" id="-81682">
		<tag k="name" v="Storemyra" />
		<tag k="natural" v="wetland" />
		<tag k="ssr:stedsnr" v="521358" />
	</node>
	<node lat="60.878141670522396" lon="4.978430555362724" id="-81722">
		<tag k="name" v="Småålane" />
		<tag k="natural" v="wetland" />
		<tag k="ssr:stedsnr" v="554439" />
	</node>
	<node lat="60.93233888756734" lon="5.369894449708991" id="-81739">
		<tag k="alt_name" v="Selvikøyra" />
		<tag k="name" v="Solvikøyra" />
		<tag k="place" v="locality" />
		<tag k="ssr:stedsnr" v="554913" />
	</node>
	<node lat="61.066724995893935" lon="5.158333335616346" id="-81762">
		<tag k="name" v="Skardmyra" />
		<tag k="natural" v="wetland" />
		<tag k="ssr:stedsnr" v="555540" />
	</node>
	<node lat="60.95028055727262" lon="5.154777774624007" id="-81783">
		<tag k="name" v="Åmdalsmyrane" />
		<tag k="natural" v="wetland" />
		<tag k="ssr:stedsnr" v="576739" />
	</node>
	<node lat="60.98735833059374" lon="5.035466658256492" id="-81784">
		<tag k="name" v="Kolgryta" />
		<tag k="natural" v="wetland" />
		<tag k="ssr:stedsnr" v="576783" />
	</node>
	<node lat="61.014608337135144" lon="5.216972223518596" id="-81823">
		<tag k="name" v="Hattura" />
		<tag k="natural" v="scree" />
		<tag k="ssr:stedsnr" v="581634" />
	</node>
	<node lat="61.017663885128655" lon="5.304308336206377" id="-81826">
		<tag k="name" v="Kaupungteigen" />
		<tag k="place" v="locality" />
		<tag k="ssr:stedsnr" v="582370" />
	</node>
	<node lat="60.90713333495398" lon="5.1419888872544535" id="-81830">
		<tag k="name" v="Blomtræet" />
		<tag k="place" v="locality" />
		<tag k="ssr:stedsnr" v="582382" />
	</node>
	<node lat="60.89053333390056" lon="5.103911108090794" id="-81838">
		<tag k="name" v="Torvmyra" />
		<tag k="natural" v="wetland" />
		<tag k="ssr:stedsnr" v="581836" />
	</node>
	<node lat="61.0185111122468" lon="5.181308339325617" id="-81841">
		<tag k="name" v="Ryskingmyra" />
		<tag k="natural" v="wetland" />
		<tag k="ssr:stedsnr" v="581938" />
	</node>
	<node lat="61.06339722286834" lon="5.2602249971830375" id="-81850">
		<tag k="name" v="Kalvemyra" />
		<tag k="natural" v="wetland" />
		<tag k="ssr:stedsnr" v="582625" />
	</node>
	<node lat="60.85319722354975" lon="4.99247778670243" id="-81937">
		<tag k="name" v="Torvmyra" />
		<tag k="natural" v="wetland" />
		<tag k="ssr:stedsnr" v="636016" />
	</node>
	<node lat="61.0203749962432" lon="5.449386120212329" id="-81942">
		<tag k="name" v="Blindemyra" />
		<tag k="natural" v="wetland" />
		<tag k="ssr:stedsnr" v="636956" />
	</node>
	<node lat="61.009341670246364" lon="5.426838884205635" id="-81943">
		<tag k="name" v="Storemyra" />
		<tag k="natural" v="wetland" />
		<tag k="ssr:stedsnr" v="636758" />
	</node>
	<node lat="60.90716111097315" lon="4.880658335430782" id="-81960">
		<tag k="name" v="Høljemyra" />
		<tag k="natural" v="wetland" />
		<tag k="ssr:stedsnr" v="641157" />
	</node>
	<node lat="60.869555555458575" lon="4.902436106498144" id="-81971">
		<tag k="name" v="Rørdalsmyra" />
		<tag k="natural" v="wetland" />
		<tag k="ssr:stedsnr" v="641436" />
	</node>
	<node lat="60.99752500335607" lon="5.120727773906917" id="-81973">
		<tag k="name" v="Langemyra" />
		<tag k="natural" v="wetland" />
		<tag k="ssr:stedsnr" v="641511" />
	</node>
	<node lat="60.94771388712432" lon="5.41356945281712" id="-81978">
		<tag k="name" v="Nylona" />
		<tag k="natural" v="wetland" />
		<tag k="ssr:stedsnr" v="642077" />
	</node>
	<node lat="61.01994722407293" lon="5.355408340608523" id="-81991">
		<tag k="name" v="Gjerdskormyrane" />
		<tag k="natural" v="wetland" />
		<tag k="ssr:stedsnr" v="642140" />
	</node>
	<node lat="60.94686388806098" lon="5.407000006347328" id="-81995">
		<tag k="name" v="Verlonene" />
		<tag k="natural" v="wetland" />
		<tag k="ssr:stedsnr" v="642262" />
	</node>
	<node lat="61.059877775509854" lon="5.558438882029394" id="-81996">
		<tag k="name" v="Kvia" />
		<tag k="place" v="locality" />
		<tag k="ssr:stedsnr" v="642263" />
	</node>
	<node lat="61.02487222230573" lon="5.30789445117276" id="-81998">
		<tag k="name" v="Torvmyrane" />
		<tag k="natural" v="wetland" />
		<tag k="ssr:stedsnr" v="642329" />
	</node>
	<node lat="60.93376944831253" lon="5.240955549835282" id="-82057">
		<tag k="name" v="Supemyra" />
		<tag k="natural" v="wetland" />
		<tag k="ssr:stedsnr" v="736859" />
	</node>
	<node lat="61.03158055148342" lon="5.492186117701871" id="-82091">
		<tag k="name" v="Seljemyra" />
		<tag k="natural" v="wetland" />
		<tag k="ssr:stedsnr" v="758990" />
	</node>
	<node lat="61.062475003577774" lon="5.12690832821745" id="-82108">
		<tag k="name" v="Tjørnemyra" />
		<tag k="natural" v="wetland" />
		<tag k="ssr:stedsnr" v="763170" />
	</node>
	<node lat="60.92314999750106" lon="4.845641671688943" id="-82115">
		<tag k="name" v="Hattemyra" />
		<tag k="natural" v="wetland" />
		<tag k="ssr:stedsnr" v="763559" />
	</node>
	<node lat="60.91428333527916" lon="5.049616662904049" id="-82120">
		<tag k="name" v="Furnesmarka" />
		<tag k="place" v="locality" />
		<tag k="ssr:stedsnr" v="763922" />
	</node>
	<node lat="61.05277777558871" lon="5.593427776095365" id="-82132">
		<tag k="name" v="Løkane" />
		<tag k="natural" v="wetland" />
		<tag k="ssr:stedsnr" v="764636" />
	</node>
	<node lat="60.98520000435045" lon="5.503019439342866" id="-82135">
		<tag k="name" v="Myrane" />
		<tag k="natural" v="wetland" />
		<tag k="ssr:stedsnr" v="764782" />
	</node>
	<node lat="60.999580552006194" lon="5.471388888448359" id="-82213">
		<tag k="name" v="Amtsura" />
		<tag k="natural" v="scree" />
		<tag k="ssr:stedsnr" v="820000" />
	</node>
	<node lat="60.909455553295565" lon="4.891502781390578" id="-82228">
		<tag k="name" v="Nonvikmyra" />
		<tag k="natural" v="wetland" />
		<tag k="ssr:stedsnr" v="824240" />
	</node>
	<node lat="60.889748395713674" lon="5.067314072454805" id="-82244">
		<tag k="name" v="Avlessemyra" />
		<tag k="natural" v="wetland" />
		<tag k="ssr:stedsnr" v="824855" />
	</node>
	<node lat="60.891255551387744" lon="5.076811110340659" id="-82245">
		<tag k="name" v="Høljemyra" />
		<tag k="natural" v="wetland" />
		<tag k="ssr:stedsnr" v="824857" />
	</node>
	<node lat="60.98694444797507" lon="5.433508336482062" id="-82246">
		<tag k="name" v="Stølsmyrane" />
		<tag k="natural" v="wetland" />
		<tag k="ssr:stedsnr" v="825002" />
	</node>
	<node lat="60.90279444514658" lon="4.878902772155482" id="-82370">
		<tag k="name" v="Hestemyra" />
		<tag k="natural" v="wetland" />
		<tag k="ssr:stedsnr" v="884325" />
	</node>
	<node lat="60.87380277767965" lon="5.110041669356415" id="-82385">
		<tag k="name" v="Åsmyra" />
		<tag k="natural" v="wetland" />
		<tag k="ssr:stedsnr" v="885292" />
	</node>
	<node lat="60.871469445168565" lon="5.102397229631234" id="-82396">
		<tag k="name" v="Eikelimyra" />
		<tag k="natural" v="wetland" />
		<tag k="ssr:stedsnr" v="885763" />
	</node>
	<node lat="61.00912499763326" lon="5.350377768969392" id="-82408">
		<tag k="name" v="Breimyra" />
		<tag k="natural" v="wetland" />
		<tag k="ssr:stedsnr" v="886196" />
	</node>
	<node lat="60.94568333655715" lon="5.367980551982849" id="-82409">
		<tag k="name" v="Blåura" />
		<tag k="natural" v="scree" />
		<tag k="ssr:stedsnr" v="886219" />
	</node>
	<node lat="61.01537500046498" lon="5.456861106262968" id="-82445">
		<tag k="name" v="Bastemyra" />
		<tag k="natural" v="wetland" />
		<tag k="ssr:stedsnr" v="940691" />
	</node>
	<node lat="60.92830555142318" lon="5.13406111819849" id="-82450">
		<tag k="name" v="Ospemyra" />
		<tag k="natural" v="wetland" />
		<tag k="ssr:stedsnr" v="940871" />
	</node>
	<node lat="60.888361110541396" lon="5.019691659590822" id="-82459">
		<tag k="name" v="Porsmyra" />
		<tag k="natural" v="wetland" />
		<tag k="ssr:stedsnr" v="944523" />
	</node>
	<node lat="60.88961388860875" lon="5.09692221859456" id="-82473">
		<tag k="name" v="Dovesøkkjene" />
		<tag k="natural" v="wetland" />
		<tag k="ssr:stedsnr" v="945819" />
	</node>
	<node lat="60.98171388950204" lon="5.287572222841263" id="-82489">
		<tag k="name" v="Bukkura" />
		<tag k="natural" v="scree" />
		<tag k="ssr:stedsnr" v="946239" />
	</node>
	<node lat="60.91933332869223" lon="4.848147214817616" id="-82496">
		<tag k="name" v="Breimyra" />
		<tag k="natural" v="wetland" />
		<tag k="ssr:stedsnr" v="946480" />
	</node>
	<node lat="60.89622777492254" lon="4.861033335135648" id="-82500">
		<tag k="name" v="Breimyrane" />
		<tag k="natural" v="wetland" />
		<tag k="ssr:stedsnr" v="946477" />
	</node>
	<node lat="60.91895000035237" lon="4.854688888215433" id="-82501">
		<tag k="name" v="Godmyra" />
		<tag k="natural" v="wetland" />
		<tag k="ssr:stedsnr" v="946494" />
	</node>
	<node lat="61.0486527792386" lon="5.589547221190661" id="-82510">
		<tag k="name" v="Fjellsetmyra" />
		<tag k="natural" v="wetland" />
		<tag k="ssr:stedsnr" v="946612" />
	</node>
</osm>
