<?xml version="1.0" encoding="UTF-8"?>
<osm generator="osmapis" version="0.6">
	<node id="-568661" lat="60.9795694451" lon="4.8377888951">
		<tag k="name" v="Holtevatnet" />
		<tag k="natural" v="water" />
		<tag k="ssr:stedsnr" v="674332" />
	</node>
	<node id="-571388" lat="60.9231416705" lon="5.33340555022">
		<tag k="name" v="Straumen" />
		<tag k="natural" v="strait" />
		<tag k="ssr:stedsnr" v="797875" />
	</node>
	<node id="-571387" lat="60.929463893" lon="5.21757777218">
		<tag k="name" v="Skitnedalsvatnet" />
		<tag k="natural" v="water" />
		<tag k="ssr:stedsnr" v="797869" />
	</node>
	<node id="-571385" lat="60.9227333341" lon="5.11291944315">
		<tag k="name" v="Kvernhuselva" />
		<tag k="ssr:stedsnr" v="797859" />
		<tag k="waterway" v="stream" />
	</node>
	<node id="-571382" lat="60.9345323233" lon="5.36216410157">
		<tag k="alt_name" v="Ynnesdalsvatnet" />
		<tag k="name" v="Yndesdalsvatnet" />
		<tag k="natural" v="water" />
		<tag k="ssr:stedsnr" v="797855" />
		<tag k="water" v="lake" />
	</node>
	<node id="-571381" lat="60.9502260838" lon="5.29412892866">
		<tag k="alt_name" v="Transdalvatnet" />
		<tag k="name" v="Transdalsvatnet" />
		<tag k="natural" v="water" />
		<tag k="ssr:stedsnr" v="797847" />
		<tag k="water" v="lake" />
	</node>
	<node id="-569327" lat="60.9824583338" lon="5.12211388633">
		<tag k="name" v="Setreåselva" />
		<tag k="ssr:stedsnr" v="940807" />
		<tag k="waterway" v="stream" />
	</node>
	<node id="-571373" lat="60.9750027795" lon="5.3067666652">
		<tag k="name" v="Blåfjelltjørna" />
		<tag k="natural" v="water" />
		<tag k="ssr:stedsnr" v="797786" />
	</node>
	<node id="-571372" lat="60.9832888892" lon="5.39371387991">
		<tag k="alt_name" v="Botnevatnet" />
		<tag k="name" v="Botnavatnet" />
		<tag k="natural" v="water" />
		<tag k="ssr:stedsnr" v="797782" />
	</node>
	<node id="-571352" lat="60.9601833365" lon="4.94433888369">
		<tag k="name" v="Kvernhusvatnet" />
		<tag k="natural" v="water" />
		<tag k="ssr:stedsnr" v="796303" />
	</node>
	<node id="-571348" lat="60.9505138906" lon="5.0291777747">
		<tag k="name" v="Gardtjørna" />
		<tag k="natural" v="water" />
		<tag k="ssr:stedsnr" v="796279" />
	</node>
	<node id="-571347" lat="60.9512249983" lon="5.03742500415">
		<tag k="name" v="Langetjørna" />
		<tag k="natural" v="water" />
		<tag k="ssr:stedsnr" v="796278" />
	</node>
	<node id="-571346" lat="60.9540305566" lon="5.03737500129">
		<tag k="alt_name" v="Høgefjellsvatna;Høgefjelltjørna" />
		<tag k="name" v="Høgefjellstjørna" />
		<tag k="natural" v="water" />
		<tag k="ssr:stedsnr" v="796276" />
	</node>
	<node id="-571338" lat="60.8880772384" lon="5.05941080903">
		<tag k="name" v="Ytstetjørna" />
		<tag k="natural" v="water" />
		<tag k="ssr:stedsnr" v="764806" />
	</node>
	<node id="-571327" lat="61.0490861099" lon="5.06761943723">
		<tag k="name" v="Deknetjørna" />
		<tag k="natural" v="water" />
		<tag k="ssr:stedsnr" v="764706" />
	</node>
	<node id="-571326" lat="60.93233611" lon="5.50378889497">
		<tag k="name" v="Hellersgjelelva" />
		<tag k="ssr:stedsnr" v="764676" />
		<tag k="waterway" v="river" />
	</node>
	<node id="-571324" lat="60.9674472213" lon="5.27720556457">
		<tag k="name" v="Midlivika" />
		<tag k="natural" v="bay" />
		<tag k="ssr:stedsnr" v="764445" />
	</node>
	<node id="-569272" lat="61.0408805542" lon="5.1899361028">
		<tag k="name" v="Bjørndalselva" />
		<tag k="ssr:stedsnr" v="798582" />
		<tag k="waterway" v="stream" />
	</node>
	<node id="-569271" lat="61.0486250026" lon="5.16445832463">
		<tag k="name" v="Dyreskorvatnet" />
		<tag k="natural" v="water" />
		<tag k="ssr:stedsnr" v="798559" />
	</node>
	<node id="-571318" lat="60.9102361073" lon="5.14046111955">
		<tag k="name" v="Svartesvoda" />
		<tag k="ssr:stedsnr" v="764338" />
		<tag k="waterway" v="stream" />
	</node>
	<node id="-569265" lat="60.9796138911" lon="5.21804999393">
		<tag k="name" v="Langevatnet" />
		<tag k="natural" v="water" />
		<tag k="ssr:stedsnr" v="797776" />
	</node>
	<node id="-569262" lat="60.9052916655" lon="5.08132221376">
		<tag k="name" v="Svardalsvatnet" />
		<tag k="natural" v="water" />
		<tag k="ssr:stedsnr" v="797445" />
		<tag k="water" v="lake" />
	</node>
	<node id="-569261" lat="60.9024000043" lon="5.05100555369">
		<tag k="alt_name" v="Fivesdalsvatnet" />
		<tag k="name" v="Fivelsdalsvatnet" />
		<tag k="natural" v="water" />
		<tag k="ssr:stedsnr" v="797444" />
	</node>
	<node id="-571308" lat="60.9272916621" lon="5.15964999402">
		<tag k="name" v="Moldeelva" />
		<tag k="ssr:stedsnr" v="764297" />
		<tag k="waterway" v="river" />
	</node>
	<node id="-569257" lat="60.8885249957" lon="5.07260833679">
		<tag k="name" v="Gåsetjørna" />
		<tag k="natural" v="water" />
		<tag k="ssr:stedsnr" v="797428" />
	</node>
	<node id="-569251" lat="60.9928500041" lon="5.11711111313">
		<tag k="name" v="Midttunvatnet" />
		<tag k="natural" v="water" />
		<tag k="ssr:stedsnr" v="797177" />
	</node>
	<node id="-571296" lat="60.9082722242" lon="5.08310833271">
		<tag k="name" v="Søre Klubbeneset" />
		<tag k="natural" v="cape" />
		<tag k="ssr:stedsnr" v="763901" />
	</node>
	<node id="-571289" lat="60.90390702" lon="4.87874025716">
		<tag k="name" v="Småleira" />
		<tag k="natural" v="water" />
		<tag k="ssr:stedsnr" v="763219" />
		<tag k="water" v="lake" />
	</node>
	<node id="-569237" lat="61.0355111144" lon="5.22951388536">
		<tag k="name" v="Skadtjørna" />
		<tag k="natural" v="water" />
		<tag k="ssr:stedsnr" v="920901" />
	</node>
	<node id="-571283" lat="60.8538416699" lon="5.08235277786">
		<tag k="name" v="Bryhaugtjørna" />
		<tag k="natural" v="water" />
		<tag k="ssr:stedsnr" v="763027" />
	</node>
	<node id="-569232" lat="60.9164277781" lon="5.10415832455">
		<tag k="name" v="Djupetjørna" />
		<tag k="natural" v="water" />
		<tag k="ssr:stedsnr" v="919885" />
	</node>
	<node id="-569227" lat="60.9229944438" lon="4.92297776914">
		<tag k="alt_name" v="Stiksvatnet" />
		<tag k="name" v="Stigsvatnet" />
		<tag k="natural" v="water" />
		<tag k="ssr:stedsnr" v="919492" />
	</node>
	<node id="-571270" lat="60.8900222178" lon="4.88399721634">
		<tag k="name" v="Lovlitjørna" />
		<tag k="natural" v="water" />
		<tag k="ssr:stedsnr" v="762343" />
	</node>
	<node id="-569214" lat="60.9040595056" lon="5.13683817236">
		<tag k="name" v="Grindevatnet" />
		<tag k="natural" v="water" />
		<tag k="ssr:stedsnr" v="918945" />
	</node>
	<node id="-569210" lat="60.9434944469" lon="5.4058138909">
		<tag k="name" v="Øyrelva" />
		<tag k="ssr:stedsnr" v="918891" />
		<tag k="waterway" v="stream" />
	</node>
	<node id="-571250" lat="60.8538116059" lon="5.01422481614">
		<tag k="name" v="Storevatnet" />
		<tag k="natural" v="water" />
		<tag k="ssr:stedsnr" v="758033" />
		<tag k="water" v="lake" />
	</node>
	<node id="-569196" lat="60.9902138854" lon="5.19006944862">
		<tag k="name" v="Neselva" />
		<tag k="ssr:stedsnr" v="918139" />
		<tag k="waterway" v="stream" />
	</node>
	<node id="-567954" lat="61.0222861085" lon="5.24318056055">
		<tag k="name" v="Rabbetjørna" />
		<tag k="natural" v="water" />
		<tag k="ssr:stedsnr" v="252888" />
	</node>
	<node id="-569182" lat="61.0265138909" lon="5.53994443612">
		<tag k="name" v="Lønningefossen" />
		<tag k="natural" v="waterfall" />
		<tag k="ssr:stedsnr" v="764940" />
	</node>
	<node id="-571227" lat="61.0063916632" lon="5.44178056041">
		<tag k="name" v="Storelva" />
		<tag k="ssr:stedsnr" v="737919" />
		<tag k="waterway" v="river" />
	</node>
	<node id="-571224" lat="61.0241611108" lon="5.24890554928">
		<tag k="name" v="Blåfjellstjørna" />
		<tag k="natural" v="water" />
		<tag k="ssr:stedsnr" v="737880" />
	</node>
	<node id="-571220" lat="61.0562499969" lon="5.20049167282">
		<tag k="name" v="Stølstjørna" />
		<tag k="natural" v="water" />
		<tag k="ssr:stedsnr" v="737599" />
	</node>
	<node id="-571215" lat="60.9204166707" lon="4.83855832398">
		<tag k="name" v="Fløa" />
		<tag k="natural" v="water" />
		<tag k="ssr:stedsnr" v="737472" />
	</node>
	<node id="-569166" lat="61.0001228515" lon="5.09405208091">
		<tag k="name" v="Grytevatnet" />
		<tag k="natural" v="water" />
		<tag k="ssr:stedsnr" v="758881" />
		<tag k="water" v="lake" />
	</node>
	<node id="-571209" lat="60.9045944438" lon="4.94415833261">
		<tag k="name" v="Nappsvatnet" />
		<tag k="natural" v="water" />
		<tag k="ssr:stedsnr" v="737431" />
	</node>
	<node id="-571208" lat="60.9041388898" lon="4.86525277538">
		<tag k="name" v="Måvatnet" />
		<tag k="natural" v="water" />
		<tag k="ssr:stedsnr" v="737427" />
	</node>
	<node id="-571207" lat="61.0433333344" lon="5.09069166464">
		<tag k="name" v="Øyna" />
		<tag k="place" v="islet" />
		<tag k="ssr:stedsnr" v="737417" />
	</node>
	<node id="-571205" lat="60.8821638872" lon="5.08717221458">
		<tag k="name" v="Langevatnet" />
		<tag k="natural" v="water" />
		<tag k="ssr:stedsnr" v="737395" />
		<tag k="water" v="lake" />
	</node>
	<node id="-571204" lat="60.8792999976" lon="5.07009166159">
		<tag k="name" v="Litlevatnet" />
		<tag k="natural" v="water" />
		<tag k="ssr:stedsnr" v="737394" />
	</node>
	<node id="-571182" lat="60.9547250023" lon="5.38617500407">
		<tag k="name" v="Såtetjørna" />
		<tag k="natural" v="water" />
		<tag k="ssr:stedsnr" v="736834" />
	</node>
	<node id="-571178" lat="60.9810249978" lon="5.50794999289">
		<tag k="name" v="Storelivatnet" />
		<tag k="natural" v="water" />
		<tag k="ssr:stedsnr" v="736769" />
	</node>
	<node id="-571177" lat="60.9921333335" lon="5.6135583246">
		<tag k="name" v="Skjerjevatnet" />
		<tag k="natural" v="water" />
		<tag k="ssr:stedsnr" v="736768" />
		<tag k="water" v="lake" />
	</node>
	<node id="-571155" lat="61.0046500007" lon="5.23341111213">
		<tag k="name" v="Omnelva" />
		<tag k="ssr:stedsnr" v="642663" />
		<tag k="waterway" v="stream" />
	</node>
	<node id="-569106" lat="60.9396194475" lon="5.49021388955">
		<tag k="name" v="Verklandselva" />
		<tag k="ssr:stedsnr" v="886692" />
		<tag k="waterway" v="river" />
	</node>
	<node id="-569104" lat="60.9427555533" lon="5.19000832778">
		<tag k="name" v="Kaneselva" />
		<tag k="ssr:stedsnr" v="886493" />
		<tag k="waterway" v="stream" />
	</node>
	<node id="-571130" lat="61.0192111144" lon="5.31999166221">
		<tag k="name" v="Rotetjørna" />
		<tag k="natural" v="water" />
		<tag k="ssr:stedsnr" v="642316" />
	</node>
	<node id="-569076" lat="61.0262638859" lon="5.19948055939">
		<tag k="name" v="Slettebrekkelva" />
		<tag k="ssr:stedsnr" v="885863" />
		<tag k="waterway" v="stream" />
	</node>
	<node id="-569074" lat="60.8927222212" lon="5.10489722596">
		<tag k="name" v="Skitdiketjørna" />
		<tag k="natural" v="water" />
		<tag k="ssr:stedsnr" v="885795" />
	</node>
	<node id="-569063" lat="60.9121744895" lon="4.83460640617">
		<tag k="name" v="Lommannstraumen" />
		<tag k="natural" v="water" />
		<tag k="ssr:stedsnr" v="885522" />
		<tag k="water" v="lake" />
	</node>
	<node id="-569052" lat="60.9623444401" lon="4.96430277691">
		<tag k="name" v="Kletjørna" />
		<tag k="natural" v="water" />
		<tag k="ssr:stedsnr" v="884485" />
	</node>
	<node id="-571098" lat="60.9780222875" lon="4.94006944403">
		<tag k="name" v="Trollevatnet" />
		<tag k="natural" v="water" />
		<tag k="ssr:stedsnr" v="641999" />
		<tag k="water" v="lake" />
	</node>
	<node id="-571094" lat="60.9131194477" lon="5.08443610862">
		<tag k="name" v="Nordre Klubbevika" />
		<tag k="natural" v="bay" />
		<tag k="ssr:stedsnr" v="641881" />
	</node>
	<node id="-571093" lat="60.9113249984" lon="5.08183611487">
		<tag k="name" v="Mjåsundet" />
		<tag k="natural" v="strait" />
		<tag k="ssr:stedsnr" v="641875" />
	</node>
	<node id="-569042" lat="61.0424416686" lon="5.05732221994">
		<tag k="alt_name" v="Mørkebotsvatnet" />
		<tag k="name" v="Myrkebotnsvatnet" />
		<tag k="natural" v="water" />
		<tag k="ssr:stedsnr" v="677417" />
	</node>
	<node id="-571085" lat="60.9930166678" lon="5.11744166659">
		<tag k="name" v="Smileneset" />
		<tag k="natural" v="cape" />
		<tag k="ssr:stedsnr" v="641507" />
	</node>
	<node id="-571077" lat="60.917766666" lon="4.92315000094">
		<tag k="name" v="Fjellsendtjørna" />
		<tag k="natural" v="water" />
		<tag k="ssr:stedsnr" v="641219" />
	</node>
	<node id="-569014" lat="60.9874166667" lon="5.34900832823">
		<tag k="name" v="Ørnereirtjørna" />
		<tag k="natural" v="water" />
		<tag k="ssr:stedsnr" v="675163" />
	</node>
	<node id="-569004" lat="61.0073416671" lon="5.46893610628">
		<tag k="name" v="Hellersgrova" />
		<tag k="ssr:stedsnr" v="880983" />
		<tag k="waterway" v="stream" />
	</node>
	<node id="-568992" lat="60.8799611105" lon="4.97533056092">
		<tag k="name" v="Lonen" />
		<tag k="natural" v="water" />
		<tag k="ssr:stedsnr" v="880094" />
		<tag k="water" v="lake" />
	</node>
	<node id="-571039" lat="61.0532416644" lon="5.06178333427">
		<tag k="name" v="Lomtjørna" />
		<tag k="natural" v="water" />
		<tag k="ssr:stedsnr" v="616473" />
	</node>
	<node id="-571035" lat="61.0063194437" lon="5.26965554924">
		<tag k="name" v="Storetjørna" />
		<tag k="natural" v="water" />
		<tag k="ssr:stedsnr" v="615902" />
	</node>
	<node id="-571031" lat="60.969202774" lon="5.19563610865">
		<tag k="name" v="Pøyla" />
		<tag k="natural" v="water" />
		<tag k="ssr:stedsnr" v="615749" />
	</node>
	<node id="-571029" lat="61.0590694405" lon="5.13270554976">
		<tag k="name" v="Vassenden" />
		<tag k="natural" v="bay" />
		<tag k="ssr:stedsnr" v="615590" />
	</node>
	<node id="-571028" lat="60.93096485" lon="5.4066586272">
		<tag k="name" v="Grunntjørna" />
		<tag k="natural" v="water" />
		<tag k="ssr:stedsnr" v="615879" />
	</node>
	<node id="-568972" lat="60.950441667" lon="5.02538054849">
		<tag k="name" v="Svarthaugtjørna" />
		<tag k="natural" v="water" />
		<tag k="ssr:stedsnr" v="735276" />
	</node>
	<node id="-568962" lat="60.9931861108" lon="5.07334721469">
		<tag k="name" v="Espeviktjørna" />
		<tag k="natural" v="water" />
		<tag k="ssr:stedsnr" v="636873" />
	</node>
	<node id="-569962" lat="60.9833194445" lon="5.23649999585">
		<tag k="name" v="Dalevatnet" />
		<tag k="natural" v="water" />
		<tag k="ssr:stedsnr" v="129773" />
	</node>
	<node id="-571000" lat="60.9127944454" lon="5.33847499197">
		<tag k="name" v="Gravene" />
		<tag k="place" v="locality" />
		<tag k="ssr:stedsnr" v="614918" />
	</node>
	<node id="-570999" lat="60.8916249996" lon="5.15864721965">
		<tag k="name" v="Hisbotsvatnet" />
		<tag k="natural" v="water" />
		<tag k="ssr:stedsnr" v="614911" />
	</node>
	<node id="-570996" lat="60.949352776" lon="5.15123333336">
		<tag k="alt_name" v="Åmdalsvatnet" />
		<tag k="name" v="Åmdalstjørna" />
		<tag k="natural" v="water" />
		<tag k="ssr:stedsnr" v="614842" />
	</node>
	<node id="-570995" lat="61.0643722205" lon="5.0937138909">
		<tag k="name" v="Svartetjørna" />
		<tag k="natural" v="water" />
		<tag k="ssr:stedsnr" v="614527" />
	</node>
	<node id="-570972" lat="60.9282194437" lon="5.33514444781">
		<tag k="name" v="Steinsdalelva" />
		<tag k="ssr:stedsnr" v="582430" />
		<tag k="waterway" v="river" />
	</node>
	<node id="-568919" lat="60.9919277816" lon="5.13476944269">
		<tag k="name" v="Leinelva" />
		<tag k="ssr:stedsnr" v="615167" />
		<tag k="waterway" v="stream" />
	</node>
	<node id="-568909" lat="61.0141805592" lon="5.23623332812">
		<tag k="name" v="Dundalselva" />
		<tag k="ssr:stedsnr" v="582684" />
		<tag k="waterway" v="stream" />
	</node>
	<node id="-570956" lat="60.9750749996" lon="5.35020832758">
		<tag k="name" v="Midtskarelva" />
		<tag k="ssr:stedsnr" v="582002" />
		<tag k="waterway" v="stream" />
	</node>
	<node id="-570955" lat="60.9253083353" lon="5.0843972253">
		<tag k="name" v="Øyra" />
		<tag k="natural" v="bay" />
		<tag k="ssr:stedsnr" v="581979" />
	</node>
	<node id="-570923" lat="60.9516861123" lon="5.03003610389">
		<tag k="name" v="Keisartjørna" />
		<tag k="natural" v="water" />
		<tag k="ssr:stedsnr" v="580832" />
	</node>
	<node id="-568924" lat="60.8530500033" lon="5.02662777222">
		<tag k="name" v="Kudalsvatnet" />
		<tag k="natural" v="water" />
		<tag k="ssr:stedsnr" v="615369" />
	</node>
	<node id="-568868" lat="60.9330361118" lon="5.34986666049">
		<tag k="name" v="Kjerringdalsvika" />
		<tag k="natural" v="bay" />
		<tag k="ssr:stedsnr" v="704224" />
	</node>
	<node id="-568854" lat="61.0226750041" lon="5.19515833463">
		<tag k="name" v="Hamreelva" />
		<tag k="ssr:stedsnr" v="703899" />
		<tag k="waterway" v="stream" />
	</node>
	<node id="-568849" lat="60.8700222264" lon="5.10082221992">
		<tag k="name" v="Vassnausteberga" />
		<tag k="natural" v="cape" />
		<tag k="ssr:stedsnr" v="703791" />
	</node>
	<node id="-570881" lat="61.0396888893" lon="5.11792500388">
		<tag k="name" v="Holetjørna" />
		<tag k="natural" v="water" />
		<tag k="ssr:stedsnr" v="555577" />
	</node>
	<node id="-570880" lat="61.0557055587" lon="5.1238416638">
		<tag k="name" v="Storeholmen" />
		<tag k="place" v="islet" />
		<tag k="ssr:stedsnr" v="555570" />
	</node>
	<node id="-568829" lat="61.0059055557" lon="5.39350278169">
		<tag k="name" v="Skitnevika" />
		<tag k="natural" v="bay" />
		<tag k="ssr:stedsnr" v="703223" />
	</node>
	<node id="-568828" lat="61.0069749965" lon="5.38460833971">
		<tag k="name" v="Vasslineset" />
		<tag k="natural" v="cape" />
		<tag k="ssr:stedsnr" v="703221" />
	</node>
	<node id="-570870" lat="60.9651666663" lon="5.30798332913">
		<tag k="name" v="Mjåneset" />
		<tag k="natural" v="cape" />
		<tag k="ssr:stedsnr" v="554973" />
	</node>
	<node id="-568813" lat="60.9814055553" lon="4.94309167096">
		<tag k="name" v="Vassneset" />
		<tag k="natural" v="cape" />
		<tag k="ssr:stedsnr" v="702997" />
	</node>
	<node id="-570859" lat="60.8960249996" lon="5.15517778149">
		<tag k="alt_name" v="Setretjørna" />
		<tag k="name" v="Sutretjørna" />
		<tag k="natural" v="water" />
		<tag k="ssr:stedsnr" v="554927" />
	</node>
	<node id="-568809" lat="60.9071638893" lon="5.08616667353">
		<tag k="name" v="Laberget" />
		<tag k="natural" v="cape" />
		<tag k="ssr:stedsnr" v="702911" />
	</node>
	<node id="-568802" lat="60.8713805583" lon="4.88120000014">
		<tag k="name" v="Olsvågtjørna" />
		<tag k="natural" v="water" />
		<tag k="ssr:stedsnr" v="702560" />
	</node>
	<node id="-570841" lat="60.917302779" lon="5.05802500815">
		<tag k="name" v="Svartetjørna" />
		<tag k="natural" v="water" />
		<tag k="ssr:stedsnr" v="554522" />
	</node>
	<node id="-568791" lat="61.0345194406" lon="5.22331388012">
		<tag k="name" v="Tungebotnsvatnet" />
		<tag k="natural" v="water" />
		<tag k="ssr:stedsnr" v="555873" />
	</node>
	<node id="-570829" lat="61.0045415081" lon="5.29294674865">
		<tag k="name" v="Haugsvatnet" />
		<tag k="natural" v="water" />
		<tag k="ssr:stedsnr" v="554134" />
	</node>
	<node id="-570828" lat="60.9945166685" lon="5.12575554739">
		<tag k="name" v="Jotjørna" />
		<tag k="natural" v="water" />
		<tag k="ssr:stedsnr" v="554191" />
	</node>
	<node id="-570824" lat="60.9861444416" lon="4.9923250083">
		<tag k="name" v="Svartevatnet" />
		<tag k="natural" v="water" />
		<tag k="ssr:stedsnr" v="553340" />
	</node>
	<node id="-570810" lat="60.9086444405" lon="5.0208222254">
		<tag k="name" v="Fossåna" />
		<tag k="ssr:stedsnr" v="521962" />
		<tag k="waterway" v="stream" />
	</node>
	<node id="-570802" lat="61.0510027793" lon="5.10471388505">
		<tag k="name" v="Båtestøa" />
		<tag k="natural" v="bay" />
		<tag k="ssr:stedsnr" v="521863" />
	</node>
	<node id="-570790" lat="60.9087277797" lon="5.17121110618">
		<tag k="name" v="Grindetjørna" />
		<tag k="natural" v="water" />
		<tag k="ssr:stedsnr" v="521527" />
	</node>
	<node id="-568741" lat="60.9595815889" lon="5.59378346535">
		<tag k="name" v="Holmevatnet" />
		<tag k="natural" v="water" />
		<tag k="ssr:stedsnr" v="736301" />
		<tag k="water" v="lake" />
	</node>
	<node id="-570788" lat="60.9101892894" lon="4.85197733789">
		<tag k="name" v="Ospedalsvatnet" />
		<tag k="natural" v="water" />
		<tag k="ssr:stedsnr" v="521518" />
		<tag k="water" v="lake" />
	</node>
	<node id="-568735" lat="60.928650001" lon="4.83698334109">
		<tag k="name" v="Stølsvatnet" />
		<tag k="natural" v="water" />
		<tag k="ssr:stedsnr" v="736273" />
	</node>
	<node id="-568733" lat="61.0280055554" lon="5.0816861028">
		<tag k="name" v="Halvroingsneset" />
		<tag k="natural" v="cape" />
		<tag k="ssr:stedsnr" v="495453" />
	</node>
	<node id="-568727" lat="60.9295138916" lon="5.25153888536">
		<tag k="name" v="Langevatnet" />
		<tag k="natural" v="water" />
		<tag k="ssr:stedsnr" v="494897" />
	</node>
	<node id="-568723" lat="60.9185611124" lon="5.32986945351">
		<tag k="name" v="Vetlevatnet" />
		<tag k="natural" v="water" />
		<tag k="ssr:stedsnr" v="494875" />
	</node>
	<node id="-568722" lat="61.0256472245" lon="5.28503889022">
		<tag k="name" v="Dyttingevatnet" />
		<tag k="natural" v="water" />
		<tag k="ssr:stedsnr" v="494872" />
	</node>
	<node id="-568719" lat="61.0518250028" lon="5.09120000454">
		<tag k="name" v="Langetjørna" />
		<tag k="natural" v="water" />
		<tag k="ssr:stedsnr" v="677477" />
	</node>
	<node id="-570766" lat="61.0008194436" lon="5.29494722688">
		<tag k="name" v="Haugsstranda" />
		<tag k="natural" v="beach" />
		<tag k="ssr:stedsnr" v="521248" />
	</node>
	<node id="-570764" lat="60.9401611154" lon="5.38509167375">
		<tag k="name" v="Krossleitvika" />
		<tag k="natural" v="bay" />
		<tag k="ssr:stedsnr" v="521227" />
	</node>
	<node id="-570760" lat="61.0111666683" lon="5.38627499514">
		<tag k="name" v="Bruknappen" />
		<tag k="natural" v="cape" />
		<tag k="ssr:stedsnr" v="521186" />
	</node>
	<node id="-568703" lat="60.9337555515" lon="5.32342777743">
		<tag k="name" v="Rotetjørna" />
		<tag k="natural" v="water" />
		<tag k="ssr:stedsnr" v="676840" />
	</node>
	<node id="-568702" lat="60.9690000014" lon="5.39936388562">
		<tag k="name" v="Holmevatnet" />
		<tag k="natural" v="water" />
		<tag k="ssr:stedsnr" v="676800" />
	</node>
	<node id="-570749" lat="60.9591583287" lon="5.35801943881">
		<tag k="name" v="Sanden" />
		<tag k="natural" v="cape" />
		<tag k="ssr:stedsnr" v="521050" />
	</node>
	<node id="-568699" lat="60.9771361143" lon="5.36537499309">
		<tag k="name" v="Kartetjørna" />
		<tag k="natural" v="water" />
		<tag k="ssr:stedsnr" v="676789" />
	</node>
	<node id="-568697" lat="60.84543056" lon="5.11220834115">
		<tag k="name" v="Steinsvatnet" />
		<tag k="natural" v="water" />
		<tag k="ssr:stedsnr" v="676525" />
	</node>
	<node id="-570743" lat="60.9166138852" lon="5.08110556117">
		<tag k="name" v="Merkesvika" />
		<tag k="natural" v="bay" />
		<tag k="ssr:stedsnr" v="520915" />
	</node>
	<node id="-568694" lat="60.893502778" lon="5.00062777608">
		<tag k="alt_name" v="Slottjørna, s" />
		<tag k="name" v="Søre Slottjørna" />
		<tag k="natural" v="water" />
		<tag k="ssr:stedsnr" v="676440" />
	</node>
	<node id="-568684" lat="60.9485166635" lon="5.52513333146">
		<tag k="name" v="Blåfjellvatnet" />
		<tag k="natural" v="water" />
		<tag k="ssr:stedsnr" v="676290" />
	</node>
	<node id="-568677" lat="61.0023499965" lon="5.52461388154">
		<tag k="name" v="Skiddalsvatnet" />
		<tag k="natural" v="water" />
		<tag k="ssr:stedsnr" v="676022" />
	</node>
	<node id="-568670" lat="60.9023999979" lon="5.1630833275">
		<tag k="name" v="Buvatnet" />
		<tag k="natural" v="water" />
		<tag k="ssr:stedsnr" v="675943" />
	</node>
	<node id="-568667" lat="60.907013887" lon="5.05781667475">
		<tag k="name" v="Oksetjørna" />
		<tag k="natural" v="water" />
		<tag k="ssr:stedsnr" v="675487" />
	</node>
	<node id="-570709" lat="61.0472333354" lon="5.11088055182">
		<tag k="name" v="Krossvikane" />
		<tag k="natural" v="bay" />
		<tag k="ssr:stedsnr" v="434580" />
	</node>
	<node id="-568656" lat="60.9329222184" lon="5.04954722824">
		<tag k="name" v="Paddetjørna" />
		<tag k="natural" v="water" />
		<tag k="ssr:stedsnr" v="460161" />
	</node>
	<node id="-570701" lat="60.9110611114" lon="4.97928055945">
		<tag k="name" v="Randalsvatnet" />
		<tag k="natural" v="water" />
		<tag k="ssr:stedsnr" v="434442" />
	</node>
	<node id="-570700" lat="60.9108694463" lon="4.93732499554">
		<tag k="name" v="Mjømnevatnet" />
		<tag k="natural" v="water" />
		<tag k="ssr:stedsnr" v="434441" />
	</node>
	<node id="-570699" lat="60.9122250032" lon="5.00553611322">
		<tag k="name" v="Svartevatnet" />
		<tag k="natural" v="water" />
		<tag k="ssr:stedsnr" v="434439" />
	</node>
	<node id="-570696" lat="60.8647638864" lon="5.09659999591">
		<tag k="name" v="Litjørna" />
		<tag k="natural" v="water" />
		<tag k="ssr:stedsnr" v="433978" />
	</node>
	<node id="-570693" lat="60.9772527739" lon="5.25408889702">
		<tag k="name" v="Fossdalselva" />
		<tag k="ssr:stedsnr" v="433782" />
		<tag k="waterway" v="stream" />
	</node>
	<node id="-568644" lat="61.0601250008" lon="5.10406944764">
		<tag k="alt_name" v="Kringletjørna" />
		<tag k="name" v="Kringletjørn" />
		<tag k="natural" v="water" />
		<tag k="ssr:stedsnr" v="434603" />
	</node>
	<node id="-570687" lat="60.9311357076" lon="5.40163147845">
		<tag k="name" v="Kjerringevatnet" />
		<tag k="natural" v="water" />
		<tag k="ssr:stedsnr" v="433895" />
	</node>
	<node id="-570684" lat="60.9380277749" lon="5.40727500657">
		<tag k="name" v="Sulelva" />
		<tag k="ssr:stedsnr" v="433856" />
		<tag k="waterway" v="stream" />
	</node>
	<node id="-568635" lat="60.9919277743" lon="5.26088889571">
		<tag k="name" v="Stølsvatnet" />
		<tag k="natural" v="water" />
		<tag k="ssr:stedsnr" v="433951" />
	</node>
	<node id="-570646" lat="60.9369583367" lon="5.51091944525">
		<tag k="name" v="Storelva" />
		<tag k="ssr:stedsnr" v="400677" />
		<tag k="waterway" v="river" />
	</node>
	<node id="-568595" lat="60.9887722184" lon="5.40975000004">
		<tag k="name" v="Reievegfossen" />
		<tag k="natural" v="waterfall" />
		<tag k="ssr:stedsnr" v="400016" />
	</node>
	<node id="-568580" lat="61.0007806882" lon="5.30886322178">
		<tag k="name" v="Lomtjørna" />
		<tag k="natural" v="water" />
		<tag k="ssr:stedsnr" v="373921" />
	</node>
	<node id="-570627" lat="60.9958499983" lon="5.33481667169">
		<tag k="name" v="Lyngneset" />
		<tag k="natural" v="cape" />
		<tag k="ssr:stedsnr" v="400250" />
	</node>
	<node id="-570623" lat="60.9315972208" lon="5.34615277635">
		<tag k="name" v="Ropehaugneset" />
		<tag k="natural" v="cape" />
		<tag k="ssr:stedsnr" v="400223" />
	</node>
	<node id="-570622" lat="60.9316166676" lon="5.35828889227">
		<tag k="name" v="Vågeneset" />
		<tag k="natural" v="cape" />
		<tag k="ssr:stedsnr" v="400219" />
	</node>
	<node id="-570581" lat="60.9422111118" lon="5.09251666511">
		<tag k="name" v="Rota" />
		<tag k="ssr:stedsnr" v="399071" />
		<tag k="waterway" v="stream" />
	</node>
	<node id="-570618" lat="60.9160122734" lon="5.382406464">
		<tag k="name" v="Skartjørna" />
		<tag k="natural" v="water" />
		<tag k="ssr:stedsnr" v="400099" />
	</node>
	<node id="-568565" lat="60.8595805581" lon="5.0119722187">
		<tag k="alt_name" v="Kvernevatnet" />
		<tag k="name" v="Kvernhusvatnet" />
		<tag k="natural" v="water" />
		<tag k="ssr:stedsnr" v="373372" />
	</node>
	<node id="-568564" lat="61.043624996" lon="5.52212777368">
		<tag k="name" v="Oppedalselva" />
		<tag k="ssr:stedsnr" v="373026" />
		<tag k="waterway" v="river" />
	</node>
	<node id="-570611" lat="60.915808329" lon="5.08769166423">
		<tag k="name" v="Sanden" />
		<tag k="natural" v="beach" />
		<tag k="ssr:stedsnr" v="399878" />
	</node>
	<node id="-568558" lat="60.92445" lon="5.39189999674">
		<tag k="name" v="Langevatnet" />
		<tag k="natural" v="water" />
		<tag k="ssr:stedsnr" v="372907" />
	</node>
	<node id="-570605" lat="61.0162194486" lon="5.20324722626">
		<tag k="name" v="Bjørneskorelva" />
		<tag k="ssr:stedsnr" v="399599" />
		<tag k="waterway" v="stream" />
	</node>
	<node id="-568554" lat="60.9663444432" lon="5.26724167575">
		<tag k="name" v="Salbuelva" />
		<tag k="ssr:stedsnr" v="372827" />
		<tag k="waterway" v="stream" />
	</node>
	<node id="-570599" lat="60.9065416687" lon="4.84907499399">
		<tag k="name" v="Paddetjørna" />
		<tag k="natural" v="water" />
		<tag k="ssr:stedsnr" v="399554" />
	</node>
	<node id="-570598" lat="60.9226812011" lon="4.83885119396">
		<tag k="name" v="Kvernhusvatnet" />
		<tag k="natural" v="water" />
		<tag k="ssr:stedsnr" v="399547" />
		<tag k="water" v="lake" />
	</node>
	<node id="-568540" lat="60.9271749988" lon="5.08915832602">
		<tag k="name" v="Maletjørna" />
		<tag k="natural" v="water" />
		<tag k="ssr:stedsnr" v="372521" />
	</node>
	<node id="-568452" lat="61.0663861152" lon="5.23071943873">
		<tag k="name" v="Boltelva" />
		<tag k="ssr:stedsnr" v="339570" />
		<tag k="waterway" v="river" />
	</node>
	<node id="-568533" lat="61.0451555519" lon="5.22660555326">
		<tag k="name" v="Fossane" />
		<tag k="natural" v="waterfall" />
		<tag k="ssr:stedsnr" v="495620" />
	</node>
	<node id="-568530" lat="61.0185722227" lon="5.07079166622">
		<tag k="name" v="Viervika" />
		<tag k="natural" v="bay" />
		<tag k="ssr:stedsnr" v="495401" />
	</node>
	<node id="-567843" lat="60.922824998" lon="4.85562500876">
		<tag k="name" v="Mjømnevatnet" />
		<tag k="natural" v="water" />
		<tag k="ssr:stedsnr" v="69529" />
	</node>
	<node id="-568523" lat="60.9521388891" lon="5.14028611722">
		<tag k="name" v="Åmdalselva" />
		<tag k="ssr:stedsnr" v="494814" />
		<tag k="waterway" v="stream" />
	</node>
	<node id="-568512" lat="61.063991664" lon="5.1993055481">
		<tag k="name" v="Gravdalstjørna" />
		<tag k="natural" v="water" />
		<tag k="ssr:stedsnr" v="494545" />
	</node>
	<node id="-568499" lat="60.9272583333" lon="5.48900555233">
		<tag k="name" v="Geirevatnet" />
		<tag k="natural" v="water" />
		<tag k="ssr:stedsnr" v="494247" />
	</node>
	<node id="-568484" lat="60.9419749962" lon="5.17714445019">
		<tag k="alt_name" v="Nordalsvatnet" />
		<tag k="name" v="Norddalsvatnet" />
		<tag k="natural" v="water" />
		<tag k="ssr:stedsnr" v="493838" />
	</node>
	<node id="-570528" lat="61.050311115" lon="5.23515000077">
		<tag k="alt_name" v="Breidalstjørna" />
		<tag k="name" v="Breiddalstjørna" />
		<tag k="natural" v="water" />
		<tag k="ssr:stedsnr" v="373641" />
	</node>
	<node id="-570526" lat="61.059675001" lon="5.19856110241">
		<tag k="name" v="Lomtjørna" />
		<tag k="natural" v="water" />
		<tag k="ssr:stedsnr" v="373621" />
	</node>
	<node id="-568473" lat="60.9474694401" lon="5.49446388461">
		<tag k="alt_name" v="Smågevatnet" />
		<tag k="name" v="Smogevatnet" />
		<tag k="natural" v="water" />
		<tag k="ssr:stedsnr" v="493297" />
	</node>
	<node id="-568472" lat="60.9603555533" lon="5.54627777064">
		<tag k="name" v="Dokkvatnet" />
		<tag k="natural" v="water" />
		<tag k="ssr:stedsnr" v="493285" />
	</node>
	<node id="-570513" lat="61.0505611131" lon="5.58468888369">
		<tag k="name" v="Indredalselva" />
		<tag k="ssr:stedsnr" v="373029" />
		<tag k="waterway" v="stream" />
	</node>
	<node id="-568464" lat="60.994530555" lon="5.04544445277">
		<tag k="name" v="Blombakketjørna" />
		<tag k="natural" v="water" />
		<tag k="ssr:stedsnr" v="492340" />
	</node>
	<node id="-568462" lat="60.979124999" lon="4.96993611074">
		<tag k="name" v="Ramsvikvatnet" />
		<tag k="natural" v="water" />
		<tag k="ssr:stedsnr" v="492318" />
	</node>
	<node id="-570501" lat="60.950144441" lon="5.5455194453">
		<tag k="name" v="Svoddalsvatnet" />
		<tag k="natural" v="water" />
		<tag k="ssr:stedsnr" v="372320" />
	</node>
	<node id="-570500" lat="60.9396111077" lon="5.52274167596">
		<tag k="alt_name" v="Asgarvatn" />
		<tag k="name" v="Askarvatnet" />
		<tag k="natural" v="water" />
		<tag k="ssr:stedsnr" v="372296" />
	</node>
	<node id="-570499" lat="60.9417694489" lon="5.05216388652">
		<tag k="name" v="Svartetjørna" />
		<tag k="natural" v="water" />
		<tag k="ssr:stedsnr" v="372284" />
	</node>
	<node id="-568445" lat="60.8910944407" lon="5.08074167475">
		<tag k="name" v="Båtevika" />
		<tag k="natural" v="bay" />
		<tag k="ssr:stedsnr" v="338828" />
	</node>
	<node id="-570488" lat="60.9857027761" lon="4.93619999375">
		<tag k="name" v="Bagevatnet" />
		<tag k="natural" v="water" />
		<tag k="ssr:stedsnr" v="371350" />
	</node>
	<node id="-568437" lat="60.9317194447" lon="5.08361110292">
		<tag k="name" v="Brandsdalsvatnet" />
		<tag k="natural" v="water" />
		<tag k="ssr:stedsnr" v="331636" />
	</node>
	<node id="-570469" lat="61.0268361109" lon="5.19608055925">
		<tag k="name" v="Setreelva" />
		<tag k="ssr:stedsnr" v="339857" />
		<tag k="waterway" v="river" />
	</node>
	<node id="-570467" lat="60.9852111121" lon="5.4756416579">
		<tag k="name" v="Billegrova" />
		<tag k="ssr:stedsnr" v="339847" />
		<tag k="waterway" v="stream" />
	</node>
	<node id="-570465" lat="60.877391667" lon="5.090825009">
		<tag k="name" v="Skjeldalsvika" />
		<tag k="natural" v="bay" />
		<tag k="ssr:stedsnr" v="339791" />
	</node>
	<node id="-570464" lat="60.8808944416" lon="5.07626389681">
		<tag k="name" v="Tverrelva" />
		<tag k="ssr:stedsnr" v="339788" />
		<tag k="waterway" v="river" />
	</node>
	<node id="-570463" lat="60.8966861139" lon="5.05267777155">
		<tag k="name" v="Gravstigtjørna" />
		<tag k="natural" v="water" />
		<tag k="ssr:stedsnr" v="339783" />
	</node>
	<node id="-568387" lat="61.0214944488" lon="5.56815834032">
		<tag k="name" v="Systrene" />
		<tag k="ssr:stedsnr" v="461884" />
		<tag k="waterway" v="stream" />
	</node>
	<node id="-570434" lat="60.9796722189" lon="5.32533888457">
		<tag k="name" v="Kleivelva" />
		<tag k="ssr:stedsnr" v="339270" />
		<tag k="waterway" v="stream" />
	</node>
	<node id="-570429" lat="60.9399444479" lon="5.3667777754">
		<tag k="name" v="Storneset" />
		<tag k="natural" v="cape" />
		<tag k="ssr:stedsnr" v="339239" />
	</node>
	<node id="-570428" lat="60.9385638892" lon="5.36031388036">
		<tag k="name" v="Purkevika" />
		<tag k="natural" v="bay" />
		<tag k="ssr:stedsnr" v="339234" />
	</node>
	<node id="-568373" lat="60.9650722201" lon="5.31265555231">
		<tag k="name" v="Vassenden" />
		<tag k="natural" v="beach" />
		<tag k="ssr:stedsnr" v="461333" />
	</node>
	<node id="-570419" lat="60.957316666" lon="5.42917499907">
		<tag k="name" v="Botnelva" />
		<tag k="ssr:stedsnr" v="339063" />
		<tag k="waterway" v="stream" />
	</node>
	<node id="-568370" lat="60.9480555599" lon="5.3826722166">
		<tag k="name" v="Kvernhuselva" />
		<tag k="ssr:stedsnr" v="461238" />
		<tag k="waterway" v="stream" />
	</node>
	<node id="-568364" lat="60.9563222225" lon="5.4255416658">
		<tag k="name" v="Storelva" />
		<tag k="ssr:stedsnr" v="461077" />
		<tag k="waterway" v="river" />
	</node>
	<node id="-568363" lat="60.961711107" lon="5.42054167156">
		<tag k="name" v="Fossedalselva" />
		<tag k="ssr:stedsnr" v="461070" />
		<tag k="waterway" v="river" />
	</node>
	<node id="-570409" lat="60.9074611113" lon="5.07880277955">
		<tag k="name" v="Nordre Storholmen" />
		<tag k="place" v="islet" />
		<tag k="ssr:stedsnr" v="338898" />
	</node>
	<node id="-570405" lat="60.8693503442" lon="4.89079648857">
		<tag k="name" v="Håvatnet" />
		<tag k="natural" v="water" />
		<tag k="ssr:stedsnr" v="338541" />
		<tag k="water" v="lake" />
	</node>
	<node id="-568356" lat="61.006677775" lon="5.1987138932">
		<tag k="name" v="Tangane" />
		<tag k="natural" v="cape" />
		<tag k="ssr:stedsnr" v="460963" />
	</node>
	<node id="-568355" lat="60.9196500041" lon="5.00158611933">
		<tag k="name" v="Rustetjørna" />
		<tag k="natural" v="water" />
		<tag k="ssr:stedsnr" v="460961" />
	</node>
	<node id="-570400" lat="60.9060737145" lon="4.8612156115">
		<tag k="name" v="Bristovvatnet" />
		<tag k="natural" v="water" />
		<tag k="ssr:stedsnr" v="338419" />
		<tag k="water" v="lake" />
	</node>
	<node id="-568350" lat="60.9045138922" lon="5.07579722231">
		<tag k="name" v="Storevika" />
		<tag k="natural" v="bay" />
		<tag k="ssr:stedsnr" v="460860" />
	</node>
	<node id="-568349" lat="61.058825001" lon="5.18284444534">
		<tag k="name" v="Lona" />
		<tag k="natural" v="water" />
		<tag k="ssr:stedsnr" v="460836" />
		<tag k="water" v="lake" />
	</node>
	<node id="-570393" lat="60.9985242519" lon="4.93325849676">
		<tag k="name" v="Rossvatnet" />
		<tag k="natural" v="water" />
		<tag k="ssr:stedsnr" v="338020" />
		<tag k="water" v="lake" />
	</node>
	<node id="-568340" lat="61.0187000014" lon="5.18856944305">
		<tag k="name" v="Fagrevollane" />
		<tag k="natural" v="cape" />
		<tag k="ssr:stedsnr" v="460629" />
	</node>
	<node id="-568321" lat="61.0426388913" lon="5.09589722993">
		<tag k="name" v="Nesjane" />
		<tag k="natural" v="cape" />
		<tag k="ssr:stedsnr" v="460312" />
	</node>
	<node id="-568298" lat="60.975366668" lon="5.43510000452">
		<tag k="name" v="Olselva" />
		<tag k="ssr:stedsnr" v="279014" />
		<tag k="waterway" v="river" />
	</node>
	<node id="-570345" lat="61.0053805546" lon="5.20578333318">
		<tag k="name" v="Skåldalselva" />
		<tag k="ssr:stedsnr" v="312936" />
		<tag k="waterway" v="stream" />
	</node>
	<node id="-570344" lat="61.0074944484" lon="5.23304444473">
		<tag k="name" v="Skåldalsvatnet" />
		<tag k="natural" v="water" />
		<tag k="ssr:stedsnr" v="312935" />
	</node>
	<node id="-570341" lat="60.9644999968" lon="5.25386943906">
		<tag k="name" v="Plasselva" />
		<tag k="ssr:stedsnr" v="312748" />
		<tag k="waterway" v="stream" />
	</node>
	<node id="-568292" lat="61.0149305593" lon="5.20938332586">
		<tag k="name" v="Gjemlielva" />
		<tag k="ssr:stedsnr" v="278622" />
		<tag k="waterway" v="river" />
	</node>
	<node id="-570337" lat="61.0566999975" lon="5.11845554803">
		<tag k="name" v="Brendeneset" />
		<tag k="natural" v="cape" />
		<tag k="ssr:stedsnr" v="312596" />
	</node>
	<node id="-568283" lat="60.9620916627" lon="4.96732222645">
		<tag k="name" v="Hatleviktjørna" />
		<tag k="natural" v="water" />
		<tag k="ssr:stedsnr" v="277504" />
	</node>
	<node id="-568272" lat="60.8703027817" lon="4.99781945076">
		<tag k="name" v="Karentjørna" />
		<tag k="natural" v="water" />
		<tag k="ssr:stedsnr" v="273974" />
	</node>
	<node id="-570305" lat="60.9567194477" lon="5.30474999609">
		<tag k="name" v="Flatefjellstjørna" />
		<tag k="natural" v="water" />
		<tag k="ssr:stedsnr" v="311868" />
	</node>
	<node id="-570304" lat="60.956883335" lon="5.35530278567">
		<tag k="name" v="Furdalsvatnet" />
		<tag k="natural" v="water" />
		<tag k="ssr:stedsnr" v="311845" />
	</node>
	<node id="-570276" lat="60.9430500027" lon="4.99821111357">
		<tag k="name" v="Stråsundet" />
		<tag k="natural" v="strait" />
		<tag k="ssr:stedsnr" v="216399" />
	</node>
	<node id="-570266" lat="61.0103583346" lon="5.4414250041">
		<tag k="name" v="Kvernhuselva" />
		<tag k="ssr:stedsnr" v="212688" />
		<tag k="waterway" v="stream" />
	</node>
	<node id="-568209" lat="60.8798944446" lon="5.09087777566">
		<tag k="name" v="Vassneset" />
		<tag k="natural" v="cape" />
		<tag k="ssr:stedsnr" v="218815" />
	</node>
	<node id="-568207" lat="61.0075333328" lon="5.57210556">
		<tag k="name" v="Skitneøyrane" />
		<tag k="natural" v="cape" />
		<tag k="ssr:stedsnr" v="218732" />
	</node>
	<node id="-568196" lat="60.8846416697" lon="5.09176666195">
		<tag k="name" v="Båtevika" />
		<tag k="natural" v="bay" />
		<tag k="ssr:stedsnr" v="217806" />
	</node>
	<node id="-568194" lat="60.9617888859" lon="4.95130833999">
		<tag k="name" v="Vardehaugtjørna" />
		<tag k="natural" v="water" />
		<tag k="ssr:stedsnr" v="217532" />
	</node>
	<node id="-568179" lat="61.0186083374" lon="5.278824997">
		<tag k="name" v="Selskardvatnet" />
		<tag k="natural" v="water" />
		<tag k="ssr:stedsnr" v="191902" />
	</node>
	<node id="-570221" lat="61.0465833322" lon="5.25720833146">
		<tag k="name" v="Dalevatnet" />
		<tag k="natural" v="water" />
		<tag k="ssr:stedsnr" v="191571" />
	</node>
	<node id="-570220" lat="61.040122225" lon="5.26896110207">
		<tag k="alt_name" v="Daltjørna" />
		<tag k="name" v="Dalstjørna" />
		<tag k="natural" v="water" />
		<tag k="ssr:stedsnr" v="191568" />
	</node>
	<node id="-570218" lat="61.0535333306" lon="5.11795277385">
		<tag k="alt_name" v="Brosvikvatnet" />
		<tag k="name" v="Brossvikvatnet" />
		<tag k="natural" v="water" />
		<tag k="ssr:stedsnr" v="191566" />
		<tag k="water" v="lake" />
	</node>
	<node id="-570217" lat="61.0486944449" lon="5.10043054958">
		<tag k="alt_name" v="Tjørnene" />
		<tag k="name" v="Tjørnane" />
		<tag k="natural" v="water" />
		<tag k="ssr:stedsnr" v="191558" />
	</node>
	<node id="-570172" lat="60.9360666641" lon="5.5007805568">
		<tag k="name" v="Husevatnet" />
		<tag k="natural" v="water" />
		<tag k="ssr:stedsnr" v="190275" />
	</node>
	<node id="-568164" lat="60.974242322" lon="5.33473043438">
		<tag k="name" v="Vindskardtjørna" />
		<tag k="natural" v="water" />
		<tag k="ssr:stedsnr" v="190823" />
	</node>
	<node id="-570203" lat="61.0099944422" lon="4.95222222805">
		<tag k="name" v="Pøylevatnet" />
		<tag k="natural" v="water" />
		<tag k="ssr:stedsnr" v="191378" />
	</node>
	<node id="-568149" lat="60.9938444418" lon="5.48827222893">
		<tag k="name" v="Heggenesgrova" />
		<tag k="ssr:stedsnr" v="279823" />
		<tag k="waterway" v="stream" />
	</node>
	<node id="-568140" lat="60.9332972205" lon="5.24048611885">
		<tag k="name" v="Lonene" />
		<tag k="natural" v="cape" />
		<tag k="ssr:stedsnr" v="279409" />
	</node>
	<node id="-570184" lat="60.9101999998" lon="5.0159055557">
		<tag k="alt_name" v="Holmevatnet" />
		<tag k="name" v="Holmetjørna" />
		<tag k="natural" v="water" />
		<tag k="ssr:stedsnr" v="190479" />
	</node>
	<node id="-568124" lat="60.9460777806" lon="5.42244166205">
		<tag k="name" v="Tynningestølselva" />
		<tag k="ssr:stedsnr" v="279084" />
		<tag k="waterway" v="river" />
	</node>
	<node id="-568122" lat="60.9591972202" lon="5.43188888242">
		<tag k="name" v="Svabergelva" />
		<tag k="ssr:stedsnr" v="279055" />
		<tag k="waterway" v="stream" />
	</node>
	<node id="-570164" lat="60.9883694411" lon="5.14800833846">
		<tag k="name" v="Svartevatnet" />
		<tag k="natural" v="water" />
		<tag k="ssr:stedsnr" v="190146" />
	</node>
	<node id="-570153" lat="61.0456972255" lon="5.56353334184">
		<tag k="name" v="Indre Oppedalselva" />
		<tag k="ssr:stedsnr" v="177748" />
		<tag k="waterway" v="river" />
	</node>
	<node id="-568100" lat="60.8969027759" lon="5.08194443963">
		<tag k="name" v="Svardalselva" />
		<tag k="ssr:stedsnr" v="278854" />
		<tag k="waterway" v="river" />
	</node>
	<node id="-568096" lat="60.8793972255" lon="5.09776110875">
		<tag k="name" v="Apalneset" />
		<tag k="natural" v="cape" />
		<tag k="ssr:stedsnr" v="278820" />
	</node>
	<node id="-568095" lat="60.9674944477" lon="5.30602778336">
		<tag k="name" v="Oksevika" />
		<tag k="natural" v="bay" />
		<tag k="ssr:stedsnr" v="157305" />
	</node>
	<node id="-570140" lat="60.9110027781" lon="4.99638055428">
		<tag k="name" v="Merketjørna" />
		<tag k="natural" v="water" />
		<tag k="ssr:stedsnr" v="157952" />
	</node>
	<node id="-570135" lat="60.9828333304" lon="5.4902055585">
		<tag k="name" v="Kvernhuselva" />
		<tag k="ssr:stedsnr" v="157818" />
		<tag k="waterway" v="stream" />
	</node>
	<node id="-570134" lat="60.8814833346" lon="5.09561666804">
		<tag k="name" v="Måsholmen" />
		<tag k="place" v="islet" />
		<tag k="ssr:stedsnr" v="157817" />
	</node>
	<node id="-568071" lat="61.0452402638" lon="5.10684064199">
		<tag k="name" v="Mjåen" />
		<tag k="natural" v="water" />
		<tag k="ssr:stedsnr" v="278263" />
		<tag k="water" v="lake" />
	</node>
	<node id="-570114" lat="60.9268888874" lon="5.19158055544">
		<tag k="name" v="Tverråelva" />
		<tag k="ssr:stedsnr" v="157525" />
		<tag k="waterway" v="river" />
	</node>
	<node id="-568063" lat="60.863566669" lon="5.08549999738">
		<tag k="name" v="Svartetjørna" />
		<tag k="natural" v="water" />
		<tag k="ssr:stedsnr" v="278066" />
	</node>
	<node id="-570106" lat="61.0296361069" lon="5.05910278047">
		<tag k="name" v="Kvitetjørna" />
		<tag k="natural" v="water" />
		<tag k="ssr:stedsnr" v="157402" />
	</node>
	<node id="-570103" lat="61.0225305551" lon="5.0617500065">
		<tag k="name" v="Luka" />
		<tag k="place" v="locality" />
		<tag k="ssr:stedsnr" v="157388" />
	</node>
	<node id="-570092" lat="60.9809305515" lon="5.31426388283">
		<tag k="name" v="Storefjelltjørna" />
		<tag k="natural" v="water" />
		<tag k="ssr:stedsnr" v="157246" />
	</node>
	<node id="-570083" lat="61.0032361114" lon="5.37825278495">
		<tag k="name" v="Frivika" />
		<tag k="natural" v="bay" />
		<tag k="ssr:stedsnr" v="157158" />
	</node>
	<node id="-570079" lat="61.0624694402" lon="5.53167776972">
		<tag k="name" v="Merkesgrova" />
		<tag k="ssr:stedsnr" v="157092" />
		<tag k="waterway" v="stream" />
	</node>
	<node id="-568024" lat="61.0057166624" lon="5.38802222422">
		<tag k="name" v="Taklevatnet" />
		<tag k="natural" v="water" />
		<tag k="ssr:stedsnr" v="130907" />
		<tag k="water" v="lake" />
	</node>
	<node id="-570071" lat="60.9777611145" lon="5.4405583272">
		<tag k="name" v="Magnegrova" />
		<tag k="ssr:stedsnr" v="157007" />
		<tag k="waterway" v="stream" />
	</node>
	<node id="-568021" lat="60.9649888903" lon="5.29663333353">
		<tag k="alt_name" v="Kløvtveitvatnet" />
		<tag k="name" v="Klyvtveitvatnet" />
		<tag k="natural" v="water" />
		<tag k="ssr:stedsnr" v="130752" />
		<tag k="water" v="lake" />
	</node>
	<node id="-568018" lat="60.8563865559" lon="5.07608786849">
		<tag k="name" v="Sætertjørna" />
		<tag k="natural" v="water" />
		<tag k="ssr:stedsnr" v="130351" />
	</node>
	<node id="-570065" lat="60.9138055573" lon="5.08259165898">
		<tag k="name" v="Nordre Klubbeneset" />
		<tag k="natural" v="cape" />
		<tag k="ssr:stedsnr" v="156885" />
	</node>
	<node id="-568016" lat="60.8899638921" lon="5.09453333109">
		<tag k="fixme" v="multiple name tags, choose one and add the other to alt_name" />
		<tag k="name" v="Glenjetjørna;Ytstetjørna" />
		<tag k="natural" v="water" />
		<tag k="ssr:stedsnr" v="129953" />
	</node>
	<node id="-568013" lat="61.0368277791" lon="5.57468055671">
		<tag k="name" v="Koveelva" />
		<tag k="ssr:stedsnr" v="130037" />
		<tag k="waterway" v="stream" />
	</node>
	<node id="-568005" lat="60.9881111143" lon="5.5898638946">
		<tag k="name" v="Smikkevatnet" />
		<tag k="natural" v="water" />
		<tag k="ssr:stedsnr" v="129306" />
	</node>
	<node id="-568002" lat="60.8860694444" lon="5.07200833584">
		<tag k="name" v="Svartetjørna" />
		<tag k="natural" v="water" />
		<tag k="ssr:stedsnr" v="129433" />
	</node>
	<node id="-570042" lat="60.9353194428" lon="5.08999444282">
		<tag k="name" v="Bøtjørna" />
		<tag k="natural" v="water" />
		<tag k="ssr:stedsnr" v="156066" />
	</node>
	<node id="-567989" lat="60.9772055567" lon="5.48182777675">
		<tag k="name" v="Djupedalsgrova" />
		<tag k="ssr:stedsnr" v="97804" />
		<tag k="waterway" v="stream" />
	</node>
	<node id="-570036" lat="60.8689861082" lon="4.99942777349">
		<tag k="name" v="Setrebotstjørna" />
		<tag k="natural" v="water" />
		<tag k="ssr:stedsnr" v="151959" />
	</node>
	<node id="-567975" lat="60.9839194406" lon="5.42926110586">
		<tag k="name" v="Blåsvagrova" />
		<tag k="ssr:stedsnr" v="97018" />
		<tag k="waterway" v="stream" />
	</node>
	<node id="-570003" lat="61.0229486422" lon="5.22473962693">
		<tag k="name" v="Berghaugtjørna" />
		<tag k="natural" v="water" />
		<tag k="ssr:stedsnr" v="130891" />
	</node>
	<node id="-570002" lat="61.0323625296" lon="5.17885709846">
		<tag k="alt_name" v="Nordgulvatnet, nordre;Nordre Nordgulvatnet" />
		<tag k="name" v="Nordste Nordgulvatnet" />
		<tag k="natural" v="water" />
		<tag k="ssr:stedsnr" v="130875" />
	</node>
	<node id="-567953" lat="61.0235555553" lon="5.13141944711">
		<tag k="name" v="Risestølsvatnet" />
		<tag k="natural" v="water" />
		<tag k="ssr:stedsnr" v="252886" />
	</node>
	<node id="-567952" lat="61.0197777754" lon="5.15998055843">
		<tag k="name" v="Bjørndalstjørna" />
		<tag k="natural" v="water" />
		<tag k="ssr:stedsnr" v="252884" />
	</node>
	<node id="-567949" lat="61.0515055545" lon="5.26482221675">
		<tag k="name" v="Lomtjørna" />
		<tag k="natural" v="water" />
		<tag k="ssr:stedsnr" v="252578" />
	</node>
	<node id="-569995" lat="61.058041667" lon="5.25036667428">
		<tag k="name" v="Dalelva" />
		<tag k="ssr:stedsnr" v="130582" />
		<tag k="waterway" v="stream" />
	</node>
	<node id="-567942" lat="61.0360138888" lon="5.08777777571">
		<tag k="name" v="Dingevatnet" />
		<tag k="natural" v="water" />
		<tag k="ssr:stedsnr" v="252423" />
		<tag k="water" v="lake" />
	</node>
	<node id="-569988" lat="61.0232805597" lon="5.08734444893">
		<tag k="alt_name" v="Ramsliholmen" />
		<tag k="name" v="Ramsliholmane" />
		<tag k="place" v="islet" />
		<tag k="ssr:stedsnr" v="130371" />
	</node>
	<node id="-569987" lat="61.0205361139" lon="5.07614166984">
		<tag k="name" v="Bytingsneset" />
		<tag k="natural" v="cape" />
		<tag k="ssr:stedsnr" v="130369" />
	</node>
	<node id="-567937" lat="61.0598527767" lon="5.58044166646">
		<tag k="name" v="Solliskardvatnet" />
		<tag k="natural" v="water" />
		<tag k="ssr:stedsnr" v="252180" />
	</node>
	<node id="-569984" lat="60.926136115" lon="5.0563388944">
		<tag k="alt_name" v="Selevågvatnet" />
		<tag k="name" v="Selvågvatnet" />
		<tag k="natural" v="water" />
		<tag k="ssr:stedsnr" v="130460" />
	</node>
	<node id="-567935" lat="61.0253777749" lon="5.53105555215">
		<tag k="name" v="Løynavatna" />
		<tag k="natural" v="water" />
		<tag k="ssr:stedsnr" v="252010" />
	</node>
	<node id="-567931" lat="61.0024111099" lon="5.25665834095">
		<tag k="name" v="Hellebergsvatna" />
		<tag k="natural" v="water" />
		<tag k="ssr:stedsnr" v="251958" />
	</node>
	<node id="-567930" lat="60.9003439547" lon="5.09989792387">
		<tag k="name" v="Brattelitjørna" />
		<tag k="natural" v="water" />
		<tag k="ssr:stedsnr" v="251953" />
	</node>
	<node id="-569977" lat="60.9964716565" lon="5.3334776778">
		<tag k="name" v="Austgulvatnet" />
		<tag k="natural" v="water" />
		<tag k="ssr:stedsnr" v="130101" />
	</node>
	<node id="-567928" lat="60.9996416705" lon="5.23379166015">
		<tag k="name" v="Omnstjørna" />
		<tag k="natural" v="water" />
		<tag k="ssr:stedsnr" v="251938" />
	</node>
	<node id="-567926" lat="60.9146555533" lon="5.20399722715">
		<tag k="name" v="Sversvatnet" />
		<tag k="natural" v="water" />
		<tag k="ssr:stedsnr" v="251912" />
	</node>
	<node id="-569971" lat="60.9270638865" lon="5.10583334174">
		<tag k="name" v="Viketjørna" />
		<tag k="natural" v="water" />
		<tag k="ssr:stedsnr" v="129866" />
	</node>
	<node id="-567922" lat="60.9467583318" lon="5.35075278655">
		<tag k="name" v="Furdalselva" />
		<tag k="ssr:stedsnr" v="251898" />
		<tag k="waterway" v="river" />
	</node>
	<node id="-569966" lat="60.9561027737" lon="5.27458055533">
		<tag k="alt_name" v="Alvedalstjørn" />
		<tag k="name" v="Alvedalstjørna" />
		<tag k="natural" v="water" />
		<tag k="ssr:stedsnr" v="129834" />
	</node>
	<node id="-567914" lat="60.9701690312" lon="5.3418305104">
		<tag k="alt_name" v="Austgulstølsvatnet;Stølsvatnet" />
		<tag k="name" v="Austgulstølvatnet" />
		<tag k="natural" v="water" />
		<tag k="ssr:stedsnr" v="251828" />
	</node>
	<node id="-567912" lat="60.9606999991" lon="5.28726111605">
		<tag k="alt_name" v="Raunlivika" />
		<tag k="name" v="Raunvika" />
		<tag k="natural" v="bay" />
		<tag k="ssr:stedsnr" v="251811" />
	</node>
	<node id="-567909" lat="60.9855444469" lon="5.38983333785">
		<tag k="name" v="Vetlevatnet" />
		<tag k="natural" v="water" />
		<tag k="ssr:stedsnr" v="251803" />
	</node>
	<node id="-569956" lat="61.0498611103" lon="5.55503333989">
		<tag k="name" v="Storelva" />
		<tag k="ssr:stedsnr" v="128500" />
		<tag k="waterway" v="river" />
	</node>
	<node id="-567904" lat="60.8569210305" lon="5.09609607456">
		<tag k="alt_name" v="Steintjørna" />
		<tag k="name" v="Steinstjørna" />
		<tag k="natural" v="water" />
		<tag k="ssr:stedsnr" v="251523" />
	</node>
	<node id="-567900" lat="60.9015138866" lon="4.87864166682">
		<tag k="name" v="Siletjørna" />
		<tag k="natural" v="water" />
		<tag k="ssr:stedsnr" v="251455" />
	</node>
	<node id="-569942" lat="60.9832833294" lon="5.47770832811">
		<tag k="name" v="Vetlefossgrova" />
		<tag k="ssr:stedsnr" v="97796" />
		<tag k="waterway" v="stream" />
	</node>
	<node id="-567893" lat="60.9959361104" lon="5.23511667389">
		<tag k="alt_name" v="Hanntveittjørna, nordre;Nordre Dyrbottsvatnet;Dyrbottsvatnet, nordre" />
		<tag k="name" v="Nordre Hanntveittjørna" />
		<tag k="natural" v="water" />
		<tag k="ssr:stedsnr" v="251193" />
	</node>
	<node id="-567885" lat="61.0152166656" lon="5.54234999515">
		<tag k="name" v="Klypevatna" />
		<tag k="natural" v="water" />
		<tag k="ssr:stedsnr" v="251030" />
	</node>
	<node id="-567888" lat="60.987730555" lon="5.2369750059">
		<tag k="name" v="Stølsvatnet" />
		<tag k="natural" v="water" />
		<tag k="ssr:stedsnr" v="251147" />
	</node>
	<node id="-569933" lat="60.9400564192" lon="5.37723599274">
		<tag k="name" v="Ospeneset" />
		<tag k="natural" v="cape" />
		<tag k="ssr:stedsnr" v="97241" />
	</node>
	<node id="-567884" lat="61.0098249969" lon="5.5444750026">
		<tag k="name" v="Grønlivatnet" />
		<tag k="natural" v="water" />
		<tag k="ssr:stedsnr" v="251019" />
	</node>
	<node id="-569929" lat="61.0514916631" lon="5.19084166625">
		<tag k="name" v="Kvelvelva" />
		<tag k="ssr:stedsnr" v="96998" />
		<tag k="waterway" v="stream" />
	</node>
	<node id="-569926" lat="60.8885320665" lon="5.06538730316">
		<tag k="name" v="Tjørntjørna" />
		<tag k="natural" v="water" />
		<tag k="ssr:stedsnr" v="96846" />
	</node>
	<node id="-569902" lat="60.9541499954" lon="5.02342499145">
		<tag k="name" v="Vågselva" />
		<tag k="ssr:stedsnr" v="95821" />
		<tag k="waterway" v="stream" />
	</node>
	<node id="-567850" lat="60.9645836508" lon="5.34831640501">
		<tag k="name" v="Leinetjørna" />
		<tag k="natural" v="water" />
		<tag k="ssr:stedsnr" v="69818" />
	</node>
	<node id="-569891" lat="60.9373861075" lon="4.96216944155">
		<tag k="name" v="Sekketjørna" />
		<tag k="natural" v="water" />
		<tag k="ssr:stedsnr" v="95117" />
	</node>
	<node id="-567832" lat="61.0487805517" lon="5.55720554983">
		<tag k="name" v="Katløyrane" />
		<tag k="place" v="islet" />
		<tag k="ssr:stedsnr" v="36954" />
	</node>
	<node id="-568701" lat="60.9693388922" lon="5.29074444825">
		<tag k="name" v="Medlivika" />
		<tag k="natural" v="bay" />
		<tag k="ssr:stedsnr" v="676792" />
	</node>
	<node id="-567817" lat="61.0513138889" lon="5.27316944838">
		<tag k="name" v="Kroktjørna" />
		<tag k="natural" v="water" />
		<tag k="ssr:stedsnr" v="9615" />
	</node>
	<node id="-567815" lat="60.9239444459" lon="4.99468333447">
		<tag k="name" v="Lifjellvatnet" />
		<tag k="natural" v="water" />
		<tag k="ssr:stedsnr" v="9504" />
	</node>
	<node id="-567813" lat="60.9906166674" lon="5.10241389549">
		<tag k="alt_name" v="Midtunelva" />
		<tag k="name" v="Midttunelva" />
		<tag k="ssr:stedsnr" v="9142" />
		<tag k="waterway" v="stream" />
	</node>
	<node id="-567812" lat="60.896441664" lon="5.16171944931">
		<tag k="name" v="Grønskartjørna" />
		<tag k="natural" v="water" />
		<tag k="ssr:stedsnr" v="8918" />
	</node>
	<node id="-569857" lat="61.0332416658" lon="5.2412916662">
		<tag k="name" v="Langevatnet" />
		<tag k="natural" v="water" />
		<tag k="ssr:stedsnr" v="70893" />
	</node>
	<node id="-567808" lat="60.9723027774" lon="5.42278888423">
		<tag k="name" v="Olsvatna" />
		<tag k="natural" v="water" />
		<tag k="ssr:stedsnr" v="8826" />
	</node>
	<node id="-569855" lat="61.0346083063" lon="5.20546936413">
		<tag k="name" v="Råsetjørna" />
		<tag k="natural" v="water" />
		<tag k="ssr:stedsnr" v="70881" />
	</node>
	<node id="-569854" lat="61.0639611116" lon="5.08943611131">
		<tag k="fixme" v="multiple name tags, choose one and add the other to alt_name" />
		<tag k="name" v="Lott-tjørna;Svartetjørna" />
		<tag k="natural" v="water" />
		<tag k="ssr:stedsnr" v="70462" />
	</node>
	<node id="-569851" lat="61.0424250003" lon="5.07984722964">
		<tag k="name" v="Ladberget" />
		<tag k="natural" v="cape" />
		<tag k="ssr:stedsnr" v="70415" />
	</node>
	<node id="-569850" lat="61.0582666627" lon="5.2034222187">
		<tag k="name" v="Bjørketjørna" />
		<tag k="natural" v="water" />
		<tag k="ssr:stedsnr" v="70586" />
	</node>
	<node id="-567796" lat="60.9452027799" lon="5.50537499297">
		<tag k="name" v="Skjeddalselva" />
		<tag k="ssr:stedsnr" v="218680" />
		<tag k="waterway" v="stream" />
	</node>
	<node id="-569837" lat="60.9559916668" lon="5.20527499075">
		<tag k="name" v="Sanddalselva" />
		<tag k="ssr:stedsnr" v="69862" />
		<tag k="waterway" v="stream" />
	</node>
	<node id="-569836" lat="60.9553416625" lon="5.45745000858">
		<tag k="name" v="Smedsdalsvatnet" />
		<tag k="natural" v="water" />
		<tag k="ssr:stedsnr" v="69850" />
	</node>
	<node id="-569828" lat="60.8922694433" lon="4.89769999381">
		<tag k="alt_name" v="Nøkksvatnet" />
		<tag k="name" v="Nykksvatnet" />
		<tag k="natural" v="water" />
		<tag k="ssr:stedsnr" v="69483" />
	</node>
	<node id="-569827" lat="60.8929499955" lon="4.85572221592">
		<tag k="name" v="Kjevatnet" />
		<tag k="natural" v="water" />
		<tag k="ssr:stedsnr" v="69480" />
	</node>
	<node id="-569082" lat="60.9889805547" lon="5.4429444512">
		<tag k="name" v="Tverrbotgrova" />
		<tag k="ssr:stedsnr" v="886001" />
		<tag k="waterway" v="stream" />
	</node>
	<node id="-569810" lat="60.9627277768" lon="5.53509999737">
		<tag k="name" v="Sætersstølvatnet" />
		<tag k="natural" v="water" />
		<tag k="ssr:stedsnr" v="69302" />
	</node>
	<node id="-569807" lat="60.9860388901" lon="5.36925834059">
		<tag k="name" v="Langvatnet" />
		<tag k="natural" v="water" />
		<tag k="ssr:stedsnr" v="69154" />
	</node>
	<node id="-569805" lat="60.9896361124" lon="5.24955555443">
		<tag k="name" v="Medleitetjørna" />
		<tag k="natural" v="water" />
		<tag k="ssr:stedsnr" v="69139" />
	</node>
	<node id="-567754" lat="60.928302779" lon="4.82761389359">
		<tag k="name" v="Bryggelva" />
		<tag k="ssr:stedsnr" v="217577" />
		<tag k="waterway" v="stream" />
	</node>
	<node id="-569797" lat="60.9954250025" lon="5.07631666167">
		<tag k="name" v="Svartevatnet" />
		<tag k="natural" v="water" />
		<tag k="ssr:stedsnr" v="68368" />
	</node>
	<node id="-569791" lat="60.9812611149" lon="4.94601665977">
		<tag k="name" v="Kvernhusvatnet" />
		<tag k="natural" v="water" />
		<tag k="ssr:stedsnr" v="67359" />
	</node>
	<node id="-569781" lat="60.9555361129" lon="5.47821389206">
		<tag k="name" v="Smedsdalselva" />
		<tag k="ssr:stedsnr" v="36716" />
		<tag k="waterway" v="stream" />
	</node>
	<node id="-569780" lat="61.0110999972" lon="5.57558332966">
		<tag k="name" v="Fossane" />
		<tag k="natural" v="waterfall" />
		<tag k="ssr:stedsnr" v="36708" />
	</node>
	<node id="-569779" lat="60.9619638889" lon="5.47913054797">
		<tag k="name" v="Skadgjelgrova" />
		<tag k="ssr:stedsnr" v="36696" />
		<tag k="waterway" v="stream" />
	</node>
	<node id="-569777" lat="60.9587066339" lon="5.49591049688">
		<tag k="name" v="Duelva" />
		<tag k="ssr:stedsnr" v="36688" />
		<tag k="waterway" v="river" />
	</node>
	<node id="-569747" lat="60.9328694418" lon="5.18896667479">
		<tag k="name" v="Purkevasselva" />
		<tag k="ssr:stedsnr" v="36218" />
		<tag k="waterway" v="stream" />
	</node>
	<node id="-569745" lat="60.9447250038" lon="5.38398054711">
		<tag k="name" v="Øyra" />
		<tag k="natural" v="cape" />
		<tag k="ssr:stedsnr" v="36197" />
	</node>
	<node id="-569729" lat="60.9095305512" lon="5.07726666189">
		<tag k="name" v="Skarpeneset" />
		<tag k="natural" v="cape" />
		<tag k="ssr:stedsnr" v="35920" />
	</node>
	<node id="-569724" lat="60.8908166667" lon="5.10077222828">
		<tag k="name" v="Instetjørna" />
		<tag k="natural" v="water" />
		<tag k="ssr:stedsnr" v="35848" />
	</node>
	<node id="-569723" lat="60.9034805592" lon="5.08185555074">
		<tag k="name" v="Austlivika" />
		<tag k="natural" v="bay" />
		<tag k="ssr:stedsnr" v="35841" />
	</node>
	<node id="-569720" lat="60.8925416683" lon="5.05149999968">
		<tag k="name" v="Kleiveelva" />
		<tag k="ssr:stedsnr" v="35811" />
		<tag k="waterway" v="stream" />
	</node>
	<node id="-569718" lat="61.0394944468" lon="5.17712222582">
		<tag k="name" v="Trangelva" />
		<tag k="ssr:stedsnr" v="35790" />
		<tag k="waterway" v="river" />
	</node>
	<node id="-569687" lat="60.8599638887" lon="5.07491666358">
		<tag k="name" v="Rabbetjørna" />
		<tag k="natural" v="water" />
		<tag k="ssr:stedsnr" v="35092" />
	</node>
	<node id="-569646" lat="61.0220001066" lon="5.18769736345">
		<tag k="alt_name" v="Nordgulvatnet, søre;Søre Nordgulvatnet" />
		<tag k="name" v="Synste Nordgulvatnet" />
		<tag k="natural" v="water" />
		<tag k="ssr:stedsnr" v="9888" />
	</node>
	<node id="-569641" lat="61.0548861144" lon="5.23512777353">
		<tag k="alt_name" v="Ytreelva;Ytterelvi" />
		<tag k="name" v="Ytrelva" />
		<tag k="ssr:stedsnr" v="9594" />
		<tag k="waterway" v="stream" />
	</node>
	<node id="-569640" lat="61.0449527796" lon="5.09972222345">
		<tag k="name" v="Eikedalselva" />
		<tag k="ssr:stedsnr" v="9593" />
		<tag k="waterway" v="stream" />
	</node>
	<node id="-569619" lat="60.99295556" lon="5.23487778147">
		<tag k="alt_name" v="Hanntveittjørna, s" />
		<tag k="name" v="Søre Hanntveittjørna" />
		<tag k="natural" v="water" />
		<tag k="ssr:stedsnr" v="9153" />
	</node>
	<node id="-569614" lat="60.9197527808" lon="5.10478611577">
		<tag k="name" v="Langetjørna" />
		<tag k="natural" v="water" />
		<tag k="ssr:stedsnr" v="8871" />
	</node>
	<node id="-569613" lat="60.9253055536" lon="5.09788332895">
		<tag k="alt_name" v="Nordre Botstjørna;Nordbotstjørna" />
		<tag k="name" v="Nordrebotnstjørna" />
		<tag k="natural" v="water" />
		<tag k="ssr:stedsnr" v="8867" />
	</node>
	<node id="-569612" lat="60.9317478203" lon="5.26254916513">
		<tag k="name" v="Fossetjørna" />
		<tag k="natural" v="water" />
		<tag k="ssr:stedsnr" v="8862" />
	</node>
	<node id="-569601" lat="60.9057590777" lon="5.16648530779">
		<tag k="name" v="Grauttjørna" />
		<tag k="natural" v="water" />
		<tag k="ssr:stedsnr" v="8936" />
	</node>
	<node id="-569599" lat="61.0413388915" lon="5.07833332802">
		<tag k="name" v="Haslevika" />
		<tag k="natural" v="bay" />
		<tag k="ssr:stedsnr" v="8548" />
	</node>
	<node id="-569596" lat="60.9909888895" lon="5.54443054847">
		<tag k="name" v="Betnene" />
		<tag k="ssr:stedsnr" v="8771" />
		<tag k="waterway" v="stream" />
	</node>
	<node id="-569591" lat="60.8964277753" lon="4.99952500607">
		<tag k="alt_name" v="Slottjørna, nordre" />
		<tag k="name" v="Nordre Slottjørna" />
		<tag k="natural" v="water" />
		<tag k="ssr:stedsnr" v="8465" />
	</node>
	<node id="-571629" lat="60.9027552115" lon="5.17746762182">
		<tag k="name" v="Vardlitjørna" />
		<tag k="natural" v="water" />
		<tag k="ssr:stedsnr" v="190930" />
	</node>
	<node id="-571628" lat="60.8635253854" lon="5.14020360149">
		<tag k="name" v="Svelivatnet" />
		<tag k="natural" v="water" />
		<tag k="ssr:stedsnr" v="312985" />
	</node>
	<node id="-569537" lat="60.9434777814" lon="5.09762777249">
		<tag k="fixme" v="multiple name tags, choose one and add the other to alt_name" />
		<tag k="name" v="Allgjeltjørna;Gerdetjørna" />
		<tag k="natural" v="water" />
		<tag k="ssr:stedsnr" v="919759" />
	</node>
	<node id="-569533" lat="61.0464666674" lon="5.21886943635">
		<tag k="name" v="Bjørndalstjørna" />
		<tag k="natural" v="water" />
		<tag k="ssr:stedsnr" v="919607" />
	</node>
	<node id="-569531" lat="60.8841527761" lon="5.06239443722">
		<tag k="alt_name" v="Indre Tverrtjørna;Ytre Tverrtjørna" />
		<tag k="name" v="Tverrtjørna" />
		<tag k="natural" v="water" />
		<tag k="ssr:stedsnr" v="919420" />
	</node>
	<node id="-569525" lat="60.9553444467" lon="4.90296943547">
		<tag k="name" v="Storetjørna" />
		<tag k="natural" v="water" />
		<tag k="ssr:stedsnr" v="217274" />
	</node>
	<node id="-569518" lat="60.9409694448" lon="5.04354166822">
		<tag k="name" v="Norddalsvatnet" />
		<tag k="natural" v="water" />
		<tag k="ssr:stedsnr" v="919253" />
	</node>
	<node id="-569516" lat="61.0064666698" lon="5.52364444015">
		<tag k="name" v="Krokelivatnet" />
		<tag k="natural" v="water" />
		<tag k="ssr:stedsnr" v="919015" />
	</node>
	<node id="-569514" lat="60.9439335592" lon="5.26710153277">
		<tag k="name" v="Øksefjelltjørna" />
		<tag k="natural" v="water" />
		<tag k="ssr:stedsnr" v="918865" />
	</node>
	<node id="-569513" lat="60.9550805589" lon="5.39698610496">
		<tag k="name" v="Selgrovskardtjørna" />
		<tag k="natural" v="water" />
		<tag k="ssr:stedsnr" v="918862" />
	</node>
	<node id="-569511" lat="60.9039888883" lon="4.97821666844">
		<tag k="alt_name" v="Midbøvatnet" />
		<tag k="name" v="Midtbøvatnet" />
		<tag k="natural" v="water" />
		<tag k="ssr:stedsnr" v="918519" />
	</node>
	<node id="-571557" lat="61.0026555515" lon="5.50514443898">
		<tag k="name" v="Lomtjørna" />
		<tag k="natural" v="water" />
		<tag k="ssr:stedsnr" v="859013" />
	</node>
	<node id="-571555" lat="60.950036111" lon="5.17678612016">
		<tag k="name" v="Norddalstjørnane" />
		<tag k="natural" v="water" />
		<tag k="ssr:stedsnr" v="858842" />
	</node>
	<node id="-571554" lat="60.9545944487" lon="5.16801110934">
		<tag k="alt_name" v="Inste Åmdalsvatnet" />
		<tag k="name" v="Åmdalsvatnet" />
		<tag k="natural" v="water" />
		<tag k="ssr:stedsnr" v="858839" />
	</node>
	<node id="-569493" lat="60.975974998" lon="5.34738055521">
		<tag k="name" v="Elveskarelva" />
		<tag k="ssr:stedsnr" v="886005" />
		<tag k="waterway" v="stream" />
	</node>
	<node id="-569490" lat="61.0262805518" lon="5.18362778475">
		<tag k="name" v="Vassoselva" />
		<tag k="ssr:stedsnr" v="885914" />
		<tag k="waterway" v="river" />
	</node>
	<node id="-569488" lat="60.9249250003" lon="5.04953889329">
		<tag k="name" v="Laberget" />
		<tag k="natural" v="cape" />
		<tag k="ssr:stedsnr" v="885903" />
	</node>
	<node id="-571530" lat="60.9483000023" lon="5.05165000827">
		<tag k="alt_name" v="Prestevatnet" />
		<tag k="name" v="Prestvatnet" />
		<tag k="natural" v="water" />
		<tag k="ssr:stedsnr" v="858268" />
	</node>
	<node id="-571528" lat="60.9833277781" lon="5.19107777323">
		<tag k="name" v="Storelva" />
		<tag k="ssr:stedsnr" v="858145" />
		<tag k="waterway" v="stream" />
	</node>
	<node id="-569460" lat="60.9900222238" lon="5.46753610891">
		<tag k="name" v="Skjenaskorgrova" />
		<tag k="ssr:stedsnr" v="946889" />
		<tag k="waterway" v="stream" />
	</node>
	<node id="-571503" lat="60.9831472197" lon="5.48587778147">
		<tag k="name" v="Storelva" />
		<tag k="ssr:stedsnr" v="825794" />
		<tag k="waterway" v="river" />
	</node>
	<node id="-569453" lat="60.940291669" lon="5.50975833237">
		<tag k="name" v="Blåfjellelva" />
		<tag k="ssr:stedsnr" v="946651" />
		<tag k="waterway" v="stream" />
	</node>
	<node id="-571499" lat="61.006908334" lon="5.22703056351">
		<tag k="name" v="Lyngøyra" />
		<tag k="natural" v="cape" />
		<tag k="ssr:stedsnr" v="825649" />
	</node>
	<node id="-571488" lat="60.9176166678" lon="5.16786665807">
		<tag k="name" v="Galtefosselva" />
		<tag k="ssr:stedsnr" v="825468" />
		<tag k="waterway" v="stream" />
	</node>
	<node id="-571482" lat="60.9262166646" lon="5.33696111701">
		<tag k="name" v="Rotetjørna" />
		<tag k="natural" v="water" />
		<tag k="ssr:stedsnr" v="825369" />
	</node>
	<node id="-571481" lat="60.9344722193" lon="5.23289445074">
		<tag k="name" v="Sætligrova" />
		<tag k="ssr:stedsnr" v="825359" />
		<tag k="waterway" v="stream" />
	</node>
	<node id="-571480" lat="60.9440777745" lon="5.23604166594">
		<tag k="name" v="Tverråa" />
		<tag k="ssr:stedsnr" v="825353" />
		<tag k="waterway" v="stream" />
	</node>
	<node id="-569429" lat="60.9250863378" lon="5.2315134406">
		<tag k="name" v="Myrdalselva" />
		<tag k="ssr:stedsnr" v="946369" />
		<tag k="waterway" v="river" />
	</node>
	<node id="-569425" lat="61.0155750024" lon="5.36192223087">
		<tag k="name" v="Langemyrfossen" />
		<tag k="natural" v="waterfall" />
		<tag k="ssr:stedsnr" v="946316" />
	</node>
	<node id="-569423" lat="60.9640305558" lon="5.30596111273">
		<tag k="name" v="Mjåen" />
		<tag k="natural" v="bay" />
		<tag k="ssr:stedsnr" v="946296" />
	</node>
	<node id="-571467" lat="60.9662361088" lon="5.34361111542">
		<tag k="name" v="Leinelva" />
		<tag k="ssr:stedsnr" v="825039" />
		<tag k="waterway" v="stream" />
	</node>
	<node id="-571464" lat="60.9390250013" lon="5.3715916607">
		<tag k="name" v="Slåttevika" />
		<tag k="natural" v="bay" />
		<tag k="ssr:stedsnr" v="825177" />
	</node>
	<node id="-571459" lat="60.9223749962" lon="5.08079999263">
		<tag k="name" v="Løypeneset" />
		<tag k="natural" v="cape" />
		<tag k="ssr:stedsnr" v="824887" />
	</node>
	<node id="-569408" lat="60.9425805545" lon="5.37162778538">
		<tag k="name" v="Svaneset" />
		<tag k="natural" v="cape" />
		<tag k="ssr:stedsnr" v="946206" />
	</node>
	<node id="-571449" lat="61.0022111137" lon="5.12325277499">
		<tag k="name" v="Lindegrova" />
		<tag k="ssr:stedsnr" v="824543" />
		<tag k="waterway" v="stream" />
	</node>
	<node id="-569397" lat="60.9973861109" lon="4.95465555297">
		<tag k="name" v="Kvernhuselva" />
		<tag k="ssr:stedsnr" v="946034" />
		<tag k="waterway" v="stream" />
	</node>
	<node id="-569396" lat="60.944475001" lon="5.39175277684">
		<tag k="name" v="Sanden" />
		<tag k="natural" v="beach" />
		<tag k="ssr:stedsnr" v="946025" />
	</node>
	<node id="-571443" lat="60.9934877034" lon="4.95580370049">
		<tag k="name" v="Pollen" />
		<tag k="natural" v="water" />
		<tag k="ssr:stedsnr" v="824186" />
		<tag k="water" v="lake" />
	</node>
	<node id="-569393" lat="60.9241833296" lon="5.07301666711">
		<tag k="name" v="Toretjørna" />
		<tag k="natural" v="water" />
		<tag k="ssr:stedsnr" v="945932" />
	</node>
	<node id="-569369" lat="61.031927776" lon="5.13278888066">
		<tag k="alt_name" v="Vatnestølsvatnet" />
		<tag k="name" v="Stølsvatnet" />
		<tag k="natural" v="water" />
		<tag k="ssr:stedsnr" v="859867" />
	</node>
	<node id="-569367" lat="61.0245527781" lon="5.2736833367">
		<tag k="name" v="Skoddedalsvatnet" />
		<tag k="natural" v="water" />
		<tag k="ssr:stedsnr" v="859855" />
	</node>
	<node id="-569360" lat="60.9207166653" lon="5.14854444592">
		<tag k="name" v="Moldevatnet" />
		<tag k="natural" v="water" />
		<tag k="ssr:stedsnr" v="858867" />
	</node>
	<node id="-569355" lat="60.9168638891" lon="4.96866944821">
		<tag k="name" v="Kråketjørna" />
		<tag k="natural" v="water" />
		<tag k="ssr:stedsnr" v="858506" />
	</node>
	<node id="-571400" lat="61.0318277824" lon="5.06264445121">
		<tag k="name" v="Svartetjørna" />
		<tag k="natural" v="water" />
		<tag k="ssr:stedsnr" v="798425" />
	</node>
	<node id="-570369" lat="60.9888972235" lon="4.83989167298">
		<tag k="name" v="Kvernhusvatnet" />
		<tag k="natural" v="water" />
		<tag k="ssr:stedsnr" v="331525" />
	</node>
</osm>
