<?xml version="1.0" encoding="UTF-8"?>
<osm version="0.6" generator="osmapis">
	<node lat="60.96034844451996" lon="4.9972264914598234" id="-32443">
		<tag k="name" v="Kjeøyna" />
		<tag k="place" v="islet" />
		<tag k="ssr:stedsnr" v="7298" />
	</node>
	<node lat="60.95746666388132" lon="4.892694443495609" id="-32444">
		<tag k="name" v="Griggusøyna" />
		<tag k="place" v="islet" />
		<tag k="ssr:stedsnr" v="7306" />
	</node>
	<node lat="60.96058889078961" lon="4.836630563993796" id="-32445">
		<tag k="alt_name" v="Einebærholmen, in" />
		<tag k="name" v="Indre Einebærholmen" />
		<tag k="place" v="islet" />
		<tag k="ssr:stedsnr" v="7309" />
	</node>
	<node lat="60.95910000309285" lon="4.7912444500267615" id="-32446">
		<tag k="alt_name" v="Ramsbarden, søre" />
		<tag k="name" v="Søre Ramsbarden" />
		<tag k="place" v="islet" />
		<tag k="ssr:stedsnr" v="7317" />
	</node>
	<node lat="60.98631389315436" lon="4.818475006138485" id="-32448">
		<tag k="name" v="Geitøyna" />
		<tag k="place" v="islet" />
		<tag k="ssr:stedsnr" v="7358" />
	</node>
	<node lat="60.985774585910704" lon="5.178923217450468" id="-32451">
		<tag k="alt_name" v="Tresvika" />
		<tag k="name" v="Trædsvika" />
		<tag k="natural" v="bay" />
		<tag k="ssr:stedsnr" v="8147" />
	</node>
	<node lat="60.89400555246046" lon="4.876013886241035" id="-32453">
		<tag k="name" v="Risvågen" />
		<tag k="natural" v="bay" />
		<tag k="ssr:stedsnr" v="8472" />
	</node>
	<node lat="61.012130553773204" lon="5.028863884497211" id="-32464">
		<tag k="name" v="Holten" />
		<tag k="natural" v="cape" />
		<tag k="ssr:stedsnr" v="9413" />
	</node>
	<node lat="61.02016666973583" lon="5.038011106643974" id="-32467">
		<tag k="alt_name" v="Vågane, nordre" />
		<tag k="name" v="Nordre Vågane" />
		<tag k="natural" v="bay" />
		<tag k="ssr:stedsnr" v="9395" />
	</node>
	<node lat="61.01330833272207" lon="5.03493888718343" id="-32468">
		<tag k="name" v="Tjuvvika" />
		<tag k="natural" v="bay" />
		<tag k="ssr:stedsnr" v="9397" />
	</node>
	<node lat="60.85720833771708" lon="5.05910277955767" id="-32479">
		<tag k="name" v="Nordre Sløvågholmen" />
		<tag k="place" v="islet" />
		<tag k="ssr:stedsnr" v="24048" />
	</node>
	<node lat="60.9027527788085" lon="4.962005547264904" id="-32480">
		<tag k="name" v="Kalveneset" />
		<tag k="natural" v="cape" />
		<tag k="ssr:stedsnr" v="25001" />
	</node>
	<node lat="60.947602781699906" lon="4.8711083356051885" id="-32481">
		<tag k="name" v="Skorpeholmane" />
		<tag k="place" v="islet" />
		<tag k="ssr:stedsnr" v="25077" />
	</node>
	<node lat="60.99717222294012" lon="5.00933610983336" id="-32482">
		<tag k="name" v="Nyhammarneset" />
		<tag k="natural" v="cape" />
		<tag k="ssr:stedsnr" v="25207" />
	</node>
	<node lat="60.89510555826466" lon="4.917452772284512" id="-32483">
		<tag k="name" v="Rekeneset" />
		<tag k="natural" v="cape" />
		<tag k="ssr:stedsnr" v="25406" />
	</node>
	<node lat="60.883538891398246" lon="4.850419446850666" id="-32484">
		<tag k="name" v="Skårholmen" />
		<tag k="place" v="islet" />
		<tag k="ssr:stedsnr" v="25410" />
	</node>
	<node lat="60.8591861154533" lon="4.921766670545111" id="-32485">
		<tag k="name" v="Gråvika" />
		<tag k="natural" v="bay" />
		<tag k="ssr:stedsnr" v="25412" />
	</node>
	<node lat="60.88298055258284" lon="4.94725278707188" id="-32486">
		<tag k="name" v="Monsholmsundet" />
		<tag k="natural" v="strait" />
		<tag k="ssr:stedsnr" v="30080" />
	</node>
	<node lat="60.967841670092746" lon="5.111111117311314" id="-32487">
		<tag k="name" v="Tobbevika" />
		<tag k="natural" v="bay" />
		<tag k="ssr:stedsnr" v="30710" />
	</node>
	<node lat="60.98484722523107" lon="5.034327771020083" id="-32488">
		<tag k="name" v="Bytingsneset" />
		<tag k="natural" v="cape" />
		<tag k="ssr:stedsnr" v="30765" />
	</node>
	<node lat="60.97529999719942" lon="5.017180556677029" id="-32489">
		<tag k="name" v="Djuvika" />
		<tag k="natural" v="bay" />
		<tag k="ssr:stedsnr" v="30769" />
	</node>
	<node lat="61.02473333084021" lon="5.43866944520453" id="-32494">
		<tag k="name" v="Sebøknulten" />
		<tag k="natural" v="cape" />
		<tag k="ssr:stedsnr" v="30966" />
	</node>
	<node lat="60.83593888676493" lon="5.082402777033607" id="-32496">
		<tag k="name" v="Båneset" />
		<tag k="natural" v="cape" />
		<tag k="ssr:stedsnr" v="35013" />
	</node>
	<node lat="60.83096237296929" lon="5.13303617924881" id="-32497">
		<tag k="name" v="Steinsholmen" />
		<tag k="place" v="islet" />
		<tag k="ssr:stedsnr" v="35236" />
	</node>
	<node lat="60.94879166478147" lon="4.807133332445371" id="-32498">
		<tag k="fixme" v="consider seamark:type=rock or natural=shoal" />
		<tag k="name" v="Kjerring-skjeret" />
		<tag k="place" v="islet" />
		<tag k="ssr:stedsnr" v="35101" />
	</node>
	<node lat="61.08427500069682" lon="5.166947219325845" id="-32499">
		<tag k="name" v="Vereholmen" />
		<tag k="place" v="islet" />
		<tag k="ssr:stedsnr" v="35114" />
	</node>
	<node lat="60.89575231403516" lon="4.802342470827265" id="-32504">
		<tag k="fixme" v="consider seamark:type=rock or natural=shoal" />
		<tag k="name" v="Flateskjeret" />
		<tag k="place" v="islet" />
		<tag k="ssr:stedsnr" v="35706" />
	</node>
	<node lat="60.984011115576415" lon="5.292077785695537" id="-32522">
		<tag k="name" v="Skjerneset" />
		<tag k="natural" v="cape" />
		<tag k="ssr:stedsnr" v="36260" />
	</node>
	<node lat="60.86840277696963" lon="4.917749998066676" id="-32540">
		<tag k="fixme" v="consider seamark:type=rock or natural=shoal" />
		<tag k="name" v="Guleskjeret" />
		<tag k="place" v="islet" />
		<tag k="ssr:stedsnr" v="238673" />
	</node>
	<node lat="60.96848610819316" lon="4.8382055638781045" id="-32542">
		<tag k="name" v="Fureholmen" />
		<tag k="place" v="islet" />
		<tag k="ssr:stedsnr" v="67353" />
	</node>
	<node lat="60.994891666852176" lon="5.018966665468651" id="-32544">
		<tag k="alt_name" v="Klubben, søre" />
		<tag k="name" v="Søre Klubben" />
		<tag k="natural" v="cape" />
		<tag k="ssr:stedsnr" v="68397" />
	</node>
	<node lat="60.94749999909587" lon="4.857808336363191" id="-32545">
		<tag k="name" v="Lauvøyosen" />
		<tag k="natural" v="strait" />
		<tag k="ssr:stedsnr" v="68292" />
	</node>
	<node lat="60.941202778299335" lon="4.90833889245479" id="-32547">
		<tag k="alt_name" v="Mjømneosen" />
		<tag k="name" v="Mjømnosen" />
		<tag k="natural" v="strait" />
		<tag k="ssr:stedsnr" v="69291" />
	</node>
	<node lat="60.94165555557431" lon="4.837794448631762" id="-32548">
		<tag k="name" v="Bårøyna" />
		<tag k="place" v="island" />
		<tag k="ssr:stedsnr" v="69294" />
	</node>
	<node lat="60.87256944213525" lon="4.965302772591077" id="-32550">
		<tag k="name" v="Bukkebergvika" />
		<tag k="natural" v="bay" />
		<tag k="ssr:stedsnr" v="69406" />
	</node>
	<node lat="60.86795555169716" lon="4.87849444304998" id="-32551">
		<tag k="name" v="Naustvågen" />
		<tag k="natural" v="bay" />
		<tag k="ssr:stedsnr" v="69409" />
	</node>
	<node lat="60.864030551384154" lon="4.790658335292006" id="-32552">
		<tag k="alt_name" v="Nordfarvågen" />
		<tag k="name" v="Nordforvågen" />
		<tag k="natural" v="bay" />
		<tag k="ssr:stedsnr" v="69429" />
	</node>
	<node lat="60.88093055462864" lon="4.943791660818718" id="-32553">
		<tag k="name" v="Leirøyna" />
		<tag k="place" v="islet" />
		<tag k="ssr:stedsnr" v="69434" />
	</node>
	<node lat="60.90738333481207" lon="4.951113884978052" id="-32557">
		<tag k="name" v="Merkesvågen" />
		<tag k="natural" v="bay" />
		<tag k="ssr:stedsnr" v="69497" />
	</node>
	<node lat="60.89135555729778" lon="4.796883325247907" id="-32558">
		<tag k="alt_name" v="Indre Ingebergskjeret" />
		<tag k="fixme" v="consider seamark:type=rock or natural=shoal" />
		<tag k="name" v="Ingebergskjeret" />
		<tag k="place" v="islet" />
		<tag k="ssr:stedsnr" v="69503" />
	</node>
	<node lat="60.90358889262465" lon="4.797950002912903" id="-32559">
		<tag k="fixme" v="consider seamark:type=rock or natural=shoal" />
		<tag k="name" v="Flateskjeret" />
		<tag k="place" v="islet" />
		<tag k="ssr:stedsnr" v="69518" />
	</node>
	<node lat="60.90425000361315" lon="4.772533334071739" id="-32560">
		<tag k="alt_name" v="Fiskholmen, l" />
		<tag k="name" v="Litle Fiskholmen" />
		<tag k="place" v="islet" />
		<tag k="ssr:stedsnr" v="69520" />
	</node>
	<node lat="60.918316664902065" lon="4.7892833278789775" id="-32561">
		<tag k="alt_name" v="Saløyna, store;Saløyna" />
		<tag k="name" v="Store Saløyna" />
		<tag k="place" v="islet" />
		<tag k="ssr:stedsnr" v="69523" />
	</node>
	<node lat="60.91606388620632" lon="4.748583341889028" id="-32562">
		<tag k="name" v="Saløyskallane" />
		<tag k="natural" v="shoal" />
		<tag k="place" v="locality" />
		<tag k="ssr:stedsnr" v="69526" />
	</node>
	<node lat="60.92388333430095" lon="5.021063884204278" id="-32564">
		<tag k="name" v="Storholmen" />
		<tag k="place" v="islet" />
		<tag k="ssr:stedsnr" v="69539" />
	</node>
	<node lat="60.966408336635425" lon="5.187761101757215" id="-32568">
		<tag k="alt_name" v="Leversundet" />
		<tag k="name" v="Livresundet" />
		<tag k="natural" v="strait" />
		<tag k="ssr:stedsnr" v="69786" />
	</node>
	<node lat="60.908583803997445" lon="5.128095206023677" id="-32573">
		<tag k="name" v="Grindeneset" />
		<tag k="natural" v="cape" />
		<tag k="ssr:stedsnr" v="69941" />
	</node>
	<node lat="61.018244440629196" lon="5.035583331437959" id="-32579">
		<tag k="name" v="Vågeholmen" />
		<tag k="place" v="islet" />
		<tag k="ssr:stedsnr" v="70379" />
	</node>
	<node lat="61.01352777360166" lon="4.962438880232221" id="-32580">
		<tag k="name" v="Kuholmen" />
		<tag k="place" v="islet" />
		<tag k="ssr:stedsnr" v="70382" />
	</node>
	<node lat="60.85477778155945" lon="4.9320777757840855" id="-32589">
		<tag k="name" v="Vikingneset" />
		<tag k="natural" v="cape" />
		<tag k="ssr:stedsnr" v="85326" />
	</node>
	<node lat="60.86170555439852" lon="4.931361113903104" id="-32590">
		<tag k="name" v="Rakeneset" />
		<tag k="natural" v="cape" />
		<tag k="ssr:stedsnr" v="85327" />
	</node>
	<node lat="60.89889166756047" lon="4.952272215701794" id="-32591">
		<tag k="name" v="Nappslandet" />
		<tag k="natural" v="cape" />
		<tag k="ssr:stedsnr" v="85328" />
	</node>
	<node lat="60.91306944166419" lon="4.966938882466245" id="-32594">
		<tag k="name" v="Klubben" />
		<tag k="natural" v="cape" />
		<tag k="ssr:stedsnr" v="86005" />
	</node>
	<node lat="60.99698055930309" lon="4.908583327930234" id="-32595">
		<tag k="name" v="Stabben" />
		<tag k="natural" v="shoal" />
		<tag k="place" v="locality" />
		<tag k="ssr:stedsnr" v="86030" />
	</node>
	<node lat="60.94421666291058" lon="4.76964999538408" id="-32596">
		<tag k="name" v="Okseskallen" />
		<tag k="natural" v="shoal" />
		<tag k="place" v="locality" />
		<tag k="ssr:stedsnr" v="86102" />
	</node>
	<node lat="60.92570340163469" lon="4.823198154292394" id="-32597">
		<tag k="name" v="Svartesundet" />
		<tag k="natural" v="strait" />
		<tag k="ssr:stedsnr" v="86104" />
	</node>
	<node lat="61.07308055460245" lon="5.099155559721329" id="-32598">
		<tag k="name" v="Sandnesflua" />
		<tag k="natural" v="shoal" />
		<tag k="place" v="locality" />
		<tag k="ssr:stedsnr" v="86772" />
	</node>
	<node lat="60.87286111530406" lon="5.11715277448359" id="-32599">
		<tag k="fixme" v="consider seamark:type=rock or natural=shoal" />
		<tag k="name" v="Klovsteinene" />
		<tag k="place" v="islet" />
		<tag k="ssr:stedsnr" v="86814" />
	</node>
	<node lat="60.925652774710436" lon="4.900555555562609" id="-32608">
		<tag k="name" v="Rossdalsvika" />
		<tag k="natural" v="bay" />
		<tag k="ssr:stedsnr" v="95228" />
	</node>
	<node lat="60.96505555781892" lon="4.984558340279495" id="-32612">
		<tag k="name" v="Store Grimstadholmen" />
		<tag k="place" v="islet" />
		<tag k="ssr:stedsnr" v="95512" />
	</node>
	<node lat="61.07200378075578" lon="5.116469198719989" id="-32617">
		<tag k="name" v="Flatevika" />
		<tag k="natural" v="bay" />
		<tag k="ssr:stedsnr" v="96166" />
	</node>
	<node lat="60.89253611137849" lon="4.719286103599243" id="-32621">
		<tag k="name" v="Oskevågen" />
		<tag k="natural" v="bay" />
		<tag k="ssr:stedsnr" v="96320" />
	</node>
	<node lat="60.87942222292963" lon="4.706836107292005" id="-32622">
		<tag k="name" v="Kvannskjerbåen" />
		<tag k="natural" v="cape" />
		<tag k="ssr:stedsnr" v="96463" />
	</node>
	<node lat="60.90511166381044" lon="4.827125322226195" id="-32624">
		<tag k="name" v="Brattholmen" />
		<tag k="place" v="islet" />
		<tag k="ssr:stedsnr" v="96582" />
	</node>
	<node lat="61.03673968617391" lon="5.179516430098451" id="-32625">
		<tag k="name" v="Sandvika" />
		<tag k="natural" v="bay" />
		<tag k="ssr:stedsnr" v="96766" />
	</node>
	<node lat="61.07125555925941" lon="5.178613891624998" id="-32626">
		<tag k="name" v="Skjelvikholmen" />
		<tag k="place" v="islet" />
		<tag k="ssr:stedsnr" v="96809" />
	</node>
	<node lat="60.99934444546788" lon="5.171058333706932" id="-32636">
		<tag k="name" v="Årevika" />
		<tag k="natural" v="bay" />
		<tag k="ssr:stedsnr" v="96977" />
	</node>
	<node lat="61.0003055572096" lon="5.171197223032775" id="-32637">
		<tag k="name" v="Heineset" />
		<tag k="natural" v="cape" />
		<tag k="ssr:stedsnr" v="96979" />
	</node>
	<node lat="60.96710278089705" lon="4.787688887065941" id="-32651">
		<tag k="fixme" v="consider seamark:type=rock or natural=shoal" />
		<tag k="name" v="Svarteskjeret" />
		<tag k="place" v="islet" />
		<tag k="ssr:stedsnr" v="249333" />
	</node>
	<node lat="60.977791670295886" lon="5.032283329049835" id="-32654">
		<tag k="alt_name" v="Breivika" />
		<tag k="name" v="Breidvika" />
		<tag k="natural" v="bay" />
		<tag k="ssr:stedsnr" v="249341" />
	</node>
	<node lat="60.954891665616586" lon="4.999736115323148" id="-32657">
		<tag k="alt_name" v="Kvigesundholmen" />
		<tag k="name" v="Kvigesundholmane" />
		<tag k="place" v="islet" />
		<tag k="ssr:stedsnr" v="250279" />
	</node>
	<node lat="60.953788885228256" lon="4.965058337277202" id="-32658">
		<tag k="name" v="Bjorøyosen" />
		<tag k="natural" v="strait" />
		<tag k="ssr:stedsnr" v="250282" />
	</node>
	<node lat="60.951550003164876" lon="4.937916674352528" id="-32659">
		<tag k="name" v="Mjømnetangen" />
		<tag k="natural" v="cape" />
		<tag k="ssr:stedsnr" v="250284" />
	</node>
	<node lat="60.98787499690856" lon="4.856949992104324" id="-32662">
		<tag k="alt_name" v="Hillehamnen, s" />
		<tag k="name" v="Søre Hillehamnen" />
		<tag k="natural" v="bay" />
		<tag k="ssr:stedsnr" v="250359" />
	</node>
	<node lat="60.98383798331993" lon="4.88429791862417" id="-32663">
		<tag k="alt_name" v="Gladvær, søre;Glavær Søre" />
		<tag k="name" v="Søre Gladvær" />
		<tag k="place" v="island" />
		<tag k="ssr:stedsnr" v="250360" />
	</node>
	<node lat="60.88488888881212" lon="4.717691658722532" id="-32665">
		<tag k="name" v="Skoltholmen" />
		<tag k="place" v="islet" />
		<tag k="ssr:stedsnr" v="250732" />
	</node>
	<node lat="60.855902776322466" lon="4.975044446920652" id="-32666">
		<tag k="name" v="Måseviktaren" />
		<tag k="natural" v="shoal" />
		<tag k="place" v="locality" />
		<tag k="ssr:stedsnr" v="117684" />
	</node>
	<node lat="60.94791388621232" lon="4.925036105373425" id="-32679">
		<tag k="name" v="Krabbeholmen" />
		<tag k="place" v="islet" />
		<tag k="ssr:stedsnr" v="251292" />
	</node>
	<node lat="60.85726389072409" lon="4.913952778499544" id="-32683">
		<tag k="alt_name" v="Båvågen" />
		<tag k="name" v="Båevågen" />
		<tag k="natural" v="bay" />
		<tag k="ssr:stedsnr" v="251392" />
	</node>
	<node lat="60.86353055445686" lon="5.066061116592198" id="-32684">
		<tag k="name" v="Steinsvågen" />
		<tag k="natural" v="bay" />
		<tag k="ssr:stedsnr" v="251396" />
	</node>
	<node lat="60.86825000165093" lon="5.052261117228842" id="-32685">
		<tag k="name" v="Eidsøyna" />
		<tag k="place" v="islet" />
		<tag k="ssr:stedsnr" v="251399" />
	</node>
	<node lat="60.88651666974126" lon="4.9293749927075945" id="-32687">
		<tag k="name" v="Nappsholmen" />
		<tag k="place" v="island" />
		<tag k="ssr:stedsnr" v="251442" />
	</node>
	<node lat="60.87511944012951" lon="4.783180556037986" id="-32688">
		<tag k="alt_name" v="Røytekalven" />
		<tag k="name" v="Røytingekalven" />
		<tag k="place" v="islet" />
		<tag k="ssr:stedsnr" v="251449" />
	</node>
	<node lat="60.9066250014911" lon="4.90593055265512" id="-32691">
		<tag k="alt_name" v="Leieholmen, store;Store Leiholmen" />
		<tag k="name" v="Store Leieholmen" />
		<tag k="place" v="islet" />
		<tag k="ssr:stedsnr" v="251468" />
	</node>
	<node lat="60.88573611254635" lon="4.732127782402008" id="-32692">
		<tag k="name" v="Verholmen" />
		<tag k="place" v="islet" />
		<tag k="ssr:stedsnr" v="251479" />
	</node>
	<node lat="60.83736388812519" lon="5.1351249937431644" id="-32693">
		<tag k="name" v="Ildalsvågen" />
		<tag k="natural" v="bay" />
		<tag k="old_name" v="Ilnesvågen;Ilevågen" />
		<tag k="ssr:stedsnr" v="251562" />
	</node>
	<node lat="61.08451666737212" lon="5.152147221429641" id="-32694">
		<tag k="name" v="Surispa" />
		<tag k="natural" v="cape" />
		<tag k="ssr:stedsnr" v="251591" />
	</node>
	<node lat="61.08196389262291" lon="5.139213885720916" id="-32695">
		<tag k="fixme" v="consider seamark:type=rock or natural=shoal" />
		<tag k="name" v="Flateskjeret" />
		<tag k="place" v="islet" />
		<tag k="ssr:stedsnr" v="251601" />
	</node>
	<node lat="60.95014444613882" lon="5.12065834099538" id="-32710">
		<tag k="name" v="Britevika" />
		<tag k="natural" v="bay" />
		<tag k="ssr:stedsnr" v="251869" />
	</node>
	<node lat="61.02604722269313" lon="5.393063897554665" id="-32718">
		<tag k="name" v="Alverneset" />
		<tag k="natural" v="cape" />
		<tag k="ssr:stedsnr" v="251907" />
	</node>
	<node lat="60.98038055458659" lon="5.041449993331699" id="-32727">
		<tag k="alt_name" v="Stavsnes" />
		<tag k="name" v="Stavsneset" />
		<tag k="natural" v="cape" />
		<tag k="ssr:stedsnr" v="128312" />
	</node>
	<node lat="60.978086115026365" lon="4.806566663659636" id="-32729">
		<tag k="alt_name" v="Hårøyna" />
		<tag k="name" v="Horrøyna" />
		<tag k="place" v="islet" />
		<tag k="ssr:stedsnr" v="128315" />
	</node>
	<node lat="60.97999999632415" lon="4.801836104312092" id="-32730">
		<tag k="name" v="Olemannsøyna" />
		<tag k="place" v="islet" />
		<tag k="ssr:stedsnr" v="128334" />
	</node>
	<node lat="60.889119444402844" lon="4.710177786487873" id="-32732">
		<tag k="alt_name" v="Oska, l" />
		<tag k="name" v="Litle Oska" />
		<tag k="old_name" v="Oska" />
		<tag k="place" v="islet" />
		<tag k="ssr:stedsnr" v="128735" />
	</node>
	<node lat="61.083350002367176" lon="5.60636945137079" id="-32734">
		<tag k="name" v="Fureneset" />
		<tag k="natural" v="cape" />
		<tag k="ssr:stedsnr" v="128498" />
	</node>
	<node lat="61.01967500298189" lon="4.998541666252022" id="-32736">
		<tag k="alt_name" v="Brandholmen" />
		<tag k="name" v="Brandholmane" />
		<tag k="place" v="islet" />
		<tag k="ssr:stedsnr" v="252374" />
	</node>
	<node lat="61.03112222456117" lon="4.988091672256273" id="-32738">
		<tag k="name" v="Storlihelleålen" />
		<tag k="natural" v="strait" />
		<tag k="ssr:stedsnr" v="252408" />
	</node>
	<node lat="60.87987500290626" lon="4.851261113091194" id="-32741">
		<tag k="name" v="Olsøyna" />
		<tag k="place" v="islet" />
		<tag k="ssr:stedsnr" v="129409" />
	</node>
	<node lat="60.89625833115196" lon="4.948558335977157" id="-32744">
		<tag k="name" v="Nappsvågen" />
		<tag k="natural" v="bay" />
		<tag k="ssr:stedsnr" v="129450" />
	</node>
	<node lat="61.07974882287126" lon="5.148169364374078" id="-32751">
		<tag k="name" v="Grønevika" />
		<tag k="natural" v="bay" />
		<tag k="ssr:stedsnr" v="129520" />
	</node>
	<node lat="61.071663885264044" lon="5.111741674661414" id="-32757">
		<tag k="alt_name" v="Gunhellervika" />
		<tag k="name" v="Grimhellervika" />
		<tag k="natural" v="bay" />
		<tag k="ssr:stedsnr" v="252515" />
	</node>
	<node lat="61.07220833761786" lon="5.182788894132257" id="-32763">
		<tag k="name" v="Bukkholmen" />
		<tag k="place" v="islet" />
		<tag k="ssr:stedsnr" v="252545" />
	</node>
	<node lat="61.04083055291104" lon="5.040100006651668" id="-32765">
		<tag k="name" v="Storevika" />
		<tag k="natural" v="bay" />
		<tag k="ssr:stedsnr" v="130390" />
	</node>
	<node lat="61.03807500196409" lon="5.326316674055523" id="-32779">
		<tag k="name" v="Lyreholneset" />
		<tag k="natural" v="cape" />
		<tag k="ssr:stedsnr" v="252878" />
	</node>
	<node lat="60.997949998753704" lon="4.923694448850867" id="-32785">
		<tag k="name" v="Breidvika" />
		<tag k="natural" v="bay" />
		<tag k="ssr:stedsnr" v="146020" />
	</node>
	<node lat="60.92923611202493" lon="5.0226166596528214" id="-32786">
		<tag k="name" v="Hatteneset" />
		<tag k="natural" v="cape" />
		<tag k="ssr:stedsnr" v="146036" />
	</node>
	<node lat="60.92910833055506" lon="5.017997229652004" id="-32787">
		<tag k="name" v="Risholmen" />
		<tag k="place" v="islet" />
		<tag k="ssr:stedsnr" v="146037" />
	</node>
	<node lat="60.911222222888135" lon="5.022372226308465" id="-32788">
		<tag k="name" v="Leirenden" />
		<tag k="natural" v="cape" />
		<tag k="ssr:stedsnr" v="146040" />
	</node>
	<node lat="60.93275555995834" lon="4.856350000770349" id="-32789">
		<tag k="name" v="Keipeneset" />
		<tag k="natural" v="cape" />
		<tag k="ssr:stedsnr" v="146078" />
	</node>
	<node lat="60.92380000063328" lon="4.781711106888061" id="-32790">
		<tag k="name" v="Avløypet" />
		<tag k="place" v="islet" />
		<tag k="ssr:stedsnr" v="146080" />
	</node>
	<node lat="60.92916111079251" lon="4.882144442723698" id="-32791">
		<tag k="alt_name" v="Søre Risøysundet" />
		<tag k="name" v="Risøysundet" />
		<tag k="natural" v="strait" />
		<tag k="ssr:stedsnr" v="146086" />
	</node>
	<node lat="60.92086944300136" lon="4.751697217410824" id="-32792">
		<tag k="name" v="Trolleskallen" />
		<tag k="natural" v="shoal" />
		<tag k="place" v="locality" />
		<tag k="ssr:stedsnr" v="146105" />
	</node>
	<node lat="61.00804999558745" lon="4.925563886454329" id="-32794">
		<tag k="fixme" v="consider seamark:type=rock or natural=shoal" />
		<tag k="name" v="Vedalskjera" />
		<tag k="place" v="islet" />
		<tag k="ssr:stedsnr" v="146949" />
	</node>
	<node lat="61.00689999900581" lon="4.964100009025674" id="-32795">
		<tag k="name" v="Ytre Kyllaren" />
		<tag k="natural" v="cape" />
		<tag k="ssr:stedsnr" v="146951" />
	</node>
	<node lat="60.95114166860862" lon="4.8587944448504805" id="-32796">
		<tag k="name" v="Lauvøyna" />
		<tag k="place" v="island" />
		<tag k="ssr:stedsnr" v="310292" />
	</node>
	<node lat="60.964205556487464" lon="5.056613880049519" id="-32797">
		<tag k="bay" v="fjord" />
		<tag k="name" v="Gulafjorden" />
		<tag k="natural" v="bay" />
		<tag k="ssr:stedsnr" v="310296" />
	</node>
	<node lat="60.963325002784195" lon="5.016999994379711" id="-32798">
		<tag k="alt_name" v="Heggvågen, nordre;Nordre Heggevågen" />
		<tag k="name" v="Nordre Heggvågen" />
		<tag k="natural" v="bay" />
		<tag k="ssr:stedsnr" v="310297" />
	</node>
	<node lat="60.93029166595985" lon="5.12922778204975" id="-32800">
		<tag k="name" v="Moldeneset" />
		<tag k="natural" v="cape" />
		<tag k="ssr:stedsnr" v="151864" />
	</node>
	<node lat="60.966230551434634" lon="5.006213883442796" id="-32803">
		<tag k="fixme" v="consider seamark:type=rock or natural=shoal" />
		<tag k="name" v="Sleipeskjeret" />
		<tag k="place" v="islet" />
		<tag k="ssr:stedsnr" v="155811" />
	</node>
	<node lat="60.900469448355516" lon="5.1140611033952315" id="-32805">
		<tag k="name" v="Merkjesvika" />
		<tag k="natural" v="bay" />
		<tag k="ssr:stedsnr" v="156114" />
	</node>
	<node lat="60.95140555761062" lon="4.797544445440288" id="-32811">
		<tag k="name" v="Bøneset" />
		<tag k="natural" v="cape" />
		<tag k="ssr:stedsnr" v="156365" />
	</node>
	<node lat="60.95433611378294" lon="4.921555552413213" id="-32813">
		<tag k="name" v="Skogholmen" />
		<tag k="place" v="islet" />
		<tag k="ssr:stedsnr" v="156510" />
	</node>
	<node lat="60.903988890915564" lon="4.925222223508011" id="-32815">
		<tag k="name" v="Naustvågen" />
		<tag k="natural" v="bay" />
		<tag k="ssr:stedsnr" v="156406" />
	</node>
	<node lat="60.89032500272625" lon="4.72179166859695" id="-32825">
		<tag k="name" v="Laksetaren" />
		<tag k="natural" v="cape" />
		<tag k="ssr:stedsnr" v="157268" />
	</node>
	<node lat="60.912086112874455" lon="4.80357499626539" id="-32839">
		<tag k="name" v="Grønholmen" />
		<tag k="place" v="islet" />
		<tag k="ssr:stedsnr" v="157705" />
	</node>
	<node lat="60.85801944550169" lon="4.839230563648246" id="-32852">
		<tag k="name" v="Søre Hillesøyvågen" />
		<tag k="natural" v="bay" />
		<tag k="ssr:stedsnr" v="177704" />
	</node>
	<node lat="60.974838887597926" lon="4.847400008351163" id="-32856">
		<tag k="name" v="Lyngholmen" />
		<tag k="place" v="islet" />
		<tag k="ssr:stedsnr" v="189324" />
	</node>
	<node lat="60.97503333791604" lon="5.082680560004573" id="-32857">
		<tag k="name" v="Gruva" />
		<tag k="natural" v="bay" />
		<tag k="ssr:stedsnr" v="189285" />
	</node>
	<node lat="60.95615832881789" lon="4.743855552410047" id="-32858">
		<tag k="name" v="Hansgrunnen" />
		<tag k="natural" v="shoal" />
		<tag k="place" v="locality" />
		<tag k="ssr:stedsnr" v="189288" />
	</node>
	<node lat="60.93234444081012" lon="4.810152786442284" id="-32861">
		<tag k="alt_name" v="Strømsøyna" />
		<tag k="name" v="Straumøyna" />
		<tag k="place" v="islet" />
		<tag k="ssr:stedsnr" v="190260" />
	</node>
	<node lat="60.884213890192875" lon="4.723530550889476" id="-32864">
		<tag k="name" v="Vassøyna" />
		<tag k="place" v="islet" />
		<tag k="ssr:stedsnr" v="190469" />
	</node>
	<node lat="60.87493611070833" lon="4.738569453163191" id="-32865">
		<tag k="alt_name" v="Litle Besta" />
		<tag k="name" v="Litlebeste" />
		<tag k="place" v="islet" />
		<tag k="ssr:stedsnr" v="190470" />
	</node>
	<node lat="60.909480732048536" lon="4.958868194232171" id="-32867">
		<tag k="alt_name" v="Mjøsundet" />
		<tag k="name" v="Mjåsundet" />
		<tag k="natural" v="strait" />
		<tag k="ssr:stedsnr" v="190482" />
	</node>
	<node lat="61.04839444863592" lon="5.043566657699248" id="-32868">
		<tag k="name" v="Sjøneset" />
		<tag k="natural" v="cape" />
		<tag k="ssr:stedsnr" v="190528" />
	</node>
	<node lat="60.966613892849026" lon="5.237569446272855" id="-32870">
		<tag k="bay" v="fjord" />
		<tag k="name" v="Austgulfjorden" />
		<tag k="natural" v="bay" />
		<tag k="ssr:stedsnr" v="190826" />
	</node>
	<node lat="61.055925000026996" lon="5.507708326367652" id="-32873">
		<tag k="name" v="Oppedalsvika" />
		<tag k="natural" v="bay" />
		<tag k="ssr:stedsnr" v="191170" />
	</node>
</osm>
