<?xml version="1.0" encoding="UTF-8"?>
<osm generator="osmapis" version="0.6">
	<node id="-755706" lat="69.4655083343" lon="18.2021999885">
		<tag k="fixme" v="consider seamark:type=rock or natural=shoal" />
		<tag k="name" v="Laukvikskjæret" />
		<tag k="place" v="islet" />
		<tag k="ssr:stedsnr" v="414878" />
	</node>
	<node id="-755681" lat="69.213611108" lon="18.0568388887">
		<tag k="name" v="Litjemola" />
		<tag k="natural" v="bay" />
		<tag k="ssr:stedsnr" v="414527" />
	</node>
	<node id="-755680" lat="69.2136194472" lon="18.0763000033">
		<tag k="name" v="Halsen" />
		<tag k="place" v="locality" />
		<tag k="ssr:stedsnr" v="414522" />
	</node>
	<node id="-755676" lat="69.2289361127" lon="18.0822305446">
		<tag k="name" v="Finnfjordbotn" />
		<tag k="natural" v="bay" />
		<tag k="ssr:stedsnr" v="414465" />
	</node>
	<node id="-755674" lat="69.2321277816" lon="18.026733341">
		<tag k="name" v="Sandvika" />
		<tag k="natural" v="bay" />
		<tag k="ssr:stedsnr" v="414455" />
	</node>
	<node id="-755670" lat="69.2594833338" lon="17.9442416747">
		<tag k="name" v="Vika" />
		<tag k="natural" v="bay" />
		<tag k="ssr:stedsnr" v="263266" />
	</node>
	<node id="-755667" lat="69.5153749979" lon="17.950066661">
		<tag k="name" v="Gavlen" />
		<tag k="natural" v="cape" />
		<tag k="ssr:stedsnr" v="261804" />
	</node>
	<node id="-755661" lat="69.5705861111" lon="17.8479499954">
		<tag k="name" v="Giska" />
		<tag k="natural" v="bay" />
		<tag k="ssr:stedsnr" v="261748" />
	</node>
	<node id="-755655" lat="69.5721888884" lon="17.8970916563">
		<tag k="name" v="Persaflua" />
		<tag k="natural" v="shoal" />
		<tag k="place" v="locality" />
		<tag k="ssr:stedsnr" v="261732" />
	</node>
	<node id="-755653" lat="69.5985500015" lon="17.7825305428">
		<tag k="name" v="Leiven" />
		<tag k="natural" v="shoal" />
		<tag k="place" v="locality" />
		<tag k="ssr:stedsnr" v="261730" />
	</node>
	<node id="-755650" lat="69.5911083363" lon="17.5795694413">
		<tag k="fixme" v="consider seamark:type=rock or natural=shoal" />
		<tag k="name" v="Øyfjordskjæret" />
		<tag k="place" v="islet" />
		<tag k="ssr:stedsnr" v="261721" />
	</node>
	<node id="-755019" lat="69.5034638892" lon="18.0227805581">
		<tag k="name" v="Ræva" />
		<tag k="natural" v="bay" />
		<tag k="ssr:stedsnr" v="79438" />
	</node>
	<node id="-755642" lat="69.3850583307" lon="18.1405083373">
		<tag k="name" v="Kobbesteinneset" />
		<tag k="natural" v="cape" />
		<tag k="ssr:stedsnr" v="261673" />
	</node>
	<node id="-755640" lat="69.4893805567" lon="18.067408324">
		<tag k="alt_name" v="Skårliodden;Ytre Skårlineset" />
		<tag k="name" v="Skårlineset" />
		<tag k="natural" v="cape" />
		<tag k="ssr:stedsnr" v="261640" />
	</node>
	<node id="-755638" lat="69.3159833308" lon="17.9191222115">
		<tag k="name" v="Skognesholmen" />
		<tag k="natural" v="cape" />
		<tag k="ssr:stedsnr" v="261589" />
	</node>
	<node id="-755630" lat="69.3392749978" lon="17.9561527684">
		<tag k="name" v="Lanesodden" />
		<tag k="natural" v="cape" />
		<tag k="ssr:stedsnr" v="261551" />
	</node>
	<node id="-755629" lat="69.4166416687" lon="17.9506444325">
		<tag k="alt_name" v="Lysnes, in" />
		<tag k="name" v="Indre Lysnes" />
		<tag k="natural" v="cape" />
		<tag k="ssr:stedsnr" v="261536" />
	</node>
	<node id="-755621" lat="69.4484972215" lon="17.851124995">
		<tag k="name" v="Storvika" />
		<tag k="natural" v="bay" />
		<tag k="ssr:stedsnr" v="261464" />
	</node>
	<node id="-754672" lat="69.2646083368" lon="17.9964388896">
		<tag k="name" v="Trollvika" />
		<tag k="natural" v="bay" />
		<tag k="ssr:stedsnr" v="473649" />
	</node>
	<node id="-755614" lat="69.1564138877" lon="17.889863879">
		<tag k="name" v="Solberggrunnen" />
		<tag k="natural" v="shoal" />
		<tag k="place" v="locality" />
		<tag k="ssr:stedsnr" v="261312" />
	</node>
	<node id="-755613" lat="69.1400944442" lon="17.6598499977">
		<tag k="bay" v="fjord" />
		<tag k="name" v="Solbergfjorden" />
		<tag k="natural" v="bay" />
		<tag k="ssr:stedsnr" v="261296" />
	</node>
	<node id="-755609" lat="69.4530944451" lon="18.0041888858">
		<tag k="name" v="Torbergneset" />
		<tag k="natural" v="cape" />
		<tag k="ssr:stedsnr" v="261622" />
	</node>
	<node id="-755583" lat="69.4658583346" lon="18.1683277838">
		<tag k="name" v="Rødbergsholmen" />
		<tag k="place" v="islet" />
		<tag k="ssr:stedsnr" v="232630" />
	</node>
	<node id="-755565" lat="69.5415555549" lon="17.7647138935">
		<tag k="name" v="Verselneset" />
		<tag k="natural" v="cape" />
		<tag k="ssr:stedsnr" v="230811" />
	</node>
	<node id="-755563" lat="69.5741527819" lon="17.8521277735">
		<tag k="name" v="Småsandan" />
		<tag k="natural" v="bay" />
		<tag k="ssr:stedsnr" v="230788" />
	</node>
	<node id="-755561" lat="69.1840499959" lon="17.9864388854">
		<tag k="name" v="Brurknappen" />
		<tag k="natural" v="cape" />
		<tag k="ssr:stedsnr" v="230719" />
	</node>
	<node id="-755551" lat="69.6011611107" lon="17.8340777723">
		<tag k="name" v="Fyrkeila" />
		<tag k="natural" v="bay" />
		<tag k="ssr:stedsnr" v="230514" />
	</node>
	<node id="-755550" lat="69.5683694492" lon="17.8939027713">
		<tag k="name" v="Litje Laukvika" />
		<tag k="natural" v="bay" />
		<tag k="ssr:stedsnr" v="230494" />
	</node>
	<node id="-755547" lat="69.548625001" lon="17.9206694476">
		<tag k="name" v="Kobbeneset" />
		<tag k="natural" v="cape" />
		<tag k="ssr:stedsnr" v="230485" />
	</node>
	<node id="-755546" lat="69.507222224" lon="17.909616668">
		<tag k="fixme" v="consider seamark:type=rock or natural=shoal" />
		<tag k="name" v="Kobbeskjæret" />
		<tag k="place" v="islet" />
		<tag k="ssr:stedsnr" v="230467" />
	</node>
	<node id="-755544" lat="69.2272805546" lon="17.9705694512">
		<tag k="name" v="Katrinabukta" />
		<tag k="natural" v="bay" />
		<tag k="ssr:stedsnr" v="230339" />
	</node>
	<node id="-755542" lat="69.4614444433" lon="17.8230500053">
		<tag k="name" v="Kobbekjosen" />
		<tag k="natural" v="bay" />
		<tag k="ssr:stedsnr" v="230335" />
	</node>
	<node id="-755533" lat="69.5386388899" lon="17.6778472298">
		<tag k="name" v="Urneset" />
		<tag k="natural" v="cape" />
		<tag k="ssr:stedsnr" v="230240" />
	</node>
	<node id="-755530" lat="69.5154833367" lon="17.6300916656">
		<tag k="name" v="Purkenesvika" />
		<tag k="natural" v="bay" />
		<tag k="ssr:stedsnr" v="230217" />
	</node>
	<node id="-755526" lat="69.4997666712" lon="17.6645361005">
		<tag k="fixme" v="consider seamark:type=rock or natural=shoal" />
		<tag k="name" v="Kobbesteinan" />
		<tag k="place" v="islet" />
		<tag k="ssr:stedsnr" v="230170" />
	</node>
	<node id="-755511" lat="69.4558222252" lon="17.8218888881">
		<tag k="name" v="Litjelangneset" />
		<tag k="natural" v="cape" />
		<tag k="ssr:stedsnr" v="229507" />
	</node>
	<node id="-755509" lat="69.4416222258" lon="17.9916861048">
		<tag k="name" v="Lysnesodden" />
		<tag k="natural" v="cape" />
		<tag k="ssr:stedsnr" v="229422" />
	</node>
	<node id="-755506" lat="69.2539777761" lon="17.996641658">
		<tag k="fixme" v="consider seamark:type=rock or natural=shoal" />
		<tag k="name" v="Kobbesteinan" />
		<tag k="place" v="islet" />
		<tag k="ssr:stedsnr" v="211888" />
	</node>
	<node id="-755504" lat="69.2459666701" lon="17.9911083435">
		<tag k="name" v="Skjellvikneset" />
		<tag k="natural" v="cape" />
		<tag k="ssr:stedsnr" v="211340" />
	</node>
	<node id="-755502" lat="69.272269444" lon="17.9010222126">
		<tag k="name" v="Øyra" />
		<tag k="natural" v="cape" />
		<tag k="ssr:stedsnr" v="211045" />
	</node>
	<node id="-755501" lat="69.3921777819" lon="18.4116666529">
		<tag k="name" v="Håkjerringvika" />
		<tag k="natural" v="bay" />
		<tag k="ssr:stedsnr" v="208796" />
	</node>
	<node id="-755500" lat="69.4640583304" lon="18.1957416634">
		<tag k="name" v="Sørvikbåan" />
		<tag k="place" v="locality" />
		<tag k="seamark:type" v="rock" />
		<tag k="ssr:stedsnr" v="207693" />
	</node>
	<node id="-755499" lat="69.4304388887" lon="18.0772138854">
		<tag k="name" v="Geitneset" />
		<tag k="natural" v="cape" />
		<tag k="ssr:stedsnr" v="207676" />
	</node>
	<node id="-755498" lat="69.4631444481" lon="18.0080555653">
		<tag k="name" v="Skarsvågen" />
		<tag k="natural" v="bay" />
		<tag k="ssr:stedsnr" v="207659" />
	</node>
	<node id="-755497" lat="69.4992583335" lon="17.9219249862">
		<tag k="name" v="Finnvika" />
		<tag k="natural" v="bay" />
		<tag k="ssr:stedsnr" v="207522" />
	</node>
	<node id="-755496" lat="69.353002776" lon="18.0934250052">
		<tag k="name" v="Sørgrunnen" />
		<tag k="natural" v="shoal" />
		<tag k="place" v="locality" />
		<tag k="ssr:stedsnr" v="207491" />
	</node>
	<node id="-755495" lat="69.5810583377" lon="17.8657388849">
		<tag k="alt_name" v="Vindkjosan" />
		<tag k="name" v="Vindkjosen" />
		<tag k="natural" v="bay" />
		<tag k="ssr:stedsnr" v="207383" />
	</node>
	<node id="-755491" lat="69.5187250007" lon="17.9558333277">
		<tag k="name" v="Storvika" />
		<tag k="natural" v="bay" />
		<tag k="ssr:stedsnr" v="201861" />
	</node>
	<node id="-755483" lat="69.4090055568" lon="18.0628638976">
		<tag k="name" v="Kvalneset" />
		<tag k="natural" v="cape" />
		<tag k="ssr:stedsnr" v="201687" />
	</node>
	<node id="-755469" lat="69.425808333" lon="17.9794777672">
		<tag k="alt_name:no" v="Lysebotn;Lysbotnen" />
		<tag k="name" v="Lysbotn - Liidditvuotna" />
		<tag k="name:no" v="Lysbotn" />
		<tag k="name:se" v="Liidditvuotna" />
		<tag k="natural" v="bay" />
		<tag k="old_name:se" v="Liiditvuodna" />
		<tag k="ssr:stedsnr" v="201427" />
	</node>
	<node id="-755466" lat="69.5236027773" lon="17.6308722321">
		<tag k="name" v="Kråksølvneset" />
		<tag k="natural" v="cape" />
		<tag k="ssr:stedsnr" v="200800" />
	</node>
	<node id="-755465" lat="69.5201666639" lon="17.9633083194">
		<tag k="name" v="Storvikneset" />
		<tag k="natural" v="cape" />
		<tag k="ssr:stedsnr" v="200795" />
	</node>
	<node id="-755462" lat="69.6083694451" lon="17.6790166595">
		<tag k="fixme" v="consider seamark:type=rock or natural=shoal" />
		<tag k="name" v="Nøringskjæret" />
		<tag k="place" v="islet" />
		<tag k="ssr:stedsnr" v="200781" />
	</node>
	<node id="-754305" lat="69.3712944491" lon="18.4937527677">
		<tag k="name" v="Litjevika" />
		<tag k="natural" v="bay" />
		<tag k="ssr:stedsnr" v="293873" />
	</node>
	<node id="-755460" lat="69.6062916644" lon="17.8036999851">
		<tag k="alt_name" v="Kvitholmen" />
		<tag k="name" v="Kvitholman" />
		<tag k="place" v="islet" />
		<tag k="ssr:stedsnr" v="200777" />
	</node>
	<node id="-755456" lat="69.5760277795" lon="17.7124694495">
		<tag k="alt_name" v="Rennenesbukta" />
		<tag k="name" v="Rennebukta" />
		<tag k="natural" v="bay" />
		<tag k="ssr:stedsnr" v="200752" />
	</node>
	<node id="-755455" lat="69.572855553" lon="17.8320583334">
		<tag k="alt_name" v="Reselvikneset" />
		<tag k="name" v="Resselvikneset" />
		<tag k="natural" v="cape" />
		<tag k="ssr:stedsnr" v="200751" />
	</node>
	<node id="-755452" lat="69.5586638909" lon="17.9063277858">
		<tag k="name" v="Jekthamna" />
		<tag k="natural" v="bay" />
		<tag k="ssr:stedsnr" v="200834" />
	</node>
	<node id="-755451" lat="69.5556416637" lon="17.6691861046">
		<tag k="name" v="Oksestrand" />
		<tag k="natural" v="beach" />
		<tag k="place" v="locality" />
		<tag k="ssr:stedsnr" v="200830" />
	</node>
	<node id="-755450" lat="69.514608336" lon="17.9396833325">
		<tag k="alt_name" v="Gavlholmen" />
		<tag k="name" v="Gavlsholmen" />
		<tag k="place" v="islet" />
		<tag k="ssr:stedsnr" v="200819" />
	</node>
	<node id="-755446" lat="69.2956972239" lon="18.49638888">
		<tag k="name" v="Steinøra" />
		<tag k="natural" v="cape" />
		<tag k="ssr:stedsnr" v="200805" />
	</node>
	<node id="-755439" lat="69.59289444" lon="17.7918777817">
		<tag k="name" v="Kjølvegrunnen" />
		<tag k="natural" v="shoal" />
		<tag k="place" v="locality" />
		<tag k="ssr:stedsnr" v="200734" />
	</node>
	<node id="-755438" lat="69.5987583325" lon="17.8233388931">
		<tag k="name" v="Skipsvika" />
		<tag k="natural" v="bay" />
		<tag k="ssr:stedsnr" v="200735" />
	</node>
	<node id="-755436" lat="69.5837388906" lon="17.7081027723">
		<tag k="name" v="Renneneset" />
		<tag k="natural" v="cape" />
		<tag k="ssr:stedsnr" v="200728" />
	</node>
	<node id="-755435" lat="69.5910472211" lon="17.8151194483">
		<tag k="fixme" v="consider seamark:type=rock or natural=shoal" />
		<tag k="name" v="Svartskjæret" />
		<tag k="place" v="islet" />
		<tag k="ssr:stedsnr" v="200727" />
	</node>
	<node id="-755434" lat="69.3834944485" lon="18.4528277634">
		<tag k="alt_name" v="Skjerneset" />
		<tag k="name" v="Skjærneset" />
		<tag k="natural" v="cape" />
		<tag k="ssr:stedsnr" v="200719" />
	</node>
	<node id="-755433" lat="69.3709388889" lon="18.0715000071">
		<tag k="alt_name" v="Hestøy" />
		<tag k="name" v="Hestøya" />
		<tag k="place" v="island" />
		<tag k="ssr:stedsnr" v="200717" />
	</node>
	<node id="-755431" lat="69.3022166654" lon="17.8963166749">
		<tag k="name" v="Kvannåsbukta" />
		<tag k="natural" v="bay" />
		<tag k="ssr:stedsnr" v="200576" />
	</node>
	<node id="-755428" lat="69.4737694438" lon="18.0328722268">
		<tag k="name" v="Vardneset" />
		<tag k="natural" v="cape" />
		<tag k="ssr:stedsnr" v="200643" />
	</node>
	<node id="-755423" lat="69.1855944408" lon="17.9905222251">
		<tag k="name" v="Hesjevika" />
		<tag k="natural" v="bay" />
		<tag k="ssr:stedsnr" v="200492" />
	</node>
	<node id="-754980" lat="69.5398444416" lon="17.7921749979">
		<tag k="name" v="Stuvholla" />
		<tag k="natural" v="bay" />
		<tag k="ssr:stedsnr" v="49843" />
	</node>
	<node id="-755408" lat="69.3635611076" lon="18.3145611089">
		<tag k="name" v="Rossfjordstraumen" />
		<tag k="natural" v="strait" />
		<tag k="ssr:stedsnr" v="171944" />
	</node>
	<node id="-755394" lat="69.3672111124" lon="18.4980194466">
		<tag k="name" v="Klubbeneset" />
		<tag k="natural" v="cape" />
		<tag k="ssr:stedsnr" v="171865" />
	</node>
	<node id="-755389" lat="69.3850083299" lon="18.1260444463">
		<tag k="name" v="Molvika" />
		<tag k="natural" v="bay" />
		<tag k="ssr:stedsnr" v="171698" />
	</node>
	<node id="-755380" lat="69.2299944481" lon="18.0721222171">
		<tag k="name" v="Skavika" />
		<tag k="natural" v="bay" />
		<tag k="ssr:stedsnr" v="171469" />
	</node>
	<node id="-755375" lat="69.5404805579" lon="17.7624638913">
		<tag k="name" v="Verslet" />
		<tag k="natural" v="cape" />
		<tag k="ssr:stedsnr" v="170849" />
	</node>
	<node id="-755374" lat="69.5702527791" lon="17.8554777851">
		<tag k="name" v="Steinvika" />
		<tag k="natural" v="bay" />
		<tag k="ssr:stedsnr" v="170843" />
	</node>
	<node id="-755364" lat="69.2334694416" lon="17.8955305426">
		<tag k="name" v="Langneset" />
		<tag k="natural" v="cape" />
		<tag k="ssr:stedsnr" v="170699" />
	</node>
	<node id="-754573" lat="69.5456861081" lon="17.6659666539">
		<tag k="name" v="Husøysundet" />
		<tag k="natural" v="strait" />
		<tag k="ssr:stedsnr" v="382863" />
	</node>
	<node id="-754624" lat="69.5438749999" lon="17.921894454">
		<tag k="name" v="Slompen" />
		<tag k="natural" v="cape" />
		<tag k="ssr:stedsnr" v="412470" />
	</node>
	<node id="-755322" lat="69.5173944448" lon="17.984383343">
		<tag k="name" v="Skjørholkjeila" />
		<tag k="natural" v="bay" />
		<tag k="ssr:stedsnr" v="169597" />
	</node>
	<node id="-755319" lat="69.4397861136" lon="17.9733499949">
		<tag k="name" v="Sjåneset" />
		<tag k="natural" v="cape" />
		<tag k="ssr:stedsnr" v="169411" />
	</node>
	<node id="-755318" lat="69.4315194442" lon="18.0072194321">
		<tag k="name" v="Sirigamneset" />
		<tag k="natural" v="cape" />
		<tag k="ssr:stedsnr" v="169409" />
	</node>
	<node id="-754622" lat="69.5051805556" lon="17.9049083382">
		<tag k="name" v="Botteneset" />
		<tag k="natural" v="cape" />
		<tag k="ssr:stedsnr" v="412453" />
	</node>
	<node id="-755310" lat="69.4532555542" lon="17.8849638771">
		<tag k="name" v="Innergårdneset" />
		<tag k="natural" v="cape" />
		<tag k="ssr:stedsnr" v="169319" />
	</node>
	<node id="-754621" lat="69.2263444413" lon="17.9780583215">
		<tag k="name" v="Skjærvika" />
		<tag k="natural" v="bay" />
		<tag k="ssr:stedsnr" v="412328" />
	</node>
	<node id="-754962" lat="69.5824416676" lon="17.8298694487">
		<tag k="name" v="Giskebåan" />
		<tag k="place" v="locality" />
		<tag k="seamark:type" v="rock" />
		<tag k="ssr:stedsnr" v="48676" />
	</node>
	<node id="-755299" lat="69.5478194462" lon="17.6672277783">
		<tag k="fixme" v="consider seamark:type=rock or natural=shoal" />
		<tag k="name" v="Svartsteinan" />
		<tag k="place" v="islet" />
		<tag k="ssr:stedsnr" v="169170" />
	</node>
	<node id="-755298" lat="69.540147224" lon="17.6749416719">
		<tag k="name" v="Skredvika" />
		<tag k="natural" v="bay" />
		<tag k="ssr:stedsnr" v="169168" />
	</node>
	<node id="-754277" lat="69.4954055533" lon="18.0426722085">
		<tag k="fixme" v="consider seamark:type=rock or natural=shoal" />
		<tag k="name" v="Kvalen" />
		<tag k="place" v="islet" />
		<tag k="ssr:stedsnr" v="291661" />
	</node>
	<node id="-755292" lat="69.589780557" lon="17.6371527885">
		<tag k="name" v="Slumpekeila" />
		<tag k="natural" v="bay" />
		<tag k="ssr:stedsnr" v="169119" />
	</node>
	<node id="-755289" lat="69.5356388916" lon="17.7784388757">
		<tag k="name" v="Fjordneset" />
		<tag k="natural" v="cape" />
		<tag k="ssr:stedsnr" v="168287" />
	</node>
	<node id="-755288" lat="69.5842388868" lon="17.8649972062">
		<tag k="alt_name" v="Langskjæran" />
		<tag k="fixme" v="consider seamark:type=rock or natural=shoal" />
		<tag k="name" v="Langskjæret" />
		<tag k="place" v="islet" />
		<tag k="ssr:stedsnr" v="168124" />
	</node>
	<node id="-755286" lat="69.6173277814" lon="17.7351361061">
		<tag k="name" v="Tverrtaren" />
		<tag k="natural" v="shoal" />
		<tag k="place" v="locality" />
		<tag k="ssr:stedsnr" v="167553" />
	</node>
	<node id="-755282" lat="69.2261611069" lon="17.9754027774">
		<tag k="name" v="Finnsnesodden" />
		<tag k="natural" v="cape" />
		<tag k="ssr:stedsnr" v="170367" />
	</node>
	<node id="-755281" lat="69.5137388869" lon="17.9962638749">
		<tag k="name" v="Kvassteinvika" />
		<tag k="natural" v="bay" />
		<tag k="ssr:stedsnr" v="268556" />
	</node>
	<node id="-755280" lat="69.2396638879" lon="17.9797638888">
		<tag k="name" v="Reingjerdbukta" />
		<tag k="natural" v="bay" />
		<tag k="ssr:stedsnr" v="150997" />
	</node>
	<node id="-755278" lat="69.196405552" lon="17.9356305523">
		<tag k="name" v="Vestervågen" />
		<tag k="natural" v="bay" />
		<tag k="ssr:stedsnr" v="150956" />
	</node>
	<node id="-755277" lat="69.2479944474" lon="17.9619472133">
		<tag k="name" v="Lars Gregussteinen" />
		<tag k="natural" v="shoal" />
		<tag k="place" v="locality" />
		<tag k="ssr:stedsnr" v="150347" />
	</node>
	<node id="-755276" lat="69.3378666701" lon="17.9348138787">
		<tag k="name" v="Lanesbogen" />
		<tag k="natural" v="bay" />
		<tag k="ssr:stedsnr" v="150200" />
	</node>
	<node id="-755275" lat="69.3221472257" lon="17.9816527817">
		<tag k="name" v="Litjøyra" />
		<tag k="natural" v="shoal" />
		<tag k="place" v="locality" />
		<tag k="ssr:stedsnr" v="150179" />
	</node>
	<node id="-755274" lat="69.4800500036" lon="18.234241676">
		<tag k="name" v="Stornova" />
		<tag k="natural" v="cape" />
		<tag k="ssr:stedsnr" v="146687" />
	</node>
	<node id="-755273" lat="69.5022166707" lon="17.8928805603">
		<tag k="name" v="Mølnneset" />
		<tag k="natural" v="cape" />
		<tag k="ssr:stedsnr" v="146513" />
	</node>
	<node id="-755270" lat="69.3567055554" lon="18.0986249992">
		<tag k="name" v="Nordgrunnen" />
		<tag k="natural" v="shoal" />
		<tag k="place" v="locality" />
		<tag k="ssr:stedsnr" v="146490" />
	</node>
	<node id="-755268" lat="69.599663891" lon="17.827730558">
		<tag k="name" v="Sandkeila" />
		<tag k="natural" v="bay" />
		<tag k="ssr:stedsnr" v="146280" />
	</node>
	<node id="-755267" lat="69.582780553" lon="17.8781861134">
		<tag k="name" v="Plogtåa" />
		<tag k="natural" v="shoal" />
		<tag k="place" v="locality" />
		<tag k="ssr:stedsnr" v="146278" />
	</node>
	<node id="-755263" lat="69.3026694461" lon="17.9104222183">
		<tag k="name" v="Laneset" />
		<tag k="natural" v="cape" />
		<tag k="ssr:stedsnr" v="141228" />
	</node>
	<node id="-757001" lat="69.3756527761" lon="18.0775638924">
		<tag k="name" v="Hestøygrunnen" />
		<tag k="natural" v="shoal" />
		<tag k="place" v="locality" />
		<tag k="ssr:stedsnr" v="874526" />
	</node>
	<node id="-755251" lat="69.4209861099" lon="17.9460111129">
		<tag k="alt_name" v="Strømsneset" />
		<tag k="name" v="Straumsnes" />
		<tag k="natural" v="cape" />
		<tag k="ssr:stedsnr" v="140489" />
	</node>
	<node id="-755245" lat="69.561124998" lon="17.8001777824">
		<tag k="name" v="Kvalvika" />
		<tag k="natural" v="bay" />
		<tag k="ssr:stedsnr" v="139832" />
	</node>
	<node id="-755242" lat="69.5841777773" lon="17.5319610982">
		<tag k="alt_name" v="Fraktkeila" />
		<tag k="name" v="Fraktstøa" />
		<tag k="natural" v="bay" />
		<tag k="ssr:stedsnr" v="139749" />
	</node>
	<node id="-755239" lat="69.5881027785" lon="17.8504722217">
		<tag k="name" v="Tennholmen" />
		<tag k="place" v="islet" />
		<tag k="ssr:stedsnr" v="139721" />
	</node>
	<node id="-755236" lat="69.2179499995" lon="18.0738583411">
		<tag k="name" v="Holmen" />
		<tag k="natural" v="cape" />
		<tag k="ssr:stedsnr" v="139665" />
	</node>
	<node id="-755231" lat="69.3076277812" lon="17.9869694507">
		<tag k="name" v="Leiknesodden" />
		<tag k="natural" v="cape" />
		<tag k="ssr:stedsnr" v="139574" />
	</node>
	<node id="-755229" lat="69.4832833374" lon="18.2695833346">
		<tag k="alt_name" v="Olhaugsavikneset" />
		<tag k="name" v="Ol-Haugsavikneset" />
		<tag k="natural" v="cape" />
		<tag k="ssr:stedsnr" v="139639" />
	</node>
	<node id="-754266" lat="69.2297166623" lon="17.9732638931">
		<tag k="name" v="Søndre Harrevika" />
		<tag k="natural" v="bay" />
		<tag k="ssr:stedsnr" v="291392" />
	</node>
	<node id="-755220" lat="69.4861888924" lon="17.8960694374">
		<tag k="name" v="Lanesvika" />
		<tag k="natural" v="bay" />
		<tag k="ssr:stedsnr" v="139502" />
	</node>
	<node id="-754606" lat="69.5464638896" lon="17.6699555539">
		<tag k="name" v="Vedneset" />
		<tag k="natural" v="cape" />
		<tag k="ssr:stedsnr" v="412164" />
	</node>
	<node id="-755214" lat="69.2326805534" lon="17.878955545">
		<tag k="name" v="Forneset" />
		<tag k="natural" v="cape" />
		<tag k="ssr:stedsnr" v="139423" />
	</node>
	<node id="-755211" lat="69.4987583338" lon="17.913280563">
		<tag k="name" v="Nøkkelneset" />
		<tag k="natural" v="cape" />
		<tag k="ssr:stedsnr" v="139402" />
	</node>
	<node id="-755204" lat="69.3453638893" lon="17.9783722188">
		<tag k="name" v="Guribogen" />
		<tag k="natural" v="bay" />
		<tag k="ssr:stedsnr" v="268541" />
	</node>
	<node id="-755203" lat="69.4043638933" lon="18.0492860994">
		<tag k="name" v="Grunnvågbukta" />
		<tag k="natural" v="bay" />
		<tag k="ssr:stedsnr" v="268527" />
	</node>
	<node id="-755202" lat="69.5804499959" lon="17.8815055562">
		<tag k="fixme" v="consider seamark:type=rock or natural=shoal" />
		<tag k="name" v="Plogen" />
		<tag k="place" v="islet" />
		<tag k="ssr:stedsnr" v="113814" />
	</node>
	<node id="-755199" lat="69.4775777816" lon="18.3014666629">
		<tag k="name" v="Neset" />
		<tag k="natural" v="cape" />
		<tag k="ssr:stedsnr" v="111984" />
	</node>
	<node id="-755194" lat="69.4654611147" lon="18.2149638817">
		<tag k="name" v="Heimbørsanda" />
		<tag k="natural" v="beach" />
		<tag k="place" v="locality" />
		<tag k="ssr:stedsnr" v="111880" />
	</node>
	<node id="-755187" lat="69.3915333359" lon="18.3581833196">
		<tag k="name" v="Skjellørkroken" />
		<tag k="natural" v="bay" />
		<tag k="ssr:stedsnr" v="111786" />
	</node>
	<node id="-755186" lat="69.4594305528" lon="18.1412638902">
		<tag k="fixme" v="consider seamark:type=rock or natural=shoal" />
		<tag k="name" v="Stake" />
		<tag k="place" v="islet" />
		<tag k="ssr:stedsnr" v="111653" />
	</node>
	<node id="-755181" lat="69.2185972206" lon="18.0764638809">
		<tag k="name" v="Holla" />
		<tag k="natural" v="bay" />
		<tag k="ssr:stedsnr" v="111431" />
	</node>
	<node id="-755169" lat="69.5574527762" lon="17.7938194317">
		<tag k="name" v="Opplandshaugneset" />
		<tag k="natural" v="cape" />
		<tag k="ssr:stedsnr" v="109804" />
	</node>
	<node id="-755167" lat="69.5794777812" lon="17.8391805425">
		<tag k="name" v="Brurbenkan" />
		<tag k="natural" v="shoal" />
		<tag k="place" v="locality" />
		<tag k="ssr:stedsnr" v="109788" />
	</node>
	<node id="-755163" lat="69.5820694421" lon="17.8582777703">
		<tag k="name" v="Tjuvholla" />
		<tag k="natural" v="bay" />
		<tag k="ssr:stedsnr" v="109667" />
	</node>
	<node id="-755162" lat="69.5831999952" lon="17.8363194489">
		<tag k="name" v="Rundgiskeholmen" />
		<tag k="place" v="islet" />
		<tag k="ssr:stedsnr" v="109663" />
	</node>
	<node id="-757208" lat="69.4733888889" lon="18.3151138784">
		<tag k="name" v="Revet" />
		<tag k="place" v="locality" />
		<tag k="ssr:stedsnr" v="960985" />
	</node>
	<node id="-755157" lat="69.432908335" lon="18.0739444315">
		<tag k="name" v="Hermannsvika" />
		<tag k="natural" v="bay" />
		<tag k="ssr:stedsnr" v="109624" />
	</node>
	<node id="-757199" lat="69.3069888924" lon="18.4983583315">
		<tag k="name" v="Brennevinshamna" />
		<tag k="natural" v="bay" />
		<tag k="ssr:stedsnr" v="960917" />
	</node>
	<node id="-757198" lat="69.4615194402" lon="18.198041666">
		<tag k="name" v="Sørvikholmen" />
		<tag k="place" v="islet" />
		<tag k="ssr:stedsnr" v="960877" />
	</node>
	<node id="-757190" lat="69.467224998" lon="18.159555552">
		<tag k="name" v="Kjerringvika" />
		<tag k="natural" v="bay" />
		<tag k="ssr:stedsnr" v="960674" />
	</node>
	<node id="-757189" lat="69.3915805532" lon="18.169861094">
		<tag k="name" v="Leira" />
		<tag k="natural" v="shoal" />
		<tag k="place" v="locality" />
		<tag k="ssr:stedsnr" v="960660" />
	</node>
	<node id="-755138" lat="69.2312638911" lon="18.0106138946">
		<tag k="fixme" v="consider seamark:type=rock or natural=shoal" />
		<tag k="name" v="Kobbeskjæret" />
		<tag k="place" v="islet" />
		<tag k="ssr:stedsnr" v="109348" />
	</node>
	<node id="-757179" lat="69.2138666643" lon="18.0654750001">
		<tag k="name" v="Ungsmalholla" />
		<tag k="natural" v="bay" />
		<tag k="ssr:stedsnr" v="960533" />
	</node>
	<node id="-755128" lat="69.571741667" lon="17.5575055499">
		<tag k="fixme" v="consider seamark:type=rock or natural=shoal" />
		<tag k="name" v="Storsteinen" />
		<tag k="place" v="islet" />
		<tag k="ssr:stedsnr" v="109170" />
	</node>
	<node id="-755127" lat="69.5778222204" lon="17.5420222094">
		<tag k="name" v="Vedbergbukta" />
		<tag k="natural" v="bay" />
		<tag k="ssr:stedsnr" v="109160" />
	</node>
	<node id="-757174" lat="69.5573222216" lon="17.7420055524">
		<tag k="fixme" v="consider seamark:type=rock or natural=shoal" />
		<tag k="name" v="Langflua" />
		<tag k="place" v="islet" />
		<tag k="ssr:stedsnr" v="959820" />
	</node>
	<node id="-755124" lat="69.5925749993" lon="17.647594447">
		<tag k="name" v="Vårkrakkholla" />
		<tag k="natural" v="bay" />
		<tag k="ssr:stedsnr" v="109141" />
	</node>
	<node id="-754590" lat="69.2746638921" lon="17.9384194477">
		<tag k="name" v="Jektvikodden" />
		<tag k="natural" v="cape" />
		<tag k="ssr:stedsnr" v="393766" />
	</node>
	<node id="-757170" lat="69.1954500001" lon="17.9544666582">
		<tag k="name" v="Litjevika" />
		<tag k="natural" v="bay" />
		<tag k="ssr:stedsnr" v="959321" />
	</node>
	<node id="-757169" lat="69.314438887" lon="17.8764972186">
		<tag k="name" v="Bogelvneset" />
		<tag k="natural" v="cape" />
		<tag k="ssr:stedsnr" v="959110" />
	</node>
	<node id="-755120" lat="69.2845972241" lon="17.9085166642">
		<tag k="name" v="Sørvågen" />
		<tag k="natural" v="bay" />
		<tag k="ssr:stedsnr" v="109044" />
	</node>
	<node id="-755119" lat="69.5796222236" lon="17.8684888784">
		<tag k="name" v="Hysholla" />
		<tag k="natural" v="bay" />
		<tag k="ssr:stedsnr" v="109478" />
	</node>
	<node id="-755118" lat="69.573108333" lon="17.8918472312">
		<tag k="name" v="Vedvika" />
		<tag k="natural" v="bay" />
		<tag k="ssr:stedsnr" v="109476" />
	</node>
	<node id="-755117" lat="69.5120472235" lon="18.0036277741">
		<tag k="name" v="Kvassteinneset" />
		<tag k="natural" v="cape" />
		<tag k="ssr:stedsnr" v="109470" />
	</node>
	<node id="-755115" lat="69.3482333362" lon="18.0170944441">
		<tag k="name" v="Saubogen" />
		<tag k="natural" v="bay" />
		<tag k="ssr:stedsnr" v="108960" />
	</node>
	<node id="-757162" lat="69.5683027825" lon="17.8423499879">
		<tag k="fixme" v="consider seamark:type=rock or natural=shoal" />
		<tag k="name" v="Daumannen" />
		<tag k="place" v="islet" />
		<tag k="ssr:stedsnr" v="958839" />
	</node>
	<node id="-754588" lat="69.319902778" lon="18.0465944338">
		<tag k="name" v="Bondjordbukta" />
		<tag k="natural" v="bay" />
		<tag k="ssr:stedsnr" v="393703" />
	</node>
	<node id="-755106" lat="69.5538000013" lon="17.7490916527">
		<tag k="name" v="Grashollneset" />
		<tag k="natural" v="cape" />
		<tag k="ssr:stedsnr" v="108827" />
	</node>
	<node id="-755099" lat="69.4570333355" lon="17.8224305594">
		<tag k="name" v="Langneset" />
		<tag k="natural" v="cape" />
		<tag k="ssr:stedsnr" v="108531" />
	</node>
	<node id="-755092" lat="69.4496027774" lon="17.8443472317">
		<tag k="name" v="Storsteinneset" />
		<tag k="natural" v="cape" />
		<tag k="ssr:stedsnr" v="108201" />
	</node>
	<node id="-755091" lat="69.4486027811" lon="17.8600027704">
		<tag k="name" v="Storvikneset" />
		<tag k="natural" v="cape" />
		<tag k="ssr:stedsnr" v="108199" />
	</node>
	<node id="-757138" lat="69.4973277738" lon="17.9086555448">
		<tag k="name" v="Nøkkelnesvika" />
		<tag k="natural" v="bay" />
		<tag k="ssr:stedsnr" v="958516" />
	</node>
	<node id="-755087" lat="69.5967111082" lon="17.509202766">
		<tag k="name" v="Tjuvanderskeila" />
		<tag k="natural" v="bay" />
		<tag k="ssr:stedsnr" v="109018" />
	</node>
	<node id="-755086" lat="69.5986194492" lon="17.5080916575">
		<tag k="name" v="Inste Skjeggesteinen" />
		<tag k="natural" v="cape" />
		<tag k="ssr:stedsnr" v="109016" />
	</node>
	<node id="-757133" lat="69.4157361121" lon="17.9672416622">
		<tag k="fixme" v="consider seamark:type=rock or natural=shoal" />
		<tag k="name" v="Hemmingskjæret" />
		<tag k="place" v="islet" />
		<tag k="ssr:stedsnr" v="958381" />
	</node>
	<node id="-755083" lat="69.1958166716" lon="17.9522944343">
		<tag k="alt_name" v="Mølnevågen" />
		<tag k="name" v="Mølnvågan" />
		<tag k="natural" v="bay" />
		<tag k="ssr:stedsnr" v="90950" />
	</node>
	<node id="-755082" lat="69.2304166635" lon="18.0699416607">
		<tag k="name" v="Skavikneset" />
		<tag k="natural" v="cape" />
		<tag k="ssr:stedsnr" v="90933" />
	</node>
	<node id="-755081" lat="69.1961861096" lon="18.0056333356">
		<tag k="name" v="Klauvskjærodden" />
		<tag k="natural" v="cape" />
		<tag k="ssr:stedsnr" v="90929" />
	</node>
	<node id="-755080" lat="69.2601000011" lon="17.9919416656">
		<tag k="alt_name" v="Nesegrunnen" />
		<tag k="name" v="Nessegrunnen" />
		<tag k="natural" v="shoal" />
		<tag k="place" v="locality" />
		<tag k="ssr:stedsnr" v="90907" />
	</node>
	<node id="-755078" lat="69.3353111094" lon="18.0180305566">
		<tag k="name" v="Storholmen" />
		<tag k="place" v="islet" />
		<tag k="ssr:stedsnr" v="90707" />
	</node>
	<node id="-757125" lat="69.5864305533" lon="17.5250361206">
		<tag k="name" v="Migdalskeila" />
		<tag k="natural" v="bay" />
		<tag k="ssr:stedsnr" v="958229" />
	</node>
	<node id="-755076" lat="69.2053611151" lon="17.993230546">
		<tag k="name" v="Storvikgrunnen" />
		<tag k="natural" v="shoal" />
		<tag k="place" v="locality" />
		<tag k="ssr:stedsnr" v="90476" />
	</node>
	<node id="-755075" lat="69.2272833346" lon="17.9906111017">
		<tag k="alt_name" v="Innerneset" />
		<tag k="name" v="Innerodden" />
		<tag k="natural" v="cape" />
		<tag k="ssr:stedsnr" v="90355" />
	</node>
	<node id="-757122" lat="69.5572138915" lon="17.5932944379">
		<tag k="name" v="Sandvika" />
		<tag k="natural" v="bay" />
		<tag k="ssr:stedsnr" v="958201" />
	</node>
	<node id="-757121" lat="69.5711972233" lon="17.5621694477">
		<tag k="name" v="Breivika" />
		<tag k="natural" v="bay" />
		<tag k="ssr:stedsnr" v="958180" />
	</node>
	<node id="-757120" lat="69.5020222249" lon="17.6439944401">
		<tag k="name" v="Arnakkvika" />
		<tag k="natural" v="bay" />
		<tag k="ssr:stedsnr" v="958171" />
	</node>
	<node id="-755071" lat="69.597091669" lon="17.8136777748">
		<tag k="alt_name" v="Skardbergsvika" />
		<tag k="name" v="Skarvbergsvika" />
		<tag k="natural" v="bay" />
		<tag k="ssr:stedsnr" v="86325" />
	</node>
	<node id="-755070" lat="69.6018972189" lon="17.7802444436">
		<tag k="fixme" v="consider seamark:type=rock or natural=shoal" />
		<tag k="name" v="Litje Kuungen" />
		<tag k="place" v="islet" />
		<tag k="ssr:stedsnr" v="86319" />
	</node>
	<node id="-755069" lat="69.4277000015" lon="18.1092888743">
		<tag k="name" v="Molnesskallen" />
		<tag k="natural" v="shoal" />
		<tag k="place" v="locality" />
		<tag k="ssr:stedsnr" v="85673" />
	</node>
	<node id="-755068" lat="69.5440638856" lon="17.7946999966">
		<tag k="name" v="Gamvika" />
		<tag k="natural" v="bay" />
		<tag k="ssr:stedsnr" v="79849" />
	</node>
	<node id="-755064" lat="69.5309666661" lon="17.9241638767">
		<tag k="name" v="Kristenskjæret" />
		<tag k="natural" v="shoal" />
		<tag k="place" v="locality" />
		<tag k="ssr:stedsnr" v="79792" />
	</node>
	<node id="-757111" lat="69.59255278" lon="17.5136416744">
		<tag k="name" v="Muren" />
		<tag k="natural" v="bay" />
		<tag k="ssr:stedsnr" v="958016" />
	</node>
	<node id="-757110" lat="69.6094388851" lon="17.8127333182">
		<tag k="name" v="Skallen" />
		<tag k="natural" v="shoal" />
		<tag k="place" v="locality" />
		<tag k="ssr:stedsnr" v="956554" />
	</node>
	<node id="-757109" lat="69.2441944416" lon="17.9684388828">
		<tag k="name" v="Finnsnesrenna" />
		<tag k="place" v="locality" />
		<tag k="ssr:stedsnr" v="939973" />
	</node>
	<node id="-757108" lat="69.2521638865" lon="17.9956083231">
		<tag k="fixme" v="consider seamark:type=rock or natural=shoal" />
		<tag k="name" v="Gammelstøskjæret" />
		<tag k="place" v="islet" />
		<tag k="ssr:stedsnr" v="939906" />
	</node>
	<node id="-757107" lat="69.3414999976" lon="17.9963999919">
		<tag k="name" v="Eggøysundet" />
		<tag k="natural" v="strait" />
		<tag k="ssr:stedsnr" v="939735" />
	</node>
	<node id="-757106" lat="69.2476250042" lon="17.9594666709">
		<tag k="name" v="Galtevika" />
		<tag k="natural" v="bay" />
		<tag k="ssr:stedsnr" v="939352" />
	</node>
	<node id="-757102" lat="69.446747219" lon="18.0690527833">
		<tag k="name" v="Årnesgrunnen" />
		<tag k="natural" v="shoal" />
		<tag k="place" v="locality" />
		<tag k="ssr:stedsnr" v="935717" />
	</node>
	<node id="-757100" lat="69.4735277731" lon="17.8906416711">
		<tag k="name" v="Oterneset" />
		<tag k="natural" v="cape" />
		<tag k="ssr:stedsnr" v="935506" />
	</node>
	<node id="-757099" lat="69.5729861136" lon="17.8273166678">
		<tag k="name" v="Resselvika" />
		<tag k="natural" v="bay" />
		<tag k="ssr:stedsnr" v="935421" />
	</node>
	<node id="-757098" lat="69.5323305558" lon="17.6195583253">
		<tag k="name" v="Vindhammarneset" />
		<tag k="natural" v="cape" />
		<tag k="ssr:stedsnr" v="929898" />
	</node>
	<node id="-757092" lat="69.6347000018" lon="17.7044833315">
		<tag k="name" v="Andersbåen" />
		<tag k="natural" v="shoal" />
		<tag k="place" v="locality" />
		<tag k="ssr:stedsnr" v="929787" />
	</node>
	<node id="-757091" lat="69.6209999986" lon="17.6262416683">
		<tag k="name" v="Hellefallet" />
		<tag k="natural" v="shoal" />
		<tag k="place" v="locality" />
		<tag k="ssr:stedsnr" v="929779" />
	</node>
	<node id="-756472" lat="69.4646027807" lon="18.2034722291">
		<tag k="name" v="Kvitberget" />
		<tag k="natural" v="cape" />
		<tag k="ssr:stedsnr" v="692691" />
	</node>
	<node id="-757088" lat="69.5965083302" lon="17.8319666736">
		<tag k="loc_name:se" v="Áhkigat" />
		<tag k="name" v="Hekkinga" />
		<tag k="name:no" v="Hekkinga" />
		<tag k="place" v="island" />
		<tag k="ssr:stedsnr" v="929760" />
	</node>
	<node id="-755039" lat="69.3774611135" lon="18.093886121">
		<tag k="alt_name" v="Slettneset" />
		<tag k="name" v="Slettnes" />
		<tag k="natural" v="cape" />
		<tag k="ssr:stedsnr" v="79640" />
	</node>
	<node id="-757085" lat="69.432883332" lon="18.1606722055">
		<tag k="name" v="Durmålsvika" />
		<tag k="natural" v="bay" />
		<tag k="ssr:stedsnr" v="929658" />
	</node>
	<node id="-757083" lat="69.4170861095" lon="18.4272999887">
		<tag k="bay" v="fjord" />
		<tag k="loc_name:se" v="Málatvuotna" />
		<tag k="name" v="Malangen" />
		<tag k="name:no" v="Malangen" />
		<tag k="natural" v="bay" />
		<tag k="ssr:stedsnr" v="929638" />
	</node>
	<node id="-755034" lat="69.4335972206" lon="18.3717249864">
		<tag k="fixme" v="consider seamark:type=rock or natural=shoal" />
		<tag k="name" v="Storskjæret" />
		<tag k="place" v="islet" />
		<tag k="ssr:stedsnr" v="79626" />
	</node>
	<node id="-757078" lat="69.3126555547" lon="17.9062083222">
		<tag k="alt_name" v="Tennholmen" />
		<tag k="name" v="Eggholmen" />
		<tag k="place" v="islet" />
		<tag k="ssr:stedsnr" v="929564" />
	</node>
	<node id="-755025" lat="69.4073749979" lon="17.9857777762">
		<tag k="name" v="Klubbholmen" />
		<tag k="place" v="islet" />
		<tag k="ssr:stedsnr" v="79483" />
	</node>
	<node id="-757069" lat="69.4892027754" lon="17.6671777617">
		<tag k="bay" v="fjord" />
		<tag k="name" v="Ørnfjorden" />
		<tag k="natural" v="bay" />
		<tag k="ssr:stedsnr" v="929459" />
	</node>
	<node id="-757067" lat="69.5082555591" lon="18.011586121">
		<tag k="name" v="Trettevika" />
		<tag k="natural" v="bay" />
		<tag k="ssr:stedsnr" v="929439" />
	</node>
	<node id="-757065" lat="69.238224999" lon="17.872022212">
		<tag k="name" v="Islandsbotn" />
		<tag k="natural" v="bay" />
		<tag k="ssr:stedsnr" v="929397" />
	</node>
	<node id="-755013" lat="69.4771361106" lon="18.2321499913">
		<tag k="name" v="Storiskråa" />
		<tag k="natural" v="bay" />
		<tag k="ssr:stedsnr" v="50995" />
	</node>
	<node id="-757059" lat="69.3909194416" lon="18.3615722175">
		<tag k="bay" v="fjord" />
		<tag k="name" v="Rossfjorden" />
		<tag k="natural" v="bay" />
		<tag k="ssr:stedsnr" v="928651" />
	</node>
	<node id="-755010" lat="69.4823944467" lon="18.2743027767">
		<tag k="name" v="Ol-Hågsavika" />
		<tag k="natural" v="bay" />
		<tag k="ssr:stedsnr" v="50979" />
	</node>
	<node id="-754571" lat="69.5652833291" lon="17.582941664">
		<tag k="alt_name" v="Melneset, yt" />
		<tag k="name" v="Ytre Melneset" />
		<tag k="natural" v="cape" />
		<tag k="ssr:stedsnr" v="382848" />
	</node>
	<node id="-755003" lat="69.3782861099" lon="18.4784027723">
		<tag k="name" v="Molneset" />
		<tag k="natural" v="cape" />
		<tag k="ssr:stedsnr" v="50843" />
	</node>
	<node id="-757050" lat="69.1998666679" lon="17.9636000061">
		<tag k="fixme" v="consider seamark:type=rock or natural=shoal" />
		<tag k="name" v="Holteskjæret" />
		<tag k="place" v="islet" />
		<tag k="ssr:stedsnr" v="928455" />
	</node>
	<node id="-755000" lat="69.3295361155" lon="18.4894472077">
		<tag k="name" v="Sandneshamna" />
		<tag k="natural" v="bay" />
		<tag k="ssr:stedsnr" v="50780" />
	</node>
	<node id="-757047" lat="69.1777722221" lon="17.9825916634">
		<tag k="name" v="Reipnesgrunnen" />
		<tag k="natural" v="shoal" />
		<tag k="place" v="locality" />
		<tag k="ssr:stedsnr" v="928428" />
	</node>
	<node id="-754992" lat="69.4371166681" lon="18.1337861106">
		<tag k="bay" v="fjord" />
		<tag k="name" v="Lenvikfjorden" />
		<tag k="natural" v="bay" />
		<tag k="ssr:stedsnr" v="50628" />
	</node>
	<node id="-757039" lat="69.5258861103" lon="17.9784972291">
		<tag k="name" v="Skallen" />
		<tag k="natural" v="shoal" />
		<tag k="place" v="locality" />
		<tag k="ssr:stedsnr" v="929810" />
	</node>
	<node id="-757038" lat="69.4459000033" lon="18.3698638942">
		<tag k="name" v="Krestenkravika" />
		<tag k="natural" v="bay" />
		<tag k="ssr:stedsnr" v="900858" />
	</node>
	<node id="-757036" lat="69.4827611155" lon="18.2382305554">
		<tag k="fixme" v="consider seamark:type=rock or natural=shoal" />
		<tag k="name" v="Longlevra" />
		<tag k="place" v="islet" />
		<tag k="ssr:stedsnr" v="899995" />
	</node>
	<node id="-754985" lat="69.2304388925" lon="18.0729750004">
		<tag k="name" v="Mørkeskavika" />
		<tag k="natural" v="bay" />
		<tag k="ssr:stedsnr" v="50442" />
	</node>
	<node id="-757032" lat="69.4732361117" lon="18.2323972136">
		<tag k="name" v="Storpallen" />
		<tag k="natural" v="bay" />
		<tag k="ssr:stedsnr" v="899973" />
	</node>
	<node id="-757029" lat="69.3824444457" lon="18.3419277634">
		<tag k="name" v="Seljeneset" />
		<tag k="natural" v="cape" />
		<tag k="ssr:stedsnr" v="899968" />
	</node>
	<node id="-757028" lat="69.3837833312" lon="18.3461944366">
		<tag k="name" v="Årneset" />
		<tag k="natural" v="cape" />
		<tag k="ssr:stedsnr" v="899964" />
	</node>
	<node id="-754978" lat="69.5458416706" lon="17.7547694464">
		<tag k="name" v="Innerneset" />
		<tag k="natural" v="cape" />
		<tag k="ssr:stedsnr" v="49827" />
	</node>
	<node id="-757022" lat="69.4618222238" lon="18.1427083342">
		<tag k="name" v="Ramnorvika" />
		<tag k="natural" v="bay" />
		<tag k="ssr:stedsnr" v="899693" />
	</node>
	<node id="-757020" lat="69.3521638903" lon="18.1022611096">
		<tag k="name" v="Lyktholmen" />
		<tag k="place" v="islet" />
		<tag k="ssr:stedsnr" v="899657" />
	</node>
	<node id="-757018" lat="69.2089472194" lon="18.0669722233">
		<tag k="name" v="Mellavika" />
		<tag k="natural" v="bay" />
		<tag k="ssr:stedsnr" v="899556" />
	</node>
	<node id="-754969" lat="69.3383388882" lon="17.955111098">
		<tag k="name" v="Laneset" />
		<tag k="natural" v="cape" />
		<tag k="ssr:stedsnr" v="48961" />
	</node>
	<node id="-757012" lat="69.2628666655" lon="17.9974666678">
		<tag k="name" v="Neset" />
		<tag k="natural" v="cape" />
		<tag k="ssr:stedsnr" v="879828" />
	</node>
	<node id="-757011" lat="69.2752833344" lon="17.9305194496">
		<tag k="name" v="Molvika" />
		<tag k="natural" v="bay" />
		<tag k="ssr:stedsnr" v="879765" />
	</node>
	<node id="-757010" lat="69.2410472213" lon="17.9493083334">
		<tag k="name" v="Silsandbukta" />
		<tag k="natural" v="bay" />
		<tag k="ssr:stedsnr" v="879327" />
	</node>
	<node id="-757009" lat="69.2004527741" lon="17.9342333251">
		<tag k="fixme" v="multiple name tags, choose one and add the other to alt_name" />
		<tag k="name" v="Gillarneset;Monsneset" />
		<tag k="natural" v="cape" />
		<tag k="ssr:stedsnr" v="879236" />
	</node>
	<node id="-757007" lat="69.38371389" lon="18.4539944389">
		<tag k="fixme" v="consider seamark:type=rock or natural=shoal" />
		<tag k="name" v="Jordskjæret" />
		<tag k="place" v="islet" />
		<tag k="ssr:stedsnr" v="875765" />
	</node>
	<node id="-757005" lat="69.4599277785" lon="18.1045916706">
		<tag k="name" v="Egga" />
		<tag k="place" v="locality" />
		<tag k="ssr:stedsnr" v="874721" />
	</node>
	<node id="-757004" lat="69.4626444484" lon="18.1442361088">
		<tag k="name" v="Ramnorneset" />
		<tag k="natural" v="cape" />
		<tag k="ssr:stedsnr" v="874714" />
	</node>
	<node id="-757003" lat="69.4170972207" lon="17.9933805486">
		<tag k="alt_name" v="Storlaneset" />
		<tag k="name" v="Stor-Laneset" />
		<tag k="natural" v="cape" />
		<tag k="ssr:stedsnr" v="874703" />
	</node>
	<node id="-757002" lat="69.3982138907" lon="18.1555583294">
		<tag k="name" v="Kårvikneset" />
		<tag k="natural" v="cape" />
		<tag k="ssr:stedsnr" v="874529" />
	</node>
	<node id="-754903" lat="69.2479333319" lon="17.9926444286">
		<tag k="name" v="Skipvika" />
		<tag k="natural" v="bay" />
		<tag k="ssr:stedsnr" v="29341" />
	</node>
	<node id="-756999" lat="69.5743472201" lon="17.8900861022">
		<tag k="alt_name" v="Vedavikneset" />
		<tag k="name" v="Vedvikneset" />
		<tag k="natural" v="cape" />
		<tag k="ssr:stedsnr" v="874424" />
	</node>
	<node id="-756998" lat="69.6012777755" lon="17.8393694327">
		<tag k="name" v="Fyrbåen" />
		<tag k="natural" v="shoal" />
		<tag k="place" v="locality" />
		<tag k="ssr:stedsnr" v="874300" />
	</node>
	<node id="-754561" lat="69.6156666653" lon="17.6631444397">
		<tag k="name" v="Skårisbåen" />
		<tag k="natural" v="shoal" />
		<tag k="place" v="locality" />
		<tag k="ssr:stedsnr" v="382782" />
	</node>
	<node id="-756996" lat="69.5422694423" lon="17.7591083204">
		<tag k="alt_name" v="Værselbukta" />
		<tag k="name" v="Verselbukta" />
		<tag k="natural" v="bay" />
		<tag k="ssr:stedsnr" v="868826" />
	</node>
	<node id="-756994" lat="69.5352555545" lon="17.792608318">
		<tag k="name" v="Kubergneset" />
		<tag k="natural" v="cape" />
		<tag k="ssr:stedsnr" v="868784" />
	</node>
	<node id="-756992" lat="69.3155861126" lon="18.0318972306">
		<tag k="name" v="Jakkarneset" />
		<tag k="natural" v="cape" />
		<tag k="ssr:stedsnr" v="868744" />
	</node>
	<node id="-756988" lat="69.5939749968" lon="17.8541472185">
		<tag k="name" v="Skjørvikgrunnen" />
		<tag k="natural" v="shoal" />
		<tag k="place" v="locality" />
		<tag k="ssr:stedsnr" v="868726" />
	</node>
	<node id="-754938" lat="69.2332694468" lon="17.9079305616">
		<tag k="fixme" v="consider seamark:type=rock or natural=shoal" />
		<tag k="name" v="Holmen" />
		<tag k="place" v="islet" />
		<tag k="ssr:stedsnr" v="48342" />
	</node>
	<node id="-754559" lat="69.6404555592" lon="17.6751055447">
		<tag k="name" v="Vengsøygrunnen" />
		<tag k="natural" v="shoal" />
		<tag k="place" v="locality" />
		<tag k="ssr:stedsnr" v="382769" />
	</node>
	<node id="-756984" lat="69.3374999979" lon="18.0083333167">
		<tag k="name" v="Eggøya" />
		<tag k="place" v="island" />
		<tag k="ssr:stedsnr" v="868711" />
	</node>
	<node id="-754900" lat="69.4871638918" lon="17.8820333382">
		<tag k="name" v="Lanesgrunnen" />
		<tag k="natural" v="shoal" />
		<tag k="place" v="locality" />
		<tag k="ssr:stedsnr" v="25957" />
	</node>
	<node id="-754933" lat="69.4609055533" lon="17.8205722305">
		<tag k="name" v="Elveneset" />
		<tag k="natural" v="cape" />
		<tag k="ssr:stedsnr" v="48314" />
	</node>
	<node id="-754932" lat="69.4668250001" lon="17.8958833292">
		<tag k="name" v="Steinneset" />
		<tag k="natural" v="cape" />
		<tag k="ssr:stedsnr" v="48301" />
	</node>
	<node id="-754558" lat="69.3409999984" lon="18.5117805574">
		<tag k="bay" v="fjord" />
		<tag k="name" v="Målselvfjorden" />
		<tag k="natural" v="bay" />
		<tag k="ssr:stedsnr" v="382757" />
	</node>
	<node id="-756978" lat="69.3896972256" lon="18.0639888873">
		<tag k="alt_name" v="Hannes;Hanneset" />
		<tag k="name" v="Hanes" />
		<tag k="natural" v="cape" />
		<tag k="ssr:stedsnr" v="868651" />
	</node>
	<node id="-754928" lat="69.4882805543" lon="17.6579249901">
		<tag k="name" v="Kvannholla" />
		<tag k="natural" v="bay" />
		<tag k="ssr:stedsnr" v="48203" />
	</node>
	<node id="-756974" lat="69.4756555555" lon="18.3182194382">
		<tag k="name" v="Tennskjærholmen" />
		<tag k="place" v="islet" />
		<tag k="ssr:stedsnr" v="868597" />
	</node>
	<node id="-754925" lat="69.5119444426" lon="17.6277500002">
		<tag k="name" v="Gardtofta" />
		<tag k="natural" v="cape" />
		<tag k="ssr:stedsnr" v="48188" />
	</node>
	<node id="-754924" lat="69.5548972251" lon="17.6001111029">
		<tag k="name" v="Indre Melholla" />
		<tag k="natural" v="bay" />
		<tag k="ssr:stedsnr" v="48158" />
	</node>
	<node id="-756971" lat="69.4574277768" lon="17.8306222146">
		<tag k="name" v="Kjosen" />
		<tag k="natural" v="bay" />
		<tag k="ssr:stedsnr" v="868485" />
	</node>
	<node id="-754922" lat="69.5976444435" lon="17.6879749998">
		<tag k="name" v="Nøringsneset" />
		<tag k="natural" v="bay" />
		<tag k="ssr:stedsnr" v="48130" />
	</node>
	<node id="-754921" lat="69.5461083334" lon="17.6533222195">
		<tag k="fixme" v="consider seamark:type=rock or natural=shoal" />
		<tag k="name" v="Skarvesteinen" />
		<tag k="place" v="islet" />
		<tag k="ssr:stedsnr" v="48113" />
	</node>
	<node id="-754920" lat="69.5491388871" lon="17.6520500096">
		<tag k="name" v="Kjerringbåen" />
		<tag k="place" v="locality" />
		<tag k="seamark:type" v="rock" />
		<tag k="ssr:stedsnr" v="48112" />
	</node>
	<node id="-754556" lat="69.5730194405" lon="17.8192388899">
		<tag k="name" v="Astrineset" />
		<tag k="natural" v="cape" />
		<tag k="ssr:stedsnr" v="382751" />
	</node>
	<node id="-756963" lat="69.2069222188" lon="17.9214722067">
		<tag k="name" v="Vassjordbukta" />
		<tag k="natural" v="bay" />
		<tag k="ssr:stedsnr" v="868374" />
	</node>
	<node id="-756962" lat="69.2756138892" lon="17.9228833257">
		<tag k="name" v="Klubben" />
		<tag k="natural" v="cape" />
		<tag k="ssr:stedsnr" v="868033" />
	</node>
	<node id="-754913" lat="69.4702944478" lon="17.856347218">
		<tag k="name" v="Litjekrakneset" />
		<tag k="natural" v="cape" />
		<tag k="ssr:stedsnr" v="47501" />
	</node>
	<node id="-754213" lat="69.4807944405" lon="18.2864277745">
		<tag k="name" v="Sennvika" />
		<tag k="natural" v="bay" />
		<tag k="ssr:stedsnr" v="269778" />
	</node>
	<node id="-754907" lat="69.5474249971" lon="17.7552916512">
		<tag k="alt_name" v="Gårdsneset" />
		<tag k="name" v="Selvågneset" />
		<tag k="natural" v="cape" />
		<tag k="ssr:stedsnr" v="46294" />
	</node>
	<node id="-754906" lat="69.5463555586" lon="17.7562833221">
		<tag k="alt_name" v="Selvåg" />
		<tag k="name" v="Selvågen" />
		<tag k="natural" v="bay" />
		<tag k="ssr:stedsnr" v="46292" />
	</node>
	<node id="-754905" lat="69.2313250011" lon="18.0047611075">
		<tag k="name" v="Olderhamna" />
		<tag k="natural" v="bay" />
		<tag k="ssr:stedsnr" v="29938" />
	</node>
	<node id="-754904" lat="69.27980833" lon="17.9599305601">
		<tag k="name" v="Finnjordgrunnan" />
		<tag k="natural" v="shoal" />
		<tag k="place" v="locality" />
		<tag k="ssr:stedsnr" v="29785" />
	</node>
	<node id="-756951" lat="69.372322223" lon="18.3221749986">
		<tag k="name" v="Einarneset" />
		<tag k="natural" v="cape" />
		<tag k="ssr:stedsnr" v="839968" />
	</node>
	<node id="-754902" lat="69.4672277786" lon="18.3436277809">
		<tag k="alt_name" v="Ytre Jøviknes" />
		<tag k="name" v="Ytre Jøvikneset" />
		<tag k="natural" v="cape" />
		<tag k="ssr:stedsnr" v="26717" />
	</node>
	<node id="-756949" lat="69.3796666683" lon="18.3428305551">
		<tag k="name" v="Steinhollet" />
		<tag k="natural" v="strait" />
		<tag k="ssr:stedsnr" v="839960" />
	</node>
	<node id="-756948" lat="69.3687666678" lon="18.3232527741">
		<tag k="name" v="Jarneset" />
		<tag k="natural" v="cape" />
		<tag k="ssr:stedsnr" v="839940" />
	</node>
	<node id="-754899" lat="69.4316472215" lon="18.0902555606">
		<tag k="name" v="Molnesgrunnen" />
		<tag k="natural" v="shoal" />
		<tag k="place" v="locality" />
		<tag k="ssr:stedsnr" v="25714" />
	</node>
	<node id="-754898" lat="69.499447221" lon="18.0310777849">
		<tag k="name" v="Kjerringsanda" />
		<tag k="natural" v="beach" />
		<tag k="place" v="locality" />
		<tag k="ssr:stedsnr" v="25549" />
	</node>
	<node id="-754894" lat="69.4732027784" lon="17.8550416685">
		<tag k="name" v="Skogneset" />
		<tag k="natural" v="cape" />
		<tag k="ssr:stedsnr" v="25501" />
	</node>
	<node id="-756941" lat="69.3808722249" lon="18.4587722177">
		<tag k="name" v="Gurravika" />
		<tag k="natural" v="bay" />
		<tag k="ssr:stedsnr" v="839855" />
	</node>
	<node id="-754892" lat="69.5943583295" lon="17.8488861026">
		<tag k="name" v="Skjørvika" />
		<tag k="natural" v="bay" />
		<tag k="ssr:stedsnr" v="25313" />
	</node>
	<node id="-756939" lat="69.4000194479" lon="18.3584916568">
		<tag k="name" v="Krakneset" />
		<tag k="natural" v="cape" />
		<tag k="ssr:stedsnr" v="839809" />
	</node>
	<node id="-754889" lat="69.3293361147" lon="17.9222222209">
		<tag k="name" v="Skognes" />
		<tag k="natural" v="cape" />
		<tag k="ssr:stedsnr" v="20228" />
	</node>
	<node id="-756932" lat="69.4609249978" lon="18.1834722225">
		<tag k="name" v="Kobbeskjærvika" />
		<tag k="natural" v="bay" />
		<tag k="ssr:stedsnr" v="839687" />
	</node>
	<node id="-756931" lat="69.4564333319" lon="18.1348388883">
		<tag k="name" v="Litje Rødbergsodden" />
		<tag k="natural" v="cape" />
		<tag k="ssr:stedsnr" v="839686" />
	</node>
	<node id="-754882" lat="69.2675638894" lon="17.94468055">
		<tag k="name" v="Finnjordvågen" />
		<tag k="natural" v="bay" />
		<tag k="ssr:stedsnr" v="19574" />
	</node>
	<node id="-754880" lat="69.2989083373" lon="17.9957166651">
		<tag k="alt_name" v="Storelvneset" />
		<tag k="name" v="Storelvnes" />
		<tag k="natural" v="cape" />
		<tag k="ssr:stedsnr" v="19550" />
	</node>
	<node id="-754876" lat="69.2108416681" lon="17.9533610976">
		<tag k="name" v="Holmegrunnen" />
		<tag k="natural" v="shoal" />
		<tag k="place" v="locality" />
		<tag k="ssr:stedsnr" v="19375" />
	</node>
	<node id="-754875" lat="69.2157527791" lon="17.9194444516">
		<tag k="name" v="Laksneset" />
		<tag k="natural" v="cape" />
		<tag k="ssr:stedsnr" v="19372" />
	</node>
	<node id="-756921" lat="69.2158222218" lon="18.0754722109">
		<tag k="name" v="Hanefotleira" />
		<tag k="natural" v="bay" />
		<tag k="ssr:stedsnr" v="839540" />
	</node>
	<node id="-756917" lat="69.5123416621" lon="17.7120222245">
		<tag k="name" v="Tarbergneset" />
		<tag k="natural" v="cape" />
		<tag k="ssr:stedsnr" v="838997" />
	</node>
	<node id="-754868" lat="69.5176805556" lon="17.9502305458">
		<tag k="name" v="Austvikneset" />
		<tag k="natural" v="cape" />
		<tag k="ssr:stedsnr" v="18771" />
	</node>
	<node id="-754867" lat="69.5239722188" lon="17.6850750009">
		<tag k="name" v="Kobbsteinneset" />
		<tag k="natural" v="cape" />
		<tag k="ssr:stedsnr" v="18767" />
	</node>
	<node id="-754866" lat="69.601005555" lon="17.7128472106">
		<tag k="name" v="Husfallet" />
		<tag k="natural" v="shoal" />
		<tag k="place" v="locality" />
		<tag k="ssr:stedsnr" v="18753" />
	</node>
	<node id="-754865" lat="69.6013083358" lon="17.7734305428">
		<tag k="alt_name" v="Kuungan;Store Kuungen" />
		<tag k="fixme" v="consider seamark:type=rock or natural=shoal" />
		<tag k="name" v="Kuvungan" />
		<tag k="place" v="islet" />
		<tag k="ssr:stedsnr" v="18752" />
	</node>
	<node id="-754863" lat="69.6311972238" lon="17.5765527799">
		<tag k="name" v="Oksefallet" />
		<tag k="natural" v="shoal" />
		<tag k="place" v="locality" />
		<tag k="ssr:stedsnr" v="18739" />
	</node>
	<node id="-756910" lat="69.5733333349" lon="17.8524277711">
		<tag k="name" v="Småsandneset" />
		<tag k="natural" v="cape" />
		<tag k="ssr:stedsnr" v="838861" />
	</node>
	<node id="-756909" lat="69.5575527808" lon="17.7400194459">
		<tag k="name" v="Sandvikneset" />
		<tag k="natural" v="cape" />
		<tag k="ssr:stedsnr" v="838851" />
	</node>
	<node id="-756907" lat="69.2281722272" lon="17.8573333199">
		<tag k="name" v="Rørneset" />
		<tag k="natural" v="cape" />
		<tag k="ssr:stedsnr" v="838708" />
	</node>
	<node id="-754858" lat="69.5722722238" lon="17.7659388933">
		<tag k="name" v="Pussegrunnen" />
		<tag k="natural" v="shoal" />
		<tag k="place" v="locality" />
		<tag k="ssr:stedsnr" v="18711" />
	</node>
	<node id="-754857" lat="69.577019443" lon="17.8861638974">
		<tag k="alt_name" v="Matholman, in" />
		<tag k="name" v="Indre Matholman" />
		<tag k="place" v="islet" />
		<tag k="ssr:stedsnr" v="18704" />
	</node>
	<node id="-754856" lat="69.5972277785" lon="17.8424555529">
		<tag k="fixme" v="consider seamark:type=rock or natural=shoal" />
		<tag k="name" v="Svinvikskjæret" />
		<tag k="place" v="islet" />
		<tag k="ssr:stedsnr" v="18701" />
	</node>
	<node id="-754854" lat="69.6002777763" lon="17.5619860995">
		<tag k="name" v="Øyfjordbåen" />
		<tag k="natural" v="shoal" />
		<tag k="place" v="locality" />
		<tag k="ssr:stedsnr" v="18696" />
	</node>
	<node id="-754853" lat="69.5825777757" lon="17.8402055446">
		<tag k="name" v="Giskholmen" />
		<tag k="place" v="islet" />
		<tag k="ssr:stedsnr" v="18690" />
	</node>
	<node id="-754852" lat="69.5904027782" lon="17.8283333285">
		<tag k="name" v="Langholmen" />
		<tag k="place" v="islet" />
		<tag k="ssr:stedsnr" v="18686" />
	</node>
	<node id="-754846" lat="69.2545916692" lon="17.6654361106">
		<tag k="name" v="Tømmerneset" />
		<tag k="natural" v="cape" />
		<tag k="ssr:stedsnr" v="18563" />
	</node>
	<node id="-756888" lat="69.599177777" lon="17.8222361025">
		<tag k="fixme" v="consider seamark:type=rock or natural=shoal" />
		<tag k="name" v="Skipsvikskjæret" />
		<tag k="place" v="islet" />
		<tag k="ssr:stedsnr" v="837696" />
	</node>
	<node id="-754884" lat="69.4019249981" lon="18.1552722197">
		<tag k="name" v="Hårkallen" />
		<tag k="natural" v="cape" />
		<tag k="ssr:stedsnr" v="19696" />
	</node>
	<node id="-754831" lat="69.2310833371" lon="17.8641722163">
		<tag k="name" v="Nilseneset" />
		<tag k="natural" v="cape" />
		<tag k="ssr:stedsnr" v="18347" />
	</node>
	<node id="-754829" lat="69.4236888886" lon="17.997833341">
		<tag k="name" v="Laneset" />
		<tag k="natural" v="cape" />
		<tag k="ssr:stedsnr" v="18054" />
	</node>
	<node id="-756873" lat="69.5180333329" lon="17.9478694432">
		<tag k="name" v="Austvika" />
		<tag k="natural" v="bay" />
		<tag k="ssr:stedsnr" v="837608" />
	</node>
	<node id="-756872" lat="69.5248722269" lon="17.9526833258">
		<tag k="name" v="Storvikgrunnen" />
		<tag k="natural" v="shoal" />
		<tag k="place" v="locality" />
		<tag k="ssr:stedsnr" v="837609" />
	</node>
	<node id="-754822" lat="69.1662944446" lon="17.8817166608">
		<tag k="name" v="Klubben" />
		<tag k="natural" v="cape" />
		<tag k="ssr:stedsnr" v="18404" />
	</node>
	<node id="-756860" lat="69.4373666647" lon="18.0130694396">
		<tag k="name" v="Skrivarneset" />
		<tag k="natural" v="cape" />
		<tag k="ssr:stedsnr" v="837409" />
	</node>
	<node id="-756858" lat="69.4190805525" lon="17.9953749891">
		<tag k="name" v="Laneset" />
		<tag k="natural" v="cape" />
		<tag k="ssr:stedsnr" v="837373" />
	</node>
	<node id="-756853" lat="69.5206694405" lon="17.6326833257">
		<tag k="name" v="Kråksølvvika" />
		<tag k="natural" v="bay" />
		<tag k="ssr:stedsnr" v="837244" />
	</node>
	<node id="-756843" lat="69.4523111098" lon="17.8373222191">
		<tag k="name" v="Vika" />
		<tag k="natural" v="bay" />
		<tag k="ssr:stedsnr" v="837193" />
	</node>
	<node id="-756839" lat="69.5822555532" lon="17.6489611091">
		<tag k="name" v="Ressen" />
		<tag k="natural" v="cape" />
		<tag k="ssr:stedsnr" v="837144" />
	</node>
	<node id="-756836" lat="69.5915749972" lon="17.6989249955">
		<tag k="fixme" v="consider seamark:type=rock or natural=shoal" />
		<tag k="name" v="Kua" />
		<tag k="place" v="islet" />
		<tag k="ssr:stedsnr" v="837124" />
	</node>
	<node id="-754787" lat="69.5648611143" lon="17.8541916691">
		<tag k="name" v="Sandvika" />
		<tag k="natural" v="bay" />
		<tag k="ssr:stedsnr" v="413836" />
	</node>
	<node id="-754784" lat="69.3517777765" lon="18.0606777714">
		<tag k="name" v="Elinatjønna" />
		<tag k="natural" v="bay" />
		<tag k="ssr:stedsnr" v="898842" />
	</node>
	<node id="-756831" lat="69.5959361152" lon="17.5099472173">
		<tag k="name" v="Trollkeila" />
		<tag k="natural" v="bay" />
		<tag k="ssr:stedsnr" v="837016" />
	</node>
	<node id="-754782" lat="69.5810138924" lon="17.8433222337">
		<tag k="fixme" v="consider seamark:type=rock or natural=shoal" />
		<tag k="name" v="Bjørnskjæret" />
		<tag k="place" v="islet" />
		<tag k="ssr:stedsnr" v="898806" />
	</node>
	<node id="-756826" lat="69.2321416685" lon="18.0637638949">
		<tag k="name" v="Stranda" />
		<tag k="natural" v="beach" />
		<tag k="place" v="locality" />
		<tag k="ssr:stedsnr" v="839477" />
	</node>
	<node id="-756823" lat="69.2209666663" lon="18.0195083374">
		<tag k="name" v="Oldergrunnen" />
		<tag k="natural" v="shoal" />
		<tag k="place" v="locality" />
		<tag k="ssr:stedsnr" v="818948" />
	</node>
	<node id="-756822" lat="69.2218111131" lon="18.0765361171">
		<tag k="name" v="Storneset" />
		<tag k="natural" v="cape" />
		<tag k="ssr:stedsnr" v="818943" />
	</node>
	<node id="-756820" lat="69.2713805577" lon="17.9456277664">
		<tag k="name" v="Elveneset" />
		<tag k="natural" v="cape" />
		<tag k="ssr:stedsnr" v="818864" />
	</node>
	<node id="-756819" lat="69.2833888917" lon="17.9119666697">
		<tag k="name" v="Sørneset" />
		<tag k="natural" v="cape" />
		<tag k="ssr:stedsnr" v="818774" />
	</node>
	<node id="-756817" lat="69.2454472267" lon="17.9910111111">
		<tag k="name" v="Skjellvika" />
		<tag k="natural" v="bay" />
		<tag k="ssr:stedsnr" v="818340" />
	</node>
	<node id="-756816" lat="69.4040499987" lon="18.3594055579">
		<tag k="name" v="Vika" />
		<tag k="natural" v="bay" />
		<tag k="ssr:stedsnr" v="815606" />
	</node>
	<node id="-754767" lat="69.3951500008" lon="18.063730542">
		<tag k="fixme" v="consider seamark:type=rock or natural=shoal" />
		<tag k="name" v="Skarvesteinen" />
		<tag k="place" v="islet" />
		<tag k="ssr:stedsnr" v="898634" />
	</node>
	<node id="-756813" lat="69.4651833333" lon="18.0291694288">
		<tag k="name" v="Skardsvåggrunnen" />
		<tag k="natural" v="shoal" />
		<tag k="place" v="locality" />
		<tag k="ssr:stedsnr" v="814707" />
	</node>
	<node id="-756811" lat="69.4372777748" lon="18.0272416722">
		<tag k="name" v="Skrivarneset" />
		<tag k="natural" v="cape" />
		<tag k="ssr:stedsnr" v="814693" />
	</node>
	<node id="-756810" lat="69.5423666661" lon="17.7917194291">
		<tag k="name" v="Stuven" />
		<tag k="natural" v="cape" />
		<tag k="ssr:stedsnr" v="814462" />
	</node>
	<node id="-756809" lat="69.4439555519" lon="18.0275944431">
		<tag k="name" v="Storvika" />
		<tag k="natural" v="bay" />
		<tag k="ssr:stedsnr" v="813712" />
	</node>
	<node id="-756803" lat="69.5170666634" lon="17.6300777706">
		<tag k="name" v="Purkneset" />
		<tag k="natural" v="cape" />
		<tag k="ssr:stedsnr" v="807826" />
	</node>
	<node id="-754754" lat="69.4588972185" lon="17.8280277772">
		<tag k="fixme" v="consider seamark:type=rock or natural=shoal" />
		<tag k="name" v="Kobbesteinen" />
		<tag k="place" v="islet" />
		<tag k="ssr:stedsnr" v="898321" />
	</node>
	<node id="-754752" lat="69.531655559" lon="17.6779305474">
		<tag k="name" v="Brygga" />
		<tag k="natural" v="cape" />
		<tag k="ssr:stedsnr" v="898241" />
	</node>
	<node id="-756799" lat="69.5288722233" lon="17.9182805545">
		<tag k="name" v="Gamneset" />
		<tag k="natural" v="cape" />
		<tag k="ssr:stedsnr" v="807797" />
	</node>
	<node id="-754869" lat="69.5245833357" lon="17.9688972256">
		<tag k="fixme" v="multiple name tags, choose one and add the other to alt_name" />
		<tag k="name" v="Storskjæret;Storskjær" />
		<tag k="natural" v="shoal" />
		<tag k="place" v="locality" />
		<tag k="ssr:stedsnr" v="18772" />
	</node>
	<node id="-756796" lat="69.3084694416" lon="18.4997083368">
		<tag k="alt_name" v="Hola" />
		<tag k="name" v="Hølla" />
		<tag k="natural" v="bay" />
		<tag k="ssr:stedsnr" v="807785" />
	</node>
	<node id="-756795" lat="69.580313893" lon="17.8507166698">
		<tag k="alt_name" v="Hysholla" />
		<tag k="name" v="Hyshola" />
		<tag k="natural" v="bay" />
		<tag k="ssr:stedsnr" v="807756" />
	</node>
	<node id="-756794" lat="69.5790444418" lon="17.8445360947">
		<tag k="name" v="Lyngværneset" />
		<tag k="natural" v="cape" />
		<tag k="ssr:stedsnr" v="807754" />
	</node>
	<node id="-756793" lat="69.5813722236" lon="17.8799583269">
		<tag k="fixme" v="consider seamark:type=rock or natural=shoal" />
		<tag k="name" v="Plogskjæran" />
		<tag k="place" v="islet" />
		<tag k="ssr:stedsnr" v="807750" />
	</node>
	<node id="-756792" lat="69.5694333292" lon="17.7536499928">
		<tag k="bay" v="fjord" />
		<tag k="name" v="Baltsfjorden" />
		<tag k="natural" v="bay" />
		<tag k="ssr:stedsnr" v="807745" />
	</node>
	<node id="-754743" lat="69.3100972272" lon="17.8955805432">
		<tag k="name" v="Ivarholmen" />
		<tag k="place" v="islet" />
		<tag k="ssr:stedsnr" v="898107" />
	</node>
	<node id="-756790" lat="69.5979666659" lon="17.8033472266">
		<tag k="fixme" v="multiple name tags, choose one and add the other to alt_name; consider seamark:type=rock or natural=shoal" />
		<tag k="name" v="Leivskjæran;Leiskjæret" />
		<tag k="place" v="islet" />
		<tag k="ssr:stedsnr" v="807737" />
	</node>
	<node id="-754738" lat="69.2851555531" lon="17.9894583211">
		<tag k="name" v="Rørvika" />
		<tag k="natural" v="bay" />
		<tag k="ssr:stedsnr" v="898029" />
	</node>
	<node id="-756783" lat="69.3957722215" lon="18.3934388808">
		<tag k="name" v="Rossfjordneset" />
		<tag k="natural" v="cape" />
		<tag k="ssr:stedsnr" v="807670" />
	</node>
	<node id="-756780" lat="69.5026722184" lon="17.6409722196">
		<tag k="name" v="Arnakkneset" />
		<tag k="natural" v="cape" />
		<tag k="ssr:stedsnr" v="807650" />
	</node>
	<node id="-754731" lat="69.5706527783" lon="17.8397666617">
		<tag k="fixme" v="consider seamark:type=rock or natural=shoal" />
		<tag k="name" v="Nyheimskjæret" />
		<tag k="place" v="islet" />
		<tag k="ssr:stedsnr" v="897793" />
	</node>
	<node id="-754728" lat="69.4057222249" lon="17.9869777759">
		<tag k="fixme" v="consider seamark:type=rock or natural=shoal" />
		<tag k="name" v="Hemmingskjæret" />
		<tag k="place" v="islet" />
		<tag k="ssr:stedsnr" v="897708" />
	</node>
	<node id="-754724" lat="69.5175999998" lon="17.9175388986">
		<tag k="name" v="Litjeneset" />
		<tag k="natural" v="cape" />
		<tag k="ssr:stedsnr" v="897576" />
	</node>
	<node id="-756766" lat="69.409461111" lon="17.9871888873">
		<tag k="name" v="Storholmen" />
		<tag k="place" v="islet" />
		<tag k="ssr:stedsnr" v="807520" />
	</node>
	<node id="-756762" lat="69.4831499964" lon="17.6778694461">
		<tag k="alt_name:no" v="Ørnfjordbotn" />
		<tag k="name" v="Ørnfjordbotnen - Goaskenluokta" />
		<tag k="name:no" v="Ørnfjordbotnen" />
		<tag k="name:se" v="Goaskenluokta" />
		<tag k="natural" v="bay" />
		<tag k="ssr:stedsnr" v="807474" />
	</node>
	<node id="-756760" lat="69.4959527813" lon="17.9047222099">
		<tag k="name" v="Laneset" />
		<tag k="natural" v="cape" />
		<tag k="ssr:stedsnr" v="807470" />
	</node>
	<node id="-754710" lat="69.479175001" lon="18.2916722161">
		<tag k="name" v="Litjevika" />
		<tag k="natural" v="bay" />
		<tag k="ssr:stedsnr" v="474980" />
	</node>
	<node id="-756757" lat="69.4215166694" lon="17.9466750002">
		<tag k="alt_name" v="Nerstrømmen" />
		<tag k="name" v="Nerstraumen" />
		<tag k="natural" v="strait" />
		<tag k="ssr:stedsnr" v="807449" />
	</node>
	<node id="-756750" lat="69.2280249995" lon="17.8993416547">
		<tag k="bay" v="fjord" />
		<tag k="name" v="Laksfjorden" />
		<tag k="natural" v="bay" />
		<tag k="ssr:stedsnr" v="807384" />
	</node>
	<node id="-756748" lat="69.1927111152" lon="18.0082833206">
		<tag k="alt_name" v="Nordhamsodden" />
		<tag k="name" v="Nordhamnodden" />
		<tag k="natural" v="cape" />
		<tag k="ssr:stedsnr" v="806748" />
	</node>
	<node id="-756742" lat="69.3065333342" lon="18.5022416649">
		<tag k="name" v="Bakken" />
		<tag k="natural" v="shoal" />
		<tag k="place" v="locality" />
		<tag k="ssr:stedsnr" v="778928" />
	</node>
	<node id="-756737" lat="69.4684305581" lon="18.2176222298">
		<tag k="fixme" v="consider seamark:type=rock or natural=shoal" />
		<tag k="name" v="Langbåen" />
		<tag k="place" v="islet" />
		<tag k="ssr:stedsnr" v="778885" />
	</node>
	<node id="-754685" lat="69.5425000037" lon="17.7633888784">
		<tag k="name" v="Verselholmen" />
		<tag k="place" v="islet" />
		<tag k="ssr:stedsnr" v="473846" />
	</node>
	<node id="-756730" lat="69.3243222266" lon="18.4974944381">
		<tag k="name" v="Sandneset" />
		<tag k="natural" v="cape" />
		<tag k="ssr:stedsnr" v="778810" />
	</node>
	<node id="-754680" lat="69.5595861144" lon="17.7330555607">
		<tag k="name" v="Yttersandvika" />
		<tag k="natural" v="bay" />
		<tag k="ssr:stedsnr" v="473828" />
	</node>
	<node id="-756720" lat="69.403788888" lon="18.155127763">
		<tag k="name" v="Hårkallvika" />
		<tag k="natural" v="bay" />
		<tag k="ssr:stedsnr" v="778665" />
	</node>
	<node id="-754669" lat="69.5062361129" lon="17.9062027631">
		<tag k="name" v="Botn" />
		<tag k="natural" v="bay" />
		<tag k="ssr:stedsnr" v="473514" />
	</node>
	<node id="-754665" lat="69.1966361126" lon="17.9969083379">
		<tag k="name" v="Daumannsvika" />
		<tag k="natural" v="bay" />
		<tag k="ssr:stedsnr" v="473395" />
	</node>
	<node id="-756711" lat="69.2279249976" lon="18.0871472065">
		<tag k="fixme" v="consider seamark:type=rock or natural=shoal" />
		<tag k="name" v="Storvikskjæret" />
		<tag k="place" v="islet" />
		<tag k="ssr:stedsnr" v="778448" />
	</node>
	<node id="-756706" lat="69.1912416626" lon="18.0071194464">
		<tag k="name" v="Klauvodden" />
		<tag k="natural" v="cape" />
		<tag k="ssr:stedsnr" v="777738" />
	</node>
	<node id="-754652" lat="69.3083027775" lon="17.9866694336">
		<tag k="name" v="Leiknes" />
		<tag k="natural" v="cape" />
		<tag k="ssr:stedsnr" v="413126" />
	</node>
	<node id="-754651" lat="69.3033055567" lon="17.9064805584">
		<tag k="name" v="Stemandabukta" />
		<tag k="natural" v="bay" />
		<tag k="ssr:stedsnr" v="413118" />
	</node>
	<node id="-754649" lat="69.335449997" lon="18.0185388869">
		<tag k="name" v="Storholmen" />
		<tag k="place" v="islet" />
		<tag k="ssr:stedsnr" v="412956" />
	</node>
	<node id="-754643" lat="69.5491972259" lon="17.7536694413">
		<tag k="name" v="Gammelosten" />
		<tag k="natural" v="cape" />
		<tag k="ssr:stedsnr" v="412803" />
	</node>
	<node id="-754639" lat="69.4046916628" lon="17.9893833253">
		<tag k="name" v="Teltneset" />
		<tag k="natural" v="cape" />
		<tag k="ssr:stedsnr" v="412686" />
	</node>
	<node id="-756685" lat="69.5650194456" lon="17.8068916742">
		<tag k="name" v="Mollvika" />
		<tag k="natural" v="bay" />
		<tag k="ssr:stedsnr" v="776684" />
	</node>
	<node id="-754635" lat="69.5936194454" lon="17.8302972092">
		<tag k="fixme" v="consider seamark:type=rock or natural=shoal" />
		<tag k="name" v="Sylvikskjæret" />
		<tag k="place" v="islet" />
		<tag k="ssr:stedsnr" v="412642" />
	</node>
	<node id="-754628" lat="69.5236694435" lon="17.9202361113">
		<tag k="name" v="Makkeskjærvika" />
		<tag k="natural" v="bay" />
		<tag k="ssr:stedsnr" v="412566" />
	</node>
	<node id="-756675" lat="69.5302416635" lon="17.9217249894">
		<tag k="name" v="Gamnesgrunnen" />
		<tag k="natural" v="shoal" />
		<tag k="place" v="locality" />
		<tag k="ssr:stedsnr" v="776586" />
	</node>
	<node id="-756673" lat="69.522772218" lon="17.9649555628">
		<tag k="fixme" v="consider seamark:type=rock or natural=shoal" />
		<tag k="name" v="Storskjæret" />
		<tag k="place" v="islet" />
		<tag k="ssr:stedsnr" v="776571" />
	</node>
	<node id="-756672" lat="69.5788472184" lon="17.8823944507">
		<tag k="name" v="Plogsundet" />
		<tag k="natural" v="strait" />
		<tag k="ssr:stedsnr" v="776496" />
	</node>
	<node id="-756670" lat="69.5133388855" lon="17.9345361118">
		<tag k="name" v="Holmegrunnen" />
		<tag k="natural" v="shoal" />
		<tag k="place" v="locality" />
		<tag k="ssr:stedsnr" v="776482" />
	</node>
	<node id="-756669" lat="69.5113805523" lon="17.9399305495">
		<tag k="name" v="Rødvikstranda" />
		<tag k="natural" v="beach" />
		<tag k="place" v="locality" />
		<tag k="ssr:stedsnr" v="776480" />
	</node>
	<node id="-754620" lat="69.230580556" lon="18.0048138793">
		<tag k="name" v="Hesjevika" />
		<tag k="natural" v="bay" />
		<tag k="ssr:stedsnr" v="412326" />
	</node>
	<node id="-754619" lat="69.4568194484" lon="17.8190027881">
		<tag k="name" v="Skreddarkjosen" />
		<tag k="natural" v="bay" />
		<tag k="ssr:stedsnr" v="412310" />
	</node>
	<node id="-756666" lat="69.5083111069" lon="17.9093277735">
		<tag k="fixme" v="consider seamark:type=rock or natural=shoal" />
		<tag k="name" v="Hamnskjæret" />
		<tag k="place" v="islet" />
		<tag k="ssr:stedsnr" v="776465" />
	</node>
	<node id="-756665" lat="69.4639499973" lon="17.8926666593">
		<tag k="name" v="Yttergårdsbukta" />
		<tag k="natural" v="bay" />
		<tag k="ssr:stedsnr" v="776294" />
	</node>
	<node id="-756654" lat="69.5946805565" lon="17.6295860978">
		<tag k="name" v="Stedjelandet" />
		<tag k="natural" v="beach" />
		<tag k="place" v="locality" />
		<tag k="ssr:stedsnr" v="776127" />
	</node>
	<node id="-754957" lat="69.4866694425" lon="18.063305545">
		<tag k="name" v="Indre Skårlines" />
		<tag k="natural" v="cape" />
		<tag k="ssr:stedsnr" v="48626" />
	</node>
	<node id="-756643" lat="69.1991611104" lon="17.966008327">
		<tag k="name" v="Holtevika" />
		<tag k="natural" v="bay" />
		<tag k="ssr:stedsnr" v="757972" />
	</node>
	<node id="-756641" lat="69.1947277774" lon="18.0059583308">
		<tag k="alt_name" v="Russevika" />
		<tag k="name" v="Hollavika" />
		<tag k="natural" v="bay" />
		<tag k="ssr:stedsnr" v="757950" />
	</node>
	<node id="-756640" lat="69.2999055515" lon="17.9145944404">
		<tag k="fixme" v="multiple name tags, choose one and add the other to alt_name" />
		<tag k="name" v="Mulvika;Myrvika" />
		<tag k="natural" v="bay" />
		<tag k="ssr:stedsnr" v="757698" />
	</node>
	<node id="-756639" lat="69.290269446" lon="17.9195611096">
		<tag k="name" v="Nordvågen" />
		<tag k="natural" v="bay" />
		<tag k="ssr:stedsnr" v="757667" />
	</node>
	<node id="-756638" lat="69.1823638911" lon="17.9780833433">
		<tag k="name" v="Gunnelvika" />
		<tag k="natural" v="bay" />
		<tag k="ssr:stedsnr" v="757489" />
	</node>
	<node id="-756637" lat="69.2337805545" lon="17.929652786">
		<tag k="name" v="Kvelveneset" />
		<tag k="natural" v="cape" />
		<tag k="ssr:stedsnr" v="757335" />
	</node>
	<node id="-756636" lat="69.2394500032" lon="17.9749694384">
		<tag k="fixme" v="consider seamark:type=rock or natural=shoal" />
		<tag k="name" v="Nygårdskjæret" />
		<tag k="place" v="islet" />
		<tag k="ssr:stedsnr" v="757334" />
	</node>
	<node id="-754587" lat="69.3101583349" lon="17.9949777648">
		<tag k="fixme" v="multiple name tags, choose one and add the other to alt_name" />
		<tag k="name" v="Litjeneset;Nordneset" />
		<tag k="natural" v="cape" />
		<tag k="ssr:stedsnr" v="393689" />
	</node>
	<node id="-756634" lat="69.2430944426" lon="17.9576833193">
		<tag k="name" v="Reingjerdneset" />
		<tag k="natural" v="cape" />
		<tag k="ssr:stedsnr" v="757332" />
	</node>
	<node id="-756633" lat="69.5752500029" lon="17.8269277739">
		<tag k="name" v="Småsandbukta" />
		<tag k="natural" v="bay" />
		<tag k="ssr:stedsnr" v="754465" />
	</node>
	<node id="-754584" lat="69.2128166675" lon="17.9996916741">
		<tag k="name" v="Mellomgrunnen" />
		<tag k="natural" v="shoal" />
		<tag k="place" v="locality" />
		<tag k="ssr:stedsnr" v="393491" />
	</node>
	<node id="-756631" lat="69.5242638852" lon="17.9189083392">
		<tag k="name" v="Skjellneset" />
		<tag k="natural" v="cape" />
		<tag k="ssr:stedsnr" v="753380" />
	</node>
	<node id="-754582" lat="69.390722226" lon="18.4242916761">
		<tag k="fixme" v="multiple name tags, choose one and add the other to alt_name" />
		<tag k="name" v="Målneset;Rossfjordmolneset" />
		<tag k="natural" v="cape" />
		<tag k="ssr:stedsnr" v="390773" />
	</node>
	<node id="-754579" lat="69.3839472207" lon="18.0536083311">
		<tag k="name" v="Sørnesbukta" />
		<tag k="natural" v="bay" />
		<tag k="ssr:stedsnr" v="389541" />
	</node>
	<node id="-754578" lat="69.5819027791" lon="17.8547638847">
		<tag k="alt_name" v="Hyshollneset" />
		<tag k="name" v="Hysholneset" />
		<tag k="natural" v="cape" />
		<tag k="old_name" v="Hysholmneset" />
		<tag k="ssr:stedsnr" v="389320" />
	</node>
	<node id="-754577" lat="69.4402472217" lon="18.1517027857">
		<tag k="name" v="Båtneset" />
		<tag k="natural" v="cape" />
		<tag k="ssr:stedsnr" v="388687" />
	</node>
	<node id="-754574" lat="69.5511388848" lon="17.9180111171">
		<tag k="alt_name" v="Skorven" />
		<tag k="name" v="Skurveneset" />
		<tag k="natural" v="cape" />
		<tag k="ssr:stedsnr" v="382868" />
	</node>
	<node id="-756621" lat="69.4351083292" lon="17.9645083278">
		<tag k="name" v="Bukta" />
		<tag k="natural" v="bay" />
		<tag k="ssr:stedsnr" v="747438" />
	</node>
	<node id="-756619" lat="69.5612555528" lon="17.8968166655">
		<tag k="name" v="Laukvika" />
		<tag k="natural" v="bay" />
		<tag k="ssr:stedsnr" v="746810" />
	</node>
	<node id="-754570" lat="69.5556555523" lon="17.5971138805">
		<tag k="alt_name" v="Melneset, in" />
		<tag k="name" v="Indre Melneset" />
		<tag k="natural" v="cape" />
		<tag k="ssr:stedsnr" v="382832" />
	</node>
	<node id="-754563" lat="69.2947444433" lon="18.2416583314">
		<tag k="name" v="Storholmen" />
		<tag k="place" v="islet" />
		<tag k="ssr:stedsnr" v="382789" />
	</node>
	<node id="-756610" lat="69.5993472239" lon="17.6256805641">
		<tag k="name" v="Fugleneset" />
		<tag k="natural" v="cape" />
		<tag k="ssr:stedsnr" v="746708" />
	</node>
	<node id="-756609" lat="69.5860138933" lon="17.8502694417">
		<tag k="name" v="Hekkingsundet" />
		<tag k="natural" v="strait" />
		<tag k="ssr:stedsnr" v="746704" />
	</node>
	<node id="-754560" lat="69.632041667" lon="17.6246722286">
		<tag k="alt_name" v="Baltengrunnen" />
		<tag k="name" v="Baltegrunnen" />
		<tag k="natural" v="shoal" />
		<tag k="place" v="locality" />
		<tag k="ssr:stedsnr" v="382776" />
	</node>
	<node id="-756607" lat="69.3756249994" lon="18.3367249852">
		<tag k="fixme" v="multiple name tags, choose one and add the other to alt_name" />
		<tag k="name" v="Rossfjordstraumen;Straumen" />
		<tag k="natural" v="strait" />
		<tag k="ssr:stedsnr" v="746695" />
	</node>
	<node id="-756606" lat="69.3911194453" lon="18.1718833294">
		<tag k="name" v="Kårvika" />
		<tag k="natural" v="bay" />
		<tag k="ssr:stedsnr" v="746666" />
	</node>
	<node id="-756604" lat="69.2134583351" lon="18.0604749852">
		<tag k="name" v="Finnfjordøya" />
		<tag k="place" v="island" />
		<tag k="ssr:stedsnr" v="746659" />
	</node>
	<node id="-754553" lat="69.6009861109" lon="17.4960500085">
		<tag k="alt_name" v="Keila" />
		<tag k="name" v="Kjølvekeila" />
		<tag k="natural" v="bay" />
		<tag k="ssr:stedsnr" v="382732" />
	</node>
	<node id="-756600" lat="69.461855559" lon="18.1926805555">
		<tag k="name" v="Sørvika" />
		<tag k="natural" v="bay" />
		<tag k="ssr:stedsnr" v="746605" />
	</node>
	<node id="-756594" lat="69.1972472245" lon="17.9871472233">
		<tag k="name" v="Storvika" />
		<tag k="natural" v="bay" />
		<tag k="ssr:stedsnr" v="746501" />
	</node>
	<node id="-756591" lat="69.1792750021" lon="17.9662444347">
		<tag k="name" v="Akkarvika" />
		<tag k="natural" v="bay" />
		<tag k="ssr:stedsnr" v="746460" />
	</node>
	<node id="-756589" lat="69.4423333312" lon="17.9894194391">
		<tag k="alt_name" v="Lysnes, yt" />
		<tag k="name" v="Ytre Lysnes" />
		<tag k="natural" v="cape" />
		<tag k="ssr:stedsnr" v="746432" />
	</node>
	<node id="-754540" lat="69.2244722231" lon="18.0222444324">
		<tag k="bay" v="fjord" />
		<tag k="loc_name:se" v="Finfierda" />
		<tag k="name" v="Finnfjorden" />
		<tag k="name:no" v="Finnfjorden" />
		<tag k="natural" v="bay" />
		<tag k="ssr:stedsnr" v="382643" />
	</node>
	<node id="-756586" lat="69.2352916706" lon="17.9490999937">
		<tag k="alt_name" v="Olaholmen;Laukhellaholmen" />
		<tag k="name" v="Laukhelløya" />
		<tag k="place" v="islet" />
		<tag k="ssr:stedsnr" v="746407" />
	</node>
	<node id="-754537" lat="69.4820444431" lon="18.2434888797">
		<tag k="name" v="Nordnova" />
		<tag k="natural" v="cape" />
		<tag k="ssr:stedsnr" v="382626" />
	</node>
	<node id="-754536" lat="69.45863056" lon="18.139019434">
		<tag k="name" v="Molvika" />
		<tag k="natural" v="bay" />
		<tag k="ssr:stedsnr" v="382623" />
	</node>
	<node id="-754535" lat="69.4663527812" lon="18.1534833349">
		<tag k="alt_name" v="Rødbergsodden, store" />
		<tag k="name" v="Store Rødbergsodden" />
		<tag k="natural" v="cape" />
		<tag k="ssr:stedsnr" v="382620" />
	</node>
	<node id="-756582" lat="69.4820805581" lon="18.2777194336">
		<tag k="name" v="Ol-Hågsavikneset" />
		<tag k="natural" v="cape" />
		<tag k="ssr:stedsnr" v="717976" />
	</node>
	<node id="-754528" lat="69.315855552" lon="17.888577771">
		<tag k="alt_name" v="Skognesbotn" />
		<tag k="name" v="Skognesbotnen" />
		<tag k="natural" v="bay" />
		<tag k="ssr:stedsnr" v="382578" />
	</node>
	<node id="-756573" lat="69.4320055594" lon="18.3691138767">
		<tag k="fixme" v="consider seamark:type=rock or natural=shoal" />
		<tag k="name" v="Litjeskjæret" />
		<tag k="place" v="islet" />
		<tag k="ssr:stedsnr" v="717860" />
	</node>
	<node id="-756562" lat="69.3442111082" lon="18.1023611051">
		<tag k="name" v="Bukkskinnbukta" />
		<tag k="natural" v="bay" />
		<tag k="ssr:stedsnr" v="717666" />
	</node>
	<node id="-754512" lat="69.1622972263" lon="17.8847805568">
		<tag k="alt_name" v="Avløysningsgrunnen" />
		<tag k="name" v="Avløysingsgrunnen" />
		<tag k="natural" v="shoal" />
		<tag k="place" v="locality" />
		<tag k="ssr:stedsnr" v="382451" />
	</node>
	<node id="-754511" lat="69.4501027763" lon="17.8753722076">
		<tag k="name" v="Klubben" />
		<tag k="natural" v="cape" />
		<tag k="ssr:stedsnr" v="382446" />
	</node>
	<node id="-756555" lat="69.2305583365" lon="18.0847444495">
		<tag k="name" v="Botnleira" />
		<tag k="natural" v="bay" />
		<tag k="ssr:stedsnr" v="717498" />
	</node>
	<node id="-756554" lat="69.2105194465" lon="18.0645360988">
		<tag k="name" v="Øysundet" />
		<tag k="natural" v="strait" />
		<tag k="ssr:stedsnr" v="717484" />
	</node>
	<node id="-754503" lat="69.2212111086" lon="17.9476027626">
		<tag k="bay" v="fjord" />
		<tag k="name" v="Gisundet" />
		<tag k="natural" v="bay" />
		<tag k="ssr:stedsnr" v="382384" />
	</node>
	<node id="-756550" lat="69.2272666671" lon="18.0864250085">
		<tag k="name" v="Storvika" />
		<tag k="natural" v="bay" />
		<tag k="ssr:stedsnr" v="717462" />
	</node>
	<node id="-754501" lat="69.2176777819" lon="17.9326722088">
		<tag k="name" v="Nikkerevet" />
		<tag k="natural" v="shoal" />
		<tag k="place" v="locality" />
		<tag k="ssr:stedsnr" v="382374" />
	</node>
	<node id="-754500" lat="69.1603583312" lon="17.8456166706">
		<tag k="name" v="Geitneset" />
		<tag k="natural" v="cape" />
		<tag k="ssr:stedsnr" v="382303" />
	</node>
	<node id="-754497" lat="69.4426805599" lon="18.3704888773">
		<tag k="name" v="Kravikneset" />
		<tag k="natural" v="cape" />
		<tag k="ssr:stedsnr" v="360051" />
	</node>
	<node id="-754495" lat="69.4755638869" lon="18.3029749994">
		<tag k="name" v="Bukta" />
		<tag k="natural" v="bay" />
		<tag k="ssr:stedsnr" v="353984" />
	</node>
	<node id="-756540" lat="69.1588888874" lon="17.8756999941">
		<tag k="name" v="Madsklakken" />
		<tag k="natural" v="shoal" />
		<tag k="place" v="locality" />
		<tag k="ssr:stedsnr" v="716754" />
	</node>
	<node id="-754490" lat="69.4593194426" lon="18.3556972206">
		<tag k="name" v="Jøvika" />
		<tag k="natural" v="bay" />
		<tag k="ssr:stedsnr" v="353923" />
	</node>
	<node id="-754489" lat="69.4704777747" lon="18.3207722282">
		<tag k="name" v="Stormyrbukta" />
		<tag k="natural" v="bay" />
		<tag k="ssr:stedsnr" v="353882" />
	</node>
	<node id="-756535" lat="69.1988611108" lon="17.933277787">
		<tag k="name" v="Brattebergvika" />
		<tag k="natural" v="bay" />
		<tag k="ssr:stedsnr" v="716391" />
	</node>
	<node id="-756534" lat="69.200008331" lon="17.9777500064">
		<tag k="name" v="Gunnarvika" />
		<tag k="natural" v="bay" />
		<tag k="ssr:stedsnr" v="716385" />
	</node>
	<node id="-754825" lat="69.173497225" lon="17.924983323">
		<tag k="name" v="Nordneset" />
		<tag k="natural" v="cape" />
		<tag k="ssr:stedsnr" v="18429" />
	</node>
	<node id="-754481" lat="69.3290305554" lon="18.4903972133">
		<tag k="name" v="Pelverken" />
		<tag k="natural" v="cape" />
		<tag k="ssr:stedsnr" v="353811" />
	</node>
	<node id="-754461" lat="69.5496861109" lon="17.7943166573">
		<tag k="name" v="Tarvika" />
		<tag k="natural" v="bay" />
		<tag k="ssr:stedsnr" v="352838" />
	</node>
	<node id="-754460" lat="69.351488885" lon="18.0812916707">
		<tag k="name" v="Gibostadneset" />
		<tag k="natural" v="cape" />
		<tag k="ssr:stedsnr" v="352833" />
	</node>
	<node id="-754457" lat="69.559341668" lon="17.8008555648">
		<tag k="name" v="Skrotvika" />
		<tag k="natural" v="bay" />
		<tag k="ssr:stedsnr" v="352821" />
	</node>
	<node id="-756501" lat="69.4487388899" lon="17.8746361045">
		<tag k="name" v="Litjevatnet" />
		<tag k="natural" v="bay" />
		<tag k="ssr:stedsnr" v="715611" />
	</node>
	<node id="-754452" lat="69.2458333312" lon="17.9592222123">
		<tag k="name" v="Laukhella Store" />
		<tag k="natural" v="bay" />
		<tag k="ssr:stedsnr" v="352662" />
	</node>
	<node id="-756499" lat="69.5169527752" lon="17.9442861089">
		<tag k="name" v="Austvikneset" />
		<tag k="natural" v="cape" />
		<tag k="ssr:stedsnr" v="715598" />
	</node>
	<node id="-754448" lat="69.2336055576" lon="17.9713833245">
		<tag k="name" v="Bjørnklubben" />
		<tag k="natural" v="cape" />
		<tag k="ssr:stedsnr" v="352110" />
	</node>
	<node id="-755160" lat="69.4273944433" lon="18.1016472312">
		<tag k="name" v="Innergrunnen" />
		<tag k="natural" v="shoal" />
		<tag k="place" v="locality" />
		<tag k="ssr:stedsnr" v="109637" />
	</node>
	<node id="-754442" lat="69.5693138921" lon="17.8416888818">
		<tag k="name" v="Ytre Giska" />
		<tag k="natural" v="bay" />
		<tag k="ssr:stedsnr" v="351826" />
	</node>
	<node id="-756488" lat="69.5767527748" lon="17.5433777858">
		<tag k="fixme" v="consider seamark:type=rock or natural=shoal" />
		<tag k="name" v="Persteinen" />
		<tag k="place" v="islet" />
		<tag k="ssr:stedsnr" v="715160" />
	</node>
	<node id="-756487" lat="69.5790083343" lon="17.5407472181">
		<tag k="name" v="Kvalbaken" />
		<tag k="natural" v="cape" />
		<tag k="ssr:stedsnr" v="715158" />
	</node>
	<node id="-754438" lat="69.1729805526" lon="17.9175166723">
		<tag k="name" v="Silsandgrunnen" />
		<tag k="natural" v="shoal" />
		<tag k="place" v="locality" />
		<tag k="ssr:stedsnr" v="351736" />
	</node>
	<node id="-756483" lat="69.4516861095" lon="17.8846805574">
		<tag k="name" v="Vågen" />
		<tag k="natural" v="bay" />
		<tag k="ssr:stedsnr" v="715147" />
	</node>
	<node id="-756480" lat="69.5587250044" lon="17.7359249876">
		<tag k="name" v="Sandvika" />
		<tag k="natural" v="bay" />
		<tag k="ssr:stedsnr" v="714254" />
	</node>
	<node id="-756477" lat="69.5030388908" lon="17.8955250102">
		<tag k="name" v="Hesjevika" />
		<tag k="natural" v="bay" />
		<tag k="ssr:stedsnr" v="715514" />
	</node>
	<node id="-756476" lat="69.2434055602" lon="17.9745583254">
		<tag k="fixme" v="consider seamark:type=rock or natural=shoal" />
		<tag k="name" v="Storskjæret" />
		<tag k="place" v="islet" />
		<tag k="ssr:stedsnr" v="697344" />
	</node>
	<node id="-754426" lat="69.52651389" lon="17.9165222182">
		<tag k="name" v="Skjellsanda" />
		<tag k="natural" v="beach" />
		<tag k="place" v="locality" />
		<tag k="ssr:stedsnr" v="351588" />
	</node>
	<node id="-754424" lat="69.5076472251" lon="18.0135916778">
		<tag k="name" v="Trettevikneset" />
		<tag k="natural" v="cape" />
		<tag k="ssr:stedsnr" v="351503" />
	</node>
	<node id="-756470" lat="69.529797219" lon="17.9153722148">
		<tag k="name" v="Gamvika" />
		<tag k="natural" v="bay" />
		<tag k="ssr:stedsnr" v="687894" />
	</node>
	<node id="-754421" lat="69.4999583318" lon="17.9124194531">
		<tag k="fixme" v="consider seamark:type=rock or natural=shoal" />
		<tag k="name" v="Nøkkelnesskjæret" />
		<tag k="place" v="islet" />
		<tag k="ssr:stedsnr" v="351487" />
	</node>
	<node id="-756468" lat="69.5406055594" lon="17.7916749869">
		<tag k="name" v="Stuvholmen" />
		<tag k="place" v="islet" />
		<tag k="ssr:stedsnr" v="686850" />
	</node>
	<node id="-756467" lat="69.5188388912" lon="17.9774055436">
		<tag k="fixme" v="consider seamark:type=rock or natural=shoal" />
		<tag k="name" v="Gamman" />
		<tag k="place" v="islet" />
		<tag k="ssr:stedsnr" v="686825" />
	</node>
	<node id="-754417" lat="69.4000666642" lon="18.0630333209">
		<tag k="name" v="Tennholmen" />
		<tag k="place" v="islet" />
		<tag k="ssr:stedsnr" v="351623" />
	</node>
	<node id="-756463" lat="69.5163166627" lon="17.6966444388">
		<tag k="name" v="Trælvika" />
		<tag k="natural" v="bay" />
		<tag k="ssr:stedsnr" v="686819" />
	</node>
	<node id="-754414" lat="69.4211638881" lon="17.9953638812">
		<tag k="name" v="Tuvikholmen" />
		<tag k="place" v="islet" />
		<tag k="ssr:stedsnr" v="351367" />
	</node>
	<node id="-756455" lat="69.6333749953" lon="17.7343555635">
		<tag k="name" v="Aglapsbåan" />
		<tag k="natural" v="shoal" />
		<tag k="place" v="locality" />
		<tag k="ssr:stedsnr" v="686778" />
	</node>
	<node id="-756453" lat="69.6220805541" lon="17.640025006">
		<tag k="fixme" v="consider seamark:type=rock or natural=shoal" />
		<tag k="name" v="Hærskjæret" />
		<tag k="place" v="islet" />
		<tag k="ssr:stedsnr" v="686770" />
	</node>
	<node id="-756448" lat="69.3946000015" lon="18.059097231">
		<tag k="alt_name" v="Nordneset" />
		<tag k="name" v="Nordnes" />
		<tag k="natural" v="cape" />
		<tag k="ssr:stedsnr" v="686704" />
	</node>
	<node id="-754399" lat="69.5430277786" lon="17.6555500036">
		<tag k="fixme" v="consider seamark:type=rock or natural=shoal" />
		<tag k="name" v="Teistesteinen" />
		<tag k="place" v="islet" />
		<tag k="ssr:stedsnr" v="351135" />
	</node>
	<node id="-754396" lat="69.6006361068" lon="17.5029722263">
		<tag k="name" v="Ytre Skjeggesteinen" />
		<tag k="natural" v="cape" />
		<tag k="ssr:stedsnr" v="351023" />
	</node>
	<node id="-755151" lat="69.2694361133" lon="17.9757972151">
		<tag k="name" v="Trollvikgrunnen" />
		<tag k="natural" v="shoal" />
		<tag k="place" v="locality" />
		<tag k="ssr:stedsnr" v="109591" />
	</node>
	<node id="-756439" lat="69.2797527793" lon="17.9897777727">
		<tag k="name" v="Kleiva" />
		<tag k="natural" v="cape" />
		<tag k="ssr:stedsnr" v="686631" />
	</node>
	<node id="-756437" lat="69.2867416681" lon="17.9179111108">
		<tag k="name" v="Neset" />
		<tag k="natural" v="cape" />
		<tag k="ssr:stedsnr" v="686619" />
	</node>
	<node id="-754388" lat="69.4822694429" lon="18.2601472056">
		<tag k="name" v="Hysholla" />
		<tag k="natural" v="bay" />
		<tag k="ssr:stedsnr" v="328688" />
	</node>
	<node id="-754387" lat="69.448416664" lon="17.9974638804">
		<tag k="name" v="Elveneset" />
		<tag k="natural" v="cape" />
		<tag k="ssr:stedsnr" v="328687" />
	</node>
	<node id="-754384" lat="69.5431888866" lon="17.9197055472">
		<tag k="name" v="Sandsneset" />
		<tag k="natural" v="cape" />
		<tag k="ssr:stedsnr" v="322857" />
	</node>
	<node id="-754382" lat="69.5634916701" lon="17.8058611008">
		<tag k="alt_name" v="Mollvikneset" />
		<tag k="name" v="Molvikneset" />
		<tag k="natural" v="cape" />
		<tag k="ssr:stedsnr" v="322843" />
	</node>
	<node id="-756428" lat="69.468772224" lon="17.8545805453">
		<tag k="name" v="Krakneset" />
		<tag k="natural" v="cape" />
		<tag k="ssr:stedsnr" v="686508" />
	</node>
	<node id="-756422" lat="69.4500527794" lon="17.8431555661">
		<tag k="name" v="Bukkeneset" />
		<tag k="natural" v="cape" />
		<tag k="ssr:stedsnr" v="686458" />
	</node>
	<node id="-754373" lat="69.6040194408" lon="17.6839222075">
		<tag k="name" v="Sundskolten" />
		<tag k="natural" v="shoal" />
		<tag k="place" v="locality" />
		<tag k="ssr:stedsnr" v="322783" />
	</node>
	<node id="-754368" lat="69.5718222267" lon="17.6130694345">
		<tag k="bay" v="fjord" />
		<tag k="name" v="Øyfjorden" />
		<tag k="natural" v="bay" />
		<tag k="ssr:stedsnr" v="322759" />
	</node>
	<node id="-754367" lat="69.5694111125" lon="17.8936972135">
		<tag k="name" v="Laukvikneset" />
		<tag k="natural" v="cape" />
		<tag k="ssr:stedsnr" v="322754" />
	</node>
	<node id="-754366" lat="69.5858333331" lon="17.8149444402">
		<tag k="name" v="Langholmgrunnan" />
		<tag k="natural" v="shoal" />
		<tag k="place" v="locality" />
		<tag k="ssr:stedsnr" v="322737" />
	</node>
	<node id="-756413" lat="69.2050833297" lon="17.9327805534">
		<tag k="name" v="Vassjordholmen" />
		<tag k="place" v="islet" />
		<tag k="ssr:stedsnr" v="686389" />
	</node>
	<node id="-754363" lat="69.4149499951" lon="18.0940500073">
		<tag k="name" v="Sandholmen" />
		<tag k="place" v="islet" />
		<tag k="ssr:stedsnr" v="322708" />
	</node>
	<node id="-756410" lat="69.3616944478" lon="18.0932222145">
		<tag k="name" v="Vardneset" />
		<tag k="natural" v="cape" />
		<tag k="ssr:stedsnr" v="686032" />
	</node>
	<node id="-754358" lat="69.4690055596" lon="18.225425001">
		<tag k="name" v="Nordvika" />
		<tag k="natural" v="bay" />
		<tag k="ssr:stedsnr" v="322641" />
	</node>
	<node id="-754357" lat="69.2755388889" lon="17.9018222243">
		<tag k="name" v="Grasmyrbotnen" />
		<tag k="natural" v="bay" />
		<tag k="ssr:stedsnr" v="322627" />
	</node>
	<node id="-756400" lat="69.4598083356" lon="18.3654777857">
		<tag k="name" v="Indre Jøviknes" />
		<tag k="natural" v="cape" />
		<tag k="ssr:stedsnr" v="657832" />
	</node>
	<node id="-756397" lat="69.3799166641" lon="18.3445583247">
		<tag k="name" v="Grasholmen" />
		<tag k="place" v="islet" />
		<tag k="ssr:stedsnr" v="656962" />
	</node>
	<node id="-756394" lat="69.3643166625" lon="18.3140583372">
		<tag k="name" v="Gammelgårdneset" />
		<tag k="natural" v="cape" />
		<tag k="ssr:stedsnr" v="656940" />
	</node>
	<node id="-754343" lat="69.2232500039" lon="17.9601138786">
		<tag k="name" v="Finnsnesgrunnen" />
		<tag k="natural" v="shoal" />
		<tag k="place" v="locality" />
		<tag k="ssr:stedsnr" v="322400" />
	</node>
	<node id="-756389" lat="69.4256944429" lon="18.3685333221">
		<tag k="fixme" v="consider seamark:type=rock or natural=shoal" />
		<tag k="name" v="Medskjær" />
		<tag k="place" v="islet" />
		<tag k="ssr:stedsnr" v="656869" />
	</node>
	<node id="-754340" lat="69.3790916696" lon="18.0615194535">
		<tag k="name" v="Laneset" />
		<tag k="natural" v="cape" />
		<tag k="ssr:stedsnr" v="322036" />
	</node>
	<node id="-754335" lat="69.3642916679" lon="18.0649777819">
		<tag k="name" v="Hestøybogen" />
		<tag k="natural" v="bay" />
		<tag k="ssr:stedsnr" v="321707" />
	</node>
	<node id="-754319" lat="69.1705583303" lon="17.9046499883">
		<tag k="alt_name" v="Sandsneset" />
		<tag k="name" v="Sandneset" />
		<tag k="natural" v="cape" />
		<tag k="ssr:stedsnr" v="321436" />
	</node>
	<node id="-756361" lat="69.5531277827" lon="17.7914388799">
		<tag k="fixme" v="consider seamark:type=rock or natural=shoal" />
		<tag k="name" v="Småfluen" />
		<tag k="place" v="islet" />
		<tag k="ssr:stedsnr" v="655848" />
	</node>
	<node id="-756358" lat="69.1754249994" lon="17.9467333412">
		<tag k="name" v="Langstranda" />
		<tag k="natural" v="beach" />
		<tag k="place" v="locality" />
		<tag k="ssr:stedsnr" v="655736" />
	</node>
	<node id="-756356" lat="69.2408305552" lon="17.9524833204">
		<tag k="name" v="Reinerneset" />
		<tag k="natural" v="cape" />
		<tag k="ssr:stedsnr" v="655658" />
	</node>
	<node id="-756355" lat="69.2713472264" lon="17.9867777644">
		<tag k="name" v="Sarneset" />
		<tag k="natural" v="cape" />
		<tag k="ssr:stedsnr" v="655650" />
	</node>
	<node id="-756353" lat="69.4237972253" lon="17.9976249976">
		<tag k="name" v="Lanesodden" />
		<tag k="natural" v="cape" />
		<tag k="ssr:stedsnr" v="655375" />
	</node>
	<node id="-756348" lat="69.2303944414" lon="18.0039777694">
		<tag k="name" v="Hesjevikneset" />
		<tag k="natural" v="cape" />
		<tag k="ssr:stedsnr" v="655337" />
	</node>
	<node id="-754295" lat="69.215966671" lon="18.0711805512">
		<tag k="fixme" v="consider seamark:type=rock or natural=shoal" />
		<tag k="name" v="Tennskjæret" />
		<tag k="place" v="islet" />
		<tag k="ssr:stedsnr" v="292502" />
	</node>
	<node id="-754293" lat="69.2249111087" lon="18.0857555605">
		<tag k="name" v="Kalvegjerdneset" />
		<tag k="natural" v="cape" />
		<tag k="ssr:stedsnr" v="292429" />
	</node>
	<node id="-756339" lat="69.3064305519" lon="17.9853083214">
		<tag k="name" v="Litjeholmen" />
		<tag k="natural" v="cape" />
		<tag k="ssr:stedsnr" v="655131" />
	</node>
	<node id="-756338" lat="69.3042805584" lon="17.9880944326">
		<tag k="fixme" v="consider seamark:type=rock or natural=shoal" />
		<tag k="name" v="Kobbesteinen" />
		<tag k="place" v="islet" />
		<tag k="ssr:stedsnr" v="655127" />
	</node>
	<node id="-754289" lat="69.3497583327" lon="18.1077222062">
		<tag k="name" v="Leira" />
		<tag k="natural" v="bay" />
		<tag k="ssr:stedsnr" v="292648" />
	</node>
	<node id="-754284" lat="69.5791666642" lon="17.8423361015">
		<tag k="name" v="Torvholmen" />
		<tag k="place" v="islet" />
		<tag k="ssr:stedsnr" v="291817" />
	</node>
	<node id="-754791" lat="69.4030611125" lon="18.0453388805">
		<tag k="name" v="Grunnvågleira" />
		<tag k="natural" v="bay" />
		<tag k="ssr:stedsnr" v="413879" />
	</node>
	<node id="-754280" lat="69.5865805558" lon="17.8574416694">
		<tag k="fixme" v="consider seamark:type=rock or natural=shoal" />
		<tag k="name" v="Straumskjæran" />
		<tag k="place" v="islet" />
		<tag k="ssr:stedsnr" v="291696" />
	</node>
	<node id="-756325" lat="69.1761194449" lon="17.9240166676">
		<tag k="name" v="Vågen" />
		<tag k="natural" v="bay" />
		<tag k="ssr:stedsnr" v="654755" />
	</node>
	<node id="-756322" lat="69.5909916664" lon="17.8521694393">
		<tag k="name" v="Kvalholmen" />
		<tag k="place" v="islet" />
		<tag k="ssr:stedsnr" v="654704" />
	</node>
	<node id="-754273" lat="69.1681694476" lon="17.8908972158">
		<tag k="fixme" v="consider seamark:type=rock or natural=shoal" />
		<tag k="name" v="Krestiansteinen" />
		<tag k="place" v="islet" />
		<tag k="ssr:stedsnr" v="291630" />
	</node>
	<node id="-756319" lat="69.5898361146" lon="17.8382833393">
		<tag k="fixme" v="consider seamark:type=rock or natural=shoal" />
		<tag k="name" v="Tørnskjæret" />
		<tag k="place" v="islet" />
		<tag k="ssr:stedsnr" v="654690" />
	</node>
	<node id="-756318" lat="69.5910333353" lon="17.846902782">
		<tag k="name" v="Kiddholmen" />
		<tag k="place" v="islet" />
		<tag k="ssr:stedsnr" v="654688" />
	</node>
	<node id="-756317" lat="69.5922083317" lon="17.8381611198">
		<tag k="name" v="Tørnholmen" />
		<tag k="place" v="islet" />
		<tag k="ssr:stedsnr" v="654686" />
	</node>
	<node id="-754267" lat="69.2349583332" lon="17.9326111056">
		<tag k="name" v="Kvelvevika" />
		<tag k="natural" v="bay" />
		<tag k="ssr:stedsnr" v="291394" />
	</node>
	<node id="-756314" lat="69.4789527771" lon="18.0422805522">
		<tag k="name" v="Vangsholmen" />
		<tag k="place" v="islet" />
		<tag k="ssr:stedsnr" v="654650" />
	</node>
	<node id="-754265" lat="69.1981777755" lon="17.945802784">
		<tag k="name" v="Vågan" />
		<tag k="natural" v="bay" />
		<tag k="ssr:stedsnr" v="291384" />
	</node>
	<node id="-754264" lat="69.1973861075" lon="17.9497527729">
		<tag k="name" v="Naustneset" />
		<tag k="natural" v="cape" />
		<tag k="ssr:stedsnr" v="291381" />
	</node>
	<node id="-754263" lat="69.1985055582" lon="17.9485333374">
		<tag k="name" v="Holmen" />
		<tag k="natural" v="cape" />
		<tag k="ssr:stedsnr" v="291379" />
	</node>
	<node id="-754262" lat="69.4851166648" lon="17.8875250064">
		<tag k="name" v="Molvika" />
		<tag k="natural" v="bay" />
		<tag k="ssr:stedsnr" v="291359" />
	</node>
	<node id="-756307" lat="69.5318249965" lon="17.9102194309">
		<tag k="name" v="Fjellviksanda" />
		<tag k="natural" v="beach" />
		<tag k="place" v="locality" />
		<tag k="ssr:stedsnr" v="654607" />
	</node>
	<node id="-756298" lat="69.5560527779" lon="17.5954055653">
		<tag k="name" v="Ytre Melholla" />
		<tag k="natural" v="bay" />
		<tag k="ssr:stedsnr" v="654180" />
	</node>
	<node id="-756294" lat="69.5618111081" lon="17.589169437">
		<tag k="fixme" v="consider seamark:type=rock or natural=shoal" />
		<tag k="name" v="Varmesteinen" />
		<tag k="place" v="islet" />
		<tag k="ssr:stedsnr" v="654159" />
	</node>
	<node id="-756293" lat="69.5079722186" lon="17.6612583418">
		<tag k="name" v="Futstolen" />
		<tag k="natural" v="cape" />
		<tag k="ssr:stedsnr" v="654153" />
	</node>
	<node id="-754244" lat="69.5403333331" lon="17.6645444297">
		<tag k="name" v="Øyenden" />
		<tag k="natural" v="cape" />
		<tag k="ssr:stedsnr" v="291133" />
	</node>
	<node id="-754243" lat="69.3037388872" lon="17.9926111012">
		<tag k="name" v="Frislettholmen" />
		<tag k="place" v="islet" />
		<tag k="ssr:stedsnr" v="291107" />
	</node>
	<node id="-756289" lat="69.4519861122" lon="17.8787833228">
		<tag k="name" v="Fjordbotn" />
		<tag k="natural" v="bay" />
		<tag k="ssr:stedsnr" v="654128" />
	</node>
	<node id="-756288" lat="69.5851388848" lon="17.6447777828">
		<tag k="name" v="Rødkeilan" />
		<tag k="natural" v="bay" />
		<tag k="ssr:stedsnr" v="654123" />
	</node>
	<node id="-756287" lat="69.1976916701" lon="18.0023944365">
		<tag k="fixme" v="consider seamark:type=rock or natural=shoal" />
		<tag k="name" v="Klauvskjæret" />
		<tag k="place" v="islet" />
		<tag k="ssr:stedsnr" v="635936" />
	</node>
	<node id="-756286" lat="69.2563888878" lon="17.9990472286">
		<tag k="name" v="Strandjordbukta" />
		<tag k="natural" v="bay" />
		<tag k="ssr:stedsnr" v="635922" />
	</node>
	<node id="-756283" lat="69.1587749996" lon="17.8355777634">
		<tag k="name" v="Solbergnakken" />
		<tag k="natural" v="cape" />
		<tag k="ssr:stedsnr" v="635456" />
	</node>
	<node id="-756280" lat="69.4098611132" lon="18.1199972228">
		<tag k="name" v="Myrstø" />
		<tag k="natural" v="shoal" />
		<tag k="place" v="locality" />
		<tag k="ssr:stedsnr" v="632551" />
	</node>
	<node id="-756279" lat="69.4383055573" lon="17.9704416601">
		<tag k="name" v="Langørbukta" />
		<tag k="natural" v="bay" />
		<tag k="ssr:stedsnr" v="631689" />
	</node>
	<node id="-756277" lat="69.3933638881" lon="18.0610138952">
		<tag k="name" v="Nordnesbukta" />
		<tag k="natural" v="bay" />
		<tag k="ssr:stedsnr" v="631499" />
	</node>
	<node id="-756276" lat="69.3660027808" lon="18.0764833369">
		<tag k="name" v="Lappneset" />
		<tag k="natural" v="cape" />
		<tag k="ssr:stedsnr" v="631494" />
	</node>
	<node id="-756274" lat="69.6495944435" lon="17.7479805635">
		<tag k="name" v="Kvaltjuvan" />
		<tag k="natural" v="shoal" />
		<tag k="place" v="locality" />
		<tag k="ssr:stedsnr" v="625962" />
	</node>
	<node id="-756273" lat="69.5443722235" lon="17.6597222275">
		<tag k="loc_name" v="Husøya" />
		<tag k="name" v="Husøy" />
		<tag k="place" v="island" />
		<tag k="ssr:stedsnr" v="625871" />
	</node>
	<node id="-756269" lat="69.553019448" lon="17.9118805476">
		<tag k="name" v="Leirkjosen" />
		<tag k="natural" v="bay" />
		<tag k="ssr:stedsnr" v="625854" />
	</node>
	<node id="-754217" lat="69.4114916667" lon="17.9931694343">
		<tag k="name" v="Landfastholmen" />
		<tag k="natural" v="cape" />
		<tag k="ssr:stedsnr" v="291411" />
	</node>
	<node id="-754216" lat="69.2470333357" lon="17.9589055573">
		<tag k="name" v="Galtevikklubben" />
		<tag k="natural" v="cape" />
		<tag k="ssr:stedsnr" v="272973" />
	</node>
	<node id="-754215" lat="69.2571611154" lon="17.9978416669">
		<tag k="name" v="Laneset" />
		<tag k="natural" v="cape" />
		<tag k="ssr:stedsnr" v="272920" />
	</node>
	<node id="-756261" lat="69.632444448" lon="17.553013877">
		<tag k="name" v="Stavbåen" />
		<tag k="natural" v="shoal" />
		<tag k="place" v="locality" />
		<tag k="ssr:stedsnr" v="625806" />
	</node>
	<node id="-754212" lat="69.4720611129" lon="18.3131444485">
		<tag k="name" v="Øyra" />
		<tag k="natural" v="cape" />
		<tag k="ssr:stedsnr" v="269777" />
	</node>
	<node id="-756258" lat="69.5820611085" lon="17.8687138778">
		<tag k="name" v="Vindkjosneset" />
		<tag k="natural" v="cape" />
		<tag k="ssr:stedsnr" v="625789" />
	</node>
	<node id="-756249" lat="69.4269500035" lon="18.0799111134">
		<tag k="alt_name" v="Molneset" />
		<tag k="name" v="Molnes" />
		<tag k="natural" v="cape" />
		<tag k="ssr:stedsnr" v="625649" />
	</node>
	<node id="-756248" lat="69.4621194411" lon="18.0173888859">
		<tag k="alt_name" v="Skardsvågklubben" />
		<tag k="name" v="Skarsvågklubben" />
		<tag k="natural" v="cape" />
		<tag k="ssr:stedsnr" v="625625" />
	</node>
	<node id="-756241" lat="69.3040027817" lon="17.9032083366">
		<tag k="alt_name" v="Lakselvnes" />
		<tag k="name" v="Lakselvneset" />
		<tag k="natural" v="cape" />
		<tag k="ssr:stedsnr" v="625550" />
	</node>
	<node id="-756234" lat="69.1768666698" lon="17.9574722219">
		<tag k="name" v="Reipneset" />
		<tag k="natural" v="cape" />
		<tag k="ssr:stedsnr" v="625454" />
	</node>
	<node id="-756232" lat="69.2398305561" lon="17.9455749978">
		<tag k="name" v="Langneset" />
		<tag k="natural" v="cape" />
		<tag k="ssr:stedsnr" v="625435" />
	</node>
	<node id="-756228" lat="69.3393499981" lon="17.9408055636">
		<tag k="name" v="Laneset" />
		<tag k="natural" v="cape" />
		<tag k="ssr:stedsnr" v="625035" />
	</node>
	<node id="-756213" lat="69.2561416667" lon="17.9621777809">
		<tag k="name" v="Brenneset" />
		<tag k="natural" v="cape" />
		<tag k="ssr:stedsnr" v="624596" />
	</node>
	<node id="-756201" lat="69.4653444417" lon="18.2047777789">
		<tag k="name" v="Finnvika" />
		<tag k="natural" v="bay" />
		<tag k="ssr:stedsnr" v="596898" />
	</node>
	<node id="-756197" lat="69.3836527787" lon="18.4542944399">
		<tag k="fixme" v="consider seamark:type=rock or natural=shoal" />
		<tag k="name" v="Skjæret" />
		<tag k="place" v="islet" />
		<tag k="ssr:stedsnr" v="596790" />
	</node>
	<node id="-756194" lat="69.2128138876" lon="18.0737527728">
		<tag k="name" v="Kjosen" />
		<tag k="natural" v="bay" />
		<tag k="ssr:stedsnr" v="596494" />
	</node>
	<node id="-756190" lat="69.2204250023" lon="18.0774305607">
		<tag k="name" v="Revneset" />
		<tag k="natural" v="cape" />
		<tag k="ssr:stedsnr" v="596429" />
	</node>
	<node id="-756175" lat="69.5534777802" lon="17.7929527785">
		<tag k="name" v="Gressvika" />
		<tag k="natural" v="bay" />
		<tag k="ssr:stedsnr" v="594846" />
	</node>
	<node id="-756174" lat="69.3552333337" lon="18.0803277812">
		<tag k="name" v="Gibostadbukta" />
		<tag k="natural" v="bay" />
		<tag k="ssr:stedsnr" v="594830" />
	</node>
	<node id="-756172" lat="69.5793444443" lon="17.8452416667">
		<tag k="name" v="Lyngværkeila" />
		<tag k="natural" v="bay" />
		<tag k="ssr:stedsnr" v="594794" />
	</node>
	<node id="-756169" lat="69.1776722216" lon="17.9622749879">
		<tag k="name" v="Famnevedvika" />
		<tag k="natural" v="bay" />
		<tag k="ssr:stedsnr" v="594730" />
	</node>
	<node id="-756168" lat="69.1741305538" lon="17.9380055639">
		<tag k="name" v="Balsterholla" />
		<tag k="natural" v="bay" />
		<tag k="ssr:stedsnr" v="594728" />
	</node>
	<node id="-756167" lat="69.1731388927" lon="17.9313110987">
		<tag k="name" v="Småsteinvika" />
		<tag k="natural" v="bay" />
		<tag k="ssr:stedsnr" v="594726" />
	</node>
	<node id="-756159" lat="69.4925583303" lon="18.0553027613">
		<tag k="name" v="Kjerkeflua" />
		<tag k="natural" v="cape" />
		<tag k="ssr:stedsnr" v="594640" />
	</node>
	<node id="-755077" lat="69.2931888918" lon="17.9569388906">
		<tag k="name" v="Grasmyrgrunnan" />
		<tag k="natural" v="shoal" />
		<tag k="place" v="locality" />
		<tag k="ssr:stedsnr" v="90678" />
	</node>
	<node id="-756156" lat="69.2759083364" lon="17.8938777812">
		<tag k="name" v="Finnesspira" />
		<tag k="natural" v="cape" />
		<tag k="ssr:stedsnr" v="594608" />
	</node>
	<node id="-756152" lat="69.5195472253" lon="17.9718166555">
		<tag k="fixme" v="consider seamark:type=rock or natural=shoal" />
		<tag k="name" v="Martinadauen" />
		<tag k="place" v="islet" />
		<tag k="ssr:stedsnr" v="594589" />
	</node>
	<node id="-754761" lat="69.5400555583" lon="17.9157277759">
		<tag k="fixme" v="consider seamark:type=rock or natural=shoal" />
		<tag k="name" v="Elveskjæran" />
		<tag k="place" v="islet" />
		<tag k="ssr:stedsnr" v="898494" />
	</node>
	<node id="-756146" lat="69.4737722211" lon="18.0206111177">
		<tag k="name" v="Vangsbukta" />
		<tag k="natural" v="bay" />
		<tag k="ssr:stedsnr" v="594324" />
	</node>
	<node id="-756144" lat="69.521491666" lon="17.6878194487">
		<tag k="fixme" v="consider seamark:type=rock or natural=shoal" />
		<tag k="name" v="Gamsteinen" />
		<tag k="place" v="islet" />
		<tag k="ssr:stedsnr" v="594256" />
	</node>
	<node id="-756142" lat="69.485966668" lon="17.6640972135">
		<tag k="name" v="Hamna" />
		<tag k="natural" v="bay" />
		<tag k="ssr:stedsnr" v="594230" />
	</node>
	<node id="-756139" lat="69.5606527741" lon="17.5891500037">
		<tag k="fixme" v="consider seamark:type=rock or natural=shoal" />
		<tag k="name" v="Karisteinen" />
		<tag k="place" v="islet" />
		<tag k="ssr:stedsnr" v="594178" />
	</node>
	<node id="-756136" lat="69.5988249958" lon="17.6839555558">
		<tag k="fixme" v="consider seamark:type=rock or natural=shoal" />
		<tag k="name" v="Auskjæret" />
		<tag k="place" v="islet" />
		<tag k="ssr:stedsnr" v="594149" />
	</node>
	<node id="-756135" lat="69.5975083308" lon="17.6865277836">
		<tag k="name" v="Nøringskeila" />
		<tag k="natural" v="bay" />
		<tag k="ssr:stedsnr" v="594150" />
	</node>
	<node id="-756134" lat="69.5943916639" lon="17.635111101">
		<tag k="name" v="Stedja" />
		<tag k="natural" v="cape" />
		<tag k="ssr:stedsnr" v="594144" />
	</node>
	<node id="-756123" lat="69.5716944409" lon="17.8159416505">
		<tag k="name" v="Indre Astrineset" />
		<tag k="natural" v="cape" />
		<tag k="ssr:stedsnr" v="593752" />
	</node>
	<node id="-756121" lat="69.4075999989" lon="17.972138898">
		<tag k="name" v="Tverrbotn" />
		<tag k="natural" v="bay" />
		<tag k="ssr:stedsnr" v="593683" />
	</node>
	<node id="-754755" lat="69.2273694469" lon="17.9868694468">
		<tag k="name" v="Karoliusbukta" />
		<tag k="natural" v="bay" />
		<tag k="ssr:stedsnr" v="898339" />
	</node>
	<node id="-756109" lat="69.4433694441" lon="18.0229111137">
		<tag k="name" v="Storvikneset" />
		<tag k="natural" v="cape" />
		<tag k="ssr:stedsnr" v="593377" />
	</node>
	<node id="-756104" lat="69.4564527745" lon="18.1352722077">
		<tag k="alt_name" v="Rødbergsodden, l" />
		<tag k="name" v="Lille Rødbergsodden" />
		<tag k="natural" v="cape" />
		<tag k="ssr:stedsnr" v="581847" />
	</node>
	<node id="-756102" lat="69.3239361102" lon="17.9119138884">
		<tag k="name" v="Kjosen" />
		<tag k="natural" v="bay" />
		<tag k="ssr:stedsnr" v="575695" />
	</node>
	<node id="-756096" lat="69.5071333306" lon="17.9067861179">
		<tag k="name" v="Hamnneset" />
		<tag k="natural" v="cape" />
		<tag k="ssr:stedsnr" v="571439" />
	</node>
	<node id="-756095" lat="69.4722916685" lon="18.1863805461">
		<tag k="name" v="Aglapsbåan" />
		<tag k="place" v="locality" />
		<tag k="seamark:type" v="rock" />
		<tag k="ssr:stedsnr" v="570677" />
	</node>
	<node id="-756093" lat="69.3022138915" lon="17.8963027858">
		<tag k="name" v="Lakselvbukta" />
		<tag k="natural" v="bay" />
		<tag k="ssr:stedsnr" v="566241" />
	</node>
	<node id="-756091" lat="69.6430972257" lon="17.5401583412">
		<tag k="name" v="Surfallet" />
		<tag k="natural" v="shoal" />
		<tag k="place" v="locality" />
		<tag k="ssr:stedsnr" v="564971" />
	</node>
	<node id="-756090" lat="69.5148583332" lon="17.6585999853">
		<tag k="name" v="Keipneset" />
		<tag k="natural" v="cape" />
		<tag k="ssr:stedsnr" v="564840" />
	</node>
	<node id="-754751" lat="69.4869416687" lon="17.6606444548">
		<tag k="name" v="Kvannhollneset" />
		<tag k="natural" v="cape" />
		<tag k="ssr:stedsnr" v="898218" />
	</node>
	<node id="-756086" lat="69.2893916645" lon="18.229955552">
		<tag k="name" v="Litjeholmen" />
		<tag k="place" v="islet" />
		<tag k="ssr:stedsnr" v="564816" />
	</node>
	<node id="-756084" lat="69.6126277791" lon="17.6583722202">
		<tag k="name" v="Melsbåen" />
		<tag k="natural" v="shoal" />
		<tag k="place" v="locality" />
		<tag k="ssr:stedsnr" v="564808" />
	</node>
	<node id="-756081" lat="69.6273111137" lon="17.5882666671">
		<tag k="name" v="Steingrunnen" />
		<tag k="natural" v="shoal" />
		<tag k="place" v="locality" />
		<tag k="ssr:stedsnr" v="564783" />
	</node>
	<node id="-754749" lat="69.5716722185" lon="17.5557166759">
		<tag k="name" v="Støa" />
		<tag k="natural" v="bay" />
		<tag k="ssr:stedsnr" v="898165" />
	</node>
	<node id="-756076" lat="69.5899972257" lon="17.8521472261">
		<tag k="name" v="Klubbholmen" />
		<tag k="place" v="islet" />
		<tag k="ssr:stedsnr" v="564744" />
	</node>
	<node id="-756073" lat="69.5906527806" lon="17.8552722206">
		<tag k="alt_name" v="Herranflua" />
		<tag k="name" v="Heranflua" />
		<tag k="natural" v="shoal" />
		<tag k="place" v="locality" />
		<tag k="ssr:stedsnr" v="564737" />
	</node>
	<node id="-754748" lat="69.5110722258" lon="17.7037583443">
		<tag k="name" v="Sørvika" />
		<tag k="natural" v="bay" />
		<tag k="ssr:stedsnr" v="898158" />
	</node>
	<node id="-756068" lat="69.1910166703" lon="18.0029500001">
		<tag k="alt_name" v="Klauva" />
		<tag k="name" v="Klauvfjorden" />
		<tag k="natural" v="bay" />
		<tag k="ssr:stedsnr" v="564706" />
	</node>
	<node id="-756061" lat="69.443580556" lon="18.0463583363">
		<tag k="alt_name" v="Årnes, ytre" />
		<tag k="name" v="Ytre Årnes" />
		<tag k="natural" v="cape" />
		<tag k="ssr:stedsnr" v="564671" />
	</node>
	<node id="-754746" lat="69.6002638868" lon="17.6239916707">
		<tag k="fixme" v="consider seamark:type=rock or natural=shoal" />
		<tag k="name" v="Fuglnessteinen" />
		<tag k="place" v="islet" />
		<tag k="ssr:stedsnr" v="898125" />
	</node>
	<node id="-754745" lat="69.3115083344" lon="17.9877222198">
		<tag k="name" v="Naustgrunnen" />
		<tag k="natural" v="shoal" />
		<tag k="place" v="locality" />
		<tag k="ssr:stedsnr" v="898110" />
	</node>
	<node id="-756052" lat="69.2898694456" lon="17.9214861121">
		<tag k="alt_name" v="Nordodden" />
		<tag k="name" v="Gjerdodden" />
		<tag k="natural" v="cape" />
		<tag k="ssr:stedsnr" v="564610" />
	</node>
	<node id="-756049" lat="69.3264777825" lon="17.9835444384">
		<tag k="alt_name" v="Kobberøyra" />
		<tag k="fixme" v="consider seamark:type=rock or natural=shoal" />
		<tag k="name" v="Kobbeøyra" />
		<tag k="place" v="islet" />
		<tag k="ssr:stedsnr" v="564582" />
	</node>
	<node id="-754744" lat="69.310272224" lon="18.0033305439">
		<tag k="name" v="Stillebukta" />
		<tag k="natural" v="bay" />
		<tag k="ssr:stedsnr" v="898109" />
	</node>
	<node id="-756041" lat="69.4592277798" lon="17.8391499957">
		<tag k="name" v="Hundbergneset" />
		<tag k="natural" v="cape" />
		<tag k="ssr:stedsnr" v="564506" />
	</node>
	<node id="-756038" lat="69.1686999999" lon="17.9367888842">
		<tag k="name" v="Storegrunnen" />
		<tag k="natural" v="shoal" />
		<tag k="place" v="locality" />
		<tag k="ssr:stedsnr" v="564456" />
	</node>
	<node id="-754391" lat="69.2694305544" lon="17.9441972282">
		<tag k="name" v="Antonvågen" />
		<tag k="natural" v="bay" />
		<tag k="ssr:stedsnr" v="332839" />
	</node>
	<node id="-754400" lat="69.5940555569" lon="17.6838999922">
		<tag k="name" v="Auevika" />
		<tag k="natural" v="bay" />
		<tag k="ssr:stedsnr" v="351138" />
	</node>
	<node id="-756026" lat="69.4802694462" lon="18.2905111096">
		<tag k="fixme" v="consider seamark:type=rock or natural=shoal" />
		<tag k="name" v="Litjevikskjæret" />
		<tag k="place" v="islet" />
		<tag k="ssr:stedsnr" v="535976" />
	</node>
	<node id="-756015" lat="69.3788888852" lon="18.4698277646">
		<tag k="name" v="Jordbukta" />
		<tag k="natural" v="bay" />
		<tag k="ssr:stedsnr" v="535859" />
	</node>
	<node id="-756001" lat="69.4124777755" lon="18.1622694317">
		<tag k="name" v="Presthella" />
		<tag k="natural" v="beach" />
		<tag k="place" v="locality" />
		<tag k="ssr:stedsnr" v="535675" />
	</node>
	<node id="-756000" lat="69.4641888887" lon="18.1688555454">
		<tag k="name" v="Rødbergvika" />
		<tag k="natural" v="bay" />
		<tag k="ssr:stedsnr" v="535669" />
	</node>
	<node id="-755997" lat="69.3495027789" lon="18.1031277773">
		<tag k="name" v="Holmespissen" />
		<tag k="natural" v="cape" />
		<tag k="ssr:stedsnr" v="535650" />
	</node>
	<node id="-754393" lat="69.1932500039" lon="18.0077027656">
		<tag k="name" v="Nordhamna" />
		<tag k="natural" v="bay" />
		<tag k="ssr:stedsnr" v="332925" />
	</node>
	<node id="-755986" lat="69.2145916641" lon="18.0578944289">
		<tag k="name" v="Stormola" />
		<tag k="natural" v="bay" />
		<tag k="ssr:stedsnr" v="535541" />
	</node>
	<node id="-755977" lat="69.5557555524" lon="17.7912749999">
		<tag k="name" v="Sjyholla" />
		<tag k="natural" v="bay" />
		<tag k="ssr:stedsnr" v="534844" />
	</node>
	<node id="-755073" lat="69.514044448" lon="17.9424000098">
		<tag k="name" v="Rødvika" />
		<tag k="natural" v="bay" />
		<tag k="ssr:stedsnr" v="86563" />
	</node>
	<node id="-755971" lat="69.2745972185" lon="17.9072888891">
		<tag k="name" v="Andreasbukta" />
		<tag k="natural" v="bay" />
		<tag k="ssr:stedsnr" v="534635" />
	</node>
	<node id="-755970" lat="69.273149996" lon="17.8918638941">
		<tag k="name" v="Finnbotn" />
		<tag k="natural" v="bay" />
		<tag k="ssr:stedsnr" v="534634" />
	</node>
	<node id="-755969" lat="69.2034805567" lon="17.930000003">
		<tag k="name" v="Hestebukta" />
		<tag k="natural" v="bay" />
		<tag k="ssr:stedsnr" v="534369" />
	</node>
	<node id="-755968" lat="69.2337166672" lon="17.8982527793">
		<tag k="name" v="Evenbukta" />
		<tag k="natural" v="bay" />
		<tag k="ssr:stedsnr" v="534362" />
	</node>
	<node id="-754389" lat="69.409466664" lon="18.3562083355">
		<tag k="name" v="Sagelvbukta" />
		<tag k="natural" v="bay" />
		<tag k="ssr:stedsnr" v="329606" />
	</node>
	<node id="-755963" lat="69.2258861096" lon="17.9740249844">
		<tag k="name" v="Henrikstøa" />
		<tag k="natural" v="bay" />
		<tag k="ssr:stedsnr" v="534342" />
	</node>
	<node id="-756980" lat="69.4055305542" lon="18.0248555577">
		<tag k="name" v="Grunnvågseidet" />
		<tag k="place" v="locality" />
		<tag k="ssr:stedsnr" v="868661" />
	</node>
	<node id="-754593" lat="69.5162611107" lon="17.914458331">
		<tag k="name" v="Litjeneset" />
		<tag k="natural" v="cape" />
		<tag k="ssr:stedsnr" v="410127" />
	</node>
	<node id="-755956" lat="69.5664416676" lon="17.8466860977">
		<tag k="name" v="Kvalvika" />
		<tag k="natural" v="bay" />
		<tag k="ssr:stedsnr" v="533840" />
	</node>
	<node id="-755955" lat="69.5687611077" lon="17.8419499911">
		<tag k="fixme" v="consider seamark:type=rock or natural=shoal" />
		<tag k="name" v="Krona" />
		<tag k="place" v="islet" />
		<tag k="ssr:stedsnr" v="533837" />
	</node>
	<node id="-755948" lat="69.5829055582" lon="17.8593416531">
		<tag k="fixme" v="consider seamark:type=rock or natural=shoal" />
		<tag k="name" v="Vindkjosskjæret" />
		<tag k="place" v="islet" />
		<tag k="ssr:stedsnr" v="533717" />
	</node>
	<node id="-755938" lat="69.3847861127" lon="18.0528388842">
		<tag k="name" v="Tjeldholmen" />
		<tag k="place" v="islet" />
		<tag k="ssr:stedsnr" v="533643" />
	</node>
	<node id="-755935" lat="69.5169805548" lon="17.9855833237">
		<tag k="name" v="Skjørholneset" />
		<tag k="natural" v="cape" />
		<tag k="ssr:stedsnr" v="533626" />
	</node>
	<node id="-755931" lat="69.3369194435" lon="17.9350666511">
		<tag k="name" v="Utleira" />
		<tag k="natural" v="shoal" />
		<tag k="place" v="locality" />
		<tag k="ssr:stedsnr" v="533557" />
	</node>
	<node id="-755930" lat="69.1597000038" lon="17.8432110978">
		<tag k="name" v="Nakken" />
		<tag k="natural" v="cape" />
		<tag k="ssr:stedsnr" v="533550" />
	</node>
	<node id="-755929" lat="69.5028694413" lon="18.0225499843">
		<tag k="name" v="Revvneset" />
		<tag k="natural" v="cape" />
		<tag k="ssr:stedsnr" v="533522" />
	</node>
	<node id="-755928" lat="69.5580083327" lon="17.911269436">
		<tag k="fixme" v="consider seamark:type=rock or natural=shoal" />
		<tag k="name" v="Benkestokkan" />
		<tag k="place" v="islet" />
		<tag k="ssr:stedsnr" v="533515" />
	</node>
	<node id="-756416" lat="69.2159999963" lon="17.8940083339">
		<tag k="alt_name" v="Lavika" />
		<tag k="name" v="Krokelvbukta" />
		<tag k="natural" v="bay" />
		<tag k="ssr:stedsnr" v="686410" />
	</node>
	<node id="-755915" lat="69.5144305512" lon="17.6286166688">
		<tag k="name" v="Tørrtofta" />
		<tag k="natural" v="cape" />
		<tag k="ssr:stedsnr" v="533219" />
	</node>
	<node id="-755910" lat="69.5553861082" lon="17.5989555575">
		<tag k="name" v="Hestegompen" />
		<tag k="natural" v="beach" />
		<tag k="place" v="locality" />
		<tag k="ssr:stedsnr" v="533184" />
	</node>
	<node id="-755062" lat="69.3050277741" lon="18.3499777727">
		<tag k="name" v="Fornesodden" />
		<tag k="natural" v="cape" />
		<tag k="ssr:stedsnr" v="79784" />
	</node>
	<node id="-755903" lat="69.5699611131" lon="17.5687694426">
		<tag k="name" v="Musvikneset" />
		<tag k="natural" v="cape" />
		<tag k="ssr:stedsnr" v="533157" />
	</node>
	<node id="-755901" lat="69.4496027767" lon="17.8780583281">
		<tag k="name" v="Klubbevika" />
		<tag k="natural" v="bay" />
		<tag k="ssr:stedsnr" v="533135" />
	</node>
	<node id="-755900" lat="69.5174388904" lon="17.7089833421">
		<tag k="name" v="Indre Husa" />
		<tag k="natural" v="bay" />
		<tag k="ssr:stedsnr" v="533131" />
	</node>
	<node id="-755899" lat="69.5893999991" lon="17.6997527795">
		<tag k="name" v="Spanskebukta" />
		<tag k="natural" v="bay" />
		<tag k="ssr:stedsnr" v="533125" />
	</node>
	<node id="-755898" lat="69.5463138891" lon="17.6602222159">
		<tag k="name" v="Øyneset" />
		<tag k="natural" v="cape" />
		<tag k="ssr:stedsnr" v="533118" />
	</node>
	<node id="-755060" lat="69.6277472243" lon="17.698088879">
		<tag k="fixme" v="consider seamark:type=rock or natural=shoal" />
		<tag k="name" v="Storflua" />
		<tag k="place" v="islet" />
		<tag k="ssr:stedsnr" v="79778" />
	</node>
	<node id="-755893" lat="69.2022166692" lon="17.9328027812">
		<tag k="name" v="Giltarneset" />
		<tag k="natural" v="cape" />
		<tag k="ssr:stedsnr" v="514960" />
	</node>
	<node id="-755892" lat="69.1999027751" lon="17.9808360955">
		<tag k="name" v="Storvikodden" />
		<tag k="natural" v="cape" />
		<tag k="ssr:stedsnr" v="514956" />
	</node>
	<node id="-755891" lat="69.1790055524" lon="18.0036527742">
		<tag k="name" v="Ryggen" />
		<tag k="natural" v="shoal" />
		<tag k="place" v="locality" />
		<tag k="ssr:stedsnr" v="514934" />
	</node>
	<node id="-755888" lat="69.5857249962" lon="17.8587666618">
		<tag k="alt_name" v="Straumholla" />
		<tag k="name" v="Straumholet" />
		<tag k="natural" v="strait" />
		<tag k="ssr:stedsnr" v="511421" />
	</node>
	<node id="-755887" lat="69.3425972237" lon="17.9817777714">
		<tag k="name" v="Selbuneset" />
		<tag k="natural" v="cape" />
		<tag k="ssr:stedsnr" v="510534" />
	</node>
	<node id="-755886" lat="69.4070611131" lon="17.9916944541">
		<tag k="name" v="Pollen" />
		<tag k="natural" v="bay" />
		<tag k="ssr:stedsnr" v="510517" />
	</node>
	<node id="-755885" lat="69.5801138896" lon="17.877677781">
		<tag k="name" v="Eldstadvika" />
		<tag k="natural" v="bay" />
		<tag k="ssr:stedsnr" v="510396" />
	</node>
	<node id="-755883" lat="69.3475944422" lon="18.0265333244">
		<tag k="alt_name" v="Skreddarnes" />
		<tag k="name" v="Sommersetneset" />
		<tag k="natural" v="cape" />
		<tag k="ssr:stedsnr" v="506241" />
	</node>
	<node id="-755880" lat="69.5396916674" lon="17.9589055573">
		<tag k="name" v="Kjelleryggen" />
		<tag k="natural" v="shoal" />
		<tag k="place" v="locality" />
		<tag k="ssr:stedsnr" v="504858" />
	</node>
	<node id="-755879" lat="69.5592416676" lon="17.7949388758">
		<tag k="fixme" v="consider seamark:type=rock or natural=shoal" />
		<tag k="name" v="Kvalvikskjæret" />
		<tag k="place" v="islet" />
		<tag k="ssr:stedsnr" v="504850" />
	</node>
	<node id="-754374" lat="69.6221555586" lon="17.7109472263">
		<tag k="name" v="Ormen" />
		<tag k="natural" v="shoal" />
		<tag k="place" v="locality" />
		<tag k="ssr:stedsnr" v="322790" />
	</node>
	<node id="-755871" lat="69.6150861107" lon="17.7928249876">
		<tag k="fixme" v="multiple name tags, choose one and add the other to alt_name; consider seamark:type=rock or natural=shoal" />
		<tag k="name" v="Tronskjæran;Tronskjær" />
		<tag k="place" v="islet" />
		<tag k="ssr:stedsnr" v="504793" />
	</node>
	<node id="-755867" lat="69.591783333" lon="17.6658916697">
		<tag k="alt_name" v="Kampvika" />
		<tag k="name" v="Kampevika" />
		<tag k="natural" v="bay" />
		<tag k="ssr:stedsnr" v="504753" />
	</node>
	<node id="-755854" lat="69.465191664" lon="17.974258331">
		<tag k="name" v="Skuovlonjárga" />
		<tag k="name:se" v="Skuovlonjárga" />
		<tag k="natural" v="cape" />
		<tag k="old_name:se" v="Skuovlungjarga" />
		<tag k="ssr:stedsnr" v="504445" />
	</node>
	<node id="-755852" lat="69.2321305556" lon="17.972527775">
		<tag k="alt_name" v="Nordre Harrevika" />
		<tag k="name" v="Harevika" />
		<tag k="natural" v="bay" />
		<tag k="ssr:stedsnr" v="504410" />
	</node>
	<node id="-755849" lat="69.2146888888" lon="17.9066916651">
		<tag k="name" v="Lavika" />
		<tag k="natural" v="bay" />
		<tag k="ssr:stedsnr" v="504364" />
	</node>
	<node id="-755848" lat="69.216172223" lon="17.903202766">
		<tag k="name" v="Laneset" />
		<tag k="natural" v="cape" />
		<tag k="ssr:stedsnr" v="504362" />
	</node>
	<node id="-755052" lat="69.5704083367" lon="17.8155972287">
		<tag k="name" v="Bjørnebergbukta" />
		<tag k="natural" v="bay" />
		<tag k="ssr:stedsnr" v="79742" />
	</node>
	<node id="-755846" lat="69.630688891" lon="17.6969361119">
		<tag k="fixme" v="consider seamark:type=rock or natural=shoal" />
		<tag k="name" v="Kjerringskjæret" />
		<tag k="place" v="islet" />
		<tag k="ssr:stedsnr" v="503751" />
	</node>
	<node id="-755845" lat="69.634166663" lon="17.5433333367">
		<tag k="alt_name" v="Ramnen, s" />
		<tag k="name" v="Søre Ramnen" />
		<tag k="natural" v="shoal" />
		<tag k="place" v="locality" />
		<tag k="ssr:stedsnr" v="503746" />
	</node>
	<node id="-755839" lat="69.3536361103" lon="18.4902833232">
		<tag k="alt_name" v="Mellemvika" />
		<tag k="name" v="Mellomvika" />
		<tag k="natural" v="bay" />
		<tag k="ssr:stedsnr" v="503704" />
	</node>
	<node id="-754930" lat="69.5254166654" lon="17.6765416653">
		<tag k="fixme" v="consider seamark:type=rock or natural=shoal" />
		<tag k="name" v="Kobbesteinen" />
		<tag k="place" v="islet" />
		<tag k="ssr:stedsnr" v="48222" />
	</node>
	<node id="-754589" lat="69.2659805535" lon="17.9949333229">
		<tag k="name" v="Øyra" />
		<tag k="natural" v="cape" />
		<tag k="ssr:stedsnr" v="393735" />
	</node>
	<node id="-755828" lat="69.4834055519" lon="17.8877500024">
		<tag k="name" v="Finneset" />
		<tag k="natural" v="cape" />
		<tag k="ssr:stedsnr" v="503456" />
	</node>
	<node id="-755809" lat="69.5655527754" lon="17.851724999">
		<tag k="name" v="Vikan" />
		<tag k="natural" v="bay" />
		<tag k="ssr:stedsnr" v="472819" />
	</node>
	<node id="-755802" lat="69.4061833336" lon="18.000836106">
		<tag k="name" v="Kjosen" />
		<tag k="natural" v="bay" />
		<tag k="ssr:stedsnr" v="472678" />
	</node>
	<node id="-755801" lat="69.5980555585" lon="17.810536107">
		<tag k="name" v="Leivklubben" />
		<tag k="natural" v="cape" />
		<tag k="ssr:stedsnr" v="472671" />
	</node>
	<node id="-755798" lat="69.5018111113" lon="18.0288527716">
		<tag k="name" v="Rævneset" />
		<tag k="natural" v="cape" />
		<tag k="ssr:stedsnr" v="472632" />
	</node>
	<node id="-755782" lat="69.5414777821" lon="17.6745805565">
		<tag k="name" v="Skredneset" />
		<tag k="natural" v="cape" />
		<tag k="ssr:stedsnr" v="472178" />
	</node>
	<node id="-755780" lat="69.5910472225" lon="17.6975916773">
		<tag k="name" v="Kubukta" />
		<tag k="natural" v="bay" />
		<tag k="ssr:stedsnr" v="472127" />
	</node>
	<node id="-755777" lat="69.5624916653" lon="17.729400005">
		<tag k="alt_name" v="Gammelsjyen" />
		<tag k="name" v="Gammelsjøen" />
		<tag k="natural" v="cape" />
		<tag k="ssr:stedsnr" v="471288" />
	</node>
	<node id="-755776" lat="69.5719888871" lon="17.7210527673">
		<tag k="alt_name" v="Korsbåan" />
		<tag k="name" v="Korsbåen" />
		<tag k="place" v="locality" />
		<tag k="seamark:type" v="rock" />
		<tag k="ssr:stedsnr" v="471285" />
	</node>
	<node id="-755775" lat="69.2339888929" lon="17.9719527677">
		<tag k="name" v="Bjørnhineset" />
		<tag k="natural" v="cape" />
		<tag k="ssr:stedsnr" v="454997" />
	</node>
	<node id="-755774" lat="69.1729361114" lon="17.9179138739">
		<tag k="name" v="Silsandgrunnen" />
		<tag k="natural" v="shoal" />
		<tag k="place" v="locality" />
		<tag k="ssr:stedsnr" v="454491" />
	</node>
	<node id="-755773" lat="69.2342388908" lon="17.9601222186">
		<tag k="fixme" v="consider seamark:type=rock or natural=shoal" />
		<tag k="name" v="Finnsnesskjæret" />
		<tag k="place" v="islet" />
		<tag k="ssr:stedsnr" v="454386" />
	</node>
	<node id="-755770" lat="69.4481638881" lon="18.1390833178">
		<tag k="name" v="Litjehamna" />
		<tag k="natural" v="bay" />
		<tag k="ssr:stedsnr" v="450708" />
	</node>
	<node id="-755767" lat="69.5976194473" lon="17.837569434">
		<tag k="name" v="Svinvika" />
		<tag k="natural" v="bay" />
		<tag k="ssr:stedsnr" v="450293" />
	</node>
	<node id="-755766" lat="69.5932555526" lon="17.8299138933">
		<tag k="name" v="Sylvika" />
		<tag k="natural" v="bay" />
		<tag k="ssr:stedsnr" v="450291" />
	</node>
	<node id="-755765" lat="69.4870472217" lon="17.8740916758">
		<tag k="bay" v="fjord" />
		<tag k="name" v="Stønesbotn - Stohpovuotna" />
		<tag k="name:no" v="Stønesbotn" />
		<tag k="name:se" v="Stohpovuotna" />
		<tag k="natural" v="bay" />
		<tag k="old_name:se" v="Ståppuvuodna" />
		<tag k="ssr:stedsnr" v="446478" />
	</node>
	<node id="-755760" lat="69.5482638879" lon="17.7940527642">
		<tag k="name" v="Småsandneset" />
		<tag k="natural" v="cape" />
		<tag k="ssr:stedsnr" v="443825" />
	</node>
	<node id="-755752" lat="69.6326694423" lon="17.6123083185">
		<tag k="name" v="Purkegrunnen" />
		<tag k="natural" v="shoal" />
		<tag k="place" v="locality" />
		<tag k="ssr:stedsnr" v="443768" />
	</node>
	<node id="-756632" lat="69.3979277805" lon="18.0665388802">
		<tag k="name" v="Klubben" />
		<tag k="natural" v="cape" />
		<tag k="ssr:stedsnr" v="753469" />
	</node>
	<node id="-754586" lat="69.1591361066" lon="17.8749000077">
		<tag k="name" v="Madsklakken" />
		<tag k="natural" v="shoal" />
		<tag k="place" v="locality" />
		<tag k="ssr:stedsnr" v="393507" />
	</node>
	<node id="-755035" lat="69.4423361085" lon="18.1508944428">
		<tag k="name" v="Lenvika" />
		<tag k="natural" v="bay" />
		<tag k="ssr:stedsnr" v="79629" />
	</node>
	<node id="-755743" lat="69.5788277778" lon="17.8834722227">
		<tag k="alt_name" v="Matholman, yt;Ytre Matholman" />
		<tag k="name" v="Ytre Matholmen" />
		<tag k="place" v="islet" />
		<tag k="ssr:stedsnr" v="443737" />
	</node>
	<node id="-755742" lat="69.5954861096" lon="17.6882083226">
		<tag k="name" v="Nøringen" />
		<tag k="natural" v="cape" />
		<tag k="ssr:stedsnr" v="443729" />
	</node>
	<node id="-755736" lat="69.3847194471" lon="18.1156250036">
		<tag k="name" v="Forberget" />
		<tag k="natural" v="cape" />
		<tag k="ssr:stedsnr" v="443672" />
	</node>
	<node id="-755723" lat="69.4319333344" lon="17.9634666632">
		<tag k="alt_name" v="Lysnes, midtre" />
		<tag k="name" v="Midtre Lysnes" />
		<tag k="natural" v="cape" />
		<tag k="ssr:stedsnr" v="443462" />
	</node>
	<node id="-755719" lat="69.4388000045" lon="18.0625166577">
		<tag k="name" v="Finneset" />
		<tag k="natural" v="cape" />
		<tag k="ssr:stedsnr" v="443038" />
	</node>
	<node id="-754689" lat="69.2147222262" lon="18.0724111157">
		<tag k="name" v="Kattholmen" />
		<tag k="place" v="islet" />
		<tag k="ssr:stedsnr" v="474528" />
	</node>
</osm>
