<?xml version="1.0" encoding="UTF-8"?>
<osm generator="osmapis" version="0.6">
	<node id="-754687" lat="69.2360666695" lon="18.0370750039">
		<tag k="name" v="Holtet" />
		<tag k="place" v="locality" />
		<tag k="ssr:stedsnr" v="474448" />
	</node>
	<node id="-756732" lat="69.3574083306" lon="18.4633416563">
		<tag k="name" v="Fjellmyra" />
		<tag k="natural" v="wetland" />
		<tag k="ssr:stedsnr" v="778825" />
	</node>
	<node id="-755705" lat="69.3862472228" lon="18.2593110959">
		<tag k="name" v="Kråene" />
		<tag k="natural" v="wetland" />
		<tag k="ssr:stedsnr" v="414877" />
	</node>
	<node id="-756728" lat="69.3848250003" lon="18.4340361015">
		<tag k="name" v="Oterurene" />
		<tag k="natural" v="scree" />
		<tag k="ssr:stedsnr" v="778799" />
	</node>
	<node id="-754679" lat="69.5768111086" lon="17.7073305513">
		<tag k="name" v="Renneskogen" />
		<tag k="place" v="locality" />
		<tag k="ssr:stedsnr" v="473802" />
	</node>
	<node id="-754676" lat="69.2206472255" lon="17.8711138985">
		<tag k="name" v="Flottmyra" />
		<tag k="natural" v="wetland" />
		<tag k="ssr:stedsnr" v="473684" />
	</node>
	<node id="-756723" lat="69.3056138853" lon="18.3336527714">
		<tag k="name" v="Langmyra" />
		<tag k="natural" v="wetland" />
		<tag k="ssr:stedsnr" v="778712" />
	</node>
	<node id="-754674" lat="69.2408305552" lon="17.9524833204">
		<tag k="name" v="Rødmyra" />
		<tag k="natural" v="wetland" />
		<tag k="ssr:stedsnr" v="473673" />
	</node>
	<node id="-754600" lat="69.2502972236" lon="17.6838166678">
		<tag k="name" v="Langmyra" />
		<tag k="natural" v="wetland" />
		<tag k="ssr:stedsnr" v="412050" />
	</node>
	<node id="-754667" lat="69.4202416695" lon="18.0148361093">
		<tag k="name" v="Lanesmyrene" />
		<tag k="natural" v="wetland" />
		<tag k="ssr:stedsnr" v="473409" />
	</node>
	<node id="-755689" lat="69.2412944451" lon="18.1120250035">
		<tag k="name" v="Sandbanken" />
		<tag k="natural" v="beach" />
		<tag k="ssr:stedsnr" v="414624" />
		<tag k="surface" v="sand" />
	</node>
	<node id="-756709" lat="69.3246555584" lon="18.2979555456">
		<tag k="name" v="Mosemyra" />
		<tag k="natural" v="wetland" />
		<tag k="ssr:stedsnr" v="777852" />
	</node>
	<node id="-754658" lat="69.4534916684" lon="17.995977785">
		<tag k="name" v="Torbergmyra" />
		<tag k="natural" v="wetland" />
		<tag k="ssr:stedsnr" v="473329" />
	</node>
	<node id="-754653" lat="69.5701027782" lon="17.5577194412">
		<tag k="name" v="Jordsteinen" />
		<tag k="natural" v="stone" />
		<tag k="ssr:stedsnr" v="473186" />
	</node>
	<node id="-754650" lat="69.3050527807" lon="18.0015916652">
		<tag k="name" v="Kjerrenesholtet" />
		<tag k="place" v="locality" />
		<tag k="ssr:stedsnr" v="413076" />
	</node>
	<node id="-756693" lat="69.3949666662" lon="17.8676888911">
		<tag k="name" v="Steinen" />
		<tag k="natural" v="stone" />
		<tag k="ssr:stedsnr" v="776851" />
	</node>
	<node id="-756180" lat="69.2972194417" lon="18.0242166575">
		<tag k="name" v="Kvitmyra" />
		<tag k="natural" v="wetland" />
		<tag k="ssr:stedsnr" v="595621" />
	</node>
	<node id="-754510" lat="69.447455553" lon="17.9622527747">
		<tag k="alt_name" v="Lysnesmyrene" />
		<tag k="name" v="Lysnesmyran" />
		<tag k="natural" v="wetland" />
		<tag k="ssr:stedsnr" v="382436" />
	</node>
	<node id="-754642" lat="69.5446611087" lon="17.7491999907">
		<tag k="name" v="Lensmannsura" />
		<tag k="natural" v="scree" />
		<tag k="ssr:stedsnr" v="412796" />
	</node>
	<node id="-755152" lat="69.2780777744" lon="17.9931805495">
		<tag k="name" v="Finnemyra" />
		<tag k="natural" v="wetland" />
		<tag k="ssr:stedsnr" v="109595" />
	</node>
	<node id="-755148" lat="69.2695750013" lon="17.9255694515">
		<tag k="name" v="Rødmyra" />
		<tag k="natural" v="wetland" />
		<tag k="ssr:stedsnr" v="109575" />
	</node>
	<node id="-756683" lat="69.3002638884" lon="17.838927775">
		<tag k="name" v="Steiksildmyra" />
		<tag k="natural" v="wetland" />
		<tag k="ssr:stedsnr" v="776651" />
	</node>
	<node id="-754632" lat="69.284555558" lon="17.7658444368">
		<tag k="name" v="Lommyra" />
		<tag k="natural" v="wetland" />
		<tag k="ssr:stedsnr" v="412607" />
	</node>
	<node id="-756165" lat="69.1874333316" lon="17.9264694328">
		<tag k="name" v="Botnlausmyra" />
		<tag k="natural" v="wetland" />
		<tag k="ssr:stedsnr" v="594711" />
	</node>
	<node id="-755139" lat="69.2454333337" lon="17.8809583209">
		<tag k="name" v="Hesjevedskogen" />
		<tag k="place" v="locality" />
		<tag k="ssr:stedsnr" v="109952" />
	</node>
	<node id="-756157" lat="69.2637972222" lon="17.9254972291">
		<tag k="name" v="Skogan" />
		<tag k="place" v="locality" />
		<tag k="ssr:stedsnr" v="594615" />
	</node>
	<node id="-755111" lat="69.3667222212" lon="17.9244333229">
		<tag k="name" v="Kvannlimyra" />
		<tag k="natural" v="wetland" />
		<tag k="ssr:stedsnr" v="108885" />
	</node>
	<node id="-756664" lat="69.3025944423" lon="17.8486888922">
		<tag k="name" v="Langmyra" />
		<tag k="natural" v="wetland" />
		<tag k="ssr:stedsnr" v="776283" />
	</node>
	<node id="-755537" lat="69.4522666701" lon="17.9905027818">
		<tag k="name" v="Kleivmyra" />
		<tag k="natural" v="wetland" />
		<tag k="ssr:stedsnr" v="230304" />
	</node>
	<node id="-756658" lat="69.4169027809" lon="17.8402166715">
		<tag k="name" v="Stakkemyra" />
		<tag k="natural" v="wetland" />
		<tag k="ssr:stedsnr" v="776181" />
	</node>
	<node id="-757168" lat="69.3043472217" lon="18.0048361018">
		<tag k="name" v="Hestemyrholtet" />
		<tag k="place" v="locality" />
		<tag k="ssr:stedsnr" v="959076" />
	</node>
	<node id="-756143" lat="69.5285722247" lon="17.6272333291">
		<tag k="name" v="Åberura" />
		<tag k="natural" v="scree" />
		<tag k="ssr:stedsnr" v="594251" />
	</node>
	<node id="-756653" lat="69.3092083349" lon="17.6855055586">
		<tag k="name" v="Langmyra" />
		<tag k="natural" v="wetland" />
		<tag k="ssr:stedsnr" v="776040" />
	</node>
	<node id="-756138" lat="69.5619750027" lon="17.5850583216">
		<tag k="name" v="Kjerka" />
		<tag k="natural" v="stone" />
		<tag k="ssr:stedsnr" v="594170" />
	</node>
	<node id="-756648" lat="69.4236083364" lon="17.8644750075">
		<tag k="name" v="Ramnurene" />
		<tag k="natural" v="scree" />
		<tag k="ssr:stedsnr" v="776372" />
	</node>
	<node id="-757159" lat="69.4023611143" lon="17.9704472214">
		<tag k="name" v="Jørnmyra" />
		<tag k="natural" v="wetland" />
		<tag k="ssr:stedsnr" v="958768" />
	</node>
	<node id="-754597" lat="69.4486305593" lon="17.969291676">
		<tag k="name" v="Stormyra" />
		<tag k="natural" v="wetland" />
		<tag k="ssr:stedsnr" v="411377" />
	</node>
	<node id="-755104" lat="69.2554583318" lon="17.7459694303">
		<tag k="name" v="Storholtet" />
		<tag k="place" v="locality" />
		<tag k="ssr:stedsnr" v="108743" />
	</node>
	<node id="-755098" lat="69.4431194492" lon="17.9760722144">
		<tag k="name" v="Holtan" />
		<tag k="place" v="locality" />
		<tag k="ssr:stedsnr" v="108412" />
	</node>
	<node id="-757145" lat="69.3936611089" lon="18.356269444">
		<tag k="name" v="Heggeskogøra" />
		<tag k="place" v="locality" />
		<tag k="ssr:stedsnr" v="958631" />
	</node>
	<node id="-755094" lat="69.3778388878" lon="17.8415749955">
		<tag k="name" v="Fjellmyrene" />
		<tag k="natural" v="wetland" />
		<tag k="ssr:stedsnr" v="108238" />
	</node>
	<node id="-756117" lat="69.2659805586" lon="17.8255777838">
		<tag k="name" v="Almenningsmyra" />
		<tag k="natural" v="wetland" />
		<tag k="ssr:stedsnr" v="593668" />
	</node>
	<node id="-756113" lat="69.3469638888" lon="17.889741668">
		<tag k="name" v="Berrskallmyra" />
		<tag k="natural" v="wetland" />
		<tag k="ssr:stedsnr" v="593560" />
	</node>
	<node id="-755088" lat="69.2952611132" lon="17.669522217">
		<tag k="name" v="Storvassmyran" />
		<tag k="natural" v="wetland" />
		<tag k="ssr:stedsnr" v="109024" />
	</node>
	<node id="-755599" lat="69.3681666665" lon="18.3315972086">
		<tag k="name" v="Jarnesmyra" />
		<tag k="natural" v="wetland" />
		<tag k="ssr:stedsnr" v="232933" />
	</node>
	<node id="-755598" lat="69.4606000039" lon="18.2942472256">
		<tag k="name" v="Middagsmomyra" />
		<tag k="natural" v="wetland" />
		<tag k="ssr:stedsnr" v="232918" />
	</node>
	<node id="-757128" lat="69.3101194432" lon="17.8032333189">
		<tag k="name" v="Bergerapmyra" />
		<tag k="natural" v="wetland" />
		<tag k="ssr:stedsnr" v="958315" />
	</node>
	<node id="-755591" lat="69.3554444404" lon="18.4745333392">
		<tag k="name" v="Langmyra" />
		<tag k="natural" v="wetland" />
		<tag k="ssr:stedsnr" v="232814" />
	</node>
	<node id="-754562" lat="69.2940666623" lon="18.0254111183">
		<tag k="name" v="Tverrelvmyra" />
		<tag k="natural" v="wetland" />
		<tag k="ssr:stedsnr" v="382787" />
	</node>
	<node id="-757119" lat="69.5721944489" lon="17.5512361073">
		<tag k="name" v="Sennemyra" />
		<tag k="natural" v="wetland" />
		<tag k="ssr:stedsnr" v="958166" />
	</node>
	<node id="-754550" lat="69.3793138869" lon="18.4132999874">
		<tag k="name" v="Andholtet" />
		<tag k="place" v="locality" />
		<tag k="ssr:stedsnr" v="382713" />
	</node>
	<node id="-755571" lat="69.2439861084" lon="17.8589749972">
		<tag k="name" v="Knutjomyra" />
		<tag k="natural" v="wetland" />
		<tag k="ssr:stedsnr" v="230964" />
	</node>
	<node id="-755569" lat="69.2415999991" lon="17.8643805442">
		<tag k="name" v="Svenskebakkmyra" />
		<tag k="natural" v="wetland" />
		<tag k="ssr:stedsnr" v="230952" />
	</node>
	<node id="-754542" lat="69.3949305543" lon="18.3453527688">
		<tag k="name" v="Heggeskogan" />
		<tag k="place" v="locality" />
		<tag k="ssr:stedsnr" v="382658" />
	</node>
	<node id="-756588" lat="69.243808331" lon="17.9317861052">
		<tag k="name" v="Silsandskogen" />
		<tag k="place" v="locality" />
		<tag k="ssr:stedsnr" v="746425" />
	</node>
	<node id="-755943" lat="69.2874500024" lon="17.7839055567">
		<tag k="name" v="Stormyra" />
		<tag k="natural" v="wetland" />
		<tag k="ssr:stedsnr" v="533685" />
	</node>
	<node id="-755559" lat="69.1810666667" lon="17.9234444402">
		<tag k="name" v="Rødmyra" />
		<tag k="natural" v="wetland" />
		<tag k="ssr:stedsnr" v="230697" />
	</node>
	<node id="-756576" lat="69.4686055555" lon="18.2386972097">
		<tag k="name" v="Bestemorholtan" />
		<tag k="place" v="locality" />
		<tag k="ssr:stedsnr" v="717900" />
	</node>
	<node id="-754917" lat="69.2700666698" lon="17.7283916684">
		<tag k="name" v="Langmyra" />
		<tag k="natural" v="wetland" />
		<tag k="ssr:stedsnr" v="47717" />
	</node>
	<node id="-755548" lat="69.5092638936" lon="17.9552694402">
		<tag k="name" v="Løholtet" />
		<tag k="place" v="locality" />
		<tag k="ssr:stedsnr" v="230488" />
	</node>
	<node id="-756111" lat="69.3327583363" lon="17.825255561">
		<tag k="name" v="Godmatmomyra" />
		<tag k="natural" v="wetland" />
		<tag k="ssr:stedsnr" v="593553" />
	</node>
	<node id="-756567" lat="69.3089583338" lon="18.3228333344">
		<tag k="name" v="Mellamyra" />
		<tag k="natural" v="wetland" />
		<tag k="ssr:stedsnr" v="717724" />
	</node>
	<node id="-756561" lat="69.2890972227" lon="18.0289583421">
		<tag k="name" v="Tverrelvholtet" />
		<tag k="place" v="locality" />
		<tag k="ssr:stedsnr" v="717651" />
	</node>
	<node id="-755534" lat="69.316519447" lon="17.7963444481">
		<tag k="name" v="Karlkjerran" />
		<tag k="place" v="locality" />
		<tag k="ssr:stedsnr" v="230299" />
	</node>
	<node id="-756556" lat="69.2323749977" lon="18.0742805398">
		<tag k="name" v="Stormyra" />
		<tag k="natural" v="wetland" />
		<tag k="ssr:stedsnr" v="717501" />
	</node>
	<node id="-756043" lat="69.4157361132" lon="17.8161388883">
		<tag k="name" v="Nåttemyra" />
		<tag k="natural" v="wetland" />
		<tag k="ssr:stedsnr" v="564534" />
	</node>
	<node id="-755527" lat="69.576372221" lon="17.656749996">
		<tag k="name" v="Brosmesteinen" />
		<tag k="natural" v="stone" />
		<tag k="ssr:stedsnr" v="230176" />
	</node>
	<node id="-756549" lat="69.2231027792" lon="18.1337083333">
		<tag k="name" v="Bjørnhollholtet" />
		<tag k="place" v="locality" />
		<tag k="ssr:stedsnr" v="717548" />
	</node>
	<node id="-756546" lat="69.4020916669" lon="18.0242610982">
		<tag k="name" v="Forrholtet" />
		<tag k="place" v="locality" />
		<tag k="ssr:stedsnr" v="716842" />
	</node>
	<node id="-755521" lat="69.2368833359" lon="17.6749833269">
		<tag k="name" v="Bjørnsteinen" />
		<tag k="natural" v="stone" />
		<tag k="ssr:stedsnr" v="230053" />
	</node>
	<node id="-755520" lat="69.2933749972" lon="18.0011777685">
		<tag k="name" v="Steinteigen" />
		<tag k="place" v="locality" />
		<tag k="ssr:stedsnr" v="230046" />
	</node>
	<node id="-755006" lat="69.3896722263" lon="18.2904416697">
		<tag k="name" v="Storsteinen" />
		<tag k="natural" v="stone" />
		<tag k="ssr:stedsnr" v="50916" />
	</node>
	<node id="-756028" lat="69.473691669" lon="18.305588896">
		<tag k="name" v="Elveøyra" />
		<tag k="place" v="locality" />
		<tag k="ssr:stedsnr" v="535981" />
	</node>
	<node id="-755515" lat="69.2895055555" lon="17.811427779">
		<tag k="name" v="Lassemyra" />
		<tag k="natural" v="wetland" />
		<tag k="ssr:stedsnr" v="229682" />
	</node>
	<node id="-754999" lat="69.381349997" lon="18.4078138841">
		<tag k="name" v="Andholtan" />
		<tag k="place" v="locality" />
		<tag k="ssr:stedsnr" v="50773" />
	</node>
	<node id="-754919" lat="69.3045027742" lon="17.6868861163">
		<tag k="name" v="Lappgammskogen" />
		<tag k="place" v="locality" />
		<tag k="ssr:stedsnr" v="48029" />
	</node>
	<node id="-754989" lat="69.2717111121" lon="18.0311138884">
		<tag k="name" v="Åsmyrene" />
		<tag k="natural" v="wetland" />
		<tag k="ssr:stedsnr" v="50522" />
	</node>
	<node id="-756010" lat="69.3542500015" lon="18.4898805489">
		<tag k="name" v="Leira" />
		<tag k="place" v="locality" />
		<tag k="ssr:stedsnr" v="535823" />
	</node>
	<node id="-754469" lat="69.2458361075" lon="18.107194452">
		<tag k="name" v="Myrene" />
		<tag k="natural" v="wetland" />
		<tag k="ssr:stedsnr" v="353618" />
	</node>
	<node id="-754466" lat="69.2151027778" lon="18.1546527727">
		<tag k="name" v="Tortenskogen" />
		<tag k="place" v="locality" />
		<tag k="ssr:stedsnr" v="353546" />
	</node>
	<node id="-755999" lat="69.3239972218" lon="18.1659333362">
		<tag k="name" v="Kvitsteinmyra" />
		<tag k="natural" v="wetland" />
		<tag k="ssr:stedsnr" v="535655" />
	</node>
	<node id="-755486" lat="69.3154611119" lon="17.765866656">
		<tag k="name" v="Geitmyran" />
		<tag k="natural" v="wetland" />
		<tag k="ssr:stedsnr" v="202230" />
	</node>
	<node id="-756508" lat="69.2902527794" lon="17.7632694386">
		<tag k="name" v="Løvåsmyra" />
		<tag k="natural" v="wetland" />
		<tag k="ssr:stedsnr" v="715649" />
	</node>
	<node id="-754970" lat="69.2449388923" lon="17.8993166721">
		<tag k="name" v="Langmyra" />
		<tag k="natural" v="wetland" />
		<tag k="ssr:stedsnr" v="48972" />
	</node>
	<node id="-755992" lat="69.3100861156" lon="18.0394055519">
		<tag k="name" v="Kalveskarmyra" />
		<tag k="natural" v="wetland" />
		<tag k="ssr:stedsnr" v="535618" />
	</node>
	<node id="-754967" lat="69.3859305528" lon="17.9997750079">
		<tag k="name" v="Forrholtet" />
		<tag k="place" v="locality" />
		<tag k="ssr:stedsnr" v="48901" />
	</node>
	<node id="-754965" lat="69.4997499999" lon="17.7889083246">
		<tag k="name" v="Kjeipelvskogen" />
		<tag k="place" v="locality" />
		<tag k="ssr:stedsnr" v="48747" />
	</node>
	<node id="-755987" lat="69.2067666681" lon="18.0819444442">
		<tag k="name" v="Ol-Bertinskogen" />
		<tag k="place" v="locality" />
		<tag k="ssr:stedsnr" v="535559" />
	</node>
	<node id="-754450" lat="69.2661638916" lon="17.8785444467">
		<tag k="name" v="Holtet" />
		<tag k="place" v="locality" />
		<tag k="ssr:stedsnr" v="352618" />
	</node>
	<node id="-756497" lat="69.4210388903" lon="17.9053249967">
		<tag k="name" v="Elvøra" />
		<tag k="place" v="locality" />
		<tag k="ssr:stedsnr" v="715426" />
	</node>
	<node id="-756492" lat="69.3721000016" lon="17.7651611047">
		<tag k="name" v="Rødskarmyrene" />
		<tag k="natural" v="wetland" />
		<tag k="ssr:stedsnr" v="715240" />
	</node>
	<node id="-754441" lat="69.5685611092" lon="17.8159472235">
		<tag k="name" v="Skreda" />
		<tag k="natural" v="scree" />
		<tag k="ssr:stedsnr" v="351801" />
	</node>
	<node id="-757000" lat="69.3853749989" lon="18.0368611077">
		<tag k="name" v="Steinmyra" />
		<tag k="natural" v="wetland" />
		<tag k="ssr:stedsnr" v="874524" />
	</node>
	<node id="-755974" lat="69.2539083297" lon="17.9440611065">
		<tag k="name" v="Finnmyra" />
		<tag k="natural" v="wetland" />
		<tag k="ssr:stedsnr" v="534671" />
	</node>
	<node id="-755458" lat="69.3256749974" lon="18.3583055607">
		<tag k="name" v="Holmelamyra" />
		<tag k="natural" v="wetland" />
		<tag k="ssr:stedsnr" v="200757" />
	</node>
	<node id="-754431" lat="69.2905388865" lon="17.7747694324">
		<tag k="name" v="Rødmyra" />
		<tag k="natural" v="wetland" />
		<tag k="ssr:stedsnr" v="351664" />
	</node>
	<node id="-754430" lat="69.2943888882" lon="17.8525472197">
		<tag k="name" v="Forrholtet" />
		<tag k="place" v="locality" />
		<tag k="ssr:stedsnr" v="351660" />
	</node>
	<node id="-754423" lat="69.5114722255" lon="17.9648250007">
		<tag k="name" v="Slåttingsmyra" />
		<tag k="natural" v="wetland" />
		<tag k="ssr:stedsnr" v="351499" />
	</node>
	<node id="-756982" lat="69.3684111124" lon="18.1520194355">
		<tag k="name" v="Kvitmyra" />
		<tag k="natural" v="wetland" />
		<tag k="ssr:stedsnr" v="868695" />
	</node>
	<node id="-756976" lat="69.4471611106" lon="18.1803833343">
		<tag k="name" v="Stormyra" />
		<tag k="natural" v="wetland" />
		<tag k="ssr:stedsnr" v="868631" />
	</node>
	<node id="-756461" lat="69.5096888869" lon="17.9673916652">
		<tag k="name" v="Stormyra" />
		<tag k="natural" v="wetland" />
		<tag k="ssr:stedsnr" v="686815" />
	</node>
	<node id="-754407" lat="69.3890111099" lon="17.8379027785">
		<tag k="name" v="Nerjorda" />
		<tag k="place" v="locality" />
		<tag k="ssr:stedsnr" v="351241" />
	</node>
	<node id="-754422" lat="69.5043583311" lon="17.9015666512">
		<tag k="name" v="Lavolløyra" />
		<tag k="place" v="locality" />
		<tag k="ssr:stedsnr" v="351491" />
	</node>
	<node id="-756965" lat="69.2456527793" lon="17.7410444316">
		<tag k="name" v="Grønliskogen" />
		<tag k="place" v="locality" />
		<tag k="ssr:stedsnr" v="868423" />
	</node>
	<node id="-754403" lat="69.5684388874" lon="17.570838896">
		<tag k="name" v="Nessesteinan" />
		<tag k="natural" v="stone" />
		<tag k="ssr:stedsnr" v="351176" />
	</node>
	<node id="-754299" lat="69.2918694455" lon="18.2143944375">
		<tag k="name" v="Kistelvmyra" />
		<tag k="natural" v="wetland" />
		<tag k="ssr:stedsnr" v="292740" />
	</node>
	<node id="-754398" lat="69.4147694477" lon="17.8561444324">
		<tag k="name" v="Stormyra" />
		<tag k="natural" v="wetland" />
		<tag k="ssr:stedsnr" v="351126" />
	</node>
	<node id="-754909" lat="69.3695000039" lon="17.9017972186">
		<tag k="name" v="Reingjerdmyrene" />
		<tag k="natural" v="wetland" />
		<tag k="ssr:stedsnr" v="48638" />
	</node>
	<node id="-755932" lat="69.3462277742" lon="17.9096055608">
		<tag k="name" v="Karilimyra" />
		<tag k="natural" v="wetland" />
		<tag k="ssr:stedsnr" v="533604" />
	</node>
	<node id="-754723" lat="69.3444527776" lon="17.8642611023">
		<tag k="name" v="Hundemyrholtet" />
		<tag k="place" v="locality" />
		<tag k="ssr:stedsnr" v="897571" />
	</node>
	<node id="-756944" lat="69.4643527753" lon="18.2365083368">
		<tag k="name" v="Forrholtan" />
		<tag k="place" v="locality" />
		<tag k="ssr:stedsnr" v="839878" />
	</node>
	<node id="-755917" lat="69.3795222186" lon="17.8545055399">
		<tag k="name" v="Godmyra" />
		<tag k="natural" v="wetland" />
		<tag k="ssr:stedsnr" v="533235" />
	</node>
	<node id="-756940" lat="69.3751194439" lon="18.4605444344">
		<tag k="name" v="Forrholtet" />
		<tag k="place" v="locality" />
		<tag k="ssr:stedsnr" v="839853" />
	</node>
	<node id="-756936" lat="69.3096111154" lon="18.3344527771">
		<tag k="name" v="Åsemyra" />
		<tag k="natural" v="wetland" />
		<tag k="ssr:stedsnr" v="839735" />
	</node>
	<node id="-755147" lat="69.273427779" lon="17.9222861162">
		<tag k="name" v="Klubbemyra" />
		<tag k="natural" v="wetland" />
		<tag k="ssr:stedsnr" v="109576" />
	</node>
	<node id="-756511" lat="69.2864249965" lon="17.8055638816">
		<tag k="name" v="Hestemyra" />
		<tag k="natural" v="wetland" />
		<tag k="ssr:stedsnr" v="715671" />
	</node>
	<node id="-754547" lat="69.359555553" lon="18.0091861068">
		<tag k="alt_name" v="Landøymyrene" />
		<tag k="name" v="Landøymyran" />
		<tag k="natural" v="wetland" />
		<tag k="ssr:stedsnr" v="382696" />
	</node>
	<node id="-755376" lat="69.3230222256" lon="18.2365694543">
		<tag k="name" v="Bergemyra" />
		<tag k="natural" v="wetland" />
		<tag k="ssr:stedsnr" v="170914" />
	</node>
	<node id="-756898" lat="69.324161107" lon="17.8953055496">
		<tag k="name" v="Rødmyra" />
		<tag k="natural" v="wetland" />
		<tag k="ssr:stedsnr" v="837936" />
	</node>
	<node id="-756897" lat="69.371741667" lon="17.9499110988">
		<tag k="name" v="Reinhalsmyra" />
		<tag k="natural" v="wetland" />
		<tag k="ssr:stedsnr" v="837926" />
	</node>
	<node id="-754288" lat="69.296694444" lon="18.0389777635">
		<tag k="name" v="Husmannsjorda" />
		<tag k="place" v="locality" />
		<tag k="ssr:stedsnr" v="292637" />
	</node>
	<node id="-754331" lat="69.3753777764" lon="18.0365277801">
		<tag k="name" v="Hanesholtan" />
		<tag k="place" v="locality" />
		<tag k="ssr:stedsnr" v="321652" />
	</node>
	<node id="-756889" lat="69.2673583304" lon="17.6968694383">
		<tag k="name" v="Almenningsmyra" />
		<tag k="natural" v="wetland" />
		<tag k="ssr:stedsnr" v="837717" />
	</node>
	<node id="-755352" lat="69.3573305583" lon="17.9846555659">
		<tag k="name" v="Magermyra" />
		<tag k="natural" v="wetland" />
		<tag k="ssr:stedsnr" v="169944" />
	</node>
	<node id="-756374" lat="69.2550555545" lon="18.1595694315">
		<tag k="name" v="Gammeljorda" />
		<tag k="place" v="locality" />
		<tag k="ssr:stedsnr" v="656632" />
	</node>
	<node id="-756884" lat="69.2969638924" lon="17.7390472221">
		<tag k="name" v="Tømmermyra" />
		<tag k="natural" v="wetland" />
		<tag k="ssr:stedsnr" v="837657" />
	</node>
	<node id="-756880" lat="69.3111527739" lon="17.7664416647">
		<tag k="name" v="Fjellmyrene" />
		<tag k="natural" v="wetland" />
		<tag k="ssr:stedsnr" v="837634" />
	</node>
	<node id="-756879" lat="69.2574500008" lon="17.8386805436">
		<tag k="name" v="Hannajorda" />
		<tag k="place" v="locality" />
		<tag k="ssr:stedsnr" v="837630" />
	</node>
	<node id="-754760" lat="69.4128944448" lon="18.0047333213">
		<tag k="name" v="Slåttemyra" />
		<tag k="natural" v="wetland" />
		<tag k="ssr:stedsnr" v="898379" />
	</node>
	<node id="-754934" lat="69.4797666703" lon="17.8012166548">
		<tag k="name" v="Skarelvjorda" />
		<tag k="place" v="locality" />
		<tag k="ssr:stedsnr" v="48324" />
	</node>
	<node id="-755337" lat="69.175052778" lon="17.9041972219">
		<tag k="name" v="Krattmyra" />
		<tag k="natural" v="wetland" />
		<tag k="ssr:stedsnr" v="169724" />
	</node>
	<node id="-755308" lat="69.4583972199" lon="17.983225002">
		<tag k="name" v="Skarmyra" />
		<tag k="natural" v="wetland" />
		<tag k="ssr:stedsnr" v="169307" />
	</node>
	<node id="-754310" lat="69.4658805533" lon="18.3083833344">
		<tag k="name" v="Aspemomyra" />
		<tag k="natural" v="wetland" />
		<tag k="ssr:stedsnr" v="293899" />
	</node>
	<node id="-756868" lat="69.3501722212" lon="17.8937833267">
		<tag k="name" v="Rødmyra" />
		<tag k="natural" v="wetland" />
		<tag k="ssr:stedsnr" v="837585" />
	</node>
	<node id="-756354" lat="69.2700444421" lon="17.8621833305">
		<tag k="name" v="Lampen" />
		<tag k="natural" v="wetland" />
		<tag k="ssr:stedsnr" v="655629" />
	</node>
	<node id="-755328" lat="69.289888886" lon="17.7557638926">
		<tag k="name" v="Johanmyra" />
		<tag k="natural" v="wetland" />
		<tag k="ssr:stedsnr" v="169634" />
	</node>
	<node id="-755326" lat="69.238927781" lon="17.8425416615">
		<tag k="name" v="Botnlausmyra" />
		<tag k="natural" v="wetland" />
		<tag k="ssr:stedsnr" v="169616" />
	</node>
	<node id="-754301" lat="69.3559027751" lon="18.3133750056">
		<tag k="name" v="Middagsmyra" />
		<tag k="natural" v="wetland" />
		<tag k="ssr:stedsnr" v="292859" />
	</node>
	<node id="-755323" lat="69.2431972245" lon="17.8101277825">
		<tag k="name" v="Vargemyra" />
		<tag k="natural" v="wetland" />
		<tag k="ssr:stedsnr" v="169608" />
	</node>
	<node id="-754298" lat="69.248655557" lon="18.1705555587">
		<tag k="name" v="Rundvassmyra" />
		<tag k="natural" v="wetland" />
		<tag k="ssr:stedsnr" v="292596" />
	</node>
	<node id="-754296" lat="69.2113416709" lon="18.1293444325">
		<tag k="name" v="Skettendikmyrene" />
		<tag k="natural" v="wetland" />
		<tag k="ssr:stedsnr" v="292523" />
	</node>
	<node id="-756343" lat="69.30815" lon="17.8195722236">
		<tag k="name" v="Ol-Olsamyra" />
		<tag k="natural" v="wetland" />
		<tag k="ssr:stedsnr" v="655301" />
	</node>
	<node id="-755316" lat="69.4403277793" lon="17.9601444362">
		<tag k="name" v="Klubbemyrene" />
		<tag k="natural" v="wetland" />
		<tag k="ssr:stedsnr" v="169407" />
	</node>
	<node id="-755315" lat="69.4364583299" lon="17.9694249944">
		<tag k="name" v="Langøra" />
		<tag k="place" v="locality" />
		<tag k="ssr:stedsnr" v="169404" />
	</node>
	<node id="-756337" lat="69.2998416674" lon="18.0152805556">
		<tag k="name" v="Dårligbakkslåtta" />
		<tag k="place" v="locality" />
		<tag k="ssr:stedsnr" v="655044" />
	</node>
	<node id="-756848" lat="69.3563166695" lon="17.8469083335">
		<tag k="name" v="Vassendmyra" />
		<tag k="natural" v="wetland" />
		<tag k="ssr:stedsnr" v="837216" />
	</node>
	<node id="-755304" lat="69.4904722223" lon="17.6574555583">
		<tag k="name" v="Trollhammarøra" />
		<tag k="place" v="locality" />
		<tag k="ssr:stedsnr" v="169207" />
	</node>
	<node id="-756332" lat="69.3703444418" lon="17.9655027738">
		<tag k="name" v="Nattmålskarmyra" />
		<tag k="natural" v="wetland" />
		<tag k="ssr:stedsnr" v="654925" />
	</node>
	<node id="-755819" lat="69.3016555582" lon="17.9863527846">
		<tag k="name" v="Finnkornøyra" />
		<tag k="place" v="locality" />
		<tag k="ssr:stedsnr" v="473095" />
	</node>
	<node id="-755818" lat="69.2552416706" lon="17.6682694426">
		<tag k="name" v="Tømmernesmyra" />
		<tag k="natural" v="wetland" />
		<tag k="ssr:stedsnr" v="473067" />
	</node>
	<node id="-756840" lat="69.5689750031" lon="17.5501111203">
		<tag k="name" v="Godmyra" />
		<tag k="natural" v="wetland" />
		<tag k="ssr:stedsnr" v="837153" />
	</node>
	<node id="-754788" lat="69.5528472204" lon="17.8164416636">
		<tag k="name" v="Sløykkjerran" />
		<tag k="place" v="locality" />
		<tag k="ssr:stedsnr" v="413871" />
	</node>
	<node id="-756833" lat="69.2816722262" lon="17.9977527851">
		<tag k="name" v="Hesteholtet" />
		<tag k="natural" v="wetland" />
		<tag k="ssr:stedsnr" v="837031" />
	</node>
	<node id="-755295" lat="69.5343222248" lon="17.7698611022">
		<tag k="name" v="Myra" />
		<tag k="natural" v="wetland" />
		<tag k="ssr:stedsnr" v="169134" />
	</node>
	<node id="-754270" lat="69.5120000008" lon="17.9537777794">
		<tag k="name" v="Jobbonmyra" />
		<tag k="natural" v="wetland" />
		<tag k="ssr:stedsnr" v="291527" />
	</node>
	<node id="-754963" lat="69.1796611153" lon="17.9083444497">
		<tag k="name" v="Langmyra" />
		<tag k="natural" v="wetland" />
		<tag k="ssr:stedsnr" v="48703" />
	</node>
	<node id="-754780" lat="69.1747972176" lon="17.9435694498">
		<tag k="name" v="Øyran" />
		<tag k="place" v="locality" />
		<tag k="ssr:stedsnr" v="898756" />
	</node>
	<node id="-755290" lat="69.2542805595" lon="17.6849555611">
		<tag k="name" v="Gammsteinmyra" />
		<tag k="natural" v="wetland" />
		<tag k="ssr:stedsnr" v="169040" />
	</node>
	<node id="-756313" lat="69.281958334" lon="17.7565972248">
		<tag k="name" v="Sumpmyra" />
		<tag k="natural" v="wetland" />
		<tag k="ssr:stedsnr" v="654646" />
	</node>
	<node id="-755283" lat="69.2310194478" lon="17.9928888922">
		<tag k="name" v="Hansemyra" />
		<tag k="natural" v="wetland" />
		<tag k="ssr:stedsnr" v="170372" />
	</node>
	<node id="-756303" lat="69.3724777806" lon="17.8527583314">
		<tag k="name" v="Øverjorda" />
		<tag k="place" v="locality" />
		<tag k="ssr:stedsnr" v="654254" />
	</node>
	<node id="-756812" lat="69.4225083372" lon="18.167330557">
		<tag k="name" v="Storura" />
		<tag k="natural" v="scree" />
		<tag k="ssr:stedsnr" v="814702" />
	</node>
	<node id="-754251" lat="69.5117111133" lon="17.6877166676">
		<tag k="name" v="Kalduran" />
		<tag k="natural" v="scree" />
		<tag k="ssr:stedsnr" v="291171" />
	</node>
	<node id="-755784" lat="69.3566194426" lon="17.8041833182">
		<tag k="name" v="Almenningen" />
		<tag k="natural" v="wetland" />
		<tag k="ssr:stedsnr" v="472217" />
	</node>
	<node id="-754759" lat="69.4250027773" lon="18.006108342">
		<tag k="name" v="Stiskogen" />
		<tag k="place" v="locality" />
		<tag k="ssr:stedsnr" v="898367" />
	</node>
	<node id="-754242" lat="69.2777444439" lon="17.6747250072">
		<tag k="name" v="Hesjemyra" />
		<tag k="natural" v="wetland" />
		<tag k="ssr:stedsnr" v="291053" />
	</node>
	<node id="-754240" lat="69.2870805595" lon="17.6620277839">
		<tag k="name" v="Lamyra" />
		<tag k="natural" v="wetland" />
		<tag k="ssr:stedsnr" v="291023" />
	</node>
	<node id="-754238" lat="69.396400001" lon="17.9233388837">
		<tag k="name" v="Skjellelvmyra" />
		<tag k="natural" v="wetland" />
		<tag k="ssr:stedsnr" v="290828" />
	</node>
	<node id="-756377" lat="69.3449527796" lon="18.1437583401">
		<tag k="name" v="Langmyra" />
		<tag k="natural" v="wetland" />
		<tag k="ssr:stedsnr" v="656685" />
	</node>
	<node id="-754233" lat="69.2909138916" lon="17.8035833225">
		<tag k="name" v="Feitmyra" />
		<tag k="natural" v="wetland" />
		<tag k="ssr:stedsnr" v="290616" />
	</node>
	<node id="-754742" lat="69.3038555562" lon="18.0080500017">
		<tag k="name" v="Hestemyra" />
		<tag k="natural" v="wetland" />
		<tag k="ssr:stedsnr" v="898072" />
	</node>
	<node id="-754228" lat="69.3474888878" lon="17.9268638785">
		<tag k="name" v="Oksemyra" />
		<tag k="natural" v="wetland" />
		<tag k="ssr:stedsnr" v="290519" />
	</node>
	<node id="-754219" lat="69.4141083345" lon="17.8355749854">
		<tag k="name" v="Fjellmyra" />
		<tag k="natural" v="wetland" />
		<tag k="ssr:stedsnr" v="290146" />
	</node>
	<node id="-754729" lat="69.238330555" lon="17.7495750039">
		<tag k="name" v="Sætermyra" />
		<tag k="natural" v="wetland" />
		<tag k="ssr:stedsnr" v="897718" />
	</node>
	<node id="-754725" lat="69.3368833306" lon="17.8849888774">
		<tag k="name" v="Blåbærmyra" />
		<tag k="natural" v="wetland" />
		<tag k="ssr:stedsnr" v="897578" />
	</node>
	<node id="-754950" lat="69.2706722263" lon="17.9116777707">
		<tag k="name" v="Finnjordskogen" />
		<tag k="place" v="locality" />
		<tag k="ssr:stedsnr" v="48583" />
	</node>
	<node id="-754722" lat="69.3647666712" lon="17.8543333246">
		<tag k="name" v="Storholtet" />
		<tag k="place" v="locality" />
		<tag k="ssr:stedsnr" v="897559" />
	</node>
	<node id="-754607" lat="69.4509583341" lon="17.7449305593">
		<tag k="name" v="Sørenmyra" />
		<tag k="natural" v="wetland" />
		<tag k="ssr:stedsnr" v="412176" />
	</node>
	<node id="-754709" lat="69.3661777785" lon="18.31835833">
		<tag k="name" v="Straumsnesøra" />
		<tag k="place" v="locality" />
		<tag k="ssr:stedsnr" v="474938" />
	</node>
	<node id="-756753" lat="69.22048333" lon="17.8551555582">
		<tag k="name" v="Flottmyran" />
		<tag k="natural" v="wetland" />
		<tag k="ssr:stedsnr" v="807391" />
	</node>
	<node id="-754695" lat="69.2524111128" lon="18.174572213">
		<tag k="name" v="Storsteinen" />
		<tag k="natural" v="stone" />
		<tag k="ssr:stedsnr" v="474627" />
	</node>
	<node id="-755966" lat="69.4911138878" lon="17.8450222182">
		<tag k="name" v="Blomdalsholtet" />
		<tag k="place" v="locality" />
		<tag k="ssr:stedsnr" v="534357" />
	</node>
</osm>
