<?xml version="1.0" encoding="UTF-8"?>
<osm generator="osmapis" version="0.6">
	<node id="-755710" lat="69.4042249997" lon="18.2981694511">
		<tag k="highway" v="path" />
		<tag k="name" v="Kårvikveien" />
		<tag k="ssr:stedsnr" v="414915" />
	</node>
	<node id="-755192" lat="69.3993222219" lon="18.2078194306">
		<tag k="highway" v="path" />
		<tag k="name" v="Seljebakkveien" />
		<tag k="ssr:stedsnr" v="111875" />
	</node>
	<node id="-754290" lat="69.3335888927" lon="18.1716138898">
		<tag k="highway" v="path" />
		<tag k="name" v="Breiveien" />
		<tag k="ssr:stedsnr" v="292653" />
	</node>
	<node id="-754404" lat="69.5570638926" lon="17.5897222199">
		<tag k="man_made" v="quay" />
		<tag k="name" v="Sandvikbrygga" />
		<tag k="place" v="locality" />
		<tag k="ssr:stedsnr" v="351183" />
	</node>
	<node id="-756829" lat="69.5690499985" lon="17.8410583205">
		<tag k="fixme" v="verify maritime location" />
		<tag k="mooring" v="yes" />
		<tag k="name" v="Støa" />
		<tag k="place" v="locality" />
		<tag k="ssr:stedsnr" v="836835" />
	</node>
	<node id="-756955" lat="69.5242027779" lon="17.7094888888">
		<tag k="layer" v="-1" />
		<tag k="name" v="Riventunnelen" />
		<tag k="ssr:stedsnr" v="845534" />
		<tag k="tunnel" v="yes" />
	</node>
	<node id="-754468" lat="69.2469111093" lon="18.1659499886">
		<tag k="fixme" v="verify maritime location" />
		<tag k="mooring" v="yes" />
		<tag k="name" v="Kjerringstøa" />
		<tag k="place" v="locality" />
		<tag k="ssr:stedsnr" v="353615" />
	</node>
	<node id="-755790" lat="69.3540944435" lon="17.8819472221">
		<tag k="bridge" v="yes" />
		<tag k="layer" v="1" />
		<tag k="name" v="Kanalen" />
		<tag k="ssr:stedsnr" v="472576" />
	</node>
	<node id="-755788" lat="69.160755555" lon="17.8318777648">
		<tag k="highway" v="path" />
		<tag k="name" v="Brattstien" />
		<tag k="ssr:stedsnr" v="472525" />
	</node>
	<node id="-755395" lat="69.3981333337" lon="18.1566388962">
		<tag k="landuse" v="harbour" />
		<tag k="name" v="Kårvikhamn" />
		<tag k="seamark:type" v="harbour" />
		<tag k="ssr:stedsnr" v="171705" />
	</node>
	<node id="-754494" lat="69.3649777746" lon="18.2799527825">
		<tag k="highway" v="path" />
		<tag k="name" v="Akselveien" />
		<tag k="ssr:stedsnr" v="353970" />
	</node>
	<node id="-754492" lat="69.3921527798" lon="18.3005750063">
		<tag k="highway" v="path" />
		<tag k="name" v="Storskarveien" />
		<tag k="ssr:stedsnr" v="353936" />
	</node>
	<node id="-754313" lat="69.513705558" lon="17.7550777797">
		<tag k="layer" v="-1" />
		<tag k="name" v="Fjellsendentunnelen" />
		<tag k="ssr:stedsnr" v="299509" />
		<tag k="tunnel" v="yes" />
	</node>
	<node id="-755122" lat="69.3034555517" lon="17.8917888808">
		<tag k="junction" v="yes" />
		<tag k="name" v="Kvannåskrysset" />
		<tag k="place" v="locality" />
		<tag k="ssr:stedsnr" v="109107" />
	</node>
	<node id="-756657" lat="69.5430583307" lon="17.6713333391">
		<tag k="landuse" v="harbour" />
		<tag k="name" v="Stranda" />
		<tag k="seamark:type" v="harbour" />
		<tag k="ssr:stedsnr" v="776175" />
	</node>
	<node id="-755805" lat="69.1754138852" lon="17.9100472262">
		<tag k="highway" v="path" />
		<tag k="name" v="Fjellveien" />
		<tag k="ssr:stedsnr" v="472735" />
	</node>
	<node id="-756396" lat="69.3834555515" lon="18.3248416609">
		<tag k="highway" v="path" />
		<tag k="name" v="Rødmoldveien" />
		<tag k="ssr:stedsnr" v="656959" />
	</node>
	<node id="-756523" lat="69.3614972268" lon="17.8226555462">
		<tag k="fixme" v="verify maritime location" />
		<tag k="mooring" v="yes" />
		<tag k="name" v="Finnstøa" />
		<tag k="place" v="locality" />
		<tag k="ssr:stedsnr" v="715997" />
	</node>
	<node id="-756005" lat="69.3144222262" lon="18.2853472085">
		<tag k="fixme" v="verify maritime location" />
		<tag k="mooring" v="yes" />
		<tag k="name" v="Bullstøa" />
		<tag k="place" v="locality" />
		<tag k="ssr:stedsnr" v="535720" />
	</node>
	<node id="-756004" lat="69.2285166687" lon="18.2619416757">
		<tag k="highway" v="path" />
		<tag k="name" v="Haugaveien" />
		<tag k="ssr:stedsnr" v="535689" />
	</node>
	<node id="-756827" lat="69.3627472233" lon="17.7858472164">
		<tag k="highway" v="path" />
		<tag k="name" v="Heggedalsveien" />
		<tag k="ssr:stedsnr" v="836566" />
	</node>
	<node id="-756896" lat="69.3898361098" lon="17.8637694495">
		<tag k="fixme" v="verify maritime location" />
		<tag k="mooring" v="yes" />
		<tag k="name" v="Nymostøa" />
		<tag k="place" v="locality" />
		<tag k="ssr:stedsnr" v="837866" />
	</node>
	<node id="-756381" lat="69.2472722188" lon="18.1787360939">
		<tag k="highway" v="path" />
		<tag k="name" v="Liaveien" />
		<tag k="ssr:stedsnr" v="656720" />
	</node>
	<node id="-754972" lat="69.3643388911" lon="17.8106861117">
		<tag k="fixme" v="verify maritime location" />
		<tag k="mooring" v="yes" />
		<tag k="name" v="Tømmerstøa" />
		<tag k="place" v="locality" />
		<tag k="ssr:stedsnr" v="48995" />
	</node>
	<node id="-754708" lat="69.4029888905" lon="18.3139527661">
		<tag k="ford" v="yes" />
		<tag k="name" v="Berrheivaet" />
		<tag k="place" v="locality" />
		<tag k="ssr:stedsnr" v="474920" />
	</node>
	<node id="-755603" lat="69.4216777815" lon="18.3421083409">
		<tag k="highway" v="path" />
		<tag k="name" v="Rødveien" />
		<tag k="ssr:stedsnr" v="232984" />
	</node>
	<node id="-755984" lat="69.2259944405" lon="18.1069027752">
		<tag k="highway" v="path" />
		<tag k="name" v="Tverrveien" />
		<tag k="ssr:stedsnr" v="535531" />
	</node>
	<node id="-754314" lat="69.4817138933" lon="17.6759249919">
		<tag k="layer" v="-1" />
		<tag k="name" v="Fjordgårdtunnelen" />
		<tag k="ssr:stedsnr" v="301861" />
		<tag k="tunnel" v="yes" />
	</node>
	<node id="-754973" lat="69.3663694403" lon="17.8089638957">
		<tag k="fixme" v="verify maritime location" />
		<tag k="mooring" v="yes" />
		<tag k="name" v="Poststøa" />
		<tag k="place" v="locality" />
		<tag k="ssr:stedsnr" v="48996" />
	</node>
	<node id="-755975" lat="69.1679666673" lon="17.854527767">
		<tag k="highway" v="path" />
		<tag k="name" v="Granvenveien" />
		<tag k="ssr:stedsnr" v="534745" />
	</node>
</osm>
