<?xml version="1.0" encoding="UTF-8"?>
<osm generator="osmapis" version="0.6">
	<node id="-755712" lat="69.3944055561" lon="18.3109972081">
		<tag k="name" v="Langbakkelva" />
		<tag k="ssr:stedsnr" v="414922" />
		<tag k="waterway" v="stream" />
	</node>
	<node id="-755709" lat="69.3998361113" lon="18.2902083383">
		<tag k="name" v="Banvatnet" />
		<tag k="natural" v="water" />
		<tag k="ssr:stedsnr" v="414909" />
		<tag k="water" v="pond" />
	</node>
	<node id="-755708" lat="69.4539027732" lon="18.2049138951">
		<tag k="name" v="Hågvatnet" />
		<tag k="natural" v="water" />
		<tag k="ssr:stedsnr" v="414888" />
	</node>
	<node id="-755697" lat="69.3119194418" lon="18.2428360972">
		<tag k="name" v="Langnesbukta" />
		<tag k="natural" v="bay" />
		<tag k="ssr:stedsnr" v="414690" />
	</node>
	<node id="-755693" lat="69.2255888909" lon="18.2472916593">
		<tag k="name" v="Brubekken" />
		<tag k="ssr:stedsnr" v="414674" />
		<tag k="waterway" v="stream" />
	</node>
	<node id="-755687" lat="69.2432000011" lon="18.1422416698">
		<tag k="name" v="Porkelvsanden" />
		<tag k="natural" v="beach" />
		<tag k="ssr:stedsnr" v="414611" />
	</node>
	<node id="-755683" lat="69.2094055565" lon="18.1472611179">
		<tag k="name" v="Steikarneset" />
		<tag k="natural" v="cape" />
		<tag k="ssr:stedsnr" v="414544" />
	</node>
	<node id="-755677" lat="69.2355083308" lon="18.0769472223">
		<tag k="name" v="Mølnelva" />
		<tag k="ssr:stedsnr" v="414467" />
		<tag k="waterway" v="stream" />
	</node>
	<node id="-755665" lat="69.3077749963" lon="18.488927782">
		<tag k="name" v="Leirelva" />
		<tag k="ssr:stedsnr" v="261785" />
		<tag k="waterway" v="stream" />
	</node>
	<node id="-755663" lat="69.3134277825" lon="18.1857333216">
		<tag k="fixme" v="multiple name tags, choose one and add the other to alt_name" />
		<tag k="name" v="Øvre Sollivatn;Øvrevatnet" />
		<tag k="natural" v="water" />
		<tag k="ssr:stedsnr" v="261772" />
	</node>
	<node id="-755649" lat="69.3624611155" lon="18.1587944304">
		<tag k="alt_name" v="Tovatna" />
		<tag k="name" v="Tovatnan" />
		<tag k="natural" v="water" />
		<tag k="ssr:stedsnr" v="261707" />
		<tag k="water" v="lake" />
	</node>
	<node id="-755647" lat="69.3634499956" lon="18.253274999">
		<tag k="name" v="Rundvatnet" />
		<tag k="natural" v="water" />
		<tag k="ssr:stedsnr" v="261699" />
	</node>
	<node id="-755635" lat="69.3673666655" lon="17.6907166547">
		<tag k="name" v="Iselva" />
		<tag k="ssr:stedsnr" v="261563" />
		<tag k="waterway" v="stream" />
	</node>
	<node id="-755633" lat="69.3802805538" lon="17.7317888897">
		<tag k="alt_name" v="Skeivatnet, øvre" />
		<tag k="name" v="Øvre Skeivatnet" />
		<tag k="natural" v="water" />
		<tag k="ssr:stedsnr" v="261561" />
	</node>
	<node id="-755016" lat="69.4574500029" lon="18.2822472236">
		<tag k="name" v="Storelva" />
		<tag k="ssr:stedsnr" v="79035" />
		<tag k="waterway" v="river" />
	</node>
	<node id="-755628" lat="69.3843222243" lon="17.9448527726">
		<tag k="name" v="Svartfjellvatnet" />
		<tag k="natural" v="water" />
		<tag k="ssr:stedsnr" v="261531" />
	</node>
	<node id="-755627" lat="69.3995833362" lon="17.6653472254">
		<tag k="name" v="Martamostevatnet" />
		<tag k="natural" v="water" />
		<tag k="ssr:stedsnr" v="261516" />
	</node>
	<node id="-755624" lat="69.4321249974" lon="17.7258416715">
		<tag k="alt_name" v="Tuvevatnet, øvre" />
		<tag k="name" v="Øvre Tuvevatnet" />
		<tag k="natural" v="water" />
		<tag k="ssr:stedsnr" v="261476" />
	</node>
	<node id="-755620" lat="69.4431361148" lon="17.884974991">
		<tag k="name" v="Geitelva" />
		<tag k="ssr:stedsnr" v="261452" />
		<tag k="waterway" v="stream" />
	</node>
	<node id="-755619" lat="69.2393305587" lon="17.9121000099">
		<tag k="name" v="Litjevatnet" />
		<tag k="natural" v="water" />
		<tag k="ssr:stedsnr" v="261440" />
	</node>
	<node id="-755616" lat="69.4924305525" lon="17.7663555536">
		<tag k="name" v="Keipvatnet" />
		<tag k="natural" v="water" />
		<tag k="ssr:stedsnr" v="261404" />
		<tag k="water" v="lake" />
	</node>
	<node id="-755611" lat="69.2689055523" lon="18.1622388731">
		<tag k="name" v="Tverrelva" />
		<tag k="ssr:stedsnr" v="261038" />
		<tag k="waterway" v="stream" />
	</node>
	<node id="-755607" lat="69.2169805542" lon="18.1042277723">
		<tag k="name" v="Abborvatnet - Vuskkonjávri" />
		<tag k="name:no" v="Abborvatnet" />
		<tag k="name:se" v="Vuskkonjávri" />
		<tag k="natural" v="water" />
		<tag k="old_name:se" v="Vuskunjavri" />
		<tag k="ssr:stedsnr" v="260721" />
		<tag k="water" v="lake" />
	</node>
	<node id="-755604" lat="69.4120194469" lon="18.3291972227">
		<tag k="name" v="Litjeelva" />
		<tag k="ssr:stedsnr" v="232989" />
		<tag k="waterway" v="stream" />
	</node>
	<node id="-755600" lat="69.3646944455" lon="18.325844445">
		<tag k="name" v="Gårdselva" />
		<tag k="ssr:stedsnr" v="232936" />
		<tag k="waterway" v="stream" />
	</node>
	<node id="-754328" lat="69.2471055543" lon="18.2513250061">
		<tag k="name" v="Holmevatnet" />
		<tag k="natural" v="water" />
		<tag k="ssr:stedsnr" v="321623" />
	</node>
	<node id="-755590" lat="69.326236109" lon="18.4852333186">
		<tag k="name" v="Sandneselva" />
		<tag k="ssr:stedsnr" v="232811" />
		<tag k="waterway" v="stream" />
	</node>
	<node id="-755589" lat="69.3265527798" lon="18.3717111039">
		<tag k="name" v="Holmelaelva" />
		<tag k="ssr:stedsnr" v="232807" />
		<tag k="waterway" v="stream" />
	</node>
	<node id="-755588" lat="69.3609194458" lon="18.2474666707">
		<tag k="name" v="Rundvatnet" />
		<tag k="natural" v="water" />
		<tag k="ssr:stedsnr" v="232699" />
		<tag k="water" v="pond" />
	</node>
	<node id="-755587" lat="69.3057694437" lon="18.230852781">
		<tag k="name" v="Elveneset" />
		<tag k="natural" v="cape" />
		<tag k="ssr:stedsnr" v="232669" />
	</node>
	<node id="-755585" lat="69.2494916648" lon="18.243830557">
		<tag k="name" v="Pessfossvatnet" />
		<tag k="natural" v="water" />
		<tag k="ssr:stedsnr" v="232656" />
	</node>
	<node id="-755579" lat="69.2486833314" lon="18.1634138858">
		<tag k="name" v="Elveosen" />
		<tag k="natural" v="bay" />
		<tag k="ssr:stedsnr" v="232545" />
	</node>
	<node id="-755572" lat="69.2488361108" lon="17.9205444453">
		<tag k="name" v="Kuneset" />
		<tag k="natural" v="cape" />
		<tag k="ssr:stedsnr" v="230972" />
	</node>
	<node id="-755566" lat="69.4074166634" lon="18.053311097">
		<tag k="name" v="Finnjordelva" />
		<tag k="ssr:stedsnr" v="230830" />
		<tag k="waterway" v="stream" />
	</node>
	<node id="-754322" lat="69.3743777774" lon="17.7307277768">
		<tag k="alt_name" v="Skeivatnet, nedre" />
		<tag k="name" v="Nedre Skeivatnet" />
		<tag k="natural" v="water" />
		<tag k="ssr:stedsnr" v="321519" />
	</node>
	<node id="-755555" lat="69.2427527764" lon="17.8249249968">
		<tag k="name" v="Tverrelva" />
		<tag k="ssr:stedsnr" v="230604" />
		<tag k="waterway" v="stream" />
	</node>
	<node id="-755536" lat="69.4597249999" lon="17.963583336">
		<tag k="name" v="Lomvatnet" />
		<tag k="natural" v="water" />
		<tag k="ssr:stedsnr" v="230302" />
	</node>
	<node id="-755517" lat="69.2562611119" lon="17.7238388835">
		<tag k="name" v="Litjevatnet" />
		<tag k="natural" v="water" />
		<tag k="ssr:stedsnr" v="229739" />
	</node>
	<node id="-755516" lat="69.2589555573" lon="17.7295861022">
		<tag k="name" v="Hestevatnet" />
		<tag k="natural" v="water" />
		<tag k="ssr:stedsnr" v="229737" />
	</node>
	<node id="-755514" lat="69.2980277819" lon="17.8121249886">
		<tag k="name" v="Johanelva" />
		<tag k="ssr:stedsnr" v="229672" />
		<tag k="waterway" v="stream" />
	</node>
	<node id="-755512" lat="69.2306694423" lon="17.796838897">
		<tag k="name" v="Mandaholmen" />
		<tag k="place" v="islet" />
		<tag k="ssr:stedsnr" v="229618" />
	</node>
	<node id="-755510" lat="69.3538555577" lon="17.8753527845">
		<tag k="name" v="Litjevassholmen" />
		<tag k="place" v="islet" />
		<tag k="ssr:stedsnr" v="229488" />
	</node>
	<node id="-755494" lat="69.2827638874" lon="18.0276472171">
		<tag k="name" v="Storelva" />
		<tag k="ssr:stedsnr" v="203263" />
		<tag k="waterway" v="stream" />
	</node>
	<node id="-754648" lat="69.354505554" lon="18.0120194493">
		<tag k="name" v="Nordre Landøyelva" />
		<tag k="ssr:stedsnr" v="412942" />
		<tag k="waterway" v="stream" />
	</node>
	<node id="-755467" lat="69.5511861109" lon="17.8834138898">
		<tag k="name" v="Ginavatnet" />
		<tag k="natural" v="water" />
		<tag k="ssr:stedsnr" v="200860" />
	</node>
	<node id="-755463" lat="69.289366665" lon="18.2000083335">
		<tag k="name" v="Kistelva" />
		<tag k="ssr:stedsnr" v="200790" />
		<tag k="waterway" v="stream" />
	</node>
	<node id="-754987" lat="69.2209972256" lon="18.1076166758">
		<tag k="name" v="Beltet" />
		<tag k="natural" v="strait" />
		<tag k="ssr:stedsnr" v="50480" />
	</node>
	<node id="-755453" lat="69.5558166687" lon="17.8827638961">
		<tag k="alt_name" v="Storfjellvatnet" />
		<tag k="name" v="Storefjellvatnet" />
		<tag k="natural" v="water" />
		<tag k="ssr:stedsnr" v="200837" />
	</node>
	<node id="-755445" lat="69.4322694473" lon="18.0132166763">
		<tag k="name" v="Skrivarvatnet" />
		<tag k="natural" v="water" />
		<tag k="ssr:stedsnr" v="200668" />
	</node>
	<node id="-755443" lat="69.4315388878" lon="18.1735110982">
		<tag k="name" v="Durmålselva" />
		<tag k="ssr:stedsnr" v="200660" />
		<tag k="waterway" v="stream" />
	</node>
	<node id="-755440" lat="69.3376333299" lon="18.1456666717">
		<tag k="name" v="Pålelva" />
		<tag k="ssr:stedsnr" v="200738" />
		<tag k="waterway" v="stream" />
	</node>
	<node id="-755437" lat="69.3475000015" lon="18.428230562">
		<tag k="name" v="Sagelvvatnet" />
		<tag k="natural" v="water" />
		<tag k="ssr:stedsnr" v="200733" />
	</node>
	<node id="-755424" lat="69.1787444482" lon="17.8550583362">
		<tag k="name" v="Solbergvatnet" />
		<tag k="natural" v="water" />
		<tag k="ssr:stedsnr" v="200501" />
	</node>
	<node id="-755422" lat="69.4768333298" lon="17.9321222053">
		<tag k="name" v="Jobbonsvatnan" />
		<tag k="natural" v="water" />
		<tag k="ssr:stedsnr" v="200489" />
		<tag k="water" v="lake" />
	</node>
	<node id="-755418" lat="69.1806444419" lon="17.8948333211">
		<tag k="fixme" v="multiple name tags, choose one and add the other to alt_name" />
		<tag k="name" v="Fiskevatnet;Litjevatnet" />
		<tag k="natural" v="water" />
		<tag k="ssr:stedsnr" v="200463" />
	</node>
	<node id="-755411" lat="69.3553166644" lon="17.8521166715">
		<tag k="name" v="Tømmerelva" />
		<tag k="ssr:stedsnr" v="200039" />
		<tag k="waterway" v="river" />
	</node>
	<node id="-755407" lat="69.3890333381" lon="18.3408610997">
		<tag k="name" v="Sommarsetelva" />
		<tag k="ssr:stedsnr" v="171918" />
		<tag k="waterway" v="stream" />
	</node>
	<node id="-755401" lat="69.3566944464" lon="18.2909694399">
		<tag k="name" v="Straumsnes" />
		<tag k="natural" v="cape" />
		<tag k="ssr:stedsnr" v="171871" />
	</node>
	<node id="-755397" lat="69.2224972196" lon="18.2200249905">
		<tag k="name" v="Iverkroken" />
		<tag k="natural" v="cape" />
		<tag k="ssr:stedsnr" v="171715" />
	</node>
	<node id="-754294" lat="69.2349777765" lon="18.114355549">
		<tag k="name" v="Store Nøkketjønn" />
		<tag k="natural" v="water" />
		<tag k="ssr:stedsnr" v="292498" />
	</node>
	<node id="-755390" lat="69.3125027751" lon="18.2934055617">
		<tag k="name" v="Smalfossen" />
		<tag k="natural" v="waterfall" />
		<tag k="ssr:stedsnr" v="171753" />
	</node>
	<node id="-755387" lat="69.2366055585" lon="18.1479666596">
		<tag k="name" v="Tømmerneset" />
		<tag k="natural" v="cape" />
		<tag k="ssr:stedsnr" v="171653" />
	</node>
	<node id="-755386" lat="69.2512499955" lon="18.1454083391">
		<tag k="name" v="Sagelva" />
		<tag k="ssr:stedsnr" v="171640" />
		<tag k="waterway" v="stream" />
	</node>
	<node id="-755381" lat="69.2094416694" lon="18.1429361176">
		<tag k="name" v="Kjoselva" />
		<tag k="ssr:stedsnr" v="171569" />
		<tag k="waterway" v="stream" />
	</node>
	<node id="-757097" lat="69.5428361075" lon="17.5735805582">
		<tag k="name" v="Toftevatnet" />
		<tag k="natural" v="water" />
		<tag k="ssr:stedsnr" v="929873" />
		<tag k="water" v="lake" />
	</node>
	<node id="-755370" lat="69.1924305592" lon="17.9487055505">
		<tag k="name" v="Storelva" />
		<tag k="ssr:stedsnr" v="170751" />
		<tag k="waterway" v="stream" />
	</node>
	<node id="-755358" lat="69.2740833345" lon="17.8763250084">
		<tag k="name" v="Finnplasselva" />
		<tag k="ssr:stedsnr" v="170628" />
		<tag k="waterway" v="stream" />
	</node>
	<node id="-755354" lat="69.2430749972" lon="17.8674361011">
		<tag k="name" v="Gammelbroelva" />
		<tag k="ssr:stedsnr" v="169957" />
		<tag k="waterway" v="stream" />
	</node>
	<node id="-755351" lat="69.3785972179" lon="17.8940083347">
		<tag k="name" v="Nedre Salsvatn" />
		<tag k="natural" v="water" />
		<tag k="ssr:stedsnr" v="169870" />
	</node>
	<node id="-755349" lat="69.3923111077" lon="17.873655547">
		<tag k="name" v="Klubben" />
		<tag k="natural" v="cape" />
		<tag k="ssr:stedsnr" v="169846" />
	</node>
	<node id="-755348" lat="69.3915388904" lon="17.8731444366">
		<tag k="name" v="Revet" />
		<tag k="natural" v="strait" />
		<tag k="ssr:stedsnr" v="169845" />
	</node>
	<node id="-755340" lat="69.2473305559" lon="17.7410861097">
		<tag k="name" v="Litjeelva" />
		<tag k="ssr:stedsnr" v="169747" />
		<tag k="waterway" v="stream" />
	</node>
	<node id="-754966" lat="69.3980111134" lon="18.0323444296">
		<tag k="name" v="Styggelva" />
		<tag k="ssr:stedsnr" v="48862" />
		<tag k="waterway" v="stream" />
	</node>
	<node id="-755330" lat="69.292972219" lon="17.7824249915">
		<tag k="name" v="Vassbekken" />
		<tag k="ssr:stedsnr" v="169651" />
		<tag k="waterway" v="stream" />
	</node>
	<node id="-755329" lat="69.2955250015" lon="17.7313972105">
		<tag k="name" v="Mølnneset" />
		<tag k="natural" v="cape" />
		<tag k="ssr:stedsnr" v="169640" />
	</node>
	<node id="-755327" lat="69.312561113" lon="17.7116805439">
		<tag k="name" v="Langbakkelva" />
		<tag k="ssr:stedsnr" v="169628" />
		<tag k="waterway" v="stream" />
	</node>
	<node id="-755325" lat="69.4366916625" lon="18.0413805517">
		<tag k="name" v="Moelva" />
		<tag k="ssr:stedsnr" v="169617" />
		<tag k="waterway" v="stream" />
	</node>
	<node id="-755260" lat="69.3731527758" lon="18.1965805396">
		<tag k="name" v="Kompusvatnet" />
		<tag k="natural" v="water" />
		<tag k="ssr:stedsnr" v="140736" />
	</node>
	<node id="-755250" lat="69.4326999967" lon="17.796533326">
		<tag k="name" v="Stompedalsvatnet" />
		<tag k="natural" v="water" />
		<tag k="ssr:stedsnr" v="140456" />
	</node>
	<node id="-755241" lat="69.5666583331" lon="17.8788666744">
		<tag k="alt_name" v="Storevatnet" />
		<tag k="name" v="Storvatnet" />
		<tag k="natural" v="water" />
		<tag k="ssr:stedsnr" v="139748" />
		<tag k="water" v="lake" />
	</node>
	<node id="-755240" lat="69.3468805593" lon="18.2565277634">
		<tag k="name" v="Grindelva" />
		<tag k="ssr:stedsnr" v="139729" />
		<tag k="waterway" v="stream" />
	</node>
	<node id="-755237" lat="69.3290138898" lon="18.2816860965">
		<tag k="alt_name" v="Nordavindnes" />
		<tag k="name" v="Nordavindsneset" />
		<tag k="natural" v="cape" />
		<tag k="ssr:stedsnr" v="139754" />
	</node>
	<node id="-755232" lat="69.3276805587" lon="17.8514694551">
		<tag k="name" v="Litjebotnelva" />
		<tag k="ssr:stedsnr" v="139585" />
		<tag k="waterway" v="stream" />
	</node>
	<node id="-755222" lat="69.3999166635" lon="17.8843055411">
		<tag k="alt_name" v="Reinlivatnet" />
		<tag k="name" v="Tørrisvatnet" />
		<tag k="natural" v="water" />
		<tag k="ssr:stedsnr" v="139526" />
	</node>
	<node id="-755217" lat="69.1832944447" lon="17.9551861192">
		<tag k="name" v="Trollvatnet" />
		<tag k="natural" v="water" />
		<tag k="ssr:stedsnr" v="139481" />
	</node>
	<node id="-755207" lat="69.3496916693" lon="17.8387611167">
		<tag k="name" v="Nilselva" />
		<tag k="ssr:stedsnr" v="139554" />
		<tag k="waterway" v="river" />
	</node>
	<node id="-755193" lat="69.4672583332" lon="18.2838194293">
		<tag k="name" v="Tverrbakkelva" />
		<tag k="ssr:stedsnr" v="111877" />
		<tag k="waterway" v="stream" />
	</node>
	<node id="-755184" lat="69.2242500002" lon="18.1536083229">
		<tag k="name" v="Enforneset" />
		<tag k="natural" v="cape" />
		<tag k="ssr:stedsnr" v="111522" />
	</node>
	<node id="-755183" lat="69.2237194414" lon="18.1432083315">
		<tag k="name" v="Bjelma" />
		<tag k="ssr:stedsnr" v="111517" />
		<tag k="waterway" v="stream" />
	</node>
	<node id="-755179" lat="69.3450083317" lon="18.2811222222">
		<tag k="name" v="Linbergodden" />
		<tag k="natural" v="cape" />
		<tag k="ssr:stedsnr" v="110869" />
	</node>
	<node id="-755178" lat="69.3591638898" lon="18.2857999859">
		<tag k="name" v="Storelva" />
		<tag k="ssr:stedsnr" v="110866" />
		<tag k="waterway" v="stream" />
	</node>
	<node id="-755176" lat="69.2456249997" lon="18.166294442">
		<tag k="name" v="Høgsteneset" />
		<tag k="natural" v="cape" />
		<tag k="ssr:stedsnr" v="110626" />
	</node>
	<node id="-755174" lat="69.2920055571" lon="18.2469694526">
		<tag k="name" v="Malinabukta" />
		<tag k="natural" v="bay" />
		<tag k="ssr:stedsnr" v="110756" />
	</node>
	<node id="-755172" lat="69.2299555597" lon="18.2056666634">
		<tag k="name" v="Dypdalselva" />
		<tag k="ssr:stedsnr" v="110708" />
		<tag k="waterway" v="stream" />
	</node>
	<node id="-755166" lat="69.5087500018" lon="17.7629055415">
		<tag k="name" v="Vasskråvatnet" />
		<tag k="natural" v="water" />
		<tag k="ssr:stedsnr" v="109725" />
	</node>
	<node id="-755154" lat="69.2935250031" lon="17.739133337">
		<tag k="name" v="Steinneset" />
		<tag k="natural" v="cape" />
		<tag k="ssr:stedsnr" v="109604" />
	</node>
	<node id="-757201" lat="69.3933277812" lon="18.3500638984">
		<tag k="name" v="Nikkaelva" />
		<tag k="ssr:stedsnr" v="960925" />
		<tag k="waterway" v="stream" />
	</node>
	<node id="-757200" lat="69.3894916694" lon="18.3233277759">
		<tag k="name" v="Grønnlielva" />
		<tag k="ssr:stedsnr" v="960921" />
		<tag k="waterway" v="stream" />
	</node>
	<node id="-757196" lat="69.3755000009" lon="18.4668638933">
		<tag k="name" v="Gårdselva" />
		<tag k="ssr:stedsnr" v="960842" />
		<tag k="waterway" v="stream" />
	</node>
	<node id="-755145" lat="69.5163833378" lon="17.908761111">
		<tag k="name" v="Neselva" />
		<tag k="ssr:stedsnr" v="109557" />
		<tag k="waterway" v="stream" />
	</node>
	<node id="-755144" lat="69.5058222217" lon="17.8814777632">
		<tag k="name" v="Mølnelva" />
		<tag k="ssr:stedsnr" v="109552" />
		<tag k="waterway" v="stream" />
	</node>
	<node id="-755143" lat="69.5087666701" lon="17.8895333444">
		<tag k="name" v="Feitvatnet" />
		<tag k="natural" v="water" />
		<tag k="ssr:stedsnr" v="109547" />
		<tag k="water" v="pond" />
	</node>
	<node id="-757185" lat="69.3144694417" lon="18.0364444417">
		<tag k="name" v="Jakkelva" />
		<tag k="ssr:stedsnr" v="960625" />
		<tag k="waterway" v="stream" />
	</node>
	<node id="-757184" lat="69.2525583322" lon="18.1248305414">
		<tag k="name" v="Greina" />
		<tag k="ssr:stedsnr" v="960610" />
		<tag k="waterway" v="stream" />
	</node>
	<node id="-757183" lat="69.2517055582" lon="18.1059555658">
		<tag k="name" v="Sennatjønnene" />
		<tag k="natural" v="water" />
		<tag k="ssr:stedsnr" v="960608" />
	</node>
	<node id="-757182" lat="69.2488805573" lon="18.166199993">
		<tag k="name" v="Stenget" />
		<tag k="ssr:stedsnr" v="960602" />
		<tag k="waterway" v="stream" />
	</node>
	<node id="-755130" lat="69.5588694412" lon="17.5723249937">
		<tag k="name" v="Øyfjordvatnet" />
		<tag k="natural" v="water" />
		<tag k="ssr:stedsnr" v="109178" />
		<tag k="water" v="lake" />
	</node>
	<node id="-757173" lat="69.5591694462" lon="17.7246944467">
		<tag k="name" v="Sandvikelva" />
		<tag k="ssr:stedsnr" v="959816" />
		<tag k="waterway" v="stream" />
	</node>
	<node id="-757165" lat="69.3850861136" lon="17.9037944334">
		<tag k="name" v="Svartdalselva" />
		<tag k="ssr:stedsnr" v="958887" />
		<tag k="waterway" v="stream" />
	</node>
	<node id="-755116" lat="69.5399583337" lon="17.8901583246">
		<tag k="name" v="Storhaugvatnet" />
		<tag k="natural" v="water" />
		<tag k="ssr:stedsnr" v="109467" />
	</node>
	<node id="-755114" lat="69.3554777814" lon="17.9733333342">
		<tag k="name" v="Pinselinelva" />
		<tag k="ssr:stedsnr" v="108947" />
		<tag k="waterway" v="stream" />
	</node>
	<node id="-757156" lat="69.1928166628" lon="17.8962888757">
		<tag k="name" v="Svartvatnet" />
		<tag k="natural" v="water" />
		<tag k="ssr:stedsnr" v="958759" />
		<tag k="water" v="pond" />
	</node>
	<node id="-757150" lat="69.2276999993" lon="17.8325638775">
		<tag k="name" v="Fredrikholmen" />
		<tag k="place" v="islet" />
		<tag k="ssr:stedsnr" v="958639" />
	</node>
	<node id="-757149" lat="69.2292000039" lon="17.8271333411">
		<tag k="name" v="Nedre-Mevatnet" />
		<tag k="natural" v="water" />
		<tag k="ssr:stedsnr" v="958638" />
		<tag k="water" v="lake" />
	</node>
	<node id="-755100" lat="69.2961944419" lon="17.7776055477">
		<tag k="name" v="Litjeelva" />
		<tag k="ssr:stedsnr" v="108662" />
		<tag k="waterway" v="stream" />
	</node>
	<node id="-757147" lat="69.2329805545" lon="17.8052777824">
		<tag k="name" v="Konradholmen" />
		<tag k="place" v="islet" />
		<tag k="ssr:stedsnr" v="958636" />
	</node>
	<node id="-757146" lat="69.2315972251" lon="17.7984499968">
		<tag k="name" v="Langstråket" />
		<tag k="ssr:stedsnr" v="958633" />
		<tag k="waterway" v="rapids" />
	</node>
	<node id="-757144" lat="69.4349583323" lon="17.8156500058">
		<tag k="name" v="Stompedalselva" />
		<tag k="ssr:stedsnr" v="958627" />
		<tag k="waterway" v="stream" />
	</node>
	<node id="-755095" lat="69.3752916658" lon="17.8304694364">
		<tag k="name" v="Gammelheimelva" />
		<tag k="ssr:stedsnr" v="108253" />
		<tag k="waterway" v="stream" />
	</node>
	<node id="-755093" lat="69.3810694406" lon="17.8008694358">
		<tag k="name" v="Helveteselva" />
		<tag k="ssr:stedsnr" v="108225" />
		<tag k="waterway" v="river" />
	</node>
	<node id="-757137" lat="69.4245972213" lon="17.9394749937">
		<tag k="name" v="Bogan" />
		<tag k="natural" v="bay" />
		<tag k="ssr:stedsnr" v="958415" />
	</node>
	<node id="-757136" lat="69.4232027813" lon="17.9368638846">
		<tag k="name" v="Øverstrømmen" />
		<tag k="natural" v="strait" />
		<tag k="ssr:stedsnr" v="958410" />
	</node>
	<node id="-757131" lat="69.4755777783" lon="17.8947194521">
		<tag k="name" v="Oterelva" />
		<tag k="ssr:stedsnr" v="958340" />
		<tag k="waterway" v="stream" />
	</node>
	<node id="-757126" lat="69.3866611144" lon="17.8185111037">
		<tag k="name" v="Revelva" />
		<tag k="ssr:stedsnr" v="958252" />
		<tag k="waterway" v="stream" />
	</node>
	<node id="-757112" lat="69.2998388911" lon="17.6793000046">
		<tag k="name" v="Lappegammvatnet" />
		<tag k="natural" v="water" />
		<tag k="ssr:stedsnr" v="958019" />
	</node>
	<node id="-755063" lat="69.2908999993" lon="18.3773555521">
		<tag k="name" v="Mellaelva" />
		<tag k="ssr:stedsnr" v="79790" />
		<tag k="waterway" v="stream" />
	</node>
	<node id="-757105" lat="69.5205638923" lon="17.5880277824">
		<tag k="name" v="Korkedalsvatnet" />
		<tag k="natural" v="water" />
		<tag k="ssr:stedsnr" v="939278" />
	</node>
	<node id="-755049" lat="69.3531305554" lon="18.3382999881">
		<tag k="name" v="Bakkelva" />
		<tag k="ssr:stedsnr" v="79716" />
		<tag k="waterway" v="stream" />
	</node>
	<node id="-757096" lat="69.5389333304" lon="17.871238874">
		<tag k="name" v="Sørdalselva" />
		<tag k="ssr:stedsnr" v="929868" />
		<tag k="waterway" v="stream" />
	</node>
	<node id="-757094" lat="69.3113138919" lon="18.3260972183">
		<tag k="name" v="Tårnelva" />
		<tag k="ssr:stedsnr" v="929801" />
		<tag k="waterway" v="river" />
	</node>
	<node id="-757089" lat="69.3252222181" lon="18.1380277694">
		<tag k="name" v="Sollivatnet" />
		<tag k="natural" v="water" />
		<tag k="ssr:stedsnr" v="929769" />
		<tag k="water" v="lake" />
	</node>
	<node id="-757086" lat="69.4032027743" lon="18.0069222276">
		<tag k="name" v="Litjvatnet" />
		<tag k="natural" v="water" />
		<tag k="ssr:stedsnr" v="929696" />
	</node>
	<node id="-757084" lat="69.5003027809" lon="17.9653166687">
		<tag k="name" v="Gavlsvatnet" />
		<tag k="natural" v="water" />
		<tag k="ssr:stedsnr" v="929654" />
	</node>
	<node id="-757081" lat="69.4728750005" lon="18.2602750062">
		<tag k="name" v="Mølnelva" />
		<tag k="ssr:stedsnr" v="929609" />
		<tag k="waterway" v="stream" />
	</node>
	<node id="-757079" lat="69.3196805583" lon="17.7838888863">
		<tag k="name" v="Geitvatnet - Gáicajávri" />
		<tag k="name:no" v="Geitvatnet" />
		<tag k="name:se" v="Gáicajávri" />
		<tag k="natural" v="water" />
		<tag k="old_name:se" v="Gaicajavri" />
		<tag k="ssr:stedsnr" v="929568" />
		<tag k="water" v="lake" />
	</node>
	<node id="-755029" lat="69.3765277812" lon="17.6236361068">
		<tag k="name" v="Heggevatnet" />
		<tag k="natural" v="water" />
		<tag k="ssr:stedsnr" v="79533" />
		<tag k="water" v="lake" />
	</node>
	<node id="-757076" lat="69.3262805526" lon="17.6478638915">
		<tag k="name" v="Kjeldeelva" />
		<tag k="ssr:stedsnr" v="929554" />
		<tag k="waterway" v="stream" />
	</node>
	<node id="-755027" lat="69.4003638861" lon="17.7580777651">
		<tag k="fixme" v="multiple name tags, choose one and add the other to alt_name" />
		<tag k="name" v="Forsvatnet;Lappegamvatnet" />
		<tag k="natural" v="water" />
		<tag k="ssr:stedsnr" v="79513" />
		<tag k="water" v="lake" />
	</node>
	<node id="-757070" lat="69.4553083351" lon="17.9000027745">
		<tag k="name" v="Skjellelva" />
		<tag k="ssr:stedsnr" v="929470" />
		<tag k="waterway" v="stream" />
	</node>
	<node id="-755021" lat="69.4812583322" lon="17.8170166721">
		<tag k="alt_name" v="Henrikdalselva" />
		<tag k="name" v="Henrikdalelva" />
		<tag k="ssr:stedsnr" v="79452" />
		<tag k="waterway" v="stream" />
	</node>
	<node id="-755020" lat="69.4839305575" lon="17.9938361121">
		<tag k="name" v="Langvatnet" />
		<tag k="natural" v="water" />
		<tag k="ssr:stedsnr" v="79449" />
	</node>
	<node id="-755017" lat="69.445450003" lon="17.7814444379">
		<tag k="name" v="Groptjønna" />
		<tag k="natural" v="water" />
		<tag k="ssr:stedsnr" v="79423" />
	</node>
	<node id="-757064" lat="69.219600002" lon="17.8320805559">
		<tag k="name" v="Laukelva" />
		<tag k="ssr:stedsnr" v="929382" />
		<tag k="waterway" v="river" />
	</node>
	<node id="-757062" lat="69.3324750032" lon="18.119283333">
		<tag k="name" v="Bjorelva" />
		<tag k="ssr:stedsnr" v="929023" />
		<tag k="waterway" v="river" />
	</node>
	<node id="-757061" lat="69.3406277813" lon="18.2824722234">
		<tag k="name" v="Hakkosneset" />
		<tag k="natural" v="cape" />
		<tag k="ssr:stedsnr" v="928749" />
	</node>
	<node id="-754230" lat="69.3427499984" lon="17.8672638911">
		<tag k="name" v="Reinelva" />
		<tag k="ssr:stedsnr" v="290532" />
		<tag k="waterway" v="stream" />
	</node>
	<node id="-757058" lat="69.3914666633" lon="18.3111583229">
		<tag k="name" v="Langbakkvatnet" />
		<tag k="natural" v="water" />
		<tag k="ssr:stedsnr" v="928649" />
	</node>
	<node id="-755008" lat="69.3833972183" lon="18.3314694425">
		<tag k="name" v="Oselva" />
		<tag k="ssr:stedsnr" v="50961" />
		<tag k="waterway" v="stream" />
	</node>
	<node id="-755007" lat="69.3676194476" lon="18.3129861046">
		<tag k="name" v="Halvarelva" />
		<tag k="ssr:stedsnr" v="50934" />
		<tag k="waterway" v="stream" />
	</node>
	<node id="-757053" lat="69.3832888878" lon="17.9824083387">
		<tag k="name" v="Hannesvatnet" />
		<tag k="natural" v="water" />
		<tag k="ssr:stedsnr" v="928472" />
	</node>
	<node id="-755004" lat="69.3695500039" lon="18.4153138893">
		<tag k="name" v="Berrskallvatnan" />
		<tag k="natural" v="water" />
		<tag k="ssr:stedsnr" v="50853" />
		<tag k="water" v="lake" />
	</node>
	<node id="-757046" lat="69.5668888899" lon="17.5472222204">
		<tag k="alt_name" v="Storevatnet" />
		<tag k="name" v="Storvatnet" />
		<tag k="natural" v="water" />
		<tag k="ssr:stedsnr" v="929857" />
	</node>
	<node id="-754996" lat="69.3119083333" lon="18.2955611129">
		<tag k="name" v="Fosshølla" />
		<tag k="natural" v="water" />
		<tag k="ssr:stedsnr" v="50674" />
		<tag k="water" v="lake" />
	</node>
	<node id="-754994" lat="69.2487166689" lon="18.1853305649">
		<tag k="name" v="Ropelva" />
		<tag k="ssr:stedsnr" v="50647" />
		<tag k="waterway" v="stream" />
	</node>
	<node id="-754990" lat="69.2522472208" lon="18.1733277768">
		<tag k="name" v="Hølla" />
		<tag k="natural" v="water" />
		<tag k="ssr:stedsnr" v="50574" />
		<tag k="water" v="lake" />
	</node>
	<node id="-757035" lat="69.4070222219" lon="18.315922222">
		<tag k="name" v="Hestevatnet" />
		<tag k="natural" v="water" />
		<tag k="ssr:stedsnr" v="899990" />
		<tag k="water" v="pond" />
	</node>
	<node id="-757034" lat="69.4301666634" lon="18.2942999904">
		<tag k="name" v="Sløykvatnet" />
		<tag k="natural" v="water" />
		<tag k="ssr:stedsnr" v="899985" />
	</node>
	<node id="-757030" lat="69.379155555" lon="18.3340583353">
		<tag k="name" v="Maielva" />
		<tag k="ssr:stedsnr" v="899969" />
		<tag k="waterway" v="stream" />
	</node>
	<node id="-757025" lat="69.403313888" lon="18.2709833312">
		<tag k="name" v="Brillevatnet" />
		<tag k="natural" v="water" />
		<tag k="ssr:stedsnr" v="899931" />
	</node>
	<node id="-757024" lat="69.3871916641" lon="18.3123027609">
		<tag k="name" v="Tindhollvatnet" />
		<tag k="natural" v="water" />
		<tag k="ssr:stedsnr" v="899916" />
	</node>
	<node id="-757021" lat="69.3560555565" lon="18.1503527655">
		<tag k="name" v="Gårdslivatnet" />
		<tag k="natural" v="water" />
		<tag k="ssr:stedsnr" v="899656" />
	</node>
	<node id="-754971" lat="69.364102782" lon="17.8373499924">
		<tag k="name" v="Storelvneset" />
		<tag k="natural" v="cape" />
		<tag k="ssr:stedsnr" v="48993" />
	</node>
	<node id="-757014" lat="69.2242666626" lon="18.1115305623">
		<tag k="name" v="Vargneset" />
		<tag k="natural" v="cape" />
		<tag k="ssr:stedsnr" v="899524" />
	</node>
	<node id="-754955" lat="69.2889833298" lon="17.7722111084">
		<tag k="name" v="Løvåsneset" />
		<tag k="natural" v="cape" />
		<tag k="ssr:stedsnr" v="48615" />
	</node>
	<node id="-756993" lat="69.5287611139" lon="17.8317083355">
		<tag k="name" v="Svartvatnan" />
		<tag k="natural" v="water" />
		<tag k="ssr:stedsnr" v="868777" />
		<tag k="water" v="lake" />
	</node>
	<node id="-756987" lat="69.348305559" lon="18.3544194504">
		<tag k="name" v="Lodvikelva" />
		<tag k="ssr:stedsnr" v="868722" />
		<tag k="waterway" v="stream" />
	</node>
	<node id="-754936" lat="69.4839138851" lon="17.7988333199">
		<tag k="name" v="Tuvevatnet" />
		<tag k="natural" v="water" />
		<tag k="ssr:stedsnr" v="48330" />
	</node>
	<node id="-756979" lat="69.4047722221" lon="18.1995138972">
		<tag k="name" v="Sandbakkelva" />
		<tag k="ssr:stedsnr" v="868659" />
		<tag k="waterway" v="stream" />
	</node>
	<node id="-754929" lat="69.4064055534" lon="17.8341527834">
		<tag k="name" v="Mølnelva" />
		<tag k="ssr:stedsnr" v="48207" />
		<tag k="waterway" v="stream" />
	</node>
	<node id="-756975" lat="69.4267138878" lon="18.2116388747">
		<tag k="name" v="Storvatnet" />
		<tag k="natural" v="water" />
		<tag k="ssr:stedsnr" v="868625" />
		<tag k="water" v="lake" />
	</node>
	<node id="-754926" lat="69.5867027769" lon="17.5080638915">
		<tag k="name" v="Migdalsvatnet" />
		<tag k="natural" v="water" />
		<tag k="ssr:stedsnr" v="48196" />
	</node>
	<node id="-756969" lat="69.1827222189" lon="17.9130416636">
		<tag k="name" v="Klokkarelva" />
		<tag k="ssr:stedsnr" v="868455" />
		<tag k="waterway" v="stream" />
	</node>
	<node id="-756966" lat="69.4512611145" lon="17.95905833">
		<tag k="name" v="Lysneselva" />
		<tag k="ssr:stedsnr" v="868435" />
		<tag k="waterway" v="river" />
	</node>
	<node id="-756964" lat="69.2339333318" lon="17.8121472271">
		<tag k="name" v="Gamvatnet" />
		<tag k="natural" v="water" />
		<tag k="ssr:stedsnr" v="868396" />
	</node>
	<node id="-756960" lat="69.4208583337" lon="18.3385999953">
		<tag k="name" v="Mølnelva" />
		<tag k="ssr:stedsnr" v="868031" />
		<tag k="waterway" v="stream" />
	</node>
	<node id="-754910" lat="69.4136166681" lon="17.8466444355">
		<tag k="name" v="Krokelva" />
		<tag k="ssr:stedsnr" v="47134" />
		<tag k="waterway" v="stream" />
	</node>
	<node id="-756957" lat="69.2417388878" lon="18.2278361067">
		<tag k="name" v="Langvatnet" />
		<tag k="natural" v="water" />
		<tag k="ssr:stedsnr" v="867669" />
	</node>
	<node id="-754908" lat="69.3900833312" lon="17.8229083288">
		<tag k="name" v="Djupbukta" />
		<tag k="natural" v="bay" />
		<tag k="ssr:stedsnr" v="48209" />
	</node>
	<node id="-756947" lat="69.3703361073" lon="18.3134361004">
		<tag k="name" v="Konselva" />
		<tag k="ssr:stedsnr" v="839936" />
		<tag k="waterway" v="stream" />
	</node>
	<node id="-754897" lat="69.3494111111" lon="18.1289277627">
		<tag k="name" v="Durmålselva" />
		<tag k="ssr:stedsnr" v="25535" />
		<tag k="waterway" v="river" />
	</node>
	<node id="-754891" lat="69.2761999993" lon="18.0845388739">
		<tag k="name" v="Lomvatnet" />
		<tag k="natural" v="water" />
		<tag k="ssr:stedsnr" v="21258" />
	</node>
	<node id="-756938" lat="69.3470888882" lon="18.2662138737">
		<tag k="name" v="Mølnelva" />
		<tag k="ssr:stedsnr" v="839766" />
		<tag k="waterway" v="stream" />
	</node>
	<node id="-756934" lat="69.3135277756" lon="18.2889110994">
		<tag k="name" v="Kvernfossen" />
		<tag k="natural" v="waterfall" />
		<tag k="ssr:stedsnr" v="839731" />
	</node>
	<node id="-754885" lat="69.3957472254" lon="18.0460638926">
		<tag k="name" v="Grunnvågvatnet" />
		<tag k="natural" v="water" />
		<tag k="ssr:stedsnr" v="19698" />
		<tag k="water" v="lake" />
	</node>
	<node id="-756928" lat="69.3260555549" lon="18.1638083246">
		<tag k="name" v="Tverrelva" />
		<tag k="ssr:stedsnr" v="839626" />
		<tag k="waterway" v="stream" />
	</node>
	<node id="-756927" lat="69.2737166693" lon="18.037605559">
		<tag k="name" v="Talggrøtelva" />
		<tag k="ssr:stedsnr" v="839589" />
		<tag k="waterway" v="stream" />
	</node>
	<node id="-756924" lat="69.2238277806" lon="18.1531555573">
		<tag k="name" v="Toforneset" />
		<tag k="natural" v="cape" />
		<tag k="ssr:stedsnr" v="839557" />
	</node>
	<node id="-756919" lat="69.2315222268" lon="18.1106166569">
		<tag k="name" v="Litje Nøkketjønn" />
		<tag k="natural" v="water" />
		<tag k="ssr:stedsnr" v="839530" />
	</node>
	<node id="-756918" lat="69.2252666664" lon="18.1165305554">
		<tag k="name" v="Øyjordnøkketjønna" />
		<tag k="ssr:stedsnr" v="839524" />
		<tag k="waterway" v="stream" />
	</node>
	<node id="-756915" lat="69.3303444467" lon="18.2303999864">
		<tag k="name" v="Skjellelva" />
		<tag k="ssr:stedsnr" v="838917" />
		<tag k="waterway" v="stream" />
	</node>
	<node id="-754862" lat="69.296599998" lon="18.2349722299">
		<tag k="name" v="Rossfjordvatnet" />
		<tag k="natural" v="water" />
		<tag k="ssr:stedsnr" v="18726" />
		<tag k="water" v="lake" />
	</node>
	<node id="-754861" lat="69.332116666" lon="18.329544442">
		<tag k="alt_name" v="Bjørnhaugvatnet" />
		<tag k="name" v="Bjørnhågvatnet" />
		<tag k="natural" v="water" />
		<tag k="ssr:stedsnr" v="18724" />
	</node>
	<node id="-754860" lat="69.3151444442" lon="18.050799998">
		<tag k="name" v="Skjellelva" />
		<tag k="ssr:stedsnr" v="18725" />
		<tag k="waterway" v="stream" />
	</node>
	<node id="-756906" lat="69.24728889" lon="18.0024055422">
		<tag k="name" v="Skjellelva" />
		<tag k="ssr:stedsnr" v="838700" />
		<tag k="waterway" v="stream" />
	</node>
	<node id="-754851" lat="69.3773444457" lon="18.1897833213">
		<tag k="name" v="Kompuselva" />
		<tag k="ssr:stedsnr" v="18678" />
		<tag k="waterway" v="stream" />
	</node>
	<node id="-754849" lat="69.3901666633" lon="18.0375416725">
		<tag k="alt_name" v="Haneselva" />
		<tag k="name" v="Hanneselva" />
		<tag k="ssr:stedsnr" v="18636" />
		<tag k="waterway" v="stream" />
	</node>
	<node id="-756895" lat="69.5411638898" lon="17.7259888965">
		<tag k="name" v="Bakvatnet" />
		<tag k="natural" v="water" />
		<tag k="ssr:stedsnr" v="837842" />
	</node>
	<node id="-754845" lat="69.3290305579" lon="17.744972225">
		<tag k="name" v="Gunnarvatnet" />
		<tag k="natural" v="water" />
		<tag k="ssr:stedsnr" v="18544" />
	</node>
	<node id="-754842" lat="69.360624997" lon="17.7374249922">
		<tag k="name" v="Heggevatnet" />
		<tag k="natural" v="water" />
		<tag k="ssr:stedsnr" v="18519" />
	</node>
	<node id="-754840" lat="69.3779277751" lon="17.893358317">
		<tag k="name" v="Salsvatnan" />
		<tag k="natural" v="water" />
		<tag k="ssr:stedsnr" v="18508" />
		<tag k="water" v="lake" />
	</node>
	<node id="-754838" lat="69.3491222233" lon="17.794844431">
		<tag k="name" v="Tverrelva" />
		<tag k="ssr:stedsnr" v="18501" />
		<tag k="waterway" v="stream" />
	</node>
	<node id="-756883" lat="69.2884388935" lon="17.6962944389">
		<tag k="name" v="Litjevardhaugvatnet" />
		<tag k="natural" v="water" />
		<tag k="ssr:stedsnr" v="837648" />
	</node>
	<node id="-756882" lat="69.2852055515" lon="17.7018833365">
		<tag k="name" v="Vasselva" />
		<tag k="ssr:stedsnr" v="837646" />
		<tag k="waterway" v="stream" />
	</node>
	<node id="-754832" lat="69.2288722218" lon="17.8413361172">
		<tag k="name" v="Sjøvatnet" />
		<tag k="natural" v="water" />
		<tag k="ssr:stedsnr" v="18352" />
	</node>
	<node id="-754830" lat="69.4890611121" lon="17.817522232">
		<tag k="name" v="Huselva - Goahtejohka" />
		<tag k="name:no" v="Huselva" />
		<tag k="name:se" v="Goahtejohka" />
		<tag k="old_name:se" v="Goattejåkka" />
		<tag k="ssr:stedsnr" v="18346" />
		<tag k="waterway" v="river" />
	</node>
	<node id="-756877" lat="69.2424111145" lon="17.8484138961">
		<tag k="name" v="Kvanntoelva" />
		<tag k="ssr:stedsnr" v="837629" />
		<tag k="waterway" v="stream" />
	</node>
	<node id="-754824" lat="69.4581499969" lon="17.7983749891">
		<tag k="name" v="Stordalselva" />
		<tag k="ssr:stedsnr" v="18419" />
		<tag k="waterway" v="river" />
	</node>
	<node id="-756856" lat="69.4635305596" lon="17.9930638925">
		<tag k="name" v="Vinterelva" />
		<tag k="ssr:stedsnr" v="837315" />
		<tag k="waterway" v="stream" />
	</node>
	<node id="-756847" lat="69.3593472244" lon="17.8301861195">
		<tag k="name" v="Kastan" />
		<tag k="natural" v="beach" />
		<tag k="ssr:stedsnr" v="837214" />
	</node>
	<node id="-756841" lat="69.5599916674" lon="17.5796722095">
		<tag k="name" v="Storelva" />
		<tag k="ssr:stedsnr" v="837162" />
		<tag k="waterway" v="stream" />
	</node>
	<node id="-756830" lat="69.5655111119" lon="17.5352000028">
		<tag k="name" v="Tverrfjellvatnet" />
		<tag k="natural" v="water" />
		<tag k="ssr:stedsnr" v="837012" />
	</node>
	<node id="-754770" lat="69.2963944447" lon="17.7417972239">
		<tag k="name" v="Steinmoelva" />
		<tag k="ssr:stedsnr" v="898656" />
		<tag k="waterway" v="stream" />
	</node>
	<node id="-754766" lat="69.2711888913" lon="17.9416750009">
		<tag k="name" v="Voelva" />
		<tag k="ssr:stedsnr" v="898624" />
		<tag k="waterway" v="stream" />
	</node>
	<node id="-754765" lat="69.5337111149" lon="17.8922888887">
		<tag k="name" v="Sørdalsvatnet" />
		<tag k="natural" v="water" />
		<tag k="ssr:stedsnr" v="898607" />
	</node>
	<node id="-754530" lat="69.2594944471" lon="17.87644443">
		<tag k="name" v="Botnelva" />
		<tag k="ssr:stedsnr" v="382594" />
		<tag k="waterway" v="stream" />
	</node>
	<node id="-754870" lat="69.5316333364" lon="17.8968305455">
		<tag k="name" v="Lomvatnet" />
		<tag k="natural" v="water" />
		<tag k="ssr:stedsnr" v="18783" />
	</node>
	<node id="-756798" lat="69.2982805557" lon="18.1228249891">
		<tag k="name" v="Steindalsvatnet" />
		<tag k="natural" v="water" />
		<tag k="ssr:stedsnr" v="807790" />
	</node>
	<node id="-754740" lat="69.25438889" lon="17.6784305478">
		<tag k="name" v="Tverrelva" />
		<tag k="ssr:stedsnr" v="898042" />
		<tag k="waterway" v="stream" />
	</node>
	<node id="-756785" lat="69.3992333369" lon="18.2029361012">
		<tag k="name" v="Vedelva" />
		<tag k="ssr:stedsnr" v="807681" />
		<tag k="waterway" v="stream" />
	</node>
	<node id="-756784" lat="69.4055611094" lon="18.3506222101">
		<tag k="name" v="Sagelva" />
		<tag k="ssr:stedsnr" v="807680" />
		<tag k="waterway" v="stream" />
	</node>
	<node id="-754484" lat="69.3309472259" lon="18.3503944464">
		<tag k="name" v="Svartbekken" />
		<tag k="ssr:stedsnr" v="353823" />
		<tag k="waterway" v="stream" />
	</node>
	<node id="-756775" lat="69.3090583367" lon="17.877422231">
		<tag k="alt_name" v="Jøtulhaugvatnet" />
		<tag k="name" v="Jøtulvatnet" />
		<tag k="natural" v="water" />
		<tag k="ssr:stedsnr" v="807558" />
	</node>
	<node id="-754726" lat="69.2894749975" lon="17.8519166618">
		<tag k="name" v="Småan" />
		<tag k="natural" v="water" />
		<tag k="ssr:stedsnr" v="897646" />
	</node>
	<node id="-756773" lat="69.3617083349" lon="17.9471861177">
		<tag k="name" v="Landøyelva" />
		<tag k="ssr:stedsnr" v="807550" />
		<tag k="waterway" v="stream" />
	</node>
	<node id="-756771" lat="69.3787583317" lon="17.8115722206">
		<tag k="name" v="Lysvatnet - Čáhppesjávri" />
		<tag k="name:no" v="Lysvatnet" />
		<tag k="name:se" v="Čáhppesjávri" />
		<tag k="natural" v="water" />
		<tag k="old_name:se" v="Čappesjavri" />
		<tag k="ssr:stedsnr" v="807539" />
		<tag k="water" v="lake" />
	</node>
	<node id="-756770" lat="69.3824250011" lon="17.6726500084">
		<tag k="alt_name" v="Isvatnan, nedre" />
		<tag k="name" v="Nedre Isvatnan" />
		<tag k="natural" v="water" />
		<tag k="ssr:stedsnr" v="807538" />
		<tag k="water" v="lake" />
	</node>
	<node id="-754523" lat="69.3473972267" lon="17.6197916655">
		<tag k="name" v="Čazajávri" />
		<tag k="name:se" v="Čazajávri" />
		<tag k="natural" v="water" />
		<tag k="old_name:se" v="Čazajavri" />
		<tag k="ssr:stedsnr" v="382528" />
	</node>
	<node id="-754718" lat="69.4021444442" lon="17.8422333242">
		<tag k="name" v="Storneset" />
		<tag k="natural" v="cape" />
		<tag k="ssr:stedsnr" v="897218" />
	</node>
	<node id="-756763" lat="69.1860361113" lon="17.8798388838">
		<tag k="name" v="Mjåvatnet" />
		<tag k="natural" v="water" />
		<tag k="ssr:stedsnr" v="807481" />
	</node>
	<node id="-756759" lat="69.4782694438" lon="17.8032333396">
		<tag k="alt_name" v="Skarelvjordvatnet" />
		<tag k="name" v="Skardelvvatnet" />
		<tag k="natural" v="water" />
		<tag k="ssr:stedsnr" v="807468" />
	</node>
	<node id="-754706" lat="69.4045027768" lon="18.3354083242">
		<tag k="name" v="Storelva" />
		<tag k="ssr:stedsnr" v="474917" />
		<tag k="waterway" v="stream" />
	</node>
	<node id="-754704" lat="69.3230222256" lon="18.2365694543">
		<tag k="name" v="Farkevika" />
		<tag k="natural" v="bay" />
		<tag k="ssr:stedsnr" v="474895" />
	</node>
	<node id="-756751" lat="69.2277222223" lon="17.8488694505">
		<tag k="name" v="Sjøfossen" />
		<tag k="natural" v="waterfall" />
		<tag k="ssr:stedsnr" v="807385" />
	</node>
	<node id="-756749" lat="69.2133388876" lon="17.8720388733">
		<tag k="name" v="Øyvatnet" />
		<tag k="natural" v="water" />
		<tag k="ssr:stedsnr" v="807382" />
	</node>
	<node id="-754700" lat="69.3126527753" lon="18.2771916584">
		<tag k="name" v="Eineneset" />
		<tag k="natural" v="cape" />
		<tag k="ssr:stedsnr" v="474743" />
	</node>
	<node id="-754698" lat="69.2690944468" lon="18.1832194488">
		<tag k="name" v="Amundelva" />
		<tag k="ssr:stedsnr" v="474699" />
		<tag k="waterway" v="stream" />
	</node>
	<node id="-754694" lat="69.2449888931" lon="18.1680722254">
		<tag k="name" v="Innerneset" />
		<tag k="natural" v="cape" />
		<tag k="ssr:stedsnr" v="474618" />
	</node>
	<node id="-754693" lat="69.2062972217" lon="18.0912555577">
		<tag k="name" v="Langtjønna" />
		<tag k="natural" v="water" />
		<tag k="ssr:stedsnr" v="474568" />
	</node>
	<node id="-756740" lat="69.4629888918" lon="18.2967305517">
		<tag k="name" v="Reindalselva" />
		<tag k="ssr:stedsnr" v="778917" />
		<tag k="waterway" v="stream" />
	</node>
	<node id="-754691" lat="69.2221055547" lon="18.1250416745">
		<tag k="name" v="Middagstjønna" />
		<tag k="natural" v="water" />
		<tag k="ssr:stedsnr" v="474545" />
	</node>
	<node id="-754688" lat="69.216988887" lon="18.0791333391">
		<tag k="name" v="Finnfjordelva" />
		<tag k="ssr:stedsnr" v="474457" />
		<tag k="waterway" v="stream" />
	</node>
	<node id="-756735" lat="69.3931805545" lon="18.2601110978">
		<tag k="name" v="Storskarelva" />
		<tag k="ssr:stedsnr" v="778880" />
		<tag k="waterway" v="stream" />
	</node>
	<node id="-754686" lat="69.5441111085" lon="17.8040361189">
		<tag k="name" v="Gamvikelva" />
		<tag k="ssr:stedsnr" v="473994" />
		<tag k="waterway" v="stream" />
	</node>
	<node id="-754684" lat="69.5404944455" lon="17.7550444494">
		<tag k="name" v="Småelven" />
		<tag k="ssr:stedsnr" v="473845" />
		<tag k="waterway" v="stream" />
	</node>
	<node id="-756722" lat="69.3097361095" lon="18.3157833291">
		<tag k="name" v="Gjerdfossen" />
		<tag k="natural" v="waterfall" />
		<tag k="ssr:stedsnr" v="778709" />
	</node>
	<node id="-756718" lat="69.2410055536" lon="18.1198833412">
		<tag k="name" v="Holmen" />
		<tag k="natural" v="cape" />
		<tag k="ssr:stedsnr" v="778615" />
	</node>
	<node id="-756712" lat="69.2350444437" lon="18.1474611136">
		<tag k="name" v="Tømmerneset" />
		<tag k="natural" v="cape" />
		<tag k="ssr:stedsnr" v="778511" />
	</node>
	<node id="-754662" lat="69.2302694433" lon="17.9854555429">
		<tag k="name" v="Finnsnesvatnet" />
		<tag k="natural" v="water" />
		<tag k="ssr:stedsnr" v="473386" />
	</node>
	<node id="-754661" lat="69.4874388885" lon="17.9890194416">
		<tag k="name" v="Fiskevatnet" />
		<tag k="natural" v="water" />
		<tag k="ssr:stedsnr" v="473360" />
	</node>
	<node id="-754654" lat="69.5095916703" lon="17.6212277867">
		<tag k="name" v="Storelva" />
		<tag k="ssr:stedsnr" v="473226" />
		<tag k="waterway" v="stream" />
	</node>
	<node id="-756699" lat="69.3582972203" lon="17.9549694471">
		<tag k="name" v="Søndre Landøyelva" />
		<tag k="ssr:stedsnr" v="776956" />
		<tag k="waterway" v="stream" />
	</node>
	<node id="-756697" lat="69.3761027756" lon="17.8626083351">
		<tag k="name" v="Storelva" />
		<tag k="ssr:stedsnr" v="776888" />
		<tag k="waterway" v="stream" />
	</node>
	<node id="-756696" lat="69.3846527797" lon="17.8633861179">
		<tag k="name" v="Rundvatnet" />
		<tag k="natural" v="water" />
		<tag k="ssr:stedsnr" v="776882" />
	</node>
	<node id="-754647" lat="69.3780527817" lon="17.9291277753">
		<tag k="alt_name" v="Steinvatnet" />
		<tag k="name" v="Svartfjellvatnet" />
		<tag k="natural" v="water" />
		<tag k="ssr:stedsnr" v="412870" />
	</node>
	<node id="-754645" lat="69.4019083319" lon="18.0399388776">
		<tag k="name" v="Gårdselva" />
		<tag k="ssr:stedsnr" v="412842" />
		<tag k="waterway" v="stream" />
	</node>
	<node id="-754641" lat="69.4979138875" lon="17.7892360976">
		<tag k="name" v="Kjeipelva" />
		<tag k="ssr:stedsnr" v="412701" />
		<tag k="waterway" v="stream" />
	</node>
	<node id="-754634" lat="69.2446888931" lon="18.00620832">
		<tag k="name" v="Fjellvatnet" />
		<tag k="natural" v="water" />
		<tag k="ssr:stedsnr" v="412628" />
	</node>
	<node id="-756680" lat="69.4916027744" lon="18.0534638951">
		<tag k="name" v="Tverrelva" />
		<tag k="ssr:stedsnr" v="776630" />
		<tag k="waterway" v="stream" />
	</node>
	<node id="-756677" lat="69.3007472222" lon="17.7307361142">
		<tag k="name" v="Gobejávri" />
		<tag k="name:se" v="Gobejávri" />
		<tag k="natural" v="water" />
		<tag k="ssr:stedsnr" v="776611" />
		<tag k="water" v="pond" />
	</node>
	<node id="-756668" lat="69.4970194486" lon="17.9410083339">
		<tag k="name" v="Mortenheimsvatnan" />
		<tag k="natural" v="water" />
		<tag k="ssr:stedsnr" v="776469" />
		<tag k="water" v="lake" />
	</node>
	<node id="-754616" lat="69.4707416643" lon="17.9941499873">
		<tag k="name" v="Skarsvågelva" />
		<tag k="ssr:stedsnr" v="412294" />
		<tag k="waterway" v="river" />
	</node>
	<node id="-754612" lat="69.3854250019" lon="17.8244138778">
		<tag k="name" v="Revneset" />
		<tag k="natural" v="cape" />
		<tag k="ssr:stedsnr" v="412209" />
	</node>
	<node id="-754610" lat="69.3582138922" lon="17.848302784">
		<tag k="name" v="Vassenden" />
		<tag k="natural" v="bay" />
		<tag k="ssr:stedsnr" v="412197" />
	</node>
	<node id="-754605" lat="69.5688138902" lon="17.6657972097">
		<tag k="name" v="Balteelva" />
		<tag k="ssr:stedsnr" v="412163" />
		<tag k="waterway" v="stream" />
	</node>
	<node id="-756652" lat="69.3213055556" lon="17.8368138788">
		<tag k="name" v="Litjebotnelva" />
		<tag k="ssr:stedsnr" v="775576" />
		<tag k="waterway" v="stream" />
	</node>
	<node id="-756649" lat="69.4247472251" lon="17.9261555451">
		<tag k="name" v="Finnerø" />
		<tag k="natural" v="cape" />
		<tag k="ssr:stedsnr" v="776375" />
	</node>
	<node id="-754596" lat="69.4473749967" lon="17.9498722239">
		<tag k="name" v="Krokelva" />
		<tag k="ssr:stedsnr" v="411376" />
		<tag k="waterway" v="stream" />
	</node>
	<node id="-754594" lat="69.511400001" lon="17.7524055586">
		<tag k="name" v="Storvatnet" />
		<tag k="natural" v="water" />
		<tag k="ssr:stedsnr" v="412718" />
		<tag k="water" v="lake" />
	</node>
	<node id="-756635" lat="69.2453388926" lon="17.9545583195">
		<tag k="name" v="Sortebekken" />
		<tag k="ssr:stedsnr" v="757333" />
		<tag k="waterway" v="stream" />
	</node>
	<node id="-754580" lat="69.3900611117" lon="18.1823944507">
		<tag k="name" v="Storelva" />
		<tag k="ssr:stedsnr" v="389562" />
		<tag k="waterway" v="stream" />
	</node>
	<node id="-756623" lat="69.2854916639" lon="17.8237305594">
		<tag k="name" v="Grasmyrskogvatnet" />
		<tag k="natural" v="water" />
		<tag k="ssr:stedsnr" v="747600" />
		<tag k="water" v="lake" />
	</node>
	<node id="-756622" lat="69.4228194405" lon="17.9181888798">
		<tag k="fixme" v="multiple name tags, choose one and add the other to alt_name" />
		<tag k="name" v="Lysbotnvatnet;Sjøvatnet" />
		<tag k="natural" v="water" />
		<tag k="ssr:stedsnr" v="747441" />
		<tag k="water" v="lake" />
	</node>
	<node id="-756603" lat="69.4540499999" lon="18.3351749908">
		<tag k="fixme" v="multiple name tags, choose one and add the other to alt_name" />
		<tag k="name" v="Jøvikelva;Storelva" />
		<tag k="ssr:stedsnr" v="746653" />
		<tag k="waterway" v="river" />
	</node>
	<node id="-756596" lat="69.352274999" lon="17.9231388816">
		<tag k="name" v="Bjelma" />
		<tag k="ssr:stedsnr" v="746535" />
		<tag k="waterway" v="stream" />
	</node>
	<node id="-754835" lat="69.4559916673" lon="17.9187666583">
		<tag k="name" v="Lomvatnet" />
		<tag k="natural" v="water" />
		<tag k="ssr:stedsnr" v="18452" />
	</node>
	<node id="-754543" lat="69.3958777813" lon="18.281624995">
		<tag k="name" v="Langtjønna" />
		<tag k="natural" v="water" />
		<tag k="ssr:stedsnr" v="382667" />
	</node>
	<node id="-756587" lat="69.2483944462" lon="17.9239888963">
		<tag k="alt_name" v="Storevatnet" />
		<tag k="name" v="Storvatnet" />
		<tag k="natural" v="water" />
		<tag k="ssr:stedsnr" v="746423" />
		<tag k="water" v="lake" />
	</node>
	<node id="-756585" lat="69.238252778" lon="18.241350009">
		<tag k="name" v="Brubekkvatnet" />
		<tag k="natural" v="water" />
		<tag k="ssr:stedsnr" v="745688" />
	</node>
	<node id="-754532" lat="69.2843277781" lon="17.68469443">
		<tag k="name" v="Tverrelva" />
		<tag k="ssr:stedsnr" v="382596" />
		<tag k="waterway" v="stream" />
	</node>
	<node id="-756578" lat="69.3859222183" lon="18.3322527662">
		<tag k="name" v="Årneselva" />
		<tag k="ssr:stedsnr" v="717915" />
		<tag k="waterway" v="stream" />
	</node>
	<node id="-754527" lat="69.3276194479" lon="17.6593416686">
		<tag k="name" v="Kjeldevatnan - Ájajávrrit" />
		<tag k="name:no" v="Kjeldevatnan" />
		<tag k="name:se" v="Ájajávrrit" />
		<tag k="natural" v="water" />
		<tag k="old_name:se" v="Ajajavrit" />
		<tag k="ssr:stedsnr" v="382573" />
		<tag k="water" v="lake" />
	</node>
	<node id="-756572" lat="69.3573000041" lon="18.4675000051">
		<tag k="name" v="Lomtjern" />
		<tag k="natural" v="water" />
		<tag k="ssr:stedsnr" v="717836" />
		<tag k="water" v="pond" />
	</node>
	<node id="-756571" lat="69.3382305522" lon="18.4743861142">
		<tag k="name" v="Schrøyerelva" />
		<tag k="ssr:stedsnr" v="717824" />
		<tag k="waterway" v="stream" />
	</node>
	<node id="-754522" lat="69.34782778" lon="17.7480250006">
		<tag k="fixme" v="multiple name tags, choose one and add the other to alt_name" />
		<tag k="name" v="Kvitfjellvatnan;Snøvatnan - Visttaloamejávrrit" />
		<tag k="name:no" v="Kvitfjellvatnan;Snøvatnan" />
		<tag k="name:se" v="Visttaloamejávrrit" />
		<tag k="natural" v="water" />
		<tag k="old_name:se" v="Vistaloamejavrit" />
		<tag k="ssr:stedsnr" v="382526" />
		<tag k="water" v="lake" />
	</node>
	<node id="-754519" lat="69.4154555549" lon="17.7867972138">
		<tag k="name" v="Hestevatnet" />
		<tag k="natural" v="water" />
		<tag k="ssr:stedsnr" v="382516" />
	</node>
	<node id="-754518" lat="69.3874999987" lon="17.6589916532">
		<tag k="alt_name" v="Isvatnan, øvre" />
		<tag k="name" v="Øvre Isvatnan" />
		<tag k="natural" v="water" />
		<tag k="ssr:stedsnr" v="382509" />
		<tag k="water" v="lake" />
	</node>
	<node id="-754517" lat="69.4697194421" lon="17.8021777646">
		<tag k="alt_name" v="Skardelva" />
		<tag k="name" v="Skarelva" />
		<tag k="ssr:stedsnr" v="382498" />
		<tag k="waterway" v="stream" />
	</node>
	<node id="-754514" lat="69.4384666668" lon="17.7363888772">
		<tag k="name" v="Stordalsvatnet" />
		<tag k="natural" v="water" />
		<tag k="ssr:stedsnr" v="382462" />
	</node>
	<node id="-754513" lat="69.4323833301" lon="17.67111944">
		<tag k="name" v="Salingsvatnan" />
		<tag k="natural" v="water" />
		<tag k="ssr:stedsnr" v="382455" />
		<tag k="water" v="lake" />
	</node>
	<node id="-756559" lat="69.3170305563" lon="18.0455138782">
		<tag k="name" v="Djupelvkjeften" />
		<tag k="natural" v="bay" />
		<tag k="ssr:stedsnr" v="717627" />
	</node>
	<node id="-754507" lat="69.2312944487" lon="17.7631916648">
		<tag k="alt_name:no" v="Hellevatnet" />
		<tag k="name" v="Hellemovatnet - Heallojávri" />
		<tag k="name:no" v="Hellemovatnet" />
		<tag k="name:se" v="Heallojávri" />
		<tag k="natural" v="water" />
		<tag k="ssr:stedsnr" v="382412" />
	</node>
	<node id="-754506" lat="69.2297944426" lon="17.7841166721">
		<tag k="name" v="Mevatnet" />
		<tag k="natural" v="water" />
		<tag k="ssr:stedsnr" v="382413" />
		<tag k="water" v="lake" />
	</node>
	<node id="-754505" lat="69.4975944449" lon="17.6212249989">
		<tag k="alt_name" v="Storvatnet" />
		<tag k="name" v="Storevatnet" />
		<tag k="natural" v="water" />
		<tag k="ssr:stedsnr" v="382391" />
	</node>
	<node id="-756552" lat="69.2232000019" lon="18.0859333387">
		<tag k="name" v="Flyndrevatnet" />
		<tag k="natural" v="water" />
		<tag k="ssr:stedsnr" v="717474" />
	</node>
	<node id="-754499" lat="69.1739611145" lon="17.8793972215">
		<tag k="name" v="Mølnelva" />
		<tag k="ssr:stedsnr" v="382117" />
		<tag k="waterway" v="stream" />
	</node>
	<node id="-754498" lat="69.2448916653" lon="18.0308583318">
		<tag k="alt_name" v="Sandvikselva" />
		<tag k="name" v="Sandvikelva" />
		<tag k="ssr:stedsnr" v="381676" />
		<tag k="waterway" v="stream" />
	</node>
	<node id="-756543" lat="69.5131500007" lon="17.7397611061">
		<tag k="name" v="Langvatnet" />
		<tag k="natural" v="water" />
		<tag k="ssr:stedsnr" v="716769" />
		<tag k="water" v="lake" />
	</node>
	<node id="-754493" lat="69.4343333362" lon="18.3205555505">
		<tag k="name" v="Ytter-Skjærvatnet" />
		<tag k="natural" v="water" />
		<tag k="ssr:stedsnr" v="353945" />
	</node>
	<node id="-756538" lat="69.2566111108" lon="17.9569527789">
		<tag k="name" v="Tetlelva" />
		<tag k="ssr:stedsnr" v="716689" />
		<tag k="waterway" v="stream" />
	</node>
	<node id="-754487" lat="69.3753944443" lon="18.4566694329">
		<tag k="name" v="Jordelva" />
		<tag k="ssr:stedsnr" v="353858" />
		<tag k="waterway" v="stream" />
	</node>
	<node id="-756532" lat="69.4872777756" lon="17.822674985">
		<tag k="name" v="Stilla" />
		<tag k="natural" v="water" />
		<tag k="ssr:stedsnr" v="716369" />
		<tag k="water" v="lake" />
	</node>
	<node id="-756531" lat="69.4765305598" lon="17.8454027714">
		<tag k="name" v="Krakneselva" />
		<tag k="ssr:stedsnr" v="716366" />
		<tag k="waterway" v="stream" />
	</node>
	<node id="-754482" lat="69.3577833361" lon="18.4829083172">
		<tag k="name" v="Mellemvikelva" />
		<tag k="ssr:stedsnr" v="353820" />
		<tag k="waterway" v="stream" />
	</node>
	<node id="-756527" lat="69.5333972219" lon="17.6963916695">
		<tag k="name" v="Dreveelva" />
		<tag k="ssr:stedsnr" v="716269" />
		<tag k="waterway" v="stream" />
	</node>
	<node id="-756526" lat="69.3152499967" lon="17.8691916581">
		<tag k="name" v="Bogelva" />
		<tag k="ssr:stedsnr" v="716125" />
		<tag k="waterway" v="stream" />
	</node>
	<node id="-754475" lat="69.311255554" lon="18.2468805386">
		<tag k="name" v="Langnesodden" />
		<tag k="natural" v="cape" />
		<tag k="ssr:stedsnr" v="353715" />
	</node>
	<node id="-756522" lat="69.2385750003" lon="17.9221777854">
		<tag k="name" v="Trollvatnet" />
		<tag k="natural" v="water" />
		<tag k="ssr:stedsnr" v="715963" />
	</node>
	<node id="-756520" lat="69.2408944414" lon="17.8662361148">
		<tag k="name" v="Kvanntoelva" />
		<tag k="ssr:stedsnr" v="715952" />
		<tag k="waterway" v="stream" />
	</node>
	<node id="-756519" lat="69.3541777812" lon="17.982691666">
		<tag k="name" v="Tobakkelva" />
		<tag k="ssr:stedsnr" v="715939" />
		<tag k="waterway" v="stream" />
	</node>
	<node id="-756513" lat="69.4252444421" lon="18.0248861051">
		<tag k="name" v="Stivatnet" />
		<tag k="natural" v="water" />
		<tag k="ssr:stedsnr" v="715678" />
		<tag k="water" v="pond" />
	</node>
	<node id="-756512" lat="69.4210166658" lon="18.065072223">
		<tag k="name" v="Øyjordelva" />
		<tag k="ssr:stedsnr" v="715673" />
		<tag k="waterway" v="stream" />
	</node>
	<node id="-756510" lat="69.2987777796" lon="17.8514499994">
		<tag k="name" v="Finnsetelva" />
		<tag k="ssr:stedsnr" v="715669" />
		<tag k="waterway" v="stream" />
	</node>
	<node id="-756509" lat="69.2967611136" lon="17.8228166644">
		<tag k="name" v="Lamoelva" />
		<tag k="ssr:stedsnr" v="715660" />
		<tag k="waterway" v="stream" />
	</node>
	<node id="-754458" lat="69.552969446" lon="17.8078194399">
		<tag k="name" v="Kvalvikelva" />
		<tag k="ssr:stedsnr" v="352823" />
		<tag k="waterway" v="stream" />
	</node>
	<node id="-756504" lat="69.2308222193" lon="17.8255555641">
		<tag k="name" v="Skjetthølla" />
		<tag k="natural" v="water" />
		<tag k="ssr:stedsnr" v="715614" />
		<tag k="water" v="lake" />
	</node>
	<node id="-756498" lat="69.3601416619" lon="17.8869777833">
		<tag k="alt_name" v="Stompelva" />
		<tag k="name" v="Sørlielva" />
		<tag k="ssr:stedsnr" v="715595" />
		<tag k="waterway" v="stream" />
	</node>
	<node id="-754449" lat="69.2053472238" lon="17.8873638791">
		<tag k="name" v="Dalelva" />
		<tag k="ssr:stedsnr" v="352365" />
		<tag k="waterway" v="stream" />
	</node>
	<node id="-756495" lat="69.4238250042" lon="17.9365222244">
		<tag k="name" v="Øverneset" />
		<tag k="natural" v="cape" />
		<tag k="ssr:stedsnr" v="715416" />
	</node>
	<node id="-756494" lat="69.381044442" lon="17.8492305489">
		<tag k="name" v="Lomtjernet" />
		<tag k="natural" v="water" />
		<tag k="ssr:stedsnr" v="715250" />
	</node>
	<node id="-756493" lat="69.3909749994" lon="17.7814944369">
		<tag k="name" v="Nedre Fossvatn" />
		<tag k="natural" v="water" />
		<tag k="ssr:stedsnr" v="715244" />
		<tag k="water" v="lake" />
	</node>
	<node id="-754443" lat="69.5450972267" lon="17.7485416619">
		<tag k="name" v="Selvågelva" />
		<tag k="ssr:stedsnr" v="351833" />
		<tag k="waterway" v="stream" />
	</node>
	<node id="-754440" lat="69.4971749992" lon="17.8461277642">
		<tag k="name" v="Blomdalelva" />
		<tag k="ssr:stedsnr" v="351783" />
		<tag k="waterway" v="stream" />
	</node>
	<node id="-754439" lat="69.2459777773" lon="17.7374416589">
		<tag k="name" v="Storelva" />
		<tag k="ssr:stedsnr" v="351738" />
		<tag k="waterway" v="stream" />
	</node>
	<node id="-756486" lat="69.568230554" lon="17.5610527748">
		<tag k="name" v="Rundvatnet" />
		<tag k="natural" v="water" />
		<tag k="ssr:stedsnr" v="715156" />
	</node>
	<node id="-756484" lat="69.4469388865" lon="17.9190444415">
		<tag k="name" v="Karioelva" />
		<tag k="ssr:stedsnr" v="715150" />
		<tag k="waterway" v="stream" />
	</node>
	<node id="-756482" lat="69.4117916707" lon="17.8533388926">
		<tag k="name" v="Krokelvbukta" />
		<tag k="natural" v="bay" />
		<tag k="ssr:stedsnr" v="715136" />
	</node>
	<node id="-756479" lat="69.3415083301" lon="17.8918333289">
		<tag k="name" v="Lomvatnan" />
		<tag k="natural" v="water" />
		<tag k="ssr:stedsnr" v="715575" />
		<tag k="water" v="lake" />
	</node>
	<node id="-754428" lat="69.2968277792" lon="17.8015694527">
		<tag k="name" v="Lasseelva" />
		<tag k="ssr:stedsnr" v="351652" />
		<tag k="waterway" v="stream" />
	</node>
	<node id="-754420" lat="69.2898555547" lon="17.747802777">
		<tag k="name" v="Slåttneset" />
		<tag k="natural" v="cape" />
		<tag k="ssr:stedsnr" v="351638" />
	</node>
	<node id="-754419" lat="69.2841055577" lon="17.7700972193">
		<tag k="name" v="Lomvatnan" />
		<tag k="natural" v="water" />
		<tag k="ssr:stedsnr" v="351635" />
		<tag k="water" v="lake" />
	</node>
	<node id="-756466" lat="69.262374996" lon="18.1658555507">
		<tag k="name" v="Kolmilebekken" />
		<tag k="ssr:stedsnr" v="686824" />
		<tag k="waterway" v="stream" />
	</node>
	<node id="-756465" lat="69.2603527794" lon="18.218113883">
		<tag k="name" v="Trollelva" />
		<tag k="ssr:stedsnr" v="686823" />
		<tag k="waterway" v="stream" />
	</node>
	<node id="-756464" lat="69.5161888875" lon="17.7865444442">
		<tag k="name" v="Skinnkollvatnet" />
		<tag k="natural" v="water" />
		<tag k="ssr:stedsnr" v="686821" />
	</node>
	<node id="-754472" lat="69.233166666" lon="18.1922277811">
		<tag k="name" v="Skjellelva" />
		<tag k="ssr:stedsnr" v="353688" />
		<tag k="waterway" v="stream" />
	</node>
	<node id="-756462" lat="69.5125416665" lon="17.7472083348">
		<tag k="name" v="Trælvikvatnan" />
		<tag k="natural" v="water" />
		<tag k="ssr:stedsnr" v="686817" />
		<tag k="water" v="lake" />
	</node>
	<node id="-756460" lat="69.5272055533" lon="17.8403944441">
		<tag k="name" v="Fiskevatnet" />
		<tag k="natural" v="water" />
		<tag k="ssr:stedsnr" v="686803" />
	</node>
	<node id="-756459" lat="69.2919361113" lon="18.3528861016">
		<tag k="name" v="Fiskebekken" />
		<tag k="ssr:stedsnr" v="686799" />
		<tag k="waterway" v="stream" />
	</node>
	<node id="-754410" lat="69.3047194438" lon="17.8220055419">
		<tag k="name" v="Småvatnan" />
		<tag k="natural" v="water" />
		<tag k="ssr:stedsnr" v="351306" />
		<tag k="water" v="lake" />
	</node>
	<node id="-756456" lat="69.3086333291" lon="18.1415944518">
		<tag k="name" v="Krubbevatnet" />
		<tag k="natural" v="water" />
		<tag k="ssr:stedsnr" v="686783" />
	</node>
	<node id="-754406" lat="69.5091972183" lon="17.6056027715">
		<tag k="name" v="Skarvvatnet" />
		<tag k="natural" v="water" />
		<tag k="ssr:stedsnr" v="351225" />
		<tag k="water" v="pond" />
	</node>
	<node id="-754402" lat="69.5102777802" lon="17.6794805628">
		<tag k="name" v="Kaldurelva" />
		<tag k="ssr:stedsnr" v="351171" />
		<tag k="waterway" v="stream" />
	</node>
	<node id="-756449" lat="69.420888893" lon="18.2154555548">
		<tag k="name" v="Holmevatnet" />
		<tag k="natural" v="water" />
		<tag k="ssr:stedsnr" v="686714" />
	</node>
	<node id="-756445" lat="69.4315527767" lon="18.2042888752">
		<tag k="name" v="Gårdsdalsvatnet" />
		<tag k="natural" v="water" />
		<tag k="ssr:stedsnr" v="686655" />
	</node>
	<node id="-756443" lat="69.4889472222" lon="18.0172722249">
		<tag k="name" v="Vardvatnet" />
		<tag k="natural" v="water" />
		<tag k="ssr:stedsnr" v="686650" />
	</node>
	<node id="-756429" lat="69.420238886" lon="17.8797166736">
		<tag k="name" v="Lyselva" />
		<tag k="ssr:stedsnr" v="686529" />
		<tag k="waterway" v="river" />
	</node>
	<node id="-756426" lat="69.1841166673" lon="17.8691138869">
		<tag k="name" v="Bergevatnet" />
		<tag k="natural" v="water" />
		<tag k="ssr:stedsnr" v="686496" />
	</node>
	<node id="-756421" lat="69.4440444433" lon="17.8329110996">
		<tag k="name" v="Bukkevatnet" />
		<tag k="natural" v="water" />
		<tag k="ssr:stedsnr" v="686452" />
	</node>
	<node id="-756420" lat="69.4402916629" lon="17.9172638841">
		<tag k="name" v="Geitvatnet" />
		<tag k="natural" v="water" />
		<tag k="ssr:stedsnr" v="686450" />
		<tag k="water" v="lake" />
	</node>
	<node id="-754371" lat="69.3163916663" lon="18.2452860992">
		<tag k="name" v="Åbborvatnet" />
		<tag k="natural" v="water" />
		<tag k="ssr:stedsnr" v="322768" />
	</node>
	<node id="-756418" lat="69.2318666665" lon="17.7821166521">
		<tag k="name" v="Hellefossen" />
		<tag k="natural" v="waterfall" />
		<tag k="ssr:stedsnr" v="686416" />
	</node>
	<node id="-754464" lat="69.2370583296" lon="18.109325004">
		<tag k="name" v="Botnelva" />
		<tag k="ssr:stedsnr" v="353479" />
		<tag k="waterway" v="stream" />
	</node>
	<node id="-754365" lat="69.363175004" lon="18.4188499934">
		<tag k="name" v="Storelvfossen" />
		<tag k="natural" v="waterfall" />
		<tag k="ssr:stedsnr" v="322718" />
	</node>
	<node id="-754364" lat="69.3698916678" lon="18.4531888821">
		<tag k="name" v="Jordvatnet" />
		<tag k="natural" v="water" />
		<tag k="ssr:stedsnr" v="322713" />
	</node>
	<node id="-756411" lat="69.3726472223" lon="18.3776027732">
		<tag k="name" v="Storelva" />
		<tag k="ssr:stedsnr" v="686034" />
		<tag k="waterway" v="river" />
	</node>
	<node id="-754360" lat="69.4340777757" lon="18.3202749885">
		<tag k="name" v="Skjervatnan" />
		<tag k="natural" v="water" />
		<tag k="ssr:stedsnr" v="322658" />
		<tag k="water" v="lake" />
	</node>
	<node id="-756406" lat="69.3930472259" lon="17.8708611182">
		<tag k="name" v="Jonkasvatnan" />
		<tag k="natural" v="water" />
		<tag k="ssr:stedsnr" v="685494" />
		<tag k="water" v="lake" />
	</node>
	<node id="-756405" lat="69.3980000002" lon="17.7032388965">
		<tag k="name" v="Mikkelvatnan" />
		<tag k="natural" v="water" />
		<tag k="ssr:stedsnr" v="685483" />
	</node>
	<node id="-754356" lat="69.2718750032" lon="17.8365777871">
		<tag k="name" v="Kuelva - Gossajohka" />
		<tag k="name:no" v="Kuelva" />
		<tag k="name:se" v="Gossajohka" />
		<tag k="ssr:stedsnr" v="322624" />
		<tag k="waterway" v="stream" />
	</node>
	<node id="-756403" lat="69.200338885" lon="17.9168777693">
		<tag k="name" v="Hallelva" />
		<tag k="ssr:stedsnr" v="685472" />
		<tag k="waterway" v="stream" />
	</node>
	<node id="-756402" lat="69.2001722256" lon="17.8716805578">
		<tag k="name" v="Mølnelva" />
		<tag k="ssr:stedsnr" v="685094" />
		<tag k="waterway" v="stream" />
	</node>
	<node id="-756398" lat="69.4785666627" lon="18.247083322">
		<tag k="name" v="Aglapsvatnet" />
		<tag k="natural" v="water" />
		<tag k="ssr:stedsnr" v="656975" />
	</node>
	<node id="-754348" lat="69.4233722184" lon="17.7414555487">
		<tag k="alt_name" v="Tuvevatnet, nedre" />
		<tag k="name" v="Nedre Tuvevatnet" />
		<tag k="natural" v="water" />
		<tag k="ssr:stedsnr" v="322457" />
	</node>
	<node id="-756395" lat="69.3657583354" lon="18.334313894">
		<tag k="name" v="Gammelgårdselva" />
		<tag k="ssr:stedsnr" v="656942" />
		<tag k="waterway" v="stream" />
	</node>
	<node id="-756388" lat="69.3362916699" lon="18.3706027698">
		<tag k="name" v="Prostgjerdelva" />
		<tag k="ssr:stedsnr" v="656855" />
		<tag k="waterway" v="stream" />
	</node>
	<node id="-756387" lat="69.3585583333" lon="18.2564666752">
		<tag k="name" v="Stillelva" />
		<tag k="ssr:stedsnr" v="656796" />
		<tag k="waterway" v="stream" />
	</node>
	<node id="-756385" lat="69.3101777742" lon="18.3066916533">
		<tag k="name" v="Storfossen" />
		<tag k="natural" v="waterfall" />
		<tag k="ssr:stedsnr" v="656755" />
	</node>
	<node id="-756384" lat="69.310866668" lon="18.3226749959">
		<tag k="name" v="Hornfossen" />
		<tag k="natural" v="waterfall" />
		<tag k="ssr:stedsnr" v="656753" />
	</node>
	<node id="-756382" lat="69.2496694425" lon="18.2397583203">
		<tag k="name" v="Pessfossen" />
		<tag k="natural" v="waterfall" />
		<tag k="ssr:stedsnr" v="656722" />
	</node>
	<node id="-754333" lat="69.2210499956" lon="18.1682000029">
		<tag k="name" v="Allertholmen" />
		<tag k="place" v="islet" />
		<tag k="ssr:stedsnr" v="321655" />
	</node>
	<node id="-756380" lat="69.2734361104" lon="18.2018638899">
		<tag k="name" v="Vassenden" />
		<tag k="natural" v="bay" />
		<tag k="ssr:stedsnr" v="656714" />
	</node>
	<node id="-756378" lat="69.4540444439" lon="18.1555499962">
		<tag k="name" v="Molvikvatnet" />
		<tag k="natural" v="water" />
		<tag k="ssr:stedsnr" v="656699" />
	</node>
	<node id="-756376" lat="69.3576722184" lon="18.1210111162">
		<tag k="name" v="Gårdslielva" />
		<tag k="ssr:stedsnr" v="656671" />
		<tag k="waterway" v="stream" />
	</node>
	<node id="-756373" lat="69.2459861129" lon="18.1571361182">
		<tag k="name" v="Storelvneset" />
		<tag k="natural" v="cape" />
		<tag k="ssr:stedsnr" v="656627" />
	</node>
	<node id="-756370" lat="69.2059611156" lon="18.0661861009">
		<tag k="name" v="Kobbålen" />
		<tag k="ssr:stedsnr" v="656573" />
		<tag k="waterway" v="stream" />
	</node>
	<node id="-756369" lat="69.2185861097" lon="18.1722194398">
		<tag k="name" v="Langnesspira" />
		<tag k="natural" v="cape" />
		<tag k="ssr:stedsnr" v="656548" />
	</node>
	<node id="-756367" lat="69.2251777812" lon="18.1256972199">
		<tag k="name" v="Tverrelvkroken" />
		<tag k="natural" v="bay" />
		<tag k="ssr:stedsnr" v="656529" />
	</node>
	<node id="-754316" lat="69.234352775" lon="17.744574986">
		<tag k="name" v="Lakselva - Luossajohka" />
		<tag k="name:no" v="Lakselva" />
		<tag k="name:se" v="Luossajohka" />
		<tag k="ssr:stedsnr" v="321090" />
		<tag k="waterway" v="river" />
	</node>
	<node id="-754315" lat="69.2990361091" lon="18.041227784">
		<tag k="name" v="Djupelva" />
		<tag k="ssr:stedsnr" v="322802" />
		<tag k="waterway" v="stream" />
	</node>
	<node id="-756362" lat="69.5511388853" lon="17.8211888861">
		<tag k="name" v="Tindvatnet" />
		<tag k="natural" v="water" />
		<tag k="ssr:stedsnr" v="655849" />
	</node>
	<node id="-754311" lat="69.3049583328" lon="18.3924527639">
		<tag k="name" v="Storelva" />
		<tag k="ssr:stedsnr" v="293929" />
		<tag k="waterway" v="river" />
	</node>
	<node id="-756351" lat="69.1984833314" lon="17.9191361">
		<tag k="name" v="Vikaelva" />
		<tag k="ssr:stedsnr" v="655357" />
		<tag k="waterway" v="stream" />
	</node>
	<node id="-756349" lat="69.1947277791" lon="17.9435833223">
		<tag k="name" v="Tjønna" />
		<tag k="natural" v="water" />
		<tag k="ssr:stedsnr" v="655353" />
	</node>
	<node id="-754300" lat="69.3536388873" lon="18.2684360977">
		<tag k="name" v="Steinneselva" />
		<tag k="ssr:stedsnr" v="292858" />
		<tag k="waterway" v="stream" />
	</node>
	<node id="-756347" lat="69.4763972225" lon="17.9988333201">
		<tag k="name" v="Vangselva" />
		<tag k="ssr:stedsnr" v="655319" />
		<tag k="waterway" v="stream" />
	</node>
	<node id="-754297" lat="69.2411611154" lon="18.0662638828">
		<tag k="name" v="Karielva" />
		<tag k="ssr:stedsnr" v="292572" />
		<tag k="waterway" v="stream" />
	</node>
	<node id="-756342" lat="69.5257500023" lon="17.5996916658">
		<tag k="name" v="Korkedalselva" />
		<tag k="ssr:stedsnr" v="655245" />
		<tag k="waterway" v="stream" />
	</node>
	<node id="-754793" lat="69.3299527799" lon="18.2982333242">
		<tag k="name" v="Nordavindselva" />
		<tag k="ssr:stedsnr" v="413889" />
		<tag k="waterway" v="stream" />
	</node>
	<node id="-756340" lat="69.3183694455" lon="17.8624416678">
		<tag k="name" v="Botnelva" />
		<tag k="ssr:stedsnr" v="655140" />
		<tag k="waterway" v="river" />
	</node>
	<node id="-754291" lat="69.2260472213" lon="18.2193416734">
		<tag k="name" v="Haugenelva" />
		<tag k="ssr:stedsnr" v="292682" />
		<tag k="waterway" v="stream" />
	</node>
	<node id="-756334" lat="69.3695388907" lon="17.7449277649">
		<tag k="name" v="Skeivasselva" />
		<tag k="ssr:stedsnr" v="654990" />
		<tag k="waterway" v="stream" />
	</node>
	<node id="-754285" lat="69.2537861112" lon="18.1572527843">
		<tag k="name" v="Gammeljordelva" />
		<tag k="ssr:stedsnr" v="292605" />
		<tag k="waterway" v="stream" />
	</node>
	<node id="-756330" lat="69.3990333354" lon="18.0422972178">
		<tag k="name" v="Gåsneset" />
		<tag k="natural" v="cape" />
		<tag k="ssr:stedsnr" v="654882" />
	</node>
	<node id="-756329" lat="69.4005888931" lon="17.8620638791">
		<tag k="name" v="Reinskarelva" />
		<tag k="ssr:stedsnr" v="654879" />
		<tag k="waterway" v="stream" />
	</node>
	<node id="-756328" lat="69.3956138843" lon="17.8775111189">
		<tag k="name" v="Tørrishaugelva" />
		<tag k="ssr:stedsnr" v="654874" />
		<tag k="waterway" v="stream" />
	</node>
	<node id="-756321" lat="69.4039972244" lon="18.0010416626">
		<tag k="name" v="Kvantoelva" />
		<tag k="ssr:stedsnr" v="654703" />
		<tag k="waterway" v="stream" />
	</node>
	<node id="-756310" lat="69.3047388859" lon="17.7195972162">
		<tag k="name" v="Tyvelva" />
		<tag k="ssr:stedsnr" v="654638" />
		<tag k="waterway" v="stream" />
	</node>
	<node id="-756302" lat="69.3769527772" lon="17.8000555439">
		<tag k="name" v="Mikkelbukta" />
		<tag k="natural" v="bay" />
		<tag k="ssr:stedsnr" v="654249" />
	</node>
	<node id="-754253" lat="69.5436111158" lon="17.5983638848">
		<tag k="name" v="Tofteelva" />
		<tag k="ssr:stedsnr" v="291190" />
		<tag k="waterway" v="stream" />
	</node>
	<node id="-754250" lat="69.5697472188" lon="17.5505527832">
		<tag k="name" v="Lomtjønna" />
		<tag k="natural" v="water" />
		<tag k="ssr:stedsnr" v="291167" />
	</node>
	<node id="-754249" lat="69.5323749984" lon="17.7780583177">
		<tag k="name" v="Gårdselva" />
		<tag k="ssr:stedsnr" v="291162" />
		<tag k="waterway" v="stream" />
	</node>
	<node id="-756290" lat="69.4376305553" lon="17.9120027683">
		<tag k="name" v="Fiskeneset" />
		<tag k="natural" v="cape" />
		<tag k="ssr:stedsnr" v="654137" />
	</node>
	<node id="-754241" lat="69.2471222199" lon="17.6882027644">
		<tag k="name" v="Litjelva" />
		<tag k="ssr:stedsnr" v="291048" />
		<tag k="waterway" v="stream" />
	</node>
	<node id="-754236" lat="69.2556388877" lon="17.7185111132">
		<tag k="name" v="Tverrelva" />
		<tag k="ssr:stedsnr" v="290684" />
		<tag k="waterway" v="stream" />
	</node>
	<node id="-754231" lat="69.2280666682" lon="17.8457388933">
		<tag k="name" v="Litjeholmen" />
		<tag k="place" v="islet" />
		<tag k="ssr:stedsnr" v="290543" />
	</node>
	<node id="-756278" lat="69.4783583355" lon="18.0464638951">
		<tag k="name" v="Vangsstranda" />
		<tag k="natural" v="beach" />
		<tag k="ssr:stedsnr" v="631681" />
	</node>
	<node id="-754229" lat="69.2356222224" lon="17.7259638975">
		<tag k="name" v="Skjellneset" />
		<tag k="natural" v="cape" />
		<tag k="ssr:stedsnr" v="290521" />
	</node>
	<node id="-754220" lat="69.4470916671" lon="17.8756888959">
		<tag k="name" v="Klubbevatnet" />
		<tag k="natural" v="water" />
		<tag k="ssr:stedsnr" v="290160" />
		<tag k="water" v="lake" />
	</node>
	<node id="-756265" lat="69.5302138901" lon="17.7968944532">
		<tag k="name" v="Baltsfjordvatnet" />
		<tag k="natural" v="water" />
		<tag k="ssr:stedsnr" v="625822" />
	</node>
	<node id="-756263" lat="69.3002750036" lon="18.0887305554">
		<tag k="name" v="Steindalselva" />
		<tag k="ssr:stedsnr" v="625814" />
		<tag k="waterway" v="stream" />
	</node>
	<node id="-754330" lat="69.2174055534" lon="18.1669638724">
		<tag k="alt_name" v="Øyfjordlangneset" />
		<tag k="name" v="Øyjordlangneset" />
		<tag k="natural" v="cape" />
		<tag k="ssr:stedsnr" v="321651" />
	</node>
	<node id="-754436" lat="69.2432194403" lon="17.6995555486">
		<tag k="name" v="Litjeneset" />
		<tag k="natural" v="cape" />
		<tag k="ssr:stedsnr" v="351730" />
	</node>
	<node id="-756244" lat="69.3169027753" lon="17.8324611147">
		<tag k="name" v="Skognesbotnelva" />
		<tag k="ssr:stedsnr" v="625574" />
		<tag k="waterway" v="stream" />
	</node>
	<node id="-756239" lat="69.409799999" lon="17.7087360959">
		<tag k="fixme" v="multiple name tags, choose one and add the other to alt_name" />
		<tag k="name" v="Helvetesvatnet;Mellomvatnet" />
		<tag k="natural" v="water" />
		<tag k="ssr:stedsnr" v="625523" />
		<tag k="water" v="lake" />
	</node>
	<node id="-756238" lat="69.4105333314" lon="17.9387694284">
		<tag k="name" v="Øyjordelva" />
		<tag k="ssr:stedsnr" v="625510" />
		<tag k="waterway" v="stream" />
	</node>
	<node id="-756235" lat="69.4624638873" lon="17.7740027692">
		<tag k="name" v="Holvatnet" />
		<tag k="natural" v="water" />
		<tag k="ssr:stedsnr" v="625475" />
	</node>
	<node id="-756233" lat="69.443994448" lon="17.8404111085">
		<tag k="name" v="Lomtjønna" />
		<tag k="place" v="locality" />
		<tag k="ssr:stedsnr" v="625439" />
	</node>
	<node id="-756229" lat="69.3005305541" lon="17.7241999977">
		<tag k="name" v="Tømmerelva - Dimbbarjohka" />
		<tag k="name:no" v="Tømmerelva" />
		<tag k="name:se" v="Dimbbarjohka" />
		<tag k="old_name:se" v="Dimbarjåkka" />
		<tag k="ssr:stedsnr" v="625037" />
		<tag k="waterway" v="river" />
	</node>
	<node id="-756227" lat="69.2562861074" lon="17.9300555472">
		<tag k="name" v="Mølnelva" />
		<tag k="ssr:stedsnr" v="625031" />
		<tag k="waterway" v="stream" />
	</node>
	<node id="-756218" lat="69.223336113" lon="18.2025777805">
		<tag k="name" v="Finnfjordvatnet - Várevuoljávri" />
		<tag k="name:no" v="Finnfjordvatnet" />
		<tag k="name:se" v="Várevuoljávri" />
		<tag k="natural" v="water" />
		<tag k="old_name:se" v="Varevuoljavri" />
		<tag k="ssr:stedsnr" v="624672" />
		<tag k="water" v="lake" />
	</node>
	<node id="-756217" lat="69.2244555555" lon="18.1222027681">
		<tag k="name" v="Tverrelva" />
		<tag k="ssr:stedsnr" v="624670" />
		<tag k="waterway" v="stream" />
	</node>
	<node id="-756215" lat="69.2383249966" lon="18.1303083204">
		<tag k="alt_name" v="Purkelva" />
		<tag k="name" v="Porkelva" />
		<tag k="ssr:stedsnr" v="624657" />
		<tag k="waterway" v="stream" />
	</node>
	<node id="-756211" lat="69.3888750006" lon="17.7926638799">
		<tag k="alt_name" v="Helvetesfossen" />
		<tag k="name" v="Helvetesfoss" />
		<tag k="natural" v="waterfall" />
		<tag k="ssr:stedsnr" v="624510" />
	</node>
	<node id="-756210" lat="69.2005027815" lon="17.8849750049">
		<tag k="name" v="Dalelva" />
		<tag k="ssr:stedsnr" v="624496" />
		<tag k="waterway" v="stream" />
	</node>
	<node id="-756209" lat="69.188558335" lon="17.9414333423">
		<tag k="alt_name" v="Vågavatnet" />
		<tag k="name" v="Russevatnet" />
		<tag k="natural" v="water" />
		<tag k="ssr:stedsnr" v="624481" />
		<tag k="water" v="lake" />
	</node>
	<node id="-756198" lat="69.3891527788" lon="18.3830583398">
		<tag k="name" v="Andelva" />
		<tag k="ssr:stedsnr" v="596795" />
		<tag k="waterway" v="stream" />
	</node>
	<node id="-756186" lat="69.4319444417" lon="18.3240166595">
		<tag k="name" v="Inner-Skjærvatnet" />
		<tag k="natural" v="water" />
		<tag k="ssr:stedsnr" v="595941" />
	</node>
	<node id="-756185" lat="69.343727774" lon="18.2274888797">
		<tag k="name" v="Langvasselva" />
		<tag k="ssr:stedsnr" v="595763" />
		<tag k="waterway" v="stream" />
	</node>
	<node id="-756184" lat="69.3099361116" lon="18.2950972312">
		<tag k="name" v="Gammelgårdneset" />
		<tag k="natural" v="cape" />
		<tag k="ssr:stedsnr" v="595712" />
	</node>
	<node id="-756179" lat="69.2878305591" lon="18.023605566">
		<tag k="name" v="Tverrelva" />
		<tag k="ssr:stedsnr" v="595619" />
		<tag k="waterway" v="stream" />
	</node>
	<node id="-756177" lat="69.248458338" lon="18.1650388827">
		<tag k="name" v="Myrneset" />
		<tag k="natural" v="cape" />
		<tag k="ssr:stedsnr" v="595581" />
	</node>
	<node id="-756176" lat="69.2486861137" lon="18.1472388982">
		<tag k="name" v="Storelva" />
		<tag k="ssr:stedsnr" v="595566" />
		<tag k="waterway" v="stream" />
	</node>
	<node id="-756171" lat="69.5038388917" lon="17.8491694427">
		<tag k="name" v="Steinfinnsetelva" />
		<tag k="ssr:stedsnr" v="594765" />
		<tag k="waterway" v="stream" />
	</node>
	<node id="-755033" lat="69.2576416694" lon="17.8911888971">
		<tag k="name" v="Nonsvatnet" />
		<tag k="natural" v="water" />
		<tag k="ssr:stedsnr" v="79618" />
	</node>
	<node id="-756158" lat="69.3739055517" lon="18.0448527697">
		<tag k="name" v="Skjellelva" />
		<tag k="ssr:stedsnr" v="594618" />
		<tag k="waterway" v="stream" />
	</node>
	<node id="-756155" lat="69.5238249981" lon="17.9146694432">
		<tag k="name" v="Skjellelva" />
		<tag k="ssr:stedsnr" v="594595" />
		<tag k="waterway" v="stream" />
	</node>
	<node id="-756140" lat="69.5121527758" lon="17.6237444429">
		<tag k="name" v="Gardtoftelva" />
		<tag k="ssr:stedsnr" v="594207" />
		<tag k="waterway" v="stream" />
	</node>
	<node id="-756133" lat="69.2387444465" lon="17.6857833405">
		<tag k="name" v="Storneset" />
		<tag k="natural" v="cape" />
		<tag k="ssr:stedsnr" v="594059" />
	</node>
	<node id="-756131" lat="69.3128361149" lon="17.6776583206">
		<tag k="name" v="Litjebulderbakkelva" />
		<tag k="ssr:stedsnr" v="594037" />
		<tag k="waterway" v="stream" />
	</node>
	<node id="-756129" lat="69.3629444485" lon="17.8198416613">
		<tag k="name" v="Tverrelvneset" />
		<tag k="natural" v="cape" />
		<tag k="ssr:stedsnr" v="593992" />
	</node>
	<node id="-756122" lat="69.2548916694" lon="17.8181083283">
		<tag k="name" v="Hannakolltjønna" />
		<tag k="natural" v="water" />
		<tag k="ssr:stedsnr" v="593691" />
	</node>
	<node id="-756116" lat="69.4058249975" lon="18.0070333279">
		<tag k="name" v="Kjoselva" />
		<tag k="ssr:stedsnr" v="593649" />
		<tag k="waterway" v="stream" />
	</node>
	<node id="-756114" lat="69.2399583324" lon="17.8539916711">
		<tag k="name" v="Elvekroken" />
		<tag k="natural" v="bay" />
		<tag k="ssr:stedsnr" v="593938" />
	</node>
	<node id="-756112" lat="69.2288305517" lon="17.850586104">
		<tag k="name" v="Vedneset" />
		<tag k="natural" v="cape" />
		<tag k="ssr:stedsnr" v="593555" />
	</node>
	<node id="-755096" lat="69.4207777798" lon="17.8833138817">
		<tag k="name" v="Sandneset" />
		<tag k="natural" v="cape" />
		<tag k="ssr:stedsnr" v="108388" />
	</node>
	<node id="-756105" lat="69.4499222245" lon="17.730800004">
		<tag k="name" v="Damman" />
		<tag k="natural" v="water" />
		<tag k="ssr:stedsnr" v="593185" />
		<tag k="water" v="lake" />
	</node>
	<node id="-756094" lat="69.2957083321" lon="17.8808472298">
		<tag k="name" v="Lakselva" />
		<tag k="ssr:stedsnr" v="570270" />
		<tag k="waterway" v="river" />
	</node>
	<node id="-756089" lat="69.2751055544" lon="18.1425722234">
		<tag k="name" v="Helvetesvatnet" />
		<tag k="natural" v="water" />
		<tag k="ssr:stedsnr" v="564835" />
		<tag k="water" v="lake" />
	</node>
	<node id="-756078" lat="69.3385611132" lon="18.3399555447">
		<tag k="name" v="Mellavatnet" />
		<tag k="natural" v="water" />
		<tag k="ssr:stedsnr" v="564764" />
	</node>
	<node id="-756071" lat="69.3707749997" lon="18.2525722138">
		<tag k="alt_name" v="Rundvatnet, nordre" />
		<tag k="name" v="Nordre Rundvatnet" />
		<tag k="natural" v="water" />
		<tag k="ssr:stedsnr" v="564722" />
	</node>
	<node id="-755089" lat="69.3136555584" lon="17.6619388797">
		<tag k="name" v="Kildeelva" />
		<tag k="ssr:stedsnr" v="109029" />
		<tag k="waterway" v="stream" />
	</node>
	<node id="-756066" lat="69.3543750033" lon="18.2401249974">
		<tag k="name" v="Mølnvatnet" />
		<tag k="natural" v="water" />
		<tag k="ssr:stedsnr" v="564698" />
	</node>
	<node id="-756064" lat="69.4090249995" lon="18.301569439">
		<tag k="alt_name" v="Kråknesvatnet" />
		<tag k="name" v="Kraknesvatnet" />
		<tag k="natural" v="water" />
		<tag k="ssr:stedsnr" v="564688" />
	</node>
	<node id="-756062" lat="69.3997833294" lon="18.2293722234">
		<tag k="name" v="Tverrelva" />
		<tag k="ssr:stedsnr" v="564680" />
		<tag k="waterway" v="stream" />
	</node>
	<node id="-756057" lat="69.4301805553" lon="18.2944555472">
		<tag k="name" v="Sløykvatnet" />
		<tag k="natural" v="water" />
		<tag k="ssr:stedsnr" v="564649" />
	</node>
	<node id="-756047" lat="69.3097166627" lon="17.7622611182">
		<tag k="name" v="Geitelva - Gáicajohka" />
		<tag k="name:no" v="Geitelva" />
		<tag k="name:se" v="Gáicajohka" />
		<tag k="old_name:se" v="Gaicajåkka" />
		<tag k="ssr:stedsnr" v="564575" />
		<tag k="waterway" v="stream" />
	</node>
	<node id="-756034" lat="69.347269446" lon="18.4481083207">
		<tag k="name" v="Sagelva" />
		<tag k="ssr:stedsnr" v="564028" />
		<tag k="waterway" v="stream" />
	</node>
	<node id="-756031" lat="69.2470500046" lon="18.0590333223">
		<tag k="name" v="Skogelva" />
		<tag k="ssr:stedsnr" v="563671" />
		<tag k="waterway" v="stream" />
	</node>
	<node id="-756024" lat="69.3786333307" lon="18.3362860933">
		<tag k="name" v="Maiosen" />
		<tag k="natural" v="bay" />
		<tag k="ssr:stedsnr" v="535963" />
	</node>
	<node id="-756007" lat="69.2905888856" lon="18.2454499916">
		<tag k="name" v="Malinavatnet" />
		<tag k="natural" v="water" />
		<tag k="ssr:stedsnr" v="535729" />
	</node>
	<node id="-755991" lat="69.2563638873" lon="18.0969027808">
		<tag k="name" v="Lomvatnet" />
		<tag k="natural" v="water" />
		<tag k="ssr:stedsnr" v="535598" />
	</node>
	<node id="-755982" lat="69.5172583321" lon="17.7156999912">
		<tag k="name" v="Trælvikelva" />
		<tag k="ssr:stedsnr" v="534998" />
		<tag k="waterway" v="stream" />
	</node>
	<node id="-755981" lat="69.3359499995" lon="18.2838888893">
		<tag k="name" v="Tjuvneset" />
		<tag k="natural" v="cape" />
		<tag k="ssr:stedsnr" v="534901" />
	</node>
	<node id="-755978" lat="69.352911115" lon="18.0597833293">
		<tag k="name" v="Kleelva" />
		<tag k="ssr:stedsnr" v="534848" />
		<tag k="waterway" v="stream" />
	</node>
	<node id="-755967" lat="69.4944444409" lon="17.8435861055">
		<tag k="name" v="Blomdalselva" />
		<tag k="ssr:stedsnr" v="534359" />
		<tag k="waterway" v="stream" />
	</node>
	<node id="-755959" lat="69.375919442" lon="17.8877416699">
		<tag k="name" v="Øvre Salsvatn" />
		<tag k="natural" v="water" />
		<tag k="ssr:stedsnr" v="533902" />
	</node>
	<node id="-755954" lat="69.2519027807" lon="17.7422222252">
		<tag k="name" v="Hundtjønnene" />
		<tag k="natural" v="water" />
		<tag k="ssr:stedsnr" v="533756" />
	</node>
	<node id="-755950" lat="69.1874944457" lon="17.8576166701">
		<tag k="name" v="Fiskevatnet" />
		<tag k="natural" v="water" />
		<tag k="ssr:stedsnr" v="533735" />
	</node>
	<node id="-755944" lat="69.296119447" lon="17.8313111194">
		<tag k="name" v="Elvebakkelva" />
		<tag k="ssr:stedsnr" v="533687" />
		<tag k="waterway" v="stream" />
	</node>
	<node id="-755936" lat="69.2321861091" lon="17.8007138748">
		<tag k="name" v="Gammelstenget" />
		<tag k="natural" v="water" />
		<tag k="ssr:stedsnr" v="533632" />
		<tag k="water" v="lake" />
	</node>
	<node id="-755933" lat="69.217525001" lon="17.8352333369">
		<tag k="name" v="Odden" />
		<tag k="natural" v="cape" />
		<tag k="ssr:stedsnr" v="533618" />
	</node>
	<node id="-755925" lat="69.425219447" lon="17.9189388816">
		<tag k="name" v="Klarneset" />
		<tag k="natural" v="cape" />
		<tag k="ssr:stedsnr" v="533401" />
	</node>
	<node id="-755924" lat="69.4119611073" lon="17.8613500023">
		<tag k="name" v="Skjellmobukta" />
		<tag k="natural" v="bay" />
		<tag k="ssr:stedsnr" v="533388" />
	</node>
	<node id="-755922" lat="69.4680444458" lon="17.7591749932">
		<tag k="name" v="Skiftingsvatnet" />
		<tag k="natural" v="water" />
		<tag k="ssr:stedsnr" v="533347" />
		<tag k="water" v="lake" />
	</node>
	<node id="-755914" lat="69.5049944446" lon="17.6319972089">
		<tag k="name" v="Arnakkelva" />
		<tag k="ssr:stedsnr" v="533216" />
		<tag k="waterway" v="stream" />
	</node>
	<node id="-755905" lat="69.5696777818" lon="17.5548055455">
		<tag k="name" v="Breivikelva" />
		<tag k="ssr:stedsnr" v="533167" />
		<tag k="waterway" v="stream" />
	</node>
	<node id="-754378" lat="69.2819277778" lon="18.3545138966">
		<tag k="alt_name" v="Fjellvatnet, store" />
		<tag k="name" v="Store fjellvatn" />
		<tag k="natural" v="water" />
		<tag k="ssr:stedsnr" v="322809" />
	</node>
	<node id="-755897" lat="69.3000583346" lon="18.0116972119">
		<tag k="name" v="Litjeelva" />
		<tag k="ssr:stedsnr" v="533043" />
		<tag k="waterway" v="stream" />
	</node>
	<node id="-755896" lat="69.2962277827" lon="17.9932722106">
		<tag k="name" v="Storelvkjeften" />
		<tag k="natural" v="bay" />
		<tag k="ssr:stedsnr" v="533042" />
	</node>
	<node id="-755882" lat="69.5379222266" lon="17.8362444362">
		<tag k="name" v="Harhåvatnan" />
		<tag k="natural" v="water" />
		<tag k="ssr:stedsnr" v="504863" />
		<tag k="water" v="lake" />
	</node>
	<node id="-755875" lat="69.2535000025" lon="18.1328333401">
		<tag k="name" v="Elielva" />
		<tag k="ssr:stedsnr" v="504828" />
		<tag k="waterway" v="stream" />
	</node>
	<node id="-755874" lat="69.2964444453" lon="18.3890888879">
		<tag k="loc_name" v="Skjellelva" />
		<tag k="name" v="Kjellelva" />
		<tag k="ssr:stedsnr" v="504813" />
		<tag k="waterway" v="stream" />
	</node>
	<node id="-754372" lat="69.3051555556" lon="18.2105777656">
		<tag k="name" v="Kvernelva" />
		<tag k="ssr:stedsnr" v="322779" />
		<tag k="waterway" v="stream" />
	</node>
	<node id="-755859" lat="69.2936333334" lon="17.6840777663">
		<tag k="fixme" v="multiple name tags, choose one and add the other to alt_name" />
		<tag k="name" v="Storvardhaugvatnet;Storvatnet" />
		<tag k="natural" v="water" />
		<tag k="ssr:stedsnr" v="504578" />
	</node>
	<node id="-755855" lat="69.4647555602" lon="17.7862694312">
		<tag k="alt_name" v="Skiftingselva" />
		<tag k="name" v="Skifteselva" />
		<tag k="ssr:stedsnr" v="504489" />
		<tag k="waterway" v="river" />
	</node>
	<node id="-754370" lat="69.3339083313" lon="18.473466658">
		<tag k="name" v="Neselva" />
		<tag k="ssr:stedsnr" v="322765" />
		<tag k="waterway" v="stream" />
	</node>
	<node id="-755850" lat="69.2256249961" lon="17.8056777769">
		<tag k="name" v="Mølnelva" />
		<tag k="ssr:stedsnr" v="504387" />
		<tag k="waterway" v="stream" />
	</node>
	<node id="-755847" lat="69.2595749984" lon="18.1863277649">
		<tag k="name" v="Lakselva" />
		<tag k="ssr:stedsnr" v="504021" />
		<tag k="waterway" v="river" />
	</node>
	<node id="-755842" lat="69.3470861081" lon="18.3261694411">
		<tag k="name" v="Litjvatnet" />
		<tag k="natural" v="water" />
		<tag k="ssr:stedsnr" v="503717" />
	</node>
	<node id="-755840" lat="69.3463388859" lon="18.2376527608">
		<tag k="name" v="Langvatnet" />
		<tag k="natural" v="water" />
		<tag k="ssr:stedsnr" v="503713" />
	</node>
	<node id="-755832" lat="69.2613888932" lon="17.6880111151">
		<tag k="name" v="Myrelva" />
		<tag k="ssr:stedsnr" v="503557" />
		<tag k="waterway" v="stream" />
	</node>
	<node id="-755831" lat="69.3625388915" lon="17.7698388896">
		<tag k="name" v="Heggelva - Ávčajohka" />
		<tag k="name:no" v="Heggelva" />
		<tag k="name:se" v="Ávčajohka" />
		<tag k="old_name:se" v="Avčajåkka" />
		<tag k="ssr:stedsnr" v="503528" />
		<tag k="waterway" v="river" />
	</node>
	<node id="-755829" lat="69.4001250022" lon="17.9334555601">
		<tag k="name" v="Skjellelva" />
		<tag k="ssr:stedsnr" v="503473" />
		<tag k="waterway" v="river" />
	</node>
	<node id="-755827" lat="69.186505553" lon="17.8978555637">
		<tag k="name" v="Langvatnet" />
		<tag k="natural" v="water" />
		<tag k="ssr:stedsnr" v="503451" />
	</node>
	<node id="-755825" lat="69.1917083329" lon="17.8722305461">
		<tag k="alt_name" v="Knutvatnet" />
		<tag k="name" v="Knutsvatnet" />
		<tag k="natural" v="water" />
		<tag k="ssr:stedsnr" v="503446" />
	</node>
	<node id="-755824" lat="69.1733055547" lon="17.8505110968">
		<tag k="name" v="Solbergelva" />
		<tag k="ssr:stedsnr" v="503441" />
		<tag k="waterway" v="river" />
	</node>
	<node id="-755816" lat="69.3690583353" lon="17.8504472202">
		<tag k="name" v="Storelva" />
		<tag k="ssr:stedsnr" v="472989" />
		<tag k="waterway" v="stream" />
	</node>
	<node id="-755813" lat="69.3351777801" lon="17.920341662">
		<tag k="name" v="Finnjordslettelva" />
		<tag k="ssr:stedsnr" v="472915" />
		<tag k="waterway" v="stream" />
	</node>
	<node id="-755796" lat="69.3037083349" lon="17.7192972079">
		<tag k="name" v="Skáidi" />
		<tag k="name:se" v="Skáidi" />
		<tag k="natural" v="cape" />
		<tag k="ssr:stedsnr" v="472623" />
	</node>
	<node id="-755793" lat="69.2298222204" lon="17.7914499887">
		<tag k="name" v="Stenghølla" />
		<tag k="natural" v="water" />
		<tag k="ssr:stedsnr" v="472595" />
		<tag k="water" v="lake" />
	</node>
	<node id="-754701" lat="69.2973916697" lon="18.2874305593">
		<tag k="name" v="Storelva" />
		<tag k="ssr:stedsnr" v="474747" />
		<tag k="waterway" v="stream" />
	</node>
	<node id="-755787" lat="69.425375003" lon="17.9059250089">
		<tag k="name" v="Leirneset" />
		<tag k="natural" v="cape" />
		<tag k="ssr:stedsnr" v="472377" />
	</node>
	<node id="-755786" lat="69.424224996" lon="17.9007305487">
		<tag k="name" v="Labukta" />
		<tag k="natural" v="bay" />
		<tag k="ssr:stedsnr" v="472375" />
	</node>
	<node id="-755785" lat="69.381472219" lon="17.8466638813">
		<tag k="name" v="Lomvatnet" />
		<tag k="natural" v="water" />
		<tag k="ssr:stedsnr" v="472227" />
	</node>
	<node id="-755783" lat="69.4385583311" lon="17.8364500074">
		<tag k="alt_name" v="Bukkedalselva" />
		<tag k="name" v="Bukkeelva" />
		<tag k="ssr:stedsnr" v="472187" />
		<tag k="waterway" v="river" />
	</node>
	<node id="-755041" lat="69.399838892" lon="18.3385583412">
		<tag k="name" v="Tortenelva" />
		<tag k="ssr:stedsnr" v="79650" />
		<tag k="waterway" v="stream" />
	</node>
	<node id="-755038" lat="69.2167999972" lon="18.1355583284">
		<tag k="name" v="Mevatnet" />
		<tag k="natural" v="water" />
		<tag k="ssr:stedsnr" v="79639" />
	</node>
	<node id="-755762" lat="69.5453055565" lon="17.887133338">
		<tag k="name" v="Norddalselva" />
		<tag k="ssr:stedsnr" v="443849" />
		<tag k="waterway" v="stream" />
	</node>
	<node id="-754355" lat="69.278238886" lon="17.7940694439">
		<tag k="alt_name:no" v="Kvannelva" />
		<tag k="name" v="Kvannlielva - Moskejohka" />
		<tag k="name:no" v="Kvannlielva" />
		<tag k="name:se" v="Moskejohka" />
		<tag k="old_name:se" v="Måskejåkka" />
		<tag k="ssr:stedsnr" v="322611" />
		<tag k="waterway" v="stream" />
	</node>
	<node id="-755758" lat="69.5133944425" lon="17.8493527654">
		<tag k="name" v="Tverrelva" />
		<tag k="ssr:stedsnr" v="443815" />
		<tag k="waterway" v="stream" />
	</node>
	<node id="-755756" lat="69.510441666" lon="17.8636499984">
		<tag k="alt_name" v="Gommesjordelva" />
		<tag k="name" v="Gommersjordelva" />
		<tag k="ssr:stedsnr" v="443811" />
		<tag k="waterway" v="river" />
	</node>
	<node id="-754354" lat="69.3163055535" lon="17.7238750049">
		<tag k="name" v="Tjuvvatnet - Suollatjávri" />
		<tag k="name:no" v="Tjuvvatnet" />
		<tag k="name:se" v="Suollatjávri" />
		<tag k="natural" v="water" />
		<tag k="old_name:se" v="Suollatjavri" />
		<tag k="ssr:stedsnr" v="322588" />
	</node>
	<node id="-755754" lat="69.5262499993" lon="17.8285972274">
		<tag k="name" v="Sørdalsvatnet" />
		<tag k="natural" v="water" />
		<tag k="ssr:stedsnr" v="443789" />
	</node>
	<node id="-755753" lat="69.309644444" lon="18.3564555551">
		<tag k="loc_name" v="Tårnevatnet" />
		<tag k="name" v="Tårnvatnet" />
		<tag k="natural" v="water" />
		<tag k="ssr:stedsnr" v="443777" />
		<tag k="water" v="lake" />
	</node>
	<node id="-755751" lat="69.3196861153" lon="18.3740194412">
		<tag k="name" v="Skredelva" />
		<tag k="ssr:stedsnr" v="443766" />
		<tag k="waterway" v="stream" />
	</node>
	<node id="-755748" lat="69.3252472226" lon="18.2074583403">
		<tag k="name" v="Langvatnet" />
		<tag k="natural" v="water" />
		<tag k="ssr:stedsnr" v="443754" />
	</node>
	<node id="-755746" lat="69.335375" lon="18.1883499838">
		<tag k="name" v="Tverrelva" />
		<tag k="ssr:stedsnr" v="443742" />
		<tag k="waterway" v="stream" />
	</node>
	<node id="-755738" lat="69.4162694411" lon="18.2207972232">
		<tag k="name" v="Sandbakkvatnet" />
		<tag k="natural" v="water" />
		<tag k="ssr:stedsnr" v="443678" />
	</node>
	<node id="-755733" lat="69.2296250025" lon="18.1480805553">
		<tag k="name" v="Huarneset" />
		<tag k="natural" v="cape" />
		<tag k="ssr:stedsnr" v="443655" />
	</node>
	<node id="-755732" lat="69.4381194422" lon="18.2271388727">
		<tag k="name" v="Varddalsvatnet" />
		<tag k="natural" v="water" />
		<tag k="ssr:stedsnr" v="443640" />
	</node>
	<node id="-754350" lat="69.353313891" lon="17.8953999859">
		<tag k="name" v="Tømmervatnet" />
		<tag k="natural" v="water" />
		<tag k="ssr:stedsnr" v="322534" />
	</node>
	<node id="-755728" lat="69.3537805548" lon="17.8775805625">
		<tag k="name" v="Litjevatnet" />
		<tag k="natural" v="water" />
		<tag k="ssr:stedsnr" v="443553" />
	</node>
	<node id="-755727" lat="69.3701277772" lon="17.7605555599">
		<tag k="alt_name" v="Rødskardelva;Rødskarelva" />
		<tag k="name" v="Raudskardelva" />
		<tag k="ssr:stedsnr" v="443543" />
		<tag k="waterway" v="stream" />
	</node>
	<node id="-755720" lat="69.204955552" lon="17.8775666505">
		<tag k="name" v="Krokelva" />
		<tag k="ssr:stedsnr" v="443403" />
		<tag k="waterway" v="stream" />
	</node>
	<node id="-755718" lat="69.2399249977" lon="18.1145305431">
		<tag k="name" v="Botnvatnet" />
		<tag k="natural" v="water" />
		<tag k="ssr:stedsnr" v="442667" />
	</node>
	<node id="-755717" lat="69.3456972201" lon="17.8508722083">
		<tag k="name" v="Godmatmoelva" />
		<tag k="ssr:stedsnr" v="416858" />
		<tag k="waterway" v="stream" />
	</node>
	<node id="-755715" lat="69.4771305583" lon="18.2883249862">
		<tag k="name" v="Oksebekken" />
		<tag k="ssr:stedsnr" v="414973" />
		<tag k="waterway" v="stream" />
	</node>
	<node id="-755714" lat="69.3726777775" lon="18.3365638731">
		<tag k="name" v="Skjellelva" />
		<tag k="ssr:stedsnr" v="414964" />
		<tag k="waterway" v="stream" />
	</node>
</osm>
