<?xml version="1.0" encoding="UTF-8"?>
<osm version="0.6" generator="osmapis">
	<node lat="60.377447225966925" lon="5.762202775128037" id="-25018">
		<tag k="alt_name" v="Samnanger" />
		<tag k="name" v="Samnanger kommune" />
		<tag k="ssr:date" v="2019-12-27" />
		<tag k="ssr:gruppe" v="administrativeIndelinger" />
		<tag k="ssr:hovedgruppe" v="offentligAdministrasjon" />
		<tag k="ssr:stedsnr" v="449871" />
		<tag k="ssr:type" v="kommune" />
	</node>
	<node lat="60.3704694427627" lon="5.6834333377013895" id="-25567">
		<tag k="alt_name" v="Oldervik" />
		<tag k="name" v="Oldervik lykt" />
		<tag k="ssr:date" v="2019-12-27" />
		<tag k="ssr:gruppe" v="navigasjon" />
		<tag k="ssr:hovedgruppe" v="infrastruktur" />
		<tag k="ssr:stedsnr" v="297394" />
		<tag k="ssr:type" v="fyrlykt" />
	</node>
	<node lat="60.381607005794145" lon="5.890433420766344" id="-25864">
		<tag k="name" v="Fossen Bratte" />
		<tag k="ssr:date" v="2019-12-27" />
		<tag k="ssr:gruppe" v="veg" />
		<tag k="ssr:hovedgruppe" v="infrastruktur" />
		<tag k="ssr:stedsnr" v="1038816" />
		<tag k="ssr:type" v="adressenavn" />
	</node>
	<node lat="60.481437415140725" lon="5.932783366780753" id="-25865">
		<tag k="name" v="Nedsta Dukavatnet" />
		<tag k="ssr:date" v="2019-12-27" />
		<tag k="ssr:gruppe" v="veg" />
		<tag k="ssr:hovedgruppe" v="infrastruktur" />
		<tag k="ssr:stedsnr" v="1038893" />
		<tag k="ssr:type" v="adressenavn" />
	</node>
	<node lat="60.440444281936614" lon="5.880995184597754" id="-25866">
		<tag k="name" v="Kvanndalsvatnet" />
		<tag k="ssr:date" v="2019-12-27" />
		<tag k="ssr:gruppe" v="veg" />
		<tag k="ssr:hovedgruppe" v="infrastruktur" />
		<tag k="ssr:stedsnr" v="1038896" />
		<tag k="ssr:type" v="adressenavn" />
	</node>
	<node lat="60.49761235059664" lon="5.924151849598703" id="-25867">
		<tag k="name" v="Elvakrokane" />
		<tag k="ssr:date" v="2019-12-27" />
		<tag k="ssr:gruppe" v="veg" />
		<tag k="ssr:hovedgruppe" v="infrastruktur" />
		<tag k="ssr:stedsnr" v="1038901" />
		<tag k="ssr:type" v="adressenavn" />
	</node>
	<node lat="60.381322444205004" lon="5.893637012939545" id="-25868">
		<tag k="name" v="Rabalhei" />
		<tag k="ssr:date" v="2019-12-27" />
		<tag k="ssr:gruppe" v="veg" />
		<tag k="ssr:hovedgruppe" v="infrastruktur" />
		<tag k="ssr:stedsnr" v="1038907" />
		<tag k="ssr:type" v="adressenavn" />
	</node>
	<node lat="60.39405357082144" lon="5.649923824313973" id="-25869">
		<tag k="name" v="Mosatjørna" />
		<tag k="ssr:date" v="2019-12-27" />
		<tag k="ssr:gruppe" v="veg" />
		<tag k="ssr:hovedgruppe" v="infrastruktur" />
		<tag k="ssr:stedsnr" v="1038841" />
		<tag k="ssr:type" v="adressenavn" />
	</node>
	<node lat="60.3979987164573" lon="5.652424031551148" id="-25870">
		<tag k="name" v="Langavatnet" />
		<tag k="ssr:date" v="2019-12-27" />
		<tag k="ssr:gruppe" v="veg" />
		<tag k="ssr:hovedgruppe" v="infrastruktur" />
		<tag k="ssr:stedsnr" v="1038844" />
		<tag k="ssr:type" v="adressenavn" />
	</node>
	<node lat="60.348351334491944" lon="5.594208175250218" id="-25871">
		<tag k="name" v="Brekkedalen" />
		<tag k="ssr:date" v="2019-12-27" />
		<tag k="ssr:gruppe" v="veg" />
		<tag k="ssr:hovedgruppe" v="infrastruktur" />
		<tag k="ssr:stedsnr" v="1038846" />
		<tag k="ssr:type" v="adressenavn" />
	</node>
	<node lat="60.3649139396601" lon="5.644734655071269" id="-25872">
		<tag k="name" v="Skreiddalen" />
		<tag k="ssr:date" v="2019-12-27" />
		<tag k="ssr:gruppe" v="veg" />
		<tag k="ssr:hovedgruppe" v="infrastruktur" />
		<tag k="ssr:stedsnr" v="1038848" />
		<tag k="ssr:type" v="adressenavn" />
	</node>
	<node lat="60.42958202359692" lon="5.819743520133685" id="-25873">
		<tag k="name" v="Setrarinden" />
		<tag k="ssr:date" v="2019-12-27" />
		<tag k="ssr:gruppe" v="veg" />
		<tag k="ssr:hovedgruppe" v="infrastruktur" />
		<tag k="ssr:stedsnr" v="1038852" />
		<tag k="ssr:type" v="adressenavn" />
	</node>
	<node lat="60.366597476224136" lon="5.657698495322451" id="-25874">
		<tag k="name" v="Liøyna" />
		<tag k="ssr:date" v="2019-12-27" />
		<tag k="ssr:gruppe" v="veg" />
		<tag k="ssr:hovedgruppe" v="infrastruktur" />
		<tag k="ssr:stedsnr" v="1038854" />
		<tag k="ssr:type" v="adressenavn" />
	</node>
	<node lat="60.42169047442866" lon="5.754876752785734" id="-25875">
		<tag k="name" v="Fitjavatnet" />
		<tag k="ssr:date" v="2019-12-27" />
		<tag k="ssr:gruppe" v="veg" />
		<tag k="ssr:hovedgruppe" v="infrastruktur" />
		<tag k="ssr:stedsnr" v="1038856" />
		<tag k="ssr:type" v="adressenavn" />
	</node>
	<node lat="60.34162912718069" lon="5.703746028915706" id="-25876">
		<tag k="name" v="Stemmevatnet" />
		<tag k="ssr:date" v="2019-12-27" />
		<tag k="ssr:gruppe" v="veg" />
		<tag k="ssr:hovedgruppe" v="infrastruktur" />
		<tag k="ssr:stedsnr" v="1038879" />
		<tag k="ssr:type" v="adressenavn" />
	</node>
	<node lat="60.420864903898746" lon="5.718673534868929" id="-25877">
		<tag k="name" v="Setralia" />
		<tag k="ssr:date" v="2019-12-27" />
		<tag k="ssr:gruppe" v="veg" />
		<tag k="ssr:hovedgruppe" v="infrastruktur" />
		<tag k="ssr:stedsnr" v="1038882" />
		<tag k="ssr:type" v="adressenavn" />
	</node>
	<node lat="60.500764983254584" lon="5.960107555168111" id="-25878">
		<tag k="name" v="Gullhorgabu" />
		<tag k="ssr:date" v="2019-12-27" />
		<tag k="ssr:gruppe" v="veg" />
		<tag k="ssr:hovedgruppe" v="infrastruktur" />
		<tag k="ssr:stedsnr" v="1038938" />
		<tag k="ssr:type" v="adressenavn" />
	</node>
	<node lat="60.38666587132831" lon="5.332557531214444" id="-25880">
		<tag k="name" v="Vestland fylke" />
		<tag k="ssr:date" v="2021-06-08" />
		<tag k="ssr:gruppe" v="administrativeIndelinger" />
		<tag k="ssr:hovedgruppe" v="offentligAdministrasjon" />
		<tag k="ssr:stedsnr" v="1074408" />
		<tag k="ssr:type" v="fylke" />
	</node>
</osm>
