<?xml version="1.0" encoding="UTF-8"?>
<osm version="0.6" generator="osmapis">
	<node lat="60.398538092794" lon="5.679824314077348" id="-69860">
		<tag k="alt_name" v="Hisdalen" />
		<tag k="name" v="Hisdal" />
		<tag k="place" v="hamlet" />
		<tag k="ssr:date" v="2019-12-27" />
		<tag k="ssr:gruppe" v="gardsbebyggelse" />
		<tag k="ssr:hovedgruppe" v="bebyggelse" />
		<tag k="ssr:stedsnr" v="5101" />
		<tag k="ssr:type" v="navnegard" />
	</node>
	<node lat="60.401250000742536" lon="5.728899997165822" id="-69861">
		<tag k="name" v="Bjørkheim" />
		<tag k="place" v="farm" />
		<tag k="ssr:date" v="2019-12-27" />
		<tag k="ssr:gruppe" v="gardsbebyggelse" />
		<tag k="ssr:hovedgruppe" v="bebyggelse" />
		<tag k="ssr:stedsnr" v="5102" />
		<tag k="ssr:type" v="bruk" />
	</node>
	<node lat="60.3528277791527" lon="5.791675006654446" id="-69880">
		<tag k="name" v="Haugslii" />
		<tag k="natural" v="slope" />
		<tag k="place" v="locality" />
		<tag k="ssr:date" v="2019-12-27" />
		<tag k="ssr:gruppe" v="skråninger" />
		<tag k="ssr:hovedgruppe" v="terreng" />
		<tag k="ssr:stedsnr" v="237019" />
		<tag k="ssr:type" v="li" />
	</node>
	<node lat="60.35787778010508" lon="5.7692555516380795" id="-69881">
		<tag k="historic" v="shieling" />
		<tag k="name" v="Gamlasetret" />
		<tag k="place" v="locality" />
		<tag k="ssr:date" v="2019-12-27" />
		<tag k="ssr:gruppe" v="dyrkamark" />
		<tag k="ssr:hovedgruppe" v="markslag" />
		<tag k="ssr:stedsnr" v="237020" />
		<tag k="ssr:type" v="setervoll" />
	</node>
	<node lat="60.34586944816584" lon="5.725655546801775" id="-69882">
		<tag k="name" v="Høystakkadalen" />
		<tag k="natural" v="valley" />
		<tag k="place" v="locality" />
		<tag k="ssr:date" v="2019-12-27" />
		<tag k="ssr:gruppe" v="senkninger" />
		<tag k="ssr:hovedgruppe" v="terreng" />
		<tag k="ssr:stedsnr" v="237021" />
		<tag k="ssr:type" v="dal" />
	</node>
	<node lat="60.34599195906522" lon="5.71473913657786" id="-69883">
		<tag k="name" v="Utløhaugtjørni" />
		<tag k="natural" v="water" />
		<tag k="ssr:date" v="2019-12-27" />
		<tag k="ssr:gruppe" v="stilleståendeVann" />
		<tag k="ssr:hovedgruppe" v="ferskvann" />
		<tag k="ssr:stedsnr" v="237024" />
		<tag k="ssr:type" v="tjern" />
	</node>
	<node lat="60.33357500441891" lon="5.655713888854518" id="-69884">
		<tag k="name" v="Ylstevika" />
		<tag k="natural" v="bay" />
		<tag k="ssr:date" v="2019-12-27" />
		<tag k="ssr:gruppe" v="kystkontur" />
		<tag k="ssr:hovedgruppe" v="sjø" />
		<tag k="ssr:stedsnr" v="237101" />
		<tag k="ssr:type" v="vikISjø" />
	</node>
	<node lat="60.365847225380506" lon="5.880541659931567" id="-69885">
		<tag k="name" v="Plyttagjeldet" />
		<tag k="natural" v="valley" />
		<tag k="place" v="locality" />
		<tag k="ssr:date" v="2019-12-27" />
		<tag k="ssr:gruppe" v="senkninger" />
		<tag k="ssr:hovedgruppe" v="terreng" />
		<tag k="ssr:stedsnr" v="40984" />
		<tag k="ssr:type" v="skar" />
	</node>
	<node lat="60.343708334732916" lon="5.813527782479385" id="-69886">
		<tag k="name" v="Kvanndalsgjelet" />
		<tag k="natural" v="valley" />
		<tag k="place" v="locality" />
		<tag k="ssr:date" v="2019-12-27" />
		<tag k="ssr:gruppe" v="senkninger" />
		<tag k="ssr:hovedgruppe" v="terreng" />
		<tag k="ssr:stedsnr" v="237946" />
		<tag k="ssr:type" v="skar" />
	</node>
	<node lat="60.33175574316924" lon="5.675143053579135" id="-69887">
		<tag k="name" v="Vetlavatnet" />
		<tag k="natural" v="water" />
		<tag k="ssr:date" v="2019-12-27" />
		<tag k="ssr:gruppe" v="stilleståendeVann" />
		<tag k="ssr:hovedgruppe" v="ferskvann" />
		<tag k="ssr:stedsnr" v="55104" />
		<tag k="ssr:type" v="tjern" />
	</node>
	<node lat="60.35625277723986" lon="5.810697228812143" id="-69888">
		<tag k="name" v="Floren" />
		<tag k="natural" v="hill" />
		<tag k="place" v="locality" />
		<tag k="ssr:date" v="2019-12-27" />
		<tag k="ssr:gruppe" v="høyder" />
		<tag k="ssr:hovedgruppe" v="terreng" />
		<tag k="ssr:stedsnr" v="59008" />
		<tag k="ssr:type" v="haug" />
	</node>
	<node lat="60.358919447364414" lon="5.760491659129947" id="-69889">
		<tag k="fixme" v="consider natural=peak for the most distinct mountains in the district" />
		<tag k="name" v="Skaråsen" />
		<tag k="natural" v="hill" />
		<tag k="place" v="locality" />
		<tag k="ssr:date" v="2019-12-27" />
		<tag k="ssr:gruppe" v="høyder" />
		<tag k="ssr:hovedgruppe" v="terreng" />
		<tag k="ssr:stedsnr" v="241051" />
		<tag k="ssr:type" v="ås" />
	</node>
	<node lat="60.335982421253235" lon="5.657099770119604" id="-69894">
		<tag k="fixme" v="consider place=hamlet" />
		<tag k="name" v="Utskot" />
		<tag k="place" v="farm" />
		<tag k="ssr:date" v="2019-12-27" />
		<tag k="ssr:gruppe" v="gardsbebyggelse" />
		<tag k="ssr:hovedgruppe" v="bebyggelse" />
		<tag k="ssr:stedsnr" v="66202" />
		<tag k="ssr:type" v="gard" />
	</node>
	<node lat="60.34057222332291" lon="5.834130563721728" id="-69895">
		<tag k="fixme" v="consider natural=peak for the most distinct mountains in the district" />
		<tag k="name" v="Geitaloftet" />
		<tag k="natural" v="hill" />
		<tag k="place" v="locality" />
		<tag k="ssr:date" v="2019-12-27" />
		<tag k="ssr:gruppe" v="høyder" />
		<tag k="ssr:hovedgruppe" v="terreng" />
		<tag k="ssr:stedsnr" v="66222" />
		<tag k="ssr:type" v="ås" />
	</node>
	<node lat="60.473480558038645" lon="5.896947225105503" id="-69912">
		<tag k="name" v="Fonnabekken" />
		<tag k="ssr:date" v="2019-12-27" />
		<tag k="ssr:gruppe" v="rennendeVann" />
		<tag k="ssr:hovedgruppe" v="ferskvann" />
		<tag k="ssr:stedsnr" v="248340" />
		<tag k="ssr:type" v="bekk" />
		<tag k="waterway" v="stream" />
	</node>
	<node lat="60.3944611096059" lon="5.674300008109437" id="-69914">
		<tag k="name" v="Holdhus" />
		<tag k="place" v="farm" />
		<tag k="ssr:date" v="2019-12-27" />
		<tag k="ssr:gruppe" v="gardsbebyggelse" />
		<tag k="ssr:hovedgruppe" v="bebyggelse" />
		<tag k="ssr:stedsnr" v="248099" />
		<tag k="ssr:type" v="bruk" />
	</node>
	<node lat="60.369033335981776" lon="5.747966657752142" id="-69924">
		<tag k="bridge" v="yes" />
		<tag k="layer" v="1" />
		<tag k="name" v="Barmstøl" />
		<tag k="ssr:date" v="2019-12-27" />
		<tag k="ssr:gruppe" v="samferdselsanlegg" />
		<tag k="ssr:hovedgruppe" v="infrastruktur" />
		<tag k="ssr:stedsnr" v="108219" />
		<tag k="ssr:type" v="bru" />
	</node>
	<node lat="60.32418889137689" lon="5.62387499234692" id="-69925">
		<tag k="bridge" v="yes" />
		<tag k="layer" v="1" />
		<tag k="name" v="Bykleiva" />
		<tag k="ssr:date" v="2019-12-27" />
		<tag k="ssr:gruppe" v="samferdselsanlegg" />
		<tag k="ssr:hovedgruppe" v="infrastruktur" />
		<tag k="ssr:stedsnr" v="108223" />
		<tag k="ssr:type" v="bru" />
	</node>
	<node lat="60.51571944323002" lon="5.962524997726973" id="-69926">
		<tag k="fixme" v="consider natural=peak for the most distinct mountains in the district" />
		<tag k="name" v="Småbrekkebukken" />
		<tag k="natural" v="hill" />
		<tag k="place" v="locality" />
		<tag k="ssr:date" v="2019-12-27" />
		<tag k="ssr:gruppe" v="høyder" />
		<tag k="ssr:hovedgruppe" v="terreng" />
		<tag k="ssr:stedsnr" v="249982" />
		<tag k="ssr:type" v="ås" />
	</node>
	<node lat="60.33794999994584" lon="5.677472216436823" id="-69927">
		<tag k="name" v="Skjenet" />
		<tag k="natural" v="hill" />
		<tag k="place" v="locality" />
		<tag k="ssr:date" v="2019-12-27" />
		<tag k="ssr:gruppe" v="høyder" />
		<tag k="ssr:hovedgruppe" v="terreng" />
		<tag k="ssr:stedsnr" v="116111" />
		<tag k="ssr:type" v="haug" />
	</node>
	<node lat="60.338369441306554" lon="5.695394436969605" id="-69928">
		<tag k="name" v="Aksla" />
		<tag k="place" v="locality" />
		<tag k="ssr:date" v="2019-12-27" />
		<tag k="ssr:gruppe" v="høyder" />
		<tag k="ssr:hovedgruppe" v="terreng" />
		<tag k="ssr:stedsnr" v="116127" />
		<tag k="ssr:type" v="fjellkant" />
	</node>
	<node lat="60.355483332907504" lon="5.847236103722964" id="-69929">
		<tag k="name" v="Vigrabotnen" />
		<tag k="natural" v="valley" />
		<tag k="place" v="locality" />
		<tag k="ssr:date" v="2019-12-27" />
		<tag k="ssr:gruppe" v="senkninger" />
		<tag k="ssr:hovedgruppe" v="terreng" />
		<tag k="ssr:stedsnr" v="116921" />
		<tag k="ssr:type" v="botn" />
	</node>
	<node lat="60.34075833308547" lon="5.635752785195854" id="-69934">
		<tag k="name" v="Austavik" />
		<tag k="place" v="farm" />
		<tag k="ssr:date" v="2019-12-27" />
		<tag k="ssr:gruppe" v="gardsbebyggelse" />
		<tag k="ssr:hovedgruppe" v="bebyggelse" />
		<tag k="ssr:stedsnr" v="126205" />
		<tag k="ssr:type" v="bruk" />
	</node>
	<node lat="60.38337499701846" lon="5.589233327144814" id="-69938">
		<tag k="fixme" v="consider natural=peak for the most distinct mountains in the district" />
		<tag k="name" v="Blåmanen" />
		<tag k="natural" v="hill" />
		<tag k="place" v="locality" />
		<tag k="ssr:date" v="2019-12-27" />
		<tag k="ssr:gruppe" v="høyder" />
		<tag k="ssr:hovedgruppe" v="terreng" />
		<tag k="ssr:stedsnr" v="127143" />
		<tag k="ssr:type" v="ås" />
	</node>
	<node lat="60.34689444889581" lon="5.693136114230441" id="-69945">
		<tag k="name" v="Øpstebøelva" />
		<tag k="ssr:date" v="2019-12-27" />
		<tag k="ssr:gruppe" v="rennendeVann" />
		<tag k="ssr:hovedgruppe" v="ferskvann" />
		<tag k="ssr:stedsnr" v="176105" />
		<tag k="ssr:type" v="bekk" />
		<tag k="waterway" v="stream" />
	</node>
	<node lat="60.36396944713847" lon="5.756330559676409" id="-69946">
		<tag k="name" v="Hovda" />
		<tag k="natural" v="hill" />
		<tag k="place" v="locality" />
		<tag k="ssr:date" v="2019-12-27" />
		<tag k="ssr:gruppe" v="høyder" />
		<tag k="ssr:hovedgruppe" v="terreng" />
		<tag k="ssr:stedsnr" v="180055" />
		<tag k="ssr:type" v="haug" />
	</node>
	<node lat="60.38674688128923" lon="5.765046199343282" id="-69956">
		<tag k="alt_name" v="Indra Haga" />
		<tag k="name" v="Indre Haga" />
		<tag k="place" v="farm" />
		<tag k="ssr:date" v="2019-12-27" />
		<tag k="ssr:gruppe" v="gardsbebyggelse" />
		<tag k="ssr:hovedgruppe" v="bebyggelse" />
		<tag k="ssr:stedsnr" v="267260" />
		<tag k="ssr:type" v="bruk" />
	</node>
	<node lat="60.369438889380035" lon="5.747213897737049" id="-69969">
		<tag k="name" v="Indre Barmen" />
		<tag k="place" v="farm" />
		<tag k="ssr:date" v="2021-07-01" />
		<tag k="ssr:gruppe" v="gardsbebyggelse" />
		<tag k="ssr:hovedgruppe" v="bebyggelse" />
		<tag k="ssr:stedsnr" v="449300" />
		<tag k="ssr:type" v="bruk" />
	</node>
	<node lat="60.333338886648285" lon="5.7251222309625" id="-69971">
		<tag k="name" v="Heimsta Brunetjørna" />
		<tag k="natural" v="water" />
		<tag k="ssr:date" v="2019-12-27" />
		<tag k="ssr:gruppe" v="stilleståendeVann" />
		<tag k="ssr:hovedgruppe" v="ferskvann" />
		<tag k="ssr:stedsnr" v="237002" />
		<tag k="ssr:type" v="pytt" />
		<tag k="water" v="pond" />
	</node>
	<node lat="60.34809444623668" lon="5.715752782323295" id="-69972">
		<tag k="name" v="Skorvena" />
		<tag k="ssr:date" v="2019-12-27" />
		<tag k="ssr:gruppe" v="rennendeVann" />
		<tag k="ssr:hovedgruppe" v="ferskvann" />
		<tag k="ssr:stedsnr" v="237028" />
		<tag k="ssr:type" v="bekk" />
		<tag k="waterway" v="stream" />
	</node>
	<node lat="60.33808888682706" lon="5.711416669429461" id="-69973">
		<tag k="name" v="Grytena" />
		<tag k="place" v="islet" />
		<tag k="ssr:date" v="2019-12-27" />
		<tag k="ssr:gruppe" v="ferskvannskontur" />
		<tag k="ssr:hovedgruppe" v="ferskvann" />
		<tag k="ssr:stedsnr" v="237033" />
		<tag k="ssr:type" v="holme" />
	</node>
	<node lat="60.335297219127895" lon="5.669133339162423" id="-69974">
		<tag k="name" v="Barlindehaugen" />
		<tag k="natural" v="hill" />
		<tag k="place" v="locality" />
		<tag k="ssr:date" v="2019-12-27" />
		<tag k="ssr:gruppe" v="høyder" />
		<tag k="ssr:hovedgruppe" v="terreng" />
		<tag k="ssr:stedsnr" v="237104" />
		<tag k="ssr:type" v="haug" />
	</node>
	<node lat="60.362497219602965" lon="5.773541665129656" id="-69975">
		<tag k="name" v="Bjørkhilderhaugen" />
		<tag k="natural" v="hill" />
		<tag k="place" v="locality" />
		<tag k="ssr:date" v="2019-12-27" />
		<tag k="ssr:gruppe" v="høyder" />
		<tag k="ssr:hovedgruppe" v="terreng" />
		<tag k="ssr:stedsnr" v="241029" />
		<tag k="ssr:type" v="haug" />
	</node>
	<node lat="60.35396666816015" lon="5.797738897346148" id="-69976">
		<tag k="historic" v="shieling" />
		<tag k="name" v="Haugssetret" />
		<tag k="place" v="isolated_dwelling" />
		<tag k="ssr:date" v="2020-03-31" />
		<tag k="ssr:gruppe" v="gardsbebyggelse" />
		<tag k="ssr:hovedgruppe" v="bebyggelse" />
		<tag k="ssr:stedsnr" v="241035" />
		<tag k="ssr:type" v="seterStøl" />
	</node>
	<node lat="60.36811110725254" lon="5.705025005832492" id="-69977">
		<tag k="name" v="Hetleviki" />
		<tag k="natural" v="bay" />
		<tag k="ssr:date" v="2019-12-27" />
		<tag k="ssr:gruppe" v="kystkontur" />
		<tag k="ssr:hovedgruppe" v="sjø" />
		<tag k="ssr:stedsnr" v="241041" />
		<tag k="ssr:type" v="vikISjø" />
	</node>
	<node lat="60.34780555497613" lon="5.685972214739644" id="-69980">
		<tag k="name" v="Bakke" />
		<tag k="place" v="farm" />
		<tag k="ssr:date" v="2019-12-27" />
		<tag k="ssr:gruppe" v="gardsbebyggelse" />
		<tag k="ssr:hovedgruppe" v="bebyggelse" />
		<tag k="ssr:stedsnr" v="248209" />
		<tag k="ssr:type" v="bruk" />
	</node>
	<node lat="60.34031666457391" lon="5.913147224444003" id="-69986">
		<tag k="name" v="Kjebotnen" />
		<tag k="natural" v="valley" />
		<tag k="place" v="locality" />
		<tag k="ssr:date" v="2019-12-27" />
		<tag k="ssr:gruppe" v="senkninger" />
		<tag k="ssr:hovedgruppe" v="terreng" />
		<tag k="ssr:stedsnr" v="248598" />
		<tag k="ssr:type" v="botn" />
	</node>
	<node lat="60.327644447935796" lon="5.6553777806739065" id="-70012">
		<tag k="name" v="Tjøregruva" />
		<tag k="natural" v="bay" />
		<tag k="ssr:date" v="2019-12-27" />
		<tag k="ssr:gruppe" v="kystkontur" />
		<tag k="ssr:hovedgruppe" v="sjø" />
		<tag k="ssr:stedsnr" v="298112" />
		<tag k="ssr:type" v="vikISjø" />
	</node>
	<node lat="60.32990000194523" lon="5.679175003662542" id="-70013">
		<tag k="name" v="Botnen" />
		<tag k="natural" v="valley" />
		<tag k="place" v="locality" />
		<tag k="ssr:date" v="2019-12-27" />
		<tag k="ssr:gruppe" v="senkninger" />
		<tag k="ssr:hovedgruppe" v="terreng" />
		<tag k="ssr:stedsnr" v="298115" />
		<tag k="ssr:type" v="botn" />
	</node>
	<node lat="60.33927499627427" lon="5.682705555397485" id="-70014">
		<tag k="fixme" v="consider natural=peak for the most distinct mountains in the district" />
		<tag k="name" v="Djuvvikåsen" />
		<tag k="natural" v="hill" />
		<tag k="place" v="locality" />
		<tag k="ssr:date" v="2019-12-27" />
		<tag k="ssr:gruppe" v="høyder" />
		<tag k="ssr:hovedgruppe" v="terreng" />
		<tag k="ssr:stedsnr" v="298088" />
		<tag k="ssr:type" v="ås" />
	</node>
	<node lat="60.35219722541119" lon="5.8367083301019855" id="-70015">
		<tag k="name" v="Kikenosi" />
		<tag k="place" v="locality" />
		<tag k="ssr:date" v="2019-12-27" />
		<tag k="ssr:gruppe" v="høyder" />
		<tag k="ssr:hovedgruppe" v="terreng" />
		<tag k="ssr:stedsnr" v="298913" />
		<tag k="ssr:type" v="fjellkant" />
	</node>
	<node lat="60.453102777500135" lon="5.766105557057421" id="-70017">
		<tag k="fixme" v="consider natural=peak for the most distinct mountains in the district" />
		<tag k="name" v="Storenuten" />
		<tag k="natural" v="hill" />
		<tag k="place" v="locality" />
		<tag k="ssr:date" v="2019-12-27" />
		<tag k="ssr:gruppe" v="høyder" />
		<tag k="ssr:hovedgruppe" v="terreng" />
		<tag k="ssr:stedsnr" v="308018" />
		<tag k="ssr:type" v="ås" />
	</node>
	<node lat="60.44930555550546" lon="5.792063897981261" id="-70018">
		<tag k="name" v="Bogaskaret" />
		<tag k="natural" v="valley" />
		<tag k="place" v="locality" />
		<tag k="ssr:date" v="2019-12-27" />
		<tag k="ssr:gruppe" v="senkninger" />
		<tag k="ssr:hovedgruppe" v="terreng" />
		<tag k="ssr:stedsnr" v="308019" />
		<tag k="ssr:type" v="skar" />
	</node>
	<node lat="60.358356656788004" lon="5.690591954028551" id="-70019">
		<tag k="alt_name" v="Nygård" />
		<tag k="name" v="Nygard" />
		<tag k="place" v="locality" />
		<tag k="ssr:date" v="2020-09-11" />
		<tag k="ssr:gruppe" v="gardsbebyggelse" />
		<tag k="ssr:hovedgruppe" v="bebyggelse" />
		<tag k="ssr:stedsnr" v="308152" />
		<tag k="ssr:type" v="eiendom" />
	</node>
	<node lat="60.35071666613336" lon="5.873683329125843" id="-70023">
		<tag k="name" v="Bjørnabakkane" />
		<tag k="natural" v="slope" />
		<tag k="place" v="locality" />
		<tag k="ssr:date" v="2019-12-27" />
		<tag k="ssr:gruppe" v="skråninger" />
		<tag k="ssr:hovedgruppe" v="terreng" />
		<tag k="ssr:stedsnr" v="465958" />
		<tag k="ssr:type" v="li" />
	</node>
	<node lat="60.40410833296711" lon="5.723133336834614" id="-70024">
		<tag k="fixme" v="consider place=hamlet" />
		<tag k="name" v="Samnanger" />
		<tag k="place" v="village" />
		<tag k="ssr:date" v="2019-12-27" />
		<tag k="ssr:gruppe" v="bebyggelsesområder" />
		<tag k="ssr:hovedgruppe" v="bebyggelse" />
		<tag k="ssr:stedsnr" v="328266" />
		<tag k="ssr:type" v="bygdelagBygd" />
	</node>
	<node lat="60.40645555419651" lon="5.790888887432712" id="-70036">
		<tag k="bridge" v="yes" />
		<tag k="layer" v="1" />
		<tag k="name" v="Vetle" />
		<tag k="ssr:date" v="2019-12-27" />
		<tag k="ssr:gruppe" v="samferdselsanlegg" />
		<tag k="ssr:hovedgruppe" v="infrastruktur" />
		<tag k="ssr:stedsnr" v="472226" />
		<tag k="ssr:type" v="bru" />
	</node>
	<node lat="60.34544722585478" lon="5.684497219762886" id="-70038">
		<tag k="bridge" v="yes" />
		<tag k="layer" v="1" />
		<tag k="name" v="Juvik" />
		<tag k="ssr:date" v="2019-12-27" />
		<tag k="ssr:gruppe" v="samferdselsanlegg" />
		<tag k="ssr:hovedgruppe" v="infrastruktur" />
		<tag k="ssr:stedsnr" v="350203" />
		<tag k="ssr:type" v="bru" />
	</node>
	<node lat="60.33937499753031" lon="5.678741669735376" id="-70039">
		<tag k="name" v="Mørkedalen" />
		<tag k="natural" v="valley" />
		<tag k="place" v="locality" />
		<tag k="ssr:date" v="2019-12-27" />
		<tag k="ssr:gruppe" v="senkninger" />
		<tag k="ssr:hovedgruppe" v="terreng" />
		<tag k="ssr:stedsnr" v="358113" />
		<tag k="ssr:type" v="dal" />
	</node>
	<node lat="60.35787221897314" lon="5.776811102580989" id="-70040">
		<tag k="name" v="Krossdalen" />
		<tag k="natural" v="valley" />
		<tag k="place" v="locality" />
		<tag k="ssr:date" v="2019-12-27" />
		<tag k="ssr:gruppe" v="senkninger" />
		<tag k="ssr:hovedgruppe" v="terreng" />
		<tag k="ssr:stedsnr" v="479019" />
		<tag k="ssr:type" v="dal" />
	</node>
	<node lat="60.484066663511506" lon="5.937722215330607" id="-70046">
		<tag k="name" v="Skredene" />
		<tag k="natural" v="slope" />
		<tag k="place" v="locality" />
		<tag k="ssr:date" v="2019-12-27" />
		<tag k="ssr:gruppe" v="skråninger" />
		<tag k="ssr:hovedgruppe" v="terreng" />
		<tag k="ssr:stedsnr" v="369307" />
		<tag k="ssr:type" v="bakke" />
	</node>
	<node lat="60.46578333505062" lon="5.902413883610731" id="-70047">
		<tag k="name" v="Lammatræmyra" />
		<tag k="natural" v="wetland" />
		<tag k="ssr:date" v="2019-12-27" />
		<tag k="ssr:gruppe" v="våtmark" />
		<tag k="ssr:hovedgruppe" v="markslag" />
		<tag k="ssr:stedsnr" v="369319" />
		<tag k="ssr:type" v="myr" />
	</node>
	<node lat="60.33492221869424" lon="5.8015249934207285" id="-70048">
		<tag k="alt_name" v="Haugsfjell" />
		<tag k="fixme" v="consider natural=peak for the most distinct mountains in the district" />
		<tag k="name" v="Haugsfjellet" />
		<tag k="natural" v="hill" />
		<tag k="place" v="locality" />
		<tag k="ssr:date" v="2019-12-27" />
		<tag k="ssr:gruppe" v="høyder" />
		<tag k="ssr:hovedgruppe" v="terreng" />
		<tag k="ssr:stedsnr" v="369215" />
		<tag k="ssr:type" v="ås" />
	</node>
	<node lat="60.40276111315032" lon="5.845911117342252" id="-70051">
		<tag k="name" v="Storelva" />
		<tag k="ssr:date" v="2019-12-27" />
		<tag k="ssr:gruppe" v="rennendeVann" />
		<tag k="ssr:hovedgruppe" v="ferskvann" />
		<tag k="ssr:stedsnr" v="369418" />
		<tag k="ssr:type" v="bekk" />
		<tag k="waterway" v="stream" />
	</node>
	<node lat="60.33447778140045" lon="5.677183332340372" id="-70055">
		<tag k="name" v="Storavatnet" />
		<tag k="natural" v="water" />
		<tag k="ssr:date" v="2019-12-27" />
		<tag k="ssr:gruppe" v="stilleståendeVann" />
		<tag k="ssr:hovedgruppe" v="ferskvann" />
		<tag k="ssr:stedsnr" v="479123" />
		<tag k="ssr:type" v="tjern" />
	</node>
	<node lat="60.32942221906333" lon="5.690944440217692" id="-70056">
		<tag k="name" v="Loggneset" />
		<tag k="natural" v="cape" />
		<tag k="ssr:date" v="2019-12-27" />
		<tag k="ssr:gruppe" v="ferskvannskontur" />
		<tag k="ssr:hovedgruppe" v="ferskvann" />
		<tag k="ssr:stedsnr" v="479126" />
		<tag k="ssr:type" v="nes" />
	</node>
	<node lat="60.336027775483046" lon="5.691708331687275" id="-70057">
		<tag k="name" v="Liabøen" />
		<tag k="place" v="farm" />
		<tag k="ssr:date" v="2019-12-27" />
		<tag k="ssr:gruppe" v="gardsbebyggelse" />
		<tag k="ssr:hovedgruppe" v="bebyggelse" />
		<tag k="ssr:stedsnr" v="479128" />
		<tag k="ssr:type" v="bruk" />
	</node>
	<node lat="60.327716666806396" lon="5.69125277907958" id="-70058">
		<tag k="name" v="Rømmaholken" />
		<tag k="natural" v="cape" />
		<tag k="ssr:date" v="2019-12-27" />
		<tag k="ssr:gruppe" v="ferskvannskontur" />
		<tag k="ssr:hovedgruppe" v="ferskvann" />
		<tag k="ssr:stedsnr" v="479129" />
		<tag k="ssr:type" v="nes" />
	</node>
	<node lat="60.33763055781398" lon="5.794377781112152" id="-70060">
		<tag k="name" v="Trælagjelet" />
		<tag k="natural" v="valley" />
		<tag k="place" v="locality" />
		<tag k="ssr:date" v="2019-12-27" />
		<tag k="ssr:gruppe" v="senkninger" />
		<tag k="ssr:hovedgruppe" v="terreng" />
		<tag k="ssr:stedsnr" v="480953" />
		<tag k="ssr:type" v="skar" />
	</node>
	<node lat="60.36780383553999" lon="5.73428320027322" id="-70061">
		<tag k="name" v="Ytste Barmen" />
		<tag k="place" v="locality" />
		<tag k="ssr:date" v="2021-07-01" />
		<tag k="ssr:gruppe" v="gardsbebyggelse" />
		<tag k="ssr:hovedgruppe" v="bebyggelse" />
		<tag k="ssr:stedsnr" v="483060" />
		<tag k="ssr:type" v="eiendom" />
	</node>
	<node lat="60.35899166364775" lon="5.711602772550081" id="-70062">
		<tag k="name" v="Kultane" />
		<tag k="natural" v="hill" />
		<tag k="place" v="locality" />
		<tag k="ssr:date" v="2019-12-27" />
		<tag k="ssr:gruppe" v="høyder" />
		<tag k="ssr:hovedgruppe" v="terreng" />
		<tag k="ssr:stedsnr" v="483063" />
		<tag k="ssr:type" v="haug" />
	</node>
	<node lat="60.35964721811169" lon="5.752966658573325" id="-70063">
		<tag k="name" v="Preikestolen" />
		<tag k="natural" v="hill" />
		<tag k="place" v="locality" />
		<tag k="ssr:date" v="2019-12-27" />
		<tag k="ssr:gruppe" v="høyder" />
		<tag k="ssr:hovedgruppe" v="terreng" />
		<tag k="ssr:stedsnr" v="483067" />
		<tag k="ssr:type" v="haug" />
	</node>
	<node lat="60.36840027429164" lon="5.73672492852218" id="-70064">
		<tag k="name" v="Barmen" />
		<tag k="place" v="farm" />
		<tag k="ssr:date" v="2021-07-01" />
		<tag k="ssr:gruppe" v="gardsbebyggelse" />
		<tag k="ssr:hovedgruppe" v="bebyggelse" />
		<tag k="ssr:stedsnr" v="483068" />
		<tag k="ssr:type" v="bruk" />
	</node>
	<node lat="60.36644722007779" lon="5.748230555230522" id="-70065">
		<tag k="name" v="Stølaelvi" />
		<tag k="ssr:date" v="2019-12-27" />
		<tag k="ssr:gruppe" v="rennendeVann" />
		<tag k="ssr:hovedgruppe" v="ferskvann" />
		<tag k="ssr:stedsnr" v="483069" />
		<tag k="ssr:type" v="bekk" />
		<tag k="waterway" v="stream" />
	</node>
	<node lat="60.35629444233457" lon="5.7326138907077" id="-70066">
		<tag k="name" v="Ormadalen" />
		<tag k="natural" v="valley" />
		<tag k="place" v="locality" />
		<tag k="ssr:date" v="2019-12-27" />
		<tag k="ssr:gruppe" v="senkninger" />
		<tag k="ssr:hovedgruppe" v="terreng" />
		<tag k="ssr:stedsnr" v="483046" />
		<tag k="ssr:type" v="dal" />
	</node>
	<node lat="60.34397222259424" lon="5.707702783458343" id="-70078">
		<tag k="name" v="Moltemyrhaugane" />
		<tag k="natural" v="hill" />
		<tag k="place" v="locality" />
		<tag k="ssr:date" v="2019-12-27" />
		<tag k="ssr:gruppe" v="høyder" />
		<tag k="ssr:hovedgruppe" v="terreng" />
		<tag k="ssr:stedsnr" v="419035" />
		<tag k="ssr:type" v="haug" />
	</node>
	<node lat="60.3328333327132" lon="5.705463889456331" id="-70079">
		<tag k="name" v="Svartetjørna" />
		<tag k="natural" v="water" />
		<tag k="ssr:date" v="2019-12-27" />
		<tag k="ssr:gruppe" v="stilleståendeVann" />
		<tag k="ssr:hovedgruppe" v="ferskvann" />
		<tag k="ssr:stedsnr" v="419037" />
		<tag k="ssr:type" v="tjern" />
	</node>
	<node lat="60.34495555487724" lon="5.657630560617938" id="-70080">
		<tag k="name" v="Liodden" />
		<tag k="natural" v="cape" />
		<tag k="ssr:date" v="2019-12-27" />
		<tag k="ssr:gruppe" v="kystkontur" />
		<tag k="ssr:hovedgruppe" v="sjø" />
		<tag k="ssr:stedsnr" v="419099" />
		<tag k="ssr:type" v="nesISjø" />
	</node>
	<node lat="60.3476333361699" lon="5.70042499148076" id="-70081">
		<tag k="name" v="Nevramyr" />
		<tag k="natural" v="wetland" />
		<tag k="ssr:date" v="2019-12-27" />
		<tag k="ssr:gruppe" v="våtmark" />
		<tag k="ssr:hovedgruppe" v="markslag" />
		<tag k="ssr:stedsnr" v="419108" />
		<tag k="ssr:type" v="myr" />
	</node>
	<node lat="60.461484770148324" lon="5.797286357796224" id="-70082">
		<tag k="name" v="Fossatjørna" />
		<tag k="natural" v="water" />
		<tag k="ssr:date" v="2019-12-27" />
		<tag k="ssr:gruppe" v="stilleståendeVann" />
		<tag k="ssr:hovedgruppe" v="ferskvann" />
		<tag k="ssr:stedsnr" v="490015" />
		<tag k="ssr:type" v="tjern" />
	</node>
	<node lat="60.497075000432595" lon="5.9065277749404395" id="-70093">
		<tag k="fixme" v="consider natural=peak for the most distinct mountains in the district" />
		<tag k="name" v="Hesten" />
		<tag k="natural" v="hill" />
		<tag k="place" v="locality" />
		<tag k="ssr:date" v="2019-12-27" />
		<tag k="ssr:gruppe" v="høyder" />
		<tag k="ssr:hovedgruppe" v="terreng" />
		<tag k="ssr:stedsnr" v="490981" />
		<tag k="ssr:type" v="ås" />
	</node>
	<node lat="60.37175277722985" lon="5.658091664928797" id="-70095">
		<tag k="name" v="Skarsvåg" />
		<tag k="natural" v="bay" />
		<tag k="ssr:date" v="2019-12-27" />
		<tag k="ssr:gruppe" v="kystkontur" />
		<tag k="ssr:hovedgruppe" v="sjø" />
		<tag k="ssr:stedsnr" v="430149" />
		<tag k="ssr:type" v="vikISjø" />
	</node>
	<node lat="60.32456264132802" lon="5.710097553402467" id="-70105">
		<tag k="name" v="Stussvatnet" />
		<tag k="natural" v="water" />
		<tag k="ssr:date" v="2019-12-27" />
		<tag k="ssr:gruppe" v="stilleståendeVann" />
		<tag k="ssr:hovedgruppe" v="ferskvann" />
		<tag k="ssr:stedsnr" v="431251" />
		<tag k="ssr:type" v="tjern" />
	</node>
	<node lat="60.433063891160984" lon="5.942886102921938" id="-70107">
		<tag k="fixme" v="consider natural=peak for the most distinct mountains in the district" />
		<tag k="name" v="Storafjellet" />
		<tag k="natural" v="hill" />
		<tag k="place" v="locality" />
		<tag k="ssr:date" v="2019-12-27" />
		<tag k="ssr:gruppe" v="høyder" />
		<tag k="ssr:hovedgruppe" v="terreng" />
		<tag k="ssr:stedsnr" v="431641" />
		<tag k="ssr:type" v="ås" />
	</node>
	<node lat="60.32455498303742" lon="5.69347675347825" id="-70132">
		<tag k="alt_name" v="Sævlavatnet" />
		<tag k="name" v="Sævellavatnet" />
		<tag k="natural" v="water" />
		<tag k="ssr:date" v="2020-06-09" />
		<tag k="ssr:gruppe" v="stilleståendeVann" />
		<tag k="ssr:hovedgruppe" v="ferskvann" />
		<tag k="ssr:stedsnr" v="673246" />
		<tag k="ssr:type" v="vann" />
		<tag k="water" v="lake" />
	</node>
	<node lat="60.35952778213445" lon="5.619488887063273" id="-70133">
		<tag k="name" v="Brekkekleiva" />
		<tag k="natural" v="slope" />
		<tag k="place" v="locality" />
		<tag k="ssr:date" v="2019-12-27" />
		<tag k="ssr:gruppe" v="skråninger" />
		<tag k="ssr:hovedgruppe" v="terreng" />
		<tag k="ssr:stedsnr" v="673199" />
		<tag k="ssr:type" v="li" />
	</node>
	<node lat="60.487113887906915" lon="5.886611102570526" id="-70135">
		<tag k="name" v="Lavransskaret" />
		<tag k="natural" v="valley" />
		<tag k="place" v="locality" />
		<tag k="ssr:date" v="2019-12-27" />
		<tag k="ssr:gruppe" v="senkninger" />
		<tag k="ssr:hovedgruppe" v="terreng" />
		<tag k="ssr:stedsnr" v="673349" />
		<tag k="ssr:type" v="skar" />
	</node>
	<node lat="60.39032499875709" lon="5.907486106715662" id="-70136">
		<tag k="fixme" v="consider place=hamlet" />
		<tag k="name" v="Eikedalen" />
		<tag k="place" v="village" />
		<tag k="ssr:date" v="2019-12-27" />
		<tag k="ssr:gruppe" v="bebyggelsesområder" />
		<tag k="ssr:hovedgruppe" v="bebyggelse" />
		<tag k="ssr:stedsnr" v="673732" />
		<tag k="ssr:type" v="bygdelagBygd" />
	</node>
	<node lat="60.39923096893875" lon="5.733058977070172" id="-70154">
		<tag k="alt_name" v="Vågen" />
		<tag k="name" v="Grunnavågen" />
		<tag k="natural" v="bay" />
		<tag k="ssr:date" v="2021-06-08" />
		<tag k="ssr:gruppe" v="kystkontur" />
		<tag k="ssr:hovedgruppe" v="sjø" />
		<tag k="ssr:stedsnr" v="514966" />
		<tag k="ssr:type" v="vikISjø" />
	</node>
	<node lat="60.40154999751083" lon="5.754555547809831" id="-70161">
		<tag k="bridge" v="yes" />
		<tag k="layer" v="1" />
		<tag k="name" v="Aldalselva" />
		<tag k="ssr:date" v="2019-12-27" />
		<tag k="ssr:gruppe" v="samferdselsanlegg" />
		<tag k="ssr:hovedgruppe" v="infrastruktur" />
		<tag k="ssr:stedsnr" v="533221" />
		<tag k="ssr:type" v="bru" />
	</node>
	<node lat="60.34467778039215" lon="5.686380553716158" id="-70162">
		<tag k="name" v="Djuvvikelva" />
		<tag k="ssr:date" v="2019-12-27" />
		<tag k="ssr:gruppe" v="rennendeVann" />
		<tag k="ssr:hovedgruppe" v="ferskvann" />
		<tag k="ssr:stedsnr" v="540112" />
		<tag k="ssr:type" v="bekk" />
		<tag k="waterway" v="stream" />
	</node>
	<node lat="60.34774166518534" lon="5.773999998021497" id="-70163">
		<tag k="name" v="Setrabotnen" />
		<tag k="natural" v="valley" />
		<tag k="place" v="locality" />
		<tag k="ssr:date" v="2019-12-27" />
		<tag k="ssr:gruppe" v="senkninger" />
		<tag k="ssr:hovedgruppe" v="terreng" />
		<tag k="ssr:stedsnr" v="540938" />
		<tag k="ssr:type" v="botn" />
	</node>
	<node lat="60.444688885237454" lon="5.789038881687645" id="-70170">
		<tag k="fixme" v="consider natural=peak for the most distinct mountains in the district" />
		<tag k="name" v="Vardane" />
		<tag k="natural" v="hill" />
		<tag k="place" v="locality" />
		<tag k="ssr:date" v="2019-12-27" />
		<tag k="ssr:gruppe" v="høyder" />
		<tag k="ssr:hovedgruppe" v="terreng" />
		<tag k="ssr:stedsnr" v="551042" />
		<tag k="ssr:type" v="ås" />
	</node>
	<node lat="60.41331111523546" lon="5.786866658778812" id="-70172">
		<tag k="name" v="Nygård" />
		<tag k="place" v="farm" />
		<tag k="ssr:date" v="2019-12-27" />
		<tag k="ssr:gruppe" v="gardsbebyggelse" />
		<tag k="ssr:hovedgruppe" v="bebyggelse" />
		<tag k="ssr:stedsnr" v="551100" />
		<tag k="ssr:type" v="bruk" />
	</node>
	<node lat="60.35492232757423" lon="5.696573801017168" id="-70173">
		<tag k="name" v="Kampen" />
		<tag k="place" v="farm" />
		<tag k="ssr:date" v="2019-12-27" />
		<tag k="ssr:gruppe" v="gardsbebyggelse" />
		<tag k="ssr:hovedgruppe" v="bebyggelse" />
		<tag k="ssr:stedsnr" v="551218" />
		<tag k="ssr:type" v="bruk" />
	</node>
	<node lat="60.29295277834529" lon="5.574650005997271" id="-70174">
		<tag k="name" v="Baggeskaret" />
		<tag k="natural" v="valley" />
		<tag k="place" v="locality" />
		<tag k="ssr:date" v="2019-12-27" />
		<tag k="ssr:gruppe" v="senkninger" />
		<tag k="ssr:hovedgruppe" v="terreng" />
		<tag k="ssr:stedsnr" v="551294" />
		<tag k="ssr:type" v="skar" />
	</node>
	<node lat="60.36587499592872" lon="5.667588884047996" id="-70177">
		<tag k="name" v="Lialandet" />
		<tag k="natural" v="ridge" />
		<tag k="place" v="locality" />
		<tag k="ssr:date" v="2019-12-27" />
		<tag k="ssr:gruppe" v="høyder" />
		<tag k="ssr:hovedgruppe" v="terreng" />
		<tag k="ssr:stedsnr" v="692275" />
		<tag k="ssr:type" v="rygg" />
	</node>
	<node lat="60.33634999579561" lon="5.66094166484982" id="-70178">
		<tag k="name" v="Stølen" />
		<tag k="place" v="farm" />
		<tag k="ssr:date" v="2019-12-27" />
		<tag k="ssr:gruppe" v="gardsbebyggelse" />
		<tag k="ssr:hovedgruppe" v="bebyggelse" />
		<tag k="ssr:stedsnr" v="692278" />
		<tag k="ssr:type" v="bruk" />
	</node>
	<node lat="60.399262505517186" lon="5.743675066434506" id="-70190">
		<tag k="alt_name" v="Haukanes" />
		<tag k="layer" v="-1" />
		<tag k="name" v="Haukanestunnelen" />
		<tag k="ssr:date" v="2020-01-10" />
		<tag k="ssr:gruppe" v="samferdselsanlegg" />
		<tag k="ssr:hovedgruppe" v="infrastruktur" />
		<tag k="ssr:stedsnr" v="590477" />
		<tag k="ssr:type" v="tunnel" />
		<tag k="tunnel" v="yes" />
	</node>
	<node lat="60.33176944830349" lon="5.77601389702894" id="-70198">
		<tag k="name" v="Fagerdalen" />
		<tag k="natural" v="valley" />
		<tag k="place" v="locality" />
		<tag k="ssr:date" v="2019-12-27" />
		<tag k="ssr:gruppe" v="senkninger" />
		<tag k="ssr:hovedgruppe" v="terreng" />
		<tag k="ssr:stedsnr" v="601059" />
		<tag k="ssr:type" v="dal" />
	</node>
	<node lat="60.333236112482275" lon="5.683155556663176" id="-70199">
		<tag k="name" v="Hedda" />
		<tag k="natural" v="hill" />
		<tag k="place" v="locality" />
		<tag k="ssr:date" v="2019-12-27" />
		<tag k="ssr:gruppe" v="høyder" />
		<tag k="ssr:hovedgruppe" v="terreng" />
		<tag k="ssr:stedsnr" v="601106" />
		<tag k="ssr:type" v="haug" />
	</node>
	<node lat="60.34940555985737" lon="5.827858339598548" id="-70200">
		<tag k="name" v="Skyttarglikka" />
		<tag k="place" v="locality" />
		<tag k="ssr:date" v="2019-12-27" />
		<tag k="ssr:gruppe" v="terrengdetaljer" />
		<tag k="ssr:hovedgruppe" v="terreng" />
		<tag k="ssr:stedsnr" v="601923" />
		<tag k="ssr:type" v="hylle" />
	</node>
	<node lat="60.36233056002931" lon="5.801436118119592" id="-70202">
		<tag k="name" v="Kollhaugen" />
		<tag k="natural" v="hill" />
		<tag k="place" v="locality" />
		<tag k="ssr:date" v="2019-12-27" />
		<tag k="ssr:gruppe" v="høyder" />
		<tag k="ssr:hovedgruppe" v="terreng" />
		<tag k="ssr:stedsnr" v="604037" />
		<tag k="ssr:type" v="haug" />
	</node>
	<node lat="60.35143888617298" lon="5.798200007936086" id="-70203">
		<tag k="name" v="Setramyrane" />
		<tag k="natural" v="wetland" />
		<tag k="ssr:date" v="2019-12-27" />
		<tag k="ssr:gruppe" v="våtmark" />
		<tag k="ssr:hovedgruppe" v="markslag" />
		<tag k="ssr:stedsnr" v="604040" />
		<tag k="ssr:type" v="myr" />
	</node>
	<node lat="60.360238886922374" lon="5.838480557362077" id="-70208">
		<tag k="fixme" v="consider natural=peak for the most distinct mountains in the district" />
		<tag k="name" v="Storenipen" />
		<tag k="natural" v="hill" />
		<tag k="place" v="locality" />
		<tag k="ssr:date" v="2019-12-27" />
		<tag k="ssr:gruppe" v="høyder" />
		<tag k="ssr:hovedgruppe" v="terreng" />
		<tag k="ssr:stedsnr" v="612206" />
		<tag k="ssr:type" v="ås" />
	</node>
	<node lat="60.351788889805206" lon="5.669780557352057" id="-70209">
		<tag k="name" v="Brattli" />
		<tag k="place" v="locality" />
		<tag k="ssr:date" v="2019-12-27" />
		<tag k="ssr:gruppe" v="gardsbebyggelse" />
		<tag k="ssr:hovedgruppe" v="bebyggelse" />
		<tag k="ssr:stedsnr" v="612215" />
		<tag k="ssr:type" v="byggForJordbrukFiskeOgFangst" />
	</node>
	<node lat="60.34410555817116" lon="5.680727770149759" id="-70211">
		<tag k="alt_name" v="Bjørkelund" />
		<tag k="name" v="Bjørkeland" />
		<tag k="place" v="farm" />
		<tag k="ssr:date" v="2019-12-27" />
		<tag k="ssr:gruppe" v="gardsbebyggelse" />
		<tag k="ssr:hovedgruppe" v="bebyggelse" />
		<tag k="ssr:stedsnr" v="631283" />
		<tag k="ssr:type" v="bruk" />
	</node>
	<node lat="60.36491111416054" lon="5.910783335898531" id="-70223">
		<tag k="name" v="Bjørnahiet" />
		<tag k="natural" v="valley" />
		<tag k="place" v="locality" />
		<tag k="ssr:date" v="2019-12-27" />
		<tag k="ssr:gruppe" v="senkninger" />
		<tag k="ssr:hovedgruppe" v="terreng" />
		<tag k="ssr:stedsnr" v="646977" />
		<tag k="ssr:type" v="dal" />
	</node>
	<node lat="60.500775001839365" lon="5.960580558763183" id="-70224">
		<tag k="fixme" v="consider tourism=alpine_hut or tourism=chalet" />
		<tag k="name" v="Gullhorgabu" />
		<tag k="ssr:date" v="2019-12-27" />
		<tag k="ssr:gruppe" v="næring" />
		<tag k="ssr:hovedgruppe" v="bebyggelse" />
		<tag k="ssr:stedsnr" v="648007" />
		<tag k="ssr:type" v="turisthytte" />
		<tag k="tourism" v="wilderness_hut" />
	</node>
	<node lat="60.3789375137061" lon="5.833900727166808" id="-70225">
		<tag k="alt_name" v="Liaros" />
		<tag k="layer" v="-1" />
		<tag k="name" v="Liarostunnelen" />
		<tag k="ssr:date" v="2020-01-15" />
		<tag k="ssr:gruppe" v="samferdselsanlegg" />
		<tag k="ssr:hovedgruppe" v="infrastruktur" />
		<tag k="ssr:stedsnr" v="650293" />
		<tag k="ssr:type" v="tunnel" />
		<tag k="tunnel" v="yes" />
	</node>
	<node lat="60.36532222497941" lon="5.825294449307531" id="-70226">
		<tag k="name" v="Bølingahaugen" />
		<tag k="natural" v="hill" />
		<tag k="place" v="locality" />
		<tag k="ssr:date" v="2019-12-27" />
		<tag k="ssr:gruppe" v="høyder" />
		<tag k="ssr:hovedgruppe" v="terreng" />
		<tag k="ssr:stedsnr" v="707947" />
		<tag k="ssr:type" v="haug" />
	</node>
	<node lat="60.39811111243917" lon="5.798363894150618" id="-70227">
		<tag k="bridge" v="yes" />
		<tag k="layer" v="1" />
		<tag k="name" v="Langeland" />
		<tag k="ssr:date" v="2019-12-27" />
		<tag k="ssr:gruppe" v="samferdselsanlegg" />
		<tag k="ssr:hovedgruppe" v="infrastruktur" />
		<tag k="ssr:stedsnr" v="654233" />
		<tag k="ssr:type" v="bru" />
	</node>
	<node lat="60.373761109568925" lon="5.753661115361268" id="-70228">
		<tag k="bridge" v="yes" />
		<tag k="layer" v="1" />
		<tag k="name" v="Tysse Ytre" />
		<tag k="ssr:date" v="2019-12-27" />
		<tag k="ssr:gruppe" v="samferdselsanlegg" />
		<tag k="ssr:hovedgruppe" v="infrastruktur" />
		<tag k="ssr:stedsnr" v="654238" />
		<tag k="ssr:type" v="bru" />
	</node>
	<node lat="60.32806389308567" lon="5.698352775919737" id="-70229">
		<tag k="name" v="Stongahjellen" />
		<tag k="place" v="locality" />
		<tag k="ssr:date" v="2019-12-27" />
		<tag k="ssr:gruppe" v="terrengdetaljer" />
		<tag k="ssr:hovedgruppe" v="terreng" />
		<tag k="ssr:stedsnr" v="661011" />
		<tag k="ssr:type" v="hylle" />
	</node>
	<node lat="60.34258055650954" lon="5.675805554248412" id="-70230">
		<tag k="name" v="Rangesvika" />
		<tag k="natural" v="bay" />
		<tag k="ssr:date" v="2019-12-27" />
		<tag k="ssr:gruppe" v="kystkontur" />
		<tag k="ssr:hovedgruppe" v="sjø" />
		<tag k="ssr:stedsnr" v="661099" />
		<tag k="ssr:type" v="vikISjø" />
	</node>
	<node lat="60.33937222438431" lon="5.662116661269902" id="-70231">
		<tag k="name" v="Hunaneset" />
		<tag k="natural" v="cape" />
		<tag k="ssr:date" v="2019-12-27" />
		<tag k="ssr:gruppe" v="kystkontur" />
		<tag k="ssr:hovedgruppe" v="sjø" />
		<tag k="ssr:stedsnr" v="661102" />
		<tag k="ssr:type" v="nesISjø" />
	</node>
	<node lat="60.355066665612036" lon="5.731888881313723" id="-70232">
		<tag k="name" v="Fossabrekka" />
		<tag k="natural" v="slope" />
		<tag k="place" v="locality" />
		<tag k="ssr:date" v="2019-12-27" />
		<tag k="ssr:gruppe" v="skråninger" />
		<tag k="ssr:hovedgruppe" v="terreng" />
		<tag k="ssr:stedsnr" v="665038" />
		<tag k="ssr:type" v="li" />
	</node>
	<node lat="60.41837500450179" lon="5.755075000399404" id="-70240">
		<tag k="historic" v="shieling" />
		<tag k="name" v="Myrland" />
		<tag k="place" v="isolated_dwelling" />
		<tag k="ssr:date" v="2019-12-27" />
		<tag k="ssr:gruppe" v="gardsbebyggelse" />
		<tag k="ssr:hovedgruppe" v="bebyggelse" />
		<tag k="ssr:stedsnr" v="673095" />
		<tag k="ssr:type" v="seterStøl" />
	</node>
	<node lat="60.350433333816895" lon="5.711397230116265" id="-70242">
		<tag k="fixme" v="consider natural=peak for the most distinct mountains in the district" />
		<tag k="name" v="Steinafjellet" />
		<tag k="natural" v="hill" />
		<tag k="place" v="locality" />
		<tag k="ssr:date" v="2019-12-27" />
		<tag k="ssr:gruppe" v="høyder" />
		<tag k="ssr:hovedgruppe" v="terreng" />
		<tag k="ssr:stedsnr" v="673206" />
		<tag k="ssr:type" v="ås" />
	</node>
	<node lat="60.34793333685644" lon="5.595713884135674" id="-70243">
		<tag k="name" v="Brekkehytta" />
		<tag k="place" v="isolated_dwelling" />
		<tag k="ssr:date" v="2019-12-27" />
		<tag k="ssr:gruppe" v="bolighus" />
		<tag k="ssr:hovedgruppe" v="bebyggelse" />
		<tag k="ssr:stedsnr" v="673215" />
		<tag k="ssr:type" v="fritidsbolig" />
	</node>
	<node lat="60.33870832918329" lon="5.665300001736246" id="-70244">
		<tag k="name" v="Yndestad" />
		<tag k="place" v="farm" />
		<tag k="ssr:date" v="2019-12-27" />
		<tag k="ssr:gruppe" v="gardsbebyggelse" />
		<tag k="ssr:hovedgruppe" v="bebyggelse" />
		<tag k="ssr:stedsnr" v="673230" />
		<tag k="ssr:type" v="bruk" />
	</node>
	<node lat="60.36754722401198" lon="5.8244249922379225" id="-70247">
		<tag k="name" v="Haraskori" />
		<tag k="place" v="locality" />
		<tag k="ssr:date" v="2020-02-14" />
		<tag k="ssr:gruppe" v="terrengdetaljer" />
		<tag k="ssr:hovedgruppe" v="terreng" />
		<tag k="ssr:stedsnr" v="890978" />
		<tag k="ssr:type" v="hylle" />
	</node>
	<node lat="60.29801389232625" lon="5.618447226335633" id="-70250">
		<tag k="name" v="Hagen" />
		<tag k="place" v="farm" />
		<tag k="ssr:date" v="2019-12-27" />
		<tag k="ssr:gruppe" v="gardsbebyggelse" />
		<tag k="ssr:hovedgruppe" v="bebyggelse" />
		<tag k="ssr:stedsnr" v="692818" />
		<tag k="ssr:type" v="bruk" />
	</node>
	<node lat="60.3703999977906" lon="5.905711108855928" id="-70263">
		<tag k="name" v="Bjørnagjelet" />
		<tag k="natural" v="valley" />
		<tag k="place" v="locality" />
		<tag k="ssr:date" v="2019-12-27" />
		<tag k="ssr:gruppe" v="senkninger" />
		<tag k="ssr:hovedgruppe" v="terreng" />
		<tag k="ssr:stedsnr" v="707976" />
		<tag k="ssr:type" v="skar" />
	</node>
	<node lat="60.32830277855459" lon="5.67013610642792" id="-70264">
		<tag k="name" v="Olderbakkane" />
		<tag k="natural" v="slope" />
		<tag k="place" v="locality" />
		<tag k="ssr:date" v="2019-12-27" />
		<tag k="ssr:gruppe" v="skråninger" />
		<tag k="ssr:hovedgruppe" v="terreng" />
		<tag k="ssr:stedsnr" v="722117" />
		<tag k="ssr:type" v="li" />
	</node>
	<node lat="60.33896666904316" lon="5.79044167285595" id="-70265">
		<tag k="name" v="Haugssteinen" />
		<tag k="natural" v="hill" />
		<tag k="place" v="locality" />
		<tag k="ssr:date" v="2019-12-27" />
		<tag k="ssr:gruppe" v="høyder" />
		<tag k="ssr:hovedgruppe" v="terreng" />
		<tag k="ssr:stedsnr" v="723923" />
		<tag k="ssr:type" v="høyde" />
	</node>
	<node lat="60.34736111110027" lon="5.795000000050102" id="-70266">
		<tag k="name" v="Trælaflatane" />
		<tag k="place" v="locality" />
		<tag k="ssr:date" v="2019-12-27" />
		<tag k="ssr:gruppe" v="flater" />
		<tag k="ssr:hovedgruppe" v="terreng" />
		<tag k="ssr:stedsnr" v="723924" />
		<tag k="ssr:type" v="slette" />
	</node>
	<node lat="60.39969721927411" lon="5.736744438749447" id="-70271">
		<tag k="name" v="Myrvang" />
		<tag k="place" v="farm" />
		<tag k="ssr:date" v="2019-12-27" />
		<tag k="ssr:gruppe" v="gardsbebyggelse" />
		<tag k="ssr:hovedgruppe" v="bebyggelse" />
		<tag k="ssr:stedsnr" v="752319" />
		<tag k="ssr:type" v="bruk" />
	</node>
	<node lat="60.33742221883908" lon="5.7271250018116" id="-70272">
		<tag k="name" v="Austerdalane" />
		<tag k="natural" v="valley" />
		<tag k="place" v="locality" />
		<tag k="ssr:date" v="2019-12-27" />
		<tag k="ssr:gruppe" v="senkninger" />
		<tag k="ssr:hovedgruppe" v="terreng" />
		<tag k="ssr:stedsnr" v="905029" />
		<tag k="ssr:type" v="dal" />
	</node>
	<node lat="60.352561111369525" lon="5.724633339831082" id="-70279">
		<tag k="name" v="Tøleitet" />
		<tag k="place" v="locality" />
		<tag k="ssr:date" v="2019-12-27" />
		<tag k="ssr:gruppe" v="terrengdetaljer" />
		<tag k="ssr:hovedgruppe" v="terreng" />
		<tag k="ssr:stedsnr" v="908035" />
		<tag k="ssr:type" v="annenTerrengdetalj" />
	</node>
	<node lat="60.35299999800679" lon="5.748899999159227" id="-70280">
		<tag k="name" v="Dyrhaugane" />
		<tag k="natural" v="hill" />
		<tag k="place" v="locality" />
		<tag k="ssr:date" v="2019-12-27" />
		<tag k="ssr:gruppe" v="høyder" />
		<tag k="ssr:hovedgruppe" v="terreng" />
		<tag k="ssr:stedsnr" v="908038" />
		<tag k="ssr:type" v="haug" />
	</node>
	<node lat="60.42473888581594" lon="5.823447219408673" id="-70281">
		<tag k="bridge" v="yes" />
		<tag k="layer" v="1" />
		<tag k="name" v="Fiske" />
		<tag k="ssr:date" v="2019-12-27" />
		<tag k="ssr:gruppe" v="samferdselsanlegg" />
		<tag k="ssr:hovedgruppe" v="infrastruktur" />
		<tag k="ssr:stedsnr" v="775206" />
		<tag k="ssr:type" v="bru" />
	</node>
	<node lat="60.39283611542963" lon="5.7665999917978565" id="-70282">
		<tag k="bridge" v="yes" />
		<tag k="layer" v="1" />
		<tag k="name" v="Nesodden" />
		<tag k="ssr:date" v="2019-12-27" />
		<tag k="ssr:gruppe" v="samferdselsanlegg" />
		<tag k="ssr:hovedgruppe" v="infrastruktur" />
		<tag k="ssr:stedsnr" v="775208" />
		<tag k="ssr:type" v="bru" />
	</node>
	<node lat="60.391833334491054" lon="5.76917221434743" id="-70283">
		<tag k="bridge" v="yes" />
		<tag k="layer" v="1" />
		<tag k="name" v="Hagaåsen" />
		<tag k="ssr:date" v="2019-12-27" />
		<tag k="ssr:gruppe" v="samferdselsanlegg" />
		<tag k="ssr:hovedgruppe" v="infrastruktur" />
		<tag k="ssr:stedsnr" v="775202" />
		<tag k="ssr:type" v="bru" />
	</node>
	<node lat="60.35012222063416" lon="5.804702778353041" id="-70284">
		<tag k="name" v="Setrauri" />
		<tag k="natural" v="scree" />
		<tag k="ssr:date" v="2019-12-27" />
		<tag k="ssr:gruppe" v="løsmasseavsetninger" />
		<tag k="ssr:hovedgruppe" v="markslag" />
		<tag k="ssr:stedsnr" v="783014" />
		<tag k="ssr:type" v="ur" />
	</node>
	<node lat="60.343730559082445" lon="5.787994448074334" id="-70285">
		<tag k="name" v="Spongatjørni" />
		<tag k="natural" v="water" />
		<tag k="ssr:date" v="2019-12-27" />
		<tag k="ssr:gruppe" v="stilleståendeVann" />
		<tag k="ssr:hovedgruppe" v="ferskvann" />
		<tag k="ssr:stedsnr" v="783056" />
		<tag k="ssr:type" v="tjern" />
	</node>
	<node lat="60.361319441020406" lon="5.718711117518099" id="-70286">
		<tag k="name" v="Rabbane" />
		<tag k="natural" v="hill" />
		<tag k="place" v="locality" />
		<tag k="ssr:date" v="2019-12-27" />
		<tag k="ssr:gruppe" v="høyder" />
		<tag k="ssr:hovedgruppe" v="terreng" />
		<tag k="ssr:stedsnr" v="787051" />
		<tag k="ssr:type" v="haug" />
	</node>
	<node lat="60.41060000009818" lon="5.810425006609548" id="-70288">
		<tag k="name" v="Svensdalen" />
		<tag k="natural" v="valley" />
		<tag k="place" v="locality" />
		<tag k="ssr:date" v="2019-12-27" />
		<tag k="ssr:gruppe" v="senkninger" />
		<tag k="ssr:hovedgruppe" v="terreng" />
		<tag k="ssr:stedsnr" v="794096" />
		<tag k="ssr:type" v="dal" />
	</node>
	<node lat="60.345422222825476" lon="5.642052771841277" id="-70289">
		<tag k="name" v="Sagi" />
		<tag k="place" v="farm" />
		<tag k="ssr:date" v="2019-12-27" />
		<tag k="ssr:gruppe" v="gardsbebyggelse" />
		<tag k="ssr:hovedgruppe" v="bebyggelse" />
		<tag k="ssr:stedsnr" v="794204" />
		<tag k="ssr:type" v="bruk" />
	</node>
	<node lat="60.35058571015551" lon="5.816338703605904" id="-70290">
		<tag k="name" v="Kikedalsvatnet" />
		<tag k="natural" v="water" />
		<tag k="ssr:date" v="2019-12-27" />
		<tag k="ssr:gruppe" v="stilleståendeVann" />
		<tag k="ssr:hovedgruppe" v="ferskvann" />
		<tag k="ssr:stedsnr" v="794205" />
		<tag k="ssr:type" v="tjern" />
	</node>
	<node lat="60.403019441769196" lon="5.841997225709259" id="-70291">
		<tag k="name" v="Børdalen" />
		<tag k="natural" v="valley" />
		<tag k="place" v="locality" />
		<tag k="ssr:date" v="2019-12-27" />
		<tag k="ssr:gruppe" v="senkninger" />
		<tag k="ssr:hovedgruppe" v="terreng" />
		<tag k="ssr:stedsnr" v="794115" />
		<tag k="ssr:type" v="dal" />
	</node>
	<node lat="60.35851944593802" lon="5.805149996909841" id="-70294">
		<tag k="name" v="Haugselva" />
		<tag k="ssr:date" v="2019-12-27" />
		<tag k="ssr:gruppe" v="rennendeVann" />
		<tag k="ssr:hovedgruppe" v="ferskvann" />
		<tag k="ssr:stedsnr" v="794175" />
		<tag k="ssr:type" v="bekk" />
		<tag k="waterway" v="stream" />
	</node>
	<node lat="60.45715833246259" lon="5.874836105556179" id="-70302">
		<tag k="name" v="Ytstebekken" />
		<tag k="ssr:date" v="2019-12-27" />
		<tag k="ssr:gruppe" v="rennendeVann" />
		<tag k="ssr:hovedgruppe" v="ferskvann" />
		<tag k="ssr:stedsnr" v="794373" />
		<tag k="ssr:type" v="bekk" />
		<tag k="waterway" v="stream" />
	</node>
	<node lat="60.36877500083589" lon="5.72255832580912" id="-70308">
		<tag k="name" v="Sætreviki" />
		<tag k="place" v="farm" />
		<tag k="ssr:date" v="2019-12-27" />
		<tag k="ssr:gruppe" v="gardsbebyggelse" />
		<tag k="ssr:hovedgruppe" v="bebyggelse" />
		<tag k="ssr:stedsnr" v="915153" />
		<tag k="ssr:type" v="bruk" />
	</node>
	<node lat="60.34547826899404" lon="5.683388548131899" id="-70316">
		<tag k="alt_name" v="Djuvvik" />
		<tag k="fixme" v="consider place=hamlet" />
		<tag k="name" v="Djupviki" />
		<tag k="place" v="farm" />
		<tag k="ssr:date" v="2019-12-27" />
		<tag k="ssr:gruppe" v="gardsbebyggelse" />
		<tag k="ssr:hovedgruppe" v="bebyggelse" />
		<tag k="ssr:stedsnr" v="916232" />
		<tag k="ssr:type" v="gard" />
	</node>
	<node lat="60.50206341047066" lon="5.9606266888382295" id="-70320">
		<tag k="name" v="Nedre Gulltjørna" />
		<tag k="natural" v="water" />
		<tag k="ssr:date" v="2019-12-27" />
		<tag k="ssr:gruppe" v="stilleståendeVann" />
		<tag k="ssr:hovedgruppe" v="ferskvann" />
		<tag k="ssr:stedsnr" v="917976" />
		<tag k="ssr:type" v="tjern" />
	</node>
	<node lat="60.36308610911868" lon="5.856752784243361" id="-70325">
		<tag k="name" v="Moltemyrkultane" />
		<tag k="natural" v="hill" />
		<tag k="place" v="locality" />
		<tag k="ssr:date" v="2019-12-27" />
		<tag k="ssr:gruppe" v="høyder" />
		<tag k="ssr:hovedgruppe" v="terreng" />
		<tag k="ssr:stedsnr" v="829963" />
		<tag k="ssr:type" v="haug" />
	</node>
	<node lat="60.36079444500934" lon="5.881516667383638" id="-70326">
		<tag k="name" v="Plytten" />
		<tag k="natural" v="hill" />
		<tag k="place" v="locality" />
		<tag k="ssr:date" v="2019-12-27" />
		<tag k="ssr:gruppe" v="høyder" />
		<tag k="ssr:hovedgruppe" v="terreng" />
		<tag k="ssr:stedsnr" v="829966" />
		<tag k="ssr:type" v="høyde" />
	</node>
	<node lat="60.3964574916674" lon="5.69240505013991" id="-70327">
		<tag k="alt_name" v="Raunekleiv" />
		<tag k="layer" v="-1" />
		<tag k="name" v="Raunekleivtunnelen" />
		<tag k="ssr:date" v="2020-01-17" />
		<tag k="ssr:gruppe" v="samferdselsanlegg" />
		<tag k="ssr:hovedgruppe" v="infrastruktur" />
		<tag k="ssr:stedsnr" v="833382" />
		<tag k="ssr:type" v="tunnel" />
		<tag k="tunnel" v="yes" />
	</node>
	<node lat="60.44809722379491" lon="5.8622138916541795" id="-70328">
		<tag k="bridge" v="yes" />
		<tag k="layer" v="1" />
		<tag k="name" v="Tverrelva" />
		<tag k="ssr:date" v="2019-12-27" />
		<tag k="ssr:gruppe" v="samferdselsanlegg" />
		<tag k="ssr:hovedgruppe" v="infrastruktur" />
		<tag k="ssr:stedsnr" v="836189" />
		<tag k="ssr:type" v="bru" />
	</node>
	<node lat="60.33066944031471" lon="5.6881611186193215" id="-70329">
		<tag k="bridge" v="yes" />
		<tag k="layer" v="1" />
		<tag k="name" v="Sævild" />
		<tag k="ssr:date" v="2019-12-27" />
		<tag k="ssr:gruppe" v="samferdselsanlegg" />
		<tag k="ssr:hovedgruppe" v="infrastruktur" />
		<tag k="ssr:stedsnr" v="836190" />
		<tag k="ssr:type" v="bru" />
	</node>
	<node lat="60.356380552345236" lon="5.773169438962799" id="-70330">
		<tag k="name" v="Dunsengi" />
		<tag k="place" v="isolated_dwelling" />
		<tag k="ssr:date" v="2019-12-27" />
		<tag k="ssr:gruppe" v="bolighus" />
		<tag k="ssr:hovedgruppe" v="bebyggelse" />
		<tag k="ssr:stedsnr" v="844023" />
		<tag k="ssr:type" v="fritidsbolig" />
	</node>
	<node lat="60.34205278115792" lon="5.689602779110406" id="-70331">
		<tag k="name" v="Borddalstjørna" />
		<tag k="natural" v="water" />
		<tag k="ssr:date" v="2019-12-27" />
		<tag k="ssr:gruppe" v="stilleståendeVann" />
		<tag k="ssr:hovedgruppe" v="ferskvann" />
		<tag k="ssr:stedsnr" v="844086" />
		<tag k="ssr:type" v="tjern" />
	</node>
	<node lat="60.350322217717846" lon="5.724324992384436" id="-70333">
		<tag k="name" v="Utløhaugen" />
		<tag k="natural" v="hill" />
		<tag k="place" v="locality" />
		<tag k="ssr:date" v="2019-12-27" />
		<tag k="ssr:gruppe" v="høyder" />
		<tag k="ssr:hovedgruppe" v="terreng" />
		<tag k="ssr:stedsnr" v="848029" />
		<tag k="ssr:type" v="haug" />
	</node>
	<node lat="60.40007777614661" lon="5.790777774063826" id="-70336">
		<tag k="name" v="Austbø" />
		<tag k="place" v="farm" />
		<tag k="ssr:date" v="2019-12-27" />
		<tag k="ssr:gruppe" v="gardsbebyggelse" />
		<tag k="ssr:hovedgruppe" v="bebyggelse" />
		<tag k="ssr:stedsnr" v="855111" />
		<tag k="ssr:type" v="bruk" />
	</node>
	<node lat="60.3459638852202" lon="5.6910555524923" id="-70338">
		<tag k="alt_name" v="Øvstebø" />
		<tag k="name" v="Øpstebø" />
		<tag k="old_name" v="Øystebø" />
		<tag k="place" v="farm" />
		<tag k="ssr:date" v="2019-12-27" />
		<tag k="ssr:gruppe" v="gardsbebyggelse" />
		<tag k="ssr:hovedgruppe" v="bebyggelse" />
		<tag k="ssr:stedsnr" v="855210" />
		<tag k="ssr:type" v="bruk" />
	</node>
	<node lat="60.36043611187852" lon="5.847302786317129" id="-70352">
		<tag k="name" v="Kvannevikselvi" />
		<tag k="ssr:date" v="2019-12-27" />
		<tag k="ssr:gruppe" v="rennendeVann" />
		<tag k="ssr:hovedgruppe" v="ferskvann" />
		<tag k="ssr:stedsnr" v="890965" />
		<tag k="ssr:type" v="elv" />
		<tag k="waterway" v="river" />
	</node>
	<node lat="60.39266389614431" lon="5.666373242773759" id="-70353">
		<tag k="layer" v="-1" />
		<tag k="name" v="Hisdal" />
		<tag k="ssr:date" v="2020-01-10" />
		<tag k="ssr:gruppe" v="samferdselsanlegg" />
		<tag k="ssr:hovedgruppe" v="infrastruktur" />
		<tag k="ssr:stedsnr" v="894523" />
		<tag k="ssr:type" v="tunnel" />
		<tag k="tunnel" v="yes" />
	</node>
	<node lat="60.367325002309535" lon="5.724288883590541" id="-70354">
		<tag k="bridge" v="yes" />
		<tag k="layer" v="1" />
		<tag k="name" v="Gaupholm" />
		<tag k="ssr:date" v="2019-12-27" />
		<tag k="ssr:gruppe" v="samferdselsanlegg" />
		<tag k="ssr:hovedgruppe" v="infrastruktur" />
		<tag k="ssr:stedsnr" v="897214" />
		<tag k="ssr:type" v="bru" />
	</node>
	<node lat="60.40426110819854" lon="5.726991664351146" id="-70355">
		<tag k="bridge" v="yes" />
		<tag k="layer" v="1" />
		<tag k="name" v="Reistadvika" />
		<tag k="ssr:date" v="2019-12-27" />
		<tag k="ssr:gruppe" v="samferdselsanlegg" />
		<tag k="ssr:hovedgruppe" v="infrastruktur" />
		<tag k="ssr:stedsnr" v="897215" />
		<tag k="ssr:type" v="bru" />
	</node>
	<node lat="60.2964111127795" lon="5.616100005557193" id="-70356">
		<tag k="bridge" v="yes" />
		<tag k="layer" v="1" />
		<tag k="name" v="Solberg" />
		<tag k="ssr:date" v="2019-12-27" />
		<tag k="ssr:gruppe" v="samferdselsanlegg" />
		<tag k="ssr:hovedgruppe" v="infrastruktur" />
		<tag k="ssr:stedsnr" v="897219" />
		<tag k="ssr:type" v="bru" />
	</node>
	<node lat="60.350788891240875" lon="5.769744436330363" id="-70357">
		<tag k="name" v="Bjørkesmettet" />
		<tag k="natural" v="hill" />
		<tag k="place" v="locality" />
		<tag k="ssr:date" v="2019-12-27" />
		<tag k="ssr:gruppe" v="høyder" />
		<tag k="ssr:hovedgruppe" v="terreng" />
		<tag k="ssr:stedsnr" v="905024" />
		<tag k="ssr:type" v="haug" />
	</node>
	<node lat="60.34820832956196" lon="5.806741674545967" id="-70358">
		<tag k="name" v="Kalvabotnen" />
		<tag k="natural" v="valley" />
		<tag k="place" v="locality" />
		<tag k="ssr:date" v="2019-12-27" />
		<tag k="ssr:gruppe" v="senkninger" />
		<tag k="ssr:hovedgruppe" v="terreng" />
		<tag k="ssr:stedsnr" v="905954" />
		<tag k="ssr:type" v="botn" />
	</node>
	<node lat="60.369097222075695" lon="5.740119446992577" id="-70359">
		<tag k="name" v="Kleppsviki" />
		<tag k="natural" v="bay" />
		<tag k="ssr:date" v="2019-12-27" />
		<tag k="ssr:gruppe" v="kystkontur" />
		<tag k="ssr:hovedgruppe" v="sjø" />
		<tag k="ssr:stedsnr" v="908051" />
		<tag k="ssr:type" v="vikISjø" />
	</node>
	<node lat="60.36886666737822" lon="5.717038887773605" id="-70360">
		<tag k="name" v="Ospeviki" />
		<tag k="natural" v="bay" />
		<tag k="ssr:date" v="2019-12-27" />
		<tag k="ssr:gruppe" v="kystkontur" />
		<tag k="ssr:hovedgruppe" v="sjø" />
		<tag k="ssr:stedsnr" v="908053" />
		<tag k="ssr:type" v="vikISjø" />
	</node>
	<node lat="60.35509166464835" lon="5.832938884419383" id="-70361">
		<tag k="name" v="Kikenosbotnen" />
		<tag k="natural" v="valley" />
		<tag k="place" v="locality" />
		<tag k="ssr:date" v="2019-12-27" />
		<tag k="ssr:gruppe" v="senkninger" />
		<tag k="ssr:hovedgruppe" v="terreng" />
		<tag k="ssr:stedsnr" v="915175" />
		<tag k="ssr:type" v="botn" />
	</node>
	<node lat="60.419099999790745" lon="5.724686108282387" id="-70363">
		<tag k="name" v="Bjørnåsen" />
		<tag k="place" v="farm" />
		<tag k="ssr:date" v="2019-12-27" />
		<tag k="ssr:gruppe" v="gardsbebyggelse" />
		<tag k="ssr:hovedgruppe" v="bebyggelse" />
		<tag k="ssr:stedsnr" v="916089" />
		<tag k="ssr:type" v="bruk" />
	</node>
	<node lat="60.33968055155465" lon="5.662991673796747" id="-70371">
		<tag k="name" v="Furnesbukta" />
		<tag k="natural" v="bay" />
		<tag k="ssr:date" v="2019-12-27" />
		<tag k="ssr:gruppe" v="kystkontur" />
		<tag k="ssr:hovedgruppe" v="sjø" />
		<tag k="ssr:stedsnr" v="965110" />
		<tag k="ssr:type" v="vikISjø" />
	</node>
	<node lat="60.345100004377066" lon="5.718288895175905" id="-70372">
		<tag k="name" v="Setrabekken" />
		<tag k="ssr:date" v="2019-12-27" />
		<tag k="ssr:gruppe" v="rennendeVann" />
		<tag k="ssr:hovedgruppe" v="ferskvann" />
		<tag k="ssr:stedsnr" v="965039" />
		<tag k="ssr:type" v="bekk" />
		<tag k="waterway" v="stream" />
	</node>
	<node lat="60.36722942438965" lon="5.724982306769235" id="-70373">
		<tag k="layer" v="-1" />
		<tag k="name" v="Tyssetunellen" />
		<tag k="ssr:date" v="2020-01-23" />
		<tag k="ssr:gruppe" v="samferdselsanlegg" />
		<tag k="ssr:hovedgruppe" v="infrastruktur" />
		<tag k="ssr:stedsnr" v="967037" />
		<tag k="ssr:type" v="tunnel" />
		<tag k="tunnel" v="yes" />
	</node>
	<node lat="60.36830277828268" lon="5.7831111117063" id="-70374">
		<tag k="name" v="Grøna lii" />
		<tag k="natural" v="slope" />
		<tag k="place" v="locality" />
		<tag k="ssr:date" v="2019-12-27" />
		<tag k="ssr:gruppe" v="skråninger" />
		<tag k="ssr:hovedgruppe" v="terreng" />
		<tag k="ssr:stedsnr" v="969043" />
		<tag k="ssr:type" v="li" />
	</node>
	<node lat="60.31581518527046" lon="5.66194856724099" id="-70375">
		<tag k="fixme" v="consider natural=peak for the most distinct mountains in the district" />
		<tag k="name" v="Ervikåsen" />
		<tag k="natural" v="hill" />
		<tag k="place" v="locality" />
		<tag k="ssr:date" v="2019-12-27" />
		<tag k="ssr:gruppe" v="høyder" />
		<tag k="ssr:hovedgruppe" v="terreng" />
		<tag k="ssr:stedsnr" v="976352" />
		<tag k="ssr:type" v="ås" />
	</node>
	<node lat="60.31650854146457" lon="5.665576463922908" id="-70376">
		<tag k="name" v="Hopsliskaret" />
		<tag k="natural" v="valley" />
		<tag k="place" v="locality" />
		<tag k="ssr:date" v="2019-12-27" />
		<tag k="ssr:gruppe" v="senkninger" />
		<tag k="ssr:hovedgruppe" v="terreng" />
		<tag k="ssr:stedsnr" v="976353" />
		<tag k="ssr:type" v="skar" />
	</node>
	<node lat="60.34482222064137" lon="5.839736116681118" id="-70384">
		<tag k="fixme" v="consider natural=peak for the most distinct mountains in the district" />
		<tag k="name" v="Jarlandsfjellet" />
		<tag k="natural" v="hill" />
		<tag k="place" v="locality" />
		<tag k="ssr:date" v="2019-12-27" />
		<tag k="ssr:gruppe" v="høyder" />
		<tag k="ssr:hovedgruppe" v="terreng" />
		<tag k="ssr:stedsnr" v="5227" />
		<tag k="ssr:type" v="fjell" />
	</node>
	<node lat="60.377477781962185" lon="5.809197226458478" id="-70404">
		<tag k="bridge" v="yes" />
		<tag k="layer" v="1" />
		<tag k="name" v="Frøland" />
		<tag k="ssr:date" v="2019-12-27" />
		<tag k="ssr:gruppe" v="samferdselsanlegg" />
		<tag k="ssr:hovedgruppe" v="infrastruktur" />
		<tag k="ssr:stedsnr" v="47232" />
		<tag k="ssr:type" v="bru" />
	</node>
	<node lat="60.384516670311214" lon="5.8055361143283974" id="-70405">
		<tag k="bridge" v="yes" />
		<tag k="layer" v="1" />
		<tag k="name" v="Frølandskanalen" />
		<tag k="ssr:date" v="2019-12-27" />
		<tag k="ssr:gruppe" v="samferdselsanlegg" />
		<tag k="ssr:hovedgruppe" v="infrastruktur" />
		<tag k="ssr:stedsnr" v="47233" />
		<tag k="ssr:type" v="bru" />
	</node>
	<node lat="60.381258332944455" lon="5.860233332839345" id="-70406">
		<tag k="bridge" v="yes" />
		<tag k="layer" v="1" />
		<tag k="name" v="Kuholm" />
		<tag k="ssr:date" v="2019-12-27" />
		<tag k="ssr:gruppe" v="samferdselsanlegg" />
		<tag k="ssr:hovedgruppe" v="infrastruktur" />
		<tag k="ssr:stedsnr" v="47236" />
		<tag k="ssr:type" v="bru" />
	</node>
	<node lat="60.38903611143319" lon="5.666658330869916" id="-70407">
		<tag k="bridge" v="yes" />
		<tag k="layer" v="1" />
		<tag k="name" v="Store" />
		<tag k="ssr:date" v="2019-12-27" />
		<tag k="ssr:gruppe" v="samferdselsanlegg" />
		<tag k="ssr:hovedgruppe" v="infrastruktur" />
		<tag k="ssr:stedsnr" v="47237" />
		<tag k="ssr:type" v="bru" />
	</node>
	<node lat="60.39616944137368" lon="5.763713881868684" id="-70408">
		<tag k="bridge" v="yes" />
		<tag k="layer" v="1" />
		<tag k="name" v="Vika" />
		<tag k="ssr:date" v="2019-12-27" />
		<tag k="ssr:gruppe" v="samferdselsanlegg" />
		<tag k="ssr:hovedgruppe" v="infrastruktur" />
		<tag k="ssr:stedsnr" v="47241" />
		<tag k="ssr:type" v="bru" />
	</node>
	<node lat="60.34424883328478" lon="5.722693596456627" id="-70409">
		<tag k="name" v="Rundehaugtjørni" />
		<tag k="natural" v="water" />
		<tag k="ssr:date" v="2019-12-27" />
		<tag k="ssr:gruppe" v="stilleståendeVann" />
		<tag k="ssr:hovedgruppe" v="ferskvann" />
		<tag k="ssr:stedsnr" v="55026" />
		<tag k="ssr:type" v="tjern" />
	</node>
	<node lat="60.344541663898966" lon="5.7168055522221195" id="-70410">
		<tag k="name" v="Utløhaugane" />
		<tag k="natural" v="hill" />
		<tag k="place" v="locality" />
		<tag k="ssr:date" v="2019-12-27" />
		<tag k="ssr:gruppe" v="høyder" />
		<tag k="ssr:hovedgruppe" v="terreng" />
		<tag k="ssr:stedsnr" v="55037" />
		<tag k="ssr:type" v="haug" />
	</node>
	<node lat="60.331616669773126" lon="5.693122230888603" id="-70411">
		<tag k="name" v="Høgehaugen" />
		<tag k="natural" v="hill" />
		<tag k="place" v="locality" />
		<tag k="ssr:date" v="2019-12-27" />
		<tag k="ssr:gruppe" v="høyder" />
		<tag k="ssr:hovedgruppe" v="terreng" />
		<tag k="ssr:stedsnr" v="55125" />
		<tag k="ssr:type" v="haug" />
	</node>
	<node lat="60.34759999964838" lon="5.6928666702700905" id="-70412">
		<tag k="name" v="Rinden" />
		<tag k="place" v="locality" />
		<tag k="ssr:date" v="2019-12-27" />
		<tag k="ssr:gruppe" v="høyder" />
		<tag k="ssr:hovedgruppe" v="terreng" />
		<tag k="ssr:stedsnr" v="55094" />
		<tag k="ssr:type" v="fjellkant" />
	</node>
	<node lat="60.33096388990461" lon="5.659044438094601" id="-70413">
		<tag k="name" v="Jonadalen" />
		<tag k="natural" v="valley" />
		<tag k="place" v="locality" />
		<tag k="ssr:date" v="2019-12-27" />
		<tag k="ssr:gruppe" v="senkninger" />
		<tag k="ssr:hovedgruppe" v="terreng" />
		<tag k="ssr:stedsnr" v="55100" />
		<tag k="ssr:type" v="dal" />
	</node>
	<node lat="60.36701666356809" lon="5.774680557412812" id="-70414">
		<tag k="name" v="Slåtten" />
		<tag k="natural" v="hill" />
		<tag k="place" v="locality" />
		<tag k="ssr:date" v="2019-12-27" />
		<tag k="ssr:gruppe" v="høyder" />
		<tag k="ssr:hovedgruppe" v="terreng" />
		<tag k="ssr:stedsnr" v="59030" />
		<tag k="ssr:type" v="hei" />
	</node>
	<node lat="60.36766389097887" lon="5.726802781977776" id="-70415">
		<tag k="name" v="Insta Setervikselvi" />
		<tag k="ssr:date" v="2019-12-27" />
		<tag k="ssr:gruppe" v="rennendeVann" />
		<tag k="ssr:hovedgruppe" v="ferskvann" />
		<tag k="ssr:stedsnr" v="59048" />
		<tag k="ssr:type" v="bekk" />
		<tag k="waterway" v="stream" />
	</node>
	<node lat="60.35223055637419" lon="5.731055558397583" id="-70416">
		<tag k="name" v="Fossåsen" />
		<tag k="place" v="farm" />
		<tag k="ssr:date" v="2019-12-27" />
		<tag k="ssr:gruppe" v="gardsbebyggelse" />
		<tag k="ssr:hovedgruppe" v="bebyggelse" />
		<tag k="ssr:stedsnr" v="66184" />
		<tag k="ssr:type" v="bruk" />
	</node>
	<node lat="60.4005944464341" lon="5.754208340109527" id="-70419">
		<tag k="alt_name" v="Aldal" />
		<tag k="name" v="Alldalen" />
		<tag k="place" v="farm" />
		<tag k="ssr:date" v="2019-12-27" />
		<tag k="ssr:gruppe" v="gardsbebyggelse" />
		<tag k="ssr:hovedgruppe" v="bebyggelse" />
		<tag k="ssr:stedsnr" v="66114" />
		<tag k="ssr:type" v="bruk" />
	</node>
	<node lat="60.383083336303166" lon="5.658905557919188" id="-70422">
		<tag k="name" v="Krossaleitet" />
		<tag k="place" v="farm" />
		<tag k="ssr:date" v="2019-12-27" />
		<tag k="ssr:gruppe" v="gardsbebyggelse" />
		<tag k="ssr:hovedgruppe" v="bebyggelse" />
		<tag k="ssr:stedsnr" v="66135" />
		<tag k="ssr:type" v="bruk" />
	</node>
	<node lat="60.35900833791902" lon="5.885041674533998" id="-70440">
		<tag k="name" v="Helvetesbotnen" />
		<tag k="natural" v="valley" />
		<tag k="place" v="locality" />
		<tag k="ssr:date" v="2019-12-27" />
		<tag k="ssr:gruppe" v="senkninger" />
		<tag k="ssr:hovedgruppe" v="terreng" />
		<tag k="ssr:stedsnr" v="101964" />
		<tag k="ssr:type" v="botn" />
	</node>
	<node lat="60.431344448314285" lon="5.941599990588081" id="-70441">
		<tag k="name" v="Hardingaskaret" />
		<tag k="natural" v="hill" />
		<tag k="place" v="locality" />
		<tag k="ssr:date" v="2019-12-27" />
		<tag k="ssr:gruppe" v="høyder" />
		<tag k="ssr:hovedgruppe" v="terreng" />
		<tag k="ssr:stedsnr" v="105826" />
		<tag k="ssr:type" v="haug" />
	</node>
	<node lat="60.3339638845098" lon="5.626724995247965" id="-70442">
		<tag k="bridge" v="yes" />
		<tag k="layer" v="1" />
		<tag k="name" v="Våge" />
		<tag k="ssr:date" v="2019-12-27" />
		<tag k="ssr:gruppe" v="samferdselsanlegg" />
		<tag k="ssr:hovedgruppe" v="infrastruktur" />
		<tag k="ssr:stedsnr" v="108235" />
		<tag k="ssr:type" v="bru" />
	</node>
	<node lat="60.33405833393195" lon="5.702213886563529" id="-70443">
		<tag k="name" v="Skonholtet" />
		<tag k="place" v="locality" />
		<tag k="ssr:date" v="2019-12-27" />
		<tag k="ssr:gruppe" v="vegetasjon" />
		<tag k="ssr:hovedgruppe" v="markslag" />
		<tag k="ssr:stedsnr" v="116015" />
		<tag k="ssr:type" v="skogholt" />
	</node>
	<node lat="60.32352778022545" lon="5.770774994416452" id="-70444">
		<tag k="name" v="Skodvasshaugen" />
		<tag k="natural" v="hill" />
		<tag k="place" v="locality" />
		<tag k="ssr:date" v="2019-12-27" />
		<tag k="ssr:gruppe" v="høyder" />
		<tag k="ssr:hovedgruppe" v="terreng" />
		<tag k="ssr:stedsnr" v="116080" />
		<tag k="ssr:type" v="haug" />
	</node>
	<node lat="60.32788055304948" lon="5.719244441422927" id="-70445">
		<tag k="name" v="Seterdalen" />
		<tag k="natural" v="valley" />
		<tag k="place" v="locality" />
		<tag k="ssr:date" v="2019-12-27" />
		<tag k="ssr:gruppe" v="senkninger" />
		<tag k="ssr:hovedgruppe" v="terreng" />
		<tag k="ssr:stedsnr" v="116042" />
		<tag k="ssr:type" v="dal" />
	</node>
	<node lat="60.35332499769214" lon="5.819044435890306" id="-70446">
		<tag k="name" v="Myrane" />
		<tag k="natural" v="wetland" />
		<tag k="ssr:date" v="2019-12-27" />
		<tag k="ssr:gruppe" v="våtmark" />
		<tag k="ssr:hovedgruppe" v="markslag" />
		<tag k="ssr:stedsnr" v="119042" />
		<tag k="ssr:type" v="myr" />
	</node>
	<node lat="60.35726389192481" lon="5.814188888769033" id="-70447">
		<tag k="name" v="Kikedalselvi" />
		<tag k="ssr:date" v="2019-12-27" />
		<tag k="ssr:gruppe" v="rennendeVann" />
		<tag k="ssr:hovedgruppe" v="ferskvann" />
		<tag k="ssr:stedsnr" v="119043" />
		<tag k="ssr:type" v="elv" />
		<tag k="waterway" v="river" />
	</node>
	<node lat="60.29404994340139" lon="5.583551928486313" id="-70448">
		<tag k="name" v="Sætertjørna" />
		<tag k="natural" v="water" />
		<tag k="ssr:date" v="2019-12-27" />
		<tag k="ssr:gruppe" v="stilleståendeVann" />
		<tag k="ssr:hovedgruppe" v="ferskvann" />
		<tag k="ssr:stedsnr" v="126254" />
		<tag k="ssr:type" v="tjern" />
	</node>
	<node lat="60.51057222394699" lon="5.995708328765028" id="-70458">
		<tag k="name" v="Storlii" />
		<tag k="natural" v="slope" />
		<tag k="place" v="locality" />
		<tag k="ssr:date" v="2019-12-27" />
		<tag k="ssr:gruppe" v="skråninger" />
		<tag k="ssr:hovedgruppe" v="terreng" />
		<tag k="ssr:stedsnr" v="127368" />
		<tag k="ssr:type" v="li" />
	</node>
	<node lat="60.330143749539104" lon="5.693654905668427" id="-70461">
		<tag k="fixme" v="consider place=hamlet" />
		<tag k="name" v="Sævell" />
		<tag k="place" v="farm" />
		<tag k="ssr:date" v="2019-12-27" />
		<tag k="ssr:gruppe" v="gardsbebyggelse" />
		<tag k="ssr:hovedgruppe" v="bebyggelse" />
		<tag k="ssr:stedsnr" v="145481" />
		<tag k="ssr:type" v="gard" />
	</node>
	<node lat="60.362411114362075" lon="5.85253611885892" id="-70472">
		<tag k="name" v="Moltemyri" />
		<tag k="natural" v="wetland" />
		<tag k="ssr:date" v="2019-12-27" />
		<tag k="ssr:gruppe" v="våtmark" />
		<tag k="ssr:hovedgruppe" v="markslag" />
		<tag k="ssr:stedsnr" v="161945" />
		<tag k="ssr:type" v="myr" />
	</node>
	<node lat="60.38209119907094" lon="5.879398136887655" id="-70473">
		<tag k="layer" v="-1" />
		<tag k="name" v="Fossenbratte" />
		<tag k="ssr:date" v="2020-01-08" />
		<tag k="ssr:gruppe" v="samferdselsanlegg" />
		<tag k="ssr:hovedgruppe" v="infrastruktur" />
		<tag k="ssr:stedsnr" v="165448" />
		<tag k="ssr:type" v="tunnel" />
		<tag k="tunnel" v="yes" />
	</node>
	<node lat="60.4505638854175" lon="5.873205560389046" id="-70474">
		<tag k="bridge" v="yes" />
		<tag k="layer" v="1" />
		<tag k="name" v="Kleivane" />
		<tag k="ssr:date" v="2019-12-27" />
		<tag k="ssr:gruppe" v="samferdselsanlegg" />
		<tag k="ssr:hovedgruppe" v="infrastruktur" />
		<tag k="ssr:stedsnr" v="168225" />
		<tag k="ssr:type" v="bru" />
	</node>
	<node lat="60.34748610726008" lon="5.710580557450989" id="-70475">
		<tag k="name" v="Gamlasetertjørni" />
		<tag k="natural" v="water" />
		<tag k="ssr:date" v="2019-12-27" />
		<tag k="ssr:gruppe" v="stilleståendeVann" />
		<tag k="ssr:hovedgruppe" v="ferskvann" />
		<tag k="ssr:stedsnr" v="176027" />
		<tag k="ssr:type" v="tjern" />
	</node>
	<node lat="60.34255278054971" lon="5.717450008257201" id="-70476">
		<tag k="name" v="Geitaliholmen" />
		<tag k="place" v="islet" />
		<tag k="ssr:date" v="2019-12-27" />
		<tag k="ssr:gruppe" v="ferskvannskontur" />
		<tag k="ssr:hovedgruppe" v="ferskvann" />
		<tag k="ssr:stedsnr" v="176029" />
		<tag k="ssr:type" v="holme" />
	</node>
	<node lat="60.34209721947001" lon="5.7195861071570455" id="-70477">
		<tag k="name" v="Geitalia" />
		<tag k="natural" v="slope" />
		<tag k="place" v="locality" />
		<tag k="ssr:date" v="2019-12-27" />
		<tag k="ssr:gruppe" v="skråninger" />
		<tag k="ssr:hovedgruppe" v="terreng" />
		<tag k="ssr:stedsnr" v="176031" />
		<tag k="ssr:type" v="li" />
	</node>
	<node lat="60.34038333410013" lon="5.710247220149852" id="-70478">
		<tag k="name" v="Kvalen" />
		<tag k="place" v="islet" />
		<tag k="ssr:date" v="2019-12-27" />
		<tag k="ssr:gruppe" v="ferskvannskontur" />
		<tag k="ssr:hovedgruppe" v="ferskvann" />
		<tag k="ssr:stedsnr" v="176033" />
		<tag k="ssr:type" v="holme" />
	</node>
	<node lat="60.33254722074108" lon="5.668380557590208" id="-70479">
		<tag k="name" v="Lyningshaugen" />
		<tag k="natural" v="hill" />
		<tag k="place" v="locality" />
		<tag k="ssr:date" v="2019-12-27" />
		<tag k="ssr:gruppe" v="høyder" />
		<tag k="ssr:hovedgruppe" v="terreng" />
		<tag k="ssr:stedsnr" v="176119" />
		<tag k="ssr:type" v="haug" />
	</node>
	<node lat="60.34462222444956" lon="5.701780548568496" id="-70480">
		<tag k="name" v="Høgaløypet" />
		<tag k="natural" v="valley" />
		<tag k="place" v="locality" />
		<tag k="ssr:date" v="2019-12-27" />
		<tag k="ssr:gruppe" v="senkninger" />
		<tag k="ssr:hovedgruppe" v="terreng" />
		<tag k="ssr:stedsnr" v="176099" />
		<tag k="ssr:type" v="dal" />
	</node>
	<node lat="60.3365666695943" lon="5.682563893557956" id="-70481">
		<tag k="name" v="Tjørndalen" />
		<tag k="natural" v="valley" />
		<tag k="place" v="locality" />
		<tag k="ssr:date" v="2019-12-27" />
		<tag k="ssr:gruppe" v="senkninger" />
		<tag k="ssr:hovedgruppe" v="terreng" />
		<tag k="ssr:stedsnr" v="176138" />
		<tag k="ssr:type" v="dal" />
	</node>
	<node lat="60.353669440325866" lon="5.74314445172251" id="-70482">
		<tag k="name" v="Dyråsgjelet" />
		<tag k="natural" v="valley" />
		<tag k="place" v="locality" />
		<tag k="ssr:date" v="2019-12-27" />
		<tag k="ssr:gruppe" v="senkninger" />
		<tag k="ssr:hovedgruppe" v="terreng" />
		<tag k="ssr:stedsnr" v="180022" />
		<tag k="ssr:type" v="søkk" />
	</node>
	<node lat="60.36859166483736" lon="5.80203054776007" id="-70483">
		<tag k="name" v="Storemyrhaugen" />
		<tag k="natural" v="hill" />
		<tag k="place" v="locality" />
		<tag k="ssr:date" v="2019-12-27" />
		<tag k="ssr:gruppe" v="høyder" />
		<tag k="ssr:hovedgruppe" v="terreng" />
		<tag k="ssr:stedsnr" v="180033" />
		<tag k="ssr:type" v="haug" />
	</node>
	<node lat="60.36203333143463" lon="5.745605550008927" id="-70484">
		<tag k="name" v="Løypehaugen" />
		<tag k="natural" v="hill" />
		<tag k="place" v="locality" />
		<tag k="ssr:date" v="2019-12-27" />
		<tag k="ssr:gruppe" v="høyder" />
		<tag k="ssr:hovedgruppe" v="terreng" />
		<tag k="ssr:stedsnr" v="180049" />
		<tag k="ssr:type" v="haug" />
	</node>
	<node lat="60.45793863027363" lon="5.807583712023852" id="-70486">
		<tag k="name" v="Rossatjørna" />
		<tag k="natural" v="water" />
		<tag k="ssr:date" v="2019-12-27" />
		<tag k="ssr:gruppe" v="stilleståendeVann" />
		<tag k="ssr:hovedgruppe" v="ferskvann" />
		<tag k="ssr:stedsnr" v="187018" />
		<tag k="ssr:type" v="tjern" />
	</node>
	<node lat="60.38523889292388" lon="5.79065833235191" id="-70487">
		<tag k="name" v="Snauhaugen" />
		<tag k="natural" v="hill" />
		<tag k="place" v="locality" />
		<tag k="ssr:date" v="2019-12-27" />
		<tag k="ssr:gruppe" v="høyder" />
		<tag k="ssr:hovedgruppe" v="terreng" />
		<tag k="ssr:stedsnr" v="187147" />
		<tag k="ssr:type" v="haug" />
	</node>
	<node lat="60.36341388880206" lon="5.812611114266919" id="-70492">
		<tag k="name" v="Holmane" />
		<tag k="place" v="farm" />
		<tag k="ssr:date" v="2019-12-27" />
		<tag k="ssr:gruppe" v="gardsbebyggelse" />
		<tag k="ssr:hovedgruppe" v="bebyggelse" />
		<tag k="ssr:stedsnr" v="187182" />
		<tag k="ssr:type" v="bruk" />
	</node>
	<node lat="60.33902777861127" lon="5.801566673263236" id="-70493">
		<tag k="alt_name" v="Tindafjell" />
		<tag k="fixme" v="consider natural=peak for the most distinct mountains in the district" />
		<tag k="name" v="Tindafjellet" />
		<tag k="natural" v="hill" />
		<tag k="place" v="locality" />
		<tag k="ssr:date" v="2019-12-27" />
		<tag k="ssr:gruppe" v="høyder" />
		<tag k="ssr:hovedgruppe" v="terreng" />
		<tag k="ssr:stedsnr" v="187219" />
		<tag k="ssr:type" v="ås" />
	</node>
	<node lat="60.29808238617633" lon="5.583770742115354" id="-70494">
		<tag k="name" v="Botnavatnet" />
		<tag k="natural" v="water" />
		<tag k="ssr:date" v="2019-12-27" />
		<tag k="ssr:gruppe" v="stilleståendeVann" />
		<tag k="ssr:hovedgruppe" v="ferskvann" />
		<tag k="ssr:stedsnr" v="187271" />
		<tag k="ssr:type" v="tjern" />
	</node>
	<node lat="60.33843611204164" lon="5.903788897013957" id="-70499">
		<tag k="name" v="Danielsslåtten" />
		<tag k="place" v="locality" />
		<tag k="ssr:date" v="2019-12-27" />
		<tag k="ssr:gruppe" v="flater" />
		<tag k="ssr:hovedgruppe" v="terreng" />
		<tag k="ssr:stedsnr" v="187548" />
		<tag k="ssr:type" v="slette" />
	</node>
	<node lat="60.36328888826265" lon="5.82141111595892" id="-70517">
		<tag k="name" v="Tverrelvi" />
		<tag k="ssr:date" v="2019-12-27" />
		<tag k="ssr:gruppe" v="rennendeVann" />
		<tag k="ssr:hovedgruppe" v="ferskvann" />
		<tag k="ssr:stedsnr" v="222948" />
		<tag k="ssr:type" v="bekk" />
		<tag k="waterway" v="stream" />
	</node>
	<node lat="60.36290833151003" lon="5.842002784216858" id="-70518">
		<tag k="name" v="Krærna" />
		<tag k="natural" v="valley" />
		<tag k="place" v="locality" />
		<tag k="ssr:date" v="2019-12-27" />
		<tag k="ssr:gruppe" v="senkninger" />
		<tag k="ssr:hovedgruppe" v="terreng" />
		<tag k="ssr:stedsnr" v="222949" />
		<tag k="ssr:type" v="dal" />
	</node>
	<node lat="60.35651666810709" lon="5.884972219588471" id="-70519">
		<tag k="name" v="Alsheller" />
		<tag k="place" v="locality" />
		<tag k="ssr:date" v="2019-12-27" />
		<tag k="ssr:gruppe" v="terrengdetaljer" />
		<tag k="ssr:hovedgruppe" v="terreng" />
		<tag k="ssr:stedsnr" v="222953" />
		<tag k="ssr:type" v="heller" />
	</node>
	<node lat="60.392517322677605" lon="5.660926481993326" id="-70520">
		<tag k="layer" v="-1" />
		<tag k="name" v="Grasdal" />
		<tag k="ssr:date" v="2020-01-09" />
		<tag k="ssr:gruppe" v="samferdselsanlegg" />
		<tag k="ssr:hovedgruppe" v="infrastruktur" />
		<tag k="ssr:stedsnr" v="226493" />
		<tag k="ssr:type" v="tunnel" />
		<tag k="tunnel" v="yes" />
	</node>
	<node lat="60.35354791367016" lon="5.740033189641742" id="-70525">
		<tag k="name" v="Kollstegtjørna" />
		<tag k="natural" v="water" />
		<tag k="ssr:date" v="2019-12-27" />
		<tag k="ssr:gruppe" v="stilleståendeVann" />
		<tag k="ssr:hovedgruppe" v="ferskvann" />
		<tag k="ssr:stedsnr" v="280673" />
		<tag k="ssr:type" v="tjern" />
	</node>
	<node lat="60.332149999148506" lon="5.724258341283549" id="-70527">
		<tag k="historic" v="shieling" />
		<tag k="name" v="Brunestølen" />
		<tag k="place" v="locality" />
		<tag k="ssr:date" v="2019-12-27" />
		<tag k="ssr:gruppe" v="dyrkamark" />
		<tag k="ssr:hovedgruppe" v="markslag" />
		<tag k="ssr:stedsnr" v="298001" />
		<tag k="ssr:type" v="setervoll" />
	</node>
	<node lat="60.34855833327263" lon="5.66257500839672" id="-70528">
		<tag k="name" v="Skipet" />
		<tag k="natural" v="hill" />
		<tag k="place" v="locality" />
		<tag k="ssr:date" v="2019-12-27" />
		<tag k="ssr:gruppe" v="høyder" />
		<tag k="ssr:hovedgruppe" v="terreng" />
		<tag k="ssr:stedsnr" v="298097" />
		<tag k="ssr:type" v="høyde" />
	</node>
	<node lat="60.34209166925659" lon="5.774486110425269" id="-70529">
		<tag k="name" v="Grønabrekka" />
		<tag k="natural" v="slope" />
		<tag k="place" v="locality" />
		<tag k="ssr:date" v="2019-12-27" />
		<tag k="ssr:gruppe" v="skråninger" />
		<tag k="ssr:hovedgruppe" v="terreng" />
		<tag k="ssr:stedsnr" v="298066" />
		<tag k="ssr:type" v="li" />
	</node>
	<node lat="60.363755272713696" lon="5.782434400223799" id="-70530">
		<tag k="name" v="Stemmetjørnane" />
		<tag k="natural" v="water" />
		<tag k="ssr:date" v="2019-12-27" />
		<tag k="ssr:gruppe" v="stilleståendeVann" />
		<tag k="ssr:hovedgruppe" v="ferskvann" />
		<tag k="ssr:stedsnr" v="301031" />
		<tag k="ssr:type" v="gruppeAvTjern" />
		<tag k="water" v="lake" />
	</node>
	<node lat="60.35386388738262" lon="5.758013880149343" id="-70531">
		<tag k="name" v="Nedre Skaråsdalen" />
		<tag k="natural" v="valley" />
		<tag k="place" v="locality" />
		<tag k="ssr:date" v="2019-12-27" />
		<tag k="ssr:gruppe" v="senkninger" />
		<tag k="ssr:hovedgruppe" v="terreng" />
		<tag k="ssr:stedsnr" v="301049" />
		<tag k="ssr:type" v="dal" />
	</node>
	<node lat="60.39895278139722" lon="5.844205547039416" id="-70536">
		<tag k="name" v="Kråni" />
		<tag k="place" v="farm" />
		<tag k="ssr:date" v="2019-12-27" />
		<tag k="ssr:gruppe" v="gardsbebyggelse" />
		<tag k="ssr:hovedgruppe" v="bebyggelse" />
		<tag k="ssr:stedsnr" v="308443" />
		<tag k="ssr:type" v="bruk" />
	</node>
	<node lat="60.40427500022659" lon="5.78933889585607" id="-70542">
		<tag k="name" v="Tveit" />
		<tag k="place" v="farm" />
		<tag k="ssr:date" v="2019-12-27" />
		<tag k="ssr:gruppe" v="gardsbebyggelse" />
		<tag k="ssr:hovedgruppe" v="bebyggelse" />
		<tag k="ssr:stedsnr" v="309117" />
		<tag k="ssr:type" v="bruk" />
	</node>
	<node lat="60.38323631201173" lon="5.767009304423352" id="-70545">
		<tag k="alt_name" v="Haga;Ytra Haga" />
		<tag k="name" v="Ytre Haga" />
		<tag k="place" v="farm" />
		<tag k="ssr:date" v="2019-12-27" />
		<tag k="ssr:gruppe" v="gardsbebyggelse" />
		<tag k="ssr:hovedgruppe" v="bebyggelse" />
		<tag k="ssr:stedsnr" v="309170" />
		<tag k="ssr:type" v="bruk" />
	</node>
	<node lat="60.3299027823428" lon="5.7868555603765195" id="-70563">
		<tag k="name" v="Østerdalseggena" />
		<tag k="natural" v="ridge" />
		<tag k="place" v="locality" />
		<tag k="ssr:date" v="2019-12-27" />
		<tag k="ssr:gruppe" v="høyder" />
		<tag k="ssr:hovedgruppe" v="terreng" />
		<tag k="ssr:stedsnr" v="358076" />
		<tag k="ssr:type" v="rygg" />
	</node>
	<node lat="60.345480558903276" lon="5.664177779482125" id="-70564">
		<tag k="name" v="Raudaneset" />
		<tag k="natural" v="cape" />
		<tag k="ssr:date" v="2019-12-27" />
		<tag k="ssr:gruppe" v="kystkontur" />
		<tag k="ssr:hovedgruppe" v="sjø" />
		<tag k="ssr:stedsnr" v="358093" />
		<tag k="ssr:type" v="nesISjø" />
	</node>
	<node lat="60.369661107632766" lon="5.736305561175688" id="-70565">
		<tag k="name" v="Barmaneset" />
		<tag k="natural" v="cape" />
		<tag k="ssr:date" v="2019-12-27" />
		<tag k="ssr:gruppe" v="kystkontur" />
		<tag k="ssr:hovedgruppe" v="sjø" />
		<tag k="ssr:stedsnr" v="362050" />
		<tag k="ssr:type" v="nesISjø" />
	</node>
	<node lat="60.37403055930262" lon="5.759527772085704" id="-70571">
		<tag k="name" v="Tysse" />
		<tag k="place" v="village" />
		<tag k="ssr:date" v="2019-12-27" />
		<tag k="ssr:gruppe" v="bebyggelsesområder" />
		<tag k="ssr:hovedgruppe" v="bebyggelse" />
		<tag k="ssr:stedsnr" v="369145" />
		<tag k="ssr:type" v="tettsted" />
	</node>
	<node lat="60.359880556942215" lon="5.689844443042525" id="-70574">
		<tag k="name" v="Solbakken" />
		<tag k="place" v="farm" />
		<tag k="ssr:date" v="2019-12-27" />
		<tag k="ssr:gruppe" v="gardsbebyggelse" />
		<tag k="ssr:hovedgruppe" v="bebyggelse" />
		<tag k="ssr:stedsnr" v="388269" />
		<tag k="ssr:type" v="bruk" />
	</node>
	<node lat="60.369216669162896" lon="5.729222226137831" id="-70575">
		<tag k="name" v="Nymark" />
		<tag k="place" v="farm" />
		<tag k="ssr:date" v="2019-12-27" />
		<tag k="ssr:gruppe" v="gardsbebyggelse" />
		<tag k="ssr:hovedgruppe" v="bebyggelse" />
		<tag k="ssr:stedsnr" v="388275" />
		<tag k="ssr:type" v="bruk" />
	</node>
	<node lat="60.34055555990021" lon="5.670283328977083" id="-70576">
		<tag k="alt_name" v="Fagerlia" />
		<tag k="name" v="Fagerli" />
		<tag k="place" v="farm" />
		<tag k="ssr:date" v="2019-12-27" />
		<tag k="ssr:gruppe" v="gardsbebyggelse" />
		<tag k="ssr:hovedgruppe" v="bebyggelse" />
		<tag k="ssr:stedsnr" v="388277" />
		<tag k="ssr:type" v="bruk" />
	</node>
	<node lat="60.330986109687004" lon="5.629044439909911" id="-70577">
		<tag k="name" v="Lensmannsflua" />
		<tag k="natural" v="shoal" />
		<tag k="place" v="locality" />
		<tag k="ssr:date" v="2019-12-27" />
		<tag k="ssr:gruppe" v="grunnerISjø" />
		<tag k="ssr:hovedgruppe" v="sjø" />
		<tag k="ssr:stedsnr" v="388149" />
		<tag k="ssr:type" v="grunneISjø" />
	</node>
	<node lat="60.362038888604374" lon="5.850122219121743" id="-70589">
		<tag k="name" v="Moltemyrnakken" />
		<tag k="place" v="locality" />
		<tag k="ssr:date" v="2019-12-27" />
		<tag k="ssr:gruppe" v="høyder" />
		<tag k="ssr:hovedgruppe" v="terreng" />
		<tag k="ssr:stedsnr" v="404957" />
		<tag k="ssr:type" v="fjellkant" />
	</node>
	<node lat="60.3400583341018" lon="5.778369441913711" id="-70590">
		<tag k="name" v="Klypehaugen" />
		<tag k="natural" v="hill" />
		<tag k="place" v="locality" />
		<tag k="ssr:date" v="2019-12-27" />
		<tag k="ssr:gruppe" v="høyder" />
		<tag k="ssr:hovedgruppe" v="terreng" />
		<tag k="ssr:stedsnr" v="419082" />
		<tag k="ssr:type" v="haug" />
	</node>
	<node lat="60.331244447159726" lon="5.702163889398761" id="-70591">
		<tag k="name" v="Lømønet" />
		<tag k="place" v="locality" />
		<tag k="ssr:date" v="2019-12-27" />
		<tag k="ssr:gruppe" v="høyder" />
		<tag k="ssr:hovedgruppe" v="terreng" />
		<tag k="ssr:stedsnr" v="419016" />
		<tag k="ssr:type" v="fjellkant" />
	</node>
	<node lat="60.341049997640276" lon="5.723058328041759" id="-70592">
		<tag k="name" v="Geitalibekken" />
		<tag k="ssr:date" v="2019-12-27" />
		<tag k="ssr:gruppe" v="rennendeVann" />
		<tag k="ssr:hovedgruppe" v="ferskvann" />
		<tag k="ssr:stedsnr" v="419030" />
		<tag k="ssr:type" v="bekk" />
		<tag k="waterway" v="stream" />
	</node>
	<node lat="60.3509305596083" lon="5.753686106684872" id="-70593">
		<tag k="name" v="Steinstølen" />
		<tag k="place" v="locality" />
		<tag k="ssr:date" v="2019-12-27" />
		<tag k="ssr:gruppe" v="bebyggelsesområder" />
		<tag k="ssr:hovedgruppe" v="bebyggelse" />
		<tag k="ssr:stedsnr" v="423032" />
		<tag k="ssr:type" v="historiskBosetting" />
	</node>
	<node lat="60.36132499981269" lon="5.771374998658032" id="-70594">
		<tag k="name" v="Høgehaugen" />
		<tag k="natural" v="hill" />
		<tag k="place" v="locality" />
		<tag k="ssr:date" v="2019-12-27" />
		<tag k="ssr:gruppe" v="høyder" />
		<tag k="ssr:hovedgruppe" v="terreng" />
		<tag k="ssr:stedsnr" v="423039" />
		<tag k="ssr:type" v="haug" />
	</node>
	<node lat="60.36629166407944" lon="5.731594449773947" id="-70595">
		<tag k="name" v="Porsmyra" />
		<tag k="natural" v="wetland" />
		<tag k="ssr:date" v="2019-12-27" />
		<tag k="ssr:gruppe" v="våtmark" />
		<tag k="ssr:hovedgruppe" v="markslag" />
		<tag k="ssr:stedsnr" v="423062" />
		<tag k="ssr:type" v="myr" />
	</node>
	<node lat="60.29744166668431" lon="5.574208330018846" id="-70597">
		<tag k="fixme" v="consider natural=peak for the most distinct mountains in the district" />
		<tag k="name" v="Selsfjellet" />
		<tag k="natural" v="hill" />
		<tag k="place" v="locality" />
		<tag k="ssr:date" v="2019-12-27" />
		<tag k="ssr:gruppe" v="høyder" />
		<tag k="ssr:hovedgruppe" v="terreng" />
		<tag k="ssr:stedsnr" v="430276" />
		<tag k="ssr:type" v="ås" />
	</node>
	<node lat="60.38097777675706" lon="5.762344444114172" id="-70605">
		<tag k="name" v="Hagamulen" />
		<tag k="natural" v="cape" />
		<tag k="ssr:date" v="2019-12-27" />
		<tag k="ssr:gruppe" v="kystkontur" />
		<tag k="ssr:hovedgruppe" v="sjø" />
		<tag k="ssr:stedsnr" v="510283" />
		<tag k="ssr:type" v="nesISjø" />
	</node>
	<node lat="60.39633333310033" lon="5.768988892069015" id="-70606">
		<tag k="fixme" v="consider place=hamlet" />
		<tag k="name" v="Gjerde" />
		<tag k="place" v="farm" />
		<tag k="ssr:date" v="2019-12-27" />
		<tag k="ssr:gruppe" v="gardsbebyggelse" />
		<tag k="ssr:hovedgruppe" v="bebyggelse" />
		<tag k="ssr:stedsnr" v="510347" />
		<tag k="ssr:type" v="gard" />
	</node>
	<node lat="60.36668888969115" lon="5.849836102925729" id="-70621">
		<tag k="name" v="Vardenovi" />
		<tag k="natural" v="hill" />
		<tag k="place" v="locality" />
		<tag k="ssr:date" v="2019-12-27" />
		<tag k="ssr:gruppe" v="høyder" />
		<tag k="ssr:hovedgruppe" v="terreng" />
		<tag k="ssr:stedsnr" v="525943" />
		<tag k="ssr:type" v="haug" />
	</node>
	<node lat="60.36615555215718" lon="5.898311111067886" id="-70622">
		<tag k="name" v="Ingebriktstegen" />
		<tag k="place" v="locality" />
		<tag k="ssr:date" v="2019-12-27" />
		<tag k="ssr:gruppe" v="terrengdetaljer" />
		<tag k="ssr:hovedgruppe" v="terreng" />
		<tag k="ssr:stedsnr" v="525953" />
		<tag k="ssr:type" v="hylle" />
	</node>
	<node lat="60.45486666981003" lon="5.884613891628304" id="-70623">
		<tag k="bridge" v="yes" />
		<tag k="layer" v="1" />
		<tag k="name" v="Kvernelv" />
		<tag k="ssr:date" v="2019-12-27" />
		<tag k="ssr:gruppe" v="samferdselsanlegg" />
		<tag k="ssr:hovedgruppe" v="infrastruktur" />
		<tag k="ssr:stedsnr" v="533232" />
		<tag k="ssr:type" v="bru" />
	</node>
	<node lat="60.395977778083335" lon="5.702766663431357" id="-70624">
		<tag k="bridge" v="yes" />
		<tag k="layer" v="1" />
		<tag k="name" v="Storkleiv" />
		<tag k="ssr:date" v="2019-12-27" />
		<tag k="ssr:gruppe" v="samferdselsanlegg" />
		<tag k="ssr:hovedgruppe" v="infrastruktur" />
		<tag k="ssr:stedsnr" v="533234" />
		<tag k="ssr:type" v="bru" />
	</node>
	<node lat="60.34005555449008" lon="5.72651666882727" id="-70625">
		<tag k="name" v="Fagerdalen" />
		<tag k="natural" v="valley" />
		<tag k="place" v="locality" />
		<tag k="ssr:date" v="2019-12-27" />
		<tag k="ssr:gruppe" v="senkninger" />
		<tag k="ssr:hovedgruppe" v="terreng" />
		<tag k="ssr:stedsnr" v="540027" />
		<tag k="ssr:type" v="dal" />
	</node>
	<node lat="60.345338893064174" lon="5.719130547051659" id="-70626">
		<tag k="historic" v="shieling" />
		<tag k="name" v="Sandvikasetret" />
		<tag k="place" v="locality" />
		<tag k="ssr:date" v="2019-12-27" />
		<tag k="ssr:gruppe" v="dyrkamark" />
		<tag k="ssr:hovedgruppe" v="markslag" />
		<tag k="ssr:stedsnr" v="540031" />
		<tag k="ssr:type" v="setervoll" />
	</node>
	<node lat="60.34742222520917" lon="5.779672219515463" id="-70627">
		<tag k="name" v="Tangafjellet" />
		<tag k="natural" v="hill" />
		<tag k="place" v="locality" />
		<tag k="ssr:date" v="2019-12-27" />
		<tag k="ssr:gruppe" v="høyder" />
		<tag k="ssr:hovedgruppe" v="terreng" />
		<tag k="ssr:stedsnr" v="540940" />
		<tag k="ssr:type" v="berg" />
	</node>
	<node lat="60.339888884852755" lon="5.815711105231643" id="-70628">
		<tag k="name" v="Kvanndalsbakkane" />
		<tag k="natural" v="slope" />
		<tag k="place" v="locality" />
		<tag k="ssr:date" v="2019-12-27" />
		<tag k="ssr:gruppe" v="skråninger" />
		<tag k="ssr:hovedgruppe" v="terreng" />
		<tag k="ssr:stedsnr" v="540941" />
		<tag k="ssr:type" v="bakke" />
	</node>
	<node lat="60.35958888500664" lon="5.771250002976027" id="-70629">
		<tag k="name" v="Heggelii" />
		<tag k="natural" v="slope" />
		<tag k="place" v="locality" />
		<tag k="ssr:date" v="2019-12-27" />
		<tag k="ssr:gruppe" v="skråninger" />
		<tag k="ssr:hovedgruppe" v="terreng" />
		<tag k="ssr:stedsnr" v="544032" />
		<tag k="ssr:type" v="li" />
	</node>
	<node lat="60.349001762876604" lon="5.715175859820726" id="-70630">
		<tag k="name" v="Skorvetjørni" />
		<tag k="natural" v="water" />
		<tag k="ssr:date" v="2019-12-27" />
		<tag k="ssr:gruppe" v="stilleståendeVann" />
		<tag k="ssr:hovedgruppe" v="ferskvann" />
		<tag k="ssr:stedsnr" v="544034" />
		<tag k="ssr:type" v="tjern" />
	</node>
	<node lat="60.369641662597196" lon="5.802588882551189" id="-70631">
		<tag k="name" v="Storemyri" />
		<tag k="natural" v="wetland" />
		<tag k="ssr:date" v="2019-12-27" />
		<tag k="ssr:gruppe" v="våtmark" />
		<tag k="ssr:hovedgruppe" v="markslag" />
		<tag k="ssr:stedsnr" v="544041" />
		<tag k="ssr:type" v="myr" />
	</node>
	<node lat="60.36371389334866" lon="5.712658338536525" id="-70632">
		<tag k="name" v="Trollabotshaugen" />
		<tag k="natural" v="hill" />
		<tag k="place" v="locality" />
		<tag k="ssr:date" v="2019-12-27" />
		<tag k="ssr:gruppe" v="høyder" />
		<tag k="ssr:hovedgruppe" v="terreng" />
		<tag k="ssr:stedsnr" v="544049" />
		<tag k="ssr:type" v="haug" />
	</node>
	<node lat="60.4871361143782" lon="5.891416657333109" id="-70635">
		<tag k="name" v="Tunga" />
		<tag k="natural" v="hill" />
		<tag k="place" v="locality" />
		<tag k="ssr:date" v="2019-12-27" />
		<tag k="ssr:gruppe" v="høyder" />
		<tag k="ssr:hovedgruppe" v="terreng" />
		<tag k="ssr:stedsnr" v="551318" />
		<tag k="ssr:type" v="haug" />
	</node>
	<node lat="60.52034166794962" lon="5.9556555495625405" id="-70644">
		<tag k="fixme" v="consider natural=peak for the most distinct mountains in the district" />
		<tag k="name" v="Bukkafjellet" />
		<tag k="natural" v="hill" />
		<tag k="place" v="locality" />
		<tag k="ssr:date" v="2019-12-27" />
		<tag k="ssr:gruppe" v="høyder" />
		<tag k="ssr:hovedgruppe" v="terreng" />
		<tag k="ssr:stedsnr" v="552766" />
		<tag k="ssr:type" v="fjell" />
	</node>
	<node lat="60.32475939873532" lon="5.766884200842757" id="-70660">
		<tag k="name" v="Svartatjørni" />
		<tag k="natural" v="water" />
		<tag k="ssr:date" v="2020-05-29" />
		<tag k="ssr:gruppe" v="stilleståendeVann" />
		<tag k="ssr:hovedgruppe" v="ferskvann" />
		<tag k="ssr:stedsnr" v="583664" />
		<tag k="ssr:type" v="tjern" />
	</node>
	<node lat="60.4009888928815" lon="5.7552277841094694" id="-70661">
		<tag k="bridge" v="yes" />
		<tag k="layer" v="1" />
		<tag k="name" v="Aldal" />
		<tag k="ssr:date" v="2019-12-27" />
		<tag k="ssr:gruppe" v="samferdselsanlegg" />
		<tag k="ssr:hovedgruppe" v="infrastruktur" />
		<tag k="ssr:stedsnr" v="593200" />
		<tag k="ssr:type" v="bru" />
	</node>
	<node lat="60.341872224206696" lon="5.694933338799113" id="-70662">
		<tag k="name" v="Telleberglia" />
		<tag k="natural" v="slope" />
		<tag k="place" v="locality" />
		<tag k="ssr:date" v="2019-12-27" />
		<tag k="ssr:gruppe" v="skråninger" />
		<tag k="ssr:hovedgruppe" v="terreng" />
		<tag k="ssr:stedsnr" v="601076" />
		<tag k="ssr:type" v="li" />
	</node>
	<node lat="60.34563610686774" lon="5.654986103279498" id="-70663">
		<tag k="name" v="Flæa" />
		<tag k="natural" v="bay" />
		<tag k="ssr:date" v="2019-12-27" />
		<tag k="ssr:gruppe" v="kystkontur" />
		<tag k="ssr:hovedgruppe" v="sjø" />
		<tag k="ssr:stedsnr" v="601079" />
		<tag k="ssr:type" v="vikISjø" />
	</node>
	<node lat="60.3361920882083" lon="5.706184933701229" id="-70664">
		<tag k="name" v="Lomatjørna" />
		<tag k="natural" v="water" />
		<tag k="ssr:date" v="2019-12-27" />
		<tag k="ssr:gruppe" v="stilleståendeVann" />
		<tag k="ssr:hovedgruppe" v="ferskvann" />
		<tag k="ssr:stedsnr" v="601032" />
		<tag k="ssr:type" v="tjern" />
	</node>
	<node lat="60.3434583306542" lon="5.769311105032234" id="-70665">
		<tag k="name" v="Langafonni" />
		<tag k="place" v="locality" />
		<tag k="ssr:date" v="2019-12-27" />
		<tag k="ssr:gruppe" v="isOgPermafrost" />
		<tag k="ssr:hovedgruppe" v="markslag" />
		<tag k="ssr:stedsnr" v="601938" />
		<tag k="ssr:type" v="fonn" />
	</node>
	<node lat="60.368233336267664" lon="5.732411108499974" id="-70666">
		<tag k="name" v="Barmen" />
		<tag k="place" v="farm" />
		<tag k="ssr:date" v="2019-12-27" />
		<tag k="ssr:gruppe" v="gardsbebyggelse" />
		<tag k="ssr:hovedgruppe" v="bebyggelse" />
		<tag k="ssr:stedsnr" v="611150" />
		<tag k="ssr:type" v="bruk" />
	</node>
	<node lat="60.334041665618074" lon="5.7190277838453145" id="-70673">
		<tag k="fixme" v="consider natural=peak for the most distinct mountains in the district" />
		<tag k="name" v="Såta" />
		<tag k="natural" v="hill" />
		<tag k="place" v="locality" />
		<tag k="ssr:date" v="2019-12-27" />
		<tag k="ssr:gruppe" v="høyder" />
		<tag k="ssr:hovedgruppe" v="terreng" />
		<tag k="ssr:stedsnr" v="612227" />
		<tag k="ssr:type" v="ås" />
	</node>
	<node lat="60.341220080036585" lon="5.711941982092544" id="-70674">
		<tag k="name" v="Stemmevatnet" />
		<tag k="natural" v="water" />
		<tag k="ssr:date" v="2019-12-27" />
		<tag k="ssr:gruppe" v="stilleståendeVann" />
		<tag k="ssr:hovedgruppe" v="ferskvann" />
		<tag k="ssr:stedsnr" v="612241" />
		<tag k="ssr:type" v="tjern" />
	</node>
	<node lat="60.4013277758712" lon="5.755150008149653" id="-70687">
		<tag k="bridge" v="yes" />
		<tag k="layer" v="1" />
		<tag k="name" v="Aldalen" />
		<tag k="ssr:date" v="2019-12-27" />
		<tag k="ssr:gruppe" v="samferdselsanlegg" />
		<tag k="ssr:hovedgruppe" v="infrastruktur" />
		<tag k="ssr:stedsnr" v="654220" />
		<tag k="ssr:type" v="bru" />
	</node>
	<node lat="60.400002776574745" lon="5.708716659171921" id="-70688">
		<tag k="bridge" v="yes" />
		<tag k="layer" v="1" />
		<tag k="name" v="Kvernbekk" />
		<tag k="ssr:date" v="2019-12-27" />
		<tag k="ssr:gruppe" v="samferdselsanlegg" />
		<tag k="ssr:hovedgruppe" v="infrastruktur" />
		<tag k="ssr:stedsnr" v="654231" />
		<tag k="ssr:type" v="bru" />
	</node>
	<node lat="60.349686108533" lon="5.783047217078291" id="-70689">
		<tag k="fixme" v="consider natural=peak for the most distinct mountains in the district" />
		<tag k="name" v="Ullandsfjellet" />
		<tag k="natural" v="hill" />
		<tag k="place" v="locality" />
		<tag k="ssr:date" v="2019-12-27" />
		<tag k="ssr:gruppe" v="høyder" />
		<tag k="ssr:hovedgruppe" v="terreng" />
		<tag k="ssr:stedsnr" v="661018" />
		<tag k="ssr:type" v="fjell" />
	</node>
	<node lat="60.351613889012825" lon="5.762413889930229" id="-70690">
		<tag k="name" v="Blåheien" />
		<tag k="natural" v="slope" />
		<tag k="place" v="locality" />
		<tag k="ssr:date" v="2019-12-27" />
		<tag k="ssr:gruppe" v="skråninger" />
		<tag k="ssr:hovedgruppe" v="terreng" />
		<tag k="ssr:stedsnr" v="661023" />
		<tag k="ssr:type" v="li" />
	</node>
	<node lat="60.34646111349084" lon="5.722986109788157" id="-70691">
		<tag k="name" v="Setratjørnane" />
		<tag k="natural" v="water" />
		<tag k="ssr:date" v="2019-12-27" />
		<tag k="ssr:gruppe" v="stilleståendeVann" />
		<tag k="ssr:hovedgruppe" v="ferskvann" />
		<tag k="ssr:stedsnr" v="661029" />
		<tag k="ssr:type" v="gruppeAvTjern" />
		<tag k="water" v="lake" />
	</node>
	<node lat="60.33979166306031" lon="5.68794721612335" id="-70692">
		<tag k="name" v="Skifteshaugen" />
		<tag k="natural" v="hill" />
		<tag k="place" v="locality" />
		<tag k="ssr:date" v="2019-12-27" />
		<tag k="ssr:gruppe" v="høyder" />
		<tag k="ssr:hovedgruppe" v="terreng" />
		<tag k="ssr:stedsnr" v="661076" />
		<tag k="ssr:type" v="haug" />
	</node>
	<node lat="60.2985666647268" lon="5.584872229065338" id="-70693">
		<tag k="name" v="Botnahytto" />
		<tag k="place" v="locality" />
		<tag k="ssr:date" v="2019-12-27" />
		<tag k="ssr:gruppe" v="kulturminner" />
		<tag k="ssr:hovedgruppe" v="kultur" />
		<tag k="ssr:stedsnr" v="664102" />
		<tag k="ssr:type" v="annenKulturdetalj" />
	</node>
	<node lat="60.35874444535379" lon="5.73840832506354" id="-70694">
		<tag k="name" v="Florhaugen" />
		<tag k="natural" v="hill" />
		<tag k="place" v="locality" />
		<tag k="ssr:date" v="2019-12-27" />
		<tag k="ssr:gruppe" v="høyder" />
		<tag k="ssr:hovedgruppe" v="terreng" />
		<tag k="ssr:stedsnr" v="665062" />
		<tag k="ssr:type" v="haug" />
	</node>
	<node lat="60.39161944666617" lon="5.840866659128446" id="-70695">
		<tag k="bridge" v="yes" />
		<tag k="layer" v="1" />
		<tag k="name" v="Mørkhøl" />
		<tag k="ssr:date" v="2019-12-27" />
		<tag k="ssr:gruppe" v="samferdselsanlegg" />
		<tag k="ssr:hovedgruppe" v="infrastruktur" />
		<tag k="ssr:stedsnr" v="715238" />
		<tag k="ssr:type" v="bru" />
	</node>
	<node lat="60.34201944646714" lon="5.777722213836159" id="-70696">
		<tag k="name" v="Tangatjørnane" />
		<tag k="natural" v="water" />
		<tag k="ssr:date" v="2019-12-27" />
		<tag k="ssr:gruppe" v="stilleståendeVann" />
		<tag k="ssr:hovedgruppe" v="ferskvann" />
		<tag k="ssr:stedsnr" v="722087" />
		<tag k="ssr:type" v="gruppeAvTjern" />
		<tag k="water" v="lake" />
	</node>
	<node lat="60.35700277387953" lon="5.82088055178897" id="-70697">
		<tag k="name" v="Ospebotnen" />
		<tag k="natural" v="valley" />
		<tag k="place" v="locality" />
		<tag k="ssr:date" v="2019-12-27" />
		<tag k="ssr:gruppe" v="senkninger" />
		<tag k="ssr:hovedgruppe" v="terreng" />
		<tag k="ssr:stedsnr" v="723904" />
		<tag k="ssr:type" v="botn" />
	</node>
	<node lat="60.354541666152095" lon="5.817549998586563" id="-70698">
		<tag k="name" v="Leitet" />
		<tag k="natural" v="hill" />
		<tag k="place" v="locality" />
		<tag k="ssr:date" v="2019-12-27" />
		<tag k="ssr:gruppe" v="høyder" />
		<tag k="ssr:hovedgruppe" v="terreng" />
		<tag k="ssr:stedsnr" v="726043" />
		<tag k="ssr:type" v="haug" />
	</node>
	<node lat="60.369061112507964" lon="5.7977527798392865" id="-70699">
		<tag k="name" v="Norddalane" />
		<tag k="natural" v="valley" />
		<tag k="place" v="locality" />
		<tag k="ssr:date" v="2019-12-27" />
		<tag k="ssr:gruppe" v="senkninger" />
		<tag k="ssr:hovedgruppe" v="terreng" />
		<tag k="ssr:stedsnr" v="726046" />
		<tag k="ssr:type" v="dal" />
	</node>
	<node lat="60.36554721786396" lon="5.716111107166761" id="-70700">
		<tag k="name" v="Trollabotn" />
		<tag k="natural" v="valley" />
		<tag k="place" v="locality" />
		<tag k="ssr:date" v="2019-12-27" />
		<tag k="ssr:gruppe" v="senkninger" />
		<tag k="ssr:hovedgruppe" v="terreng" />
		<tag k="ssr:stedsnr" v="726049" />
		<tag k="ssr:type" v="botn" />
	</node>
	<node lat="60.364947225573175" lon="5.720827778093512" id="-70701">
		<tag k="name" v="Raudskoltane" />
		<tag k="natural" v="hill" />
		<tag k="place" v="locality" />
		<tag k="ssr:date" v="2019-12-27" />
		<tag k="ssr:gruppe" v="høyder" />
		<tag k="ssr:hovedgruppe" v="terreng" />
		<tag k="ssr:stedsnr" v="726051" />
		<tag k="ssr:type" v="haug" />
	</node>
	<node lat="60.48597500068161" lon="5.892147213640014" id="-70719">
		<tag k="name" v="Glupagjelet" />
		<tag k="natural" v="valley" />
		<tag k="place" v="locality" />
		<tag k="ssr:date" v="2019-12-27" />
		<tag k="ssr:gruppe" v="senkninger" />
		<tag k="ssr:hovedgruppe" v="terreng" />
		<tag k="ssr:stedsnr" v="734359" />
		<tag k="ssr:type" v="skar" />
	</node>
	<node lat="60.34580555804734" lon="5.852355552656578" id="-70721">
		<tag k="name" v="Ramnagjelet" />
		<tag k="natural" v="valley" />
		<tag k="place" v="locality" />
		<tag k="ssr:date" v="2019-12-27" />
		<tag k="ssr:gruppe" v="senkninger" />
		<tag k="ssr:hovedgruppe" v="terreng" />
		<tag k="ssr:stedsnr" v="734658" />
		<tag k="ssr:type" v="skar" />
	</node>
	<node lat="60.337474998760506" lon="5.632144447482634" id="-70722">
		<tag k="name" v="Hattavika" />
		<tag k="natural" v="bay" />
		<tag k="ssr:date" v="2019-12-27" />
		<tag k="ssr:gruppe" v="kystkontur" />
		<tag k="ssr:hovedgruppe" v="sjø" />
		<tag k="ssr:stedsnr" v="752279" />
		<tag k="ssr:type" v="vikISjø" />
	</node>
	<node lat="60.36830555137826" lon="5.843002774937277" id="-70734">
		<tag k="name" v="Dyrvasslii" />
		<tag k="natural" v="slope" />
		<tag k="place" v="locality" />
		<tag k="ssr:date" v="2019-12-27" />
		<tag k="ssr:gruppe" v="skråninger" />
		<tag k="ssr:hovedgruppe" v="terreng" />
		<tag k="ssr:stedsnr" v="768961" />
		<tag k="ssr:type" v="li" />
	</node>
	<node lat="60.36062221837134" lon="5.632638893456762" id="-70735">
		<tag k="bridge" v="yes" />
		<tag k="layer" v="1" />
		<tag k="name" v="Sagelva" />
		<tag k="ssr:date" v="2019-12-27" />
		<tag k="ssr:gruppe" v="samferdselsanlegg" />
		<tag k="ssr:hovedgruppe" v="infrastruktur" />
		<tag k="ssr:stedsnr" v="775215" />
		<tag k="ssr:type" v="bru" />
	</node>
	<node lat="60.35651389114481" lon="5.725708338765983" id="-70736">
		<tag k="name" v="Åsabrekkena" />
		<tag k="natural" v="slope" />
		<tag k="place" v="locality" />
		<tag k="ssr:date" v="2019-12-27" />
		<tag k="ssr:gruppe" v="skråninger" />
		<tag k="ssr:hovedgruppe" v="terreng" />
		<tag k="ssr:stedsnr" v="787031" />
		<tag k="ssr:type" v="li" />
	</node>
	<node lat="60.42864113412842" lon="5.699682436908416" id="-70742">
		<tag k="name" v="Raudvatnet" />
		<tag k="natural" v="water" />
		<tag k="ssr:date" v="2019-12-27" />
		<tag k="ssr:gruppe" v="stilleståendeVann" />
		<tag k="ssr:hovedgruppe" v="ferskvann" />
		<tag k="ssr:stedsnr" v="794052" />
		<tag k="ssr:type" v="tjern" />
	</node>
	<node lat="60.39210555332307" lon="5.71431110852835" id="-70745">
		<tag k="alt_name" v="Sørvika" />
		<tag k="name" v="Søvik" />
		<tag k="place" v="farm" />
		<tag k="ssr:date" v="2019-12-27" />
		<tag k="ssr:gruppe" v="gardsbebyggelse" />
		<tag k="ssr:hovedgruppe" v="bebyggelse" />
		<tag k="ssr:stedsnr" v="794132" />
		<tag k="ssr:type" v="bruk" />
	</node>
	<node lat="60.413669445775625" lon="5.732052780265627" id="-70748">
		<tag k="fixme" v="consider place=hamlet" />
		<tag k="name" v="Nordbygda" />
		<tag k="place" v="village" />
		<tag k="ssr:date" v="2019-12-27" />
		<tag k="ssr:gruppe" v="bebyggelsesområder" />
		<tag k="ssr:hovedgruppe" v="bebyggelse" />
		<tag k="ssr:stedsnr" v="794074" />
		<tag k="ssr:type" v="bygdelagBygd" />
	</node>
	<node lat="60.336555554640576" lon="5.765536118569932" id="-70749">
		<tag k="fixme" v="consider natural=peak for the most distinct mountains in the district" />
		<tag k="name" v="Burlifjellet" />
		<tag k="natural" v="hill" />
		<tag k="place" v="locality" />
		<tag k="ssr:date" v="2019-12-27" />
		<tag k="ssr:gruppe" v="høyder" />
		<tag k="ssr:hovedgruppe" v="terreng" />
		<tag k="ssr:stedsnr" v="794196" />
		<tag k="ssr:type" v="fjell" />
	</node>
	<node lat="60.33388888479093" lon="5.704797231659834" id="-70750">
		<tag k="fixme" v="consider natural=peak for the most distinct mountains in the district" />
		<tag k="name" v="Fløyen" />
		<tag k="natural" v="hill" />
		<tag k="place" v="locality" />
		<tag k="ssr:date" v="2019-12-27" />
		<tag k="ssr:gruppe" v="høyder" />
		<tag k="ssr:hovedgruppe" v="terreng" />
		<tag k="ssr:stedsnr" v="794198" />
		<tag k="ssr:type" v="ås" />
	</node>
	<node lat="60.34705000384366" lon="5.688877771537348" id="-70755">
		<tag k="name" v="Lundebø" />
		<tag k="place" v="farm" />
		<tag k="ssr:date" v="2019-12-27" />
		<tag k="ssr:gruppe" v="gardsbebyggelse" />
		<tag k="ssr:hovedgruppe" v="bebyggelse" />
		<tag k="ssr:stedsnr" v="813275" />
		<tag k="ssr:type" v="bruk" />
	</node>
	<node lat="60.35099166533957" lon="5.880422227548411" id="-70776">
		<tag k="fixme" v="consider natural=peak for the most distinct mountains in the district" />
		<tag k="name" v="Storagrøet" />
		<tag k="natural" v="hill" />
		<tag k="place" v="locality" />
		<tag k="ssr:date" v="2019-12-27" />
		<tag k="ssr:gruppe" v="høyder" />
		<tag k="ssr:hovedgruppe" v="terreng" />
		<tag k="ssr:stedsnr" v="829961" />
		<tag k="ssr:type" v="fjell" />
	</node>
	<node lat="60.39193925640813" lon="5.769023254117263" id="-70777">
		<tag k="layer" v="-1" />
		<tag k="name" v="Hagaås" />
		<tag k="ssr:date" v="2020-01-09" />
		<tag k="ssr:gruppe" v="samferdselsanlegg" />
		<tag k="ssr:hovedgruppe" v="infrastruktur" />
		<tag k="ssr:stedsnr" v="833483" />
		<tag k="ssr:type" v="tunnel" />
		<tag k="tunnel" v="yes" />
	</node>
	<node lat="60.434723590948735" lon="5.732885956357738" id="-70779">
		<tag k="name" v="Langatjørna" />
		<tag k="natural" v="water" />
		<tag k="ssr:date" v="2019-12-27" />
		<tag k="ssr:gruppe" v="stilleståendeVann" />
		<tag k="ssr:hovedgruppe" v="ferskvann" />
		<tag k="ssr:stedsnr" v="855040" />
		<tag k="ssr:type" v="tjern" />
	</node>
	<node lat="60.337967050968686" lon="5.6851728379153945" id="-70781">
		<tag k="name" v="Tjørndalstjørna" />
		<tag k="natural" v="water" />
		<tag k="ssr:date" v="2019-12-27" />
		<tag k="ssr:gruppe" v="stilleståendeVann" />
		<tag k="ssr:hovedgruppe" v="ferskvann" />
		<tag k="ssr:stedsnr" v="844125" />
		<tag k="ssr:type" v="tjern" />
	</node>
	<node lat="60.350916669441744" lon="5.712988886038049" id="-70782">
		<tag k="name" v="Fluheiane" />
		<tag k="natural" v="hill" />
		<tag k="place" v="locality" />
		<tag k="ssr:date" v="2019-12-27" />
		<tag k="ssr:gruppe" v="høyder" />
		<tag k="ssr:hovedgruppe" v="terreng" />
		<tag k="ssr:stedsnr" v="848036" />
		<tag k="ssr:type" v="høyde" />
	</node>
	<node lat="60.35099722358921" lon="5.710758330168681" id="-70783">
		<tag k="name" v="Saualego" />
		<tag k="place" v="locality" />
		<tag k="ssr:date" v="2019-12-27" />
		<tag k="ssr:gruppe" v="terrengdetaljer" />
		<tag k="ssr:hovedgruppe" v="terreng" />
		<tag k="ssr:stedsnr" v="848041" />
		<tag k="ssr:type" v="annenTerrengdetalj" />
	</node>
	<node lat="60.360484058375526" lon="5.705814733159017" id="-70785">
		<tag k="name" v="Kampatjørna" />
		<tag k="natural" v="water" />
		<tag k="ssr:date" v="2019-12-27" />
		<tag k="ssr:gruppe" v="stilleståendeVann" />
		<tag k="ssr:hovedgruppe" v="ferskvann" />
		<tag k="ssr:stedsnr" v="855169" />
		<tag k="ssr:type" v="tjern" />
	</node>
	<node lat="60.3502579835297" lon="5.683881036163851" id="-70787">
		<tag k="name" v="Sagi" />
		<tag k="place" v="farm" />
		<tag k="ssr:date" v="2019-12-27" />
		<tag k="ssr:gruppe" v="gardsbebyggelse" />
		<tag k="ssr:hovedgruppe" v="bebyggelse" />
		<tag k="ssr:stedsnr" v="855201" />
		<tag k="ssr:type" v="bruk" />
	</node>
	<node lat="60.327338884403595" lon="5.679669443057768" id="-70788">
		<tag k="name" v="Botnavatnet" />
		<tag k="natural" v="water" />
		<tag k="ssr:date" v="2019-12-27" />
		<tag k="ssr:gruppe" v="stilleståendeVann" />
		<tag k="ssr:hovedgruppe" v="ferskvann" />
		<tag k="ssr:stedsnr" v="855229" />
		<tag k="ssr:type" v="tjern" />
	</node>
	<node lat="60.360177776315254" lon="5.655744448596699" id="-70792">
		<tag k="name" v="Ytstevågen" />
		<tag k="natural" v="bay" />
		<tag k="ssr:date" v="2019-12-27" />
		<tag k="ssr:gruppe" v="kystkontur" />
		<tag k="ssr:hovedgruppe" v="sjø" />
		<tag k="ssr:stedsnr" v="874312" />
		<tag k="ssr:type" v="vikISjø" />
	</node>
	<node lat="60.334252777434195" lon="5.6306111086144535" id="-70793">
		<tag k="name" v="Insteflua" />
		<tag k="natural" v="shoal" />
		<tag k="place" v="locality" />
		<tag k="ssr:date" v="2019-12-27" />
		<tag k="ssr:gruppe" v="grunnerISjø" />
		<tag k="ssr:hovedgruppe" v="sjø" />
		<tag k="ssr:stedsnr" v="874178" />
		<tag k="ssr:type" v="grunneISjø" />
	</node>
	<node lat="60.36807500188297" lon="5.679775002830191" id="-70794">
		<tag k="name" v="Oldervik" />
		<tag k="place" v="farm" />
		<tag k="ssr:date" v="2019-12-27" />
		<tag k="ssr:gruppe" v="gardsbebyggelse" />
		<tag k="ssr:hovedgruppe" v="bebyggelse" />
		<tag k="ssr:stedsnr" v="874307" />
		<tag k="ssr:type" v="bruk" />
	</node>
	<node lat="60.317238884843256" lon="5.623813888670725" id="-70795">
		<tag k="name" v="Berget" />
		<tag k="place" v="farm" />
		<tag k="ssr:date" v="2019-12-27" />
		<tag k="ssr:gruppe" v="gardsbebyggelse" />
		<tag k="ssr:hovedgruppe" v="bebyggelse" />
		<tag k="ssr:stedsnr" v="874825" />
		<tag k="ssr:type" v="bruk" />
	</node>
	<node lat="60.368947220427586" lon="5.826591672639681" id="-70815">
		<tag k="name" v="Tørrnakken" />
		<tag k="place" v="locality" />
		<tag k="ssr:date" v="2019-12-27" />
		<tag k="ssr:gruppe" v="høyder" />
		<tag k="ssr:hovedgruppe" v="terreng" />
		<tag k="ssr:stedsnr" v="950963" />
		<tag k="ssr:type" v="fjellkant" />
	</node>
	<node lat="60.37732222348915" lon="5.653058330640156" id="-70816">
		<tag k="bridge" v="yes" />
		<tag k="layer" v="1" />
		<tag k="name" v="Nordbø" />
		<tag k="ssr:date" v="2019-12-27" />
		<tag k="ssr:gruppe" v="samferdselsanlegg" />
		<tag k="ssr:hovedgruppe" v="infrastruktur" />
		<tag k="ssr:stedsnr" v="958237" />
		<tag k="ssr:type" v="bru" />
	</node>
	<node lat="60.387822220927525" lon="5.848388882680839" id="-70817">
		<tag k="bridge" v="yes" />
		<tag k="layer" v="1" />
		<tag k="name" v="Verka" />
		<tag k="ssr:date" v="2019-12-27" />
		<tag k="ssr:gruppe" v="samferdselsanlegg" />
		<tag k="ssr:hovedgruppe" v="infrastruktur" />
		<tag k="ssr:stedsnr" v="958240" />
		<tag k="ssr:type" v="bru" />
	</node>
	<node lat="60.33873610705628" lon="5.702913886427491" id="-70818">
		<tag k="name" v="Stemmedalen" />
		<tag k="natural" v="valley" />
		<tag k="place" v="locality" />
		<tag k="ssr:date" v="2019-12-27" />
		<tag k="ssr:gruppe" v="senkninger" />
		<tag k="ssr:hovedgruppe" v="terreng" />
		<tag k="ssr:stedsnr" v="965022" />
		<tag k="ssr:type" v="dal" />
	</node>
	<node lat="60.35408055549352" lon="5.75492221879798" id="-70819">
		<tag k="name" v="Skaråstølen" />
		<tag k="place" v="locality" />
		<tag k="ssr:date" v="2019-12-27" />
		<tag k="ssr:gruppe" v="bolighus" />
		<tag k="ssr:hovedgruppe" v="bebyggelse" />
		<tag k="ssr:stedsnr" v="969062" />
		<tag k="ssr:type" v="gammelBosettingsplass" />
	</node>
	<node lat="60.385325076229854" lon="5.73077701771002" id="-70822">
		<tag k="bay" v="fjord" />
		<tag k="name" v="Indre Samnangerfjorden" />
		<tag k="natural" v="bay" />
		<tag k="ssr:date" v="2019-12-27" />
		<tag k="ssr:gruppe" v="farvann" />
		<tag k="ssr:hovedgruppe" v="sjø" />
		<tag k="ssr:stedsnr" v="991038" />
		<tag k="ssr:type" v="fjord" />
	</node>
	<node lat="60.484509153104" lon="5.970963521378778" id="-70823">
		<tag k="name" v="Vestra Trongasmogtjørni" />
		<tag k="natural" v="water" />
		<tag k="ssr:date" v="2019-12-27" />
		<tag k="ssr:gruppe" v="stilleståendeVann" />
		<tag k="ssr:hovedgruppe" v="ferskvann" />
		<tag k="ssr:stedsnr" v="991139" />
		<tag k="ssr:type" v="tjern" />
	</node>
</osm>
