<?xml version="1.0" encoding="UTF-8"?>
<osm version="0.6" generator="osmapis">
	<node lat="66.28714722261863" lon="14.095286116071284" id="-8416">
		<tag k="name" v="Holmforsen" />
		<tag k="natural" v="waterfall" />
		<tag k="ssr:stedsnr" v="286332" />
	</node>
	<node lat="66.37082222688593" lon="14.096794435136605" id="-8425">
		<tag k="name" v="Langvatnet" />
		<tag k="natural" v="water" />
		<tag k="ssr:stedsnr" v="16005" />
		<tag k="water" v="lake" />
	</node>
	<node lat="66.40536944789632" lon="13.969241662816872" id="-8430">
		<tag k="name" v="Snøfjellholman" />
		<tag k="place" v="islet" />
		<tag k="ssr:stedsnr" v="16021" />
	</node>
	<node lat="66.37164722392845" lon="14.545105559167355" id="-8439">
		<tag k="fixme" v="multiple name tags, choose one and add the other to alt_name" />
		<tag k="name" v="Stormbekken;Innerstormbekken" />
		<tag k="ssr:stedsnr" v="16256" />
		<tag k="waterway" v="stream" />
	</node>
	<node lat="66.39896111199722" lon="14.776655558125855" id="-8440">
		<tag k="name" v="Litllasktjønna" />
		<tag k="natural" v="water" />
		<tag k="ssr:stedsnr" v="16412" />
	</node>
	<node lat="66.40191388422528" lon="14.816000008031102" id="-8441">
		<tag k="name" v="Olinatjønna" />
		<tag k="natural" v="water" />
		<tag k="ssr:stedsnr" v="16415" />
	</node>
	<node lat="66.51198889240436" lon="13.894136101710243" id="-8442">
		<tag k="alt_name" v="Glomvatnet" />
		<tag k="name" v="Glomdalsvatnet" />
		<tag k="natural" v="water" />
		<tag k="ssr:stedsnr" v="16426" />
	</node>
	<node lat="66.39701388674746" lon="15.133402771217748" id="-8445">
		<tag k="name" v="Jordbekken" />
		<tag k="ssr:stedsnr" v="16470" />
		<tag k="waterway" v="stream" />
	</node>
	<node lat="66.27557221938517" lon="14.357061101879266" id="-8447">
		<tag k="name" v="Skillbekken" />
		<tag k="ssr:stedsnr" v="16365" />
		<tag k="waterway" v="stream" />
	</node>
	<node lat="66.33829444749935" lon="15.191399996586592" id="-8448">
		<tag k="name" v="Kaffebekken" />
		<tag k="ssr:stedsnr" v="16503" />
		<tag k="waterway" v="stream" />
	</node>
	<node lat="66.50394166921751" lon="15.179408335334971" id="-8452">
		<tag k="alt_name" v="Bolnabekken, søre" />
		<tag k="name" v="Søre Bolnabekken" />
		<tag k="ssr:stedsnr" v="16558" />
		<tag k="waterway" v="stream" />
	</node>
	<node lat="66.4304944403535" lon="13.985222225144543" id="-8454">
		<tag k="alt_name" v="Nøva" />
		<tag k="name" v="Nova" />
		<tag k="natural" v="cape" />
		<tag k="ssr:stedsnr" v="16909" />
	</node>
	<node lat="66.26356666382779" lon="13.604686110386304" id="-8456">
		<tag k="name" v="Kvitnestjønna" />
		<tag k="natural" v="water" />
		<tag k="ssr:stedsnr" v="16939" />
	</node>
	<node lat="66.15566944623906" lon="14.497933323509116" id="-8464">
		<tag k="name" v="Steintjønna" />
		<tag k="natural" v="water" />
		<tag k="ssr:stedsnr" v="16853" />
	</node>
	<node lat="66.15234722528447" lon="14.495225001969368" id="-8465">
		<tag k="name" v="Daudmannstjønna" />
		<tag k="natural" v="water" />
		<tag k="ssr:stedsnr" v="16856" />
	</node>
	<node lat="66.35106666393959" lon="13.57283888538836" id="-8466">
		<tag k="name" v="Svartvatnet" />
		<tag k="natural" v="water" />
		<tag k="ssr:stedsnr" v="16857" />
		<tag k="water" v="lake" />
	</node>
	<node lat="66.43800277536023" lon="14.153897217931146" id="-8471">
		<tag k="name" v="Gardsholmen" />
		<tag k="place" v="islet" />
		<tag k="ssr:stedsnr" v="16879" />
	</node>
	<node lat="66.34189166651079" lon="13.894522212060469" id="-8476">
		<tag k="name" v="Reinhagtjønna" />
		<tag k="natural" v="water" />
		<tag k="ssr:stedsnr" v="24487" />
	</node>
	<node lat="66.39579444068309" lon="13.413522212360105" id="-8479">
		<tag k="name" v="Kvitnesholmen" />
		<tag k="place" v="islet" />
		<tag k="ssr:stedsnr" v="25223" />
	</node>
	<node lat="66.48825277546977" lon="14.878519447040242" id="-8483">
		<tag k="name" v="Seterbekken" />
		<tag k="ssr:stedsnr" v="39304" />
		<tag k="waterway" v="stream" />
	</node>
	<node lat="66.38438888561348" lon="14.453111105820982" id="-8488">
		<tag k="name" v="Skjellbekken" />
		<tag k="ssr:stedsnr" v="39517" />
		<tag k="waterway" v="stream" />
	</node>
	<node lat="66.41687499638391" lon="14.493863883411693" id="-8493">
		<tag k="name" v="Sannan" />
		<tag k="natural" v="cape" />
		<tag k="ssr:stedsnr" v="39458" />
	</node>
	<node lat="66.19571111262059" lon="14.298122226373685" id="-8499">
		<tag k="name" v="Johantjønna" />
		<tag k="natural" v="water" />
		<tag k="ssr:stedsnr" v="39779" />
	</node>
	<node lat="66.47874999937692" lon="14.227633339019363" id="-8500">
		<tag k="name" v="Pøla" />
		<tag k="natural" v="water" />
		<tag k="ssr:stedsnr" v="39909" />
		<tag k="water" v="lake" />
	</node>
	<node lat="66.46860555567169" lon="14.273266670850157" id="-8503">
		<tag k="name" v="Skrømttjønna" />
		<tag k="natural" v="water" />
		<tag k="ssr:stedsnr" v="39917" />
	</node>
	<node lat="66.46270833277498" lon="15.100847216057591" id="-8505">
		<tag k="name" v="Fiskarbekken" />
		<tag k="ssr:stedsnr" v="39957" />
		<tag k="waterway" v="stream" />
	</node>
	<node lat="66.34611944628325" lon="14.328738882006453" id="-8513">
		<tag k="name" v="Båtbakkea" />
		<tag k="natural" v="water" />
		<tag k="ssr:stedsnr" v="43073" />
		<tag k="water" v="lake" />
	</node>
	<node lat="66.4083722201091" lon="14.24727500547222" id="-8518">
		<tag k="name" v="Strokken" />
		<tag k="natural" v="water" />
		<tag k="ssr:stedsnr" v="43182" />
		<tag k="water" v="lake" />
	</node>
	<node lat="66.36937777626505" lon="14.353433338924358" id="-8520">
		<tag k="name" v="Vollbekken" />
		<tag k="ssr:stedsnr" v="43190" />
		<tag k="waterway" v="stream" />
	</node>
	<node lat="66.43580833716193" lon="14.253799995393605" id="-8521">
		<tag k="name" v="Asphaugholmen" />
		<tag k="place" v="islet" />
		<tag k="ssr:stedsnr" v="43198" />
	</node>
	<node lat="66.25442221888811" lon="14.042872217558736" id="-8525">
		<tag k="name" v="Urbekken" />
		<tag k="ssr:stedsnr" v="43506" />
		<tag k="waterway" v="stream" />
	</node>
	<node lat="66.33474722100088" lon="14.172669442872255" id="-8531">
		<tag k="alt_name" v="Naustflågbekken" />
		<tag k="name" v="Nausflogbekken" />
		<tag k="ssr:stedsnr" v="43472" />
		<tag k="waterway" v="stream" />
	</node>
	<node lat="66.33645833122999" lon="14.161805546407004" id="-8536">
		<tag k="name" v="Stellet" />
		<tag k="natural" v="bay" />
		<tag k="ssr:stedsnr" v="43945" />
	</node>
	<node lat="66.31013611243625" lon="14.797902770669493" id="-8541">
		<tag k="name" v="Laffavadholmen" />
		<tag k="place" v="islet" />
		<tag k="ssr:stedsnr" v="240047" />
	</node>
	<node lat="66.31909444723352" lon="14.849927771175732" id="-8542">
		<tag k="name" v="Svartforsen" />
		<tag k="natural" v="waterfall" />
		<tag k="ssr:stedsnr" v="240055" />
	</node>
	<node lat="66.509991666194" lon="14.994919444240393" id="-8544">
		<tag k="name" v="Stokkbekken" />
		<tag k="ssr:stedsnr" v="240121" />
		<tag k="waterway" v="stream" />
	</node>
	<node lat="66.13972777613678" lon="14.29636945151549" id="-8556">
		<tag k="name" v="Rauvassbekken" />
		<tag k="ssr:stedsnr" v="240834" />
		<tag k="waterway" v="stream" />
	</node>
	<node lat="66.34494444323607" lon="13.36074723208626" id="-8561">
		<tag k="name" v="Bjørkneset" />
		<tag k="natural" v="cape" />
		<tag k="ssr:stedsnr" v="58206" />
	</node>
	<node lat="66.36003055247002" lon="13.340716674222135" id="-8563">
		<tag k="name" v="Granneset" />
		<tag k="natural" v="cape" />
		<tag k="ssr:stedsnr" v="58214" />
	</node>
	<node lat="66.41728889332367" lon="14.755908329660496" id="-8566">
		<tag k="alt_name" v="Flågea" />
		<tag k="name" v="Flogea" />
		<tag k="natural" v="water" />
		<tag k="ssr:stedsnr" v="240023" />
		<tag k="water" v="lake" />
	</node>
	<node lat="66.38656111059282" lon="14.093388881065742" id="-8572">
		<tag k="name" v="Lomtjønna" />
		<tag k="natural" v="water" />
		<tag k="ssr:stedsnr" v="58179" />
	</node>
	<node lat="66.4586361096109" lon="14.029719444036804" id="-8574">
		<tag k="name" v="Kjeldbekken" />
		<tag k="ssr:stedsnr" v="58477" />
		<tag k="waterway" v="stream" />
	</node>
	<node lat="66.44919722463766" lon="13.859813883101673" id="-8576">
		<tag k="name" v="Bekknesan" />
		<tag k="natural" v="cape" />
		<tag k="ssr:stedsnr" v="58633" />
	</node>
	<node lat="66.47500833721084" lon="13.844916678427046" id="-8577">
		<tag k="name" v="Mekalbekkan" />
		<tag k="ssr:stedsnr" v="58635" />
		<tag k="waterway" v="stream" />
	</node>
	<node lat="66.40531389001931" lon="13.930733324477687" id="-8578">
		<tag k="name" v="Skjerbekken" />
		<tag k="ssr:stedsnr" v="58637" />
		<tag k="waterway" v="stream" />
	</node>
	<node lat="66.49915555460066" lon="14.884061105989591" id="-8580">
		<tag k="name" v="Jensbekken" />
		<tag k="ssr:stedsnr" v="58383" />
		<tag k="waterway" v="stream" />
	</node>
	<node lat="66.26864444829704" lon="13.612713897141685" id="-8584">
		<tag k="name" v="Gunhildbekken" />
		<tag k="ssr:stedsnr" v="58801" />
		<tag k="waterway" v="stream" />
	</node>
	<node lat="66.25187500061593" lon="13.594761110717844" id="-8587">
		<tag k="name" v="Merraengbekken" />
		<tag k="ssr:stedsnr" v="58808" />
		<tag k="waterway" v="stream" />
	</node>
	<node lat="66.3866055532549" lon="13.988275002039995" id="-8591">
		<tag k="name" v="Mølnbekken" />
		<tag k="ssr:stedsnr" v="58722" />
		<tag k="waterway" v="stream" />
	</node>
	<node lat="66.22851389078033" lon="13.920344453830252" id="-8594">
		<tag k="name" v="Storlaneset" />
		<tag k="natural" v="cape" />
		<tag k="ssr:stedsnr" v="58912" />
	</node>
	<node lat="66.31481111409313" lon="14.566188888836418" id="-8603">
		<tag k="name" v="Kjestjønna" />
		<tag k="natural" v="water" />
		<tag k="ssr:stedsnr" v="240651" />
	</node>
	<node lat="66.32371389203797" lon="14.530083326229331" id="-8604">
		<tag k="name" v="Rundtjønna" />
		<tag k="natural" v="water" />
		<tag k="ssr:stedsnr" v="240666" />
	</node>
	<node lat="66.3497361155399" lon="14.562772224808835" id="-8612">
		<tag k="name" v="Østre Klemmettjønn" />
		<tag k="natural" v="water" />
		<tag k="ssr:stedsnr" v="240724" />
	</node>
	<node lat="66.4304638868022" lon="13.846366673089138" id="-8618">
		<tag k="alt_name" v="Lappkøtabekken" />
		<tag k="name" v="Lappkotabekken" />
		<tag k="ssr:stedsnr" v="240566" />
		<tag k="waterway" v="stream" />
	</node>
	<node lat="66.21433888557662" lon="14.260227777305584" id="-8622">
		<tag k="name" v="Leirbekken" />
		<tag k="ssr:stedsnr" v="240796" />
		<tag k="waterway" v="stream" />
	</node>
	<node lat="66.41135278222742" lon="14.084497216222355" id="-8627">
		<tag k="name" v="Holmtjønna" />
		<tag k="natural" v="water" />
		<tag k="ssr:stedsnr" v="240858" />
	</node>
	<node lat="66.27233333711412" lon="13.5155916713865" id="-8630">
		<tag k="name" v="Bjynnhaugforsen" />
		<tag k="natural" v="waterfall" />
		<tag k="ssr:stedsnr" v="240870" />
	</node>
	<node lat="66.22634999804946" lon="14.872055563175103" id="-8636">
		<tag k="name" v="Fiskarneset" />
		<tag k="natural" v="cape" />
		<tag k="ssr:stedsnr" v="76109" />
	</node>
	<node lat="66.24713332965572" lon="14.821677787626541" id="-8637">
		<tag k="name" v="Kyltjønnkjosen" />
		<tag k="natural" v="bay" />
		<tag k="ssr:stedsnr" v="76115" />
	</node>
	<node lat="66.23955833093143" lon="14.773899989479862" id="-8638">
		<tag k="name" v="Revet" />
		<tag k="ssr:stedsnr" v="76116" />
		<tag k="waterway" v="dam" />
	</node>
	<node lat="66.19074722325489" lon="15.111558343723834" id="-8640">
		<tag k="name" v="Djupvasskardtjønna" />
		<tag k="natural" v="water" />
		<tag k="ssr:stedsnr" v="76051" />
	</node>
	<node lat="66.20448889223863" lon="14.84412221507748" id="-8641">
		<tag k="name" v="Kåtabekken" />
		<tag k="ssr:stedsnr" v="76062" />
		<tag k="waterway" v="stream" />
	</node>
	<node lat="66.33668611217358" lon="14.408861102913116" id="-8644">
		<tag k="name" v="Flatlibekken" />
		<tag k="ssr:stedsnr" v="76351" />
		<tag k="waterway" v="stream" />
	</node>
	<node lat="66.33475555160783" lon="14.391072230773279" id="-8645">
		<tag k="name" v="Nordtjønna" />
		<tag k="natural" v="water" />
		<tag k="ssr:stedsnr" v="76353" />
	</node>
	<node lat="66.26078333634756" lon="14.552272211704068" id="-8647">
		<tag k="name" v="Gangtjønna" />
		<tag k="natural" v="water" />
		<tag k="ssr:stedsnr" v="76403" />
	</node>
	<node lat="66.46580833051097" lon="14.056897222142503" id="-8648">
		<tag k="name" v="Stillelva" />
		<tag k="ssr:stedsnr" v="76621" />
		<tag k="waterway" v="river" />
	</node>
	<node lat="66.23954444382952" lon="14.584008334007029" id="-8652">
		<tag k="name" v="Tverrbekken" />
		<tag k="ssr:stedsnr" v="76807" />
		<tag k="waterway" v="stream" />
	</node>
	<node lat="66.4505249961498" lon="14.026566664844863" id="-8653">
		<tag k="name" v="Forsliforsen" />
		<tag k="natural" v="waterfall" />
		<tag k="ssr:stedsnr" v="76866" />
	</node>
	<node lat="66.31225833609855" lon="13.96093332816736" id="-8659">
		<tag k="name" v="Stordalsbekken" />
		<tag k="ssr:stedsnr" v="77115" />
		<tag k="waterway" v="stream" />
	</node>
	<node lat="66.31948332931943" lon="14.171091668966177" id="-8661">
		<tag k="name" v="Tverråga" />
		<tag k="ssr:stedsnr" v="77119" />
		<tag k="waterway" v="river" />
	</node>
	<node lat="66.3046805529106" lon="13.748974991825794" id="-8664">
		<tag k="name" v="Langtjønna" />
		<tag k="natural" v="water" />
		<tag k="ssr:stedsnr" v="77126" />
	</node>
	<node lat="66.43754166859364" lon="14.334699989098066" id="-8666">
		<tag k="name" v="Stortjønnen" />
		<tag k="natural" v="water" />
		<tag k="ssr:stedsnr" v="77157" />
		<tag k="water" v="lake" />
	</node>
	<node lat="66.2730444466743" lon="14.185430559378213" id="-8667">
		<tag k="fixme" v="multiple name tags, choose one and add the other to alt_name" />
		<tag k="name" v="Sagbekken;Storlibekken" />
		<tag k="ssr:stedsnr" v="77165" />
		<tag k="waterway" v="stream" />
	</node>
	<node lat="66.38954722044112" lon="14.263744450300026" id="-8670">
		<tag k="name" v="Rufsholmen" />
		<tag k="place" v="islet" />
		<tag k="ssr:stedsnr" v="77209" />
	</node>
	<node lat="66.3847083303099" lon="14.247408324965734" id="-8671">
		<tag k="name" v="Aspnestjønna" />
		<tag k="natural" v="water" />
		<tag k="ssr:stedsnr" v="77210" />
	</node>
	<node lat="66.42108889095849" lon="14.692241657799618" id="-8674">
		<tag k="name" v="Kvannvatnet" />
		<tag k="natural" v="water" />
		<tag k="ssr:stedsnr" v="77218" />
	</node>
	<node lat="66.3554833343462" lon="14.645483336332672" id="-8678">
		<tag k="alt_name" v="Tørrtjørnin" />
		<tag k="name" v="Tørrtjønnan" />
		<tag k="natural" v="water" />
		<tag k="ssr:stedsnr" v="77263" />
		<tag k="water" v="lake" />
	</node>
	<node lat="66.27258055245532" lon="14.516361113865385" id="-8679">
		<tag k="name" v="Langneset" />
		<tag k="natural" v="cape" />
		<tag k="ssr:stedsnr" v="77409" />
	</node>
	<node lat="66.31153055863822" lon="14.627344439820192" id="-8680">
		<tag k="name" v="Damtjønna" />
		<tag k="natural" v="water" />
		<tag k="ssr:stedsnr" v="77353" />
	</node>
	<node lat="66.23615619070658" lon="14.553734000317514" id="-8682">
		<tag k="name" v="Tverrvatnet" />
		<tag k="natural" v="water" />
		<tag k="ssr:stedsnr" v="77398" />
		<tag k="water" v="lake" />
	</node>
	<node lat="66.32113703348224" lon="14.738550559557146" id="-8683">
		<tag k="fixme" v="multiple name tags, choose one and add the other to alt_name" />
		<tag k="name" v="Tjørebekken;Tjæradalsbekken" />
		<tag k="ssr:stedsnr" v="77549" />
		<tag k="waterway" v="stream" />
	</node>
	<node lat="66.40756666930443" lon="15.298158323392098" id="-8686">
		<tag k="name" v="Nordre Andfjelltjønna" />
		<tag k="natural" v="water" />
		<tag k="ssr:stedsnr" v="77603" />
	</node>
	<node lat="66.53428055937933" lon="14.87345833378202" id="-8687">
		<tag k="name" v="Bredekåga" />
		<tag k="ssr:stedsnr" v="77604" />
		<tag k="waterway" v="stream" />
	</node>
	<node lat="66.29760555814988" lon="15.421677773581015" id="-8689">
		<tag k="name" v="Sørbekken" />
		<tag k="ssr:stedsnr" v="77618" />
		<tag k="waterway" v="stream" />
	</node>
	<node lat="66.50973055635107" lon="15.33302499875923" id="-8690">
		<tag k="name" v="Stokkabekken - Ståkkåhajåhkå" />
		<tag k="name:no" v="Stokkabekken" />
		<tag k="name:smj" v="Ståkkåhajåhkå" />
		<tag k="old_name:smj" v="Stokkahajåkka" />
		<tag k="ssr:stedsnr" v="77651" />
		<tag k="waterway" v="stream" />
	</node>
	<node lat="66.30060000162587" lon="13.449838896274239" id="-8695">
		<tag k="name" v="Aurelva" />
		<tag k="ssr:stedsnr" v="77761" />
		<tag k="waterway" v="stream" />
	</node>
	<node lat="66.4232555555448" lon="14.43393333053167" id="-8717">
		<tag k="name" v="Kokesterkjelda" />
		<tag k="natural" v="spring" />
		<tag k="ssr:stedsnr" v="100525" />
	</node>
	<node lat="66.31863611322109" lon="14.481872229737299" id="-8720">
		<tag k="name" v="Vargtjønna" />
		<tag k="natural" v="water" />
		<tag k="ssr:stedsnr" v="100559" />
	</node>
	<node lat="66.27226389095185" lon="14.359866674974139" id="-8725">
		<tag k="name" v="Skilbekktjønnan" />
		<tag k="natural" v="water" />
		<tag k="ssr:stedsnr" v="100864" />
		<tag k="water" v="lake" />
	</node>
	<node lat="66.45664999973663" lon="15.106474990933355" id="-8726">
		<tag k="name" v="Silforsstranda" />
		<tag k="natural" v="beach" />
		<tag k="ssr:stedsnr" v="100965" />
	</node>
	<node lat="66.329158334812" lon="14.319822230132747" id="-8733">
		<tag k="name" v="Rundtjønna" />
		<tag k="natural" v="water" />
		<tag k="ssr:stedsnr" v="104014" />
	</node>
	<node lat="66.30001111522394" lon="14.346191671547627" id="-8736">
		<tag k="name" v="Tistelen" />
		<tag k="place" v="locality" />
		<tag k="ssr:stedsnr" v="104119" />
	</node>
	<node lat="66.39148610807017" lon="14.528880543626451" id="-8760">
		<tag k="name" v="Skjæran" />
		<tag k="place" v="islet" />
		<tag k="ssr:stedsnr" v="104788" />
	</node>
	<node lat="66.40493611383933" lon="14.45435276843645" id="-8762">
		<tag k="name" v="Langbekken" />
		<tag k="ssr:stedsnr" v="104796" />
		<tag k="waterway" v="stream" />
	</node>
	<node lat="66.40744444349185" lon="14.631436114976816" id="-8764">
		<tag k="name" v="Kvannbekken" />
		<tag k="ssr:stedsnr" v="104930" />
		<tag k="waterway" v="stream" />
	</node>
	<node lat="66.41119444576313" lon="14.622422225076358" id="-8765">
		<tag k="name" v="Lomtjønna" />
		<tag k="natural" v="water" />
		<tag k="ssr:stedsnr" v="104931" />
	</node>
	<node lat="66.39485832945446" lon="14.681566663345498" id="-8766">
		<tag k="name" v="Holmtjønna" />
		<tag k="natural" v="water" />
		<tag k="ssr:stedsnr" v="104933" />
	</node>
	<node lat="66.35725000375618" lon="13.418416662548598" id="-8772">
		<tag k="name" v="Nertjønna" />
		<tag k="natural" v="water" />
		<tag k="ssr:stedsnr" v="118219" />
		<tag k="water" v="lake" />
	</node>
	<node lat="66.20767222607648" lon="14.28832500642166" id="-8778">
		<tag k="name" v="Røykfossen" />
		<tag k="natural" v="waterfall" />
		<tag k="ssr:stedsnr" v="118782" />
	</node>
	<node lat="66.31149999820687" lon="14.784244452705764" id="-8785">
		<tag k="name" v="Storneset" />
		<tag k="natural" v="cape" />
		<tag k="ssr:stedsnr" v="119225" />
	</node>
	<node lat="66.38505832992621" lon="14.028897217787534" id="-8798">
		<tag k="name" v="Engesneset" />
		<tag k="natural" v="cape" />
		<tag k="ssr:stedsnr" v="119708" />
	</node>
	<node lat="66.27647222007927" lon="13.535755558973197" id="-8803">
		<tag k="name" v="Hellarbekken" />
		<tag k="ssr:stedsnr" v="119879" />
		<tag k="waterway" v="stream" />
	</node>
	<node lat="66.23453333387367" lon="14.092666661950664" id="-8812">
		<tag k="name" v="Hellbekken" />
		<tag k="ssr:stedsnr" v="136721" />
		<tag k="waterway" v="stream" />
	</node>
	<node lat="66.2185916641754" lon="13.930927771173433" id="-8815">
		<tag k="name" v="Kåtatjønnan" />
		<tag k="natural" v="water" />
		<tag k="ssr:stedsnr" v="136754" />
	</node>
	<node lat="66.46856944155645" lon="14.242786121628832" id="-8817">
		<tag k="name" v="Svartisåga" />
		<tag k="ssr:stedsnr" v="137102" />
		<tag k="waterway" v="river" />
	</node>
	<node lat="66.4368416695281" lon="14.31976666487496" id="-8818">
		<tag k="name" v="Småtjønnen" />
		<tag k="natural" v="water" />
		<tag k="ssr:stedsnr" v="137111" />
	</node>
	<node lat="66.25997221836145" lon="14.170327770291133" id="-8820">
		<tag k="name" v="Tverråga" />
		<tag k="ssr:stedsnr" v="137121" />
		<tag k="waterway" v="stream" />
	</node>
	<node lat="66.28658610901223" lon="14.098047211021742" id="-8823">
		<tag k="name" v="Andfiskåga" />
		<tag k="ssr:stedsnr" v="137133" />
		<tag k="waterway" v="river" />
	</node>
	<node lat="66.3929472223501" lon="14.597422228726824" id="-8824">
		<tag k="alt_name" v="Ømmervatna, l;Litl Ømmervatna" />
		<tag k="name" v="Litl Ømmervatnet" />
		<tag k="natural" v="water" />
		<tag k="ssr:stedsnr" v="137161" />
	</node>
	<node lat="66.3983694454748" lon="14.63152222128345" id="-8825">
		<tag k="name" v="Otertjønna" />
		<tag k="natural" v="water" />
		<tag k="ssr:stedsnr" v="137163" />
	</node>
	<node lat="66.42084166320284" lon="14.35398333312819" id="-8834">
		<tag k="name" v="Stjernetjønnen" />
		<tag k="natural" v="water" />
		<tag k="ssr:stedsnr" v="137196" />
	</node>
	<node lat="66.49906389317745" lon="15.000358327982674" id="-8836">
		<tag k="name" v="Mølnbekken" />
		<tag k="ssr:stedsnr" v="137360" />
		<tag k="waterway" v="stream" />
	</node>
	<node lat="66.56151944763701" lon="13.955488898774579" id="-8839">
		<tag k="name" v="Øvre Pikhaugvatnet" />
		<tag k="natural" v="water" />
		<tag k="ssr:stedsnr" v="137458" />
	</node>
	<node lat="66.46040000179761" lon="15.137838878010491" id="-8840">
		<tag k="fixme" v="multiple name tags, choose one and add the other to alt_name" />
		<tag k="name" v="Sagbekken;Raubergbekken" />
		<tag k="ssr:stedsnr" v="137461" />
		<tag k="waterway" v="stream" />
	</node>
	<node lat="66.45468889328069" lon="15.045752779966742" id="-8842">
		<tag k="name" v="Langtjønna" />
		<tag k="natural" v="water" />
		<tag k="ssr:stedsnr" v="137465" />
	</node>
	<node lat="66.41835833603157" lon="13.907147231649224" id="-8847">
		<tag k="name" v="Aven" />
		<tag k="natural" v="bay" />
		<tag k="ssr:stedsnr" v="137917" />
	</node>
	<node lat="66.4310888862264" lon="14.174347219867101" id="-8848">
		<tag k="name" v="Vassbukta" />
		<tag k="natural" v="bay" />
		<tag k="ssr:stedsnr" v="137921" />
	</node>
	<node lat="66.42351666682242" lon="14.031866675161837" id="-8851">
		<tag k="name" v="Nøkktjønna" />
		<tag k="natural" v="water" />
		<tag k="ssr:stedsnr" v="137895" />
	</node>
	<node lat="66.49502221933018" lon="13.911877786339321" id="-8852">
		<tag k="name" v="Slammerbekken" />
		<tag k="ssr:stedsnr" v="137998" />
		<tag k="waterway" v="stream" />
	</node>
	<node lat="66.2911000028487" lon="14.233274999936816" id="-8859">
		<tag k="name" v="Tjørna" />
		<tag k="natural" v="water" />
		<tag k="ssr:stedsnr" v="320413" />
	</node>
	<node lat="66.23498333173953" lon="15.31121945041485" id="-8860">
		<tag k="name" v="Guhkesbievrekjávrre" />
		<tag k="name:smj" v="Guhkesbievrekjávrre" />
		<tag k="natural" v="water" />
		<tag k="ssr:stedsnr" v="159102" />
	</node>
	<node lat="66.26846389262937" lon="15.285752781122843" id="-8861">
		<tag k="name" v="Stabburbekken - Njallajågåsj" />
		<tag k="name:no" v="Stabburbekken" />
		<tag k="name:smj" v="Njallajågåsj" />
		<tag k="old_name:smj" v="Njallajogaš" />
		<tag k="ssr:stedsnr" v="257654" />
		<tag k="waterway" v="stream" />
	</node>
	<node lat="66.20842499703393" lon="14.82574999265762" id="-8863">
		<tag k="name" v="Kåtatindtjønna" />
		<tag k="natural" v="water" />
		<tag k="ssr:stedsnr" v="258045" />
	</node>
	<node lat="66.40708055908715" lon="14.121186122416706" id="-8864">
		<tag k="name" v="Dreierhusbekken" />
		<tag k="ssr:stedsnr" v="258052" />
		<tag k="waterway" v="stream" />
	</node>
	<node lat="66.4149472216945" lon="14.666994443499624" id="-8869">
		<tag k="name" v="Nordre Holmbekken" />
		<tag k="ssr:stedsnr" v="258249" />
		<tag k="waterway" v="stream" />
	</node>
	<node lat="66.3251111125726" lon="14.434061113301807" id="-8871">
		<tag k="name" v="Fløtatjønna" />
		<tag k="natural" v="water" />
		<tag k="ssr:stedsnr" v="258340" />
	</node>
	<node lat="66.32647222346" lon="14.52462778269379" id="-8872">
		<tag k="name" v="Heimertjønna" />
		<tag k="natural" v="water" />
		<tag k="ssr:stedsnr" v="258344" />
	</node>
	<node lat="66.49654167054511" lon="15.06626389608152" id="-8873">
		<tag k="name" v="Storbekktjønna" />
		<tag k="natural" v="water" />
		<tag k="ssr:stedsnr" v="258382" />
	</node>
	<node lat="66.22095555684143" lon="13.908288891584661" id="-8877">
		<tag k="name" v="Akselengtjønnan" />
		<tag k="natural" v="water" />
		<tag k="ssr:stedsnr" v="258701" />
		<tag k="water" v="lake" />
	</node>
	<node lat="66.44513611398897" lon="13.825258323671996" id="-8880">
		<tag k="name" v="Leiråga" />
		<tag k="ssr:stedsnr" v="258893" />
		<tag k="waterway" v="stream" />
	</node>
	<node lat="66.28516944194386" lon="13.40240834290578" id="-8882">
		<tag k="name" v="Dragelva" />
		<tag k="ssr:stedsnr" v="258954" />
		<tag k="waterway" v="stream" />
	</node>
	<node lat="66.2132583312672" lon="14.539291676808828" id="-8886">
		<tag k="name" v="Fisktjønna" />
		<tag k="natural" v="water" />
		<tag k="ssr:stedsnr" v="258835" />
	</node>
	<node lat="66.32918888506427" lon="13.934519435963384" id="-8889">
		<tag k="name" v="Åmlibekken" />
		<tag k="ssr:stedsnr" v="259019" />
		<tag k="waterway" v="stream" />
	</node>
	<node lat="66.41100555439529" lon="14.187194446915953" id="-8890">
		<tag k="name" v="Bjørnåga" />
		<tag k="ssr:stedsnr" v="259028" />
		<tag k="waterway" v="stream" />
	</node>
	<node lat="66.3333333312456" lon="14.299999996486441" id="-8892">
		<tag k="name" v="Ranelva" />
		<tag k="ssr:stedsnr" v="259099" />
		<tag k="waterway" v="river" />
	</node>
	<node lat="66.38308055647916" lon="14.258452768533743" id="-8894">
		<tag k="name" v="Killingneset" />
		<tag k="natural" v="cape" />
		<tag k="ssr:stedsnr" v="259186" />
	</node>
	<node lat="66.30726389157282" lon="14.454083335474133" id="-8901">
		<tag k="name" v="Storkvannlitjønna" />
		<tag k="natural" v="water" />
		<tag k="ssr:stedsnr" v="259427" />
	</node>
	<node lat="66.29546388911353" lon="14.94666112147334" id="-8903">
		<tag k="name" v="Heinbergvatnan" />
		<tag k="natural" v="water" />
		<tag k="ssr:stedsnr" v="259531" />
	</node>
	<node lat="66.62913056009114" lon="14.731572213206086" id="-8904">
		<tag k="name" v="Hedningvatnet - Njárggajávrre" />
		<tag k="name:no" v="Hedningvatnet" />
		<tag k="name:smj" v="Njárggajávrre" />
		<tag k="natural" v="water" />
		<tag k="old_name:smj" v="Njargajavri" />
		<tag k="ssr:stedsnr" v="259533" />
	</node>
	<node lat="66.38707777443268" lon="15.141275006830318" id="-8905">
		<tag k="name" v="Kåtamobekken" />
		<tag k="ssr:stedsnr" v="259537" />
		<tag k="waterway" v="stream" />
	</node>
	<node lat="66.39033333634782" lon="14.78301388701269" id="-8907">
		<tag k="name" v="Johannestjønna" />
		<tag k="natural" v="water" />
		<tag k="ssr:stedsnr" v="259492" />
	</node>
	<node lat="66.37911944504964" lon="14.780980553951869" id="-8908">
		<tag k="name" v="Sørflattjønna" />
		<tag k="natural" v="water" />
		<tag k="ssr:stedsnr" v="259495" />
	</node>
	<node lat="66.3807138873236" lon="14.780519453257725" id="-8909">
		<tag k="name" v="Nordflattjønna" />
		<tag k="natural" v="water" />
		<tag k="ssr:stedsnr" v="259497" />
	</node>
	<node lat="66.23936666673693" lon="14.094988889870946" id="-8931">
		<tag k="name" v="Åranelva" />
		<tag k="ssr:stedsnr" v="164402" />
		<tag k="waterway" v="river" />
	</node>
	<node lat="66.23764721871424" lon="14.107047226502937" id="-8932">
		<tag k="name" v="Brattforsen" />
		<tag k="natural" v="waterfall" />
		<tag k="ssr:stedsnr" v="164404" />
	</node>
	<node lat="66.25769722016183" lon="13.591677785715632" id="-8936">
		<tag k="name" v="Kvitneselva" />
		<tag k="ssr:stedsnr" v="259992" />
		<tag k="waterway" v="stream" />
	</node>
	<node lat="66.47988333363321" lon="14.224836111210069" id="-8942">
		<tag k="name" v="Pølforsen" />
		<tag k="natural" v="waterfall" />
		<tag k="ssr:stedsnr" v="165126" />
	</node>
	<node lat="66.40988055216322" lon="14.28053611774584" id="-8945">
		<tag k="name" v="Forspøla" />
		<tag k="place" v="locality" />
		<tag k="ssr:stedsnr" v="165184" />
	</node>
	<node lat="66.34608611182755" lon="14.152888897545806" id="-8946">
		<tag k="name" v="Kvernbekken" />
		<tag k="ssr:stedsnr" v="165258" />
		<tag k="waterway" v="stream" />
	</node>
	<node lat="66.3331361150988" lon="14.202513897714626" id="-8949">
		<tag k="name" v="Granhattbekken" />
		<tag k="ssr:stedsnr" v="165473" />
		<tag k="waterway" v="stream" />
	</node>
	<node lat="66.42188888988048" lon="14.707133342463809" id="-8968">
		<tag k="name" v="Svarttjønna" />
		<tag k="natural" v="water" />
		<tag k="ssr:stedsnr" v="179005" />
	</node>
	<node lat="66.32433333509678" lon="14.82316110264009" id="-8969">
		<tag k="name" v="Knabbekken" />
		<tag k="ssr:stedsnr" v="179058" />
		<tag k="waterway" v="stream" />
	</node>
	<node lat="66.36048333334416" lon="14.77440556114408" id="-8970">
		<tag k="name" v="Flogengtjønna" />
		<tag k="natural" v="water" />
		<tag k="ssr:stedsnr" v="179011" />
	</node>
	<node lat="66.32260833759544" lon="14.857316668021017" id="-8971">
		<tag k="name" v="Elvstrendene" />
		<tag k="natural" v="beach" />
		<tag k="ssr:stedsnr" v="179064" />
	</node>
	<node lat="66.34808333321482" lon="13.444644454513721" id="-8975">
		<tag k="name" v="Buvikbekken" />
		<tag k="ssr:stedsnr" v="179230" />
		<tag k="waterway" v="stream" />
	</node>
	<node lat="66.31108889201371" lon="14.610061112713" id="-8982">
		<tag k="name" v="Hjarttjønna" />
		<tag k="natural" v="water" />
		<tag k="ssr:stedsnr" v="179410" />
	</node>
	<node lat="66.2270333294856" lon="14.200452779875015" id="-8984">
		<tag k="name" v="Trappfossen" />
		<tag k="natural" v="waterfall" />
		<tag k="ssr:stedsnr" v="179455" />
	</node>
	<node lat="66.38174166959377" lon="14.068777782255971" id="-8988">
		<tag k="name" v="Bjerkneset" />
		<tag k="natural" v="cape" />
		<tag k="ssr:stedsnr" v="179473" />
	</node>
	<node lat="66.42119444452038" lon="13.921833339736471" id="-8992">
		<tag k="name" v="Lamholmgreina" />
		<tag k="natural" v="strait" />
		<tag k="ssr:stedsnr" v="179516" />
	</node>
	<node lat="66.160652776852" lon="14.591869435351148" id="-8994">
		<tag k="name" v="Naustbekken" />
		<tag k="ssr:stedsnr" v="179519" />
		<tag k="waterway" v="stream" />
	</node>
	<node lat="66.48856944626904" lon="13.863902784948507" id="-8998">
		<tag k="name" v="Stilla" />
		<tag k="natural" v="water" />
		<tag k="ssr:stedsnr" v="179561" />
		<tag k="water" v="lake" />
	</node>
	<node lat="66.34016111561228" lon="13.986369443733803" id="-9001">
		<tag k="name" v="Øksforsen" />
		<tag k="natural" v="waterfall" />
		<tag k="ssr:stedsnr" v="179715" />
	</node>
	<node lat="66.23005833386398" lon="14.565844444977861" id="-9003">
		<tag k="name" v="Krokbekken" />
		<tag k="ssr:stedsnr" v="179725" />
		<tag k="waterway" v="stream" />
	</node>
	<node lat="66.68201667053421" lon="15.052433322908547" id="-9012">
		<tag k="name" v="Kruhkkegálav" />
		<tag k="name:smj" v="Kruhkkegálav" />
		<tag k="old_name:smj" v="Krukkigálav" />
		<tag k="place" v="locality" />
		<tag k="ssr:stedsnr" v="180271" />
	</node>
	<node lat="66.2351138858905" lon="14.881405551273964" id="-9015">
		<tag k="name" v="Kallvatnet - Gaallajaevrie" />
		<tag k="name:no" v="Kallvatnet" />
		<tag k="name:sma" v="Gaallajaevrie" />
		<tag k="natural" v="water" />
		<tag k="old_name:sma" v="Gállajávri;Gállájávrre;Gáliajávrre" />
		<tag k="ssr:stedsnr" v="197104" />
		<tag k="water" v="lake" />
	</node>
	<node lat="66.18841944510304" lon="14.608255554027215" id="-9022">
		<tag k="name" v="Kubbtjønna" />
		<tag k="natural" v="water" />
		<tag k="ssr:stedsnr" v="197857" />
	</node>
	<node lat="66.20122222203163" lon="14.412563878248621" id="-9023">
		<tag k="name" v="Krybbtjønna" />
		<tag k="natural" v="water" />
		<tag k="ssr:stedsnr" v="197861" />
	</node>
	<node lat="66.3673416681736" lon="14.099672222667245" id="-9024">
		<tag k="fixme" v="multiple name tags, choose one and add the other to alt_name" />
		<tag k="name" v="Kjesneset;Navarsneset" />
		<tag k="natural" v="cape" />
		<tag k="ssr:stedsnr" v="198004" />
	</node>
	<node lat="66.38019721844573" lon="14.158652787638824" id="-9025">
		<tag k="name" v="Kalvika" />
		<tag k="natural" v="bay" />
		<tag k="ssr:stedsnr" v="198007" />
	</node>
	<node lat="66.1350250010814" lon="14.539130545884548" id="-9028">
		<tag k="name" v="Middagstjønna" />
		<tag k="natural" v="water" />
		<tag k="ssr:stedsnr" v="198084" />
	</node>
	<node lat="66.3800055548682" lon="14.456719433642329" id="-9035">
		<tag k="alt_name" v="Påltjørnbekken" />
		<tag k="name" v="Påltjønnbekken" />
		<tag k="ssr:stedsnr" v="198264" />
		<tag k="waterway" v="stream" />
	</node>
	<node lat="66.38239166672484" lon="14.677713888857246" id="-9036">
		<tag k="name" v="Mårtjønna" />
		<tag k="natural" v="water" />
		<tag k="ssr:stedsnr" v="198269" />
	</node>
	<node lat="66.37266944316988" lon="14.252052767121684" id="-9037">
		<tag k="name" v="Granholmen" />
		<tag k="place" v="islet" />
		<tag k="ssr:stedsnr" v="198275" />
	</node>
	<node lat="66.47088611161466" lon="14.5078500039896" id="-9039">
		<tag k="name" v="Ytterdalsbekken" />
		<tag k="ssr:stedsnr" v="198116" />
		<tag k="waterway" v="stream" />
	</node>
	<node lat="66.44012777528663" lon="14.49477777383349" id="-9040">
		<tag k="alt_name" v="Sakriåga" />
		<tag k="name" v="Sakrisåga" />
		<tag k="ssr:stedsnr" v="198127" />
		<tag k="waterway" v="stream" />
	</node>
	<node lat="66.39312222628601" lon="14.613597233918926" id="-9042">
		<tag k="alt_name" v="Ømmervatna, store;Store Ømmervatna" />
		<tag k="name" v="Stor Ømmervatnet" />
		<tag k="natural" v="water" />
		<tag k="ssr:stedsnr" v="198170" />
	</node>
	<node lat="66.40079166724534" lon="14.285552787267264" id="-9043">
		<tag k="alt_name" v="Skarbekken" />
		<tag k="name" v="Skarddalsbekken" />
		<tag k="ssr:stedsnr" v="198177" />
		<tag k="waterway" v="stream" />
	</node>
	<node lat="66.46737778055027" lon="15.145169453872644" id="-9048">
		<tag k="name" v="Småtjønnan" />
		<tag k="natural" v="water" />
		<tag k="ssr:stedsnr" v="198463" />
	</node>
	<node lat="66.46873333333589" lon="14.932961119120336" id="-9050">
		<tag k="name" v="Messingåga - Siejphjohke" />
		<tag k="name:no" v="Messingåga" />
		<tag k="name:sma" v="Siejphjohke" />
		<tag k="old_name:sma" v="Seaibbetjohka" />
		<tag k="ssr:stedsnr" v="198466" />
		<tag k="waterway" v="river" />
	</node>
	<node lat="66.46692499533523" lon="15.038222231103576" id="-9051">
		<tag k="name" v="Østre Tørrbekken" />
		<tag k="ssr:stedsnr" v="198470" />
		<tag k="waterway" v="stream" />
	</node>
	<node lat="66.25985000126214" lon="14.254144448956874" id="-9053">
		<tag k="name" v="Skravlforsen" />
		<tag k="natural" v="waterfall" />
		<tag k="ssr:stedsnr" v="198361" />
	</node>
	<node lat="66.56779444279996" lon="14.689250010323077" id="-9055">
		<tag k="name" v="Jervåga" />
		<tag k="ssr:stedsnr" v="198509" />
		<tag k="waterway" v="stream" />
	</node>
	<node lat="66.36338055481396" lon="14.87536389035071" id="-9059">
		<tag k="name" v="Fjellhaugtjønna" />
		<tag k="natural" v="water" />
		<tag k="ssr:stedsnr" v="198504" />
	</node>
	<node lat="66.33132500129345" lon="15.06586388531683" id="-9061">
		<tag k="name" v="Blerekvatnet" />
		<tag k="natural" v="water" />
		<tag k="ssr:stedsnr" v="198517" />
		<tag k="water" v="lake" />
	</node>
	<node lat="66.31936944326915" lon="14.833769441466561" id="-9063">
		<tag k="name" v="Mølnhusbekken" />
		<tag k="ssr:stedsnr" v="198523" />
		<tag k="waterway" v="stream" />
	</node>
	<node lat="66.26550555164381" lon="14.90965277430564" id="-9068">
		<tag k="name" v="Tempelhaugtjønna" />
		<tag k="natural" v="water" />
		<tag k="ssr:stedsnr" v="198557" />
	</node>
	<node lat="66.55877777588451" lon="14.836286119208902" id="-9069">
		<tag k="name" v="Kvitvatnet" />
		<tag k="natural" v="water" />
		<tag k="ssr:stedsnr" v="198565" />
		<tag k="water" v="lake" />
	</node>
	<node lat="66.32739721884872" lon="15.403699992716493" id="-9073">
		<tag k="name" v="Nordbekken" />
		<tag k="ssr:stedsnr" v="198576" />
		<tag k="waterway" v="stream" />
	</node>
	<node lat="66.38183611503153" lon="13.721372230102945" id="-9076">
		<tag k="name" v="Isvatnet" />
		<tag k="natural" v="water" />
		<tag k="ssr:stedsnr" v="198807" />
		<tag k="water" v="lake" />
	</node>
	<node lat="66.36478333202548" lon="13.627313882129165" id="-9077">
		<tag k="alt_name" v="Fagervollvatnet, nedre" />
		<tag k="name" v="Nedre Fagervollvatnet" />
		<tag k="natural" v="water" />
		<tag k="ssr:stedsnr" v="198810" />
		<tag k="water" v="lake" />
	</node>
	<node lat="66.34340277630291" lon="13.644730564698055" id="-9078">
		<tag k="name" v="Holmvatnet" />
		<tag k="natural" v="water" />
		<tag k="ssr:stedsnr" v="198856" />
		<tag k="water" v="lake" />
	</node>
	<node lat="66.34412777406853" lon="13.625269435759018" id="-9079">
		<tag k="name" v="Baklitjønna" />
		<tag k="natural" v="water" />
		<tag k="ssr:stedsnr" v="198857" />
	</node>
	<node lat="66.34655277685113" lon="13.333463880828514" id="-9083">
		<tag k="name" v="Elvan" />
		<tag k="ssr:stedsnr" v="198873" />
		<tag k="waterway" v="stream" />
	</node>
	<node lat="66.32675000058123" lon="13.591019454200893" id="-9088">
		<tag k="name" v="Nordlivatnet" />
		<tag k="natural" v="water" />
		<tag k="ssr:stedsnr" v="198772" />
	</node>
	<node lat="66.30462499962404" lon="13.698494435162957" id="-9096">
		<tag k="name" v="Kvitnesbekken" />
		<tag k="ssr:stedsnr" v="267578" />
		<tag k="waterway" v="stream" />
	</node>
	<node lat="66.34905000168246" lon="14.59053056114869" id="-9108">
		<tag k="name" v="Steinkjerringtjønna" />
		<tag k="natural" v="water" />
		<tag k="ssr:stedsnr" v="221625" />
	</node>
	<node lat="66.42335000118752" lon="14.532605557164745" id="-9110">
		<tag k="name" v="Fjellbekken" />
		<tag k="ssr:stedsnr" v="221375" />
		<tag k="waterway" v="stream" />
	</node>
	<node lat="66.38199722230215" lon="14.436452775444417" id="-9113">
		<tag k="name" v="Svartbergneset" />
		<tag k="natural" v="cape" />
		<tag k="ssr:stedsnr" v="221529" />
	</node>
	<node lat="66.25788611361509" lon="14.246374990466652" id="-9115">
		<tag k="name" v="Hellbekken" />
		<tag k="ssr:stedsnr" v="221780" />
		<tag k="waterway" v="stream" />
	</node>
	<node lat="66.40999166548603" lon="14.310238881584846" id="-9116">
		<tag k="name" v="Nerlibekken" />
		<tag k="ssr:stedsnr" v="221927" />
		<tag k="waterway" v="stream" />
	</node>
	<node lat="66.27839444662486" lon="14.43173054751319" id="-9117">
		<tag k="name" v="Littj-Bjørntjønna" />
		<tag k="natural" v="water" />
		<tag k="ssr:stedsnr" v="221873" />
	</node>
	<node lat="66.38583888685467" lon="14.262769452886499" id="-9131">
		<tag k="name" v="Tyttebærnesodden" />
		<tag k="natural" v="cape" />
		<tag k="ssr:stedsnr" v="225244" />
	</node>
	<node lat="66.2329249989827" lon="14.044330549902845" id="-9134">
		<tag k="name" v="Granhattdalsbekken" />
		<tag k="ssr:stedsnr" v="225585" />
		<tag k="waterway" v="stream" />
	</node>
	<node lat="66.24591666482897" lon="14.011950001145609" id="-9136">
		<tag k="name" v="Storbruea" />
		<tag k="natural" v="water" />
		<tag k="ssr:stedsnr" v="225594" />
		<tag k="water" v="lake" />
	</node>
	<node lat="66.39182222038768" lon="14.56717778698026" id="-9141">
		<tag k="name" v="Lomtjønnan" />
		<tag k="natural" v="water" />
		<tag k="ssr:stedsnr" v="225793" />
	</node>
	<node lat="66.28124166749744" lon="14.121227772189647" id="-9147">
		<tag k="name" v="Vardskarbekken" />
		<tag k="ssr:stedsnr" v="226344" />
		<tag k="waterway" v="stream" />
	</node>
	<node lat="66.37856666677467" lon="14.399727772290026" id="-9152">
		<tag k="name" v="Svartvassholmen" />
		<tag k="place" v="islet" />
		<tag k="ssr:stedsnr" v="226890" />
	</node>
	<node lat="66.4146694451875" lon="14.68547776916" id="-9161">
		<tag k="name" v="Vestre Reintjønna" />
		<tag k="natural" v="water" />
		<tag k="ssr:stedsnr" v="240010" />
	</node>
	<node lat="66.3729583312039" lon="13.341113883740444" id="-9163">
		<tag k="name" v="Storelva" />
		<tag k="ssr:stedsnr" v="240212" />
		<tag k="waterway" v="stream" />
	</node>
	<node lat="66.36506944756485" lon="14.197802776460328" id="-9166">
		<tag k="name" v="Brattlibekken" />
		<tag k="ssr:stedsnr" v="240220" />
		<tag k="waterway" v="stream" />
	</node>
	<node lat="66.37922222242736" lon="14.773127787863993" id="-9171">
		<tag k="name" v="Stepptjønna" />
		<tag k="natural" v="water" />
		<tag k="ssr:stedsnr" v="240252" />
		<tag k="water" v="pond" />
	</node>
	<node lat="66.34394722349381" lon="13.372608333841418" id="-9174">
		<tag k="name" v="Melkarbekken" />
		<tag k="ssr:stedsnr" v="240195" />
		<tag k="waterway" v="stream" />
	</node>
	<node lat="66.27828055142524" lon="13.847455557956554" id="-9181">
		<tag k="name" v="Olalibekken" />
		<tag k="ssr:stedsnr" v="240580" />
		<tag k="waterway" v="stream" />
	</node>
	<node lat="66.37078889329698" lon="13.994344436558775" id="-9185">
		<tag k="name" v="Langnesengebekken" />
		<tag k="ssr:stedsnr" v="240501" />
		<tag k="waterway" v="stream" />
	</node>
	<node lat="66.2779222254533" lon="13.648075002792865" id="-9189">
		<tag k="name" v="Almlitjønna" />
		<tag k="natural" v="water" />
		<tag k="ssr:stedsnr" v="240906" />
	</node>
	<node lat="66.25731944251741" lon="15.324438883635333" id="-9199">
		<tag k="name" v="Rikardtjønna - Rihkarjávratja" />
		<tag k="name:no" v="Rikardtjønna" />
		<tag k="name:smj" v="Rihkarjávratja" />
		<tag k="natural" v="water" />
		<tag k="old_name:smj" v="Rihkarjávrražat" />
		<tag k="ssr:stedsnr" v="257655" />
	</node>
	<node lat="66.42629722453779" lon="13.921208334970872" id="-9200">
		<tag k="name" v="Nordelva" />
		<tag k="ssr:stedsnr" v="257656" />
		<tag k="waterway" v="river" />
	</node>
	<node lat="66.39831944851967" lon="14.217636102573499" id="-9201">
		<tag k="name" v="Rundtjønna" />
		<tag k="natural" v="water" />
		<tag k="ssr:stedsnr" v="258057" />
	</node>
	<node lat="66.36213333397497" lon="14.256527768372294" id="-9203">
		<tag k="name" v="Høyvikbekken" />
		<tag k="ssr:stedsnr" v="258307" />
		<tag k="waterway" v="stream" />
	</node>
	<node lat="66.34563333643082" lon="15.135072224389239" id="-9207">
		<tag k="name" v="Holmtjønna" />
		<tag k="natural" v="water" />
		<tag k="ssr:stedsnr" v="258521" />
	</node>
	<node lat="66.32108889047359" lon="14.874283326024411" id="-9208">
		<tag k="name" v="Skredbekken" />
		<tag k="ssr:stedsnr" v="258537" />
		<tag k="waterway" v="stream" />
	</node>
	<node lat="66.20768333494651" lon="14.628138899223675" id="-9215">
		<tag k="name" v="Sauvassåga" />
		<tag k="ssr:stedsnr" v="258854" />
		<tag k="waterway" v="stream" />
	</node>
	<node lat="66.16233888830646" lon="14.575638888890335" id="-9216">
		<tag k="name" v="Neset" />
		<tag k="natural" v="cape" />
		<tag k="ssr:stedsnr" v="258868" />
	</node>
	<node lat="66.34921944253428" lon="14.082341655659604" id="-9222">
		<tag k="alt_name" v="Ytterdalsbekken;Ytrabekkjen" />
		<tag k="name" v="Yttrabekken" />
		<tag k="ssr:stedsnr" v="259009" />
		<tag k="waterway" v="stream" />
	</node>
	<node lat="66.32033889035007" lon="14.470141670987436" id="-9223">
		<tag k="name" v="Sandtjønna" />
		<tag k="natural" v="water" />
		<tag k="ssr:stedsnr" v="259310" />
	</node>
	<node lat="66.34234166355357" lon="14.3862444349355" id="-9225">
		<tag k="alt_name" v="Hindbekken" />
		<tag k="name" v="Hinnbekken" />
		<tag k="ssr:stedsnr" v="259352" />
		<tag k="waterway" v="stream" />
	</node>
	<node lat="66.34365555332053" lon="14.591644439912676" id="-9227">
		<tag k="alt_name" v="Rauraptjønna" />
		<tag k="name" v="Raudraptjønna" />
		<tag k="natural" v="water" />
		<tag k="ssr:stedsnr" v="259356" />
	</node>
	<node lat="66.46465555505289" lon="14.378583334685832" id="-9228">
		<tag k="name" v="Snøbekken" />
		<tag k="ssr:stedsnr" v="259127" />
		<tag k="waterway" v="stream" />
	</node>
	<node lat="66.49891944064824" lon="14.431438881688463" id="-9231">
		<tag k="alt_name" v="Tverråga, øvre" />
		<tag k="name" v="Øvre Tverråga" />
		<tag k="ssr:stedsnr" v="259164" />
		<tag k="waterway" v="stream" />
	</node>
	<node lat="66.29950000338205" lon="14.289761107170277" id="-9237">
		<tag k="name" v="Flåbekken" />
		<tag k="ssr:stedsnr" v="259414" />
		<tag k="waterway" v="stream" />
	</node>
	<node lat="66.43357777694318" lon="15.169380551578563" id="-9238">
		<tag k="name" v="Svartbergkjelda" />
		<tag k="ssr:stedsnr" v="259444" />
		<tag k="waterway" v="stream" />
	</node>
	<node lat="66.45007499903919" lon="15.02299444038886" id="-9242">
		<tag k="name" v="Pistavatnet" />
		<tag k="natural" v="water" />
		<tag k="ssr:stedsnr" v="259461" />
	</node>
	<node lat="66.41958611015826" lon="13.849183332854658" id="-9251">
		<tag k="alt_name" v="Englanddalbekken" />
		<tag k="name" v="Engelidalsbekken" />
		<tag k="ssr:stedsnr" v="259931" />
		<tag k="waterway" v="stream" />
	</node>
	<node lat="66.42207500184774" lon="13.833197229544753" id="-9252">
		<tag k="alt_name" v="Trolldalsåga" />
		<tag k="name" v="Trolldalselva" />
		<tag k="ssr:stedsnr" v="259932" />
		<tag k="waterway" v="river" />
	</node>
	<node lat="66.29027222383827" lon="13.447925008709941" id="-9256">
		<tag k="alt_name" v="Høglitjørna" />
		<tag k="name" v="Høglitjønna" />
		<tag k="natural" v="water" />
		<tag k="ssr:stedsnr" v="259810" />
	</node>
	<node lat="66.28953055720154" lon="13.301683337088855" id="-9258">
		<tag k="name" v="Sjonfjellvatnet" />
		<tag k="natural" v="water" />
		<tag k="ssr:stedsnr" v="259821" />
	</node>
	<node lat="66.42277222121572" lon="13.363202786776043" id="-9260">
		<tag k="alt_name" v="Svarttjørna" />
		<tag k="name" v="Svarttjønna" />
		<tag k="natural" v="water" />
		<tag k="ssr:stedsnr" v="259848" />
	</node>
	<node lat="66.47777777478362" lon="14.862783342534605" id="-9267">
		<tag k="name" v="Kjosea" />
		<tag k="natural" v="water" />
		<tag k="ssr:stedsnr" v="282279" />
		<tag k="water" v="lake" />
	</node>
	<node lat="66.42970277526003" lon="14.495800010508598" id="-9272">
		<tag k="name" v="Hauabekken" />
		<tag k="ssr:stedsnr" v="282518" />
		<tag k="waterway" v="stream" />
	</node>
	<node lat="66.40255555916488" lon="14.354411111071766" id="-9280">
		<tag k="name" v="Reinhagatjønna" />
		<tag k="natural" v="water" />
		<tag k="ssr:stedsnr" v="282966" />
	</node>
	<node lat="66.3237638857799" lon="14.218558338479744" id="-9298">
		<tag k="name" v="Granholmen" />
		<tag k="place" v="islet" />
		<tag k="ssr:stedsnr" v="286438" />
	</node>
	<node lat="66.26059999700396" lon="13.975447223426572" id="-9301">
		<tag k="name" v="Varidalsbekken" />
		<tag k="ssr:stedsnr" v="286541" />
		<tag k="waterway" v="stream" />
	</node>
	<node lat="66.38670000188769" lon="14.552833333952604" id="-9310">
		<tag k="name" v="Mangholmbekken" />
		<tag k="ssr:stedsnr" v="286814" />
		<tag k="waterway" v="stream" />
	</node>
	<node lat="66.47579166465123" lon="14.3860416607975" id="-9311">
		<tag k="name" v="Langtjønna" />
		<tag k="natural" v="water" />
		<tag k="ssr:stedsnr" v="286834" />
	</node>
	<node lat="66.40094722012307" lon="14.715783330587351" id="-9319">
		<tag k="name" v="Gullbekken" />
		<tag k="ssr:stedsnr" v="286907" />
		<tag k="waterway" v="stream" />
	</node>
	<node lat="66.29547499592223" lon="13.324077772254636" id="-9334">
		<tag k="name" v="Imellaåga" />
		<tag k="ssr:stedsnr" v="300139" />
		<tag k="waterway" v="stream" />
	</node>
	<node lat="66.3853583341298" lon="13.435708328031009" id="-9336">
		<tag k="name" v="Storholmen" />
		<tag k="place" v="islet" />
		<tag k="ssr:stedsnr" v="300204" />
	</node>
	<node lat="66.4363944460114" lon="14.144849996356356" id="-9337">
		<tag k="name" v="Sundet" />
		<tag k="natural" v="strait" />
		<tag k="ssr:stedsnr" v="300176" />
	</node>
	<node lat="66.42964166619478" lon="14.740055554491828" id="-9339">
		<tag k="name" v="Tørrtjønna" />
		<tag k="natural" v="water" />
		<tag k="ssr:stedsnr" v="301004" />
	</node>
	<node lat="66.43306388525633" lon="14.802399991231711" id="-9344">
		<tag k="name" v="Hagakjeften" />
		<tag k="place" v="locality" />
		<tag k="ssr:stedsnr" v="301092" />
	</node>
	<node lat="66.43014999905245" lon="14.795050010376448" id="-9345">
		<tag k="name" v="Dunderlandsforsen" />
		<tag k="natural" v="waterfall" />
		<tag k="ssr:stedsnr" v="301094" />
	</node>
	<node lat="66.31343889189759" lon="14.636549995666376" id="-9347">
		<tag k="name" v="Rauvassbekken" />
		<tag k="ssr:stedsnr" v="301431" />
		<tag k="waterway" v="stream" />
	</node>
	<node lat="66.34722778005874" lon="14.016422221838685" id="-9358">
		<tag k="name" v="Strupen" />
		<tag k="natural" v="bay" />
		<tag k="ssr:stedsnr" v="301727" />
	</node>
	<node lat="66.46157778182517" lon="14.854077771408148" id="-9364">
		<tag k="name" v="Mølnhusbekken" />
		<tag k="ssr:stedsnr" v="301924" />
		<tag k="waterway" v="stream" />
	</node>
	<node lat="66.38880000271135" lon="14.345413896832026" id="-9366">
		<tag k="name" v="Rundtjønna" />
		<tag k="natural" v="water" />
		<tag k="ssr:stedsnr" v="463995" />
	</node>
	<node lat="66.28634999672113" lon="13.800374998885943" id="-9368">
		<tag k="alt_name" v="Falkflågbekken" />
		<tag k="name" v="Falkflogbekken" />
		<tag k="ssr:stedsnr" v="301975" />
		<tag k="waterway" v="stream" />
	</node>
	<node lat="66.31181388789867" lon="14.677602768088088" id="-9371">
		<tag k="name" v="Litlholmen" />
		<tag k="place" v="islet" />
		<tag k="ssr:stedsnr" v="464207" />
	</node>
	<node lat="66.49189166995953" lon="14.875513894076766" id="-9372">
		<tag k="name" v="Bomea" />
		<tag k="natural" v="water" />
		<tag k="ssr:stedsnr" v="464318" />
		<tag k="water" v="lake" />
	</node>
	<node lat="66.40060555829079" lon="14.021400004800899" id="-9379">
		<tag k="name" v="Storsteinen" />
		<tag k="place" v="islet" />
		<tag k="ssr:stedsnr" v="464391" />
	</node>
	<node lat="66.40029444269352" lon="14.067327787595376" id="-9380">
		<tag k="name" v="Innergløstjønna" />
		<tag k="natural" v="water" />
		<tag k="ssr:stedsnr" v="464392" />
	</node>
	<node lat="66.40932500437195" lon="13.952219446721603" id="-9381">
		<tag k="name" v="Skjelveraven" />
		<tag k="natural" v="cape" />
		<tag k="ssr:stedsnr" v="464481" />
	</node>
	<node lat="66.38538611440248" lon="14.438458332610852" id="-9384">
		<tag k="name" v="Kvitbergneset" />
		<tag k="natural" v="cape" />
		<tag k="ssr:stedsnr" v="464581" />
	</node>
	<node lat="66.38381666675801" lon="14.342613882332872" id="-9389">
		<tag k="name" v="Høglitjønna" />
		<tag k="natural" v="water" />
		<tag k="ssr:stedsnr" v="464999" />
	</node>
	<node lat="66.3412916641811" lon="14.078838892769234" id="-9391">
		<tag k="name" v="Furuhaugbekken" />
		<tag k="ssr:stedsnr" v="467293" />
		<tag k="waterway" v="stream" />
	</node>
	<node lat="66.2306666693258" lon="15.283372220233728" id="-9401">
		<tag k="name" v="Steintjønna - Gárggávrrejávrásj" />
		<tag k="name:no" v="Steintjønna" />
		<tag k="name:smj" v="Gárggávrrejávrásj" />
		<tag k="natural" v="water" />
		<tag k="old_name:smj" v="Gárgávrrejávrraš" />
		<tag k="ssr:stedsnr" v="318610" />
	</node>
	<node lat="66.24016110911974" lon="15.25948609989588" id="-9402">
		<tag k="name" v="Ardeken - Árddagajávrásj" />
		<tag k="name:no" v="Ardeken" />
		<tag k="name:smj" v="Árddagajávrásj" />
		<tag k="natural" v="water" />
		<tag k="old_name:smj" v="Árdagajávrraš" />
		<tag k="ssr:stedsnr" v="318611" />
	</node>
	<node lat="66.35324722001769" lon="13.742141667631966" id="-9403">
		<tag k="name" v="Stortjønna" />
		<tag k="natural" v="water" />
		<tag k="ssr:stedsnr" v="319003" />
	</node>
	<node lat="66.34961389320631" lon="13.95801667119551" id="-9404">
		<tag k="name" v="Ågtjønna" />
		<tag k="natural" v="water" />
		<tag k="ssr:stedsnr" v="319011" />
	</node>
	<node lat="66.36101666538225" lon="14.04608056149338" id="-9406">
		<tag k="name" v="Øyjordslendinga" />
		<tag k="natural" v="bay" />
		<tag k="ssr:stedsnr" v="319013" />
	</node>
	<node lat="66.34043055405657" lon="13.926880545499566" id="-9408">
		<tag k="alt_name" v="Grøntjørna, øvre" />
		<tag k="fixme" v="multiple name tags, choose one and add the other to alt_name" />
		<tag k="name" v="Grøntjønna;Øvre Grøntjønna" />
		<tag k="natural" v="water" />
		<tag k="ssr:stedsnr" v="319017" />
	</node>
	<node lat="66.34048055579144" lon="13.930680564066854" id="-9409">
		<tag k="alt_name" v="Grøntjørna, nedre" />
		<tag k="name" v="Nedre Grøntjønna" />
		<tag k="natural" v="water" />
		<tag k="ssr:stedsnr" v="319018" />
	</node>
	<node lat="66.36798611461343" lon="13.998011111460361" id="-9412">
		<tag k="name" v="Kvernbekken" />
		<tag k="ssr:stedsnr" v="319001" />
		<tag k="waterway" v="stream" />
	</node>
	<node lat="66.32882499787185" lon="14.030736108729974" id="-9413">
		<tag k="name" v="Stortjønna" />
		<tag k="natural" v="water" />
		<tag k="ssr:stedsnr" v="319102" />
	</node>
	<node lat="66.30983055392302" lon="13.946280558190688" id="-9414">
		<tag k="name" v="Slettaelva" />
		<tag k="ssr:stedsnr" v="319108" />
		<tag k="waterway" v="river" />
	</node>
	<node lat="66.27546389272807" lon="13.785788884041304" id="-9416">
		<tag k="name" v="Resatjønna" />
		<tag k="natural" v="water" />
		<tag k="ssr:stedsnr" v="319095" />
	</node>
	<node lat="66.39203888580896" lon="14.380236106809674" id="-9419">
		<tag k="alt_name" v="Illholbekken" />
		<tag k="name" v="Illhølbekken" />
		<tag k="ssr:stedsnr" v="319212" />
		<tag k="waterway" v="stream" />
	</node>
	<node lat="66.32850000093529" lon="14.456149996238594" id="-9433">
		<tag k="alt_name" v="Munkhaubekken" />
		<tag k="name" v="Munkhaugbekken" />
		<tag k="ssr:stedsnr" v="319320" />
		<tag k="waterway" v="stream" />
	</node>
	<node lat="66.2953388931056" lon="14.70478889305204" id="-9434">
		<tag k="name" v="Kvanntjønna" />
		<tag k="natural" v="water" />
		<tag k="ssr:stedsnr" v="319393" />
	</node>
	<node lat="66.33553055669886" lon="14.577355553543407" id="-9435">
		<tag k="name" v="Stortjønna" />
		<tag k="natural" v="water" />
		<tag k="ssr:stedsnr" v="319337" />
	</node>
	<node lat="66.63138611034256" lon="14.929288886500071" id="-9438">
		<tag k="name" v="Austergilvatnet - Gasskajávrre" />
		<tag k="name:no" v="Austergilvatnet" />
		<tag k="name:smj" v="Gasskajávrre" />
		<tag k="natural" v="water" />
		<tag k="ssr:stedsnr" v="319537" />
		<tag k="water" v="lake" />
	</node>
	<node lat="66.2714638889103" lon="14.90294722127217" id="-9439">
		<tag k="name" v="Steintjønna" />
		<tag k="natural" v="water" />
		<tag k="ssr:stedsnr" v="319549" />
	</node>
	<node lat="66.3652361076885" lon="14.771627774844555" id="-9442">
		<tag k="name" v="Silåga" />
		<tag k="ssr:stedsnr" v="319500" />
		<tag k="waterway" v="river" />
	</node>
	<node lat="66.38111388674541" lon="13.317461105233095" id="-9445">
		<tag k="name" v="Hundåga" />
		<tag k="ssr:stedsnr" v="319808" />
		<tag k="waterway" v="river" />
	</node>
	<node lat="66.4332277748447" lon="13.869688886850492" id="-9447">
		<tag k="name" v="Bukta" />
		<tag k="natural" v="water" />
		<tag k="ssr:stedsnr" v="319939" />
		<tag k="water" v="lake" />
	</node>
	<node lat="66.47120000484466" lon="13.905394434260154" id="-9451">
		<tag k="name" v="Rundtjønna" />
		<tag k="natural" v="water" />
		<tag k="ssr:stedsnr" v="319992" />
	</node>
	<node lat="66.49943611250626" lon="14.02914721433109" id="-9452">
		<tag k="name" v="Jonasvatnan" />
		<tag k="natural" v="water" />
		<tag k="ssr:stedsnr" v="320000" />
	</node>
	<node lat="66.4320500009373" lon="14.510288883406913" id="-9457">
		<tag k="name" v="Gangsbekken" />
		<tag k="ssr:stedsnr" v="320147" />
		<tag k="waterway" v="stream" />
	</node>
	<node lat="66.43820555250703" lon="14.18166943275934" id="-9459">
		<tag k="name" v="Reingardslivatnet" />
		<tag k="natural" v="water" />
		<tag k="ssr:stedsnr" v="319884" />
		<tag k="water" v="lake" />
	</node>
	<node lat="66.46675832987032" lon="13.895308321732463" id="-9461">
		<tag k="name" v="Pølbekken" />
		<tag k="ssr:stedsnr" v="319896" />
		<tag k="waterway" v="stream" />
	</node>
	<node lat="66.2724749960329" lon="14.656280562859227" id="-9464">
		<tag k="name" v="Storbekktjønnen" />
		<tag k="natural" v="water" />
		<tag k="ssr:stedsnr" v="320393" />
		<tag k="water" v="lake" />
	</node>
	<node lat="66.27219999938355" lon="14.357972232004565" id="-9465">
		<tag k="name" v="Skilltjønna" />
		<tag k="natural" v="water" />
		<tag k="ssr:stedsnr" v="320398" />
	</node>
	<node lat="66.61235277791148" lon="15.076005546543074" id="-9466">
		<tag k="name" v="Kvitsteinelva" />
		<tag k="ssr:stedsnr" v="320536" />
		<tag k="waterway" v="river" />
	</node>
	<node lat="66.61170000225201" lon="15.037047214845122" id="-9467">
		<tag k="name" v="Sørstilleelva" />
		<tag k="place" v="locality" />
		<tag k="ssr:stedsnr" v="320537" />
	</node>
	<node lat="66.40815833119788" lon="14.27370277518705" id="-9472">
		<tag k="name" v="Langtjønna" />
		<tag k="natural" v="water" />
		<tag k="ssr:stedsnr" v="468189" />
		<tag k="water" v="lake" />
	</node>
	<node lat="66.42877222647198" lon="13.386074993033468" id="-9475">
		<tag k="name" v="Nedre Mølntjønna" />
		<tag k="natural" v="water" />
		<tag k="ssr:stedsnr" v="320848" />
		<tag k="water" v="lake" />
	</node>
	<node lat="66.30204166232801" lon="14.34924723051702" id="-9479">
		<tag k="name" v="Jørigrava" />
		<tag k="place" v="locality" />
		<tag k="ssr:stedsnr" v="468349" />
	</node>
	<node lat="66.3296194462458" lon="13.531494436863992" id="-9499">
		<tag k="name" v="Johannes-bekken" />
		<tag k="ssr:stedsnr" v="468687" />
		<tag k="waterway" v="stream" />
	</node>
	<node lat="66.30473611364711" lon="13.758891661316976" id="-9500">
		<tag k="alt_name" v="Flågbekken" />
		<tag k="name" v="Flogbekken" />
		<tag k="ssr:stedsnr" v="468688" />
		<tag k="waterway" v="stream" />
	</node>
	<node lat="66.32185833694803" lon="14.374538888671108" id="-9508">
		<tag k="name" v="Søndre Grotjønn" />
		<tag k="natural" v="water" />
		<tag k="ssr:stedsnr" v="468824" />
	</node>
	<node lat="66.2963111119378" lon="14.376244441712696" id="-9513">
		<tag k="name" v="Lomtjønna" />
		<tag k="natural" v="water" />
		<tag k="ssr:stedsnr" v="468854" />
		<tag k="water" v="lake" />
	</node>
	<node lat="66.340686111049" lon="14.633108338890677" id="-9517">
		<tag k="name" v="Indre Damtjønna" />
		<tag k="natural" v="water" />
		<tag k="ssr:stedsnr" v="469926" />
	</node>
	<node lat="66.4479999957315" lon="13.943397226081922" id="-9519">
		<tag k="name" v="Gregustjønna" />
		<tag k="natural" v="water" />
		<tag k="ssr:stedsnr" v="327481" />
	</node>
	<node lat="66.40201666991665" lon="14.02044999132607" id="-9527">
		<tag k="name" v="Litl-Truskarneset" />
		<tag k="natural" v="cape" />
		<tag k="ssr:stedsnr" v="342351" />
	</node>
	<node lat="66.38141110950589" lon="14.315275006458963" id="-9535">
		<tag k="name" v="Mølnhusbekken" />
		<tag k="ssr:stedsnr" v="342992" />
		<tag k="waterway" v="stream" />
	</node>
	<node lat="66.47299999547442" lon="14.316894447705579" id="-9538">
		<tag k="name" v="Bjynnforsen" />
		<tag k="natural" v="waterfall" />
		<tag k="ssr:stedsnr" v="342893" />
	</node>
	<node lat="66.23411389237874" lon="14.127397225991668" id="-9548">
		<tag k="name" v="Håka-Mørnhuselva" />
		<tag k="ssr:stedsnr" v="346354" />
		<tag k="waterway" v="river" />
	</node>
	<node lat="66.38451666262802" lon="14.28433889181929" id="-9551">
		<tag k="name" v="Isterstranda" />
		<tag k="natural" v="beach" />
		<tag k="ssr:stedsnr" v="346260" />
	</node>
	<node lat="66.39300555944499" lon="14.684947220220037" id="-9564">
		<tag k="name" v="Kvitbergbekken" />
		<tag k="ssr:stedsnr" v="346926" />
		<tag k="waterway" v="stream" />
	</node>
	<node lat="66.29972777883107" lon="13.64639167273994" id="-9587">
		<tag k="name" v="Storforsen" />
		<tag k="natural" v="waterfall" />
		<tag k="ssr:stedsnr" v="347712" />
	</node>
	<node lat="66.29221389044451" lon="14.39392778708956" id="-9590">
		<tag k="name" v="Skartjønna" />
		<tag k="natural" v="water" />
		<tag k="ssr:stedsnr" v="347879" />
		<tag k="water" v="lake" />
	</node>
	<node lat="66.38488888753027" lon="14.416619451853531" id="-9592">
		<tag k="name" v="Tjæra-Sakritjønna" />
		<tag k="natural" v="water" />
		<tag k="ssr:stedsnr" v="347881" />
	</node>
	<node lat="66.36274722266948" lon="14.534333326984884" id="-9604">
		<tag k="name" v="Tisteltjønna" />
		<tag k="natural" v="water" />
		<tag k="ssr:stedsnr" v="379269" />
	</node>
	<node lat="66.26086944767806" lon="14.468569434353773" id="-9606">
		<tag k="fixme" v="multiple name tags, choose one and add the other to alt_name" />
		<tag k="name" v="Ulvtjønna;Uvtjønna" />
		<tag k="natural" v="water" />
		<tag k="ssr:stedsnr" v="379379" />
	</node>
	<node lat="66.25660000077039" lon="14.537086108607161" id="-9607">
		<tag k="name" v="Tverråga" />
		<tag k="ssr:stedsnr" v="379382" />
		<tag k="waterway" v="stream" />
	</node>
	<node lat="66.21662777965803" lon="13.953522220997177" id="-9608">
		<tag k="name" v="Langlitjønna" />
		<tag k="natural" v="water" />
		<tag k="ssr:stedsnr" v="379712" />
	</node>
	<node lat="66.2490944422095" lon="14.522641659584611" id="-9609">
		<tag k="name" v="Rognhaugbekken" />
		<tag k="ssr:stedsnr" v="379805" />
		<tag k="waterway" v="stream" />
	</node>
	<node lat="66.21468888662051" lon="14.55173055880065" id="-9611">
		<tag k="name" v="Fisktjønnbekken" />
		<tag k="ssr:stedsnr" v="379821" />
		<tag k="waterway" v="stream" />
	</node>
	<node lat="66.32274166910678" lon="14.03173611348816" id="-9617">
		<tag k="name" v="Langtjønna" />
		<tag k="natural" v="water" />
		<tag k="ssr:stedsnr" v="380108" />
	</node>
	<node lat="66.4775972217445" lon="14.336575001579309" id="-9623">
		<tag k="name" v="Storfjellbukta" />
		<tag k="natural" v="cape" />
		<tag k="ssr:stedsnr" v="380175" />
	</node>
	<node lat="66.40974166779208" lon="14.6009138782965" id="-9626">
		<tag k="name" v="Hesttjønna" />
		<tag k="natural" v="water" />
		<tag k="ssr:stedsnr" v="380226" />
	</node>
	<node lat="66.47546944272942" lon="14.988505548848947" id="-9632">
		<tag k="name" v="Heimre Tørrbekken" />
		<tag k="ssr:stedsnr" v="380505" />
		<tag k="waterway" v="stream" />
	</node>
	<node lat="66.48163888639158" lon="14.827577786626863" id="-9634">
		<tag k="alt_name" v="Fiskerbekken" />
		<tag k="name" v="Fiskarbekken" />
		<tag k="ssr:stedsnr" v="380513" />
		<tag k="waterway" v="stream" />
	</node>
	<node lat="66.38807778086134" lon="15.195097222127139" id="-9635">
		<tag k="name" v="Andfjellåga" />
		<tag k="ssr:stedsnr" v="380522" />
		<tag k="waterway" v="river" />
	</node>
	<node lat="66.58880555779054" lon="14.449816664109733" id="-9637">
		<tag k="name" v="Litldalsbekken - Vuobmegierajåhkå" />
		<tag k="name:no" v="Litldalsbekken" />
		<tag k="name:smj" v="Vuobmegierajåhkå" />
		<tag k="old_name:smj" v="Vuobmigierajåkka" />
		<tag k="ssr:stedsnr" v="380529" />
		<tag k="waterway" v="stream" />
	</node>
	<node lat="66.59506944622403" lon="14.679561119512705" id="-9638">
		<tag k="name" v="Sibmajåhkå" />
		<tag k="name:smj" v="Sibmajåhkå" />
		<tag k="old_name:smj" v="Sibmajåkka" />
		<tag k="ssr:stedsnr" v="380536" />
		<tag k="waterway" v="stream" />
	</node>
	<node lat="66.28044444181535" lon="14.806994452581423" id="-9644">
		<tag k="name" v="Slaktartjønna" />
		<tag k="natural" v="water" />
		<tag k="ssr:stedsnr" v="380584" />
	</node>
	<node lat="66.40065833541802" lon="15.081111111395735" id="-9645">
		<tag k="name" v="Jordbekkvatnan - Gaajsetjenjaevrieh" />
		<tag k="name:no" v="Jordbekkvatnan" />
		<tag k="name:sma" v="Gaajsetjenjaevrieh" />
		<tag k="natural" v="water" />
		<tag k="old_name:sma" v="Gáissažajávrrit" />
		<tag k="ssr:stedsnr" v="380461" />
		<tag k="water" v="lake" />
	</node>
	<node lat="66.411305555761" lon="15.080963888526965" id="-9647">
		<tag k="name" v="Småtindtjønna" />
		<tag k="natural" v="water" />
		<tag k="ssr:stedsnr" v="380470" />
	</node>
	<node lat="66.2631638865341" lon="14.922458329776983" id="-9648">
		<tag k="name" v="Langtjønna" />
		<tag k="natural" v="bay" />
		<tag k="ssr:stedsnr" v="380604" />
	</node>
	<node lat="66.57654722279989" lon="15.076675001276577" id="-9649">
		<tag k="name" v="Raudfjellelva" />
		<tag k="ssr:stedsnr" v="380607" />
		<tag k="waterway" v="river" />
	</node>
	<node lat="66.3217444483877" lon="15.307469442116169" id="-9651">
		<tag k="fixme" v="multiple name tags, choose one and add the other to alt_name" />
		<tag k="name" v="Virvasselva;Virvassåga - Vijriesjohke - Viresjåhkå" />
		<tag k="name:no" v="Virvasselva;Virvassåga" />
		<tag k="name:sma" v="Vijriesjohke" />
		<tag k="name:smj" v="Viresjåhkå" />
		<tag k="old_name:sma" v="Viresjohka" />
		<tag k="old_name:smj" v="Viresjohka" />
		<tag k="ssr:stedsnr" v="380621" />
		<tag k="waterway" v="river" />
	</node>
	<node lat="66.36630833529775" lon="15.281069445696971" id="-9654">
		<tag k="name" v="Sarkka" />
		<tag k="name:smj" v="Sarkka" />
		<tag k="old_name:smj" v="Sarka" />
		<tag k="ssr:stedsnr" v="380626" />
		<tag k="waterway" v="stream" />
	</node>
	<node lat="66.42043333767157" lon="14.201694436548296" id="-9657">
		<tag k="name" v="Dalengbekken" />
		<tag k="ssr:stedsnr" v="380906" />
		<tag k="waterway" v="stream" />
	</node>
	<node lat="66.27319721909349" lon="13.374694435958672" id="-9660">
		<tag k="name" v="Nordvikvatnet" />
		<tag k="natural" v="water" />
		<tag k="ssr:stedsnr" v="380926" />
	</node>
	<node lat="66.28506388752807" lon="13.692083339150399" id="-9661">
		<tag k="alt_name" v="Langtjørna" />
		<tag k="name" v="Langtjønna" />
		<tag k="natural" v="water" />
		<tag k="ssr:stedsnr" v="380960" />
	</node>
	<node lat="66.3534722263073" lon="13.513538885829771" id="-9663">
		<tag k="name" v="Pollvatnet" />
		<tag k="natural" v="water" />
		<tag k="ssr:stedsnr" v="380870" />
	</node>
	<node lat="66.39191110823973" lon="14.029952781881931" id="-9690">
		<tag k="name" v="Mølnbekken" />
		<tag k="ssr:stedsnr" v="483501" />
		<tag k="waterway" v="stream" />
	</node>
	<node lat="66.42907222047117" lon="13.885925010583717" id="-9694">
		<tag k="name" v="Petrineholmen" />
		<tag k="place" v="islet" />
		<tag k="ssr:stedsnr" v="483545" />
	</node>
	<node lat="66.15940555939899" lon="14.571466673681991" id="-9696">
		<tag k="name" v="Vestersundet" />
		<tag k="natural" v="strait" />
		<tag k="ssr:stedsnr" v="483555" />
	</node>
	<node lat="66.27964166965481" lon="14.531263887902295" id="-9707">
		<tag k="name" v="Medtiholmen" />
		<tag k="place" v="islet" />
		<tag k="ssr:stedsnr" v="483752" />
	</node>
	<node lat="66.29705555955138" lon="13.801849993111764" id="-9712">
		<tag k="name" v="Engesbekken" />
		<tag k="ssr:stedsnr" v="483988" />
		<tag k="waterway" v="stream" />
	</node>
	<node lat="66.31276389266918" lon="14.675258333440294" id="-9714">
		<tag k="name" v="Valen" />
		<tag k="natural" v="strait" />
		<tag k="ssr:stedsnr" v="403169" />
	</node>
	<node lat="66.41827500282231" lon="14.540405554254747" id="-9719">
		<tag k="name" v="Badstubekken" />
		<tag k="ssr:stedsnr" v="403377" />
		<tag k="waterway" v="stream" />
	</node>
	<node lat="66.41598055205554" lon="13.95456110153989" id="-9725">
		<tag k="name" v="Stakaholmgreina" />
		<tag k="natural" v="strait" />
		<tag k="ssr:stedsnr" v="403462" />
	</node>
	<node lat="66.41542500161673" lon="13.958480557585473" id="-9726">
		<tag k="name" v="Stakaholmen" />
		<tag k="place" v="islet" />
		<tag k="ssr:stedsnr" v="403464" />
	</node>
	<node lat="66.42298888741388" lon="14.087924989639523" id="-9727">
		<tag k="name" v="Svanåvassbekken" />
		<tag k="ssr:stedsnr" v="403466" />
		<tag k="waterway" v="stream" />
	</node>
	<node lat="66.41536388906442" lon="13.94811388781542" id="-9728">
		<tag k="name" v="Sørelva" />
		<tag k="natural" v="strait" />
		<tag k="ssr:stedsnr" v="403468" />
	</node>
	<node lat="66.2298527816135" lon="14.218197217504201" id="-9733">
		<tag k="name" v="Hølbekken" />
		<tag k="ssr:stedsnr" v="403793" />
		<tag k="waterway" v="stream" />
	</node>
	<node lat="66.3426305584771" lon="14.380072212704496" id="-9734">
		<tag k="name" v="Stupforsen" />
		<tag k="natural" v="waterfall" />
		<tag k="ssr:stedsnr" v="403912" />
	</node>
	<node lat="66.41951666985153" lon="15.159319449767413" id="-9738">
		<tag k="name" v="Østre Tomasstrandbekken" />
		<tag k="ssr:stedsnr" v="403978" />
		<tag k="waterway" v="stream" />
	</node>
	<node lat="66.38563888483607" lon="14.325852781113442" id="-9739">
		<tag k="name" v="Arnttjønna" />
		<tag k="natural" v="water" />
		<tag k="ssr:stedsnr" v="403986" />
	</node>
	<node lat="66.38796667079912" lon="14.326841668231767" id="-9740">
		<tag k="name" v="Brilltjønnan" />
		<tag k="natural" v="water" />
		<tag k="ssr:stedsnr" v="403987" />
		<tag k="water" v="lake" />
	</node>
	<node lat="66.33832777510483" lon="14.320827787816745" id="-9747">
		<tag k="name" v="Plurneset" />
		<tag k="natural" v="cape" />
		<tag k="ssr:stedsnr" v="407109" />
	</node>
	<node lat="66.37302500331833" lon="14.595699999404616" id="-9759">
		<tag k="name" v="Grønfjellneset" />
		<tag k="natural" v="cape" />
		<tag k="ssr:stedsnr" v="407944" />
	</node>
	<node lat="66.3061972196264" lon="14.281188881170745" id="-9764">
		<tag k="name" v="Brennåsholmen" />
		<tag k="place" v="islet" />
		<tag k="ssr:stedsnr" v="408441" />
	</node>
	<node lat="66.28917222132606" lon="14.373666656287439" id="-9772">
		<tag k="name" v="Granholmen" />
		<tag k="place" v="islet" />
		<tag k="ssr:stedsnr" v="408860" />
	</node>
	<node lat="66.41527500038097" lon="14.689933323754994" id="-9775">
		<tag k="name" v="Østre Reintjønna" />
		<tag k="natural" v="water" />
		<tag k="ssr:stedsnr" v="422006" />
	</node>
	<node lat="66.3642888859823" lon="14.755436110738929" id="-9776">
		<tag k="name" v="Høystakkneset" />
		<tag k="natural" v="cape" />
		<tag k="ssr:stedsnr" v="422015" />
	</node>
	<node lat="66.28159721895418" lon="14.891761112029421" id="-9777">
		<tag k="name" v="Lappsetbekken" />
		<tag k="ssr:stedsnr" v="422044" />
		<tag k="waterway" v="stream" />
	</node>
	<node lat="66.31246944656326" lon="14.783019435227708" id="-9783">
		<tag k="name" v="Bjerkneset" />
		<tag k="natural" v="cape" />
		<tag k="ssr:stedsnr" v="422213" />
	</node>
	<node lat="66.38254722191542" lon="14.118208340402873" id="-9789">
		<tag k="name" v="Mølnbekken" />
		<tag k="ssr:stedsnr" v="422115" />
		<tag k="waterway" v="stream" />
	</node>
	<node lat="66.34638611042028" lon="13.469905563847059" id="-9792">
		<tag k="name" v="Storåkerbekken" />
		<tag k="ssr:stedsnr" v="422153" />
		<tag k="waterway" v="stream" />
	</node>
	<node lat="66.42389166744918" lon="13.948963881569753" id="-9796">
		<tag k="name" v="Gammeljotjønna" />
		<tag k="natural" v="water" />
		<tag k="ssr:stedsnr" v="422490" />
	</node>
	<node lat="66.34793333145672" lon="13.993583321862689" id="-9802">
		<tag k="name" v="Dekenjordbekken" />
		<tag k="ssr:stedsnr" v="422738" />
		<tag k="waterway" v="stream" />
	</node>
	<node lat="66.4636444420942" lon="14.866249991338034" id="-9803">
		<tag k="name" v="Damforsen" />
		<tag k="natural" v="waterfall" />
		<tag k="ssr:stedsnr" v="422951" />
	</node>
	<node lat="66.47483333216259" lon="14.858086105132037" id="-9807">
		<tag k="name" v="Svartea" />
		<tag k="natural" v="water" />
		<tag k="ssr:stedsnr" v="423944" />
		<tag k="water" v="lake" />
	</node>
	<node lat="66.15797778262956" lon="14.559841656958342" id="-9810">
		<tag k="name" v="Vesterbukta" />
		<tag k="natural" v="bay" />
		<tag k="ssr:stedsnr" v="440146" />
	</node>
	<node lat="66.23750555136573" lon="14.546094449612124" id="-9817">
		<tag k="name" v="Tangen" />
		<tag k="natural" v="cape" />
		<tag k="ssr:stedsnr" v="440807" />
	</node>
	<node lat="66.20988055204833" lon="14.335344435537541" id="-9820">
		<tag k="name" v="Nevertjønna" />
		<tag k="natural" v="water" />
		<tag k="ssr:stedsnr" v="440820" />
	</node>
	<node lat="66.45550277362234" lon="13.984744453665508" id="-9822">
		<tag k="name" v="Skillebekken" />
		<tag k="ssr:stedsnr" v="440892" />
		<tag k="waterway" v="stream" />
	</node>
	<node lat="66.3746611113229" lon="14.008794452748097" id="-9827">
		<tag k="name" v="Langneset" />
		<tag k="natural" v="cape" />
		<tag k="ssr:stedsnr" v="441048" />
	</node>
	<node lat="66.3810694448855" lon="13.971852768233463" id="-9828">
		<tag k="name" v="Tverråga" />
		<tag k="ssr:stedsnr" v="441051" />
		<tag k="waterway" v="stream" />
	</node>
	<node lat="66.31294444327213" lon="14.598491659140453" id="-9846">
		<tag k="name" v="Kløfttjønna" />
		<tag k="natural" v="water" />
		<tag k="ssr:stedsnr" v="441315" />
	</node>
	<node lat="66.3177722223019" lon="14.531891667247162" id="-9847">
		<tag k="name" v="Malmbekken" />
		<tag k="ssr:stedsnr" v="441316" />
		<tag k="waterway" v="stream" />
	</node>
	<node lat="66.32506110808833" lon="14.396008324762178" id="-9848">
		<tag k="name" v="Gåstjønna" />
		<tag k="natural" v="water" />
		<tag k="ssr:stedsnr" v="441339" />
	</node>
	<node lat="66.35356111235664" lon="14.662408339640661" id="-9852">
		<tag k="name" v="Majavadet" />
		<tag k="place" v="locality" />
		<tag k="ssr:stedsnr" v="441244" />
	</node>
	<node lat="66.2888638903837" lon="14.692730546219579" id="-9855">
		<tag k="name" v="Østre Storbekken" />
		<tag k="ssr:stedsnr" v="441406" />
		<tag k="waterway" v="stream" />
	</node>
	<node lat="66.41180833645753" lon="15.04079999058503" id="-9856">
		<tag k="name" v="Lomtjønna" />
		<tag k="natural" v="water" />
		<tag k="ssr:stedsnr" v="441443" />
	</node>
	<node lat="66.47655277334638" lon="15.167575007276778" id="-9860">
		<tag k="name" v="Øvertjønna" />
		<tag k="natural" v="water" />
		<tag k="ssr:stedsnr" v="441494" />
	</node>
	<node lat="66.2956361125657" lon="15.129377772687064" id="-9862">
		<tag k="name" v="Østre Storakselbekken" />
		<tag k="ssr:stedsnr" v="441539" />
		<tag k="waterway" v="stream" />
	</node>
	<node lat="66.52769166521203" lon="15.003061119206789" id="-9864">
		<tag k="name" v="Storklumpbekken" />
		<tag k="ssr:stedsnr" v="441591" />
		<tag k="waterway" v="stream" />
	</node>
	<node lat="66.509800000074" lon="14.814083336018589" id="-9866">
		<tag k="name" v="Sløykbekken" />
		<tag k="ssr:stedsnr" v="441601" />
		<tag k="waterway" v="stream" />
	</node>
	<node lat="66.33305555164615" lon="13.554855551299893" id="-9872">
		<tag k="name" v="Kobbvatnet" />
		<tag k="natural" v="water" />
		<tag k="ssr:stedsnr" v="441793" />
	</node>
	<node lat="66.41862499718272" lon="14.087447230515552" id="-9875">
		<tag k="name" v="Kvitbergtjønna" />
		<tag k="natural" v="water" />
		<tag k="ssr:stedsnr" v="441915" />
	</node>
	<node lat="66.42075833028031" lon="13.961688899402956" id="-9877">
		<tag k="name" v="Pøla" />
		<tag k="natural" v="water" />
		<tag k="ssr:stedsnr" v="441936" />
	</node>
	<node lat="66.43512500289324" lon="14.136308339332363" id="-9878">
		<tag k="name" v="Søraven" />
		<tag k="natural" v="bay" />
		<tag k="ssr:stedsnr" v="441938" />
	</node>
	<node lat="66.31986944317153" lon="13.966522218345307" id="-9886">
		<tag k="name" v="Busteråga" />
		<tag k="ssr:stedsnr" v="449469" />
		<tag k="waterway" v="river" />
	</node>
	<node lat="66.417502775234" lon="14.605000001997139" id="-9894">
		<tag k="name" v="Stepbekken" />
		<tag k="ssr:stedsnr" v="464413" />
		<tag k="waterway" v="stream" />
	</node>
	<node lat="66.42839444842727" lon="14.05534445356535" id="-9901">
		<tag k="name" v="Kjelbonka" />
		<tag k="natural" v="water" />
		<tag k="ssr:stedsnr" v="464473" />
	</node>
	<node lat="66.48812499877648" lon="14.877597213102788" id="-9907">
		<tag k="name" v="Tjuvbekken" />
		<tag k="ssr:stedsnr" v="464373" />
		<tag k="waterway" v="stream" />
	</node>
	<node lat="66.32118889068919" lon="14.24871388293138" id="-9922">
		<tag k="name" v="Engesauren" />
		<tag k="natural" v="shoal" />
		<tag k="place" v="locality" />
		<tag k="ssr:stedsnr" v="468063" />
	</node>
	<node lat="66.35045000396283" lon="14.35740555300074" id="-9923">
		<tag k="name" v="Reinforsbekken" />
		<tag k="ssr:stedsnr" v="468076" />
		<tag k="waterway" v="stream" />
	</node>
	<node lat="66.43729166724944" lon="14.259933327330254" id="-9924">
		<tag k="name" v="Olderneset" />
		<tag k="natural" v="cape" />
		<tag k="ssr:stedsnr" v="468216" />
	</node>
	<node lat="66.45794722490011" lon="14.329158329041661" id="-9928">
		<tag k="name" v="Holman" />
		<tag k="place" v="islet" />
		<tag k="ssr:stedsnr" v="468166" />
	</node>
	<node lat="66.25279722251625" lon="14.039372218114838" id="-9934">
		<tag k="name" v="Skredalsbekken" />
		<tag k="ssr:stedsnr" v="468487" />
		<tag k="waterway" v="stream" />
	</node>
	<node lat="66.22303333602339" lon="14.813291660271549" id="-9943">
		<tag k="name" v="Medtibekken" />
		<tag k="ssr:stedsnr" v="468668" />
		<tag k="waterway" v="stream" />
	</node>
	<node lat="66.40751666601906" lon="14.442055546008387" id="-9945">
		<tag k="name" v="Svarttjønna" />
		<tag k="natural" v="water" />
		<tag k="ssr:stedsnr" v="468811" />
		<tag k="water" v="lake" />
	</node>
	<node lat="66.30661111255318" lon="13.568797214881817" id="-9947">
		<tag k="name" v="Djupabekken" />
		<tag k="ssr:stedsnr" v="468862" />
		<tag k="waterway" v="stream" />
	</node>
	<node lat="66.39375555194445" lon="14.24690278159855" id="-9959">
		<tag k="name" v="Matvassbekken" />
		<tag k="ssr:stedsnr" v="470783" />
		<tag k="waterway" v="stream" />
	</node>
	<node lat="66.48354444421432" lon="14.988411116709402" id="-9968">
		<tag k="name" v="Gårdsbekken" />
		<tag k="ssr:stedsnr" v="482021" />
		<tag k="waterway" v="stream" />
	</node>
	<node lat="66.21721666750601" lon="14.339125002028194" id="-9973">
		<tag k="name" v="Austtjønna" />
		<tag k="natural" v="water" />
		<tag k="ssr:stedsnr" v="482778" />
	</node>
	<node lat="66.35782777825885" lon="14.680849994795155" id="-9980">
		<tag k="name" v="Sagbekken" />
		<tag k="ssr:stedsnr" v="483284" />
		<tag k="waterway" v="stream" />
	</node>
	<node lat="66.30935000294534" lon="14.586313888516582" id="-9981">
		<tag k="name" v="Kvalhaugtjønnan" />
		<tag k="natural" v="water" />
		<tag k="ssr:stedsnr" v="483460" />
		<tag k="water" v="lake" />
	</node>
	<node lat="66.31632778118626" lon="13.92588334404777" id="-9991">
		<tag k="name" v="Stupforsen" />
		<tag k="natural" v="waterfall" />
		<tag k="ssr:stedsnr" v="483564" />
	</node>
	<node lat="66.34179166966558" lon="13.957580556157366" id="-10000">
		<tag k="name" v="Djupbekken" />
		<tag k="ssr:stedsnr" v="483774" />
		<tag k="waterway" v="stream" />
	</node>
	<node lat="66.14131110907353" lon="14.560822228799115" id="-10004">
		<tag k="name" v="Johannes Nilsa-bukta" />
		<tag k="natural" v="bay" />
		<tag k="ssr:stedsnr" v="501106" />
	</node>
	<node lat="66.33110277557886" lon="14.434641675759309" id="-10012">
		<tag k="name" v="Langtjønna" />
		<tag k="natural" v="water" />
		<tag k="ssr:stedsnr" v="501324" />
	</node>
	<node lat="66.33863333112348" lon="14.558955561050404" id="-10014">
		<tag k="name" v="Svarttjønna" />
		<tag k="natural" v="water" />
		<tag k="ssr:stedsnr" v="501332" />
	</node>
	<node lat="66.42214722061112" lon="14.308244437621767" id="-10018">
		<tag k="name" v="Midtibekktjønna" />
		<tag k="natural" v="water" />
		<tag k="ssr:stedsnr" v="501217" />
	</node>
	<node lat="66.406216668561" lon="14.445072225516997" id="-10019">
		<tag k="name" v="Langbekktjønna" />
		<tag k="natural" v="water" />
		<tag k="ssr:stedsnr" v="501219" />
	</node>
	<node lat="66.31050277461891" lon="14.350108321923486" id="-10023">
		<tag k="name" v="Sagbekken" />
		<tag k="ssr:stedsnr" v="501408" />
		<tag k="waterway" v="stream" />
	</node>
	<node lat="66.39810833045496" lon="14.830116664219613" id="-10024">
		<tag k="name" v="Langtjønnan" />
		<tag k="natural" v="water" />
		<tag k="ssr:stedsnr" v="501427" />
		<tag k="water" v="lake" />
	</node>
	<node lat="66.4246138882029" lon="14.744600010644529" id="-10025">
		<tag k="name" v="Stortjønna" />
		<tag k="natural" v="water" />
		<tag k="ssr:stedsnr" v="501438" />
	</node>
	<node lat="66.24753333505149" lon="14.214355554543872" id="-10028">
		<tag k="name" v="Falktindtjønna" />
		<tag k="natural" v="water" />
		<tag k="ssr:stedsnr" v="501632" />
	</node>
	<node lat="66.28573333248657" lon="14.484230559274087" id="-10029">
		<tag k="fixme" v="multiple name tags, choose one and add the other to alt_name" />
		<tag k="name" v="Raudvassaven;Storaven" />
		<tag k="natural" v="bay" />
		<tag k="ssr:stedsnr" v="501387" />
	</node>
	<node lat="66.36185555941532" lon="15.105105552041508" id="-10031">
		<tag k="name" v="Litlblereken" />
		<tag k="natural" v="water" />
		<tag k="ssr:stedsnr" v="501502" />
	</node>
	<node lat="66.33616388943736" lon="14.877602774197141" id="-10033">
		<tag k="alt_name" v="Kobbervasselva" />
		<tag k="name" v="Kopparvassåga" />
		<tag k="ssr:stedsnr" v="501505" />
		<tag k="waterway" v="river" />
	</node>
	<node lat="66.51436389305739" lon="14.605624991257747" id="-10035">
		<tag k="name" v="Suorgisjåhkå" />
		<tag k="name:smj" v="Suorgisjåhkå" />
		<tag k="old_name:smj" v="Suorgisjåkka" />
		<tag k="ssr:stedsnr" v="501515" />
		<tag k="waterway" v="stream" />
	</node>
	<node lat="66.28942777345205" lon="14.782749997370214" id="-10036">
		<tag k="name" v="Vestre Skillbekken" />
		<tag k="ssr:stedsnr" v="501527" />
		<tag k="waterway" v="stream" />
	</node>
	<node lat="66.29047778144212" lon="15.179244454515231" id="-10037">
		<tag k="name" v="B-tjønna" />
		<tag k="natural" v="water" />
		<tag k="ssr:stedsnr" v="501530" />
	</node>
	<node lat="66.2618694423086" lon="14.911311105187274" id="-10040">
		<tag k="name" v="Litle Tempelhaugtjønna" />
		<tag k="natural" v="water" />
		<tag k="ssr:stedsnr" v="501538" />
	</node>
	<node lat="66.29714166878061" lon="13.389058335542442" id="-10042">
		<tag k="name" v="Hønåga" />
		<tag k="ssr:stedsnr" v="501738" />
		<tag k="waterway" v="stream" />
	</node>
	<node lat="66.15992222297274" lon="14.472016661399769" id="-10046">
		<tag k="name" v="Mogresfjelltjønna" />
		<tag k="natural" v="water" />
		<tag k="ssr:stedsnr" v="501835" />
	</node>
	<node lat="66.44544722581252" lon="13.918094440212013" id="-10048">
		<tag k="name" v="Sagbekken" />
		<tag k="ssr:stedsnr" v="501889" />
		<tag k="waterway" v="stream" />
	</node>
	<node lat="66.3743333303837" lon="13.698599989214237" id="-10049">
		<tag k="alt_name" v="Isvatnet, litle" />
		<tag k="name" v="Litle Isvatnet" />
		<tag k="natural" v="water" />
		<tag k="ssr:stedsnr" v="501790" />
		<tag k="water" v="lake" />
	</node>
	<node lat="66.43084999741798" lon="13.939099994508625" id="-10051">
		<tag k="name" v="Svarttjønna" />
		<tag k="natural" v="water" />
		<tag k="ssr:stedsnr" v="501915" />
	</node>
	<node lat="66.42603333037363" lon="13.875055550222722" id="-10052">
		<tag k="name" v="Litlvatnet" />
		<tag k="natural" v="water" />
		<tag k="ssr:stedsnr" v="501916" />
		<tag k="water" v="lake" />
	</node>
	<node lat="66.28950833031443" lon="14.620449996098774" id="-10059">
		<tag k="name" v="Petterbekken" />
		<tag k="ssr:stedsnr" v="502412" />
		<tag k="waterway" v="stream" />
	</node>
	<node lat="66.5794666665668" lon="14.441925003112578" id="-10061">
		<tag k="alt_name:no" v="Fossbekken, nedre" />
		<tag k="name" v="Nedre Fossbekken - Vuolle-Gårttjejåhkå" />
		<tag k="name:no" v="Nedre Fossbekken" />
		<tag k="name:smj" v="Vuolle-Gårttjejåhkå" />
		<tag k="old_name:smj" v="Vuolligåržijåkka" />
		<tag k="ssr:stedsnr" v="502676" />
		<tag k="waterway" v="stream" />
	</node>
	<node lat="66.4950916710497" lon="14.160294436465305" id="-10065">
		<tag k="name" v="Svartisvatnet" />
		<tag k="natural" v="water" />
		<tag k="ssr:stedsnr" v="683977" />
		<tag k="water" v="lake" />
	</node>
	<node lat="66.26511944112625" lon="14.759372224693067" id="-10066">
		<tag k="name" v="Damtjønna" />
		<tag k="natural" v="water" />
		<tag k="ssr:stedsnr" v="682677" />
	</node>
	<node lat="66.21790277434921" lon="13.944811115791978" id="-10068">
		<tag k="name" v="Høglitjønna" />
		<tag k="natural" v="water" />
		<tag k="ssr:stedsnr" v="682788" />
	</node>
	<node lat="66.21439166648365" lon="13.93839445029864" id="-10069">
		<tag k="name" v="Steinlibekken" />
		<tag k="ssr:stedsnr" v="682791" />
		<tag k="waterway" v="stream" />
	</node>
	<node lat="66.24466110974446" lon="14.25371665964046" id="-10070">
		<tag k="name" v="Tvillingtjønnan" />
		<tag k="natural" v="water" />
		<tag k="ssr:stedsnr" v="682842" />
		<tag k="water" v="lake" />
	</node>
	<node lat="66.34434444713781" lon="13.93015832571337" id="-10072">
		<tag k="alt_name" v="Langtjørna, in" />
		<tag k="name" v="Inner-Langtjønna" />
		<tag k="natural" v="water" />
		<tag k="ssr:stedsnr" v="683012" />
	</node>
	<node lat="66.34171111436233" lon="13.91789722205611" id="-10073">
		<tag k="alt_name" v="Langtjørna, yt" />
		<tag k="name" v="Ytter-Langtjønna" />
		<tag k="natural" v="water" />
		<tag k="ssr:stedsnr" v="683013" />
	</node>
	<node lat="66.28139999856226" lon="13.812458343212478" id="-10076">
		<tag k="fixme" v="multiple name tags, choose one and add the other to alt_name" />
		<tag k="name" v="Indre Eidbukttjønna;Innereidtjønna" />
		<tag k="natural" v="water" />
		<tag k="ssr:stedsnr" v="683069" />
	</node>
	<node lat="66.28730555868859" lon="14.139394442488074" id="-10079">
		<tag k="alt_name" v="Vardskartjønna" />
		<tag k="name" v="Vardskardvatnet" />
		<tag k="natural" v="water" />
		<tag k="ssr:stedsnr" v="683077" />
	</node>
	<node lat="66.24118611186923" lon="14.907980565421424" id="-10082">
		<tag k="name" v="Storholmen" />
		<tag k="place" v="islet" />
		<tag k="ssr:stedsnr" v="683086" />
	</node>
	<node lat="66.14775277742196" lon="14.57208611433008" id="-10084">
		<tag k="name" v="Umbukta" />
		<tag k="natural" v="water" />
		<tag k="ssr:stedsnr" v="683095" />
		<tag k="water" v="lake" />
	</node>
	<node lat="66.14873611100985" lon="14.613191668261017" id="-10085">
		<tag k="name" v="Krabbfjelltjønna" />
		<tag k="natural" v="water" />
		<tag k="ssr:stedsnr" v="683099" />
	</node>
	<node lat="66.33057222045166" lon="14.66795832161574" id="-10094">
		<tag k="name" v="Langtjønna" />
		<tag k="natural" v="water" />
		<tag k="ssr:stedsnr" v="683331" />
	</node>
	<node lat="66.41114166574962" lon="14.66216111076829" id="-10098">
		<tag k="name" v="Søre Holmbekken" />
		<tag k="ssr:stedsnr" v="683190" />
		<tag k="waterway" v="stream" />
	</node>
	<node lat="66.46571944833876" lon="14.831744453318043" id="-10101">
		<tag k="alt_name" v="Skrebekken" />
		<tag k="name" v="Skredbekken" />
		<tag k="ssr:stedsnr" v="683451" />
		<tag k="waterway" v="stream" />
	</node>
	<node lat="66.2929222193699" lon="14.905124994293187" id="-10103">
		<tag k="name" v="Klimptjønna" />
		<tag k="natural" v="water" />
		<tag k="ssr:stedsnr" v="683513" />
	</node>
	<node lat="66.64397222207377" lon="15.015808331928026" id="-10106">
		<tag k="name" v="Kjeldeelva - Ednamjåhkå" />
		<tag k="name:no" v="Kjeldeelva" />
		<tag k="name:smj" v="Ednamjåhkå" />
		<tag k="old_name:smj" v="Ædnamjåkka" />
		<tag k="ssr:stedsnr" v="683531" />
		<tag k="waterway" v="river" />
	</node>
	<node lat="66.25152222252058" lon="14.983555560015018" id="-10109">
		<tag k="alt_name" v="Junkeråka" />
		<tag k="name" v="Junkeråga" />
		<tag k="ssr:stedsnr" v="683539" />
		<tag k="waterway" v="stream" />
	</node>
	<node lat="66.38873055914004" lon="13.37153611580942" id="-10115">
		<tag k="name" v="Gråvatnet" />
		<tag k="natural" v="water" />
		<tag k="ssr:stedsnr" v="683795" />
		<tag k="water" v="lake" />
	</node>
	<node lat="66.19890555943707" lon="14.309958341958854" id="-10118">
		<tag k="name" v="Lappholmen" />
		<tag k="natural" v="cape" />
		<tag k="ssr:stedsnr" v="683824" />
	</node>
	<node lat="66.27152499711798" lon="13.5248611049554" id="-10124">
		<tag k="name" v="Purkneselva" />
		<tag k="ssr:stedsnr" v="683936" />
		<tag k="waterway" v="stream" />
	</node>
	<node lat="66.40710832913871" lon="13.889677772454261" id="-10126">
		<tag k="name" v="Bordvedåga" />
		<tag k="ssr:stedsnr" v="684029" />
		<tag k="waterway" v="stream" />
	</node>
	<node lat="66.42955277619089" lon="14.269672232342337" id="-10129">
		<tag k="name" v="Midtibekken" />
		<tag k="ssr:stedsnr" v="684139" />
		<tag k="waterway" v="stream" />
	</node>
	<node lat="66.40831389341061" lon="15.103566666161528" id="-10133">
		<tag k="name" v="Jordbekkvatnet - Jijhtoejaevrie" />
		<tag k="name:no" v="Jordbekkvatnet" />
		<tag k="name:sma" v="Jijhtoejaevrie" />
		<tag k="natural" v="water" />
		<tag k="old_name:sma" v="Jiidujávri" />
		<tag k="ssr:stedsnr" v="684428" />
		<tag k="water" v="lake" />
	</node>
	<node lat="66.3997027759553" lon="14.808677776630379" id="-10134">
		<tag k="name" v="Flattjønna" />
		<tag k="natural" v="water" />
		<tag k="ssr:stedsnr" v="684429" />
	</node>
	<node lat="66.27112499554758" lon="14.558188895983406" id="-10135">
		<tag k="name" v="Pettertjønna" />
		<tag k="natural" v="water" />
		<tag k="ssr:stedsnr" v="684395" />
	</node>
	<node lat="66.43847222050061" lon="15.104269441505634" id="-10138">
		<tag k="name" v="Breidalsbekkan" />
		<tag k="ssr:stedsnr" v="684443" />
		<tag k="waterway" v="stream" />
	</node>
	<node lat="66.43327222597709" lon="14.066658339160444" id="-10141">
		<tag k="name" v="Reinhagabekken" />
		<tag k="ssr:stedsnr" v="684928" />
		<tag k="waterway" v="stream" />
	</node>
	<node lat="66.41634166438207" lon="14.505880543825006" id="-10146">
		<tag k="alt_name" v="Ørtvatnet" />
		<tag k="name" v="Ørvatnet" />
		<tag k="natural" v="water" />
		<tag k="ssr:stedsnr" v="524440" />
	</node>
	<node lat="66.23398611131029" lon="14.31068887995665" id="-10151">
		<tag k="name" v="Sørbukta" />
		<tag k="natural" v="bay" />
		<tag k="ssr:stedsnr" v="524780" />
	</node>
	<node lat="66.25515277480959" lon="14.22689444535469" id="-10152">
		<tag k="name" v="Kvannbekken" />
		<tag k="ssr:stedsnr" v="524781" />
		<tag k="waterway" v="stream" />
	</node>
	<node lat="66.20698055816968" lon="14.328975006550396" id="-10155">
		<tag k="name" v="Neverbekken" />
		<tag k="ssr:stedsnr" v="524788" />
		<tag k="waterway" v="stream" />
	</node>
	<node lat="66.33291111170244" lon="13.952775005699086" id="-10160">
		<tag k="name" v="Olandbekken" />
		<tag k="ssr:stedsnr" v="527622" />
		<tag k="waterway" v="stream" />
	</node>
	<node lat="66.24463888612755" lon="14.09201389490004" id="-10172">
		<tag k="name" v="Illhullbekken" />
		<tag k="ssr:stedsnr" v="528411" />
		<tag k="waterway" v="stream" />
	</node>
	<node lat="66.32291666610034" lon="14.038638893633461" id="-10173">
		<tag k="name" v="Rundtjønna" />
		<tag k="natural" v="water" />
		<tag k="ssr:stedsnr" v="528418" />
	</node>
	<node lat="66.38082222082912" lon="14.55623333057202" id="-10176">
		<tag k="name" v="Lappnesea" />
		<tag k="natural" v="water" />
		<tag k="ssr:stedsnr" v="528783" />
		<tag k="water" v="lake" />
	</node>
	<node lat="66.3850194428414" lon="14.668108324691108" id="-10178">
		<tag k="name" v="Sørbekken" />
		<tag k="ssr:stedsnr" v="528902" />
		<tag k="waterway" v="stream" />
	</node>
	<node lat="66.39531944688059" lon="14.677252772452984" id="-10179">
		<tag k="name" v="Strandea" />
		<tag k="natural" v="water" />
		<tag k="ssr:stedsnr" v="528922" />
		<tag k="water" v="lake" />
	</node>
	<node lat="66.29449166409985" lon="14.335602766565495" id="-10182">
		<tag k="name" v="Heimerbekken" />
		<tag k="ssr:stedsnr" v="529105" />
		<tag k="waterway" v="stream" />
	</node>
	<node lat="66.40810000392017" lon="14.263647214104534" id="-10186">
		<tag k="name" v="Sagtjønnan" />
		<tag k="natural" v="water" />
		<tag k="ssr:stedsnr" v="529185" />
		<tag k="water" v="lake" />
	</node>
	<node lat="66.235700004312" lon="14.017786106706954" id="-10200">
		<tag k="name" v="Kattuglebekken" />
		<tag k="ssr:stedsnr" v="529572" />
		<tag k="waterway" v="stream" />
	</node>
	<node lat="66.3024194415257" lon="14.389319451390964" id="-10201">
		<tag k="name" v="Per-Olsanesan" />
		<tag k="natural" v="cape" />
		<tag k="ssr:stedsnr" v="529871" />
	</node>
	<node lat="66.43834722276195" lon="14.123538897970256" id="-10204">
		<tag k="name" v="Grunntjønna" />
		<tag k="natural" v="water" />
		<tag k="ssr:stedsnr" v="530932" />
	</node>
	<node lat="66.36400555637688" lon="14.704941672007179" id="-10210">
		<tag k="name" v="Stilla" />
		<tag k="natural" v="water" />
		<tag k="ssr:stedsnr" v="543267" />
		<tag k="water" v="lake" />
	</node>
	<node lat="66.31986388782252" lon="14.640405563705677" id="-10212">
		<tag k="name" v="Stillvassholmen" />
		<tag k="place" v="islet" />
		<tag k="ssr:stedsnr" v="543420" />
	</node>
	<node lat="66.47763333163202" lon="13.845513884359885" id="-10218">
		<tag k="name" v="Onnstibekken" />
		<tag k="ssr:stedsnr" v="543618" />
		<tag k="waterway" v="stream" />
	</node>
	<node lat="66.33015277794898" lon="13.921719443695135" id="-10221">
		<tag k="name" v="Klopptjønna" />
		<tag k="natural" v="water" />
		<tag k="ssr:stedsnr" v="543522" />
	</node>
	<node lat="66.30929444159571" lon="13.797072215301556" id="-10227">
		<tag k="name" v="Lomtjønnbekken" />
		<tag k="ssr:stedsnr" v="543885" />
		<tag k="waterway" v="stream" />
	</node>
	<node lat="66.3317305575113" lon="13.976974993511135" id="-10235">
		<tag k="name" v="Markaelva" />
		<tag k="ssr:stedsnr" v="710646" />
		<tag k="waterway" v="river" />
	</node>
	<node lat="66.32895000266997" lon="14.780069446075965" id="-10236">
		<tag k="name" v="Fisktjønnbekken" />
		<tag k="ssr:stedsnr" v="767347" />
		<tag k="waterway" v="stream" />
	</node>
	<node lat="66.18996944868714" lon="14.981775002932833" id="-10238">
		<tag k="name" v="Litlkjerrtjønna" />
		<tag k="natural" v="water" />
		<tag k="ssr:stedsnr" v="561035" />
	</node>
	<node lat="66.24228611408824" lon="14.761322221001647" id="-10241">
		<tag k="name" v="Plura" />
		<tag k="ssr:stedsnr" v="561095" />
		<tag k="waterway" v="river" />
	</node>
	<node lat="66.32006111340861" lon="14.25096667667021" id="-10262">
		<tag k="name" v="Jektneset" />
		<tag k="natural" v="cape" />
		<tag k="ssr:stedsnr" v="589069" />
	</node>
	<node lat="66.4528361146928" lon="14.288947216741288" id="-10266">
		<tag k="name" v="Hestholmen" />
		<tag k="place" v="islet" />
		<tag k="ssr:stedsnr" v="589157" />
	</node>
	<node lat="66.45620555510054" lon="14.253138897169622" id="-10267">
		<tag k="alt_name" v="Litl Røvatnet" />
		<tag k="name" v="Litlrøvatnet" />
		<tag k="natural" v="water" />
		<tag k="ssr:stedsnr" v="589168" />
		<tag k="water" v="lake" />
	</node>
	<node lat="66.31616944791918" lon="14.03587778823658" id="-10270">
		<tag k="name" v="Storbekken" />
		<tag k="ssr:stedsnr" v="589353" />
		<tag k="waterway" v="stream" />
	</node>
	<node lat="66.29446944080277" lon="13.65408055702325" id="-10278">
		<tag k="name" v="Revstiforsen" />
		<tag k="natural" v="waterfall" />
		<tag k="ssr:stedsnr" v="589710" />
	</node>
	<node lat="66.30562222029796" lon="13.649099997599013" id="-10280">
		<tag k="name" v="Tømmerhaugforsen" />
		<tag k="natural" v="waterfall" />
		<tag k="ssr:stedsnr" v="589722" />
	</node>
	<node lat="66.37476666620104" lon="14.544955564340217" id="-10285">
		<tag k="name" v="Ytterstormbekken" />
		<tag k="ssr:stedsnr" v="589816" />
		<tag k="waterway" v="stream" />
	</node>
	<node lat="66.37699166663977" lon="14.507333343324126" id="-10286">
		<tag k="name" v="Maridalstjønna" />
		<tag k="natural" v="water" />
		<tag k="ssr:stedsnr" v="589817" />
		<tag k="water" v="lake" />
	</node>
	<node lat="66.29437499626931" lon="13.318533339362613" id="-10300">
		<tag k="name" v="Ytteråga" />
		<tag k="ssr:stedsnr" v="603105" />
		<tag k="waterway" v="stream" />
	</node>
	<node lat="66.3606611073719" lon="14.095463895404373" id="-10305">
		<tag k="name" v="Lomtjønna" />
		<tag k="natural" v="water" />
		<tag k="ssr:stedsnr" v="603159" />
	</node>
	<node lat="66.31096111008983" lon="14.79726943445025" id="-10313">
		<tag k="name" v="Laffaholmen" />
		<tag k="place" v="islet" />
		<tag k="ssr:stedsnr" v="604044" />
	</node>
	<node lat="66.31158055887578" lon="14.79050832736794" id="-10316">
		<tag k="name" v="Storneset" />
		<tag k="natural" v="cape" />
		<tag k="ssr:stedsnr" v="604052" />
	</node>
	<node lat="66.31427777915349" lon="14.691608336096992" id="-10318">
		<tag k="name" v="Bekkenesan" />
		<tag k="natural" v="cape" />
		<tag k="ssr:stedsnr" v="604218" />
	</node>
	<node lat="66.37867777347115" lon="14.771241666382835" id="-10321">
		<tag k="name" v="Tortjønna" />
		<tag k="natural" v="water" />
		<tag k="ssr:stedsnr" v="604254" />
		<tag k="water" v="pond" />
	</node>
	<node lat="66.14688889222867" lon="14.561486105810953" id="-10325">
		<tag k="name" v="Kusstø" />
		<tag k="natural" v="bay" />
		<tag k="ssr:stedsnr" v="604535" />
	</node>
	<node lat="66.42052777336885" lon="13.921188896562725" id="-10326">
		<tag k="name" v="Lamholmen" />
		<tag k="place" v="islet" />
		<tag k="ssr:stedsnr" v="604541" />
	</node>
	<node lat="66.31636388845125" lon="14.525761118482144" id="-10331">
		<tag k="name" v="Loppbekken" />
		<tag k="ssr:stedsnr" v="604654" />
		<tag k="waterway" v="stream" />
	</node>
	<node lat="66.46147777882442" lon="14.86269444016163" id="-10335">
		<tag k="name" v="Dammen" />
		<tag k="ssr:stedsnr" v="604914" />
		<tag k="waterway" v="dam" />
	</node>
	<node lat="66.11510000298713" lon="14.352174990096984" id="-10338">
		<tag k="name" v="Storskardbekken" />
		<tag k="ssr:stedsnr" v="621085" />
		<tag k="waterway" v="stream" />
	</node>
	<node lat="66.24474444094005" lon="14.23209445158291" id="-10340">
		<tag k="name" v="Langtjønna" />
		<tag k="natural" v="water" />
		<tag k="ssr:stedsnr" v="621818" />
	</node>
	<node lat="66.2965250003417" lon="13.862108339193265" id="-10345">
		<tag k="name" v="Vassflogtjønna" />
		<tag k="natural" v="water" />
		<tag k="ssr:stedsnr" v="622080" />
	</node>
	<node lat="66.38063610871869" lon="14.294025010515542" id="-10348">
		<tag k="name" v="Langvassåga" />
		<tag k="ssr:stedsnr" v="622221" />
		<tag k="waterway" v="river" />
	</node>
	<node lat="66.31896666311592" lon="14.348508325378694" id="-10352">
		<tag k="name" v="Hagatjønna" />
		<tag k="natural" v="water" />
		<tag k="ssr:stedsnr" v="622313" />
	</node>
	<node lat="66.26043611557097" lon="14.358122219046434" id="-10355">
		<tag k="name" v="Sløykvolltjønna" />
		<tag k="natural" v="water" />
		<tag k="ssr:stedsnr" v="622377" />
	</node>
	<node lat="66.46050555549586" lon="15.014844434351119" id="-10360">
		<tag k="name" v="Djupstjønna" />
		<tag k="natural" v="water" />
		<tag k="ssr:stedsnr" v="622478" />
	</node>
	<node lat="66.22168055591698" lon="14.229386108763903" id="-10367">
		<tag k="name" v="Brattforsen" />
		<tag k="natural" v="waterfall" />
		<tag k="ssr:stedsnr" v="622810" />
	</node>
	<node lat="66.21609999998589" lon="14.228111105793545" id="-10368">
		<tag k="name" v="Svarttjønna" />
		<tag k="natural" v="water" />
		<tag k="ssr:stedsnr" v="622812" />
	</node>
	<node lat="66.19068333163776" lon="14.330727769359275" id="-10370">
		<tag k="name" v="Reintramparneset" />
		<tag k="natural" v="cape" />
		<tag k="ssr:stedsnr" v="622824" />
	</node>
	<node lat="66.51594444724431" lon="13.914494442872414" id="-10381">
		<tag k="fixme" v="multiple name tags, choose one and add the other to alt_name" />
		<tag k="name" v="Glomdalselva;Østerdalselva" />
		<tag k="ssr:stedsnr" v="623466" />
		<tag k="waterway" v="river" />
	</node>
	<node lat="66.43713333476997" lon="14.996216673137095" id="-10382">
		<tag k="name" v="Kjerringfjellvatnet" />
		<tag k="natural" v="water" />
		<tag k="ssr:stedsnr" v="623468" />
		<tag k="water" v="lake" />
	</node>
	<node lat="66.28970555602274" lon="15.338308335838244" id="-10386">
		<tag k="name" v="Vardfjelltjønna" />
		<tag k="natural" v="water" />
		<tag k="ssr:stedsnr" v="623605" />
	</node>
	<node lat="66.37240555391786" lon="14.931847219559263" id="-10387">
		<tag k="name" v="Kopparvatnet - Kroenesjaevrie" />
		<tag k="name:no" v="Kopparvatnet" />
		<tag k="name:sma" v="Kroenesjaevrie" />
		<tag k="natural" v="water" />
		<tag k="old_name:sma" v="Gruonasjávri" />
		<tag k="ssr:stedsnr" v="623530" />
		<tag k="water" v="lake" />
	</node>
	<node lat="66.28997222169944" lon="13.440119452142941" id="-10390">
		<tag k="name" v="Laskbekken" />
		<tag k="ssr:stedsnr" v="623817" />
		<tag k="waterway" v="stream" />
	</node>
	<node lat="66.39781389173798" lon="13.5422416565619" id="-10392">
		<tag k="alt_name" v="Fagervollvatna, øvre" />
		<tag k="name" v="Øvre Fagervollvatna" />
		<tag k="natural" v="water" />
		<tag k="ssr:stedsnr" v="623859" />
		<tag k="water" v="lake" />
	</node>
	<node lat="66.32581388813588" lon="14.686216657391368" id="-10400">
		<tag k="name" v="Gløstjønna" />
		<tag k="natural" v="water" />
		<tag k="ssr:stedsnr" v="706114" />
	</node>
	<node lat="66.40351666228712" lon="14.012086115240104" id="-10404">
		<tag k="name" v="Eliasbukta" />
		<tag k="natural" v="bay" />
		<tag k="ssr:stedsnr" v="706350" />
	</node>
	<node lat="66.34039722430369" lon="14.712955551325186" id="-10405">
		<tag k="name" v="Strandbekken" />
		<tag k="ssr:stedsnr" v="706447" />
		<tag k="waterway" v="stream" />
	</node>
	<node lat="66.43736666221935" lon="14.007586114884962" id="-10409">
		<tag k="name" v="Stupforsbekken" />
		<tag k="ssr:stedsnr" v="645429" />
		<tag k="waterway" v="stream" />
	</node>
	<node lat="66.47793888653382" lon="14.87232778811243" id="-10411">
		<tag k="name" v="Kuførabekken" />
		<tag k="ssr:stedsnr" v="645329" />
		<tag k="waterway" v="stream" />
	</node>
	<node lat="66.35107222590227" lon="14.555869453056038" id="-10413">
		<tag k="name" v="Vestre Klemmettjønna" />
		<tag k="natural" v="water" />
		<tag k="ssr:stedsnr" v="645391" />
	</node>
	<node lat="66.33980555811637" lon="14.03794999402576" id="-10420">
		<tag k="name" v="Ytterabekken" />
		<tag k="ssr:stedsnr" v="645693" />
		<tag k="waterway" v="stream" />
	</node>
	<node lat="66.27276666648868" lon="14.424086111992322" id="-10430">
		<tag k="name" v="Selågaven" />
		<tag k="natural" v="bay" />
		<tag k="ssr:stedsnr" v="645897" />
	</node>
	<node lat="66.39244999990972" lon="14.330169453615126" id="-10431">
		<tag k="name" v="Storbekktjønna" />
		<tag k="natural" v="water" />
		<tag k="ssr:stedsnr" v="645976" />
	</node>
	<node lat="66.34728888467578" lon="14.039249997263626" id="-10432">
		<tag k="name" v="Tjuvlibekken" />
		<tag k="ssr:stedsnr" v="706696" />
		<tag k="waterway" v="stream" />
	</node>
	<node lat="66.35863333679498" lon="14.296447212528737" id="-10447">
		<tag k="name" v="Sagosen" />
		<tag k="natural" v="bay" />
		<tag k="ssr:stedsnr" v="649205" />
	</node>
	<node lat="66.33977778234708" lon="14.204402775025876" id="-10458">
		<tag k="name" v="Kvitbergtjønna" />
		<tag k="natural" v="water" />
		<tag k="ssr:stedsnr" v="649536" />
	</node>
	<node lat="66.33134167000033" lon="13.93766666761909" id="-10459">
		<tag k="name" v="Steinrembekken" />
		<tag k="ssr:stedsnr" v="649637" />
		<tag k="waterway" v="stream" />
	</node>
	<node lat="66.39949444607115" lon="14.438105566911887" id="-10462">
		<tag k="name" v="Gomea" />
		<tag k="natural" v="water" />
		<tag k="ssr:stedsnr" v="649815" />
		<tag k="water" v="lake" />
	</node>
	<node lat="66.35272778133091" lon="14.182908326964084" id="-10468">
		<tag k="name" v="Auskarlomptjønna" />
		<tag k="natural" v="water" />
		<tag k="ssr:stedsnr" v="650243" />
		<tag k="water" v="lake" />
	</node>
	<node lat="66.35255833429947" lon="14.185827781836787" id="-10469">
		<tag k="name" v="Hjarttjønna" />
		<tag k="natural" v="water" />
		<tag k="ssr:stedsnr" v="650244" />
		<tag k="water" v="lake" />
	</node>
	<node lat="66.33335555406254" lon="14.16525278632679" id="-10478">
		<tag k="name" v="Nordneset" />
		<tag k="natural" v="cape" />
		<tag k="ssr:stedsnr" v="650444" />
	</node>
	<node lat="66.45749444032487" lon="15.103383335969033" id="-10494">
		<tag k="name" v="Silforsholmen" />
		<tag k="place" v="islet" />
		<tag k="ssr:stedsnr" v="707956" />
	</node>
	<node lat="66.22708889206929" lon="14.174772217952201" id="-10505">
		<tag k="name" v="Bjerkmoelva" />
		<tag k="ssr:stedsnr" v="664431" />
		<tag k="waterway" v="stream" />
	</node>
	<node lat="66.33949444523628" lon="13.481738885695895" id="-10506">
		<tag k="name" v="Lomtjønna" />
		<tag k="natural" v="water" />
		<tag k="ssr:stedsnr" v="664181" />
	</node>
	<node lat="66.37928333796134" lon="14.498558326758992" id="-10507">
		<tag k="name" v="Vestre Mariadalstjønn" />
		<tag k="natural" v="water" />
		<tag k="ssr:stedsnr" v="664532" />
	</node>
	<node lat="66.21693611217411" lon="14.32577777931986" id="-10510">
		<tag k="name" v="Nertjønna" />
		<tag k="natural" v="water" />
		<tag k="ssr:stedsnr" v="664789" />
	</node>
	<node lat="66.40366944235627" lon="14.076450009731065" id="-10511">
		<tag k="name" v="Lomtjønna" />
		<tag k="natural" v="water" />
		<tag k="ssr:stedsnr" v="664882" />
	</node>
	<node lat="66.41908889037764" lon="14.684469453126754" id="-10513">
		<tag k="name" v="Stråtjønna" />
		<tag k="natural" v="water" />
		<tag k="ssr:stedsnr" v="665006" />
		<tag k="water" v="pond" />
	</node>
	<node lat="66.36482500047669" lon="14.766547226730165" id="-10514">
		<tag k="name" v="Storneset" />
		<tag k="natural" v="cape" />
		<tag k="ssr:stedsnr" v="665012" />
	</node>
	<node lat="66.49995555705799" lon="14.899902787320968" id="-10521">
		<tag k="name" v="Brattbakkbekken" />
		<tag k="ssr:stedsnr" v="665409" />
		<tag k="waterway" v="stream" />
	</node>
	<node lat="66.44514166459847" lon="14.819258330273549" id="-10535">
		<tag k="name" v="Tørrelva" />
		<tag k="ssr:stedsnr" v="665939" />
		<tag k="waterway" v="stream" />
	</node>
	<node lat="66.24153611208648" lon="14.077141676942253" id="-10550">
		<tag k="name" v="Litlforsen" />
		<tag k="natural" v="waterfall" />
		<tag k="ssr:stedsnr" v="710364" />
	</node>
	<node lat="66.44949166262413" lon="15.039900000998506" id="-10554">
		<tag k="name" v="Pista" />
		<tag k="ssr:stedsnr" v="682663" />
		<tag k="waterway" v="stream" />
	</node>
	<node lat="66.23848055829217" lon="14.304538894643137" id="-10557">
		<tag k="name" v="Småvatnan" />
		<tag k="natural" v="water" />
		<tag k="ssr:stedsnr" v="682864" />
		<tag k="water" v="lake" />
	</node>
	<node lat="66.38010833517748" lon="14.062663895888647" id="-10558">
		<tag k="name" v="Vikneset" />
		<tag k="natural" v="cape" />
		<tag k="ssr:stedsnr" v="683005" />
	</node>
	<node lat="66.39082777961903" lon="14.411202779539105" id="-10561">
		<tag k="name" v="Svarttjønna" />
		<tag k="natural" v="water" />
		<tag k="ssr:stedsnr" v="683203" />
	</node>
	<node lat="66.39009999615713" lon="14.550141656586694" id="-10562">
		<tag k="alt_name" v="Storrot-bekken" />
		<tag k="name" v="Storrotbekken" />
		<tag k="ssr:stedsnr" v="683204" />
		<tag k="waterway" v="stream" />
	</node>
	<node lat="66.4027888849583" lon="14.365777772192848" id="-10566">
		<tag k="name" v="Nuvtjønna" />
		<tag k="natural" v="water" />
		<tag k="ssr:stedsnr" v="683222" />
	</node>
	<node lat="66.40854999759026" lon="14.230341668485858" id="-10567">
		<tag k="name" v="Lomtjønna" />
		<tag k="natural" v="water" />
		<tag k="ssr:stedsnr" v="683228" />
	</node>
	<node lat="66.36785833608815" lon="14.682758330268133" id="-10568">
		<tag k="name" v="Kvannbekken" />
		<tag k="ssr:stedsnr" v="683271" />
		<tag k="waterway" v="stream" />
	</node>
	<node lat="66.4786027780645" lon="14.690255558650911" id="-10572">
		<tag k="name" v="Slåttelva" />
		<tag k="ssr:stedsnr" v="683161" />
		<tag k="waterway" v="river" />
	</node>
	<node lat="66.32153333410635" lon="14.384580561855094" id="-10574">
		<tag k="name" v="Engestjønna" />
		<tag k="natural" v="water" />
		<tag k="ssr:stedsnr" v="683303" />
	</node>
	<node lat="66.32229166871313" lon="14.407733338504228" id="-10575">
		<tag k="name" v="Grantjønna" />
		<tag k="natural" v="water" />
		<tag k="ssr:stedsnr" v="683304" />
	</node>
	<node lat="66.32271110951503" lon="14.490380564230264" id="-10576">
		<tag k="name" v="Ringlitjønna" />
		<tag k="natural" v="water" />
		<tag k="ssr:stedsnr" v="683309" />
	</node>
	<node lat="66.33221110938607" lon="14.577386120018197" id="-10579">
		<tag k="name" v="Litltjønna" />
		<tag k="natural" v="water" />
		<tag k="ssr:stedsnr" v="683323" />
	</node>
	<node lat="66.33254722649288" lon="14.658491661692823" id="-10580">
		<tag k="alt_name" v="Bjynntjønna" />
		<tag k="name" v="Bjørntjønna" />
		<tag k="natural" v="water" />
		<tag k="ssr:stedsnr" v="683329" />
	</node>
	<node lat="66.2563416705488" lon="14.465722213580422" id="-10582">
		<tag k="name" v="Holmtjønna" />
		<tag k="natural" v="water" />
		<tag k="ssr:stedsnr" v="683360" />
	</node>
	<node lat="66.25906389186456" lon="14.48407778333985" id="-10583">
		<tag k="name" v="Kringla" />
		<tag k="natural" v="water" />
		<tag k="ssr:stedsnr" v="683361" />
	</node>
	<node lat="66.26334999779729" lon="14.2687388865952" id="-10584">
		<tag k="name" v="Skravlbekken" />
		<tag k="ssr:stedsnr" v="683363" />
		<tag k="waterway" v="stream" />
	</node>
	<node lat="66.33622222279268" lon="14.895091670038974" id="-10585">
		<tag k="name" v="Rismålsbekken" />
		<tag k="ssr:stedsnr" v="683504" />
		<tag k="waterway" v="stream" />
	</node>
	<node lat="66.32254166335574" lon="15.126797218537583" id="-10586">
		<tag k="name" v="Olatjønna" />
		<tag k="natural" v="water" />
		<tag k="ssr:stedsnr" v="683505" />
	</node>
	<node lat="66.46906110809607" lon="14.979938887733784" id="-10587">
		<tag k="name" v="Storburtjønna" />
		<tag k="natural" v="water" />
		<tag k="ssr:stedsnr" v="683452" />
	</node>
	<node lat="66.48913333497079" lon="15.006425009152924" id="-10589">
		<tag k="name" v="Nabbforsen" />
		<tag k="natural" v="waterfall" />
		<tag k="ssr:stedsnr" v="683460" />
	</node>
	<node lat="66.34858611563335" lon="13.45174166291533" id="-10599">
		<tag k="alt_name" v="Melvikbekken" />
		<tag k="name" v="Melkvikelva" />
		<tag k="ssr:stedsnr" v="683851" />
		<tag k="waterway" v="stream" />
	</node>
	<node lat="66.17083333354785" lon="14.510783334211187" id="-10601">
		<tag k="name" v="Litllangtjønna" />
		<tag k="natural" v="water" />
		<tag k="ssr:stedsnr" v="683859" />
	</node>
	<node lat="66.47934167020249" lon="13.747886111858689" id="-10604">
		<tag k="name" v="Tindvatnet" />
		<tag k="natural" v="water" />
		<tag k="ssr:stedsnr" v="683973" />
	</node>
	<node lat="66.33155277427343" lon="14.169011114059714" id="-10606">
		<tag k="name" v="Selforsen" />
		<tag k="natural" v="waterfall" />
		<tag k="ssr:stedsnr" v="684105" />
	</node>
	<node lat="66.45022500347226" lon="14.338261120193042" id="-10608">
		<tag k="name" v="Kvernbekken" />
		<tag k="ssr:stedsnr" v="684152" />
		<tag k="waterway" v="stream" />
	</node>
	<node lat="66.32310833232202" lon="13.950477779297795" id="-10609">
		<tag k="name" v="Stillbekken" />
		<tag k="ssr:stedsnr" v="684100" />
		<tag k="waterway" v="stream" />
	</node>
	<node lat="66.29887222196608" lon="14.346280555274321" id="-10611">
		<tag k="alt_name" v="Ildgrubforsen" />
		<tag k="name" v="Illgrubforsen" />
		<tag k="natural" v="waterfall" />
		<tag k="ssr:stedsnr" v="684420" />
	</node>
	<node lat="66.27763889063506" lon="14.585886112833286" id="-10614">
		<tag k="name" v="Petterbekktjønna" />
		<tag k="natural" v="water" />
		<tag k="ssr:stedsnr" v="684397" />
	</node>
	<node lat="66.27570000207096" lon="14.527416670937617" id="-10616">
		<tag k="name" v="Killingholmen" />
		<tag k="place" v="islet" />
		<tag k="ssr:stedsnr" v="684400" />
	</node>
	<node lat="66.60301944876241" lon="14.86538610781451" id="-10617">
		<tag k="name" v="Sirkkájávrre" />
		<tag k="name:smj" v="Sirkkájávrre" />
		<tag k="natural" v="water" />
		<tag k="old_name:smj" v="Sirkajavri" />
		<tag k="ssr:stedsnr" v="684548" />
		<tag k="water" v="lake" />
	</node>
	<node lat="66.40131944137379" lon="15.161788888947859" id="-10620">
		<tag k="name" v="Tomasstranda" />
		<tag k="natural" v="beach" />
		<tag k="ssr:stedsnr" v="684499" />
	</node>
	<node lat="66.2909138894099" lon="13.435816660288605" id="-10624">
		<tag k="alt_name" v="Inderelva" />
		<tag k="name" v="Innerelva" />
		<tag k="ssr:stedsnr" v="684806" />
		<tag k="waterway" v="stream" />
	</node>
	<node lat="66.42133055203915" lon="14.099644438162313" id="-10629">
		<tag k="name" v="Langtjønnbekken" />
		<tag k="ssr:stedsnr" v="684915" />
		<tag k="waterway" v="stream" />
	</node>
	<node lat="66.32561944566558" lon="14.230711121648385" id="-10635">
		<tag k="name" v="Mølnbekken" />
		<tag k="ssr:stedsnr" v="893046" />
		<tag k="waterway" v="stream" />
	</node>
	<node lat="66.3513416634671" lon="14.300266676280062" id="-10636">
		<tag k="name" v="Nilsbekken" />
		<tag k="ssr:stedsnr" v="893076" />
		<tag k="waterway" v="stream" />
	</node>
	<node lat="66.38666388499186" lon="14.22162776672783" id="-10644">
		<tag k="name" v="Steinnesbekken" />
		<tag k="ssr:stedsnr" v="893235" />
		<tag k="waterway" v="stream" />
	</node>
	<node lat="66.38838888565849" lon="14.253972216095276" id="-10645">
		<tag k="name" v="Andtjønnbekken" />
		<tag k="ssr:stedsnr" v="893239" />
		<tag k="waterway" v="stream" />
	</node>
	<node lat="66.33603055217537" lon="14.163677778003345" id="-10661">
		<tag k="name" v="Fløvalen" />
		<tag k="natural" v="bay" />
		<tag k="ssr:stedsnr" v="893493" />
	</node>
	<node lat="66.32146944450461" lon="14.384538890092223" id="-10671">
		<tag k="name" v="Kristentjønna" />
		<tag k="natural" v="water" />
		<tag k="ssr:stedsnr" v="893833" />
		<tag k="water" v="lake" />
	</node>
	<node lat="66.49390277469803" lon="14.890511110648852" id="-10685">
		<tag k="name" v="Svampkjelda" />
		<tag k="natural" v="spring" />
		<tag k="ssr:stedsnr" v="706305" />
	</node>
	<node lat="66.49269166724758" lon="14.87759721775189" id="-10687">
		<tag k="name" v="Bommaneset" />
		<tag k="natural" v="cape" />
		<tag k="ssr:stedsnr" v="706312" />
	</node>
	<node lat="66.37037777829106" lon="14.494263879040151" id="-10694">
		<tag k="name" v="Sør-Påltjønna" />
		<tag k="natural" v="water" />
		<tag k="ssr:stedsnr" v="706513" />
	</node>
	<node lat="66.4682222218084" lon="15.091622231823532" id="-10699">
		<tag k="name" v="Nesbekken" />
		<tag k="ssr:stedsnr" v="706960" />
		<tag k="waterway" v="stream" />
	</node>
	<node lat="66.46701389308852" lon="15.084613886422074" id="-10700">
		<tag k="name" v="Krokstrandholmen" />
		<tag k="place" v="islet" />
		<tag k="ssr:stedsnr" v="706967" />
	</node>
	<node lat="66.42688889135141" lon="14.22114999683907" id="-10706">
		<tag k="name" v="Bjynnhølbekken" />
		<tag k="ssr:stedsnr" v="710182" />
		<tag k="waterway" v="stream" />
	</node>
	<node lat="66.27000000086129" lon="14.00086111628089" id="-10712">
		<tag k="name" v="Erikbekken" />
		<tag k="ssr:stedsnr" v="710633" />
		<tag k="waterway" v="stream" />
	</node>
	<node lat="66.44730833275224" lon="14.27736667299701" id="-10718">
		<tag k="name" v="Kuholmen" />
		<tag k="place" v="islet" />
		<tag k="ssr:stedsnr" v="711156" />
	</node>
	<node lat="66.38377500458155" lon="14.671505554368157" id="-10734">
		<tag k="name" v="Mårtjønnbekken" />
		<tag k="ssr:stedsnr" v="711916" />
		<tag k="waterway" v="stream" />
	</node>
	<node lat="66.489105555276" lon="14.997169444381125" id="-10740">
		<tag k="name" v="Labølingea" />
		<tag k="natural" v="water" />
		<tag k="ssr:stedsnr" v="725015" />
		<tag k="water" v="lake" />
	</node>
	<node lat="66.26109166849648" lon="14.151352773909318" id="-10750">
		<tag k="name" v="Tverråga" />
		<tag k="ssr:stedsnr" v="725418" />
		<tag k="waterway" v="stream" />
	</node>
	<node lat="66.44805833000811" lon="13.886041674206496" id="-10752">
		<tag k="name" v="Hareholman" />
		<tag k="place" v="islet" />
		<tag k="ssr:stedsnr" v="725510" />
	</node>
	<node lat="66.4911555528599" lon="13.873849998256004" id="-10756">
		<tag k="name" v="Nordengsbekken" />
		<tag k="ssr:stedsnr" v="725528" />
		<tag k="waterway" v="stream" />
	</node>
	<node lat="66.45353055463139" lon="13.887277768166205" id="-10757">
		<tag k="name" v="Granlundbekken" />
		<tag k="ssr:stedsnr" v="725537" />
		<tag k="waterway" v="stream" />
	</node>
	<node lat="66.4191666705599" lon="14.70037778798817" id="-10764">
		<tag k="name" v="Vinkeltjønna" />
		<tag k="natural" v="water" />
		<tag k="ssr:stedsnr" v="726005" />
	</node>
	<node lat="66.39981944291426" lon="14.819272220386022" id="-10770">
		<tag k="name" v="Langtana" />
		<tag k="natural" v="water" />
		<tag k="ssr:stedsnr" v="726107" />
	</node>
	<node lat="66.42098055281092" lon="14.80202500078727" id="-10771">
		<tag k="name" v="Kvannlibekken" />
		<tag k="ssr:stedsnr" v="726116" />
		<tag k="waterway" v="stream" />
	</node>
	<node lat="66.27492777551497" lon="13.897108336979104" id="-10781">
		<tag k="name" v="Laupbakkbekken" />
		<tag k="ssr:stedsnr" v="726570" />
		<tag k="waterway" v="stream" />
	</node>
	<node lat="66.31715277754198" lon="13.794733343681338" id="-10782">
		<tag k="name" v="Katrinetjønna" />
		<tag k="natural" v="water" />
		<tag k="ssr:stedsnr" v="726582" />
	</node>
	<node lat="66.39323055957462" lon="13.99471945484456" id="-10784">
		<tag k="name" v="Reinneset" />
		<tag k="natural" v="cape" />
		<tag k="ssr:stedsnr" v="726719" />
	</node>
	<node lat="66.2488611105285" lon="14.791272231496425" id="-10786">
		<tag k="name" v="Damtjønna" />
		<tag k="natural" v="water" />
		<tag k="ssr:stedsnr" v="743107" />
	</node>
	<node lat="66.2334750039495" lon="13.937169450635137" id="-10789">
		<tag k="name" v="Hølbekken" />
		<tag k="ssr:stedsnr" v="743704" />
		<tag k="waterway" v="stream" />
	</node>
	<node lat="66.23126111236616" lon="14.20570001034283" id="-10790">
		<tag k="name" v="Labekken" />
		<tag k="ssr:stedsnr" v="743715" />
		<tag k="waterway" v="stream" />
	</node>
	<node lat="66.24162500120802" lon="14.230711103140132" id="-10791">
		<tag k="name" v="Labekktjønna" />
		<tag k="natural" v="water" />
		<tag k="ssr:stedsnr" v="743825" />
	</node>
	<node lat="66.34873055619079" lon="14.171472212296083" id="-10792">
		<tag k="name" v="Pallbekken" />
		<tag k="ssr:stedsnr" v="744013" />
		<tag k="waterway" v="stream" />
	</node>
	<node lat="66.34132777900598" lon="14.091758336335326" id="-10793">
		<tag k="name" v="Hestdalsbekken" />
		<tag k="ssr:stedsnr" v="744015" />
		<tag k="waterway" v="stream" />
	</node>
	<node lat="66.3421555579356" lon="14.21276388015579" id="-10795">
		<tag k="name" v="Lomtjønna" />
		<tag k="natural" v="water" />
		<tag k="ssr:stedsnr" v="744018" />
	</node>
	<node lat="66.40785277988232" lon="14.058008323187343" id="-10796">
		<tag k="name" v="Langtjønna" />
		<tag k="natural" v="water" />
		<tag k="ssr:stedsnr" v="744027" />
	</node>
	<node lat="66.39510000117488" lon="14.064252784992414" id="-10798">
		<tag k="fixme" v="multiple name tags, choose one and add the other to alt_name" />
		<tag k="name" v="Gullvikelva;Sagelva" />
		<tag k="ssr:stedsnr" v="744031" />
		<tag k="waterway" v="stream" />
	</node>
	<node lat="66.15382499580878" lon="14.594527772851908" id="-10801">
		<tag k="name" v="Røyrnesbekken" />
		<tag k="ssr:stedsnr" v="744075" />
		<tag k="waterway" v="stream" />
	</node>
	<node lat="66.14399444381341" lon="14.613850006953003" id="-10802">
		<tag k="name" v="Østre Krabbfjelltjønna" />
		<tag k="natural" v="water" />
		<tag k="ssr:stedsnr" v="744077" />
	</node>
	<node lat="66.15525555517829" lon="14.58608056453813" id="-10803">
		<tag k="alt_name" v="Røyrnesbukta" />
		<tag k="name" v="Røyrbukta" />
		<tag k="natural" v="bay" />
		<tag k="ssr:stedsnr" v="744078" />
	</node>
	<node lat="66.30423055585247" lon="13.730072217292767" id="-10807">
		<tag k="alt_name" v="Skillebekk" />
		<tag k="name" v="Skillebekken" />
		<tag k="ssr:stedsnr" v="744094" />
		<tag k="waterway" v="stream" />
	</node>
	<node lat="66.43427499581796" lon="14.431980559755987" id="-10810">
		<tag k="name" v="Tørrbekken" />
		<tag k="ssr:stedsnr" v="744108" />
		<tag k="waterway" v="stream" />
	</node>
	<node lat="66.45146111503007" lon="14.546758333912273" id="-10813">
		<tag k="name" v="Kvannvatnet" />
		<tag k="natural" v="water" />
		<tag k="ssr:stedsnr" v="744119" />
		<tag k="water" v="lake" />
	</node>
	<node lat="66.4765611143606" lon="14.221524997868203" id="-10815">
		<tag k="name" v="Flæsa" />
		<tag k="ssr:stedsnr" v="744137" />
		<tag k="waterway" v="stream" />
	</node>
	<node lat="66.39791666885354" lon="14.461672219173817" id="-10817">
		<tag k="name" v="Bjørlomtjønna" />
		<tag k="natural" v="water" />
		<tag k="ssr:stedsnr" v="744146" />
	</node>
	<node lat="66.40345833400349" lon="14.391419436438628" id="-10818">
		<tag k="name" v="Lapplibekken" />
		<tag k="ssr:stedsnr" v="744183" />
		<tag k="waterway" v="stream" />
	</node>
	<node lat="66.40695277643057" lon="15.18062500815159" id="-10824">
		<tag k="name" v="Kåtabekken" />
		<tag k="ssr:stedsnr" v="744404" />
		<tag k="waterway" v="stream" />
	</node>
	<node lat="66.39814722620228" lon="15.004827776520306" id="-10825">
		<tag k="name" v="Litlkjerringvatnet" />
		<tag k="natural" v="water" />
		<tag k="ssr:stedsnr" v="744408" />
		<tag k="water" v="lake" />
	</node>
	<node lat="66.44552777652102" lon="15.143524991779959" id="-10827">
		<tag k="name" v="Andfjellneset" />
		<tag k="natural" v="cape" />
		<tag k="ssr:stedsnr" v="744424" />
	</node>
	<node lat="66.32521389153828" lon="14.772016673310066" id="-10829">
		<tag k="name" v="Fisktjønna" />
		<tag k="natural" v="water" />
		<tag k="ssr:stedsnr" v="744482" />
	</node>
	<node lat="66.50381389198651" lon="14.276363886980043" id="-10830">
		<tag k="alt_name" v="Brunvatnet, nedre" />
		<tag k="name" v="Nedre Brunvatnet" />
		<tag k="natural" v="water" />
		<tag k="ssr:stedsnr" v="744483" />
	</node>
	<node lat="66.49068055966727" lon="14.876619434634765" id="-10832">
		<tag k="name" v="Bommaneset" />
		<tag k="natural" v="cape" />
		<tag k="ssr:stedsnr" v="744334" />
	</node>
	<node lat="66.29629444236194" lon="14.391941664467968" id="-10834">
		<tag k="name" v="Vektertjønna" />
		<tag k="natural" v="water" />
		<tag k="ssr:stedsnr" v="744385" />
	</node>
	<node lat="66.30730000316622" lon="14.566013894931418" id="-10835">
		<tag k="name" v="Storbekken" />
		<tag k="ssr:stedsnr" v="744391" />
		<tag k="waterway" v="stream" />
	</node>
	<node lat="66.67741389153173" lon="15.103750009028893" id="-10838">
		<tag k="name" v="Kjempåelva" />
		<tag k="ssr:stedsnr" v="744511" />
		<tag k="waterway" v="river" />
	</node>
	<node lat="66.62926667119913" lon="14.9842888811627" id="-10839">
		<tag k="name" v="Langtjønna" />
		<tag k="natural" v="water" />
		<tag k="ssr:stedsnr" v="744512" />
	</node>
	<node lat="66.61582778151775" lon="15.033680549409999" id="-10840">
		<tag k="name" v="Storfiskea" />
		<tag k="place" v="locality" />
		<tag k="ssr:stedsnr" v="744515" />
	</node>
	<node lat="66.27148611525496" lon="14.910116661550141" id="-10842">
		<tag k="name" v="Steptjønna" />
		<tag k="natural" v="water" />
		<tag k="ssr:stedsnr" v="744524" />
	</node>
	<node lat="66.3541916628454" lon="13.422230551423892" id="-10849">
		<tag k="name" v="Helgåga" />
		<tag k="ssr:stedsnr" v="744809" />
		<tag k="waterway" v="river" />
	</node>
	<node lat="66.29461667041753" lon="13.447991663281561" id="-10855">
		<tag k="name" v="Høglibekken" />
		<tag k="ssr:stedsnr" v="744779" />
		<tag k="waterway" v="stream" />
	</node>
	<node lat="66.29814721936086" lon="13.61949444316184" id="-10856">
		<tag k="alt_name" v="Lomtjørna" />
		<tag k="name" v="Lomtjønna" />
		<tag k="natural" v="water" />
		<tag k="ssr:stedsnr" v="744791" />
	</node>
	<node lat="66.36367222038922" lon="13.407436105856942" id="-10857">
		<tag k="alt_name" v="Litlevatnet" />
		<tag k="name" v="Litlvatnet" />
		<tag k="natural" v="water" />
		<tag k="ssr:stedsnr" v="744797" />
		<tag k="water" v="lake" />
	</node>
	<node lat="66.42668055540946" lon="13.584997230551485" id="-10862">
		<tag k="name" v="Sjuniogfemtivatnet" />
		<tag k="natural" v="water" />
		<tag k="ssr:stedsnr" v="752465" />
		<tag k="water" v="lake" />
	</node>
	<node lat="66.38272777910933" lon="14.134041661524817" id="-10871">
		<tag k="name" v="Illbekken" />
		<tag k="ssr:stedsnr" v="907125" />
		<tag k="waterway" v="stream" />
	</node>
	<node lat="66.40511110758166" lon="13.96468610989565" id="-10876">
		<tag k="name" v="Buaven" />
		<tag k="ssr:stedsnr" v="767490" />
		<tag k="waterway" v="stream" />
	</node>
	<node lat="66.33295555209386" lon="14.570363883951444" id="-10877">
		<tag k="name" v="Litltjønnbekken" />
		<tag k="ssr:stedsnr" v="767653" />
		<tag k="waterway" v="stream" />
	</node>
	<node lat="66.35445833461594" lon="14.514875006569655" id="-10882">
		<tag k="name" v="Storbekken" />
		<tag k="ssr:stedsnr" v="767590" />
		<tag k="waterway" v="stream" />
	</node>
	<node lat="66.44303333698556" lon="15.17429166556812" id="-10888">
		<tag k="name" v="Skillbekken" />
		<tag k="ssr:stedsnr" v="767943" />
		<tag k="waterway" v="stream" />
	</node>
	<node lat="66.31321388527458" lon="14.836199994769446" id="-10891">
		<tag k="name" v="Engesforsen" />
		<tag k="natural" v="waterfall" />
		<tag k="ssr:stedsnr" v="908083" />
	</node>
	<node lat="66.39161388934939" lon="13.428491668399865" id="-10911">
		<tag k="name" v="Revabukta" />
		<tag k="natural" v="bay" />
		<tag k="ssr:stedsnr" v="771824" />
	</node>
	<node lat="66.28508888901726" lon="13.719894447598739" id="-10926">
		<tag k="name" v="Tuvlibekken" />
		<tag k="ssr:stedsnr" v="772525" />
		<tag k="waterway" v="stream" />
	</node>
	<node lat="66.3073777749632" lon="15.448022224503978" id="-10928">
		<tag k="name" v="Bonestjønnan" />
		<tag k="natural" v="water" />
		<tag k="ssr:stedsnr" v="772424" />
	</node>
	<node lat="66.38788889193583" lon="13.433783338207377" id="-10936">
		<tag k="name" v="Langneset" />
		<tag k="natural" v="cape" />
		<tag k="ssr:stedsnr" v="772863" />
	</node>
	<node lat="66.38062777725834" lon="14.417850007810625" id="-10937">
		<tag k="name" v="Svartvassbekken" />
		<tag k="ssr:stedsnr" v="772864" />
		<tag k="waterway" v="stream" />
	</node>
	<node lat="66.30370555588024" lon="13.56846666440064" id="-10939">
		<tag k="name" v="Stiåga" />
		<tag k="ssr:stedsnr" v="772873" />
		<tag k="waterway" v="stream" />
	</node>
	<node lat="66.39277222043384" lon="14.11438055178869" id="-10944">
		<tag k="name" v="Gabrieldammen" />
		<tag k="natural" v="water" />
		<tag k="ssr:stedsnr" v="908164" />
	</node>
	<node lat="66.36355832953862" lon="14.169416657532805" id="-10957">
		<tag k="name" v="Rundtjønna" />
		<tag k="natural" v="water" />
		<tag k="ssr:stedsnr" v="908189" />
	</node>
	<node lat="66.21612777921801" lon="13.91207499270619" id="-10964">
		<tag k="name" v="Trolldalstjønna" />
		<tag k="natural" v="water" />
		<tag k="ssr:stedsnr" v="908476" />
	</node>
	<node lat="66.42734444488221" lon="13.85903889939932" id="-10968">
		<tag k="name" v="Trolldalsholman" />
		<tag k="place" v="islet" />
		<tag k="ssr:stedsnr" v="908578" />
	</node>
	<node lat="66.37326111434871" lon="14.48689445547012" id="-10970">
		<tag k="name" v="Heimerpåltjønna" />
		<tag k="natural" v="water" />
		<tag k="ssr:stedsnr" v="908597" />
	</node>
	<node lat="66.32171666305454" lon="14.546500002149344" id="-10975">
		<tag k="name" v="Vesterbekken" />
		<tag k="ssr:stedsnr" v="908694" />
		<tag k="waterway" v="stream" />
	</node>
	<node lat="66.3468000011229" lon="13.979288885028616" id="-10979">
		<tag k="name" v="Steindalsbekken" />
		<tag k="ssr:stedsnr" v="908785" />
		<tag k="waterway" v="stream" />
	</node>
	<node lat="66.34525555957826" lon="14.626974989701731" id="-10981">
		<tag k="name" v="Bursteintjønna" />
		<tag k="natural" v="water" />
		<tag k="ssr:stedsnr" v="908717" />
	</node>
	<node lat="66.3797833299638" lon="13.993425002046799" id="-10984">
		<tag k="name" v="Steinbekken" />
		<tag k="ssr:stedsnr" v="908727" />
		<tag k="waterway" v="stream" />
	</node>
	<node lat="66.2713638907784" lon="13.504466667488302" id="-10989">
		<tag k="name" v="Øvre Elvnesan" />
		<tag k="natural" v="cape" />
		<tag k="ssr:stedsnr" v="908880" />
	</node>
	<node lat="66.2865000028977" lon="13.81893333136977" id="-10993">
		<tag k="name" v="Jamtjordbekken" />
		<tag k="ssr:stedsnr" v="908981" />
		<tag k="waterway" v="stream" />
	</node>
	<node lat="66.45442778056736" lon="14.836577786091317" id="-10996">
		<tag k="name" v="Krokbekken" />
		<tag k="ssr:stedsnr" v="908934" />
		<tag k="waterway" v="stream" />
	</node>
	<node lat="66.45763333436258" lon="14.848244442300762" id="-10997">
		<tag k="name" v="Hestjutea" />
		<tag k="natural" v="water" />
		<tag k="ssr:stedsnr" v="908936" />
		<tag k="water" v="lake" />
	</node>
	<node lat="66.35759721941788" lon="14.204880564764963" id="-11006">
		<tag k="name" v="Nordtjønna" />
		<tag k="natural" v="water" />
		<tag k="ssr:stedsnr" v="786154" />
	</node>
	<node lat="66.42036944209198" lon="14.109686101762183" id="-11008">
		<tag k="name" v="Bekkenesan" />
		<tag k="natural" v="cape" />
		<tag k="ssr:stedsnr" v="786165" />
	</node>
	<node lat="66.49255277588303" lon="14.951066660588959" id="-11009">
		<tag k="name" v="Kvannbekken" />
		<tag k="ssr:stedsnr" v="786013" />
		<tag k="waterway" v="stream" />
	</node>
	<node lat="66.36614999880673" lon="14.779816673766389" id="-11012">
		<tag k="name" v="Langneset" />
		<tag k="natural" v="cape" />
		<tag k="ssr:stedsnr" v="786019" />
	</node>
	<node lat="66.34434444194846" lon="13.501708325212435" id="-11013">
		<tag k="name" v="Alfredvatnet" />
		<tag k="natural" v="water" />
		<tag k="ssr:stedsnr" v="786203" />
	</node>
	<node lat="66.31002500000464" lon="14.773772216051725" id="-11018">
		<tag k="name" v="Bjørnbekken" />
		<tag k="ssr:stedsnr" v="786221" />
		<tag k="waterway" v="stream" />
	</node>
	<node lat="66.37029722185157" lon="14.773397229353376" id="-11027">
		<tag k="name" v="Nevertjønna" />
		<tag k="natural" v="water" />
		<tag k="ssr:stedsnr" v="786249" />
	</node>
	<node lat="66.3473777761559" lon="13.966219441912298" id="-11033">
		<tag k="name" v="Bjerkliforsen" />
		<tag k="natural" v="waterfall" />
		<tag k="ssr:stedsnr" v="786760" />
	</node>
	<node lat="66.34995555381524" lon="13.94810555430108" id="-11034">
		<tag k="name" v="Langtjønnbekken" />
		<tag k="ssr:stedsnr" v="786761" />
		<tag k="waterway" v="stream" />
	</node>
	<node lat="66.4130194415871" lon="13.929419448043483" id="-11036">
		<tag k="name" v="Kvannhølavan" />
		<tag k="place" v="islet" />
		<tag k="ssr:stedsnr" v="786649" />
	</node>
	<node lat="66.21522499717456" lon="15.204716667580682" id="-11040">
		<tag k="name" v="Kufjelltjønna" />
		<tag k="natural" v="water" />
		<tag k="ssr:stedsnr" v="804056" />
		<tag k="water" v="lake" />
	</node>
	<node lat="66.24759444561272" lon="14.28210556106627" id="-11042">
		<tag k="name" v="Småvasselva - Guelehtsjohke" />
		<tag k="name:no" v="Småvasselva" />
		<tag k="name:sma" v="Guelehtsjohke" />
		<tag k="old_name:sma" v="Guolehisjohka" />
		<tag k="ssr:stedsnr" v="804826" />
		<tag k="waterway" v="river" />
	</node>
	<node lat="66.34704722003728" lon="14.030569453620851" id="-11045">
		<tag k="name" v="Stamtjønna" />
		<tag k="natural" v="water" />
		<tag k="ssr:stedsnr" v="805016" />
	</node>
	<node lat="66.30018333137937" lon="13.907586107368253" id="-11048">
		<tag k="name" v="Dalabekken" />
		<tag k="ssr:stedsnr" v="805068" />
		<tag k="waterway" v="stream" />
	</node>
	<node lat="66.28588332973025" lon="13.872002775780729" id="-11050">
		<tag k="alt_name" v="Slettbakkåga" />
		<tag k="name" v="Slettbakkbekken" />
		<tag k="ssr:stedsnr" v="805074" />
		<tag k="waterway" v="stream" />
	</node>
	<node lat="66.41265278059194" lon="14.690158332956708" id="-11053">
		<tag k="name" v="Storørfjelltjønna" />
		<tag k="natural" v="water" />
		<tag k="ssr:stedsnr" v="805204" />
	</node>
	<node lat="66.44580000271301" lon="14.321883324177621" id="-11056">
		<tag k="name" v="Storbekken" />
		<tag k="ssr:stedsnr" v="805112" />
		<tag k="waterway" v="stream" />
	</node>
	<node lat="66.33016110947203" lon="14.166286101891721" id="-11062">
		<tag k="name" v="Sjøforsen" />
		<tag k="natural" v="waterfall" />
		<tag k="ssr:stedsnr" v="812494" />
	</node>
	<node lat="66.34274722574565" lon="14.46455833144367" id="-11081">
		<tag k="name" v="Hansvollbekken" />
		<tag k="ssr:stedsnr" v="828567" />
		<tag k="waterway" v="stream" />
	</node>
	<node lat="66.23748333645796" lon="14.353874991298367" id="-11084">
		<tag k="name" v="Tvellingtjønna" />
		<tag k="natural" v="water" />
		<tag k="ssr:stedsnr" v="828765" />
	</node>
	<node lat="66.42607777389638" lon="14.361133333702053" id="-11089">
		<tag k="name" v="Auster-Stjernetjønna" />
		<tag k="natural" v="water" />
		<tag k="ssr:stedsnr" v="828926" />
	</node>
	<node lat="66.43119722301047" lon="14.325902784765836" id="-11090">
		<tag k="name" v="Hjarttjønnbekken" />
		<tag k="ssr:stedsnr" v="828927" />
		<tag k="waterway" v="stream" />
	</node>
	<node lat="66.44834166412674" lon="15.130616671004102" id="-11093">
		<tag k="name" v="Gammelneset" />
		<tag k="natural" v="cape" />
		<tag k="ssr:stedsnr" v="828940" />
	</node>
	<node lat="66.4699194411234" lon="15.08906944356363" id="-11094">
		<tag k="name" v="Burbekken" />
		<tag k="ssr:stedsnr" v="828942" />
		<tag k="waterway" v="stream" />
	</node>
	<node lat="66.45960278042651" lon="15.104402787423066" id="-11096">
		<tag k="name" v="Sagbekken" />
		<tag k="ssr:stedsnr" v="828951" />
		<tag k="waterway" v="stream" />
	</node>
	<node lat="66.4288833343379" lon="14.240272224236321" id="-11101">
		<tag k="name" v="Holmen" />
		<tag k="place" v="islet" />
		<tag k="ssr:stedsnr" v="832198" />
	</node>
	<node lat="66.42671389041534" lon="14.252550004610187" id="-11106">
		<tag k="name" v="Skreabekken" />
		<tag k="ssr:stedsnr" v="832204" />
		<tag k="waterway" v="stream" />
	</node>
	<node lat="66.24510833286496" lon="14.102416659237244" id="-11112">
		<tag k="name" v="Bjerklitjønna" />
		<tag k="natural" v="water" />
		<tag k="ssr:stedsnr" v="832411" />
		<tag k="water" v="lake" />
	</node>
	<node lat="66.23800833703996" lon="14.106702767431853" id="-11113">
		<tag k="name" v="Brattforsea" />
		<tag k="natural" v="water" />
		<tag k="ssr:stedsnr" v="832379" />
		<tag k="water" v="lake" />
	</node>
	<node lat="66.40377777323025" lon="14.56226945134885" id="-11124">
		<tag k="name" v="Svanvass-bekken" />
		<tag k="ssr:stedsnr" v="832979" />
		<tag k="waterway" v="stream" />
	</node>
	<node lat="66.28360555469749" lon="14.077322211801075" id="-11135">
		<tag k="name" v="Raubergbekken" />
		<tag k="ssr:stedsnr" v="833314" />
		<tag k="waterway" v="stream" />
	</node>
	<node lat="66.32553055480777" lon="14.407441665786669" id="-11141">
		<tag k="name" v="Nord-Sagdamtjønna" />
		<tag k="natural" v="water" />
		<tag k="ssr:stedsnr" v="833850" />
		<tag k="water" v="lake" />
	</node>
	<node lat="66.48725555799419" lon="14.942069433976613" id="-11147">
		<tag k="name" v="Krokbekken" />
		<tag k="ssr:stedsnr" v="847007" />
		<tag k="waterway" v="stream" />
	</node>
	<node lat="66.4163388902862" lon="14.655005551806065" id="-11148">
		<tag k="name" v="Trolldalsbekken" />
		<tag k="ssr:stedsnr" v="847013" />
		<tag k="waterway" v="stream" />
	</node>
	<node lat="66.40436110714246" lon="14.102866665703424" id="-11159">
		<tag k="name" v="Langbergbekken" />
		<tag k="ssr:stedsnr" v="847882" />
		<tag k="waterway" v="stream" />
	</node>
	<node lat="66.34823888489638" lon="14.546872222978074" id="-11164">
		<tag k="name" v="Okstjønnbekken" />
		<tag k="ssr:stedsnr" v="847715" />
		<tag k="waterway" v="stream" />
	</node>
	<node lat="66.33975833199659" lon="14.530944444386659" id="-11165">
		<tag k="name" v="Hestmyrbekken" />
		<tag k="ssr:stedsnr" v="847719" />
		<tag k="waterway" v="stream" />
	</node>
	<node lat="66.28096666534975" lon="14.52740556492295" id="-11167">
		<tag k="name" v="Ytterholmen" />
		<tag k="place" v="islet" />
		<tag k="ssr:stedsnr" v="847726" />
	</node>
	<node lat="66.2934666677342" lon="13.809844451122105" id="-11169">
		<tag k="name" v="Innerforsen" />
		<tag k="natural" v="waterfall" />
		<tag k="ssr:stedsnr" v="847981" />
	</node>
	<node lat="66.39074166488606" lon="14.157350002884703" id="-11173">
		<tag k="name" v="Ravntindtjønna" />
		<tag k="natural" v="water" />
		<tag k="ssr:stedsnr" v="926051" />
	</node>
	<node lat="66.2757333325782" lon="14.050688897135235" id="-11176">
		<tag k="alt_name" v="Skrebekken" />
		<tag k="name" v="Skredbekken" />
		<tag k="ssr:stedsnr" v="926095" />
		<tag k="waterway" v="stream" />
	</node>
	<node lat="66.4711944422793" lon="14.389902779030944" id="-11177">
		<tag k="name" v="Lappstavbekken" />
		<tag k="ssr:stedsnr" v="926137" />
		<tag k="waterway" v="stream" />
	</node>
	<node lat="66.26486111123307" lon="14.120744439956677" id="-11180">
		<tag k="alt_name" v="Breidlibekken" />
		<tag k="name" v="Breilibekken" />
		<tag k="ssr:stedsnr" v="926164" />
		<tag k="waterway" v="stream" />
	</node>
	<node lat="66.47073333732308" lon="14.375419454335018" id="-11182">
		<tag k="name" v="Røvassåga" />
		<tag k="ssr:stedsnr" v="926183" />
		<tag k="waterway" v="river" />
	</node>
	<node lat="66.39387777643933" lon="14.482652770558147" id="-11183">
		<tag k="name" v="Smånesbekken" />
		<tag k="ssr:stedsnr" v="926198" />
		<tag k="waterway" v="stream" />
	</node>
	<node lat="66.37434166435737" lon="14.56142776854307" id="-11185">
		<tag k="name" v="Kvernbekken" />
		<tag k="ssr:stedsnr" v="926280" />
		<tag k="waterway" v="stream" />
	</node>
	<node lat="66.36202777884336" lon="14.224274997316517" id="-11187">
		<tag k="name" v="Hestbekken" />
		<tag k="ssr:stedsnr" v="926288" />
		<tag k="waterway" v="stream" />
	</node>
	<node lat="66.44346111114838" lon="15.074383333115678" id="-11190">
		<tag k="name" v="Skilltjønna" />
		<tag k="natural" v="water" />
		<tag k="ssr:stedsnr" v="926439" />
	</node>
	<node lat="66.64659999921656" lon="15.0092777783655" id="-11192">
		<tag k="alt_name" v="Kjeldeelvvatna, s" />
		<tag k="name" v="Søre Kjeldeelvvatna" />
		<tag k="natural" v="water" />
		<tag k="ssr:stedsnr" v="926537" />
		<tag k="water" v="lake" />
	</node>
	<node lat="66.65123055703589" lon="14.442500005715582" id="-11194">
		<tag k="name" v="Bogvatnet - Tjoamodisjávrre" />
		<tag k="name:no" v="Bogvatnet" />
		<tag k="name:smj" v="Tjoamodisjávrre" />
		<tag k="natural" v="water" />
		<tag k="old_name:smj" v="Čoamotisjavri" />
		<tag k="ssr:stedsnr" v="926488" />
		<tag k="water" v="lake" />
	</node>
	<node lat="66.37227500276737" lon="15.17316944427611" id="-11197">
		<tag k="name" v="Langbergbekken" />
		<tag k="ssr:stedsnr" v="926498" />
		<tag k="waterway" v="stream" />
	</node>
	<node lat="66.51204721877922" lon="14.797730562611187" id="-11198">
		<tag k="name" v="Stormdalsåga" />
		<tag k="ssr:stedsnr" v="926567" />
		<tag k="waterway" v="river" />
	</node>
	<node lat="66.28191389315947" lon="15.200577775444238" id="-11199">
		<tag k="name" v="C-tjønna" />
		<tag k="natural" v="water" />
		<tag k="ssr:stedsnr" v="926544" />
	</node>
	<node lat="66.28615000053352" lon="14.94917499913565" id="-11200">
		<tag k="alt_name" v="Heinbergelva" />
		<tag k="name" v="Heinbergåga" />
		<tag k="ssr:stedsnr" v="926545" />
		<tag k="waterway" v="river" />
	</node>
	<node lat="66.23602778119957" lon="14.064413896248263" id="-11202">
		<tag k="name" v="Fagermobekken" />
		<tag k="ssr:stedsnr" v="926699" />
		<tag k="waterway" v="stream" />
	</node>
	<node lat="66.44203889256822" lon="13.967150006363363" id="-11207">
		<tag k="name" v="Stupforsbekken" />
		<tag k="ssr:stedsnr" v="926882" />
		<tag k="waterway" v="stream" />
	</node>
	<node lat="66.19035277821816" lon="14.563255560163537" id="-11208">
		<tag k="name" v="Umskardtjønna" />
		<tag k="natural" v="water" />
		<tag k="ssr:stedsnr" v="926835" />
		<tag k="water" v="lake" />
	</node>
	<node lat="66.19949444322843" lon="14.361574998199448" id="-11209">
		<tag k="name" v="Andreasbukta" />
		<tag k="natural" v="bay" />
		<tag k="ssr:stedsnr" v="926838" />
	</node>
	<node lat="66.20320000234778" lon="14.30512776791645" id="-11210">
		<tag k="name" v="Vestervatnet" />
		<tag k="natural" v="water" />
		<tag k="ssr:stedsnr" v="926839" />
		<tag k="water" v="lake" />
	</node>
	<node lat="66.26497499855455" lon="13.471983325005526" id="-11214">
		<tag k="name" v="Magnusvatnet" />
		<tag k="natural" v="water" />
		<tag k="ssr:stedsnr" v="926937" />
	</node>
	<node lat="66.25697777336954" lon="13.47431110962846" id="-11222">
		<tag k="name" v="Granhattbekken" />
		<tag k="ssr:stedsnr" v="926990" />
		<tag k="waterway" v="stream" />
	</node>
	<node lat="66.34641111040973" lon="14.337180549732064" id="-11225">
		<tag k="alt_name" v="Meforsen" />
		<tag k="name" v="Medforsen" />
		<tag k="natural" v="waterfall" />
		<tag k="ssr:stedsnr" v="927282" />
	</node>
	<node lat="66.54253333712832" lon="13.915069441133864" id="-11227">
		<tag k="name" v="Nedre Pikhaugvatnet" />
		<tag k="natural" v="water" />
		<tag k="ssr:stedsnr" v="927469" />
	</node>
	<node lat="66.304483336553" lon="14.616899998663847" id="-11229">
		<tag k="name" v="Litlraudvatnet" />
		<tag k="natural" v="water" />
		<tag k="ssr:stedsnr" v="927438" />
		<tag k="water" v="lake" />
	</node>
	<node lat="66.40922778133921" lon="15.175658340665377" id="-11230">
		<tag k="name" v="Tørrbekken" />
		<tag k="ssr:stedsnr" v="927444" />
		<tag k="waterway" v="stream" />
	</node>
	<node lat="66.54736944152452" lon="14.9347472156571" id="-11231">
		<tag k="name" v="Tespa - Disspá" />
		<tag k="name:no" v="Tespa" />
		<tag k="name:smj" v="Disspá" />
		<tag k="ssr:stedsnr" v="927578" />
		<tag k="waterway" v="river" />
	</node>
	<node lat="66.5325805578058" lon="14.725072226420439" id="-11232">
		<tag k="name" v="Tordenåga" />
		<tag k="ssr:stedsnr" v="927585" />
		<tag k="waterway" v="stream" />
	</node>
	<node lat="66.53098333105177" lon="14.828369450863182" id="-11234">
		<tag k="alt_name" v="Tverrelva, in" />
		<tag k="name" v="Indre Tverrelva" />
		<tag k="ssr:stedsnr" v="927588" />
		<tag k="waterway" v="stream" />
	</node>
	<node lat="66.43121666752036" lon="14.07545555535169" id="-11236">
		<tag k="name" v="Midtibekken" />
		<tag k="ssr:stedsnr" v="927935" />
		<tag k="waterway" v="stream" />
	</node>
	<node lat="66.41880277447522" lon="13.867672219809366" id="-11237">
		<tag k="name" v="Fjelldalsbekken" />
		<tag k="ssr:stedsnr" v="931969" />
		<tag k="waterway" v="stream" />
	</node>
	<node lat="66.4124777777686" lon="14.031641677258058" id="-11239">
		<tag k="name" v="Kroken" />
		<tag k="natural" v="bay" />
		<tag k="ssr:stedsnr" v="888451" />
	</node>
	<node lat="66.34478888779854" lon="14.42131944730478" id="-11240">
		<tag k="name" v="Stillvatnet" />
		<tag k="natural" v="water" />
		<tag k="ssr:stedsnr" v="888903" />
		<tag k="water" v="lake" />
	</node>
	<node lat="66.48544999727243" lon="14.934819448886875" id="-11244">
		<tag k="name" v="Krokbekken" />
		<tag k="ssr:stedsnr" v="889358" />
		<tag k="waterway" v="stream" />
	</node>
	<node lat="66.36564999772317" lon="14.52569999550191" id="-11252">
		<tag k="name" v="Storbekktjønna" />
		<tag k="natural" v="water" />
		<tag k="ssr:stedsnr" v="892927" />
	</node>
	<node lat="66.33414722329762" lon="14.282894445881237" id="-11256">
		<tag k="name" v="Kjerrforsen" />
		<tag k="natural" v="waterfall" />
		<tag k="ssr:stedsnr" v="893127" />
	</node>
	<node lat="66.35340833546233" lon="14.190216668315871" id="-11269">
		<tag k="name" v="Langtjønna" />
		<tag k="natural" v="water" />
		<tag k="ssr:stedsnr" v="893272" />
		<tag k="water" v="lake" />
	</node>
	<node lat="66.31501944209502" lon="14.182183336843236" id="-11272">
		<tag k="name" v="Hestneset" />
		<tag k="natural" v="cape" />
		<tag k="ssr:stedsnr" v="893416" />
	</node>
	<node lat="66.33354999886507" lon="14.197888878277348" id="-11278">
		<tag k="name" v="Kvernbekken" />
		<tag k="ssr:stedsnr" v="893473" />
		<tag k="waterway" v="stream" />
	</node>
	<node lat="66.30834722086973" lon="13.730341674271207" id="-11286">
		<tag k="name" v="Storrundlitjønna" />
		<tag k="natural" v="water" />
		<tag k="ssr:stedsnr" v="893680" />
		<tag k="water" v="lake" />
	</node>
	<node lat="66.29695555379026" lon="13.782725001306439" id="-11287">
		<tag k="name" v="Tverråga" />
		<tag k="ssr:stedsnr" v="893766" />
		<tag k="waterway" v="stream" />
	</node>
	<node lat="66.43743055489657" lon="14.140847211422498" id="-11307">
		<tag k="name" v="Midtiaven" />
		<tag k="natural" v="water" />
		<tag k="ssr:stedsnr" v="907161" />
	</node>
	<node lat="66.36354999937123" lon="14.75678888969494" id="-11310">
		<tag k="name" v="Høystakkbekken" />
		<tag k="ssr:stedsnr" v="908016" />
		<tag k="waterway" v="stream" />
	</node>
	<node lat="66.31563888810261" lon="14.607113899067166" id="-11316">
		<tag k="name" v="Småtjønna" />
		<tag k="natural" v="water" />
		<tag k="ssr:stedsnr" v="908457" />
	</node>
	<node lat="66.47636666419373" lon="13.850152770290139" id="-11325">
		<tag k="name" v="Skillebekken" />
		<tag k="ssr:stedsnr" v="908663" />
		<tag k="waterway" v="stream" />
	</node>
	<node lat="66.46729166701958" lon="14.853213890764797" id="-11331">
		<tag k="name" v="Messingea" />
		<tag k="natural" v="water" />
		<tag k="ssr:stedsnr" v="908963" />
		<tag k="water" v="lake" />
	</node>
	<node lat="66.1238555551679" lon="14.436811100883238" id="-11333">
		<tag k="name" v="Heitmann Kristian-tjønna" />
		<tag k="natural" v="water" />
		<tag k="ssr:stedsnr" v="925104" />
	</node>
	<node lat="66.21830000362048" lon="13.965744449139121" id="-11336">
		<tag k="name" v="Pyttjønna" />
		<tag k="natural" v="water" />
		<tag k="ssr:stedsnr" v="925776" />
	</node>
	<node lat="66.24670833364638" lon="14.552988886749663" id="-11337">
		<tag k="name" v="Vesterneset" />
		<tag k="natural" v="cape" />
		<tag k="ssr:stedsnr" v="925862" />
	</node>
	<node lat="66.22092777722659" lon="14.649094440715922" id="-11338">
		<tag k="name" v="Skredtjønna" />
		<tag k="natural" v="water" />
		<tag k="ssr:stedsnr" v="925881" />
	</node>
	<node lat="66.14916944619964" lon="14.584916674016037" id="-11339">
		<tag k="alt_name" v="Littjbukta" />
		<tag k="name" v="Litlbukta" />
		<tag k="natural" v="bay" />
		<tag k="ssr:stedsnr" v="926105" />
	</node>
	<node lat="66.39500000348418" lon="14.460966669504462" id="-11348">
		<tag k="alt_name" v="Gomeabekken" />
		<tag k="name" v="Gammebekken" />
		<tag k="ssr:stedsnr" v="926208" />
		<tag k="waterway" v="stream" />
	</node>
	<node lat="66.32991666727874" lon="14.347502779414217" id="-11354">
		<tag k="name" v="Langtjønna" />
		<tag k="natural" v="water" />
		<tag k="ssr:stedsnr" v="926367" />
	</node>
	<node lat="66.34766389273955" lon="15.111463889161689" id="-11357">
		<tag k="name" v="Steintjønna" />
		<tag k="natural" v="water" />
		<tag k="ssr:stedsnr" v="926505" />
	</node>
	<node lat="66.32914166412348" lon="15.171861108455117" id="-11359">
		<tag k="name" v="Krabbfjelltjønnan" />
		<tag k="natural" v="water" />
		<tag k="ssr:stedsnr" v="926513" />
	</node>
	<node lat="66.31089722483138" lon="14.281877787522678" id="-11362">
		<tag k="name" v="Kristentjønna" />
		<tag k="natural" v="water" />
		<tag k="ssr:stedsnr" v="926412" />
	</node>
	<node lat="66.46331944529777" lon="15.188022213709171" id="-11363">
		<tag k="name" v="Randalstjønnan" />
		<tag k="natural" v="water" />
		<tag k="ssr:stedsnr" v="926456" />
	</node>
	<node lat="66.47699166763697" lon="14.866083339044367" id="-11366">
		<tag k="name" v="Larstjønna" />
		<tag k="natural" v="water" />
		<tag k="ssr:stedsnr" v="926479" />
	</node>
	<node lat="66.54815277985209" lon="15.366988890830296" id="-11367">
		<tag k="alt_name:no" v="Suongsbekken" />
		<tag k="name" v="Svangsbekken - Svánjgajåhkå" />
		<tag k="name:no" v="Svangsbekken" />
		<tag k="name:smj" v="Svánjgajåhkå" />
		<tag k="old_name:smj" v="Svanjgajåkka" />
		<tag k="ssr:stedsnr" v="926627" />
		<tag k="waterway" v="stream" />
	</node>
	<node lat="66.31071944079093" lon="13.574988880230185" id="-11370">
		<tag k="name" v="Botnelva" />
		<tag k="ssr:stedsnr" v="926768" />
		<tag k="waterway" v="stream" />
	</node>
	<node lat="66.4270472268293" lon="13.976552771186652" id="-11374">
		<tag k="name" v="Ravnåga" />
		<tag k="ssr:stedsnr" v="926922" />
		<tag k="waterway" v="river" />
	</node>
	<node lat="66.3245277818027" lon="13.939972234030884" id="-11381">
		<tag k="name" v="Stupforsbekken" />
		<tag k="ssr:stedsnr" v="927111" />
		<tag k="waterway" v="stream" />
	</node>
	<node lat="66.44310832994731" lon="14.228930544680379" id="-11382">
		<tag k="name" v="Reingardsåga" />
		<tag k="ssr:stedsnr" v="927153" />
		<tag k="waterway" v="stream" />
	</node>
	<node lat="66.61905832980467" lon="14.984672227962488" id="-11386">
		<tag k="name" v="Tespvatna" />
		<tag k="natural" v="water" />
		<tag k="ssr:stedsnr" v="927562" />
		<tag k="water" v="lake" />
	</node>
	<node lat="66.56465278000486" lon="14.963022225487082" id="-11387">
		<tag k="name" v="Storbekken" />
		<tag k="ssr:stedsnr" v="927568" />
		<tag k="waterway" v="stream" />
	</node>
	<node lat="66.42862499626943" lon="15.158816667875746" id="-11389">
		<tag k="name" v="Hubekken" />
		<tag k="ssr:stedsnr" v="927460" />
		<tag k="waterway" v="stream" />
	</node>
	<node lat="66.42970278229099" lon="14.761080550896567" id="-11391">
		<tag k="name" v="Strandjordelva" />
		<tag k="ssr:stedsnr" v="927464" />
		<tag k="waterway" v="river" />
	</node>
	<node lat="66.51850833668912" lon="14.741847212928429" id="-11392">
		<tag k="name" v="Skredbekken" />
		<tag k="ssr:stedsnr" v="927658" />
		<tag k="waterway" v="stream" />
	</node>
	<node lat="66.29451389290847" lon="13.45738333915787" id="-11393">
		<tag k="alt_name" v="Snelibekken" />
		<tag k="name" v="Snølibekken" />
		<tag k="ssr:stedsnr" v="927801" />
		<tag k="waterway" v="stream" />
	</node>
	<node lat="66.42160000409395" lon="14.12665555865359" id="-11394">
		<tag k="name" v="Langtjønnan" />
		<tag k="natural" v="water" />
		<tag k="ssr:stedsnr" v="927920" />
		<tag k="water" v="lake" />
	</node>
	<node lat="66.41767500091089" lon="14.052499999416995" id="-11395">
		<tag k="name" v="Svanåvatnet" />
		<tag k="natural" v="water" />
		<tag k="ssr:stedsnr" v="927925" />
	</node>
	<node lat="66.40321111087145" lon="13.693413891330346" id="-11397">
		<tag k="name" v="Trolldalsvatnet" />
		<tag k="natural" v="water" />
		<tag k="ssr:stedsnr" v="927855" />
		<tag k="water" v="lake" />
	</node>
	<node lat="66.22992778027822" lon="13.888019449443192" id="-11402">
		<tag k="name" v="Bordvikbekken" />
		<tag k="ssr:stedsnr" v="938932" />
		<tag k="waterway" v="stream" />
	</node>
	<node lat="66.21794166562681" lon="15.013422216707353" id="-11404">
		<tag k="name" v="Hammarhavetjønna" />
		<tag k="natural" v="water" />
		<tag k="ssr:stedsnr" v="949246" />
	</node>
	<node lat="66.4360138898624" lon="14.029363885551088" id="-11406">
		<tag k="name" v="Mølnhusbekken" />
		<tag k="ssr:stedsnr" v="949388" />
		<tag k="waterway" v="stream" />
	</node>
	<node lat="66.44014166405631" lon="14.027769439868043" id="-11407">
		<tag k="name" v="Janesforsen" />
		<tag k="natural" v="waterfall" />
		<tag k="ssr:stedsnr" v="949390" />
	</node>
	<node lat="66.37767500300235" lon="14.342952771690227" id="-11414">
		<tag k="name" v="Høglibekken" />
		<tag k="ssr:stedsnr" v="949934" />
		<tag k="waterway" v="stream" />
	</node>
	<node lat="66.44654444909948" lon="15.169605545645448" id="-11415">
		<tag k="name" v="Rundea" />
		<tag k="natural" v="water" />
		<tag k="ssr:stedsnr" v="949935" />
		<tag k="water" v="lake" />
	</node>
	<node lat="66.36908055181958" lon="14.301655545573325" id="-11425">
		<tag k="name" v="Stordalskjosen" />
		<tag k="natural" v="bay" />
		<tag k="ssr:stedsnr" v="953217" />
	</node>
	<node lat="66.47145277729771" lon="14.3851388930504" id="-11434">
		<tag k="name" v="Lappstovabukta" />
		<tag k="natural" v="bay" />
		<tag k="ssr:stedsnr" v="953813" />
	</node>
</osm>
