<?xml version="1.0" encoding="UTF-8"?>
<osm version="0.6" generator="osmapis">
	<node lat="66.36703055619668" lon="14.311513881439376" id="-17217">
		<tag k="fixme" v="specify shooting=range, clay_pigeon etc" />
		<tag k="leisure" v="pitch" />
		<tag k="name" v="Røssvollhei skytebane" />
		<tag k="sport" v="shooting" />
		<tag k="ssr:stedsnr" v="164232" />
	</node>
	<node lat="66.3174500041687" lon="13.998575007796651" id="-17562">
		<tag k="fixme" v="consider boundary=protected_area and relevant protect_class if not nature reserve" />
		<tag k="leisure" v="nature_reserve" />
		<tag k="name" v="Alterhaug naturreservat" />
		<tag k="ssr:stedsnr" v="282682" />
	</node>
	<node lat="66.52397222521854" lon="15.451058328996663" id="-17886">
		<tag k="historic" v="boundary_stone" />
		<tag k="man_made" v="cairn" />
		<tag k="name" v="Svangstjernsrøysa" />
		<tag k="old_name" v="Svangs kiærns Røset;Svangstjerns røs" />
		<tag k="place" v="locality" />
		<tag k="ssr:stedsnr" v="353533" />
	</node>
	<node lat="66.28246395846612" lon="15.48471911568536" id="-17887">
		<tag k="historic" v="boundary_stone" />
		<tag k="man_made" v="cairn" />
		<tag k="name" v="Bonesrøysa" />
		<tag k="old_name" v="Bonnæs Røset" />
		<tag k="place" v="locality" />
		<tag k="ssr:stedsnr" v="353539" />
	</node>
	<node lat="66.2327416650714" lon="15.305563885458948" id="-17888">
		<tag k="historic" v="boundary_stone" />
		<tag k="man_made" v="cairn" />
		<tag k="name" v="Marmorrøysa" />
		<tag k="old_name" v="Marmor røs;Marmor Røset" />
		<tag k="place" v="locality" />
		<tag k="ssr:stedsnr" v="353540" />
	</node>
	<node lat="66.51384444434989" lon="15.432188895599882" id="-18788">
		<tag k="historic" v="boundary_stone" />
		<tag k="man_made" v="cairn" />
		<tag k="name" v="Stokkafjellsrøysa" />
		<tag k="place" v="locality" />
		<tag k="ssr:stedsnr" v="657534" />
	</node>
	<node lat="66.48430673650076" lon="15.37721667615407" id="-18789">
		<tag k="historic" v="boundary_stone" />
		<tag k="man_made" v="cairn" />
		<tag k="name" v="Nasarøysa" />
		<tag k="old_name" v="Nasa Røset;Nasa røs" />
		<tag k="place" v="locality" />
		<tag k="ssr:stedsnr" v="657535" />
	</node>
	<node lat="66.20002222402098" lon="15.195333333401024" id="-18790">
		<tag k="historic" v="boundary_stone" />
		<tag k="man_made" v="cairn" />
		<tag k="name" v="Kåfjellsrøysa" />
		<tag k="old_name" v="Gøse Tiok Røset;Gosecokka røs;Kofjeld røs" />
		<tag k="place" v="locality" />
		<tag k="ssr:stedsnr" v="657542" />
	</node>
	<node lat="66.15356111025575" lon="15.035688878823493" id="-19051">
		<tag k="historic" v="boundary_stone" />
		<tag k="man_made" v="cairn" />
		<tag k="name" v="Umvassrøysa" />
		<tag k="old_name" v="Umvas røs;Jaus Jaure Røset;Jousjavrre røs" />
		<tag k="place" v="locality" />
		<tag k="ssr:stedsnr" v="900539" />
	</node>
	<node lat="66.65459999713639" lon="14.793102768703308" id="-19361">
		<tag k="fixme" v="consider boundary=protected_area and relevant protect_class if not nature reserve" />
		<tag k="leisure" v="nature_reserve" />
		<tag k="name" v="Saltfjellet-Svartisen nasjonalpark" />
		<tag k="ssr:stedsnr" v="815008" />
	</node>
	<node lat="66.4068083366754" lon="15.421991657807439" id="-20128">
		<tag k="historic" v="boundary_stone" />
		<tag k="man_made" v="cairn" />
		<tag k="name" v="Gubbeltåga" />
		<tag k="place" v="locality" />
		<tag k="ssr:stedsnr" v="50495" />
	</node>
	<node lat="66.55785833271933" lon="15.533355543900635" id="-20629">
		<tag k="historic" v="boundary_stone" />
		<tag k="man_made" v="cairn" />
		<tag k="name" v="Svangsfjellsrøysa" />
		<tag k="old_name" v="Svangs fields Røset;Svangsfjelds røs" />
		<tag k="place" v="locality" />
		<tag k="ssr:stedsnr" v="171545" />
	</node>
	<node lat="66.3923657622346" lon="15.430286304238896" id="-20630">
		<tag k="historic" v="boundary_stone" />
		<tag k="man_made" v="cairn" />
		<tag k="name" v="Trombergrøysa" />
		<tag k="old_name" v="Tromberget røs;Gobdis Backt Røset;Gobdesbakte røs" />
		<tag k="place" v="locality" />
		<tag k="ssr:stedsnr" v="171548" />
	</node>
	<node lat="66.13257777402403" lon="14.516283329634796" id="-20631">
		<tag k="historic" v="boundary_stone" />
		<tag k="man_made" v="cairn" />
		<tag k="name" v="Skukkenrøysa" />
		<tag k="old_name" v="Skuotkevarre røs;Skautkievari;Røset" />
		<tag k="place" v="locality" />
		<tag k="ssr:stedsnr" v="171580" />
	</node>
	<node lat="66.18013099416045" lon="15.126749252035049" id="-20953">
		<tag k="historic" v="boundary_stone" />
		<tag k="man_made" v="cairn" />
		<tag k="name" v="Båtfjellsrøysa" />
		<tag k="place" v="locality" />
		<tag k="ssr:stedsnr" v="293546" />
	</node>
	<node lat="66.13901858222282" lon="14.683852476025333" id="-21512">
		<tag k="historic" v="boundary_stone" />
		<tag k="man_made" v="cairn" />
		<tag k="name" v="Ravduvardurøysa" />
		<tag k="old_name" v="Raugde Vardo Røset;Ravddovarddo røs;Rørvas røs" />
		<tag k="place" v="locality" />
		<tag k="ssr:stedsnr" v="414555" />
	</node>
	<node lat="66.14599179121106" lon="14.863716633073924" id="-22111">
		<tag k="historic" v="boundary_stone" />
		<tag k="man_made" v="cairn" />
		<tag k="name" v="Gergetse Tiaks-røysa" />
		<tag k="old_name" v="Gergetse Tioks Røset;Steinfjeld røs;Gergeccokka røs" />
		<tag k="place" v="locality" />
		<tag k="ssr:stedsnr" v="596497" />
	</node>
	<node lat="66.3374611099712" lon="14.130241666727112" id="-22567">
		<tag k="fixme" v="consider boundary=protected_area and relevant protect_class if not nature reserve" />
		<tag k="leisure" v="nature_reserve" />
		<tag k="name" v="Engasjyen naturreservat" />
		<tag k="ssr:stedsnr" v="767011" />
	</node>
	<node lat="66.19232821385069" lon="14.486082715936819" id="-23595">
		<tag k="name" v="Rana-allmenningen" />
		<tag k="old_name" v="Nord-Rana allmenning" />
		<tag k="place" v="locality" />
		<tag k="ssr:stedsnr" v="1073001" />
	</node>
</osm>
