<?xml version="1.0" encoding="UTF-8"?>
<<<<<<< HEAD
<osm version="0.6" generator="osmapis">
	<node lat="66.46071111292231" lon="14.34029999970269" id="-5756">
		<tag k="name" v="Reinhagamyra" />
		<tag k="natural" v="wetland" />
		<tag k="ssr:stedsnr" v="39916" />
	</node>
	<node lat="66.30922499819017" lon="13.974116655642387" id="-5781">
		<tag k="name" v="Skjæravollan" />
		<tag k="place" v="locality" />
		<tag k="ssr:stedsnr" v="43593" />
	</node>
	<node lat="66.30913055159495" lon="13.937080550668442" id="-5782">
		<tag k="name" v="Vollan" />
		<tag k="place" v="locality" />
		<tag k="ssr:stedsnr" v="43596" />
	</node>
	<node lat="66.40289722164854" lon="14.607633335709448" id="-5789">
		<tag k="name" v="Saltervollen" />
		<tag k="place" v="locality" />
		<tag k="ssr:stedsnr" v="43942" />
	</node>
	<node lat="66.40787499963155" lon="14.607597226628032" id="-5791">
		<tag k="name" v="Rivskaftmyra" />
		<tag k="natural" v="wetland" />
		<tag k="ssr:stedsnr" v="43981" />
	</node>
	<node lat="66.43051388823231" lon="14.82272500179313" id="-5802">
		<tag k="name" v="Mellombekkskogen" />
		<tag k="place" v="locality" />
		<tag k="ssr:stedsnr" v="240131" />
	</node>
	<node lat="66.38763611023741" lon="14.101113898673841" id="-5807">
		<tag k="name" v="Stamtjønnmyra" />
		<tag k="natural" v="wetland" />
		<tag k="ssr:stedsnr" v="240166" />
	</node>
	<node lat="66.3867444484778" lon="14.085061118971089" id="-5808">
		<tag k="name" v="Glasågmyra" />
		<tag k="natural" v="wetland" />
		<tag k="ssr:stedsnr" v="240169" />
	</node>
	<node lat="66.31327777712852" lon="14.830488887478978" id="-5814">
		<tag k="name" v="Rundhaugmyra" />
		<tag k="natural" v="wetland" />
		<tag k="ssr:stedsnr" v="58074" />
	</node>
	<node lat="66.35959444671491" lon="13.346824998635405" id="-5818">
		<tag k="name" v="Kvitrapet" />
		<tag k="natural" v="scree" />
		<tag k="ssr:stedsnr" v="58221" />
	</node>
	<node lat="66.38937777617818" lon="14.131036108377058" id="-5827">
		<tag k="name" v="Dalamyra" />
		<tag k="natural" v="wetland" />
		<tag k="ssr:stedsnr" v="58185" />
	</node>
	<node lat="66.48187777619879" lon="13.88650832464955" id="-5829">
		<tag k="name" v="Langmyra" />
		<tag k="natural" v="wetland" />
		<tag k="ssr:stedsnr" v="58627" />
	</node>
	<node lat="66.44637222432635" lon="14.826761109070802" id="-5849">
		<tag k="name" v="Lillejorda" />
		<tag k="place" v="locality" />
		<tag k="ssr:stedsnr" v="58926" />
	</node>
	<node lat="66.51846110915183" lon="14.928188894901488" id="-5853">
		<tag k="name" v="Langmyra" />
		<tag k="natural" v="wetland" />
		<tag k="ssr:stedsnr" v="240375" />
	</node>
	<node lat="66.3276472257453" lon="14.55858054872479" id="-5859">
		<tag k="name" v="Kjellmyra" />
		<tag k="natural" v="wetland" />
		<tag k="ssr:stedsnr" v="240673" />
	</node>
	<node lat="66.33718333051169" lon="14.61972777321108" id="-5862">
		<tag k="name" v="Tverrlimyra" />
		<tag k="natural" v="wetland" />
		<tag k="ssr:stedsnr" v="240696" />
	</node>
	<node lat="66.22747500247901" lon="13.906316678098905" id="-5879">
		<tag k="name" v="Tjæradalhølan" />
		<tag k="natural" v="wetland" />
		<tag k="ssr:stedsnr" v="240922" />
	</node>
	<node lat="66.34661388521016" lon="14.67580554872449" id="-5963">
		<tag k="name" v="Heimerenget" />
		<tag k="place" v="locality" />
		<tag k="ssr:stedsnr" v="100415" />
	</node>
	<node lat="66.42240277673008" lon="14.467158338121944" id="-5969">
		<tag k="name" v="Gabriel-Jansamyra" />
		<tag k="natural" v="wetland" />
		<tag k="ssr:stedsnr" v="100517" />
	</node>
	<node lat="66.40906944519625" lon="13.938097224851798" id="-5972">
		<tag k="name" v="Storskogen" />
		<tag k="place" v="locality" />
		<tag k="ssr:stedsnr" v="100459" />
	</node>
	<node lat="66.31318333254141" lon="14.274791663245276" id="-5985">
		<tag k="name" v="Vestertjønnmyra" />
		<tag k="natural" v="wetland" />
		<tag k="ssr:stedsnr" v="104003" />
	</node>
	<node lat="66.34353611243444" lon="14.185549992776384" id="-6000">
		<tag k="landuse" v="meadow" />
		<tag k="name" v="Heimerenget" />
		<tag k="ssr:stedsnr" v="104504" />
	</node>
	<node lat="66.30102222262722" lon="13.709999992752097" id="-6009">
		<tag k="name" v="Høymyra" />
		<tag k="natural" v="wetland" />
		<tag k="ssr:stedsnr" v="104708" />
	</node>
	<node lat="66.26386111435728" lon="13.718116666801807" id="-6011">
		<tag k="name" v="Småengan" />
		<tag k="place" v="locality" />
		<tag k="ssr:stedsnr" v="104728" />
	</node>
	<node lat="66.3884166692176" lon="14.372097226008677" id="-6021">
		<tag k="name" v="Stakamyran" />
		<tag k="natural" v="wetland" />
		<tag k="ssr:stedsnr" v="104873" />
	</node>
	<node lat="66.29259722590245" lon="13.547036106954423" id="-6022">
		<tag k="name" v="Rengelvollen" />
		<tag k="place" v="locality" />
		<tag k="ssr:stedsnr" v="104875" />
	</node>
	<node lat="66.40032499946832" lon="14.650886117961248" id="-6023">
		<tag k="name" v="Andersmyra" />
		<tag k="natural" v="wetland" />
		<tag k="ssr:stedsnr" v="104879" />
	</node>
	<node lat="66.49198333055512" lon="14.976972210462527" id="-6025">
		<tag k="name" v="Rundmyra" />
		<tag k="natural" v="wetland" />
		<tag k="ssr:stedsnr" v="118012" />
	</node>
	<node lat="66.38867222294641" lon="14.793197222480586" id="-6035">
		<tag k="name" v="Flattjønnura" />
		<tag k="natural" v="scree" />
		<tag k="ssr:stedsnr" v="119098" />
	</node>
	<node lat="66.46003610964691" lon="14.02865555601013" id="-6046">
		<tag k="name" v="Storkjerrmyra" />
		<tag k="natural" v="wetland" />
		<tag k="ssr:stedsnr" v="119478" />
	</node>
	<node lat="66.50664722242598" lon="13.887358329612745" id="-6049">
		<tag k="name" v="Valmyra" />
		<tag k="natural" v="wetland" />
		<tag k="ssr:stedsnr" v="119603" />
	</node>
	<node lat="66.34020833558807" lon="14.537994443231788" id="-6054">
		<tag k="name" v="Kjeldmyra" />
		<tag k="natural" v="wetland" />
		<tag k="ssr:stedsnr" v="119712" />
	</node>
	<node lat="66.31627778092017" lon="14.279961120201124" id="-6178">
		<tag k="name" v="Isterkjerrmyra" />
		<tag k="natural" v="wetland" />
		<tag k="ssr:stedsnr" v="164062" />
	</node>
	<node lat="66.35290832910839" lon="14.12902221959414" id="-6179">
		<tag k="name" v="Rundhagen" />
		<tag k="place" v="locality" />
		<tag k="ssr:stedsnr" v="164369" />
	</node>
	<node lat="66.31052221989657" lon="14.312386117958185" id="-6184">
		<tag k="name" v="Tverrmyra" />
		<tag k="natural" v="wetland" />
		<tag k="ssr:stedsnr" v="164281" />
	</node>
	<node lat="66.24784722352462" lon="13.981027781293804" id="-6208">
		<tag k="name" v="Erikheimet" />
		<tag k="place" v="locality" />
		<tag k="ssr:stedsnr" v="165503" />
	</node>
	<node lat="66.3731833359398" lon="14.727394443216934" id="-6232">
		<tag k="name" v="Fagerdalsmyran" />
		<tag k="natural" v="wetland" />
		<tag k="ssr:stedsnr" v="179239" />
	</node>
	<node lat="66.42726110824285" lon="14.802916654816354" id="-6233">
		<tag k="landuse" v="meadow" />
		<tag k="name" v="Hopenget" />
		<tag k="ssr:stedsnr" v="179115" />
	</node>
	<node lat="66.30929722222555" lon="14.527274997015706" id="-6244">
		<tag k="name" v="Rypsnarmyra" />
		<tag k="natural" v="wetland" />
		<tag k="ssr:stedsnr" v="179622" />
	</node>
	<node lat="66.27799166743245" lon="13.905572230228888" id="-6251">
		<tag k="name" v="Staurmyra" />
		<tag k="natural" v="wetland" />
		<tag k="ssr:stedsnr" v="179525" />
	</node>
	<node lat="66.48984722647502" lon="13.890602769661424" id="-6253">
		<tag k="name" v="Fjellmyran" />
		<tag k="natural" v="wetland" />
		<tag k="ssr:stedsnr" v="179568" />
	</node>
	<node lat="66.4818750007706" lon="13.866227769738392" id="-6347">
		<tag k="name" v="Nerskogen" />
		<tag k="place" v="locality" />
		<tag k="ssr:stedsnr" v="198973" />
	</node>
	<node lat="66.42430833072036" lon="14.403727767180726" id="-6366">
		<tag k="name" v="Latufta" />
		<tag k="natural" v="wetland" />
		<tag k="ssr:stedsnr" v="221506" />
	</node>
	<node lat="66.28663055932248" lon="14.088519441844939" id="-6378">
		<tag k="name" v="Hestgjerdet" />
		<tag k="place" v="locality" />
		<tag k="ssr:stedsnr" v="225322" />
	</node>
	<node lat="66.3437055573797" lon="14.31496665881662" id="-6382">
		<tag k="name" v="Fagerbakkmyra" />
		<tag k="natural" v="wetland" />
		<tag k="ssr:stedsnr" v="225096" />
	</node>
	<node lat="66.2579472195332" lon="13.743297232713022" id="-6391">
		<tag k="name" v="Hagen" />
		<tag k="place" v="locality" />
		<tag k="ssr:stedsnr" v="225733" />
	</node>
	<node lat="66.36127500275302" lon="14.620105556815982" id="-6397">
		<tag k="landuse" v="meadow" />
		<tag k="name" v="Rabbenget" />
		<tag k="ssr:stedsnr" v="225996" />
	</node>
	<node lat="66.30346944168338" lon="14.283080551874669" id="-6400">
		<tag k="name" v="Brennåsbakkmyra" />
		<tag k="natural" v="wetland" />
		<tag k="ssr:stedsnr" v="226453" />
	</node>
	<node lat="66.29510555580971" lon="13.380688898398917" id="-6405">
		<tag k="name" v="Mikkelsteinan" />
		<tag k="natural" v="stone" />
		<tag k="ssr:stedsnr" v="226845" />
	</node>
	<node lat="66.43246111319179" lon="14.80003054789233" id="-6416">
		<tag k="name" v="Bjerkamoauren" />
=======
<osm generator="osmapis" version="0.6">
	<node id="-151551" lat="66.4371805584" lon="14.0511777768">
		<tag k="name" v="Storsteinmyra" />
		<tag k="natural" v="wetland" />
		<tag k="ssr:stedsnr" v="221419" />
	</node>
	<node id="-155644" lat="66.5114777801" lon="14.92229445">
		<tag k="name" v="Leirbekksteinen" />
		<tag k="natural" v="stone" />
		<tag k="ssr:stedsnr" v="301331" />
	</node>
	<node id="-153589" lat="66.2417305595" lon="14.0359222277">
		<tag k="name" v="Lyngheia" />
		<tag k="place" v="locality" />
		<tag k="ssr:stedsnr" v="711534" />
	</node>
	<node id="-155636" lat="66.2991138895" lon="14.8494249988">
		<tag k="name" v="Hauaskogen" />
>>>>>>> e1d4bc35ff8a6074a6f2e91616a996b547c36f15
		<tag k="place" v="locality" />
		<tag k="ssr:stedsnr" v="240104" />
	</node>
<<<<<<< HEAD
	<node lat="66.33811667019846" lon="13.494216659684307" id="-6421">
		<tag k="name" v="Ågmyra" />
		<tag k="natural" v="wetland" />
		<tag k="ssr:stedsnr" v="240226" />
	</node>
	<node lat="66.35688055573596" lon="14.094686116380773" id="-6430">
		<tag k="name" v="Stormyran" />
		<tag k="natural" v="wetland" />
		<tag k="ssr:stedsnr" v="240201" />
	</node>
	<node lat="66.5086361088771" lon="14.926191671626844" id="-6431">
		<tag k="name" v="Monkmyran" />
=======
	<node id="-153587" lat="66.2620777739" lon="13.9963888791">
		<tag k="name" v="Tindmyra" />
		<tag k="natural" v="wetland" />
		<tag k="ssr:stedsnr" v="711516" />
	</node>
	<node id="-153580" lat="66.3492638887" lon="14.1201583323">
		<tag k="landuse" v="meadow" />
		<tag k="name" v="Sjåenget" />
		<tag k="ssr:stedsnr" v="589295" />
	</node>
	<node id="-157672" lat="66.261105553" lon="14.4241083333">
		<tag k="name" v="Selågneset" />
>>>>>>> e1d4bc35ff8a6074a6f2e91616a996b547c36f15
		<tag k="natural" v="wetland" />
		<tag k="ssr:stedsnr" v="240378" />
	</node>
<<<<<<< HEAD
	<node lat="66.4410999965107" lon="14.020377782810593" id="-6438">
		<tag k="name" v="Tjønnmyra" />
		<tag k="natural" v="wetland" />
		<tag k="ssr:stedsnr" v="240488" />
	</node>
	<node lat="66.63383888877854" lon="14.363558322283959" id="-6458">
		<tag k="name" v="Fingerbreen" />
		<tag k="natural" v="glacier" />
		<tag k="ssr:stedsnr" v="258503" />
	</node>
	<node lat="66.34131111332667" lon="15.303605556173096" id="-6501">
		<tag k="name" v="Daudmannsmyran" />
=======
	<node id="-155618" lat="66.4818750008" lon="13.8662277697">
		<tag k="name" v="Nerskogen" />
		<tag k="place" v="locality" />
		<tag k="ssr:stedsnr" v="198973" />
	</node>
	<node id="-153566" lat="66.3440277787" lon="14.2339305446">
		<tag k="name" v="Rotmyra" />
>>>>>>> e1d4bc35ff8a6074a6f2e91616a996b547c36f15
		<tag k="natural" v="wetland" />
		<tag k="ssr:stedsnr" v="259566" />
	</node>
<<<<<<< HEAD
	<node lat="66.27913611398567" lon="14.74132222906554" id="-6523">
		<tag k="name" v="Innerlienget" />
		<tag k="place" v="locality" />
		<tag k="ssr:stedsnr" v="282407" />
	</node>
	<node lat="66.43221388920432" lon="14.492880563919206" id="-6527">
		<tag k="name" v="Storisterkjerran" />
		<tag k="place" v="locality" />
		<tag k="ssr:stedsnr" v="282522" />
	</node>
	<node lat="66.32022222498351" lon="14.478449995129498" id="-6529">
		<tag k="name" v="Storkjerran" />
=======
	<node id="-157661" lat="66.4257722214" lon="14.3966805632">
		<tag k="name" v="Elvgreinan" />
		<tag k="natural" v="wetland" />
		<tag k="ssr:stedsnr" v="865274" />
	</node>
	<node id="-151885" lat="66.3131833325" lon="14.2747916632">
		<tag k="name" v="Vestertjønnmyra" />
		<tag k="natural" v="wetland" />
		<tag k="ssr:stedsnr" v="104003" />
	</node>
	<node id="-153547" lat="66.3398583298" lon="14.0216000075">
		<tag k="name" v="Joslåtten" />
		<tag k="natural" v="wetland" />
		<tag k="ssr:stedsnr" v="585669" />
	</node>
	<node id="-151883" lat="66.4479111114" lon="15.1203222319">
		<tag k="name" v="Stormyra" />
		<tag k="natural" v="wetland" />
		<tag k="ssr:stedsnr" v="100956" />
	</node>
	<node id="-153532" lat="66.3288472183" lon="14.2911583399">
		<tag k="name" v="Nordmyra" />
>>>>>>> e1d4bc35ff8a6074a6f2e91616a996b547c36f15
		<tag k="natural" v="wetland" />
		<tag k="ssr:stedsnr" v="282567" />
	</node>
<<<<<<< HEAD
	<node lat="66.45817499624899" lon="15.106011116879337" id="-6535">
		<tag k="name" v="Sagmyran" />
=======
	<node id="-157624" lat="66.2764694442" lon="13.5448666579">
		<tag k="name" v="Slettbakkmyra" />
>>>>>>> e1d4bc35ff8a6074a6f2e91616a996b547c36f15
		<tag k="natural" v="wetland" />
		<tag k="ssr:stedsnr" v="282968" />
	</node>
<<<<<<< HEAD
	<node lat="66.33480555304152" lon="14.266994434513501" id="-6544">
		<tag k="landuse" v="meadow" />
		<tag k="name" v="Hopenget" />
		<tag k="ssr:stedsnr" v="286132" />
	</node>
	<node lat="66.3561083355406" lon="14.240916677035584" id="-6550">
		<tag k="name" v="Rundtjønnmyra" />
=======
	<node id="-157617" lat="66.3125222197" lon="14.56234722">
		<tag k="name" v="Hølbekkmyra" />
>>>>>>> e1d4bc35ff8a6074a6f2e91616a996b547c36f15
		<tag k="natural" v="wetland" />
		<tag k="ssr:stedsnr" v="286214" />
	</node>
<<<<<<< HEAD
	<node lat="66.29711944734153" lon="13.443541672783939" id="-6566">
		<tag k="name" v="Pallmyra" />
=======
	<node id="-157601" lat="66.3139888915" lon="13.8313638982">
		<tag k="name" v="Storbakkmyra" />
>>>>>>> e1d4bc35ff8a6074a6f2e91616a996b547c36f15
		<tag k="natural" v="wetland" />
		<tag k="ssr:stedsnr" v="286836" />
	</node>
<<<<<<< HEAD
	<node lat="66.32456944638227" lon="14.42294721206359" id="-6567">
		<tag k="name" v="Hesttjønnmyran" />
=======
	<node id="-157598" lat="66.432252779" lon="13.9567055517">
		<tag k="name" v="Fjellengflogmyra" />
>>>>>>> e1d4bc35ff8a6074a6f2e91616a996b547c36f15
		<tag k="natural" v="wetland" />
		<tag k="ssr:stedsnr" v="286838" />
	</node>
<<<<<<< HEAD
	<node lat="66.295133335284" lon="13.706122223242259" id="-6569">
		<tag k="name" v="Ånesan" />
=======
	<node id="-151877" lat="66.3466138852" lon="14.6758055487">
		<tag k="name" v="Heimerenget" />
		<tag k="place" v="locality" />
		<tag k="ssr:stedsnr" v="100415" />
	</node>
	<node id="-157596" lat="66.3931444425" lon="14.0509888978">
		<tag k="name" v="Bjerkskogen" />
>>>>>>> e1d4bc35ff8a6074a6f2e91616a996b547c36f15
		<tag k="place" v="locality" />
		<tag k="ssr:stedsnr" v="286731" />
	</node>
<<<<<<< HEAD
	<node lat="66.3993805572636" lon="14.570580563551417" id="-6578">
		<tag k="name" v="Tretjønnmyra" />
		<tag k="natural" v="wetland" />
		<tag k="ssr:stedsnr" v="286976" />
	</node>
	<node lat="66.35262222085325" lon="14.451433343022396" id="-6580">
		<tag k="name" v="Raumyra" />
		<tag k="natural" v="wetland" />
		<tag k="ssr:stedsnr" v="463529" />
	</node>
	<node lat="66.49078888626201" lon="14.959899995587735" id="-6589">
=======
	<node id="-157591" lat="66.3397527754" lon="14.7262444381">
		<tag k="name" v="Austerenget" />
		<tag k="place" v="locality" />
		<tag k="ssr:stedsnr" v="847368" />
	</node>
	<node id="-157587" lat="66.3624277746" lon="14.7213861072">
>>>>>>> e1d4bc35ff8a6074a6f2e91616a996b547c36f15
		<tag k="name" v="Stormyra" />
		<tag k="natural" v="wetland" />
		<tag k="ssr:stedsnr" v="300017" />
	</node>
<<<<<<< HEAD
	<node lat="66.47172499657894" lon="13.859638878499638" id="-6602">
		<tag k="name" v="Littjvassmyran" />
		<tag k="natural" v="wetland" />
		<tag k="ssr:stedsnr" v="301626" />
	</node>
	<node lat="66.32805555707534" lon="14.626250005874756" id="-6604">
		<tag k="name" v="Tømmerlimyra" />
		<tag k="natural" v="wetland" />
		<tag k="ssr:stedsnr" v="301635" />
	</node>
	<node lat="66.28350555625178" lon="13.5280361143468" id="-6616">
		<tag k="name" v="Steinbakkdya" />
=======
	<node id="-157585" lat="66.3704638915" lon="14.7085000072">
		<tag k="name" v="Litlkjerrmyra" />
		<tag k="natural" v="wetland" />
		<tag k="ssr:stedsnr" v="847271" />
	</node>
	<node id="-157580" lat="66.3376111106" lon="13.4827916719">
		<tag k="name" v="Grønliskogen" />
		<tag k="place" v="locality" />
		<tag k="ssr:stedsnr" v="847223" />
	</node>
	<node id="-153478" lat="66.5868944451" lon="14.3069055643">
		<tag k="name" v="Lappbreen" />
		<tag k="natural" v="glacier" />
		<tag k="ssr:stedsnr" v="562505" />
	</node>
	<node id="-157571" lat="66.4202000028" lon="14.7584194346">
		<tag k="name" v="Rundtjønnmyra" />
>>>>>>> e1d4bc35ff8a6074a6f2e91616a996b547c36f15
		<tag k="natural" v="wetland" />
		<tag k="ssr:stedsnr" v="301784" />
	</node>
<<<<<<< HEAD
	<node lat="66.22990833562586" lon="13.896783323164323" id="-6617">
		<tag k="name" v="Høghaugmyra" />
=======
	<node id="-157565" lat="66.4955305574" lon="14.9491944546">
		<tag k="name" v="Pessarbekkmyra" />
>>>>>>> e1d4bc35ff8a6074a6f2e91616a996b547c36f15
		<tag k="natural" v="wetland" />
		<tag k="ssr:stedsnr" v="301915" />
	</node>
<<<<<<< HEAD
	<node lat="66.32009166790122" lon="14.646275005628782" id="-6629">
		<tag k="name" v="Stillvassmyra" />
=======
	<node id="-153453" lat="66.4312805543" lon="15.1155111215">
		<tag k="name" v="Stormyra" />
>>>>>>> e1d4bc35ff8a6074a6f2e91616a996b547c36f15
		<tag k="natural" v="wetland" />
		<tag k="ssr:stedsnr" v="464349" />
	</node>
<<<<<<< HEAD
	<node lat="66.28938055286726" lon="14.724011117321822" id="-6631">
		<tag k="name" v="Føstslåttenget" />
		<tag k="place" v="locality" />
		<tag k="ssr:stedsnr" v="464432" />
	</node>
	<node lat="66.33690000262152" lon="14.724738893976772" id="-6632">
		<tag k="name" v="Ytterenget" />
=======
	<node id="-153452" lat="66.4797222265" lon="15.0580694369">
		<tag k="name" v="Storkjerka" />
		<tag k="natural" v="stone" />
		<tag k="ssr:stedsnr" v="544039" />
	</node>
	<node id="-157547" lat="66.3015805519" lon="14.3463277748">
		<tag k="name" v="Holman" />
>>>>>>> e1d4bc35ff8a6074a6f2e91616a996b547c36f15
		<tag k="place" v="locality" />
		<tag k="ssr:stedsnr" v="464380" />
	</node>
<<<<<<< HEAD
	<node lat="66.36312500034157" lon="14.239169449482947" id="-6647">
		<tag k="name" v="Fjellmyran" />
		<tag k="natural" v="wetland" />
		<tag k="ssr:stedsnr" v="467258" />
	</node>
	<node lat="66.1177583373732" lon="14.387877777663046" id="-6653">
		<tag k="name" v="Grasfjellurda" />
=======
	<node id="-157546" lat="66.3044416688" lon="14.3424194449">
		<tag k="name" v="Stormyra" />
		<tag k="natural" v="wetland" />
		<tag k="ssr:stedsnr" v="833390" />
	</node>
	<node id="-157542" lat="66.2548694474" lon="14.044799995">
		<tag k="name" v="Urdtunga" />
>>>>>>> e1d4bc35ff8a6074a6f2e91616a996b547c36f15
		<tag k="natural" v="scree" />
		<tag k="ssr:stedsnr" v="318108" />
	</node>
<<<<<<< HEAD
	<node lat="66.29800277722059" lon="13.452172228398277" id="-6679">
		<tag k="landuse" v="meadow" />
		<tag k="name" v="Åsenget" />
		<tag k="ssr:stedsnr" v="467828" />
	</node>
	<node lat="66.45451389187151" lon="14.263588886483126" id="-6722">
		<tag k="name" v="Høystakkranda" />
=======
	<node id="-155493" lat="66.3486833343" lon="14.5615388871">
		<tag k="name" v="Brennevinsmyra" />
		<tag k="natural" v="wetland" />
		<tag k="ssr:stedsnr" v="179692" />
	</node>
	<node id="-157539" lat="66.328625003" lon="14.0924194383">
		<tag k="name" v="Hesthagen" />
>>>>>>> e1d4bc35ff8a6074a6f2e91616a996b547c36f15
		<tag k="place" v="locality" />
		<tag k="ssr:stedsnr" v="468146" />
	</node>
<<<<<<< HEAD
	<node lat="66.34549166696881" lon="14.102450001794487" id="-6727">
=======
	<node id="-157538" lat="66.3472861091" lon="14.0764083309">
>>>>>>> e1d4bc35ff8a6074a6f2e91616a996b547c36f15
		<tag k="landuse" v="meadow" />
		<tag k="name" v="Hansgårdsenget" />
		<tag k="ssr:stedsnr" v="468275" />
	</node>
	<node lat="66.30954444280441" lon="14.2202361092516" id="-6734">
		<tag k="name" v="Fjøsdalura" />
		<tag k="natural" v="scree" />
		<tag k="ssr:stedsnr" v="468383" />
	</node>
<<<<<<< HEAD
	<node lat="66.32257221865225" lon="14.164422217442675" id="-6736">
=======
	<node id="-157537" lat="66.3487722264" lon="14.0849916599">
>>>>>>> e1d4bc35ff8a6074a6f2e91616a996b547c36f15
		<tag k="landuse" v="meadow" />
		<tag k="name" v="Ranenget" />
		<tag k="ssr:stedsnr" v="468395" />
	</node>
<<<<<<< HEAD
	<node lat="66.38186388779708" lon="14.697605558846059" id="-6761">
		<tag k="name" v="Henriktjønnura" />
		<tag k="natural" v="scree" />
		<tag k="ssr:stedsnr" v="468893" />
	</node>
	<node lat="66.30000277776224" lon="13.434205554130214" id="-6763">
		<tag k="name" v="Stokkstiteigen" />
		<tag k="place" v="locality" />
		<tag k="ssr:stedsnr" v="468834" />
	</node>
	<node lat="66.30583888566555" lon="13.540141676371455" id="-6768">
		<tag k="name" v="Stiura" />
		<tag k="natural" v="scree" />
		<tag k="ssr:stedsnr" v="468858" />
	</node>
	<node lat="66.39000555818528" lon="14.645644445317604" id="-6770">
		<tag k="name" v="Bjynnspelmyra" />
=======
	<node id="-155484" lat="66.4898472265" lon="13.8906027697">
		<tag k="name" v="Fjellmyran" />
		<tag k="natural" v="wetland" />
		<tag k="ssr:stedsnr" v="179568" />
	</node>
	<node id="-157531" lat="66.387477778" lon="14.6025999942">
		<tag k="name" v="Geitklauvmyra" />
>>>>>>> e1d4bc35ff8a6074a6f2e91616a996b547c36f15
		<tag k="natural" v="wetland" />
		<tag k="ssr:stedsnr" v="468956" />
	</node>
<<<<<<< HEAD
	<node lat="66.32523611294711" lon="14.649383338206208" id="-6779">
		<tag k="name" v="Storsteinen" />
		<tag k="natural" v="stone" />
		<tag k="ssr:stedsnr" v="342320" />
	</node>
	<node lat="66.34675555958462" lon="14.688602785920898" id="-6784">
		<tag k="name" v="Nordenget" />
=======
	<node id="-157527" lat="66.4061750008" lon="14.5898416762">
		<tag k="name" v="Storvollen" />
		<tag k="place" v="locality" />
		<tag k="ssr:stedsnr" v="832919" />
	</node>
	<node id="-153429" lat="66.299513885" lon="13.7353555651">
		<tag k="name" v="Olderskogen" />
>>>>>>> e1d4bc35ff8a6074a6f2e91616a996b547c36f15
		<tag k="place" v="locality" />
		<tag k="ssr:stedsnr" v="342391" />
	</node>
<<<<<<< HEAD
	<node lat="66.42486666936854" lon="15.137641658389482" id="-6788">
		<tag k="name" v="Kokkmyra" />
=======
	<node id="-155470" lat="66.3731833359" lon="14.7273944432">
		<tag k="name" v="Fagerdalsmyran" />
>>>>>>> e1d4bc35ff8a6074a6f2e91616a996b547c36f15
		<tag k="natural" v="wetland" />
		<tag k="ssr:stedsnr" v="342961" />
	</node>
<<<<<<< HEAD
	<node lat="66.34263610943265" lon="14.346647212180397" id="-6800">
		<tag k="name" v="Tjæradalsmyra" />
=======
	<node id="-153417" lat="66.2932722242" lon="13.4012861169">
		<tag k="name" v="Svarttjønna" />
>>>>>>> e1d4bc35ff8a6074a6f2e91616a996b547c36f15
		<tag k="natural" v="wetland" />
		<tag k="ssr:stedsnr" v="346066" />
	</node>
	<node lat="66.41035833522601" lon="14.628555560263809" id="-6816">
		<tag k="name" v="Nålgressmyra" />
		<tag k="natural" v="wetland" />
		<tag k="ssr:stedsnr" v="346924" />
	</node>
<<<<<<< HEAD
	<node lat="66.3943972180574" lon="14.700088897023516" id="-6817">
		<tag k="name" v="Lomtjønnmyra" />
		<tag k="natural" v="wetland" />
		<tag k="ssr:stedsnr" v="346925" />
	</node>
	<node lat="66.34723055402941" lon="14.204583327008212" id="-6820">
=======
	<node id="-153415" lat="66.4003666626" lon="14.4099055596">
>>>>>>> e1d4bc35ff8a6074a6f2e91616a996b547c36f15
		<tag k="landuse" v="meadow" />
		<tag k="name" v="Austerenget" />
		<tag k="ssr:stedsnr" v="347257" />
	</node>
<<<<<<< HEAD
	<node lat="66.24046389309134" lon="14.038438888541377" id="-6836">
		<tag k="name" v="Øverheim" />
=======
	<node id="-153412" lat="66.3159138911" lon="13.9962166708">
		<tag k="name" v="Vingelmyra" />
>>>>>>> e1d4bc35ff8a6074a6f2e91616a996b547c36f15
		<tag k="place" v="locality" />
		<tag k="ssr:stedsnr" v="347522" />
	</node>
<<<<<<< HEAD
	<node lat="66.30857778027786" lon="13.944263893071394" id="-6838">
		<tag k="name" v="Helvete" />
=======
	<node id="-155454" lat="66.2920027795" lon="13.6242944452">
		<tag k="name" v="Utskarpen gravkapell" />
>>>>>>> e1d4bc35ff8a6074a6f2e91616a996b547c36f15
		<tag k="place" v="locality" />
		<tag k="ssr:stedsnr" v="347578" />
	</node>
<<<<<<< HEAD
	<node lat="66.31633333035954" lon="14.406849990687613" id="-6843">
		<tag k="name" v="Hestmyra" />
=======
	<node id="-157495" lat="66.3897249964" lon="14.2266916739">
		<tag k="name" v="Furuhaugmyra" />
>>>>>>> e1d4bc35ff8a6074a6f2e91616a996b547c36f15
		<tag k="natural" v="wetland" />
		<tag k="ssr:stedsnr" v="347863" />
	</node>
<<<<<<< HEAD
	<node lat="66.29256944477763" lon="13.731047225638896" id="-6849">
		<tag k="name" v="Langauren" />
=======
	<node id="-155444" lat="66.2627361159" lon="13.7386805478">
		<tag k="name" v="Litlenget" />
>>>>>>> e1d4bc35ff8a6074a6f2e91616a996b547c36f15
		<tag k="place" v="locality" />
		<tag k="ssr:stedsnr" v="347774" />
	</node>
<<<<<<< HEAD
	<node lat="66.3865611134623" lon="14.432358331456605" id="-6850">
		<tag k="name" v="Slåttmyran" />
		<tag k="natural" v="wetland" />
		<tag k="ssr:stedsnr" v="347905" />
	</node>
	<node lat="66.30585555852592" lon="13.520238887778946" id="-6910">
		<tag k="name" v="Stormyra" />
=======
	<node id="-155442" lat="66.2463611074" lon="14.0285777845">
		<tag k="landuse" v="meadow" />
		<tag k="name" v="Liengan" />
		<tag k="ssr:stedsnr" v="165543" />
	</node>
	<node id="-157485" lat="66.3304333349" lon="14.2337833353">
		<tag k="name" v="Bakermyra" />
>>>>>>> e1d4bc35ff8a6074a6f2e91616a996b547c36f15
		<tag k="natural" v="wetland" />
		<tag k="ssr:stedsnr" v="380767" />
	</node>
<<<<<<< HEAD
	<node lat="66.29633332908591" lon="14.854472223483487" id="-6935">
		<tag k="name" v="Tjæredalsmyra" />
		<tag k="natural" v="wetland" />
		<tag k="ssr:stedsnr" v="483052" />
	</node>
	<node lat="66.2831833312021" lon="13.892511101800052" id="-6946">
		<tag k="name" v="Hellermyra" />
		<tag k="natural" v="wetland" />
		<tag k="ssr:stedsnr" v="483598" />
	</node>
	<node lat="66.3290611067926" lon="14.618444446564244" id="-6953">
		<tag k="name" v="Tømmermomyra" />
=======
	<node id="-157483" lat="66.3171277812" lon="14.2482583391">
		<tag k="landuse" v="meadow" />
		<tag k="name" v="Mølnhusenget" />
		<tag k="ssr:stedsnr" v="832062" />
	</node>
	<node id="-153383" lat="66.3470027742" lon="14.6686083356">
		<tag k="name" v="Starmyra" />
>>>>>>> e1d4bc35ff8a6074a6f2e91616a996b547c36f15
		<tag k="natural" v="wetland" />
		<tag k="ssr:stedsnr" v="483697" />
	</node>
<<<<<<< HEAD
	<node lat="66.41633611399806" lon="14.601569453828064" id="-6976">
		<tag k="name" v="Trompelinmyra" />
		<tag k="natural" v="wetland" />
		<tag k="ssr:stedsnr" v="403389" />
	</node>
	<node lat="66.40257500360639" lon="13.966472217412438" id="-6984">
		<tag k="name" v="Tullkjerrmyra" />
=======
	<node id="-153382" lat="66.2666694442" lon="14.7216111075">
		<tag k="name" v="Gunnelmyren" />
		<tag k="natural" v="wetland" />
		<tag k="ssr:stedsnr" v="524375" />
	</node>
	<node id="-153381" lat="66.4262666694" lon="14.5334472152">
		<tag k="name" v="Stormyra" />
>>>>>>> e1d4bc35ff8a6074a6f2e91616a996b547c36f15
		<tag k="natural" v="wetland" />
		<tag k="ssr:stedsnr" v="403475" />
	</node>
<<<<<<< HEAD
	<node lat="66.34598055721148" lon="14.394441673536512" id="-6989">
		<tag k="name" v="Bjynnskitmyra" />
		<tag k="natural" v="wetland" />
		<tag k="ssr:stedsnr" v="403915" />
	</node>
	<node lat="66.32083333036151" lon="13.989697212169512" id="-6997">
		<tag k="name" v="Ringgarden" />
		<tag k="place" v="locality" />
		<tag k="ssr:stedsnr" v="406593" />
	</node>
	<node lat="66.31018055491353" lon="14.267977767364664" id="-6998">
		<tag k="name" v="Stormyra" />
=======
	<node id="-157470" lat="66.4690694468" lon="15.0836777775">
		<tag k="name" v="Fastermyra" />
>>>>>>> e1d4bc35ff8a6074a6f2e91616a996b547c36f15
		<tag k="natural" v="wetland" />
		<tag k="ssr:stedsnr" v="407006" />
	</node>
<<<<<<< HEAD
	<node lat="66.34079722187485" lon="14.34314721359347" id="-7002">
		<tag k="name" v="Nesmyra" />
=======
	<node id="-153372" lat="66.2946638913" lon="13.5370611181">
		<tag k="name" v="Trettdalsmyra" />
>>>>>>> e1d4bc35ff8a6074a6f2e91616a996b547c36f15
		<tag k="natural" v="wetland" />
		<tag k="ssr:stedsnr" v="407114" />
	</node>
<<<<<<< HEAD
	<node lat="66.3557111146902" lon="14.247983339645257" id="-7004">
		<tag k="historic" v="shieling" />
		<tag k="name" v="Liseteren" />
		<tag k="place" v="locality" />
		<tag k="ssr:stedsnr" v="407243" />
	</node>
	<node lat="66.30221944573259" lon="14.262230553579425" id="-7019">
		<tag k="name" v="Haukkleivmyra" />
=======
	<node id="-153369" lat="66.4334527754" lon="13.636827785">
		<tag k="name" v="Høgtuvbreen" />
		<tag k="natural" v="glacier" />
		<tag k="ssr:stedsnr" v="684667" />
	</node>
	<node id="-157464" lat="66.440925" lon="15.1382916603">
		<tag k="name" v="Løvamyra" />
>>>>>>> e1d4bc35ff8a6074a6f2e91616a996b547c36f15
		<tag k="natural" v="wetland" />
		<tag k="ssr:stedsnr" v="408443" />
	</node>
<<<<<<< HEAD
	<node lat="66.31005278010772" lon="14.700688895277416" id="-7032">
		<tag k="name" v="Rastmyran" />
=======
	<node id="-153367" lat="66.3127583347" lon="15.4413805565">
		<tag k="loc_name:sma" v="Vijriesvaegkie" />
		<tag k="name" v="Virvassmyran" />
		<tag k="name:no" v="Virvassmyran" />
>>>>>>> e1d4bc35ff8a6074a6f2e91616a996b547c36f15
		<tag k="natural" v="wetland" />
		<tag k="ssr:stedsnr" v="422202" />
	</node>
<<<<<<< HEAD
	<node lat="66.31326389309604" lon="14.775900006817277" id="-7038">
		<tag k="name" v="Elvenget" />
		<tag k="place" v="locality" />
		<tag k="ssr:stedsnr" v="422215" />
	</node>
	<node lat="66.31521389006063" lon="14.582111109730489" id="-7049">
		<tag k="name" v="Fjellslettskogen" />
		<tag k="place" v="locality" />
		<tag k="ssr:stedsnr" v="422412" />
	</node>
	<node lat="66.16670833515126" lon="14.575602773326406" id="-7053">
		<tag k="name" v="Høgelimyra" />
		<tag k="natural" v="wetland" />
		<tag k="ssr:stedsnr" v="422538" />
	</node>
	<node lat="66.26837222414197" lon="13.602349992512787" id="-7055">
		<tag k="name" v="Litlmyra" />
		<tag k="natural" v="wetland" />
		<tag k="ssr:stedsnr" v="422803" />
	</node>
	<node lat="66.37350833528818" lon="13.343983334561448" id="-7072">
		<tag k="name" v="Kvitauren" />
=======
	<node id="-157461" lat="66.3754527801" lon="14.3418944537">
		<tag k="name" v="Falkstollimyra" />
		<tag k="natural" v="wetland" />
		<tag k="ssr:stedsnr" v="828923" />
	</node>
	<node id="-155406" lat="66.3290472263" lon="14.0238194504">
		<tag k="name" v="Langmyra" />
		<tag k="natural" v="wetland" />
		<tag k="ssr:stedsnr" v="164437" />
	</node>
	<node id="-155396" lat="66.3105222199" lon="14.312386118">
		<tag k="name" v="Tverrmyra" />
		<tag k="natural" v="wetland" />
		<tag k="ssr:stedsnr" v="164281" />
	</node>
	<node id="-155394" lat="66.346011108" lon="14.3413277662">
		<tag k="name" v="Meforsura" />
>>>>>>> e1d4bc35ff8a6074a6f2e91616a996b547c36f15
		<tag k="natural" v="scree" />
		<tag k="ssr:stedsnr" v="440814" />
	</node>
<<<<<<< HEAD
	<node lat="66.26081944441422" lon="13.601544446124676" id="-7134">
		<tag k="name" v="Kvitnesengan" />
=======
	<node id="-157440" lat="66.4396305521" lon="14.0308833396">
		<tag k="name" v="Mølnhusmyran" />
>>>>>>> e1d4bc35ff8a6074a6f2e91616a996b547c36f15
		<tag k="natural" v="wetland" />
		<tag k="ssr:stedsnr" v="441989" />
	</node>
<<<<<<< HEAD
	<node lat="66.33563889029055" lon="14.39975832779188" id="-7146">
		<tag k="name" v="Tjønnenget" />
=======
	<node id="-157433" lat="66.4005388912" lon="14.0543111086">
		<tag k="name" v="Gløsmyra" />
>>>>>>> e1d4bc35ff8a6074a6f2e91616a996b547c36f15
		<tag k="natural" v="wetland" />
		<tag k="ssr:stedsnr" v="463606" />
	</node>
<<<<<<< HEAD
	<node lat="66.33863610884691" lon="14.419383326629264" id="-7147">
		<tag k="name" v="Slåttmyran" />
=======
	<node id="-155381" lat="66.4578111136" lon="15.113502784">
		<tag k="name" v="Stormyra" />
>>>>>>> e1d4bc35ff8a6074a6f2e91616a996b547c36f15
		<tag k="natural" v="wetland" />
		<tag k="ssr:stedsnr" v="463607" />
	</node>
<<<<<<< HEAD
	<node lat="66.4407861101745" lon="14.80756389483006" id="-7152">
		<tag k="name" v="Brunløvmyra" />
		<tag k="natural" v="wetland" />
		<tag k="ssr:stedsnr" v="464427" />
	</node>
	<node lat="66.32889166743594" lon="14.753483322579717" id="-7157">
		<tag k="name" v="Tidianenget" />
=======
	<node id="-157427" lat="66.3164027809" lon="14.7048722236">
		<tag k="historic" v="shieling" />
		<tag k="name" v="Hølvollen" />
		<tag k="place" v="locality" />
		<tag k="ssr:stedsnr" v="828119" />
	</node>
	<node id="-157426" lat="66.3450638925" lon="14.6902111228">
		<tag k="name" v="Fjorsenget" />
>>>>>>> e1d4bc35ff8a6074a6f2e91616a996b547c36f15
		<tag k="place" v="locality" />
		<tag k="ssr:stedsnr" v="464353" />
	</node>
<<<<<<< HEAD
	<node lat="66.32845833506893" lon="14.302163891661339" id="-7167">
		<tag k="name" v="Langmyra" />
=======
	<node id="-155373" lat="66.4099333379" lon="13.9450249964">
		<tag k="name" v="Stormyra" />
>>>>>>> e1d4bc35ff8a6074a6f2e91616a996b547c36f15
		<tag k="natural" v="wetland" />
		<tag k="ssr:stedsnr" v="467013" />
	</node>
<<<<<<< HEAD
	<node lat="66.30047221800844" lon="13.417627786505804" id="-7172">
		<tag k="name" v="Tømmerskarmyra" />
		<tag k="natural" v="wetland" />
		<tag k="ssr:stedsnr" v="467803" />
	</node>
	<node lat="66.30123333756379" lon="13.445183327863006" id="-7173">
		<tag k="name" v="Koven" />
=======
	<node id="-155371" lat="66.3430027765" lon="14.7011805473">
		<tag k="name" v="Litlenget" />
>>>>>>> e1d4bc35ff8a6074a6f2e91616a996b547c36f15
		<tag k="place" v="locality" />
		<tag k="ssr:stedsnr" v="467824" />
	</node>
<<<<<<< HEAD
	<node lat="66.35024721845672" lon="14.092477779493047" id="-7183">
		<tag k="landuse" v="meadow" />
		<tag k="name" v="Storenget" />
		<tag k="ssr:stedsnr" v="468269" />
	</node>
	<node lat="66.3058138876651" lon="14.232394433515042" id="-7189">
		<tag k="name" v="Rundaumyra" />
=======
	<node id="-155369" lat="66.3522444478" lon="14.0442222139">
		<tag k="name" v="Mosehaugmyran" />
		<tag k="natural" v="wetland" />
		<tag k="ssr:stedsnr" v="160679" />
	</node>
	<node id="-157409" lat="66.2690861151" lon="13.6589500115">
		<tag k="alt_name" v="Skarmyran" />
		<tag k="name" v="Skardamyran" />
>>>>>>> e1d4bc35ff8a6074a6f2e91616a996b547c36f15
		<tag k="natural" v="wetland" />
		<tag k="ssr:stedsnr" v="468364" />
	</node>
<<<<<<< HEAD
	<node lat="66.23954166304155" lon="14.04661387875036" id="-7192">
		<tag k="name" v="Moen" />
		<tag k="place" v="locality" />
		<tag k="ssr:stedsnr" v="468521" />
	</node>
	<node lat="66.3004583333944" lon="13.674286105819379" id="-7195">
		<tag k="name" v="Stormyra" />
		<tag k="natural" v="wetland" />
		<tag k="ssr:stedsnr" v="468715" />
	</node>
	<node lat="66.31719444784633" lon="13.530383340888722" id="-7196">
=======
	<node id="-155257" lat="66.3163694455" lon="14.5371166687">
		<tag k="name" v="Tårnsteinan" />
		<tag k="natural" v="stone" />
		<tag k="ssr:stedsnr" v="119650" />
	</node>
	<node id="-152679" lat="66.3171944478" lon="13.5303833409">
		<tag k="name" v="Stormyra" />
		<tag k="natural" v="wetland" />
		<tag k="ssr:stedsnr" v="468663" />
	</node>
	<node id="-152519" lat="66.6338388888" lon="14.3635583223">
		<tag k="name" v="Fingerbreen" />
		<tag k="natural" v="glacier" />
		<tag k="ssr:stedsnr" v="258503" />
	</node>
	<node id="-155289" lat="66.214605556" lon="14.5874416657">
		<tag k="name" v="Svarturda" />
		<tag k="natural" v="scree" />
		<tag k="ssr:stedsnr" v="136871" />
	</node>
	<node id="-153227" lat="66.2522555573" lon="14.5510222283">
>>>>>>> e1d4bc35ff8a6074a6f2e91616a996b547c36f15
		<tag k="name" v="Stormyra" />
		<tag k="natural" v="wetland" />
		<tag k="ssr:stedsnr" v="468663" />
	</node>
<<<<<<< HEAD
	<node lat="66.40248888637231" lon="14.474397221860366" id="-7200">
		<tag k="name" v="Landsmyran" />
=======
	<node id="-153222" lat="66.2322138866" lon="13.9509861069">
		<tag k="name" v="Larsamyra" />
>>>>>>> e1d4bc35ff8a6074a6f2e91616a996b547c36f15
		<tag k="natural" v="wetland" />
		<tag k="ssr:stedsnr" v="468815" />
	</node>
<<<<<<< HEAD
	<node lat="66.40905832931014" lon="14.728919436438458" id="-7204">
		<tag k="name" v="Almlimyra" />
=======
	<node id="-152854" lat="66.3163333304" lon="14.4068499907">
		<tag k="name" v="Hestmyra" />
		<tag k="natural" v="wetland" />
		<tag k="ssr:stedsnr" v="347863" />
	</node>
	<node id="-155266" lat="66.3402083356" lon="14.5379944432">
		<tag k="name" v="Kjeldmyra" />
>>>>>>> e1d4bc35ff8a6074a6f2e91616a996b547c36f15
		<tag k="natural" v="wetland" />
		<tag k="ssr:stedsnr" v="468876" />
	</node>
<<<<<<< HEAD
	<node lat="66.28999722477222" lon="13.45904445199209" id="-7217">
		<tag k="name" v="Snelimyra" />
=======
	<node id="-156267" lat="66.3833555596" lon="14.4164805614">
		<tag k="name" v="Rundtjønnmyra" />
		<tag k="natural" v="wetland" />
		<tag k="ssr:stedsnr" v="408866" />
	</node>
	<node id="-153214" lat="66.5162305562" lon="14.9019944368">
		<tag k="name" v="Bredekmyrene" />
>>>>>>> e1d4bc35ff8a6074a6f2e91616a996b547c36f15
		<tag k="natural" v="wetland" />
		<tag k="ssr:stedsnr" v="482167" />
	</node>
	<node lat="66.36925833118389" lon="14.67373889523826" id="-7232">
		<tag k="name" v="Reinhagemyra" />
		<tag k="natural" v="wetland" />
		<tag k="ssr:stedsnr" v="483272" />
	</node>
<<<<<<< HEAD
	<node lat="66.3186638852295" lon="14.615322230840132" id="-7237">
=======
	<node id="-153213" lat="66.3186638852" lon="14.6153222308">
>>>>>>> e1d4bc35ff8a6074a6f2e91616a996b547c36f15
		<tag k="name" v="Botelheimen" />
		<tag k="natural" v="wetland" />
		<tag k="ssr:stedsnr" v="483463" />
	</node>
<<<<<<< HEAD
	<node lat="66.51623055619237" lon="14.901994436832295" id="-7241">
		<tag k="name" v="Bredekmyrene" />
		<tag k="natural" v="wetland" />
		<tag k="ssr:stedsnr" v="483372" />
	</node>
	<node lat="66.23221388657174" lon="13.950986106949252" id="-7247">
		<tag k="name" v="Larsamyra" />
=======
	<node id="-154559" lat="66.3969305582" lon="14.6169277698">
		<tag k="name" v="Mastermyra" />
		<tag k="natural" v="wetland" />
		<tag k="ssr:stedsnr" v="893921" />
	</node>
	<node id="-153208" lat="66.2963333291" lon="14.8544722235">
		<tag k="name" v="Tjæredalsmyra" />
>>>>>>> e1d4bc35ff8a6074a6f2e91616a996b547c36f15
		<tag k="natural" v="wetland" />
		<tag k="ssr:stedsnr" v="483702" />
	</node>
<<<<<<< HEAD
	<node lat="66.25225555729091" lon="14.5510222282634" id="-7251">
		<tag k="name" v="Stormyra" />
		<tag k="natural" v="wetland" />
		<tag k="ssr:stedsnr" v="483768" />
	</node>
	<node lat="66.64245277528505" lon="13.69750556480638" id="-7275">
		<tag k="name" v="Svartisen" />
		<tag k="natural" v="glacier" />
		<tag k="ssr:stedsnr" v="501234" />
	</node>
	<node lat="66.29182499655855" lon="14.084252771541117" id="-7325">
		<tag k="fixme" v="multiple name tags, choose one and add the other to alt_name" />
		<tag k="landuse" v="quarry" />
		<tag k="name" v="Bergverkselskapet Nord-Norge A/S;Åga" />
		<tag k="ssr:stedsnr" v="509616" />
	</node>
	<node lat="66.312758334685" lon="15.44138055647171" id="-7394">
		<tag k="loc_name:sma" v="Vijriesvaegkie" />
		<tag k="name" v="Virvassmyran" />
		<tag k="name:no" v="Virvassmyran" />
=======
	<node id="-155255" lat="66.5066472224" lon="13.8873583296">
		<tag k="name" v="Valmyra" />
		<tag k="natural" v="wetland" />
		<tag k="ssr:stedsnr" v="119603" />
	</node>
	<node id="-152169" lat="66.2779916674" lon="13.9055722302">
		<tag k="name" v="Staurmyra" />
		<tag k="natural" v="wetland" />
		<tag k="ssr:stedsnr" v="179525" />
	</node>
	<node id="-157297" lat="66.2142250022" lon="13.9419111128">
		<tag k="name" v="Nebbsteinan" />
		<tag k="natural" v="stone" />
		<tag k="ssr:stedsnr" v="786711" />
	</node>
	<node id="-153200" lat="66.2899972248" lon="13.459044452">
		<tag k="name" v="Snelimyra" />
		<tag k="natural" v="wetland" />
		<tag k="ssr:stedsnr" v="482167" />
	</node>
	<node id="-157294" lat="66.3246027749" lon="14.6260333367">
		<tag k="name" v="Tverrlimyra" />
>>>>>>> e1d4bc35ff8a6074a6f2e91616a996b547c36f15
		<tag k="natural" v="wetland" />
		<tag k="ssr:stedsnr" v="684577" />
	</node>
<<<<<<< HEAD
	<node lat="66.42626666937724" lon="14.533447215163287" id="-7401">
		<tag k="name" v="Stormyra" />
=======
	<node id="-155242" lat="66.4600361096" lon="14.028655556">
		<tag k="name" v="Storkjerrmyra" />
>>>>>>> e1d4bc35ff8a6074a6f2e91616a996b547c36f15
		<tag k="natural" v="wetland" />
		<tag k="ssr:stedsnr" v="524364" />
	</node>
<<<<<<< HEAD
	<node lat="66.31591389109433" lon="13.996216670832492" id="-7429">
		<tag k="name" v="Vingelmyra" />
		<tag k="place" v="locality" />
		<tag k="ssr:stedsnr" v="528626" />
	</node>
	<node lat="66.29327222417974" lon="13.401286116856587" id="-7431">
		<tag k="name" v="Svarttjønna" />
=======
	<node id="-157288" lat="66.3996916679" lon="14.1273888947">
		<tag k="name" v="Tullskogen" />
		<tag k="place" v="locality" />
		<tag k="ssr:stedsnr" v="786892" />
	</node>
	<node id="-153190" lat="66.3004583334" lon="13.6742861058">
		<tag k="name" v="Stormyra" />
		<tag k="natural" v="wetland" />
		<tag k="ssr:stedsnr" v="468715" />
	</node>
	<node id="-157284" lat="66.4397333363" lon="13.9471333268">
		<tag k="name" v="Smårismyren" />
>>>>>>> e1d4bc35ff8a6074a6f2e91616a996b547c36f15
		<tag k="natural" v="wetland" />
		<tag k="ssr:stedsnr" v="528793" />
	</node>
<<<<<<< HEAD
	<node lat="66.26410555908812" lon="13.975930557712159" id="-7450">
		<tag k="name" v="Storåkeren" />
=======
	<node id="-153182" lat="66.3012333376" lon="13.4451833279">
		<tag k="name" v="Koven" />
>>>>>>> e1d4bc35ff8a6074a6f2e91616a996b547c36f15
		<tag k="place" v="locality" />
		<tag k="ssr:stedsnr" v="529516" />
	</node>
<<<<<<< HEAD
	<node lat="66.37951388666144" lon="14.371488893533005" id="-7456">
		<tag k="name" v="Rundmyra" />
=======
	<node id="-153181" lat="66.300472218" lon="13.4176277865">
		<tag k="name" v="Tømmerskarmyra" />
>>>>>>> e1d4bc35ff8a6074a6f2e91616a996b547c36f15
		<tag k="natural" v="wetland" />
		<tag k="ssr:stedsnr" v="529879" />
	</node>
<<<<<<< HEAD
	<node lat="66.39050278217614" lon="14.034169442080302" id="-7487">
		<tag k="name" v="Stormyra" />
=======
	<node id="-153179" lat="66.3631250003" lon="14.2391694495">
		<tag k="name" v="Fjellmyran" />
>>>>>>> e1d4bc35ff8a6074a6f2e91616a996b547c36f15
		<tag k="natural" v="wetland" />
		<tag k="ssr:stedsnr" v="544702" />
	</node>
<<<<<<< HEAD
	<node lat="66.24457777876135" lon="14.083338879431942" id="-7526">
		<tag k="landuse" v="meadow" />
		<tag k="name" v="Skardenget" />
		<tag k="ssr:stedsnr" v="589363" />
	</node>
	<node lat="66.33630833412505" lon="14.166655547746592" id="-7528">
		<tag k="landuse" v="meadow" />
		<tag k="name" v="Sjyenget" />
		<tag k="ssr:stedsnr" v="589472" />
	</node>
	<node lat="66.29235000320114" lon="13.40742778202385" id="-7543">
		<tag k="name" v="Finnkotvatnet" />
=======
	<node id="-157272" lat="66.3683138926" lon="14.749805546">
		<tag k="name" v="Andvassmyra" />
		<tag k="natural" v="wetland" />
		<tag k="ssr:stedsnr" v="786248" />
	</node>
	<node id="-153175" lat="66.3284583351" lon="14.3021638917">
		<tag k="name" v="Langmyra" />
>>>>>>> e1d4bc35ff8a6074a6f2e91616a996b547c36f15
		<tag k="natural" v="wetland" />
		<tag k="ssr:stedsnr" v="589825" />
	</node>
<<<<<<< HEAD
	<node lat="66.38481388703904" lon="14.740152778136668" id="-7573">
		<tag k="name" v="Durmålsura" />
=======
	<node id="-155221" lat="66.3886722229" lon="14.7931972225">
		<tag k="name" v="Flattjønnura" />
>>>>>>> e1d4bc35ff8a6074a6f2e91616a996b547c36f15
		<tag k="natural" v="scree" />
		<tag k="ssr:stedsnr" v="604249" />
	</node>
<<<<<<< HEAD
	<node lat="66.21975000109204" lon="14.578936108062797" id="-7577">
		<tag k="name" v="Setermarka" />
		<tag k="place" v="locality" />
		<tag k="ssr:stedsnr" v="604528" />
	</node>
	<node lat="66.32466666466128" lon="14.633977767809016" id="-7586">
		<tag k="name" v="Hesjemyra" />
=======
	<node id="-157268" lat="66.4021388847" lon="14.8013250087">
		<tag k="name" v="Revasteinen" />
		<tag k="natural" v="stone" />
		<tag k="ssr:stedsnr" v="786106" />
	</node>
	<node id="-157263" lat="66.4846361095" lon="15.0280083283">
		<tag k="name" v="Tuvollmyran" />
>>>>>>> e1d4bc35ff8a6074a6f2e91616a996b547c36f15
		<tag k="natural" v="wetland" />
		<tag k="ssr:stedsnr" v="604666" />
	</node>
<<<<<<< HEAD
	<node lat="66.4631527791686" lon="14.869261103459973" id="-7590">
		<tag k="name" v="Berrmyra" />
=======
	<node id="-152845" lat="66.2404638931" lon="14.0384388885">
		<tag k="name" v="Øverheim" />
		<tag k="place" v="locality" />
		<tag k="ssr:stedsnr" v="347522" />
	</node>
	<node id="-153164" lat="66.4407861102" lon="14.8075638948">
		<tag k="name" v="Brunløvmyra" />
>>>>>>> e1d4bc35ff8a6074a6f2e91616a996b547c36f15
		<tag k="natural" v="wetland" />
		<tag k="ssr:stedsnr" v="604916" />
	</node>
<<<<<<< HEAD
	<node lat="66.51853055839103" lon="14.095744451231957" id="-7634">
		<tag k="name" v="Austerdalsisen" />
		<tag k="natural" v="glacier" />
		<tag k="ssr:stedsnr" v="623463" />
	</node>
	<node lat="66.43167221781324" lon="14.494169452391251" id="-7660">
		<tag k="name" v="Storistermyra" />
=======
	<node id="-155209" lat="66.3220888919" lon="14.7995249996">
		<tag k="name" v="Øverlimyra" />
		<tag k="natural" v="wetland" />
		<tag k="ssr:stedsnr" v="118057" />
	</node>
	<node id="-155208" lat="66.4919833306" lon="14.9769722105">
		<tag k="name" v="Rundmyra" />
>>>>>>> e1d4bc35ff8a6074a6f2e91616a996b547c36f15
		<tag k="natural" v="wetland" />
		<tag k="ssr:stedsnr" v="706489" />
	</node>
<<<<<<< HEAD
	<node lat="66.32458888918437" lon="13.975444443251154" id="-7694">
		<tag k="name" v="Ådalan" />
		<tag k="place" v="locality" />
		<tag k="ssr:stedsnr" v="648618" />
	</node>
	<node lat="66.35955277951899" lon="14.294408330301028" id="-7702">
		<tag k="name" v="Rastavollen" />
		<tag k="place" v="locality" />
		<tag k="ssr:stedsnr" v="649206" />
	</node>
	<node lat="66.38445833187428" lon="14.602297219719054" id="-7719">
		<tag k="name" v="Slåttmyra" />
=======
	<node id="-156358" lat="66.3521444416" lon="14.4332361208">
		<tag k="name" v="Kvitmyra" />
		<tag k="natural" v="wetland" />
		<tag k="ssr:stedsnr" v="524480" />
	</node>
	<node id="-153156" lat="66.3288916674" lon="14.7534833226">
		<tag k="name" v="Tidianenget" />
		<tag k="place" v="locality" />
		<tag k="ssr:stedsnr" v="464353" />
	</node>
	<node id="-157249" lat="66.3144500015" lon="14.411266665">
		<tag k="name" v="Kålimyran" />
		<tag k="natural" v="wetland" />
		<tag k="ssr:stedsnr" v="772838" />
	</node>
	<node id="-153152" lat="66.3386361088" lon="14.4193833266">
		<tag k="name" v="Slåttmyran" />
		<tag k="natural" v="wetland" />
		<tag k="ssr:stedsnr" v="463607" />
	</node>
	<node id="-153151" lat="66.3356388903" lon="14.3997583278">
		<tag k="name" v="Tjønnenget" />
		<tag k="natural" v="wetland" />
		<tag k="ssr:stedsnr" v="463606" />
	</node>
	<node id="-157246" lat="66.3909166645" lon="14.4304861176">
		<tag k="name" v="Vakkermyra" />
>>>>>>> e1d4bc35ff8a6074a6f2e91616a996b547c36f15
		<tag k="natural" v="wetland" />
		<tag k="ssr:stedsnr" v="649947" />
	</node>
<<<<<<< HEAD
	<node lat="66.35961389047793" lon="14.352836107782112" id="-7721">
		<tag k="name" v="Brennsla" />
		<tag k="place" v="locality" />
		<tag k="ssr:stedsnr" v="650205" />
	</node>
	<node lat="66.34740277687531" lon="14.211422227971434" id="-7724">
		<tag k="name" v="Overgangen" />
=======
	<node id="-157245" lat="66.392119444" lon="14.3852861192">
		<tag k="name" v="Kartmyra" />
		<tag k="natural" v="wetland" />
		<tag k="ssr:stedsnr" v="772875" />
	</node>
	<node id="-157244" lat="66.3911055581" lon="14.3770083344">
		<tag k="name" v="Permyra" />
>>>>>>> e1d4bc35ff8a6074a6f2e91616a996b547c36f15
		<tag k="natural" v="wetland" />
		<tag k="ssr:stedsnr" v="650245" />
	</node>
<<<<<<< HEAD
	<node lat="66.45415277915802" lon="14.317530561989287" id="-7726">
		<tag k="name" v="Kalvhagen" />
		<tag k="place" v="locality" />
		<tag k="ssr:stedsnr" v="650149" />
	</node>
	<node lat="66.32745277473857" lon="14.093294434892199" id="-7731">
		<tag k="name" v="Aspmøen" />
=======
	<node id="-155195" lat="66.4048194453" lon="14.7086722277">
		<tag k="name" v="Lamyrvollen" />
		<tag k="place" v="locality" />
		<tag k="ssr:stedsnr" v="104884" />
	</node>
	<node id="-155193" lat="66.4003249995" lon="14.650886118">
		<tag k="name" v="Andersmyra" />
		<tag k="natural" v="wetland" />
		<tag k="ssr:stedsnr" v="104879" />
	</node>
	<node id="-155192" lat="66.2925972259" lon="13.547036107">
		<tag k="name" v="Rengelvollen" />
>>>>>>> e1d4bc35ff8a6074a6f2e91616a996b547c36f15
		<tag k="place" v="locality" />
		<tag k="ssr:stedsnr" v="650437" />
	</node>
<<<<<<< HEAD
	<node lat="66.37877221930155" lon="14.381872230944408" id="-7743">
		<tag k="name" v="Langmyra" />
=======
	<node id="-155191" lat="66.3884166692" lon="14.372097226">
		<tag k="name" v="Stakamyran" />
>>>>>>> e1d4bc35ff8a6074a6f2e91616a996b547c36f15
		<tag k="natural" v="wetland" />
		<tag k="ssr:stedsnr" v="650848" />
	</node>
<<<<<<< HEAD
	<node lat="66.39755000055752" lon="14.710925011218055" id="-7744">
		<tag k="name" v="Frostmyra" />
		<tag k="natural" v="wetland" />
		<tag k="ssr:stedsnr" v="650888" />
	</node>
	<node lat="66.40176667082126" lon="14.665897228782903" id="-7745">
		<tag k="name" v="Teigan" />
=======
	<node id="-155190" lat="66.3820777812" lon="14.3779111178">
		<tag k="name" v="Midtilandet" />
		<tag k="place" v="locality" />
		<tag k="ssr:stedsnr" v="104845" />
	</node>
	<node id="-153140" lat="66.2638361121" lon="13.7094861213">
		<tag k="name" v="Granskogen" />
		<tag k="place" v="locality" />
		<tag k="ssr:stedsnr" v="665963" />
	</node>
	<node id="-155184" lat="66.405850003" lon="14.4769166734">
		<tag k="name" v="Botelstranda" />
		<tag k="place" v="locality" />
		<tag k="ssr:stedsnr" v="104801" />
	</node>
	<node id="-157229" lat="66.4204861075" lon="14.255766677">
		<tag k="name" v="Storura" />
		<tag k="natural" v="scree" />
		<tag k="ssr:stedsnr" v="772185" />
	</node>
	<node id="-153131" lat="66.5055055526" lon="14.9061277674">
		<tag k="name" v="Storauren" />
>>>>>>> e1d4bc35ff8a6074a6f2e91616a996b547c36f15
		<tag k="place" v="locality" />
		<tag k="ssr:stedsnr" v="650889" />
	</node>
<<<<<<< HEAD
	<node lat="66.21711944919296" lon="13.910074991222343" id="-7777">
		<tag k="name" v="Sørenget" />
=======
	<node id="-157225" lat="66.4554250007" lon="14.3101388911">
		<tag k="name" v="Nesmyra" />
>>>>>>> e1d4bc35ff8a6074a6f2e91616a996b547c36f15
		<tag k="natural" v="wetland" />
		<tag k="ssr:stedsnr" v="665484" />
	</node>
<<<<<<< HEAD
	<node lat="66.32884721829006" lon="14.291158339866644" id="-7792">
		<tag k="name" v="Nordmyra" />
		<tag k="natural" v="wetland" />
		<tag k="ssr:stedsnr" v="710012" />
	</node>
	<node lat="66.38688611387116" lon="14.509083329578555" id="-7817">
		<tag k="name" v="Urdrasta" />
		<tag k="natural" v="scree" />
		<tag k="ssr:stedsnr" v="683205" />
	</node>
	<node lat="66.43345277540828" lon="13.636827784988146" id="-7877">
		<tag k="name" v="Høgtuvbreen" />
		<tag k="natural" v="glacier" />
		<tag k="ssr:stedsnr" v="684667" />
	</node>
	<node lat="66.29466389126985" lon="13.537061118114126" id="-7882">
		<tag k="name" v="Trettdalsmyra" />
=======
	<node id="-157223" lat="66.4473472201" lon="14.2608888888">
		<tag k="name" v="Hersen" />
		<tag k="place" v="locality" />
		<tag k="ssr:stedsnr" v="772156" />
	</node>
	<node id="-157222" lat="66.4506222199" lon="14.2608027823">
		<tag k="name" v="Tullskogen" />
		<tag k="place" v="locality" />
		<tag k="ssr:stedsnr" v="772150" />
	</node>
	<node id="-155172" lat="66.2638611144" lon="13.7181166668">
		<tag k="name" v="Småengan" />
		<tag k="place" v="locality" />
		<tag k="ssr:stedsnr" v="104728" />
	</node>
	<node id="-155170" lat="66.3010222226" lon="13.7099999928">
		<tag k="name" v="Høymyra" />
>>>>>>> e1d4bc35ff8a6074a6f2e91616a996b547c36f15
		<tag k="natural" v="wetland" />
		<tag k="ssr:stedsnr" v="684800" />
	</node>
<<<<<<< HEAD
	<node lat="66.40254167120982" lon="14.286155551550465" id="-7892">
		<tag k="name" v="Langmyra" />
=======
	<node id="-153119" lat="66.327036109" lon="14.7481861103">
		<tag k="name" v="Stormyra" />
>>>>>>> e1d4bc35ff8a6074a6f2e91616a996b547c36f15
		<tag k="natural" v="wetland" />
		<tag k="ssr:stedsnr" v="893183" />
	</node>
<<<<<<< HEAD
	<node lat="66.45937777777358" lon="14.258877787527005" id="-7893">
		<tag k="name" v="Myra" />
=======
	<node id="-155165" lat="66.3010638928" lon="13.574872213">
		<tag k="name" v="Dymyra" />
>>>>>>> e1d4bc35ff8a6074a6f2e91616a996b547c36f15
		<tag k="natural" v="wetland" />
		<tag k="ssr:stedsnr" v="893190" />
	</node>
<<<<<<< HEAD
	<node lat="66.34915555927992" lon="14.10762500383797" id="-7896">
		<tag k="landuse" v="meadow" />
		<tag k="name" v="Litlenget" />
		<tag k="ssr:stedsnr" v="893291" />
	</node>
	<node lat="66.317111115168" lon="14.395177769117154" id="-7927">
		<tag k="name" v="Forsmyra" />
		<tag k="natural" v="wetland" />
		<tag k="ssr:stedsnr" v="893841" />
	</node>
	<node lat="66.31465000154434" lon="14.400391675511532" id="-7928">
		<tag k="name" v="Våtmyra" />
		<tag k="natural" v="wetland" />
		<tag k="ssr:stedsnr" v="893843" />
	</node>
	<node lat="66.30068610820341" lon="13.432494439828426" id="-7929">
		<tag k="name" v="Saltvikmyra" />
		<tag k="natural" v="wetland" />
		<tag k="ssr:stedsnr" v="893844" />
	</node>
	<node lat="66.43128055425218" lon="15.115511121503937" id="-7938">
		<tag k="name" v="Stormyra" />
		<tag k="natural" v="wetland" />
		<tag k="ssr:stedsnr" v="694981" />
	</node>
	<node lat="66.34843611001283" lon="14.660436103420961" id="-7942">
		<tag k="name" v="Ytterenget" />
=======
	<node id="-155163" lat="66.2962194444" lon="13.6135083417">
		<tag k="name" v="Kirkesteinen" />
		<tag k="natural" v="stone" />
		<tag k="ssr:stedsnr" v="104641" />
	</node>
	<node id="-157210" lat="66.3912166635" lon="14.6269000012">
		<tag k="name" v="Olapipmyra" />
		<tag k="natural" v="wetland" />
		<tag k="ssr:stedsnr" v="771955" />
	</node>
	<node id="-157209" lat="66.3628916654" lon="14.6266777756">
		<tag k="historic" v="shieling" />
		<tag k="name" v="Vollen" />
		<tag k="place" v="locality" />
		<tag k="ssr:stedsnr" v="771929" />
	</node>
	<node id="-155156" lat="66.2471611073" lon="14.0315388793">
		<tag k="landuse" v="meadow" />
		<tag k="name" v="Liengan" />
		<tag k="ssr:stedsnr" v="104555" />
	</node>
	<node id="-157203" lat="66.3103055557" lon="13.9466111073">
		<tag k="landuse" v="meadow" />
		<tag k="name" v="Heimerenget" />
		<tag k="ssr:stedsnr" v="771602" />
	</node>
	<node id="-155153" lat="66.3435361124" lon="14.1855499928">
		<tag k="landuse" v="meadow" />
		<tag k="name" v="Heimerenget" />
		<tag k="ssr:stedsnr" v="104504" />
	</node>
	<node id="-155152" lat="66.3427277777" lon="14.1624777693">
		<tag k="name" v="Hagen" />
>>>>>>> e1d4bc35ff8a6074a6f2e91616a996b547c36f15
		<tag k="place" v="locality" />
		<tag k="ssr:stedsnr" v="706403" />
	</node>
<<<<<<< HEAD
	<node lat="66.34402777870599" lon="14.23393054462155" id="-7971">
		<tag k="name" v="Rotmyra" />
		<tag k="natural" v="wetland" />
		<tag k="ssr:stedsnr" v="711126" />
	</node>
	<node lat="66.45720833419938" lon="14.322083334969305" id="-7976">
		<tag k="name" v="Setra" />
=======
	<node id="-157196" lat="66.3222499987" lon="14.0677944547">
		<tag k="landuse" v="meadow" />
		<tag k="name" v="Vollan" />
		<tag k="ssr:stedsnr" v="771408" />
	</node>
	<node id="-157180" lat="66.323413887" lon="14.1778833338">
		<tag k="name" v="Ferjelandet" />
>>>>>>> e1d4bc35ff8a6074a6f2e91616a996b547c36f15
		<tag k="place" v="locality" />
		<tag k="ssr:stedsnr" v="711180" />
	</node>
	<node lat="66.26207777388635" lon="13.9963888790995" id="-7977">
		<tag k="name" v="Tindmyra" />
		<tag k="natural" v="wetland" />
		<tag k="ssr:stedsnr" v="711516" />
	</node>
<<<<<<< HEAD
	<node lat="66.24173055949579" lon="14.035922227656638" id="-7979">
		<tag k="name" v="Lyngheia" />
=======
	<node id="-157178" lat="66.3258194472" lon="14.2178250003">
		<tag k="name" v="Lavollhagen" />
>>>>>>> e1d4bc35ff8a6074a6f2e91616a996b547c36f15
		<tag k="place" v="locality" />
		<tag k="ssr:stedsnr" v="711534" />
	</node>
<<<<<<< HEAD
	<node lat="66.27170833330301" lon="13.618072224146136" id="-7980">
		<tag k="name" v="Stormyra" />
=======
	<node id="-157176" lat="66.3232861092" lon="14.3184749915">
		<tag k="name" v="Yttermyran" />
>>>>>>> e1d4bc35ff8a6074a6f2e91616a996b547c36f15
		<tag k="natural" v="wetland" />
		<tag k="ssr:stedsnr" v="711703" />
	</node>
<<<<<<< HEAD
	<node lat="66.30826666511602" lon="13.769777781755222" id="-7983">
		<tag k="name" v="Storskogen" />
		<tag k="place" v="locality" />
		<tag k="ssr:stedsnr" v="711718" />
	</node>
	<node lat="66.40149166607135" lon="14.545269444223285" id="-7991">
=======
	<node id="-157172" lat="66.3167944488" lon="14.2660888893">
>>>>>>> e1d4bc35ff8a6074a6f2e91616a996b547c36f15
		<tag k="name" v="Stormyra" />
		<tag k="natural" v="wetland" />
		<tag k="ssr:stedsnr" v="711989" />
	</node>
<<<<<<< HEAD
	<node lat="66.4857583379629" lon="14.97571944012906" id="-7993">
		<tag k="name" v="Høgmyra" />
		<tag k="natural" v="wetland" />
		<tag k="ssr:stedsnr" v="725008" />
	</node>
	<node lat="66.47931944387942" lon="14.995869438932294" id="-7997">
		<tag k="name" v="Kløftsteinmyra" />
		<tag k="natural" v="wetland" />
		<tag k="ssr:stedsnr" v="725031" />
	</node>
	<node lat="66.40792499864715" lon="14.104508331800815" id="-8012">
		<tag k="name" v="Langbergmyran" />
=======
	<node id="-152147" lat="66.3779833305" lon="14.3571472303">
		<tag k="name" v="Langura" />
		<tag k="natural" v="scree" />
		<tag k="ssr:stedsnr" v="282943" />
	</node>
	<node id="-157167" lat="66.3318416711" lon="13.9628611015">
		<tag k="name" v="Remmen" />
		<tag k="place" v="locality" />
		<tag k="ssr:stedsnr" v="770585" />
	</node>
	<node id="-157165" lat="66.2870333341" lon="14.0456722262">
		<tag k="landuse" v="meadow" />
		<tag k="name" v="Sjåenget" />
		<tag k="ssr:stedsnr" v="770556" />
	</node>
	<node id="-155115" lat="66.332588891" lon="14.3054000101">
		<tag k="name" v="Høgmomyra" />
>>>>>>> e1d4bc35ff8a6074a6f2e91616a996b547c36f15
		<tag k="natural" v="wetland" />
		<tag k="ssr:stedsnr" v="725833" />
	</node>
<<<<<<< HEAD
	<node lat="66.3630444449414" lon="14.710794438124456" id="-8027">
		<tag k="name" v="Stormyra" />
		<tag k="natural" v="wetland" />
		<tag k="ssr:stedsnr" v="726280" />
	</node>
	<node lat="66.36100833120884" lon="14.008013878751134" id="-8030">
		<tag k="name" v="Tverrbergmyran" />
=======
	<node id="-153065" lat="66.3735083353" lon="13.3439833346">
		<tag k="name" v="Kvitauren" />
		<tag k="natural" v="scree" />
		<tag k="ssr:stedsnr" v="440814" />
	</node>
	<node id="-157160" lat="66.388513889" lon="14.3518861153">
		<tag k="name" v="Tretjønnmyra" />
>>>>>>> e1d4bc35ff8a6074a6f2e91616a996b547c36f15
		<tag k="natural" v="wetland" />
		<tag k="ssr:stedsnr" v="726489" />
	</node>
<<<<<<< HEAD
	<node lat="66.38428611130769" lon="14.063649989991818" id="-8032">
		<tag k="name" v="Granskogen" />
		<tag k="place" v="locality" />
		<tag k="ssr:stedsnr" v="726492" />
	</node>
	<node lat="66.3974305573296" lon="13.987947227352736" id="-8037">
		<tag k="name" v="Sandaurmyra" />
=======
	<node id="-157159" lat="66.403394448" lon="14.2953972289">
		<tag k="name" v="Langmyra" />
		<tag k="natural" v="wetland" />
		<tag k="ssr:stedsnr" v="767963" />
	</node>
	<node id="-153060" lat="66.2683722241" lon="13.6023499925">
		<tag k="name" v="Litlmyra" />
>>>>>>> e1d4bc35ff8a6074a6f2e91616a996b547c36f15
		<tag k="natural" v="wetland" />
		<tag k="ssr:stedsnr" v="726717" />
	</node>
<<<<<<< HEAD
	<node lat="66.6732999973035" lon="15.055386102966626" id="-8091">
		<tag k="name" v="Krokkimyra" />
=======
	<node id="-155106" lat="66.33788889" lon="14.2332361049">
		<tag k="name" v="Skjellmyra" />
>>>>>>> e1d4bc35ff8a6074a6f2e91616a996b547c36f15
		<tag k="natural" v="wetland" />
		<tag k="ssr:stedsnr" v="744508" />
	</node>
<<<<<<< HEAD
	<node lat="66.38851388903235" lon="14.351886115308055" id="-8143">
		<tag k="name" v="Tretjønnmyra" />
=======
	<node id="-157152" lat="66.3507527743" lon="14.0481222146">
		<tag k="name" v="Kveldslettmyran" />
>>>>>>> e1d4bc35ff8a6074a6f2e91616a996b547c36f15
		<tag k="natural" v="wetland" />
		<tag k="ssr:stedsnr" v="767988" />
	</node>
<<<<<<< HEAD
	<node lat="66.34056944695375" lon="14.274174996079447" id="-8147">
		<tag k="name" v="Åsmyra" />
		<tag k="natural" v="wetland" />
		<tag k="ssr:stedsnr" v="770121" />
	</node>
	<node lat="66.28703333411792" lon="14.045672226159189" id="-8149">
		<tag k="landuse" v="meadow" />
		<tag k="name" v="Sjåenget" />
		<tag k="ssr:stedsnr" v="770556" />
	</node>
	<node lat="66.32328610920915" lon="14.318474991544534" id="-8153">
		<tag k="name" v="Yttermyran" />
=======
	<node id="-153052" lat="66.3100527801" lon="14.7006888953">
		<tag k="name" v="Rastmyran" />
		<tag k="natural" v="wetland" />
		<tag k="ssr:stedsnr" v="422202" />
	</node>
	<node id="-155094" lat="66.3367416682" lon="14.3948444436">
		<tag k="name" v="Lakshølmyra" />
>>>>>>> e1d4bc35ff8a6074a6f2e91616a996b547c36f15
		<tag k="natural" v="wetland" />
		<tag k="ssr:stedsnr" v="771026" />
	</node>
<<<<<<< HEAD
	<node lat="66.32224999874072" lon="14.067794454733614" id="-8158">
		<tag k="landuse" v="meadow" />
		<tag k="name" v="Vollan" />
		<tag k="ssr:stedsnr" v="771408" />
	</node>
	<node lat="66.41056944839355" lon="14.164005559902602" id="-8159">
		<tag k="name" v="Granhaugmyra" />
		<tag k="natural" v="wetland" />
		<tag k="ssr:stedsnr" v="907835" />
	</node>
	<node lat="66.4106527798024" lon="14.202500008673516" id="-8167">
		<tag k="name" v="Snebekkmyran" />
		<tag k="natural" v="wetland" />
		<tag k="ssr:stedsnr" v="907842" />
	</node>
	<node lat="66.38274722313884" lon="14.661469450294893" id="-8168">
		<tag k="name" v="Rørvollen" />
=======
	<node id="-155091" lat="66.3459527763" lon="14.5007194358">
		<tag k="name" v="Storskogen" />
		<tag k="place" v="locality" />
		<tag k="ssr:stedsnr" v="100590" />
	</node>
	<node id="-153039" lat="66.2918249966" lon="14.0842527715">
		<tag k="fixme" v="multiple name tags, choose one and add the other to alt_name" />
		<tag k="landuse" v="quarry" />
		<tag k="name" v="Bergverkselskapet Nord-Norge A/S;Åga" />
		<tag k="ssr:stedsnr" v="509616" />
	</node>
	<node id="-155084" lat="66.4423638888" lon="14.8286055654">
		<tag k="name" v="Storauren" />
>>>>>>> e1d4bc35ff8a6074a6f2e91616a996b547c36f15
		<tag k="place" v="locality" />
		<tag k="ssr:stedsnr" v="771904" />
	</node>
<<<<<<< HEAD
	<node lat="66.39121666352477" lon="14.626900001247805" id="-8171">
		<tag k="name" v="Olapipmyra" />
		<tag k="natural" v="wetland" />
		<tag k="ssr:stedsnr" v="771955" />
	</node>
	<node lat="66.44734722005285" lon="14.26088888883253" id="-8176">
		<tag k="name" v="Hersen" />
=======
	<node id="-153034" lat="66.3022194457" lon="14.2622305536">
		<tag k="name" v="Haukkleivmyra" />
		<tag k="natural" v="wetland" />
		<tag k="ssr:stedsnr" v="408443" />
	</node>
	<node id="-155078" lat="66.4657805586" lon="14.368691659">
		<tag k="name" v="Steinruva" />
		<tag k="natural" v="scree" />
		<tag k="ssr:stedsnr" v="100485" />
	</node>
	<node id="-155076" lat="66.3316777763" lon="14.7497638807">
		<tag k="name" v="Mølnhusenget" />
>>>>>>> e1d4bc35ff8a6074a6f2e91616a996b547c36f15
		<tag k="place" v="locality" />
		<tag k="ssr:stedsnr" v="772156" />
	</node>
<<<<<<< HEAD
	<node lat="66.26687778012634" lon="13.754433343505555" id="-8188">
		<tag k="name" v="Stormyra" />
=======
	<node id="-155073" lat="66.4199361095" lon="14.4997833256">
		<tag k="name" v="Nattlienget" />
>>>>>>> e1d4bc35ff8a6074a6f2e91616a996b547c36f15
		<tag k="natural" v="wetland" />
		<tag k="ssr:stedsnr" v="772667" />
	</node>
<<<<<<< HEAD
	<node lat="66.30774166428807" lon="13.516111114441308" id="-8192">
		<tag k="name" v="Kvitura" />
		<tag k="natural" v="scree" />
		<tag k="ssr:stedsnr" v="772867" />
	</node>
	<node lat="66.39110555812294" lon="14.377008334432084" id="-8194">
		<tag k="name" v="Permyra" />
		<tag k="natural" v="wetland" />
		<tag k="ssr:stedsnr" v="772874" />
	</node>
	<node lat="66.39211944400361" lon="14.385286119219343" id="-8195">
		<tag k="name" v="Kartmyra" />
=======
	<node id="-153020" lat="66.3153750032" lon="13.9554111119">
		<tag k="name" v="Ådalan" />
		<tag k="place" v="locality" />
		<tag k="ssr:stedsnr" v="407668" />
	</node>
	<node id="-153019" lat="66.3142694417" lon="13.9803777764">
		<tag k="name" v="Smådalan" />
		<tag k="place" v="locality" />
		<tag k="ssr:stedsnr" v="407665" />
	</node>
	<node id="-153014" lat="66.3407972219" lon="14.3431472136">
		<tag k="name" v="Nesmyra" />
>>>>>>> e1d4bc35ff8a6074a6f2e91616a996b547c36f15
		<tag k="natural" v="wetland" />
		<tag k="ssr:stedsnr" v="772875" />
	</node>
<<<<<<< HEAD
	<node lat="66.39091666446423" lon="14.430486117574814" id="-8196">
		<tag k="name" v="Vakkermyra" />
=======
	<node id="-153010" lat="66.3101805549" lon="14.2679777674">
		<tag k="name" v="Stormyra" />
>>>>>>> e1d4bc35ff8a6074a6f2e91616a996b547c36f15
		<tag k="natural" v="wetland" />
		<tag k="ssr:stedsnr" v="772878" />
	</node>
<<<<<<< HEAD
	<node lat="66.29814444471987" lon="13.714958340029717" id="-8199">
		<tag k="name" v="Stråmyra" />
=======
	<node id="-153004" lat="66.3459805572" lon="14.3944416735">
		<tag k="name" v="Bjynnskitmyra" />
>>>>>>> e1d4bc35ff8a6074a6f2e91616a996b547c36f15
		<tag k="natural" v="wetland" />
		<tag k="ssr:stedsnr" v="772722" />
	</node>
<<<<<<< HEAD
	<node lat="66.3685333340329" lon="14.66350555589076" id="-8212">
		<tag k="name" v="Geitklauvmyra" />
=======
	<node id="-157444" lat="66.4154472221" lon="14.018647228">
		<tag k="name" v="Killingmyra" />
		<tag k="natural" v="wetland" />
		<tag k="ssr:stedsnr" v="828455" />
	</node>
	<node id="-153000" lat="66.4025750036" lon="13.9664722174">
		<tag k="name" v="Tullkjerrmyra" />
>>>>>>> e1d4bc35ff8a6074a6f2e91616a996b547c36f15
		<tag k="natural" v="wetland" />
		<tag k="ssr:stedsnr" v="908266" />
	</node>
<<<<<<< HEAD
	<node lat="66.34863888781288" lon="13.44000555594159" id="-8213">
		<tag k="name" v="Sjursteinen" />
		<tag k="natural" v="stone" />
		<tag k="ssr:stedsnr" v="908233" />
	</node>
	<node lat="66.33090833360268" lon="14.6331944343858" id="-8228">
		<tag k="name" v="Neverbekkmyran" />
		<tag k="natural" v="wetland" />
		<tag k="ssr:stedsnr" v="908707" />
	</node>
	<node lat="66.25945833607001" lon="14.54724166408321" id="-8231">
		<tag k="name" v="Kjerrmyra" />
		<tag k="natural" v="wetland" />
		<tag k="ssr:stedsnr" v="908778" />
	</node>
	<node lat="66.41375833263463" lon="14.10828611615277" id="-8241">
		<tag k="name" v="Per-Storlandet" />
=======
	<node id="-153500" lat="66.4316722178" lon="14.4941694524">
		<tag k="name" v="Storistermyra" />
		<tag k="natural" v="wetland" />
		<tag k="ssr:stedsnr" v="706489" />
	</node>
	<node id="-152982" lat="66.5366499979" lon="14.9211583266">
		<tag k="name" v="Høgstlandet" />
		<tag k="place" v="locality" />
		<tag k="ssr:stedsnr" v="502566" />
	</node>
	<node id="-153495" lat="66.34843611" lon="14.6604361034">
		<tag k="name" v="Ytterenget" />
		<tag k="place" v="locality" />
		<tag k="ssr:stedsnr" v="706403" />
	</node>
	<node id="-152128" lat="66.279136114" lon="14.7413222291">
		<tag k="name" v="Innerlienget" />
		<tag k="place" v="locality" />
		<tag k="ssr:stedsnr" v="282407" />
	</node>
	<node id="-151786" lat="66.3876361102" lon="14.1011138987">
		<tag k="name" v="Stamtjønnmyra" />
		<tag k="natural" v="wetland" />
		<tag k="ssr:stedsnr" v="240166" />
	</node>
	<node id="-152953" lat="66.2624527733" lon="13.6743750094">
		<tag k="fixme" v="multiple name tags, choose one and add the other to alt_name" />
		<tag k="historic" v="shieling" />
		<tag k="name" v="Brennbergfjellet;Ørbeinskardet" />
		<tag k="place" v="locality" />
		<tag k="ssr:stedsnr" v="501950" />
	</node>
	<node id="-152809" lat="66.3426361094" lon="14.3466472122">
		<tag k="name" v="Tjæradalsmyra" />
		<tag k="natural" v="wetland" />
		<tag k="ssr:stedsnr" v="346066" />
	</node>
	<node id="-157044" lat="66.4075305548" lon="14.6169805545">
		<tag k="name" v="Slåttmyra" />
>>>>>>> e1d4bc35ff8a6074a6f2e91616a996b547c36f15
		<tag k="natural" v="wetland" />
		<tag k="ssr:stedsnr" v="908876" />
	</node>
<<<<<<< HEAD
	<node lat="66.40931111023855" lon="14.107011112668998" id="-8242">
		<tag k="name" v="Bernthøystakken" />
=======
	<node id="-152946" lat="66.4312833354" lon="13.908216666">
		<tag k="name" v="Storholmsevja" />
>>>>>>> e1d4bc35ff8a6074a6f2e91616a996b547c36f15
		<tag k="natural" v="wetland" />
		<tag k="ssr:stedsnr" v="908878" />
	</node>
<<<<<<< HEAD
	<node lat="66.41355000049698" lon="14.10941389723109" id="-8244">
		<tag k="name" v="Storlandet" />
=======
	<node id="-157041" lat="66.4042333306" lon="14.6228749888">
		<tag k="name" v="Kjellmyra" />
>>>>>>> e1d4bc35ff8a6074a6f2e91616a996b547c36f15
		<tag k="natural" v="wetland" />
		<tag k="ssr:stedsnr" v="908881" />
	</node>
<<<<<<< HEAD
	<node lat="66.40213888466243" lon="14.801325008715635" id="-8256">
		<tag k="name" v="Revasteinen" />
		<tag k="natural" v="stone" />
		<tag k="ssr:stedsnr" v="786106" />
	</node>
	<node lat="66.50743888489754" lon="14.917630561576761" id="-8276">
		<tag k="name" v="Heimerenget" />
=======
	<node id="-157040" lat="66.4017666708" lon="14.6658972288">
		<tag k="name" v="Teigan" />
>>>>>>> e1d4bc35ff8a6074a6f2e91616a996b547c36f15
		<tag k="place" v="locality" />
		<tag k="ssr:stedsnr" v="786365" />
	</node>
<<<<<<< HEAD
	<node lat="66.43973333628718" lon="13.94713332677904" id="-8279">
		<tag k="name" v="Smårismyren" />
=======
	<node id="-157039" lat="66.3975500006" lon="14.7109250112">
		<tag k="name" v="Frostmyra" />
>>>>>>> e1d4bc35ff8a6074a6f2e91616a996b547c36f15
		<tag k="natural" v="wetland" />
		<tag k="ssr:stedsnr" v="786507" />
	</node>
<<<<<<< HEAD
	<node lat="66.3683138925934" lon="14.749805545951713" id="-8280">
		<tag k="name" v="Andvassmyra" />
=======
	<node id="-157037" lat="66.3787722193" lon="14.3818722309">
		<tag k="name" v="Langmyra" />
>>>>>>> e1d4bc35ff8a6074a6f2e91616a996b547c36f15
		<tag k="natural" v="wetland" />
		<tag k="ssr:stedsnr" v="786248" />
	</node>
<<<<<<< HEAD
	<node lat="66.21422500217798" lon="13.941911112787034" id="-8285">
		<tag k="name" v="Nebbsteinan" />
		<tag k="natural" v="stone" />
		<tag k="ssr:stedsnr" v="786711" />
	</node>
	<node lat="66.33175555864256" lon="14.441241672307886" id="-8326">
		<tag k="name" v="Kjerksteinen" />
		<tag k="natural" v="stone" />
		<tag k="ssr:stedsnr" v="919582" />
	</node>
	<node lat="66.31640278091092" lon="14.704872223592126" id="-8328">
		<tag k="historic" v="shieling" />
		<tag k="name" v="Hølvollen" />
=======
	<node id="-152939" lat="66.3929472204" lon="15.2485777866">
		<tag k="name" v="Andfjellmyran" />
		<tag k="natural" v="wetland" />
		<tag k="ssr:stedsnr" v="501553" />
	</node>
	<node id="-157031" lat="66.2909444415" lon="13.6485333351">
		<tag k="name" v="Langforsura" />
		<tag k="natural" v="scree" />
		<tag k="ssr:stedsnr" v="650634" />
	</node>
	<node id="-157027" lat="66.306233336" lon="13.9427055479">
		<tag k="name" v="Slumpen" />
>>>>>>> e1d4bc35ff8a6074a6f2e91616a996b547c36f15
		<tag k="place" v="locality" />
		<tag k="ssr:stedsnr" v="828119" />
	</node>
<<<<<<< HEAD
	<node lat="66.4005388911863" lon="14.054311108556334" id="-8330">
		<tag k="name" v="Gløsmyra" />
		<tag k="natural" v="wetland" />
		<tag k="ssr:stedsnr" v="828368" />
	</node>
	<node lat="66.36775277458837" lon="14.465813881829712" id="-8333">
		<tag k="alt_name" v="Flågbekkmyran" />
		<tag k="name" v="Flogbekkmyran" />
=======
	<node id="-152926" lat="66.6424527753" lon="13.6975055648">
		<tag k="name" v="Svartisen" />
		<tag k="natural" v="glacier" />
		<tag k="ssr:stedsnr" v="501234" />
	</node>
	<node id="-154970" lat="66.392144446" lon="14.0343749985">
		<tag k="name" v="Tjønnmyra" />
>>>>>>> e1d4bc35ff8a6074a6f2e91616a996b547c36f15
		<tag k="natural" v="wetland" />
		<tag k="ssr:stedsnr" v="828514" />
	</node>
	<node lat="66.3450638925074" lon="14.690211122792135" id="-8337">
		<tag k="name" v="Fjorsenget" />
		<tag k="place" v="locality" />
		<tag k="ssr:stedsnr" v="828412" />
	</node>
<<<<<<< HEAD
	<node lat="66.3754527801319" lon="14.341894453709818" id="-8342">
		<tag k="name" v="Falkstollimyra" />
=======
	<node id="-157017" lat="66.3087888917" lon="14.3178416634">
		<tag k="name" v="Bjynnlimyra" />
>>>>>>> e1d4bc35ff8a6074a6f2e91616a996b547c36f15
		<tag k="natural" v="wetland" />
		<tag k="ssr:stedsnr" v="828923" />
	</node>
<<<<<<< HEAD
	<node lat="66.4409249999767" lon="15.138291660311797" id="-8345">
		<tag k="name" v="Løvamyra" />
=======
	<node id="-157014" lat="66.2717277733" lon="13.7575638987">
		<tag k="name" v="Bollaskjærmyra" />
>>>>>>> e1d4bc35ff8a6074a6f2e91616a996b547c36f15
		<tag k="natural" v="wetland" />
		<tag k="ssr:stedsnr" v="828928" />
	</node>
<<<<<<< HEAD
	<node lat="66.33043333492125" lon="14.233783335319009" id="-8358">
		<tag k="name" v="Bakermyra" />
=======
	<node id="-157012" lat="66.3474027769" lon="14.211422228">
		<tag k="name" v="Overgangen" />
>>>>>>> e1d4bc35ff8a6074a6f2e91616a996b547c36f15
		<tag k="natural" v="wetland" />
		<tag k="ssr:stedsnr" v="832088" />
	</node>
<<<<<<< HEAD
	<node lat="66.34877222637941" lon="14.084991659916705" id="-8381">
		<tag k="landuse" v="meadow" />
		<tag k="name" v="Stakkenget" />
		<tag k="ssr:stedsnr" v="833296" />
	</node>
	<node lat="66.34728610911873" lon="14.076408330941236" id="-8382">
		<tag k="landuse" v="meadow" />
		<tag k="name" v="Ånesengan" />
		<tag k="ssr:stedsnr" v="833301" />
	</node>
	<node lat="66.32862500295585" lon="14.092419438317293" id="-8385">
		<tag k="name" v="Hesthagen" />
=======
	<node id="-157009" lat="66.3596138905" lon="14.3528361078">
		<tag k="name" v="Brennsla" />
		<tag k="place" v="locality" />
		<tag k="ssr:stedsnr" v="650205" />
	</node>
	<node id="-153622" lat="66.408624999" lon="14.6118916754">
		<tag k="name" v="Stormyra" />
		<tag k="natural" v="wetland" />
		<tag k="ssr:stedsnr" v="711936" />
	</node>
	<node id="-157006" lat="66.4541527792" lon="14.317530562">
		<tag k="name" v="Kalvhagen" />
		<tag k="place" v="locality" />
		<tag k="ssr:stedsnr" v="650149" />
	</node>
	<node id="-152258" lat="66.3214222256" lon="14.4157916764">
		<tag k="name" v="Davesetermyra" />
		<tag k="natural" v="wetland" />
		<tag k="ssr:stedsnr" v="286841" />
	</node>
	<node id="-157004" lat="66.4513749977" lon="14.2554972245">
		<tag k="name" v="Torget" />
>>>>>>> e1d4bc35ff8a6074a6f2e91616a996b547c36f15
		<tag k="place" v="locality" />
		<tag k="ssr:stedsnr" v="833469" />
	</node>
<<<<<<< HEAD
	<node lat="66.30444166879549" lon="14.342419444889531" id="-8390">
		<tag k="name" v="Stormyra" />
		<tag k="natural" v="wetland" />
		<tag k="ssr:stedsnr" v="833390" />
	</node>
	<node lat="66.30158055190061" lon="14.346327774760942" id="-8391">
		<tag k="name" v="Holman" />
		<tag k="place" v="locality" />
		<tag k="ssr:stedsnr" v="833391" />
	</node>
	<node lat="66.49553055737684" lon="14.949194454570904" id="-8400">
		<tag k="name" v="Pessarbekkmyra" />
=======
	<node id="-157002" lat="66.3383277758" lon="14.2779888786">
		<tag k="name" v="Stekelura" />
		<tag k="natural" v="scree" />
		<tag k="ssr:stedsnr" v="650118" />
	</node>
	<node id="-157001" lat="66.3003611071" lon="13.4578555581">
		<tag k="name" v="Johan Petterplassen" />
		<tag k="place" v="locality" />
		<tag k="ssr:stedsnr" v="649826" />
	</node>
	<node id="-157238" lat="66.2981444447" lon="13.71495834">
		<tag k="name" v="Stråmyra" />
		<tag k="natural" v="wetland" />
		<tag k="ssr:stedsnr" v="772722" />
	</node>
	<node id="-151712" lat="66.2951055558" lon="13.3806888984">
		<tag k="name" v="Mikkelsteinan" />
		<tag k="natural" v="stone" />
		<tag k="ssr:stedsnr" v="226845" />
	</node>
	<node id="-156990" lat="66.3844583319" lon="14.6022972197">
		<tag k="name" v="Slåttmyra" />
>>>>>>> e1d4bc35ff8a6074a6f2e91616a996b547c36f15
		<tag k="natural" v="wetland" />
		<tag k="ssr:stedsnr" v="847006" />
	</node>
<<<<<<< HEAD
	<node lat="66.33761111058664" lon="13.482791671918829" id="-8405">
		<tag k="name" v="Grønliskogen" />
		<tag k="place" v="locality" />
		<tag k="ssr:stedsnr" v="847223" />
	</node>
	<node lat="66.39314444253591" lon="14.05098889777469" id="-8407">
		<tag k="name" v="Bjerkskogen" />
=======
	<node id="-156987" lat="66.320175003" lon="13.953119449">
		<tag k="name" v="Høgsetan" />
		<tag k="place" v="locality" />
		<tag k="ssr:stedsnr" v="649632" />
	</node>
	<node id="-152885" lat="66.2357777792" lon="13.9445222204">
		<tag k="name" v="Blautmyra" />
		<tag k="natural" v="wetland" />
		<tag k="ssr:stedsnr" v="361704" />
	</node>
	<node id="-156978" lat="66.3595527795" lon="14.2944083303">
		<tag k="name" v="Rastavollen" />
>>>>>>> e1d4bc35ff8a6074a6f2e91616a996b547c36f15
		<tag k="place" v="locality" />
		<tag k="ssr:stedsnr" v="847488" />
	</node>
<<<<<<< HEAD
	<node lat="66.27646944415993" lon="13.544866657893746" id="-8411">
		<tag k="name" v="Slettbakkmyra" />
=======
	<node id="-156976" lat="66.359136107" lon="14.2317916685">
		<tag k="name" v="Hestbekkmyran" />
>>>>>>> e1d4bc35ff8a6074a6f2e91616a996b547c36f15
		<tag k="natural" v="wetland" />
		<tag k="ssr:stedsnr" v="847872" />
	</node>
<<<<<<< HEAD
	<node lat="66.36894444814565" lon="14.457838884099768" id="-8440">
		<tag k="name" v="Flogmyren" />
		<tag k="natural" v="wetland" />
		<tag k="ssr:stedsnr" v="926282" />
	</node>
	<node lat="66.45779444788998" lon="14.34023334029628" id="-8511">
		<tag k="name" v="Fjellmyra" />
=======
	<node id="-156971" lat="66.3178999972" lon="14.310075004">
		<tag k="name" v="Lomtjønnmyra" />
>>>>>>> e1d4bc35ff8a6074a6f2e91616a996b547c36f15
		<tag k="natural" v="wetland" />
		<tag k="ssr:stedsnr" v="893163" />
	</node>
<<<<<<< HEAD
	<node lat="66.45676110864179" lon="14.298713888035397" id="-8512">
		<tag k="name" v="Sagtømmerheia" />
=======
	<node id="-152873" lat="66.4154999975" lon="13.8225722128">
		<tag k="name" v="Storskogen" />
>>>>>>> e1d4bc35ff8a6074a6f2e91616a996b547c36f15
		<tag k="place" v="locality" />
		<tag k="ssr:stedsnr" v="893165" />
	</node>
<<<<<<< HEAD
	<node lat="66.34640555647123" lon="14.086427770997028" id="-8514">
=======
	<node id="-156968" lat="66.346313886" lon="14.3153027785">
>>>>>>> e1d4bc35ff8a6074a6f2e91616a996b547c36f15
		<tag k="landuse" v="meadow" />
		<tag k="name" v="Storjordenget" />
		<tag k="ssr:stedsnr" v="893304" />
	</node>
<<<<<<< HEAD
	<node lat="66.31567778025348" lon="14.254511120273362" id="-8518">
		<tag k="name" v="Brumyra" />
		<tag k="natural" v="wetland" />
		<tag k="ssr:stedsnr" v="893067" />
	</node>
	<node lat="66.33297222323111" lon="14.099066665344505" id="-8521">
		<tag k="name" v="Mailandet" />
=======
	<node id="-156965" lat="66.3168361099" lon="14.2730944481">
		<tag k="name" v="Gammeltømmeret" />
		<tag k="place" v="locality" />
		<tag k="ssr:stedsnr" v="649057" />
	</node>
	<node id="-156961" lat="66.3245888892" lon="13.9754444433">
		<tag k="name" v="Ådalan" />
>>>>>>> e1d4bc35ff8a6074a6f2e91616a996b547c36f15
		<tag k="place" v="locality" />
		<tag k="ssr:stedsnr" v="893268" />
	</node>
<<<<<<< HEAD
	<node lat="66.3077972245529" lon="13.682355562367412" id="-8529">
		<tag k="name" v="Fjellmyran" />
=======
	<node id="-152864" lat="66.3854444477" lon="14.0761138963">
		<tag k="name" v="Davemyra" />
>>>>>>> e1d4bc35ff8a6074a6f2e91616a996b547c36f15
		<tag k="natural" v="wetland" />
		<tag k="ssr:stedsnr" v="893713" />
	</node>
<<<<<<< HEAD
	<node lat="66.37280555929291" lon="14.700336119926657" id="-8543">
		<tag k="name" v="Stormyra" />
		<tag k="natural" v="wetland" />
		<tag k="ssr:stedsnr" v="893905" />
	</node>
	<node lat="66.39693055817028" lon="14.616927769818076" id="-8545">
		<tag k="name" v="Mastermyra" />
=======
	<node id="-153136" lat="66.342891669" lon="14.5351083318">
		<tag k="name" v="Hestmyran" />
		<tag k="natural" v="wetland" />
		<tag k="ssr:stedsnr" v="665740" />
	</node>
	<node id="-154908" lat="66.2739194421" lon="13.6943111018">
		<tag k="name" v="Nord-Lomtjønnholten" />
		<tag k="place" v="locality" />
		<tag k="ssr:stedsnr" v="58897" />
	</node>
	<node id="-152857" lat="66.3865611135" lon="14.4323583315">
		<tag k="name" v="Slåttmyran" />
>>>>>>> e1d4bc35ff8a6074a6f2e91616a996b547c36f15
		<tag k="natural" v="wetland" />
		<tag k="ssr:stedsnr" v="893921" />
	</node>
<<<<<<< HEAD
	<node lat="66.39930833160179" lon="14.64362222421962" id="-8547">
		<tag k="name" v="Nylaenget" />
=======
	<node id="-154902" lat="66.3508111154" lon="13.9933361181">
		<tag k="name" v="Dekenjorda" />
>>>>>>> e1d4bc35ff8a6074a6f2e91616a996b547c36f15
		<tag k="place" v="locality" />
		<tag k="ssr:stedsnr" v="893977" />
	</node>
<<<<<<< HEAD
	<node lat="66.3041111111269" lon="13.546494450033721" id="-8549">
		<tag k="name" v="Ragnve" />
		<tag k="place" v="locality" />
		<tag k="ssr:stedsnr" v="893870" />
	</node>
	<node lat="66.49603055361882" lon="14.984113887025195" id="-8557">
		<tag k="name" v="Per-Hansamyra" />
=======
	<node id="-152852" lat="66.3190777822" lon="14.3756388897">
		<tag k="name" v="Fagermyra" />
>>>>>>> e1d4bc35ff8a6074a6f2e91616a996b547c36f15
		<tag k="natural" v="wetland" />
		<tag k="ssr:stedsnr" v="907015" />
	</node>
<<<<<<< HEAD
	<node lat="66.31214721773797" lon="14.805291676533141" id="-8566">
		<tag k="name" v="Badstumyra" />
=======
	<node id="-152851" lat="66.2973138846" lon="13.6789083377">
		<tag k="name" v="Vargmyra" />
>>>>>>> e1d4bc35ff8a6074a6f2e91616a996b547c36f15
		<tag k="natural" v="wetland" />
		<tag k="ssr:stedsnr" v="908055" />
	</node>
<<<<<<< HEAD
	<node lat="66.30930832936176" lon="14.681727767378325" id="-8567">
		<tag k="name" v="Svartmyran" />
		<tag k="natural" v="wetland" />
		<tag k="ssr:stedsnr" v="908208" />
	</node>
	<node lat="66.3246944433791" lon="13.888049990326376" id="-8575">
		<tag k="name" v="Rognlunden" />
=======
	<node id="-152848" lat="66.3085777803" lon="13.9442638931">
		<tag k="name" v="Helvete" />
>>>>>>> e1d4bc35ff8a6074a6f2e91616a996b547c36f15
		<tag k="place" v="locality" />
		<tag k="ssr:stedsnr" v="908568" />
	</node>
<<<<<<< HEAD
	<node lat="66.44904444197884" lon="13.877316671193965" id="-8578">
		<tag k="name" v="Sørslåtten" />
		<tag k="place" v="locality" />
		<tag k="ssr:stedsnr" v="908607" />
	</node>
	<node lat="66.31588611289189" lon="14.562513887036525" id="-8580">
		<tag k="name" v="Gunhildmyran" />
=======
	<node id="-156941" lat="66.3268250018" lon="14.4377138797">
		<tag k="name" v="Våtmyra" />
		<tag k="natural" v="wetland" />
		<tag k="ssr:stedsnr" v="645561" />
	</node>
	<node id="-156939" lat="66.421500003" lon="14.5033583429">
		<tag k="name" v="Øvre Skjellmyra" />
>>>>>>> e1d4bc35ff8a6074a6f2e91616a996b547c36f15
		<tag k="natural" v="wetland" />
		<tag k="ssr:stedsnr" v="908664" />
	</node>
<<<<<<< HEAD
	<node lat="66.42672778129513" lon="14.049580545995052" id="-8664">
		<tag k="name" v="Granskogmyran" />
=======
	<node id="-156937" lat="66.329075003" lon="14.7435527889">
		<tag k="name" v="Stormyra" />
>>>>>>> e1d4bc35ff8a6074a6f2e91616a996b547c36f15
		<tag k="natural" v="wetland" />
		<tag k="ssr:stedsnr" v="949402" />
	</node>
<<<<<<< HEAD
	<node lat="66.31125000034828" lon="14.346047225275322" id="-8675">
		<tag k="name" v="Vedhoggmyra" />
=======
	<node id="-154888" lat="66.4818777762" lon="13.8865083246">
		<tag k="name" v="Langmyra" />
>>>>>>> e1d4bc35ff8a6074a6f2e91616a996b547c36f15
		<tag k="natural" v="wetland" />
		<tag k="ssr:stedsnr" v="953027" />
	</node>
<<<<<<< HEAD
	<node lat="66.32349444468953" lon="14.01516666148219" id="-8682">
		<tag k="name" v="Hesttjønnmyra" />
=======
	<node id="-154887" lat="66.2189944429" lon="13.9357333362">
		<tag k="name" v="Køtatjønnmyra" />
>>>>>>> e1d4bc35ff8a6074a6f2e91616a996b547c36f15
		<tag k="natural" v="wetland" />
		<tag k="ssr:stedsnr" v="953403" />
	</node>
<<<<<<< HEAD
	<node lat="66.30090555784601" lon="13.435416674819425" id="-8691">
=======
	<node id="-152830" lat="66.347230554" lon="14.204583327">
>>>>>>> e1d4bc35ff8a6074a6f2e91616a996b547c36f15
		<tag k="landuse" v="meadow" />
		<tag k="name" v="Yttervollen" />
		<tag k="ssr:stedsnr" v="953821" />
	</node>
<<<<<<< HEAD
	<node lat="66.32818611386364" lon="14.096936114123526" id="-8708">
		<tag k="name" v="Kalvhagen" />
		<tag k="place" v="locality" />
		<tag k="ssr:stedsnr" v="954458" />
	</node>
	<node lat="66.29565278067965" lon="13.440252782021481" id="-8715">
		<tag k="name" v="Rotamyra" />
=======
	<node id="-151765" lat="66.4463722243" lon="14.8267611091">
		<tag k="name" v="Lillejorda" />
		<tag k="place" v="locality" />
		<tag k="ssr:stedsnr" v="58926" />
	</node>
	<node id="-152826" lat="66.3943972181" lon="14.700088897">
		<tag k="name" v="Lomtjønnmyra" />
>>>>>>> e1d4bc35ff8a6074a6f2e91616a996b547c36f15
		<tag k="natural" v="wetland" />
		<tag k="ssr:stedsnr" v="954847" />
	</node>
<<<<<<< HEAD
	<node lat="66.30750555532431" lon="14.412922226856532" id="-8717">
		<tag k="name" v="Gammelsetermyran" />
=======
	<node id="-152825" lat="66.4103583352" lon="14.6285555603">
		<tag k="name" v="Nålgressmyra" />
>>>>>>> e1d4bc35ff8a6074a6f2e91616a996b547c36f15
		<tag k="natural" v="wetland" />
		<tag k="ssr:stedsnr" v="954851" />
	</node>
<<<<<<< HEAD
	<node lat="66.38107221872814" lon="14.364469443174723" id="-8721">
		<tag k="name" v="Langura" />
		<tag k="natural" v="scree" />
		<tag k="ssr:stedsnr" v="954891" />
	</node>
	<node lat="66.27346666371915" lon="14.870955557551046" id="-8803">
		<tag k="name" v="Lappsæterurda" />
=======
	<node id="-154866" lat="66.3076916704" lon="14.750950008">
		<tag k="name" v="Bursteinen" />
		<tag k="natural" v="stone" />
		<tag k="ssr:stedsnr" v="58253" />
	</node>
	<node id="-154862" lat="66.3595944467" lon="13.3468249986">
		<tag k="name" v="Kvitrapet" />
>>>>>>> e1d4bc35ff8a6074a6f2e91616a996b547c36f15
		<tag k="natural" v="scree" />
		<tag k="ssr:stedsnr" v="16531" />
	</node>
<<<<<<< HEAD
	<node lat="66.62072778105234" lon="14.721602781213491" id="-8804">
		<tag k="name" v="Hedningsteinen" />
		<tag k="natural" v="stone" />
		<tag k="ssr:stedsnr" v="16533" />
	</node>
	<node lat="66.29508055923284" lon="13.471975001779313" id="-8812">
		<tag k="name" v="Åsmyran" />
=======
	<node id="-154857" lat="66.3893777762" lon="14.1310361084">
		<tag k="name" v="Dalamyra" />
		<tag k="natural" v="wetland" />
		<tag k="ssr:stedsnr" v="58185" />
	</node>
	<node id="-154852" lat="66.4345888873" lon="14.7737666564">
		<tag k="name" v="Kvanndalsmyran" />
>>>>>>> e1d4bc35ff8a6074a6f2e91616a996b547c36f15
		<tag k="natural" v="wetland" />
		<tag k="ssr:stedsnr" v="16794" />
	</node>
<<<<<<< HEAD
	<node lat="66.27381389211737" lon="14.745497212993966" id="-8821">
		<tag k="name" v="Skjørvelen" />
=======
	<node id="-154848" lat="66.4850416659" lon="14.942591661">
		<tag k="name" v="Krokmyra" />
>>>>>>> e1d4bc35ff8a6074a6f2e91616a996b547c36f15
		<tag k="natural" v="wetland" />
		<tag k="ssr:stedsnr" v="39369" />
	</node>
<<<<<<< HEAD
	<node lat="66.52169999597946" lon="14.91274721254524" id="-8827">
		<tag k="name" v="Dammyran" />
=======
	<node id="-152784" lat="66.2831833312" lon="13.8925111018">
		<tag k="name" v="Hellermyra" />
		<tag k="natural" v="wetland" />
		<tag k="ssr:stedsnr" v="483598" />
	</node>
	<node id="-152792" lat="66.3290611068" lon="14.6184444466">
		<tag k="name" v="Tømmermomyra" />
>>>>>>> e1d4bc35ff8a6074a6f2e91616a996b547c36f15
		<tag k="natural" v="wetland" />
		<tag k="ssr:stedsnr" v="39279" />
	</node>
<<<<<<< HEAD
	<node lat="66.42408055797647" lon="14.063013892483845" id="-8833">
		<tag k="name" v="Hølbekkmyra" />
=======
	<node id="-154839" lat="66.3132777771" lon="14.8304888875">
		<tag k="name" v="Rundhaugmyra" />
>>>>>>> e1d4bc35ff8a6074a6f2e91616a996b547c36f15
		<tag k="natural" v="wetland" />
		<tag k="ssr:stedsnr" v="39410" />
	</node>
<<<<<<< HEAD
	<node lat="66.35428611443025" lon="14.049619452813277" id="-8837">
		<tag k="name" v="Saramyran" />
		<tag k="natural" v="wetland" />
		<tag k="ssr:stedsnr" v="39642" />
	</node>
	<node lat="66.36768055517618" lon="14.236269439527494" id="-8848">
		<tag k="name" v="Slåttmyra" />
=======
	<node id="-156883" lat="66.5185305584" lon="14.0957444512">
		<tag k="name" v="Austerdalsisen" />
		<tag k="natural" v="glacier" />
		<tag k="ssr:stedsnr" v="623463" />
	</node>
	<node id="-154834" lat="66.4078749996" lon="14.6075972266">
		<tag k="name" v="Rivskaftmyra" />
>>>>>>> e1d4bc35ff8a6074a6f2e91616a996b547c36f15
		<tag k="natural" v="wetland" />
		<tag k="ssr:stedsnr" v="43231" />
	</node>
<<<<<<< HEAD
	<node lat="66.4555777758044" lon="14.257308333522861" id="-8858">
		<tag k="name" v="Vollen" />
		<tag k="place" v="locality" />
		<tag k="ssr:stedsnr" v="43136" />
	</node>
	<node lat="66.4559361118497" lon="14.328216676310209" id="-8859">
		<tag k="name" v="Lappmoen" />
		<tag k="place" v="locality" />
		<tag k="ssr:stedsnr" v="43153" />
	</node>
	<node lat="66.3893944465922" lon="14.24186666663541" id="-8860">
		<tag k="name" v="Vollstykket" />
=======
	<node id="-154832" lat="66.4028972216" lon="14.6076333357">
		<tag k="name" v="Saltervollen" />
		<tag k="place" v="locality" />
		<tag k="ssr:stedsnr" v="43942" />
	</node>
	<node id="-154831" lat="66.3725194444" lon="14.6926055494">
		<tag k="name" v="Gløsmyra" />
		<tag k="natural" v="wetland" />
		<tag k="ssr:stedsnr" v="43911" />
	</node>
	<node id="-154829" lat="66.4080527758" lon="14.6630138813">
		<tag k="name" v="Loftlimyran" />
		<tag k="natural" v="wetland" />
		<tag k="ssr:stedsnr" v="43907" />
	</node>
	<node id="-154827" lat="66.3903583348" lon="14.4025416635">
		<tag k="name" v="Storflågmarka" />
>>>>>>> e1d4bc35ff8a6074a6f2e91616a996b547c36f15
		<tag k="place" v="locality" />
		<tag k="ssr:stedsnr" v="43221" />
	</node>
<<<<<<< HEAD
	<node lat="66.34877500055624" lon="14.102297227560598" id="-8861">
		<tag k="landuse" v="meadow" />
		<tag k="name" v="Midtigårdsenget" />
		<tag k="ssr:stedsnr" v="43294" />
	</node>
	<node lat="66.34998888742582" lon="14.075852776145263" id="-8862">
		<tag k="name" v="Kroken" />
=======
	<node id="-154826" lat="66.2987666628" lon="13.509811121">
		<tag k="name" v="Refsåsmyra" />
		<tag k="natural" v="wetland" />
		<tag k="ssr:stedsnr" v="43878" />
	</node>
	<node id="-154823" lat="66.357180559" lon="14.3838472173">
		<tag k="name" v="Skonsengengan" />
>>>>>>> e1d4bc35ff8a6074a6f2e91616a996b547c36f15
		<tag k="place" v="locality" />
		<tag k="ssr:stedsnr" v="43298" />
	</node>
	<node lat="66.3454527751841" lon="14.285344450521453" id="-8867">
		<tag k="name" v="Tollknivmyra" />
		<tag k="natural" v="wetland" />
		<tag k="ssr:stedsnr" v="43111" />
	</node>
<<<<<<< HEAD
	<node lat="66.4019194444513" lon="14.42020834160831" id="-8886">
=======
	<node id="-154820" lat="66.4019194445" lon="14.4202083416">
>>>>>>> e1d4bc35ff8a6074a6f2e91616a996b547c36f15
		<tag k="name" v="Storliauren" />
		<tag k="place" v="locality" />
		<tag k="ssr:stedsnr" v="43776" />
	</node>
<<<<<<< HEAD
	<node lat="66.35718055903087" lon="14.383847217253237" id="-8892">
		<tag k="name" v="Skonsengengan" />
=======
	<node id="-154810" lat="66.3091305516" lon="13.9370805507">
		<tag k="name" v="Vollan" />
>>>>>>> e1d4bc35ff8a6074a6f2e91616a996b547c36f15
		<tag k="place" v="locality" />
		<tag k="ssr:stedsnr" v="43800" />
	</node>
<<<<<<< HEAD
	<node lat="66.29876666283609" lon="13.509811120988086" id="-8897">
		<tag k="name" v="Refsåsmyra" />
		<tag k="natural" v="wetland" />
		<tag k="ssr:stedsnr" v="43878" />
	</node>
	<node lat="66.39035833484246" lon="14.402541663479003" id="-8898">
		<tag k="alt_name" v="Storflågmarka" />
		<tag k="name" v="Storflogmarka" />
=======
	<node id="-154809" lat="66.3092249982" lon="13.9741166556">
		<tag k="name" v="Skjæravollan" />
		<tag k="place" v="locality" />
		<tag k="ssr:stedsnr" v="43593" />
	</node>
	<node id="-152094" lat="66.3529083291" lon="14.1290222196">
		<tag k="name" v="Rundhagen" />
		<tag k="place" v="locality" />
		<tag k="ssr:stedsnr" v="164369" />
	</node>
	<node id="-154788" lat="66.3499888874" lon="14.0758527761">
		<tag k="name" v="Kroken" />
>>>>>>> e1d4bc35ff8a6074a6f2e91616a996b547c36f15
		<tag k="place" v="locality" />
		<tag k="ssr:stedsnr" v="43889" />
	</node>
<<<<<<< HEAD
	<node lat="66.40805277583101" lon="14.66301388126776" id="-8900">
		<tag k="name" v="Loftlimyran" />
		<tag k="natural" v="wetland" />
		<tag k="ssr:stedsnr" v="43907" />
	</node>
	<node lat="66.37251944435074" lon="14.692605549418179" id="-8902">
		<tag k="name" v="Gløsmyra" />
=======
	<node id="-154787" lat="66.3487750006" lon="14.1022972276">
		<tag k="landuse" v="meadow" />
		<tag k="name" v="Midtigårdsenget" />
		<tag k="ssr:stedsnr" v="43294" />
	</node>
	<node id="-154782" lat="66.3676805552" lon="14.2362694395">
		<tag k="name" v="Slåttmyra" />
>>>>>>> e1d4bc35ff8a6074a6f2e91616a996b547c36f15
		<tag k="natural" v="wetland" />
		<tag k="ssr:stedsnr" v="43911" />
	</node>
<<<<<<< HEAD
	<node lat="66.48504166588091" lon="14.942591661015284" id="-8909">
		<tag k="name" v="Krokmyra" />
		<tag k="natural" v="wetland" />
		<tag k="ssr:stedsnr" v="58015" />
	</node>
	<node lat="66.43458888727265" lon="14.773766656407949" id="-8913">
		<tag k="name" v="Kvanndalsmyran" />
=======
	<node id="-154781" lat="66.3893944466" lon="14.2418666666">
		<tag k="name" v="Vollstykket" />
		<tag k="place" v="locality" />
		<tag k="ssr:stedsnr" v="43221" />
	</node>
	<node id="-152729" lat="66.2299083356" lon="13.8967833232">
		<tag k="name" v="Høghaugmyra" />
>>>>>>> e1d4bc35ff8a6074a6f2e91616a996b547c36f15
		<tag k="natural" v="wetland" />
		<tag k="ssr:stedsnr" v="58038" />
	</node>
<<<<<<< HEAD
	<node lat="66.47959722200017" lon="15.05259165534549" id="-8915">
		<tag k="name" v="Ytterenget" />
		<tag k="place" v="locality" />
		<tag k="ssr:stedsnr" v="58052" />
	</node>
	<node lat="66.3076916703702" lon="14.750950008000796" id="-8925">
		<tag k="name" v="Bursteinen" />
		<tag k="natural" v="stone" />
		<tag k="ssr:stedsnr" v="58253" />
	</node>
	<node lat="66.21899444285114" lon="13.935733336193499" id="-8935">
		<tag k="alt_name" v="Køtatjønnmyra" />
		<tag k="name" v="Kotatjønnmyra" />
		<tag k="natural" v="wetland" />
		<tag k="ssr:stedsnr" v="58596" />
	</node>
	<node lat="66.35081111536962" lon="13.993336118097327" id="-8947">
		<tag k="name" v="Dekenjorda" />
=======
	<node id="-152772" lat="66.3692583312" lon="14.6737388952">
		<tag k="name" v="Reinhagemyra" />
		<tag k="natural" v="wetland" />
		<tag k="ssr:stedsnr" v="483272" />
	</node>
	<node id="-152726" lat="66.3430055569" lon="14.5162333383">
		<tag k="name" v="Steinuglemyra" />
		<tag k="natural" v="wetland" />
		<tag k="ssr:stedsnr" v="301705" />
	</node>
	<node id="-154773" lat="66.4555777758" lon="14.2573083335">
		<tag k="name" v="Vollen" />
>>>>>>> e1d4bc35ff8a6074a6f2e91616a996b547c36f15
		<tag k="place" v="locality" />
		<tag k="ssr:stedsnr" v="58755" />
	</node>
<<<<<<< HEAD
	<node lat="66.27391944208506" lon="13.694311101775277" id="-8951">
		<tag k="name" v="Nord-Lomtjønnholten" />
		<tag k="place" v="locality" />
		<tag k="ssr:stedsnr" v="58897" />
	</node>
	<node lat="66.39214444597498" lon="14.034374998467053" id="-8972">
		<tag k="name" v="Tjønnmyra" />
=======
	<node id="-152723" lat="66.3844111082" lon="14.7805916607">
		<tag k="name" v="Flattjønnura" />
		<tag k="natural" v="scree" />
		<tag k="ssr:stedsnr" v="301219" />
	</node>
	<node id="-154769" lat="66.3454527752" lon="14.2853444505">
		<tag k="name" v="Tollknivmyra" />
>>>>>>> e1d4bc35ff8a6074a6f2e91616a996b547c36f15
		<tag k="natural" v="wetland" />
		<tag k="ssr:stedsnr" v="77054" />
	</node>
<<<<<<< HEAD
	<node lat="66.31353889176492" lon="14.32307777237818" id="-9013">
		<tag k="name" v="Langmyra" />
=======
	<node id="-152714" lat="66.4907888863" lon="14.9598999956">
		<tag k="name" v="Stormyra" />
>>>>>>> e1d4bc35ff8a6074a6f2e91616a996b547c36f15
		<tag k="natural" v="wetland" />
		<tag k="ssr:stedsnr" v="77322" />
	</node>
<<<<<<< HEAD
	<node lat="66.41993610951708" lon="14.499783325587584" id="-9057">
		<tag k="name" v="Nattlienget" />
=======
	<node id="-156183" lat="66.416336114" lon="14.6015694538">
		<tag k="name" v="Trompelinmyra" />
		<tag k="natural" v="wetland" />
		<tag k="ssr:stedsnr" v="403389" />
	</node>
	<node id="-152710" lat="66.3900055582" lon="14.6456444453">
		<tag k="name" v="Bjynnspelmyra" />
		<tag k="natural" v="wetland" />
		<tag k="ssr:stedsnr" v="468956" />
	</node>
	<node id="-152707" lat="66.3818638878" lon="14.6976055588">
		<tag k="name" v="Henriktjønnura" />
		<tag k="natural" v="scree" />
		<tag k="ssr:stedsnr" v="468893" />
	</node>
	<node id="-152704" lat="66.4090583293" lon="14.7289194364">
		<tag k="name" v="Almlimyra" />
		<tag k="natural" v="wetland" />
		<tag k="ssr:stedsnr" v="468876" />
	</node>
	<node id="-152699" lat="66.3058388857" lon="13.5401416764">
		<tag k="name" v="Stiura" />
		<tag k="natural" v="scree" />
		<tag k="ssr:stedsnr" v="468858" />
	</node>
	<node id="-154746" lat="66.4607111129" lon="14.3402999997">
		<tag k="name" v="Reinhagamyra" />
		<tag k="natural" v="wetland" />
		<tag k="ssr:stedsnr" v="39916" />
	</node>
	<node id="-156792" lat="66.6702250039" lon="14.5211000023">
		<tag k="name" v="Bogfjellbreen" />
		<tag k="natural" v="glacier" />
		<tag k="ssr:stedsnr" v="622498" />
	</node>
	<node id="-152694" lat="66.3000027778" lon="13.4342055541">
		<tag k="name" v="Stokkstiteigen" />
		<tag k="place" v="locality" />
		<tag k="ssr:stedsnr" v="468834" />
	</node>
	<node id="-156521" lat="66.3905027822" lon="14.0341694421">
		<tag k="name" v="Stormyra" />
		<tag k="natural" v="wetland" />
		<tag k="ssr:stedsnr" v="544702" />
	</node>
	<node id="-152692" lat="66.4024888864" lon="14.4743972219">
		<tag k="name" v="Landsmyran" />
		<tag k="natural" v="wetland" />
		<tag k="ssr:stedsnr" v="468815" />
	</node>
	<node id="-156783" lat="66.4631527792" lon="14.8692611035">
		<tag k="name" v="Berrmyra" />
		<tag k="natural" v="wetland" />
		<tag k="ssr:stedsnr" v="604916" />
	</node>
	<node id="-154733" lat="66.3542861144" lon="14.0496194528">
		<tag k="name" v="Saramyran" />
		<tag k="natural" v="wetland" />
		<tag k="ssr:stedsnr" v="39642" />
	</node>
	<node id="-156778" lat="66.3946472202" lon="13.9917083378">
		<tag k="name" v="Sandaurskogen" />
		<tag k="place" v="locality" />
		<tag k="ssr:stedsnr" v="604728" />
	</node>
	<node id="-156775" lat="66.3246666647" lon="14.6339777678">
		<tag k="name" v="Hesjemyra" />
		<tag k="natural" v="wetland" />
		<tag k="ssr:stedsnr" v="604666" />
	</node>
	<node id="-154724" lat="66.521699996" lon="14.9127472125">
		<tag k="name" v="Dammyran" />
		<tag k="natural" v="wetland" />
		<tag k="ssr:stedsnr" v="39279" />
	</node>
	<node id="-155494" lat="66.3461249969" lon="14.5674805519">
		<tag k="name" v="Storbjerklimyra" />
		<tag k="natural" v="wetland" />
		<tag k="ssr:stedsnr" v="179693" />
	</node>
	<node id="-156769" lat="66.2197500011" lon="14.5789361081">
		<tag k="name" v="Setermarka" />
		<tag k="place" v="locality" />
		<tag k="ssr:stedsnr" v="604528" />
	</node>
	<node id="-152672" lat="66.239541663" lon="14.0466138788">
		<tag k="name" v="Moen" />
		<tag k="place" v="locality" />
		<tag k="ssr:stedsnr" v="468521" />
	</node>
	<node id="-156761" lat="66.384813887" lon="14.7401527781">
		<tag k="name" v="Durmålsura" />
		<tag k="natural" v="scree" />
		<tag k="ssr:stedsnr" v="604249" />
	</node>
	<node id="-154705" lat="66.2950805592" lon="13.4719750018">
		<tag k="name" v="Åsmyran" />
		<tag k="natural" v="wetland" />
		<tag k="ssr:stedsnr" v="16794" />
	</node>
	<node id="-152656" lat="66.3225722187" lon="14.1644222174">
		<tag k="landuse" v="meadow" />
		<tag k="name" v="Ranenget" />
		<tag k="ssr:stedsnr" v="468395" />
	</node>
	<node id="-156750" lat="66.4139500011" lon="14.1756527753">
		<tag k="name" v="Rokstedtlimyra" />
		<tag k="natural" v="wetland" />
		<tag k="ssr:stedsnr" v="603875" />
	</node>
	<node id="-152653" lat="66.345491667" lon="14.1024500018">
		<tag k="landuse" v="meadow" />
		<tag k="name" v="Hansgårdsenget" />
		<tag k="ssr:stedsnr" v="468275" />
	</node>
	<node id="-152652" lat="66.3502472185" lon="14.0924777795">
		<tag k="landuse" v="meadow" />
		<tag k="name" v="Storenget" />
		<tag k="ssr:stedsnr" v="468269" />
	</node>
	<node id="-152650" lat="66.3095444428" lon="14.2202361093">
		<tag k="name" v="Fjøsdalura" />
		<tag k="natural" v="scree" />
		<tag k="ssr:stedsnr" v="468383" />
	</node>
	<node id="-152649" lat="66.3058138877" lon="14.2323944335">
		<tag k="name" v="Rundaumyra" />
		<tag k="natural" v="wetland" />
		<tag k="ssr:stedsnr" v="468364" />
	</node>
	<node id="-152640" lat="66.4545138919" lon="14.2635888865">
		<tag k="name" v="Høystakkranda" />
		<tag k="place" v="locality" />
		<tag k="ssr:stedsnr" v="468146" />
	</node>
	<node id="-153780" lat="66.3311250019" lon="14.5942583322">
		<tag k="name" v="Hesttjønnmyra" />
		<tag k="natural" v="wetland" />
		<tag k="ssr:stedsnr" v="664659" />
	</node>
	<node id="-156726" lat="66.4029111073" lon="14.5566249892">
		<tag k="name" v="Statsmyra" />
		<tag k="natural" v="wetland" />
		<tag k="ssr:stedsnr" v="589984" />
	</node>
	<node id="-156725" lat="66.4119611137" lon="14.6468277745">
		<tag k="landuse" v="meadow" />
		<tag k="name" v="Austerenget" />
		<tag k="ssr:stedsnr" v="589977" />
	</node>
	<node id="-152628" lat="66.2980027772" lon="13.4521722284">
		<tag k="landuse" v="meadow" />
		<tag k="name" v="Åsenget" />
		<tag k="ssr:stedsnr" v="467828" />
	</node>
	<node id="-156723" lat="66.3801666634" lon="14.6087027737">
		<tag k="landuse" v="meadow" />
		<tag k="name" v="Litlenget" />
		<tag k="ssr:stedsnr" v="589970" />
	</node>
	<node id="-156714" lat="66.2923500032" lon="13.407427782">
		<tag k="name" v="Finnkotvatnet" />
		<tag k="natural" v="wetland" />
		<tag k="ssr:stedsnr" v="589825" />
	</node>
	<node id="-152612" lat="66.2893805529" lon="14.7240111173">
		<tag k="name" v="Føstslåttenget" />
		<tag k="place" v="locality" />
		<tag k="ssr:stedsnr" v="464432" />
	</node>
	<node id="-152610" lat="66.3200916679" lon="14.6462750056">
		<tag k="name" v="Stillvassmyra" />
		<tag k="natural" v="wetland" />
		<tag k="ssr:stedsnr" v="464349" />
	</node>
	<node id="-152604" lat="66.3369000026" lon="14.724738894">
		<tag k="name" v="Ytterenget" />
		<tag k="place" v="locality" />
		<tag k="ssr:stedsnr" v="464380" />
	</node>
	<node id="-156697" lat="66.379583336" lon="14.3981222189">
		<tag k="name" v="Svartvassauren" />
		<tag k="place" v="locality" />
		<tag k="ssr:stedsnr" v="589882" />
	</node>
	<node id="-152596" lat="66.3526222209" lon="14.451433343">
		<tag k="name" v="Raumyra" />
		<tag k="natural" v="wetland" />
		<tag k="ssr:stedsnr" v="463529" />
	</node>
	<node id="-156688" lat="66.2936527796" lon="13.7179472322">
		<tag k="name" v="Årnhagen" />
		<tag k="place" v="locality" />
		<tag k="ssr:stedsnr" v="589778" />
	</node>
	<node id="-155479" lat="66.3740666645" lon="13.3206638825">
		<tag k="name" v="Hesjeura" />
		<tag k="natural" v="scree" />
		<tag k="ssr:stedsnr" v="179200" />
	</node>
	<node id="-156679" lat="66.240644448" lon="14.0362638865">
		<tag k="name" v="Dale" />
		<tag k="place" v="locality" />
		<tag k="ssr:stedsnr" v="589527" />
	</node>
	<node id="-156676" lat="66.3363083341" lon="14.1666555477">
		<tag k="landuse" v="meadow" />
		<tag k="name" v="Sjyenget" />
		<tag k="ssr:stedsnr" v="589472" />
	</node>
	<node id="-156674" lat="66.4381499996" lon="14.2711972221">
		<tag k="name" v="Lomamyra" />
		<tag k="natural" v="wetland" />
		<tag k="ssr:stedsnr" v="589235" />
	</node>
	<node id="-154623" lat="66.3139305555" lon="14.5691722176">
		<tag k="name" v="Starpølan" />
		<tag k="natural" v="wetland" />
		<tag k="ssr:stedsnr" v="968660" />
	</node>
	<node id="-156659" lat="66.3614666655" lon="14.6298138853">
		<tag k="landuse" v="meadow" />
		<tag k="name" v="Menneslienget" />
		<tag k="ssr:stedsnr" v="588996" />
	</node>
	<node id="-156656" lat="66.2445777788" lon="14.0833388794">
		<tag k="landuse" v="meadow" />
		<tag k="name" v="Skardenget" />
		<tag k="ssr:stedsnr" v="589363" />
	</node>
	<node id="-156653" lat="66.2920805541" lon="14.1033444474">
		<tag k="name" v="Lemenhelleren" />
		<tag k="place" v="locality" />
		<tag k="ssr:stedsnr" v="589335" />
	</node>
	<node id="-152556" lat="66.3561083355" lon="14.240916677">
		<tag k="name" v="Rundtjønnmyra" />
		<tag k="natural" v="wetland" />
		<tag k="ssr:stedsnr" v="286214" />
	</node>
	<node id="-152552" lat="66.3206166685" lon="14.241374999">
		<tag k="name" v="Grubhagen" />
		<tag k="place" v="locality" />
		<tag k="ssr:stedsnr" v="286053" />
	</node>
	<node id="-152551" lat="66.3129666665" lon="14.2802916657">
		<tag k="name" v="Austertjønnmyra" />
		<tag k="natural" v="wetland" />
		<tag k="ssr:stedsnr" v="286016" />
	</node>
	<node id="-154567" lat="66.3093083294" lon="14.6817277674">
		<tag k="name" v="Svartmyran" />
		<tag k="natural" v="wetland" />
		<tag k="ssr:stedsnr" v="908208" />
	</node>
	<node id="-154566" lat="66.4106527798" lon="14.2025000087">
		<tag k="name" v="Snebekkmyran" />
		<tag k="natural" v="wetland" />
		<tag k="ssr:stedsnr" v="907842" />
	</node>
	<node id="-154565" lat="66.4105694484" lon="14.1640055599">
		<tag k="name" v="Granhaugmyra" />
		<tag k="natural" v="wetland" />
		<tag k="ssr:stedsnr" v="907835" />
	</node>
	<node id="-154563" lat="66.4960305536" lon="14.984113887">
		<tag k="name" v="Per-Hansamyra" />
		<tag k="natural" v="wetland" />
		<tag k="ssr:stedsnr" v="907015" />
	</node>
	<node id="-156607" lat="66.2988277738" lon="13.5031638844">
		<tag k="name" v="Helgelandsmyran" />
		<tag k="natural" v="wetland" />
		<tag k="ssr:stedsnr" v="562731" />
	</node>
	<node id="-154557" lat="66.3728055593" lon="14.7003361199">
		<tag k="name" v="Stormyra" />
		<tag k="natural" v="wetland" />
		<tag k="ssr:stedsnr" v="893905" />
	</node>
	<node id="-154552" lat="66.3799055551" lon="14.3464944421">
		<tag k="name" v="Høglimyra" />
		<tag k="natural" v="wetland" />
		<tag k="ssr:stedsnr" v="888943" />
	</node>
	<node id="-154544" lat="66.3174583351" lon="14.1741750073">
		<tag k="fixme" v="multiple name tags, choose one and add the other to alt_name" />
		<tag k="landuse" v="meadow" />
		<tag k="name" v="Revelen;Revelengan" />
		<tag k="ssr:stedsnr" v="874503" />
	</node>
	<node id="-152492" lat="66.2274750025" lon="13.9063166781">
		<tag k="name" v="Tjæradalhølan" />
		<tag k="natural" v="wetland" />
		<tag k="ssr:stedsnr" v="240922" />
	</node>
	<node id="-154535" lat="66.4390027748" lon="15.1418444505">
		<tag k="name" v="Per-Andersmyra" />
		<tag k="natural" v="wetland" />
		<tag k="ssr:stedsnr" v="949944" />
	</node>
	<node id="-152485" lat="66.3371833305" lon="14.6197277732">
		<tag k="name" v="Tverrlimyra" />
		<tag k="natural" v="wetland" />
		<tag k="ssr:stedsnr" v="240696" />
	</node>
	<node id="-152482" lat="66.3276472257" lon="14.5585805487">
		<tag k="name" v="Kjellmyra" />
		<tag k="natural" v="wetland" />
		<tag k="ssr:stedsnr" v="240673" />
	</node>
	<node id="-151630" lat="66.3437055574" lon="14.3149666588">
		<tag k="name" v="Fagerbakkmyra" />
		<tag k="natural" v="wetland" />
		<tag k="ssr:stedsnr" v="225096" />
	</node>
	<node id="-152477" lat="66.4136194418" lon="14.6281111107">
		<tag k="name" v="Storlomlimyra" />
		<tag k="natural" v="wetland" />
		<tag k="ssr:stedsnr" v="225919" />
	</node>
	<node id="-154524" lat="66.4267277813" lon="14.049580546">
		<tag k="name" v="Granskogmyran" />
		<tag k="natural" v="wetland" />
		<tag k="ssr:stedsnr" v="949402" />
	</node>
	<node id="-152471" lat="66.4751638846" lon="14.4026499961">
		<tag k="name" v="Lappstaven" />
		<tag k="natural" v="stone" />
		<tag k="ssr:stedsnr" v="225805" />
	</node>
	<node id="-152468" lat="66.2608194444" lon="13.6015444461">
		<tag k="name" v="Kvitnesengan" />
		<tag k="natural" v="wetland" />
		<tag k="ssr:stedsnr" v="441989" />
	</node>
	<node id="-154503" lat="66.2460222255" lon="14.5873499931">
		<tag k="name" v="Myran" />
		<tag k="natural" v="wetland" />
		<tag k="ssr:stedsnr" v="847751" />
	</node>
	<node id="-154774" lat="66.4559361118" lon="14.3282166763">
		<tag k="name" v="Lappmoen" />
		<tag k="place" v="locality" />
		<tag k="ssr:stedsnr" v="43153" />
	</node>
	<node id="-154483" lat="66.3164083299" lon="14.1738722305">
		<tag k="landuse" v="meadow" />
		<tag k="name" v="Rasmusenget" />
		<tag k="ssr:stedsnr" v="833421" />
	</node>
	<node id="-156528" lat="66.3739055577" lon="14.3301500053">
		<tag k="name" v="Falkstorlimyra" />
		<tag k="natural" v="wetland" />
		<tag k="ssr:stedsnr" v="561321" />
	</node>
	<node id="-152431" lat="66.5107277756" lon="14.3517944427">
		<tag k="name" v="Lappsteinen" />
		<tag k="natural" v="stone" />
		<tag k="ssr:stedsnr" v="441530" />
	</node>
	<node id="-154475" lat="66.3224666637" lon="13.9655000006">
		<tag k="name" v="Langmyra" />
		<tag k="natural" v="wetland" />
		<tag k="ssr:stedsnr" v="831556" />
	</node>
	<node id="-155111" lat="66.3014861122" lon="13.4300277697">
		<tag k="name" v="Toften" />
		<tag k="place" v="locality" />
		<tag k="ssr:stedsnr" v="103779" />
	</node>
	<node id="-152420" lat="66.5967111096" lon="13.8891305631">
		<tag k="name" v="Flatisen" />
		<tag k="natural" v="glacier" />
		<tag k="ssr:stedsnr" v="441463" />
	</node>
	<node id="-152419" lat="66.5687416646" lon="14.0248277874">
		<tag k="name" v="Kampliisen" />
		<tag k="natural" v="glacier" />
		<tag k="ssr:stedsnr" v="441460" />
	</node>
	<node id="-154464" lat="66.3677527746" lon="14.4658138818">
		<tag k="name" v="Flågbekkmyran" />
		<tag k="natural" v="wetland" />
		<tag k="ssr:stedsnr" v="828514" />
	</node>
	<node id="-151696" lat="66.3034694417" lon="14.2830805519">
		<tag k="name" v="Brennåsbakkmyra" />
		<tag k="natural" v="wetland" />
		<tag k="ssr:stedsnr" v="226453" />
	</node>
	<node id="-156501" lat="66.3422833291" lon="14.5442749951">
		<tag k="name" v="Otermyra" />
		<tag k="natural" v="wetland" />
		<tag k="ssr:stedsnr" v="543695" />
	</node>
	<node id="-154445" lat="66.2998361081" lon="13.5474916697">
		<tag k="name" v="Nordengmyra" />
		<tag k="natural" v="wetland" />
		<tag k="ssr:stedsnr" v="805805" />
	</node>
	<node id="-151691" lat="66.4123722213" lon="14.2265722135">
		<tag k="name" v="Nordskogen" />
		<tag k="place" v="locality" />
		<tag k="ssr:stedsnr" v="226222" />
	</node>
	<node id="-156476" lat="66.5003222196" lon="14.9533888858">
		<tag k="name" v="Nordteigen" />
		<tag k="place" v="locality" />
		<tag k="ssr:stedsnr" v="543148" />
	</node>
	<node id="-154427" lat="66.4036305525" lon="14.4842138811">
		<tag k="name" v="Bjørnheia" />
		<tag k="place" v="locality" />
		<tag k="ssr:stedsnr" v="805196" />
	</node>
	<node id="-156459" lat="66.3743166644" lon="14.7336222147">
		<tag k="name" v="Klemmethaugmyran" />
		<tag k="natural" v="wetland" />
		<tag k="ssr:stedsnr" v="543252" />
	</node>
	<node id="-156453" lat="66.3085500018" lon="13.6698388938">
		<tag k="name" v="Stråmyra" />
		<tag k="natural" v="wetland" />
		<tag k="ssr:stedsnr" v="529728" />
	</node>
	<node id="-156446" lat="66.3795138867" lon="14.3714888935">
		<tag k="name" v="Rundmyra" />
		<tag k="natural" v="wetland" />
		<tag k="ssr:stedsnr" v="529879" />
	</node>
	<node id="-152348" lat="66.3114861131" lon="14.6721972126">
		<tag k="name" v="Vargmyra" />
		<tag k="natural" v="wetland" />
		<tag k="ssr:stedsnr" v="221166" />
	</node>
	<node id="-156432" lat="66.2641055591" lon="13.9759305577">
		<tag k="name" v="Storåkeren" />
		<tag k="place" v="locality" />
		<tag k="ssr:stedsnr" v="529516" />
	</node>
	<node id="-156415" lat="66.3684138846" lon="14.6061083407">
		<tag k="historic" v="shieling" />
		<tag k="name" v="Austervollen" />
		<tag k="place" v="locality" />
		<tag k="ssr:stedsnr" v="528944" />
	</node>
	<node id="-156405" lat="66.3798000011" lon="14.6502555532">
		<tag k="name" v="Sørenget" />
		<tag k="place" v="locality" />
		<tag k="ssr:stedsnr" v="528901" />
	</node>
	<node id="-156402" lat="66.3722833359" lon="14.712666665">
		<tag k="name" v="Storkjerrmyra" />
		<tag k="natural" v="wetland" />
		<tag k="ssr:stedsnr" v="528893" />
	</node>
	<node id="-155430" lat="66.3091944464" lon="14.2969888942">
		<tag k="name" v="Grindtrømyra" />
		<tag k="natural" v="wetland" />
		<tag k="ssr:stedsnr" v="165394" />
	</node>
	<node id="-151760" lat="66.479597222" lon="15.0525916553">
		<tag k="name" v="Ytterenget" />
		<tag k="place" v="locality" />
		<tag k="ssr:stedsnr" v="58052" />
	</node>
	<node id="-156383" lat="66.3015388875" lon="13.4244111176">
		<tag k="name" v="Jugarsteinen" />
		<tag k="natural" v="stone" />
		<tag k="ssr:stedsnr" v="527782" />
	</node>
	<node id="-156367" lat="66.4240361153" lon="14.5225333319">
		<tag k="name" v="Blokkbærmyra" />
		<tag k="natural" v="wetland" />
		<tag k="ssr:stedsnr" v="524348" />
	</node>
	<node id="-152262" lat="66.3993805573" lon="14.5705805636">
		<tag k="name" v="Tretjønnmyra" />
		<tag k="natural" v="wetland" />
		<tag k="ssr:stedsnr" v="286976" />
	</node>
	<node id="-152261" lat="66.3954305527" lon="14.6160611063">
		<tag k="name" v="Stabursmyra" />
		<tag k="natural" v="wetland" />
		<tag k="ssr:stedsnr" v="286940" />
	</node>
	<node id="-151670" lat="66.2579472195" lon="13.7432972327">
		<tag k="name" v="Hagen" />
		<tag k="place" v="locality" />
		<tag k="ssr:stedsnr" v="225733" />
	</node>
	<node id="-156354" lat="66.2943749972" lon="13.9081611198">
		<tag k="name" v="Kjølmyran" />
		<tag k="natural" v="wetland" />
		<tag k="ssr:stedsnr" v="422999" />
	</node>
	<node id="-152256" lat="66.3245694464" lon="14.4229472121">
		<tag k="name" v="Hesttjønnmyran" />
		<tag k="natural" v="wetland" />
		<tag k="ssr:stedsnr" v="286838" />
	</node>
	<node id="-152255" lat="66.2971194473" lon="13.4435416728">
		<tag k="name" v="Pallmyra" />
		<tag k="natural" v="wetland" />
		<tag k="ssr:stedsnr" v="286836" />
	</node>
	<node id="-154300" lat="66.2956527807" lon="13.440252782">
		<tag k="name" v="Rotamyra" />
		<tag k="natural" v="wetland" />
		<tag k="ssr:stedsnr" v="954847" />
	</node>
	<node id="-152250" lat="66.2951333353" lon="13.7061222232">
		<tag k="name" v="Ånesan" />
		<tag k="place" v="locality" />
		<tag k="ssr:stedsnr" v="286731" />
	</node>
	<node id="-154288" lat="66.5074388849" lon="14.9176305616">
		<tag k="name" v="Heimerenget" />
		<tag k="place" v="locality" />
		<tag k="ssr:stedsnr" v="786365" />
	</node>
	<node id="-156335" lat="66.1667083352" lon="14.5756027733">
		<tag k="name" v="Høgelimyra" />
		<tag k="natural" v="wetland" />
		<tag k="ssr:stedsnr" v="422538" />
	</node>
	<node id="-156332" lat="66.339924997" lon="14.6256916591">
		<tag k="name" v="Falkflågura" />
		<tag k="natural" v="scree" />
		<tag k="ssr:stedsnr" v="422665" />
	</node>
	<node id="-156325" lat="66.3132638931" lon="14.7759000068">
		<tag k="name" v="Elvenget" />
		<tag k="place" v="locality" />
		<tag k="ssr:stedsnr" v="422215" />
	</node>
	<node id="-152228" lat="66.3052861099" lon="14.3336972286">
		<tag k="name" v="Rønningen" />
		<tag k="place" v="locality" />
		<tag k="ssr:stedsnr" v="286389" />
	</node>
	<node id="-154269" lat="66.3317555586" lon="14.4412416723">
		<tag k="name" v="Kjerksteinen" />
		<tag k="natural" v="stone" />
		<tag k="ssr:stedsnr" v="919582" />
	</node>
	<node id="-154267" lat="66.3077416643" lon="13.5161111144">
		<tag k="name" v="Kvitura" />
		<tag k="natural" v="scree" />
		<tag k="ssr:stedsnr" v="772867" />
	</node>
	<node id="-156313" lat="66.3152138901" lon="14.5821111097">
		<tag k="name" v="Fjellslettskogen" />
		<tag k="place" v="locality" />
		<tag k="ssr:stedsnr" v="422412" />
	</node>
	<node id="-156310" lat="66.358694447" lon="14.1376194361">
		<tag k="name" v="Hemmingmyran" />
		<tag k="natural" v="wetland" />
		<tag k="ssr:stedsnr" v="422178" />
	</node>
	<node id="-154259" lat="66.2668777801" lon="13.7544333435">
		<tag k="name" v="Stormyra" />
		<tag k="natural" v="wetland" />
		<tag k="ssr:stedsnr" v="772667" />
	</node>
	<node id="-154256" lat="66.3360611068" lon="14.2134083435">
		<tag k="name" v="Tortenlimyra" />
		<tag k="natural" v="wetland" />
		<tag k="ssr:stedsnr" v="772484" />
	</node>
	<node id="-154246" lat="66.3827472231" lon="14.6614694503">
		<tag k="name" v="Rørvollen" />
		<tag k="place" v="locality" />
		<tag k="ssr:stedsnr" v="771904" />
	</node>
	<node id="-153025" lat="66.4004444414" lon="14.6429055475">
		<tag k="name" v="Bærmyrenget" />
		<tag k="place" v="locality" />
		<tag k="ssr:stedsnr" v="407921" />
	</node>
	<node id="-154241" lat="66.340569447" lon="14.2741749961">
		<tag k="name" v="Åsmyra" />
		<tag k="natural" v="wetland" />
		<tag k="ssr:stedsnr" v="770121" />
	</node>
	<node id="-155413" lat="66.3570638876" lon="14.5841027846">
		<tag k="name" v="Snarabergmyra" />
		<tag k="natural" v="wetland" />
		<tag k="ssr:stedsnr" v="164980" />
	</node>
	<node id="-156276" lat="66.3465916635" lon="14.1832999972">
		<tag k="name" v="Vargmyra" />
		<tag k="natural" v="wetland" />
		<tag k="ssr:stedsnr" v="408529" />
	</node>
	<node id="-152177" lat="66.3092972222" lon="14.527274997">
		<tag k="name" v="Rypsnarmyra" />
		<tag k="natural" v="wetland" />
		<tag k="ssr:stedsnr" v="179622" />
	</node>
	<node id="-156270" lat="66.3040583362" lon="13.5338333397">
		<tag k="name" v="Normø" />
		<tag k="place" v="locality" />
		<tag k="ssr:stedsnr" v="408877" />
	</node>
	<node id="-156268" lat="66.3742694456" lon="14.3905861012">
		<tag k="name" v="Sandheiauren" />
		<tag k="place" v="locality" />
		<tag k="ssr:stedsnr" v="408874" />
	</node>
	<node id="-154219" lat="66.4135500005" lon="14.1094138972">
		<tag k="name" v="Storlandet" />
		<tag k="natural" v="wetland" />
		<tag k="ssr:stedsnr" v="908881" />
	</node>
	<node id="-154217" lat="66.4093111102" lon="14.1070111127">
		<tag k="name" v="Bernthøystakken" />
		<tag k="natural" v="wetland" />
		<tag k="ssr:stedsnr" v="908878" />
	</node>
	<node id="-154216" lat="66.4137583326" lon="14.1082861162">
		<tag k="name" v="Per-Storlandet" />
		<tag k="natural" v="wetland" />
		<tag k="ssr:stedsnr" v="908876" />
	</node>
	<node id="-156263" lat="66.3024555525" lon="13.7768527672">
		<tag k="name" v="Langmyra" />
		<tag k="natural" v="wetland" />
		<tag k="ssr:stedsnr" v="408785" />
	</node>
	<node id="-154213" lat="66.2594583361" lon="14.5472416641">
		<tag k="name" v="Kjerrmyra" />
		<tag k="natural" v="wetland" />
		<tag k="ssr:stedsnr" v="908778" />
	</node>
	<node id="-152156" lat="66.4272611082" lon="14.8029166548">
		<tag k="landuse" v="meadow" />
		<tag k="name" v="Hopenget" />
		<tag k="ssr:stedsnr" v="179115" />
	</node>
	<node id="-156251" lat="66.3496000002" lon="14.2623388963">
		<tag k="name" v="Kanakselmyra" />
		<tag k="natural" v="wetland" />
		<tag k="ssr:stedsnr" v="408131" />
	</node>
	<node id="-156250" lat="66.3484055527" lon="14.2703277677">
		<tag k="name" v="Bjynnmyra" />
		<tag k="natural" v="wetland" />
		<tag k="ssr:stedsnr" v="408130" />
	</node>
	<node id="-154200" lat="66.3158861129" lon="14.562513887">
		<tag k="name" v="Gunhildmyran" />
		<tag k="natural" v="wetland" />
		<tag k="ssr:stedsnr" v="908664" />
	</node>
	<node id="-156247" lat="66.4100861113" lon="14.5395916599">
		<tag k="landuse" v="quarry" />
		<tag k="name" v="Rana Grubers Dagbrudd" />
		<tag k="ssr:stedsnr" v="407973" />
	</node>
	<node id="-152150" lat="66.4581749962" lon="15.1060111169">
		<tag k="name" v="Sagmyran" />
>>>>>>> e1d4bc35ff8a6074a6f2e91616a996b547c36f15
		<tag k="natural" v="wetland" />
		<tag k="ssr:stedsnr" v="99541" />
	</node>
<<<<<<< HEAD
	<node lat="66.44236388877752" lon="14.828605565395236" id="-9061">
		<tag k="name" v="Storauren" />
=======
	<node id="-154195" lat="66.449044442" lon="13.8773166712">
		<tag k="name" v="Sørslåtten" />
>>>>>>> e1d4bc35ff8a6074a6f2e91616a996b547c36f15
		<tag k="place" v="locality" />
		<tag k="ssr:stedsnr" v="100390" />
	</node>
<<<<<<< HEAD
	<node lat="66.33167777631294" lon="14.74976388068795" id="-9065">
		<tag k="name" v="Mølnhusenget" />
		<tag k="place" v="locality" />
		<tag k="ssr:stedsnr" v="100339" />
	</node>
	<node lat="66.41343055477262" lon="13.993819451356172" id="-9068">
		<tag k="name" v="Tjæradalsmyra" />
		<tag k="natural" v="wetland" />
		<tag k="ssr:stedsnr" v="100458" />
	</node>
	<node lat="66.46578055862659" lon="14.368691659035314" id="-9070">
		<tag k="name" v="Steinruva" />
		<tag k="natural" v="scree" />
		<tag k="ssr:stedsnr" v="100485" />
	</node>
	<node lat="66.34595277625125" lon="14.500719435812838" id="-9072">
		<tag k="name" v="Storskogen" />
		<tag k="place" v="locality" />
		<tag k="ssr:stedsnr" v="100590" />
	</node>
	<node lat="66.33674166821864" lon="14.394844443643192" id="-9075">
		<tag k="name" v="Lakshølmyra" />
=======
	<node id="-154189" lat="66.3246944434" lon="13.8880499903">
		<tag k="name" v="Rognlunden" />
		<tag k="place" v="locality" />
		<tag k="ssr:stedsnr" v="908568" />
	</node>
	<node id="-152140" lat="66.320222225" lon="14.4784499951">
		<tag k="name" v="Storkjerran" />
		<tag k="natural" v="wetland" />
		<tag k="ssr:stedsnr" v="282567" />
	</node>
	<node id="-156233" lat="66.3418722259" lon="14.1910666763">
		<tag k="name" v="Snaufjellmyran" />
		<tag k="natural" v="wetland" />
		<tag k="ssr:stedsnr" v="407546" />
	</node>
	<node id="-152136" lat="66.4322138892" lon="14.4928805639">
		<tag k="name" v="Storisterkjerran" />
		<tag k="place" v="locality" />
		<tag k="ssr:stedsnr" v="282522" />
	</node>
	<node id="-156230" lat="66.3489694423" lon="14.1136694523">
		<tag k="landuse" v="meadow" />
		<tag k="name" v="Daveenget" />
		<tag k="ssr:stedsnr" v="407327" />
	</node>
	<node id="-154178" lat="66.368533334" lon="14.6635055559">
		<tag k="name" v="Geitklauvmyra" />
>>>>>>> e1d4bc35ff8a6074a6f2e91616a996b547c36f15
		<tag k="natural" v="wetland" />
		<tag k="ssr:stedsnr" v="100594" />
	</node>
<<<<<<< HEAD
	<node lat="66.44791111143836" lon="15.120322231859392" id="-9085">
		<tag k="name" v="Stormyra" />
		<tag k="natural" v="wetland" />
		<tag k="ssr:stedsnr" v="100956" />
	</node>
	<node lat="66.33788888995922" lon="14.233236104892459" id="-9087">
		<tag k="name" v="Skjellmyra" />
		<tag k="natural" v="wetland" />
		<tag k="ssr:stedsnr" v="103136" />
	</node>
	<node lat="66.30148611216094" lon="13.430027769745996" id="-9090">
		<tag k="name" v="Toften" />
=======
	<node id="-156224" lat="66.3557111147" lon="14.2479833396">
		<tag k="historic" v="shieling" />
		<tag k="name" v="Liseteren" />
		<tag k="place" v="locality" />
		<tag k="ssr:stedsnr" v="407243" />
	</node>
	<node id="-154175" lat="66.3486388878" lon="13.4400055559">
		<tag k="name" v="Sjursteinen" />
		<tag k="natural" v="stone" />
		<tag k="ssr:stedsnr" v="908233" />
	</node>
	<node id="-156209" lat="66.3208333304" lon="13.9896972122">
		<tag k="name" v="Ringgarden" />
>>>>>>> e1d4bc35ff8a6074a6f2e91616a996b547c36f15
		<tag k="place" v="locality" />
		<tag k="ssr:stedsnr" v="103779" />
	</node>
<<<<<<< HEAD
	<node lat="66.33258889103686" lon="14.305400010120536" id="-9094">
		<tag k="name" v="Høgmomyra" />
=======
	<node id="-154158" lat="66.3121472177" lon="14.8052916765">
		<tag k="name" v="Badstumyra" />
>>>>>>> e1d4bc35ff8a6074a6f2e91616a996b547c36f15
		<tag k="natural" v="wetland" />
		<tag k="ssr:stedsnr" v="104097" />
	</node>
<<<<<<< HEAD
	<node lat="66.2471611073209" lon="14.031538879280177" id="-9100">
		<tag k="landuse" v="meadow" />
		<tag k="name" v="Liengan" />
		<tag k="ssr:stedsnr" v="104555" />
	</node>
	<node lat="66.3427277777438" lon="14.162477769318825" id="-9113">
		<tag k="name" v="Hagen" />
=======
	<node id="-156205" lat="66.4360888861" lon="15.139386117">
		<tag k="name" v="Tjønnmyra" />
		<tag k="natural" v="wetland" />
		<tag k="ssr:stedsnr" v="403946" />
	</node>
	<node id="-152104" lat="66.2478472235" lon="13.9810277813">
		<tag k="name" v="Erikheimet" />
>>>>>>> e1d4bc35ff8a6074a6f2e91616a996b547c36f15
		<tag k="place" v="locality" />
		<tag k="ssr:stedsnr" v="104490" />
	</node>
<<<<<<< HEAD
	<node lat="66.40585000301586" lon="14.476916673436198" id="-9125">
		<tag k="name" v="Botelstranda" />
=======
	<node id="-152100" lat="66.4093944414" lon="14.5638666583">
		<tag k="name" v="Røylivollen" />
>>>>>>> e1d4bc35ff8a6074a6f2e91616a996b547c36f15
		<tag k="place" v="locality" />
		<tag k="ssr:stedsnr" v="104801" />
	</node>
<<<<<<< HEAD
	<node lat="66.40481944530605" lon="14.708672227745836" id="-9126">
		<tag k="name" v="Lamyrvollen" />
		<tag k="place" v="locality" />
		<tag k="ssr:stedsnr" v="104884" />
	</node>
	<node lat="66.29621944443869" lon="13.613508341744927" id="-9134">
		<tag k="name" v="Kirkesteinen" />
		<tag k="natural" v="stone" />
		<tag k="ssr:stedsnr" v="104641" />
	</node>
	<node lat="66.30106389275515" lon="13.574872212983708" id="-9136">
		<tag k="name" v="Dymyra" />
=======
	<node id="-156190" lat="66.3423638909" lon="14.4202361181">
		<tag k="name" v="Stillvassmyra" />
>>>>>>> e1d4bc35ff8a6074a6f2e91616a996b547c36f15
		<tag k="natural" v="wetland" />
		<tag k="ssr:stedsnr" v="104654" />
	</node>
<<<<<<< HEAD
	<node lat="66.38207778122694" lon="14.377911117820464" id="-9148">
		<tag k="name" v="Midtilandet" />
		<tag k="place" v="locality" />
		<tag k="ssr:stedsnr" v="104845" />
	</node>
	<node lat="66.31192222650427" lon="14.363269450726317" id="-9150">
		<tag k="name" v="Tjønnmyra" />
		<tag k="natural" v="wetland" />
		<tag k="ssr:stedsnr" v="104863" />
	</node>
	<node lat="66.3220888919281" lon="14.799524999619564" id="-9157">
		<tag k="name" v="Øverlimyra" />
		<tag k="natural" v="wetland" />
		<tag k="ssr:stedsnr" v="118057" />
	</node>
	<node lat="66.31636944551812" lon="14.537116668742286" id="-9191">
		<tag k="name" v="Tårnsteinan" />
		<tag k="natural" v="stone" />
		<tag k="ssr:stedsnr" v="119650" />
	</node>
	<node lat="66.21460555601756" lon="14.587441665661954" id="-9210">
		<tag k="name" v="Svarturda" />
		<tag k="natural" v="scree" />
		<tag k="ssr:stedsnr" v="136871" />
	</node>
	<node lat="66.3278388906294" lon="14.540011104701628" id="-9251">
		<tag k="name" v="Stormyra" />
=======
	<node id="-156189" lat="66.3291277736" lon="14.439424993">
		<tag k="name" v="Høgmyra" />
		<tag k="natural" v="wetland" />
		<tag k="ssr:stedsnr" v="403571" />
	</node>
	<node id="-152087" lat="66.3162777809" lon="14.2799611202">
		<tag k="name" v="Isterkjerrmyra" />
		<tag k="natural" v="wetland" />
		<tag k="ssr:stedsnr" v="164062" />
	</node>
	<node id="-154129" lat="66.4826888869" lon="15.0638027824">
		<tag k="alt_name" v="Storskredet" />
		<tag k="name" v="Storskreda" />
		<tag k="natural" v="scree" />
		<tag k="ssr:stedsnr" v="744455" />
	</node>
	<node id="-152080" lat="66.3395972267" lon="14.2625277722">
		<tag k="name" v="Oterbekkmyra" />
		<tag k="natural" v="wetland" />
		<tag k="ssr:stedsnr" v="163124" />
	</node>
	<node id="-154119" lat="66.6732999973" lon="15.055386103">
		<tag k="name" v="Krokkimyra" />
>>>>>>> e1d4bc35ff8a6074a6f2e91616a996b547c36f15
		<tag k="natural" v="wetland" />
		<tag k="ssr:stedsnr" v="137316" />
	</node>
<<<<<<< HEAD
	<node lat="66.31688889189067" lon="14.663127780685237" id="-9293">
		<tag k="name" v="Lalimyra" />
=======
	<node id="-156163" lat="66.2846277799" lon="13.523997219">
		<tag k="name" v="Godmyran" />
>>>>>>> e1d4bc35ff8a6074a6f2e91616a996b547c36f15
		<tag k="natural" v="wetland" />
		<tag k="ssr:stedsnr" v="160305" />
	</node>
<<<<<<< HEAD
	<node lat="66.33304444483545" lon="14.742361106794444" id="-9297">
=======
	<node id="-152065" lat="66.3330444448" lon="14.7423611068">
>>>>>>> e1d4bc35ff8a6074a6f2e91616a996b547c36f15
		<tag k="name" v="Austermyra" />
		<tag k="natural" v="wetland" />
		<tag k="ssr:stedsnr" v="160318" />
	</node>
<<<<<<< HEAD
	<node lat="66.40993333789912" lon="13.945024996417287" id="-9305">
=======
	<node id="-154110" lat="66.3935138866" lon="14.4237305624">
		<tag k="alt_name" v="Nordmyran" />
		<tag k="name" v="Nordmyren" />
		<tag k="natural" v="wetland" />
		<tag k="ssr:stedsnr" v="744156" />
	</node>
	<node id="-152061" lat="66.3168888919" lon="14.6631277807">
		<tag k="name" v="Lalimyra" />
		<tag k="natural" v="wetland" />
		<tag k="ssr:stedsnr" v="160305" />
	</node>
	<node id="-156146" lat="66.3058555585" lon="13.5202388878">
>>>>>>> e1d4bc35ff8a6074a6f2e91616a996b547c36f15
		<tag k="name" v="Stormyra" />
		<tag k="natural" v="wetland" />
		<tag k="ssr:stedsnr" v="160415" />
	</node>
<<<<<<< HEAD
	<node lat="66.34300277650945" lon="14.701180547270683" id="-9314">
		<tag k="name" v="Litlenget" />
		<tag k="place" v="locality" />
		<tag k="ssr:stedsnr" v="160381" />
	</node>
	<node lat="66.35224444777661" lon="14.044222213873939" id="-9322">
		<tag k="name" v="Mosehaugmyran" />
		<tag k="natural" v="wetland" />
		<tag k="ssr:stedsnr" v="160679" />
	</node>
	<node lat="66.45781111363898" lon="15.113502784006313" id="-9324">
		<tag k="name" v="Stormyra" />
		<tag k="natural" v="wetland" />
		<tag k="ssr:stedsnr" v="160946" />
	</node>
	<node lat="66.33959722666083" lon="14.262527772246044" id="-9336">
		<tag k="name" v="Oterbekkmyra" />
=======
	<node id="-154086" lat="66.2098472193" lon="14.0413194376">
		<tag k="name" v="Jervurda" />
		<tag k="natural" v="scree" />
		<tag k="ssr:stedsnr" v="743717" />
	</node>
	<node id="-155543" lat="66.316150004" lon="14.7071083279">
		<tag k="name" v="Skardmyra" />
		<tag k="natural" v="wetland" />
		<tag k="ssr:stedsnr" v="198287" />
	</node>
	<node id="-152034" lat="66.3278388906" lon="14.5400111047">
		<tag k="name" v="Stormyra" />
		<tag k="natural" v="wetland" />
		<tag k="ssr:stedsnr" v="137316" />
	</node>
	<node id="-154073" lat="66.3974305573" lon="13.9879472274">
		<tag k="name" v="Sandaurmyra" />
		<tag k="natural" v="wetland" />
		<tag k="ssr:stedsnr" v="726717" />
	</node>
	<node id="-154067" lat="66.4805055596" lon="15.0677500109">
		<tag k="name" v="Litlskredet" />
		<tag k="natural" v="scree" />
		<tag k="ssr:stedsnr" v="726037" />
	</node>
	<node id="-156111" lat="66.422411114" lon="14.8330055642">
		<tag k="name" v="Laskskogen" />
		<tag k="place" v="locality" />
		<tag k="ssr:stedsnr" v="380477" />
	</node>
	<node id="-154052" lat="66.3095694439" lon="14.5654111157">
		<tag k="name" v="Stormyra" />
		<tag k="natural" v="wetland" />
		<tag k="ssr:stedsnr" v="725573" />
	</node>
	<node id="-154040" lat="66.4233694436" lon="14.0807416742">
		<tag k="name" v="Forsmyra" />
		<tag k="natural" v="wetland" />
		<tag k="ssr:stedsnr" v="725164" />
	</node>
	<node id="-154037" lat="66.485758338" lon="14.9757194401">
		<tag k="name" v="Høgmyra" />
		<tag k="natural" v="wetland" />
		<tag k="ssr:stedsnr" v="725008" />
	</node>
	<node id="-154034" lat="66.3643944472" lon="14.3987722211">
		<tag k="name" v="Bjerklimyran" />
		<tag k="natural" v="wetland" />
		<tag k="ssr:stedsnr" v="711810" />
	</node>
	<node id="-154031" lat="66.2992555553" lon="13.7209083442">
		<tag k="name" v="Hestmyra" />
		<tag k="natural" v="wetland" />
		<tag k="ssr:stedsnr" v="711772" />
	</node>
	<node id="-154021" lat="66.4572083342" lon="14.322083335">
		<tag k="name" v="Setra" />
		<tag k="place" v="locality" />
		<tag k="ssr:stedsnr" v="711180" />
	</node>
	<node id="-154020" lat="66.4561305581" lon="14.304091673">
		<tag k="name" v="Slåttmyra" />
		<tag k="natural" v="wetland" />
		<tag k="ssr:stedsnr" v="711169" />
	</node>
	<node id="-151963" lat="66.3413111133" lon="15.3036055562">
		<tag k="name" v="Daudmannsmyran" />
		<tag k="natural" v="wetland" />
		<tag k="ssr:stedsnr" v="259566" />
	</node>
	<node id="-154010" lat="66.2962111087" lon="13.5203444529">
		<tag k="name" v="Storneset" />
		<tag k="place" v="locality" />
		<tag k="ssr:stedsnr" v="710863" />
	</node>
	<node id="-154204" lat="66.3309083336" lon="14.6331944344">
		<tag k="name" v="Neverbekkmyran" />
		<tag k="natural" v="wetland" />
		<tag k="ssr:stedsnr" v="908707" />
	</node>
	<node id="-154004" lat="66.3993083316" lon="14.6436222242">
		<tag k="name" v="Nylaenget" />
		<tag k="place" v="locality" />
		<tag k="ssr:stedsnr" v="893977" />
	</node>
	<node id="-153996" lat="66.3041111111" lon="13.54649445">
		<tag k="name" v="Ragnve" />
		<tag k="place" v="locality" />
		<tag k="ssr:stedsnr" v="893870" />
	</node>
	<node id="-156042" lat="66.2423444445" lon="14.5882472221">
		<tag k="name" v="Småmyran" />
		<tag k="natural" v="wetland" />
		<tag k="ssr:stedsnr" v="379799" />
	</node>
	<node id="-153993" lat="66.3146500015" lon="14.4003916755">
		<tag k="name" v="Våtmyra" />
		<tag k="natural" v="wetland" />
		<tag k="ssr:stedsnr" v="893843" />
	</node>
	<node id="-153992" lat="66.3171111152" lon="14.3951777691">
		<tag k="name" v="Forsmyra" />
		<tag k="natural" v="wetland" />
		<tag k="ssr:stedsnr" v="893841" />
	</node>
	<node id="-153983" lat="66.3077972246" lon="13.6823555624">
		<tag k="name" v="Fjellmyran" />
>>>>>>> e1d4bc35ff8a6074a6f2e91616a996b547c36f15
		<tag k="natural" v="wetland" />
		<tag k="ssr:stedsnr" v="163124" />
	</node>
<<<<<<< HEAD
	<node lat="66.34601110802777" lon="14.341327766233217" id="-9346">
		<tag k="name" v="Meforsura" />
		<tag k="natural" v="scree" />
		<tag k="ssr:stedsnr" v="164087" />
	</node>
	<node lat="66.32904722634375" lon="14.02381945044059" id="-9355">
		<tag k="name" v="Langmyra" />
		<tag k="natural" v="wetland" />
		<tag k="ssr:stedsnr" v="164437" />
	</node>
	<node lat="66.40939444137607" lon="14.56386665833167" id="-9365">
		<tag k="name" v="Røylivollen" />
		<tag k="place" v="locality" />
		<tag k="ssr:stedsnr" v="164969" />
	</node>
	<node lat="66.35706388762372" lon="14.58410278459048" id="-9366">
		<tag k="name" v="Snarabergmyra" />
=======
	<node id="-156027" lat="66.3727055529" lon="14.632811101">
		<tag k="name" v="Urda" />
		<tag k="natural" v="scree" />
		<tag k="ssr:stedsnr" v="379284" />
	</node>
	<node id="-156019" lat="66.5021027764" lon="14.9672750005">
		<tag k="name" v="Hellarmyra" />
		<tag k="natural" v="wetland" />
		<tag k="ssr:stedsnr" v="374133" />
	</node>
	<node id="-151909" lat="66.3119222265" lon="14.3632694507">
		<tag k="name" v="Tjønnmyra" />
		<tag k="natural" v="wetland" />
		<tag k="ssr:stedsnr" v="104863" />
	</node>
	<node id="-156001" lat="66.4156416623" lon="13.9193611132">
		<tag k="name" v="Bordvavmyra" />
		<tag k="natural" v="wetland" />
		<tag k="ssr:stedsnr" v="361648" />
	</node>
	<node id="-153948" lat="66.3464055565" lon="14.086427771">
		<tag k="landuse" v="meadow" />
		<tag k="name" v="Storjordenget" />
		<tag k="ssr:stedsnr" v="893304" />
	</node>
	<node id="-153947" lat="66.3491555593" lon="14.1076250038">
		<tag k="landuse" v="meadow" />
		<tag k="name" v="Litlenget" />
		<tag k="ssr:stedsnr" v="893291" />
	</node>
	<node id="-153942" lat="66.3329722232" lon="14.0990666653">
		<tag k="name" v="Mailandet" />
		<tag k="place" v="locality" />
		<tag k="ssr:stedsnr" v="893268" />
	</node>
	<node id="-155989" lat="66.4432749964" lon="13.8200305443">
		<tag k="name" v="Littj-Bjerkskogen" />
		<tag k="place" v="locality" />
		<tag k="ssr:stedsnr" v="361635" />
	</node>
	<node id="-154339" lat="66.3689444481" lon="14.4578388841">
		<tag k="name" v="Flogmyren" />
		<tag k="natural" v="wetland" />
		<tag k="ssr:stedsnr" v="926282" />
	</node>
	<node id="-155983" lat="66.3487194409" lon="13.4956138778">
		<tag k="name" v="Høysteinen" />
		<tag k="natural" v="stone" />
		<tag k="ssr:stedsnr" v="361234" />
	</node>
	<node id="-153934" lat="66.4593777778" lon="14.2588777875">
		<tag k="name" v="Myra" />
>>>>>>> e1d4bc35ff8a6074a6f2e91616a996b547c36f15
		<tag k="natural" v="wetland" />
		<tag k="ssr:stedsnr" v="164980" />
	</node>
<<<<<<< HEAD
	<node lat="66.30919444643997" lon="14.296988894235733" id="-9375">
		<tag k="name" v="Grindtrømyra" />
=======
	<node id="-153933" lat="66.4025416712" lon="14.2861555516">
		<tag k="name" v="Langmyra" />
>>>>>>> e1d4bc35ff8a6074a6f2e91616a996b547c36f15
		<tag k="natural" v="wetland" />
		<tag k="ssr:stedsnr" v="165394" />
	</node>
<<<<<<< HEAD
	<node lat="66.2627361158528" lon="13.738680547816235" id="-9382">
		<tag k="name" v="Litlenget" />
=======
	<node id="-153931" lat="66.4567611086" lon="14.298713888">
		<tag k="name" v="Sagtømmerheia" />
>>>>>>> e1d4bc35ff8a6074a6f2e91616a996b547c36f15
		<tag k="place" v="locality" />
		<tag k="ssr:stedsnr" v="165679" />
	</node>
<<<<<<< HEAD
	<node lat="66.24636110738895" lon="14.028577784503334" id="-9392">
		<tag k="landuse" v="meadow" />
		<tag k="name" v="Liengan" />
		<tag k="ssr:stedsnr" v="165543" />
	</node>
	<node lat="66.29200277951477" lon="13.624294445199842" id="-9398">
		<tag k="name" v="Utskarpen gravkapell" />
=======
	<node id="-153930" lat="66.4577944479" lon="14.3402333403">
		<tag k="name" v="Fjellmyra" />
		<tag k="natural" v="wetland" />
		<tag k="ssr:stedsnr" v="893163" />
	</node>
	<node id="-151880" lat="66.4090694452" lon="13.9380972249">
		<tag k="name" v="Storskogen" />
>>>>>>> e1d4bc35ff8a6074a6f2e91616a996b547c36f15
		<tag k="place" v="locality" />
		<tag k="ssr:stedsnr" v="165644" />
	</node>
<<<<<<< HEAD
	<node lat="66.3740666644852" lon="13.320663882518131" id="-9414">
		<tag k="name" v="Hesjeura" />
		<tag k="natural" v="scree" />
		<tag k="ssr:stedsnr" v="179200" />
	</node>
	<node lat="66.34868333433106" lon="14.561538887098042" id="-9439">
		<tag k="name" v="Brennevinsmyra" />
=======
	<node id="-151879" lat="66.4134305548" lon="13.9938194514">
		<tag k="name" v="Tjæradalsmyra" />
		<tag k="natural" v="wetland" />
		<tag k="ssr:stedsnr" v="100458" />
	</node>
	<node id="-153925" lat="66.3156777803" lon="14.2545111203">
		<tag k="name" v="Brumyra" />
>>>>>>> e1d4bc35ff8a6074a6f2e91616a996b547c36f15
		<tag k="natural" v="wetland" />
		<tag k="ssr:stedsnr" v="179692" />
	</node>
<<<<<<< HEAD
	<node lat="66.34612499691026" lon="14.567480551901618" id="-9440">
		<tag k="name" v="Storbjerklimyra" />
=======
	<node id="-155970" lat="66.2915611083" lon="13.4911611119">
		<tag k="name" v="Lomtjønnmyra" />
>>>>>>> e1d4bc35ff8a6074a6f2e91616a996b547c36f15
		<tag k="natural" v="wetland" />
		<tag k="ssr:stedsnr" v="179693" />
	</node>
<<<<<<< HEAD
	<node lat="66.31615000396137" lon="14.70710832787932" id="-9489">
		<tag k="name" v="Skardmyra" />
=======
	<node id="-151871" lat="66.4224027767" lon="14.4671583381">
		<tag k="name" v="Gabriel-Jansamyra" />
>>>>>>> e1d4bc35ff8a6074a6f2e91616a996b547c36f15
		<tag k="natural" v="wetland" />
		<tag k="ssr:stedsnr" v="198287" />
	</node>
<<<<<<< HEAD
	<node lat="66.31148611311893" lon="14.672197212639569" id="-9535">
		<tag k="name" v="Vargmyra" />
		<tag k="natural" v="wetland" />
		<tag k="ssr:stedsnr" v="221166" />
	</node>
	<node lat="66.43718055841924" lon="14.051177776837378" id="-9536">
		<tag k="name" v="Storsteinmyra" />
		<tag k="natural" v="wetland" />
		<tag k="ssr:stedsnr" v="221419" />
	</node>
	<node lat="66.42649166406937" lon="14.445827779187137" id="-9537">
		<tag k="name" v="Finnkåtemyra" />
		<tag k="natural" v="wetland" />
		<tag k="ssr:stedsnr" v="221498" />
	</node>
	<node lat="66.26913611295451" lon="14.221186100950895" id="-9555">
		<tag k="name" v="Småriset" />
=======
	<node id="-153994" lat="66.3006861082" lon="13.4324944398">
		<tag k="name" v="Saltvikmyra" />
		<tag k="natural" v="wetland" />
		<tag k="ssr:stedsnr" v="893844" />
	</node>
	<node id="-152969" lat="66.1683694405" lon="14.5848000021">
		<tag k="name" v="Mannlortmyra" />
		<tag k="natural" v="wetland" />
		<tag k="ssr:stedsnr" v="501849" />
	</node>
	<node id="-153902" lat="66.4243888899" lon="15.1507916647">
		<tag k="name" v="Heimerhagen" />
		<tag k="natural" v="wetland" />
		<tag k="ssr:stedsnr" v="889970" />
	</node>
	<node id="-153900" lat="66.343405552" lon="14.6950333234">
		<tag k="name" v="Elvenget" />
>>>>>>> e1d4bc35ff8a6074a6f2e91616a996b547c36f15
		<tag k="place" v="locality" />
		<tag k="ssr:stedsnr" v="221768" />
	</node>
<<<<<<< HEAD
	<node lat="66.41237222132042" lon="14.226572213498395" id="-9568">
		<tag k="name" v="Nordskogen" />
=======
	<node id="-155947" lat="66.2925694448" lon="13.7310472256">
		<tag k="name" v="Langauren" />
>>>>>>> e1d4bc35ff8a6074a6f2e91616a996b547c36f15
		<tag k="place" v="locality" />
		<tag k="ssr:stedsnr" v="226222" />
	</node>
<<<<<<< HEAD
	<node lat="66.33030277890678" lon="14.219430561705947" id="-9570">
		<tag k="name" v="Stormyra" />
=======
	<node id="-151848" lat="66.3135388918" lon="14.3230777724">
		<tag k="name" v="Langmyra" />
>>>>>>> e1d4bc35ff8a6074a6f2e91616a996b547c36f15
		<tag k="natural" v="wetland" />
		<tag k="ssr:stedsnr" v="225110" />
	</node>
	<node lat="66.37303333135317" lon="14.23666388811613" id="-9575">
		<tag k="name" v="Kalvhagen" />
		<tag k="place" v="locality" />
		<tag k="ssr:stedsnr" v="225275" />
	</node>
<<<<<<< HEAD
	<node lat="66.32870833089494" lon="14.261405546459075" id="-9579">
=======
	<node id="-155931" lat="66.3056111156" lon="14.3169666623">
>>>>>>> e1d4bc35ff8a6074a6f2e91616a996b547c36f15
		<tag k="landuse" v="meadow" />
		<tag k="name" v="Høystakkenget" />
		<tag k="ssr:stedsnr" v="225052" />
	</node>
<<<<<<< HEAD
	<node lat="66.24949444371131" lon="13.992974997303063" id="-9584">
		<tag k="name" v="Vollan" />
=======
	<node id="-155929" lat="66.343494448" lon="14.1049249911">
		<tag k="name" v="Tullkjerran" />
>>>>>>> e1d4bc35ff8a6074a6f2e91616a996b547c36f15
		<tag k="place" v="locality" />
		<tag k="ssr:stedsnr" v="225546" />
	</node>
<<<<<<< HEAD
	<node lat="66.47516388461175" lon="14.402649996096534" id="-9591">
		<tag k="name" v="Lappstaven" />
		<tag k="natural" v="stone" />
		<tag k="ssr:stedsnr" v="225805" />
	</node>
	<node lat="66.41361944181457" lon="14.628111110660411" id="-9598">
		<tag k="name" v="Storlomlimyra" />
		<tag k="natural" v="wetland" />
		<tag k="ssr:stedsnr" v="225919" />
	</node>
	<node lat="66.29564722389873" lon="13.523766670795313" id="-9607">
		<tag k="landuse" v="meadow" />
		<tag k="name" v="Sørengan" />
		<tag k="ssr:stedsnr" v="225856" />
	</node>
	<node lat="66.35049722545855" lon="14.0781027808982" id="-9618">
		<tag k="name" v="Larsjorda" />
		<tag k="place" v="locality" />
		<tag k="ssr:stedsnr" v="226325" />
	</node>
	<node lat="66.31590833444865" lon="14.390550002338657" id="-9631">
		<tag k="name" v="Tortenlimyra" />
=======
	<node id="-155923" lat="66.3562444424" lon="14.6240250099">
		<tag k="historic" v="shieling" />
		<tag k="name" v="Vollen" />
		<tag k="place" v="locality" />
		<tag k="ssr:stedsnr" v="347000" />
	</node>
	<node id="-151811" lat="66.4410999965" lon="14.0203777828">
		<tag k="name" v="Tjønnmyra" />
		<tag k="natural" v="wetland" />
		<tag k="ssr:stedsnr" v="240488" />
	</node>
	<node id="-151807" lat="66.5086361089" lon="14.9261916716">
		<tag k="name" v="Monkmyran" />
		<tag k="natural" v="wetland" />
		<tag k="ssr:stedsnr" v="240378" />
	</node>
	<node id="-151806" lat="66.5184611092" lon="14.9281888949">
		<tag k="name" v="Langmyra" />
>>>>>>> e1d4bc35ff8a6074a6f2e91616a996b547c36f15
		<tag k="natural" v="wetland" />
		<tag k="ssr:stedsnr" v="226868" />
	</node>
<<<<<<< HEAD
	<node lat="66.37798333053657" lon="14.357147230280399" id="-9648">
		<tag k="name" v="Langura" />
		<tag k="natural" v="scree" />
		<tag k="ssr:stedsnr" v="282943" />
	</node>
	<node lat="66.31296666652447" lon="14.280291665669758" id="-9660">
		<tag k="name" v="Austertjønnmyra" />
=======
	<node id="-151798" lat="66.3381166702" lon="13.4942166597">
		<tag k="name" v="Ågmyra" />
		<tag k="natural" v="wetland" />
		<tag k="ssr:stedsnr" v="240226" />
	</node>
	<node id="-151793" lat="66.3568805557" lon="14.0946861164">
		<tag k="name" v="Stormyran" />
>>>>>>> e1d4bc35ff8a6074a6f2e91616a996b547c36f15
		<tag k="natural" v="wetland" />
		<tag k="ssr:stedsnr" v="286016" />
	</node>
<<<<<<< HEAD
	<node lat="66.32061666845524" lon="14.241374999017097" id="-9668">
		<tag k="name" v="Grubhagen" />
		<tag k="place" v="locality" />
		<tag k="ssr:stedsnr" v="286053" />
	</node>
	<node lat="66.30528610989286" lon="14.333697228556792" id="-9682">
		<tag k="name" v="Rønningen" />
		<tag k="place" v="locality" />
		<tag k="ssr:stedsnr" v="286389" />
	</node>
	<node lat="66.24873055958152" lon="14.05405278630454" id="-9698">
		<tag k="name" v="Hattskarura" />
		<tag k="natural" v="scree" />
		<tag k="ssr:stedsnr" v="286576" />
	</node>
	<node lat="66.32142222560692" lon="14.415791676381659" id="-9719">
		<tag k="name" v="Davesetermyra" />
=======
	<node id="-155887" lat="66.339083333" lon="14.2428833402">
		<tag k="name" v="Dammyran" />
		<tag k="natural" v="wetland" />
		<tag k="ssr:stedsnr" v="345139" />
	</node>
	<node id="-151787" lat="66.3867444485" lon="14.085061119">
		<tag k="name" v="Glasågmyra" />
>>>>>>> e1d4bc35ff8a6074a6f2e91616a996b547c36f15
		<tag k="natural" v="wetland" />
		<tag k="ssr:stedsnr" v="286841" />
	</node>
<<<<<<< HEAD
	<node lat="66.39543055267514" lon="14.616061106323688" id="-9723">
		<tag k="name" v="Stabursmyra" />
=======
	<node id="-155882" lat="66.4248666694" lon="15.1376416584">
		<tag k="name" v="Kokkmyra" />
>>>>>>> e1d4bc35ff8a6074a6f2e91616a996b547c36f15
		<tag k="natural" v="wetland" />
		<tag k="ssr:stedsnr" v="286940" />
	</node>
<<<<<<< HEAD
	<node lat="66.51147778014318" lon="14.922294449951679" id="-9735">
		<tag k="name" v="Leirbekksteinen" />
		<tag k="natural" v="stone" />
		<tag k="ssr:stedsnr" v="301331" />
	</node>
	<node lat="66.29911388949387" lon="14.849424998845" id="-9739">
		<tag k="name" v="Hauaskogen" />
=======
	<node id="-151781" lat="66.4305138882" lon="14.8227250018">
		<tag k="name" v="Mellombekkskogen" />
>>>>>>> e1d4bc35ff8a6074a6f2e91616a996b547c36f15
		<tag k="place" v="locality" />
		<tag k="ssr:stedsnr" v="301035" />
	</node>
<<<<<<< HEAD
	<node lat="66.38441110815737" lon="14.780591660722159" id="-9745">
		<tag k="name" v="Flattjønnura" />
=======
	<node id="-153826" lat="66.3868861139" lon="14.5090833296">
		<tag k="name" v="Urdrasta" />
>>>>>>> e1d4bc35ff8a6074a6f2e91616a996b547c36f15
		<tag k="natural" v="scree" />
		<tag k="ssr:stedsnr" v="301219" />
	</node>
<<<<<<< HEAD
	<node lat="66.40995000288792" lon="13.931677772390941" id="-9755">
		<tag k="name" v="Firkantskogen" />
		<tag k="place" v="locality" />
		<tag k="ssr:stedsnr" v="301620" />
	</node>
	<node lat="66.343005556931" lon="14.516233338331658" id="-9761">
		<tag k="name" v="Steinuglemyra" />
=======
	<node id="-155873" lat="66.3481750039" lon="14.412797233">
		<tag k="name" v="Himmerikmyra" />
>>>>>>> e1d4bc35ff8a6074a6f2e91616a996b547c36f15
		<tag k="natural" v="wetland" />
		<tag k="ssr:stedsnr" v="301705" />
	</node>
<<<<<<< HEAD
	<node lat="66.27745555435025" lon="13.809375006149393" id="-9765">
		<tag k="name" v="Fuggelmyra" />
		<tag k="natural" v="wetland" />
		<tag k="ssr:stedsnr" v="301962" />
	</node>
	<node lat="66.4633500005559" lon="15.27639167153087" id="-9817">
		<tag k="name" v="Bureksteinen" />
		<tag k="natural" v="stone" />
		<tag k="ssr:stedsnr" v="319562" />
	</node>
	<node lat="66.65448333445636" lon="14.813347232042252" id="-9829">
		<tag k="name" v="Vestergilsteinen" />
		<tag k="natural" v="stone" />
		<tag k="ssr:stedsnr" v="319529" />
	</node>
	<node lat="66.437380554078" lon="14.074108341616128" id="-9844">
		<tag k="name" v="Hopamyran" />
		<tag k="natural" v="wetland" />
		<tag k="ssr:stedsnr" v="319882" />
	</node>
	<node lat="66.30242222357099" lon="15.449877776586835" id="-9881">
		<tag k="name" v="Bonesmyran" />
		<tag k="natural" v="wetland" />
		<tag k="ssr:stedsnr" v="340588" />
	</node>
	<node lat="66.33259444002223" lon="14.36094167600863" id="-9882">
=======
	<node id="-151776" lat="66.4324611132" lon="14.8000305479">
		<tag k="name" v="Bjerkamoauren" />
		<tag k="place" v="locality" />
		<tag k="ssr:stedsnr" v="240104" />
	</node>
	<node id="-155867" lat="66.33259444" lon="14.360941676">
>>>>>>> e1d4bc35ff8a6074a6f2e91616a996b547c36f15
		<tag k="name" v="Lysstakmyra" />
		<tag k="natural" v="wetland" />
		<tag k="ssr:stedsnr" v="342547" />
	</node>
<<<<<<< HEAD
	<node lat="66.43485000307493" lon="14.460325010361405" id="-9899">
		<tag k="name" v="Stormyra" />
		<tag k="natural" v="wetland" />
		<tag k="ssr:stedsnr" v="342470" />
	</node>
	<node lat="66.42640555548302" lon="14.403119452453113" id="-9901">
=======
	<node id="-153816" lat="66.303766664" lon="14.1549055543">
		<tag k="landuse" v="quarry" />
		<tag k="name" v="Mofjellet Gruber" />
		<tag k="ssr:stedsnr" v="683061" />
	</node>
	<node id="-155863" lat="66.4264055555" lon="14.4031194525">
>>>>>>> e1d4bc35ff8a6074a6f2e91616a996b547c36f15
		<tag k="name" v="Jordbrumyra" />
		<tag k="natural" v="wetland" />
		<tag k="ssr:stedsnr" v="342474" />
	</node>
<<<<<<< HEAD
	<node lat="66.34817500388577" lon="14.412797232983822" id="-9905">
		<tag k="name" v="Himmerikmyra" />
=======
	<node id="-155861" lat="66.4348500031" lon="14.4603250104">
		<tag k="name" v="Stormyra" />
>>>>>>> e1d4bc35ff8a6074a6f2e91616a996b547c36f15
		<tag k="natural" v="wetland" />
		<tag k="ssr:stedsnr" v="342866" />
	</node>
<<<<<<< HEAD
	<node lat="66.33908333296628" lon="14.24288334016235" id="-9913">
		<tag k="name" v="Dammyran" />
=======
	<node id="-157907" lat="66.2770222208" lon="13.6802472268">
		<tag k="name" v="Baklimyra" />
>>>>>>> e1d4bc35ff8a6074a6f2e91616a996b547c36f15
		<tag k="natural" v="wetland" />
		<tag k="ssr:stedsnr" v="345139" />
	</node>
<<<<<<< HEAD
	<node lat="66.35624444235467" lon="14.624025009904043" id="-9954">
		<tag k="historic" v="shieling" />
		<tag k="name" v="Vollen" />
=======
	<node id="-155856" lat="66.3467555596" lon="14.6886027859">
		<tag k="name" v="Nordenget" />
>>>>>>> e1d4bc35ff8a6074a6f2e91616a996b547c36f15
		<tag k="place" v="locality" />
		<tag k="ssr:stedsnr" v="347000" />
	</node>
<<<<<<< HEAD
	<node lat="66.34349444803854" lon="14.104924991112929" id="-9964">
		<tag k="name" v="Tullkjerran" />
		<tag k="place" v="locality" />
		<tag k="ssr:stedsnr" v="347299" />
	</node>
	<node lat="66.29731388459543" lon="13.67890833770289" id="-9969">
		<tag k="name" v="Vargmyra" />
=======
	<node id="-153806" lat="66.4811805562" lon="13.8931888812">
		<tag k="name" v="Fjellmyran" />
		<tag k="natural" v="wetland" />
		<tag k="ssr:stedsnr" v="665659" />
	</node>
	<node id="-153795" lat="66.2171194492" lon="13.9100749912">
		<tag k="name" v="Sørenget" />
>>>>>>> e1d4bc35ff8a6074a6f2e91616a996b547c36f15
		<tag k="natural" v="wetland" />
		<tag k="ssr:stedsnr" v="347718" />
	</node>
<<<<<<< HEAD
	<node lat="66.30561111562463" lon="14.316966662261743" id="-9973">
		<tag k="landuse" v="meadow" />
		<tag k="name" v="Veppenget" />
		<tag k="ssr:stedsnr" v="347394" />
	</node>
	<node lat="66.31907778216085" lon="14.375638889686098" id="-9981">
		<tag k="name" v="Fagermyra" />
=======
	<node id="-155840" lat="66.3252361129" lon="14.6493833382">
		<tag k="name" v="Storsteinen" />
		<tag k="natural" v="stone" />
		<tag k="ssr:stedsnr" v="342320" />
	</node>
	<node id="-155837" lat="66.3024222236" lon="15.4498777766">
		<tag k="name" v="Bonesmyran" />
>>>>>>> e1d4bc35ff8a6074a6f2e91616a996b547c36f15
		<tag k="natural" v="wetland" />
		<tag k="ssr:stedsnr" v="347852" />
	</node>
<<<<<<< HEAD
	<node lat="66.3854444476677" lon="14.076113896278583" id="-10007">
		<tag k="name" v="Davemyra" />
=======
	<node id="-151737" lat="66.2738138921" lon="14.745497213">
		<tag k="name" v="Skjørvelen" />
>>>>>>> e1d4bc35ff8a6074a6f2e91616a996b547c36f15
		<tag k="natural" v="wetland" />
		<tag k="ssr:stedsnr" v="361166" />
	</node>
<<<<<<< HEAD
	<node lat="66.29156110832038" lon="13.491161111915325" id="-10012">
		<tag k="name" v="Lomtjønnmyra" />
		<tag k="natural" v="wetland" />
		<tag k="ssr:stedsnr" v="361189" />
	</node>
	<node lat="66.34871944094886" lon="13.495613877791431" id="-10021">
		<tag k="name" v="Høysteinen" />
		<tag k="natural" v="stone" />
		<tag k="ssr:stedsnr" v="361234" />
	</node>
	<node lat="66.44327499635034" lon="13.820030544252212" id="-10036">
		<tag k="name" v="Littj-Bjerkskogen" />
		<tag k="place" v="locality" />
		<tag k="ssr:stedsnr" v="361635" />
	</node>
	<node lat="66.41549999753036" lon="13.822572212824225" id="-10040">
		<tag k="name" v="Storskogen" />
		<tag k="place" v="locality" />
		<tag k="ssr:stedsnr" v="361563" />
	</node>
	<node lat="66.41564166228126" lon="13.919361113168163" id="-10049">
		<tag k="name" v="Bordvavmyra" />
		<tag k="natural" v="wetland" />
		<tag k="ssr:stedsnr" v="361648" />
	</node>
	<node lat="66.23577777915675" lon="13.944522220443545" id="-10050">
		<tag k="name" v="Blautmyra" />
=======
	<node id="-153784" lat="66.2129583323" lon="13.9733194434">
		<tag k="name" v="Haraurda" />
		<tag k="natural" v="scree" />
		<tag k="ssr:stedsnr" v="664678" />
	</node>
	<node id="-157876" lat="66.3810722187" lon="14.3644694432">
		<tag k="name" v="Langura" />
		<tag k="natural" v="scree" />
		<tag k="ssr:stedsnr" v="954891" />
	</node>
	<node id="-153779" lat="66.3292472183" lon="14.5035972131">
		<tag k="name" v="Tættlimyra" />
>>>>>>> e1d4bc35ff8a6074a6f2e91616a996b547c36f15
		<tag k="natural" v="wetland" />
		<tag k="ssr:stedsnr" v="361704" />
	</node>
<<<<<<< HEAD
	<node lat="66.50210277644955" lon="14.967275000512156" id="-10076">
		<tag k="name" v="Hellarmyra" />
=======
	<node id="-151729" lat="66.424080558" lon="14.0630138925">
		<tag k="name" v="Hølbekkmyra" />
>>>>>>> e1d4bc35ff8a6074a6f2e91616a996b547c36f15
		<tag k="natural" v="wetland" />
		<tag k="ssr:stedsnr" v="374133" />
	</node>
<<<<<<< HEAD
	<node lat="66.37270555288212" lon="14.632811100954576" id="-10088">
		<tag k="name" v="Urda" />
		<tag k="natural" v="scree" />
		<tag k="ssr:stedsnr" v="379284" />
	</node>
	<node lat="66.2423444444766" lon="14.588247222136225" id="-10097">
		<tag k="name" v="Småmyran" />
		<tag k="natural" v="wetland" />
		<tag k="ssr:stedsnr" v="379799" />
=======
	<node id="-157868" lat="66.3075055553" lon="14.4129222269">
		<tag k="name" v="Gammelsetermyran" />
		<tag k="natural" v="wetland" />
		<tag k="ssr:stedsnr" v="954851" />
	</node>
	<node id="-157863" lat="66.2471222237" lon="14.0608944389">
		<tag k="name" v="Hattmyra" />
		<tag k="natural" v="wetland" />
		<tag k="ssr:stedsnr" v="954538" />
	</node>
	<node id="-153766" lat="66.3056638921" lon="13.5338083419">
		<tag k="name" v="Frydenlund" />
		<tag k="place" v="locality" />
		<tag k="ssr:stedsnr" v="650854" />
	</node>
	<node id="-151717" lat="66.3159083344" lon="14.3905500023">
		<tag k="name" v="Tortenlimyra" />
		<tag k="natural" v="wetland" />
		<tag k="ssr:stedsnr" v="226868" />
	</node>
	<node id="-153763" lat="66.2384583344" lon="14.0544249962">
		<tag k="name" v="Krokmyra" />
		<tag k="natural" v="wetland" />
		<tag k="ssr:stedsnr" v="650512" />
	</node>
	<node id="-153760" lat="66.2405888894" lon="14.0416000011">
		<tag k="name" v="Solbakken" />
		<tag k="place" v="locality" />
		<tag k="ssr:stedsnr" v="650505" />
	</node>
	<node id="-157851" lat="66.3281861139" lon="14.0969361141">
		<tag k="name" v="Kalvhagen" />
		<tag k="place" v="locality" />
		<tag k="ssr:stedsnr" v="954458" />
	</node>
	<node id="-153754" lat="66.3274527747" lon="14.0932944349">
		<tag k="name" v="Aspmøen" />
		<tag k="place" v="locality" />
		<tag k="ssr:stedsnr" v="650437" />
	</node>
	<node id="-153753" lat="66.3301861132" lon="14.2009027875">
		<tag k="name" v="Varmoskogen" />
		<tag k="place" v="locality" />
		<tag k="ssr:stedsnr" v="650420" />
	</node>
	<node id="-155792" lat="66.4373805541" lon="14.0741083416">
		<tag k="name" v="Hopamyran" />
		<tag k="natural" v="wetland" />
		<tag k="ssr:stedsnr" v="319882" />
	</node>
	<node id="-151694" lat="66.3504972255" lon="14.0781027809">
		<tag k="name" v="Larsjorda" />
		<tag k="place" v="locality" />
		<tag k="ssr:stedsnr" v="226325" />
	</node>
	<node id="-153739" lat="66.3478333313" lon="14.1102583328">
		<tag k="name" v="Paradiset" />
		<tag k="place" v="locality" />
		<tag k="ssr:stedsnr" v="649311" />
	</node>
	<node id="-157830" lat="66.4276944407" lon="14.5104527703">
		<tag k="name" v="Kjerrmyra" />
		<tag k="natural" v="wetland" />
		<tag k="ssr:stedsnr" v="953985" />
	</node>
	<node id="-151684" lat="66.3612750028" lon="14.6201055568">
		<tag k="landuse" v="meadow" />
		<tag k="name" v="Rabbenget" />
		<tag k="ssr:stedsnr" v="225996" />
	</node>
	<node id="-153731" lat="66.3130583309" lon="14.4389138823">
		<tag k="name" v="Dralmyra" />
		<tag k="natural" v="wetland" />
		<tag k="ssr:stedsnr" v="645551" />
	</node>
	<node id="-157825" lat="66.300538891" lon="13.4484083306">
		<tag k="name" v="Holmen" />
		<tag k="place" v="locality" />
		<tag k="ssr:stedsnr" v="953827" />
	</node>
	<node id="-157824" lat="66.3009055578" lon="13.4354166748">
		<tag k="landuse" v="meadow" />
		<tag k="name" v="Yttervollen" />
		<tag k="ssr:stedsnr" v="953821" />
	</node>
	<node id="-151679" lat="66.2956472239" lon="13.5237666708">
		<tag k="landuse" v="meadow" />
		<tag k="name" v="Sørengan" />
		<tag k="ssr:stedsnr" v="225856" />
	</node>
	<node id="-157817" lat="66.4074194421" lon="14.4152999892">
		<tag k="name" v="Jordbrumyra" />
		<tag k="natural" v="wetland" />
		<tag k="ssr:stedsnr" v="953775" />
	</node>
	<node id="-157815" lat="66.3994083359" lon="14.4330000038">
		<tag k="name" v="Reinauren" />
		<tag k="place" v="locality" />
		<tag k="ssr:stedsnr" v="953768" />
	</node>
	<node id="-153718" lat="66.3842861113" lon="14.06364999">
		<tag k="name" v="Granskogen" />
		<tag k="place" v="locality" />
		<tag k="ssr:stedsnr" v="726492" />
	</node>
	<node id="-157813" lat="66.3234944447" lon="14.0151666615">
		<tag k="name" v="Hesttjønnmyra" />
		<tag k="natural" v="wetland" />
		<tag k="ssr:stedsnr" v="953403" />
	</node>
	<node id="-153716" lat="66.3610083312" lon="14.0080138788">
		<tag k="name" v="Tverrbergmyran" />
		<tag k="natural" v="wetland" />
		<tag k="ssr:stedsnr" v="726489" />
	</node>
	<node id="-153714" lat="66.4152861128" lon="13.862680566">
		<tag k="name" v="Nonsteinen" />
		<tag k="natural" v="stone" />
		<tag k="ssr:stedsnr" v="726650" />
	</node>
	<node id="-157809" lat="66.3947444403" lon="14.5443555577">
		<tag k="name" v="Øvermyra" />
		<tag k="natural" v="wetland" />
		<tag k="ssr:stedsnr" v="953966" />
	</node>
	<node id="-155760" lat="66.4633500006" lon="15.2763916715">
		<tag k="name" v="Bureksteinen" />
		<tag k="natural" v="stone" />
		<tag k="ssr:stedsnr" v="319562" />
	</node>
	<node id="-153708" lat="66.3630444449" lon="14.7107944381">
		<tag k="name" v="Stormyra" />
		<tag k="natural" v="wetland" />
		<tag k="ssr:stedsnr" v="726280" />
	</node>
	<node id="-151656" lat="66.2494944437" lon="13.9929749973">
		<tag k="name" v="Vollan" />
		<tag k="place" v="locality" />
		<tag k="ssr:stedsnr" v="225546" />
	</node>
	<node id="-155750" lat="66.6544833345" lon="14.813347232">
		<tag k="name" v="Vestergilsteinen" />
		<tag k="natural" v="stone" />
		<tag k="ssr:stedsnr" v="319529" />
	</node>
	<node id="-157791" lat="66.3112500003" lon="14.3460472253">
		<tag k="name" v="Vedhoggmyra" />
		<tag k="natural" v="wetland" />
		<tag k="ssr:stedsnr" v="953027" />
	</node>
	<node id="-151646" lat="66.2866305593" lon="14.0885194418">
		<tag k="name" v="Hestgjerdet" />
		<tag k="place" v="locality" />
		<tag k="ssr:stedsnr" v="225322" />
	</node>
	<node id="-151643" lat="66.3730333314" lon="14.2366638881">
		<tag k="name" v="Kalvhagen" />
		<tag k="place" v="locality" />
		<tag k="ssr:stedsnr" v="225275" />
	</node>
	<node id="-153684" lat="66.3409388844" lon="13.990000001">
		<tag k="landuse" v="quarry" />
		<tag k="name" v="Norwegian Talc Gruber" />
		<tag k="ssr:stedsnr" v="725694" />
	</node>
	<node id="-157779" lat="66.2982833367" lon="13.4101916659">
		<tag k="name" v="Åsmyra" />
		<tag k="natural" v="wetland" />
		<tag k="ssr:stedsnr" v="952778" />
	</node>
	<node id="-151631" lat="66.3303027789" lon="14.2194305617">
		<tag k="name" v="Stormyra" />
		<tag k="natural" v="wetland" />
		<tag k="ssr:stedsnr" v="225110" />
	</node>
	<node id="-153678" lat="66.4079249986" lon="14.1045083318">
		<tag k="name" v="Langbergmyran" />
		<tag k="natural" v="wetland" />
		<tag k="ssr:stedsnr" v="725833" />
	</node>
	<node id="-151628" lat="66.3287083309" lon="14.2614055465">
		<tag k="landuse" v="meadow" />
		<tag k="name" v="Høystakkenget" />
		<tag k="ssr:stedsnr" v="225052" />
	</node>
	<node id="-153669" lat="66.3202861085" lon="14.830330547">
		<tag k="name" v="Trollhølmyra" />
		<tag k="natural" v="wetland" />
		<tag k="ssr:stedsnr" v="725049" />
	</node>
	<node id="-153667" lat="66.4793194439" lon="14.9958694389">
		<tag k="name" v="Kløftsteinmyra" />
		<tag k="natural" v="wetland" />
		<tag k="ssr:stedsnr" v="725031" />
	</node>
	<node id="-151612" lat="66.6207277811" lon="14.7216027812">
		<tag k="name" v="Hedningsteinen" />
		<tag k="natural" v="stone" />
		<tag k="ssr:stedsnr" v="16533" />
	</node>
	<node id="-151611" lat="66.2734666637" lon="14.8709555576">
		<tag k="name" v="Lappsæterurda" />
		<tag k="natural" v="scree" />
		<tag k="ssr:stedsnr" v="16531" />
	</node>
	<node id="-152585" lat="66.2487305596" lon="14.0540527863">
		<tag k="name" v="Hattskarura" />
		<tag k="natural" v="scree" />
		<tag k="ssr:stedsnr" v="286576" />
	</node>
	<node id="-151560" lat="66.4264916641" lon="14.4458277792">
		<tag k="name" v="Finnkåtemyra" />
		<tag k="natural" v="wetland" />
		<tag k="ssr:stedsnr" v="221498" />
	</node>
	<node id="-152214" lat="66.334805553" lon="14.2669944345">
		<tag k="landuse" v="meadow" />
		<tag k="name" v="Hopenget" />
		<tag k="ssr:stedsnr" v="286132" />
	</node>
	<node id="-153633" lat="66.3634638877" lon="14.1435138947">
		<tag k="name" v="Mastermyra" />
		<tag k="natural" v="wetland" />
		<tag k="ssr:stedsnr" v="603163" />
	</node>
	<node id="-155679" lat="66.1177583374" lon="14.3878777777">
		<tag k="name" v="Grasfjellurda" />
		<tag k="natural" v="scree" />
		<tag k="ssr:stedsnr" v="318108" />
	</node>
	<node id="-157726" lat="66.4261250024" lon="14.7266083416">
		<tag k="name" v="Vadan" />
		<tag k="natural" v="wetland" />
		<tag k="ssr:stedsnr" v="866439" />
	</node>
	<node id="-153623" lat="66.4014916661" lon="14.5452694442">
		<tag k="name" v="Stormyra" />
		<tag k="natural" v="wetland" />
		<tag k="ssr:stedsnr" v="711989" />
	</node>
	<node id="-155670" lat="66.2774555544" lon="13.8093750061">
		<tag k="name" v="Fuggelmyra" />
		<tag k="natural" v="wetland" />
		<tag k="ssr:stedsnr" v="301962" />
	</node>
	<node id="-151570" lat="66.269136113" lon="14.221186101">
		<tag k="name" v="Småriset" />
		<tag k="place" v="locality" />
		<tag k="ssr:stedsnr" v="221768" />
	</node>
	<node id="-155664" lat="66.3280555571" lon="14.6262500059">
		<tag k="name" v="Tømmerlimyra" />
		<tag k="natural" v="wetland" />
		<tag k="ssr:stedsnr" v="301635" />
	</node>
	<node id="-155662" lat="66.4717249966" lon="13.8596388785">
		<tag k="name" v="Littjvassmyran" />
		<tag k="natural" v="wetland" />
		<tag k="ssr:stedsnr" v="301626" />
	</node>
	<node id="-155661" lat="66.4099500029" lon="13.9316777724">
		<tag k="name" v="Firkantskogen" />
		<tag k="place" v="locality" />
		<tag k="ssr:stedsnr" v="301620" />
	</node>
	<node id="-155659" lat="66.2835055563" lon="13.5280361143">
		<tag k="name" v="Steinbakkdya" />
		<tag k="natural" v="wetland" />
		<tag k="ssr:stedsnr" v="301784" />
	</node>
	<node id="-151561" lat="66.4243083307" lon="14.4037277672">
		<tag k="name" v="Latufta" />
		<tag k="natural" v="wetland" />
		<tag k="ssr:stedsnr" v="221506" />
	</node>
	<node id="-153608" lat="66.2971638926" lon="13.6500249945">
		<tag k="name" v="Vadmyran" />
		<tag k="natural" v="wetland" />
		<tag k="ssr:stedsnr" v="711721" />
	</node>
	<node id="-153607" lat="66.3082666651" lon="13.7697777818">
		<tag k="name" v="Storskogen" />
		<tag k="place" v="locality" />
		<tag k="ssr:stedsnr" v="711718" />
	</node>
	<node id="-153604" lat="66.2717083333" lon="13.6180722241">
		<tag k="name" v="Stormyra" />
		<tag k="natural" v="wetland" />
		<tag k="ssr:stedsnr" v="711703" />
>>>>>>> e1d4bc35ff8a6074a6f2e91616a996b547c36f15
	</node>
</osm>
