<?xml version="1.0" encoding="UTF-8"?>
<osm version="0.6" generator="osmapis">
	<node lat="66.33951944355401" lon="14.155116674940265" id="-8417">
		<tag k="fixme" v="consider place=suburb, village or hamlet" />
		<tag k="name" v="Granneset" />
		<tag k="place" v="quarter" />
		<tag k="ssr:stedsnr" v="286498" />
	</node>
	<node lat="66.3561611149221" lon="14.370350000281874" id="-8421">
		<tag k="name" v="Orrgyldret" />
		<tag k="place" v="isolated_dwelling" />
		<tag k="ssr:stedsnr" v="15322" />
	</node>
	<node lat="66.38329165686335" lon="14.207831690640296" id="-8426">
		<tag k="name" v="Bosolen" />
		<tag k="place" v="locality" />
		<tag k="ssr:stedsnr" v="16006" />
	</node>
	<node lat="66.3413805586443" lon="14.139108344989724" id="-8429">
		<tag k="name" v="Ytteren" />
		<tag k="place" v="suburb" />
		<tag k="ssr:stedsnr" v="16019" />
	</node>
	<node lat="66.45806618189651" lon="14.250146498969848" id="-8435">
		<tag k="fixme" v="consider place=hamlet" />
		<tag k="name" v="Litlrøvatnet" />
		<tag k="place" v="farm" />
		<tag k="ssr:stedsnr" v="16115" />
	</node>
	<node lat="66.32460026504123" lon="14.584635707743233" id="-8438">
		<tag k="fixme" v="consider place=hamlet" />
		<tag k="name" v="Seljelia" />
		<tag k="place" v="farm" />
		<tag k="ssr:stedsnr" v="16301" />
	</node>
	<node lat="66.47027499912798" lon="14.853144443097717" id="-8443">
		<tag k="name" v="Grotjønnenget" />
		<tag k="place" v="farm" />
		<tag k="ssr:stedsnr" v="16458" />
	</node>
	<node lat="66.4644507758673" lon="14.855536984619935" id="-8444">
		<tag k="fixme" v="consider place=hamlet" />
		<tag k="name" v="Messingsletta" />
		<tag k="place" v="farm" />
		<tag k="ssr:stedsnr" v="16461" />
	</node>
	<node lat="66.31068055171842" lon="14.843919439715991" id="-8450">
		<tag k="name" v="Engesmoen" />
		<tag k="place" v="farm" />
		<tag k="ssr:stedsnr" v="16522" />
	</node>
	<node lat="66.29748128269603" lon="13.661644313559675" id="-8461">
		<tag k="alt_name" v="Røli" />
		<tag k="fixme" v="consider place=hamlet" />
		<tag k="name" v="Rølia" />
		<tag k="place" v="farm" />
		<tag k="ssr:stedsnr" v="16802" />
	</node>
	<node lat="66.30269166801719" lon="13.564477784750546" id="-8462">
		<tag k="name" v="Lundemo" />
		<tag k="place" v="farm" />
		<tag k="ssr:stedsnr" v="16805" />
	</node>
	<node lat="66.4345144891672" lon="13.856749859212645" id="-8469">
		<tag k="fixme" v="consider place=hamlet" />
		<tag k="name" v="Leiråmoen" />
		<tag k="place" v="farm" />
		<tag k="ssr:stedsnr" v="16872" />
	</node>
	<node lat="66.43842928954021" lon="13.914943528668076" id="-8470">
		<tag k="fixme" v="consider place=hamlet" />
		<tag k="name" v="Avadalen" />
		<tag k="place" v="farm" />
		<tag k="ssr:stedsnr" v="16875" />
	</node>
	<node lat="66.29966110714992" lon="13.429238899043684" id="-8478">
		<tag k="name" v="Stien" />
		<tag k="place" v="farm" />
		<tag k="ssr:stedsnr" v="25210" />
	</node>
	<node lat="66.35118611308887" lon="15.365069442975466" id="-8481">
		<tag k="fixme" v="consider tourism=alpine_hut or tourism=chalet" />
		<tag k="name" v="Corraskoia" />
		<tag k="ssr:stedsnr" v="236352" />
		<tag k="tourism" v="wilderness_hut" />
	</node>
	<node lat="66.34929166969533" lon="14.01392777107207" id="-8482">
		<tag k="name" v="Brattland" />
		<tag k="place" v="isolated_dwelling" />
		<tag k="ssr:stedsnr" v="236695" />
	</node>
	<node lat="66.42483333440572" lon="14.498811115074565" id="-8494">
		<tag k="name" v="Hauabekkenget" />
		<tag k="place" v="farm" />
		<tag k="ssr:stedsnr" v="39462" />
	</node>
	<node lat="66.31547777889044" lon="14.227266664648136" id="-8508">
		<tag k="name" v="Andersmoen" />
		<tag k="place" v="quarter" />
		<tag k="ssr:stedsnr" v="43007" />
	</node>
	<node lat="66.35863333568855" lon="14.319638896070682" id="-8515">
		<tag k="name" v="Nystadnes" />
		<tag k="place" v="farm" />
		<tag k="ssr:stedsnr" v="43205" />
	</node>
	<node lat="66.3585750023753" lon="14.346333327897925" id="-8516">
		<tag k="name" v="Skonsengheia" />
		<tag k="place" v="farm" />
		<tag k="ssr:stedsnr" v="43211" />
	</node>
	<node lat="66.34038610926632" lon="14.111472216979543" id="-8517">
		<tag k="name" v="Engeshaugen" />
		<tag k="place" v="quarter" />
		<tag k="ssr:stedsnr" v="43272" />
	</node>
	<node lat="66.4030305510884" lon="14.526975000561308" id="-8538">
		<tag k="fixme" v="consider place=suburb, village or hamlet" />
		<tag k="name" v="Krusersletta" />
		<tag k="place" v="quarter" />
		<tag k="ssr:stedsnr" v="43985" />
	</node>
	<node lat="66.42395555647205" lon="14.779052771587885" id="-8540">
		<tag k="name" v="Strandjord" />
		<tag k="place" v="farm" />
		<tag k="ssr:stedsnr" v="240032" />
	</node>
	<node lat="66.38158056007539" lon="14.085516662532847" id="-8571">
		<tag k="name" v="Frydenlund" />
		<tag k="place" v="farm" />
		<tag k="ssr:stedsnr" v="58176" />
	</node>
	<node lat="66.49936666576944" lon="14.939569443892076" id="-8588">
		<tag k="name" v="Bjerkeng" />
		<tag k="place" v="farm" />
		<tag k="ssr:stedsnr" v="240346" />
	</node>
	<node lat="66.26776484706043" lon="13.536578501269716" id="-8593">
		<tag k="alt_name" v="Dilkestad Ytre" />
		<tag k="fixme" v="consider place=hamlet" />
		<tag k="name" v="Ytre Dikestad" />
		<tag k="place" v="farm" />
		<tag k="ssr:stedsnr" v="58793" />
	</node>
	<node lat="66.31590000426479" lon="14.361411110636807" id="-8632">
		<tag k="name" v="Austvold" />
		<tag k="place" v="farm" />
		<tag k="ssr:stedsnr" v="240941" />
	</node>
	<node lat="66.37171944130765" lon="14.376761120535708" id="-8643">
		<tag k="name" v="Teigen" />
		<tag k="place" v="farm" />
		<tag k="ssr:stedsnr" v="76309" />
	</node>
	<node lat="66.21956388465085" lon="13.913283342529306" id="-8649">
		<tag k="historic" v="shieling" />
		<tag k="name" v="Fjelljorda" />
		<tag k="place" v="isolated_dwelling" />
		<tag k="ssr:stedsnr" v="76699" />
	</node>
	<node lat="66.34336099882647" lon="14.169341275625692" id="-8655">
		<tag k="alt_name" v="Loftfjell" />
		<tag k="fixme" v="consider place=hamlet" />
		<tag k="name" v="Loftfjellet" />
		<tag k="place" v="farm" />
		<tag k="ssr:stedsnr" v="77024" />
	</node>
	<node lat="66.33482500371595" lon="14.171522214538719" id="-8656">
		<tag k="name" v="Selforssjøen" />
		<tag k="place" v="isolated_dwelling" />
		<tag k="ssr:stedsnr" v="77107" />
	</node>
	<node lat="66.30776690183797" lon="13.755277952994915" id="-8657">
		<tag k="alt_name" v="Tverrbekkli" />
		<tag k="fixme" v="consider place=hamlet" />
		<tag k="name" v="Tverrbekklia" />
		<tag k="place" v="farm" />
		<tag k="ssr:stedsnr" v="77111" />
	</node>
	<node lat="66.31456985191164" lon="14.038542557599143" id="-8663">
		<tag k="alt_name" v="Almli" />
		<tag k="fixme" v="consider place=hamlet" />
		<tag k="name" v="Almlia" />
		<tag k="place" v="farm" />
		<tag k="ssr:stedsnr" v="77121" />
	</node>
	<node lat="66.43813862804889" lon="14.279618381861425" id="-8665">
		<tag k="fixme" v="consider place=hamlet" />
		<tag k="name" v="Lommahaugen" />
		<tag k="place" v="farm" />
		<tag k="ssr:stedsnr" v="77155" />
	</node>
	<node lat="66.38808288075163" lon="14.271388980046732" id="-8672">
		<tag k="fixme" v="consider place=hamlet" />
		<tag k="name" v="Rufsholm" />
		<tag k="place" v="farm" />
		<tag k="ssr:stedsnr" v="77211" />
	</node>
	<node lat="66.34279476347194" lon="14.366510578480883" id="-8675">
		<tag k="fixme" v="consider place=hamlet" />
		<tag k="name" v="Plurheia" />
		<tag k="place" v="farm" />
		<tag k="ssr:stedsnr" v="77255" />
	</node>
	<node lat="66.34035278052212" lon="14.351744452301457" id="-8676">
		<tag k="alt_name" v="Finset" />
		<tag k="name" v="Finnset" />
		<tag k="place" v="farm" />
		<tag k="ssr:stedsnr" v="77256" />
	</node>
	<node lat="66.34065000047892" lon="14.312163897574948" id="-8677">
		<tag k="name" v="Forsbø" />
		<tag k="place" v="farm" />
		<tag k="ssr:stedsnr" v="77258" />
	</node>
	<node lat="66.32117499798338" lon="14.33126389399045" id="-8681">
		<tag k="name" v="Myrlund" />
		<tag k="place" v="farm" />
		<tag k="ssr:stedsnr" v="77354" />
	</node>
	<node lat="66.31738333287247" lon="14.849333321966693" id="-8684">
		<tag k="alt_name" v="Salteng" />
		<tag k="name" v="Saltenget" />
		<tag k="place" v="farm" />
		<tag k="ssr:stedsnr" v="77555" />
	</node>
	<node lat="66.52298333749084" lon="14.884041658221424" id="-8688">
		<tag k="alt_name" v="Bredek, vestre" />
		<tag k="fixme" v="multiple name tags, choose one and add the other to alt_name" />
		<tag k="name" v="Ytre Bredek;Bredek;Vestre Bredek" />
		<tag k="place" v="farm" />
		<tag k="ssr:stedsnr" v="77607" />
	</node>
	<node lat="66.30103990048134" lon="13.565004112086344" id="-8692">
		<tag k="fixme" v="consider place=hamlet" />
		<tag k="name" v="Sjoneidet" />
		<tag k="place" v="farm" />
		<tag k="ssr:stedsnr" v="77809" />
	</node>
	<node lat="66.30353103022237" lon="13.38374095678004" id="-8696">
		<tag k="name" v="Vedneset" />
		<tag k="place" v="locality" />
		<tag k="ssr:stedsnr" v="77766" />
	</node>
	<node lat="66.42185555789214" lon="13.961091656331922" id="-8697">
		<tag k="name" v="Ravnåga" />
		<tag k="place" v="hamlet" />
		<tag k="ssr:stedsnr" v="77903" />
	</node>
	<node lat="66.33361667031917" lon="13.443530561298726" id="-8698">
		<tag k="name" v="Sjonhagen" />
		<tag k="place" v="farm" />
		<tag k="ssr:stedsnr" v="77849" />
	</node>
	<node lat="66.25450833462969" lon="13.677930546592355" id="-8699">
		<tag k="alt_name" v="Brennberget, in;Brennberget Indre" />
		<tag k="name" v="Indre Brennberget" />
		<tag k="place" v="farm" />
		<tag k="ssr:stedsnr" v="77997" />
	</node>
	<node lat="66.31959999773558" lon="14.175163894324394" id="-8703">
		<tag k="name" v="Gruben" />
		<tag k="place" v="farm" />
		<tag k="ssr:stedsnr" v="85774" />
	</node>
	<node lat="66.31852221957946" lon="14.431361110955214" id="-8721">
		<tag k="historic" v="shieling" />
		<tag k="name" v="Davseter" />
		<tag k="place" v="isolated_dwelling" />
		<tag k="ssr:stedsnr" v="100570" />
	</node>
	<node lat="66.29966667054688" lon="13.429144442787353" id="-8730">
		<tag k="alt_name" v="Sjonsti" />
		<tag k="name" v="Sjonstien" />
		<tag k="place" v="farm" />
		<tag k="ssr:stedsnr" v="103784" />
	</node>
	<node lat="66.3249665773674" lon="14.289528627517745" id="-8734">
		<tag k="fixme" v="consider place=hamlet" />
		<tag k="name" v="Steinbekkhaugen" />
		<tag k="place" v="farm" />
		<tag k="ssr:stedsnr" v="104019" />
	</node>
	<node lat="66.34218055245196" lon="14.122897230961236" id="-8739">
		<tag k="name" v="Innerhansgården" />
		<tag k="place" v="farm" />
		<tag k="ssr:stedsnr" v="104285" />
	</node>
	<node lat="66.31967777351409" lon="14.163680562479438" id="-8742">
		<tag k="name" v="Sagbakken" />
		<tag k="place" v="quarter" />
		<tag k="ssr:stedsnr" v="104413" />
	</node>
	<node lat="66.30785832883787" lon="14.023302785605607" id="-8748">
		<tag k="name" v="Korsneset" />
		<tag k="place" v="farm" />
		<tag k="ssr:stedsnr" v="104585" />
	</node>
	<node lat="66.2884694425526" lon="13.630988896958781" id="-8749">
		<tag k="name" v="Bakkejord" />
		<tag k="place" v="farm" />
		<tag k="ssr:stedsnr" v="104616" />
	</node>
	<node lat="66.35526111322666" lon="14.396938880243749" id="-8759">
		<tag k="name" v="Tun" />
		<tag k="place" v="farm" />
		<tag k="ssr:stedsnr" v="104784" />
	</node>
	<node lat="66.31732500178349" lon="14.785958324149101" id="-8783">
		<tag k="name" v="Nestun" />
		<tag k="place" v="farm" />
		<tag k="ssr:stedsnr" v="119220" />
	</node>
	<node lat="66.23129166398154" lon="13.964522216823777" id="-8813">
		<tag k="name" v="Matstutofta" />
		<tag k="place" v="farm" />
		<tag k="ssr:stedsnr" v="136722" />
	</node>
	<node lat="66.3687777788912" lon="14.179261104602933" id="-8816">
		<tag k="name" v="Hundberget" />
		<tag k="place" v="farm" />
		<tag k="ssr:stedsnr" v="137001" />
	</node>
	<node lat="66.39858888576508" lon="14.6721500015084" id="-8826">
		<tag k="alt_name" v="Indregård" />
		<tag k="name" v="Innergarden" />
		<tag k="place" v="farm" />
		<tag k="ssr:stedsnr" v="137164" />
	</node>
	<node lat="66.45800833728305" lon="14.308194436148465" id="-8830">
		<tag k="name" v="Røvassheia" />
		<tag k="place" v="farm" />
		<tag k="ssr:stedsnr" v="137095" />
	</node>
	<node lat="66.406311109232" lon="14.633300009332133" id="-8831">
		<tag k="name" v="Liberg" />
		<tag k="place" v="farm" />
		<tag k="ssr:stedsnr" v="137202" />
	</node>
	<node lat="66.49260556020167" lon="14.994674996564315" id="-8835">
		<tag k="name" v="Raudfjellet" />
		<tag k="place" v="farm" />
		<tag k="ssr:stedsnr" v="137359" />
	</node>
	<node lat="66.32134166385734" lon="14.843499995424613" id="-8837">
		<tag k="name" v="Nordskogen" />
		<tag k="place" v="isolated_dwelling" />
		<tag k="ssr:stedsnr" v="137516" />
	</node>
	<node lat="66.31421983582531" lon="14.681842302329944" id="-8838">
		<tag k="fixme" v="consider place=hamlet" />
		<tag k="name" v="Tapperskardet" />
		<tag k="place" v="farm" />
		<tag k="ssr:stedsnr" v="137294" />
	</node>
	<node lat="66.2906833311727" lon="13.657708336779733" id="-8843">
		<tag k="fixme" v="multiple name tags, choose one and add the other to alt_name" />
		<tag k="name" v="Sørhaug;Sørheim" />
		<tag k="place" v="farm" />
		<tag k="ssr:stedsnr" v="137755" />
	</node>
	<node lat="66.29180126344848" lon="13.611472780931972" id="-8844">
		<tag k="fixme" v="consider place=hamlet" />
		<tag k="name" v="Utskarpen" />
		<tag k="place" v="farm" />
		<tag k="ssr:stedsnr" v="137758" />
	</node>
	<node lat="66.29326944615222" lon="13.59309999966872" id="-8845">
		<tag k="alt_name" v="Steinhaugmo" />
		<tag k="name" v="Steinhaugmoen" />
		<tag k="place" v="farm" />
		<tag k="ssr:stedsnr" v="137762" />
	</node>
	<node lat="66.29075315505123" lon="13.552639884922575" id="-8846">
		<tag k="fixme" v="consider place=hamlet" />
		<tag k="name" v="Dalosen" />
		<tag k="place" v="farm" />
		<tag k="ssr:stedsnr" v="137767" />
	</node>
	<node lat="66.34140000307156" lon="14.146611118608156" id="-8854">
		<tag k="name" v="Sletten" />
		<tag k="place" v="farm" />
		<tag k="ssr:stedsnr" v="145813" />
	</node>
	<node lat="66.30087463945556" lon="13.46415561525375" id="-8855">
		<tag k="fixme" v="consider place=hamlet" />
		<tag k="name" v="Sørsjona" />
		<tag k="place" v="village" />
		<tag k="ssr:stedsnr" v="146169" />
	</node>
	<node lat="66.29543901450229" lon="13.55576184600395" id="-8856">
		<tag k="name" v="Dalosen" />
		<tag k="place" v="farm" />
		<tag k="ssr:stedsnr" v="146172" />
	</node>
	<node lat="66.3010222219141" lon="13.438833326757976" id="-8857">
		<tag k="name" v="Saltvikhaugen" />
		<tag k="place" v="farm" />
		<tag k="ssr:stedsnr" v="146186" />
	</node>
	<node lat="66.18654888402789" lon="14.750890582166642" id="-8862">
		<tag k="fixme" v="consider tourism=alpine_hut or tourism=chalet" />
		<tag k="name" v="Sauvasshytta" />
		<tag k="old_name" v="Sauvasshytta th" />
		<tag k="ssr:stedsnr" v="258043" />
		<tag k="tourism" v="wilderness_hut" />
	</node>
	<node lat="66.38264722093561" lon="14.105433333746065" id="-8867">
		<tag k="alt_name" v="Stokkvik" />
		<tag k="name" v="Stokkvika" />
		<tag k="place" v="farm" />
		<tag k="ssr:stedsnr" v="258070" />
	</node>
	<node lat="66.42428888749335" lon="14.238561107789065" id="-8868">
		<tag k="name" v="Seteråsen" />
		<tag k="place" v="farm" />
		<tag k="ssr:stedsnr" v="258236" />
	</node>
	<node lat="66.32306388556974" lon="14.45721112093967" id="-8870">
		<tag k="name" v="Snaurasta" />
		<tag k="place" v="isolated_dwelling" />
		<tag k="ssr:stedsnr" v="258339" />
	</node>
	<node lat="66.23007500096635" lon="14.117330544762538" id="-8876">
		<tag k="alt_name" v="Tverråmark" />
		<tag k="name" v="Tverråmarka" />
		<tag k="place" v="farm" />
		<tag k="ssr:stedsnr" v="258695" />
	</node>
	<node lat="66.44810592715628" lon="13.88114106651221" id="-8881">
		<tag k="fixme" v="consider place=hamlet" />
		<tag k="name" v="Litlvatnet" />
		<tag k="place" v="farm" />
		<tag k="ssr:stedsnr" v="258898" />
	</node>
	<node lat="66.28208333732672" lon="13.566827783988762" id="-8883">
		<tag k="name" v="Tømmerneset" />
		<tag k="place" v="farm" />
		<tag k="ssr:stedsnr" v="258961" />
	</node>
	<node lat="66.28244831836788" lon="13.622655991577915" id="-8884">
		<tag k="fixme" v="consider place=hamlet" />
		<tag k="name" v="Storstranda" />
		<tag k="place" v="farm" />
		<tag k="ssr:stedsnr" v="258963" />
	</node>
	<node lat="66.21969166621598" lon="14.571249989817986" id="-8885">
		<tag k="name" v="Sætervollan" />
		<tag k="place" v="locality" />
		<tag k="ssr:stedsnr" v="258832" />
	</node>
	<node lat="66.38614654258427" lon="14.660489908183854" id="-8893">
		<tag k="fixme" v="consider place=hamlet" />
		<tag k="name" v="Stupforsmoen" />
		<tag k="place" v="farm" />
		<tag k="ssr:stedsnr" v="259184" />
	</node>
	<node lat="66.38109444593863" lon="14.327027768298388" id="-8895">
		<tag k="name" v="Solfjellet" />
		<tag k="place" v="isolated_dwelling" />
		<tag k="ssr:stedsnr" v="259188" />
	</node>
	<node lat="66.38415278094779" lon="14.25166667068102" id="-8896">
		<tag k="alt_name" v="Svanhei" />
		<tag k="name" v="Svanheia" />
		<tag k="place" v="isolated_dwelling" />
		<tag k="ssr:stedsnr" v="259189" />
	</node>
	<node lat="66.38364166432521" lon="14.24646944262774" id="-8897">
		<tag k="name" v="Lyng" />
		<tag k="place" v="isolated_dwelling" />
		<tag k="ssr:stedsnr" v="259191" />
	</node>
	<node lat="66.27266388671258" lon="14.117244435380846" id="-8900">
		<tag k="alt_name" v="Skogan, ytre" />
		<tag k="name" v="Ytre Skogan" />
		<tag k="place" v="isolated_dwelling" />
		<tag k="ssr:stedsnr" v="259150" />
	</node>
	<node lat="66.60602499696574" lon="14.965224999303118" id="-8912">
		<tag k="name" v="Tespahytta" />
		<tag k="place" v="isolated_dwelling" />
		<tag k="ssr:stedsnr" v="259548" />
	</node>
	<node lat="66.29913333192893" lon="13.531255564889108" id="-8916">
		<tag k="name" v="Kalåsen" />
		<tag k="place" v="farm" />
		<tag k="ssr:stedsnr" v="259753" />
	</node>
	<node lat="66.3106500020103" lon="13.553316670752436" id="-8917">
		<tag k="name" v="Botnstranda" />
		<tag k="place" v="farm" />
		<tag k="ssr:stedsnr" v="259773" />
	</node>
	<node lat="66.3231000033098" lon="13.4946250054055" id="-8918">
		<tag k="name" v="Bakkan" />
		<tag k="place" v="farm" />
		<tag k="ssr:stedsnr" v="259782" />
	</node>
	<node lat="66.3225916667115" lon="13.513605556822151" id="-8919">
		<tag k="name" v="Fuglstadlia" />
		<tag k="place" v="locality" />
		<tag k="ssr:stedsnr" v="259786" />
	</node>
	<node lat="66.32452777919077" lon="14.346749993668505" id="-8922">
		<tag k="name" v="Sollia" />
		<tag k="place" v="farm" />
		<tag k="ssr:stedsnr" v="164014" />
	</node>
	<node lat="66.44109444735639" lon="14.15800277983937" id="-8927">
		<tag k="name" v="Reingardslia" />
		<tag k="place" v="isolated_dwelling" />
		<tag k="ssr:stedsnr" v="259887" />
	</node>
	<node lat="66.36187222480802" lon="14.32295277190147" id="-8928">
		<tag k="name" v="Myrvang" />
		<tag k="place" v="farm" />
		<tag k="ssr:stedsnr" v="164229" />
	</node>
	<node lat="66.25340058164163" lon="13.67367468756921" id="-8937">
		<tag k="alt_name" v="Brennberget, yt;Ytre Brennberget;Brennberget Indre" />
		<tag k="fixme" v="consider place=hamlet" />
		<tag k="name" v="Indre Brennberget" />
		<tag k="place" v="farm" />
		<tag k="ssr:stedsnr" v="259997" />
	</node>
	<node lat="66.26425277563911" lon="13.974813896483788" id="-8957">
		<tag k="name" v="Gjerdvollen" />
		<tag k="place" v="hamlet" />
		<tag k="ssr:stedsnr" v="165516" />
	</node>
	<node lat="66.25577222093352" lon="13.974658342429704" id="-8958">
		<tag k="name" v="Klubben" />
		<tag k="place" v="farm" />
		<tag k="ssr:stedsnr" v="165521" />
	</node>
	<node lat="66.30966110788694" lon="13.987549994557655" id="-8960">
		<tag k="name" v="Stor-Alteren" />
		<tag k="place" v="farm" />
		<tag k="ssr:stedsnr" v="165584" />
	</node>
	<node lat="66.34560555866975" lon="13.479894445999406" id="-8972">
		<tag k="name" v="Pollen" />
		<tag k="place" v="farm" />
		<tag k="ssr:stedsnr" v="179216" />
	</node>
	<node lat="66.27096666987497" lon="13.539994440915184" id="-9009">
		<tag k="name" v="Dilkestad Ytre" />
		<tag k="place" v="farm" />
		<tag k="ssr:stedsnr" v="179862" />
	</node>
	<node lat="66.27072778171718" lon="13.553908330880843" id="-9010">
		<tag k="name" v="Aspbakken" />
		<tag k="place" v="farm" />
		<tag k="ssr:stedsnr" v="179864" />
	</node>
	<node lat="66.24398332932236" lon="14.122475009717089" id="-9017">
		<tag k="name" v="Kjelddalsenget" />
		<tag k="place" v="farm" />
		<tag k="ssr:stedsnr" v="197702" />
	</node>
	<node lat="66.24647499935045" lon="14.106477775421554" id="-9018">
		<tag k="name" v="Bjerklia" />
		<tag k="place" v="farm" />
		<tag k="ssr:stedsnr" v="197705" />
	</node>
	<node lat="66.24254519915019" lon="14.135156748609406" id="-9020">
		<tag k="name" v="Hølbekkmoen" />
		<tag k="place" v="farm" />
		<tag k="ssr:stedsnr" v="197707" />
	</node>
	<node lat="66.27223651376723" lon="13.994648267906618" id="-9027">
		<tag k="fixme" v="consider place=hamlet" />
		<tag k="name" v="Skjånes" />
		<tag k="place" v="farm" />
		<tag k="ssr:stedsnr" v="198080" />
	</node>
	<node lat="66.40885555895287" lon="14.47738887898426" id="-9029">
		<tag k="name" v="Lysheim" />
		<tag k="place" v="farm" />
		<tag k="ssr:stedsnr" v="198208" />
	</node>
	<node lat="66.35019721955935" lon="14.43794999587853" id="-9031">
		<tag k="name" v="Solberg" />
		<tag k="place" v="farm" />
		<tag k="ssr:stedsnr" v="198219" />
	</node>
	<node lat="66.35310555453455" lon="14.419027772341066" id="-9032">
		<tag k="name" v="Vakkerlia" />
		<tag k="place" v="farm" />
		<tag k="ssr:stedsnr" v="198221" />
	</node>
	<node lat="66.37825839268694" lon="14.579727476060519" id="-9033">
		<tag k="fixme" v="consider place=hamlet" />
		<tag k="name" v="Nordnevernes" />
		<tag k="place" v="farm" />
		<tag k="ssr:stedsnr" v="198261" />
	</node>
	<node lat="66.34119444696508" lon="14.431808340682698" id="-9045">
		<tag k="name" v="Vangen" />
		<tag k="place" v="isolated_dwelling" />
		<tag k="ssr:stedsnr" v="198327" />
	</node>
	<node lat="66.34332701816028" lon="14.441940062293522" id="-9046">
		<tag k="fixme" v="consider place=hamlet" />
		<tag k="name" v="Fagerdalen" />
		<tag k="place" v="farm" />
		<tag k="ssr:stedsnr" v="198328" />
	</node>
	<node lat="66.32236111336685" lon="14.835386102518294" id="-9056">
		<tag k="alt_name" v="Storvolleng" />
		<tag k="name" v="Storvollenget" />
		<tag k="place" v="farm" />
		<tag k="ssr:stedsnr" v="198512" />
	</node>
	<node lat="66.3468466051264" lon="13.44468372954868" id="-9082">
		<tag k="fixme" v="consider place=hamlet" />
		<tag k="name" v="Buvika" />
		<tag k="place" v="farm" />
		<tag k="ssr:stedsnr" v="198871" />
	</node>
	<node lat="66.44060000268938" lon="13.907294447822519" id="-9084">
		<tag k="name" v="Engbakk" />
		<tag k="place" v="farm" />
		<tag k="ssr:stedsnr" v="198877" />
	</node>
	<node lat="66.31938889120069" lon="13.511808326552732" id="-9087">
		<tag k="alt_name" v="Breidvika" />
		<tag k="name" v="Breivik" />
		<tag k="place" v="farm" />
		<tag k="ssr:stedsnr" v="198767" />
	</node>
	<node lat="66.31737726262526" lon="13.296537840953599" id="-9089">
		<tag k="fixme" v="consider place=hamlet" />
		<tag k="name" v="Tortenvika" />
		<tag k="place" v="farm" />
		<tag k="ssr:stedsnr" v="198773" />
	</node>
	<node lat="66.27968055885877" lon="13.559652782592112" id="-9091">
		<tag k="name" v="Nyheim" />
		<tag k="place" v="farm" />
		<tag k="ssr:stedsnr" v="198957" />
	</node>
	<node lat="66.29421944532292" lon="13.656675002286333" id="-9095">
		<tag k="name" v="Bakken" />
		<tag k="place" v="farm" />
		<tag k="ssr:stedsnr" v="267178" />
	</node>
	<node lat="66.28984722441668" lon="14.076055551644043" id="-9098">
		<tag k="name" v="Granheim" />
		<tag k="place" v="farm" />
		<tag k="ssr:stedsnr" v="206622" />
	</node>
	<node lat="66.29111944244221" lon="14.081713884779717" id="-9099">
		<tag k="name" v="Luneng" />
		<tag k="place" v="farm" />
		<tag k="ssr:stedsnr" v="206629" />
	</node>
	<node lat="66.25328648735203" lon="13.99728589151491" id="-9100">
		<tag k="alt_name" v="Ødegården" />
		<tag k="fixme" v="consider place=hamlet" />
		<tag k="name" v="Øygården" />
		<tag k="place" v="farm" />
		<tag k="ssr:stedsnr" v="268766" />
	</node>
	<node lat="66.31330555206873" lon="14.232227787666925" id="-9120">
		<tag k="name" v="Kariåsen" />
		<tag k="place" v="quarter" />
		<tag k="ssr:stedsnr" v="225007" />
	</node>
	<node lat="66.34515833750116" lon="14.118447220518277" id="-9145">
		<tag k="name" v="Spira" />
		<tag k="place" v="farm" />
		<tag k="ssr:stedsnr" v="226299" />
	</node>
	<node lat="66.29232222038107" lon="13.589877768928863" id="-9149">
		<tag k="name" v="Yttervik" />
		<tag k="place" v="farm" />
		<tag k="ssr:stedsnr" v="226683" />
	</node>
	<node lat="66.26339722256175" lon="13.752625006236546" id="-9150">
		<tag k="name" v="Skogset" />
		<tag k="place" v="farm" />
		<tag k="ssr:stedsnr" v="226694" />
	</node>
	<node lat="66.30091110733531" lon="13.513616662026347" id="-9155">
		<tag k="name" v="Refsås" />
		<tag k="place" v="isolated_dwelling" />
		<tag k="ssr:stedsnr" v="449192" />
	</node>
	<node lat="66.34332280894196" lon="14.12701373026659" id="-9156">
		<tag k="fixme" v="consider place=hamlet" />
		<tag k="name" v="Ytteren" />
		<tag k="place" v="farm" />
		<tag k="ssr:stedsnr" v="449466" />
	</node>
	<node lat="66.33439167084043" lon="13.365186115569967" id="-9165">
		<tag k="alt_name" v="Flostrand Ytre" />
		<tag k="name" v="Ytre Flostrand" />
		<tag k="place" v="hamlet" />
		<tag k="ssr:stedsnr" v="240217" />
	</node>
	<node lat="66.33643055740822" lon="13.374747218872933" id="-9172">
		<tag k="alt_name" v="Flostrand Indre" />
		<tag k="name" v="Indre Flostrand" />
		<tag k="place" v="hamlet" />
		<tag k="ssr:stedsnr" v="240181" />
	</node>
	<node lat="66.30195439057373" lon="14.840000200467337" id="-9209">
		<tag k="fixme" v="consider place=hamlet" />
		<tag k="name" v="Østerdal" />
		<tag k="place" v="farm" />
		<tag k="ssr:stedsnr" v="258547" />
	</node>
	<node lat="66.46863333504368" lon="14.850255549979657" id="-9211">
		<tag k="name" v="Andreasplassen" />
		<tag k="place" v="farm" />
		<tag k="ssr:stedsnr" v="258473" />
	</node>
	<node lat="66.2231428755713" lon="14.18975241948752" id="-9219">
		<tag k="name" v="Bjerkmoen" />
		<tag k="place" v="locality" />
		<tag k="ssr:stedsnr" v="258715" />
	</node>
	<node lat="66.30921944276263" lon="14.20455555148323" id="-9224">
		<tag k="fixme" v="consider place=suburb, village or hamlet" />
		<tag k="name" v="Hammern" />
		<tag k="place" v="quarter" />
		<tag k="ssr:stedsnr" v="259312" />
	</node>
	<node lat="66.34006110669186" lon="14.566102781350104" id="-9226">
		<tag k="name" v="Skogheim" />
		<tag k="place" v="isolated_dwelling" />
		<tag k="ssr:stedsnr" v="259354" />
	</node>
	<node lat="66.3813499986072" lon="14.617055550181869" id="-9234">
		<tag k="name" v="Litlengheia" />
		<tag k="place" v="farm" />
		<tag k="ssr:stedsnr" v="259277" />
	</node>
	<node lat="66.528572218952" lon="14.353183337948973" id="-9243">
		<tag k="name" v="Blakkådalen" />
		<tag k="place" v="locality" />
		<tag k="ssr:stedsnr" v="259501" />
	</node>
	<node lat="66.43244722336101" lon="14.053241674338324" id="-9250">
		<tag k="alt_name" v="Østgård" />
		<tag k="name" v="Austergården" />
		<tag k="place" v="farm" />
		<tag k="ssr:stedsnr" v="259920" />
	</node>
	<node lat="66.26266388862561" lon="13.577327784880552" id="-9253">
		<tag k="name" v="Bjerklund" />
		<tag k="place" v="farm" />
		<tag k="ssr:stedsnr" v="259946" />
	</node>
	<node lat="66.29838055531818" lon="13.568105551975048" id="-9259">
		<tag k="name" v="Solheim" />
		<tag k="place" v="farm" />
		<tag k="ssr:stedsnr" v="259823" />
	</node>
	<node lat="66.42156111431825" lon="13.457724990523413" id="-9261">
		<tag k="alt_name" v="Helgåvatnet, øvre" />
		<tag k="name" v="Øvre Helgåvatnet" />
		<tag k="place" v="farm" />
		<tag k="ssr:stedsnr" v="259852" />
	</node>
	<node lat="66.32888611020867" lon="13.968405565638056" id="-9263">
		<tag k="name" v="Vollen" />
		<tag k="place" v="farm" />
		<tag k="ssr:stedsnr" v="264786" />
	</node>
	<node lat="66.31757499639598" lon="14.338277772124329" id="-9286">
		<tag k="name" v="Nyberg" />
		<tag k="place" v="farm" />
		<tag k="ssr:stedsnr" v="286034" />
	</node>
	<node lat="66.41720555497315" lon="14.228108327527929" id="-9291">
		<tag k="name" v="Bjørnå" />
		<tag k="place" v="farm" />
		<tag k="ssr:stedsnr" v="286177" />
	</node>
	<node lat="66.36217504697045" lon="14.331439538548425" id="-9297">
		<tag k="fixme" v="consider place=hamlet" />
		<tag k="name" v="Røssvoll" />
		<tag k="place" v="farm" />
		<tag k="ssr:stedsnr" v="286232" />
	</node>
	<node lat="66.34544166657699" lon="14.168919439616811" id="-9300">
		<tag k="name" v="Rundhågen" />
		<tag k="place" v="isolated_dwelling" />
		<tag k="ssr:stedsnr" v="286514" />
	</node>
	<node lat="66.26184444588358" lon="13.974225005217209" id="-9302">
		<tag k="fixme" v="consider place=suburb, village or hamlet" />
		<tag k="name" v="Nerdal" />
		<tag k="place" v="quarter" />
		<tag k="ssr:stedsnr" v="286542" />
	</node>
	<node lat="66.25680277756851" lon="13.97642221658409" id="-9303">
		<tag k="name" v="Langbakken" />
		<tag k="place" v="farm" />
		<tag k="ssr:stedsnr" v="286552" />
	</node>
	<node lat="66.31209978065549" lon="14.004490458399093" id="-9306">
		<tag k="fixme" v="consider place=hamlet" />
		<tag k="name" v="Stor-Alteren" />
		<tag k="place" v="farm" />
		<tag k="ssr:stedsnr" v="286612" />
	</node>
	<node lat="66.31512777437653" lon="13.540883322619177" id="-9309">
		<tag k="name" v="Mobakken" />
		<tag k="place" v="farm" />
		<tag k="ssr:stedsnr" v="286699" />
	</node>
	<node lat="66.40642777915295" lon="14.718661103588781" id="-9320">
		<tag k="name" v="Svingen" />
		<tag k="place" v="farm" />
		<tag k="ssr:stedsnr" v="286912" />
	</node>
	<node lat="66.49117222434305" lon="14.883266666335016" id="-9330">
		<tag k="historic" v="shieling" />
		<tag k="name" v="Setra" />
		<tag k="place" v="isolated_dwelling" />
		<tag k="ssr:stedsnr" v="464313" />
	</node>
	<node lat="66.3350999987292" lon="13.970005545027611" id="-9359">
		<tag k="name" v="Solheim" />
		<tag k="place" v="farm" />
		<tag k="ssr:stedsnr" v="301738" />
	</node>
	<node lat="66.2689027776515" lon="14.163963897519848" id="-9370">
		<tag k="name" v="Steindal" />
		<tag k="place" v="isolated_dwelling" />
		<tag k="ssr:stedsnr" v="464110" />
	</node>
	<node lat="66.3548916653366" lon="14.348491664266552" id="-9392">
		<tag k="name" v="Bekknes" />
		<tag k="place" v="farm" />
		<tag k="ssr:stedsnr" v="467216" />
	</node>
	<node lat="66.36447777446078" lon="14.349738886962434" id="-9400">
		<tag k="name" v="Nylandet" />
		<tag k="place" v="farm" />
		<tag k="ssr:stedsnr" v="318288" />
	</node>
	<node lat="66.28968092204877" lon="14.09678904985542" id="-9415">
		<tag k="fixme" v="consider place=hamlet" />
		<tag k="name" v="Andfiskåga" />
		<tag k="place" v="farm" />
		<tag k="ssr:stedsnr" v="319090" />
	</node>
	<node lat="66.36253889280263" lon="14.317913893958906" id="-9420">
		<tag k="name" v="Skogmo" />
		<tag k="place" v="farm" />
		<tag k="ssr:stedsnr" v="319287" />
	</node>
	<node lat="66.36958611324509" lon="14.291047213627923" id="-9421">
		<tag k="name" v="Langvassheia" />
		<tag k="place" v="farm" />
		<tag k="ssr:stedsnr" v="319296" />
	</node>
	<node lat="66.31613055341226" lon="14.23713610182824" id="-9422">
		<tag k="alt_name" v="Lunnhei" />
		<tag k="name" v="Lundhei" />
		<tag k="place" v="farm" />
		<tag k="ssr:stedsnr" v="319301" />
	</node>
	<node lat="66.30182778179258" lon="14.226241661591027" id="-9424">
		<tag k="name" v="Skistua" />
		<tag k="place" v="isolated_dwelling" />
		<tag k="ssr:stedsnr" v="319415" />
	</node>
	<node lat="66.30223333336397" lon="13.476283328871991" id="-9427">
		<tag k="name" v="Fridheim" />
		<tag k="place" v="farm" />
		<tag k="ssr:stedsnr" v="467833" />
	</node>
	<node lat="66.31500625061318" lon="14.647949136928062" id="-9430">
		<tag k="alt_name" v="Stillvasstrand" />
		<tag k="fixme" v="consider place=hamlet" />
		<tag k="name" v="Stillvasstranda" />
		<tag k="place" v="farm" />
		<tag k="ssr:stedsnr" v="319310" />
	</node>
	<node lat="66.32798239280447" lon="14.41218970956124" id="-9431">
		<tag k="fixme" v="consider place=hamlet" />
		<tag k="name" v="Gåstjønnlia" />
		<tag k="old_name" v="Gåstjørnlia" />
		<tag k="place" v="farm" />
		<tag k="ssr:stedsnr" v="319316" />
	</node>
	<node lat="66.29751944356605" lon="13.515033333160696" id="-9436">
		<tag k="name" v="Alfheim" />
		<tag k="place" v="farm" />
		<tag k="ssr:stedsnr" v="467881" />
	</node>
	<node lat="66.47554444400738" lon="13.857961104766582" id="-9449">
		<tag k="name" v="Glomåmoen" />
		<tag k="place" v="farm" />
		<tag k="ssr:stedsnr" v="319988" />
	</node>
	<node lat="66.44724923457014" lon="14.290006553724337" id="-9455">
		<tag k="fixme" v="consider place=hamlet" />
		<tag k="name" v="Sakriheia" />
		<tag k="place" v="farm" />
		<tag k="ssr:stedsnr" v="320133" />
	</node>
	<node lat="66.3101777809693" lon="14.26593332943396" id="-9481">
		<tag k="name" v="Utsikten" />
		<tag k="place" v="quarter" />
		<tag k="ssr:stedsnr" v="468390" />
	</node>
	<node lat="66.32357398471888" lon="14.146958003736556" id="-9483">
		<tag k="name" v="Koksverktomta" />
		<tag k="place" v="quarter" />
		<tag k="ssr:stedsnr" v="468397" />
	</node>
	<node lat="66.34021389131324" lon="14.156111120203844" id="-9488">
		<tag k="name" v="Laukstø" />
		<tag k="place" v="quarter" />
		<tag k="ssr:stedsnr" v="468452" />
	</node>
	<node lat="66.24347222268028" lon="14.049122214866426" id="-9492">
		<tag k="name" v="Hattåkeren" />
		<tag k="place" v="farm" />
		<tag k="ssr:stedsnr" v="468533" />
	</node>
	<node lat="66.29400000178192" lon="13.759130558950162" id="-9504">
		<tag k="name" v="Strandlund" />
		<tag k="place" v="farm" />
		<tag k="ssr:stedsnr" v="468756" />
	</node>
	<node lat="66.38120730478772" lon="14.407660597733598" id="-9515">
		<tag k="fixme" v="consider place=hamlet" />
		<tag k="name" v="Svartvassheia" />
		<tag k="place" v="farm" />
		<tag k="ssr:stedsnr" v="468860" />
	</node>
	<node lat="66.30967222163379" lon="14.162630555576467" id="-9518">
		<tag k="name" v="Mo industripark" />
		<tag k="place" v="quarter" />
		<tag k="ssr:stedsnr" v="326369" />
	</node>
	<node lat="66.31682777698482" lon="14.16716387769254" id="-9521">
		<tag k="fixme" v="consider place=suburb, village or hamlet" />
		<tag k="name" v="Langmoheia" />
		<tag k="place" v="quarter" />
		<tag k="ssr:stedsnr" v="328465" />
	</node>
	<node lat="66.44269444760407" lon="14.260786101848588" id="-9570">
		<tag k="name" v="Seterbakk" />
		<tag k="place" v="farm" />
		<tag k="ssr:stedsnr" v="347159" />
	</node>
	<node lat="66.33063888925442" lon="14.100444441584383" id="-9576">
		<tag k="name" v="Båsmobakken" />
		<tag k="place" v="quarter" />
		<tag k="ssr:stedsnr" v="347472" />
	</node>
	<node lat="66.31966388918998" lon="14.362997212138698" id="-9588">
		<tag k="name" v="Storgjerdet" />
		<tag k="place" v="farm" />
		<tag k="ssr:stedsnr" v="347856" />
	</node>
	<node lat="66.31153888782339" lon="13.553947218929576" id="-9591">
		<tag k="name" v="Nyrud" />
		<tag k="place" v="farm" />
		<tag k="ssr:stedsnr" v="347880" />
	</node>
	<node lat="66.11697244511421" lon="14.433770426552767" id="-9600">
		<tag k="fixme" v="consider tourism=alpine_hut or tourism=chalet" />
		<tag k="name" v="Grasfjellkoia" />
		<tag k="ssr:stedsnr" v="356808" />
		<tag k="tourism" v="wilderness_hut" />
	</node>
	<node lat="66.29895555549604" lon="14.101133323352434" id="-9601">
		<tag k="name" v="Esso importanlegg" />
		<tag k="place" v="quarter" />
		<tag k="ssr:stedsnr" v="359805" />
	</node>
	<node lat="66.3703166649427" lon="14.386655557334164" id="-9605">
		<tag k="name" v="Bjørnehiet" />
		<tag k="place" v="isolated_dwelling" />
		<tag k="ssr:stedsnr" v="379307" />
	</node>
	<node lat="66.33225833230712" lon="13.964786101616447" id="-9616">
		<tag k="name" v="Heimermarken" />
		<tag k="place" v="farm" />
		<tag k="ssr:stedsnr" v="380025" />
	</node>
	<node lat="66.4505555597934" lon="14.250799995799353" id="-9619">
		<tag k="name" v="Rabben" />
		<tag k="place" v="farm" />
		<tag k="ssr:stedsnr" v="380126" />
	</node>
	<node lat="66.26209563619003" lon="13.745175548067255" id="-9620">
		<tag k="fixme" v="consider place=hamlet" />
		<tag k="name" v="Straumen" />
		<tag k="place" v="farm" />
		<tag k="ssr:stedsnr" v="380161" />
	</node>
	<node lat="66.26647777639971" lon="13.974672219181468" id="-9621">
		<tag k="alt_name" v="Nordteigan" />
		<tag k="name" v="Nordteigen" />
		<tag k="place" v="farm" />
		<tag k="ssr:stedsnr" v="380165" />
	</node>
	<node lat="66.48643333743989" lon="14.992902785845715" id="-9633">
		<tag k="alt_name" v="Tørrbekkli" />
		<tag k="name" v="Tørrbekklia" />
		<tag k="place" v="farm" />
		<tag k="ssr:stedsnr" v="380512" />
	</node>
	<node lat="66.32068611380674" lon="14.795474998224364" id="-9639">
		<tag k="alt_name" v="Ryeng" />
		<tag k="name" v="Ryenget" />
		<tag k="place" v="farm" />
		<tag k="ssr:stedsnr" v="380565" />
	</node>
	<node lat="66.31205555782142" lon="14.840988882939858" id="-9642">
		<tag k="name" v="Nyheim" />
		<tag k="place" v="farm" />
		<tag k="ssr:stedsnr" v="380571" />
	</node>
	<node lat="66.2908166633724" lon="13.545391667071334" id="-9655">
		<tag k="name" v="Teigen" />
		<tag k="place" v="farm" />
		<tag k="ssr:stedsnr" v="380810" />
	</node>
	<node lat="66.43299999986539" lon="13.945038898521489" id="-9658">
		<tag k="name" v="Fjelleng" />
		<tag k="place" v="farm" />
		<tag k="ssr:stedsnr" v="380909" />
	</node>
	<node lat="66.4322222232715" lon="13.875941657166125" id="-9659">
		<tag k="name" v="Leiråneset" />
		<tag k="place" v="farm" />
		<tag k="ssr:stedsnr" v="380916" />
	</node>
	<node lat="66.4083916677653" lon="14.142961108188828" id="-9673">
		<tag k="name" v="Bjørnådal" />
		<tag k="place" v="farm" />
		<tag k="ssr:stedsnr" v="482869" />
	</node>
	<node lat="66.26422586854693" lon="13.581806411309744" id="-9710">
		<tag k="fixme" v="consider place=hamlet" />
		<tag k="name" v="Brattland" />
		<tag k="place" v="farm" />
		<tag k="ssr:stedsnr" v="483834" />
	</node>
	<node lat="66.26964166844793" lon="14.164361103113615" id="-9715">
		<tag k="name" v="Einhaug" />
		<tag k="place" v="isolated_dwelling" />
		<tag k="ssr:stedsnr" v="403093" />
	</node>
	<node lat="66.43619166868336" lon="14.80614166293005" id="-9723">
		<tag k="name" v="Litl Dunderland" />
		<tag k="place" v="farm" />
		<tag k="ssr:stedsnr" v="403393" />
	</node>
	<node lat="66.28540833459525" lon="14.054105565110868" id="-9742">
		<tag k="amenity" v="school" />
		<tag k="name" v="Hauknes skole" />
		<tag k="ssr:stedsnr" v="406610" />
	</node>
	<node lat="66.33752222349993" lon="14.302666659088436" id="-9746">
		<tag k="name" v="Djuplasti" />
		<tag k="place" v="farm" />
		<tag k="ssr:stedsnr" v="407105" />
	</node>
	<node lat="66.33689722137665" lon="14.276097225960951" id="-9762">
		<tag k="name" v="Bjørnsletta" />
		<tag k="place" v="farm" />
		<tag k="ssr:stedsnr" v="408140" />
	</node>
	<node lat="66.30553888682167" lon="14.349580551258404" id="-9763">
		<tag k="name" v="Løvstad" />
		<tag k="place" v="farm" />
		<tag k="ssr:stedsnr" v="408417" />
	</node>
	<node lat="66.31558333417946" lon="14.19337222893111" id="-9766">
		<tag k="name" v="Vestvikheia" />
		<tag k="place" v="quarter" />
		<tag k="ssr:stedsnr" v="408450" />
	</node>
	<node lat="66.24187222147643" lon="14.0162333349149" id="-9815">
		<tag k="name" v="Litlengmoen" />
		<tag k="place" v="farm" />
		<tag k="ssr:stedsnr" v="440646" />
	</node>
	<node lat="66.34915555786228" lon="14.05841388093055" id="-9824">
		<tag k="name" v="Øyjorden" />
		<tag k="place" v="farm" />
		<tag k="ssr:stedsnr" v="441019" />
	</node>
	<node lat="66.33539722642813" lon="14.10179167652974" id="-9829">
		<tag k="name" v="Båsmoen" />
		<tag k="place" v="suburb" />
		<tag k="ssr:stedsnr" v="441092" />
	</node>
	<node lat="66.42102314033909" lon="14.519227112432077" id="-9833">
		<tag k="fixme" v="consider place=hamlet" />
		<tag k="name" v="Ørtfjellet" />
		<tag k="place" v="farm" />
		<tag k="ssr:stedsnr" v="441206" />
	</node>
	<node lat="66.41761462831099" lon="14.225670232753108" id="-9834">
		<tag k="alt_name" v="Bjørnå" />
		<tag k="fixme" v="consider place=hamlet" />
		<tag k="name" v="Bjørnåga" />
		<tag k="place" v="farm" />
		<tag k="ssr:stedsnr" v="441213" />
	</node>
	<node lat="66.26385278049574" lon="13.97404167151225" id="-9838">
		<tag k="name" v="Nerdal" />
		<tag k="place" v="farm" />
		<tag k="ssr:stedsnr" v="441154" />
	</node>
	<node lat="66.39631944279255" lon="14.66600556016498" id="-9839">
		<tag k="name" v="Davegarden" />
		<tag k="place" v="farm" />
		<tag k="ssr:stedsnr" v="441185" />
	</node>
	<node lat="66.39929431431977" lon="14.694499468509845" id="-9840">
		<tag k="fixme" v="consider place=hamlet" />
		<tag k="name" v="Gullbekkheia" />
		<tag k="place" v="farm" />
		<tag k="ssr:stedsnr" v="441187" />
	</node>
	<node lat="66.38363333607619" lon="14.21945556043639" id="-9841">
		<tag k="name" v="Kvitberget" />
		<tag k="place" v="isolated_dwelling" />
		<tag k="ssr:stedsnr" v="441188" />
	</node>
	<node lat="66.39723333157968" lon="14.667526925020306" id="-9842">
		<tag k="fixme" v="consider place=hamlet" />
		<tag k="name" v="Eiteråga" />
		<tag k="place" v="farm" />
		<tag k="ssr:stedsnr" v="441190" />
	</node>
	<node lat="66.37947318905202" lon="14.390350717702093" id="-9844">
		<tag k="fixme" v="consider place=hamlet" />
		<tag k="name" v="Sandheia" />
		<tag k="place" v="farm" />
		<tag k="ssr:stedsnr" v="441200" />
	</node>
	<node lat="66.38312778224483" lon="14.402872220696281" id="-9845">
		<tag k="name" v="Breilandet" />
		<tag k="place" v="isolated_dwelling" />
		<tag k="ssr:stedsnr" v="441201" />
	</node>
	<node lat="66.32255277949557" lon="14.648697226930622" id="-9849">
		<tag k="name" v="Toftlia" />
		<tag k="place" v="farm" />
		<tag k="ssr:stedsnr" v="441343" />
	</node>
	<node lat="66.33869468424129" lon="14.599863364010247" id="-9850">
		<tag k="alt_name" v="Raurapet" />
		<tag k="fixme" v="consider place=hamlet" />
		<tag k="name" v="Raudrapet" />
		<tag k="place" v="farm" />
		<tag k="ssr:stedsnr" v="441352" />
	</node>
	<node lat="66.34811944462626" lon="14.433908331818374" id="-9851">
		<tag k="name" v="Berg" />
		<tag k="place" v="farm" />
		<tag k="ssr:stedsnr" v="441238" />
	</node>
	<node lat="66.37669879833355" lon="14.406589967703859" id="-9853">
		<tag k="fixme" v="consider place=hamlet" />
		<tag k="name" v="Sætermoen" />
		<tag k="place" v="farm" />
		<tag k="ssr:stedsnr" v="441286" />
	</node>
	<node lat="66.37334722602506" lon="14.241433339714874" id="-9854">
		<tag k="alt_name" v="Hauan" />
		<tag k="name" v="Haugan" />
		<tag k="place" v="farm" />
		<tag k="ssr:stedsnr" v="441299" />
	</node>
	<node lat="66.41389148336668" lon="14.742392408574645" id="-9857">
		<tag k="fixme" v="consider place=hamlet" />
		<tag k="name" v="Almlia" />
		<tag k="place" v="farm" />
		<tag k="ssr:stedsnr" v="441444" />
	</node>
	<node lat="66.47175833077246" lon="15.073047217658598" id="-9859">
		<tag k="name" v="Bekkhus" />
		<tag k="place" v="farm" />
		<tag k="ssr:stedsnr" v="441488" />
	</node>
	<node lat="66.30982777610501" lon="14.805686105787963" id="-9863">
		<tag k="name" v="Rundhaugen" />
		<tag k="place" v="farm" />
		<tag k="ssr:stedsnr" v="441541" />
	</node>
	<node lat="66.3302166703412" lon="13.43478612262136" id="-9869">
		<tag k="name" v="Grønåsen" />
		<tag k="place" v="farm" />
		<tag k="ssr:stedsnr" v="441864" />
	</node>
	<node lat="66.31647679840626" lon="13.522980171283733" id="-9871">
		<tag k="fixme" v="consider place=hamlet" />
		<tag k="name" v="Kvalnes" />
		<tag k="place" v="farm" />
		<tag k="ssr:stedsnr" v="441785" />
	</node>
	<node lat="66.29376110949818" lon="13.917883336422866" id="-9882">
		<tag k="name" v="Bustneslia" />
		<tag k="place" v="farm" />
		<tag k="ssr:stedsnr" v="446785" />
	</node>
	<node lat="66.29358889254486" lon="13.533444445670172" id="-9888">
		<tag k="name" v="Sørengan" />
		<tag k="place" v="farm" />
		<tag k="ssr:stedsnr" v="450175" />
	</node>
	<node lat="66.35608055326746" lon="14.338108328245887" id="-9889">
		<tag k="fixme" v="consider place=hamlet" />
		<tag k="name" v="Skonseng" />
		<tag k="place" v="village" />
		<tag k="ssr:stedsnr" v="451413" />
	</node>
	<node lat="66.34319722123206" lon="14.130647213298506" id="-9914">
		<tag k="name" v="Innergården" />
		<tag k="place" v="farm" />
		<tag k="ssr:stedsnr" v="467285" />
	</node>
	<node lat="66.34652222341761" lon="14.124680555633295" id="-9915">
		<tag k="name" v="Sletta" />
		<tag k="place" v="farm" />
		<tag k="ssr:stedsnr" v="467302" />
	</node>
	<node lat="66.24192222456622" lon="14.016561116022789" id="-9936">
		<tag k="name" v="Forsmo" />
		<tag k="place" v="farm" />
		<tag k="ssr:stedsnr" v="468511" />
	</node>
	<node lat="66.23918333684763" lon="14.04946944185614" id="-9937">
		<tag k="name" v="Sørvang" />
		<tag k="place" v="farm" />
		<tag k="ssr:stedsnr" v="468518" />
	</node>
	<node lat="66.32002222051025" lon="13.473183339414721" id="-9948">
		<tag k="name" v="Heimdal" />
		<tag k="place" v="farm" />
		<tag k="ssr:stedsnr" v="468863" />
	</node>
	<node lat="66.29341388900488" lon="13.570908341420742" id="-9949">
		<tag k="amenity" v="school" />
		<tag k="name" v="Utskarpen skole" />
		<tag k="ssr:stedsnr" v="468871" />
	</node>
	<node lat="66.36120000373133" lon="14.64938611223065" id="-9977">
		<tag k="name" v="Fagervollen" />
		<tag k="place" v="farm" />
		<tag k="ssr:stedsnr" v="483271" />
	</node>
	<node lat="66.45796196765558" lon="14.242841592086297" id="-10005">
		<tag k="fixme" v="consider place=hamlet" />
		<tag k="name" v="Svartisheia" />
		<tag k="place" v="farm" />
		<tag k="ssr:stedsnr" v="501128" />
	</node>
	<node lat="66.32343610722245" lon="14.328827778294814" id="-10008">
		<tag k="name" v="Nergarden" />
		<tag k="place" v="farm" />
		<tag k="ssr:stedsnr" v="501308" />
	</node>
	<node lat="66.32713333398112" lon="14.6488583334473" id="-10009">
		<tag k="name" v="Storsteinhaugen" />
		<tag k="place" v="farm" />
		<tag k="ssr:stedsnr" v="501315" />
	</node>
	<node lat="66.33341957168717" lon="14.392211002901409" id="-10011">
		<tag k="alt_name" v="Fisktjørnlia" />
		<tag k="fixme" v="consider place=hamlet" />
		<tag k="name" v="Fisktjønnlia" />
		<tag k="place" v="farm" />
		<tag k="ssr:stedsnr" v="501320" />
	</node>
	<node lat="66.33146388877633" lon="14.503152784687263" id="-10013">
		<tag k="name" v="Trettlia" />
		<tag k="place" v="isolated_dwelling" />
		<tag k="ssr:stedsnr" v="501327" />
	</node>
	<node lat="66.40667804803859" lon="14.491734030049749" id="-10020">
		<tag k="fixme" v="consider place=hamlet" />
		<tag k="name" v="Kvitingan" />
		<tag k="place" v="farm" />
		<tag k="ssr:stedsnr" v="501223" />
	</node>
	<node lat="66.33829444525963" lon="14.283111111385999" id="-10022">
		<tag k="name" v="Toftheim" />
		<tag k="place" v="farm" />
		<tag k="ssr:stedsnr" v="501241" />
	</node>
	<node lat="66.2998209646612" lon="13.431687866203138" id="-10041">
		<tag k="alt_name" v="Sjonstigen" />
		<tag k="fixme" v="consider place=hamlet" />
		<tag k="name" v="Sjonstien" />
		<tag k="place" v="farm" />
		<tag k="ssr:stedsnr" v="501733" />
	</node>
	<node lat="66.44927222464077" lon="13.892874997332015" id="-10047">
		<tag k="name" v="Granlund" />
		<tag k="place" v="farm" />
		<tag k="ssr:stedsnr" v="501887" />
	</node>
	<node lat="66.3518111110395" lon="13.436055558000254" id="-10050">
		<tag k="alt_name" v="Helgåga, øvre;Øvre Helgå" />
		<tag k="name" v="Øvre Helgåga" />
		<tag k="place" v="farm" />
		<tag k="ssr:stedsnr" v="501794" />
	</node>
	<node lat="66.31744999881296" lon="13.839613893532283" id="-10058">
		<tag k="name" v="Smålia" />
		<tag k="place" v="isolated_dwelling" />
		<tag k="ssr:stedsnr" v="502104" />
	</node>
	<node lat="66.29523333504169" lon="13.814533343576569" id="-10075">
		<tag k="alt_name" v="Forsbakk" />
		<tag k="name" v="Forsbakken" />
		<tag k="place" v="farm" />
		<tag k="ssr:stedsnr" v="683066" />
	</node>
	<node lat="66.28691377032969" lon="13.749896509309055" id="-10077">
		<tag k="fixme" v="consider place=hamlet" />
		<tag k="name" v="Utlandet" />
		<tag k="place" v="farm" />
		<tag k="ssr:stedsnr" v="683072" />
	</node>
	<node lat="66.333111114832" lon="13.361005550085332" id="-10086">
		<tag k="name" v="Nyland" />
		<tag k="place" v="farm" />
		<tag k="ssr:stedsnr" v="511216" />
	</node>
	<node lat="66.33984444361336" lon="14.01228889588875" id="-10091">
		<tag k="fixme" v="multiple name tags, choose one and add the other to alt_name" />
		<tag k="name" v="Strupen;Nordvollen" />
		<tag k="place" v="isolated_dwelling" />
		<tag k="ssr:stedsnr" v="683022" />
	</node>
	<node lat="66.4047749952921" lon="14.52859723131767" id="-10095">
		<tag k="name" v="Storforshei" />
		<tag k="place" v="village" />
		<tag k="ssr:stedsnr" v="683177" />
	</node>
	<node lat="66.39830833519993" lon="14.55260278924384" id="-10096">
		<tag k="name" v="Tortendal" />
		<tag k="place" v="farm" />
		<tag k="ssr:stedsnr" v="683178" />
	</node>
	<node lat="66.3961249954062" lon="14.659941671203375" id="-10097">
		<tag k="name" v="Moen" />
		<tag k="place" v="farm" />
		<tag k="ssr:stedsnr" v="683186" />
	</node>
	<node lat="66.2773888851055" lon="13.75315834265722" id="-10099">
		<tag k="name" v="Førnes" />
		<tag k="old_name" v="Forneset" />
		<tag k="place" v="farm" />
		<tag k="ssr:stedsnr" v="511805" />
	</node>
	<node lat="66.31523211677514" lon="14.7884444157948" id="-10102">
		<tag k="alt_name" v="Bjurbekkmoen" />
		<tag k="fixme" v="consider place=hamlet" />
		<tag k="name" v="Bjorbekkmoen" />
		<tag k="place" v="farm" />
		<tag k="ssr:stedsnr" v="683507" />
	</node>
	<node lat="66.32775291522837" lon="13.443722453113173" id="-10116">
		<tag k="fixme" v="consider place=hamlet" />
		<tag k="name" v="Hauknes" />
		<tag k="place" v="farm" />
		<tag k="ssr:stedsnr" v="683820" />
	</node>
	<node lat="66.44805277614545" lon="14.28906943883083" id="-10128">
		<tag k="name" v="Bergtun" />
		<tag k="place" v="farm" />
		<tag k="ssr:stedsnr" v="684128" />
	</node>
	<node lat="66.43373889184238" lon="14.242202782013116" id="-10130">
		<tag k="name" v="Asphaugen" />
		<tag k="place" v="farm" />
		<tag k="ssr:stedsnr" v="684145" />
	</node>
	<node lat="66.43254166327579" lon="14.252952766925677" id="-10131">
		<tag k="name" v="Stormoen" />
		<tag k="place" v="farm" />
		<tag k="ssr:stedsnr" v="684148" />
	</node>
	<node lat="66.35299444782964" lon="14.346522229122215" id="-10132">
		<tag k="alt_name" v="Leirbekkheia" />
		<tag k="name" v="Leirbakkheia" />
		<tag k="place" v="farm" />
		<tag k="ssr:stedsnr" v="684279" />
	</node>
	<node lat="66.41078610835405" lon="14.726641670893308" id="-10137">
		<tag k="alt_name" v="Almhaug" />
		<tag k="name" v="Almhaugen" />
		<tag k="place" v="farm" />
		<tag k="ssr:stedsnr" v="684440" />
	</node>
	<node lat="66.33718055546483" lon="14.1177611133035" id="-10181">
		<tag k="name" v="Kråkdal" />
		<tag k="place" v="farm" />
		<tag k="ssr:stedsnr" v="529235" />
	</node>
	<node lat="66.25769722611255" lon="13.97346945487081" id="-10197">
		<tag k="name" v="Midtigården" />
		<tag k="place" v="farm" />
		<tag k="ssr:stedsnr" v="529523" />
	</node>
	<node lat="66.24374444682412" lon="14.043480565493782" id="-10199">
		<tag k="name" v="Utistuen" />
		<tag k="place" v="farm" />
		<tag k="ssr:stedsnr" v="529530" />
	</node>
	<node lat="66.24649166261496" lon="13.959638893836546" id="-10219">
		<tag k="fixme" v="consider place=hamlet" />
		<tag k="name" v="Førneset" />
		<tag k="place" v="village" />
		<tag k="ssr:stedsnr" v="543666" />
	</node>
	<node lat="66.3832931797082" lon="14.069056452983508" id="-10239">
		<tag k="alt_name" v="Gullvik" />
		<tag k="fixme" v="consider place=hamlet" />
		<tag k="name" v="Gullvika" />
		<tag k="place" v="farm" />
		<tag k="ssr:stedsnr" v="561067" />
	</node>
	<node lat="66.35440277388446" lon="14.317711115426725" id="-10244">
		<tag k="name" v="Røssvollneset" />
		<tag k="place" v="farm" />
		<tag k="ssr:stedsnr" v="771233" />
	</node>
	<node lat="66.29795833717507" lon="13.42165000472214" id="-10246">
		<tag k="name" v="Hokkarlien" />
		<tag k="place" v="farm" />
		<tag k="ssr:stedsnr" v="693247" />
	</node>
	<node lat="66.32245833572381" lon="14.077044451675528" id="-10248">
		<tag k="name" v="Odden" />
		<tag k="place" v="farm" />
		<tag k="ssr:stedsnr" v="570424" />
	</node>
	<node lat="66.39727222504335" lon="14.254852772174809" id="-10263">
		<tag k="name" v="Skarsletta" />
		<tag k="place" v="farm" />
		<tag k="ssr:stedsnr" v="589207" />
	</node>
	<node lat="66.28697500377505" lon="14.103633323588335" id="-10269">
		<tag k="name" v="Sandbekkheia" />
		<tag k="place" v="farm" />
		<tag k="ssr:stedsnr" v="589320" />
	</node>
	<node lat="66.29166647157798" lon="13.77170884368315" id="-10281">
		<tag k="fixme" v="consider place=hamlet" />
		<tag k="name" v="Midtstraum" />
		<tag k="place" v="farm" />
		<tag k="ssr:stedsnr" v="589763" />
	</node>
	<node lat="66.26216666902789" lon="13.755491671525876" id="-10282">
		<tag k="name" v="Koteng" />
		<tag k="place" v="farm" />
		<tag k="ssr:stedsnr" v="589653" />
	</node>
	<node lat="66.35645000117601" lon="14.36982776942207" id="-10284">
		<tag k="name" v="Kalkenberg" />
		<tag k="place" v="farm" />
		<tag k="ssr:stedsnr" v="589810" />
	</node>
	<node lat="66.31000833142443" lon="13.556713892424616" id="-10293">
		<tag k="name" v="Lynghei" />
		<tag k="place" v="farm" />
		<tag k="ssr:stedsnr" v="589874" />
	</node>
	<node lat="66.36711388730089" lon="13.412294441530202" id="-10302">
		<tag k="name" v="Litlvasskoia" />
		<tag k="place" v="locality" />
		<tag k="ssr:stedsnr" v="603224" />
	</node>
	<node lat="66.36600833398393" lon="14.108083323597544" id="-10304">
		<tag k="name" v="Kjesneset" />
		<tag k="place" v="locality" />
		<tag k="ssr:stedsnr" v="603158" />
	</node>
	<node lat="66.40752222212636" lon="14.15633889555073" id="-10310">
		<tag k="name" v="Granås" />
		<tag k="place" v="farm" />
		<tag k="ssr:stedsnr" v="603861" />
	</node>
	<node lat="66.35746944360925" lon="14.335894436439272" id="-10339">
		<tag k="fixme" v="consider place=hamlet" />
		<tag k="name" v="Skonseng" />
		<tag k="place" v="farm" />
		<tag k="ssr:stedsnr" v="621303" />
	</node>
	<node lat="66.35022732781722" lon="14.013435641995562" id="-10341">
		<tag k="fixme" v="consider place=hamlet" />
		<tag k="name" v="Gråtneset" />
		<tag k="place" v="farm" />
		<tag k="ssr:stedsnr" v="622011" />
	</node>
	<node lat="66.21732499706164" lon="13.97374165997782" id="-10344">
		<tag k="name" v="Pytten" />
		<tag k="place" v="isolated_dwelling" />
		<tag k="ssr:stedsnr" v="621776" />
	</node>
	<node lat="66.31715277594047" lon="14.347005544512227" id="-10351">
		<tag k="name" v="Skog" />
		<tag k="place" v="farm" />
		<tag k="ssr:stedsnr" v="622312" />
	</node>
	<node lat="66.32094722337966" lon="14.37427222055101" id="-10353">
		<tag k="name" v="Lynghaug" />
		<tag k="place" v="farm" />
		<tag k="ssr:stedsnr" v="622324" />
	</node>
	<node lat="66.45310000433548" lon="15.107424991080325" id="-10358">
		<tag k="name" v="Haugen" />
		<tag k="place" v="farm" />
		<tag k="ssr:stedsnr" v="622472" />
	</node>
	<node lat="66.23893791799998" lon="14.055488031748077" id="-10362">
		<tag k="name" v="Fagermoen" />
		<tag k="place" v="farm" />
		<tag k="ssr:stedsnr" v="622661" />
	</node>
	<node lat="66.50031111407131" lon="14.989594441127299" id="-10364">
		<tag k="alt_name" v="Raufjellfors" />
		<tag k="loc_name" v="Raudfjellenget" />
		<tag k="name" v="Raudfjellfors" />
		<tag k="place" v="farm" />
		<tag k="ssr:stedsnr" v="622577" />
	</node>
	<node lat="66.50129818853976" lon="14.8913440522633" id="-10365">
		<tag k="alt_name" v="Stormdalshei" />
		<tag k="fixme" v="consider place=hamlet" />
		<tag k="name" v="Stormdalsheia" />
		<tag k="place" v="farm" />
		<tag k="ssr:stedsnr" v="622578" />
	</node>
	<node lat="66.2900500001631" lon="13.580386113595111" id="-10373">
		<tag k="fixme" v="consider place=hamlet" />
		<tag k="name" v="Utskarpen" />
		<tag k="place" v="village" />
		<tag k="ssr:stedsnr" v="622768" />
	</node>
	<node lat="66.30580159733009" lon="13.933686554897905" id="-10375">
		<tag k="fixme" v="consider place=hamlet" />
		<tag k="name" v="Sletten" />
		<tag k="place" v="farm" />
		<tag k="ssr:stedsnr" v="623081" />
	</node>
	<node lat="66.35993016144883" lon="14.670067907502164" id="-10376">
		<tag k="fixme" v="consider place=hamlet" />
		<tag k="name" v="Silåmoen" />
		<tag k="place" v="farm" />
		<tag k="ssr:stedsnr" v="623267" />
	</node>
	<node lat="66.3231944398802" lon="13.801900008244518" id="-10377">
		<tag k="name" v="Grønlia" />
		<tag k="place" v="isolated_dwelling" />
		<tag k="ssr:stedsnr" v="623123" />
	</node>
	<node lat="66.26442221951089" lon="13.759511111681249" id="-10394">
		<tag k="name" v="Kobbskjærlia" />
		<tag k="place" v="farm" />
		<tag k="ssr:stedsnr" v="631100" />
	</node>
	<node lat="66.28876389169045" lon="14.059252769344495" id="-10443">
		<tag k="name" v="Strand" />
		<tag k="place" v="farm" />
		<tag k="ssr:stedsnr" v="648595" />
	</node>
	<node lat="66.2892722182616" lon="14.092241663596967" id="-10456">
		<tag k="name" v="Hylla" />
		<tag k="place" v="farm" />
		<tag k="ssr:stedsnr" v="649352" />
	</node>
	<node lat="66.3198750008028" lon="14.18716943532314" id="-10473">
		<tag k="name" v="Revelheia" />
		<tag k="place" v="quarter" />
		<tag k="ssr:stedsnr" v="650403" />
	</node>
	<node lat="66.31628332990535" lon="14.20309443482022" id="-10474">
		<tag k="name" v="Grubåsen" />
		<tag k="place" v="quarter" />
		<tag k="ssr:stedsnr" v="650406" />
	</node>
	<node lat="66.32551944212436" lon="14.198624999155136" id="-10476">
		<tag k="name" v="Rabben" />
		<tag k="place" v="farm" />
		<tag k="ssr:stedsnr" v="650413" />
	</node>
	<node lat="66.31967500175881" lon="14.158580560159159" id="-10483">
		<tag k="amenity" v="school" />
		<tag k="name" v="Lyngheim barneskole" />
		<tag k="ssr:stedsnr" v="650391" />
	</node>
	<node lat="66.3046138848164" lon="14.35946110145193" id="-10487">
		<tag k="name" v="Bjørnmo" />
		<tag k="place" v="farm" />
		<tag k="ssr:stedsnr" v="650842" />
	</node>
	<node lat="66.3109972266646" lon="14.165305546891396" id="-10495">
		<tag k="name" v="Mo Industripark" />
		<tag k="old_name" v="A/S Norsk Jernverk" />
		<tag k="place" v="quarter" />
		<tag k="ssr:stedsnr" v="708438" />
	</node>
	<node lat="66.50628610949653" lon="14.92716667666865" id="-10522">
		<tag k="name" v="Einmosletta" />
		<tag k="place" v="farm" />
		<tag k="ssr:stedsnr" v="665414" />
	</node>
	<node lat="66.31633332971944" lon="13.779200001729164" id="-10524">
		<tag k="name" v="Styrmannsheimen" />
		<tag k="place" v="locality" />
		<tag k="ssr:stedsnr" v="665604" />
	</node>
	<node lat="66.28810833161546" lon="14.098394453299528" id="-10549">
		<tag k="name" v="Limoen" />
		<tag k="place" v="farm" />
		<tag k="ssr:stedsnr" v="710347" />
	</node>
	<node lat="66.2464750030479" lon="14.564008326925482" id="-10556">
		<tag k="name" v="Tverrvassgården" />
		<tag k="place" v="farm" />
		<tag k="ssr:stedsnr" v="682860" />
	</node>
	<node lat="66.3571888857569" lon="14.318844438203255" id="-10570">
		<tag k="name" v="Skogly" />
		<tag k="place" v="farm" />
		<tag k="ssr:stedsnr" v="683281" />
	</node>
	<node lat="66.26426666952771" lon="13.733225005095331" id="-10571">
		<tag k="name" v="Kotenget" />
		<tag k="place" v="farm" />
		<tag k="ssr:stedsnr" v="683154" />
	</node>
	<node lat="66.33704722576131" lon="14.54535278491862" id="-10577">
		<tag k="name" v="Skogås" />
		<tag k="place" v="farm" />
		<tag k="ssr:stedsnr" v="683319" />
	</node>
	<node lat="66.33186666608808" lon="14.51149166719817" id="-10578">
		<tag k="name" v="Malmbekken" />
		<tag k="place" v="farm" />
		<tag k="ssr:stedsnr" v="683320" />
	</node>
	<node lat="66.4873305528261" lon="14.991352784933014" id="-10581">
		<tag k="alt_name" v="Steinhaug" />
		<tag k="name" v="Steinhaugen" />
		<tag k="place" v="farm" />
		<tag k="ssr:stedsnr" v="683354" />
	</node>
	<node lat="66.47287221853252" lon="15.04617778572726" id="-10588">
		<tag k="fixme" v="multiple name tags, choose one and add the other to alt_name" />
		<tag k="name" v="Haugen;Fjellstad" />
		<tag k="place" v="farm" />
		<tag k="ssr:stedsnr" v="683453" />
	</node>
	<node lat="66.50228611240736" lon="15.263850010219649" id="-10591">
		<tag k="name" v="Fjellbu" />
		<tag k="place" v="isolated_dwelling" />
		<tag k="ssr:stedsnr" v="683610" />
	</node>
	<node lat="66.22681667096892" lon="13.961950006387566" id="-10593">
		<tag k="name" v="Ågskardet" />
		<tag k="place" v="farm" />
		<tag k="ssr:stedsnr" v="683677" />
	</node>
	<node lat="66.32725833625143" lon="13.3524999953118" id="-10598">
		<tag k="name" v="Labakken" />
		<tag k="place" v="farm" />
		<tag k="ssr:stedsnr" v="683814" />
	</node>
	<node lat="66.48340600509471" lon="13.869995787131604" id="-10605">
		<tag k="fixme" v="consider place=hamlet" />
		<tag k="name" v="Fisktjønna" />
		<tag k="place" v="farm" />
		<tag k="ssr:stedsnr" v="683974" />
	</node>
	<node lat="66.31277777674207" lon="14.142786115980698" id="-10607">
		<tag k="alt_name:no" v="Mo" />
		<tag k="loc_name:sma" v="Mueffie;Måefie" />
		<tag k="name" v="Mo i Rana" />
		<tag k="name:no" v="Mo i Rana" />
		<tag k="place" v="town" />
		<tag k="ssr:stedsnr" v="684116" />
	</node>
	<node lat="66.34549735465906" lon="14.468586867635658" id="-10613">
		<tag k="fixme" v="consider place=hamlet" />
		<tag k="name" v="Lappvadmoen" />
		<tag k="place" v="farm" />
		<tag k="ssr:stedsnr" v="684359" />
	</node>
	<node lat="66.30354444413676" lon="13.556861101132318" id="-10625">
		<tag k="alt_name" v="Nordeng" />
		<tag k="name" v="Nordenga" />
		<tag k="place" v="farm" />
		<tag k="ssr:stedsnr" v="684824" />
	</node>
	<node lat="66.30541166304741" lon="13.571340069534156" id="-10626">
		<tag k="fixme" v="consider place=hamlet" />
		<tag k="name" v="Sjonbotn" />
		<tag k="place" v="farm" />
		<tag k="ssr:stedsnr" v="684825" />
	</node>
	<node lat="66.30542499700165" lon="13.539319433881271" id="-10627">
		<tag k="name" v="Fagermoen" />
		<tag k="place" v="isolated_dwelling" />
		<tag k="ssr:stedsnr" v="684748" />
	</node>
	<node lat="66.40874026386732" lon="14.14094324470254" id="-10631">
		<tag k="fixme" v="consider place=hamlet" />
		<tag k="name" v="Bjørnvassdalen" />
		<tag k="place" v="farm" />
		<tag k="ssr:stedsnr" v="684918" />
	</node>
	<node lat="66.31827777452725" lon="14.222950009865123" id="-10634">
		<tag k="fixme" v="consider place=suburb, village or hamlet" />
		<tag k="name" v="Dammyra" />
		<tag k="place" v="quarter" />
		<tag k="ssr:stedsnr" v="893002" />
	</node>
	<node lat="66.45538055933304" lon="14.24216111827178" id="-10643">
		<tag k="name" v="Sørmoen" />
		<tag k="place" v="farm" />
		<tag k="ssr:stedsnr" v="893153" />
	</node>
	<node lat="66.3182388848536" lon="14.193341662183911" id="-10650">
		<tag k="name" v="Grubheia" />
		<tag k="place" v="quarter" />
		<tag k="ssr:stedsnr" v="893421" />
	</node>
	<node lat="66.32665000265497" lon="14.179569435395452" id="-10651">
		<tag k="amenity" v="school" />
		<tag k="name" v="Selfors skole" />
		<tag k="ssr:stedsnr" v="893424" />
	</node>
	<node lat="66.31966666433281" lon="14.163700001219242" id="-10652">
		<tag k="name" v="Lyngheim" />
		<tag k="place" v="quarter" />
		<tag k="ssr:stedsnr" v="893430" />
	</node>
	<node lat="66.33508055410468" lon="14.16797221424194" id="-10660">
		<tag k="name" v="Selforssjøen" />
		<tag k="place" v="hamlet" />
		<tag k="ssr:stedsnr" v="893485" />
	</node>
	<node lat="66.29547222075382" lon="13.728133336159177" id="-10666">
		<tag k="name" v="Straumbotn" />
		<tag k="place" v="hamlet" />
		<tag k="ssr:stedsnr" v="893755" />
	</node>
	<node lat="66.3053249997067" lon="13.494213893665332" id="-10669">
		<tag k="name" v="Grønmo" />
		<tag k="place" v="farm" />
		<tag k="ssr:stedsnr" v="893820" />
	</node>
	<node lat="66.41162499899654" lon="14.549544440987264" id="-10677">
		<tag k="name" v="Fosshaug" />
		<tag k="place" v="farm" />
		<tag k="ssr:stedsnr" v="893988" />
	</node>
	<node lat="66.30371111237552" lon="13.508855557695245" id="-10679">
		<tag k="name" v="Krokan" />
		<tag k="place" v="isolated_dwelling" />
		<tag k="ssr:stedsnr" v="692171" />
	</node>
	<node lat="66.32106944621826" lon="13.47858889082838" id="-10681">
		<tag k="alt_name" v="Ekren" />
		<tag k="name" v="Ekkeren" />
		<tag k="place" v="farm" />
		<tag k="ssr:stedsnr" v="692195" />
	</node>
	<node lat="66.29124444212869" lon="14.090580563886208" id="-10682">
		<tag k="name" v="Lundenget" />
		<tag k="place" v="farm" />
		<tag k="ssr:stedsnr" v="692805" />
	</node>
	<node lat="66.34964722101654" lon="14.126869440407734" id="-10707">
		<tag k="fixme" v="consider place=suburb, village or hamlet" />
		<tag k="name" v="Yttraheia" />
		<tag k="place" v="quarter" />
		<tag k="ssr:stedsnr" v="710305" />
	</node>
	<node lat="66.30065555908497" lon="13.465102787729009" id="-10714">
		<tag k="name" v="Åsheim" />
		<tag k="place" v="farm" />
		<tag k="ssr:stedsnr" v="710806" />
	</node>
	<node lat="66.34558055204046" lon="14.114958332753051" id="-10719">
		<tag k="name" v="Rønningen" />
		<tag k="place" v="farm" />
		<tag k="ssr:stedsnr" v="711276" />
	</node>
	<node lat="66.29541944139403" lon="13.720633327207189" id="-10730">
		<tag k="name" v="Nymoen" />
		<tag k="place" v="farm" />
		<tag k="ssr:stedsnr" v="711774" />
	</node>
	<node lat="66.29570278050734" lon="13.77982221974317" id="-10731">
		<tag k="name" v="Seljehaug" />
		<tag k="place" v="farm" />
		<tag k="ssr:stedsnr" v="711778" />
	</node>
	<node lat="66.26379668961786" lon="13.526992114639821" id="-10746">
		<tag k="fixme" v="consider place=hamlet" />
		<tag k="name" v="Buvika" />
		<tag k="place" v="farm" />
		<tag k="ssr:stedsnr" v="725210" />
	</node>
	<node lat="66.36147777907979" lon="14.682663889718972" id="-10774">
		<tag k="name" v="Soleng" />
		<tag k="place" v="farm" />
		<tag k="ssr:stedsnr" v="726282" />
	</node>
	<node lat="66.508452773397" lon="14.938152776354153" id="-10780">
		<tag k="name" v="Bjellåli" />
		<tag k="place" v="farm" />
		<tag k="ssr:stedsnr" v="726376" />
	</node>
	<node lat="66.29466111399408" lon="13.748391671963038" id="-10799">
		<tag k="alt_name" v="Engen" />
		<tag k="name" v="Enget" />
		<tag k="place" v="farm" />
		<tag k="ssr:stedsnr" v="744047" />
	</node>
	<node lat="66.3127638895541" lon="14.002397224141665" id="-10805">
		<tag k="alt_name" v="Alteren, store" />
		<tag k="fixme" v="multiple name tags, choose one and add the other to alt_name" />
		<tag k="name" v="Alteren;Store Alteren" />
		<tag k="place" v="farm" />
		<tag k="ssr:stedsnr" v="744088" />
	</node>
	<node lat="66.25269444430786" lon="13.98767500957039" id="-10816">
		<tag k="fixme" v="consider place=hamlet" />
		<tag k="name" v="Stien" />
		<tag k="place" v="farm" />
		<tag k="ssr:stedsnr" v="744142" />
	</node>
	<node lat="66.40394722447323" lon="14.548616674650757" id="-10819">
		<tag k="name" v="Swamp Town" />
		<tag k="place" v="isolated_dwelling" />
		<tag k="ssr:stedsnr" v="744185" />
	</node>
	<node lat="66.35033220779123" lon="14.466024356426502" id="-10821">
		<tag k="fixme" v="consider place=hamlet" />
		<tag k="name" v="Langfjellet" />
		<tag k="place" v="farm" />
		<tag k="ssr:stedsnr" v="744194" />
	</node>
	<node lat="66.32432499601718" lon="14.583519445728257" id="-10822">
		<tag k="name" v="Krystallgrotta" />
		<tag k="place" v="farm" />
		<tag k="ssr:stedsnr" v="744289" />
	</node>
	<node lat="66.33550000822436" lon="14.735698988966547" id="-10828">
		<tag k="name" v="Ytre Fagerjorda" />
		<tag k="place" v="farm" />
		<tag k="ssr:stedsnr" v="744475" />
	</node>
	<node lat="66.33659166595251" lon="14.319466672505603" id="-10831">
		<tag k="alt_name" v="Skugghei" />
		<tag k="name" v="Skuggheia" />
		<tag k="place" v="isolated_dwelling" />
		<tag k="ssr:stedsnr" v="744329" />
	</node>
	<node lat="66.30263333473333" lon="13.522947228035852" id="-10852">
		<tag k="name" v="Skarpåsen" />
		<tag k="place" v="farm" />
		<tag k="ssr:stedsnr" v="744727" />
	</node>
	<node lat="66.2998944485044" lon="13.51432221856521" id="-10853">
		<tag k="name" v="Korsland" />
		<tag k="place" v="isolated_dwelling" />
		<tag k="ssr:stedsnr" v="744729" />
	</node>
	<node lat="66.4130777795326" lon="14.095900000064534" id="-10858">
		<tag k="name" v="Bjørnsrud" />
		<tag k="place" v="isolated_dwelling" />
		<tag k="ssr:stedsnr" v="744907" />
	</node>
	<node lat="66.32979166382852" lon="14.176983338114889" id="-10860">
		<tag k="name" v="Leirfallet" />
		<tag k="place" v="farm" />
		<tag k="ssr:stedsnr" v="751556" />
	</node>
	<node lat="66.33031388430906" lon="14.772605562773553" id="-10863">
		<tag k="name" v="Fisktjønnmoen" />
		<tag k="place" v="farm" />
		<tag k="ssr:stedsnr" v="904838" />
	</node>
	<node lat="66.31738610976922" lon="13.98862499121323" id="-10865">
		<tag k="name" v="Åsen" />
		<tag k="place" v="farm" />
		<tag k="ssr:stedsnr" v="752811" />
	</node>
	<node lat="66.32331944527452" lon="13.334677779488006" id="-10866">
		<tag k="name" v="Vemannåa" />
		<tag k="place" v="farm" />
		<tag k="ssr:stedsnr" v="753163" />
	</node>
	<node lat="66.28886666260567" lon="14.04756387975171" id="-10867">
		<tag k="name" v="Tankanlegg" />
		<tag k="place" v="quarter" />
		<tag k="ssr:stedsnr" v="905786" />
	</node>
	<node lat="66.27990555761416" lon="14.035980553970088" id="-10868">
		<tag k="name" v="Mobil importanlegg" />
		<tag k="place" v="quarter" />
		<tag k="ssr:stedsnr" v="905787" />
	</node>
	<node lat="66.4408305550474" lon="14.821644454489018" id="-10872">
		<tag k="name" v="Hagan" />
		<tag k="place" v="farm" />
		<tag k="ssr:stedsnr" v="767404" />
	</node>
	<node lat="66.34180833330373" lon="14.365086100585843" id="-10884">
		<tag k="name" v="Plurheia" />
		<tag k="place" v="farm" />
		<tag k="ssr:stedsnr" v="767903" />
	</node>
	<node lat="66.28829167032804" lon="14.062708327559307" id="-10896">
		<tag k="name" v="Furuhaugen" />
		<tag k="place" v="quarter" />
		<tag k="ssr:stedsnr" v="770558" />
	</node>
	<node lat="66.30900000147338" lon="14.020774999967111" id="-10908">
		<tag k="name" v="Magnusplassen" />
		<tag k="place" v="farm" />
		<tag k="ssr:stedsnr" v="771610" />
	</node>
	<node lat="66.39564166243572" lon="14.543327776385178" id="-10919">
		<tag k="name" v="Kjelmo" />
		<tag k="place" v="farm" />
		<tag k="ssr:stedsnr" v="771963" />
	</node>
	<node lat="66.34664722400592" lon="14.119774993130152" id="-10924">
		<tag k="name" v="Skårheim" />
		<tag k="place" v="farm" />
		<tag k="ssr:stedsnr" v="772307" />
	</node>
	<node lat="66.294880551785" lon="13.54946666224642" id="-10943">
		<tag k="name" v="Dalosen" />
		<tag k="place" v="farm" />
		<tag k="ssr:stedsnr" v="772879" />
	</node>
	<node lat="66.29570000160903" lon="13.772713899604621" id="-10946">
		<tag k="name" v="Myrset" />
		<tag k="place" v="farm" />
		<tag k="ssr:stedsnr" v="772757" />
	</node>
	<node lat="66.49882499537176" lon="14.958358342672158" id="-10949">
		<tag k="name" v="Innsett" />
		<tag k="place" v="farm" />
		<tag k="ssr:stedsnr" v="908131" />
	</node>
	<node lat="66.38586110893942" lon="14.658299992177048" id="-10960">
		<tag k="name" v="Stupforsmoen" />
		<tag k="place" v="farm" />
		<tag k="ssr:stedsnr" v="908242" />
	</node>
	<node lat="66.23862222287718" lon="13.934238879511426" id="-10983">
		<tag k="name" v="Valheim" />
		<tag k="place" v="farm" />
		<tag k="ssr:stedsnr" v="908719" />
	</node>
	<node lat="66.55900833475815" lon="15.131783323024203" id="-11000">
		<tag k="fixme" v="consider tourism=alpine_hut or tourism=chalet" />
		<tag k="name" v="Raudfjelldalskoia" />
		<tag k="old_name" v="Raufjelldalskoia" />
		<tag k="ssr:stedsnr" v="909745" />
		<tag k="tourism" v="wilderness_hut" />
	</node>
	<node lat="66.34534721789015" lon="13.461747224259414" id="-11016">
		<tag k="name" v="Storåker" />
		<tag k="place" v="farm" />
		<tag k="ssr:stedsnr" v="786215" />
	</node>
	<node lat="66.3576722225589" lon="14.039702782175867" id="-11024">
		<tag k="name" v="Asplenninga" />
		<tag k="place" v="isolated_dwelling" />
		<tag k="ssr:stedsnr" v="786506" />
	</node>
	<node lat="66.35882778178927" lon="14.344005545250058" id="-11041">
		<tag k="name" v="Lappheia" />
		<tag k="place" v="farm" />
		<tag k="ssr:stedsnr" v="804321" />
	</node>
	<node lat="66.29678575840778" lon="13.728498720328377" id="-11047">
		<tag k="alt_name" v="Straumsbotn" />
		<tag k="fixme" v="consider place=hamlet" />
		<tag k="name" v="Straumbotn" />
		<tag k="place" v="farm" />
		<tag k="ssr:stedsnr" v="805062" />
	</node>
	<node lat="66.28839444236809" lon="14.07889444186742" id="-11051">
		<tag k="name" v="Åga" />
		<tag k="place" v="suburb" />
		<tag k="ssr:stedsnr" v="805076" />
	</node>
	<node lat="66.46117429080863" lon="14.311463065296108" id="-11057">
		<tag k="fixme" v="consider place=hamlet" />
		<tag k="name" v="Stor-Røvatnet" />
		<tag k="place" v="farm" />
		<tag k="ssr:stedsnr" v="805117" />
	</node>
	<node lat="66.41807331707065" lon="14.535335879743013" id="-11060">
		<tag k="fixme" v="consider place=hamlet" />
		<tag k="name" v="Tørrbekkmoen" />
		<tag k="place" v="farm" />
		<tag k="ssr:stedsnr" v="805201" />
	</node>
	<node lat="66.33932476898596" lon="14.118534737940308" id="-11063">
		<tag k="alt_name" v="Enge" />
		<tag k="fixme" v="consider place=hamlet" />
		<tag k="name" v="Enget" />
		<tag k="place" v="farm" />
		<tag k="ssr:stedsnr" v="812578" />
	</node>
	<node lat="66.27321111503711" lon="14.012694444797681" id="-11065">
		<tag k="name" v="Kokvika" />
		<tag k="place" v="farm" />
		<tag k="ssr:stedsnr" v="813619" />
	</node>
	<node lat="66.24283823132151" lon="14.043764373899354" id="-11070">
		<tag k="fixme" v="consider place=hamlet" />
		<tag k="name" v="Øverdal" />
		<tag k="place" v="farm" />
		<tag k="ssr:stedsnr" v="815406" />
	</node>
	<node lat="66.34368889288436" lon="14.446694456087654" id="-11080">
		<tag k="name" v="Fageråsen" />
		<tag k="place" v="farm" />
		<tag k="ssr:stedsnr" v="828566" />
	</node>
	<node lat="66.30801944127845" lon="14.290172225485053" id="-11085">
		<tag k="name" v="Brennåsen" />
		<tag k="place" v="farm" />
		<tag k="ssr:stedsnr" v="828767" />
	</node>
	<node lat="66.43524373890934" lon="14.246115764785847" id="-11100">
		<tag k="fixme" v="consider place=hamlet" />
		<tag k="name" v="Asphaugen" />
		<tag k="place" v="farm" />
		<tag k="ssr:stedsnr" v="832196" />
	</node>
	<node lat="66.3432111134795" lon="14.126827780078395" id="-11102">
		<tag k="name" v="Mekalgården" />
		<tag k="place" v="farm" />
		<tag k="ssr:stedsnr" v="832303" />
	</node>
	<node lat="66.33945277867261" lon="14.148183332567145" id="-11110">
		<tag k="name" v="Holmen" />
		<tag k="place" v="quarter" />
		<tag k="ssr:stedsnr" v="832301" />
	</node>
	<node lat="66.25042499785371" lon="14.002347228878596" id="-11138">
		<tag k="name" v="Forsland" />
		<tag k="place" v="farm" />
		<tag k="ssr:stedsnr" v="833533" />
	</node>
	<node lat="66.24559462645118" lon="13.647278582883295" id="-11142">
		<tag k="fixme" v="consider place=hamlet" />
		<tag k="name" v="Tetmoen" />
		<tag k="place" v="farm" />
		<tag k="ssr:stedsnr" v="925128" />
	</node>
	<node lat="66.38816666418005" lon="14.796536107499008" id="-11145">
		<tag k="name" v="Gjeterhytta" />
		<tag k="place" v="locality" />
		<tag k="ssr:stedsnr" v="847109" />
	</node>
	<node lat="66.4076333336983" lon="14.1585277857493" id="-11170">
		<tag k="name" v="Rydland" />
		<tag k="place" v="farm" />
		<tag k="ssr:stedsnr" v="926037" />
	</node>
	<node lat="66.41243610781449" lon="14.29709166063476" id="-11179">
		<tag k="name" v="Heimerenget" />
		<tag k="place" v="isolated_dwelling" />
		<tag k="ssr:stedsnr" v="926234" />
	</node>
	<node lat="66.31863610820264" lon="14.287686100659876" id="-11188">
		<tag k="name" v="Nygårdsvoll" />
		<tag k="place" v="isolated_dwelling" />
		<tag k="ssr:stedsnr" v="926298" />
	</node>
	<node lat="66.24632222478016" lon="14.1140944455163" id="-11201">
		<tag k="alt_name" v="Øverbjerklia" />
		<tag k="name" v="Røyrvollenget" />
		<tag k="place" v="farm" />
		<tag k="ssr:stedsnr" v="926649" />
	</node>
	<node lat="66.29365585742016" lon="13.643273363935261" id="-11203">
		<tag k="fixme" v="consider place=hamlet" />
		<tag k="name" v="Storholmen" />
		<tag k="place" v="farm" />
		<tag k="ssr:stedsnr" v="926788" />
	</node>
	<node lat="66.3450666643817" lon="14.466161121001809" id="-11204">
		<tag k="alt_name" v="Grønnstad" />
		<tag k="name" v="Grønstad" />
		<tag k="place" v="farm" />
		<tag k="ssr:stedsnr" v="927377" />
	</node>
	<node lat="66.34123611029173" lon="14.561358325503098" id="-11205">
		<tag k="alt_name" v="Svarttjørnenget" />
		<tag k="name" v="Svarttjønneng" />
		<tag k="place" v="farm" />
		<tag k="ssr:stedsnr" v="927380" />
	</node>
	<node lat="66.33377222505929" lon="13.44346111360888" id="-11211">
		<tag k="name" v="Hagenes" />
		<tag k="place" v="farm" />
		<tag k="ssr:stedsnr" v="926847" />
	</node>
	<node lat="66.2650999966753" lon="13.581711102126668" id="-11215">
		<tag k="name" v="Brattland" />
		<tag k="place" v="farm" />
		<tag k="ssr:stedsnr" v="926943" />
	</node>
	<node lat="66.45973680550384" lon="13.87475986208198" id="-11219">
		<tag k="fixme" v="consider place=hamlet" />
		<tag k="name" v="Berget" />
		<tag k="place" v="farm" />
		<tag k="ssr:stedsnr" v="926898" />
	</node>
	<node lat="66.42993611529515" lon="14.229924994605506" id="-11223">
		<tag k="alt_name" v="Asphaugmo" />
		<tag k="name" v="Asphaugmoen" />
		<tag k="place" v="farm" />
		<tag k="ssr:stedsnr" v="927151" />
	</node>
	<node lat="66.30691060884769" lon="13.969377112193339" id="-11224">
		<tag k="fixme" v="consider place=hamlet" />
		<tag k="name" v="Alterskjær" />
		<tag k="place" v="farm" />
		<tag k="ssr:stedsnr" v="927075" />
	</node>
	<node lat="66.36211140031128" lon="14.687615850042276" id="-11226">
		<tag k="fixme" v="consider place=hamlet" />
		<tag k="name" v="Kvanndalen" />
		<tag k="place" v="farm" />
		<tag k="ssr:stedsnr" v="927298" />
	</node>
	<node lat="66.31461111083937" lon="15.359705562876727" id="-11233">
		<tag k="name" v="Virvasstua" />
		<tag k="place" v="isolated_dwelling" />
		<tag k="ssr:stedsnr" v="927586" />
	</node>
	<node lat="66.23903333388375" lon="14.315688887549712" id="-11246">
		<tag k="name" v="Gammelkåken" />
		<tag k="place" v="locality" />
		<tag k="ssr:stedsnr" v="889808" />
	</node>
	<node lat="66.31071944236054" lon="14.262691667379553" id="-11253">
		<tag k="name" v="Tofta" />
		<tag k="place" v="hamlet" />
		<tag k="ssr:stedsnr" v="893011" />
	</node>
	<node lat="66.32342222317912" lon="14.340855555650085" id="-11254">
		<tag k="name" v="Knausen" />
		<tag k="place" v="farm" />
		<tag k="ssr:stedsnr" v="893024" />
	</node>
	<node lat="66.30960277475035" lon="14.149866656296124" id="-11261">
		<tag k="amenity" v="school" />
		<tag k="name" v="Kongsveien videregående skole" />
		<tag k="ssr:stedsnr" v="893323" />
	</node>
	<node lat="66.36716388855746" lon="14.351724993013148" id="-11265">
		<tag k="name" v="Osrapet" />
		<tag k="place" v="farm" />
		<tag k="ssr:stedsnr" v="893206" />
	</node>
	<node lat="66.31683333117238" lon="14.167188892240292" id="-11270">
		<tag k="name" v="Låvberget" />
		<tag k="place" v="quarter" />
		<tag k="ssr:stedsnr" v="893283" />
	</node>
	<node lat="66.31127500192211" lon="14.194480566635644" id="-11271">
		<tag k="leisure" v="pitch" />
		<tag k="name" v="Klokkerhagen idrettsplass" />
		<tag k="ssr:stedsnr" v="893410" />
	</node>
	<node lat="66.30188610982523" lon="13.515908343479753" id="-11294">
		<tag k="name" v="Svingen" />
		<tag k="place" v="farm" />
		<tag k="ssr:stedsnr" v="893867" />
	</node>
	<node lat="66.3081222239664" lon="13.56679445314053" id="-11297">
		<tag k="name" v="Sjonbotn" />
		<tag k="place" v="farm" />
		<tag k="ssr:stedsnr" v="893875" />
	</node>
	<node lat="66.30894166726904" lon="14.804580562799718" id="-11311">
		<tag k="fixme" v="consider place=hamlet" />
		<tag k="name" v="Rundhaugen" />
		<tag k="place" v="farm" />
		<tag k="ssr:stedsnr" v="908052" />
	</node>
	<node lat="66.31628610720895" lon="14.633072219929826" id="-11318">
		<tag k="name" v="Stillvasstrand" />
		<tag k="place" v="farm" />
		<tag k="ssr:stedsnr" v="908468" />
	</node>
	<node lat="66.31579999676354" lon="13.831302771047914" id="-11320">
		<tag k="name" v="Storbakkenget" />
		<tag k="place" v="isolated_dwelling" />
		<tag k="ssr:stedsnr" v="908566" />
	</node>
	<node lat="66.36099722157347" lon="14.408427775750532" id="-11334">
		<tag k="name" v="Heggli" />
		<tag k="place" v="farm" />
		<tag k="ssr:stedsnr" v="925311" />
	</node>
	<node lat="66.30227778047835" lon="14.116749994365597" id="-11343">
		<tag k="name" v="Langneset" />
		<tag k="place" v="suburb" />
		<tag k="ssr:stedsnr" v="926069" />
	</node>
	<node lat="66.39591111433894" lon="14.247330559330923" id="-11346">
		<tag k="alt_name" v="Langsett" />
		<tag k="name" v="Langset" />
		<tag k="place" v="farm" />
		<tag k="ssr:stedsnr" v="926205" />
	</node>
	<node lat="66.31636388563918" lon="14.335294443820072" id="-11349">
		<tag k="name" v="Høglia" />
		<tag k="place" v="isolated_dwelling" />
		<tag k="ssr:stedsnr" v="926305" />
	</node>
	<node lat="66.31318055402006" lon="14.590130563055263" id="-11350">
		<tag k="name" v="Lalia" />
		<tag k="place" v="isolated_dwelling" />
		<tag k="ssr:stedsnr" v="926306" />
	</node>
	<node lat="66.32501944575544" lon="14.351738894462107" id="-11351">
		<tag k="name" v="Innerlia" />
		<tag k="place" v="farm" />
		<tag k="ssr:stedsnr" v="926316" />
	</node>
	<node lat="66.32074722550838" lon="14.321658334061333" id="-11352">
		<tag k="name" v="Yttermoen" />
		<tag k="place" v="farm" />
		<tag k="ssr:stedsnr" v="926319" />
	</node>
	<node lat="66.33722500296207" lon="14.361069447939474" id="-11353">
		<tag k="alt_name" v="Einmo" />
		<tag k="name" v="Einmoen" />
		<tag k="place" v="farm" />
		<tag k="ssr:stedsnr" v="926366" />
	</node>
	<node lat="66.46076111426835" lon="14.845061116024276" id="-11364">
		<tag k="alt_name" v="Skremoen" />
		<tag k="name" v="Skredmoen" />
		<tag k="place" v="farm" />
		<tag k="ssr:stedsnr" v="926457" />
	</node>
	<node lat="66.47305555818002" lon="15.055450003318573" id="-11365">
		<tag k="name" v="Solhaug" />
		<tag k="place" v="farm" />
		<tag k="ssr:stedsnr" v="926473" />
	</node>
	<node lat="66.32094307257464" lon="13.481834380922031" id="-11372">
		<tag k="name" v="Fuglstad" />
		<tag k="place" v="hamlet" />
		<tag k="ssr:stedsnr" v="926775" />
	</node>
	<node lat="66.2965611082161" lon="13.716808328109124" id="-11373">
		<tag k="name" v="Straumbotn" />
		<tag k="place" v="farm" />
		<tag k="ssr:stedsnr" v="926781" />
	</node>
	<node lat="66.34717157774193" lon="13.458006837855939" id="-11378">
		<tag k="fixme" v="consider place=hamlet" />
		<tag k="name" v="Nordfjorden" />
		<tag k="place" v="farm" />
		<tag k="ssr:stedsnr" v="926868" />
	</node>
	<node lat="66.34823888795037" lon="14.531036101276264" id="-11383">
		<tag k="name" v="Langfjellsetra" />
		<tag k="place" v="farm" />
		<tag k="ssr:stedsnr" v="927272" />
	</node>
	<node lat="66.35018333717682" lon="14.513805545826258" id="-11384">
		<tag k="name" v="Tomasdalen" />
		<tag k="place" v="isolated_dwelling" />
		<tag k="ssr:stedsnr" v="927273" />
	</node>
	<node lat="66.28854167035769" lon="14.074944454386726" id="-11399">
		<tag k="name" v="Nygård" />
		<tag k="place" v="farm" />
		<tag k="ssr:stedsnr" v="934611" />
	</node>
	<node lat="66.3317750027954" lon="14.165086102103706" id="-11400">
		<tag k="name" v="Elvsbuneset" />
		<tag k="place" v="farm" />
		<tag k="ssr:stedsnr" v="935473" />
	</node>
	<node lat="66.28798982070808" lon="14.049522129128682" id="-11401">
		<tag k="fixme" v="consider place=hamlet" />
		<tag k="name" v="Hauknes" />
		<tag k="place" v="farm" />
		<tag k="ssr:stedsnr" v="935815" />
	</node>
	<node lat="66.27154999774375" lon="14.171002769805517" id="-11403">
		<tag k="name" v="Nylund" />
		<tag k="place" v="isolated_dwelling" />
		<tag k="ssr:stedsnr" v="949082" />
	</node>
	<node lat="66.39696666228484" lon="14.249536109550979" id="-11421">
		<tag k="name" v="Lynghei" />
		<tag k="place" v="farm" />
		<tag k="ssr:stedsnr" v="953198" />
	</node>
</osm>
