<?xml version="1.0" encoding="UTF-8"?>
<osm version="0.6" generator="osmapis">
	<node lat="66.37801666329416" lon="14.577016662296584" id="-17322">
		<tag k="alt_name" v="Nevernes kapell" />
		<tag k="amenity" v="place_of_worship" />
		<tag k="denomination" v="lutheran" />
		<tag k="name" v="Nevernes kirke" />
		<tag k="religion" v="christian" />
		<tag k="ssr:stedsnr" v="198262" />
	</node>
	<node lat="66.52833048238725" lon="14.37603493750925" id="-18322">
		<tag k="name" v="Lapphytta" />
		<tag k="place" v="locality" />
		<tag k="ssr:stedsnr" v="501503" />
	</node>
	<node lat="66.29128889136658" lon="13.433361105381076" id="-18353">
		<tag k="name" v="Stokkhaugen" />
		<tag k="place" v="locality" />
		<tag k="ssr:stedsnr" v="502811" />
	</node>
	<node lat="66.3099416663472" lon="14.144330565112844" id="-18379">
		<tag k="alt_name:no" v="Mo" />
		<tag k="amenity" v="place_of_worship" />
		<tag k="denomination" v="lutheran" />
		<tag k="loc_name:sma" v="Mueffien gærhkoe;Måefien gærhkoe" />
		<tag k="name" v="Mo kirke" />
		<tag k="name:no" v="Mo kirke" />
		<tag k="religion" v="christian" />
		<tag k="ssr:stedsnr" v="511406" />
	</node>
	<node lat="66.5971500033427" lon="14.964444436036612" id="-18910">
		<tag k="name" v="Gila fjellstue" />
		<tag k="place" v="locality" />
		<tag k="ssr:stedsnr" v="684552" />
	</node>
	<node lat="66.55167500124442" lon="15.32082500754904" id="-19363">
		<tag k="name" v="Polarsirkelsenteret" />
		<tag k="ssr:stedsnr" v="816306" />
		<tag k="tourism" v="attraction" />
	</node>
	<node lat="66.2663500019346" lon="14.080677782157911" id="-20652">
		<tag k="name" v="Skjerp" />
		<tag k="place" v="locality" />
		<tag k="ssr:stedsnr" v="179453" />
	</node>
	<node lat="66.50765119264528" lon="14.75751948423925" id="-21627">
		<tag k="alt_name" v="Stormdalen, s" />
		<tag k="name" v="Søre Stormdalen" />
		<tag k="place" v="locality" />
		<tag k="ssr:stedsnr" v="441603" />
	</node>
	<node lat="66.31583055650499" lon="14.194788891705116" id="-21944">
		<tag k="alt_name" v="Gruben" />
		<tag k="amenity" v="place_of_worship" />
		<tag k="denomination" v="lutheran" />
		<tag k="name" v="Gruben kirke" />
		<tag k="religion" v="christian" />
		<tag k="ssr:stedsnr" v="562099" />
	</node>
	<node lat="66.34530000321455" lon="14.128027777660561" id="-22008">
		<tag k="alt_name" v="Yttern kirke" />
		<tag k="amenity" v="place_of_worship" />
		<tag k="denomination" v="lutheran" />
		<tag k="name" v="Ytteren kirke" />
		<tag k="religion" v="christian" />
		<tag k="ssr:stedsnr" v="570445" />
	</node>
	<node lat="66.30197499792123" lon="13.478738885940754" id="-22215">
		<tag k="alt_name" v="Sjona kapell" />
		<tag k="amenity" v="place_of_worship" />
		<tag k="denomination" v="lutheran" />
		<tag k="name" v="Sjona kirke" />
		<tag k="religion" v="christian" />
		<tag k="ssr:stedsnr" v="623776" />
	</node>
	<node lat="66.35861279986091" lon="14.323580744885556" id="-23289">
		<tag k="amenity" v="place_of_worship" />
		<tag k="denomination" v="lutheran" />
		<tag k="name" v="Røssvoll kirke" />
		<tag k="religion" v="christian" />
		<tag k="ssr:stedsnr" v="990305" />
	</node>
</osm>
