<?xml version="1.0" encoding="UTF-8"?>
<osm version="0.6" generator="osmapis">
	<node lat="66.36418888676532" lon="14.30078332935437" id="-6758">
		<tag k="aeroway" v="aerodrome" />
		<tag k="alt_name:no" v="Røssvoll" />
		<tag k="loc_name:sma" v="Mueffien girtiesjåljoe" />
		<tag k="name" v="Mo i Rana lufthavn, Røssvoll" />
		<tag k="name:no" v="Mo i Rana lufthavn, Røssvoll" />
		<tag k="old_name:no" v="Mo i Rana Lufthavn" />
		<tag k="ssr:stedsnr" v="76298" />
	</node>
	<node lat="66.24954722069877" lon="14.070186102364909" id="-7067">
		<tag k="highway" v="path" />
		<tag k="name" v="Kvitlistien" />
		<tag k="ssr:stedsnr" v="165508" />
	</node>
	<node lat="66.3192361110341" lon="14.66562499714125" id="-7221">
		<tag k="highway" v="path" />
		<tag k="name" v="Skarvegen" />
		<tag k="ssr:stedsnr" v="221326" />
	</node>
	<node lat="66.44834444514512" lon="14.022672219179992" id="-7294">
		<tag k="ford" v="yes" />
		<tag k="name" v="Litlengvadet" />
		<tag k="place" v="locality" />
		<tag k="ssr:stedsnr" v="240483" />
	</node>
	<node lat="66.42713611082098" lon="14.484469447079348" id="-7383">
		<tag k="ford" v="yes" />
		<tag k="name" v="Prestvadet" />
		<tag k="place" v="locality" />
		<tag k="ssr:stedsnr" v="282516" />
	</node>
	<node lat="66.32926667034565" lon="14.204394445957538" id="-7411">
		<tag k="highway" v="path" />
		<tag k="name" v="Selforsfjellvegen" />
		<tag k="ssr:stedsnr" v="286456" />
	</node>
	<node lat="66.32399999651004" lon="14.515083336839599" id="-7544">
		<tag k="ford" v="yes" />
		<tag k="name" v="Jordbrua" />
		<tag k="place" v="locality" />
		<tag k="ssr:stedsnr" v="319318" />
	</node>
	<node lat="66.23732777439353" lon="14.170897212446233" id="-7556">
		<tag k="alt_name" v="Almannaveien" />
		<tag k="highway" v="path" />
		<tag k="name" v="Almannavegen" />
		<tag k="ssr:stedsnr" v="319701" />
	</node>
	<node lat="66.36538055878835" lon="14.393572211656402" id="-7881">
		<tag k="highway" v="path" />
		<tag k="name" v="Nordbuvegen" />
		<tag k="ssr:stedsnr" v="408806" />
	</node>
	<node lat="66.3558222257117" lon="14.647386109423078" id="-8091">
		<tag k="ford" v="yes" />
		<tag k="name" v="Merravadet" />
		<tag k="place" v="locality" />
		<tag k="ssr:stedsnr" v="483281" />
	</node>
	<node lat="66.39673610708039" lon="14.131766659769047" id="-8323">
		<tag k="highway" v="path" />
		<tag k="name" v="Kirkevegen" />
		<tag k="ssr:stedsnr" v="543187" />
	</node>
	<node lat="66.48426111183298" lon="13.84289167609735" id="-8328">
		<tag k="highway" v="path" />
		<tag k="name" v="Ner-Reinvegen" />
		<tag k="ssr:stedsnr" v="543605" />
	</node>
	<node lat="66.30165000364985" lon="14.38810278318176" id="-8598">
		<tag k="bridge" v="yes" />
		<tag k="layer" v="1" />
		<tag k="name" v="Sneibrua" />
		<tag k="ssr:stedsnr" v="650837" />
	</node>
	<node lat="66.24367222490415" lon="13.95369167372709" id="-9092">
		<tag k="highway" v="path" />
		<tag k="name" v="Vikenstien" />
		<tag k="ssr:stedsnr" v="908712" />
	</node>
	<node lat="66.3843722264015" lon="14.045680561801865" id="-9140">
		<tag k="highway" v="path" />
		<tag k="name" v="Bjynnstien" />
		<tag k="ssr:stedsnr" v="786497" />
	</node>
	<node lat="66.30062777540296" lon="14.136286106907496" id="-9161">
		<tag k="alt_name" v="Finnsetveien" />
		<tag k="highway" v="path" />
		<tag k="name" v="Finnsetvegen" />
		<tag k="ssr:stedsnr" v="805069" />
	</node>
	<node lat="66.41015277519112" lon="14.487072223522082" id="-9232">
		<tag k="highway" v="path" />
		<tag k="name" v="Kalkovnvegen" />
		<tag k="ssr:stedsnr" v="832800" />
	</node>
	<node lat="66.32507499848772" lon="14.14149443856581" id="-9360">
		<tag k="man_made" v="quay" />
		<tag k="name" v="Bulkterminal" />
		<tag k="place" v="locality" />
		<tag k="ssr:stedsnr" v="891770" />
	</node>
	<node lat="66.3695888870393" lon="14.586661115674369" id="-9552">
		<tag k="highway" v="path" />
		<tag k="name" v="Gammelvegen" />
		<tag k="ssr:stedsnr" v="953941" />
	</node>
	<node lat="66.31675833456599" lon="14.126122226439955" id="-9565">
		<tag k="man_made" v="quay" />
		<tag k="name" v="Toraneskaia" />
		<tag k="place" v="locality" />
		<tag k="ssr:stedsnr" v="954455" />
	</node>
	<node lat="66.33470833599553" lon="14.178738893584502" id="-9967">
		<tag k="highway" v="path" />
		<tag k="name" v="Storstien" />
		<tag k="ssr:stedsnr" v="104480" />
	</node>
	<node lat="66.40805277725549" lon="14.487233342143357" id="-10450">
		<tag k="highway" v="path" />
		<tag k="name" v="Holtvegen" />
		<tag k="ssr:stedsnr" v="225807" />
	</node>
	<node lat="66.33792222475202" lon="14.327261103899605" id="-10521">
		<tag k="ford" v="yes" />
		<tag k="name" v="Ol-Hansavadet" />
		<tag k="place" v="locality" />
		<tag k="ssr:stedsnr" v="286100" />
	</node>
	<node lat="66.27651666449597" lon="14.12119444774699" id="-10535">
		<tag k="ford" v="yes" />
		<tag k="name" v="Hesjelivadet" />
		<tag k="place" v="locality" />
		<tag k="ssr:stedsnr" v="286308" />
	</node>
	<node lat="66.31561110854503" lon="14.004458327740583" id="-10547">
		<tag k="highway" v="path" />
		<tag k="name" v="Hestvegen" />
		<tag k="ssr:stedsnr" v="286362" />
	</node>
	<node lat="66.2900583345909" lon="13.742247218360157" id="-10574">
		<tag k="highway" v="path" />
		<tag k="name" v="Geitvegen" />
		<tag k="ssr:stedsnr" v="286765" />
	</node>
	<node lat="66.44657777851445" lon="15.099750009643705" id="-10768">
		<tag k="highway" v="path" />
		<tag k="name" v="Brattbuvegen" />
		<tag k="ssr:stedsnr" v="342920" />
	</node>
	<node lat="66.21086388937205" lon="13.917699994391262" id="-10886">
		<tag k="ford" v="yes" />
		<tag k="name" v="Jordbrua" />
		<tag k="place" v="locality" />
		<tag k="ssr:stedsnr" v="361465" />
	</node>
</osm>
