<?xml version="1.0" encoding="UTF-8"?>
<osm version="0.6" generator="osmapis">
	<node lat="66.24123889267855" lon="13.619402769323495" id="-6531">
		<tag k="name" v="Storsteinodden" />
		<tag k="natural" v="cape" />
		<tag k="ssr:stedsnr" v="15116" />
	</node>
	<node lat="66.24879444240447" lon="13.337841660502693" id="-6532">
		<tag k="name" v="Nordvika" />
		<tag k="natural" v="bay" />
		<tag k="ssr:stedsnr" v="15124" />
	</node>
	<node lat="66.27285555424899" lon="13.746358328369817" id="-6544">
		<tag k="name" v="Auran" />
		<tag k="natural" v="strait" />
		<tag k="ssr:stedsnr" v="16066" />
	</node>
	<node lat="66.33855277613054" lon="13.423994446777709" id="-6580">
		<tag k="bay" v="fjord" />
		<tag k="name" v="Nordsjona" />
		<tag k="natural" v="bay" />
		<tag k="ssr:stedsnr" v="16861" />
	</node>
	<node lat="66.33524722259794" lon="14.140155556793921" id="-6587">
		<tag k="name" v="Mjølaodden" />
		<tag k="natural" v="cape" />
		<tag k="ssr:stedsnr" v="24445" />
	</node>
	<node lat="66.26243611552009" lon="13.73467221694078" id="-6589">
		<tag k="alt_name" v="Nerstrømmen" />
		<tag k="name" v="Nerstraumen" />
		<tag k="natural" v="strait" />
		<tag k="ssr:stedsnr" v="25094" />
	</node>
	<node lat="66.25555277957392" lon="13.971491674711832" id="-6638">
		<tag k="name" v="Badstuvika" />
		<tag k="natural" v="bay" />
		<tag k="ssr:stedsnr" v="43525" />
	</node>
	<node lat="66.31517500344331" lon="14.125261106647393" id="-6774">
		<tag k="name" v="Toraneset" />
		<tag k="natural" v="cape" />
		<tag k="ssr:stedsnr" v="77120" />
	</node>
	<node lat="66.33878332997243" lon="14.150172228863191" id="-6813">
		<tag k="name" v="Yttrastrendern" />
		<tag k="natural" v="beach" />
		<tag k="ssr:stedsnr" v="85663" />
	</node>
	<node lat="66.28514166410515" lon="14.042905548639201" id="-6814">
		<tag k="name" v="Skjåvika" />
		<tag k="natural" v="bay" />
		<tag k="ssr:stedsnr" v="85580" />
	</node>
	<node lat="66.33916389297268" lon="14.123636118815632" id="-6852">
		<tag k="name" v="Engasjyen" />
		<tag k="natural" v="bay" />
		<tag k="ssr:stedsnr" v="104288" />
	</node>
	<node lat="66.27158888891624" lon="13.736752773741907" id="-6934">
		<tag k="name" v="Sveet" />
		<tag k="natural" v="strait" />
		<tag k="ssr:stedsnr" v="137131" />
	</node>
	<node lat="66.31487222426608" lon="14.048613888186294" id="-7046">
		<tag k="name" v="Almlivika" />
		<tag k="natural" v="bay" />
		<tag k="ssr:stedsnr" v="164419" />
	</node>
	<node lat="66.34432222445946" lon="13.445299995578512" id="-7088">
		<tag k="name" v="Sundet" />
		<tag k="natural" v="strait" />
		<tag k="ssr:stedsnr" v="179233" />
	</node>
	<node lat="66.30561944344474" lon="13.365122233016534" id="-7197">
		<tag k="name" v="Yttergrunnen" />
		<tag k="natural" v="shoal" />
		<tag k="place" v="locality" />
		<tag k="ssr:stedsnr" v="198755" />
	</node>
	<node lat="66.25756389098588" lon="13.724244447760563" id="-7250">
		<tag k="name" v="Yttervika" />
		<tag k="natural" v="bay" />
		<tag k="ssr:stedsnr" v="225734" />
	</node>
	<node lat="66.23627222409728" lon="13.90969445140428" id="-7303">
		<tag k="name" v="Nesodden" />
		<tag k="natural" v="cape" />
		<tag k="ssr:stedsnr" v="240918" />
	</node>
	<node lat="66.27980277344189" lon="14.035044444080967" id="-7377">
		<tag k="name" v="Bjørnbærvikodden" />
		<tag k="natural" v="cape" />
		<tag k="ssr:stedsnr" v="267615" />
	</node>
	<node lat="66.24206111009029" lon="13.371969436883775" id="-7378">
		<tag k="name" v="Tonesodden" />
		<tag k="natural" v="cape" />
		<tag k="ssr:stedsnr" v="268009" />
	</node>
	<node lat="66.2418555567988" lon="13.631211106499837" id="-7396">
		<tag k="name" v="Innerbakkodden" />
		<tag k="natural" v="cape" />
		<tag k="ssr:stedsnr" v="285394" />
	</node>
	<node lat="66.30245555168526" lon="13.409419435851673" id="-7523">
		<tag k="name" v="Hånagneset" />
		<tag k="natural" v="cape" />
		<tag k="ssr:stedsnr" v="467797" />
	</node>
	<node lat="66.24525555547551" lon="13.653258342771608" id="-7606">
		<tag k="name" v="Fevika" />
		<tag k="natural" v="bay" />
		<tag k="ssr:stedsnr" v="468550" />
	</node>
	<node lat="66.26896111285777" lon="13.781902778136448" id="-7609">
		<tag k="name" v="Eidbergodden" />
		<tag k="natural" v="cape" />
		<tag k="ssr:stedsnr" v="468651" />
	</node>
	<node lat="66.31018888766712" lon="14.118024999338342" id="-7634">
		<tag k="name" v="Movika" />
		<tag k="natural" v="bay" />
		<tag k="ssr:stedsnr" v="328809" />
	</node>
	<node lat="66.34515555981675" lon="13.481708339124966" id="-7778">
		<tag k="name" v="Labukta" />
		<tag k="natural" v="bay" />
		<tag k="ssr:stedsnr" v="482187" />
	</node>
	<node lat="66.34604722470115" lon="13.441016661205802" id="-7779">
		<tag k="name" v="Buvikodden" />
		<tag k="natural" v="cape" />
		<tag k="ssr:stedsnr" v="482197" />
	</node>
	<node lat="66.28845833041437" lon="13.56528332486762" id="-7781">
		<tag k="name" v="Limskjærneset" />
		<tag k="natural" v="cape" />
		<tag k="ssr:stedsnr" v="482844" />
	</node>
	<node lat="66.32863055603825" lon="14.09974166688953" id="-7798">
		<tag k="name" v="Steinneset" />
		<tag k="natural" v="cape" />
		<tag k="ssr:stedsnr" v="388793" />
	</node>
	<node lat="66.24654444784782" lon="13.462341660841817" id="-7799">
		<tag k="name" v="Græsnesodden" />
		<tag k="natural" v="cape" />
		<tag k="ssr:stedsnr" v="389007" />
	</node>
	<node lat="66.28019444435095" lon="13.755005558079148" id="-7886">
		<tag k="name" v="Førnesbukta" />
		<tag k="natural" v="bay" />
		<tag k="ssr:stedsnr" v="408742" />
	</node>
	<node lat="66.34799166733384" lon="13.43533333237991" id="-7894">
		<tag k="name" v="Helgåbukta" />
		<tag k="natural" v="bay" />
		<tag k="ssr:stedsnr" v="422209" />
	</node>
	<node lat="66.33318055264303" lon="14.15009722170897" id="-7943">
		<tag k="name" v="Mjølan" />
		<tag k="natural" v="cape" />
		<tag k="ssr:stedsnr" v="441100" />
	</node>
	<node lat="66.3081083338711" lon="13.507166675064191" id="-7996">
		<tag k="fixme" v="consider seamark:type=rock or natural=shoal" />
		<tag k="name" v="Sjønningsteinen" />
		<tag k="place" v="islet" />
		<tag k="ssr:stedsnr" v="449190" />
	</node>
	<node lat="66.29119166235695" lon="13.771211120789763" id="-8127">
		<tag k="name" v="Medstraumen" />
		<tag k="natural" v="cape" />
		<tag k="ssr:stedsnr" v="501078" />
	</node>
	<node lat="66.28847500082915" lon="14.046375011103462" id="-8129">
		<tag k="alt_name" v="Hauknes" />
		<tag k="name" v="Haukneset" />
		<tag k="natural" v="cape" />
		<tag k="ssr:stedsnr" v="501087" />
	</node>
	<node lat="66.32839444709184" lon="13.428150002983957" id="-8155">
		<tag k="name" v="Nordodden" />
		<tag k="natural" v="cape" />
		<tag k="ssr:stedsnr" v="501817" />
	</node>
	<node lat="66.29295555641792" lon="13.73659445487483" id="-8186">
		<tag k="name" v="Straumbotnet" />
		<tag k="natural" v="bay" />
		<tag k="ssr:stedsnr" v="683062" />
	</node>
	<node lat="66.34332777958788" lon="13.479138888151402" id="-8232">
		<tag k="name" v="Pollen" />
		<tag k="natural" v="bay" />
		<tag k="ssr:stedsnr" v="683838" />
	</node>
	<node lat="66.26618888525836" lon="13.536774999973268" id="-8237">
		<tag k="name" v="Purkneset" />
		<tag k="natural" v="cape" />
		<tag k="ssr:stedsnr" v="683942" />
	</node>
	<node lat="66.27286666414899" lon="13.983561114709884" id="-8271">
		<tag k="name" v="Lille Sjåneset" />
		<tag k="natural" v="cape" />
		<tag k="ssr:stedsnr" v="527582" />
	</node>
	<node lat="66.25388611401718" lon="13.971130554679597" id="-8310">
		<tag k="name" v="Kvefsneset" />
		<tag k="natural" v="cape" />
		<tag k="ssr:stedsnr" v="529525" />
	</node>
	<node lat="66.31569721961559" lon="13.297983323960096" id="-8320">
		<tag k="name" v="Tortenvika" />
		<tag k="natural" v="bay" />
		<tag k="ssr:stedsnr" v="543224" />
	</node>
	<node lat="66.30669999544952" lon="14.01628889484471" id="-8362">
		<tag k="name" v="Korsneset" />
		<tag k="natural" v="cape" />
		<tag k="ssr:stedsnr" v="570506" />
	</node>
	<node lat="66.31072222589827" lon="13.526063880474135" id="-8363">
		<tag k="name" v="Botnet" />
		<tag k="natural" v="bay" />
		<tag k="ssr:stedsnr" v="571202" />
	</node>
	<node lat="66.30944999759895" lon="13.991933342397772" id="-8388">
		<tag k="name" v="Steinsvika" />
		<tag k="natural" v="bay" />
		<tag k="ssr:stedsnr" v="589573" />
	</node>
	<node lat="66.34759444680839" lon="13.428944449840897" id="-8415">
		<tag k="name" v="Langstrandbukta" />
		<tag k="natural" v="bay" />
		<tag k="ssr:stedsnr" v="603153" />
	</node>
	<node lat="66.23953610925338" lon="13.93273055065038" id="-8445">
		<tag k="name" v="Valen" />
		<tag k="natural" v="strait" />
		<tag k="ssr:stedsnr" v="604713" />
	</node>
	<node lat="66.25686388658701" lon="13.732411119783293" id="-8461">
		<tag k="name" v="Straumsnes" />
		<tag k="natural" v="cape" />
		<tag k="ssr:stedsnr" v="622166" />
	</node>
	<node lat="66.32456666974701" lon="13.441922231498339" id="-8483">
		<tag k="name" v="Storvika" />
		<tag k="natural" v="bay" />
		<tag k="ssr:stedsnr" v="622825" />
	</node>
	<node lat="66.31957222629566" lon="13.504791658884391" id="-8507">
		<tag k="name" v="Breivika" />
		<tag k="natural" v="bay" />
		<tag k="ssr:stedsnr" v="631198" />
	</node>
	<node lat="66.30245555860128" lon="14.109741673310864" id="-8509">
		<tag k="name" v="Langnesbukta" />
		<tag k="natural" v="bay" />
		<tag k="ssr:stedsnr" v="631486" />
	</node>
	<node lat="66.33978055304753" lon="14.130177778464013" id="-8564">
		<tag k="name" v="Grønnauren" />
		<tag k="natural" v="beach" />
		<tag k="ssr:stedsnr" v="649290" />
	</node>
	<node lat="66.25443889045873" lon="13.704847226087981" id="-8648">
		<tag k="alt_name" v="Hammerstøa" />
		<tag k="name" v="Hammarstøa" />
		<tag k="natural" v="bay" />
		<tag k="ssr:stedsnr" v="665945" />
	</node>
	<node lat="66.27820833599935" lon="13.757686118417624" id="-8667">
		<tag k="name" v="Forneset" />
		<tag k="natural" v="cape" />
		<tag k="ssr:stedsnr" v="682666" />
	</node>
	<node lat="66.30354722648454" lon="13.400380555409795" id="-8707">
		<tag k="name" v="Buktodden" />
		<tag k="natural" v="cape" />
		<tag k="ssr:stedsnr" v="683741" />
	</node>
	<node lat="66.26494721777146" lon="13.731536119264161" id="-8775">
		<tag k="name" v="Hestneset" />
		<tag k="natural" v="cape" />
		<tag k="ssr:stedsnr" v="893651" />
	</node>
	<node lat="66.28540833681407" lon="13.569355545335215" id="-8792">
		<tag k="name" v="Dalosneset" />
		<tag k="natural" v="cape" />
		<tag k="ssr:stedsnr" v="692192" />
	</node>
	<node lat="66.2495749989442" lon="13.59052777042963" id="-8872">
		<tag k="name" v="Brennbergbukta" />
		<tag k="natural" v="bay" />
		<tag k="ssr:stedsnr" v="725770" />
	</node>
	<node lat="66.2821916707846" lon="13.761274996876923" id="-8912">
		<tag k="bay" v="fjord" />
		<tag k="name" v="Øverstraumen" />
		<tag k="natural" v="bay" />
		<tag k="ssr:stedsnr" v="744053" />
	</node>
	<node lat="66.3017027756136" lon="13.433280552426021" id="-8966">
		<tag k="name" v="Saltvika" />
		<tag k="natural" v="bay" />
		<tag k="ssr:stedsnr" v="744733" />
	</node>
	<node lat="66.33920000410254" lon="14.136802787833362" id="-8973">
		<tag k="name" v="Yttrasjøen" />
		<tag k="natural" v="strait" />
		<tag k="ssr:stedsnr" v="751564" />
	</node>
	<node lat="66.30223889221531" lon="13.436944451523477" id="-9024">
		<tag k="name" v="Saltvikodden" />
		<tag k="natural" v="cape" />
		<tag k="ssr:stedsnr" v="771825" />
	</node>
	<node lat="66.32027222195444" lon="13.490294433436146" id="-9032">
		<tag k="name" v="Skutvika" />
		<tag k="natural" v="bay" />
		<tag k="ssr:stedsnr" v="771855" />
	</node>
	<node lat="66.33806666818035" lon="13.40975277122961" id="-9119">
		<tag k="name" v="Liksandskjæret" />
		<tag k="natural" v="cape" />
		<tag k="ssr:stedsnr" v="786163" />
	</node>
	<node lat="66.30565000132661" lon="14.013508341253331" id="-9176">
		<tag k="fixme" v="consider seamark:type=rock or natural=shoal" />
		<tag k="name" v="Storskjæret" />
		<tag k="place" v="islet" />
		<tag k="ssr:stedsnr" v="813536" />
	</node>
	<node lat="66.27460833353398" lon="14.019747213864985" id="-9178">
		<tag k="alt_name" v="Sjånesbukta" />
		<tag k="name" v="Skjånesbukta" />
		<tag k="natural" v="bay" />
		<tag k="ssr:stedsnr" v="813623" />
	</node>
	<node lat="66.28486944423048" lon="13.912516660090485" id="-9179">
		<tag k="name" v="Kvitsteinvika" />
		<tag k="natural" v="bay" />
		<tag k="ssr:stedsnr" v="814133" />
	</node>
	<node lat="66.27247500409072" lon="13.88306945088432" id="-9293">
		<tag k="name" v="Førnesodden" />
		<tag k="natural" v="cape" />
		<tag k="ssr:stedsnr" v="926170" />
	</node>
	<node lat="66.32566666460075" lon="13.347961117416892" id="-9324">
		<tag k="name" v="Bjørnneset" />
		<tag k="natural" v="cape" />
		<tag k="ssr:stedsnr" v="926849" />
	</node>
	<node lat="66.27178333098587" lon="13.570808326202249" id="-9325">
		<tag k="bay" v="fjord" />
		<tag k="name" v="Utskarpen" />
		<tag k="natural" v="bay" />
		<tag k="ssr:stedsnr" v="926936" />
	</node>
	<node lat="66.26032222450213" lon="13.570558329676173" id="-9333">
		<tag k="alt_name" v="Brattlandsskjeran;Brattlandskjæret" />
		<tag k="fixme" v="consider seamark:type=rock or natural=shoal" />
		<tag k="name" v="Brattlandsskjæran" />
		<tag k="place" v="islet" />
		<tag k="ssr:stedsnr" v="926988" />
	</node>
	<node lat="66.3339722198816" lon="14.11885277630723" id="-9378">
		<tag k="name" v="Grindvika" />
		<tag k="natural" v="bay" />
		<tag k="ssr:stedsnr" v="893266" />
	</node>
	<node lat="66.28853333633378" lon="13.613077780013606" id="-9393">
		<tag k="name" v="Lørdagsvika" />
		<tag k="natural" v="bay" />
		<tag k="ssr:stedsnr" v="893625" />
	</node>
	<node lat="66.30818611118897" lon="14.02682777870375" id="-9456">
		<tag k="alt_name" v="Alternes" />
		<tag k="name" v="Alterneset" />
		<tag k="natural" v="cape" />
		<tag k="ssr:stedsnr" v="926070" />
	</node>
	<node lat="66.1355972232911" lon="12.842216661912873" id="-9487">
		<tag k="bay" v="fjord" />
		<tag k="name" v="Ranfjorden" />
		<tag k="natural" v="bay" />
		<tag k="ssr:stedsnr" v="926804" />
	</node>
	<node lat="66.34280833174998" lon="13.451894437400217" id="-9489">
		<tag k="name" v="Nordfjorden" />
		<tag k="natural" v="bay" />
		<tag k="ssr:stedsnr" v="926867" />
	</node>
	<node lat="66.34037499678196" lon="14.123774990655345" id="-9510">
		<tag k="name" v="Engeneset" />
		<tag k="natural" v="cape" />
		<tag k="ssr:stedsnr" v="934485" />
	</node>
	<node lat="66.28726389142933" lon="13.75671389142191" id="-9578">
		<tag k="name" v="Tjeldneset" />
		<tag k="natural" v="cape" />
		<tag k="ssr:stedsnr" v="954747" />
	</node>
	<node lat="66.32319444086652" lon="13.337411108060552" id="-9589">
		<tag k="name" v="Vemannågneset" />
		<tag k="natural" v="cape" />
		<tag k="ssr:stedsnr" v="968212" />
	</node>
	<node lat="66.28910555158143" lon="13.564780551118204" id="-9668">
		<tag k="name" v="Dalosleira" />
		<tag k="natural" v="bay" />
		<tag k="ssr:stedsnr" v="16780" />
	</node>
	<node lat="66.34217500381246" lon="13.45953055941494" id="-9673">
		<tag k="alt_name" v="Førneset" />
		<tag k="name" v="Forneset" />
		<tag k="natural" v="cape" />
		<tag k="ssr:stedsnr" v="16848" />
	</node>
	<node lat="66.3395999961517" lon="14.141855552641893" id="-9674">
		<tag k="name" v="Holmen" />
		<tag k="natural" v="cape" />
		<tag k="ssr:stedsnr" v="23584" />
	</node>
	<node lat="66.26973055206385" lon="13.77702499303323" id="-9676">
		<tag k="name" v="Store Eidbukta" />
		<tag k="natural" v="bay" />
		<tag k="ssr:stedsnr" v="25098" />
	</node>
	<node lat="66.30419721921263" lon="13.390508337353571" id="-9705">
		<tag k="name" v="Vedneset" />
		<tag k="natural" v="cape" />
		<tag k="ssr:stedsnr" v="42748" />
	</node>
	<node lat="66.29131110802714" lon="13.74786666520505" id="-9731">
		<tag k="bay" v="fjord" />
		<tag k="name" v="Botnfjorden" />
		<tag k="natural" v="bay" />
		<tag k="ssr:stedsnr" v="43767" />
	</node>
	<node lat="66.34270833526888" lon="13.44835000075192" id="-9784">
		<tag k="fixme" v="consider seamark:type=rock or natural=shoal" />
		<tag k="name" v="Nordfjordskjæret" />
		<tag k="place" v="islet" />
		<tag k="ssr:stedsnr" v="58255" />
	</node>
	<node lat="66.30045000327574" lon="13.931866665634885" id="-9832">
		<tag k="name" v="Rørvikodden" />
		<tag k="natural" v="cape" />
		<tag k="ssr:stedsnr" v="77060" />
	</node>
	<node lat="66.27601388658435" lon="14.026263881304464" id="-9859">
		<tag k="name" v="Bjørnbærvika" />
		<tag k="natural" v="bay" />
		<tag k="ssr:stedsnr" v="77089" />
	</node>
	<node lat="66.29970277653796" lon="14.103458325403565" id="-9911">
		<tag k="name" v="Ytre Langnes" />
		<tag k="natural" v="cape" />
		<tag k="ssr:stedsnr" v="85649" />
	</node>
	<node lat="66.29933611404606" lon="13.338361112952931" id="-9912">
		<tag k="name" v="Låglandsodden" />
		<tag k="natural" v="cape" />
		<tag k="ssr:stedsnr" v="86213" />
	</node>
	<node lat="66.31625833604616" lon="13.517058333613253" id="-9996">
		<tag k="name" v="Sjåneset" />
		<tag k="natural" v="cape" />
		<tag k="ssr:stedsnr" v="104666" />
	</node>
	<node lat="66.27330555483464" lon="13.832313892743851" id="-10037">
		<tag k="name" v="Kristoffervika" />
		<tag k="natural" v="bay" />
		<tag k="ssr:stedsnr" v="119590" />
	</node>
	<node lat="66.25487221805987" lon="13.572224993036512" id="-10062">
		<tag k="name" v="Kvitnesodden" />
		<tag k="natural" v="cape" />
		<tag k="ssr:stedsnr" v="119815" />
	</node>
	<node lat="66.33194578720521" lon="14.118972815000093" id="-10081">
		<tag k="alt_name" v="Åneset" />
		<tag k="name" v="Ånes" />
		<tag k="natural" v="cape" />
		<tag k="ssr:stedsnr" v="137069" />
	</node>
	<node lat="66.33034444545153" lon="14.113186117139529" id="-10140">
		<tag k="name" v="Ånesgrunna" />
		<tag k="natural" v="shoal" />
		<tag k="place" v="locality" />
		<tag k="ssr:stedsnr" v="145659" />
	</node>
	<node lat="66.30457777923326" lon="14.116277781858257" id="-10141">
		<tag k="name" v="Indre Langnes" />
		<tag k="natural" v="cape" />
		<tag k="ssr:stedsnr" v="145692" />
	</node>
	<node lat="66.24601389093763" lon="13.365550011373255" id="-10143">
		<tag k="name" v="Sildsteinen" />
		<tag k="natural" v="cape" />
		<tag k="ssr:stedsnr" v="146008" />
	</node>
	<node lat="66.33581111338769" lon="13.45214722538717" id="-10144">
		<tag k="name" v="Storsteinvika" />
		<tag k="natural" v="bay" />
		<tag k="ssr:stedsnr" v="146158" />
	</node>
	<node lat="66.27456666234835" lon="13.993075007337238" id="-10195">
		<tag k="name" v="Stor-Sjånesodden" />
		<tag k="natural" v="cape" />
		<tag k="ssr:stedsnr" v="163537" />
	</node>
	<node lat="66.32399722198237" lon="13.442908337413247" id="-10231">
		<tag k="name" v="Merrahølodden" />
		<tag k="natural" v="bay" />
		<tag k="ssr:stedsnr" v="164854" />
	</node>
	<node lat="66.30903055587187" lon="14.030316672609024" id="-10251">
		<tag k="name" v="Alternesvika" />
		<tag k="natural" v="bay" />
		<tag k="ssr:stedsnr" v="165556" />
	</node>
	<node lat="66.26365833179598" lon="13.541552769373022" id="-10382">
		<tag k="name" v="Purknesholman" />
		<tag k="place" v="islet" />
		<tag k="ssr:stedsnr" v="198943" />
	</node>
	<node lat="66.24759722132087" lon="13.959650009149156" id="-10443">
		<tag k="name" v="Førneset" />
		<tag k="natural" v="cape" />
		<tag k="ssr:stedsnr" v="225548" />
	</node>
	<node lat="66.30536666447756" lon="13.485141666647227" id="-10451">
		<tag k="name" v="Baksjøen" />
		<tag k="natural" v="bay" />
		<tag k="ssr:stedsnr" v="225810" />
	</node>
	<node lat="66.30148055677708" lon="13.452672215394944" id="-10454">
		<tag k="name" v="Aurtangen" />
		<tag k="natural" v="cape" />
		<tag k="ssr:stedsnr" v="225813" />
	</node>
	<node lat="66.32900833249518" lon="14.103991669128547" id="-10479">
		<tag k="name" v="Båsmosjyen" />
		<tag k="natural" v="bay" />
		<tag k="ssr:stedsnr" v="226508" />
	</node>
	<node lat="66.28878332959246" lon="13.61071944338846" id="-10557">
		<tag k="name" v="Vikabergodden" />
		<tag k="natural" v="cape" />
		<tag k="ssr:stedsnr" v="286672" />
	</node>
	<node lat="66.30408333121542" lon="13.965491656851881" id="-10561">
		<tag k="name" v="Tranbergodden" />
		<tag k="natural" v="cape" />
		<tag k="ssr:stedsnr" v="286621" />
	</node>
	<node lat="66.27247222105768" lon="13.594863893789823" id="-10563">
		<tag k="name" v="Utnes" />
		<tag k="natural" v="cape" />
		<tag k="ssr:stedsnr" v="286715" />
	</node>
	<node lat="66.27370277348074" lon="13.741552785408672" id="-10572">
		<tag k="fixme" v="consider seamark:type=rock or natural=shoal" />
		<tag k="name" v="Kobbskjæret" />
		<tag k="place" v="islet" />
		<tag k="ssr:stedsnr" v="286752" />
	</node>
	<node lat="66.23261111129689" lon="13.885411103820086" id="-10595">
		<tag k="name" v="Yttervika" />
		<tag k="natural" v="bay" />
		<tag k="ssr:stedsnr" v="301918" />
	</node>
	<node lat="66.32151111109496" lon="13.443838878440786" id="-10709">
		<tag k="name" v="Sørodden" />
		<tag k="natural" v="cape" />
		<tag k="ssr:stedsnr" v="319773" />
	</node>
	<node lat="66.31716739085773" lon="13.514994640801412" id="-10732">
		<tag k="loc_name" v="Trollavika" />
		<tag k="name" v="Trollvika" />
		<tag k="natural" v="bay" />
		<tag k="ssr:stedsnr" v="328197" />
	</node>
	<node lat="66.28954444591649" lon="14.054938887524743" id="-10734">
		<tag k="name" v="Hauknesbukta" />
		<tag k="natural" v="bay" />
		<tag k="ssr:stedsnr" v="328652" />
	</node>
	<node lat="66.30948888938867" lon="14.034647223361786" id="-10735">
		<tag k="name" v="Almlibukta" />
		<tag k="natural" v="bay" />
		<tag k="ssr:stedsnr" v="328545" />
	</node>
	<node lat="66.29048889197811" lon="14.066994440698286" id="-10777">
		<tag k="name" v="Hauknes" />
		<tag k="natural" v="cape" />
		<tag k="ssr:stedsnr" v="345523" />
	</node>
	<node lat="66.30713888954133" lon="13.552819453558756" id="-10836">
		<tag k="name" v="Botnleira" />
		<tag k="natural" v="shoal" />
		<tag k="place" v="locality" />
		<tag k="ssr:stedsnr" v="347882" />
	</node>
	<node lat="66.31988889133513" lon="13.454491661711081" id="-10837">
		<tag k="name" v="Sandvika" />
		<tag k="natural" v="bay" />
		<tag k="ssr:stedsnr" v="347885" />
	</node>
</osm>
