<?xml version="1.0" encoding="UTF-8"?>
<osm generator="osmapis" version="0.6">
	<node id="-65534" lat="62.450958336" lon="6.18902778084">
		<tag k="name" v="Storholmsnaget" />
		<tag k="natural" v="cape" />
		<tag k="ssr:stedsnr" v="543668" />
	</node>
	<node id="-65533" lat="62.4492055527" lon="6.20813889703">
		<tag k="name" v="Jyljebøflua" />
		<tag k="natural" v="shoal" />
		<tag k="place" v="locality" />
		<tag k="ssr:stedsnr" v="543661" />
	</node>
	<node id="-65529" lat="62.4187027812" lon="6.32546388486">
		<tag k="name" v="Valane" />
		<tag k="natural" v="strait" />
		<tag k="ssr:stedsnr" v="521927" />
	</node>
	<node id="-65525" lat="62.4387305524" lon="6.27962777815">
		<tag k="name" v="Tranvågen" />
		<tag k="natural" v="bay" />
		<tag k="ssr:stedsnr" v="521820" />
	</node>
	<node id="-65522" lat="62.4295944443" lon="6.27736665794">
		<tag k="name" v="Litlevågen" />
		<tag k="natural" v="bay" />
		<tag k="ssr:stedsnr" v="520848" />
	</node>
	<node id="-65520" lat="62.4377916636" lon="6.24073889328">
		<tag k="name" v="Veddevika" />
		<tag k="natural" v="bay" />
		<tag k="ssr:stedsnr" v="436064" />
	</node>
	<node id="-65517" lat="62.4465083314" lon="6.1790138926">
		<tag k="fixme" v="consider seamark:type=rock or natural=shoal" />
		<tag k="name" v="Seiskjeret" />
		<tag k="place" v="islet" />
		<tag k="ssr:stedsnr" v="422670" />
	</node>
	<node id="-65514" lat="62.407558331" lon="6.31545555126">
		<tag k="name" v="Saltrøya" />
		<tag k="natural" v="bay" />
		<tag k="ssr:stedsnr" v="399885" />
	</node>
	<node id="-65506" lat="62.4232888931" lon="6.2884472207">
		<tag k="name" v="Furnesvikane" />
		<tag k="natural" v="bay" />
		<tag k="ssr:stedsnr" v="399805" />
	</node>
	<node id="-65505" lat="62.4428277822" lon="6.18052500276">
		<tag k="name" v="Lisjemassen" />
		<tag k="place" v="islet" />
		<tag k="ssr:stedsnr" v="392625" />
	</node>
	<node id="-65504" lat="62.4502916671" lon="6.23427500213">
		<tag k="name" v="Lisje Fransholmen" />
		<tag k="place" v="islet" />
		<tag k="ssr:stedsnr" v="391193" />
	</node>
	<node id="-65499" lat="62.3985305571" lon="6.21866665731">
		<tag k="name" v="Båtneset" />
		<tag k="natural" v="cape" />
		<tag k="ssr:stedsnr" v="374134" />
	</node>
	<node id="-65498" lat="62.4275555524" lon="6.29588054784">
		<tag k="name" v="Bjørkavågneset" />
		<tag k="natural" v="cape" />
		<tag k="ssr:stedsnr" v="361133" />
	</node>
	<node id="-65496" lat="62.4456777801" lon="6.24703333372">
		<tag k="name" v="Litle Veddeholmen" />
		<tag k="place" v="islet" />
		<tag k="ssr:stedsnr" v="354682" />
	</node>
	<node id="-65494" lat="62.446374999" lon="6.20246666424">
		<tag k="name" v="Kippervika" />
		<tag k="natural" v="bay" />
		<tag k="ssr:stedsnr" v="338923" />
	</node>
	<node id="-65493" lat="62.4379694483" lon="6.28144166299">
		<tag k="name" v="Tranvågen" />
		<tag k="natural" v="bay" />
		<tag k="ssr:stedsnr" v="338917" />
	</node>
	<node id="-65481" lat="62.44944167" lon="6.19918610987">
		<tag k="name" v="Tennholmen" />
		<tag k="place" v="islet" />
		<tag k="ssr:stedsnr" v="210953" />
	</node>
	<node id="-65478" lat="62.4402416703" lon="6.15707777799">
		<tag k="alt_name" v="Ædhammaren" />
		<tag k="name" v="Æhammaren" />
		<tag k="natural" v="cape" />
		<tag k="ssr:stedsnr" v="193958" />
	</node>
	<node id="-65474" lat="62.4039916647" lon="6.29649721737">
		<tag k="name" v="Ramsvikneset" />
		<tag k="natural" v="cape" />
		<tag k="ssr:stedsnr" v="172790" />
	</node>
	<node id="-65472" lat="62.4398583288" lon="6.06446943679">
		<tag k="alt_name" v="Gjøtaflua" />
		<tag k="name" v="Gjøttaflua" />
		<tag k="natural" v="shoal" />
		<tag k="place" v="locality" />
		<tag k="ssr:stedsnr" v="160529" />
	</node>
	<node id="-65467" lat="62.403536114" lon="6.29483055889">
		<tag k="name" v="Kviteberget" />
		<tag k="natural" v="cape" />
		<tag k="ssr:stedsnr" v="156859" />
	</node>
	<node id="-65457" lat="62.4494344454" lon="6.18213076921">
		<tag k="name" v="Storholmen" />
		<tag k="place" v="islet" />
		<tag k="ssr:stedsnr" v="132955" />
	</node>
	<node id="-65450" lat="62.3957750013" lon="6.15903333549">
		<tag k="name" v="Øygardsvika" />
		<tag k="natural" v="bay" />
		<tag k="ssr:stedsnr" v="112483" />
	</node>
	<node id="-65445" lat="62.4290722245" lon="6.28193888319">
		<tag k="name" v="Haneneset" />
		<tag k="natural" v="cape" />
		<tag k="ssr:stedsnr" v="96818" />
	</node>
	<node id="-65444" lat="62.425419444" lon="6.29773889026">
		<tag k="name" v="Bjørkavågen" />
		<tag k="natural" v="bay" />
		<tag k="ssr:stedsnr" v="90368" />
	</node>
	<node id="-65442" lat="62.4469777786" lon="6.19539722889">
		<tag k="name" v="Hansholmen" />
		<tag k="place" v="islet" />
		<tag k="ssr:stedsnr" v="88957" />
	</node>
	<node id="-65439" lat="62.445688893" lon="6.23758889509">
		<tag k="name" v="Budaholmen" />
		<tag k="place" v="islet" />
		<tag k="ssr:stedsnr" v="86195" />
	</node>
	<node id="-65437" lat="62.4414833305" lon="6.13094167415">
		<tag k="alt_name" v="Flesjeflua" />
		<tag k="name" v="Flesjefluda" />
		<tag k="natural" v="shoal" />
		<tag k="place" v="locality" />
		<tag k="ssr:stedsnr" v="71987" />
	</node>
	<node id="-65434" lat="62.4047333377" lon="6.29964166226">
		<tag k="alt_name" v="Ramsvikbukta" />
		<tag k="name" v="Ramsvika" />
		<tag k="natural" v="bay" />
		<tag k="ssr:stedsnr" v="71118" />
	</node>
	<node id="-65432" lat="62.4438694467" lon="6.26158333157">
		<tag k="name" v="Hammarsneset" />
		<tag k="natural" v="cape" />
		<tag k="ssr:stedsnr" v="58792" />
	</node>
	<node id="-65431" lat="62.4408527781" lon="6.23877221414">
		<tag k="name" v="Holsneset" />
		<tag k="natural" v="cape" />
		<tag k="ssr:stedsnr" v="58704" />
	</node>
	<node id="-65430" lat="62.4457194444" lon="6.17156666126">
		<tag k="name" v="Brørne" />
		<tag k="natural" v="shoal" />
		<tag k="place" v="locality" />
		<tag k="ssr:stedsnr" v="58700" />
	</node>
	<node id="-65429" lat="62.4477722212" lon="6.17705277352">
		<tag k="name" v="Nålaugholmen" />
		<tag k="place" v="islet" />
		<tag k="ssr:stedsnr" v="58695" />
	</node>
	<node id="-65425" lat="62.4217972262" lon="6.31956388012">
		<tag k="name" v="Eliasneset" />
		<tag k="natural" v="cape" />
		<tag k="ssr:stedsnr" v="35861" />
	</node>
	<node id="-65420" lat="62.4239083367" lon="6.29163333842">
		<tag k="name" v="Klubben" />
		<tag k="natural" v="cape" />
		<tag k="ssr:stedsnr" v="35830" />
	</node>
	<node id="-65419" lat="62.4406137196" lon="6.17206775954">
		<tag k="name" v="Myraneset" />
		<tag k="natural" v="cape" />
		<tag k="ssr:stedsnr" v="35825" />
	</node>
	<node id="-65418" lat="62.4482572839" lon="6.19531316973">
		<tag k="name" v="Vassholmen" />
		<tag k="place" v="islet" />
		<tag k="ssr:stedsnr" v="28971" />
	</node>
	<node id="-65417" lat="62.4496888925" lon="6.20352778045">
		<tag k="name" v="Bukkholmen" />
		<tag k="place" v="islet" />
		<tag k="ssr:stedsnr" v="28968" />
	</node>
	<node id="-65399" lat="62.4432805547" lon="6.26910277946">
		<tag k="name" v="Fiskarstranda" />
		<tag k="natural" v="beach" />
		<tag k="place" v="locality" />
		<tag k="ssr:stedsnr" v="968806" />
	</node>
	<node id="-65398" lat="62.4478527748" lon="6.23177499807">
		<tag k="name" v="Vågneset" />
		<tag k="natural" v="cape" />
		<tag k="ssr:stedsnr" v="946923" />
	</node>
	<node id="-65395" lat="62.4431812541" lon="6.23578578837">
		<tag k="alt_name" v="Holsfita" />
		<tag k="name" v="Holsfeta" />
		<tag k="natural" v="cape" />
		<tag k="ssr:stedsnr" v="921061" />
	</node>
	<node id="-65387" lat="62.4445694435" lon="6.18307500556">
		<tag k="name" v="Peneset" />
		<tag k="natural" v="cape" />
		<tag k="ssr:stedsnr" v="946929" />
	</node>
	<node id="-65384" lat="62.446752776" lon="6.20136665963">
		<tag k="name" v="Kipperholmen" />
		<tag k="place" v="islet" />
		<tag k="ssr:stedsnr" v="938963" />
	</node>
	<node id="-65383" lat="62.4481749983" lon="6.1821944467">
		<tag k="name" v="Brandholmen" />
		<tag k="place" v="islet" />
		<tag k="ssr:stedsnr" v="938959" />
	</node>
	<node id="-65382" lat="62.4520638905" lon="6.17647499523">
		<tag k="name" v="Kveiteskjeret" />
		<tag k="place" v="islet" />
		<tag k="ssr:stedsnr" v="938958" />
	</node>
	<node id="-65381" lat="62.4507361124" lon="6.23132499294">
		<tag k="name" v="Hamnaskjeret" />
		<tag k="place" v="islet" />
		<tag k="ssr:stedsnr" v="938171" />
	</node>
	<node id="-65380" lat="62.4494083326" lon="6.23003055534">
		<tag k="name" v="Randiholmen" />
		<tag k="place" v="islet" />
		<tag k="ssr:stedsnr" v="938170" />
	</node>
	<node id="-65379" lat="62.4150111117" lon="6.32531111025">
		<tag k="name" v="Solavågen" />
		<tag k="natural" v="bay" />
		<tag k="ssr:stedsnr" v="937177" />
	</node>
	<node id="-65373" lat="62.4477247277" lon="6.19102199607">
		<tag k="name" v="Hattholmen" />
		<tag k="place" v="islet" />
		<tag k="ssr:stedsnr" v="817965" />
	</node>
	<node id="-65371" lat="62.4513166646" lon="6.21804444925">
		<tag k="alt_name" v="Salneset" />
		<tag k="name" v="Saleneset" />
		<tag k="natural" v="cape" />
		<tag k="old_name" v="Salen" />
		<tag k="ssr:stedsnr" v="800019" />
	</node>
	<node id="-65370" lat="62.4447055562" lon="6.25028054738">
		<tag k="name" v="Veddeholmane" />
		<tag k="place" v="islet" />
		<tag k="ssr:stedsnr" v="800016" />
	</node>
	<node id="-65369" lat="62.4416777763" lon="6.18532221993">
		<tag k="name" v="Langevågen" />
		<tag k="natural" v="bay" />
		<tag k="ssr:stedsnr" v="921958" />
	</node>
	<node id="-65368" lat="62.4581833369" lon="6.19812499815">
		<tag k="bay" v="fjord" />
		<tag k="name" v="Borgundfjorden" />
		<tag k="natural" v="bay" />
		<tag k="ssr:stedsnr" v="921948" />
	</node>
	<node id="-65367" lat="62.4218861091" lon="6.07055000314">
		<tag k="name" v="Raudnesvika" />
		<tag k="natural" v="bay" />
		<tag k="ssr:stedsnr" v="921914" />
	</node>
	<node id="-65364" lat="62.4299361145" lon="6.3094027707">
		<tag k="name" v="Eidsneset" />
		<tag k="natural" v="cape" />
		<tag k="ssr:stedsnr" v="921045" />
	</node>
	<node id="-65357" lat="62.4426499986" lon="6.18304167562">
		<tag k="name" v="Kyrkjesundet" />
		<tag k="natural" v="strait" />
		<tag k="ssr:stedsnr" v="763820" />
	</node>
	<node id="-65354" lat="62.4088500042" lon="6.32090276937">
		<tag k="name" v="Klubben" />
		<tag k="natural" v="cape" />
		<tag k="ssr:stedsnr" v="763814" />
	</node>
	<node id="-65353" lat="62.4497749974" lon="6.22273055442">
		<tag k="name" v="Djuphamna" />
		<tag k="natural" v="bay" />
		<tag k="ssr:stedsnr" v="763808" />
	</node>
	<node id="-65351" lat="62.4414444423" lon="6.1889333286">
		<tag k="name" v="Syversanden" />
		<tag k="natural" v="shoal" />
		<tag k="place" v="locality" />
		<tag k="ssr:stedsnr" v="908713" />
	</node>
	<node id="-65340" lat="62.4210805569" lon="6.3210083428">
		<tag k="name" v="Rabbeneset" />
		<tag k="natural" v="cape" />
		<tag k="ssr:stedsnr" v="885873" />
	</node>
	<node id="-65339" lat="62.4500388891" lon="6.21072778127">
		<tag k="name" v="Urvika" />
		<tag k="natural" v="bay" />
		<tag k="ssr:stedsnr" v="885801" />
	</node>
	<node id="-65338" lat="62.4385888894" lon="6.14971111261">
		<tag k="name" v="Æhammarsvika" />
		<tag k="natural" v="bay" />
		<tag k="ssr:stedsnr" v="885797" />
	</node>
	<node id="-65334" lat="62.4072666666" lon="6.32846111398">
		<tag k="alt_name" v="Solavågflua" />
		<tag k="name" v="Solavågsfluda" />
		<tag k="natural" v="shoal" />
		<tag k="place" v="locality" />
		<tag k="ssr:stedsnr" v="678121" />
	</node>
	<node id="-65333" lat="62.4427166654" lon="6.25821944802">
		<tag k="name" v="Djupvika" />
		<tag k="natural" v="bay" />
		<tag k="ssr:stedsnr" v="879363" />
	</node>
	<node id="-65332" lat="62.4410583352" lon="6.28304999315">
		<tag k="name" v="Tranvågflua" />
		<tag k="natural" v="shoal" />
		<tag k="place" v="locality" />
		<tag k="ssr:stedsnr" v="665811" />
	</node>
	<node id="-65328" lat="62.4457972243" lon="6.19111110594">
		<tag k="name" v="Gulholmen" />
		<tag k="place" v="islet" />
		<tag k="ssr:stedsnr" v="634961" />
	</node>
	<node id="-65327" lat="62.4474249976" lon="6.17624444222">
		<tag k="name" v="Notholmen" />
		<tag k="place" v="islet" />
		<tag k="ssr:stedsnr" v="634956" />
	</node>
	<node id="-65320" lat="62.4471583334" lon="6.1325111177">
		<tag k="bay" v="fjord" />
		<tag k="name" v="Hessafjorden" />
		<tag k="natural" v="bay" />
		<tag k="ssr:stedsnr" v="617955" />
	</node>
	<node id="-65316" lat="62.448449999" lon="6.17355556336">
		<tag k="name" v="Lyktholmen" />
		<tag k="old_name" v="Gråtarholmen" />
		<tag k="place" v="islet" />
		<tag k="ssr:stedsnr" v="573948" />
	</node>
	<node id="-65313" lat="62.4506882017" lon="6.18021489596">
		<tag k="name" v="Brattholmen" />
		<tag k="place" v="islet" />
		<tag k="ssr:stedsnr" v="573529" />
	</node>
	<node id="-65312" lat="62.4344750042" lon="6.05796111272">
		<tag k="name" v="Eltravika" />
		<tag k="natural" v="bay" />
		<tag k="ssr:stedsnr" v="706546" />
	</node>
	<node id="-65309" lat="62.43013611" lon="6.33104721647">
		<tag k="name" v="Sjukeneset" />
		<tag k="natural" v="cape" />
		<tag k="ssr:stedsnr" v="703934" />
	</node>
	<node id="-65306" lat="62.413619445" lon="6.32304167162">
		<tag k="name" v="Køvikneset" />
		<tag k="natural" v="cape" />
		<tag k="ssr:stedsnr" v="703905" />
	</node>
	<node id="-65304" lat="62.4025555561" lon="6.26640556068">
		<tag k="name" v="Kattavika" />
		<tag k="natural" v="bay" />
		<tag k="ssr:stedsnr" v="703872" />
	</node>
	<node id="-65303" lat="62.4055027762" lon="6.30819444961">
		<tag k="name" v="Linneset" />
		<tag k="natural" v="cape" />
		<tag k="ssr:stedsnr" v="703869" />
	</node>
	<node id="-65298" lat="62.441208335" lon="6.25118611287">
		<tag k="name" v="Djupvikstranda" />
		<tag k="natural" v="beach" />
		<tag k="place" v="locality" />
		<tag k="ssr:stedsnr" v="703833" />
	</node>
	<node id="-65295" lat="62.4373749991" lon="6.05672500952">
		<tag k="alt_name" v="Eltreneset" />
		<tag k="name" v="Eltraneset" />
		<tag k="natural" v="cape" />
		<tag k="ssr:stedsnr" v="556970" />
	</node>
	<node id="-65292" lat="62.4236888859" lon="6.31472221498">
		<tag k="name" v="Storevalen" />
		<tag k="natural" v="bay" />
		<tag k="ssr:stedsnr" v="695998" />
	</node>
	<node id="-65291" lat="62.4452500005" lon="6.18473611535">
		<tag k="name" v="Katterumpa" />
		<tag k="natural" v="shoal" />
		<tag k="place" v="locality" />
		<tag k="ssr:stedsnr" v="543651" />
	</node>
	<node id="-65281" lat="62.4392500041" lon="6.12976110268">
		<tag k="name" v="Flesjeberget" />
		<tag k="natural" v="cape" />
		<tag k="ssr:stedsnr" v="678950" />
	</node>
	<node id="-65277" lat="62.439900002" lon="6.18401944898">
		<tag k="name" v="Geilneset" />
		<tag k="natural" v="cape" />
		<tag k="ssr:stedsnr" v="483705" />
	</node>
	<node id="-65276" lat="62.4441166698" lon="6.17972499942">
		<tag k="name" v="Stabben" />
		<tag k="natural" v="shoal" />
		<tag k="place" v="locality" />
		<tag k="ssr:stedsnr" v="483703" />
	</node>
	<node id="-65275" lat="62.4444222195" lon="6.25170278421">
		<tag k="name" v="Store Veddeholmen" />
		<tag k="place" v="islet" />
		<tag k="ssr:stedsnr" v="476656" />
	</node>
	<node id="-65274" lat="62.4452916697" lon="6.1792277811">
		<tag k="name" v="Skinnbroka" />
		<tag k="natural" v="shoal" />
		<tag k="place" v="locality" />
		<tag k="ssr:stedsnr" v="665723" />
	</node>
	<node id="-65267" lat="62.4148694441" lon="6.07782222601">
		<tag k="name" v="Skarsteinen" />
		<tag k="natural" v="cape" />
		<tag k="ssr:stedsnr" v="436917" />
	</node>
	<node id="-65265" lat="62.4482027817" lon="6.2327388879">
		<tag k="name" v="Landfarneset" />
		<tag k="natural" v="cape" />
		<tag k="ssr:stedsnr" v="436014" />
	</node>
	<node id="-65262" lat="62.4304138847" lon="6.36249722075">
		<tag k="name" v="Pinesundet" />
		<tag k="natural" v="strait" />
		<tag k="ssr:stedsnr" v="416133" />
	</node>
	<node id="-65252" lat="62.4183749984" lon="6.0724055628">
		<tag k="name" v="Raudneset" />
		<tag k="natural" v="cape" />
		<tag k="ssr:stedsnr" v="375920" />
	</node>
	<node id="-65250" lat="62.4152777786" lon="6.13374444222">
		<tag k="name" v="Sula" />
		<tag k="place" v="island" />
		<tag k="ssr:stedsnr" v="496927" />
	</node>
	<node id="-65243" lat="62.4499222212" lon="6.18877777174">
		<tag k="name" v="Storholmsundet" />
		<tag k="natural" v="strait" />
		<tag k="ssr:stedsnr" v="483714" />
	</node>
	<node id="-65242" lat="62.4469583338" lon="6.19512499383">
		<tag k="name" v="Ytre Karlholmen" />
		<tag k="place" v="islet" />
		<tag k="ssr:stedsnr" v="483711" />
	</node>
	<node id="-65241" lat="62.4409888847" lon="6.17174166036">
		<tag k="name" v="Myranesflua" />
		<tag k="natural" v="shoal" />
		<tag k="place" v="locality" />
		<tag k="ssr:stedsnr" v="483694" />
	</node>
	<node id="-65236" lat="62.3805722238" lon="6.12816110182">
		<tag k="bay" v="fjord" />
		<tag k="name" v="Sulafjorden" />
		<tag k="natural" v="bay" />
		<tag k="ssr:stedsnr" v="314906" />
	</node>
	<node id="-65234" lat="62.4460833293" lon="6.23181112041">
		<tag k="name" v="Orkevika" />
		<tag k="natural" v="bay" />
		<tag k="ssr:stedsnr" v="314010" />
	</node>
	<node id="-65233" lat="62.4385638922" lon="6.16821110815">
		<tag k="name" v="Sandvikfjøra" />
		<tag k="natural" v="beach" />
		<tag k="place" v="locality" />
		<tag k="ssr:stedsnr" v="301662" />
	</node>
	<node id="-65232" lat="62.4403749989" lon="6.25007222221">
		<tag k="name" v="Litlevågen" />
		<tag k="natural" v="bay" />
		<tag k="ssr:stedsnr" v="460937" />
	</node>
	<node id="-65223" lat="62.4314805588" lon="6.28880277195">
		<tag k="name" v="Rørstadneset" />
		<tag k="natural" v="cape" />
		<tag k="ssr:stedsnr" v="460871" />
	</node>
	<node id="-65222" lat="62.4455416679" lon="6.19405833851">
		<tag k="name" v="Bolneset" />
		<tag k="natural" v="cape" />
		<tag k="ssr:stedsnr" v="460855" />
	</node>
	<node id="-65217" lat="62.4502222224" lon="6.22799722898">
		<tag k="name" v="Linaholmen" />
		<tag k="place" v="islet" />
		<tag k="ssr:stedsnr" v="270206" />
	</node>
	<node id="-65214" lat="62.4441000017" lon="6.18227221276">
		<tag k="name" v="Presten" />
		<tag k="place" v="islet" />
		<tag k="ssr:stedsnr" v="452580" />
	</node>
	<node id="-65213" lat="62.4496416626" lon="6.22948611552">
		<tag k="name" v="Skarbøholmen" />
		<tag k="place" v="islet" />
		<tag k="ssr:stedsnr" v="452178" />
	</node>
	<node id="-65212" lat="62.4344416654" lon="6.29023889525">
		<tag k="fixme" v="consider seamark:type=rock or natural=shoal" />
		<tag k="name" v="Kobbeskjeret" />
		<tag k="place" v="islet" />
		<tag k="ssr:stedsnr" v="450168" />
	</node>
	<node id="-65210" lat="62.4144277764" lon="6.33687777948">
		<tag k="name" v="Gardvika" />
		<tag k="natural" v="bay" />
		<tag k="ssr:stedsnr" v="217835" />
	</node>
	<node id="-65209" lat="62.3990999998" lon="6.12488610838">
		<tag k="name" v="Litleneset" />
		<tag k="natural" v="cape" />
		<tag k="ssr:stedsnr" v="217833" />
	</node>
	<node id="-65204" lat="62.4388972237" lon="6.16691389457">
		<tag k="name" v="Sandvika" />
		<tag k="natural" v="bay" />
		<tag k="ssr:stedsnr" v="217915" />
	</node>
	<node id="-65200" lat="62.4312944461" lon="6.30571666847">
		<tag k="name" v="Eidsundet" />
		<tag k="natural" v="strait" />
		<tag k="ssr:stedsnr" v="294751" />
	</node>
	<node id="-65197" lat="62.4282944414" lon="6.32113888852">
		<tag k="name" v="Eidsbukta" />
		<tag k="natural" v="bay" />
		<tag k="ssr:stedsnr" v="180119" />
	</node>
	<node id="-65195" lat="62.4358166651" lon="6.05178056244">
		<tag k="name" v="Eltranausen" />
		<tag k="natural" v="shoal" />
		<tag k="place" v="locality" />
		<tag k="ssr:stedsnr" v="281613" />
	</node>
	<node id="-65194" lat="62.4151944403" lon="6.07355000735">
		<tag k="name" v="Skarsteinflua" />
		<tag k="natural" v="shoal" />
		<tag k="place" v="locality" />
		<tag k="ssr:stedsnr" v="281611" />
	</node>
	<node id="-65193" lat="62.4279694426" lon="6.0595694411">
		<tag k="name" v="Trælbåen" />
		<tag k="natural" v="shoal" />
		<tag k="place" v="locality" />
		<tag k="ssr:stedsnr" v="160523" />
	</node>
	<node id="-65190" lat="62.4308777804" lon="6.3570277796">
		<tag k="name" v="Veibustvågen" />
		<tag k="natural" v="bay" />
		<tag k="ssr:stedsnr" v="278911" />
	</node>
	<node id="-65188" lat="62.429283331" lon="6.05998888223">
		<tag k="name" v="Furneset" />
		<tag k="natural" v="cape" />
		<tag k="ssr:stedsnr" v="278865" />
	</node>
	<node id="-65187" lat="62.4039694485" lon="6.28135555115">
		<tag k="alt_name" v="Eikremsvika" />
		<tag k="name" v="Eikremsvikane" />
		<tag k="natural" v="bay" />
		<tag k="ssr:stedsnr" v="278862" />
	</node>
	<node id="-65181" lat="62.4486249979" lon="6.18971111682">
		<tag k="name" v="Lisjehatten" />
		<tag k="place" v="islet" />
		<tag k="ssr:stedsnr" v="149952" />
	</node>
	<node id="-65178" lat="62.4501494478" lon="6.19662793399">
		<tag k="name" v="Flatholmen" />
		<tag k="place" v="islet" />
		<tag k="ssr:stedsnr" v="270946" />
	</node>
	<node id="-65177" lat="62.4470555553" lon="6.19735556382">
		<tag k="name" v="Karlholmen" />
		<tag k="place" v="islet" />
		<tag k="ssr:stedsnr" v="270942" />
	</node>
	<node id="-65176" lat="62.4459978376" lon="6.1734427091">
		<tag k="name" v="Skarveskjeret" />
		<tag k="place" v="islet" />
		<tag k="ssr:stedsnr" v="270938" />
	</node>
	<node id="-65173" lat="62.4300888249" lon="6.35952294106">
		<tag k="name" v="Pina" />
		<tag k="old_name" v="Veibustholmen" />
		<tag k="place" v="islet" />
		<tag k="ssr:stedsnr" v="267142" />
	</node>
	<node id="-65170" lat="62.4175805516" lon="6.07000277308">
		<tag k="name" v="Raudnesskallen" />
		<tag k="natural" v="shoal" />
		<tag k="place" v="locality" />
		<tag k="ssr:stedsnr" v="99611" />
	</node>
	<node id="-65164" lat="62.4491000011" lon="6.22729444719">
		<tag k="name" v="Skrivarhamna" />
		<tag k="natural" v="bay" />
		<tag k="ssr:stedsnr" v="96904" />
	</node>
	<node id="-65163" lat="62.4357888856" lon="6.0581638924">
		<tag k="name" v="Rekvika" />
		<tag k="natural" v="bay" />
		<tag k="ssr:stedsnr" v="96762" />
	</node>
	<node id="-65160" lat="62.4477166633" lon="6.1712583399">
		<tag k="name" v="Langedraget" />
		<tag k="place" v="islet" />
		<tag k="ssr:stedsnr" v="253964" />
	</node>
	<node id="-65156" lat="62.4495555578" lon="6.2288166735">
		<tag k="name" v="Skarhaugholmen" />
		<tag k="place" v="islet" />
		<tag k="ssr:stedsnr" v="88147" />
	</node>
	<node id="-65147" lat="62.4496305555" lon="6.23439444361">
		<tag k="name" v="Fransholmen" />
		<tag k="place" v="islet" />
		<tag k="ssr:stedsnr" v="11012" />
	</node>
	<node id="-65143" lat="62.4015277745" lon="6.23834443655">
		<tag k="name" v="Hjellneset" />
		<tag k="natural" v="cape" />
		<tag k="ssr:stedsnr" v="217898" />
	</node>
	<node id="-65630" lat="62.4505027782" lon="6.21241943688">
		<tag k="name" v="Kålneset" />
		<tag k="natural" v="cape" />
		<tag k="ssr:stedsnr" v="968716" />
	</node>
	<node id="-65629" lat="62.4276416688" lon="6.28455833044">
		<tag k="name" v="Mauseidvågen" />
		<tag k="natural" v="bay" />
		<tag k="ssr:stedsnr" v="961427" />
	</node>
	<node id="-65625" lat="62.4391027773" lon="6.06491110699">
		<tag k="name" v="Gjøtta" />
		<tag k="natural" v="cape" />
		<tag k="ssr:stedsnr" v="860977" />
	</node>
	<node id="-65622" lat="62.4339861128" lon="6.28933056096">
		<tag k="name" v="Sandvika" />
		<tag k="natural" v="bay" />
		<tag k="ssr:stedsnr" v="847791" />
	</node>
	<node id="-65621" lat="62.4136488829" lon="6.3323289259">
		<tag k="name" v="Storhaugodden" />
		<tag k="natural" v="cape" />
		<tag k="ssr:stedsnr" v="847789" />
	</node>
	<node id="-65620" lat="62.4469777766" lon="6.19735276838">
		<tag k="name" v="Indre Karlholmen" />
		<tag k="place" v="islet" />
		<tag k="ssr:stedsnr" v="847698" />
	</node>
	<node id="-65617" lat="62.4019027822" lon="6.25938056179">
		<tag k="alt_name" v="Fluaberget" />
		<tag k="name" v="Fludaberget" />
		<tag k="natural" v="cape" />
		<tag k="ssr:stedsnr" v="824870" />
	</node>
	<node id="-65609" lat="62.436766665" lon="6.05335554709">
		<tag k="fixme" v="consider seamark:type=rock or natural=shoal" />
		<tag k="name" v="Eltraskjeret" />
		<tag k="place" v="islet" />
		<tag k="ssr:stedsnr" v="814233" />
	</node>
	<node id="-65608" lat="62.4415027743" lon="6.18737777908">
		<tag k="name" v="Syverholmen" />
		<tag k="place" v="islet" />
		<tag k="ssr:stedsnr" v="814231" />
	</node>
	<node id="-65607" lat="62.427702779" lon="6.0610083319">
		<tag k="alt_name" v="Trælbåneset" />
		<tag k="name" v="Trælbodneset" />
		<tag k="natural" v="cape" />
		<tag k="ssr:stedsnr" v="800903" />
	</node>
	<node id="-65603" lat="62.4210083332" lon="6.36303333509">
		<tag k="name" v="Kvasneset" />
		<tag k="natural" v="cape" />
		<tag k="ssr:stedsnr" v="799094" />
	</node>
	<node id="-65599" lat="62.4454444421" lon="6.20598888118">
		<tag k="name" v="Fyllingsvågen" />
		<tag k="natural" v="bay" />
		<tag k="ssr:stedsnr" v="786705" />
	</node>
	<node id="-65597" lat="62.4311388872" lon="6.35439166466">
		<tag k="name" v="Klokkarneset" />
		<tag k="natural" v="cape" />
		<tag k="ssr:stedsnr" v="780145" />
	</node>
	<node id="-65596" lat="62.4437916625" lon="6.17124444317">
		<tag k="name" v="Bollflua" />
		<tag k="natural" v="shoal" />
		<tag k="place" v="locality" />
		<tag k="ssr:stedsnr" v="779624" />
	</node>
	<node id="-65594" lat="62.4445861105" lon="6.23058611262">
		<tag k="name" v="Urkevika" />
		<tag k="natural" v="bay" />
		<tag k="ssr:stedsnr" v="763927" />
	</node>
	<node id="-65590" lat="62.416838892" lon="6.35176665683">
		<tag k="name" v="Lahellestranda" />
		<tag k="natural" v="beach" />
		<tag k="place" v="locality" />
		<tag k="ssr:stedsnr" v="763891" />
	</node>
	<node id="-65589" lat="62.4135722204" lon="6.32098055364">
		<tag k="name" v="Køvikleira" />
		<tag k="natural" v="bay" />
		<tag k="ssr:stedsnr" v="763846" />
	</node>
	<node id="-65586" lat="62.4494111078" lon="6.19153889499">
		<tag k="name" v="Svinholmen" />
		<tag k="place" v="islet" />
		<tag k="ssr:stedsnr" v="756969" />
	</node>
	<node id="-65584" lat="62.443206457" lon="6.18184422497">
		<tag k="name" v="Massholmen" />
		<tag k="place" v="islet" />
		<tag k="ssr:stedsnr" v="756575" />
	</node>
	<node id="-65581" lat="62.4314583339" lon="6.36172499684">
		<tag k="name" v="Snauholmen" />
		<tag k="place" v="islet" />
		<tag k="ssr:stedsnr" v="753154" />
	</node>
	<node id="-65575" lat="62.3958777765" lon="6.19703889472">
		<tag k="alt_name" v="Vindneset" />
		<tag k="name" v="Vindsneset" />
		<tag k="natural" v="cape" />
		<tag k="ssr:stedsnr" v="738919" />
	</node>
	<node id="-65571" lat="62.4370472238" lon="6.2798944357">
		<tag k="name" v="Valebukta" />
		<tag k="natural" v="bay" />
		<tag k="ssr:stedsnr" v="642908" />
	</node>
	<node id="-65570" lat="62.4039638875" lon="6.28818332553">
		<tag k="name" v="Litleneset" />
		<tag k="natural" v="cape" />
		<tag k="ssr:stedsnr" v="642896" />
	</node>
	<node id="-65563" lat="62.4522298905" lon="6.20260784504">
		<tag k="name" v="Gåsholmen" />
		<tag k="place" v="islet" />
		<tag k="ssr:stedsnr" v="617948" />
	</node>
	<node id="-65562" lat="62.4526472187" lon="6.18822778127">
		<tag k="name" v="Rognholmen" />
		<tag k="place" v="islet" />
		<tag k="ssr:stedsnr" v="617947" />
	</node>
	<node id="-65560" lat="62.4044666681" lon="6.10666111346">
		<tag k="name" v="Naustvika" />
		<tag k="natural" v="bay" />
		<tag k="ssr:stedsnr" v="617882" />
	</node>
	<node id="-65559" lat="62.4319638923" lon="6.35148610981">
		<tag k="name" v="Vegsundet" />
		<tag k="natural" v="strait" />
		<tag k="ssr:stedsnr" v="617049" />
	</node>
	<node id="-65558" lat="62.4523638894" lon="6.21331389606">
		<tag k="name" v="Salflua" />
		<tag k="natural" v="shoal" />
		<tag k="place" v="locality" />
		<tag k="ssr:stedsnr" v="604703" />
	</node>
	<node id="-65557" lat="62.4422361086" lon="6.16634999862">
		<tag k="name" v="Sandvikflua" />
		<tag k="natural" v="shoal" />
		<tag k="place" v="locality" />
		<tag k="ssr:stedsnr" v="597627" />
	</node>
	<node id="-65554" lat="62.4401972232" lon="6.05716667343">
		<tag k="name" v="Nordre Eltraflua" />
		<tag k="natural" v="shoal" />
		<tag k="place" v="locality" />
		<tag k="ssr:stedsnr" v="584605" />
	</node>
	<node id="-65546" lat="62.4525916678" lon="6.1974388888">
		<tag k="name" v="Lisjegåsa" />
		<tag k="place" v="islet" />
		<tag k="ssr:stedsnr" v="573955" />
	</node>
	<node id="-65545" lat="62.4493555585" lon="6.23102499583">
		<tag k="name" v="Svinholmen" />
		<tag k="place" v="islet" />
		<tag k="ssr:stedsnr" v="573182" />
	</node>
</osm>
