<?xml version="1.0" encoding="UTF-8"?>
<osm version="0.6" generator="osmapis">
	<node lat="62.42884166402305" lon="6.1880944539789535" id="-7783">
		<tag k="highway" v="path" />
		<tag k="name" v="Devoldrenna" />
		<tag k="ssr:stedsnr" v="217810" />
	</node>
	<node lat="62.43596944414794" lon="6.244661119649105" id="-7792">
		<tag k="bridge" v="yes" />
		<tag k="layer" v="1" />
		<tag k="name" v="Veddebrua" />
		<tag k="ssr:stedsnr" v="270323" />
	</node>
	<node lat="62.40821666609172" lon="6.251024996258113" id="-7793">
		<tag k="bridge" v="yes" />
		<tag k="layer" v="1" />
		<tag k="name" v="Eikremsbrua" />
		<tag k="ssr:stedsnr" v="270325" />
	</node>
	<node lat="62.42996388868988" lon="6.353572221242826" id="-7836">
		<tag k="bridge" v="yes" />
		<tag k="layer" v="1" />
		<tag k="name" v="Reitehaugbrua" />
		<tag k="ssr:stedsnr" v="452304" />
	</node>
	<node lat="62.43159167121164" lon="6.3559694487012575" id="-7850">
		<tag k="bridge" v="yes" />
		<tag k="layer" v="1" />
		<tag k="name" v="Vegsundbrua" />
		<tag k="ssr:stedsnr" v="512311" />
	</node>
	<node lat="62.42090000090907" lon="6.272758342658287" id="-7912">
		<tag k="bridge" v="yes" />
		<tag k="layer" v="1" />
		<tag k="name" v="Vågsbrua" />
		<tag k="ssr:stedsnr" v="755314" />
	</node>
	<node lat="62.44560278056295" lon="6.195097214577571" id="-7953">
		<tag k="man_made" v="quay" />
		<tag k="name" v="Stadsneshamna" />
		<tag k="place" v="locality" />
		<tag k="ssr:stedsnr" v="900111" />
	</node>
	<node lat="62.424925000136945" lon="6.304861103375388" id="-7967">
		<tag k="bridge" v="yes" />
		<tag k="layer" v="1" />
		<tag k="name" v="Bjørkavågsbrua" />
		<tag k="ssr:stedsnr" v="20459" />
	</node>
	<node lat="62.421338484683055" lon="6.280624636468356" id="-7971">
		<tag k="layer" v="-1" />
		<tag k="name" v="Furnestunnelen" />
		<tag k="ssr:stedsnr" v="27317" />
		<tag k="tunnel" v="yes" />
	</node>
	<node lat="62.429013885101945" lon="6.349072216941781" id="-7988">
		<tag k="bridge" v="yes" />
		<tag k="layer" v="1" />
		<tag k="name" v="Veibustbrua" />
		<tag k="ssr:stedsnr" v="88264" />
	</node>
	<node lat="62.416616665208686" lon="6.261991674338944" id="-8010">
		<tag k="bridge" v="yes" />
		<tag k="layer" v="1" />
		<tag k="name" v="Jakobbrua" />
		<tag k="ssr:stedsnr" v="148327" />
	</node>
	<node lat="62.418133335117055" lon="6.26817499418288" id="-8027">
		<tag k="bridge" v="yes" />
		<tag k="layer" v="1" />
		<tag k="name" v="Mausabrua" />
		<tag k="ssr:stedsnr" v="209315" />
	</node>
	<node lat="62.43700555167465" lon="6.277683335575373" id="-8053">
		<tag k="bridge" v="yes" />
		<tag k="layer" v="1" />
		<tag k="name" v="Valebrua" />
		<tag k="ssr:stedsnr" v="330316" />
	</node>
	<node lat="62.40426944585072" lon="6.24183055790731" id="-8054">
		<tag k="bridge" v="yes" />
		<tag k="layer" v="1" />
		<tag k="name" v="Storelvbrua" />
		<tag k="ssr:stedsnr" v="330317" />
	</node>
	<node lat="62.41204166214019" lon="6.256138879789984" id="-8071">
		<tag k="bridge" v="yes" />
		<tag k="layer" v="1" />
		<tag k="name" v="Storhaugbrua" />
		<tag k="ssr:stedsnr" v="391325" />
	</node>
	<node lat="62.42461388721692" lon="6.349447224117244" id="-8076">
		<tag k="highway" v="path" />
		<tag k="name" v="Torvvegen" />
		<tag k="ssr:stedsnr" v="399825" />
	</node>
	<node lat="62.39513283342728" lon="6.166865914009895" id="-8098">
		<tag k="amenity" v="ferry_terminal" />
		<tag k="name" v="Sulesund ferjekai" />
		<tag k="ssr:stedsnr" v="496895" />
	</node>
	<node lat="62.42740555710231" lon="6.316980560287597" id="-8101">
		<tag k="bridge" v="yes" />
		<tag k="layer" v="1" />
		<tag k="name" v="Eidsbrua" />
		<tag k="ssr:stedsnr" v="506477" />
	</node>
	<node lat="62.41373332959613" lon="6.327536110760812" id="-8104">
		<tag k="amenity" v="ferry_terminal" />
		<tag k="name" v="Solavågen ferjekai" />
		<tag k="old_name" v="Sunde ferjekai" />
		<tag k="ssr:stedsnr" v="512142" />
	</node>
	<node lat="62.43244444259821" lon="6.1591361205659805" id="-8215">
		<tag k="highway" v="path" />
		<tag k="name" v="Trippe" />
		<tag k="ssr:stedsnr" v="885894" />
	</node>
</osm>
