<?xml version="1.0" encoding="UTF-8"?>
<osm generator="osmapis" version="0.6">
	<node id="-7678" lat="62.4130138892" lon="6.30091111548">
		<tag k="name" v="Trollhaugen" />
		<tag k="natural" v="hill" />
		<tag k="place" v="locality" />
		<tag k="ssr:stedsnr" v="25235" />
	</node>
	<node id="-7672" lat="62.4294861128" lon="6.30548887956">
		<tag k="name" v="Grøthaugen" />
		<tag k="natural" v="hill" />
		<tag k="place" v="locality" />
		<tag k="ssr:stedsnr" v="217930" />
	</node>
	<node id="-7670" lat="62.4084472239" lon="6.24325555412">
		<tag k="name" v="Litle Staglehaugen" />
		<tag k="natural" v="hill" />
		<tag k="place" v="locality" />
		<tag k="ssr:stedsnr" v="217896" />
	</node>
	<node id="-8156" lat="62.421219443" lon="6.26212499343">
		<tag k="name" v="Svartevasshaugen" />
		<tag k="natural" v="hill" />
		<tag k="place" v="locality" />
		<tag k="ssr:stedsnr" v="874247" />
	</node>
	<node id="-8155" lat="62.4043972247" lon="6.2589388851">
		<tag k="name" v="Eikremsnakken" />
		<tag k="natural" v="hill" />
		<tag k="place" v="locality" />
		<tag k="ssr:stedsnr" v="874225" />
	</node>
	<node id="-8146" lat="62.4342972226" lon="6.07614721796">
		<tag k="fixme" v="consider natural=peak for the most distinct mountains in the district" />
		<tag k="name" v="Eltrane" />
		<tag k="natural" v="hill" />
		<tag k="place" v="locality" />
		<tag k="ssr:stedsnr" v="824941" />
	</node>
	<node id="-8144" lat="62.4132611107" lon="6.20539443999">
		<tag k="fixme" v="consider natural=peak for the most distinct mountains in the district" />
		<tag k="name" v="Taustua" />
		<tag k="natural" v="hill" />
		<tag k="place" v="locality" />
		<tag k="ssr:stedsnr" v="824849" />
	</node>
	<node id="-8143" lat="62.4370583357" lon="6.20282222187">
		<tag k="name" v="Sloghaugen" />
		<tag k="natural" v="hill" />
		<tag k="place" v="locality" />
		<tag k="ssr:stedsnr" v="824841" />
	</node>
	<node id="-8140" lat="62.410191668" lon="6.30221111792">
		<tag k="name" v="Lisjehjellhaugen" />
		<tag k="natural" v="hill" />
		<tag k="place" v="locality" />
		<tag k="ssr:stedsnr" v="814267" />
	</node>
	<node id="-8139" lat="62.4168666625" lon="6.27414444251">
		<tag k="name" v="Nakken" />
		<tag k="natural" v="hill" />
		<tag k="place" v="locality" />
		<tag k="ssr:stedsnr" v="814265" />
	</node>
	<node id="-8138" lat="62.4153722201" lon="6.29614721738">
		<tag k="name" v="Dorgerhaugen" />
		<tag k="natural" v="hill" />
		<tag k="place" v="locality" />
		<tag k="ssr:stedsnr" v="814258" />
	</node>
	<node id="-8119" lat="62.4194083369" lon="6.34873332962">
		<tag k="name" v="Haggardhaugsletta" />
		<tag k="place" v="locality" />
		<tag k="ssr:stedsnr" v="763892" />
	</node>
	<node id="-8116" lat="62.4062388918" lon="6.15471944565">
		<tag k="fixme" v="consider natural=peak for the most distinct mountains in the district" />
		<tag k="name" v="Tussnipen" />
		<tag k="natural" v="hill" />
		<tag k="place" v="locality" />
		<tag k="ssr:stedsnr" v="763841" />
	</node>
	<node id="-8115" lat="62.4277999974" lon="6.15976944499">
		<tag k="name" v="Grønbakkhola" />
		<tag k="natural" v="valley" />
		<tag k="place" v="locality" />
		<tag k="ssr:stedsnr" v="763801" />
	</node>
	<node id="-8110" lat="62.4099443064" lon="6.24302283792">
		<tag k="name" v="Staglehaugane" />
		<tag k="natural" v="hill" />
		<tag k="place" v="locality" />
		<tag k="ssr:stedsnr" v="753167" />
	</node>
	<node id="-8108" lat="62.4243805568" lon="6.33567222672">
		<tag k="name" v="Høgefjellet" />
		<tag k="natural" v="hill" />
		<tag k="place" v="locality" />
		<tag k="ssr:stedsnr" v="753151" />
	</node>
	<node id="-8106" lat="62.4306750012" lon="6.13242500276">
		<tag k="fixme" v="consider natural=peak for the most distinct mountains in the district" />
		<tag k="name" v="Kjellingsethornet" />
		<tag k="natural" v="hill" />
		<tag k="place" v="locality" />
		<tag k="ssr:stedsnr" v="739889" />
	</node>
	<node id="-8102" lat="62.4223749966" lon="6.21935832768">
		<tag k="alt_name" v="Veddeberget" />
		<tag k="name" v="Veddehjellane" />
		<tag k="natural" v="hill" />
		<tag k="place" v="locality" />
		<tag k="ssr:stedsnr" v="738096" />
	</node>
	<node id="-8101" lat="62.412453245" lon="6.30056606179">
		<tag k="fixme" v="consider natural=peak for the most distinct mountains in the district" />
		<tag k="name" v="Solavågsfjellet" />
		<tag k="natural" v="hill" />
		<tag k="place" v="locality" />
		<tag k="ssr:stedsnr" v="738076" />
	</node>
	<node id="-8097" lat="62.4041916677" lon="6.29488056433">
		<tag k="name" v="Ramsvikhaugane" />
		<tag k="natural" v="hill" />
		<tag k="place" v="locality" />
		<tag k="ssr:stedsnr" v="642895" />
	</node>
	<node id="-8096" lat="62.4147749991" lon="6.34057500567">
		<tag k="name" v="Legeberget" />
		<tag k="natural" v="hill" />
		<tag k="place" v="locality" />
		<tag k="ssr:stedsnr" v="642876" />
	</node>
	<node id="-8094" lat="62.4046499992" lon="6.11734723188">
		<tag k="name" v="Lynglegda" />
		<tag k="natural" v="valley" />
		<tag k="place" v="locality" />
		<tag k="ssr:stedsnr" v="641760" />
	</node>
	<node id="-8093" lat="62.4257999968" lon="6.35254167548">
		<tag k="name" v="Veibustfjellet" />
		<tag k="natural" v="hill" />
		<tag k="place" v="locality" />
		<tag k="ssr:stedsnr" v="634604" />
	</node>
	<node id="-8081" lat="62.4434166654" lon="6.19388332504">
		<tag k="name" v="Haugane" />
		<tag k="natural" v="hill" />
		<tag k="place" v="locality" />
		<tag k="ssr:stedsnr" v="581946" />
	</node>
	<node id="-8080" lat="62.4319944463" lon="6.17781112006">
		<tag k="name" v="Rotene" />
		<tag k="natural" v="slope" />
		<tag k="place" v="locality" />
		<tag k="ssr:stedsnr" v="581926" />
	</node>
	<node id="-8079" lat="62.4082027754" lon="6.29606389169">
		<tag k="name" v="Halseskaret" />
		<tag k="natural" v="valley" />
		<tag k="place" v="locality" />
		<tag k="ssr:stedsnr" v="581924" />
	</node>
	<node id="-8076" lat="62.4407722199" lon="6.1977777813">
		<tag k="name" v="Djupdalen" />
		<tag k="natural" v="valley" />
		<tag k="place" v="locality" />
		<tag k="ssr:stedsnr" v="581857" />
	</node>
	<node id="-8072" lat="62.4246666691" lon="6.34413333559">
		<tag k="name" v="Kamben" />
		<tag k="natural" v="hill" />
		<tag k="place" v="locality" />
		<tag k="ssr:stedsnr" v="571177" />
	</node>
	<node id="-8071" lat="62.4208361103" lon="6.28378054868">
		<tag k="name" v="Furnesfjellet" />
		<tag k="natural" v="hill" />
		<tag k="place" v="locality" />
		<tag k="ssr:stedsnr" v="570167" />
	</node>
	<node id="-8070" lat="62.4063388909" lon="6.28983611982">
		<tag k="name" v="Sætrenakken" />
		<tag k="natural" v="hill" />
		<tag k="place" v="locality" />
		<tag k="ssr:stedsnr" v="570165" />
	</node>
	<node id="-8069" lat="62.4095277765" lon="6.29760554873">
		<tag k="name" v="Storhjellhaugen" />
		<tag k="natural" v="hill" />
		<tag k="place" v="locality" />
		<tag k="ssr:stedsnr" v="570164" />
	</node>
	<node id="-8066" lat="62.4035416699" lon="6.1885972285">
		<tag k="fixme" v="consider natural=peak for the most distinct mountains in the district" />
		<tag k="name" v="Skallen" />
		<tag k="natural" v="hill" />
		<tag k="place" v="locality" />
		<tag k="ssr:stedsnr" v="557887" />
	</node>
	<node id="-8063" lat="62.4086666687" lon="6.13420277061">
		<tag k="fixme" v="consider natural=peak for the most distinct mountains in the district" />
		<tag k="name" v="Sulabakkhornet" />
		<tag k="natural" v="hill" />
		<tag k="place" v="locality" />
		<tag k="ssr:stedsnr" v="556881" />
	</node>
	<node id="-8060" lat="62.4353666678" lon="6.22764999909">
		<tag k="name" v="Gjerdshaugen" />
		<tag k="natural" v="hill" />
		<tag k="place" v="locality" />
		<tag k="ssr:stedsnr" v="543654" />
	</node>
	<node id="-8056" lat="62.4038055589" lon="6.18426110317">
		<tag k="name" v="Skallerøra" />
		<tag k="natural" v="ridge" />
		<tag k="place" v="locality" />
		<tag k="ssr:stedsnr" v="521910" />
	</node>
	<node id="-8055" lat="62.4167944406" lon="6.32369444919">
		<tag k="name" v="Nausthaugen" />
		<tag k="natural" v="hill" />
		<tag k="place" v="locality" />
		<tag k="ssr:stedsnr" v="521886" />
	</node>
	<node id="-8054" lat="62.418855559" lon="6.33089443618">
		<tag k="fixme" v="consider natural=peak for the most distinct mountains in the district" />
		<tag k="name" v="Sundnakken" />
		<tag k="natural" v="hill" />
		<tag k="place" v="locality" />
		<tag k="ssr:stedsnr" v="521836" />
	</node>
	<node id="-8051" lat="62.4010361077" lon="6.23475000333">
		<tag k="name" v="Raudhammaren" />
		<tag k="natural" v="cliff" />
		<tag k="ssr:stedsnr" v="520886" />
	</node>
	<node id="-8039" lat="62.4098249955" lon="6.31321665887">
		<tag k="name" v="Nausa" />
		<tag k="natural" v="ridge" />
		<tag k="place" v="locality" />
		<tag k="ssr:stedsnr" v="399843" />
	</node>
	<node id="-8031" lat="62.4220194416" lon="6.302211117">
		<tag k="name" v="Porsenakken" />
		<tag k="natural" v="hill" />
		<tag k="place" v="locality" />
		<tag k="ssr:stedsnr" v="388180" />
	</node>
	<node id="-8020" lat="62.407633329" lon="6.29260277541">
		<tag k="name" v="Halsen" />
		<tag k="natural" v="valley" />
		<tag k="place" v="locality" />
		<tag k="ssr:stedsnr" v="338897" />
	</node>
	<node id="-8019" lat="62.4107611123" lon="6.24084443584">
		<tag k="name" v="Store Staglehaugen" />
		<tag k="natural" v="hill" />
		<tag k="place" v="locality" />
		<tag k="ssr:stedsnr" v="338892" />
	</node>
	<node id="-8018" lat="62.4199000022" lon="6.26391110985">
		<tag k="name" v="Høgstehaugen" />
		<tag k="natural" v="hill" />
		<tag k="place" v="locality" />
		<tag k="ssr:stedsnr" v="328194" />
	</node>
	<node id="-8017" lat="62.4173777757" lon="6.29257777519">
		<tag k="name" v="Ruskenakken" />
		<tag k="natural" v="hill" />
		<tag k="place" v="locality" />
		<tag k="ssr:stedsnr" v="328190" />
	</node>
	<node id="-8016" lat="62.4201805527" lon="6.07960833115">
		<tag k="name" v="Flåa" />
		<tag k="old_name" v="Flåna" />
		<tag k="place" v="locality" />
		<tag k="ssr:stedsnr" v="314900" />
	</node>
	<node id="-8007" lat="62.4267083355" lon="6.32042778553">
		<tag k="name" v="Stølenakken" />
		<tag k="natural" v="hill" />
		<tag k="place" v="locality" />
		<tag k="ssr:stedsnr" v="207183" />
	</node>
	<node id="-8005" lat="62.4240777807" lon="6.10071666248">
		<tag k="fixme" v="consider natural=peak for the most distinct mountains in the district" />
		<tag k="name" v="Langerabben" />
		<tag k="natural" v="hill" />
		<tag k="place" v="locality" />
		<tag k="ssr:stedsnr" v="193899" />
	</node>
	<node id="-7997" lat="62.4283194451" lon="6.30797221977">
		<tag k="alt_name" v="Storehaugen" />
		<tag k="name" v="Storvalen" />
		<tag k="natural" v="hill" />
		<tag k="place" v="locality" />
		<tag k="ssr:stedsnr" v="156914" />
	</node>
	<node id="-7992" lat="62.4105500003" lon="6.32115834082">
		<tag k="name" v="Verpingsberga" />
		<tag k="natural" v="hill" />
		<tag k="place" v="locality" />
		<tag k="ssr:stedsnr" v="156826" />
	</node>
	<node id="-7991" lat="62.44008889" lon="6.15591111068">
		<tag k="name" v="Styggemannshola" />
		<tag k="place" v="locality" />
		<tag k="ssr:stedsnr" v="156818" />
	</node>
	<node id="-7987" lat="62.4107861085" lon="6.29358055904">
		<tag k="name" v="Storskarnakken" />
		<tag k="natural" v="hill" />
		<tag k="place" v="locality" />
		<tag k="ssr:stedsnr" v="146194" />
	</node>
	<node id="-7983" lat="62.4250722238" lon="6.33578332911">
		<tag k="alt_name" v="Høgefjellet" />
		<tag k="fixme" v="consider natural=peak for the most distinct mountains in the district" />
		<tag k="name" v="Leirvågfjellet" />
		<tag k="natural" v="hill" />
		<tag k="place" v="locality" />
		<tag k="ssr:stedsnr" v="132077" />
	</node>
	<node id="-7977" lat="62.4066944478" lon="6.11156944131">
		<tag k="name" v="Storstølbrua" />
		<tag k="natural" v="cliff" />
		<tag k="ssr:stedsnr" v="96848" />
	</node>
	<node id="-7975" lat="62.4380666696" lon="6.21889165846">
		<tag k="name" v="Bratthaugen" />
		<tag k="natural" v="hill" />
		<tag k="place" v="locality" />
		<tag k="ssr:stedsnr" v="96830" />
	</node>
	<node id="-7954" lat="62.4061500028" lon="6.3134722315">
		<tag k="name" v="Skarvhammaren" />
		<tag k="natural" v="cliff" />
		<tag k="ssr:stedsnr" v="35876" />
	</node>
	<node id="-7925" lat="62.4025416685" lon="6.12084722387">
		<tag k="name" v="Furukammen" />
		<tag k="natural" v="ridge" />
		<tag k="place" v="locality" />
		<tag k="ssr:stedsnr" v="946911" />
	</node>
	<node id="-7924" lat="62.4163194458" lon="6.32341110251">
		<tag k="name" v="Nausthaugen" />
		<tag k="natural" v="hill" />
		<tag k="place" v="locality" />
		<tag k="ssr:stedsnr" v="946850" />
	</node>
	<node id="-7919" lat="62.4243305598" lon="6.32861666701">
		<tag k="name" v="Leirvågdalen" />
		<tag k="natural" v="valley" />
		<tag k="place" v="locality" />
		<tag k="ssr:stedsnr" v="885819" />
	</node>
	<node id="-7916" lat="62.4140166684" lon="6.33278611192">
		<tag k="name" v="Storhaugen" />
		<tag k="natural" v="hill" />
		<tag k="place" v="locality" />
		<tag k="ssr:stedsnr" v="946901" />
	</node>
	<node id="-7913" lat="62.4326055539" lon="6.15745555104">
		<tag k="fixme" v="consider natural=peak for the most distinct mountains in the district" />
		<tag k="name" v="Blåfjellet" />
		<tag k="natural" v="hill" />
		<tag k="place" v="locality" />
		<tag k="ssr:stedsnr" v="860914" />
	</node>
	<node id="-7906" lat="62.4327777756" lon="6.28496389791">
		<tag k="name" v="Kyrkjehaugen" />
		<tag k="natural" v="hill" />
		<tag k="place" v="locality" />
		<tag k="ssr:stedsnr" v="935199" />
	</node>
	<node id="-7905" lat="62.4073833302" lon="6.26232499633">
		<tag k="name" v="Ruskenakken" />
		<tag k="natural" v="hill" />
		<tag k="place" v="locality" />
		<tag k="ssr:stedsnr" v="935184" />
	</node>
	<node id="-7904" lat="62.4222090738" lon="6.35431664418">
		<tag k="name" v="Brudehammaren" />
		<tag k="natural" v="hill" />
		<tag k="place" v="locality" />
		<tag k="ssr:stedsnr" v="935163" />
	</node>
	<node id="-7893" lat="62.4132777792" lon="6.16556388049">
		<tag k="fixme" v="consider natural=peak for the most distinct mountains in the district" />
		<tag k="name" v="Vardane" />
		<tag k="natural" v="hill" />
		<tag k="place" v="locality" />
		<tag k="ssr:stedsnr" v="921871" />
	</node>
	<node id="-7886" lat="62.4111749968" lon="6.18100556051">
		<tag k="name" v="Heia" />
		<tag k="natural" v="hill" />
		<tag k="place" v="locality" />
		<tag k="ssr:stedsnr" v="763822" />
	</node>
	<node id="-7883" lat="62.4322444453" lon="6.19257500881">
		<tag k="name" v="Harhaugen" />
		<tag k="natural" v="hill" />
		<tag k="place" v="locality" />
		<tag k="ssr:stedsnr" v="763817" />
	</node>
	<node id="-7878" lat="62.4033055512" lon="6.17206388763">
		<tag k="alt_name" v="Sulesundnipen" />
		<tag k="fixme" v="consider natural=peak for the most distinct mountains in the district" />
		<tag k="name" v="Sundsnipa" />
		<tag k="natural" v="hill" />
		<tag k="old_name" v="Sulasundnipa" />
		<tag k="place" v="locality" />
		<tag k="ssr:stedsnr" v="739867" />
	</node>
	<node id="-7877" lat="62.4215777815" lon="6.20294444437">
		<tag k="fixme" v="consider natural=peak for the most distinct mountains in the district" />
		<tag k="name" v="Svanshornet" />
		<tag k="natural" v="hill" />
		<tag k="place" v="locality" />
		<tag k="ssr:stedsnr" v="739911" />
	</node>
	<node id="-7865" lat="62.4014333362" lon="6.12328889704">
		<tag k="name" v="Høgfloget" />
		<tag k="natural" v="cliff" />
		<tag k="ssr:stedsnr" v="885835" />
	</node>
	<node id="-7858" lat="62.4141277804" lon="6.20227499246">
		<tag k="name" v="Taustudalen" />
		<tag k="natural" v="valley" />
		<tag k="place" v="locality" />
		<tag k="ssr:stedsnr" v="642823" />
	</node>
	<node id="-7850" lat="62.4338277822" lon="6.07855000866">
		<tag k="alt_name" v="Høgenausa;Trælbånausa" />
		<tag k="fixme" v="consider natural=peak for the most distinct mountains in the district" />
		<tag k="name" v="Trælbodnausa" />
		<tag k="natural" v="hill" />
		<tag k="place" v="locality" />
		<tag k="ssr:stedsnr" v="617957" />
	</node>
	<node id="-7836" lat="62.4054833322" lon="6.15061388955">
		<tag k="name" v="Adensgjølet" />
		<tag k="natural" v="gorge" />
		<tag k="ssr:stedsnr" v="703927" />
	</node>
	<node id="-7830" lat="62.4216611068" lon="6.34641110759">
		<tag k="name" v="Bruna" />
		<tag k="natural" v="ridge" />
		<tag k="place" v="locality" />
		<tag k="ssr:stedsnr" v="703857" />
	</node>
	<node id="-7829" lat="62.4129833334" lon="6.29604445338">
		<tag k="name" v="Vasshaugane" />
		<tag k="natural" v="hill" />
		<tag k="place" v="locality" />
		<tag k="ssr:stedsnr" v="703853" />
	</node>
	<node id="-7824" lat="62.4226416661" lon="6.29917221821">
		<tag k="name" v="Gjerdenakken" />
		<tag k="natural" v="hill" />
		<tag k="place" v="locality" />
		<tag k="ssr:stedsnr" v="703830" />
	</node>
	<node id="-7822" lat="62.416691665" lon="6.17388056006">
		<tag k="fixme" v="consider natural=peak for the most distinct mountains in the district" />
		<tag k="name" v="Rundehornet" />
		<tag k="natural" v="hill" />
		<tag k="place" v="locality" />
		<tag k="ssr:stedsnr" v="556920" />
	</node>
	<node id="-7818" lat="62.4151555584" lon="6.2542138823">
		<tag k="name" v="Storhaugen" />
		<tag k="natural" v="hill" />
		<tag k="place" v="locality" />
		<tag k="ssr:stedsnr" v="692188" />
	</node>
	<node id="-7817" lat="62.4230638849" lon="6.34669722403">
		<tag k="name" v="Sætrenakkane" />
		<tag k="natural" v="hill" />
		<tag k="place" v="locality" />
		<tag k="ssr:stedsnr" v="692164" />
	</node>
	<node id="-7807" lat="62.4101833308" lon="6.14813612096">
		<tag k="fixme" v="consider natural=peak for the most distinct mountains in the district" />
		<tag k="name" v="Tverrfjellet" />
		<tag k="natural" v="hill" />
		<tag k="place" v="locality" />
		<tag k="ssr:stedsnr" v="678862" />
	</node>
	<node id="-7799" lat="62.4066305584" lon="6.30342222118">
		<tag k="name" v="Blåfjellet" />
		<tag k="natural" v="hill" />
		<tag k="place" v="locality" />
		<tag k="ssr:stedsnr" v="450202" />
	</node>
	<node id="-7797" lat="62.4062527757" lon="6.15489999424">
		<tag k="fixme" v="consider natural=peak for the most distinct mountains in the district" />
		<tag k="name" v="Røysahornet" />
		<tag k="natural" v="hill" />
		<tag k="place" v="locality" />
		<tag k="ssr:stedsnr" v="436874" />
	</node>
	<node id="-7792" lat="62.4042629197" lon="6.25871218705">
		<tag k="fixme" v="consider natural=peak for the most distinct mountains in the district" />
		<tag k="name" v="Ruskenakken" />
		<tag k="natural" v="hill" />
		<tag k="place" v="locality" />
		<tag k="ssr:stedsnr" v="435143" />
	</node>
	<node id="-7788" lat="62.4312388914" lon="6.26690555437">
		<tag k="name" v="Ferdahaugen" />
		<tag k="natural" v="hill" />
		<tag k="place" v="locality" />
		<tag k="ssr:stedsnr" v="510222" />
	</node>
	<node id="-7787" lat="62.4179583332" lon="6.31561388064">
		<tag k="name" v="Geitlihaugen" />
		<tag k="natural" v="hill" />
		<tag k="place" v="locality" />
		<tag k="ssr:stedsnr" v="510200" />
	</node>
	<node id="-7786" lat="62.4177111099" lon="6.35762777228">
		<tag k="name" v="Lahella" />
		<tag k="natural" v="hill" />
		<tag k="place" v="locality" />
		<tag k="ssr:stedsnr" v="399914" />
	</node>
	<node id="-7783" lat="62.4185527763" lon="6.34198055853">
		<tag k="name" v="Svenakken" />
		<tag k="natural" v="hill" />
		<tag k="place" v="locality" />
		<tag k="ssr:stedsnr" v="389179" />
	</node>
	<node id="-7781" lat="62.4117166639" lon="6.28636944872">
		<tag k="name" v="Barlindnakkane" />
		<tag k="natural" v="hill" />
		<tag k="place" v="locality" />
		<tag k="ssr:stedsnr" v="388175" />
	</node>
	<node id="-7759" lat="62.4357847586" lon="6.18300272143">
		<tag k="name" v="Bjørkhaugen" />
		<tag k="natural" v="hill" />
		<tag k="place" v="locality" />
		<tag k="ssr:stedsnr" v="460936" />
	</node>
	<node id="-7758" lat="62.4055694479" lon="6.26090555165">
		<tag k="name" v="Hansskaret" />
		<tag k="natural" v="valley" />
		<tag k="place" v="locality" />
		<tag k="ssr:stedsnr" v="460932" />
	</node>
	<node id="-7757" lat="62.4096055524" lon="6.10153055534">
		<tag k="name" v="Skotet" />
		<tag k="natural" v="ridge" />
		<tag k="place" v="locality" />
		<tag k="ssr:stedsnr" v="460887" />
	</node>
	<node id="-7756" lat="62.4160861089" lon="6.31051111202">
		<tag k="name" v="Rothaugen" />
		<tag k="natural" v="hill" />
		<tag k="place" v="locality" />
		<tag k="ssr:stedsnr" v="460885" />
	</node>
	<node id="-7752" lat="62.4129555521" lon="6.22201944767">
		<tag k="name" v="Fallhammaren" />
		<tag k="natural" v="ridge" />
		<tag k="place" v="locality" />
		<tag k="ssr:stedsnr" v="460877" />
	</node>
	<node id="-7749" lat="62.4358861079" lon="6.15834999446">
		<tag k="name" v="Såthaugane" />
		<tag k="natural" v="hill" />
		<tag k="place" v="locality" />
		<tag k="ssr:stedsnr" v="460849" />
	</node>
	<node id="-7736" lat="62.4027472219" lon="6.24790556339">
		<tag k="name" v="Nausthaugen" />
		<tag k="natural" v="hill" />
		<tag k="place" v="locality" />
		<tag k="ssr:stedsnr" v="217822" />
	</node>
	<node id="-7735" lat="62.4240138927" lon="6.35384722697">
		<tag k="name" v="Breidalen" />
		<tag k="natural" v="valley" />
		<tag k="place" v="locality" />
		<tag k="ssr:stedsnr" v="217815" />
	</node>
	<node id="-7731" lat="62.4138861141" lon="6.20611389267">
		<tag k="name" v="Litlebakken" />
		<tag k="natural" v="slope" />
		<tag k="place" v="locality" />
		<tag k="ssr:stedsnr" v="217906" />
	</node>
	<node id="-7726" lat="62.4296249973" lon="6.10911388163">
		<tag k="fixme" v="consider natural=peak for the most distinct mountains in the district" />
		<tag k="name" v="Flesjehornet" />
		<tag k="natural" v="hill" />
		<tag k="place" v="locality" />
		<tag k="ssr:stedsnr" v="193902" />
	</node>
	<node id="-7719" lat="62.4261500025" lon="6.32145554916">
		<tag k="name" v="Støleskaret" />
		<tag k="natural" v="valley" />
		<tag k="place" v="locality" />
		<tag k="ssr:stedsnr" v="278946" />
	</node>
	<node id="-7713" lat="62.4066555534" lon="6.29413056162">
		<tag k="name" v="Ramsvikløypa" />
		<tag k="natural" v="valley" />
		<tag k="place" v="locality" />
		<tag k="ssr:stedsnr" v="278859" />
	</node>
	<node id="-7708" lat="62.4283388927" lon="6.27385556472">
		<tag k="name" v="Kvernhushaugen" />
		<tag k="natural" v="hill" />
		<tag k="place" v="locality" />
		<tag k="ssr:stedsnr" v="146219" />
	</node>
	<node id="-7702" lat="62.407466669" lon="6.24148055049">
		<tag k="name" v="Stormyrhaugen" />
		<tag k="natural" v="hill" />
		<tag k="place" v="locality" />
		<tag k="ssr:stedsnr" v="267175" />
	</node>
	<node id="-7700" lat="62.4208290614" lon="6.35750749952">
		<tag k="name" v="Furehaugen" />
		<tag k="natural" v="hill" />
		<tag k="place" v="locality" />
		<tag k="ssr:stedsnr" v="267131" />
	</node>
	<node id="-7682" lat="62.4250250013" lon="6.13906944217">
		<tag k="alt_name" v="Grjothornet" />
		<tag k="fixme" v="consider natural=peak for the most distinct mountains in the district" />
		<tag k="name" v="Grøthornet" />
		<tag k="natural" v="hill" />
		<tag k="place" v="locality" />
		<tag k="ssr:stedsnr" v="71930" />
	</node>
</osm>
