<?xml version="1.0" encoding="UTF-8"?>
<<<<<<< HEAD
<osm version="0.6" generator="osmapis">
	<node lat="62.419230554981866" lon="6.130788888854215" id="-3187">
		<tag k="name" v="Myrane" />
=======
<osm generator="osmapis" version="0.6">
	<node id="-70432" lat="62.4311249962" lon="6.17563333998">
		<tag k="name" v="Klovsteinane" />
		<tag k="natural" v="stone" />
		<tag k="ssr:stedsnr" v="399820" />
	</node>
	<node id="-70074" lat="62.419230555" lon="6.13078888885">
		<tag k="name" v="Myrane" />
		<tag k="natural" v="wetland" />
		<tag k="ssr:stedsnr" v="11923" />
	</node>
	<node id="-70266" lat="62.4437583354" lon="6.19728055413">
		<tag k="landuse" v="meadow" />
		<tag k="name" v="Nymarka" />
		<tag k="ssr:stedsnr" v="885884" />
	</node>
	<node id="-70393" lat="62.4295361142" lon="6.34945554971">
		<tag k="name" v="Vassmyra" />
>>>>>>> e1d4bc35ff8a6074a6f2e91616a996b547c36f15
		<tag k="natural" v="wetland" />
		<tag k="ssr:stedsnr" v="11923" />
	</node>
<<<<<<< HEAD
	<node lat="62.400194440357566" lon="6.117347215468559" id="-3205">
		<tag k="name" v="Kårsteinen" />
		<tag k="natural" v="stone" />
		<tag k="ssr:stedsnr" v="96913" />
	</node>
	<node lat="62.407141669607576" lon="6.293416675896096" id="-3219">
=======
	<node id="-70391" lat="62.4071416696" lon="6.2934166759">
>>>>>>> e1d4bc35ff8a6074a6f2e91616a996b547c36f15
		<tag k="historic" v="shieling" />
		<tag k="name" v="Ramsvikstølen" />
		<tag k="place" v="locality" />
		<tag k="ssr:stedsnr" v="156849" />
	</node>
<<<<<<< HEAD
	<node lat="62.41965277520477" lon="6.331774992535714" id="-3254">
		<tag k="name" v="Sundsmyra" />
		<tag k="natural" v="wetland" />
		<tag k="ssr:stedsnr" v="460882" />
	</node>
	<node lat="62.438399999174884" lon="6.1249277777572315" id="-3276">
		<tag k="name" v="Flesje" />
		<tag k="place" v="locality" />
		<tag k="ssr:stedsnr" v="399829" />
	</node>
	<node lat="62.42052778025741" lon="6.305797225373976" id="-3322">
=======
	<node id="-70390" lat="62.4253416641" lon="6.17916666302">
		<tag k="historic" v="shieling" />
		<tag k="name" v="Gamlestølen" />
		<tag k="place" v="locality" />
		<tag k="ssr:stedsnr" v="156830" />
	</node>
	<node id="-70261" lat="62.4066111117" lon="6.09882223008">
		<tag k="name" v="Hågarn" />
		<tag k="natural" v="stone" />
		<tag k="ssr:stedsnr" v="885832" />
	</node>
	<node id="-70383" lat="62.4354972227" lon="6.08445278301">
		<tag k="name" v="Storura" />
		<tag k="natural" v="scree" />
		<tag k="ssr:stedsnr" v="132957" />
	</node>
	<node id="-70222" lat="62.4205277803" lon="6.30579722537">
>>>>>>> e1d4bc35ff8a6074a6f2e91616a996b547c36f15
		<tag k="name" v="Demningsmyra" />
		<tag k="natural" v="wetland" />
		<tag k="ssr:stedsnr" v="703831" />
	</node>
<<<<<<< HEAD
	<node lat="62.4178833377294" lon="6.190194442651877" id="-3365">
		<tag k="name" v="Sauegeila" />
		<tag k="place" v="locality" />
		<tag k="ssr:stedsnr" v="763818" />
	</node>
	<node lat="62.434730557092074" lon="6.195558337124971" id="-3394">
=======
	<node id="-70315" lat="62.4347305571" lon="6.19555833712">
>>>>>>> e1d4bc35ff8a6074a6f2e91616a996b547c36f15
		<tag k="name" v="Legene" />
		<tag k="place" v="locality" />
		<tag k="ssr:stedsnr" v="885816" />
	</node>
<<<<<<< HEAD
	<node lat="62.409269444091535" lon="6.240905562577329" id="-3434">
		<tag k="name" v="Storemyra" />
		<tag k="natural" v="wetland" />
		<tag k="ssr:stedsnr" v="96837" />
	</node>
	<node lat="62.42534166405209" lon="6.17916666301906" id="-3440">
		<tag k="historic" v="shieling" />
		<tag k="name" v="Gamlestølen" />
=======
	<node id="-70090" lat="62.4001944404" lon="6.11734721547">
		<tag k="name" v="Kårsteinen" />
		<tag k="natural" v="stone" />
		<tag k="ssr:stedsnr" v="96913" />
	</node>
	<node id="-70281" lat="62.4178833377" lon="6.19019444265">
		<tag k="name" v="Sauegeila" />
>>>>>>> e1d4bc35ff8a6074a6f2e91616a996b547c36f15
		<tag k="place" v="locality" />
		<tag k="ssr:stedsnr" v="156830" />
	</node>
<<<<<<< HEAD
	<node lat="62.43549722270623" lon="6.0844527830119475" id="-3446">
		<tag k="name" v="Storura" />
		<tag k="natural" v="scree" />
		<tag k="ssr:stedsnr" v="132957" />
	</node>
	<node lat="62.42953611418683" lon="6.349455549706" id="-3453">
		<tag k="name" v="Vassmyra" />
		<tag k="natural" v="wetland" />
		<tag k="ssr:stedsnr" v="156892" />
	</node>
	<node lat="62.405561107511886" lon="6.299316660874688" id="-3470">
=======
	<node id="-70151" lat="62.4196527752" lon="6.33177499254">
		<tag k="name" v="Sundsmyra" />
		<tag k="natural" v="wetland" />
		<tag k="ssr:stedsnr" v="460882" />
	</node>
	<node id="-70114" lat="62.4055611075" lon="6.29931666087">
>>>>>>> e1d4bc35ff8a6074a6f2e91616a996b547c36f15
		<tag k="name" v="Ramsvikura" />
		<tag k="natural" v="scree" />
		<tag k="ssr:stedsnr" v="278875" />
	</node>
<<<<<<< HEAD
	<node lat="62.43112499624735" lon="6.175633339977064" id="-3512">
		<tag k="name" v="Klovsteinane" />
		<tag k="natural" v="stone" />
		<tag k="ssr:stedsnr" v="399820" />
	</node>
	<node lat="62.41303611307898" lon="6.0831111019207285" id="-3567">
=======
	<node id="-70373" lat="62.4092694441" lon="6.24090556258">
		<tag k="name" v="Storemyra" />
		<tag k="natural" v="wetland" />
		<tag k="ssr:stedsnr" v="96837" />
	</node>
	<node id="-70473" lat="62.4130361131" lon="6.08311110192">
>>>>>>> e1d4bc35ff8a6074a6f2e91616a996b547c36f15
		<tag k="name" v="Ølkonå" />
		<tag k="natural" v="stone" />
		<tag k="ssr:stedsnr" v="581867" />
	</node>
<<<<<<< HEAD
	<node lat="62.44375833535268" lon="6.197280554128085" id="-3640">
		<tag k="landuse" v="meadow" />
		<tag k="name" v="Nymarka" />
		<tag k="ssr:stedsnr" v="885884" />
	</node>
	<node lat="62.406611111743786" lon="6.098822230084942" id="-3642">
		<tag k="name" v="Hågarn" />
		<tag k="natural" v="stone" />
		<tag k="ssr:stedsnr" v="885832" />
=======
	<node id="-70434" lat="62.4383999992" lon="6.12492777776">
		<tag k="name" v="Flesje" />
		<tag k="place" v="locality" />
		<tag k="ssr:stedsnr" v="399829" />
>>>>>>> e1d4bc35ff8a6074a6f2e91616a996b547c36f15
	</node>
</osm>
