<?xml version="1.0" encoding="UTF-8"?>
<<<<<<< HEAD
<osm version="0.6" generator="osmapis">
	<node lat="62.42943055355363" lon="6.22011667190074" id="-3186">
		<tag k="name" v="Sætrevatnet" />
		<tag k="natural" v="water" />
		<tag k="ssr:stedsnr" v="11028" />
	</node>
	<node lat="62.4386305573219" lon="6.262780563510966" id="-3193">
		<tag k="name" v="Djupvikvatnet" />
		<tag k="natural" v="water" />
		<tag k="ssr:stedsnr" v="240794" />
		<tag k="water" v="lake" />
	</node>
	<node lat="62.42571944073673" lon="6.082072223413897" id="-3194">
		<tag k="name" v="Raudneselva" />
		<tag k="ssr:stedsnr" v="71927" />
		<tag k="waterway" v="stream" />
	</node>
	<node lat="62.42894444510049" lon="6.148294449426842" id="-3199">
		<tag k="name" v="Eltratjønna" />
		<tag k="natural" v="water" />
		<tag k="ssr:stedsnr" v="88911" />
	</node>
	<node lat="62.428419445449954" lon="6.16095278515929" id="-3210">
		<tag k="name" v="Steinelva" />
		<tag k="ssr:stedsnr" v="253922" />
		<tag k="waterway" v="stream" />
	</node>
	<node lat="62.446177774063926" lon="6.220863888897238" id="-3227">
		<tag k="name" v="Vågevatnet" />
		<tag k="natural" v="water" />
		<tag k="ssr:stedsnr" v="210925" />
	</node>
	<node lat="62.432766669884664" lon="6.274902786054095" id="-3238">
		<tag k="name" v="Endrevatnet" />
		<tag k="natural" v="water" />
		<tag k="ssr:stedsnr" v="454000" />
		<tag k="water" v="lake" />
	</node>
	<node lat="62.427183336168554" lon="6.264950000451826" id="-3239">
		<tag k="name" v="Raudåvatnet" />
		<tag k="natural" v="water" />
		<tag k="ssr:stedsnr" v="253076" />
	</node>
	<node lat="62.43333055506601" lon="6.117811111185333" id="-3253">
		<tag k="name" v="Flesje-elva" />
		<tag k="ssr:stedsnr" v="460879" />
		<tag k="waterway" v="stream" />
	</node>
	<node lat="62.42901110957072" lon="6.099713888806278" id="-3255">
		<tag k="name" v="Sætrevatnet" />
		<tag k="natural" v="water" />
		<tag k="ssr:stedsnr" v="460883" />
	</node>
	<node lat="62.424855558249405" lon="6.129105560316509" id="-3281">
		<tag k="name" v="Kjerringvatnet" />
		<tag k="natural" v="water" />
		<tag k="ssr:stedsnr" v="436912" />
	</node>
	<node lat="62.431277781531804" lon="6.216319448370988" id="-3298">
=======
<osm generator="osmapis" version="0.6">
	<node id="-70208" lat="62.4312777815" lon="6.21631944837">
>>>>>>> e1d4bc35ff8a6074a6f2e91616a996b547c36f15
		<tag k="name" v="Sætrevatnet" />
		<tag k="natural" v="water" />
		<tag k="ssr:stedsnr" v="496913" />
		<tag k="water" v="lake" />
	</node>
<<<<<<< HEAD
	<node lat="62.43601666211234" lon="6.247688881448276" id="-3305">
		<tag k="name" v="Veddevatnet" />
		<tag k="natural" v="water" />
		<tag k="ssr:stedsnr" v="543776" />
		<tag k="water" v="lake" />
	</node>
	<node lat="62.42748611487972" lon="6.260500004740589" id="-3315">
		<tag k="name" v="Raudåstaupet" />
		<tag k="natural" v="water" />
		<tag k="ssr:stedsnr" v="695999" />
	</node>
	<node lat="62.426525003491406" lon="6.17911388111253" id="-3339">
		<tag k="alt_name" v="Moldværselva" />
		<tag k="name" v="Molværselva" />
		<tag k="ssr:stedsnr" v="678905" />
		<tag k="waterway" v="stream" />
	</node>
	<node lat="62.409875001745476" lon="6.269483338971266" id="-3372">
		<tag k="name" v="Bytingsneset" />
		<tag k="natural" v="cape" />
		<tag k="ssr:stedsnr" v="763902" />
	</node>
	<node lat="62.40834166650212" lon="6.226933339704083" id="-3380">
		<tag k="name" v="Storelva" />
		<tag k="ssr:stedsnr" v="800633" />
		<tag k="waterway" v="stream" />
	</node>
	<node lat="62.43482777636828" lon="6.264586114132315" id="-3383">
		<tag k="name" v="Storevassholmen" />
		<tag k="place" v="islet" />
		<tag k="ssr:stedsnr" v="824911" />
	</node>
	<node lat="62.40908055571333" lon="6.200083325021398" id="-3409">
		<tag k="alt_name" v="Tverråna;Tveråa" />
		<tag k="name" v="Storelva" />
		<tag k="ssr:stedsnr" v="11877" />
		<tag k="waterway" v="stream" />
	</node>
	<node lat="62.434074998454584" lon="6.2093361065710875" id="-3410">
		<tag k="name" v="Vassetvatnet" />
		<tag k="natural" v="water" />
		<tag k="ssr:stedsnr" v="11918" />
		<tag k="water" v="lake" />
	</node>
	<node lat="62.42364166549647" lon="6.262830561971002" id="-3418">
		<tag k="name" v="Svartevasselva" />
		<tag k="ssr:stedsnr" v="35835" />
		<tag k="waterway" v="stream" />
	</node>
	<node lat="62.41106111156735" lon="6.258825009245012" id="-3420">
		<tag k="name" v="Tverråneset" />
		<tag k="natural" v="cape" />
		<tag k="ssr:stedsnr" v="35840" />
	</node>
	<node lat="62.43663446397327" lon="6.276400978021067" id="-3430">
		<tag k="name" v="Leira" />
		<tag k="natural" v="water" />
		<tag k="ssr:stedsnr" v="89000" />
	</node>
	<node lat="62.40829166291554" lon="6.10654444069323" id="-3444">
		<tag k="name" v="Storelva" />
		<tag k="ssr:stedsnr" v="132878" />
		<tag k="waterway" v="stream" />
	</node>
	<node lat="62.43116388464219" lon="6.2479027862109415" id="-3450">
		<tag k="name" v="Rotevatnet" />
		<tag k="natural" v="water" />
		<tag k="ssr:stedsnr" v="149927" />
	</node>
	<node lat="62.43222777500605" lon="6.141572220747934" id="-3474">
		<tag k="name" v="Kjellingsetelva" />
		<tag k="ssr:stedsnr" v="278857" />
		<tag k="waterway" v="stream" />
	</node>
	<node lat="62.40571389304315" lon="6.286261103237384" id="-3476">
		<tag k="name" v="Eiteråna" />
		<tag k="ssr:stedsnr" v="278860" />
		<tag k="waterway" v="stream" />
	</node>
	<node lat="62.430286111811164" lon="6.26106111864369" id="-3484">
		<tag k="name" v="Øtrevatnet" />
		<tag k="natural" v="water" />
		<tag k="ssr:stedsnr" v="314031" />
	</node>
	<node lat="62.422027781779896" lon="6.165588880367214" id="-3486">
		<tag k="alt_name" v="Moldværsvatnet" />
		<tag k="name" v="Molværsvatnet" />
=======
	<node id="-70525" lat="62.4111499996" lon="6.23937777388">
		<tag k="name" v="Tverråna" />
		<tag k="ssr:stedsnr" v="799065" />
		<tag k="waterway" v="stream" />
	</node>
	<node id="-70524" lat="62.4105527796" lon="6.26516945027">
		<tag k="name" v="Mausavatnet" />
>>>>>>> e1d4bc35ff8a6074a6f2e91616a996b547c36f15
		<tag k="natural" v="water" />
		<tag k="ssr:stedsnr" v="314894" />
	</node>
<<<<<<< HEAD
	<node lat="62.422858334338166" lon="6.27871110422506" id="-3492">
		<tag k="name" v="Tomaselva" />
		<tag k="ssr:stedsnr" v="338804" />
		<tag k="waterway" v="stream" />
	</node>
	<node lat="62.4090472194922" lon="6.263036115642471" id="-3493">
		<tag k="name" v="Bunesa" />
=======
	<node id="-70519" lat="62.4462277792" lon="6.21022499131">
		<tag k="name" v="Straumen" />
		<tag k="ssr:stedsnr" v="763932" />
		<tag k="waterway" v="stream" />
	</node>
	<node id="-70517" lat="62.4098750017" lon="6.26948333897">
		<tag k="name" v="Bytingsneset" />
>>>>>>> e1d4bc35ff8a6074a6f2e91616a996b547c36f15
		<tag k="natural" v="cape" />
		<tag k="ssr:stedsnr" v="338826" />
	</node>
<<<<<<< HEAD
	<node lat="62.4095083315088" lon="6.268094449070572" id="-3506">
		<tag k="name" v="Vikesteinen" />
		<tag k="place" v="islet" />
		<tag k="ssr:stedsnr" v="389178" />
	</node>
	<node lat="62.43691944816587" lon="6.178066672309552" id="-3511">
		<tag k="name" v="Haugedammen" />
		<tag k="ssr:stedsnr" v="399815" />
		<tag k="waterway" v="dam" />
	</node>
	<node lat="62.41343888734704" lon="6.292408325325132" id="-3524">
		<tag k="name" v="Svartevatnet" />
=======
	<node id="-70260" lat="62.4265250035" lon="6.17911388111">
		<tag k="alt_name" v="Moldværselva" />
		<tag k="name" v="Molværselva" />
		<tag k="ssr:stedsnr" v="678905" />
		<tag k="waterway" v="stream" />
	</node>
	<node id="-70386" lat="62.4311638846" lon="6.24790278621">
		<tag k="name" v="Rotevatnet" />
>>>>>>> e1d4bc35ff8a6074a6f2e91616a996b547c36f15
		<tag k="natural" v="water" />
		<tag k="ssr:stedsnr" v="436601" />
	</node>
<<<<<<< HEAD
	<node lat="62.433944446111504" lon="6.263925000178228" id="-3529">
		<tag k="name" v="Storevatnet" />
		<tag k="natural" v="water" />
		<tag k="ssr:stedsnr" v="496029" />
		<tag k="water" v="lake" />
	</node>
	<node lat="62.41113055152219" lon="6.266591673216174" id="-3554">
		<tag k="name" v="Bakkeholmen" />
=======
	<node id="-70256" lat="62.403908334" lon="6.14856388612">
		<tag k="name" v="Adensgjølelva" />
		<tag k="ssr:stedsnr" v="642833" />
		<tag k="waterway" v="stream" />
	</node>
	<node id="-70509" lat="62.4439555545" lon="6.21893333957">
		<tag k="name" v="Iglevatnet" />
		<tag k="natural" v="water" />
		<tag k="ssr:stedsnr" v="756936" />
	</node>
	<node id="-70250" lat="62.4108194475" lon="6.26307500424">
		<tag k="name" v="Eikremsholmen" />
>>>>>>> e1d4bc35ff8a6074a6f2e91616a996b547c36f15
		<tag k="place" v="islet" />
		<tag k="ssr:stedsnr" v="570144" />
	</node>
<<<<<<< HEAD
	<node lat="62.43038888748908" lon="6.257713896434026" id="-3562">
		<tag k="name" v="Lisjevatnet" />
		<tag k="natural" v="water" />
		<tag k="ssr:stedsnr" v="573916" />
	</node>
	<node lat="62.434566664713856" lon="6.246724999243754" id="-3563">
		<tag k="name" v="Klingrevatnet" />
		<tag k="natural" v="water" />
		<tag k="ssr:stedsnr" v="573917" />
	</node>
	<node lat="62.435511107674444" lon="6.202752773673614" id="-3565">
		<tag k="name" v="Vassetelva" />
		<tag k="ssr:stedsnr" v="581854" />
		<tag k="waterway" v="stream" />
	</node>
	<node lat="62.42610555586393" lon="6.2011249956340695" id="-3573">
=======
	<node id="-70503" lat="62.4143083318" lon="6.2636666675">
		<tag k="name" v="Tenneskjeret" />
		<tag k="place" v="islet" />
		<tag k="ssr:stedsnr" v="753147" />
	</node>
	<node id="-70244" lat="62.4261055559" lon="6.20112499563">
>>>>>>> e1d4bc35ff8a6074a6f2e91616a996b547c36f15
		<tag k="name" v="Svanselva" />
		<tag k="ssr:stedsnr" v="617917" />
		<tag k="waterway" v="stream" />
	</node>
<<<<<<< HEAD
	<node lat="62.41081944753454" lon="6.2630750042429435" id="-3581">
		<tag k="name" v="Eikremsholmen" />
		<tag k="place" v="islet" />
		<tag k="ssr:stedsnr" v="631157" />
	</node>
	<node lat="62.4039083339546" lon="6.148563886116617" id="-3586">
		<tag k="name" v="Adensgjølelva" />
		<tag k="ssr:stedsnr" v="642833" />
		<tag k="waterway" v="stream" />
	</node>
	<node lat="62.43557500124027" lon="6.2576555642427865" id="-3587">
=======
	<node id="-70368" lat="62.436634464" lon="6.27640097802">
		<tag k="name" v="Leira" />
		<tag k="natural" v="water" />
		<tag k="ssr:stedsnr" v="89000" />
	</node>
	<node id="-70239" lat="62.4303888875" lon="6.25771389643">
		<tag k="name" v="Lisjevatnet" />
		<tag k="natural" v="water" />
		<tag k="ssr:stedsnr" v="573916" />
	</node>
	<node id="-70366" lat="62.4289444451" lon="6.14829444943">
		<tag k="name" v="Eltratjønna" />
		<tag k="natural" v="water" />
		<tag k="ssr:stedsnr" v="88911" />
	</node>
	<node id="-70109" lat="62.432227775" lon="6.14157222075">
		<tag k="name" v="Kjellingsetelva" />
		<tag k="ssr:stedsnr" v="278857" />
		<tag k="waterway" v="stream" />
	</node>
	<node id="-70491" lat="62.4355750012" lon="6.25765556424">
>>>>>>> e1d4bc35ff8a6074a6f2e91616a996b547c36f15
		<tag k="name" v="Storevatnet" />
		<tag k="natural" v="water" />
		<tag k="ssr:stedsnr" v="642801" />
		<tag k="water" v="lake" />
	</node>
<<<<<<< HEAD
	<node lat="62.421505554488306" lon="6.212733337805467" id="-3598">
		<tag k="name" v="Purketjønna" />
		<tag k="natural" v="water" />
		<tag k="ssr:stedsnr" v="739910" />
	</node>
	<node lat="62.41430833180317" lon="6.263666667502707" id="-3600">
		<tag k="name" v="Tenneskjeret" />
		<tag k="place" v="islet" />
		<tag k="ssr:stedsnr" v="753147" />
	</node>
	<node lat="62.443955554497585" lon="6.218933339566572" id="-3603">
		<tag k="name" v="Iglevatnet" />
		<tag k="natural" v="water" />
		<tag k="ssr:stedsnr" v="756936" />
	</node>
	<node lat="62.412127774893065" lon="6.09937222118638" id="-3608">
		<tag k="name" v="Svartedalselva" />
		<tag k="ssr:stedsnr" v="763838" />
		<tag k="waterway" v="stream" />
	</node>
	<node lat="62.446227779217665" lon="6.2102249913066565" id="-3610">
		<tag k="name" v="Straumen" />
		<tag k="ssr:stedsnr" v="763932" />
		<tag k="waterway" v="stream" />
	</node>
	<node lat="62.41055277961227" lon="6.265169450268372" id="-3613">
		<tag k="name" v="Mausavatnet" />
=======
	<node id="-70285" lat="62.4121277749" lon="6.09937222119">
		<tag k="name" v="Svartedalselva" />
		<tag k="ssr:stedsnr" v="763838" />
		<tag k="waterway" v="stream" />
	</node>
	<node id="-70348" lat="62.4110611116" lon="6.25882500925">
		<tag k="name" v="Tverråneset" />
		<tag k="natural" v="cape" />
		<tag k="ssr:stedsnr" v="35840" />
	</node>
	<node id="-70346" lat="62.4236416655" lon="6.26283056197">
		<tag k="name" v="Svartevasselva" />
		<tag k="ssr:stedsnr" v="35835" />
		<tag k="waterway" v="stream" />
	</node>
	<node id="-70471" lat="62.4355111077" lon="6.20275277367">
		<tag k="name" v="Vassetelva" />
		<tag k="ssr:stedsnr" v="581854" />
		<tag k="waterway" v="stream" />
	</node>
	<node id="-70340" lat="62.4090805557" lon="6.20008332502">
		<tag k="alt_name" v="Tverråna;Tveråa" />
		<tag k="name" v="Storelva" />
		<tag k="ssr:stedsnr" v="11877" />
		<tag k="waterway" v="stream" />
	</node>
	<node id="-70339" lat="62.4294305536" lon="6.2201166719">
		<tag k="name" v="Sætrevatnet" />
>>>>>>> e1d4bc35ff8a6074a6f2e91616a996b547c36f15
		<tag k="natural" v="water" />
		<tag k="ssr:stedsnr" v="799064" />
		<tag k="water" v="lake" />
	</node>
<<<<<<< HEAD
	<node lat="62.411149999590855" lon="6.239377773878172" id="-3614">
		<tag k="name" v="Tverråna" />
		<tag k="ssr:stedsnr" v="799065" />
		<tag k="waterway" v="stream" />
	</node>
	<node lat="62.41802778090389" lon="6.267963894021748" id="-3625">
		<tag k="name" v="Mausaelva" />
		<tag k="ssr:stedsnr" v="824833" />
		<tag k="waterway" v="stream" />
	</node>
	<node lat="62.42856110737047" lon="6.249127776954441" id="-3635">
		<tag k="name" v="Gjølvatnet" />
		<tag k="natural" v="water" />
		<tag k="ssr:stedsnr" v="861031" />
		<tag k="water" v="lake" />
	</node>
=======
	<node id="-70082" lat="62.4271833362" lon="6.26495000045">
		<tag k="name" v="Raudåvatnet" />
		<tag k="natural" v="water" />
		<tag k="ssr:stedsnr" v="253076" />
	</node>
	<node id="-70464" lat="62.4111305515" lon="6.26659167322">
		<tag k="name" v="Bakkeholmen" />
		<tag k="place" v="islet" />
		<tag k="ssr:stedsnr" v="570144" />
	</node>
	<node id="-70240" lat="62.4345666647" lon="6.24672499924">
		<tag k="name" v="Klingrevatnet" />
		<tag k="natural" v="water" />
		<tag k="ssr:stedsnr" v="573917" />
	</node>
	<node id="-70078" lat="62.4257194407" lon="6.08207222341">
		<tag k="name" v="Raudneselva" />
		<tag k="ssr:stedsnr" v="71927" />
		<tag k="waterway" v="stream" />
	</node>
	<node id="-70077" lat="62.4386305573" lon="6.26278056351">
		<tag k="name" v="Djupvikvatnet" />
		<tag k="natural" v="water" />
		<tag k="ssr:stedsnr" v="240794" />
		<tag k="water" v="lake" />
	</node>
	<node id="-70218" lat="62.4274861149" lon="6.26050000474">
		<tag k="name" v="Raudåstaupet" />
		<tag k="natural" v="water" />
		<tag k="ssr:stedsnr" v="695999" />
	</node>
	<node id="-70073" lat="62.4340749985" lon="6.20933610657">
		<tag k="name" v="Vassetvatnet" />
		<tag k="natural" v="water" />
		<tag k="ssr:stedsnr" v="11918" />
		<tag k="water" v="lake" />
	</node>
	<node id="-70455" lat="62.4360166621" lon="6.24768888145">
		<tag k="name" v="Veddevatnet" />
		<tag k="natural" v="water" />
		<tag k="ssr:stedsnr" v="543776" />
		<tag k="water" v="lake" />
	</node>
	<node id="-70141" lat="62.4327666699" lon="6.27490278605">
		<tag k="name" v="Endrevatnet" />
		<tag k="natural" v="water" />
		<tag k="ssr:stedsnr" v="454000" />
		<tag k="water" v="lake" />
	</node>
	<node id="-70191" lat="62.4248555582" lon="6.12910556032">
		<tag k="name" v="Kjerringvatnet" />
		<tag k="natural" v="water" />
		<tag k="ssr:stedsnr" v="436912" />
	</node>
	<node id="-70445" lat="62.4134388873" lon="6.29240832533">
		<tag k="name" v="Svartevatnet" />
		<tag k="natural" v="water" />
		<tag k="ssr:stedsnr" v="436601" />
	</node>
	<node id="-70111" lat="62.405713893" lon="6.28626110324">
		<tag k="name" v="Eiteråna" />
		<tag k="ssr:stedsnr" v="278860" />
		<tag k="waterway" v="stream" />
	</node>
	<node id="-70273" lat="62.4215055545" lon="6.21273333781">
		<tag k="name" v="Purketjønna" />
		<tag k="natural" v="water" />
		<tag k="ssr:stedsnr" v="739910" />
	</node>
	<node id="-70179" lat="62.4095083315" lon="6.26809444907">
		<tag k="name" v="Vikesteinen" />
		<tag k="place" v="islet" />
		<tag k="ssr:stedsnr" v="389178" />
	</node>
	<node id="-70171" lat="62.4339444461" lon="6.26392500018">
		<tag k="name" v="Storevatnet" />
		<tag k="natural" v="water" />
		<tag k="ssr:stedsnr" v="496029" />
		<tag k="water" v="lake" />
	</node>
	<node id="-70431" lat="62.4369194482" lon="6.17806667231">
		<tag k="name" v="Haugedammen" />
		<tag k="ssr:stedsnr" v="399815" />
		<tag k="waterway" v="dam" />
	</node>
	<node id="-70299" lat="62.4348277764" lon="6.26458611413">
		<tag k="name" v="Storevassholmen" />
		<tag k="place" v="islet" />
		<tag k="ssr:stedsnr" v="824911" />
	</node>
	<node id="-70084" lat="62.4284194454" lon="6.16095278516">
		<tag k="name" v="Steinelva" />
		<tag k="ssr:stedsnr" v="253922" />
		<tag k="waterway" v="stream" />
	</node>
	<node id="-70550" lat="62.4285611074" lon="6.24912777695">
		<tag k="name" v="Gjølvatnet" />
		<tag k="natural" v="water" />
		<tag k="ssr:stedsnr" v="861031" />
		<tag k="water" v="lake" />
	</node>
	<node id="-70165" lat="62.4090472195" lon="6.26303611564">
		<tag k="name" v="Bunesa" />
		<tag k="natural" v="cape" />
		<tag k="ssr:stedsnr" v="338826" />
	</node>
	<node id="-70164" lat="62.4228583343" lon="6.27871110423">
		<tag k="name" v="Tomaselva" />
		<tag k="ssr:stedsnr" v="338804" />
		<tag k="waterway" v="stream" />
	</node>
	<node id="-70381" lat="62.4082916629" lon="6.10654444069">
		<tag k="name" v="Storelva" />
		<tag k="ssr:stedsnr" v="132878" />
		<tag k="waterway" v="stream" />
	</node>
	<node id="-70411" lat="62.4220277818" lon="6.16558888037">
		<tag k="alt_name" v="Moldværsvatnet" />
		<tag k="name" v="Molværsvatnet" />
		<tag k="natural" v="water" />
		<tag k="ssr:stedsnr" v="314894" />
	</node>
	<node id="-70538" lat="62.4180277809" lon="6.26796389402">
		<tag k="name" v="Mausaelva" />
		<tag k="ssr:stedsnr" v="824833" />
		<tag k="waterway" v="stream" />
	</node>
	<node id="-70152" lat="62.4290111096" lon="6.09971388881">
		<tag k="name" v="Sætrevatnet" />
		<tag k="natural" v="water" />
		<tag k="ssr:stedsnr" v="460883" />
	</node>
	<node id="-70150" lat="62.4333305551" lon="6.11781111119">
		<tag k="name" v="Flesje-elva" />
		<tag k="ssr:stedsnr" v="460879" />
		<tag k="waterway" v="stream" />
	</node>
	<node id="-70405" lat="62.4461777741" lon="6.2208638889">
		<tag k="name" v="Vågevatnet" />
		<tag k="natural" v="water" />
		<tag k="ssr:stedsnr" v="210925" />
	</node>
	<node id="-70408" lat="62.4302861118" lon="6.26106111864">
		<tag k="name" v="Øtrevatnet" />
		<tag k="natural" v="water" />
		<tag k="ssr:stedsnr" v="314031" />
	</node>
	<node id="-70529" lat="62.4083416665" lon="6.2269333397">
		<tag k="name" v="Storelva" />
		<tag k="ssr:stedsnr" v="800633" />
		<tag k="waterway" v="stream" />
	</node>
>>>>>>> e1d4bc35ff8a6074a6f2e91616a996b547c36f15
</osm>
