<?xml version="1.0" encoding="UTF-8"?>
<osm generator="osmapis" version="0.6">
	<node id="-65536" lat="62.4277983348" lon="6.29840114382">
		<tag k="fixme" v="consider place=hamlet" />
		<tag k="name" v="Bjørkavåg" />
		<tag k="place" v="farm" />
		<tag k="ssr:stedsnr" v="557042" />
	</node>
	<node id="-65530" lat="62.4377900497" lon="6.27723733128">
		<tag k="fixme" v="consider place=hamlet" />
		<tag k="name" v="Tranvåg" />
		<tag k="place" v="farm" />
		<tag k="ssr:stedsnr" v="543770" />
	</node>
	<node id="-65524" lat="62.4200083292" lon="6.31566389424">
		<tag k="name" v="Solavåg" />
		<tag k="place" v="farm" />
		<tag k="ssr:stedsnr" v="520888" />
	</node>
	<node id="-65519" lat="62.4366801975" lon="6.12540333019">
		<tag k="name" v="Flesje" />
		<tag k="place" v="locality" />
		<tag k="ssr:stedsnr" v="435988" />
	</node>
	<node id="-65518" lat="62.437592897" lon="6.18113917881">
		<tag k="fixme" v="consider place=suburb, village or hamlet" />
		<tag k="name" v="Molvær" />
		<tag k="place" v="quarter" />
		<tag k="ssr:stedsnr" v="435986" />
	</node>
	<node id="-65516" lat="62.4296694443" lon="6.352136113">
		<tag k="name" v="Veibust næringsområde" />
		<tag k="place" v="quarter" />
		<tag k="ssr:stedsnr" v="413385" />
	</node>
	<node id="-65513" lat="62.3957249956" lon="6.17768888878">
		<tag k="name" v="Lassegarden" />
		<tag k="place" v="farm" />
		<tag k="ssr:stedsnr" v="399848" />
	</node>
	<node id="-65512" lat="62.4229138877" lon="6.2377555536">
		<tag k="historic" v="shieling" />
		<tag k="name" v="Djupviksætra" />
		<tag k="place" v="locality" />
		<tag k="ssr:stedsnr" v="399845" />
	</node>
	<node id="-65502" lat="62.3988872246" lon="6.1313594938">
		<tag k="fixme" v="consider place=hamlet" />
		<tag k="name" v="Sulebust" />
		<tag k="place" v="farm" />
		<tag k="ssr:stedsnr" v="375876" />
	</node>
	<node id="-65501" lat="62.4223111137" lon="6.32469721606">
		<tag k="loc_name" v="Leirvåg" />
		<tag k="name" v="Leirvågen" />
		<tag k="place" v="hamlet" />
		<tag k="ssr:stedsnr" v="374095" />
	</node>
	<node id="-65500" lat="62.4153477565" lon="6.33238681221">
		<tag k="fixme" v="consider place=hamlet" />
		<tag k="name" v="Sunde" />
		<tag k="place" v="farm" />
		<tag k="ssr:stedsnr" v="374081" />
	</node>
	<node id="-65497" lat="62.4290888882" lon="6.33957499155">
		<tag k="name" v="Reitebøen" />
		<tag k="place" v="farm" />
		<tag k="ssr:stedsnr" v="355670" />
	</node>
	<node id="-65495" lat="62.4402444473" lon="6.22215554978">
		<tag k="name" v="Øvre Holen" />
		<tag k="place" v="quarter" />
		<tag k="ssr:stedsnr" v="352360" />
	</node>
	<node id="-65486" lat="62.4374258686" lon="6.21350895025">
		<tag k="fixme" v="consider place=hamlet" />
		<tag k="name" v="Vasset" />
		<tag k="place" v="farm" />
		<tag k="ssr:stedsnr" v="314886" />
	</node>
	<node id="-65484" lat="62.4176444404" lon="6.32031112024">
		<tag k="alt_name" v="Solevåg;Solevågen" />
		<tag k="fixme" v="consider place=hamlet" />
		<tag k="name" v="Solavågen" />
		<tag k="place" v="village" />
		<tag k="ssr:stedsnr" v="314069" />
	</node>
	<node id="-65482" lat="62.4392274774" lon="6.21323268584">
		<tag k="amenity" v="school" />
		<tag k="name" v="Langevåg skule" />
		<tag k="ssr:stedsnr" v="300994" />
	</node>
	<node id="-65473" lat="62.4469805588" lon="6.23260277832">
		<tag k="building" v="commercial" />
		<tag k="name" v="Våge" />
		<tag k="ssr:stedsnr" v="172724" />
	</node>
	<node id="-65471" lat="62.4219666662" lon="6.32800276913">
		<tag k="name" v="Leirvåg" />
		<tag k="place" v="farm" />
		<tag k="ssr:stedsnr" v="157750" />
	</node>
	<node id="-65470" lat="62.4107416686" lon="6.09682500397">
		<tag k="name" v="Nybø" />
		<tag k="place" v="farm" />
		<tag k="ssr:stedsnr" v="156915" />
	</node>
	<node id="-65462" lat="62.4424000014" lon="6.19045277307">
		<tag k="name" v="Langevåg" />
		<tag k="place" v="farm" />
		<tag k="ssr:stedsnr" v="150390" />
	</node>
	<node id="-65454" lat="62.4417974736" lon="6.26080445936">
		<tag k="fixme" v="consider place=hamlet" />
		<tag k="name" v="Djupvika" />
		<tag k="place" v="farm" />
		<tag k="ssr:stedsnr" v="132052" />
	</node>
	<node id="-65453" lat="62.4403555595" lon="6.27198610921">
		<tag k="fixme" v="consider place=hamlet" />
		<tag k="name" v="Fiskarstranda" />
		<tag k="place" v="village" />
		<tag k="ssr:stedsnr" v="132045" />
	</node>
	<node id="-65452" lat="62.4234725725" lon="6.28384731592">
		<tag k="fixme" v="consider place=hamlet" />
		<tag k="name" v="Furneset" />
		<tag k="place" v="farm" />
		<tag k="ssr:stedsnr" v="131092" />
	</node>
	<node id="-65451" lat="62.426638892" lon="6.31576666753">
		<tag k="name" v="Eidsnes" />
		<tag k="place" v="isolated_dwelling" />
		<tag k="ssr:stedsnr" v="119121" />
	</node>
	<node id="-65446" lat="62.4387111101" lon="6.18592777497">
		<tag k="amenity" v="school" />
		<tag k="name" v="Molvær skule" />
		<tag k="ssr:stedsnr" v="96828" />
	</node>
	<node id="-65438" lat="62.4107746197" lon="6.09685142361">
		<tag k="name" v="Nymarka" />
		<tag k="place" v="farm" />
		<tag k="ssr:stedsnr" v="72866" />
	</node>
	<node id="-65436" lat="62.4355704417" lon="6.28669690225">
		<tag k="alt_name" v="Blomvik" />
		<tag k="fixme" v="consider place=hamlet" />
		<tag k="name" v="Blomvika" />
		<tag k="place" v="farm" />
		<tag k="ssr:stedsnr" v="72045" />
	</node>
	<node id="-65435" lat="62.4357184442" lon="6.27774422363">
		<tag k="fixme" v="consider place=hamlet" />
		<tag k="name" v="Valen" />
		<tag k="place" v="farm" />
		<tag k="ssr:stedsnr" v="72034" />
	</node>
	<node id="-65433" lat="62.4287842166" lon="6.34344196038">
		<tag k="fixme" v="consider place=hamlet" />
		<tag k="name" v="Reitehaugen" />
		<tag k="place" v="farm" />
		<tag k="ssr:stedsnr" v="71089" />
	</node>
	<node id="-65428" lat="62.448695232" lon="6.20924855537">
		<tag k="name" v="Jyljebø" />
		<tag k="place" v="locality" />
		<tag k="ssr:stedsnr" v="35943" />
	</node>
	<node id="-65427" lat="62.4232138884" lon="6.15778888092">
		<tag k="name" v="Von-hytta" />
		<tag k="place" v="isolated_dwelling" />
		<tag k="ssr:stedsnr" v="35934" />
	</node>
	<node id="-65424" lat="62.4389583309" lon="6.18447500496">
		<tag k="amenity" v="kindergarten" />
		<tag k="name" v="Molvær" />
		<tag k="ssr:stedsnr" v="35843" />
	</node>
	<node id="-65422" lat="62.4449833317" lon="6.20910833607">
		<tag k="name" v="Åregjerdet" />
		<tag k="place" v="farm" />
		<tag k="ssr:stedsnr" v="35836" />
	</node>
	<node id="-65413" lat="62.4139411461" lon="6.26982280299">
		<tag k="fixme" v="consider place=hamlet" />
		<tag k="name" v="Karlsbakken" />
		<tag k="place" v="farm" />
		<tag k="ssr:stedsnr" v="10070" />
	</node>
	<node id="-65411" lat="62.4365337165" lon="6.18280066586">
		<tag k="fixme" v="consider place=hamlet" />
		<tag k="name" v="Molvær" />
		<tag k="place" v="farm" />
		<tag k="ssr:stedsnr" v="982410" />
	</node>
	<node id="-65407" lat="62.4468512614" lon="6.20324793727">
		<tag k="name" v="Kippervik" />
		<tag k="place" v="locality" />
		<tag k="ssr:stedsnr" v="982405" />
	</node>
	<node id="-65405" lat="62.4490700316" lon="6.2265572623">
		<tag k="loc_name" v="Hamna" />
		<tag k="name" v="Skrivarhamna" />
		<tag k="place" v="locality" />
		<tag k="ssr:stedsnr" v="982403" />
	</node>
	<node id="-65403" lat="62.4477184543" lon="6.23078984431">
		<tag k="fixme" v="consider place=hamlet" />
		<tag k="name" v="Vågnes" />
		<tag k="place" v="farm" />
		<tag k="ssr:stedsnr" v="982400" />
	</node>
	<node id="-65401" lat="62.4424368958" lon="6.26997330628">
		<tag k="name" v="Størkerplassen" />
		<tag k="place" v="locality" />
		<tag k="ssr:stedsnr" v="982397" />
	</node>
	<node id="-65400" lat="62.4418357564" lon="6.27146806772">
		<tag k="name" v="Davidsplassen" />
		<tag k="place" v="locality" />
		<tag k="ssr:stedsnr" v="982396" />
	</node>
	<node id="-65394" lat="62.4040780488" lon="6.27131774905">
		<tag k="alt_name" v="Eikremsvika" />
		<tag k="fixme" v="consider place=hamlet" />
		<tag k="name" v="Eikreimsvika" />
		<tag k="place" v="farm" />
		<tag k="ssr:stedsnr" v="921104" />
	</node>
	<node id="-65392" lat="62.4387499956" lon="6.21329721635">
		<tag k="amenity" v="school" />
		<tag k="name" v="Sula vidaregåande skule" />
		<tag k="ssr:stedsnr" v="885907" />
	</node>
	<node id="-65389" lat="62.403295679" lon="6.2338228417">
		<tag k="fixme" v="consider place=hamlet" />
		<tag k="name" v="Hjellen" />
		<tag k="place" v="farm" />
		<tag k="ssr:stedsnr" v="873712" />
	</node>
	<node id="-65386" lat="62.4389666708" lon="6.17713610484">
		<tag k="name" v="Molværsmyra" />
		<tag k="place" v="farm" />
		<tag k="ssr:stedsnr" v="946928" />
	</node>
	<node id="-65375" lat="62.4443027774" lon="6.20245277582">
		<tag k="fixme" v="consider place=hamlet" />
		<tag k="name" v="Fyllingen" />
		<tag k="place" v="farm" />
		<tag k="ssr:stedsnr" v="824920" />
	</node>
	<node id="-65366" lat="62.3953983942" lon="6.17883642671">
		<tag k="fixme" v="consider place=hamlet" />
		<tag k="name" v="Kyrkjebø" />
		<tag k="place" v="farm" />
		<tag k="ssr:stedsnr" v="921890" />
	</node>
	<node id="-65363" lat="62.4210547837" lon="6.27198986254">
		<tag k="fixme" v="consider place=hamlet" />
		<tag k="name" v="Mauseidvågen" />
		<tag k="place" v="village" />
		<tag k="ssr:stedsnr" v="920093" />
	</node>
	<node id="-65362" lat="62.4246361119" lon="6.15738888847">
		<tag k="name" v="Rødekorshytta" />
		<tag k="place" v="isolated_dwelling" />
		<tag k="ssr:stedsnr" v="763918" />
	</node>
	<node id="-65361" lat="62.445150002" lon="6.21459166444">
		<tag k="name" v="Heidegjerdet" />
		<tag k="place" v="farm" />
		<tag k="ssr:stedsnr" v="763856" />
	</node>
	<node id="-65359" lat="62.4199138847" lon="6.32811666028">
		<tag k="name" v="Sunde" />
		<tag k="place" v="farm" />
		<tag k="ssr:stedsnr" v="763837" />
	</node>
	<node id="-65352" lat="62.4354472796" lon="6.23783521384">
		<tag k="fixme" v="consider place=hamlet" />
		<tag k="name" v="Vedde" />
		<tag k="place" v="farm" />
		<tag k="ssr:stedsnr" v="753124" />
	</node>
	<node id="-65346" lat="62.4366361127" lon="6.22286111174">
		<tag k="name" v="Gjerde" />
		<tag k="place" v="farm" />
		<tag k="ssr:stedsnr" v="901688" />
	</node>
	<node id="-65345" lat="62.4132749973" lon="6.31545278083">
		<tag k="name" v="Nathaugen" />
		<tag k="place" v="quarter" />
		<tag k="ssr:stedsnr" v="899379" />
	</node>
	<node id="-65344" lat="62.4382361108" lon="6.2242416605">
		<tag k="name" v="Bratthaugen" />
		<tag k="place" v="quarter" />
		<tag k="ssr:stedsnr" v="716331" />
	</node>
	<node id="-65342" lat="62.4260861089" lon="6.18560000561">
		<tag k="name" v="Koppen" />
		<tag k="place" v="isolated_dwelling" />
		<tag k="ssr:stedsnr" v="885892" />
	</node>
	<node id="-65329" lat="62.4389055551" lon="6.21076112044">
		<tag k="amenity" v="school" />
		<tag k="name" v="Sulahallen" />
		<tag k="ssr:stedsnr" v="642810" />
	</node>
	<node id="-65326" lat="62.4145167833" lon="6.32018857449">
		<tag k="fixme" v="consider place=hamlet" />
		<tag k="name" v="Solavåg" />
		<tag k="place" v="farm" />
		<tag k="ssr:stedsnr" v="633166" />
	</node>
	<node id="-65324" lat="62.440999999" lon="6.19715555668">
		<tag k="name" v="Løken" />
		<tag k="place" v="isolated_dwelling" />
		<tag k="ssr:stedsnr" v="726698" />
	</node>
	<node id="-65323" lat="62.436128244" lon="6.14245313769">
		<tag k="name" v="Kjellingset" />
		<tag k="place" v="locality" />
		<tag k="ssr:stedsnr" v="617966" />
	</node>
	<node id="-65321" lat="62.4434877776" lon="6.18577494094">
		<tag k="fixme" v="consider place=hamlet" />
		<tag k="name" v="Stadsneset" />
		<tag k="place" v="farm" />
		<tag k="ssr:stedsnr" v="617956" />
	</node>
	<node id="-65318" lat="62.3981621531" lon="6.21690132111">
		<tag k="alt_name" v="Båtnes" />
		<tag k="fixme" v="consider place=hamlet" />
		<tag k="name" v="Båtneset" />
		<tag k="place" v="farm" />
		<tag k="ssr:stedsnr" v="617905" />
	</node>
	<node id="-65317" lat="62.4303916628" lon="6.35569721927">
		<tag k="name" v="Veibustvågen" />
		<tag k="place" v="quarter" />
		<tag k="ssr:stedsnr" v="716393" />
	</node>
	<node id="-65311" lat="62.4408194475" lon="6.18996111838">
		<tag k="name" v="Vågstorget" />
		<tag k="place" v="square" />
		<tag k="ssr:stedsnr" v="570452" />
	</node>
	<node id="-65310" lat="62.448130555" lon="6.19536943809">
		<tag k="name" v="Vassholmen" />
		<tag k="place" v="locality" />
		<tag k="ssr:stedsnr" v="703938" />
	</node>
	<node id="-65307" lat="62.413658332" lon="6.22048889742">
		<tag k="historic" v="shieling" />
		<tag k="name" v="Mausastølen" />
		<tag k="place" v="locality" />
		<tag k="ssr:stedsnr" v="703925" />
	</node>
	<node id="-65305" lat="62.4030499981" lon="6.26987221872">
		<tag k="name" v="Samundstufte" />
		<tag k="place" v="isolated_dwelling" />
		<tag k="ssr:stedsnr" v="703877" />
	</node>
	<node id="-65300" lat="62.4426749993" lon="6.214066672">
		<tag k="name" v="Havnegjerdet" />
		<tag k="place" v="farm" />
		<tag k="ssr:stedsnr" v="703847" />
	</node>
	<node id="-65299" lat="62.4142749958" lon="6.21886667547">
		<tag k="historic" v="shieling" />
		<tag k="name" v="Humlestølen" />
		<tag k="place" v="locality" />
		<tag k="ssr:stedsnr" v="703844" />
	</node>
	<node id="-65288" lat="62.4373138869" lon="6.28552222088">
		<tag k="name" v="Korsneset" />
		<tag k="place" v="quarter" />
		<tag k="ssr:stedsnr" v="534363" />
	</node>
	<node id="-65286" lat="62.423275001" lon="6.15842499333">
		<tag k="amenity" v="cafe" />
		<tag k="name" v="Vonhytta" />
		<tag k="ssr:stedsnr" v="687346" />
	</node>
	<node id="-65282" lat="62.4185349268" lon="6.26528065044">
		<tag k="fixme" v="consider place=hamlet" />
		<tag k="name" v="Mauseid" />
		<tag k="place" v="farm" />
		<tag k="ssr:stedsnr" v="495103" />
	</node>
	<node id="-65280" lat="62.4366799517" lon="6.16630541326">
		<tag k="alt_name" v="Sandvik" />
		<tag k="fixme" v="consider place=hamlet" />
		<tag k="name" v="Sandvika" />
		<tag k="place" v="farm" />
		<tag k="ssr:stedsnr" v="678949" />
	</node>
	<node id="-65278" lat="62.428189915" lon="6.35550607394">
		<tag k="fixme" v="consider place=hamlet" />
		<tag k="name" v="Veibust" />
		<tag k="place" v="farm" />
		<tag k="ssr:stedsnr" v="678096" />
	</node>
	<node id="-65270" lat="62.4020788036" lon="6.13184408747">
		<tag k="alt_name" v="Sulabakken;Sulabakk" />
		<tag k="fixme" v="consider place=hamlet" />
		<tag k="name" v="Sulebakk" />
		<tag k="place" v="farm" />
		<tag k="ssr:stedsnr" v="436878" />
	</node>
	<node id="-65268" lat="62.4101194428" lon="6.09420555385">
		<tag k="alt_name" v="Oksevik" />
		<tag k="name" v="Oksavik" />
		<tag k="place" v="farm" />
		<tag k="ssr:stedsnr" v="436926" />
	</node>
	<node id="-65263" lat="62.4230932117" lon="6.27280361638">
		<tag k="fixme" v="consider place=hamlet" />
		<tag k="name" v="Mauseidvåg" />
		<tag k="place" v="farm" />
		<tag k="ssr:stedsnr" v="515393" />
	</node>
	<node id="-65257" lat="62.4338250018" lon="6.20154722495">
		<tag k="leisure" v="pitch" />
		<tag k="name" v="Langevåg stadion" />
		<tag k="ssr:stedsnr" v="399908" />
	</node>
	<node id="-65251" lat="62.4475657592" lon="6.20385135909">
		<tag k="fixme" v="consider place=hamlet" />
		<tag k="name" v="Kipperberget" />
		<tag k="place" v="farm" />
		<tag k="ssr:stedsnr" v="374970" />
	</node>
	<node id="-65248" lat="62.3977625437" lon="6.14548977719">
		<tag k="fixme" v="consider place=hamlet" />
		<tag k="name" v="Røysa" />
		<tag k="place" v="farm" />
		<tag k="ssr:stedsnr" v="496877" />
	</node>
	<node id="-65247" lat="62.4307437633" lon="6.280724849">
		<tag k="fixme" v="consider place=hamlet" />
		<tag k="name" v="Rørstad" />
		<tag k="place" v="farm" />
		<tag k="ssr:stedsnr" v="496047" />
	</node>
	<node id="-65245" lat="62.4380081511" lon="6.29060486116">
		<tag k="fixme" v="consider place=hamlet" />
		<tag k="name" v="Korsneset" />
		<tag k="place" v="farm" />
		<tag k="ssr:stedsnr" v="496055" />
	</node>
	<node id="-65244" lat="62.4264390455" lon="6.31023750216">
		<tag k="fixme" v="consider place=hamlet" />
		<tag k="name" v="Solavågseidet" />
		<tag k="place" v="farm" />
		<tag k="ssr:stedsnr" v="495107" />
	</node>
	<node id="-65235" lat="62.4059227538" lon="6.25015364578">
		<tag k="fixme" v="consider place=hamlet" />
		<tag k="name" v="Eikrem" />
		<tag k="place" v="farm" />
		<tag k="ssr:stedsnr" v="314112" />
	</node>
	<node id="-65220" lat="62.4433960693" lon="6.23248514143">
		<tag k="fixme" v="consider place=hamlet" />
		<tag k="name" v="Holsfeta" />
		<tag k="place" v="farm" />
		<tag k="ssr:stedsnr" v="460808" />
	</node>
	<node id="-65215" lat="62.4156222258" lon="6.20783888497">
		<tag k="name" v="Rollonhytta" />
		<tag k="place" v="isolated_dwelling" />
		<tag k="ssr:stedsnr" v="254872" />
	</node>
	<node id="-65211" lat="62.4430944472" lon="6.19723055235">
		<tag k="name" v="Nymarkbakken" />
		<tag k="place" v="quarter" />
		<tag k="ssr:stedsnr" v="231410" />
	</node>
	<node id="-65205" lat="62.4391861126" lon="6.18424167413">
		<tag k="amenity" v="school" />
		<tag k="name" v="barnehage" />
		<tag k="ssr:stedsnr" v="217805" />
	</node>
	<node id="-65201" lat="62.422544473" lon="6.32684261554">
		<tag k="fixme" v="consider place=hamlet" />
		<tag k="name" v="Leirvåg" />
		<tag k="old_name" v="Veibost" />
		<tag k="place" v="farm" />
		<tag k="ssr:stedsnr" v="294753" />
	</node>
	<node id="-65199" lat="62.4414249991" lon="6.26721666838">
		<tag k="name" v="Søre Hammaren" />
		<tag k="place" v="quarter" />
		<tag k="ssr:stedsnr" v="292814" />
	</node>
	<node id="-65196" lat="62.4500923983" lon="6.21665018223">
		<tag k="fixme" v="consider place=hamlet" />
		<tag k="name" v="Salen" />
		<tag k="place" v="farm" />
		<tag k="ssr:stedsnr" v="179664" />
	</node>
	<node id="-65192" lat="62.4424055568" lon="6.18811944045">
		<tag k="amenity" v="nursing_home" />
		<tag k="name" v="Sulatunet" />
		<tag k="ssr:stedsnr" v="278952" />
	</node>
	<node id="-65183" lat="62.3973090197" lon="6.15370985314">
		<tag k="alt_name" v="Øygarden" />
		<tag k="fixme" v="consider place=hamlet" />
		<tag k="name" v="Sulødegård" />
		<tag k="place" v="farm" />
		<tag k="ssr:stedsnr" v="278833" />
	</node>
	<node id="-65182" lat="62.4387138926" lon="6.16115554564">
		<tag k="name" v="Sandvika" />
		<tag k="old_name" v="Ænes" />
		<tag k="place" v="farm" />
		<tag k="ssr:stedsnr" v="278829" />
	</node>
	<node id="-65179" lat="62.4225972755" lon="6.36215627193">
		<tag k="fixme" v="consider place=hamlet" />
		<tag k="name" v="Kvasnes" />
		<tag k="place" v="farm" />
		<tag k="ssr:stedsnr" v="272364" />
	</node>
	<node id="-65171" lat="62.413652782" lon="6.22066943971">
		<tag k="name" v="Humlestølen" />
		<tag k="place" v="isolated_dwelling" />
		<tag k="ssr:stedsnr" v="263187" />
	</node>
	<node id="-65169" lat="62.440926338" lon="6.22727546576">
		<tag k="fixme" v="consider place=hamlet" />
		<tag k="name" v="Holen" />
		<tag k="place" v="farm" />
		<tag k="ssr:stedsnr" v="96859" />
	</node>
	<node id="-65168" lat="62.4358138855" lon="6.1923861024">
		<tag k="name" v="Molværsrema" />
		<tag k="place" v="farm" />
		<tag k="ssr:stedsnr" v="96857" />
	</node>
	<node id="-65167" lat="62.4389571301" lon="6.17229356475">
		<tag k="fixme" v="consider place=hamlet" />
		<tag k="name" v="Molværsmyra" />
		<tag k="place" v="farm" />
		<tag k="ssr:stedsnr" v="96807" />
	</node>
	<node id="-65166" lat="62.447623719" lon="6.19209134482">
		<tag k="fixme" v="consider place=hamlet" />
		<tag k="name" v="Hattholmen" />
		<tag k="place" v="farm" />
		<tag k="ssr:stedsnr" v="96923" />
	</node>
	<node id="-65162" lat="62.4063786801" lon="6.10190758198">
		<tag k="fixme" v="consider place=hamlet" />
		<tag k="name" v="Nøringset" />
		<tag k="place" v="farm" />
		<tag k="ssr:stedsnr" v="254878" />
	</node>
	<node id="-65161" lat="62.4365090689" lon="6.10447776593">
		<tag k="name" v="Kalvestad" />
		<tag k="place" v="locality" />
		<tag k="ssr:stedsnr" v="253970" />
	</node>
	<node id="-65158" lat="62.4268611142" lon="6.32225555031">
		<tag k="name" v="Stølane" />
		<tag k="place" v="farm" />
		<tag k="ssr:stedsnr" v="253085" />
	</node>
	<node id="-65155" lat="62.3963462752" lon="6.16652697526">
		<tag k="fixme" v="consider place=hamlet" />
		<tag k="name" v="Sulesund" />
		<tag k="place" v="farm" />
		<tag k="ssr:stedsnr" v="85022" />
	</node>
	<node id="-65151" lat="62.4190305594" lon="6.32750832516">
		<tag k="name" v="Slettereit" />
		<tag k="place" v="quarter" />
		<tag k="ssr:stedsnr" v="231401" />
	</node>
	<node id="-65146" lat="62.4421861107" lon="6.21426110431">
		<tag k="name" v="Erikplassen" />
		<tag k="place" v="quarter" />
		<tag k="ssr:stedsnr" v="221899" />
	</node>
	<node id="-65145" lat="62.4400500034" lon="6.21168333662">
		<tag k="amenity" v="school" />
		<tag k="name" v="Sula ungdomssskule" />
		<tag k="ssr:stedsnr" v="217931" />
	</node>
	<node id="-65635" lat="62.4378862017" lon="6.26263508082">
		<tag k="name" v="Haugen" />
		<tag k="place" v="locality" />
		<tag k="ssr:stedsnr" v="982394" />
	</node>
	<node id="-65633" lat="62.4402435325" lon="6.27423904072">
		<tag k="name" v="Våtmyr" />
		<tag k="place" v="locality" />
		<tag k="ssr:stedsnr" v="982388" />
	</node>
	<node id="-65623" lat="62.4108972201" lon="6.3192666594">
		<tag k="name" v="Høghaugen" />
		<tag k="place" v="farm" />
		<tag k="ssr:stedsnr" v="860131" />
	</node>
	<node id="-65619" lat="62.4366274533" lon="6.22490188218">
		<tag k="fixme" v="consider place=hamlet" />
		<tag k="name" v="Veddegjerdet" />
		<tag k="place" v="farm" />
		<tag k="ssr:stedsnr" v="847685" />
	</node>
	<node id="-65613" lat="62.4486050267" lon="6.21055189755">
		<tag k="name" v="Kråna" />
		<tag k="place" v="locality" />
		<tag k="ssr:stedsnr" v="824831" />
	</node>
	<node id="-65606" lat="62.4408472187" lon="6.19137499267">
		<tag k="alt_name" v="Langevågen" />
		<tag k="name" v="Langevåg" />
		<tag k="place" v="village" />
		<tag k="ssr:stedsnr" v="800956" />
	</node>
	<node id="-65604" lat="62.4266429149" lon="6.35914063628">
		<tag k="fixme" v="consider place=hamlet" />
		<tag k="name" v="Kongshaugen" />
		<tag k="place" v="farm" />
		<tag k="ssr:stedsnr" v="799098" />
	</node>
	<node id="-65602" lat="62.4227444472" lon="6.31043611193">
		<tag k="name" v="Storevalen" />
		<tag k="place" v="farm" />
		<tag k="ssr:stedsnr" v="799091" />
	</node>
	<node id="-65598" lat="62.4267499969" lon="6.27396389062">
		<tag k="name" v="Røbekk" />
		<tag k="place" v="farm" />
		<tag k="ssr:stedsnr" v="786119" />
	</node>
	<node id="-65592" lat="62.4230777797" lon="6.26914166541">
		<tag k="amenity" v="school" />
		<tag k="name" v="Mauseid skole" />
		<tag k="ssr:stedsnr" v="763897" />
	</node>
	<node id="-65577" lat="62.4049194417" lon="6.26961389017">
		<tag k="name" v="Brauta" />
		<tag k="place" v="farm" />
		<tag k="ssr:stedsnr" v="739093" />
	</node>
	<node id="-65576" lat="62.4356749974" lon="6.23457777988">
		<tag k="fixme" v="consider place=hamlet" />
		<tag k="name" v="Vedde" />
		<tag k="place" v="village" />
		<tag k="ssr:stedsnr" v="739032" />
	</node>
	<node id="-65572" lat="62.4277250035" lon="6.3115055482">
		<tag k="amenity" v="school" />
		<tag k="name" v="Solevåg skole" />
		<tag k="ssr:stedsnr" v="642910" />
	</node>
	<node id="-65555" lat="62.4366277804" lon="6.17765833874">
		<tag k="name" v="Haugedammen" />
		<tag k="place" v="quarter" />
		<tag k="ssr:stedsnr" v="595345" />
	</node>
	<node id="-65550" lat="62.4477972181" lon="6.20642777065">
		<tag k="fixme" v="consider place=suburb, village or hamlet" />
		<tag k="name" v="Kipperberg" />
		<tag k="place" v="quarter" />
		<tag k="ssr:stedsnr" v="581788" />
	</node>
	<node id="-65539" lat="62.4170222196" lon="6.23196111043">
		<tag k="name" v="Rørstadstølen" />
		<tag k="place" v="isolated_dwelling" />
		<tag k="ssr:stedsnr" v="566168" />
	</node>
	<node id="-65537" lat="62.4010916657" lon="6.13970832795">
		<tag k="fixme" v="multiple name tags, choose one and add the other to alt_name" />
		<tag k="name" v="Ranten;Sulabakken" />
		<tag k="place" v="farm" />
		<tag k="ssr:stedsnr" v="557881" />
	</node>
</osm>
